[{"town":"今関","koaza":"","lat":35.302627,"lng":140.298044,"zip":"2980126"},{"town":"岩船","koaza":"","lat":35.20755,"lng":140.387774,"zip":"2980011"},{"town":"小池","koaza":"","lat":35.205629,"lng":140.373162,"zip":"2980013"},{"town":"大野","koaza":"","lat":35.25878,"lng":140.293316,"zip":"2980113"},{"town":"大原","koaza":"","lat":35.238127,"lng":140.390061,"zip":"2980004"},{"town":"大原台","koaza":"","lat":35.210648,"lng":140.367124,"zip":"2980014"},{"town":"荻原","koaza":"","lat":35.307609,"lng":140.288975,"zip":"2980131"},{"town":"小沢","koaza":"","lat":35.212107,"lng":140.380864,"zip":"2980012"},{"town":"小高","koaza":"","lat":35.321281,"lng":140.32833,"zip":"2980102"},{"town":"柿和田","koaza":"","lat":35.277153,"lng":140.269031,"zip":"2980115"},{"town":"神置","koaza":"","lat":35.312625,"lng":140.334176,"zip":"2980103"},{"town":"上布施","koaza":"","lat":35.220661,"lng":140.344757,"zip":"2980018"},{"town":"苅谷","koaza":"","lat":35.280026,"lng":140.306172,"zip":"2980123"},{"town":"国府台","koaza":"","lat":35.27506,"lng":140.31454,"zip":"2980112"},{"town":"小又井","koaza":"","lat":35.332056,"lng":140.32018,"zip":"2980101"},{"town":"作田","koaza":"","lat":35.298192,"lng":140.281289,"zip":"2980135"},{"town":"札森","koaza":"","lat":35.274154,"lng":140.276288,"zip":"2980114"},{"town":"佐室","koaza":"","lat":35.261719,"lng":140.347897,"zip":"2980022"},{"town":"沢部","koaza":"","lat":35.25266,"lng":140.349168,"zip":"2980023"},{"town":"島","koaza":"","lat":35.304378,"lng":140.306224,"zip":"2980121"},{"town":"下原","koaza":"","lat":35.278178,"lng":140.338711,"zip":"2980027"},{"town":"下布施","koaza":"","lat":35.229138,"lng":140.344366,"zip":"2980017"},{"town":"釈迦谷","koaza":"","lat":35.234869,"lng":140.366358,"zip":"2980015"},{"town":"正立寺","koaza":"","lat":35.276718,"lng":140.260975,"zip":"2980116"},{"town":"須賀谷","koaza":"","lat":35.327495,"lng":140.308277,"zip":"2980106"},{"town":"高谷","koaza":"","lat":35.271823,"lng":140.350529,"zip":"2980021"},{"town":"長志","koaza":"","lat":35.244752,"lng":140.338238,"zip":"2980024"},{"town":"行川","koaza":"","lat":35.283921,"lng":140.281464,"zip":"2980134"},{"town":"新田","koaza":"","lat":35.254883,"lng":140.365817,"zip":"2980005"},{"town":"新田野","koaza":"","lat":35.276577,"lng":140.329919,"zip":"2980026"},{"town":"新田若山深堀入会地","koaza":"","lat":35.267923,"lng":140.374028,"zip":"2980016"},{"town":"能実","koaza":"","lat":35.316693,"lng":140.311036,"zip":"2980105"},{"town":"日在","koaza":"","lat":35.274736,"lng":140.387308,"zip":"2980002"},{"town":"引田","koaza":"","lat":35.284005,"lng":140.293521,"zip":"2980133"},{"town":"深堀","koaza":"","lat":35.260198,"lng":140.395656,"zip":"2980003"},{"town":"深谷","koaza":"","lat":35.293939,"lng":140.304245,"zip":"2980125"},{"town":"細尾","koaza":"","lat":35.284228,"lng":140.337188,"zip":"2980028"},{"town":"増田","koaza":"","lat":35.286295,"lng":140.271248,"zip":"2980117"},{"town":"松丸","koaza":"","lat":35.309265,"lng":140.322746,"zip":"2980104"},{"town":"万木","koaza":"","lat":35.295166,"lng":140.328625,"zip":"2980111"},{"town":"岬町井沢","koaza":"","lat":35.293542,"lng":140.382662,"zip":"2994615"},{"town":"岬町和泉","koaza":"","lat":35.307884,"lng":140.409176,"zip":"2994611"},{"town":"岬町市野々","koaza":"","lat":35.338608,"lng":140.319027,"zip":"2994506"},{"town":"岬町岩熊","koaza":"","lat":35.326036,"lng":140.33779,"zip":"2994505"},{"town":"岬町榎沢","koaza":"","lat":35.325471,"lng":140.352755,"zip":"2994508"},{"town":"岬町江場土","koaza":"","lat":35.296804,"lng":140.399549,"zip":"2994612"},{"town":"岬町押日","koaza":"","lat":35.305753,"lng":140.369379,"zip":"2994622"},{"town":"岬町鴨根","koaza":"","lat":35.283918,"lng":140.354777,"zip":"2994624"},{"town":"岬町嘉谷","koaza":"","lat":35.291963,"lng":140.342993,"zip":"2994625"},{"town":"岬町桑田","koaza":"","lat":35.303383,"lng":140.347849,"zip":"2994504"},{"town":"岬町椎木","koaza":"","lat":35.324,"lng":140.375094,"zip":"2994501"},{"town":"岬町長者","koaza":"","lat":35.296406,"lng":140.389209,"zip":"2994616"},{"town":"岬町中滝","koaza":"","lat":35.296467,"lng":140.36515,"zip":"2994623"},{"town":"岬町中原","koaza":"","lat":35.317969,"lng":140.39386,"zip":"2994502"},{"town":"岬町東小高","koaza":"","lat":35.277942,"lng":140.364933,"zip":"2994614"},{"town":"岬町東中滝","koaza":"","lat":35.31029,"lng":140.383337,"zip":"2994621"},{"town":"岬町三門","koaza":"","lat":35.281981,"lng":140.382065,"zip":"2994613"},{"town":"岬町谷上","koaza":"","lat":35.335987,"lng":140.362091,"zip":"2994507"},{"town":"八乙女","koaza":"","lat":35.29104,"lng":140.294273,"zip":"2980132"},{"town":"弥正","koaza":"","lat":35.284972,"lng":140.305551,"zip":"2980124"},{"town":"山田","koaza":"","lat":35.243572,"lng":140.311926,"zip":"2980025"},{"town":"楽町","koaza":"","lat":35.292252,"lng":140.317112,"zip":"2980122"},{"town":"若山","koaza":"","lat":35.267059,"lng":140.381212,"zip":"2980001"},{"town":"大原最上台","koaza":"","lat":35.250981,"lng":140.384549,"zip":"2980006"},{"town":"岬町椎木","koaza":"町田","lat":35.318023,"lng":140.382417,"zip":"2994501"},{"town":"日在","koaza":"鶴沼","lat":35.271898,"lng":140.393116,"zip":"2980002"},{"town":"岬町江場土","koaza":"上〆切","lat":35.301769,"lng":140.399376,"zip":"2994612"}]