[{"town":"青菅","koaza":"","lat":35.742274,"lng":140.141572,"zip":"2850852"},{"town":"畔田","koaza":"","lat":35.704864,"lng":140.171515,"zip":"2850835"},{"town":"天辺","koaza":"","lat":35.686693,"lng":140.250038,"zip":"2850064"},{"town":"飯重","koaza":"","lat":35.720154,"lng":140.201204,"zip":"2850832"},{"town":"飯田","koaza":"","lat":35.736057,"lng":140.238019,"zip":"2850032"},{"town":"飯田干拓","koaza":"","lat":35.746252,"lng":140.239256,"zip":"2850000"},{"town":"飯田台","koaza":"","lat":35.741804,"lng":140.237345,"zip":"2850031"},{"town":"飯塚","koaza":"","lat":35.644077,"lng":140.238197,"zip":"2850076"},{"town":"飯野","koaza":"","lat":35.745484,"lng":140.209326,"zip":"2850003"},{"town":"飯野干拓","koaza":"","lat":35.75224,"lng":140.197509,"zip":"2850000"},{"town":"飯野町","koaza":"","lat":35.750367,"lng":140.202937,"zip":"2850009"},{"town":"石川","koaza":"","lat":35.69794,"lng":140.229559,"zip":"2850813"},{"town":"稲荷台一丁目","koaza":"","lat":35.731238,"lng":140.179823,"zip":"2850864"},{"town":"稲荷台二丁目","koaza":"","lat":35.728392,"lng":140.177342,"zip":"2850864"},{"town":"稲荷台三丁目","koaza":"","lat":35.727873,"lng":140.174745,"zip":"2850864"},{"town":"稲荷台四丁目","koaza":"","lat":35.727151,"lng":140.172704,"zip":"2850864"},{"town":"井野","koaza":"","lat":35.721983,"lng":140.142167,"zip":"2850855"},{"town":"井野町","koaza":"","lat":35.716785,"lng":140.134683,"zip":"2850856"},{"town":"岩富","koaza":"","lat":35.660674,"lng":140.245727,"zip":"2850071"},{"town":"岩富町","koaza":"","lat":35.651336,"lng":140.240828,"zip":"2850072"},{"town":"岩名","koaza":"","lat":35.737329,"lng":140.225314,"zip":"2850004"},{"town":"印南","koaza":"","lat":35.721851,"lng":140.20891,"zip":"2850822"},{"town":"臼井","koaza":"","lat":35.730741,"lng":140.19053,"zip":"2850863"},{"town":"臼井田","koaza":"","lat":35.739346,"lng":140.197295,"zip":"2850861"},{"town":"臼井台","koaza":"","lat":35.733217,"lng":140.176593,"zip":"2850866"},{"town":"臼井台干拓","koaza":"","lat":35.746957,"lng":140.174117,"zip":"2850000"},{"town":"臼井田干拓","koaza":"","lat":35.739868,"lng":140.189122,"zip":"2850000"},{"town":"内田","koaza":"","lat":35.641367,"lng":140.228743,"zip":"2850077"},{"town":"内田・飯塚・宮内入会","koaza":"","lat":35.632994,"lng":140.240407,"zip":"2850000"},{"town":"裏新町","koaza":"","lat":35.718801,"lng":140.231922,"zip":"2850024"},{"town":"瓜坪新田","koaza":"","lat":35.681424,"lng":140.280569,"zip":"2850055"},{"town":"江原","koaza":"","lat":35.731304,"lng":140.201774,"zip":"2850824"},{"town":"江原新田","koaza":"","lat":35.729169,"lng":140.200302,"zip":"2850823"},{"town":"江原台一丁目","koaza":"","lat":35.73337,"lng":140.20212,"zip":"2850825"},{"town":"江原台二丁目","koaza":"","lat":35.736447,"lng":140.202821,"zip":"2850825"},{"town":"王子台一丁目","koaza":"","lat":35.730566,"lng":140.183577,"zip":"2850837"},{"town":"王子台二丁目","koaza":"","lat":35.728617,"lng":140.185821,"zip":"2850837"},{"town":"王子台三丁目","koaza":"","lat":35.72704,"lng":140.179829,"zip":"2850837"},{"town":"王子台四丁目","koaza":"","lat":35.724498,"lng":140.181644,"zip":"2850837"},{"town":"王子台五丁目","koaza":"","lat":35.72346,"lng":140.175582,"zip":"2850837"},{"town":"王子台六丁目","koaza":"","lat":35.720324,"lng":140.179553,"zip":"2850837"},{"town":"大崎台一丁目","koaza":"","lat":35.708203,"lng":140.224102,"zip":"2850817"},{"town":"大崎台二丁目","koaza":"","lat":35.705383,"lng":140.225734,"zip":"2850817"},{"town":"大崎台三丁目","koaza":"","lat":35.705038,"lng":140.222236,"zip":"2850817"},{"town":"大崎台四丁目","koaza":"","lat":35.704119,"lng":140.216826,"zip":"2850817"},{"town":"大崎台五丁目","koaza":"","lat":35.700522,"lng":140.215247,"zip":"2850817"},{"town":"大作一丁目","koaza":"","lat":35.672697,"lng":140.243749,"zip":"2850802"},{"town":"大作二丁目","koaza":"","lat":35.676108,"lng":140.247964,"zip":"2850802"},{"town":"大佐倉","koaza":"","lat":35.734231,"lng":140.251925,"zip":"2850041"},{"town":"大佐倉干拓","koaza":"","lat":35.74081,"lng":140.250515,"zip":"2850000"},{"town":"大篠塚","koaza":"","lat":35.681913,"lng":140.211385,"zip":"2850806"},{"town":"大蛇町","koaza":"","lat":35.716204,"lng":140.242458,"zip":"2850043"},{"town":"太田","koaza":"","lat":35.694074,"lng":140.216327,"zip":"2850808"},{"town":"小竹","koaza":"","lat":35.738746,"lng":140.162607,"zip":"2850853"},{"town":"小竹干拓","koaza":"","lat":35.747124,"lng":140.167075,"zip":"2850000"},{"town":"生谷","koaza":"","lat":35.710493,"lng":140.18195,"zip":"2850836"},{"town":"表町一丁目","koaza":"","lat":35.710065,"lng":140.223359,"zip":"2850811"},{"town":"表町二丁目","koaza":"","lat":35.712212,"lng":140.223099,"zip":"2850811"},{"town":"表町三丁目","koaza":"","lat":35.711587,"lng":140.228477,"zip":"2850811"},{"town":"表町四丁目","koaza":"","lat":35.712277,"lng":140.231999,"zip":"2850811"},{"town":"海隣寺町","koaza":"","lat":35.723398,"lng":140.224194,"zip":"2850013"},{"town":"角来","koaza":"","lat":35.733591,"lng":140.210416,"zip":"2850821"},{"town":"鹿島干拓","koaza":"","lat":35.735897,"lng":140.214295,"zip":"2850008"},{"town":"鏑木仲田町","koaza":"","lat":35.714425,"lng":140.232037,"zip":"2850026"},{"town":"鏑木町","koaza":"","lat":35.718416,"lng":140.217355,"zip":"2850025"},{"town":"鏑木町一丁目","koaza":"","lat":35.714209,"lng":140.225286,"zip":"2850025"},{"town":"鏑木町二丁目","koaza":"","lat":35.712741,"lng":140.225572,"zip":"2850025"},{"town":"上勝田","koaza":"","lat":35.696985,"lng":140.280152,"zip":"2850054"},{"town":"上志津","koaza":"","lat":35.712882,"lng":140.144186,"zip":"2850846"},{"town":"上志津原","koaza":"","lat":35.699333,"lng":140.144411,"zip":"2850844"},{"town":"上代","koaza":"","lat":35.71349,"lng":140.253047,"zip":"2850044"},{"town":"上別所","koaza":"","lat":35.674511,"lng":140.264152,"zip":"2850066"},{"town":"木野子","koaza":"","lat":35.685911,"lng":140.235122,"zip":"2850801"},{"town":"神門","koaza":"","lat":35.675781,"lng":140.236782,"zip":"2850803"},{"town":"小篠塚","koaza":"","lat":35.681156,"lng":140.224071,"zip":"2850805"},{"town":"米戸","koaza":"","lat":35.681887,"lng":140.268793,"zip":"2850057"},{"town":"栄町","koaza":"","lat":35.723936,"lng":140.230443,"zip":"2850014"},{"town":"坂戸","koaza":"","lat":35.657304,"lng":140.222982,"zip":"2850078"},{"town":"寒風","koaza":"","lat":35.696933,"lng":140.251771,"zip":"2850062"},{"town":"山王一丁目","koaza":"","lat":35.685629,"lng":140.206007,"zip":"2850807"},{"town":"山王二丁目","koaza":"","lat":35.685851,"lng":140.215282,"zip":"2850807"},{"town":"下勝田","koaza":"","lat":35.693779,"lng":140.266911,"zip":"2850053"},{"town":"下志津","koaza":"","lat":35.707654,"lng":140.162887,"zip":"2850841"},{"town":"下志津原","koaza":"","lat":35.699808,"lng":140.161622,"zip":"2850842"},{"town":"下根","koaza":"","lat":35.734142,"lng":140.221595,"zip":"2850006"},{"town":"下根町","koaza":"","lat":35.734878,"lng":140.222103,"zip":"2850007"},{"town":"樹木町","koaza":"","lat":35.719176,"lng":140.240443,"zip":"2850035"},{"town":"城","koaza":"","lat":35.694414,"lng":140.230969,"zip":"2850815"},{"town":"上座","koaza":"","lat":35.724077,"lng":140.16283,"zip":"2850854"},{"town":"城内町","koaza":"","lat":35.721071,"lng":140.219068,"zip":"2850017"},{"town":"白銀一丁目","koaza":"","lat":35.713863,"lng":140.248761,"zip":"2850045"},{"town":"白銀二丁目","koaza":"","lat":35.712246,"lng":140.243265,"zip":"2850045"},{"town":"白銀三丁目","koaza":"","lat":35.71134,"lng":140.248081,"zip":"2850045"},{"town":"白銀四丁目","koaza":"","lat":35.708945,"lng":140.249499,"zip":"2850045"},{"town":"新臼井田","koaza":"","lat":35.733367,"lng":140.190879,"zip":"2850862"},{"town":"新町","koaza":"","lat":35.719448,"lng":140.230562,"zip":"2850023"},{"town":"千成一丁目","koaza":"","lat":35.723856,"lng":140.239168,"zip":"2850034"},{"town":"千成二丁目","koaza":"","lat":35.724591,"lng":140.241277,"zip":"2850034"},{"town":"千成三丁目","koaza":"","lat":35.723378,"lng":140.243135,"zip":"2850034"},{"town":"染井野一丁目","koaza":"","lat":35.722649,"lng":140.197618,"zip":"2850831"},{"town":"染井野二丁目","koaza":"","lat":35.72469,"lng":140.194081,"zip":"2850831"},{"town":"染井野三丁目","koaza":"","lat":35.72236,"lng":140.190522,"zip":"2850831"},{"town":"染井野四丁目","koaza":"","lat":35.718213,"lng":140.191522,"zip":"2850831"},{"town":"染井野五丁目","koaza":"","lat":35.719901,"lng":140.188995,"zip":"2850831"},{"town":"染井野六丁目","koaza":"","lat":35.714049,"lng":140.18616,"zip":"2850831"},{"town":"染井野七丁目","koaza":"","lat":35.713454,"lng":140.191068,"zip":"2850831"},{"town":"高岡","koaza":"","lat":35.710241,"lng":140.240346,"zip":"2850046"},{"town":"高崎","koaza":"","lat":35.694035,"lng":140.242783,"zip":"2850061"},{"town":"田町","koaza":"","lat":35.72521,"lng":140.222865,"zip":"2850012"},{"town":"土浮","koaza":"","lat":35.754735,"lng":140.212936,"zip":"2850001"},{"town":"土浮干拓","koaza":"","lat":35.757789,"lng":140.215903,"zip":"2850000"},{"town":"坪山新田","koaza":"","lat":35.682818,"lng":140.276182,"zip":"2850056"},{"town":"寺崎","koaza":"","lat":35.710208,"lng":140.21336,"zip":"2850818"},{"town":"寺崎北一丁目","koaza":"","lat":35.710569,"lng":140.219547,"zip":"2850819"},{"town":"寺崎北二丁目","koaza":"","lat":35.709741,"lng":140.217653,"zip":"2850819"},{"town":"寺崎北三丁目","koaza":"","lat":35.712169,"lng":140.219547,"zip":"2850819"},{"town":"寺崎北四丁目","koaza":"","lat":35.712156,"lng":140.216676,"zip":"2850819"},{"town":"寺崎北五丁目","koaza":"","lat":35.714005,"lng":140.219463,"zip":"2850819"},{"town":"寺崎北六丁目","koaza":"","lat":35.715626,"lng":140.21626,"zip":"2850819"},{"town":"藤治台","koaza":"","lat":35.694685,"lng":140.233177,"zip":"2850816"},{"town":"直弥","koaza":"","lat":35.681478,"lng":140.255459,"zip":"2850065"},{"town":"長熊","koaza":"","lat":35.710399,"lng":140.256234,"zip":"2850051"},{"town":"中志津一丁目","koaza":"","lat":35.712025,"lng":140.151613,"zip":"2850843"},{"town":"中志津二丁目","koaza":"","lat":35.712006,"lng":140.154911,"zip":"2850843"},{"town":"中志津三丁目","koaza":"","lat":35.711919,"lng":140.157734,"zip":"2850843"},{"town":"中志津四丁目","koaza":"","lat":35.708871,"lng":140.156992,"zip":"2850843"},{"town":"中志津五丁目","koaza":"","lat":35.707445,"lng":140.154088,"zip":"2850843"},{"town":"中志津六丁目","koaza":"","lat":35.70604,"lng":140.153038,"zip":"2850843"},{"town":"中志津七丁目","koaza":"","lat":35.703564,"lng":140.152627,"zip":"2850843"},{"town":"中尾余町","koaza":"","lat":35.720699,"lng":140.230761,"zip":"2850022"},{"town":"七曲","koaza":"","lat":35.642156,"lng":140.251578,"zip":"2850073"},{"town":"鍋山町","koaza":"","lat":35.723666,"lng":140.235838,"zip":"2850033"},{"town":"並木町","koaza":"","lat":35.722411,"lng":140.226196,"zip":"2850015"},{"town":"西志津一丁目","koaza":"","lat":35.715478,"lng":140.139917,"zip":"2850845"},{"town":"西志津二丁目","koaza":"","lat":35.715072,"lng":140.135459,"zip":"2850845"},{"town":"西志津三丁目","koaza":"","lat":35.712354,"lng":140.135164,"zip":"2850845"},{"town":"西志津四丁目","koaza":"","lat":35.711401,"lng":140.140799,"zip":"2850845"},{"town":"西志津五丁目","koaza":"","lat":35.710152,"lng":140.135673,"zip":"2850845"},{"town":"西志津六丁目","koaza":"","lat":35.707653,"lng":140.136514,"zip":"2850845"},{"town":"西志津七丁目","koaza":"","lat":35.705892,"lng":140.137549,"zip":"2850845"},{"town":"西志津八丁目","koaza":"","lat":35.706867,"lng":140.140158,"zip":"2850845"},{"town":"西御門","koaza":"","lat":35.632061,"lng":140.249826,"zip":"2850074"},{"town":"西ユーカリが丘一丁目","koaza":"","lat":35.736718,"lng":140.144349,"zip":"2850850"},{"town":"西ユーカリが丘二丁目","koaza":"","lat":35.733432,"lng":140.142754,"zip":"2850850"},{"town":"西ユーカリが丘三丁目","koaza":"","lat":35.730568,"lng":140.145454,"zip":"2850850"},{"town":"西ユーカリが丘四丁目","koaza":"","lat":35.728818,"lng":140.14633,"zip":"2850850"},{"town":"西ユーカリが丘五丁目","koaza":"","lat":35.729297,"lng":140.149118,"zip":"2850850"},{"town":"西ユーカリが丘六丁目","koaza":"","lat":35.725893,"lng":140.150808,"zip":"2850850"},{"town":"西ユーカリが丘七丁目","koaza":"","lat":35.727374,"lng":140.152752,"zip":"2850850"},{"town":"萩山新田","koaza":"","lat":35.747734,"lng":140.223485,"zip":"2850002"},{"town":"萩山新田干拓","koaza":"","lat":35.751938,"lng":140.228697,"zip":"2850000"},{"town":"八幡台一丁目","koaza":"","lat":35.742345,"lng":140.173726,"zip":"2850867"},{"town":"八幡台二丁目","koaza":"","lat":35.740831,"lng":140.171818,"zip":"2850867"},{"town":"八幡台三丁目","koaza":"","lat":35.738374,"lng":140.171321,"zip":"2850867"},{"town":"羽鳥","koaza":"","lat":35.709607,"lng":140.201497,"zip":"2850833"},{"town":"春路一丁目","koaza":"","lat":35.699137,"lng":140.232897,"zip":"2850814"},{"town":"春路二丁目","koaza":"","lat":35.701445,"lng":140.235589,"zip":"2850814"},{"town":"藤沢町","koaza":"","lat":35.720336,"lng":140.248876,"zip":"2850036"},{"town":"将門町","koaza":"","lat":35.725847,"lng":140.249656,"zip":"2850042"},{"town":"先崎","koaza":"","lat":35.751491,"lng":140.152635,"zip":"2850851"},{"town":"先崎干拓","koaza":"","lat":35.753557,"lng":140.159477,"zip":"2850000"},{"town":"馬渡","koaza":"","lat":35.66688,"lng":140.220963,"zip":"2850804"},{"town":"南臼井台","koaza":"","lat":35.731624,"lng":140.173236,"zip":"2850865"},{"town":"南ユーカリが丘","koaza":"","lat":35.718599,"lng":140.155164,"zip":"2850859"},{"town":"宮内","koaza":"","lat":35.638607,"lng":140.245212,"zip":"2850075"},{"town":"宮小路町","koaza":"","lat":35.718461,"lng":140.227258,"zip":"2850016"},{"town":"宮ノ台一丁目","koaza":"","lat":35.743998,"lng":140.150385,"zip":"2850857"},{"town":"宮ノ台二丁目","koaza":"","lat":35.743611,"lng":140.146255,"zip":"2850857"},{"town":"宮ノ台三丁目","koaza":"","lat":35.739724,"lng":140.146797,"zip":"2850857"},{"town":"宮ノ台四丁目","koaza":"","lat":35.739818,"lng":140.143373,"zip":"2850857"},{"town":"宮ノ台五丁目","koaza":"","lat":35.735786,"lng":140.146219,"zip":"2850857"},{"town":"宮ノ台六丁目","koaza":"","lat":35.739391,"lng":140.149835,"zip":"2850857"},{"town":"宮前一丁目","koaza":"","lat":35.731154,"lng":140.229334,"zip":"2850005"},{"town":"宮前二丁目","koaza":"","lat":35.734561,"lng":140.229213,"zip":"2850005"},{"town":"宮前三丁目","koaza":"","lat":35.727319,"lng":140.229608,"zip":"2850005"},{"town":"宮本","koaza":"","lat":35.685707,"lng":140.244722,"zip":"2850063"},{"town":"弥勒町","koaza":"","lat":35.718825,"lng":140.236614,"zip":"2850038"},{"town":"六崎","koaza":"","lat":35.701699,"lng":140.225173,"zip":"2850812"},{"town":"最上町","koaza":"","lat":35.721429,"lng":140.233424,"zip":"2850021"},{"town":"本町","koaza":"","lat":35.718836,"lng":140.244359,"zip":"2850037"},{"town":"八木","koaza":"","lat":35.703555,"lng":140.255652,"zip":"2850052"},{"town":"野狐台町","koaza":"","lat":35.716684,"lng":140.238238,"zip":"2850039"},{"town":"山崎","koaza":"","lat":35.728725,"lng":140.223685,"zip":"2850011"},{"town":"ユーカリが丘一丁目","koaza":"","lat":35.733697,"lng":140.158213,"zip":"2850858"},{"town":"ユーカリが丘二丁目","koaza":"","lat":35.729426,"lng":140.155928,"zip":"2850858"},{"town":"ユーカリが丘三丁目","koaza":"","lat":35.725343,"lng":140.156192,"zip":"2850858"},{"town":"ユーカリが丘四丁目","koaza":"","lat":35.724359,"lng":140.154335,"zip":"2850858"},{"town":"ユーカリが丘五丁目","koaza":"","lat":35.739134,"lng":140.155492,"zip":"2850858"},{"town":"ユーカリが丘六丁目","koaza":"","lat":35.729218,"lng":140.152836,"zip":"2850858"},{"town":"ユーカリが丘七丁目","koaza":"","lat":35.731852,"lng":140.148131,"zip":"2850858"},{"town":"吉見","koaza":"","lat":35.70615,"lng":140.189204,"zip":"2850834"}]