[{"town":"朝日","koaza":"","lat":35.675317,"lng":140.336397,"zip":"2891101"},{"town":"砂","koaza":"","lat":35.612289,"lng":140.291448,"zip":"2891121"},{"town":"泉台一丁目","koaza":"","lat":35.679958,"lng":140.295856,"zip":"2891105"},{"town":"泉台二丁目","koaza":"","lat":35.680525,"lng":140.293533,"zip":"2891105"},{"town":"泉台三丁目","koaza":"","lat":35.68334,"lng":140.29693,"zip":"2891105"},{"town":"榎戸","koaza":"","lat":35.685281,"lng":140.300803,"zip":"2891106"},{"town":"大木","koaza":"","lat":35.652183,"lng":140.322833,"zip":"2891111"},{"town":"大関","koaza":"","lat":35.669135,"lng":140.29483,"zip":"2891142"},{"town":"大谷流","koaza":"","lat":35.623321,"lng":140.284284,"zip":"2891134"},{"town":"岡田","koaza":"","lat":35.64355,"lng":140.263455,"zip":"2891137"},{"town":"沖","koaza":"","lat":35.599862,"lng":140.27239,"zip":"2891126"},{"town":"沖渡","koaza":"","lat":35.665976,"lng":140.337138,"zip":"2891102"},{"town":"上砂","koaza":"","lat":35.590717,"lng":140.291245,"zip":"2891125"},{"town":"雁丸","koaza":"","lat":35.687531,"lng":140.316781,"zip":"2891108"},{"town":"木原","koaza":"","lat":35.643018,"lng":140.322982,"zip":"2891112"},{"town":"希望ケ丘","koaza":"","lat":35.643803,"lng":140.2811,"zip":"2891131"},{"town":"小谷流","koaza":"","lat":35.618864,"lng":140.273113,"zip":"2891135"},{"town":"四木","koaza":"","lat":35.609201,"lng":140.306575,"zip":"2891122"},{"town":"勢田","koaza":"","lat":35.635157,"lng":140.282291,"zip":"2891132"},{"town":"滝台","koaza":"","lat":35.589998,"lng":140.311955,"zip":"2891123"},{"town":"中央","koaza":"","lat":35.664075,"lng":140.317968,"zip":"2891116"},{"town":"富山","koaza":"","lat":35.671654,"lng":140.301735,"zip":"2891141"},{"town":"根古谷","koaza":"","lat":35.637577,"lng":140.259033,"zip":"2891136"},{"town":"東吉田","koaza":"","lat":35.641885,"lng":140.303579,"zip":"2891114"},{"town":"文違","koaza":"","lat":35.680793,"lng":140.315109,"zip":"2891104"},{"town":"みどり台一丁目","koaza":"","lat":35.681243,"lng":140.284937,"zip":"2891145"},{"town":"みどり台二丁目","koaza":"","lat":35.683086,"lng":140.284357,"zip":"2891145"},{"town":"用草","koaza":"","lat":35.638429,"lng":140.270227,"zip":"2891138"},{"town":"八街い","koaza":"","lat":35.652882,"lng":140.264403,"zip":"2891143"},{"town":"八街に","koaza":"","lat":35.665072,"lng":140.326918,"zip":"2891103"},{"town":"八街は","koaza":"","lat":35.701601,"lng":140.306522,"zip":"2891107"},{"town":"八街へ","koaza":"","lat":35.631306,"lng":140.316456,"zip":"2891113"},{"town":"八街ほ","koaza":"","lat":35.655458,"lng":140.30883,"zip":"2891115"},{"town":"八街ろ","koaza":"","lat":35.672893,"lng":140.274579,"zip":"2891144"},{"town":"山田台","koaza":"","lat":35.580769,"lng":140.284725,"zip":"2891124"},{"town":"吉倉","koaza":"","lat":35.626311,"lng":140.2979,"zip":"2891133"}]