[{"town":"赤羽根","koaza":"","lat":35.169099,"lng":140.247897,"zip":"2995263"},{"town":"荒川","koaza":"","lat":35.162922,"lng":140.267867,"zip":"2995273"},{"town":"市野川","koaza":"","lat":35.225325,"lng":140.294043,"zip":"2995202"},{"town":"市野郷","koaza":"","lat":35.232037,"lng":140.278962,"zip":"2995201"},{"town":"出水","koaza":"","lat":35.152389,"lng":140.317287,"zip":"2995235"},{"town":"上野","koaza":"","lat":35.156861,"lng":140.245797,"zip":"2995266"},{"town":"植野","koaza":"","lat":35.152883,"lng":140.254717,"zip":"2995265"},{"town":"鵜原","koaza":"","lat":35.144096,"lng":140.27612,"zip":"2995243"},{"town":"大楠","koaza":"","lat":35.187379,"lng":140.276666,"zip":"2995217"},{"town":"大沢","koaza":"","lat":35.120611,"lng":140.217371,"zip":"2995256"},{"town":"大森","koaza":"","lat":35.17098,"lng":140.229018,"zip":"2995261"},{"town":"大森上植野入会地","koaza":"","lat":35.162841,"lng":140.211438,"zip":"2995251"},{"town":"興津","koaza":"","lat":35.137776,"lng":140.244582,"zip":"2995245"},{"town":"興津久保山台","koaza":"","lat":35.135235,"lng":140.23065,"zip":"2995246"},{"town":"貝掛","koaza":"","lat":35.172446,"lng":140.264524,"zip":"2995272"},{"town":"勝浦","koaza":"","lat":35.143208,"lng":140.315181,"zip":"2995234"},{"town":"蟹田","koaza":"","lat":35.197004,"lng":140.276863,"zip":"2995212"},{"town":"上植野","koaza":"","lat":35.161366,"lng":140.214512,"zip":"2995252"},{"town":"川津","koaza":"","lat":35.143718,"lng":140.321935,"zip":"2995232"},{"town":"串浜","koaza":"","lat":35.158803,"lng":140.298676,"zip":"2995226"},{"town":"小羽戸","koaza":"","lat":35.183128,"lng":140.257415,"zip":"2995218"},{"town":"小松野","koaza":"","lat":35.197791,"lng":140.268586,"zip":"2995219"},{"town":"佐野","koaza":"","lat":35.228253,"lng":140.26343,"zip":"2995206"},{"town":"沢倉","koaza":"","lat":35.153772,"lng":140.324293,"zip":"2995231"},{"town":"宿戸","koaza":"","lat":35.177649,"lng":140.284692,"zip":"2995216"},{"town":"白井久保","koaza":"","lat":35.192372,"lng":140.288273,"zip":"2995215"},{"town":"白木","koaza":"","lat":35.199199,"lng":140.298821,"zip":"2995214"},{"town":"新官","koaza":"","lat":35.158255,"lng":140.328439,"zip":"2995224"},{"town":"新戸","koaza":"","lat":35.176804,"lng":140.293101,"zip":"2995228"},{"town":"杉戸","koaza":"","lat":35.210409,"lng":140.25677,"zip":"2995205"},{"town":"関谷","koaza":"","lat":35.175338,"lng":140.310104,"zip":"2995222"},{"town":"台宿","koaza":"","lat":35.140244,"lng":140.218794,"zip":"2995254"},{"town":"墨名","koaza":"","lat":35.156406,"lng":140.312628,"zip":"2995225"},{"town":"中倉","koaza":"","lat":35.209725,"lng":140.281716,"zip":"2995204"},{"town":"中里","koaza":"","lat":35.160261,"lng":140.242407,"zip":"2995262"},{"town":"中島","koaza":"","lat":35.158281,"lng":140.255188,"zip":"2995264"},{"town":"中谷","koaza":"","lat":35.17036,"lng":140.296007,"zip":"2995227"},{"town":"名木","koaza":"","lat":35.154628,"lng":140.233833,"zip":"2995253"},{"town":"芳賀","koaza":"","lat":35.202858,"lng":140.291359,"zip":"2995213"},{"town":"花里","koaza":"","lat":35.211266,"lng":140.309304,"zip":"2995203"},{"town":"浜勝浦","koaza":"","lat":35.141719,"lng":140.313225,"zip":"2995233"},{"town":"浜行川","koaza":"","lat":35.12554,"lng":140.232447,"zip":"2995255"},{"town":"平田","koaza":"","lat":35.182276,"lng":140.305127,"zip":"2995221"},{"town":"部原","koaza":"","lat":35.168236,"lng":140.325351,"zip":"2995223"},{"town":"法花","koaza":"","lat":35.17645,"lng":140.247623,"zip":"2995271"},{"town":"松野","koaza":"","lat":35.204887,"lng":140.269137,"zip":"2995211"},{"town":"松部","koaza":"","lat":35.153812,"lng":140.282777,"zip":"2995241"},{"town":"南山田","koaza":"","lat":35.165688,"lng":140.278818,"zip":"2995274"},{"town":"守谷","koaza":"","lat":35.146538,"lng":140.262257,"zip":"2995244"},{"town":"吉尾","koaza":"","lat":35.138209,"lng":140.284682,"zip":"2995242"},{"town":"浜行川","koaza":"台宿組入地","lat":35.135272,"lng":140.21974,"zip":"2995255"},{"town":"植野","koaza":"元宮田","lat":35.153799,"lng":140.252336,"zip":"2995265"}]