[{"town":"安久山","koaza":"","lat":35.751692,"lng":140.518373,"zip":"2892178"},{"town":"飯倉","koaza":"","lat":35.691403,"lng":140.51422,"zip":"2892147"},{"town":"飯倉台","koaza":"","lat":35.689378,"lng":140.519482,"zip":"2892148"},{"town":"飯多香","koaza":"","lat":35.735699,"lng":140.527427,"zip":"2892100"},{"town":"飯高","koaza":"","lat":35.742819,"lng":140.527709,"zip":"2892173"},{"town":"飯塚","koaza":"","lat":35.733518,"lng":140.552629,"zip":"2892106"},{"town":"今泉","koaza":"","lat":35.660033,"lng":140.566672,"zip":"2893182"},{"town":"入山崎","koaza":"","lat":35.729435,"lng":140.508187,"zip":"2892161"},{"town":"内山","koaza":"","lat":35.746742,"lng":140.541827,"zip":"2892171"},{"town":"内山新田","koaza":"","lat":35.738913,"lng":140.533915,"zip":"2892100"},{"town":"生尾","koaza":"","lat":35.709329,"lng":140.544925,"zip":"2892104"},{"town":"大浦","koaza":"","lat":35.725914,"lng":140.534708,"zip":"2892151"},{"town":"大寺","koaza":"","lat":35.746984,"lng":140.560675,"zip":"2892108"},{"town":"大堀","koaza":"","lat":35.742002,"lng":140.508345,"zip":"2892176"},{"town":"大保里","koaza":"","lat":35.739673,"lng":140.503331,"zip":"2892100"},{"town":"荻野","koaza":"","lat":35.695755,"lng":140.600446,"zip":"2892112"},{"town":"小高","koaza":"","lat":35.754523,"lng":140.533408,"zip":"2892179"},{"town":"貝塚","koaza":"","lat":35.692636,"lng":140.505395,"zip":"2892149"},{"town":"加多古","koaza":"","lat":35.73806,"lng":140.512456,"zip":"2892100"},{"town":"片子","koaza":"","lat":35.742184,"lng":140.516569,"zip":"2892175"},{"town":"金原","koaza":"","lat":35.750625,"lng":140.510377,"zip":"2892177"},{"town":"蕪里","koaza":"","lat":35.67204,"lng":140.544366,"zip":"2892133"},{"town":"亀崎","koaza":"","lat":35.703354,"lng":140.503291,"zip":"2892167"},{"town":"栢田","koaza":"","lat":35.640565,"lng":140.553982,"zip":"2893184"},{"town":"川辺","koaza":"","lat":35.659223,"lng":140.553942,"zip":"2893186"},{"town":"川向","koaza":"","lat":35.703312,"lng":140.604974,"zip":"2892111"},{"town":"木積","koaza":"","lat":35.710377,"lng":140.513355,"zip":"2892164"},{"town":"公崎","koaza":"","lat":35.737139,"lng":140.517663,"zip":"2892174"},{"town":"高野","koaza":"","lat":35.679078,"lng":140.529757,"zip":"2892135"},{"town":"新","koaza":"","lat":35.701396,"lng":140.507591,"zip":"2892166"},{"town":"上谷中","koaza":"","lat":35.702749,"lng":140.57199,"zip":"2892114"},{"town":"高","koaza":"","lat":35.681522,"lng":140.560525,"zip":"2892135"},{"town":"田久保","koaza":"","lat":35.702735,"lng":140.512965,"zip":"2892165"},{"town":"椿","koaza":"","lat":35.718242,"lng":140.575633,"zip":"2892102"},{"town":"時曽根","koaza":"","lat":35.677811,"lng":140.517968,"zip":"2892136"},{"town":"富岡","koaza":"","lat":35.706018,"lng":140.523052,"zip":"2892154"},{"town":"長岡","koaza":"","lat":35.728483,"lng":140.524514,"zip":"2892156"},{"town":"長丘","koaza":"","lat":35.731251,"lng":140.522778,"zip":"2892100"},{"town":"中台","koaza":"","lat":35.708071,"lng":140.529077,"zip":"2892153"},{"town":"長谷","koaza":"","lat":35.670098,"lng":140.599416,"zip":"2892123"},{"town":"新堀","koaza":"","lat":35.64731,"lng":140.572402,"zip":"2893183"},{"town":"西小笹","koaza":"","lat":35.683614,"lng":140.582354,"zip":"2892125"},{"town":"城下","koaza":"","lat":35.738795,"lng":140.532494,"zip":"2892172"},{"town":"野手","koaza":"","lat":35.664444,"lng":140.583868,"zip":"2893181"},{"town":"登戸","koaza":"","lat":35.681722,"lng":140.592236,"zip":"2892124"},{"town":"春海","koaza":"","lat":35.730312,"lng":140.585038,"zip":"2892101"},{"town":"東小笹","koaza":"","lat":35.685937,"lng":140.601386,"zip":"2892121"},{"town":"東谷","koaza":"","lat":35.705313,"lng":140.583515,"zip":"2892115"},{"town":"久方","koaza":"","lat":35.712571,"lng":140.505308,"zip":"2892168"},{"town":"平木","koaza":"","lat":35.697625,"lng":140.59051,"zip":"2892113"},{"town":"堀川","koaza":"","lat":35.656634,"lng":140.54039,"zip":"2893185"},{"town":"堀ノ内","koaza":"","lat":35.731371,"lng":140.530725,"zip":"2892100"},{"town":"松山","koaza":"","lat":35.714862,"lng":140.527725,"zip":"2892152"},{"town":"みどり平","koaza":"","lat":35.685434,"lng":140.571535,"zip":"2892131"},{"town":"南神崎","koaza":"","lat":35.720554,"lng":140.51091,"zip":"2892163"},{"town":"南山崎","koaza":"","lat":35.724426,"lng":140.510552,"zip":"2892162"},{"town":"宮本","koaza":"","lat":35.713145,"lng":140.553174,"zip":"2892103"},{"town":"八辺","koaza":"","lat":35.724789,"lng":140.517626,"zip":"2892155"},{"town":"山桑","koaza":"","lat":35.718488,"lng":140.544026,"zip":"2892105"},{"town":"山崎","koaza":"","lat":35.73101,"lng":140.513918,"zip":"2892100"},{"town":"八日市場イ","koaza":"","lat":35.701089,"lng":140.537617,"zip":"2892144"},{"town":"八日市場ニ","koaza":"","lat":35.693412,"lng":140.559342,"zip":"2892142"},{"town":"八日市場ハ","koaza":"","lat":35.702025,"lng":140.56134,"zip":"2892141"},{"town":"八日市場ホ","koaza":"","lat":35.692264,"lng":140.533506,"zip":"2892146"},{"town":"八日市場ロ","koaza":"","lat":35.70307,"lng":140.554465,"zip":"2892143"},{"town":"横須賀","koaza":"","lat":35.685321,"lng":140.54586,"zip":"2892134"},{"town":"吉崎","koaza":"","lat":35.673999,"lng":140.611738,"zip":"2892122"},{"town":"吉田","koaza":"","lat":35.722618,"lng":140.496373,"zip":"2892169"},{"town":"米持","koaza":"","lat":35.734061,"lng":140.568035,"zip":"2892107"},{"town":"若潮町","koaza":"","lat":35.702931,"lng":140.543565,"zip":"2892145"},{"town":"椿","koaza":"分野","lat":35.714032,"lng":140.578892,"zip":"2892102"},{"town":"八日市場ロ","koaza":"横田","lat":35.701848,"lng":140.556007,"zip":"2892143"}]