[{"town":"磯辺一丁目","koaza":"","lat":35.629713,"lng":140.064054,"zip":"2610012"},{"town":"磯辺二丁目","koaza":"","lat":35.625084,"lng":140.056478,"zip":"2610012"},{"town":"磯辺三丁目","koaza":"","lat":35.628518,"lng":140.054908,"zip":"2610012"},{"town":"磯辺四丁目","koaza":"","lat":35.631473,"lng":140.058094,"zip":"2610012"},{"town":"磯辺五丁目","koaza":"","lat":35.634421,"lng":140.059487,"zip":"2610012"},{"town":"磯辺六丁目","koaza":"","lat":35.637074,"lng":140.055526,"zip":"2610012"},{"town":"磯辺七丁目","koaza":"","lat":35.635836,"lng":140.051025,"zip":"2610012"},{"town":"磯辺八丁目","koaza":"","lat":35.631018,"lng":140.049051,"zip":"2610012"},{"town":"稲毛海岸一丁目","koaza":"","lat":35.628424,"lng":140.086161,"zip":"2610005"},{"town":"稲毛海岸二丁目","koaza":"","lat":35.631126,"lng":140.083117,"zip":"2610005"},{"town":"稲毛海岸三丁目","koaza":"","lat":35.633982,"lng":140.080081,"zip":"2610005"},{"town":"稲毛海岸四丁目","koaza":"","lat":35.635973,"lng":140.07759,"zip":"2610005"},{"town":"稲毛海岸五丁目","koaza":"","lat":35.638548,"lng":140.074481,"zip":"2610005"},{"town":"打瀬一丁目","koaza":"","lat":35.641864,"lng":140.049654,"zip":"2610013"},{"town":"打瀬二丁目","koaza":"","lat":35.639354,"lng":140.045367,"zip":"2610013"},{"town":"打瀬三丁目","koaza":"","lat":35.637658,"lng":140.041996,"zip":"2610013"},{"town":"幸町一丁目","koaza":"","lat":35.613101,"lng":140.10007,"zip":"2610001"},{"town":"幸町二丁目","koaza":"","lat":35.621828,"lng":140.091577,"zip":"2610001"},{"town":"新港","koaza":"","lat":35.610844,"lng":140.09264,"zip":"2610002"},{"town":"高洲一丁目","koaza":"","lat":35.629487,"lng":140.078569,"zip":"2610004"},{"town":"高洲二丁目","koaza":"","lat":35.625795,"lng":140.080135,"zip":"2610004"},{"town":"高洲三丁目","koaza":"","lat":35.628206,"lng":140.075668,"zip":"2610004"},{"town":"高洲四丁目","koaza":"","lat":35.631563,"lng":140.071965,"zip":"2610004"},{"town":"高浜一丁目","koaza":"","lat":35.619588,"lng":140.074081,"zip":"2610003"},{"town":"高浜二丁目","koaza":"","lat":35.615931,"lng":140.071621,"zip":"2610003"},{"town":"高浜三丁目","koaza":"","lat":35.620955,"lng":140.065725,"zip":"2610003"},{"town":"高浜四丁目","koaza":"","lat":35.623717,"lng":140.069239,"zip":"2610003"},{"town":"高浜五丁目","koaza":"","lat":35.626697,"lng":140.065747,"zip":"2610003"},{"town":"高浜六丁目","koaza":"","lat":35.623941,"lng":140.062228,"zip":"2610003"},{"town":"高浜七丁目","koaza":"","lat":35.617121,"lng":140.064069,"zip":"2610003"},{"town":"豊砂","koaza":"","lat":35.651884,"lng":140.026664,"zip":"2610024"},{"town":"中瀬一丁目","koaza":"","lat":35.652999,"lng":140.040496,"zip":"2610023"},{"town":"中瀬二丁目","koaza":"","lat":35.648503,"lng":140.035705,"zip":"2610023"},{"town":"浜田一丁目","koaza":"","lat":35.65898,"lng":140.038522,"zip":"2610025"},{"town":"浜田二丁目","koaza":"","lat":35.656485,"lng":140.033299,"zip":"2610025"},{"town":"ひび野一丁目","koaza":"","lat":35.649727,"lng":140.044528,"zip":"2610021"},{"town":"ひび野二丁目","koaza":"","lat":35.645523,"lng":140.041256,"zip":"2610021"},{"town":"幕張西一丁目","koaza":"","lat":35.666822,"lng":140.03446,"zip":"2610026"},{"town":"幕張西二丁目","koaza":"","lat":35.665078,"lng":140.03742,"zip":"2610026"},{"town":"幕張西三丁目","koaza":"","lat":35.663374,"lng":140.04063,"zip":"2610026"},{"town":"幕張西四丁目","koaza":"","lat":35.661233,"lng":140.042913,"zip":"2610026"},{"town":"幕張西五丁目","koaza":"","lat":35.661979,"lng":140.035638,"zip":"2610026"},{"town":"幕張西六丁目","koaza":"","lat":35.662613,"lng":140.031466,"zip":"2610026"},{"town":"真砂一丁目","koaza":"","lat":35.633851,"lng":140.068751,"zip":"2610011"},{"town":"真砂二丁目","koaza":"","lat":35.640716,"lng":140.068627,"zip":"2610011"},{"town":"真砂三丁目","koaza":"","lat":35.636442,"lng":140.063968,"zip":"2610011"},{"town":"真砂四丁目","koaza":"","lat":35.640692,"lng":140.058091,"zip":"2610011"},{"town":"真砂五丁目","koaza":"","lat":35.645365,"lng":140.062902,"zip":"2610011"},{"town":"美浜","koaza":"","lat":35.639842,"lng":140.036602,"zip":"2610022"},{"town":"若葉一丁目","koaza":"","lat":35.656225,"lng":140.043858,"zip":"2610014"},{"town":"若葉二丁目","koaza":"","lat":35.65222,"lng":140.050917,"zip":"2610014"},{"town":"若葉三丁目","koaza":"","lat":35.646524,"lng":140.052114,"zip":"2610014"}]