[{"town":"愛生町","koaza":"","lat":35.653386,"lng":140.1345,"zip":"2640031"},{"town":"五十土町","koaza":"","lat":35.57982,"lng":140.216771,"zip":"2650063"},{"town":"和泉町","koaza":"","lat":35.57746,"lng":140.251817,"zip":"2650052"},{"town":"大井戸町","koaza":"","lat":35.628542,"lng":140.214336,"zip":"2650075"},{"town":"大草町","koaza":"","lat":35.610372,"lng":140.190813,"zip":"2640011"},{"town":"太田町","koaza":"","lat":35.607491,"lng":140.176235,"zip":"2640013"},{"town":"大広町","koaza":"","lat":35.577516,"lng":140.207637,"zip":"2650064"},{"town":"大宮台一丁目","koaza":"","lat":35.594,"lng":140.184359,"zip":"2640015"},{"town":"大宮台二丁目","koaza":"","lat":35.589974,"lng":140.183717,"zip":"2640015"},{"town":"大宮台三丁目","koaza":"","lat":35.589295,"lng":140.180255,"zip":"2640015"},{"town":"大宮台四丁目","koaza":"","lat":35.591776,"lng":140.181013,"zip":"2640015"},{"town":"大宮台五丁目","koaza":"","lat":35.593863,"lng":140.178587,"zip":"2640015"},{"town":"大宮台六丁目","koaza":"","lat":35.594769,"lng":140.181665,"zip":"2640015"},{"town":"大宮台七丁目","koaza":"","lat":35.598705,"lng":140.182565,"zip":"2640015"},{"town":"大宮町","koaza":"","lat":35.594311,"lng":140.170521,"zip":"2640016"},{"town":"小倉台一丁目","koaza":"","lat":35.628562,"lng":140.169397,"zip":"2640006"},{"town":"小倉台二丁目","koaza":"","lat":35.625517,"lng":140.170951,"zip":"2640006"},{"town":"小倉台三丁目","koaza":"","lat":35.626758,"lng":140.174295,"zip":"2640006"},{"town":"小倉台四丁目","koaza":"","lat":35.629717,"lng":140.171433,"zip":"2640006"},{"town":"小倉台五丁目","koaza":"","lat":35.630377,"lng":140.17426,"zip":"2640006"},{"town":"小倉台六丁目","koaza":"","lat":35.630095,"lng":140.17853,"zip":"2640006"},{"town":"小倉台七丁目","koaza":"","lat":35.627149,"lng":140.178524,"zip":"2640006"},{"town":"小倉町","koaza":"","lat":35.628047,"lng":140.167055,"zip":"2640007"},{"town":"御成台一丁目","koaza":"","lat":35.626693,"lng":140.194365,"zip":"2650077"},{"town":"御成台二丁目","koaza":"","lat":35.631247,"lng":140.197021,"zip":"2650077"},{"town":"御成台三丁目","koaza":"","lat":35.635123,"lng":140.201595,"zip":"2650077"},{"town":"御成台四丁目","koaza":"","lat":35.637166,"lng":140.203966,"zip":"2650077"},{"town":"小間子町","koaza":"","lat":35.616718,"lng":140.258343,"zip":"2650046"},{"town":"貝塚一丁目","koaza":"","lat":35.625176,"lng":140.152598,"zip":"2640020"},{"town":"貝塚二丁目","koaza":"","lat":35.631045,"lng":140.151752,"zip":"2640020"},{"town":"貝塚町","koaza":"","lat":35.622136,"lng":140.146966,"zip":"2640023"},{"town":"加曽利町","koaza":"","lat":35.613823,"lng":140.162961,"zip":"2640017"},{"town":"金親町","koaza":"","lat":35.619492,"lng":140.205292,"zip":"2640001"},{"town":"上泉町","koaza":"","lat":35.623951,"lng":140.237385,"zip":"2650045"},{"town":"川井町","koaza":"","lat":35.587013,"lng":140.219072,"zip":"2650062"},{"town":"北大宮台","koaza":"","lat":35.599467,"lng":140.17962,"zip":"2640014"},{"town":"北谷津町","koaza":"","lat":35.607637,"lng":140.201247,"zip":"2650067"},{"town":"古泉町","koaza":"","lat":35.593354,"lng":140.242811,"zip":"2650042"},{"town":"御殿町","koaza":"","lat":35.611614,"lng":140.21509,"zip":"2650074"},{"town":"坂月町","koaza":"","lat":35.612698,"lng":140.179318,"zip":"2640012"},{"town":"桜木一丁目","koaza":"","lat":35.619555,"lng":140.156091,"zip":"2640028"},{"town":"桜木二丁目","koaza":"","lat":35.620848,"lng":140.16332,"zip":"2640028"},{"town":"桜木三丁目","koaza":"","lat":35.623348,"lng":140.16031,"zip":"2640028"},{"town":"桜木四丁目","koaza":"","lat":35.624427,"lng":140.156652,"zip":"2640028"},{"town":"桜木五丁目","koaza":"","lat":35.624894,"lng":140.154775,"zip":"2640028"},{"town":"桜木六丁目","koaza":"","lat":35.629953,"lng":140.156187,"zip":"2640028"},{"town":"桜木七丁目","koaza":"","lat":35.629077,"lng":140.160038,"zip":"2640028"},{"town":"桜木八丁目","koaza":"","lat":35.626496,"lng":140.162667,"zip":"2640028"},{"town":"桜木北一丁目","koaza":"","lat":35.630354,"lng":140.164353,"zip":"2640029"},{"town":"桜木北二丁目","koaza":"","lat":35.634764,"lng":140.156782,"zip":"2640029"},{"town":"桜木北三丁目","koaza":"","lat":35.636754,"lng":140.159682,"zip":"2640029"},{"town":"更科町","koaza":"","lat":35.617484,"lng":140.228572,"zip":"2650073"},{"town":"佐和町","koaza":"","lat":35.584932,"lng":140.206763,"zip":"2650065"},{"town":"下泉町","koaza":"","lat":35.630164,"lng":140.228055,"zip":"2650044"},{"town":"下田町","koaza":"","lat":35.634334,"lng":140.211324,"zip":"2650076"},{"town":"高品町","koaza":"","lat":35.625841,"lng":140.137815,"zip":"2640024"},{"town":"高根町","koaza":"","lat":35.593785,"lng":140.214519,"zip":"2650061"},{"town":"多部田町","koaza":"","lat":35.597429,"lng":140.194719,"zip":"2650066"},{"town":"旦谷町","koaza":"","lat":35.650394,"lng":140.21068,"zip":"2650071"},{"town":"千城台北一丁目","koaza":"","lat":35.627671,"lng":140.183733,"zip":"2640005"},{"town":"千城台北二丁目","koaza":"","lat":35.626021,"lng":140.187683,"zip":"2640005"},{"town":"千城台北三丁目","koaza":"","lat":35.623578,"lng":140.190272,"zip":"2640005"},{"town":"千城台北四丁目","koaza":"","lat":35.625271,"lng":140.192802,"zip":"2640005"},{"town":"千城台西一丁目","koaza":"","lat":35.624848,"lng":140.182857,"zip":"2640004"},{"town":"千城台西二丁目","koaza":"","lat":35.620602,"lng":140.184724,"zip":"2640004"},{"town":"千城台西三丁目","koaza":"","lat":35.620379,"lng":140.181036,"zip":"2640004"},{"town":"千城台東一丁目","koaza":"","lat":35.62218,"lng":140.192163,"zip":"2640002"},{"town":"千城台東二丁目","koaza":"","lat":35.621132,"lng":140.195273,"zip":"2640002"},{"town":"千城台東三丁目","koaza":"","lat":35.619305,"lng":140.197745,"zip":"2640002"},{"town":"千城台東四丁目","koaza":"","lat":35.61669,"lng":140.198812,"zip":"2640002"},{"town":"千城台南一丁目","koaza":"","lat":35.618607,"lng":140.19018,"zip":"2640003"},{"town":"千城台南二丁目","koaza":"","lat":35.617969,"lng":140.186887,"zip":"2640003"},{"town":"千城台南三丁目","koaza":"","lat":35.615879,"lng":140.188193,"zip":"2640003"},{"town":"千城台南四丁目","koaza":"","lat":35.613413,"lng":140.191149,"zip":"2640003"},{"town":"都賀一丁目","koaza":"","lat":35.631053,"lng":140.145549,"zip":"2640025"},{"town":"都賀二丁目","koaza":"","lat":35.632354,"lng":140.148005,"zip":"2640025"},{"town":"都賀三丁目","koaza":"","lat":35.636029,"lng":140.151016,"zip":"2640025"},{"town":"都賀四丁目","koaza":"","lat":35.634454,"lng":140.153587,"zip":"2640025"},{"town":"都賀五丁目","koaza":"","lat":35.638538,"lng":140.155281,"zip":"2640025"},{"town":"都賀の台一丁目","koaza":"","lat":35.640074,"lng":140.14254,"zip":"2640033"},{"town":"都賀の台二丁目","koaza":"","lat":35.644319,"lng":140.141658,"zip":"2640033"},{"town":"都賀の台三丁目","koaza":"","lat":35.644476,"lng":140.144358,"zip":"2640033"},{"town":"都賀の台四丁目","koaza":"","lat":35.641783,"lng":140.145538,"zip":"2640033"},{"town":"殿台町","koaza":"","lat":35.635037,"lng":140.126014,"zip":"2640036"},{"town":"富田町","koaza":"","lat":35.604316,"lng":140.248894,"zip":"2650041"},{"town":"中田町","koaza":"","lat":35.601604,"lng":140.225681,"zip":"2650043"},{"town":"中野町","koaza":"","lat":35.578378,"lng":140.271668,"zip":"2650051"},{"town":"西都賀一丁目","koaza":"","lat":35.634904,"lng":140.14571,"zip":"2640026"},{"town":"西都賀二丁目","koaza":"","lat":35.63886,"lng":140.146419,"zip":"2640026"},{"town":"西都賀三丁目","koaza":"","lat":35.637549,"lng":140.149203,"zip":"2640026"},{"town":"西都賀四丁目","koaza":"","lat":35.640152,"lng":140.151815,"zip":"2640026"},{"town":"西都賀五丁目","koaza":"","lat":35.64222,"lng":140.149893,"zip":"2640026"},{"town":"野呂町","koaza":"","lat":35.576372,"lng":140.234761,"zip":"2650053"},{"town":"原町","koaza":"","lat":35.632899,"lng":140.141101,"zip":"2640034"},{"town":"東寺山町","koaza":"","lat":35.630755,"lng":140.133619,"zip":"2640035"},{"town":"みつわ台一丁目","koaza":"","lat":35.633046,"lng":140.13016,"zip":"2640032"},{"town":"みつわ台二丁目","koaza":"","lat":35.637981,"lng":140.132425,"zip":"2640032"},{"town":"みつわ台三丁目","koaza":"","lat":35.641022,"lng":140.136941,"zip":"2640032"},{"town":"みつわ台四丁目","koaza":"","lat":35.6436,"lng":140.13383,"zip":"2640032"},{"town":"みつわ台五丁目","koaza":"","lat":35.646852,"lng":140.13704,"zip":"2640032"},{"town":"源町","koaza":"","lat":35.647416,"lng":140.129068,"zip":"2640037"},{"town":"谷当町","koaza":"","lat":35.644636,"lng":140.214275,"zip":"2650072"},{"town":"若松台一丁目","koaza":"","lat":35.649563,"lng":140.169533,"zip":"2640027"},{"town":"若松台二丁目","koaza":"","lat":35.648867,"lng":140.170947,"zip":"2640027"},{"town":"若松台三丁目","koaza":"","lat":35.651138,"lng":140.176364,"zip":"2640027"},{"town":"若松町","koaza":"","lat":35.644627,"lng":140.164909,"zip":"2640021"}]