[{"town":"朝日ケ丘一丁目","koaza":"","lat":35.657353,"lng":140.091029,"zip":"2620019"},{"town":"朝日ケ丘二丁目","koaza":"","lat":35.658,"lng":140.085977,"zip":"2620019"},{"town":"朝日ケ丘三丁目","koaza":"","lat":35.654954,"lng":140.084533,"zip":"2620019"},{"town":"朝日ケ丘四丁目","koaza":"","lat":35.657367,"lng":140.079641,"zip":"2620019"},{"town":"朝日ケ丘五丁目","koaza":"","lat":35.66078,"lng":140.083117,"zip":"2620019"},{"town":"朝日ケ丘町","koaza":"","lat":35.659133,"lng":140.075088,"zip":"2620017"},{"town":"天戸町","koaza":"","lat":35.679437,"lng":140.090444,"zip":"2620043"},{"town":"内山町","koaza":"","lat":35.694142,"lng":140.131281,"zip":"2620002"},{"town":"宇那谷町","koaza":"","lat":35.685246,"lng":140.13696,"zip":"2620003"},{"town":"柏井一丁目","koaza":"","lat":35.693576,"lng":140.095232,"zip":"2620048"},{"town":"柏井四丁目","koaza":"","lat":35.705941,"lng":140.104767,"zip":"2620048"},{"town":"柏井町","koaza":"","lat":35.693982,"lng":140.106096,"zip":"2620041"},{"town":"検見川町一丁目","koaza":"","lat":35.6532,"lng":140.065796,"zip":"2620023"},{"town":"検見川町二丁目","koaza":"","lat":35.650256,"lng":140.065006,"zip":"2620023"},{"town":"検見川町三丁目","koaza":"","lat":35.648845,"lng":140.068878,"zip":"2620023"},{"town":"検見川町五丁目","koaza":"","lat":35.645666,"lng":140.073886,"zip":"2620023"},{"town":"こてはし台一丁目","koaza":"","lat":35.684807,"lng":140.124751,"zip":"2620005"},{"town":"こてはし台二丁目","koaza":"","lat":35.687193,"lng":140.127066,"zip":"2620005"},{"town":"こてはし台三丁目","koaza":"","lat":35.684901,"lng":140.120327,"zip":"2620005"},{"town":"こてはし台四丁目","koaza":"","lat":35.686755,"lng":140.118485,"zip":"2620005"},{"town":"こてはし台五丁目","koaza":"","lat":35.691324,"lng":140.119116,"zip":"2620005"},{"town":"こてはし台六丁目","koaza":"","lat":35.695556,"lng":140.116821,"zip":"2620005"},{"town":"犢橋町","koaza":"","lat":35.671512,"lng":140.103499,"zip":"2620013"},{"town":"作新台一丁目","koaza":"","lat":35.690921,"lng":140.090681,"zip":"2620045"},{"town":"作新台二丁目","koaza":"","lat":35.69165,"lng":140.087778,"zip":"2620045"},{"town":"作新台三丁目","koaza":"","lat":35.692825,"lng":140.08454,"zip":"2620045"},{"town":"作新台四丁目","koaza":"","lat":35.692032,"lng":140.080462,"zip":"2620045"},{"town":"作新台五丁目","koaza":"","lat":35.691253,"lng":140.082829,"zip":"2620045"},{"town":"作新台六丁目","koaza":"","lat":35.68807,"lng":140.08772,"zip":"2620045"},{"town":"作新台七丁目","koaza":"","lat":35.688236,"lng":140.084143,"zip":"2620045"},{"town":"作新台八丁目","koaza":"","lat":35.685581,"lng":140.086054,"zip":"2620045"},{"town":"さつきが丘一丁目","koaza":"","lat":35.66471,"lng":140.097179,"zip":"2620014"},{"town":"さつきが丘二丁目","koaza":"","lat":35.666536,"lng":140.092733,"zip":"2620014"},{"town":"三角町","koaza":"","lat":35.676193,"lng":140.119632,"zip":"2620011"},{"town":"大日町","koaza":"","lat":35.681758,"lng":140.131839,"zip":"2620004"},{"town":"武石町一丁目","koaza":"","lat":35.668249,"lng":140.064907,"zip":"2620031"},{"town":"武石町二丁目","koaza":"","lat":35.661579,"lng":140.063555,"zip":"2620031"},{"town":"千種町","koaza":"","lat":35.679078,"lng":140.113948,"zip":"2620012"},{"town":"長作台一丁目","koaza":"","lat":35.682049,"lng":140.081176,"zip":"2620047"},{"town":"長作台二丁目","koaza":"","lat":35.684325,"lng":140.08218,"zip":"2620047"},{"town":"長作町","koaza":"","lat":35.680375,"lng":140.076637,"zip":"2620044"},{"town":"浪花町","koaza":"","lat":35.657246,"lng":140.06609,"zip":"2620024"},{"town":"西小中台","koaza":"","lat":35.651875,"lng":140.086981,"zip":"2620016"},{"town":"畑町","koaza":"","lat":35.665988,"lng":140.081175,"zip":"2620018"},{"town":"花島町","koaza":"","lat":35.683415,"lng":140.099391,"zip":"2620042"},{"town":"花園一丁目","koaza":"","lat":35.65278,"lng":140.074943,"zip":"2620025"},{"town":"花園二丁目","koaza":"","lat":35.653519,"lng":140.069857,"zip":"2620025"},{"town":"花園三丁目","koaza":"","lat":35.656769,"lng":140.070277,"zip":"2620025"},{"town":"花園四丁目","koaza":"","lat":35.655876,"lng":140.073337,"zip":"2620025"},{"town":"花園五丁目","koaza":"","lat":35.6545,"lng":140.076114,"zip":"2620025"},{"town":"花園町","koaza":"","lat":35.654927,"lng":140.078421,"zip":"2620021"},{"town":"花見川","koaza":"","lat":35.689349,"lng":140.097052,"zip":"2620046"},{"town":"幕張町一丁目","koaza":"","lat":35.66152,"lng":140.047314,"zip":"2620032"},{"town":"幕張町二丁目","koaza":"","lat":35.66846,"lng":140.052893,"zip":"2620032"},{"town":"幕張町三丁目","koaza":"","lat":35.667704,"lng":140.055182,"zip":"2620032"},{"town":"幕張町四丁目","koaza":"","lat":35.667071,"lng":140.05792,"zip":"2620032"},{"town":"幕張町五丁目","koaza":"","lat":35.655067,"lng":140.056351,"zip":"2620032"},{"town":"幕張町六丁目","koaza":"","lat":35.659551,"lng":140.060504,"zip":"2620032"},{"town":"幕張本郷一丁目","koaza":"","lat":35.671358,"lng":140.038834,"zip":"2620033"},{"town":"幕張本郷二丁目","koaza":"","lat":35.668815,"lng":140.041948,"zip":"2620033"},{"town":"幕張本郷三丁目","koaza":"","lat":35.666659,"lng":140.046105,"zip":"2620033"},{"town":"幕張本郷四丁目","koaza":"","lat":35.668345,"lng":140.049815,"zip":"2620033"},{"town":"幕張本郷五丁目","koaza":"","lat":35.672681,"lng":140.045584,"zip":"2620033"},{"town":"幕張本郷六丁目","koaza":"","lat":35.675203,"lng":140.04283,"zip":"2620033"},{"town":"幕張本郷七丁目","koaza":"","lat":35.674729,"lng":140.048723,"zip":"2620033"},{"town":"瑞穂一丁目","koaza":"","lat":35.665484,"lng":140.069749,"zip":"2620026"},{"town":"瑞穂二丁目","koaza":"","lat":35.662708,"lng":140.071222,"zip":"2620026"},{"town":"瑞穂三丁目","koaza":"","lat":35.661313,"lng":140.069039,"zip":"2620026"},{"town":"南花園一丁目","koaza":"","lat":35.650172,"lng":140.077982,"zip":"2620022"},{"town":"南花園二丁目","koaza":"","lat":35.651626,"lng":140.071599,"zip":"2620022"},{"town":"み春野一丁目","koaza":"","lat":35.691966,"lng":140.137438,"zip":"2620007"},{"town":"み春野二丁目","koaza":"","lat":35.690813,"lng":140.139527,"zip":"2620007"},{"town":"み春野三丁目","koaza":"","lat":35.695407,"lng":140.138075,"zip":"2620007"},{"town":"宮野木台一丁目","koaza":"","lat":35.654079,"lng":140.090495,"zip":"2620015"},{"town":"宮野木台二丁目","koaza":"","lat":35.657246,"lng":140.094039,"zip":"2620015"},{"town":"宮野木台三丁目","koaza":"","lat":35.659477,"lng":140.094237,"zip":"2620015"},{"town":"宮野木台四丁目","koaza":"","lat":35.658517,"lng":140.096891,"zip":"2620015"},{"town":"横戸台","koaza":"","lat":35.698163,"lng":140.113465,"zip":"2620006"},{"town":"横戸町","koaza":"","lat":35.700176,"lng":140.118907,"zip":"2620001"}]