[{"town":"青葉町","koaza":"","lat":35.59724,"lng":140.139851,"zip":"2600852"},{"town":"赤井町","koaza":"","lat":35.571702,"lng":140.161109,"zip":"2600804"},{"town":"旭町","koaza":"","lat":35.608093,"lng":140.134237,"zip":"2600002"},{"town":"市場町","koaza":"","lat":35.604414,"lng":140.123915,"zip":"2600855"},{"town":"稲荷町一丁目","koaza":"","lat":35.590521,"lng":140.124859,"zip":"2600833"},{"town":"稲荷町二丁目","koaza":"","lat":35.58881,"lng":140.125214,"zip":"2600833"},{"town":"稲荷町三丁目","koaza":"","lat":35.586319,"lng":140.126492,"zip":"2600833"},{"town":"亥鼻一丁目","koaza":"","lat":35.60455,"lng":140.13291,"zip":"2600856"},{"town":"亥鼻二丁目","koaza":"","lat":35.602758,"lng":140.128385,"zip":"2600856"},{"town":"亥鼻三丁目","koaza":"","lat":35.602764,"lng":140.130924,"zip":"2600856"},{"town":"今井一丁目","koaza":"","lat":35.583359,"lng":140.128017,"zip":"2600834"},{"town":"今井二丁目","koaza":"","lat":35.580695,"lng":140.129131,"zip":"2600834"},{"town":"今井三丁目","koaza":"","lat":35.577317,"lng":140.130364,"zip":"2600834"},{"town":"今井町","koaza":"","lat":35.574306,"lng":140.141851,"zip":"2600815"},{"town":"院内一丁目","koaza":"","lat":35.612823,"lng":140.123135,"zip":"2600018"},{"town":"院内二丁目","koaza":"","lat":35.612913,"lng":140.125345,"zip":"2600018"},{"town":"鵜の森町","koaza":"","lat":35.57487,"lng":140.139365,"zip":"2600816"},{"town":"大森町","koaza":"","lat":35.580108,"lng":140.1477,"zip":"2600811"},{"town":"生実町","koaza":"","lat":35.564164,"lng":140.148487,"zip":"2600813"},{"town":"春日一丁目","koaza":"","lat":35.619396,"lng":140.103928,"zip":"2600033"},{"town":"春日二丁目","koaza":"","lat":35.621811,"lng":140.101911,"zip":"2600033"},{"town":"葛城一丁目","koaza":"","lat":35.599696,"lng":140.128475,"zip":"2600853"},{"town":"葛城二丁目","koaza":"","lat":35.599713,"lng":140.131772,"zip":"2600853"},{"town":"葛城三丁目","koaza":"","lat":35.599272,"lng":140.134293,"zip":"2600853"},{"town":"要町","koaza":"","lat":35.615555,"lng":140.120945,"zip":"2600017"},{"town":"亀井町","koaza":"","lat":35.60748,"lng":140.129729,"zip":"2600011"},{"town":"亀岡町","koaza":"","lat":35.606447,"lng":140.133321,"zip":"2600857"},{"town":"川崎町","koaza":"","lat":35.578899,"lng":140.094327,"zip":"2600835"},{"town":"川戸町","koaza":"","lat":35.584833,"lng":140.167516,"zip":"2600802"},{"town":"栄町","koaza":"","lat":35.613083,"lng":140.12032,"zip":"2600016"},{"town":"寒川町一丁目","koaza":"","lat":35.596743,"lng":140.120322,"zip":"2600832"},{"town":"寒川町二丁目","koaza":"","lat":35.594259,"lng":140.120348,"zip":"2600832"},{"town":"寒川町三丁目","koaza":"","lat":35.592531,"lng":140.122791,"zip":"2600832"},{"town":"塩田町","koaza":"","lat":35.561776,"lng":140.131666,"zip":"2600823"},{"town":"汐見丘町","koaza":"","lat":35.617068,"lng":140.105819,"zip":"2600034"},{"town":"白旗一丁目","koaza":"","lat":35.578211,"lng":140.137988,"zip":"2600841"},{"town":"白旗二丁目","koaza":"","lat":35.578437,"lng":140.140478,"zip":"2600841"},{"town":"白旗三丁目","koaza":"","lat":35.581265,"lng":140.140466,"zip":"2600841"},{"town":"新宿一丁目","koaza":"","lat":35.605097,"lng":140.113564,"zip":"2600021"},{"town":"新宿二丁目","koaza":"","lat":35.606898,"lng":140.115602,"zip":"2600021"},{"town":"新千葉一丁目","koaza":"","lat":35.612925,"lng":140.113694,"zip":"2600031"},{"town":"新千葉二丁目","koaza":"","lat":35.613775,"lng":140.109739,"zip":"2600031"},{"town":"新千葉三丁目","koaza":"","lat":35.614859,"lng":140.107004,"zip":"2600031"},{"town":"新田町","koaza":"","lat":35.607744,"lng":140.111059,"zip":"2600027"},{"town":"新町","koaza":"","lat":35.610491,"lng":140.11344,"zip":"2600028"},{"town":"神明町","koaza":"","lat":35.60172,"lng":140.116188,"zip":"2600022"},{"town":"末広一丁目","koaza":"","lat":35.597802,"lng":140.124971,"zip":"2600843"},{"town":"末広二丁目","koaza":"","lat":35.596254,"lng":140.125955,"zip":"2600843"},{"town":"末広三丁目","koaza":"","lat":35.593264,"lng":140.127429,"zip":"2600843"},{"town":"末広四丁目","koaza":"","lat":35.590632,"lng":140.128841,"zip":"2600843"},{"town":"末広五丁目","koaza":"","lat":35.587598,"lng":140.130363,"zip":"2600843"},{"town":"蘇我一丁目","koaza":"","lat":35.574789,"lng":140.131093,"zip":"2600822"},{"town":"蘇我二丁目","koaza":"","lat":35.57182,"lng":140.1316,"zip":"2600822"},{"town":"蘇我三丁目","koaza":"","lat":35.567577,"lng":140.132251,"zip":"2600822"},{"town":"蘇我四丁目","koaza":"","lat":35.567448,"lng":140.136028,"zip":"2600822"},{"town":"蘇我五丁目","koaza":"","lat":35.571761,"lng":140.136632,"zip":"2600822"},{"town":"蘇我町二丁目","koaza":"","lat":35.565901,"lng":140.112403,"zip":"2600822"},{"town":"大巌寺町","koaza":"","lat":35.573169,"lng":140.146609,"zip":"2600812"},{"town":"千葉寺町","koaza":"","lat":35.592634,"lng":140.134089,"zip":"2600844"},{"town":"千葉港","koaza":"","lat":35.606828,"lng":140.106301,"zip":"2600026"},{"town":"中央一丁目","koaza":"","lat":35.610696,"lng":140.122276,"zip":"2600013"},{"town":"中央二丁目","koaza":"","lat":35.609702,"lng":140.122455,"zip":"2600013"},{"town":"中央三丁目","koaza":"","lat":35.608616,"lng":140.122626,"zip":"2600013"},{"town":"中央四丁目","koaza":"","lat":35.605997,"lng":140.122443,"zip":"2600013"},{"town":"中央港一丁目","koaza":"","lat":35.601213,"lng":140.099864,"zip":"2600024"},{"town":"中央港二丁目","koaza":"","lat":35.597831,"lng":140.109845,"zip":"2600024"},{"town":"椿森一丁目","koaza":"","lat":35.617998,"lng":140.120098,"zip":"2600042"},{"town":"椿森二丁目","koaza":"","lat":35.620179,"lng":140.120168,"zip":"2600042"},{"town":"椿森三丁目","koaza":"","lat":35.622299,"lng":140.118458,"zip":"2600042"},{"town":"椿森四丁目","koaza":"","lat":35.622876,"lng":140.122011,"zip":"2600042"},{"town":"椿森五丁目","koaza":"","lat":35.618604,"lng":140.123122,"zip":"2600042"},{"town":"椿森六丁目","koaza":"","lat":35.62216,"lng":140.12401,"zip":"2600042"},{"town":"鶴沢町","koaza":"","lat":35.610362,"lng":140.134001,"zip":"2600003"},{"town":"出洲港","koaza":"","lat":35.597164,"lng":140.114401,"zip":"2600023"},{"town":"道場北一丁目","koaza":"","lat":35.61446,"lng":140.128626,"zip":"2600006"},{"town":"道場北二丁目","koaza":"","lat":35.615945,"lng":140.131706,"zip":"2600006"},{"town":"道場北町","koaza":"","lat":35.616196,"lng":140.132725,"zip":"2600000"},{"town":"道場南一丁目","koaza":"","lat":35.612615,"lng":140.129676,"zip":"2600005"},{"town":"道場南二丁目","koaza":"","lat":35.613277,"lng":140.132957,"zip":"2600005"},{"town":"問屋町","koaza":"","lat":35.601869,"lng":140.111131,"zip":"2600025"},{"town":"長洲一丁目","koaza":"","lat":35.60265,"lng":140.12205,"zip":"2600854"},{"town":"長洲二丁目","koaza":"","lat":35.600309,"lng":140.123918,"zip":"2600854"},{"town":"新浜町","koaza":"","lat":35.558146,"lng":140.111071,"zip":"2600826"},{"town":"仁戸名町","koaza":"","lat":35.58699,"lng":140.160035,"zip":"2600801"},{"town":"登戸一丁目","koaza":"","lat":35.609533,"lng":140.108879,"zip":"2600032"},{"town":"登戸二丁目","koaza":"","lat":35.611603,"lng":140.109035,"zip":"2600032"},{"town":"登戸三丁目","koaza":"","lat":35.613626,"lng":140.104315,"zip":"2600032"},{"town":"登戸四丁目","koaza":"","lat":35.617429,"lng":140.101248,"zip":"2600032"},{"town":"登戸五丁目","koaza":"","lat":35.619886,"lng":140.099251,"zip":"2600032"},{"town":"花輪町","koaza":"","lat":35.578324,"lng":140.157398,"zip":"2600803"},{"town":"浜野町","koaza":"","lat":35.554622,"lng":140.13092,"zip":"2600824"},{"town":"東千葉一丁目","koaza":"","lat":35.62259,"lng":140.125274,"zip":"2600041"},{"town":"東千葉二丁目","koaza":"","lat":35.622638,"lng":140.127587,"zip":"2600041"},{"town":"東千葉三丁目","koaza":"","lat":35.627217,"lng":140.12531,"zip":"2600041"},{"town":"東本町","koaza":"","lat":35.609984,"lng":140.129779,"zip":"2600004"},{"town":"富士見一丁目","koaza":"","lat":35.612536,"lng":140.117217,"zip":"2600015"},{"town":"富士見二丁目","koaza":"","lat":35.610278,"lng":140.118092,"zip":"2600015"},{"town":"弁天一丁目","koaza":"","lat":35.615829,"lng":140.11212,"zip":"2600045"},{"town":"弁天二丁目","koaza":"","lat":35.615416,"lng":140.116478,"zip":"2600045"},{"town":"弁天三丁目","koaza":"","lat":35.619084,"lng":140.114843,"zip":"2600045"},{"town":"弁天四丁目","koaza":"","lat":35.622454,"lng":140.114178,"zip":"2600045"},{"town":"星久喜町","koaza":"","lat":35.598189,"lng":140.151523,"zip":"2600808"},{"town":"本千葉町","koaza":"","lat":35.606337,"lng":140.119561,"zip":"2600014"},{"town":"本町一丁目","koaza":"","lat":35.61053,"lng":140.126323,"zip":"2600012"},{"town":"本町二丁目","koaza":"","lat":35.608897,"lng":140.127656,"zip":"2600012"},{"town":"本町三丁目","koaza":"","lat":35.607164,"lng":140.126553,"zip":"2600012"},{"town":"松ケ丘町","koaza":"","lat":35.589848,"lng":140.149572,"zip":"2600807"},{"town":"松波一丁目","koaza":"","lat":35.61758,"lng":140.109578,"zip":"2600044"},{"town":"松波二丁目","koaza":"","lat":35.621012,"lng":140.106922,"zip":"2600044"},{"town":"松波三丁目","koaza":"","lat":35.619822,"lng":140.109488,"zip":"2600044"},{"town":"松波四丁目","koaza":"","lat":35.622543,"lng":140.110535,"zip":"2600044"},{"town":"港町","koaza":"","lat":35.599838,"lng":140.119684,"zip":"2600831"},{"town":"南生実町","koaza":"","lat":35.556516,"lng":140.141894,"zip":"2600814"},{"town":"南町一丁目","koaza":"","lat":35.585135,"lng":140.131665,"zip":"2600842"},{"town":"南町二丁目","koaza":"","lat":35.581679,"lng":140.133496,"zip":"2600842"},{"town":"南町三丁目","koaza":"","lat":35.577594,"lng":140.135086,"zip":"2600842"},{"town":"都町","koaza":"","lat":35.613197,"lng":140.147719,"zip":"2600001"},{"town":"都町一丁目","koaza":"","lat":35.614739,"lng":140.139611,"zip":"2600001"},{"town":"都町二丁目","koaza":"","lat":35.611229,"lng":140.140144,"zip":"2600001"},{"town":"都町三丁目","koaza":"","lat":35.608766,"lng":140.139174,"zip":"2600001"},{"town":"宮崎一丁目","koaza":"","lat":35.586809,"lng":140.136156,"zip":"2600806"},{"town":"宮崎二丁目","koaza":"","lat":35.582541,"lng":140.137154,"zip":"2600806"},{"town":"宮崎町","koaza":"","lat":35.585624,"lng":140.144042,"zip":"2600805"},{"town":"村田町","koaza":"","lat":35.549428,"lng":140.129709,"zip":"2600825"},{"town":"矢作町","koaza":"","lat":35.603647,"lng":140.140932,"zip":"2600851"},{"town":"祐光一丁目","koaza":"","lat":35.616459,"lng":140.126823,"zip":"2600007"},{"town":"祐光二丁目","koaza":"","lat":35.617583,"lng":140.12492,"zip":"2600007"},{"town":"祐光三丁目","koaza":"","lat":35.620422,"lng":140.129488,"zip":"2600007"},{"town":"祐光四丁目","koaza":"","lat":35.618653,"lng":140.129943,"zip":"2600007"},{"town":"若草一丁目","koaza":"","lat":35.575314,"lng":140.135406,"zip":"2600821"},{"town":"都町四丁目","koaza":"","lat":null,"lng":null,"zip":null},{"town":"都町五丁目","koaza":"","lat":null,"lng":null,"zip":null},{"town":"都町六丁目","koaza":"","lat":null,"lng":null,"zip":null},{"town":"都町七丁目","koaza":"","lat":null,"lng":null,"zip":null},{"town":"都町八丁目","koaza":"","lat":null,"lng":null,"zip":null}]