[{"town":"穴川一丁目","koaza":"","lat":35.632655,"lng":140.105346,"zip":"2630024"},{"town":"穴川二丁目","koaza":"","lat":35.63413,"lng":140.107844,"zip":"2630024"},{"town":"穴川三丁目","koaza":"","lat":35.635939,"lng":140.110364,"zip":"2630024"},{"town":"穴川四丁目","koaza":"","lat":35.635962,"lng":140.103167,"zip":"2630024"},{"town":"穴川町","koaza":"","lat":35.638495,"lng":140.108422,"zip":"2630025"},{"town":"あやめ台","koaza":"","lat":35.649049,"lng":140.11339,"zip":"2630052"},{"town":"稲丘町","koaza":"","lat":35.632044,"lng":140.087828,"zip":"2630033"},{"town":"稲毛一丁目","koaza":"","lat":35.635198,"lng":140.083994,"zip":"2630034"},{"town":"稲毛二丁目","koaza":"","lat":35.638034,"lng":140.080052,"zip":"2630034"},{"town":"稲毛三丁目","koaza":"","lat":35.63907,"lng":140.08336,"zip":"2630034"},{"town":"稲毛台町","koaza":"","lat":35.633293,"lng":140.093231,"zip":"2630032"},{"town":"稲毛町四丁目","koaza":"","lat":35.646733,"lng":140.084948,"zip":"2630035"},{"town":"稲毛町五丁目","koaza":"","lat":35.643421,"lng":140.079951,"zip":"2630035"},{"town":"稲毛東一丁目","koaza":"","lat":35.633309,"lng":140.089549,"zip":"2630031"},{"town":"稲毛東二丁目","koaza":"","lat":35.636619,"lng":140.087079,"zip":"2630031"},{"town":"稲毛東三丁目","koaza":"","lat":35.636269,"lng":140.091031,"zip":"2630031"},{"town":"稲毛東四丁目","koaza":"","lat":35.640425,"lng":140.089367,"zip":"2630031"},{"town":"稲毛東五丁目","koaza":"","lat":35.64005,"lng":140.086828,"zip":"2630031"},{"town":"稲毛東六丁目","koaza":"","lat":35.643897,"lng":140.086264,"zip":"2630031"},{"town":"柏台","koaza":"","lat":35.65172,"lng":140.109707,"zip":"2630053"},{"town":"黒砂一丁目","koaza":"","lat":35.625194,"lng":140.095355,"zip":"2630042"},{"town":"黒砂二丁目","koaza":"","lat":35.626213,"lng":140.092942,"zip":"2630042"},{"town":"黒砂三丁目","koaza":"","lat":35.629073,"lng":140.092724,"zip":"2630042"},{"town":"黒砂四丁目","koaza":"","lat":35.629895,"lng":140.090108,"zip":"2630042"},{"town":"黒砂台一丁目","koaza":"","lat":35.628455,"lng":140.096804,"zip":"2630041"},{"town":"黒砂台二丁目","koaza":"","lat":35.630793,"lng":140.09494,"zip":"2630041"},{"town":"黒砂台三丁目","koaza":"","lat":35.630392,"lng":140.098074,"zip":"2630041"},{"town":"小仲台一丁目","koaza":"","lat":35.634339,"lng":140.0965,"zip":"2630043"},{"town":"小仲台二丁目","koaza":"","lat":35.637111,"lng":140.096136,"zip":"2630043"},{"town":"小仲台三丁目","koaza":"","lat":35.637264,"lng":140.099084,"zip":"2630043"},{"town":"小仲台四丁目","koaza":"","lat":35.638084,"lng":140.101835,"zip":"2630043"},{"town":"小仲台五丁目","koaza":"","lat":35.64077,"lng":140.099331,"zip":"2630043"},{"town":"小仲台六丁目","koaza":"","lat":35.640425,"lng":140.093637,"zip":"2630043"},{"town":"小仲台七丁目","koaza":"","lat":35.642791,"lng":140.091535,"zip":"2630043"},{"town":"小仲台八丁目","koaza":"","lat":35.646524,"lng":140.088233,"zip":"2630043"},{"town":"小仲台九丁目","koaza":"","lat":35.645463,"lng":140.098793,"zip":"2630043"},{"town":"小中台町","koaza":"","lat":35.648945,"lng":140.093429,"zip":"2630044"},{"town":"小深町","koaza":"","lat":35.659595,"lng":140.150188,"zip":"2630003"},{"town":"作草部一丁目","koaza":"","lat":35.628254,"lng":140.116731,"zip":"2630015"},{"town":"作草部二丁目","koaza":"","lat":35.626552,"lng":140.117624,"zip":"2630015"},{"town":"作草部町","koaza":"","lat":35.628792,"lng":140.121948,"zip":"2630014"},{"town":"山王町","koaza":"","lat":35.663874,"lng":140.140984,"zip":"2630002"},{"town":"園生町","koaza":"","lat":35.64443,"lng":140.107847,"zip":"2630051"},{"town":"千草台一丁目","koaza":"","lat":35.634442,"lng":140.118593,"zip":"2630013"},{"town":"千草台二丁目","koaza":"","lat":35.635107,"lng":140.12085,"zip":"2630013"},{"town":"天台一丁目","koaza":"","lat":35.631787,"lng":140.114572,"zip":"2630016"},{"town":"天台二丁目","koaza":"","lat":35.63507,"lng":140.113567,"zip":"2630016"},{"town":"天台三丁目","koaza":"","lat":35.632899,"lng":140.117151,"zip":"2630016"},{"town":"天台四丁目","koaza":"","lat":35.636652,"lng":140.115035,"zip":"2630016"},{"town":"天台五丁目","koaza":"","lat":35.639089,"lng":140.11463,"zip":"2630016"},{"town":"天台六丁目","koaza":"","lat":35.641107,"lng":140.116053,"zip":"2630016"},{"town":"天台町","koaza":"","lat":35.647909,"lng":140.12032,"zip":"2630011"},{"town":"轟町一丁目","koaza":"","lat":35.625435,"lng":140.110135,"zip":"2630021"},{"town":"轟町二丁目","koaza":"","lat":35.629508,"lng":140.106583,"zip":"2630021"},{"town":"轟町三丁目","koaza":"","lat":35.62973,"lng":140.109148,"zip":"2630021"},{"town":"轟町四丁目","koaza":"","lat":35.626446,"lng":140.113164,"zip":"2630021"},{"town":"轟町五丁目","koaza":"","lat":35.630313,"lng":140.111797,"zip":"2630021"},{"town":"長沼町","koaza":"","lat":35.659928,"lng":140.118865,"zip":"2630005"},{"town":"長沼原町","koaza":"","lat":35.668516,"lng":140.130186,"zip":"2630001"},{"town":"萩台町","koaza":"","lat":35.642545,"lng":140.122777,"zip":"2630012"},{"town":"緑町一丁目","koaza":"","lat":35.624943,"lng":140.099317,"zip":"2630023"},{"town":"緑町二丁目","koaza":"","lat":35.622807,"lng":140.096793,"zip":"2630023"},{"town":"宮野木町","koaza":"","lat":35.656163,"lng":140.103796,"zip":"2630054"},{"town":"弥生町","koaza":"","lat":35.627767,"lng":140.103344,"zip":"2630022"},{"town":"六方町","koaza":"","lat":35.656988,"lng":140.139464,"zip":"2630004"}]