[{"town":"明石","koaza":"","lat":35.024192,"lng":139.901215,"zip":"2940821"},{"town":"荒川","koaza":"","lat":35.11546,"lng":139.939622,"zip":"2992201"},{"town":"安馬谷","koaza":"","lat":35.007375,"lng":139.961229,"zip":"2992522"},{"town":"池之内","koaza":"","lat":35.027034,"lng":139.909627,"zip":"2940812"},{"town":"石神","koaza":"","lat":35.036369,"lng":139.955676,"zip":"2992515"},{"town":"石堂","koaza":"","lat":35.049667,"lng":139.95695,"zip":"2992503"},{"town":"石堂原","koaza":"","lat":35.060807,"lng":139.965701,"zip":"2992502"},{"town":"市部","koaza":"","lat":35.093992,"lng":139.855267,"zip":"2992226"},{"town":"犬掛","koaza":"","lat":35.07802,"lng":139.903802,"zip":"2992205"},{"town":"井野","koaza":"","lat":35.10748,"lng":139.891569,"zip":"2992212"},{"town":"岩糸","koaza":"","lat":35.027435,"lng":139.967189,"zip":"2992512"},{"town":"海老敷","koaza":"","lat":35.046375,"lng":139.913017,"zip":"2940804"},{"town":"大井","koaza":"","lat":35.093017,"lng":139.975503,"zip":"2992507"},{"town":"大学口","koaza":"","lat":35.03666,"lng":139.905157,"zip":"2940817"},{"town":"小戸","koaza":"","lat":35.042884,"lng":139.971211,"zip":"2992511"},{"town":"上滝田","koaza":"","lat":35.0699,"lng":139.902247,"zip":"2940806"},{"town":"上堀","koaza":"","lat":35.040315,"lng":139.885546,"zip":"2940825"},{"town":"加茂","koaza":"","lat":35.012453,"lng":139.947351,"zip":"2992525"},{"town":"川上","koaza":"","lat":35.106847,"lng":139.90675,"zip":"2992211"},{"town":"川田","koaza":"","lat":35.032472,"lng":139.897218,"zip":"2940814"},{"town":"川谷","koaza":"","lat":35.074143,"lng":139.966571,"zip":"2992504"},{"town":"久枝","koaza":"","lat":35.094156,"lng":139.844258,"zip":"2992216"},{"town":"沓見","koaza":"","lat":35.025275,"lng":139.942108,"zip":"2992526"},{"town":"久保","koaza":"","lat":35.000625,"lng":139.943686,"zip":"2992524"},{"town":"検儀谷","koaza":"","lat":35.104344,"lng":139.855248,"zip":"2992215"},{"town":"合戸","koaza":"","lat":35.093694,"lng":139.872736,"zip":"2992221"},{"town":"小浦","koaza":"","lat":35.075807,"lng":139.835822,"zip":"2992224"},{"town":"下滝田","koaza":"","lat":35.054545,"lng":139.894529,"zip":"2940805"},{"town":"下堀","koaza":"","lat":35.025705,"lng":139.888165,"zip":"2940824"},{"town":"珠師ケ谷","koaza":"","lat":35.056876,"lng":139.969914,"zip":"2992501"},{"town":"白子","koaza":"","lat":35.00474,"lng":139.974167,"zip":"2992521"},{"town":"白浜町乙浜","koaza":"","lat":34.916562,"lng":139.922848,"zip":"2950101"},{"town":"白浜町白浜","koaza":"","lat":34.917845,"lng":139.899971,"zip":"2950102"},{"town":"白浜町滝口","koaza":"","lat":34.913541,"lng":139.865606,"zip":"2950103"},{"town":"白浜町根本","koaza":"","lat":34.908805,"lng":139.838715,"zip":"2950104"},{"town":"千代","koaza":"","lat":35.037233,"lng":139.897657,"zip":"2940815"},{"town":"高崎竹内","koaza":"","lat":35.081529,"lng":139.856429,"zip":"2992400"},{"town":"竹内","koaza":"","lat":35.089298,"lng":139.851678,"zip":"2992225"},{"town":"千倉町宇田","koaza":"","lat":34.990496,"lng":139.939178,"zip":"2950006"},{"town":"千倉町大川","koaza":"","lat":34.934247,"lng":139.933804,"zip":"2950026"},{"town":"千倉町大貫","koaza":"","lat":34.96897,"lng":139.918651,"zip":"2950013"},{"town":"千倉町川合","koaza":"","lat":34.990004,"lng":139.961348,"zip":"2950002"},{"town":"千倉町川口","koaza":"","lat":34.943279,"lng":139.947408,"zip":"2950023"},{"town":"千倉町川戸","koaza":"","lat":34.973489,"lng":139.939375,"zip":"2950014"},{"town":"千倉町北朝夷","koaza":"","lat":34.968369,"lng":139.950749,"zip":"2950011"},{"town":"千倉町久保","koaza":"","lat":34.998567,"lng":139.954015,"zip":"2950001"},{"town":"千倉町忽戸","koaza":"","lat":34.947765,"lng":139.960042,"zip":"2950022"},{"town":"千倉町白子","koaza":"","lat":34.990034,"lng":139.96794,"zip":"2950003"},{"town":"千倉町白間津","koaza":"","lat":34.922744,"lng":139.933144,"zip":"2950027"},{"town":"千倉町瀬戸","koaza":"","lat":34.980333,"lng":139.958929,"zip":"2950004"},{"town":"千倉町千田","koaza":"","lat":34.934259,"lng":139.948581,"zip":"2950025"},{"town":"千倉町平磯","koaza":"","lat":34.938335,"lng":139.95447,"zip":"2950024"},{"town":"千倉町平舘","koaza":"","lat":34.95416,"lng":139.958899,"zip":"2950021"},{"town":"千倉町牧田","koaza":"","lat":34.975749,"lng":139.950915,"zip":"2950005"},{"town":"千倉町南朝夷","koaza":"","lat":34.953335,"lng":139.930563,"zip":"2950012"},{"town":"富浦町青木","koaza":"","lat":35.070314,"lng":139.88795,"zip":"2992416"},{"town":"富浦町居倉","koaza":"","lat":35.075851,"lng":139.870413,"zip":"2992411"},{"town":"富浦町大津","koaza":"","lat":35.068187,"lng":139.871487,"zip":"2992412"},{"town":"富浦町多田良","koaza":"","lat":35.037315,"lng":139.825339,"zip":"2992404"},{"town":"富浦町手取","koaza":"","lat":35.066326,"lng":139.860756,"zip":"2992418"},{"town":"富浦町豊岡","koaza":"","lat":35.054828,"lng":139.839332,"zip":"2992402"},{"town":"富浦町南無谷","koaza":"","lat":35.066234,"lng":139.833788,"zip":"2992401"},{"town":"富浦町丹生","koaza":"","lat":35.06621,"lng":139.852666,"zip":"2992417"},{"town":"富浦町原岡","koaza":"","lat":35.047668,"lng":139.840202,"zip":"2992403"},{"town":"富浦町深名","koaza":"","lat":35.043946,"lng":139.85055,"zip":"2992415"},{"town":"富浦町福澤","koaza":"","lat":35.042507,"lng":139.864067,"zip":"2992414"},{"town":"富浦町宮本","koaza":"","lat":35.053522,"lng":139.870662,"zip":"2992413"},{"town":"中","koaza":"","lat":35.021806,"lng":139.917699,"zip":"2940811"},{"town":"西原","koaza":"","lat":35.029099,"lng":139.958486,"zip":"2992514"},{"town":"二部","koaza":"","lat":35.103237,"lng":139.870986,"zip":"2992214"},{"town":"平塚","koaza":"","lat":35.1073,"lng":139.957586,"zip":"2992202"},{"town":"府中","koaza":"","lat":35.012975,"lng":139.888387,"zip":"2940823"},{"town":"古川","koaza":"","lat":35.017243,"lng":139.964909,"zip":"2992513"},{"town":"平久里下","koaza":"","lat":35.090132,"lng":139.911508,"zip":"2992206"},{"town":"平久里中","koaza":"","lat":35.097563,"lng":139.923573,"zip":"2992204"},{"town":"前田","koaza":"","lat":35.035934,"lng":139.945148,"zip":"2992516"},{"town":"増間","koaza":"","lat":35.072349,"lng":139.928774,"zip":"2940801"},{"town":"丸本郷","koaza":"","lat":35.040155,"lng":139.947697,"zip":"2992517"},{"town":"丸山平塚","koaza":"","lat":35.108875,"lng":139.98877,"zip":"2992508"},{"town":"御子神","koaza":"","lat":35.072325,"lng":139.954007,"zip":"2992506"},{"town":"三坂","koaza":"","lat":35.040222,"lng":139.891355,"zip":"2940826"},{"town":"御庄","koaza":"","lat":35.031266,"lng":139.929682,"zip":"2940803"},{"town":"峰","koaza":"","lat":34.996096,"lng":139.964831,"zip":"2992523"},{"town":"宮下","koaza":"","lat":35.071954,"lng":139.944498,"zip":"2992505"},{"town":"宮谷","koaza":"","lat":35.086834,"lng":139.87546,"zip":"2992222"},{"town":"本織","koaza":"","lat":35.016909,"lng":139.897637,"zip":"2940822"},{"town":"山下","koaza":"","lat":35.041209,"lng":139.904739,"zip":"2940816"},{"town":"山田","koaza":"","lat":35.096546,"lng":139.947563,"zip":"2992203"},{"town":"山名","koaza":"","lat":35.045495,"lng":139.931922,"zip":"2940802"},{"town":"谷向","koaza":"","lat":35.028766,"lng":139.899893,"zip":"2940813"},{"town":"吉沢","koaza":"","lat":35.093127,"lng":139.894136,"zip":"2992213"},{"town":"和田町石堂","koaza":"","lat":35.073851,"lng":139.985795,"zip":"2992728"},{"town":"和田町小川","koaza":"","lat":35.048381,"lng":140.002046,"zip":"2992726"},{"town":"和田町海発","koaza":"","lat":35.018497,"lng":139.981877,"zip":"2992712"},{"town":"和田町上三原","koaza":"","lat":35.071884,"lng":139.990833,"zip":"2992727"},{"town":"和田町黒岩","koaza":"","lat":35.057562,"lng":140.000432,"zip":"2992725"},{"town":"和田町五十蔵","koaza":"","lat":35.086204,"lng":140.014567,"zip":"2992721"},{"town":"和田町小向","koaza":"","lat":35.063741,"lng":140.003071,"zip":"2992724"},{"town":"和田町柴","koaza":"","lat":35.055993,"lng":140.020165,"zip":"2992702"},{"town":"和田町下三原","koaza":"","lat":35.033135,"lng":139.983168,"zip":"2992715"},{"town":"和田町白渚","koaza":"","lat":35.03325,"lng":140.000039,"zip":"2992711"},{"town":"和田町磑森","koaza":"","lat":35.082561,"lng":140.003664,"zip":"2992722"},{"town":"和田町中三原","koaza":"","lat":35.041667,"lng":139.984252,"zip":"2992716"},{"town":"和田町仁我浦","koaza":"","lat":35.043365,"lng":140.016948,"zip":"2992703"},{"town":"和田町沼","koaza":"","lat":35.023985,"lng":139.97501,"zip":"2992714"},{"town":"和田町花園","koaza":"","lat":35.063646,"lng":140.02748,"zip":"2992701"},{"town":"和田町布野","koaza":"","lat":35.079119,"lng":139.998093,"zip":"2992723"},{"town":"和田町松田","koaza":"","lat":35.023296,"lng":139.982454,"zip":"2992713"},{"town":"和田町真浦","koaza":"","lat":35.06138,"lng":140.01406,"zip":"2992705"},{"town":"和田町真浦飛地","koaza":"","lat":35.03554,"lng":139.996775,"zip":"2992400"},{"town":"和田町和田","koaza":"","lat":35.038773,"lng":140.015038,"zip":"2992704"}]