[{"town":"飯積","koaza":"","lat":35.716486,"lng":140.289637,"zip":"2850912"},{"town":"飯積一丁目","koaza":"","lat":35.716679,"lng":140.298182,"zip":"2850912"},{"town":"飯積二丁目","koaza":"","lat":35.713799,"lng":140.293376,"zip":"2850912"},{"town":"伊篠","koaza":"","lat":35.746059,"lng":140.289226,"zip":"2850902"},{"town":"伊篠新田","koaza":"","lat":35.741554,"lng":140.299149,"zip":"2850904"},{"town":"今倉新田","koaza":"","lat":35.743295,"lng":140.302483,"zip":"2850903"},{"town":"印旛沼新田","koaza":"","lat":35.746213,"lng":140.266977,"zip":"2850900"},{"town":"尾上","koaza":"","lat":35.723955,"lng":140.287541,"zip":"2850911"},{"town":"柏木","koaza":"","lat":35.749351,"lng":140.26989,"zip":"2850906"},{"town":"上岩橋","koaza":"","lat":35.738501,"lng":140.282418,"zip":"2850905"},{"town":"上本佐倉","koaza":"","lat":35.719741,"lng":140.259429,"zip":"2850925"},{"town":"上本佐倉一丁目","koaza":"","lat":35.715647,"lng":140.263065,"zip":"2850925"},{"town":"酒々井","koaza":"","lat":35.729469,"lng":140.26631,"zip":"2850927"},{"town":"篠山新田","koaza":"","lat":35.75352,"lng":140.293849,"zip":"2850901"},{"town":"下岩橋","koaza":"","lat":35.752108,"lng":140.277755,"zip":"2850907"},{"town":"下台","koaza":"","lat":35.720767,"lng":140.269942,"zip":"2850924"},{"town":"墨","koaza":"","lat":35.712758,"lng":140.27896,"zip":"2850913"},{"town":"中央台一丁目","koaza":"","lat":35.734517,"lng":140.27486,"zip":"2850922"},{"town":"中央台二丁目","koaza":"","lat":35.730192,"lng":140.273211,"zip":"2850922"},{"town":"中央台三丁目","koaza":"","lat":35.729629,"lng":140.270926,"zip":"2850922"},{"town":"中央台四丁目","koaza":"","lat":35.724929,"lng":140.270151,"zip":"2850922"},{"town":"中川","koaza":"","lat":35.737021,"lng":140.26988,"zip":"2850921"},{"town":"東酒々井一丁目","koaza":"","lat":35.731118,"lng":140.276698,"zip":"2850923"},{"town":"東酒々井二丁目","koaza":"","lat":35.730478,"lng":140.281213,"zip":"2850923"},{"town":"東酒々井三丁目","koaza":"","lat":35.728582,"lng":140.276827,"zip":"2850923"},{"town":"東酒々井四丁目","koaza":"","lat":35.725698,"lng":140.27553,"zip":"2850923"},{"town":"東酒々井五丁目","koaza":"","lat":35.7252,"lng":140.272483,"zip":"2850923"},{"town":"東酒々井六丁目","koaza":"","lat":35.724592,"lng":140.273965,"zip":"2850923"},{"town":"ふじき野一丁目","koaza":"","lat":35.727122,"lng":140.279991,"zip":"2850928"},{"town":"ふじき野二丁目","koaza":"","lat":35.725287,"lng":140.279476,"zip":"2850928"},{"town":"ふじき野三丁目","koaza":"","lat":35.723274,"lng":140.275927,"zip":"2850928"},{"town":"馬橋","koaza":"","lat":35.706974,"lng":140.268636,"zip":"2850914"},{"town":"本佐倉","koaza":"","lat":35.718698,"lng":140.256178,"zip":"2850926"},{"town":"伊篠","koaza":"向山","lat":35.745038,"lng":140.28534,"zip":"2850902"},{"town":"伊篠","koaza":"谷津","lat":35.749701,"lng":140.295097,"zip":"2850902"}]