[{"town":"相嶋","koaza":"","lat":35.844549,"lng":140.144523,"zip":"2701321"},{"town":"安食卜杭","koaza":"","lat":35.834534,"lng":140.222518,"zip":"2702302"},{"town":"泉","koaza":"","lat":35.810893,"lng":140.128976,"zip":"2701353"},{"town":"和泉","koaza":"","lat":35.819921,"lng":140.124192,"zip":"2701351"},{"town":"泉野一丁目","koaza":"","lat":35.804461,"lng":140.123437,"zip":"2701360"},{"town":"泉野二丁目","koaza":"","lat":35.806417,"lng":140.125447,"zip":"2701360"},{"town":"泉野三丁目","koaza":"","lat":35.806326,"lng":140.128964,"zip":"2701360"},{"town":"和泉屋","koaza":"","lat":35.82182,"lng":140.216568,"zip":"2702323"},{"town":"岩戸","koaza":"","lat":35.766949,"lng":140.169334,"zip":"2701616"},{"town":"岩戸干拓","koaza":"","lat":35.75173,"lng":140.167456,"zip":"2701300"},{"town":"内野一丁目","koaza":"","lat":35.796191,"lng":140.127024,"zip":"2701347"},{"town":"内野二丁目","koaza":"","lat":35.794783,"lng":140.122923,"zip":"2701347"},{"town":"内野三丁目","koaza":"","lat":35.789679,"lng":140.124062,"zip":"2701347"},{"town":"浦幡新田","koaza":"","lat":35.812271,"lng":140.103196,"zip":"2701364"},{"town":"浦部","koaza":"","lat":35.823487,"lng":140.104791,"zip":"2701367"},{"town":"浦部村新田","koaza":"","lat":35.830138,"lng":140.102512,"zip":"2701368"},{"town":"大塚一丁目","koaza":"","lat":35.804564,"lng":140.119768,"zip":"2701352"},{"town":"大塚二丁目","koaza":"","lat":35.808285,"lng":140.11787,"zip":"2701352"},{"town":"大塚三丁目","koaza":"","lat":35.812722,"lng":140.121557,"zip":"2701352"},{"town":"大廻","koaza":"","lat":35.781123,"lng":140.182524,"zip":"2701612"},{"town":"大森","koaza":"","lat":35.827121,"lng":140.142079,"zip":"2701327"},{"town":"小倉","koaza":"","lat":35.816579,"lng":140.114629,"zip":"2701358"},{"town":"小倉台一丁目","koaza":"","lat":35.805064,"lng":140.114476,"zip":"2701356"},{"town":"小倉台二丁目","koaza":"","lat":35.803769,"lng":140.110242,"zip":"2701356"},{"town":"小倉台三丁目","koaza":"","lat":35.805828,"lng":140.110421,"zip":"2701356"},{"town":"小倉台四丁目","koaza":"","lat":35.807148,"lng":140.113736,"zip":"2701356"},{"town":"押付","koaza":"","lat":35.819301,"lng":140.211511,"zip":"2702318"},{"town":"鹿黒","koaza":"","lat":35.823127,"lng":140.132986,"zip":"2701363"},{"town":"鹿黒南一丁目","koaza":"","lat":35.814812,"lng":140.129322,"zip":"2701369"},{"town":"鹿黒南二丁目","koaza":"","lat":35.817863,"lng":140.132405,"zip":"2701369"},{"town":"鹿黒南三丁目","koaza":"","lat":35.817454,"lng":140.136927,"zip":"2701369"},{"town":"鹿黒南四丁目","koaza":"","lat":35.813907,"lng":140.137429,"zip":"2701369"},{"town":"鹿黒南五丁目","koaza":"","lat":35.812952,"lng":140.134917,"zip":"2701369"},{"town":"笠神","koaza":"","lat":35.821597,"lng":140.204397,"zip":"2702322"},{"town":"鎌苅","koaza":"","lat":35.777168,"lng":140.194401,"zip":"2701613"},{"town":"鎌苅干拓","koaza":"","lat":35.769402,"lng":140.203493,"zip":"2701300"},{"town":"亀成","koaza":"","lat":35.827786,"lng":140.123505,"zip":"2701362"},{"town":"川向","koaza":"","lat":35.824551,"lng":140.210757,"zip":"2702319"},{"town":"木下","koaza":"","lat":35.839234,"lng":140.155241,"zip":"2701326"},{"town":"木下東一丁目","koaza":"","lat":35.840809,"lng":140.159421,"zip":"2701323"},{"town":"木下東二丁目","koaza":"","lat":35.840779,"lng":140.161943,"zip":"2701323"},{"town":"木下東三丁目","koaza":"","lat":35.841725,"lng":140.166012,"zip":"2701323"},{"town":"木下東四丁目","koaza":"","lat":35.841112,"lng":140.168467,"zip":"2701323"},{"town":"木下南一丁目","koaza":"","lat":35.835926,"lng":140.152684,"zip":"2701328"},{"town":"木下南二丁目","koaza":"","lat":35.834446,"lng":140.152157,"zip":"2701328"},{"town":"木刈一丁目","koaza":"","lat":35.808983,"lng":140.111618,"zip":"2701359"},{"town":"木刈二丁目","koaza":"","lat":35.808282,"lng":140.107851,"zip":"2701359"},{"town":"木刈三丁目","koaza":"","lat":35.811214,"lng":140.10893,"zip":"2701359"},{"town":"木刈四丁目","koaza":"","lat":35.809876,"lng":140.103379,"zip":"2701359"},{"town":"木刈五丁目","koaza":"","lat":35.807656,"lng":140.101706,"zip":"2701359"},{"town":"木刈六丁目","koaza":"","lat":35.806311,"lng":140.105167,"zip":"2701359"},{"town":"木刈七丁目","koaza":"","lat":35.804553,"lng":140.102919,"zip":"2701359"},{"town":"行徳","koaza":"","lat":35.814014,"lng":140.214619,"zip":"2702316"},{"town":"結縁寺","koaza":"","lat":35.78795,"lng":140.140709,"zip":"2701343"},{"town":"高西新田","koaza":"","lat":35.814105,"lng":140.093753,"zip":"2701365"},{"town":"荒野","koaza":"","lat":35.794945,"lng":140.197223,"zip":"2702326"},{"town":"小林","koaza":"","lat":35.829213,"lng":140.187081,"zip":"2701318"},{"town":"小林北一丁目","koaza":"","lat":35.833349,"lng":140.190873,"zip":"2701313"},{"town":"小林北二丁目","koaza":"","lat":35.831723,"lng":140.193369,"zip":"2701313"},{"town":"小林北三丁目","koaza":"","lat":35.831788,"lng":140.196182,"zip":"2701313"},{"town":"小林北四丁目","koaza":"","lat":35.830112,"lng":140.195215,"zip":"2701313"},{"town":"小林北五丁目","koaza":"","lat":35.830974,"lng":140.198005,"zip":"2701313"},{"town":"小林北六丁目","koaza":"","lat":35.829829,"lng":140.199465,"zip":"2701313"},{"town":"小林浅間一丁目","koaza":"","lat":35.827399,"lng":140.192782,"zip":"2701315"},{"town":"小林浅間二丁目","koaza":"","lat":35.825283,"lng":140.191534,"zip":"2701315"},{"town":"小林浅間三丁目","koaza":"","lat":35.826294,"lng":140.193878,"zip":"2701315"},{"town":"小林大門下一丁目","koaza":"","lat":35.822436,"lng":140.188317,"zip":"2701316"},{"town":"小林大門下二丁目","koaza":"","lat":35.822705,"lng":140.183772,"zip":"2701316"},{"town":"小林大門下三丁目","koaza":"","lat":35.821037,"lng":140.185315,"zip":"2701316"},{"town":"酒直卜杭","koaza":"","lat":35.82774,"lng":140.230598,"zip":"2702303"},{"town":"桜野","koaza":"","lat":35.805296,"lng":140.219425,"zip":"2702314"},{"town":"佐野屋","koaza":"","lat":35.823636,"lng":140.211834,"zip":"2702305"},{"town":"下井","koaza":"","lat":35.81419,"lng":140.241342,"zip":"2702313"},{"town":"下曽根","koaza":"","lat":35.816673,"lng":140.215769,"zip":"2702317"},{"town":"将監","koaza":"","lat":35.834388,"lng":140.208438,"zip":"2702301"},{"town":"白幡","koaza":"","lat":35.816702,"lng":140.10317,"zip":"2701366"},{"town":"白幡飛地","koaza":"","lat":35.808016,"lng":140.09927,"zip":"2701300"},{"town":"甚兵衛","koaza":"","lat":35.818329,"lng":140.226065,"zip":"2702304"},{"town":"瀬戸","koaza":"","lat":35.77292,"lng":140.214937,"zip":"2701614"},{"town":"瀬戸干拓","koaza":"","lat":35.76642,"lng":140.215181,"zip":"2701300"},{"town":"浅間前","koaza":"","lat":35.844385,"lng":140.145145,"zip":"2701322"},{"town":"草深","koaza":"","lat":35.792028,"lng":140.156342,"zip":"2701337"},{"town":"惣深新田飛地","koaza":"","lat":35.784253,"lng":140.184432,"zip":"2701300"},{"town":"宗甫","koaza":"","lat":35.814968,"lng":140.165971,"zip":"2701333"},{"town":"高花一丁目","koaza":"","lat":35.797293,"lng":140.135264,"zip":"2701342"},{"town":"高花二丁目","koaza":"","lat":35.798838,"lng":140.139139,"zip":"2701342"},{"town":"高花三丁目","koaza":"","lat":35.798649,"lng":140.142253,"zip":"2701342"},{"town":"高花四丁目","koaza":"","lat":35.794928,"lng":140.140184,"zip":"2701342"},{"town":"高花五丁目","koaza":"","lat":35.794883,"lng":140.13572,"zip":"2701342"},{"town":"高花六丁目","koaza":"","lat":35.791839,"lng":140.143271,"zip":"2701342"},{"town":"滝","koaza":"","lat":35.815392,"lng":140.179607,"zip":"2702328"},{"town":"滝野一丁目","koaza":"","lat":35.811029,"lng":140.178838,"zip":"2702329"},{"town":"滝野二丁目","koaza":"","lat":35.808597,"lng":140.179117,"zip":"2702329"},{"town":"滝野三丁目","koaza":"","lat":35.807355,"lng":140.176858,"zip":"2702329"},{"town":"滝野四丁目","koaza":"","lat":35.80715,"lng":140.172936,"zip":"2702329"},{"town":"滝野五丁目","koaza":"","lat":35.809037,"lng":140.173735,"zip":"2702329"},{"town":"滝野六丁目","koaza":"","lat":35.810796,"lng":140.173589,"zip":"2702329"},{"town":"滝野七丁目","koaza":"","lat":35.812133,"lng":140.175882,"zip":"2702329"},{"town":"竹袋","koaza":"","lat":35.831392,"lng":140.159495,"zip":"2701325"},{"town":"多々羅田","koaza":"","lat":35.793417,"lng":140.129278,"zip":"2701346"},{"town":"立埜原","koaza":"","lat":35.821037,"lng":140.220919,"zip":"2701300"},{"town":"中央北一丁目","koaza":"","lat":35.802802,"lng":140.116048,"zip":"2701350"},{"town":"中央北二丁目","koaza":"","lat":35.800827,"lng":140.11332,"zip":"2701350"},{"town":"中央北三丁目","koaza":"","lat":35.802222,"lng":140.112162,"zip":"2701350"},{"town":"中央南一丁目","koaza":"","lat":35.799583,"lng":140.117414,"zip":"2701340"},{"town":"中央南二丁目","koaza":"","lat":35.798217,"lng":140.11366,"zip":"2701340"},{"town":"造谷","koaza":"","lat":35.789765,"lng":140.179868,"zip":"2701611"},{"town":"つくりや台一丁目","koaza":"","lat":35.796866,"lng":140.179506,"zip":"2701618"},{"town":"つくりや台二丁目","koaza":"","lat":35.793159,"lng":140.183864,"zip":"2701618"},{"town":"角田","koaza":"","lat":35.788743,"lng":140.19267,"zip":"2702325"},{"town":"戸神","koaza":"","lat":35.788246,"lng":140.116351,"zip":"2701348"},{"town":"戸神台一丁目","koaza":"","lat":35.796169,"lng":140.118224,"zip":"2701349"},{"town":"戸神台二丁目","koaza":"","lat":35.795448,"lng":140.115044,"zip":"2701349"},{"town":"中","koaza":"","lat":35.812226,"lng":140.221631,"zip":"2701350"},{"town":"中田切","koaza":"","lat":35.828642,"lng":140.218644,"zip":"2702306"},{"town":"長門屋","koaza":"","lat":35.809994,"lng":140.23285,"zip":"2702312"},{"town":"中根","koaza":"","lat":35.808391,"lng":140.19795,"zip":"2702324"},{"town":"西の原一丁目","koaza":"","lat":35.803481,"lng":140.157488,"zip":"2701334"},{"town":"西の原二丁目","koaza":"","lat":35.800195,"lng":140.155234,"zip":"2701334"},{"town":"西の原三丁目","koaza":"","lat":35.803448,"lng":140.153378,"zip":"2701334"},{"town":"西の原四丁目","koaza":"","lat":35.802957,"lng":140.149901,"zip":"2701334"},{"town":"西の原五丁目","koaza":"","lat":35.804575,"lng":140.143634,"zip":"2701334"},{"town":"萩埜","koaza":"","lat":35.814635,"lng":140.225247,"zip":"2702311"},{"town":"萩原","koaza":"","lat":35.800793,"lng":140.215138,"zip":"2701601"},{"town":"萩原干拓","koaza":"","lat":35.804666,"lng":140.226965,"zip":"2701300"},{"town":"原一丁目","koaza":"","lat":35.803356,"lng":140.164151,"zip":"2701335"},{"town":"原二丁目","koaza":"","lat":35.800598,"lng":140.165627,"zip":"2701335"},{"town":"原三丁目","koaza":"","lat":35.799195,"lng":140.165452,"zip":"2701335"},{"town":"原四丁目","koaza":"","lat":35.8,"lng":140.160923,"zip":"2701335"},{"town":"原山一丁目","koaza":"","lat":35.800855,"lng":140.124669,"zip":"2701341"},{"town":"原山二丁目","koaza":"","lat":35.802274,"lng":140.130172,"zip":"2701341"},{"town":"原山三丁目","koaza":"","lat":35.79832,"lng":140.130726,"zip":"2701341"},{"town":"東の原一丁目","koaza":"","lat":35.800551,"lng":140.173512,"zip":"2701336"},{"town":"東の原二丁目","koaza":"","lat":35.799471,"lng":140.170313,"zip":"2701336"},{"town":"東の原三丁目","koaza":"","lat":35.795146,"lng":140.171347,"zip":"2701336"},{"town":"平岡","koaza":"","lat":35.833883,"lng":140.173267,"zip":"2701324"},{"town":"平賀","koaza":"","lat":35.759791,"lng":140.245624,"zip":"2701605"},{"town":"平賀学園台一丁目","koaza":"","lat":35.747075,"lng":140.255302,"zip":"2701606"},{"town":"平賀学園台二丁目","koaza":"","lat":35.75136,"lng":140.25048,"zip":"2701606"},{"town":"平賀学園台三丁目","koaza":"","lat":35.750447,"lng":140.248114,"zip":"2701606"},{"town":"平賀干拓","koaza":"","lat":35.742309,"lng":140.261778,"zip":"2701300"},{"town":"船尾","koaza":"","lat":35.784263,"lng":140.12809,"zip":"2701345"},{"town":"別所","koaza":"","lat":35.822964,"lng":140.157339,"zip":"2701332"},{"town":"発作","koaza":"","lat":35.838814,"lng":140.119027,"zip":"2701361"},{"town":"舞姫一丁目","koaza":"","lat":35.783901,"lng":140.2028,"zip":"2701608"},{"town":"舞姫二丁目","koaza":"","lat":35.783893,"lng":140.205026,"zip":"2701608"},{"town":"舞姫三丁目","koaza":"","lat":35.784962,"lng":140.207579,"zip":"2701608"},{"town":"牧の木戸一丁目","koaza":"","lat":35.809521,"lng":140.115092,"zip":"2701357"},{"town":"牧の台一丁目","koaza":"","lat":35.815973,"lng":140.16364,"zip":"2701339"},{"town":"牧の台二丁目","koaza":"","lat":35.815744,"lng":140.158992,"zip":"2701339"},{"town":"牧の台三丁目","koaza":"","lat":35.813871,"lng":140.154823,"zip":"2701339"},{"town":"牧の原一丁目","koaza":"","lat":35.805387,"lng":140.16487,"zip":"2701331"},{"town":"牧の原二丁目","koaza":"","lat":35.807,"lng":140.155776,"zip":"2701331"},{"town":"牧の原三丁目","koaza":"","lat":35.809501,"lng":140.158855,"zip":"2701331"},{"town":"牧の原四丁目","koaza":"","lat":35.80837,"lng":140.164546,"zip":"2701331"},{"town":"牧の原五丁目","koaza":"","lat":35.809887,"lng":140.16833,"zip":"2701331"},{"town":"牧の原六丁目","koaza":"","lat":35.803319,"lng":140.173292,"zip":"2701331"},{"town":"松木","koaza":"","lat":35.831072,"lng":140.215674,"zip":"2702307"},{"town":"松崎","koaza":"","lat":35.776929,"lng":140.139594,"zip":"2701344"},{"town":"松崎台一丁目","koaza":"","lat":35.783845,"lng":140.144981,"zip":"2701338"},{"town":"松崎台二丁目","koaza":"","lat":35.780135,"lng":140.146214,"zip":"2701338"},{"town":"松虫","koaza":"","lat":35.789247,"lng":140.215545,"zip":"2701602"},{"town":"美瀬一丁目","koaza":"","lat":35.780994,"lng":140.206194,"zip":"2701607"},{"town":"美瀬二丁目","koaza":"","lat":35.783938,"lng":140.208735,"zip":"2701607"},{"town":"みどり台一丁目","koaza":"","lat":35.797698,"lng":140.185766,"zip":"2702331"},{"town":"みどり台二丁目","koaza":"","lat":35.792672,"lng":140.191232,"zip":"2702331"},{"town":"みどり台三丁目","koaza":"","lat":35.792277,"lng":140.187855,"zip":"2702331"},{"town":"武西","koaza":"","lat":35.788063,"lng":140.106019,"zip":"2701354"},{"town":"武西学園台一丁目","koaza":"","lat":35.797212,"lng":140.110856,"zip":"2701355"},{"town":"武西学園台二丁目","koaza":"","lat":35.794426,"lng":140.108943,"zip":"2701355"},{"town":"武西学園台三丁目","koaza":"","lat":35.793478,"lng":140.112487,"zip":"2701355"},{"town":"本埜小林","koaza":"","lat":35.831772,"lng":140.205188,"zip":"2702308"},{"town":"物木","koaza":"","lat":35.819129,"lng":140.18801,"zip":"2702321"},{"town":"師戸","koaza":"","lat":35.759212,"lng":140.188181,"zip":"2701615"},{"town":"師戸干拓","koaza":"","lat":35.757345,"lng":140.19191,"zip":"2701300"},{"town":"山田","koaza":"","lat":35.769741,"lng":140.234557,"zip":"2701604"},{"town":"山田干拓一区","koaza":"","lat":35.757426,"lng":140.22756,"zip":"2701300"},{"town":"山田干拓二区","koaza":"","lat":35.78207,"lng":140.250495,"zip":"2701300"},{"town":"山平一区","koaza":"","lat":35.774973,"lng":140.254808,"zip":"2701300"},{"town":"山平二区","koaza":"","lat":35.780527,"lng":140.246379,"zip":"2701300"},{"town":"吉田","koaza":"","lat":35.770321,"lng":140.152113,"zip":"2701617"},{"town":"吉高","koaza":"","lat":35.791211,"lng":140.235333,"zip":"2701603"},{"town":"吉高干拓","koaza":"","lat":35.796094,"lng":140.243043,"zip":"2701300"},{"town":"吉田干拓","koaza":"","lat":35.761041,"lng":140.152235,"zip":"2701300"},{"town":"竜腹寺","koaza":"","lat":35.802718,"lng":140.185749,"zip":"2702327"},{"town":"若萩一丁目","koaza":"","lat":35.787243,"lng":140.206314,"zip":"2701609"},{"town":"若萩二丁目","koaza":"","lat":35.790821,"lng":140.205112,"zip":"2701609"},{"town":"若萩三丁目","koaza":"","lat":35.789178,"lng":140.207689,"zip":"2701609"},{"town":"若萩四丁目","koaza":"","lat":35.789349,"lng":140.211162,"zip":"2701609"}]