[{"town":"青柳","koaza":"","lat":35.304641,"lng":140.069245,"zip":"2920454"},{"town":"愛宕","koaza":"","lat":35.293273,"lng":140.051251,"zip":"2920445"},{"town":"泉","koaza":"","lat":35.299995,"lng":139.948129,"zip":"2991112"},{"town":"市宿","koaza":"","lat":35.267714,"lng":139.988276,"zip":"2921153"},{"town":"糸川","koaza":"","lat":35.283771,"lng":140.006651,"zip":"2921145"},{"town":"芋窪","koaza":"","lat":35.281447,"lng":140.054992,"zip":"2920433"},{"town":"岩出","koaza":"","lat":35.305057,"lng":140.042266,"zip":"2920442"},{"town":"植畑","koaza":"","lat":35.238049,"lng":139.99316,"zip":"2921166"},{"town":"内蓑輪","koaza":"","lat":35.323984,"lng":139.932029,"zip":"2991176"},{"town":"内箕輪一丁目","koaza":"","lat":35.324245,"lng":139.928046,"zip":"2991175"},{"town":"浦田","koaza":"","lat":35.274342,"lng":140.084044,"zip":"2920432"},{"town":"大井","koaza":"","lat":35.312682,"lng":139.971843,"zip":"2991103"},{"town":"大井戸","koaza":"","lat":35.294093,"lng":139.990659,"zip":"2921146"},{"town":"大岩","koaza":"","lat":35.222099,"lng":140.021766,"zip":"2921173"},{"town":"大戸見","koaza":"","lat":35.24948,"lng":140.063104,"zip":"2920512"},{"town":"大戸見旧名殿","koaza":"","lat":35.247115,"lng":140.07599,"zip":"2920514"},{"town":"大野台","koaza":"","lat":35.27114,"lng":140.011859,"zip":"2921151"},{"town":"大山野","koaza":"","lat":35.281224,"lng":139.92896,"zip":"2991123"},{"town":"大鷲","koaza":"","lat":35.318278,"lng":139.965091,"zip":"2991102"},{"town":"大鷲新田","koaza":"","lat":35.326172,"lng":139.960056,"zip":"2991101"},{"town":"大和田","koaza":"","lat":35.341429,"lng":139.87563,"zip":"2991146"},{"town":"大和田一丁目","koaza":"","lat":35.338842,"lng":139.879074,"zip":"2991146"},{"town":"大和田二丁目","koaza":"","lat":35.33725,"lng":139.873838,"zip":"2991146"},{"town":"大和田三丁目","koaza":"","lat":35.336982,"lng":139.878567,"zip":"2991146"},{"town":"大和田四丁目","koaza":"","lat":35.335234,"lng":139.880398,"zip":"2991146"},{"town":"大和田五丁目","koaza":"","lat":35.334699,"lng":139.882765,"zip":"2991146"},{"town":"荻作","koaza":"","lat":35.28444,"lng":139.965842,"zip":"2921156"},{"town":"奥米","koaza":"","lat":35.188779,"lng":140.039981,"zip":"2921175"},{"town":"大坂","koaza":"","lat":35.240907,"lng":140.034743,"zip":"2920511"},{"town":"小櫃台","koaza":"","lat":35.32367,"lng":140.097667,"zip":"2920412"},{"town":"折木沢","koaza":"","lat":35.208948,"lng":140.105054,"zip":"2920533"},{"town":"賀恵渕","koaza":"","lat":35.329023,"lng":140.046256,"zip":"2920404"},{"town":"香木原","koaza":"","lat":35.171203,"lng":140.052061,"zip":"2920527"},{"town":"かずさ小糸","koaza":"","lat":35.31619,"lng":139.999622,"zip":"2921149"},{"town":"加名盛","koaza":"","lat":35.229773,"lng":140.055214,"zip":"2920513"},{"town":"鹿野山","koaza":"","lat":35.25251,"lng":139.96059,"zip":"2921155"},{"town":"鎌滝","koaza":"","lat":35.27353,"lng":139.978445,"zip":"2921158"},{"town":"上","koaza":"","lat":35.310224,"lng":139.955229,"zip":"2991107"},{"town":"上新田","koaza":"","lat":35.315827,"lng":140.064702,"zip":"2920452"},{"town":"上湯江","koaza":"","lat":35.312618,"lng":139.893539,"zip":"2991138"},{"town":"釜生","koaza":"","lat":35.228131,"lng":140.116106,"zip":"2920535"},{"town":"川谷","koaza":"","lat":35.289223,"lng":140.107654,"zip":"2920415"},{"town":"北久保一丁目","koaza":"","lat":35.332633,"lng":139.901371,"zip":"2991164"},{"town":"北久保二丁目","koaza":"","lat":35.332115,"lng":139.904599,"zip":"2991164"},{"town":"北子安","koaza":"","lat":35.336616,"lng":139.919333,"zip":"2991161"},{"town":"北子安一丁目","koaza":"","lat":35.329179,"lng":139.909059,"zip":"2991161"},{"town":"北子安二丁目","koaza":"","lat":35.331952,"lng":139.912272,"zip":"2991161"},{"town":"北子安三丁目","koaza":"","lat":35.333521,"lng":139.909801,"zip":"2991161"},{"town":"北子安四丁目","koaza":"","lat":35.334123,"lng":139.914175,"zip":"2991161"},{"town":"北子安五丁目","koaza":"","lat":35.333081,"lng":139.918585,"zip":"2991161"},{"town":"北子安六丁目","koaza":"","lat":35.332299,"lng":139.921629,"zip":"2991161"},{"town":"鬼泪","koaza":"","lat":35.269408,"lng":139.966511,"zip":"2991100"},{"town":"君津","koaza":"","lat":35.360181,"lng":139.868358,"zip":"2991141"},{"town":"君津台一丁目","koaza":"","lat":35.339005,"lng":139.898254,"zip":"2991143"},{"town":"君津台二丁目","koaza":"","lat":35.340183,"lng":139.89484,"zip":"2991143"},{"town":"君津台三丁目","koaza":"","lat":35.343291,"lng":139.895561,"zip":"2991143"},{"town":"行馬","koaza":"","lat":35.30205,"lng":139.98145,"zip":"2921148"},{"town":"黄和田畑","koaza":"","lat":35.210033,"lng":140.139113,"zip":"2920537"},{"town":"草川原","koaza":"","lat":35.219028,"lng":140.094051,"zip":"2920525"},{"town":"久保","koaza":"","lat":35.333726,"lng":139.906171,"zip":"2991152"},{"town":"久保一丁目","koaza":"","lat":35.331091,"lng":139.898583,"zip":"2991152"},{"town":"久保二丁目","koaza":"","lat":35.330732,"lng":139.90143,"zip":"2991152"},{"town":"久保三丁目","koaza":"","lat":35.330258,"lng":139.905951,"zip":"2991152"},{"town":"久保四丁目","koaza":"","lat":35.328934,"lng":139.904598,"zip":"2991152"},{"town":"久保五丁目","koaza":"","lat":35.32747,"lng":139.90686,"zip":"2991152"},{"town":"蔵玉","koaza":"","lat":35.225646,"lng":140.126173,"zip":"2920536"},{"town":"栗坪","koaza":"","lat":35.28257,"lng":140.06518,"zip":"2920435"},{"town":"久留里","koaza":"","lat":35.291525,"lng":140.095908,"zip":"2920422"},{"town":"久留里市場","koaza":"","lat":35.294956,"lng":140.072802,"zip":"2920421"},{"town":"久留里大谷","koaza":"","lat":35.308081,"lng":140.103251,"zip":"2920414"},{"town":"久留里大和田","koaza":"","lat":35.293458,"lng":140.071021,"zip":"2920423"},{"town":"小市部","koaza":"","lat":35.300608,"lng":140.083906,"zip":"2920416"},{"town":"小糸大谷","koaza":"","lat":35.313214,"lng":139.988356,"zip":"2921142"},{"town":"高坂","koaza":"","lat":35.334103,"lng":139.900177,"zip":"2991165"},{"town":"郡","koaza":"","lat":35.297979,"lng":139.909377,"zip":"2991127"},{"town":"郡一丁目","koaza":"","lat":35.308145,"lng":139.915785,"zip":"2991127"},{"town":"郡二丁目","koaza":"","lat":35.305779,"lng":139.915175,"zip":"2991127"},{"town":"郡三丁目","koaza":"","lat":35.305238,"lng":139.917373,"zip":"2991127"},{"town":"小山野","koaza":"","lat":35.291516,"lng":139.91502,"zip":"2991126"},{"town":"坂田","koaza":"","lat":35.342531,"lng":139.885147,"zip":"2991142"},{"town":"坂畑","koaza":"","lat":35.24218,"lng":140.106717,"zip":"2920532"},{"town":"貞元","koaza":"","lat":35.318577,"lng":139.905074,"zip":"2991133"},{"town":"皿引","koaza":"","lat":35.290308,"lng":139.935353,"zip":"2991116"},{"town":"三田","koaza":"","lat":35.334727,"lng":140.071199,"zip":"2920403"},{"town":"新御堂","koaza":"","lat":35.307214,"lng":139.903176,"zip":"2991136"},{"town":"下湯江","koaza":"","lat":35.319577,"lng":139.886974,"zip":"2991131"},{"town":"宿原","koaza":"","lat":35.206641,"lng":140.028744,"zip":"2921176"},{"town":"小香","koaza":"","lat":35.300452,"lng":139.898607,"zip":"2991137"},{"town":"白駒","koaza":"","lat":35.290773,"lng":139.956638,"zip":"2991105"},{"town":"末吉","koaza":"","lat":35.327865,"lng":140.062113,"zip":"2920451"},{"town":"杉谷","koaza":"","lat":35.30868,"lng":139.910541,"zip":"2991135"},{"town":"清和市場","koaza":"","lat":35.259441,"lng":139.99073,"zip":"2921154"},{"town":"草牛","koaza":"","lat":35.276342,"lng":139.954382,"zip":"2991114"},{"town":"外箕輪","koaza":"","lat":35.313807,"lng":139.928129,"zip":"2991173"},{"town":"外箕輪一丁目","koaza":"","lat":35.31492,"lng":139.920059,"zip":"2991173"},{"town":"外箕輪二丁目","koaza":"","lat":35.320193,"lng":139.922311,"zip":"2991173"},{"town":"外箕輪三丁目","koaza":"","lat":35.321195,"lng":139.924804,"zip":"2991173"},{"town":"外箕輪四丁目","koaza":"","lat":35.314861,"lng":139.924862,"zip":"2991173"},{"town":"台一丁目","koaza":"","lat":35.328327,"lng":139.898646,"zip":"2991153"},{"town":"台二丁目","koaza":"","lat":35.326782,"lng":139.900057,"zip":"2991153"},{"town":"大中","koaza":"","lat":35.236772,"lng":140.07494,"zip":"2920522"},{"town":"高水","koaza":"","lat":35.237499,"lng":140.085891,"zip":"2920516"},{"town":"滝原","koaza":"","lat":35.224976,"lng":140.112699,"zip":"2920534"},{"town":"旅名","koaza":"","lat":35.19998,"lng":140.02117,"zip":"2921178"},{"town":"俵田","koaza":"","lat":35.317772,"lng":140.054844,"zip":"2920455"},{"town":"塚原","koaza":"","lat":35.298313,"lng":139.978617,"zip":"2921147"},{"town":"作木","koaza":"","lat":35.273303,"lng":139.921843,"zip":"2991124"},{"town":"辻森","koaza":"","lat":35.223936,"lng":140.014808,"zip":"2921172"},{"town":"寺沢","koaza":"","lat":35.301336,"lng":140.05225,"zip":"2920443"},{"town":"常代","koaza":"","lat":35.308503,"lng":139.930209,"zip":"2991121"},{"town":"常代一丁目","koaza":"","lat":35.310948,"lng":139.917924,"zip":"2991121"},{"town":"常代二丁目","koaza":"","lat":35.309467,"lng":139.921017,"zip":"2991121"},{"town":"常代三丁目","koaza":"","lat":35.308801,"lng":139.923616,"zip":"2991121"},{"town":"常代四丁目","koaza":"","lat":35.305245,"lng":139.923882,"zip":"2991121"},{"town":"常代五丁目","koaza":"","lat":35.305171,"lng":139.926038,"zip":"2991121"},{"town":"常代六丁目","koaza":"","lat":35.304684,"lng":139.929058,"zip":"2991121"},{"town":"戸崎","koaza":"","lat":35.313281,"lng":140.030161,"zip":"2920441"},{"town":"利根","koaza":"","lat":35.242212,"lng":140.07893,"zip":"2920521"},{"town":"富田","koaza":"","lat":35.296983,"lng":140.063165,"zip":"2920444"},{"town":"豊田旧菅間田","koaza":"","lat":35.229407,"lng":140.083509,"zip":"2991100"},{"town":"豊田旧野中","koaza":"","lat":35.232123,"lng":140.082788,"zip":"2991100"},{"town":"豊英","koaza":"","lat":35.176664,"lng":140.011882,"zip":"2921179"},{"town":"長石","koaza":"","lat":35.319531,"lng":140.006422,"zip":"2921143"},{"town":"中島","koaza":"","lat":35.303666,"lng":139.960912,"zip":"2991106"},{"town":"中富","koaza":"","lat":35.324769,"lng":139.886406,"zip":"2991132"},{"town":"中野","koaza":"","lat":35.332052,"lng":139.884278,"zip":"2991151"},{"town":"中野一丁目","koaza":"","lat":35.331578,"lng":139.895527,"zip":"2991151"},{"town":"中野二丁目","koaza":"","lat":35.327358,"lng":139.894732,"zip":"2991151"},{"town":"中野三丁目","koaza":"","lat":35.329635,"lng":139.889967,"zip":"2991151"},{"town":"中野四丁目","koaza":"","lat":35.332922,"lng":139.891547,"zip":"2991151"},{"town":"中野五丁目","koaza":"","lat":35.334076,"lng":139.887945,"zip":"2991151"},{"town":"中野六丁目","koaza":"","lat":35.33068,"lng":139.886123,"zip":"2991151"},{"town":"西粟倉","koaza":"","lat":35.251968,"lng":139.992832,"zip":"2921168"},{"town":"西猪原","koaza":"","lat":35.255949,"lng":139.999394,"zip":"2921162"},{"town":"西君津","koaza":"","lat":35.347275,"lng":139.854076,"zip":"2991100"},{"town":"西坂田一丁目","koaza":"","lat":35.33661,"lng":139.888474,"zip":"2991145"},{"town":"西坂田二丁目","koaza":"","lat":35.337209,"lng":139.883607,"zip":"2991145"},{"town":"西坂田三丁目","koaza":"","lat":35.339144,"lng":139.883527,"zip":"2991145"},{"town":"西坂田四丁目","koaza":"","lat":35.338765,"lng":139.889421,"zip":"2991145"},{"town":"西原","koaza":"","lat":35.338516,"lng":140.053552,"zip":"2920402"},{"town":"西日笠","koaza":"","lat":35.22225,"lng":139.998879,"zip":"2921165"},{"town":"日渡根","koaza":"","lat":35.267311,"lng":140.000342,"zip":"2921152"},{"town":"糠田","koaza":"","lat":35.300833,"lng":139.971264,"zip":"2991104"},{"town":"糠田飛地","koaza":"","lat":35.318395,"lng":140.002509,"zip":"2921140"},{"town":"怒田","koaza":"","lat":35.26928,"lng":140.10539,"zip":"2921177"},{"town":"怒田沢","koaza":"","lat":35.205013,"lng":140.001465,"zip":"2921177"},{"town":"根本","koaza":"","lat":35.305484,"lng":139.987614,"zip":"2921141"},{"town":"練木","koaza":"","lat":35.321254,"lng":139.952891,"zip":"2991108"},{"town":"長谷川","koaza":"","lat":35.323035,"lng":140.076468,"zip":"2920411"},{"town":"浜子","koaza":"","lat":35.302414,"lng":139.922077,"zip":"2991122"},{"town":"東粟倉","koaza":"","lat":35.242865,"lng":140.009531,"zip":"2921163"},{"town":"東猪原","koaza":"","lat":35.253893,"lng":140.017225,"zip":"2921161"},{"town":"東坂田一丁目","koaza":"","lat":35.334312,"lng":139.895825,"zip":"2991144"},{"town":"東坂田二丁目","koaza":"","lat":35.335482,"lng":139.893804,"zip":"2991144"},{"town":"東坂田三丁目","koaza":"","lat":35.335959,"lng":139.891488,"zip":"2991144"},{"town":"東坂田四丁目","koaza":"","lat":35.336151,"lng":139.8959,"zip":"2991144"},{"town":"東日笠","koaza":"","lat":35.234868,"lng":140.002625,"zip":"2921164"},{"town":"尾車","koaza":"","lat":35.28763,"lng":139.945268,"zip":"2991113"},{"town":"人見","koaza":"","lat":35.339872,"lng":139.867104,"zip":"2991147"},{"town":"人見一丁目","koaza":"","lat":35.335474,"lng":139.870485,"zip":"2991147"},{"town":"人見二丁目","koaza":"","lat":35.333668,"lng":139.875335,"zip":"2991147"},{"town":"人見三丁目","koaza":"","lat":35.332836,"lng":139.869724,"zip":"2991147"},{"town":"人見四丁目","koaza":"","lat":35.331149,"lng":139.874211,"zip":"2991147"},{"town":"人見五丁目","koaza":"","lat":35.331226,"lng":139.86814,"zip":"2991147"},{"town":"平田","koaza":"","lat":35.235091,"lng":139.984444,"zip":"2921167"},{"town":"平山","koaza":"","lat":35.270094,"lng":140.071909,"zip":"2920502"},{"town":"広岡","koaza":"","lat":35.25923,"lng":140.064736,"zip":"2920503"},{"town":"福岡","koaza":"","lat":35.28958,"lng":139.97568,"zip":"2921157"},{"town":"藤林","koaza":"","lat":35.233351,"lng":140.088174,"zip":"2920531"},{"town":"二入","koaza":"","lat":35.221887,"lng":140.007919,"zip":"2921171"},{"town":"法木","koaza":"","lat":35.299887,"lng":140.007588,"zip":"2921144"},{"town":"法木作","koaza":"","lat":35.318132,"lng":139.930511,"zip":"2991174"},{"town":"法木作一丁目","koaza":"","lat":35.320527,"lng":139.927275,"zip":"2991174"},{"town":"正木","koaza":"","lat":35.216087,"lng":140.033918,"zip":"2921174"},{"town":"馬登","koaza":"","lat":35.273798,"lng":139.940715,"zip":"2991115"},{"town":"南久保一丁目","koaza":"","lat":35.327452,"lng":139.902285,"zip":"2991154"},{"town":"南久保二丁目","koaza":"","lat":35.325624,"lng":139.903896,"zip":"2991154"},{"town":"南久保三丁目","koaza":"","lat":35.324951,"lng":139.899702,"zip":"2991154"},{"town":"南子安","koaza":"","lat":35.333129,"lng":139.932069,"zip":"2991162"},{"town":"南子安一丁目","koaza":"","lat":35.328621,"lng":139.912472,"zip":"2991162"},{"town":"南子安二丁目","koaza":"","lat":35.330017,"lng":139.917431,"zip":"2991162"},{"town":"南子安三丁目","koaza":"","lat":35.327408,"lng":139.915548,"zip":"2991162"},{"town":"南子安四丁目","koaza":"","lat":35.323119,"lng":139.915967,"zip":"2991162"},{"town":"南子安五丁目","koaza":"","lat":35.325489,"lng":139.918498,"zip":"2991162"},{"town":"南子安六丁目","koaza":"","lat":35.325819,"lng":139.922825,"zip":"2991162"},{"town":"南子安七丁目","koaza":"","lat":35.330105,"lng":139.92154,"zip":"2991162"},{"town":"南子安八丁目","koaza":"","lat":35.330816,"lng":139.925872,"zip":"2991162"},{"town":"南子安九丁目","koaza":"","lat":35.327499,"lng":139.927431,"zip":"2991162"},{"town":"三直","koaza":"","lat":35.324716,"lng":139.939929,"zip":"2991172"},{"town":"箕輪","koaza":"","lat":35.310201,"lng":140.075454,"zip":"2920453"},{"town":"宮下","koaza":"","lat":35.296032,"lng":139.924743,"zip":"2991117"},{"town":"宮下一丁目","koaza":"","lat":35.300469,"lng":139.927368,"zip":"2991117"},{"town":"宮下二丁目","koaza":"","lat":35.300502,"lng":139.929608,"zip":"2991117"},{"town":"向郷","koaza":"","lat":35.287541,"lng":140.040384,"zip":"2920434"},{"town":"六手","koaza":"","lat":35.303695,"lng":139.938667,"zip":"2991111"},{"town":"杢師一丁目","koaza":"","lat":35.325701,"lng":139.908943,"zip":"2991163"},{"town":"杢師二丁目","koaza":"","lat":35.322554,"lng":139.911381,"zip":"2991163"},{"town":"杢師三丁目","koaza":"","lat":35.320151,"lng":139.914569,"zip":"2991163"},{"town":"杢師四丁目","koaza":"","lat":35.31852,"lng":139.917508,"zip":"2991163"},{"town":"八重原","koaza":"","lat":35.32807,"lng":139.936677,"zip":"2991171"},{"town":"柳城","koaza":"","lat":35.248392,"lng":140.095118,"zip":"2920515"},{"town":"山高原","koaza":"","lat":35.279174,"lng":139.919477,"zip":"2991125"},{"town":"山滝野","koaza":"","lat":35.273226,"lng":140.043723,"zip":"2920501"},{"town":"山本","koaza":"","lat":35.345929,"lng":140.05701,"zip":"2920401"},{"town":"八幡","koaza":"","lat":35.317358,"lng":139.91227,"zip":"2991134"},{"town":"陽光台一丁目","koaza":"","lat":35.335195,"lng":139.902341,"zip":"2991166"},{"town":"陽光台二丁目","koaza":"","lat":35.334118,"lng":139.904636,"zip":"2991166"},{"town":"陽光台三丁目","koaza":"","lat":35.336795,"lng":139.907144,"zip":"2991166"},{"town":"吉野","koaza":"","lat":35.318272,"lng":140.093833,"zip":"2920413"},{"town":"笹","koaza":"","lat":35.201395,"lng":140.074381,"zip":"2920526"},{"town":"川俣旧押込","koaza":"","lat":35.224964,"lng":140.08287,"zip":"2991100"},{"town":"川俣旧月毛","koaza":"","lat":35.221294,"lng":140.079507,"zip":"2991100"},{"town":"川俣旧川俣","koaza":"","lat":35.215031,"lng":140.081962,"zip":"2991100"}]