[{"town":"旭ケ丘一丁目","koaza":"","lat":35.662563,"lng":140.182957,"zip":"2840024"},{"town":"旭ケ丘二丁目","koaza":"","lat":35.66044,"lng":140.185221,"zip":"2840024"},{"town":"旭ケ丘三丁目","koaza":"","lat":35.663082,"lng":140.186543,"zip":"2840024"},{"town":"旭ケ丘四丁目","koaza":"","lat":35.666306,"lng":140.187082,"zip":"2840024"},{"town":"旭ケ丘五丁目","koaza":"","lat":35.664712,"lng":140.188755,"zip":"2840024"},{"town":"池花一丁目","koaza":"","lat":35.686566,"lng":140.177015,"zip":"2840014"},{"town":"池花二丁目","koaza":"","lat":35.690249,"lng":140.177062,"zip":"2840014"},{"town":"上野","koaza":"","lat":35.657688,"lng":140.19112,"zip":"2840041"},{"town":"内黒田","koaza":"","lat":35.689611,"lng":140.171109,"zip":"2840013"},{"town":"美しが丘一丁目","koaza":"","lat":35.657057,"lng":140.164019,"zip":"2840045"},{"town":"美しが丘二丁目","koaza":"","lat":35.657172,"lng":140.160609,"zip":"2840045"},{"town":"美しが丘三丁目","koaza":"","lat":35.655006,"lng":140.159959,"zip":"2840045"},{"town":"小名木","koaza":"","lat":35.654809,"lng":140.183221,"zip":"2840042"},{"town":"亀崎","koaza":"","lat":35.700684,"lng":140.197334,"zip":"2840011"},{"town":"萱橋","koaza":"","lat":35.687823,"lng":140.166968,"zip":"2840002"},{"town":"さちが丘一丁目","koaza":"","lat":35.668861,"lng":140.174946,"zip":"2840025"},{"town":"さちが丘二丁目","koaza":"","lat":35.67275,"lng":140.175901,"zip":"2840025"},{"town":"さつきケ丘","koaza":"","lat":35.663572,"lng":140.151985,"zip":"2840007"},{"town":"鹿渡","koaza":"","lat":35.668062,"lng":140.180445,"zip":"2840003"},{"town":"下志津新田","koaza":"","lat":35.66411,"lng":140.155145,"zip":"2840006"},{"town":"大日","koaza":"","lat":35.683144,"lng":140.160942,"zip":"2840001"},{"town":"鷹の台一丁目","koaza":"","lat":35.639265,"lng":140.201919,"zip":"2840033"},{"town":"鷹の台二丁目","koaza":"","lat":35.632745,"lng":140.194886,"zip":"2840033"},{"town":"鷹の台三丁目","koaza":"","lat":35.632884,"lng":140.191648,"zip":"2840033"},{"town":"鷹の台四丁目","koaza":"","lat":35.630429,"lng":140.193704,"zip":"2840033"},{"town":"中央","koaza":"","lat":35.668167,"lng":140.165724,"zip":"2840009"},{"town":"千代田二丁目","koaza":"","lat":35.693401,"lng":140.179172,"zip":"2840015"},{"town":"千代田三丁目","koaza":"","lat":35.696912,"lng":140.186099,"zip":"2840015"},{"town":"千代田四丁目","koaza":"","lat":35.694621,"lng":140.183048,"zip":"2840015"},{"town":"つくし座一丁目","koaza":"","lat":35.671351,"lng":140.177491,"zip":"2840026"},{"town":"つくし座二丁目","koaza":"","lat":35.674449,"lng":140.178787,"zip":"2840026"},{"town":"つくし座三丁目","koaza":"","lat":35.672637,"lng":140.180722,"zip":"2840026"},{"town":"中台","koaza":"","lat":35.662722,"lng":140.203383,"zip":"2840037"},{"town":"中野","koaza":"","lat":35.668754,"lng":140.202192,"zip":"2840036"},{"town":"南波佐間","koaza":"","lat":35.655635,"lng":140.196687,"zip":"2840034"},{"town":"成山","koaza":"","lat":35.66239,"lng":140.21067,"zip":"2840031"},{"town":"みそら一丁目","koaza":"","lat":35.666644,"lng":140.195772,"zip":"2840023"},{"town":"みそら二丁目","koaza":"","lat":35.670116,"lng":140.199296,"zip":"2840023"},{"town":"みそら三丁目","koaza":"","lat":35.673695,"lng":140.202716,"zip":"2840023"},{"town":"みそら四丁目","koaza":"","lat":35.671216,"lng":140.204083,"zip":"2840023"},{"town":"みのり町","koaza":"","lat":35.665144,"lng":140.172418,"zip":"2840004"},{"town":"めいわ一丁目","koaza":"","lat":35.657643,"lng":140.174196,"zip":"2840043"},{"town":"めいわ二丁目","koaza":"","lat":35.653889,"lng":140.172112,"zip":"2840043"},{"town":"めいわ三丁目","koaza":"","lat":35.650358,"lng":140.163962,"zip":"2840043"},{"town":"めいわ四丁目","koaza":"","lat":35.649408,"lng":140.167216,"zip":"2840043"},{"town":"めいわ五丁目","koaza":"","lat":35.649629,"lng":140.173118,"zip":"2840043"},{"town":"山梨","koaza":"","lat":35.672618,"lng":140.193469,"zip":"2840022"},{"town":"吉岡","koaza":"","lat":35.641315,"lng":140.194879,"zip":"2840032"},{"town":"四街道","koaza":"","lat":35.664378,"lng":140.159784,"zip":"2840005"},{"town":"四街道一丁目","koaza":"","lat":35.664188,"lng":140.163458,"zip":"2840005"},{"town":"四街道二丁目","koaza":"","lat":35.659671,"lng":140.159952,"zip":"2840005"},{"town":"四街道三丁目","koaza":"","lat":35.659551,"lng":140.157263,"zip":"2840005"},{"town":"鹿放ケ丘","koaza":"","lat":35.679947,"lng":140.144477,"zip":"2840008"},{"town":"和田","koaza":"","lat":35.6649,"lng":140.191901,"zip":"2840035"},{"town":"和良比","koaza":"","lat":35.654506,"lng":140.167582,"zip":"2840044"},{"town":"千代田一丁目","koaza":"","lat":35.689988,"lng":140.18092,"zip":"2840015"},{"town":"千代田五丁目","koaza":"","lat":35.691695,"lng":140.185162,"zip":"2840015"},{"town":"栗山","koaza":"","lat":35.678868,"lng":140.178254,"zip":"2840027"},{"town":"もねの里一丁目","koaza":"","lat":35.685893,"lng":140.184813,"zip":"2840016"},{"town":"もねの里二丁目","koaza":"","lat":35.687996,"lng":140.187167,"zip":"2840016"},{"town":"もねの里三丁目","koaza":"","lat":35.690118,"lng":140.192393,"zip":"2840016"},{"town":"長岡","koaza":"","lat":35.68157,"lng":140.191781,"zip":"2840021"},{"town":"もねの里六丁目","koaza":"","lat":35.684783,"lng":140.190585,"zip":"2840016"},{"town":"物井","koaza":"","lat":35.688182,"lng":140.198141,"zip":"2840012"},{"town":"もねの里五丁目","koaza":"","lat":35.684333,"lng":140.19685,"zip":"2840016"},{"town":"もねの里四丁目","koaza":"","lat":35.689225,"lng":140.195178,"zip":"2840016"},{"town":"和良比","koaza":"長作","lat":35.660109,"lng":140.173376,"zip":"2840044"}]