[{"town":"粟又","koaza":"","lat":35.212679,"lng":140.180765,"zip":"2980277"},{"town":"石神","koaza":"","lat":35.249333,"lng":140.264867,"zip":"2980256"},{"town":"板谷","koaza":"","lat":35.26266,"lng":140.186775,"zip":"2980261"},{"town":"市川","koaza":"","lat":35.251228,"lng":140.194662,"zip":"2980272"},{"town":"伊保田","koaza":"","lat":35.238455,"lng":140.185615,"zip":"2980263"},{"town":"上原","koaza":"","lat":35.270624,"lng":140.238784,"zip":"2980223"},{"town":"上原西部田柳原入会","koaza":"","lat":35.279782,"lng":140.2198,"zip":"2980205"},{"town":"宇筒原","koaza":"","lat":35.234467,"lng":140.227575,"zip":"2980235"},{"town":"大多喜","koaza":"","lat":35.284542,"lng":140.233771,"zip":"2980216"},{"town":"大田代","koaza":"","lat":35.227894,"lng":140.167005,"zip":"2980264"},{"town":"大戸","koaza":"","lat":35.257792,"lng":140.240944,"zip":"2980225"},{"town":"押沼","koaza":"","lat":35.239065,"lng":140.232185,"zip":"2980234"},{"town":"小土呂","koaza":"","lat":35.316489,"lng":140.240675,"zip":"2980201"},{"town":"面白","koaza":"","lat":35.212521,"lng":140.197461,"zip":"2980279"},{"town":"会所","koaza":"","lat":35.189468,"lng":140.197961,"zip":"2980276"},{"town":"紙敷","koaza":"","lat":35.272995,"lng":140.204823,"zip":"2980241"},{"town":"川畑","koaza":"","lat":35.228706,"lng":140.248087,"zip":"2980253"},{"town":"久我原","koaza":"","lat":35.243866,"lng":140.262911,"zip":"2980251"},{"town":"葛藤","koaza":"","lat":35.250489,"lng":140.168098,"zip":"2980267"},{"town":"久保","koaza":"","lat":35.286188,"lng":140.246411,"zip":"2980215"},{"town":"黒原","koaza":"","lat":35.246444,"lng":140.239277,"zip":"2980255"},{"town":"小内","koaza":"","lat":35.245904,"lng":140.232438,"zip":"2980232"},{"town":"小内笛倉入会","koaza":"","lat":35.242698,"lng":140.231593,"zip":"2980238"},{"town":"紺屋","koaza":"","lat":35.291972,"lng":140.244288,"zip":"2980211"},{"town":"小沢又","koaza":"","lat":35.225101,"lng":140.180131,"zip":"2980278"},{"town":"小田代","koaza":"","lat":35.245524,"lng":140.16078,"zip":"2980265"},{"town":"小苗","koaza":"","lat":35.258251,"lng":140.215666,"zip":"2980242"},{"town":"小谷松","koaza":"","lat":35.269825,"lng":140.250611,"zip":"2980228"},{"town":"桜台","koaza":"","lat":35.285209,"lng":140.248488,"zip":"2980213"},{"town":"猿稲","koaza":"","lat":35.289412,"lng":140.245807,"zip":"2980212"},{"town":"三条","koaza":"","lat":35.239809,"lng":140.215658,"zip":"2980273"},{"town":"下大多喜","koaza":"","lat":35.303318,"lng":140.262319,"zip":"2980202"},{"town":"庄司","koaza":"","lat":35.247266,"lng":140.212692,"zip":"2980246"},{"town":"新丁","koaza":"","lat":35.281386,"lng":140.252306,"zip":"2980214"},{"town":"泉水","koaza":"","lat":35.293899,"lng":140.235488,"zip":"2980207"},{"town":"田代","koaza":"","lat":35.228001,"lng":140.198144,"zip":"2980274"},{"town":"田丁","koaza":"","lat":35.290981,"lng":140.236202,"zip":"2980274"},{"town":"筒森","koaza":"","lat":35.22627,"lng":140.151107,"zip":"2980266"},{"town":"中野","koaza":"","lat":35.253319,"lng":140.202401,"zip":"2980271"},{"town":"西部田","koaza":"","lat":35.277967,"lng":140.2342,"zip":"2980227"},{"town":"馬場内","koaza":"","lat":35.252865,"lng":140.230523,"zip":"2980231"},{"town":"原内","koaza":"","lat":35.248038,"lng":140.228945,"zip":"2980237"},{"town":"平沢","koaza":"","lat":35.209296,"lng":140.232372,"zip":"2980254"},{"town":"笛倉","koaza":"","lat":35.246279,"lng":140.235962,"zip":"2980233"},{"town":"船子","koaza":"","lat":35.289561,"lng":140.251895,"zip":"2980204"},{"town":"部田","koaza":"","lat":35.263995,"lng":140.25028,"zip":"2980226"},{"town":"堀切","koaza":"","lat":35.245334,"lng":140.195249,"zip":"2980262"},{"town":"堀之内","koaza":"","lat":35.25775,"lng":140.271422,"zip":"2980224"},{"town":"松尾","koaza":"","lat":35.255628,"lng":140.211885,"zip":"2980244"},{"town":"三又","koaza":"","lat":35.239743,"lng":140.250998,"zip":"2980252"},{"town":"百鉾","koaza":"","lat":35.244172,"lng":140.226194,"zip":"2980236"},{"town":"森宮","koaza":"","lat":35.287321,"lng":140.260762,"zip":"2980203"},{"town":"弥喜用","koaza":"","lat":35.253727,"lng":140.22462,"zip":"2980245"},{"town":"八声","koaza":"","lat":35.266437,"lng":140.268332,"zip":"2980222"},{"town":"柳原","koaza":"","lat":35.281308,"lng":140.242049,"zip":"2980221"},{"town":"湯倉","koaza":"","lat":35.258751,"lng":140.22166,"zip":"2980243"},{"town":"弓木","koaza":"","lat":35.205465,"lng":140.216046,"zip":"2980275"},{"town":"横山","koaza":"","lat":35.298485,"lng":140.226391,"zip":"2980206"}]