[{"town":"市井原","koaza":"","lat":35.14558,"lng":139.891292,"zip":"2991905"},{"town":"岩井袋","koaza":"","lat":35.101768,"lng":139.831421,"zip":"2992116"},{"town":"江月","koaza":"","lat":35.13195,"lng":139.861578,"zip":"2991907"},{"town":"大帷子","koaza":"","lat":35.139131,"lng":139.856262,"zip":"2991903"},{"town":"大崩","koaza":"","lat":35.133776,"lng":139.916162,"zip":"2992111"},{"town":"奥山","koaza":"","lat":35.122746,"lng":139.912644,"zip":"2992112"},{"town":"勝山","koaza":"","lat":35.111035,"lng":139.829059,"zip":"2992117"},{"town":"上佐久間","koaza":"","lat":35.122345,"lng":139.891272,"zip":"2992113"},{"town":"小保田","koaza":"","lat":35.144727,"lng":139.877376,"zip":"2991904"},{"town":"下佐久間","koaza":"","lat":35.10979,"lng":139.84968,"zip":"2992115"},{"town":"大六","koaza":"","lat":35.123341,"lng":139.842189,"zip":"2991909"},{"town":"中佐久間","koaza":"","lat":35.122706,"lng":139.867539,"zip":"2992114"},{"town":"保田","koaza":"","lat":35.14908,"lng":139.85783,"zip":"2991902"},{"town":"元名","koaza":"","lat":35.153008,"lng":139.837217,"zip":"2991901"},{"town":"横根","koaza":"","lat":35.142762,"lng":139.904554,"zip":"2991906"},{"town":"吉浜","koaza":"","lat":35.129405,"lng":139.844702,"zip":"2991908"},{"town":"竜島","koaza":"","lat":35.115826,"lng":139.834389,"zip":"2992118"}]