[{"town":"相川","koaza":"","lat":35.201051,"lng":139.880138,"zip":"2991615"},{"town":"相野谷","koaza":"","lat":35.300732,"lng":139.881628,"zip":"2930031"},{"town":"青木","koaza":"","lat":35.321865,"lng":139.847461,"zip":"2930012"},{"town":"青木一丁目","koaza":"","lat":35.331447,"lng":139.846143,"zip":"2930012"},{"town":"青木二丁目","koaza":"","lat":35.329316,"lng":139.848612,"zip":"2930012"},{"town":"青木三丁目","koaza":"","lat":35.325657,"lng":139.84453,"zip":"2930012"},{"town":"青木四丁目","koaza":"","lat":35.323079,"lng":139.839895,"zip":"2930012"},{"town":"新井","koaza":"","lat":35.3156,"lng":139.829608,"zip":"2930022"},{"town":"一色","koaza":"","lat":35.294465,"lng":139.898505,"zip":"2930033"},{"town":"不入斗","koaza":"","lat":35.20267,"lng":139.900858,"zip":"2991613"},{"town":"岩坂","koaza":"","lat":35.22664,"lng":139.885645,"zip":"2991608"},{"town":"岩瀬","koaza":"","lat":35.286539,"lng":139.859445,"zip":"2930043"},{"town":"岩本","koaza":"","lat":35.198411,"lng":139.929734,"zip":"2991746"},{"town":"上後","koaza":"","lat":35.212227,"lng":139.933229,"zip":"2991753"},{"town":"宇藤原","koaza":"","lat":35.20978,"lng":139.973074,"zip":"2991732"},{"town":"売津","koaza":"","lat":35.208948,"lng":139.876445,"zip":"2991617"},{"town":"大川崎","koaza":"","lat":35.215058,"lng":139.939827,"zip":"2991736"},{"town":"大田和","koaza":"","lat":35.2113,"lng":139.946726,"zip":"2991735"},{"town":"大堀","koaza":"","lat":35.337545,"lng":139.854179,"zip":"2930001"},{"town":"大堀一丁目","koaza":"","lat":35.334535,"lng":139.85934,"zip":"2930001"},{"town":"大堀二丁目","koaza":"","lat":35.333026,"lng":139.85489,"zip":"2930001"},{"town":"大堀三丁目","koaza":"","lat":35.329662,"lng":139.852072,"zip":"2930001"},{"town":"大堀四丁目","koaza":"","lat":35.333503,"lng":139.849077,"zip":"2930001"},{"town":"大森","koaza":"","lat":35.220577,"lng":139.914822,"zip":"2991758"},{"town":"押切","koaza":"","lat":35.217102,"lng":139.920504,"zip":"2991757"},{"town":"恩田","koaza":"","lat":35.225413,"lng":139.929786,"zip":"2991751"},{"town":"海良","koaza":"","lat":35.208541,"lng":139.867562,"zip":"2991616"},{"town":"数馬","koaza":"","lat":35.216773,"lng":139.881643,"zip":"2991606"},{"town":"加藤","koaza":"","lat":35.232148,"lng":139.895392,"zip":"2991609"},{"town":"金谷","koaza":"","lat":35.173906,"lng":139.836434,"zip":"2991861"},{"town":"上","koaza":"","lat":35.284599,"lng":139.899693,"zip":"2991753"},{"town":"上飯野","koaza":"","lat":35.30808,"lng":139.870294,"zip":"2930005"},{"town":"亀沢","koaza":"","lat":35.272616,"lng":139.905912,"zip":"2930051"},{"town":"亀田","koaza":"","lat":35.261323,"lng":139.870226,"zip":"2930057"},{"town":"川名","koaza":"","lat":35.305744,"lng":139.833335,"zip":"2930023"},{"town":"絹","koaza":"","lat":35.289497,"lng":139.881169,"zip":"2930034"},{"town":"小久保","koaza":"","lat":35.272774,"lng":139.858778,"zip":"2930042"},{"town":"小志駒","koaza":"","lat":35.207925,"lng":139.926797,"zip":"2991747"},{"town":"近藤","koaza":"","lat":35.281204,"lng":139.885166,"zip":"2930046"},{"town":"桜井","koaza":"","lat":35.246266,"lng":139.91205,"zip":"2991602"},{"town":"桜井総稱鬼泪山","koaza":"","lat":35.250699,"lng":139.939327,"zip":"2991601"},{"town":"笹毛","koaza":"","lat":35.241469,"lng":139.877943,"zip":"2930055"},{"town":"佐貫","koaza":"","lat":35.264504,"lng":139.897179,"zip":"2930058"},{"town":"更和","koaza":"","lat":35.228477,"lng":139.902441,"zip":"2991603"},{"town":"志駒","koaza":"","lat":35.180401,"lng":139.927627,"zip":"2991745"},{"town":"篠部","koaza":"","lat":35.300944,"lng":139.845008,"zip":"2930024"},{"town":"下飯野","koaza":"","lat":35.314386,"lng":139.859532,"zip":"2930006"},{"town":"障子谷","koaza":"","lat":35.296789,"lng":139.891134,"zip":"2930032"},{"town":"新富","koaza":"","lat":35.342118,"lng":139.842478,"zip":"2930011"},{"town":"関","koaza":"","lat":35.205101,"lng":139.947101,"zip":"2991734"},{"town":"関尻","koaza":"","lat":35.220062,"lng":139.923878,"zip":"2991752"},{"town":"台原","koaza":"","lat":35.222093,"lng":139.900126,"zip":"2991604"},{"town":"高溝","koaza":"","lat":35.208937,"lng":139.958714,"zip":"2991733"},{"town":"田倉","koaza":"","lat":35.234217,"lng":139.951263,"zip":"2991731"},{"town":"竹岡","koaza":"","lat":35.187022,"lng":139.86652,"zip":"2991621"},{"town":"田原","koaza":"","lat":35.204616,"lng":139.916185,"zip":"2991755"},{"town":"千種新田","koaza":"","lat":35.293778,"lng":139.853067,"zip":"2930036"},{"town":"鶴岡","koaza":"","lat":35.249183,"lng":139.886776,"zip":"2930054"},{"town":"寺尾","koaza":"","lat":35.224871,"lng":139.917725,"zip":"2991759"},{"town":"豊岡","koaza":"","lat":35.17753,"lng":139.970163,"zip":"2991742"},{"town":"中","koaza":"","lat":35.281828,"lng":139.871615,"zip":"2930044"},{"town":"長崎","koaza":"","lat":35.22013,"lng":139.906227,"zip":"2991611"},{"town":"梨沢","koaza":"","lat":35.175077,"lng":139.89374,"zip":"2991744"},{"town":"西大和田","koaza":"","lat":35.297032,"lng":139.86898,"zip":"2930035"},{"town":"西川","koaza":"","lat":35.316747,"lng":139.839479,"zip":"2930013"},{"town":"萩生","koaza":"","lat":35.198118,"lng":139.833732,"zip":"2991622"},{"town":"花香谷","koaza":"","lat":35.256615,"lng":139.892033,"zip":"2930053"},{"town":"花輪","koaza":"","lat":35.211387,"lng":139.886112,"zip":"2991618"},{"town":"東大和田","koaza":"","lat":35.221214,"lng":139.94105,"zip":"2991737"},{"town":"二間塚","koaza":"","lat":35.324289,"lng":139.866781,"zip":"2930002"},{"town":"富津","koaza":"","lat":35.310351,"lng":139.811273,"zip":"2930021"},{"town":"宝竜寺","koaza":"","lat":35.262103,"lng":139.903083,"zip":"2930052"},{"town":"本郷","koaza":"","lat":35.310307,"lng":139.878316,"zip":"2930003"},{"town":"前久保","koaza":"","lat":35.30934,"lng":139.885883,"zip":"2930004"},{"town":"湊","koaza":"","lat":35.226233,"lng":139.873752,"zip":"2991607"},{"town":"御代原","koaza":"","lat":35.195343,"lng":139.951227,"zip":"2991741"},{"town":"六野","koaza":"","lat":35.215148,"lng":139.916444,"zip":"2991756"},{"town":"望井","koaza":"","lat":35.216896,"lng":139.895588,"zip":"2991605"},{"town":"八田沼","koaza":"","lat":35.280601,"lng":139.879337,"zip":"2930045"},{"town":"八幡","koaza":"","lat":35.25148,"lng":139.870626,"zip":"2930056"},{"town":"山中","koaza":"","lat":35.154561,"lng":139.9205,"zip":"2991743"},{"town":"山脇","koaza":"","lat":35.211558,"lng":139.922904,"zip":"2991754"},{"town":"横山","koaza":"","lat":35.213338,"lng":139.905677,"zip":"2991612"}]