[{"town":"大和","koaza":"","lat":35.751151,"lng":140.348095,"zip":"2860204"},{"town":"久能","koaza":"","lat":35.755982,"lng":140.336477,"zip":"2860203"},{"town":"高野","koaza":"","lat":35.705719,"lng":140.348381,"zip":"2860216"},{"town":"御料","koaza":"","lat":35.719603,"lng":140.371658,"zip":"2860211"},{"town":"新中沢","koaza":"","lat":35.70721,"lng":140.313547,"zip":"2860223"},{"town":"高松","koaza":"","lat":35.697278,"lng":140.326685,"zip":"2860213"},{"town":"立沢","koaza":"","lat":35.708007,"lng":140.329706,"zip":"2860214"},{"town":"立沢新田","koaza":"","lat":35.714778,"lng":140.336862,"zip":"2860215"},{"town":"十倉","koaza":"","lat":35.700954,"lng":140.362823,"zip":"2860212"},{"town":"中沢","koaza":"","lat":35.717157,"lng":140.311275,"zip":"2860222"},{"town":"七栄","koaza":"","lat":35.738951,"lng":140.326155,"zip":"2860221"},{"town":"新橋","koaza":"","lat":35.724419,"lng":140.300893,"zip":"2860224"},{"town":"根木名","koaza":"","lat":35.73582,"lng":140.352686,"zip":"2860205"},{"town":"日吉倉","koaza":"","lat":35.761814,"lng":140.325188,"zip":"2860202"},{"town":"日吉台一丁目","koaza":"","lat":35.772766,"lng":140.322105,"zip":"2860201"},{"town":"日吉台二丁目","koaza":"","lat":35.772293,"lng":140.320191,"zip":"2860201"},{"town":"日吉台三丁目","koaza":"","lat":35.765381,"lng":140.322692,"zip":"2860201"},{"town":"日吉台四丁目","koaza":"","lat":35.767029,"lng":140.319924,"zip":"2860201"},{"town":"日吉台五丁目","koaza":"","lat":35.76229,"lng":140.318183,"zip":"2860201"},{"town":"日吉台六丁目","koaza":"","lat":35.763333,"lng":140.31535,"zip":"2860201"},{"town":"美沢","koaza":"","lat":35.713553,"lng":140.321284,"zip":"2860225"},{"town":"七栄","koaza":"中木戸","lat":35.741856,"lng":140.317025,"zip":"2860221"},{"town":"七栄","koaza":"東二本榎","lat":35.739026,"lng":140.322675,"zip":"2860221"}]