[{"town":"粟生","koaza":"","lat":35.523186,"lng":140.42949,"zip":"2830105"},{"town":"荒生","koaza":"","lat":35.544475,"lng":140.426629,"zip":"2830107"},{"town":"大沼","koaza":"","lat":35.529399,"lng":140.398483,"zip":"2830100"},{"town":"片貝","koaza":"","lat":35.534957,"lng":140.435646,"zip":"2830104"},{"town":"小関","koaza":"","lat":35.546018,"lng":140.448736,"zip":"2830102"},{"town":"作田","koaza":"","lat":35.5533,"lng":140.449883,"zip":"2830101"},{"town":"下貝塚","koaza":"","lat":35.521793,"lng":140.419238,"zip":"2830117"},{"town":"宿","koaza":"","lat":35.518516,"lng":140.431094,"zip":"2830106"},{"town":"薄島","koaza":"","lat":35.519488,"lng":140.428669,"zip":"2830100"},{"town":"田中荒生","koaza":"","lat":35.537376,"lng":140.450346,"zip":"2830103"},{"town":"西野","koaza":"","lat":35.525147,"lng":140.402391,"zip":"2830116"},{"town":"藤下","koaza":"","lat":35.526655,"lng":140.411473,"zip":"2830112"},{"town":"不動堂","koaza":"","lat":35.513856,"lng":140.424493,"zip":"2830113"},{"town":"細屋敷","koaza":"","lat":35.515199,"lng":140.436,"zip":"2830111"},{"town":"真亀","koaza":"","lat":35.508407,"lng":140.413093,"zip":"2830114"},{"town":"真亀新田","koaza":"","lat":35.50744,"lng":140.428273,"zip":"2830115"},{"town":"片貝","koaza":"西","lat":35.541514,"lng":140.427702,"zip":"2830104"}]