[{"town":"新井","koaza":"","lat":35.701068,"lng":140.475295,"zip":"2891707"},{"town":"市野原","koaza":"","lat":35.694443,"lng":140.479009,"zip":"2891706"},{"town":"牛熊","koaza":"","lat":35.692569,"lng":140.447182,"zip":"2891742"},{"town":"姥山","koaza":"","lat":35.672939,"lng":140.446287,"zip":"2891752"},{"town":"小川台","koaza":"","lat":35.690222,"lng":140.494265,"zip":"2891711"},{"town":"於幾","koaza":"","lat":35.675391,"lng":140.477082,"zip":"2891748"},{"town":"尾垂イ","koaza":"","lat":35.632532,"lng":140.550574,"zip":"2891700"},{"town":"尾垂ロ","koaza":"","lat":35.638301,"lng":140.539268,"zip":"2891700"},{"town":"小堤","koaza":"","lat":35.682399,"lng":140.465474,"zip":"2891745"},{"town":"上原","koaza":"","lat":35.651777,"lng":140.526513,"zip":"2891723"},{"town":"北清水","koaza":"","lat":35.631617,"lng":140.508788,"zip":"2891734"},{"town":"木戸","koaza":"","lat":35.628355,"lng":140.533692,"zip":"2891726"},{"town":"木戸台","koaza":"","lat":35.683815,"lng":140.453329,"zip":"2891744"},{"town":"栗山","koaza":"","lat":35.649837,"lng":140.497746,"zip":"2891733"},{"town":"古川","koaza":"","lat":35.665876,"lng":140.486087,"zip":"2891731"},{"town":"小田部","koaza":"","lat":35.681099,"lng":140.502818,"zip":"2891713"},{"town":"坂田","koaza":"","lat":35.666957,"lng":140.47382,"zip":"2891754"},{"town":"坂田池","koaza":"","lat":35.661789,"lng":140.469755,"zip":"2891755"},{"town":"篠本","koaza":"","lat":35.707938,"lng":140.490364,"zip":"2891701"},{"town":"篠本根切","koaza":"","lat":35.701015,"lng":140.494077,"zip":"2891708"},{"town":"芝崎","koaza":"","lat":35.67161,"lng":140.494548,"zip":"2891715"},{"town":"芝崎南","koaza":"","lat":35.669193,"lng":140.491246,"zip":"2891716"},{"town":"曽根合","koaza":"","lat":35.675314,"lng":140.47127,"zip":"2891747"},{"town":"台","koaza":"","lat":35.68558,"lng":140.49876,"zip":"2891712"},{"town":"寺方","koaza":"","lat":35.676897,"lng":140.466845,"zip":"2891746"},{"town":"遠山","koaza":"","lat":35.665679,"lng":140.44381,"zip":"2891757"},{"town":"富下","koaza":"","lat":35.678476,"lng":140.485607,"zip":"2891704"},{"town":"取立","koaza":"","lat":35.672226,"lng":140.463724,"zip":"2891753"},{"town":"鳥喰上","koaza":"","lat":35.640131,"lng":140.484357,"zip":"2891738"},{"town":"鳥喰下","koaza":"","lat":35.636597,"lng":140.490045,"zip":"2891737"},{"town":"鳥喰新田","koaza":"","lat":35.644996,"lng":140.482492,"zip":"2891739"},{"town":"長倉","koaza":"","lat":35.666881,"lng":140.46152,"zip":"2891756"},{"town":"中台","koaza":"","lat":35.685088,"lng":140.435221,"zip":"2891741"},{"town":"長山台","koaza":"","lat":35.674636,"lng":140.438445,"zip":"2891751"},{"town":"新島","koaza":"","lat":35.618732,"lng":140.507714,"zip":"2891736"},{"town":"新島旧新堀","koaza":"","lat":35.617938,"lng":140.4987,"zip":"2891700"},{"town":"新島旧三島","koaza":"","lat":35.619737,"lng":140.494718,"zip":"2891700"},{"town":"母子","koaza":"","lat":35.678801,"lng":140.511279,"zip":"2891714"},{"town":"原方","koaza":"","lat":35.645493,"lng":140.533454,"zip":"2891724"},{"town":"二又","koaza":"","lat":35.694609,"lng":140.488111,"zip":"2891702"},{"town":"傍示戸","koaza":"","lat":35.684109,"lng":140.48494,"zip":"2891703"},{"town":"宝米","koaza":"","lat":35.688055,"lng":140.477615,"zip":"2891705"},{"town":"宮川","koaza":"","lat":35.661183,"lng":140.51412,"zip":"2891727"},{"town":"虫生","koaza":"","lat":35.67709,"lng":140.49284,"zip":"2891717"},{"town":"目篠","koaza":"","lat":35.64811,"lng":140.523443,"zip":"2891722"},{"town":"屋形","koaza":"","lat":35.615927,"lng":140.521185,"zip":"2891735"},{"town":"谷台","koaza":"","lat":35.694921,"lng":140.456446,"zip":"2891743"},{"town":"谷中","koaza":"","lat":35.666048,"lng":140.532501,"zip":"2891721"},{"town":"横芝","koaza":"","lat":35.66006,"lng":140.487422,"zip":"2891732"},{"town":"両国新田","koaza":"","lat":35.667517,"lng":140.480903,"zip":"2891749"},{"town":"栗山","koaza":"東大谷","lat":35.648804,"lng":140.498837,"zip":"2891733"}]