[{"town":"朝倉","koaza":"","lat":35.72341,"lng":140.400154,"zip":"2891607"},{"town":"飯櫃","koaza":"","lat":35.729383,"lng":140.421584,"zip":"2891604"},{"town":"岩山","koaza":"","lat":35.731018,"lng":140.403787,"zip":"2820035"},{"town":"大里","koaza":"","lat":35.745999,"lng":140.41541,"zip":"2820034"},{"town":"大台","koaza":"","lat":35.708526,"lng":140.41861,"zip":"2891605"},{"town":"小原子","koaza":"","lat":35.726944,"lng":140.429027,"zip":"2891611"},{"town":"上吹入","koaza":"","lat":35.717721,"lng":140.428872,"zip":"2891612"},{"town":"香山新田","koaza":"","lat":35.769325,"lng":140.402281,"zip":"2820032"},{"town":"小池","koaza":"","lat":35.691451,"lng":140.413782,"zip":"2891624"},{"town":"境","koaza":"","lat":35.711012,"lng":140.441662,"zip":"2891615"},{"town":"芝山","koaza":"","lat":35.691505,"lng":140.428386,"zip":"2891619"},{"town":"下吹入","koaza":"","lat":35.713265,"lng":140.431998,"zip":"2891613"},{"town":"高田","koaza":"","lat":35.710745,"lng":140.393333,"zip":"2891623"},{"town":"高谷","koaza":"","lat":35.704471,"lng":140.442374,"zip":"2891616"},{"town":"殿部田","koaza":"","lat":35.701811,"lng":140.448868,"zip":"2891617"},{"town":"新井田","koaza":"","lat":35.694834,"lng":140.395287,"zip":"2891625"},{"town":"新井田新田","koaza":"","lat":35.697172,"lng":140.380517,"zip":"2891626"},{"town":"菱田","koaza":"","lat":35.761166,"lng":140.410041,"zip":"2820033"},{"town":"宝馬","koaza":"","lat":35.718034,"lng":140.397738,"zip":"2891622"},{"town":"牧野","koaza":"","lat":35.718582,"lng":140.384057,"zip":"2891621"},{"town":"宮崎","koaza":"","lat":35.705016,"lng":140.438405,"zip":"2891614"},{"town":"山田","koaza":"","lat":35.720361,"lng":140.413759,"zip":"2891606"},{"town":"山中","koaza":"","lat":35.698756,"lng":140.435212,"zip":"2891618"},{"town":"岩山","koaza":"広芝脇","lat":35.726365,"lng":140.36767,"zip":"2820035"},{"town":"大台","koaza":"飛地","lat":35.725263,"lng":140.390171,"zip":"2891605"}]