[{"town":"麻生新田","koaza":"","lat":35.644684,"lng":140.404955,"zip":"2891203"},{"town":"雨坪","koaza":"","lat":35.621331,"lng":140.348951,"zip":"2891213"},{"town":"板川","koaza":"","lat":35.670554,"lng":140.396696,"zip":"2891201"},{"town":"板附","koaza":"","lat":35.615081,"lng":140.391673,"zip":"2891335"},{"town":"板中新田","koaza":"","lat":35.673725,"lng":140.379912,"zip":"2891222"},{"town":"市場","koaza":"","lat":35.616595,"lng":140.404421,"zip":"2891333"},{"town":"井之内","koaza":"","lat":35.566236,"lng":140.466241,"zip":"2891304"},{"town":"植草","koaza":"","lat":35.610732,"lng":140.341229,"zip":"2891216"},{"town":"大木","koaza":"","lat":35.652046,"lng":140.336246,"zip":"2891211"},{"town":"沖渡","koaza":"","lat":35.669467,"lng":140.354319,"zip":"2891225"},{"town":"親田","koaza":"","lat":35.620771,"lng":140.40303,"zip":"2891332"},{"town":"上横地","koaza":"","lat":35.605684,"lng":140.452349,"zip":"2891313"},{"town":"川崎","koaza":"","lat":35.624856,"lng":140.396304,"zip":"2891331"},{"town":"木戸","koaza":"","lat":35.585306,"lng":140.484917,"zip":"2891301"},{"town":"木原","koaza":"","lat":35.642376,"lng":140.341906,"zip":"2891212"},{"town":"草深","koaza":"","lat":35.589069,"lng":140.45697,"zip":"2891315"},{"town":"小泉","koaza":"","lat":35.592646,"lng":140.440039,"zip":"2891317"},{"town":"五木田","koaza":"","lat":35.582727,"lng":140.448738,"zip":"2891316"},{"town":"小松","koaza":"","lat":35.59502,"lng":140.466565,"zip":"2891302"},{"town":"実門","koaza":"","lat":35.681651,"lng":140.364107,"zip":"2891221"},{"town":"椎崎","koaza":"","lat":35.629289,"lng":140.380383,"zip":"2891205"},{"town":"柴原","koaza":"","lat":35.62204,"lng":140.44386,"zip":"2891312"},{"town":"島","koaza":"","lat":35.594516,"lng":140.415899,"zip":"2891325"},{"town":"嶋戸","koaza":"","lat":35.624691,"lng":140.406843,"zip":"2891342"},{"town":"下布田","koaza":"","lat":35.622252,"lng":140.339527,"zip":"2891217"},{"town":"下横地","koaza":"","lat":35.591625,"lng":140.463135,"zip":"2891314"},{"town":"白幡","koaza":"","lat":35.57968,"lng":140.437777,"zip":"2891306"},{"town":"真行寺","koaza":"","lat":35.621851,"lng":140.413709,"zip":"2891343"},{"town":"津辺","koaza":"","lat":35.610412,"lng":140.412146,"zip":"2891345"},{"town":"寺崎","koaza":"","lat":35.611862,"lng":140.435991,"zip":"2891318"},{"town":"戸田","koaza":"","lat":35.638477,"lng":140.394114,"zip":"2891204"},{"town":"殿台","koaza":"","lat":35.600903,"lng":140.420131,"zip":"2891324"},{"town":"富口","koaza":"","lat":35.596093,"lng":140.432512,"zip":"2891323"},{"town":"富田","koaza":"","lat":35.614868,"lng":140.424283,"zip":"2891321"},{"town":"富田幸谷","koaza":"","lat":35.605465,"lng":140.435103,"zip":"2891322"},{"town":"中津田","koaza":"","lat":35.662115,"lng":140.408503,"zip":"2891202"},{"town":"成東","koaza":"","lat":35.598205,"lng":140.399903,"zip":"2891326"},{"town":"新泉","koaza":"","lat":35.614552,"lng":140.415956,"zip":"2891344"},{"town":"西湯坂","koaza":"","lat":35.604539,"lng":140.358984,"zip":"2891300"},{"town":"野堀","koaza":"","lat":35.629241,"lng":140.405142,"zip":"2891341"},{"town":"蓮沼イ","koaza":"","lat":35.609835,"lng":140.50398,"zip":"2891801"},{"town":"蓮沼ニ","koaza":"","lat":35.593781,"lng":140.487263,"zip":"2891805"},{"town":"蓮沼ハ","koaza":"","lat":35.600489,"lng":140.494731,"zip":"2891806"},{"town":"蓮沼平","koaza":"","lat":35.582487,"lng":140.495709,"zip":"2891804"},{"town":"蓮沼ホ","koaza":"","lat":35.593461,"lng":140.511266,"zip":"2891803"},{"town":"蓮沼ロ","koaza":"","lat":35.602023,"lng":140.51061,"zip":"2891802"},{"town":"埴谷","koaza":"","lat":35.650952,"lng":140.380624,"zip":"2891223"},{"town":"早船","koaza":"","lat":35.618873,"lng":140.434009,"zip":"2891311"},{"town":"姫島","koaza":"","lat":35.591253,"lng":140.391444,"zip":"2891327"},{"town":"日向台","koaza":"","lat":35.630477,"lng":140.369832,"zip":"2891206"},{"town":"松尾町祝田","koaza":"","lat":35.630396,"lng":140.455031,"zip":"2891524"},{"town":"松尾町大堤","koaza":"","lat":35.631439,"lng":140.450599,"zip":"2891527"},{"town":"松尾町小川","koaza":"","lat":35.637173,"lng":140.416608,"zip":"2891507"},{"town":"松尾町折戸","koaza":"","lat":35.597781,"lng":140.47335,"zip":"2891535"},{"town":"松尾町借毛本郷","koaza":"","lat":35.610486,"lng":140.470863,"zip":"2891537"},{"town":"松尾町蕪木","koaza":"","lat":35.648301,"lng":140.441942,"zip":"2891511"},{"town":"松尾町上大蔵","koaza":"","lat":35.635054,"lng":140.42893,"zip":"2891506"},{"town":"松尾町金尾","koaza":"","lat":35.645971,"lng":140.424212,"zip":"2891505"},{"town":"松尾町木刀","koaza":"","lat":35.624176,"lng":140.476631,"zip":"2891531"},{"town":"松尾町五反田","koaza":"","lat":35.631839,"lng":140.464126,"zip":"2891523"},{"town":"松尾町古和","koaza":"","lat":35.655488,"lng":140.42392,"zip":"2891504"},{"town":"松尾町猿尾","koaza":"","lat":35.642157,"lng":140.461741,"zip":"2891513"},{"town":"松尾町下大蔵","koaza":"","lat":35.629253,"lng":140.426129,"zip":"2891517"},{"town":"松尾町下野","koaza":"","lat":35.60352,"lng":140.479934,"zip":"2891534"},{"town":"松尾町下之郷","koaza":"","lat":35.605733,"lng":140.473251,"zip":"2891536"},{"town":"松尾町高富","koaza":"","lat":35.623672,"lng":140.465456,"zip":"2891522"},{"town":"松尾町武野里","koaza":"","lat":35.627395,"lng":140.492187,"zip":"2891532"},{"town":"松尾町田越","koaza":"","lat":35.630878,"lng":140.442679,"zip":"2891516"},{"town":"松尾町八田","koaza":"","lat":35.654206,"lng":140.461554,"zip":"2891512"},{"town":"松尾町引越","koaza":"","lat":35.664076,"lng":140.425642,"zip":"2891502"},{"town":"松尾町広根","koaza":"","lat":35.612711,"lng":140.483638,"zip":"2891533"},{"town":"松尾町富士見台","koaza":"","lat":35.638924,"lng":140.446671,"zip":"2891515"},{"town":"松尾町松尾","koaza":"","lat":35.639571,"lng":140.455783,"zip":"2891514"},{"town":"松尾町水深","koaza":"","lat":35.626101,"lng":140.449673,"zip":"2891526"},{"town":"松尾町本柏","koaza":"","lat":35.635286,"lng":140.474575,"zip":"2891521"},{"town":"松尾町本水深","koaza":"","lat":35.623643,"lng":140.450403,"zip":"2891525"},{"town":"松尾町谷津","koaza":"","lat":35.660681,"lng":140.43328,"zip":"2891503"},{"town":"松尾町山室","koaza":"","lat":35.669914,"lng":140.421414,"zip":"2891501"},{"town":"松ヶ谷","koaza":"","lat":35.575162,"lng":140.474271,"zip":"2891303"},{"town":"美杉野一丁目","koaza":"","lat":35.643483,"lng":140.375194,"zip":"2891224"},{"town":"美杉野二丁目","koaza":"","lat":35.646079,"lng":140.37782,"zip":"2891224"},{"town":"美杉野四丁目","koaza":"","lat":35.647066,"lng":140.374178,"zip":"2891224"},{"town":"武勝","koaza":"","lat":35.628864,"lng":140.338622,"zip":"2891218"},{"town":"本須賀","koaza":"","lat":35.560937,"lng":140.457745,"zip":"2891305"},{"town":"森","koaza":"","lat":35.616133,"lng":140.363239,"zip":"2891214"},{"town":"矢部","koaza":"","lat":35.617941,"lng":140.383789,"zip":"2891215"},{"town":"湯坂","koaza":"","lat":35.607209,"lng":140.381748,"zip":"2891328"},{"town":"横田","koaza":"","lat":35.673677,"lng":140.365929,"zip":"2891226"},{"town":"和田","koaza":"","lat":35.613202,"lng":140.40185,"zip":"2891334"},{"town":"新泉","koaza":"ト","lat":35.613456,"lng":140.416062,"zip":"2891344"},{"town":"富田","koaza":"ト","lat":35.609955,"lng":140.423933,"zip":"2891321"},{"town":"早船","koaza":"ト","lat":35.620191,"lng":140.438088,"zip":"2891311"},{"town":"蓮沼ハ","koaza":"中根南割","lat":35.604244,"lng":140.492841,"zip":"2891806"}]