[{"town":"相之川一丁目","koaza":"","lat":35.680621,"lng":139.895378,"zip":"2720143"},{"town":"相之川二丁目","koaza":"","lat":35.677859,"lng":139.897422,"zip":"2720143"},{"town":"相之川三丁目","koaza":"","lat":35.676028,"lng":139.899332,"zip":"2720143"},{"town":"相之川四丁目","koaza":"","lat":35.674015,"lng":139.901553,"zip":"2720143"},{"town":"新井一丁目","koaza":"","lat":35.675498,"lng":139.892156,"zip":"2720144"},{"town":"新井二丁目","koaza":"","lat":35.674679,"lng":139.895389,"zip":"2720144"},{"town":"新井三丁目","koaza":"","lat":35.672855,"lng":139.897599,"zip":"2720144"},{"town":"伊勢宿","koaza":"","lat":35.687896,"lng":139.915226,"zip":"2720106"},{"town":"市川一丁目","koaza":"","lat":35.731849,"lng":139.909029,"zip":"2720034"},{"town":"市川二丁目","koaza":"","lat":35.732208,"lng":139.903867,"zip":"2720034"},{"town":"市川三丁目","koaza":"","lat":35.735973,"lng":139.903505,"zip":"2720034"},{"town":"市川四丁目","koaza":"","lat":35.740207,"lng":139.902402,"zip":"2720034"},{"town":"市川南一丁目","koaza":"","lat":35.727934,"lng":139.907026,"zip":"2720033"},{"town":"市川南二丁目","koaza":"","lat":35.724684,"lng":139.905012,"zip":"2720033"},{"town":"市川南三丁目","koaza":"","lat":35.730171,"lng":139.901596,"zip":"2720033"},{"town":"市川南四丁目","koaza":"","lat":35.726158,"lng":139.900417,"zip":"2720033"},{"town":"市川南五丁目","koaza":"","lat":35.723233,"lng":139.901219,"zip":"2720033"},{"town":"稲越町","koaza":"","lat":35.756186,"lng":139.926708,"zip":"2720000"},{"town":"入船","koaza":"","lat":35.678947,"lng":139.921396,"zip":"2720134"},{"town":"大洲一丁目","koaza":"","lat":35.718683,"lng":139.911389,"zip":"2720032"},{"town":"大洲二丁目","koaza":"","lat":35.716104,"lng":139.909713,"zip":"2720032"},{"town":"大洲三丁目","koaza":"","lat":35.720332,"lng":139.905458,"zip":"2720032"},{"town":"大洲四丁目","koaza":"","lat":35.721517,"lng":139.908738,"zip":"2720032"},{"town":"大野町一丁目","koaza":"","lat":35.747204,"lng":139.945233,"zip":"2720805"},{"town":"大野町二丁目","koaza":"","lat":35.75385,"lng":139.948065,"zip":"2720805"},{"town":"大野町三丁目","koaza":"","lat":35.754015,"lng":139.955785,"zip":"2720805"},{"town":"大野町四丁目","koaza":"","lat":35.761562,"lng":139.972363,"zip":"2720805"},{"town":"大町","koaza":"","lat":35.767141,"lng":139.958499,"zip":"2720801"},{"town":"大和田一丁目","koaza":"","lat":35.71543,"lng":139.919443,"zip":"2720025"},{"town":"大和田二丁目","koaza":"","lat":35.711695,"lng":139.916943,"zip":"2720025"},{"town":"大和田三丁目","koaza":"","lat":35.716967,"lng":139.917823,"zip":"2720025"},{"town":"大和田四丁目","koaza":"","lat":35.718122,"lng":139.915459,"zip":"2720025"},{"town":"大和田五丁目","koaza":"","lat":35.713336,"lng":139.913005,"zip":"2720025"},{"town":"押切","koaza":"","lat":35.686608,"lng":139.9132,"zip":"2720107"},{"town":"鬼越一丁目","koaza":"","lat":35.71909,"lng":139.938432,"zip":"2720022"},{"town":"鬼越二丁目","koaza":"","lat":35.71761,"lng":139.9374,"zip":"2720022"},{"town":"鬼高一丁目","koaza":"","lat":35.714387,"lng":139.933992,"zip":"2720015"},{"town":"鬼高二丁目","koaza":"","lat":35.713959,"lng":139.938384,"zip":"2720015"},{"town":"鬼高三丁目","koaza":"","lat":35.709738,"lng":139.937497,"zip":"2720015"},{"town":"鬼高四丁目","koaza":"","lat":35.710161,"lng":139.930153,"zip":"2720015"},{"town":"欠真間一丁目","koaza":"","lat":35.680586,"lng":139.902087,"zip":"2720142"},{"town":"欠真間二丁目","koaza":"","lat":35.677217,"lng":139.9041,"zip":"2720142"},{"town":"柏井町一丁目","koaza":"","lat":35.73751,"lng":139.967878,"zip":"2720802"},{"town":"柏井町二丁目","koaza":"","lat":35.741904,"lng":139.964261,"zip":"2720802"},{"town":"柏井町三丁目","koaza":"","lat":35.746909,"lng":139.961811,"zip":"2720802"},{"town":"柏井町四丁目","koaza":"","lat":35.750688,"lng":139.96793,"zip":"2720802"},{"town":"加藤新田","koaza":"","lat":35.677885,"lng":139.931025,"zip":"2720124"},{"town":"上妙典","koaza":"","lat":35.685218,"lng":139.943743,"zip":"2720112"},{"town":"河原","koaza":"","lat":35.702421,"lng":139.92109,"zip":"2720101"},{"town":"香取一丁目","koaza":"","lat":35.681955,"lng":139.905499,"zip":"2720141"},{"town":"香取二丁目","koaza":"","lat":35.679386,"lng":139.907689,"zip":"2720141"},{"town":"北方一丁目","koaza":"","lat":35.721597,"lng":139.938687,"zip":"2720815"},{"town":"北方二丁目","koaza":"","lat":35.724839,"lng":139.93976,"zip":"2720815"},{"town":"北方三丁目","koaza":"","lat":35.72411,"lng":139.945476,"zip":"2720815"},{"town":"北国分一丁目","koaza":"","lat":35.75888,"lng":139.905203,"zip":"2720836"},{"town":"北国分二丁目","koaza":"","lat":35.762525,"lng":139.905289,"zip":"2720836"},{"town":"北国分三丁目","koaza":"","lat":35.761117,"lng":139.909428,"zip":"2720836"},{"town":"北国分四丁目","koaza":"","lat":35.764981,"lng":139.907981,"zip":"2720836"},{"town":"行徳駅前一丁目","koaza":"","lat":35.68342,"lng":139.916283,"zip":"2720133"},{"town":"行徳駅前二丁目","koaza":"","lat":35.681814,"lng":139.913824,"zip":"2720133"},{"town":"行徳駅前三丁目","koaza":"","lat":35.680645,"lng":139.91898,"zip":"2720133"},{"town":"行徳駅前四丁目","koaza":"","lat":35.67772,"lng":139.915992,"zip":"2720133"},{"town":"国府台一丁目","koaza":"","lat":35.744808,"lng":139.907123,"zip":"2720827"},{"town":"国府台二丁目","koaza":"","lat":35.743813,"lng":139.902484,"zip":"2720827"},{"town":"国府台三丁目","koaza":"","lat":35.748711,"lng":139.897987,"zip":"2720827"},{"town":"国府台四丁目","koaza":"","lat":35.751633,"lng":139.900147,"zip":"2720827"},{"town":"国府台五丁目","koaza":"","lat":35.75149,"lng":139.90386,"zip":"2720827"},{"town":"国府台六丁目","koaza":"","lat":35.756539,"lng":139.903385,"zip":"2720827"},{"town":"高谷","koaza":"","lat":35.690557,"lng":139.943142,"zip":"2720013"},{"town":"高谷一丁目","koaza":"","lat":35.70061,"lng":139.940835,"zip":"2720013"},{"town":"高谷二丁目","koaza":"","lat":35.699209,"lng":139.938922,"zip":"2720013"},{"town":"高谷三丁目","koaza":"","lat":35.696099,"lng":139.939571,"zip":"2720013"},{"town":"高谷新町","koaza":"","lat":35.6803,"lng":139.951373,"zip":"2720011"},{"town":"国分一丁目","koaza":"","lat":35.741436,"lng":139.919364,"zip":"2720834"},{"town":"国分二丁目","koaza":"","lat":35.741632,"lng":139.915785,"zip":"2720834"},{"town":"国分三丁目","koaza":"","lat":35.743761,"lng":139.913527,"zip":"2720834"},{"town":"国分四丁目","koaza":"","lat":35.747783,"lng":139.911641,"zip":"2720834"},{"town":"国分五丁目","koaza":"","lat":35.746708,"lng":139.916741,"zip":"2720834"},{"town":"国分六丁目","koaza":"","lat":35.748244,"lng":139.919329,"zip":"2720834"},{"town":"国分七丁目","koaza":"","lat":35.753718,"lng":139.91953,"zip":"2720834"},{"town":"幸一丁目","koaza":"","lat":35.680825,"lng":139.929272,"zip":"2720123"},{"town":"幸二丁目","koaza":"","lat":35.678113,"lng":139.926948,"zip":"2720123"},{"town":"塩浜一丁目","koaza":"","lat":35.669654,"lng":139.939168,"zip":"2720127"},{"town":"塩浜二丁目","koaza":"","lat":35.665622,"lng":139.926063,"zip":"2720127"},{"town":"塩浜三丁目","koaza":"","lat":35.663655,"lng":139.920111,"zip":"2720127"},{"town":"塩浜四丁目","koaza":"","lat":35.662501,"lng":139.912395,"zip":"2720127"},{"town":"塩焼一丁目","koaza":"","lat":35.688806,"lng":139.928892,"zip":"2720114"},{"town":"塩焼二丁目","koaza":"","lat":35.68681,"lng":139.926755,"zip":"2720114"},{"town":"塩焼三丁目","koaza":"","lat":35.68477,"lng":139.924427,"zip":"2720114"},{"town":"塩焼四丁目","koaza":"","lat":35.686511,"lng":139.931521,"zip":"2720114"},{"town":"塩焼五丁目","koaza":"","lat":35.684412,"lng":139.929783,"zip":"2720114"},{"town":"島尻","koaza":"","lat":35.673449,"lng":139.887062,"zip":"2720145"},{"town":"下貝塚一丁目","koaza":"","lat":35.742475,"lng":139.940474,"zip":"2720821"},{"town":"下貝塚二丁目","koaza":"","lat":35.744483,"lng":139.942472,"zip":"2720821"},{"town":"下貝塚三丁目","koaza":"","lat":35.739756,"lng":139.947734,"zip":"2720821"},{"town":"下新宿","koaza":"","lat":35.697417,"lng":139.921029,"zip":"2720102"},{"town":"下妙典","koaza":"","lat":35.687488,"lng":139.937077,"zip":"2720113"},{"town":"新田一丁目","koaza":"","lat":35.728004,"lng":139.915738,"zip":"2720035"},{"town":"新田二丁目","koaza":"","lat":35.725291,"lng":139.913699,"zip":"2720035"},{"town":"新田三丁目","koaza":"","lat":35.721895,"lng":139.912846,"zip":"2720035"},{"town":"新田四丁目","koaza":"","lat":35.7257,"lng":139.909363,"zip":"2720035"},{"town":"新田五丁目","koaza":"","lat":35.729371,"lng":139.912132,"zip":"2720035"},{"town":"末広一丁目","koaza":"","lat":35.685674,"lng":139.918423,"zip":"2720121"},{"town":"末広二丁目","koaza":"","lat":35.681931,"lng":139.921557,"zip":"2720121"},{"town":"菅野一丁目","koaza":"","lat":35.727842,"lng":139.925937,"zip":"2720824"},{"town":"菅野二丁目","koaza":"","lat":35.72831,"lng":139.921809,"zip":"2720824"},{"town":"菅野三丁目","koaza":"","lat":35.731267,"lng":139.9183,"zip":"2720824"},{"town":"菅野四丁目","koaza":"","lat":35.731911,"lng":139.924444,"zip":"2720824"},{"town":"菅野五丁目","koaza":"","lat":35.734382,"lng":139.923622,"zip":"2720824"},{"town":"菅野六丁目","koaza":"","lat":35.734347,"lng":139.91709,"zip":"2720824"},{"town":"須和田一丁目","koaza":"","lat":35.737023,"lng":139.921442,"zip":"2720825"},{"town":"須和田二丁目","koaza":"","lat":35.73838,"lng":139.914323,"zip":"2720825"},{"town":"関ケ島","koaza":"","lat":35.689215,"lng":139.916065,"zip":"2720105"},{"town":"曽谷一丁目","koaza":"","lat":35.742486,"lng":139.935872,"zip":"2720832"},{"town":"曽谷二丁目","koaza":"","lat":35.747168,"lng":139.936374,"zip":"2720832"},{"town":"曽谷三丁目","koaza":"","lat":35.741692,"lng":139.931117,"zip":"2720832"},{"town":"曽谷四丁目","koaza":"","lat":35.74871,"lng":139.93122,"zip":"2720832"},{"town":"曽谷五丁目","koaza":"","lat":35.747939,"lng":139.928281,"zip":"2720832"},{"town":"曽谷六丁目","koaza":"","lat":35.741464,"lng":139.92663,"zip":"2720832"},{"town":"曽谷七丁目","koaza":"","lat":35.746932,"lng":139.925959,"zip":"2720832"},{"town":"曽谷八丁目","koaza":"","lat":35.750827,"lng":139.925049,"zip":"2720832"},{"town":"高石神","koaza":"","lat":35.717906,"lng":139.942012,"zip":"2720814"},{"town":"高浜町","koaza":"","lat":35.675667,"lng":139.93408,"zip":"2720125"},{"town":"宝一丁目","koaza":"","lat":35.683082,"lng":139.92676,"zip":"2720122"},{"town":"宝二丁目","koaza":"","lat":35.6807,"lng":139.924166,"zip":"2720122"},{"town":"田尻","koaza":"","lat":35.686929,"lng":139.945616,"zip":"2720014"},{"town":"田尻一丁目","koaza":"","lat":35.707688,"lng":139.929483,"zip":"2720014"},{"town":"田尻二丁目","koaza":"","lat":35.704974,"lng":139.929668,"zip":"2720014"},{"town":"田尻三丁目","koaza":"","lat":35.706272,"lng":139.936363,"zip":"2720014"},{"town":"田尻四丁目","koaza":"","lat":35.703789,"lng":139.935777,"zip":"2720014"},{"town":"田尻五丁目","koaza":"","lat":35.699288,"lng":139.933321,"zip":"2720014"},{"town":"千鳥町","koaza":"","lat":35.673892,"lng":139.928276,"zip":"2720126"},{"town":"稲荷木一丁目","koaza":"","lat":35.711679,"lng":139.923004,"zip":"2720024"},{"town":"稲荷木二丁目","koaza":"","lat":35.706222,"lng":139.924126,"zip":"2720024"},{"town":"稲荷木三丁目","koaza":"","lat":35.707097,"lng":139.919478,"zip":"2720024"},{"town":"富浜一丁目","koaza":"","lat":35.691433,"lng":139.924751,"zip":"2720115"},{"town":"富浜二丁目","koaza":"","lat":35.689471,"lng":139.923583,"zip":"2720115"},{"town":"富浜三丁目","koaza":"","lat":35.687136,"lng":139.921295,"zip":"2720115"},{"town":"中国分一丁目","koaza":"","lat":35.752444,"lng":139.915692,"zip":"2720835"},{"town":"中国分二丁目","koaza":"","lat":35.750166,"lng":139.912173,"zip":"2720835"},{"town":"中国分三丁目","koaza":"","lat":35.753416,"lng":139.912164,"zip":"2720835"},{"town":"中国分四丁目","koaza":"","lat":35.75218,"lng":139.90706,"zip":"2720835"},{"town":"中国分五丁目","koaza":"","lat":35.755726,"lng":139.909286,"zip":"2720835"},{"town":"中山一丁目","koaza":"","lat":35.722517,"lng":139.945934,"zip":"2720813"},{"town":"中山二丁目","koaza":"","lat":35.721331,"lng":139.948488,"zip":"2720813"},{"town":"中山三丁目","koaza":"","lat":35.718999,"lng":139.949746,"zip":"2720813"},{"town":"中山四丁目","koaza":"","lat":35.717994,"lng":139.94592,"zip":"2720813"},{"town":"新浜一丁目","koaza":"","lat":35.675554,"lng":139.917803,"zip":"2720136"},{"town":"新浜二丁目","koaza":"","lat":35.672714,"lng":139.917706,"zip":"2720136"},{"town":"新浜三丁目","koaza":"","lat":35.66893,"lng":139.919464,"zip":"2720136"},{"town":"原木","koaza":"","lat":35.693063,"lng":139.951719,"zip":"2720004"},{"town":"原木一丁目","koaza":"","lat":35.704968,"lng":139.94571,"zip":"2720004"},{"town":"原木二丁目","koaza":"","lat":35.699073,"lng":139.945096,"zip":"2720004"},{"town":"原木三丁目","koaza":"","lat":35.703105,"lng":139.950813,"zip":"2720004"},{"town":"原木四丁目","koaza":"","lat":35.697686,"lng":139.952546,"zip":"2720004"},{"town":"東大和田一丁目","koaza":"","lat":35.714357,"lng":139.925595,"zip":"2720026"},{"town":"東大和田二丁目","koaza":"","lat":35.715341,"lng":139.922676,"zip":"2720026"},{"town":"東国分一丁目","koaza":"","lat":35.741143,"lng":139.922776,"zip":"2720833"},{"town":"東国分二丁目","koaza":"","lat":35.746577,"lng":139.921984,"zip":"2720833"},{"town":"東国分三丁目","koaza":"","lat":35.750615,"lng":139.921961,"zip":"2720833"},{"town":"東菅野一丁目","koaza":"","lat":35.728285,"lng":139.930899,"zip":"2720823"},{"town":"東菅野二丁目","koaza":"","lat":35.733317,"lng":139.929601,"zip":"2720823"},{"town":"東菅野三丁目","koaza":"","lat":35.732049,"lng":139.932944,"zip":"2720823"},{"town":"東菅野四丁目","koaza":"","lat":35.732261,"lng":139.938508,"zip":"2720823"},{"town":"東菅野五丁目","koaza":"","lat":35.734965,"lng":139.945888,"zip":"2720823"},{"town":"東浜一丁目","koaza":"","lat":35.675952,"lng":139.961049,"zip":"2720003"},{"town":"日之出","koaza":"","lat":35.676464,"lng":139.923304,"zip":"2720135"},{"town":"平田一丁目","koaza":"","lat":35.724958,"lng":139.923183,"zip":"2720031"},{"town":"平田二丁目","koaza":"","lat":35.726849,"lng":139.919882,"zip":"2720031"},{"town":"平田三丁目","koaza":"","lat":35.722538,"lng":139.919212,"zip":"2720031"},{"town":"平田四丁目","koaza":"","lat":35.720399,"lng":139.917883,"zip":"2720031"},{"town":"広尾一丁目","koaza":"","lat":35.677579,"lng":139.892108,"zip":"2720146"},{"town":"広尾二丁目","koaza":"","lat":35.678231,"lng":139.888517,"zip":"2720146"},{"town":"福栄一丁目","koaza":"","lat":35.676351,"lng":139.908815,"zip":"2720137"},{"town":"福栄二丁目","koaza":"","lat":35.67597,"lng":139.913042,"zip":"2720137"},{"town":"福栄三丁目","koaza":"","lat":35.672566,"lng":139.909707,"zip":"2720137"},{"town":"福栄四丁目","koaza":"","lat":35.669667,"lng":139.911896,"zip":"2720137"},{"town":"二俣","koaza":"","lat":35.69676,"lng":139.958542,"zip":"2720001"},{"town":"二俣一丁目","koaza":"","lat":35.704935,"lng":139.951114,"zip":"2720001"},{"town":"二俣二丁目","koaza":"","lat":35.703536,"lng":139.955854,"zip":"2720001"},{"town":"二俣新町","koaza":"","lat":35.685084,"lng":139.959319,"zip":"2720002"},{"town":"奉免町","koaza":"","lat":35.741287,"lng":139.956799,"zip":"2720803"},{"town":"北方町四丁目","koaza":"","lat":35.733266,"lng":139.952607,"zip":"2720811"},{"town":"堀之内一丁目","koaza":"","lat":35.75633,"lng":139.918398,"zip":"2720837"},{"town":"堀之内二丁目","koaza":"","lat":35.758065,"lng":139.912537,"zip":"2720837"},{"town":"堀之内三丁目","koaza":"","lat":35.762362,"lng":139.913647,"zip":"2720837"},{"town":"堀之内四丁目","koaza":"","lat":35.760285,"lng":139.916951,"zip":"2720837"},{"town":"堀之内五丁目","koaza":"","lat":35.760124,"lng":139.920769,"zip":"2720837"},{"town":"本行徳","koaza":"","lat":35.694017,"lng":139.91821,"zip":"2720103"},{"town":"本塩","koaza":"","lat":35.691242,"lng":139.920713,"zip":"2720104"},{"town":"真間一丁目","koaza":"","lat":35.732006,"lng":139.912897,"zip":"2720826"},{"town":"真間二丁目","koaza":"","lat":35.735674,"lng":139.908925,"zip":"2720826"},{"town":"真間三丁目","koaza":"","lat":35.735097,"lng":139.912357,"zip":"2720826"},{"town":"真間四丁目","koaza":"","lat":35.738962,"lng":139.908917,"zip":"2720826"},{"town":"真間五丁目","koaza":"","lat":35.742298,"lng":139.910786,"zip":"2720826"},{"town":"湊","koaza":"","lat":35.685088,"lng":139.910691,"zip":"2720131"},{"town":"湊新田","koaza":"","lat":35.683928,"lng":139.908415,"zip":"2720132"},{"town":"湊新田一丁目","koaza":"","lat":35.681739,"lng":139.909613,"zip":"2720132"},{"town":"湊新田二丁目","koaza":"","lat":35.679337,"lng":139.912737,"zip":"2720132"},{"town":"南大野一丁目","koaza":"","lat":35.7425,"lng":139.949802,"zip":"2720804"},{"town":"南大野二丁目","koaza":"","lat":35.745623,"lng":139.951572,"zip":"2720804"},{"town":"南大野三丁目","koaza":"","lat":35.747166,"lng":139.955793,"zip":"2720804"},{"town":"南行徳一丁目","koaza":"","lat":35.672727,"lng":139.904433,"zip":"2720138"},{"town":"南行徳二丁目","koaza":"","lat":35.669717,"lng":139.905389,"zip":"2720138"},{"town":"南行徳三丁目","koaza":"","lat":35.668357,"lng":139.90321,"zip":"2720138"},{"town":"南行徳四丁目","koaza":"","lat":35.665177,"lng":139.906394,"zip":"2720138"},{"town":"南八幡一丁目","koaza":"","lat":35.716544,"lng":139.930513,"zip":"2720023"},{"town":"南八幡二丁目","koaza":"","lat":35.713125,"lng":139.929706,"zip":"2720023"},{"town":"南八幡三丁目","koaza":"","lat":35.718022,"lng":139.927794,"zip":"2720023"},{"town":"南八幡四丁目","koaza":"","lat":35.719226,"lng":139.925333,"zip":"2720023"},{"town":"南八幡五丁目","koaza":"","lat":35.720274,"lng":139.922897,"zip":"2720023"},{"town":"宮久保一丁目","koaza":"","lat":35.736885,"lng":139.929739,"zip":"2720822"},{"town":"宮久保二丁目","koaza":"","lat":35.738803,"lng":139.93078,"zip":"2720822"},{"town":"宮久保三丁目","koaza":"","lat":35.735158,"lng":139.937026,"zip":"2720822"},{"town":"宮久保四丁目","koaza":"","lat":35.73917,"lng":139.937541,"zip":"2720822"},{"town":"宮久保五丁目","koaza":"","lat":35.736665,"lng":139.944623,"zip":"2720822"},{"town":"宮久保六丁目","koaza":"","lat":35.738771,"lng":139.942921,"zip":"2720822"},{"town":"妙典一丁目","koaza":"","lat":35.698767,"lng":139.925693,"zip":"2720111"},{"town":"妙典二丁目","koaza":"","lat":35.697064,"lng":139.929895,"zip":"2720111"},{"town":"妙典三丁目","koaza":"","lat":35.694163,"lng":139.924518,"zip":"2720111"},{"town":"妙典四丁目","koaza":"","lat":35.690563,"lng":139.927684,"zip":"2720111"},{"town":"妙典五丁目","koaza":"","lat":35.691038,"lng":139.930435,"zip":"2720111"},{"town":"妙典六丁目","koaza":"","lat":35.692609,"lng":139.933169,"zip":"2720111"},{"town":"本北方一丁目","koaza":"","lat":35.727228,"lng":139.94254,"zip":"2720816"},{"town":"本北方二丁目","koaza":"","lat":35.730348,"lng":139.945659,"zip":"2720816"},{"town":"本北方三丁目","koaza":"","lat":35.727907,"lng":139.949926,"zip":"2720816"},{"town":"八幡一丁目","koaza":"","lat":35.720285,"lng":139.932528,"zip":"2720021"},{"town":"八幡二丁目","koaza":"","lat":35.721767,"lng":139.928122,"zip":"2720021"},{"town":"八幡三丁目","koaza":"","lat":35.724208,"lng":139.926247,"zip":"2720021"},{"town":"八幡四丁目","koaza":"","lat":35.724752,"lng":139.931342,"zip":"2720021"},{"town":"八幡五丁目","koaza":"","lat":35.723926,"lng":139.934902,"zip":"2720021"},{"town":"八幡六丁目","koaza":"","lat":35.728879,"lng":139.937192,"zip":"2720021"},{"town":"若宮一丁目","koaza":"","lat":35.718135,"lng":139.950602,"zip":"2720812"},{"town":"若宮二丁目","koaza":"","lat":35.721599,"lng":139.954047,"zip":"2720812"},{"town":"若宮三丁目","koaza":"","lat":35.725976,"lng":139.954739,"zip":"2720812"}]