[{"town":"相川","koaza":"","lat":35.467401,"lng":140.117944,"zip":"2900252"},{"town":"青葉台一丁目","koaza":"","lat":35.47131,"lng":140.060677,"zip":"2990117"},{"town":"青葉台二丁目","koaza":"","lat":35.467393,"lng":140.05998,"zip":"2990117"},{"town":"青葉台三丁目","koaza":"","lat":35.470587,"lng":140.05731,"zip":"2990117"},{"town":"青葉台四丁目","koaza":"","lat":35.467355,"lng":140.055428,"zip":"2990117"},{"town":"青葉台五丁目","koaza":"","lat":35.470382,"lng":140.053412,"zip":"2990117"},{"town":"青葉台六丁目","koaza":"","lat":35.468598,"lng":140.049521,"zip":"2990117"},{"town":"青葉台七丁目","koaza":"","lat":35.465548,"lng":140.050457,"zip":"2990117"},{"town":"青葉台八丁目","koaza":"","lat":35.46374,"lng":140.049554,"zip":"2990117"},{"town":"青柳","koaza":"","lat":35.501309,"lng":140.061774,"zip":"2990102"},{"town":"青柳一丁目","koaza":"","lat":35.49909,"lng":140.053958,"zip":"2990102"},{"town":"青柳二丁目","koaza":"","lat":35.501613,"lng":140.054545,"zip":"2990102"},{"town":"青柳三丁目","koaza":"","lat":35.504196,"lng":140.056003,"zip":"2990102"},{"town":"青柳北一丁目","koaza":"","lat":35.514443,"lng":140.064627,"zip":"2990101"},{"town":"青柳北二丁目","koaza":"","lat":35.510688,"lng":140.062565,"zip":"2990101"},{"town":"青柳北三丁目","koaza":"","lat":35.507975,"lng":140.060584,"zip":"2990101"},{"town":"青柳北四丁目","koaza":"","lat":35.506095,"lng":140.058259,"zip":"2990101"},{"town":"青柳緑地","koaza":"","lat":35.512448,"lng":140.0605,"zip":"2900000"},{"town":"安久谷","koaza":"","lat":35.397481,"lng":140.152823,"zip":"2900509"},{"town":"浅井小向","koaza":"","lat":35.468451,"lng":140.112244,"zip":"2900251"},{"town":"旭五所","koaza":"","lat":35.52943,"lng":140.116307,"zip":"2900063"},{"town":"安須","koaza":"","lat":35.457617,"lng":140.115572,"zip":"2900253"},{"town":"朝生原","koaza":"","lat":35.264917,"lng":140.163886,"zip":"2900535"},{"town":"姉崎海岸","koaza":"","lat":35.486561,"lng":140.028584,"zip":"2990107"},{"town":"姉崎西一丁目","koaza":"","lat":35.480264,"lng":140.042086,"zip":"2990119"},{"town":"姉崎西二丁目","koaza":"","lat":35.47805,"lng":140.038765,"zip":"2990119"},{"town":"姉崎西三丁目","koaza":"","lat":35.475953,"lng":140.034337,"zip":"2990119"},{"town":"海士有木","koaza":"","lat":35.471062,"lng":140.125626,"zip":"2900207"},{"town":"天羽田","koaza":"","lat":35.430632,"lng":140.051607,"zip":"2990126"},{"town":"新井","koaza":"","lat":35.342981,"lng":140.182258,"zip":"2900522"},{"town":"新生","koaza":"","lat":35.463562,"lng":140.105037,"zip":"2900257"},{"town":"新巻","koaza":"","lat":35.432467,"lng":140.168798,"zip":"2900212"},{"town":"飯沼","koaza":"","lat":35.502645,"lng":140.079899,"zip":"2900037"},{"town":"池和田","koaza":"","lat":35.381665,"lng":140.171601,"zip":"2900516"},{"town":"石神","koaza":"","lat":35.271847,"lng":140.170517,"zip":"2900534"},{"town":"石川","koaza":"","lat":35.392184,"lng":140.17877,"zip":"2900511"},{"town":"石塚","koaza":"","lat":35.261981,"lng":140.125665,"zip":"2900537"},{"town":"泉台一丁目","koaza":"","lat":35.457293,"lng":140.067176,"zip":"2990114"},{"town":"泉台二丁目","koaza":"","lat":35.455562,"lng":140.069419,"zip":"2990114"},{"town":"泉台三丁目","koaza":"","lat":35.453334,"lng":140.071044,"zip":"2990114"},{"town":"泉台四丁目","koaza":"","lat":35.45295,"lng":140.07436,"zip":"2990114"},{"town":"泉台五丁目","koaza":"","lat":35.451977,"lng":140.076465,"zip":"2990114"},{"town":"磯ケ谷","koaza":"","lat":35.446622,"lng":140.148294,"zip":"2900204"},{"town":"板倉","koaza":"","lat":35.492355,"lng":140.250398,"zip":"2900000"},{"town":"飯給","koaza":"","lat":35.324318,"lng":140.150171,"zip":"2900543"},{"town":"市場","koaza":"","lat":35.406459,"lng":140.183886,"zip":"2900505"},{"town":"市原","koaza":"","lat":35.521905,"lng":140.123104,"zip":"2900015"},{"town":"糸久","koaza":"","lat":35.47578,"lng":140.10675,"zip":"2900262"},{"town":"犬成","koaza":"","lat":35.486244,"lng":140.193405,"zip":"2900166"},{"town":"今津朝山","koaza":"","lat":35.49163,"lng":140.051455,"zip":"2990106"},{"town":"今富","koaza":"","lat":35.468554,"lng":140.086882,"zip":"2900265"},{"town":"不入斗","koaza":"","lat":35.44899,"lng":140.060699,"zip":"2990115"},{"town":"岩","koaza":"","lat":35.376187,"lng":140.147129,"zip":"2900228"},{"town":"岩崎","koaza":"","lat":35.526155,"lng":140.078903,"zip":"2900047"},{"town":"岩崎一丁目","koaza":"","lat":35.52356,"lng":140.076003,"zip":"2900047"},{"town":"岩崎二丁目","koaza":"","lat":35.5277,"lng":140.075126,"zip":"2900047"},{"town":"岩崎西一丁目","koaza":"","lat":35.524728,"lng":140.071359,"zip":"2900046"},{"town":"岩崎緑地","koaza":"","lat":35.528107,"lng":140.070098,"zip":"2900000"},{"town":"岩野見","koaza":"","lat":35.511296,"lng":140.104762,"zip":"2900052"},{"town":"上原","koaza":"","lat":35.421523,"lng":140.124648,"zip":"2900222"},{"town":"牛久","koaza":"","lat":35.399119,"lng":140.140039,"zip":"2900225"},{"town":"馬立","koaza":"","lat":35.427332,"lng":140.120886,"zip":"2900221"},{"town":"江子田","koaza":"","lat":35.392735,"lng":140.150744,"zip":"2900508"},{"town":"大桶","koaza":"","lat":35.449293,"lng":140.171371,"zip":"2900211"},{"town":"大久保","koaza":"","lat":35.275483,"lng":140.135403,"zip":"2900532"},{"town":"大蔵","koaza":"","lat":35.378244,"lng":140.117261,"zip":"2900234"},{"town":"大作","koaza":"","lat":35.481438,"lng":140.182706,"zip":"2900172"},{"town":"大坪","koaza":"","lat":35.478665,"lng":140.117069,"zip":"2900208"},{"town":"大戸","koaza":"","lat":35.328813,"lng":140.146534,"zip":"2900542"},{"town":"大厩","koaza":"","lat":35.528704,"lng":140.153696,"zip":"2900002"},{"town":"大和田","koaza":"","lat":35.356451,"lng":140.163186,"zip":"2900553"},{"town":"荻作","koaza":"","lat":35.498962,"lng":140.160083,"zip":"2900177"},{"town":"奥野","koaza":"","lat":35.390782,"lng":140.193915,"zip":"2900513"},{"town":"押沼","koaza":"","lat":35.527413,"lng":140.198187,"zip":"2900157"},{"town":"小田部","koaza":"","lat":35.487506,"lng":140.152145,"zip":"2900176"},{"town":"折津","koaza":"","lat":35.268818,"lng":140.145444,"zip":"2900533"},{"town":"海保","koaza":"","lat":35.465986,"lng":140.076031,"zip":"2900266"},{"town":"柿木台","koaza":"","lat":35.309077,"lng":140.132563,"zip":"2900548"},{"town":"風戸","koaza":"","lat":35.439668,"lng":140.09813,"zip":"2900241"},{"town":"神代","koaza":"","lat":35.468962,"lng":140.097567,"zip":"2900258"},{"town":"柏原","koaza":"","lat":35.48282,"lng":140.06431,"zip":"2990105"},{"town":"片又木","koaza":"","lat":35.459276,"lng":140.070086,"zip":"2990113"},{"town":"勝間","koaza":"","lat":35.473896,"lng":140.161086,"zip":"2900174"},{"town":"金沢","koaza":"","lat":35.375058,"lng":140.124442,"zip":"2900233"},{"town":"上高根","koaza":"","lat":35.418846,"lng":140.098773,"zip":"2900243"},{"town":"加茂","koaza":"","lat":35.511225,"lng":140.110077,"zip":"2900025"},{"town":"加茂一丁目","koaza":"","lat":35.505806,"lng":140.111943,"zip":"2900025"},{"town":"加茂二丁目","koaza":"","lat":35.505277,"lng":140.110037,"zip":"2900025"},{"town":"栢橋","koaza":"","lat":35.388722,"lng":140.097774,"zip":"2900235"},{"town":"川在","koaza":"","lat":35.430783,"lng":140.157933,"zip":"2900213"},{"town":"菊間","koaza":"","lat":35.534332,"lng":140.138622,"zip":"2900007"},{"town":"喜多","koaza":"","lat":35.49949,"lng":140.187298,"zip":"2900167"},{"town":"北国分寺台一丁目","koaza":"","lat":35.506203,"lng":140.11953,"zip":"2900071"},{"town":"北国分寺台二丁目","koaza":"","lat":35.508781,"lng":140.118231,"zip":"2900071"},{"town":"北国分寺台三丁目","koaza":"","lat":35.510218,"lng":140.116608,"zip":"2900071"},{"town":"北国分寺台四丁目","koaza":"","lat":35.509221,"lng":140.113485,"zip":"2900071"},{"town":"北国分寺台五丁目","koaza":"","lat":35.507206,"lng":140.116373,"zip":"2900071"},{"town":"吉沢","koaza":"","lat":35.333798,"lng":140.186817,"zip":"2900523"},{"town":"君塚","koaza":"","lat":35.515903,"lng":140.106038,"zip":"2900051"},{"town":"君塚一丁目","koaza":"","lat":35.519799,"lng":140.102251,"zip":"2900051"},{"town":"君塚二丁目","koaza":"","lat":35.51959,"lng":140.106304,"zip":"2900051"},{"town":"君塚三丁目","koaza":"","lat":35.522735,"lng":140.105384,"zip":"2900051"},{"town":"君塚四丁目","koaza":"","lat":35.524874,"lng":140.1038,"zip":"2900051"},{"town":"君塚五丁目","koaza":"","lat":35.52204,"lng":140.098596,"zip":"2900051"},{"town":"久々津","koaza":"","lat":35.51744,"lng":140.161149,"zip":"2900179"},{"town":"草刈","koaza":"","lat":35.530216,"lng":140.164016,"zip":"2900156"},{"town":"久保","koaza":"","lat":35.368343,"lng":140.159654,"zip":"2900552"},{"town":"五井","koaza":"","lat":35.519555,"lng":140.086199,"zip":"2900056"},{"town":"五井海岸","koaza":"","lat":35.539082,"lng":140.080084,"zip":"2900058"},{"town":"五井金杉一丁目","koaza":"","lat":35.52529,"lng":140.097005,"zip":"2900057"},{"town":"五井金杉二丁目","koaza":"","lat":35.526081,"lng":140.094711,"zip":"2900057"},{"town":"五井金杉三丁目","koaza":"","lat":35.527662,"lng":140.092876,"zip":"2900057"},{"town":"五井金杉四丁目","koaza":"","lat":35.529322,"lng":140.090264,"zip":"2900057"},{"town":"五井中央西一丁目","koaza":"","lat":35.514045,"lng":140.087201,"zip":"2900081"},{"town":"五井中央西二丁目","koaza":"","lat":35.515466,"lng":140.088656,"zip":"2900081"},{"town":"五井中央西三丁目","koaza":"","lat":35.515849,"lng":140.090922,"zip":"2900081"},{"town":"五井中央東一丁目","koaza":"","lat":35.510868,"lng":140.090106,"zip":"2900054"},{"town":"五井中央東二丁目","koaza":"","lat":35.512166,"lng":140.092586,"zip":"2900054"},{"town":"五井西一丁目","koaza":"","lat":35.512499,"lng":140.071033,"zip":"2900038"},{"town":"五井西二丁目","koaza":"","lat":35.515036,"lng":140.074054,"zip":"2900038"},{"town":"五井西三丁目","koaza":"","lat":35.518275,"lng":140.074486,"zip":"2900038"},{"town":"五井西四丁目","koaza":"","lat":35.517119,"lng":140.071356,"zip":"2900038"},{"town":"五井西五丁目","koaza":"","lat":35.514342,"lng":140.069776,"zip":"2900038"},{"town":"五井西六丁目","koaza":"","lat":35.512427,"lng":140.067789,"zip":"2900038"},{"town":"五井西七丁目","koaza":"","lat":35.510387,"lng":140.070136,"zip":"2900038"},{"town":"五井東一丁目","koaza":"","lat":35.513559,"lng":140.095567,"zip":"2900055"},{"town":"五井東二丁目","koaza":"","lat":35.515141,"lng":140.097153,"zip":"2900055"},{"town":"五井東三丁目","koaza":"","lat":35.516526,"lng":140.099926,"zip":"2900055"},{"town":"五井南海岸","koaza":"","lat":35.529134,"lng":140.064892,"zip":"2900045"},{"town":"高坂","koaza":"","lat":35.453572,"lng":140.108653,"zip":"2900254"},{"town":"光風台一丁目","koaza":"","lat":35.44377,"lng":140.114521,"zip":"2900255"},{"town":"光風台二丁目","koaza":"","lat":35.447333,"lng":140.112114,"zip":"2900255"},{"town":"光風台三丁目","koaza":"","lat":35.447258,"lng":140.105879,"zip":"2900255"},{"town":"光風台四丁目","koaza":"","lat":35.447306,"lng":140.101456,"zip":"2900255"},{"town":"光風台五丁目","koaza":"","lat":35.450842,"lng":140.104457,"zip":"2900255"},{"town":"小折","koaza":"","lat":35.484489,"lng":140.101259,"zip":"2900269"},{"town":"郡本","koaza":"","lat":35.52064,"lng":140.108455,"zip":"2900013"},{"town":"郡本一丁目","koaza":"","lat":35.512343,"lng":140.119156,"zip":"2900013"},{"town":"郡本二丁目","koaza":"","lat":35.51216,"lng":140.126147,"zip":"2900013"},{"town":"郡本三丁目","koaza":"","lat":35.513716,"lng":140.123333,"zip":"2900013"},{"town":"郡本四丁目","koaza":"","lat":35.514359,"lng":140.120126,"zip":"2900013"},{"town":"郡本五丁目","koaza":"","lat":35.516533,"lng":140.121806,"zip":"2900013"},{"town":"郡本六丁目","koaza":"","lat":35.518044,"lng":140.114914,"zip":"2900013"},{"town":"小草畑","koaza":"","lat":35.314515,"lng":140.191022,"zip":"2900526"},{"town":"国分寺台中央一丁目","koaza":"","lat":35.497688,"lng":140.116024,"zip":"2900073"},{"town":"国分寺台中央二丁目","koaza":"","lat":35.498797,"lng":140.120737,"zip":"2900073"},{"town":"国分寺台中央三丁目","koaza":"","lat":35.49994,"lng":140.118301,"zip":"2900073"},{"town":"国分寺台中央四丁目","koaza":"","lat":35.501872,"lng":140.119618,"zip":"2900073"},{"town":"国分寺台中央五丁目","koaza":"","lat":35.503734,"lng":140.118882,"zip":"2900073"},{"town":"国分寺台中央六丁目","koaza":"","lat":35.502617,"lng":140.115419,"zip":"2900073"},{"town":"国分寺台中央七丁目","koaza":"","lat":35.500365,"lng":140.11331,"zip":"2900073"},{"town":"国本","koaza":"","lat":35.284929,"lng":140.162408,"zip":"2900531"},{"town":"古敷谷","koaza":"","lat":35.325929,"lng":140.168423,"zip":"2900528"},{"town":"五所","koaza":"","lat":35.531584,"lng":140.110847,"zip":"2900066"},{"town":"古都辺","koaza":"","lat":35.490484,"lng":140.203009,"zip":"2900165"},{"town":"駒込","koaza":"","lat":35.3655,"lng":140.148195,"zip":"2900559"},{"town":"小谷田","koaza":"","lat":35.339542,"lng":140.157433,"zip":"2900529"},{"town":"権現堂","koaza":"","lat":35.481781,"lng":140.111917,"zip":"2900209"},{"town":"金剛地","koaza":"","lat":35.492878,"lng":140.237712,"zip":"2900162"},{"town":"西広","koaza":"","lat":35.487315,"lng":140.113413,"zip":"2900022"},{"town":"西広一丁目","koaza":"","lat":35.490275,"lng":140.113128,"zip":"2900022"},{"town":"西広二丁目","koaza":"","lat":35.488988,"lng":140.112621,"zip":"2900022"},{"town":"西広三丁目","koaza":"","lat":35.488838,"lng":140.120567,"zip":"2900022"},{"town":"西広四丁目","koaza":"","lat":35.489711,"lng":140.117732,"zip":"2900022"},{"town":"西広五丁目","koaza":"","lat":35.490448,"lng":140.121263,"zip":"2900022"},{"town":"西広六丁目","koaza":"","lat":35.487711,"lng":140.123976,"zip":"2900022"},{"town":"桜台一丁目","koaza":"","lat":35.443759,"lng":140.049266,"zip":"2990127"},{"town":"桜台二丁目","koaza":"","lat":35.440416,"lng":140.044882,"zip":"2990127"},{"town":"桜台三丁目","koaza":"","lat":35.440559,"lng":140.048954,"zip":"2990127"},{"town":"桜台四丁目","koaza":"","lat":35.439529,"lng":140.052271,"zip":"2990127"},{"town":"佐是","koaza":"","lat":35.408244,"lng":140.126745,"zip":"2900229"},{"town":"更級一丁目","koaza":"","lat":35.508141,"lng":140.097151,"zip":"2900050"},{"town":"更級二丁目","koaza":"","lat":35.505467,"lng":140.100658,"zip":"2900050"},{"town":"更級三丁目","koaza":"","lat":35.506514,"lng":140.103448,"zip":"2900050"},{"town":"更級四丁目","koaza":"","lat":35.508606,"lng":140.101298,"zip":"2900050"},{"town":"更級五丁目","koaza":"","lat":35.510621,"lng":140.099108,"zip":"2900050"},{"town":"椎津","koaza":"","lat":35.459493,"lng":140.036652,"zip":"2990118"},{"town":"椎の木台一丁目","koaza":"","lat":35.443927,"lng":140.042791,"zip":"2990128"},{"town":"椎の木台二丁目","koaza":"","lat":35.446224,"lng":140.043512,"zip":"2990128"},{"town":"島田","koaza":"","lat":35.398596,"lng":140.179631,"zip":"2900506"},{"town":"島野","koaza":"","lat":35.496446,"lng":140.072546,"zip":"2900034"},{"town":"下野","koaza":"","lat":35.512985,"lng":140.184278,"zip":"2900154"},{"town":"下矢田","koaza":"","lat":35.38679,"lng":140.15321,"zip":"2900518"},{"town":"十五沢","koaza":"","lat":35.477775,"lng":140.099392,"zip":"2900263"},{"town":"宿","koaza":"","lat":35.411685,"lng":140.169559,"zip":"2900503"},{"town":"白塚","koaza":"","lat":35.488897,"lng":140.064664,"zip":"2990104"},{"town":"白金町一丁目","koaza":"","lat":35.527832,"lng":140.105328,"zip":"2900059"},{"town":"白金町二丁目","koaza":"","lat":35.52963,"lng":140.104746,"zip":"2900059"},{"town":"白金町三丁目","koaza":"","lat":35.525788,"lng":140.102095,"zip":"2900059"},{"town":"白金町四丁目","koaza":"","lat":35.527703,"lng":140.100317,"zip":"2900059"},{"town":"白金町五丁目","koaza":"","lat":35.524508,"lng":140.099556,"zip":"2900059"},{"town":"白金町六丁目","koaza":"","lat":35.526108,"lng":140.099247,"zip":"2900059"},{"town":"真ケ谷","koaza":"","lat":35.406589,"lng":140.162867,"zip":"2900502"},{"town":"菅野","koaza":"","lat":35.292734,"lng":140.120884,"zip":"2900539"},{"town":"諏訪一丁目","koaza":"","lat":35.491293,"lng":140.10859,"zip":"2900026"},{"town":"諏訪二丁目","koaza":"","lat":35.490364,"lng":140.106748,"zip":"2900026"},{"town":"瀬又","koaza":"","lat":35.531099,"lng":140.216044,"zip":"2900151"},{"town":"惣社","koaza":"","lat":35.496149,"lng":140.104703,"zip":"2900023"},{"town":"惣社一丁目","koaza":"","lat":35.495841,"lng":140.112605,"zip":"2900023"},{"town":"惣社二丁目","koaza":"","lat":35.498867,"lng":140.111309,"zip":"2900023"},{"town":"惣社三丁目","koaza":"","lat":35.499982,"lng":140.10917,"zip":"2900023"},{"town":"惣社四丁目","koaza":"","lat":35.497319,"lng":140.108669,"zip":"2900023"},{"town":"惣社五丁目","koaza":"","lat":35.493351,"lng":140.108828,"zip":"2900023"},{"town":"高倉","koaza":"","lat":35.51162,"lng":140.222866,"zip":"2900161"},{"town":"高田","koaza":"","lat":35.521107,"lng":140.216445,"zip":"2900152"},{"town":"高滝","koaza":"","lat":35.351828,"lng":140.161634,"zip":"2900555"},{"town":"滝口","koaza":"","lat":35.47401,"lng":140.180945,"zip":"2900173"},{"town":"武士","koaza":"","lat":35.463604,"lng":140.151258,"zip":"2900203"},{"town":"辰巳台西一丁目","koaza":"","lat":35.521486,"lng":140.149335,"zip":"2900004"},{"town":"辰巳台西二丁目","koaza":"","lat":35.518848,"lng":140.146637,"zip":"2900004"},{"town":"辰巳台西三丁目","koaza":"","lat":35.522172,"lng":140.14529,"zip":"2900004"},{"town":"辰巳台西四丁目","koaza":"","lat":35.525544,"lng":140.148652,"zip":"2900004"},{"town":"辰巳台西五丁目","koaza":"","lat":35.52365,"lng":140.151686,"zip":"2900004"},{"town":"辰巳台東一丁目","koaza":"","lat":35.518655,"lng":140.152869,"zip":"2900003"},{"town":"辰巳台東二丁目","koaza":"","lat":35.520616,"lng":140.156857,"zip":"2900003"},{"town":"辰巳台東三丁目","koaza":"","lat":35.516617,"lng":140.152746,"zip":"2900003"},{"town":"辰巳台東四丁目","koaza":"","lat":35.513068,"lng":140.154205,"zip":"2900003"},{"town":"辰巳台東五丁目","koaza":"","lat":35.509862,"lng":140.152068,"zip":"2900003"},{"town":"立野","koaza":"","lat":35.44347,"lng":140.085031,"zip":"2990121"},{"town":"田尾","koaza":"","lat":35.368573,"lng":140.17898,"zip":"2900515"},{"town":"田淵","koaza":"","lat":35.299882,"lng":140.155069,"zip":"2900546"},{"town":"田淵旧日竹","koaza":"","lat":35.310113,"lng":140.147752,"zip":"2900545"},{"town":"玉前","koaza":"","lat":35.519101,"lng":140.076479,"zip":"2900041"},{"town":"玉前西一丁目","koaza":"","lat":35.523459,"lng":140.069561,"zip":"2900044"},{"town":"玉前西二丁目","koaza":"","lat":35.521655,"lng":140.067882,"zip":"2900044"},{"town":"玉前西三丁目","koaza":"","lat":35.518925,"lng":140.065911,"zip":"2900044"},{"town":"玉前緑地","koaza":"","lat":35.522545,"lng":140.064568,"zip":"2900000"},{"town":"千種一丁目","koaza":"","lat":35.497238,"lng":140.050403,"zip":"2990109"},{"town":"千種二丁目","koaza":"","lat":35.494006,"lng":140.055935,"zip":"2990109"},{"town":"千種三丁目","koaza":"","lat":35.491839,"lng":140.059928,"zip":"2990109"},{"town":"千種四丁目","koaza":"","lat":35.493353,"lng":140.063316,"zip":"2990109"},{"town":"千種五丁目","koaza":"","lat":35.494378,"lng":140.061224,"zip":"2990109"},{"town":"千種六丁目","koaza":"","lat":35.4955,"lng":140.059332,"zip":"2990109"},{"town":"千種七丁目","koaza":"","lat":35.496896,"lng":140.056613,"zip":"2990109"},{"town":"千種海岸","koaza":"","lat":35.509829,"lng":140.051654,"zip":"2990108"},{"town":"ちはら台西一丁目","koaza":"","lat":35.534091,"lng":140.16753,"zip":"2900143"},{"town":"ちはら台西二丁目","koaza":"","lat":35.533836,"lng":140.17213,"zip":"2900143"},{"town":"ちはら台西三丁目","koaza":"","lat":35.528955,"lng":140.171736,"zip":"2900143"},{"town":"ちはら台西四丁目","koaza":"","lat":35.532566,"lng":140.174432,"zip":"2900143"},{"town":"ちはら台西五丁目","koaza":"","lat":35.529104,"lng":140.177845,"zip":"2900143"},{"town":"ちはら台西六丁目","koaza":"","lat":35.531726,"lng":140.180308,"zip":"2900143"},{"town":"ちはら台東一丁目","koaza":"","lat":35.531606,"lng":140.193424,"zip":"2900141"},{"town":"ちはら台東二丁目","koaza":"","lat":35.534339,"lng":140.19144,"zip":"2900141"},{"town":"ちはら台東三丁目","koaza":"","lat":35.535793,"lng":140.188845,"zip":"2900141"},{"town":"ちはら台東四丁目","koaza":"","lat":35.540099,"lng":140.193281,"zip":"2900141"},{"town":"ちはら台東五丁目","koaza":"","lat":35.536773,"lng":140.195161,"zip":"2900141"},{"town":"ちはら台東六丁目","koaza":"","lat":35.536059,"lng":140.19877,"zip":"2900141"},{"town":"ちはら台東七丁目","koaza":"","lat":35.534187,"lng":140.200335,"zip":"2900141"},{"town":"ちはら台東八丁目","koaza":"","lat":35.53933,"lng":140.199326,"zip":"2900141"},{"town":"ちはら台東九丁目","koaza":"","lat":35.540647,"lng":140.195905,"zip":"2900141"},{"town":"ちはら台南一丁目","koaza":"","lat":35.527043,"lng":140.174991,"zip":"2900142"},{"town":"ちはら台南二丁目","koaza":"","lat":35.525006,"lng":140.178589,"zip":"2900142"},{"town":"ちはら台南三丁目","koaza":"","lat":35.523735,"lng":140.184189,"zip":"2900142"},{"town":"ちはら台南四丁目","koaza":"","lat":35.527593,"lng":140.191836,"zip":"2900142"},{"town":"ちはら台南五丁目","koaza":"","lat":35.528928,"lng":140.188849,"zip":"2900142"},{"town":"ちはら台南六丁目","koaza":"","lat":35.531044,"lng":140.185684,"zip":"2900142"},{"town":"廿五里","koaza":"","lat":35.489525,"lng":140.083407,"zip":"2900032"},{"town":"月崎","koaza":"","lat":35.300378,"lng":140.135147,"zip":"2900547"},{"town":"月出","koaza":"","lat":35.298079,"lng":140.184462,"zip":"2900527"},{"town":"土宇","koaza":"","lat":35.435019,"lng":140.132702,"zip":"2900215"},{"town":"鶴舞","koaza":"","lat":35.382922,"lng":140.188603,"zip":"2900512"},{"town":"出津","koaza":"","lat":35.508495,"lng":140.074067,"zip":"2900042"},{"town":"出津西一丁目","koaza":"","lat":35.518539,"lng":140.069076,"zip":"2900043"},{"town":"寺谷","koaza":"","lat":35.401294,"lng":140.108298,"zip":"2900236"},{"town":"徳氏","koaza":"","lat":35.31303,"lng":140.157062,"zip":"2900544"},{"town":"戸面","koaza":"","lat":35.253427,"lng":140.153944,"zip":"2900536"},{"town":"戸面石神麻生原入会地","koaza":"","lat":35.243863,"lng":140.14099,"zip":"2900000"},{"town":"外部田","koaza":"","lat":35.374819,"lng":140.15403,"zip":"2900551"},{"town":"豊成","koaza":"","lat":35.444354,"lng":140.070852,"zip":"2990122"},{"town":"中","koaza":"","lat":35.392852,"lng":140.146018,"zip":"2900226"},{"town":"中高根","koaza":"","lat":35.434711,"lng":140.098047,"zip":"2900242"},{"town":"中野","koaza":"","lat":35.517936,"lng":140.206027,"zip":"2900153"},{"town":"永吉","koaza":"","lat":35.506772,"lng":140.200096,"zip":"2900168"},{"town":"奈良","koaza":"","lat":35.492576,"lng":140.22037,"zip":"2900164"},{"town":"新堀","koaza":"","lat":35.46442,"lng":140.135748,"zip":"2900206"},{"town":"西国吉","koaza":"","lat":35.393755,"lng":140.11649,"zip":"2900231"},{"town":"西国分寺台一丁目","koaza":"","lat":35.502456,"lng":140.111305,"zip":"2900072"},{"town":"西国分寺台二丁目","koaza":"","lat":35.504406,"lng":140.113811,"zip":"2900072"},{"town":"西五所","koaza":"","lat":35.524759,"lng":140.110998,"zip":"2900065"},{"town":"西野","koaza":"","lat":35.482999,"lng":140.105736,"zip":"2900261"},{"town":"西野谷","koaza":"","lat":35.52266,"lng":140.114032,"zip":"2900014"},{"town":"根田","koaza":"","lat":35.503875,"lng":140.103136,"zip":"2900024"},{"town":"根田一丁目","koaza":"","lat":35.501667,"lng":140.108424,"zip":"2900024"},{"town":"根田二丁目","koaza":"","lat":35.501831,"lng":140.104133,"zip":"2900024"},{"town":"根田三丁目","koaza":"","lat":35.503683,"lng":140.106471,"zip":"2900024"},{"town":"根田四丁目","koaza":"","lat":35.505625,"lng":140.108422,"zip":"2900024"},{"town":"能満","koaza":"","lat":35.503281,"lng":140.138328,"zip":"2900011"},{"town":"野毛","koaza":"","lat":35.492921,"lng":140.078588,"zip":"2900033"},{"town":"葉木","koaza":"","lat":35.481513,"lng":140.170483,"zip":"2900175"},{"town":"畑木","koaza":"","lat":35.471325,"lng":140.065369,"zip":"2990112"},{"town":"原田","koaza":"","lat":35.399298,"lng":140.171606,"zip":"2900507"},{"town":"番場","koaza":"","lat":35.523543,"lng":140.19082,"zip":"2900155"},{"town":"東国吉","koaza":"","lat":35.505108,"lng":140.216152,"zip":"2900163"},{"town":"東国分寺台一丁目","koaza":"","lat":35.494882,"lng":140.118587,"zip":"2900074"},{"town":"東国分寺台二丁目","koaza":"","lat":35.493448,"lng":140.120361,"zip":"2900074"},{"town":"東国分寺台三丁目","koaza":"","lat":35.491613,"lng":140.122781,"zip":"2900074"},{"town":"東国分寺台四丁目","koaza":"","lat":35.493661,"lng":140.123162,"zip":"2900074"},{"town":"東国分寺台五丁目","koaza":"","lat":35.49671,"lng":140.121529,"zip":"2900074"},{"town":"東五所","koaza":"","lat":35.527458,"lng":140.112821,"zip":"2900064"},{"town":"引田","koaza":"","lat":35.457276,"lng":140.097225,"zip":"2900256"},{"town":"櫃狭","koaza":"","lat":35.43269,"lng":140.144556,"zip":"2900000"},{"town":"平田","koaza":"","lat":35.50617,"lng":140.091856,"zip":"2900053"},{"town":"平野","koaza":"","lat":35.333412,"lng":140.141354,"zip":"2900541"},{"town":"深城","koaza":"","lat":35.437349,"lng":140.063784,"zip":"2990123"},{"town":"福増","koaza":"","lat":35.475062,"lng":140.139383,"zip":"2900202"},{"town":"藤井","koaza":"","lat":35.516867,"lng":140.103997,"zip":"2900012"},{"town":"藤井一丁目","koaza":"","lat":35.506509,"lng":140.12379,"zip":"2900012"},{"town":"藤井二丁目","koaza":"","lat":35.509606,"lng":140.121685,"zip":"2900012"},{"town":"藤井三丁目","koaza":"","lat":35.505703,"lng":140.125905,"zip":"2900012"},{"town":"藤井四丁目","koaza":"","lat":35.513117,"lng":140.11396,"zip":"2900012"},{"town":"二日市場","koaza":"","lat":35.444681,"lng":140.123132,"zip":"2900216"},{"town":"不入","koaza":"","lat":35.360097,"lng":140.171585,"zip":"2990115"},{"town":"古市場","koaza":"","lat":35.543748,"lng":140.142164,"zip":"2900008"},{"town":"平蔵","koaza":"","lat":35.343096,"lng":140.201282,"zip":"2900524"},{"town":"奉免","koaza":"","lat":35.410693,"lng":140.147806,"zip":"2900224"},{"town":"堀越","koaza":"","lat":35.410229,"lng":140.178483,"zip":"2900504"},{"town":"本郷","koaza":"","lat":35.337334,"lng":140.137851,"zip":"2900556"},{"town":"町田","koaza":"","lat":35.484356,"lng":140.084903,"zip":"2900267"},{"town":"松ケ島","koaza":"","lat":35.507315,"lng":140.068459,"zip":"2900035"},{"town":"松ケ島一丁目","koaza":"","lat":35.509957,"lng":140.066221,"zip":"2900035"},{"town":"松ケ島二丁目","koaza":"","lat":35.508109,"lng":140.064777,"zip":"2900035"},{"town":"松ケ島西一丁目","koaza":"","lat":35.516828,"lng":140.065365,"zip":"2900036"},{"town":"松ケ島緑地","koaza":"","lat":35.517995,"lng":140.062482,"zip":"2900000"},{"town":"松崎","koaza":"","lat":35.443552,"lng":140.143206,"zip":"2900217"},{"town":"万田野","koaza":"","lat":35.325471,"lng":140.119864,"zip":"2900549"},{"town":"水沢","koaza":"","lat":35.372709,"lng":140.193621,"zip":"2900514"},{"town":"南岩崎","koaza":"","lat":35.412391,"lng":140.106462,"zip":"2900244"},{"town":"南国分寺台一丁目","koaza":"","lat":35.49426,"lng":140.11415,"zip":"2900075"},{"town":"南国分寺台二丁目","koaza":"","lat":35.492377,"lng":140.110815,"zip":"2900075"},{"town":"南国分寺台三丁目","koaza":"","lat":35.491939,"lng":140.114471,"zip":"2900075"},{"town":"南国分寺台四丁目","koaza":"","lat":35.49172,"lng":140.119005,"zip":"2900075"},{"town":"南国分寺台五丁目","koaza":"","lat":35.493254,"lng":140.116372,"zip":"2900075"},{"town":"皆吉","koaza":"","lat":35.388087,"lng":140.132749,"zip":"2900232"},{"town":"宮原","koaza":"","lat":35.474111,"lng":140.096115,"zip":"2900264"},{"town":"妙香","koaza":"","lat":35.415499,"lng":140.137416,"zip":"2900223"},{"town":"迎田","koaza":"","lat":35.459779,"lng":140.058099,"zip":"2990116"},{"town":"村上","koaza":"","lat":35.495646,"lng":140.097835,"zip":"2900031"},{"town":"茂呂町","koaza":"","lat":35.536846,"lng":140.164351,"zip":"2900000"},{"town":"門前","koaza":"","lat":35.517406,"lng":140.129495,"zip":"2900016"},{"town":"門前一丁目","koaza":"","lat":35.518496,"lng":140.122758,"zip":"2900016"},{"town":"門前二丁目","koaza":"","lat":35.517323,"lng":140.126962,"zip":"2900016"},{"town":"矢田","koaza":"","lat":35.380756,"lng":140.160737,"zip":"2900517"},{"town":"柳川","koaza":"","lat":35.282368,"lng":140.129107,"zip":"2900538"},{"town":"柳原","koaza":"","lat":35.484956,"lng":140.09409,"zip":"2900268"},{"town":"藪","koaza":"","lat":35.380305,"lng":140.143877,"zip":"2900227"},{"town":"山木","koaza":"","lat":35.517876,"lng":140.143238,"zip":"2900005"},{"town":"山口","koaza":"","lat":35.355516,"lng":140.131119,"zip":"2900558"},{"town":"山倉","koaza":"","lat":35.487623,"lng":140.132143,"zip":"2900201"},{"town":"山小川","koaza":"","lat":35.355723,"lng":140.184104,"zip":"2900521"},{"town":"山田","koaza":"","lat":35.456169,"lng":140.122765,"zip":"2900205"},{"town":"山田橋","koaza":"","lat":35.496467,"lng":140.126614,"zip":"2900021"},{"town":"山田橋一丁目","koaza":"","lat":35.500193,"lng":140.123247,"zip":"2900021"},{"town":"山田橋二丁目","koaza":"","lat":35.503403,"lng":140.122309,"zip":"2900021"},{"town":"山田橋三丁目","koaza":"","lat":35.504925,"lng":140.123108,"zip":"2900021"},{"town":"山之郷飛地","koaza":"","lat":35.489553,"lng":140.210336,"zip":"2900000"},{"town":"八幡","koaza":"","lat":35.536059,"lng":140.122646,"zip":"2900062"},{"town":"八幡石塚一丁目","koaza":"","lat":35.540707,"lng":140.1285,"zip":"2900061"},{"town":"八幡石塚二丁目","koaza":"","lat":35.543506,"lng":140.130426,"zip":"2900061"},{"town":"八幡浦一丁目","koaza":"","lat":35.547392,"lng":140.120331,"zip":"2900068"},{"town":"八幡浦二丁目","koaza":"","lat":35.549717,"lng":140.119871,"zip":"2900068"},{"town":"八幡海岸通","koaza":"","lat":35.541546,"lng":140.104536,"zip":"2900067"},{"town":"八幡北町一丁目","koaza":"","lat":35.543076,"lng":140.120408,"zip":"2900069"},{"town":"八幡北町二丁目","koaza":"","lat":35.544662,"lng":140.122096,"zip":"2900069"},{"town":"八幡北町三丁目","koaza":"","lat":35.546636,"lng":140.123589,"zip":"2900069"},{"town":"有秋台西一丁目","koaza":"","lat":35.452508,"lng":140.050966,"zip":"2990125"},{"town":"有秋台西二丁目","koaza":"","lat":35.445775,"lng":140.053035,"zip":"2990125"},{"town":"有秋台東一丁目","koaza":"","lat":35.455163,"lng":140.053058,"zip":"2990124"},{"town":"有秋台東二丁目","koaza":"","lat":35.451782,"lng":140.054228,"zip":"2990124"},{"town":"有秋台東三丁目","koaza":"","lat":35.446436,"lng":140.056254,"zip":"2990124"},{"town":"養老","koaza":"","lat":35.35229,"lng":140.143715,"zip":"2900557"},{"town":"米沢","koaza":"","lat":35.404378,"lng":140.15535,"zip":"2900501"},{"town":"米原","koaza":"","lat":35.316472,"lng":140.211603,"zip":"2900525"},{"town":"若宮一丁目","koaza":"","lat":35.524534,"lng":140.134493,"zip":"2900006"},{"town":"若宮二丁目","koaza":"","lat":35.526284,"lng":140.131174,"zip":"2900006"},{"town":"若宮三丁目","koaza":"","lat":35.526928,"lng":140.13444,"zip":"2900006"},{"town":"若宮四丁目","koaza":"","lat":35.525813,"lng":140.137167,"zip":"2900006"},{"town":"若宮五丁目","koaza":"","lat":35.529699,"lng":140.136732,"zip":"2900006"},{"town":"若宮六丁目","koaza":"","lat":35.530956,"lng":140.135506,"zip":"2900006"},{"town":"若宮七丁目","koaza":"","lat":35.531272,"lng":140.13416,"zip":"2900006"},{"town":"分目","koaza":"","lat":35.470272,"lng":140.10351,"zip":"2900259"},{"town":"姉崎","koaza":"","lat":35.479267,"lng":140.049923,"zip":"2990111"},{"town":"姉崎東一丁目","koaza":"","lat":35.478107,"lng":140.043997,"zip":"2990110"},{"town":"姉崎東二丁目","koaza":"","lat":35.475202,"lng":140.043084,"zip":"2990110"},{"town":"姉崎東三丁目","koaza":"","lat":35.477037,"lng":140.041242,"zip":"2990110"},{"town":"潤井戸","koaza":"","lat":35.519583,"lng":140.172236,"zip":"2900171"},{"town":"神崎","koaza":"","lat":35.508814,"lng":140.158226,"zip":"2900178"},{"town":"うるいど南七丁目","koaza":"","lat":35.50621,"lng":140.167504,"zip":"2900170"},{"town":"うるいど南六丁目","koaza":"","lat":35.49994,"lng":140.175443,"zip":"2900170"},{"town":"うるいど南五丁目","koaza":"","lat":35.501352,"lng":140.176009,"zip":"2900170"},{"town":"うるいど南一丁目","koaza":"","lat":35.510139,"lng":140.164923,"zip":"2900170"},{"town":"うるいど南二丁目","koaza":"","lat":35.511178,"lng":140.171091,"zip":"2900170"},{"town":"うるいど南四丁目","koaza":"","lat":35.504204,"lng":140.173643,"zip":"2900170"},{"town":"うるいど南三丁目","koaza":"","lat":35.508723,"lng":140.169389,"zip":"2900170"},{"town":"姉崎","koaza":"鐙田","lat":35.4804,"lng":140.046923,"zip":"2990111"},{"town":"五所","koaza":"神明","lat":35.529824,"lng":140.108653,"zip":"2900066"},{"town":"牛久","koaza":"下矢原","lat":35.401575,"lng":140.140087,"zip":"2900225"}]