[{"town":"青山","koaza":"","lat":35.859044,"lng":140.382435,"zip":"2890112"},{"town":"赤荻","koaza":"","lat":35.806744,"lng":140.33472,"zip":"2860832"},{"town":"赤坂一丁目","koaza":"","lat":35.779791,"lng":140.29194,"zip":"2860017"},{"town":"赤坂二丁目","koaza":"","lat":35.777578,"lng":140.292138,"zip":"2860017"},{"town":"赤坂三丁目","koaza":"","lat":35.778306,"lng":140.288563,"zip":"2860017"},{"town":"芦田","koaza":"","lat":35.819379,"lng":140.327648,"zip":"2860831"},{"town":"東町","koaza":"","lat":35.78076,"lng":140.321656,"zip":"2860025"},{"town":"吾妻一丁目","koaza":"","lat":35.781233,"lng":140.283706,"zip":"2860018"},{"town":"吾妻二丁目","koaza":"","lat":35.783331,"lng":140.286919,"zip":"2860018"},{"town":"吾妻三丁目","koaza":"","lat":35.786106,"lng":140.283641,"zip":"2860018"},{"town":"荒海","koaza":"","lat":35.836603,"lng":140.324776,"zip":"2860818"},{"town":"安西","koaza":"","lat":35.857554,"lng":140.312483,"zip":"2860803"},{"town":"飯田町","koaza":"","lat":35.765575,"lng":140.299649,"zip":"2860041"},{"town":"飯仲","koaza":"","lat":35.754678,"lng":140.28741,"zip":"2860046"},{"town":"囲護台","koaza":"","lat":35.774211,"lng":140.308228,"zip":"2860035"},{"town":"囲護台一丁目","koaza":"","lat":35.776337,"lng":140.311497,"zip":"2860035"},{"town":"囲護台二丁目","koaza":"","lat":35.777186,"lng":140.309107,"zip":"2860035"},{"town":"囲護台三丁目","koaza":"","lat":35.779397,"lng":140.309984,"zip":"2860035"},{"town":"磯部","koaza":"","lat":35.845813,"lng":140.32604,"zip":"2860811"},{"town":"伊能","koaza":"","lat":35.83546,"lng":140.432113,"zip":"2870204"},{"town":"飯岡","koaza":"","lat":35.838445,"lng":140.333547,"zip":"2860813"},{"town":"ウイング土屋","koaza":"","lat":35.795168,"lng":140.319229,"zip":"2860029"},{"town":"臼作","koaza":"","lat":35.824244,"lng":140.423032,"zip":"2870235"},{"town":"江弁須","koaza":"","lat":35.767453,"lng":140.292039,"zip":"2860047"},{"town":"大生","koaza":"","lat":35.830248,"lng":140.341593,"zip":"2860817"},{"town":"大清水","koaza":"","lat":35.763073,"lng":140.364741,"zip":"2860122"},{"town":"大菅","koaza":"","lat":35.861645,"lng":140.353904,"zip":"2890121"},{"town":"大竹","koaza":"","lat":35.812676,"lng":140.27361,"zip":"2860841"},{"town":"大竹干拓","koaza":"","lat":35.810989,"lng":140.25952,"zip":"2860000"},{"town":"大沼","koaza":"","lat":35.817714,"lng":140.46006,"zip":"2870213"},{"town":"大袋","koaza":"","lat":35.76346,"lng":140.284908,"zip":"2860043"},{"town":"大室","koaza":"","lat":35.827026,"lng":140.376363,"zip":"2860821"},{"town":"大山","koaza":"","lat":35.785535,"lng":140.349143,"zip":"2860131"},{"town":"大和田","koaza":"","lat":35.884233,"lng":140.364064,"zip":"2890109"},{"town":"押畑","koaza":"","lat":35.803635,"lng":140.309547,"zip":"2860845"},{"town":"小野","koaza":"","lat":35.874952,"lng":140.36811,"zip":"2890106"},{"town":"上町","koaza":"","lat":35.780977,"lng":140.316629,"zip":"2860032"},{"town":"上福田","koaza":"","lat":35.820589,"lng":140.283571,"zip":"2860842"},{"town":"加良部一丁目","koaza":"","lat":35.777896,"lng":140.299154,"zip":"2860036"},{"town":"加良部二丁目","koaza":"","lat":35.775656,"lng":140.298489,"zip":"2860036"},{"town":"加良部三丁目","koaza":"","lat":35.776786,"lng":140.305425,"zip":"2860036"},{"town":"加良部四丁目","koaza":"","lat":35.774696,"lng":140.302722,"zip":"2860036"},{"town":"加良部五丁目","koaza":"","lat":35.772612,"lng":140.298086,"zip":"2860036"},{"town":"加良部六丁目","koaza":"","lat":35.775453,"lng":140.293628,"zip":"2860036"},{"town":"川上","koaza":"","lat":35.791156,"lng":140.408509,"zip":"2870244"},{"town":"川栗","koaza":"","lat":35.764787,"lng":140.339054,"zip":"2860125"},{"town":"官林","koaza":"","lat":35.811744,"lng":140.44563,"zip":"2870221"},{"town":"北須賀","koaza":"","lat":35.790303,"lng":140.262398,"zip":"2860006"},{"town":"北須賀干拓","koaza":"","lat":35.794604,"lng":140.256597,"zip":"2860000"},{"town":"北羽鳥","koaza":"","lat":35.85059,"lng":140.306682,"zip":"2860807"},{"town":"吉岡","koaza":"","lat":35.808438,"lng":140.397881,"zip":"2820010"},{"town":"木の根","koaza":"","lat":35.761812,"lng":140.392772,"zip":"2820005"},{"town":"久井崎","koaza":"","lat":35.852284,"lng":140.401657,"zip":"2870232"},{"town":"久住中央一丁目","koaza":"","lat":35.834523,"lng":140.337031,"zip":"2860819"},{"town":"久住中央二丁目","koaza":"","lat":35.835409,"lng":140.342978,"zip":"2860819"},{"town":"久住中央三丁目","koaza":"","lat":35.835859,"lng":140.339699,"zip":"2860819"},{"town":"久住中央四丁目","koaza":"","lat":35.83947,"lng":140.337347,"zip":"2860819"},{"town":"久米","koaza":"","lat":35.789859,"lng":140.340368,"zip":"2860136"},{"town":"久米野","koaza":"","lat":35.767116,"lng":140.348929,"zip":"2860126"},{"town":"倉水","koaza":"","lat":35.855402,"lng":140.387428,"zip":"2890113"},{"town":"小泉","koaza":"","lat":35.811513,"lng":140.370542,"zip":"2860823"},{"town":"公津の杜一丁目","koaza":"","lat":35.763331,"lng":140.296703,"zip":"2860048"},{"town":"公津の杜二丁目","koaza":"","lat":35.761925,"lng":140.30005,"zip":"2860048"},{"town":"公津の杜三丁目","koaza":"","lat":35.755696,"lng":140.29637,"zip":"2860048"},{"town":"公津の杜四丁目","koaza":"","lat":35.759863,"lng":140.294944,"zip":"2860048"},{"town":"公津の杜五丁目","koaza":"","lat":35.756941,"lng":140.287113,"zip":"2860048"},{"town":"公津の杜六丁目","koaza":"","lat":35.75902,"lng":140.288689,"zip":"2860048"},{"town":"郷部","koaza":"","lat":35.786265,"lng":140.3083,"zip":"2860014"},{"town":"御所の内","koaza":"","lat":35.782607,"lng":140.329096,"zip":"2860137"},{"town":"小菅","koaza":"","lat":35.779852,"lng":140.355938,"zip":"2820027"},{"town":"小浮","koaza":"","lat":35.894898,"lng":140.363575,"zip":"2890101"},{"town":"駒井野","koaza":"","lat":35.774932,"lng":140.364149,"zip":"2820021"},{"town":"幸町","koaza":"","lat":35.783694,"lng":140.311261,"zip":"2860028"},{"town":"桜田","koaza":"","lat":35.846536,"lng":140.445845,"zip":"2870217"},{"town":"佐野","koaza":"","lat":35.848611,"lng":140.278106,"zip":"2860808"},{"town":"猿山","koaza":"","lat":35.87249,"lng":140.350467,"zip":"2890107"},{"town":"三里塚","koaza":"","lat":35.751089,"lng":140.387349,"zip":"2860116"},{"town":"三里塚御料","koaza":"","lat":35.749568,"lng":140.370983,"zip":"2860116"},{"town":"三里塚光ケ丘","koaza":"","lat":35.750664,"lng":140.375735,"zip":"2860117"},{"town":"地蔵原新田","koaza":"","lat":35.842983,"lng":140.393895,"zip":"2890115"},{"town":"下方","koaza":"","lat":35.763194,"lng":140.26885,"zip":"2860005"},{"town":"下方干拓","koaza":"","lat":35.761867,"lng":140.262069,"zip":"2860000"},{"town":"芝","koaza":"","lat":35.829504,"lng":140.390505,"zip":"2860822"},{"town":"柴田","koaza":"","lat":35.860841,"lng":140.430391,"zip":"2870201"},{"town":"下金山","koaza":"","lat":35.799678,"lng":140.322249,"zip":"2860836"},{"town":"下福田","koaza":"","lat":35.820922,"lng":140.293612,"zip":"2860843"},{"town":"新泉","koaza":"","lat":35.809669,"lng":140.35651,"zip":"2860825"},{"town":"新川","koaza":"","lat":35.859292,"lng":140.324024,"zip":"2890126"},{"town":"新駒井野","koaza":"","lat":35.754393,"lng":140.364754,"zip":"2860123"},{"town":"新田","koaza":"","lat":35.796204,"lng":140.39693,"zip":"2870224"},{"town":"新町","koaza":"","lat":35.780282,"lng":140.313263,"zip":"2860031"},{"town":"関戸","koaza":"","lat":35.79425,"lng":140.329324,"zip":"2860835"},{"town":"浅間","koaza":"","lat":35.851491,"lng":140.440706,"zip":"2870206"},{"town":"宗吾一丁目","koaza":"","lat":35.762963,"lng":140.278049,"zip":"2860004"},{"town":"宗吾二丁目","koaza":"","lat":35.7606,"lng":140.280995,"zip":"2860004"},{"town":"宗吾三丁目","koaza":"","lat":35.758925,"lng":140.278516,"zip":"2860004"},{"town":"宗吾四丁目","koaza":"","lat":35.758892,"lng":140.276311,"zip":"2860004"},{"town":"大栄十余三","koaza":"","lat":35.782178,"lng":140.428822,"zip":"2870243"},{"town":"台方","koaza":"","lat":35.772885,"lng":140.273591,"zip":"2860003"},{"town":"台方干拓","koaza":"","lat":35.776886,"lng":140.261972,"zip":"2860000"},{"town":"高","koaza":"","lat":35.885432,"lng":140.377669,"zip":"2890103"},{"town":"高岡","koaza":"","lat":35.880348,"lng":140.353301,"zip":"2890108"},{"town":"高倉","koaza":"","lat":35.84641,"lng":140.348281,"zip":"2890122"},{"town":"宝田","koaza":"","lat":35.818752,"lng":140.30576,"zip":"2860844"},{"town":"竜台","koaza":"","lat":35.863414,"lng":140.294579,"zip":"2860801"},{"town":"田町","koaza":"","lat":35.783949,"lng":140.321139,"zip":"2860024"},{"town":"玉造一丁目","koaza":"","lat":35.796093,"lng":140.291052,"zip":"2860011"},{"town":"玉造二丁目","koaza":"","lat":35.79575,"lng":140.28678,"zip":"2860011"},{"town":"玉造三丁目","koaza":"","lat":35.790652,"lng":140.286866,"zip":"2860011"},{"town":"玉造四丁目","koaza":"","lat":35.790528,"lng":140.28391,"zip":"2860011"},{"town":"玉造五丁目","koaza":"","lat":35.793204,"lng":140.293121,"zip":"2860011"},{"town":"玉造六丁目","koaza":"","lat":35.789566,"lng":140.292563,"zip":"2860011"},{"town":"玉造七丁目","koaza":"","lat":35.790349,"lng":140.288951,"zip":"2860011"},{"town":"多良貝","koaza":"","lat":35.796008,"lng":140.41365,"zip":"2870242"},{"town":"土室","koaza":"","lat":35.830394,"lng":140.365927,"zip":"2860815"},{"town":"土屋","koaza":"","lat":35.792477,"lng":140.316984,"zip":"2860021"},{"town":"津富浦","koaza":"","lat":35.832466,"lng":140.406364,"zip":"2870236"},{"town":"寺台","koaza":"","lat":35.787467,"lng":140.327694,"zip":"2860022"},{"town":"天神峰","koaza":"","lat":35.789627,"lng":140.394556,"zip":"2820002"},{"town":"天浪","koaza":"","lat":35.767772,"lng":140.373076,"zip":"2820001"},{"town":"稲荷山","koaza":"","lat":35.853172,"lng":140.409968,"zip":"2870233"},{"town":"東峰","koaza":"","lat":35.781513,"lng":140.395417,"zip":"2820003"},{"town":"東和田","koaza":"","lat":35.776666,"lng":140.328997,"zip":"2860134"},{"town":"所","koaza":"","lat":35.856866,"lng":140.456618,"zip":"2870211"},{"town":"取香","koaza":"","lat":35.781475,"lng":140.379935,"zip":"2820006"},{"town":"冬父","koaza":"","lat":35.876649,"lng":140.378356,"zip":"2890104"},{"town":"十余三","koaza":"","lat":35.804313,"lng":140.380965,"zip":"2820009"},{"town":"中里","koaza":"","lat":35.870672,"lng":140.377027,"zip":"2890105"},{"town":"長田","koaza":"","lat":35.793854,"lng":140.359488,"zip":"2860108"},{"town":"中台一丁目","koaza":"","lat":35.784172,"lng":140.290187,"zip":"2860015"},{"town":"中台二丁目","koaza":"","lat":35.783916,"lng":140.292619,"zip":"2860015"},{"town":"中台三丁目","koaza":"","lat":35.780976,"lng":140.299137,"zip":"2860015"},{"town":"中台四丁目","koaza":"","lat":35.783827,"lng":140.298308,"zip":"2860015"},{"town":"中台五丁目","koaza":"","lat":35.781343,"lng":140.305767,"zip":"2860015"},{"town":"中台六丁目","koaza":"","lat":35.783618,"lng":140.302003,"zip":"2860015"},{"town":"長沼","koaza":"","lat":35.83729,"lng":140.309878,"zip":"2860804"},{"town":"中野","koaza":"","lat":35.846926,"lng":140.401237,"zip":"2870237"},{"town":"仲町","koaza":"","lat":35.783688,"lng":140.316453,"zip":"2860027"},{"town":"名木","koaza":"","lat":35.871109,"lng":140.392195,"zip":"2890111"},{"town":"名古屋","koaza":"","lat":35.85251,"lng":140.361541,"zip":"2890116"},{"town":"南敷","koaza":"","lat":35.839061,"lng":140.447989,"zip":"2870216"},{"town":"奈土","koaza":"","lat":35.855928,"lng":140.423458,"zip":"2870205"},{"town":"七沢","koaza":"","lat":35.863913,"lng":140.371772,"zip":"2890117"},{"town":"並木町","koaza":"","lat":35.756201,"lng":140.309221,"zip":"2860045"},{"town":"滑川","koaza":"","lat":35.865382,"lng":140.338855,"zip":"2890125"},{"town":"成田","koaza":"","lat":35.786263,"lng":140.319231,"zip":"2860023"},{"town":"成井","koaza":"","lat":35.845595,"lng":140.380079,"zip":"2890114"},{"town":"成毛","koaza":"","lat":35.825661,"lng":140.355047,"zip":"2860816"},{"town":"南部","koaza":"","lat":35.849979,"lng":140.283362,"zip":"2860806"},{"town":"南平台","koaza":"","lat":35.771196,"lng":140.306987,"zip":"2860042"},{"town":"西和泉","koaza":"","lat":35.816739,"lng":140.339753,"zip":"2860827"},{"town":"西大須賀","koaza":"","lat":35.85732,"lng":140.338033,"zip":"2890124"},{"town":"西三里塚","koaza":"","lat":35.74475,"lng":140.364933,"zip":"2860115"},{"town":"新妻","koaza":"","lat":35.813919,"lng":140.318619,"zip":"2860837"},{"town":"野毛平","koaza":"","lat":35.79911,"lng":140.348247,"zip":"2860824"},{"town":"野馬込","koaza":"","lat":35.894489,"lng":140.373244,"zip":"2890102"},{"town":"橋賀台一丁目","koaza":"","lat":35.771446,"lng":140.292219,"zip":"2860037"},{"town":"橋賀台二丁目","koaza":"","lat":35.774312,"lng":140.286495,"zip":"2860037"},{"town":"橋賀台三丁目","koaza":"","lat":35.774179,"lng":140.290426,"zip":"2860037"},{"town":"畑ケ田","koaza":"","lat":35.753415,"lng":140.357378,"zip":"2860124"},{"town":"幡谷","koaza":"","lat":35.83867,"lng":140.347605,"zip":"2860814"},{"town":"花崎町","koaza":"","lat":35.776742,"lng":140.317239,"zip":"2860033"},{"town":"はなのき台一丁目","koaza":"","lat":35.778907,"lng":140.28283,"zip":"2860007"},{"town":"はなのき台二丁目","koaza":"","lat":35.776231,"lng":140.283913,"zip":"2860007"},{"town":"はなのき台三丁目","koaza":"","lat":35.776071,"lng":140.280871,"zip":"2860007"},{"town":"馬場","koaza":"","lat":35.785149,"lng":140.341552,"zip":"2860132"},{"town":"東和泉","koaza":"","lat":35.81587,"lng":140.348301,"zip":"2860826"},{"town":"東金山","koaza":"","lat":35.795019,"lng":140.336927,"zip":"2860833"},{"town":"東三里塚","koaza":"","lat":35.744551,"lng":140.397495,"zip":"2820012"},{"town":"東ノ台","koaza":"","lat":35.834408,"lng":140.462884,"zip":"2870212"},{"town":"一坪田","koaza":"","lat":35.813275,"lng":140.424614,"zip":"2870227"},{"town":"不動ケ岡","koaza":"","lat":35.768414,"lng":140.312206,"zip":"2860044"},{"town":"船形","koaza":"","lat":35.784517,"lng":140.273172,"zip":"2860001"},{"town":"船形干拓","koaza":"","lat":35.799982,"lng":140.262876,"zip":"2860000"},{"town":"古込","koaza":"","lat":35.772413,"lng":140.389856,"zip":"2820004"},{"town":"堀籠","koaza":"","lat":35.860484,"lng":140.440605,"zip":"2870202"},{"town":"北部","koaza":"","lat":35.855397,"lng":140.302879,"zip":"2860802"},{"town":"堀之内","koaza":"","lat":35.791154,"lng":140.377514,"zip":"2820007"},{"town":"本三里塚","koaza":"","lat":35.755192,"lng":140.370819,"zip":"2860118"},{"town":"本城","koaza":"","lat":35.738561,"lng":140.365622,"zip":"2860114"},{"town":"本町","koaza":"","lat":35.782945,"lng":140.31805,"zip":"2860026"},{"town":"前林","koaza":"","lat":35.796885,"lng":140.432558,"zip":"2870222"},{"town":"馬乗里","koaza":"","lat":35.831952,"lng":140.450583,"zip":"2870215"},{"town":"松子","koaza":"","lat":35.833352,"lng":140.419032,"zip":"2870234"},{"town":"馬橋","koaza":"","lat":35.779118,"lng":140.312409,"zip":"2860034"},{"town":"松崎","koaza":"","lat":35.806242,"lng":140.293976,"zip":"2860846"},{"town":"松崎干拓","koaza":"","lat":35.806021,"lng":140.263139,"zip":"2860000"},{"town":"美郷台一丁目","koaza":"","lat":35.791799,"lng":140.310764,"zip":"2860013"},{"town":"美郷台二丁目","koaza":"","lat":35.793969,"lng":140.307338,"zip":"2860013"},{"town":"美郷台三丁目","koaza":"","lat":35.79438,"lng":140.310126,"zip":"2860013"},{"town":"水掛","koaza":"","lat":35.847441,"lng":140.33322,"zip":"2860812"},{"town":"水の上","koaza":"","lat":35.807086,"lng":140.407357,"zip":"2870241"},{"town":"南三里塚","koaza":"","lat":35.732487,"lng":140.382861,"zip":"2860113"},{"town":"南羽鳥","koaza":"","lat":35.837876,"lng":140.290923,"zip":"2860805"},{"town":"村田","koaza":"","lat":35.858597,"lng":140.447586,"zip":"2870203"},{"town":"八代","koaza":"","lat":35.796131,"lng":140.278184,"zip":"2860002"},{"town":"八代干拓","koaza":"","lat":35.802983,"lng":140.264815,"zip":"2860000"},{"town":"山口","koaza":"","lat":35.794346,"lng":140.300947,"zip":"2860012"},{"town":"山之作","koaza":"","lat":35.787995,"lng":140.335157,"zip":"2860135"},{"town":"横山","koaza":"","lat":35.824048,"lng":140.446109,"zip":"2870214"},{"town":"吉倉","koaza":"","lat":35.77473,"lng":140.344799,"zip":"2860133"},{"town":"四谷","koaza":"","lat":35.850041,"lng":140.337065,"zip":"2890123"},{"town":"米野","koaza":"","lat":35.78538,"lng":140.295194,"zip":"2860016"},{"town":"和田","koaza":"","lat":35.798619,"lng":140.330953,"zip":"2860834"},{"town":"土屋","koaza":"山ノ崎","lat":35.793047,"lng":140.319305,"zip":"2860021"},{"town":"山之作","koaza":"前谷津","lat":35.787217,"lng":140.333268,"zip":"2860135"},{"town":"滑川","koaza":"清水","lat":35.871883,"lng":140.343128,"zip":"2890125"},{"town":"取香","koaza":"浅間","lat":35.782683,"lng":140.377948,"zip":"2820006"},{"town":"古込","koaza":"込前","lat":35.769187,"lng":140.386403,"zip":"2820004"},{"town":"天神峰","koaza":"道場","lat":35.791988,"lng":140.393968,"zip":"2820002"}]