[{"town":"相島","koaza":"","lat":35.849624,"lng":140.121055,"zip":"2701106"},{"town":"相島新田","koaza":"","lat":35.845951,"lng":140.119869,"zip":"2701106"},{"town":"青山","koaza":"","lat":35.886075,"lng":140.056753,"zip":"2701173"},{"town":"青山台一丁目","koaza":"","lat":35.880448,"lng":140.046621,"zip":"2701175"},{"town":"青山台二丁目","koaza":"","lat":35.880419,"lng":140.049609,"zip":"2701175"},{"town":"青山台三丁目","koaza":"","lat":35.878922,"lng":140.046625,"zip":"2701175"},{"town":"青山台四丁目","koaza":"","lat":35.877291,"lng":140.049077,"zip":"2701175"},{"town":"我孫子","koaza":"","lat":35.876647,"lng":140.025943,"zip":"2701166"},{"town":"我孫子一丁目","koaza":"","lat":35.873779,"lng":140.012136,"zip":"2701166"},{"town":"我孫子二丁目","koaza":"","lat":35.874589,"lng":140.005456,"zip":"2701166"},{"town":"我孫子三丁目","koaza":"","lat":35.875077,"lng":140.002301,"zip":"2701166"},{"town":"我孫子四丁目","koaza":"","lat":35.875866,"lng":140.011221,"zip":"2701166"},{"town":"我孫子新田","koaza":"","lat":35.865084,"lng":140.011099,"zip":"2701155"},{"town":"新木","koaza":"","lat":35.867605,"lng":140.101009,"zip":"2701112"},{"town":"新木野一丁目","koaza":"","lat":35.865687,"lng":140.106413,"zip":"2701114"},{"town":"新木野二丁目","koaza":"","lat":35.864314,"lng":140.111739,"zip":"2701114"},{"town":"新木野三丁目","koaza":"","lat":35.866133,"lng":140.112131,"zip":"2701114"},{"town":"新木野四丁目","koaza":"","lat":35.869002,"lng":140.111065,"zip":"2701114"},{"town":"新木村下","koaza":"","lat":35.858377,"lng":140.097955,"zip":"2701118"},{"town":"泉","koaza":"","lat":35.870586,"lng":140.031388,"zip":"2701142"},{"town":"都部","koaza":"","lat":35.863845,"lng":140.061069,"zip":"2701131"},{"town":"都部新田","koaza":"","lat":35.858887,"lng":140.069413,"zip":"2701135"},{"town":"都部村新田","koaza":"","lat":35.858973,"lng":140.062347,"zip":"2701134"},{"town":"江蔵地","koaza":"","lat":35.868984,"lng":140.120579,"zip":"2701113"},{"town":"大作新田","koaza":"","lat":35.855984,"lng":140.112663,"zip":"2701115"},{"town":"岡発戸","koaza":"","lat":35.866994,"lng":140.054336,"zip":"2701137"},{"town":"岡発戸新田","koaza":"","lat":35.856636,"lng":140.053275,"zip":"2701136"},{"town":"上沼田","koaza":"","lat":35.855646,"lng":140.070983,"zip":"2701133"},{"town":"久寺家","koaza":"","lat":35.883882,"lng":140.018794,"zip":"2701163"},{"town":"久寺家一丁目","koaza":"","lat":35.886231,"lng":140.012786,"zip":"2701163"},{"town":"久寺家二丁目","koaza":"","lat":35.886818,"lng":140.010829,"zip":"2701163"},{"town":"高野山","koaza":"","lat":35.864765,"lng":140.034297,"zip":"2701145"},{"town":"高野山新田","koaza":"","lat":35.859796,"lng":140.035339,"zip":"2701146"},{"town":"寿一丁目","koaza":"","lat":35.870389,"lng":140.018793,"zip":"2701152"},{"town":"寿二丁目","koaza":"","lat":35.867687,"lng":140.023735,"zip":"2701152"},{"town":"湖北台十丁目","koaza":"","lat":35.867303,"lng":140.06332,"zip":"2701132"},{"town":"湖北台一丁目","koaza":"","lat":35.865716,"lng":140.07984,"zip":"2701132"},{"town":"湖北台二丁目","koaza":"","lat":35.861917,"lng":140.07906,"zip":"2701132"},{"town":"湖北台三丁目","koaza":"","lat":35.864559,"lng":140.07742,"zip":"2701132"},{"town":"湖北台四丁目","koaza":"","lat":35.862544,"lng":140.075924,"zip":"2701132"},{"town":"湖北台五丁目","koaza":"","lat":35.860144,"lng":140.07484,"zip":"2701132"},{"town":"湖北台六丁目","koaza":"","lat":35.860403,"lng":140.069562,"zip":"2701132"},{"town":"湖北台七丁目","koaza":"","lat":35.863406,"lng":140.070059,"zip":"2701132"},{"town":"湖北台八丁目","koaza":"","lat":35.866457,"lng":140.071466,"zip":"2701132"},{"town":"湖北台九丁目","koaza":"","lat":35.866657,"lng":140.067003,"zip":"2701132"},{"town":"栄","koaza":"","lat":35.87164,"lng":140.025387,"zip":"2701141"},{"town":"下ケ戸","koaza":"","lat":35.873334,"lng":140.053869,"zip":"2701138"},{"town":"柴崎","koaza":"","lat":35.877203,"lng":140.034189,"zip":"2701177"},{"town":"柴崎台一丁目","koaza":"","lat":35.873519,"lng":140.040275,"zip":"2701176"},{"town":"柴崎台二丁目","koaza":"","lat":35.875271,"lng":140.041963,"zip":"2701176"},{"town":"柴崎台三丁目","koaza":"","lat":35.877891,"lng":140.042518,"zip":"2701176"},{"town":"柴崎台四丁目","koaza":"","lat":35.874628,"lng":140.0457,"zip":"2701176"},{"town":"柴崎台五丁目","koaza":"","lat":35.874907,"lng":140.048144,"zip":"2701176"},{"town":"下沼田","koaza":"","lat":35.852099,"lng":140.106138,"zip":"2701117"},{"town":"新々田","koaza":"","lat":35.845812,"lng":140.13197,"zip":"2701104"},{"town":"浅間前","koaza":"","lat":35.85329,"lng":140.115493,"zip":"2701116"},{"town":"浅間前新田","koaza":"","lat":35.855923,"lng":140.118451,"zip":"2701116"},{"town":"台田一丁目","koaza":"","lat":35.873812,"lng":140.002154,"zip":"2701167"},{"town":"台田二丁目","koaza":"","lat":35.874591,"lng":139.999302,"zip":"2701167"},{"town":"台田三丁目","koaza":"","lat":35.875793,"lng":139.99743,"zip":"2701167"},{"town":"台田四丁目","koaza":"","lat":35.875647,"lng":139.994571,"zip":"2701167"},{"town":"つくし野","koaza":"","lat":35.884327,"lng":140.004191,"zip":"2701164"},{"town":"つくし野一丁目","koaza":"","lat":35.878784,"lng":140.013881,"zip":"2701164"},{"town":"つくし野二丁目","koaza":"","lat":35.879099,"lng":140.009942,"zip":"2701164"},{"town":"つくし野三丁目","koaza":"","lat":35.880539,"lng":140.008527,"zip":"2701164"},{"town":"つくし野四丁目","koaza":"","lat":35.879888,"lng":140.006388,"zip":"2701164"},{"town":"つくし野五丁目","koaza":"","lat":35.882612,"lng":140.00552,"zip":"2701164"},{"town":"つくし野六丁目","koaza":"","lat":35.88087,"lng":140.013832,"zip":"2701164"},{"town":"つくし野七丁目","koaza":"","lat":35.878267,"lng":140.018563,"zip":"2701164"},{"town":"天王台一丁目","koaza":"","lat":35.871106,"lng":140.041078,"zip":"2701143"},{"town":"天王台二丁目","koaza":"","lat":35.871501,"lng":140.044796,"zip":"2701143"},{"town":"天王台三丁目","koaza":"","lat":35.869273,"lng":140.041731,"zip":"2701143"},{"town":"天王台四丁目","koaza":"","lat":35.871045,"lng":140.037736,"zip":"2701143"},{"town":"天王台五丁目","koaza":"","lat":35.86968,"lng":140.035764,"zip":"2701143"},{"town":"天王台六丁目","koaza":"","lat":35.86697,"lng":140.041455,"zip":"2701143"},{"town":"中里","koaza":"","lat":35.864358,"lng":140.083177,"zip":"2701122"},{"town":"中里新田","koaza":"","lat":35.858255,"lng":140.07772,"zip":"2701126"},{"town":"中沼田","koaza":"","lat":35.854913,"lng":140.090776,"zip":"2701125"},{"town":"中峠","koaza":"","lat":35.878183,"lng":140.093039,"zip":"2701121"},{"town":"中峠台","koaza":"","lat":35.870686,"lng":140.071642,"zip":"2701128"},{"town":"中峠村下","koaza":"","lat":35.857654,"lng":140.072627,"zip":"2701127"},{"town":"並木五丁目","koaza":"","lat":35.875062,"lng":140.016466,"zip":"2701165"},{"town":"並木六丁目","koaza":"","lat":35.875114,"lng":140.019053,"zip":"2701165"},{"town":"並木七丁目","koaza":"","lat":35.875158,"lng":140.02166,"zip":"2701165"},{"town":"並木八丁目","koaza":"","lat":35.874456,"lng":140.024593,"zip":"2701165"},{"town":"並木九丁目","koaza":"","lat":35.875428,"lng":140.024987,"zip":"2701165"},{"town":"根戸","koaza":"","lat":35.880877,"lng":140.001339,"zip":"2701168"},{"town":"根戸新田","koaza":"","lat":35.868007,"lng":140.000087,"zip":"2701156"},{"town":"白山一丁目","koaza":"","lat":35.868304,"lng":140.010601,"zip":"2701154"},{"town":"白山二丁目","koaza":"","lat":35.86921,"lng":140.007277,"zip":"2701154"},{"town":"白山三丁目","koaza":"","lat":35.869637,"lng":140.003939,"zip":"2701154"},{"town":"東我孫子一丁目","koaza":"","lat":35.867234,"lng":140.046644,"zip":"2701144"},{"town":"東我孫子二丁目","koaza":"","lat":35.864732,"lng":140.043741,"zip":"2701144"},{"town":"日の出","koaza":"","lat":35.880308,"lng":140.055948,"zip":"2701174"},{"town":"日秀","koaza":"","lat":35.863458,"lng":140.089165,"zip":"2701123"},{"town":"日秀新田","koaza":"","lat":35.858552,"lng":140.090233,"zip":"2701124"},{"town":"布佐","koaza":"","lat":35.853093,"lng":140.135887,"zip":"2701101"},{"town":"布佐一丁目","koaza":"","lat":35.849501,"lng":140.137172,"zip":"2701101"},{"town":"布佐下新田","koaza":"","lat":35.852736,"lng":140.123617,"zip":"2701107"},{"town":"布佐酉町","koaza":"","lat":35.845443,"lng":140.138734,"zip":"2701103"},{"town":"布佐平和台一丁目","koaza":"","lat":35.850546,"lng":140.131874,"zip":"2701108"},{"town":"布佐平和台二丁目","koaza":"","lat":35.854616,"lng":140.129621,"zip":"2701108"},{"town":"布佐平和台三丁目","koaza":"","lat":35.853921,"lng":140.127464,"zip":"2701108"},{"town":"布佐平和台四丁目","koaza":"","lat":35.857127,"lng":140.124665,"zip":"2701108"},{"town":"布佐平和台五丁目","koaza":"","lat":35.858127,"lng":140.120471,"zip":"2701108"},{"town":"布佐平和台六丁目","koaza":"","lat":35.859622,"lng":140.117451,"zip":"2701108"},{"town":"布佐平和台七丁目","koaza":"","lat":35.858889,"lng":140.115317,"zip":"2701108"},{"town":"布施","koaza":"","lat":35.88898,"lng":140.015831,"zip":"2701162"},{"town":"布施下","koaza":"","lat":35.893482,"lng":140.016544,"zip":"2701161"},{"town":"船戸一丁目","koaza":"","lat":35.870363,"lng":140.001541,"zip":"2701158"},{"town":"船戸二丁目","koaza":"","lat":35.87118,"lng":139.998509,"zip":"2701158"},{"town":"船戸三丁目","koaza":"","lat":35.872689,"lng":139.996737,"zip":"2701158"},{"town":"古戸","koaza":"","lat":35.871699,"lng":140.094617,"zip":"2701111"},{"town":"本町一丁目","koaza":"","lat":35.87199,"lng":140.008,"zip":"2701151"},{"town":"本町二丁目","koaza":"","lat":35.871935,"lng":140.011319,"zip":"2701151"},{"town":"本町三丁目","koaza":"","lat":35.871847,"lng":140.014389,"zip":"2701151"},{"town":"三河屋新田","koaza":"","lat":35.850302,"lng":140.127628,"zip":"2701105"},{"town":"緑一丁目","koaza":"","lat":35.868625,"lng":140.013737,"zip":"2701153"},{"town":"緑二丁目","koaza":"","lat":35.868232,"lng":140.017622,"zip":"2701153"},{"town":"南青山","koaza":"","lat":35.881596,"lng":140.046854,"zip":"2701178"},{"town":"南新木一丁目","koaza":"","lat":35.860158,"lng":140.109297,"zip":"2701119"},{"town":"南新木二丁目","koaza":"","lat":35.860104,"lng":140.106105,"zip":"2701119"},{"town":"南新木三丁目","koaza":"","lat":35.860319,"lng":140.102708,"zip":"2701119"},{"town":"南新木四丁目","koaza":"","lat":35.860982,"lng":140.098803,"zip":"2701119"},{"town":"都","koaza":"","lat":35.848594,"lng":140.140857,"zip":"2701131"},{"town":"呼塚新田","koaza":"","lat":35.870099,"lng":139.992544,"zip":"2701157"},{"town":"若松","koaza":"","lat":35.863966,"lng":140.020976,"zip":"2701147"},{"town":"弁天下","koaza":"","lat":35.897921,"lng":140.0302,"zip":"2701171"},{"town":"北新田","koaza":"","lat":35.889567,"lng":140.041357,"zip":"2701172"},{"town":"中里","koaza":"庚申前","lat":35.868041,"lng":140.078656,"zip":"2701122"}]