[{"town":"秋田","koaza":"","lat":35.742174,"lng":140.577828,"zip":"2890518"},{"town":"足川","koaza":"","lat":35.69877,"lng":140.657749,"zip":"2892522"},{"town":"イ","koaza":"","lat":35.723258,"lng":140.668643,"zip":"2892511"},{"town":"飯岡","koaza":"","lat":35.70068,"lng":140.728489,"zip":"2892705"},{"town":"幾世","koaza":"","lat":35.770746,"lng":140.680758,"zip":"2892607"},{"town":"泉川","koaza":"","lat":35.700542,"lng":140.609252,"zip":"2892534"},{"town":"井戸野","koaza":"","lat":35.708903,"lng":140.622592,"zip":"2892531"},{"town":"入野","koaza":"","lat":35.75765,"lng":140.637255,"zip":"2890515"},{"town":"岩井","koaza":"","lat":35.7604,"lng":140.700949,"zip":"2892602"},{"town":"岩崎","koaza":"","lat":35.716493,"lng":140.712648,"zip":"2892711"},{"town":"後草","koaza":"","lat":35.72745,"lng":140.682355,"zip":"2892613"},{"town":"江ケ崎","koaza":"","lat":35.734105,"lng":140.65996,"zip":"2892614"},{"town":"大久保","koaza":"","lat":35.782921,"lng":140.648846,"zip":"2892500"},{"town":"大塚原","koaza":"","lat":35.693818,"lng":140.609115,"zip":"2892533"},{"town":"大間手","koaza":"","lat":35.7427,"lng":140.691106,"zip":"2892603"},{"town":"鏑木","koaza":"","lat":35.764378,"lng":140.588753,"zip":"2890511"},{"town":"鎌数","koaza":"","lat":35.734168,"lng":140.626961,"zip":"2892505"},{"town":"上永井","koaza":"","lat":35.698531,"lng":140.748913,"zip":"2892704"},{"town":"川口","koaza":"","lat":35.711773,"lng":140.59509,"zip":"2892535"},{"town":"神田","koaza":"","lat":35.784319,"lng":140.639607,"zip":"2892500"},{"town":"行内","koaza":"","lat":35.703935,"lng":140.723019,"zip":"2892707"},{"town":"清滝","koaza":"","lat":35.756387,"lng":140.674087,"zip":"2892606"},{"town":"倉橋","koaza":"","lat":35.741165,"lng":140.716453,"zip":"2892611"},{"town":"琴田","koaza":"","lat":35.74762,"lng":140.656612,"zip":"2892605"},{"town":"駒込","koaza":"","lat":35.699923,"lng":140.615402,"zip":"2892532"},{"town":"権田沼新田","koaza":"","lat":35.71655,"lng":140.683245,"zip":"2892715"},{"town":"櫻井","koaza":"","lat":35.780336,"lng":140.646575,"zip":"2890504"},{"town":"さくら台","koaza":"","lat":35.777146,"lng":140.639329,"zip":"2890506"},{"town":"三川","koaza":"","lat":35.714862,"lng":140.698989,"zip":"2892714"},{"town":"椎名内","koaza":"","lat":35.702268,"lng":140.666976,"zip":"2892514"},{"town":"下永井","koaza":"","lat":35.693976,"lng":140.729284,"zip":"2892706"},{"town":"神宮寺","koaza":"","lat":35.688817,"lng":140.623012,"zip":"2892524"},{"town":"新町","koaza":"","lat":35.750196,"lng":140.632157,"zip":"2892501"},{"town":"清和乙","koaza":"","lat":35.77428,"lng":140.615925,"zip":"2890501"},{"town":"清和甲","koaza":"","lat":35.773971,"lng":140.625924,"zip":"2890507"},{"town":"関戸","koaza":"","lat":35.770493,"lng":140.638705,"zip":"2890514"},{"town":"関戸下","koaza":"","lat":35.764505,"lng":140.640064,"zip":"2892500"},{"town":"高生","koaza":"","lat":35.741133,"lng":140.679129,"zip":"2892604"},{"town":"東和田","koaza":"","lat":35.78468,"lng":140.64516,"zip":"2892500"},{"town":"長尾","koaza":"","lat":35.735585,"lng":140.693267,"zip":"2892615"},{"town":"長部","koaza":"","lat":35.781869,"lng":140.623748,"zip":"2890502"},{"town":"中谷里","koaza":"","lat":35.696328,"lng":140.642229,"zip":"2892523"},{"town":"ニ","koaza":"","lat":35.720513,"lng":140.629849,"zip":"2892504"},{"town":"西足洗","koaza":"","lat":35.71151,"lng":140.667174,"zip":"2892515"},{"town":"仁玉","koaza":"","lat":35.705635,"lng":140.633882,"zip":"2892525"},{"town":"野中","koaza":"","lat":35.703051,"lng":140.678681,"zip":"2892513"},{"town":"ハ","koaza":"","lat":35.711558,"lng":140.65123,"zip":"2892521"},{"town":"萩園","koaza":"","lat":35.70659,"lng":140.712305,"zip":"2892713"},{"town":"塙","koaza":"","lat":35.718834,"lng":140.728805,"zip":"2892702"},{"town":"東足洗","koaza":"","lat":35.712687,"lng":140.677327,"zip":"2892512"},{"town":"平松","koaza":"","lat":35.70536,"lng":140.720779,"zip":"2892708"},{"town":"舟戸","koaza":"","lat":35.773093,"lng":140.64147,"zip":"2890513"},{"town":"蛇園","koaza":"","lat":35.729107,"lng":140.698782,"zip":"2892612"},{"town":"松ケ谷","koaza":"","lat":35.773042,"lng":140.693941,"zip":"2892601"},{"town":"萬歳","koaza":"","lat":35.774137,"lng":140.65288,"zip":"2890505"},{"town":"萬力","koaza":"","lat":35.750644,"lng":140.594947,"zip":"2890517"},{"town":"溝原","koaza":"","lat":35.782076,"lng":140.633741,"zip":"2890503"},{"town":"南堀之内","koaza":"","lat":35.767504,"lng":140.611659,"zip":"2890512"},{"town":"見広","koaza":"","lat":35.745669,"lng":140.699079,"zip":"2892616"},{"town":"狢野","koaza":"","lat":35.730628,"lng":140.730318,"zip":"2892701"},{"town":"八木","koaza":"","lat":35.703922,"lng":140.735318,"zip":"2892703"},{"town":"横根","koaza":"","lat":35.715085,"lng":140.716199,"zip":"2892712"},{"town":"米込","koaza":"","lat":35.754463,"lng":140.615089,"zip":"2890516"},{"town":"ロ","koaza":"","lat":35.720307,"lng":140.652857,"zip":"2892516"},{"town":"鎌数","koaza":"川西","lat":35.726759,"lng":140.603712,"zip":"2892505"},{"town":"ニ","koaza":"大正","lat":35.727349,"lng":140.659882,"zip":"2892504"}]