[{"town":"朝日一丁目","koaza":"","lat":35.385167,"lng":139.928503,"zip":"2920055"},{"town":"朝日二丁目","koaza":"","lat":35.38516,"lng":139.932225,"zip":"2920055"},{"town":"朝日三丁目","koaza":"","lat":35.385295,"lng":139.936491,"zip":"2920055"},{"town":"吾妻","koaza":"","lat":35.390333,"lng":139.925045,"zip":"2920065"},{"town":"吾妻一丁目","koaza":"","lat":35.390156,"lng":139.918878,"zip":"2920065"},{"town":"吾妻二丁目","koaza":"","lat":35.39134,"lng":139.921792,"zip":"2920065"},{"town":"有吉","koaza":"","lat":35.403826,"lng":139.986261,"zip":"2920021"},{"town":"井尻","koaza":"","lat":35.404714,"lng":139.97062,"zip":"2920026"},{"town":"伊豆島","koaza":"","lat":35.362539,"lng":139.988509,"zip":"2920034"},{"town":"岩根一丁目","koaza":"","lat":35.411303,"lng":139.926828,"zip":"2920061"},{"town":"岩根二丁目","koaza":"","lat":35.410963,"lng":139.930135,"zip":"2920061"},{"town":"岩根三丁目","koaza":"","lat":35.413958,"lng":139.931408,"zip":"2920061"},{"town":"岩根四丁目","koaza":"","lat":35.41515,"lng":139.928584,"zip":"2920061"},{"town":"犬成","koaza":"","lat":35.377393,"lng":139.983846,"zip":"2920033"},{"town":"牛込","koaza":"","lat":35.439427,"lng":139.940755,"zip":"2920001"},{"town":"牛袋","koaza":"","lat":35.404585,"lng":139.958031,"zip":"2920012"},{"town":"牛袋野","koaza":"","lat":35.410971,"lng":139.964345,"zip":"2920011"},{"town":"瓜倉","koaza":"","lat":35.427602,"lng":139.919714,"zip":"2920007"},{"town":"江川","koaza":"","lat":35.400641,"lng":139.91357,"zip":"2920063"},{"town":"大稲","koaza":"","lat":35.378758,"lng":140.056886,"zip":"2920211"},{"town":"大久保","koaza":"","lat":35.350572,"lng":139.920384,"zip":"2920815"},{"town":"大久保一丁目","koaza":"","lat":35.345052,"lng":139.932684,"zip":"2920815"},{"town":"大久保二丁目","koaza":"","lat":35.343601,"lng":139.929366,"zip":"2920815"},{"town":"大久保三丁目","koaza":"","lat":35.341972,"lng":139.928896,"zip":"2920815"},{"town":"大久保四丁目","koaza":"","lat":35.342523,"lng":139.93661,"zip":"2920815"},{"town":"大久保五丁目","koaza":"","lat":35.344873,"lng":139.936537,"zip":"2920815"},{"town":"大久保六丁目","koaza":"","lat":35.342014,"lng":139.940506,"zip":"2920815"},{"town":"太田一丁目","koaza":"","lat":35.383823,"lng":139.940149,"zip":"2920044"},{"town":"太田二丁目","koaza":"","lat":35.380215,"lng":139.939528,"zip":"2920044"},{"town":"太田三丁目","koaza":"","lat":35.377136,"lng":139.939426,"zip":"2920044"},{"town":"太田四丁目","koaza":"","lat":35.377845,"lng":139.944348,"zip":"2920044"},{"town":"大寺","koaza":"","lat":35.396343,"lng":139.976409,"zip":"2920024"},{"town":"貝渕一丁目","koaza":"","lat":35.376023,"lng":139.921149,"zip":"2920833"},{"town":"貝渕二丁目","koaza":"","lat":35.374203,"lng":139.921685,"zip":"2920833"},{"town":"貝渕三丁目","koaza":"","lat":35.371808,"lng":139.921274,"zip":"2920833"},{"town":"貝渕四丁目","koaza":"","lat":35.37016,"lng":139.921995,"zip":"2920833"},{"town":"かずさ鎌足一丁目","koaza":"","lat":35.34388,"lng":139.990296,"zip":"2920818"},{"town":"かずさ鎌足二丁目","koaza":"","lat":35.331237,"lng":139.990508,"zip":"2920818"},{"town":"かずさ鎌足三丁目","koaza":"","lat":35.32189,"lng":139.992676,"zip":"2920818"},{"town":"金田東一丁目","koaza":"","lat":35.437573,"lng":139.927396,"zip":"2920009"},{"town":"金田東二丁目","koaza":"","lat":35.440159,"lng":139.931423,"zip":"2920009"},{"town":"金田東三丁目","koaza":"","lat":35.435112,"lng":139.934379,"zip":"2920009"},{"town":"金田東四丁目","koaza":"","lat":35.430189,"lng":139.935552,"zip":"2920009"},{"town":"金田東五丁目","koaza":"","lat":35.42877,"lng":139.930913,"zip":"2920009"},{"town":"金田東六丁目","koaza":"","lat":35.430481,"lng":139.927549,"zip":"2920009"},{"town":"上烏田","koaza":"","lat":35.341668,"lng":139.959354,"zip":"2920813"},{"town":"上根岸","koaza":"","lat":35.361996,"lng":140.036001,"zip":"2920215"},{"town":"上望陀","koaza":"","lat":35.401848,"lng":140.003953,"zip":"2920022"},{"town":"茅野","koaza":"","lat":35.356375,"lng":140.065163,"zip":"2920204"},{"town":"茅野七曲","koaza":"","lat":35.338123,"lng":140.09998,"zip":"2920202"},{"town":"祇園","koaza":"","lat":35.394618,"lng":139.951203,"zip":"2920052"},{"town":"祇園一丁目","koaza":"","lat":35.389776,"lng":139.949983,"zip":"2920052"},{"town":"祇園二丁目","koaza":"","lat":35.389839,"lng":139.952901,"zip":"2920052"},{"town":"祇園三丁目","koaza":"","lat":35.389488,"lng":139.955982,"zip":"2920052"},{"town":"祇園四丁目","koaza":"","lat":35.388876,"lng":139.958154,"zip":"2920052"},{"town":"木更津","koaza":"","lat":35.386996,"lng":139.925082,"zip":"2920056"},{"town":"木更津一丁目","koaza":"","lat":35.383184,"lng":139.927769,"zip":"2920056"},{"town":"木更津二丁目","koaza":"","lat":35.382685,"lng":139.931318,"zip":"2920056"},{"town":"木更津三丁目","koaza":"","lat":35.382326,"lng":139.935856,"zip":"2920056"},{"town":"北浜町","koaza":"","lat":35.421623,"lng":139.898133,"zip":"2920006"},{"town":"清川一丁目","koaza":"","lat":35.388322,"lng":139.961296,"zip":"2920051"},{"town":"清川二丁目","koaza":"","lat":35.388498,"lng":139.964965,"zip":"2920051"},{"town":"清見台一丁目","koaza":"","lat":35.386414,"lng":139.944482,"zip":"2920045"},{"town":"清見台二丁目","koaza":"","lat":35.383809,"lng":139.944808,"zip":"2920045"},{"town":"清見台三丁目","koaza":"","lat":35.380469,"lng":139.944848,"zip":"2920045"},{"town":"清見台東一丁目","koaza":"","lat":35.385344,"lng":139.950756,"zip":"2920041"},{"town":"清見台東二丁目","koaza":"","lat":35.384032,"lng":139.956328,"zip":"2920041"},{"town":"清見台東三丁目","koaza":"","lat":35.383939,"lng":139.961996,"zip":"2920041"},{"town":"清見台南一丁目","koaza":"","lat":35.382056,"lng":139.950334,"zip":"2920042"},{"town":"清見台南二丁目","koaza":"","lat":35.379823,"lng":139.949567,"zip":"2920042"},{"town":"清見台南三丁目","koaza":"","lat":35.378624,"lng":139.955267,"zip":"2920042"},{"town":"清見台南四丁目","koaza":"","lat":35.380676,"lng":139.955969,"zip":"2920042"},{"town":"清見台南五丁目","koaza":"","lat":35.379158,"lng":139.96107,"zip":"2920042"},{"town":"草敷","koaza":"","lat":35.331823,"lng":140.006193,"zip":"2920811"},{"town":"久津間","koaza":"","lat":35.414145,"lng":139.916178,"zip":"2920004"},{"town":"畔戸","koaza":"","lat":35.419058,"lng":139.904257,"zip":"2920005"},{"town":"下内橋","koaza":"","lat":35.366975,"lng":140.05275,"zip":"2920213"},{"town":"港南台一丁目","koaza":"","lat":35.356621,"lng":139.914722,"zip":"2920827"},{"town":"港南台二丁目","koaza":"","lat":35.35154,"lng":139.913527,"zip":"2920827"},{"town":"港南台三丁目","koaza":"","lat":35.351738,"lng":139.906955,"zip":"2920827"},{"town":"港南台四丁目","koaza":"","lat":35.349527,"lng":139.908593,"zip":"2920827"},{"town":"港南台五丁目","koaza":"","lat":35.348629,"lng":139.912716,"zip":"2920827"},{"town":"小浜","koaza":"","lat":35.355737,"lng":139.910348,"zip":"2920824"},{"town":"幸町一丁目","koaza":"","lat":35.372446,"lng":139.926047,"zip":"2920803"},{"town":"幸町二丁目","koaza":"","lat":35.372172,"lng":139.927913,"zip":"2920803"},{"town":"幸町三丁目","koaza":"","lat":35.371699,"lng":139.930392,"zip":"2920803"},{"town":"坂戸市場","koaza":"","lat":35.424154,"lng":139.938548,"zip":"2990271"},{"town":"桜井","koaza":"","lat":35.361206,"lng":139.92581,"zip":"2920822"},{"town":"桜井新町一丁目","koaza":"","lat":35.366644,"lng":139.924684,"zip":"2920823"},{"town":"桜井新町二丁目","koaza":"","lat":35.36648,"lng":139.922407,"zip":"2920823"},{"town":"桜井新町三丁目","koaza":"","lat":35.368284,"lng":139.919427,"zip":"2920823"},{"town":"桜井新町四丁目","koaza":"","lat":35.36214,"lng":139.921139,"zip":"2920823"},{"town":"桜井新町五丁目","koaza":"","lat":35.365137,"lng":139.919465,"zip":"2920823"},{"town":"桜町一丁目","koaza":"","lat":35.369792,"lng":139.925617,"zip":"2920821"},{"town":"桜町二丁目","koaza":"","lat":35.369514,"lng":139.927851,"zip":"2920821"},{"town":"笹子","koaza":"","lat":35.377363,"lng":139.994498,"zip":"2920032"},{"town":"佐野","koaza":"","lat":35.338977,"lng":140.038471,"zip":"2920206"},{"town":"潮浜一丁目","koaza":"","lat":35.377639,"lng":139.908893,"zip":"2920838"},{"town":"潮浜二丁目","koaza":"","lat":35.373246,"lng":139.911164,"zip":"2920838"},{"town":"潮浜三丁目","koaza":"","lat":35.368961,"lng":139.912283,"zip":"2920838"},{"town":"潮見一丁目","koaza":"","lat":35.37614,"lng":139.91575,"zip":"2920834"},{"town":"潮見二丁目","koaza":"","lat":35.374423,"lng":139.915446,"zip":"2920834"},{"town":"潮見三丁目","koaza":"","lat":35.371446,"lng":139.915199,"zip":"2920834"},{"town":"潮見四丁目","koaza":"","lat":35.36912,"lng":139.91556,"zip":"2920834"},{"town":"潮見五丁目","koaza":"","lat":35.366686,"lng":139.914448,"zip":"2920834"},{"town":"潮見六丁目","koaza":"","lat":35.36422,"lng":139.913128,"zip":"2920834"},{"town":"潮見七丁目","koaza":"","lat":35.361321,"lng":139.91218,"zip":"2920834"},{"town":"潮見八丁目","koaza":"","lat":35.358241,"lng":139.911204,"zip":"2920834"},{"town":"潮見九丁目","koaza":"","lat":35.356397,"lng":139.909165,"zip":"2920834"},{"town":"下烏田","koaza":"","lat":35.351668,"lng":139.931722,"zip":"2920816"},{"town":"下郡","koaza":"","lat":35.351266,"lng":140.036923,"zip":"2920205"},{"town":"下宮田","koaza":"","lat":35.346957,"lng":140.0204,"zip":"2920217"},{"town":"下望陀","koaza":"","lat":35.397768,"lng":139.998629,"zip":"2920023"},{"town":"請西","koaza":"","lat":35.368697,"lng":139.93719,"zip":"2920801"},{"town":"請西一丁目","koaza":"","lat":35.372265,"lng":139.933446,"zip":"2920801"},{"town":"請西二丁目","koaza":"","lat":35.374232,"lng":139.942202,"zip":"2920801"},{"town":"請西三丁目","koaza":"","lat":35.374046,"lng":139.94991,"zip":"2920801"},{"town":"請西四丁目","koaza":"","lat":35.371263,"lng":139.955392,"zip":"2920801"},{"town":"請西東一丁目","koaza":"","lat":35.3701,"lng":139.945105,"zip":"2920806"},{"town":"請西東二丁目","koaza":"","lat":35.371026,"lng":139.948583,"zip":"2920806"},{"town":"請西東三丁目","koaza":"","lat":35.3699,"lng":139.949355,"zip":"2920806"},{"town":"請西東四丁目","koaza":"","lat":35.367962,"lng":139.946,"zip":"2920806"},{"town":"請西東五丁目","koaza":"","lat":35.366593,"lng":139.950225,"zip":"2920806"},{"town":"請西東六丁目","koaza":"","lat":35.365391,"lng":139.945593,"zip":"2920806"},{"town":"請西東七丁目","koaza":"","lat":35.363611,"lng":139.947511,"zip":"2920806"},{"town":"請西東八丁目","koaza":"","lat":35.362149,"lng":139.948796,"zip":"2920806"},{"town":"請西南一丁目","koaza":"","lat":35.363482,"lng":139.938657,"zip":"2920807"},{"town":"請西南二丁目","koaza":"","lat":35.36074,"lng":139.942372,"zip":"2920807"},{"town":"請西南三丁目","koaza":"","lat":35.358998,"lng":139.945397,"zip":"2920807"},{"town":"請西南四丁目","koaza":"","lat":35.357606,"lng":139.947448,"zip":"2920807"},{"town":"請西南五丁目","koaza":"","lat":35.358773,"lng":139.93931,"zip":"2920807"},{"town":"新宿","koaza":"","lat":35.387168,"lng":139.920909,"zip":"2920066"},{"town":"新田一丁目","koaza":"","lat":35.377469,"lng":139.92396,"zip":"2920832"},{"town":"新田二丁目","koaza":"","lat":35.378072,"lng":139.920479,"zip":"2920832"},{"town":"新田三丁目","koaza":"","lat":35.378203,"lng":139.916319,"zip":"2920832"},{"town":"新港","koaza":"","lat":35.36782,"lng":139.895223,"zip":"2920836"},{"town":"菅生","koaza":"","lat":35.390742,"lng":139.975435,"zip":"2920036"},{"town":"曽根","koaza":"","lat":35.414362,"lng":139.96954,"zip":"2920027"},{"town":"高砂一丁目","koaza":"","lat":35.409744,"lng":139.932785,"zip":"2920016"},{"town":"高砂二丁目","koaza":"","lat":35.412428,"lng":139.933873,"zip":"2920016"},{"town":"高砂三丁目","koaza":"","lat":35.414299,"lng":139.935531,"zip":"2920016"},{"town":"高柳","koaza":"","lat":35.40337,"lng":139.936592,"zip":"2920014"},{"town":"高柳一丁目","koaza":"","lat":35.40666,"lng":139.942289,"zip":"2920014"},{"town":"高柳二丁目","koaza":"","lat":35.40994,"lng":139.94357,"zip":"2920014"},{"town":"高柳三丁目","koaza":"","lat":35.413845,"lng":139.942659,"zip":"2920014"},{"town":"高柳四丁目","koaza":"","lat":35.407956,"lng":139.946661,"zip":"2920014"},{"town":"田川","koaza":"","lat":35.337727,"lng":140.028472,"zip":"2920207"},{"town":"中央一丁目","koaza":"","lat":35.384187,"lng":139.924282,"zip":"2920067"},{"town":"中央二丁目","koaza":"","lat":35.38385,"lng":139.921325,"zip":"2920067"},{"town":"中央三丁目","koaza":"","lat":35.383828,"lng":139.919101,"zip":"2920067"},{"town":"築地","koaza":"","lat":35.359712,"lng":139.903414,"zip":"2920835"},{"town":"椿","koaza":"","lat":35.390446,"lng":139.991408,"zip":"2920031"},{"town":"十日市場","koaza":"","lat":35.396899,"lng":139.961851,"zip":"2920025"},{"town":"戸国","koaza":"","lat":35.365202,"lng":140.045266,"zip":"2920214"},{"town":"内港","koaza":"","lat":35.386575,"lng":139.916632,"zip":"2920000"},{"town":"永井作","koaza":"","lat":35.389767,"lng":139.942338,"zip":"2920053"},{"town":"永井作一丁目","koaza":"","lat":35.388844,"lng":139.94611,"zip":"2920053"},{"town":"永井作二丁目","koaza":"","lat":35.390013,"lng":139.944346,"zip":"2920053"},{"town":"中尾","koaza":"","lat":35.381259,"lng":139.973122,"zip":"2920035"},{"town":"中烏田","koaza":"","lat":35.352997,"lng":139.942984,"zip":"2920817"},{"town":"中里","koaza":"","lat":35.396909,"lng":139.925692,"zip":"2920064"},{"town":"中里一丁目","koaza":"","lat":35.393651,"lng":139.921246,"zip":"2920064"},{"town":"中里二丁目","koaza":"","lat":35.397326,"lng":139.919262,"zip":"2920064"},{"town":"中島","koaza":"","lat":35.434688,"lng":139.917963,"zip":"2920008"},{"town":"中島地先海ほたる","koaza":"","lat":35.463559,"lng":139.875553,"zip":"2920071"},{"town":"長須賀","koaza":"","lat":35.392687,"lng":139.935364,"zip":"2920054"},{"town":"中野","koaza":"","lat":35.433554,"lng":139.942623,"zip":"2920002"},{"town":"中の島","koaza":"","lat":35.385161,"lng":139.911734,"zip":"2920839"},{"town":"西岩根","koaza":"","lat":35.406892,"lng":139.925966,"zip":"2920062"},{"town":"根岸","koaza":"","lat":35.356625,"lng":140.036072,"zip":"2920216"},{"town":"畑沢","koaza":"","lat":35.342618,"lng":139.919759,"zip":"2920825"},{"town":"畑沢一丁目","koaza":"","lat":35.348602,"lng":139.900314,"zip":"2920825"},{"town":"畑沢二丁目","koaza":"","lat":35.346813,"lng":139.903457,"zip":"2920825"},{"town":"畑沢三丁目","koaza":"","lat":35.346473,"lng":139.908313,"zip":"2920825"},{"town":"畑沢四丁目","koaza":"","lat":35.345176,"lng":139.913148,"zip":"2920825"},{"town":"畑沢南一丁目","koaza":"","lat":35.345673,"lng":139.898374,"zip":"2920826"},{"town":"畑沢南二丁目","koaza":"","lat":35.342291,"lng":139.905118,"zip":"2920826"},{"town":"畑沢南三丁目","koaza":"","lat":35.342279,"lng":139.910213,"zip":"2920826"},{"town":"畑沢南四丁目","koaza":"","lat":35.33939,"lng":139.908007,"zip":"2920826"},{"town":"畑沢南五丁目","koaza":"","lat":35.337715,"lng":139.903845,"zip":"2920826"},{"town":"畑沢南六丁目","koaza":"","lat":35.33928,"lng":139.900702,"zip":"2920826"},{"town":"八幡台一丁目","koaza":"","lat":35.345139,"lng":139.948884,"zip":"2920814"},{"town":"八幡台二丁目","koaza":"","lat":35.345452,"lng":139.95086,"zip":"2920814"},{"town":"八幡台三丁目","koaza":"","lat":35.343243,"lng":139.953954,"zip":"2920814"},{"town":"八幡台四丁目","koaza":"","lat":35.340648,"lng":139.949916,"zip":"2920814"},{"town":"八幡台五丁目","koaza":"","lat":35.335238,"lng":139.949626,"zip":"2920814"},{"town":"八幡台六丁目","koaza":"","lat":35.336964,"lng":139.951934,"zip":"2920814"},{"town":"八幡台七丁目","koaza":"","lat":35.337736,"lng":139.954948,"zip":"2920814"},{"town":"羽鳥野一丁目","koaza":"","lat":35.348067,"lng":139.946776,"zip":"2920819"},{"town":"羽鳥野二丁目","koaza":"","lat":35.34368,"lng":139.945802,"zip":"2920819"},{"town":"羽鳥野三丁目","koaza":"","lat":35.340133,"lng":139.945817,"zip":"2920819"},{"town":"羽鳥野四丁目","koaza":"","lat":35.339251,"lng":139.942677,"zip":"2920819"},{"town":"羽鳥野五丁目","koaza":"","lat":35.34403,"lng":139.940915,"zip":"2920819"},{"town":"羽鳥野六丁目","koaza":"","lat":35.345711,"lng":139.941478,"zip":"2920819"},{"town":"羽鳥野七丁目","koaza":"","lat":35.348299,"lng":139.941478,"zip":"2920819"},{"town":"東太田一丁目","koaza":"","lat":35.376987,"lng":139.949021,"zip":"2920043"},{"town":"東太田二丁目","koaza":"","lat":35.37639,"lng":139.953392,"zip":"2920043"},{"town":"東太田三丁目","koaza":"","lat":35.376007,"lng":139.957798,"zip":"2920043"},{"town":"東太田四丁目","koaza":"","lat":35.371969,"lng":139.957414,"zip":"2920043"},{"town":"東中央一丁目","koaza":"","lat":35.381872,"lng":139.927681,"zip":"2920057"},{"town":"東中央二丁目","koaza":"","lat":35.380841,"lng":139.931911,"zip":"2920057"},{"town":"東中央三丁目","koaza":"","lat":35.379837,"lng":139.934927,"zip":"2920057"},{"town":"日の出町","koaza":"","lat":35.38597,"lng":139.982094,"zip":"2920037"},{"town":"富士見一丁目","koaza":"","lat":35.38094,"lng":139.924523,"zip":"2920831"},{"town":"富士見二丁目","koaza":"","lat":35.380683,"lng":139.920356,"zip":"2920831"},{"town":"富士見三丁目","koaza":"","lat":35.381492,"lng":139.914084,"zip":"2920831"},{"town":"文京一丁目","koaza":"","lat":35.377529,"lng":139.926861,"zip":"2920804"},{"town":"文京二丁目","koaza":"","lat":35.376849,"lng":139.930165,"zip":"2920804"},{"town":"文京三丁目","koaza":"","lat":35.376362,"lng":139.933634,"zip":"2920804"},{"town":"文京四丁目","koaza":"","lat":35.374226,"lng":139.932828,"zip":"2920804"},{"town":"文京五丁目","koaza":"","lat":35.374725,"lng":139.929858,"zip":"2920804"},{"town":"文京六丁目","koaza":"","lat":35.375243,"lng":139.92626,"zip":"2920804"},{"town":"ほたる野一丁目","koaza":"","lat":35.376323,"lng":139.961173,"zip":"2920038"},{"town":"ほたる野二丁目","koaza":"","lat":35.384146,"lng":139.965242,"zip":"2920038"},{"town":"ほたる野三丁目","koaza":"","lat":35.376898,"lng":139.967476,"zip":"2920038"},{"town":"ほたる野四丁目","koaza":"","lat":35.376393,"lng":139.964705,"zip":"2920038"},{"town":"本郷一丁目","koaza":"","lat":35.408205,"lng":139.937673,"zip":"2920015"},{"town":"本郷二丁目","koaza":"","lat":35.411263,"lng":139.938155,"zip":"2920015"},{"town":"本郷三丁目","koaza":"","lat":35.413641,"lng":139.939279,"zip":"2920015"},{"town":"真舟一丁目","koaza":"","lat":35.364517,"lng":139.931259,"zip":"2920802"},{"town":"真舟二丁目","koaza":"","lat":35.360276,"lng":139.935724,"zip":"2920802"},{"town":"真舟三丁目","koaza":"","lat":35.356271,"lng":139.935455,"zip":"2920802"},{"town":"真舟四丁目","koaza":"","lat":35.358894,"lng":139.932607,"zip":"2920802"},{"town":"真舟五丁目","koaza":"","lat":35.363435,"lng":139.930057,"zip":"2920802"},{"town":"真里","koaza":"","lat":35.372454,"lng":140.05177,"zip":"2920212"},{"town":"真里谷","koaza":"","lat":35.358489,"lng":140.095122,"zip":"2920201"},{"town":"万石","koaza":"","lat":35.421164,"lng":139.931363,"zip":"2920003"},{"town":"木材港","koaza":"","lat":35.371962,"lng":139.90804,"zip":"2920837"},{"town":"矢那","koaza":"","lat":35.342479,"lng":139.974598,"zip":"2920812"},{"town":"大和一丁目","koaza":"","lat":35.379505,"lng":139.927545,"zip":"2920805"},{"town":"大和二丁目","koaza":"","lat":35.379448,"lng":139.930393,"zip":"2920805"},{"town":"大和三丁目","koaza":"","lat":35.378004,"lng":139.934243,"zip":"2920805"},{"town":"山本七曲","koaza":"","lat":35.341434,"lng":140.087571,"zip":"2920203"},{"town":"若葉町","koaza":"","lat":35.405366,"lng":139.947398,"zip":"2920013"},{"town":"桜井","koaza":"内田","lat":35.367303,"lng":139.927162,"zip":"2920822"}]