[{"town":"旭町一丁目","koaza":"","lat":35.815309,"lng":139.899807,"zip":"2710043"},{"town":"旭町二丁目","koaza":"","lat":35.820602,"lng":139.899273,"zip":"2710043"},{"town":"旭町三丁目","koaza":"","lat":35.821784,"lng":139.902849,"zip":"2710043"},{"town":"旭町四丁目","koaza":"","lat":35.825922,"lng":139.900948,"zip":"2710043"},{"town":"岩瀬","koaza":"","lat":35.781568,"lng":139.904987,"zip":"2710076"},{"town":"大金平一丁目","koaza":"","lat":35.834362,"lng":139.926608,"zip":"2700006"},{"town":"大金平二丁目","koaza":"","lat":35.837092,"lng":139.923744,"zip":"2700006"},{"town":"大金平三丁目","koaza":"","lat":35.835692,"lng":139.919014,"zip":"2700006"},{"town":"大金平四丁目","koaza":"","lat":35.837389,"lng":139.917414,"zip":"2700006"},{"town":"大金平五丁目","koaza":"","lat":35.840149,"lng":139.918532,"zip":"2700006"},{"town":"大橋","koaza":"","lat":35.767791,"lng":139.917231,"zip":"2702224"},{"town":"大谷口","koaza":"","lat":35.83355,"lng":139.922703,"zip":"2700005"},{"town":"上総内","koaza":"","lat":35.830357,"lng":139.925645,"zip":"2700018"},{"town":"金ケ作","koaza":"","lat":35.803535,"lng":139.961599,"zip":"2702251"},{"town":"紙敷一丁目","koaza":"","lat":35.774734,"lng":139.955516,"zip":"2702221"},{"town":"紙敷二丁目","koaza":"","lat":35.77528,"lng":139.952055,"zip":"2702221"},{"town":"紙敷三丁目","koaza":"","lat":35.771986,"lng":139.951116,"zip":"2702221"},{"town":"上本郷","koaza":"","lat":35.797871,"lng":139.909263,"zip":"2710064"},{"town":"上矢切","koaza":"","lat":35.76979,"lng":139.888828,"zip":"2710094"},{"town":"河原塚","koaza":"","lat":35.781403,"lng":139.939845,"zip":"2702254"},{"town":"北松戸一丁目","koaza":"","lat":35.802509,"lng":139.913114,"zip":"2710063"},{"town":"北松戸二丁目","koaza":"","lat":35.799612,"lng":139.915324,"zip":"2710063"},{"town":"北松戸三丁目","koaza":"","lat":35.801834,"lng":139.915647,"zip":"2710063"},{"town":"串崎新田","koaza":"","lat":35.776766,"lng":139.976386,"zip":"2702216"},{"town":"串崎南町","koaza":"","lat":35.776105,"lng":139.961392,"zip":"2702215"},{"town":"久保平賀","koaza":"","lat":35.828111,"lng":139.938404,"zip":"2700012"},{"town":"栗ケ沢","koaza":"","lat":35.812364,"lng":139.954531,"zip":"2700022"},{"town":"栗山","koaza":"","lat":35.755152,"lng":139.897218,"zip":"2710097"},{"town":"幸田","koaza":"","lat":35.846309,"lng":139.920242,"zip":"2700001"},{"town":"幸田一丁目","koaza":"","lat":35.843611,"lng":139.924105,"zip":"2700001"},{"town":"幸田二丁目","koaza":"","lat":35.845759,"lng":139.923783,"zip":"2700001"},{"town":"幸田三丁目","koaza":"","lat":35.846712,"lng":139.927301,"zip":"2700001"},{"town":"幸田四丁目","koaza":"","lat":35.84447,"lng":139.927157,"zip":"2700001"},{"town":"幸田五丁目","koaza":"","lat":35.843637,"lng":139.929471,"zip":"2700001"},{"town":"幸谷","koaza":"","lat":35.82569,"lng":139.923452,"zip":"2700017"},{"town":"古ケ崎","koaza":"","lat":35.797596,"lng":139.891769,"zip":"2710068"},{"town":"古ケ崎一丁目","koaza":"","lat":35.796724,"lng":139.894984,"zip":"2710068"},{"town":"古ケ崎二丁目","koaza":"","lat":35.796751,"lng":139.899014,"zip":"2710068"},{"town":"古ケ崎三丁目","koaza":"","lat":35.800881,"lng":139.898967,"zip":"2710068"},{"town":"古ケ崎四丁目","koaza":"","lat":35.805223,"lng":139.898564,"zip":"2710068"},{"town":"小金","koaza":"","lat":35.829229,"lng":139.93045,"zip":"2700014"},{"town":"小金上総町","koaza":"","lat":35.825843,"lng":139.930198,"zip":"2700015"},{"town":"小金きよしケ丘一丁目","koaza":"","lat":35.833027,"lng":139.934052,"zip":"2700013"},{"town":"小金きよしケ丘二丁目","koaza":"","lat":35.83032,"lng":139.935843,"zip":"2700013"},{"town":"小金きよしケ丘三丁目","koaza":"","lat":35.826744,"lng":139.93473,"zip":"2700013"},{"town":"小金きよしケ丘四丁目","koaza":"","lat":35.826438,"lng":139.936378,"zip":"2700013"},{"town":"小金きよしケ丘五丁目","koaza":"","lat":35.82421,"lng":139.936477,"zip":"2700013"},{"town":"小金清志町一丁目","koaza":"","lat":35.824781,"lng":139.928698,"zip":"2700016"},{"town":"小金清志町二丁目","koaza":"","lat":35.827375,"lng":139.929946,"zip":"2700016"},{"town":"小金清志町三丁目","koaza":"","lat":35.829779,"lng":139.927318,"zip":"2700016"},{"town":"小金原一丁目","koaza":"","lat":35.825737,"lng":139.941056,"zip":"2700021"},{"town":"小金原二丁目","koaza":"","lat":35.824745,"lng":139.946749,"zip":"2700021"},{"town":"小金原三丁目","koaza":"","lat":35.822367,"lng":139.947638,"zip":"2700021"},{"town":"小金原四丁目","koaza":"","lat":35.821062,"lng":139.939869,"zip":"2700021"},{"town":"小金原五丁目","koaza":"","lat":35.817378,"lng":139.940769,"zip":"2700021"},{"town":"小金原六丁目","koaza":"","lat":35.818474,"lng":139.948071,"zip":"2700021"},{"town":"小金原七丁目","koaza":"","lat":35.814907,"lng":139.948899,"zip":"2700021"},{"town":"小金原八丁目","koaza":"","lat":35.813926,"lng":139.941826,"zip":"2700021"},{"town":"小金原九丁目","koaza":"","lat":35.811267,"lng":139.945649,"zip":"2700021"},{"town":"五香一丁目","koaza":"","lat":35.794499,"lng":139.968706,"zip":"2702213"},{"town":"五香二丁目","koaza":"","lat":35.794764,"lng":139.972025,"zip":"2702213"},{"town":"五香三丁目","koaza":"","lat":35.794914,"lng":139.975216,"zip":"2702213"},{"town":"五香四丁目","koaza":"","lat":35.792799,"lng":139.97981,"zip":"2702213"},{"town":"五香五丁目","koaza":"","lat":35.791516,"lng":139.982808,"zip":"2702213"},{"town":"五香六丁目","koaza":"","lat":35.799774,"lng":139.968681,"zip":"2702213"},{"town":"五香七丁目","koaza":"","lat":35.799321,"lng":139.972905,"zip":"2702213"},{"town":"五香八丁目","koaza":"","lat":35.796831,"lng":139.978806,"zip":"2702213"},{"town":"五香西一丁目","koaza":"","lat":35.793289,"lng":139.96716,"zip":"2702218"},{"town":"五香西二丁目","koaza":"","lat":35.791641,"lng":139.964082,"zip":"2702218"},{"town":"五香西三丁目","koaza":"","lat":35.791608,"lng":139.961294,"zip":"2702218"},{"town":"五香西四丁目","koaza":"","lat":35.787003,"lng":139.961082,"zip":"2702218"},{"town":"五香西五丁目","koaza":"","lat":35.786887,"lng":139.952325,"zip":"2702218"},{"town":"五香西六丁目","koaza":"","lat":35.790136,"lng":139.955689,"zip":"2702218"},{"town":"五香南一丁目","koaza":"","lat":35.789549,"lng":139.975679,"zip":"2702212"},{"town":"五香南二丁目","koaza":"","lat":35.791544,"lng":139.976381,"zip":"2702212"},{"town":"五香南三丁目","koaza":"","lat":35.788611,"lng":139.978639,"zip":"2702212"},{"town":"五香六実","koaza":"","lat":35.788509,"lng":139.973463,"zip":"2702211"},{"town":"小根本","koaza":"","lat":35.788085,"lng":139.90687,"zip":"2710073"},{"town":"小山","koaza":"","lat":35.773171,"lng":139.894499,"zip":"2710093"},{"town":"胡録台","koaza":"","lat":35.783926,"lng":139.913175,"zip":"2710075"},{"town":"栄町一丁目","koaza":"","lat":35.79685,"lng":139.901991,"zip":"2710062"},{"town":"栄町二丁目","koaza":"","lat":35.801043,"lng":139.903671,"zip":"2710062"},{"town":"栄町三丁目","koaza":"","lat":35.803015,"lng":139.905619,"zip":"2710062"},{"town":"栄町四丁目","koaza":"","lat":35.803957,"lng":139.903208,"zip":"2710062"},{"town":"栄町五丁目","koaza":"","lat":35.807483,"lng":139.904047,"zip":"2710062"},{"town":"栄町六丁目","koaza":"","lat":35.806458,"lng":139.907581,"zip":"2710062"},{"town":"栄町七丁目","koaza":"","lat":35.810149,"lng":139.90959,"zip":"2710062"},{"town":"栄町八丁目","koaza":"","lat":35.810943,"lng":139.904713,"zip":"2710062"},{"town":"栄町西一丁目","koaza":"","lat":35.807812,"lng":139.898603,"zip":"2710061"},{"town":"栄町西二丁目","koaza":"","lat":35.810026,"lng":139.898648,"zip":"2710061"},{"town":"栄町西三丁目","koaza":"","lat":35.812709,"lng":139.898657,"zip":"2710061"},{"town":"栄町西四丁目","koaza":"","lat":35.812268,"lng":139.892927,"zip":"2710061"},{"town":"栄町西五丁目","koaza":"","lat":35.807847,"lng":139.892006,"zip":"2710061"},{"town":"七右衛門新田","koaza":"","lat":35.827265,"lng":139.8952,"zip":"2710041"},{"town":"下矢切","koaza":"","lat":35.757338,"lng":139.888271,"zip":"2710096"},{"town":"新作","koaza":"","lat":35.80509,"lng":139.916204,"zip":"2710052"},{"town":"新松戸一丁目","koaza":"","lat":35.828966,"lng":139.921592,"zip":"2700034"},{"town":"新松戸二丁目","koaza":"","lat":35.823052,"lng":139.919934,"zip":"2700034"},{"town":"新松戸三丁目","koaza":"","lat":35.82344,"lng":139.915319,"zip":"2700034"},{"town":"新松戸四丁目","koaza":"","lat":35.827142,"lng":139.916103,"zip":"2700034"},{"town":"新松戸五丁目","koaza":"","lat":35.829755,"lng":139.910135,"zip":"2700034"},{"town":"新松戸六丁目","koaza":"","lat":35.825073,"lng":139.908619,"zip":"2700034"},{"town":"新松戸七丁目","koaza":"","lat":35.830714,"lng":139.904676,"zip":"2700034"},{"town":"新松戸北一丁目","koaza":"","lat":35.831566,"lng":139.918136,"zip":"2700032"},{"town":"新松戸北二丁目","koaza":"","lat":35.832391,"lng":139.912891,"zip":"2700032"},{"town":"新松戸東","koaza":"","lat":35.828132,"lng":139.923629,"zip":"2700033"},{"town":"新松戸南一丁目","koaza":"","lat":35.820342,"lng":139.915227,"zip":"2700035"},{"town":"新松戸南二丁目","koaza":"","lat":35.821125,"lng":139.910268,"zip":"2700035"},{"town":"新松戸南三丁目","koaza":"","lat":35.821094,"lng":139.906104,"zip":"2700035"},{"town":"千駄堀","koaza":"","lat":35.799329,"lng":139.934208,"zip":"2702252"},{"town":"外河原","koaza":"","lat":35.827666,"lng":139.889492,"zip":"2700000"},{"town":"高柳新田","koaza":"","lat":35.805411,"lng":139.98661,"zip":"2702201"},{"town":"竹ケ花","koaza":"","lat":35.791021,"lng":139.904194,"zip":"2710072"},{"town":"竹ケ花西町","koaza":"","lat":35.793481,"lng":139.902701,"zip":"2710071"},{"town":"田中新田","koaza":"","lat":35.781509,"lng":139.950161,"zip":"2702255"},{"town":"常盤平一丁目","koaza":"","lat":35.801478,"lng":139.944185,"zip":"2702261"},{"town":"常盤平二丁目","koaza":"","lat":35.800225,"lng":139.947781,"zip":"2702261"},{"town":"常盤平三丁目","koaza":"","lat":35.801128,"lng":139.954378,"zip":"2702261"},{"town":"常盤平四丁目","koaza":"","lat":35.799772,"lng":139.959955,"zip":"2702261"},{"town":"常盤平五丁目","koaza":"","lat":35.797409,"lng":139.963705,"zip":"2702261"},{"town":"常盤平六丁目","koaza":"","lat":35.79594,"lng":139.958452,"zip":"2702261"},{"town":"常盤平七丁目","koaza":"","lat":35.796031,"lng":139.953443,"zip":"2702261"},{"town":"常盤平陣屋前","koaza":"","lat":35.794969,"lng":139.940962,"zip":"2702265"},{"town":"常盤平西窪町","koaza":"","lat":35.79722,"lng":139.943544,"zip":"2702266"},{"town":"常盤平双葉町","koaza":"","lat":35.79606,"lng":139.948771,"zip":"2702262"},{"town":"常盤平松葉町","koaza":"","lat":35.795302,"lng":139.945518,"zip":"2702264"},{"town":"常盤平柳町","koaza":"","lat":35.794143,"lng":139.946594,"zip":"2702263"},{"town":"殿平賀","koaza":"","lat":35.835878,"lng":139.927502,"zip":"2700004"},{"town":"仲井町一丁目","koaza":"","lat":35.789768,"lng":139.920536,"zip":"2702242"},{"town":"仲井町二丁目","koaza":"","lat":35.78924,"lng":139.918415,"zip":"2702242"},{"town":"仲井町三丁目","koaza":"","lat":35.787903,"lng":139.917479,"zip":"2702242"},{"town":"中金杉一丁目","koaza":"","lat":35.841641,"lng":139.92392,"zip":"2700007"},{"town":"中金杉二丁目","koaza":"","lat":35.840833,"lng":139.925885,"zip":"2700007"},{"town":"中金杉三丁目","koaza":"","lat":35.839097,"lng":139.924065,"zip":"2700007"},{"town":"中金杉四丁目","koaza":"","lat":35.840572,"lng":139.92093,"zip":"2700007"},{"town":"中金杉五丁目","koaza":"","lat":35.843002,"lng":139.920855,"zip":"2700007"},{"town":"中根","koaza":"","lat":35.807405,"lng":139.917222,"zip":"2710053"},{"town":"中根長津町","koaza":"","lat":35.809108,"lng":139.913274,"zip":"2710054"},{"town":"中矢切","koaza":"","lat":35.764115,"lng":139.890338,"zip":"2710095"},{"town":"中和倉","koaza":"","lat":35.803914,"lng":139.925173,"zip":"2700025"},{"town":"西馬橋一丁目","koaza":"","lat":35.816463,"lng":139.915771,"zip":"2710044"},{"town":"西馬橋二丁目","koaza":"","lat":35.818322,"lng":139.910606,"zip":"2710044"},{"town":"西馬橋三丁目","koaza":"","lat":35.816417,"lng":139.910115,"zip":"2710044"},{"town":"西馬橋四丁目","koaza":"","lat":35.81688,"lng":139.90502,"zip":"2710044"},{"town":"西馬橋五丁目","koaza":"","lat":35.813619,"lng":139.904197,"zip":"2710044"},{"town":"西馬橋相川町","koaza":"","lat":35.814822,"lng":139.909181,"zip":"2710045"},{"town":"西馬橋蔵元町","koaza":"","lat":35.813228,"lng":139.914575,"zip":"2710046"},{"town":"西馬橋幸町","koaza":"","lat":35.811501,"lng":139.914027,"zip":"2710047"},{"town":"西馬橋広手町","koaza":"","lat":35.813107,"lng":139.908765,"zip":"2710048"},{"town":"二十世紀が丘柿の木町","koaza":"","lat":35.772002,"lng":139.904876,"zip":"2710088"},{"town":"二十世紀が丘戸山町","koaza":"","lat":35.772765,"lng":139.913979,"zip":"2710082"},{"town":"二十世紀が丘中松町","koaza":"","lat":35.771334,"lng":139.910299,"zip":"2710085"},{"town":"二十世紀が丘梨元町","koaza":"","lat":35.771185,"lng":139.915331,"zip":"2710083"},{"town":"二十世紀が丘萩町","koaza":"","lat":35.76906,"lng":139.906238,"zip":"2710086"},{"town":"二十世紀が丘丸山町","koaza":"","lat":35.768562,"lng":139.911301,"zip":"2710084"},{"town":"二十世紀が丘美野里町","koaza":"","lat":35.773217,"lng":139.909363,"zip":"2710081"},{"town":"根木内","koaza":"","lat":35.8304,"lng":139.943017,"zip":"2700011"},{"town":"根本","koaza":"","lat":35.789158,"lng":139.90131,"zip":"2710077"},{"town":"野菊野","koaza":"","lat":35.779644,"lng":139.913599,"zip":"2702243"},{"town":"八ケ崎","koaza":"","lat":35.816514,"lng":139.930368,"zip":"2700023"},{"town":"八ケ崎一丁目","koaza":"","lat":35.819701,"lng":139.934537,"zip":"2700023"},{"town":"八ケ崎二丁目","koaza":"","lat":35.816225,"lng":139.933352,"zip":"2700023"},{"town":"八ケ崎三丁目","koaza":"","lat":35.813544,"lng":139.935618,"zip":"2700023"},{"town":"八ケ崎四丁目","koaza":"","lat":35.810438,"lng":139.938578,"zip":"2700023"},{"town":"八ケ崎五丁目","koaza":"","lat":35.808525,"lng":139.937027,"zip":"2700023"},{"town":"八ケ崎六丁目","koaza":"","lat":35.808267,"lng":139.928607,"zip":"2700023"},{"town":"八ケ崎七丁目","koaza":"","lat":35.811451,"lng":139.928438,"zip":"2700023"},{"town":"八ケ崎八丁目","koaza":"","lat":35.814415,"lng":139.927011,"zip":"2700023"},{"town":"八ケ崎緑町","koaza":"","lat":35.816693,"lng":139.928519,"zip":"2700024"},{"town":"東平賀","koaza":"","lat":35.835245,"lng":139.934028,"zip":"2700003"},{"town":"東松戸一丁目","koaza":"","lat":35.772782,"lng":139.946144,"zip":"2702225"},{"town":"東松戸二丁目","koaza":"","lat":35.770272,"lng":139.946254,"zip":"2702225"},{"town":"東松戸三丁目","koaza":"","lat":35.770511,"lng":139.942074,"zip":"2702225"},{"town":"東松戸四丁目","koaza":"","lat":35.773589,"lng":139.940828,"zip":"2702225"},{"town":"日暮","koaza":"","lat":35.786294,"lng":139.963233,"zip":"2702253"},{"town":"日暮一丁目","koaza":"","lat":35.791253,"lng":139.940197,"zip":"2702253"},{"town":"日暮二丁目","koaza":"","lat":35.791433,"lng":139.936317,"zip":"2702253"},{"town":"日暮三丁目","koaza":"","lat":35.788719,"lng":139.935719,"zip":"2702253"},{"town":"日暮四丁目","koaza":"","lat":35.786825,"lng":139.938098,"zip":"2702253"},{"town":"日暮五丁目","koaza":"","lat":35.788767,"lng":139.941011,"zip":"2702253"},{"town":"日暮六丁目","koaza":"","lat":35.791013,"lng":139.944341,"zip":"2702253"},{"town":"日暮七丁目","koaza":"","lat":35.78785,"lng":139.945019,"zip":"2702253"},{"town":"日暮八丁目","koaza":"","lat":35.783643,"lng":139.937399,"zip":"2702253"},{"town":"樋野口","koaza":"","lat":35.789834,"lng":139.894137,"zip":"2710067"},{"town":"平賀","koaza":"","lat":35.838873,"lng":139.929403,"zip":"2700002"},{"town":"二ツ木","koaza":"","lat":35.819753,"lng":139.926449,"zip":"2700027"},{"town":"二ツ木二葉町","koaza":"","lat":35.822861,"lng":139.934536,"zip":"2700028"},{"town":"本町","koaza":"","lat":35.785291,"lng":139.898478,"zip":"2710091"},{"town":"牧の原","koaza":"","lat":35.791533,"lng":139.95811,"zip":"2702267"},{"town":"牧の原一丁目","koaza":"","lat":35.791766,"lng":139.948264,"zip":"2702267"},{"town":"牧の原二丁目","koaza":"","lat":35.78945,"lng":139.95008,"zip":"2702267"},{"town":"松戸","koaza":"","lat":35.778337,"lng":139.903015,"zip":"2710092"},{"town":"松戸新田","koaza":"","lat":35.785996,"lng":139.917674,"zip":"2702241"},{"town":"松飛台","koaza":"","lat":35.782958,"lng":139.96333,"zip":"2702214"},{"town":"馬橋","koaza":"","lat":35.812417,"lng":139.92077,"zip":"2710051"},{"town":"三ケ月","koaza":"","lat":35.818265,"lng":139.921935,"zip":"2700026"},{"town":"緑ケ丘一丁目","koaza":"","lat":35.786331,"lng":139.910553,"zip":"2710074"},{"town":"緑ケ丘二丁目","koaza":"","lat":35.787769,"lng":139.915451,"zip":"2710074"},{"town":"南花島","koaza":"","lat":35.792557,"lng":139.906956,"zip":"2710065"},{"town":"南花島一丁目","koaza":"","lat":35.792415,"lng":139.911755,"zip":"2710065"},{"town":"南花島二丁目","koaza":"","lat":35.793363,"lng":139.908592,"zip":"2710065"},{"town":"南花島三丁目","koaza":"","lat":35.789765,"lng":139.913115,"zip":"2710065"},{"town":"南花島四丁目","koaza":"","lat":35.790262,"lng":139.908849,"zip":"2710065"},{"town":"南花島中町","koaza":"","lat":35.793901,"lng":139.906199,"zip":"2700000"},{"town":"南花島向町","koaza":"","lat":35.795052,"lng":139.903783,"zip":"2700000"},{"town":"稔台","koaza":"","lat":35.779185,"lng":139.927386,"zip":"2702231"},{"town":"稔台一丁目","koaza":"","lat":35.78805,"lng":139.932309,"zip":"2702231"},{"town":"稔台二丁目","koaza":"","lat":35.785058,"lng":139.933973,"zip":"2702231"},{"town":"稔台三丁目","koaza":"","lat":35.781629,"lng":139.933077,"zip":"2702231"},{"town":"稔台四丁目","koaza":"","lat":35.779211,"lng":139.933599,"zip":"2702231"},{"town":"稔台五丁目","koaza":"","lat":35.782002,"lng":139.927787,"zip":"2702231"},{"town":"稔台六丁目","koaza":"","lat":35.783511,"lng":139.923732,"zip":"2702231"},{"town":"稔台七丁目","koaza":"","lat":35.785882,"lng":139.928222,"zip":"2702231"},{"town":"稔台八丁目","koaza":"","lat":35.786171,"lng":139.922414,"zip":"2702231"},{"town":"三矢小台一丁目","koaza":"","lat":35.761655,"lng":139.902112,"zip":"2710087"},{"town":"三矢小台二丁目","koaza":"","lat":35.76415,"lng":139.901423,"zip":"2710087"},{"town":"三矢小台三丁目","koaza":"","lat":35.765817,"lng":139.901998,"zip":"2710087"},{"town":"三矢小台四丁目","koaza":"","lat":35.767746,"lng":139.902482,"zip":"2710087"},{"town":"三矢小台五丁目","koaza":"","lat":35.77141,"lng":139.902275,"zip":"2710087"},{"town":"六実一丁目","koaza":"","lat":35.791797,"lng":139.987804,"zip":"2702204"},{"town":"六実二丁目","koaza":"","lat":35.791464,"lng":139.993403,"zip":"2702204"},{"town":"六実三丁目","koaza":"","lat":35.791182,"lng":139.996576,"zip":"2702204"},{"town":"六実四丁目","koaza":"","lat":35.790872,"lng":139.998809,"zip":"2702204"},{"town":"六実五丁目","koaza":"","lat":35.793157,"lng":139.999914,"zip":"2702204"},{"town":"六実六丁目","koaza":"","lat":35.796449,"lng":139.996873,"zip":"2702204"},{"town":"六実七丁目","koaza":"","lat":35.793771,"lng":139.99163,"zip":"2702204"},{"town":"主水新田","koaza":"","lat":35.819675,"lng":139.894294,"zip":"2710042"},{"town":"横須賀一丁目","koaza":"","lat":35.835313,"lng":139.914852,"zip":"2700031"},{"town":"横須賀二丁目","koaza":"","lat":35.834548,"lng":139.908934,"zip":"2700031"},{"town":"吉井町","koaza":"","lat":35.790437,"lng":139.906433,"zip":"2710066"},{"town":"六高台一丁目","koaza":"","lat":35.795417,"lng":139.98398,"zip":"2702203"},{"town":"六高台二丁目","koaza":"","lat":35.79497,"lng":139.989472,"zip":"2702203"},{"town":"六高台三丁目","koaza":"","lat":35.797768,"lng":139.988418,"zip":"2702203"},{"town":"六高台四丁目","koaza":"","lat":35.797488,"lng":139.992398,"zip":"2702203"},{"town":"六高台五丁目","koaza":"","lat":35.801134,"lng":139.994386,"zip":"2702203"},{"town":"六高台六丁目","koaza":"","lat":35.801241,"lng":139.989361,"zip":"2702203"},{"town":"六高台七丁目","koaza":"","lat":35.799456,"lng":139.985513,"zip":"2702203"},{"town":"六高台八丁目","koaza":"","lat":35.800552,"lng":139.98323,"zip":"2702203"},{"town":"六高台九丁目","koaza":"","lat":35.804627,"lng":139.989358,"zip":"2702203"},{"town":"六高台西","koaza":"","lat":35.799351,"lng":139.980185,"zip":"2702205"},{"town":"和名ケ谷","koaza":"","lat":35.777345,"lng":139.925469,"zip":"2702232"},{"town":"高塚新田","koaza":"","lat":35.758315,"lng":139.937537,"zip":"2702222"},{"town":"秋山","koaza":"","lat":35.763055,"lng":139.928217,"zip":"2702223"},{"town":"秋山一丁目","koaza":"","lat":35.764288,"lng":139.93049,"zip":"2702223"},{"town":"秋山二丁目","koaza":"","lat":35.765907,"lng":139.933051,"zip":"2702223"},{"town":"紙敷","koaza":"","lat":35.772633,"lng":139.933972,"zip":"2702221"},{"town":"秋山三丁目","koaza":"","lat":35.766293,"lng":139.935998,"zip":"2702223"},{"town":"秋山","koaza":"弁天","lat":35.761815,"lng":139.924434,"zip":"2702223"}]