[{"town":"青田新田飛地","koaza":"","lat":35.906563,"lng":139.939905,"zip":"2770881"},{"town":"青葉台一丁目","koaza":"","lat":35.814933,"lng":139.96273,"zip":"2770055"},{"town":"青葉台二丁目","koaza":"","lat":35.813534,"lng":139.957856,"zip":"2770055"},{"town":"あかね町","koaza":"","lat":35.849978,"lng":139.97854,"zip":"2770027"},{"town":"明原一丁目","koaza":"","lat":35.863686,"lng":139.966176,"zip":"2770843"},{"town":"明原二丁目","koaza":"","lat":35.866076,"lng":139.967044,"zip":"2770843"},{"town":"明原三丁目","koaza":"","lat":35.867089,"lng":139.963194,"zip":"2770843"},{"town":"明原四丁目","koaza":"","lat":35.864573,"lng":139.962658,"zip":"2770843"},{"town":"あけぼの一丁目","koaza":"","lat":35.865928,"lng":139.971991,"zip":"2770841"},{"town":"あけぼの二丁目","koaza":"","lat":35.868034,"lng":139.974204,"zip":"2770841"},{"town":"あけぼの三丁目","koaza":"","lat":35.86913,"lng":139.971757,"zip":"2770841"},{"town":"あけぼの四丁目","koaza":"","lat":35.866799,"lng":139.96895,"zip":"2770841"},{"town":"あけぼの五丁目","koaza":"","lat":35.86929,"lng":139.967925,"zip":"2770841"},{"town":"曙橋","koaza":"","lat":35.852858,"lng":140.066868,"zip":"2701451"},{"town":"旭町一丁目","koaza":"","lat":35.861917,"lng":139.968489,"zip":"2770852"},{"town":"旭町二丁目","koaza":"","lat":35.857909,"lng":139.96625,"zip":"2770852"},{"town":"旭町三丁目","koaza":"","lat":35.861472,"lng":139.964598,"zip":"2770852"},{"town":"旭町四丁目","koaza":"","lat":35.858973,"lng":139.962038,"zip":"2770852"},{"town":"旭町五丁目","koaza":"","lat":35.85675,"lng":139.962127,"zip":"2770852"},{"town":"旭町六丁目","koaza":"","lat":35.857046,"lng":139.958263,"zip":"2770852"},{"town":"旭町七丁目","koaza":"","lat":35.860016,"lng":139.958175,"zip":"2770852"},{"town":"旭町八丁目","koaza":"","lat":35.860293,"lng":139.954699,"zip":"2770852"},{"town":"東一丁目","koaza":"","lat":35.857388,"lng":139.978474,"zip":"2770014"},{"town":"東二丁目","koaza":"","lat":35.856988,"lng":139.981498,"zip":"2770014"},{"town":"東三丁目","koaza":"","lat":35.854143,"lng":139.982062,"zip":"2770014"},{"town":"東上町","koaza":"","lat":35.859605,"lng":139.977719,"zip":"2770011"},{"town":"東台本町","koaza":"","lat":35.858638,"lng":139.983744,"zip":"2770013"},{"town":"泉","koaza":"","lat":35.836427,"lng":140.045075,"zip":"2701456"},{"town":"泉町","koaza":"","lat":35.856451,"lng":139.967951,"zip":"2770022"},{"town":"泉村新田","koaza":"","lat":35.845555,"lng":140.055638,"zip":"2701457"},{"town":"伊勢原一丁目","koaza":"","lat":35.902653,"lng":139.928161,"zip":"2770883"},{"town":"今谷上町","koaza":"","lat":35.841018,"lng":139.956412,"zip":"2770074"},{"town":"今谷南町","koaza":"","lat":35.83663,"lng":139.957756,"zip":"2770073"},{"town":"岩井","koaza":"","lat":35.847048,"lng":140.03414,"zip":"2701445"},{"town":"岩井新田","koaza":"","lat":35.853354,"lng":140.03327,"zip":"2770000"},{"town":"永楽台一丁目","koaza":"","lat":35.844578,"lng":139.968944,"zip":"2770086"},{"town":"永楽台二丁目","koaza":"","lat":35.843155,"lng":139.970859,"zip":"2770086"},{"town":"永楽台三丁目","koaza":"","lat":35.845567,"lng":139.971301,"zip":"2770086"},{"town":"大井","koaza":"","lat":35.850154,"lng":140.00441,"zip":"2770902"},{"town":"大井新田","koaza":"","lat":35.856617,"lng":140.001593,"zip":"2770901"},{"town":"大島田","koaza":"","lat":35.835774,"lng":140.012804,"zip":"2770922"},{"town":"大津ケ丘一丁目","koaza":"","lat":35.843252,"lng":140.00366,"zip":"2770921"},{"town":"大津ケ丘二丁目","koaza":"","lat":35.841069,"lng":139.999232,"zip":"2770921"},{"town":"大津ケ丘三丁目","koaza":"","lat":35.840944,"lng":139.995622,"zip":"2770921"},{"town":"大津ケ丘四丁目","koaza":"","lat":35.837144,"lng":140.002503,"zip":"2770921"},{"town":"大塚町","koaza":"","lat":35.853949,"lng":139.979878,"zip":"2770026"},{"town":"大山台一丁目","koaza":"","lat":35.880825,"lng":139.96781,"zip":"2770837"},{"town":"大山台二丁目","koaza":"","lat":35.882578,"lng":139.969191,"zip":"2770837"},{"town":"加賀一丁目","koaza":"","lat":35.832733,"lng":139.97093,"zip":"2770051"},{"town":"加賀二丁目","koaza":"","lat":35.828774,"lng":139.969387,"zip":"2770051"},{"town":"加賀三丁目","koaza":"","lat":35.830083,"lng":139.973188,"zip":"2770051"},{"town":"風早一丁目","koaza":"","lat":35.829392,"lng":140.011659,"zip":"2770924"},{"town":"風早二丁目","koaza":"","lat":35.826751,"lng":140.010549,"zip":"2770924"},{"town":"柏","koaza":"","lat":35.864445,"lng":139.986513,"zip":"2770005"},{"town":"柏一丁目","koaza":"","lat":35.861808,"lng":139.971413,"zip":"2770005"},{"town":"柏二丁目","koaza":"","lat":35.861694,"lng":139.974004,"zip":"2770005"},{"town":"柏三丁目","koaza":"","lat":35.860302,"lng":139.975155,"zip":"2770005"},{"town":"柏四丁目","koaza":"","lat":35.86353,"lng":139.974235,"zip":"2770005"},{"town":"柏五丁目","koaza":"","lat":35.866448,"lng":139.976123,"zip":"2770005"},{"town":"柏六丁目","koaza":"","lat":35.864346,"lng":139.97722,"zip":"2770005"},{"town":"柏七丁目","koaza":"","lat":35.862926,"lng":139.979955,"zip":"2770005"},{"town":"柏下","koaza":"","lat":35.870006,"lng":139.983791,"zip":"2770004"},{"town":"柏中村下","koaza":"","lat":35.865876,"lng":139.99102,"zip":"2770006"},{"town":"柏の葉一丁目","koaza":"","lat":35.891425,"lng":139.942894,"zip":"2770882"},{"town":"柏の葉二丁目","koaza":"","lat":35.891083,"lng":139.939748,"zip":"2770882"},{"town":"柏の葉三丁目","koaza":"","lat":35.891537,"lng":139.936201,"zip":"2770882"},{"town":"柏の葉四丁目","koaza":"","lat":35.896427,"lng":139.937089,"zip":"2770882"},{"town":"柏の葉五丁目","koaza":"","lat":35.902,"lng":139.936057,"zip":"2770882"},{"town":"柏の葉六丁目","koaza":"","lat":35.896944,"lng":139.944925,"zip":"2770882"},{"town":"柏堀之内新田","koaza":"","lat":35.875331,"lng":139.98358,"zip":"2770003"},{"town":"片山","koaza":"","lat":35.841405,"lng":140.063059,"zip":"2701453"},{"town":"片山新田","koaza":"","lat":35.848938,"lng":140.064752,"zip":"2701452"},{"town":"金山","koaza":"","lat":35.826924,"lng":140.036153,"zip":"2701455"},{"town":"上三ケ尾飛地","koaza":"","lat":35.916666,"lng":139.92068,"zip":"2770000"},{"town":"上利根","koaza":"","lat":35.9167,"lng":139.971199,"zip":"2770811"},{"town":"かやの町","koaza":"","lat":35.865931,"lng":139.954568,"zip":"2770846"},{"town":"北柏一丁目","koaza":"","lat":35.874479,"lng":139.985407,"zip":"2770832"},{"town":"北柏二丁目","koaza":"","lat":35.872642,"lng":139.989912,"zip":"2770832"},{"town":"北柏三丁目","koaza":"","lat":35.872193,"lng":139.98779,"zip":"2770832"},{"town":"北柏四丁目","koaza":"","lat":35.870585,"lng":139.986898,"zip":"2770832"},{"town":"北柏五丁目","koaza":"","lat":35.868679,"lng":139.990301,"zip":"2770832"},{"town":"北柏台","koaza":"","lat":35.876256,"lng":139.99208,"zip":"2770836"},{"town":"亀甲台町一丁目","koaza":"","lat":35.848295,"lng":139.980523,"zip":"2770031"},{"town":"亀甲台町二丁目","koaza":"","lat":35.846632,"lng":139.980281,"zip":"2770031"},{"town":"高南台一丁目","koaza":"","lat":35.80462,"lng":139.996082,"zip":"2770942"},{"town":"高南台二丁目","koaza":"","lat":35.802978,"lng":139.991284,"zip":"2770942"},{"town":"高南台三丁目","koaza":"","lat":35.805519,"lng":139.993017,"zip":"2770942"},{"town":"五條谷","koaza":"","lat":35.848037,"lng":140.01634,"zip":"2770913"},{"town":"酒井根","koaza":"","lat":35.818148,"lng":139.957828,"zip":"2770053"},{"town":"酒井根一丁目","koaza":"","lat":35.824317,"lng":139.964675,"zip":"2770053"},{"town":"酒井根二丁目","koaza":"","lat":35.821594,"lng":139.967189,"zip":"2770053"},{"town":"酒井根三丁目","koaza":"","lat":35.818859,"lng":139.96598,"zip":"2770053"},{"town":"酒井根四丁目","koaza":"","lat":35.820487,"lng":139.96,"zip":"2770053"},{"town":"酒井根五丁目","koaza":"","lat":35.824586,"lng":139.961346,"zip":"2770053"},{"town":"酒井根六丁目","koaza":"","lat":35.823711,"lng":139.957441,"zip":"2770053"},{"town":"酒井根七丁目","koaza":"","lat":35.820916,"lng":139.95784,"zip":"2770053"},{"town":"逆井","koaza":"","lat":35.815442,"lng":139.982461,"zip":"2770042"},{"town":"逆井一丁目","koaza":"","lat":35.822019,"lng":139.983438,"zip":"2770042"},{"town":"逆井二丁目","koaza":"","lat":35.824384,"lng":139.979612,"zip":"2770042"},{"town":"逆井三丁目","koaza":"","lat":35.820082,"lng":139.975665,"zip":"2770042"},{"town":"逆井四丁目","koaza":"","lat":35.819801,"lng":139.979153,"zip":"2770042"},{"town":"逆井五丁目","koaza":"","lat":35.81891,"lng":139.984385,"zip":"2770042"},{"town":"逆井藤ノ台","koaza":"","lat":35.822952,"lng":139.986712,"zip":"2770041"},{"town":"桜台","koaza":"","lat":35.860555,"lng":139.981522,"zip":"2770012"},{"town":"しいの木台一丁目","koaza":"","lat":35.808148,"lng":139.989158,"zip":"2770945"},{"town":"しいの木台二丁目","koaza":"","lat":35.804752,"lng":139.984128,"zip":"2770945"},{"town":"しいの木台三丁目","koaza":"","lat":35.801027,"lng":139.980184,"zip":"2770945"},{"town":"しいの木台四丁目","koaza":"","lat":35.802008,"lng":139.97782,"zip":"2770945"},{"town":"しいの木台五丁目","koaza":"","lat":35.806805,"lng":139.984243,"zip":"2770945"},{"town":"篠籠田","koaza":"","lat":35.868124,"lng":139.943357,"zip":"2770862"},{"town":"下三ケ尾飛地","koaza":"","lat":35.916332,"lng":139.922612,"zip":"2770000"},{"town":"宿連寺","koaza":"","lat":35.887499,"lng":139.985231,"zip":"2770826"},{"town":"正連寺","koaza":"","lat":35.902402,"lng":139.950063,"zip":"2770814"},{"town":"新柏一丁目","koaza":"","lat":35.83921,"lng":139.968594,"zip":"2770084"},{"town":"新柏二丁目","koaza":"","lat":35.838908,"lng":139.973862,"zip":"2770084"},{"town":"新柏三丁目","koaza":"","lat":35.841666,"lng":139.972059,"zip":"2770084"},{"town":"新柏四丁目","koaza":"","lat":35.843962,"lng":139.976851,"zip":"2770084"},{"town":"新逆井一丁目","koaza":"","lat":35.812091,"lng":139.972189,"zip":"2770044"},{"town":"新逆井二丁目","koaza":"","lat":35.809523,"lng":139.970629,"zip":"2770044"},{"town":"新富町一丁目","koaza":"","lat":35.850881,"lng":139.955799,"zip":"2770856"},{"town":"新富町二丁目","koaza":"","lat":35.855283,"lng":139.952619,"zip":"2770856"},{"town":"水道橋","koaza":"","lat":35.851743,"lng":140.079401,"zip":"2701461"},{"town":"末広町","koaza":"","lat":35.862904,"lng":139.970401,"zip":"2770842"},{"town":"関場町","koaza":"","lat":35.850072,"lng":139.983728,"zip":"2770028"},{"town":"千間橋","koaza":"","lat":35.84826,"lng":140.100492,"zip":"2701462"},{"town":"染井入新田","koaza":"","lat":35.848516,"lng":140.051004,"zip":"2701442"},{"town":"高田","koaza":"","lat":35.877697,"lng":139.949221,"zip":"2770861"},{"town":"高柳新田","koaza":"","lat":35.8078,"lng":139.991559,"zip":"2770943"},{"town":"中央一丁目","koaza":"","lat":35.857903,"lng":139.972929,"zip":"2770023"},{"town":"中央二丁目","koaza":"","lat":35.855585,"lng":139.972144,"zip":"2770023"},{"town":"中央町","koaza":"","lat":35.859301,"lng":139.970567,"zip":"2770021"},{"town":"千代田一丁目","koaza":"","lat":35.856527,"lng":139.976284,"zip":"2770025"},{"town":"千代田二丁目","koaza":"","lat":35.85374,"lng":139.975145,"zip":"2770025"},{"town":"千代田三丁目","koaza":"","lat":35.853449,"lng":139.977648,"zip":"2770025"},{"town":"塚崎","koaza":"","lat":35.834927,"lng":139.996057,"zip":"2770923"},{"town":"塚崎一丁目","koaza":"","lat":35.834706,"lng":140.005822,"zip":"2770923"},{"town":"塚崎二丁目","koaza":"","lat":35.833795,"lng":140.002635,"zip":"2770923"},{"town":"塚崎三丁目","koaza":"","lat":35.832796,"lng":140.000944,"zip":"2770923"},{"town":"つくしが丘一丁目","koaza":"","lat":35.836813,"lng":139.96477,"zip":"2770072"},{"town":"つくしが丘二丁目","koaza":"","lat":35.83359,"lng":139.964377,"zip":"2770072"},{"town":"つくしが丘三丁目","koaza":"","lat":35.83506,"lng":139.965633,"zip":"2770072"},{"town":"つくしが丘四丁目","koaza":"","lat":35.835949,"lng":139.968263,"zip":"2770072"},{"town":"つくしが丘五丁目","koaza":"","lat":35.831359,"lng":139.967563,"zip":"2770072"},{"town":"手賀","koaza":"","lat":35.838552,"lng":140.075619,"zip":"2701465"},{"town":"手賀新田","koaza":"","lat":35.84758,"lng":140.079096,"zip":"2701466"},{"town":"手賀の杜一丁目","koaza":"","lat":35.849457,"lng":140.027938,"zip":"2701447"},{"town":"手賀の杜二丁目","koaza":"","lat":35.849252,"lng":140.030049,"zip":"2701447"},{"town":"手賀の杜三丁目","koaza":"","lat":35.846392,"lng":140.027,"zip":"2701447"},{"town":"手賀の杜四丁目","koaza":"","lat":35.8461,"lng":140.022673,"zip":"2701447"},{"town":"手賀の杜五丁目","koaza":"","lat":35.844129,"lng":140.018978,"zip":"2701447"},{"town":"常盤台","koaza":"","lat":35.846921,"lng":139.967071,"zip":"2770087"},{"town":"戸張","koaza":"","lat":35.856004,"lng":139.993593,"zip":"2770008"},{"town":"戸張新田","koaza":"","lat":35.860692,"lng":140.003411,"zip":"2770007"},{"town":"富里一丁目","koaza":"","lat":35.852677,"lng":139.967515,"zip":"2770081"},{"town":"富里二丁目","koaza":"","lat":35.853262,"lng":139.965207,"zip":"2770081"},{"town":"富里三丁目","koaza":"","lat":35.854395,"lng":139.962898,"zip":"2770081"},{"town":"豊上町","koaza":"","lat":35.85759,"lng":139.953858,"zip":"2770858"},{"town":"豊四季","koaza":"","lat":35.859928,"lng":139.949813,"zip":"2770863"},{"town":"豊四季台一丁目","koaza":"","lat":35.866895,"lng":139.957937,"zip":"2770845"},{"town":"豊四季台二丁目","koaza":"","lat":35.864347,"lng":139.959127,"zip":"2770845"},{"town":"豊四季台三丁目","koaza":"","lat":35.862439,"lng":139.959141,"zip":"2770845"},{"town":"豊四季台四丁目","koaza":"","lat":35.863903,"lng":139.956034,"zip":"2770845"},{"town":"豊住","koaza":"","lat":35.840968,"lng":139.962162,"zip":"2770071"},{"town":"豊住一丁目","koaza":"","lat":35.83975,"lng":139.961719,"zip":"2770071"},{"town":"豊住二丁目","koaza":"","lat":35.837262,"lng":139.960654,"zip":"2770071"},{"town":"豊住三丁目","koaza":"","lat":35.838269,"lng":139.963541,"zip":"2770071"},{"town":"豊住四丁目","koaza":"","lat":35.842237,"lng":139.96577,"zip":"2770071"},{"town":"豊住五丁目","koaza":"","lat":35.840787,"lng":139.966714,"zip":"2770071"},{"town":"豊平町","koaza":"","lat":35.854702,"lng":139.957119,"zip":"2770857"},{"town":"十余二","koaza":"","lat":35.882628,"lng":139.959308,"zip":"2770872"},{"town":"中新宿一丁目","koaza":"","lat":35.834566,"lng":139.943595,"zip":"2770066"},{"town":"中新宿二丁目","koaza":"","lat":35.835493,"lng":139.94807,"zip":"2770066"},{"town":"中新宿三丁目","koaza":"","lat":35.83292,"lng":139.946888,"zip":"2770066"},{"town":"中十余二","koaza":"","lat":35.903098,"lng":139.94289,"zip":"2770873"},{"town":"中原","koaza":"","lat":35.837312,"lng":139.971091,"zip":"2770085"},{"town":"中原一丁目","koaza":"","lat":35.826729,"lng":139.965958,"zip":"2770085"},{"town":"中原二丁目","koaza":"","lat":35.826082,"lng":139.970413,"zip":"2770085"},{"town":"名戸ケ谷","koaza":"","lat":35.843283,"lng":139.981062,"zip":"2770032"},{"town":"名戸ケ谷一丁目","koaza":"","lat":35.845605,"lng":139.976083,"zip":"2770032"},{"town":"西柏台一丁目","koaza":"","lat":35.885667,"lng":139.924646,"zip":"2770886"},{"town":"西柏台二丁目","koaza":"","lat":35.884993,"lng":139.927396,"zip":"2770886"},{"town":"西三ケ尾飛地","koaza":"","lat":35.915852,"lng":139.922315,"zip":"2770000"},{"town":"西町","koaza":"","lat":35.869197,"lng":139.957935,"zip":"2770844"},{"town":"西原一丁目","koaza":"","lat":35.896529,"lng":139.915882,"zip":"2770885"},{"town":"西原二丁目","koaza":"","lat":35.898216,"lng":139.919374,"zip":"2770885"},{"town":"西原三丁目","koaza":"","lat":35.895553,"lng":139.919002,"zip":"2770885"},{"town":"西原四丁目","koaza":"","lat":35.89322,"lng":139.922915,"zip":"2770885"},{"town":"西原五丁目","koaza":"","lat":35.891222,"lng":139.919779,"zip":"2770885"},{"town":"西原六丁目","koaza":"","lat":35.889305,"lng":139.92398,"zip":"2770885"},{"town":"西原七丁目","koaza":"","lat":35.889228,"lng":139.927409,"zip":"2770885"},{"town":"西山一丁目","koaza":"","lat":35.822328,"lng":139.953815,"zip":"2770063"},{"town":"西山二丁目","koaza":"","lat":35.820559,"lng":139.954003,"zip":"2770063"},{"town":"根戸","koaza":"","lat":35.881129,"lng":139.986449,"zip":"2770831"},{"town":"根戸新田","koaza":"","lat":35.876059,"lng":139.983585,"zip":"2770833"},{"town":"八幡町","koaza":"","lat":35.85388,"lng":139.985905,"zip":"2770016"},{"town":"花野井","koaza":"","lat":35.896736,"lng":139.974237,"zip":"2770812"},{"town":"東柏一丁目","koaza":"","lat":35.851497,"lng":139.987526,"zip":"2770017"},{"town":"東柏二丁目","koaza":"","lat":35.849291,"lng":139.987369,"zip":"2770017"},{"town":"東逆井一丁目","koaza":"","lat":35.825797,"lng":139.982814,"zip":"2770045"},{"town":"東中新宿一丁目","koaza":"","lat":35.833986,"lng":139.960561,"zip":"2770061"},{"town":"東中新宿二丁目","koaza":"","lat":35.832165,"lng":139.962793,"zip":"2770061"},{"town":"東中新宿三丁目","koaza":"","lat":35.829767,"lng":139.963388,"zip":"2770061"},{"town":"東中新宿四丁目","koaza":"","lat":35.830248,"lng":139.960242,"zip":"2770061"},{"town":"東山一丁目","koaza":"","lat":35.824898,"lng":139.955689,"zip":"2770064"},{"town":"東山二丁目","koaza":"","lat":35.825124,"lng":139.952391,"zip":"2770064"},{"town":"光ケ丘一丁目","koaza":"","lat":35.833195,"lng":139.957787,"zip":"2770065"},{"town":"光ケ丘二丁目","koaza":"","lat":35.830315,"lng":139.951509,"zip":"2770065"},{"town":"光ケ丘三丁目","koaza":"","lat":35.825873,"lng":139.95715,"zip":"2770065"},{"town":"光ケ丘四丁目","koaza":"","lat":35.828148,"lng":139.964214,"zip":"2770065"},{"town":"光ケ丘団地","koaza":"","lat":35.829479,"lng":139.957812,"zip":"2770062"},{"town":"日立台一丁目","koaza":"","lat":35.849437,"lng":139.97347,"zip":"2770083"},{"town":"日立台二丁目","koaza":"","lat":35.847279,"lng":139.972643,"zip":"2770083"},{"town":"ひばりが丘","koaza":"","lat":35.848821,"lng":139.969157,"zip":"2770088"},{"town":"藤ケ谷","koaza":"","lat":35.802329,"lng":140.021376,"zip":"2770931"},{"town":"藤ケ谷新田","koaza":"","lat":35.822048,"lng":140.019138,"zip":"2770932"},{"town":"藤心","koaza":"","lat":35.820541,"lng":139.995833,"zip":"2770034"},{"town":"藤心一丁目","koaza":"","lat":35.827837,"lng":139.992047,"zip":"2770034"},{"town":"藤心二丁目","koaza":"","lat":35.827107,"lng":139.987026,"zip":"2770034"},{"town":"藤心三丁目","koaza":"","lat":35.825307,"lng":139.987799,"zip":"2770034"},{"town":"藤心四丁目","koaza":"","lat":35.824498,"lng":139.989656,"zip":"2770034"},{"town":"藤心五丁目","koaza":"","lat":35.823659,"lng":139.99144,"zip":"2770034"},{"town":"布施","koaza":"","lat":35.891518,"lng":139.992822,"zip":"2770825"},{"town":"布瀬","koaza":"","lat":35.836793,"lng":140.091577,"zip":"2701464"},{"town":"布施下","koaza":"","lat":35.896907,"lng":140.010517,"zip":"2770822"},{"town":"布瀬新田","koaza":"","lat":35.839436,"lng":140.10852,"zip":"2701463"},{"town":"布施新町一丁目","koaza":"","lat":35.890006,"lng":140.001232,"zip":"2770823"},{"town":"布施新町二丁目","koaza":"","lat":35.889895,"lng":140.003923,"zip":"2770823"},{"town":"布施新町三丁目","koaza":"","lat":35.888447,"lng":140.006244,"zip":"2770823"},{"town":"布施新町四丁目","koaza":"","lat":35.887308,"lng":140.008867,"zip":"2770823"},{"town":"船戸山高野","koaza":"","lat":35.923736,"lng":139.939481,"zip":"2770801"},{"town":"弁天下","koaza":"","lat":35.897982,"lng":140.021521,"zip":"2770821"},{"town":"増尾","koaza":"","lat":35.837457,"lng":139.988864,"zip":"2770033"},{"town":"増尾一丁目","koaza":"","lat":35.832466,"lng":139.974945,"zip":"2770033"},{"town":"増尾二丁目","koaza":"","lat":35.831704,"lng":139.97822,"zip":"2770033"},{"town":"増尾三丁目","koaza":"","lat":35.835721,"lng":139.979559,"zip":"2770033"},{"town":"増尾四丁目","koaza":"","lat":35.835471,"lng":139.983547,"zip":"2770033"},{"town":"増尾五丁目","koaza":"","lat":35.831875,"lng":139.984718,"zip":"2770033"},{"town":"増尾六丁目","koaza":"","lat":35.830415,"lng":139.981297,"zip":"2770033"},{"town":"増尾七丁目","koaza":"","lat":35.828063,"lng":139.982081,"zip":"2770033"},{"town":"増尾八丁目","koaza":"","lat":35.829124,"lng":139.986627,"zip":"2770033"},{"town":"増尾台一丁目","koaza":"","lat":35.827205,"lng":139.976883,"zip":"2770052"},{"town":"増尾台二丁目","koaza":"","lat":35.824673,"lng":139.971096,"zip":"2770052"},{"town":"増尾台三丁目","koaza":"","lat":35.824702,"lng":139.974734,"zip":"2770052"},{"town":"増尾台四丁目","koaza":"","lat":35.821732,"lng":139.973213,"zip":"2770052"},{"town":"松ケ崎","koaza":"","lat":35.879083,"lng":139.975947,"zip":"2770835"},{"town":"松ケ崎新田","koaza":"","lat":35.877779,"lng":139.983459,"zip":"2770834"},{"town":"松葉町一丁目","koaza":"","lat":35.886457,"lng":139.980764,"zip":"2770827"},{"town":"松葉町二丁目","koaza":"","lat":35.885921,"lng":139.978984,"zip":"2770827"},{"town":"松葉町三丁目","koaza":"","lat":35.886011,"lng":139.970955,"zip":"2770827"},{"town":"松葉町四丁目","koaza":"","lat":35.889114,"lng":139.971798,"zip":"2770827"},{"town":"松葉町五丁目","koaza":"","lat":35.889472,"lng":139.96644,"zip":"2770827"},{"town":"松葉町六丁目","koaza":"","lat":35.891539,"lng":139.968026,"zip":"2770827"},{"town":"松葉町七丁目","koaza":"","lat":35.889534,"lng":139.963287,"zip":"2770827"},{"town":"緑ケ丘","koaza":"","lat":35.851606,"lng":139.970088,"zip":"2770082"},{"town":"緑台","koaza":"","lat":35.846343,"lng":140.008142,"zip":"2770903"},{"town":"みどり台一丁目","koaza":"","lat":35.901196,"lng":139.919673,"zip":"2770884"},{"town":"みどり台二丁目","koaza":"","lat":35.904538,"lng":139.921597,"zip":"2770884"},{"town":"みどり台三丁目","koaza":"","lat":35.90138,"lng":139.922877,"zip":"2770884"},{"town":"みどり台四丁目","koaza":"","lat":35.903971,"lng":139.924925,"zip":"2770884"},{"town":"みどり台五丁目","koaza":"","lat":35.902177,"lng":139.925472,"zip":"2770884"},{"town":"南柏一丁目","koaza":"","lat":35.845783,"lng":139.953469,"zip":"2770855"},{"town":"南柏二丁目","koaza":"","lat":35.847271,"lng":139.955038,"zip":"2770855"},{"town":"南柏中央","koaza":"","lat":35.84447,"lng":139.954956,"zip":"2770075"},{"town":"南逆井一丁目","koaza":"","lat":35.807572,"lng":139.970363,"zip":"2770043"},{"town":"南逆井二丁目","koaza":"","lat":35.805093,"lng":139.970328,"zip":"2770043"},{"town":"南逆井三丁目","koaza":"","lat":35.802797,"lng":139.970002,"zip":"2770043"},{"town":"南逆井四丁目","koaza":"","lat":35.803249,"lng":139.974626,"zip":"2770043"},{"town":"南逆井五丁目","koaza":"","lat":35.807193,"lng":139.975135,"zip":"2770043"},{"town":"南逆井六丁目","koaza":"","lat":35.805506,"lng":139.977907,"zip":"2770043"},{"town":"南逆井七丁目","koaza":"","lat":35.807435,"lng":139.98104,"zip":"2770043"},{"town":"南高柳","koaza":"","lat":35.805581,"lng":140.000387,"zip":"2770944"},{"town":"南増尾","koaza":"","lat":35.816387,"lng":139.974068,"zip":"2770054"},{"town":"南増尾一丁目","koaza":"","lat":35.818907,"lng":139.971745,"zip":"2770054"},{"town":"南増尾二丁目","koaza":"","lat":35.817167,"lng":139.967595,"zip":"2770054"},{"town":"南増尾三丁目","koaza":"","lat":35.8146,"lng":139.970518,"zip":"2770054"},{"town":"南増尾四丁目","koaza":"","lat":35.813237,"lng":139.966031,"zip":"2770054"},{"town":"南増尾五丁目","koaza":"","lat":35.809928,"lng":139.966538,"zip":"2770054"},{"town":"南増尾六丁目","koaza":"","lat":35.811157,"lng":139.963568,"zip":"2770054"},{"town":"南増尾七丁目","koaza":"","lat":35.811019,"lng":139.961516,"zip":"2770054"},{"town":"南増尾八丁目","koaza":"","lat":35.810768,"lng":139.958996,"zip":"2770054"},{"town":"箕輪","koaza":"","lat":35.851785,"lng":140.024302,"zip":"2770912"},{"town":"箕輪新田","koaza":"","lat":35.857143,"lng":140.023132,"zip":"2770911"},{"town":"向原町","koaza":"","lat":35.862151,"lng":139.962403,"zip":"2770851"},{"town":"柳戸","koaza":"","lat":35.837166,"lng":140.057368,"zip":"2701454"},{"town":"弥生町","koaza":"","lat":35.855147,"lng":139.985878,"zip":"2770015"},{"town":"豊町一丁目","koaza":"","lat":35.848427,"lng":139.957553,"zip":"2770854"},{"town":"豊町二丁目","koaza":"","lat":35.851012,"lng":139.960251,"zip":"2770854"},{"town":"吉野沢","koaza":"","lat":35.852959,"lng":139.958686,"zip":"2770853"},{"town":"呼塚新田","koaza":"","lat":35.875047,"lng":139.981736,"zip":"2770001"},{"town":"若柴","koaza":"","lat":35.891657,"lng":139.954,"zip":"2770871"},{"town":"若白毛","koaza":"","lat":35.836206,"lng":140.0249,"zip":"2701444"},{"town":"若葉町","koaza":"","lat":35.853921,"lng":139.971057,"zip":"2770024"},{"town":"鷲野谷","koaza":"","lat":35.842889,"lng":140.038827,"zip":"2701443"},{"town":"鷲野谷新田","koaza":"","lat":35.854569,"lng":140.04374,"zip":"2701441"},{"town":"新十余二","koaza":"","lat":35.907913,"lng":139.946802,"zip":"2770804"},{"town":"大青田","koaza":"","lat":35.913442,"lng":139.93249,"zip":"2770805"},{"town":"柏インター東","koaza":"","lat":35.912013,"lng":139.942969,"zip":"2770806"},{"town":"高柳一丁目","koaza":"","lat":35.807801,"lng":139.99794,"zip":"2770941"},{"town":"高柳","koaza":"","lat":35.812726,"lng":140.00335,"zip":"2770941"},{"town":"高柳二丁目","koaza":"","lat":35.809857,"lng":139.996441,"zip":"2770941"},{"town":"船戸二丁目","koaza":"","lat":35.915868,"lng":139.952381,"zip":"2770802"},{"town":"船戸","koaza":"","lat":35.922733,"lng":139.948435,"zip":"2770802"},{"town":"船戸一丁目","koaza":"","lat":35.914229,"lng":139.949771,"zip":"2770802"},{"town":"船戸三丁目","koaza":"","lat":35.917822,"lng":139.954541,"zip":"2770802"},{"town":"大室三丁目","koaza":"","lat":35.91197,"lng":139.961748,"zip":"2770813"},{"town":"新利根","koaza":"","lat":35.912478,"lng":139.969282,"zip":"2770000"},{"town":"小青田四丁目","koaza":"","lat":35.916022,"lng":139.95672,"zip":"2770803"},{"town":"小青田三丁目","koaza":"","lat":35.914124,"lng":139.955569,"zip":"2770803"},{"town":"小青田二丁目","koaza":"","lat":35.912534,"lng":139.953454,"zip":"2770803"},{"town":"大室二丁目","koaza":"","lat":35.908816,"lng":139.960705,"zip":"2770813"},{"town":"小青田五丁目","koaza":"","lat":35.915055,"lng":139.959081,"zip":"2770803"},{"town":"大室","koaza":"","lat":35.903394,"lng":139.965102,"zip":"2770813"},{"town":"大室一丁目","koaza":"","lat":35.908259,"lng":139.958153,"zip":"2770813"},{"town":"小青田一丁目","koaza":"","lat":35.910192,"lng":139.955499,"zip":"2770803"},{"town":"大島田一丁目","koaza":"","lat":35.833759,"lng":140.011703,"zip":"2770922"},{"town":"大島田二丁目","koaza":"","lat":35.833723,"lng":140.021185,"zip":"2770922"},{"town":"柏インター南","koaza":"","lat":35.90533,"lng":139.932431,"zip":"2770874"},{"town":"小青田","koaza":"","lat":35.909238,"lng":139.952859,"zip":"2770803"},{"town":"若柴","koaza":"須賀井","lat":35.895377,"lng":139.955953,"zip":"2770871"},{"town":"今谷上町","koaza":"並木通","lat":35.842746,"lng":139.95693,"zip":"2770074"},{"town":"若柴","koaza":"入谷","lat":35.889781,"lng":139.960213,"zip":"2770871"},{"town":"名戸ケ谷","koaza":"中久保","lat":35.843811,"lng":139.980225,"zip":"2770032"}]