[{"town":"池の上一丁目","koaza":"","lat":35.776788,"lng":140.055206,"zip":"2701425"},{"town":"池の上二丁目","koaza":"","lat":35.778175,"lng":140.049078,"zip":"2701425"},{"town":"池の上三丁目","koaza":"","lat":35.776006,"lng":140.049408,"zip":"2701425"},{"town":"今井","koaza":"","lat":35.831733,"lng":140.069767,"zip":"2701401"},{"town":"大山口一丁目","koaza":"","lat":35.785817,"lng":140.023603,"zip":"2701434"},{"town":"大山口二丁目","koaza":"","lat":35.788054,"lng":140.024855,"zip":"2701434"},{"town":"折立","koaza":"","lat":35.806738,"lng":140.043436,"zip":"2701404"},{"town":"河原子","koaza":"","lat":35.814847,"lng":140.063336,"zip":"2701403"},{"town":"木","koaza":"","lat":35.800725,"lng":140.051327,"zip":"2701437"},{"town":"清戸","koaza":"","lat":35.795667,"lng":140.088601,"zip":"2701415"},{"town":"けやき台一丁目","koaza":"","lat":35.783298,"lng":140.032126,"zip":"2701433"},{"town":"けやき台二丁目","koaza":"","lat":35.78222,"lng":140.032473,"zip":"2701433"},{"town":"桜台一丁目","koaza":"","lat":35.798393,"lng":140.106805,"zip":"2701412"},{"town":"桜台二丁目","koaza":"","lat":35.800685,"lng":140.106294,"zip":"2701412"},{"town":"桜台三丁目","koaza":"","lat":35.802711,"lng":140.103085,"zip":"2701412"},{"town":"桜台四丁目","koaza":"","lat":35.799672,"lng":140.101703,"zip":"2701412"},{"town":"桜台五丁目","koaza":"","lat":35.799053,"lng":140.099494,"zip":"2701412"},{"town":"笹塚一丁目","koaza":"","lat":35.786637,"lng":140.056502,"zip":"2701426"},{"town":"笹塚二丁目","koaza":"","lat":35.78656,"lng":140.054075,"zip":"2701426"},{"town":"笹塚三丁目","koaza":"","lat":35.788249,"lng":140.054395,"zip":"2701426"},{"town":"神々廻","koaza":"","lat":35.804313,"lng":140.07937,"zip":"2701416"},{"town":"清水口一丁目","koaza":"","lat":35.785693,"lng":140.035023,"zip":"2701435"},{"town":"清水口二丁目","koaza":"","lat":35.787638,"lng":140.033138,"zip":"2701435"},{"town":"清水口三丁目","koaza":"","lat":35.787722,"lng":140.037849,"zip":"2701435"},{"town":"白井","koaza":"","lat":35.802228,"lng":140.064422,"zip":"2701421"},{"town":"大松一丁目","koaza":"","lat":35.782152,"lng":140.023083,"zip":"2701439"},{"town":"富塚","koaza":"","lat":35.814161,"lng":140.03887,"zip":"2701405"},{"town":"十余一","koaza":"","lat":35.811025,"lng":140.088928,"zip":"2701411"},{"town":"名内","koaza":"","lat":35.827666,"lng":140.064767,"zip":"2701407"},{"town":"中","koaza":"","lat":35.820993,"lng":140.050552,"zip":"2701406"},{"town":"七次台一丁目","koaza":"","lat":35.794136,"lng":140.040338,"zip":"2701436"},{"town":"七次台二丁目","koaza":"","lat":35.793003,"lng":140.041751,"zip":"2701436"},{"town":"七次台三丁目","koaza":"","lat":35.798865,"lng":140.043166,"zip":"2701436"},{"town":"七次台四丁目","koaza":"","lat":35.799251,"lng":140.047075,"zip":"2701436"},{"town":"西白井一丁目","koaza":"","lat":35.792905,"lng":140.027174,"zip":"2701408"},{"town":"西白井二丁目","koaza":"","lat":35.796933,"lng":140.029605,"zip":"2701408"},{"town":"西白井三丁目","koaza":"","lat":35.800246,"lng":140.032055,"zip":"2701408"},{"town":"西白井四丁目","koaza":"","lat":35.804172,"lng":140.032685,"zip":"2701408"},{"town":"根","koaza":"","lat":35.787522,"lng":140.04629,"zip":"2701431"},{"town":"野口","koaza":"","lat":35.796765,"lng":140.044886,"zip":"2701438"},{"town":"平塚","koaza":"","lat":35.822554,"lng":140.079685,"zip":"2701402"},{"town":"復","koaza":"","lat":35.783794,"lng":140.065919,"zip":"2701422"},{"town":"冨士","koaza":"","lat":35.772917,"lng":140.023377,"zip":"2701432"},{"town":"堀込一丁目","koaza":"","lat":35.781818,"lng":140.054088,"zip":"2701424"},{"town":"堀込二丁目","koaza":"","lat":35.781835,"lng":140.051335,"zip":"2701424"},{"town":"堀込三丁目","koaza":"","lat":35.780586,"lng":140.047597,"zip":"2701424"},{"town":"南山一丁目","koaza":"","lat":35.782236,"lng":140.058877,"zip":"2701423"},{"town":"南山二丁目","koaza":"","lat":35.782675,"lng":140.063846,"zip":"2701423"},{"town":"南山三丁目","koaza":"","lat":35.780302,"lng":140.061084,"zip":"2701423"},{"town":"武西","koaza":"","lat":35.795819,"lng":140.103573,"zip":"2701413"},{"town":"谷田","koaza":"","lat":35.792208,"lng":140.096127,"zip":"2701414"},{"town":"冨士","koaza":"西","lat":35.772485,"lng":140.018901,"zip":"2701432"},{"town":"根","koaza":"木戸前","lat":35.782125,"lng":140.02859,"zip":"2701431"}]