[{"town":"茜浜一丁目","koaza":"","lat":35.673642,"lng":140.001914,"zip":"2750024"},{"town":"茜浜二丁目","koaza":"","lat":35.665967,"lng":140.011251,"zip":"2750024"},{"town":"茜浜三丁目","koaza":"","lat":35.661432,"lng":140.006899,"zip":"2750024"},{"town":"秋津一丁目","koaza":"","lat":35.674193,"lng":140.013896,"zip":"2750025"},{"town":"秋津二丁目","koaza":"","lat":35.671676,"lng":140.018294,"zip":"2750025"},{"town":"秋津三丁目","koaza":"","lat":35.669588,"lng":140.016778,"zip":"2750025"},{"town":"秋津四丁目","koaza":"","lat":35.671315,"lng":140.011914,"zip":"2750025"},{"town":"秋津五丁目","koaza":"","lat":35.673942,"lng":140.00675,"zip":"2750025"},{"town":"泉町一丁目","koaza":"","lat":35.693902,"lng":140.052324,"zip":"2750006"},{"town":"泉町二丁目","koaza":"","lat":35.693674,"lng":140.053946,"zip":"2750006"},{"town":"泉町三丁目","koaza":"","lat":35.693067,"lng":140.056547,"zip":"2750006"},{"town":"大久保一丁目","koaza":"","lat":35.687914,"lng":140.047245,"zip":"2750011"},{"town":"大久保二丁目","koaza":"","lat":35.687485,"lng":140.054167,"zip":"2750011"},{"town":"大久保三丁目","koaza":"","lat":35.690702,"lng":140.049072,"zip":"2750011"},{"town":"大久保四丁目","koaza":"","lat":35.689851,"lng":140.054751,"zip":"2750011"},{"town":"香澄一丁目","koaza":"","lat":35.668822,"lng":140.022679,"zip":"2750022"},{"town":"香澄二丁目","koaza":"","lat":35.666076,"lng":140.028517,"zip":"2750022"},{"town":"香澄三丁目","koaza":"","lat":35.662478,"lng":140.026721,"zip":"2750022"},{"town":"香澄四丁目","koaza":"","lat":35.666227,"lng":140.024881,"zip":"2750022"},{"town":"香澄五丁目","koaza":"","lat":35.663643,"lng":140.023269,"zip":"2750022"},{"town":"香澄六丁目","koaza":"","lat":35.666076,"lng":140.019306,"zip":"2750022"},{"town":"奏の杜一丁目","koaza":"","lat":35.691383,"lng":140.013625,"zip":"2750028"},{"town":"奏の杜二丁目","koaza":"","lat":35.689099,"lng":140.013288,"zip":"2750028"},{"town":"奏の杜三丁目","koaza":"","lat":35.687021,"lng":140.014972,"zip":"2750028"},{"town":"鷺沼一丁目","koaza":"","lat":35.677754,"lng":140.026738,"zip":"2750014"},{"town":"鷺沼二丁目","koaza":"","lat":35.680662,"lng":140.030059,"zip":"2750014"},{"town":"鷺沼三丁目","koaza":"","lat":35.674911,"lng":140.029067,"zip":"2750014"},{"town":"鷺沼四丁目","koaza":"","lat":35.675656,"lng":140.035142,"zip":"2750014"},{"town":"鷺沼五丁目","koaza":"","lat":35.672571,"lng":140.033813,"zip":"2750014"},{"town":"鷺沼台一丁目","koaza":"","lat":35.684657,"lng":140.030836,"zip":"2750015"},{"town":"鷺沼台二丁目","koaza":"","lat":35.683504,"lng":140.035642,"zip":"2750015"},{"town":"鷺沼台三丁目","koaza":"","lat":35.68095,"lng":140.037317,"zip":"2750015"},{"town":"鷺沼台四丁目","koaza":"","lat":35.677948,"lng":140.039004,"zip":"2750015"},{"town":"芝園一丁目","koaza":"","lat":35.661661,"lng":140.019818,"zip":"2750023"},{"town":"芝園二丁目","koaza":"","lat":35.659514,"lng":140.018435,"zip":"2750023"},{"town":"芝園三丁目","koaza":"","lat":35.657407,"lng":140.015731,"zip":"2750023"},{"town":"新栄一丁目","koaza":"","lat":35.691814,"lng":140.058507,"zip":"2750005"},{"town":"新栄二丁目","koaza":"","lat":35.688581,"lng":140.060979,"zip":"2750005"},{"town":"袖ケ浦一丁目","koaza":"","lat":35.677197,"lng":140.013907,"zip":"2750021"},{"town":"袖ケ浦二丁目","koaza":"","lat":35.674078,"lng":140.018923,"zip":"2750021"},{"town":"袖ケ浦三丁目","koaza":"","lat":35.676005,"lng":140.020265,"zip":"2750021"},{"town":"袖ケ浦四丁目","koaza":"","lat":35.672941,"lng":140.025591,"zip":"2750021"},{"town":"袖ケ浦五丁目","koaza":"","lat":35.671325,"lng":140.024314,"zip":"2750021"},{"town":"袖ケ浦六丁目","koaza":"","lat":35.668692,"lng":140.029852,"zip":"2750021"},{"town":"津田沼一丁目","koaza":"","lat":35.689048,"lng":140.024998,"zip":"2750016"},{"town":"津田沼二丁目","koaza":"","lat":35.687203,"lng":140.02225,"zip":"2750016"},{"town":"津田沼三丁目","koaza":"","lat":35.685644,"lng":140.026107,"zip":"2750016"},{"town":"津田沼四丁目","koaza":"","lat":35.682656,"lng":140.020604,"zip":"2750016"},{"town":"津田沼五丁目","koaza":"","lat":35.680544,"lng":140.024521,"zip":"2750016"},{"town":"津田沼六丁目","koaza":"","lat":35.677596,"lng":140.021938,"zip":"2750016"},{"town":"津田沼七丁目","koaza":"","lat":35.680059,"lng":140.019486,"zip":"2750016"},{"town":"花咲一丁目","koaza":"","lat":35.679438,"lng":140.045434,"zip":"2750013"},{"town":"花咲二丁目","koaza":"","lat":35.680407,"lng":140.048886,"zip":"2750013"},{"town":"東習志野一丁目","koaza":"","lat":35.695487,"lng":140.065712,"zip":"2750001"},{"town":"東習志野二丁目","koaza":"","lat":35.69387,"lng":140.069239,"zip":"2750001"},{"town":"東習志野三丁目","koaza":"","lat":35.693605,"lng":140.072689,"zip":"2750001"},{"town":"東習志野四丁目","koaza":"","lat":35.693371,"lng":140.075793,"zip":"2750001"},{"town":"東習志野五丁目","koaza":"","lat":35.693062,"lng":140.078985,"zip":"2750001"},{"town":"東習志野六丁目","koaza":"","lat":35.701906,"lng":140.064978,"zip":"2750001"},{"town":"東習志野七丁目","koaza":"","lat":35.70261,"lng":140.072062,"zip":"2750001"},{"town":"東習志野八丁目","koaza":"","lat":35.703621,"lng":140.080639,"zip":"2750001"},{"town":"藤崎一丁目","koaza":"","lat":35.688932,"lng":140.035368,"zip":"2750017"},{"town":"藤崎二丁目","koaza":"","lat":35.689681,"lng":140.030074,"zip":"2750017"},{"town":"藤崎三丁目","koaza":"","lat":35.693959,"lng":140.034579,"zip":"2750017"},{"town":"藤崎四丁目","koaza":"","lat":35.693712,"lng":140.03961,"zip":"2750017"},{"town":"藤崎五丁目","koaza":"","lat":35.693083,"lng":140.041761,"zip":"2750017"},{"town":"藤崎六丁目","koaza":"","lat":35.688736,"lng":140.041742,"zip":"2750017"},{"town":"藤崎七丁目","koaza":"","lat":35.686992,"lng":140.037534,"zip":"2750017"},{"town":"実籾一丁目","koaza":"","lat":35.688072,"lng":140.065834,"zip":"2750002"},{"town":"実籾二丁目","koaza":"","lat":35.684542,"lng":140.06285,"zip":"2750002"},{"town":"実籾三丁目","koaza":"","lat":35.684901,"lng":140.071366,"zip":"2750002"},{"town":"実籾四丁目","koaza":"","lat":35.688926,"lng":140.072879,"zip":"2750002"},{"town":"実籾五丁目","koaza":"","lat":35.690731,"lng":140.068259,"zip":"2750002"},{"town":"実籾六丁目","koaza":"","lat":35.691435,"lng":140.065198,"zip":"2750002"},{"town":"実籾本郷","koaza":"","lat":35.680055,"lng":140.065943,"zip":"2750003"},{"town":"本大久保一丁目","koaza":"","lat":35.685456,"lng":140.040597,"zip":"2750012"},{"town":"本大久保二丁目","koaza":"","lat":35.683978,"lng":140.042696,"zip":"2750012"},{"town":"本大久保三丁目","koaza":"","lat":35.682566,"lng":140.043549,"zip":"2750012"},{"town":"本大久保四丁目","koaza":"","lat":35.682522,"lng":140.050921,"zip":"2750012"},{"town":"本大久保五丁目","koaza":"","lat":35.685143,"lng":140.053032,"zip":"2750012"},{"town":"屋敷一丁目","koaza":"","lat":35.67785,"lng":140.054438,"zip":"2750004"},{"town":"屋敷二丁目","koaza":"","lat":35.680406,"lng":140.054616,"zip":"2750004"},{"town":"屋敷三丁目","koaza":"","lat":35.682222,"lng":140.056044,"zip":"2750004"},{"town":"屋敷四丁目","koaza":"","lat":35.68276,"lng":140.059267,"zip":"2750004"},{"town":"屋敷五丁目","koaza":"","lat":35.679591,"lng":140.060474,"zip":"2750004"},{"town":"谷津一丁目","koaza":"","lat":35.686334,"lng":140.01739,"zip":"2750026"},{"town":"谷津二丁目","koaza":"","lat":35.681641,"lng":140.013626,"zip":"2750026"},{"town":"谷津三丁目","koaza":"","lat":35.680406,"lng":140.005221,"zip":"2750026"},{"town":"谷津四丁目","koaza":"","lat":35.684711,"lng":140.005995,"zip":"2750026"},{"town":"谷津五丁目","koaza":"","lat":35.687699,"lng":140.008297,"zip":"2750026"},{"town":"谷津六丁目","koaza":"","lat":35.69313,"lng":140.009167,"zip":"2750026"},{"town":"谷津七丁目","koaza":"","lat":35.691493,"lng":140.017474,"zip":"2750026"},{"town":"谷津町一丁目","koaza":"","lat":35.67973,"lng":140.016487,"zip":"2750027"},{"town":"谷津町四丁目","koaza":"","lat":35.680743,"lng":140.017547,"zip":"2750027"}]