[{"town":"粟生野","koaza":"","lat":35.484474,"lng":140.356934,"zip":"2994106"},{"town":"芦網","koaza":"","lat":35.438389,"lng":140.25226,"zip":"2970066"},{"town":"石神","koaza":"","lat":35.408465,"lng":140.258499,"zip":"2970058"},{"town":"内長谷","koaza":"","lat":35.438853,"lng":140.276168,"zip":"2970062"},{"town":"榎神房","koaza":"","lat":35.496149,"lng":140.297035,"zip":"2994115"},{"town":"大沢","koaza":"","lat":35.487905,"lng":140.259279,"zip":"2994125"},{"town":"大芝","koaza":"","lat":35.410958,"lng":140.31879,"zip":"2970033"},{"town":"大登","koaza":"","lat":35.463034,"lng":140.278757,"zip":"2970072"},{"town":"押日","koaza":"","lat":35.449494,"lng":140.27264,"zip":"2970075"},{"town":"桂","koaza":"","lat":35.495703,"lng":140.285299,"zip":"2994127"},{"town":"上太田","koaza":"","lat":35.477359,"lng":140.266772,"zip":"2994124"},{"town":"上永吉","koaza":"","lat":35.402568,"lng":140.286906,"zip":"2970036"},{"town":"上茂原","koaza":"","lat":35.424635,"lng":140.270313,"zip":"2970052"},{"town":"萱場","koaza":"","lat":35.482778,"lng":140.332002,"zip":"2994111"},{"town":"川島飛地","koaza":"","lat":35.420586,"lng":140.32601,"zip":"2970014"},{"town":"上林","koaza":"","lat":35.443595,"lng":140.301392,"zip":"2970019"},{"town":"木崎","koaza":"","lat":35.429007,"lng":140.319248,"zip":"2970016"},{"town":"北高根飛地","koaza":"","lat":35.433042,"lng":140.334246,"zip":"2970003"},{"town":"北塚","koaza":"","lat":35.465603,"lng":140.311621,"zip":"2970009"},{"town":"黒戸","koaza":"","lat":35.46621,"lng":140.270354,"zip":"2970071"},{"town":"国府関","koaza":"","lat":35.44828,"lng":140.257079,"zip":"2970067"},{"town":"小萱場","koaza":"","lat":35.489476,"lng":140.322839,"zip":"2994117"},{"town":"小轡","koaza":"","lat":35.451075,"lng":140.33033,"zip":"2970004"},{"town":"腰当","koaza":"","lat":35.45716,"lng":140.300248,"zip":"2970007"},{"town":"小林","koaza":"","lat":35.446499,"lng":140.289378,"zip":"2970074"},{"town":"小林飛地","koaza":"","lat":35.443656,"lng":140.299095,"zip":"2970000"},{"town":"猿袋","koaza":"","lat":35.396473,"lng":140.315262,"zip":"2970041"},{"town":"三ケ谷","koaza":"","lat":35.391005,"lng":140.307161,"zip":"2970042"},{"town":"柴名","koaza":"","lat":35.488771,"lng":140.278039,"zip":"2994126"},{"town":"渋谷","koaza":"","lat":35.466692,"lng":140.301631,"zip":"2970008"},{"town":"清水","koaza":"","lat":35.480537,"lng":140.37674,"zip":"2994101"},{"town":"下太田","koaza":"","lat":35.477688,"lng":140.283149,"zip":"2994123"},{"town":"下永吉","koaza":"","lat":35.406579,"lng":140.3015,"zip":"2970035"},{"town":"庄吉","koaza":"","lat":35.457014,"lng":140.264451,"zip":"2970076"},{"town":"新小轡","koaza":"","lat":35.452408,"lng":140.309186,"zip":"2970006"},{"town":"墨田","koaza":"","lat":35.420323,"lng":140.268432,"zip":"2970053"},{"town":"千沢","koaza":"","lat":35.468308,"lng":140.355245,"zip":"2994103"},{"town":"千町","koaza":"","lat":35.452684,"lng":140.3392,"zip":"2970002"},{"town":"台田","koaza":"","lat":35.388313,"lng":140.280495,"zip":"2970044"},{"town":"高師","koaza":"","lat":35.43159,"lng":140.293354,"zip":"2970029"},{"town":"高師台一丁目","koaza":"","lat":35.432276,"lng":140.290444,"zip":"2970078"},{"town":"高師台二丁目","koaza":"","lat":35.436996,"lng":140.29054,"zip":"2970078"},{"town":"高師台三丁目","koaza":"","lat":35.437592,"lng":140.289363,"zip":"2970078"},{"town":"高師町一丁目","koaza":"","lat":35.428853,"lng":140.299493,"zip":"2970021"},{"town":"高師町二丁目","koaza":"","lat":35.429268,"lng":140.301379,"zip":"2970021"},{"town":"高師町三丁目","koaza":"","lat":35.432168,"lng":140.296478,"zip":"2970021"},{"town":"高田","koaza":"","lat":35.498025,"lng":140.309654,"zip":"2994116"},{"town":"立木","koaza":"","lat":35.389226,"lng":140.292551,"zip":"2970043"},{"town":"中善寺","koaza":"","lat":35.404516,"lng":140.263851,"zip":"2970057"},{"town":"中部","koaza":"","lat":35.432168,"lng":140.280216,"zip":"2970027"},{"town":"千代田町一丁目","koaza":"","lat":35.426175,"lng":140.302898,"zip":"2970023"},{"town":"千代田町二丁目","koaza":"","lat":35.424586,"lng":140.30185,"zip":"2970023"},{"town":"綱島","koaza":"","lat":35.409589,"lng":140.279601,"zip":"2970055"},{"town":"東郷","koaza":"","lat":35.440017,"lng":140.313241,"zip":"2970017"},{"town":"道表","koaza":"","lat":35.431066,"lng":140.288291,"zip":"2970028"},{"town":"東部台一丁目","koaza":"","lat":35.420517,"lng":140.317904,"zip":"2970015"},{"town":"東部台二丁目","koaza":"","lat":35.42193,"lng":140.321355,"zip":"2970015"},{"town":"東部台三丁目","koaza":"","lat":35.421958,"lng":140.323876,"zip":"2970015"},{"town":"東部台四丁目","koaza":"","lat":35.421549,"lng":140.325484,"zip":"2970015"},{"town":"長尾","koaza":"","lat":35.459315,"lng":140.287239,"zip":"2970073"},{"town":"長清水","koaza":"","lat":35.42115,"lng":140.294122,"zip":"2970038"},{"town":"中之郷飛地","koaza":"","lat":35.435224,"lng":140.338467,"zip":"2970013"},{"town":"中の島町","koaza":"","lat":35.408137,"lng":140.30763,"zip":"2970034"},{"town":"長谷","koaza":"","lat":35.433312,"lng":140.272761,"zip":"2970063"},{"town":"七渡","koaza":"","lat":35.464119,"lng":140.321412,"zip":"2970001"},{"town":"西野","koaza":"","lat":35.472822,"lng":140.324466,"zip":"2994112"},{"town":"萩原町一丁目","koaza":"","lat":35.438105,"lng":140.301324,"zip":"2970018"},{"town":"萩原町二丁目","koaza":"","lat":35.44059,"lng":140.30117,"zip":"2970018"},{"town":"萩原町三丁目","koaza":"","lat":35.442294,"lng":140.301627,"zip":"2970018"},{"town":"早野","koaza":"","lat":35.415388,"lng":140.291861,"zip":"2970037"},{"town":"早野新田","koaza":"","lat":35.420226,"lng":140.313332,"zip":"2970031"},{"town":"東茂原","koaza":"","lat":35.415358,"lng":140.318901,"zip":"2970032"},{"town":"法目","koaza":"","lat":35.485323,"lng":140.316277,"zip":"2994113"},{"town":"本小轡","koaza":"","lat":35.451405,"lng":140.319092,"zip":"2970005"},{"town":"本納","koaza":"","lat":35.482712,"lng":140.302465,"zip":"2994114"},{"town":"町保","koaza":"","lat":35.42946,"lng":140.30463,"zip":"2970022"},{"town":"真名","koaza":"","lat":35.465175,"lng":140.25685,"zip":"2970077"},{"town":"御蔵芝","koaza":"","lat":35.482595,"lng":140.370086,"zip":"2994102"},{"town":"緑ケ丘一丁目","koaza":"","lat":35.439261,"lng":140.26471,"zip":"2970065"},{"town":"緑ケ丘二丁目","koaza":"","lat":35.43318,"lng":140.26253,"zip":"2970065"},{"town":"緑ケ丘三丁目","koaza":"","lat":35.433928,"lng":140.25833,"zip":"2970065"},{"town":"緑ケ丘四丁目","koaza":"","lat":35.4384,"lng":140.256433,"zip":"2970065"},{"town":"緑ケ丘五丁目","koaza":"","lat":35.444009,"lng":140.258029,"zip":"2970065"},{"town":"緑町","koaza":"","lat":35.421468,"lng":140.283344,"zip":"2970025"},{"town":"南吉田","koaza":"","lat":35.465166,"lng":140.342157,"zip":"2994104"},{"town":"箕輪","koaza":"","lat":35.42755,"lng":140.265996,"zip":"2970064"},{"town":"六ツ野","koaza":"","lat":35.430874,"lng":140.334943,"zip":"2970012"},{"town":"茂原","koaza":"","lat":35.426235,"lng":140.29368,"zip":"2970026"},{"town":"茂原西","koaza":"","lat":35.424254,"lng":140.285996,"zip":"2970039"},{"town":"野牛","koaza":"","lat":35.394882,"lng":140.279442,"zip":"2970045"},{"town":"八千代一丁目","koaza":"","lat":35.423807,"lng":140.296491,"zip":"2970024"},{"town":"八千代二丁目","koaza":"","lat":35.422875,"lng":140.295467,"zip":"2970024"},{"town":"八千代三丁目","koaza":"","lat":35.422484,"lng":140.301972,"zip":"2970024"},{"town":"山崎","koaza":"","lat":35.441753,"lng":140.270198,"zip":"2970061"},{"town":"谷本","koaza":"","lat":35.443269,"lng":140.325632,"zip":"2970011"},{"town":"八幡原","koaza":"","lat":35.416631,"lng":140.268821,"zip":"2970054"},{"town":"弓渡","koaza":"","lat":35.479945,"lng":140.345182,"zip":"2994105"},{"town":"吉井上","koaza":"","lat":35.489612,"lng":140.287702,"zip":"2994122"},{"town":"吉井下","koaza":"","lat":35.487265,"lng":140.293737,"zip":"2994121"},{"town":"六田台","koaza":"","lat":35.40739,"lng":140.283677,"zip":"2970056"},{"town":"鷲巣","koaza":"","lat":35.424918,"lng":140.278993,"zip":"2970051"},{"town":"にいはる工業団地","koaza":"","lat":35.471743,"lng":140.274634,"zip":"2994129"},{"town":"高師","koaza":"長荒","lat":35.437197,"lng":140.286484,"zip":"2970029"},{"town":"腰当","koaza":"北川端","lat":35.454449,"lng":140.299597,"zip":"2970007"},{"town":"腰当","koaza":"深田","lat":35.458691,"lng":140.300778,"zip":"2970007"},{"town":"東郷","koaza":"富士見","lat":35.432642,"lng":140.314179,"zip":"2970017"},{"town":"木崎","koaza":"小池","lat":35.426608,"lng":140.321911,"zip":"2970016"},{"town":"小轡","koaza":"勢出","lat":35.450725,"lng":140.326669,"zip":"2970004"},{"town":"大芝一丁目","koaza":"","lat":null,"lng":null,"zip":null},{"town":"大芝二丁目","koaza":"","lat":null,"lng":null,"zip":null},{"town":"大芝三丁目","koaza":"","lat":null,"lng":null,"zip":null}]