[{"town":"阿部","koaza":"","lat":35.375384,"lng":140.027851,"zip":"2990216"},{"town":"飯富","koaza":"","lat":35.420167,"lng":139.985395,"zip":"2990256"},{"town":"今井","koaza":"","lat":35.442099,"lng":139.977297,"zip":"2990264"},{"town":"今井一丁目","koaza":"","lat":35.440706,"lng":139.977396,"zip":"2990264"},{"town":"今井二丁目","koaza":"","lat":35.441722,"lng":139.977809,"zip":"2990264"},{"town":"今井三丁目","koaza":"","lat":35.439185,"lng":139.969907,"zip":"2990264"},{"town":"岩井","koaza":"","lat":35.4099,"lng":140.021954,"zip":"2990233"},{"town":"打越","koaza":"","lat":35.374557,"lng":140.021427,"zip":"2990217"},{"town":"永地","koaza":"","lat":35.40319,"lng":140.031046,"zip":"2990232"},{"town":"大竹","koaza":"","lat":35.367203,"lng":140.01947,"zip":"2990221"},{"town":"大鳥居","koaza":"","lat":35.391005,"lng":140.001201,"zip":"2990237"},{"town":"大曽根","koaza":"","lat":35.414299,"lng":140.012185,"zip":"2990253"},{"town":"勝","koaza":"","lat":35.409997,"lng":140.016756,"zip":"2990252"},{"town":"上泉","koaza":"","lat":35.409773,"lng":140.04732,"zip":"2990205"},{"town":"上宮田","koaza":"","lat":35.354113,"lng":140.018154,"zip":"2990222"},{"town":"川原井","koaza":"","lat":35.414167,"lng":140.075957,"zip":"2990201"},{"town":"神納","koaza":"","lat":35.428594,"lng":139.977434,"zip":"2990257"},{"town":"神納一丁目","koaza":"","lat":35.423577,"lng":139.958756,"zip":"2990257"},{"town":"神納二丁目","koaza":"","lat":35.422173,"lng":139.960516,"zip":"2990257"},{"town":"北袖","koaza":"","lat":35.467395,"lng":140.011293,"zip":"2990266"},{"town":"久保田","koaza":"","lat":35.449696,"lng":140.016003,"zip":"2990242"},{"town":"久保田一丁目","koaza":"","lat":35.451736,"lng":140.003973,"zip":"2990242"},{"town":"久保田二丁目","koaza":"","lat":35.450806,"lng":140.006918,"zip":"2990242"},{"town":"蔵波","koaza":"","lat":35.434261,"lng":140.012416,"zip":"2990243"},{"town":"蔵波台一丁目","koaza":"","lat":35.443642,"lng":139.988058,"zip":"2990245"},{"town":"蔵波台二丁目","koaza":"","lat":35.441731,"lng":139.990454,"zip":"2990245"},{"town":"蔵波台三丁目","koaza":"","lat":35.44524,"lng":139.992651,"zip":"2990245"},{"town":"蔵波台四丁目","koaza":"","lat":35.441782,"lng":139.997028,"zip":"2990245"},{"town":"蔵波台五丁目","koaza":"","lat":35.439502,"lng":139.995309,"zip":"2990245"},{"town":"蔵波台六丁目","koaza":"","lat":35.438473,"lng":140.001214,"zip":"2990245"},{"town":"蔵波台七丁目","koaza":"","lat":35.441829,"lng":140.00252,"zip":"2990245"},{"town":"坂戸市場","koaza":"","lat":35.426415,"lng":139.94935,"zip":"2990262"},{"town":"三箇","koaza":"","lat":35.386499,"lng":140.048967,"zip":"2990212"},{"town":"椎の森","koaza":"","lat":35.448355,"lng":140.027534,"zip":"2990247"},{"town":"下泉","koaza":"","lat":35.415778,"lng":140.034946,"zip":"2990231"},{"town":"下新田","koaza":"","lat":35.415476,"lng":139.997278,"zip":"2990255"},{"town":"下根岸","koaza":"","lat":35.369648,"lng":140.032186,"zip":"2990214"},{"town":"下宮田","koaza":"","lat":35.353285,"lng":140.00566,"zip":"2990223"},{"town":"代宿","koaza":"","lat":35.456744,"lng":140.024882,"zip":"2990241"},{"town":"高谷","koaza":"","lat":35.388682,"lng":140.065505,"zip":"2990203"},{"town":"滝の口","koaza":"","lat":35.379589,"lng":140.006478,"zip":"2990226"},{"town":"玉野","koaza":"","lat":35.368083,"lng":140.001909,"zip":"2990225"},{"town":"百目木","koaza":"","lat":35.378505,"lng":140.040358,"zip":"2990213"},{"town":"堂谷","koaza":"","lat":35.381434,"lng":140.030055,"zip":"2990215"},{"town":"長浦","koaza":"","lat":35.450415,"lng":139.982474,"zip":"2990265"},{"town":"長浦駅前一丁目","koaza":"","lat":35.450642,"lng":139.997911,"zip":"2990246"},{"town":"長浦駅前二丁目","koaza":"","lat":35.449863,"lng":140.001249,"zip":"2990246"},{"town":"長浦駅前三丁目","koaza":"","lat":35.447188,"lng":140.002218,"zip":"2990246"},{"town":"長浦駅前四丁目","koaza":"","lat":35.444468,"lng":140.003646,"zip":"2990246"},{"town":"長浦駅前五丁目","koaza":"","lat":35.447318,"lng":140.005163,"zip":"2990246"},{"town":"長浦駅前六丁目","koaza":"","lat":35.448397,"lng":140.007032,"zip":"2990246"},{"town":"長浦駅前七丁目","koaza":"","lat":35.448414,"lng":140.00994,"zip":"2990246"},{"town":"長浦駅前八丁目","koaza":"","lat":35.445604,"lng":140.009513,"zip":"2990246"},{"town":"中袖","koaza":"","lat":35.46264,"lng":139.979912,"zip":"2990267"},{"town":"永吉","koaza":"","lat":35.407857,"lng":140.057494,"zip":"2990204"},{"town":"奈良輪","koaza":"","lat":35.434822,"lng":139.960315,"zip":"2990263"},{"town":"奈良輪一丁目","koaza":"","lat":35.430617,"lng":139.956863,"zip":"2990263"},{"town":"奈良輪二丁目","koaza":"","lat":35.431661,"lng":139.95987,"zip":"2990263"},{"town":"野里","koaza":"","lat":35.396317,"lng":140.042418,"zip":"2990211"},{"town":"のぞみ野","koaza":"","lat":35.419488,"lng":140.02631,"zip":"2990251"},{"town":"野田","koaza":"","lat":35.427377,"lng":140.012325,"zip":"2990244"},{"town":"林","koaza":"","lat":35.393683,"lng":140.078702,"zip":"2990202"},{"town":"福王台一丁目","koaza":"","lat":35.427857,"lng":139.959776,"zip":"2990261"},{"town":"福王台二丁目","koaza":"","lat":35.430093,"lng":139.962864,"zip":"2990261"},{"town":"福王台三丁目","koaza":"","lat":35.428454,"lng":139.965688,"zip":"2990261"},{"town":"福王台四丁目","koaza":"","lat":35.432693,"lng":139.969588,"zip":"2990261"},{"town":"三黒","koaza":"","lat":35.398959,"lng":140.018668,"zip":"2990235"},{"town":"三ツ作","koaza":"","lat":35.415682,"lng":140.004666,"zip":"2990254"},{"town":"南袖","koaza":"","lat":35.449284,"lng":139.958846,"zip":"2990268"},{"town":"谷中","koaza":"","lat":35.402336,"lng":140.018194,"zip":"2990234"},{"town":"横田","koaza":"","lat":35.388458,"lng":140.023464,"zip":"2990236"},{"town":"吉野田","koaza":"","lat":35.368828,"lng":140.00848,"zip":"2990224"},{"town":"袖ケ浦駅前一丁目","koaza":"","lat":null,"lng":null,"zip":null},{"town":"袖ケ浦駅前二丁目","koaza":"","lat":null,"lng":null,"zip":null}]