[{"town":"泉一丁目","koaza":"","lat":35.981714,"lng":139.863326,"zip":"2700239"},{"town":"泉二丁目","koaza":"","lat":35.980127,"lng":139.867113,"zip":"2700239"},{"town":"泉三丁目","koaza":"","lat":35.979013,"lng":139.86407,"zip":"2700239"},{"town":"今上","koaza":"","lat":35.92519,"lng":139.87388,"zip":"2780025"},{"town":"岩名","koaza":"","lat":35.963793,"lng":139.839891,"zip":"2780055"},{"town":"岩名一丁目","koaza":"","lat":35.973807,"lng":139.832789,"zip":"2780055"},{"town":"岩名二丁目","koaza":"","lat":35.973037,"lng":139.838156,"zip":"2780055"},{"town":"大殿井","koaza":"","lat":35.946459,"lng":139.894106,"zip":"2780017"},{"town":"岡田","koaza":"","lat":36.011436,"lng":139.826336,"zip":"2700223"},{"town":"岡田新田","koaza":"","lat":36.009714,"lng":139.823298,"zip":"2780000"},{"town":"尾崎","koaza":"","lat":35.987174,"lng":139.832852,"zip":"2700235"},{"town":"尾崎台","koaza":"","lat":35.984457,"lng":139.836996,"zip":"2700238"},{"town":"小山","koaza":"","lat":36.004383,"lng":139.870554,"zip":"2700231"},{"town":"柏寺","koaza":"","lat":36.048933,"lng":139.805255,"zip":"2700214"},{"town":"春日町","koaza":"","lat":35.977614,"lng":139.841366,"zip":"2780052"},{"town":"金杉","koaza":"","lat":35.967449,"lng":139.871444,"zip":"2780007"},{"town":"上三ケ尾","koaza":"","lat":35.924203,"lng":139.928792,"zip":"2780013"},{"town":"上花輪","koaza":"","lat":35.935926,"lng":139.870262,"zip":"2780033"},{"town":"上花輪新町","koaza":"","lat":35.938025,"lng":139.862788,"zip":"2780034"},{"town":"木野崎","koaza":"","lat":35.957528,"lng":139.917061,"zip":"2780002"},{"town":"木間ケ瀬","koaza":"","lat":36.022727,"lng":139.837166,"zip":"2700222"},{"town":"木間ケ瀬新田","koaza":"","lat":36.02061,"lng":139.854362,"zip":"2780000"},{"town":"桐ケ作","koaza":"","lat":36.055306,"lng":139.810225,"zip":"2700213"},{"town":"光葉町一丁目","koaza":"","lat":35.965544,"lng":139.852126,"zip":"2780057"},{"town":"光葉町二丁目","koaza":"","lat":35.969437,"lng":139.849257,"zip":"2780057"},{"town":"光葉町三丁目","koaza":"","lat":35.965103,"lng":139.846908,"zip":"2780057"},{"town":"五木","koaza":"","lat":35.970796,"lng":139.846066,"zip":"2780054"},{"town":"五木新田","koaza":"","lat":35.980187,"lng":139.838746,"zip":"2780056"},{"town":"五木新町","koaza":"","lat":35.974463,"lng":139.84482,"zip":"2780053"},{"town":"座生","koaza":"","lat":35.947827,"lng":139.842668,"zip":"2780045"},{"town":"桜木","koaza":"","lat":35.934945,"lng":139.877675,"zip":"2780028"},{"town":"桜台","koaza":"","lat":35.936126,"lng":139.874677,"zip":"2780032"},{"town":"桜の里一丁目","koaza":"","lat":35.957535,"lng":139.847495,"zip":"2780048"},{"town":"桜の里二丁目","koaza":"","lat":35.953947,"lng":139.845337,"zip":"2780048"},{"town":"桜の里三丁目","koaza":"","lat":35.951683,"lng":139.843058,"zip":"2780048"},{"town":"清水","koaza":"","lat":35.955612,"lng":139.857185,"zip":"2780043"},{"town":"清水公園東一丁目","koaza":"","lat":35.961552,"lng":139.859399,"zip":"2780047"},{"town":"清水公園東二丁目","koaza":"","lat":35.956519,"lng":139.862788,"zip":"2780047"},{"town":"下三ケ尾","koaza":"","lat":35.922857,"lng":139.916158,"zip":"2780014"},{"town":"関宿内町","koaza":"","lat":36.074055,"lng":139.78439,"zip":"2700204"},{"town":"関宿江戸町","koaza":"","lat":36.087124,"lng":139.780643,"zip":"2700205"},{"town":"関宿江戸町飛地","koaza":"","lat":36.063526,"lng":139.793256,"zip":"2780000"},{"town":"関宿三軒家","koaza":"","lat":36.098726,"lng":139.782731,"zip":"2700201"},{"town":"関宿台町","koaza":"","lat":36.084899,"lng":139.794419,"zip":"2700202"},{"town":"関宿町","koaza":"","lat":36.094867,"lng":139.780703,"zip":"2700206"},{"town":"関宿元町","koaza":"","lat":36.074513,"lng":139.788013,"zip":"2700203"},{"town":"関宿元町飛地","koaza":"","lat":36.065709,"lng":139.796048,"zip":"2780000"},{"town":"瀬戸","koaza":"","lat":35.935527,"lng":139.9384,"zip":"2780012"},{"town":"瀬戸上灰毛","koaza":"","lat":35.944277,"lng":139.910303,"zip":"2780000"},{"town":"堤台","koaza":"","lat":35.949821,"lng":139.848029,"zip":"2780044"},{"town":"堤根","koaza":"","lat":35.940678,"lng":139.888643,"zip":"2780021"},{"town":"つつみ野一丁目","koaza":"","lat":35.946,"lng":139.848863,"zip":"2780038"},{"town":"つつみ野二丁目","koaza":"","lat":35.945494,"lng":139.846449,"zip":"2780038"},{"town":"鶴奉","koaza":"","lat":35.956331,"lng":139.886932,"zip":"2780003"},{"town":"中里","koaza":"","lat":35.999305,"lng":139.841475,"zip":"2700237"},{"town":"中戸","koaza":"","lat":36.057451,"lng":139.796697,"zip":"2700215"},{"town":"中戸谷津","koaza":"","lat":36.061966,"lng":139.794382,"zip":"2780000"},{"town":"中根","koaza":"","lat":35.944045,"lng":139.879562,"zip":"2780031"},{"town":"中野台","koaza":"","lat":35.943776,"lng":139.85609,"zip":"2780035"},{"town":"中野台鹿島町","koaza":"","lat":35.945147,"lng":139.852466,"zip":"2780036"},{"town":"長谷","koaza":"","lat":36.017246,"lng":139.866225,"zip":"2780000"},{"town":"七光台","koaza":"","lat":35.981049,"lng":139.845594,"zip":"2780051"},{"town":"西高野","koaza":"","lat":36.065873,"lng":139.797077,"zip":"2700216"},{"town":"西三ケ尾","koaza":"","lat":35.931328,"lng":139.922551,"zip":"2780015"},{"town":"新田戸","koaza":"","lat":36.061723,"lng":139.802758,"zip":"2700212"},{"town":"野田","koaza":"","lat":35.945802,"lng":139.86703,"zip":"2780037"},{"town":"花井","koaza":"","lat":35.946055,"lng":139.881867,"zip":"2780026"},{"town":"花井一丁目","koaza":"","lat":35.937981,"lng":139.883718,"zip":"2780026"},{"town":"花井新田","koaza":"","lat":35.936548,"lng":139.882197,"zip":"2780000"},{"town":"はやま","koaza":"","lat":36.069149,"lng":139.793265,"zip":"2700217"},{"town":"蕃昌","koaza":"","lat":35.975317,"lng":139.865055,"zip":"2780041"},{"town":"東金野井","koaza":"","lat":35.996291,"lng":139.821555,"zip":"2700236"},{"town":"東高野","koaza":"","lat":36.067822,"lng":139.797524,"zip":"2700211"},{"town":"日の出町","koaza":"","lat":35.986201,"lng":139.841418,"zip":"2700234"},{"town":"平井","koaza":"","lat":36.020327,"lng":139.819303,"zip":"2700225"},{"town":"二ツ塚","koaza":"","lat":35.937558,"lng":139.906895,"zip":"2780016"},{"town":"船形","koaza":"","lat":35.987687,"lng":139.867353,"zip":"2700233"},{"town":"平成","koaza":"","lat":36.065746,"lng":139.806357,"zip":"2780000"},{"town":"丸井","koaza":"","lat":36.010677,"lng":139.818324,"zip":"2700224"},{"town":"みずき一丁目","koaza":"","lat":35.925166,"lng":139.883191,"zip":"2780027"},{"town":"みずき二丁目","koaza":"","lat":35.922938,"lng":139.886278,"zip":"2780027"},{"town":"みずき三丁目","koaza":"","lat":35.920412,"lng":139.886021,"zip":"2780027"},{"town":"みずき四丁目","koaza":"","lat":35.917311,"lng":139.889084,"zip":"2780027"},{"town":"三ツ堀","koaza":"","lat":35.943511,"lng":139.928729,"zip":"2780011"},{"town":"宮崎","koaza":"","lat":35.952155,"lng":139.873927,"zip":"2780005"},{"town":"莚打","koaza":"","lat":35.984824,"lng":139.886754,"zip":"2700232"},{"town":"目吹","koaza":"","lat":35.969371,"lng":139.892207,"zip":"2780001"},{"town":"谷津","koaza":"","lat":35.970624,"lng":139.857125,"zip":"2780046"},{"town":"柳沢","koaza":"","lat":35.959311,"lng":139.877287,"zip":"2780006"},{"town":"山崎梅の台","koaza":"","lat":35.923052,"lng":139.888413,"zip":"2780024"},{"town":"谷吉","koaza":"","lat":35.986795,"lng":139.848108,"zip":"2780000"},{"town":"横内","koaza":"","lat":35.950482,"lng":139.880161,"zip":"2780004"},{"town":"吉春","koaza":"","lat":35.965678,"lng":139.865545,"zip":"2780042"},{"town":"山崎貝塚町","koaza":"","lat":35.921992,"lng":139.894096,"zip":"2780023"},{"town":"山崎新町","koaza":"","lat":35.925056,"lng":139.895584,"zip":"2780029"},{"town":"山崎","koaza":"","lat":35.930807,"lng":139.890211,"zip":"2780022"},{"town":"なみき四丁目","koaza":"","lat":36.040336,"lng":139.8173,"zip":"2700229"},{"town":"古布内","koaza":"","lat":36.047011,"lng":139.822419,"zip":"2700221"},{"town":"なみき三丁目","koaza":"","lat":36.039901,"lng":139.822184,"zip":"2700229"},{"town":"東宝珠花","koaza":"","lat":36.026,"lng":139.818563,"zip":"2700226"},{"town":"親野井","koaza":"","lat":36.040677,"lng":139.813593,"zip":"2700227"},{"town":"次木","koaza":"","lat":36.035617,"lng":139.824717,"zip":"2700228"},{"town":"なみき一丁目","koaza":"","lat":36.034311,"lng":139.821018,"zip":"2700229"},{"town":"なみき二丁目","koaza":"","lat":36.038012,"lng":139.820516,"zip":"2700229"},{"town":"次木","koaza":"菖蒲島","lat":36.035686,"lng":139.824807,"zip":"2700228"},{"town":"中根","koaza":"新田鹿島原","lat":35.949032,"lng":139.875269,"zip":"2780031"}]