[{"town":"赤塚町","koaza":"","lat":35.741354,"lng":140.768765,"zip":"2880844"},{"town":"海鹿島町","koaza":"","lat":35.722967,"lng":140.864381,"zip":"2880005"},{"town":"芦崎町","koaza":"","lat":35.758269,"lng":140.777854,"zip":"2880861"},{"town":"愛宕町","koaza":"","lat":35.728021,"lng":140.849834,"zip":"2880007"},{"town":"新生町一丁目","koaza":"","lat":35.733242,"lng":140.836397,"zip":"2880056"},{"town":"新生町二丁目","koaza":"","lat":35.730582,"lng":140.834857,"zip":"2880056"},{"town":"粟島町","koaza":"","lat":35.718039,"lng":140.842633,"zip":"2880034"},{"town":"飯沼町","koaza":"","lat":35.732838,"lng":140.840328,"zip":"2880051"},{"town":"犬吠埼","koaza":"","lat":35.706104,"lng":140.862463,"zip":"2880012"},{"town":"犬若","koaza":"","lat":35.698343,"lng":140.847686,"zip":"2880015"},{"town":"今宮町","koaza":"","lat":35.73078,"lng":140.80984,"zip":"2880804"},{"town":"上野町","koaza":"","lat":35.7254,"lng":140.801772,"zip":"2880805"},{"town":"植松町","koaza":"","lat":35.735909,"lng":140.852437,"zip":"2880071"},{"town":"内浜町","koaza":"","lat":35.736164,"lng":140.842909,"zip":"2880068"},{"town":"大橋町","koaza":"","lat":35.73571,"lng":140.825013,"zip":"2880046"},{"town":"岡野台町一丁目","koaza":"","lat":35.748364,"lng":140.772415,"zip":"2880852"},{"town":"岡野台町二丁目","koaza":"","lat":35.745726,"lng":140.768425,"zip":"2880852"},{"town":"岡野台町三丁目","koaza":"","lat":35.744434,"lng":140.765628,"zip":"2880852"},{"town":"岡野台町四丁目","koaza":"","lat":35.73687,"lng":140.76441,"zip":"2880852"},{"town":"小浜町","koaza":"","lat":35.71141,"lng":140.774181,"zip":"2880821"},{"town":"親田町","koaza":"","lat":35.71845,"lng":140.765412,"zip":"2880823"},{"town":"垣根町一丁目","koaza":"","lat":35.74816,"lng":140.795064,"zip":"2880835"},{"town":"垣根町二丁目","koaza":"","lat":35.743605,"lng":140.790358,"zip":"2880835"},{"town":"垣根見晴台","koaza":"","lat":35.727732,"lng":140.78751,"zip":"2880833"},{"town":"笠上町","koaza":"","lat":35.728764,"lng":140.860448,"zip":"2880004"},{"town":"春日台町","koaza":"","lat":35.726149,"lng":140.809889,"zip":"2880816"},{"town":"春日町","koaza":"","lat":35.721082,"lng":140.814546,"zip":"2880814"},{"town":"唐子町","koaza":"","lat":35.732622,"lng":140.821992,"zip":"2880801"},{"town":"川口町一丁目","koaza":"","lat":35.737219,"lng":140.852442,"zip":"2880001"},{"town":"川口町二丁目","koaza":"","lat":35.739024,"lng":140.863644,"zip":"2880001"},{"town":"北小川町","koaza":"","lat":35.727364,"lng":140.834356,"zip":"2880037"},{"town":"君ケ浜","koaza":"","lat":35.715673,"lng":140.864445,"zip":"2880011"},{"town":"清川町一丁目","koaza":"","lat":35.728773,"lng":140.82362,"zip":"2880817"},{"town":"清川町二丁目","koaza":"","lat":35.72824,"lng":140.821694,"zip":"2880817"},{"town":"清川町三丁目","koaza":"","lat":35.72751,"lng":140.820796,"zip":"2880817"},{"town":"清川町四丁目","koaza":"","lat":35.726215,"lng":140.819769,"zip":"2880817"},{"town":"黒生町","koaza":"","lat":35.730917,"lng":140.863705,"zip":"2880003"},{"town":"小長町","koaza":"","lat":35.763727,"lng":140.710015,"zip":"2880866"},{"town":"小畑新町","koaza":"","lat":35.717412,"lng":140.859404,"zip":"2880021"},{"town":"小畑町","koaza":"","lat":35.716335,"lng":140.852365,"zip":"2880022"},{"town":"後飯町","koaza":"","lat":35.731686,"lng":140.844685,"zip":"2880064"},{"town":"小船木町一丁目","koaza":"","lat":35.769684,"lng":140.751045,"zip":"2880864"},{"town":"小船木町二丁目","koaza":"","lat":35.762722,"lng":140.731029,"zip":"2880864"},{"town":"幸町一丁目","koaza":"","lat":35.73366,"lng":140.848514,"zip":"2880073"},{"town":"幸町二丁目","koaza":"","lat":35.734813,"lng":140.849708,"zip":"2880073"},{"town":"栄町一丁目","koaza":"","lat":35.728253,"lng":140.828332,"zip":"2880812"},{"town":"栄町二丁目","koaza":"","lat":35.728312,"lng":140.826373,"zip":"2880812"},{"town":"栄町三丁目","koaza":"","lat":35.725137,"lng":140.827379,"zip":"2880812"},{"town":"栄町四丁目","koaza":"","lat":35.725443,"lng":140.828797,"zip":"2880812"},{"town":"榊町","koaza":"","lat":35.723606,"lng":140.850289,"zip":"2880006"},{"town":"桜井町","koaza":"","lat":35.798705,"lng":140.721487,"zip":"2880876"},{"town":"笹本町","koaza":"","lat":35.790199,"lng":140.717845,"zip":"2880873"},{"town":"猿田町","koaza":"","lat":35.745252,"lng":140.736892,"zip":"2880855"},{"town":"三軒町","koaza":"","lat":35.732519,"lng":140.824589,"zip":"2880045"},{"town":"潮見町","koaza":"","lat":35.704408,"lng":140.843451,"zip":"2880025"},{"town":"忍町","koaza":"","lat":35.776631,"lng":140.740027,"zip":"2880867"},{"town":"柴崎町一丁目","koaza":"","lat":35.745368,"lng":140.785993,"zip":"2880842"},{"town":"柴崎町二丁目","koaza":"","lat":35.742778,"lng":140.783115,"zip":"2880842"},{"town":"柴崎町三丁目","koaza":"","lat":35.738578,"lng":140.784268,"zip":"2880842"},{"town":"柴崎町四丁目","koaza":"","lat":35.736363,"lng":140.778775,"zip":"2880842"},{"town":"柴崎町五丁目","koaza":"","lat":35.727662,"lng":140.780359,"zip":"2880842"},{"town":"柴崎町六丁目","koaza":"","lat":35.728871,"lng":140.78529,"zip":"2880842"},{"town":"柴崎町七丁目","koaza":"","lat":35.718339,"lng":140.780929,"zip":"2880842"},{"town":"清水町","koaza":"","lat":35.732415,"lng":140.848952,"zip":"2880063"},{"town":"正明寺町","koaza":"","lat":35.747089,"lng":140.752302,"zip":"2880856"},{"town":"白石町","koaza":"","lat":35.73628,"lng":140.745315,"zip":"2880853"},{"town":"新地町","koaza":"","lat":35.734103,"lng":140.842125,"zip":"2880067"},{"town":"新町","koaza":"","lat":35.734345,"lng":140.756024,"zip":"2880825"},{"town":"陣屋町","koaza":"","lat":35.730397,"lng":140.838224,"zip":"2880055"},{"town":"末広町","koaza":"","lat":35.731011,"lng":140.831622,"zip":"2880042"},{"town":"台町","koaza":"","lat":35.71869,"lng":140.826896,"zip":"2880813"},{"town":"高神西町","koaza":"","lat":35.709754,"lng":140.844872,"zip":"2880026"},{"town":"高神原町","koaza":"","lat":35.718596,"lng":140.845413,"zip":"2880027"},{"town":"高神東町","koaza":"","lat":35.710085,"lng":140.857769,"zip":"2880023"},{"town":"高田町一丁目","koaza":"","lat":35.760443,"lng":140.762308,"zip":"2880862"},{"town":"高田町二丁目","koaza":"","lat":35.762487,"lng":140.768303,"zip":"2880862"},{"town":"高田町三丁目","koaza":"","lat":35.763592,"lng":140.766497,"zip":"2880862"},{"town":"高田町四丁目","koaza":"","lat":35.764087,"lng":140.765544,"zip":"2880862"},{"town":"高田町五丁目","koaza":"","lat":35.764757,"lng":140.764791,"zip":"2880862"},{"town":"高田町六丁目","koaza":"","lat":35.76545,"lng":140.763481,"zip":"2880862"},{"town":"高田町七丁目","koaza":"","lat":35.755105,"lng":140.743437,"zip":"2880862"},{"town":"高野町","koaza":"","lat":35.734519,"lng":140.782918,"zip":"2880834"},{"town":"竹町","koaza":"","lat":35.734647,"lng":140.845229,"zip":"2880062"},{"town":"田中町","koaza":"","lat":35.733374,"lng":140.843136,"zip":"2880065"},{"town":"茶畑町","koaza":"","lat":35.734685,"lng":140.736372,"zip":"2880854"},{"town":"中央町","koaza":"","lat":35.735097,"lng":140.830474,"zip":"2880041"},{"town":"塚本町","koaza":"","lat":35.771487,"lng":140.743168,"zip":"2880868"},{"town":"天王台","koaza":"","lat":35.705468,"lng":140.854337,"zip":"2880024"},{"town":"通町","koaza":"","lat":35.736632,"lng":140.849328,"zip":"2880075"},{"town":"外川台町","koaza":"","lat":35.702151,"lng":140.852108,"zip":"2880016"},{"town":"外川町一丁目","koaza":"","lat":35.697689,"lng":140.857856,"zip":"2880014"},{"town":"外川町二丁目","koaza":"","lat":35.698672,"lng":140.856472,"zip":"2880014"},{"town":"外川町三丁目","koaza":"","lat":35.699513,"lng":140.855387,"zip":"2880014"},{"town":"外川町四丁目","koaza":"","lat":35.699522,"lng":140.852866,"zip":"2880014"},{"town":"外川町五丁目","koaza":"","lat":35.697099,"lng":140.853909,"zip":"2880014"},{"town":"常世田町","koaza":"","lat":35.720154,"lng":140.759268,"zip":"2880824"},{"town":"富川町","koaza":"","lat":35.778532,"lng":140.731584,"zip":"2880871"},{"town":"豊里台一丁目","koaza":"","lat":35.787561,"lng":140.711731,"zip":"2880874"},{"town":"豊里台二丁目","koaza":"","lat":35.787526,"lng":140.701275,"zip":"2880874"},{"town":"豊里台三丁目","koaza":"","lat":35.788726,"lng":140.704957,"zip":"2880874"},{"town":"名洗町","koaza":"","lat":35.712003,"lng":140.837738,"zip":"2880035"},{"town":"長崎町","koaza":"","lat":35.696375,"lng":140.861297,"zip":"2880013"},{"town":"中島町一丁目","koaza":"","lat":35.754016,"lng":140.768866,"zip":"2880858"},{"town":"中島町二丁目","koaza":"","lat":35.748079,"lng":140.760907,"zip":"2880858"},{"town":"仲町","koaza":"","lat":35.736966,"lng":140.848213,"zip":"2880077"},{"town":"長塚町一丁目","koaza":"","lat":35.739426,"lng":140.806943,"zip":"2880837"},{"town":"長塚町二丁目","koaza":"","lat":35.740825,"lng":140.803662,"zip":"2880837"},{"town":"長塚町三丁目","koaza":"","lat":35.742214,"lng":140.79994,"zip":"2880837"},{"town":"長塚町四丁目","koaza":"","lat":35.729684,"lng":140.795843,"zip":"2880837"},{"town":"長塚町五丁目","koaza":"","lat":35.732507,"lng":140.792511,"zip":"2880837"},{"town":"長塚町六丁目","koaza":"","lat":35.718533,"lng":140.79137,"zip":"2880837"},{"town":"長塚町七丁目","koaza":"","lat":35.721396,"lng":140.786127,"zip":"2880837"},{"town":"長山町","koaza":"","lat":35.767068,"lng":140.71861,"zip":"2880865"},{"town":"西小川町","koaza":"","lat":35.720504,"lng":140.83011,"zip":"2880036"},{"town":"西芝町","koaza":"","lat":35.730569,"lng":140.826966,"zip":"2880044"},{"town":"野尻町","koaza":"","lat":35.765369,"lng":140.757346,"zip":"2880863"},{"town":"橋本町","koaza":"","lat":35.734785,"lng":140.847513,"zip":"2880074"},{"town":"馬場町","koaza":"","lat":35.730947,"lng":140.84022,"zip":"2880054"},{"town":"浜町","koaza":"","lat":35.733131,"lng":140.841791,"zip":"2880052"},{"town":"東小川町","koaza":"","lat":35.724704,"lng":140.839305,"zip":"2880032"},{"town":"東芝町","koaza":"","lat":35.730381,"lng":140.829968,"zip":"2880043"},{"town":"東町","koaza":"","lat":35.731045,"lng":140.841953,"zip":"2880053"},{"town":"双葉町","koaza":"","lat":35.733035,"lng":140.828833,"zip":"2880048"},{"town":"船木町","koaza":"","lat":35.75622,"lng":140.766203,"zip":"2880857"},{"town":"本城町一丁目","koaza":"","lat":35.736696,"lng":140.815588,"zip":"2880831"},{"town":"本城町二丁目","koaza":"","lat":35.736241,"lng":140.812734,"zip":"2880831"},{"town":"本城町三丁目","koaza":"","lat":35.737413,"lng":140.808997,"zip":"2880831"},{"town":"本城町四丁目","koaza":"","lat":35.733668,"lng":140.81163,"zip":"2880831"},{"town":"本城町五丁目","koaza":"","lat":35.73193,"lng":140.806475,"zip":"2880831"},{"town":"本城町六丁目","koaza":"","lat":35.716784,"lng":140.792979,"zip":"2880831"},{"town":"本町","koaza":"","lat":35.735741,"lng":140.845453,"zip":"2880076"},{"town":"前宿町","koaza":"","lat":35.72655,"lng":140.842627,"zip":"2880031"},{"town":"松岸町一丁目","koaza":"","lat":35.746027,"lng":140.797963,"zip":"2880836"},{"town":"松岸町二丁目","koaza":"","lat":35.743927,"lng":140.795896,"zip":"2880836"},{"town":"松岸町三丁目","koaza":"","lat":35.741703,"lng":140.793753,"zip":"2880836"},{"town":"松岸町四丁目","koaza":"","lat":35.739289,"lng":140.790793,"zip":"2880836"},{"town":"松岸見晴台","koaza":"","lat":35.721437,"lng":140.78266,"zip":"2880832"},{"town":"松本町一丁目","koaza":"","lat":35.73489,"lng":140.820361,"zip":"2880802"},{"town":"松本町二丁目","koaza":"","lat":35.735468,"lng":140.819427,"zip":"2880802"},{"town":"松本町三丁目","koaza":"","lat":35.735459,"lng":140.817153,"zip":"2880802"},{"town":"松本町四丁目","koaza":"","lat":35.729182,"lng":140.815974,"zip":"2880802"},{"town":"松本町五丁目","koaza":"","lat":35.730222,"lng":140.813659,"zip":"2880802"},{"town":"三門町","koaza":"","lat":35.742292,"lng":140.758792,"zip":"2880851"},{"town":"三崎町一丁目","koaza":"","lat":35.716048,"lng":140.805008,"zip":"2880815"},{"town":"三崎町二丁目","koaza":"","lat":35.715637,"lng":140.793149,"zip":"2880815"},{"town":"三崎町三丁目","koaza":"","lat":35.706925,"lng":140.782478,"zip":"2880815"},{"town":"港町","koaza":"","lat":35.7371,"lng":140.845977,"zip":"2880061"},{"town":"南小川町","koaza":"","lat":35.721382,"lng":140.837909,"zip":"2880033"},{"town":"南町","koaza":"","lat":35.728704,"lng":140.83887,"zip":"2880038"},{"town":"見晴台","koaza":"","lat":35.734984,"lng":140.790456,"zip":"2880000"},{"town":"三宅町一丁目","koaza":"","lat":35.742883,"lng":140.777211,"zip":"2880845"},{"town":"三宅町二丁目","koaza":"","lat":35.738328,"lng":140.772822,"zip":"2880845"},{"town":"三宅町三丁目","koaza":"","lat":35.729477,"lng":140.770465,"zip":"2880845"},{"town":"宮原町","koaza":"","lat":35.807692,"lng":140.714489,"zip":"2880877"},{"town":"妙見町","koaza":"","lat":35.726699,"lng":140.83017,"zip":"2880811"},{"town":"明神町一丁目","koaza":"","lat":35.734481,"lng":140.856855,"zip":"2880002"},{"town":"明神町二丁目","koaza":"","lat":35.736631,"lng":140.86016,"zip":"2880002"},{"town":"森戸町","koaza":"","lat":35.78264,"lng":140.718669,"zip":"2880872"},{"town":"諸持町","koaza":"","lat":35.798705,"lng":140.703558,"zip":"2880875"},{"town":"八木町","koaza":"","lat":35.714452,"lng":140.746288,"zip":"2880822"},{"town":"八幡町","koaza":"","lat":35.728931,"lng":140.817925,"zip":"2880803"},{"town":"弥生町一丁目","koaza":"","lat":35.734223,"lng":140.851323,"zip":"2880072"},{"town":"弥生町二丁目","koaza":"","lat":35.73487,"lng":140.85198,"zip":"2880072"},{"town":"四日市場台","koaza":"","lat":35.732819,"lng":140.76505,"zip":"2880843"},{"town":"四日市場町","koaza":"","lat":35.749907,"lng":140.786837,"zip":"2880841"},{"town":"余山町","koaza":"","lat":35.751041,"lng":140.776711,"zip":"2880846"},{"town":"若宮町","koaza":"","lat":35.733885,"lng":140.826623,"zip":"2880047"},{"town":"和田町","koaza":"","lat":35.73363,"lng":140.84449,"zip":"2880066"}]