[{"town":"市野々","koaza":"","lat":35.333204,"lng":140.240162,"zip":"2970144"},{"town":"今泉","koaza":"","lat":35.419237,"lng":140.241809,"zip":"2970103"},{"town":"岩川","koaza":"","lat":35.422003,"lng":140.2377,"zip":"2970101"},{"town":"岩撫","koaza":"","lat":35.370046,"lng":140.215228,"zip":"2970154"},{"town":"小沢","koaza":"","lat":35.36504,"lng":140.247029,"zip":"2970142"},{"town":"小生田","koaza":"","lat":35.353624,"lng":140.261767,"zip":"2970136"},{"town":"笠森","koaza":"","lat":35.398177,"lng":140.202399,"zip":"2970125"},{"town":"上小野田","koaza":"","lat":35.358034,"lng":140.254297,"zip":"2970137"},{"town":"給田","koaza":"","lat":35.374783,"lng":140.264868,"zip":"2970132"},{"town":"蔵持","koaza":"","lat":35.382634,"lng":140.216349,"zip":"2970123"},{"town":"坂本","koaza":"","lat":35.392419,"lng":140.256782,"zip":"2970122"},{"town":"佐坪","koaza":"","lat":35.357368,"lng":140.236325,"zip":"2970145"},{"town":"芝原","koaza":"","lat":35.366457,"lng":140.294215,"zip":"2970134"},{"town":"地引","koaza":"","lat":35.367158,"lng":140.272141,"zip":"2970135"},{"town":"下小野田","koaza":"","lat":35.371007,"lng":140.260185,"zip":"2970138"},{"town":"須田","koaza":"","lat":35.419469,"lng":140.258058,"zip":"2970111"},{"town":"関原","koaza":"","lat":35.411346,"lng":140.256048,"zip":"2970113"},{"town":"千手堂","koaza":"","lat":35.407731,"lng":140.246039,"zip":"2970114"},{"town":"千田","koaza":"","lat":35.405524,"lng":140.232664,"zip":"2970115"},{"town":"竹林","koaza":"","lat":35.374924,"lng":140.219519,"zip":"2970155"},{"town":"棚毛","koaza":"","lat":35.414512,"lng":140.220398,"zip":"2970105"},{"town":"長南","koaza":"","lat":35.393212,"lng":140.23254,"zip":"2970121"},{"town":"豊原","koaza":"","lat":35.378498,"lng":140.287965,"zip":"2970133"},{"town":"中原","koaza":"","lat":35.379581,"lng":140.259084,"zip":"2970131"},{"town":"深沢","koaza":"","lat":35.391391,"lng":140.206661,"zip":"2970124"},{"town":"報恩寺","koaza":"","lat":35.379167,"lng":140.245319,"zip":"2970141"},{"town":"又富","koaza":"","lat":35.407157,"lng":140.220198,"zip":"2970104"},{"town":"水沼","koaza":"","lat":35.363153,"lng":140.21975,"zip":"2970152"},{"town":"美原台","koaza":"","lat":35.363113,"lng":140.250525,"zip":"2970143"},{"town":"茗荷沢","koaza":"","lat":35.377868,"lng":140.229107,"zip":"2970151"},{"town":"本台","koaza":"","lat":35.421046,"lng":140.251198,"zip":"2970102"},{"town":"山内","koaza":"","lat":35.343785,"lng":140.220268,"zip":"2970153"},{"town":"米満","koaza":"","lat":35.414612,"lng":140.249873,"zip":"2970112"}]