[{"town":"上野","koaza":"","lat":35.475329,"lng":140.240351,"zip":"2970201"},{"town":"榎本","koaza":"","lat":35.432068,"lng":140.250025,"zip":"2970211"},{"town":"大津倉","koaza":"","lat":35.416559,"lng":140.199425,"zip":"2970223"},{"town":"大庭","koaza":"","lat":35.402114,"lng":140.194878,"zip":"2970222"},{"town":"刑部","koaza":"","lat":35.430963,"lng":140.184822,"zip":"2970225"},{"town":"金谷","koaza":"","lat":35.429512,"lng":140.201078,"zip":"2970226"},{"town":"国府里","koaza":"","lat":35.455056,"lng":140.24489,"zip":"2970203"},{"town":"小榎本","koaza":"","lat":35.429813,"lng":140.243506,"zip":"2970212"},{"town":"桜谷","koaza":"","lat":35.436433,"lng":140.226302,"zip":"2970218"},{"town":"皿木","koaza":"","lat":35.467298,"lng":140.197679,"zip":"2970235"},{"town":"高山","koaza":"","lat":35.409024,"lng":140.206766,"zip":"2970221"},{"town":"田代","koaza":"","lat":35.417014,"lng":140.189492,"zip":"2970224"},{"town":"立鳥","koaza":"","lat":35.429084,"lng":140.212954,"zip":"2970216"},{"town":"千代丸","koaza":"","lat":35.442835,"lng":140.23821,"zip":"2970205"},{"town":"鴇谷","koaza":"","lat":35.42233,"lng":140.221191,"zip":"2970215"},{"town":"徳増","koaza":"","lat":35.428449,"lng":140.23774,"zip":"2970213"},{"town":"長富","koaza":"","lat":35.428855,"lng":140.229353,"zip":"2970214"},{"town":"中野台","koaza":"","lat":35.464801,"lng":140.23272,"zip":"2970232"},{"town":"長柄山","koaza":"","lat":35.455453,"lng":140.1896,"zip":"2970234"},{"town":"針ケ谷","koaza":"","lat":35.434897,"lng":140.208456,"zip":"2970217"},{"town":"船木","koaza":"","lat":35.465766,"lng":140.239219,"zip":"2970207"},{"town":"味庄","koaza":"","lat":35.467731,"lng":140.248688,"zip":"2970202"},{"town":"山根","koaza":"","lat":35.449969,"lng":140.230433,"zip":"2970206"},{"town":"山之郷","koaza":"","lat":35.471696,"lng":140.219081,"zip":"2970231"},{"town":"力丸","koaza":"","lat":35.44302,"lng":140.244897,"zip":"2970204"},{"town":"六地蔵","koaza":"","lat":35.452285,"lng":140.210625,"zip":"2970233"}]