[{"town":"牛込","koaza":"","lat":35.465029,"lng":140.396996,"zip":"2994202"},{"town":"驚","koaza":"","lat":35.437538,"lng":140.371417,"zip":"2994214"},{"town":"北高根","koaza":"","lat":35.436259,"lng":140.354948,"zip":"2994217"},{"town":"北日当","koaza":"","lat":35.470555,"lng":140.367016,"zip":"2994206"},{"town":"五井","koaza":"","lat":35.451062,"lng":140.379351,"zip":"2994211"},{"town":"幸治","koaza":"","lat":35.425121,"lng":140.386699,"zip":"2994216"},{"town":"関","koaza":"","lat":35.450712,"lng":140.360771,"zip":"2994218"},{"town":"剃金","koaza":"","lat":35.459663,"lng":140.392838,"zip":"2994203"},{"town":"中里","koaza":"","lat":35.435892,"lng":140.382109,"zip":"2994215"},{"town":"八斗","koaza":"","lat":35.440586,"lng":140.384175,"zip":"2994213"},{"town":"浜宿","koaza":"","lat":35.47046,"lng":140.404105,"zip":"2994201"},{"town":"福島","koaza":"","lat":35.454787,"lng":140.351461,"zip":"2994204"},{"town":"古所","koaza":"","lat":35.448412,"lng":140.394404,"zip":"2994212"},{"town":"南日当","koaza":"","lat":35.4628,"lng":140.365111,"zip":"2994205"},{"town":"五井","koaza":"新屋敷","lat":35.447895,"lng":140.378078,"zip":"2994211"}]