[{"town":"入山津","koaza":"","lat":35.421323,"lng":140.375268,"zip":"2994321"},{"town":"岩沼","koaza":"","lat":35.40359,"lng":140.347771,"zip":"2994336"},{"town":"岩沼飛地","koaza":"","lat":35.420009,"lng":140.341531,"zip":"2994343"},{"town":"驚","koaza":"","lat":35.414364,"lng":140.381741,"zip":"2994322"},{"town":"驚飛地","koaza":"","lat":35.424881,"lng":140.366698,"zip":"2994300"},{"town":"金田","koaza":"","lat":35.38997,"lng":140.347616,"zip":"2994332"},{"town":"北高根飛地","koaza":"","lat":35.430641,"lng":140.368212,"zip":"2994300"},{"town":"北水口","koaza":"","lat":35.410055,"lng":140.339441,"zip":"2994337"},{"town":"小泉","koaza":"","lat":35.419831,"lng":140.369345,"zip":"2994347"},{"town":"曽根","koaza":"","lat":35.423017,"lng":140.345564,"zip":"2994344"},{"town":"中之郷","koaza":"","lat":35.431161,"lng":140.355072,"zip":"2994346"},{"town":"七井土","koaza":"","lat":35.396727,"lng":140.325305,"zip":"2994333"},{"town":"信友","koaza":"","lat":35.392206,"lng":140.357046,"zip":"2994331"},{"town":"一松乙","koaza":"","lat":35.390855,"lng":140.373975,"zip":"2994326"},{"town":"一松甲","koaza":"","lat":35.38708,"lng":140.391108,"zip":"2994328"},{"town":"一松丁","koaza":"","lat":35.407375,"lng":140.37962,"zip":"2994327"},{"town":"一松飛地甲","koaza":"","lat":35.419678,"lng":140.342895,"zip":"2994342"},{"town":"一松丙","koaza":"","lat":35.396962,"lng":140.377684,"zip":"2994325"},{"town":"一松戊","koaza":"","lat":35.413344,"lng":140.390304,"zip":"2994323"},{"town":"本郷","koaza":"","lat":35.417714,"lng":140.355115,"zip":"2994345"},{"town":"宮成","koaza":"","lat":35.405638,"lng":140.360395,"zip":"2994341"},{"town":"水口","koaza":"","lat":35.407425,"lng":140.336409,"zip":"2994335"},{"town":"六ツ野飛地","koaza":"","lat":35.416554,"lng":140.337892,"zip":"2994338"},{"town":"薮塚","koaza":"","lat":35.403792,"lng":140.331376,"zip":"2994334"},{"town":"七井土","koaza":"中割","lat":35.399074,"lng":140.324237,"zip":"2994333"}]