[{"town":"岩井","koaza":"","lat":35.35058,"lng":140.337982,"zip":"2994412"},{"town":"大上","koaza":"","lat":35.336887,"lng":140.289669,"zip":"2994423"},{"town":"大谷木","koaza":"","lat":35.372833,"lng":140.314629,"zip":"2994405"},{"town":"上市場","koaza":"","lat":35.37358,"lng":140.333378,"zip":"2994403"},{"town":"上之郷","koaza":"","lat":35.35087,"lng":140.310249,"zip":"2994413"},{"town":"川島","koaza":"","lat":35.38431,"lng":140.340771,"zip":"2994402"},{"town":"河須ケ谷","koaza":"","lat":35.363882,"lng":140.343171,"zip":"2994411"},{"town":"北山田","koaza":"","lat":35.376703,"lng":140.322725,"zip":"2994404"},{"town":"北山田寺崎新田","koaza":"","lat":35.385395,"lng":140.31623,"zip":"2994406"},{"town":"小滝","koaza":"","lat":35.360586,"lng":140.339404,"zip":"2994415"},{"town":"佐貫","koaza":"","lat":35.339952,"lng":140.264693,"zip":"2994425"},{"town":"下之郷","koaza":"","lat":35.355518,"lng":140.32525,"zip":"2994414"},{"town":"長楽寺","koaza":"","lat":35.358509,"lng":140.301406,"zip":"2994421"},{"town":"寺崎","koaza":"","lat":35.384002,"lng":140.328782,"zip":"2994401"},{"town":"妙楽寺","koaza":"","lat":35.329013,"lng":140.271958,"zip":"2994424"},{"town":"森","koaza":"","lat":35.358842,"lng":140.307642,"zip":"2994422"}]