[{"town":"相浜","koaza":"","lat":34.92409,"lng":139.8286,"zip":"2940235"},{"town":"安布里","koaza":"","lat":34.988026,"lng":139.878495,"zip":"2940043"},{"town":"安東","koaza":"","lat":34.995977,"lng":139.91978,"zip":"2940005"},{"town":"飯沼","koaza":"","lat":34.980005,"lng":139.884126,"zip":"2940016"},{"town":"出野尾","koaza":"","lat":34.962153,"lng":139.868585,"zip":"2940026"},{"town":"伊戸","koaza":"","lat":34.958793,"lng":139.776211,"zip":"2940314"},{"town":"稲","koaza":"","lat":34.991073,"lng":139.907958,"zip":"2940012"},{"town":"犬石","koaza":"","lat":34.932389,"lng":139.838734,"zip":"2940226"},{"town":"上野原","koaza":"","lat":34.996316,"lng":139.879308,"zip":"2940042"},{"town":"江田","koaza":"","lat":35.013162,"lng":139.909877,"zip":"2940009"},{"town":"大網","koaza":"","lat":34.984236,"lng":139.87498,"zip":"2940044"},{"town":"大井","koaza":"","lat":35.007509,"lng":139.934089,"zip":"2940002"},{"town":"大賀","koaza":"","lat":34.975018,"lng":139.828964,"zip":"2940031"},{"town":"大戸","koaza":"","lat":34.973096,"lng":139.875838,"zip":"2940025"},{"town":"岡田","koaza":"","lat":34.962537,"lng":139.862678,"zip":"2940024"},{"town":"加賀名","koaza":"","lat":34.965215,"lng":139.791448,"zip":"2940306"},{"town":"笠名","koaza":"","lat":34.973838,"lng":139.833559,"zip":"2940032"},{"town":"神余","koaza":"","lat":34.936224,"lng":139.872636,"zip":"2940023"},{"town":"上真倉","koaza":"","lat":34.971834,"lng":139.866551,"zip":"2940038"},{"town":"亀ケ原","koaza":"","lat":35.018455,"lng":139.880768,"zip":"2940052"},{"town":"川名","koaza":"","lat":35.030279,"lng":139.857289,"zip":"2940057"},{"town":"見物","koaza":"","lat":34.970178,"lng":139.795902,"zip":"2940305"},{"town":"香","koaza":"","lat":34.972697,"lng":139.821951,"zip":"2940301"},{"town":"国分","koaza":"","lat":34.99932,"lng":139.885786,"zip":"2940018"},{"town":"腰越","koaza":"","lat":35.003991,"lng":139.899091,"zip":"2940007"},{"town":"小沼","koaza":"","lat":34.958165,"lng":139.792754,"zip":"2940312"},{"town":"小原","koaza":"","lat":35.041454,"lng":139.871129,"zip":"2940058"},{"town":"古茂口","koaza":"","lat":34.977383,"lng":139.897474,"zip":"2940015"},{"town":"坂井","koaza":"","lat":34.955784,"lng":139.805896,"zip":"2940311"},{"town":"坂足","koaza":"","lat":34.956647,"lng":139.788823,"zip":"2940313"},{"town":"作名","koaza":"","lat":34.961457,"lng":139.888464,"zip":"2940029"},{"town":"佐野","koaza":"","lat":34.943435,"lng":139.849681,"zip":"2940225"},{"town":"塩見","koaza":"","lat":34.969998,"lng":139.811492,"zip":"2940302"},{"town":"下真倉","koaza":"","lat":34.979954,"lng":139.871462,"zip":"2940048"},{"town":"新宿","koaza":"","lat":34.98906,"lng":139.868537,"zip":"2940046"},{"town":"洲崎","koaza":"","lat":34.972314,"lng":139.75942,"zip":"2940316"},{"town":"洲宮","koaza":"","lat":34.949638,"lng":139.832684,"zip":"2940223"},{"town":"薗","koaza":"","lat":35.003621,"lng":139.91843,"zip":"2940006"},{"town":"大神宮","koaza":"","lat":34.919747,"lng":139.844728,"zip":"2940233"},{"town":"高井","koaza":"","lat":35.005924,"lng":139.878879,"zip":"2940041"},{"town":"竹原","koaza":"","lat":35.015795,"lng":139.924837,"zip":"2940001"},{"town":"館山","koaza":"","lat":34.984057,"lng":139.855526,"zip":"2940036"},{"town":"中里","koaza":"","lat":34.928102,"lng":139.842139,"zip":"2940231"},{"town":"長須賀","koaza":"","lat":34.986086,"lng":139.865795,"zip":"2940037"},{"town":"那古","koaza":"","lat":35.022351,"lng":139.860133,"zip":"2940055"},{"town":"南条","koaza":"","lat":34.978338,"lng":139.87838,"zip":"2940017"},{"town":"西川名","koaza":"","lat":34.963472,"lng":139.762927,"zip":"2940315"},{"town":"西長田","koaza":"","lat":34.959688,"lng":139.877969,"zip":"2940027"},{"town":"沼","koaza":"","lat":34.974289,"lng":139.851067,"zip":"2940034"},{"town":"波左間","koaza":"","lat":34.968706,"lng":139.783471,"zip":"2940307"},{"town":"畑","koaza":"","lat":34.937138,"lng":139.91023,"zip":"2940022"},{"town":"浜田","koaza":"","lat":34.970751,"lng":139.805353,"zip":"2940303"},{"town":"早物","koaza":"","lat":34.968405,"lng":139.801415,"zip":"2940304"},{"town":"坂田","koaza":"","lat":34.969818,"lng":139.771873,"zip":"2940308"},{"town":"東長田","koaza":"","lat":34.959373,"lng":139.883906,"zip":"2940028"},{"town":"広瀬","koaza":"","lat":35.007193,"lng":139.904849,"zip":"2940008"},{"town":"富士見","koaza":"","lat":34.986837,"lng":139.834052,"zip":"2940035"},{"town":"藤原","koaza":"","lat":34.947725,"lng":139.840263,"zip":"2940224"},{"town":"二子","koaza":"","lat":34.996918,"lng":139.914069,"zip":"2940011"},{"town":"船形","koaza":"","lat":35.028463,"lng":139.847494,"zip":"2940056"},{"town":"宝貝","koaza":"","lat":34.985646,"lng":139.917567,"zip":"2940013"},{"town":"北条","koaza":"","lat":34.994923,"lng":139.866575,"zip":"2940045"},{"town":"北条正木","koaza":"","lat":35.010894,"lng":139.874066,"zip":"2940053"},{"town":"正木","koaza":"","lat":35.026155,"lng":139.876643,"zip":"2940051"},{"town":"水岡","koaza":"","lat":34.99151,"lng":139.925602,"zip":"2940004"},{"town":"水玉","koaza":"","lat":35.005068,"lng":139.921842,"zip":"2940003"},{"town":"湊","koaza":"","lat":35.007738,"lng":139.87054,"zip":"2940054"},{"town":"宮城","koaza":"","lat":34.97425,"lng":139.839947,"zip":"2940033"},{"town":"布沼","koaza":"","lat":34.953493,"lng":139.823456,"zip":"2940221"},{"town":"布良","koaza":"","lat":34.91678,"lng":139.828612,"zip":"2940234"},{"town":"茂名","koaza":"","lat":34.958862,"lng":139.839771,"zip":"2940222"},{"town":"山本","koaza":"","lat":34.989878,"lng":139.893207,"zip":"2940014"},{"town":"山荻","koaza":"","lat":34.963218,"lng":139.896891,"zip":"2940021"},{"town":"八幡","koaza":"","lat":35.003668,"lng":139.863847,"zip":"2940047"},{"town":"竜岡","koaza":"","lat":34.930067,"lng":139.857306,"zip":"2940232"},{"town":"犬石","koaza":"蒲生下","lat":34.928684,"lng":139.837639,"zip":"2940226"},{"town":"八幡","koaza":"小松原","lat":35.008,"lng":139.861437,"zip":"2940047"},{"town":"正木","koaza":"三貫目","lat":35.017782,"lng":139.870037,"zip":"2940051"},{"town":"下真倉","koaza":"舞台","lat":34.979287,"lng":139.870796,"zip":"2940048"}]