[{"town":"今","koaza":"","lat":35.903725,"lng":140.423934,"zip":"2890205"},{"town":"植房","koaza":"","lat":35.880852,"lng":140.401605,"zip":"2890216"},{"town":"大貫","koaza":"","lat":35.890478,"lng":140.422434,"zip":"2890203"},{"town":"毛成","koaza":"","lat":35.866841,"lng":140.430072,"zip":"2890214"},{"town":"神崎神宿","koaza":"","lat":35.901342,"lng":140.392468,"zip":"2890226"},{"town":"神崎本宿","koaza":"","lat":35.905257,"lng":140.402132,"zip":"2890221"},{"town":"高谷","koaza":"","lat":35.906428,"lng":140.433097,"zip":"2890201"},{"town":"郡","koaza":"","lat":35.894666,"lng":140.413801,"zip":"2890202"},{"town":"古原","koaza":"","lat":35.866184,"lng":140.408759,"zip":"2890215"},{"town":"小松","koaza":"","lat":35.891745,"lng":140.39044,"zip":"2890223"},{"town":"四季の丘","koaza":"","lat":35.888684,"lng":140.413878,"zip":"2890204"},{"town":"十三間戸","koaza":"","lat":35.902438,"lng":140.382243,"zip":"2890225"},{"town":"新","koaza":"","lat":35.880929,"lng":140.424528,"zip":"2890213"},{"town":"武田","koaza":"","lat":35.877474,"lng":140.414737,"zip":"2890212"},{"town":"立野","koaza":"","lat":35.883642,"lng":140.412461,"zip":"2890211"},{"town":"並木","koaza":"","lat":35.893707,"lng":140.401933,"zip":"2890222"},{"town":"藤の台","koaza":"","lat":35.888338,"lng":140.410953,"zip":"2890217"},{"town":"松崎","koaza":"","lat":35.897219,"lng":140.381918,"zip":"2890224"}]