[{"town":"粟野","koaza":"","lat":35.79578,"lng":140.670594,"zip":"2890627"},{"town":"石出","koaza":"","lat":35.820465,"lng":140.707452,"zip":"2890612"},{"town":"今郡","koaza":"","lat":35.815994,"lng":140.686881,"zip":"2890619"},{"town":"青馬","koaza":"","lat":35.810806,"lng":140.674268,"zip":"2890615"},{"town":"大久保","koaza":"","lat":35.797404,"lng":140.646534,"zip":"2890633"},{"town":"大友","koaza":"","lat":35.800414,"lng":140.658139,"zip":"2890621"},{"town":"小座","koaza":"","lat":35.799185,"lng":140.665786,"zip":"2890622"},{"town":"神田","koaza":"","lat":35.793758,"lng":140.634008,"zip":"2890635"},{"town":"窪野谷","koaza":"","lat":35.809826,"lng":140.655979,"zip":"2890632"},{"town":"小貝野","koaza":"","lat":35.806182,"lng":140.638299,"zip":"2890637"},{"town":"小南","koaza":"","lat":35.787255,"lng":140.682971,"zip":"2890624"},{"town":"笹川い","koaza":"","lat":35.839376,"lng":140.668144,"zip":"2890601"},{"town":"笹川ろ","koaza":"","lat":35.833054,"lng":140.679758,"zip":"2890602"},{"town":"高部","koaza":"","lat":35.820369,"lng":140.663263,"zip":"2890616"},{"town":"東和田","koaza":"","lat":35.794904,"lng":140.641345,"zip":"2890636"},{"town":"夏目","koaza":"","lat":35.776297,"lng":140.671305,"zip":"2890625"},{"town":"新宿","koaza":"","lat":35.833526,"lng":140.697531,"zip":"2890611"},{"town":"羽計","koaza":"","lat":35.82547,"lng":140.683234,"zip":"2890617"},{"town":"東今泉","koaza":"","lat":35.811476,"lng":140.705381,"zip":"2890613"},{"town":"平山","koaza":"","lat":35.820624,"lng":140.649821,"zip":"2890631"},{"town":"舟戸","koaza":"","lat":35.789366,"lng":140.647349,"zip":"2890634"},{"town":"宮野台","koaza":"","lat":35.798184,"lng":140.685492,"zip":"2890623"},{"town":"宮本","koaza":"","lat":35.803855,"lng":140.686443,"zip":"2890614"},{"town":"八重穂","koaza":"","lat":35.787083,"lng":140.660291,"zip":"2890626"},{"town":"谷津","koaza":"","lat":35.820791,"lng":140.686363,"zip":"2890618"},{"town":"新宿","koaza":"畑ヶ合","lat":35.831791,"lng":140.691089,"zip":"2890611"}]