[{"town":"阿玉川","koaza":"","lat":35.852291,"lng":140.632257,"zip":"2890321"},{"town":"阿玉台","koaza":"","lat":35.812082,"lng":140.622024,"zip":"2890326"},{"town":"油田","koaza":"","lat":35.834118,"lng":140.546276,"zip":"2890346"},{"town":"荒北","koaza":"","lat":35.816004,"lng":140.487789,"zip":"2870106"},{"town":"飯島","koaza":"","lat":35.912178,"lng":140.47471,"zip":"2870056"},{"town":"和泉","koaza":"","lat":35.824557,"lng":140.634675,"zip":"2890324"},{"town":"磯山","koaza":"","lat":35.921505,"lng":140.548134,"zip":"2870803"},{"town":"一ノ分目","koaza":"","lat":35.884632,"lng":140.577345,"zip":"2890301"},{"town":"伊地山","koaza":"","lat":35.828017,"lng":140.487718,"zip":"2870023"},{"town":"市和田","koaza":"","lat":35.917436,"lng":140.567021,"zip":"2870804"},{"town":"入会地","koaza":"","lat":35.838823,"lng":140.612914,"zip":"2890333"},{"town":"岩ケ崎台","koaza":"","lat":35.896798,"lng":140.483523,"zip":"2870004"},{"town":"岩部","koaza":"","lat":35.816744,"lng":140.507194,"zip":"2870102"},{"town":"内野","koaza":"","lat":35.847243,"lng":140.558543,"zip":"2890349"},{"town":"扇島","koaza":"","lat":35.934173,"lng":140.531228,"zip":"2870801"},{"town":"大倉","koaza":"","lat":35.888188,"lng":140.557551,"zip":"2870013"},{"town":"大倉丁子","koaza":"","lat":35.896898,"lng":140.543759,"zip":"2870012"},{"town":"大崎","koaza":"","lat":35.85909,"lng":140.479454,"zip":"2870035"},{"town":"大島","koaza":"","lat":35.953227,"lng":140.509983,"zip":"2870811"},{"town":"大戸","koaza":"","lat":35.887761,"lng":140.459599,"zip":"2870043"},{"town":"大角","koaza":"","lat":35.78871,"lng":140.55256,"zip":"2890425"},{"town":"大戸川","koaza":"","lat":35.897349,"lng":140.452383,"zip":"2870054"},{"town":"大戸新田","koaza":"","lat":35.912197,"lng":140.449589,"zip":"2870053"},{"town":"大根","koaza":"","lat":35.85975,"lng":140.502585,"zip":"2870026"},{"town":"岡飯田","koaza":"","lat":35.828994,"lng":140.641878,"zip":"2890323"},{"town":"小川","koaza":"","lat":35.763051,"lng":140.559733,"zip":"2890423"},{"town":"小見","koaza":"","lat":35.831204,"lng":140.590148,"zip":"2890402"},{"town":"小見川","koaza":"","lat":35.858914,"lng":140.613148,"zip":"2890313"},{"town":"織幡","koaza":"","lat":35.849539,"lng":140.541247,"zip":"2890348"},{"town":"貝塚","koaza":"","lat":35.810959,"lng":140.634144,"zip":"2890325"},{"town":"片野","koaza":"","lat":35.873642,"lng":140.455133,"zip":"2870044"},{"town":"加藤洲","koaza":"","lat":35.929334,"lng":140.549859,"zip":"2870802"},{"town":"香取","koaza":"","lat":35.885853,"lng":140.523883,"zip":"2870017"},{"town":"釜塚","koaza":"","lat":35.876823,"lng":140.515405,"zip":"2870032"},{"town":"上小川","koaza":"","lat":35.880947,"lng":140.449156,"zip":"2870046"},{"town":"上小堀","koaza":"","lat":35.859821,"lng":140.568759,"zip":"2890306"},{"town":"返田","koaza":"","lat":35.860327,"lng":140.514781,"zip":"2870027"},{"town":"苅毛","koaza":"","lat":35.803114,"lng":140.496953,"zip":"2870104"},{"town":"川頭","koaza":"","lat":35.838016,"lng":140.622013,"zip":"2890334"},{"town":"川上","koaza":"","lat":35.83135,"lng":140.598564,"zip":"2890403"},{"town":"川尻","koaza":"","lat":35.910651,"lng":140.438653,"zip":"2870067"},{"town":"観音","koaza":"","lat":35.861344,"lng":140.47277,"zip":"2870036"},{"town":"神生","koaza":"","lat":35.820934,"lng":140.55863,"zip":"2890408"},{"town":"北一丁目","koaza":"","lat":35.898993,"lng":140.491758,"zip":"2870002"},{"town":"北二丁目","koaza":"","lat":35.897789,"lng":140.493869,"zip":"2870002"},{"town":"北三丁目","koaza":"","lat":35.896708,"lng":140.496678,"zip":"2870002"},{"town":"北原地新田","koaza":"","lat":35.836629,"lng":140.616273,"zip":"2890335"},{"town":"木内","koaza":"","lat":35.847274,"lng":140.578823,"zip":"2890337"},{"town":"木内虫幡上小堀入会地大平","koaza":"","lat":35.863172,"lng":140.554546,"zip":"2890308"},{"town":"桐谷","koaza":"","lat":35.773762,"lng":140.580206,"zip":"2890422"},{"town":"久保","koaza":"","lat":35.81851,"lng":140.617208,"zip":"2890327"},{"town":"九美上","koaza":"","lat":35.836233,"lng":140.5216,"zip":"2870022"},{"town":"笄島","koaza":"","lat":35.926706,"lng":140.492356,"zip":"2870823"},{"town":"公官洲","koaza":"","lat":35.913138,"lng":140.566256,"zip":"2870805"},{"town":"高野","koaza":"","lat":35.830277,"lng":140.608706,"zip":"2890404"},{"town":"石納","koaza":"","lat":35.916313,"lng":140.461618,"zip":"2870826"},{"town":"五郷内","koaza":"","lat":35.826074,"lng":140.620929,"zip":"2890328"},{"town":"米野井","koaza":"","lat":35.828786,"lng":140.580681,"zip":"2890401"},{"town":"境島","koaza":"","lat":35.947507,"lng":140.521953,"zip":"2870813"},{"town":"沢","koaza":"","lat":35.806967,"lng":140.469267,"zip":"2870105"},{"town":"佐原イ","koaza":"","lat":35.892797,"lng":140.498674,"zip":"2870003"},{"town":"佐原ニ","koaza":"","lat":35.914936,"lng":140.500031,"zip":"2870822"},{"town":"佐原ハ","koaza":"","lat":35.925809,"lng":140.526907,"zip":"2870816"},{"town":"佐原ホ","koaza":"","lat":35.900952,"lng":140.484243,"zip":"2870005"},{"town":"佐原ロ","koaza":"","lat":35.903486,"lng":140.497763,"zip":"2870001"},{"town":"三ノ分目","koaza":"","lat":35.879881,"lng":140.584888,"zip":"2890302"},{"town":"志高","koaza":"","lat":35.787431,"lng":140.620438,"zip":"2890413"},{"town":"篠原イ","koaza":"","lat":35.894961,"lng":140.516748,"zip":"2870006"},{"town":"篠原ロ","koaza":"","lat":35.911325,"lng":140.518779,"zip":"2870821"},{"town":"下飯田","koaza":"","lat":35.83896,"lng":140.636653,"zip":"2890322"},{"town":"下小川","koaza":"","lat":35.844005,"lng":140.589327,"zip":"2890338"},{"town":"下小野","koaza":"","lat":35.850755,"lng":140.527948,"zip":"2870021"},{"town":"下小堀","koaza":"","lat":35.87438,"lng":140.609273,"zip":"2890304"},{"town":"昭和町い","koaza":"","lat":35.912148,"lng":140.467817,"zip":"2870000"},{"town":"昭和町に","koaza":"","lat":35.904956,"lng":140.440826,"zip":"2870000"},{"town":"昭和町は","koaza":"","lat":35.905505,"lng":140.450094,"zip":"2870000"},{"town":"昭和町ろ","koaza":"","lat":35.911041,"lng":140.456714,"zip":"2870000"},{"town":"白井","koaza":"","lat":35.833984,"lng":140.569259,"zip":"2890344"},{"town":"新々田","koaza":"","lat":35.836572,"lng":140.608031,"zip":"2890336"},{"town":"助沢","koaza":"","lat":35.827078,"lng":140.503136,"zip":"2870107"},{"town":"関","koaza":"","lat":35.870979,"lng":140.444569,"zip":"2870045"},{"town":"高萩","koaza":"","lat":35.816843,"lng":140.534533,"zip":"2870101"},{"town":"竹之内","koaza":"","lat":35.824373,"lng":140.598684,"zip":"2890405"},{"town":"多田","koaza":"","lat":35.871858,"lng":140.541195,"zip":"2870014"},{"town":"田部","koaza":"","lat":35.816265,"lng":140.593175,"zip":"2890406"},{"town":"玉造","koaza":"","lat":35.892025,"lng":140.476757,"zip":"2870041"},{"town":"玉造一丁目","koaza":"","lat":35.892242,"lng":140.483572,"zip":"2870041"},{"town":"玉造二丁目","koaza":"","lat":35.88919,"lng":140.48353,"zip":"2870041"},{"town":"玉造三丁目","koaza":"","lat":35.886711,"lng":140.480831,"zip":"2870041"},{"town":"附洲新田","koaza":"","lat":35.905997,"lng":140.584405,"zip":"2870806"},{"town":"津宮","koaza":"","lat":35.909169,"lng":140.537995,"zip":"2870011"},{"town":"寺内","koaza":"","lat":35.886284,"lng":140.438087,"zip":"2870062"},{"town":"鴇崎","koaza":"","lat":35.878768,"lng":140.44061,"zip":"2870047"},{"town":"鳥羽","koaza":"","lat":35.862287,"lng":140.46532,"zip":"2870038"},{"town":"富田","koaza":"","lat":35.880742,"lng":140.598984,"zip":"2890303"},{"town":"長岡","koaza":"","lat":35.798316,"lng":140.586497,"zip":"2890414"},{"town":"長島","koaza":"","lat":35.926112,"lng":140.502521,"zip":"2870824"},{"town":"中洲","koaza":"","lat":35.920912,"lng":140.522134,"zip":"2870814"},{"town":"長山","koaza":"","lat":35.859591,"lng":140.490892,"zip":"2870034"},{"town":"新市場","koaza":"","lat":35.874763,"lng":140.521406,"zip":"2870016"},{"town":"新寺","koaza":"","lat":35.896771,"lng":140.475423,"zip":"2870051"},{"town":"西坂","koaza":"","lat":35.881574,"lng":140.436023,"zip":"2870063"},{"town":"西田部","koaza":"","lat":35.793391,"lng":140.509956,"zip":"2870103"},{"town":"西部田","koaza":"","lat":35.888859,"lng":140.427084,"zip":"2870065"},{"town":"西和田","koaza":"","lat":35.875553,"lng":140.430807,"zip":"2870048"},{"town":"新里","koaza":"","lat":35.78351,"lng":140.565415,"zip":"2890424"},{"town":"新部","koaza":"","lat":35.882583,"lng":140.514103,"zip":"2870031"},{"town":"仁良","koaza":"","lat":35.806301,"lng":140.570327,"zip":"2890407"},{"town":"野田","koaza":"","lat":35.85423,"lng":140.593618,"zip":"2890314"},{"town":"野間谷原","koaza":"","lat":35.922929,"lng":140.457443,"zip":"2870825"},{"town":"旗鉾","koaza":"","lat":35.847753,"lng":140.549402,"zip":"2890347"},{"town":"八本","koaza":"","lat":35.826098,"lng":140.570088,"zip":"2890345"},{"town":"鳩山","koaza":"","lat":35.785639,"lng":140.584019,"zip":"2890421"},{"town":"羽根川","koaza":"","lat":35.845591,"lng":140.599822,"zip":"2890331"},{"town":"福田","koaza":"","lat":35.83058,"lng":140.477192,"zip":"2870024"},{"town":"布野","koaza":"","lat":35.834036,"lng":140.626926,"zip":"2890329"},{"town":"府馬","koaza":"","lat":35.79424,"lng":140.602928,"zip":"2890411"},{"town":"古内","koaza":"","lat":35.791708,"lng":140.614733,"zip":"2890412"},{"town":"堀之内","koaza":"","lat":35.893787,"lng":140.434211,"zip":"2870066"},{"town":"本郷","koaza":"","lat":35.849233,"lng":140.587499,"zip":"2890312"},{"town":"牧野","koaza":"","lat":35.879178,"lng":140.496263,"zip":"2870033"},{"town":"増田","koaza":"","lat":35.867576,"lng":140.57702,"zip":"2890307"},{"town":"三島","koaza":"","lat":35.945494,"lng":140.517259,"zip":"2870812"},{"town":"みずほ台一丁目","koaza":"","lat":35.886157,"lng":140.433313,"zip":"2870064"},{"town":"みずほ台二丁目","koaza":"","lat":35.886185,"lng":140.430792,"zip":"2870064"},{"town":"みずほ台三丁目","koaza":"","lat":35.882733,"lng":140.432316,"zip":"2870064"},{"town":"南原地新田","koaza":"","lat":35.83821,"lng":140.601038,"zip":"2890332"},{"town":"虫幡","koaza":"","lat":35.849036,"lng":140.567487,"zip":"2890341"},{"town":"本矢作","koaza":"","lat":35.847445,"lng":140.487786,"zip":"2870025"},{"town":"森戸","koaza":"","lat":35.901028,"lng":140.469141,"zip":"2870052"},{"town":"八筋川","koaza":"","lat":35.942258,"lng":140.505285,"zip":"2870815"},{"town":"谷中","koaza":"","lat":35.893161,"lng":140.447012,"zip":"2870061"},{"town":"山川","koaza":"","lat":35.837899,"lng":140.570374,"zip":"2890343"},{"town":"山倉","koaza":"","lat":35.79008,"lng":140.53092,"zip":"2890426"},{"town":"山之辺","koaza":"","lat":35.886422,"lng":140.471196,"zip":"2870042"},{"town":"八日市場","koaza":"","lat":35.862497,"lng":140.602314,"zip":"2890311"},{"town":"丁子","koaza":"","lat":35.885948,"lng":140.539027,"zip":"2870018"},{"town":"与倉","koaza":"","lat":35.875973,"lng":140.47905,"zip":"2870037"},{"town":"吉原","koaza":"","lat":35.877395,"lng":140.536381,"zip":"2870015"},{"town":"龍谷","koaza":"","lat":35.839011,"lng":140.562743,"zip":"2870000"},{"town":"分郷","koaza":"","lat":35.862259,"lng":140.595739,"zip":"2890305"},{"town":"八筋川","koaza":"甲","lat":35.950717,"lng":140.505742,"zip":"2870815"},{"town":"一ノ分目","koaza":"番外","lat":35.899017,"lng":140.58553,"zip":"2890301"}]