[{"town":"飯笹","koaza":"","lat":35.763052,"lng":140.445118,"zip":"2892231"},{"town":"出沼","koaza":"","lat":35.787357,"lng":140.470898,"zip":"2892301"},{"town":"井戸山","koaza":"","lat":35.755417,"lng":140.467447,"zip":"2892317"},{"town":"牛尾","koaza":"","lat":35.701859,"lng":140.461796,"zip":"2892245"},{"town":"大門","koaza":"","lat":35.775817,"lng":140.468791,"zip":"2892303"},{"town":"大高","koaza":"","lat":35.773882,"lng":140.455329,"zip":"2892305"},{"town":"川島","koaza":"","lat":35.767332,"lng":140.522217,"zip":"2892324"},{"town":"喜多","koaza":"","lat":35.739737,"lng":140.44646,"zip":"2892232"},{"town":"喜多井野","koaza":"","lat":35.749433,"lng":140.447046,"zip":"2892200"},{"town":"喜多大原","koaza":"","lat":35.744798,"lng":140.440364,"zip":"2892200"},{"town":"北中","koaza":"","lat":35.755789,"lng":140.492911,"zip":"2892251"},{"town":"御所台","koaza":"","lat":35.760302,"lng":140.480991,"zip":"2892315"},{"town":"五反田","koaza":"","lat":35.732635,"lng":140.440849,"zip":"2892234"},{"town":"坂","koaza":"","lat":35.763497,"lng":140.540871,"zip":"2892322"},{"town":"谷三倉","koaza":"","lat":35.786981,"lng":140.497178,"zip":"2892312"},{"town":"島","koaza":"","lat":35.720352,"lng":140.469977,"zip":"2892243"},{"town":"染井","koaza":"","lat":35.743336,"lng":140.458143,"zip":"2892242"},{"town":"高津原","koaza":"","lat":35.766384,"lng":140.465803,"zip":"2892304"},{"town":"多古","koaza":"","lat":35.738661,"lng":140.468382,"zip":"2892241"},{"town":"千田","koaza":"","lat":35.71513,"lng":140.444903,"zip":"2892246"},{"town":"次浦","koaza":"","lat":35.777461,"lng":140.485062,"zip":"2892313"},{"town":"寺作","koaza":"","lat":35.758261,"lng":140.474755,"zip":"2892316"},{"town":"東輝","koaza":"","lat":35.737724,"lng":140.500558,"zip":"2892254"},{"town":"十余三","koaza":"","lat":35.794211,"lng":140.452224,"zip":"2892306"},{"town":"中村新田","koaza":"","lat":35.728408,"lng":140.478864,"zip":"2892256"},{"town":"西古内","koaza":"","lat":35.767967,"lng":140.482477,"zip":"2892314"},{"town":"林","koaza":"","lat":35.726277,"lng":140.443502,"zip":"2892233"},{"town":"東松崎","koaza":"","lat":35.772195,"lng":140.52991,"zip":"2892321"},{"town":"一鍬田","koaza":"","lat":35.778301,"lng":140.409996,"zip":"2820031"},{"town":"桧木","koaza":"","lat":35.784488,"lng":140.462738,"zip":"2892302"},{"town":"船越","koaza":"","lat":35.711252,"lng":140.464862,"zip":"2892244"},{"town":"方田","koaza":"","lat":35.759811,"lng":140.524629,"zip":"2892323"},{"town":"間倉","koaza":"","lat":35.760377,"lng":140.429091,"zip":"2892235"},{"town":"水戸","koaza":"","lat":35.722128,"lng":140.450279,"zip":"2892247"},{"town":"南借当","koaza":"","lat":35.740327,"lng":140.498163,"zip":"2892253"},{"town":"南玉造","koaza":"","lat":35.771514,"lng":140.50522,"zip":"2892325"},{"town":"南中","koaza":"","lat":35.736692,"lng":140.486808,"zip":"2892257"},{"town":"南並木","koaza":"","lat":35.727713,"lng":140.48711,"zip":"2892255"},{"town":"南和田","koaza":"","lat":35.74425,"lng":140.499175,"zip":"2892252"},{"town":"本三倉","koaza":"","lat":35.795129,"lng":140.489628,"zip":"2892311"},{"town":"本三倉谷三倉入会","koaza":"","lat":35.788244,"lng":140.485242,"zip":"2892200"},{"town":"飯笹","koaza":"向台","lat":35.757732,"lng":140.451877,"zip":"2892231"},{"town":"多古","koaza":"辺田沼","lat":35.728064,"lng":140.463378,"zip":"2892241"}]