[{"town":"天津","koaza":"","lat":35.141486,"lng":140.161968,"zip":"2995503"},{"town":"天面","koaza":"","lat":35.075747,"lng":140.076616,"zip":"2992864"},{"town":"粟斗","koaza":"","lat":35.14072,"lng":140.094156,"zip":"2960031"},{"town":"池田","koaza":"","lat":35.137327,"lng":140.058215,"zip":"2960024"},{"town":"和泉","koaza":"","lat":35.148556,"lng":140.106043,"zip":"2960045"},{"town":"磯村","koaza":"","lat":35.093168,"lng":140.105724,"zip":"2960003"},{"town":"内浦","koaza":"","lat":35.145297,"lng":140.199704,"zip":"2995502"},{"town":"打墨","koaza":"","lat":35.145271,"lng":140.077955,"zip":"2960035"},{"town":"江見青木","koaza":"","lat":35.063042,"lng":140.067765,"zip":"2992842"},{"town":"江見内遠野","koaza":"","lat":35.065185,"lng":140.046738,"zip":"2992847"},{"town":"江見外堀","koaza":"","lat":35.055129,"lng":140.038096,"zip":"2992846"},{"town":"江見太夫崎","koaza":"","lat":35.065232,"lng":140.078392,"zip":"2992865"},{"town":"江見西真門","koaza":"","lat":35.055425,"lng":140.042531,"zip":"2992845"},{"town":"江見東真門","koaza":"","lat":35.059847,"lng":140.039937,"zip":"2992844"},{"town":"江見吉浦","koaza":"","lat":35.061715,"lng":140.073588,"zip":"2992866"},{"town":"大川面","koaza":"","lat":35.143648,"lng":140.016625,"zip":"2960121"},{"town":"大幡","koaza":"","lat":35.142331,"lng":139.994478,"zip":"2960124"},{"town":"大山平塚","koaza":"","lat":35.114668,"lng":139.970816,"zip":"2960237"},{"town":"押切","koaza":"","lat":35.124044,"lng":140.057889,"zip":"2960023"},{"town":"太田学","koaza":"","lat":35.148787,"lng":140.064209,"zip":"2960025"},{"town":"貝渚","koaza":"","lat":35.097794,"lng":140.091793,"zip":"2960004"},{"town":"釜沼","koaza":"","lat":35.138392,"lng":139.985686,"zip":"2960231"},{"town":"上","koaza":"","lat":35.094997,"lng":140.048156,"zip":"2992858"},{"town":"上小原","koaza":"","lat":35.117724,"lng":140.040271,"zip":"2960103"},{"town":"川代","koaza":"","lat":35.111806,"lng":140.063336,"zip":"2960015"},{"town":"北小町","koaza":"","lat":35.140337,"lng":140.047052,"zip":"2960101"},{"town":"京田","koaza":"","lat":35.1308,"lng":140.067176,"zip":"2960022"},{"town":"清澄","koaza":"","lat":35.162089,"lng":140.153262,"zip":"2995505"},{"town":"金束","koaza":"","lat":35.144921,"lng":139.948471,"zip":"2960233"},{"town":"古畑","koaza":"","lat":35.144661,"lng":139.970889,"zip":"2960234"},{"town":"小湊","koaza":"","lat":35.116816,"lng":140.202993,"zip":"2995501"},{"town":"佐野","koaza":"","lat":35.144855,"lng":139.981249,"zip":"2960236"},{"town":"下小原","koaza":"","lat":35.116568,"lng":140.054919,"zip":"2960102"},{"town":"主基西","koaza":"","lat":35.111412,"lng":140.049109,"zip":"2960106"},{"town":"代","koaza":"","lat":35.087273,"lng":140.068254,"zip":"2992854"},{"town":"大里","koaza":"","lat":35.111731,"lng":140.083212,"zip":"2960011"},{"town":"竹平","koaza":"","lat":35.126219,"lng":140.070616,"zip":"2960021"},{"town":"田原西","koaza":"","lat":35.103356,"lng":140.066305,"zip":"2960013"},{"town":"寺門","koaza":"","lat":35.13578,"lng":140.005064,"zip":"2960122"},{"town":"仲","koaza":"","lat":35.131218,"lng":140.026094,"zip":"2960111"},{"town":"仲町","koaza":"","lat":35.092651,"lng":140.058933,"zip":"2992851"},{"town":"北風原","koaza":"","lat":35.137908,"lng":139.99992,"zip":"2960123"},{"town":"奈良林","koaza":"","lat":35.142836,"lng":139.97653,"zip":"2960235"},{"town":"成川","koaza":"","lat":35.146073,"lng":140.031118,"zip":"2960105"},{"town":"西","koaza":"","lat":35.098465,"lng":140.012072,"zip":"2992856"},{"town":"西江見","koaza":"","lat":35.064963,"lng":140.056851,"zip":"2992841"},{"town":"西町","koaza":"","lat":35.126918,"lng":140.115341,"zip":"2960043"},{"town":"西山","koaza":"","lat":35.076686,"lng":140.057172,"zip":"2992867"},{"town":"滑谷","koaza":"","lat":35.111376,"lng":140.089794,"zip":"2960034"},{"town":"畑","koaza":"","lat":35.087811,"lng":140.033364,"zip":"2992855"},{"town":"花房","koaza":"","lat":35.124789,"lng":140.093299,"zip":"2960032"},{"town":"浜荻","koaza":"","lat":35.124135,"lng":140.141874,"zip":"2995504"},{"town":"坂東","koaza":"","lat":35.122266,"lng":140.068772,"zip":"2960016"},{"town":"東","koaza":"","lat":35.100498,"lng":140.037018,"zip":"2992857"},{"town":"東江見","koaza":"","lat":35.065723,"lng":140.06275,"zip":"2992843"},{"town":"東町","koaza":"","lat":35.141241,"lng":140.130518,"zip":"2960041"},{"town":"平塚","koaza":"","lat":35.127762,"lng":139.955356,"zip":"2960232"},{"town":"広場","koaza":"","lat":35.116901,"lng":140.106203,"zip":"2960044"},{"town":"二子","koaza":"","lat":35.097821,"lng":140.06813,"zip":"2992852"},{"town":"太尾","koaza":"","lat":35.11449,"lng":140.075878,"zip":"2960014"},{"town":"太海","koaza":"","lat":35.085013,"lng":140.090655,"zip":"2992862"},{"town":"太海西","koaza":"","lat":35.089381,"lng":140.096398,"zip":"2992861"},{"town":"太海浜","koaza":"","lat":35.077078,"lng":140.095721,"zip":"2992863"},{"town":"細野","koaza":"","lat":35.125027,"lng":139.998404,"zip":"2960114"},{"town":"前原","koaza":"","lat":35.101496,"lng":140.10378,"zip":"2960002"},{"town":"松尾寺","koaza":"","lat":35.129723,"lng":140.008952,"zip":"2960115"},{"town":"南小町","koaza":"","lat":35.123032,"lng":140.02622,"zip":"2960104"},{"town":"宮","koaza":"","lat":35.088996,"lng":140.079503,"zip":"2992853"},{"town":"宮山","koaza":"","lat":35.119974,"lng":140.006571,"zip":"2960112"},{"town":"八色","koaza":"","lat":35.116877,"lng":140.092815,"zip":"2960033"},{"town":"横尾","koaza":"","lat":35.144704,"lng":140.011819,"zip":"2960125"},{"town":"横渚","koaza":"","lat":35.106751,"lng":140.102037,"zip":"2960001"},{"town":"吉尾西","koaza":"","lat":35.110536,"lng":140.013461,"zip":"2960126"},{"town":"吉尾平塚","koaza":"","lat":35.112614,"lng":140.002126,"zip":"2960113"},{"town":"四方木","koaza":"","lat":35.174944,"lng":140.137846,"zip":"2995506"},{"town":"来秀","koaza":"","lat":35.104789,"lng":140.078669,"zip":"2960012"}]