[{"town":"東町荻原","koaza":"","lat":36.518931,"lng":139.297322,"zip":"3760306"},{"town":"東町草木","koaza":"","lat":36.56034,"lng":139.381362,"zip":"3760302"},{"town":"東町神戸","koaza":"","lat":36.552472,"lng":139.35257,"zip":"3760304"},{"town":"東町小中","koaza":"","lat":36.584002,"lng":139.331763,"zip":"3760308"},{"town":"東町座間","koaza":"","lat":36.530008,"lng":139.3819,"zip":"3760303"},{"town":"東町小夜戸","koaza":"","lat":36.520441,"lng":139.326424,"zip":"3760305"},{"town":"東町沢入","koaza":"","lat":36.58305,"lng":139.419236,"zip":"3760301"},{"town":"東町花輪","koaza":"","lat":36.554081,"lng":139.323998,"zip":"3760307"},{"town":"大間々町浅原","koaza":"","lat":36.477152,"lng":139.296495,"zip":"3760114"},{"town":"大間々町大間々","koaza":"","lat":36.426268,"lng":139.27854,"zip":"3760101"},{"town":"大間々町小平","koaza":"","lat":36.49033,"lng":139.320315,"zip":"3760111"},{"town":"大間々町上神梅","koaza":"","lat":36.475122,"lng":139.251086,"zip":"3760104"},{"town":"大間々町桐原","koaza":"","lat":36.440012,"lng":139.269353,"zip":"3760102"},{"town":"大間々町塩沢","koaza":"","lat":36.479449,"lng":139.274638,"zip":"3760116"},{"town":"大間々町塩原","koaza":"","lat":36.467431,"lng":139.264456,"zip":"3760115"},{"town":"大間々町下神梅","koaza":"","lat":36.46257,"lng":139.253686,"zip":"3760103"},{"town":"大間々町高津戸","koaza":"","lat":36.441701,"lng":139.287222,"zip":"3760113"},{"town":"大間々町長尾根","koaza":"","lat":36.453049,"lng":139.296114,"zip":"3760112"},{"town":"笠懸町阿左美","koaza":"","lat":36.391003,"lng":139.301961,"zip":"3792311"},{"town":"笠懸町久宮","koaza":"","lat":36.375405,"lng":139.280619,"zip":"3792312"},{"town":"笠懸町西鹿田","koaza":"","lat":36.40327,"lng":139.260572,"zip":"3792314"},{"town":"笠懸町鹿","koaza":"","lat":36.394932,"lng":139.276148,"zip":"3792313"}]