[{"town":"大字飯倉","koaza":"","lat":36.285509,"lng":139.153355,"zip":"3701100"},{"town":"大字飯塚","koaza":"","lat":36.327614,"lng":139.133688,"zip":"3701100"},{"town":"大字板井","koaza":"","lat":36.316894,"lng":139.09625,"zip":"3701100"},{"town":"大字宇貫","koaza":"","lat":36.291648,"lng":139.103014,"zip":"3701100"},{"town":"大字上飯島","koaza":"","lat":36.301159,"lng":139.126355,"zip":"3701100"},{"town":"大字上新田","koaza":"","lat":36.304261,"lng":139.099516,"zip":"3701100"},{"town":"大字上之手","koaza":"","lat":36.295512,"lng":139.111869,"zip":"3701100"},{"town":"大字上福島","koaza":"","lat":36.316914,"lng":139.121576,"zip":"3701100"},{"town":"大字上茂木","koaza":"","lat":36.297493,"lng":139.133914,"zip":"3701100"},{"town":"大字川井","koaza":"","lat":36.287014,"lng":139.144136,"zip":"3701100"},{"town":"大字小泉","koaza":"","lat":36.295256,"lng":139.154658,"zip":"3701100"},{"town":"大字後箇","koaza":"","lat":36.296992,"lng":139.126323,"zip":"3701100"},{"town":"大字五料","koaza":"","lat":36.282858,"lng":139.161545,"zip":"3701100"},{"town":"大字斎田","koaza":"","lat":36.311539,"lng":139.110604,"zip":"3701100"},{"town":"大字下新田","koaza":"","lat":36.303176,"lng":139.116273,"zip":"3701100"},{"town":"大字下之宮","koaza":"","lat":36.302548,"lng":139.147819,"zip":"3701100"},{"town":"大字下茂木","koaza":"","lat":36.290858,"lng":139.133638,"zip":"3701100"},{"town":"大字角渕","koaza":"","lat":36.286991,"lng":139.117829,"zip":"3701100"},{"town":"大字南玉","koaza":"","lat":36.305575,"lng":139.135117,"zip":"3701100"},{"town":"大字箱石","koaza":"","lat":36.297948,"lng":139.144801,"zip":"3701100"},{"town":"大字樋越","koaza":"","lat":36.317591,"lng":139.134841,"zip":"3701100"},{"town":"大字福島","koaza":"","lat":36.309408,"lng":139.122129,"zip":"3701100"},{"town":"大字藤川","koaza":"","lat":36.326066,"lng":139.130937,"zip":"3701100"},{"town":"大字八幡原","koaza":"","lat":36.291184,"lng":139.09906,"zip":"3701100"},{"town":"大字与六分","koaza":"","lat":36.306919,"lng":139.103442,"zip":"3701100"}]