[{"town":"相俣","koaza":"","lat":36.768793,"lng":138.874961,"zip":"3791404"},{"town":"阿能川","koaza":"","lat":36.772147,"lng":138.937539,"zip":"3791618"},{"town":"新巻","koaza":"","lat":36.700223,"lng":138.929857,"zip":"3791411"},{"town":"粟沢","koaza":"","lat":36.819951,"lng":139.015462,"zip":"3791723"},{"town":"石倉","koaza":"","lat":36.73746,"lng":138.968736,"zip":"3791311"},{"town":"入須川","koaza":"","lat":36.67666,"lng":138.860278,"zip":"3791416"},{"town":"大穴","koaza":"","lat":36.799411,"lng":138.976271,"zip":"3791727"},{"town":"大沼","koaza":"","lat":36.734873,"lng":139.019539,"zip":"3791302"},{"town":"小川","koaza":"","lat":36.721345,"lng":138.96171,"zip":"3791312"},{"town":"小日向","koaza":"","lat":36.770172,"lng":138.993184,"zip":"3791612"},{"town":"鹿野沢","koaza":"","lat":36.780404,"lng":138.977958,"zip":"3791611"},{"town":"上津","koaza":"","lat":36.668409,"lng":138.972999,"zip":"3791315"},{"town":"上牧","koaza":"","lat":36.728029,"lng":138.99813,"zip":"3791303"},{"town":"川上","koaza":"","lat":36.754672,"lng":138.947749,"zip":"3791616"},{"town":"幸知","koaza":"","lat":36.796141,"lng":138.994681,"zip":"3791726"},{"town":"後閑","koaza":"","lat":36.696431,"lng":139.011532,"zip":"3791305"},{"town":"小仁田","koaza":"","lat":36.751678,"lng":138.964462,"zip":"3791615"},{"town":"猿ヶ京温泉","koaza":"","lat":36.728716,"lng":138.883149,"zip":"3791403"},{"town":"下津","koaza":"","lat":36.66316,"lng":138.994462,"zip":"3791314"},{"town":"下牧","koaza":"","lat":36.704227,"lng":138.992319,"zip":"3791304"},{"town":"須川","koaza":"","lat":36.70112,"lng":138.892604,"zip":"3791418"},{"town":"高日向","koaza":"","lat":36.753527,"lng":138.987619,"zip":"3791613"},{"town":"谷川","koaza":"","lat":36.805936,"lng":138.926454,"zip":"3791619"},{"town":"月夜野","koaza":"","lat":36.694339,"lng":138.970422,"zip":"3791313"},{"town":"綱子","koaza":"","lat":36.808344,"lng":139.000951,"zip":"3791725"},{"town":"寺間","koaza":"","lat":36.742314,"lng":138.935492,"zip":"3791614"},{"town":"永井","koaza":"","lat":36.733877,"lng":138.827503,"zip":"3791401"},{"town":"奈女沢","koaza":"","lat":36.754994,"lng":139.007955,"zip":"3791301"},{"town":"西峰須川","koaza":"","lat":36.682564,"lng":138.882777,"zip":"3791415"},{"town":"羽場","koaza":"","lat":36.694578,"lng":138.949446,"zip":"3791412"},{"town":"東峰","koaza":"","lat":36.699045,"lng":138.867022,"zip":"3791417"},{"town":"吹路","koaza":"","lat":36.729819,"lng":138.866067,"zip":"3791402"},{"town":"藤原","koaza":"","lat":36.913988,"lng":139.075328,"zip":"3791721"},{"town":"布施","koaza":"","lat":36.675741,"lng":138.926748,"zip":"3791414"},{"town":"真庭","koaza":"","lat":36.672449,"lng":139.006685,"zip":"3791308"},{"town":"政所","koaza":"","lat":36.666615,"lng":139.010629,"zip":"3791307"},{"town":"向山","koaza":"","lat":36.79425,"lng":139.007055,"zip":"3791724"},{"town":"師","koaza":"","lat":36.685396,"lng":139.022509,"zip":"3791306"},{"town":"師田","koaza":"","lat":36.666314,"lng":138.951542,"zip":"3791413"},{"town":"湯宿温泉","koaza":"","lat":36.697799,"lng":138.914935,"zip":"3791409"},{"town":"湯原","koaza":"","lat":36.767047,"lng":138.961688,"zip":"3791617"},{"town":"湯桧曽","koaza":"","lat":36.847901,"lng":138.951429,"zip":"3791728"},{"town":"夜後","koaza":"","lat":36.80894,"lng":139.03739,"zip":"3791722"},{"town":"吉本","koaza":"","lat":36.78893,"lng":138.985531,"zip":"3791601"},{"town":"小仁田","koaza":"乾田","lat":36.757935,"lng":138.973404,"zip":"3791615"}]