[{"town":"青梨子町","koaza":"","lat":36.412822,"lng":139.014758,"zip":"3703573"},{"town":"青葉町","koaza":"","lat":36.361056,"lng":139.04535,"zip":"3710826"},{"town":"青柳町","koaza":"","lat":36.425154,"lng":139.067144,"zip":"3710056"},{"town":"朝倉町","koaza":"","lat":36.361889,"lng":139.093023,"zip":"3710811"},{"town":"朝倉町一丁目","koaza":"","lat":36.373617,"lng":139.093146,"zip":"3710811"},{"town":"朝倉町二丁目","koaza":"","lat":36.372008,"lng":139.094661,"zip":"3710811"},{"town":"朝倉町三丁目","koaza":"","lat":36.369418,"lng":139.095398,"zip":"3710811"},{"town":"朝倉町四丁目","koaza":"","lat":36.368,"lng":139.099359,"zip":"3710811"},{"town":"朝日が丘町","koaza":"","lat":36.369203,"lng":139.064924,"zip":"3710832"},{"town":"朝日町一丁目","koaza":"","lat":36.388533,"lng":139.08264,"zip":"3710014"},{"town":"朝日町二丁目","koaza":"","lat":36.385053,"lng":139.083332,"zip":"3710014"},{"town":"朝日町三丁目","koaza":"","lat":36.38494,"lng":139.086846,"zip":"3710014"},{"town":"朝日町四丁目","koaza":"","lat":36.383487,"lng":139.090887,"zip":"3710014"},{"town":"天川大島町","koaza":"","lat":36.372068,"lng":139.104418,"zip":"3792154"},{"town":"天川大島町一丁目","koaza":"","lat":36.380802,"lng":139.095653,"zip":"3792154"},{"town":"天川大島町二丁目","koaza":"","lat":36.380522,"lng":139.099907,"zip":"3792154"},{"town":"天川大島町三丁目","koaza":"","lat":36.377705,"lng":139.104259,"zip":"3792154"},{"town":"天川原町一丁目","koaza":"","lat":36.372891,"lng":139.081867,"zip":"3710803"},{"town":"天川原町二丁目","koaza":"","lat":36.372883,"lng":139.086253,"zip":"3710803"},{"town":"天川町","koaza":"","lat":36.373347,"lng":139.08938,"zip":"3710802"},{"town":"新井町","koaza":"","lat":36.355012,"lng":139.172832,"zip":"3792112"},{"town":"荒口町","koaza":"","lat":36.382712,"lng":139.154473,"zip":"3792107"},{"town":"荒子町","koaza":"","lat":36.380562,"lng":139.169384,"zip":"3792106"},{"town":"荒牧町","koaza":"","lat":36.424364,"lng":139.049571,"zip":"3710044"},{"town":"荒牧町一丁目","koaza":"","lat":36.427893,"lng":139.057972,"zip":"3710044"},{"town":"荒牧町二丁目","koaza":"","lat":36.425821,"lng":139.054554,"zip":"3710044"},{"town":"荒牧町三丁目","koaza":"","lat":36.425284,"lng":139.052419,"zip":"3710044"},{"town":"荒牧町四丁目","koaza":"","lat":36.430527,"lng":139.044592,"zip":"3710044"},{"town":"飯土井町","koaza":"","lat":36.362404,"lng":139.180693,"zip":"3792111"},{"town":"池端町","koaza":"","lat":36.428606,"lng":139.009593,"zip":"3703571"},{"town":"石倉町","koaza":"","lat":36.385477,"lng":139.05203,"zip":"3710841"},{"town":"石倉町一丁目","koaza":"","lat":36.383461,"lng":139.055755,"zip":"3710841"},{"town":"石倉町二丁目","koaza":"","lat":36.384914,"lng":139.055754,"zip":"3710841"},{"town":"石倉町三丁目","koaza":"","lat":36.386516,"lng":139.055542,"zip":"3710841"},{"town":"石倉町四丁目","koaza":"","lat":36.389568,"lng":139.055043,"zip":"3710841"},{"town":"石倉町五丁目","koaza":"","lat":36.393091,"lng":139.054105,"zip":"3710841"},{"town":"石関町","koaza":"","lat":36.389855,"lng":139.116396,"zip":"3710006"},{"town":"泉沢町","koaza":"","lat":36.397309,"lng":139.161883,"zip":"3792101"},{"town":"市之関町","koaza":"","lat":36.455806,"lng":139.149707,"zip":"3710245"},{"town":"今井町","koaza":"","lat":36.369805,"lng":139.148577,"zip":"3792116"},{"town":"岩神町一丁目","koaza":"","lat":36.39754,"lng":139.057753,"zip":"3710035"},{"town":"岩神町二丁目","koaza":"","lat":36.401443,"lng":139.055895,"zip":"3710035"},{"town":"岩神町三丁目","koaza":"","lat":36.404333,"lng":139.057224,"zip":"3710035"},{"town":"岩神町四丁目","koaza":"","lat":36.408331,"lng":139.054424,"zip":"3710035"},{"town":"笂井町","koaza":"","lat":36.365382,"lng":139.138077,"zip":"3792115"},{"town":"江木町","koaza":"","lat":36.3924,"lng":139.13639,"zip":"3710002"},{"town":"江田町","koaza":"","lat":36.370813,"lng":139.040466,"zip":"3710836"},{"town":"大胡町","koaza":"","lat":36.410833,"lng":139.159666,"zip":"3710223"},{"town":"大手町一丁目","koaza":"","lat":36.390336,"lng":139.060124,"zip":"3710026"},{"town":"大手町二丁目","koaza":"","lat":36.389674,"lng":139.063831,"zip":"3710026"},{"town":"大手町三丁目","koaza":"","lat":36.394582,"lng":139.061573,"zip":"3710026"},{"town":"大利根町一丁目","koaza":"","lat":36.363604,"lng":139.058619,"zip":"3710825"},{"town":"大利根町二丁目","koaza":"","lat":36.358376,"lng":139.060751,"zip":"3710825"},{"town":"大友町一丁目","koaza":"","lat":36.387476,"lng":139.048874,"zip":"3710847"},{"town":"大友町二丁目","koaza":"","lat":36.391262,"lng":139.048186,"zip":"3710847"},{"town":"大友町三丁目","koaza":"","lat":36.390253,"lng":139.043385,"zip":"3710847"},{"town":"大前田町","koaza":"","lat":36.426558,"lng":139.187352,"zip":"3710243"},{"town":"大渡町一丁目","koaza":"","lat":36.397708,"lng":139.050411,"zip":"3710854"},{"town":"大渡町二丁目","koaza":"","lat":36.395718,"lng":139.045374,"zip":"3710854"},{"town":"荻窪町","koaza":"","lat":36.421848,"lng":139.128653,"zip":"3710001"},{"town":"女屋町","koaza":"","lat":36.375526,"lng":139.127702,"zip":"3792163"},{"town":"表町一丁目","koaza":"","lat":36.385458,"lng":139.068359,"zip":"3710024"},{"town":"表町二丁目","koaza":"","lat":36.385697,"lng":139.073201,"zip":"3710024"},{"town":"柏倉町","koaza":"","lat":36.483227,"lng":139.151764,"zip":"3710246"},{"town":"粕川町新屋","koaza":"","lat":36.416778,"lng":139.194279,"zip":"3710206"},{"town":"粕川町稲里","koaza":"","lat":36.424719,"lng":139.200882,"zip":"3710207"},{"town":"粕川町女渕","koaza":"","lat":36.410099,"lng":139.207413,"zip":"3710214"},{"town":"粕川町上東田面","koaza":"","lat":36.412426,"lng":139.22263,"zip":"3710211"},{"town":"粕川町込皆戸","koaza":"","lat":36.407393,"lng":139.186111,"zip":"3710216"},{"town":"粕川町下東田面","koaza":"","lat":36.407372,"lng":139.220857,"zip":"3710212"},{"town":"粕川町膳","koaza":"","lat":36.419409,"lng":139.224755,"zip":"3710204"},{"town":"粕川町月田","koaza":"","lat":36.429745,"lng":139.21158,"zip":"3710203"},{"town":"粕川町中","koaza":"","lat":36.421716,"lng":139.215923,"zip":"3710205"},{"town":"粕川町中之沢","koaza":"","lat":36.493387,"lng":139.195292,"zip":"3710201"},{"town":"粕川町西田面","koaza":"","lat":36.413812,"lng":139.211462,"zip":"3710217"},{"town":"粕川町一日市","koaza":"","lat":36.404069,"lng":139.222465,"zip":"3710213"},{"town":"粕川町深津","koaza":"","lat":36.397831,"lng":139.203319,"zip":"3710215"},{"town":"粕川町前皆戸","koaza":"","lat":36.414231,"lng":139.216283,"zip":"3710218"},{"town":"粕川町室沢","koaza":"","lat":36.451982,"lng":139.206536,"zip":"3710202"},{"town":"勝沢町","koaza":"","lat":36.424358,"lng":139.098777,"zip":"3710124"},{"town":"金丸町","koaza":"","lat":36.473809,"lng":139.129459,"zip":"3710121"},{"town":"上青梨子町","koaza":"","lat":36.421131,"lng":139.017316,"zip":"3703572"},{"town":"上泉町","koaza":"","lat":36.407714,"lng":139.120368,"zip":"3710007"},{"town":"上大島町","koaza":"","lat":36.369969,"lng":139.117603,"zip":"3792153"},{"town":"上大屋町","koaza":"","lat":36.408155,"lng":139.167651,"zip":"3710222"},{"town":"上沖町","koaza":"","lat":36.408142,"lng":139.090905,"zip":"3710052"},{"town":"上小出町一丁目","koaza":"","lat":36.411026,"lng":139.057774,"zip":"3710037"},{"town":"上小出町二丁目","koaza":"","lat":36.414913,"lng":139.058623,"zip":"3710037"},{"town":"上小出町三丁目","koaza":"","lat":36.419077,"lng":139.057611,"zip":"3710037"},{"town":"上佐鳥町","koaza":"","lat":36.357908,"lng":139.083934,"zip":"3710816"},{"town":"上新田町","koaza":"","lat":36.364992,"lng":139.065355,"zip":"3710821"},{"town":"上長磯町","koaza":"","lat":36.376108,"lng":139.120357,"zip":"3792165"},{"town":"上細井町","koaza":"","lat":36.424073,"lng":139.082612,"zip":"3710051"},{"town":"上増田町","koaza":"","lat":36.357372,"lng":139.152576,"zip":"3792114"},{"town":"亀泉町","koaza":"","lat":36.400873,"lng":139.125015,"zip":"3710004"},{"town":"亀里町","koaza":"","lat":36.341019,"lng":139.090446,"zip":"3792147"},{"town":"川端町","koaza":"","lat":36.434257,"lng":139.058408,"zip":"3710041"},{"town":"川原町","koaza":"","lat":36.427598,"lng":139.035657,"zip":"3710046"},{"town":"川原町一丁目","koaza":"","lat":36.424812,"lng":139.043336,"zip":"3710046"},{"town":"川原町二丁目","koaza":"","lat":36.429769,"lng":139.039592,"zip":"3710046"},{"town":"川曲町","koaza":"","lat":36.354892,"lng":139.050313,"zip":"3710823"},{"town":"河原浜町","koaza":"","lat":36.427674,"lng":139.166032,"zip":"3710224"},{"town":"神沢の森","koaza":"","lat":36.4009,"lng":139.176835,"zip":"3792103"},{"town":"北代田町","koaza":"","lat":36.411687,"lng":139.073339,"zip":"3710055"},{"town":"清野町","koaza":"","lat":36.421665,"lng":139.00687,"zip":"3703574"},{"town":"公田町","koaza":"","lat":36.347442,"lng":139.075359,"zip":"3792146"},{"town":"小相木町","koaza":"","lat":36.37439,"lng":139.057566,"zip":"3710831"},{"town":"小相木町一丁目","koaza":"","lat":36.376407,"lng":139.056372,"zip":"3710831"},{"town":"紅雲町一丁目","koaza":"","lat":36.384905,"lng":139.060944,"zip":"3710025"},{"town":"紅雲町二丁目","koaza":"","lat":36.385045,"lng":139.064735,"zip":"3710025"},{"town":"幸塚町","koaza":"","lat":36.404994,"lng":139.085112,"zip":"3710053"},{"town":"後閑町","koaza":"","lat":36.356008,"lng":139.103373,"zip":"3710813"},{"town":"国領町一丁目","koaza":"","lat":36.400554,"lng":139.069041,"zip":"3710033"},{"town":"国領町二丁目","koaza":"","lat":36.404491,"lng":139.06831,"zip":"3710033"},{"town":"後家町","koaza":"","lat":36.367654,"lng":139.055927,"zip":"3710834"},{"town":"小坂子町","koaza":"","lat":36.439085,"lng":139.121739,"zip":"3710122"},{"town":"小島田町","koaza":"","lat":36.372772,"lng":139.135603,"zip":"3792162"},{"town":"小神明町","koaza":"","lat":36.417115,"lng":139.095829,"zip":"3710134"},{"town":"五代町","koaza":"","lat":36.412727,"lng":139.110079,"zip":"3710132"},{"town":"駒形町","koaza":"","lat":36.344303,"lng":139.137382,"zip":"3792122"},{"town":"小屋原町","koaza":"","lat":36.355582,"lng":139.136328,"zip":"3792121"},{"town":"山王町","koaza":"","lat":36.350794,"lng":139.121256,"zip":"3792123"},{"town":"山王町一丁目","koaza":"","lat":36.354388,"lng":139.1189,"zip":"3792123"},{"town":"山王町二丁目","koaza":"","lat":36.351241,"lng":139.126683,"zip":"3792123"},{"town":"敷島町","koaza":"","lat":36.415102,"lng":139.050713,"zip":"3710036"},{"town":"下阿内町","koaza":"","lat":36.32404,"lng":139.105637,"zip":"3792142"},{"town":"下石倉町","koaza":"","lat":36.380499,"lng":139.05684,"zip":"3710842"},{"town":"下大島町","koaza":"","lat":36.358749,"lng":139.12139,"zip":"3792152"},{"town":"下大屋町","koaza":"","lat":36.393093,"lng":139.172375,"zip":"3792102"},{"town":"下沖町","koaza":"","lat":36.399872,"lng":139.093572,"zip":"3710011"},{"town":"下川町","koaza":"","lat":36.328679,"lng":139.090338,"zip":"3792144"},{"town":"下小出町一丁目","koaza":"","lat":36.40841,"lng":139.06691,"zip":"3710031"},{"town":"下小出町二丁目","koaza":"","lat":36.4121,"lng":139.065071,"zip":"3710031"},{"town":"下小出町三丁目","koaza":"","lat":36.416628,"lng":139.063165,"zip":"3710031"},{"town":"下佐鳥町","koaza":"","lat":36.348651,"lng":139.096454,"zip":"3710815"},{"town":"下新田町","koaza":"","lat":36.356427,"lng":139.067226,"zip":"3710822"},{"town":"下長磯町","koaza":"","lat":36.367874,"lng":139.128951,"zip":"3792151"},{"town":"下細井町","koaza":"","lat":36.413007,"lng":139.086844,"zip":"3710054"},{"town":"下増田町","koaza":"","lat":36.345623,"lng":139.157614,"zip":"3792113"},{"town":"城東町一丁目","koaza":"","lat":36.394968,"lng":139.076736,"zip":"3710016"},{"town":"城東町二丁目","koaza":"","lat":36.393169,"lng":139.074913,"zip":"3710016"},{"town":"城東町三丁目","koaza":"","lat":36.392358,"lng":139.077167,"zip":"3710016"},{"town":"城東町四丁目","koaza":"","lat":36.390498,"lng":139.079399,"zip":"3710016"},{"town":"城東町五丁目","koaza":"","lat":36.39229,"lng":139.082409,"zip":"3710016"},{"town":"昭和町一丁目","koaza":"","lat":36.401125,"lng":139.066126,"zip":"3710034"},{"town":"昭和町二丁目","koaza":"","lat":36.401855,"lng":139.062619,"zip":"3710034"},{"town":"昭和町三丁目","koaza":"","lat":36.406519,"lng":139.061458,"zip":"3710034"},{"town":"新前橋町","koaza":"","lat":36.379827,"lng":139.05044,"zip":"3710843"},{"town":"住吉町一丁目","koaza":"","lat":36.39725,"lng":139.068032,"zip":"3710021"},{"town":"住吉町二丁目","koaza":"","lat":36.396524,"lng":139.071085,"zip":"3710021"},{"town":"関根町","koaza":"","lat":36.438317,"lng":139.047411,"zip":"3710047"},{"town":"関根町一丁目","koaza":"","lat":36.433723,"lng":139.052846,"zip":"3710047"},{"town":"関根町二丁目","koaza":"","lat":36.433224,"lng":139.049713,"zip":"3710047"},{"town":"関根町三丁目","koaza":"","lat":36.434469,"lng":139.042931,"zip":"3710047"},{"town":"総社町一丁目","koaza":"","lat":36.400162,"lng":139.042388,"zip":"3710853"},{"town":"総社町二丁目","koaza":"","lat":36.404213,"lng":139.044262,"zip":"3710853"},{"town":"総社町三丁目","koaza":"","lat":36.403106,"lng":139.039913,"zip":"3710853"},{"town":"総社町四丁目","koaza":"","lat":36.403803,"lng":139.036358,"zip":"3710853"},{"town":"総社町植野","koaza":"","lat":36.416482,"lng":139.034817,"zip":"3710851"},{"town":"総社町桜が丘","koaza":"","lat":36.424109,"lng":139.032486,"zip":"3710858"},{"town":"総社町総社","koaza":"","lat":36.402601,"lng":139.030843,"zip":"3710852"},{"town":"総社町高井","koaza":"","lat":36.41578,"lng":139.02541,"zip":"3710856"},{"town":"高井町一丁目","koaza":"","lat":36.411324,"lng":139.027129,"zip":"3710857"},{"town":"高花台一丁目","koaza":"","lat":36.426552,"lng":139.106492,"zip":"3710123"},{"town":"高花台二丁目","koaza":"","lat":36.429776,"lng":139.107854,"zip":"3710123"},{"town":"滝窪町","koaza":"","lat":36.449417,"lng":139.137637,"zip":"3710235"},{"town":"田口町","koaza":"","lat":36.447003,"lng":139.046891,"zip":"3710048"},{"town":"千代田町一丁目","koaza":"","lat":36.393998,"lng":139.066216,"zip":"3710022"},{"town":"千代田町二丁目","koaza":"","lat":36.392641,"lng":139.068505,"zip":"3710022"},{"town":"千代田町三丁目","koaza":"","lat":36.394424,"lng":139.069664,"zip":"3710022"},{"town":"千代田町四丁目","koaza":"","lat":36.391963,"lng":139.070961,"zip":"3710022"},{"town":"千代田町五丁目","koaza":"","lat":36.391306,"lng":139.073038,"zip":"3710022"},{"town":"堤町","koaza":"","lat":36.396079,"lng":139.131144,"zip":"3710003"},{"town":"鶴が谷町","koaza":"","lat":36.383329,"lng":139.161962,"zip":"3792108"},{"town":"鶴光路町","koaza":"","lat":36.334863,"lng":139.097354,"zip":"3792141"},{"town":"稲荷新田町","koaza":"","lat":36.357847,"lng":139.056129,"zip":"3710824"},{"town":"徳丸町","koaza":"","lat":36.335034,"lng":139.110974,"zip":"3792135"},{"town":"鳥取町","koaza":"","lat":36.419719,"lng":139.105069,"zip":"3710131"},{"town":"富田町","koaza":"","lat":36.387856,"lng":139.146011,"zip":"3792161"},{"town":"鳥羽町","koaza":"","lat":36.376692,"lng":139.028761,"zip":"3710845"},{"town":"問屋町一丁目","koaza":"","lat":36.394108,"lng":139.041345,"zip":"3710855"},{"town":"問屋町二丁目","koaza":"","lat":36.396651,"lng":139.040541,"zip":"3710855"},{"town":"苗ヶ島町","koaza":"","lat":36.463621,"lng":139.191388,"zip":"3710000"},{"town":"中内町","koaza":"","lat":36.340639,"lng":139.125719,"zip":"3792133"},{"town":"南橘町","koaza":"","lat":36.426604,"lng":139.063543,"zip":"3710043"},{"town":"新堀町","koaza":"","lat":36.324988,"lng":139.097654,"zip":"3792143"},{"town":"西大室町","koaza":"","lat":36.384816,"lng":139.19378,"zip":"3792104"},{"town":"西片貝町一丁目","koaza":"","lat":36.395951,"lng":139.094416,"zip":"3710013"},{"town":"西片貝町二丁目","koaza":"","lat":36.391775,"lng":139.096127,"zip":"3710013"},{"town":"西片貝町三丁目","koaza":"","lat":36.387418,"lng":139.098382,"zip":"3710013"},{"town":"西片貝町四丁目","koaza":"","lat":36.386284,"lng":139.093407,"zip":"3710013"},{"town":"西片貝町五丁目","koaza":"","lat":36.389246,"lng":139.088627,"zip":"3710013"},{"town":"西善町","koaza":"","lat":36.345447,"lng":139.11221,"zip":"3792131"},{"town":"日輪寺町","koaza":"","lat":36.430486,"lng":139.062671,"zip":"3710042"},{"town":"二之宮町","koaza":"","lat":36.36104,"lng":139.166784,"zip":"3792117"},{"town":"橳島町","koaza":"","lat":36.359246,"lng":139.074316,"zip":"3710000"},{"town":"野中町","koaza":"","lat":36.378193,"lng":139.112551,"zip":"3792166"},{"town":"端気町","koaza":"","lat":36.407027,"lng":139.098622,"zip":"3710133"},{"town":"鼻毛石町","koaza":"","lat":36.444874,"lng":139.179536,"zip":"3710244"},{"town":"馬場町","koaza":"","lat":36.437207,"lng":139.199198,"zip":"3710242"},{"town":"東上野町","koaza":"","lat":36.383176,"lng":139.122743,"zip":"3792164"},{"town":"東大室町","koaza":"","lat":36.374936,"lng":139.191502,"zip":"3792105"},{"town":"東片貝町","koaza":"","lat":36.385925,"lng":139.108861,"zip":"3710012"},{"town":"東金丸町","koaza":"","lat":36.474486,"lng":139.136381,"zip":"3710234"},{"town":"東善町","koaza":"","lat":36.341539,"lng":139.131308,"zip":"3792132"},{"town":"光が丘町","koaza":"","lat":36.370382,"lng":139.058555,"zip":"3710833"},{"town":"樋越町","koaza":"","lat":36.415076,"lng":139.176204,"zip":"3710221"},{"town":"日吉町一丁目","koaza":"","lat":36.39715,"lng":139.074945,"zip":"3710017"},{"town":"日吉町二丁目","koaza":"","lat":36.396529,"lng":139.080379,"zip":"3710017"},{"town":"日吉町三丁目","koaza":"","lat":36.400413,"lng":139.078884,"zip":"3710017"},{"town":"日吉町四丁目","koaza":"","lat":36.404698,"lng":139.077884,"zip":"3710017"},{"town":"広瀬町一丁目","koaza":"","lat":36.363493,"lng":139.105352,"zip":"3710812"},{"town":"広瀬町二丁目","koaza":"","lat":36.360607,"lng":139.109431,"zip":"3710812"},{"town":"広瀬町三丁目","koaza":"","lat":36.357507,"lng":139.113813,"zip":"3710812"},{"town":"富士見町赤城山","koaza":"","lat":36.51793,"lng":139.128213,"zip":"3710101"},{"town":"富士見町石井","koaza":"","lat":36.47606,"lng":139.087937,"zip":"3710105"},{"town":"富士見町市之木場","koaza":"","lat":36.480323,"lng":139.073716,"zip":"3710106"},{"town":"富士見町漆窪","koaza":"","lat":36.465732,"lng":139.073301,"zip":"3710113"},{"town":"富士見町小沢","koaza":"","lat":36.451096,"lng":139.082441,"zip":"3710115"},{"town":"富士見町小暮","koaza":"","lat":36.455887,"lng":139.101996,"zip":"3710103"},{"town":"富士見町米野","koaza":"","lat":36.467807,"lng":139.058986,"zip":"3710111"},{"town":"富士見町田島","koaza":"","lat":36.45592,"lng":139.075936,"zip":"3710114"},{"town":"富士見町時沢","koaza":"","lat":36.437053,"lng":139.08683,"zip":"3710104"},{"town":"富士見町原之郷","koaza":"","lat":36.441171,"lng":139.067118,"zip":"3710116"},{"town":"富士見町引田","koaza":"","lat":36.460395,"lng":139.065679,"zip":"3710112"},{"town":"富士見町皆沢","koaza":"","lat":36.471329,"lng":139.117684,"zip":"3710102"},{"town":"富士見町山口","koaza":"","lat":36.488479,"lng":139.074993,"zip":"3710107"},{"town":"富士見町横室","koaza":"","lat":36.448861,"lng":139.059882,"zip":"3710117"},{"town":"文京町一丁目","koaza":"","lat":36.382332,"lng":139.080664,"zip":"3710801"},{"town":"文京町二丁目","koaza":"","lat":36.378243,"lng":139.080755,"zip":"3710801"},{"town":"文京町三丁目","koaza":"","lat":36.379347,"lng":139.087126,"zip":"3710801"},{"town":"文京町四丁目","koaza":"","lat":36.378761,"lng":139.091386,"zip":"3710801"},{"town":"平和町一丁目","koaza":"","lat":36.398005,"lng":139.064904,"zip":"3710027"},{"town":"平和町二丁目","koaza":"","lat":36.399425,"lng":139.062231,"zip":"3710027"},{"town":"房丸町","koaza":"","lat":36.338582,"lng":139.107501,"zip":"3792136"},{"town":"堀越町","koaza":"","lat":36.428494,"lng":139.151718,"zip":"3710231"},{"town":"堀之下町","koaza":"","lat":36.392003,"lng":139.123205,"zip":"3710005"},{"town":"本町一丁目","koaza":"","lat":36.389823,"lng":139.067246,"zip":"3710023"},{"town":"本町二丁目","koaza":"","lat":36.389391,"lng":139.071047,"zip":"3710023"},{"town":"本町三丁目","koaza":"","lat":36.385751,"lng":139.076948,"zip":"3710023"},{"town":"前箱田町","koaza":"","lat":36.362697,"lng":139.049945,"zip":"3710835"},{"town":"前箱田町二丁目","koaza":"","lat":36.363515,"lng":139.047024,"zip":"3710835"},{"town":"三河町一丁目","koaza":"","lat":36.388639,"lng":139.076545,"zip":"3710015"},{"town":"三河町二丁目","koaza":"","lat":36.385383,"lng":139.079996,"zip":"3710015"},{"town":"三俣町一丁目","koaza":"","lat":36.393689,"lng":139.086725,"zip":"3710018"},{"town":"三俣町二丁目","koaza":"","lat":36.397608,"lng":139.0861,"zip":"3710018"},{"town":"三俣町三丁目","koaza":"","lat":36.402891,"lng":139.083656,"zip":"3710018"},{"town":"緑が丘町","koaza":"","lat":36.420015,"lng":139.045271,"zip":"3710045"},{"town":"南町一丁目","koaza":"","lat":36.37992,"lng":139.063603,"zip":"3710805"},{"town":"南町二丁目","koaza":"","lat":36.37485,"lng":139.066168,"zip":"3710805"},{"town":"南町三丁目","koaza":"","lat":36.381404,"lng":139.072159,"zip":"3710805"},{"town":"南町四丁目","koaza":"","lat":36.377511,"lng":139.072433,"zip":"3710805"},{"town":"嶺町","koaza":"","lat":36.446997,"lng":139.113231,"zip":"3710125"},{"town":"宮地町","koaza":"","lat":36.342503,"lng":139.102896,"zip":"3710814"},{"town":"三夜沢町","koaza":"","lat":36.485706,"lng":139.17528,"zip":"3710247"},{"town":"茂木町","koaza":"","lat":36.410534,"lng":139.15051,"zip":"3710232"},{"town":"元総社町","koaza":"","lat":36.3865,"lng":139.032566,"zip":"3710846"},{"town":"元総社町一丁目","koaza":"","lat":36.386506,"lng":139.041592,"zip":"3710846"},{"town":"元総社町二丁目","koaza":"","lat":36.390514,"lng":139.039878,"zip":"3710846"},{"town":"元総社町三丁目","koaza":"","lat":36.390124,"lng":139.037401,"zip":"3710846"},{"town":"横沢町","koaza":"","lat":36.427282,"lng":139.137545,"zip":"3710233"},{"town":"横手町","koaza":"","lat":36.333927,"lng":139.080938,"zip":"3792145"},{"town":"力丸町","koaza":"","lat":36.330624,"lng":139.114591,"zip":"3792134"},{"town":"龍蔵寺町","koaza":"","lat":36.423471,"lng":139.071933,"zip":"3710057"},{"town":"六供町","koaza":"","lat":36.368741,"lng":139.075805,"zip":"3710804"},{"town":"六供町一丁目","koaza":"","lat":36.374441,"lng":139.075791,"zip":"3710804"},{"town":"六供町四丁目","koaza":"","lat":36.370563,"lng":139.083422,"zip":"3710804"},{"town":"若宮町一丁目","koaza":"","lat":36.398676,"lng":139.072913,"zip":"3710032"},{"town":"若宮町二丁目","koaza":"","lat":36.400891,"lng":139.073068,"zip":"3710032"},{"town":"若宮町三丁目","koaza":"","lat":36.403344,"lng":139.073079,"zip":"3710032"},{"town":"若宮町四丁目","koaza":"","lat":36.406545,"lng":139.072794,"zip":"3710032"},{"town":"箱田町","koaza":"","lat":36.366861,"lng":139.049091,"zip":"3710837"},{"town":"古市町一丁目","koaza":"","lat":36.376944,"lng":139.051676,"zip":"3710844"},{"town":"古市町二丁目","koaza":"","lat":36.373653,"lng":139.049198,"zip":"3710844"},{"town":"古市町","koaza":"","lat":36.37499,"lng":139.045719,"zip":"3710844"},{"town":"富士見町原之郷","koaza":"旭久保","lat":36.433172,"lng":139.067626,"zip":"3710116"},{"town":"堀越町","koaza":"甲二本松","lat":36.414592,"lng":139.145512,"zip":"3710231"},{"town":"駒形町","koaza":"西簗場","lat":36.344782,"lng":139.145319,"zip":"3792122"}]