[{"town":"大字厚田","koaza":"","lat":36.528963,"lng":138.806344,"zip":"3770800"},{"town":"大字新巻","koaza":"","lat":36.552082,"lng":138.88734,"zip":"3770800"},{"town":"大字泉沢","koaza":"","lat":36.521929,"lng":138.870073,"zip":"3770800"},{"town":"大字岩井","koaza":"","lat":36.531781,"lng":138.845872,"zip":"3770800"},{"town":"大字岩下","koaza":"","lat":36.571478,"lng":138.768199,"zip":"3770800"},{"town":"大字植栗","koaza":"","lat":36.531112,"lng":138.854565,"zip":"3770800"},{"town":"大字大柏木","koaza":"","lat":36.526893,"lng":138.727796,"zip":"3770800"},{"town":"大字大戸","koaza":"","lat":36.505854,"lng":138.792085,"zip":"3770800"},{"town":"大字岡崎","koaza":"","lat":36.515872,"lng":138.916061,"zip":"3770800"},{"town":"大字奥田","koaza":"","lat":36.531282,"lng":138.881026,"zip":"3770800"},{"town":"大字金井","koaza":"","lat":36.555209,"lng":138.839529,"zip":"3770800"},{"town":"大字川戸","koaza":"","lat":36.522257,"lng":138.832707,"zip":"3770800"},{"town":"大字小泉","koaza":"","lat":36.540126,"lng":138.858968,"zip":"3770800"},{"town":"大字郷原","koaza":"","lat":36.552245,"lng":138.80041,"zip":"3770800"},{"town":"大字五町田","koaza":"","lat":36.53209,"lng":138.898206,"zip":"3770800"},{"town":"大字須賀尾","koaza":"","lat":36.487925,"lng":138.656935,"zip":"3770800"},{"town":"大字萩生","koaza":"","lat":36.481339,"lng":138.780877,"zip":"3770800"},{"town":"大字箱島","koaza":"","lat":36.530097,"lng":138.917821,"zip":"3770800"},{"town":"大字原町","koaza":"","lat":36.570631,"lng":138.809083,"zip":"3770800"},{"town":"大字松谷","koaza":"","lat":36.579254,"lng":138.717595,"zip":"3770800"},{"town":"大字三島","koaza":"","lat":36.546269,"lng":138.75743,"zip":"3770800"},{"town":"大字本宿","koaza":"","lat":36.487074,"lng":138.701534,"zip":"3770800"},{"town":"大字矢倉","koaza":"","lat":36.557775,"lng":138.783968,"zip":"3770800"}]