[{"town":"阿久津町","koaza":"","lat":36.248065,"lng":139.309247,"zip":"3700402"},{"town":"朝日町","koaza":"","lat":36.274729,"lng":139.400849,"zip":"3730814"},{"town":"新井町","koaza":"","lat":36.28577,"lng":139.370002,"zip":"3730852"},{"town":"安養寺町","koaza":"","lat":36.258861,"lng":139.303962,"zip":"3700422"},{"town":"飯田町","koaza":"","lat":36.289007,"lng":139.37958,"zip":"3730851"},{"town":"飯塚町","koaza":"","lat":36.27848,"lng":139.385161,"zip":"3730817"},{"town":"石橋町","koaza":"","lat":36.33068,"lng":139.340326,"zip":"3730007"},{"town":"石原町","koaza":"","lat":36.297784,"lng":139.402211,"zip":"3730808"},{"town":"泉町","koaza":"","lat":36.268918,"lng":139.313545,"zip":"3730845"},{"town":"市場町","koaza":"","lat":36.334339,"lng":139.414993,"zip":"3730013"},{"town":"出塚町","koaza":"","lat":36.258139,"lng":139.292563,"zip":"3700424"},{"town":"岩瀬川町","koaza":"","lat":36.276727,"lng":139.358358,"zip":"3730841"},{"town":"岩松町","koaza":"","lat":36.257908,"lng":139.335995,"zip":"3700403"},{"town":"植木野町","koaza":"","lat":36.318443,"lng":139.411243,"zip":"3730014"},{"town":"牛沢町","koaza":"","lat":36.258155,"lng":139.354245,"zip":"3730833"},{"town":"内ケ島町","koaza":"","lat":36.285136,"lng":139.396177,"zip":"3730813"},{"town":"大久保町","koaza":"","lat":36.343343,"lng":139.272362,"zip":"3792306"},{"town":"大島町","koaza":"","lat":36.305685,"lng":139.357969,"zip":"3730055"},{"town":"大舘町","koaza":"","lat":36.250029,"lng":139.30127,"zip":"3700423"},{"town":"大原町","koaza":"","lat":36.354964,"lng":139.286935,"zip":"3792304"},{"town":"大鷲町","koaza":"","lat":36.339686,"lng":139.352079,"zip":"3730075"},{"town":"沖之郷町","koaza":"","lat":36.290057,"lng":139.434183,"zip":"3730804"},{"town":"沖野町","koaza":"","lat":36.290666,"lng":139.323367,"zip":"3730045"},{"town":"押切町","koaza":"","lat":36.248987,"lng":139.340791,"zip":"3700405"},{"town":"尾島町","koaza":"","lat":36.260051,"lng":139.321561,"zip":"3700401"},{"town":"粕川町","koaza":"","lat":36.265733,"lng":139.296815,"zip":"3700421"},{"town":"金山町","koaza":"","lat":36.309297,"lng":139.373522,"zip":"3730027"},{"town":"上強戸町","koaza":"","lat":36.337553,"lng":139.359444,"zip":"3730074"},{"town":"上小林町","koaza":"","lat":36.31652,"lng":139.404223,"zip":"3730024"},{"town":"上田島町","koaza":"","lat":36.282486,"lng":139.319754,"zip":"3730044"},{"town":"亀岡町","koaza":"","lat":36.25544,"lng":139.316783,"zip":"3700411"},{"town":"北金井町","koaza":"","lat":36.350068,"lng":139.35249,"zip":"3730003"},{"town":"清原町","koaza":"","lat":36.34511,"lng":139.3863,"zip":"3730012"},{"town":"熊野町","koaza":"","lat":36.305409,"lng":139.381321,"zip":"3730025"},{"town":"強戸町","koaza":"","lat":36.32965,"lng":139.35833,"zip":"3730004"},{"town":"小角田町","koaza":"","lat":36.278713,"lng":139.281586,"zip":"3700427"},{"town":"小舞木町","koaza":"","lat":36.284013,"lng":139.388092,"zip":"3730818"},{"town":"下小林町","koaza":"","lat":36.291194,"lng":139.403449,"zip":"3730807"},{"town":"下田島町","koaza":"","lat":36.264859,"lng":139.323961,"zip":"3730844"},{"town":"下浜田町","koaza":"","lat":36.276617,"lng":139.364086,"zip":"3730821"},{"town":"城西町","koaza":"","lat":36.310655,"lng":139.3376,"zip":"3730038"},{"town":"庄屋町","koaza":"","lat":36.279656,"lng":139.370997,"zip":"3730822"},{"town":"新道町","koaza":"","lat":36.300161,"lng":139.342041,"zip":"3730037"},{"town":"末広町","koaza":"","lat":36.256886,"lng":139.38122,"zip":"3730862"},{"town":"菅塩町","koaza":"","lat":36.347966,"lng":139.339863,"zip":"3730002"},{"town":"すずかけ町","koaza":"","lat":36.254182,"lng":139.323512,"zip":"3700413"},{"town":"スバル町","koaza":"","lat":36.298656,"lng":139.384919,"zip":"3730028"},{"town":"世良田町","koaza":"","lat":36.266755,"lng":139.281013,"zip":"3700426"},{"town":"太子町","koaza":"","lat":36.255624,"lng":139.325726,"zip":"3700412"},{"town":"台之郷町","koaza":"","lat":36.307674,"lng":139.407371,"zip":"3730801"},{"town":"高瀬町","koaza":"","lat":36.326293,"lng":139.423091,"zip":"3730072"},{"town":"高林北町","koaza":"","lat":36.26566,"lng":139.367254,"zip":"3730829"},{"town":"高林寿町","koaza":"","lat":36.263674,"lng":139.374459,"zip":"3730824"},{"town":"高林西町","koaza":"","lat":36.256278,"lng":139.36443,"zip":"3730828"},{"town":"高林東町","koaza":"","lat":36.257521,"lng":139.375154,"zip":"3730825"},{"town":"高林南町","koaza":"","lat":36.253967,"lng":139.368287,"zip":"3730827"},{"town":"宝町","koaza":"","lat":36.28975,"lng":139.331777,"zip":"3730042"},{"town":"只上町","koaza":"","lat":36.337533,"lng":139.396881,"zip":"3730011"},{"town":"鶴生田町","koaza":"","lat":36.319281,"lng":139.358142,"zip":"3730008"},{"town":"寺井町","koaza":"","lat":36.324102,"lng":139.335117,"zip":"3730052"},{"town":"天良町","koaza":"","lat":36.332313,"lng":139.334072,"zip":"3730051"},{"town":"徳川町","koaza":"","lat":36.250257,"lng":139.284056,"zip":"3700425"},{"town":"富沢町","koaza":"","lat":36.264023,"lng":139.357251,"zip":"3730832"},{"town":"富若町","koaza":"","lat":36.32408,"lng":139.396421,"zip":"3730023"},{"town":"鳥山上町","koaza":"","lat":36.324478,"lng":139.344722,"zip":"3730061"},{"town":"鳥山下町","koaza":"","lat":36.312249,"lng":139.35261,"zip":"3730063"},{"town":"鳥山町","koaza":"","lat":36.313477,"lng":139.356544,"zip":"3730053"},{"town":"鳥山中町","koaza":"","lat":36.314915,"lng":139.346382,"zip":"3730062"},{"town":"長手町","koaza":"","lat":36.315187,"lng":139.367465,"zip":"3730054"},{"town":"中根町","koaza":"","lat":36.272988,"lng":139.322875,"zip":"3730846"},{"town":"成塚町","koaza":"","lat":36.33628,"lng":139.341713,"zip":"3730006"},{"town":"新島町","koaza":"","lat":36.291976,"lng":139.386837,"zip":"3730819"},{"town":"新野町","koaza":"","lat":36.307925,"lng":139.343542,"zip":"3730032"},{"town":"西新町","koaza":"","lat":36.272302,"lng":139.338275,"zip":"3730847"},{"town":"西長岡町","koaza":"","lat":36.353774,"lng":139.332104,"zip":"3730001"},{"town":"西野谷町","koaza":"","lat":36.282488,"lng":139.329351,"zip":"3730043"},{"town":"西本町","koaza":"","lat":36.294067,"lng":139.363974,"zip":"3730033"},{"town":"西矢島町","koaza":"","lat":36.271291,"lng":139.374285,"zip":"3730823"},{"town":"新田赤堀町","koaza":"","lat":36.292091,"lng":139.297199,"zip":"3700331"},{"town":"新田市町","koaza":"","lat":36.327186,"lng":139.299518,"zip":"3700304"},{"town":"新田市野井町","koaza":"","lat":36.315394,"lng":139.301952,"zip":"3700314"},{"town":"新田市野倉町","koaza":"","lat":36.335233,"lng":139.309043,"zip":"3700306"},{"town":"新田大町","koaza":"","lat":36.322773,"lng":139.281925,"zip":"3700351"},{"town":"新田大根町","koaza":"","lat":36.309296,"lng":139.282321,"zip":"3700347"},{"town":"新田金井町","koaza":"","lat":36.3083,"lng":139.293023,"zip":"3700341"},{"town":"新田嘉祢町","koaza":"","lat":36.32053,"lng":139.288015,"zip":"3700352"},{"town":"新田上江田町","koaza":"","lat":36.294317,"lng":139.285709,"zip":"3700342"},{"town":"新田上田中町","koaza":"","lat":36.304638,"lng":139.274762,"zip":"3700346"},{"town":"新田上中町","koaza":"","lat":36.322956,"lng":139.271004,"zip":"3700353"},{"town":"新田木崎町","koaza":"","lat":36.281782,"lng":139.306734,"zip":"3700321"},{"town":"新田小金井町","koaza":"","lat":36.31292,"lng":139.323556,"zip":"3700303"},{"town":"新田小金町","koaza":"","lat":36.334654,"lng":139.322764,"zip":"3700302"},{"town":"新田権右衛門町","koaza":"","lat":36.33211,"lng":139.263878,"zip":"3700355"},{"town":"新田下江田町","koaza":"","lat":36.268944,"lng":139.298258,"zip":"3700333"},{"town":"新田下田中町","koaza":"","lat":36.288688,"lng":139.273749,"zip":"3700343"},{"town":"新田反町町","koaza":"","lat":36.296492,"lng":139.308299,"zip":"3700313"},{"town":"新田高尾町","koaza":"","lat":36.28508,"lng":139.283059,"zip":"3700334"},{"town":"新田多村新田町","koaza":"","lat":36.338899,"lng":139.295844,"zip":"3700305"},{"town":"新田溜池町","koaza":"","lat":36.32355,"lng":139.275431,"zip":"3700354"},{"town":"新田天良町","koaza":"","lat":36.335008,"lng":139.328232,"zip":"3700301"},{"town":"新田中江田町","koaza":"","lat":36.278646,"lng":139.292231,"zip":"3700332"},{"town":"新田萩町","koaza":"","lat":36.3335,"lng":139.268973,"zip":"3700356"},{"town":"新田花香塚町","koaza":"","lat":36.297566,"lng":139.261271,"zip":"3700345"},{"town":"新田早川町","koaza":"","lat":36.294379,"lng":139.265567,"zip":"3700344"},{"town":"新田瑞木町","koaza":"","lat":36.310083,"lng":139.309427,"zip":"3700311"},{"town":"新田村田町","koaza":"","lat":36.310233,"lng":139.315655,"zip":"3700312"},{"town":"韮川町","koaza":"","lat":36.312836,"lng":139.403909,"zip":"3730029"},{"town":"八幡町","koaza":"","lat":36.300189,"lng":139.365434,"zip":"3730056"},{"town":"浜町","koaza":"","lat":36.290335,"lng":139.367887,"zip":"3730853"},{"town":"原宿町","koaza":"","lat":36.353766,"lng":139.382623,"zip":"3730071"},{"town":"東今泉町","koaza":"","lat":36.326806,"lng":139.384493,"zip":"3730021"},{"town":"東金井町","koaza":"","lat":36.317122,"lng":139.38778,"zip":"3730022"},{"town":"東新町","koaza":"","lat":36.327053,"lng":139.408679,"zip":"3730015"},{"town":"東長岡町","koaza":"","lat":36.303075,"lng":139.395281,"zip":"3730812"},{"town":"東別所町","koaza":"","lat":36.268754,"lng":139.393946,"zip":"3730815"},{"town":"東本町","koaza":"","lat":36.29793,"lng":139.378217,"zip":"3730026"},{"town":"東矢島町","koaza":"","lat":36.268793,"lng":139.382873,"zip":"3730816"},{"town":"備前島町","koaza":"","lat":36.256511,"lng":139.344016,"zip":"3700404"},{"town":"福沢町","koaza":"","lat":36.269152,"lng":139.358545,"zip":"3730831"},{"town":"藤阿久町","koaza":"","lat":36.290745,"lng":139.357671,"zip":"3730034"},{"town":"藤久良町","koaza":"","lat":36.291457,"lng":139.35167,"zip":"3730035"},{"town":"二ツ小屋町","koaza":"","lat":36.238217,"lng":139.313991,"zip":"3700417"},{"town":"古戸町","koaza":"","lat":36.246473,"lng":139.376972,"zip":"3730826"},{"town":"別所町","koaza":"","lat":36.298069,"lng":139.330437,"zip":"3730041"},{"town":"細谷町","koaza":"","lat":36.275212,"lng":139.350268,"zip":"3730842"},{"town":"堀口町","koaza":"","lat":36.249853,"lng":139.324448,"zip":"3700414"},{"town":"本町","koaza":"","lat":36.297893,"lng":139.372861,"zip":"3730057"},{"town":"前小屋町","koaza":"","lat":36.245216,"lng":139.327993,"zip":"3700406"},{"town":"前島町","koaza":"","lat":36.246939,"lng":139.316742,"zip":"3700416"},{"town":"丸山町","koaza":"","lat":36.341724,"lng":139.381215,"zip":"3730018"},{"town":"緑町","koaza":"","lat":36.331123,"lng":139.372526,"zip":"3730073"},{"town":"南ヶ丘町","koaza":"","lat":36.247823,"lng":139.327165,"zip":"3730000"},{"town":"南矢島町","koaza":"","lat":36.263562,"lng":139.379932,"zip":"3730861"},{"town":"武蔵島町","koaza":"","lat":36.244057,"lng":139.311084,"zip":"3700418"},{"town":"茂木町","koaza":"","lat":36.297381,"lng":139.417819,"zip":"3730809"},{"town":"八重笠町","koaza":"","lat":36.27219,"lng":139.429581,"zip":"3730805"},{"town":"安良岡町","koaza":"","lat":36.308733,"lng":139.39709,"zip":"3730811"},{"town":"矢田堀町","koaza":"","lat":36.33453,"lng":139.380756,"zip":"3730016"},{"town":"矢場新町","koaza":"","lat":36.311802,"lng":139.416447,"zip":"3730802"},{"town":"矢場町","koaza":"","lat":36.302557,"lng":139.42382,"zip":"3730803"},{"town":"藪塚町","koaza":"","lat":36.361435,"lng":139.3106,"zip":"3792301"},{"town":"山之神町","koaza":"","lat":36.346225,"lng":139.310184,"zip":"3792302"},{"town":"由良町","koaza":"","lat":36.288271,"lng":139.343687,"zip":"3730036"},{"town":"吉沢町","koaza":"","lat":36.350938,"lng":139.368443,"zip":"3730019"},{"town":"米沢町","koaza":"","lat":36.263581,"lng":139.342803,"zip":"3730843"},{"town":"寄合町","koaza":"","lat":36.3427,"lng":139.320576,"zip":"3792303"},{"town":"龍舞町","koaza":"","lat":36.282671,"lng":139.416761,"zip":"3730806"},{"town":"六千石町","koaza":"","lat":36.334409,"lng":139.285838,"zip":"3792305"},{"town":"脇屋町","koaza":"","lat":36.308871,"lng":139.33087,"zip":"3730031"},{"town":"新田木崎町","koaza":"西田","lat":36.289186,"lng":139.308945,"zip":"3700321"}]