[{"town":"秋間みのりが丘","koaza":"","lat":36.358588,"lng":138.8496,"zip":"3790109"},{"town":"安中","koaza":"","lat":36.345741,"lng":138.907941,"zip":"3790116"},{"town":"安中一丁目","koaza":"","lat":36.323511,"lng":138.885205,"zip":"3790116"},{"town":"安中二丁目","koaza":"","lat":36.325337,"lng":138.891988,"zip":"3790116"},{"town":"安中三丁目","koaza":"","lat":36.328989,"lng":138.897036,"zip":"3790116"},{"town":"安中四丁目","koaza":"","lat":36.331359,"lng":138.904859,"zip":"3790116"},{"town":"安中五丁目","koaza":"","lat":36.334776,"lng":138.904314,"zip":"3790116"},{"town":"磯部一丁目","koaza":"","lat":36.299923,"lng":138.847148,"zip":"3790127"},{"town":"磯部二丁目","koaza":"","lat":36.296868,"lng":138.848211,"zip":"3790127"},{"town":"磯部三丁目","koaza":"","lat":36.302257,"lng":138.854489,"zip":"3790127"},{"town":"磯部四丁目","koaza":"","lat":36.304155,"lng":138.862943,"zip":"3790127"},{"town":"板鼻","koaza":"","lat":36.343687,"lng":138.926688,"zip":"3790111"},{"town":"板鼻一丁目","koaza":"","lat":36.336875,"lng":138.928008,"zip":"3790111"},{"town":"板鼻二丁目","koaza":"","lat":36.336894,"lng":138.934833,"zip":"3790111"},{"town":"岩井","koaza":"","lat":36.325886,"lng":138.934567,"zip":"3790112"},{"town":"大竹","koaza":"","lat":36.312342,"lng":138.892721,"zip":"3790121"},{"town":"大谷","koaza":"","lat":36.312396,"lng":138.942349,"zip":"3790113"},{"town":"小俣","koaza":"","lat":36.336829,"lng":138.871022,"zip":"3790105"},{"town":"上磯部","koaza":"","lat":36.29363,"lng":138.841518,"zip":"3790100"},{"town":"上後閑","koaza":"","lat":36.358792,"lng":138.801787,"zip":"3790108"},{"town":"上間仁田","koaza":"","lat":36.295293,"lng":138.894893,"zip":"3790123"},{"town":"郷原","koaza":"","lat":36.309032,"lng":138.831895,"zip":"3790135"},{"town":"高別当","koaza":"","lat":36.326367,"lng":138.880355,"zip":"3790132"},{"town":"鷺宮","koaza":"","lat":36.299534,"lng":138.87926,"zip":"3790124"},{"town":"下秋間","koaza":"","lat":36.353155,"lng":138.888478,"zip":"3790104"},{"town":"下磯部","koaza":"","lat":36.313487,"lng":138.878366,"zip":"3790129"},{"town":"下後閑","koaza":"","lat":36.334574,"lng":138.852658,"zip":"3790106"},{"town":"下間仁田","koaza":"","lat":36.30709,"lng":138.905389,"zip":"3790122"},{"town":"中秋間","koaza":"","lat":36.357638,"lng":138.867215,"zip":"3790103"},{"town":"中後閑","koaza":"","lat":36.334548,"lng":138.827253,"zip":"3790107"},{"town":"中宿","koaza":"","lat":36.331918,"lng":138.916605,"zip":"3790115"},{"town":"中宿一丁目","koaza":"","lat":36.334558,"lng":138.916035,"zip":"3790115"},{"town":"中野谷","koaza":"","lat":36.28521,"lng":138.85881,"zip":"3790125"},{"town":"西上秋間","koaza":"","lat":36.368113,"lng":138.81785,"zip":"3790101"},{"town":"西上磯部","koaza":"","lat":36.294663,"lng":138.856627,"zip":"3790126"},{"town":"野殿","koaza":"","lat":36.314952,"lng":138.919886,"zip":"3790114"},{"town":"原市","koaza":"","lat":36.320019,"lng":138.85761,"zip":"3790133"},{"town":"原市一丁目","koaza":"","lat":36.316439,"lng":138.860313,"zip":"3790133"},{"town":"原市二丁目","koaza":"","lat":36.313057,"lng":138.861129,"zip":"3790133"},{"town":"原市三丁目","koaza":"","lat":36.315056,"lng":138.865359,"zip":"3790133"},{"town":"原市四丁目","koaza":"","lat":36.317013,"lng":138.868368,"zip":"3790133"},{"town":"東上秋間","koaza":"","lat":36.358966,"lng":138.859627,"zip":"3790102"},{"town":"東上磯部","koaza":"","lat":36.303727,"lng":138.870458,"zip":"3790128"},{"town":"古屋","koaza":"","lat":36.32564,"lng":138.869677,"zip":"3790131"},{"town":"松井田町新井","koaza":"","lat":36.336106,"lng":138.790191,"zip":"3790216"},{"town":"松井田町入山","koaza":"","lat":36.32623,"lng":138.701453,"zip":"3790305"},{"town":"松井田町行田","koaza":"","lat":36.304298,"lng":138.78122,"zip":"3790226"},{"town":"松井田町小日向","koaza":"","lat":36.321357,"lng":138.830439,"zip":"3790213"},{"town":"松井田町上増田","koaza":"","lat":36.375325,"lng":138.753906,"zip":"3790211"},{"town":"松井田町北野牧","koaza":"","lat":36.313886,"lng":138.676623,"zip":"3790304"},{"town":"松井田町国衙","koaza":"","lat":36.319885,"lng":138.816994,"zip":"3790214"},{"town":"松井田町五料","koaza":"","lat":36.331828,"lng":138.739767,"zip":"3790302"},{"town":"松井田町坂本","koaza":"","lat":36.376086,"lng":138.688238,"zip":"3790307"},{"town":"松井田町下増田","koaza":"","lat":36.335503,"lng":138.806724,"zip":"3790212"},{"town":"松井田町高梨子","koaza":"","lat":36.326702,"lng":138.800468,"zip":"3790215"},{"town":"松井田町峠","koaza":"","lat":36.369534,"lng":138.658429,"zip":"3890121"},{"town":"松井田町新堀","koaza":"","lat":36.314925,"lng":138.788226,"zip":"3790221"},{"town":"松井田町二軒在家","koaza":"","lat":36.301824,"lng":138.812598,"zip":"3790223"},{"town":"松井田町西野牧","koaza":"","lat":36.29481,"lng":138.677914,"zip":"3790303"},{"town":"松井田町原","koaza":"","lat":36.336014,"lng":138.717146,"zip":"3790306"},{"town":"松井田町土塩","koaza":"","lat":36.354922,"lng":138.756692,"zip":"3790217"},{"town":"松井田町人見","koaza":"","lat":36.294595,"lng":138.827562,"zip":"3790224"},{"town":"松井田町松井田","koaza":"","lat":36.314017,"lng":138.806043,"zip":"3790222"},{"town":"松井田町八城","koaza":"","lat":36.306485,"lng":138.795251,"zip":"3790225"},{"town":"松井田町横川","koaza":"","lat":36.34071,"lng":138.737956,"zip":"3790301"},{"town":"嶺","koaza":"","lat":36.318661,"lng":138.842614,"zip":"3790136"},{"town":"簗瀬","koaza":"","lat":36.308437,"lng":138.856784,"zip":"3790134"},{"town":"西上秋間","koaza":"森熊","lat":36.365934,"lng":138.818222,"zip":"3790101"},{"town":"原市","koaza":"下原","lat":36.318484,"lng":138.872195,"zip":"3790133"},{"town":"中宿","koaza":"石合","lat":36.333376,"lng":138.917009,"zip":"3790115"}]