[{"town":"相野田","koaza":"","lat":36.283783,"lng":138.926799,"zip":"3702306"},{"town":"一ノ宮","koaza":"","lat":36.255596,"lng":138.861567,"zip":"3702452"},{"town":"岩染","koaza":"","lat":36.216332,"lng":138.86128,"zip":"3702322"},{"town":"宇田","koaza":"","lat":36.260064,"lng":138.850179,"zip":"3702451"},{"town":"大島","koaza":"","lat":36.240779,"lng":138.861503,"zip":"3702335"},{"town":"岡本","koaza":"","lat":36.232655,"lng":138.891852,"zip":"3702321"},{"town":"蚊沼","koaza":"","lat":36.248392,"lng":138.808657,"zip":"3702466"},{"town":"神農原","koaza":"","lat":36.24292,"lng":138.847613,"zip":"3702455"},{"town":"上黒岩","koaza":"","lat":36.275824,"lng":138.870544,"zip":"3702345"},{"town":"上小林","koaza":"","lat":36.24005,"lng":138.832532,"zip":"3702456"},{"town":"上高尾","koaza":"","lat":36.278667,"lng":138.90028,"zip":"3702317"},{"town":"上高瀬","koaza":"","lat":36.246045,"lng":138.869497,"zip":"3702334"},{"town":"上丹生","koaza":"","lat":36.270667,"lng":138.809333,"zip":"3702461"},{"town":"神成","koaza":"","lat":36.244202,"lng":138.828542,"zip":"3702463"},{"town":"君川","koaza":"","lat":36.268287,"lng":138.912291,"zip":"3702313"},{"town":"黒川","koaza":"","lat":36.263816,"lng":138.86883,"zip":"3702344"},{"town":"桑原","koaza":"","lat":36.298617,"lng":138.938332,"zip":"3702301"},{"town":"後賀","koaza":"","lat":36.271611,"lng":138.931083,"zip":"3702304"},{"town":"小桑原","koaza":"","lat":36.289815,"lng":138.932081,"zip":"3702302"},{"town":"下黒岩","koaza":"","lat":36.278491,"lng":138.88782,"zip":"3702341"},{"town":"下高尾","koaza":"","lat":36.286352,"lng":138.911795,"zip":"3702311"},{"town":"下高瀬","koaza":"","lat":36.246254,"lng":138.889265,"zip":"3702332"},{"town":"下丹生","koaza":"","lat":36.258961,"lng":138.828872,"zip":"3702462"},{"town":"白岩","koaza":"","lat":36.280667,"lng":138.922383,"zip":"3702305"},{"town":"曽木","koaza":"","lat":36.257584,"lng":138.91031,"zip":"3702315"},{"town":"内匠","koaza":"","lat":36.244219,"lng":138.90005,"zip":"3702331"},{"town":"田篠","koaza":"","lat":36.250882,"lng":138.912233,"zip":"3702314"},{"town":"田島","koaza":"","lat":36.245479,"lng":138.858865,"zip":"3702454"},{"town":"富岡","koaza":"","lat":36.258313,"lng":138.895804,"zip":"3702316"},{"town":"中沢","koaza":"","lat":36.245256,"lng":138.796731,"zip":"3702465"},{"town":"中高瀬","koaza":"","lat":36.246352,"lng":138.880099,"zip":"3702333"},{"town":"七日市","koaza":"","lat":36.258728,"lng":138.878934,"zip":"3702343"},{"town":"南蛇井","koaza":"","lat":36.237353,"lng":138.801425,"zip":"3702464"},{"town":"野上","koaza":"","lat":36.208454,"lng":138.841975,"zip":"3702323"},{"town":"原","koaza":"","lat":36.256205,"lng":138.802499,"zip":"3702467"},{"town":"藤木","koaza":"","lat":36.294933,"lng":138.915844,"zip":"3702307"},{"town":"別保","koaza":"","lat":36.267423,"lng":138.892661,"zip":"3702342"},{"town":"星田","koaza":"","lat":36.268386,"lng":138.923434,"zip":"3702312"},{"town":"南後箇","koaza":"","lat":36.220708,"lng":138.872059,"zip":"3702324"},{"town":"宮崎","koaza":"","lat":36.248734,"lng":138.845871,"zip":"3702453"},{"town":"妙義町大牛","koaza":"","lat":36.299355,"lng":138.782634,"zip":"3790202"},{"town":"妙義町上高田","koaza":"","lat":36.286638,"lng":138.816554,"zip":"3702411"},{"town":"妙義町北山","koaza":"","lat":36.296105,"lng":138.791837,"zip":"3790205"},{"town":"妙義町下高田","koaza":"","lat":36.275435,"lng":138.840534,"zip":"3702412"},{"town":"妙義町菅原","koaza":"","lat":36.26636,"lng":138.77238,"zip":"3790208"},{"town":"妙義町岳","koaza":"","lat":36.297598,"lng":138.77573,"zip":"3790203"},{"town":"妙義町中里","koaza":"","lat":36.293143,"lng":138.80243,"zip":"3790206"},{"town":"妙義町行沢","koaza":"","lat":36.289399,"lng":138.785772,"zip":"3790204"},{"town":"妙義町古立","koaza":"","lat":36.285631,"lng":138.795728,"zip":"3790207"},{"town":"妙義町妙義","koaza":"","lat":36.300112,"lng":138.761283,"zip":"3790201"},{"town":"妙義町諸戸","koaza":"","lat":36.290508,"lng":138.761726,"zip":"3790209"},{"town":"妙義町八木連","koaza":"","lat":36.280329,"lng":138.800482,"zip":"3702413"},{"town":"蕨","koaza":"","lat":36.285969,"lng":138.939919,"zip":"3702303"},{"town":"一ノ宮","koaza":"南平","lat":36.251246,"lng":138.860704,"zip":"3702452"},{"town":"富岡","koaza":"明武塚東","lat":36.261982,"lng":138.91036,"zip":"3702316"}]