[{"town":"相生町一丁目","koaza":"","lat":36.402382,"lng":139.316967,"zip":"3760011"},{"town":"相生町二丁目","koaza":"","lat":36.411189,"lng":139.311903,"zip":"3760011"},{"town":"相生町三丁目","koaza":"","lat":36.422928,"lng":139.300045,"zip":"3760011"},{"town":"相生町四丁目","koaza":"","lat":36.427165,"lng":139.290366,"zip":"3760011"},{"town":"相生町五丁目","koaza":"","lat":36.410591,"lng":139.294139,"zip":"3760011"},{"town":"旭町","koaza":"","lat":36.407499,"lng":139.338029,"zip":"3760037"},{"town":"東町","koaza":"","lat":36.413027,"lng":139.341694,"zip":"3760032"},{"town":"泉町","koaza":"","lat":36.412372,"lng":139.341145,"zip":"3760033"},{"town":"稲荷町","koaza":"","lat":36.407448,"lng":139.332184,"zip":"3760022"},{"town":"梅田町一丁目","koaza":"","lat":36.449542,"lng":139.357222,"zip":"3760601"},{"town":"梅田町二丁目","koaza":"","lat":36.455628,"lng":139.381645,"zip":"3760601"},{"town":"梅田町三丁目","koaza":"","lat":36.48646,"lng":139.373954,"zip":"3760601"},{"town":"梅田町四丁目","koaza":"","lat":36.491977,"lng":139.391616,"zip":"3760601"},{"town":"梅田町五丁目","koaza":"","lat":36.516632,"lng":139.416361,"zip":"3760601"},{"town":"永楽町","koaza":"","lat":36.413139,"lng":139.336663,"zip":"3760044"},{"town":"織姫町","koaza":"","lat":36.403753,"lng":139.326762,"zip":"3760024"},{"town":"川内町一丁目","koaza":"","lat":36.431949,"lng":139.323134,"zip":"3760041"},{"town":"川内町二丁目","koaza":"","lat":36.434536,"lng":139.315476,"zip":"3760041"},{"town":"川内町三丁目","koaza":"","lat":36.435082,"lng":139.303442,"zip":"3760041"},{"town":"川内町四丁目","koaza":"","lat":36.437423,"lng":139.295302,"zip":"3760041"},{"town":"川内町五丁目","koaza":"","lat":36.467193,"lng":139.339505,"zip":"3760041"},{"town":"川岸町","koaza":"","lat":36.406275,"lng":139.336925,"zip":"3760036"},{"town":"清瀬町","koaza":"","lat":36.406621,"lng":139.325096,"zip":"3760026"},{"town":"黒保根町上田沢","koaza":"","lat":36.55306,"lng":139.292464,"zip":"3760145"},{"town":"黒保根町下田沢","koaza":"","lat":36.539023,"lng":139.231659,"zip":"3760144"},{"town":"黒保根町宿廻","koaza":"","lat":36.509805,"lng":139.218733,"zip":"3760143"},{"town":"黒保根町水沼","koaza":"","lat":36.502516,"lng":139.28862,"zip":"3760141"},{"town":"黒保根町八木原","koaza":"","lat":36.491057,"lng":139.278625,"zip":"3760142"},{"town":"小梅町","koaza":"","lat":36.395613,"lng":139.335316,"zip":"3760004"},{"town":"小曾根町","koaza":"","lat":36.415477,"lng":139.33544,"zip":"3760043"},{"town":"琴平町","koaza":"","lat":36.393439,"lng":139.340395,"zip":"3760003"},{"town":"境野町一丁目","koaza":"","lat":36.394387,"lng":139.349776,"zip":"3760002"},{"town":"境野町二丁目","koaza":"","lat":36.390791,"lng":139.349168,"zip":"3760002"},{"town":"境野町三丁目","koaza":"","lat":36.387084,"lng":139.347404,"zip":"3760002"},{"town":"境野町四丁目","koaza":"","lat":36.391483,"lng":139.354021,"zip":"3760002"},{"town":"境野町五丁目","koaza":"","lat":36.387631,"lng":139.358334,"zip":"3760002"},{"town":"境野町六丁目","koaza":"","lat":36.384923,"lng":139.354851,"zip":"3760002"},{"town":"境野町七丁目","koaza":"","lat":36.37618,"lng":139.362942,"zip":"3760002"},{"town":"桜木町","koaza":"","lat":36.399,"lng":139.327751,"zip":"3760012"},{"town":"新宿一丁目","koaza":"","lat":36.401526,"lng":139.337237,"zip":"3760006"},{"town":"新宿二丁目","koaza":"","lat":36.398763,"lng":139.339218,"zip":"3760006"},{"town":"新宿三丁目","koaza":"","lat":36.395584,"lng":139.342192,"zip":"3760006"},{"town":"末広町","koaza":"","lat":36.411014,"lng":139.33539,"zip":"3760045"},{"town":"高砂町","koaza":"","lat":36.409035,"lng":139.338944,"zip":"3760038"},{"town":"堤町一丁目","koaza":"","lat":36.422418,"lng":139.329683,"zip":"3760042"},{"town":"堤町二丁目","koaza":"","lat":36.420495,"lng":139.323797,"zip":"3760042"},{"town":"堤町三丁目","koaza":"","lat":36.418248,"lng":139.317468,"zip":"3760042"},{"town":"天神町一丁目","koaza":"","lat":36.422876,"lng":139.347529,"zip":"3760052"},{"town":"天神町二丁目","koaza":"","lat":36.425847,"lng":139.350683,"zip":"3760052"},{"town":"天神町三丁目","koaza":"","lat":36.428844,"lng":139.353602,"zip":"3760052"},{"town":"巴町一丁目","koaza":"","lat":36.409233,"lng":139.33562,"zip":"3760021"},{"town":"巴町二丁目","koaza":"","lat":36.410574,"lng":139.331409,"zip":"3760021"},{"town":"仲町一丁目","koaza":"","lat":36.41404,"lng":139.343894,"zip":"3760035"},{"town":"仲町二丁目","koaza":"","lat":36.409988,"lng":139.34142,"zip":"3760035"},{"town":"仲町三丁目","koaza":"","lat":36.406689,"lng":139.340014,"zip":"3760035"},{"town":"新里町赤城山","koaza":"","lat":36.495701,"lng":139.209079,"zip":"3760137"},{"town":"新里町板橋","koaza":"","lat":36.45591,"lng":139.220757,"zip":"3760136"},{"town":"新里町大久保","koaza":"","lat":36.446108,"lng":139.23961,"zip":"3760133"},{"town":"新里町奥沢","koaza":"","lat":36.450083,"lng":139.255191,"zip":"3760131"},{"town":"新里町小林","koaza":"","lat":36.41374,"lng":139.232445,"zip":"3760124"},{"town":"新里町関","koaza":"","lat":36.45239,"lng":139.229753,"zip":"3760134"},{"town":"新里町高泉","koaza":"","lat":36.462711,"lng":139.239561,"zip":"3760135"},{"town":"新里町武井","koaza":"","lat":36.416667,"lng":139.241101,"zip":"3760123"},{"town":"新里町鶴ヶ谷","koaza":"","lat":36.43846,"lng":139.248908,"zip":"3760000"},{"town":"新里町新川","koaza":"","lat":36.423508,"lng":139.256709,"zip":"3760121"},{"town":"新里町野","koaza":"","lat":36.399515,"lng":139.237626,"zip":"3760122"},{"town":"新里町山上","koaza":"","lat":36.430614,"lng":139.229086,"zip":"3760125"},{"town":"錦町一丁目","koaza":"","lat":36.406189,"lng":139.334342,"zip":"3760023"},{"town":"錦町二丁目","koaza":"","lat":36.403783,"lng":139.332802,"zip":"3760023"},{"town":"錦町三丁目","koaza":"","lat":36.401093,"lng":139.329657,"zip":"3760023"},{"town":"西久方町一丁目","koaza":"","lat":36.423265,"lng":139.343406,"zip":"3760054"},{"town":"西久方町二丁目","koaza":"","lat":36.419601,"lng":139.340672,"zip":"3760054"},{"town":"浜松町一丁目","koaza":"","lat":36.403918,"lng":139.338258,"zip":"3760007"},{"town":"浜松町二丁目","koaza":"","lat":36.401504,"lng":139.341343,"zip":"3760007"},{"town":"東一丁目","koaza":"","lat":36.414378,"lng":139.346681,"zip":"3760032"},{"town":"東二丁目","koaza":"","lat":36.413931,"lng":139.348468,"zip":"3760032"},{"town":"東三丁目","koaza":"","lat":36.412281,"lng":139.350488,"zip":"3760032"},{"town":"東四丁目","koaza":"","lat":36.409166,"lng":139.344847,"zip":"3760032"},{"town":"東五丁目","koaza":"","lat":36.40794,"lng":139.348588,"zip":"3760032"},{"town":"東六丁目","koaza":"","lat":36.405433,"lng":139.343071,"zip":"3760032"},{"town":"東七丁目","koaza":"","lat":36.403777,"lng":139.34577,"zip":"3760032"},{"town":"東久方町一丁目","koaza":"","lat":36.42198,"lng":139.349318,"zip":"3760053"},{"town":"東久方町二丁目","koaza":"","lat":36.418961,"lng":139.347382,"zip":"3760053"},{"town":"東久方町三丁目","koaza":"","lat":36.416899,"lng":139.345921,"zip":"3760053"},{"town":"菱町一丁目","koaza":"","lat":36.406086,"lng":139.368089,"zip":"3760001"},{"town":"菱町二丁目","koaza":"","lat":36.420526,"lng":139.368345,"zip":"3760001"},{"town":"菱町三丁目","koaza":"","lat":36.410197,"lng":139.354435,"zip":"3760001"},{"town":"菱町四丁目","koaza":"","lat":36.421275,"lng":139.356737,"zip":"3760001"},{"town":"菱町五丁目","koaza":"","lat":36.445641,"lng":139.3868,"zip":"3760001"},{"town":"平井町","koaza":"","lat":36.432742,"lng":139.346701,"zip":"3760051"},{"town":"広沢町一丁目","koaza":"","lat":36.392405,"lng":139.328792,"zip":"3760013"},{"town":"広沢町二丁目","koaza":"","lat":36.392094,"lng":139.320125,"zip":"3760013"},{"town":"広沢町三丁目","koaza":"","lat":36.382245,"lng":139.324495,"zip":"3760013"},{"town":"広沢町五丁目","koaza":"","lat":36.374174,"lng":139.341621,"zip":"3760013"},{"town":"広沢町六丁目","koaza":"","lat":36.369525,"lng":139.354604,"zip":"3760013"},{"town":"広沢町七丁目","koaza":"","lat":36.366145,"lng":139.365711,"zip":"3760013"},{"town":"本町一丁目","koaza":"","lat":36.419525,"lng":139.34475,"zip":"3760031"},{"town":"本町二丁目","koaza":"","lat":36.417246,"lng":139.343383,"zip":"3760031"},{"town":"本町三丁目","koaza":"","lat":36.415057,"lng":139.341812,"zip":"3760031"},{"town":"本町四丁目","koaza":"","lat":36.412936,"lng":139.340174,"zip":"3760031"},{"town":"本町五丁目","koaza":"","lat":36.410984,"lng":139.338903,"zip":"3760031"},{"town":"本町六丁目","koaza":"","lat":36.408388,"lng":139.336491,"zip":"3760031"},{"town":"美原町","koaza":"","lat":36.407431,"lng":139.329003,"zip":"3760025"},{"town":"宮前町一丁目","koaza":"","lat":36.414392,"lng":139.327247,"zip":"3760046"},{"town":"宮前町二丁目","koaza":"","lat":36.412909,"lng":139.331583,"zip":"3760046"},{"town":"宮本町","koaza":"","lat":36.414207,"lng":139.339916,"zip":"3760056"},{"town":"宮本町一丁目","koaza":"","lat":36.416186,"lng":139.339599,"zip":"3760056"},{"town":"宮本町二丁目","koaza":"","lat":36.418011,"lng":139.335925,"zip":"3760056"},{"town":"宮本町三丁目","koaza":"","lat":36.421526,"lng":139.336849,"zip":"3760056"},{"town":"宮本町四丁目","koaza":"","lat":36.431261,"lng":139.336828,"zip":"3760056"},{"town":"三吉町一丁目","koaza":"","lat":36.400429,"lng":139.334987,"zip":"3760005"},{"town":"三吉町二丁目","koaza":"","lat":36.39843,"lng":139.332975,"zip":"3760005"},{"town":"元宿町","koaza":"","lat":36.411179,"lng":139.325314,"zip":"3760027"},{"town":"横山町","koaza":"","lat":36.419179,"lng":139.342187,"zip":"3760055"},{"town":"広沢町間ノ島","koaza":"","lat":36.388928,"lng":139.33904,"zip":"3760014"},{"town":"広沢町四丁目","koaza":"","lat":36.378734,"lng":139.333426,"zip":"3760013"}]