[{"town":"秋塚町","koaza":"","lat":36.680651,"lng":139.080288,"zip":"3780076"},{"town":"石墨町","koaza":"","lat":36.684575,"lng":139.044865,"zip":"3780077"},{"town":"井土上町","koaza":"","lat":36.663759,"lng":139.022561,"zip":"3780035"},{"town":"今井町","koaza":"","lat":36.633732,"lng":138.997056,"zip":"3780025"},{"town":"岩本町","koaza":"","lat":36.596508,"lng":139.04036,"zip":"3780021"},{"town":"薄根町","koaza":"","lat":36.643291,"lng":139.030308,"zip":"3780031"},{"town":"宇楚井町","koaza":"","lat":36.684685,"lng":139.031555,"zip":"3780068"},{"town":"大釜町","koaza":"","lat":36.670555,"lng":139.036141,"zip":"3780067"},{"town":"岡谷町","koaza":"","lat":36.668181,"lng":139.062671,"zip":"3780061"},{"town":"恩田町","koaza":"","lat":36.655987,"lng":139.022686,"zip":"3780034"},{"town":"鍛冶町","koaza":"","lat":36.639635,"lng":139.042793,"zip":"3780018"},{"town":"上川田町","koaza":"","lat":36.64798,"lng":139.003971,"zip":"3780026"},{"town":"上久屋町","koaza":"","lat":36.660129,"lng":139.105541,"zip":"3780003"},{"town":"上沼須町","koaza":"","lat":36.644424,"lng":139.065054,"zip":"3780011"},{"town":"上之町","koaza":"","lat":36.645397,"lng":139.047667,"zip":"3780047"},{"town":"上原町","koaza":"","lat":36.650192,"lng":139.066167,"zip":"3780051"},{"town":"上発知町","koaza":"","lat":36.74551,"lng":139.068131,"zip":"3780071"},{"town":"久屋原町","koaza":"","lat":36.662784,"lng":139.091147,"zip":"3780005"},{"town":"材木町","koaza":"","lat":36.644599,"lng":139.050024,"zip":"3780045"},{"town":"栄町","koaza":"","lat":36.635069,"lng":139.048051,"zip":"3780014"},{"town":"桜町","koaza":"","lat":36.653654,"lng":139.067518,"zip":"3780052"},{"town":"佐山町","koaza":"","lat":36.738693,"lng":139.03877,"zip":"3780078"},{"town":"清水町","koaza":"","lat":36.640416,"lng":139.038717,"zip":"3780016"},{"town":"下川田町","koaza":"","lat":36.618744,"lng":139.003647,"zip":"3780024"},{"town":"下久屋町","koaza":"","lat":36.655468,"lng":139.081386,"zip":"3780004"},{"town":"下沼田町","koaza":"","lat":36.658166,"lng":139.036875,"zip":"3780063"},{"town":"下之町","koaza":"","lat":36.643233,"lng":139.041692,"zip":"3780044"},{"town":"下発知町","koaza":"","lat":36.684171,"lng":139.061215,"zip":"3780074"},{"town":"白岩町","koaza":"","lat":36.653621,"lng":139.035967,"zip":"3780033"},{"town":"白沢町岩室","koaza":"","lat":36.644388,"lng":139.166527,"zip":"3780123"},{"town":"白沢町尾合","koaza":"","lat":36.651254,"lng":139.145087,"zip":"3780124"},{"town":"白沢町上古語父","koaza":"","lat":36.673114,"lng":139.122591,"zip":"3780126"},{"town":"白沢町下古語父","koaza":"","lat":36.679764,"lng":139.116178,"zip":"3780127"},{"town":"白沢町高平","koaza":"","lat":36.681153,"lng":139.163535,"zip":"3780121"},{"town":"白沢町生枝","koaza":"","lat":36.663076,"lng":139.161192,"zip":"3780122"},{"town":"白沢町平出","koaza":"","lat":36.657668,"lng":139.127367,"zip":"3780125"},{"town":"新町","koaza":"","lat":36.623016,"lng":139.04617,"zip":"3780013"},{"town":"硯田町","koaza":"","lat":36.647695,"lng":139.025779,"zip":"3780032"},{"town":"善桂寺町","koaza":"","lat":36.666486,"lng":139.039656,"zip":"3780064"},{"town":"高橋場町","koaza":"","lat":36.655507,"lng":139.060212,"zip":"3780056"},{"town":"戸鹿野町","koaza":"","lat":36.627946,"lng":139.041961,"zip":"3780015"},{"town":"戸神町","koaza":"","lat":36.6762,"lng":139.053421,"zip":"3780001"},{"town":"利根町青木","koaza":"","lat":36.628458,"lng":139.167064,"zip":"3780314"},{"town":"利根町穴原","koaza":"","lat":36.650409,"lng":139.203304,"zip":"3780305"},{"town":"利根町石戸新田","koaza":"","lat":36.637504,"lng":139.142662,"zip":"3780326"},{"town":"利根町老神","koaza":"","lat":36.672142,"lng":139.207652,"zip":"3780322"},{"town":"利根町大原","koaza":"","lat":36.682098,"lng":139.192115,"zip":"3780323"},{"town":"利根町大楊","koaza":"","lat":36.679382,"lng":139.222323,"zip":"3780304"},{"town":"利根町追貝","koaza":"","lat":36.698052,"lng":139.243764,"zip":"3780303"},{"town":"利根町柿平","koaza":"","lat":36.625837,"lng":139.199854,"zip":"3780307"},{"town":"利根町小松","koaza":"","lat":36.621696,"lng":139.214506,"zip":"3780311"},{"town":"利根町砂川","koaza":"","lat":36.610776,"lng":139.164244,"zip":"3780315"},{"town":"利根町園原","koaza":"","lat":36.655456,"lng":139.183301,"zip":"3780324"},{"town":"利根町高戸谷","koaza":"","lat":36.700807,"lng":139.196917,"zip":"3780321"},{"town":"利根町多那","koaza":"","lat":36.637004,"lng":139.135049,"zip":"3780317"},{"town":"利根町千鳥","koaza":"","lat":36.718434,"lng":139.219392,"zip":"3780302"},{"town":"利根町二本松","koaza":"","lat":36.62223,"lng":139.145895,"zip":"3780316"},{"town":"利根町根利","koaza":"","lat":36.627883,"lng":139.272209,"zip":"3780312"},{"town":"利根町日影南郷","koaza":"","lat":36.622986,"lng":139.185818,"zip":"3780313"},{"town":"利根町日向南郷","koaza":"","lat":36.635346,"lng":139.191539,"zip":"3780306"},{"town":"利根町平川","koaza":"","lat":36.731769,"lng":139.293763,"zip":"3780301"},{"town":"利根町輪組","koaza":"","lat":36.634134,"lng":139.155671,"zip":"3780325"},{"town":"中発知町","koaza":"","lat":36.709801,"lng":139.061534,"zip":"3780072"},{"town":"中町","koaza":"","lat":36.644667,"lng":139.045973,"zip":"3780048"},{"town":"奈良町","koaza":"","lat":36.683358,"lng":139.071085,"zip":"3780075"},{"town":"西倉内町","koaza":"","lat":36.646969,"lng":139.041395,"zip":"3780042"},{"town":"西原新町","koaza":"","lat":36.644945,"lng":139.053433,"zip":"3780054"},{"town":"沼須町","koaza":"","lat":36.631214,"lng":139.054711,"zip":"3780012"},{"town":"馬喰町","koaza":"","lat":36.642447,"lng":139.047956,"zip":"3780046"},{"town":"原町","koaza":"","lat":36.669471,"lng":139.02811,"zip":"3780066"},{"town":"榛名町","koaza":"","lat":36.645343,"lng":139.0378,"zip":"3780041"},{"town":"東倉内町","koaza":"","lat":36.647901,"lng":139.04532,"zip":"3780043"},{"town":"東原新町","koaza":"","lat":36.64661,"lng":139.05689,"zip":"3780053"},{"town":"坊新田町","koaza":"","lat":36.641017,"lng":139.046549,"zip":"3780017"},{"town":"発知新田町","koaza":"","lat":36.694962,"lng":139.061686,"zip":"3780073"},{"town":"堀廻町","koaza":"","lat":36.663032,"lng":139.033671,"zip":"3780065"},{"town":"町田町","koaza":"","lat":36.664126,"lng":139.049132,"zip":"3780062"},{"town":"屋形原町","koaza":"","lat":36.603365,"lng":139.0229,"zip":"3780022"},{"town":"柳町","koaza":"","lat":36.654216,"lng":139.046486,"zip":"3780055"},{"town":"横塚町","koaza":"","lat":36.664609,"lng":139.083935,"zip":"3780002"},{"town":"井土上町","koaza":"内川原","lat":36.661177,"lng":139.016569,"zip":"3780035"},{"town":"薄根町","koaza":"砂押","lat":36.637989,"lng":139.037806,"zip":"3780031"},{"town":"久屋原町","koaza":"吉野","lat":36.666008,"lng":139.10934,"zip":"3780005"},{"town":"久屋原町","koaza":"上原","lat":36.664949,"lng":139.102755,"zip":"3780005"}]