[{"town":"赤城町勝保沢","koaza":"","lat":36.523192,"lng":139.048309,"zip":"3791122"},{"town":"赤城町上三原田","koaza":"","lat":36.508536,"lng":139.043628,"zip":"3791125"},{"town":"赤城町北赤城山","koaza":"","lat":36.562036,"lng":139.138453,"zip":"3791111"},{"town":"赤城町北上野","koaza":"","lat":36.533952,"lng":139.054832,"zip":"3791105"},{"town":"赤城町栄","koaza":"","lat":36.51675,"lng":139.081483,"zip":"3791114"},{"town":"赤城町敷島","koaza":"","lat":36.534969,"lng":139.038727,"zip":"3791104"},{"town":"赤城町滝沢","koaza":"","lat":36.514255,"lng":139.043937,"zip":"3791124"},{"town":"赤城町棚下","koaza":"","lat":36.575661,"lng":139.061763,"zip":"3791101"},{"town":"赤城町樽","koaza":"","lat":36.508994,"lng":139.022321,"zip":"3791127"},{"town":"赤城町津久田","koaza":"","lat":36.55144,"lng":139.049646,"zip":"3791103"},{"town":"赤城町長井小川田","koaza":"","lat":36.561064,"lng":139.066489,"zip":"3791102"},{"town":"赤城町溝呂木","koaza":"","lat":36.518903,"lng":139.063149,"zip":"3791115"},{"town":"赤城町見立","koaza":"","lat":36.514616,"lng":139.034375,"zip":"3791123"},{"town":"赤城町南赤城山","koaza":"","lat":36.533282,"lng":139.098776,"zip":"3791113"},{"town":"赤城町三原田","koaza":"","lat":36.505948,"lng":139.030909,"zip":"3791126"},{"town":"赤城町宮田","koaza":"","lat":36.525189,"lng":139.030832,"zip":"3791121"},{"town":"赤城町深山","koaza":"","lat":36.564016,"lng":139.096408,"zip":"3791112"},{"town":"赤城町持柏木","koaza":"","lat":36.503269,"lng":139.052259,"zip":"3791116"},{"town":"阿久津","koaza":"","lat":36.506671,"lng":139.006712,"zip":"3770031"},{"town":"有馬","koaza":"","lat":36.469138,"lng":138.982007,"zip":"3770005"},{"town":"伊香保町伊香保","koaza":"","lat":36.490004,"lng":138.922353,"zip":"3770102"},{"town":"伊香保町水沢","koaza":"","lat":36.478689,"lng":138.944834,"zip":"3770103"},{"town":"伊香保町湯中子","koaza":"","lat":36.499627,"lng":138.900223,"zip":"3770101"},{"town":"石原","koaza":"","lat":36.487267,"lng":138.982217,"zip":"3770007"},{"town":"祖母島","koaza":"","lat":36.529489,"lng":138.949585,"zip":"3770024"},{"town":"小野子","koaza":"","lat":36.564547,"lng":138.956733,"zip":"3770312"},{"town":"金井","koaza":"","lat":36.51151,"lng":138.977948,"zip":"3770027"},{"town":"上白井","koaza":"","lat":36.563164,"lng":139.026635,"zip":"3770201"},{"town":"川島","koaza":"","lat":36.522591,"lng":138.967566,"zip":"3770025"},{"town":"北牧","koaza":"","lat":36.531446,"lng":138.990961,"zip":"3770205"},{"town":"渋川","koaza":"","lat":36.496038,"lng":138.978716,"zip":"3770008"},{"town":"白井","koaza":"","lat":36.512443,"lng":139.013015,"zip":"3770204"},{"town":"中郷","koaza":"","lat":36.555138,"lng":139.003391,"zip":"3770202"},{"town":"中村","koaza":"","lat":36.480736,"lng":139.01636,"zip":"3770002"},{"town":"南牧","koaza":"","lat":36.523226,"lng":138.988906,"zip":"3770026"},{"town":"半田","koaza":"","lat":36.463807,"lng":139.029575,"zip":"3770004"},{"town":"吹屋","koaza":"","lat":36.523302,"lng":139.014905,"zip":"3770203"},{"town":"北橘町赤城山","koaza":"","lat":36.507236,"lng":139.085236,"zip":"3770051"},{"town":"北橘町上南室","koaza":"","lat":36.497064,"lng":139.064439,"zip":"3770055"},{"town":"北橘町上箱田","koaza":"","lat":36.491471,"lng":139.070406,"zip":"3770052"},{"town":"北橘町小室","koaza":"","lat":36.492525,"lng":139.044817,"zip":"3770065"},{"town":"北橘町下南室","koaza":"","lat":36.487154,"lng":139.051492,"zip":"3770054"},{"town":"北橘町下箱田","koaza":"","lat":36.463838,"lng":139.043355,"zip":"3770061"},{"town":"北橘町箱田","koaza":"","lat":36.472262,"lng":139.05245,"zip":"3770053"},{"town":"北橘町八崎","koaza":"","lat":36.495205,"lng":139.029409,"zip":"3770064"},{"town":"北橘町分郷八崎","koaza":"","lat":36.483756,"lng":139.028455,"zip":"3770063"},{"town":"北橘町真壁","koaza":"","lat":36.479144,"lng":139.04242,"zip":"3770062"},{"town":"行幸田","koaza":"","lat":36.477439,"lng":138.983165,"zip":"3770006"},{"town":"村上","koaza":"","lat":36.567151,"lng":138.913381,"zip":"3770311"},{"town":"八木原","koaza":"","lat":36.464913,"lng":139.01697,"zip":"3770003"},{"town":"横堀","koaza":"","lat":36.553907,"lng":138.98321,"zip":"3770206"},{"town":"渋川","koaza":"明保野","lat":36.49009,"lng":138.946993,"zip":"3770008"},{"town":"渋川","koaza":"御蔭","lat":36.504151,"lng":138.97301,"zip":"3770008"},{"town":"渋川","koaza":"入沢","lat":36.503377,"lng":138.988732,"zip":"3770008"},{"town":"渋川","koaza":"元町","lat":36.502876,"lng":138.99331,"zip":"3770008"},{"town":"金井","koaza":"原","lat":36.506024,"lng":138.995907,"zip":"3770027"},{"town":"渋川","koaza":"川原町","lat":36.496281,"lng":138.997556,"zip":"3770008"},{"town":"行幸田","koaza":"壱町田","lat":36.473584,"lng":138.99978,"zip":"3770006"},{"town":"渋川","koaza":"坂下町","lat":36.503026,"lng":139.00549,"zip":"3770008"},{"town":"金井","koaza":"田中","lat":36.511119,"lng":139.005996,"zip":"3770027"},{"town":"渋川","koaza":"辰巳町","lat":36.491072,"lng":139.007105,"zip":"3770008"},{"town":"有馬","koaza":"中井","lat":36.472312,"lng":139.009169,"zip":"3770005"},{"town":"渋川","koaza":"大崎","lat":36.492549,"lng":139.011348,"zip":"3770008"},{"town":"八木原","koaza":"沖田","lat":36.472707,"lng":139.014665,"zip":"3770003"},{"town":"白井","koaza":"南中道","lat":36.508589,"lng":139.014845,"zip":"3770204"},{"town":"半田","koaza":"元中島","lat":36.465223,"lng":139.031801,"zip":"3770004"}]