[{"town":"大字青倉","koaza":"","lat":36.172806,"lng":138.776417,"zip":"3702600"},{"town":"大字大桑原","koaza":"","lat":36.200516,"lng":138.767375,"zip":"3702600"},{"town":"大字風口","koaza":"","lat":36.207387,"lng":138.761346,"zip":"3702600"},{"town":"大字上小坂","koaza":"","lat":36.272241,"lng":138.734615,"zip":"3702600"},{"town":"大字川井","koaza":"","lat":36.208921,"lng":138.776946,"zip":"3702600"},{"town":"大字栗山","koaza":"","lat":36.176852,"lng":138.808151,"zip":"3702600"},{"town":"大字下小坂","koaza":"","lat":36.220551,"lng":138.769466,"zip":"3702600"},{"town":"大字下郷","koaza":"","lat":36.201958,"lng":138.745131,"zip":"3702600"},{"town":"大字下仁田","koaza":"","lat":36.215574,"lng":138.785885,"zip":"3702600"},{"town":"大字中小坂","koaza":"","lat":36.238856,"lng":138.763131,"zip":"3702600"},{"town":"大字西野牧","koaza":"","lat":36.272427,"lng":138.660312,"zip":"3702600"},{"town":"大字白山","koaza":"","lat":36.219091,"lng":138.79346,"zip":"3702600"},{"town":"大字東野牧","koaza":"","lat":36.232452,"lng":138.73015,"zip":"3702600"},{"town":"大字平原","koaza":"","lat":36.151218,"lng":138.780608,"zip":"3702600"},{"town":"大字馬山","koaza":"","lat":36.210705,"lng":138.815684,"zip":"3702600"},{"town":"大字南野牧","koaza":"","lat":36.226564,"lng":138.657442,"zip":"3702600"},{"town":"大字宮室","koaza":"","lat":36.194307,"lng":138.758959,"zip":"3702600"},{"town":"大字本宿","koaza":"","lat":36.248567,"lng":138.718133,"zip":"3702600"},{"town":"大字吉崎","koaza":"","lat":36.198392,"lng":138.801503,"zip":"3702600"}]