[{"town":"入ケ谷","koaza":"","lat":36.213032,"lng":139.50683,"zip":"3700711"},{"town":"梅原","koaza":"","lat":36.197254,"lng":139.532191,"zip":"3700714"},{"town":"江口","koaza":"","lat":36.202011,"lng":139.54652,"zip":"3700706"},{"town":"大佐貫","koaza":"","lat":36.206266,"lng":139.517088,"zip":"3700715"},{"town":"大輪","koaza":"","lat":36.202242,"lng":139.497986,"zip":"3700718"},{"town":"上江黒","koaza":"","lat":36.215383,"lng":139.561561,"zip":"3700702"},{"town":"川俣","koaza":"","lat":36.196777,"lng":139.516623,"zip":"3700716"},{"town":"下江黒","koaza":"","lat":36.216072,"lng":139.574455,"zip":"3700703"},{"town":"須賀","koaza":"","lat":36.199241,"lng":139.508038,"zip":"3700717"},{"town":"千津井","koaza":"","lat":36.206982,"lng":139.567114,"zip":"3700705"},{"town":"田島","koaza":"","lat":36.210049,"lng":139.547999,"zip":"3700707"},{"town":"斗合田","koaza":"","lat":36.212776,"lng":139.582564,"zip":"3700704"},{"town":"中谷","koaza":"","lat":36.207753,"lng":139.524633,"zip":"3700713"},{"town":"新里","koaza":"","lat":36.207999,"lng":139.53392,"zip":"3700708"},{"town":"南大島","koaza":"","lat":36.216009,"lng":139.538615,"zip":"3700701"},{"town":"矢島","koaza":"","lat":36.211186,"lng":139.515066,"zip":"3700712"}]