[{"town":"大字上五箇","koaza":"","lat":36.196031,"lng":139.46271,"zip":"3700500"},{"town":"大字上中森","koaza":"","lat":36.196435,"lng":139.474744,"zip":"3700500"},{"town":"大字萱野","koaza":"","lat":36.20771,"lng":139.46564,"zip":"3700500"},{"town":"大字木崎","koaza":"","lat":36.212263,"lng":139.462059,"zip":"3700500"},{"town":"大字下中森","koaza":"","lat":36.197837,"lng":139.486861,"zip":"3700500"},{"town":"大字昭和","koaza":"","lat":36.204844,"lng":139.479675,"zip":"3700500"},{"town":"大字新福寺","koaza":"","lat":36.23651,"lng":139.423465,"zip":"3700500"},{"town":"大字瀬戸井","koaza":"","lat":36.197989,"lng":139.452884,"zip":"3700500"},{"town":"大字鍋谷","koaza":"","lat":36.216118,"lng":139.453795,"zip":"3700500"},{"town":"大字福島","koaza":"","lat":36.232071,"lng":139.43579,"zip":"3700500"},{"town":"大字舞木","koaza":"","lat":36.218392,"lng":139.428127,"zip":"3700500"},{"town":"舞木東","koaza":"","lat":36.214575,"lng":139.435918,"zip":"3700507"},{"town":"大字赤岩","koaza":"","lat":36.214873,"lng":139.443561,"zip":"3700500"},{"town":"赤岩西","koaza":"","lat":36.211824,"lng":139.437462,"zip":"3700506"}]