[{"town":"朝日野一丁目","koaza":"","lat":36.224293,"lng":139.646391,"zip":"3740112"},{"town":"朝日野二丁目","koaza":"","lat":36.222566,"lng":139.648783,"zip":"3740112"},{"town":"朝日野三丁目","koaza":"","lat":36.21846,"lng":139.643592,"zip":"3740112"},{"town":"朝日野四丁目","koaza":"","lat":36.218342,"lng":139.640862,"zip":"3740112"},{"town":"泉野一丁目","koaza":"","lat":36.223149,"lng":139.634799,"zip":"3740113"},{"town":"大字飯野","koaza":"","lat":36.206862,"lng":139.607548,"zip":"3740100"},{"town":"大字板倉","koaza":"","lat":36.224795,"lng":139.610865,"zip":"3740100"},{"town":"大字岩田","koaza":"","lat":36.223566,"lng":139.590811,"zip":"3740100"},{"town":"大字内蔵新田","koaza":"","lat":36.236604,"lng":139.593419,"zip":"3740100"},{"town":"大字大蔵","koaza":"","lat":36.226624,"lng":139.620544,"zip":"3740100"},{"town":"大字大高嶋","koaza":"","lat":36.199305,"lng":139.624569,"zip":"3740100"},{"town":"大字大荷場","koaza":"","lat":36.242502,"lng":139.610763,"zip":"3740100"},{"town":"大字大曲","koaza":"","lat":36.247393,"lng":139.601092,"zip":"3740100"},{"town":"大字下五箇","koaza":"","lat":36.20356,"lng":139.643873,"zip":"3740100"},{"town":"大字西岡","koaza":"","lat":36.265796,"lng":139.616381,"zip":"3740100"},{"town":"大字西岡新田","koaza":"","lat":36.264002,"lng":139.606335,"zip":"3740100"},{"town":"大字離","koaza":"","lat":36.243253,"lng":139.635134,"zip":"3740100"},{"town":"大字細谷","koaza":"","lat":36.244156,"lng":139.620719,"zip":"3740100"},{"town":"大字籾谷","koaza":"","lat":36.240436,"lng":139.58147,"zip":"3740100"},{"town":"大字除川","koaza":"","lat":36.261301,"lng":139.629066,"zip":"3740100"},{"town":"大字海老瀬","koaza":"","lat":36.224719,"lng":139.655551,"zip":"3740100"},{"town":"泉野三丁目","koaza":"","lat":36.228162,"lng":139.639411,"zip":"3740113"},{"town":"泉野二丁目","koaza":"","lat":36.227127,"lng":139.633508,"zip":"3740113"}]