[{"town":"朝日一丁目","koaza":"","lat":36.251089,"lng":139.426602,"zip":"3700514"},{"town":"朝日二丁目","koaza":"","lat":36.254285,"lng":139.42801,"zip":"3700514"},{"town":"朝日三丁目","koaza":"","lat":36.25515,"lng":139.423442,"zip":"3700514"},{"town":"朝日四丁目","koaza":"","lat":36.252241,"lng":139.421397,"zip":"3700514"},{"town":"朝日五丁目","koaza":"","lat":36.249003,"lng":139.419411,"zip":"3700514"},{"town":"いずみ一丁目","koaza":"","lat":36.269646,"lng":139.406255,"zip":"3700531"},{"town":"いずみ二丁目","koaza":"","lat":36.264062,"lng":139.40532,"zip":"3700531"},{"town":"大字上小泉","koaza":"","lat":36.265169,"lng":139.42839,"zip":"3700500"},{"town":"大字古海","koaza":"","lat":36.22772,"lng":139.40547,"zip":"3700500"},{"town":"大字坂田","koaza":"","lat":36.264149,"lng":139.401097,"zip":"3700500"},{"town":"大字下小泉","koaza":"","lat":36.247978,"lng":139.424485,"zip":"3700500"},{"town":"大字仙石","koaza":"","lat":36.237525,"lng":139.392838,"zip":"3700500"},{"town":"大字古氷","koaza":"","lat":36.262129,"lng":139.392694,"zip":"3700500"},{"town":"大字吉田","koaza":"","lat":36.24094,"lng":139.413049,"zip":"3700500"},{"town":"大字寄木戸","koaza":"","lat":36.252697,"lng":139.388798,"zip":"3700500"},{"town":"丘山","koaza":"","lat":36.24215,"lng":139.387222,"zip":"3700534"},{"town":"北小泉一丁目","koaza":"","lat":36.263373,"lng":139.420677,"zip":"3700511"},{"town":"北小泉二丁目","koaza":"","lat":36.268176,"lng":139.420737,"zip":"3700511"},{"town":"北小泉三丁目","koaza":"","lat":36.265757,"lng":139.417136,"zip":"3700511"},{"town":"北小泉四丁目","koaza":"","lat":36.268771,"lng":139.415117,"zip":"3700511"},{"town":"坂田一丁目","koaza":"","lat":36.252257,"lng":139.400392,"zip":"3700532"},{"town":"坂田二丁目","koaza":"","lat":36.255955,"lng":139.404848,"zip":"3700532"},{"town":"坂田三丁目","koaza":"","lat":36.256646,"lng":139.400261,"zip":"3700532"},{"town":"坂田四丁目","koaza":"","lat":36.259195,"lng":139.399733,"zip":"3700532"},{"town":"坂田五丁目","koaza":"","lat":36.259153,"lng":139.404802,"zip":"3700532"},{"town":"坂田六丁目","koaza":"","lat":36.260962,"lng":139.39971,"zip":"3700532"},{"town":"坂田七丁目","koaza":"","lat":36.262506,"lng":139.404733,"zip":"3700532"},{"town":"城之内一丁目","koaza":"","lat":36.259123,"lng":139.416306,"zip":"3700518"},{"town":"城之内二丁目","koaza":"","lat":36.261072,"lng":139.414871,"zip":"3700518"},{"town":"城之内三丁目","koaza":"","lat":36.264302,"lng":139.414662,"zip":"3700518"},{"town":"城之内四丁目","koaza":"","lat":36.263526,"lng":139.411624,"zip":"3700518"},{"town":"城之内五丁目","koaza":"","lat":36.265197,"lng":139.410842,"zip":"3700518"},{"town":"住吉","koaza":"","lat":36.251763,"lng":139.408792,"zip":"3700521"},{"town":"仙石一丁目","koaza":"","lat":36.239797,"lng":139.398047,"zip":"3700533"},{"town":"仙石二丁目","koaza":"","lat":36.245297,"lng":139.400599,"zip":"3700533"},{"town":"仙石三丁目","koaza":"","lat":36.24661,"lng":139.395414,"zip":"3700533"},{"town":"仙石四丁目","koaza":"","lat":36.24133,"lng":139.392642,"zip":"3700533"},{"town":"中央一丁目","koaza":"","lat":36.254596,"lng":139.418893,"zip":"3700516"},{"town":"中央二丁目","koaza":"","lat":36.254506,"lng":139.416491,"zip":"3700516"},{"town":"中央三丁目","koaza":"","lat":36.257687,"lng":139.417851,"zip":"3700516"},{"town":"西小泉一丁目","koaza":"","lat":36.254619,"lng":139.413922,"zip":"3700517"},{"town":"西小泉二丁目","koaza":"","lat":36.254923,"lng":139.411415,"zip":"3700517"},{"town":"西小泉三丁目","koaza":"","lat":36.255423,"lng":139.408714,"zip":"3700517"},{"town":"西小泉四丁目","koaza":"","lat":36.258972,"lng":139.410467,"zip":"3700517"},{"town":"西小泉五丁目","koaza":"","lat":36.260141,"lng":139.408022,"zip":"3700517"},{"town":"東小泉一丁目","koaza":"","lat":36.258788,"lng":139.43089,"zip":"3700513"},{"town":"東小泉二丁目","koaza":"","lat":36.259197,"lng":139.425647,"zip":"3700513"},{"town":"東小泉三丁目","koaza":"","lat":36.25925,"lng":139.421089,"zip":"3700513"},{"town":"日の出","koaza":"","lat":36.248286,"lng":139.407322,"zip":"3700525"},{"town":"富士一丁目","koaza":"","lat":36.249455,"lng":139.415847,"zip":"3700522"},{"town":"富士二丁目","koaza":"","lat":36.250211,"lng":139.413246,"zip":"3700522"},{"town":"富士三丁目","koaza":"","lat":36.246983,"lng":139.411345,"zip":"3700522"}]