[{"town":"青柳町","koaza":"","lat":36.222711,"lng":139.517168,"zip":"3740035"},{"town":"赤土町","koaza":"","lat":36.241439,"lng":139.517577,"zip":"3740053"},{"town":"赤生田町","koaza":"","lat":36.226948,"lng":139.565736,"zip":"3740013"},{"town":"赤生田本町","koaza":"","lat":36.222846,"lng":139.556361,"zip":"3740014"},{"town":"朝日町","koaza":"","lat":36.252652,"lng":139.538788,"zip":"3740063"},{"town":"足次町","koaza":"","lat":36.265533,"lng":139.537675,"zip":"3740073"},{"town":"入ケ谷町","koaza":"","lat":36.213907,"lng":139.500984,"zip":"3740045"},{"town":"大街道一丁目","koaza":"","lat":36.252922,"lng":139.525729,"zip":"3740066"},{"town":"大街道二丁目","koaza":"","lat":36.257185,"lng":139.521983,"zip":"3740066"},{"town":"大街道三丁目","koaza":"","lat":36.255627,"lng":139.528714,"zip":"3740066"},{"town":"大島町","koaza":"","lat":36.259038,"lng":139.597109,"zip":"3740001"},{"town":"大新田町","koaza":"","lat":36.261359,"lng":139.550456,"zip":"3740072"},{"town":"大手町","koaza":"","lat":36.247535,"lng":139.538044,"zip":"3740023"},{"town":"大谷町","koaza":"","lat":36.243576,"lng":139.500852,"zip":"3740054"},{"town":"岡野町","koaza":"","lat":36.264594,"lng":139.525716,"zip":"3740067"},{"town":"尾曳町","koaza":"","lat":36.246115,"lng":139.547961,"zip":"3740019"},{"town":"加法師町","koaza":"","lat":36.250884,"lng":139.546721,"zip":"3740022"},{"town":"上赤生田町","koaza":"","lat":36.225515,"lng":139.547471,"zip":"3740015"},{"town":"上早川田町","koaza":"","lat":36.275887,"lng":139.534802,"zip":"3740079"},{"town":"上三林町","koaza":"","lat":36.218622,"lng":139.486826,"zip":"3740046"},{"town":"北成島町","koaza":"","lat":36.254594,"lng":139.513499,"zip":"3740057"},{"town":"木戸町","koaza":"","lat":36.277385,"lng":139.51889,"zip":"3740077"},{"town":"楠町","koaza":"","lat":36.243573,"lng":139.57508,"zip":"3740004"},{"town":"小桑原町","koaza":"","lat":36.232178,"lng":139.52533,"zip":"3740037"},{"town":"近藤町","koaza":"","lat":36.236273,"lng":139.502334,"zip":"3740042"},{"town":"栄町","koaza":"","lat":36.247555,"lng":139.523918,"zip":"3740052"},{"town":"坂下町","koaza":"","lat":36.258287,"lng":139.534871,"zip":"3740069"},{"town":"下早川田町","koaza":"","lat":36.271184,"lng":139.547734,"zip":"3740071"},{"town":"下三林町","koaza":"","lat":36.221961,"lng":139.503899,"zip":"3740044"},{"town":"城町","koaza":"","lat":36.245845,"lng":139.541187,"zip":"3740018"},{"town":"新栄町","koaza":"","lat":36.252197,"lng":139.521996,"zip":"3740051"},{"town":"新宿一丁目","koaza":"","lat":36.239137,"lng":139.528719,"zip":"3740026"},{"town":"新宿二丁目","koaza":"","lat":36.238438,"lng":139.524281,"zip":"3740026"},{"town":"諏訪町","koaza":"","lat":36.230071,"lng":139.521847,"zip":"3740036"},{"town":"瀬戸谷町","koaza":"","lat":36.252711,"lng":139.543731,"zip":"3740021"},{"town":"代官町","koaza":"","lat":36.252612,"lng":139.53222,"zip":"3740064"},{"town":"台宿町","koaza":"","lat":36.253894,"lng":139.534657,"zip":"3740068"},{"town":"高根町","koaza":"","lat":36.265425,"lng":139.514961,"zip":"3740074"},{"town":"田谷町","koaza":"","lat":36.25431,"lng":139.586506,"zip":"3740002"},{"town":"千塚町","koaza":"","lat":36.257636,"lng":139.570093,"zip":"3740009"},{"town":"千代田町","koaza":"","lat":36.244002,"lng":139.53016,"zip":"3740028"},{"town":"つつじ町","koaza":"","lat":36.241096,"lng":139.547088,"zip":"3740017"},{"town":"当郷町","koaza":"","lat":36.249703,"lng":139.562355,"zip":"3740006"},{"town":"苗木町","koaza":"","lat":36.230033,"lng":139.511207,"zip":"3740043"},{"town":"仲町","koaza":"","lat":36.248551,"lng":139.530123,"zip":"3740029"},{"town":"成島町","koaza":"","lat":36.247523,"lng":139.501167,"zip":"3740055"},{"town":"西高根町","koaza":"","lat":36.259731,"lng":139.512066,"zip":"3740075"},{"town":"西本町","koaza":"","lat":36.251553,"lng":139.529876,"zip":"3740065"},{"town":"西美園町","koaza":"","lat":36.232228,"lng":139.529059,"zip":"3740038"},{"town":"野辺町","koaza":"","lat":36.218196,"lng":139.468786,"zip":"3740047"},{"town":"花山町","koaza":"","lat":36.239088,"lng":139.557481,"zip":"3740005"},{"town":"羽附旭町","koaza":"","lat":36.228417,"lng":139.576345,"zip":"3740012"},{"town":"羽附町","koaza":"","lat":36.23191,"lng":139.56556,"zip":"3740011"},{"town":"東広内町","koaza":"","lat":36.257014,"lng":139.545395,"zip":"3740061"},{"town":"東美園町","koaza":"","lat":36.233171,"lng":139.540834,"zip":"3740031"},{"town":"日向町","koaza":"","lat":36.267043,"lng":139.502147,"zip":"3740076"},{"town":"広内町","koaza":"","lat":36.257933,"lng":139.539718,"zip":"3740062"},{"town":"富士原町","koaza":"","lat":36.23878,"lng":139.516591,"zip":"3740041"},{"town":"富士見町","koaza":"","lat":36.24311,"lng":139.524525,"zip":"3740027"},{"town":"分福町","koaza":"","lat":36.223881,"lng":139.522197,"zip":"3740034"},{"town":"傍示塚町","koaza":"","lat":36.278511,"lng":139.527576,"zip":"3740078"},{"town":"細内町","koaza":"","lat":36.258068,"lng":139.559315,"zip":"3740008"},{"town":"堀工町","koaza":"","lat":36.224841,"lng":139.532499,"zip":"3740033"},{"town":"本町一丁目","koaza":"","lat":36.249552,"lng":139.534771,"zip":"3740024"},{"town":"本町二丁目","koaza":"","lat":36.246409,"lng":139.53174,"zip":"3740024"},{"town":"本町三丁目","koaza":"","lat":36.244717,"lng":139.535964,"zip":"3740024"},{"town":"本町四丁目","koaza":"","lat":36.242456,"lng":139.534265,"zip":"3740024"},{"town":"松沼町","koaza":"","lat":36.255041,"lng":139.502188,"zip":"3740056"},{"town":"松原一丁目","koaza":"","lat":36.240653,"lng":139.539199,"zip":"3740016"},{"town":"松原二丁目","koaza":"","lat":36.23594,"lng":139.545763,"zip":"3740016"},{"town":"松原三丁目","koaza":"","lat":36.235517,"lng":139.540276,"zip":"3740016"},{"town":"美園町","koaza":"","lat":36.23262,"lng":139.534078,"zip":"3740039"},{"town":"緑町一丁目","koaza":"","lat":36.238562,"lng":139.531803,"zip":"3740025"},{"town":"緑町二丁目","koaza":"","lat":36.238025,"lng":139.53668,"zip":"3740025"},{"town":"南美園町","koaza":"","lat":36.230548,"lng":139.542493,"zip":"3740032"},{"town":"四ツ谷町","koaza":"","lat":36.249573,"lng":139.576644,"zip":"3740003"},{"town":"若宮町","koaza":"","lat":36.254446,"lng":139.550823,"zip":"3740007"}]