[{"town":"相生町","koaza":"","lat":36.332412,"lng":139.000687,"zip":"3700811"},{"town":"赤坂町","koaza":"","lat":36.330283,"lng":138.999879,"zip":"3700818"},{"town":"阿久津町","koaza":"","lat":36.288279,"lng":139.057927,"zip":"3701211"},{"town":"旭町","koaza":"","lat":36.325902,"lng":139.011623,"zip":"3700052"},{"town":"足門町","koaza":"","lat":36.398324,"lng":138.991526,"zip":"3703531"},{"town":"東町","koaza":"","lat":36.325926,"lng":139.015871,"zip":"3700045"},{"town":"あら町","koaza":"","lat":36.322085,"lng":139.007863,"zip":"3700831"},{"town":"飯玉町","koaza":"","lat":36.339039,"lng":139.015893,"zip":"3700063"},{"town":"飯塚町","koaza":"","lat":36.341882,"lng":139.00684,"zip":"3700069"},{"town":"石原町","koaza":"","lat":36.305723,"lng":138.995848,"zip":"3700864"},{"town":"井出町","koaza":"","lat":36.372482,"lng":138.988955,"zip":"3703534"},{"town":"稲荷町","koaza":"","lat":36.338842,"lng":139.018599,"zip":"3700062"},{"town":"井野町","koaza":"","lat":36.355373,"lng":139.026518,"zip":"3700004"},{"town":"岩押町","koaza":"","lat":36.322389,"lng":139.021153,"zip":"3700044"},{"town":"岩鼻町","koaza":"","lat":36.294328,"lng":139.080792,"zip":"3701208"},{"town":"請地町","koaza":"","lat":36.334321,"lng":139.003319,"zip":"3700067"},{"town":"後疋間町","koaza":"","lat":36.395804,"lng":139.013715,"zip":"3703518"},{"town":"歌川町","koaza":"","lat":36.330983,"lng":138.99653,"zip":"3700807"},{"town":"江木町","koaza":"","lat":36.331065,"lng":139.020421,"zip":"3700046"},{"town":"大沢町","koaza":"","lat":36.350916,"lng":139.063833,"zip":"3700012"},{"town":"大橋町","koaza":"","lat":36.338128,"lng":138.999698,"zip":"3700803"},{"town":"大八木町","koaza":"","lat":36.36134,"lng":138.999566,"zip":"3700072"},{"town":"沖町","koaza":"","lat":36.362854,"lng":138.958529,"zip":"3700086"},{"town":"貝沢町","koaza":"","lat":36.344411,"lng":139.023036,"zip":"3700042"},{"town":"鍛冶町","koaza":"","lat":36.322164,"lng":139.005816,"zip":"3700838"},{"town":"片岡町一丁目","koaza":"","lat":36.320524,"lng":138.996817,"zip":"3700862"},{"town":"片岡町二丁目","koaza":"","lat":36.315827,"lng":138.995819,"zip":"3700862"},{"town":"片岡町三丁目","koaza":"","lat":36.316661,"lng":138.990603,"zip":"3700862"},{"town":"嘉多町","koaza":"","lat":36.329655,"lng":139.002459,"zip":"3700814"},{"town":"金井淵町","koaza":"","lat":36.350154,"lng":138.954286,"zip":"3700882"},{"town":"金古町","koaza":"","lat":36.412426,"lng":138.994285,"zip":"3703511"},{"town":"上大島町","koaza":"","lat":36.36002,"lng":138.929526,"zip":"3703335"},{"town":"上大類町","koaza":"","lat":36.336401,"lng":139.033969,"zip":"3700031"},{"town":"上小鳥町","koaza":"","lat":36.356945,"lng":138.988316,"zip":"3700078"},{"town":"上小塙町","koaza":"","lat":36.355717,"lng":138.977491,"zip":"3700077"},{"town":"上里見町","koaza":"","lat":36.378291,"lng":138.858522,"zip":"3703345"},{"town":"上佐野町","koaza":"","lat":36.304045,"lng":139.022367,"zip":"3700857"},{"town":"上滝町","koaza":"","lat":36.31757,"lng":139.086326,"zip":"3700027"},{"town":"上豊岡町","koaza":"","lat":36.338274,"lng":138.966643,"zip":"3700871"},{"town":"上中居町","koaza":"","lat":36.318968,"lng":139.030068,"zip":"3700851"},{"town":"上並榎町","koaza":"","lat":36.340406,"lng":138.986855,"zip":"3700801"},{"town":"上室田町","koaza":"","lat":36.41333,"lng":138.830897,"zip":"3703346"},{"town":"上和田町","koaza":"","lat":36.332693,"lng":138.997548,"zip":"3700806"},{"town":"菊地町","koaza":"","lat":36.361279,"lng":138.964787,"zip":"3700084"},{"town":"北新波町","koaza":"","lat":36.366261,"lng":138.971839,"zip":"3700082"},{"town":"北久保町","koaza":"","lat":36.337178,"lng":138.981674,"zip":"3700872"},{"town":"北通町","koaza":"","lat":36.328221,"lng":139.00834,"zip":"3700056"},{"town":"北原町","koaza":"","lat":36.406632,"lng":139.021806,"zip":"3703513"},{"town":"北双葉町","koaza":"","lat":36.319324,"lng":139.018794,"zip":"3700842"},{"town":"木部町","koaza":"","lat":36.277239,"lng":139.051355,"zip":"3701212"},{"town":"京目町","koaza":"","lat":36.348099,"lng":139.056733,"zip":"3700011"},{"town":"行力町","koaza":"","lat":36.372487,"lng":138.96988,"zip":"3700088"},{"town":"九蔵町","koaza":"","lat":36.33013,"lng":139.007264,"zip":"3700058"},{"town":"倉賀野町","koaza":"","lat":36.298168,"lng":139.057706,"zip":"3701201"},{"town":"倉渕町岩氷","koaza":"","lat":36.425641,"lng":138.752649,"zip":"3703404"},{"town":"倉渕町川浦","koaza":"","lat":36.44473,"lng":138.710299,"zip":"3703405"},{"town":"倉渕町権田","koaza":"","lat":36.453253,"lng":138.801436,"zip":"3703401"},{"town":"倉渕町三ノ倉","koaza":"","lat":36.420165,"lng":138.808603,"zip":"3703402"},{"town":"倉渕町水沼","koaza":"","lat":36.404107,"lng":138.781583,"zip":"3703403"},{"town":"栗崎町","koaza":"","lat":36.305601,"lng":139.065739,"zip":"3701205"},{"town":"剣崎町","koaza":"","lat":36.344721,"lng":138.955488,"zip":"3700883"},{"town":"神戸町","koaza":"","lat":36.373499,"lng":138.916727,"zip":"3703336"},{"town":"小八木町","koaza":"","lat":36.361951,"lng":139.014373,"zip":"3700071"},{"town":"栄町","koaza":"","lat":36.320878,"lng":139.01592,"zip":"3700841"},{"town":"佐野窪町","koaza":"","lat":36.303667,"lng":139.015625,"zip":"3700856"},{"town":"鞘町","koaza":"","lat":36.325301,"lng":139.005628,"zip":"3700827"},{"town":"新後閑町","koaza":"","lat":36.310185,"lng":139.01287,"zip":"3700845"},{"town":"柴崎町","koaza":"","lat":36.314982,"lng":139.056088,"zip":"3700035"},{"town":"芝塚町","koaza":"","lat":36.334104,"lng":139.013756,"zip":"3700064"},{"town":"島野町","koaza":"","lat":36.337391,"lng":139.063792,"zip":"3700015"},{"town":"下大島町","koaza":"","lat":36.352768,"lng":138.940663,"zip":"3700886"},{"town":"下大類町","koaza":"","lat":36.315952,"lng":139.062364,"zip":"3700034"},{"town":"下小鳥町","koaza":"","lat":36.353418,"lng":138.996084,"zip":"3700074"},{"town":"下小塙町","koaza":"","lat":36.350661,"lng":138.972986,"zip":"3700076"},{"town":"下斎田町","koaza":"","lat":36.305725,"lng":139.089332,"zip":"3700000"},{"town":"下里見町","koaza":"","lat":36.35937,"lng":138.918844,"zip":"3703343"},{"town":"下佐野町","koaza":"","lat":36.295834,"lng":139.029758,"zip":"3700855"},{"town":"下滝町","koaza":"","lat":36.315065,"lng":139.079501,"zip":"3700026"},{"town":"下豊岡町","koaza":"","lat":36.332787,"lng":138.98527,"zip":"3700873"},{"town":"下中居町","koaza":"","lat":36.311886,"lng":139.038781,"zip":"3700853"},{"town":"下之城町","koaza":"","lat":36.308748,"lng":139.031004,"zip":"3700854"},{"town":"下室田町","koaza":"","lat":36.407384,"lng":138.892918,"zip":"3703342"},{"town":"下横町","koaza":"","lat":36.320876,"lng":139.006268,"zip":"3700837"},{"town":"下和田町一丁目","koaza":"","lat":36.314801,"lng":139.01118,"zip":"3700846"},{"town":"下和田町二丁目","koaza":"","lat":36.313149,"lng":139.008602,"zip":"3700846"},{"town":"下和田町三丁目","koaza":"","lat":36.312377,"lng":139.011272,"zip":"3700846"},{"town":"下和田町四丁目","koaza":"","lat":36.315232,"lng":139.013294,"zip":"3700846"},{"town":"下和田町五丁目","koaza":"","lat":36.317652,"lng":139.013511,"zip":"3700846"},{"town":"十文字町","koaza":"","lat":36.409493,"lng":138.917791,"zip":"3703331"},{"town":"宿大類町","koaza":"","lat":36.332492,"lng":139.046484,"zip":"3700032"},{"town":"宿横手町","koaza":"","lat":36.327195,"lng":139.07702,"zip":"3700022"},{"town":"正観寺町","koaza":"","lat":36.371817,"lng":139.018994,"zip":"3700008"},{"town":"昭和町","koaza":"","lat":36.336302,"lng":139.004656,"zip":"3700068"},{"town":"白岩町","koaza":"","lat":36.384024,"lng":138.934674,"zip":"3703332"},{"town":"白銀町","koaza":"","lat":36.325913,"lng":139.007921,"zip":"3700825"},{"town":"城山町一丁目","koaza":"","lat":36.289387,"lng":139.010079,"zip":"3700866"},{"town":"城山町二丁目","koaza":"","lat":36.286974,"lng":139.013448,"zip":"3700866"},{"town":"新紺屋町","koaza":"","lat":36.329157,"lng":139.005202,"zip":"3700821"},{"town":"真町","koaza":"","lat":36.327065,"lng":139.009645,"zip":"3700054"},{"town":"新田町","koaza":"","lat":36.319936,"lng":139.008065,"zip":"3700833"},{"town":"新保田中町","koaza":"","lat":36.360762,"lng":139.040722,"zip":"3700003"},{"town":"新保町","koaza":"","lat":36.347902,"lng":139.040581,"zip":"3700018"},{"town":"新町","koaza":"","lat":36.272074,"lng":139.111684,"zip":"3701301"},{"town":"末広町","koaza":"","lat":36.334659,"lng":139.008284,"zip":"3700065"},{"town":"菅谷町","koaza":"","lat":36.378055,"lng":139.015475,"zip":"3703522"},{"town":"砂賀町","koaza":"","lat":36.32312,"lng":139.008684,"zip":"3700832"},{"town":"住吉町","koaza":"","lat":36.334556,"lng":139.000918,"zip":"3700804"},{"town":"堰代町","koaza":"","lat":36.329167,"lng":139.000856,"zip":"3700817"},{"town":"台新田町","koaza":"","lat":36.298752,"lng":139.071692,"zip":"3701206"},{"town":"台町","koaza":"","lat":36.334923,"lng":138.999178,"zip":"3700805"},{"town":"高砂町","koaza":"","lat":36.332777,"lng":139.010442,"zip":"3700047"},{"town":"高関町","koaza":"","lat":36.325773,"lng":139.027112,"zip":"3700043"},{"town":"高浜町","koaza":"","lat":36.373552,"lng":138.931991,"zip":"3703333"},{"town":"高松町","koaza":"","lat":36.323923,"lng":139.001571,"zip":"3700829"},{"town":"竜見町","koaza":"","lat":36.316463,"lng":139.007767,"zip":"3700835"},{"town":"田町","koaza":"","lat":36.327321,"lng":139.006659,"zip":"3700824"},{"town":"塚田町","koaza":"","lat":36.388267,"lng":139.021869,"zip":"3703515"},{"town":"筑縄町","koaza":"","lat":36.352172,"lng":138.987963,"zip":"3700075"},{"town":"椿町","koaza":"","lat":36.33082,"lng":139.007116,"zip":"3700059"},{"town":"鶴見町","koaza":"","lat":36.319475,"lng":139.010798,"zip":"3700848"},{"town":"寺尾町","koaza":"","lat":36.297124,"lng":138.990769,"zip":"3700865"},{"town":"天神町","koaza":"","lat":36.341402,"lng":139.01848,"zip":"3700061"},{"town":"稲荷台町","koaza":"","lat":36.382753,"lng":139.02347,"zip":"3703516"},{"town":"通町","koaza":"","lat":36.324621,"lng":139.009388,"zip":"3700053"},{"town":"常盤町","koaza":"","lat":36.327982,"lng":138.997721,"zip":"3700816"},{"town":"問屋町一丁目","koaza":"","lat":36.348716,"lng":139.008499,"zip":"3700006"},{"town":"問屋町二丁目","koaza":"","lat":36.348124,"lng":139.011411,"zip":"3700006"},{"town":"問屋町三丁目","koaza":"","lat":36.347691,"lng":139.013805,"zip":"3700006"},{"town":"問屋町四丁目","koaza":"","lat":36.347328,"lng":139.0157,"zip":"3700006"},{"town":"問屋町西一丁目","koaza":"","lat":36.349508,"lng":139.00559,"zip":"3700007"},{"town":"問屋町西二丁目","koaza":"","lat":36.34764,"lng":139.002918,"zip":"3700007"},{"town":"中泉町","koaza":"","lat":36.373325,"lng":139.000571,"zip":"3703524"},{"town":"中居町一丁目","koaza":"","lat":36.320416,"lng":139.037998,"zip":"3700852"},{"town":"中居町二丁目","koaza":"","lat":36.316472,"lng":139.045009,"zip":"3700852"},{"town":"中居町三丁目","koaza":"","lat":36.315614,"lng":139.040633,"zip":"3700852"},{"town":"中居町四丁目","koaza":"","lat":36.313095,"lng":139.041127,"zip":"3700852"},{"town":"中大類町","koaza":"","lat":36.32536,"lng":139.058803,"zip":"3700033"},{"town":"中尾町","koaza":"","lat":36.369942,"lng":139.027265,"zip":"3700001"},{"town":"中紺屋町","koaza":"","lat":36.326834,"lng":139.005147,"zip":"3700823"},{"town":"中里町","koaza":"","lat":36.394269,"lng":138.983118,"zip":"3703532"},{"town":"中里見町","koaza":"","lat":36.368882,"lng":138.905398,"zip":"3703344"},{"town":"中島町","koaza":"","lat":36.324803,"lng":139.08757,"zip":"3700023"},{"town":"中豊岡町","koaza":"","lat":36.336852,"lng":138.973562,"zip":"3700874"},{"town":"中室田町","koaza":"","lat":36.413064,"lng":138.86317,"zip":"3703347"},{"town":"並榎町","koaza":"","lat":36.338479,"lng":138.992176,"zip":"3700802"},{"town":"成田町","koaza":"","lat":36.332284,"lng":139.003988,"zip":"3700812"},{"town":"西国分町","koaza":"","lat":36.402451,"lng":139.015429,"zip":"3703512"},{"town":"西島町","koaza":"","lat":36.34226,"lng":139.047513,"zip":"3700017"},{"town":"西横手町","koaza":"","lat":36.333453,"lng":139.073732,"zip":"3700021"},{"town":"日光町","koaza":"","lat":36.338707,"lng":139.020888,"zip":"3700048"},{"town":"根小屋町","koaza":"","lat":36.288757,"lng":139.026291,"zip":"3701214"},{"town":"乗附町","koaza":"","lat":36.318325,"lng":138.97072,"zip":"3700867"},{"town":"萩原町","koaza":"","lat":36.343137,"lng":139.070353,"zip":"3700013"},{"town":"鼻高町","koaza":"","lat":36.323645,"lng":138.952495,"zip":"3700868"},{"town":"浜川町","koaza":"","lat":36.369169,"lng":138.980423,"zip":"3700081"},{"town":"浜尻町","koaza":"","lat":36.35292,"lng":139.016766,"zip":"3700005"},{"town":"榛名湖町","koaza":"","lat":36.468889,"lng":138.874528,"zip":"3703348"},{"town":"榛名山町","koaza":"","lat":36.444051,"lng":138.844166,"zip":"3703341"},{"town":"東貝沢町一丁目","koaza":"","lat":36.342139,"lng":139.033832,"zip":"3700041"},{"town":"東貝沢町二丁目","koaza":"","lat":36.344975,"lng":139.033137,"zip":"3700041"},{"town":"東貝沢町三丁目","koaza":"","lat":36.348752,"lng":139.03267,"zip":"3700041"},{"town":"東貝沢町四丁目","koaza":"","lat":36.349454,"lng":139.02969,"zip":"3700041"},{"town":"東国分町","koaza":"","lat":36.399263,"lng":139.02485,"zip":"3703514"},{"town":"東中里町","koaza":"","lat":36.303467,"lng":139.058695,"zip":"3701204"},{"town":"引間町","koaza":"","lat":36.394512,"lng":139.010438,"zip":"3703517"},{"town":"聖石町","koaza":"","lat":36.317617,"lng":139.000122,"zip":"3700863"},{"town":"日高町","koaza":"","lat":36.359896,"lng":139.034035,"zip":"3700002"},{"town":"檜物町","koaza":"","lat":36.322925,"lng":139.006457,"zip":"3700839"},{"town":"冷水町","koaza":"","lat":36.400802,"lng":139.007181,"zip":"3703519"},{"town":"福島町","koaza":"","lat":36.367017,"lng":139.00033,"zip":"3703523"},{"town":"藤塚町","koaza":"","lat":36.334074,"lng":138.957796,"zip":"3700875"},{"town":"双葉町","koaza":"","lat":36.31389,"lng":139.020206,"zip":"3700843"},{"town":"保渡田町","koaza":"","lat":36.383379,"lng":138.981013,"zip":"3703533"},{"town":"本郷町","koaza":"","lat":36.364156,"lng":138.939366,"zip":"3703334"},{"town":"町屋町","koaza":"","lat":36.353875,"lng":138.950594,"zip":"3700881"},{"town":"箕郷町生原","koaza":"","lat":36.396949,"lng":138.970363,"zip":"3703102"},{"town":"箕郷町柏木沢","koaza":"","lat":36.409137,"lng":138.974566,"zip":"3703101"},{"town":"箕郷町金敷平","koaza":"","lat":36.406681,"lng":138.945623,"zip":"3703114"},{"town":"箕郷町上芝","koaza":"","lat":36.386775,"lng":138.95917,"zip":"3703104"},{"town":"箕郷町下芝","koaza":"","lat":36.3759,"lng":138.961191,"zip":"3703103"},{"town":"箕郷町白川","koaza":"","lat":36.37411,"lng":138.949186,"zip":"3703117"},{"town":"箕郷町善地","koaza":"","lat":36.414745,"lng":138.928975,"zip":"3703112"},{"town":"箕郷町富岡","koaza":"","lat":36.39463,"lng":138.940332,"zip":"3703115"},{"town":"箕郷町中野","koaza":"","lat":36.44356,"lng":138.894073,"zip":"3703111"},{"town":"箕郷町西明屋","koaza":"","lat":36.398365,"lng":138.953885,"zip":"3703105"},{"town":"箕郷町東明屋","koaza":"","lat":36.405261,"lng":138.955697,"zip":"3703106"},{"town":"箕郷町松之沢","koaza":"","lat":36.441305,"lng":138.917499,"zip":"3703113"},{"town":"箕郷町矢原","koaza":"","lat":36.421704,"lng":138.947017,"zip":"3703107"},{"town":"箕郷町和田山","koaza":"","lat":36.379813,"lng":138.951842,"zip":"3703116"},{"town":"三ツ子沢町","koaza":"","lat":36.378357,"lng":138.922163,"zip":"3703337"},{"town":"三ツ寺町","koaza":"","lat":36.376622,"lng":138.993686,"zip":"3703525"},{"town":"緑町一丁目","koaza":"","lat":36.35055,"lng":139.002822,"zip":"3700073"},{"town":"緑町二丁目","koaza":"","lat":36.353593,"lng":139.002741,"zip":"3700073"},{"town":"緑町三丁目","koaza":"","lat":36.353538,"lng":139.007618,"zip":"3700073"},{"town":"緑町四丁目","koaza":"","lat":36.352787,"lng":139.010478,"zip":"3700073"},{"town":"南新波町","koaza":"","lat":36.360314,"lng":138.972491,"zip":"3700083"},{"town":"南大類町","koaza":"","lat":36.326372,"lng":139.042359,"zip":"3700036"},{"town":"南町","koaza":"","lat":36.318526,"lng":139.008432,"zip":"3700834"},{"town":"宮沢町","koaza":"","lat":36.420366,"lng":138.896934,"zip":"3703338"},{"town":"宮原町","koaza":"","lat":36.305306,"lng":139.0428,"zip":"3701202"},{"town":"宮元町","koaza":"","lat":36.322606,"lng":139.00529,"zip":"3700828"},{"town":"棟高町","koaza":"","lat":36.38542,"lng":139.006835,"zip":"3703521"},{"town":"元紺屋町","koaza":"","lat":36.32682,"lng":139.007875,"zip":"3700057"},{"town":"元島名町","koaza":"","lat":36.329754,"lng":139.062267,"zip":"3700014"},{"town":"本町","koaza":"","lat":36.330989,"lng":139.003866,"zip":"3700813"},{"town":"八島町","koaza":"","lat":36.321848,"lng":139.011205,"zip":"3700849"},{"town":"矢島町","koaza":"","lat":36.336663,"lng":139.049924,"zip":"3700016"},{"town":"八千代町一丁目","koaza":"","lat":36.323779,"lng":138.993328,"zip":"3700861"},{"town":"八千代町二丁目","koaza":"","lat":36.319953,"lng":138.989186,"zip":"3700861"},{"town":"八千代町三丁目","koaza":"","lat":36.321682,"lng":138.986747,"zip":"3700861"},{"town":"八千代町四丁目","koaza":"","lat":36.324951,"lng":138.987399,"zip":"3700861"},{"town":"矢中町","koaza":"","lat":36.310819,"lng":139.050934,"zip":"3701203"},{"town":"柳川町","koaza":"","lat":36.328557,"lng":139.002372,"zip":"3700815"},{"town":"山田町","koaza":"","lat":36.332063,"lng":139.008016,"zip":"3700066"},{"town":"山名町","koaza":"","lat":36.279462,"lng":139.029347,"zip":"3701213"},{"town":"八幡原町","koaza":"","lat":36.296733,"lng":139.093859,"zip":"3700024"},{"town":"八幡町","koaza":"","lat":36.340928,"lng":138.945017,"zip":"3700884"},{"town":"弓町","koaza":"","lat":36.329074,"lng":139.009724,"zip":"3700051"},{"town":"吉井町池","koaza":"","lat":36.268402,"lng":138.993065,"zip":"3702107"},{"town":"吉井町石神","koaza":"","lat":36.250768,"lng":139.004523,"zip":"3702114"},{"town":"吉井町岩井","koaza":"","lat":36.264586,"lng":139.028843,"zip":"3702103"},{"town":"吉井町岩崎","koaza":"","lat":36.277161,"lng":138.981693,"zip":"3702131"},{"town":"吉井町大沢","koaza":"","lat":36.212,"lng":138.972657,"zip":"3702125"},{"town":"吉井町小串","koaza":"","lat":36.254611,"lng":139.014438,"zip":"3702111"},{"town":"吉井町片山","koaza":"","lat":36.261853,"lng":138.963827,"zip":"3702135"},{"town":"吉井町上奥平","koaza":"","lat":36.29249,"lng":138.962261,"zip":"3702139"},{"town":"吉井町黒熊","koaza":"","lat":36.242955,"lng":139.018973,"zip":"3702112"},{"town":"吉井町小暮","koaza":"","lat":36.271737,"lng":139.020503,"zip":"3702102"},{"town":"吉井町小棚","koaza":"","lat":36.272594,"lng":138.953768,"zip":"3702136"},{"town":"吉井町坂口","koaza":"","lat":36.275576,"lng":138.944697,"zip":"3702137"},{"town":"吉井町塩","koaza":"","lat":36.230079,"lng":138.97178,"zip":"3702124"},{"town":"吉井町塩川","koaza":"","lat":36.259813,"lng":138.981341,"zip":"3702134"},{"town":"吉井町下奥平","koaza":"","lat":36.282809,"lng":138.969426,"zip":"3702138"},{"town":"吉井町下長根","koaza":"","lat":36.249714,"lng":138.976481,"zip":"3702121"},{"town":"吉井町神保","koaza":"","lat":36.242229,"lng":138.975441,"zip":"3702123"},{"town":"吉井町多比良","koaza":"","lat":36.232382,"lng":138.99914,"zip":"3702115"},{"town":"吉井町高","koaza":"","lat":36.249253,"lng":138.980309,"zip":"3702122"},{"town":"吉井町多胡","koaza":"","lat":36.241311,"lng":138.990464,"zip":"3702116"},{"town":"吉井町中島","koaza":"","lat":36.258154,"lng":139.004858,"zip":"3702105"},{"town":"吉井町長根","koaza":"","lat":36.241974,"lng":138.960907,"zip":"3702127"},{"town":"吉井町南陽台一丁目","koaza":"","lat":36.277899,"lng":139.002218,"zip":"3702101"},{"town":"吉井町南陽台二丁目","koaza":"","lat":36.275707,"lng":139.004004,"zip":"3702101"},{"town":"吉井町南陽台三丁目","koaza":"","lat":36.27234,"lng":139.000293,"zip":"3702101"},{"town":"吉井町東谷","koaza":"","lat":36.214178,"lng":138.9559,"zip":"3702126"},{"town":"吉井町深沢","koaza":"","lat":36.247943,"lng":139.012344,"zip":"3702113"},{"town":"吉井町本郷","koaza":"","lat":36.259941,"lng":138.972161,"zip":"3702128"},{"town":"吉井町馬庭","koaza":"","lat":36.274451,"lng":139.009214,"zip":"3702104"},{"town":"吉井町矢田","koaza":"","lat":36.250435,"lng":138.997315,"zip":"3702106"},{"town":"吉井町吉井","koaza":"","lat":36.258093,"lng":138.986021,"zip":"3702132"},{"town":"吉井町吉井川","koaza":"","lat":36.249815,"lng":138.988121,"zip":"3702133"},{"town":"四ツ屋町","koaza":"","lat":36.331396,"lng":139.001049,"zip":"3700819"},{"town":"寄合町","koaza":"","lat":36.327801,"lng":139.005154,"zip":"3700822"},{"town":"羅漢町","koaza":"","lat":36.327359,"lng":139.00906,"zip":"3700055"},{"town":"楽間町","koaza":"","lat":36.370408,"lng":138.964441,"zip":"3700087"},{"town":"連雀町","koaza":"","lat":36.324717,"lng":139.007153,"zip":"3700826"},{"town":"若田町","koaza":"","lat":36.347771,"lng":138.938343,"zip":"3700885"},{"town":"若松町","koaza":"","lat":36.318119,"lng":139.00452,"zip":"3700836"},{"town":"我峰町","koaza":"","lat":36.354742,"lng":138.962437,"zip":"3700085"},{"town":"和田多中町","koaza":"","lat":36.309448,"lng":139.016458,"zip":"3700844"},{"town":"綿貫町","koaza":"","lat":36.307714,"lng":139.076242,"zip":"3701207"},{"town":"和田町","koaza":"","lat":36.316554,"lng":139.011204,"zip":"3700847"},{"town":"中里見町","koaza":"根岸","lat":36.370298,"lng":138.905366,"zip":"3703344"},{"town":"箕郷町下芝","koaza":"万行","lat":36.378259,"lng":138.968946,"zip":"3703103"},{"town":"下小塙町","koaza":"塚田","lat":36.351608,"lng":138.971967,"zip":"3700076"},{"town":"上小鳥町","koaza":"下多","lat":36.354132,"lng":138.986968,"zip":"3700078"},{"town":"飯塚町","koaza":"問屋町前","lat":36.345216,"lng":139.009686,"zip":"3700069"},{"town":"中尾町","koaza":"池の内","lat":36.368369,"lng":139.023316,"zip":"3700001"},{"town":"中尾町","koaza":"鳥羽前","lat":36.375068,"lng":139.033211,"zip":"3700001"},{"town":"倉賀野町","koaza":"下堀","lat":36.300382,"lng":139.036965,"zip":"3701201"}]