[{"town":"字明石","koaza":"","lat":35.513364,"lng":135.110788,"zip":"6292200"},{"town":"字温江","koaza":"","lat":35.490342,"lng":135.121075,"zip":"6292200"},{"town":"字幾地","koaza":"","lat":35.534502,"lng":135.09054,"zip":"6292200"},{"town":"字石川","koaza":"","lat":35.529335,"lng":135.13896,"zip":"6292200"},{"town":"字岩滝","koaza":"","lat":35.567284,"lng":135.152916,"zip":"6292200"},{"town":"字岩屋","koaza":"","lat":35.52367,"lng":135.061091,"zip":"6292200"},{"town":"字後野","koaza":"","lat":35.49434,"lng":135.096397,"zip":"6292200"},{"town":"字男山","koaza":"","lat":35.585921,"lng":135.162436,"zip":"6292200"},{"town":"字香河","koaza":"","lat":35.502299,"lng":135.138914,"zip":"6292200"},{"town":"字金屋","koaza":"","lat":35.486537,"lng":135.093087,"zip":"6292200"},{"town":"字上山田","koaza":"","lat":35.540029,"lng":135.10774,"zip":"6292200"},{"town":"字加悦","koaza":"","lat":35.504888,"lng":135.096388,"zip":"6292200"},{"town":"字加悦奥","koaza":"","lat":35.500967,"lng":135.062555,"zip":"6292200"},{"town":"字算所","koaza":"","lat":35.509365,"lng":135.096987,"zip":"6292200"},{"town":"字下山田","koaza":"","lat":35.546049,"lng":135.125233,"zip":"6292200"},{"town":"字滝","koaza":"","lat":35.47246,"lng":135.06072,"zip":"6292200"},{"town":"字三河内","koaza":"","lat":35.517969,"lng":135.090484,"zip":"6292200"},{"town":"字弓木","koaza":"","lat":35.560295,"lng":135.139894,"zip":"6292200"},{"town":"字与謝","koaza":"","lat":35.460273,"lng":135.085864,"zip":"6292200"},{"town":"字四辻","koaza":"","lat":35.53738,"lng":135.100047,"zip":"6292200"}]