[{"town":"市田","koaza":"","lat":34.89508,"lng":135.759142,"zip":"6130022"},{"town":"大橋辺","koaza":"","lat":34.897652,"lng":135.717638,"zip":"6130046"},{"town":"相島","koaza":"","lat":34.899191,"lng":135.736637,"zip":"6130025"},{"town":"北川顔","koaza":"","lat":34.895236,"lng":135.721479,"zip":"6130045"},{"town":"栄一丁目","koaza":"","lat":34.87996,"lng":135.764602,"zip":"6130032"},{"town":"栄二丁目","koaza":"","lat":34.878662,"lng":135.765037,"zip":"6130032"},{"town":"栄三丁目","koaza":"","lat":34.878636,"lng":135.760635,"zip":"6130032"},{"town":"栄四丁目","koaza":"","lat":34.879942,"lng":135.760622,"zip":"6130032"},{"town":"佐古","koaza":"","lat":34.881864,"lng":135.760996,"zip":"6130031"},{"town":"佐山","koaza":"","lat":34.873905,"lng":135.75147,"zip":"6130034"},{"town":"島田","koaza":"","lat":34.883855,"lng":135.733598,"zip":"6130043"},{"town":"下津屋","koaza":"","lat":34.876376,"lng":135.737958,"zip":"6130035"},{"town":"田井","koaza":"","lat":34.881171,"lng":135.737413,"zip":"6130036"},{"town":"中島","koaza":"","lat":34.895323,"lng":135.730095,"zip":"6130041"},{"town":"西一口","koaza":"","lat":34.900615,"lng":135.73139,"zip":"6130026"},{"town":"野村","koaza":"","lat":34.888534,"lng":135.741425,"zip":"6130023"},{"town":"林","koaza":"","lat":34.878165,"lng":135.75701,"zip":"6130033"},{"town":"東一口","koaza":"","lat":34.90481,"lng":135.744345,"zip":"6130021"},{"town":"藤和田","koaza":"","lat":34.889585,"lng":135.723948,"zip":"6130044"},{"town":"坊之池","koaza":"","lat":34.89038,"lng":135.731894,"zip":"6130042"},{"town":"森","koaza":"","lat":34.897699,"lng":135.746566,"zip":"6130024"},{"town":"大橋辺","koaza":"北島","lat":34.897568,"lng":135.717607,"zip":"6130046"},{"town":"大橋辺","koaza":"堤外縁","lat":34.899182,"lng":135.720392,"zip":"6130046"},{"town":"北川顔","koaza":"表畑","lat":34.894528,"lng":135.72014,"zip":"6130045"},{"town":"北川顔","koaza":"村西","lat":34.893923,"lng":135.719345,"zip":"6130045"},{"town":"北川顔","koaza":"馬嶋","lat":34.894294,"lng":135.720509,"zip":"6130045"},{"town":"北川顔","koaza":"馬場崎野","lat":34.892552,"lng":135.720419,"zip":"6130045"},{"town":"北川顔","koaza":"風呂田","lat":34.895076,"lng":135.722084,"zip":"6130045"},{"town":"藤和田","koaza":"馬場崎野","lat":34.891824,"lng":135.722607,"zip":"6130044"},{"town":"藤和田","koaza":"御所ノ内","lat":34.890121,"lng":135.721468,"zip":"6130044"},{"town":"藤和田","koaza":"封戸殿","lat":34.888235,"lng":135.722872,"zip":"6130044"},{"town":"坊之池","koaza":"天王道下","lat":34.892753,"lng":135.72652,"zip":"6130042"},{"town":"大橋辺","koaza":"中内","lat":34.902283,"lng":135.726309,"zip":"6130046"},{"town":"島田","koaza":"釈迦堂","lat":34.886968,"lng":135.727737,"zip":"6130043"},{"town":"藤和田","koaza":"中村","lat":34.887866,"lng":135.725065,"zip":"6130044"},{"town":"西一口","koaza":"西池","lat":34.899835,"lng":135.729932,"zip":"6130026"},{"town":"坊之池","koaza":"西ノ口","lat":34.891782,"lng":135.72989,"zip":"6130042"},{"town":"島田","koaza":"観音田","lat":34.885586,"lng":135.730481,"zip":"6130043"},{"town":"島田","koaza":"古堤防イワラ","lat":34.883399,"lng":135.731948,"zip":"6130043"},{"town":"中島","koaza":"藤ノ木","lat":34.896165,"lng":135.730414,"zip":"6130041"},{"town":"中島","koaza":"沖ノ内","lat":34.894769,"lng":135.732351,"zip":"6130041"},{"town":"中島","koaza":"篠ム戸","lat":34.896315,"lng":135.730992,"zip":"6130041"},{"town":"島田","koaza":"イワラ","lat":34.884421,"lng":135.731646,"zip":"6130043"},{"town":"坊之池","koaza":"浜","lat":34.889243,"lng":135.732771,"zip":"6130042"},{"town":"坊之池","koaza":"坊村中","lat":34.891667,"lng":135.732011,"zip":"6130042"},{"town":"島田","koaza":"ミスノ","lat":34.882481,"lng":135.731823,"zip":"6130043"},{"town":"西一口","koaza":"古城","lat":34.900628,"lng":135.73213,"zip":"6130026"},{"town":"相島","koaza":"村内","lat":34.900117,"lng":135.735837,"zip":"6130025"},{"town":"下津屋","koaza":"下ノ浜代","lat":34.879294,"lng":135.733838,"zip":"6130035"},{"town":"島田","koaza":"開キ","lat":34.884845,"lng":135.732865,"zip":"6130043"},{"town":"西一口","koaza":"新道裏","lat":34.900711,"lng":135.733215,"zip":"6130026"},{"town":"中島","koaza":"池ノ上","lat":34.894569,"lng":135.733284,"zip":"6130041"},{"town":"坊之池","koaza":"池ノ上","lat":34.892868,"lng":135.733473,"zip":"6130042"},{"town":"坊之池","koaza":"河原田","lat":34.888631,"lng":135.733767,"zip":"6130042"},{"town":"相島","koaza":"東池","lat":34.902029,"lng":135.734476,"zip":"6130025"},{"town":"下津屋","koaza":"鯛ケ鼻","lat":34.876966,"lng":135.734224,"zip":"6130035"},{"town":"坊之池","koaza":"大鳥井","lat":34.891734,"lng":135.735735,"zip":"6130042"},{"town":"中島","koaza":"向野","lat":34.894547,"lng":135.735588,"zip":"6130041"},{"town":"島田","koaza":"三反並","lat":34.885297,"lng":135.734526,"zip":"6130043"},{"town":"島田","koaza":"苗代","lat":34.885079,"lng":135.73491,"zip":"6130043"},{"town":"田井","koaza":"荒見","lat":34.882274,"lng":135.7364,"zip":"6130036"},{"town":"坊之池","koaza":"高河原","lat":34.888237,"lng":135.736187,"zip":"6130042"},{"town":"相島","koaza":"曽根","lat":34.896299,"lng":135.736827,"zip":"6130025"},{"town":"相島","koaza":"野口","lat":34.897294,"lng":135.735235,"zip":"6130025"},{"town":"下津屋","koaza":"室ノ城","lat":34.875112,"lng":135.737786,"zip":"6130035"},{"town":"相島","koaza":"正蓮寺","lat":34.898497,"lng":135.737109,"zip":"6130025"},{"town":"下津屋","koaza":"津屋ノ森","lat":34.874403,"lng":135.737257,"zip":"6130035"},{"town":"東一口","koaza":"新久保","lat":34.902852,"lng":135.738417,"zip":"6130021"},{"town":"野村","koaza":"井ノ坪","lat":34.886833,"lng":135.738451,"zip":"6130023"},{"town":"相島","koaza":"相島東","lat":34.900525,"lng":135.738249,"zip":"6130025"},{"town":"野村","koaza":"イノコ","lat":34.887831,"lng":135.738462,"zip":"6130023"},{"town":"野村","koaza":"西浦","lat":34.888799,"lng":135.738489,"zip":"6130023"},{"town":"田井","koaza":"新荒見","lat":34.882622,"lng":135.741397,"zip":"6130036"},{"town":"野村","koaza":"古道","lat":34.891752,"lng":135.738019,"zip":"6130023"},{"town":"野村","koaza":"村東","lat":34.889722,"lng":135.74327,"zip":"6130023"},{"town":"相島","koaza":"曽根東","lat":34.895027,"lng":135.739142,"zip":"6130025"},{"town":"野村","koaza":"北浦","lat":34.891742,"lng":135.739243,"zip":"6130023"},{"town":"森","koaza":"森村","lat":34.894395,"lng":135.740254,"zip":"6130024"},{"town":"森","koaza":"川端","lat":34.896089,"lng":135.742515,"zip":"6130024"},{"town":"下津屋","koaza":"川原","lat":34.875607,"lng":135.741164,"zip":"6130035"},{"town":"東一口","koaza":"丸島","lat":34.906297,"lng":135.743547,"zip":"6130021"},{"town":"東一口","koaza":"頂場","lat":34.907623,"lng":135.743618,"zip":"6130021"},{"town":"森","koaza":"森東","lat":34.895045,"lng":135.741184,"zip":"6130024"},{"town":"森","koaza":"中内","lat":34.903258,"lng":135.738427,"zip":"6130024"},{"town":"森","koaza":"村東","lat":34.892137,"lng":135.743112,"zip":"6130024"},{"town":"野村","koaza":"東ノ口","lat":34.889167,"lng":135.742616,"zip":"6130023"},{"town":"森","koaza":"三丁","lat":34.892605,"lng":135.74446,"zip":"6130024"},{"town":"東一口","koaza":"大島","lat":34.903773,"lng":135.745848,"zip":"6130021"},{"town":"東一口","koaza":"東島","lat":34.900756,"lng":135.74462,"zip":"6130021"},{"town":"佐山","koaza":"善乗坊","lat":34.877801,"lng":135.743597,"zip":"6130034"},{"town":"佐山","koaza":"新開地","lat":34.880788,"lng":135.746896,"zip":"6130034"},{"town":"森","koaza":"大内","lat":34.896417,"lng":135.74591,"zip":"6130024"},{"town":"市田","koaza":"新珠城","lat":34.886032,"lng":135.753093,"zip":"6130022"},{"town":"森","koaza":"北大内","lat":34.897533,"lng":135.745936,"zip":"6130024"},{"town":"佐山","koaza":"美ノケ薮","lat":34.873943,"lng":135.746364,"zip":"6130034"},{"town":"東一口","koaza":"モタレ","lat":34.899031,"lng":135.747214,"zip":"6130021"},{"town":"佐山","koaza":"浜台","lat":34.871598,"lng":135.747923,"zip":"6130034"},{"town":"市田","koaza":"鈴間","lat":34.889635,"lng":135.74905,"zip":"6130022"},{"town":"森","koaza":"南大内","lat":34.892224,"lng":135.748352,"zip":"6130024"},{"town":"佐山","koaza":"庫ノ脇","lat":34.877584,"lng":135.748267,"zip":"6130034"},{"town":"東一口","koaza":"大島先","lat":34.907108,"lng":135.750354,"zip":"6130021"},{"town":"佐山","koaza":"西ノ口","lat":34.874213,"lng":135.74857,"zip":"6130034"},{"town":"佐古","koaza":"外屋敷","lat":34.882269,"lng":135.753772,"zip":"6130031"},{"town":"佐山","koaza":"双置","lat":34.8753,"lng":135.751403,"zip":"6130034"},{"town":"市田","koaza":"和気","lat":34.88748,"lng":135.752061,"zip":"6130022"},{"town":"佐山","koaza":"北代","lat":34.877035,"lng":135.751732,"zip":"6130034"},{"town":"市田","koaza":"珠城","lat":34.886974,"lng":135.75221,"zip":"6130022"},{"town":"佐山","koaza":"栗ノ脇","lat":34.873659,"lng":135.75197,"zip":"6130034"},{"town":"佐古","koaza":"内屋敷","lat":34.879178,"lng":135.752495,"zip":"6130031"},{"town":"林","koaza":"北畑","lat":34.881219,"lng":135.755917,"zip":"6130033"},{"town":"林","koaza":"垣内","lat":34.878319,"lng":135.754865,"zip":"6130033"},{"town":"佐山","koaza":"東代","lat":34.874767,"lng":135.75463,"zip":"6130034"},{"town":"市田","koaza":"西観世","lat":34.895236,"lng":135.755622,"zip":"6130022"},{"town":"東一口","koaza":"百間切","lat":34.900693,"lng":135.755861,"zip":"6130021"},{"town":"林","koaza":"宮ノ後","lat":34.877124,"lng":135.756476,"zip":"6130033"},{"town":"市田","koaza":"東大門","lat":34.88799,"lng":135.754524,"zip":"6130022"},{"town":"市田","koaza":"祇園田","lat":34.891708,"lng":135.756412,"zip":"6130022"},{"town":"市田","koaza":"南観世","lat":34.900355,"lng":135.763033,"zip":"6130022"},{"town":"市田","koaza":"観世","lat":34.89175,"lng":135.758624,"zip":"6130022"},{"town":"佐山","koaza":"籾池","lat":34.87533,"lng":135.758894,"zip":"6130034"},{"town":"佐古","koaza":"東角","lat":34.881235,"lng":135.759468,"zip":"6130031"},{"town":"林","koaza":"中垣内","lat":34.877182,"lng":135.761217,"zip":"6130033"},{"town":"市田","koaza":"立花","lat":34.88454,"lng":135.759208,"zip":"6130022"},{"town":"林","koaza":"八幡講","lat":34.874786,"lng":135.761719,"zip":"6130033"},{"town":"市田","koaza":"東観世","lat":34.894942,"lng":135.76191,"zip":"6130022"},{"town":"市田","koaza":"北観世","lat":34.906221,"lng":135.760636,"zip":"6130022"},{"town":"佐古","koaza":"清水","lat":34.881748,"lng":135.762517,"zip":"6130031"},{"town":"市田","koaza":"中観世","lat":34.904258,"lng":135.763104,"zip":"6130022"},{"town":"林","koaza":"高黒","lat":34.876518,"lng":135.763591,"zip":"6130033"},{"town":"下津屋","koaza":"富ノ城","lat":34.88179,"lng":135.74265,"zip":"6130035"},{"town":"相島","koaza":"久保","lat":34.90229,"lng":135.736035,"zip":"6130025"},{"town":"北川顔","koaza":"中野","lat":34.895948,"lng":135.723561,"zip":"6130045"},{"town":"藤和田","koaza":"村西","lat":34.890404,"lng":135.720976,"zip":"6130044"},{"town":"藤和田","koaza":"藤ノ東","lat":34.891072,"lng":135.721257,"zip":"6130044"},{"town":"島田","koaza":"古堤防中村","lat":34.886715,"lng":135.72596,"zip":"6130043"},{"town":"島田","koaza":"江ノ口","lat":34.884587,"lng":135.736166,"zip":"6130043"},{"town":"島田","koaza":"庚申塚","lat":34.885354,"lng":135.732662,"zip":"6130043"},{"town":"田井","koaza":"浜代","lat":34.88179,"lng":135.733565,"zip":"6130036"},{"town":"島田","koaza":"堤外","lat":34.882729,"lng":135.735231,"zip":"6130043"},{"town":"田井","koaza":"向野","lat":34.880903,"lng":135.735584,"zip":"6130036"},{"town":"田井","koaza":"西荒見","lat":34.879715,"lng":135.738841,"zip":"6130036"},{"town":"田井","koaza":"塔ノ本","lat":34.880282,"lng":135.740111,"zip":"6130036"},{"town":"田井","koaza":"東荒見","lat":34.877496,"lng":135.741031,"zip":"6130036"},{"town":"下津屋","koaza":"北野","lat":34.879346,"lng":135.734944,"zip":"6130035"},{"town":"佐山","koaza":"中道","lat":34.876214,"lng":135.74682,"zip":"6130034"},{"town":"佐山","koaza":"尼垣外","lat":34.878037,"lng":135.748903,"zip":"6130034"},{"town":"下津屋","koaza":"上ノ浜","lat":34.874593,"lng":135.74429,"zip":"6130035"},{"town":"佐山","koaza":"南代","lat":34.872658,"lng":135.7508,"zip":"6130034"},{"town":"佐古","koaza":"田中","lat":34.880217,"lng":135.752401,"zip":"6130031"},{"town":"佐古","koaza":"北ノ下","lat":34.880565,"lng":135.752465,"zip":"6130031"},{"town":"佐山","koaza":"双栗","lat":34.875213,"lng":135.756556,"zip":"6130034"},{"town":"市田","koaza":"斉当坊","lat":34.887934,"lng":135.74956,"zip":"6130022"},{"town":"市田","koaza":"一ノ坪","lat":34.886753,"lng":135.75867,"zip":"6130022"},{"town":"市田","koaza":"五ノ坪","lat":34.885736,"lng":135.751926,"zip":"6130022"},{"town":"島田","koaza":"下ミス","lat":34.887859,"lng":135.722939,"zip":"6130043"},{"town":"大橋辺","koaza":"五軒家前","lat":34.899783,"lng":135.722518,"zip":"6130046"},{"town":"西一口","koaza":"新道北","lat":34.89895,"lng":135.730328,"zip":"6130026"},{"town":"相島","koaza":"新道裏","lat":34.899221,"lng":135.734598,"zip":"6130025"},{"town":"相島","koaza":"大木ノ下","lat":34.897539,"lng":135.737668,"zip":"6130025"},{"town":"中島","koaza":"法楽寺","lat":34.89696,"lng":135.733305,"zip":"6130041"},{"town":"坊之池","koaza":"沖ノ内","lat":34.892726,"lng":135.732111,"zip":"6130042"},{"town":"坊之池","koaza":"下高河原","lat":34.889943,"lng":135.7338,"zip":"6130042"},{"town":"野村","koaza":"南浦","lat":34.888979,"lng":135.741913,"zip":"6130023"},{"town":"森","koaza":"宮西","lat":34.893957,"lng":135.738051,"zip":"6130024"},{"town":"森","koaza":"宮東","lat":34.893698,"lng":135.74028,"zip":"6130024"},{"town":"野村","koaza":"外野","lat":34.890557,"lng":135.747342,"zip":"6130023"},{"town":"市田","koaza":"北浦","lat":34.888924,"lng":135.752677,"zip":"6130022"},{"town":"市田","koaza":"石橋","lat":34.889334,"lng":135.754587,"zip":"6130022"},{"town":"林","koaza":"鍬ノ本","lat":34.877552,"lng":135.763646,"zip":"6130033"},{"town":"佐古","koaza":"梶石","lat":34.862015,"lng":135.82965,"zip":"6130031"},{"town":"北川顔","koaza":"馬場崎","lat":34.893174,"lng":135.722557,"zip":"6130045"},{"town":"市田","koaza":"大領","lat":34.889792,"lng":135.758614,"zip":"6130022"}]