[{"town":"字円明寺","koaza":"","lat":34.90365,"lng":135.690683,"zip":"6180000"},{"town":"字大山崎","koaza":"","lat":34.898088,"lng":135.685949,"zip":"6180000"},{"town":"字下植野","koaza":"","lat":34.903588,"lng":135.701004,"zip":"6180000"},{"town":"字円明寺","koaza":"薬師前","lat":34.906486,"lng":135.682512,"zip":"6180000"},{"town":"字円明寺","koaza":"鳥居前","lat":34.911805,"lng":135.681011,"zip":"6180000"},{"town":"字大山崎","koaza":"銭原","lat":34.895422,"lng":135.679692,"zip":"6180000"},{"town":"字円明寺","koaza":"小倉口","lat":34.909347,"lng":135.679938,"zip":"6180000"},{"town":"字大山崎","koaza":"谷田","lat":34.893714,"lng":135.679092,"zip":"6180000"},{"town":"字大山崎","koaza":"西山田","lat":34.901479,"lng":135.682131,"zip":"6180000"},{"town":"字大山崎","koaza":"西谷","lat":34.892492,"lng":135.679304,"zip":"6180000"},{"town":"字円明寺","koaza":"西法寺","lat":34.90905,"lng":135.682248,"zip":"6180000"},{"town":"字大山崎","koaza":"琵琶谷","lat":34.895492,"lng":135.681585,"zip":"6180000"},{"town":"字大山崎","koaza":"藤井畑","lat":34.890801,"lng":135.680258,"zip":"6180000"},{"town":"字円明寺","koaza":"北浦","lat":34.908613,"lng":135.68035,"zip":"6180000"},{"town":"字大山崎","koaza":"横山","lat":34.896734,"lng":135.680625,"zip":"6180000"},{"town":"字円明寺","koaza":"脇山","lat":34.910574,"lng":135.681786,"zip":"6180000"},{"town":"字大山崎","koaza":"上ノ田","lat":34.894546,"lng":135.681751,"zip":"6180000"},{"town":"字大山崎","koaza":"明島","lat":34.891417,"lng":135.681726,"zip":"6180000"},{"town":"字大山崎","koaza":"竜光","lat":34.892449,"lng":135.682445,"zip":"6180000"},{"town":"字大山崎","koaza":"早稲田","lat":34.899524,"lng":135.683947,"zip":"6180000"},{"town":"字大山崎","koaza":"白味才","lat":34.897168,"lng":135.683648,"zip":"6180000"},{"town":"字円明寺","koaza":"稲葉","lat":34.904045,"lng":135.683863,"zip":"6180000"},{"town":"字大山崎","koaza":"永福寺","lat":34.896343,"lng":135.683896,"zip":"6180000"},{"town":"字円明寺","koaza":"仏生田","lat":34.907233,"lng":135.683552,"zip":"6180000"},{"town":"字大山崎","koaza":"高橋","lat":34.894304,"lng":135.683644,"zip":"6180000"},{"town":"字大山崎","koaza":"高麗田","lat":34.892756,"lng":135.683821,"zip":"6180000"},{"town":"字大山崎","koaza":"茶屋前","lat":34.894202,"lng":135.68498,"zip":"6180000"},{"town":"字円明寺","koaza":"大門脇","lat":34.904964,"lng":135.685005,"zip":"6180000"},{"town":"字円明寺","koaza":"横林","lat":34.909753,"lng":135.684887,"zip":"6180000"},{"town":"字円明寺","koaza":"山田","lat":34.91002,"lng":135.684566,"zip":"6180000"},{"town":"字円明寺","koaza":"香田","lat":34.90713,"lng":135.684328,"zip":"6180000"},{"town":"字円明寺","koaza":"殿山","lat":34.911268,"lng":135.685758,"zip":"6180000"},{"town":"字大山崎","koaza":"岩崎","lat":34.901202,"lng":135.685088,"zip":"6180000"},{"town":"字円明寺","koaza":"開キ","lat":34.903423,"lng":135.685408,"zip":"6180000"},{"town":"字大山崎","koaza":"尻江","lat":34.896339,"lng":135.685651,"zip":"6180000"},{"town":"字円明寺","koaza":"南谷","lat":34.904643,"lng":135.685296,"zip":"6180000"},{"town":"字円明寺","koaza":"佃","lat":34.905188,"lng":135.686478,"zip":"6180000"},{"town":"字大山崎","koaza":"堀尻","lat":34.898943,"lng":135.686124,"zip":"6180000"},{"town":"字円明寺","koaza":"御所前","lat":34.903947,"lng":135.686128,"zip":"6180000"},{"town":"字円明寺","koaza":"山伏","lat":34.906101,"lng":135.686056,"zip":"6180000"},{"town":"字大山崎","koaza":"松原","lat":34.901497,"lng":135.686221,"zip":"6180000"},{"town":"字円明寺","koaza":"若宮前","lat":34.909901,"lng":135.687085,"zip":"6180000"},{"town":"字円明寺","koaza":"里ノ後","lat":34.907856,"lng":135.687757,"zip":"6180000"},{"town":"字大山崎","koaza":"鏡田","lat":34.896079,"lng":135.688197,"zip":"6180000"},{"town":"字円明寺","koaza":"百々","lat":34.902453,"lng":135.687198,"zip":"6180000"},{"town":"字大山崎","koaza":"傍示木","lat":34.900628,"lng":135.687914,"zip":"6180000"},{"town":"字大山崎","koaza":"広敷","lat":34.899576,"lng":135.687833,"zip":"6180000"},{"town":"字円明寺","koaza":"海道","lat":34.906519,"lng":135.687658,"zip":"6180000"},{"town":"字円明寺","koaza":"茶屋前","lat":34.904944,"lng":135.688275,"zip":"6180000"},{"town":"字円明寺","koaza":"葛原","lat":34.909999,"lng":135.688293,"zip":"6180000"},{"town":"字円明寺","koaza":"夏目","lat":34.90255,"lng":135.689255,"zip":"6180000"},{"town":"字大山崎","koaza":"西高田","lat":34.901147,"lng":135.689823,"zip":"6180000"},{"town":"字大山崎","koaza":"岸畑","lat":34.896796,"lng":135.690336,"zip":"6180000"},{"town":"字大山崎","koaza":"斗加坪","lat":34.899398,"lng":135.690598,"zip":"6180000"},{"town":"字円明寺","koaza":"井尻","lat":34.904414,"lng":135.690231,"zip":"6180000"},{"town":"字円明寺","koaza":"金蔵","lat":34.907594,"lng":135.689568,"zip":"6180000"},{"town":"字円明寺","koaza":"東ノ口","lat":34.905054,"lng":135.690319,"zip":"6180000"},{"town":"字円明寺","koaza":"下金蔵","lat":34.907158,"lng":135.690486,"zip":"6180000"},{"town":"字円明寺","koaza":"長慶","lat":34.908425,"lng":135.689736,"zip":"6180000"},{"town":"字円明寺","koaza":"宝本","lat":34.902256,"lng":135.691798,"zip":"6180000"},{"town":"字円明寺","koaza":"算用田","lat":34.903118,"lng":135.690898,"zip":"6180000"},{"town":"字円明寺","koaza":"松田","lat":34.90681,"lng":135.693339,"zip":"6180000"},{"town":"字円明寺","koaza":"一丁田","lat":34.905618,"lng":135.693777,"zip":"6180000"},{"town":"字大山崎","koaza":"東高田","lat":34.90152,"lng":135.692764,"zip":"6180000"},{"town":"字円明寺","koaza":"門田","lat":34.904022,"lng":135.694292,"zip":"6180000"},{"town":"字円明寺","koaza":"土辺","lat":34.903312,"lng":135.694618,"zip":"6180000"},{"town":"字下植野","koaza":"上古","lat":34.902627,"lng":135.697904,"zip":"6180000"},{"town":"字下植野","koaza":"寺門","lat":34.906595,"lng":135.695473,"zip":"6180000"},{"town":"字下植野","koaza":"宮脇","lat":34.908326,"lng":135.69597,"zip":"6180000"},{"town":"字下植野","koaza":"境野","lat":34.910125,"lng":135.697233,"zip":"6180000"},{"town":"字下植野","koaza":"五条本","lat":34.90402,"lng":135.697382,"zip":"6180000"},{"town":"字下植野","koaza":"代理分","lat":34.90956,"lng":135.698358,"zip":"6180000"},{"town":"字下植野","koaza":"宮本","lat":34.907489,"lng":135.697771,"zip":"6180000"},{"town":"字下植野","koaza":"竜頭","lat":34.907877,"lng":135.698384,"zip":"6180000"},{"town":"字下植野","koaza":"梅ケ畑","lat":34.90876,"lng":135.69831,"zip":"6180000"},{"town":"字下植野","koaza":"飯田","lat":34.906138,"lng":135.698507,"zip":"6180000"},{"town":"字下植野","koaza":"大条","lat":34.904104,"lng":135.699264,"zip":"6180000"},{"town":"字下植野","koaza":"山王前","lat":34.906018,"lng":135.699616,"zip":"6180000"},{"town":"字下植野","koaza":"菖蒲原","lat":34.907784,"lng":135.700923,"zip":"6180000"},{"town":"字下植野","koaza":"二階下","lat":34.908562,"lng":135.700348,"zip":"6180000"},{"town":"字下植野","koaza":"北細池","lat":34.905448,"lng":135.702679,"zip":"6180000"},{"town":"字下植野","koaza":"北牧方","lat":34.907851,"lng":135.704263,"zip":"6180000"},{"town":"字下植野","koaza":"南牧方","lat":34.90772,"lng":135.704766,"zip":"6180000"}]