[{"town":"旭町","koaza":"","lat":35.084241,"lng":135.571804,"zip":"6210001"},{"town":"余部町","koaza":"","lat":35.014646,"lng":135.563595,"zip":"6210806"},{"town":"荒塚町","koaza":"","lat":35.01323,"lng":135.580401,"zip":"6210851"},{"town":"荒塚町一丁目","koaza":"","lat":35.010793,"lng":135.574171,"zip":"6210851"},{"town":"荒塚町二丁目","koaza":"","lat":35.011162,"lng":135.575742,"zip":"6210851"},{"town":"内丸町","koaza":"","lat":35.012781,"lng":135.578387,"zip":"6210864"},{"town":"宇津根町","koaza":"","lat":35.022159,"lng":135.572526,"zip":"6210801"},{"town":"馬路町","koaza":"","lat":35.058131,"lng":135.559701,"zip":"6210008"},{"town":"追分町","koaza":"","lat":35.017121,"lng":135.581205,"zip":"6210804"},{"town":"大井町かすみケ丘","koaza":"","lat":35.033276,"lng":135.555603,"zip":"6210012"},{"town":"大井町北金岐","koaza":"","lat":35.032234,"lng":135.540122,"zip":"6210017"},{"town":"大井町小金岐","koaza":"","lat":35.038052,"lng":135.541637,"zip":"6210018"},{"town":"大井町小金岐一丁目","koaza":"","lat":35.038638,"lng":135.542957,"zip":"6210018"},{"town":"大井町小金岐二丁目","koaza":"","lat":35.037557,"lng":135.545609,"zip":"6210018"},{"town":"大井町小金岐三丁目","koaza":"","lat":35.036195,"lng":135.547366,"zip":"6210018"},{"town":"大井町小金岐四丁目","koaza":"","lat":35.033153,"lng":135.547863,"zip":"6210018"},{"town":"大井町土田","koaza":"","lat":35.036633,"lng":135.537095,"zip":"6210011"},{"town":"大井町土田一丁目","koaza":"","lat":35.036526,"lng":135.551125,"zip":"6210011"},{"town":"大井町土田二丁目","koaza":"","lat":35.033073,"lng":135.553113,"zip":"6210011"},{"town":"大井町土田三丁目","koaza":"","lat":35.034302,"lng":135.549899,"zip":"6210011"},{"town":"大井町並河","koaza":"","lat":35.029287,"lng":135.564016,"zip":"6210013"},{"town":"大井町並河一丁目","koaza":"","lat":35.029539,"lng":135.558529,"zip":"6210013"},{"town":"大井町並河二丁目","koaza":"","lat":35.02902,"lng":135.555517,"zip":"6210013"},{"town":"大井町並河三丁目","koaza":"","lat":35.029187,"lng":135.552414,"zip":"6210013"},{"town":"大井町南金岐","koaza":"","lat":35.028926,"lng":135.541747,"zip":"6210016"},{"town":"上矢田町","koaza":"","lat":34.993584,"lng":135.575388,"zip":"6210856"},{"town":"河原林町河原尻","koaza":"","lat":35.044747,"lng":135.567448,"zip":"6210007"},{"town":"河原林町勝林島","koaza":"","lat":35.031922,"lng":135.571243,"zip":"6210006"},{"town":"河原町","koaza":"","lat":35.019805,"lng":135.573409,"zip":"6210803"},{"town":"北河原町一丁目","koaza":"","lat":35.020047,"lng":135.569138,"zip":"6210802"},{"town":"北河原町二丁目","koaza":"","lat":35.021505,"lng":135.567492,"zip":"6210802"},{"town":"北古世町一丁目","koaza":"","lat":35.011283,"lng":135.585576,"zip":"6210811"},{"town":"北古世町二丁目","koaza":"","lat":35.011503,"lng":135.58819,"zip":"6210811"},{"town":"北町","koaza":"","lat":35.015164,"lng":135.577758,"zip":"6210861"},{"town":"京町","koaza":"","lat":35.00827,"lng":135.582334,"zip":"6210818"},{"town":"古世町","koaza":"","lat":35.013789,"lng":135.587156,"zip":"6210815"},{"town":"古世町一丁目","koaza":"","lat":35.006711,"lng":135.582484,"zip":"6210815"},{"town":"古世町二丁目","koaza":"","lat":35.006362,"lng":135.584733,"zip":"6210815"},{"town":"古世町三丁目","koaza":"","lat":35.00625,"lng":135.587474,"zip":"6210815"},{"town":"呉服町","koaza":"","lat":35.009018,"lng":135.582111,"zip":"6210819"},{"town":"紺屋町","koaza":"","lat":35.010953,"lng":135.577494,"zip":"6210852"},{"town":"塩屋町","koaza":"","lat":35.009124,"lng":135.578782,"zip":"6210867"},{"town":"篠町馬堀","koaza":"","lat":35.008508,"lng":135.600885,"zip":"6210823"},{"town":"篠町馬堀駅前一丁目","koaza":"","lat":35.009977,"lng":135.601482,"zip":"6210828"},{"town":"篠町馬堀駅前二丁目","koaza":"","lat":35.010594,"lng":135.60417,"zip":"6210828"},{"town":"篠町王子","koaza":"","lat":34.997731,"lng":135.631456,"zip":"6210827"},{"town":"篠町柏原","koaza":"","lat":34.9741,"lng":135.587892,"zip":"6210821"},{"town":"篠町篠","koaza":"","lat":34.991371,"lng":135.606095,"zip":"6210826"},{"town":"篠町浄法寺","koaza":"","lat":35.001644,"lng":135.591905,"zip":"6210835"},{"town":"篠町野条","koaza":"","lat":35.003471,"lng":135.599728,"zip":"6210822"},{"town":"篠町広田","koaza":"","lat":34.983057,"lng":135.588199,"zip":"6210834"},{"town":"篠町広田一丁目","koaza":"","lat":35.004601,"lng":135.596035,"zip":"6210834"},{"town":"篠町広田二丁目","koaza":"","lat":35.000693,"lng":135.594967,"zip":"6210834"},{"town":"篠町広田三丁目","koaza":"","lat":34.996425,"lng":135.594258,"zip":"6210834"},{"town":"篠町見晴一丁目","koaza":"","lat":35.010233,"lng":135.605602,"zip":"6210824"},{"town":"篠町見晴二丁目","koaza":"","lat":35.009734,"lng":135.609937,"zip":"6210824"},{"town":"篠町見晴三丁目","koaza":"","lat":35.009206,"lng":135.608131,"zip":"6210824"},{"town":"篠町見晴四丁目","koaza":"","lat":35.009782,"lng":135.60634,"zip":"6210824"},{"town":"篠町見晴五丁目","koaza":"","lat":35.008485,"lng":135.605905,"zip":"6210824"},{"town":"篠町見晴六丁目","koaza":"","lat":35.007235,"lng":135.609049,"zip":"6210824"},{"town":"篠町見晴七丁目","koaza":"","lat":35.007227,"lng":135.606992,"zip":"6210824"},{"town":"篠町森","koaza":"","lat":34.985635,"lng":135.599555,"zip":"6210831"},{"town":"篠町山本","koaza":"","lat":35.010981,"lng":135.616238,"zip":"6210825"},{"town":"篠町夕日ケ丘一丁目","koaza":"","lat":34.996833,"lng":135.6097,"zip":"6210829"},{"town":"篠町夕日ケ丘三丁目","koaza":"","lat":34.99756,"lng":135.607088,"zip":"6210829"},{"town":"下矢田町","koaza":"","lat":34.990575,"lng":135.568304,"zip":"6210854"},{"town":"下矢田町一丁目","koaza":"","lat":35.008465,"lng":135.572969,"zip":"6210854"},{"town":"下矢田町二丁目","koaza":"","lat":35.008402,"lng":135.575524,"zip":"6210854"},{"town":"下矢田町三丁目","koaza":"","lat":35.007996,"lng":135.579177,"zip":"6210854"},{"town":"下矢田町四丁目","koaza":"","lat":35.006593,"lng":135.578831,"zip":"6210854"},{"town":"新町","koaza":"","lat":35.009924,"lng":135.580697,"zip":"6210865"},{"town":"曽我部町穴太","koaza":"","lat":35.007505,"lng":135.544134,"zip":"6210029"},{"town":"曽我部町犬飼","koaza":"","lat":34.990381,"lng":135.513794,"zip":"6210027"},{"town":"曽我部町春日部","koaza":"","lat":34.972496,"lng":135.536958,"zip":"6210024"},{"town":"曽我部町重利","koaza":"","lat":35.005392,"lng":135.555658,"zip":"6210021"},{"town":"曽我部町寺","koaza":"","lat":34.980471,"lng":135.55097,"zip":"6210023"},{"town":"曽我部町中","koaza":"","lat":34.97807,"lng":135.53338,"zip":"6210025"},{"town":"曽我部町南条","koaza":"","lat":34.996298,"lng":135.552941,"zip":"6210022"},{"town":"曽我部町西条","koaza":"","lat":35.002316,"lng":135.544033,"zip":"6210028"},{"town":"曽我部町法貴","koaza":"","lat":34.982515,"lng":135.524986,"zip":"6210026"},{"town":"千歳町国分","koaza":"","lat":35.048987,"lng":135.597529,"zip":"6210003"},{"town":"千歳町千歳","koaza":"","lat":35.057674,"lng":135.586228,"zip":"6210002"},{"town":"千歳町毘沙門","koaza":"","lat":35.041094,"lng":135.595557,"zip":"6210004"},{"town":"千代川町今津","koaza":"","lat":35.049132,"lng":135.550966,"zip":"6210051"},{"town":"千代川町今津一丁目","koaza":"","lat":35.049567,"lng":135.547348,"zip":"6210051"},{"town":"千代川町今津二丁目","koaza":"","lat":35.050405,"lng":135.548451,"zip":"6210051"},{"town":"千代川町今津三丁目","koaza":"","lat":35.046973,"lng":135.551271,"zip":"6210051"},{"town":"千代川町小川一丁目","koaza":"","lat":35.046663,"lng":135.54486,"zip":"6210041"},{"town":"千代川町小川二丁目","koaza":"","lat":35.046972,"lng":135.54658,"zip":"6210041"},{"town":"千代川町小川三丁目","koaza":"","lat":35.046223,"lng":135.550368,"zip":"6210041"},{"town":"千代川町小林","koaza":"","lat":35.040799,"lng":135.551253,"zip":"6210043"},{"town":"千代川町川関","koaza":"","lat":35.06034,"lng":135.544,"zip":"6210054"},{"town":"千代川町北ノ庄","koaza":"","lat":35.049485,"lng":135.53279,"zip":"6210046"},{"town":"千代川町高野林","koaza":"","lat":35.044109,"lng":135.550351,"zip":"6210042"},{"town":"千代川町千原","koaza":"","lat":35.054645,"lng":135.541909,"zip":"6210052"},{"town":"千代川町千原一丁目","koaza":"","lat":35.049167,"lng":135.54435,"zip":"6210052"},{"town":"千代川町千原二丁目","koaza":"","lat":35.050524,"lng":135.546038,"zip":"6210052"},{"town":"千代川町拝田","koaza":"","lat":35.056039,"lng":135.534652,"zip":"6210053"},{"town":"千代川町日吉台","koaza":"","lat":35.041102,"lng":135.543994,"zip":"6210044"},{"town":"千代川町湯井","koaza":"","lat":35.042107,"lng":135.534308,"zip":"6210045"},{"town":"突抜町","koaza":"","lat":35.009407,"lng":135.585458,"zip":"6210813"},{"town":"中矢田町","koaza":"","lat":35.002779,"lng":135.581302,"zip":"6210855"},{"town":"南郷町","koaza":"","lat":35.013958,"lng":135.579634,"zip":"6210863"},{"town":"西竪町","koaza":"","lat":35.008323,"lng":135.584828,"zip":"6210817"},{"town":"西つつじケ丘雲仙台一丁目","koaza":"","lat":35.00257,"lng":135.587091,"zip":"6210842"},{"town":"西つつじケ丘雲仙台二丁目","koaza":"","lat":35.002115,"lng":135.584873,"zip":"6210842"},{"town":"西つつじケ丘霧島台一丁目","koaza":"","lat":34.99943,"lng":135.589453,"zip":"6210844"},{"town":"西つつじケ丘霧島台二丁目","koaza":"","lat":34.998747,"lng":135.586435,"zip":"6210844"},{"town":"西つつじケ丘五月台一丁目","koaza":"","lat":35.003772,"lng":135.588739,"zip":"6210841"},{"town":"西つつじケ丘五月台二丁目","koaza":"","lat":35.003787,"lng":135.586305,"zip":"6210841"},{"town":"西つつじケ丘大山台一丁目","koaza":"","lat":35.001344,"lng":135.589157,"zip":"6210843"},{"town":"西つつじケ丘大山台二丁目","koaza":"","lat":35.001049,"lng":135.586628,"zip":"6210843"},{"town":"西つつじケ丘美山台一丁目","koaza":"","lat":34.999237,"lng":135.584302,"zip":"6210845"},{"town":"西つつじケ丘美山台二丁目","koaza":"","lat":34.997105,"lng":135.584696,"zip":"6210845"},{"town":"西別院町犬甘野","koaza":"","lat":34.971902,"lng":135.50133,"zip":"6210126"},{"town":"西別院町大槻並","koaza":"","lat":34.953329,"lng":135.526803,"zip":"6210121"},{"town":"西別院町神地","koaza":"","lat":34.950635,"lng":135.492009,"zip":"6210127"},{"town":"西別院町寺田","koaza":"","lat":34.939856,"lng":135.517011,"zip":"6210123"},{"town":"西別院町牧","koaza":"","lat":34.959135,"lng":135.487272,"zip":"6210000"},{"town":"西別院町万願寺","koaza":"","lat":34.94381,"lng":135.524842,"zip":"6210122"},{"town":"西別院町柚原","koaza":"","lat":34.954454,"lng":135.510609,"zip":"6210124"},{"town":"西別院町笑路","koaza":"","lat":34.97018,"lng":135.517462,"zip":"6210125"},{"town":"西町","koaza":"","lat":35.013795,"lng":135.576784,"zip":"6210862"},{"town":"旅籠町","koaza":"","lat":35.010024,"lng":135.58216,"zip":"6210866"},{"town":"畑野町千ケ畑","koaza":"","lat":35.01967,"lng":135.437421,"zip":"6210261"},{"town":"畑野町土ケ畑","koaza":"","lat":35.018863,"lng":135.393812,"zip":"6210263"},{"town":"畑野町広野","koaza":"","lat":35.008983,"lng":135.428324,"zip":"6210262"},{"town":"稗田野町芦ノ山","koaza":"","lat":35.01774,"lng":135.510769,"zip":"6210000"},{"town":"稗田野町太田","koaza":"","lat":35.023292,"lng":135.541662,"zip":"6210000"},{"town":"稗田野町奥条","koaza":"","lat":35.031143,"lng":135.514969,"zip":"6210000"},{"town":"稗田野町柿花","koaza":"","lat":35.024693,"lng":135.510749,"zip":"6210000"},{"town":"稗田野町佐伯","koaza":"","lat":35.005462,"lng":135.512808,"zip":"6210000"},{"town":"稗田野町天川","koaza":"","lat":35.011123,"lng":135.542003,"zip":"6210000"},{"town":"稗田野町鹿谷","koaza":"","lat":35.030727,"lng":135.528651,"zip":"6210000"},{"town":"東竪町","koaza":"","lat":35.008447,"lng":135.586921,"zip":"6210816"},{"town":"東つつじケ丘曙台一丁目","koaza":"","lat":34.996784,"lng":135.596973,"zip":"6210833"},{"town":"東つつじケ丘曙台二丁目","koaza":"","lat":34.995085,"lng":135.596962,"zip":"6210833"},{"town":"東つつじケ丘曙台三丁目","koaza":"","lat":34.994708,"lng":135.595394,"zip":"6210833"},{"town":"東つつじケ丘曙台四丁目","koaza":"","lat":34.99207,"lng":135.593938,"zip":"6210833"},{"town":"東つつじケ丘都台一丁目","koaza":"","lat":35.00128,"lng":135.596945,"zip":"6210832"},{"town":"東つつじケ丘都台二丁目","koaza":"","lat":34.998952,"lng":135.596443,"zip":"6210832"},{"town":"東つつじケ丘都台三丁目","koaza":"","lat":34.998199,"lng":135.597543,"zip":"6210832"},{"town":"東別院町大野","koaza":"","lat":34.962375,"lng":135.534605,"zip":"6210104"},{"town":"東別院町栢原","koaza":"","lat":34.928956,"lng":135.568689,"zip":"6210115"},{"town":"東別院町鎌倉","koaza":"","lat":34.925783,"lng":135.55091,"zip":"6210114"},{"town":"東別院町神原","koaza":"","lat":34.981937,"lng":135.561371,"zip":"6210102"},{"town":"東別院町倉谷","koaza":"","lat":34.931596,"lng":135.544914,"zip":"6210113"},{"town":"東別院町小泉","koaza":"","lat":34.96654,"lng":135.564448,"zip":"6210101"},{"town":"東別院町東掛","koaza":"","lat":34.954214,"lng":135.550147,"zip":"6210103"},{"town":"東別院町南掛","koaza":"","lat":34.941515,"lng":135.540963,"zip":"6210111"},{"town":"東別院町湯谷","koaza":"","lat":34.932584,"lng":135.530776,"zip":"6210112"},{"town":"東本梅町赤熊","koaza":"","lat":35.042267,"lng":135.462726,"zip":"6210234"},{"town":"東本梅町大内","koaza":"","lat":35.062501,"lng":135.487092,"zip":"6210231"},{"town":"東本梅町中野","koaza":"","lat":35.037049,"lng":135.459464,"zip":"6210233"},{"town":"東本梅町東大谷","koaza":"","lat":35.044728,"lng":135.459155,"zip":"6210235"},{"town":"東本梅町松熊","koaza":"","lat":35.051639,"lng":135.481729,"zip":"6210232"},{"town":"保津町","koaza":"","lat":35.035844,"lng":135.608949,"zip":"6210005"},{"town":"本町","koaza":"","lat":35.010672,"lng":135.579193,"zip":"6210869"},{"town":"本梅町井手","koaza":"","lat":35.011087,"lng":135.493259,"zip":"6210253"},{"town":"本梅町中野","koaza":"","lat":35.026777,"lng":135.479593,"zip":"6210252"},{"town":"本梅町西加舎","koaza":"","lat":35.007516,"lng":135.468439,"zip":"6210255"},{"town":"本梅町東加舎","koaza":"","lat":35.000128,"lng":135.487187,"zip":"6210254"},{"town":"本梅町平松","koaza":"","lat":35.016825,"lng":135.486208,"zip":"6210251"},{"town":"南つつじケ丘大葉台一丁目","koaza":"","lat":34.995906,"lng":135.59034,"zip":"6210846"},{"town":"南つつじケ丘大葉台二丁目","koaza":"","lat":34.992644,"lng":135.588934,"zip":"6210846"},{"town":"南つつじケ丘桜台一丁目","koaza":"","lat":34.987602,"lng":135.589083,"zip":"6210847"},{"town":"南つつじケ丘桜台二丁目","koaza":"","lat":34.990002,"lng":135.586591,"zip":"6210847"},{"town":"南つつじケ丘桜台三丁目","koaza":"","lat":34.986017,"lng":135.586117,"zip":"6210847"},{"town":"南つつじケ丘桜台四丁目","koaza":"","lat":34.983565,"lng":135.587085,"zip":"6210847"},{"town":"南つつじケ丘桜台五丁目","koaza":"","lat":34.986967,"lng":135.583903,"zip":"6210847"},{"town":"三宅町","koaza":"","lat":35.011183,"lng":135.591194,"zip":"6210814"},{"town":"三宅町一丁目","koaza":"","lat":35.006392,"lng":135.59091,"zip":"6210814"},{"town":"三宅町二丁目","koaza":"","lat":35.005493,"lng":135.588961,"zip":"6210814"},{"town":"宮前町猪倉","koaza":"","lat":35.032376,"lng":135.49723,"zip":"6210241"},{"town":"宮前町神前","koaza":"","lat":35.050104,"lng":135.507951,"zip":"6210242"},{"town":"宮前町宮川","koaza":"","lat":35.040561,"lng":135.482834,"zip":"6210243"},{"town":"安町","koaza":"","lat":35.013713,"lng":135.571535,"zip":"6210805"},{"town":"矢田町","koaza":"","lat":35.008685,"lng":135.580521,"zip":"6210853"},{"town":"柳町","koaza":"","lat":35.009747,"lng":135.578839,"zip":"6210868"},{"town":"横町","koaza":"","lat":35.010139,"lng":135.583291,"zip":"6210812"},{"town":"吉川町穴川","koaza":"","lat":35.018462,"lng":135.554237,"zip":"6210014"},{"town":"吉川町吉田","koaza":"","lat":35.018326,"lng":135.545779,"zip":"6210015"},{"town":"本梅町平松","koaza":"湯ノ花","lat":35.020145,"lng":135.504385,"zip":"6210251"},{"town":"宮前町猪倉","koaza":"椿原","lat":35.022803,"lng":135.506135,"zip":"6210241"},{"town":"稗田野町芦ノ山","koaza":"流田","lat":35.016067,"lng":135.510169,"zip":"6210000"},{"town":"稗田野町柿花","koaza":"宮ノ奥","lat":35.024566,"lng":135.508879,"zip":"6210000"},{"town":"稗田野町奥条","koaza":"長尾","lat":35.029448,"lng":135.511839,"zip":"6210000"},{"town":"稗田野町奥条","koaza":"登イ畑","lat":35.026285,"lng":135.512575,"zip":"6210000"},{"town":"稗田野町芦ノ山","koaza":"宮ノ下","lat":35.021523,"lng":135.513597,"zip":"6210000"},{"town":"稗田野町芦ノ山","koaza":"イノシリ","lat":35.019577,"lng":135.511955,"zip":"6210000"},{"town":"稗田野町奥条","koaza":"千原","lat":35.026963,"lng":135.512732,"zip":"6210000"},{"town":"稗田野町柿花","koaza":"梶林","lat":35.023539,"lng":135.519414,"zip":"6210000"},{"town":"稗田野町奥条","koaza":"大西","lat":35.027829,"lng":135.5156,"zip":"6210000"},{"town":"曽我部町犬飼","koaza":"未ケ谷","lat":34.999513,"lng":135.523627,"zip":"6210027"},{"town":"稗田野町芦ノ山","koaza":"杉森","lat":35.018991,"lng":135.5147,"zip":"6210000"},{"town":"稗田野町奥条","koaza":"門田","lat":35.024662,"lng":135.517961,"zip":"6210000"},{"town":"稗田野町佐伯","koaza":"岩谷ノ内墓野","lat":35.014605,"lng":135.521835,"zip":"6210000"},{"town":"稗田野町佐伯","koaza":"下峠","lat":35.01668,"lng":135.523124,"zip":"6210000"},{"town":"稗田野町奥条","koaza":"大仲","lat":35.027444,"lng":135.519553,"zip":"6210000"},{"town":"稗田野町奥条","koaza":"須川","lat":35.025831,"lng":135.519064,"zip":"6210000"},{"town":"曽我部町法貴","koaza":"北谷口","lat":34.989578,"lng":135.533508,"zip":"6210026"},{"town":"西別院町笑路","koaza":"池ノ辻","lat":34.97345,"lng":135.519481,"zip":"6210125"},{"town":"稗田野町柿花","koaza":"茶屋","lat":35.020126,"lng":135.519848,"zip":"6210000"},{"town":"稗田野町佐伯","koaza":"岩谷ノ内院ノ芝","lat":35.013048,"lng":135.524022,"zip":"6210000"},{"town":"西別院町笑路","koaza":"頭木田","lat":34.978457,"lng":135.521199,"zip":"6210125"},{"town":"稗田野町奥条","koaza":"中道","lat":35.023676,"lng":135.521795,"zip":"6210000"},{"town":"稗田野町柿花","koaza":"中道","lat":35.022383,"lng":135.52308,"zip":"6210000"},{"town":"稗田野町奥条","koaza":"大東","lat":35.025303,"lng":135.523582,"zip":"6210000"},{"town":"稗田野町柿花","koaza":"畑ケ中","lat":35.02086,"lng":135.52558,"zip":"6210000"},{"town":"千代川町北ノ庄","koaza":"西谷","lat":35.054576,"lng":135.526598,"zip":"6210046"},{"town":"千代川町北ノ庄","koaza":"矢ノ尾谷","lat":35.050644,"lng":135.52687,"zip":"6210046"},{"town":"稗田野町佐伯","koaza":"垣内","lat":35.014243,"lng":135.526222,"zip":"6210000"},{"town":"稗田野町柿花","koaza":"北ノ久保","lat":35.023081,"lng":135.525695,"zip":"6210000"},{"town":"稗田野町佐伯","koaza":"大門","lat":35.016918,"lng":135.527284,"zip":"6210000"},{"town":"千代川町北ノ庄","koaza":"明谷","lat":35.048232,"lng":135.529281,"zip":"6210046"},{"town":"稗田野町鹿谷","koaza":"西山","lat":35.026803,"lng":135.526099,"zip":"6210000"},{"town":"稗田野町佐伯","koaza":"岩谷ノ内向山","lat":35.012228,"lng":135.527384,"zip":"6210000"},{"town":"稗田野町柿花","koaza":"吉岡","lat":35.019646,"lng":135.529536,"zip":"6210000"},{"town":"千代川町北ノ庄","koaza":"南谷","lat":35.048263,"lng":135.532872,"zip":"6210046"},{"town":"稗田野町鹿谷","koaza":"西川","lat":35.027285,"lng":135.527461,"zip":"6210000"},{"town":"稗田野町佐伯","koaza":"岩谷ノ内稲荷谷","lat":35.018311,"lng":135.527926,"zip":"6210000"},{"town":"稗田野町鹿谷","koaza":"浄門","lat":35.024576,"lng":135.527947,"zip":"6210000"},{"town":"稗田野町鹿谷","koaza":"丸ケ条","lat":35.029212,"lng":135.529716,"zip":"6210000"},{"town":"稗田野町佐伯","koaza":"筋違","lat":35.014656,"lng":135.527909,"zip":"6210000"},{"town":"稗田野町鹿谷","koaza":"上条","lat":35.02697,"lng":135.529232,"zip":"6210000"},{"town":"稗田野町佐伯","koaza":"飼条","lat":35.016558,"lng":135.529918,"zip":"6210000"},{"town":"千代川町北ノ庄","koaza":"東谷","lat":35.056409,"lng":135.530011,"zip":"6210046"},{"town":"稗田野町佐伯","koaza":"玉泉","lat":35.01383,"lng":135.52902,"zip":"6210000"},{"town":"稗田野町佐伯","koaza":"浦亦","lat":35.017953,"lng":135.529386,"zip":"6210000"},{"town":"千代川町北ノ庄","koaza":"宮ノ前","lat":35.052941,"lng":135.52982,"zip":"6210046"},{"town":"千代川町北ノ庄","koaza":"中筋","lat":35.052182,"lng":135.530011,"zip":"6210046"},{"town":"千代川町北ノ庄","koaza":"向条","lat":35.051709,"lng":135.529757,"zip":"6210046"},{"town":"稗田野町鹿谷","koaza":"戸井","lat":35.024963,"lng":135.529997,"zip":"6210000"},{"town":"千代川町北ノ庄","koaza":"上条","lat":35.053832,"lng":135.530382,"zip":"6210046"},{"town":"曽我部町犬飼","koaza":"樋ノ口","lat":34.995481,"lng":135.530041,"zip":"6210027"},{"town":"曽我部町犬飼","koaza":"灘羅","lat":34.993124,"lng":135.530678,"zip":"6210027"},{"town":"稗田野町佐伯","koaza":"河原ノ辻","lat":35.012356,"lng":135.531312,"zip":"6210000"},{"town":"曽我部町犬飼","koaza":"九ノ坪","lat":34.99514,"lng":135.531209,"zip":"6210027"},{"town":"稗田野町鹿谷","koaza":"中村","lat":35.022193,"lng":135.534162,"zip":"6210000"},{"town":"千代川町北ノ庄","koaza":"市場","lat":35.051613,"lng":135.531354,"zip":"6210046"},{"town":"千代川町北ノ庄","koaza":"上畑","lat":35.05454,"lng":135.530474,"zip":"6210046"},{"town":"稗田野町鹿谷","koaza":"下条","lat":35.024195,"lng":135.532011,"zip":"6210000"},{"town":"稗田野町佐伯","koaza":"薄井","lat":35.015723,"lng":135.531391,"zip":"6210000"},{"town":"曽我部町犬飼","koaza":"梨ノ段","lat":34.994126,"lng":135.531045,"zip":"6210027"},{"town":"稗田野町佐伯","koaza":"出山地","lat":35.011522,"lng":135.533715,"zip":"6210000"},{"town":"千代川町北ノ庄","koaza":"渕田","lat":35.054181,"lng":135.532464,"zip":"6210046"},{"town":"千代川町北ノ庄","koaza":"中村","lat":35.053049,"lng":135.53293,"zip":"6210046"},{"town":"千代川町北ノ庄","koaza":"下条","lat":35.052246,"lng":135.531368,"zip":"6210046"},{"town":"稗田野町鹿谷","koaza":"清水谷","lat":35.026148,"lng":135.534002,"zip":"6210000"},{"town":"稗田野町佐伯","koaza":"源ノ坊","lat":35.017954,"lng":135.533243,"zip":"6210000"},{"town":"稗田野町佐伯","koaza":"三重代","lat":35.019792,"lng":135.534341,"zip":"6210000"},{"town":"曽我部町犬飼","koaza":"河内","lat":34.99622,"lng":135.532263,"zip":"6210027"},{"town":"曽我部町法貴","koaza":"綿打川","lat":34.991892,"lng":135.533314,"zip":"6210026"},{"town":"千代川町北ノ庄","koaza":"崩条","lat":35.050875,"lng":135.532129,"zip":"6210046"},{"town":"千代川町北ノ庄","koaza":"出口","lat":35.051656,"lng":135.532577,"zip":"6210046"},{"town":"千代川町北ノ庄","koaza":"角垣内","lat":35.052217,"lng":135.53229,"zip":"6210046"},{"town":"稗田野町鹿谷","koaza":"加茂","lat":35.02081,"lng":135.535173,"zip":"6210000"},{"town":"稗田野町柿花","koaza":"三十代","lat":35.020596,"lng":135.533197,"zip":"6210000"},{"town":"千代川町拝田","koaza":"長者垣内","lat":35.056092,"lng":135.533172,"zip":"6210053"},{"town":"稗田野町佐伯","koaza":"大日堂","lat":35.016724,"lng":135.533962,"zip":"6210000"},{"town":"曽我部町法貴","koaza":"上殿垣内","lat":34.987973,"lng":135.533691,"zip":"6210026"},{"town":"曽我部町穴太","koaza":"口山","lat":35.006072,"lng":135.535887,"zip":"6210029"},{"town":"千代川町北ノ庄","koaza":"砂子田","lat":35.049691,"lng":135.533365,"zip":"6210046"},{"town":"曽我部町犬飼","koaza":"田中前","lat":34.994109,"lng":135.533243,"zip":"6210027"},{"town":"曽我部町犬飼","koaza":"前川","lat":34.994835,"lng":135.535675,"zip":"6210027"},{"town":"曽我部町犬飼","koaza":"浦田","lat":34.996348,"lng":135.534409,"zip":"6210027"},{"town":"曽我部町犬飼","koaza":"弓田","lat":34.998492,"lng":135.537392,"zip":"6210027"},{"town":"千代川町北ノ庄","koaza":"惣堂","lat":35.046384,"lng":135.533902,"zip":"6210046"},{"town":"千代川町拝田","koaza":"大将軍垣内","lat":35.05682,"lng":135.536068,"zip":"6210053"},{"town":"曽我部町法貴","koaza":"茶屋上又","lat":34.990378,"lng":135.534731,"zip":"6210026"},{"town":"稗田野町佐伯","koaza":"垣内亦","lat":35.017461,"lng":135.53657,"zip":"6210000"},{"town":"稗田野町太田","koaza":"石垣内","lat":35.023733,"lng":135.538865,"zip":"6210000"},{"town":"曽我部町法貴","koaza":"寺縄壱","lat":34.987436,"lng":135.535666,"zip":"6210026"},{"town":"稗田野町佐伯","koaza":"原野","lat":35.010686,"lng":135.536041,"zip":"6210000"},{"town":"曽我部町法貴","koaza":"一ノ井出","lat":34.986151,"lng":135.536487,"zip":"6210026"},{"town":"稗田野町太田","koaza":"高畑","lat":35.022896,"lng":135.535357,"zip":"6210000"},{"town":"千代川町拝田","koaza":"登井谷","lat":35.054823,"lng":135.534913,"zip":"6210053"},{"town":"曽我部町法貴","koaza":"茶屋下又","lat":34.988602,"lng":135.535436,"zip":"6210026"},{"town":"稗田野町佐伯","koaza":"野下前","lat":35.01485,"lng":135.536688,"zip":"6210000"},{"town":"千代川町拝田","koaza":"長縄手","lat":35.053372,"lng":135.535947,"zip":"6210053"},{"town":"稗田野町佐伯","koaza":"西ノ辻","lat":35.01658,"lng":135.537191,"zip":"6210000"},{"town":"千代川町北ノ庄","koaza":"下河原","lat":35.047702,"lng":135.537885,"zip":"6210046"},{"town":"稗田野町佐伯","koaza":"水戸後","lat":35.019039,"lng":135.535552,"zip":"6210000"},{"town":"曽我部町法貴","koaza":"寺ケ縄前筋","lat":34.987158,"lng":135.536916,"zip":"6210026"},{"town":"千代川町北ノ庄","koaza":"堂ノ後","lat":35.051997,"lng":135.535918,"zip":"6210046"},{"town":"曽我部町犬飼","koaza":"馬ノ上","lat":34.993415,"lng":135.535692,"zip":"6210027"},{"town":"千代川町湯井","koaza":"西筋","lat":35.044845,"lng":135.53692,"zip":"6210045"},{"town":"曽我部町法貴","koaza":"中溝","lat":34.991898,"lng":135.535717,"zip":"6210026"},{"town":"大井町北金岐","koaza":"観音下","lat":35.032805,"lng":135.541773,"zip":"6210017"},{"town":"稗田野町太田","koaza":"矢ノ田","lat":35.021355,"lng":135.536305,"zip":"6210000"},{"town":"曽我部町犬飼","koaza":"古道","lat":34.995229,"lng":135.536283,"zip":"6210027"},{"town":"千代川町北ノ庄","koaza":"中ノ町","lat":35.049868,"lng":135.539059,"zip":"6210046"},{"town":"稗田野町太田","koaza":"森","lat":35.020445,"lng":135.536567,"zip":"6210000"},{"town":"大井町南金岐","koaza":"清水","lat":35.028729,"lng":135.542717,"zip":"6210016"},{"town":"曽我部町法貴","koaza":"コモ原","lat":34.989006,"lng":135.537563,"zip":"6210026"},{"town":"千代川町湯井","koaza":"南筋","lat":35.041542,"lng":135.538973,"zip":"6210045"},{"town":"曽我部町穴太","koaza":"芝際","lat":35.006151,"lng":135.537316,"zip":"6210029"},{"town":"千代川町北ノ庄","koaza":"荒牧","lat":35.048937,"lng":135.538681,"zip":"6210046"},{"town":"曽我部町中","koaza":"岩山","lat":34.982017,"lng":135.53649,"zip":"6210025"},{"town":"千代川町拝田","koaza":"国司牧","lat":35.053326,"lng":135.538713,"zip":"6210053"},{"town":"千代川町北ノ庄","koaza":"桑寺","lat":35.051653,"lng":135.539103,"zip":"6210046"},{"town":"千代川町川関","koaza":"カミ","lat":35.063354,"lng":135.53924,"zip":"6210054"},{"town":"千代川町千原","koaza":"西斉ノ本","lat":35.057008,"lng":135.539586,"zip":"6210052"},{"town":"曽我部町犬飼","koaza":"地蔵又","lat":34.997497,"lng":135.539685,"zip":"6210027"},{"town":"曽我部町犬飼","koaza":"年ノ射場","lat":34.994925,"lng":135.539226,"zip":"6210027"},{"town":"稗田野町太田","koaza":"油田","lat":35.022735,"lng":135.538796,"zip":"6210000"},{"town":"稗田野町太田","koaza":"川ノ上","lat":35.025031,"lng":135.539542,"zip":"6210000"},{"town":"曽我部町犬飼","koaza":"坊ケ辻","lat":34.995872,"lng":135.540765,"zip":"6210027"},{"town":"千代川町湯井","koaza":"中筋","lat":35.043946,"lng":135.539861,"zip":"6210045"},{"town":"曽我部町春日部","koaza":"上山田","lat":34.973607,"lng":135.540292,"zip":"6210024"},{"town":"曽我部町中","koaza":"中小路","lat":34.985346,"lng":135.540266,"zip":"6210025"},{"town":"稗田野町佐伯","koaza":"琴敷","lat":35.013618,"lng":135.54026,"zip":"6210000"},{"town":"曽我部町中","koaza":"浦田","lat":34.98616,"lng":135.539206,"zip":"6210025"},{"town":"曽我部町中","koaza":"長瀬","lat":34.982813,"lng":135.540162,"zip":"6210025"},{"town":"稗田野町佐伯","koaza":"八王寺","lat":35.016518,"lng":135.541465,"zip":"6210000"},{"town":"稗田野町佐伯","koaza":"大東","lat":35.016861,"lng":135.540064,"zip":"6210000"},{"town":"稗田野町太田","koaza":"竹ケ花","lat":35.022468,"lng":135.540301,"zip":"6210000"},{"town":"曽我部町春日部","koaza":"西山田","lat":34.974941,"lng":135.539414,"zip":"6210024"},{"town":"千代川町川関","koaza":"宮ノ前","lat":35.060693,"lng":135.542629,"zip":"6210054"},{"town":"吉川町吉田","koaza":"岩ノ上","lat":35.019012,"lng":135.54206,"zip":"6210015"},{"town":"大井町小金岐","koaza":"北浦","lat":35.040852,"lng":135.541332,"zip":"6210018"},{"town":"曽我部町犬飼","koaza":"上金生寺","lat":34.992436,"lng":135.541028,"zip":"6210027"},{"town":"曽我部町中","koaza":"丁田","lat":34.98461,"lng":135.540374,"zip":"6210025"},{"town":"稗田野町太田","koaza":"中西","lat":35.023729,"lng":135.541399,"zip":"6210000"},{"town":"曽我部町春日部","koaza":"樋ノ口","lat":34.974999,"lng":135.540592,"zip":"6210024"},{"town":"曽我部町春日部","koaza":"与福","lat":34.976817,"lng":135.540524,"zip":"6210024"},{"town":"稗田野町佐伯","koaza":"丁畑ケ","lat":35.012608,"lng":135.540274,"zip":"6210000"},{"town":"千代川町川関","koaza":"中土井","lat":35.064444,"lng":135.541091,"zip":"6210054"},{"town":"曽我部町犬飼","koaza":"中金生寺","lat":34.993951,"lng":135.541054,"zip":"6210027"},{"town":"千代川町川関","koaza":"森ケ下","lat":35.058723,"lng":135.54773,"zip":"6210054"},{"town":"千代川町湯井","koaza":"艮筋","lat":35.046083,"lng":135.541462,"zip":"6210045"},{"town":"曽我部町春日部","koaza":"空屋谷","lat":34.980555,"lng":135.545414,"zip":"6210024"},{"town":"稗田野町太田","koaza":"才ノ本","lat":35.024586,"lng":135.541694,"zip":"6210000"},{"town":"曽我部町春日部","koaza":"五蔵通","lat":34.975125,"lng":135.54089,"zip":"6210024"},{"town":"千代川町千原","koaza":"大門","lat":35.053974,"lng":135.544192,"zip":"6210052"},{"town":"吉川町吉田","koaza":"段ノ坪","lat":35.017329,"lng":135.541969,"zip":"6210015"},{"town":"千代川町湯井","koaza":"巽筋","lat":35.043035,"lng":135.542533,"zip":"6210045"},{"town":"千代川町千原","koaza":"千原前","lat":35.050941,"lng":135.542589,"zip":"6210052"},{"town":"稗田野町太田","koaza":"丁田","lat":35.021451,"lng":135.542035,"zip":"6210000"},{"town":"稗田野町太田","koaza":"高星","lat":35.025918,"lng":135.542053,"zip":"6210000"},{"town":"稗田野町太田","koaza":"薮ノ後","lat":35.020478,"lng":135.542043,"zip":"6210000"},{"town":"曽我部町中","koaza":"前通","lat":34.984777,"lng":135.542554,"zip":"6210025"},{"town":"曽我部町春日部","koaza":"滝ノ下","lat":34.978426,"lng":135.542317,"zip":"6210024"},{"town":"曽我部町中","koaza":"状使","lat":34.982584,"lng":135.54174,"zip":"6210025"},{"town":"大井町南金岐","koaza":"谷口","lat":35.031254,"lng":135.541428,"zip":"6210016"},{"town":"千代川町北ノ庄","koaza":"国主ケ森","lat":35.047842,"lng":135.542888,"zip":"6210046"},{"town":"千代川町北ノ庄","koaza":"相寄","lat":35.048973,"lng":135.542629,"zip":"6210046"},{"town":"千代川町川関","koaza":"奥ノ谷","lat":35.057958,"lng":135.543217,"zip":"6210054"},{"town":"千代川町川関","koaza":"鳶ノ巣","lat":35.057455,"lng":135.544805,"zip":"6210054"},{"town":"千代川町千原","koaza":"東斉ノ本","lat":35.055025,"lng":135.544582,"zip":"6210052"},{"town":"曽我部町寺","koaza":"奥殿","lat":34.986831,"lng":135.543842,"zip":"6210023"},{"town":"千代川町千原","koaza":"片ボコ","lat":35.049954,"lng":135.543144,"zip":"6210052"},{"town":"吉川町吉田","koaza":"堅田","lat":35.01555,"lng":135.543867,"zip":"6210015"},{"town":"曽我部町穴太","koaza":"車垣内","lat":35.01057,"lng":135.543417,"zip":"6210029"},{"town":"曽我部町春日部","koaza":"東垣内","lat":34.977781,"lng":135.543107,"zip":"6210024"},{"town":"曽我部町犬飼","koaza":"池ノ北","lat":34.99587,"lng":135.543969,"zip":"6210027"},{"town":"大井町南金岐","koaza":"丁田","lat":35.027479,"lng":135.544875,"zip":"6210016"},{"town":"曽我部町犬飼","koaza":"荒木","lat":34.994807,"lng":135.542767,"zip":"6210027"},{"town":"曽我部町中","koaza":"中筋","lat":34.984983,"lng":135.543206,"zip":"6210025"},{"town":"大井町北金岐","koaza":"井尾","lat":35.033396,"lng":135.543507,"zip":"6210017"},{"town":"大井町北金岐","koaza":"三十代","lat":35.034106,"lng":135.542737,"zip":"6210017"},{"town":"大井町北金岐","koaza":"小山","lat":35.032527,"lng":135.543218,"zip":"6210017"},{"town":"大井町南金岐","koaza":"尾垣内","lat":35.031591,"lng":135.543551,"zip":"6210016"},{"town":"大井町南金岐","koaza":"又ケ田","lat":35.030504,"lng":135.546192,"zip":"6210016"},{"town":"曽我部町春日部","koaza":"胡桃塚","lat":34.980604,"lng":135.544877,"zip":"6210024"},{"town":"大井町南金岐","koaza":"町田","lat":35.029351,"lng":135.545162,"zip":"6210016"},{"town":"曽我部町穴太","koaza":"二ツ池","lat":35.013019,"lng":135.543913,"zip":"6210029"},{"town":"千代川町湯井","koaza":"東筋","lat":35.044344,"lng":135.543987,"zip":"6210045"},{"town":"吉川町吉田","koaza":"後代","lat":35.019582,"lng":135.544712,"zip":"6210015"},{"town":"千代川町千原","koaza":"清草","lat":35.051955,"lng":135.543931,"zip":"6210052"},{"town":"稗田野町太田","koaza":"細木原","lat":35.026262,"lng":135.543891,"zip":"6210000"},{"town":"千代川町千原","koaza":"学堂","lat":35.053045,"lng":135.544092,"zip":"6210052"},{"town":"稗田野町太田","koaza":"花ノ木","lat":35.020521,"lng":135.54414,"zip":"6210000"},{"town":"稗田野町太田","koaza":"古屋敷","lat":35.02148,"lng":135.54413,"zip":"6210000"},{"town":"稗田野町太田","koaza":"土井ノ上","lat":35.022523,"lng":135.544982,"zip":"6210000"},{"town":"大井町南金岐","koaza":"重見","lat":35.028451,"lng":135.54362,"zip":"6210016"},{"town":"曽我部町中","koaza":"河原田","lat":34.985938,"lng":135.544201,"zip":"6210025"},{"town":"曽我部町中","koaza":"宮ノ前","lat":34.98407,"lng":135.544089,"zip":"6210025"},{"town":"曽我部町春日部","koaza":"井手口","lat":34.979639,"lng":135.544227,"zip":"6210024"},{"town":"千代川町小林","koaza":"西芝","lat":35.04124,"lng":135.544876,"zip":"6210043"},{"town":"吉川町吉田","koaza":"越田","lat":35.017748,"lng":135.545211,"zip":"6210015"},{"town":"曽我部町穴太","koaza":"大塚","lat":35.013337,"lng":135.546397,"zip":"6210029"},{"town":"曽我部町穴太","koaza":"鐘ツキ","lat":35.012389,"lng":135.545447,"zip":"6210029"},{"town":"曽我部町寺","koaza":"河原田","lat":34.994129,"lng":135.54641,"zip":"6210023"},{"town":"千代川町千原","koaza":"宮ノ本","lat":35.051976,"lng":135.545564,"zip":"6210052"},{"town":"曽我部町寺","koaza":"西川","lat":34.989895,"lng":135.545771,"zip":"6210023"},{"town":"千代川町川関","koaza":"西又","lat":35.057884,"lng":135.544856,"zip":"6210054"},{"town":"吉川町吉田","koaza":"沢","lat":35.016578,"lng":135.546294,"zip":"6210015"},{"town":"曽我部町南条","koaza":"宮田筋","lat":34.995925,"lng":135.545184,"zip":"6210022"},{"town":"千代川町高野林","koaza":"西田","lat":35.045178,"lng":135.546816,"zip":"6210042"},{"town":"千代川町高野林","koaza":"西ノ畑","lat":35.044113,"lng":135.546303,"zip":"6210042"},{"town":"千代川町千原","koaza":"安田","lat":35.053244,"lng":135.548102,"zip":"6210052"},{"town":"千代川町川関","koaza":"東又","lat":35.059589,"lng":135.545245,"zip":"6210054"},{"town":"曽我部町寺","koaza":"野見寺","lat":34.981417,"lng":135.545827,"zip":"6210023"},{"town":"千代川町小林","koaza":"北ン田","lat":35.042159,"lng":135.548269,"zip":"6210043"},{"town":"曽我部町穴太","koaza":"藤ノ木","lat":35.010212,"lng":135.546178,"zip":"6210029"},{"town":"曽我部町西条","koaza":"下檀ノ上","lat":35.005155,"lng":135.548483,"zip":"6210028"},{"town":"曽我部町寺","koaza":"上下垣内","lat":34.988065,"lng":135.548081,"zip":"6210023"},{"town":"千代川町小林","koaza":"植田","lat":35.040145,"lng":135.549293,"zip":"6210043"},{"town":"千代川町小林","koaza":"下戸","lat":35.038726,"lng":135.546872,"zip":"6210043"},{"town":"曽我部町穴太","koaza":"宮垣内","lat":35.008214,"lng":135.546174,"zip":"6210029"},{"town":"曽我部町南条","koaza":"南荒水代","lat":34.996966,"lng":135.54726,"zip":"6210022"},{"town":"曽我部町寺","koaza":"恋谷","lat":34.98572,"lng":135.547566,"zip":"6210023"},{"town":"曽我部町南条","koaza":"中荒水代","lat":34.997931,"lng":135.548396,"zip":"6210022"},{"town":"曽我部町南条","koaza":"北荒水代","lat":34.998883,"lng":135.548819,"zip":"6210022"},{"town":"曽我部町寺","koaza":"桧尾","lat":34.984032,"lng":135.546283,"zip":"6210023"},{"town":"曽我部町西条","koaza":"三町ケ坪","lat":34.999871,"lng":135.547671,"zip":"6210028"},{"town":"曽我部町寺","koaza":"蛇谷","lat":34.983142,"lng":135.547005,"zip":"6210023"},{"town":"曽我部町西条","koaza":"中久保","lat":35.004426,"lng":135.546776,"zip":"6210028"},{"town":"曽我部町寺","koaza":"広畑","lat":34.989844,"lng":135.548319,"zip":"6210023"},{"town":"曽我部町西条","koaza":"下久保","lat":35.005562,"lng":135.546901,"zip":"6210028"},{"town":"曽我部町穴太","koaza":"河原口","lat":35.011888,"lng":135.547399,"zip":"6210029"},{"town":"大井町北金岐","koaza":"柿木原","lat":35.030245,"lng":135.548172,"zip":"6210017"},{"town":"稗田野町太田","koaza":"丸橋","lat":35.023062,"lng":135.547996,"zip":"6210000"},{"town":"曽我部町寺","koaza":"城ケ裏","lat":34.990444,"lng":135.54902,"zip":"6210023"},{"town":"吉川町吉田","koaza":"下河原","lat":35.019475,"lng":135.547742,"zip":"6210015"},{"town":"吉川町吉田","koaza":"上河原","lat":35.015237,"lng":135.5481,"zip":"6210015"},{"town":"曽我部町西条","koaza":"中檀ノ上","lat":35.002901,"lng":135.548564,"zip":"6210028"},{"town":"曽我部町穴太","koaza":"市場","lat":35.007508,"lng":135.548565,"zip":"6210029"},{"town":"曽我部町寺","koaza":"長縄手","lat":34.992466,"lng":135.548875,"zip":"6210023"},{"town":"千代川町高野林","koaza":"高ノ畑","lat":35.043377,"lng":135.54916,"zip":"6210042"},{"town":"曽我部町穴太","koaza":"柳原","lat":35.012169,"lng":135.548728,"zip":"6210029"},{"town":"曽我部町寺","koaza":"万多羅","lat":34.995039,"lng":135.548242,"zip":"6210023"},{"town":"千代川町高野林","koaza":"北ン田","lat":35.044848,"lng":135.549309,"zip":"6210042"},{"town":"曽我部町穴太","koaza":"裏条","lat":35.008571,"lng":135.549425,"zip":"6210029"},{"town":"曽我部町穴太","koaza":"東ノ辻","lat":35.007444,"lng":135.550164,"zip":"6210029"},{"town":"曽我部町西条","koaza":"上檀ノ上","lat":35.00184,"lng":135.548844,"zip":"6210028"},{"town":"曽我部町穴太","koaza":"土渕","lat":35.013817,"lng":135.55026,"zip":"6210029"},{"town":"曽我部町南条","koaza":"上河原","lat":34.997192,"lng":135.550208,"zip":"6210022"},{"town":"曽我部町南条","koaza":"南向田","lat":34.99646,"lng":135.550064,"zip":"6210022"},{"town":"吉川町吉田","koaza":"前河原","lat":35.016606,"lng":135.549808,"zip":"6210015"},{"town":"千代川町小林","koaza":"前田","lat":35.039271,"lng":135.551167,"zip":"6210043"},{"town":"吉川町吉田","koaza":"天田","lat":35.018502,"lng":135.549332,"zip":"6210015"},{"town":"曽我部町寺","koaza":"拍子垣内","lat":34.98688,"lng":135.550097,"zip":"6210023"},{"town":"曽我部町西条","koaza":"下千代","lat":35.005118,"lng":135.549851,"zip":"6210028"},{"town":"吉川町吉田","koaza":"曽我ノ庄","lat":35.022093,"lng":135.551342,"zip":"6210015"},{"town":"曽我部町寺","koaza":"坊垣内","lat":34.988416,"lng":135.550331,"zip":"6210023"},{"town":"曽我部町西条","koaza":"上千代","lat":35.003862,"lng":135.550625,"zip":"6210028"},{"town":"曽我部町南条","koaza":"南浦竹","lat":34.999678,"lng":135.552256,"zip":"6210022"},{"town":"曽我部町寺","koaza":"杉ノ本","lat":34.992639,"lng":135.549988,"zip":"6210023"},{"town":"曽我部町寺","koaza":"門ノ裏","lat":34.995563,"lng":135.550169,"zip":"6210023"},{"town":"曽我部町重利","koaza":"西ノ垣内","lat":35.00548,"lng":135.551109,"zip":"6210021"},{"town":"河原林町河原尻","koaza":"往古島","lat":35.046025,"lng":135.555652,"zip":"6210007"},{"town":"曽我部町寺","koaza":"北条","lat":34.991357,"lng":135.551484,"zip":"6210023"},{"town":"吉川町穴川","koaza":"狭間","lat":35.016175,"lng":135.551092,"zip":"6210014"},{"town":"曽我部町穴太","koaza":"達原","lat":35.008371,"lng":135.552003,"zip":"6210029"},{"town":"吉川町穴川","koaza":"背戸田","lat":35.018535,"lng":135.552288,"zip":"6210014"},{"town":"吉川町穴川","koaza":"替田","lat":35.020275,"lng":135.552131,"zip":"6210014"},{"town":"曽我部町寺","koaza":"貝ノ庄","lat":34.989973,"lng":135.551528,"zip":"6210023"},{"town":"吉川町穴川","koaza":"堂ノ前","lat":35.017293,"lng":135.55198,"zip":"6210014"},{"town":"曽我部町南条","koaza":"下河原","lat":34.998937,"lng":135.55276,"zip":"6210022"},{"town":"曽我部町重利","koaza":"久保","lat":35.002785,"lng":135.55421,"zip":"6210021"},{"town":"馬路町","koaza":"三軒屋先","lat":35.050852,"lng":135.552278,"zip":"6210008"},{"town":"曽我部町重利","koaza":"矢折","lat":35.005252,"lng":135.55359,"zip":"6210021"},{"town":"吉川町穴川","koaza":"九文女","lat":35.019975,"lng":135.552694,"zip":"6210014"},{"town":"曽我部町南条","koaza":"中向田","lat":34.998452,"lng":135.552663,"zip":"6210022"},{"town":"馬路町","koaza":"上出合","lat":35.053078,"lng":135.55365,"zip":"6210008"},{"town":"馬路町","koaza":"高芝原","lat":35.054471,"lng":135.553066,"zip":"6210008"},{"town":"馬路町","koaza":"三ツ辻","lat":35.05556,"lng":135.552957,"zip":"6210008"},{"town":"曽我部町南条","koaza":"屋敷","lat":34.999507,"lng":135.552713,"zip":"6210022"},{"town":"曽我部町南条","koaza":"中浦竹","lat":35.001615,"lng":135.554567,"zip":"6210022"},{"town":"曽我部町寺","koaza":"三国山","lat":34.992924,"lng":135.552583,"zip":"6210023"},{"town":"馬路町","koaza":"石塚","lat":35.058233,"lng":135.553571,"zip":"6210008"},{"town":"曽我部町南条","koaza":"向山","lat":34.997598,"lng":135.554022,"zip":"6210022"},{"town":"馬路町","koaza":"小松ケ鼻","lat":35.057196,"lng":135.553456,"zip":"6210008"},{"town":"曽我部町重利","koaza":"先代","lat":35.00344,"lng":135.553201,"zip":"6210021"},{"town":"千代川町小林","koaza":"神田","lat":35.041313,"lng":135.554269,"zip":"6210043"},{"town":"馬路町","koaza":"三軒屋","lat":35.051103,"lng":135.553902,"zip":"6210008"},{"town":"旭町","koaza":"宮林","lat":35.079067,"lng":135.555155,"zip":"6210001"},{"town":"曽我部町南条","koaza":"大谷","lat":34.9942,"lng":135.555402,"zip":"6210022"},{"town":"吉川町穴川","koaza":"的場","lat":35.017451,"lng":135.553718,"zip":"6210014"},{"town":"旭町","koaza":"金辻","lat":35.077578,"lng":135.553533,"zip":"6210001"},{"town":"吉川町穴川","koaza":"中溝","lat":35.014639,"lng":135.553495,"zip":"6210014"},{"town":"曽我部町穴太","koaza":"小原","lat":35.008731,"lng":135.554788,"zip":"6210029"},{"town":"馬路町","koaza":"小米田","lat":35.055589,"lng":135.554807,"zip":"6210008"},{"town":"曽我部町南条","koaza":"北向田","lat":34.999646,"lng":135.554487,"zip":"6210022"},{"town":"吉川町穴川","koaza":"深田","lat":35.016812,"lng":135.554532,"zip":"6210014"},{"town":"曽我部町南条","koaza":"五郎谷","lat":34.995543,"lng":135.555697,"zip":"6210022"},{"town":"馬路町","koaza":"東出合","lat":35.053854,"lng":135.554244,"zip":"6210008"},{"town":"旭町","koaza":"仲垣内","lat":35.07784,"lng":135.556633,"zip":"6210001"},{"town":"吉川町穴川","koaza":"見付","lat":35.022309,"lng":135.555082,"zip":"6210014"},{"town":"吉川町穴川","koaza":"吹ケ","lat":35.019574,"lng":135.554636,"zip":"6210014"},{"town":"吉川町穴川","koaza":"蓮言寺","lat":35.018604,"lng":135.55464,"zip":"6210014"},{"town":"曽我部町穴太","koaza":"奥田","lat":35.014149,"lng":135.555183,"zip":"6210029"},{"town":"吉川町穴川","koaza":"野水","lat":35.01577,"lng":135.55461,"zip":"6210014"},{"town":"馬路町","koaza":"西出口","lat":35.053633,"lng":135.555233,"zip":"6210008"},{"town":"曽我部町重利","koaza":"軍垂","lat":35.006146,"lng":135.555948,"zip":"6210021"},{"town":"馬路町","koaza":"狐瀬","lat":35.052286,"lng":135.555124,"zip":"6210008"},{"town":"曽我部町南条","koaza":"竹谷","lat":34.997299,"lng":135.55575,"zip":"6210022"},{"town":"馬路町","koaza":"中芝","lat":35.049247,"lng":135.555685,"zip":"6210008"},{"town":"曽我部町重利","koaza":"八反田","lat":35.002412,"lng":135.556324,"zip":"6210021"},{"town":"大井町並河","koaza":"熊田","lat":35.02561,"lng":135.556083,"zip":"6210013"},{"town":"馬路町","koaza":"中島","lat":35.054243,"lng":135.55662,"zip":"6210008"},{"town":"旭町","koaza":"川ノ辺","lat":35.083938,"lng":135.555462,"zip":"6210001"},{"town":"馬路町","koaza":"下小島","lat":35.059405,"lng":135.556515,"zip":"6210008"},{"town":"旭町","koaza":"宮ノ元","lat":35.084549,"lng":135.556343,"zip":"6210001"},{"town":"吉川町穴川","koaza":"町田","lat":35.019135,"lng":135.555827,"zip":"6210014"},{"town":"吉川町穴川","koaza":"平等寺","lat":35.017109,"lng":135.555921,"zip":"6210014"},{"town":"曽我部町南条","koaza":"岩ケ谷","lat":34.998507,"lng":135.556026,"zip":"6210022"},{"town":"旭町","koaza":"土井ケ芝","lat":35.073187,"lng":135.555753,"zip":"6210001"},{"town":"吉川町穴川","koaza":"鍵田","lat":35.015736,"lng":135.556215,"zip":"6210014"},{"town":"旭町","koaza":"野田","lat":35.08359,"lng":135.56408,"zip":"6210001"},{"town":"馬路町","koaza":"下高廻","lat":35.056063,"lng":135.556047,"zip":"6210008"},{"town":"河原林町河原尻","koaza":"大樋","lat":35.047211,"lng":135.557583,"zip":"6210007"},{"town":"曽我部町重利","koaza":"向田","lat":35.004625,"lng":135.558671,"zip":"6210021"},{"town":"旭町","koaza":"北垣内","lat":35.079096,"lng":135.557074,"zip":"6210001"},{"town":"旭町","koaza":"一ツ橋","lat":35.067419,"lng":135.556567,"zip":"6210001"},{"town":"余部町","koaza":"走田","lat":35.009261,"lng":135.557847,"zip":"6210806"},{"town":"曽我部町重利","koaza":"中嶋","lat":35.00561,"lng":135.556978,"zip":"6210021"},{"town":"旭町","koaza":"寺山","lat":35.068005,"lng":135.557158,"zip":"6210001"},{"town":"馬路町","koaza":"池尻","lat":35.066206,"lng":135.562534,"zip":"6210008"},{"town":"吉川町穴川","koaza":"丸坪","lat":35.02102,"lng":135.55759,"zip":"6210014"},{"town":"余部町","koaza":"蚊又","lat":35.012695,"lng":135.55858,"zip":"6210806"},{"town":"吉川町穴川","koaza":"加股","lat":35.015487,"lng":135.557049,"zip":"6210014"},{"town":"吉川町穴川","koaza":"平田","lat":35.016829,"lng":135.557774,"zip":"6210014"},{"town":"馬路町","koaza":"高戸","lat":35.065875,"lng":135.559008,"zip":"6210008"},{"town":"馬路町","koaza":"上高樋","lat":35.052277,"lng":135.557655,"zip":"6210008"},{"town":"曽我部町重利","koaza":"尾重谷","lat":35.001625,"lng":135.557306,"zip":"6210021"},{"town":"旭町","koaza":"寺畑","lat":35.071834,"lng":135.557411,"zip":"6210001"},{"town":"馬路町","koaza":"釣走田","lat":35.059352,"lng":135.558436,"zip":"6210008"},{"town":"旭町","koaza":"井戸ノ下","lat":35.085746,"lng":135.562019,"zip":"6210001"},{"town":"曽我部町重利","koaza":"山ノ下","lat":35.004485,"lng":135.558719,"zip":"6210021"},{"town":"旭町","koaza":"樋ノ口","lat":35.079423,"lng":135.560297,"zip":"6210001"},{"town":"大井町並河","koaza":"鎌又","lat":35.024207,"lng":135.55848,"zip":"6210013"},{"town":"馬路町","koaza":"堂ノ西","lat":35.054428,"lng":135.559292,"zip":"6210008"},{"town":"東別院町神原","koaza":"中田渕","lat":34.986374,"lng":135.560326,"zip":"6210102"},{"town":"曽我部町重利","koaza":"風ノ口","lat":35.007816,"lng":135.560426,"zip":"6210021"},{"town":"馬路町","koaza":"秋吉","lat":35.056097,"lng":135.560451,"zip":"6210008"},{"town":"馬路町","koaza":"時ノ下","lat":35.057964,"lng":135.559536,"zip":"6210008"},{"town":"余部町","koaza":"塞又","lat":35.021336,"lng":135.559502,"zip":"6210806"},{"town":"馬路町","koaza":"月読","lat":35.049983,"lng":135.559084,"zip":"6210008"},{"town":"旭町","koaza":"丁畑","lat":35.073095,"lng":135.559105,"zip":"6210001"},{"town":"余部町","koaza":"久下佐伯","lat":35.017632,"lng":135.560004,"zip":"6210806"},{"town":"余部町","koaza":"五反田","lat":35.015489,"lng":135.563179,"zip":"6210806"},{"town":"旭町","koaza":"北嶋","lat":35.089228,"lng":135.561952,"zip":"6210001"},{"town":"馬路町","koaza":"這下","lat":35.056955,"lng":135.560288,"zip":"6210008"},{"town":"余部町","koaza":"宮田","lat":35.011727,"lng":135.560037,"zip":"6210806"},{"town":"馬路町","koaza":"久保前","lat":35.065555,"lng":135.561035,"zip":"6210008"},{"town":"馬路町","koaza":"梅原","lat":35.058904,"lng":135.560291,"zip":"6210008"},{"town":"旭町","koaza":"広保垣内","lat":35.072863,"lng":135.561297,"zip":"6210001"},{"town":"河原林町河原尻","koaza":"上正善坊","lat":35.043906,"lng":135.560236,"zip":"6210007"},{"town":"旭町","koaza":"西嶋","lat":35.087004,"lng":135.560714,"zip":"6210001"},{"town":"余部町","koaza":"真瀬場","lat":35.01044,"lng":135.561433,"zip":"6210806"},{"town":"河原林町河原尻","koaza":"水町","lat":35.045983,"lng":135.56047,"zip":"6210007"},{"town":"余部町","koaza":"中川原","lat":35.011813,"lng":135.562236,"zip":"6210806"},{"town":"馬路町","koaza":"大橋","lat":35.057908,"lng":135.561104,"zip":"6210008"},{"town":"下矢田町","koaza":"医王谷","lat":35.001991,"lng":135.565926,"zip":"6210854"},{"town":"馬路町","koaza":"流川","lat":35.054808,"lng":135.562509,"zip":"6210008"},{"town":"馬路町","koaza":"壁木","lat":35.058938,"lng":135.561454,"zip":"6210008"},{"town":"馬路町","koaza":"堂ノ前","lat":35.053135,"lng":135.561615,"zip":"6210008"},{"town":"馬路町","koaza":"大河原","lat":35.047915,"lng":135.561137,"zip":"6210008"},{"town":"馬路町","koaza":"長宮","lat":35.056194,"lng":135.561617,"zip":"6210008"},{"town":"余部町","koaza":"和久成","lat":35.016635,"lng":135.563544,"zip":"6210806"},{"town":"余部町","koaza":"大塚","lat":35.02109,"lng":135.56302,"zip":"6210806"},{"town":"余部町","koaza":"樋又","lat":35.014861,"lng":135.564682,"zip":"6210806"},{"town":"余部町","koaza":"谷川尻","lat":35.01079,"lng":135.563631,"zip":"6210806"},{"town":"馬路町","koaza":"市場","lat":35.057234,"lng":135.562792,"zip":"6210008"},{"town":"馬路町","koaza":"前ノ側","lat":35.064851,"lng":135.562748,"zip":"6210008"},{"town":"馬路町","koaza":"畑ケ田","lat":35.061256,"lng":135.562953,"zip":"6210008"},{"town":"馬路町","koaza":"六反田","lat":35.059877,"lng":135.563133,"zip":"6210008"},{"town":"旭町","koaza":"岩ケ谷","lat":35.086794,"lng":135.563049,"zip":"6210001"},{"town":"宇津根町","koaza":"土井ノ内","lat":35.022876,"lng":135.567953,"zip":"6210801"},{"town":"旭町","koaza":"里ノ西","lat":35.074905,"lng":135.562551,"zip":"6210001"},{"town":"旭町","koaza":"千俣","lat":35.078224,"lng":135.563275,"zip":"6210001"},{"town":"旭町","koaza":"善徳","lat":35.073551,"lng":135.563364,"zip":"6210001"},{"town":"旭町","koaza":"山ノ神","lat":35.082793,"lng":135.563955,"zip":"6210001"},{"town":"余部町","koaza":"上条","lat":35.018284,"lng":135.564602,"zip":"6210806"},{"town":"馬路町","koaza":"小文字","lat":35.05387,"lng":135.563483,"zip":"6210008"},{"town":"旭町","koaza":"里垣内","lat":35.075487,"lng":135.563692,"zip":"6210001"},{"town":"馬路町","koaza":"住吉","lat":35.054876,"lng":135.564691,"zip":"6210008"},{"town":"旭町","koaza":"才慶","lat":35.078705,"lng":135.564132,"zip":"6210001"},{"town":"旭町","koaza":"年角","lat":35.077556,"lng":135.56428,"zip":"6210001"},{"town":"余部町","koaza":"新堂","lat":35.021172,"lng":135.564911,"zip":"6210806"},{"town":"余部町","koaza":"法蔵寺","lat":35.019439,"lng":135.564331,"zip":"6210806"},{"town":"馬路町","koaza":"御蔵","lat":35.054143,"lng":135.564502,"zip":"6210008"},{"town":"余部町","koaza":"天神又","lat":35.016434,"lng":135.566687,"zip":"6210806"},{"town":"馬路町","koaza":"前ノ田","lat":35.052397,"lng":135.564446,"zip":"6210008"},{"town":"馬路町","koaza":"滝ケ元","lat":35.063326,"lng":135.565429,"zip":"6210008"},{"town":"馬路町","koaza":"平野沢下池","lat":35.064846,"lng":135.564403,"zip":"6210008"},{"town":"馬路町","koaza":"野堀","lat":35.059723,"lng":135.565357,"zip":"6210008"},{"town":"旭町","koaza":"小豆畑","lat":35.084876,"lng":135.565622,"zip":"6210001"},{"town":"馬路町","koaza":"溝ノ上","lat":35.058618,"lng":135.564986,"zip":"6210008"},{"town":"馬路町","koaza":"上脇田","lat":35.05789,"lng":135.566461,"zip":"6210008"},{"town":"馬路町","koaza":"万年","lat":35.055852,"lng":135.565301,"zip":"6210008"},{"town":"河原林町河原尻","koaza":"三ツ樋","lat":35.041927,"lng":135.565422,"zip":"6210007"},{"town":"河原林町河原尻","koaza":"野本","lat":35.047062,"lng":135.566906,"zip":"6210007"},{"town":"旭町","koaza":"三俣","lat":35.083491,"lng":135.565798,"zip":"6210001"},{"town":"余部町","koaza":"清水又","lat":35.019126,"lng":135.566823,"zip":"6210806"},{"town":"旭町","koaza":"八ケ坪","lat":35.082085,"lng":135.567935,"zip":"6210001"},{"town":"河原林町河原尻","koaza":"上福井","lat":35.044251,"lng":135.566603,"zip":"6210007"},{"town":"馬路町","koaza":"橋本","lat":35.054666,"lng":135.565962,"zip":"6210008"},{"town":"安町","koaza":"小屋場","lat":35.012969,"lng":135.568735,"zip":"6210805"},{"town":"馬路町","koaza":"蛭川","lat":35.054642,"lng":135.566612,"zip":"6210008"},{"town":"旭町","koaza":"森本","lat":35.078055,"lng":135.566358,"zip":"6210001"},{"town":"旭町","koaza":"蔵ノ本","lat":35.073616,"lng":135.566976,"zip":"6210001"},{"town":"余部町","koaza":"中条","lat":35.017991,"lng":135.567062,"zip":"6210806"},{"town":"河原林町河原尻","koaza":"上平田","lat":35.042011,"lng":135.566355,"zip":"6210007"},{"town":"余部町","koaza":"宝久保","lat":35.015082,"lng":135.568099,"zip":"6210806"},{"town":"千歳町千歳","koaza":"北谷山","lat":35.068364,"lng":135.569772,"zip":"6210002"},{"town":"河原林町勝林島","koaza":"内垣内","lat":35.033717,"lng":135.568082,"zip":"6210006"},{"town":"余部町","koaza":"北町川筋","lat":35.018795,"lng":135.569024,"zip":"6210806"},{"town":"河原林町河原尻","koaza":"上六反田","lat":35.043934,"lng":135.568575,"zip":"6210007"},{"town":"千歳町千歳","koaza":"溝川","lat":35.063618,"lng":135.571387,"zip":"6210002"},{"town":"旭町","koaza":"谷川","lat":35.07752,"lng":135.571521,"zip":"6210001"},{"town":"旭町","koaza":"栗坪","lat":35.077223,"lng":135.56772,"zip":"6210001"},{"town":"河原林町河原尻","koaza":"才ノ本","lat":35.046041,"lng":135.56988,"zip":"6210007"},{"town":"馬路町","koaza":"久保寺","lat":35.056409,"lng":135.568256,"zip":"6210008"},{"town":"河原林町勝林島","koaza":"北島","lat":35.035368,"lng":135.569054,"zip":"6210006"},{"town":"馬路町","koaza":"高田","lat":35.058761,"lng":135.569442,"zip":"6210008"},{"town":"馬路町","koaza":"筋違","lat":35.061554,"lng":135.568053,"zip":"6210008"},{"town":"河原林町河原尻","koaza":"北垣内","lat":35.044955,"lng":135.567478,"zip":"6210007"},{"town":"宇津根町","koaza":"替田","lat":35.024395,"lng":135.570229,"zip":"6210801"},{"town":"河原林町勝林島","koaza":"西垣内","lat":35.0324,"lng":135.570044,"zip":"6210006"},{"town":"旭町","koaza":"福田","lat":35.072666,"lng":135.568109,"zip":"6210001"},{"town":"余部町","koaza":"榿又","lat":35.017227,"lng":135.570029,"zip":"6210806"},{"town":"旭町","koaza":"父畑","lat":35.072276,"lng":135.570435,"zip":"6210001"},{"town":"河原林町勝林島","koaza":"金河原","lat":35.029727,"lng":135.569099,"zip":"6210006"},{"town":"河原林町河原尻","koaza":"中垣内","lat":35.044422,"lng":135.57002,"zip":"6210007"},{"town":"馬路町","koaza":"滝ケ鼻","lat":35.054791,"lng":135.568607,"zip":"6210008"},{"town":"余部町","koaza":"下条","lat":35.017949,"lng":135.569318,"zip":"6210806"},{"town":"河原林町河原尻","koaza":"清水","lat":35.042316,"lng":135.569226,"zip":"6210007"},{"town":"河原林町勝林島","koaza":"稲荷","lat":35.034363,"lng":135.569077,"zip":"6210006"},{"town":"馬路町","koaza":"砂取","lat":35.054842,"lng":135.569789,"zip":"6210008"},{"town":"余部町","koaza":"古城浦","lat":35.019191,"lng":135.569843,"zip":"6210806"},{"town":"馬路町","koaza":"吉備","lat":35.055795,"lng":135.572464,"zip":"6210008"},{"town":"河原林町河原尻","koaza":"高野垣内","lat":35.041334,"lng":135.570706,"zip":"6210007"},{"town":"河原林町河原尻","koaza":"菖蒲","lat":35.052187,"lng":135.57095,"zip":"6210007"},{"town":"千歳町千歳","koaza":"北野","lat":35.065224,"lng":135.571394,"zip":"6210002"},{"town":"河原林町勝林島","koaza":"畑ケ田","lat":35.027965,"lng":135.57087,"zip":"6210006"},{"town":"余部町","koaza":"前川原","lat":35.01672,"lng":135.571146,"zip":"6210806"},{"town":"余部町","koaza":"古城","lat":35.018596,"lng":135.570994,"zip":"6210806"},{"town":"馬路町","koaza":"上三日市","lat":35.05542,"lng":135.570989,"zip":"6210008"},{"town":"追分町","koaza":"下島","lat":35.019249,"lng":135.585284,"zip":"6210804"},{"town":"安町","koaza":"大池","lat":35.012023,"lng":135.572193,"zip":"6210805"},{"town":"安町","koaza":"野々神","lat":35.014157,"lng":135.571707,"zip":"6210805"},{"town":"河原林町勝林島","koaza":"小坂","lat":35.031242,"lng":135.572126,"zip":"6210006"},{"town":"宇津根町","koaza":"川ノ口","lat":35.024036,"lng":135.572883,"zip":"6210801"},{"town":"馬路町","koaza":"下三日市","lat":35.053148,"lng":135.57227,"zip":"6210008"},{"town":"宇津根町","koaza":"東浦","lat":35.023718,"lng":135.571305,"zip":"6210801"},{"town":"河原林町河原尻","koaza":"綾垣内","lat":35.042976,"lng":135.571559,"zip":"6210007"},{"town":"宇津根町","koaza":"河原田","lat":35.021966,"lng":135.571862,"zip":"6210801"},{"town":"河原林町河原尻","koaza":"東垣内","lat":35.044971,"lng":135.572908,"zip":"6210007"},{"town":"余部町","koaza":"政所","lat":35.019441,"lng":135.571696,"zip":"6210806"},{"town":"千歳町千歳","koaza":"平野垣内","lat":35.067899,"lng":135.574563,"zip":"6210002"},{"town":"千歳町千歳","koaza":"狐田","lat":35.053106,"lng":135.572986,"zip":"6210002"},{"town":"千歳町千歳","koaza":"垣内山","lat":35.062132,"lng":135.575187,"zip":"6210002"},{"town":"千歳町千歳","koaza":"泉垣内","lat":35.061574,"lng":135.573188,"zip":"6210002"},{"town":"千歳町千歳","koaza":"中谷山","lat":35.065953,"lng":135.572195,"zip":"6210002"},{"town":"河原林町河原尻","koaza":"曙","lat":35.040881,"lng":135.572844,"zip":"6210007"},{"town":"河原林町勝林島","koaza":"雲宮","lat":35.0325,"lng":135.573043,"zip":"6210006"},{"town":"河原林町勝林島","koaza":"上垣内","lat":35.03547,"lng":135.573035,"zip":"6210006"},{"town":"河原林町勝林島","koaza":"前川","lat":35.031288,"lng":135.572923,"zip":"6210006"},{"town":"千歳町千歳","koaza":"上ン所","lat":35.065396,"lng":135.573363,"zip":"6210002"},{"town":"安町","koaza":"中畠","lat":35.015949,"lng":135.573781,"zip":"6210805"},{"town":"河原林町河原尻","koaza":"四ノ宮","lat":35.052284,"lng":135.573987,"zip":"6210007"},{"town":"安町","koaza":"釜ケ前","lat":35.013567,"lng":135.573722,"zip":"6210805"},{"town":"河原林町河原尻","koaza":"下五丹","lat":35.044215,"lng":135.574439,"zip":"6210007"},{"town":"上矢田町","koaza":"岩田","lat":34.997233,"lng":135.576581,"zip":"6210856"},{"town":"河原林町河原尻","koaza":"穴虫","lat":35.042676,"lng":135.576291,"zip":"6210007"},{"town":"安町","koaza":"山畑","lat":35.01668,"lng":135.574743,"zip":"6210805"},{"town":"千歳町千歳","koaza":"北所","lat":35.060973,"lng":135.57648,"zip":"6210002"},{"town":"河原林町河原尻","koaza":"畑","lat":35.041132,"lng":135.575549,"zip":"6210007"},{"town":"河原林町河原尻","koaza":"下六反田","lat":35.03803,"lng":135.575094,"zip":"6210007"},{"town":"河原林町河原尻","koaza":"井尻","lat":35.04087,"lng":135.575857,"zip":"6210007"},{"town":"千歳町千歳","koaza":"南所","lat":35.059483,"lng":135.576184,"zip":"6210002"},{"town":"千歳町千歳","koaza":"大道","lat":35.048118,"lng":135.575854,"zip":"6210002"},{"town":"千歳町千歳","koaza":"小峠","lat":35.054276,"lng":135.579585,"zip":"6210002"},{"town":"追分町","koaza":"八ノ坪","lat":35.016882,"lng":135.578124,"zip":"6210804"},{"town":"河原林町勝林島","koaza":"大渕","lat":35.031574,"lng":135.576859,"zip":"6210006"},{"town":"千歳町国分","koaza":"越ケ坂","lat":35.041628,"lng":135.57739,"zip":"6210003"},{"town":"追分町","koaza":"薮ノ下","lat":35.015489,"lng":135.578557,"zip":"6210804"},{"town":"千歳町千歳","koaza":"垣内","lat":35.059088,"lng":135.577389,"zip":"6210002"},{"town":"千歳町千歳","koaza":"垣根","lat":35.05187,"lng":135.578176,"zip":"6210002"},{"town":"追分町","koaza":"谷筋","lat":35.01641,"lng":135.582017,"zip":"6210804"},{"town":"千歳町千歳","koaza":"観音俣","lat":35.052832,"lng":135.577925,"zip":"6210002"},{"town":"河原林町河原尻","koaza":"上五丹","lat":35.045218,"lng":135.578168,"zip":"6210007"},{"town":"千歳町千歳","koaza":"稲上","lat":35.058036,"lng":135.577698,"zip":"6210002"},{"town":"千歳町国分","koaza":"桜久保","lat":35.042732,"lng":135.577523,"zip":"6210003"},{"town":"下矢田町","koaza":"君塚","lat":35.002032,"lng":135.577632,"zip":"6210854"},{"town":"千歳町千歳","koaza":"姫ノ木","lat":35.057185,"lng":135.578387,"zip":"6210002"},{"town":"下矢田町","koaza":"大末","lat":35.003492,"lng":135.578362,"zip":"6210854"},{"town":"中矢田町","koaza":"スカ又","lat":35.002266,"lng":135.579515,"zip":"6210855"},{"town":"上矢田町","koaza":"上垣内","lat":34.997229,"lng":135.578823,"zip":"6210856"},{"town":"中矢田町","koaza":"馬場ノ溝","lat":35.001908,"lng":135.58157,"zip":"6210855"},{"town":"中矢田町","koaza":"才ノ溝","lat":35.001005,"lng":135.578722,"zip":"6210855"},{"town":"中矢田町","koaza":"行溝","lat":35.000439,"lng":135.579627,"zip":"6210855"},{"town":"千歳町国分","koaza":"山伏","lat":35.044007,"lng":135.581,"zip":"6210003"},{"town":"中矢田町","koaza":"五ノ坪","lat":35.003711,"lng":135.579641,"zip":"6210855"},{"town":"千歳町千歳","koaza":"後田","lat":35.060189,"lng":135.582289,"zip":"6210002"},{"town":"千歳町千歳","koaza":"上万条","lat":35.049318,"lng":135.579885,"zip":"6210002"},{"town":"追分町","koaza":"馬場通","lat":35.01542,"lng":135.580808,"zip":"6210804"},{"town":"千歳町千歳","koaza":"白髭","lat":35.057579,"lng":135.580299,"zip":"6210002"},{"town":"千歳町千歳","koaza":"焼杉","lat":35.048392,"lng":135.579666,"zip":"6210002"},{"town":"千歳町千歳","koaza":"大辻","lat":35.054926,"lng":135.579605,"zip":"6210002"},{"town":"上矢田町","koaza":"下垣内","lat":35.00068,"lng":135.580676,"zip":"6210856"},{"town":"千歳町千歳","koaza":"山ノ口","lat":35.053073,"lng":135.579774,"zip":"6210002"},{"town":"千歳町千歳","koaza":"堂ノ下","lat":35.054919,"lng":135.580376,"zip":"6210002"},{"town":"千歳町国分","koaza":"後田","lat":35.045018,"lng":135.581597,"zip":"6210003"},{"town":"中矢田町","koaza":"中道","lat":35.003882,"lng":135.58146,"zip":"6210855"},{"town":"千歳町千歳","koaza":"辻","lat":35.05163,"lng":135.580705,"zip":"6210002"},{"town":"追分町","koaza":"中川原","lat":35.017181,"lng":135.580438,"zip":"6210804"},{"town":"追分町","koaza":"一本木","lat":35.018102,"lng":135.582921,"zip":"6210804"},{"town":"千歳町千歳","koaza":"蔵ノ辻","lat":35.047691,"lng":135.582178,"zip":"6210002"},{"town":"千歳町千歳","koaza":"横井","lat":35.047842,"lng":135.582993,"zip":"6210002"},{"town":"千歳町千歳","koaza":"御所垣内","lat":35.055753,"lng":135.58258,"zip":"6210002"},{"town":"中矢田町","koaza":"岸ノ上","lat":35.004188,"lng":135.582345,"zip":"6210855"},{"town":"保津町","koaza":"神子田","lat":35.031524,"lng":135.583699,"zip":"6210005"},{"town":"千歳町千歳","koaza":"壱後山","lat":35.054798,"lng":135.587444,"zip":"6210002"},{"town":"追分町","koaza":"大堀","lat":35.015821,"lng":135.583027,"zip":"6210804"},{"town":"中矢田町","koaza":"久保垣内","lat":35.001947,"lng":135.582863,"zip":"6210855"},{"town":"千歳町国分","koaza":"広垣内","lat":35.037166,"lng":135.583415,"zip":"6210003"},{"town":"千歳町国分","koaza":"金附","lat":35.036207,"lng":135.582943,"zip":"6210003"},{"town":"千歳町毘沙門","koaza":"腰前","lat":35.034315,"lng":135.583918,"zip":"6210004"},{"town":"千歳町国分","koaza":"西垣内","lat":35.041178,"lng":135.583281,"zip":"6210003"},{"town":"保津町","koaza":"牡馬","lat":35.030665,"lng":135.583283,"zip":"6210005"},{"town":"千歳町国分","koaza":"柳ケ辻","lat":35.04227,"lng":135.583412,"zip":"6210003"},{"town":"荒塚町","koaza":"内丸","lat":35.012675,"lng":135.583266,"zip":"6210851"},{"town":"千歳町千歳","koaza":"南山","lat":35.048034,"lng":135.583363,"zip":"6210002"},{"town":"古世町","koaza":"西内坪","lat":35.015028,"lng":135.583936,"zip":"6210815"},{"town":"千歳町毘沙門","koaza":"西条","lat":35.036849,"lng":135.584954,"zip":"6210004"},{"town":"千歳町国分","koaza":"下ノ川","lat":35.041508,"lng":135.584306,"zip":"6210003"},{"town":"千歳町国分","koaza":"中島","lat":35.044646,"lng":135.584417,"zip":"6210003"},{"town":"保津町","koaza":"筵打","lat":35.030948,"lng":135.584829,"zip":"6210005"},{"town":"保津町","koaza":"弐番","lat":35.024693,"lng":135.586834,"zip":"6210005"},{"town":"千歳町国分","koaza":"坪井","lat":35.039198,"lng":135.58471,"zip":"6210003"},{"town":"古世町","koaza":"西向林","lat":35.004804,"lng":135.58492,"zip":"6210815"},{"town":"古世町","koaza":"中内坪","lat":35.014035,"lng":135.585117,"zip":"6210815"},{"town":"千歳町毘沙門","koaza":"奥条","lat":35.037821,"lng":135.585718,"zip":"6210004"},{"town":"千歳町毘沙門","koaza":"向畑","lat":35.03571,"lng":135.58602,"zip":"6210004"},{"town":"保津町","koaza":"下大年","lat":35.02561,"lng":135.58589,"zip":"6210005"},{"town":"千歳町国分","koaza":"北山ノ口","lat":35.044548,"lng":135.587044,"zip":"6210003"},{"town":"千歳町国分","koaza":"南山ノ口","lat":35.041333,"lng":135.585727,"zip":"6210003"},{"town":"千歳町毘沙門","koaza":"平松","lat":35.034953,"lng":135.5868,"zip":"6210004"},{"town":"千歳町国分","koaza":"小谷","lat":35.039668,"lng":135.587644,"zip":"6210003"},{"town":"千歳町国分","koaza":"中山ノ口","lat":35.040216,"lng":135.586192,"zip":"6210003"},{"town":"保津町","koaza":"下中島","lat":35.017467,"lng":135.586604,"zip":"6210005"},{"town":"保津町","koaza":"六条口","lat":35.02271,"lng":135.587765,"zip":"6210005"},{"town":"保津町","koaza":"宮ノ前","lat":35.020725,"lng":135.58945,"zip":"6210005"},{"town":"保津町","koaza":"上火無","lat":35.032742,"lng":135.589413,"zip":"6210005"},{"town":"保津町","koaza":"上大年","lat":35.026192,"lng":135.588291,"zip":"6210005"},{"town":"保津町","koaza":"観音寺","lat":35.027807,"lng":135.589921,"zip":"6210005"},{"town":"保津町","koaza":"西垣内","lat":35.022203,"lng":135.588846,"zip":"6210005"},{"town":"篠町浄法寺","koaza":"松岡","lat":35.003893,"lng":135.589146,"zip":"6210835"},{"town":"保津町","koaza":"構ノ内","lat":35.023113,"lng":135.590448,"zip":"6210005"},{"town":"篠町浄法寺","koaza":"中村","lat":35.00321,"lng":135.590825,"zip":"6210835"},{"town":"保津町","koaza":"三ノ坪","lat":35.020077,"lng":135.593366,"zip":"6210005"},{"town":"保津町","koaza":"溝行","lat":35.02455,"lng":135.591052,"zip":"6210005"},{"town":"保津町","koaza":"宮ノ上","lat":35.021585,"lng":135.591254,"zip":"6210005"},{"town":"保津町","koaza":"上ラ条","lat":35.025549,"lng":135.590785,"zip":"6210005"},{"town":"三宅町","koaza":"野々神","lat":35.01023,"lng":135.591035,"zip":"6210814"},{"town":"篠町浄法寺","koaza":"茱萸谷","lat":35.000185,"lng":135.591684,"zip":"6210835"},{"town":"篠町浄法寺","koaza":"土取","lat":35.002501,"lng":135.592108,"zip":"6210835"},{"town":"三宅町","koaza":"谷田","lat":35.012593,"lng":135.593005,"zip":"6210814"},{"town":"保津町","koaza":"笠ノ森","lat":35.023157,"lng":135.59267,"zip":"6210005"},{"town":"三宅町","koaza":"八田","lat":35.014825,"lng":135.593277,"zip":"6210814"},{"town":"保津町","koaza":"荒金","lat":35.025632,"lng":135.592017,"zip":"6210005"},{"town":"篠町浄法寺","koaza":"墓ノ谷","lat":34.998899,"lng":135.59211,"zip":"6210835"},{"town":"保津町","koaza":"西馬場","lat":35.021794,"lng":135.592358,"zip":"6210005"},{"town":"篠町柏原","koaza":"石垣","lat":35.008055,"lng":135.593269,"zip":"6210821"},{"town":"篠町柏原","koaza":"町頭","lat":35.009645,"lng":135.595107,"zip":"6210821"},{"town":"保津町","koaza":"子守","lat":35.027245,"lng":135.593492,"zip":"6210005"},{"town":"保津町","koaza":"五番","lat":35.02455,"lng":135.594643,"zip":"6210005"},{"town":"篠町柏原","koaza":"田中","lat":35.007926,"lng":135.594295,"zip":"6210821"},{"town":"篠町柏原","koaza":"上小井根","lat":35.012564,"lng":135.593905,"zip":"6210821"},{"town":"篠町浄法寺","koaza":"土井","lat":35.004179,"lng":135.593615,"zip":"6210835"},{"town":"保津町","koaza":"訳目","lat":35.022866,"lng":135.594706,"zip":"6210005"},{"town":"篠町柏原","koaza":"下小井根","lat":35.014684,"lng":135.594208,"zip":"6210821"},{"town":"篠町柏原","koaza":"福井","lat":35.010457,"lng":135.594214,"zip":"6210821"},{"town":"保津町","koaza":"四ノ坪","lat":35.02052,"lng":135.595137,"zip":"6210005"},{"town":"篠町柏原","koaza":"中又","lat":35.00822,"lng":135.595815,"zip":"6210821"},{"town":"保津町","koaza":"今石","lat":35.021857,"lng":135.597089,"zip":"6210005"},{"town":"篠町森","koaza":"上垣内","lat":34.995052,"lng":135.599028,"zip":"6210831"},{"town":"保津町","koaza":"谷口","lat":35.025319,"lng":135.59726,"zip":"6210005"},{"town":"篠町柏原","koaza":"松ノ浦","lat":35.010162,"lng":135.59668,"zip":"6210821"},{"town":"篠町柏原","koaza":"川原垣内","lat":35.008651,"lng":135.597645,"zip":"6210821"},{"town":"篠町柏原","koaza":"宇津ノ辺","lat":35.007609,"lng":135.598441,"zip":"6210821"},{"town":"篠町野条","koaza":"下川","lat":35.003939,"lng":135.597703,"zip":"6210822"},{"town":"篠町森","koaza":"山先","lat":35.00085,"lng":135.598961,"zip":"6210831"},{"town":"篠町野条","koaza":"イカノ辻北","lat":35.005678,"lng":135.598999,"zip":"6210822"},{"town":"篠町野条","koaza":"イカノ辻南","lat":35.003773,"lng":135.599852,"zip":"6210822"},{"town":"篠町柏原","koaza":"久保垣内","lat":35.00984,"lng":135.59847,"zip":"6210821"},{"town":"篠町森","koaza":"上宮ノ谷","lat":34.995334,"lng":135.598221,"zip":"6210831"},{"town":"篠町森","koaza":"下宮ノ谷","lat":34.998608,"lng":135.598748,"zip":"6210831"},{"town":"篠町森","koaza":"下垣内","lat":34.99782,"lng":135.599814,"zip":"6210831"},{"town":"篠町野条","koaza":"馬場","lat":35.001906,"lng":135.599776,"zip":"6210822"},{"town":"篠町馬堀","koaza":"向端","lat":35.00737,"lng":135.599872,"zip":"6210823"},{"town":"篠町森","koaza":"東垣内","lat":34.995843,"lng":135.600786,"zip":"6210831"},{"town":"篠町森","koaza":"下タン条","lat":34.99898,"lng":135.601183,"zip":"6210831"},{"town":"篠町森","koaza":"寒谷","lat":34.981013,"lng":135.60077,"zip":"6210831"},{"town":"篠町野条","koaza":"馬場前","lat":35.001309,"lng":135.600181,"zip":"6210822"},{"town":"篠町森","koaza":"向坂","lat":34.995865,"lng":135.602062,"zip":"6210831"},{"town":"篠町馬堀","koaza":"南垣内","lat":35.008548,"lng":135.60023,"zip":"6210823"},{"town":"篠町馬堀","koaza":"北垣内","lat":35.009431,"lng":135.601427,"zip":"6210823"},{"town":"篠町馬堀","koaza":"池ノ下","lat":35.007407,"lng":135.600704,"zip":"6210823"},{"town":"篠町馬堀","koaza":"伊賀ノ辻","lat":35.005632,"lng":135.601638,"zip":"6210823"},{"town":"篠町篠","koaza":"下西裏","lat":35.00425,"lng":135.601475,"zip":"6210826"},{"town":"篠町野条","koaza":"井ホラ","lat":35.003374,"lng":135.601488,"zip":"6210822"},{"town":"篠町篠","koaza":"洗川","lat":34.999509,"lng":135.602978,"zip":"6210826"},{"town":"篠町馬堀","koaza":"東垣内","lat":35.007916,"lng":135.602401,"zip":"6210823"},{"town":"篠町野条","koaza":"上又","lat":35.001599,"lng":135.60389,"zip":"6210822"},{"town":"篠町野条","koaza":"池ノ下","lat":35.001078,"lng":135.602796,"zip":"6210822"},{"town":"篠町山本","koaza":"沓部","lat":35.011852,"lng":135.603553,"zip":"6210825"},{"town":"篠町篠","koaza":"向谷","lat":34.996177,"lng":135.603993,"zip":"6210826"},{"town":"篠町馬堀","koaza":"広道","lat":35.006042,"lng":135.602911,"zip":"6210823"},{"town":"篠町森","koaza":"前山","lat":34.995863,"lng":135.602409,"zip":"6210831"},{"town":"篠町篠","koaza":"野田","lat":35.007311,"lng":135.604968,"zip":"6210826"},{"town":"篠町山本","koaza":"神田","lat":35.012145,"lng":135.607001,"zip":"6210825"},{"town":"篠町篠","koaza":"見晴","lat":35.009397,"lng":135.604083,"zip":"6210826"},{"town":"篠町篠","koaza":"小柳","lat":34.990754,"lng":135.605334,"zip":"6210826"},{"town":"篠町篠","koaza":"下北裏","lat":35.006211,"lng":135.604637,"zip":"6210826"},{"town":"篠町篠","koaza":"合戦野","lat":34.99948,"lng":135.607015,"zip":"6210826"},{"town":"篠町篠","koaza":"下長尾","lat":34.994539,"lng":135.605552,"zip":"6210826"},{"town":"篠町篠","koaza":"中西裏","lat":35.003549,"lng":135.604825,"zip":"6210826"},{"town":"篠町篠","koaza":"杢殿林","lat":35.001028,"lng":135.606492,"zip":"6210826"},{"town":"篠町篠","koaza":"中北裏","lat":35.005189,"lng":135.606581,"zip":"6210826"},{"town":"篠町篠","koaza":"上長尾","lat":34.991068,"lng":135.60697,"zip":"6210826"},{"town":"篠町篠","koaza":"上西裏","lat":35.001795,"lng":135.608104,"zip":"6210826"},{"town":"篠町篠","koaza":"上中沢","lat":35.006549,"lng":135.60719,"zip":"6210826"},{"town":"篠町篠","koaza":"赤畑","lat":35.000209,"lng":135.608266,"zip":"6210826"},{"town":"篠町篠","koaza":"上北裏","lat":35.004802,"lng":135.609228,"zip":"6210826"},{"town":"篠町山本","koaza":"北条","lat":35.012505,"lng":135.61004,"zip":"6210825"},{"town":"篠町篠","koaza":"観音芝","lat":35.005962,"lng":135.610305,"zip":"6210826"},{"town":"篠町篠","koaza":"新畑田","lat":35.001361,"lng":135.609143,"zip":"6210826"},{"town":"篠町山本","koaza":"中条","lat":35.011653,"lng":135.610435,"zip":"6210825"},{"town":"篠町篠","koaza":"八幡裏","lat":35.00356,"lng":135.610645,"zip":"6210826"},{"town":"篠町夕日ケ丘二丁目","koaza":"","lat":34.998093,"lng":135.61034,"zip":"6210829"},{"town":"篠町山本","koaza":"南条","lat":35.011303,"lng":135.612866,"zip":"6210825"},{"town":"篠町王子","koaza":"西ノ山","lat":34.997696,"lng":135.614009,"zip":"6210827"},{"town":"篠町王子","koaza":"下上牧","lat":34.999711,"lng":135.611762,"zip":"6210827"},{"town":"篠町篠","koaza":"下中筋","lat":35.004766,"lng":135.611216,"zip":"6210826"},{"town":"篠町山本","koaza":"上太田","lat":35.010358,"lng":135.610744,"zip":"6210825"},{"town":"篠町篠","koaza":"上中筋","lat":35.000454,"lng":135.613611,"zip":"6210826"},{"town":"篠町王子","koaza":"上上牧","lat":34.999076,"lng":135.614341,"zip":"6210827"},{"town":"篠町王子","koaza":"北垣内","lat":34.998568,"lng":135.616377,"zip":"6210827"},{"town":"篠町王子","koaza":"門田","lat":34.995861,"lng":135.616304,"zip":"6210827"},{"town":"篠町王子","koaza":"堂山","lat":34.993922,"lng":135.61942,"zip":"6210827"},{"town":"篠町王子","koaza":"宮ノ本","lat":34.996948,"lng":135.617965,"zip":"6210827"},{"town":"篠町王子","koaza":"稲葉","lat":34.995568,"lng":135.618867,"zip":"6210827"},{"town":"篠町王子","koaza":"風呂ノ谷","lat":34.993359,"lng":135.620734,"zip":"6210827"},{"town":"篠町王子","koaza":"市原","lat":34.992546,"lng":135.621928,"zip":"6210827"},{"town":"篠町王子","koaza":"瓜ノ尾","lat":34.99347,"lng":135.623722,"zip":"6210827"},{"town":"篠町王子","koaza":"唐櫃越","lat":34.992688,"lng":135.635203,"zip":"6210827"},{"town":"西別院町笑路","koaza":"刈又","lat":34.975506,"lng":135.522622,"zip":"6210125"},{"town":"西別院町笑路","koaza":"落合","lat":34.981335,"lng":135.522975,"zip":"6210125"},{"town":"曽我部町犬飼","koaza":"山田","lat":34.995453,"lng":135.52787,"zip":"6210027"},{"town":"稗田野町太田","koaza":"狐塚","lat":35.025715,"lng":135.536774,"zip":"6210000"},{"town":"稗田野町奥条","koaza":"西垣内","lat":35.026999,"lng":135.518092,"zip":"6210000"}]