[{"town":"網野町浅茂川","koaza":"","lat":35.685388,"lng":135.015976,"zip":"6293104"},{"town":"網野町網野","koaza":"","lat":35.676548,"lng":135.032879,"zip":"6293101"},{"town":"網野町生野内","koaza":"","lat":35.642039,"lng":135.039762,"zip":"6293134"},{"town":"網野町磯","koaza":"","lat":35.684305,"lng":134.998374,"zip":"6293103"},{"town":"網野町尾坂","koaza":"","lat":35.696106,"lng":135.078096,"zip":"6270000"},{"town":"網野町掛津","koaza":"","lat":35.702542,"lng":135.056825,"zip":"6293112"},{"town":"網野町木津","koaza":"","lat":35.656844,"lng":134.981593,"zip":"6293241"},{"town":"網野町切畑","koaza":"","lat":35.610523,"lng":135.006969,"zip":"6293135"},{"town":"網野町公庄","koaza":"","lat":35.654368,"lng":135.037801,"zip":"6293132"},{"town":"網野町郷","koaza":"","lat":35.640677,"lng":135.020452,"zip":"6293133"},{"town":"網野町小浜","koaza":"","lat":35.693369,"lng":135.038289,"zip":"6293113"},{"town":"網野町塩江","koaza":"","lat":35.677681,"lng":134.982201,"zip":"6293246"},{"town":"網野町島津","koaza":"","lat":35.678774,"lng":135.05141,"zip":"6293121"},{"town":"網野町下岡","koaza":"","lat":35.672101,"lng":135.014322,"zip":"6293102"},{"town":"網野町新庄","koaza":"","lat":35.652582,"lng":135.013046,"zip":"6293136"},{"town":"網野町高橋","koaza":"","lat":35.662555,"lng":135.034292,"zip":"6293131"},{"town":"網野町俵野","koaza":"","lat":35.645427,"lng":134.961549,"zip":"6293244"},{"town":"網野町仲禅寺","koaza":"","lat":35.661562,"lng":135.054914,"zip":"6293122"},{"town":"網野町浜詰","koaza":"","lat":35.663988,"lng":134.971467,"zip":"6293245"},{"town":"網野町日和田","koaza":"","lat":35.628944,"lng":134.991618,"zip":"6293242"},{"town":"網野町溝野","koaza":"","lat":35.634222,"lng":134.968152,"zip":"6293243"},{"town":"網野町三津","koaza":"","lat":35.707014,"lng":135.072689,"zip":"6293111"},{"town":"大宮町明田","koaza":"","lat":35.597379,"lng":135.12753,"zip":"6292514"},{"town":"大宮町五十河","koaza":"","lat":35.615903,"lng":135.157522,"zip":"6292512"},{"town":"大宮町奥大野","koaza":"","lat":35.564156,"lng":135.079893,"zip":"6292531"},{"town":"大宮町上常吉","koaza":"","lat":35.542583,"lng":135.060636,"zip":"6292533"},{"town":"大宮町久住","koaza":"","lat":35.617013,"lng":135.135299,"zip":"6292511"},{"town":"大宮町口大野","koaza":"","lat":35.583472,"lng":135.085051,"zip":"6292501"},{"town":"大宮町河辺","koaza":"","lat":35.611049,"lng":135.11501,"zip":"6292502"},{"town":"大宮町下常吉","koaza":"","lat":35.557546,"lng":135.071206,"zip":"6292534"},{"town":"大宮町新宮","koaza":"","lat":35.608846,"lng":135.168449,"zip":"6292515"},{"town":"大宮町周枳","koaza":"","lat":35.588707,"lng":135.106035,"zip":"6292503"},{"town":"大宮町善王寺","koaza":"","lat":35.589577,"lng":135.071565,"zip":"6292504"},{"town":"大宮町谷内","koaza":"","lat":35.562072,"lng":135.100093,"zip":"6292532"},{"town":"大宮町延利","koaza":"","lat":35.593816,"lng":135.151455,"zip":"6292513"},{"town":"大宮町三重","koaza":"","lat":35.562964,"lng":135.120579,"zip":"6292522"},{"town":"大宮町三坂","koaza":"","lat":35.577971,"lng":135.105396,"zip":"6292523"},{"town":"大宮町森本","koaza":"","lat":35.582543,"lng":135.130373,"zip":"6292521"},{"town":"久美浜町","koaza":"","lat":35.607463,"lng":134.891294,"zip":"6293410"},{"town":"久美浜町芦原","koaza":"","lat":35.580103,"lng":134.93974,"zip":"6293571"},{"town":"久美浜町海士","koaza":"","lat":35.602744,"lng":134.930157,"zip":"6293443"},{"town":"久美浜町安養寺","koaza":"","lat":35.572384,"lng":134.958391,"zip":"6293566"},{"town":"久美浜町出角","koaza":"","lat":35.561984,"lng":134.949044,"zip":"6293573"},{"town":"久美浜町市野々","koaza":"","lat":35.532205,"lng":134.956951,"zip":"6293576"},{"town":"久美浜町市場","koaza":"","lat":35.567959,"lng":134.934928,"zip":"6293574"},{"town":"久美浜町壱分","koaza":"","lat":35.607067,"lng":134.95347,"zip":"6293435"},{"town":"久美浜町浦明","koaza":"","lat":35.62706,"lng":134.929038,"zip":"6293438"},{"town":"久美浜町円頓寺","koaza":"","lat":35.588496,"lng":134.990103,"zip":"6293555"},{"town":"久美浜町大井","koaza":"","lat":35.613039,"lng":134.951814,"zip":"6293436"},{"town":"久美浜町大向","koaza":"","lat":35.642775,"lng":134.895393,"zip":"6293423"},{"town":"久美浜町奥馬地","koaza":"","lat":35.579171,"lng":134.878761,"zip":"6293414"},{"town":"久美浜町葛野","koaza":"","lat":35.638739,"lng":134.929617,"zip":"6293421"},{"town":"久美浜町金谷","koaza":"","lat":35.558296,"lng":134.936883,"zip":"6293575"},{"town":"久美浜町鹿野","koaza":"","lat":35.637324,"lng":134.934613,"zip":"6293431"},{"town":"久美浜町蒲井","koaza":"","lat":35.648286,"lng":134.875249,"zip":"6293424"},{"town":"久美浜町神崎","koaza":"","lat":35.624622,"lng":134.917198,"zip":"6293441"},{"town":"久美浜町神谷","koaza":"","lat":35.601874,"lng":134.874731,"zip":"6293416"},{"town":"久美浜町口馬地","koaza":"","lat":35.593149,"lng":134.887922,"zip":"6293413"},{"town":"久美浜町郷","koaza":"","lat":35.589218,"lng":134.967147,"zip":"6293556"},{"town":"久美浜町河梨","koaza":"","lat":35.588844,"lng":134.865345,"zip":"6293415"},{"town":"久美浜町甲山","koaza":"","lat":35.613386,"lng":134.917607,"zip":"6293442"},{"town":"久美浜町小桑","koaza":"","lat":35.562261,"lng":134.969308,"zip":"6293565"},{"town":"久美浜町坂井","koaza":"","lat":35.590991,"lng":134.917718,"zip":"6293448"},{"town":"久美浜町坂谷","koaza":"","lat":35.599978,"lng":134.990667,"zip":"6293554"},{"town":"久美浜町佐野","koaza":"","lat":35.572312,"lng":134.989074,"zip":"6293562"},{"town":"久美浜町三分","koaza":"","lat":35.636088,"lng":134.949343,"zip":"6293433"},{"town":"久美浜町島","koaza":"","lat":35.583984,"lng":134.932305,"zip":"6293445"},{"town":"久美浜町尉ケ畑","koaza":"","lat":35.540198,"lng":134.975193,"zip":"6293564"},{"town":"久美浜町新庄","koaza":"","lat":35.567263,"lng":134.919033,"zip":"6293570"},{"town":"久美浜町須田","koaza":"","lat":35.55805,"lng":134.918477,"zip":"6293579"},{"town":"久美浜町関","koaza":"","lat":35.621238,"lng":134.946268,"zip":"6293437"},{"town":"久美浜町竹藤","koaza":"","lat":35.595501,"lng":134.966753,"zip":"6293557"},{"town":"久美浜町谷","koaza":"","lat":35.581644,"lng":134.948577,"zip":"6293559"},{"town":"久美浜町栃谷","koaza":"","lat":35.58208,"lng":134.907473,"zip":"6293411"},{"town":"久美浜町友重","koaza":"","lat":35.58637,"lng":134.922172,"zip":"6293447"},{"town":"久美浜町永留","koaza":"","lat":35.596214,"lng":134.943476,"zip":"6293551"},{"town":"久美浜町長野","koaza":"","lat":35.603431,"lng":134.980958,"zip":"6293553"},{"town":"久美浜町新谷","koaza":"","lat":35.574348,"lng":134.942516,"zip":"6293572"},{"town":"久美浜町女布","koaza":"","lat":35.601653,"lng":134.962363,"zip":"6293552"},{"town":"久美浜町野中","koaza":"","lat":35.584047,"lng":134.960371,"zip":"6293561"},{"town":"久美浜町橋爪","koaza":"","lat":35.592997,"lng":134.933936,"zip":"6293444"},{"town":"久美浜町畑","koaza":"","lat":35.547999,"lng":134.926056,"zip":"6293578"},{"town":"久美浜町平田","koaza":"","lat":35.633573,"lng":134.939964,"zip":"6293432"},{"town":"久美浜町二俣","koaza":"","lat":35.550436,"lng":134.991979,"zip":"6293563"},{"town":"久美浜町布袋野","koaza":"","lat":35.532214,"lng":134.932213,"zip":"6293577"},{"town":"久美浜町品田","koaza":"","lat":35.574131,"lng":134.915596,"zip":"6293446"},{"town":"久美浜町丸山","koaza":"","lat":35.591738,"lng":134.955236,"zip":"6293558"},{"town":"久美浜町三谷","koaza":"","lat":35.575627,"lng":134.893123,"zip":"6293412"},{"town":"久美浜町湊宮","koaza":"","lat":35.637044,"lng":134.882953,"zip":"6293422"},{"town":"久美浜町三原","koaza":"","lat":35.617197,"lng":134.982193,"zip":"6293434"},{"town":"久美浜町油池","koaza":"","lat":35.602195,"lng":134.915913,"zip":"6293449"},{"town":"丹後町相川谷","koaza":"","lat":35.701946,"lng":135.132999,"zip":"6270000"},{"town":"丹後町碇","koaza":"","lat":35.724677,"lng":135.192569,"zip":"6270248"},{"town":"丹後町井谷","koaza":"","lat":35.738802,"lng":135.165989,"zip":"6270237"},{"town":"丹後町一段","koaza":"","lat":35.725863,"lng":135.13662,"zip":"6270000"},{"town":"丹後町岩木","koaza":"","lat":35.72157,"lng":135.110134,"zip":"6270224"},{"town":"丹後町上野","koaza":"","lat":35.752758,"lng":135.167316,"zip":"6270241"},{"town":"丹後町上山","koaza":"","lat":35.740569,"lng":135.197699,"zip":"6270247"},{"town":"丹後町大石","koaza":"","lat":35.708245,"lng":135.148419,"zip":"6270000"},{"town":"丹後町大山","koaza":"","lat":35.723149,"lng":135.097922,"zip":"6270211"},{"town":"丹後町尾和","koaza":"","lat":35.75697,"lng":135.193585,"zip":"6270244"},{"town":"丹後町遠下","koaza":"","lat":35.733353,"lng":135.147701,"zip":"6270239"},{"town":"丹後町久僧","koaza":"","lat":35.755464,"lng":135.174558,"zip":"6270242"},{"town":"丹後町鞍内","koaza":"","lat":35.725996,"lng":135.162558,"zip":"6270238"},{"town":"丹後町神主","koaza":"","lat":35.713824,"lng":135.154195,"zip":"6270000"},{"town":"丹後町此代","koaza":"","lat":35.744671,"lng":135.138568,"zip":"6270232"},{"town":"丹後町是安","koaza":"","lat":35.702501,"lng":135.118314,"zip":"6270214"},{"town":"丹後町小脇","koaza":"","lat":35.712956,"lng":135.165828,"zip":"6270000"},{"town":"丹後町成願寺","koaza":"","lat":35.705884,"lng":135.109153,"zip":"6270215"},{"town":"丹後町袖志","koaza":"","lat":35.762942,"lng":135.212091,"zip":"6270245"},{"town":"丹後町間人","koaza":"","lat":35.729017,"lng":135.09399,"zip":"6270201"},{"town":"丹後町竹野","koaza":"","lat":35.74215,"lng":135.111,"zip":"6270221"},{"town":"丹後町竹久僧","koaza":"","lat":35.712929,"lng":135.17539,"zip":"6270000"},{"town":"丹後町谷内","koaza":"","lat":35.745796,"lng":135.181017,"zip":"6270246"},{"town":"丹後町力石","koaza":"","lat":35.713412,"lng":135.140935,"zip":"6270000"},{"town":"丹後町徳光","koaza":"","lat":35.707604,"lng":135.091499,"zip":"6270216"},{"town":"丹後町中野","koaza":"","lat":35.742918,"lng":135.15868,"zip":"6270234"},{"town":"丹後町中浜","koaza":"","lat":35.759204,"lng":135.183344,"zip":"6270243"},{"town":"丹後町畑","koaza":"","lat":35.729959,"lng":135.175616,"zip":"6270236"},{"town":"丹後町筆石","koaza":"","lat":35.741893,"lng":135.120898,"zip":"6270222"},{"town":"丹後町平","koaza":"","lat":35.747961,"lng":135.160499,"zip":"6270233"},{"town":"丹後町宮","koaza":"","lat":35.731812,"lng":135.108358,"zip":"6270228"},{"town":"丹後町三宅","koaza":"","lat":35.718355,"lng":135.104919,"zip":"6270212"},{"town":"丹後町三山","koaza":"","lat":35.720159,"lng":135.17637,"zip":"6270249"},{"town":"丹後町矢畑","koaza":"","lat":35.72585,"lng":135.123086,"zip":"6270223"},{"town":"丹後町吉永","koaza":"","lat":35.714615,"lng":135.124871,"zip":"6270213"},{"town":"峰山町赤坂","koaza":"","lat":35.639681,"lng":135.057879,"zip":"6270006"},{"town":"峰山町荒山","koaza":"","lat":35.617669,"lng":135.085568,"zip":"6270004"},{"town":"峰山町石丸","koaza":"","lat":35.648842,"lng":135.051359,"zip":"6270007"},{"town":"峰山町泉","koaza":"","lat":35.620453,"lng":135.06054,"zip":"6270034"},{"town":"峰山町御旅","koaza":"","lat":35.623059,"lng":135.058066,"zip":"6270036"},{"town":"峰山町織元","koaza":"","lat":35.627187,"lng":135.055123,"zip":"6270023"},{"town":"峰山町上","koaza":"","lat":35.627806,"lng":135.056907,"zip":"6270022"},{"town":"峰山町光明寺","koaza":"","lat":35.617426,"lng":135.061821,"zip":"6270035"},{"town":"峰山町五箇","koaza":"","lat":35.569033,"lng":135.046153,"zip":"6270052"},{"town":"峰山町小西","koaza":"","lat":35.616489,"lng":135.041636,"zip":"6270044"},{"town":"峰山町呉服","koaza":"","lat":35.624692,"lng":135.058478,"zip":"6270031"},{"town":"峰山町堺","koaza":"","lat":35.623999,"lng":135.055743,"zip":"6270025"},{"town":"峰山町四軒","koaza":"","lat":35.631748,"lng":135.056468,"zip":"6270014"},{"town":"峰山町白銀","koaza":"","lat":35.62333,"lng":135.059091,"zip":"6270033"},{"town":"峰山町新町","koaza":"","lat":35.612869,"lng":135.097638,"zip":"6270005"},{"town":"峰山町杉谷","koaza":"","lat":35.625061,"lng":135.063606,"zip":"6270012"},{"town":"峰山町菅","koaza":"","lat":35.612992,"lng":135.064206,"zip":"6270041"},{"town":"峰山町丹波","koaza":"","lat":35.631887,"lng":135.074789,"zip":"6270011"},{"town":"峰山町千歳","koaza":"","lat":35.622235,"lng":135.05712,"zip":"6270037"},{"town":"峰山町内記","koaza":"","lat":35.629914,"lng":135.087641,"zip":"6270003"},{"town":"峰山町長岡","koaza":"","lat":35.59835,"lng":135.062216,"zip":"6270042"},{"town":"峰山町浪花","koaza":"","lat":35.623791,"lng":135.057487,"zip":"6270032"},{"town":"峰山町二箇","koaza":"","lat":35.597634,"lng":135.040932,"zip":"6270051"},{"town":"峰山町西山","koaza":"","lat":35.621628,"lng":135.026915,"zip":"6270045"},{"town":"峰山町新治","koaza":"","lat":35.607505,"lng":135.041532,"zip":"6270043"},{"town":"峰山町橋木","koaza":"","lat":35.654571,"lng":135.067972,"zip":"6270001"},{"town":"峰山町久次","koaza":"","lat":35.592123,"lng":135.022071,"zip":"6270054"},{"town":"峰山町富貴屋","koaza":"","lat":35.624463,"lng":135.057129,"zip":"6270038"},{"town":"峰山町不断","koaza":"","lat":35.629547,"lng":135.057319,"zip":"6270013"},{"town":"峰山町古殿","koaza":"","lat":35.624913,"lng":135.054923,"zip":"6270026"},{"town":"峰山町鱒留","koaza":"","lat":35.563239,"lng":135.01349,"zip":"6270053"},{"town":"峰山町室","koaza":"","lat":35.626178,"lng":135.057581,"zip":"6270024"},{"town":"峰山町安","koaza":"","lat":35.623712,"lng":135.047799,"zip":"6270027"},{"town":"峰山町矢田","koaza":"","lat":35.639991,"lng":135.076257,"zip":"6270002"},{"town":"峰山町吉原","koaza":"","lat":35.629295,"lng":135.052866,"zip":"6270021"},{"town":"弥栄町井辺","koaza":"","lat":35.683073,"lng":135.089312,"zip":"6270144"},{"town":"弥栄町芋野","koaza":"","lat":35.640744,"lng":135.106003,"zip":"6270122"},{"town":"弥栄町木橋","koaza":"","lat":35.66619,"lng":135.071957,"zip":"6270132"},{"town":"弥栄町国久","koaza":"","lat":35.690663,"lng":135.088439,"zip":"6270145"},{"town":"弥栄町黒部","koaza":"","lat":35.682341,"lng":135.10722,"zip":"6270142"},{"town":"弥栄町小田","koaza":"","lat":35.694513,"lng":135.106969,"zip":"6270141"},{"town":"弥栄町須川","koaza":"","lat":35.674586,"lng":135.170806,"zip":"6270102"},{"town":"弥栄町堤","koaza":"","lat":35.652786,"lng":135.099988,"zip":"6270121"},{"town":"弥栄町等楽寺","koaza":"","lat":35.637828,"lng":135.131756,"zip":"6270112"},{"town":"弥栄町鳥取","koaza":"","lat":35.683451,"lng":135.077408,"zip":"6270133"},{"town":"弥栄町野中","koaza":"","lat":35.699011,"lng":135.157046,"zip":"6270101"},{"town":"弥栄町船木","koaza":"","lat":35.67175,"lng":135.12185,"zip":"6270143"},{"town":"弥栄町溝谷","koaza":"","lat":35.656847,"lng":135.120283,"zip":"6270111"},{"town":"弥栄町吉沢","koaza":"","lat":35.635896,"lng":135.096632,"zip":"6270123"},{"town":"弥栄町和田野","koaza":"","lat":35.654887,"lng":135.084409,"zip":"6270131"},{"town":"網野町小浜","koaza":"勝山","lat":35.672344,"lng":135.028247,"zip":"6293113"},{"town":"峰山町菅","koaza":"下稲木","lat":35.613531,"lng":135.063274,"zip":"6270041"},{"town":"峰山町荒山","koaza":"黒切","lat":35.615852,"lng":135.07594,"zip":"6270004"},{"town":"峰山町長岡","koaza":"中嶋","lat":35.61064,"lng":135.079043,"zip":"6270042"},{"town":"大宮町周枳","koaza":"平田","lat":35.591119,"lng":135.094735,"zip":"6292503"},{"town":"大宮町周枳","koaza":"古屋敷","lat":35.588448,"lng":135.096788,"zip":"6292503"}]