[{"town":"飯岡大森","koaza":"","lat":34.813539,"lng":135.795949,"zip":"6100300"},{"town":"飯岡北原","koaza":"","lat":34.807253,"lng":135.794633,"zip":"6100300"},{"town":"飯岡久保田","koaza":"","lat":34.801996,"lng":135.797306,"zip":"6100300"},{"town":"飯岡香森","koaza":"","lat":34.810264,"lng":135.793836,"zip":"6100300"},{"town":"飯岡高野","koaza":"","lat":34.809923,"lng":135.796316,"zip":"6100300"},{"town":"飯岡小山","koaza":"","lat":34.804095,"lng":135.799481,"zip":"6100300"},{"town":"飯岡権田","koaza":"","lat":34.805599,"lng":135.788782,"zip":"6100300"},{"town":"飯岡桜田","koaza":"","lat":34.803283,"lng":135.79107,"zip":"6100300"},{"town":"飯岡城","koaza":"","lat":34.807693,"lng":135.799802,"zip":"6100300"},{"town":"飯岡大将軍","koaza":"","lat":34.810606,"lng":135.799455,"zip":"6100300"},{"town":"飯岡外島","koaza":"","lat":34.814778,"lng":135.79748,"zip":"6100300"},{"town":"飯岡中峯","koaza":"","lat":34.805633,"lng":135.793974,"zip":"6100300"},{"town":"飯岡奈良田","koaza":"","lat":34.810071,"lng":135.795125,"zip":"6100300"},{"town":"飯岡西原","koaza":"","lat":34.806261,"lng":135.792134,"zip":"6100300"},{"town":"飯岡花咲","koaza":"","lat":34.803281,"lng":135.789271,"zip":"6100300"},{"town":"飯岡東原","koaza":"","lat":34.806048,"lng":135.796695,"zip":"6100300"},{"town":"飯岡南原","koaza":"","lat":34.804051,"lng":135.794839,"zip":"6100300"},{"town":"打田池田","koaza":"","lat":34.76173,"lng":135.751206,"zip":"6100300"},{"town":"打田池ノ谷","koaza":"","lat":34.75639,"lng":135.735804,"zip":"6100300"},{"town":"打田大谷越","koaza":"","lat":34.762937,"lng":135.749955,"zip":"6100300"},{"town":"打田奥中山","koaza":"","lat":34.7701,"lng":135.743333,"zip":"6100300"},{"town":"打田上煤谷","koaza":"","lat":34.760334,"lng":135.747895,"zip":"6100300"},{"town":"打田上西浦","koaza":"","lat":34.7584,"lng":135.735356,"zip":"6100300"},{"town":"打田上羽川","koaza":"","lat":34.764408,"lng":135.746522,"zip":"6100300"},{"town":"打田北谷","koaza":"","lat":34.762608,"lng":135.737728,"zip":"6100300"},{"town":"打田仕切ケ谷","koaza":"","lat":34.758192,"lng":135.744197,"zip":"6100300"},{"town":"打田地蔵山","koaza":"","lat":34.761401,"lng":135.741933,"zip":"6100300"},{"town":"打田下煤谷","koaza":"","lat":34.763659,"lng":135.754218,"zip":"6100300"},{"town":"打田下羽川","koaza":"","lat":34.769271,"lng":135.750565,"zip":"6100300"},{"town":"打田煤谷口","koaza":"","lat":34.758785,"lng":135.748843,"zip":"6100300"},{"town":"打田煤谷山口","koaza":"","lat":34.765254,"lng":135.758748,"zip":"6100300"},{"town":"打田滝替","koaza":"","lat":34.761377,"lng":135.744582,"zip":"6100300"},{"town":"打田田尻","koaza":"","lat":34.766369,"lng":135.753514,"zip":"6100300"},{"town":"打田友谷","koaza":"","lat":34.77175,"lng":135.747414,"zip":"6100300"},{"town":"打田中煤谷","koaza":"","lat":34.764425,"lng":135.752896,"zip":"6100300"},{"town":"打田中羽川","koaza":"","lat":34.766342,"lng":135.749035,"zip":"6100300"},{"town":"打田中山口","koaza":"","lat":34.767096,"lng":135.745097,"zip":"6100300"},{"town":"打田西浦","koaza":"","lat":34.759291,"lng":135.738547,"zip":"6100300"},{"town":"打田西羽川","koaza":"","lat":34.769018,"lng":135.747111,"zip":"6100300"},{"town":"打田入道ケ谷","koaza":"","lat":34.760826,"lng":135.735233,"zip":"6100300"},{"town":"打田埜田野","koaza":"","lat":34.763216,"lng":135.741275,"zip":"6100300"},{"town":"打田羽川口","koaza":"","lat":34.764686,"lng":135.743919,"zip":"6100300"},{"town":"打田萩原","koaza":"","lat":34.767313,"lng":135.741278,"zip":"6100300"},{"town":"打田峰山","koaza":"","lat":34.758344,"lng":135.742026,"zip":"6100300"},{"town":"打田宮下","koaza":"","lat":34.758599,"lng":135.73925,"zip":"6100300"},{"town":"打田宮東","koaza":"","lat":34.757887,"lng":135.740133,"zip":"6100300"},{"town":"打田宮前","koaza":"","lat":34.754547,"lng":135.73925,"zip":"6100300"},{"town":"打田宮本","koaza":"","lat":34.754072,"lng":135.737234,"zip":"6100300"},{"town":"大住荒堀","koaza":"","lat":34.83795,"lng":135.756577,"zip":"6100300"},{"town":"大住池島","koaza":"","lat":34.846291,"lng":135.749107,"zip":"6100300"},{"town":"大住池ノ谷","koaza":"","lat":34.831996,"lng":135.746514,"zip":"6100300"},{"town":"大住池ノ端","koaza":"","lat":34.841146,"lng":135.751474,"zip":"6100300"},{"town":"大住池平","koaza":"","lat":34.837494,"lng":135.74124,"zip":"6100300"},{"town":"大住稲生山","koaza":"","lat":34.834235,"lng":135.74,"zip":"6100300"},{"town":"大住乾角","koaza":"","lat":34.84674,"lng":135.740164,"zip":"6100300"},{"town":"大住魚田","koaza":"","lat":34.8476,"lng":135.740619,"zip":"6100300"},{"town":"大住内山","koaza":"","lat":34.834495,"lng":135.743287,"zip":"6100300"},{"town":"大住宇手尾","koaza":"","lat":34.832176,"lng":135.755013,"zip":"6100300"},{"town":"大住大荒内","koaza":"","lat":34.833251,"lng":135.759351,"zip":"6100300"},{"town":"大住大欠","koaza":"","lat":34.827489,"lng":135.747357,"zip":"6100300"},{"town":"大住大坪","koaza":"","lat":34.8312,"lng":135.757507,"zip":"6100300"},{"town":"大住大畑","koaza":"","lat":34.833508,"lng":135.757023,"zip":"6100300"},{"town":"大住大峯","koaza":"","lat":34.848947,"lng":135.743205,"zip":"6100300"},{"town":"大住岡村","koaza":"","lat":34.835914,"lng":135.7504,"zip":"6100300"},{"town":"大住押木ケ平","koaza":"","lat":34.835533,"lng":135.737728,"zip":"6100300"},{"town":"大住女谷","koaza":"","lat":34.82608,"lng":135.738627,"zip":"6100300"},{"town":"大住ケ丘一丁目","koaza":"","lat":34.831527,"lng":135.744513,"zip":"6100351"},{"town":"大住ケ丘二丁目","koaza":"","lat":34.830951,"lng":135.739254,"zip":"6100351"},{"town":"大住ケ丘三丁目","koaza":"","lat":34.830489,"lng":135.74167,"zip":"6100351"},{"town":"大住ケ丘四丁目","koaza":"","lat":34.828416,"lng":135.742913,"zip":"6100351"},{"town":"大住ケ丘五丁目","koaza":"","lat":34.827294,"lng":135.740237,"zip":"6100351"},{"town":"大住片岸","koaza":"","lat":34.836398,"lng":135.752893,"zip":"6100300"},{"town":"大住門田","koaza":"","lat":34.845398,"lng":135.746779,"zip":"6100300"},{"town":"大住上西野","koaza":"","lat":34.835729,"lng":135.73605,"zip":"6100300"},{"town":"大住神ノ木","koaza":"","lat":34.841802,"lng":135.746226,"zip":"6100300"},{"town":"大住川端","koaza":"","lat":34.834461,"lng":135.7609,"zip":"6100300"},{"town":"大住木下シ","koaza":"","lat":34.834537,"lng":135.741164,"zip":"6100300"},{"town":"大住北角","koaza":"","lat":34.838477,"lng":135.750626,"zip":"6100300"},{"town":"大住久保田","koaza":"","lat":34.835595,"lng":135.753425,"zip":"6100300"},{"town":"大住古田","koaza":"","lat":34.838228,"lng":135.752156,"zip":"6100300"},{"town":"大住虚空蔵谷","koaza":"","lat":34.825825,"lng":135.734341,"zip":"6100300"},{"town":"大住小林","koaza":"","lat":34.829133,"lng":135.751473,"zip":"6100300"},{"town":"大住小松原","koaza":"","lat":34.844788,"lng":135.739605,"zip":"6100300"},{"town":"大住坂口","koaza":"","lat":34.836394,"lng":135.74667,"zip":"6100300"},{"town":"大住三野","koaza":"","lat":34.834615,"lng":135.75481,"zip":"6100300"},{"town":"大住三本木","koaza":"","lat":34.838993,"lng":135.755813,"zip":"6100300"},{"town":"大住地内山","koaza":"","lat":34.833803,"lng":135.74755,"zip":"6100300"},{"town":"大住志保","koaza":"","lat":34.836177,"lng":135.756843,"zip":"6100300"},{"town":"大住下西野","koaza":"","lat":34.84132,"lng":135.738973,"zip":"6100300"},{"town":"大住城ノ谷","koaza":"","lat":34.834065,"lng":135.74501,"zip":"6100300"},{"town":"大住杉谷","koaza":"","lat":34.837097,"lng":135.743733,"zip":"6100300"},{"town":"大住杉ノ森","koaza":"","lat":34.847892,"lng":135.746039,"zip":"6100300"},{"town":"大住関屋","koaza":"","lat":34.830095,"lng":135.754455,"zip":"6100300"},{"town":"大住千日","koaza":"","lat":34.842358,"lng":135.739898,"zip":"6100300"},{"town":"大住大嘗料","koaza":"","lat":34.842998,"lng":135.744038,"zip":"6100300"},{"town":"大住高島","koaza":"","lat":34.842909,"lng":135.755321,"zip":"6100300"},{"town":"大住館","koaza":"","lat":34.838565,"lng":135.749176,"zip":"6100300"},{"town":"大住立原","koaza":"","lat":34.841366,"lng":135.754193,"zip":"6100300"},{"town":"大住辻ノ垣内","koaza":"","lat":34.843356,"lng":135.747133,"zip":"6100300"},{"town":"大住峠谷","koaza":"","lat":34.828529,"lng":135.745207,"zip":"6100300"},{"town":"大住堂附","koaza":"","lat":34.843277,"lng":135.739753,"zip":"6100300"},{"town":"大住塔ノ脇","koaza":"","lat":34.833054,"lng":135.749557,"zip":"6100300"},{"town":"大住時子林","koaza":"","lat":34.832424,"lng":135.753514,"zip":"6100300"},{"town":"大住土山","koaza":"","lat":34.845294,"lng":135.744178,"zip":"6100300"},{"town":"大住中島","koaza":"","lat":34.839244,"lng":135.753353,"zip":"6100300"},{"town":"大住長田","koaza":"","lat":34.834808,"lng":135.756637,"zip":"6100300"},{"town":"大住中西野","koaza":"","lat":34.83877,"lng":135.740069,"zip":"6100300"},{"town":"大住西角","koaza":"","lat":34.838862,"lng":135.744033,"zip":"6100300"},{"town":"大住西北向","koaza":"","lat":34.848483,"lng":135.745073,"zip":"6100300"},{"town":"大住西野","koaza":"","lat":34.839236,"lng":135.738009,"zip":"6100300"},{"town":"大住西ノ垣内","koaza":"","lat":34.84474,"lng":135.741938,"zip":"6100300"},{"town":"大住西村","koaza":"","lat":34.842337,"lng":135.741977,"zip":"6100300"},{"town":"大住野上","koaza":"","lat":34.832438,"lng":135.75153,"zip":"6100300"},{"town":"大住長谷折","koaza":"","lat":34.832195,"lng":135.756297,"zip":"6100300"},{"town":"大住八王寺","koaza":"","lat":34.837937,"lng":135.746802,"zip":"6100300"},{"town":"大住八河原","koaza":"","lat":34.840206,"lng":135.741749,"zip":"6100300"},{"town":"大住八小路","koaza":"","lat":34.840858,"lng":135.743777,"zip":"6100300"},{"town":"大住八町","koaza":"","lat":34.849215,"lng":135.741124,"zip":"6100300"},{"town":"大住浜","koaza":"","lat":34.844431,"lng":135.750929,"zip":"6100300"},{"town":"大住東北向","koaza":"","lat":34.849314,"lng":135.746059,"zip":"6100300"},{"town":"大住東村","koaza":"","lat":34.840049,"lng":135.745926,"zip":"6100300"},{"town":"大住姫ノ垣内","koaza":"","lat":34.837217,"lng":135.748327,"zip":"6100300"},{"town":"大住平谷","koaza":"","lat":34.827631,"lng":135.7501,"zip":"6100300"},{"town":"大住藤ノ木","koaza":"","lat":34.841268,"lng":135.748311,"zip":"6100300"},{"town":"大住細畑","koaza":"","lat":34.846145,"lng":135.742962,"zip":"6100300"},{"town":"大住丸山","koaza":"","lat":34.83054,"lng":135.749256,"zip":"6100300"},{"town":"大住溝尻","koaza":"","lat":34.836353,"lng":135.759062,"zip":"6100300"},{"town":"大住三ツ跨","koaza":"","lat":34.834518,"lng":135.752958,"zip":"6100300"},{"town":"大住竜王谷","koaza":"","lat":34.822262,"lng":135.736157,"zip":"6100300"},{"town":"花住坂一丁目","koaza":"","lat":34.83021,"lng":135.736938,"zip":"6100352"},{"town":"花住坂二丁目","koaza":"","lat":34.831407,"lng":135.73406,"zip":"6100352"},{"town":"花住坂三丁目","koaza":"","lat":34.833072,"lng":135.737584,"zip":"6100352"},{"town":"河原一ノ坪","koaza":"","lat":34.816633,"lng":135.775781,"zip":"6100300"},{"town":"河原受田","koaza":"","lat":34.818617,"lng":135.773238,"zip":"6100300"},{"town":"河原神谷","koaza":"","lat":34.821827,"lng":135.777432,"zip":"6100300"},{"town":"河原北口","koaza":"","lat":34.821749,"lng":135.775606,"zip":"6100300"},{"town":"河原里ノ内","koaza":"","lat":34.818669,"lng":135.775142,"zip":"6100300"},{"town":"河原食田","koaza":"","lat":34.821715,"lng":135.773147,"zip":"6100300"},{"town":"河原外島","koaza":"","lat":34.828901,"lng":135.778463,"zip":"6100300"},{"town":"河原西久保田","koaza":"","lat":34.826153,"lng":135.775446,"zip":"6100300"},{"town":"河原野色","koaza":"","lat":34.817721,"lng":135.777519,"zip":"6100300"},{"town":"河原東久保田","koaza":"","lat":34.826362,"lng":135.776678,"zip":"6100300"},{"town":"河原平田","koaza":"","lat":34.824152,"lng":135.774333,"zip":"6100300"},{"town":"河原御影","koaza":"","lat":34.821646,"lng":135.774362,"zip":"6100300"},{"town":"河原室垣外","koaza":"","lat":34.826731,"lng":135.777665,"zip":"6100300"},{"town":"甘南備台一丁目","koaza":"","lat":34.802807,"lng":135.748387,"zip":"6100333"},{"town":"甘南備台二丁目","koaza":"","lat":34.80635,"lng":135.748555,"zip":"6100333"},{"town":"甘南備台三丁目","koaza":"","lat":34.809817,"lng":135.750534,"zip":"6100333"},{"town":"草内上リ立","koaza":"","lat":34.815863,"lng":135.783019,"zip":"6100300"},{"town":"草内当ノ木","koaza":"","lat":34.817032,"lng":135.791446,"zip":"6100300"},{"town":"草内穴口","koaza":"","lat":34.814414,"lng":135.78422,"zip":"6100300"},{"town":"草内一ノ坪","koaza":"","lat":34.819406,"lng":135.784776,"zip":"6100300"},{"town":"草内一町田","koaza":"","lat":34.808067,"lng":135.784352,"zip":"6100300"},{"town":"草内犬伏","koaza":"","lat":34.814934,"lng":135.786648,"zip":"6100300"},{"town":"草内馬田","koaza":"","lat":34.810961,"lng":135.792142,"zip":"6100300"},{"town":"草内馬橋","koaza":"","lat":34.818133,"lng":135.786697,"zip":"6100300"},{"town":"草内大東","koaza":"","lat":34.819386,"lng":135.78921,"zip":"6100300"},{"town":"草内岡田","koaza":"","lat":34.80719,"lng":135.786272,"zip":"6100300"},{"town":"草内大切","koaza":"","lat":34.814063,"lng":135.779801,"zip":"6100300"},{"town":"草内河田","koaza":"","lat":34.812627,"lng":135.791529,"zip":"6100300"},{"town":"草内操毛","koaza":"","lat":34.817449,"lng":135.784825,"zip":"6100300"},{"town":"草内五反田","koaza":"","lat":34.814336,"lng":135.781606,"zip":"6100300"},{"town":"草内五ノ坪","koaza":"","lat":34.808767,"lng":135.783097,"zip":"6100300"},{"town":"草内沢","koaza":"","lat":34.811989,"lng":135.789339,"zip":"6100300"},{"town":"草内新池","koaza":"","lat":34.808319,"lng":135.788087,"zip":"6100300"},{"town":"草内筋替道","koaza":"","lat":34.814934,"lng":135.787802,"zip":"6100300"},{"town":"草内禅定寺","koaza":"","lat":34.819803,"lng":135.787149,"zip":"6100300"},{"town":"草内塚本","koaza":"","lat":34.808845,"lng":135.786135,"zip":"6100300"},{"town":"草内寺田","koaza":"","lat":34.816416,"lng":135.787206,"zip":"6100300"},{"town":"草内塔ノ上","koaza":"","lat":34.813558,"lng":135.789905,"zip":"6100300"},{"town":"草内外島","koaza":"","lat":34.819796,"lng":135.791039,"zip":"6100300"},{"town":"草内中垣内","koaza":"","lat":34.814441,"lng":135.785428,"zip":"6100300"},{"town":"草内西垣内","koaza":"","lat":34.812676,"lng":135.783028,"zip":"6100300"},{"town":"草内能戸","koaza":"","lat":34.815122,"lng":135.791985,"zip":"6100300"},{"town":"草内橋折","koaza":"","lat":34.816988,"lng":135.789581,"zip":"6100300"},{"town":"草内薑","koaza":"","lat":34.809579,"lng":135.790596,"zip":"6100300"},{"town":"草内八田","koaza":"","lat":34.811559,"lng":135.780117,"zip":"6100300"},{"town":"草内鐘鉦割","koaza":"","lat":34.822193,"lng":135.786916,"zip":"6100300"},{"town":"草内東垣内","koaza":"","lat":34.813502,"lng":135.786896,"zip":"6100300"},{"town":"草内東台","koaza":"","lat":34.815102,"lng":135.789616,"zip":"6100300"},{"town":"草内坊田","koaza":"","lat":34.813099,"lng":135.792691,"zip":"6100300"},{"town":"草内法福寺","koaza":"","lat":34.811623,"lng":135.781868,"zip":"6100300"},{"town":"草内美泥","koaza":"","lat":34.818221,"lng":135.787844,"zip":"6100300"},{"town":"草内南垣内","koaza":"","lat":34.811378,"lng":135.784845,"zip":"6100300"},{"town":"草内宮ケ森","koaza":"","lat":34.814998,"lng":135.793876,"zip":"6100300"},{"town":"草内宮ノ後","koaza":"","lat":34.811394,"lng":135.786927,"zip":"6100300"},{"town":"草内柳田","koaza":"","lat":34.812909,"lng":135.793859,"zip":"6100300"},{"town":"草内山科","koaza":"","lat":34.809583,"lng":135.780605,"zip":"6100300"},{"town":"草内山ノ下","koaza":"","lat":34.808016,"lng":135.790424,"zip":"6100300"},{"town":"草内行合田","koaza":"","lat":34.810514,"lng":135.789383,"zip":"6100300"},{"town":"興戸池田","koaza":"","lat":34.815289,"lng":135.7745,"zip":"6100300"},{"town":"興戸石峠","koaza":"","lat":34.803842,"lng":135.759201,"zip":"6100300"},{"town":"興戸犬伏","koaza":"","lat":34.813335,"lng":135.772148,"zip":"6100300"},{"town":"興戸大谷","koaza":"","lat":34.806351,"lng":135.759442,"zip":"6100300"},{"town":"興戸御垣内","koaza":"","lat":34.80883,"lng":135.77008,"zip":"6100300"},{"town":"興戸金林","koaza":"","lat":34.806346,"lng":135.781192,"zip":"6100300"},{"town":"興戸川原谷","koaza":"","lat":34.803641,"lng":135.765193,"zip":"6100300"},{"town":"興戸北落延","koaza":"","lat":34.808354,"lng":135.780481,"zip":"6100300"},{"town":"興戸北鉾立","koaza":"","lat":34.813525,"lng":135.770142,"zip":"6100300"},{"town":"興戸久保","koaza":"","lat":34.806442,"lng":135.778297,"zip":"6100300"},{"town":"興戸郡塚","koaza":"","lat":34.808503,"lng":135.772149,"zip":"6100300"},{"town":"興戸小モ詰","koaza":"","lat":34.811637,"lng":135.771913,"zip":"6100300"},{"town":"興戸地蔵谷","koaza":"","lat":34.804809,"lng":135.769658,"zip":"6100300"},{"town":"興戸下ノ川原","koaza":"","lat":34.809322,"lng":135.77753,"zip":"6100300"},{"town":"興戸十曽","koaza":"","lat":34.81434,"lng":135.777574,"zip":"6100300"},{"town":"興戸中地","koaza":"","lat":34.813829,"lng":135.77578,"zip":"6100300"},{"town":"興戸塚ノ本","koaza":"","lat":34.810501,"lng":135.774552,"zip":"6100300"},{"town":"興戸花ノ元","koaza":"","lat":34.812014,"lng":135.777666,"zip":"6100300"},{"town":"興戸東垣内","koaza":"","lat":34.808717,"lng":135.774032,"zip":"6100300"},{"town":"興戸町田","koaza":"","lat":34.810281,"lng":135.775811,"zip":"6100300"},{"town":"興戸南落延","koaza":"","lat":34.807341,"lng":135.781057,"zip":"6100300"},{"town":"興戸南鉾立","koaza":"","lat":34.805451,"lng":135.774086,"zip":"6100300"},{"town":"興戸宮ケ辻","koaza":"","lat":34.813469,"lng":135.774686,"zip":"6100300"},{"town":"興戸宮ノ前","koaza":"","lat":34.808394,"lng":135.766787,"zip":"6100300"},{"town":"興戸八木屋","koaza":"","lat":34.813369,"lng":135.773556,"zip":"6100300"},{"town":"興戸山添","koaza":"","lat":34.811255,"lng":135.769929,"zip":"6100300"},{"town":"興戸和井田","koaza":"","lat":34.807302,"lng":135.777954,"zip":"6100300"},{"town":"興戸若宮","koaza":"","lat":34.810644,"lng":135.772865,"zip":"6100300"},{"town":"高船池ノ谷","koaza":"","lat":34.771063,"lng":135.7324,"zip":"6100300"},{"town":"高船市ノ木","koaza":"","lat":34.763433,"lng":135.733948,"zip":"6100300"},{"town":"高船里","koaza":"","lat":34.769002,"lng":135.732064,"zip":"6100300"},{"town":"高船谷川","koaza":"","lat":34.770491,"lng":135.735931,"zip":"6100300"},{"town":"高船野田農","koaza":"","lat":34.765712,"lng":135.740081,"zip":"6100300"},{"town":"高船前田","koaza":"","lat":34.766305,"lng":135.733763,"zip":"6100300"},{"town":"高船南谷","koaza":"","lat":34.766232,"lng":135.731478,"zip":"6100300"},{"town":"高船向居","koaza":"","lat":34.764991,"lng":135.737018,"zip":"6100300"},{"town":"薪赤池","koaza":"","lat":34.830236,"lng":135.762355,"zip":"6100300"},{"town":"薪赤坂","koaza":"","lat":34.818139,"lng":135.749422,"zip":"6100300"},{"town":"薪薊","koaza":"","lat":34.826814,"lng":135.761016,"zip":"6100300"},{"town":"薪石ノ前","koaza":"","lat":34.822041,"lng":135.759339,"zip":"6100300"},{"town":"薪井手","koaza":"","lat":34.822592,"lng":135.754753,"zip":"6100300"},{"town":"薪大欠","koaza":"","lat":34.819059,"lng":135.752749,"zip":"6100300"},{"town":"薪狼谷","koaza":"","lat":34.824774,"lng":135.750597,"zip":"6100300"},{"town":"薪大崩","koaza":"","lat":34.81646,"lng":135.751523,"zip":"6100300"},{"town":"薪大塚","koaza":"","lat":34.827832,"lng":135.760641,"zip":"6100300"},{"town":"薪小欠","koaza":"","lat":34.817543,"lng":135.75769,"zip":"6100300"},{"town":"薪斧窪","koaza":"","lat":34.81373,"lng":135.749745,"zip":"6100300"},{"town":"薪貝元","koaza":"","lat":34.82573,"lng":135.761428,"zip":"6100300"},{"town":"薪加賀ノ辻","koaza":"","lat":34.824779,"lng":135.761838,"zip":"6100300"},{"town":"薪甘南備山","koaza":"","lat":34.809355,"lng":135.745382,"zip":"6100300"},{"town":"薪岸ノ下","koaza":"","lat":34.824527,"lng":135.763016,"zip":"6100300"},{"town":"薪北町田","koaza":"","lat":34.82875,"lng":135.759219,"zip":"6100300"},{"town":"薪狐谷","koaza":"","lat":34.816231,"lng":135.747229,"zip":"6100300"},{"town":"薪桑ノ木","koaza":"","lat":34.829939,"lng":135.759447,"zip":"6100300"},{"town":"薪小山","koaza":"","lat":34.826039,"lng":135.753876,"zip":"6100300"},{"town":"薪里ノ内","koaza":"","lat":34.821268,"lng":135.756773,"zip":"6100300"},{"town":"薪四反田","koaza":"","lat":34.825982,"lng":135.756394,"zip":"6100300"},{"town":"薪城ケ前","koaza":"","lat":34.815632,"lng":135.749009,"zip":"6100300"},{"town":"薪城ノ内","koaza":"","lat":34.828761,"lng":135.754709,"zip":"6100300"},{"town":"薪狭道","koaza":"","lat":34.825313,"lng":135.755532,"zip":"6100300"},{"town":"薪大仏谷","koaza":"","lat":34.812454,"lng":135.754162,"zip":"6100300"},{"town":"薪高木","koaza":"","lat":34.824167,"lng":135.75724,"zip":"6100300"},{"town":"薪巽","koaza":"","lat":34.823158,"lng":135.759216,"zip":"6100300"},{"town":"薪溜池","koaza":"","lat":34.819736,"lng":135.748878,"zip":"6100300"},{"town":"薪茶屋前","koaza":"","lat":34.82828,"lng":135.757449,"zip":"6100300"},{"town":"薪天神堂","koaza":"","lat":34.823508,"lng":135.763591,"zip":"6100300"},{"town":"薪堂ノ後","koaza":"","lat":34.826727,"lng":135.758041,"zip":"6100300"},{"town":"薪外島","koaza":"","lat":34.83262,"lng":135.763131,"zip":"6100300"},{"town":"薪泥々","koaza":"","lat":34.824315,"lng":135.759587,"zip":"6100300"},{"town":"薪長尾谷","koaza":"","lat":34.814886,"lng":135.754752,"zip":"6100300"},{"town":"薪中垣外","koaza":"","lat":34.825696,"lng":135.758412,"zip":"6100300"},{"town":"薪名松","koaza":"","lat":34.830066,"lng":135.758034,"zip":"6100300"},{"town":"薪西窪","koaza":"","lat":34.825791,"lng":135.754444,"zip":"6100300"},{"town":"薪西沢","koaza":"","lat":34.822746,"lng":135.761043,"zip":"6100300"},{"town":"薪西浜","koaza":"","lat":34.831466,"lng":135.761077,"zip":"6100300"},{"town":"薪西山","koaza":"","lat":34.823953,"lng":135.752535,"zip":"6100300"},{"town":"薪畠","koaza":"","lat":34.82632,"lng":135.752329,"zip":"6100300"},{"town":"薪東沢","koaza":"","lat":34.822446,"lng":135.762517,"zip":"6100300"},{"town":"薪東浜","koaza":"","lat":34.830454,"lng":135.764062,"zip":"6100300"},{"town":"薪東向","koaza":"","lat":34.827204,"lng":135.763752,"zip":"6100300"},{"town":"薪堀切谷","koaza":"","lat":34.818854,"lng":135.755183,"zip":"6100300"},{"town":"薪舞ケ辻","koaza":"","lat":34.815751,"lng":135.743475,"zip":"6100300"},{"town":"薪水取","koaza":"","lat":34.828207,"lng":135.755709,"zip":"6100300"},{"town":"薪百々坂","koaza":"","lat":34.810971,"lng":135.750211,"zip":"6100300"},{"town":"薪山垣外","koaza":"","lat":34.819876,"lng":135.76028,"zip":"6100300"},{"town":"多々羅下司","koaza":"","lat":34.797133,"lng":135.765026,"zip":"6100300"},{"town":"多々羅駒ケ谷","koaza":"","lat":34.78815,"lng":135.767208,"zip":"6100300"},{"town":"多々羅住建寺","koaza":"","lat":34.795427,"lng":135.769398,"zip":"6100300"},{"town":"多々羅新宮前","koaza":"","lat":34.79743,"lng":135.767022,"zip":"6100300"},{"town":"多々羅谷奥","koaza":"","lat":34.800131,"lng":135.765794,"zip":"6100300"},{"town":"多々羅中垣内","koaza":"","lat":34.799437,"lng":135.770255,"zip":"6100300"},{"town":"多々羅中島","koaza":"","lat":34.796358,"lng":135.767327,"zip":"6100300"},{"town":"多々羅七瀬川","koaza":"","lat":34.799977,"lng":135.772355,"zip":"6100300"},{"town":"多々羅西平川原","koaza":"","lat":34.790107,"lng":135.767487,"zip":"6100300"},{"town":"多々羅東平川原","koaza":"","lat":34.795529,"lng":135.772194,"zip":"6100300"},{"town":"多々羅前田","koaza":"","lat":34.798286,"lng":135.773756,"zip":"6100300"},{"town":"多々羅都谷","koaza":"","lat":34.802466,"lng":135.771208,"zip":"6100300"},{"town":"田辺","koaza":"","lat":34.814761,"lng":135.768415,"zip":"6100331"},{"town":"田辺尼ケ池","koaza":"","lat":34.818123,"lng":135.761928,"zip":"6100300"},{"town":"田辺池ノ尻","koaza":"","lat":34.826944,"lng":135.766901,"zip":"6100300"},{"town":"田辺石塚","koaza":"","lat":34.824427,"lng":135.768492,"zip":"6100300"},{"town":"田辺稲葉","koaza":"","lat":34.824842,"lng":135.765279,"zip":"6100300"},{"town":"田辺大藪","koaza":"","lat":34.829582,"lng":135.776608,"zip":"6100300"},{"town":"田辺奥ノ城","koaza":"","lat":34.811586,"lng":135.763982,"zip":"6100300"},{"town":"田辺柿ノ内","koaza":"","lat":34.82509,"lng":135.766873,"zip":"6100300"},{"town":"田辺蕪木","koaza":"","lat":34.825075,"lng":135.770034,"zip":"6100300"},{"town":"田辺北川","koaza":"","lat":34.820496,"lng":135.764725,"zip":"6100300"},{"town":"田辺北里","koaza":"","lat":34.818816,"lng":135.765868,"zip":"6100300"},{"town":"田辺狐川","koaza":"","lat":34.815536,"lng":135.760626,"zip":"6100300"},{"town":"田辺草屋","koaza":"","lat":34.827871,"lng":135.768816,"zip":"6100300"},{"town":"田辺沓脱","koaza":"","lat":34.819202,"lng":135.767102,"zip":"6100300"},{"town":"田辺久戸","koaza":"","lat":34.820636,"lng":135.768361,"zip":"6100300"},{"town":"田辺久保","koaza":"","lat":34.828355,"lng":135.770966,"zip":"6100300"},{"town":"田辺十曽","koaza":"","lat":34.823238,"lng":135.770758,"zip":"6100300"},{"town":"田辺外ケ谷","koaza":"","lat":34.809278,"lng":135.753654,"zip":"6100300"},{"town":"田辺竹ノ脇","koaza":"","lat":34.815818,"lng":135.767268,"zip":"6100300"},{"town":"田辺田出原","koaza":"","lat":34.830688,"lng":135.773156,"zip":"6100300"},{"town":"田辺棚倉","koaza":"","lat":34.820556,"lng":135.763443,"zip":"6100300"},{"town":"田辺中央一丁目","koaza":"","lat":34.820564,"lng":135.771377,"zip":"6100334"},{"town":"田辺中央二丁目","koaza":"","lat":34.818536,"lng":135.771828,"zip":"6100334"},{"town":"田辺中央三丁目","koaza":"","lat":34.818561,"lng":135.770615,"zip":"6100334"},{"town":"田辺中央四丁目","koaza":"","lat":34.820481,"lng":135.769648,"zip":"6100334"},{"town":"田辺中央五丁目","koaza":"","lat":34.82192,"lng":135.769208,"zip":"6100334"},{"town":"田辺中央六丁目","koaza":"","lat":34.822077,"lng":135.77138,"zip":"6100334"},{"town":"田辺辻","koaza":"","lat":34.820903,"lng":135.766442,"zip":"6100300"},{"town":"田辺津田","koaza":"","lat":34.82116,"lng":135.77264,"zip":"6100300"},{"town":"田辺伝道林","koaza":"","lat":34.82832,"lng":135.774203,"zip":"6100300"},{"town":"田辺道場","koaza":"","lat":34.82254,"lng":135.765945,"zip":"6100300"},{"town":"田辺外島","koaza":"","lat":34.832312,"lng":135.770435,"zip":"6100300"},{"town":"田辺戸絶","koaza":"","lat":34.825936,"lng":135.77121,"zip":"6100300"},{"town":"田辺鳥本","koaza":"","lat":34.817282,"lng":135.769593,"zip":"6100300"},{"town":"田辺中ノ島","koaza":"","lat":34.82976,"lng":135.773974,"zip":"6100300"},{"town":"田辺西垣内","koaza":"","lat":34.818628,"lng":135.764181,"zip":"6100300"},{"town":"田辺西川原","koaza":"","lat":34.811452,"lng":135.760216,"zip":"6100300"},{"town":"田辺西浜","koaza":"","lat":34.829166,"lng":135.765512,"zip":"6100300"},{"town":"田辺波風","koaza":"","lat":34.823129,"lng":135.767228,"zip":"6100300"},{"town":"田辺針ケ池","koaza":"","lat":34.819238,"lng":135.768807,"zip":"6100300"},{"town":"田辺東浜","koaza":"","lat":34.829493,"lng":135.767018,"zip":"6100300"},{"town":"田辺平","koaza":"","lat":34.815567,"lng":135.764469,"zip":"6100300"},{"town":"田辺平田","koaza":"","lat":34.823472,"lng":135.771952,"zip":"6100300"},{"town":"田辺深田","koaza":"","lat":34.815117,"lng":135.771213,"zip":"6100300"},{"town":"田辺ボケ谷","koaza":"","lat":34.806915,"lng":135.75219,"zip":"6100300"},{"town":"田辺丸山","koaza":"","lat":34.811984,"lng":135.767212,"zip":"6100300"},{"town":"田辺南里","koaza":"","lat":34.817456,"lng":135.76646,"zip":"6100300"},{"town":"田辺南田","koaza":"","lat":34.816651,"lng":135.772743,"zip":"6100300"},{"town":"田辺明田","koaza":"","lat":34.822578,"lng":135.76797,"zip":"6100300"},{"town":"田辺向畑","koaza":"","lat":34.830497,"lng":135.770966,"zip":"6100300"},{"town":"田辺茂ケ谷","koaza":"","lat":34.81056,"lng":135.756669,"zip":"6100300"},{"town":"田辺藪ノ本","koaza":"","lat":34.829628,"lng":135.768742,"zip":"6100300"},{"town":"田辺勇田","koaza":"","lat":34.826226,"lng":135.773685,"zip":"6100300"},{"town":"天王荒堀","koaza":"","lat":34.783705,"lng":135.744223,"zip":"6100300"},{"town":"天王石坂","koaza":"","lat":34.779855,"lng":135.744157,"zip":"6100300"},{"town":"天王井手口","koaza":"","lat":34.777597,"lng":135.735906,"zip":"6100300"},{"town":"天王大岩","koaza":"","lat":34.779226,"lng":135.735364,"zip":"6100300"},{"town":"天王大路畑","koaza":"","lat":34.772322,"lng":135.738182,"zip":"6100300"},{"town":"天王大田尾","koaza":"","lat":34.767711,"lng":135.73934,"zip":"6100300"},{"town":"天王大谷","koaza":"","lat":34.774421,"lng":135.740607,"zip":"6100300"},{"town":"天王奥石畑","koaza":"","lat":34.773816,"lng":135.733618,"zip":"6100300"},{"town":"天王奥谷","koaza":"","lat":34.780429,"lng":135.731736,"zip":"6100300"},{"town":"天王奥別所","koaza":"","lat":34.791713,"lng":135.743312,"zip":"6100300"},{"town":"天王釜ケ谷","koaza":"","lat":34.773203,"lng":135.730713,"zip":"6100300"},{"town":"天王上丑ノ毛","koaza":"","lat":34.783668,"lng":135.741016,"zip":"6100300"},{"town":"天王上垣内","koaza":"","lat":34.781072,"lng":135.73584,"zip":"6100300"},{"town":"天王上白光田","koaza":"","lat":34.779777,"lng":135.740309,"zip":"6100300"},{"town":"天王上樋ノ本","koaza":"","lat":34.78203,"lng":135.739516,"zip":"6100300"},{"town":"天王上水無滝","koaza":"","lat":34.776814,"lng":135.744591,"zip":"6100300"},{"town":"天王口石畑","koaza":"","lat":34.775153,"lng":135.735697,"zip":"6100300"},{"town":"天王口別所","koaza":"","lat":34.789467,"lng":135.74504,"zip":"6100300"},{"town":"天王栗林","koaza":"","lat":34.786658,"lng":135.74481,"zip":"6100300"},{"town":"天王黒岩","koaza":"","lat":34.780577,"lng":135.7471,"zip":"6100300"},{"town":"天王裂石","koaza":"","lat":34.786911,"lng":135.739988,"zip":"6100300"},{"town":"天王清水","koaza":"","lat":34.784386,"lng":135.736835,"zip":"6100300"},{"town":"天王下丑ノ毛","koaza":"","lat":34.785378,"lng":135.742492,"zip":"6100300"},{"town":"天王下垣内","koaza":"","lat":34.7792,"lng":135.738213,"zip":"6100300"},{"town":"天王下白光田","koaza":"","lat":34.77801,"lng":135.741449,"zip":"6100300"},{"town":"天王下樋ノ本","koaza":"","lat":34.781903,"lng":135.741689,"zip":"6100300"},{"town":"天王下水無滝","koaza":"","lat":34.778241,"lng":135.746719,"zip":"6100300"},{"town":"天王夕神","koaza":"","lat":34.778841,"lng":135.742855,"zip":"6100300"},{"town":"天王庄谷","koaza":"","lat":34.776234,"lng":135.738222,"zip":"6100300"},{"town":"天王居石","koaza":"","lat":34.770709,"lng":135.740315,"zip":"6100300"},{"town":"天王大尾","koaza":"","lat":34.768524,"lng":135.737124,"zip":"6100300"},{"town":"天王高尾","koaza":"","lat":34.776077,"lng":135.740056,"zip":"6100300"},{"town":"天王高ケ峯","koaza":"","lat":34.781975,"lng":135.733508,"zip":"6100300"},{"town":"天王谷川","koaza":"","lat":34.772021,"lng":135.733763,"zip":"6100300"},{"town":"天王辻山","koaza":"","lat":34.776141,"lng":135.730941,"zip":"6100300"},{"town":"天王長畑","koaza":"","lat":34.773853,"lng":135.742717,"zip":"6100300"},{"town":"天王中別所","koaza":"","lat":34.789586,"lng":135.741803,"zip":"6100300"},{"town":"天王縄手","koaza":"","lat":34.780769,"lng":135.737779,"zip":"6100300"},{"town":"天王女房谷","koaza":"","lat":34.784586,"lng":135.739616,"zip":"6100300"},{"town":"天王灰ケ原","koaza":"","lat":34.777898,"lng":135.739504,"zip":"6100300"},{"town":"天王禿尾","koaza":"","lat":34.767083,"lng":135.737759,"zip":"6100300"},{"town":"天王東頭","koaza":"","lat":34.782503,"lng":135.737169,"zip":"6100300"},{"town":"天王平畑","koaza":"","lat":34.783359,"lng":135.734831,"zip":"6100300"},{"town":"天王深道","koaza":"","lat":34.781621,"lng":135.744314,"zip":"6100300"},{"town":"天王峯","koaza":"","lat":34.778596,"lng":135.731471,"zip":"6100300"},{"town":"天王峯頭","koaza":"","lat":34.774758,"lng":135.745468,"zip":"6100300"},{"town":"天王楽君坊","koaza":"","lat":34.773963,"lng":135.737117,"zip":"6100300"},{"town":"同志社山手一丁目","koaza":"","lat":34.793502,"lng":135.775309,"zip":"6100315"},{"town":"同志社山手二丁目","koaza":"","lat":34.788396,"lng":135.772082,"zip":"6100315"},{"town":"同志社山手三丁目","koaza":"","lat":34.788378,"lng":135.769166,"zip":"6100315"},{"town":"同志社山手四丁目","koaza":"","lat":34.792749,"lng":135.769793,"zip":"6100315"},{"town":"東青上","koaza":"","lat":34.82749,"lng":135.781914,"zip":"6100300"},{"town":"東鍵田","koaza":"","lat":34.817348,"lng":135.779697,"zip":"6100300"},{"town":"東七反割","koaza":"","lat":34.821938,"lng":135.784681,"zip":"6100300"},{"town":"東外島","koaza":"","lat":34.827882,"lng":135.784888,"zip":"6100300"},{"town":"東西神屋","koaza":"","lat":34.822502,"lng":135.779846,"zip":"6100300"},{"town":"東西ノ口","koaza":"","lat":34.82677,"lng":135.779649,"zip":"6100300"},{"town":"東東神屋","koaza":"","lat":34.822079,"lng":135.782328,"zip":"6100300"},{"town":"東藤木","koaza":"","lat":34.82498,"lng":135.783294,"zip":"6100300"},{"town":"東古森","koaza":"","lat":34.817859,"lng":135.781828,"zip":"6100300"},{"town":"普賢寺池ケ原","koaza":"","lat":34.783888,"lng":135.763266,"zip":"6100300"},{"town":"普賢寺打垣内","koaza":"","lat":34.793326,"lng":135.763528,"zip":"6100300"},{"town":"普賢寺宇頭城","koaza":"","lat":34.794797,"lng":135.756872,"zip":"6100300"},{"town":"普賢寺王子谷","koaza":"","lat":34.791541,"lng":135.752971,"zip":"6100300"},{"town":"普賢寺奥北谷","koaza":"","lat":34.799793,"lng":135.753703,"zip":"6100300"},{"town":"普賢寺小田垣内","koaza":"","lat":34.790569,"lng":135.762921,"zip":"6100300"},{"town":"普賢寺掛ケ谷","koaza":"","lat":34.792935,"lng":135.750727,"zip":"6100300"},{"town":"普賢寺上大門","koaza":"","lat":34.793654,"lng":135.759489,"zip":"6100300"},{"town":"普賢寺観音谷","koaza":"","lat":34.79871,"lng":135.759661,"zip":"6100300"},{"town":"普賢寺公家谷","koaza":"","lat":34.786943,"lng":135.760819,"zip":"6100300"},{"town":"普賢寺口北谷","koaza":"","lat":34.797371,"lng":135.755338,"zip":"6100300"},{"town":"普賢寺暗狩","koaza":"","lat":34.797483,"lng":135.747685,"zip":"6100300"},{"town":"普賢寺下司","koaza":"","lat":34.797085,"lng":135.763503,"zip":"6100300"},{"town":"普賢寺御所ノ内","koaza":"","lat":34.791404,"lng":135.758031,"zip":"6100300"},{"town":"普賢寺佐倉谷","koaza":"","lat":34.793383,"lng":135.744833,"zip":"6100300"},{"town":"普賢寺下大門","koaza":"","lat":34.794955,"lng":135.761691,"zip":"6100300"},{"town":"普賢寺砂子谷","koaza":"","lat":34.794675,"lng":135.752787,"zip":"6100300"},{"town":"普賢寺千草原","koaza":"","lat":34.79508,"lng":135.7488,"zip":"6100300"},{"town":"普賢寺峠ノ裏","koaza":"","lat":34.795642,"lng":135.74553,"zip":"6100300"},{"town":"普賢寺中島","koaza":"","lat":34.79305,"lng":135.765859,"zip":"6100300"},{"town":"普賢寺野神","koaza":"","lat":34.789197,"lng":135.761026,"zip":"6100300"},{"town":"普賢寺針木谷","koaza":"","lat":34.798553,"lng":135.751021,"zip":"6100300"},{"town":"普賢寺渕尻","koaza":"","lat":34.788261,"lng":135.757392,"zip":"6100300"},{"town":"普賢寺若林","koaza":"","lat":34.792394,"lng":135.747157,"zip":"6100300"},{"town":"松井今池","koaza":"","lat":34.841075,"lng":135.728469,"zip":"6100300"},{"town":"松井魚田","koaza":"","lat":34.848998,"lng":135.73891,"zip":"6100300"},{"town":"松井大ケ市","koaza":"","lat":34.843392,"lng":135.732985,"zip":"6100300"},{"town":"松井奥池","koaza":"","lat":34.835021,"lng":135.730982,"zip":"6100300"},{"town":"松井奥大谷","koaza":"","lat":34.827673,"lng":135.724007,"zip":"6100300"},{"town":"松井奥仲谷","koaza":"","lat":34.826116,"lng":135.731351,"zip":"6100300"},{"town":"松井ケ丘一丁目","koaza":"","lat":34.833164,"lng":135.732678,"zip":"6100353"},{"town":"松井ケ丘三丁目","koaza":"","lat":34.833771,"lng":135.730246,"zip":"6100353"},{"town":"松井ケ丘四丁目","koaza":"","lat":34.82965,"lng":135.732386,"zip":"6100353"},{"town":"松井柏原","koaza":"","lat":34.846657,"lng":135.728974,"zip":"6100300"},{"town":"松井交野ケ原","koaza":"","lat":34.827153,"lng":135.723613,"zip":"6100300"},{"town":"松井叶堂","koaza":"","lat":34.84259,"lng":135.734342,"zip":"6100300"},{"town":"松井鐘付田","koaza":"","lat":34.849829,"lng":135.732272,"zip":"6100300"},{"town":"松井上池ノ谷","koaza":"","lat":34.839765,"lng":135.731553,"zip":"6100300"},{"town":"松井上西浦","koaza":"","lat":34.842279,"lng":135.730619,"zip":"6100300"},{"town":"松井北ケ市","koaza":"","lat":34.847204,"lng":135.732178,"zip":"6100300"},{"town":"松井北川原","koaza":"","lat":34.853056,"lng":135.733725,"zip":"6100300"},{"town":"松井口大谷","koaza":"","lat":34.83821,"lng":135.72243,"zip":"6100300"},{"town":"松井口仲谷","koaza":"","lat":34.838464,"lng":135.725867,"zip":"6100300"},{"town":"松井口広谷","koaza":"","lat":34.836885,"lng":135.723009,"zip":"6100300"},{"town":"松井久保","koaza":"","lat":34.852139,"lng":135.73575,"zip":"6100300"},{"town":"松井古松井","koaza":"","lat":34.845387,"lng":135.737018,"zip":"6100300"},{"town":"松井里ケ市","koaza":"","lat":34.845361,"lng":135.733437,"zip":"6100300"},{"town":"松井蛇見ケ谷","koaza":"","lat":34.836408,"lng":135.734226,"zip":"6100300"},{"town":"松井諏訪ケ原","koaza":"","lat":34.841216,"lng":135.732917,"zip":"6100300"},{"town":"松井相合","koaza":"","lat":34.842397,"lng":135.735835,"zip":"6100300"},{"town":"松井千原","koaza":"","lat":34.849609,"lng":135.735734,"zip":"6100300"},{"town":"松井手水ケ谷","koaza":"","lat":34.837772,"lng":135.721647,"zip":"6100300"},{"town":"松井栂谷","koaza":"","lat":34.841141,"lng":135.723394,"zip":"6100300"},{"town":"松井西浦","koaza":"","lat":34.841979,"lng":135.729863,"zip":"6100300"},{"town":"松井入道ケ谷","koaza":"","lat":34.83652,"lng":135.734887,"zip":"6100300"},{"town":"松井野田","koaza":"","lat":34.849179,"lng":135.731092,"zip":"6100300"},{"town":"松井古川","koaza":"","lat":34.848118,"lng":135.733826,"zip":"6100300"},{"town":"松井宮田","koaza":"","lat":34.841119,"lng":135.725948,"zip":"6100300"},{"town":"松井向井","koaza":"","lat":34.847058,"lng":135.735693,"zip":"6100300"},{"town":"松井向谷","koaza":"","lat":34.838679,"lng":135.734692,"zip":"6100300"},{"town":"松井向山","koaza":"","lat":34.84364,"lng":135.731638,"zip":"6100300"},{"town":"松井山川","koaza":"","lat":34.847907,"lng":135.729289,"zip":"6100300"},{"town":"松井六ノ坪","koaza":"","lat":34.850408,"lng":135.737807,"zip":"6100300"},{"town":"水取医王","koaza":"","lat":34.78279,"lng":135.750825,"zip":"6100300"},{"town":"水取池ケ谷","koaza":"","lat":34.776628,"lng":135.751972,"zip":"6100300"},{"town":"水取池ケ原","koaza":"","lat":34.782358,"lng":135.764518,"zip":"6100300"},{"town":"水取稲葉","koaza":"","lat":34.789232,"lng":135.752352,"zip":"6100300"},{"town":"水取岩神","koaza":"","lat":34.779512,"lng":135.749103,"zip":"6100300"},{"town":"水取梅ノ木峠","koaza":"","lat":34.77866,"lng":135.756901,"zip":"6100300"},{"town":"水取御家","koaza":"","lat":34.786044,"lng":135.752452,"zip":"6100300"},{"town":"水取御苗代","koaza":"","lat":34.77758,"lng":135.74983,"zip":"6100300"},{"town":"水取帰リ坂","koaza":"","lat":34.773832,"lng":135.749958,"zip":"6100300"},{"town":"水取門田","koaza":"","lat":34.782685,"lng":135.75219,"zip":"6100300"},{"town":"水取車谷","koaza":"","lat":34.781021,"lng":135.753564,"zip":"6100300"},{"town":"水取黒岩","koaza":"","lat":34.783317,"lng":135.747801,"zip":"6100300"},{"town":"水取菰谷","koaza":"","lat":34.772886,"lng":135.75517,"zip":"6100300"},{"town":"水取錆","koaza":"","lat":34.785308,"lng":135.750783,"zip":"6100300"},{"town":"水取地蔵講","koaza":"","lat":34.784424,"lng":135.754288,"zip":"6100300"},{"town":"水取清水","koaza":"","lat":34.787629,"lng":135.75359,"zip":"6100300"},{"town":"水取清水谷","koaza":"","lat":34.778813,"lng":135.75264,"zip":"6100300"},{"town":"水取菖蒲谷","koaza":"","lat":34.779482,"lng":135.751013,"zip":"6100300"},{"town":"水取浄楽","koaza":"","lat":34.78332,"lng":135.750508,"zip":"6100300"},{"town":"水取須鎌","koaza":"","lat":34.776484,"lng":135.756593,"zip":"6100300"},{"town":"水取高井鎌","koaza":"","lat":34.78219,"lng":135.7533,"zip":"6100300"},{"town":"水取高井谷","koaza":"","lat":34.7814,"lng":135.75588,"zip":"6100300"},{"town":"水取寺ケ谷","koaza":"","lat":34.771759,"lng":135.751906,"zip":"6100300"},{"town":"水取浪江","koaza":"","lat":34.777691,"lng":135.747969,"zip":"6100300"},{"town":"水取西光明谷","koaza":"","lat":34.782926,"lng":135.758393,"zip":"6100300"},{"town":"水取信谷","koaza":"","lat":34.788198,"lng":135.747655,"zip":"6100300"},{"town":"水取羽川","koaza":"","lat":34.775733,"lng":135.75377,"zip":"6100300"},{"town":"水取鳩ケ鼻","koaza":"","lat":34.784934,"lng":135.746631,"zip":"6100300"},{"town":"水取般若","koaza":"","lat":34.780962,"lng":135.749368,"zip":"6100300"},{"town":"水取東光明谷","koaza":"","lat":34.784818,"lng":135.75886,"zip":"6100300"},{"town":"水取日ノ滝","koaza":"","lat":34.786645,"lng":135.746732,"zip":"6100300"},{"town":"水取平","koaza":"","lat":34.787356,"lng":135.755222,"zip":"6100300"},{"town":"水取平作","koaza":"","lat":34.78689,"lng":135.749458,"zip":"6100300"},{"town":"水取鬼灯","koaza":"","lat":34.775228,"lng":135.748216,"zip":"6100300"},{"town":"宮津浅池","koaza":"","lat":34.782795,"lng":135.779459,"zip":"6100300"},{"town":"宮津池ノ内","koaza":"","lat":34.790137,"lng":135.787004,"zip":"6100300"},{"town":"宮津大井池","koaza":"","lat":34.789045,"lng":135.78449,"zip":"6100300"},{"town":"宮津大木","koaza":"","lat":34.787888,"lng":135.784775,"zip":"6100300"},{"town":"宮津柿ケ坪","koaza":"","lat":34.793221,"lng":135.789028,"zip":"6100300"},{"town":"宮津上川原","koaza":"","lat":34.789084,"lng":135.7947,"zip":"6100300"},{"town":"宮津川田","koaza":"","lat":34.791821,"lng":135.792711,"zip":"6100300"},{"town":"宮津河ノ谷","koaza":"","lat":34.781798,"lng":135.780999,"zip":"6100300"},{"town":"宮津北浦","koaza":"","lat":34.787353,"lng":135.780039,"zip":"6100300"},{"town":"宮津北ノ谷","koaza":"","lat":34.782425,"lng":135.771414,"zip":"6100300"},{"town":"宮津切山","koaza":"","lat":34.793841,"lng":135.792094,"zip":"6100300"},{"town":"宮津佐牙垣内","koaza":"","lat":34.791299,"lng":135.784046,"zip":"6100300"},{"town":"宮津サコデ","koaza":"","lat":34.782123,"lng":135.783506,"zip":"6100300"},{"town":"宮津清水","koaza":"","lat":34.791525,"lng":135.789229,"zip":"6100300"},{"town":"宮津下川原","koaza":"","lat":34.792213,"lng":135.794624,"zip":"6100300"},{"town":"宮津白山","koaza":"","lat":34.785313,"lng":135.78009,"zip":"6100300"},{"town":"宮津塚本","koaza":"","lat":34.786298,"lng":135.784568,"zip":"6100300"},{"town":"宮津鳥羽田","koaza":"","lat":34.784719,"lng":135.784625,"zip":"6100300"},{"town":"宮津中川原","koaza":"","lat":34.789858,"lng":135.795633,"zip":"6100300"},{"town":"宮津中ノ谷","koaza":"","lat":34.781422,"lng":135.773205,"zip":"6100300"},{"town":"宮津中ノ町","koaza":"","lat":34.7901,"lng":135.788534,"zip":"6100300"},{"town":"宮津西浦","koaza":"","lat":34.789523,"lng":135.781623,"zip":"6100300"},{"town":"宮津西外島","koaza":"","lat":34.791789,"lng":135.79659,"zip":"6100300"},{"town":"宮津灰崎","koaza":"","lat":34.792695,"lng":135.786867,"zip":"6100300"},{"town":"宮津東垣内","koaza":"","lat":34.786303,"lng":135.786191,"zip":"6100300"},{"town":"宮津東外島","koaza":"","lat":34.792193,"lng":135.798111,"zip":"6100300"},{"town":"宮津平谷","koaza":"","lat":34.783252,"lng":135.785182,"zip":"6100300"},{"town":"宮津古垣内","koaza":"","lat":34.79171,"lng":135.790987,"zip":"6100300"},{"town":"宮津南ノ谷","koaza":"","lat":34.781227,"lng":135.776174,"zip":"6100300"},{"town":"宮津宮ノ下","koaza":"","lat":34.793247,"lng":135.784543,"zip":"6100300"},{"town":"宮津宮ノ前","koaza":"","lat":34.784001,"lng":135.781707,"zip":"6100300"},{"town":"宮津屋敷田","koaza":"","lat":34.786717,"lng":135.782483,"zip":"6100300"},{"town":"三山木綾ケ谷","koaza":"","lat":34.791869,"lng":135.776484,"zip":"6100300"},{"town":"三山木荒馬","koaza":"","lat":34.802729,"lng":135.788092,"zip":"6100300"},{"town":"三山木荒間","koaza":"","lat":34.802588,"lng":135.785669,"zip":"6100300"},{"town":"三山木井路外","koaza":"","lat":34.795941,"lng":135.796406,"zip":"6100300"},{"town":"三山木石田","koaza":"","lat":34.805349,"lng":135.779845,"zip":"6100300"},{"town":"三山木遠藤","koaza":"","lat":34.795377,"lng":135.792944,"zip":"6100300"},{"town":"三山木大南山","koaza":"","lat":34.793695,"lng":135.778345,"zip":"6100300"},{"town":"三山木奥山田","koaza":"","lat":34.784786,"lng":135.769113,"zip":"6100300"},{"town":"三山木小畑","koaza":"","lat":34.804049,"lng":135.782567,"zip":"6100300"},{"town":"三山木垣内","koaza":"","lat":34.799749,"lng":135.793027,"zip":"6100300"},{"town":"三山木垣ノ内","koaza":"","lat":34.804438,"lng":135.77784,"zip":"6100300"},{"town":"三山木上切山","koaza":"","lat":34.794829,"lng":135.786371,"zip":"6100300"},{"town":"三山木上谷浦","koaza":"","lat":34.798636,"lng":135.779812,"zip":"6100300"},{"town":"三山木上ノ浜","koaza":"","lat":34.795104,"lng":135.796642,"zip":"6100300"},{"town":"三山木川口","koaza":"","lat":34.798674,"lng":135.794793,"zip":"6100300"},{"town":"三山木川端","koaza":"","lat":34.80521,"lng":135.780992,"zip":"6100300"},{"town":"三山木北垣内","koaza":"","lat":34.795527,"lng":135.783615,"zip":"6100300"},{"town":"三山木口駒ケ谷","koaza":"","lat":34.795254,"lng":135.773383,"zip":"6100300"},{"town":"三山木口山田","koaza":"","lat":34.789611,"lng":135.778713,"zip":"6100300"},{"town":"三山木黒ケ町","koaza":"","lat":34.797662,"lng":135.792639,"zip":"6100300"},{"town":"三山木小坂","koaza":"","lat":34.799258,"lng":135.776896,"zip":"6100300"},{"town":"三山木越前","koaza":"","lat":34.795405,"lng":135.778515,"zip":"6100300"},{"town":"三山木直田","koaza":"","lat":34.797594,"lng":135.789414,"zip":"6100300"},{"town":"三山木芝","koaza":"","lat":34.804975,"lng":135.784973,"zip":"6100300"},{"town":"三山木芝山","koaza":"","lat":34.791682,"lng":135.778449,"zip":"6100300"},{"town":"三山木下川原","koaza":"","lat":34.801264,"lng":135.794332,"zip":"6100300"},{"town":"三山木下切山","koaza":"","lat":34.794725,"lng":135.789358,"zip":"6100300"},{"town":"三山木下ノ浜","koaza":"","lat":34.795245,"lng":135.786615,"zip":"6100300"},{"town":"三山木西羅","koaza":"","lat":34.793411,"lng":135.780976,"zip":"6100300"},{"town":"三山木善入山","koaza":"","lat":34.795725,"lng":135.78123,"zip":"6100300"},{"town":"三山木田中","koaza":"","lat":34.801216,"lng":135.784339,"zip":"6100300"},{"town":"三山木谷垣内","koaza":"","lat":34.797598,"lng":135.779725,"zip":"6100300"},{"town":"三山木谷ノ上","koaza":"","lat":34.796376,"lng":135.779493,"zip":"6100300"},{"town":"三山木堤下","koaza":"","lat":34.795417,"lng":135.789497,"zip":"6100300"},{"town":"三山木天神山","koaza":"","lat":34.803005,"lng":135.77582,"zip":"6100300"},{"town":"三山木道中","koaza":"","lat":34.801648,"lng":135.789885,"zip":"6100300"},{"town":"三山木塔ノ島","koaza":"","lat":34.800497,"lng":135.789344,"zip":"6100300"},{"town":"三山木外島","koaza":"","lat":34.797954,"lng":135.797875,"zip":"6100300"},{"town":"三山木中山田","koaza":"","lat":34.78681,"lng":135.77645,"zip":"6100300"},{"town":"三山木七瀬川","koaza":"","lat":34.801333,"lng":135.776196,"zip":"6100300"},{"town":"三山木西荒木","koaza":"","lat":34.802025,"lng":135.782633,"zip":"6100300"},{"town":"三山木西角田","koaza":"","lat":34.800479,"lng":135.78027,"zip":"6100300"},{"town":"三山木西ノ河原","koaza":"","lat":34.801749,"lng":135.778345,"zip":"6100300"},{"town":"三山木野神","koaza":"","lat":34.8029,"lng":135.779914,"zip":"6100300"},{"town":"三山木初メ","koaza":"","lat":34.799547,"lng":135.779128,"zip":"6100300"},{"town":"三山木八ノ坪","koaza":"","lat":34.796747,"lng":135.79262,"zip":"6100300"},{"town":"三山木八反坪","koaza":"","lat":34.798712,"lng":135.789321,"zip":"6100300"},{"town":"三山木浜中","koaza":"","lat":34.803628,"lng":135.785248,"zip":"6100300"},{"town":"三山木東荒木","koaza":"","lat":34.800703,"lng":135.793015,"zip":"6100300"},{"town":"三山木東角田","koaza":"","lat":34.801137,"lng":135.784746,"zip":"6100300"},{"town":"三山木檜","koaza":"","lat":34.801558,"lng":135.786581,"zip":"6100300"},{"town":"三山木平田","koaza":"","lat":34.796752,"lng":135.789453,"zip":"6100300"},{"town":"三山木古屋敷","koaza":"","lat":34.798707,"lng":135.792724,"zip":"6100300"},{"town":"三山木見尊田","koaza":"","lat":34.799691,"lng":135.78934,"zip":"6100300"},{"town":"三山木南垣内","koaza":"","lat":34.793901,"lng":135.782903,"zip":"6100300"},{"town":"三山木南山","koaza":"","lat":34.796207,"lng":135.777267,"zip":"6100300"},{"town":"三山木山崎","koaza":"","lat":34.796703,"lng":135.783212,"zip":"6100300"},{"town":"三山木山田","koaza":"","lat":34.791433,"lng":135.780924,"zip":"6100300"},{"town":"三山木柚ノ木","koaza":"","lat":34.797995,"lng":135.777197,"zip":"6100300"},{"town":"山手中央","koaza":"","lat":34.833957,"lng":135.725508,"zip":"6100356"},{"town":"山手西一丁目","koaza":"","lat":34.834323,"lng":135.721936,"zip":"6100355"},{"town":"山手西二丁目","koaza":"","lat":34.832116,"lng":135.72121,"zip":"6100355"},{"town":"山手西三丁目","koaza":"","lat":34.829788,"lng":135.721357,"zip":"6100355"},{"town":"山手東一丁目","koaza":"","lat":34.835784,"lng":135.728477,"zip":"6100357"},{"town":"山手東二丁目","koaza":"","lat":34.836326,"lng":135.727032,"zip":"6100357"},{"town":"山手南一丁目","koaza":"","lat":34.830545,"lng":135.724686,"zip":"6100354"},{"town":"山手南二丁目","koaza":"","lat":34.830498,"lng":135.728251,"zip":"6100354"},{"town":"山手南三丁目","koaza":"","lat":34.828878,"lng":135.730224,"zip":"6100354"},{"town":"山手南四丁目","koaza":"","lat":34.828496,"lng":135.727072,"zip":"6100354"},{"town":"松井乾角","koaza":"","lat":34.850653,"lng":135.730147,"zip":"6100300"},{"town":"松井川田","koaza":"","lat":34.851154,"lng":135.733341,"zip":"6100300"},{"town":"松井直田","koaza":"","lat":34.851111,"lng":135.731514,"zip":"6100300"},{"town":"大住責谷","koaza":"","lat":34.822886,"lng":135.741088,"zip":"6100300"},{"town":"大住仲ノ谷","koaza":"","lat":34.823312,"lng":135.745738,"zip":"6100300"},{"town":"大住吸戸","koaza":"","lat":34.819299,"lng":135.740028,"zip":"6100300"},{"town":"薪平田谷","koaza":"","lat":34.821022,"lng":135.747534,"zip":"6100300"},{"town":"三山木中央六丁目","koaza":"","lat":34.799624,"lng":135.780745,"zip":"6100300"},{"town":"三山木中央七丁目","koaza":"","lat":34.801228,"lng":135.781729,"zip":"6100300"},{"town":"三山木中央八丁目","koaza":"","lat":34.800026,"lng":135.784391,"zip":"6100300"},{"town":"三山木中央九丁目","koaza":"","lat":34.800229,"lng":135.786706,"zip":"6100300"},{"town":"三山木中央一丁目","koaza":"","lat":34.798336,"lng":135.785223,"zip":"6100300"},{"town":"三山木中央二丁目","koaza":"","lat":34.797813,"lng":135.78712,"zip":"6100300"},{"town":"三山木中央四丁目","koaza":"","lat":34.796911,"lng":135.785489,"zip":"6100300"},{"town":"三山木中央三丁目","koaza":"","lat":34.795873,"lng":135.786112,"zip":"6100300"},{"town":"三山木中央五丁目","koaza":"","lat":34.798535,"lng":135.7821,"zip":"6100300"}]