[{"town":"嵐山朝月町","koaza":"","lat":35.002107,"lng":135.6876,"zip":"6160022"},{"town":"嵐山内田町","koaza":"","lat":35.004505,"lng":135.683717,"zip":"6160027"},{"town":"嵐山上海道町","koaza":"","lat":35.008105,"lng":135.682002,"zip":"6160016"},{"town":"嵐山上河原町","koaza":"","lat":35.012025,"lng":135.682228,"zip":"6160001"},{"town":"嵐山北松尾山","koaza":"","lat":35.019047,"lng":135.650819,"zip":"6100000"},{"town":"嵐山元録山町","koaza":"","lat":35.009641,"lng":135.670446,"zip":"6160007"},{"town":"嵐山虚空蔵山町","koaza":"","lat":35.009323,"lng":135.677298,"zip":"6160006"},{"town":"嵐山谷ケ辻子町","koaza":"","lat":35.0061,"lng":135.683433,"zip":"6160014"},{"town":"嵐山茶尻町","koaza":"","lat":35.009912,"lng":135.683706,"zip":"6160017"},{"town":"嵐山中尾下町","koaza":"","lat":35.010067,"lng":135.678975,"zip":"6160004"},{"town":"嵐山西一川町","koaza":"","lat":35.010435,"lng":135.680707,"zip":"6160003"},{"town":"嵐山東一川町","koaza":"","lat":35.010314,"lng":135.682245,"zip":"6160002"},{"town":"嵐山東海道町","koaza":"","lat":35.00806,"lng":135.686289,"zip":"6160012"},{"town":"嵐山樋ノ上町","koaza":"","lat":35.010322,"lng":135.686021,"zip":"6160011"},{"town":"嵐山風呂ノ橋町","koaza":"","lat":35.006145,"lng":135.687139,"zip":"6160013"},{"town":"嵐山宮町","koaza":"","lat":35.000015,"lng":135.683221,"zip":"6160024"},{"town":"嵐山宮ノ北町","koaza":"","lat":35.001285,"lng":135.684606,"zip":"6160025"},{"town":"嵐山宮ノ前町","koaza":"","lat":35.000158,"lng":135.688048,"zip":"6160023"},{"town":"嵐山森ノ前町","koaza":"","lat":35.004679,"lng":135.687268,"zip":"6160021"},{"town":"嵐山薬師下町","koaza":"","lat":35.003023,"lng":135.684281,"zip":"6160026"},{"town":"嵐山山田町","koaza":"","lat":35.008138,"lng":135.679213,"zip":"6160005"},{"town":"嵐山山ノ下町","koaza":"","lat":35.005936,"lng":135.681469,"zip":"6160015"},{"town":"牛ケ瀬青柳町","koaza":"","lat":34.973353,"lng":135.718111,"zip":"6158041"},{"town":"牛ケ瀬葭ノ本","koaza":"","lat":34.971852,"lng":135.719844,"zip":"6100000"},{"town":"牛ケ瀬奥ノ防町","koaza":"","lat":34.973916,"lng":135.715669,"zip":"6158032"},{"town":"牛ケ瀬川原口町","koaza":"","lat":34.972355,"lng":135.718844,"zip":"6158042"},{"town":"牛ケ瀬新開","koaza":"","lat":34.972431,"lng":135.72108,"zip":"6100000"},{"town":"牛ケ瀬新田泓町","koaza":"","lat":34.970715,"lng":135.718812,"zip":"6158043"},{"town":"牛ケ瀬高刎町","koaza":"","lat":34.978408,"lng":135.715813,"zip":"6100000"},{"town":"牛ケ瀬堂田町","koaza":"","lat":34.969545,"lng":135.716778,"zip":"6158052"},{"town":"牛ケ瀬西柿町","koaza":"","lat":34.971268,"lng":135.715287,"zip":"6158051"},{"town":"牛ケ瀬林ノ本町","koaza":"","lat":34.975591,"lng":135.71643,"zip":"6158031"},{"town":"牛ケ瀬的場","koaza":"","lat":34.976227,"lng":135.717963,"zip":"6100000"},{"town":"牛ケ瀬見附","koaza":"","lat":34.969684,"lng":135.721062,"zip":"6100000"},{"town":"牛ケ瀬南ノ口町","koaza":"","lat":34.971091,"lng":135.717114,"zip":"6158045"},{"town":"牛ケ瀬山柿町","koaza":"","lat":34.969331,"lng":135.718504,"zip":"6158044"},{"town":"牛ケ瀬弥生町","koaza":"","lat":34.971767,"lng":135.717743,"zip":"6158046"},{"town":"大枝北沓掛町一丁目","koaza":"","lat":34.989701,"lng":135.655565,"zip":"6101101"},{"town":"大枝北沓掛町二丁目","koaza":"","lat":34.986354,"lng":135.656906,"zip":"6101101"},{"town":"大枝北沓掛町三丁目","koaza":"","lat":34.984566,"lng":135.654843,"zip":"6101101"},{"town":"大枝北沓掛町四丁目","koaza":"","lat":34.982964,"lng":135.65754,"zip":"6101101"},{"town":"大枝北沓掛町五丁目","koaza":"","lat":34.981337,"lng":135.664387,"zip":"6101101"},{"town":"大枝北沓掛町六丁目","koaza":"","lat":34.978809,"lng":135.665312,"zip":"6101101"},{"town":"大枝北沓掛町七丁目","koaza":"","lat":34.979826,"lng":135.666716,"zip":"6101101"},{"town":"大枝北福西町一丁目","koaza":"","lat":34.963966,"lng":135.679396,"zip":"6101112"},{"town":"大枝北福西町二丁目","koaza":"","lat":34.96143,"lng":135.68415,"zip":"6101112"},{"town":"大枝北福西町三丁目","koaza":"","lat":34.960788,"lng":135.682255,"zip":"6101112"},{"town":"大枝北福西町四丁目","koaza":"","lat":34.961223,"lng":135.679931,"zip":"6101112"},{"town":"大枝沓掛町","koaza":"","lat":34.9842,"lng":135.646045,"zip":"6101106"},{"town":"大枝塚原町","koaza":"","lat":34.976365,"lng":135.671869,"zip":"6101105"},{"town":"大枝中山町","koaza":"","lat":34.972555,"lng":135.677152,"zip":"6101104"},{"town":"大枝西新林町一丁目","koaza":"","lat":34.97196,"lng":135.667018,"zip":"6101141"},{"town":"大枝西新林町二丁目","koaza":"","lat":34.971423,"lng":135.669966,"zip":"6101141"},{"town":"大枝西新林町三丁目","koaza":"","lat":34.970001,"lng":135.668242,"zip":"6101141"},{"town":"大枝西新林町四丁目","koaza":"","lat":34.967843,"lng":135.670472,"zip":"6101141"},{"town":"大枝西新林町五丁目","koaza":"","lat":34.967708,"lng":135.667959,"zip":"6101141"},{"town":"大枝西新林町六丁目","koaza":"","lat":34.968171,"lng":135.665675,"zip":"6101141"},{"town":"大枝西長町","koaza":"","lat":34.97015,"lng":135.658571,"zip":"6101151"},{"town":"大枝東新林町一丁目","koaza":"","lat":34.969903,"lng":135.672007,"zip":"6101142"},{"town":"大枝東新林町二丁目","koaza":"","lat":34.96785,"lng":135.674981,"zip":"6101142"},{"town":"大枝東新林町三丁目","koaza":"","lat":34.966778,"lng":135.6726,"zip":"6101142"},{"town":"大枝東長町","koaza":"","lat":34.967781,"lng":135.679798,"zip":"6101111"},{"town":"大枝南福西町一丁目","koaza":"","lat":34.957997,"lng":135.683171,"zip":"6101113"},{"town":"大枝南福西町二丁目","koaza":"","lat":34.956395,"lng":135.686985,"zip":"6101113"},{"town":"大枝南福西町三丁目","koaza":"","lat":34.955946,"lng":135.684097,"zip":"6101113"},{"town":"大原野石作町","koaza":"","lat":34.946705,"lng":135.632918,"zip":"6101134"},{"town":"大原野出灰町","koaza":"","lat":34.93658,"lng":135.611042,"zip":"6101135"},{"town":"大原野石見町","koaza":"","lat":34.94816,"lng":135.67987,"zip":"6101128"},{"town":"大原野上羽町","koaza":"","lat":34.948121,"lng":135.673037,"zip":"6101131"},{"town":"大原野小塩町","koaza":"","lat":34.938017,"lng":135.647817,"zip":"6101133"},{"town":"大原野上里男鹿町","koaza":"","lat":34.949203,"lng":135.687068,"zip":"6101126"},{"town":"大原野上里勝山町","koaza":"","lat":34.948253,"lng":135.690467,"zip":"6101125"},{"town":"大原野上里北ノ町","koaza":"","lat":34.953764,"lng":135.681761,"zip":"6101121"},{"town":"大原野上里鳥見町","koaza":"","lat":34.94674,"lng":135.690958,"zip":"6101127"},{"town":"大原野上里南ノ町","koaza":"","lat":34.949701,"lng":135.684857,"zip":"6101123"},{"town":"大原野上里紅葉町","koaza":"","lat":34.949961,"lng":135.689564,"zip":"6101124"},{"town":"大原野北春日町","koaza":"","lat":34.966925,"lng":135.647299,"zip":"6101152"},{"town":"大原野外畑町","koaza":"","lat":34.963898,"lng":135.62303,"zip":"6101136"},{"town":"大原野西境谷町一丁目","koaza":"","lat":34.963456,"lng":135.667351,"zip":"6101146"},{"town":"大原野西境谷町二丁目","koaza":"","lat":34.96396,"lng":135.669835,"zip":"6101146"},{"town":"大原野西境谷町三丁目","koaza":"","lat":34.961329,"lng":135.671407,"zip":"6101146"},{"town":"大原野西境谷町四丁目","koaza":"","lat":34.959924,"lng":135.668906,"zip":"6101146"},{"town":"大原野西竹の里町一丁目","koaza":"","lat":34.957715,"lng":135.66994,"zip":"6101145"},{"town":"大原野西竹の里町二丁目","koaza":"","lat":34.957442,"lng":135.673919,"zip":"6101145"},{"town":"大原野灰方町","koaza":"","lat":34.945213,"lng":135.665716,"zip":"6101132"},{"town":"大原野東境谷町一丁目","koaza":"","lat":34.964321,"lng":135.673029,"zip":"6101143"},{"town":"大原野東境谷町二丁目","koaza":"","lat":34.962856,"lng":135.676451,"zip":"6101143"},{"town":"大原野東境谷町三丁目","koaza":"","lat":34.961754,"lng":135.674588,"zip":"6101143"},{"town":"大原野東竹の里町一丁目","koaza":"","lat":34.959603,"lng":135.674811,"zip":"6101144"},{"town":"大原野東竹の里町二丁目","koaza":"","lat":34.958925,"lng":135.678927,"zip":"6101144"},{"town":"大原野東竹の里町三丁目","koaza":"","lat":34.95614,"lng":135.679968,"zip":"6101144"},{"town":"大原野東竹の里町四丁目","koaza":"","lat":34.956598,"lng":135.676512,"zip":"6101144"},{"town":"大原野東野町","koaza":"","lat":34.947984,"lng":135.695299,"zip":"6101122"},{"town":"大原野南春日町","koaza":"","lat":34.960645,"lng":135.637087,"zip":"6101153"},{"town":"樫原畔ノ海道","koaza":"","lat":34.970491,"lng":135.693435,"zip":"6158142"},{"town":"樫原池ノ上町","koaza":"","lat":34.975414,"lng":135.691287,"zip":"6158178"},{"town":"樫原石畑町","koaza":"","lat":34.975106,"lng":135.695888,"zip":"6158181"},{"town":"樫原井戸","koaza":"","lat":34.970037,"lng":135.695368,"zip":"6158133"},{"town":"樫原芋峠","koaza":"","lat":34.971015,"lng":135.68069,"zip":"6158157"},{"town":"樫原宇治井町","koaza":"","lat":34.974453,"lng":135.694748,"zip":"6158185"},{"town":"樫原宇治井西町","koaza":"","lat":34.974656,"lng":135.693261,"zip":"6158172"},{"town":"樫原内垣外町","koaza":"","lat":34.970396,"lng":135.690387,"zip":"6158152"},{"town":"樫原江ノ本町","koaza":"","lat":34.971071,"lng":135.694663,"zip":"6158135"},{"town":"樫原大亀谷","koaza":"","lat":34.967689,"lng":135.688482,"zip":"6158155"},{"town":"樫原岡南ノ庄","koaza":"","lat":34.968386,"lng":135.691072,"zip":"6158154"},{"town":"樫原上池田町","koaza":"","lat":34.973783,"lng":135.690447,"zip":"6158176"},{"town":"樫原上ノ町","koaza":"","lat":34.974121,"lng":135.689341,"zip":"6158162"},{"town":"樫原釘貫","koaza":"","lat":34.968586,"lng":135.692147,"zip":"6158144"},{"town":"樫原口戸","koaza":"","lat":34.972089,"lng":135.694703,"zip":"6158136"},{"town":"樫原久保町","koaza":"","lat":34.975954,"lng":135.692491,"zip":"6158171"},{"town":"樫原甲水","koaza":"","lat":34.969057,"lng":135.697619,"zip":"6158116"},{"town":"樫原五反田","koaza":"","lat":34.972092,"lng":135.695926,"zip":"6158131"},{"town":"樫原権現原","koaza":"","lat":34.969104,"lng":135.689166,"zip":"6100000"},{"town":"樫原里ノ垣外町","koaza":"","lat":34.968967,"lng":135.693482,"zip":"6158143"},{"town":"樫原鴫谷","koaza":"","lat":34.974129,"lng":135.682401,"zip":"6158164"},{"town":"樫原下池田町","koaza":"","lat":34.97388,"lng":135.69285,"zip":"6158173"},{"town":"樫原下ノ町","koaza":"","lat":34.974536,"lng":135.690728,"zip":"6158177"},{"town":"樫原勝後谷","koaza":"","lat":34.969808,"lng":135.688128,"zip":"6100000"},{"town":"樫原杉原町","koaza":"","lat":34.972021,"lng":135.690479,"zip":"6158151"},{"town":"樫原角田町","koaza":"","lat":34.970047,"lng":135.692436,"zip":"6158145"},{"town":"樫原蛸田町","koaza":"","lat":34.975762,"lng":135.689877,"zip":"6158161"},{"town":"樫原田中町","koaza":"","lat":34.971066,"lng":135.692302,"zip":"6158146"},{"town":"樫原茶ノ木本町","koaza":"","lat":34.97423,"lng":135.696179,"zip":"6158182"},{"town":"樫原塚ノ本町","koaza":"","lat":34.972449,"lng":135.692185,"zip":"6158147"},{"town":"樫原佃","koaza":"","lat":34.975791,"lng":135.694934,"zip":"6158186"},{"town":"樫原百々ケ池","koaza":"","lat":34.970538,"lng":135.686849,"zip":"6158156"},{"town":"樫原中垣外","koaza":"","lat":34.973008,"lng":135.690939,"zip":"6158174"},{"town":"樫原庭井","koaza":"","lat":34.971147,"lng":135.695911,"zip":"6158132"},{"town":"樫原硲町","koaza":"","lat":34.972876,"lng":135.68962,"zip":"6158175"},{"town":"樫原秤谷町","koaza":"","lat":34.971644,"lng":135.685533,"zip":"6158158"},{"town":"樫原八反田","koaza":"","lat":34.971119,"lng":135.698282,"zip":"6158122"},{"town":"樫原比恵田町","koaza":"","lat":34.968979,"lng":135.695333,"zip":"6158134"},{"town":"樫原平田町","koaza":"","lat":34.972525,"lng":135.693389,"zip":"6158141"},{"town":"樫原盆山","koaza":"","lat":34.974628,"lng":135.687398,"zip":"6158165"},{"town":"樫原前田町","koaza":"","lat":34.970441,"lng":135.691601,"zip":"6158153"},{"town":"樫原水築町","koaza":"","lat":34.9731,"lng":135.694724,"zip":"6158184"},{"town":"樫原三宅町","koaza":"","lat":34.972233,"lng":135.697109,"zip":"6158124"},{"town":"樫原山路","koaza":"","lat":34.971061,"lng":135.697087,"zip":"6158123"},{"town":"樫原山ノ上町","koaza":"","lat":34.973691,"lng":135.688183,"zip":"6158163"},{"town":"樫原六反田","koaza":"","lat":34.970052,"lng":135.697669,"zip":"6158117"},{"town":"樫原分田","koaza":"","lat":34.973382,"lng":135.695824,"zip":"6158183"},{"town":"桂浅原町","koaza":"","lat":34.981613,"lng":135.712038,"zip":"6158021"},{"town":"桂朝日町","koaza":"","lat":34.980606,"lng":135.709556,"zip":"6158027"},{"town":"桂池尻町","koaza":"","lat":34.98743,"lng":135.703838,"zip":"6158081"},{"town":"桂市ノ前町","koaza":"","lat":34.978574,"lng":135.708022,"zip":"6158026"},{"town":"桂稲荷山町","koaza":"","lat":34.978175,"lng":135.710224,"zip":"6158025"},{"town":"桂乾町","koaza":"","lat":34.984268,"lng":135.698208,"zip":"6158086"},{"town":"桂艮町","koaza":"","lat":34.985165,"lng":135.700264,"zip":"6158083"},{"town":"桂大縄町","koaza":"","lat":34.991076,"lng":135.708767,"zip":"6158011"},{"town":"桂春日町","koaza":"","lat":34.981918,"lng":135.708719,"zip":"6158071"},{"town":"桂上野今井町","koaza":"","lat":34.99845,"lng":135.701012,"zip":"6158007"},{"town":"桂上野川原町","koaza":"","lat":34.996428,"lng":135.707398,"zip":"6158008"},{"town":"桂上野北町","koaza":"","lat":34.997027,"lng":135.701969,"zip":"6158001"},{"town":"桂上野新田町","koaza":"","lat":34.995863,"lng":135.705722,"zip":"6100000"},{"town":"桂上野中町","koaza":"","lat":34.995848,"lng":135.70234,"zip":"6158002"},{"town":"桂上野西町","koaza":"","lat":34.995728,"lng":135.699862,"zip":"6158006"},{"town":"桂上野東町","koaza":"","lat":34.995077,"lng":135.704107,"zip":"6158003"},{"town":"桂上野南町","koaza":"","lat":34.993609,"lng":135.701341,"zip":"6158005"},{"town":"桂上豆田町","koaza":"","lat":34.984691,"lng":135.703632,"zip":"6158082"},{"town":"桂河田町","koaza":"","lat":34.987575,"lng":135.706622,"zip":"6158017"},{"town":"桂北滝川町","koaza":"","lat":34.97959,"lng":135.712606,"zip":"6158022"},{"town":"桂木ノ下町","koaza":"","lat":34.979906,"lng":135.706961,"zip":"6158072"},{"town":"桂後水町","koaza":"","lat":34.987513,"lng":135.708465,"zip":"6158012"},{"town":"桂御所町","koaza":"","lat":34.986713,"lng":135.701814,"zip":"6158087"},{"town":"桂芝ノ下町","koaza":"","lat":34.982566,"lng":135.706216,"zip":"6158077"},{"town":"桂清水町","koaza":"","lat":34.98662,"lng":135.709774,"zip":"6158013"},{"town":"桂下豆田町","koaza":"","lat":34.982629,"lng":135.703792,"zip":"6158076"},{"town":"桂滝川町","koaza":"","lat":34.979457,"lng":135.714731,"zip":"6100000"},{"town":"桂巽町","koaza":"","lat":34.982505,"lng":135.700997,"zip":"6158075"},{"town":"桂千代原町","koaza":"","lat":34.982558,"lng":135.696704,"zip":"6158085"},{"town":"桂徳大寺北町","koaza":"","lat":34.99079,"lng":135.704795,"zip":"6158301"},{"town":"桂徳大寺町","koaza":"","lat":34.990586,"lng":135.706482,"zip":"6158018"},{"town":"桂徳大寺東町","koaza":"","lat":34.989628,"lng":135.707676,"zip":"6158303"},{"town":"桂徳大寺南町","koaza":"","lat":34.988826,"lng":135.705666,"zip":"6158302"},{"town":"桂西滝川町","koaza":"","lat":34.978503,"lng":135.712134,"zip":"6158024"},{"town":"桂野里町","koaza":"","lat":34.980191,"lng":135.704519,"zip":"6158073"},{"town":"桂畑ケ田町","koaza":"","lat":34.992769,"lng":135.704348,"zip":"6158004"},{"town":"桂久方町","koaza":"","lat":34.985234,"lng":135.706836,"zip":"6158016"},{"town":"桂坤町","koaza":"","lat":34.980585,"lng":135.696854,"zip":"6158084"},{"town":"桂御園","koaza":"","lat":34.984066,"lng":135.710587,"zip":"6158014"},{"town":"桂南滝川町","koaza":"","lat":34.977879,"lng":135.714358,"zip":"6158023"},{"town":"桂南巽町","koaza":"","lat":34.980517,"lng":135.700964,"zip":"6158074"},{"town":"上桂今井町","koaza":"","lat":34.996206,"lng":135.697314,"zip":"6158201"},{"town":"上桂大野町","koaza":"","lat":34.991833,"lng":135.697813,"zip":"6158215"},{"town":"上桂北ノ口町","koaza":"","lat":34.993244,"lng":135.699697,"zip":"6158212"},{"town":"上桂北村町","koaza":"","lat":34.991869,"lng":135.701707,"zip":"6158213"},{"town":"上桂三ノ宮町","koaza":"","lat":34.986141,"lng":135.696626,"zip":"6158224"},{"town":"上桂西居町","koaza":"","lat":34.990368,"lng":135.69871,"zip":"6158228"},{"town":"上桂東居町","koaza":"","lat":34.991069,"lng":135.700481,"zip":"6158214"},{"town":"上桂東ノ口町","koaza":"","lat":34.989602,"lng":135.70363,"zip":"6158221"},{"town":"上桂樋ノ口町","koaza":"","lat":34.997415,"lng":135.696689,"zip":"6158208"},{"town":"上桂前川町","koaza":"","lat":34.993695,"lng":135.697858,"zip":"6158211"},{"town":"上桂前田町","koaza":"","lat":34.988132,"lng":135.699223,"zip":"6158223"},{"town":"上桂御正町","koaza":"","lat":34.989206,"lng":135.70158,"zip":"6158222"},{"town":"上桂宮ノ後町","koaza":"","lat":34.989617,"lng":135.69683,"zip":"6158227"},{"town":"上桂森上町","koaza":"","lat":34.988949,"lng":135.694183,"zip":"6158226"},{"town":"上桂森下町","koaza":"","lat":34.98606,"lng":135.694191,"zip":"6158225"},{"town":"川島有栖川町","koaza":"","lat":34.978055,"lng":135.700995,"zip":"6158191"},{"town":"川島粟田町","koaza":"","lat":34.975559,"lng":135.698127,"zip":"6158194"},{"town":"川島梅園町","koaza":"","lat":34.967655,"lng":135.701419,"zip":"6158113"},{"town":"川島北裏町","koaza":"","lat":34.97844,"lng":135.704387,"zip":"6158107"},{"town":"川島五反長町","koaza":"","lat":34.96904,"lng":135.703885,"zip":"6158104"},{"town":"川島権田町","koaza":"","lat":34.978076,"lng":135.695246,"zip":"6158195"},{"town":"川島桜園町","koaza":"","lat":34.966391,"lng":135.701959,"zip":"6158114"},{"town":"川島三重町","koaza":"","lat":34.969649,"lng":135.699813,"zip":"6158118"},{"town":"川島尻堀町","koaza":"","lat":34.978037,"lng":135.698056,"zip":"6158196"},{"town":"川島竹園町","koaza":"","lat":34.96938,"lng":135.701922,"zip":"6158112"},{"town":"川島玉頭町","koaza":"","lat":34.975254,"lng":135.701127,"zip":"6158193"},{"town":"川島調子町","koaza":"","lat":34.973074,"lng":135.698294,"zip":"6158125"},{"town":"川島寺田町","koaza":"","lat":34.97682,"lng":135.70114,"zip":"6158192"},{"town":"川島流田町","koaza":"","lat":34.966631,"lng":135.700381,"zip":"6158115"},{"town":"川島滑樋町","koaza":"","lat":34.974868,"lng":135.703598,"zip":"6158106"},{"town":"川島野田町","koaza":"","lat":34.973005,"lng":135.700693,"zip":"6158121"},{"town":"川島東代町","koaza":"","lat":34.976026,"lng":135.706782,"zip":"6158101"},{"town":"川島松園町","koaza":"","lat":34.971652,"lng":135.701932,"zip":"6158111"},{"town":"川島松ノ木本町","koaza":"","lat":34.973078,"lng":135.705401,"zip":"6158102"},{"town":"川島莚田町","koaza":"","lat":34.971783,"lng":135.703546,"zip":"6158105"},{"town":"川島六ノ坪町","koaza":"","lat":34.96555,"lng":135.703656,"zip":"6158103"},{"town":"京都大学桂","koaza":"","lat":34.983016,"lng":135.678394,"zip":"6158246"},{"town":"御陵荒木町","koaza":"","lat":34.977946,"lng":135.691847,"zip":"6158233"},{"town":"御陵池ノ谷","koaza":"","lat":34.976673,"lng":135.686043,"zip":"6158244"},{"town":"御陵内町","koaza":"","lat":34.979381,"lng":135.691176,"zip":"6158235"},{"town":"御陵大枝山","koaza":"","lat":34.980275,"lng":135.66941,"zip":"6101102"},{"town":"御陵大枝山町一丁目","koaza":"","lat":34.986621,"lng":135.659527,"zip":"6101102"},{"town":"御陵大枝山町二丁目","koaza":"","lat":34.987045,"lng":135.664234,"zip":"6101102"},{"town":"御陵大枝山町三丁目","koaza":"","lat":34.98726,"lng":135.667108,"zip":"6101102"},{"town":"御陵大枝山町四丁目","koaza":"","lat":34.983491,"lng":135.668764,"zip":"6101102"},{"town":"御陵大枝山町五丁目","koaza":"","lat":34.984131,"lng":135.663622,"zip":"6101102"},{"town":"御陵大枝山町六丁目","koaza":"","lat":34.983337,"lng":135.659147,"zip":"6101102"},{"town":"御陵大原","koaza":"","lat":34.976272,"lng":135.683173,"zip":"6158245"},{"town":"御陵御茶屋山","koaza":"","lat":34.977579,"lng":135.68472,"zip":"6158243"},{"town":"御陵北大枝山町","koaza":"","lat":34.990193,"lng":135.665278,"zip":"6101107"},{"town":"御陵北山下町","koaza":"","lat":34.98048,"lng":135.689358,"zip":"6158252"},{"town":"御陵北山町","koaza":"","lat":34.980262,"lng":135.687715,"zip":"6158253"},{"town":"御陵鴫谷","koaza":"","lat":34.975971,"lng":135.687768,"zip":"6158242"},{"town":"御陵谷町","koaza":"","lat":34.977784,"lng":135.688063,"zip":"6158241"},{"town":"御陵塚ノ越町","koaza":"","lat":34.978009,"lng":135.689786,"zip":"6158234"},{"town":"御陵細谷","koaza":"","lat":34.97951,"lng":135.678192,"zip":"6158254"},{"town":"御陵溝浦町","koaza":"","lat":34.979503,"lng":135.693011,"zip":"6158231"},{"town":"御陵南荒木町","koaza":"","lat":34.9775,"lng":135.693298,"zip":"6158232"},{"town":"御陵南谷","koaza":"","lat":34.976016,"lng":135.680483,"zip":"6100000"},{"town":"御陵峰ケ堂","koaza":"","lat":34.987644,"lng":135.675705,"zip":"6101103"},{"town":"御陵峰ケ堂町一丁目","koaza":"","lat":34.986047,"lng":135.673063,"zip":"6101103"},{"town":"御陵峰ケ堂町二丁目","koaza":"","lat":34.982755,"lng":135.674856,"zip":"6101103"},{"town":"御陵峰ケ堂町三丁目","koaza":"","lat":34.983435,"lng":135.672147,"zip":"6101103"},{"town":"下津林北浦町","koaza":"","lat":34.976115,"lng":135.709786,"zip":"6158061"},{"town":"下津林楠町","koaza":"","lat":34.974518,"lng":135.708283,"zip":"6158065"},{"town":"下津林芝ノ宮町","koaza":"","lat":34.972669,"lng":135.712339,"zip":"6158035"},{"town":"下津林大般若町","koaza":"","lat":34.975999,"lng":135.712122,"zip":"6158037"},{"town":"下津林佃","koaza":"","lat":34.970683,"lng":135.708974,"zip":"6158055"},{"town":"下津林津森","koaza":"","lat":34.969184,"lng":135.708884,"zip":"6100000"},{"town":"下津林中島町","koaza":"","lat":34.97001,"lng":135.714751,"zip":"6158053"},{"town":"下津林番条","koaza":"","lat":34.970692,"lng":135.711176,"zip":"6158056"},{"town":"下津林番条町","koaza":"","lat":34.970293,"lng":135.712361,"zip":"6158057"},{"town":"下津林東芝ノ宮町","koaza":"","lat":34.97268,"lng":135.714127,"zip":"6158034"},{"town":"下津林東大般若町","koaza":"","lat":34.975939,"lng":135.714522,"zip":"6158033"},{"town":"下津林前泓町","koaza":"","lat":34.973095,"lng":135.710392,"zip":"6158062"},{"town":"下津林水掛町","koaza":"","lat":34.972633,"lng":135.706998,"zip":"6158064"},{"town":"下津林南大般若町","koaza":"","lat":34.974298,"lng":135.71256,"zip":"6158036"},{"town":"下津林南中島町","koaza":"","lat":34.968924,"lng":135.714012,"zip":"6158054"},{"town":"下津林八島","koaza":"","lat":34.970205,"lng":135.706171,"zip":"6100000"},{"town":"下津林六反田","koaza":"","lat":34.972411,"lng":135.708925,"zip":"6158063"},{"town":"下山田上園尾町","koaza":"","lat":34.99335,"lng":135.67512,"zip":"6100000"},{"town":"下山田下園尾町","koaza":"","lat":34.988765,"lng":135.68138,"zip":"6100000"},{"town":"下山田丁塚町","koaza":"","lat":34.988673,"lng":135.674332,"zip":"6100000"},{"town":"松尾井戸町","koaza":"","lat":34.991861,"lng":135.689296,"zip":"6158283"},{"town":"松尾上ノ山町","koaza":"","lat":34.991285,"lng":135.688053,"zip":"6158284"},{"town":"松尾北松尾山","koaza":"","lat":35.013156,"lng":135.647147,"zip":"6100000"},{"town":"松尾木ノ曽町","koaza":"","lat":34.991825,"lng":135.69407,"zip":"6158281"},{"town":"松尾神ケ谷町","koaza":"","lat":34.991828,"lng":135.682439,"zip":"6158286"},{"town":"松尾鈴川町","koaza":"","lat":34.992642,"lng":135.695398,"zip":"6158216"},{"town":"松尾大利町","koaza":"","lat":34.992551,"lng":135.691518,"zip":"6158282"},{"town":"松尾谷松尾山町","koaza":"","lat":34.999157,"lng":135.676828,"zip":"6100000"},{"town":"松尾東ノ口町","koaza":"","lat":34.993819,"lng":135.696015,"zip":"6158217"},{"town":"松尾万石町","koaza":"","lat":34.993058,"lng":135.68752,"zip":"6158287"},{"town":"松尾南松尾山","koaza":"","lat":35.001394,"lng":135.65931,"zip":"6100000"},{"town":"松室吾田神町","koaza":"","lat":34.996352,"lng":135.694846,"zip":"6158202"},{"town":"松室荒堀町","koaza":"","lat":34.995466,"lng":135.692023,"zip":"6158203"},{"town":"松室追上ゲ町","koaza":"","lat":34.998252,"lng":135.687763,"zip":"6158206"},{"town":"松室扇田町","koaza":"","lat":34.995943,"lng":135.688481,"zip":"6158291"},{"town":"松室河原町","koaza":"","lat":34.998772,"lng":135.689571,"zip":"6158207"},{"town":"松室北河原町","koaza":"","lat":34.995918,"lng":135.691231,"zip":"6158204"},{"town":"松室北松尾山","koaza":"","lat":35.005481,"lng":135.664884,"zip":"6100000"},{"town":"松室地家町","koaza":"","lat":34.993607,"lng":135.686029,"zip":"6158294"},{"town":"松室地家山","koaza":"","lat":34.9943,"lng":135.685075,"zip":"6158295"},{"town":"松室庄田町","koaza":"","lat":34.994422,"lng":135.689075,"zip":"6158293"},{"town":"松室田中町","koaza":"","lat":34.995006,"lng":135.688532,"zip":"6158292"},{"town":"松室中溝町","koaza":"","lat":34.997296,"lng":135.69015,"zip":"6158205"},{"town":"松室山添町","koaza":"","lat":34.996544,"lng":135.684613,"zip":"6158296"},{"town":"山田上ノ町","koaza":"","lat":34.987737,"lng":135.688289,"zip":"6158274"},{"town":"山田大吉見町","koaza":"","lat":34.980848,"lng":135.692111,"zip":"6158236"},{"town":"山田御道路町","koaza":"","lat":34.983863,"lng":135.688682,"zip":"6158265"},{"town":"山田北ノ町","koaza":"","lat":34.991075,"lng":135.686115,"zip":"6158285"},{"town":"山田北山田町","koaza":"","lat":34.986216,"lng":135.689445,"zip":"6158267"},{"town":"山田車塚町","koaza":"","lat":34.983324,"lng":135.692286,"zip":"6158238"},{"town":"山田桜谷町","koaza":"","lat":34.988523,"lng":135.684332,"zip":"6100000"},{"town":"山田四ノ坪町","koaza":"","lat":34.986014,"lng":135.691998,"zip":"6158262"},{"town":"山田島子尾","koaza":"","lat":34.998184,"lng":135.643908,"zip":"6100000"},{"town":"山田庄田町","koaza":"","lat":34.986872,"lng":135.691996,"zip":"6158261"},{"town":"山田谷田山","koaza":"","lat":34.987438,"lng":135.680041,"zip":"6100000"},{"town":"山田弦馳町","koaza":"","lat":34.989578,"lng":135.69117,"zip":"6158271"},{"town":"山田出口町","koaza":"","lat":34.987874,"lng":135.690215,"zip":"6158273"},{"town":"山田中吉見町","koaza":"","lat":34.98201,"lng":135.69259,"zip":"6158237"},{"town":"山田猫塚町","koaza":"","lat":34.982502,"lng":135.690294,"zip":"6158251"},{"town":"山田捻木尾","koaza":"","lat":34.993463,"lng":135.657374,"zip":"6100000"},{"town":"山田箱塚町","koaza":"","lat":34.984544,"lng":135.684451,"zip":"6158255"},{"town":"山田畑田町","koaza":"","lat":34.989038,"lng":135.692254,"zip":"6158272"},{"town":"山田葉室町","koaza":"","lat":34.989312,"lng":135.688454,"zip":"6158277"},{"town":"山田久田町","koaza":"","lat":34.984983,"lng":135.692002,"zip":"6158263"},{"town":"山田平尾町","koaza":"","lat":34.983141,"lng":135.686332,"zip":"6158256"},{"town":"山田開キ町","koaza":"","lat":34.988662,"lng":135.686746,"zip":"6158276"},{"town":"山田南町","koaza":"","lat":34.986335,"lng":135.687072,"zip":"6158275"},{"town":"山田南松尾山","koaza":"","lat":35.001136,"lng":135.64991,"zip":"6100000"},{"town":"山田南山田町","koaza":"","lat":34.984645,"lng":135.688972,"zip":"6158266"},{"town":"山田六ノ坪町","koaza":"","lat":34.984,"lng":135.69198,"zip":"6158264"}]