[{"town":"太秦青木ケ原町","koaza":"","lat":35.018385,"lng":135.70363,"zip":"6168171"},{"town":"太秦青木元町","koaza":"","lat":35.016928,"lng":135.703207,"zip":"6168172"},{"town":"太秦荒木町","koaza":"","lat":35.007942,"lng":135.707221,"zip":"6168136"},{"town":"太秦石垣町","koaza":"","lat":35.011274,"lng":135.704164,"zip":"6168166"},{"town":"太秦和泉式部町","koaza":"","lat":35.017289,"lng":135.713627,"zip":"6168101"},{"town":"太秦一ノ井町","koaza":"","lat":35.016432,"lng":135.710792,"zip":"6168107"},{"town":"太秦一町芝町","koaza":"","lat":35.017251,"lng":135.697801,"zip":"6168175"},{"town":"太秦井戸ケ尻町","koaza":"","lat":35.012248,"lng":135.711724,"zip":"6168122"},{"town":"太秦乾町","koaza":"","lat":35.018916,"lng":135.697417,"zip":"6168176"},{"town":"太秦馬塚町","koaza":"","lat":35.018369,"lng":135.700884,"zip":"6168177"},{"town":"太秦奥殿町","koaza":"","lat":35.01176,"lng":135.706847,"zip":"6168127"},{"town":"太秦面影町","koaza":"","lat":35.011576,"lng":135.700695,"zip":"6168153"},{"town":"太秦海正寺町","koaza":"","lat":35.011512,"lng":135.710154,"zip":"6168123"},{"town":"太秦開日町","koaza":"","lat":35.021755,"lng":135.697535,"zip":"6168185"},{"town":"太秦垣内町","koaza":"","lat":35.014373,"lng":135.709985,"zip":"6168121"},{"town":"太秦帷子ケ辻町","koaza":"","lat":35.015472,"lng":135.699856,"zip":"6168151"},{"town":"太秦桂ケ原町","koaza":"","lat":35.013375,"lng":135.706136,"zip":"6168165"},{"town":"太秦桂木町","koaza":"","lat":35.014023,"lng":135.705863,"zip":"6168164"},{"town":"太秦上刑部町","koaza":"","lat":35.012644,"lng":135.715178,"zip":"6168103"},{"town":"太秦上ノ段町","koaza":"","lat":35.016638,"lng":135.701824,"zip":"6168173"},{"town":"太秦唐渡町","koaza":"","lat":35.00528,"lng":135.70818,"zip":"6168134"},{"town":"太秦川所町","koaza":"","lat":35.006667,"lng":135.704945,"zip":"6168143"},{"town":"太秦北路町","koaza":"","lat":35.020926,"lng":135.700464,"zip":"6168182"},{"town":"太秦木ノ下町","koaza":"","lat":35.007291,"lng":135.715529,"zip":"6168112"},{"town":"太秦京ノ道町","koaza":"","lat":35.021375,"lng":135.702592,"zip":"6168181"},{"town":"太秦組石町","koaza":"","lat":35.01243,"lng":135.708664,"zip":"6168125"},{"town":"太秦御所ノ内町","koaza":"","lat":35.01335,"lng":135.698714,"zip":"6168157"},{"town":"太秦小手角町","koaza":"","lat":35.007814,"lng":135.708461,"zip":"6168135"},{"town":"太秦御領田町","koaza":"","lat":35.024711,"lng":135.695902,"zip":"6168187"},{"town":"太秦三尾町","koaza":"","lat":35.025353,"lng":135.700367,"zip":"6168192"},{"town":"太秦下角田町","koaza":"","lat":35.009084,"lng":135.714712,"zip":"6168111"},{"town":"太秦下刑部町","koaza":"","lat":35.010575,"lng":135.714955,"zip":"6168104"},{"town":"太秦朱雀町","koaza":"","lat":35.009893,"lng":135.708407,"zip":"6168137"},{"town":"太秦椙ケ本町","koaza":"","lat":35.010562,"lng":135.707489,"zip":"6168126"},{"town":"太秦滝ケ花町","koaza":"","lat":35.007727,"lng":135.709875,"zip":"6168132"},{"town":"太秦巽町","koaza":"","lat":35.005502,"lng":135.713825,"zip":"6168114"},{"town":"太秦棚森町","koaza":"","lat":35.009168,"lng":135.705947,"zip":"6168141"},{"town":"太秦多藪町","koaza":"","lat":35.013116,"lng":135.703387,"zip":"6160000"},{"town":"太秦垂箕山町","koaza":"","lat":35.016332,"lng":135.700329,"zip":"6168174"},{"town":"太秦辻ケ本町","koaza":"","lat":35.012929,"lng":135.710179,"zip":"6168124"},{"town":"太秦土本町","koaza":"","lat":35.008833,"lng":135.704769,"zip":"6168147"},{"town":"太秦中筋町","koaza":"","lat":35.020333,"lng":135.697531,"zip":"6168184"},{"town":"太秦中堤町","koaza":"","lat":35.006288,"lng":135.708311,"zip":"6168133"},{"town":"太秦中山町","koaza":"","lat":35.025247,"lng":135.702395,"zip":"6168191"},{"town":"太秦西野町","koaza":"","lat":35.01131,"lng":135.698823,"zip":"6168156"},{"town":"太秦西蜂岡町","koaza":"","lat":35.016049,"lng":135.704131,"zip":"6168163"},{"town":"太秦野元町","koaza":"","lat":35.007661,"lng":135.714018,"zip":"6168113"},{"town":"太秦袴田町","koaza":"","lat":35.008476,"lng":135.700017,"zip":"6168155"},{"town":"太秦蜂岡町","koaza":"","lat":35.016111,"lng":135.706469,"zip":"6168162"},{"town":"太秦八反田町","koaza":"","lat":35.00796,"lng":135.702097,"zip":"6168145"},{"town":"太秦東唐渡町","koaza":"","lat":35.005495,"lng":135.711366,"zip":"6168115"},{"town":"太秦東蜂岡町","koaza":"","lat":35.016385,"lng":135.708609,"zip":"6168161"},{"town":"太秦樋ノ内町","koaza":"","lat":35.006831,"lng":135.706032,"zip":"6168142"},{"town":"太秦藤ケ森町","koaza":"","lat":35.009693,"lng":135.710133,"zip":"6168131"},{"town":"太秦堀池町","koaza":"","lat":35.023113,"lng":135.696204,"zip":"6168186"},{"town":"太秦堀ケ内町","koaza":"","lat":35.013735,"lng":135.701077,"zip":"6168152"},{"town":"太秦前ノ田町","koaza":"","lat":35.009437,"lng":135.702851,"zip":"6168146"},{"town":"太秦松本町","koaza":"","lat":35.007514,"lng":135.711868,"zip":"6168116"},{"town":"太秦皆正寺町","koaza":"","lat":35.010018,"lng":135.700479,"zip":"6168154"},{"town":"太秦宮ノ前町","koaza":"","lat":35.019735,"lng":135.700539,"zip":"6168183"},{"town":"太秦森ケ西町","koaza":"","lat":35.015056,"lng":135.711398,"zip":"6168106"},{"town":"太秦森ケ東町","koaza":"","lat":35.015291,"lng":135.714281,"zip":"6168102"},{"town":"太秦森ケ前町","koaza":"","lat":35.011699,"lng":135.713047,"zip":"6168105"},{"town":"太秦門田町","koaza":"","lat":35.00969,"lng":135.711747,"zip":"6168117"},{"town":"太秦安井池田町","koaza":"","lat":35.015034,"lng":135.716877,"zip":"6168081"},{"town":"太秦安井一町田町","koaza":"","lat":35.012012,"lng":135.717908,"zip":"6168084"},{"town":"太秦安井馬塚町","koaza":"","lat":35.015195,"lng":135.721338,"zip":"6168077"},{"town":"太秦安井奥畑町","koaza":"","lat":35.014837,"lng":135.718103,"zip":"6168082"},{"town":"太秦安井春日町","koaza":"","lat":35.016776,"lng":135.723218,"zip":"6168062"},{"town":"太秦安井北御所町","koaza":"","lat":35.016507,"lng":135.719881,"zip":"6168064"},{"town":"太秦安井車道町","koaza":"","lat":35.018022,"lng":135.720486,"zip":"6168066"},{"town":"太秦安井小山町","koaza":"","lat":35.019141,"lng":135.720544,"zip":"6168067"},{"town":"太秦安井辰巳町","koaza":"","lat":35.01431,"lng":135.723272,"zip":"6168072"},{"town":"太秦安井辻ノ内町","koaza":"","lat":35.015149,"lng":135.719527,"zip":"6168076"},{"town":"太秦安井西裏町","koaza":"","lat":35.016197,"lng":135.717696,"zip":"6168065"},{"town":"太秦安井西沢町","koaza":"","lat":35.012175,"lng":135.719109,"zip":"6168083"},{"town":"太秦安井二条裏町","koaza":"","lat":35.012696,"lng":135.721331,"zip":"6168074"},{"town":"太秦安井東裏町","koaza":"","lat":35.016484,"lng":135.721842,"zip":"6168063"},{"town":"太秦安井藤ノ木町","koaza":"","lat":35.015386,"lng":135.723288,"zip":"6168071"},{"town":"太秦安井松本町","koaza":"","lat":35.010637,"lng":135.716975,"zip":"6168085"},{"town":"太秦安井水戸田町","koaza":"","lat":35.01276,"lng":135.723379,"zip":"6168073"},{"town":"太秦安井柳通町","koaza":"","lat":35.014038,"lng":135.720615,"zip":"6168075"},{"town":"太秦百合ケ本町","koaza":"","lat":35.007237,"lng":135.703552,"zip":"6168144"},{"town":"宇多野御池町","koaza":"","lat":35.026506,"lng":135.710736,"zip":"6168204"},{"town":"宇多野御屋敷町","koaza":"","lat":35.024402,"lng":135.710058,"zip":"6168205"},{"town":"宇多野上ノ谷町","koaza":"","lat":35.031533,"lng":135.708274,"zip":"6168252"},{"town":"宇多野北ノ院町","koaza":"","lat":35.030435,"lng":135.712215,"zip":"6168201"},{"town":"宇多野柴橋町","koaza":"","lat":35.02719,"lng":135.712079,"zip":"6168203"},{"town":"宇多野芝町","koaza":"","lat":35.029713,"lng":135.71112,"zip":"6168209"},{"town":"宇多野長尾町","koaza":"","lat":35.026384,"lng":135.709319,"zip":"6168207"},{"town":"宇多野馬場町","koaza":"","lat":35.028518,"lng":135.711457,"zip":"6168202"},{"town":"宇多野福王子町","koaza":"","lat":35.028843,"lng":135.709234,"zip":"6168208"},{"town":"宇多野法安寺町","koaza":"","lat":35.025279,"lng":135.707843,"zip":"6168206"},{"town":"梅ケ畑猪ノ尻町","koaza":"","lat":35.038748,"lng":135.687615,"zip":"6168272"},{"town":"梅ケ畑上砥町","koaza":"","lat":35.048204,"lng":135.682401,"zip":"6168282"},{"town":"梅ケ畑上ノ町","koaza":"","lat":35.0393,"lng":135.684989,"zip":"6168274"},{"town":"梅ケ畑馬谷西平","koaza":"","lat":35.083772,"lng":135.645709,"zip":"6160000"},{"town":"梅ケ畑馬谷東平","koaza":"","lat":35.083271,"lng":135.64981,"zip":"6160000"},{"town":"梅ケ畑雲心寺西平","koaza":"","lat":35.087092,"lng":135.635641,"zip":"6160000"},{"town":"梅ケ畑雲心寺東平","koaza":"","lat":35.086829,"lng":135.640966,"zip":"6160000"},{"town":"梅ケ畑奥殿町","koaza":"","lat":35.044408,"lng":135.680653,"zip":"6168283"},{"town":"梅ケ畑篝町","koaza":"","lat":35.042003,"lng":135.684545,"zip":"6168275"},{"town":"梅ケ畑風吹","koaza":"","lat":35.074687,"lng":135.645763,"zip":"6160000"},{"town":"梅ケ畑亀石町","koaza":"","lat":35.080451,"lng":135.687256,"zip":"6168297"},{"town":"梅ケ畑川西町","koaza":"","lat":35.069398,"lng":135.68043,"zip":"6168296"},{"town":"梅ケ畑川東","koaza":"","lat":35.066707,"lng":135.684469,"zip":"6160000"},{"town":"梅ケ畑久保谷町","koaza":"","lat":35.046505,"lng":135.679835,"zip":"6168281"},{"town":"梅ケ畑御所ノ口町","koaza":"","lat":35.054867,"lng":135.674841,"zip":"6168286"},{"town":"梅ケ畑笹江辺町","koaza":"","lat":35.05514,"lng":135.676925,"zip":"6168288"},{"town":"梅ケ畑清水町","koaza":"","lat":35.043709,"lng":135.686471,"zip":"6168276"},{"town":"梅ケ畑菖蒲谷","koaza":"","lat":35.046209,"lng":135.672841,"zip":"6168278"},{"town":"梅ケ畑高雄町","koaza":"","lat":35.055146,"lng":135.670675,"zip":"6168292"},{"town":"梅ケ畑高鼻町","koaza":"","lat":35.044085,"lng":135.689836,"zip":"6168261"},{"town":"梅ケ畑谷山","koaza":"","lat":35.069983,"lng":135.671932,"zip":"6160000"},{"town":"梅ケ畑谷山川西","koaza":"","lat":35.061612,"lng":135.66402,"zip":"6160000"},{"town":"梅ケ畑冷水","koaza":"","lat":35.072431,"lng":135.65335,"zip":"6160000"},{"town":"梅ケ畑寺尾","koaza":"","lat":35.079025,"lng":135.658746,"zip":"6160000"},{"town":"梅ケ畑栂尾町","koaza":"","lat":35.061085,"lng":135.67695,"zip":"6168295"},{"town":"梅ケ畑殿畑町","koaza":"","lat":35.057294,"lng":135.676545,"zip":"6168293"},{"town":"梅ケ畑鳥坂谷","koaza":"","lat":35.07767,"lng":135.65417,"zip":"6160000"},{"town":"梅ケ畑中嶋町","koaza":"","lat":35.055449,"lng":135.675766,"zip":"6168287"},{"town":"梅ケ畑中田町","koaza":"","lat":35.038233,"lng":135.691572,"zip":"6168266"},{"town":"梅ケ畑中縄手町","koaza":"","lat":35.040195,"lng":135.686206,"zip":"6168273"},{"town":"梅ケ畑西ノ畑町","koaza":"","lat":35.055872,"lng":135.674023,"zip":"6168289"},{"town":"梅ケ畑畑ノ下町","koaza":"","lat":35.036431,"lng":135.693305,"zip":"6168263"},{"town":"梅ケ畑畑町","koaza":"","lat":35.037329,"lng":135.693095,"zip":"6168265"},{"town":"梅ケ畑燧岩谷","koaza":"","lat":35.078757,"lng":135.662744,"zip":"6160000"},{"town":"梅ケ畑引地町","koaza":"","lat":35.056857,"lng":135.676981,"zip":"6168294"},{"town":"梅ケ畑檜社町","koaza":"","lat":35.053947,"lng":135.675789,"zip":"6168285"},{"town":"梅ケ畑広芝町","koaza":"","lat":35.044419,"lng":135.683363,"zip":"6168277"},{"town":"梅ケ畑古田町","koaza":"","lat":35.039158,"lng":135.68859,"zip":"6168268"},{"town":"梅ケ畑槇尾町","koaza":"","lat":35.05956,"lng":135.673768,"zip":"6168291"},{"town":"梅ケ畑増井西平","koaza":"","lat":35.086378,"lng":135.653263,"zip":"6160000"},{"town":"梅ケ畑増井東平","koaza":"","lat":35.087614,"lng":135.65631,"zip":"6160000"},{"town":"梅ケ畑真野ケ百合","koaza":"","lat":35.076299,"lng":135.650905,"zip":"6160000"},{"town":"梅ケ畑御経坂町","koaza":"","lat":35.053045,"lng":135.676361,"zip":"6168284"},{"town":"梅ケ畑水谷","koaza":"","lat":35.088882,"lng":135.662536,"zip":"6160000"},{"town":"梅ケ畑宮ノ口町","koaza":"","lat":35.040206,"lng":135.687422,"zip":"6168271"},{"town":"梅ケ畑向井山","koaza":"","lat":35.057468,"lng":135.687205,"zip":"6160000"},{"town":"梅ケ畑向ノ地町","koaza":"","lat":35.033801,"lng":135.69484,"zip":"6168262"},{"town":"梅ケ畑藪ノ下町","koaza":"","lat":35.03596,"lng":135.69538,"zip":"6160000"},{"town":"梅ケ畑山崎町","koaza":"","lat":35.037448,"lng":135.690319,"zip":"6168267"},{"town":"梅ケ畑行衛谷","koaza":"","lat":35.077433,"lng":135.665296,"zip":"6160000"},{"town":"梅ケ畑蓮華谷","koaza":"","lat":35.048852,"lng":135.679717,"zip":"6160000"},{"town":"梅津石灘町","koaza":"","lat":35.001165,"lng":135.707506,"zip":"6150905"},{"town":"梅津上田町","koaza":"","lat":35.005124,"lng":135.704181,"zip":"6150932"},{"town":"梅津大縄場町","koaza":"","lat":34.999778,"lng":135.692578,"zip":"6150925"},{"town":"梅津構口町","koaza":"","lat":35.000781,"lng":135.704195,"zip":"6150912"},{"town":"梅津神田町","koaza":"","lat":35.000802,"lng":135.710339,"zip":"6150902"},{"town":"梅津北浦町","koaza":"","lat":35.004299,"lng":135.700614,"zip":"6150934"},{"town":"梅津北川町","koaza":"","lat":35.006372,"lng":135.697729,"zip":"6150937"},{"town":"梅津北広町","koaza":"","lat":35.004109,"lng":135.711105,"zip":"6160000"},{"town":"梅津北町","koaza":"","lat":35.002513,"lng":135.702076,"zip":"6150911"},{"town":"梅津後藤町","koaza":"","lat":35.00438,"lng":135.702522,"zip":"6150933"},{"town":"梅津坂本町","koaza":"","lat":35.007033,"lng":135.700832,"zip":"6150938"},{"town":"梅津尻溝町","koaza":"","lat":35.001116,"lng":135.693436,"zip":"6150924"},{"town":"梅津高畝町","koaza":"","lat":35.00264,"lng":135.708687,"zip":"6150906"},{"town":"梅津段町","koaza":"","lat":35.004236,"lng":135.70693,"zip":"6150907"},{"town":"梅津堤上町","koaza":"","lat":34.999712,"lng":135.706846,"zip":"6150904"},{"town":"梅津堤下町","koaza":"","lat":34.999099,"lng":135.707541,"zip":"6150903"},{"town":"梅津徳丸町","koaza":"","lat":35.003902,"lng":135.697474,"zip":"6150935"},{"town":"梅津中倉町","koaza":"","lat":35.001973,"lng":135.69377,"zip":"6150923"},{"town":"梅津中村町","koaza":"","lat":35.000822,"lng":135.698984,"zip":"6150916"},{"town":"梅津西浦町","koaza":"","lat":35.002603,"lng":135.697513,"zip":"6150917"},{"town":"梅津林口町","koaza":"","lat":35.004828,"lng":135.697357,"zip":"6150936"},{"town":"梅津東構口町","koaza":"","lat":35.001414,"lng":135.70483,"zip":"6150914"},{"town":"梅津開キ町","koaza":"","lat":35.005929,"lng":135.7006,"zip":"6150931"},{"town":"梅津フケノ川町","koaza":"","lat":35.005083,"lng":135.69424,"zip":"6150921"},{"town":"梅津罧原町","koaza":"","lat":35.005081,"lng":135.692202,"zip":"6150926"},{"town":"梅津前田町","koaza":"","lat":35.003011,"lng":135.694058,"zip":"6150922"},{"town":"梅津南上田町","koaza":"","lat":35.003013,"lng":135.704859,"zip":"6150913"},{"town":"梅津南広町","koaza":"","lat":35.001877,"lng":135.712984,"zip":"6150901"},{"town":"梅津南町","koaza":"","lat":35.000349,"lng":135.702653,"zip":"6150915"},{"town":"御室大内","koaza":"","lat":35.03354,"lng":135.711522,"zip":"6168092"},{"town":"御室岡ノ裾町","koaza":"","lat":35.025467,"lng":135.714166,"zip":"6168096"},{"town":"御室小松野町","koaza":"","lat":35.027042,"lng":135.714683,"zip":"6168094"},{"town":"御室芝橋町","koaza":"","lat":35.026897,"lng":135.713209,"zip":"6168095"},{"town":"御室住吉山町","koaza":"","lat":35.036323,"lng":135.71393,"zip":"6168091"},{"town":"御室竪町","koaza":"","lat":35.02658,"lng":135.715993,"zip":"6168093"},{"town":"御室双岡町","koaza":"","lat":35.022178,"lng":135.713735,"zip":"6168097"},{"town":"音戸山山ノ茶屋町","koaza":"","lat":35.028368,"lng":135.702863,"zip":"6168245"},{"town":"北嵯峨赤阪町","koaza":"","lat":35.031893,"lng":135.683957,"zip":"6160000"},{"town":"北嵯峨朝原山町","koaza":"","lat":35.037029,"lng":135.67849,"zip":"6160000"},{"town":"北嵯峨北ノ段町","koaza":"","lat":35.031697,"lng":135.677362,"zip":"6168441"},{"town":"北嵯峨気比社町","koaza":"","lat":35.030046,"lng":135.675297,"zip":"6168442"},{"town":"北嵯峨山王町","koaza":"","lat":35.031606,"lng":135.680645,"zip":"6168406"},{"town":"北嵯峨長刀坂町","koaza":"","lat":35.031901,"lng":135.688192,"zip":"6168401"},{"town":"北嵯峨名古曽町","koaza":"","lat":35.030067,"lng":135.68009,"zip":"6168405"},{"town":"北嵯峨八丈町","koaza":"","lat":35.028524,"lng":135.683004,"zip":"6168404"},{"town":"北嵯峨洞ノ内町","koaza":"","lat":35.029346,"lng":135.683845,"zip":"6168403"},{"town":"北嵯峨六代芝町","koaza":"","lat":35.029558,"lng":135.686867,"zip":"6168402"},{"town":"京北赤石町","koaza":"","lat":35.207104,"lng":135.619943,"zip":"6010541"},{"town":"京北明石町","koaza":"","lat":35.161231,"lng":135.599423,"zip":"6010273"},{"town":"京北浅江町","koaza":"","lat":35.162416,"lng":135.589715,"zip":"6010274"},{"town":"京北井崎町","koaza":"","lat":35.180689,"lng":135.635428,"zip":"6010535"},{"town":"京北井戸町","koaza":"","lat":35.186909,"lng":135.703899,"zip":"6010313"},{"town":"京北宇野町","koaza":"","lat":35.17092,"lng":135.578813,"zip":"6010275"},{"town":"京北漆谷町","koaza":"","lat":35.190672,"lng":135.593057,"zip":"6010277"},{"town":"京北大野町","koaza":"","lat":35.184539,"lng":135.684398,"zip":"6010314"},{"town":"京北小塩町","koaza":"","lat":35.236797,"lng":135.706171,"zip":"6010311"},{"town":"京北柏原町","koaza":"","lat":35.149202,"lng":135.615451,"zip":"6010261"},{"town":"京北片波町","koaza":"","lat":35.225114,"lng":135.748281,"zip":"6010401"},{"town":"京北上黒田町","koaza":"","lat":35.211201,"lng":135.736704,"zip":"6010402"},{"town":"京北上中町","koaza":"","lat":35.205085,"lng":135.630757,"zip":"6010532"},{"town":"京北上弓削町","koaza":"","lat":35.230052,"lng":135.651777,"zip":"6010531"},{"town":"京北熊田町","koaza":"","lat":35.181286,"lng":135.613249,"zip":"6010271"},{"town":"京北五本松町","koaza":"","lat":35.174911,"lng":135.629735,"zip":"6010252"},{"town":"京北塩田町","koaza":"","lat":35.181078,"lng":135.628081,"zip":"6010536"},{"town":"京北室谷町","koaza":"","lat":35.220346,"lng":135.598627,"zip":"6010543"},{"town":"京北下宇津町","koaza":"","lat":35.145501,"lng":135.573311,"zip":"6010266"},{"town":"京北下熊田町","koaza":"","lat":35.167884,"lng":135.609671,"zip":"6010272"},{"town":"京北下黒田町","koaza":"","lat":35.19766,"lng":135.714399,"zip":"6010405"},{"town":"京北下町","koaza":"","lat":35.163663,"lng":135.655091,"zip":"6010324"},{"town":"京北下中町","koaza":"","lat":35.197301,"lng":135.645758,"zip":"6010533"},{"town":"京北下弓削町","koaza":"","lat":35.191279,"lng":135.627687,"zip":"6010534"},{"town":"京北周山町","koaza":"","lat":35.152299,"lng":135.644829,"zip":"6010251"},{"town":"京北芹生町","koaza":"","lat":35.165908,"lng":135.751258,"zip":"6010404"},{"town":"京北田貫町","koaza":"","lat":35.210713,"lng":135.605558,"zip":"6010542"},{"town":"京北中地町","koaza":"","lat":35.139584,"lng":135.58623,"zip":"6010265"},{"town":"京北辻町","koaza":"","lat":35.175744,"lng":135.659471,"zip":"6010322"},{"town":"京北塔町","koaza":"","lat":35.186277,"lng":135.650776,"zip":"6010321"},{"town":"京北栃本町","koaza":"","lat":35.140647,"lng":135.602092,"zip":"6010264"},{"town":"京北鳥居町","koaza":"","lat":35.178354,"lng":135.646544,"zip":"6010323"},{"town":"京北中江町","koaza":"","lat":35.174909,"lng":135.670137,"zip":"6010315"},{"town":"京北西町","koaza":"","lat":35.176394,"lng":135.591079,"zip":"6010276"},{"town":"京北灰屋町","koaza":"","lat":35.1855,"lng":135.747308,"zip":"6010403"},{"town":"京北初川町","koaza":"","lat":35.207735,"lng":135.685022,"zip":"6010312"},{"town":"京北比賀江町","koaza":"","lat":35.187515,"lng":135.665334,"zip":"6010316"},{"town":"京北細野町","koaza":"","lat":35.109741,"lng":135.628029,"zip":"6010262"},{"town":"京北宮町","koaza":"","lat":35.206264,"lng":135.722613,"zip":"6010406"},{"town":"京北矢代中町","koaza":"","lat":35.183574,"lng":135.597858,"zip":"6010278"},{"town":"京北弓槻町","koaza":"","lat":35.133138,"lng":135.6131,"zip":"6010263"},{"town":"西院乾町","koaza":"","lat":35.004149,"lng":135.727098,"zip":"6150061"},{"town":"西院追分町","koaza":"","lat":34.997336,"lng":135.726917,"zip":"6150035"},{"town":"西院太田町","koaza":"","lat":34.999201,"lng":135.727332,"zip":"6150036"},{"town":"西院笠目町","koaza":"","lat":35.004566,"lng":135.718265,"zip":"6150058"},{"town":"西院春日町","koaza":"","lat":35.00478,"lng":135.729361,"zip":"6150015"},{"town":"西院金槌町","koaza":"","lat":35.00764,"lng":135.726355,"zip":"6150006"},{"town":"西院上今田町","koaza":"","lat":35.007941,"lng":135.731512,"zip":"6150001"},{"town":"西院上花田町","koaza":"","lat":35.007703,"lng":135.728927,"zip":"6150007"},{"town":"西院北井御料町","koaza":"","lat":35.001528,"lng":135.727815,"zip":"6150063"},{"town":"西院北矢掛町","koaza":"","lat":35.001769,"lng":135.72992,"zip":"6150026"},{"town":"西院久田町","koaza":"","lat":35.00096,"lng":135.7264,"zip":"6150064"},{"town":"西院久保田町","koaza":"","lat":34.996879,"lng":135.724594,"zip":"6150053"},{"town":"西院高山寺町","koaza":"","lat":35.003472,"lng":135.731834,"zip":"6150012"},{"town":"西院小米町","koaza":"","lat":35.004124,"lng":135.724912,"zip":"6150067"},{"town":"西院寿町","koaza":"","lat":34.997564,"lng":135.72994,"zip":"6150033"},{"town":"西院三蔵町","koaza":"","lat":35.00189,"lng":135.732169,"zip":"6150021"},{"town":"西院四条畑町","koaza":"","lat":35.004129,"lng":135.722757,"zip":"6150066"},{"town":"西院清水町","koaza":"","lat":34.997946,"lng":135.723757,"zip":"6150052"},{"town":"西院下花田町","koaza":"","lat":35.006431,"lng":135.728934,"zip":"6150004"},{"town":"西院春栄町","koaza":"","lat":35.006423,"lng":135.726726,"zip":"6150005"},{"town":"西院高田町","koaza":"","lat":34.997827,"lng":135.732273,"zip":"6150031"},{"town":"西院巽町","koaza":"","lat":35.003439,"lng":135.729532,"zip":"6150014"},{"town":"西院月双町","koaza":"","lat":34.997941,"lng":135.721162,"zip":"6150054"},{"town":"西院中水町","koaza":"","lat":34.99488,"lng":135.731217,"zip":"6150043"},{"town":"西院西今田町","koaza":"","lat":35.006622,"lng":135.730676,"zip":"6150003"},{"town":"西院西貝川町","koaza":"","lat":35.002543,"lng":135.715467,"zip":"6150056"},{"town":"西院西寿町","koaza":"","lat":34.997904,"lng":135.728748,"zip":"6150034"},{"town":"西院西三蔵町","koaza":"","lat":35.001922,"lng":135.73114,"zip":"6150027"},{"town":"西院西淳和院町","koaza":"","lat":35.004914,"lng":135.730751,"zip":"6150016"},{"town":"西院西高田町","koaza":"","lat":34.997775,"lng":135.73114,"zip":"6150032"},{"town":"西院西田町","koaza":"","lat":34.999272,"lng":135.718231,"zip":"6150055"},{"town":"西院西中水町","koaza":"","lat":34.994746,"lng":135.730154,"zip":"6150044"},{"town":"西院西平町","koaza":"","lat":34.999847,"lng":135.731077,"zip":"6150023"},{"town":"西院西溝崎町","koaza":"","lat":34.995182,"lng":135.726941,"zip":"6150046"},{"town":"西院西矢掛町","koaza":"","lat":35.000037,"lng":135.728786,"zip":"6150025"},{"town":"西院東今田町","koaza":"","lat":35.006762,"lng":135.731983,"zip":"6150002"},{"town":"西院東貝川町","koaza":"","lat":35.001822,"lng":135.71822,"zip":"6150057"},{"town":"西院東淳和院町","koaza":"","lat":35.004675,"lng":135.732034,"zip":"6150011"},{"town":"西院東中水町","koaza":"","lat":34.994769,"lng":135.732347,"zip":"6150042"},{"town":"西院坤町","koaza":"","lat":35.002852,"lng":135.726774,"zip":"6150062"},{"town":"西院日照町","koaza":"","lat":35.001569,"lng":135.724035,"zip":"6150065"},{"town":"西院平町","koaza":"","lat":35.000018,"lng":135.732189,"zip":"6150022"},{"town":"西院松井町","koaza":"","lat":35.002635,"lng":135.729005,"zip":"6150013"},{"town":"西院溝崎町","koaza":"","lat":34.994757,"lng":135.728892,"zip":"6150045"},{"town":"西院南井御料町","koaza":"","lat":35.000602,"lng":135.727944,"zip":"6150037"},{"town":"西院南寿町","koaza":"","lat":34.996019,"lng":135.729505,"zip":"6150048"},{"town":"西院南高田町","koaza":"","lat":34.996295,"lng":135.731662,"zip":"6150041"},{"town":"西院矢掛町","koaza":"","lat":34.999948,"lng":135.729846,"zip":"6150024"},{"town":"西院安塚町","koaza":"","lat":35.001813,"lng":135.721102,"zip":"6150051"},{"town":"西院六反田町","koaza":"","lat":34.995244,"lng":135.723962,"zip":"6150047"},{"town":"嵯峨朝日町","koaza":"","lat":35.015525,"lng":135.690044,"zip":"6168343"},{"town":"嵯峨愛宕町","koaza":"","lat":35.060499,"lng":135.632468,"zip":"6168458"},{"town":"嵯峨石ケ坪町","koaza":"","lat":35.011284,"lng":135.690937,"zip":"6168335"},{"town":"嵯峨伊勢ノ上町","koaza":"","lat":35.014524,"lng":135.682966,"zip":"6168365"},{"town":"嵯峨一本木町","koaza":"","lat":35.024304,"lng":135.684565,"zip":"6168354"},{"town":"嵯峨梅ノ木町","koaza":"","lat":35.016369,"lng":135.68673,"zip":"6168344"},{"town":"嵯峨大沢落久保町","koaza":"","lat":35.026369,"lng":135.684956,"zip":"6168352"},{"town":"嵯峨大沢町","koaza":"","lat":35.028233,"lng":135.679413,"zip":"6168411"},{"town":"嵯峨大沢柳井手町","koaza":"","lat":35.025712,"lng":135.682299,"zip":"6168353"},{"town":"嵯峨小倉山小倉町","koaza":"","lat":35.01992,"lng":135.669553,"zip":"6168397"},{"town":"嵯峨小倉山田淵山町","koaza":"","lat":35.016556,"lng":135.670566,"zip":"6160000"},{"town":"嵯峨小倉山町","koaza":"","lat":35.018664,"lng":135.667467,"zip":"6168395"},{"town":"嵯峨小倉山堂ノ前町","koaza":"","lat":35.019359,"lng":135.671925,"zip":"6168392"},{"town":"嵯峨小倉山緋明神町","koaza":"","lat":35.020556,"lng":135.671066,"zip":"6168391"},{"town":"嵯峨小倉山山本町","koaza":"","lat":35.018544,"lng":135.66982,"zip":"6168396"},{"town":"嵯峨折戸町","koaza":"","lat":35.01786,"lng":135.687005,"zip":"6168345"},{"town":"嵯峨甲塚町","koaza":"","lat":35.019233,"lng":135.690776,"zip":"6168341"},{"town":"嵯峨亀ノ尾町","koaza":"","lat":35.014584,"lng":135.671355,"zip":"6168386"},{"town":"嵯峨亀山町","koaza":"","lat":35.024154,"lng":135.661015,"zip":"6168387"},{"town":"嵯峨苅分町","koaza":"","lat":35.016985,"lng":135.6907,"zip":"6168342"},{"town":"嵯峨観空寺岡崎町","koaza":"","lat":35.030093,"lng":135.672389,"zip":"6168445"},{"town":"嵯峨観空寺久保殿町","koaza":"","lat":35.02682,"lng":135.67464,"zip":"6168444"},{"town":"嵯峨観空寺谷町","koaza":"","lat":35.037819,"lng":135.668018,"zip":"6168446"},{"town":"嵯峨観空寺明水町","koaza":"","lat":35.028578,"lng":135.675711,"zip":"6168443"},{"town":"嵯峨北堀町","koaza":"","lat":35.016772,"lng":135.684544,"zip":"6168367"},{"town":"嵯峨清滝一華表町","koaza":"","lat":35.041175,"lng":135.659067,"zip":"6168451"},{"town":"嵯峨清滝大谷町","koaza":"","lat":35.041323,"lng":135.650863,"zip":"6168453"},{"town":"嵯峨清滝亀ケ首町","koaza":"","lat":35.046733,"lng":135.660816,"zip":"6160000"},{"town":"嵯峨清滝北谷町","koaza":"","lat":35.062679,"lng":135.645162,"zip":"6160000"},{"town":"嵯峨清滝空也滝町","koaza":"","lat":35.045734,"lng":135.651213,"zip":"6168457"},{"town":"嵯峨清滝田鶴原町","koaza":"","lat":35.040659,"lng":135.65803,"zip":"6168455"},{"town":"嵯峨清滝町","koaza":"","lat":35.04011,"lng":135.654405,"zip":"6168452"},{"town":"嵯峨清滝月ノ輪町","koaza":"","lat":35.053082,"lng":135.640463,"zip":"6168456"},{"town":"嵯峨清滝堂尻町","koaza":"","lat":35.055434,"lng":135.654014,"zip":"6160000"},{"town":"嵯峨清滝八講檀町","koaza":"","lat":35.038378,"lng":135.652952,"zip":"6160000"},{"town":"嵯峨清滝八丁山町","koaza":"","lat":35.057283,"lng":135.65827,"zip":"6160000"},{"town":"嵯峨清滝深谷町","koaza":"","lat":35.034029,"lng":135.656261,"zip":"6168454"},{"town":"嵯峨越畑北ノ町","koaza":"","lat":35.087367,"lng":135.613513,"zip":"6168491"},{"town":"嵯峨越畑正権条","koaza":"","lat":35.080473,"lng":135.61083,"zip":"6168482"},{"town":"嵯峨越畑筋違","koaza":"","lat":35.083853,"lng":135.60652,"zip":"6168484"},{"town":"嵯峨越畑天慶","koaza":"","lat":35.082863,"lng":135.613171,"zip":"6168492"},{"town":"嵯峨越畑中ノ町","koaza":"","lat":35.085638,"lng":135.612447,"zip":"6168487"},{"town":"嵯峨越畑兵庫前町","koaza":"","lat":35.083521,"lng":135.609354,"zip":"6168485"},{"town":"嵯峨越畑南ノ町","koaza":"","lat":35.083738,"lng":135.612506,"zip":"6168486"},{"town":"嵯峨越畑桃原垣内","koaza":"","lat":35.078862,"lng":135.597009,"zip":"6168493"},{"town":"嵯峨五島町","koaza":"","lat":35.012884,"lng":135.688316,"zip":"6168362"},{"town":"嵯峨樒原稲荷元町","koaza":"","lat":35.070917,"lng":135.611099,"zip":"6168471"},{"town":"嵯峨樒原高見町","koaza":"","lat":35.073488,"lng":135.613025,"zip":"6168472"},{"town":"嵯峨樒原若宮下町","koaza":"","lat":35.073813,"lng":135.609267,"zip":"6168473"},{"town":"嵯峨釈迦堂大門町","koaza":"","lat":35.021327,"lng":135.676113,"zip":"6168422"},{"town":"嵯峨釈迦堂藤ノ木町","koaza":"","lat":35.024158,"lng":135.674793,"zip":"6168447"},{"town":"嵯峨釈迦堂門前裏柳町","koaza":"","lat":35.020603,"lng":135.673668,"zip":"6168423"},{"town":"嵯峨釈迦堂門前瀬戸川町","koaza":"","lat":35.020769,"lng":135.678568,"zip":"6168421"},{"town":"嵯峨釈迦堂門前南中院町","koaza":"","lat":35.02213,"lng":135.673289,"zip":"6168424"},{"town":"嵯峨新宮町","koaza":"","lat":35.021688,"lng":135.685247,"zip":"6168355"},{"town":"嵯峨大覚寺門前井頭町","koaza":"","lat":35.022264,"lng":135.677631,"zip":"6168416"},{"town":"嵯峨大覚寺門前堂ノ前町","koaza":"","lat":35.022967,"lng":135.681678,"zip":"6168413"},{"town":"嵯峨大覚寺門前登リ町","koaza":"","lat":35.025569,"lng":135.679572,"zip":"6160000"},{"town":"嵯峨大覚寺門前八軒町","koaza":"","lat":35.021278,"lng":135.681366,"zip":"6168414"},{"town":"嵯峨大覚寺門前宮ノ下町","koaza":"","lat":35.022765,"lng":135.679052,"zip":"6168415"},{"town":"嵯峨大覚寺門前六道町","koaza":"","lat":35.025166,"lng":135.677356,"zip":"6168417"},{"town":"嵯峨釣殿町","koaza":"","lat":35.027172,"lng":135.686889,"zip":"6168351"},{"town":"嵯峨天龍寺油掛町","koaza":"","lat":35.019069,"lng":135.687134,"zip":"6168346"},{"town":"嵯峨天龍寺今堀町","koaza":"","lat":35.016706,"lng":135.68201,"zip":"6168366"},{"town":"嵯峨天龍寺北造路町","koaza":"","lat":35.017154,"lng":135.678207,"zip":"6168374"},{"town":"嵯峨天龍寺車道町","koaza":"","lat":35.017933,"lng":135.680351,"zip":"6168373"},{"town":"嵯峨天龍寺椎野町","koaza":"","lat":35.019082,"lng":135.684606,"zip":"6168357"},{"town":"嵯峨天龍寺芒ノ馬場町","koaza":"","lat":35.015144,"lng":135.675153,"zip":"6168385"},{"town":"嵯峨天龍寺角倉町","koaza":"","lat":35.01439,"lng":135.68124,"zip":"6168382"},{"town":"嵯峨天龍寺瀬戸川町","koaza":"","lat":35.019087,"lng":135.677744,"zip":"6168376"},{"town":"嵯峨天龍寺立石町","koaza":"","lat":35.018795,"lng":135.675144,"zip":"6168375"},{"town":"嵯峨天龍寺造路町","koaza":"","lat":35.014632,"lng":135.679115,"zip":"6168384"},{"town":"嵯峨天龍寺中島町","koaza":"","lat":35.020165,"lng":135.684014,"zip":"6168356"},{"town":"嵯峨天龍寺広道町","koaza":"","lat":35.018487,"lng":135.682538,"zip":"6168372"},{"town":"嵯峨天龍寺龍門町","koaza":"","lat":35.015994,"lng":135.680771,"zip":"6168381"},{"town":"嵯峨天龍寺若宮町","koaza":"","lat":35.019931,"lng":135.681055,"zip":"6168371"},{"town":"嵯峨鳥居本化野町","koaza":"","lat":35.026138,"lng":135.664953,"zip":"6168436"},{"town":"嵯峨鳥居本一華表町","koaza":"","lat":35.034415,"lng":135.662935,"zip":"6168431"},{"town":"嵯峨鳥居本北代町","koaza":"","lat":35.026629,"lng":135.670632,"zip":"6168432"},{"town":"嵯峨鳥居本小坂町","koaza":"","lat":35.024713,"lng":135.667067,"zip":"6168435"},{"town":"嵯峨鳥居本仙翁町","koaza":"","lat":35.027764,"lng":135.664323,"zip":"6168437"},{"town":"嵯峨鳥居本中筋町","koaza":"","lat":35.024865,"lng":135.671768,"zip":"6168433"},{"town":"嵯峨鳥居本深谷町","koaza":"","lat":35.030803,"lng":135.657957,"zip":"6168439"},{"town":"嵯峨鳥居本仏餉田町","koaza":"","lat":35.024866,"lng":135.669243,"zip":"6168434"},{"town":"嵯峨鳥居本六反町","koaza":"","lat":35.02638,"lng":135.667481,"zip":"6168438"},{"town":"嵯峨蜻蛉尻町","koaza":"","lat":35.011837,"lng":135.692494,"zip":"6168336"},{"town":"嵯峨中通町","koaza":"","lat":35.015454,"lng":135.687013,"zip":"6168361"},{"town":"嵯峨中ノ島町","koaza":"","lat":35.012196,"lng":135.678239,"zip":"6160000"},{"town":"嵯峨中又町","koaza":"","lat":35.018484,"lng":135.689012,"zip":"6168347"},{"town":"嵯峨中山町","koaza":"","lat":35.014724,"lng":135.685013,"zip":"6168364"},{"town":"嵯峨二尊院門前往生院町","koaza":"","lat":35.022706,"lng":135.669342,"zip":"6168426"},{"town":"嵯峨二尊院門前北中院町","koaza":"","lat":35.023451,"lng":135.672429,"zip":"6168428"},{"town":"嵯峨二尊院門前善光寺山町","koaza":"","lat":35.023505,"lng":135.669968,"zip":"6168427"},{"town":"嵯峨二尊院門前長神町","koaza":"","lat":35.021325,"lng":135.668903,"zip":"6168425"},{"town":"嵯峨野秋街道町","koaza":"","lat":35.013242,"lng":135.695595,"zip":"6168314"},{"town":"嵯峨野有栖川町","koaza":"","lat":35.016487,"lng":135.693297,"zip":"6168316"},{"town":"嵯峨野内田町","koaza":"","lat":35.011666,"lng":135.693271,"zip":"6168331"},{"town":"嵯峨野神ノ木町","koaza":"","lat":35.015694,"lng":135.695473,"zip":"6168317"},{"town":"嵯峨野北野町","koaza":"","lat":35.01026,"lng":135.692654,"zip":"6168332"},{"town":"嵯峨野嵯峨ノ段町","koaza":"","lat":35.018653,"lng":135.69439,"zip":"6168311"},{"town":"嵯峨野芝野町","koaza":"","lat":35.009381,"lng":135.697982,"zip":"6168322"},{"town":"嵯峨野清水町","koaza":"","lat":35.018362,"lng":135.69314,"zip":"6168312"},{"town":"嵯峨野高田町","koaza":"","lat":35.009066,"lng":135.692927,"zip":"6168325"},{"town":"嵯峨野千代ノ道町","koaza":"","lat":35.011553,"lng":135.695688,"zip":"6168321"},{"town":"嵯峨野投淵町","koaza":"","lat":35.007805,"lng":135.696857,"zip":"6160000"},{"town":"嵯峨野西ノ藤町","koaza":"","lat":35.007832,"lng":135.691933,"zip":"6168333"},{"town":"嵯峨野々宮町","koaza":"","lat":35.018206,"lng":135.672348,"zip":"6168393"},{"town":"嵯峨野東田町","koaza":"","lat":35.009364,"lng":135.694998,"zip":"6168326"},{"town":"嵯峨野開町","koaza":"","lat":35.015688,"lng":135.697785,"zip":"6168313"},{"town":"嵯峨野南浦町","koaza":"","lat":35.007477,"lng":135.694204,"zip":"6168324"},{"town":"嵯峨野宮ノ元町","koaza":"","lat":35.013911,"lng":135.692857,"zip":"6168315"},{"town":"嵯峨野六反田町","koaza":"","lat":35.008511,"lng":135.695955,"zip":"6168327"},{"town":"嵯峨広沢池下町","koaza":"","lat":35.023941,"lng":135.690938,"zip":"6168307"},{"town":"嵯峨広沢北下馬野町","koaza":"","lat":35.023999,"lng":135.693669,"zip":"6168302"},{"town":"嵯峨広沢御所ノ内町","koaza":"","lat":35.021566,"lng":135.688599,"zip":"6168305"},{"town":"嵯峨広沢町","koaza":"","lat":35.027087,"lng":135.690152,"zip":"6168301"},{"town":"嵯峨広沢西裏町","koaza":"","lat":35.023821,"lng":135.687856,"zip":"6168306"},{"town":"嵯峨広沢南下馬野町","koaza":"","lat":35.020934,"lng":135.694612,"zip":"6168303"},{"town":"嵯峨広沢南野町","koaza":"","lat":35.021402,"lng":135.691846,"zip":"6168304"},{"town":"嵯峨罧原町","koaza":"","lat":35.008925,"lng":135.689645,"zip":"6168334"},{"town":"嵯峨水尾阿多古","koaza":"","lat":35.057007,"lng":135.630124,"zip":"6160000"},{"town":"嵯峨水尾大岩","koaza":"","lat":35.044506,"lng":135.634962,"zip":"6168467"},{"town":"嵯峨水尾岡ノ窪町","koaza":"","lat":35.042908,"lng":135.62646,"zip":"6168462"},{"town":"嵯峨水尾北垣内町","koaza":"","lat":35.048154,"lng":135.622372,"zip":"6168468"},{"town":"嵯峨水尾北ノ谷","koaza":"","lat":35.049336,"lng":135.624152,"zip":"6160000"},{"town":"嵯峨水尾シメボシ","koaza":"","lat":35.04121,"lng":135.625977,"zip":"6160000"},{"town":"嵯峨水尾下神明","koaza":"","lat":35.049571,"lng":135.621806,"zip":"6160000"},{"town":"嵯峨水尾下深谷","koaza":"","lat":35.042042,"lng":135.630629,"zip":"6160000"},{"town":"嵯峨水尾竹ノ尻町","koaza":"","lat":35.042523,"lng":135.624528,"zip":"6168463"},{"town":"嵯峨水尾中頃","koaza":"","lat":35.046035,"lng":135.62854,"zip":"6160000"},{"town":"嵯峨水尾鳩ケ巣","koaza":"","lat":35.035406,"lng":135.641196,"zip":"6168461"},{"town":"嵯峨水尾東","koaza":"","lat":35.041283,"lng":135.635356,"zip":"6160000"},{"town":"嵯峨水尾松尾垣内","koaza":"","lat":35.041501,"lng":135.628329,"zip":"6160000"},{"town":"嵯峨水尾宮ノ脇町","koaza":"","lat":35.04652,"lng":135.62575,"zip":"6168465"},{"town":"嵯峨水尾向","koaza":"","lat":35.042575,"lng":135.623135,"zip":"6160000"},{"town":"嵯峨水尾武蔵嶋町","koaza":"","lat":35.044319,"lng":135.624708,"zip":"6168464"},{"town":"嵯峨水尾ユリ","koaza":"","lat":35.045284,"lng":135.622921,"zip":"6160000"},{"town":"嵯峨明星町","koaza":"","lat":35.013777,"lng":135.690404,"zip":"6168337"},{"town":"嵯峨柳田町","koaza":"","lat":35.012259,"lng":135.686624,"zip":"6168363"},{"town":"谷口梅津間町","koaza":"","lat":35.026859,"lng":135.721331,"zip":"6168014"},{"town":"谷口円成寺町","koaza":"","lat":35.026447,"lng":135.716892,"zip":"6168022"},{"town":"谷口垣ノ内町","koaza":"","lat":35.028309,"lng":135.721482,"zip":"6168012"},{"town":"谷口唐田ノ内町","koaza":"","lat":35.0267,"lng":135.722655,"zip":"6168013"},{"town":"谷口園町","koaza":"","lat":35.026873,"lng":135.720048,"zip":"6168015"},{"town":"常盤一ノ井町","koaza":"","lat":35.018945,"lng":135.711759,"zip":"6168216"},{"town":"常盤馬塚町","koaza":"","lat":35.020345,"lng":135.705064,"zip":"6168225"},{"town":"常盤御池町","koaza":"","lat":35.02341,"lng":135.710684,"zip":"6168211"},{"town":"常盤音戸町","koaza":"","lat":35.021807,"lng":135.711,"zip":"6168213"},{"town":"常盤柏ノ木町","koaza":"","lat":35.022427,"lng":135.708341,"zip":"6168231"},{"town":"常盤神田町","koaza":"","lat":35.022554,"lng":135.709488,"zip":"6168219"},{"town":"常盤北裏町","koaza":"","lat":35.020716,"lng":135.707361,"zip":"6168229"},{"town":"常盤草木町","koaza":"","lat":35.021852,"lng":135.70424,"zip":"6168227"},{"town":"常盤窪町","koaza":"","lat":35.019791,"lng":135.706026,"zip":"6168224"},{"town":"常盤下田町","koaza":"","lat":35.021608,"lng":135.706714,"zip":"6168228"},{"town":"常盤段ノ上町","koaza":"","lat":35.020185,"lng":135.703875,"zip":"6168226"},{"town":"常盤出口町","koaza":"","lat":35.020655,"lng":135.710579,"zip":"6168218"},{"town":"常盤仲之町","koaza":"","lat":35.018734,"lng":135.70848,"zip":"6168222"},{"town":"常盤西町","koaza":"","lat":35.019224,"lng":135.707182,"zip":"6168223"},{"town":"常盤東ノ町","koaza":"","lat":35.019402,"lng":135.71011,"zip":"6168217"},{"town":"常盤古御所町","koaza":"","lat":35.019899,"lng":135.712063,"zip":"6168214"},{"town":"常盤村ノ内町","koaza":"","lat":35.020501,"lng":135.70847,"zip":"6168221"},{"town":"常盤森町","koaza":"","lat":35.018382,"lng":135.713102,"zip":"6168215"},{"town":"常盤山下町","koaza":"","lat":35.02207,"lng":135.710252,"zip":"6168212"},{"town":"鳴滝泉谷町","koaza":"","lat":35.032816,"lng":135.706569,"zip":"6168253"},{"town":"鳴滝泉殿町","koaza":"","lat":35.031002,"lng":135.705983,"zip":"6168241"},{"town":"鳴滝宇多野谷","koaza":"","lat":35.042138,"lng":135.708232,"zip":"6168251"},{"town":"鳴滝音戸山町","koaza":"","lat":35.028196,"lng":135.697119,"zip":"6168255"},{"town":"鳴滝川西町","koaza":"","lat":35.030252,"lng":135.703933,"zip":"6168246"},{"town":"鳴滝吉兆谷","koaza":"","lat":35.053069,"lng":135.706038,"zip":"6160000"},{"town":"鳴滝桐ケ淵町","koaza":"","lat":35.025774,"lng":135.706788,"zip":"6168238"},{"town":"鳴滝嵯峨園町","koaza":"","lat":35.022987,"lng":135.705456,"zip":"6168234"},{"town":"鳴滝沢","koaza":"","lat":35.060432,"lng":135.699398,"zip":"6160000"},{"town":"鳴滝三本松","koaza":"","lat":35.05498,"lng":135.692723,"zip":"6160000"},{"town":"鳴滝白砂","koaza":"","lat":35.042545,"lng":135.698891,"zip":"6168257"},{"town":"鳴滝宅間町","koaza":"","lat":35.032766,"lng":135.70408,"zip":"6168254"},{"town":"鳴滝中道町","koaza":"","lat":35.02326,"lng":135.706796,"zip":"6168233"},{"town":"鳴滝西嵯峨園町","koaza":"","lat":35.023011,"lng":135.703896,"zip":"6168235"},{"town":"鳴滝蓮池町","koaza":"","lat":35.030582,"lng":135.704907,"zip":"6168247"},{"town":"鳴滝春木町","koaza":"","lat":35.02424,"lng":135.704096,"zip":"6168236"},{"town":"鳴滝般若寺町","koaza":"","lat":35.034302,"lng":135.703634,"zip":"6168258"},{"town":"鳴滝藤ノ木町","koaza":"","lat":35.026369,"lng":135.705567,"zip":"6168244"},{"town":"鳴滝本町","koaza":"","lat":35.028524,"lng":135.706961,"zip":"6168242"},{"town":"鳴滝松本町","koaza":"","lat":35.033639,"lng":135.700915,"zip":"6168256"},{"town":"鳴滝瑞穂町","koaza":"","lat":35.024976,"lng":135.705657,"zip":"6168237"},{"town":"鳴滝安井殿町","koaza":"","lat":35.027539,"lng":135.706146,"zip":"6168243"},{"town":"鳴滝蓮花寺町","koaza":"","lat":35.023375,"lng":135.707846,"zip":"6168232"},{"town":"西京極畔勝町","koaza":"","lat":34.994252,"lng":135.72184,"zip":"6150806"},{"town":"西京極午塚町","koaza":"","lat":34.998816,"lng":135.713126,"zip":"6150885"},{"town":"西京極葛野町","koaza":"","lat":34.997406,"lng":135.718234,"zip":"6150882"},{"town":"西京極河原町","koaza":"","lat":34.986183,"lng":135.71429,"zip":"6150843"},{"town":"西京極河原町裏町","koaza":"","lat":34.982113,"lng":135.714752,"zip":"6150836"},{"town":"西京極北裏町","koaza":"","lat":34.990437,"lng":135.721198,"zip":"6150821"},{"town":"西京極北大入町","koaza":"","lat":34.998733,"lng":135.715593,"zip":"6150881"},{"town":"西京極北衣手町","koaza":"","lat":34.999327,"lng":135.710238,"zip":"6150878"},{"town":"西京極北庄境町","koaza":"","lat":34.993377,"lng":135.727342,"zip":"6150802"},{"town":"西京極郡猪馬場町","koaza":"","lat":34.99086,"lng":135.715931,"zip":"6150857"},{"town":"西京極郡沢町","koaza":"","lat":34.991619,"lng":135.716962,"zip":"6150858"},{"town":"西京極郡醍醐田町","koaza":"","lat":34.99054,"lng":135.71711,"zip":"6150853"},{"town":"西京極郡町","koaza":"","lat":34.996357,"lng":135.713222,"zip":"6150884"},{"town":"西京極郡附洲町","koaza":"","lat":34.992262,"lng":135.7107,"zip":"6150876"},{"town":"西京極三反田町","koaza":"","lat":34.990809,"lng":135.725386,"zip":"6150818"},{"town":"西京極芝ノ下町","koaza":"","lat":34.986889,"lng":135.719067,"zip":"6150826"},{"town":"西京極下沢町","koaza":"","lat":34.986832,"lng":135.726503,"zip":"6150814"},{"town":"西京極新田町","koaza":"","lat":34.991193,"lng":135.712784,"zip":"6150874"},{"town":"西京極新明町","koaza":"","lat":34.99327,"lng":135.714639,"zip":"6150864"},{"town":"西京極末広町","koaza":"","lat":34.987862,"lng":135.713553,"zip":"6150845"},{"town":"西京極大門町","koaza":"","lat":34.989814,"lng":135.726709,"zip":"6150812"},{"town":"西京極町ノ坪町","koaza":"","lat":34.991928,"lng":135.724184,"zip":"6150804"},{"town":"西京極佃田町","koaza":"","lat":34.988362,"lng":135.725262,"zip":"6150813"},{"town":"西京極堤下町","koaza":"","lat":34.982881,"lng":135.716489,"zip":"6150835"},{"town":"西京極堤外町","koaza":"","lat":34.988072,"lng":135.717717,"zip":"6150854"},{"town":"西京極堤町","koaza":"","lat":34.993365,"lng":135.717854,"zip":"6150863"},{"town":"西京極徳大寺団子田町","koaza":"","lat":34.988913,"lng":135.715572,"zip":"6150846"},{"town":"西京極徳大寺西団子田町","koaza":"","lat":34.990079,"lng":135.712415,"zip":"6150875"},{"town":"西京極殿田町","koaza":"","lat":34.983534,"lng":135.717463,"zip":"6150834"},{"town":"西京極中沢町","koaza":"","lat":34.986964,"lng":135.724205,"zip":"6150815"},{"town":"西京極中島町","koaza":"","lat":34.987611,"lng":135.713081,"zip":"6160000"},{"town":"西京極中町","koaza":"","lat":34.989614,"lng":135.72152,"zip":"6150822"},{"town":"西京極長町","koaza":"","lat":34.985418,"lng":135.717084,"zip":"6150831"},{"town":"西京極中溝町","koaza":"","lat":34.99084,"lng":135.727348,"zip":"6150811"},{"town":"西京極南方町","koaza":"","lat":34.988196,"lng":135.719912,"zip":"6150827"},{"town":"西京極西池田町","koaza":"","lat":34.992209,"lng":135.718516,"zip":"6150851"},{"town":"西京極西大丸町","koaza":"","lat":34.993899,"lng":135.718865,"zip":"6150862"},{"town":"西京極西川町","koaza":"","lat":34.989348,"lng":135.718631,"zip":"6150852"},{"town":"西京極西衣手町","koaza":"","lat":34.997451,"lng":135.708981,"zip":"6150877"},{"town":"西京極西団子田町","koaza":"","lat":34.989369,"lng":135.713448,"zip":"6150855"},{"town":"西京極西中島町","koaza":"","lat":34.987659,"lng":135.71185,"zip":"6160000"},{"town":"西京極西向河原町","koaza":"","lat":34.98522,"lng":135.715048,"zip":"6150837"},{"town":"西京極野田町","koaza":"","lat":34.995438,"lng":135.718248,"zip":"6150861"},{"town":"西京極走上リ町","koaza":"","lat":34.985019,"lng":135.716724,"zip":"6150832"},{"town":"西京極橋詰町","koaza":"","lat":34.984547,"lng":135.717712,"zip":"6150833"},{"town":"西京極畑田町","koaza":"","lat":34.986392,"lng":135.721624,"zip":"6150824"},{"town":"西京極浜ノ本町","koaza":"","lat":34.993632,"lng":135.711526,"zip":"6150873"},{"town":"西京極火打畑町","koaza":"","lat":34.986416,"lng":135.717168,"zip":"6150841"},{"town":"西京極東池田町","koaza":"","lat":34.991895,"lng":135.721244,"zip":"6150805"},{"town":"西京極東大丸町","koaza":"","lat":34.99475,"lng":135.720657,"zip":"6150807"},{"town":"西京極東側町","koaza":"","lat":34.986697,"lng":135.715447,"zip":"6150844"},{"town":"西京極東衣手町","koaza":"","lat":34.997565,"lng":135.711129,"zip":"6150871"},{"town":"西京極東町","koaza":"","lat":34.989645,"lng":135.723255,"zip":"6150816"},{"town":"西京極東中島町","koaza":"","lat":34.985949,"lng":135.713642,"zip":"6160000"},{"town":"西京極東向河原町","koaza":"","lat":34.985744,"lng":135.718609,"zip":"6150825"},{"town":"西京極古浜町","koaza":"","lat":34.988943,"lng":135.712847,"zip":"6150856"},{"town":"西京極前田町","koaza":"","lat":34.988055,"lng":135.722095,"zip":"6150823"},{"town":"西京極豆田町","koaza":"","lat":34.993331,"lng":135.724168,"zip":"6150801"},{"town":"西京極南大入町","koaza":"","lat":34.99685,"lng":135.715574,"zip":"6150883"},{"town":"西京極南衣手町","koaza":"","lat":34.995515,"lng":135.710493,"zip":"6150872"},{"town":"西京極南庄境町","koaza":"","lat":34.991385,"lng":135.728426,"zip":"6150803"},{"town":"西京極宮ノ東町","koaza":"","lat":34.990823,"lng":135.723323,"zip":"6150817"},{"town":"西京極藪ノ下町","koaza":"","lat":34.985577,"lng":135.715889,"zip":"6160000"},{"town":"西京極藪開町","koaza":"","lat":34.986091,"lng":135.716233,"zip":"6160000"},{"town":"花園一条田町","koaza":"","lat":35.023959,"lng":135.717454,"zip":"6168024"},{"town":"花園猪ノ毛町","koaza":"","lat":35.024321,"lng":135.723655,"zip":"6168037"},{"town":"花園伊町","koaza":"","lat":35.019503,"lng":135.718832,"zip":"6168042"},{"town":"花園内畑町","koaza":"","lat":35.018758,"lng":135.714871,"zip":"6168045"},{"town":"花園円成寺町","koaza":"","lat":35.027488,"lng":135.717617,"zip":"6168027"},{"town":"花園扇野町","koaza":"","lat":35.018878,"lng":135.716233,"zip":"6168044"},{"town":"花園大藪町","koaza":"","lat":35.023396,"lng":135.718065,"zip":"6160000"},{"town":"花園岡ノ本町","koaza":"","lat":35.022738,"lng":135.715485,"zip":"6168026"},{"town":"花園春日町","koaza":"","lat":35.016606,"lng":135.724804,"zip":"6168061"},{"town":"花園木辻北町","koaza":"","lat":35.021778,"lng":135.722994,"zip":"6168034"},{"town":"花園木辻南町","koaza":"","lat":35.020035,"lng":135.723273,"zip":"6168057"},{"town":"花園車道町","koaza":"","lat":35.019021,"lng":135.722026,"zip":"6168055"},{"town":"花園坤南町","koaza":"","lat":35.02014,"lng":135.722069,"zip":"6168056"},{"town":"花園艮北町","koaza":"","lat":35.021686,"lng":135.724929,"zip":"6168033"},{"town":"花園巽南町","koaza":"","lat":35.02045,"lng":135.724777,"zip":"6168051"},{"town":"花園鷹司町","koaza":"","lat":35.023797,"lng":135.724721,"zip":"6168031"},{"town":"花園段ノ岡町","koaza":"","lat":35.021229,"lng":135.715484,"zip":"6168046"},{"town":"花園土堂町","koaza":"","lat":35.023764,"lng":135.716459,"zip":"6168025"},{"town":"花園寺ノ内町","koaza":"","lat":35.01914,"lng":135.717542,"zip":"6168043"},{"town":"花園寺ノ中町","koaza":"","lat":35.025131,"lng":135.722695,"zip":"6168036"},{"town":"花園寺ノ前町","koaza":"","lat":35.020345,"lng":135.720552,"zip":"6168041"},{"town":"花園天授ケ岡町","koaza":"","lat":35.027346,"lng":135.718543,"zip":"6168021"},{"town":"花園中御門町","koaza":"","lat":35.018207,"lng":135.72331,"zip":"6168054"},{"town":"花園馬代町","koaza":"","lat":35.021901,"lng":135.726162,"zip":"6168032"},{"town":"花園宮ノ上町","koaza":"","lat":35.021448,"lng":135.717376,"zip":"6168047"},{"town":"花園妙心寺町","koaza":"","lat":35.023437,"lng":135.720657,"zip":"6168035"},{"town":"花園八ツ口町","koaza":"","lat":35.017808,"lng":135.724817,"zip":"6168053"},{"town":"花園藪ノ下町","koaza":"","lat":35.01917,"lng":135.72482,"zip":"6160000"},{"town":"山越乾町","koaza":"","lat":35.028443,"lng":135.692765,"zip":"6168197"},{"town":"山越巽町","koaza":"","lat":35.02264,"lng":135.701154,"zip":"6168193"},{"town":"山越中町","koaza":"","lat":35.025754,"lng":135.694732,"zip":"6168195"},{"town":"山越西町","koaza":"","lat":35.026756,"lng":135.693755,"zip":"6168196"},{"town":"山越東町","koaza":"","lat":35.023505,"lng":135.698616,"zip":"6168194"},{"town":"山ノ内荒木町","koaza":"","lat":35.006742,"lng":135.717175,"zip":"6150073"},{"town":"山ノ内池尻町","koaza":"","lat":35.004723,"lng":135.720482,"zip":"6150072"},{"town":"山ノ内大町","koaza":"","lat":35.010245,"lng":135.721762,"zip":"6150097"},{"town":"山ノ内北ノ口町","koaza":"","lat":35.008959,"lng":135.720966,"zip":"6150094"},{"town":"山ノ内五反田町","koaza":"","lat":35.01015,"lng":135.719755,"zip":"6150096"},{"town":"山ノ内赤山町","koaza":"","lat":35.005736,"lng":135.724942,"zip":"6150082"},{"town":"山ノ内瀬戸畑町","koaza":"","lat":35.006163,"lng":135.723526,"zip":"6150083"},{"town":"山ノ内苗町","koaza":"","lat":35.006555,"lng":135.718906,"zip":"6150074"},{"town":"山ノ内中畑町","koaza":"","lat":35.007503,"lng":135.722065,"zip":"6150085"},{"town":"山ノ内西裏町","koaza":"","lat":35.007106,"lng":135.72032,"zip":"6150071"},{"town":"山ノ内西八反田町","koaza":"","lat":35.008929,"lng":135.719081,"zip":"6150095"},{"town":"山ノ内御堂殿町","koaza":"","lat":35.011465,"lng":135.722131,"zip":"6150091"},{"town":"山ノ内宮前町","koaza":"","lat":35.008954,"lng":135.723068,"zip":"6150093"},{"town":"山ノ内宮脇町","koaza":"","lat":35.010207,"lng":135.72321,"zip":"6150092"},{"town":"山ノ内山ノ下町","koaza":"","lat":35.005784,"lng":135.721996,"zip":"6150084"},{"town":"山ノ内養老町","koaza":"","lat":35.007555,"lng":135.724899,"zip":"6150081"},{"town":"龍安寺池ノ下町","koaza":"","lat":35.031873,"lng":135.718907,"zip":"6168003"},{"town":"龍安寺衣笠下町","koaza":"","lat":35.031173,"lng":135.720785,"zip":"6168002"},{"town":"龍安寺五反田町","koaza":"","lat":35.029548,"lng":135.720079,"zip":"6168017"},{"town":"龍安寺御陵ノ下町","koaza":"","lat":35.034077,"lng":135.718529,"zip":"6168001"},{"town":"龍安寺斎宮町","koaza":"","lat":35.029633,"lng":135.721361,"zip":"6168011"},{"town":"龍安寺朱山","koaza":"","lat":35.036272,"lng":135.718649,"zip":"6160000"},{"town":"龍安寺住吉町","koaza":"","lat":35.031749,"lng":135.717539,"zip":"6168006"},{"town":"龍安寺玉津芝町","koaza":"","lat":35.029911,"lng":135.717867,"zip":"6168004"},{"town":"龍安寺塔ノ下町","koaza":"","lat":35.029138,"lng":135.717039,"zip":"6168005"},{"town":"龍安寺西ノ川町","koaza":"","lat":35.02846,"lng":135.719466,"zip":"6168016"},{"town":"龍安寺山田町","koaza":"","lat":35.032845,"lng":135.713883,"zip":"6168007"},{"town":"嵯峨野投渕町","koaza":"","lat":35.00818,"lng":135.697617,"zip":"6168323"}]