[{"town":"相生町","koaza":"","lat":35.016212,"lng":135.756956,"zip":"6040004"},{"town":"秋野々町","koaza":"","lat":35.01296,"lng":135.759544,"zip":"6040847"},{"town":"朝倉町","koaza":"","lat":35.007958,"lng":135.764876,"zip":"6048074"},{"town":"姉猪熊町","koaza":"","lat":35.009304,"lng":135.750438,"zip":"6048324"},{"town":"姉大宮町西側","koaza":"","lat":35.009153,"lng":135.748631,"zip":"6048327"},{"town":"姉大宮町東側","koaza":"","lat":35.009116,"lng":135.749084,"zip":"6048326"},{"town":"姉大東町","koaza":"","lat":35.009823,"lng":135.766805,"zip":"6048092"},{"town":"姉西町","koaza":"","lat":35.009893,"lng":135.747973,"zip":"6048372"},{"town":"姉西洞院町","koaza":"","lat":35.009278,"lng":135.755158,"zip":"6048273"},{"town":"姉西堀川町","koaza":"","lat":35.009226,"lng":135.7517,"zip":"6048264"},{"town":"姉東堀川町","koaza":"","lat":35.00932,"lng":135.752295,"zip":"6048263"},{"town":"油屋町","koaza":"","lat":35.006204,"lng":135.7649,"zip":"6048063"},{"town":"池須町","koaza":"","lat":35.006747,"lng":135.755284,"zip":"6048216"},{"town":"池元町","koaza":"","lat":35.01139,"lng":135.751386,"zip":"6048302"},{"town":"石橋町","koaza":"","lat":35.010995,"lng":135.754668,"zip":"6040043"},{"town":"石屋町","koaza":"","lat":35.017366,"lng":135.766955,"zip":"6040996"},{"town":"泉町","koaza":"","lat":35.014968,"lng":135.757562,"zip":"6040015"},{"town":"伊勢屋町","koaza":"","lat":35.006663,"lng":135.766334,"zip":"6048066"},{"town":"市之町","koaza":"","lat":35.011469,"lng":135.748874,"zip":"6048305"},{"town":"一之船入町","koaza":"","lat":35.01217,"lng":135.769483,"zip":"6040924"},{"town":"一蓮社町","koaza":"","lat":35.006357,"lng":135.760288,"zip":"6048146"},{"town":"井筒屋町","koaza":"","lat":35.006767,"lng":135.764023,"zip":"6048113"},{"town":"因幡町","koaza":"","lat":35.006737,"lng":135.747427,"zip":"6048803"},{"town":"今新在家西町","koaza":"","lat":35.007958,"lng":135.746646,"zip":"6048801"},{"town":"今新在家東町","koaza":"","lat":35.007904,"lng":135.747455,"zip":"6048802"},{"town":"岩上町","koaza":"","lat":35.006914,"lng":135.751105,"zip":"6048341"},{"town":"魚屋町","koaza":"","lat":35.016195,"lng":135.766078,"zip":"6040984"},{"town":"姥柳町","koaza":"","lat":35.006045,"lng":135.757156,"zip":"6048213"},{"town":"梅忠町","koaza":"","lat":35.008631,"lng":135.76026,"zip":"6048136"},{"town":"梅之木町","koaza":"","lat":35.015773,"lng":135.767812,"zip":"6040905"},{"town":"梅屋町","koaza":"","lat":35.010526,"lng":135.760205,"zip":"6040091"},{"town":"占出山町","koaza":"","lat":35.004876,"lng":135.758812,"zip":"6048155"},{"town":"裏寺町","koaza":"","lat":35.005636,"lng":135.76831,"zip":"6048041"},{"town":"永楽町","koaza":"","lat":35.007894,"lng":135.766812,"zip":"6048071"},{"town":"越後町","koaza":"","lat":35.007624,"lng":135.752717,"zip":"6048256"},{"town":"越後突抜町","koaza":"","lat":35.006694,"lng":135.752775,"zip":"6048252"},{"town":"榎木町","koaza":"","lat":35.01283,"lng":135.767938,"zip":"6040931"},{"town":"夷町","koaza":"","lat":35.014407,"lng":135.761634,"zip":"6040813"},{"town":"恵比須町","koaza":"","lat":35.009369,"lng":135.769417,"zip":"6048005"},{"town":"海老屋町","koaza":"","lat":35.007953,"lng":135.766334,"zip":"6048076"},{"town":"烏帽子屋町","koaza":"","lat":35.007887,"lng":135.758137,"zip":"6048165"},{"town":"役行者町","koaza":"","lat":35.00921,"lng":135.758025,"zip":"6048174"},{"town":"円福寺町","koaza":"","lat":35.010403,"lng":135.758005,"zip":"6048175"},{"town":"円福寺前町","koaza":"","lat":35.005595,"lng":135.766696,"zip":"6048045"},{"town":"御池大東町","koaza":"","lat":35.011005,"lng":135.766867,"zip":"6040942"},{"town":"御池之町","koaza":"","lat":35.011529,"lng":135.757948,"zip":"6040022"},{"town":"扇屋町","koaza":"","lat":35.011612,"lng":135.76313,"zip":"6040824"},{"town":"大炊町","koaza":"","lat":35.016816,"lng":135.756524,"zip":"6040092"},{"town":"大倉町","koaza":"","lat":35.016812,"lng":135.759411,"zip":"6040861"},{"town":"大阪材木町","koaza":"","lat":35.009355,"lng":135.763241,"zip":"6048182"},{"town":"大津町","koaza":"","lat":35.016779,"lng":135.761605,"zip":"6040885"},{"town":"押油小路町","koaza":"","lat":35.011516,"lng":135.753279,"zip":"6040052"},{"town":"押西洞院町","koaza":"","lat":35.011609,"lng":135.755085,"zip":"6040042"},{"town":"押堀町","koaza":"","lat":35.011578,"lng":135.752292,"zip":"6040054"},{"town":"帯屋町","koaza":"","lat":35.004386,"lng":135.76257,"zip":"6048124"},{"town":"織物屋町","koaza":"","lat":35.0113,"lng":135.74977,"zip":"6048304"},{"town":"尾張町","koaza":"","lat":35.013006,"lng":135.765778,"zip":"6040934"},{"town":"御供町","koaza":"","lat":35.00849,"lng":135.749795,"zip":"6048331"},{"town":"貝屋町","koaza":"","lat":35.005641,"lng":135.762413,"zip":"6048126"},{"town":"鏡屋町","koaza":"","lat":35.015572,"lng":135.758018,"zip":"6040002"},{"town":"柿本町","koaza":"","lat":35.009438,"lng":135.758781,"zip":"6048173"},{"town":"鍵屋町","koaza":"","lat":35.01734,"lng":135.763148,"zip":"6040801"},{"town":"鍛冶町","koaza":"","lat":35.009809,"lng":135.75287,"zip":"6048267"},{"town":"鍛冶屋町","koaza":"","lat":35.004996,"lng":135.766069,"zip":"6040964"},{"town":"頭町","koaza":"","lat":35.012886,"lng":135.756555,"zip":"6040031"},{"town":"柏屋町","koaza":"","lat":35.004154,"lng":135.771271,"zip":"6048014"},{"town":"金屋町","koaza":"","lat":35.006132,"lng":135.751157,"zip":"6048352"},{"town":"甲屋町","koaza":"","lat":35.006803,"lng":135.763271,"zip":"6048114"},{"town":"釜座町","koaza":"","lat":35.00852,"lng":135.755829,"zip":"6048241"},{"town":"上一文字町","koaza":"","lat":35.009178,"lng":135.749678,"zip":"6048325"},{"town":"上大阪町","koaza":"","lat":35.010066,"lng":135.77107,"zip":"6048001"},{"town":"上瓦町","koaza":"","lat":35.008387,"lng":135.747964,"zip":"6048374"},{"town":"上黒門町","koaza":"","lat":35.006789,"lng":135.749689,"zip":"6048343"},{"town":"上樵木町","koaza":"","lat":35.011607,"lng":135.771065,"zip":"6040923"},{"town":"上巴町","koaza":"","lat":35.010455,"lng":135.751143,"zip":"6048312"},{"town":"上白山町","koaza":"","lat":35.011477,"lng":135.765758,"zip":"6040943"},{"town":"上八文字町","koaza":"","lat":35.009182,"lng":135.751152,"zip":"6048323"},{"town":"上本能寺前町","koaza":"","lat":35.011582,"lng":135.767914,"zip":"6040925"},{"town":"上松屋町","koaza":"","lat":35.012727,"lng":135.755847,"zip":"6040035"},{"town":"上妙覚寺町","koaza":"","lat":35.012738,"lng":135.757257,"zip":"6040025"},{"town":"紙屋町","koaza":"","lat":35.004838,"lng":135.770216,"zip":"6048024"},{"town":"亀屋町","koaza":"","lat":35.016184,"lng":135.758767,"zip":"6040094"},{"town":"雁金町","koaza":"","lat":35.006144,"lng":135.763142,"zip":"6048115"},{"town":"瓦師町","koaza":"","lat":35.00914,"lng":135.747509,"zip":"6048373"},{"town":"瓦町","koaza":"","lat":35.012881,"lng":135.76239,"zip":"6040827"},{"town":"瓦之町","koaza":"","lat":35.012848,"lng":135.760974,"zip":"6040837"},{"town":"関東屋町","koaza":"","lat":35.017369,"lng":135.76161,"zip":"6040886"},{"town":"観音堂町","koaza":"","lat":35.004416,"lng":135.757435,"zip":"6048222"},{"town":"観音町","koaza":"","lat":35.013648,"lng":135.76302,"zip":"6040821"},{"town":"甘露町","koaza":"","lat":35.016207,"lng":135.7669,"zip":"6040994"},{"town":"菊水鉾町","koaza":"","lat":35.004529,"lng":135.758126,"zip":"6048154"},{"town":"菊屋町","koaza":"","lat":35.009846,"lng":135.764495,"zip":"6040975"},{"town":"北車屋町","koaza":"","lat":35.00699,"lng":135.769837,"zip":"6048021"},{"town":"北小路町","koaza":"","lat":35.014316,"lng":135.758804,"zip":"6040856"},{"town":"亀甲屋町","koaza":"","lat":35.010406,"lng":135.762404,"zip":"6048105"},{"town":"絹屋町","koaza":"","lat":35.015568,"lng":135.763143,"zip":"6040804"},{"town":"木之下町","koaza":"","lat":35.009859,"lng":135.763577,"zip":"6048104"},{"town":"木屋町","koaza":"","lat":35.014958,"lng":135.766158,"zip":"6040961"},{"town":"九町目","koaza":"","lat":35.014272,"lng":135.752208,"zip":"6040065"},{"town":"行願寺門前町","koaza":"","lat":35.016343,"lng":135.767643,"zip":"6040991"},{"town":"金吹町","koaza":"","lat":35.012395,"lng":135.758811,"zip":"6040846"},{"town":"空也町","koaza":"","lat":35.004887,"lng":135.754394,"zip":"6048232"},{"town":"久遠院前町","koaza":"","lat":35.015547,"lng":135.76708,"zip":"6040993"},{"town":"楠町","koaza":"","lat":35.015571,"lng":135.761615,"zip":"6040883"},{"town":"薬屋町","koaza":"","lat":35.014242,"lng":135.753063,"zip":"6040066"},{"town":"倉本町","koaza":"","lat":35.009734,"lng":135.749826,"zip":"6048321"},{"town":"車屋町","koaza":"","lat":35.009697,"lng":135.76032,"zip":"6048185"},{"town":"桑原町","koaza":"","lat":35.017348,"lng":135.764477,"zip":"6040976"},{"town":"鯉山町","koaza":"","lat":35.006751,"lng":135.75802,"zip":"6048163"},{"town":"御所八幡町","koaza":"","lat":35.011049,"lng":135.763095,"zip":"6040825"},{"town":"五丁目","koaza":"","lat":35.015582,"lng":135.763968,"zip":"6040000"},{"town":"小結棚町","koaza":"","lat":35.004408,"lng":135.756682,"zip":"6048223"},{"town":"米屋町","koaza":"","lat":35.004396,"lng":135.769443,"zip":"6048026"},{"town":"衣棚町","koaza":"","lat":35.008549,"lng":135.757418,"zip":"6048203"},{"town":"昆布屋町","koaza":"","lat":35.017393,"lng":135.766102,"zip":"6040986"},{"town":"西方寺町","koaza":"","lat":35.016705,"lng":135.758736,"zip":"6040866"},{"town":"材木町","koaza":"","lat":35.007584,"lng":135.770722,"zip":"6048017"},{"town":"坂井町","koaza":"","lat":35.006735,"lng":135.765848,"zip":"6048065"},{"town":"坂本町","koaza":"","lat":35.016809,"lng":135.762389,"zip":"6040881"},{"town":"左京町","koaza":"","lat":35.012248,"lng":135.761858,"zip":"6040833"},{"town":"桜之町","koaza":"","lat":35.007708,"lng":135.767413,"zip":"6048035"},{"town":"笹屋町","koaza":"","lat":35.015536,"lng":135.765791,"zip":"6040983"},{"town":"指物町","koaza":"","lat":35.01495,"lng":135.769019,"zip":"6040903"},{"town":"指物屋町","koaza":"","lat":35.016222,"lng":135.755763,"zip":"6040095"},{"town":"三条油小路町","koaza":"","lat":35.007931,"lng":135.753594,"zip":"6048251"},{"town":"三条猪熊町","koaza":"","lat":35.007838,"lng":135.750413,"zip":"6048334"},{"town":"三条大宮町","koaza":"","lat":35.007593,"lng":135.748469,"zip":"6048336"},{"town":"三条町","koaza":"","lat":35.007906,"lng":135.756642,"zip":"6048205"},{"town":"三坊猪熊町北組","koaza":"","lat":35.010677,"lng":135.750528,"zip":"6048313"},{"town":"三坊猪熊町南組","koaza":"","lat":35.010087,"lng":135.75045,"zip":"6048314"},{"town":"三坊大宮町","koaza":"","lat":35.010375,"lng":135.748817,"zip":"6048316"},{"town":"三坊西洞院町","koaza":"","lat":35.010391,"lng":135.755173,"zip":"6048277"},{"town":"三坊堀川町","koaza":"","lat":35.010349,"lng":135.752144,"zip":"6048266"},{"town":"三本木五丁目","koaza":"","lat":35.015569,"lng":135.760862,"zip":"6040872"},{"town":"三本木町","koaza":"","lat":35.016839,"lng":135.760873,"zip":"6040871"},{"town":"三文字町","koaza":"","lat":35.004814,"lng":135.752719,"zip":"6048135"},{"town":"塩屋町","koaza":"","lat":35.008552,"lng":135.754496,"zip":"6048027"},{"town":"式阿弥町","koaza":"","lat":35.010367,"lng":135.753453,"zip":"6048261"},{"town":"式部町","koaza":"","lat":35.006709,"lng":135.766772,"zip":"6048061"},{"town":"七観音町","koaza":"","lat":35.006745,"lng":135.759203,"zip":"6048162"},{"town":"七軒町","koaza":"","lat":35.004829,"lng":135.749797,"zip":"6048366"},{"town":"四坊大宮町","koaza":"","lat":35.005522,"lng":135.748667,"zip":"6048356"},{"town":"四坊堀川町","koaza":"","lat":35.00542,"lng":135.752357,"zip":"6048254"},{"town":"清水町","koaza":"","lat":35.016255,"lng":135.760096,"zip":"6040874"},{"town":"下一文字町","koaza":"","lat":35.007885,"lng":135.749671,"zip":"6048335"},{"town":"下大阪町","koaza":"","lat":35.005086,"lng":135.769659,"zip":"6048025"},{"town":"下瓦町","koaza":"","lat":35.005523,"lng":135.750438,"zip":"6048354"},{"town":"下黒門町","koaza":"","lat":35.005393,"lng":135.7497,"zip":"6048355"},{"town":"下樵木町","koaza":"","lat":35.006106,"lng":135.770765,"zip":"6048016"},{"town":"下御霊前町","koaza":"","lat":35.016934,"lng":135.767478,"zip":"6040995"},{"town":"下白山町","koaza":"","lat":35.009393,"lng":135.765773,"zip":"6048085"},{"town":"下八文字町","koaza":"","lat":35.007823,"lng":135.751104,"zip":"6048333"},{"town":"下古城町","koaza":"","lat":35.011613,"lng":135.754336,"zip":"6040044"},{"town":"下本能寺前町","koaza":"","lat":35.010404,"lng":135.767733,"zip":"6048091"},{"town":"下松屋町","koaza":"","lat":35.011706,"lng":135.75585,"zip":"6040034"},{"town":"下丸屋町","koaza":"","lat":35.015535,"lng":135.75422,"zip":"6040084"},{"town":"下妙覚寺町","koaza":"","lat":35.011732,"lng":135.757264,"zip":"6040024"},{"town":"砂金町","koaza":"","lat":35.016857,"lng":135.760114,"zip":"6040875"},{"town":"十文字町","koaza":"","lat":35.005593,"lng":135.764041,"zip":"6048121"},{"town":"聚楽廻中町","koaza":"","lat":35.017471,"lng":135.741069,"zip":"6048403"},{"town":"聚楽廻西町","koaza":"","lat":35.017948,"lng":135.739952,"zip":"6048402"},{"town":"聚楽廻東町","koaza":"","lat":35.017392,"lng":135.742168,"zip":"6048404"},{"town":"聚楽廻松下町","koaza":"","lat":35.018964,"lng":135.73846,"zip":"6048401"},{"town":"聚楽廻南町","koaza":"","lat":35.014997,"lng":135.741667,"zip":"6048411"},{"town":"正行寺町","koaza":"","lat":35.013594,"lng":135.755781,"zip":"6040036"},{"town":"少将井御旅町","koaza":"","lat":35.01547,"lng":135.76011,"zip":"6040873"},{"town":"少将井町","koaza":"","lat":35.015627,"lng":135.75941,"zip":"6040862"},{"town":"猩々町","koaza":"","lat":35.007916,"lng":135.75441,"zip":"6048246"},{"town":"常真横町","koaza":"","lat":35.017422,"lng":135.758741,"zip":"6040867"},{"town":"松竹町","koaza":"","lat":35.015558,"lng":135.758774,"zip":"6040864"},{"town":"白壁町","koaza":"","lat":35.008026,"lng":135.765697,"zip":"6048075"},{"town":"神泉苑町","koaza":"","lat":35.010391,"lng":135.747457,"zip":"6048371"},{"town":"真如堂町","koaza":"","lat":35.014294,"lng":135.760158,"zip":"6040853"},{"town":"神明町","koaza":"","lat":35.010417,"lng":135.756533,"zip":"6048207"},{"town":"末丸町","koaza":"","lat":35.015819,"lng":135.770396,"zip":"6040901"},{"town":"杉屋町","koaza":"","lat":35.012908,"lng":135.763164,"zip":"6040822"},{"town":"角倉町","koaza":"","lat":35.013963,"lng":135.768334,"zip":"6040913"},{"town":"炭之座町","koaza":"","lat":35.004408,"lng":135.755858,"zip":"6048224"},{"town":"西堂町","koaza":"","lat":35.009167,"lng":135.754388,"zip":"6048274"},{"town":"晴明町","koaza":"","lat":35.013696,"lng":135.764867,"zip":"6040951"},{"town":"瀬戸屋町","koaza":"","lat":35.004356,"lng":135.764042,"zip":"6048122"},{"town":"泉正寺町","koaza":"","lat":35.005959,"lng":135.761995,"zip":"6048141"},{"town":"宗林町","koaza":"","lat":35.009152,"lng":135.753402,"zip":"6048262"},{"town":"大恩寺町","koaza":"","lat":35.013603,"lng":135.75729,"zip":"6040026"},{"town":"大黒町","koaza":"","lat":35.014328,"lng":135.755756,"zip":"6040014"},{"town":"大日町","koaza":"","lat":35.004501,"lng":135.76623,"zip":"6048044"},{"town":"大文字町","koaza":"","lat":35.016116,"lng":135.768937,"zip":"6040071"},{"town":"高田町","koaza":"","lat":35.011622,"lng":135.761738,"zip":"6040834"},{"town":"高宮町","koaza":"","lat":35.01099,"lng":135.761851,"zip":"6040835"},{"town":"笋町","koaza":"","lat":35.004547,"lng":135.759624,"zip":"6048153"},{"town":"竹屋町","koaza":"","lat":35.012262,"lng":135.763016,"zip":"6040823"},{"town":"蛸薬師町","koaza":"","lat":35.012867,"lng":135.758017,"zip":"6040021"},{"town":"蛸屋町","koaza":"","lat":35.006176,"lng":135.766018,"zip":"6048062"},{"town":"畳屋町","koaza":"","lat":35.006136,"lng":135.749665,"zip":"6048351"},{"town":"橘町","koaza":"","lat":35.016765,"lng":135.763169,"zip":"6040802"},{"town":"橘柳町","koaza":"","lat":35.013941,"lng":135.767924,"zip":"6040914"},{"town":"龍池町","koaza":"","lat":35.010681,"lng":135.758812,"zip":"6048176"},{"town":"竪大恩寺町","koaza":"","lat":35.014334,"lng":135.757178,"zip":"6040012"},{"town":"田中町","koaza":"","lat":35.01688,"lng":135.75495,"zip":"6040081"},{"town":"玉植町","koaza":"","lat":35.016848,"lng":135.757274,"zip":"6040005"},{"town":"玉蔵町","koaza":"","lat":35.007231,"lng":135.757186,"zip":"6048211"},{"town":"達磨町","koaza":"","lat":35.014288,"lng":135.766499,"zip":"6040962"},{"town":"樽屋町","koaza":"","lat":35.009748,"lng":135.751089,"zip":"6048322"},{"town":"俵屋町","koaza":"","lat":35.011051,"lng":135.750127,"zip":"6040952"},{"town":"滕屋町","koaza":"","lat":35.007512,"lng":135.761943,"zip":"6048133"},{"town":"丁子屋町","koaza":"","lat":35.013761,"lng":135.766775,"zip":"6040935"},{"town":"津軽町","koaza":"","lat":35.010368,"lng":135.755797,"zip":"6048271"},{"town":"突抜町","koaza":"","lat":35.009372,"lng":135.757298,"zip":"6048202"},{"town":"土橋町","koaza":"","lat":35.01264,"lng":135.752197,"zip":"6040055"},{"town":"槌屋町","koaza":"","lat":35.014222,"lng":135.754236,"zip":"6040061"},{"town":"壺屋町","koaza":"","lat":35.010283,"lng":135.754329,"zip":"6040814"},{"town":"手洗水町","koaza":"","lat":35.005541,"lng":135.759594,"zip":"6048152"},{"town":"天守町","koaza":"","lat":35.014398,"lng":135.762393,"zip":"6040812"},{"town":"天性寺前町","koaza":"","lat":35.009257,"lng":135.767464,"zip":"6048081"},{"town":"天神山町","koaza":"","lat":35.005001,"lng":135.757416,"zip":"6048221"},{"town":"等持寺町","koaza":"","lat":35.012941,"lng":135.764012,"zip":"6040956"},{"town":"道場町","koaza":"","lat":35.016826,"lng":135.758044,"zip":"6040001"},{"town":"堂之前町","koaza":"","lat":35.007505,"lng":135.760236,"zip":"6048134"},{"town":"道祐町","koaza":"","lat":35.007987,"lng":135.76327,"zip":"6048118"},{"town":"蟷螂山町","koaza":"","lat":35.004432,"lng":135.755007,"zip":"6048225"},{"town":"常盤木町","koaza":"","lat":35.014221,"lng":135.767447,"zip":"6040915"},{"town":"巴町","koaza":"","lat":35.014858,"lng":135.758752,"zip":"6040863"},{"town":"虎石町","koaza":"","lat":35.011827,"lng":135.763966,"zip":"6040955"},{"town":"虎屋町","koaza":"","lat":35.010386,"lng":135.759527,"zip":"6048171"},{"town":"曇華院前町","koaza":"","lat":35.009328,"lng":135.761356,"zip":"6048184"},{"town":"中魚屋町","koaza":"","lat":35.005005,"lng":135.762939,"zip":"6048125"},{"town":"中島町","koaza":"","lat":35.008938,"lng":135.770561,"zip":"6048004"},{"town":"中筋町","koaza":"","lat":35.006704,"lng":135.767376,"zip":"6048047"},{"town":"中之町","koaza":"","lat":35.016778,"lng":135.754195,"zip":"6040032"},{"town":"中白山町","koaza":"","lat":35.010435,"lng":135.765697,"zip":"6048094"},{"town":"長浜町","koaza":"","lat":35.010367,"lng":135.757276,"zip":"6048201"},{"town":"仲保利町","koaza":"","lat":35.011059,"lng":135.760265,"zip":"6040844"},{"town":"七町目","koaza":"","lat":35.016716,"lng":135.752542,"zip":"6040076"},{"town":"鍋屋町","koaza":"","lat":35.004713,"lng":135.771113,"zip":"6048015"},{"town":"奈良屋町","koaza":"","lat":35.006301,"lng":135.7692,"zip":"6048033"},{"town":"仁王門町","koaza":"","lat":35.013705,"lng":135.760282,"zip":"6040854"},{"town":"仁王門突抜町","koaza":"","lat":35.012913,"lng":135.760251,"zip":"6040841"},{"town":"西生洲町","koaza":"","lat":35.012803,"lng":135.770221,"zip":"6040921"},{"town":"西魚屋町","koaza":"","lat":35.004801,"lng":135.762044,"zip":"6048142"},{"town":"西夷川町","koaza":"","lat":35.014881,"lng":135.752564,"zip":"6040073"},{"town":"西押小路町","koaza":"","lat":35.012196,"lng":135.760261,"zip":"6040842"},{"town":"錦猪熊町","koaza":"","lat":35.004455,"lng":135.7504,"zip":"6048363"},{"town":"錦大宮町","koaza":"","lat":35.004277,"lng":135.748812,"zip":"6048365"},{"town":"錦堀川町","koaza":"","lat":35.004396,"lng":135.75185,"zip":"6048235"},{"town":"西九軒町","koaza":"","lat":35.014866,"lng":135.759877,"zip":"6040851"},{"town":"西革堂町","koaza":"","lat":35.015619,"lng":135.768495,"zip":"6040904"},{"town":"西三坊堀川町","koaza":"","lat":35.010363,"lng":135.751716,"zip":"6048265"},{"town":"西大黒町","koaza":"","lat":35.013566,"lng":135.754271,"zip":"6040063"},{"town":"西大文字町","koaza":"","lat":35.004465,"lng":135.764856,"zip":"6048054"},{"town":"西竹屋町","koaza":"","lat":35.015978,"lng":135.752605,"zip":"6040075"},{"town":"西錦小路町","koaza":"","lat":35.004996,"lng":135.755802,"zip":"6048226"},{"town":"西ノ京池ノ内町","koaza":"","lat":35.009742,"lng":135.74595,"zip":"6048375"},{"town":"西ノ京内畑町","koaza":"","lat":35.014822,"lng":135.738738,"zip":"6048417"},{"town":"西ノ京右馬寮町","koaza":"","lat":35.014848,"lng":135.736972,"zip":"6048492"},{"town":"西ノ京円町","koaza":"","lat":35.018544,"lng":135.732234,"zip":"6048463"},{"town":"西ノ京大炊御門町","koaza":"","lat":35.020349,"lng":135.729327,"zip":"6048467"},{"town":"西ノ京小倉町","koaza":"","lat":35.009642,"lng":135.740043,"zip":"6048414"},{"town":"西ノ京笠殿町","koaza":"","lat":35.014756,"lng":135.733544,"zip":"6048482"},{"town":"西ノ京春日町","koaza":"","lat":35.017148,"lng":135.727659,"zip":"6048453"},{"town":"西ノ京上合町","koaza":"","lat":35.01666,"lng":135.732838,"zip":"6048484"},{"town":"西ノ京上平町","koaza":"","lat":35.018096,"lng":135.733813,"zip":"6048494"},{"town":"西ノ京勧学院町","koaza":"","lat":35.009696,"lng":135.744515,"zip":"6048413"},{"town":"西ノ京北円町","koaza":"","lat":35.019934,"lng":135.731554,"zip":"6048462"},{"town":"西ノ京北小路町","koaza":"","lat":35.008965,"lng":135.733818,"zip":"6048433"},{"town":"西ノ京北壺井町","koaza":"","lat":35.015181,"lng":135.729817,"zip":"6048472"},{"town":"西ノ京車坂町","koaza":"","lat":35.016982,"lng":135.738386,"zip":"6048405"},{"town":"西ノ京桑原町","koaza":"","lat":35.009539,"lng":135.727468,"zip":"6048442"},{"town":"西ノ京小堀池町","koaza":"","lat":35.014881,"lng":135.726274,"zip":"6048454"},{"town":"西ノ京小堀町","koaza":"","lat":35.01371,"lng":135.742701,"zip":"6048383"},{"town":"西ノ京左馬寮町","koaza":"","lat":35.018006,"lng":135.736864,"zip":"6048491"},{"town":"西ノ京三条坊町","koaza":"","lat":35.008967,"lng":135.731213,"zip":"6048435"},{"town":"西ノ京鹿垣町","koaza":"","lat":35.019211,"lng":135.735299,"zip":"6048496"},{"town":"西ノ京式部町","koaza":"","lat":35.013959,"lng":135.744457,"zip":"6048384"},{"town":"西ノ京島ノ内町","koaza":"","lat":35.009126,"lng":135.724804,"zip":"6048443"},{"town":"西ノ京下合町","koaza":"","lat":35.010332,"lng":135.731352,"zip":"6048436"},{"town":"西ノ京職司町","koaza":"","lat":35.011235,"lng":135.743677,"zip":"6048381"},{"town":"西ノ京新建町","koaza":"","lat":35.009041,"lng":135.732456,"zip":"6048434"},{"town":"西ノ京塚本町","koaza":"","lat":35.014683,"lng":135.727714,"zip":"6048474"},{"town":"西ノ京月輪町","koaza":"","lat":35.011586,"lng":135.724802,"zip":"6048444"},{"town":"西ノ京壺ノ内町","koaza":"","lat":35.017248,"lng":135.726248,"zip":"6048456"},{"town":"西ノ京銅駝町","koaza":"","lat":35.012283,"lng":135.735264,"zip":"6048425"},{"town":"西ノ京栂尾町","koaza":"","lat":35.009995,"lng":135.74121,"zip":"6048415"},{"town":"西ノ京徳大寺町","koaza":"","lat":35.012479,"lng":135.726978,"zip":"6048445"},{"town":"西ノ京中保町","koaza":"","lat":35.02144,"lng":135.731455,"zip":"6048461"},{"town":"西ノ京中御門西町","koaza":"","lat":35.017211,"lng":135.729205,"zip":"6048475"},{"town":"西ノ京中御門東町","koaza":"","lat":35.016617,"lng":135.731243,"zip":"6048471"},{"town":"西ノ京永本町","koaza":"","lat":35.012276,"lng":135.73847,"zip":"6048421"},{"town":"西ノ京南聖町","koaza":"","lat":35.009576,"lng":135.743381,"zip":"6048412"},{"town":"西ノ京西円町","koaza":"","lat":35.018929,"lng":135.73067,"zip":"6048465"},{"town":"西ノ京西月光町","koaza":"","lat":35.009733,"lng":135.73674,"zip":"6048423"},{"town":"西ノ京西鹿垣町","koaza":"","lat":35.019211,"lng":135.734005,"zip":"6048495"},{"town":"西ノ京西中合町","koaza":"","lat":35.012246,"lng":135.729251,"zip":"6048441"},{"town":"西ノ京伯楽町","koaza":"","lat":35.019799,"lng":135.727677,"zip":"6048452"},{"town":"西ノ京馬代町","koaza":"","lat":35.019904,"lng":135.726214,"zip":"6048457"},{"town":"西ノ京原町","koaza":"","lat":35.012176,"lng":135.733568,"zip":"6048431"},{"town":"西ノ京東月光町","koaza":"","lat":35.009744,"lng":135.738453,"zip":"6048422"},{"town":"西ノ京東栂尾町","koaza":"","lat":35.01017,"lng":135.74209,"zip":"6048418"},{"town":"西ノ京東中合町","koaza":"","lat":35.011818,"lng":135.731363,"zip":"6048437"},{"town":"西ノ京樋ノ口町","koaza":"","lat":35.009727,"lng":135.73519,"zip":"6048424"},{"town":"西ノ京平町","koaza":"","lat":35.016881,"lng":135.733859,"zip":"6048485"},{"town":"西ノ京藤ノ木町","koaza":"","lat":35.014734,"lng":135.724786,"zip":"6048455"},{"town":"西ノ京船塚町","koaza":"","lat":35.012289,"lng":135.736843,"zip":"6048426"},{"town":"西ノ京北聖町","koaza":"","lat":35.012167,"lng":135.743923,"zip":"6048382"},{"town":"西ノ京星池町","koaza":"","lat":35.012468,"lng":135.740863,"zip":"6048416"},{"town":"西ノ京御輿岡町","koaza":"","lat":35.021855,"lng":135.728371,"zip":"6048451"},{"town":"西ノ京南円町","koaza":"","lat":35.017629,"lng":135.731428,"zip":"6048464"},{"town":"西ノ京南大炊御門町","koaza":"","lat":35.019084,"lng":135.72927,"zip":"6048466"},{"town":"西ノ京南上合町","koaza":"","lat":35.014548,"lng":135.731349,"zip":"6048483"},{"town":"西ノ京南壺井町","koaza":"","lat":35.014099,"lng":135.729245,"zip":"6048473"},{"town":"西ノ京南原町","koaza":"","lat":35.01037,"lng":135.733513,"zip":"6048432"},{"town":"西ノ京南両町","koaza":"","lat":35.016709,"lng":135.73532,"zip":"6048493"},{"town":"西ノ京両町","koaza":"","lat":35.017993,"lng":135.735389,"zip":"6048497"},{"town":"西ノ京冷泉町","koaza":"","lat":35.014763,"lng":135.735363,"zip":"6048481"},{"town":"二条油小路町","koaza":"","lat":35.012722,"lng":135.753121,"zip":"6040051"},{"town":"二条城町","koaza":"","lat":35.013878,"lng":135.748636,"zip":"6048301"},{"town":"二条新町","koaza":"","lat":35.01423,"lng":135.756536,"zip":"6040013"},{"town":"二条殿町","koaza":"","lat":35.011668,"lng":135.759502,"zip":"6040845"},{"town":"二条西洞院町","koaza":"","lat":35.012776,"lng":135.755108,"zip":"6040041"},{"town":"西横町","koaza":"","lat":35.011076,"lng":135.757164,"zip":"6040023"},{"town":"西六角町","koaza":"","lat":35.007212,"lng":135.75589,"zip":"6048217"},{"town":"塗師屋町","koaza":"","lat":35.011615,"lng":135.760194,"zip":"6040843"},{"town":"橋浦町","koaza":"","lat":35.007901,"lng":135.751823,"zip":"6048257"},{"town":"橋下町","koaza":"","lat":35.007796,"lng":135.771436,"zip":"6048003"},{"town":"橋西町","koaza":"","lat":35.008521,"lng":135.75117,"zip":"6048332"},{"town":"橋之町","koaza":"","lat":35.011093,"lng":135.755892,"zip":"6040033"},{"town":"橋東詰町","koaza":"","lat":35.008522,"lng":135.752636,"zip":"6048258"},{"town":"橋弁慶町","koaza":"","lat":35.006175,"lng":135.758911,"zip":"6048151"},{"town":"橋本町","koaza":"","lat":35.015528,"lng":135.753466,"zip":"6040072"},{"town":"八町目","koaza":"","lat":35.015521,"lng":135.752246,"zip":"6040074"},{"town":"花立町","koaza":"","lat":35.015682,"lng":135.757219,"zip":"6040003"},{"town":"場之町","koaza":"","lat":35.009214,"lng":135.759592,"zip":"6048172"},{"town":"阪東屋町","koaza":"","lat":35.004473,"lng":135.760961,"zip":"6048143"},{"town":"柊町","koaza":"","lat":35.011607,"lng":135.762391,"zip":"6040826"},{"town":"東生洲町","koaza":"","lat":35.012863,"lng":135.770855,"zip":"6040922"},{"town":"東魚屋町","koaza":"","lat":35.00501,"lng":135.76455,"zip":"6048055"},{"town":"東夷川町","koaza":"","lat":35.014953,"lng":135.754218,"zip":"6040083"},{"town":"東片町","koaza":"","lat":35.009262,"lng":135.762507,"zip":"6048183"},{"town":"東側町","koaza":"","lat":35.005693,"lng":135.767323,"zip":"6048046"},{"town":"東九軒町","koaza":"","lat":35.014887,"lng":135.760531,"zip":"6040852"},{"town":"東椹木町","koaza":"","lat":35.01645,"lng":135.76814,"zip":"6040906"},{"town":"東大文字町","koaza":"","lat":35.004503,"lng":135.766678,"zip":"6048043"},{"town":"東竹屋町","koaza":"","lat":35.016211,"lng":135.754175,"zip":"6040085"},{"town":"東玉屋町","koaza":"","lat":35.013627,"lng":135.758797,"zip":"6040855"},{"town":"東八幡町","koaza":"","lat":35.011112,"lng":135.7644,"zip":"6040954"},{"town":"光リ堂町","koaza":"","lat":35.017351,"lng":135.760178,"zip":"6040876"},{"town":"菱屋町","koaza":"","lat":35.008549,"lng":135.761888,"zip":"6048131"},{"town":"毘沙門町","koaza":"","lat":35.016952,"lng":135.76652,"zip":"6040082"},{"town":"備前島町","koaza":"","lat":35.005946,"lng":135.770061,"zip":"6048023"},{"town":"樋之口町","koaza":"","lat":35.01326,"lng":135.769836,"zip":"6040912"},{"town":"福長町","koaza":"","lat":35.009325,"lng":135.764961,"zip":"6048084"},{"town":"福屋町","koaza":"","lat":35.015564,"lng":135.762384,"zip":"6040882"},{"town":"藤岡町","koaza":"","lat":35.004346,"lng":135.74972,"zip":"6048364"},{"town":"藤木町","koaza":"","lat":35.015253,"lng":135.767628,"zip":"6040992"},{"town":"藤西町","koaza":"","lat":35.004341,"lng":135.752998,"zip":"6048234"},{"town":"藤本町","koaza":"","lat":35.004421,"lng":135.753731,"zip":"6048233"},{"town":"不動町","koaza":"","lat":35.006092,"lng":135.755727,"zip":"6048215"},{"town":"船屋町","koaza":"","lat":35.005594,"lng":135.766252,"zip":"6040836"},{"town":"舟屋町","koaza":"","lat":35.016906,"lng":135.765784,"zip":"6040985"},{"town":"古城町","koaza":"","lat":35.012749,"lng":135.754239,"zip":"6040045"},{"town":"古西町","koaza":"","lat":35.005528,"lng":135.755149,"zip":"6048227"},{"town":"塀之内町","koaza":"","lat":35.016197,"lng":135.761988,"zip":"6040884"},{"town":"弁慶石町","koaza":"","lat":35.008643,"lng":135.766205,"zip":"6048082"},{"town":"弁財天町","koaza":"","lat":35.015546,"lng":135.756521,"zip":"6040093"},{"town":"鉾田町","koaza":"","lat":35.01436,"lng":135.771078,"zip":"6040902"},{"town":"布袋屋町","koaza":"","lat":35.014289,"lng":135.765778,"zip":"6040963"},{"town":"骨屋町","koaza":"","lat":35.007422,"lng":135.758743,"zip":"6048164"},{"town":"骨屋之町","koaza":"","lat":35.006762,"lng":135.765058,"zip":"6048064"},{"town":"堀之上町","koaza":"","lat":35.007433,"lng":135.763137,"zip":"6048117"},{"town":"本能寺町","koaza":"","lat":35.007288,"lng":135.75444,"zip":"6048243"},{"town":"蒔絵屋町","koaza":"","lat":35.014262,"lng":135.759459,"zip":"6040857"},{"town":"桝屋町","koaza":"","lat":35.004502,"lng":135.765612,"zip":"6040096"},{"town":"町頭町","koaza":"","lat":35.009206,"lng":135.756591,"zip":"6048206"},{"town":"松浦町","koaza":"","lat":35.004369,"lng":135.751046,"zip":"6048362"},{"town":"松ケ枝町","koaza":"","lat":35.007581,"lng":135.768281,"zip":"6048034"},{"town":"松下町","koaza":"","lat":35.010416,"lng":135.764913,"zip":"6048093"},{"town":"松本町","koaza":"","lat":35.005542,"lng":135.77141,"zip":"6040982"},{"town":"松屋町","koaza":"","lat":35.01369,"lng":135.761672,"zip":"6040831"},{"town":"丸木材木町","koaza":"","lat":35.010319,"lng":135.763172,"zip":"6048106"},{"town":"丸太町","koaza":"","lat":35.017427,"lng":135.752551,"zip":"6040981"},{"town":"丸屋町","koaza":"","lat":35.01494,"lng":135.766828,"zip":"6040917"},{"town":"饅頭屋町","koaza":"","lat":35.007968,"lng":135.759564,"zip":"6048161"},{"town":"御倉町","koaza":"","lat":35.00841,"lng":135.758645,"zip":"6048166"},{"town":"御射山町","koaza":"","lat":35.006738,"lng":135.761095,"zip":"6048147"},{"town":"南車屋町","koaza":"","lat":35.006613,"lng":135.770165,"zip":"6048022"},{"town":"壬生相合町","koaza":"","lat":34.999974,"lng":135.746395,"zip":"6048812"},{"town":"壬生天池町","koaza":"","lat":35.007396,"lng":135.740737,"zip":"6048874"},{"town":"壬生上大竹町","koaza":"","lat":35.007953,"lng":135.734498,"zip":"6048851"},{"town":"壬生賀陽御所町","koaza":"","lat":35.002651,"lng":135.74579,"zip":"6048811"},{"town":"壬生御所ノ内町","koaza":"","lat":35.004857,"lng":135.743292,"zip":"6048872"},{"town":"壬生下溝町","koaza":"","lat":35.0001,"lng":135.737565,"zip":"6048832"},{"town":"壬生朱雀町","koaza":"","lat":35.007372,"lng":135.743231,"zip":"6048871"},{"town":"壬生神明町","koaza":"","lat":35.007305,"lng":135.738513,"zip":"6048861"},{"town":"壬生仙念町","koaza":"","lat":35.003441,"lng":135.735394,"zip":"6048854"},{"town":"壬生高樋町","koaza":"","lat":35.002406,"lng":135.740914,"zip":"6048824"},{"town":"壬生辻町","koaza":"","lat":34.999936,"lng":135.743564,"zip":"6048822"},{"town":"壬生土居ノ内町","koaza":"","lat":35.002105,"lng":135.73451,"zip":"6048842"},{"town":"壬生中川町","koaza":"","lat":35.007255,"lng":135.736864,"zip":"6048863"},{"town":"壬生梛ノ宮町","koaza":"","lat":35.002395,"lng":135.743557,"zip":"6048821"},{"town":"壬生西大竹町","koaza":"","lat":35.006423,"lng":135.73357,"zip":"6048856"},{"town":"壬生西土居ノ内町","koaza":"","lat":35.002244,"lng":135.73326,"zip":"6048847"},{"town":"壬生西檜町","koaza":"","lat":34.9999,"lng":135.733437,"zip":"6040000"},{"town":"壬生花井町","koaza":"","lat":35.004938,"lng":135.740782,"zip":"6048873"},{"town":"壬生馬場町","koaza":"","lat":35.007329,"lng":135.745387,"zip":"6048805"},{"town":"壬生東大竹町","koaza":"","lat":35.006508,"lng":135.735336,"zip":"6048852"},{"town":"壬生東高田町","koaza":"","lat":34.997864,"lng":135.734437,"zip":"6048845"},{"town":"壬生東土居ノ内町","koaza":"","lat":35.001942,"lng":135.735912,"zip":"6048841"},{"town":"壬生東檜町","koaza":"","lat":34.999954,"lng":135.73569,"zip":"6040000"},{"town":"壬生東淵田町","koaza":"","lat":35.004771,"lng":135.735403,"zip":"6048853"},{"town":"壬生檜町","koaza":"","lat":34.999901,"lng":135.734654,"zip":"6040000"},{"town":"壬生淵田町","koaza":"","lat":35.004755,"lng":135.733694,"zip":"6048855"},{"town":"壬生坊城町","koaza":"","lat":35.004956,"lng":135.746174,"zip":"6048804"},{"town":"壬生松原町","koaza":"","lat":34.999931,"lng":135.740888,"zip":"6048823"},{"town":"壬生森前町","koaza":"","lat":35.002559,"lng":135.737703,"zip":"6048831"},{"town":"壬生森町","koaza":"","lat":35.004875,"lng":135.737758,"zip":"6048862"},{"town":"宮木町","koaza":"","lat":35.00978,"lng":135.754324,"zip":"6048275"},{"town":"宮本町","koaza":"","lat":35.005442,"lng":135.751123,"zip":"6048353"},{"town":"妙満寺前町","koaza":"","lat":35.012871,"lng":135.767076,"zip":"6040932"},{"town":"百足屋町","koaza":"","lat":35.01488,"lng":135.76353,"zip":"6040805"},{"town":"最上町","koaza":"","lat":35.011282,"lng":135.750575,"zip":"6048303"},{"town":"元竹田町","koaza":"","lat":35.005558,"lng":135.76094,"zip":"6048145"},{"town":"元法然寺町","koaza":"","lat":35.005012,"lng":135.760222,"zip":"6048144"},{"town":"元本能寺町","koaza":"","lat":35.006754,"lng":135.754419,"zip":"6048244"},{"town":"元本能寺南町","koaza":"","lat":35.005865,"lng":135.754414,"zip":"6048231"},{"town":"森ノ木町","koaza":"","lat":35.010965,"lng":135.752793,"zip":"6040053"},{"town":"守山町","koaza":"","lat":35.011457,"lng":135.76497,"zip":"6040953"},{"town":"門前町","koaza":"","lat":35.011395,"lng":135.747886,"zip":"6048306"},{"town":"八百屋町","koaza":"","lat":35.004381,"lng":135.763282,"zip":"6048072"},{"town":"薬師町","koaza":"","lat":35.01424,"lng":135.754994,"zip":"6040062"},{"town":"柳八幡町","koaza":"","lat":35.010406,"lng":135.764078,"zip":"6048101"},{"town":"山崎町","koaza":"","lat":35.007281,"lng":135.769158,"zip":"6048032"},{"town":"山田町","koaza":"","lat":35.005545,"lng":135.753631,"zip":"6048237"},{"town":"山中町","koaza":"","lat":35.014909,"lng":135.761262,"zip":"6040815"},{"town":"山伏山町","koaza":"","lat":35.005547,"lng":135.758115,"zip":"6048156"},{"town":"山本町","koaza":"","lat":35.012883,"lng":135.766495,"zip":"6040933"},{"town":"矢幡町","koaza":"","lat":35.013478,"lng":135.752675,"zip":"6040064"},{"town":"要法寺前町","koaza":"","lat":35.014292,"lng":135.767072,"zip":"6040916"},{"town":"横鍛冶町","koaza":"","lat":35.017458,"lng":135.754269,"zip":"6040087"},{"town":"吉野町","koaza":"","lat":35.004898,"lng":135.751244,"zip":"6048361"},{"town":"四丁目","koaza":"","lat":35.016866,"lng":135.764047,"zip":"6040000"},{"town":"柳水町","koaza":"","lat":35.007926,"lng":135.755437,"zip":"6048242"},{"town":"了頓図子町","koaza":"","lat":35.00796,"lng":135.757371,"zip":"6048204"},{"town":"冷泉町","koaza":"","lat":35.01426,"lng":135.757984,"zip":"6040011"},{"town":"六丁目","koaza":"","lat":35.014288,"lng":135.763985,"zip":"6040000"},{"town":"六角油小路町","koaza":"","lat":35.006744,"lng":135.75364,"zip":"6048245"},{"town":"六角猪熊町","koaza":"","lat":35.006711,"lng":135.750403,"zip":"6048342"},{"town":"六角大宮町","koaza":"","lat":35.006707,"lng":135.748842,"zip":"6048344"},{"town":"六角町","koaza":"","lat":35.006668,"lng":135.756661,"zip":"6048212"},{"town":"若松町","koaza":"","lat":35.007139,"lng":135.771404,"zip":"6048011"},{"town":"和久屋町","koaza":"","lat":35.016203,"lng":135.763547,"zip":"6040803"},{"town":"綿屋町","koaza":"","lat":35.010317,"lng":135.761755,"zip":"6048181"}]