[{"town":"出雲路神楽町","koaza":"","lat":35.033825,"lng":135.76835,"zip":"6038136"},{"town":"出雲路立テ本町","koaza":"","lat":35.039821,"lng":135.764347,"zip":"6038134"},{"town":"出雲路俵町","koaza":"","lat":35.036601,"lng":135.766157,"zip":"6038135"},{"town":"出雲路松ノ下町","koaza":"","lat":35.041724,"lng":135.763086,"zip":"6038133"},{"town":"大北山鏡石町","koaza":"","lat":35.046129,"lng":135.731787,"zip":"6038481"},{"town":"大北山松鴎山町","koaza":"","lat":35.049524,"lng":135.715773,"zip":"6030000"},{"town":"大北山天神岡町","koaza":"","lat":35.043473,"lng":135.729003,"zip":"6038482"},{"town":"大北山蓮ヶ谷町","koaza":"","lat":35.044542,"lng":135.722524,"zip":"6030000"},{"town":"大北山長谷町","koaza":"","lat":35.047199,"lng":135.722513,"zip":"6038488"},{"town":"大北山原谷乾町","koaza":"","lat":35.045401,"lng":135.716026,"zip":"6038487"},{"town":"大北山不動山町","koaza":"","lat":35.041242,"lng":135.729939,"zip":"6038457"},{"town":"大北山鷲峯町","koaza":"","lat":35.050702,"lng":135.727059,"zip":"6038458"},{"town":"大宮秋葉山","koaza":"","lat":35.066164,"lng":135.728761,"zip":"6030000"},{"town":"大宮一ノ井町","koaza":"","lat":35.054299,"lng":135.738354,"zip":"6038477"},{"town":"大宮上ノ岸町","koaza":"","lat":35.055983,"lng":135.750166,"zip":"6038401"},{"town":"大宮北椿原町","koaza":"","lat":35.056333,"lng":135.748538,"zip":"6038408"},{"town":"大宮北ノ岸町","koaza":"","lat":35.058234,"lng":135.749533,"zip":"6038831"},{"town":"大宮北箱ノ井町","koaza":"","lat":35.054298,"lng":135.740294,"zip":"6038475"},{"town":"大宮北林町","koaza":"","lat":35.056489,"lng":135.746411,"zip":"6038407"},{"town":"大宮北山ノ前町","koaza":"","lat":35.057824,"lng":135.741901,"zip":"6038472"},{"town":"大宮草山","koaza":"","lat":35.060499,"lng":135.731607,"zip":"6030000"},{"town":"大宮玄琢北東町","koaza":"","lat":35.05452,"lng":135.734536,"zip":"6038461"},{"town":"大宮玄琢北町","koaza":"","lat":35.053331,"lng":135.73695,"zip":"6038462"},{"town":"大宮玄琢南町","koaza":"","lat":35.052041,"lng":135.738166,"zip":"6038463"},{"town":"大宮釈迦谷","koaza":"","lat":35.065708,"lng":135.725262,"zip":"6038478"},{"town":"大宮田尻町","koaza":"","lat":35.058606,"lng":135.748076,"zip":"6038838"},{"town":"大宮土居町","koaza":"","lat":35.051564,"lng":135.739789,"zip":"6038441"},{"town":"大宮中総門口町","koaza":"","lat":35.057654,"lng":135.744693,"zip":"6038834"},{"town":"大宮中ノ社町","koaza":"","lat":35.058964,"lng":135.745595,"zip":"6038837"},{"town":"大宮中林町","koaza":"","lat":35.055519,"lng":135.746542,"zip":"6038404"},{"town":"大宮西小野堀町","koaza":"","lat":35.056006,"lng":135.743378,"zip":"6038405"},{"town":"大宮西総門口町","koaza":"","lat":35.057925,"lng":135.743254,"zip":"6038835"},{"town":"大宮西野山町","koaza":"","lat":35.050301,"lng":135.73897,"zip":"6038444"},{"town":"大宮西山ノ前町","koaza":"","lat":35.057449,"lng":135.740602,"zip":"6038471"},{"town":"大宮西脇台町","koaza":"","lat":35.053552,"lng":135.743577,"zip":"6038432"},{"town":"大宮二ノ坂","koaza":"","lat":35.074256,"lng":135.724742,"zip":"6030000"},{"town":"大宮萩原","koaza":"","lat":35.071134,"lng":135.728846,"zip":"6030000"},{"town":"大宮榿ノ木町","koaza":"","lat":35.059526,"lng":135.749627,"zip":"6030000"},{"town":"大宮東小野堀町","koaza":"","lat":35.056052,"lng":135.744758,"zip":"6038406"},{"town":"大宮東総門口町","koaza":"","lat":35.057823,"lng":135.746207,"zip":"6038833"},{"town":"大宮東脇台町","koaza":"","lat":35.054126,"lng":135.744789,"zip":"6038431"},{"town":"大宮開町","koaza":"","lat":35.053693,"lng":135.741924,"zip":"6038437"},{"town":"大宮南田尻町","koaza":"","lat":35.057768,"lng":135.747536,"zip":"6038832"},{"town":"大宮南椿原町","koaza":"","lat":35.055033,"lng":135.748709,"zip":"6038402"},{"town":"大宮南箱ノ井町","koaza":"","lat":35.052852,"lng":135.740441,"zip":"6038476"},{"town":"大宮南林町","koaza":"","lat":35.054579,"lng":135.746641,"zip":"6038403"},{"town":"大宮南山ノ前町","koaza":"","lat":35.056002,"lng":135.741763,"zip":"6038473"},{"town":"大宮薬師山西町","koaza":"","lat":35.056845,"lng":135.737457,"zip":"6038479"},{"town":"大宮薬師山東町","koaza":"","lat":35.056752,"lng":135.739474,"zip":"6038474"},{"town":"大森芦堂町","koaza":"","lat":35.134408,"lng":135.680989,"zip":"6010142"},{"town":"大森稲荷","koaza":"","lat":35.129467,"lng":135.6793,"zip":"6010141"},{"town":"大森牛ケ滝","koaza":"","lat":35.157528,"lng":135.678647,"zip":"6030000"},{"town":"大森大谷","koaza":"","lat":35.151457,"lng":135.698258,"zip":"6030000"},{"town":"大森菖蒲","koaza":"","lat":35.144558,"lng":135.677389,"zip":"6030000"},{"town":"大森中町","koaza":"","lat":35.138766,"lng":135.681004,"zip":"6010143"},{"town":"大森中山","koaza":"","lat":35.131256,"lng":135.685735,"zip":"6030000"},{"town":"大森西町","koaza":"","lat":35.142602,"lng":135.676589,"zip":"6010144"},{"town":"大森東町","koaza":"","lat":35.144578,"lng":135.693446,"zip":"6010145"},{"town":"小野岩戸","koaza":"","lat":35.115284,"lng":135.682895,"zip":"6010134"},{"town":"小野笠谷","koaza":"","lat":35.113344,"lng":135.657757,"zip":"6030000"},{"town":"小野上ノ町","koaza":"","lat":35.11394,"lng":135.670612,"zip":"6010133"},{"town":"小野下ノ町","koaza":"","lat":35.109387,"lng":135.676321,"zip":"6010131"},{"town":"小野中ノ町","koaza":"","lat":35.11177,"lng":135.673109,"zip":"6010132"},{"town":"小野水谷","koaza":"","lat":35.102271,"lng":135.661695,"zip":"6030000"},{"town":"小野宮ノ上町","koaza":"","lat":35.117768,"lng":135.672584,"zip":"6010135"},{"town":"上賀茂葵田町","koaza":"","lat":35.071885,"lng":135.756664,"zip":"6038012"},{"town":"上賀茂葵之森町","koaza":"","lat":35.06317,"lng":135.751156,"zip":"6038034"},{"town":"上賀茂赤尾町","koaza":"","lat":35.072257,"lng":135.753782,"zip":"6038018"},{"town":"上賀茂朝露ケ原町","koaza":"","lat":35.061754,"lng":135.74994,"zip":"6038035"},{"town":"上賀茂畔勝町","koaza":"","lat":35.055502,"lng":135.765178,"zip":"6038044"},{"town":"上賀茂荒草町","koaza":"","lat":35.054429,"lng":135.758138,"zip":"6038061"},{"town":"上賀茂池殿町","koaza":"","lat":35.056853,"lng":135.753605,"zip":"6038066"},{"town":"上賀茂池端町","koaza":"","lat":35.056094,"lng":135.76804,"zip":"6038043"},{"town":"上賀茂石計町","koaza":"","lat":35.0543,"lng":135.761512,"zip":"6038056"},{"town":"上賀茂壱町口町","koaza":"","lat":35.071148,"lng":135.754463,"zip":"6038017"},{"town":"上賀茂茨谷町","koaza":"","lat":35.075936,"lng":135.747963,"zip":"6030000"},{"town":"上賀茂今井河原町","koaza":"","lat":35.051336,"lng":135.758653,"zip":"6038063"},{"town":"上賀茂岩ケ垣内町","koaza":"","lat":35.051774,"lng":135.765465,"zip":"6038053"},{"town":"上賀茂馬ノ目町","koaza":"","lat":35.066033,"lng":135.748792,"zip":"6038033"},{"town":"上賀茂梅ケ辻町","koaza":"","lat":35.058044,"lng":135.759863,"zip":"6038087"},{"town":"上賀茂烏帽子ケ垣内町","koaza":"","lat":35.055883,"lng":135.757707,"zip":"6038073"},{"town":"上賀茂大柳町","koaza":"","lat":35.069104,"lng":135.74402,"zip":"6038037"},{"town":"上賀茂岡本口町","koaza":"","lat":35.057781,"lng":135.762197,"zip":"6038082"},{"town":"上賀茂岡本町","koaza":"","lat":35.058592,"lng":135.760519,"zip":"6038081"},{"town":"上賀茂音保瀬町","koaza":"","lat":35.070344,"lng":135.744444,"zip":"6038038"},{"town":"上賀茂上神原町","koaza":"","lat":35.069328,"lng":135.755033,"zip":"6038013"},{"town":"上賀茂北大路町","koaza":"","lat":35.058726,"lng":135.757575,"zip":"6038071"},{"town":"上賀茂北ノ原町","koaza":"","lat":35.073251,"lng":135.743198,"zip":"6038006"},{"town":"上賀茂毛穴井町","koaza":"","lat":35.073344,"lng":135.742193,"zip":"6038007"},{"town":"上賀茂ケシ山","koaza":"","lat":35.060822,"lng":135.768998,"zip":"6038041"},{"town":"上賀茂神山","koaza":"","lat":35.075998,"lng":135.750084,"zip":"6038002"},{"town":"上賀茂榊田町","koaza":"","lat":35.054371,"lng":135.76532,"zip":"6038051"},{"town":"上賀茂坂口町","koaza":"","lat":35.067552,"lng":135.751814,"zip":"6038016"},{"town":"上賀茂桜井町","koaza":"","lat":35.051619,"lng":135.761536,"zip":"6038054"},{"town":"上賀茂下神原町","koaza":"","lat":35.067957,"lng":135.754924,"zip":"6038014"},{"town":"上賀茂十三石山","koaza":"","lat":35.102772,"lng":135.73729,"zip":"6038001"},{"town":"上賀茂菖蒲園町","koaza":"","lat":35.053447,"lng":135.756185,"zip":"6038064"},{"town":"上賀茂蝉ケ垣内町","koaza":"","lat":35.055941,"lng":135.75914,"zip":"6038085"},{"town":"上賀茂高縄手町","koaza":"","lat":35.053194,"lng":135.761519,"zip":"6038055"},{"town":"上賀茂竹ケ鼻町","koaza":"","lat":35.057307,"lng":135.758115,"zip":"6038072"},{"town":"上賀茂土門町","koaza":"","lat":35.055435,"lng":135.761503,"zip":"6038084"},{"town":"上賀茂津ノ国町","koaza":"","lat":35.070317,"lng":135.746785,"zip":"6038027"},{"town":"上賀茂豊田町","koaza":"","lat":35.057,"lng":135.764442,"zip":"6038045"},{"town":"上賀茂中大路町","koaza":"","lat":35.056586,"lng":135.75482,"zip":"6038075"},{"town":"上賀茂中嶋河原町","koaza":"","lat":35.077761,"lng":135.742612,"zip":"6038008"},{"town":"上賀茂中ノ河原町","koaza":"","lat":35.067451,"lng":135.746514,"zip":"6038032"},{"town":"上賀茂中ノ坂町","koaza":"","lat":35.067667,"lng":135.749679,"zip":"6038024"},{"town":"上賀茂中山町","koaza":"","lat":35.068449,"lng":135.74783,"zip":"6038026"},{"town":"上賀茂二軒家町","koaza":"","lat":35.077058,"lng":135.764612,"zip":"6038011"},{"town":"上賀茂西上之段町","koaza":"","lat":35.07089,"lng":135.748339,"zip":"6038028"},{"town":"上賀茂西河原町","koaza":"","lat":35.06648,"lng":135.746215,"zip":"6038036"},{"town":"上賀茂西後藤町","koaza":"","lat":35.071827,"lng":135.749294,"zip":"6038021"},{"town":"上賀茂狭間町","koaza":"","lat":35.06005,"lng":135.766952,"zip":"6038042"},{"town":"上賀茂柊谷町","koaza":"","lat":35.075342,"lng":135.744969,"zip":"6038003"},{"town":"上賀茂東上之段町","koaza":"","lat":35.068934,"lng":135.750717,"zip":"6038023"},{"town":"上賀茂東後藤町","koaza":"","lat":35.070479,"lng":135.751319,"zip":"6038022"},{"town":"上賀茂備後田町","koaza":"","lat":35.068949,"lng":135.753201,"zip":"6038015"},{"town":"上賀茂藤ノ木町","koaza":"","lat":35.058235,"lng":135.756166,"zip":"6038077"},{"town":"上賀茂舟着町","koaza":"","lat":35.065941,"lng":135.750061,"zip":"6038025"},{"town":"上賀茂前田町","koaza":"","lat":35.07353,"lng":135.745235,"zip":"6038005"},{"town":"上賀茂松本町","koaza":"","lat":35.053268,"lng":135.765359,"zip":"6038052"},{"town":"上賀茂御薗口町","koaza":"","lat":35.056456,"lng":135.752568,"zip":"6038065"},{"town":"上賀茂深泥池町","koaza":"","lat":35.059363,"lng":135.766329,"zip":"6038046"},{"town":"上賀茂南大路町","koaza":"","lat":35.056275,"lng":135.755932,"zip":"6038074"},{"town":"上賀茂向梅町","koaza":"","lat":35.057313,"lng":135.760212,"zip":"6038086"},{"town":"上賀茂向縄手町","koaza":"","lat":35.056677,"lng":135.761494,"zip":"6038083"},{"town":"上賀茂女夫岩町","koaza":"","lat":35.070246,"lng":135.745502,"zip":"6038031"},{"town":"上賀茂本山","koaza":"","lat":35.066345,"lng":135.754211,"zip":"6038047"},{"town":"上賀茂薮田町","koaza":"","lat":35.053003,"lng":135.758701,"zip":"6038062"},{"town":"上賀茂山本町","koaza":"","lat":35.058735,"lng":135.754706,"zip":"6038076"},{"town":"上賀茂六段田町","koaza":"","lat":35.073938,"lng":135.747582,"zip":"6038004"},{"town":"上御霊上江町","koaza":"","lat":35.037861,"lng":135.760023,"zip":"6038147"},{"town":"上清蔵口町","koaza":"","lat":35.037912,"lng":135.755731,"zip":"6038155"},{"town":"北野上白梅町","koaza":"","lat":35.028013,"lng":135.731557,"zip":"6038325"},{"town":"北野紅梅町","koaza":"","lat":35.02934,"lng":135.730562,"zip":"6038324"},{"town":"北野下白梅町","koaza":"","lat":35.02688,"lng":135.731393,"zip":"6038326"},{"town":"北野西白梅町","koaza":"","lat":35.026886,"lng":135.72867,"zip":"6038327"},{"town":"北野東紅梅町","koaza":"","lat":35.029243,"lng":135.732571,"zip":"6038323"},{"town":"衣笠赤阪町","koaza":"","lat":35.039658,"lng":135.721433,"zip":"6038486"},{"town":"衣笠荒見町","koaza":"","lat":35.036745,"lng":135.735465,"zip":"6038315"},{"town":"衣笠大祓町","koaza":"","lat":35.034092,"lng":135.733765,"zip":"6038351"},{"town":"衣笠街道町","koaza":"","lat":35.038164,"lng":135.733964,"zip":"6038372"},{"town":"衣笠鏡石町","koaza":"","lat":35.048723,"lng":135.733925,"zip":"6038451"},{"town":"衣笠北荒見町","koaza":"","lat":35.039719,"lng":135.736056,"zip":"6038316"},{"town":"衣笠北高橋町","koaza":"","lat":35.036702,"lng":135.734065,"zip":"6038373"},{"town":"衣笠北天神森町","koaza":"","lat":35.038219,"lng":135.732523,"zip":"6038376"},{"town":"衣笠衣笠山町","koaza":"","lat":35.036066,"lng":135.723991,"zip":"6038485"},{"town":"衣笠御所ノ内町","koaza":"","lat":35.040219,"lng":135.733601,"zip":"6038378"},{"town":"衣笠総門町","koaza":"","lat":35.036675,"lng":135.730134,"zip":"6038363"},{"town":"衣笠高橋町","koaza":"","lat":35.035395,"lng":135.733879,"zip":"6038374"},{"town":"衣笠天神森町","koaza":"","lat":35.035952,"lng":135.732118,"zip":"6038375"},{"town":"衣笠西御所ノ内町","koaza":"","lat":35.040526,"lng":135.732483,"zip":"6038377"},{"town":"衣笠西尊上院町","koaza":"","lat":35.042376,"lng":135.732896,"zip":"6038456"},{"town":"衣笠西馬場町","koaza":"","lat":35.037464,"lng":135.728461,"zip":"6038366"},{"town":"衣笠西開キ町","koaza":"","lat":35.042499,"lng":135.734848,"zip":"6038454"},{"town":"衣笠馬場町","koaza":"","lat":35.038308,"lng":135.731253,"zip":"6038362"},{"town":"衣笠東御所ノ内町","koaza":"","lat":35.040167,"lng":135.734897,"zip":"6038371"},{"town":"衣笠東尊上院町","koaza":"","lat":35.0425,"lng":135.73388,"zip":"6038455"},{"town":"衣笠東開キ町","koaza":"","lat":35.042403,"lng":135.735862,"zip":"6038453"},{"town":"衣笠氷室町","koaza":"","lat":35.040223,"lng":135.725779,"zip":"6038484"},{"town":"衣笠開キ町","koaza":"","lat":35.044637,"lng":135.734544,"zip":"6038452"},{"town":"金閣寺町","koaza":"","lat":35.039524,"lng":135.729533,"zip":"6038361"},{"town":"雲ケ畑出谷町","koaza":"","lat":35.141394,"lng":135.719284,"zip":"6038861"},{"town":"雲ケ畑中津川町","koaza":"","lat":35.137443,"lng":135.736373,"zip":"6038862"},{"town":"雲ケ畑中畑町","koaza":"","lat":35.110586,"lng":135.716725,"zip":"6038863"},{"town":"鞍馬口町","koaza":"","lat":35.037963,"lng":135.764689,"zip":"6038137"},{"town":"小松原北町","koaza":"","lat":35.032374,"lng":135.726781,"zip":"6038341"},{"town":"小松原南町","koaza":"","lat":35.028866,"lng":135.728726,"zip":"6038342"},{"town":"小山板倉町","koaza":"","lat":35.046474,"lng":135.756044,"zip":"6038125"},{"town":"小山上板倉町","koaza":"","lat":35.048168,"lng":135.756018,"zip":"6038126"},{"town":"小山上内河原町","koaza":"","lat":35.04798,"lng":135.758907,"zip":"6038131"},{"town":"小山上初音町","koaza":"","lat":35.04815,"lng":135.754655,"zip":"6038171"},{"town":"小山上花ノ木町","koaza":"","lat":35.048245,"lng":135.757446,"zip":"6038121"},{"town":"小山上総町","koaza":"","lat":35.042548,"lng":135.759065,"zip":"6038143"},{"town":"小山北大野町","koaza":"","lat":35.043207,"lng":135.754511,"zip":"6038161"},{"town":"小山北上総町","koaza":"","lat":35.045021,"lng":135.758779,"zip":"6038142"},{"town":"小山北玄以町","koaza":"","lat":35.052885,"lng":135.754863,"zip":"6038103"},{"town":"小山下板倉町","koaza":"","lat":35.044862,"lng":135.756011,"zip":"6038124"},{"town":"小山下内河原町","koaza":"","lat":35.044741,"lng":135.760928,"zip":"6038132"},{"town":"小山下初音町","koaza":"","lat":35.044842,"lng":135.754609,"zip":"6038173"},{"town":"小山下花ノ木町","koaza":"","lat":35.044917,"lng":135.757274,"zip":"6038123"},{"town":"小山下総町","koaza":"","lat":35.03923,"lng":135.758962,"zip":"6038151"},{"town":"小山町","koaza":"","lat":35.037876,"lng":135.758398,"zip":"6038152"},{"town":"小山中溝町","koaza":"","lat":35.038537,"lng":135.756077,"zip":"6038156"},{"town":"小山西大野町","koaza":"","lat":35.041884,"lng":135.753978,"zip":"6038167"},{"town":"小山西上総町","koaza":"","lat":35.043611,"lng":135.756409,"zip":"6038141"},{"town":"小山西玄以町","koaza":"","lat":35.051417,"lng":135.754466,"zip":"6038105"},{"town":"小山西花池町","koaza":"","lat":35.040733,"lng":135.760058,"zip":"6038148"},{"town":"小山西元町","koaza":"","lat":35.049943,"lng":135.75455,"zip":"6038113"},{"town":"小山初音町","koaza":"","lat":35.04648,"lng":135.754704,"zip":"6038172"},{"town":"小山花ノ木町","koaza":"","lat":35.046566,"lng":135.75772,"zip":"6038122"},{"town":"小山東大野町","koaza":"","lat":35.042509,"lng":135.756434,"zip":"6038162"},{"town":"小山東玄以町","koaza":"","lat":35.051747,"lng":135.756139,"zip":"6038104"},{"town":"小山東花池町","koaza":"","lat":35.04202,"lng":135.761292,"zip":"6038144"},{"town":"小山東元町","koaza":"","lat":35.050389,"lng":135.757342,"zip":"6038111"},{"town":"小山堀池町","koaza":"","lat":35.039874,"lng":135.761822,"zip":"6038145"},{"town":"小山南大野町","koaza":"","lat":35.040104,"lng":135.756034,"zip":"6038163"},{"town":"小山南上総町","koaza":"","lat":35.040588,"lng":135.758267,"zip":"6038149"},{"town":"小山元町","koaza":"","lat":35.050018,"lng":135.755893,"zip":"6038112"},{"town":"紫竹牛若町","koaza":"","lat":35.048239,"lng":135.744997,"zip":"6038207"},{"town":"紫竹上梅ノ木町","koaza":"","lat":35.048088,"lng":135.753098,"zip":"6038179"},{"town":"紫竹上高才町","koaza":"","lat":35.051432,"lng":135.753144,"zip":"6038117"},{"town":"紫竹上芝本町","koaza":"","lat":35.051159,"lng":135.750231,"zip":"6038423"},{"town":"紫竹上園生町","koaza":"","lat":35.054182,"lng":135.7499,"zip":"6038421"},{"town":"紫竹上竹殿町","koaza":"","lat":35.053948,"lng":135.748551,"zip":"6038411"},{"town":"紫竹上長目町","koaza":"","lat":35.054572,"lng":135.752949,"zip":"6038102"},{"town":"紫竹上ノ岸町","koaza":"","lat":35.054348,"lng":135.751372,"zip":"6038108"},{"town":"紫竹上堀川町","koaza":"","lat":35.056011,"lng":135.751334,"zip":"6038101"},{"town":"紫竹上本町","koaza":"","lat":35.051426,"lng":135.75171,"zip":"6038116"},{"town":"紫竹上緑町","koaza":"","lat":35.051316,"lng":135.748478,"zip":"6038427"},{"town":"紫竹北栗栖町","koaza":"","lat":35.051833,"lng":135.743406,"zip":"6038433"},{"town":"紫竹北大門町","koaza":"","lat":35.053352,"lng":135.745523,"zip":"6038416"},{"town":"紫竹栗栖町","koaza":"","lat":35.049992,"lng":135.743418,"zip":"6038435"},{"town":"紫竹下梅ノ木町","koaza":"","lat":35.046422,"lng":135.753145,"zip":"6038178"},{"town":"紫竹下高才町","koaza":"","lat":35.049835,"lng":135.753117,"zip":"6038114"},{"town":"紫竹下芝本町","koaza":"","lat":35.049646,"lng":135.749901,"zip":"6038424"},{"town":"紫竹下園生町","koaza":"","lat":35.052648,"lng":135.749918,"zip":"6038422"},{"town":"紫竹下竹殿町","koaza":"","lat":35.052628,"lng":135.748532,"zip":"6038412"},{"town":"紫竹下長目町","koaza":"","lat":35.052824,"lng":135.753003,"zip":"6038106"},{"town":"紫竹下ノ岸町","koaza":"","lat":35.052784,"lng":135.751453,"zip":"6038107"},{"town":"紫竹下本町","koaza":"","lat":35.04983,"lng":135.751522,"zip":"6038115"},{"town":"紫竹下緑町","koaza":"","lat":35.049771,"lng":135.748192,"zip":"6038425"},{"town":"紫竹西南町","koaza":"","lat":35.046787,"lng":135.746076,"zip":"6038206"},{"town":"紫竹西北町","koaza":"","lat":35.049688,"lng":135.746701,"zip":"6038426"},{"town":"紫竹大門町","koaza":"","lat":35.051901,"lng":135.746125,"zip":"6038414"},{"town":"紫竹高縄町","koaza":"","lat":35.046384,"lng":135.750043,"zip":"6038204"},{"town":"紫竹竹殿町","koaza":"","lat":35.053692,"lng":135.747279,"zip":"6038417"},{"town":"紫竹西栗栖町","koaza":"","lat":35.051792,"lng":135.741938,"zip":"6038436"},{"town":"紫竹西大門町","koaza":"","lat":35.051862,"lng":135.744805,"zip":"6038415"},{"town":"紫竹西高縄町","koaza":"","lat":35.04639,"lng":135.748308,"zip":"6038205"},{"town":"紫竹西野山町","koaza":"","lat":35.050177,"lng":135.740684,"zip":"6038443"},{"town":"紫竹西野山東町","koaza":"","lat":35.049929,"lng":135.741807,"zip":"6038442"},{"town":"紫竹西桃ノ本町","koaza":"","lat":35.048103,"lng":135.748512,"zip":"6038208"},{"town":"紫竹東栗栖町","koaza":"","lat":35.050044,"lng":135.745108,"zip":"6038434"},{"town":"紫竹東大門町","koaza":"","lat":35.052168,"lng":135.747215,"zip":"6038413"},{"town":"紫竹東高縄町","koaza":"","lat":35.046454,"lng":135.751564,"zip":"6038203"},{"town":"紫竹東桃ノ本町","koaza":"","lat":35.048065,"lng":135.75157,"zip":"6038202"},{"town":"紫竹桃ノ本町","koaza":"","lat":35.048083,"lng":135.75013,"zip":"6038201"},{"town":"上善寺門前町","koaza":"","lat":35.038745,"lng":135.763077,"zip":"6038139"},{"town":"新御霊口町","koaza":"","lat":35.03778,"lng":135.761806,"zip":"6038146"},{"town":"杉阪北尾","koaza":"","lat":35.106384,"lng":135.693251,"zip":"6010111"},{"town":"杉阪道風町","koaza":"","lat":35.091302,"lng":135.703796,"zip":"6010113"},{"town":"杉阪東谷","koaza":"","lat":35.099161,"lng":135.706028,"zip":"6030000"},{"town":"杉阪南谷","koaza":"","lat":35.091177,"lng":135.699958,"zip":"6030000"},{"town":"杉阪都町","koaza":"","lat":35.097127,"lng":135.69793,"zip":"6010112"},{"town":"大将軍一条町","koaza":"","lat":35.025517,"lng":135.72838,"zip":"6038336"},{"town":"大将軍川端町","koaza":"","lat":35.025025,"lng":135.73229,"zip":"6038332"},{"town":"大将軍坂田町","koaza":"","lat":35.024339,"lng":135.725775,"zip":"6038335"},{"town":"大将軍西鷹司町","koaza":"","lat":35.023134,"lng":135.728378,"zip":"6038334"},{"town":"大将軍西町","koaza":"","lat":35.024765,"lng":135.73073,"zip":"6038331"},{"town":"大将軍東鷹司町","koaza":"","lat":35.023113,"lng":135.73153,"zip":"6038333"},{"town":"大将軍南一条町","koaza":"","lat":35.024262,"lng":135.728097,"zip":"6038337"},{"town":"鷹峯赤坂","koaza":"","lat":35.070264,"lng":135.713184,"zip":"6030000"},{"town":"鷹峯一ノ坂","koaza":"","lat":35.058892,"lng":135.72189,"zip":"6030000"},{"town":"鷹峯牛ケ首","koaza":"","lat":35.076206,"lng":135.711838,"zip":"6030000"},{"town":"鷹峯扇ケ原","koaza":"","lat":35.076585,"lng":135.696356,"zip":"6030000"},{"town":"鷹峯大谷町","koaza":"","lat":35.06599,"lng":135.710905,"zip":"6038493"},{"town":"鷹峯大山","koaza":"","lat":35.077417,"lng":135.691931,"zip":"6030000"},{"town":"鷹峯奥長谷","koaza":"","lat":35.079604,"lng":135.708041,"zip":"6030000"},{"town":"鷹峯株地","koaza":"","lat":35.080401,"lng":135.702077,"zip":"6030000"},{"town":"鷹峯株地天ケ峰","koaza":"","lat":35.082225,"lng":135.69993,"zip":"6030000"},{"town":"鷹峯上ノ町","koaza":"","lat":35.04804,"lng":135.736045,"zip":"6038446"},{"town":"鷹峯冠岩","koaza":"","lat":35.064711,"lng":135.714547,"zip":"6030000"},{"town":"鷹峯北鷹峯町","koaza":"","lat":35.055101,"lng":135.731407,"zip":"6038468"},{"town":"鷹峯木ノ畑町","koaza":"","lat":35.044799,"lng":135.737192,"zip":"6038447"},{"town":"鷹峯旧土居町","koaza":"","lat":35.046504,"lng":135.736104,"zip":"6038448"},{"town":"鷹峯黒門町","koaza":"","lat":35.051548,"lng":135.735145,"zip":"6038464"},{"town":"鷹峯光悦町","koaza":"","lat":35.05304,"lng":135.730967,"zip":"6038466"},{"town":"鷹峯護法ケ谷","koaza":"","lat":35.056952,"lng":135.711684,"zip":"6030000"},{"town":"鷹峯逆二ツ岩町","koaza":"","lat":35.08833,"lng":135.695944,"zip":"6030000"},{"town":"鷹峯笹ケ尾","koaza":"","lat":35.0811,"lng":135.704911,"zip":"6030000"},{"town":"鷹峯皿谷","koaza":"","lat":35.084077,"lng":135.70803,"zip":"6030000"},{"town":"鷹峯地獄谷","koaza":"","lat":35.082232,"lng":135.696898,"zip":"6030000"},{"town":"鷹峯滑地","koaza":"","lat":35.068243,"lng":135.715239,"zip":"6030000"},{"town":"鷹峯千束町","koaza":"","lat":35.055386,"lng":135.726767,"zip":"6038469"},{"town":"鷹峯大日町","koaza":"","lat":35.075111,"lng":135.70757,"zip":"6030000"},{"town":"鷹峯土天井町","koaza":"","lat":35.051402,"lng":135.733242,"zip":"6038465"},{"town":"鷹峯堂ノ庭町","koaza":"","lat":35.065957,"lng":135.718104,"zip":"6038492"},{"town":"鷹峯長尾","koaza":"","lat":35.075594,"lng":135.702108,"zip":"6030000"},{"town":"鷹峯長坂","koaza":"","lat":35.062722,"lng":135.7193,"zip":"6030000"},{"town":"鷹峯西流尾","koaza":"","lat":35.068871,"lng":135.70741,"zip":"6030000"},{"town":"鷹峯西菩提","koaza":"","lat":35.070658,"lng":135.696085,"zip":"6030000"},{"town":"鷹峯八ケ所","koaza":"","lat":35.086988,"lng":135.700535,"zip":"6030000"},{"town":"鷹峯東奥長谷","koaza":"","lat":35.080772,"lng":135.71135,"zip":"6030000"},{"town":"鷹峯藤林町","koaza":"","lat":35.048972,"lng":135.73722,"zip":"6038445"},{"town":"鷹峯船水","koaza":"","lat":35.072444,"lng":135.713258,"zip":"6030000"},{"town":"鷹峯菩提","koaza":"","lat":35.072638,"lng":135.699754,"zip":"6030000"},{"town":"鷹峯仏谷","koaza":"","lat":35.057287,"lng":135.716141,"zip":"6038491"},{"town":"鷹峯堀越町","koaza":"","lat":35.064407,"lng":135.707339,"zip":"6038494"},{"town":"鷹峯御蔵尾","koaza":"","lat":35.070261,"lng":135.70396,"zip":"6030000"},{"town":"鷹峯南鷹峯町","koaza":"","lat":35.053496,"lng":135.733634,"zip":"6038467"},{"town":"鷹峯桃山","koaza":"","lat":35.054721,"lng":135.721415,"zip":"6030000"},{"town":"鷹峯焼尾","koaza":"","lat":35.083742,"lng":135.696384,"zip":"6030000"},{"town":"長乗西町","koaza":"","lat":35.037663,"lng":135.756401,"zip":"6038154"},{"town":"長乗東町","koaza":"","lat":35.037671,"lng":135.757149,"zip":"6038153"},{"town":"天寧寺門前町","koaza":"","lat":35.037552,"lng":135.763677,"zip":"6038138"},{"town":"等持院北町","koaza":"","lat":35.032028,"lng":135.724095,"zip":"6038346"},{"town":"等持院中町","koaza":"","lat":35.028834,"lng":135.725372,"zip":"6038347"},{"town":"等持院西町","koaza":"","lat":35.028682,"lng":135.723332,"zip":"6038354"},{"town":"等持院東町","koaza":"","lat":35.029082,"lng":135.726908,"zip":"6038343"},{"town":"等持院南町","koaza":"","lat":35.026814,"lng":135.725333,"zip":"6038344"},{"town":"中川奥山","koaza":"","lat":35.090298,"lng":135.675356,"zip":"6030000"},{"town":"中川川登","koaza":"","lat":35.100299,"lng":135.68035,"zip":"6010125"},{"town":"中川北山町","koaza":"","lat":35.087988,"lng":135.688271,"zip":"6010122"},{"town":"中川中山","koaza":"","lat":35.095351,"lng":135.686413,"zip":"6010124"},{"town":"中川西ノ谷","koaza":"","lat":35.08512,"lng":135.678849,"zip":"6030000"},{"town":"中川西山","koaza":"","lat":35.084006,"lng":135.684837,"zip":"6010123"},{"town":"中川東山","koaza":"","lat":35.087665,"lng":135.691275,"zip":"6010121"},{"town":"中川水谷","koaza":"","lat":35.097157,"lng":135.668432,"zip":"6030000"},{"town":"西賀茂井ノ口町","koaza":"","lat":35.070083,"lng":135.742335,"zip":"6038804"},{"town":"西賀茂今原町","koaza":"","lat":35.064063,"lng":135.739519,"zip":"6038842"},{"town":"西賀茂岩門","koaza":"","lat":35.065327,"lng":135.732283,"zip":"6030000"},{"town":"西賀茂鴬谷","koaza":"","lat":35.086931,"lng":135.718786,"zip":"6030000"},{"town":"西賀茂卯ノ谷","koaza":"","lat":35.091968,"lng":135.716829,"zip":"6030000"},{"town":"西賀茂烏帽子岩","koaza":"","lat":35.077207,"lng":135.734185,"zip":"6030000"},{"town":"西賀茂大栗町","koaza":"","lat":35.061485,"lng":135.745332,"zip":"6038828"},{"town":"西賀茂大道口町","koaza":"","lat":35.063735,"lng":135.743285,"zip":"6038813"},{"town":"西賀茂大深町","koaza":"","lat":35.061459,"lng":135.741476,"zip":"6038844"},{"town":"西賀茂尾横","koaza":"","lat":35.091554,"lng":135.724769,"zip":"6030000"},{"town":"西賀茂蛙ケ谷","koaza":"","lat":35.076437,"lng":135.737314,"zip":"6038807"},{"town":"西賀茂柿ノ木町","koaza":"","lat":35.063425,"lng":135.746256,"zip":"6038821"},{"town":"西賀茂笠松","koaza":"","lat":35.07789,"lng":135.721372,"zip":"6038852"},{"town":"西賀茂蟹ケ坂町","koaza":"","lat":35.070662,"lng":135.740904,"zip":"6038805"},{"town":"西賀茂鹿ノ下町","koaza":"","lat":35.061908,"lng":135.747331,"zip":"6038822"},{"town":"西賀茂上庄田町","koaza":"","lat":35.074793,"lng":135.739518,"zip":"6038802"},{"town":"西賀茂川上町","koaza":"","lat":35.065426,"lng":135.743037,"zip":"6038817"},{"town":"西賀茂勧請","koaza":"","lat":35.104943,"lng":135.727962,"zip":"6030000"},{"town":"西賀茂北今原町","koaza":"","lat":35.066154,"lng":135.739679,"zip":"6038841"},{"town":"西賀茂北川上町","koaza":"","lat":35.067446,"lng":135.741125,"zip":"6038816"},{"town":"西賀茂北鎮守菴町","koaza":"","lat":35.06206,"lng":135.739356,"zip":"6038847"},{"town":"西賀茂北山ノ森町","koaza":"","lat":35.067107,"lng":135.743437,"zip":"6038811"},{"town":"西賀茂小峠","koaza":"","lat":35.083407,"lng":135.731862,"zip":"6030000"},{"town":"西賀茂下庄田町","koaza":"","lat":35.078391,"lng":135.74014,"zip":"6038801"},{"town":"西賀茂城山","koaza":"","lat":35.081116,"lng":135.719825,"zip":"6038853"},{"town":"西賀茂神光院町","koaza":"","lat":35.059744,"lng":135.74332,"zip":"6038836"},{"town":"西賀茂角社町","koaza":"","lat":35.059489,"lng":135.741879,"zip":"6038845"},{"town":"西賀茂谷中","koaza":"","lat":35.102669,"lng":135.726815,"zip":"6030000"},{"town":"西賀茂檀ノ尾","koaza":"","lat":35.080022,"lng":135.724726,"zip":"6030000"},{"town":"西賀茂鎮守菴町","koaza":"","lat":35.060227,"lng":135.739908,"zip":"6038846"},{"town":"西賀茂栩谷","koaza":"","lat":35.09718,"lng":135.724305,"zip":"6030000"},{"town":"西賀茂中川上町","koaza":"","lat":35.065945,"lng":135.741486,"zip":"6038815"},{"town":"西賀茂西中尾","koaza":"","lat":35.084852,"lng":135.714333,"zip":"6030000"},{"town":"西賀茂西二ノ坂","koaza":"","lat":35.076436,"lng":135.72442,"zip":"6030000"},{"town":"西賀茂西萩原","koaza":"","lat":35.072193,"lng":135.7307,"zip":"6030000"},{"town":"西賀茂西氷室町","koaza":"","lat":35.081901,"lng":135.721752,"zip":"6038854"},{"town":"西賀茂西山","koaza":"","lat":35.075556,"lng":135.727831,"zip":"6030000"},{"town":"西賀茂唄ノ尾","koaza":"","lat":35.098983,"lng":135.729899,"zip":"6030000"},{"town":"西賀茂榿ノ木町","koaza":"","lat":35.060244,"lng":135.748088,"zip":"6038823"},{"town":"西賀茂東柿ノ木町","koaza":"","lat":35.064665,"lng":135.746532,"zip":"6030000"},{"town":"西賀茂毘沙門山","koaza":"","lat":35.061099,"lng":135.736906,"zip":"6030000"},{"town":"西賀茂樋ノ口町","koaza":"","lat":35.073755,"lng":135.741322,"zip":"6038803"},{"town":"西賀茂檜谷","koaza":"","lat":35.079229,"lng":135.730721,"zip":"6030000"},{"town":"西賀茂氷室町","koaza":"","lat":35.085089,"lng":135.723297,"zip":"6038855"},{"town":"西賀茂船山","koaza":"","lat":35.065958,"lng":135.736529,"zip":"6038848"},{"town":"西賀茂坊ノ後町","koaza":"","lat":35.061833,"lng":135.743118,"zip":"6038826"},{"town":"西賀茂蓬来谷","koaza":"","lat":35.087201,"lng":135.724345,"zip":"6038856"},{"town":"西賀茂中島町","koaza":"","lat":35.076888,"lng":135.741985,"zip":"6030000"},{"town":"西賀茂傍示ケ尾","koaza":"","lat":35.086784,"lng":135.730016,"zip":"6030000"},{"town":"西賀茂松茸島","koaza":"","lat":35.102169,"lng":135.729061,"zip":"6030000"},{"town":"西賀茂丸川町","koaza":"","lat":35.060205,"lng":135.744955,"zip":"6038825"},{"town":"西賀茂円峰","koaza":"","lat":35.071429,"lng":135.73715,"zip":"6038806"},{"town":"西賀茂万寿峠","koaza":"","lat":35.093195,"lng":135.72943,"zip":"6030000"},{"town":"西賀茂水垣町","koaza":"","lat":35.062709,"lng":135.74486,"zip":"6038827"},{"town":"西賀茂南今原町","koaza":"","lat":35.063137,"lng":135.740661,"zip":"6038843"},{"town":"西賀茂南大栗町","koaza":"","lat":35.06025,"lng":135.746488,"zip":"6038824"},{"town":"西賀茂南川上町","koaza":"","lat":35.064417,"lng":135.741604,"zip":"6038814"},{"town":"西賀茂宮ノ谷","koaza":"","lat":35.079479,"lng":135.715209,"zip":"6030000"},{"town":"西賀茂宮山","koaza":"","lat":35.082927,"lng":135.723959,"zip":"6030000"},{"town":"西賀茂妙見堂","koaza":"","lat":35.069494,"lng":135.733887,"zip":"6030000"},{"town":"西賀茂山ノ森町","koaza":"","lat":35.065153,"lng":135.744714,"zip":"6038812"},{"town":"西賀茂鑓磨岩","koaza":"","lat":35.075023,"lng":135.715792,"zip":"6038851"},{"town":"西賀茂由利ノ向","koaza":"","lat":35.090266,"lng":135.733457,"zip":"6030000"},{"town":"平野上八丁柳町","koaza":"","lat":35.03231,"lng":135.730133,"zip":"6038353"},{"town":"平野上柳町","koaza":"","lat":35.03498,"lng":135.726671,"zip":"6038355"},{"town":"平野桜木町","koaza":"","lat":35.035425,"lng":135.730322,"zip":"6038364"},{"town":"平野鳥居前町","koaza":"","lat":35.032453,"lng":135.734105,"zip":"6038321"},{"town":"平野八丁柳町","koaza":"","lat":35.03096,"lng":135.730063,"zip":"6038345"},{"town":"平野東柳町","koaza":"","lat":35.03385,"lng":135.729609,"zip":"6038356"},{"town":"平野宮北町","koaza":"","lat":35.033589,"lng":135.732602,"zip":"6038352"},{"town":"平野宮敷町","koaza":"","lat":35.035271,"lng":135.728468,"zip":"6038365"},{"town":"平野宮西町","koaza":"","lat":35.033888,"lng":135.731087,"zip":"6038357"},{"town":"平野宮本町","koaza":"","lat":35.031618,"lng":135.73237,"zip":"6038322"},{"town":"真弓善福","koaza":"","lat":35.123086,"lng":135.706303,"zip":"6010102"},{"town":"真弓八幡町","koaza":"","lat":35.121346,"lng":135.701875,"zip":"6010101"},{"town":"紫野今宮町","koaza":"","lat":35.045997,"lng":135.742145,"zip":"6038243"},{"town":"紫野上野町","koaza":"","lat":35.046882,"lng":135.743718,"zip":"6038242"},{"town":"紫野雲林院町","koaza":"","lat":35.040142,"lng":135.748843,"zip":"6038214"},{"town":"紫野上柏野町","koaza":"","lat":35.036574,"lng":135.737494,"zip":"6038311"},{"town":"紫野上御所田町","koaza":"","lat":35.041805,"lng":135.751573,"zip":"6038166"},{"town":"紫野上石龍町","koaza":"","lat":35.044794,"lng":135.750029,"zip":"6038211"},{"town":"紫野上築山町","koaza":"","lat":35.040845,"lng":135.745775,"zip":"6038221"},{"town":"紫野上鳥田町","koaza":"","lat":35.044805,"lng":135.751633,"zip":"6038176"},{"town":"紫野上御輿町","koaza":"","lat":35.041831,"lng":135.739092,"zip":"6038236"},{"town":"紫野上門前町","koaza":"","lat":35.044748,"lng":135.748102,"zip":"6038217"},{"town":"紫野上柳町","koaza":"","lat":35.044839,"lng":135.75317,"zip":"6038177"},{"town":"紫野上若草町","koaza":"","lat":35.041919,"lng":135.740553,"zip":"6038237"},{"town":"紫野北花ノ坊町","koaza":"","lat":35.042526,"lng":135.737793,"zip":"6038301"},{"town":"紫野北舟岡町","koaza":"","lat":35.038423,"lng":135.742678,"zip":"6038227"},{"town":"紫野郷ノ上町","koaza":"","lat":35.037086,"lng":135.738106,"zip":"6038304"},{"town":"紫野下柏野町","koaza":"","lat":35.033623,"lng":135.737422,"zip":"6038313"},{"town":"紫野下石龍町","koaza":"","lat":35.041956,"lng":135.74989,"zip":"6038213"},{"town":"紫野下築山町","koaza":"","lat":35.039437,"lng":135.746325,"zip":"6038222"},{"town":"紫野下鳥田町","koaza":"","lat":35.043228,"lng":135.75169,"zip":"6038175"},{"town":"紫野下御輿町","koaza":"","lat":35.040814,"lng":135.739288,"zip":"6038235"},{"town":"紫野下門前町","koaza":"","lat":35.04182,"lng":135.748248,"zip":"6038215"},{"town":"紫野下柳町","koaza":"","lat":35.043285,"lng":135.753133,"zip":"6038174"},{"town":"紫野下若草町","koaza":"","lat":35.040806,"lng":135.740704,"zip":"6038234"},{"town":"紫野十二坊町","koaza":"","lat":35.037796,"lng":135.740161,"zip":"6038303"},{"town":"紫野石龍町","koaza":"","lat":35.043273,"lng":135.750165,"zip":"6038212"},{"town":"紫野泉堂町","koaza":"","lat":35.048064,"lng":135.74129,"zip":"6038247"},{"town":"紫野大徳寺町","koaza":"","lat":35.043187,"lng":135.742817,"zip":"6038231"},{"town":"紫野中柏野町","koaza":"","lat":35.035005,"lng":135.737868,"zip":"6038312"},{"town":"紫野西御所田町","koaza":"","lat":35.040262,"lng":135.751126,"zip":"6038165"},{"town":"紫野西泉堂町","koaza":"","lat":35.048443,"lng":135.739581,"zip":"6038246"},{"town":"紫野西土居町","koaza":"","lat":35.036128,"lng":135.73606,"zip":"6038314"},{"town":"紫野西野町","koaza":"","lat":35.041148,"lng":135.742378,"zip":"6038233"},{"town":"紫野西藤ノ森町","koaza":"","lat":35.037356,"lng":135.746234,"zip":"6038224"},{"town":"紫野西舟岡町","koaza":"","lat":35.039692,"lng":135.739548,"zip":"6038226"},{"town":"紫野西蓮台野町","koaza":"","lat":35.046369,"lng":135.738244,"zip":"6038245"},{"town":"紫野花ノ坊町","koaza":"","lat":35.040605,"lng":135.737641,"zip":"6038302"},{"town":"紫野東御所田町","koaza":"","lat":35.039861,"lng":135.753474,"zip":"6038164"},{"town":"紫野東泉堂町","koaza":"","lat":35.048564,"lng":135.742718,"zip":"6038241"},{"town":"紫野東野町","koaza":"","lat":35.040953,"lng":135.744017,"zip":"6038232"},{"town":"紫野東藤ノ森町","koaza":"","lat":35.037363,"lng":135.747172,"zip":"6038223"},{"town":"紫野東舟岡町","koaza":"","lat":35.03959,"lng":135.744304,"zip":"6038228"},{"town":"紫野東蓮台野町","koaza":"","lat":35.046258,"lng":135.739987,"zip":"6038244"},{"town":"紫野南花ノ坊町","koaza":"","lat":35.038435,"lng":135.73698,"zip":"6038305"},{"town":"紫野南舟岡町","koaza":"","lat":35.036798,"lng":135.744294,"zip":"6038225"},{"town":"紫野宮西町","koaza":"","lat":35.038475,"lng":135.752137,"zip":"6038158"},{"town":"紫野宮東町","koaza":"","lat":35.038023,"lng":135.753537,"zip":"6038157"},{"town":"紫野門前町","koaza":"","lat":35.04335,"lng":135.748096,"zip":"6038216"},{"town":"大北山蓮ケ谷町","koaza":"","lat":35.044065,"lng":135.723215,"zip":"6038483"}]