[{"town":"新シ町","koaza":"","lat":34.99777,"lng":135.775867,"zip":"6050856"},{"town":"粟田口粟田山北町","koaza":"","lat":35.007407,"lng":135.786158,"zip":"6050000"},{"town":"粟田口粟田山南町","koaza":"","lat":35.002737,"lng":135.786308,"zip":"6050000"},{"town":"粟田口鍛冶町","koaza":"","lat":35.008698,"lng":135.785894,"zip":"6050051"},{"town":"粟田口華頂町","koaza":"","lat":35.008075,"lng":135.78864,"zip":"6050052"},{"town":"粟田口花頂山町","koaza":"","lat":35.005279,"lng":135.786043,"zip":"6050000"},{"town":"粟田口高台寺山町","koaza":"","lat":34.998417,"lng":135.788537,"zip":"6050000"},{"town":"粟田口三条坊町","koaza":"","lat":35.007755,"lng":135.783249,"zip":"6050035"},{"town":"粟田口長楽寺山町","koaza":"","lat":35.001935,"lng":135.78482,"zip":"6050000"},{"town":"粟田口東大谷山町","koaza":"","lat":35.000352,"lng":135.784992,"zip":"6050000"},{"town":"池殿町","koaza":"","lat":34.996263,"lng":135.772538,"zip":"6050848"},{"town":"石垣町西側","koaza":"","lat":34.994697,"lng":135.771522,"zip":"6050912"},{"town":"石垣町東側","koaza":"","lat":34.994529,"lng":135.772019,"zip":"6050913"},{"town":"石橋町","koaza":"","lat":35.00686,"lng":135.777796,"zip":"6050066"},{"town":"一橋野本町","koaza":"","lat":34.984749,"lng":135.768907,"zip":"6050995"},{"town":"一橋宮ノ内町","koaza":"","lat":34.987811,"lng":135.768314,"zip":"6050994"},{"town":"井手町","koaza":"","lat":35.00236,"lng":135.772174,"zip":"6050804"},{"town":"稲荷町北組","koaza":"","lat":35.007493,"lng":135.778459,"zip":"6050068"},{"town":"稲荷町南組","koaza":"","lat":35.007362,"lng":135.77817,"zip":"6050067"},{"town":"今熊野阿弥陀ケ峯町","koaza":"","lat":34.987867,"lng":135.784051,"zip":"6050000"},{"town":"今熊野池田町","koaza":"","lat":34.984562,"lng":135.772124,"zip":"6050965"},{"town":"今熊野梅ケ谷町","koaza":"","lat":34.980902,"lng":135.787356,"zip":"6050956"},{"town":"今熊野北日吉町","koaza":"","lat":34.98977,"lng":135.779178,"zip":"6050926"},{"town":"今熊野小松山町","koaza":"","lat":34.984193,"lng":135.78595,"zip":"6050954"},{"town":"今熊野泉山町","koaza":"","lat":34.977507,"lng":135.784912,"zip":"6050957"},{"town":"今熊野総山町","koaza":"","lat":34.983029,"lng":135.786696,"zip":"6050955"},{"town":"今熊野剣宮町","koaza":"","lat":34.982797,"lng":135.77683,"zip":"6050972"},{"town":"今熊野椥ノ森町","koaza":"","lat":34.983701,"lng":135.774401,"zip":"6050971"},{"town":"今熊野東山町","koaza":"","lat":34.988192,"lng":135.787424,"zip":"6050000"},{"town":"今熊野悲田院山町","koaza":"","lat":34.978058,"lng":135.777137,"zip":"6050000"},{"town":"今熊野日吉町","koaza":"","lat":34.98706,"lng":135.779606,"zip":"6050925"},{"town":"今熊野宝蔵町","koaza":"","lat":34.985006,"lng":135.776509,"zip":"6050952"},{"town":"今熊野本多山町","koaza":"","lat":34.975518,"lng":135.781058,"zip":"6050978"},{"town":"今熊野南谷町","koaza":"","lat":34.975647,"lng":135.778601,"zip":"6050979"},{"town":"今熊野南日吉町","koaza":"","lat":34.984185,"lng":135.780395,"zip":"6050953"},{"town":"今小路町","koaza":"","lat":35.00927,"lng":135.780009,"zip":"6050023"},{"town":"今道町","koaza":"","lat":35.009505,"lng":135.787225,"zip":"6050042"},{"town":"上田町","koaza":"","lat":34.998676,"lng":135.777811,"zip":"6050852"},{"town":"梅宮町","koaza":"","lat":35.007882,"lng":135.779867,"zip":"6050061"},{"town":"梅本町","koaza":"","lat":35.006149,"lng":135.776913,"zip":"6050064"},{"town":"夷町","koaza":"","lat":35.009348,"lng":135.783445,"zip":"6050033"},{"town":"蛭子町北組","koaza":"","lat":34.993148,"lng":135.770592,"zip":"6050917"},{"town":"蛭子町南組","koaza":"","lat":34.992367,"lng":135.77044,"zip":"6050936"},{"town":"大井手町","koaza":"","lat":35.00954,"lng":135.780212,"zip":"6050022"},{"town":"大阪町","koaza":"","lat":34.994308,"lng":135.769158,"zip":"6050904"},{"town":"大橋町","koaza":"","lat":35.009159,"lng":135.772917,"zip":"6050009"},{"town":"音羽町","koaza":"","lat":34.995905,"lng":135.771122,"zip":"6050833"},{"town":"鍵屋町","koaza":"","lat":34.992245,"lng":135.767937,"zip":"6050909"},{"town":"門脇町","koaza":"","lat":34.996028,"lng":135.773344,"zip":"6050843"},{"town":"金屋町","koaza":"","lat":34.996104,"lng":135.770426,"zip":"6050834"},{"town":"鐘鋳町","koaza":"","lat":34.993121,"lng":135.77445,"zip":"6050875"},{"town":"上新シ町","koaza":"","lat":34.993505,"lng":135.773548,"zip":"6050877"},{"town":"上池田町","koaza":"","lat":34.986172,"lng":135.771177,"zip":"6050968"},{"town":"上馬町","koaza":"","lat":34.991384,"lng":135.77921,"zip":"6050927"},{"town":"上梅屋町","koaza":"","lat":34.992847,"lng":135.773229,"zip":"6050876"},{"town":"上棟梁町","koaza":"","lat":34.993467,"lng":135.771463,"zip":"6050916"},{"town":"上弁天町","koaza":"","lat":35.000299,"lng":135.77846,"zip":"6050822"},{"town":"上堀詰町","koaza":"","lat":34.991127,"lng":135.768152,"zip":"6050991"},{"town":"上柳町","koaza":"","lat":35.001065,"lng":135.771708,"zip":"6050807"},{"town":"亀井町","koaza":"","lat":35.002264,"lng":135.772772,"zip":"6050803"},{"town":"唐戸鼻町","koaza":"","lat":35.007843,"lng":135.778909,"zip":"6050069"},{"town":"川端町","koaza":"","lat":35.003976,"lng":135.771973,"zip":"6050076"},{"town":"瓦役町","koaza":"","lat":34.992272,"lng":135.778741,"zip":"6050921"},{"town":"祇園町北側","koaza":"","lat":35.004192,"lng":135.777738,"zip":"6050073"},{"town":"祇園町南側","koaza":"","lat":35.002337,"lng":135.775788,"zip":"6050074"},{"town":"北木之元町","koaza":"","lat":35.008647,"lng":135.777867,"zip":"6050014"},{"town":"北御門町","koaza":"","lat":34.997979,"lng":135.77148,"zip":"6050815"},{"town":"北棟梁町","koaza":"","lat":34.994108,"lng":135.770799,"zip":"6050918"},{"town":"清井町","koaza":"","lat":35.00202,"lng":135.778081,"zip":"6050821"},{"town":"教業町","koaza":"","lat":35.008584,"lng":135.775775,"zip":"6050002"},{"town":"清水一丁目","koaza":"","lat":34.994871,"lng":135.783514,"zip":"6050862"},{"town":"清水二丁目","koaza":"","lat":34.996539,"lng":135.780087,"zip":"6050862"},{"town":"清水三丁目","koaza":"","lat":34.997236,"lng":135.781397,"zip":"6050862"},{"town":"清水四丁目","koaza":"","lat":34.996514,"lng":135.778059,"zip":"6050862"},{"town":"清水五丁目","koaza":"","lat":34.997132,"lng":135.776469,"zip":"6050862"},{"town":"清本町","koaza":"","lat":35.005045,"lng":135.774997,"zip":"6050084"},{"town":"金園町","koaza":"","lat":34.998679,"lng":135.778752,"zip":"6050828"},{"town":"興善町","koaza":"","lat":34.996813,"lng":135.775867,"zip":"6050857"},{"town":"五軒町","koaza":"","lat":35.009185,"lng":135.781273,"zip":"6050007"},{"town":"小島町","koaza":"","lat":34.996142,"lng":135.776122,"zip":"6050858"},{"town":"五条橋東二丁目","koaza":"","lat":34.995383,"lng":135.771051,"zip":"6050846"},{"town":"五条橋東三丁目","koaza":"","lat":34.995197,"lng":135.772374,"zip":"6050846"},{"town":"五条橋東四丁目","koaza":"","lat":34.995064,"lng":135.773581,"zip":"6050846"},{"town":"五条橋東五丁目","koaza":"","lat":34.994868,"lng":135.774614,"zip":"6050846"},{"town":"五条橋東六丁目","koaza":"","lat":34.994196,"lng":135.778167,"zip":"6050846"},{"town":"小松町","koaza":"","lat":35.000649,"lng":135.774012,"zip":"6050811"},{"town":"西海子町","koaza":"","lat":35.009525,"lng":135.778219,"zip":"6050012"},{"town":"鞘町一丁目","koaza":"","lat":34.995204,"lng":135.769292,"zip":"6050902"},{"town":"三十三間堂廻り","koaza":"","lat":34.987992,"lng":135.772773,"zip":"6050941"},{"town":"三町目","koaza":"","lat":35.009371,"lng":135.775798,"zip":"6050005"},{"town":"七軒町","koaza":"","lat":35.009524,"lng":135.77699,"zip":"6050011"},{"town":"慈法院庵町","koaza":"","lat":34.9935,"lng":135.775417,"zip":"6050871"},{"town":"下新シ町","koaza":"","lat":34.993872,"lng":135.772326,"zip":"6050914"},{"town":"下池田町","koaza":"","lat":34.983591,"lng":135.770836,"zip":"6050966"},{"town":"下馬町","koaza":"","lat":34.992102,"lng":135.777103,"zip":"6050873"},{"town":"下梅屋町","koaza":"","lat":34.993327,"lng":135.772431,"zip":"6050915"},{"town":"下河原町","koaza":"","lat":35.000619,"lng":135.780694,"zip":"6050825"},{"town":"下棟梁町","koaza":"","lat":34.992458,"lng":135.771241,"zip":"6050937"},{"town":"下弁天町","koaza":"","lat":34.999363,"lng":135.777539,"zip":"6050823"},{"town":"下堀詰町","koaza":"","lat":34.989936,"lng":135.768142,"zip":"6050992"},{"town":"下柳町","koaza":"","lat":34.99976,"lng":135.771408,"zip":"6050808"},{"town":"上人町","koaza":"","lat":34.994901,"lng":135.768299,"zip":"6050903"},{"town":"定法寺町","koaza":"","lat":35.010304,"lng":135.783146,"zip":"6050031"},{"town":"正面町","koaza":"","lat":34.992187,"lng":135.768965,"zip":"6050908"},{"town":"白糸町","koaza":"","lat":34.994811,"lng":135.777889,"zip":"6050865"},{"town":"新瓦町西組","koaza":"","lat":34.986709,"lng":135.771481,"zip":"6050961"},{"town":"新瓦町東組","koaza":"","lat":34.98675,"lng":135.772362,"zip":"6050962"},{"town":"新五軒町","koaza":"","lat":35.007458,"lng":135.772264,"zip":"6050006"},{"town":"進之町","koaza":"","lat":35.008048,"lng":135.777731,"zip":"6050016"},{"town":"末吉町","koaza":"","lat":35.005001,"lng":135.773709,"zip":"6050085"},{"town":"朱雀町","koaza":"","lat":34.995354,"lng":135.768421,"zip":"6050901"},{"town":"清閑寺池田町","koaza":"","lat":34.990945,"lng":135.782921,"zip":"6050923"},{"town":"清閑寺歌ノ中山町","koaza":"","lat":34.991108,"lng":135.788323,"zip":"6050000"},{"town":"清閑寺清水上山町","koaza":"","lat":34.995603,"lng":135.78752,"zip":"6050000"},{"town":"清閑寺下山町","koaza":"","lat":34.992598,"lng":135.782284,"zip":"6050000"},{"town":"清閑寺山ノ内町","koaza":"","lat":34.990293,"lng":135.785573,"zip":"6050922"},{"town":"清閑寺霊山町","koaza":"","lat":34.998541,"lng":135.783572,"zip":"6050861"},{"town":"石泉院町","koaza":"","lat":35.009979,"lng":135.780534,"zip":"6050021"},{"town":"泉涌寺五葉ノ辻町","koaza":"","lat":34.982254,"lng":135.771948,"zip":"6050974"},{"town":"泉涌寺雀ケ森町","koaza":"","lat":34.981463,"lng":135.773203,"zip":"6050975"},{"town":"泉涌寺東林町","koaza":"","lat":34.9805,"lng":135.775282,"zip":"6050976"},{"town":"泉涌寺門前町","koaza":"","lat":34.982764,"lng":135.774036,"zip":"6050973"},{"town":"泉涌寺山内町","koaza":"","lat":34.97924,"lng":135.779213,"zip":"6050977"},{"town":"大黒町","koaza":"","lat":35.00826,"lng":135.773192,"zip":"6050008"},{"town":"高畑町","koaza":"","lat":35.00764,"lng":135.777486,"zip":"6050017"},{"town":"竹村町","koaza":"","lat":34.995923,"lng":135.775275,"zip":"6050845"},{"town":"辰巳町","koaza":"","lat":34.987873,"lng":135.770608,"zip":"6050855"},{"town":"巽町","koaza":"","lat":35.007635,"lng":135.776008,"zip":"6050018"},{"town":"田中町","koaza":"","lat":34.996293,"lng":135.769736,"zip":"6050835"},{"town":"谷川町","koaza":"","lat":35.00882,"lng":135.789159,"zip":"6050045"},{"town":"玉水町","koaza":"","lat":34.998778,"lng":135.777206,"zip":"6050851"},{"town":"多門町","koaza":"","lat":34.996292,"lng":135.774288,"zip":"6050844"},{"town":"茶屋町","koaza":"","lat":34.990868,"lng":135.772254,"zip":"6050931"},{"town":"月輪町","koaza":"","lat":34.997981,"lng":135.777575,"zip":"6050854"},{"town":"月見町","koaza":"","lat":35.001331,"lng":135.777745,"zip":"6050829"},{"town":"堤町","koaza":"","lat":35.008482,"lng":135.779716,"zip":"6050025"},{"town":"土居之内町","koaza":"","lat":35.008925,"lng":135.780099,"zip":"6050024"},{"town":"常盤町","koaza":"","lat":34.992602,"lng":135.775771,"zip":"6050079"},{"town":"富永町","koaza":"","lat":35.004361,"lng":135.774282,"zip":"6050078"},{"town":"豊浦町","koaza":"","lat":34.993196,"lng":135.769039,"zip":"6050905"},{"town":"中之町","koaza":"","lat":35.009387,"lng":135.784603,"zip":"6050034"},{"town":"長光町","koaza":"","lat":35.008609,"lng":135.776578,"zip":"6050019"},{"town":"西川原町","koaza":"","lat":34.997371,"lng":135.770264,"zip":"6050838"},{"town":"西小物座町","koaza":"","lat":35.009216,"lng":135.789049,"zip":"6050043"},{"town":"西御門町","koaza":"","lat":34.998072,"lng":135.770551,"zip":"6050816"},{"town":"西橘町","koaza":"","lat":34.993673,"lng":135.767982,"zip":"6050907"},{"town":"西棟梁町","koaza":"","lat":34.992575,"lng":135.770972,"zip":"6050935"},{"town":"西之町","koaza":"","lat":35.00646,"lng":135.773808,"zip":"6050088"},{"town":"西之門町","koaza":"","lat":34.989002,"lng":135.770603,"zip":"6050947"},{"town":"西町","koaza":"","lat":35.009381,"lng":135.782298,"zip":"6050037"},{"town":"廿一軒町","koaza":"","lat":35.004095,"lng":135.772959,"zip":"6050077"},{"town":"二町目","koaza":"","lat":35.009378,"lng":135.774651,"zip":"6050001"},{"town":"塗師屋町","koaza":"","lat":34.990661,"lng":135.770357,"zip":"6050934"},{"town":"梅林町","koaza":"","lat":34.99548,"lng":135.776428,"zip":"6050863"},{"town":"博多町","koaza":"","lat":35.001152,"lng":135.772295,"zip":"6050805"},{"town":"橋本町","koaza":"","lat":35.005714,"lng":135.775548,"zip":"6050083"},{"town":"八軒町","koaza":"","lat":35.008999,"lng":135.779241,"zip":"6050027"},{"town":"東姉小路町","koaza":"","lat":35.010036,"lng":135.779476,"zip":"6050029"},{"town":"東音羽町","koaza":"","lat":34.99308,"lng":135.776894,"zip":"6050872"},{"town":"東川原町","koaza":"","lat":34.997104,"lng":135.770691,"zip":"6050839"},{"town":"東瓦町","koaza":"","lat":34.987805,"lng":135.775871,"zip":"6050951"},{"town":"東小物座町","koaza":"","lat":35.008014,"lng":135.790443,"zip":"6050044"},{"town":"東橘町","koaza":"","lat":34.993658,"lng":135.768658,"zip":"6050906"},{"town":"東町","koaza":"","lat":35.009384,"lng":135.785868,"zip":"6050041"},{"town":"東橋詰町","koaza":"","lat":34.995685,"lng":135.769556,"zip":"6050847"},{"town":"東分木町","koaza":"","lat":35.009369,"lng":135.788008,"zip":"6050046"},{"town":"毘沙門町","koaza":"","lat":35.00041,"lng":135.77671,"zip":"6050812"},{"town":"日吉町","koaza":"","lat":34.988834,"lng":135.767981,"zip":"6050993"},{"town":"福稲柿本町","koaza":"","lat":34.978825,"lng":135.768466,"zip":"6050985"},{"town":"福稲上高松町","koaza":"","lat":34.975159,"lng":135.769197,"zip":"6050983"},{"town":"福稲川原町","koaza":"","lat":34.973649,"lng":135.766004,"zip":"6050988"},{"town":"福稲岸ノ上町","koaza":"","lat":34.981662,"lng":135.769146,"zip":"6050986"},{"town":"福稲御所ノ内町","koaza":"","lat":34.978522,"lng":135.769647,"zip":"6050987"},{"town":"福稲下高松町","koaza":"","lat":34.97357,"lng":135.76849,"zip":"6050982"},{"town":"福稲高原町","koaza":"","lat":34.974926,"lng":135.767307,"zip":"6050984"},{"town":"袋町","koaza":"","lat":34.994712,"lng":135.770987,"zip":"6050911"},{"town":"古川町","koaza":"","lat":35.008514,"lng":135.778806,"zip":"6050026"},{"town":"古西町","koaza":"","lat":35.006994,"lng":135.776719,"zip":"6050065"},{"town":"分木町","koaza":"","lat":35.009483,"lng":135.779035,"zip":"6050028"},{"town":"弁財天町","koaza":"","lat":35.006078,"lng":135.772305,"zip":"6050086"},{"town":"北斗町","koaza":"","lat":34.98843,"lng":135.770532,"zip":"6050946"},{"town":"星野町","koaza":"","lat":34.998311,"lng":135.778206,"zip":"6050853"},{"town":"堀池町","koaza":"","lat":35.010146,"lng":135.781957,"zip":"6050038"},{"town":"本池田町","koaza":"","lat":34.985114,"lng":135.770777,"zip":"6050967"},{"town":"本瓦町","koaza":"","lat":34.986586,"lng":135.773432,"zip":"6050963"},{"town":"本町十丁目","koaza":"","lat":34.983873,"lng":135.770324,"zip":"6050981"},{"town":"本町十一丁目","koaza":"","lat":34.982468,"lng":135.769965,"zip":"6050981"},{"town":"本町十二丁目","koaza":"","lat":34.981538,"lng":135.770526,"zip":"6050981"},{"town":"本町十三丁目","koaza":"","lat":34.980946,"lng":135.770321,"zip":"6050981"},{"town":"本町十四丁目","koaza":"","lat":34.980374,"lng":135.77036,"zip":"6050981"},{"town":"本町十五丁目","koaza":"","lat":34.977103,"lng":135.773013,"zip":"6050981"},{"town":"本町十六丁目","koaza":"","lat":34.978863,"lng":135.771021,"zip":"6050981"},{"town":"本町十七丁目","koaza":"","lat":34.977748,"lng":135.770962,"zip":"6050981"},{"town":"本町十八丁目","koaza":"","lat":34.97595,"lng":135.770834,"zip":"6050981"},{"town":"本町十九丁目","koaza":"","lat":34.974464,"lng":135.77063,"zip":"6050981"},{"town":"本町一丁目","koaza":"","lat":34.994912,"lng":135.770102,"zip":"6050981"},{"town":"本町二十丁目","koaza":"","lat":34.973048,"lng":135.770756,"zip":"6050981"},{"town":"本町二十一丁目","koaza":"","lat":34.971803,"lng":135.770775,"zip":"6050981"},{"town":"本町二十二丁目","koaza":"","lat":34.970593,"lng":135.771006,"zip":"6050981"},{"town":"本町二丁目","koaza":"","lat":34.994136,"lng":135.769879,"zip":"6050981"},{"town":"本町三丁目","koaza":"","lat":34.993265,"lng":135.769783,"zip":"6050981"},{"town":"本町四丁目","koaza":"","lat":34.992336,"lng":135.769682,"zip":"6050981"},{"town":"本町五丁目","koaza":"","lat":34.990377,"lng":135.769573,"zip":"6050981"},{"town":"本町六丁目","koaza":"","lat":34.988976,"lng":135.769596,"zip":"6050981"},{"town":"本町七丁目","koaza":"","lat":34.988134,"lng":135.769651,"zip":"6050981"},{"town":"本町八丁目","koaza":"","lat":34.986696,"lng":135.769775,"zip":"6050981"},{"town":"本町九丁目","koaza":"","lat":34.985464,"lng":135.770001,"zip":"6050981"},{"town":"本町新五丁目","koaza":"","lat":34.991312,"lng":135.769595,"zip":"6050989"},{"town":"本町新六丁目","koaza":"","lat":34.9896,"lng":135.76958,"zip":"6050989"},{"town":"蒔田町","koaza":"","lat":34.986702,"lng":135.770869,"zip":"6050942"},{"town":"桝屋町","koaza":"","lat":34.998494,"lng":135.781247,"zip":"6050826"},{"town":"松原町","koaza":"","lat":35.005888,"lng":135.778496,"zip":"6050063"},{"town":"円山町","koaza":"","lat":35.002868,"lng":135.782749,"zip":"6050071"},{"town":"三盛町","koaza":"","lat":34.996536,"lng":135.773258,"zip":"6050842"},{"town":"南梅屋町","koaza":"","lat":34.992972,"lng":135.77185,"zip":"6050938"},{"town":"南瓦町","koaza":"","lat":34.98576,"lng":135.773303,"zip":"6050964"},{"town":"南木之元町","koaza":"","lat":35.008431,"lng":135.777949,"zip":"6050015"},{"town":"南西海子町","koaza":"","lat":35.008997,"lng":135.777994,"zip":"6050013"},{"town":"南棟梁町","koaza":"","lat":34.987298,"lng":135.770324,"zip":"6050944"},{"town":"南町","koaza":"","lat":34.99943,"lng":135.778477,"zip":"6050824"},{"town":"宮川筋一丁目","koaza":"","lat":35.002793,"lng":135.771621,"zip":"6050801"},{"town":"宮川筋二丁目","koaza":"","lat":35.001432,"lng":135.77108,"zip":"6050801"},{"town":"宮川筋三丁目","koaza":"","lat":35.000666,"lng":135.770822,"zip":"6050801"},{"town":"宮川筋四丁目","koaza":"","lat":34.999757,"lng":135.770453,"zip":"6050801"},{"town":"宮川筋五丁目","koaza":"","lat":34.99893,"lng":135.770199,"zip":"6050801"},{"town":"宮川筋六丁目","koaza":"","lat":34.998143,"lng":135.769524,"zip":"6050801"},{"town":"宮川筋七丁目","koaza":"","lat":34.997242,"lng":135.769098,"zip":"6050801"},{"town":"宮川筋八丁目","koaza":"","lat":34.996273,"lng":135.768698,"zip":"6050801"},{"town":"妙法院前側町","koaza":"","lat":34.990482,"lng":135.775894,"zip":"6050932"},{"town":"三吉町","koaza":"","lat":35.00703,"lng":135.775431,"zip":"6050081"},{"town":"元町","koaza":"","lat":35.007078,"lng":135.77369,"zip":"6050089"},{"town":"元吉町","koaza":"","lat":35.005728,"lng":135.773788,"zip":"6050087"},{"town":"森下町","koaza":"","lat":34.996644,"lng":135.770487,"zip":"6050836"},{"town":"薬師町","koaza":"","lat":34.997702,"lng":135.772401,"zip":"6050814"},{"town":"八坂上町","koaza":"","lat":34.998504,"lng":135.779586,"zip":"6050827"},{"town":"山崎町","koaza":"","lat":34.996504,"lng":135.771909,"zip":"6050841"},{"town":"山城町","koaza":"","lat":34.997426,"lng":135.771134,"zip":"6050831"},{"town":"山田町","koaza":"","lat":34.996875,"lng":135.769937,"zip":"6050837"},{"town":"大和大路一丁目","koaza":"","lat":34.990689,"lng":135.770961,"zip":"6050933"},{"town":"大和大路二丁目","koaza":"","lat":34.989944,"lng":135.770967,"zip":"6050933"},{"town":"大和町","koaza":"","lat":35.003083,"lng":135.772819,"zip":"6050802"},{"town":"遊行前町","koaza":"","lat":34.994844,"lng":135.776639,"zip":"6050864"},{"town":"柚之木町","koaza":"","lat":35.010338,"lng":135.784094,"zip":"6050032"},{"town":"弓矢町","koaza":"","lat":34.998379,"lng":135.77241,"zip":"6050817"},{"town":"芳野町","koaza":"","lat":34.994302,"lng":135.773127,"zip":"6050878"},{"town":"林下町","koaza":"","lat":35.005932,"lng":135.782695,"zip":"6050062"},{"town":"六軒町","koaza":"","lat":35.002,"lng":135.772052,"zip":"6050806"},{"town":"轆轤町","koaza":"","lat":34.997456,"lng":135.774114,"zip":"6050813"},{"town":"若竹町","koaza":"","lat":35.008334,"lng":135.775049,"zip":"6050003"},{"town":"若松町","koaza":"","lat":35.007967,"lng":135.774082,"zip":"6050004"},{"town":"鷲尾町","koaza":"","lat":35.001862,"lng":135.780686,"zip":"6050072"}]