[{"town":"相生町","koaza":"","lat":35.031139,"lng":135.769041,"zip":"6020827"},{"town":"愛染寺町","koaza":"","lat":35.023434,"lng":135.743465,"zip":"6028278"},{"town":"飛鳥井町","koaza":"","lat":35.029842,"lng":135.753079,"zip":"6020054"},{"town":"油橋詰町","koaza":"","lat":35.025653,"lng":135.753523,"zip":"6020923"},{"town":"尼ケ崎横町","koaza":"","lat":35.021598,"lng":135.742387,"zip":"6028165"},{"town":"阿弥陀寺町","koaza":"","lat":35.03222,"lng":135.749331,"zip":"6028424"},{"town":"阿弥陀寺前町","koaza":"","lat":35.03331,"lng":135.76599,"zip":"6020803"},{"town":"有春町","koaza":"","lat":35.023716,"lng":135.754295,"zip":"6028074"},{"town":"有馬町","koaza":"","lat":35.030378,"lng":135.745478,"zip":"6028472"},{"town":"安楽小路町","koaza":"","lat":35.032849,"lng":135.755488,"zip":"6020064"},{"town":"家永町","koaza":"","lat":35.020743,"lng":135.749078,"zip":"6028121"},{"town":"伊佐町","koaza":"","lat":35.032834,"lng":135.74737,"zip":"6028407"},{"town":"石薬師町","koaza":"","lat":35.027471,"lng":135.749063,"zip":"6028226"},{"town":"伊勢殿構町","koaza":"","lat":35.026553,"lng":135.743506,"zip":"6028297"},{"town":"伊勢屋町","koaza":"","lat":35.017112,"lng":135.769074,"zip":"6020873"},{"town":"井田町","koaza":"","lat":35.034754,"lng":135.742738,"zip":"6028302"},{"town":"一観音町","koaza":"","lat":35.027087,"lng":135.739757,"zip":"6028335"},{"town":"一条殿町","koaza":"","lat":35.027147,"lng":135.756102,"zip":"6020934"},{"town":"一条横町","koaza":"","lat":35.026402,"lng":135.75396,"zip":"6020944"},{"town":"一番町","koaza":"","lat":35.024854,"lng":135.738679,"zip":"6028345"},{"town":"一松町","koaza":"","lat":35.027136,"lng":135.757086,"zip":"6020905"},{"town":"一色町","koaza":"","lat":35.031076,"lng":135.745196,"zip":"6028471"},{"town":"一真町","koaza":"","lat":35.029716,"lng":135.768508,"zip":"6020824"},{"town":"一町目","koaza":"","lat":35.020678,"lng":135.748429,"zip":"6028064"},{"town":"五辻町","koaza":"","lat":35.031078,"lng":135.747171,"zip":"6028446"},{"town":"糸屋町","koaza":"","lat":35.02564,"lng":135.748861,"zip":"6028238"},{"town":"稲葉町","koaza":"","lat":35.019837,"lng":135.741502,"zip":"6028352"},{"town":"戌亥町","koaza":"","lat":35.035228,"lng":135.744102,"zip":"6028497"},{"town":"猪熊一丁目","koaza":"","lat":35.02417,"lng":135.75056,"zip":"6028245"},{"town":"猪熊二丁目","koaza":"","lat":35.023077,"lng":135.750518,"zip":"6028245"},{"town":"射場町","koaza":"","lat":35.032961,"lng":135.753325,"zip":"6020066"},{"town":"今薬屋町","koaza":"","lat":35.01816,"lng":135.757231,"zip":"6028025"},{"town":"今新在家町","koaza":"","lat":35.025702,"lng":135.746031,"zip":"6028292"},{"town":"今図子町","koaza":"","lat":35.028475,"lng":135.757165,"zip":"6020906"},{"town":"今出川町","koaza":"","lat":35.028692,"lng":135.745117,"zip":"6020033"},{"town":"浮田町","koaza":"","lat":35.020014,"lng":135.748404,"zip":"6028104"},{"town":"内構町","koaza":"","lat":35.036263,"lng":135.758817,"zip":"6020012"},{"town":"靭屋町","koaza":"","lat":35.028188,"lng":135.754395,"zip":"6020942"},{"town":"姥ケ榎木町","koaza":"","lat":35.031794,"lng":135.743859,"zip":"6028477"},{"town":"姥ケ北町","koaza":"","lat":35.033298,"lng":135.743953,"zip":"6028487"},{"town":"姥ケ寺之前町","koaza":"","lat":35.033343,"lng":135.743157,"zip":"6028303"},{"town":"姥ケ東西町","koaza":"","lat":35.032415,"lng":135.743777,"zip":"6028485"},{"town":"梅屋町","koaza":"","lat":35.028214,"lng":135.758861,"zip":"6020902"},{"town":"裏築地町","koaza":"","lat":35.031185,"lng":135.758013,"zip":"6020031"},{"town":"裏風呂町","koaza":"","lat":35.032648,"lng":135.756834,"zip":"6020025"},{"town":"榎町","koaza":"","lat":35.024153,"lng":135.749876,"zip":"6028251"},{"town":"夷川町","koaza":"","lat":35.018125,"lng":135.754939,"zip":"6028032"},{"town":"蛭子町","koaza":"","lat":35.032268,"lng":135.74499,"zip":"6028484"},{"town":"閻魔前町","koaza":"","lat":35.035425,"lng":135.740668,"zip":"6028307"},{"town":"老松町","koaza":"","lat":35.032566,"lng":135.738511,"zip":"6028318"},{"town":"桜鶴円町","koaza":"","lat":35.021273,"lng":135.759234,"zip":"6028011"},{"town":"正親町","koaza":"","lat":35.025752,"lng":135.756455,"zip":"6020921"},{"town":"扇町","koaza":"","lat":35.027762,"lng":135.767996,"zip":"6020848"},{"town":"大猪熊町","koaza":"","lat":35.027722,"lng":135.768639,"zip":"6028405"},{"town":"大上之町","koaza":"","lat":35.02662,"lng":135.734783,"zip":"6028375"},{"town":"大北小路東町","koaza":"","lat":35.032968,"lng":135.751106,"zip":"6028413"},{"town":"大原口町","koaza":"","lat":35.029013,"lng":135.767294,"zip":"6020832"},{"town":"大原口突抜町","koaza":"","lat":35.028845,"lng":135.767056,"zip":"6020834"},{"town":"大東町","koaza":"","lat":35.025741,"lng":135.735119,"zip":"6028376"},{"town":"大峰図子町","koaza":"","lat":35.027122,"lng":135.755166,"zip":"6020935"},{"town":"大宮町","koaza":"","lat":35.028503,"lng":135.769167,"zip":"6020847"},{"town":"岡松町","koaza":"","lat":35.029634,"lng":135.759274,"zip":"6020032"},{"town":"小川町","koaza":"","lat":35.025699,"lng":135.754325,"zip":"6020924"},{"town":"表町","koaza":"","lat":35.03036,"lng":135.768023,"zip":"6020825"},{"town":"戒光寺町","koaza":"","lat":35.027976,"lng":135.75396,"zip":"6020946"},{"town":"甲斐守町","koaza":"","lat":35.024392,"lng":135.753522,"zip":"6028061"},{"town":"鏡石町","koaza":"","lat":35.026564,"lng":135.747744,"zip":"6028203"},{"town":"加賀屋町","koaza":"","lat":35.024999,"lng":135.744645,"zip":"6028281"},{"town":"勘解由小路町","koaza":"","lat":35.02061,"lng":135.758033,"zip":"6028014"},{"town":"梶井町","koaza":"","lat":35.026055,"lng":135.770431,"zip":"6020841"},{"town":"頭町","koaza":"","lat":35.023311,"lng":135.754919,"zip":"6020952"},{"town":"柏清盛町","koaza":"","lat":35.034046,"lng":135.740264,"zip":"6028311"},{"town":"春日町","koaza":"","lat":35.018173,"lng":135.7589,"zip":"6028023"},{"town":"片原町","koaza":"","lat":35.030332,"lng":135.73975,"zip":"6028316"},{"town":"上生洲町","koaza":"","lat":35.020525,"lng":135.770128,"zip":"6020855"},{"town":"上小川町","koaza":"","lat":35.031393,"lng":135.754228,"zip":"6020052"},{"town":"上鍛冶町","koaza":"","lat":35.018034,"lng":135.754191,"zip":"6028033"},{"town":"上片原町","koaza":"","lat":35.032979,"lng":135.765824,"zip":"6020804"},{"town":"上木下町","koaza":"","lat":35.03535,"lng":135.75682,"zip":"6020017"},{"town":"上御霊竪町","koaza":"","lat":35.03669,"lng":135.761218,"zip":"6020896"},{"town":"上御霊中町","koaza":"","lat":35.037112,"lng":135.75948,"zip":"6020894"},{"town":"上御霊馬場町","koaza":"","lat":35.035991,"lng":135.762649,"zip":"6020891"},{"town":"上御霊前町","koaza":"","lat":35.03643,"lng":135.759975,"zip":"6020895"},{"town":"上立売町","koaza":"","lat":35.031802,"lng":135.756929,"zip":"6020024"},{"town":"上立売東町","koaza":"","lat":35.031917,"lng":135.758856,"zip":"6020022"},{"town":"上天神町","koaza":"","lat":35.036344,"lng":135.75039,"zip":"6020082"},{"town":"上塔之段町","koaza":"","lat":35.031122,"lng":135.766011,"zip":"6020815"},{"town":"上之町","koaza":"","lat":35.019448,"lng":135.770918,"zip":"6020863"},{"town":"上堀川町","koaza":"","lat":35.018048,"lng":135.751729,"zip":"6028141"},{"town":"上神輿町","koaza":"","lat":35.031473,"lng":135.766997,"zip":"6020813"},{"town":"紙屋川町","koaza":"","lat":35.028417,"lng":135.733834,"zip":"6028384"},{"town":"上柳原町","koaza":"","lat":35.03554,"lng":135.758175,"zip":"6020013"},{"town":"亀木町","koaza":"","lat":35.023097,"lng":135.746078,"zip":"6028272"},{"town":"亀屋町","koaza":"","lat":35.0249,"lng":135.742251,"zip":"6028062"},{"town":"烏丸町","koaza":"","lat":35.026562,"lng":135.741582,"zip":"6028332"},{"town":"川瀬町","koaza":"","lat":35.022237,"lng":135.735269,"zip":"6028369"},{"town":"歓喜寺前町","koaza":"","lat":35.03419,"lng":135.765269,"zip":"6020808"},{"town":"歓喜町","koaza":"","lat":35.034634,"lng":135.745798,"zip":"6028492"},{"town":"観三橘町","koaza":"","lat":35.027087,"lng":135.758889,"zip":"6020903"},{"town":"岩栖院町","koaza":"","lat":35.036751,"lng":135.756718,"zip":"6020008"},{"town":"観世町","koaza":"","lat":35.030452,"lng":135.748786,"zip":"6028441"},{"town":"観音寺門前町","koaza":"","lat":35.029304,"lng":135.734538,"zip":"6028385"},{"town":"勘兵衛町","koaza":"","lat":35.020673,"lng":135.754346,"zip":"6028047"},{"town":"菊屋町","koaza":"","lat":35.023073,"lng":135.751152,"zip":"6028076"},{"town":"北伊勢殿構町","koaza":"","lat":35.026568,"lng":135.742589,"zip":"6028296"},{"town":"北伊勢屋町","koaza":"","lat":35.018306,"lng":135.747784,"zip":"6028152"},{"town":"北猪熊町","koaza":"","lat":35.030614,"lng":135.750627,"zip":"6028432"},{"town":"北蟹屋町","koaza":"","lat":35.020965,"lng":135.749836,"zip":"6028115"},{"town":"北兼康町","koaza":"","lat":35.030212,"lng":135.754986,"zip":"6020044"},{"town":"北玄蕃町","koaza":"","lat":35.035192,"lng":135.74183,"zip":"6028308"},{"town":"北小路中之町","koaza":"","lat":35.029838,"lng":135.745381,"zip":"6028461"},{"town":"北小路室町","koaza":"","lat":35.028538,"lng":135.758,"zip":"6020901"},{"town":"北小大門町","koaza":"","lat":35.023244,"lng":135.749879,"zip":"6028252"},{"town":"北新在家町","koaza":"","lat":35.026599,"lng":135.74606,"zip":"6028207"},{"town":"北俵町","koaza":"","lat":35.024537,"lng":135.751195,"zip":"6028247"},{"town":"北仲之町","koaza":"","lat":35.036166,"lng":135.74888,"zip":"6020092"},{"town":"北之御門町","koaza":"","lat":35.028226,"lng":135.748897,"zip":"6028214"},{"town":"北之辺町","koaza":"","lat":35.025433,"lng":135.768293,"zip":"6020852"},{"town":"北舟橋町","koaza":"","lat":35.031009,"lng":135.751862,"zip":"6020056"},{"town":"北町","koaza":"","lat":35.032943,"lng":135.736151,"zip":"6028368"},{"town":"北横町","koaza":"","lat":35.03191,"lng":135.766168,"zip":"6020818"},{"town":"木下突抜町","koaza":"","lat":35.033252,"lng":135.757088,"zip":"6020027"},{"town":"木屋之町","koaza":"","lat":35.018037,"lng":135.750516,"zip":"6028146"},{"town":"九軒町","koaza":"","lat":35.025439,"lng":135.769112,"zip":"6020851"},{"town":"京都御苑","koaza":"","lat":35.023396,"lng":135.7632,"zip":"6020881"},{"town":"清元町","koaza":"","lat":35.021895,"lng":135.749073,"zip":"6028116"},{"town":"桐木町","koaza":"","lat":35.031819,"lng":135.742849,"zip":"6028476"},{"town":"錦砂町","koaza":"","lat":35.018364,"lng":135.768629,"zip":"6020876"},{"town":"金馬場町","koaza":"","lat":35.021393,"lng":135.747101,"zip":"6028173"},{"town":"櫛笥町","koaza":"","lat":35.019341,"lng":135.747769,"zip":"6028127"},{"town":"薬屋町","koaza":"","lat":35.025679,"lng":135.757985,"zip":"6020918"},{"town":"花開院町","koaza":"","lat":35.033446,"lng":135.748915,"zip":"6028406"},{"town":"継孝院町","koaza":"","lat":35.035982,"lng":135.756455,"zip":"6020002"},{"town":"玄蕃町","koaza":"","lat":35.036042,"lng":135.757404,"zip":"6020018"},{"town":"玄武町","koaza":"","lat":35.029292,"lng":135.760572,"zip":"6020893"},{"town":"幸在町","koaza":"","lat":35.032059,"lng":135.750019,"zip":"6028428"},{"town":"荒神町","koaza":"","lat":35.020706,"lng":135.75054,"zip":"6028114"},{"town":"高台院竪町","koaza":"","lat":35.024275,"lng":135.746062,"zip":"6028267"},{"town":"高台院町","koaza":"","lat":35.023566,"lng":135.745594,"zip":"6028271"},{"town":"革堂内町","koaza":"","lat":35.02928,"lng":135.767158,"zip":"6020835"},{"town":"革堂町","koaza":"","lat":35.028724,"lng":135.744379,"zip":"6020943"},{"town":"講堂町","koaza":"","lat":35.018702,"lng":135.751143,"zip":"6028132"},{"town":"革堂仲之町","koaza":"","lat":35.02746,"lng":135.753966,"zip":"6020945"},{"town":"革堂西町","koaza":"","lat":35.027515,"lng":135.753402,"zip":"6020959"},{"town":"革堂之内町","koaza":"","lat":35.026437,"lng":135.744749,"zip":"6028299"},{"town":"革堂前之町","koaza":"","lat":35.023075,"lng":135.742595,"zip":"6028275"},{"town":"高徳寺町","koaza":"","lat":35.036382,"lng":135.764344,"zip":"6020801"},{"town":"御三軒町","koaza":"","lat":35.032169,"lng":135.754113,"zip":"6020051"},{"town":"小島町","koaza":"","lat":35.026731,"lng":135.757945,"zip":"6020904"},{"town":"御所八幡町","koaza":"","lat":35.030924,"lng":135.759161,"zip":"6020023"},{"town":"五町目","koaza":"","lat":35.019204,"lng":135.752537,"zip":"6028043"},{"town":"五町目町","koaza":"","lat":35.019977,"lng":135.758749,"zip":"6028013"},{"town":"小寺町","koaza":"","lat":35.025751,"lng":135.75058,"zip":"6028234"},{"town":"小伝馬町","koaza":"","lat":35.018105,"lng":135.749742,"zip":"6028133"},{"town":"後藤町","koaza":"","lat":35.031662,"lng":135.770006,"zip":"6020821"},{"town":"近衛町","koaza":"","lat":35.020717,"lng":135.753427,"zip":"6028046"},{"town":"近衛殿表町","koaza":"","lat":35.031003,"lng":135.755736,"zip":"6020047"},{"town":"近衛殿北口町","koaza":"","lat":35.031183,"lng":135.754978,"zip":"6020045"},{"town":"五番町","koaza":"","lat":35.023936,"lng":135.741671,"zip":"6028342"},{"town":"駒之町","koaza":"","lat":35.017078,"lng":135.770477,"zip":"6020872"},{"town":"米屋町","koaza":"","lat":35.028789,"lng":135.768488,"zip":"6028034"},{"town":"小山町","koaza":"","lat":35.018924,"lng":135.742821,"zip":"6028157"},{"town":"御霊町","koaza":"","lat":35.021784,"lng":135.757229,"zip":"6028018"},{"town":"坤高町","koaza":"","lat":35.022712,"lng":135.745527,"zip":"6028179"},{"town":"西院町","koaza":"","lat":35.018827,"lng":135.746811,"zip":"6028151"},{"town":"皀莢町","koaza":"","lat":35.024132,"lng":135.751726,"zip":"6028242"},{"town":"西東町","koaza":"","lat":35.020084,"lng":135.737356,"zip":"6028354"},{"town":"幸神町","koaza":"","lat":35.030628,"lng":135.76683,"zip":"6020814"},{"town":"栄町","koaza":"","lat":35.027359,"lng":135.769068,"zip":"6020842"},{"town":"作庵町","koaza":"","lat":35.032624,"lng":135.741577,"zip":"6028304"},{"town":"桜井町","koaza":"","lat":35.030441,"lng":135.747145,"zip":"6028445"},{"town":"桜木町","koaza":"","lat":35.033588,"lng":135.764954,"zip":"6020805"},{"town":"笹屋四丁目","koaza":"","lat":35.028212,"lng":135.741662,"zip":"6028453"},{"town":"笹屋五丁目","koaza":"","lat":35.028046,"lng":135.740158,"zip":"6028453"},{"town":"笹屋町一丁目","koaza":"","lat":35.027847,"lng":135.746002,"zip":"6020000"},{"town":"笹屋町二丁目","koaza":"","lat":35.027604,"lng":135.744322,"zip":"6020000"},{"town":"笹屋町三丁目","koaza":"","lat":35.028153,"lng":135.743276,"zip":"6020000"},{"town":"佐竹町","koaza":"","lat":35.030309,"lng":135.740806,"zip":"6028314"},{"town":"左馬松町","koaza":"","lat":35.017153,"lng":135.748251,"zip":"6028145"},{"town":"三栄町","koaza":"","lat":35.030986,"lng":135.768636,"zip":"6020826"},{"town":"三軒町","koaza":"","lat":35.025605,"lng":135.740125,"zip":"6028341"},{"town":"讃州寺町","koaza":"","lat":35.025662,"lng":135.755382,"zip":"6020922"},{"town":"三条殿町","koaza":"","lat":35.026531,"lng":135.740867,"zip":"6028333"},{"town":"三助町","koaza":"","lat":35.022591,"lng":135.737391,"zip":"6028356"},{"town":"三町目","koaza":"","lat":35.018157,"lng":135.74838,"zip":"6028135"},{"town":"三丁町","koaza":"","lat":35.025042,"lng":135.755921,"zip":"6020915"},{"town":"山王町","koaza":"","lat":35.023189,"lng":135.743991,"zip":"6028274"},{"town":"三番町","koaza":"","lat":35.022055,"lng":135.738989,"zip":"6028358"},{"town":"慈眼庵町","koaza":"","lat":35.030874,"lng":135.74979,"zip":"6028436"},{"town":"七番町","koaza":"","lat":35.021774,"lng":135.740553,"zip":"6028359"},{"town":"実相院町","koaza":"","lat":35.030812,"lng":135.753239,"zip":"6020059"},{"town":"仕丁町","koaza":"","lat":35.024273,"lng":135.756505,"zip":"6028071"},{"town":"信濃町","koaza":"","lat":35.023834,"lng":135.743328,"zip":"6028277"},{"town":"芝大宮町","koaza":"","lat":35.031694,"lng":135.748752,"zip":"6028438"},{"town":"芝之町","koaza":"","lat":35.032871,"lng":135.75177,"zip":"6028412"},{"town":"芝薬師町","koaza":"","lat":35.032176,"lng":135.751236,"zip":"6028421"},{"town":"下石橋町","koaza":"","lat":35.026891,"lng":135.749096,"zip":"6028225"},{"town":"下石橋南半町","koaza":"","lat":35.026407,"lng":135.74909,"zip":"6028239"},{"town":"下小川町","koaza":"","lat":35.024231,"lng":135.754288,"zip":"6028075"},{"town":"下鏡石町","koaza":"","lat":35.025733,"lng":135.748411,"zip":"6028204"},{"town":"下木下町","koaza":"","lat":35.034532,"lng":135.757302,"zip":"6020019"},{"town":"下清蔵口町","koaza":"","lat":35.036819,"lng":135.754207,"zip":"6020007"},{"town":"下竪町","koaza":"","lat":35.024535,"lng":135.735677,"zip":"6028372"},{"town":"下天神町","koaza":"","lat":35.035557,"lng":135.750402,"zip":"6020074"},{"town":"下塔之段町","koaza":"","lat":35.029972,"lng":135.766523,"zip":"6020837"},{"town":"下之町","koaza":"","lat":35.019509,"lng":135.736132,"zip":"6028365"},{"town":"下堀川町","koaza":"","lat":35.016721,"lng":135.751698,"zip":"6028142"},{"town":"下丸屋町","koaza":"","lat":35.020149,"lng":135.745512,"zip":"6028176"},{"town":"下御輿町","koaza":"","lat":35.029856,"lng":135.767341,"zip":"6020839"},{"town":"下柳原北半町","koaza":"","lat":35.034594,"lng":135.758337,"zip":"6020014"},{"town":"下柳原南半町","koaza":"","lat":35.033968,"lng":135.758286,"zip":"6020015"},{"town":"下山里町","koaza":"","lat":35.023109,"lng":135.746609,"zip":"6028265"},{"town":"下横町","koaza":"","lat":35.024099,"lng":135.734337,"zip":"6028373"},{"town":"社家長屋町","koaza":"","lat":35.031231,"lng":135.736739,"zip":"6028395"},{"town":"十念寺前町","koaza":"","lat":35.032526,"lng":135.766513,"zip":"6020811"},{"town":"十四軒町","koaza":"","lat":35.020824,"lng":135.742762,"zip":"6028164"},{"town":"主計町","koaza":"","lat":35.025774,"lng":135.752211,"zip":"6028067"},{"town":"主税町","koaza":"","lat":35.016484,"lng":135.745056,"zip":"6028155"},{"town":"聚楽町","koaza":"","lat":35.01611,"lng":135.743138,"zip":"6028156"},{"town":"常泉院町","koaza":"","lat":35.020725,"lng":135.757214,"zip":"6028015"},{"town":"上善寺町","koaza":"","lat":35.030277,"lng":135.74245,"zip":"6028474"},{"town":"聖天町","koaza":"","lat":35.033042,"lng":135.746334,"zip":"6028481"},{"town":"紹巴町","koaza":"","lat":35.022602,"lng":135.752722,"zip":"6028057"},{"town":"白竹町","koaza":"","lat":35.023843,"lng":135.740044,"zip":"6028348"},{"town":"白銀町","koaza":"","lat":35.021979,"lng":135.745495,"zip":"6028178"},{"town":"新猪熊町","koaza":"","lat":35.034316,"lng":135.742315,"zip":"6028495"},{"town":"新猪熊東町","koaza":"","lat":35.034337,"lng":135.743782,"zip":"6028494"},{"town":"新夷町","koaza":"","lat":35.02717,"lng":135.768444,"zip":"6020843"},{"town":"新烏丸頭町","koaza":"","lat":35.019735,"lng":135.76855,"zip":"6020861"},{"town":"新北小路町","koaza":"","lat":35.029627,"lng":135.761697,"zip":"6020892"},{"town":"新御幸町","koaza":"","lat":35.022622,"lng":135.744533,"zip":"6028161"},{"town":"新御霊口町","koaza":"","lat":35.036554,"lng":135.763039,"zip":"6020897"},{"town":"真盛町","koaza":"","lat":35.030912,"lng":135.736784,"zip":"6028381"},{"town":"新建町","koaza":"","lat":35.026771,"lng":135.736404,"zip":"6028337"},{"town":"真町","koaza":"","lat":35.018583,"lng":135.770146,"zip":"6020866"},{"town":"新ン町","koaza":"","lat":35.037201,"lng":135.749845,"zip":"6020083"},{"town":"信富町","koaza":"","lat":35.017927,"lng":135.767812,"zip":"6020875"},{"town":"真如堂突抜町","koaza":"","lat":35.028497,"lng":135.767209,"zip":"6020833"},{"town":"真如堂前町","koaza":"","lat":35.028495,"lng":135.767659,"zip":"6020845"},{"town":"新白水丸町","koaza":"","lat":35.025401,"lng":135.747348,"zip":"6028205"},{"town":"新桝屋町","koaza":"","lat":35.024986,"lng":135.745508,"zip":"6028293"},{"town":"新美濃部町","koaza":"","lat":35.033495,"lng":135.748015,"zip":"6028409"},{"town":"神明町","koaza":"","lat":35.034295,"lng":135.735786,"zip":"6028391"},{"town":"新元町","koaza":"","lat":35.02494,"lng":135.748878,"zip":"6028257"},{"town":"新柳馬場頭町","koaza":"","lat":35.023581,"lng":135.744596,"zip":"6028279"},{"town":"瑞光院前町","koaza":"","lat":35.037641,"lng":135.751429,"zip":"6020081"},{"town":"末之口町","koaza":"","lat":35.028114,"lng":135.738809,"zip":"6028382"},{"town":"末広町","koaza":"","lat":35.031623,"lng":135.741197,"zip":"6028312"},{"town":"杉本町","koaza":"","lat":35.023487,"lng":135.750488,"zip":"6028246"},{"town":"杉若町","koaza":"","lat":35.031712,"lng":135.745303,"zip":"6028483"},{"town":"筋違橋町","koaza":"","lat":35.037308,"lng":135.748885,"zip":"6020091"},{"town":"硯屋町","koaza":"","lat":35.032366,"lng":135.747846,"zip":"6028439"},{"town":"須浜池町","koaza":"","lat":35.024255,"lng":135.747524,"zip":"6028262"},{"town":"須浜町","koaza":"","lat":35.02338,"lng":135.74695,"zip":"6028264"},{"town":"須浜東町","koaza":"","lat":35.023435,"lng":135.747875,"zip":"6028263"},{"town":"晴明町","koaza":"","lat":35.027095,"lng":135.751309,"zip":"6028222"},{"town":"青龍町","koaza":"","lat":35.031939,"lng":135.769526,"zip":"6020822"},{"town":"清和院町","koaza":"","lat":35.023178,"lng":135.758006,"zip":"6028003"},{"town":"禅昌院町","koaza":"","lat":35.035477,"lng":135.75347,"zip":"6020006"},{"town":"相国寺門前町","koaza":"","lat":35.032914,"lng":135.761781,"zip":"6020898"},{"town":"染殿町","koaza":"","lat":35.025535,"lng":135.767358,"zip":"6020844"},{"town":"大黒町","koaza":"","lat":35.019254,"lng":135.750504,"zip":"6028482"},{"town":"大黒屋町","koaza":"","lat":35.021912,"lng":135.753429,"zip":"6028055"},{"town":"大心院町","koaza":"","lat":35.035526,"lng":135.755683,"zip":"6020003"},{"town":"泰童片原町","koaza":"","lat":35.027358,"lng":135.742497,"zip":"6028455"},{"town":"泰童町","koaza":"","lat":35.02652,"lng":135.744283,"zip":"6028298"},{"town":"大文字町","koaza":"","lat":35.028911,"lng":135.740468,"zip":"6028323"},{"town":"大門町","koaza":"","lat":35.018174,"lng":135.758026,"zip":"6028024"},{"town":"高島町","koaza":"","lat":35.017667,"lng":135.768653,"zip":"6020878"},{"town":"鷹司町","koaza":"","lat":35.022726,"lng":135.758721,"zip":"6028052"},{"town":"滝ケ鼻町","koaza":"","lat":35.026887,"lng":135.738079,"zip":"6028336"},{"town":"竹園町","koaza":"","lat":35.036466,"lng":135.75793,"zip":"6020001"},{"town":"竹屋町","koaza":"","lat":35.032794,"lng":135.752196,"zip":"6020067"},{"town":"橘町","koaza":"","lat":35.027515,"lng":135.746757,"zip":"6028209"},{"town":"龍前町","koaza":"","lat":35.024813,"lng":135.759196,"zip":"6020912"},{"town":"竪亀屋町","koaza":"","lat":35.029325,"lng":135.745474,"zip":"6028462"},{"town":"竪神明町","koaza":"","lat":35.027558,"lng":135.750569,"zip":"6028228"},{"town":"竪富田町","koaza":"","lat":35.027249,"lng":135.752494,"zip":"6020955"},{"town":"竪門前町","koaza":"","lat":35.029086,"lng":135.751199,"zip":"6028216"},{"town":"竪社北半町","koaza":"","lat":35.036994,"lng":135.748084,"zip":"6020098"},{"town":"竪社南半町","koaza":"","lat":35.036244,"lng":135.748102,"zip":"6020099"},{"town":"田中町","koaza":"","lat":35.020268,"lng":135.743868,"zip":"6028163"},{"town":"田畑町","koaza":"","lat":35.035412,"lng":135.746739,"zip":"6028402"},{"town":"玉屋町","koaza":"","lat":35.02526,"lng":135.742577,"zip":"6028286"},{"town":"田丸町","koaza":"","lat":35.024976,"lng":135.743761,"zip":"6028288"},{"town":"田村備前町","koaza":"","lat":35.021295,"lng":135.745657,"zip":"6028177"},{"town":"多門町","koaza":"","lat":35.025064,"lng":135.746512,"zip":"6028261"},{"town":"俵屋町","koaza":"","lat":35.017737,"lng":135.769804,"zip":"6020871"},{"town":"弾正町","koaza":"","lat":35.026715,"lng":135.749837,"zip":"6028224"},{"town":"丹波屋町","koaza":"","lat":35.024984,"lng":135.743092,"zip":"6028287"},{"town":"智恵光院前之町","koaza":"","lat":35.026988,"lng":135.74644,"zip":"6028208"},{"town":"茶屋町","koaza":"","lat":35.021867,"lng":135.754243,"zip":"6028053"},{"town":"中書町","koaza":"","lat":35.018739,"lng":135.748311,"zip":"6028126"},{"town":"丁子風呂町","koaza":"","lat":35.021227,"lng":135.754295,"zip":"6028054"},{"town":"突抜町","koaza":"","lat":35.03026,"lng":135.740142,"zip":"6028315"},{"town":"築山北半町","koaza":"","lat":35.030175,"lng":135.758011,"zip":"6020038"},{"town":"築山南半町","koaza":"","lat":35.029457,"lng":135.757962,"zip":"6020034"},{"town":"土田町","koaza":"","lat":35.032348,"lng":135.750384,"zip":"6028427"},{"town":"土御門町","koaza":"","lat":35.023921,"lng":135.755811,"zip":"6028077"},{"town":"鶴山町","koaza":"","lat":35.033653,"lng":135.76685,"zip":"6020802"},{"town":"出水町","koaza":"","lat":35.019175,"lng":135.769591,"zip":"6020862"},{"town":"寺今町","koaza":"","lat":35.028428,"lng":135.750042,"zip":"6028215"},{"town":"寺之内竪町","koaza":"","lat":35.03441,"lng":135.751589,"zip":"6020073"},{"town":"天神北町","koaza":"","lat":35.037241,"lng":135.75084,"zip":"6020087"},{"town":"天秤町","koaza":"","lat":35.020762,"lng":135.74782,"zip":"6028105"},{"town":"天秤丸町","koaza":"","lat":35.022,"lng":135.746687,"zip":"6028172"},{"town":"天満屋町","koaza":"","lat":35.02092,"lng":135.736215,"zip":"6028355"},{"town":"藤五郎町","koaza":"","lat":35.023073,"lng":135.749367,"zip":"6028254"},{"town":"東西俵屋町","koaza":"","lat":35.02577,"lng":135.744252,"zip":"6028294"},{"town":"東西町","koaza":"","lat":35.034042,"lng":135.750762,"zip":"6028411"},{"town":"道正町","koaza":"","lat":35.034325,"lng":135.756059,"zip":"6020004"},{"town":"常盤井図子町","koaza":"","lat":35.028105,"lng":135.75529,"zip":"6020937"},{"town":"常盤井殿町","koaza":"","lat":35.029856,"lng":135.765398,"zip":"6020836"},{"town":"徳大寺殿町","koaza":"","lat":35.028419,"lng":135.756202,"zip":"6020932"},{"town":"徳屋町","koaza":"","lat":35.028005,"lng":135.751319,"zip":"6028213"},{"town":"百々町","koaza":"","lat":35.034084,"lng":135.752544,"zip":"6020072"},{"town":"富小路町","koaza":"","lat":35.028316,"lng":135.75138,"zip":"6028218"},{"town":"鳥居前町","koaza":"","lat":35.031562,"lng":135.73729,"zip":"6028393"},{"town":"内藤町","koaza":"","lat":35.033665,"lng":135.755696,"zip":"6020063"},{"town":"直家町","koaza":"","lat":35.018029,"lng":135.751187,"zip":"6028147"},{"town":"中猪熊町","koaza":"","lat":35.034069,"lng":135.745695,"zip":"6028493"},{"town":"中小川町","koaza":"","lat":35.030173,"lng":135.754262,"zip":"6020053"},{"town":"長尾町","koaza":"","lat":35.019273,"lng":135.751748,"zip":"6028131"},{"town":"中御霊図子町","koaza":"","lat":35.030839,"lng":135.756718,"zip":"6020041"},{"town":"仲御霊町","koaza":"","lat":35.024192,"lng":135.742532,"zip":"6028283"},{"town":"中御霊町","koaza":"","lat":35.023535,"lng":135.768471,"zip":"6020857"},{"town":"中務町","koaza":"","lat":35.018896,"lng":135.74502,"zip":"6028158"},{"town":"中出水町","koaza":"","lat":35.021324,"lng":135.75872,"zip":"6028012"},{"town":"長門町","koaza":"","lat":35.020408,"lng":135.737449,"zip":"6028353"},{"town":"仲之町","koaza":"","lat":35.028421,"lng":135.752963,"zip":"6020093"},{"town":"中之町","koaza":"","lat":35.018768,"lng":135.770912,"zip":"6028143"},{"town":"中橋詰町","koaza":"","lat":35.023228,"lng":135.754401,"zip":"6028051"},{"town":"中御門横町","koaza":"","lat":35.018694,"lng":135.749828,"zip":"6028136"},{"town":"中宮町","koaza":"","lat":35.029303,"lng":135.744489,"zip":"6028469"},{"town":"中村町","koaza":"","lat":35.020105,"lng":135.746986,"zip":"6028175"},{"town":"中社町","koaza":"","lat":35.035108,"lng":135.746981,"zip":"6028403"},{"town":"梨木町","koaza":"","lat":35.025553,"lng":135.749277,"zip":"6028237"},{"town":"納屋町","koaza":"","lat":35.03376,"lng":135.757406,"zip":"6020028"},{"town":"奈良物町","koaza":"","lat":35.023047,"lng":135.751716,"zip":"6028243"},{"town":"西石屋町","koaza":"","lat":35.031296,"lng":135.749323,"zip":"6028437"},{"town":"西五辻北町","koaza":"","lat":35.034183,"lng":135.741063,"zip":"6028306"},{"town":"西五辻東町","koaza":"","lat":35.031049,"lng":135.743365,"zip":"6028478"},{"town":"西今小路町","koaza":"","lat":35.028268,"lng":135.73684,"zip":"6028383"},{"town":"西今町","koaza":"","lat":35.029167,"lng":135.752508,"zip":"6020957"},{"town":"西今出川町","koaza":"","lat":35.026603,"lng":135.740216,"zip":"6028334"},{"town":"西裏辻町","koaza":"","lat":35.019328,"lng":135.753489,"zip":"6028042"},{"town":"西大路町","koaza":"","lat":35.019884,"lng":135.754272,"zip":"6020046"},{"town":"西上之町","koaza":"","lat":35.022997,"lng":135.735986,"zip":"6028361"},{"town":"西亀屋町","koaza":"","lat":35.029314,"lng":135.743313,"zip":"6028467"},{"town":"西川端町","koaza":"","lat":35.026503,"lng":135.753006,"zip":"6020954"},{"town":"西北小路町","koaza":"","lat":35.03316,"lng":135.749883,"zip":"6028414"},{"town":"西熊町","koaza":"","lat":35.034624,"lng":135.744539,"zip":"6028498"},{"town":"西上善寺町","koaza":"","lat":35.02964,"lng":135.740258,"zip":"6028326"},{"town":"西神明町","koaza":"","lat":35.021404,"lng":135.743537,"zip":"6028169"},{"town":"西千本町","koaza":"","lat":35.034575,"lng":135.746801,"zip":"6028404"},{"town":"西鷹司町","koaza":"","lat":35.022554,"lng":135.757266,"zip":"6028004"},{"town":"西辰巳町","koaza":"","lat":35.02264,"lng":135.747489,"zip":"6028107"},{"town":"西出水町","koaza":"","lat":35.021219,"lng":135.757242,"zip":"6028017"},{"town":"西天秤町","koaza":"","lat":35.02144,"lng":135.747957,"zip":"6028109"},{"town":"西富仲町","koaza":"","lat":35.024242,"lng":135.743734,"zip":"6028282"},{"town":"西中筋町","koaza":"","lat":35.025756,"lng":135.741672,"zip":"6028285"},{"town":"西之口町","koaza":"","lat":35.026309,"lng":135.754757,"zip":"6020925"},{"town":"西橋詰町","koaza":"","lat":35.020025,"lng":135.751279,"zip":"6028138"},{"town":"西日野殿町","koaza":"","lat":35.026269,"lng":135.756751,"zip":"6020916"},{"town":"西船橋町","koaza":"","lat":35.029767,"lng":135.751267,"zip":"6028434"},{"town":"西町","koaza":"","lat":35.028575,"lng":135.75265,"zip":"6028371"},{"town":"西丸太町","koaza":"","lat":35.017414,"lng":135.751234,"zip":"6028148"},{"town":"西無車小路町","koaza":"","lat":35.027691,"lng":135.755325,"zip":"6020936"},{"town":"西社町","koaza":"","lat":35.035299,"lng":135.745693,"zip":"6028491"},{"town":"西柳町","koaza":"","lat":35.031006,"lng":135.737732,"zip":"6028394"},{"town":"西山崎町","koaza":"","lat":35.018563,"lng":135.752549,"zip":"6028036"},{"town":"西芦山寺町","koaza":"","lat":35.035215,"lng":135.742831,"zip":"6028301"},{"town":"西若宮北半町","koaza":"","lat":35.038414,"lng":135.748106,"zip":"6020097"},{"town":"西若宮南半町","koaza":"","lat":35.037605,"lng":135.748099,"zip":"6020096"},{"town":"二神町","koaza":"","lat":35.030325,"lng":135.768998,"zip":"6020828"},{"town":"二町目","koaza":"","lat":35.019347,"lng":135.748356,"zip":"6028128"},{"town":"二番町","koaza":"","lat":35.023855,"lng":135.738715,"zip":"6028344"},{"town":"二本松町","koaza":"","lat":35.022514,"lng":135.743487,"zip":"6028167"},{"town":"如水町","koaza":"","lat":35.0264,"lng":135.750553,"zip":"6028231"},{"town":"秤口町","koaza":"","lat":35.022042,"lng":135.747439,"zip":"6028106"},{"town":"馬喰町","koaza":"","lat":35.03354,"lng":135.735457,"zip":"6028386"},{"town":"橋詰町","koaza":"","lat":35.02833,"lng":135.752037,"zip":"6028212"},{"town":"橋西二町目","koaza":"","lat":35.020002,"lng":135.749801,"zip":"6028123"},{"town":"橋之上町","koaza":"","lat":35.029601,"lng":135.752152,"zip":"6028433"},{"town":"橋本町","koaza":"","lat":35.023327,"lng":135.752805,"zip":"6028063"},{"town":"長谷町","koaza":"","lat":35.023098,"lng":135.744908,"zip":"6028273"},{"town":"畠山町","koaza":"","lat":35.029988,"lng":135.757102,"zip":"6020035"},{"town":"畠中町","koaza":"","lat":35.034989,"lng":135.756348,"zip":"6020016"},{"town":"花車町","koaza":"","lat":35.033463,"lng":135.741668,"zip":"6028305"},{"town":"花立町","koaza":"","lat":35.02441,"lng":135.757972,"zip":"6020914"},{"town":"針屋町","koaza":"","lat":35.02912,"lng":135.754202,"zip":"6020948"},{"town":"春帯町","koaza":"","lat":35.018688,"lng":135.756647,"zip":"6028026"},{"town":"般舟院前町","koaza":"","lat":35.030153,"lng":135.743409,"zip":"6028473"},{"town":"東石橋町","koaza":"","lat":35.025828,"lng":135.742675,"zip":"6028295"},{"town":"東石屋町","koaza":"","lat":35.031402,"lng":135.749948,"zip":"6028431"},{"town":"東今小路町","koaza":"","lat":35.028536,"lng":135.737778,"zip":"6028387"},{"town":"東今町","koaza":"","lat":35.029203,"lng":135.753404,"zip":"6020951"},{"town":"東魚屋町","koaza":"","lat":35.01864,"lng":135.754327,"zip":"6028038"},{"town":"東裏辻町","koaza":"","lat":35.019039,"lng":135.755508,"zip":"6028031"},{"town":"東桜町","koaza":"","lat":35.022331,"lng":135.76917,"zip":"6020858"},{"town":"東上善寺町","koaza":"","lat":35.029883,"lng":135.744506,"zip":"6028468"},{"town":"東神明町","koaza":"","lat":35.021327,"lng":135.744325,"zip":"6028162"},{"town":"東千本町","koaza":"","lat":35.03455,"lng":135.747853,"zip":"6028416"},{"town":"東立売町","koaza":"","lat":35.019928,"lng":135.757086,"zip":"6028027"},{"town":"東辰巳町","koaza":"","lat":35.022529,"lng":135.748568,"zip":"6028101"},{"town":"東竪町","koaza":"","lat":35.025729,"lng":135.736213,"zip":"6028377"},{"town":"東長者町","koaza":"","lat":35.023127,"lng":135.757215,"zip":"6028007"},{"town":"東土御門町","koaza":"","lat":35.016988,"lng":135.768521,"zip":"6020874"},{"town":"東天秤町","koaza":"","lat":35.021292,"lng":135.748583,"zip":"6028102"},{"town":"東橋詰町","koaza":"","lat":35.025012,"lng":135.752566,"zip":"6028044"},{"town":"東日野殿町","koaza":"","lat":35.026056,"lng":135.757344,"zip":"6020917"},{"town":"東堀町","koaza":"","lat":35.023074,"lng":135.748696,"zip":"6028255"},{"town":"東町","koaza":"","lat":35.028568,"lng":135.753773,"zip":"6020913"},{"town":"東社町","koaza":"","lat":35.035116,"lng":135.747972,"zip":"6028417"},{"town":"東柳町","koaza":"","lat":35.031033,"lng":135.739004,"zip":"6028317"},{"town":"東若宮町","koaza":"","lat":35.03822,"lng":135.749845,"zip":"6020086"},{"town":"挽木町","koaza":"","lat":35.032874,"lng":135.754465,"zip":"6020065"},{"town":"庇町","koaza":"","lat":35.025606,"lng":135.749511,"zip":"6028236"},{"town":"菱丸町","koaza":"","lat":35.024271,"lng":135.745068,"zip":"6028266"},{"town":"菱屋町","koaza":"","lat":35.02929,"lng":135.746254,"zip":"6028125"},{"town":"毘沙門町","koaza":"","lat":35.02761,"lng":135.74985,"zip":"6028227"},{"town":"毘沙門横町","koaza":"","lat":35.032434,"lng":135.765957,"zip":"6020817"},{"town":"常陸町","koaza":"","lat":35.024259,"lng":135.74931,"zip":"6028259"},{"town":"飛弾殿町","koaza":"","lat":35.025682,"lng":135.749906,"zip":"6028235"},{"town":"樋之口町","koaza":"","lat":35.032591,"lng":135.74878,"zip":"6028425"},{"town":"百万遍町","koaza":"","lat":35.023815,"lng":135.74254,"zip":"6028276"},{"town":"瓢箪図子町","koaza":"","lat":35.031226,"lng":135.757284,"zip":"6020037"},{"town":"広橋殿町","koaza":"","lat":35.026273,"lng":135.758615,"zip":"6020911"},{"town":"武衛陣町","koaza":"","lat":35.019348,"lng":135.758093,"zip":"6028029"},{"town":"福島町","koaza":"","lat":35.022222,"lng":135.742131,"zip":"6028166"},{"town":"福大明神町","koaza":"","lat":35.025836,"lng":135.75128,"zip":"6028233"},{"town":"福長町","koaza":"","lat":35.027469,"lng":135.75795,"zip":"6020907"},{"town":"福本町","koaza":"","lat":35.02683,"lng":135.74529,"zip":"6028291"},{"town":"袋町","koaza":"","lat":35.018789,"lng":135.769758,"zip":"6020868"},{"town":"藤木町","koaza":"","lat":35.031429,"lng":135.750634,"zip":"6028423"},{"town":"不動前町","koaza":"","lat":35.035103,"lng":135.764548,"zip":"6020807"},{"town":"古木町","koaza":"","lat":35.03351,"lng":135.756299,"zip":"6020026"},{"town":"古美濃部町","koaza":"","lat":35.033494,"lng":135.74705,"zip":"6028408"},{"town":"風呂屋町","koaza":"","lat":35.030781,"lng":135.741609,"zip":"6028313"},{"town":"分銅町","koaza":"","lat":35.020712,"lng":135.746412,"zip":"6028174"},{"town":"弁財天町","koaza":"","lat":35.029139,"lng":135.755504,"zip":"6020939"},{"town":"弁天町","koaza":"","lat":35.022089,"lng":135.744085,"zip":"6028168"},{"town":"宝鏡院東町","koaza":"","lat":35.033745,"lng":135.753593,"zip":"6020062"},{"town":"鳳瑞町","koaza":"","lat":35.022939,"lng":135.738407,"zip":"6028357"},{"town":"木瓜原町","koaza":"","lat":35.035532,"lng":135.743468,"zip":"6028496"},{"town":"牡丹鉾町","koaza":"","lat":35.031707,"lng":135.742025,"zip":"6028475"},{"town":"堀川上之町","koaza":"","lat":35.027254,"lng":135.751853,"zip":"6028221"},{"town":"堀川下之町","koaza":"","lat":35.025816,"lng":135.751782,"zip":"6028232"},{"town":"堀川町","koaza":"","lat":35.021228,"lng":135.733689,"zip":"6028367"},{"town":"堀出シ町","koaza":"","lat":35.029144,"lng":135.756865,"zip":"6020931"},{"town":"堀之上町","koaza":"","lat":35.031947,"lng":135.752745,"zip":"6020057"},{"town":"堀松町","koaza":"","lat":35.019423,"lng":135.759142,"zip":"6028021"},{"town":"本法寺前町","koaza":"","lat":35.034939,"lng":135.752912,"zip":"6020061"},{"town":"本満寺前町","koaza":"","lat":35.031663,"lng":135.767255,"zip":"6020812"},{"town":"前之町","koaza":"","lat":35.034523,"lng":135.748889,"zip":"6028415"},{"town":"蒔鳥屋町","koaza":"","lat":35.030669,"lng":135.757412,"zip":"6020036"},{"town":"真倉町","koaza":"","lat":35.033241,"lng":135.744777,"zip":"6028488"},{"town":"桝屋町","koaza":"","lat":35.018101,"lng":135.769159,"zip":"6020877"},{"town":"松蔭町","koaza":"","lat":35.019725,"lng":135.767664,"zip":"6020867"},{"town":"松永町","koaza":"","lat":35.027137,"lng":135.736566,"zip":"6028338"},{"town":"松之木町","koaza":"","lat":35.031247,"lng":135.76662,"zip":"6020819"},{"town":"松之下町","koaza":"","lat":35.025835,"lng":135.752771,"zip":"6028068"},{"town":"松屋町","koaza":"","lat":35.028847,"lng":135.742015,"zip":"6028465"},{"town":"丸屋町","koaza":"","lat":35.019367,"lng":135.751085,"zip":"6028139"},{"town":"曼陀羅町","koaza":"","lat":35.032657,"lng":135.749848,"zip":"6028426"},{"town":"水落町","koaza":"","lat":35.03152,"lng":135.753425,"zip":"6020058"},{"town":"溝前町","koaza":"","lat":35.031597,"lng":135.740075,"zip":"6028319"},{"town":"南伊勢屋町","koaza":"","lat":35.017404,"lng":135.747689,"zip":"6028153"},{"town":"南蟹屋町","koaza":"","lat":35.020521,"lng":135.749816,"zip":"6028122"},{"town":"南兼康町","koaza":"","lat":35.029437,"lng":135.754881,"zip":"6020941"},{"town":"南小大門町","koaza":"","lat":35.022783,"lng":135.749881,"zip":"6028253"},{"town":"南佐竹町","koaza":"","lat":35.029216,"lng":135.741309,"zip":"6028327"},{"town":"南清水町","koaza":"","lat":35.021976,"lng":135.748293,"zip":"6028108"},{"town":"南上善寺町","koaza":"","lat":35.029824,"lng":135.741726,"zip":"6028321"},{"town":"南新在家町","koaza":"","lat":35.026266,"lng":135.745964,"zip":"6028206"},{"town":"南俵町","koaza":"","lat":35.02398,"lng":135.751157,"zip":"6028248"},{"town":"南町","koaza":"","lat":35.01818,"lng":135.770909,"zip":"6020865"},{"town":"南辻町","koaza":"","lat":35.029313,"lng":135.742491,"zip":"6028466"},{"town":"南舟橋町","koaza":"","lat":35.030146,"lng":135.751752,"zip":"6020055"},{"town":"南門前町","koaza":"","lat":35.028551,"lng":135.751075,"zip":"6028217"},{"town":"宮垣町","koaza":"","lat":35.021719,"lng":135.768927,"zip":"6020853"},{"town":"妙顕寺前町","koaza":"","lat":35.034663,"lng":135.75466,"zip":"6020005"},{"town":"妙蓮寺前町","koaza":"","lat":35.034328,"lng":135.749944,"zip":"6028418"},{"town":"三芳町","koaza":"","lat":35.029707,"lng":135.769127,"zip":"6020823"},{"town":"武者小路町","koaza":"","lat":35.027894,"lng":135.756827,"zip":"6020933"},{"town":"村雲町","koaza":"","lat":35.028831,"lng":135.752248,"zip":"6028211"},{"town":"室町頭町","koaza":"","lat":35.032844,"lng":135.757979,"zip":"6020029"},{"town":"元伊佐町","koaza":"","lat":35.029861,"lng":135.749767,"zip":"6028435"},{"town":"元観音町","koaza":"","lat":35.029009,"lng":135.739649,"zip":"6028324"},{"town":"元北小路町","koaza":"","lat":35.029853,"lng":135.747823,"zip":"6028448"},{"town":"元浄花院町","koaza":"","lat":35.023706,"lng":135.758699,"zip":"6028001"},{"town":"元新在家町","koaza":"","lat":35.029968,"lng":135.756142,"zip":"6020042"},{"town":"元真如堂町","koaza":"","lat":35.026288,"lng":135.755738,"zip":"6020926"},{"town":"元図子町","koaza":"","lat":35.028573,"lng":135.755104,"zip":"6020938"},{"town":"元頂妙寺町","koaza":"","lat":35.023077,"lng":135.756703,"zip":"6028005"},{"town":"元土御門町","koaza":"","lat":35.02391,"lng":135.757295,"zip":"6028006"},{"town":"元中之町","koaza":"","lat":35.028662,"lng":135.746301,"zip":"6028452"},{"town":"元百万遍町","koaza":"","lat":35.026694,"lng":135.753542,"zip":"6020953"},{"town":"元福大明神町","koaza":"","lat":35.020738,"lng":135.751186,"zip":"6028113"},{"town":"元本満寺町","koaza":"","lat":35.029998,"lng":135.755514,"zip":"6020043"},{"town":"元妙蓮寺町","koaza":"","lat":35.028639,"lng":135.747757,"zip":"6028443"},{"town":"元四丁目","koaza":"","lat":35.028771,"lng":135.743292,"zip":"6028454"},{"town":"森中町","koaza":"","lat":35.019362,"lng":135.749778,"zip":"6028124"},{"town":"森之木町","koaza":"","lat":35.037181,"lng":135.758079,"zip":"6020011"},{"town":"門跡町","koaza":"","lat":35.019112,"lng":135.757207,"zip":"6028028"},{"town":"紋屋町","koaza":"","lat":35.031804,"lng":135.746895,"zip":"6028447"},{"town":"薬師町","koaza":"","lat":35.029163,"lng":135.749047,"zip":"6028442"},{"town":"薬師前町","koaza":"","lat":35.035599,"lng":135.747381,"zip":"6028401"},{"town":"役人町","koaza":"","lat":35.024988,"lng":135.750919,"zip":"6028241"},{"town":"社突抜町","koaza":"","lat":35.036596,"lng":135.747482,"zip":"6020095"},{"town":"社横町","koaza":"","lat":35.03582,"lng":135.747999,"zip":"6020094"},{"town":"柳図子町","koaza":"","lat":35.032917,"lng":135.75885,"zip":"6020021"},{"town":"柳風呂町","koaza":"","lat":35.029856,"lng":135.766909,"zip":"6020838"},{"town":"八幡町","koaza":"","lat":35.019279,"lng":135.754216,"zip":"6028037"},{"town":"藪之内町","koaza":"","lat":35.02141,"lng":135.755632,"zip":"6028041"},{"town":"藪之下町","koaza":"","lat":35.033559,"lng":135.764348,"zip":"6020806"},{"town":"山里町","koaza":"","lat":35.024244,"lng":135.746817,"zip":"6028268"},{"town":"山名町","koaza":"","lat":35.031501,"lng":135.751346,"zip":"6028422"},{"town":"山本町","koaza":"","lat":35.022578,"lng":135.7464,"zip":"6028171"},{"town":"行衛町","koaza":"","lat":35.020204,"lng":135.733998,"zip":"6028366"},{"town":"養安町","koaza":"","lat":35.01884,"lng":135.758883,"zip":"6028022"},{"town":"横大宮町","koaza":"","lat":35.029259,"lng":135.747585,"zip":"6028449"},{"town":"横神明町","koaza":"","lat":35.026959,"lng":135.750686,"zip":"6028223"},{"town":"吉野町","koaza":"","lat":35.021897,"lng":135.74983,"zip":"6028117"},{"town":"四町目","koaza":"","lat":35.016471,"lng":135.747541,"zip":"6028112"},{"town":"四番町","koaza":"","lat":35.024224,"lng":135.740667,"zip":"6028347"},{"town":"利生町","koaza":"","lat":35.022777,"lng":135.740361,"zip":"6028343"},{"town":"立本寺前町","koaza":"","lat":35.030309,"lng":135.767713,"zip":"6020831"},{"town":"両御霊町","koaza":"","lat":35.021047,"lng":135.756646,"zip":"6028016"},{"town":"六町目","koaza":"","lat":35.018133,"lng":135.752307,"zip":"6028035"},{"town":"六番町","koaza":"","lat":35.022535,"lng":135.741548,"zip":"6028351"},{"town":"若松町","koaza":"","lat":35.027376,"lng":135.74098,"zip":"6028331"},{"town":"若宮竪町","koaza":"","lat":35.038439,"lng":135.748952,"zip":"6020085"},{"town":"若宮横町","koaza":"","lat":35.039064,"lng":135.748719,"zip":"6020084"},{"town":"和水町","koaza":"","lat":35.024168,"lng":135.748835,"zip":"6028258"},{"town":"藁屋町","koaza":"","lat":35.016867,"lng":135.749442,"zip":"6028144"},{"town":"姥ケ西町","koaza":"","lat":35.032742,"lng":135.742676,"zip":"6028486"}]