[{"town":"戒光寺町","koaza":"","lat":34.984746,"lng":135.7507,"zip":"6018406"},{"town":"上鳥羽麻ノ本","koaza":"","lat":34.956584,"lng":135.745738,"zip":"6018143"},{"town":"上鳥羽石橋町","koaza":"","lat":34.959768,"lng":135.745807,"zip":"6018135"},{"town":"上鳥羽岩ノ本町","koaza":"","lat":34.959975,"lng":135.743685,"zip":"6018136"},{"town":"上鳥羽卯ノ花","koaza":"","lat":34.960806,"lng":135.749092,"zip":"6018141"},{"town":"上鳥羽馬廻","koaza":"","lat":34.962454,"lng":135.73632,"zip":"6018177"},{"town":"上鳥羽大溝","koaza":"","lat":34.961841,"lng":135.746687,"zip":"6018134"},{"town":"上鳥羽大柳町","koaza":"","lat":34.968234,"lng":135.747396,"zip":"6018128"},{"town":"上鳥羽戒光","koaza":"","lat":34.964326,"lng":135.736903,"zip":"6018178"},{"town":"上鳥羽戒光町","koaza":"","lat":34.965323,"lng":135.739444,"zip":"6018185"},{"town":"上鳥羽金仏","koaza":"","lat":34.959861,"lng":135.737592,"zip":"6018175"},{"town":"上鳥羽上調子町","koaza":"","lat":34.970362,"lng":135.744446,"zip":"6018105"},{"town":"上鳥羽鴨田","koaza":"","lat":34.963457,"lng":135.746136,"zip":"6018131"},{"town":"上鳥羽唐戸町","koaza":"","lat":34.973871,"lng":135.741944,"zip":"6018108"},{"town":"上鳥羽川端町","koaza":"","lat":34.963236,"lng":135.740552,"zip":"6018171"},{"town":"上鳥羽勧進橋町","koaza":"","lat":34.969793,"lng":135.760164,"zip":"6018112"},{"town":"上鳥羽北戒光町","koaza":"","lat":34.966553,"lng":135.739292,"zip":"6018186"},{"town":"上鳥羽北島田町","koaza":"","lat":34.966567,"lng":135.744202,"zip":"6018182"},{"town":"上鳥羽北塔ノ本町","koaza":"","lat":34.966431,"lng":135.750635,"zip":"6018122"},{"town":"上鳥羽北中ノ坪町","koaza":"","lat":34.969899,"lng":135.741354,"zip":"6018106"},{"town":"上鳥羽北花名町","koaza":"","lat":34.966432,"lng":135.747278,"zip":"6018127"},{"town":"上鳥羽北村山町","koaza":"","lat":34.966744,"lng":135.741487,"zip":"6018187"},{"town":"上鳥羽清井町","koaza":"","lat":34.959763,"lng":135.739576,"zip":"6018174"},{"town":"上鳥羽尻切町","koaza":"","lat":34.969247,"lng":135.752735,"zip":"6018115"},{"town":"上鳥羽城ケ前町","koaza":"","lat":34.963598,"lng":135.743683,"zip":"6018137"},{"town":"上鳥羽菅田町","koaza":"","lat":34.972273,"lng":135.747314,"zip":"6018102"},{"town":"上鳥羽大物町","koaza":"","lat":34.968206,"lng":135.750514,"zip":"6018121"},{"town":"上鳥羽高畠町","koaza":"","lat":34.972326,"lng":135.744575,"zip":"6018101"},{"town":"上鳥羽町田","koaza":"","lat":34.963529,"lng":135.748474,"zip":"6018132"},{"town":"上鳥羽角田町","koaza":"","lat":34.970259,"lng":135.747462,"zip":"6018104"},{"town":"上鳥羽塔ノ本","koaza":"","lat":34.964409,"lng":135.750658,"zip":"6018124"},{"town":"上鳥羽塔ノ森梅ノ木","koaza":"","lat":34.958636,"lng":135.736381,"zip":"6018161"},{"town":"上鳥羽塔ノ森江川町","koaza":"","lat":34.953184,"lng":135.737939,"zip":"6018163"},{"town":"上鳥羽塔ノ森上河原","koaza":"","lat":34.948892,"lng":135.737923,"zip":"6018155"},{"town":"上鳥羽塔ノ森上開ノ内","koaza":"","lat":34.958779,"lng":135.733801,"zip":"6018167"},{"town":"上鳥羽塔ノ森柴東町","koaza":"","lat":34.956689,"lng":135.73846,"zip":"6018162"},{"town":"上鳥羽塔ノ森下河原","koaza":"","lat":34.944288,"lng":135.739237,"zip":"6018153"},{"town":"上鳥羽塔ノ森下開ノ内","koaza":"","lat":34.955974,"lng":135.734326,"zip":"6018166"},{"town":"上鳥羽塔ノ森洲崎町","koaza":"","lat":34.947847,"lng":135.740184,"zip":"6018152"},{"town":"上鳥羽塔ノ森西河原町","koaza":"","lat":34.952646,"lng":135.735537,"zip":"6018165"},{"town":"上鳥羽塔ノ森東向町","koaza":"","lat":34.953331,"lng":135.740504,"zip":"6018151"},{"town":"上鳥羽塔ノ森柳原","koaza":"","lat":34.948013,"lng":135.735869,"zip":"6018154"},{"town":"上鳥羽塔ノ森四ツ谷町","koaza":"","lat":34.951845,"lng":135.736769,"zip":"6018164"},{"town":"上鳥羽中河原","koaza":"","lat":34.958252,"lng":135.746956,"zip":"6018142"},{"town":"上鳥羽奈須野町","koaza":"","lat":34.955669,"lng":135.743323,"zip":"6018146"},{"town":"上鳥羽鍋ケ淵町","koaza":"","lat":34.962103,"lng":135.741749,"zip":"6010000"},{"town":"上鳥羽苗代町","koaza":"","lat":34.970104,"lng":135.757898,"zip":"6018111"},{"town":"上鳥羽西浦町","koaza":"","lat":34.956085,"lng":135.740816,"zip":"6018145"},{"town":"上鳥羽八王神町","koaza":"","lat":34.958886,"lng":135.741582,"zip":"6018173"},{"town":"上鳥羽花名","koaza":"","lat":34.964515,"lng":135.74602,"zip":"6018125"},{"town":"上鳥羽火打形町","koaza":"","lat":34.957916,"lng":135.748607,"zip":"6018144"},{"town":"上鳥羽仏現寺町","koaza":"","lat":34.970181,"lng":135.750559,"zip":"6018103"},{"town":"上鳥羽鉾立町","koaza":"","lat":34.970119,"lng":135.755151,"zip":"6018116"},{"town":"上鳥羽堀子町","koaza":"","lat":34.968462,"lng":135.744226,"zip":"6018181"},{"town":"上鳥羽南唐戸町","koaza":"","lat":34.971802,"lng":135.742074,"zip":"6018107"},{"town":"上鳥羽南島田町","koaza":"","lat":34.965001,"lng":135.743745,"zip":"6018183"},{"town":"上鳥羽南塔ノ本町","koaza":"","lat":34.96515,"lng":135.750561,"zip":"6018123"},{"town":"上鳥羽南中ノ坪町","koaza":"","lat":34.968395,"lng":135.741123,"zip":"6018188"},{"town":"上鳥羽南苗代町","koaza":"","lat":34.968157,"lng":135.758147,"zip":"6018113"},{"town":"上鳥羽南花名町","koaza":"","lat":34.965062,"lng":135.747288,"zip":"6018126"},{"town":"上鳥羽南鉾立町","koaza":"","lat":34.968144,"lng":135.7551,"zip":"6018114"},{"town":"上鳥羽南村山町","koaza":"","lat":34.964701,"lng":135.742227,"zip":"6018184"},{"town":"上鳥羽山ノ本町","koaza":"","lat":34.96296,"lng":135.738774,"zip":"6018176"},{"town":"上鳥羽藁田","koaza":"","lat":34.963411,"lng":135.75052,"zip":"6018133"},{"town":"唐橋赤金町","koaza":"","lat":34.982857,"lng":135.741641,"zip":"6018463"},{"town":"唐橋芦辺町","koaza":"","lat":34.975181,"lng":135.741334,"zip":"6018455"},{"town":"唐橋井園町","koaza":"","lat":34.982638,"lng":135.740147,"zip":"6018462"},{"town":"唐橋大宮尻町","koaza":"","lat":34.979613,"lng":135.734722,"zip":"6018467"},{"town":"唐橋門脇町","koaza":"","lat":34.982359,"lng":135.737834,"zip":"6018461"},{"town":"唐橋川久保町","koaza":"","lat":34.97856,"lng":135.736109,"zip":"6018451"},{"town":"唐橋経田町","koaza":"","lat":34.976954,"lng":135.741686,"zip":"6018454"},{"town":"唐橋西寺町","koaza":"","lat":34.980587,"lng":135.737537,"zip":"6018466"},{"town":"唐橋高田町","koaza":"","lat":34.980615,"lng":135.741948,"zip":"6018464"},{"town":"唐橋堂ノ前町","koaza":"","lat":34.978614,"lng":135.738387,"zip":"6018452"},{"town":"唐橋西平垣町","koaza":"","lat":34.980419,"lng":135.732189,"zip":"6018468"},{"town":"唐橋花園町","koaza":"","lat":34.980605,"lng":135.739912,"zip":"6018465"},{"town":"唐橋平垣町","koaza":"","lat":34.98138,"lng":135.735084,"zip":"6018469"},{"town":"唐橋琵琶町","koaza":"","lat":34.977065,"lng":135.73955,"zip":"6018457"},{"town":"唐橋南琵琶町","koaza":"","lat":34.975266,"lng":135.739187,"zip":"6018456"},{"town":"唐橋羅城門町","koaza":"","lat":34.97873,"lng":135.741037,"zip":"6018453"},{"town":"吉祥院池田町","koaza":"","lat":34.967056,"lng":135.735157,"zip":"6018349"},{"town":"吉祥院池田南町","koaza":"","lat":34.965395,"lng":135.735112,"zip":"6018346"},{"town":"吉祥院池ノ内町","koaza":"","lat":34.974134,"lng":135.727981,"zip":"6018316"},{"town":"吉祥院石原上川原町","koaza":"","lat":34.968546,"lng":135.725575,"zip":"6018382"},{"town":"吉祥院石原京道町","koaza":"","lat":34.965578,"lng":135.728298,"zip":"6018356"},{"town":"吉祥院石原町","koaza":"","lat":34.964182,"lng":135.729507,"zip":"6018367"},{"town":"吉祥院石原堂ノ後町","koaza":"","lat":34.967232,"lng":135.729204,"zip":"6018355"},{"town":"吉祥院石原堂ノ後西町","koaza":"","lat":34.967253,"lng":135.727354,"zip":"6018357"},{"town":"吉祥院石原長田町","koaza":"","lat":34.967104,"lng":135.725374,"zip":"6018383"},{"town":"吉祥院石原西ノ開町","koaza":"","lat":34.966205,"lng":135.722941,"zip":"6018388"},{"town":"吉祥院石原西町","koaza":"","lat":34.963715,"lng":135.727226,"zip":"6018366"},{"town":"吉祥院石原野上町","koaza":"","lat":34.965586,"lng":135.725539,"zip":"6018384"},{"town":"吉祥院石原橋裏","koaza":"","lat":34.964499,"lng":135.723185,"zip":"6018387"},{"town":"吉祥院石原橋上","koaza":"","lat":34.968009,"lng":135.723093,"zip":"6018389"},{"town":"吉祥院石原東之口","koaza":"","lat":34.963519,"lng":135.731885,"zip":"6018361"},{"town":"吉祥院石原開町","koaza":"","lat":34.963659,"lng":135.725587,"zip":"6018365"},{"town":"吉祥院石原南町","koaza":"","lat":34.96244,"lng":135.729631,"zip":"6018364"},{"town":"吉祥院石原葭縁","koaza":"","lat":34.963516,"lng":135.724637,"zip":"6018385"},{"town":"吉祥院石原割畑","koaza":"","lat":34.962721,"lng":135.724345,"zip":"6018386"},{"town":"吉祥院稲葉町","koaza":"","lat":34.969,"lng":135.739124,"zip":"6018343"},{"town":"吉祥院井ノ口町","koaza":"","lat":34.976658,"lng":135.731917,"zip":"6018314"},{"town":"吉祥院内河原町","koaza":"","lat":34.981475,"lng":135.720488,"zip":"6018392"},{"town":"吉祥院御池町","koaza":"","lat":34.975327,"lng":135.734794,"zip":"6018327"},{"town":"吉祥院大河原町","koaza":"","lat":34.983034,"lng":135.719878,"zip":"6018391"},{"town":"吉祥院落合町","koaza":"","lat":34.973655,"lng":135.737186,"zip":"6018324"},{"town":"吉祥院春日町","koaza":"","lat":34.975089,"lng":135.737186,"zip":"6018323"},{"town":"吉祥院観音堂町","koaza":"","lat":34.967381,"lng":135.732296,"zip":"6018348"},{"town":"吉祥院観音堂南町","koaza":"","lat":34.965493,"lng":135.732098,"zip":"6018347"},{"town":"吉祥院九条町","koaza":"","lat":34.977586,"lng":135.733202,"zip":"6018328"},{"town":"吉祥院車道町","koaza":"","lat":34.975561,"lng":135.730332,"zip":"6018315"},{"town":"吉祥院定成町","koaza":"","lat":34.976934,"lng":135.73723,"zip":"6018322"},{"town":"吉祥院里ノ内町","koaza":"","lat":34.973494,"lng":135.732825,"zip":"6018339"},{"town":"吉祥院三ノ宮町","koaza":"","lat":34.97737,"lng":135.728624,"zip":"6018319"},{"town":"吉祥院三ノ宮西町","koaza":"","lat":34.976526,"lng":135.726573,"zip":"6018318"},{"town":"吉祥院嶋笠井町","koaza":"","lat":34.958065,"lng":135.730695,"zip":"6018374"},{"town":"吉祥院嶋樫山町","koaza":"","lat":34.960486,"lng":135.728767,"zip":"6018371"},{"town":"吉祥院嶋川原田町","koaza":"","lat":34.961949,"lng":135.726867,"zip":"6018379"},{"town":"吉祥院嶋高町","koaza":"","lat":34.960898,"lng":135.731293,"zip":"6018372"},{"town":"吉祥院嶋堤外","koaza":"","lat":34.96022,"lng":135.726471,"zip":"6018378"},{"town":"吉祥院嶋出在家町","koaza":"","lat":34.959011,"lng":135.731491,"zip":"6018373"},{"town":"吉祥院嶋中ノ島","koaza":"","lat":34.958224,"lng":135.728109,"zip":"6018376"},{"town":"吉祥院嶋西浦","koaza":"","lat":34.955699,"lng":135.730976,"zip":"6018375"},{"town":"吉祥院嶋野間詰町","koaza":"","lat":34.961119,"lng":135.734305,"zip":"6018363"},{"town":"吉祥院清水町","koaza":"","lat":34.979038,"lng":135.732438,"zip":"6018329"},{"town":"吉祥院新田壱ノ段町","koaza":"","lat":34.978504,"lng":135.725473,"zip":"6018397"},{"town":"吉祥院新田参ノ段町","koaza":"","lat":34.977401,"lng":135.721768,"zip":"6018398"},{"town":"吉祥院新田下ノ向町","koaza":"","lat":34.971141,"lng":135.723532,"zip":"6018380"},{"town":"吉祥院新田弐ノ段町","koaza":"","lat":34.975089,"lng":135.724162,"zip":"6018317"},{"town":"吉祥院菅原町","koaza":"","lat":34.970189,"lng":135.732053,"zip":"6018336"},{"town":"吉祥院砂ノ町","koaza":"","lat":34.968999,"lng":135.731592,"zip":"6018335"},{"town":"吉祥院高畑町","koaza":"","lat":34.971394,"lng":135.7361,"zip":"6018332"},{"town":"吉祥院堤外","koaza":"","lat":34.978765,"lng":135.7176,"zip":"6018399"},{"town":"吉祥院堤外町","koaza":"","lat":34.978924,"lng":135.719346,"zip":"6018399"},{"town":"吉祥院中河原里北町","koaza":"","lat":34.981169,"lng":135.723874,"zip":"6018394"},{"town":"吉祥院中河原里西町","koaza":"","lat":34.980336,"lng":135.721019,"zip":"6018393"},{"town":"吉祥院中河原里南町","koaza":"","lat":34.979529,"lng":135.724389,"zip":"6018396"},{"town":"吉祥院中河原西屋敷町","koaza":"","lat":34.980408,"lng":135.724162,"zip":"6018395"},{"town":"吉祥院中島町","koaza":"","lat":34.978416,"lng":135.730651,"zip":"6018313"},{"town":"吉祥院長田町","koaza":"","lat":34.963583,"lng":135.734162,"zip":"6018362"},{"town":"吉祥院仁木ノ森町","koaza":"","lat":34.969074,"lng":135.728434,"zip":"6018354"},{"town":"吉祥院西浦町","koaza":"","lat":34.973822,"lng":135.730212,"zip":"6018352"},{"town":"吉祥院西定成町","koaza":"","lat":34.976288,"lng":135.735515,"zip":"6018321"},{"town":"吉祥院西ノ内町","koaza":"","lat":34.971745,"lng":135.732922,"zip":"6018338"},{"town":"吉祥院西ノ庄猪之馬場町","koaza":"","lat":34.980623,"lng":135.72842,"zip":"6018310"},{"town":"吉祥院西ノ庄西浦町","koaza":"","lat":34.984968,"lng":135.727236,"zip":"6018301"},{"town":"吉祥院西ノ庄西中町","koaza":"","lat":34.982613,"lng":135.726864,"zip":"6018303"},{"town":"吉祥院西ノ庄東屋敷町","koaza":"","lat":34.983279,"lng":135.729531,"zip":"6018311"},{"town":"吉祥院西ノ庄淵ノ西町","koaza":"","lat":34.98301,"lng":135.728103,"zip":"6018302"},{"town":"吉祥院西ノ庄向田町","koaza":"","lat":34.985336,"lng":135.723519,"zip":"6018309"},{"town":"吉祥院西ノ庄門口町","koaza":"","lat":34.981894,"lng":135.731378,"zip":"6018312"},{"town":"吉祥院西ノ茶屋町","koaza":"","lat":34.971327,"lng":135.725915,"zip":"6018381"},{"town":"吉祥院這登中町","koaza":"","lat":34.971014,"lng":135.729435,"zip":"6018353"},{"town":"吉祥院這登西町","koaza":"","lat":34.971037,"lng":135.727505,"zip":"6018351"},{"town":"吉祥院這登東町","koaza":"","lat":34.970904,"lng":135.731064,"zip":"6018337"},{"town":"吉祥院八反田町","koaza":"","lat":34.973926,"lng":135.740092,"zip":"6018325"},{"town":"吉祥院東浦町","koaza":"","lat":34.970473,"lng":135.739903,"zip":"6018333"},{"town":"吉祥院東砂ノ町","koaza":"","lat":34.969432,"lng":135.733475,"zip":"6018334"},{"town":"吉祥院東前田町","koaza":"","lat":34.9693,"lng":135.737371,"zip":"6018342"},{"town":"吉祥院船戸町","koaza":"","lat":34.975032,"lng":135.732931,"zip":"6018330"},{"town":"吉祥院前河原町","koaza":"","lat":34.982964,"lng":135.725277,"zip":"6018304"},{"town":"吉祥院前田町","koaza":"","lat":34.969415,"lng":135.735211,"zip":"6018341"},{"town":"吉祥院蒔絵町","koaza":"","lat":34.96705,"lng":135.737536,"zip":"6018344"},{"town":"吉祥院蒔絵南町","koaza":"","lat":34.965241,"lng":135.737142,"zip":"6018345"},{"town":"吉祥院政所町","koaza":"","lat":34.972681,"lng":135.735056,"zip":"6018331"},{"town":"吉祥院南落合町","koaza":"","lat":34.972345,"lng":135.738838,"zip":"6018326"},{"town":"吉祥院宮ノ西町","koaza":"","lat":34.982919,"lng":135.721854,"zip":"6018306"},{"town":"吉祥院宮ノ東町","koaza":"","lat":34.982977,"lng":135.723661,"zip":"6018305"},{"town":"吉祥院向田西町","koaza":"","lat":34.984529,"lng":135.721729,"zip":"6018307"},{"town":"吉祥院向田東町","koaza":"","lat":34.984625,"lng":135.724446,"zip":"6018308"},{"town":"吉祥院流作町","koaza":"","lat":34.981112,"lng":135.717848,"zip":"6018390"},{"town":"九条町","koaza":"","lat":34.981769,"lng":135.747748,"zip":"6018473"},{"town":"久世大築町","koaza":"","lat":34.960364,"lng":135.722695,"zip":"6018202"},{"town":"久世大藪町","koaza":"","lat":34.955392,"lng":135.720566,"zip":"6010000"},{"town":"久世上久世町","koaza":"","lat":34.965612,"lng":135.71542,"zip":"6018212"},{"town":"久世川原町","koaza":"","lat":34.965523,"lng":135.721103,"zip":"6018201"},{"town":"久世高田町","koaza":"","lat":34.965602,"lng":135.707836,"zip":"6018211"},{"town":"久世築山町","koaza":"","lat":34.954688,"lng":135.72606,"zip":"6018203"},{"town":"久世殿城町","koaza":"","lat":34.955216,"lng":135.715159,"zip":"6018205"},{"town":"久世中久世町一丁目","koaza":"","lat":34.961087,"lng":135.711428,"zip":"6018213"},{"town":"久世中久世町二丁目","koaza":"","lat":34.961156,"lng":135.714159,"zip":"6018213"},{"town":"久世中久世町三丁目","koaza":"","lat":34.960276,"lng":135.716076,"zip":"6018213"},{"town":"久世中久世町四丁目","koaza":"","lat":34.95812,"lng":135.713565,"zip":"6018213"},{"town":"久世中久世町五丁目","koaza":"","lat":34.957509,"lng":135.710891,"zip":"6018213"},{"town":"久世中久町","koaza":"","lat":34.960367,"lng":135.717636,"zip":"6018207"},{"town":"久世東土川町","koaza":"","lat":34.946258,"lng":135.720177,"zip":"6018204"},{"town":"境内町","koaza":"","lat":34.985132,"lng":135.750677,"zip":"6010000"},{"town":"塩屋町","koaza":"","lat":34.985079,"lng":135.749343,"zip":"6018401"},{"town":"大黒町","koaza":"","lat":34.984608,"lng":135.749336,"zip":"6018402"},{"town":"東寺町","koaza":"","lat":34.983315,"lng":135.746123,"zip":"6018478"},{"town":"東寺東門前町","koaza":"","lat":34.981851,"lng":135.749467,"zip":"6018428"},{"town":"西九条池ノ内町","koaza":"","lat":34.983143,"lng":135.753043,"zip":"6018416"},{"town":"西九条猪熊町","koaza":"","lat":34.982447,"lng":135.750276,"zip":"6018426"},{"town":"西九条院町","koaza":"","lat":34.98347,"lng":135.756062,"zip":"6018412"},{"town":"西九条大国町","koaza":"","lat":34.977606,"lng":135.744518,"zip":"6018449"},{"town":"西九条開ケ町","koaza":"","lat":34.977707,"lng":135.75175,"zip":"6018439"},{"town":"西九条戒光寺町","koaza":"","lat":34.984753,"lng":135.751689,"zip":"6018405"},{"town":"西九条春日町","koaza":"","lat":34.980674,"lng":135.754554,"zip":"6018413"},{"town":"西九条唐戸町","koaza":"","lat":34.97611,"lng":135.742777,"zip":"6018447"},{"town":"西九条唐橋町","koaza":"","lat":34.981236,"lng":135.751454,"zip":"6018423"},{"town":"西九条川原城町","koaza":"","lat":34.979984,"lng":135.750981,"zip":"6018424"},{"town":"西九条北ノ内町","koaza":"","lat":34.984404,"lng":135.754522,"zip":"6018411"},{"town":"西九条御幸田町","koaza":"","lat":34.974691,"lng":135.749384,"zip":"6018442"},{"town":"西九条小寺町","koaza":"","lat":34.984735,"lng":135.750059,"zip":"6018404"},{"town":"西九条蔵王町","koaza":"","lat":34.980624,"lng":135.753075,"zip":"6018414"},{"town":"西九条島町","koaza":"","lat":34.977698,"lng":135.752962,"zip":"6018431"},{"town":"西九条菅田町","koaza":"","lat":34.974718,"lng":135.747397,"zip":"6018445"},{"town":"西九条高畠町","koaza":"","lat":34.974111,"lng":135.744464,"zip":"6018446"},{"town":"西九条寺ノ前町","koaza":"","lat":34.984797,"lng":135.752936,"zip":"6018407"},{"town":"西九条豊田町","koaza":"","lat":34.975634,"lng":135.744524,"zip":"6018448"},{"town":"西九条鳥居口町","koaza":"","lat":34.982721,"lng":135.754563,"zip":"6018417"},{"town":"西九条南田町","koaza":"","lat":34.977601,"lng":135.747419,"zip":"6018441"},{"town":"西九条西蔵王町","koaza":"","lat":34.980602,"lng":135.752279,"zip":"6018415"},{"town":"西九条西柳ノ内町","koaza":"","lat":34.974665,"lng":135.751492,"zip":"6018436"},{"town":"西九条針小路町","koaza":"","lat":34.982427,"lng":135.751604,"zip":"6018422"},{"town":"西九条比永城町","koaza":"","lat":34.977693,"lng":135.749261,"zip":"6018437"},{"town":"西九条東御幸田町","koaza":"","lat":34.974695,"lng":135.750362,"zip":"6018443"},{"town":"西九条東島町","koaza":"","lat":34.977584,"lng":135.753975,"zip":"6018432"},{"town":"西九条東比永城町","koaza":"","lat":34.977709,"lng":135.750463,"zip":"6018438"},{"town":"西九条東柳ノ内町","koaza":"","lat":34.97468,"lng":135.752875,"zip":"6018433"},{"town":"西九条藤ノ木町","koaza":"","lat":34.983689,"lng":135.751344,"zip":"6018421"},{"town":"西九条仏現寺町","koaza":"","lat":34.971767,"lng":135.752636,"zip":"6018434"},{"town":"西九条南小路町","koaza":"","lat":34.981208,"lng":135.750263,"zip":"6018425"},{"town":"西九条森本町","koaza":"","lat":34.972457,"lng":135.750395,"zip":"6018444"},{"town":"西九条柳ノ内町","koaza":"","lat":34.97296,"lng":135.752782,"zip":"6018435"},{"town":"西九条横町","koaza":"","lat":34.983665,"lng":135.750305,"zip":"6018427"},{"town":"八条内田町","koaza":"","lat":34.98063,"lng":135.744306,"zip":"6018475"},{"town":"八条町","koaza":"","lat":34.984467,"lng":135.746548,"zip":"6018471"},{"town":"八条寺内町","koaza":"","lat":34.982426,"lng":135.745386,"zip":"6018476"},{"town":"八条坊門町","koaza":"","lat":34.984715,"lng":135.748754,"zip":"6018472"},{"town":"八条源町","koaza":"","lat":34.983142,"lng":135.743454,"zip":"6018477"},{"town":"東九条明田町","koaza":"","lat":34.975931,"lng":135.759592,"zip":"6018044"},{"town":"東九条石田町","koaza":"","lat":34.974183,"lng":135.761013,"zip":"6018032"},{"town":"東九条宇賀辺町","koaza":"","lat":34.978408,"lng":135.764778,"zip":"6018021"},{"town":"東九条上御霊町","koaza":"","lat":34.98019,"lng":135.762605,"zip":"6018015"},{"town":"東九条上殿田町","koaza":"","lat":34.983081,"lng":135.758997,"zip":"6018002"},{"town":"東九条烏丸町","koaza":"","lat":34.980145,"lng":135.759668,"zip":"6018016"},{"town":"東九条河西町","koaza":"","lat":34.979888,"lng":135.765773,"zip":"6018014"},{"town":"東九条河辺町","koaza":"","lat":34.974186,"lng":135.759358,"zip":"6018031"},{"town":"東九条北烏丸町","koaza":"","lat":34.981297,"lng":135.759657,"zip":"6018017"},{"town":"東九条北河原町","koaza":"","lat":34.98301,"lng":135.766332,"zip":"6018007"},{"town":"東九条北松ノ木町","koaza":"","lat":34.978381,"lng":135.766628,"zip":"6018022"},{"town":"東九条下殿田町","koaza":"","lat":34.97879,"lng":135.756873,"zip":"6018047"},{"town":"東九条中御霊町","koaza":"","lat":34.978375,"lng":135.762178,"zip":"6018027"},{"town":"東九条中殿田町","koaza":"","lat":34.981328,"lng":135.756805,"zip":"6018048"},{"town":"東九条中札辻町","koaza":"","lat":34.975993,"lng":135.762281,"zip":"6018026"},{"town":"東九条西明田町","koaza":"","lat":34.97598,"lng":135.757061,"zip":"6018045"},{"town":"東九条西岩本町","koaza":"","lat":34.983546,"lng":135.763246,"zip":"6018005"},{"town":"東九条西河辺町","koaza":"","lat":34.97421,"lng":135.757069,"zip":"6018037"},{"town":"東九条西御霊町","koaza":"","lat":34.978356,"lng":135.761103,"zip":"6018042"},{"town":"東九条西山王町","koaza":"","lat":34.983027,"lng":135.760447,"zip":"6018003"},{"town":"東九条西札辻町","koaza":"","lat":34.976092,"lng":135.761258,"zip":"6018043"},{"town":"東九条西山町","koaza":"","lat":34.97775,"lng":135.754995,"zip":"6018046"},{"town":"東九条東岩本町","koaza":"","lat":34.983061,"lng":135.765033,"zip":"6018006"},{"town":"東九条東御霊町","koaza":"","lat":34.978378,"lng":135.763442,"zip":"6018028"},{"town":"東九条東山王町","koaza":"","lat":34.983299,"lng":135.761936,"zip":"6018004"},{"town":"東九条東札辻町","koaza":"","lat":34.975968,"lng":135.763307,"zip":"6018024"},{"town":"東九条東松ノ木町","koaza":"","lat":34.976475,"lng":135.767013,"zip":"6018029"},{"town":"東九条松田町","koaza":"","lat":34.9747,"lng":135.754563,"zip":"6018036"},{"town":"東九条南石田町","koaza":"","lat":34.971917,"lng":135.760525,"zip":"6018033"},{"town":"東九条南岩本町","koaza":"","lat":34.9814,"lng":135.765055,"zip":"6018012"},{"town":"東九条南烏丸町","koaza":"","lat":34.978229,"lng":135.759563,"zip":"6018041"},{"town":"東九条南河辺町","koaza":"","lat":34.972189,"lng":135.757761,"zip":"6018034"},{"town":"東九条南河原町","koaza":"","lat":34.981121,"lng":135.766761,"zip":"6018013"},{"town":"東九条南山王町","koaza":"","lat":34.981483,"lng":135.762644,"zip":"6018011"},{"town":"東九条南松田町","koaza":"","lat":34.972454,"lng":135.754746,"zip":"6018035"},{"town":"東九条南松ノ木町","koaza":"","lat":34.976112,"lng":135.765145,"zip":"6018023"},{"town":"東九条室町","koaza":"","lat":34.983063,"lng":135.757541,"zip":"6018001"},{"town":"東九条柳下町","koaza":"","lat":34.972894,"lng":135.763171,"zip":"6018025"},{"town":"古御旅町","koaza":"","lat":34.985045,"lng":135.749976,"zip":"6018403"},{"town":"四ツ塚町","koaza":"","lat":34.979183,"lng":135.744446,"zip":"6018474"}]