[{"town":"秋築町","koaza":"","lat":35.014829,"lng":135.774558,"zip":"6068371"},{"town":"粟田口大日山町","koaza":"","lat":35.010098,"lng":135.800098,"zip":"6060000"},{"town":"粟田口鳥居町","koaza":"","lat":35.010533,"lng":135.78664,"zip":"6068436"},{"town":"粟田口如意ケ嶽町","koaza":"","lat":35.017304,"lng":135.827398,"zip":"6068452"},{"town":"粟田口山下町","koaza":"","lat":35.007671,"lng":135.79119,"zip":"6068443"},{"town":"石原町","koaza":"","lat":35.014047,"lng":135.775571,"zip":"6068356"},{"town":"一乗寺青城町","koaza":"","lat":35.046173,"lng":135.789664,"zip":"6068121"},{"town":"一乗寺赤ノ宮町","koaza":"","lat":35.04228,"lng":135.782821,"zip":"6068182"},{"town":"一乗寺庵野町","koaza":"","lat":35.039471,"lng":135.793963,"zip":"6068166"},{"town":"一乗寺池ケ谷","koaza":"","lat":35.053903,"lng":135.814503,"zip":"6060000"},{"town":"一乗寺井出ケ谷","koaza":"","lat":35.059954,"lng":135.82986,"zip":"6060000"},{"town":"一乗寺井手ケ谷エノ木ケ尾","koaza":"","lat":35.061962,"lng":135.833628,"zip":"6060000"},{"town":"一乗寺井手ケ谷菖蒲平","koaza":"","lat":35.057496,"lng":135.831413,"zip":"6060000"},{"town":"一乗寺井手ケ谷ススガ平","koaza":"","lat":35.059784,"lng":135.828216,"zip":"6060000"},{"town":"一乗寺井手ケ谷調専口","koaza":"","lat":35.060688,"lng":135.831809,"zip":"6060000"},{"town":"一乗寺稲荷町","koaza":"","lat":35.047702,"lng":135.79413,"zip":"6068131"},{"town":"一乗寺馬坂","koaza":"","lat":35.046304,"lng":135.812318,"zip":"6060000"},{"town":"一乗寺厩ケ谷","koaza":"","lat":35.053438,"lng":135.821088,"zip":"6060000"},{"town":"一乗寺梅ノ木町","koaza":"","lat":35.040996,"lng":135.787358,"zip":"6068173"},{"town":"一乗寺延暦寺山","koaza":"","lat":35.054203,"lng":135.830127,"zip":"6060000"},{"town":"一乗寺大谷","koaza":"","lat":35.044011,"lng":135.806361,"zip":"6068158"},{"town":"一乗寺大原田町","koaza":"","lat":35.041957,"lng":135.785729,"zip":"6068187"},{"town":"一乗寺掛橋","koaza":"","lat":35.053963,"lng":135.817037,"zip":"6060000"},{"town":"一乗寺月輪寺町","koaza":"","lat":35.049219,"lng":135.799931,"zip":"6068133"},{"town":"一乗寺河原田町","koaza":"","lat":35.039769,"lng":135.785991,"zip":"6068172"},{"town":"一乗寺北大丸町","koaza":"","lat":35.045507,"lng":135.786687,"zip":"6068114"},{"town":"一乗寺北高山","koaza":"","lat":35.049134,"lng":135.813962,"zip":"6060000"},{"town":"一乗寺木ノ本町","koaza":"","lat":35.040967,"lng":135.790339,"zip":"6068161"},{"town":"一乗寺黒目ケ谷","koaza":"","lat":35.058794,"lng":135.826501,"zip":"6060000"},{"town":"一乗寺御祭田町","koaza":"","lat":35.042171,"lng":135.787708,"zip":"6068162"},{"town":"一乗寺小谷町","koaza":"","lat":35.044662,"lng":135.797059,"zip":"6068147"},{"town":"一乗寺才形町","koaza":"","lat":35.041846,"lng":135.794682,"zip":"6068157"},{"town":"一乗寺坂端","koaza":"","lat":35.050633,"lng":135.80802,"zip":"6060000"},{"town":"一乗寺下リ松町","koaza":"","lat":35.044235,"lng":135.792883,"zip":"6068152"},{"town":"一乗寺里ノ西町","koaza":"","lat":35.044734,"lng":135.788975,"zip":"6068115"},{"town":"一乗寺里ノ前町","koaza":"","lat":35.043418,"lng":135.788807,"zip":"6068117"},{"town":"一乗寺三百坊","koaza":"","lat":35.061659,"lng":135.834496,"zip":"6060000"},{"town":"一乗寺地獄谷","koaza":"","lat":35.049546,"lng":135.819578,"zip":"6060000"},{"town":"一乗寺地蔵本町","koaza":"","lat":35.04145,"lng":135.783858,"zip":"6068181"},{"town":"一乗寺シ谷","koaza":"","lat":35.052575,"lng":135.82041,"zip":"6060000"},{"town":"一乗寺清水町","koaza":"","lat":35.046631,"lng":135.791527,"zip":"6068125"},{"town":"一乗寺釈迦堂町","koaza":"","lat":35.044658,"lng":135.794966,"zip":"6068141"},{"town":"一乗寺城","koaza":"","lat":35.051199,"lng":135.812669,"zip":"6060000"},{"town":"一乗寺砂坂","koaza":"","lat":35.060942,"lng":135.835276,"zip":"6060000"},{"town":"一乗寺勢ケ谷","koaza":"","lat":35.058565,"lng":135.834776,"zip":"6060000"},{"town":"一乗寺染殿町","koaza":"","lat":35.039748,"lng":135.787737,"zip":"6068174"},{"town":"一乗寺大新開町","koaza":"","lat":35.042298,"lng":135.784385,"zip":"6068183"},{"town":"一乗寺高槻町","koaza":"","lat":35.04469,"lng":135.78518,"zip":"6068185"},{"town":"一乗寺竹ノ内町","koaza":"","lat":35.049584,"lng":135.802655,"zip":"6068134"},{"town":"一乗寺谷田町","koaza":"","lat":35.045161,"lng":135.792985,"zip":"6068153"},{"town":"一乗寺塚本町","koaza":"","lat":35.038351,"lng":135.790175,"zip":"6068176"},{"town":"一乗寺築田町","koaza":"","lat":35.039569,"lng":135.790238,"zip":"6068175"},{"town":"一乗寺出口町","koaza":"","lat":35.042163,"lng":135.792798,"zip":"6068164"},{"town":"一乗寺天ケ丸","koaza":"","lat":35.058371,"lng":135.82103,"zip":"6060000"},{"town":"一乗寺堂ノ前町","koaza":"","lat":35.046531,"lng":135.796107,"zip":"6068144"},{"town":"一乗寺燈籠本町","koaza":"","lat":35.04541,"lng":135.795178,"zip":"6068142"},{"town":"一乗寺長尾","koaza":"","lat":35.058855,"lng":135.825064,"zip":"6060000"},{"town":"一乗寺中尾ケ谷","koaza":"","lat":35.052095,"lng":135.817673,"zip":"6060000"},{"town":"一乗寺中ノ田町","koaza":"","lat":35.042073,"lng":135.790412,"zip":"6068163"},{"town":"一乗寺西浦畑町","koaza":"","lat":35.046327,"lng":135.793727,"zip":"6068127"},{"town":"一乗寺西杉ノ宮町","koaza":"","lat":35.046251,"lng":135.785835,"zip":"6068112"},{"town":"一乗寺西閉川原町","koaza":"","lat":35.047424,"lng":135.787076,"zip":"6068123"},{"town":"一乗寺西水干町","koaza":"","lat":35.038542,"lng":135.786187,"zip":"6068171"},{"town":"一乗寺西楽ケ谷","koaza":"","lat":35.050452,"lng":135.816014,"zip":"6060000"},{"town":"一乗寺ヌノ滝","koaza":"","lat":35.05371,"lng":135.82516,"zip":"6060000"},{"town":"一乗寺野田町","koaza":"","lat":35.041121,"lng":135.792687,"zip":"6068165"},{"town":"一乗寺花ケ谷","koaza":"","lat":35.05972,"lng":135.823472,"zip":"6060000"},{"town":"一乗寺花ノ木町","koaza":"","lat":35.043338,"lng":135.792936,"zip":"6068151"},{"town":"一乗寺馬場町","koaza":"","lat":35.048363,"lng":135.796211,"zip":"6068132"},{"town":"一乗寺葉山","koaza":"","lat":35.044515,"lng":135.801437,"zip":"6068145"},{"town":"一乗寺葉山町","koaza":"","lat":35.04629,"lng":135.797359,"zip":"6068145"},{"town":"一乗寺払殿町","koaza":"","lat":35.043545,"lng":135.785354,"zip":"6068184"},{"town":"一乗寺東浦町","koaza":"","lat":35.047595,"lng":135.796812,"zip":"6068136"},{"town":"一乗寺東杉ノ宮町","koaza":"","lat":35.046487,"lng":135.787484,"zip":"6068113"},{"town":"一乗寺東閉川原町","koaza":"","lat":35.047314,"lng":135.788162,"zip":"6068122"},{"town":"一乗寺東水干町","koaza":"","lat":35.038599,"lng":135.787957,"zip":"6068177"},{"town":"一乗寺東楽ケ谷","koaza":"","lat":35.050356,"lng":135.818077,"zip":"6060000"},{"town":"一乗寺樋ノ口町","koaza":"","lat":35.039043,"lng":135.792165,"zip":"6068167"},{"town":"一乗寺風呂ケ谷","koaza":"","lat":35.051786,"lng":135.814963,"zip":"6060000"},{"town":"一乗寺ボケ谷","koaza":"","lat":35.044499,"lng":135.812302,"zip":"6060000"},{"town":"一乗寺堀切","koaza":"","lat":35.044435,"lng":135.809799,"zip":"6060000"},{"town":"一乗寺堀ノ内町","koaza":"","lat":35.046504,"lng":135.795121,"zip":"6068143"},{"town":"一乗寺松田町","koaza":"","lat":35.047438,"lng":135.790077,"zip":"6068124"},{"town":"一乗寺松原町","koaza":"","lat":35.041114,"lng":135.798577,"zip":"6068156"},{"town":"一乗寺水掛町","koaza":"","lat":35.047806,"lng":135.801447,"zip":"6068135"},{"town":"一乗寺南大丸町","koaza":"","lat":35.04456,"lng":135.786726,"zip":"6068186"},{"town":"一乗寺南高山","koaza":"","lat":35.047677,"lng":135.813308,"zip":"6060000"},{"town":"一乗寺宮ノ東町","koaza":"","lat":35.044123,"lng":135.791079,"zip":"6068116"},{"town":"一乗寺向畑町","koaza":"","lat":35.046732,"lng":135.792453,"zip":"6068126"},{"town":"一乗寺門口町","koaza":"","lat":35.043847,"lng":135.795141,"zip":"6068154"},{"town":"一乗寺薬師堂町","koaza":"","lat":35.043094,"lng":135.79483,"zip":"6068155"},{"town":"一乗寺ヤケ谷","koaza":"","lat":35.056237,"lng":135.824501,"zip":"6060000"},{"town":"一乗寺病ダレ","koaza":"","lat":35.056089,"lng":135.833338,"zip":"6068146"},{"town":"一乗寺艾谷","koaza":"","lat":35.046909,"lng":135.814722,"zip":"6060000"},{"town":"一乗寺割ケ谷","koaza":"","lat":35.055133,"lng":135.821678,"zip":"6060000"},{"town":"岩倉上蔵町","koaza":"","lat":35.085031,"lng":135.775918,"zip":"6011124"},{"town":"岩倉大鷺町","koaza":"","lat":35.064804,"lng":135.786679,"zip":"6060001"},{"town":"岩倉北池田町","koaza":"","lat":35.064858,"lng":135.776364,"zip":"6060004"},{"town":"岩倉北桑原町","koaza":"","lat":35.068281,"lng":135.782379,"zip":"6060009"},{"town":"岩倉北平岡町","koaza":"","lat":35.068356,"lng":135.777233,"zip":"6060029"},{"town":"岩倉北四ノ坪町","koaza":"","lat":35.068157,"lng":135.784356,"zip":"6060010"},{"town":"岩倉木野町","koaza":"","lat":35.076277,"lng":135.77237,"zip":"6011125"},{"town":"岩倉下在地町","koaza":"","lat":35.073817,"lng":135.785886,"zip":"6060013"},{"town":"岩倉忠在地町","koaza":"","lat":35.07645,"lng":135.786749,"zip":"6060021"},{"town":"岩倉中大鷺町","koaza":"","lat":35.063721,"lng":135.78735,"zip":"6060002"},{"town":"岩倉中河原町","koaza":"","lat":35.07075,"lng":135.780296,"zip":"6060018"},{"town":"岩倉中在地町","koaza":"","lat":35.081905,"lng":135.78538,"zip":"6060027"},{"town":"岩倉長谷町","koaza":"","lat":35.089254,"lng":135.799241,"zip":"6060026"},{"town":"岩倉中町","koaza":"","lat":35.074364,"lng":135.7893,"zip":"6060025"},{"town":"岩倉西河原町","koaza":"","lat":35.072326,"lng":135.783394,"zip":"6060014"},{"town":"岩倉西五田町","koaza":"","lat":35.064824,"lng":135.779272,"zip":"6060006"},{"town":"岩倉西宮田町","koaza":"","lat":35.066602,"lng":135.779063,"zip":"6060011"},{"town":"岩倉幡枝町","koaza":"","lat":35.066052,"lng":135.771819,"zip":"6060015"},{"town":"岩倉花園町","koaza":"","lat":35.076032,"lng":135.800216,"zip":"6060024"},{"town":"岩倉東五田町","koaza":"","lat":35.064075,"lng":135.781536,"zip":"6060007"},{"town":"岩倉東宮田町","koaza":"","lat":35.066364,"lng":135.780721,"zip":"6060012"},{"town":"岩倉三笠町","koaza":"","lat":35.070428,"lng":135.783798,"zip":"6060008"},{"town":"岩倉南池田町","koaza":"","lat":35.063702,"lng":135.776086,"zip":"6060005"},{"town":"岩倉南大鷺町","koaza":"","lat":35.062424,"lng":135.786156,"zip":"6060003"},{"town":"岩倉南河原町","koaza":"","lat":35.068592,"lng":135.779783,"zip":"6060019"},{"town":"岩倉南木野町","koaza":"","lat":35.070812,"lng":135.777505,"zip":"6060028"},{"town":"岩倉南桑原町","koaza":"","lat":35.06604,"lng":135.782322,"zip":"6060031"},{"town":"岩倉南平岡町","koaza":"","lat":35.066808,"lng":135.7771,"zip":"6060032"},{"town":"岩倉南三宅町","koaza":"","lat":35.065123,"lng":135.789522,"zip":"6060023"},{"town":"岩倉南四ノ坪町","koaza":"","lat":35.065886,"lng":135.783972,"zip":"6060033"},{"town":"岩倉三宅町","koaza":"","lat":35.068068,"lng":135.791258,"zip":"6060022"},{"town":"岩倉村松町","koaza":"","lat":35.094545,"lng":135.781855,"zip":"6060034"},{"town":"永観堂町","koaza":"","lat":35.013784,"lng":135.794889,"zip":"6068445"},{"town":"永観堂西町","koaza":"","lat":35.015041,"lng":135.792321,"zip":"6068433"},{"town":"大菊町","koaza":"","lat":35.011932,"lng":135.773798,"zip":"6068376"},{"town":"大原井出町","koaza":"","lat":35.10215,"lng":135.815694,"zip":"6011246"},{"town":"大原上野町","koaza":"","lat":35.106832,"lng":135.840059,"zip":"6011244"},{"town":"大原大長瀬町","koaza":"","lat":35.113776,"lng":135.836585,"zip":"6011243"},{"town":"大原大見町","koaza":"","lat":35.192417,"lng":135.812933,"zip":"6011232"},{"town":"大原尾越町","koaza":"","lat":35.212671,"lng":135.821553,"zip":"6011231"},{"town":"大原草生町","koaza":"","lat":35.129762,"lng":135.819588,"zip":"6011248"},{"town":"大原古知平町","koaza":"","lat":35.13628,"lng":135.82841,"zip":"6011235"},{"town":"大原小出石町","koaza":"","lat":35.159013,"lng":135.82938,"zip":"6011234"},{"town":"大原勝林院町","koaza":"","lat":35.130781,"lng":135.842198,"zip":"6011241"},{"town":"大原戸寺町","koaza":"","lat":35.103523,"lng":135.829958,"zip":"6011245"},{"town":"大原野村町","koaza":"","lat":35.115879,"lng":135.816289,"zip":"6011247"},{"town":"大原百井町","koaza":"","lat":35.176942,"lng":135.809673,"zip":"6011233"},{"town":"大原来迎院町","koaza":"","lat":35.119676,"lng":135.841411,"zip":"6011242"},{"town":"岡崎入江町","koaza":"","lat":35.017468,"lng":135.783277,"zip":"6068322"},{"town":"岡崎円勝寺町","koaza":"","lat":35.011394,"lng":135.782456,"zip":"6068344"},{"town":"岡崎北御所町","koaza":"","lat":35.017116,"lng":135.785434,"zip":"6068336"},{"town":"岡崎最勝寺町","koaza":"","lat":35.014298,"lng":135.78181,"zip":"6068342"},{"town":"岡崎真如堂前町","koaza":"","lat":35.021926,"lng":135.786719,"zip":"6068415"},{"town":"岡崎成勝寺町","koaza":"","lat":35.012746,"lng":135.782055,"zip":"6068343"},{"town":"岡崎天王町","koaza":"","lat":35.016644,"lng":135.78746,"zip":"6068335"},{"town":"岡崎徳成町","koaza":"","lat":35.015031,"lng":135.778385,"zip":"6068351"},{"town":"岡崎西天王町","koaza":"","lat":35.016157,"lng":135.781827,"zip":"6068341"},{"town":"岡崎西福ノ川町","koaza":"","lat":35.019808,"lng":135.783617,"zip":"6068326"},{"town":"岡崎東天王町","koaza":"","lat":35.016732,"lng":135.790131,"zip":"6068332"},{"town":"岡崎東福ノ川町","koaza":"","lat":35.019787,"lng":135.785251,"zip":"6068321"},{"town":"岡崎法勝寺町","koaza":"","lat":35.0137,"lng":135.787631,"zip":"6068333"},{"town":"岡崎南御所町","koaza":"","lat":35.014696,"lng":135.785396,"zip":"6068334"},{"town":"頭町","koaza":"","lat":35.01275,"lng":135.775889,"zip":"6068354"},{"town":"上高野池ノ内町","koaza":"","lat":35.065006,"lng":135.794279,"zip":"6060057"},{"town":"上高野石田町","koaza":"","lat":35.060749,"lng":135.78874,"zip":"6060041"},{"town":"上高野市川町","koaza":"","lat":35.065096,"lng":135.793067,"zip":"6060056"},{"town":"上高野稲荷町","koaza":"","lat":35.062678,"lng":135.798021,"zip":"6060087"},{"town":"上高野植ノ町","koaza":"","lat":35.062757,"lng":135.799373,"zip":"6060088"},{"town":"上高野上畑町","koaza":"","lat":35.061438,"lng":135.79922,"zip":"6060089"},{"town":"上高野大塚町","koaza":"","lat":35.056861,"lng":135.792971,"zip":"6060091"},{"town":"上高野大橋町","koaza":"","lat":35.064075,"lng":135.797086,"zip":"6060062"},{"town":"上高野大湯手町","koaza":"","lat":35.064233,"lng":135.791755,"zip":"6060048"},{"town":"上高野奥小森町","koaza":"","lat":35.063367,"lng":135.802404,"zip":"6060077"},{"town":"上高野奥東野町","koaza":"","lat":35.061797,"lng":135.801324,"zip":"6060075"},{"town":"上高野小野町","koaza":"","lat":35.064056,"lng":135.795575,"zip":"6060058"},{"town":"上高野尾保地町","koaza":"","lat":35.064026,"lng":135.793662,"zip":"6060055"},{"town":"上高野鐘突町","koaza":"","lat":35.06177,"lng":135.795535,"zip":"6060084"},{"town":"上高野釜土町","koaza":"","lat":35.060622,"lng":135.800737,"zip":"6060073"},{"town":"上高野上荒蒔町","koaza":"","lat":35.05817,"lng":135.791771,"zip":"6060093"},{"town":"上高野掃部林町","koaza":"","lat":35.060713,"lng":135.802002,"zip":"6060072"},{"town":"上高野川原町","koaza":"","lat":35.064171,"lng":135.79818,"zip":"6060061"},{"town":"上高野北川原町","koaza":"","lat":35.06339,"lng":135.795498,"zip":"6060059"},{"town":"上高野北田町","koaza":"","lat":35.066345,"lng":135.794269,"zip":"6060036"},{"town":"上高野木ノ下町","koaza":"","lat":35.062727,"lng":135.796849,"zip":"6060086"},{"town":"上高野口小森町","koaza":"","lat":35.062871,"lng":135.80074,"zip":"6060076"},{"town":"上高野車地町","koaza":"","lat":35.062126,"lng":135.792204,"zip":"6060053"},{"town":"上高野西明寺山","koaza":"","lat":35.067649,"lng":135.80014,"zip":"6060064"},{"town":"上高野鷺町","koaza":"","lat":35.061846,"lng":135.78764,"zip":"6060042"},{"town":"上高野薩田町","koaza":"","lat":35.064811,"lng":135.792028,"zip":"6060047"},{"town":"上高野沢淵町","koaza":"","lat":35.058894,"lng":135.797044,"zip":"6060000"},{"town":"上高野三反田町","koaza":"","lat":35.063261,"lng":135.793443,"zip":"6060054"},{"town":"上高野下荒蒔町","koaza":"","lat":35.056881,"lng":135.791723,"zip":"6060092"},{"town":"上高野下東野町","koaza":"","lat":35.06185,"lng":135.800346,"zip":"6060074"},{"town":"上高野水車町","koaza":"","lat":35.064184,"lng":135.801843,"zip":"6060066"},{"town":"上高野大明神町","koaza":"","lat":35.066122,"lng":135.79538,"zip":"6060063"},{"town":"上高野鳥脇町","koaza":"","lat":35.062617,"lng":135.793344,"zip":"6060052"},{"town":"上高野仲町","koaza":"","lat":35.062953,"lng":135.79083,"zip":"6060044"},{"town":"上高野流田町","koaza":"","lat":35.058918,"lng":135.789968,"zip":"6060037"},{"town":"上高野西氷室町","koaza":"","lat":35.05904,"lng":135.791522,"zip":"6060095"},{"town":"上高野野上町","koaza":"","lat":35.06178,"lng":135.793375,"zip":"6060051"},{"town":"上高野畑ケ田町","koaza":"","lat":35.061352,"lng":135.797357,"zip":"6060082"},{"town":"上高野畑町","koaza":"","lat":35.059613,"lng":135.799128,"zip":"6060081"},{"town":"上高野八幡町","koaza":"","lat":35.063922,"lng":135.799631,"zip":"6060065"},{"town":"上高野東田町","koaza":"","lat":35.061487,"lng":135.803221,"zip":"6060078"},{"town":"上高野東氷室町","koaza":"","lat":35.059163,"lng":135.792932,"zip":"6060094"},{"town":"上高野東山","koaza":"","lat":35.062981,"lng":135.811145,"zip":"6060067"},{"town":"上高野氷室山","koaza":"","lat":35.058837,"lng":135.794497,"zip":"6060000"},{"town":"上高野深田町","koaza":"","lat":35.063154,"lng":135.789136,"zip":"6060045"},{"town":"上高野古川町","koaza":"","lat":35.06118,"lng":135.790452,"zip":"6060043"},{"town":"上高野防山","koaza":"","lat":35.059762,"lng":135.80337,"zip":"6060071"},{"town":"上高野前田町","koaza":"","lat":35.059826,"lng":135.79712,"zip":"6060097"},{"town":"上高野松田町","koaza":"","lat":35.060912,"lng":135.795115,"zip":"6060083"},{"town":"上高野三宅町","koaza":"","lat":35.067661,"lng":135.793848,"zip":"6060035"},{"town":"上高野諸木町","koaza":"","lat":35.064495,"lng":135.790638,"zip":"6060046"},{"town":"上高野山ノ橋町","koaza":"","lat":35.060034,"lng":135.791533,"zip":"6060096"},{"town":"上高野隣好町","koaza":"","lat":35.062001,"lng":135.794461,"zip":"6060085"},{"town":"賀茂今井町","koaza":"","lat":35.047371,"lng":135.76141,"zip":"6060821"},{"town":"賀茂半木町","koaza":"","lat":35.046005,"lng":135.762896,"zip":"6060822"},{"town":"菊鉾町","koaza":"","lat":35.011018,"lng":135.77524,"zip":"6068364"},{"town":"北白川伊織町","koaza":"","lat":35.035935,"lng":135.789262,"zip":"6068256"},{"town":"北白川岩坂町","koaza":"","lat":35.041543,"lng":135.812767,"zip":"6068291"},{"town":"北白川瓜生山町","koaza":"","lat":35.036938,"lng":135.795364,"zip":"6068271"},{"town":"北白川追分町","koaza":"","lat":35.030715,"lng":135.783856,"zip":"6068224"},{"town":"北白川小倉町","koaza":"","lat":35.031242,"lng":135.788661,"zip":"6068264"},{"town":"北白川重石町","koaza":"","lat":35.04012,"lng":135.81409,"zip":"6068292"},{"town":"北白川上池田町","koaza":"","lat":35.032093,"lng":135.794822,"zip":"6068287"},{"town":"北白川上終町","koaza":"","lat":35.036739,"lng":135.791686,"zip":"6068252"},{"town":"北白川上別当町","koaza":"","lat":35.032119,"lng":135.792556,"zip":"6068275"},{"town":"北白川清沢口町","koaza":"","lat":35.037753,"lng":135.800629,"zip":"6068295"},{"town":"北白川久保田町","koaza":"","lat":35.028825,"lng":135.789219,"zip":"6068266"},{"town":"北白川小亀谷町","koaza":"","lat":35.025878,"lng":135.818702,"zip":"6068455"},{"town":"北白川地蔵谷町","koaza":"","lat":35.0356,"lng":135.803453,"zip":"6068294"},{"town":"北白川仕伏町","koaza":"","lat":35.031229,"lng":135.796515,"zip":"6068283"},{"town":"北白川下池田町","koaza":"","lat":35.030374,"lng":135.794407,"zip":"6068284"},{"town":"北白川下別当町","koaza":"","lat":35.030578,"lng":135.792413,"zip":"6068286"},{"town":"北白川瀬ノ内町","koaza":"","lat":35.035998,"lng":135.790599,"zip":"6068253"},{"town":"北白川大堂町","koaza":"","lat":35.033552,"lng":135.792354,"zip":"6068274"},{"town":"北白川蔦町","koaza":"","lat":35.033659,"lng":135.787487,"zip":"6068262"},{"town":"北白川堂ノ前町","koaza":"","lat":35.032505,"lng":135.790802,"zip":"6068277"},{"town":"北白川外山町","koaza":"","lat":35.029376,"lng":135.800422,"zip":"6068282"},{"town":"北白川中山町","koaza":"","lat":35.031574,"lng":135.821226,"zip":"6068451"},{"town":"北白川西伊織町","koaza":"","lat":35.037384,"lng":135.788695,"zip":"6068257"},{"town":"北白川西瀬ノ内町","koaza":"","lat":35.034081,"lng":135.789339,"zip":"6068255"},{"town":"北白川西蔦町","koaza":"","lat":35.033728,"lng":135.786447,"zip":"6068261"},{"town":"北白川西平井町","koaza":"","lat":35.035233,"lng":135.786326,"zip":"6068246"},{"town":"北白川西町","koaza":"","lat":35.030788,"lng":135.786932,"zip":"6068267"},{"town":"北白川東伊織町","koaza":"","lat":35.03732,"lng":135.790495,"zip":"6068251"},{"town":"北白川東小倉町","koaza":"","lat":35.030141,"lng":135.790138,"zip":"6068265"},{"town":"北白川東久保田町","koaza":"","lat":35.028691,"lng":135.792191,"zip":"6068285"},{"town":"北白川東瀬ノ内町","koaza":"","lat":35.034155,"lng":135.790553,"zip":"6068254"},{"town":"北白川東蔦町","koaza":"","lat":35.033624,"lng":135.788303,"zip":"6068263"},{"town":"北白川東平井町","koaza":"","lat":35.035539,"lng":135.788252,"zip":"6068244"},{"town":"北白川平井町","koaza":"","lat":35.03519,"lng":135.787258,"zip":"6068245"},{"town":"北白川琵琶町","koaza":"","lat":35.031121,"lng":135.799714,"zip":"6068293"},{"town":"北白川別当町","koaza":"","lat":35.031242,"lng":135.79088,"zip":"6068276"},{"town":"北白川丸山町","koaza":"","lat":35.031045,"lng":135.798181,"zip":"6068281"},{"town":"北白川南ケ原町","koaza":"","lat":35.027065,"lng":135.814556,"zip":"6068453"},{"town":"北白川向ケ谷町","koaza":"","lat":35.025761,"lng":135.818147,"zip":"6068454"},{"town":"北白川山田町","koaza":"","lat":35.03513,"lng":135.793803,"zip":"6068272"},{"town":"北白川山ノ元町","koaza":"","lat":35.033171,"lng":135.794987,"zip":"6068273"},{"town":"北白川蓬ケ谷町","koaza":"","lat":35.040602,"lng":135.808307,"zip":"6060000"},{"town":"北門前町","koaza":"","lat":35.012326,"lng":135.778513,"zip":"6068352"},{"town":"銀閣寺町","koaza":"","lat":35.027256,"lng":135.797401,"zip":"6068402"},{"town":"銀閣寺前町","koaza":"","lat":35.028074,"lng":135.793662,"zip":"6068407"},{"town":"久多上の町","koaza":"","lat":35.296523,"lng":135.799426,"zip":"5200465"},{"town":"久多川合町","koaza":"","lat":35.271861,"lng":135.844787,"zip":"5200461"},{"town":"久多下の町","koaza":"","lat":35.247166,"lng":135.831242,"zip":"5200462"},{"town":"久多中の町","koaza":"","lat":35.273522,"lng":135.822949,"zip":"5200464"},{"town":"久多宮の町","koaza":"","lat":35.261338,"lng":135.807813,"zip":"5200463"},{"town":"鞍馬貴船町","koaza":"","lat":35.122061,"lng":135.762088,"zip":"6011112"},{"town":"鞍馬二ノ瀬町","koaza":"","lat":35.122827,"lng":135.749283,"zip":"6011113"},{"town":"鞍馬本町","koaza":"","lat":35.132576,"lng":135.777462,"zip":"6011111"},{"town":"黒谷町","koaza":"","lat":35.019514,"lng":135.788474,"zip":"6068331"},{"town":"讃州寺町","koaza":"","lat":35.010905,"lng":135.77466,"zip":"6068365"},{"town":"鹿ケ谷上宮ノ前町","koaza":"","lat":35.019147,"lng":135.792962,"zip":"6068447"},{"town":"鹿ケ谷栗木谷町","koaza":"","lat":35.021186,"lng":135.803632,"zip":"6068428"},{"town":"鹿ケ谷御所ノ段町","koaza":"","lat":35.022565,"lng":135.797397,"zip":"6068422"},{"town":"鹿ケ谷桜谷町","koaza":"","lat":35.019417,"lng":135.79499,"zip":"6068423"},{"town":"鹿ケ谷下宮ノ前町","koaza":"","lat":35.01745,"lng":135.793167,"zip":"6068431"},{"town":"鹿ケ谷菖蒲谷町","koaza":"","lat":35.01747,"lng":135.815648,"zip":"6060000"},{"town":"鹿ケ谷善気山町","koaza":"","lat":35.024302,"lng":135.79896,"zip":"6060000"},{"town":"鹿ケ谷大黒谷町","koaza":"","lat":35.018557,"lng":135.807093,"zip":"6068442"},{"town":"鹿ケ谷高岸町","koaza":"","lat":35.016182,"lng":135.792466,"zip":"6068432"},{"town":"鹿ケ谷多頂山町","koaza":"","lat":35.023095,"lng":135.799299,"zip":"6060000"},{"town":"鹿ケ谷寺ノ前町","koaza":"","lat":35.020912,"lng":135.794854,"zip":"6068426"},{"town":"鹿ケ谷徳善谷町","koaza":"","lat":35.018689,"lng":135.800106,"zip":"6068441"},{"town":"鹿ケ谷西寺ノ前町","koaza":"","lat":35.020807,"lng":135.793089,"zip":"6068425"},{"town":"鹿ケ谷若王子山町","koaza":"","lat":35.014291,"lng":135.79974,"zip":"6060000"},{"town":"鹿ケ谷不動山町","koaza":"","lat":35.01971,"lng":135.797953,"zip":"6060000"},{"town":"鹿ケ谷法然院町","koaza":"","lat":35.022469,"lng":135.795848,"zip":"6068421"},{"town":"鹿ケ谷法然院西町","koaza":"","lat":35.022218,"lng":135.793544,"zip":"6068427"},{"town":"鹿ケ谷宮ノ前町","koaza":"","lat":35.018812,"lng":135.795955,"zip":"6068424"},{"town":"静市市原町","koaza":"","lat":35.084663,"lng":135.761205,"zip":"6011123"},{"town":"静市静原町","koaza":"","lat":35.118727,"lng":135.794921,"zip":"6011121"},{"town":"静市野中町","koaza":"","lat":35.096122,"lng":135.768109,"zip":"6011122"},{"town":"下鴨泉川町","koaza":"","lat":35.03633,"lng":135.773559,"zip":"6060807"},{"town":"下鴨狗子田町","koaza":"","lat":35.050859,"lng":135.768914,"zip":"6060834"},{"town":"下鴨梅ノ木町","koaza":"","lat":35.045872,"lng":135.771065,"zip":"6060851"},{"town":"下鴨膳部町","koaza":"","lat":35.042387,"lng":135.772448,"zip":"6060815"},{"town":"下鴨上川原町","koaza":"","lat":35.043656,"lng":135.764265,"zip":"6060812"},{"town":"下鴨岸本町","koaza":"","lat":35.046627,"lng":135.773541,"zip":"6060853"},{"town":"下鴨北芝町","koaza":"","lat":35.053221,"lng":135.768955,"zip":"6060842"},{"town":"下鴨北園町","koaza":"","lat":35.047312,"lng":135.769426,"zip":"6060831"},{"town":"下鴨北茶ノ木町","koaza":"","lat":35.054389,"lng":135.771748,"zip":"6060844"},{"town":"下鴨北野々神町","koaza":"","lat":35.051959,"lng":135.771489,"zip":"6060846"},{"town":"下鴨貴船町","koaza":"","lat":35.04238,"lng":135.767281,"zip":"6060813"},{"town":"下鴨神殿町","koaza":"","lat":35.049637,"lng":135.770044,"zip":"6060835"},{"town":"下鴨芝本町","koaza":"","lat":35.042304,"lng":135.769564,"zip":"6060814"},{"town":"下鴨下川原町","koaza":"","lat":35.039787,"lng":135.767631,"zip":"6060803"},{"town":"下鴨高木町","koaza":"","lat":35.043948,"lng":135.776149,"zip":"6060864"},{"town":"下鴨蓼倉町","koaza":"","lat":35.04006,"lng":135.775378,"zip":"6060806"},{"town":"下鴨塚本町","koaza":"","lat":35.045305,"lng":135.775262,"zip":"6060856"},{"town":"下鴨中川原町","koaza":"","lat":35.041532,"lng":135.765712,"zip":"6060811"},{"town":"下鴨西梅ノ木町","koaza":"","lat":35.045171,"lng":135.769351,"zip":"6060825"},{"town":"下鴨西高木町","koaza":"","lat":35.042784,"lng":135.774808,"zip":"6060861"},{"town":"下鴨西林町","koaza":"","lat":35.039022,"lng":135.770578,"zip":"6060817"},{"town":"下鴨西半木町","koaza":"","lat":35.04451,"lng":135.765503,"zip":"6060827"},{"town":"下鴨西本町","koaza":"","lat":35.043904,"lng":135.768861,"zip":"6060826"},{"town":"下鴨萩ケ垣内町","koaza":"","lat":35.049259,"lng":135.768463,"zip":"6060832"},{"town":"下鴨半木町","koaza":"","lat":35.048354,"lng":135.764241,"zip":"6060823"},{"town":"下鴨東梅ノ木町","koaza":"","lat":35.045183,"lng":135.77364,"zip":"6060852"},{"town":"下鴨東岸本町","koaza":"","lat":35.046761,"lng":135.775147,"zip":"6060854"},{"town":"下鴨東高木町","koaza":"","lat":35.042992,"lng":135.776776,"zip":"6060865"},{"town":"下鴨東塚本町","koaza":"","lat":35.045727,"lng":135.776458,"zip":"6060855"},{"town":"下鴨東半木町","koaza":"","lat":35.044894,"lng":135.767395,"zip":"6060824"},{"town":"下鴨東本町","koaza":"","lat":35.043841,"lng":135.773779,"zip":"6060863"},{"town":"下鴨東森ケ前町","koaza":"","lat":35.042596,"lng":135.778304,"zip":"6060866"},{"town":"下鴨本町","koaza":"","lat":35.04382,"lng":135.771511,"zip":"6060862"},{"town":"下鴨前萩町","koaza":"","lat":35.050384,"lng":135.767895,"zip":"6060833"},{"town":"下鴨松ノ木町","koaza":"","lat":35.040466,"lng":135.771243,"zip":"6060816"},{"town":"下鴨松原町","koaza":"","lat":35.036229,"lng":135.770692,"zip":"6060804"},{"town":"下鴨水口町","koaza":"","lat":35.054477,"lng":135.768901,"zip":"6060843"},{"town":"下鴨南芝町","koaza":"","lat":35.052041,"lng":135.769035,"zip":"6060841"},{"town":"下鴨南茶ノ木町","koaza":"","lat":35.05323,"lng":135.77177,"zip":"6060845"},{"town":"下鴨南野々神町","koaza":"","lat":35.050955,"lng":135.771405,"zip":"6060847"},{"town":"下鴨宮河町","koaza":"","lat":35.031871,"lng":135.771673,"zip":"6060801"},{"town":"下鴨宮崎町","koaza":"","lat":35.035663,"lng":135.769107,"zip":"6060802"},{"town":"下鴨森ケ前町","koaza":"","lat":35.041711,"lng":135.77663,"zip":"6060867"},{"town":"下鴨森本町","koaza":"","lat":35.036783,"lng":135.77135,"zip":"6060805"},{"town":"下鴨夜光町","koaza":"","lat":35.049103,"lng":135.772028,"zip":"6060837"},{"town":"下鴨梁田町","koaza":"","lat":35.050022,"lng":135.771999,"zip":"6060836"},{"town":"下堤町","koaza":"","lat":35.016435,"lng":135.772233,"zip":"6068396"},{"town":"修学院安養坊","koaza":"","lat":35.055012,"lng":135.800725,"zip":"6068045"},{"town":"修学院石掛町","koaza":"","lat":35.05172,"lng":135.798326,"zip":"6068074"},{"town":"修学院泉殿町","koaza":"","lat":35.054169,"lng":135.797211,"zip":"6068042"},{"town":"修学院犬塚町","koaza":"","lat":35.051274,"lng":135.793768,"zip":"6068083"},{"town":"修学院牛ケ額","koaza":"","lat":35.063151,"lng":135.824789,"zip":"6060000"},{"town":"修学院梅谷","koaza":"","lat":35.05666,"lng":135.811345,"zip":"6060000"},{"town":"修学院大林町","koaza":"","lat":35.048672,"lng":135.792046,"zip":"6068081"},{"town":"修学院沖殿町","koaza":"","lat":35.05263,"lng":135.793544,"zip":"6068021"},{"town":"修学院音羽谷","koaza":"","lat":35.053605,"lng":135.808385,"zip":"6060000"},{"town":"修学院開根坊町","koaza":"","lat":35.055959,"lng":135.800698,"zip":"6068036"},{"town":"修学院貝原町","koaza":"","lat":35.054716,"lng":135.797991,"zip":"6068043"},{"town":"修学院桂谷","koaza":"","lat":35.05927,"lng":135.812703,"zip":"6060000"},{"town":"修学院月輪寺町","koaza":"","lat":35.050301,"lng":135.801419,"zip":"6068065"},{"town":"修学院鹿ノ下町","koaza":"","lat":35.050185,"lng":135.792402,"zip":"6068082"},{"town":"修学院烏丸町","koaza":"","lat":35.052926,"lng":135.798584,"zip":"6068047"},{"town":"修学院川尻町","koaza":"","lat":35.053131,"lng":135.795587,"zip":"6068026"},{"town":"修学院北沮沢町","koaza":"","lat":35.056469,"lng":135.798156,"zip":"6068032"},{"town":"修学院後安堂","koaza":"","lat":35.052005,"lng":135.799998,"zip":"6068063"},{"town":"修学院尺羅ケ谷四明ケ嶽","koaza":"","lat":35.066395,"lng":135.829623,"zip":"6060000"},{"town":"修学院十権寺町","koaza":"","lat":35.048264,"lng":135.793863,"zip":"6068086"},{"town":"修学院守禅庵","koaza":"","lat":35.058823,"lng":135.802611,"zip":"6068035"},{"town":"修学院水上田町","koaza":"","lat":35.055163,"lng":135.79379,"zip":"6068023"},{"town":"修学院杉谷","koaza":"","lat":35.058114,"lng":135.817139,"zip":"6060000"},{"town":"修学院赤山","koaza":"","lat":35.055454,"lng":135.804957,"zip":"6060000"},{"town":"修学院千万田町","koaza":"","lat":35.056927,"lng":135.794033,"zip":"6068024"},{"town":"修学院大道町","koaza":"","lat":35.055693,"lng":135.798854,"zip":"6068037"},{"town":"修学院高岸町","koaza":"","lat":35.053941,"lng":135.801905,"zip":"6068055"},{"town":"修学院高部町","koaza":"","lat":35.05399,"lng":135.793261,"zip":"6068022"},{"town":"修学院段ノ尾","koaza":"","lat":35.057168,"lng":135.819626,"zip":"6060000"},{"town":"修学院茶屋ノ前町","koaza":"","lat":35.051968,"lng":135.796909,"zip":"6068073"},{"town":"修学院辻ノ田町","koaza":"","lat":35.050963,"lng":135.801669,"zip":"6068064"},{"town":"修学院坪江町","koaza":"","lat":35.050488,"lng":135.798012,"zip":"6068075"},{"town":"修学院寺谷","koaza":"","lat":35.05962,"lng":135.806703,"zip":"6060000"},{"town":"修学院中新開","koaza":"","lat":35.052622,"lng":135.800417,"zip":"6068051"},{"town":"修学院中林町","koaza":"","lat":35.049366,"lng":135.793809,"zip":"6068085"},{"town":"修学院西沮沢町","koaza":"","lat":35.055522,"lng":135.797395,"zip":"6068031"},{"town":"修学院登リ内町","koaza":"","lat":35.050785,"lng":135.796318,"zip":"6068072"},{"town":"修学院狭間町","koaza":"","lat":35.049392,"lng":135.796132,"zip":"6068071"},{"town":"修学院馬場脇町","koaza":"","lat":35.05513,"lng":135.799351,"zip":"6068044"},{"town":"修学院林ノ脇","koaza":"","lat":35.052063,"lng":135.80269,"zip":"6068057"},{"town":"修学院檜峠町","koaza":"","lat":35.058595,"lng":135.801174,"zip":"6060000"},{"town":"修学院淵ケ谷","koaza":"","lat":35.056378,"lng":135.816208,"zip":"6060000"},{"town":"修学院仏者町","koaza":"","lat":35.053155,"lng":135.797321,"zip":"6068041"},{"town":"修学院松本町","koaza":"","lat":35.053125,"lng":135.802457,"zip":"6068056"},{"town":"修学院丸子青良ケ谷","koaza":"","lat":35.062653,"lng":135.820377,"zip":"6060000"},{"town":"修学院水川原町","koaza":"","lat":35.052184,"lng":135.795341,"zip":"6068027"},{"town":"修学院南代","koaza":"","lat":35.050835,"lng":135.799466,"zip":"6068062"},{"town":"修学院宮ノ前","koaza":"","lat":35.055006,"lng":135.801893,"zip":"6068053"},{"town":"修学院宮ノ脇町","koaza":"","lat":35.049693,"lng":135.798968,"zip":"6068061"},{"town":"修学院室町","koaza":"","lat":35.053945,"lng":135.799796,"zip":"6068046"},{"town":"修学院薬師堂町","koaza":"","lat":35.050646,"lng":135.794839,"zip":"6068084"},{"town":"修学院藪添","koaza":"","lat":35.053277,"lng":135.800826,"zip":"6060000"},{"town":"修学院山神町","koaza":"","lat":35.054305,"lng":135.802066,"zip":"6068054"},{"town":"修学院山添町","koaza":"","lat":35.056923,"lng":135.799376,"zip":"6068033"},{"town":"修学院山ノ鼻町","koaza":"","lat":35.054242,"lng":135.795341,"zip":"6068025"},{"town":"修学院横山","koaza":"","lat":35.056869,"lng":135.796347,"zip":"6060000"},{"town":"正往寺町","koaza":"","lat":35.012777,"lng":135.776962,"zip":"6068353"},{"town":"聖護院円頓美町","koaza":"","lat":35.017453,"lng":135.780861,"zip":"6068323"},{"town":"聖護院川原町","koaza":"","lat":35.019185,"lng":135.774982,"zip":"6068397"},{"town":"聖護院山王町","koaza":"","lat":35.017429,"lng":135.778768,"zip":"6068392"},{"town":"聖護院中町","koaza":"","lat":35.019457,"lng":135.78089,"zip":"6068324"},{"town":"聖護院西町","koaza":"","lat":35.019432,"lng":135.779261,"zip":"6068391"},{"town":"聖護院東寺領町","koaza":"","lat":35.015763,"lng":135.773811,"zip":"6068394"},{"town":"聖護院東町","koaza":"","lat":35.019715,"lng":135.782302,"zip":"6068325"},{"town":"聖護院蓮華蔵町","koaza":"","lat":35.01506,"lng":135.776562,"zip":"6068357"},{"town":"浄土寺石橋町","koaza":"","lat":35.02689,"lng":135.793924,"zip":"6068406"},{"town":"浄土寺打越町","koaza":"","lat":35.02524,"lng":135.808449,"zip":"6060000"},{"town":"浄土寺大山町","koaza":"","lat":35.026665,"lng":135.802131,"zip":"6060000"},{"town":"浄土寺上馬場町","koaza":"","lat":35.025158,"lng":135.790834,"zip":"6068416"},{"town":"浄土寺上南田町","koaza":"","lat":35.025318,"lng":135.795032,"zip":"6068405"},{"town":"浄土寺広帖町","koaza":"","lat":35.024064,"lng":135.812205,"zip":"6060000"},{"town":"浄土寺小山町","koaza":"","lat":35.028608,"lng":135.796417,"zip":"6068401"},{"town":"浄土寺下馬場町","koaza":"","lat":35.0233,"lng":135.791022,"zip":"6068413"},{"town":"浄土寺下南田町","koaza":"","lat":35.023442,"lng":135.794673,"zip":"6068404"},{"town":"浄土寺真如町","koaza":"","lat":35.021216,"lng":135.789875,"zip":"6068414"},{"town":"浄土寺提灯山町","koaza":"","lat":35.024831,"lng":135.800174,"zip":"6060000"},{"town":"浄土寺七廻リ町","koaza":"","lat":35.023777,"lng":135.804517,"zip":"6060000"},{"town":"浄土寺西田町","koaza":"","lat":35.027485,"lng":135.790491,"zip":"6068417"},{"town":"浄土寺馬場町","koaza":"","lat":35.024009,"lng":135.7928,"zip":"6068412"},{"town":"浄土寺東田町","koaza":"","lat":35.02669,"lng":135.792131,"zip":"6068411"},{"town":"浄土寺南田町","koaza":"","lat":35.025256,"lng":135.797295,"zip":"6068403"},{"town":"新生洲町","koaza":"","lat":35.014523,"lng":135.77215,"zip":"6068384"},{"town":"新車屋町","koaza":"","lat":35.01275,"lng":135.77467,"zip":"6068375"},{"town":"新東洞院町","koaza":"","lat":35.012756,"lng":135.775245,"zip":"6068355"},{"town":"新先斗町","koaza":"","lat":35.014099,"lng":135.772904,"zip":"6068383"},{"town":"新丸太町","koaza":"","lat":35.011205,"lng":135.773266,"zip":"6068386"},{"town":"杉本町","koaza":"","lat":35.014133,"lng":135.774532,"zip":"6068373"},{"town":"大文字町","koaza":"","lat":35.014474,"lng":135.77348,"zip":"6068382"},{"town":"高野泉町","koaza":"","lat":35.047417,"lng":135.785112,"zip":"6068111"},{"town":"高野上竹屋町","koaza":"","lat":35.043897,"lng":135.782356,"zip":"6068105"},{"town":"高野清水町","koaza":"","lat":35.037148,"lng":135.777355,"zip":"6068102"},{"town":"高野竹屋町","koaza":"","lat":35.042732,"lng":135.781,"zip":"6068104"},{"town":"高野蓼原町","koaza":"","lat":35.035151,"lng":135.776131,"zip":"6068101"},{"town":"高野玉岡町","koaza":"","lat":35.045284,"lng":135.783315,"zip":"6068106"},{"town":"高野西開町","koaza":"","lat":35.040149,"lng":135.778618,"zip":"6068103"},{"town":"高野東開町","koaza":"","lat":35.039456,"lng":135.780894,"zip":"6068107"},{"town":"田中飛鳥井町","koaza":"","lat":35.031975,"lng":135.779983,"zip":"6068226"},{"town":"田中大堰町","koaza":"","lat":35.03063,"lng":135.777616,"zip":"6068202"},{"town":"田中大久保町","koaza":"","lat":35.036097,"lng":135.782369,"zip":"6068236"},{"town":"田中上大久保町","koaza":"","lat":35.037695,"lng":135.783013,"zip":"6068237"},{"town":"田中上玄京町","koaza":"","lat":35.033652,"lng":135.777626,"zip":"6068215"},{"town":"田中上古川町","koaza":"","lat":35.039761,"lng":135.783829,"zip":"6068231"},{"town":"田中上柳町","koaza":"","lat":35.031147,"lng":135.7739,"zip":"6068205"},{"town":"田中北春菜町","koaza":"","lat":35.037562,"lng":135.784641,"zip":"6068233"},{"town":"田中玄京町","koaza":"","lat":35.03233,"lng":135.776981,"zip":"6068201"},{"town":"田中里ノ内町","koaza":"","lat":35.034277,"lng":135.781032,"zip":"6068212"},{"town":"田中里ノ前町","koaza":"","lat":35.033006,"lng":135.781055,"zip":"6068227"},{"town":"田中下柳町","koaza":"","lat":35.028843,"lng":135.772877,"zip":"6068204"},{"town":"田中関田町","koaza":"","lat":35.028622,"lng":135.775931,"zip":"6068203"},{"town":"田中高原町","koaza":"","lat":35.03704,"lng":135.786448,"zip":"6068242"},{"town":"田中西浦町","koaza":"","lat":35.036324,"lng":135.779444,"zip":"6068217"},{"town":"田中西大久保町","koaza":"","lat":35.03661,"lng":135.780948,"zip":"6068211"},{"town":"田中西高原町","koaza":"","lat":35.037037,"lng":135.785429,"zip":"6068241"},{"town":"田中西春菜町","koaza":"","lat":35.035487,"lng":135.783274,"zip":"6068235"},{"town":"田中西樋ノ口町","koaza":"","lat":35.034037,"lng":135.782915,"zip":"6068221"},{"town":"田中野神町","koaza":"","lat":35.033651,"lng":135.779365,"zip":"6068213"},{"town":"田中馬場町","koaza":"","lat":35.032688,"lng":135.774966,"zip":"6068206"},{"town":"田中春菜町","koaza":"","lat":35.035366,"lng":135.784341,"zip":"6068234"},{"town":"田中東高原町","koaza":"","lat":35.037008,"lng":135.787461,"zip":"6068243"},{"town":"田中東春菜町","koaza":"","lat":35.035318,"lng":135.785334,"zip":"6068247"},{"town":"田中東樋ノ口町","koaza":"","lat":35.03375,"lng":135.785277,"zip":"6068223"},{"town":"田中樋ノ口町","koaza":"","lat":35.033826,"lng":135.78427,"zip":"6068222"},{"town":"田中古川町","koaza":"","lat":35.038719,"lng":135.783392,"zip":"6068232"},{"town":"田中南大久保町","koaza":"","lat":35.034981,"lng":135.780195,"zip":"6068214"},{"town":"田中南西浦町","koaza":"","lat":35.03488,"lng":135.777953,"zip":"6068216"},{"town":"田中門前町","koaza":"","lat":35.02997,"lng":135.780152,"zip":"6068225"},{"town":"超勝寺門前町","koaza":"","lat":35.010024,"lng":135.774229,"zip":"6068366"},{"town":"中川町","koaza":"","lat":35.014904,"lng":135.773692,"zip":"6068381"},{"town":"南禅寺北ノ坊町","koaza":"","lat":35.01678,"lng":135.794714,"zip":"6068446"},{"town":"南禅寺草川町","koaza":"","lat":35.012011,"lng":135.789013,"zip":"6068437"},{"town":"南禅寺下河原町","koaza":"","lat":35.014098,"lng":135.791889,"zip":"6068434"},{"town":"南禅寺南禅寺山町","koaza":"","lat":35.011192,"lng":135.796049,"zip":"6060000"},{"town":"南禅寺福地町","koaza":"","lat":35.010802,"lng":135.791976,"zip":"6068435"},{"town":"南禅寺風呂山町","koaza":"","lat":35.009615,"lng":135.794213,"zip":"6060000"},{"town":"難波町","koaza":"","lat":35.014062,"lng":135.774014,"zip":"6068374"},{"town":"若王子町","koaza":"","lat":35.015548,"lng":135.795557,"zip":"6068444"},{"town":"花脊大布施町","koaza":"","lat":35.204472,"lng":135.778251,"zip":"6011104"},{"town":"花脊原地町","koaza":"","lat":35.236151,"lng":135.791879,"zip":"6011102"},{"town":"花脊別所町","koaza":"","lat":35.173209,"lng":135.784147,"zip":"6011105"},{"town":"花脊八桝町","koaza":"","lat":35.222846,"lng":135.781063,"zip":"6011103"},{"town":"東竹屋町","koaza":"","lat":35.016798,"lng":135.775967,"zip":"6068393"},{"town":"東丸太町","koaza":"","lat":35.017654,"lng":135.774607,"zip":"6068395"},{"town":"東門前町","koaza":"","lat":35.010849,"lng":135.778462,"zip":"6068345"},{"town":"広河原尾花町","koaza":"","lat":35.274395,"lng":135.740859,"zip":"6060000"},{"town":"広河原下之町","koaza":"","lat":35.269523,"lng":135.756832,"zip":"6060000"},{"town":"広河原杓子屋町","koaza":"","lat":35.249245,"lng":135.762502,"zip":"6060000"},{"town":"広河原菅原町","koaza":"","lat":35.254643,"lng":135.741376,"zip":"6060000"},{"town":"広河原能見町","koaza":"","lat":35.270491,"lng":135.778399,"zip":"6060000"},{"town":"福本町","koaza":"","lat":35.011669,"lng":135.776565,"zip":"6068361"},{"town":"法皇寺町","koaza":"","lat":35.010412,"lng":135.777036,"zip":"6068362"},{"town":"法林寺門前町","koaza":"","lat":35.009891,"lng":135.772809,"zip":"6068387"},{"town":"孫橋町","koaza":"","lat":35.011955,"lng":135.77228,"zip":"6068385"},{"town":"松ケ崎泉川町","koaza":"","lat":35.047397,"lng":135.776297,"zip":"6060911"},{"town":"松ケ崎壱町田町","koaza":"","lat":35.051409,"lng":135.778486,"zip":"6060954"},{"town":"松ケ崎井出ケ海道町","koaza":"","lat":35.051516,"lng":135.776412,"zip":"6060931"},{"town":"松ケ崎井出ケ鼻町","koaza":"","lat":35.056292,"lng":135.790852,"zip":"6060947"},{"town":"松ケ崎今海道町","koaza":"","lat":35.051244,"lng":135.775554,"zip":"6060914"},{"town":"松ケ崎榎実ケ芝","koaza":"","lat":35.060202,"lng":135.776088,"zip":"6060936"},{"town":"松ケ崎大谷","koaza":"","lat":35.059024,"lng":135.773687,"zip":"6060000"},{"town":"松ケ崎海尻町","koaza":"","lat":35.051332,"lng":135.77967,"zip":"6060953"},{"town":"松ケ崎河原田町","koaza":"","lat":35.053151,"lng":135.789625,"zip":"6060941"},{"town":"松ケ崎北裏町","koaza":"","lat":35.059043,"lng":135.780745,"zip":"6060937"},{"town":"松ケ崎狐坂","koaza":"","lat":35.056725,"lng":135.776151,"zip":"6060934"},{"town":"松ケ崎木燈籠町","koaza":"","lat":35.057903,"lng":135.785379,"zip":"6060938"},{"town":"松ケ崎木ノ本町","koaza":"","lat":35.05113,"lng":135.780899,"zip":"6060952"},{"town":"松ケ崎境ケ谷","koaza":"","lat":35.057755,"lng":135.786622,"zip":"6060000"},{"town":"松ケ崎久土町","koaza":"","lat":35.047002,"lng":135.781376,"zip":"6060961"},{"town":"松ケ崎雲路町","koaza":"","lat":35.051673,"lng":135.783294,"zip":"6060955"},{"town":"松ケ崎鞍馬田町","koaza":"","lat":35.050751,"lng":135.783295,"zip":"6060956"},{"town":"松ケ崎御所海道町","koaza":"","lat":35.049281,"lng":135.780999,"zip":"6060962"},{"town":"松ケ崎御所ノ内町","koaza":"","lat":35.053009,"lng":135.783861,"zip":"6060944"},{"town":"松ケ崎小竹藪町","koaza":"","lat":35.047932,"lng":135.783576,"zip":"6060000"},{"town":"松ケ崎小脇町","koaza":"","lat":35.050632,"lng":135.78582,"zip":"6060957"},{"town":"松ケ崎桜木町","koaza":"","lat":35.044507,"lng":135.778549,"zip":"6060902"},{"town":"松ケ崎笹ケ谷","koaza":"","lat":35.057014,"lng":135.781837,"zip":"6060000"},{"town":"松ケ崎三反長町","koaza":"","lat":35.049486,"lng":135.775882,"zip":"6060916"},{"town":"松ケ崎芝本町","koaza":"","lat":35.05167,"lng":135.773685,"zip":"6060913"},{"town":"松ケ崎修理式町","koaza":"","lat":35.049337,"lng":135.778574,"zip":"6060964"},{"town":"松ケ崎丈ケ谷","koaza":"","lat":35.05837,"lng":135.783562,"zip":"6060000"},{"town":"松ケ崎正田町","koaza":"","lat":35.048319,"lng":135.782555,"zip":"6060966"},{"town":"松ケ崎城山","koaza":"","lat":35.057302,"lng":135.788417,"zip":"6060000"},{"town":"松ケ崎杉ケ海道町","koaza":"","lat":35.047438,"lng":135.779877,"zip":"6060905"},{"town":"松ケ崎千石岩","koaza":"","lat":35.058918,"lng":135.789272,"zip":"6060000"},{"town":"松ケ崎総作町","koaza":"","lat":35.053938,"lng":135.775171,"zip":"6060923"},{"town":"松ケ崎高山","koaza":"","lat":35.05902,"lng":135.77796,"zip":"6060935"},{"town":"松ケ崎糺田町","koaza":"","lat":35.049322,"lng":135.779805,"zip":"6060963"},{"town":"松ケ崎堂ノ上町","koaza":"","lat":35.047931,"lng":135.778058,"zip":"6060917"},{"town":"松ケ崎中海道町","koaza":"","lat":35.046339,"lng":135.779443,"zip":"6060906"},{"town":"松ケ崎中町","koaza":"","lat":35.052495,"lng":135.779918,"zip":"6060926"},{"town":"松ケ崎西池ノ内町","koaza":"","lat":35.054046,"lng":135.773686,"zip":"6060932"},{"town":"松ケ崎西桜木町","koaza":"","lat":35.045185,"lng":135.777523,"zip":"6060903"},{"town":"松ケ崎西町","koaza":"","lat":35.052929,"lng":135.778336,"zip":"6060927"},{"town":"松ケ崎西山","koaza":"","lat":35.055922,"lng":135.772705,"zip":"6060933"},{"town":"松ケ崎寝子ケ山","koaza":"","lat":35.061249,"lng":135.779915,"zip":"6060000"},{"town":"松ケ崎橋上町","koaza":"","lat":35.049765,"lng":135.783343,"zip":"6060951"},{"town":"松ケ崎林山","koaza":"","lat":35.054526,"lng":135.778616,"zip":"6060925"},{"town":"松ケ崎東池ノ内町","koaza":"","lat":35.054214,"lng":135.776605,"zip":"6060924"},{"town":"松ケ崎東桜木町","koaza":"","lat":35.044143,"lng":135.779744,"zip":"6060901"},{"town":"松ケ崎東町","koaza":"","lat":35.053105,"lng":135.785752,"zip":"6060943"},{"town":"松ケ崎東山","koaza":"","lat":35.055418,"lng":135.784403,"zip":"6060946"},{"town":"松ケ崎樋ノ上町","koaza":"","lat":35.053204,"lng":135.788156,"zip":"6060942"},{"town":"松ケ崎平田町","koaza":"","lat":35.053049,"lng":135.77691,"zip":"6060921"},{"town":"松ケ崎堀町","koaza":"","lat":35.053351,"lng":135.782067,"zip":"6060945"},{"town":"松ケ崎丸子","koaza":"","lat":35.056177,"lng":135.779267,"zip":"6060000"},{"town":"松ケ崎深泥池端","koaza":"","lat":35.056915,"lng":135.771949,"zip":"6060000"},{"town":"松ケ崎南池ノ内町","koaza":"","lat":35.053135,"lng":135.774693,"zip":"6060922"},{"town":"松ケ崎村ケ内町","koaza":"","lat":35.045683,"lng":135.77969,"zip":"6060907"},{"town":"松ケ崎柳井田町","koaza":"","lat":35.046673,"lng":135.777759,"zip":"6060904"},{"town":"松ケ崎横縄手町","koaza":"","lat":35.049383,"lng":135.777354,"zip":"6060965"},{"town":"松ケ崎呼返町","koaza":"","lat":35.049144,"lng":135.774208,"zip":"6060912"},{"town":"松ケ崎六ノ坪町","koaza":"","lat":35.051304,"lng":135.777186,"zip":"6060915"},{"town":"南門前町","koaza":"","lat":35.010058,"lng":135.778409,"zip":"6068346"},{"town":"八瀬秋元町","koaza":"","lat":35.078876,"lng":135.827559,"zip":"6011252"},{"town":"八瀬近衛町","koaza":"","lat":35.084801,"lng":135.81262,"zip":"6011253"},{"town":"八瀬野瀬町","koaza":"","lat":35.071404,"lng":135.80977,"zip":"6060068"},{"town":"八瀬花尻町","koaza":"","lat":35.096921,"lng":135.827213,"zip":"6011251"},{"town":"山端壱町田町","koaza":"","lat":35.050605,"lng":135.791218,"zip":"6068007"},{"town":"山端大君町","koaza":"","lat":35.055004,"lng":135.792297,"zip":"6068013"},{"town":"山端大塚町","koaza":"","lat":35.055959,"lng":135.792305,"zip":"6068014"},{"town":"山端川岸町","koaza":"","lat":35.053442,"lng":135.790663,"zip":"6068005"},{"town":"山端川端町","koaza":"","lat":35.050146,"lng":135.788305,"zip":"6068004"},{"town":"山端川原町","koaza":"","lat":35.050065,"lng":135.78963,"zip":"6068003"},{"town":"山端大城田町","koaza":"","lat":35.048481,"lng":135.788504,"zip":"6068002"},{"town":"山端滝ケ鼻町","koaza":"","lat":35.054027,"lng":135.791969,"zip":"6068012"},{"town":"山端橋ノ本町","koaza":"","lat":35.051451,"lng":135.791388,"zip":"6068006"},{"town":"山端森本町","koaza":"","lat":35.052627,"lng":135.79183,"zip":"6068011"},{"town":"山端柳ケ坪町","koaza":"","lat":35.048903,"lng":135.790628,"zip":"6068001"},{"town":"吉田泉殿町","koaza":"","lat":35.027418,"lng":135.776726,"zip":"6068301"},{"town":"吉田牛ノ宮町","koaza":"","lat":35.025349,"lng":135.777508,"zip":"6068302"},{"town":"吉田神楽岡町","koaza":"","lat":35.025755,"lng":135.787151,"zip":"6068311"},{"town":"吉田上阿達町","koaza":"","lat":35.026361,"lng":135.773819,"zip":"6068307"},{"town":"吉田上大路町","koaza":"","lat":35.024596,"lng":135.783182,"zip":"6068312"},{"town":"吉田河原町","koaza":"","lat":35.024098,"lng":135.772856,"zip":"6068305"},{"town":"吉田近衛町","koaza":"","lat":35.021565,"lng":135.780272,"zip":"6068315"},{"town":"吉田下阿達町","koaza":"","lat":35.021768,"lng":135.773699,"zip":"6068304"},{"town":"吉田下大路町","koaza":"","lat":35.021921,"lng":135.784011,"zip":"6068314"},{"town":"吉田橘町","koaza":"","lat":35.022768,"lng":135.777436,"zip":"6068303"},{"town":"吉田中阿達町","koaza":"","lat":35.02482,"lng":135.775244,"zip":"6068306"},{"town":"吉田中大路町","koaza":"","lat":35.023009,"lng":135.783546,"zip":"6068313"},{"town":"吉田二本松町","koaza":"","lat":35.023706,"lng":135.780238,"zip":"6068316"},{"town":"吉田本町","koaza":"","lat":35.026964,"lng":135.781961,"zip":"6068317"},{"town":"吉永町","koaza":"","lat":35.014056,"lng":135.77492,"zip":"6068372"},{"town":"和国町","koaza":"","lat":35.010908,"lng":135.775836,"zip":"6068363"},{"town":"一乗寺燈篭本町","koaza":"","lat":35.045741,"lng":135.795465,"zip":"6060000"}]