[{"town":"相之町","koaza":"","lat":35.002973,"lng":135.764009,"zip":"6008071"},{"town":"悪王子町","koaza":"","lat":34.996997,"lng":135.759624,"zip":"6008410"},{"town":"朝妻町","koaza":"","lat":34.997064,"lng":135.761822,"zip":"6008407"},{"town":"芦刈山町","koaza":"","lat":35.002472,"lng":135.754406,"zip":"6008473"},{"town":"新シ町","koaza":"","lat":34.989635,"lng":135.757709,"zip":"6008308"},{"town":"安土町","koaza":"","lat":34.997042,"lng":135.766168,"zip":"6008040"},{"town":"油小路町","koaza":"","lat":34.988309,"lng":135.753716,"zip":"6008231"},{"town":"飴屋町","koaza":"","lat":34.98987,"lng":135.761086,"zip":"6008148"},{"town":"綾大宮町","koaza":"","lat":35.001973,"lng":135.748808,"zip":"6008383"},{"town":"綾材木町","koaza":"","lat":35.002568,"lng":135.763288,"zip":"6008072"},{"town":"綾西洞院町","koaza":"","lat":35.001859,"lng":135.755128,"zip":"6008474"},{"town":"綾堀川町","koaza":"","lat":35.00186,"lng":135.752123,"zip":"6008482"},{"town":"石井筒町","koaza":"","lat":35.003043,"lng":135.753735,"zip":"6008496"},{"town":"石不動之町","koaza":"","lat":34.998976,"lng":135.766137,"zip":"6008047"},{"town":"和泉町","koaza":"","lat":34.994686,"lng":135.761062,"zip":"6008188"},{"town":"和泉屋町","koaza":"","lat":35.000312,"lng":135.769436,"zip":"6008014"},{"town":"伊勢松町","koaza":"","lat":34.987527,"lng":135.751429,"zip":"6008254"},{"town":"市之町","koaza":"","lat":35.001699,"lng":135.769403,"zip":"6008018"},{"town":"井筒町","koaza":"","lat":34.990285,"lng":135.756063,"zip":"6008318"},{"town":"糸屋町","koaza":"","lat":35.001267,"lng":135.757426,"zip":"6008432"},{"town":"因幡堂町","koaza":"","lat":34.999533,"lng":135.760178,"zip":"6008415"},{"town":"稲荷町","koaza":"","lat":34.989228,"lng":135.766571,"zip":"6008022"},{"town":"乾町","koaza":"","lat":34.993347,"lng":135.7575,"zip":"6008166"},{"town":"今大黒町","koaza":"","lat":35.0006,"lng":135.749865,"zip":"6008384"},{"town":"岩滝町","koaza":"","lat":34.993451,"lng":135.766134,"zip":"6008115"},{"town":"岩戸山町","koaza":"","lat":35.000671,"lng":135.75673,"zip":"6008445"},{"town":"植松町","koaza":"","lat":34.991403,"lng":135.755,"zip":"6008028"},{"town":"艮町","koaza":"","lat":34.993486,"lng":135.756711,"zip":"6008304"},{"town":"打越町","koaza":"","lat":34.991831,"lng":135.761877,"zip":"6008151"},{"town":"梅小路石橋町","koaza":"","lat":34.98612,"lng":135.734745,"zip":"6008855"},{"town":"梅小路頭町","koaza":"","lat":34.985228,"lng":135.740596,"zip":"6008851"},{"town":"梅小路高畑町","koaza":"","lat":34.983371,"lng":135.735713,"zip":"6008853"},{"town":"梅小路西中町","koaza":"","lat":34.984763,"lng":135.734754,"zip":"6008854"},{"town":"梅小路東中町","koaza":"","lat":34.984815,"lng":135.737019,"zip":"6008852"},{"town":"梅小路東町","koaza":"","lat":34.985983,"lng":135.739174,"zip":"6008857"},{"town":"梅小路本町","koaza":"","lat":34.985877,"lng":135.737171,"zip":"6008856"},{"town":"梅湊町","koaza":"","lat":34.992901,"lng":135.765194,"zip":"6008127"},{"town":"裏片町","koaza":"","lat":34.992502,"lng":135.747785,"zip":"6008822"},{"town":"永養寺町","koaza":"","lat":35.000173,"lng":135.754449,"zip":"6008463"},{"town":"榎木町","koaza":"","lat":34.99081,"lng":135.761869,"zip":"6008154"},{"town":"蛭子町","koaza":"","lat":34.995002,"lng":135.75709,"zip":"6008302"},{"town":"夷之町","koaza":"","lat":34.993684,"lng":135.761827,"zip":"6008183"},{"town":"恵美須之町","koaza":"","lat":35.000781,"lng":135.767255,"zip":"6008033"},{"town":"夷馬場町","koaza":"","lat":34.990325,"lng":135.745273,"zip":"6008837"},{"town":"蛭子水町","koaza":"","lat":34.991505,"lng":135.755598,"zip":"6008328"},{"town":"恵美須屋町","koaza":"","lat":34.999607,"lng":135.76476,"zip":"6008062"},{"town":"大江町","koaza":"","lat":34.998273,"lng":135.761018,"zip":"6008402"},{"town":"扇酒屋町","koaza":"","lat":35.00191,"lng":135.760968,"zip":"6008095"},{"town":"大坂町","koaza":"","lat":34.99509,"lng":135.759675,"zip":"6008177"},{"town":"大津町","koaza":"","lat":34.995685,"lng":135.761814,"zip":"6008181"},{"town":"大堀町","koaza":"","lat":34.997663,"lng":135.760252,"zip":"6008419"},{"town":"大政所町","koaza":"","lat":35.000751,"lng":135.759512,"zip":"6008413"},{"town":"大宮一丁目","koaza":"","lat":34.993602,"lng":135.748991,"zip":"6008363"},{"town":"大宮二丁目","koaza":"","lat":34.991814,"lng":135.749118,"zip":"6008363"},{"town":"大宮三丁目","koaza":"","lat":34.99079,"lng":135.749144,"zip":"6008363"},{"town":"大宮町","koaza":"","lat":34.98964,"lng":135.765669,"zip":"6008138"},{"town":"御旅町","koaza":"","lat":35.003661,"lng":135.76826,"zip":"6008002"},{"town":"御旅宮本町","koaza":"","lat":35.003776,"lng":135.767302,"zip":"6008003"},{"town":"小田原町","koaza":"","lat":34.997146,"lng":135.757447,"zip":"6008430"},{"town":"皆山町","koaza":"","lat":34.990017,"lng":135.762656,"zip":"6008145"},{"town":"垣ケ内町","koaza":"","lat":34.985952,"lng":135.749386,"zip":"6008246"},{"town":"柿本町","koaza":"","lat":34.995723,"lng":135.750896,"zip":"6008357"},{"town":"鍵屋町","koaza":"","lat":34.991731,"lng":135.766261,"zip":"6008057"},{"town":"学林町","koaza":"","lat":34.993411,"lng":135.754468,"zip":"6008341"},{"town":"風早町","koaza":"","lat":35.001814,"lng":135.753717,"zip":"6008475"},{"town":"傘鉾町","koaza":"","lat":35.003702,"lng":135.754494,"zip":"6008494"},{"town":"鍛冶屋町","koaza":"","lat":34.998182,"lng":135.763326,"zip":"6008079"},{"town":"柏屋町","koaza":"","lat":35.003679,"lng":135.753096,"zip":"6008066"},{"town":"堅田町","koaza":"","lat":34.997742,"lng":135.763192,"zip":"6008049"},{"town":"郭巨山町","koaza":"","lat":35.003744,"lng":135.755921,"zip":"6008493"},{"town":"金屋町","koaza":"","lat":34.994427,"lng":135.755364,"zip":"6008323"},{"town":"金換町","koaza":"","lat":34.9873,"lng":135.750746,"zip":"6008258"},{"town":"鎌屋町","koaza":"","lat":34.988333,"lng":135.752609,"zip":"6008239"},{"town":"上鱗形町","koaza":"","lat":34.99821,"lng":135.765479,"zip":"6008058"},{"town":"上夷町","koaza":"","lat":34.986416,"lng":135.750845,"zip":"6008242"},{"town":"上金仏町","koaza":"","lat":34.997046,"lng":135.753607,"zip":"6008457"},{"town":"上糀屋町","koaza":"","lat":34.987649,"lng":135.750077,"zip":"6008259"},{"town":"上五条町","koaza":"","lat":34.997852,"lng":135.748961,"zip":"6008377"},{"town":"上三之宮町","koaza":"","lat":34.990884,"lng":135.766028,"zip":"6008135"},{"town":"上珠数屋町","koaza":"","lat":34.992163,"lng":135.760468,"zip":"6008150"},{"town":"上錫屋町","koaza":"","lat":34.994952,"lng":135.755933,"zip":"6008312"},{"town":"上諏訪町","koaza":"","lat":34.995893,"lng":135.758906,"zip":"6008170"},{"town":"上長福寺町","koaza":"","lat":34.99815,"lng":135.748378,"zip":"6008376"},{"town":"上中之町","koaza":"","lat":34.987283,"lng":135.749343,"zip":"6008248"},{"town":"上二之宮町","koaza":"","lat":34.991018,"lng":135.766667,"zip":"6008131"},{"town":"上之町","koaza":"","lat":34.988246,"lng":135.749288,"zip":"6008266"},{"town":"上平野町","koaza":"","lat":34.995479,"lng":135.760377,"zip":"6008171"},{"town":"上柳町","koaza":"","lat":34.995568,"lng":135.757529,"zip":"6008099"},{"town":"上若宮町","koaza":"","lat":34.994437,"lng":135.755951,"zip":"6008313"},{"town":"亀町","koaza":"","lat":34.991755,"lng":135.760218,"zip":"6008159"},{"town":"亀屋町","koaza":"","lat":34.998212,"lng":135.755956,"zip":"6008406"},{"town":"烏丸二丁目","koaza":"","lat":34.992942,"lng":135.759582,"zip":"6008175"},{"town":"唐津屋町","koaza":"","lat":35.003621,"lng":135.751231,"zip":"6008499"},{"town":"唐物町","koaza":"","lat":34.992824,"lng":135.763312,"zip":"6008197"},{"town":"雁金町","koaza":"","lat":35.000125,"lng":135.764396,"zip":"6008056"},{"town":"川端町","koaza":"","lat":34.988213,"lng":135.751966,"zip":"6008252"},{"town":"観喜寺町","koaza":"","lat":34.987285,"lng":135.744645,"zip":"6008835"},{"town":"函谷鉾町","koaza":"","lat":35.003705,"lng":135.758878,"zip":"6008009"},{"town":"元日町","koaza":"","lat":34.993523,"lng":135.752626,"zip":"6008336"},{"town":"官社殿町","koaza":"","lat":34.997687,"lng":135.762832,"zip":"6008088"},{"town":"菅大臣町","koaza":"","lat":35.001062,"lng":135.755924,"zip":"6008444"},{"town":"菊屋町","koaza":"","lat":34.999486,"lng":135.755975,"zip":"6008121"},{"town":"北小路町","koaza":"","lat":34.990347,"lng":135.75353,"zip":"6008228"},{"town":"北町","koaza":"","lat":34.99374,"lng":135.759622,"zip":"6008176"},{"town":"北不動堂町","koaza":"","lat":34.98754,"lng":135.753719,"zip":"6008233"},{"town":"北門前町","koaza":"","lat":34.99864,"lng":135.75083,"zip":"6008356"},{"town":"吉文字町","koaza":"","lat":34.99952,"lng":135.751318,"zip":"6008069"},{"town":"木津屋町","koaza":"","lat":34.987865,"lng":135.751583,"zip":"6008253"},{"town":"京極町","koaza":"","lat":34.999583,"lng":135.766889,"zip":"6008035"},{"town":"喜吉町","koaza":"","lat":35.001292,"lng":135.753041,"zip":"6008476"},{"town":"金東横町","koaza":"","lat":34.996518,"lng":135.754171,"zip":"6008331"},{"town":"釘隠町","koaza":"","lat":35.001308,"lng":135.758704,"zip":"6008423"},{"town":"小石町","koaza":"","lat":35.003074,"lng":135.763321,"zip":"6008081"},{"town":"小泉町","koaza":"","lat":34.996925,"lng":135.752672,"zip":"6008480"},{"town":"小稲荷町","koaza":"","lat":34.988152,"lng":135.76302,"zip":"6008208"},{"town":"荒神町","koaza":"","lat":35.000809,"lng":135.752719,"zip":"6008460"},{"town":"幸竹町","koaza":"","lat":34.99986,"lng":135.767575,"zip":"6008034"},{"town":"郷之町","koaza":"","lat":34.988205,"lng":135.764487,"zip":"6008209"},{"town":"高野堂町","koaza":"","lat":35.003143,"lng":135.752863,"zip":"6008497"},{"town":"粉川町","koaza":"","lat":34.989759,"lng":135.760348,"zip":"6008149"},{"town":"御器屋町","koaza":"","lat":34.98963,"lng":135.749337,"zip":"6008267"},{"town":"御供石町","koaza":"","lat":34.997641,"lng":135.758928,"zip":"6008429"},{"town":"五軒町","koaza":"","lat":34.999481,"lng":135.752315,"zip":"6008485"},{"town":"小坂町","koaza":"","lat":34.993468,"lng":135.745986,"zip":"6008821"},{"town":"小島町","koaza":"","lat":34.999455,"lng":135.758824,"zip":"6008426"},{"town":"五条烏丸町","koaza":"","lat":34.998268,"lng":135.759536,"zip":"6008418"},{"town":"五坊大宮町","koaza":"","lat":35.000669,"lng":135.74909,"zip":"6008385"},{"town":"米屋町","koaza":"","lat":34.989777,"lng":135.753845,"zip":"6008229"},{"town":"小柳町","koaza":"","lat":34.995458,"lng":135.754963,"zip":"6008322"},{"town":"紺屋町","koaza":"","lat":34.991015,"lng":135.764746,"zip":"6008130"},{"town":"斎藤町","koaza":"","lat":35.00275,"lng":135.770822,"zip":"6008012"},{"town":"材木町","koaza":"","lat":34.997134,"lng":135.75673,"zip":"6008016"},{"town":"堺町","koaza":"","lat":34.992071,"lng":135.753382,"zip":"6008191"},{"town":"栄町","koaza":"","lat":34.993699,"lng":135.76313,"zip":"6008194"},{"town":"下り松町","koaza":"","lat":35.002937,"lng":135.749693,"zip":"6008381"},{"town":"桜木町","koaza":"","lat":34.989531,"lng":135.759694,"zip":"6008210"},{"town":"笹屋町","koaza":"","lat":34.990774,"lng":135.761082,"zip":"6008156"},{"town":"篠屋町","koaza":"","lat":34.998083,"lng":135.752918,"zip":"6008488"},{"town":"佐竹町","koaza":"","lat":35.003052,"lng":135.751191,"zip":"6008391"},{"town":"佐女牛井町","koaza":"","lat":34.994693,"lng":135.752718,"zip":"6008337"},{"town":"晒屋町","koaza":"","lat":35.001229,"lng":135.751145,"zip":"6008394"},{"town":"三軒替地町","koaza":"","lat":34.987221,"lng":135.751294,"zip":"6008257"},{"town":"三軒町","koaza":"","lat":35.000442,"lng":135.76173,"zip":"6008097"},{"town":"山王町","koaza":"","lat":34.991525,"lng":135.765959,"zip":"6008134"},{"town":"塩竈町","koaza":"","lat":34.996214,"lng":135.763753,"zip":"6008103"},{"town":"塩小路町","koaza":"","lat":34.988391,"lng":135.761125,"zip":"6008212"},{"town":"塩屋町","koaza":"","lat":35.001878,"lng":135.749816,"zip":"6008052"},{"town":"四条大宮町","koaza":"","lat":35.003123,"lng":135.748576,"zip":"6008389"},{"town":"四条町","koaza":"","lat":35.00306,"lng":135.756767,"zip":"6008441"},{"town":"四条堀川町","koaza":"","lat":35.003023,"lng":135.752072,"zip":"6008481"},{"town":"七条御所ノ内北町","koaza":"","lat":34.987236,"lng":135.731631,"zip":"6008861"},{"town":"七条御所ノ内中町","koaza":"","lat":34.986037,"lng":135.73165,"zip":"6008862"},{"town":"七条御所ノ内西町","koaza":"","lat":34.986684,"lng":135.72868,"zip":"6008865"},{"town":"七条御所ノ内本町","koaza":"","lat":34.984875,"lng":135.731662,"zip":"6008863"},{"town":"七条御所ノ内南町","koaza":"","lat":34.983561,"lng":135.731869,"zip":"6008864"},{"town":"四本松町","koaza":"","lat":34.991994,"lng":135.755982,"zip":"6008316"},{"town":"清水町","koaza":"","lat":34.98729,"lng":135.751992,"zip":"6008025"},{"town":"志水町","koaza":"","lat":34.986155,"lng":135.75173,"zip":"6008241"},{"town":"下魚棚四丁目","koaza":"","lat":34.988819,"lng":135.751464,"zip":"6008263"},{"town":"下鱗形町","koaza":"","lat":34.996897,"lng":135.76546,"zip":"6008059"},{"town":"下糀屋町","koaza":"","lat":34.98721,"lng":135.750089,"zip":"6008249"},{"town":"下五条町","koaza":"","lat":34.996055,"lng":135.748958,"zip":"6008373"},{"town":"下材木町","koaza":"","lat":34.996611,"lng":135.767858,"zip":"6008017"},{"town":"下三之宮町","koaza":"","lat":34.989891,"lng":135.766048,"zip":"6008136"},{"town":"下諏訪町","koaza":"","lat":34.994449,"lng":135.758899,"zip":"6008163"},{"town":"下長福寺町","koaza":"","lat":34.996734,"lng":135.748368,"zip":"6008375"},{"town":"下二之宮町","koaza":"","lat":34.989887,"lng":135.76668,"zip":"6008132"},{"town":"下之町","koaza":"","lat":34.986218,"lng":135.765074,"zip":"6008206"},{"town":"下平野町","koaza":"","lat":34.994574,"lng":135.760365,"zip":"6008172"},{"town":"下万寿寺町","koaza":"","lat":34.995871,"lng":135.76106,"zip":"6008180"},{"town":"下柳町","koaza":"","lat":34.992994,"lng":135.75895,"zip":"6008165"},{"town":"十禅師町","koaza":"","lat":34.990871,"lng":135.765657,"zip":"6008137"},{"town":"十文字町","koaza":"","lat":35.000166,"lng":135.750172,"zip":"6008354"},{"town":"珠数屋町","koaza":"","lat":34.99151,"lng":135.75349,"zip":"6008348"},{"town":"俊成町","koaza":"","lat":34.998756,"lng":135.760183,"zip":"6008417"},{"town":"順風町","koaza":"","lat":35.003155,"lng":135.769397,"zip":"6008021"},{"town":"聖真子町","koaza":"","lat":34.993644,"lng":135.765839,"zip":"6008116"},{"town":"卓屋町","koaza":"","lat":34.990742,"lng":135.760398,"zip":"6008158"},{"town":"新開町","koaza":"","lat":35.000729,"lng":135.76292,"zip":"6008084"},{"town":"新釜座町","koaza":"","lat":35.003222,"lng":135.75599,"zip":"6008471"},{"town":"真町","koaza":"","lat":35.003782,"lng":135.769789,"zip":"6008001"},{"town":"新日吉町","koaza":"","lat":34.989579,"lng":135.765276,"zip":"6008141"},{"town":"神明町","koaza":"","lat":35.002499,"lng":135.762027,"zip":"6008092"},{"town":"水銀屋町","koaza":"","lat":35.002995,"lng":135.759549,"zip":"6008411"},{"town":"杉蛭子町","koaza":"","lat":34.999622,"lng":135.749841,"zip":"6008386"},{"town":"杉屋町","koaza":"","lat":34.998932,"lng":135.763306,"zip":"6008078"},{"town":"朱雀内畑町","koaza":"","lat":34.988216,"lng":135.741891,"zip":"6008843"},{"town":"朱雀裏畑町","koaza":"","lat":34.988366,"lng":135.740049,"zip":"6008844"},{"town":"朱雀北ノ口町","koaza":"","lat":34.989386,"lng":135.740286,"zip":"6008845"},{"town":"朱雀正会町","koaza":"","lat":34.990289,"lng":135.743741,"zip":"6008841"},{"town":"朱雀堂ノ口町","koaza":"","lat":34.990295,"lng":135.742283,"zip":"6008842"},{"town":"朱雀分木町","koaza":"","lat":34.992716,"lng":135.741004,"zip":"6008847"},{"town":"朱雀宝蔵町","koaza":"","lat":34.985436,"lng":135.754381,"zip":"6008846"},{"town":"筋屋町","koaza":"","lat":35.000649,"lng":135.764743,"zip":"6008061"},{"town":"須浜町","koaza":"","lat":34.998249,"lng":135.766182,"zip":"6008048"},{"town":"住吉町","koaza":"","lat":34.990021,"lng":135.764141,"zip":"6008143"},{"town":"諏訪開町","koaza":"","lat":34.990979,"lng":135.746867,"zip":"6008832"},{"town":"瀬戸屋町","koaza":"","lat":35.001896,"lng":135.750461,"zip":"6008398"},{"town":"銭屋町","koaza":"","lat":34.994391,"lng":135.757529,"zip":"6008303"},{"town":"泉正寺町","koaza":"","lat":35.000099,"lng":135.763396,"zip":"6008076"},{"town":"泉水町","koaza":"","lat":34.995836,"lng":135.752657,"zip":"6008338"},{"town":"善長寺町","koaza":"","lat":35.0024,"lng":135.757389,"zip":"6008431"},{"town":"船頭町","koaza":"","lat":35.00285,"lng":135.770115,"zip":"6008019"},{"town":"大工町","koaza":"","lat":34.9931,"lng":135.764744,"zip":"6008128"},{"town":"大黒町","koaza":"","lat":35.001355,"lng":135.766082,"zip":"6008043"},{"town":"醍醐町","koaza":"","lat":34.99635,"lng":135.758991,"zip":"6008106"},{"town":"太子山町","koaza":"","lat":35.000689,"lng":135.753683,"zip":"6008469"},{"town":"大寿町","koaza":"","lat":35.00306,"lng":135.76625,"zip":"6008039"},{"town":"松明町","koaza":"","lat":34.985998,"lng":135.75273,"zip":"6008237"},{"town":"高雄町","koaza":"","lat":34.990344,"lng":135.754935,"zip":"6008221"},{"town":"高材木町","koaza":"","lat":35.002921,"lng":135.762633,"zip":"6008082"},{"town":"高砂町","koaza":"","lat":34.997056,"lng":135.758863,"zip":"6008420"},{"town":"高槻町","koaza":"","lat":34.992801,"lng":135.760303,"zip":"6008174"},{"town":"高辻猪熊町","koaza":"","lat":34.999592,"lng":135.750545,"zip":"6008353"},{"town":"高辻大宮町","koaza":"","lat":34.99943,"lng":135.749138,"zip":"6008387"},{"town":"高辻町","koaza":"","lat":34.999508,"lng":135.758148,"zip":"6008434"},{"town":"高辻西洞院町","koaza":"","lat":34.999511,"lng":135.755196,"zip":"6008465"},{"town":"高辻堀川町","koaza":"","lat":34.999615,"lng":135.751876,"zip":"6008486"},{"town":"高橋町","koaza":"","lat":35.000758,"lng":135.761282,"zip":"6008096"},{"town":"高宮町","koaza":"","lat":34.992532,"lng":135.766076,"zip":"6008123"},{"town":"竹屋町","koaza":"","lat":35.002067,"lng":135.761915,"zip":"6008093"},{"town":"竹屋之町","koaza":"","lat":35.002415,"lng":135.760275,"zip":"6008090"},{"town":"立売中之町","koaza":"","lat":35.003524,"lng":135.763289,"zip":"6008006"},{"town":"立売西町","koaza":"","lat":35.003682,"lng":135.761841,"zip":"6008007"},{"town":"立売東町","koaza":"","lat":35.003629,"lng":135.764792,"zip":"6008005"},{"town":"橘町","koaza":"","lat":34.990217,"lng":135.760501,"zip":"6008044"},{"town":"立中町","koaza":"","lat":35.003698,"lng":135.749871,"zip":"6008490"},{"town":"辰巳町","koaza":"","lat":34.989928,"lng":135.756823,"zip":"6008307"},{"town":"足袋屋町","koaza":"","lat":35.002526,"lng":135.766228,"zip":"6008038"},{"town":"玉津島町","koaza":"","lat":34.998886,"lng":135.758766,"zip":"6008427"},{"town":"玉本町","koaza":"","lat":34.990946,"lng":135.753818,"zip":"6008346"},{"town":"玉屋町","koaza":"","lat":34.997042,"lng":135.760302,"zip":"6008409"},{"town":"溜池町","koaza":"","lat":34.99197,"lng":135.764744,"zip":"6008129"},{"town":"樽屋町","koaza":"","lat":34.988297,"lng":135.750771,"zip":"6008264"},{"town":"俵屋町","koaza":"","lat":35.002016,"lng":135.765604,"zip":"6008042"},{"town":"丹波街道町","koaza":"","lat":34.994043,"lng":135.748361,"zip":"6008365"},{"town":"茶磨屋町","koaza":"","lat":35.000164,"lng":135.766552,"zip":"6008036"},{"town":"忠庵町","koaza":"","lat":34.998237,"lng":135.764028,"zip":"6008068"},{"town":"中堂寺粟田町","koaza":"","lat":34.995056,"lng":135.737601,"zip":"6008815"},{"town":"中堂寺鍵田町","koaza":"","lat":34.99461,"lng":135.745252,"zip":"6008805"},{"town":"中堂寺北町","koaza":"","lat":34.997444,"lng":135.741139,"zip":"6008812"},{"town":"中堂寺櫛笥町","koaza":"","lat":34.996897,"lng":135.746983,"zip":"6008802"},{"town":"中堂寺庄ノ内町","koaza":"","lat":34.997426,"lng":135.73787,"zip":"6008814"},{"town":"中堂寺西寺町","koaza":"","lat":34.998106,"lng":135.747014,"zip":"6008801"},{"town":"中堂寺坊城町","koaza":"","lat":34.995654,"lng":135.743515,"zip":"6008811"},{"town":"中堂寺前田町","koaza":"","lat":34.995117,"lng":135.746797,"zip":"6008804"},{"town":"中堂寺前町","koaza":"","lat":34.99484,"lng":135.749005,"zip":"6008362"},{"town":"中堂寺南町","koaza":"","lat":34.995099,"lng":135.740934,"zip":"6008813"},{"town":"中堂寺壬生川町","koaza":"","lat":34.996377,"lng":135.745239,"zip":"6008806"},{"town":"中堂寺命婦町","koaza":"","lat":34.998071,"lng":135.744314,"zip":"6008807"},{"town":"中堂寺薮ノ内町","koaza":"","lat":34.995306,"lng":135.747865,"zip":"6008803"},{"town":"突抜一丁目","koaza":"","lat":34.993192,"lng":135.748404,"zip":"6008364"},{"town":"突抜二丁目","koaza":"","lat":34.991866,"lng":135.748398,"zip":"6008364"},{"town":"月鉾町","koaza":"","lat":35.003748,"lng":135.757389,"zip":"6008492"},{"town":"月見町","koaza":"","lat":34.997649,"lng":135.755737,"zip":"6008453"},{"town":"土橋町","koaza":"","lat":34.988976,"lng":135.753343,"zip":"6008226"},{"town":"槌屋町","koaza":"","lat":35.000565,"lng":135.750546,"zip":"6008396"},{"town":"筒金町","koaza":"","lat":34.991837,"lng":135.761119,"zip":"6008152"},{"town":"葛籠屋町","koaza":"","lat":34.999672,"lng":135.762602,"zip":"6008085"},{"town":"貞安前之町","koaza":"","lat":35.002957,"lng":135.767697,"zip":"6008031"},{"town":"徹宝町","koaza":"","lat":34.988281,"lng":135.750003,"zip":"6008265"},{"town":"天使突抜一丁目","koaza":"","lat":34.99812,"lng":135.754406,"zip":"6008456"},{"town":"天使突抜二丁目","koaza":"","lat":34.997173,"lng":135.754397,"zip":"6008456"},{"town":"天使突抜三丁目","koaza":"","lat":34.99576,"lng":135.75441,"zip":"6008456"},{"town":"天使突抜四丁目","koaza":"","lat":34.9947,"lng":135.754603,"zip":"6008456"},{"town":"天神町","koaza":"","lat":34.992797,"lng":135.761827,"zip":"6008184"},{"town":"天神前町","koaza":"","lat":34.998849,"lng":135.754542,"zip":"6008459"},{"town":"天王町","koaza":"","lat":35.00123,"lng":135.769887,"zip":"6008013"},{"town":"天満町","koaza":"","lat":35.000501,"lng":135.76874,"zip":"6008024"},{"town":"都市町","koaza":"","lat":34.994877,"lng":135.767332,"zip":"6008111"},{"town":"童侍者町","koaza":"","lat":35.002495,"lng":135.758865,"zip":"6008421"},{"town":"燈籠町","koaza":"","lat":34.999535,"lng":135.761094,"zip":"6008401"},{"town":"常葉町","koaza":"","lat":34.991412,"lng":135.75857,"zip":"6008167"},{"town":"木賊山町","koaza":"","lat":35.001248,"lng":135.754313,"zip":"6008461"},{"town":"徳正寺町","koaza":"","lat":35.003031,"lng":135.764853,"zip":"6008051"},{"town":"徳万町","koaza":"","lat":34.998127,"lng":135.757431,"zip":"6008437"},{"town":"徳屋町","koaza":"","lat":35.000674,"lng":135.751224,"zip":"6008395"},{"town":"富田町","koaza":"","lat":34.992803,"lng":135.761072,"zip":"6008186"},{"town":"富永町","koaza":"","lat":35.000166,"lng":135.7513,"zip":"6008023"},{"town":"富浜町","koaza":"","lat":34.992457,"lng":135.765629,"zip":"6008125"},{"town":"富松町","koaza":"","lat":34.992143,"lng":135.765927,"zip":"6008124"},{"town":"富屋町","koaza":"","lat":34.994485,"lng":135.762732,"zip":"6008192"},{"town":"中居町","koaza":"","lat":34.989539,"lng":135.75892,"zip":"6008219"},{"town":"中金仏町","koaza":"","lat":34.995868,"lng":135.753616,"zip":"6008332"},{"town":"永倉町","koaza":"","lat":34.99805,"lng":135.754968,"zip":"6008452"},{"town":"中之町","koaza":"","lat":35.001932,"lng":135.767092,"zip":"6008032"},{"town":"中野之町","koaza":"","lat":34.99905,"lng":135.757353,"zip":"6008435"},{"town":"永原町","koaza":"","lat":35.002098,"lng":135.763994,"zip":"6008073"},{"town":"長刀切町","koaza":"","lat":34.997646,"lng":135.757975,"zip":"6008438"},{"town":"長刀鉾町","koaza":"","lat":35.003723,"lng":135.76037,"zip":"6008008"},{"town":"鍋屋町","koaza":"","lat":35.000644,"lng":135.765542,"zip":"6008055"},{"town":"納屋町","koaza":"","lat":34.990028,"lng":135.764758,"zip":"6008142"},{"town":"奈良物町","koaza":"","lat":35.003643,"lng":135.766023,"zip":"6008004"},{"town":"難波町","koaza":"","lat":34.998252,"lng":135.767624,"zip":"6008027"},{"town":"匂天神町","koaza":"","lat":35.000581,"lng":135.760134,"zip":"6008414"},{"town":"西油小路町","koaza":"","lat":34.985918,"lng":135.753519,"zip":"6008236"},{"town":"西綾小路西半町","koaza":"","lat":35.00244,"lng":135.75278,"zip":"6008478"},{"town":"西綾小路東半町","koaza":"","lat":35.002415,"lng":135.753379,"zip":"6008479"},{"town":"西魚屋町","koaza":"","lat":34.993964,"lng":135.757675,"zip":"6008160"},{"town":"西錺屋町","koaza":"","lat":34.996467,"lng":135.755817,"zip":"6008108"},{"town":"西側町","koaza":"","lat":34.993419,"lng":135.754954,"zip":"6008325"},{"town":"西境町","koaza":"","lat":34.989125,"lng":135.757769,"zip":"6008218"},{"town":"西七条赤社町","koaza":"","lat":34.995056,"lng":135.735621,"zip":"6008899"},{"town":"西七条石井町","koaza":"","lat":34.987216,"lng":135.734727,"zip":"6008875"},{"town":"西七条市部町","koaza":"","lat":34.991007,"lng":135.734564,"zip":"6008894"},{"town":"西七条御前田町","koaza":"","lat":34.994967,"lng":135.733583,"zip":"6008897"},{"town":"西七条掛越町","koaza":"","lat":34.993044,"lng":135.731861,"zip":"6008881"},{"town":"西七条北衣田町","koaza":"","lat":34.989917,"lng":135.731841,"zip":"6008883"},{"town":"西七条北月読町","koaza":"","lat":34.989727,"lng":135.729877,"zip":"6008886"},{"town":"西七条北西野町","koaza":"","lat":34.98976,"lng":135.733834,"zip":"6008878"},{"town":"西七条北東野町","koaza":"","lat":34.989766,"lng":135.73769,"zip":"6008871"},{"town":"西七条御領町","koaza":"","lat":34.991083,"lng":135.737716,"zip":"6008893"},{"town":"西七条中野町","koaza":"","lat":34.989776,"lng":135.735475,"zip":"6008879"},{"town":"西七条名倉町","koaza":"","lat":34.991221,"lng":135.729943,"zip":"6008887"},{"town":"西七条西石ケ坪町","koaza":"","lat":34.993121,"lng":135.733807,"zip":"6008896"},{"town":"西七条西久保町","koaza":"","lat":34.987132,"lng":135.737568,"zip":"6008874"},{"town":"西七条西八反田町","koaza":"","lat":34.992888,"lng":135.737055,"zip":"6008892"},{"town":"西七条東石ケ坪町","koaza":"","lat":34.993049,"lng":135.735563,"zip":"6008895"},{"town":"西七条東御前田町","koaza":"","lat":34.995064,"lng":135.734607,"zip":"6008898"},{"town":"西七条東久保町","koaza":"","lat":34.987236,"lng":135.739867,"zip":"6008873"},{"town":"西七条東八反田町","koaza":"","lat":34.992824,"lng":135.738372,"zip":"6008891"},{"town":"西七条比輪田町","koaza":"","lat":34.991289,"lng":135.731891,"zip":"6008882"},{"town":"西七条南衣田町","koaza":"","lat":34.988472,"lng":135.731919,"zip":"6008884"},{"town":"西七条南月読町","koaza":"","lat":34.988527,"lng":135.729511,"zip":"6008885"},{"town":"西七条南中野町","koaza":"","lat":34.98866,"lng":135.735273,"zip":"6008876"},{"town":"西七条南西野町","koaza":"","lat":34.988464,"lng":135.73384,"zip":"6008877"},{"town":"西七条南東野町","koaza":"","lat":34.988479,"lng":135.737656,"zip":"6008872"},{"town":"西七条八幡町","koaza":"","lat":34.992923,"lng":135.729948,"zip":"6008888"},{"town":"西新屋敷揚屋町","koaza":"","lat":34.99198,"lng":135.743297,"zip":"6008828"},{"town":"西新屋敷上之町","koaza":"","lat":34.991984,"lng":135.744753,"zip":"6008826"},{"town":"西新屋敷下之町","koaza":"","lat":34.993095,"lng":135.743263,"zip":"6008829"},{"town":"西新屋敷太夫町","koaza":"","lat":34.991969,"lng":135.744062,"zip":"6008827"},{"town":"西新屋敷中堂寺町","koaza":"","lat":34.993097,"lng":135.744039,"zip":"6008816"},{"town":"西新屋敷中之町","koaza":"","lat":34.993113,"lng":135.744699,"zip":"6008825"},{"town":"西酢屋町","koaza":"","lat":34.989741,"lng":135.746818,"zip":"6008833"},{"town":"西高辻町","koaza":"","lat":35.000132,"lng":135.752696,"zip":"6008484"},{"town":"西田町","koaza":"","lat":35.001276,"lng":135.749998,"zip":"6008397"},{"town":"西玉水町","koaza":"","lat":34.990347,"lng":135.761615,"zip":"6008155"},{"town":"西之町","koaza":"","lat":34.985218,"lng":135.763932,"zip":"6008205"},{"town":"西洞院町","koaza":"","lat":34.992105,"lng":135.755183,"zip":"6008327"},{"town":"西橋詰町","koaza":"","lat":34.996708,"lng":135.767091,"zip":"6008029"},{"town":"西前町","koaza":"","lat":35.001652,"lng":135.762542,"zip":"6008083"},{"town":"西松屋町","koaza":"","lat":34.992789,"lng":135.755624,"zip":"6008326"},{"town":"西門前町","koaza":"","lat":34.997834,"lng":135.74944,"zip":"6008371"},{"town":"西八百屋町","koaza":"","lat":34.98929,"lng":135.75134,"zip":"6008269"},{"town":"廿人講町","koaza":"","lat":34.99129,"lng":135.760998,"zip":"6008153"},{"town":"二帖半敷町","koaza":"","lat":35.001916,"lng":135.759563,"zip":"6008412"},{"town":"西若松町","koaza":"","lat":34.993408,"lng":135.753815,"zip":"6008334"},{"town":"二人司町","koaza":"","lat":34.992064,"lng":135.746108,"zip":"6008824"},{"town":"鶏鉾町","koaza":"","lat":35.003042,"lng":135.757983,"zip":"6008491"},{"town":"塗師屋町","koaza":"","lat":35.00195,"lng":135.764794,"zip":"6008053"},{"town":"布屋町","koaza":"","lat":34.997033,"lng":135.75595,"zip":"6008454"},{"town":"白楽天町","koaza":"","lat":35.001933,"lng":135.758233,"zip":"6008422"},{"town":"橋橘町","koaza":"","lat":34.99819,"lng":135.752309,"zip":"6008489"},{"town":"橋詰町","koaza":"","lat":34.993764,"lng":135.76107,"zip":"6008187"},{"town":"波止土濃町","koaza":"","lat":34.99345,"lng":135.766712,"zip":"6008113"},{"town":"橋本町","koaza":"","lat":35.00376,"lng":135.770747,"zip":"6008011"},{"town":"八王子町","koaza":"","lat":34.99097,"lng":135.765265,"zip":"6008139"},{"town":"八軒町","koaza":"","lat":34.99244,"lng":135.763714,"zip":"6008196"},{"town":"八条坊門町","koaza":"","lat":34.986601,"lng":135.749861,"zip":"6008247"},{"town":"八文字町","koaza":"","lat":35.002942,"lng":135.7656,"zip":"6008041"},{"town":"花園町","koaza":"","lat":34.989843,"lng":135.752301,"zip":"6008261"},{"town":"花畑町","koaza":"","lat":34.989483,"lng":135.74821,"zip":"6008831"},{"town":"花屋町","koaza":"","lat":34.992731,"lng":135.753473,"zip":"6008185"},{"town":"早尾町","koaza":"","lat":34.993485,"lng":135.766483,"zip":"6008114"},{"town":"繁昌町","koaza":"","lat":35.000144,"lng":135.75752,"zip":"6008433"},{"town":"坂東屋町","koaza":"","lat":34.996978,"lng":135.75812,"zip":"6008439"},{"town":"東油小路町","koaza":"","lat":34.986184,"lng":135.75452,"zip":"6008235"},{"town":"東魚屋町","koaza":"","lat":34.993991,"lng":135.758397,"zip":"6008169"},{"town":"東錺屋町","koaza":"","lat":34.996301,"lng":135.757406,"zip":"6008107"},{"town":"東側町","koaza":"","lat":34.993566,"lng":135.755381,"zip":"6008324"},{"town":"東境町","koaza":"","lat":34.989046,"lng":135.759001,"zip":"6008217"},{"town":"東塩小路釜殿町","koaza":"","lat":34.984936,"lng":135.75769,"zip":"6008215"},{"town":"東塩小路高倉町","koaza":"","lat":34.985141,"lng":135.761221,"zip":"6008214"},{"town":"東塩小路町","koaza":"","lat":34.987182,"lng":135.758744,"zip":"6008216"},{"town":"東塩小路向畑町","koaza":"","lat":34.986816,"lng":135.76252,"zip":"6008213"},{"town":"東大工町","koaza":"","lat":34.988208,"lng":135.754712,"zip":"6008225"},{"town":"東玉水町","koaza":"","lat":34.990907,"lng":135.763204,"zip":"6008190"},{"town":"東町","koaza":"","lat":34.988559,"lng":135.754859,"zip":"6008224"},{"town":"東之町","koaza":"","lat":34.984909,"lng":135.765504,"zip":"6008204"},{"town":"東前町","koaza":"","lat":35.001505,"lng":135.763533,"zip":"6008074"},{"town":"東松屋町","koaza":"","lat":34.992866,"lng":135.756184,"zip":"6008315"},{"town":"東若松町","koaza":"","lat":34.992145,"lng":135.756737,"zip":"6008305"},{"town":"樋口町","koaza":"","lat":34.998214,"lng":135.753729,"zip":"6008458"},{"town":"菱屋町","koaza":"","lat":34.989741,"lng":135.753382,"zip":"6008227"},{"town":"毘沙門町","koaza":"","lat":34.995732,"lng":135.755953,"zip":"6008311"},{"town":"樋之下町","koaza":"","lat":34.998339,"lng":135.762233,"zip":"6008087"},{"town":"平居町","koaza":"","lat":34.994899,"lng":135.765993,"zip":"6008118"},{"town":"平岡町","koaza":"","lat":34.992171,"lng":135.766693,"zip":"6008122"},{"town":"平野町","koaza":"","lat":34.990957,"lng":135.756823,"zip":"6008306"},{"town":"平屋町","koaza":"","lat":34.996545,"lng":135.754778,"zip":"6008109"},{"town":"深草町","koaza":"","lat":34.997093,"lng":135.761044,"zip":"6008408"},{"town":"福島町","koaza":"","lat":34.995485,"lng":135.761052,"zip":"6008189"},{"town":"福田寺町","koaza":"","lat":34.997997,"lng":135.762011,"zip":"6008404"},{"town":"福本町","koaza":"","lat":34.989816,"lng":135.755244,"zip":"6008320"},{"town":"藤本寄町","koaza":"","lat":35.003828,"lng":135.753386,"zip":"6008495"},{"town":"仏具屋町","koaza":"","lat":34.993733,"lng":135.760334,"zip":"6008173"},{"town":"仏光寺西町","koaza":"","lat":35.001548,"lng":135.761718,"zip":"6008094"},{"town":"仏光寺東町","koaza":"","lat":35.001343,"lng":135.764775,"zip":"6008054"},{"town":"舟屋町","koaza":"","lat":34.99944,"lng":135.754436,"zip":"6008466"},{"town":"船鉾町","koaza":"","lat":35.001905,"lng":135.756768,"zip":"6008443"},{"town":"麓町","koaza":"","lat":34.999505,"lng":135.753642,"zip":"6008467"},{"town":"古御旅町","koaza":"","lat":34.985472,"lng":135.750234,"zip":"6008245"},{"town":"弁財天町","koaza":"","lat":34.99825,"lng":135.75886,"zip":"6008428"},{"town":"坊門町","koaza":"","lat":35.00048,"lng":135.748317,"zip":"6008388"},{"town":"坊門中之町","koaza":"","lat":34.986434,"lng":135.750208,"zip":"6008244"},{"town":"卜味金仏町","koaza":"","lat":34.994687,"lng":135.753604,"zip":"6008333"},{"town":"骨屋町","koaza":"","lat":34.994034,"lng":135.762939,"zip":"6008193"},{"town":"堀詰町","koaza":"","lat":34.989783,"lng":135.761783,"zip":"6008147"},{"town":"堀之内町","koaza":"","lat":35.000068,"lng":135.755942,"zip":"6008446"},{"town":"堀之上町","koaza":"","lat":34.994083,"lng":135.74932,"zip":"6008361"},{"town":"本覚寺前町","koaza":"","lat":34.996075,"lng":135.765515,"zip":"6008102"},{"town":"本燈籠町","koaza":"","lat":34.998957,"lng":135.761976,"zip":"6008086"},{"town":"本柳水町","koaza":"","lat":35.000679,"lng":135.755182,"zip":"6008462"},{"town":"真苧屋町","koaza":"","lat":34.989107,"lng":135.760401,"zip":"6008211"},{"town":"升屋町","koaza":"","lat":34.993703,"lng":135.762575,"zip":"6008195"},{"town":"桝屋町","koaza":"","lat":34.999643,"lng":135.766204,"zip":"6008046"},{"town":"松川町","koaza":"","lat":34.998908,"lng":135.76759,"zip":"6008026"},{"town":"松原中之町","koaza":"","lat":34.998922,"lng":135.764763,"zip":"6008063"},{"town":"松本町","koaza":"","lat":34.987278,"lng":135.751629,"zip":"6008256"},{"town":"松屋町","koaza":"","lat":34.996317,"lng":135.760399,"zip":"6008105"},{"town":"万里小路町","koaza":"","lat":35.000661,"lng":135.7641,"zip":"6008075"},{"town":"丸屋町","koaza":"","lat":34.990937,"lng":135.753367,"zip":"6008037"},{"town":"万寿寺町","koaza":"","lat":34.996301,"lng":135.761829,"zip":"6008104"},{"town":"万寿寺中之町","koaza":"","lat":34.997622,"lng":135.761906,"zip":"6008405"},{"town":"御影堂町","koaza":"","lat":34.99551,"lng":135.766396,"zip":"6008101"},{"town":"御影町","koaza":"","lat":34.999418,"lng":135.756674,"zip":"6008447"},{"town":"御影堂前町","koaza":"","lat":34.996102,"lng":135.766565,"zip":"6008020"},{"town":"御方紺屋町","koaza":"","lat":34.987321,"lng":135.752563,"zip":"6008238"},{"town":"南夷町","koaza":"","lat":34.985827,"lng":135.750817,"zip":"6008243"},{"town":"南京極町","koaza":"","lat":34.994396,"lng":135.766226,"zip":"6008117"},{"town":"南町","koaza":"","lat":34.987749,"lng":135.754518,"zip":"6008232"},{"town":"南橋詰町","koaza":"","lat":34.995518,"lng":135.767144,"zip":"6008110"},{"town":"南不動堂町","koaza":"","lat":34.986864,"lng":135.754145,"zip":"6008234"},{"town":"南門前町","koaza":"","lat":34.996044,"lng":135.749408,"zip":"6008372"},{"town":"南八百屋町","koaza":"","lat":34.9884,"lng":135.751532,"zip":"6008251"},{"town":"美濃屋町","koaza":"","lat":34.999377,"lng":135.768974,"zip":"6008015"},{"town":"妙伝寺町","koaza":"","lat":35.003024,"lng":135.755086,"zip":"6008472"},{"town":"妙満寺町","koaza":"","lat":35.002432,"lng":135.751266,"zip":"6008392"},{"town":"元悪王子町","koaza":"","lat":35.002961,"lng":135.76107,"zip":"6008091"},{"town":"本上神明町","koaza":"","lat":34.998127,"lng":135.764741,"zip":"6008064"},{"town":"本塩竈町","koaza":"","lat":34.994497,"lng":135.764366,"zip":"6008119"},{"town":"本神明町","koaza":"","lat":34.99705,"lng":135.764568,"zip":"6008065"},{"town":"元両替町","koaza":"","lat":34.998235,"lng":135.758191,"zip":"6008436"},{"town":"紅葉町","koaza":"","lat":34.990955,"lng":135.754485,"zip":"6008345"},{"town":"文覚町","koaza":"","lat":34.989878,"lng":135.754484,"zip":"6008222"},{"town":"門前町","koaza":"","lat":34.991754,"lng":135.751332,"zip":"6008358"},{"town":"八百屋町","koaza":"","lat":34.995523,"lng":135.755436,"zip":"6008168"},{"town":"屋形町","koaza":"","lat":34.983782,"lng":135.76741,"zip":"6008203"},{"town":"薬園町","koaza":"","lat":34.99286,"lng":135.746357,"zip":"6008823"},{"town":"薬師前町","koaza":"","lat":34.999506,"lng":135.75944,"zip":"6008416"},{"town":"矢田町","koaza":"","lat":35.00234,"lng":135.755917,"zip":"6008442"},{"town":"八ツ柳町","koaza":"","lat":34.993397,"lng":135.767113,"zip":"6008112"},{"town":"柳町","koaza":"","lat":34.992095,"lng":135.754428,"zip":"6008344"},{"town":"藪下町","koaza":"","lat":34.998863,"lng":135.75594,"zip":"6008448"},{"town":"藪之内町","koaza":"","lat":34.995129,"lng":135.748566,"zip":"6008374"},{"town":"山川町","koaza":"","lat":34.992683,"lng":135.754883,"zip":"6008342"},{"town":"八幡町","koaza":"","lat":34.997153,"lng":135.755165,"zip":"6008455"},{"town":"夕顔町","koaza":"","lat":34.999568,"lng":135.763317,"zip":"6008077"},{"town":"要法寺町","koaza":"","lat":35.0018,"lng":135.752775,"zip":"6008477"},{"town":"横諏訪町","koaza":"","lat":34.9955,"lng":135.758846,"zip":"6008179"},{"town":"吉水町","koaza":"","lat":34.998254,"lng":135.760298,"zip":"6008403"},{"town":"万屋町","koaza":"","lat":34.991333,"lng":135.764323,"zip":"6008199"},{"town":"来迎堂町","koaza":"","lat":34.998987,"lng":135.75101,"zip":"6008355"},{"town":"若松町","koaza":"","lat":34.992749,"lng":135.762584,"zip":"6008198"},{"town":"若宮町","koaza":"","lat":34.988942,"lng":135.7663,"zip":"6008120"},{"town":"和気町","koaza":"","lat":34.98849,"lng":135.747452,"zip":"6008834"}]