[{"town":"安朱稲荷山町","koaza":"","lat":35.002201,"lng":135.818163,"zip":"6078003"},{"town":"安朱奥ノ田","koaza":"","lat":34.998381,"lng":135.818253,"zip":"6078018"},{"town":"安朱川向町","koaza":"","lat":34.997085,"lng":135.817709,"zip":"6078017"},{"town":"安朱北屋敷町","koaza":"","lat":34.991371,"lng":135.818634,"zip":"6078009"},{"town":"安朱桟敷町","koaza":"","lat":34.992611,"lng":135.81704,"zip":"6078012"},{"town":"安朱堂ノ後町","koaza":"","lat":34.998482,"lng":135.819364,"zip":"6078005"},{"town":"安朱中小路町","koaza":"","lat":34.992824,"lng":135.817745,"zip":"6078013"},{"town":"安朱中溝町","koaza":"","lat":34.994351,"lng":135.818642,"zip":"6078016"},{"town":"安朱馬場ノ西町","koaza":"","lat":34.994559,"lng":135.819205,"zip":"6078007"},{"town":"安朱馬場ノ東町","koaza":"","lat":34.9948,"lng":135.819799,"zip":"6078006"},{"town":"安朱東海道町","koaza":"","lat":34.995519,"lng":135.820414,"zip":"6078008"},{"town":"安朱東谷","koaza":"","lat":35.004274,"lng":135.824732,"zip":"6078002"},{"town":"安朱毘沙門堂町","koaza":"","lat":35.005546,"lng":135.819999,"zip":"6078001"},{"town":"安朱南屋敷町","koaza":"","lat":34.990635,"lng":135.818166,"zip":"6078011"},{"town":"安朱屋敷町","koaza":"","lat":34.999849,"lng":135.819282,"zip":"6078004"},{"town":"安朱山川町","koaza":"","lat":34.995538,"lng":135.818154,"zip":"6078015"},{"town":"安朱山田","koaza":"","lat":34.99439,"lng":135.817546,"zip":"6078014"},{"town":"上野池ノ下","koaza":"","lat":34.995517,"lng":135.815139,"zip":"6070000"},{"town":"上野御所ノ内町","koaza":"","lat":34.992452,"lng":135.816092,"zip":"6078441"},{"town":"上野寺井町","koaza":"","lat":34.992512,"lng":135.81373,"zip":"6078443"},{"town":"上野山田","koaza":"","lat":34.995084,"lng":135.817339,"zip":"6078442"},{"town":"大塚大岩","koaza":"","lat":34.975609,"lng":135.832972,"zip":"6078123"},{"town":"大塚北溝町","koaza":"","lat":34.981437,"lng":135.828381,"zip":"6078134"},{"town":"大塚高岩","koaza":"","lat":34.979566,"lng":135.833187,"zip":"6078122"},{"town":"大塚丹田","koaza":"","lat":34.979867,"lng":135.828888,"zip":"6078136"},{"town":"大塚檀ノ浦","koaza":"","lat":34.975313,"lng":135.825258,"zip":"6078124"},{"town":"大塚中溝","koaza":"","lat":34.980447,"lng":135.826555,"zip":"6078133"},{"town":"大塚西浦町","koaza":"","lat":34.977594,"lng":135.823243,"zip":"6078125"},{"town":"大塚野溝町","koaza":"","lat":34.982873,"lng":135.829508,"zip":"6078135"},{"town":"大塚南溝町","koaza":"","lat":34.978807,"lng":135.825276,"zip":"6078131"},{"town":"大塚向畑町","koaza":"","lat":34.981095,"lng":135.838625,"zip":"6078121"},{"town":"大塚元屋敷町","koaza":"","lat":34.977161,"lng":135.825608,"zip":"6078126"},{"town":"大塚森町","koaza":"","lat":34.981057,"lng":135.823519,"zip":"6078132"},{"town":"大塚葭ケ谷","koaza":"","lat":34.976544,"lng":135.841171,"zip":"6070000"},{"town":"大宅石郡町","koaza":"","lat":34.965579,"lng":135.815288,"zip":"6078187"},{"town":"大宅岩屋殿","koaza":"","lat":34.967698,"lng":135.82938,"zip":"6078172"},{"town":"大宅打明町","koaza":"","lat":34.973838,"lng":135.821524,"zip":"6078181"},{"town":"大宅奥山","koaza":"","lat":34.969591,"lng":135.840302,"zip":"6078173"},{"town":"大宅奥山田","koaza":"","lat":34.966831,"lng":135.823927,"zip":"6078173"},{"town":"大宅烏田町","koaza":"","lat":34.967128,"lng":135.81321,"zip":"6078191"},{"town":"大宅神納町","koaza":"","lat":34.966263,"lng":135.818534,"zip":"6078185"},{"town":"大宅甲ノ辻町","koaza":"","lat":34.968599,"lng":135.819307,"zip":"6078184"},{"town":"大宅御供田町","koaza":"","lat":34.968927,"lng":135.814791,"zip":"6078192"},{"town":"大宅御所山","koaza":"","lat":34.971843,"lng":135.83167,"zip":"6078171"},{"town":"大宅御所田町","koaza":"","lat":34.972886,"lng":135.825508,"zip":"6078179"},{"town":"大宅五反畑町","koaza":"","lat":34.973629,"lng":135.82319,"zip":"6078178"},{"town":"大宅坂ノ辻町","koaza":"","lat":34.97198,"lng":135.819885,"zip":"6078182"},{"town":"大宅桟敷","koaza":"","lat":34.970595,"lng":135.816938,"zip":"6078194"},{"town":"大宅沢町","koaza":"","lat":34.969304,"lng":135.817061,"zip":"6078193"},{"town":"大宅関生町","koaza":"","lat":34.966859,"lng":135.815467,"zip":"6078188"},{"town":"大宅辻脇町","koaza":"","lat":34.969874,"lng":135.819504,"zip":"6078183"},{"town":"大宅堂ノ山","koaza":"","lat":34.965398,"lng":135.824468,"zip":"6070000"},{"town":"大宅鳥井脇町","koaza":"","lat":34.967616,"lng":135.821075,"zip":"6078174"},{"town":"大宅中小路町","koaza":"","lat":34.969571,"lng":135.823834,"zip":"6078176"},{"town":"大宅古海道町","koaza":"","lat":34.971212,"lng":135.823245,"zip":"6078177"},{"town":"大宅細田町","koaza":"","lat":34.96675,"lng":135.814224,"zip":"6078189"},{"town":"大宅向山","koaza":"","lat":34.965297,"lng":135.821079,"zip":"6078170"},{"town":"大宅山田","koaza":"","lat":34.968322,"lng":135.82515,"zip":"6078175"},{"town":"大宅早稲ノ内町","koaza":"","lat":34.967724,"lng":135.81717,"zip":"6078186"},{"town":"音羽伊勢宿町","koaza":"","lat":34.984337,"lng":135.82167,"zip":"6078072"},{"town":"音羽稲芝","koaza":"","lat":34.98346,"lng":135.825711,"zip":"6078068"},{"town":"音羽乙出町","koaza":"","lat":34.984007,"lng":135.819302,"zip":"6078074"},{"town":"音羽草田町","koaza":"","lat":34.988971,"lng":135.826913,"zip":"6078061"},{"town":"音羽沢町","koaza":"","lat":34.986897,"lng":135.819976,"zip":"6078077"},{"town":"音羽山等地","koaza":"","lat":34.986948,"lng":135.826053,"zip":"6078065"},{"town":"音羽千本町","koaza":"","lat":34.982767,"lng":135.822941,"zip":"6078071"},{"town":"音羽珍事町","koaza":"","lat":34.98842,"lng":135.830577,"zip":"6078062"},{"town":"音羽中芝町","koaza":"","lat":34.984512,"lng":135.823853,"zip":"6078069"},{"town":"音羽西林","koaza":"","lat":34.982886,"lng":135.81948,"zip":"6078073"},{"town":"音羽野田町","koaza":"","lat":34.984254,"lng":135.817108,"zip":"6078075"},{"town":"音羽八ノ坪","koaza":"","lat":34.987811,"lng":135.826729,"zip":"6078064"},{"town":"音羽初田町","koaza":"","lat":34.985787,"lng":135.821434,"zip":"6078078"},{"town":"音羽平林町","koaza":"","lat":34.989061,"lng":135.838385,"zip":"6078063"},{"town":"音羽前田町","koaza":"","lat":34.985631,"lng":135.82658,"zip":"6078067"},{"town":"音羽前出町","koaza":"","lat":34.987582,"lng":135.822854,"zip":"6078079"},{"town":"音羽森廻り町","koaza":"","lat":34.985641,"lng":135.823916,"zip":"6078066"},{"town":"音羽役出町","koaza":"","lat":34.985439,"lng":135.818881,"zip":"6078076"},{"town":"小野蚊ケ瀬町","koaza":"","lat":34.963726,"lng":135.81227,"zip":"6078251"},{"town":"小野鐘付田町","koaza":"","lat":34.962288,"lng":135.813228,"zip":"6078261"},{"town":"小野河原町","koaza":"","lat":34.96413,"lng":135.81359,"zip":"6078252"},{"town":"小野御所ノ内町","koaza":"","lat":34.96321,"lng":135.817697,"zip":"6078255"},{"town":"小野御霊町","koaza":"","lat":34.959299,"lng":135.816176,"zip":"6078257"},{"town":"小野荘司町","koaza":"","lat":34.961563,"lng":135.818034,"zip":"6078256"},{"town":"小野高芝町","koaza":"","lat":34.963964,"lng":135.816336,"zip":"6078254"},{"town":"小野葛籠尻町","koaza":"","lat":34.961997,"lng":135.814677,"zip":"6070000"},{"town":"小野西浦","koaza":"","lat":34.959929,"lng":135.813561,"zip":"6078258"},{"town":"小野弓田町","koaza":"","lat":34.96397,"lng":135.814545,"zip":"6078253"},{"town":"上花山旭山町","koaza":"","lat":34.98549,"lng":135.790556,"zip":"6078461"},{"town":"上花山久保町","koaza":"","lat":34.981767,"lng":135.797386,"zip":"6078464"},{"town":"上花山講田町","koaza":"","lat":34.984012,"lng":135.797664,"zip":"6078463"},{"town":"上花山坂尻","koaza":"","lat":34.982167,"lng":135.794908,"zip":"6078465"},{"town":"上花山桜谷","koaza":"","lat":34.98449,"lng":135.793818,"zip":"6078466"},{"town":"上花山花ノ岡町","koaza":"","lat":34.984335,"lng":135.796021,"zip":"6078462"},{"town":"川田岩ケ谷","koaza":"","lat":34.981935,"lng":135.79066,"zip":"6078321"},{"town":"川田梅ケ谷町","koaza":"","lat":34.980927,"lng":135.789225,"zip":"6078329"},{"town":"川田御出町","koaza":"","lat":34.978177,"lng":135.794706,"zip":"6078326"},{"town":"川田岡ノ西","koaza":"","lat":34.979799,"lng":135.796049,"zip":"6078323"},{"town":"川田欠ノ上","koaza":"","lat":34.977454,"lng":135.799916,"zip":"6078334"},{"town":"川田清水焼団地町","koaza":"","lat":34.979778,"lng":135.794292,"zip":"6078322"},{"town":"川田土仏","koaza":"","lat":34.979163,"lng":135.796806,"zip":"6078325"},{"town":"川田百々","koaza":"","lat":34.978108,"lng":135.797181,"zip":"6078324"},{"town":"川田中畑町","koaza":"","lat":34.978047,"lng":135.800282,"zip":"6078336"},{"town":"川田西浦町","koaza":"","lat":34.980059,"lng":135.800018,"zip":"6078332"},{"town":"川田菱尾田","koaza":"","lat":34.977697,"lng":135.798659,"zip":"6078337"},{"town":"川田前畑町","koaza":"","lat":34.980337,"lng":135.800835,"zip":"6078333"},{"town":"川田御輿塚町","koaza":"","lat":34.979891,"lng":135.798037,"zip":"6078331"},{"town":"川田南畑町","koaza":"","lat":34.978646,"lng":135.801573,"zip":"6078335"},{"town":"川田南山","koaza":"","lat":34.978462,"lng":135.793438,"zip":"6078328"},{"town":"川田山田","koaza":"","lat":34.977767,"lng":135.793098,"zip":"6078327"},{"town":"勧修寺閑林寺","koaza":"","lat":34.957178,"lng":135.812175,"zip":"6078217"},{"town":"勧修寺北大日","koaza":"","lat":34.962791,"lng":135.794619,"zip":"6078238"},{"town":"勧修寺北大日町","koaza":"","lat":34.959053,"lng":135.792868,"zip":"6078237"},{"town":"勧修寺御所内町","koaza":"","lat":34.956607,"lng":135.810226,"zip":"6078218"},{"town":"勧修寺小松原町","koaza":"","lat":34.959897,"lng":135.799175,"zip":"6078236"},{"town":"勧修寺柴山","koaza":"","lat":34.966852,"lng":135.802532,"zip":"6078242"},{"town":"勧修寺下ノ茶屋町","koaza":"","lat":34.959828,"lng":135.808039,"zip":"6078227"},{"town":"勧修寺瀬戸河原町","koaza":"","lat":34.964425,"lng":135.809559,"zip":"6078223"},{"town":"勧修寺泉玉町","koaza":"","lat":34.963517,"lng":135.80606,"zip":"6078229"},{"town":"勧修寺堂田","koaza":"","lat":34.96667,"lng":135.804804,"zip":"6078231"},{"town":"勧修寺縄手町","koaza":"","lat":34.962017,"lng":135.811602,"zip":"6078215"},{"town":"勧修寺仁王堂町","koaza":"","lat":34.961604,"lng":135.807915,"zip":"6078226"},{"town":"勧修寺西金ケ崎","koaza":"","lat":34.968168,"lng":135.806606,"zip":"6078221"},{"town":"勧修寺西北出町","koaza":"","lat":34.963664,"lng":135.807468,"zip":"6078225"},{"town":"勧修寺西栗栖野町","koaza":"","lat":34.969624,"lng":135.806916,"zip":"6078212"},{"town":"勧修寺冷尻","koaza":"","lat":34.966075,"lng":135.801468,"zip":"6078241"},{"town":"勧修寺東金ケ崎町","koaza":"","lat":34.966464,"lng":135.809379,"zip":"6078213"},{"town":"勧修寺東北出町","koaza":"","lat":34.96248,"lng":135.809976,"zip":"6078224"},{"town":"勧修寺東栗栖野町","koaza":"","lat":34.969531,"lng":135.808991,"zip":"6078211"},{"town":"勧修寺東出町","koaza":"","lat":34.960343,"lng":135.811775,"zip":"6078216"},{"town":"勧修寺東堂田町","koaza":"","lat":34.965614,"lng":135.807042,"zip":"6078222"},{"town":"勧修寺平田町","koaza":"","lat":34.966019,"lng":135.812302,"zip":"6078214"},{"town":"勧修寺福岡町","koaza":"","lat":34.963687,"lng":135.804716,"zip":"6078232"},{"town":"勧修寺風呂尻町","koaza":"","lat":34.960005,"lng":135.81029,"zip":"6078219"},{"town":"勧修寺本堂山町","koaza":"","lat":34.961551,"lng":135.804155,"zip":"6078228"},{"town":"勧修寺丸山町","koaza":"","lat":34.963883,"lng":135.80104,"zip":"6078239"},{"town":"勧修寺南大日","koaza":"","lat":34.956766,"lng":135.802899,"zip":"6078235"},{"town":"勧修寺南大日町","koaza":"","lat":34.956917,"lng":135.796102,"zip":"6078234"},{"town":"勧修寺南谷町","koaza":"","lat":34.959988,"lng":135.802858,"zip":"6078233"},{"town":"北花山市田町","koaza":"","lat":34.986425,"lng":135.797768,"zip":"6078483"},{"town":"北花山大林町","koaza":"","lat":34.983112,"lng":135.799594,"zip":"6078482"},{"town":"北花山大峰町","koaza":"","lat":34.993545,"lng":135.794396,"zip":"6078471"},{"town":"北花山上稚児ケ池","koaza":"","lat":34.995439,"lng":135.790102,"zip":"6078485"},{"town":"北花山河原町","koaza":"","lat":34.988583,"lng":135.800881,"zip":"6078476"},{"town":"北花山下稚児ケ池","koaza":"","lat":34.994028,"lng":135.790344,"zip":"6070000"},{"town":"北花山寺内町","koaza":"","lat":34.988673,"lng":135.798915,"zip":"6078474"},{"town":"北花山中道町","koaza":"","lat":34.98642,"lng":135.80064,"zip":"6078481"},{"town":"北花山西ノ野町","koaza":"","lat":34.987071,"lng":135.796138,"zip":"6078484"},{"town":"北花山山田町","koaza":"","lat":34.996154,"lng":135.797047,"zip":"6078472"},{"town":"北花山横田町","koaza":"","lat":34.988544,"lng":135.802359,"zip":"6078475"},{"town":"北花山六反田町","koaza":"","lat":34.989914,"lng":135.800981,"zip":"6078473"},{"town":"栗栖野打越町","koaza":"","lat":34.972048,"lng":135.806856,"zip":"6078203"},{"town":"栗栖野狐塚","koaza":"","lat":34.974214,"lng":135.80537,"zip":"6078201"},{"town":"栗栖野中臣町","koaza":"","lat":34.973009,"lng":135.807468,"zip":"6078202"},{"town":"栗栖野華ノ木町","koaza":"","lat":34.972303,"lng":135.80496,"zip":"6078204"},{"town":"小山一石畑","koaza":"","lat":34.988384,"lng":135.836641,"zip":"6078103"},{"town":"小山大石山","koaza":"","lat":34.985034,"lng":135.840361,"zip":"6070000"},{"town":"小山小川町","koaza":"","lat":34.982788,"lng":135.837888,"zip":"6078107"},{"town":"小山神無森町","koaza":"","lat":34.989381,"lng":135.834826,"zip":"6078101"},{"town":"小山北谷","koaza":"","lat":34.982307,"lng":135.849883,"zip":"6070000"},{"town":"小山北林町","koaza":"","lat":34.986567,"lng":135.832885,"zip":"6078115"},{"town":"小山北溝町","koaza":"","lat":34.98619,"lng":135.829643,"zip":"6078113"},{"town":"小山御坊ノ内町","koaza":"","lat":34.983086,"lng":135.838546,"zip":"6078106"},{"town":"小山下ノ池","koaza":"","lat":34.988235,"lng":135.835243,"zip":"6078102"},{"town":"小山谷田町","koaza":"","lat":34.985745,"lng":135.837124,"zip":"6078104"},{"town":"小山谷田山","koaza":"","lat":34.987959,"lng":135.83779,"zip":"6070000"},{"town":"小山鎮守町","koaza":"","lat":34.987614,"lng":135.833176,"zip":"6078116"},{"town":"小山長尾","koaza":"","lat":34.977977,"lng":135.849652,"zip":"6070000"},{"town":"小山中島町","koaza":"","lat":34.982943,"lng":135.836787,"zip":"6078108"},{"town":"小山中ノ川町","koaza":"","lat":34.984697,"lng":135.82991,"zip":"6078112"},{"town":"小山西御所町","koaza":"","lat":34.985266,"lng":135.834428,"zip":"6078109"},{"town":"小山姫子町","koaza":"","lat":34.985125,"lng":135.83307,"zip":"6078114"},{"town":"小山松原畑町","koaza":"","lat":34.984826,"lng":135.835667,"zip":"6078105"},{"town":"小山南溝町","koaza":"","lat":34.983792,"lng":135.830246,"zip":"6078111"},{"town":"小山向山","koaza":"","lat":34.981092,"lng":135.835858,"zip":"6070000"},{"town":"四ノ宮岩久保町","koaza":"","lat":34.992142,"lng":135.82609,"zip":"6078028"},{"town":"四ノ宮垣ノ内町","koaza":"","lat":34.990769,"lng":135.822625,"zip":"6078041"},{"town":"四ノ宮鎌手町","koaza":"","lat":34.990329,"lng":135.828724,"zip":"6078031"},{"town":"四ノ宮川原町","koaza":"","lat":34.993141,"lng":135.827108,"zip":"6078027"},{"town":"四ノ宮神田町","koaza":"","lat":34.98977,"lng":135.822168,"zip":"6078035"},{"town":"四ノ宮行者谷","koaza":"","lat":35.005942,"lng":135.830199,"zip":"6078021"},{"town":"四ノ宮熊ケ谷","koaza":"","lat":34.999453,"lng":135.830572,"zip":"6078024"},{"town":"四ノ宮小金塚","koaza":"","lat":35.002179,"lng":135.834351,"zip":"6078022"},{"town":"四ノ宮芝畑町","koaza":"","lat":34.99034,"lng":135.833886,"zip":"6078033"},{"town":"四ノ宮新開畑","koaza":"","lat":34.993733,"lng":135.821198,"zip":"6078023"},{"town":"四ノ宮泉水町","koaza":"","lat":34.992151,"lng":135.822026,"zip":"6078044"},{"town":"四ノ宮大将軍町","koaza":"","lat":34.990913,"lng":135.825062,"zip":"6078029"},{"town":"四ノ宮中在寺町","koaza":"","lat":34.992394,"lng":135.820894,"zip":"6078043"},{"town":"四ノ宮堂ノ後町","koaza":"","lat":34.992538,"lng":135.824268,"zip":"6078045"},{"town":"四ノ宮奈良野町","koaza":"","lat":34.990373,"lng":135.831103,"zip":"6078032"},{"town":"四ノ宮泓","koaza":"","lat":34.989915,"lng":135.826553,"zip":"6078034"},{"town":"四ノ宮南河原町","koaza":"","lat":34.990621,"lng":135.820872,"zip":"6078042"},{"town":"四ノ宮柳山町","koaza":"","lat":34.99807,"lng":135.8258,"zip":"6078025"},{"town":"四ノ宮山田町","koaza":"","lat":34.994619,"lng":135.828554,"zip":"6078026"},{"town":"厨子奥尾上町","koaza":"","lat":34.987745,"lng":135.807618,"zip":"6078453"},{"town":"厨子奥花鳥町","koaza":"","lat":35.002411,"lng":135.789975,"zip":"6078456"},{"town":"厨子奥長通","koaza":"","lat":34.990557,"lng":135.80104,"zip":"6078455"},{"town":"厨子奥苗代元町","koaza":"","lat":34.988851,"lng":135.804577,"zip":"6078454"},{"town":"厨子奥矢倉町","koaza":"","lat":34.988934,"lng":135.807856,"zip":"6078452"},{"town":"厨子奥若林町","koaza":"","lat":34.987447,"lng":135.810172,"zip":"6078451"},{"town":"竹鼻扇町","koaza":"","lat":34.988812,"lng":135.822462,"zip":"6078082"},{"town":"竹鼻木ノ本町","koaza":"","lat":34.987853,"lng":135.821173,"zip":"6078083"},{"town":"竹鼻サイカシ町","koaza":"","lat":34.98543,"lng":135.814954,"zip":"6078087"},{"town":"竹鼻地蔵寺南町","koaza":"","lat":34.986932,"lng":135.814585,"zip":"6078088"},{"town":"竹鼻四丁野町","koaza":"","lat":34.987036,"lng":135.816176,"zip":"6078086"},{"town":"竹鼻外田町","koaza":"","lat":34.990557,"lng":135.820041,"zip":"6078081"},{"town":"竹鼻竹ノ街道町","koaza":"","lat":34.990047,"lng":135.815957,"zip":"6078080"},{"town":"竹鼻立原町","koaza":"","lat":34.988222,"lng":135.819666,"zip":"6078084"},{"town":"竹鼻忠兵衛谷","koaza":"","lat":34.989107,"lng":135.84805,"zip":"6070000"},{"town":"竹鼻堂ノ前町","koaza":"","lat":34.987072,"lng":135.817735,"zip":"6078085"},{"town":"竹鼻西ノ口町","koaza":"","lat":34.988652,"lng":135.815872,"zip":"6078089"},{"town":"竹鼻走リ谷","koaza":"","lat":34.990127,"lng":135.849421,"zip":"6070000"},{"town":"竹鼻火打谷","koaza":"","lat":34.987086,"lng":135.844864,"zip":"6070000"},{"town":"椥辻池尻町","koaza":"","lat":34.972923,"lng":135.813126,"zip":"6078168"},{"town":"椥辻草海道町","koaza":"","lat":34.972122,"lng":135.816468,"zip":"6078162"},{"town":"椥辻中在家町","koaza":"","lat":34.974357,"lng":135.818088,"zip":"6078161"},{"town":"椥辻西浦町","koaza":"","lat":34.975378,"lng":135.813441,"zip":"6078169"},{"town":"椥辻西潰","koaza":"","lat":34.971465,"lng":135.811965,"zip":"6078164"},{"town":"椥辻番所ケ口町","koaza":"","lat":34.969704,"lng":135.810389,"zip":"6078166"},{"town":"椥辻東浦町","koaza":"","lat":34.976051,"lng":135.815965,"zip":"6078160"},{"town":"椥辻東潰","koaza":"","lat":34.971197,"lng":135.813837,"zip":"6078163"},{"town":"椥辻平田町","koaza":"","lat":34.969512,"lng":135.812258,"zip":"6078165"},{"town":"椥辻封シ川町","koaza":"","lat":34.973718,"lng":135.810653,"zip":"6078167"},{"town":"西野阿芸沢町","koaza":"","lat":34.984066,"lng":135.811149,"zip":"6078343"},{"town":"西野今屋敷町","koaza":"","lat":34.986025,"lng":135.810596,"zip":"6078341"},{"town":"西野大手先町","koaza":"","lat":34.983611,"lng":135.813695,"zip":"6078344"},{"town":"西野大鳥井町","koaza":"","lat":34.979366,"lng":135.805325,"zip":"6078355"},{"town":"西野岸ノ下町","koaza":"","lat":34.985099,"lng":135.806694,"zip":"6078352"},{"town":"西野後藤","koaza":"","lat":34.97692,"lng":135.803538,"zip":"6078356"},{"town":"西野小柳町","koaza":"","lat":34.981633,"lng":135.805536,"zip":"6078354"},{"town":"西野左義長町","koaza":"","lat":34.979856,"lng":135.808734,"zip":"6078347"},{"town":"西野山階町","koaza":"","lat":34.98168,"lng":135.810121,"zip":"6078346"},{"town":"西野野色町","koaza":"","lat":34.984977,"lng":135.804908,"zip":"6078353"},{"town":"西野八幡田町","koaza":"","lat":34.987771,"lng":135.804619,"zip":"6078351"},{"town":"西野東山","koaza":"","lat":34.970922,"lng":135.848124,"zip":"6070000"},{"town":"西野櫃川町","koaza":"","lat":34.982426,"lng":135.803191,"zip":"6078357"},{"town":"西野広見町","koaza":"","lat":34.982268,"lng":135.807945,"zip":"6078348"},{"town":"西野楳本町","koaza":"","lat":34.983366,"lng":135.80156,"zip":"6078358"},{"town":"西野山射庭ノ上町","koaza":"","lat":34.972988,"lng":135.797512,"zip":"6078307"},{"town":"西野山岩ケ谷町","koaza":"","lat":34.97272,"lng":135.789998,"zip":"6078309"},{"town":"西野山欠ノ上町","koaza":"","lat":34.974622,"lng":135.80082,"zip":"6078302"},{"town":"西野山桜ノ馬場町","koaza":"","lat":34.971076,"lng":135.795527,"zip":"6078308"},{"town":"西野山百々町","koaza":"","lat":34.97632,"lng":135.795759,"zip":"6078301"},{"town":"西野山中臣町","koaza":"","lat":34.971779,"lng":135.802909,"zip":"6078305"},{"town":"西野山中鳥井町","koaza":"","lat":34.969281,"lng":135.80009,"zip":"6078306"},{"town":"西野山中畑町","koaza":"","lat":34.977339,"lng":135.800977,"zip":"6078303"},{"town":"西野山南畑町","koaza":"","lat":34.977024,"lng":135.802184,"zip":"6078304"},{"town":"西野山山田","koaza":"","lat":34.977658,"lng":135.791446,"zip":"6078311"},{"town":"西野様子見町","koaza":"","lat":34.985206,"lng":135.810302,"zip":"6078342"},{"town":"西野離宮町","koaza":"","lat":34.981143,"lng":135.812517,"zip":"6078345"},{"town":"八軒屋敷町","koaza":"","lat":34.990209,"lng":135.83827,"zip":"6078091"},{"town":"東野井ノ上町","koaza":"","lat":34.976594,"lng":135.818012,"zip":"6078144"},{"town":"東野片下リ町","koaza":"","lat":34.981377,"lng":135.815633,"zip":"6078156"},{"town":"東野北井ノ上町","koaza":"","lat":34.981806,"lng":135.820496,"zip":"6078141"},{"town":"東野狐薮町","koaza":"","lat":34.980687,"lng":135.813513,"zip":"6070000"},{"town":"東野竹田","koaza":"","lat":34.975616,"lng":135.803619,"zip":"6078151"},{"town":"東野中井ノ上町","koaza":"","lat":34.979659,"lng":135.820306,"zip":"6078142"},{"town":"東野八反畑町","koaza":"","lat":34.97678,"lng":135.811248,"zip":"6078145"},{"town":"東野東山","koaza":"","lat":34.965016,"lng":135.853379,"zip":"6070000"},{"town":"東野百拍子町","koaza":"","lat":34.978348,"lng":135.815548,"zip":"6078153"},{"town":"東野舞台町","koaza":"","lat":34.975179,"lng":135.808804,"zip":"6078146"},{"town":"東野南井ノ上町","koaza":"","lat":34.976657,"lng":135.820922,"zip":"6078143"},{"town":"東野森野町","koaza":"","lat":34.975159,"lng":135.806747,"zip":"6078147"},{"town":"東野門口町","koaza":"","lat":34.979506,"lng":135.815727,"zip":"6078154"},{"town":"東野八代","koaza":"","lat":34.977084,"lng":135.806594,"zip":"6078152"},{"town":"髭茶屋桃燈町","koaza":"","lat":34.98966,"lng":135.836584,"zip":"6078051"},{"town":"髭茶屋屋敷町","koaza":"","lat":34.990317,"lng":135.836619,"zip":"6078052"},{"town":"日ノ岡朝田町","koaza":"","lat":34.997503,"lng":135.797534,"zip":"6078493"},{"town":"日ノ岡石塚町","koaza":"","lat":34.992035,"lng":135.799899,"zip":"6078498"},{"town":"日ノ岡一切経谷町","koaza":"","lat":35.003848,"lng":135.792542,"zip":"6078491"},{"town":"日ノ岡夷谷町","koaza":"","lat":35.002931,"lng":135.794104,"zip":"6078492"},{"town":"日ノ岡鴨土町","koaza":"","lat":34.995853,"lng":135.800559,"zip":"6078495"},{"town":"日ノ岡坂脇町","koaza":"","lat":34.995387,"lng":135.798989,"zip":"6078496"},{"town":"日ノ岡堤谷町","koaza":"","lat":34.999519,"lng":135.798817,"zip":"6078494"},{"town":"日ノ岡ホッパラ町","koaza":"","lat":34.993938,"lng":135.800275,"zip":"6078497"},{"town":"御陵荒巻町","koaza":"","lat":34.990702,"lng":135.803683,"zip":"6078429"},{"town":"御陵安祥寺町","koaza":"","lat":34.99706,"lng":135.814252,"zip":"6078407"},{"town":"御陵池堤町","koaza":"","lat":34.997183,"lng":135.800887,"zip":"6078433"},{"town":"御陵牛尾町","koaza":"","lat":34.996443,"lng":135.808098,"zip":"6078418"},{"town":"御陵大岩","koaza":"","lat":35.00116,"lng":135.806075,"zip":"6078403"},{"town":"御陵大谷町","koaza":"","lat":34.997466,"lng":135.810717,"zip":"6078404"},{"town":"御陵大津畑町","koaza":"","lat":34.990072,"lng":135.813205,"zip":"6078411"},{"town":"御陵岡町","koaza":"","lat":34.992801,"lng":135.80253,"zip":"6078431"},{"town":"御陵岡ノ西町","koaza":"","lat":34.99175,"lng":135.801182,"zip":"6078421"},{"town":"御陵上御廟野町","koaza":"","lat":34.996239,"lng":135.805771,"zip":"6078425"},{"town":"御陵鴨戸町","koaza":"","lat":34.995116,"lng":135.80198,"zip":"6078432"},{"town":"御陵久保町","koaza":"","lat":34.992716,"lng":135.804942,"zip":"6078427"},{"town":"御陵黒岩","koaza":"","lat":35.001831,"lng":135.801933,"zip":"6078402"},{"town":"御陵沢ノ川町","koaza":"","lat":35.003865,"lng":135.814181,"zip":"6078401"},{"town":"御陵三蔵町","koaza":"","lat":34.98857,"lng":135.810847,"zip":"6078413"},{"town":"御陵四丁野町","koaza":"","lat":34.988,"lng":135.812601,"zip":"6078412"},{"town":"御陵下御廟野町","koaza":"","lat":34.994369,"lng":135.804232,"zip":"6078426"},{"town":"御陵進藤町","koaza":"","lat":34.991641,"lng":135.807934,"zip":"6078416"},{"town":"御陵田山町","koaza":"","lat":34.994438,"lng":135.814804,"zip":"6078405"},{"town":"御陵檀ノ後","koaza":"","lat":34.998138,"lng":135.804723,"zip":"6078419"},{"town":"御陵血洗町","koaza":"","lat":34.990542,"lng":135.806104,"zip":"6078428"},{"town":"御陵天徳町","koaza":"","lat":34.991928,"lng":135.810985,"zip":"6078409"},{"town":"御陵鳥ノ向町","koaza":"","lat":34.991487,"lng":135.814729,"zip":"6078408"},{"town":"御陵中内町","koaza":"","lat":34.990261,"lng":135.810066,"zip":"6078414"},{"town":"御陵中筋町","koaza":"","lat":34.990332,"lng":135.807999,"zip":"6078415"},{"town":"御陵原西町","koaza":"","lat":34.996373,"lng":135.803176,"zip":"6078424"},{"town":"御陵平林町","koaza":"","lat":34.995162,"lng":135.816189,"zip":"6078406"},{"town":"御陵封ジ山町","koaza":"","lat":35.001272,"lng":135.797215,"zip":"6078422"},{"town":"御陵別所町","koaza":"","lat":34.993486,"lng":135.807833,"zip":"6078417"},{"town":"御陵山ノ谷","koaza":"","lat":34.99901,"lng":135.80319,"zip":"6078423"}]