[{"town":"岩田岩ノ前","koaza":"","lat":34.854126,"lng":135.742306,"zip":"6148256"},{"town":"岩田大谷","koaza":"","lat":34.826351,"lng":135.728751,"zip":"6140000"},{"town":"岩田拝ミ","koaza":"","lat":34.857272,"lng":135.748561,"zip":"6140000"},{"town":"岩田加賀ノ辻","koaza":"","lat":34.854779,"lng":135.740806,"zip":"6148258"},{"town":"岩田北浅地","koaza":"","lat":34.852036,"lng":135.744241,"zip":"6148267"},{"town":"岩田北ノ口","koaza":"","lat":34.856831,"lng":135.74133,"zip":"6148254"},{"town":"岩田久保","koaza":"","lat":34.852638,"lng":135.736439,"zip":"6140000"},{"town":"岩田里","koaza":"","lat":34.855549,"lng":135.749666,"zip":"6140000"},{"town":"岩田大将軍","koaza":"","lat":34.858628,"lng":135.741975,"zip":"6148252"},{"town":"岩田大日","koaza":"","lat":34.857262,"lng":135.750953,"zip":"6140000"},{"town":"岩田高木","koaza":"","lat":34.853894,"lng":135.74465,"zip":"6148268"},{"town":"岩田竹綱","koaza":"","lat":34.855762,"lng":135.743977,"zip":"6148255"},{"town":"岩田茶屋ノ前","koaza":"","lat":34.85753,"lng":135.73933,"zip":"6148251"},{"town":"岩田辻垣内","koaza":"","lat":34.85574,"lng":135.747252,"zip":"6148261"},{"town":"岩田外島","koaza":"","lat":34.852436,"lng":135.750075,"zip":"6140000"},{"town":"岩田中道","koaza":"","lat":34.854775,"lng":135.73761,"zip":"6140000"},{"town":"岩田西嵐","koaza":"","lat":34.851921,"lng":135.738427,"zip":"6140000"},{"town":"岩田西玉造","koaza":"","lat":34.857378,"lng":135.744576,"zip":"6148253"},{"town":"岩田橋溝","koaza":"","lat":34.852252,"lng":135.741218,"zip":"6148257"},{"town":"岩田八丁","koaza":"","lat":34.850676,"lng":135.7397,"zip":"6148256"},{"town":"岩田東玉造","koaza":"","lat":34.857769,"lng":135.747189,"zip":"6140000"},{"town":"岩田松原","koaza":"","lat":34.853407,"lng":135.747238,"zip":"6148262"},{"town":"岩田南浅地","koaza":"","lat":34.851558,"lng":135.74342,"zip":"6148265"},{"town":"岩田南野","koaza":"","lat":34.850155,"lng":135.747064,"zip":"6148264"},{"town":"岩田六ノ坪","koaza":"","lat":34.851133,"lng":135.747593,"zip":"6148263"},{"town":"内里穴ケ谷","koaza":"","lat":34.847299,"lng":135.723024,"zip":"6148235"},{"town":"内里穴田","koaza":"","lat":34.854261,"lng":135.721506,"zip":"6140000"},{"town":"内里荒場","koaza":"","lat":34.850599,"lng":135.727907,"zip":"6148232"},{"town":"内里安居芝","koaza":"","lat":34.85116,"lng":135.726321,"zip":"6148231"},{"town":"内里池ノ上","koaza":"","lat":34.856227,"lng":135.726389,"zip":"6140000"},{"town":"内里今福","koaza":"","lat":34.860897,"lng":135.736277,"zip":"6140000"},{"town":"内里牛池","koaza":"","lat":34.863029,"lng":135.725266,"zip":"6140000"},{"town":"内里内","koaza":"","lat":34.860968,"lng":135.729069,"zip":"6148227"},{"town":"内里内垣内","koaza":"","lat":34.858309,"lng":135.733297,"zip":"6140000"},{"town":"内里大谷","koaza":"","lat":34.824965,"lng":135.726179,"zip":"6148239"},{"town":"内里長部代","koaza":"","lat":34.857799,"lng":135.72272,"zip":"6140000"},{"town":"内里女谷","koaza":"","lat":34.848333,"lng":135.725123,"zip":"6148234"},{"town":"内里柿谷","koaza":"","lat":34.852042,"lng":135.71902,"zip":"6148236"},{"town":"内里川首","koaza":"","lat":34.853881,"lng":135.732454,"zip":"6140000"},{"town":"内里河原","koaza":"","lat":34.850449,"lng":135.723731,"zip":"6148233"},{"town":"内里北ノ口","koaza":"","lat":34.864248,"lng":135.728306,"zip":"6148229"},{"town":"内里北ノ山","koaza":"","lat":34.863853,"lng":135.730299,"zip":"6148223"},{"town":"内里窪","koaza":"","lat":34.8542,"lng":135.730494,"zip":"6140000"},{"town":"内里蔵垣外","koaza":"","lat":34.859155,"lng":135.725421,"zip":"6140000"},{"town":"内里極楽橋","koaza":"","lat":34.865283,"lng":135.729848,"zip":"6148222"},{"town":"内里五丁","koaza":"","lat":34.861765,"lng":135.723013,"zip":"6148235"},{"town":"内里五ノ坪","koaza":"","lat":34.854597,"lng":135.725145,"zip":"6140000"},{"town":"内里三十","koaza":"","lat":34.856212,"lng":135.722244,"zip":"6140000"},{"town":"内里島","koaza":"","lat":34.866799,"lng":135.729879,"zip":"6140000"},{"town":"内里庄ノ山","koaza":"","lat":34.855888,"lng":135.729811,"zip":"6140000"},{"town":"内里菅井","koaza":"","lat":34.863415,"lng":135.727049,"zip":"6148228"},{"town":"内里砂田","koaza":"","lat":34.86107,"lng":135.73362,"zip":"6148225"},{"town":"内里砂畠","koaza":"","lat":34.853093,"lng":135.719622,"zip":"6148238"},{"town":"内里巽ノ口","koaza":"","lat":34.859328,"lng":135.731095,"zip":"6148242"},{"town":"内里蜻蛉尻","koaza":"","lat":34.866538,"lng":135.728737,"zip":"6148221"},{"town":"内里中島","koaza":"","lat":34.86402,"lng":135.733342,"zip":"6148248"},{"town":"内里西山川","koaza":"","lat":34.852273,"lng":135.721386,"zip":"6148237"},{"town":"内里八丁","koaza":"","lat":34.861526,"lng":135.735165,"zip":"6148235"},{"town":"内里東ノ口","koaza":"","lat":34.861233,"lng":135.731412,"zip":"6148226"},{"town":"内里東山川","koaza":"","lat":34.853036,"lng":135.730194,"zip":"6148244"},{"town":"内里日向堂","koaza":"","lat":34.864584,"lng":135.735479,"zip":"6148247"},{"town":"内里平尾","koaza":"","lat":34.852804,"lng":135.724982,"zip":"6148230"},{"town":"内里深田","koaza":"","lat":34.852022,"lng":135.72371,"zip":"6140000"},{"town":"内里奉行路","koaza":"","lat":34.860789,"lng":135.725867,"zip":"6140000"},{"town":"内里舟小路","koaza":"","lat":34.858363,"lng":135.727426,"zip":"6140000"},{"town":"内里古溜池","koaza":"","lat":34.853614,"lng":135.728128,"zip":"6148245"},{"town":"内里古宮","koaza":"","lat":34.856024,"lng":135.732963,"zip":"6140000"},{"town":"内里別所","koaza":"","lat":34.862438,"lng":135.730804,"zip":"6148224"},{"town":"内里洞ケ峠","koaza":"","lat":34.855017,"lng":135.719236,"zip":"6140000"},{"town":"内里松ケ外","koaza":"","lat":34.85716,"lng":135.736738,"zip":"6148243"},{"town":"内里丸林","koaza":"","lat":34.853787,"lng":135.72392,"zip":"6140000"},{"town":"内里南ノ口","koaza":"","lat":34.857439,"lng":135.730194,"zip":"6148246"},{"town":"内里宮ノ前","koaza":"","lat":34.859275,"lng":135.729274,"zip":"6148241"},{"town":"内里目繩","koaza":"","lat":34.852252,"lng":135.72609,"zip":"6140000"},{"town":"内里柳瀬","koaza":"","lat":34.85921,"lng":135.721579,"zip":"6140000"},{"town":"内里横枕","koaza":"","lat":34.858406,"lng":135.723565,"zip":"6140000"},{"town":"男山石城","koaza":"","lat":34.860983,"lng":135.697251,"zip":"6148374"},{"town":"男山泉","koaza":"","lat":34.862829,"lng":135.693423,"zip":"6148366"},{"town":"男山金振","koaza":"","lat":34.857453,"lng":135.692778,"zip":"6148365"},{"town":"男山香呂","koaza":"","lat":34.852433,"lng":135.694023,"zip":"6148377"},{"town":"男山笹谷","koaza":"","lat":34.868182,"lng":135.695304,"zip":"6148372"},{"town":"男山指月","koaza":"","lat":34.870112,"lng":135.697636,"zip":"6148361"},{"town":"男山竹園","koaza":"","lat":34.85593,"lng":135.695503,"zip":"6148376"},{"town":"男山長沢","koaza":"","lat":34.867733,"lng":135.69263,"zip":"6148367"},{"town":"男山八望","koaza":"","lat":34.863628,"lng":135.697076,"zip":"6148373"},{"town":"男山松里","koaza":"","lat":34.85468,"lng":135.696692,"zip":"6148364"},{"town":"男山美桜","koaza":"","lat":34.865876,"lng":135.699285,"zip":"6148362"},{"town":"男山雄徳","koaza":"","lat":34.87298,"lng":135.69485,"zip":"6148371"},{"town":"男山弓岡","koaza":"","lat":34.858456,"lng":135.697953,"zip":"6148375"},{"town":"男山吉井","koaza":"","lat":34.859665,"lng":135.702293,"zip":"6148363"},{"town":"上奈良池ノ向","koaza":"","lat":34.8657,"lng":135.734816,"zip":"6148165"},{"town":"上奈良小端","koaza":"","lat":34.873052,"lng":135.732947,"zip":"6148151"},{"town":"上奈良北ノ口","koaza":"","lat":34.870084,"lng":135.731332,"zip":"6148158"},{"town":"上奈良サグリ前","koaza":"","lat":34.867544,"lng":135.735207,"zip":"6148153"},{"town":"上奈良尻ケ瀬","koaza":"","lat":34.87091,"lng":135.732171,"zip":"6140000"},{"town":"上奈良城垣内","koaza":"","lat":34.867786,"lng":135.733511,"zip":"6148155"},{"town":"上奈良大門","koaza":"","lat":34.866806,"lng":135.732931,"zip":"6148159"},{"town":"上奈良堂島","koaza":"","lat":34.866093,"lng":135.731039,"zip":"6148166"},{"town":"上奈良外島","koaza":"","lat":34.87099,"lng":135.737444,"zip":"6140000"},{"town":"上奈良長池","koaza":"","lat":34.864703,"lng":135.737593,"zip":"6148163"},{"town":"上奈良奈良里","koaza":"","lat":34.868614,"lng":135.730931,"zip":"6148156"},{"town":"上奈良東ノ口","koaza":"","lat":34.869441,"lng":135.732629,"zip":"6148157"},{"town":"上奈良日ノ尾","koaza":"","lat":34.866627,"lng":135.736533,"zip":"6148162"},{"town":"上奈良御園","koaza":"","lat":34.869475,"lng":135.735051,"zip":"6148152"},{"town":"上奈良南ノ口","koaza":"","lat":34.867389,"lng":135.730282,"zip":"6148164"},{"town":"上奈良宮ノ後","koaza":"","lat":34.871875,"lng":135.734935,"zip":"6140000"},{"town":"上奈良宮ノ西","koaza":"","lat":34.869599,"lng":135.73392,"zip":"6148154"},{"town":"上奈良宮ノ東","koaza":"","lat":34.868945,"lng":135.736899,"zip":"6148161"},{"town":"川口馬屋尻","koaza":"","lat":34.87771,"lng":135.719569,"zip":"6148112"},{"town":"川口扇ノ芝","koaza":"","lat":34.875761,"lng":135.719709,"zip":"6148115"},{"town":"川口北浦","koaza":"","lat":34.879663,"lng":135.722959,"zip":"6148102"},{"town":"川口擬宝珠","koaza":"","lat":34.87707,"lng":135.726239,"zip":"6148105"},{"town":"川口小西","koaza":"","lat":34.877721,"lng":135.718243,"zip":"6148111"},{"town":"川口高原","koaza":"","lat":34.881805,"lng":135.730205,"zip":"6130851"},{"town":"川口天神崎","koaza":"","lat":34.87527,"lng":135.722688,"zip":"6148106"},{"town":"川口西扇","koaza":"","lat":34.876987,"lng":135.716573,"zip":"6148117"},{"town":"川口萩原","koaza":"","lat":34.876743,"lng":135.720604,"zip":"6148113"},{"town":"川口浜","koaza":"","lat":34.880343,"lng":135.718682,"zip":"6148101"},{"town":"川口東扇","koaza":"","lat":34.876554,"lng":135.718876,"zip":"6148116"},{"town":"川口東頭","koaza":"","lat":34.87787,"lng":135.724637,"zip":"6148104"},{"town":"川口別所","koaza":"","lat":34.874296,"lng":135.718957,"zip":"6148114"},{"town":"川口堀ノ内","koaza":"","lat":34.876903,"lng":135.722249,"zip":"6148103"},{"town":"欽明台北","koaza":"","lat":34.841395,"lng":135.71907,"zip":"6148294"},{"town":"欽明台中央","koaza":"","lat":34.836906,"lng":135.718563,"zip":"6148295"},{"town":"欽明台西","koaza":"","lat":34.836798,"lng":135.716501,"zip":"6148297"},{"town":"欽明台東","koaza":"","lat":34.837872,"lng":135.720359,"zip":"6148296"},{"town":"上津屋尼ケ池","koaza":"","lat":34.868446,"lng":135.739126,"zip":"6148171"},{"town":"上津屋石ノ塔","koaza":"","lat":34.865068,"lng":135.740836,"zip":"6148175"},{"town":"上津屋奥河原","koaza":"","lat":34.870617,"lng":135.740837,"zip":"6140000"},{"town":"上津屋上川原","koaza":"","lat":34.863325,"lng":135.750822,"zip":"6140000"},{"town":"上津屋北川端","koaza":"","lat":34.868483,"lng":135.747894,"zip":"6140000"},{"town":"上津屋里垣内","koaza":"","lat":34.867559,"lng":135.744853,"zip":"6148173"},{"town":"上津屋中堤","koaza":"","lat":34.862597,"lng":135.739611,"zip":"6148176"},{"town":"上津屋西久保","koaza":"","lat":34.862775,"lng":135.742928,"zip":"6148183"},{"town":"上津屋八王子","koaza":"","lat":34.866819,"lng":135.740849,"zip":"6148174"},{"town":"上津屋八丁","koaza":"","lat":34.861654,"lng":135.737753,"zip":"6148171"},{"town":"上津屋浜垣内","koaza":"","lat":34.86514,"lng":135.746823,"zip":"6148181"},{"town":"上津屋林","koaza":"","lat":34.868758,"lng":135.7425,"zip":"6148172"},{"town":"上津屋南村","koaza":"","lat":34.862361,"lng":135.747081,"zip":"6148182"},{"town":"下奈良井関","koaza":"","lat":34.870924,"lng":135.720538,"zip":"6148148"},{"town":"下奈良一丁地","koaza":"","lat":34.8699,"lng":135.727036,"zip":"6148143"},{"town":"下奈良一丁堤","koaza":"","lat":34.87488,"lng":135.730909,"zip":"6148122"},{"town":"下奈良今里","koaza":"","lat":34.87042,"lng":135.724274,"zip":"6148147"},{"town":"下奈良奥垣内","koaza":"","lat":34.872689,"lng":135.727177,"zip":"6148124"},{"town":"下奈良上三床","koaza":"","lat":34.87173,"lng":135.72366,"zip":"6148141"},{"town":"下奈良上ノ段","koaza":"","lat":34.869644,"lng":135.723866,"zip":"6148146"},{"town":"下奈良北浦","koaza":"","lat":34.873799,"lng":135.727189,"zip":"6140000"},{"town":"下奈良小宮","koaza":"","lat":34.875597,"lng":135.728589,"zip":"6148121"},{"town":"下奈良栄","koaza":"","lat":34.872654,"lng":135.717811,"zip":"6140000"},{"town":"下奈良榊","koaza":"","lat":34.871282,"lng":135.730306,"zip":"6148132"},{"town":"下奈良三田長","koaza":"","lat":34.870451,"lng":135.720112,"zip":"6140000"},{"town":"下奈良下三床","koaza":"","lat":34.872635,"lng":135.723611,"zip":"6148126"},{"town":"下奈良新下","koaza":"","lat":34.870057,"lng":135.729514,"zip":"6148133"},{"town":"下奈良隅田","koaza":"","lat":34.873202,"lng":135.720376,"zip":"6148127"},{"town":"下奈良竹垣内","koaza":"","lat":34.873726,"lng":135.722602,"zip":"6148149"},{"town":"下奈良出垣内","koaza":"","lat":34.87165,"lng":135.726049,"zip":"6148125"},{"town":"下奈良蜻蛉尻","koaza":"","lat":34.86787,"lng":135.726286,"zip":"6148136"},{"town":"下奈良蜻蛉尻筋","koaza":"","lat":34.868716,"lng":135.725609,"zip":"6148135"},{"town":"下奈良中ノ坪","koaza":"","lat":34.868844,"lng":135.727449,"zip":"6148134"},{"town":"下奈良名越","koaza":"","lat":34.872736,"lng":135.729988,"zip":"6148123"},{"town":"下奈良奈良元","koaza":"","lat":34.868757,"lng":135.729296,"zip":"6148144"},{"town":"下奈良二階堂","koaza":"","lat":34.869285,"lng":135.72545,"zip":"6148145"},{"town":"下奈良野神","koaza":"","lat":34.874625,"lng":135.725516,"zip":"6148128"},{"town":"下奈良別所","koaza":"","lat":34.873398,"lng":135.717164,"zip":"6140000"},{"town":"下奈良南頭","koaza":"","lat":34.870718,"lng":135.726182,"zip":"6148142"},{"town":"下奈良宮ノ道","koaza":"","lat":34.871243,"lng":135.728708,"zip":"6148131"},{"town":"戸津荒堀","koaza":"","lat":34.867697,"lng":135.715819,"zip":"6148208"},{"town":"戸津奥谷","koaza":"","lat":34.847607,"lng":135.711359,"zip":"6148280"},{"town":"戸津奥戸津","koaza":"","lat":34.870967,"lng":135.717386,"zip":"6140000"},{"town":"戸津干天","koaza":"","lat":34.866692,"lng":135.715824,"zip":"6140000"},{"town":"戸津北小路","koaza":"","lat":34.867208,"lng":135.719471,"zip":"6148207"},{"town":"戸津北戸津","koaza":"","lat":34.868924,"lng":135.718656,"zip":"6140000"},{"town":"戸津木戸口","koaza":"","lat":34.858007,"lng":135.718773,"zip":"6140000"},{"town":"戸津五反田","koaza":"","lat":34.855896,"lng":135.717379,"zip":"6140000"},{"town":"戸津小中代","koaza":"","lat":34.865137,"lng":135.717394,"zip":"6148211"},{"town":"戸津盛戸","koaza":"","lat":34.863246,"lng":135.715475,"zip":"6140000"},{"town":"戸津正ノ竹","koaza":"","lat":34.864243,"lng":135.720446,"zip":"6148206"},{"town":"戸津谷ノ口","koaza":"","lat":34.855161,"lng":135.715327,"zip":"6148216"},{"town":"戸津露ノ花","koaza":"","lat":34.862561,"lng":135.716552,"zip":"6140000"},{"town":"戸津堂田","koaza":"","lat":34.858453,"lng":135.715033,"zip":"6148215"},{"town":"戸津蜻蛉尻","koaza":"","lat":34.866341,"lng":135.726358,"zip":"6148204"},{"town":"戸津中垣内","koaza":"","lat":34.867622,"lng":135.723858,"zip":"6148203"},{"town":"戸津中代","koaza":"","lat":34.862689,"lng":135.71859,"zip":"6148212"},{"town":"戸津中代浄恵","koaza":"","lat":34.86513,"lng":135.715001,"zip":"6140000"},{"town":"戸津東代","koaza":"","lat":34.865261,"lng":135.724036,"zip":"6148205"},{"town":"戸津東ノ口","koaza":"","lat":34.867719,"lng":135.722326,"zip":"6148202"},{"town":"戸津水戸城","koaza":"","lat":34.860347,"lng":135.718216,"zip":"6148214"},{"town":"戸津南小路","koaza":"","lat":34.865591,"lng":135.720643,"zip":"6148201"},{"town":"戸津南代","koaza":"","lat":34.862213,"lng":135.721279,"zip":"6148213"},{"town":"西山足立","koaza":"","lat":34.87298,"lng":135.690806,"zip":"6148351"},{"town":"西山丸尾","koaza":"","lat":34.871883,"lng":135.687446,"zip":"6148353"},{"town":"西山和気","koaza":"","lat":34.870267,"lng":135.688946,"zip":"6148352"},{"town":"野尻一庵","koaza":"","lat":34.859974,"lng":135.746876,"zip":"6148193"},{"town":"野尻円ノ元","koaza":"","lat":34.859041,"lng":135.744629,"zip":"6148194"},{"town":"野尻北ノ口","koaza":"","lat":34.861566,"lng":135.745307,"zip":"6148191"},{"town":"野尻倉掛","koaza":"","lat":34.860132,"lng":135.74019,"zip":"6148197"},{"town":"野尻城究","koaza":"","lat":34.859906,"lng":135.743004,"zip":"6148195"},{"town":"野尻正畑","koaza":"","lat":34.861574,"lng":135.74319,"zip":"6148196"},{"town":"野尻善角","koaza":"","lat":34.860059,"lng":135.748614,"zip":"6140000"},{"town":"野尻土井ノ内","koaza":"","lat":34.860127,"lng":135.74514,"zip":"6148192"},{"town":"野尻浜代","koaza":"","lat":34.860037,"lng":135.75119,"zip":"6140000"},{"town":"橋本愛宕山","koaza":"","lat":34.878046,"lng":135.684927,"zip":"6148345"},{"town":"橋本石ケ谷","koaza":"","lat":34.877919,"lng":135.689147,"zip":"6148326"},{"town":"橋本意足","koaza":"","lat":34.876419,"lng":135.688814,"zip":"6148331"},{"town":"橋本糸ケ上","koaza":"","lat":34.87458,"lng":135.682522,"zip":"6148349"},{"town":"橋本奥ノ町","koaza":"","lat":34.887967,"lng":135.689007,"zip":"6148311"},{"town":"橋本北浄土ケ原","koaza":"","lat":34.877903,"lng":135.690872,"zip":"6148325"},{"town":"橋本北ノ町","koaza":"","lat":34.884892,"lng":135.683734,"zip":"6148315"},{"town":"橋本栗ケ谷","koaza":"","lat":34.880939,"lng":135.686993,"zip":"6148327"},{"town":"橋本興正","koaza":"","lat":34.878414,"lng":135.6928,"zip":"6148323"},{"town":"橋本小金川","koaza":"","lat":34.881823,"lng":135.681735,"zip":"6148342"},{"town":"橋本米ノ尾","koaza":"","lat":34.883746,"lng":135.687389,"zip":"6148321"},{"town":"橋本塩釜","koaza":"","lat":34.876781,"lng":135.684849,"zip":"6148346"},{"town":"橋本尻江","koaza":"","lat":34.888519,"lng":135.69321,"zip":"6148312"},{"town":"橋本新石","koaza":"","lat":34.875062,"lng":135.688684,"zip":"6148332"},{"town":"橋本堂ケ原","koaza":"","lat":34.879925,"lng":135.684619,"zip":"6148344"},{"town":"橋本狩尾","koaza":"","lat":34.881259,"lng":135.690144,"zip":"6148322"},{"town":"橋本中ノ池尻","koaza":"","lat":34.874188,"lng":135.685968,"zip":"6148335"},{"town":"橋本中ノ町","koaza":"","lat":34.882896,"lng":135.68245,"zip":"6148341"},{"town":"橋本西刈又","koaza":"","lat":34.874452,"lng":135.690325,"zip":"6148334"},{"town":"橋本西山本","koaza":"","lat":34.884676,"lng":135.687309,"zip":"6148314"},{"town":"橋本東刈又","koaza":"","lat":34.874225,"lng":135.691402,"zip":"6148333"},{"town":"橋本東浄土ケ原","koaza":"","lat":34.8762,"lng":135.693032,"zip":"6148324"},{"town":"橋本東原","koaza":"","lat":34.873592,"lng":135.685415,"zip":"6148348"},{"town":"橋本東山本","koaza":"","lat":34.883042,"lng":135.691268,"zip":"6148313"},{"town":"橋本平野山","koaza":"","lat":34.874335,"lng":135.683942,"zip":"6148347"},{"town":"橋本向山","koaza":"","lat":34.874926,"lng":135.686169,"zip":"6148336"},{"town":"橋本焼野","koaza":"","lat":34.879817,"lng":135.683014,"zip":"6148343"},{"town":"美濃山荒坂","koaza":"","lat":34.844629,"lng":135.72416,"zip":"6140000"},{"town":"美濃山家ノ前","koaza":"","lat":34.843747,"lng":135.722108,"zip":"6140000"},{"town":"美濃山一ノ谷","koaza":"","lat":34.847517,"lng":135.709755,"zip":"6148289"},{"town":"美濃山井ノ元","koaza":"","lat":34.851329,"lng":135.714956,"zip":"6148273"},{"town":"美濃山馬ケ背","koaza":"","lat":34.842116,"lng":135.716407,"zip":"6148284"},{"town":"美濃山大塚","koaza":"","lat":34.84772,"lng":135.719925,"zip":"6148282"},{"town":"美濃山狐谷","koaza":"","lat":34.849672,"lng":135.719175,"zip":"6148281"},{"town":"美濃山幸水","koaza":"","lat":34.854453,"lng":135.709879,"zip":"6148279"},{"town":"美濃山御毛通","koaza":"","lat":34.844602,"lng":135.726162,"zip":"6140000"},{"town":"美濃山千原谷","koaza":"","lat":34.843422,"lng":135.712419,"zip":"6148286"},{"town":"美濃山出口","koaza":"","lat":34.84414,"lng":135.714101,"zip":"6148287"},{"town":"美濃山出島","koaza":"","lat":34.845052,"lng":135.716256,"zip":"6148288"},{"town":"美濃山中尾","koaza":"","lat":34.847252,"lng":135.716215,"zip":"6148275"},{"town":"美濃山西ノ口","koaza":"","lat":34.851416,"lng":135.709224,"zip":"6148278"},{"town":"美濃山野神","koaza":"","lat":34.85024,"lng":135.717268,"zip":"6148274"},{"town":"美濃山ヒル塚","koaza":"","lat":34.85588,"lng":135.711863,"zip":"6148271"},{"town":"美濃山古寺","koaza":"","lat":34.8443,"lng":135.720336,"zip":"6148298"},{"town":"美濃山細谷","koaza":"","lat":34.844502,"lng":135.718194,"zip":"6148283"},{"town":"美濃山宮ノ背","koaza":"","lat":34.851553,"lng":135.711363,"zip":"6148277"},{"town":"美濃山宮道","koaza":"","lat":34.84742,"lng":135.713239,"zip":"6148276"},{"town":"美濃山御幸","koaza":"","lat":34.852252,"lng":135.713253,"zip":"6148272"},{"town":"美濃山御幸谷","koaza":"","lat":34.841968,"lng":135.714667,"zip":"6148285"},{"town":"八幡安居塚","koaza":"","lat":34.855776,"lng":135.704523,"zip":"6148057"},{"town":"八幡池ノ首","koaza":"","lat":34.897028,"lng":135.703701,"zip":"6148301"},{"town":"八幡石不動","koaza":"","lat":34.874866,"lng":135.695309,"zip":"6148088"},{"town":"八幡一ノ坪","koaza":"","lat":34.859144,"lng":135.712658,"zip":"6148043"},{"town":"八幡一丁畑","koaza":"","lat":34.887501,"lng":135.707316,"zip":"6140000"},{"town":"八幡今田","koaza":"","lat":34.877355,"lng":135.704086,"zip":"6148084"},{"town":"八幡植松","koaza":"","lat":34.863979,"lng":135.705846,"zip":"6148076"},{"town":"八幡大芝","koaza":"","lat":34.864259,"lng":135.701947,"zip":"6148066"},{"town":"八幡大谷","koaza":"","lat":34.882145,"lng":135.694981,"zip":"6148006"},{"town":"八幡長田","koaza":"","lat":34.869346,"lng":135.704076,"zip":"6148072"},{"town":"八幡女郎花","koaza":"","lat":34.86424,"lng":135.703821,"zip":"6148077"},{"town":"八幡垣内山","koaza":"","lat":34.884499,"lng":135.706318,"zip":"6148011"},{"town":"八幡カイトリ","koaza":"","lat":34.894677,"lng":135.702769,"zip":"6148302"},{"town":"八幡柿ケ谷","koaza":"","lat":34.850231,"lng":135.697535,"zip":"6148055"},{"town":"八幡柿木垣内","koaza":"","lat":34.871963,"lng":135.708878,"zip":"6148036"},{"town":"八幡春日部","koaza":"","lat":34.871236,"lng":135.713405,"zip":"6140000"},{"town":"八幡神原","koaza":"","lat":34.873232,"lng":135.703079,"zip":"6148087"},{"town":"八幡河原崎","koaza":"","lat":34.871682,"lng":135.704572,"zip":"6148086"},{"town":"八幡岸本","koaza":"","lat":34.869968,"lng":135.702756,"zip":"6148063"},{"town":"八幡北浦","koaza":"","lat":34.882614,"lng":135.709127,"zip":"6148014"},{"town":"八幡狐川","koaza":"","lat":34.894521,"lng":135.700061,"zip":"6140000"},{"town":"八幡沓田","koaza":"","lat":34.874509,"lng":135.706205,"zip":"6148095"},{"town":"八幡久保田","koaza":"","lat":34.861849,"lng":135.708544,"zip":"6148045"},{"town":"八幡源氏垣外","koaza":"","lat":34.879899,"lng":135.707854,"zip":"6148025"},{"town":"八幡源野","koaza":"","lat":34.889111,"lng":135.71071,"zip":"6148304"},{"town":"八幡荒神塚","koaza":"","lat":34.877251,"lng":135.695515,"zip":"6140000"},{"town":"八幡御幸谷","koaza":"","lat":34.857465,"lng":135.712131,"zip":"6148044"},{"town":"八幡木樵谷","koaza":"","lat":34.874653,"lng":135.698748,"zip":"6140000"},{"town":"八幡五反田","koaza":"","lat":34.87252,"lng":135.706128,"zip":"6148071"},{"town":"八幡小西","koaza":"","lat":34.8765,"lng":135.714921,"zip":"6148031"},{"town":"八幡御馬所","koaza":"","lat":34.879813,"lng":135.704508,"zip":"6148081"},{"town":"八幡小松","koaza":"","lat":34.868064,"lng":135.709023,"zip":"6148035"},{"town":"八幡菰池","koaza":"","lat":34.891634,"lng":135.710702,"zip":"6148303"},{"town":"八幡在応寺","koaza":"","lat":34.891364,"lng":135.703379,"zip":"6148307"},{"town":"八幡盛戸","koaza":"","lat":34.863744,"lng":135.712652,"zip":"6148042"},{"town":"八幡砂田","koaza":"","lat":34.861559,"lng":135.707032,"zip":"6148046"},{"town":"八幡沢","koaza":"","lat":34.891319,"lng":135.708385,"zip":"6148306"},{"town":"八幡三反長","koaza":"","lat":34.864661,"lng":135.70757,"zip":"6148075"},{"town":"八幡三ノ甲","koaza":"","lat":34.873209,"lng":135.705026,"zip":"6148096"},{"town":"八幡三本橋","koaza":"","lat":34.877064,"lng":135.706143,"zip":"6148093"},{"town":"八幡式部谷","koaza":"","lat":34.870768,"lng":135.70027,"zip":"6148061"},{"town":"八幡軸","koaza":"","lat":34.868534,"lng":135.706043,"zip":"6148073"},{"town":"八幡科手","koaza":"","lat":34.888371,"lng":135.69803,"zip":"6148001"},{"town":"八幡柴座","koaza":"","lat":34.882433,"lng":135.704219,"zip":"6148017"},{"town":"八幡清水井","koaza":"","lat":34.869122,"lng":135.701283,"zip":"6148062"},{"town":"八幡城ノ内","koaza":"","lat":34.879631,"lng":135.703484,"zip":"6148092"},{"town":"八幡菖蒲池","koaza":"","lat":34.878122,"lng":135.704673,"zip":"6148082"},{"town":"八幡水珀","koaza":"","lat":34.856812,"lng":135.708596,"zip":"6148053"},{"town":"八幡隅田口","koaza":"","lat":34.867094,"lng":135.700249,"zip":"6148068"},{"town":"八幡千束","koaza":"","lat":34.885467,"lng":135.704808,"zip":"6148003"},{"town":"八幡双栗","koaza":"","lat":34.877817,"lng":135.712742,"zip":"6148024"},{"town":"八幡園内","koaza":"","lat":34.877027,"lng":135.708529,"zip":"6148038"},{"town":"八幡高畑","koaza":"","lat":34.874458,"lng":135.708306,"zip":"6148037"},{"town":"八幡高坊","koaza":"","lat":34.878624,"lng":135.700781,"zip":"6148005"},{"town":"八幡旦所","koaza":"","lat":34.881131,"lng":135.706663,"zip":"6148015"},{"town":"八幡茶屋ノ前","koaza":"","lat":34.890925,"lng":135.706264,"zip":"6140000"},{"town":"八幡月夜田","koaza":"","lat":34.861461,"lng":135.704452,"zip":"6148047"},{"town":"八幡土井","koaza":"","lat":34.885441,"lng":135.702725,"zip":"6148002"},{"town":"八幡東林","koaza":"","lat":34.868088,"lng":135.703609,"zip":"6148079"},{"town":"八幡苗田","koaza":"","lat":34.87553,"lng":135.712747,"zip":"6148039"},{"town":"八幡長谷","koaza":"","lat":34.850056,"lng":135.694901,"zip":"6148058"},{"town":"八幡中ノ町","koaza":"","lat":34.871146,"lng":135.714579,"zip":"6140000"},{"town":"八幡中ノ山","koaza":"","lat":34.862039,"lng":135.70139,"zip":"6148067"},{"town":"八幡長町","koaza":"","lat":34.895513,"lng":135.717949,"zip":"6130853"},{"town":"八幡名残","koaza":"","lat":34.879973,"lng":135.712103,"zip":"6148023"},{"town":"八幡西島","koaza":"","lat":34.874513,"lng":135.710255,"zip":"6148033"},{"town":"八幡西高坊","koaza":"","lat":34.882993,"lng":135.698755,"zip":"6148007"},{"town":"八幡馬場","koaza":"","lat":34.875807,"lng":135.703504,"zip":"6148085"},{"town":"八幡馬場山","koaza":"","lat":34.876121,"lng":135.698784,"zip":"6140000"},{"town":"八幡浜","koaza":"","lat":34.880453,"lng":135.715835,"zip":"6140000"},{"town":"八幡林ノ元","koaza":"","lat":34.892352,"lng":135.696699,"zip":"6140000"},{"town":"八幡針ノ木内","koaza":"","lat":34.888407,"lng":135.70476,"zip":"6140000"},{"town":"八幡番賀","koaza":"","lat":34.873748,"lng":135.714075,"zip":"6148032"},{"town":"八幡東浦","koaza":"","lat":34.880882,"lng":135.714288,"zip":"6148022"},{"town":"八幡東島","koaza":"","lat":34.874728,"lng":135.711016,"zip":"6148030"},{"town":"八幡備前","koaza":"","lat":34.852126,"lng":135.707625,"zip":"6148048"},{"town":"八幡樋ノ口","koaza":"","lat":34.888082,"lng":135.721028,"zip":"6130852"},{"town":"八幡平谷","koaza":"","lat":34.882587,"lng":135.701486,"zip":"6148091"},{"town":"八幡平田","koaza":"","lat":34.875502,"lng":135.704785,"zip":"6148094"},{"town":"八幡平ノ山","koaza":"","lat":34.881569,"lng":135.700117,"zip":"6148008"},{"town":"八幡広門","koaza":"","lat":34.866441,"lng":135.703768,"zip":"6148078"},{"town":"八幡福禄谷","koaza":"","lat":34.853051,"lng":135.699938,"zip":"6148056"},{"town":"八幡伏ノ木","koaza":"","lat":34.89301,"lng":135.708525,"zip":"6140000"},{"town":"八幡舞台","koaza":"","lat":34.868117,"lng":135.713251,"zip":"6148034"},{"town":"八幡松ケ本","koaza":"","lat":34.884765,"lng":135.713573,"zip":"6140000"},{"town":"八幡松原","koaza":"","lat":34.867264,"lng":135.702696,"zip":"6148064"},{"town":"八幡溝落","koaza":"","lat":34.892555,"lng":135.700446,"zip":"6140000"},{"town":"八幡南山","koaza":"","lat":34.853586,"lng":135.706042,"zip":"6148054"},{"town":"八幡武蔵芝","koaza":"","lat":34.857907,"lng":135.709712,"zip":"6148052"},{"town":"八幡森","koaza":"","lat":34.881118,"lng":135.708999,"zip":"6148026"},{"town":"八幡森垣内","koaza":"","lat":34.881909,"lng":135.711899,"zip":"6148021"},{"town":"八幡焼木","koaza":"","lat":34.885627,"lng":135.709973,"zip":"6148305"},{"town":"八幡柳畑","koaza":"","lat":34.87122,"lng":135.71592,"zip":"6140000"},{"town":"八幡八萩","koaza":"","lat":34.896296,"lng":135.701794,"zip":"6148308"},{"town":"八幡山路","koaza":"","lat":34.881428,"lng":135.705057,"zip":"6148016"},{"town":"八幡山下","koaza":"","lat":34.866696,"lng":135.701539,"zip":"6148065"},{"town":"八幡山柴","koaza":"","lat":34.881849,"lng":135.703511,"zip":"6148004"},{"town":"八幡山田","koaza":"","lat":34.859592,"lng":135.706377,"zip":"6148051"},{"town":"八幡山本","koaza":"","lat":34.878307,"lng":135.703219,"zip":"6148083"},{"town":"八幡吉野","koaza":"","lat":34.882756,"lng":135.705145,"zip":"6148012"},{"town":"八幡吉野垣内","koaza":"","lat":34.882809,"lng":135.707463,"zip":"6148013"},{"town":"八幡吉原","koaza":"","lat":34.864219,"lng":135.709753,"zip":"6148041"},{"town":"八幡渡ル瀬","koaza":"","lat":34.866533,"lng":135.707723,"zip":"6148074"}]