[{"town":"園部町天引","koaza":"","lat":35.059144,"lng":135.412936,"zip":"6220063"},{"town":"園部町瓜生野","koaza":"","lat":35.123402,"lng":135.469827,"zip":"6220021"},{"town":"園部町大河内","koaza":"","lat":35.042004,"lng":135.404554,"zip":"6220065"},{"town":"園部町大戸","koaza":"","lat":35.110057,"lng":135.505234,"zip":"6220033"},{"town":"園部町大西","koaza":"","lat":35.09741,"lng":135.445655,"zip":"6220054"},{"town":"園部町越方","koaza":"","lat":35.129669,"lng":135.508554,"zip":"6220036"},{"town":"園部町小山西町","koaza":"","lat":35.094143,"lng":135.475994,"zip":"6220043"},{"town":"園部町小山東町","koaza":"","lat":35.098708,"lng":135.483703,"zip":"6220041"},{"town":"園部町上木崎町","koaza":"","lat":35.12232,"lng":135.453107,"zip":"6220011"},{"town":"園部町上本町","koaza":"","lat":35.110472,"lng":135.470846,"zip":"6220014"},{"town":"園部町河原町","koaza":"","lat":35.110847,"lng":135.467576,"zip":"6220016"},{"town":"園部町口人","koaza":"","lat":35.080557,"lng":135.465303,"zip":"6220046"},{"town":"園部町熊崎","koaza":"","lat":35.134882,"lng":135.458026,"zip":"6220022"},{"town":"園部町熊原","koaza":"","lat":35.112882,"lng":135.513478,"zip":"6220034"},{"town":"園部町黒田","koaza":"","lat":35.114011,"lng":135.445864,"zip":"6220052"},{"town":"園部町口司","koaza":"","lat":35.078346,"lng":135.483527,"zip":"6220047"},{"town":"園部町小桜町","koaza":"","lat":35.105539,"lng":135.470414,"zip":"6220004"},{"town":"園部町栄町","koaza":"","lat":35.100673,"lng":135.474214,"zip":"6220042"},{"town":"園部町佐切","koaza":"","lat":35.122688,"lng":135.513823,"zip":"6220035"},{"town":"園部町宍人","koaza":"","lat":35.080379,"lng":135.439241,"zip":"6220055"},{"town":"園部町城南町","koaza":"","lat":35.099925,"lng":135.466997,"zip":"6220044"},{"town":"園部町新堂","koaza":"","lat":35.135777,"lng":135.471118,"zip":"6220023"},{"town":"園部町新町","koaza":"","lat":35.109202,"lng":135.477383,"zip":"6220003"},{"town":"園部町千妻","koaza":"","lat":35.126184,"lng":135.487581,"zip":"6220024"},{"town":"園部町高屋","koaza":"","lat":35.117055,"lng":135.499408,"zip":"6220032"},{"town":"園部町竹井","koaza":"","lat":35.091344,"lng":135.417039,"zip":"6220062"},{"town":"園部町殿谷","koaza":"","lat":35.068708,"lng":135.464921,"zip":"6220057"},{"town":"園部町仁江","koaza":"","lat":35.099337,"lng":135.435086,"zip":"6220061"},{"town":"園部町埴生","koaza":"","lat":35.060439,"lng":135.446058,"zip":"6220056"},{"town":"園部町半田","koaza":"","lat":35.090571,"lng":135.459656,"zip":"6220045"},{"town":"園部町船岡","koaza":"","lat":35.140074,"lng":135.48877,"zip":"6220031"},{"town":"園部町船阪","koaza":"","lat":35.110833,"lng":135.435047,"zip":"6220053"},{"town":"園部町法京","koaza":"","lat":35.054994,"lng":135.394567,"zip":"6220064"},{"town":"園部町南大谷","koaza":"","lat":35.042595,"lng":135.451789,"zip":"6220059"},{"town":"園部町南八田","koaza":"","lat":35.052107,"lng":135.430626,"zip":"6220066"},{"town":"園部町横田","koaza":"","lat":35.10736,"lng":135.460431,"zip":"6220051"},{"town":"園部町若松町","koaza":"","lat":35.111688,"lng":135.474549,"zip":"6220017"},{"town":"園部町若森","koaza":"","lat":35.060459,"lng":135.46622,"zip":"6220058"},{"town":"日吉町天若","koaza":"","lat":35.136474,"lng":135.540742,"zip":"6290334"},{"town":"日吉町上胡麻","koaza":"","lat":35.183893,"lng":135.469086,"zip":"6290312"},{"town":"日吉町生畑","koaza":"","lat":35.189734,"lng":135.560107,"zip":"6290331"},{"town":"日吉町木住","koaza":"","lat":35.166888,"lng":135.527193,"zip":"6290332"},{"town":"日吉町胡麻","koaza":"","lat":35.195015,"lng":135.484797,"zip":"6290311"},{"town":"日吉町佐々江","koaza":"","lat":35.208115,"lng":135.57997,"zip":"6290321"},{"town":"日吉町志和賀","koaza":"","lat":35.156195,"lng":135.472763,"zip":"6290302"},{"town":"日吉町田原","koaza":"","lat":35.194232,"lng":135.519694,"zip":"6290323"},{"town":"日吉町殿田","koaza":"","lat":35.150952,"lng":135.505016,"zip":"6290341"},{"town":"日吉町中","koaza":"","lat":35.146684,"lng":135.517109,"zip":"6290335"},{"town":"日吉町中世木","koaza":"","lat":35.163784,"lng":135.550623,"zip":"6290333"},{"town":"日吉町畑郷","koaza":"","lat":35.227393,"lng":135.481792,"zip":"6290313"},{"town":"日吉町保野田","koaza":"","lat":35.173379,"lng":135.487333,"zip":"6290301"},{"town":"日吉町四ツ谷","koaza":"","lat":35.222265,"lng":135.544043,"zip":"6290322"},{"town":"美山町安掛","koaza":"","lat":35.283619,"lng":135.590628,"zip":"6010722"},{"town":"美山町芦生","koaza":"","lat":35.321825,"lng":135.750623,"zip":"6010703"},{"town":"美山町荒倉","koaza":"","lat":35.293526,"lng":135.594366,"zip":"6010723"},{"town":"美山町和泉","koaza":"","lat":35.280663,"lng":135.543891,"zip":"6010754"},{"town":"美山町板橋","koaza":"","lat":35.237884,"lng":135.553423,"zip":"6010742"},{"town":"美山町内久保","koaza":"","lat":35.299807,"lng":135.612562,"zip":"6010724"},{"town":"美山町江和","koaza":"","lat":35.318915,"lng":135.660622,"zip":"6010701"},{"town":"美山町大野","koaza":"","lat":35.28539,"lng":135.514328,"zip":"6010772"},{"town":"美山町音海","koaza":"","lat":35.283938,"lng":135.484513,"zip":"6010778"},{"town":"美山町小渕","koaza":"","lat":35.267216,"lng":135.487748,"zip":"6010775"},{"town":"美山町樫原","koaza":"","lat":35.269414,"lng":135.467105,"zip":"6010777"},{"town":"美山町上平屋","koaza":"","lat":35.27939,"lng":135.57471,"zip":"6010721"},{"town":"美山町萱野","koaza":"","lat":35.268586,"lng":135.525216,"zip":"6010771"},{"town":"美山町河内谷","koaza":"","lat":35.28619,"lng":135.646049,"zip":"6010714"},{"town":"美山町北","koaza":"","lat":35.317248,"lng":135.61781,"zip":"6010712"},{"town":"美山町佐々里","koaza":"","lat":35.275702,"lng":135.697863,"zip":"6010705"},{"town":"美山町静原","koaza":"","lat":35.279021,"lng":135.557212,"zip":"6010755"},{"town":"美山町島","koaza":"","lat":35.25982,"lng":135.540284,"zip":"6010751"},{"town":"美山町下","koaza":"","lat":35.329775,"lng":135.62573,"zip":"6010715"},{"town":"美山町下平屋","koaza":"","lat":35.266698,"lng":135.581952,"zip":"6010732"},{"town":"美山町下吉田","koaza":"","lat":35.263482,"lng":135.560622,"zip":"6010744"},{"town":"美山町上司","koaza":"","lat":35.287005,"lng":135.530838,"zip":"6010753"},{"town":"美山町白石","koaza":"","lat":35.293239,"lng":135.682588,"zip":"6010704"},{"town":"美山町田歌","koaza":"","lat":35.325022,"lng":135.687609,"zip":"6010702"},{"town":"美山町高野","koaza":"","lat":35.307245,"lng":135.575327,"zip":"6010761"},{"town":"美山町知見","koaza":"","lat":35.349824,"lng":135.646757,"zip":"6010716"},{"town":"美山町鶴ケ岡","koaza":"","lat":35.319371,"lng":135.560482,"zip":"6010762"},{"town":"美山町豊郷","koaza":"","lat":35.340944,"lng":135.52537,"zip":"6010763"},{"town":"美山町中","koaza":"","lat":35.31083,"lng":135.636515,"zip":"6010713"},{"town":"美山町長尾","koaza":"","lat":35.26896,"lng":135.591677,"zip":"6010734"},{"town":"美山町長谷","koaza":"","lat":35.27358,"lng":135.536135,"zip":"6010752"},{"town":"美山町野添","koaza":"","lat":35.276295,"lng":135.608562,"zip":"6010733"},{"town":"美山町原","koaza":"","lat":35.235657,"lng":135.597083,"zip":"6010741"},{"town":"美山町肱谷","koaza":"","lat":35.252613,"lng":135.504251,"zip":"6010774"},{"town":"美山町深見","koaza":"","lat":35.258018,"lng":135.617358,"zip":"6010735"},{"town":"美山町福居","koaza":"","lat":35.356874,"lng":135.560285,"zip":"6010765"},{"town":"美山町又林","koaza":"","lat":35.258742,"lng":135.582621,"zip":"6010731"},{"town":"美山町三埜","koaza":"","lat":35.296192,"lng":135.49624,"zip":"6010773"},{"town":"美山町南","koaza":"","lat":35.306671,"lng":135.628686,"zip":"6010711"},{"town":"美山町宮脇","koaza":"","lat":35.251134,"lng":135.563153,"zip":"6010743"},{"town":"美山町向山","koaza":"","lat":35.257645,"lng":135.480332,"zip":"6010776"},{"town":"美山町盛郷","koaza":"","lat":35.347124,"lng":135.59783,"zip":"6010764"},{"town":"八木町青戸","koaza":"","lat":35.07915,"lng":135.547087,"zip":"6290122"},{"town":"八木町池上","koaza":"","lat":35.085828,"lng":135.533125,"zip":"6290112"},{"town":"八木町池之内","koaza":"","lat":35.080541,"lng":135.49556,"zip":"6220000"},{"town":"八木町大薮","koaza":"","lat":35.076122,"lng":135.524328,"zip":"6220000"},{"town":"八木町刑部","koaza":"","lat":35.081505,"lng":135.540885,"zip":"6290113"},{"town":"八木町神吉","koaza":"","lat":35.112826,"lng":135.578829,"zip":"6290271"},{"town":"八木町観音寺","koaza":"","lat":35.068436,"lng":135.549515,"zip":"6290133"},{"town":"八木町北広瀬","koaza":"","lat":35.083306,"lng":135.523367,"zip":"6220000"},{"town":"八木町北屋賀","koaza":"","lat":35.073575,"lng":135.553971,"zip":"6290131"},{"town":"八木町木原","koaza":"","lat":35.088726,"lng":135.495806,"zip":"6290165"},{"town":"八木町柴山","koaza":"","lat":35.067871,"lng":135.512516,"zip":"6290154"},{"town":"八木町玉ノ井","koaza":"","lat":35.083218,"lng":135.507719,"zip":"6290163"},{"town":"八木町鳥羽","koaza":"","lat":35.088271,"lng":135.509237,"zip":"6290162"},{"town":"八木町西田","koaza":"","lat":35.070641,"lng":135.541712,"zip":"6290134"},{"town":"八木町野条","koaza":"","lat":35.092141,"lng":135.533628,"zip":"6290111"},{"town":"八木町日置","koaza":"","lat":35.109042,"lng":135.553802,"zip":"6290104"},{"town":"八木町氷所","koaza":"","lat":35.109166,"lng":135.560365,"zip":"6290121"},{"town":"八木町船枝","koaza":"","lat":35.122572,"lng":135.525898,"zip":"6290101"},{"town":"八木町美里","koaza":"","lat":35.101252,"lng":135.51023,"zip":"6290161"},{"town":"八木町南広瀬","koaza":"","lat":35.076166,"lng":135.530004,"zip":"6220000"},{"town":"八木町室河原","koaza":"","lat":35.09654,"lng":135.494677,"zip":"6290166"},{"town":"八木町室橋","koaza":"","lat":35.102251,"lng":135.525182,"zip":"6290102"},{"town":"八木町諸畑","koaza":"","lat":35.109691,"lng":135.541392,"zip":"6290103"},{"town":"八木町屋賀","koaza":"","lat":35.067784,"lng":135.553324,"zip":"6290132"},{"town":"八木町八木","koaza":"","lat":35.066042,"lng":135.528848,"zip":"6290141"},{"town":"八木町八木嶋","koaza":"","lat":35.0783,"lng":135.517608,"zip":"6290153"},{"town":"八木町山室","koaza":"","lat":35.093851,"lng":135.514866,"zip":"6290115"},{"town":"園部町曽我谷","koaza":"","lat":35.114159,"lng":135.488566,"zip":"6220025"},{"town":"園部町木崎町","koaza":"","lat":35.111953,"lng":135.480154,"zip":"6220015"},{"town":"園部町宮町","koaza":"","lat":35.10898,"lng":135.471806,"zip":"6220001"},{"town":"園部町美園町","koaza":"","lat":35.10633,"lng":135.474603,"zip":"6220002"},{"town":"園部町本町","koaza":"","lat":35.110468,"lng":135.474276,"zip":"6220013"},{"town":"園部町内林町","koaza":"","lat":35.12,"lng":135.476777,"zip":"6220012"},{"town":"園部町竹井","koaza":"広瀬","lat":35.083618,"lng":135.412781,"zip":"6220062"},{"town":"園部町竹井","koaza":"若杉","lat":35.087894,"lng":135.419614,"zip":"6220062"},{"town":"園部町竹井","koaza":"大北","lat":35.089413,"lng":135.419537,"zip":"6220062"},{"town":"園部町竹井","koaza":"西条","lat":35.091811,"lng":135.423735,"zip":"6220062"},{"town":"園部町竹井","koaza":"岩見谷","lat":35.09103,"lng":135.424485,"zip":"6220062"},{"town":"園部町竹井","koaza":"タワ","lat":35.097075,"lng":135.425933,"zip":"6220062"},{"town":"園部町竹井","koaza":"マキ","lat":35.092971,"lng":135.425658,"zip":"6220062"},{"town":"園部町竹井","koaza":"横長","lat":35.094697,"lng":135.429456,"zip":"6220062"},{"town":"園部町仁江","koaza":"殿垣内","lat":35.097282,"lng":135.431565,"zip":"6220061"},{"town":"園部町仁江","koaza":"甲溝畑","lat":35.103726,"lng":135.433822,"zip":"6220061"},{"town":"園部町仁江","koaza":"中田","lat":35.098089,"lng":135.435607,"zip":"6220061"},{"town":"園部町仁江","koaza":"乙溝畑","lat":35.102341,"lng":135.434534,"zip":"6220061"},{"town":"園部町仁江","koaza":"木畑","lat":35.106859,"lng":135.437249,"zip":"6220061"},{"town":"園部町宍人","koaza":"奥長谷","lat":35.07591,"lng":135.435538,"zip":"6220055"},{"town":"園部町仁江","koaza":"坂田","lat":35.100449,"lng":135.437388,"zip":"6220061"},{"town":"園部町宍人","koaza":"口長谷","lat":35.07821,"lng":135.437102,"zip":"6220055"},{"town":"園部町宍人","koaza":"流田","lat":35.075913,"lng":135.438723,"zip":"6220055"},{"town":"園部町宍人","koaza":"草谷","lat":35.084924,"lng":135.439877,"zip":"6220055"},{"town":"園部町宍人","koaza":"市場","lat":35.088512,"lng":135.439955,"zip":"6220055"},{"town":"園部町宍人","koaza":"徳明","lat":35.086684,"lng":135.440619,"zip":"6220055"},{"town":"園部町船阪","koaza":"保田","lat":35.105798,"lng":135.441286,"zip":"6220053"},{"town":"園部町船阪","koaza":"イヅ","lat":35.104911,"lng":135.442251,"zip":"6220053"},{"town":"園部町大西","koaza":"中奥","lat":35.094675,"lng":135.442444,"zip":"6220054"},{"town":"園部町船阪","koaza":"大門","lat":35.103854,"lng":135.442292,"zip":"6220053"},{"town":"園部町宍人","koaza":"岡鼻","lat":35.086506,"lng":135.442917,"zip":"6220055"},{"town":"園部町宍人","koaza":"中台","lat":35.089827,"lng":135.443305,"zip":"6220055"},{"town":"園部町船阪","koaza":"前河原","lat":35.106695,"lng":135.443982,"zip":"6220053"},{"town":"園部町大西","koaza":"西デキス","lat":35.096914,"lng":135.441048,"zip":"6220054"},{"town":"園部町大西","koaza":"宮ノ前","lat":35.094117,"lng":135.444655,"zip":"6220054"},{"town":"園部町横田","koaza":"西河原","lat":35.108186,"lng":135.456404,"zip":"6220051"},{"town":"園部町大西","koaza":"川原","lat":35.100266,"lng":135.444692,"zip":"6220054"},{"town":"園部町大西","koaza":"サイノ木","lat":35.095068,"lng":135.445245,"zip":"6220054"},{"town":"園部町大西","koaza":"中ハタ","lat":35.097836,"lng":135.445777,"zip":"6220054"},{"town":"園部町大西","koaza":"樋ノツメ","lat":35.097118,"lng":135.446401,"zip":"6220054"},{"town":"園部町黒田","koaza":"四反田","lat":35.110642,"lng":135.44895,"zip":"6220052"},{"town":"園部町横田","koaza":"上河原","lat":35.10543,"lng":135.45034,"zip":"6220051"},{"town":"園部町黒田","koaza":"サイス","lat":35.111643,"lng":135.449073,"zip":"6220052"},{"town":"園部町黒田","koaza":"西片山","lat":35.111667,"lng":135.451173,"zip":"6220052"},{"town":"園部町黒田","koaza":"柳ケ坪","lat":35.110711,"lng":135.451524,"zip":"6220052"},{"town":"園部町黒田","koaza":"東片山","lat":35.112473,"lng":135.454339,"zip":"6220052"},{"town":"園部町黒田","koaza":"本コウ","lat":35.110666,"lng":135.452998,"zip":"6220052"},{"town":"園部町半田","koaza":"中殿","lat":35.090547,"lng":135.456714,"zip":"6220045"},{"town":"園部町半田","koaza":"西谷","lat":35.093773,"lng":135.455188,"zip":"6220045"},{"town":"園部町黒田","koaza":"下河原","lat":35.110766,"lng":135.455669,"zip":"6220052"},{"town":"園部町半田","koaza":"井上","lat":35.097325,"lng":135.455825,"zip":"6220045"},{"town":"園部町半田","koaza":"クボラ","lat":35.100108,"lng":135.457694,"zip":"6220045"},{"town":"園部町半田","koaza":"安谷","lat":35.087004,"lng":135.457491,"zip":"6220045"},{"town":"園部町半田","koaza":"野ノ口","lat":35.101194,"lng":135.457909,"zip":"6220045"},{"town":"園部町半田","koaza":"サタ","lat":35.093822,"lng":135.457367,"zip":"6220045"},{"town":"園部町横田","koaza":"七号","lat":35.104753,"lng":135.459552,"zip":"6220051"},{"town":"園部町横田","koaza":"温井","lat":35.105615,"lng":135.458177,"zip":"6220051"},{"town":"園部町横田","koaza":"五号","lat":35.107467,"lng":135.459555,"zip":"6220051"},{"town":"園部町半田","koaza":"裏上","lat":35.099118,"lng":135.461142,"zip":"6220045"},{"town":"園部町口人","koaza":"石ケ坪","lat":35.083969,"lng":135.459098,"zip":"6220046"},{"town":"園部町半田","koaza":"尾長","lat":35.101769,"lng":135.460445,"zip":"6220045"},{"town":"園部町横田","koaza":"二号","lat":35.109805,"lng":135.461391,"zip":"6220051"},{"town":"園部町口人","koaza":"垣内","lat":35.084417,"lng":135.460123,"zip":"6220046"},{"town":"園部町口人","koaza":"ノト","lat":35.084909,"lng":135.460248,"zip":"6220046"},{"town":"園部町半田","koaza":"相田","lat":35.094461,"lng":135.460393,"zip":"6220045"},{"town":"園部町横田","koaza":"四号","lat":35.107981,"lng":135.462206,"zip":"6220051"},{"town":"園部町横田","koaza":"三号","lat":35.107958,"lng":135.463658,"zip":"6220051"},{"town":"園部町口人","koaza":"シウダニ","lat":35.083835,"lng":135.463295,"zip":"6220046"},{"town":"園部町横田","koaza":"一号","lat":35.110203,"lng":135.464475,"zip":"6220051"},{"town":"園部町城南町","koaza":"大門","lat":35.102704,"lng":135.463047,"zip":"6220044"},{"town":"園部町上木崎町","koaza":"上中畷","lat":35.11346,"lng":135.463665,"zip":"6220011"},{"town":"園部町熊崎","koaza":"土井ノ内","lat":35.130383,"lng":135.464124,"zip":"6220022"},{"town":"園部町城南町","koaza":"ワノ内","lat":35.103915,"lng":135.464902,"zip":"6220044"},{"town":"園部町上木崎町","koaza":"下中畷","lat":35.113662,"lng":135.462215,"zip":"6220011"},{"town":"園部町横田","koaza":"九ノ坪","lat":35.107323,"lng":135.464513,"zip":"6220051"},{"town":"園部町城南町","koaza":"ハサマ","lat":35.10181,"lng":135.466011,"zip":"6220044"},{"town":"園部町上木崎町","koaza":"岩崎","lat":35.11264,"lng":135.465511,"zip":"6220011"},{"town":"園部町熊崎","koaza":"小市","lat":35.12844,"lng":135.465333,"zip":"6220022"},{"town":"園部町城南町","koaza":"ツジ","lat":35.099683,"lng":135.465946,"zip":"6220044"},{"town":"園部町熊崎","koaza":"ニガキ","lat":35.131165,"lng":135.46666,"zip":"6220022"},{"town":"園部町城南町","koaza":"中井","lat":35.102091,"lng":135.466745,"zip":"6220044"},{"town":"園部町河原町","koaza":"二号","lat":35.111191,"lng":135.466131,"zip":"6220016"},{"town":"園部町河原町","koaza":"三号","lat":35.110389,"lng":135.467746,"zip":"6220016"},{"town":"園部町上木崎町","koaza":"寺ノ下","lat":35.113541,"lng":135.468161,"zip":"6220011"},{"town":"園部町城南町","koaza":"クゴ","lat":35.100698,"lng":135.467524,"zip":"6220044"},{"town":"園部町上木崎町","koaza":"四辻","lat":35.112452,"lng":135.468621,"zip":"6220011"},{"town":"園部町河原町","koaza":"四号","lat":35.111542,"lng":135.466969,"zip":"6220016"},{"town":"園部町小山西町","koaza":"高杭","lat":35.091488,"lng":135.4717,"zip":"6220043"},{"town":"園部町城南町","koaza":"小町","lat":35.101833,"lng":135.468625,"zip":"6220044"},{"town":"園部町城南町","koaza":"大領","lat":35.098762,"lng":135.467933,"zip":"6220044"},{"town":"園部町城南町","koaza":"岸ケ前","lat":35.101169,"lng":135.468301,"zip":"6220044"},{"town":"園部町口人","koaza":"畷","lat":35.083665,"lng":135.469387,"zip":"6220046"},{"town":"園部町熊崎","koaza":"山内","lat":35.128843,"lng":135.472429,"zip":"6220022"},{"town":"園部町上木崎町","koaza":"中ノ坪","lat":35.112425,"lng":135.470903,"zip":"6220011"},{"town":"園部町瓜生野","koaza":"東庄","lat":35.124419,"lng":135.470825,"zip":"6220021"},{"town":"園部町城南町","koaza":"堂田","lat":35.100732,"lng":135.470331,"zip":"6220044"},{"town":"園部町熊崎","koaza":"蓮町","lat":35.13003,"lng":135.472012,"zip":"6220022"},{"town":"園部町上本町","koaza":"南","lat":35.109972,"lng":135.470826,"zip":"6220014"},{"town":"園部町栄町","koaza":"三号","lat":35.099623,"lng":135.472701,"zip":"6220042"},{"town":"園部町木崎町","koaza":"中川端","lat":35.11269,"lng":135.472417,"zip":"6220015"},{"town":"園部町瓜生野","koaza":"狭間","lat":35.122415,"lng":135.472237,"zip":"6220021"},{"town":"園部町栄町","koaza":"二号","lat":35.100774,"lng":135.473813,"zip":"6220042"},{"town":"園部町小山西町","koaza":"五合山","lat":35.097927,"lng":135.473941,"zip":"6220043"},{"town":"園部町木崎町","koaza":"土手下","lat":35.114306,"lng":135.472736,"zip":"6220015"},{"town":"園部町栄町","koaza":"一号","lat":35.101128,"lng":135.475925,"zip":"6220042"},{"town":"園部町小山西町","koaza":"打越","lat":35.100143,"lng":135.475521,"zip":"6220043"},{"town":"園部町小山西町","koaza":"野本","lat":35.097031,"lng":135.474824,"zip":"6220043"},{"town":"園部町小山西町","koaza":"油縄手","lat":35.095273,"lng":135.475306,"zip":"6220043"},{"town":"園部町小山西町","koaza":"ビンゴ","lat":35.093852,"lng":135.475596,"zip":"6220043"},{"town":"園部町小山西町","koaza":"大垣内","lat":35.096149,"lng":135.477106,"zip":"6220043"},{"town":"園部町木崎町","koaza":"下ヲサ","lat":35.114608,"lng":135.475687,"zip":"6220015"},{"town":"園部町新堂","koaza":"西ノ下","lat":35.131112,"lng":135.475053,"zip":"6220023"},{"town":"園部町口司","koaza":"段ノ下","lat":35.086696,"lng":135.475861,"zip":"6220047"},{"town":"園部町小山西町","koaza":"一本木","lat":35.095244,"lng":135.476809,"zip":"6220043"},{"town":"園部町木崎町","koaza":"大川端","lat":35.111531,"lng":135.47756,"zip":"6220015"},{"town":"園部町内林町","koaza":"下荒代","lat":35.116396,"lng":135.475991,"zip":"6220012"},{"town":"園部町木崎町","koaza":"薮中","lat":35.11446,"lng":135.477684,"zip":"6220015"},{"town":"園部町新堂","koaza":"里ノ内","lat":35.131784,"lng":135.477955,"zip":"6220023"},{"town":"園部町木崎町","koaza":"東川端","lat":35.111842,"lng":135.478377,"zip":"6220015"},{"town":"園部町木崎町","koaza":"川端","lat":35.110474,"lng":135.479498,"zip":"6220015"},{"town":"園部町内林町","koaza":"今林","lat":35.12361,"lng":135.478817,"zip":"6220012"},{"town":"園部町小山西町","koaza":"柿ノ木谷","lat":35.093821,"lng":135.479057,"zip":"6220043"},{"town":"園部町小山西町","koaza":"滝谷","lat":35.091143,"lng":135.480378,"zip":"6220043"},{"town":"園部町新堂","koaza":"才ケ坪","lat":35.12837,"lng":135.480532,"zip":"6220023"},{"town":"園部町船岡","koaza":"木戸ノ本","lat":35.134821,"lng":135.481608,"zip":"6220031"},{"town":"園部町木崎町","koaza":"正尺","lat":35.10852,"lng":135.480538,"zip":"6220015"},{"town":"園部町小山東町","koaza":"西山","lat":35.103229,"lng":135.48131,"zip":"6220041"},{"town":"園部町小山西町","koaza":"大峠","lat":35.093366,"lng":135.481054,"zip":"6220043"},{"town":"園部町小山西町","koaza":"大向","lat":35.092223,"lng":135.481119,"zip":"6220043"},{"town":"園部町小山東町","koaza":"藤ノ木","lat":35.10404,"lng":135.483301,"zip":"6220041"},{"town":"園部町小山東町","koaza":"平岩","lat":35.106457,"lng":135.480599,"zip":"6220041"},{"town":"園部町口司","koaza":"ツカノモト","lat":35.083856,"lng":135.481896,"zip":"6220047"},{"town":"園部町新堂","koaza":"岡田","lat":35.128925,"lng":135.481869,"zip":"6220023"},{"town":"園部町口司","koaza":"奥ケ原","lat":35.072234,"lng":135.487942,"zip":"6220047"},{"town":"園部町小山東町","koaza":"平成台三号","lat":35.096277,"lng":135.482911,"zip":"6220041"},{"town":"園部町小山東町","koaza":"平成台一号","lat":35.100288,"lng":135.483062,"zip":"6220041"},{"town":"園部町小山東町","koaza":"溝辺","lat":35.103164,"lng":135.485022,"zip":"6220041"},{"town":"園部町口司","koaza":"小山田","lat":35.080073,"lng":135.483865,"zip":"6220047"},{"town":"園部町小山東町","koaza":"平成台二号","lat":35.096111,"lng":135.484167,"zip":"6220041"},{"town":"園部町船岡","koaza":"藁無","lat":35.134763,"lng":135.484384,"zip":"6220031"},{"town":"園部町曽我谷","koaza":"杉森","lat":35.11678,"lng":135.485173,"zip":"6220025"},{"town":"園部町千妻","koaza":"宮ノ下","lat":35.12647,"lng":135.48587,"zip":"6220024"},{"town":"園部町曽我谷","koaza":"大屋","lat":35.114992,"lng":135.485273,"zip":"6220025"},{"town":"園部町小山東町","koaza":"島所","lat":35.101395,"lng":135.487027,"zip":"6220041"},{"town":"八木町池之内","koaza":"北谷","lat":35.086954,"lng":135.490328,"zip":"6220000"},{"town":"園部町口司","koaza":"南垣内","lat":35.076746,"lng":135.486612,"zip":"6220047"},{"town":"園部町曽我谷","koaza":"中土井","lat":35.114905,"lng":135.486845,"zip":"6220025"},{"town":"園部町曽我谷","koaza":"上土井","lat":35.111962,"lng":135.487726,"zip":"6220025"},{"town":"園部町船岡","koaza":"柳瀬","lat":35.13413,"lng":135.492844,"zip":"6220031"},{"town":"園部町船岡","koaza":"松尾","lat":35.135831,"lng":135.490941,"zip":"6220031"},{"town":"園部町船岡","koaza":"西浦","lat":35.132648,"lng":135.492098,"zip":"6220031"},{"town":"八木町池之内","koaza":"宮ノ腰","lat":35.086012,"lng":135.491084,"zip":"6220000"},{"town":"園部町高屋","koaza":"寺谷口","lat":35.12338,"lng":135.495608,"zip":"6220032"},{"town":"八木町木原","koaza":"正ヶ谷","lat":35.089646,"lng":135.493662,"zip":"6290165"},{"town":"園部町船岡","koaza":"長畑","lat":35.13211,"lng":135.494747,"zip":"6220031"},{"town":"園部町船岡","koaza":"小バサ","lat":35.133978,"lng":135.493852,"zip":"6220031"},{"town":"園部町船岡","koaza":"堂坂","lat":35.134335,"lng":135.494441,"zip":"6220031"},{"town":"園部町船岡","koaza":"市場","lat":35.132984,"lng":135.494858,"zip":"6220031"},{"town":"園部町高屋","koaza":"片山","lat":35.112366,"lng":135.500073,"zip":"6220032"},{"town":"八木町木原","koaza":"岼山","lat":35.092719,"lng":135.494649,"zip":"6290165"},{"town":"八木町木原","koaza":"上西","lat":35.092075,"lng":135.495062,"zip":"6290165"},{"town":"園部町船岡","koaza":"明石","lat":35.133706,"lng":135.495585,"zip":"6220031"},{"town":"園部町大戸","koaza":"菖蒲ケ谷","lat":35.113129,"lng":135.506025,"zip":"6220033"},{"town":"園部町船岡","koaza":"午房畦","lat":35.135494,"lng":135.495663,"zip":"6220031"},{"town":"園部町船岡","koaza":"馬場","lat":35.133445,"lng":135.496433,"zip":"6220031"},{"town":"八木町室河原","koaza":"初トノ","lat":35.09265,"lng":135.499137,"zip":"6290166"},{"town":"園部町高屋","koaza":"宮ノ前","lat":35.124118,"lng":135.500169,"zip":"6220032"},{"town":"園部町越方","koaza":"水上","lat":35.127417,"lng":135.501922,"zip":"6220036"},{"town":"八木町室河原","koaza":"北河原","lat":35.093822,"lng":135.500498,"zip":"6290166"},{"town":"八木町室河原","koaza":"堂ノ後","lat":35.094124,"lng":135.502227,"zip":"6290166"},{"town":"園部町高屋","koaza":"手嶋","lat":35.124122,"lng":135.501212,"zip":"6220032"},{"town":"園部町高屋","koaza":"大日前","lat":35.122873,"lng":135.500566,"zip":"6220032"},{"town":"八木町鳥羽","koaza":"片山","lat":35.089812,"lng":135.505316,"zip":"6290162"},{"town":"園部町越方","koaza":"天神前","lat":35.130502,"lng":135.509147,"zip":"6220036"},{"town":"八木町玉ノ井","koaza":"里ノ内","lat":35.08559,"lng":135.503563,"zip":"6290163"},{"town":"園部町大戸","koaza":"菜畑","lat":35.118637,"lng":135.504473,"zip":"6220033"},{"town":"八木町室河原","koaza":"中河原","lat":35.093696,"lng":135.504799,"zip":"6290166"},{"town":"八木町美里","koaza":"西所","lat":35.095263,"lng":135.504147,"zip":"6290161"},{"town":"園部町大戸","koaza":"大見口","lat":35.120995,"lng":135.504683,"zip":"6220033"},{"town":"八木町美里","koaza":"森下","lat":35.096396,"lng":135.506415,"zip":"6290161"},{"town":"園部町大戸","koaza":"大見谷","lat":35.113043,"lng":135.506475,"zip":"6220033"},{"town":"園部町佐切","koaza":"西垣内","lat":35.119694,"lng":135.508519,"zip":"6220035"},{"town":"八木町美里","koaza":"荒井","lat":35.09933,"lng":135.506748,"zip":"6290161"},{"town":"八木町鳥羽","koaza":"鳥栄本","lat":35.08994,"lng":135.510241,"zip":"6290162"},{"town":"園部町佐切","koaza":"東垣内","lat":35.119703,"lng":135.511844,"zip":"6220035"},{"town":"八木町美里","koaza":"前田","lat":35.098712,"lng":135.511158,"zip":"6290161"},{"town":"八木町玉ノ井","koaza":"松ケ本","lat":35.082711,"lng":135.512098,"zip":"6290163"},{"town":"園部町熊原","koaza":"北内畑","lat":35.117356,"lng":135.514907,"zip":"6220034"},{"town":"園部町熊原","koaza":"西内畑","lat":35.116157,"lng":135.512888,"zip":"6220034"},{"town":"園部町熊原","koaza":"竹ノ花","lat":35.117418,"lng":135.513163,"zip":"6220034"},{"town":"園部町熊原","koaza":"東内畑","lat":35.116794,"lng":135.513266,"zip":"6220034"},{"town":"園部町熊原","koaza":"中ノ前","lat":35.114475,"lng":135.514815,"zip":"6220034"},{"town":"八木町八木嶋","koaza":"山ノ口","lat":35.073336,"lng":135.514381,"zip":"6290153"},{"town":"八木町柴山","koaza":"坊田","lat":35.068908,"lng":135.516052,"zip":"6290154"},{"town":"八木町美里","koaza":"谷口","lat":35.105456,"lng":135.512561,"zip":"6290161"},{"town":"八木町八木嶋","koaza":"神田","lat":35.075067,"lng":135.51559,"zip":"6290153"},{"town":"八木町八木嶋","koaza":"町田","lat":35.080398,"lng":135.517337,"zip":"6290153"},{"town":"八木町山室","koaza":"山本","lat":35.102455,"lng":135.516902,"zip":"6290115"},{"town":"八木町八木嶋","koaza":"中田","lat":35.076072,"lng":135.517697,"zip":"6290153"},{"town":"八木町船枝","koaza":"里ノ内","lat":35.11217,"lng":135.521737,"zip":"6290101"},{"town":"八木町室橋","koaza":"西垣内","lat":35.101359,"lng":135.526397,"zip":"6290102"},{"town":"八木町八木嶋","koaza":"下柳ケ坪","lat":35.076508,"lng":135.520796,"zip":"6290153"},{"town":"八木町八木嶋","koaza":"上柳ケ坪","lat":35.079507,"lng":135.518692,"zip":"6290153"},{"town":"八木町大薮","koaza":"棘","lat":35.079014,"lng":135.520991,"zip":"6220000"},{"town":"八木町八木嶋","koaza":"町ノ坪","lat":35.074492,"lng":135.521342,"zip":"6290153"},{"town":"八木町大薮","koaza":"上河原田","lat":35.078956,"lng":135.521879,"zip":"6220000"},{"town":"八木町大薮","koaza":"穴ノ口","lat":35.078123,"lng":135.521508,"zip":"6220000"},{"town":"八木町船枝","koaza":"田井中","lat":35.109117,"lng":135.521797,"zip":"6290101"},{"town":"八木町船枝","koaza":"才ノ上","lat":35.105099,"lng":135.524723,"zip":"6290101"},{"town":"八木町船枝","koaza":"妙見","lat":35.109187,"lng":135.522469,"zip":"6290101"},{"town":"八木町室橋","koaza":"道々","lat":35.103431,"lng":135.524295,"zip":"6290102"},{"town":"八木町八木","koaza":"西山","lat":35.068305,"lng":135.525166,"zip":"6290141"},{"town":"八木町大薮","koaza":"石橋","lat":35.075399,"lng":135.524865,"zip":"6220000"},{"town":"八木町南広瀬","koaza":"八反田","lat":35.077878,"lng":135.52727,"zip":"6220000"},{"town":"八木町八木","koaza":"大狩代","lat":35.072021,"lng":135.526079,"zip":"6290141"},{"town":"八木町船枝","koaza":"梅ノ木原","lat":35.10576,"lng":135.525401,"zip":"6290101"},{"town":"八木町大薮","koaza":"田中","lat":35.076211,"lng":135.52551,"zip":"6220000"},{"town":"八木町室橋","koaza":"美津","lat":35.104829,"lng":135.527968,"zip":"6290102"},{"town":"八木町室橋","koaza":"東垣内","lat":35.102252,"lng":135.527364,"zip":"6290102"},{"town":"八木町南広瀬","koaza":"鹿草","lat":35.076511,"lng":135.527308,"zip":"6220000"},{"town":"八木町南広瀬","koaza":"中河原","lat":35.077115,"lng":135.52929,"zip":"6220000"},{"town":"八木町大薮","koaza":"折戸","lat":35.074568,"lng":135.527632,"zip":"6220000"},{"town":"八木町室橋","koaza":"向ツラ","lat":35.103021,"lng":135.528697,"zip":"6290102"},{"town":"八木町八木","koaza":"小谷","lat":35.064253,"lng":135.529289,"zip":"6290141"},{"town":"八木町室橋","koaza":"天王","lat":35.101947,"lng":135.529213,"zip":"6290102"},{"town":"八木町八木","koaza":"門前","lat":35.067827,"lng":135.528595,"zip":"6290141"},{"town":"八木町八木","koaza":"野條","lat":35.071247,"lng":135.529307,"zip":"6290141"},{"town":"八木町八木","koaza":"北所","lat":35.068454,"lng":135.529296,"zip":"6290141"},{"town":"八木町八木","koaza":"前所","lat":35.065227,"lng":135.530447,"zip":"6290141"},{"town":"八木町北広瀬","koaza":"岡花","lat":35.078559,"lng":135.532407,"zip":"6220000"},{"town":"八木町諸畑","koaza":"後町","lat":35.101896,"lng":135.532324,"zip":"6290103"},{"town":"八木町八木","koaza":"東久保","lat":35.070506,"lng":135.532479,"zip":"6290141"},{"town":"八木町八木","koaza":"東所","lat":35.066953,"lng":135.532838,"zip":"6290141"},{"town":"八木町野条","koaza":"北条","lat":35.09201,"lng":135.532777,"zip":"6290111"},{"town":"八木町八木","koaza":"杉ノ前","lat":35.070518,"lng":135.533242,"zip":"6290141"},{"town":"八木町池上","koaza":"南所","lat":35.086221,"lng":135.533691,"zip":"6290112"},{"town":"八木町池上","koaza":"松原下","lat":35.087159,"lng":135.532897,"zip":"6290112"},{"town":"八木町刑部","koaza":"片山","lat":35.083104,"lng":135.533741,"zip":"6290113"},{"town":"八木町諸畑","koaza":"大谷口","lat":35.103646,"lng":135.536593,"zip":"6290103"},{"town":"八木町北広瀬","koaza":"黒ノ内","lat":35.080277,"lng":135.533649,"zip":"6220000"},{"town":"八木町八木","koaza":"大法寺","lat":35.062728,"lng":135.533507,"zip":"6290141"},{"town":"八木町八木","koaza":"鹿草","lat":35.069253,"lng":135.536039,"zip":"6290141"},{"town":"八木町八木","koaza":"西町裏","lat":35.06956,"lng":135.534003,"zip":"6290141"},{"town":"八木町池上","koaza":"中所","lat":35.087453,"lng":135.533688,"zip":"6290112"},{"town":"八木町諸畑","koaza":"西コウ","lat":35.10042,"lng":135.53437,"zip":"6290103"},{"town":"八木町北広瀬","koaza":"岸ノ下","lat":35.081123,"lng":135.535418,"zip":"6220000"},{"town":"八木町諸畑","koaza":"松本","lat":35.100995,"lng":135.535929,"zip":"6290103"},{"town":"八木町刑部","koaza":"横畑","lat":35.082684,"lng":135.53566,"zip":"6290113"},{"town":"八木町刑部","koaza":"中溝","lat":35.08367,"lng":135.535911,"zip":"6290113"},{"town":"八木町北広瀬","koaza":"岸ノ上","lat":35.082222,"lng":135.536652,"zip":"6220000"},{"town":"八木町諸畑","koaza":"田中","lat":35.098623,"lng":135.53609,"zip":"6290103"},{"town":"八木町刑部","koaza":"山崎","lat":35.081357,"lng":135.540006,"zip":"6290113"},{"town":"八木町刑部","koaza":"竹ノ垣内","lat":35.082401,"lng":135.539559,"zip":"6290113"},{"town":"八木町西田","koaza":"金井畠","lat":35.07386,"lng":135.538882,"zip":"6290134"},{"town":"八木町八木","koaza":"河原","lat":35.068275,"lng":135.537353,"zip":"6290141"},{"town":"八木町西田","koaza":"山崎","lat":35.078148,"lng":135.54168,"zip":"6290134"},{"town":"八木町西田","koaza":"愛染嶋","lat":35.072351,"lng":135.539545,"zip":"6290134"},{"town":"八木町西田","koaza":"河原條","lat":35.074852,"lng":135.540306,"zip":"6290134"},{"town":"八木町西田","koaza":"柳原","lat":35.071115,"lng":135.542344,"zip":"6290134"},{"town":"八木町諸畑","koaza":"福本","lat":35.101239,"lng":135.541163,"zip":"6290103"},{"town":"八木町刑部","koaza":"川西","lat":35.081976,"lng":135.540138,"zip":"6290113"},{"town":"八木町日置","koaza":"山添","lat":35.099486,"lng":135.541458,"zip":"6290104"},{"town":"八木町西田","koaza":"向嶋","lat":35.068369,"lng":135.541955,"zip":"6290134"},{"town":"八木町刑部","koaza":"川東","lat":35.081934,"lng":135.541787,"zip":"6290113"},{"town":"八木町西田","koaza":"北條","lat":35.075391,"lng":135.542252,"zip":"6290134"},{"town":"八木町西田","koaza":"中條","lat":35.073093,"lng":135.543517,"zip":"6290134"},{"town":"八木町日置","koaza":"西千代","lat":35.096777,"lng":135.543942,"zip":"6290104"},{"town":"八木町日置","koaza":"西中里","lat":35.097795,"lng":135.544675,"zip":"6290104"},{"town":"八木町青戸","koaza":"西ノ辻","lat":35.076638,"lng":135.547263,"zip":"6290122"},{"town":"八木町西田","koaza":"南條","lat":35.072489,"lng":135.545324,"zip":"6290134"},{"town":"八木町日置","koaza":"西下里","lat":35.095534,"lng":135.546318,"zip":"6290104"},{"town":"八木町西田","koaza":"湯谷ノ下","lat":35.06828,"lng":135.546824,"zip":"6290134"},{"town":"八木町日置","koaza":"東上里","lat":35.09852,"lng":135.54727,"zip":"6290104"},{"town":"八木町青戸","koaza":"黒塚","lat":35.082603,"lng":135.546912,"zip":"6290122"},{"town":"八木町日置","koaza":"東下里","lat":35.096688,"lng":135.547278,"zip":"6290104"},{"town":"八木町日置","koaza":"東中里","lat":35.097809,"lng":135.54714,"zip":"6290104"},{"town":"八木町日置","koaza":"砂田","lat":35.093717,"lng":135.547018,"zip":"6290104"},{"town":"八木町青戸","koaza":"水垂","lat":35.07987,"lng":135.547421,"zip":"6290122"},{"town":"八木町観音寺","koaza":"山ノ下","lat":35.071869,"lng":135.547121,"zip":"6290133"},{"town":"八木町日置","koaza":"桑原","lat":35.096078,"lng":135.548093,"zip":"6290104"},{"town":"八木町青戸","koaza":"大浦","lat":35.077136,"lng":135.54933,"zip":"6290122"},{"town":"八木町観音寺","koaza":"地内","lat":35.070556,"lng":135.5487,"zip":"6290133"},{"town":"八木町青戸","koaza":"馬垣内","lat":35.079417,"lng":135.548311,"zip":"6290122"},{"town":"八木町西田","koaza":"下林","lat":35.063011,"lng":135.54871,"zip":"6290134"},{"town":"八木町日置","koaza":"丸山","lat":35.100882,"lng":135.553327,"zip":"6290104"},{"town":"八木町青戸","koaza":"二十代","lat":35.080788,"lng":135.55022,"zip":"6290122"},{"town":"八木町日置","koaza":"雲宮","lat":35.097118,"lng":135.548523,"zip":"6290104"},{"town":"八木町屋賀","koaza":"府土垣内","lat":35.072642,"lng":135.550425,"zip":"6290132"},{"town":"八木町観音寺","koaza":"山崎","lat":35.070047,"lng":135.5519,"zip":"6290133"},{"town":"八木町北屋賀","koaza":"南北川","lat":35.078124,"lng":135.551647,"zip":"6290131"},{"town":"八木町屋賀","koaza":"屋賀寺","lat":35.072047,"lng":135.552295,"zip":"6290132"},{"town":"八木町北屋賀","koaza":"横畑","lat":35.076179,"lng":135.551762,"zip":"6290131"},{"town":"八木町屋賀","koaza":"永寿","lat":35.070342,"lng":135.553281,"zip":"6290132"},{"town":"八木町屋賀","koaza":"南永寿","lat":35.06873,"lng":135.553381,"zip":"6290132"},{"town":"八木町氷所","koaza":"西條","lat":35.08732,"lng":135.552549,"zip":"6290121"},{"town":"八木町氷所","koaza":"河原所","lat":35.091229,"lng":135.553864,"zip":"6290121"},{"town":"八木町北屋賀","koaza":"水突","lat":35.074784,"lng":135.552628,"zip":"6290131"},{"town":"八木町北屋賀","koaza":"焼香","lat":35.072546,"lng":135.554305,"zip":"6290131"},{"town":"八木町氷所","koaza":"森ヶ垣内","lat":35.088262,"lng":135.554078,"zip":"6290121"},{"town":"八木町北屋賀","koaza":"国府","lat":35.071006,"lng":135.554219,"zip":"6290131"},{"town":"八木町氷所","koaza":"北井","lat":35.092836,"lng":135.554078,"zip":"6290121"},{"town":"八木町氷所","koaza":"部々ノ木","lat":35.088381,"lng":135.555184,"zip":"6290121"},{"town":"八木町氷所","koaza":"西所","lat":35.092055,"lng":135.554319,"zip":"6290121"},{"town":"八木町氷所","koaza":"和田","lat":35.093625,"lng":135.553738,"zip":"6290121"},{"town":"八木町氷所","koaza":"河原","lat":35.089902,"lng":135.554842,"zip":"6290121"},{"town":"八木町氷所","koaza":"印地後","lat":35.086562,"lng":135.554917,"zip":"6290121"},{"town":"八木町屋賀","koaza":"一ツ橋","lat":35.068812,"lng":135.555101,"zip":"6290132"},{"town":"八木町北屋賀","koaza":"一ツ橋","lat":35.068205,"lng":135.556111,"zip":"6290131"},{"town":"八木町北屋賀","koaza":"土井ヶ芝","lat":35.071652,"lng":135.556089,"zip":"6290131"},{"town":"八木町氷所","koaza":"東所","lat":35.092741,"lng":135.556715,"zip":"6290121"},{"town":"八木町氷所","koaza":"前所","lat":35.090946,"lng":135.555685,"zip":"6290121"},{"town":"八木町氷所","koaza":"田ノ海","lat":35.090781,"lng":135.556558,"zip":"6290121"},{"town":"八木町氷所","koaza":"今北","lat":35.089892,"lng":135.558556,"zip":"6290121"},{"town":"八木町氷所","koaza":"自在ノ木","lat":35.091189,"lng":135.558579,"zip":"6290121"},{"town":"園部町竹井","koaza":"片山","lat":35.088661,"lng":135.429236,"zip":"6220062"},{"town":"八木町氷所","koaza":"岩ノ本","lat":35.09188,"lng":135.557381,"zip":"6290121"},{"town":"八木町氷所","koaza":"丞殿垣内","lat":35.091272,"lng":135.557188,"zip":"6290121"},{"town":"八木町船枝","koaza":"垣内","lat":35.110346,"lng":135.527709,"zip":"6290101"},{"town":"八木町船枝","koaza":"半入","lat":35.105271,"lng":135.525146,"zip":"6290101"},{"town":"八木町山室","koaza":"垣内","lat":35.098527,"lng":135.515828,"zip":"6290115"},{"town":"八木町山室","koaza":"粕掛","lat":35.098605,"lng":135.515382,"zip":"6290115"},{"town":"八木町大薮","koaza":"上中島","lat":35.078057,"lng":135.522539,"zip":"6220000"},{"town":"八木町大薮","koaza":"下中島","lat":35.077197,"lng":135.522683,"zip":"6220000"},{"town":"八木町大薮","koaza":"細通","lat":35.076147,"lng":135.524356,"zip":"6220000"},{"town":"八木町大薮","koaza":"生寿","lat":35.075495,"lng":135.523653,"zip":"6220000"},{"town":"八木町南広瀬","koaza":"上野","lat":35.07306,"lng":135.530929,"zip":"6220000"},{"town":"八木町南広瀬","koaza":"川端","lat":35.074189,"lng":135.531579,"zip":"6220000"},{"town":"八木町南広瀬","koaza":"下野","lat":35.073557,"lng":135.531255,"zip":"6220000"},{"town":"八木町八木","koaza":"上野","lat":35.071217,"lng":135.530447,"zip":"6290141"},{"town":"八木町氷所","koaza":"川西","lat":35.092008,"lng":135.555212,"zip":"6290121"},{"town":"八木町氷所","koaza":"中所","lat":35.097688,"lng":135.557817,"zip":"6290121"},{"town":"八木町諸畑","koaza":"八木田","lat":35.100927,"lng":135.542766,"zip":"6290103"},{"town":"八木町日置","koaza":"西上里","lat":35.103629,"lng":135.549441,"zip":"6290104"},{"town":"八木町南広瀬","koaza":"泉","lat":35.077234,"lng":135.525503,"zip":"6220000"},{"town":"八木町八木","koaza":"蓑干","lat":35.070091,"lng":135.531893,"zip":"6290141"},{"town":"園部町船岡","koaza":"小前田","lat":35.135622,"lng":135.493497,"zip":"6220031"},{"town":"園部町船岡","koaza":"大将軍","lat":35.134938,"lng":135.495332,"zip":"6220031"},{"town":"園部町千妻","koaza":"東前","lat":35.126192,"lng":135.487289,"zip":"6220024"},{"town":"園部町千妻","koaza":"後巻","lat":35.126666,"lng":135.487617,"zip":"6220024"},{"town":"園部町曽我谷","koaza":"縄手","lat":35.124039,"lng":135.482674,"zip":"6220025"},{"town":"園部町熊崎","koaza":"馬淵","lat":35.129513,"lng":135.466237,"zip":"6220022"},{"town":"園部町熊崎","koaza":"ソウレイ","lat":35.129783,"lng":135.467347,"zip":"6220022"},{"town":"園部町小山東町","koaza":"川向","lat":35.103339,"lng":135.487659,"zip":"6220041"},{"town":"八木町室河原","koaza":"中塚町","lat":35.097813,"lng":135.494418,"zip":"6290166"},{"town":"八木町室河原","koaza":"河原田","lat":35.100345,"lng":135.490984,"zip":"6290166"},{"town":"八木町木原","koaza":"河原","lat":35.094456,"lng":135.496333,"zip":"6290165"},{"town":"園部町小山東町","koaza":"水無","lat":35.102179,"lng":135.485036,"zip":"6220041"},{"town":"園部町小山東町","koaza":"谷ノ下","lat":35.098135,"lng":135.481506,"zip":"6220041"},{"town":"園部町宮町","koaza":"西","lat":35.109771,"lng":135.47148,"zip":"6220001"},{"town":"園部町上木崎町","koaza":"大将軍","lat":35.113393,"lng":135.470162,"zip":"6220011"},{"town":"園部町河原町","koaza":"五号","lat":35.111576,"lng":135.470261,"zip":"6220016"},{"town":"園部町横田","koaza":"岸ノ上","lat":35.109881,"lng":135.46078,"zip":"6220051"},{"town":"園部町横田","koaza":"六反田","lat":35.108337,"lng":135.463871,"zip":"6220051"},{"town":"園部町横田","koaza":"六号","lat":35.106157,"lng":135.463058,"zip":"6220051"},{"town":"園部町横田","koaza":"二ノ坪","lat":35.106696,"lng":135.462734,"zip":"6220051"},{"town":"園部町横田","koaza":"上ノ垣内","lat":35.108033,"lng":135.457706,"zip":"6220051"},{"town":"園部町横田","koaza":"淵ノ端","lat":35.110549,"lng":135.459298,"zip":"6220051"},{"town":"園部町黒田","koaza":"河原","lat":35.107922,"lng":135.452925,"zip":"6220052"},{"town":"園部町黒田","koaza":"上河原","lat":35.106221,"lng":135.447794,"zip":"6220052"},{"town":"園部町黒田","koaza":"貝尻","lat":35.106282,"lng":135.448573,"zip":"6220052"},{"town":"園部町船阪","koaza":"北ダイ","lat":35.108031,"lng":135.44263,"zip":"6220053"},{"town":"園部町船阪","koaza":"上ノ段","lat":35.106959,"lng":135.441478,"zip":"6220053"},{"town":"園部町仁江","koaza":"ズイオン","lat":35.099956,"lng":135.435658,"zip":"6220061"},{"town":"園部町竹井","koaza":"北垣内","lat":35.096127,"lng":135.429738,"zip":"6220062"},{"town":"園部町竹井","koaza":"中河原","lat":35.096236,"lng":135.426711,"zip":"6220062"},{"town":"園部町竹井","koaza":"流田","lat":35.092953,"lng":135.426732,"zip":"6220062"},{"town":"園部町竹井","koaza":"河原","lat":35.092508,"lng":135.422303,"zip":"6220062"},{"town":"園部町宍人","koaza":"仲ノ前","lat":35.085557,"lng":135.441986,"zip":"6220055"},{"town":"園部町越方","koaza":"橋ノ本","lat":35.126378,"lng":135.502494,"zip":"6220036"},{"town":"園部町越方","koaza":"水通シ","lat":35.128465,"lng":135.500371,"zip":"6220036"},{"town":"園部町越方","koaza":"ヒヅミ","lat":35.133001,"lng":135.504116,"zip":"6220036"},{"town":"園部町高屋","koaza":"大門","lat":35.120702,"lng":135.501694,"zip":"6220032"},{"town":"園部町高屋","koaza":"野田","lat":35.11971,"lng":135.501789,"zip":"6220032"},{"town":"八木町室河原","koaza":"下持尾","lat":35.09343,"lng":135.502372,"zip":"6290166"},{"town":"八木町室河原","koaza":"上持尾","lat":35.093463,"lng":135.501147,"zip":"6290166"},{"town":"八木町美里","koaza":"中石谷","lat":35.099044,"lng":135.504996,"zip":"6290161"},{"town":"八木町美里","koaza":"紫野","lat":35.095199,"lng":135.508396,"zip":"6290161"},{"town":"八木町室河原","koaza":"上薮","lat":35.095878,"lng":135.4961,"zip":"6290166"},{"town":"八木町玉ノ井","koaza":"両ヶ谷","lat":35.087591,"lng":135.502426,"zip":"6290163"},{"town":"八木町北広瀬","koaza":"北原","lat":35.081385,"lng":135.534203,"zip":"6220000"},{"town":"八木町北広瀬","koaza":"西條","lat":35.081478,"lng":135.526807,"zip":"6220000"},{"town":"八木町北広瀬","koaza":"堂ノ本","lat":35.080214,"lng":135.530289,"zip":"6220000"},{"town":"八木町八木","koaza":"内山","lat":35.064534,"lng":135.533992,"zip":"6290141"},{"town":"八木町池上","koaza":"前ノ側","lat":35.084672,"lng":135.53404,"zip":"6290112"},{"town":"八木町池上","koaza":"小堤","lat":35.084198,"lng":135.53499,"zip":"6290112"},{"town":"八木町池上","koaza":"北所","lat":35.08811,"lng":135.534121,"zip":"6290112"},{"town":"八木町池上","koaza":"北谷","lat":35.088307,"lng":135.532136,"zip":"6290112"},{"town":"八木町氷所","koaza":"前林","lat":35.086143,"lng":135.552249,"zip":"6290121"},{"town":"八木町氷所","koaza":"鏡松","lat":35.085577,"lng":135.551837,"zip":"6290121"},{"town":"八木町西田","koaza":"風呂ノ下","lat":35.073011,"lng":135.542044,"zip":"6290134"},{"town":"園部町小山東町","koaza":"シヤノ木","lat":35.092587,"lng":135.481938,"zip":"6220041"},{"town":"八木町諸畑","koaza":"渕ノ海","lat":35.099309,"lng":135.535303,"zip":"6290103"},{"town":"園部町内林町","koaza":"東畑","lat":35.115744,"lng":135.476001,"zip":"6220012"},{"town":"園部町上木崎町","koaza":"宮ノ口","lat":35.114557,"lng":135.469849,"zip":"6220011"},{"town":"園部町上木崎町","koaza":"大畑","lat":35.115694,"lng":135.457669,"zip":"6220011"},{"town":"園部町黒田","koaza":"四十代","lat":35.109682,"lng":135.452652,"zip":"6220052"},{"town":"園部町黒田","koaza":"掛上り","lat":35.108947,"lng":135.452718,"zip":"6220052"},{"town":"園部町黒田","koaza":"大木ノ本","lat":35.106728,"lng":135.451456,"zip":"6220052"},{"town":"園部町大西","koaza":"カハノ上","lat":35.098687,"lng":135.443606,"zip":"6220054"},{"town":"八木町氷所","koaza":"赤見","lat":35.090229,"lng":135.542011,"zip":"6290121"},{"town":"園部町竹井","koaza":"伊ノ谷","lat":35.085317,"lng":135.416738,"zip":"6220062"},{"town":"園部町竹井","koaza":"森ケ坪","lat":35.090761,"lng":135.418552,"zip":"6220062"},{"town":"園部町竹井","koaza":"寺尾","lat":35.090147,"lng":135.417541,"zip":"6220062"},{"town":"園部町竹井","koaza":"辻田垣内","lat":35.092275,"lng":135.420903,"zip":"6220062"},{"town":"園部町竹井","koaza":"畦田","lat":35.091904,"lng":135.419204,"zip":"6220062"},{"town":"園部町竹井","koaza":"ユブリ谷","lat":35.085426,"lng":135.419792,"zip":"6220062"},{"town":"園部町竹井","koaza":"西谷","lat":35.090992,"lng":135.42363,"zip":"6220062"},{"town":"園部町仁江","koaza":"ビワクビ","lat":35.099678,"lng":135.432919,"zip":"6220061"},{"town":"園部町船阪","koaza":"町田","lat":35.110181,"lng":135.44504,"zip":"6220053"},{"town":"園部町城南町","koaza":"上沢","lat":35.103104,"lng":135.467495,"zip":"6220044"},{"town":"園部町曽我谷","koaza":"宮ノ越","lat":35.118749,"lng":135.485067,"zip":"6220025"},{"town":"園部町曽我谷","koaza":"講堂","lat":35.118158,"lng":135.485149,"zip":"6220025"},{"town":"園部町曽我谷","koaza":"北垣内","lat":35.11765,"lng":135.485914,"zip":"6220025"},{"town":"園部町曽我谷","koaza":"下土井","lat":35.115739,"lng":135.490464,"zip":"6220025"},{"town":"園部町高屋","koaza":"垣内","lat":35.121265,"lng":135.501185,"zip":"6220032"},{"town":"園部町高屋","koaza":"寺ノ下","lat":35.113906,"lng":135.497024,"zip":"6220032"},{"town":"園部町高屋","koaza":"両念","lat":35.119981,"lng":135.500766,"zip":"6220032"},{"town":"園部町千妻","koaza":"岡崎","lat":35.125383,"lng":135.485162,"zip":"6220024"},{"town":"園部町船岡","koaza":"河谷","lat":35.135612,"lng":135.486269,"zip":"6220031"},{"town":"園部町船岡","koaza":"沢ノ本","lat":35.135383,"lng":135.488375,"zip":"6220031"},{"town":"園部町船岡","koaza":"石河原","lat":35.135237,"lng":135.487186,"zip":"6220031"},{"town":"園部町船岡","koaza":"棚田","lat":35.141497,"lng":135.494719,"zip":"6220031"},{"town":"園部町新堂","koaza":"山根","lat":35.129686,"lng":135.48273,"zip":"6220023"},{"town":"園部町新堂","koaza":"今井","lat":35.130443,"lng":135.479613,"zip":"6220023"},{"town":"園部町新堂","koaza":"西谷","lat":35.133128,"lng":135.476323,"zip":"6220023"},{"town":"園部町熊崎","koaza":"庄原","lat":35.132087,"lng":135.463934,"zip":"6220022"},{"town":"園部町熊崎","koaza":"片山","lat":35.132358,"lng":135.468584,"zip":"6220022"},{"town":"園部町熊崎","koaza":"カシノ尾","lat":35.129547,"lng":135.461308,"zip":"6220022"},{"town":"園部町瓜生野","koaza":"大木","lat":35.12723,"lng":135.470525,"zip":"6220021"},{"town":"園部町瓜生野","koaza":"和田","lat":35.126569,"lng":135.469634,"zip":"6220021"},{"town":"園部町瓜生野","koaza":"竹ケ後","lat":35.125786,"lng":135.467026,"zip":"6220021"},{"town":"園部町瓜生野","koaza":"湯屋ノ谷","lat":35.12463,"lng":135.465051,"zip":"6220021"},{"town":"園部町上木崎町","koaza":"年ノ森","lat":35.116743,"lng":135.457125,"zip":"6220011"},{"town":"園部町大西","koaza":"大将軍","lat":35.099452,"lng":135.446006,"zip":"6220054"},{"town":"園部町大西","koaza":"イマト","lat":35.09846,"lng":135.445752,"zip":"6220054"},{"town":"園部町大西","koaza":"テキス","lat":35.099284,"lng":135.447196,"zip":"6220054"},{"town":"園部町大西","koaza":"井戸谷","lat":35.101734,"lng":135.448491,"zip":"6220054"},{"town":"園部町半田","koaza":"北","lat":35.100718,"lng":135.454316,"zip":"6220045"},{"town":"園部町半田","koaza":"二ノ坪","lat":35.095804,"lng":135.454997,"zip":"6220045"},{"town":"園部町半田","koaza":"阪田","lat":35.094174,"lng":135.458261,"zip":"6220045"},{"town":"園部町小山西町","koaza":"岩ケ谷","lat":35.094443,"lng":135.472596,"zip":"6220043"},{"town":"園部町小山西町","koaza":"流尾","lat":35.095415,"lng":135.474393,"zip":"6220043"},{"town":"園部町小山東町","koaza":"馬谷","lat":35.097973,"lng":135.482921,"zip":"6220041"},{"town":"園部町口司","koaza":"サバ谷","lat":35.085355,"lng":135.484179,"zip":"6220047"},{"town":"園部町口司","koaza":"前川坪","lat":35.086641,"lng":135.477465,"zip":"6220047"},{"town":"園部町口人","koaza":"五反田","lat":35.079699,"lng":135.467849,"zip":"6220046"},{"town":"園部町口人","koaza":"室谷","lat":35.085826,"lng":135.470676,"zip":"6220046"},{"town":"園部町小山東町","koaza":"二本松","lat":35.100683,"lng":135.478657,"zip":"6220041"},{"town":"園部町小山東町","koaza":"今北","lat":35.102693,"lng":135.479454,"zip":"6220041"},{"town":"園部町大西","koaza":"西代","lat":35.095579,"lng":135.440579,"zip":"6220054"},{"town":"園部町宍人","koaza":"谷口","lat":35.082832,"lng":135.433266,"zip":"6220055"},{"town":"園部町口人","koaza":"ヒマキ","lat":35.087371,"lng":135.464608,"zip":"6220046"},{"town":"園部町口人","koaza":"ミノタ","lat":35.087501,"lng":135.469762,"zip":"6220046"},{"town":"園部町口人","koaza":"ハリタ","lat":35.086964,"lng":135.472239,"zip":"6220046"},{"town":"園部町口人","koaza":"高杭","lat":35.08644,"lng":135.473853,"zip":"6220046"},{"town":"園部町船岡","koaza":"六蔵前","lat":35.132154,"lng":135.488402,"zip":"6220031"},{"town":"園部町佐切","koaza":"坊ケ谷","lat":35.12164,"lng":135.506797,"zip":"6220035"},{"town":"園部町佐切","koaza":"殿田","lat":35.124091,"lng":135.514135,"zip":"6220035"},{"town":"八木町美里","koaza":"石谷","lat":35.10143,"lng":135.509042,"zip":"6290161"},{"town":"八木町美里","koaza":"妙見","lat":35.103237,"lng":135.511872,"zip":"6290161"},{"town":"園部町熊原","koaza":"山ノ口","lat":35.111817,"lng":135.511924,"zip":"6220034"},{"town":"八木町美里","koaza":"大師口","lat":35.107483,"lng":135.514418,"zip":"6290161"},{"town":"八木町室橋","koaza":"山田","lat":35.101186,"lng":135.521054,"zip":"6290102"},{"town":"八木町山室","koaza":"宮ノ脇","lat":35.094571,"lng":135.515594,"zip":"6290115"},{"town":"八木町山室","koaza":"草福","lat":35.092081,"lng":135.517732,"zip":"6290115"},{"town":"園部町宍人","koaza":"斧峠","lat":35.087442,"lng":135.437768,"zip":"6220055"},{"town":"園部町城南町","koaza":"安岡","lat":35.103326,"lng":135.46221,"zip":"6220044"},{"town":"八木町八木嶋","koaza":"新町","lat":35.085981,"lng":135.514692,"zip":"6290153"},{"town":"八木町八木嶋","koaza":"片原","lat":35.084835,"lng":135.516221,"zip":"6290153"},{"town":"八木町野条","koaza":"南条","lat":35.091807,"lng":135.530121,"zip":"6290111"},{"town":"園部町内林町","koaza":"上ヲサ","lat":35.115131,"lng":135.474563,"zip":"6220012"},{"town":"八木町西田","koaza":"井尻","lat":35.07432,"lng":135.535411,"zip":"6290134"},{"town":"八木町木原","koaza":"ヒジガ坪","lat":35.090853,"lng":135.500101,"zip":"6290165"},{"town":"八木町玉ノ井","koaza":"奥ノ谷","lat":35.08669,"lng":135.501061,"zip":"6290163"},{"town":"園部町瓜生野","koaza":"坊ケ谷","lat":35.124017,"lng":135.468313,"zip":"6220021"},{"town":"八木町八木嶋","koaza":"五反半","lat":35.072409,"lng":135.512384,"zip":"6290153"},{"town":"園部町竹井","koaza":"小ヒロセ","lat":35.083968,"lng":135.417077,"zip":"6220062"},{"town":"園部町竹井","koaza":"林ノ下","lat":35.0926,"lng":135.420333,"zip":"6220062"},{"town":"園部町新堂","koaza":"中筋","lat":35.132617,"lng":135.474302,"zip":"6220023"},{"town":"園部町船岡","koaza":"吉坂","lat":35.143115,"lng":135.495868,"zip":"6220031"},{"town":"園部町上木崎町","koaza":"入道","lat":35.112039,"lng":135.468255,"zip":"6220011"},{"town":"園部町河原町","koaza":"一号","lat":35.112534,"lng":135.45905,"zip":"6220016"}]