[{"town":"池尾","koaza":"","lat":34.89903,"lng":135.852347,"zip":"6011394"},{"town":"伊勢田町","koaza":"","lat":34.89058,"lng":135.768884,"zip":"6110043"},{"town":"伊勢田町名木一丁目","koaza":"","lat":34.88256,"lng":135.767782,"zip":"6110044"},{"town":"伊勢田町名木二丁目","koaza":"","lat":34.88425,"lng":135.767708,"zip":"6110044"},{"town":"伊勢田町名木三丁目","koaza":"","lat":34.886255,"lng":135.769126,"zip":"6110044"},{"town":"宇治","koaza":"","lat":34.882422,"lng":135.819562,"zip":"6110021"},{"town":"大久保町","koaza":"","lat":34.87312,"lng":135.768171,"zip":"6110033"},{"town":"小倉町","koaza":"","lat":34.896269,"lng":135.780373,"zip":"6110042"},{"town":"折居台一丁目","koaza":"","lat":34.87824,"lng":135.805131,"zip":"6110023"},{"town":"折居台二丁目","koaza":"","lat":34.880627,"lng":135.803576,"zip":"6110023"},{"town":"折居台三丁目","koaza":"","lat":34.881639,"lng":135.805793,"zip":"6110023"},{"town":"折居台四丁目","koaza":"","lat":34.87885,"lng":135.807843,"zip":"6110023"},{"town":"五ケ庄","koaza":"","lat":34.913019,"lng":135.808065,"zip":"6110011"},{"town":"木幡","koaza":"","lat":34.926882,"lng":135.802578,"zip":"6110002"},{"town":"志津川","koaza":"","lat":34.890443,"lng":135.831345,"zip":"6110015"},{"town":"白川","koaza":"","lat":34.871291,"lng":135.815121,"zip":"6110022"},{"town":"神明","koaza":"","lat":34.881065,"lng":135.78973,"zip":"6110025"},{"town":"炭山","koaza":"","lat":34.923121,"lng":135.838392,"zip":"6011395"},{"town":"寺山台一丁目","koaza":"","lat":34.869335,"lng":135.788419,"zip":"6110032"},{"town":"寺山台二丁目","koaza":"","lat":34.867655,"lng":135.788136,"zip":"6110032"},{"town":"寺山台三丁目","koaza":"","lat":34.866913,"lng":135.789631,"zip":"6110032"},{"town":"天神台一丁目","koaza":"","lat":34.886539,"lng":135.793199,"zip":"6110029"},{"town":"天神台二丁目","koaza":"","lat":34.885188,"lng":135.792216,"zip":"6110029"},{"town":"天神台三丁目","koaza":"","lat":34.886507,"lng":135.791681,"zip":"6110029"},{"town":"莵道","koaza":"","lat":34.904244,"lng":135.827041,"zip":"6011396"},{"town":"南陵町一丁目","koaza":"","lat":34.88712,"lng":135.784127,"zip":"6110028"},{"town":"南陵町二丁目","koaza":"","lat":34.886477,"lng":135.785179,"zip":"6110028"},{"town":"南陵町三丁目","koaza":"","lat":34.886434,"lng":135.787086,"zip":"6110028"},{"town":"南陵町四丁目","koaza":"","lat":34.886487,"lng":135.789155,"zip":"6110028"},{"town":"南陵町五丁目","koaza":"","lat":34.888127,"lng":135.789196,"zip":"6110028"},{"town":"二尾","koaza":"","lat":34.913739,"lng":135.863409,"zip":"6011393"},{"town":"西笠取","koaza":"","lat":34.938581,"lng":135.85196,"zip":"6011392"},{"town":"羽戸山一丁目","koaza":"","lat":34.905805,"lng":135.810612,"zip":"6110012"},{"town":"羽戸山二丁目","koaza":"","lat":34.906179,"lng":135.81293,"zip":"6110012"},{"town":"羽戸山三丁目","koaza":"","lat":34.908427,"lng":135.812726,"zip":"6110012"},{"town":"羽戸山四丁目","koaza":"","lat":34.9087,"lng":135.815432,"zip":"6110012"},{"town":"羽拍子町","koaza":"","lat":34.883532,"lng":135.78209,"zip":"6110027"},{"town":"東笠取","koaza":"","lat":34.936989,"lng":135.866879,"zip":"6011391"},{"town":"平尾台一丁目","koaza":"","lat":34.926104,"lng":135.813183,"zip":"6110003"},{"town":"平尾台二丁目","koaza":"","lat":34.927519,"lng":135.815242,"zip":"6110003"},{"town":"平尾台三丁目","koaza":"","lat":34.926646,"lng":135.816517,"zip":"6110003"},{"town":"平尾台四丁目","koaza":"","lat":34.924551,"lng":135.815326,"zip":"6110003"},{"town":"開町","koaza":"","lat":34.880316,"lng":135.782673,"zip":"6110026"},{"town":"広野町","koaza":"","lat":34.872368,"lng":135.795614,"zip":"6110031"},{"town":"琵琶台一丁目","koaza":"","lat":34.880256,"lng":135.799029,"zip":"6110024"},{"town":"琵琶台二丁目","koaza":"","lat":34.878445,"lng":135.797457,"zip":"6110024"},{"town":"琵琶台三丁目","koaza":"","lat":34.880733,"lng":135.796785,"zip":"6110024"},{"town":"槇島町","koaza":"","lat":34.906047,"lng":135.785913,"zip":"6110041"},{"town":"明星町一丁目","koaza":"","lat":34.89595,"lng":135.816742,"zip":"6110014"},{"town":"明星町二丁目","koaza":"","lat":34.894579,"lng":135.818088,"zip":"6110014"},{"town":"明星町三丁目","koaza":"","lat":34.893898,"lng":135.820278,"zip":"6110014"},{"town":"明星町四丁目","koaza":"","lat":34.894905,"lng":135.81557,"zip":"6110014"},{"town":"安田町","koaza":"","lat":34.890163,"lng":135.761966,"zip":"6110045"},{"town":"六地藏","koaza":"","lat":34.933415,"lng":135.797083,"zip":"6110000"},{"town":"六地藏一丁目","koaza":"","lat":34.932163,"lng":135.795759,"zip":"6110000"},{"town":"大久保町","koaza":"旦椋","lat":34.871817,"lng":135.765188,"zip":"6110033"},{"town":"安田町","koaza":"大納言","lat":34.887124,"lng":135.760938,"zip":"6110045"},{"town":"安田町","koaza":"鵜飼田","lat":34.889484,"lng":135.762036,"zip":"6110045"},{"town":"大久保町","koaza":"平盛","lat":34.869183,"lng":135.764428,"zip":"6110033"},{"town":"大久保町","koaza":"田原","lat":34.873793,"lng":135.764365,"zip":"6110033"},{"town":"伊勢田町","koaza":"西遊田","lat":34.891375,"lng":135.764736,"zip":"6110043"},{"town":"伊勢田町","koaza":"砂田","lat":34.889439,"lng":135.766393,"zip":"6110043"},{"town":"伊勢田町","koaza":"浮面","lat":34.886585,"lng":135.76507,"zip":"6110043"},{"town":"大久保町","koaza":"西ノ端","lat":34.875891,"lng":135.768408,"zip":"6110033"},{"town":"伊勢田町","koaza":"蔭田","lat":34.881137,"lng":135.767788,"zip":"6110043"},{"town":"広野町","koaza":"新成田","lat":34.879142,"lng":135.768908,"zip":"6110031"},{"town":"槇島町","koaza":"西鴫沢","lat":34.91173,"lng":135.769191,"zip":"6110041"},{"town":"槇島町","koaza":"東鴨巣","lat":34.906079,"lng":135.770322,"zip":"6110041"},{"town":"伊勢田町","koaza":"遊田","lat":34.889947,"lng":135.771737,"zip":"6110043"},{"town":"大久保町","koaza":"南ノ口","lat":34.869294,"lng":135.772104,"zip":"6110033"},{"town":"伊勢田町","koaza":"新中ノ荒","lat":34.881317,"lng":135.769273,"zip":"6110043"},{"town":"大久保町","koaza":"井ノ尻","lat":34.87311,"lng":135.770424,"zip":"6110033"},{"town":"伊勢田町","koaza":"中荒","lat":34.882094,"lng":135.770326,"zip":"6110043"},{"town":"伊勢田町","koaza":"中ノ田","lat":34.885801,"lng":135.76974,"zip":"6110043"},{"town":"伊勢田町","koaza":"中遊田","lat":34.894513,"lng":135.770063,"zip":"6110043"},{"town":"伊勢田町","koaza":"南遊田","lat":34.895149,"lng":135.773337,"zip":"6110043"},{"town":"伊勢田町","koaza":"井尻","lat":34.885876,"lng":135.772557,"zip":"6110043"},{"town":"大久保町","koaza":"山ノ内","lat":34.870812,"lng":135.7734,"zip":"6110033"},{"town":"伊勢田町","koaza":"ウトロ","lat":34.881746,"lng":135.772786,"zip":"6110043"},{"town":"槇島町","koaza":"落合","lat":34.911994,"lng":135.774322,"zip":"6110041"},{"town":"大久保町","koaza":"北ノ山","lat":34.873005,"lng":135.773694,"zip":"6110033"},{"town":"小倉町","koaza":"堀池","lat":34.896938,"lng":135.775128,"zip":"6110042"},{"town":"小倉町","koaza":"新田島","lat":34.903961,"lng":135.775012,"zip":"6110042"},{"town":"小倉町","koaza":"南堀池","lat":34.893365,"lng":135.776546,"zip":"6110042"},{"town":"伊勢田町","koaza":"毛語","lat":34.884796,"lng":135.774074,"zip":"6110043"},{"town":"大久保町","koaza":"大竹","lat":34.868913,"lng":135.776195,"zip":"6110033"},{"town":"大久保町","koaza":"上ノ山","lat":34.870962,"lng":135.776451,"zip":"6110033"},{"town":"小倉町","koaza":"南浦","lat":34.89173,"lng":135.777787,"zip":"6110042"},{"town":"槇島町","koaza":"本屋敷","lat":34.91408,"lng":135.777629,"zip":"6110041"},{"town":"伊勢田町","koaza":"中山","lat":34.882954,"lng":135.777414,"zip":"6110043"},{"town":"小倉町","koaza":"蓮池","lat":34.899206,"lng":135.77976,"zip":"6110042"},{"town":"槇島町","koaza":"南落合","lat":34.905739,"lng":135.778263,"zip":"6110041"},{"town":"小倉町","koaza":"山際","lat":34.889397,"lng":135.777732,"zip":"6110042"},{"town":"広野町","koaza":"風呂垣外","lat":34.874367,"lng":135.775726,"zip":"6110031"},{"town":"伊勢田町","koaza":"南山","lat":34.880214,"lng":135.775672,"zip":"6110043"},{"town":"広野町","koaza":"西裏","lat":34.877207,"lng":135.778806,"zip":"6110031"},{"town":"伊勢田町","koaza":"若林","lat":34.886049,"lng":135.776663,"zip":"6110043"},{"town":"伊勢田町","koaza":"北山","lat":34.887701,"lng":135.778855,"zip":"6110043"},{"town":"槇島町","koaza":"目川","lat":34.910747,"lng":135.779916,"zip":"6110041"},{"town":"広野町","koaza":"茶屋裏","lat":34.872618,"lng":135.777405,"zip":"6110031"},{"town":"小倉町","koaza":"西山","lat":34.889443,"lng":135.780401,"zip":"6110042"},{"town":"槇島町","koaza":"十一","lat":34.907734,"lng":135.784354,"zip":"6110041"},{"town":"伊勢田町","koaza":"大谷","lat":34.886502,"lng":135.779747,"zip":"6110043"},{"town":"小倉町","koaza":"西浦","lat":34.894668,"lng":135.780795,"zip":"6110042"},{"town":"大久保町","koaza":"久保","lat":34.871137,"lng":135.781158,"zip":"6110033"},{"town":"槇島町","koaza":"一ノ坪","lat":34.902699,"lng":135.782507,"zip":"6110041"},{"town":"広野町","koaza":"東裏","lat":34.876127,"lng":135.780986,"zip":"6110031"},{"town":"小倉町","koaza":"春日森","lat":34.900545,"lng":135.781225,"zip":"6110042"},{"town":"広野町","koaza":"寺山","lat":34.87111,"lng":135.784057,"zip":"6110031"},{"town":"広野町","koaza":"桐生谷","lat":34.878502,"lng":135.783108,"zip":"6110031"},{"town":"広野町","koaza":"一里山","lat":34.876119,"lng":135.783992,"zip":"6110031"},{"town":"小倉町","koaza":"神楽田","lat":34.892988,"lng":135.782437,"zip":"6110042"},{"town":"槇島町","koaza":"大川原","lat":34.907126,"lng":135.78198,"zip":"6110041"},{"town":"小倉町","koaza":"久保","lat":34.898278,"lng":135.783925,"zip":"6110042"},{"town":"槇島町","koaza":"十六","lat":34.909902,"lng":135.784628,"zip":"6110041"},{"town":"広野町","koaza":"中島","lat":34.873802,"lng":135.787946,"zip":"6110031"},{"town":"神明","koaza":"石塚","lat":34.883979,"lng":135.787189,"zip":"6110025"},{"town":"小倉町","koaza":"西畑","lat":34.88715,"lng":135.782405,"zip":"6110042"},{"town":"小倉町","koaza":"中畑","lat":34.889697,"lng":135.78556,"zip":"6110042"},{"town":"広野町","koaza":"丸山","lat":34.874634,"lng":135.786244,"zip":"6110031"},{"town":"小倉町","koaza":"老ノ木","lat":34.893966,"lng":135.784052,"zip":"6110042"},{"town":"広野町","koaza":"宮谷","lat":34.871531,"lng":135.787602,"zip":"6110031"},{"town":"小倉町","koaza":"寺内","lat":34.897552,"lng":135.785855,"zip":"6110042"},{"town":"槇島町","koaza":"三十五","lat":34.913131,"lng":135.785044,"zip":"6110041"},{"town":"小倉町","koaza":"東山","lat":34.891046,"lng":135.78648,"zip":"6110042"},{"town":"小倉町","koaza":"天王","lat":34.893961,"lng":135.786077,"zip":"6110042"},{"town":"槇島町","koaza":"外","lat":34.895984,"lng":135.793292,"zip":"6110041"},{"town":"槇島町","koaza":"清水","lat":34.914637,"lng":135.788145,"zip":"6110041"},{"town":"槇島町","koaza":"石橋","lat":34.90403,"lng":135.787827,"zip":"6110041"},{"town":"槇島町","koaza":"大町","lat":34.900934,"lng":135.789024,"zip":"6110041"},{"town":"神明","koaza":"宮北","lat":34.880618,"lng":135.789127,"zip":"6110025"},{"town":"槇島町","koaza":"島前","lat":34.89994,"lng":135.789969,"zip":"6110041"},{"town":"広野町","koaza":"小根尾","lat":34.876678,"lng":135.79345,"zip":"6110031"},{"town":"小倉町","koaza":"奥畑","lat":34.885438,"lng":135.786342,"zip":"6110042"},{"town":"槇島町","koaza":"千足","lat":34.914274,"lng":135.785044,"zip":"6110041"},{"town":"槇島町","koaza":"一町田","lat":34.897994,"lng":135.792578,"zip":"6110041"},{"town":"神明","koaza":"宮西","lat":34.878269,"lng":135.789517,"zip":"6110025"},{"town":"宇治","koaza":"蛇塚","lat":34.884568,"lng":135.790278,"zip":"6110021"},{"town":"宇治","koaza":"蔭山","lat":34.891366,"lng":135.790179,"zip":"6110021"},{"town":"宇治","koaza":"半白","lat":34.893287,"lng":135.789858,"zip":"6110021"},{"town":"槇島町","koaza":"五才田","lat":34.898948,"lng":135.792057,"zip":"6110041"},{"town":"宇治","koaza":"御廟","lat":34.889063,"lng":135.789664,"zip":"6110021"},{"town":"広野町","koaza":"尖山","lat":34.86998,"lng":135.792926,"zip":"6110031"},{"town":"槇島町","koaza":"月夜","lat":34.897,"lng":135.791193,"zip":"6110041"},{"town":"広野町","koaza":"大開","lat":34.874794,"lng":135.793391,"zip":"6110031"},{"town":"槇島町","koaza":"吹前","lat":34.904912,"lng":135.791128,"zip":"6110041"},{"town":"五ケ庄","koaza":"雲雀島","lat":34.921039,"lng":135.790617,"zip":"6110011"},{"town":"木幡","koaza":"熊小路","lat":34.92243,"lng":135.793991,"zip":"6110002"},{"town":"神明","koaza":"宮東","lat":34.879409,"lng":135.792401,"zip":"6110025"},{"town":"宇治","koaza":"天神","lat":34.888274,"lng":135.79149,"zip":"6110021"},{"town":"五ケ庄","koaza":"高車","lat":34.913391,"lng":135.791744,"zip":"6110011"},{"town":"五ケ庄","koaza":"葛森","lat":34.910532,"lng":135.793519,"zip":"6110011"},{"town":"五ケ庄","koaza":"谷前","lat":34.916215,"lng":135.793518,"zip":"6110011"},{"town":"五ケ庄","koaza":"西川原","lat":34.919362,"lng":135.792443,"zip":"6110011"},{"town":"五ケ庄","koaza":"古川","lat":34.917381,"lng":135.793152,"zip":"6110011"},{"town":"宇治","koaza":"樋ノ尻","lat":34.892635,"lng":135.796989,"zip":"6110021"},{"town":"宇治","koaza":"池森","lat":34.884535,"lng":135.794657,"zip":"6110021"},{"town":"五ケ庄","koaza":"北ノ庄","lat":34.919851,"lng":135.794932,"zip":"6110011"},{"town":"宇治","koaza":"野神","lat":34.880431,"lng":135.795529,"zip":"6110021"},{"town":"宇治","koaza":"米阪","lat":34.887494,"lng":135.794223,"zip":"6110021"},{"town":"宇治","koaza":"矢落","lat":34.88873,"lng":135.795095,"zip":"6110021"},{"town":"槇島町","koaza":"大幡","lat":34.898303,"lng":135.797148,"zip":"6110041"},{"town":"木幡","koaza":"西中","lat":34.926801,"lng":135.795083,"zip":"6110002"},{"town":"六地藏","koaza":"徳永","lat":34.930746,"lng":135.794417,"zip":"6110000"},{"town":"五ケ庄","koaza":"野添","lat":34.915366,"lng":135.796116,"zip":"6110011"},{"town":"五ケ庄","koaza":"上村","lat":34.908797,"lng":135.795002,"zip":"6110011"},{"town":"槇島町","koaza":"郡","lat":34.902784,"lng":135.79502,"zip":"6110041"},{"town":"広野町","koaza":"八軒屋谷","lat":34.870773,"lng":135.79969,"zip":"6110031"},{"town":"槇島町","koaza":"薗場","lat":34.89708,"lng":135.798158,"zip":"6110041"},{"town":"五ケ庄","koaza":"寺界道","lat":34.917656,"lng":135.795782,"zip":"6110011"},{"town":"木幡","koaza":"西浦","lat":34.921885,"lng":135.795432,"zip":"6110002"},{"town":"宇治","koaza":"戸ノ内","lat":34.890581,"lng":135.797864,"zip":"6110021"},{"town":"木幡","koaza":"内畑","lat":34.924787,"lng":135.795474,"zip":"6110002"},{"town":"宇治","koaza":"大谷","lat":34.87693,"lng":135.797836,"zip":"6110021"},{"town":"宇治","koaza":"弐番","lat":34.884414,"lng":135.796001,"zip":"6110021"},{"town":"六地藏","koaza":"奈良町","lat":34.934081,"lng":135.797471,"zip":"6110000"},{"town":"五ケ庄","koaza":"千入寺","lat":34.911537,"lng":135.795489,"zip":"6110011"},{"town":"木幡","koaza":"北島","lat":34.928962,"lng":135.794532,"zip":"6110002"},{"town":"槇島町","koaza":"門口","lat":34.900866,"lng":135.797876,"zip":"6110041"},{"town":"槇島町","koaza":"幡貫","lat":34.901897,"lng":135.793008,"zip":"6110041"},{"town":"宇治","koaza":"若森","lat":34.888883,"lng":135.798037,"zip":"6110021"},{"town":"五ケ庄","koaza":"戸ノ内","lat":34.905708,"lng":135.798798,"zip":"6110011"},{"town":"木幡","koaza":"正中","lat":34.928999,"lng":135.799113,"zip":"6110002"},{"town":"五ケ庄","koaza":"大林","lat":34.917266,"lng":135.798831,"zip":"6110011"},{"town":"木幡","koaza":"東中","lat":34.927494,"lng":135.799167,"zip":"6110002"},{"town":"木幡","koaza":"大瀬戸","lat":34.924673,"lng":135.798798,"zip":"6110002"},{"town":"木幡","koaza":"中村","lat":34.922388,"lng":135.798559,"zip":"6110002"},{"town":"槇島町","koaza":"北内","lat":34.899525,"lng":135.798979,"zip":"6110041"},{"town":"五ケ庄","koaza":"梅林","lat":34.91454,"lng":135.799804,"zip":"6110011"},{"town":"五ケ庄","koaza":"岡本","lat":34.907116,"lng":135.800082,"zip":"6110011"},{"town":"木幡","koaza":"河原","lat":34.931479,"lng":135.797442,"zip":"6110002"},{"town":"宇治","koaza":"琵琶","lat":34.883062,"lng":135.798885,"zip":"6110021"},{"town":"木幡","koaza":"陣ノ内","lat":34.931436,"lng":135.800196,"zip":"6110002"},{"town":"五ケ庄","koaza":"九ツ池","lat":34.912007,"lng":135.79896,"zip":"6110011"},{"town":"宇治","koaza":"壱番","lat":34.888215,"lng":135.800858,"zip":"6110021"},{"town":"木幡","koaza":"御園","lat":34.932884,"lng":135.800409,"zip":"6110002"},{"town":"五ケ庄","koaza":"芝ノ東","lat":34.917295,"lng":135.804249,"zip":"6110011"},{"town":"六地藏","koaza":"町並","lat":34.933274,"lng":135.799514,"zip":"6110000"},{"town":"槇島町","koaza":"大島","lat":34.902636,"lng":135.800581,"zip":"6110041"},{"town":"木幡","koaza":"南山畑","lat":34.922225,"lng":135.801295,"zip":"6110002"},{"town":"木幡","koaza":"北山畑","lat":34.924254,"lng":135.801724,"zip":"6110002"},{"town":"木幡","koaza":"南山","lat":34.92161,"lng":135.806485,"zip":"6110002"},{"town":"木幡","koaza":"南端","lat":34.918372,"lng":135.802977,"zip":"6110002"},{"town":"莵道","koaza":"平町","lat":34.902112,"lng":135.803033,"zip":"6011396"},{"town":"宇治","koaza":"宇文字","lat":34.889495,"lng":135.800803,"zip":"6110021"},{"town":"木幡","koaza":"花揃","lat":34.929498,"lng":135.801495,"zip":"6110002"},{"town":"宇治","koaza":"下居","lat":34.882343,"lng":135.801236,"zip":"6110021"},{"town":"木幡","koaza":"北畠","lat":34.927833,"lng":135.802013,"zip":"6110002"},{"town":"木幡","koaza":"檜尾","lat":34.926244,"lng":135.802861,"zip":"6110002"},{"town":"宇治","koaza":"里尻","lat":34.893321,"lng":135.803056,"zip":"6110021"},{"town":"五ケ庄","koaza":"西浦","lat":34.91385,"lng":135.803392,"zip":"6110011"},{"town":"莵道","koaza":"車田","lat":34.900354,"lng":135.803101,"zip":"6011396"},{"town":"五ケ庄","koaza":"日皆田","lat":34.906984,"lng":135.802191,"zip":"6110011"},{"town":"宇治","koaza":"妙楽","lat":34.889988,"lng":135.803915,"zip":"6110021"},{"town":"木幡","koaza":"赤塚","lat":34.931868,"lng":135.80377,"zip":"6110002"},{"town":"五ケ庄","koaza":"柏田","lat":34.909911,"lng":135.80284,"zip":"6110011"},{"town":"五ケ庄","koaza":"新開","lat":34.912416,"lng":135.803971,"zip":"6110011"},{"town":"五ケ庄","koaza":"一里塚","lat":34.905336,"lng":135.80228,"zip":"6110011"},{"town":"木幡","koaza":"金草原","lat":34.927369,"lng":135.805838,"zip":"6110002"},{"town":"五ケ庄","koaza":"平野","lat":34.910573,"lng":135.804651,"zip":"6110011"},{"town":"宇治","koaza":"善法","lat":34.885922,"lng":135.804221,"zip":"6110021"},{"town":"宇治","koaza":"東山","lat":34.88341,"lng":135.804918,"zip":"6110021"},{"town":"木幡","koaza":"畑山田","lat":34.934692,"lng":135.804507,"zip":"6110002"},{"town":"五ケ庄","koaza":"三番割","lat":34.91269,"lng":135.809479,"zip":"6110011"},{"town":"五ケ庄","koaza":"折坂","lat":34.908643,"lng":135.805251,"zip":"6110011"},{"town":"宇治","koaza":"折居","lat":34.871364,"lng":135.804539,"zip":"6110021"},{"town":"五ケ庄","koaza":"福角","lat":34.905506,"lng":135.805458,"zip":"6110011"},{"town":"木幡","koaza":"御蔵山","lat":34.930478,"lng":135.807795,"zip":"6110002"},{"town":"木幡","koaza":"平尾","lat":34.928196,"lng":135.810038,"zip":"6110002"},{"town":"莵道","koaza":"丸山","lat":34.89838,"lng":135.805034,"zip":"6011396"},{"town":"宇治","koaza":"蓮華","lat":34.889864,"lng":135.80644,"zip":"6110021"},{"town":"莵道","koaza":"西隼上り","lat":34.90452,"lng":135.807349,"zip":"6011396"},{"town":"莵道","koaza":"森本","lat":34.902174,"lng":135.807193,"zip":"6011396"},{"town":"莵道","koaza":"出口","lat":34.900378,"lng":135.808139,"zip":"6011396"},{"town":"宇治","koaza":"塔川","lat":34.887462,"lng":135.810003,"zip":"6110021"},{"town":"五ケ庄","koaza":"二番割","lat":34.90897,"lng":135.808297,"zip":"6110011"},{"town":"五ケ庄","koaza":"広岡谷","lat":34.917623,"lng":135.810487,"zip":"6110011"},{"town":"宇治","koaza":"乙方","lat":34.894411,"lng":135.80758,"zip":"6110021"},{"town":"莵道","koaza":"荒槇","lat":34.896579,"lng":135.809627,"zip":"6011396"},{"town":"莵道","koaza":"田中","lat":34.897655,"lng":135.808986,"zip":"6011396"},{"town":"宇治","koaza":"東内","lat":34.893745,"lng":135.810304,"zip":"6110021"},{"town":"五ケ庄","koaza":"高峯山","lat":34.915154,"lng":135.808178,"zip":"6110011"},{"town":"白川","koaza":"鍋倉山","lat":34.869836,"lng":135.810731,"zip":"6110022"},{"town":"莵道","koaza":"籔里","lat":34.901747,"lng":135.809341,"zip":"6011396"},{"town":"宇治","koaza":"又振","lat":34.891468,"lng":135.809886,"zip":"6110021"},{"town":"莵道","koaza":"谷下り","lat":34.899032,"lng":135.80864,"zip":"6011396"},{"town":"宇治","koaza":"山本","lat":34.895099,"lng":135.811459,"zip":"6110021"},{"town":"宇治","koaza":"山田","lat":34.888263,"lng":135.812394,"zip":"6110021"},{"town":"五ケ庄","koaza":"一番割","lat":34.907483,"lng":135.808548,"zip":"6110011"},{"town":"莵道","koaza":"西中","lat":34.901764,"lng":135.810705,"zip":"6011396"},{"town":"白川","koaza":"山本","lat":34.874299,"lng":135.810216,"zip":"6110022"},{"town":"莵道","koaza":"大垣内","lat":34.895998,"lng":135.810924,"zip":"6011396"},{"town":"莵道","koaza":"門前","lat":34.898731,"lng":135.812441,"zip":"6011396"},{"town":"白川","koaza":"中ノ薗","lat":34.881816,"lng":135.812133,"zip":"6110022"},{"town":"木幡","koaza":"須留","lat":34.923744,"lng":135.814867,"zip":"6110002"},{"town":"莵道","koaza":"中筋","lat":34.90024,"lng":135.811996,"zip":"6011396"},{"town":"莵道","koaza":"池山","lat":34.897028,"lng":135.814438,"zip":"6011396"},{"town":"莵道","koaza":"只川","lat":34.898567,"lng":135.814658,"zip":"6011396"},{"town":"五ケ庄","koaza":"五雲峰","lat":34.909423,"lng":135.816197,"zip":"6110011"},{"town":"莵道","koaza":"奥ノ池","lat":34.898149,"lng":135.817859,"zip":"6011396"},{"town":"白川","koaza":"水落山","lat":34.861928,"lng":135.8208,"zip":"6110022"},{"town":"宇治","koaza":"金井戸","lat":34.874768,"lng":135.823713,"zip":"6110021"},{"town":"莵道","koaza":"滋賀谷","lat":34.90224,"lng":135.820968,"zip":"6011396"},{"town":"木幡","koaza":"南原","lat":34.920211,"lng":135.813455,"zip":"6110002"},{"town":"志津川","koaza":"西組","lat":34.888881,"lng":135.823839,"zip":"6110015"},{"town":"志津川","koaza":"南組","lat":34.888225,"lng":135.824849,"zip":"6110015"},{"town":"志津川","koaza":"北組","lat":34.892283,"lng":135.827139,"zip":"6110015"},{"town":"莵道","koaza":"新池","lat":34.914749,"lng":135.82676,"zip":"6011396"},{"town":"志津川","koaza":"東組","lat":34.891402,"lng":135.827564,"zip":"6110015"},{"town":"木幡","koaza":"松峠","lat":34.920426,"lng":135.822204,"zip":"6110002"},{"town":"小倉町","koaza":"西大池","lat":34.900498,"lng":135.764625,"zip":"6110042"},{"town":"槇島町","koaza":"十八","lat":34.910934,"lng":135.784702,"zip":"6110041"},{"town":"小倉町","koaza":"大池","lat":34.902879,"lng":135.771053,"zip":"6110042"},{"town":"大久保町","koaza":"成手","lat":34.87729,"lng":135.769745,"zip":"6110033"},{"town":"広野町","koaza":"成田","lat":34.879676,"lng":135.770562,"zip":"6110031"},{"town":"白川","koaza":"川上り谷","lat":34.877032,"lng":135.810726,"zip":"6110022"},{"town":"白川","koaza":"上明","lat":34.870292,"lng":135.815358,"zip":"6110022"},{"town":"白川","koaza":"宮ノ前","lat":34.876552,"lng":135.811838,"zip":"6110022"},{"town":"白川","koaza":"東山","lat":34.879287,"lng":135.81884,"zip":"6110022"},{"town":"白川","koaza":"端爪","lat":34.871075,"lng":135.815602,"zip":"6110022"},{"town":"白川","koaza":"堂ノ山","lat":34.879726,"lng":135.810449,"zip":"6110022"},{"town":"白川","koaza":"娑婆山","lat":34.878003,"lng":135.812923,"zip":"6110022"},{"town":"白川","koaza":"宮ノ後","lat":34.878351,"lng":135.812518,"zip":"6110022"},{"town":"白川","koaza":"笹原","lat":34.879972,"lng":135.81139,"zip":"6110022"},{"town":"白川","koaza":"三西原","lat":34.879658,"lng":135.810832,"zip":"6110022"},{"town":"宇治","koaza":"山王","lat":34.884358,"lng":135.811177,"zip":"6110021"},{"town":"白川","koaza":"山王ケ谷","lat":34.881822,"lng":135.811267,"zip":"6110022"},{"town":"白川","koaza":"川下","lat":34.881011,"lng":135.812791,"zip":"6110022"},{"town":"宇治","koaza":"紅斉","lat":34.891216,"lng":135.816156,"zip":"6110021"},{"town":"莵道","koaza":"段ノ上","lat":34.904107,"lng":135.811763,"zip":"6011396"},{"town":"莵道","koaza":"河原","lat":34.900112,"lng":135.814004,"zip":"6011396"},{"town":"莵道","koaza":"東中","lat":34.902174,"lng":135.811854,"zip":"6011396"},{"town":"五ケ庄","koaza":"池ノ浦","lat":34.912161,"lng":135.801737,"zip":"6110011"},{"town":"五ケ庄","koaza":"瓦塚","lat":34.907848,"lng":135.800733,"zip":"6110011"},{"town":"五ケ庄","koaza":"尼ケ塚","lat":34.912273,"lng":135.792918,"zip":"6110011"},{"town":"五ケ庄","koaza":"辻本","lat":34.909049,"lng":135.799379,"zip":"6110011"},{"town":"五ケ庄","koaza":"針木原","lat":34.909043,"lng":135.791619,"zip":"6110011"},{"town":"五ケ庄","koaza":"西田","lat":34.917528,"lng":135.791753,"zip":"6110011"},{"town":"五ケ庄","koaza":"壇ノ東","lat":34.919184,"lng":135.79788,"zip":"6110011"},{"town":"六地藏","koaza":"札ノ辻町","lat":34.932095,"lng":135.79783,"zip":"6110000"},{"town":"六地藏","koaza":"紺屋町","lat":34.930225,"lng":135.796789,"zip":"6110000"},{"town":"六地藏","koaza":"柿ノ木町","lat":34.931179,"lng":135.796811,"zip":"6110000"},{"town":"槇島町","koaza":"二十四","lat":34.911893,"lng":135.785967,"zip":"6110041"},{"town":"槇島町","koaza":"中川原","lat":34.905792,"lng":135.787446,"zip":"6110041"},{"town":"五ケ庄","koaza":"大八木島","lat":34.90941,"lng":135.792274,"zip":"6110011"},{"town":"莵道","koaza":"上野","lat":34.904001,"lng":135.810785,"zip":"6011396"},{"town":"莵道","koaza":"大谷","lat":34.902487,"lng":135.818475,"zip":"6011396"},{"town":"莵道","koaza":"妙見","lat":34.896792,"lng":135.813139,"zip":"6011396"},{"town":"志津川","koaza":"鷺尻","lat":34.892156,"lng":135.82173,"zip":"6110015"},{"town":"志津川","koaza":"東詰","lat":34.890397,"lng":135.828096,"zip":"6110015"},{"town":"志津川","koaza":"南詰","lat":34.8877,"lng":135.825273,"zip":"6110015"},{"town":"志津川","koaza":"仙郷谷","lat":34.884071,"lng":135.825948,"zip":"6110015"},{"town":"槇島町","koaza":"槇尾山","lat":34.881998,"lng":135.827539,"zip":"6110041"},{"town":"志津川","koaza":"西山","lat":34.886257,"lng":135.822987,"zip":"6110015"},{"town":"白川","koaza":"打破","lat":34.882155,"lng":135.813892,"zip":"6110022"},{"town":"宇治","koaza":"小桜","lat":34.89477,"lng":135.797839,"zip":"6110021"},{"town":"莵道","koaza":"山田","lat":34.896887,"lng":135.817058,"zip":"6011396"},{"town":"莵道","koaza":"岡谷","lat":34.897149,"lng":135.819901,"zip":"6011396"},{"town":"木幡","koaza":"北山","lat":34.927084,"lng":135.817425,"zip":"6110002"},{"town":"白川","koaza":"植田","lat":34.874004,"lng":135.812128,"zip":"6110022"}]