[{"town":"字安智","koaza":"","lat":35.534397,"lng":135.201603,"zip":"6260000"},{"town":"字池ノ谷","koaza":"","lat":35.538155,"lng":135.188411,"zip":"6260000"},{"town":"字石浦","koaza":"","lat":35.499003,"lng":135.276115,"zip":"6260000"},{"town":"字今福","koaza":"","lat":35.507482,"lng":135.20146,"zip":"6260000"},{"town":"字岩ケ鼻","koaza":"","lat":35.660453,"lng":135.259764,"zip":"6260000"},{"town":"字魚屋","koaza":"","lat":35.537529,"lng":135.195139,"zip":"6260000"},{"town":"字江尻","koaza":"","lat":35.581085,"lng":135.200022,"zip":"6260000"},{"town":"字蛭子","koaza":"","lat":35.539048,"lng":135.189788,"zip":"6260000"},{"town":"字大垣","koaza":"","lat":35.58351,"lng":135.195012,"zip":"6260000"},{"town":"字大久保","koaza":"","lat":35.533982,"lng":135.192169,"zip":"6260000"},{"town":"字大島","koaza":"","lat":35.670544,"lng":135.26506,"zip":"6260000"},{"town":"字小川","koaza":"","lat":35.536236,"lng":135.189287,"zip":"6260000"},{"town":"字奥波見","koaza":"","lat":35.64967,"lng":135.230016,"zip":"6260000"},{"town":"字小田","koaza":"","lat":35.48396,"lng":135.162845,"zip":"6260000"},{"town":"字小田宿野","koaza":"","lat":35.560862,"lng":135.262513,"zip":"6260000"},{"town":"字皆原","koaza":"","lat":35.529726,"lng":135.216287,"zip":"6260000"},{"town":"字鏡ケ浦","koaza":"","lat":35.56407,"lng":135.248053,"zip":"6260000"},{"town":"字金屋谷","koaza":"","lat":35.534141,"lng":135.190526,"zip":"6260000"},{"town":"字上世屋","koaza":"","lat":35.633067,"lng":135.186348,"zip":"6260000"},{"town":"字川向","koaza":"","lat":35.541597,"lng":135.189486,"zip":"6260000"},{"town":"字河原","koaza":"","lat":35.538434,"lng":135.191449,"zip":"6260000"},{"town":"字木子","koaza":"","lat":35.659693,"lng":135.192265,"zip":"6260000"},{"town":"字喜多","koaza":"","lat":35.491125,"lng":135.200799,"zip":"6260000"},{"town":"字木ノ部","koaza":"","lat":35.530495,"lng":135.19162,"zip":"6260000"},{"town":"字京街道","koaza":"","lat":35.532827,"lng":135.19313,"zip":"6260000"},{"town":"字京口","koaza":"","lat":35.529918,"lng":135.193003,"zip":"6260000"},{"town":"字京口町","koaza":"","lat":35.531212,"lng":135.192948,"zip":"6260000"},{"town":"字銀丘","koaza":"","lat":35.555868,"lng":135.235752,"zip":"6260000"},{"town":"字小寺","koaza":"","lat":35.537343,"lng":135.229944,"zip":"6260000"},{"town":"字駒倉","koaza":"","lat":35.640386,"lng":135.165815,"zip":"6260000"},{"town":"字里波見","koaza":"","lat":35.631248,"lng":135.239396,"zip":"6260000"},{"town":"字獅子崎","koaza":"","lat":35.555415,"lng":135.211421,"zip":"6260000"},{"town":"字島陰","koaza":"","lat":35.572862,"lng":135.245262,"zip":"6260000"},{"town":"字島崎","koaza":"","lat":35.537678,"lng":135.196142,"zip":"6260000"},{"town":"字下世屋","koaza":"","lat":35.628522,"lng":135.207892,"zip":"6260000"},{"town":"字上司","koaza":"","lat":35.547733,"lng":135.228001,"zip":"6260000"},{"town":"字白柏","koaza":"","lat":35.53835,"lng":135.190523,"zip":"6260000"},{"town":"字新宮","koaza":"","lat":35.511354,"lng":135.231338,"zip":"6260000"},{"town":"字新浜","koaza":"","lat":35.537711,"lng":135.193545,"zip":"6260000"},{"town":"字杉末","koaza":"","lat":35.546871,"lng":135.185989,"zip":"6260000"},{"town":"字須津","koaza":"","lat":35.548053,"lng":135.155547,"zip":"6260000"},{"town":"字住吉","koaza":"","lat":35.539387,"lng":135.191332,"zip":"6260000"},{"town":"字惣","koaza":"","lat":35.528643,"lng":135.205564,"zip":"6260000"},{"town":"字外側","koaza":"","lat":35.533628,"lng":135.198329,"zip":"6260000"},{"town":"字田井","koaza":"","lat":35.586379,"lng":135.244383,"zip":"6260000"},{"town":"字滝馬","koaza":"","lat":35.526469,"lng":135.177379,"zip":"6260000"},{"town":"字田原","koaza":"","lat":35.685027,"lng":135.269211,"zip":"6260000"},{"town":"字獅子","koaza":"","lat":35.561439,"lng":135.215785,"zip":"6260000"},{"town":"字鶴賀","koaza":"","lat":35.536542,"lng":135.199681,"zip":"6260000"},{"town":"字外垣","koaza":"","lat":35.664498,"lng":135.251752,"zip":"6260000"},{"town":"字長江","koaza":"","lat":35.647862,"lng":135.244308,"zip":"6260000"},{"town":"字中津","koaza":"","lat":35.556613,"lng":135.22899,"zip":"6260000"},{"town":"字中野","koaza":"","lat":35.583265,"lng":135.188747,"zip":"6260000"},{"town":"字中ノ丁","koaza":"","lat":35.532756,"lng":135.19652,"zip":"6260000"},{"town":"字中波見","koaza":"","lat":35.643786,"lng":135.219238,"zip":"6260000"},{"town":"字中村","koaza":"","lat":35.530001,"lng":135.235212,"zip":"6260000"},{"town":"字成相寺","koaza":"","lat":35.595759,"lng":135.188045,"zip":"6260000"},{"town":"字難波野","koaza":"","lat":35.589718,"lng":135.199833,"zip":"6260000"},{"town":"字波路","koaza":"","lat":35.542917,"lng":135.214122,"zip":"6260000"},{"town":"字波路町","koaza":"","lat":35.539397,"lng":135.205673,"zip":"6260000"},{"town":"字畑","koaza":"","lat":35.612808,"lng":135.195638,"zip":"6260000"},{"town":"字馬場先","koaza":"","lat":35.531934,"lng":135.194685,"zip":"6260000"},{"town":"字浜町","koaza":"","lat":35.538995,"lng":135.193948,"zip":"6260000"},{"town":"字日置","koaza":"","lat":35.609611,"lng":135.220553,"zip":"6260000"},{"town":"字東野","koaza":"","lat":35.641596,"lng":135.198287,"zip":"6260000"},{"town":"字日ケ谷","koaza":"","lat":35.674475,"lng":135.228428,"zip":"6260000"},{"town":"字本町","koaza":"","lat":35.536256,"lng":135.193609,"zip":"6260000"},{"town":"字松尾","koaza":"","lat":35.643363,"lng":135.20761,"zip":"6260000"},{"town":"字松原","koaza":"","lat":35.527499,"lng":135.191994,"zip":"6260000"},{"town":"字万年","koaza":"","lat":35.540881,"lng":135.178843,"zip":"6260000"},{"town":"字万年新地","koaza":"","lat":35.537309,"lng":135.189369,"zip":"6260000"},{"town":"字宮町","koaza":"","lat":35.540218,"lng":135.188694,"zip":"6260000"},{"town":"字宮村","koaza":"","lat":35.518712,"lng":135.203157,"zip":"6260000"},{"town":"字宮本","koaza":"","lat":35.534636,"lng":135.194109,"zip":"6260000"},{"town":"字文珠","koaza":"","lat":35.555421,"lng":135.180219,"zip":"6260000"},{"town":"字柳縄手","koaza":"","lat":35.533699,"lng":135.194271,"zip":"6260000"},{"town":"字山中","koaza":"","lat":35.527389,"lng":135.226398,"zip":"6260000"},{"town":"字矢原","koaza":"","lat":35.568481,"lng":135.233993,"zip":"6260000"},{"town":"字由良","koaza":"","lat":35.520531,"lng":135.269735,"zip":"6260000"},{"town":"字吉原","koaza":"","lat":35.532477,"lng":135.19891,"zip":"6260000"},{"town":"字万町","koaza":"","lat":35.535697,"lng":135.192678,"zip":"6260000"},{"town":"字猟師","koaza":"","lat":35.530951,"lng":135.190244,"zip":"6260000"},{"town":"字漁師","koaza":"","lat":35.541839,"lng":135.191051,"zip":"6260000"},{"town":"字脇","koaza":"","lat":35.524014,"lng":135.250899,"zip":"6260000"},{"town":"字溝尻","koaza":"","lat":35.578182,"lng":135.184625,"zip":"6260000"},{"town":"字小松","koaza":"","lat":35.583465,"lng":135.1841,"zip":"6260000"},{"town":"字国分","koaza":"","lat":35.577856,"lng":135.176503,"zip":"6260000"},{"town":"字宮村","koaza":"三輪","lat":35.525461,"lng":135.190604,"zip":"6260000"}]