[{"town":"市坂","koaza":"","lat":34.723277,"lng":135.824261,"zip":"6190213"},{"town":"梅谷","koaza":"","lat":34.715096,"lng":135.849088,"zip":"6190212"},{"town":"梅美台一丁目","koaza":"","lat":34.715521,"lng":135.836742,"zip":"6190215"},{"town":"梅美台二丁目","koaza":"","lat":34.718791,"lng":135.835988,"zip":"6190215"},{"town":"梅美台三丁目","koaza":"","lat":34.719018,"lng":135.839642,"zip":"6190215"},{"town":"梅美台四丁目","koaza":"","lat":34.716112,"lng":135.841903,"zip":"6190215"},{"town":"梅美台五丁目","koaza":"","lat":34.714182,"lng":135.845649,"zip":"6190215"},{"town":"梅美台六丁目","koaza":"","lat":34.711331,"lng":135.848317,"zip":"6190215"},{"town":"梅美台七丁目","koaza":"","lat":34.712296,"lng":135.842784,"zip":"6190215"},{"town":"梅美台八丁目","koaza":"","lat":34.711172,"lng":135.84103,"zip":"6190215"},{"town":"鹿背山","koaza":"","lat":34.74385,"lng":135.840677,"zip":"6190211"},{"town":"兜台一丁目","koaza":"","lat":34.725285,"lng":135.786703,"zip":"6190224"},{"town":"兜台二丁目","koaza":"","lat":34.723928,"lng":135.781239,"zip":"6190224"},{"town":"兜台三丁目","koaza":"","lat":34.725222,"lng":135.781573,"zip":"6190224"},{"town":"兜台四丁目","koaza":"","lat":34.727105,"lng":135.781318,"zip":"6190224"},{"town":"兜台五丁目","koaza":"","lat":34.728975,"lng":135.78155,"zip":"6190224"},{"town":"兜台六丁目","koaza":"","lat":34.730484,"lng":135.786662,"zip":"6190224"},{"town":"兜台七丁目","koaza":"","lat":34.727608,"lng":135.786722,"zip":"6190224"},{"town":"加茂町井平尾","koaza":"","lat":34.767795,"lng":135.876446,"zip":"6191102"},{"town":"加茂町岩船","koaza":"","lat":34.719522,"lng":135.885513,"zip":"6191133"},{"town":"加茂町兎並","koaza":"","lat":34.756132,"lng":135.875421,"zip":"6191112"},{"town":"加茂町駅西一丁目","koaza":"","lat":34.753067,"lng":135.869943,"zip":"6191153"},{"town":"加茂町駅西二丁目","koaza":"","lat":34.755755,"lng":135.872167,"zip":"6191153"},{"town":"加茂町駅東一丁目","koaza":"","lat":34.750932,"lng":135.869965,"zip":"6191154"},{"town":"加茂町駅東二丁目","koaza":"","lat":34.752609,"lng":135.870949,"zip":"6191154"},{"town":"加茂町駅東三丁目","koaza":"","lat":34.752674,"lng":135.872454,"zip":"6191154"},{"town":"加茂町駅東四丁目","koaza":"","lat":34.754389,"lng":135.873653,"zip":"6191154"},{"town":"加茂町大野","koaza":"","lat":34.750244,"lng":135.857869,"zip":"6191142"},{"town":"加茂町大畑","koaza":"","lat":34.724333,"lng":135.892806,"zip":"6191132"},{"town":"加茂町岡崎","koaza":"","lat":34.763007,"lng":135.867885,"zip":"6191103"},{"town":"加茂町奥畑","koaza":"","lat":34.782221,"lng":135.873625,"zip":"6191107"},{"town":"加茂町河原","koaza":"","lat":34.76008,"lng":135.861157,"zip":"6191104"},{"town":"加茂町観音寺","koaza":"","lat":34.74488,"lng":135.855562,"zip":"6191143"},{"town":"加茂町北","koaza":"","lat":34.759891,"lng":135.874566,"zip":"6191113"},{"town":"加茂町北下手","koaza":"","lat":34.741749,"lng":135.885871,"zip":"6191121"},{"town":"加茂町北大門","koaza":"","lat":34.721694,"lng":135.871647,"zip":"6191136"},{"town":"加茂町里","koaza":"","lat":34.748471,"lng":135.867887,"zip":"6191152"},{"town":"加茂町勝風","koaza":"","lat":34.732605,"lng":135.892877,"zip":"6191124"},{"town":"加茂町尻枝","koaza":"","lat":34.735515,"lng":135.878858,"zip":"6191126"},{"town":"加茂町銭司","koaza":"","lat":34.764079,"lng":135.887981,"zip":"6191101"},{"town":"加茂町高去","koaza":"","lat":34.735857,"lng":135.88878,"zip":"6191125"},{"town":"加茂町高田","koaza":"","lat":34.735075,"lng":135.861814,"zip":"6191144"},{"town":"加茂町辻","koaza":"","lat":34.732164,"lng":135.883299,"zip":"6191131"},{"town":"加茂町西","koaza":"","lat":34.766679,"lng":135.850357,"zip":"6191105"},{"town":"加茂町西小","koaza":"","lat":34.71875,"lng":135.868078,"zip":"6191135"},{"town":"加茂町東小上","koaza":"","lat":34.71907,"lng":135.875338,"zip":"6191134"},{"town":"加茂町東小下","koaza":"","lat":34.719722,"lng":135.878551,"zip":"6191134"},{"town":"加茂町法花寺野","koaza":"","lat":34.757084,"lng":135.846066,"zip":"6191141"},{"town":"加茂町美浪","koaza":"","lat":34.750434,"lng":135.873344,"zip":"6191151"},{"town":"加茂町南下手","koaza":"","lat":34.739489,"lng":135.885715,"zip":"6191122"},{"town":"加茂町南大門","koaza":"","lat":34.72092,"lng":135.874846,"zip":"6191136"},{"town":"加茂町森","koaza":"","lat":34.73832,"lng":135.890001,"zip":"6191123"},{"town":"加茂町山田","koaza":"","lat":34.754947,"lng":135.899836,"zip":"6191111"},{"town":"加茂町例幣","koaza":"","lat":34.771903,"lng":135.862537,"zip":"6191106"},{"town":"木津","koaza":"","lat":34.73457,"lng":135.820896,"zip":"6190214"},{"town":"木津駅前一丁目","koaza":"","lat":34.736357,"lng":135.823663,"zip":"6190214"},{"town":"木津川台一丁目","koaza":"","lat":34.746837,"lng":135.7913,"zip":"6190225"},{"town":"木津川台二丁目","koaza":"","lat":34.743113,"lng":135.788819,"zip":"6190225"},{"town":"木津川台三丁目","koaza":"","lat":34.745825,"lng":135.787094,"zip":"6190225"},{"town":"木津川台四丁目","koaza":"","lat":34.747516,"lng":135.785159,"zip":"6190225"},{"town":"木津川台五丁目","koaza":"","lat":34.744484,"lng":135.784223,"zip":"6190225"},{"town":"木津川台六丁目","koaza":"","lat":34.741002,"lng":135.786427,"zip":"6190225"},{"town":"木津川台七丁目","koaza":"","lat":34.740126,"lng":135.782396,"zip":"6190225"},{"town":"木津川台八丁目","koaza":"","lat":34.742297,"lng":135.780791,"zip":"6190225"},{"town":"木津川台九丁目","koaza":"","lat":34.742886,"lng":135.777421,"zip":"6190225"},{"town":"木津町","koaza":"","lat":34.73563,"lng":135.817137,"zip":"6190217"},{"town":"州見台一丁目","koaza":"","lat":34.718462,"lng":135.819165,"zip":"6190216"},{"town":"州見台二丁目","koaza":"","lat":34.72126,"lng":135.820918,"zip":"6190216"},{"town":"州見台三丁目","koaza":"","lat":34.718502,"lng":135.827269,"zip":"6190216"},{"town":"州見台四丁目","koaza":"","lat":34.718654,"lng":135.829317,"zip":"6190216"},{"town":"州見台五丁目","koaza":"","lat":34.717061,"lng":135.832142,"zip":"6190216"},{"town":"州見台六丁目","koaza":"","lat":34.713845,"lng":135.827052,"zip":"6190216"},{"town":"州見台七丁目","koaza":"","lat":34.714196,"lng":135.818459,"zip":"6190216"},{"town":"州見台八丁目","koaza":"","lat":34.716621,"lng":135.816876,"zip":"6190216"},{"town":"相楽","koaza":"","lat":34.730992,"lng":135.801686,"zip":"6190222"},{"town":"相楽台一丁目","koaza":"","lat":34.726128,"lng":135.790171,"zip":"6190223"},{"town":"相楽台二丁目","koaza":"","lat":34.729687,"lng":135.790839,"zip":"6190223"},{"town":"相楽台三丁目","koaza":"","lat":34.733822,"lng":135.791894,"zip":"6190223"},{"town":"相楽台四丁目","koaza":"","lat":34.732895,"lng":135.794335,"zip":"6190223"},{"town":"相楽台五丁目","koaza":"","lat":34.728722,"lng":135.794832,"zip":"6190223"},{"town":"相楽台六丁目","koaza":"","lat":34.726281,"lng":135.799092,"zip":"6190223"},{"town":"相楽台七丁目","koaza":"","lat":34.722826,"lng":135.800537,"zip":"6190223"},{"town":"相楽台八丁目","koaza":"","lat":34.723218,"lng":135.796567,"zip":"6190223"},{"town":"相楽台九丁目","koaza":"","lat":34.725787,"lng":135.794202,"zip":"6190223"},{"town":"城山台十丁目","koaza":"","lat":34.728555,"lng":135.832787,"zip":"6190218"},{"town":"城山台十一丁目","koaza":"","lat":34.728227,"lng":135.837307,"zip":"6190218"},{"town":"城山台十二丁目","koaza":"","lat":34.724905,"lng":135.834724,"zip":"6190218"},{"town":"城山台十三丁目","koaza":"","lat":34.725479,"lng":135.828366,"zip":"6190218"},{"town":"城山台一丁目","koaza":"","lat":34.738263,"lng":135.833591,"zip":"6190218"},{"town":"城山台二丁目","koaza":"","lat":34.735854,"lng":135.83532,"zip":"6190218"},{"town":"城山台三丁目","koaza":"","lat":34.736674,"lng":135.843168,"zip":"6190218"},{"town":"城山台四丁目","koaza":"","lat":34.73569,"lng":135.83984,"zip":"6190218"},{"town":"城山台五丁目","koaza":"","lat":34.729498,"lng":135.840883,"zip":"6190218"},{"town":"城山台六丁目","koaza":"","lat":34.731589,"lng":135.838747,"zip":"6190218"},{"town":"城山台七丁目","koaza":"","lat":34.732451,"lng":135.834029,"zip":"6190218"},{"town":"城山台八丁目","koaza":"","lat":34.732943,"lng":135.830006,"zip":"6190218"},{"town":"城山台九丁目","koaza":"","lat":34.728514,"lng":135.828317,"zip":"6190218"},{"town":"南加茂台十丁目","koaza":"","lat":34.73744,"lng":135.87464,"zip":"6191127"},{"town":"南加茂台十一丁目","koaza":"","lat":34.73634,"lng":135.872866,"zip":"6191127"},{"town":"南加茂台十二丁目","koaza":"","lat":34.73562,"lng":135.868536,"zip":"6191127"},{"town":"南加茂台十三丁目","koaza":"","lat":34.733234,"lng":135.871853,"zip":"6191127"},{"town":"南加茂台十四丁目","koaza":"","lat":34.733283,"lng":135.869982,"zip":"6191127"},{"town":"南加茂台十五丁目","koaza":"","lat":34.731767,"lng":135.870876,"zip":"6191127"},{"town":"南加茂台一丁目","koaza":"","lat":34.743245,"lng":135.872524,"zip":"6191127"},{"town":"南加茂台二丁目","koaza":"","lat":34.741058,"lng":135.874721,"zip":"6191127"},{"town":"南加茂台三丁目","koaza":"","lat":34.73926,"lng":135.873542,"zip":"6191127"},{"town":"南加茂台四丁目","koaza":"","lat":34.739957,"lng":135.866322,"zip":"6191127"},{"town":"南加茂台五丁目","koaza":"","lat":34.739807,"lng":135.870545,"zip":"6191127"},{"town":"南加茂台六丁目","koaza":"","lat":34.738978,"lng":135.867815,"zip":"6191127"},{"town":"南加茂台七丁目","koaza":"","lat":34.738552,"lng":135.871322,"zip":"6191127"},{"town":"南加茂台八丁目","koaza":"","lat":34.737566,"lng":135.869242,"zip":"6191127"},{"town":"南加茂台九丁目","koaza":"","lat":34.736926,"lng":135.866424,"zip":"6191127"},{"town":"吐師","koaza":"","lat":34.742228,"lng":135.796996,"zip":"6190221"},{"town":"山城町綺田","koaza":"","lat":34.781656,"lng":135.811713,"zip":"6190201"},{"town":"山城町上狛","koaza":"","lat":34.751438,"lng":135.81825,"zip":"6190204"},{"town":"山城町北河原","koaza":"","lat":34.76631,"lng":135.813096,"zip":"6190206"},{"town":"山城町神童子","koaza":"","lat":34.766528,"lng":135.831922,"zip":"6190203"},{"town":"山城町椿井","koaza":"","lat":34.760638,"lng":135.816531,"zip":"6190205"},{"town":"山城町平尾","koaza":"","lat":34.774826,"lng":135.816531,"zip":"6190202"},{"town":"吐師","koaza":"坊ヶ谷","lat":34.741954,"lng":135.790086,"zip":"6190221"},{"town":"吐師","koaza":"上柏谷","lat":34.742817,"lng":135.790582,"zip":"6190221"},{"town":"吐師","koaza":"宮ノ前","lat":34.744924,"lng":135.794432,"zip":"6190221"},{"town":"相楽","koaza":"城西","lat":34.737846,"lng":135.794891,"zip":"6190222"},{"town":"吐師","koaza":"医王寺","lat":34.742208,"lng":135.792527,"zip":"6190221"},{"town":"吐師","koaza":"中ノ中条","lat":34.74914,"lng":135.793815,"zip":"6190221"},{"town":"相楽","koaza":"大徳","lat":34.74008,"lng":135.795245,"zip":"6190222"},{"town":"吐師","koaza":"下柏谷","lat":34.743334,"lng":135.793742,"zip":"6190221"},{"town":"吐師","koaza":"山下","lat":34.74495,"lng":135.793431,"zip":"6190221"},{"town":"相楽","koaza":"荒神塚","lat":34.735326,"lng":135.794242,"zip":"6190222"},{"town":"吐師","koaza":"小林","lat":34.743691,"lng":135.795222,"zip":"6190221"},{"town":"吐師","koaza":"久保","lat":34.742157,"lng":135.795223,"zip":"6190221"},{"town":"吐師","koaza":"松葉","lat":34.741222,"lng":135.795286,"zip":"6190221"},{"town":"相楽","koaza":"古川","lat":34.7358,"lng":135.79546,"zip":"6190222"},{"town":"相楽","koaza":"袋樋","lat":34.733749,"lng":135.795193,"zip":"6190222"},{"town":"相楽","koaza":"相楽山","lat":34.731901,"lng":135.795534,"zip":"6190222"},{"town":"相楽","koaza":"土師山","lat":34.732953,"lng":135.795124,"zip":"6190222"},{"town":"吐師","koaza":"高樋","lat":34.746254,"lng":135.79634,"zip":"6190221"},{"town":"吐師","koaza":"池ノ尻","lat":34.748708,"lng":135.79602,"zip":"6190221"},{"town":"相楽","koaza":"西ノ宮","lat":34.731597,"lng":135.795569,"zip":"6190222"},{"town":"相楽","koaza":"才ノ神","lat":34.731343,"lng":135.796177,"zip":"6190222"},{"town":"吐師","koaza":"上垣外","lat":34.750792,"lng":135.796027,"zip":"6190221"},{"town":"相楽","koaza":"姫子","lat":34.735388,"lng":135.796036,"zip":"6190222"},{"town":"吐師","koaza":"北越","lat":34.749061,"lng":135.796806,"zip":"6190221"},{"town":"吐師","koaza":"稲葉","lat":34.745162,"lng":135.797184,"zip":"6190221"},{"town":"吐師","koaza":"前ノ橋","lat":34.742776,"lng":135.797349,"zip":"6190221"},{"town":"吐師","koaza":"西垣内","lat":34.743682,"lng":135.797402,"zip":"6190221"},{"town":"相楽","koaza":"大仙堂","lat":34.72896,"lng":135.798015,"zip":"6190222"},{"town":"相楽","koaza":"城下","lat":34.738212,"lng":135.798925,"zip":"6190222"},{"town":"吐師","koaza":"中垣外","lat":34.747114,"lng":135.798089,"zip":"6190221"},{"town":"吐師","koaza":"梅ノ木","lat":34.748124,"lng":135.797669,"zip":"6190221"},{"town":"相楽","koaza":"神後原","lat":34.735257,"lng":135.797265,"zip":"6190222"},{"town":"相楽","koaza":"城ノ堀","lat":34.73126,"lng":135.797367,"zip":"6190222"},{"town":"相楽","koaza":"大里","lat":34.733319,"lng":135.798518,"zip":"6190222"},{"town":"相楽","koaza":"西村","lat":34.73478,"lng":135.797856,"zip":"6190222"},{"town":"相楽","koaza":"下井手","lat":34.740024,"lng":135.799271,"zip":"6190222"},{"town":"吐師","koaza":"下田","lat":34.750149,"lng":135.798456,"zip":"6190221"},{"town":"相楽","koaza":"清水","lat":34.737096,"lng":135.800934,"zip":"6190222"},{"town":"吐師","koaza":"久保下","lat":34.743901,"lng":135.799141,"zip":"6190221"},{"town":"吐師","koaza":"野間","lat":34.742842,"lng":135.798977,"zip":"6190221"},{"town":"吐師","koaza":"上村","lat":34.746181,"lng":135.799484,"zip":"6190221"},{"town":"吐師","koaza":"郷和田","lat":34.741207,"lng":135.799955,"zip":"6190221"},{"town":"相楽","koaza":"朝苅","lat":34.727994,"lng":135.799617,"zip":"6190222"},{"town":"吐師","koaza":"新田","lat":34.749093,"lng":135.799954,"zip":"6190221"},{"town":"吐師","koaza":"下井","lat":34.746484,"lng":135.800521,"zip":"6190221"},{"town":"相楽","koaza":"八ヶ坪","lat":34.731538,"lng":135.800533,"zip":"6190222"},{"town":"相楽","koaza":"明後前","lat":34.729588,"lng":135.801192,"zip":"6190222"},{"town":"相楽","koaza":"的場","lat":34.732527,"lng":135.800611,"zip":"6190222"},{"town":"相楽","koaza":"馬場","lat":34.73539,"lng":135.80003,"zip":"6190222"},{"town":"相楽","koaza":"新堂前","lat":34.73441,"lng":135.801034,"zip":"6190222"},{"town":"吐師","koaza":"下河原","lat":34.749943,"lng":135.801407,"zip":"6190221"},{"town":"相楽","koaza":"堂ノ浦","lat":34.728193,"lng":135.801889,"zip":"6190222"},{"town":"相楽","koaza":"西戸崎","lat":34.739191,"lng":135.801431,"zip":"6190222"},{"town":"相楽","koaza":"岸間堂","lat":34.726518,"lng":135.8019,"zip":"6190222"},{"town":"相楽","koaza":"片田","lat":34.735387,"lng":135.801334,"zip":"6190222"},{"town":"吐師","koaza":"川ノ尻","lat":34.741497,"lng":135.80142,"zip":"6190221"},{"town":"吐師","koaza":"柳原","lat":34.743395,"lng":135.802058,"zip":"6190221"},{"town":"相楽","koaza":"川ノ尻","lat":34.737904,"lng":135.804498,"zip":"6190222"},{"town":"吐師","koaza":"中河原","lat":34.744541,"lng":135.802675,"zip":"6190221"},{"town":"相楽","koaza":"川久保","lat":34.730458,"lng":135.804407,"zip":"6190222"},{"town":"相楽","koaza":"達摩","lat":34.732882,"lng":135.804833,"zip":"6190222"},{"town":"相楽","koaza":"一新堂","lat":34.736008,"lng":135.80248,"zip":"6190222"},{"town":"相楽","koaza":"鶴ノ町","lat":34.733429,"lng":135.802544,"zip":"6190222"},{"town":"相楽","koaza":"鳥井","lat":34.734411,"lng":135.804277,"zip":"6190222"},{"town":"相楽","koaza":"丸塚","lat":34.735368,"lng":135.804885,"zip":"6190222"},{"town":"相楽","koaza":"東戸崎","lat":34.739556,"lng":135.804438,"zip":"6190222"},{"town":"相楽","koaza":"北新田","lat":34.725828,"lng":135.803434,"zip":"6190222"},{"town":"木津","koaza":"南後背","lat":34.736263,"lng":135.808633,"zip":"6190214"},{"town":"相楽","koaza":"桶本","lat":34.726458,"lng":135.804119,"zip":"6190222"},{"town":"相楽","koaza":"地獄田","lat":34.72942,"lng":135.804705,"zip":"6190222"},{"town":"相楽","koaza":"庄下","lat":34.727296,"lng":135.80513,"zip":"6190222"},{"town":"相楽","koaza":"野入","lat":34.731375,"lng":135.804802,"zip":"6190222"},{"town":"相楽","koaza":"熊野田","lat":34.724356,"lng":135.804376,"zip":"6190222"},{"town":"相楽","koaza":"高下","lat":34.737284,"lng":135.80578,"zip":"6190222"},{"town":"山城町綺田","koaza":"薮浦","lat":34.790603,"lng":135.806,"zip":"6190201"},{"town":"吐師","koaza":"上河原","lat":34.743826,"lng":135.804591,"zip":"6190221"},{"town":"市坂","koaza":"六本木","lat":34.718619,"lng":135.808598,"zip":"6190213"},{"town":"山城町平尾","koaza":"外ノ浜","lat":34.77996,"lng":135.806813,"zip":"6190202"},{"town":"木津","koaza":"山田川","lat":34.740636,"lng":135.805462,"zip":"6190214"},{"town":"木津","koaza":"下川原","lat":34.739415,"lng":135.806967,"zip":"6190214"},{"town":"山城町綺田","koaza":"渡り戸","lat":34.789276,"lng":135.806184,"zip":"6190201"},{"town":"市坂","koaza":"熊坂","lat":34.721468,"lng":135.805798,"zip":"6190213"},{"town":"山城町綺田","koaza":"外高島","lat":34.782307,"lng":135.806032,"zip":"6190201"},{"town":"山城町平尾","koaza":"西河原","lat":34.77429,"lng":135.807477,"zip":"6190202"},{"town":"山城町平尾","koaza":"米出","lat":34.776126,"lng":135.806617,"zip":"6190202"},{"town":"山城町平尾","koaza":"山森","lat":34.771126,"lng":135.808113,"zip":"6190202"},{"town":"山城町平尾","koaza":"中川原","lat":34.771502,"lng":135.808486,"zip":"6190202"},{"town":"山城町平尾","koaza":"開キ","lat":34.770716,"lng":135.806952,"zip":"6190202"},{"town":"山城町平尾","koaza":"念仏戸","lat":34.777079,"lng":135.808121,"zip":"6190202"},{"town":"市坂","koaza":"一丁田","lat":34.724784,"lng":135.809134,"zip":"6190213"},{"town":"山城町綺田","koaza":"川久保","lat":34.785369,"lng":135.807123,"zip":"6190201"},{"town":"山城町平尾","koaza":"菰池","lat":34.778329,"lng":135.808227,"zip":"6190202"},{"town":"木津","koaza":"野色","lat":34.731048,"lng":135.807053,"zip":"6190214"},{"town":"木津","koaza":"石塚","lat":34.726226,"lng":135.809399,"zip":"6190214"},{"town":"山城町綺田","koaza":"美濃垣外","lat":34.788226,"lng":135.808823,"zip":"6190201"},{"town":"山城町平尾","koaza":"高島","lat":34.779626,"lng":135.80863,"zip":"6190202"},{"town":"山城町綺田","koaza":"野田","lat":34.789227,"lng":135.80881,"zip":"6190201"},{"town":"山城町綺田","koaza":"小坪","lat":34.787301,"lng":135.809393,"zip":"6190201"},{"town":"山城町綺田","koaza":"鳥居","lat":34.790108,"lng":135.809068,"zip":"6190201"},{"town":"山城町平尾","koaza":"西方儀","lat":34.769509,"lng":135.809627,"zip":"6190202"},{"town":"山城町平尾","koaza":"茶屋前","lat":34.770317,"lng":135.809382,"zip":"6190202"},{"town":"山城町上狛","koaza":"西畑三丁目","lat":34.755731,"lng":135.808474,"zip":"6190204"},{"town":"木津","koaza":"小釜","lat":34.729364,"lng":135.808299,"zip":"6190214"},{"town":"山城町綺田","koaza":"高島","lat":34.781867,"lng":135.808925,"zip":"6190201"},{"town":"山城町平尾","koaza":"流堤","lat":34.772464,"lng":135.808627,"zip":"6190202"},{"town":"山城町綺田","koaza":"綾杉","lat":34.781158,"lng":135.810523,"zip":"6190201"},{"town":"山城町北河原","koaza":"乾川原","lat":34.767543,"lng":135.80879,"zip":"6190206"},{"town":"市坂","koaza":"芝ノ鼻","lat":34.723238,"lng":135.811672,"zip":"6190213"},{"town":"山城町綺田","koaza":"戸田家","lat":34.786301,"lng":135.809761,"zip":"6190201"},{"town":"山城町上狛","koaza":"西畑二丁目","lat":34.752307,"lng":135.808295,"zip":"6190204"},{"town":"山城町上狛","koaza":"西畑四丁目","lat":34.758082,"lng":135.810174,"zip":"6190204"},{"town":"山城町上狛","koaza":"西畑五丁目","lat":34.759986,"lng":135.809666,"zip":"6190204"},{"town":"山城町平尾","koaza":"下り松","lat":34.775183,"lng":135.809673,"zip":"6190202"},{"town":"山城町椿井","koaza":"北野","lat":34.766248,"lng":135.809054,"zip":"6190205"},{"town":"山城町綺田","koaza":"出垣外","lat":34.785664,"lng":135.812701,"zip":"6190201"},{"town":"山城町北河原","koaza":"畑岡","lat":34.764326,"lng":135.810245,"zip":"6190206"},{"town":"山城町椿井","koaza":"畑岡","lat":34.763026,"lng":135.811058,"zip":"6190205"},{"town":"山城町上狛","koaza":"西殿","lat":34.75348,"lng":135.809714,"zip":"6190204"},{"town":"山城町上狛","koaza":"落辺","lat":34.752049,"lng":135.81082,"zip":"6190204"},{"town":"山城町上狛","koaza":"高垣","lat":34.751058,"lng":135.810853,"zip":"6190204"},{"town":"木津","koaza":"門樋","lat":34.739699,"lng":135.809991,"zip":"6190214"},{"town":"山城町上狛","koaza":"川原","lat":34.745504,"lng":135.81081,"zip":"6190204"},{"town":"山城町上狛","koaza":"西明官","lat":34.750569,"lng":135.809415,"zip":"6190204"},{"town":"山城町綺田","koaza":"局塚","lat":34.78268,"lng":135.810749,"zip":"6190201"},{"town":"木津","koaza":"田中前","lat":34.73423,"lng":135.81127,"zip":"6190214"},{"town":"木津","koaza":"馬ヶ瀬","lat":34.731125,"lng":135.810857,"zip":"6190214"},{"town":"山城町北河原","koaza":"柿ノ木原","lat":34.765283,"lng":135.810261,"zip":"6190206"},{"town":"山城町上狛","koaza":"鳥井","lat":34.755115,"lng":135.810738,"zip":"6190204"},{"town":"市坂","koaza":"下大条","lat":34.722304,"lng":135.810525,"zip":"6190213"},{"town":"山城町平尾","koaza":"浜屋敷","lat":34.769862,"lng":135.813057,"zip":"6190202"},{"town":"木津","koaza":"西小林","lat":34.727717,"lng":135.813239,"zip":"6190214"},{"town":"山城町北河原","koaza":"鶴面","lat":34.767422,"lng":135.810571,"zip":"6190206"},{"town":"山城町上狛","koaza":"東明官","lat":34.750076,"lng":135.811345,"zip":"6190204"},{"town":"山城町上狛","koaza":"北桑垣外","lat":34.748761,"lng":135.810375,"zip":"6190204"},{"town":"山城町平尾","koaza":"市姫","lat":34.778653,"lng":135.810203,"zip":"6190202"},{"town":"山城町平尾","koaza":"綾杉河原","lat":34.779128,"lng":135.811248,"zip":"6190202"},{"town":"山城町北河原","koaza":"内畑","lat":34.768043,"lng":135.811934,"zip":"6190206"},{"town":"山城町綺田","koaza":"南河原","lat":34.779976,"lng":135.81404,"zip":"6190201"},{"town":"山城町平尾","koaza":"東方儀","lat":34.76923,"lng":135.811951,"zip":"6190202"},{"town":"山城町平尾","koaza":"柿ノ木","lat":34.770593,"lng":135.810496,"zip":"6190202"},{"town":"市坂","koaza":"弓田","lat":34.719294,"lng":135.811,"zip":"6190213"},{"town":"山城町上狛","koaza":"榎垣外","lat":34.753112,"lng":135.81083,"zip":"6190204"},{"town":"山城町上狛","koaza":"中桑垣外","lat":34.747704,"lng":135.811026,"zip":"6190204"},{"town":"山城町平尾","koaza":"岸ノ浦","lat":34.774567,"lng":135.811176,"zip":"6190202"},{"town":"山城町綺田","koaza":"神ノ木","lat":34.7896,"lng":135.81125,"zip":"6190201"},{"town":"木津","koaza":"小川","lat":34.73859,"lng":135.812468,"zip":"6190214"},{"town":"山城町上狛","koaza":"六反","lat":34.74906,"lng":135.812273,"zip":"6190204"},{"town":"山城町椿井","koaza":"落合","lat":34.761973,"lng":135.811942,"zip":"6190205"},{"town":"山城町平尾","koaza":"小島","lat":34.777695,"lng":135.8111,"zip":"6190202"},{"town":"山城町椿井","koaza":"鳥井","lat":34.757197,"lng":135.811986,"zip":"6190205"},{"town":"山城町綺田","koaza":"西ノ口","lat":34.784372,"lng":135.81135,"zip":"6190201"},{"town":"市坂","koaza":"水干","lat":34.716089,"lng":135.812466,"zip":"6190213"},{"town":"山城町上狛","koaza":"南桑垣外","lat":34.74673,"lng":135.811561,"zip":"6190204"},{"town":"木津","koaza":"神田","lat":34.735911,"lng":135.812679,"zip":"6190214"},{"town":"山城町椿井","koaza":"水垣内","lat":34.759925,"lng":135.812332,"zip":"6190205"},{"town":"山城町上狛","koaza":"北四ノ宮","lat":34.747718,"lng":135.812716,"zip":"6190204"},{"town":"山城町綺田","koaza":"西垣外","lat":34.78773,"lng":135.811851,"zip":"6190201"},{"town":"山城町上狛","koaza":"御幸道","lat":34.74586,"lng":135.812444,"zip":"6190204"},{"town":"山城町上狛","koaza":"造々垣外","lat":34.753123,"lng":135.812035,"zip":"6190204"},{"town":"山城町上狛","koaza":"大竹","lat":34.754985,"lng":135.812089,"zip":"6190204"},{"town":"山城町平尾","koaza":"西口","lat":34.771047,"lng":135.812936,"zip":"6190202"},{"town":"市坂","koaza":"古川","lat":34.723277,"lng":135.81305,"zip":"6190213"},{"town":"山城町綺田","koaza":"中浜","lat":34.786494,"lng":135.813438,"zip":"6190201"},{"town":"山城町平尾","koaza":"前田","lat":34.775817,"lng":135.812357,"zip":"6190202"},{"town":"山城町上狛","koaza":"山ノ中","lat":34.744782,"lng":135.813329,"zip":"6190204"},{"town":"山城町綺田","koaza":"西ノ城","lat":34.78422,"lng":135.812817,"zip":"6190201"},{"town":"山城町椿井","koaza":"六反薮","lat":34.762969,"lng":135.81254,"zip":"6190205"},{"town":"山城町綺田","koaza":"内垣外","lat":34.782765,"lng":135.812952,"zip":"6190201"},{"town":"山城町綺田","koaza":"正天","lat":34.78049,"lng":135.813809,"zip":"6190201"},{"town":"山城町平尾","koaza":"西古川","lat":34.778526,"lng":135.813495,"zip":"6190202"},{"town":"山城町椿井","koaza":"北代","lat":34.763933,"lng":135.813941,"zip":"6190205"},{"town":"山城町上狛","koaza":"西岸下","lat":34.746466,"lng":135.813276,"zip":"6190204"},{"town":"山城町綺田","koaza":"渋川","lat":34.790821,"lng":135.813945,"zip":"6190201"},{"town":"山城町椿井","koaza":"伊賀落","lat":34.755913,"lng":135.814015,"zip":"6190205"},{"town":"山城町平尾","koaza":"中古川","lat":34.777236,"lng":135.815135,"zip":"6190202"},{"town":"木津町","koaza":"内垣外","lat":34.737141,"lng":135.815637,"zip":"6190217"},{"town":"山城町平尾","koaza":"北払戸","lat":34.775963,"lng":135.814138,"zip":"6190202"},{"town":"山城町上狛","koaza":"老垣外","lat":34.75002,"lng":135.813228,"zip":"6190204"},{"town":"山城町綺田","koaza":"北村","lat":34.788465,"lng":135.813789,"zip":"6190201"},{"town":"山城町北河原","koaza":"古屋敷","lat":34.766291,"lng":135.814145,"zip":"6190206"},{"town":"山城町上狛","koaza":"黒本","lat":34.750972,"lng":135.813249,"zip":"6190204"},{"town":"山城町上狛","koaza":"一本木","lat":34.753395,"lng":135.813151,"zip":"6190204"},{"town":"山城町上狛","koaza":"柘榴垣外","lat":34.754937,"lng":135.814213,"zip":"6190204"},{"town":"山城町上狛","koaza":"松笠","lat":34.75195,"lng":135.813251,"zip":"6190204"},{"town":"山城町北河原","koaza":"角田","lat":34.76615,"lng":135.813131,"zip":"6190206"},{"town":"山城町椿井","koaza":"堂垣内","lat":34.759463,"lng":135.81425,"zip":"6190205"},{"town":"山城町椿井","koaza":"坂ノ下","lat":34.761931,"lng":135.814521,"zip":"6190205"},{"town":"木津","koaza":"川端","lat":34.739181,"lng":135.81627,"zip":"6190214"},{"town":"山城町平尾","koaza":"西黒部","lat":34.768819,"lng":135.814529,"zip":"6190202"},{"town":"山城町上狛","koaza":"チサエ","lat":34.754,"lng":135.814418,"zip":"6190204"},{"town":"市坂","koaza":"池ノ内","lat":34.717026,"lng":135.813703,"zip":"6190213"},{"town":"山城町上狛","koaza":"中岸下","lat":34.745859,"lng":135.814285,"zip":"6190204"},{"town":"市坂","koaza":"加茂田","lat":34.723044,"lng":135.817571,"zip":"6190213"},{"town":"山城町平尾","koaza":"東黒部","lat":34.769923,"lng":135.814357,"zip":"6190202"},{"town":"山城町上狛","koaza":"鈴畑","lat":34.747905,"lng":135.814387,"zip":"6190204"},{"town":"山城町上狛","koaza":"宝本","lat":34.752923,"lng":135.814558,"zip":"6190204"},{"town":"山城町綺田","koaza":"浜","lat":34.785881,"lng":135.814883,"zip":"6190201"},{"town":"木津","koaza":"八後","lat":34.729078,"lng":135.817225,"zip":"6190214"},{"town":"山城町上狛","koaza":"猩々垣外","lat":34.752141,"lng":135.814991,"zip":"6190204"},{"town":"山城町上狛","koaza":"鍵垣外","lat":34.749971,"lng":135.814421,"zip":"6190204"},{"town":"木津","koaza":"八ヶ坪","lat":34.73327,"lng":135.815872,"zip":"6190214"},{"town":"木津","koaza":"大次","lat":34.728662,"lng":135.81507,"zip":"6190214"},{"town":"山城町上狛","koaza":"内瀬","lat":34.751107,"lng":135.816147,"zip":"6190204"},{"town":"木津町","koaza":"神田","lat":34.735517,"lng":135.814146,"zip":"6190217"},{"town":"山城町平尾","koaza":"城垣内","lat":34.771251,"lng":135.815059,"zip":"6190202"},{"town":"市坂","koaza":"井後間","lat":34.720045,"lng":135.814981,"zip":"6190213"},{"town":"山城町上狛","koaza":"追越","lat":34.74503,"lng":135.814481,"zip":"6190204"},{"town":"木津町","koaza":"八ヶ坪","lat":34.734666,"lng":135.815782,"zip":"6190217"},{"town":"山城町平尾","koaza":"不知田","lat":34.774195,"lng":135.815451,"zip":"6190202"},{"town":"山城町上狛","koaza":"西ノ口","lat":34.744551,"lng":135.815562,"zip":"6190204"},{"town":"山城町綺田","koaza":"山口","lat":34.782447,"lng":135.816803,"zip":"6190201"},{"town":"山城町上狛","koaza":"東岸下","lat":34.745634,"lng":135.815065,"zip":"6190204"},{"town":"山城町上狛","koaza":"中井戸","lat":34.746288,"lng":135.815748,"zip":"6190204"},{"town":"山城町平尾","koaza":"南払戸","lat":34.775639,"lng":135.81572,"zip":"6190202"},{"town":"山城町上狛","koaza":"西石垣外","lat":34.747082,"lng":135.815653,"zip":"6190204"},{"town":"市坂","koaza":"奈良坂","lat":34.722076,"lng":135.816754,"zip":"6190213"},{"town":"山城町上狛","koaza":"山神","lat":34.748901,"lng":135.816054,"zip":"6190204"},{"town":"山城町上狛","koaza":"前畑","lat":34.749961,"lng":135.815745,"zip":"6190204"},{"town":"山城町上狛","koaza":"手水垣外","lat":34.747935,"lng":135.815675,"zip":"6190204"},{"town":"山城町綺田","koaza":"柏谷","lat":34.790105,"lng":135.816619,"zip":"6190201"},{"town":"山城町椿井","koaza":"柳田","lat":34.756799,"lng":135.816212,"zip":"6190205"},{"town":"山城町椿井","koaza":"舟戸","lat":34.759509,"lng":135.816034,"zip":"6190205"},{"town":"山城町北河原","koaza":"堂ノ上","lat":34.765632,"lng":135.815851,"zip":"6190206"},{"town":"山城町北河原","koaza":"北山","lat":34.767379,"lng":135.817267,"zip":"6190206"},{"town":"山城町平尾","koaza":"東古川","lat":34.776941,"lng":135.817096,"zip":"6190202"},{"town":"山城町上狛","koaza":"西林","lat":34.755479,"lng":135.81732,"zip":"6190204"},{"town":"山城町上狛","koaza":"向林","lat":34.754084,"lng":135.816452,"zip":"6190204"},{"town":"山城町上狛","koaza":"風呂田","lat":34.754477,"lng":135.815771,"zip":"6190204"},{"town":"山城町綺田","koaza":"平後","lat":34.788034,"lng":135.81587,"zip":"6190201"},{"town":"山城町椿井","koaza":"安ノ平","lat":34.76376,"lng":135.815889,"zip":"6190205"},{"town":"山城町綺田","koaza":"山際","lat":34.784386,"lng":135.81595,"zip":"6190201"},{"town":"山城町北河原","koaza":"北谷","lat":34.767811,"lng":135.815806,"zip":"6190206"},{"town":"山城町北河原","koaza":"南谷","lat":34.766383,"lng":135.818106,"zip":"6190206"},{"town":"山城町椿井","koaza":"西垣内","lat":34.760853,"lng":135.817262,"zip":"6190205"},{"town":"山城町上狛","koaza":"学校前","lat":34.753245,"lng":135.816934,"zip":"6190204"},{"town":"山城町平尾","koaza":"三所塚","lat":34.772794,"lng":135.81605,"zip":"6190202"},{"town":"山城町平尾","koaza":"城山","lat":34.769029,"lng":135.818448,"zip":"6190202"},{"town":"山城町上狛","koaza":"乾町","lat":34.752172,"lng":135.816299,"zip":"6190204"},{"town":"山城町椿井","koaza":"三階","lat":34.761366,"lng":135.817105,"zip":"6190205"},{"town":"山城町綺田","koaza":"淀村","lat":34.780995,"lng":135.816337,"zip":"6190201"},{"town":"山城町椿井","koaza":"中垣内","lat":34.759441,"lng":135.816779,"zip":"6190205"},{"town":"山城町平尾","koaza":"里屋敷","lat":34.77531,"lng":135.816957,"zip":"6190202"},{"town":"山城町平尾","koaza":"上垣内","lat":34.770913,"lng":135.817535,"zip":"6190202"},{"town":"木津町","koaza":"瓦谷","lat":34.733851,"lng":135.817385,"zip":"6190217"},{"town":"木津","koaza":"瓦谷","lat":34.73236,"lng":135.816989,"zip":"6190214"},{"town":"山城町上狛","koaza":"的場","lat":34.748988,"lng":135.817266,"zip":"6190204"},{"town":"山城町上狛","koaza":"東石垣外","lat":34.74724,"lng":135.81693,"zip":"6190204"},{"town":"山城町椿井","koaza":"西ケ峰","lat":34.76333,"lng":135.816411,"zip":"6190205"},{"town":"山城町椿井","koaza":"野田尾","lat":34.763517,"lng":135.817807,"zip":"6190205"},{"town":"山城町上狛","koaza":"曽根","lat":34.748039,"lng":135.817085,"zip":"6190204"},{"town":"山城町上狛","koaza":"坤町","lat":34.750741,"lng":135.817269,"zip":"6190204"},{"town":"山城町椿井","koaza":"松尾崎","lat":34.758183,"lng":135.818013,"zip":"6190205"},{"town":"山城町上狛","koaza":"北的場","lat":34.750136,"lng":135.817625,"zip":"6190204"},{"town":"山城町上狛","koaza":"南荒堀","lat":34.744831,"lng":135.817332,"zip":"6190204"},{"town":"山城町綺田","koaza":"山ノ上","lat":34.780417,"lng":135.818083,"zip":"6190201"},{"town":"山城町上狛","koaza":"大目鑑","lat":34.746198,"lng":135.817508,"zip":"6190204"},{"town":"山城町上狛","koaza":"西作り道","lat":34.746883,"lng":135.817501,"zip":"6190204"},{"town":"山城町上狛","koaza":"北荒堀","lat":34.745445,"lng":135.817354,"zip":"6190204"},{"town":"木津町","koaza":"西垣外","lat":34.737152,"lng":135.817365,"zip":"6190217"},{"town":"山城町椿井","koaza":"城ノ内","lat":34.757373,"lng":135.817387,"zip":"6190205"},{"town":"山城町平尾","koaza":"北垣内","lat":34.778579,"lng":135.817991,"zip":"6190202"},{"town":"山城町平尾","koaza":"越中谷","lat":34.771513,"lng":135.819621,"zip":"6190202"},{"town":"山城町平尾","koaza":"中垣内","lat":34.773798,"lng":135.818115,"zip":"6190202"},{"town":"山城町椿井","koaza":"大平","lat":34.763262,"lng":135.821901,"zip":"6190205"},{"town":"山城町上狛","koaza":"縄手","lat":34.753936,"lng":135.817785,"zip":"6190204"},{"town":"市坂","koaza":"中山","lat":34.723291,"lng":135.819194,"zip":"6190213"},{"town":"木津","koaza":"西垣外","lat":34.734946,"lng":135.818213,"zip":"6190214"},{"town":"山城町上狛","koaza":"学校","lat":34.752901,"lng":135.818589,"zip":"6190204"},{"town":"山城町上狛","koaza":"西下","lat":34.745274,"lng":135.818959,"zip":"6190204"},{"town":"山城町上狛","koaza":"艮町","lat":34.751591,"lng":135.818801,"zip":"6190204"},{"town":"山城町上狛","koaza":"東林","lat":34.754895,"lng":135.81853,"zip":"6190204"},{"town":"山城町椿井","koaza":"御霊後","lat":34.757046,"lng":135.818336,"zip":"6190205"},{"town":"山城町椿井","koaza":"上野","lat":34.755026,"lng":135.819086,"zip":"6190205"},{"town":"市坂","koaza":"小谷口","lat":34.72465,"lng":135.819123,"zip":"6190213"},{"town":"山城町上狛","koaza":"野日向","lat":34.74949,"lng":135.819088,"zip":"6190204"},{"town":"山城町椿井","koaza":"縄手","lat":34.753783,"lng":135.819046,"zip":"6190205"},{"town":"木津","koaza":"宮ノ内","lat":34.728989,"lng":135.819001,"zip":"6190214"},{"town":"山城町上狛","koaza":"東作り道","lat":34.74732,"lng":135.819039,"zip":"6190204"},{"town":"市坂","koaza":"宮ノ内","lat":34.726143,"lng":135.818967,"zip":"6190213"},{"town":"山城町上狛","koaza":"巽町","lat":34.750245,"lng":135.819317,"zip":"6190204"},{"town":"木津","koaza":"殿城","lat":34.739648,"lng":135.820159,"zip":"6190214"},{"town":"木津町","koaza":"宮ノ内","lat":34.732759,"lng":135.818916,"zip":"6190217"},{"town":"木津町","koaza":"殿城","lat":34.738643,"lng":135.818702,"zip":"6190217"},{"town":"木津町","koaza":"南垣外","lat":34.737803,"lng":135.81855,"zip":"6190217"},{"town":"木津","koaza":"清水","lat":34.734073,"lng":135.81946,"zip":"6190214"},{"town":"山城町平尾","koaza":"西ノ辻","lat":34.775545,"lng":135.819384,"zip":"6190202"},{"town":"山城町綺田","koaza":"淀谷","lat":34.781333,"lng":135.82515,"zip":"6190201"},{"town":"山城町平尾","koaza":"横手","lat":34.776188,"lng":135.820516,"zip":"6190202"},{"town":"山城町上狛","koaza":"藤原","lat":34.75244,"lng":135.818821,"zip":"6190204"},{"town":"木津","koaza":"南垣外","lat":34.73696,"lng":135.820327,"zip":"6190214"},{"town":"山城町椿井","koaza":"寒光坊","lat":34.756864,"lng":135.82339,"zip":"6190205"},{"town":"山城町平尾","koaza":"丹タ","lat":34.774239,"lng":135.820305,"zip":"6190202"},{"town":"山城町椿井","koaza":"松尾","lat":34.760473,"lng":135.820221,"zip":"6190205"},{"town":"山城町平尾","koaza":"中溝","lat":34.772743,"lng":135.820011,"zip":"6190202"},{"town":"山城町椿井","koaza":"大将軍","lat":34.753217,"lng":135.819724,"zip":"6190205"},{"town":"山城町平尾","koaza":"腰越","lat":34.771688,"lng":135.819963,"zip":"6190202"},{"town":"市坂","koaza":"西山","lat":34.724849,"lng":135.820202,"zip":"6190213"},{"town":"山城町上狛","koaza":"大将軍","lat":34.75085,"lng":135.820515,"zip":"6190204"},{"town":"木津町","koaza":"奈良道","lat":34.731634,"lng":135.820324,"zip":"6190217"},{"town":"山城町上狛","koaza":"東下","lat":34.745352,"lng":135.821216,"zip":"6190204"},{"town":"木津","koaza":"奈良道","lat":34.728981,"lng":135.820852,"zip":"6190214"},{"town":"山城町上狛","koaza":"日詰","lat":34.748966,"lng":135.820122,"zip":"6190204"},{"town":"山城町上狛","koaza":"四丁町","lat":34.746409,"lng":135.820788,"zip":"6190204"},{"town":"山城町神童子","koaza":"菖蒲谷","lat":34.767495,"lng":135.825833,"zip":"6190203"},{"town":"山城町上狛","koaza":"鶴白","lat":34.746694,"lng":135.821627,"zip":"6190204"},{"town":"山城町神童子","koaza":"北原","lat":34.768397,"lng":135.822706,"zip":"6190203"},{"town":"木津","koaza":"八色","lat":34.730633,"lng":135.822646,"zip":"6190214"},{"town":"山城町上狛","koaza":"南野田芝","lat":34.749804,"lng":135.821,"zip":"6190204"},{"town":"市坂","koaza":"北畑","lat":34.724888,"lng":135.821695,"zip":"6190213"},{"town":"山城町平尾","koaza":"大谷","lat":34.777497,"lng":135.822586,"zip":"6190202"},{"town":"山城町平尾","koaza":"坊ノ山","lat":34.773938,"lng":135.822268,"zip":"6190202"},{"town":"山城町上狛","koaza":"北野田芝","lat":34.751243,"lng":135.821565,"zip":"6190204"},{"town":"木津","koaza":"川原田","lat":34.733984,"lng":135.823327,"zip":"6190214"},{"town":"山城町平尾","koaza":"北萩ノ谷","lat":34.772112,"lng":135.825263,"zip":"6190202"},{"town":"山城町椿井","koaza":"藤原","lat":34.751958,"lng":135.822839,"zip":"6190205"},{"town":"木津","koaza":"池田","lat":34.734847,"lng":135.824382,"zip":"6190214"},{"town":"市坂","koaza":"久保川","lat":34.724075,"lng":135.823191,"zip":"6190213"},{"town":"木津","koaza":"雲村","lat":34.739565,"lng":135.823578,"zip":"6190214"},{"town":"木津","koaza":"馬場南","lat":34.728925,"lng":135.822705,"zip":"6190214"},{"town":"山城町上狛","koaza":"森ノ前","lat":34.748731,"lng":135.826556,"zip":"6190204"},{"town":"山城町上狛","koaza":"植垣外","lat":34.749362,"lng":135.823523,"zip":"6190204"},{"town":"木津","koaza":"上戸","lat":34.737832,"lng":135.825454,"zip":"6190214"},{"town":"山城町椿井","koaza":"天敷堂","lat":34.7571,"lng":135.822842,"zip":"6190205"},{"town":"市坂","koaza":"幣羅坂","lat":34.720742,"lng":135.824519,"zip":"6190213"},{"town":"木津","koaza":"天神山","lat":34.727795,"lng":135.823467,"zip":"6190214"},{"town":"木津","koaza":"宮ノ裏","lat":34.742106,"lng":135.828136,"zip":"6190214"},{"town":"木津","koaza":"大谷","lat":34.730396,"lng":135.827617,"zip":"6190214"},{"town":"加茂町河原","koaza":"茶ノ川原","lat":34.761021,"lng":135.853207,"zip":"6191104"},{"town":"山城町平尾","koaza":"萩ノ谷","lat":34.774767,"lng":135.827683,"zip":"6190202"},{"town":"市坂","koaza":"湯屋田","lat":34.723544,"lng":135.825312,"zip":"6190213"},{"town":"山城町上狛","koaza":"袋谷","lat":34.752909,"lng":135.824317,"zip":"6190204"},{"town":"市坂","koaza":"奈良道","lat":34.722653,"lng":135.824965,"zip":"6190213"},{"town":"山城町平尾","koaza":"笛吹","lat":34.777671,"lng":135.826975,"zip":"6190202"},{"town":"山城町平尾","koaza":"墓ノ谷","lat":34.773362,"lng":135.824103,"zip":"6190202"},{"town":"山城町神童子","koaza":"稲葉","lat":34.770137,"lng":135.82721,"zip":"6190203"},{"town":"山城町平尾","koaza":"南萩ノ谷","lat":34.770917,"lng":135.825127,"zip":"6190202"},{"town":"市坂","koaza":"高座","lat":34.717697,"lng":135.825465,"zip":"6190213"},{"town":"山城町上狛","koaza":"小杉谷","lat":34.754398,"lng":135.824466,"zip":"6190204"},{"town":"山城町上狛","koaza":"上勝山","lat":34.754792,"lng":135.828151,"zip":"6190204"},{"town":"鹿背山","koaza":"塩田","lat":34.746374,"lng":135.835657,"zip":"6190211"},{"town":"木津","koaza":"宮ノ堀","lat":34.739828,"lng":135.826694,"zip":"6190214"},{"town":"山城町神童子","koaza":"芳野谷","lat":34.766995,"lng":135.829495,"zip":"6190203"},{"town":"山城町椿井","koaza":"開帳電","lat":34.759221,"lng":135.827334,"zip":"6190205"},{"town":"市坂","koaza":"清水","lat":34.721917,"lng":135.826314,"zip":"6190213"},{"town":"山城町上狛","koaza":"高麗寺","lat":34.750294,"lng":135.827956,"zip":"6190204"},{"town":"木津","koaza":"片山","lat":34.734217,"lng":135.827568,"zip":"6190214"},{"town":"市坂","koaza":"寒谷","lat":34.723176,"lng":135.827411,"zip":"6190213"},{"town":"山城町神童子","koaza":"芦原谷","lat":34.770578,"lng":135.831776,"zip":"6190203"},{"town":"市坂","koaza":"向山","lat":34.721913,"lng":135.828023,"zip":"6190213"},{"town":"市坂","koaza":"梅谷","lat":34.724163,"lng":135.830255,"zip":"6190213"},{"town":"木津","koaza":"内田山","lat":34.737604,"lng":135.829765,"zip":"6190214"},{"town":"山城町上狛","koaza":"奥勝山","lat":34.75068,"lng":135.829603,"zip":"6190204"},{"town":"木津","koaza":"釜ヶ谷","lat":34.72928,"lng":135.829377,"zip":"6190214"},{"town":"市坂","koaza":"菩提","lat":34.721211,"lng":135.830021,"zip":"6190213"},{"town":"山城町上狛","koaza":"洞ケ谷","lat":34.749834,"lng":135.831271,"zip":"6190204"},{"town":"山城町上狛","koaza":"千両岩","lat":34.755664,"lng":135.834569,"zip":"6190204"},{"town":"山城町上狛","koaza":"蓮池","lat":34.752327,"lng":135.831223,"zip":"6190204"},{"town":"木津","koaza":"今城","lat":34.740644,"lng":135.831056,"zip":"6190214"},{"town":"山城町上狛","koaza":"小口畑","lat":34.750888,"lng":135.83239,"zip":"6190204"},{"town":"山城町神童子","koaza":"不晴谷","lat":34.765411,"lng":135.831917,"zip":"6190203"},{"town":"木津","koaza":"白口","lat":34.743314,"lng":135.833975,"zip":"6190214"},{"town":"鹿背山","koaza":"当田","lat":34.745006,"lng":135.834986,"zip":"6190211"},{"town":"鹿背山","koaza":"垣ノ内","lat":34.747651,"lng":135.835284,"zip":"6190211"},{"town":"木津","koaza":"東小林","lat":34.740913,"lng":135.834851,"zip":"6190214"},{"town":"鹿背山","koaza":"西大平","lat":34.742916,"lng":135.838126,"zip":"6190211"},{"town":"鹿背山","koaza":"東大平","lat":34.744629,"lng":135.837143,"zip":"6190211"},{"town":"梅谷","koaza":"長城谷","lat":34.721252,"lng":135.836392,"zip":"6190212"},{"town":"鹿背山","koaza":"鹿口","lat":34.743165,"lng":135.837566,"zip":"6190211"},{"town":"梅谷","koaza":"今井谷","lat":34.723114,"lng":135.836054,"zip":"6190212"},{"town":"鹿背山","koaza":"細川","lat":34.747025,"lng":135.836549,"zip":"6190211"},{"town":"鹿背山","koaza":"荒堀","lat":34.752103,"lng":135.838519,"zip":"6190211"},{"town":"梅谷","koaza":"池ノ谷","lat":34.723821,"lng":135.838423,"zip":"6190212"},{"town":"梅谷","koaza":"身増","lat":34.721073,"lng":135.839349,"zip":"6190212"},{"town":"鹿背山","koaza":"鹿曲田","lat":34.745306,"lng":135.839146,"zip":"6190211"},{"town":"山城町上狛","koaza":"大谷","lat":34.760187,"lng":135.841268,"zip":"6190204"},{"town":"鹿背山","koaza":"青渕","lat":34.740844,"lng":135.838354,"zip":"6190211"},{"town":"鹿背山","koaza":"東大池","lat":34.727276,"lng":135.840638,"zip":"6190211"},{"town":"鹿背山","koaza":"狸谷","lat":34.740955,"lng":135.839665,"zip":"6190211"},{"town":"鹿背山","koaza":"立ヶ尻","lat":34.742978,"lng":135.83958,"zip":"6190211"},{"town":"鹿背山","koaza":"頓登路里","lat":34.740737,"lng":135.841635,"zip":"6190211"},{"town":"加茂町法花寺野","koaza":"西ノ平","lat":34.756198,"lng":135.842879,"zip":"6191141"},{"town":"鹿背山","koaza":"車谷","lat":34.741483,"lng":135.842398,"zip":"6190211"},{"town":"鹿背山","koaza":"二反田","lat":34.742574,"lng":135.842267,"zip":"6190211"},{"town":"鹿背山","koaza":"切通","lat":34.73776,"lng":135.843738,"zip":"6190211"},{"town":"梅谷","koaza":"荊谷","lat":34.719725,"lng":135.842947,"zip":"6190212"},{"town":"梅谷","koaza":"宮ノ谷","lat":34.724029,"lng":135.846075,"zip":"6190212"},{"town":"梅谷","koaza":"奥ヶ平","lat":34.717656,"lng":135.84281,"zip":"6190212"},{"town":"鹿背山","koaza":"古寺","lat":34.744284,"lng":135.845868,"zip":"6190211"},{"town":"鹿背山","koaza":"熊ヶ崎","lat":34.737537,"lng":135.843035,"zip":"6190211"},{"town":"鹿背山","koaza":"細谷","lat":34.741836,"lng":135.844962,"zip":"6190211"},{"town":"梅谷","koaza":"中山","lat":34.720403,"lng":135.844357,"zip":"6190212"},{"town":"鹿背山","koaza":"清水谷","lat":34.729822,"lng":135.843847,"zip":"6190211"},{"town":"梅谷","koaza":"髯谷","lat":34.721526,"lng":135.84491,"zip":"6190212"},{"town":"加茂町法花寺野","koaza":"西ノ前","lat":34.759555,"lng":135.847486,"zip":"6191141"},{"town":"梅谷","koaza":"中ノ平","lat":34.717111,"lng":135.844591,"zip":"6190212"},{"town":"加茂町西","koaza":"城垣外","lat":34.767282,"lng":135.849109,"zip":"6191105"},{"town":"鹿背山","koaza":"鎌研","lat":34.735903,"lng":135.845649,"zip":"6190211"},{"town":"梅谷","koaza":"寺ノ下","lat":34.716546,"lng":135.847797,"zip":"6190212"},{"town":"鹿背山","koaza":"柳谷","lat":34.736874,"lng":135.846435,"zip":"6190211"},{"town":"鹿背山","koaza":"巾ヶ谷","lat":34.739662,"lng":135.84458,"zip":"6190211"},{"town":"鹿背山","koaza":"梶ヶ谷","lat":34.728811,"lng":135.846636,"zip":"6190211"},{"town":"鹿背山","koaza":"南谷","lat":34.742704,"lng":135.848261,"zip":"6190211"},{"town":"加茂町法花寺野","koaza":"里","lat":34.757631,"lng":135.848626,"zip":"6191141"},{"town":"鹿背山","koaza":"大木谷","lat":34.734577,"lng":135.848563,"zip":"6190211"},{"town":"梅谷","koaza":"南中之谷","lat":34.717676,"lng":135.849933,"zip":"6190212"},{"town":"梅谷","koaza":"北中ノ谷","lat":34.72188,"lng":135.846242,"zip":"6190212"},{"town":"鹿背山","koaza":"宮ノ谷","lat":34.746539,"lng":135.848461,"zip":"6190211"},{"town":"梅谷","koaza":"中ノ島","lat":34.715299,"lng":135.847377,"zip":"6190212"},{"town":"鹿背山","koaza":"小沢","lat":34.732288,"lng":135.848147,"zip":"6190211"},{"town":"加茂町西","koaza":"川端","lat":34.763784,"lng":135.849104,"zip":"6191105"},{"town":"鹿背山","koaza":"大沢","lat":34.733396,"lng":135.850084,"zip":"6190211"},{"town":"梅谷","koaza":"北谷","lat":34.713963,"lng":135.850103,"zip":"6190212"},{"town":"梅谷","koaza":"上ノ平","lat":34.712278,"lng":135.850762,"zip":"6190212"},{"town":"加茂町観音寺","koaza":"大田山","lat":34.734874,"lng":135.852815,"zip":"6191143"},{"town":"梅谷","koaza":"平野","lat":34.706294,"lng":135.851633,"zip":"6190212"},{"town":"梅谷","koaza":"小谷口","lat":34.718118,"lng":135.852125,"zip":"6190212"},{"town":"加茂町河原","koaza":"向山","lat":34.755269,"lng":135.852238,"zip":"6191104"},{"town":"加茂町西","koaza":"山畑","lat":34.764271,"lng":135.851305,"zip":"6191105"},{"town":"梅谷","koaza":"砂子谷","lat":34.71606,"lng":135.851047,"zip":"6190212"},{"town":"加茂町観音寺","koaza":"清水","lat":34.738014,"lng":135.854017,"zip":"6191143"},{"town":"加茂町観音寺","koaza":"中貝戸","lat":34.742181,"lng":135.852455,"zip":"6191143"},{"town":"加茂町観音寺","koaza":"池ノ上","lat":34.732636,"lng":135.851734,"zip":"6191143"},{"town":"加茂町観音寺","koaza":"北貝戸","lat":34.744847,"lng":135.855639,"zip":"6191143"},{"town":"梅谷","koaza":"地蔵谷","lat":34.716813,"lng":135.856444,"zip":"6190212"},{"town":"加茂町西","koaza":"内垣外","lat":34.765509,"lng":135.854012,"zip":"6191105"},{"town":"加茂町大野","koaza":"大野","lat":34.751407,"lng":135.854403,"zip":"6191142"},{"town":"加茂町観音寺","koaza":"節句田","lat":34.73641,"lng":135.853288,"zip":"6191143"},{"town":"加茂町観音寺","koaza":"山畑","lat":34.735472,"lng":135.854832,"zip":"6191143"},{"town":"加茂町河原","koaza":"砂橋","lat":34.761931,"lng":135.855254,"zip":"6191104"},{"town":"加茂町観音寺","koaza":"砂田","lat":34.733337,"lng":135.856935,"zip":"6191143"},{"town":"加茂町観音寺","koaza":"的場","lat":34.740389,"lng":135.853734,"zip":"6191143"},{"town":"加茂町西","koaza":"出口","lat":34.763903,"lng":135.85416,"zip":"6191105"},{"town":"加茂町観音寺","koaza":"西山田","lat":34.737862,"lng":135.854842,"zip":"6191143"},{"town":"加茂町河原","koaza":"中切","lat":34.758658,"lng":135.856418,"zip":"6191104"},{"town":"加茂町観音寺","koaza":"西ノ上","lat":34.738756,"lng":135.856645,"zip":"6191143"},{"town":"加茂町観音寺","koaza":"南貝戸","lat":34.741504,"lng":135.854499,"zip":"6191143"},{"town":"加茂町西","koaza":"岩ノ本","lat":34.765096,"lng":135.855238,"zip":"6191105"},{"town":"加茂町西","koaza":"宮ノ東","lat":34.767161,"lng":135.855529,"zip":"6191105"},{"town":"加茂町観音寺","koaza":"中野","lat":34.734566,"lng":135.855892,"zip":"6191143"},{"town":"加茂町西","koaza":"馬場尻","lat":34.765952,"lng":135.855026,"zip":"6191105"},{"town":"加茂町観音寺","koaza":"垣添","lat":34.742256,"lng":135.856368,"zip":"6191143"},{"town":"加茂町西","koaza":"池田","lat":34.76432,"lng":135.855304,"zip":"6191105"},{"town":"加茂町観音寺","koaza":"貝鍋","lat":34.747696,"lng":135.855307,"zip":"6191143"},{"town":"加茂町河原","koaza":"吹上","lat":34.76108,"lng":135.8575,"zip":"6191104"},{"town":"加茂町高田","koaza":"濁池","lat":34.728296,"lng":135.862317,"zip":"6191144"},{"town":"加茂町例幣","koaza":"稲垣内","lat":34.764521,"lng":135.856659,"zip":"6191106"},{"town":"加茂町大野","koaza":"山際","lat":34.75115,"lng":135.857197,"zip":"6191142"},{"town":"加茂町例幣","koaza":"法性寺前","lat":34.765854,"lng":135.856905,"zip":"6191106"},{"town":"加茂町大野","koaza":"道端","lat":34.728921,"lng":135.857038,"zip":"6191142"},{"town":"加茂町例幣","koaza":"坊ケ谷口","lat":34.767463,"lng":135.856724,"zip":"6191106"},{"town":"加茂町大野","koaza":"長尾","lat":34.731094,"lng":135.856983,"zip":"6191142"},{"town":"加茂町観音寺","koaza":"片岸","lat":34.744541,"lng":135.857341,"zip":"6191143"},{"town":"加茂町例幣","koaza":"口ノ平","lat":34.766673,"lng":135.857316,"zip":"6191106"},{"town":"加茂町観音寺","koaza":"今辻","lat":34.731395,"lng":135.859798,"zip":"6191143"},{"town":"加茂町例幣","koaza":"奥ノ平","lat":34.768742,"lng":135.857369,"zip":"6191106"},{"town":"加茂町高田","koaza":"槙谷","lat":34.722444,"lng":135.860503,"zip":"6191144"},{"town":"加茂町観音寺","koaza":"先鉾","lat":34.736285,"lng":135.857652,"zip":"6191143"},{"town":"加茂町例幣","koaza":"柿ノ内","lat":34.764281,"lng":135.857834,"zip":"6191106"},{"town":"加茂町河原","koaza":"長ヲサ","lat":34.764032,"lng":135.85977,"zip":"6191104"},{"town":"加茂町高田","koaza":"大木屋","lat":34.728397,"lng":135.859818,"zip":"6191144"},{"town":"加茂町大野","koaza":"西畑","lat":34.751568,"lng":135.859231,"zip":"6191142"},{"town":"加茂町例幣","koaza":"カブロ","lat":34.769578,"lng":135.858132,"zip":"6191106"},{"town":"加茂町例幣","koaza":"林ノ前","lat":34.765064,"lng":135.857931,"zip":"6191106"},{"town":"加茂町観音寺","koaza":"小松本","lat":34.743782,"lng":135.859585,"zip":"6191143"},{"town":"加茂町例幣","koaza":"上野","lat":34.768241,"lng":135.858302,"zip":"6191106"},{"town":"加茂町大野","koaza":"五ノ坪","lat":34.746971,"lng":135.860021,"zip":"6191142"},{"town":"加茂町観音寺","koaza":"北雁戸","lat":34.736295,"lng":135.858947,"zip":"6191143"},{"town":"加茂町例幣","koaza":"正等庵","lat":34.76486,"lng":135.859132,"zip":"6191106"},{"town":"加茂町河原","koaza":"尻江","lat":34.759542,"lng":135.86029,"zip":"6191104"},{"town":"加茂町高田","koaza":"堂ノ上","lat":34.738557,"lng":135.860375,"zip":"6191144"},{"town":"加茂町観音寺","koaza":"石部","lat":34.745614,"lng":135.86173,"zip":"6191143"},{"town":"加茂町河原","koaza":"橋ノ本","lat":34.761325,"lng":135.859523,"zip":"6191104"},{"town":"加茂町河原","koaza":"下ノ浦","lat":34.759249,"lng":135.859124,"zip":"6191104"},{"town":"加茂町例幣","koaza":"内垣外","lat":34.765721,"lng":135.860199,"zip":"6191106"},{"town":"加茂町例幣","koaza":"登垣内","lat":34.768383,"lng":135.859446,"zip":"6191106"},{"town":"加茂町例幣","koaza":"法寿庵","lat":34.769546,"lng":135.859398,"zip":"6191106"},{"town":"加茂町大野","koaza":"北前田","lat":34.750554,"lng":135.86162,"zip":"6191142"},{"town":"加茂町例幣","koaza":"後山","lat":34.772567,"lng":135.86071,"zip":"6191106"},{"town":"加茂町観音寺","koaza":"横枕","lat":34.744685,"lng":135.86036,"zip":"6191143"},{"town":"加茂町例幣","koaza":"西ノ谷","lat":34.770967,"lng":135.859412,"zip":"6191106"},{"town":"加茂町観音寺","koaza":"南雁戸","lat":34.735565,"lng":135.859793,"zip":"6191143"},{"town":"加茂町高田","koaza":"柿ノ内","lat":34.735306,"lng":135.861093,"zip":"6191144"},{"town":"加茂町高田","koaza":"赤井山","lat":34.732229,"lng":135.861415,"zip":"6191144"},{"town":"加茂町大野","koaza":"北出畑","lat":34.752438,"lng":135.860627,"zip":"6191142"},{"town":"加茂町大野","koaza":"内畑","lat":34.751571,"lng":135.861595,"zip":"6191142"},{"town":"加茂町河原","koaza":"中垣内","lat":34.760688,"lng":135.861387,"zip":"6191104"},{"town":"加茂町例幣","koaza":"山口","lat":34.77019,"lng":135.86061,"zip":"6191106"},{"town":"加茂町河原","koaza":"大門","lat":34.763317,"lng":135.861379,"zip":"6191104"},{"town":"加茂町高田","koaza":"上ノ平","lat":34.734199,"lng":135.86169,"zip":"6191144"},{"town":"加茂町大野","koaza":"ウヅ","lat":34.752555,"lng":135.864268,"zip":"6191142"},{"town":"加茂町例幣","koaza":"立川","lat":34.769276,"lng":135.861688,"zip":"6191106"},{"town":"加茂町例幣","koaza":"中切","lat":34.767806,"lng":135.86133,"zip":"6191106"},{"town":"加茂町河原","koaza":"帰虎","lat":34.75968,"lng":135.861363,"zip":"6191104"},{"town":"加茂町例幣","koaza":"後田","lat":34.77061,"lng":135.861731,"zip":"6191106"},{"town":"加茂町例幣","koaza":"海住山境外","lat":34.777021,"lng":135.861936,"zip":"6191106"},{"town":"加茂町大野","koaza":"烏田","lat":34.744643,"lng":135.862055,"zip":"6191142"},{"town":"加茂町高田","koaza":"阿下田","lat":34.740488,"lng":135.863192,"zip":"6191144"},{"town":"加茂町高田","koaza":"上ノ垣内","lat":34.73876,"lng":135.862117,"zip":"6191144"},{"town":"加茂町高田","koaza":"奥畑","lat":34.736235,"lng":135.862683,"zip":"6191144"},{"town":"加茂町例幣","koaza":"溝垣内","lat":34.766517,"lng":135.862657,"zip":"6191106"},{"town":"加茂町例幣","koaza":"小ノ林","lat":34.76863,"lng":135.862856,"zip":"6191106"},{"town":"加茂町大野","koaza":"八ノ坪","lat":34.747877,"lng":135.863097,"zip":"6191142"},{"town":"加茂町河原","koaza":"東大門","lat":34.764456,"lng":135.862855,"zip":"6191104"},{"town":"加茂町例幣","koaza":"瓦釜","lat":34.777773,"lng":135.864843,"zip":"6191106"},{"town":"加茂町河原","koaza":"樋用","lat":34.761438,"lng":135.86281,"zip":"6191104"},{"town":"加茂町高田","koaza":"下ノ平","lat":34.735232,"lng":135.863217,"zip":"6191144"},{"town":"加茂町河原","koaza":"上ノ浦","lat":34.759998,"lng":135.86349,"zip":"6191104"},{"town":"加茂町里","koaza":"赤田","lat":34.746712,"lng":135.864284,"zip":"6191152"},{"town":"加茂町例幣","koaza":"後畑","lat":34.770791,"lng":135.862864,"zip":"6191106"},{"town":"加茂町里","koaza":"北古田","lat":34.754778,"lng":135.865264,"zip":"6191152"},{"town":"加茂町西小","koaza":"スコダニ","lat":34.722665,"lng":135.863984,"zip":"6191135"},{"town":"加茂町例幣","koaza":"松ケ辻","lat":34.771593,"lng":135.865534,"zip":"6191106"},{"town":"加茂町里","koaza":"佃","lat":34.749944,"lng":135.864936,"zip":"6191152"},{"town":"加茂町例幣","koaza":"小林","lat":34.771063,"lng":135.863958,"zip":"6191106"},{"town":"加茂町大野","koaza":"唐岩","lat":34.751733,"lng":135.863883,"zip":"6191142"},{"town":"加茂町例幣","koaza":"高樋","lat":34.769438,"lng":135.864126,"zip":"6191106"},{"town":"加茂町高田","koaza":"脇田","lat":34.732984,"lng":135.864226,"zip":"6191144"},{"town":"加茂町里","koaza":"西大間田","lat":34.746506,"lng":135.865636,"zip":"6191152"},{"town":"加茂町里","koaza":"西上田","lat":34.747577,"lng":135.866343,"zip":"6191152"},{"town":"加茂町例幣","koaza":"奈良垣内","lat":34.767829,"lng":135.864328,"zip":"6191106"},{"town":"加茂町岡崎","koaza":"考","lat":34.7661,"lng":135.864383,"zip":"6191103"},{"town":"加茂町岡崎","koaza":"西垣内","lat":34.761352,"lng":135.864543,"zip":"6191103"},{"town":"加茂町高田","koaza":"西ノ脇","lat":34.729748,"lng":135.864665,"zip":"6191144"},{"town":"加茂町岡崎","koaza":"久保垣内","lat":34.764423,"lng":135.864249,"zip":"6191103"},{"town":"加茂町岡崎","koaza":"狛堰","lat":34.763218,"lng":135.864622,"zip":"6191103"},{"town":"加茂町里","koaza":"猿渡","lat":34.741829,"lng":135.864401,"zip":"6191152"},{"town":"加茂町西小","koaza":"長田","lat":34.728101,"lng":135.86627,"zip":"6191135"},{"town":"加茂町里","koaza":"薬井谷","lat":34.74209,"lng":135.865724,"zip":"6191152"},{"town":"加茂町西小","koaza":"井ノ谷","lat":34.722779,"lng":135.865302,"zip":"6191135"},{"town":"加茂町里","koaza":"南古田","lat":34.752572,"lng":135.865152,"zip":"6191152"},{"town":"加茂町東小上","koaza":"ミトロ","lat":34.725947,"lng":135.866692,"zip":"6191134"},{"town":"加茂町西小","koaza":"阪口","lat":34.724401,"lng":135.867432,"zip":"6191135"},{"town":"加茂町里","koaza":"東大間田","lat":34.744876,"lng":135.865706,"zip":"6191152"},{"town":"加茂町高田","koaza":"粟田","lat":34.732105,"lng":135.865407,"zip":"6191144"},{"town":"加茂町高田","koaza":"柳原","lat":34.733631,"lng":135.866784,"zip":"6191144"},{"town":"加茂町西小","koaza":"一ノ切","lat":34.720709,"lng":135.865325,"zip":"6191135"},{"town":"加茂町岡崎","koaza":"出羽","lat":34.765345,"lng":135.866428,"zip":"6191103"},{"town":"加茂町例幣","koaza":"宝田","lat":34.767847,"lng":135.865812,"zip":"6191106"},{"town":"加茂町例幣","koaza":"石ケ辻","lat":34.769803,"lng":135.865889,"zip":"6191106"},{"town":"加茂町西小","koaza":"南谷","lat":34.720331,"lng":135.867472,"zip":"6191135"},{"town":"加茂町岡崎","koaza":"東垣内","lat":34.761732,"lng":135.866584,"zip":"6191103"},{"town":"加茂町里","koaza":"宇留志","lat":34.755601,"lng":135.866558,"zip":"6191152"},{"town":"加茂町西小","koaza":"峰畑","lat":34.722396,"lng":135.866416,"zip":"6191135"},{"town":"加茂町里","koaza":"西鳥口","lat":34.753371,"lng":135.867549,"zip":"6191152"},{"town":"加茂町例幣","koaza":"仏ノ谷","lat":34.772108,"lng":135.866597,"zip":"6191106"},{"town":"加茂町里","koaza":"新戸","lat":34.75474,"lng":135.866968,"zip":"6191152"},{"town":"加茂町例幣","koaza":"欠所","lat":34.773524,"lng":135.867041,"zip":"6191106"},{"town":"加茂町岡崎","koaza":"山後","lat":34.762982,"lng":135.867024,"zip":"6191103"},{"town":"加茂町里","koaza":"南里","lat":34.746459,"lng":135.867493,"zip":"6191152"},{"town":"加茂町岡崎","koaza":"中筋","lat":34.761841,"lng":135.868558,"zip":"6191103"},{"town":"加茂町里","koaza":"口薬井","lat":34.743647,"lng":135.869599,"zip":"6191152"},{"town":"加茂町例幣","koaza":"上ノ垣内","lat":34.777132,"lng":135.869009,"zip":"6191106"},{"town":"加茂町里","koaza":"中門伝","lat":34.756511,"lng":135.868941,"zip":"6191152"},{"town":"加茂町里","koaza":"土堀","lat":34.756758,"lng":135.867443,"zip":"6191152"},{"town":"加茂町例幣","koaza":"園垣内","lat":34.769738,"lng":135.86714,"zip":"6191106"},{"town":"加茂町例幣","koaza":"金ケ辻","lat":34.770845,"lng":135.867188,"zip":"6191106"},{"town":"加茂町例幣","koaza":"鍛治屋垣内","lat":34.768013,"lng":135.867104,"zip":"6191106"},{"town":"加茂町里","koaza":"北里","lat":34.747598,"lng":135.867446,"zip":"6191152"},{"town":"加茂町岡崎","koaza":"上八反田","lat":34.765619,"lng":135.867293,"zip":"6191103"},{"town":"加茂町岡崎","koaza":"下八反田","lat":34.764217,"lng":135.867299,"zip":"6191103"},{"town":"加茂町尻枝","koaza":"広芝","lat":34.730218,"lng":135.871901,"zip":"6191126"},{"town":"加茂町里","koaza":"須原","lat":34.750647,"lng":135.8674,"zip":"6191152"},{"town":"加茂町里","koaza":"東上田","lat":34.749146,"lng":135.867602,"zip":"6191152"},{"town":"加茂町北大門","koaza":"千原谷","lat":34.726965,"lng":135.87406,"zip":"6191136"},{"town":"加茂町例幣","koaza":"板谷垣内","lat":34.774868,"lng":135.869168,"zip":"6191106"},{"town":"加茂町岡崎","koaza":"的場","lat":34.761469,"lng":135.867631,"zip":"6191103"},{"town":"加茂町例幣","koaza":"森下","lat":34.772741,"lng":135.868169,"zip":"6191106"},{"town":"加茂町岩船","koaza":"三本松","lat":34.729416,"lng":135.86821,"zip":"6191133"},{"town":"加茂町岡崎","koaza":"中縄手","lat":34.765915,"lng":135.868187,"zip":"6191103"},{"town":"加茂町岡崎","koaza":"落合","lat":34.763974,"lng":135.868874,"zip":"6191103"},{"town":"加茂町例幣","koaza":"山ノ上","lat":34.771951,"lng":135.867948,"zip":"6191106"},{"town":"加茂町例幣","koaza":"砂田","lat":34.769805,"lng":135.868573,"zip":"6191106"},{"town":"加茂町岡崎","koaza":"三光寺","lat":34.766933,"lng":135.869694,"zip":"6191103"},{"town":"加茂町岩船","koaza":"ガンド","lat":34.724555,"lng":135.869701,"zip":"6191133"},{"town":"加茂町兎並","koaza":"東前田","lat":34.751606,"lng":135.868227,"zip":"6191112"},{"town":"加茂町里","koaza":"東鳥口","lat":34.753347,"lng":135.868811,"zip":"6191152"},{"town":"加茂町里","koaza":"廻り道","lat":34.754575,"lng":135.869024,"zip":"6191152"},{"town":"加茂町里","koaza":"東里","lat":34.749075,"lng":135.868806,"zip":"6191152"},{"town":"加茂町例幣","koaza":"下ノ垣内","lat":34.773792,"lng":135.86928,"zip":"6191106"},{"town":"加茂町北","koaza":"船屋","lat":34.758541,"lng":135.870778,"zip":"6191113"},{"town":"加茂町尻枝","koaza":"七辻","lat":34.723867,"lng":135.869305,"zip":"6191126"},{"town":"加茂町東小上","koaza":"藤城","lat":34.728122,"lng":135.870804,"zip":"6191134"},{"town":"加茂町岡崎","koaza":"出垣内","lat":34.763124,"lng":135.870226,"zip":"6191103"},{"town":"加茂町例幣","koaza":"平田","lat":34.770081,"lng":135.870633,"zip":"6191106"},{"town":"加茂町例幣","koaza":"畑ケ谷","lat":34.774397,"lng":135.87026,"zip":"6191106"},{"town":"加茂町岡崎","koaza":"東縄手","lat":34.765626,"lng":135.86927,"zip":"6191103"},{"town":"加茂町例幣","koaza":"部屋軒","lat":34.775695,"lng":135.869455,"zip":"6191106"},{"town":"加茂町岡崎","koaza":"上平岡","lat":34.765853,"lng":135.869922,"zip":"6191103"},{"town":"加茂町岡崎","koaza":"下平岡","lat":34.766741,"lng":135.869921,"zip":"6191103"},{"town":"加茂町里","koaza":"中森","lat":34.7561,"lng":135.870717,"zip":"6191152"},{"town":"加茂町兎並","koaza":"船屋","lat":34.757736,"lng":135.870575,"zip":"6191112"},{"town":"加茂町里","koaza":"小田","lat":34.74829,"lng":135.87031,"zip":"6191152"},{"town":"加茂町例幣","koaza":"マメロ","lat":34.776494,"lng":135.870531,"zip":"6191106"},{"town":"加茂町北大門","koaza":"仏谷","lat":34.721693,"lng":135.87135,"zip":"6191136"},{"town":"加茂町北大門","koaza":"三五尻","lat":34.720404,"lng":135.871403,"zip":"6191136"},{"town":"加茂町例幣","koaza":"ワサジ","lat":34.775214,"lng":135.872221,"zip":"6191106"},{"town":"加茂町里","koaza":"大山路","lat":34.746488,"lng":135.871283,"zip":"6191152"},{"town":"加茂町井平尾","koaza":"岩脇","lat":34.768087,"lng":135.871538,"zip":"6191102"},{"town":"加茂町井平尾","koaza":"下平岡","lat":34.767431,"lng":135.870598,"zip":"6191102"},{"town":"加茂町例幣","koaza":"狼谷","lat":34.776737,"lng":135.87114,"zip":"6191106"},{"town":"加茂町西小","koaza":"札場","lat":34.716288,"lng":135.873976,"zip":"6191135"},{"town":"加茂町里","koaza":"尾ノ上","lat":34.747397,"lng":135.872385,"zip":"6191152"},{"town":"加茂町兎並","koaza":"西ノ坊","lat":34.755862,"lng":135.871454,"zip":"6191112"},{"town":"加茂町井平尾","koaza":"平田","lat":34.769145,"lng":135.871821,"zip":"6191102"},{"town":"加茂町井平尾","koaza":"片原山","lat":34.766619,"lng":135.874648,"zip":"6191102"},{"town":"加茂町里","koaza":"草畑","lat":34.751512,"lng":135.8723,"zip":"6191152"},{"town":"加茂町南大門","koaza":"堂畑","lat":34.719898,"lng":135.873784,"zip":"6191136"},{"town":"加茂町美浪","koaza":"南","lat":34.750594,"lng":135.872987,"zip":"6191151"},{"town":"加茂町井平尾","koaza":"北置堤","lat":34.769076,"lng":135.873399,"zip":"6191102"},{"town":"加茂町井平尾","koaza":"南置堤","lat":34.76836,"lng":135.874206,"zip":"6191102"},{"town":"加茂町兎並","koaza":"法徳寺","lat":34.756758,"lng":135.873188,"zip":"6191112"},{"town":"加茂町兎並","koaza":"内垣外","lat":34.755688,"lng":135.873995,"zip":"6191112"},{"town":"加茂町井平尾","koaza":"中ノ町","lat":34.770286,"lng":135.87511,"zip":"6191102"},{"town":"加茂町北","koaza":"下大田","lat":34.757738,"lng":135.874251,"zip":"6191113"},{"town":"加茂町北","koaza":"上大田","lat":34.759059,"lng":135.873593,"zip":"6191113"},{"town":"加茂町西小","koaza":"長尾","lat":34.718484,"lng":135.873796,"zip":"6191135"},{"town":"加茂町南大門","koaza":"芋谷","lat":34.721923,"lng":135.875358,"zip":"6191136"},{"town":"加茂町美浪","koaza":"椚","lat":34.745693,"lng":135.874121,"zip":"6191151"},{"town":"加茂町井平尾","koaza":"西垣内","lat":34.767515,"lng":135.874708,"zip":"6191102"},{"town":"加茂町辻","koaza":"藤城","lat":34.733442,"lng":135.875114,"zip":"6191131"},{"town":"加茂町北","koaza":"鴨村","lat":34.760526,"lng":135.875083,"zip":"6191113"},{"town":"加茂町東小上","koaza":"谷ノ下","lat":34.719186,"lng":135.875042,"zip":"6191134"},{"town":"加茂町井平尾","koaza":"北竜下","lat":34.769348,"lng":135.87533,"zip":"6191102"},{"town":"加茂町北","koaza":"小谷","lat":34.761587,"lng":135.881915,"zip":"6191113"},{"town":"加茂町井平尾","koaza":"南竜下","lat":34.768574,"lng":135.874711,"zip":"6191102"},{"town":"加茂町尻枝","koaza":"椚","lat":34.742171,"lng":135.878686,"zip":"6191126"},{"town":"加茂町辻","koaza":"平田","lat":34.735314,"lng":135.8753,"zip":"6191131"},{"town":"加茂町北","koaza":"阪口","lat":34.75809,"lng":135.875618,"zip":"6191113"},{"town":"加茂町井平尾","koaza":"吉原","lat":34.768437,"lng":135.875681,"zip":"6191102"},{"town":"加茂町井平尾","koaza":"東垣内","lat":34.766936,"lng":135.876553,"zip":"6191102"},{"town":"加茂町尻枝","koaza":"川向","lat":34.736394,"lng":135.875999,"zip":"6191126"},{"town":"加茂町兎並","koaza":"小防院","lat":34.753238,"lng":135.876007,"zip":"6191112"},{"town":"加茂町兎並","koaza":"北兎並","lat":34.755128,"lng":135.876796,"zip":"6191112"},{"town":"加茂町北","koaza":"鷹ケ原","lat":34.756999,"lng":135.876084,"zip":"6191113"},{"town":"加茂町尻枝","koaza":"前椚","lat":34.739791,"lng":135.877211,"zip":"6191126"},{"town":"加茂町東小上","koaza":"高庭","lat":34.720682,"lng":135.876835,"zip":"6191134"},{"town":"加茂町北","koaza":"山ノ上","lat":34.75743,"lng":135.876676,"zip":"6191113"},{"town":"加茂町尻枝","koaza":"浦城","lat":34.737475,"lng":135.878503,"zip":"6191126"},{"town":"加茂町北","koaza":"岡田ノ庄","lat":34.761603,"lng":135.879356,"zip":"6191113"},{"town":"加茂町井平尾","koaza":"久保","lat":34.769028,"lng":135.877637,"zip":"6191102"},{"town":"加茂町銭司","koaza":"西畑","lat":34.765221,"lng":135.879325,"zip":"6191101"},{"town":"加茂町北","koaza":"大林","lat":34.760316,"lng":135.877324,"zip":"6191113"},{"town":"加茂町井平尾","koaza":"岸之上","lat":34.768692,"lng":135.878492,"zip":"6191102"},{"town":"加茂町尻枝","koaza":"浅生","lat":34.734944,"lng":135.879058,"zip":"6191126"},{"town":"加茂町大野","koaza":"中宇称","lat":34.759948,"lng":135.884862,"zip":"6191142"},{"town":"加茂町辻","koaza":"六反田","lat":34.733074,"lng":135.880151,"zip":"6191131"},{"town":"加茂町井平尾","koaza":"足田","lat":34.770369,"lng":135.878139,"zip":"6191102"},{"town":"加茂町東小下","koaza":"井手口","lat":34.719427,"lng":135.879343,"zip":"6191134"},{"town":"加茂町南下手","koaza":"長坂","lat":34.742514,"lng":135.881297,"zip":"6191122"},{"town":"加茂町大野","koaza":"南高塚","lat":34.755598,"lng":135.879144,"zip":"6191142"},{"town":"加茂町井平尾","koaza":"狐ケズコ","lat":34.766183,"lng":135.879201,"zip":"6191102"},{"town":"加茂町兎並","koaza":"燈明寺","lat":34.754422,"lng":135.877977,"zip":"6191112"},{"town":"加茂町辻","koaza":"大谷川","lat":34.727428,"lng":135.881674,"zip":"6191131"},{"town":"加茂町岩船","koaza":"八丁","lat":34.721662,"lng":135.880081,"zip":"6191133"},{"town":"加茂町井平尾","koaza":"樋田","lat":34.772907,"lng":135.880821,"zip":"6191102"},{"town":"加茂町岩船","koaza":"阪東","lat":34.721961,"lng":135.88146,"zip":"6191133"},{"town":"加茂町北","koaza":"広","lat":34.761749,"lng":135.880606,"zip":"6191113"},{"town":"加茂町銭司","koaza":"金谷","lat":34.767369,"lng":135.885684,"zip":"6191101"},{"town":"加茂町兎並","koaza":"鶉原","lat":34.754026,"lng":135.885044,"zip":"6191112"},{"town":"加茂町岩船","koaza":"切田","lat":34.72277,"lng":135.881684,"zip":"6191133"},{"town":"加茂町岩船","koaza":"畑ノ垣外","lat":34.723223,"lng":135.883047,"zip":"6191133"},{"town":"加茂町大野","koaza":"西丑谷","lat":34.759533,"lng":135.883622,"zip":"6191142"},{"town":"加茂町辻","koaza":"中垣外","lat":34.73112,"lng":135.882535,"zip":"6191131"},{"town":"加茂町尻枝","koaza":"縄手","lat":34.734432,"lng":135.88331,"zip":"6191126"},{"town":"加茂町銭司","koaza":"門田","lat":34.764434,"lng":135.885372,"zip":"6191101"},{"town":"加茂町辻","koaza":"下垣外","lat":34.732049,"lng":135.883858,"zip":"6191131"},{"town":"加茂町北下手","koaza":"北下手谷","lat":34.743111,"lng":135.883247,"zip":"6191121"},{"town":"加茂町尻枝","koaza":"下程城","lat":34.736573,"lng":135.883344,"zip":"6191126"},{"town":"加茂町岩船","koaza":"上ノ門","lat":34.71925,"lng":135.885589,"zip":"6191133"},{"town":"加茂町南下手","koaza":"浦木戸","lat":34.738727,"lng":135.884209,"zip":"6191122"},{"town":"加茂町北下手","koaza":"北下手","lat":34.742779,"lng":135.88464,"zip":"6191121"},{"town":"加茂町岩船","koaza":"上下大","lat":34.725673,"lng":135.885527,"zip":"6191133"},{"town":"加茂町辻","koaza":"広垣外","lat":34.732632,"lng":135.884914,"zip":"6191131"},{"town":"加茂町大野","koaza":"丑谷","lat":34.759247,"lng":135.884327,"zip":"6191142"},{"town":"加茂町南下手","koaza":"湯屋尻","lat":34.737979,"lng":135.885791,"zip":"6191122"},{"town":"加茂町尻枝","koaza":"上程城","lat":34.7354,"lng":135.886119,"zip":"6191126"},{"town":"加茂町銭司","koaza":"仲辻","lat":34.764899,"lng":135.885621,"zip":"6191101"},{"town":"加茂町辻","koaza":"中屋敷","lat":34.731874,"lng":135.885283,"zip":"6191131"},{"town":"加茂町南下手","koaza":"大和垣","lat":34.740619,"lng":135.886901,"zip":"6191122"},{"town":"加茂町岩船","koaza":"北谷","lat":34.723046,"lng":135.887276,"zip":"6191133"},{"town":"加茂町辻","koaza":"上垣外","lat":34.731658,"lng":135.888821,"zip":"6191131"},{"town":"加茂町銭司","koaza":"坂ノ垣内","lat":34.76549,"lng":135.886503,"zip":"6191101"},{"town":"加茂町銭司","koaza":"佃","lat":34.763864,"lng":135.886121,"zip":"6191101"},{"town":"加茂町高去","koaza":"峰垣内","lat":34.736415,"lng":135.887041,"zip":"6191125"},{"town":"加茂町南下手","koaza":"中尾","lat":34.739432,"lng":135.887058,"zip":"6191122"},{"town":"加茂町大畑","koaza":"湯谷","lat":34.72503,"lng":135.892981,"zip":"6191132"},{"town":"加茂町辻","koaza":"垣内","lat":34.733758,"lng":135.888675,"zip":"6191131"},{"town":"加茂町高去","koaza":"垣内","lat":34.737068,"lng":135.888607,"zip":"6191125"},{"town":"加茂町森","koaza":"下垣外","lat":34.739351,"lng":135.888591,"zip":"6191123"},{"town":"加茂町銭司","koaza":"神田","lat":34.76465,"lng":135.888025,"zip":"6191101"},{"town":"加茂町銭司","koaza":"金鋳山","lat":34.763929,"lng":135.888682,"zip":"6191101"},{"town":"加茂町銭司","koaza":"宮ノ前","lat":34.766012,"lng":135.889764,"zip":"6191101"},{"town":"加茂町高去","koaza":"縄手","lat":34.735484,"lng":135.888991,"zip":"6191125"},{"town":"加茂町銭司","koaza":"蔵ノ垣内","lat":34.764903,"lng":135.889581,"zip":"6191101"},{"town":"加茂町森","koaza":"中垣外","lat":34.738501,"lng":135.889652,"zip":"6191123"},{"town":"加茂町銭司","koaza":"下ノ森","lat":34.764003,"lng":135.889737,"zip":"6191101"},{"town":"加茂町大畑","koaza":"柘榴谷","lat":34.724363,"lng":135.893698,"zip":"6191132"},{"town":"加茂町森","koaza":"上垣外","lat":34.738276,"lng":135.891918,"zip":"6191123"},{"town":"加茂町勝風","koaza":"出垣","lat":34.73178,"lng":135.890955,"zip":"6191124"},{"town":"加茂町銭司","koaza":"上ノ森","lat":34.764535,"lng":135.890479,"zip":"6191101"},{"town":"加茂町銭司","koaza":"和銅","lat":34.764449,"lng":135.891024,"zip":"6191101"},{"town":"加茂町森","koaza":"ダラニ田","lat":34.736962,"lng":135.891305,"zip":"6191123"},{"town":"加茂町大畑","koaza":"上ノ上","lat":34.728067,"lng":135.894351,"zip":"6191132"},{"town":"加茂町銭司","koaza":"北ノ垣内","lat":34.765612,"lng":135.891175,"zip":"6191101"},{"town":"加茂町勝風","koaza":"和所","lat":34.733129,"lng":135.893969,"zip":"6191124"},{"town":"加茂町銭司","koaza":"美ノ畑","lat":34.764698,"lng":135.894032,"zip":"6191101"},{"town":"吐師","koaza":"南ノ中条","lat":34.747588,"lng":135.793986,"zip":"6190221"},{"town":"加茂町兎並","koaza":"寺山","lat":34.754502,"lng":135.876937,"zip":"6191112"},{"town":"加茂町東小上","koaza":"東谷","lat":34.716806,"lng":135.87691,"zip":"6191134"}]