[{"town":"大字乾谷","koaza":"","lat":34.733534,"lng":135.766657,"zip":"6190200"},{"town":"大字植田","koaza":"","lat":34.753994,"lng":135.790921,"zip":"6190200"},{"town":"大字北稲八間","koaza":"","lat":34.768712,"lng":135.790031,"zip":"6190200"},{"town":"大字柘榴","koaza":"","lat":34.730629,"lng":135.761029,"zip":"6190200"},{"town":"大字下狛","koaza":"","lat":34.775753,"lng":135.783289,"zip":"6190200"},{"town":"大字菅井","koaza":"","lat":34.752723,"lng":135.799324,"zip":"6190200"},{"town":"大字東畑","koaza":"","lat":34.75149,"lng":135.746507,"zip":"6190200"},{"town":"大字菱田","koaza":"","lat":34.784205,"lng":135.794566,"zip":"6190200"},{"town":"大字祝園","koaza":"","lat":34.76451,"lng":135.798708,"zip":"6190200"},{"town":"大字南稲八妻","koaza":"","lat":34.756035,"lng":135.781045,"zip":"6190200"},{"town":"大字山田","koaza":"","lat":34.736759,"lng":135.784218,"zip":"6190200"},{"town":"桜が丘一丁目","koaza":"","lat":34.733486,"lng":135.786634,"zip":"6190232"},{"town":"桜が丘二丁目","koaza":"","lat":34.731015,"lng":135.778766,"zip":"6190232"},{"town":"桜が丘三丁目","koaza":"","lat":34.726361,"lng":135.776557,"zip":"6190232"},{"town":"桜が丘四丁目","koaza":"","lat":34.728506,"lng":135.773065,"zip":"6190232"},{"town":"精華台一丁目","koaza":"","lat":34.752484,"lng":135.786199,"zip":"6190238"},{"town":"精華台二丁目","koaza":"","lat":34.750099,"lng":135.783493,"zip":"6190238"},{"town":"精華台三丁目","koaza":"","lat":34.748768,"lng":135.779348,"zip":"6190238"},{"town":"精華台四丁目","koaza":"","lat":34.75125,"lng":135.777845,"zip":"6190238"},{"town":"精華台五丁目","koaza":"","lat":34.751994,"lng":135.772679,"zip":"6190238"},{"town":"精華台六丁目","koaza":"","lat":34.747219,"lng":135.775563,"zip":"6190238"},{"town":"精華台七丁目","koaza":"","lat":34.746989,"lng":135.781699,"zip":"6190238"},{"town":"精華台八丁目","koaza":"","lat":34.743085,"lng":135.772627,"zip":"6190238"},{"town":"精華台九丁目","koaza":"","lat":34.747716,"lng":135.770728,"zip":"6190238"},{"town":"光台一丁目","koaza":"","lat":34.747371,"lng":135.767829,"zip":"6190237"},{"town":"光台二丁目","koaza":"","lat":34.742037,"lng":135.766703,"zip":"6190237"},{"town":"光台三丁目","koaza":"","lat":34.746791,"lng":135.75951,"zip":"6190237"},{"town":"光台四丁目","koaza":"","lat":34.742618,"lng":135.760767,"zip":"6190237"},{"town":"光台五丁目","koaza":"","lat":34.73828,"lng":135.758996,"zip":"6190237"},{"town":"光台六丁目","koaza":"","lat":34.738767,"lng":135.755556,"zip":"6190237"},{"town":"光台七丁目","koaza":"","lat":34.743038,"lng":135.755158,"zip":"6190237"},{"town":"光台八丁目","koaza":"","lat":34.743813,"lng":135.749703,"zip":"6190237"},{"town":"光台九丁目","koaza":"","lat":34.747002,"lng":135.753462,"zip":"6190237"},{"town":"祝園西一丁目","koaza":"","lat":34.760398,"lng":135.789378,"zip":"6190240"},{"town":"大字東畑","koaza":"高塚","lat":34.750606,"lng":135.738147,"zip":"6190200"},{"town":"大字東畑","koaza":"鳥谷","lat":34.751958,"lng":135.738584,"zip":"6190200"},{"town":"大字東畑","koaza":"塚野","lat":34.750551,"lng":135.74362,"zip":"6190200"},{"town":"大字東畑","koaza":"嶽ケ","lat":34.75249,"lng":135.74141,"zip":"6190200"},{"town":"大字東畑","koaza":"箱井谷","lat":34.749948,"lng":135.742845,"zip":"6190200"},{"town":"大字東畑","koaza":"松頭","lat":34.755354,"lng":135.742438,"zip":"6190200"},{"town":"大字東畑","koaza":"久保","lat":34.7512,"lng":135.741758,"zip":"6190200"},{"town":"大字東畑","koaza":"南谷","lat":34.751775,"lng":135.742961,"zip":"6190200"},{"town":"大字東畑","koaza":"北ノ谷","lat":34.753376,"lng":135.742974,"zip":"6190200"},{"town":"大字東畑","koaza":"奥馬場野","lat":34.748887,"lng":135.74448,"zip":"6190200"},{"town":"大字東畑","koaza":"北ノ下","lat":34.754457,"lng":135.745024,"zip":"6190200"},{"town":"大字東畑","koaza":"前坂","lat":34.751417,"lng":135.745564,"zip":"6190200"},{"town":"大字東畑","koaza":"馬原","lat":34.748301,"lng":135.747866,"zip":"6190200"},{"town":"大字東畑","koaza":"古谷","lat":34.754032,"lng":135.746574,"zip":"6190200"},{"town":"大字東畑","koaza":"芳谷","lat":34.75193,"lng":135.747291,"zip":"6190200"},{"town":"大字東畑","koaza":"口馬場野","lat":34.749514,"lng":135.750031,"zip":"6190200"},{"town":"大字東畑","koaza":"南山中","lat":34.750658,"lng":135.748363,"zip":"6190200"},{"town":"大字東畑","koaza":"北山中","lat":34.751003,"lng":135.749134,"zip":"6190200"},{"town":"大字東畑","koaza":"小松尾","lat":34.752282,"lng":135.750416,"zip":"6190200"},{"town":"大字東畑","koaza":"大阪","lat":34.750437,"lng":135.760222,"zip":"6190200"},{"town":"大字東畑","koaza":"荒内","lat":34.749256,"lng":135.754836,"zip":"6190200"},{"town":"大字東畑","koaza":"古道","lat":34.751459,"lng":135.755429,"zip":"6190200"},{"town":"大字北稲八間","koaza":"花ツラ","lat":34.771638,"lng":135.763721,"zip":"6190200"},{"town":"大字東畑","koaza":"下野深","lat":34.761258,"lng":135.758183,"zip":"6190200"},{"town":"大字柘榴","koaza":"谷ノ山","lat":34.733743,"lng":135.755864,"zip":"6190200"},{"town":"大字柘榴","koaza":"権谷","lat":34.732944,"lng":135.755905,"zip":"6190200"},{"town":"大字柘榴","koaza":"川原","lat":34.730589,"lng":135.758935,"zip":"6190200"},{"town":"大字東畑","koaza":"松別","lat":34.755647,"lng":135.758794,"zip":"6190200"},{"town":"大字柘榴","koaza":"縄手","lat":34.731206,"lng":135.757665,"zip":"6190200"},{"town":"大字柘榴","koaza":"垣内","lat":34.732419,"lng":135.760652,"zip":"6190200"},{"town":"大字北稲八間","koaza":"大路","lat":34.773865,"lng":135.763377,"zip":"6190200"},{"town":"大字柘榴","koaza":"出口","lat":34.731713,"lng":135.76004,"zip":"6190200"},{"town":"大字乾谷","koaza":"南谷","lat":34.735263,"lng":135.762199,"zip":"6190200"},{"town":"大字乾谷","koaza":"菰池","lat":34.73726,"lng":135.760577,"zip":"6190200"},{"town":"大字乾谷","koaza":"合力","lat":34.739418,"lng":135.769087,"zip":"6190200"},{"town":"大字乾谷","koaza":"西谷","lat":34.733602,"lng":135.761226,"zip":"6190200"},{"town":"大字南稲八妻","koaza":"若狭","lat":34.752172,"lng":135.763721,"zip":"6190200"},{"town":"大字乾谷","koaza":"大谷","lat":34.73824,"lng":135.766535,"zip":"6190200"},{"town":"大字下狛","koaza":"浅美原","lat":34.778234,"lng":135.768953,"zip":"6190200"},{"town":"大字東畑","koaza":"北口細","lat":34.748782,"lng":135.763669,"zip":"6190200"},{"town":"大字乾谷","koaza":"縄谷","lat":34.733496,"lng":135.763138,"zip":"6190200"},{"town":"大字南稲八妻","koaza":"大崩","lat":34.749938,"lng":135.765663,"zip":"6190200"},{"town":"大字柘榴","koaza":"松ケ平","lat":34.730894,"lng":135.763549,"zip":"6190200"},{"town":"大字南稲八妻","koaza":"小泓","lat":34.752693,"lng":135.766723,"zip":"6190200"},{"town":"大字乾谷","koaza":"中ケ谷","lat":34.733181,"lng":135.765552,"zip":"6190200"},{"town":"大字乾谷","koaza":"松原","lat":34.734988,"lng":135.766979,"zip":"6190200"},{"town":"大字乾谷","koaza":"新谷","lat":34.736127,"lng":135.765068,"zip":"6190200"},{"town":"大字北稲八間","koaza":"縄田","lat":34.765995,"lng":135.76722,"zip":"6190200"},{"town":"大字乾谷","koaza":"鎌ケ谷","lat":34.731949,"lng":135.768131,"zip":"6190200"},{"town":"大字乾谷","koaza":"角平","lat":34.73183,"lng":135.771021,"zip":"6190200"},{"town":"大字乾谷","koaza":"欠所","lat":34.732788,"lng":135.768471,"zip":"6190200"},{"town":"大字南稲八妻","koaza":"川原谷","lat":34.751244,"lng":135.768835,"zip":"6190200"},{"town":"大字乾谷","koaza":"新谷口","lat":34.737583,"lng":135.768283,"zip":"6190200"},{"town":"大字下狛","koaza":"二ノ谷","lat":34.77359,"lng":135.770132,"zip":"6190200"},{"town":"大字下狛","koaza":"大路","lat":34.771395,"lng":135.769469,"zip":"6190200"},{"town":"大字乾谷","koaza":"西ノ辻","lat":34.738081,"lng":135.770761,"zip":"6190200"},{"town":"大字乾谷","koaza":"北里内","lat":34.735937,"lng":135.770931,"zip":"6190200"},{"town":"大字乾谷","koaza":"南里内","lat":34.734231,"lng":135.772198,"zip":"6190200"},{"town":"大字北稲八間","koaza":"五反久保","lat":34.769778,"lng":135.770334,"zip":"6190200"},{"town":"大字下狛","koaza":"市原","lat":34.774368,"lng":135.770656,"zip":"6190200"},{"town":"大字乾谷","koaza":"城山","lat":34.732893,"lng":135.770458,"zip":"6190200"},{"town":"大字南稲八妻","koaza":"福生坊","lat":34.754511,"lng":135.772038,"zip":"6190200"},{"town":"大字下狛","koaza":"天神久保","lat":34.771724,"lng":135.771082,"zip":"6190200"},{"town":"大字乾谷","koaza":"岸ノ下","lat":34.730467,"lng":135.770674,"zip":"6190200"},{"town":"大字北稲八間","koaza":"打越","lat":34.768788,"lng":135.774778,"zip":"6190200"},{"town":"大字乾谷","koaza":"カイノ","lat":34.738494,"lng":135.773225,"zip":"6190200"},{"town":"大字下狛","koaza":"鹿ケ谷","lat":34.774834,"lng":135.771339,"zip":"6190200"},{"town":"大字乾谷","koaza":"三本木","lat":34.732648,"lng":135.772084,"zip":"6190200"},{"town":"大字下狛","koaza":"谷峠","lat":34.771444,"lng":135.773915,"zip":"6190200"},{"town":"大字乾谷","koaza":"一ノ谷","lat":34.73643,"lng":135.772609,"zip":"6190200"},{"town":"大字乾谷","koaza":"金堀","lat":34.734964,"lng":135.775376,"zip":"6190200"},{"town":"大字北稲八間","koaza":"猪口谷","lat":34.76517,"lng":135.774926,"zip":"6190200"},{"town":"大字北稲八間","koaza":"大塚","lat":34.761461,"lng":135.773351,"zip":"6190200"},{"town":"大字下狛","koaza":"下峠","lat":34.773216,"lng":135.773313,"zip":"6190200"},{"town":"大字下狛","koaza":"亀ケ原","lat":34.778369,"lng":135.774585,"zip":"6190200"},{"town":"大字南稲八妻","koaza":"北谷","lat":34.756166,"lng":135.775578,"zip":"6190200"},{"town":"大字下狛","koaza":"堂ケ原","lat":34.775665,"lng":135.774073,"zip":"6190200"},{"town":"大字南稲八妻","koaza":"砂留","lat":34.754776,"lng":135.776093,"zip":"6190200"},{"town":"大字北稲八間","koaza":"鳥取","lat":34.762481,"lng":135.775938,"zip":"6190200"},{"town":"大字南稲八妻","koaza":"皿池","lat":34.758917,"lng":135.776249,"zip":"6190200"},{"town":"大字北稲八間","koaza":"南打越","lat":34.768981,"lng":135.774843,"zip":"6190200"},{"town":"大字下狛","koaza":"新池","lat":34.776834,"lng":135.779424,"zip":"6190200"},{"town":"大字下狛","koaza":"風ケ谷","lat":34.779196,"lng":135.778127,"zip":"6190200"},{"town":"大字北稲八間","koaza":"中ノ谷","lat":34.764817,"lng":135.781746,"zip":"6190200"},{"town":"大字南稲八妻","koaza":"尻谷","lat":34.75536,"lng":135.77997,"zip":"6190200"},{"town":"大字下狛","koaza":"谷内垣外","lat":34.769212,"lng":135.780687,"zip":"6190200"},{"town":"大字山田","koaza":"井ノ元尻","lat":34.734362,"lng":135.779934,"zip":"6190200"},{"town":"大字南稲八妻","koaza":"政ケ谷","lat":34.758014,"lng":135.780478,"zip":"6190200"},{"town":"大字山田","koaza":"中村","lat":34.736228,"lng":135.780333,"zip":"6190200"},{"town":"大字南稲八妻","koaza":"蓮池","lat":34.759218,"lng":135.779879,"zip":"6190200"},{"town":"大字下狛","koaza":"大谷口","lat":34.776479,"lng":135.781372,"zip":"6190200"},{"town":"大字北稲八間","koaza":"城山","lat":34.768332,"lng":135.781177,"zip":"6190200"},{"town":"大字北稲八間","koaza":"北垣外","lat":34.767452,"lng":135.78235,"zip":"6190200"},{"town":"大字南稲八妻","koaza":"門口","lat":34.758932,"lng":135.781652,"zip":"6190200"},{"town":"大字北稲八間","koaza":"唐子谷","lat":34.765986,"lng":135.781221,"zip":"6190200"},{"town":"大字菱田","koaza":"大谷口","lat":34.779983,"lng":135.783178,"zip":"6190200"},{"town":"大字北稲八間","koaza":"焼山","lat":34.764642,"lng":135.782645,"zip":"6190200"},{"town":"大字北稲八間","koaza":"国名平","lat":34.763339,"lng":135.781585,"zip":"6190200"},{"town":"大字南稲八妻","koaza":"西上","lat":34.762687,"lng":135.78191,"zip":"6190200"},{"town":"大字山田","koaza":"古川","lat":34.734924,"lng":135.783183,"zip":"6190200"},{"town":"大字南稲八妻","koaza":"水落","lat":34.754151,"lng":135.783219,"zip":"6190200"},{"town":"大字南稲八妻","koaza":"谷ノ池","lat":34.75695,"lng":135.782955,"zip":"6190200"},{"town":"大字山田","koaza":"平林","lat":34.735773,"lng":135.782107,"zip":"6190200"},{"town":"大字下狛","koaza":"砂川","lat":34.776397,"lng":135.782363,"zip":"6190200"},{"town":"大字南稲八妻","koaza":"笛竹","lat":34.761459,"lng":135.783276,"zip":"6190200"},{"town":"大字南稲八妻","koaza":"蔭山","lat":34.75605,"lng":135.783382,"zip":"6190200"},{"town":"大字下狛","koaza":"鈴ノ庄","lat":34.769208,"lng":135.783972,"zip":"6190200"},{"town":"大字下狛","koaza":"長芝","lat":34.777207,"lng":135.784351,"zip":"6190200"},{"town":"大字北稲八間","koaza":"一ノ坪","lat":34.763512,"lng":135.784703,"zip":"6190200"},{"town":"大字山田","koaza":"樋ノ谷","lat":34.737825,"lng":135.78381,"zip":"6190200"},{"town":"大字下狛","koaza":"中垣内","lat":34.778199,"lng":135.785488,"zip":"6190200"},{"town":"大字南稲八妻","koaza":"堂垣内","lat":34.759471,"lng":135.784212,"zip":"6190200"},{"town":"大字下狛","koaza":"上新庄","lat":34.779403,"lng":135.785987,"zip":"6190200"},{"town":"大字北稲八間","koaza":"中垣外","lat":34.767074,"lng":135.783839,"zip":"6190200"},{"town":"大字南稲八妻","koaza":"塚本","lat":34.762291,"lng":135.784762,"zip":"6190200"},{"town":"大字北稲八間","koaza":"南垣外","lat":34.764549,"lng":135.783893,"zip":"6190200"},{"town":"大字菱田","koaza":"平谷","lat":34.782188,"lng":135.785066,"zip":"6190200"},{"town":"大字北稲八間","koaza":"寺垣外","lat":34.765451,"lng":135.78593,"zip":"6190200"},{"town":"大字山田","koaza":"度々","lat":34.736402,"lng":135.784948,"zip":"6190200"},{"town":"大字北稲八間","koaza":"稲葉","lat":34.76607,"lng":135.784931,"zip":"6190200"},{"town":"大字北稲八間","koaza":"小豆尾","lat":34.767272,"lng":135.786107,"zip":"6190200"},{"town":"大字北稲八間","koaza":"柿添","lat":34.768279,"lng":135.786122,"zip":"6190200"},{"town":"大字山田","koaza":"相和","lat":34.734863,"lng":135.784843,"zip":"6190200"},{"town":"大字下狛","koaza":"柿添","lat":34.769626,"lng":135.785714,"zip":"6190200"},{"town":"大字下狛","koaza":"大福寺","lat":34.771625,"lng":135.785364,"zip":"6190200"},{"town":"大字下狛","koaza":"明法寺","lat":34.771272,"lng":135.786686,"zip":"6190200"},{"town":"大字南稲八妻","koaza":"森垣外","lat":34.758702,"lng":135.787221,"zip":"6190200"},{"town":"大字北稲八間","koaza":"大将言","lat":34.764659,"lng":135.786311,"zip":"6190200"},{"town":"大字下狛","koaza":"下馬","lat":34.775315,"lng":135.787193,"zip":"6190200"},{"town":"大字南稲八妻","koaza":"埜中","lat":34.757364,"lng":135.78694,"zip":"6190200"},{"town":"大字南稲八妻","koaza":"馬場脇","lat":34.755206,"lng":135.786546,"zip":"6190200"},{"town":"大字南稲八妻","koaza":"北尻","lat":34.75967,"lng":135.786226,"zip":"6190200"},{"town":"大字北稲八間","koaza":"上坪","lat":34.763663,"lng":135.786456,"zip":"6190200"},{"town":"大字菱田","koaza":"山ノ下","lat":34.783351,"lng":135.786594,"zip":"6190200"},{"town":"大字山田","koaza":"上川原","lat":34.736846,"lng":135.787604,"zip":"6190200"},{"town":"大字下狛","koaza":"片山","lat":34.772575,"lng":135.786106,"zip":"6190200"},{"town":"大字山田","koaza":"下條","lat":34.734834,"lng":135.787334,"zip":"6190200"},{"town":"大字菱田","koaza":"桑町","lat":34.78844,"lng":135.788565,"zip":"6190200"},{"town":"大字菱田","koaza":"新池","lat":34.781664,"lng":135.787816,"zip":"6190200"},{"town":"大字菱田","koaza":"ハサマ","lat":34.786163,"lng":135.7873,"zip":"6190200"},{"town":"大字植田","koaza":"上山","lat":34.754689,"lng":135.788295,"zip":"6190200"},{"town":"大字植田","koaza":"深谷","lat":34.753139,"lng":135.787464,"zip":"6190200"},{"town":"大字下狛","koaza":"下新庄","lat":34.780133,"lng":135.788967,"zip":"6190200"},{"town":"大字菱田","koaza":"アツイ","lat":34.783726,"lng":135.788399,"zip":"6190200"},{"town":"大字南稲八妻","koaza":"丸山","lat":34.757441,"lng":135.788298,"zip":"6190200"},{"town":"大字菱田","koaza":"西ノ口","lat":34.782762,"lng":135.788567,"zip":"6190200"},{"town":"大字北稲八間","koaza":"寄田長","lat":34.763639,"lng":135.789042,"zip":"6190200"},{"town":"大字北稲八間","koaza":"井手ノ元","lat":34.765378,"lng":135.78831,"zip":"6190200"},{"town":"大字植田","koaza":"新田","lat":34.752452,"lng":135.788509,"zip":"6190200"},{"town":"大字下狛","koaza":"前川","lat":34.772217,"lng":135.789303,"zip":"6190200"},{"town":"大字北稲八間","koaza":"畑ケ田","lat":34.766481,"lng":135.7896,"zip":"6190200"},{"town":"大字菱田","koaza":"黒原","lat":34.78475,"lng":135.789509,"zip":"6190200"},{"town":"大字北稲八間","koaza":"堪田","lat":34.767367,"lng":135.78881,"zip":"6190200"},{"town":"大字下狛","koaza":"鐘付田","lat":34.770213,"lng":135.787907,"zip":"6190200"},{"town":"大字北稲八間","koaza":"野田","lat":34.768215,"lng":135.789,"zip":"6190200"},{"town":"大字下狛","koaza":"井堀","lat":34.769263,"lng":135.789283,"zip":"6190200"},{"town":"大字下狛","koaza":"十曽","lat":34.771194,"lng":135.789282,"zip":"6190200"},{"town":"大字下狛","koaza":"清神前","lat":34.775406,"lng":135.789543,"zip":"6190200"},{"town":"大字植田","koaza":"大塚","lat":34.750898,"lng":135.789026,"zip":"6190200"},{"town":"大字下狛","koaza":"拝殿","lat":34.777746,"lng":135.789111,"zip":"6190200"},{"town":"大字下狛","koaza":"浄楽","lat":34.778955,"lng":135.790329,"zip":"6190200"},{"town":"大字植田","koaza":"南六ノ坪","lat":34.756589,"lng":135.790434,"zip":"6190200"},{"town":"大字下狛","koaza":"林前","lat":34.776687,"lng":135.791216,"zip":"6190200"},{"town":"大字菱田","koaza":"五ノ坪","lat":34.789756,"lng":135.790285,"zip":"6190200"},{"town":"大字菱田","koaza":"六ノ坪","lat":34.786827,"lng":135.78935,"zip":"6190200"},{"town":"大字菱田","koaza":"山路","lat":34.785756,"lng":135.789721,"zip":"6190200"},{"town":"大字植田","koaza":"北六ノ坪","lat":34.759124,"lng":135.789867,"zip":"6190200"},{"town":"大字北稲八間","koaza":"十二","lat":34.764312,"lng":135.790116,"zip":"6190200"},{"town":"大字植田","koaza":"畑ノ前","lat":34.752722,"lng":135.789244,"zip":"6190200"},{"town":"大字山田","koaza":"心蓮寺","lat":34.738795,"lng":135.789445,"zip":"6190200"},{"town":"大字菱田","koaza":"前川原","lat":34.78168,"lng":135.790176,"zip":"6190200"},{"town":"大字植田","koaza":"堂ケ島","lat":34.75465,"lng":135.79146,"zip":"6190200"},{"town":"大字下狛","koaza":"里垣内","lat":34.775285,"lng":135.791709,"zip":"6190200"},{"town":"大字下狛","koaza":"内垣外","lat":34.774224,"lng":135.792095,"zip":"6190200"},{"town":"大字下狛","koaza":"米田前","lat":34.771889,"lng":135.791144,"zip":"6190200"},{"town":"大字植田","koaza":"池ノ川","lat":34.753262,"lng":135.79114,"zip":"6190200"},{"town":"大字祝園","koaza":"榊ケ坪","lat":34.758485,"lng":135.791424,"zip":"6190200"},{"town":"大字菱田","koaza":"十ノ坪","lat":34.782883,"lng":135.791962,"zip":"6190200"},{"town":"大字山田","koaza":"下川原","lat":34.737154,"lng":135.791456,"zip":"6190200"},{"town":"大字北稲八間","koaza":"甲斐ノ元","lat":34.766064,"lng":135.791012,"zip":"6190200"},{"town":"大字北稲八間","koaza":"角田","lat":34.767853,"lng":135.792148,"zip":"6190200"},{"town":"大字菱田","koaza":"市ノ坪","lat":34.787115,"lng":135.790796,"zip":"6190200"},{"town":"大字菱田","koaza":"藁原","lat":34.785801,"lng":135.791204,"zip":"6190200"},{"town":"大字菱田","koaza":"八ノ坪","lat":34.784766,"lng":135.791384,"zip":"6190200"},{"town":"大字菱田","koaza":"九ノ坪","lat":34.783795,"lng":135.791622,"zip":"6190200"},{"town":"大字菱田","koaza":"片原","lat":34.789134,"lng":135.792091,"zip":"6190200"},{"town":"大字菱田","koaza":"落又毛","lat":34.787294,"lng":135.791978,"zip":"6190200"},{"town":"大字菱田","koaza":"宮西","lat":34.781811,"lng":135.792755,"zip":"6190200"},{"town":"大字祝園","koaza":"平田","lat":34.763533,"lng":135.792146,"zip":"6190200"},{"town":"大字植田","koaza":"山中","lat":34.752966,"lng":135.79221,"zip":"6190200"},{"town":"大字祝園","koaza":"二ノ坪","lat":34.76331,"lng":135.791407,"zip":"6190200"},{"town":"大字下狛","koaza":"車付","lat":34.780063,"lng":135.79337,"zip":"6190200"},{"town":"大字北稲八間","koaza":"大井田","lat":34.765228,"lng":135.791868,"zip":"6190200"},{"town":"大字菅井","koaza":"西山","lat":34.752474,"lng":135.794414,"zip":"6190200"},{"town":"大字祝園","koaza":"大池","lat":34.761857,"lng":135.7918,"zip":"6190200"},{"town":"大字菅井","koaza":"久土田","lat":34.751067,"lng":135.795092,"zip":"6190200"},{"town":"大字山田","koaza":"中島","lat":34.736289,"lng":135.792442,"zip":"6190200"},{"town":"大字北稲八間","koaza":"芝本","lat":34.762676,"lng":135.791893,"zip":"6190200"},{"town":"大字祝園","koaza":"長塚","lat":34.760254,"lng":135.793687,"zip":"6190200"},{"town":"大字菱田","koaza":"泉作","lat":34.785818,"lng":135.792192,"zip":"6190200"},{"town":"大字植田","koaza":"寺東","lat":34.756421,"lng":135.79273,"zip":"6190200"},{"town":"大字下狛","koaza":"河原田","lat":34.778083,"lng":135.793321,"zip":"6190200"},{"town":"大字祝園","koaza":"四ノ坪","lat":34.75744,"lng":135.792629,"zip":"6190200"},{"town":"大字下狛","koaza":"太田","lat":34.771287,"lng":135.794612,"zip":"6190200"},{"town":"大字祝園","koaza":"幸田","lat":34.758392,"lng":135.79343,"zip":"6190200"},{"town":"大字祝園","koaza":"一丁田","lat":34.76226,"lng":135.793714,"zip":"6190200"},{"town":"大字祝園","koaza":"砂子田","lat":34.759317,"lng":135.793824,"zip":"6190200"},{"town":"大字植田","koaza":"川佐","lat":34.753531,"lng":135.792899,"zip":"6190200"},{"town":"大字祝園","koaza":"五反田","lat":34.766211,"lng":135.793738,"zip":"6190200"},{"town":"大字祝園","koaza":"中ノ町","lat":34.761281,"lng":135.793312,"zip":"6190200"},{"town":"大字菱田","koaza":"野田","lat":34.787334,"lng":135.793278,"zip":"6190200"},{"town":"大字菅井","koaza":"五味山","lat":34.750756,"lng":135.793351,"zip":"6190200"},{"town":"大字菱田","koaza":"八講田","lat":34.783429,"lng":135.793988,"zip":"6190200"},{"town":"大字菅井","koaza":"西ノ辻","lat":34.751636,"lng":135.795267,"zip":"6190200"},{"town":"大字菱田","koaza":"宮川原","lat":34.781615,"lng":135.794367,"zip":"6190200"},{"town":"大字菱田","koaza":"縄添","lat":34.786585,"lng":135.796831,"zip":"6190200"},{"town":"大字菱田","koaza":"門田","lat":34.785885,"lng":135.794303,"zip":"6190200"},{"town":"大字下狛","koaza":"尼ケ辻","lat":34.776497,"lng":135.795726,"zip":"6190200"},{"town":"大字菱田","koaza":"川原道","lat":34.782514,"lng":135.795169,"zip":"6190200"},{"town":"大字下狛","koaza":"木戸口","lat":34.775007,"lng":135.795759,"zip":"6190200"},{"town":"大字下狛","koaza":"石ケ町","lat":34.778343,"lng":135.796383,"zip":"6190200"},{"town":"大字菅井","koaza":"丹田","lat":34.755479,"lng":135.794904,"zip":"6190200"},{"town":"大字祝園","koaza":"上久保田","lat":34.757387,"lng":135.795035,"zip":"6190200"},{"town":"大字下狛","koaza":"西川原","lat":34.78077,"lng":135.795991,"zip":"6190200"},{"town":"大字下狛","koaza":"市場","lat":34.780137,"lng":135.796567,"zip":"6190200"},{"town":"大字菅井","koaza":"久保田","lat":34.755186,"lng":135.79578,"zip":"6190200"},{"town":"大字祝園","koaza":"下久保田","lat":34.758485,"lng":135.796846,"zip":"6190200"},{"town":"大字祝園","koaza":"杉本","lat":34.759281,"lng":135.796557,"zip":"6190200"},{"town":"大字祝園","koaza":"門田","lat":34.762212,"lng":135.796087,"zip":"6190200"},{"town":"大字祝園","koaza":"城ノ内","lat":34.761217,"lng":135.796034,"zip":"6190200"},{"town":"大字祝園","koaza":"正田","lat":34.765179,"lng":135.797902,"zip":"6190200"},{"town":"大字祝園","koaza":"一反木","lat":34.766124,"lng":135.797826,"zip":"6190200"},{"town":"大字下狛","koaza":"柳垣内","lat":34.774057,"lng":135.79687,"zip":"6190200"},{"town":"大字菱田","koaza":"茶屋前","lat":34.781855,"lng":135.795976,"zip":"6190200"},{"town":"大字菱田","koaza":"西川原","lat":34.783841,"lng":135.79615,"zip":"6190200"},{"town":"大字菱田","koaza":"上久保田","lat":34.785126,"lng":135.796732,"zip":"6190200"},{"town":"大字祝園","koaza":"政長","lat":34.768079,"lng":135.796846,"zip":"6190200"},{"town":"大字下狛","koaza":"本庄","lat":34.779891,"lng":135.797459,"zip":"6190200"},{"town":"大字菅井","koaza":"馬渕","lat":34.754312,"lng":135.799364,"zip":"6190200"},{"town":"大字祝園","koaza":"橋上リ","lat":34.758611,"lng":135.797663,"zip":"6190200"},{"town":"大字菱田","koaza":"奥久保田","lat":34.786555,"lng":135.797452,"zip":"6190200"},{"town":"大字菱田","koaza":"中川原","lat":34.782827,"lng":135.797146,"zip":"6190200"},{"town":"大字菱田","koaza":"中久保田","lat":34.78547,"lng":135.798006,"zip":"6190200"},{"town":"大字菅井","koaza":"古里","lat":34.752194,"lng":135.798556,"zip":"6190200"},{"town":"大字祝園","koaza":"田内垣外","lat":34.761342,"lng":135.79798,"zip":"6190200"},{"town":"大字菅井","koaza":"北ノ堂","lat":34.756137,"lng":135.798772,"zip":"6190200"},{"town":"大字祝園","koaza":"五反畑","lat":34.757385,"lng":135.798933,"zip":"6190200"},{"town":"大字祝園","koaza":"林垣外","lat":34.763663,"lng":135.797874,"zip":"6190200"},{"town":"大字祝園","koaza":"備後垣外","lat":34.767128,"lng":135.798,"zip":"6190200"},{"town":"大字下狛","koaza":"脇田","lat":34.77585,"lng":135.798203,"zip":"6190200"},{"town":"大字下狛","koaza":"椋ノ木","lat":34.773354,"lng":135.799059,"zip":"6190200"},{"town":"大字下狛","koaza":"流口","lat":34.780144,"lng":135.799118,"zip":"6190200"},{"town":"大字祝園","koaza":"古屋敷","lat":34.760706,"lng":135.798073,"zip":"6190200"},{"town":"大字菱田","koaza":"東川原","lat":34.784761,"lng":135.798712,"zip":"6190200"},{"town":"大字下狛","koaza":"百久保","lat":34.781527,"lng":135.798511,"zip":"6190200"},{"town":"大字菱田","koaza":"後来","lat":34.783362,"lng":135.799409,"zip":"6190200"},{"town":"大字祝園","koaza":"国友","lat":34.765721,"lng":135.799319,"zip":"6190200"},{"town":"大字祝園","koaza":"神木段","lat":34.761878,"lng":135.799939,"zip":"6190200"},{"town":"大字祝園","koaza":"味噌柿","lat":34.764266,"lng":135.799022,"zip":"6190200"},{"town":"大字祝園","koaza":"堀殿城","lat":34.764393,"lng":135.799303,"zip":"6190200"},{"town":"大字祝園","koaza":"島ノ前","lat":34.767235,"lng":135.799617,"zip":"6190200"},{"town":"大字祝園","koaza":"針木原","lat":34.758107,"lng":135.800299,"zip":"6190200"},{"town":"大字菅井","koaza":"鳶ケ元","lat":34.753636,"lng":135.802262,"zip":"6190200"},{"town":"大字祝園","koaza":"小路垣外","lat":34.759049,"lng":135.800373,"zip":"6190200"},{"town":"大字祝園","koaza":"正尺","lat":34.763189,"lng":135.800768,"zip":"6190200"},{"town":"大字祝園","koaza":"若井垣外","lat":34.767975,"lng":135.800263,"zip":"6190200"},{"town":"大字祝園","koaza":"若森","lat":34.77064,"lng":135.800807,"zip":"6190200"},{"town":"大字祝園","koaza":"馬場脇","lat":34.76696,"lng":135.800962,"zip":"6190200"},{"town":"大字菅井","koaza":"二本木","lat":34.755843,"lng":135.801594,"zip":"6190200"},{"town":"大字祝園","koaza":"巽垣外","lat":34.757147,"lng":135.802843,"zip":"6190200"},{"town":"大字祝園","koaza":"柞ノ森","lat":34.767681,"lng":135.80178,"zip":"6190200"},{"town":"大字祝園","koaza":"高畑","lat":34.758833,"lng":135.802557,"zip":"6190200"},{"town":"大字祝園","koaza":"古川","lat":34.760775,"lng":135.802531,"zip":"6190200"},{"town":"大字祝園","koaza":"佃","lat":34.762302,"lng":135.802637,"zip":"6190200"},{"town":"大字祝園","koaza":"出森","lat":34.764684,"lng":135.801844,"zip":"6190200"},{"town":"大字祝園","koaza":"水車","lat":34.764991,"lng":135.802901,"zip":"6190200"},{"town":"大字乾谷","koaza":"大崩","lat":34.73068,"lng":135.768311,"zip":"6190200"},{"town":"大字柘榴","koaza":"芦谷","lat":34.730371,"lng":135.765631,"zip":"6190200"},{"town":"大字乾谷","koaza":"長谷","lat":34.729266,"lng":135.771553,"zip":"6190200"},{"town":"大字乾谷","koaza":"大平","lat":34.729559,"lng":135.771275,"zip":"6190200"},{"town":"大字柘榴","koaza":"徳所","lat":34.728826,"lng":135.766849,"zip":"6190200"},{"town":"大字乾谷","koaza":"徳所","lat":34.728925,"lng":135.768846,"zip":"6190200"},{"town":"大字山田","koaza":"金堀","lat":34.733533,"lng":135.776998,"zip":"6190200"},{"town":"大字山田","koaza":"花原","lat":34.734382,"lng":135.776739,"zip":"6190200"},{"town":"大字祝園","koaza":"柳田","lat":34.767771,"lng":135.793207,"zip":"6190200"},{"town":"大字下狛","koaza":"神ノ木","lat":34.775099,"lng":135.79951,"zip":"6190200"},{"town":"大字下狛","koaza":"久保田","lat":34.778098,"lng":135.798444,"zip":"6190200"},{"town":"大字菱田","koaza":"鈴川原","lat":34.78223,"lng":135.797617,"zip":"6190200"},{"town":"大字菱田","koaza":"七ノ坪","lat":34.78468,"lng":135.794238,"zip":"6190200"},{"town":"大字菱田","koaza":"元屋敷","lat":34.787401,"lng":135.796423,"zip":"6190200"},{"town":"大字下狛","koaza":"向山","lat":34.77181,"lng":135.773954,"zip":"6190200"},{"town":"大字祝園","koaza":"一ノ坪","lat":34.757349,"lng":135.792032,"zip":"6190200"},{"town":"大字植田","koaza":"長利ケ谷","lat":34.754389,"lng":135.786235,"zip":"6190200"},{"town":"大字東畑","koaza":"道除キ","lat":34.75026,"lng":135.753375,"zip":"6190200"},{"town":"大字東畑","koaza":"笹谷","lat":34.748603,"lng":135.756676,"zip":"6190200"},{"town":"大字東畑","koaza":"北除キ","lat":34.748933,"lng":135.760672,"zip":"6190200"},{"town":"大字東畑","koaza":"赤水","lat":34.748751,"lng":135.75798,"zip":"6190200"},{"town":"大字乾谷","koaza":"金前","lat":34.739527,"lng":135.77088,"zip":"6190200"},{"town":"大字乾谷","koaza":"谷々","lat":34.740834,"lng":135.771581,"zip":"6190200"},{"town":"大字山田","koaza":"乾戸ケ谷","lat":34.73712,"lng":135.777117,"zip":"6190200"},{"town":"大字山田","koaza":"菅井櫃","lat":34.737931,"lng":135.781009,"zip":"6190200"},{"town":"大字山田","koaza":"大谷","lat":34.737334,"lng":135.783,"zip":"6190200"},{"town":"大字山田","koaza":"樋ノ口","lat":34.73794,"lng":135.786659,"zip":"6190200"},{"town":"大字山田","koaza":"医王寺","lat":34.740589,"lng":135.791575,"zip":"6190200"},{"town":"大字山田","koaza":"笛吹","lat":34.73526,"lng":135.790235,"zip":"6190200"},{"town":"大字山田","koaza":"喜殿脇","lat":34.733978,"lng":135.78211,"zip":"6190200"},{"town":"大字山田","koaza":"鳥ケ林","lat":34.733614,"lng":135.780571,"zip":"6190200"},{"town":"大字柘榴","koaza":"中七条","lat":34.729471,"lng":135.765789,"zip":"6190200"},{"town":"大字柘榴","koaza":"品ケ谷","lat":34.728136,"lng":135.762638,"zip":"6190200"},{"town":"大字柘榴","koaza":"向井","lat":34.728757,"lng":135.760102,"zip":"6190200"},{"town":"大字柘榴","koaza":"池ノ谷","lat":34.730577,"lng":135.755684,"zip":"6190200"},{"town":"大字柘榴","koaza":"辰ケ谷","lat":34.729133,"lng":135.756659,"zip":"6190200"},{"town":"大字山田","koaza":"吉豊","lat":34.73242,"lng":135.776957,"zip":"6190200"},{"town":"大字柘榴","koaza":"石原","lat":34.730529,"lng":135.761105,"zip":"6190200"},{"town":"大字柘榴","koaza":"彦六谷","lat":34.731681,"lng":135.762672,"zip":"6190200"},{"town":"大字南稲八妻","koaza":"焼山","lat":34.762992,"lng":135.779412,"zip":"6190200"}]