[{"town":"相生町","koaza":"","lat":35.300239,"lng":135.254655,"zip":"6230062"},{"town":"青野町","koaza":"","lat":35.305678,"lng":135.259105,"zip":"6230011"},{"town":"旭町","koaza":"","lat":35.317435,"lng":135.309021,"zip":"6291261"},{"town":"綾中町","koaza":"","lat":35.30124,"lng":135.259119,"zip":"6230013"},{"town":"有岡町","koaza":"","lat":35.328685,"lng":135.25644,"zip":"6230006"},{"town":"安国寺町","koaza":"","lat":35.335137,"lng":135.311821,"zip":"6230104"},{"town":"五泉町","koaza":"","lat":35.421812,"lng":135.432438,"zip":"6231124"},{"town":"石原町","koaza":"","lat":35.316568,"lng":135.207009,"zip":"6230224"},{"town":"五津合町","koaza":"","lat":35.380714,"lng":135.416393,"zip":"6231123"},{"town":"位田町","koaza":"","lat":35.324921,"lng":135.241722,"zip":"6230221"},{"town":"井根町","koaza":"","lat":35.351369,"lng":135.357412,"zip":"6291241"},{"town":"井倉新町","koaza":"","lat":35.305486,"lng":135.250184,"zip":"6230051"},{"town":"井倉町","koaza":"","lat":35.301936,"lng":135.241886,"zip":"6230054"},{"town":"今田町","koaza":"","lat":35.333602,"lng":135.211592,"zip":"6230233"},{"town":"上杉町","koaza":"","lat":35.364642,"lng":135.322861,"zip":"6230102"},{"town":"上野町","koaza":"","lat":35.290526,"lng":135.255912,"zip":"6230035"},{"town":"内久井町","koaza":"","lat":35.388962,"lng":135.270007,"zip":"6230341"},{"town":"梅迫町","koaza":"","lat":35.344654,"lng":135.318384,"zip":"6230103"},{"town":"上延町","koaza":"","lat":35.29493,"lng":135.233611,"zip":"6230043"},{"town":"駅前通り","koaza":"","lat":35.300631,"lng":135.252282,"zip":"6230000"},{"town":"老富町","koaza":"","lat":35.437894,"lng":135.47986,"zip":"6231134"},{"town":"大島町","koaza":"","lat":35.298132,"lng":135.225015,"zip":"6230046"},{"town":"大畠町","koaza":"","lat":35.333604,"lng":135.22644,"zip":"6230231"},{"town":"小貝町","koaza":"","lat":35.309809,"lng":135.202642,"zip":"6230225"},{"town":"岡町","koaza":"","lat":35.299019,"lng":135.238827,"zip":"6230042"},{"town":"岡安町","koaza":"","lat":35.335731,"lng":135.294322,"zip":"6230114"},{"town":"小畑町","koaza":"","lat":35.349571,"lng":135.189485,"zip":"6230236"},{"town":"於与岐町","koaza":"","lat":35.378037,"lng":135.358027,"zip":"6230101"},{"town":"小呂町","koaza":"","lat":35.339181,"lng":135.273724,"zip":"6230001"},{"town":"鍛治屋町","koaza":"","lat":35.34081,"lng":135.201065,"zip":"6230235"},{"town":"金河内町","koaza":"","lat":35.386697,"lng":135.248426,"zip":"6230342"},{"town":"釜輪町","koaza":"","lat":35.302311,"lng":135.356539,"zip":"6291254"},{"town":"上八田町","koaza":"","lat":35.356497,"lng":135.272664,"zip":"6230112"},{"town":"川糸町","koaza":"","lat":35.300382,"lng":135.263003,"zip":"6230012"},{"town":"上原町","koaza":"","lat":35.289133,"lng":135.32316,"zip":"6291271"},{"town":"私市町","koaza":"","lat":35.319612,"lng":135.19683,"zip":"6230226"},{"town":"栗町","koaza":"","lat":35.316381,"lng":135.22145,"zip":"6230222"},{"town":"黒谷町","koaza":"","lat":35.380878,"lng":135.316909,"zip":"6230108"},{"town":"小西町","koaza":"","lat":35.328903,"lng":135.200256,"zip":"6230234"},{"town":"故屋岡町","koaza":"","lat":35.395678,"lng":135.491269,"zip":"6231132"},{"town":"幸通り","koaza":"","lat":35.301389,"lng":135.250709,"zip":"6230000"},{"town":"桜が丘一丁目","koaza":"","lat":35.318537,"lng":135.275652,"zip":"6230008"},{"town":"桜が丘二丁目","koaza":"","lat":35.317303,"lng":135.278771,"zip":"6230008"},{"town":"桜が丘三丁目","koaza":"","lat":35.322607,"lng":135.282578,"zip":"6230008"},{"town":"里町","koaza":"","lat":35.312801,"lng":135.264069,"zip":"6230005"},{"town":"志賀郷町","koaza":"","lat":35.368623,"lng":135.239253,"zip":"6230343"},{"town":"下替地町","koaza":"","lat":35.279248,"lng":135.326152,"zip":"6291272"},{"town":"七百石町","koaza":"","lat":35.366725,"lng":135.290743,"zip":"6230111"},{"town":"篠田町","koaza":"","lat":35.372954,"lng":135.281609,"zip":"6230351"},{"town":"下原町","koaza":"","lat":35.280495,"lng":135.311727,"zip":"6291273"},{"town":"下八田町","koaza":"","lat":35.309017,"lng":135.28322,"zip":"6230116"},{"town":"城山町","koaza":"","lat":35.329069,"lng":135.270473,"zip":"6230003"},{"town":"神宮寺町","koaza":"","lat":35.297488,"lng":135.250321,"zip":"6230026"},{"town":"新宮町","koaza":"","lat":35.29657,"lng":135.259411,"zip":"6230022"},{"town":"新庄町","koaza":"","lat":35.347995,"lng":135.214703,"zip":"6230363"},{"town":"新町","koaza":"","lat":35.29616,"lng":135.258489,"zip":"6230023"},{"town":"高倉町","koaza":"","lat":35.331125,"lng":135.278063,"zip":"6230002"},{"town":"高槻町","koaza":"","lat":35.365854,"lng":135.308951,"zip":"6230106"},{"town":"高津町","koaza":"","lat":35.291446,"lng":135.211578,"zip":"6230045"},{"town":"鷹栖町","koaza":"","lat":35.299058,"lng":135.308143,"zip":"6291263"},{"town":"武吉町","koaza":"","lat":35.317543,"lng":135.359724,"zip":"6291253"},{"town":"多田町","koaza":"","lat":35.320705,"lng":135.269161,"zip":"6230004"},{"town":"忠町","koaza":"","lat":35.332331,"lng":135.384617,"zip":"6291251"},{"town":"舘町","koaza":"","lat":35.326797,"lng":135.219809,"zip":"6230232"},{"town":"田野町","koaza":"","lat":35.279429,"lng":135.253297,"zip":"6230034"},{"town":"田町","koaza":"","lat":35.29621,"lng":135.256652,"zip":"6230024"},{"town":"月見町","koaza":"","lat":35.296906,"lng":135.255058,"zip":"6230025"},{"town":"佃町","koaza":"","lat":35.324813,"lng":135.373343,"zip":"6291252"},{"town":"寺町","koaza":"","lat":35.285943,"lng":135.261185,"zip":"6230033"},{"town":"天神町","koaza":"","lat":35.301348,"lng":135.254917,"zip":"6230061"},{"town":"十倉志茂町","koaza":"","lat":35.324068,"lng":135.329203,"zip":"6291245"},{"town":"十倉中町","koaza":"","lat":35.330927,"lng":135.337934,"zip":"6291244"},{"town":"十倉名畑町","koaza":"","lat":35.346097,"lng":135.343943,"zip":"6291242"},{"town":"十倉向町","koaza":"","lat":35.323757,"lng":135.346049,"zip":"6291243"},{"town":"戸奈瀬町","koaza":"","lat":35.284635,"lng":135.340361,"zip":"6291255"},{"town":"とよさか町","koaza":"","lat":35.330209,"lng":135.287332,"zip":"6230117"},{"town":"豊里町","koaza":"","lat":35.319652,"lng":135.214142,"zip":"6230223"},{"town":"中筋町","koaza":"","lat":35.342881,"lng":135.290286,"zip":"6230113"},{"town":"中ノ町一丁目","koaza":"","lat":35.298659,"lng":135.255326,"zip":"6230064"},{"town":"中ノ町二丁目","koaza":"","lat":35.298927,"lng":135.253991,"zip":"6230064"},{"town":"中ノ町三丁目","koaza":"","lat":35.299256,"lng":135.252812,"zip":"6230064"},{"town":"中山町","koaza":"","lat":35.327579,"lng":135.304704,"zip":"6230105"},{"town":"並松町","koaza":"","lat":35.295366,"lng":135.26344,"zip":"6230037"},{"town":"西方町","koaza":"","lat":35.382345,"lng":135.216178,"zip":"6230344"},{"town":"西坂町","koaza":"","lat":35.36589,"lng":135.195814,"zip":"6230364"},{"town":"西新町","koaza":"","lat":35.30038,"lng":135.253187,"zip":"6230065"},{"town":"西原町","koaza":"","lat":35.294111,"lng":135.287883,"zip":"6291264"},{"town":"西町一丁目","koaza":"","lat":35.298588,"lng":135.256607,"zip":"6230016"},{"town":"西町二丁目","koaza":"","lat":35.299891,"lng":135.256728,"zip":"6230016"},{"town":"西町三丁目","koaza":"","lat":35.302601,"lng":135.255917,"zip":"6230016"},{"town":"仁和町","koaza":"","lat":35.379328,"lng":135.239304,"zip":"6230345"},{"town":"野田町","koaza":"","lat":35.280298,"lng":135.269923,"zip":"6230032"},{"town":"延町","koaza":"","lat":35.305962,"lng":135.236618,"zip":"6230041"},{"town":"橋上町","koaza":"","lat":35.311734,"lng":135.326108,"zip":"6291257"},{"town":"白道路町","koaza":"","lat":35.350161,"lng":135.250718,"zip":"6230361"},{"town":"東山町","koaza":"","lat":35.303699,"lng":135.312758,"zip":"6291262"},{"town":"広小路一丁目","koaza":"","lat":35.299281,"lng":135.255448,"zip":"6230063"},{"town":"広小路二丁目","koaza":"","lat":35.299599,"lng":135.254273,"zip":"6230063"},{"town":"広小路三丁目","koaza":"","lat":35.299755,"lng":135.253109,"zip":"6230063"},{"town":"広小路四丁目","koaza":"","lat":35.300163,"lng":135.251418,"zip":"6230063"},{"town":"広瀬町","koaza":"","lat":35.303148,"lng":135.326678,"zip":"6291256"},{"town":"渕垣町","koaza":"","lat":35.323181,"lng":135.294412,"zip":"6230115"},{"town":"別所町","koaza":"","lat":35.374465,"lng":135.26742,"zip":"6230353"},{"town":"坊口町","koaza":"","lat":35.390499,"lng":135.236334,"zip":"6230346"},{"town":"星原町","koaza":"","lat":35.336949,"lng":135.263961,"zip":"6230007"},{"town":"本宮町","koaza":"","lat":35.294766,"lng":135.261863,"zip":"6230036"},{"town":"本町一丁目","koaza":"","lat":35.297512,"lng":135.260471,"zip":"6230021"},{"town":"本町二丁目","koaza":"","lat":35.297652,"lng":135.258907,"zip":"6230021"},{"town":"本町三丁目","koaza":"","lat":35.297783,"lng":135.257234,"zip":"6230021"},{"town":"本町四丁目","koaza":"","lat":35.298012,"lng":135.255311,"zip":"6230021"},{"town":"本町五丁目","koaza":"","lat":35.298419,"lng":135.25387,"zip":"6230021"},{"town":"本町六丁目","koaza":"","lat":35.298705,"lng":135.252756,"zip":"6230021"},{"town":"本町七丁目","koaza":"","lat":35.299803,"lng":135.250989,"zip":"6230021"},{"town":"本町八丁目","koaza":"","lat":35.301086,"lng":135.249425,"zip":"6230021"},{"town":"味方町","koaza":"","lat":35.299643,"lng":135.275255,"zip":"6230031"},{"town":"光野町","koaza":"","lat":35.414517,"lng":135.46561,"zip":"6231133"},{"town":"宮代町","koaza":"","lat":35.300403,"lng":135.244793,"zip":"6230053"},{"town":"向田町","koaza":"","lat":35.363653,"lng":135.251234,"zip":"6230352"},{"town":"睦合町","koaza":"","lat":35.350707,"lng":135.38077,"zip":"6231121"},{"town":"睦寄町","koaza":"","lat":35.369547,"lng":135.453222,"zip":"6231131"},{"town":"物部町","koaza":"","lat":35.355659,"lng":135.223632,"zip":"6230362"},{"town":"八代町","koaza":"","lat":35.387011,"lng":135.294162,"zip":"6230107"},{"town":"安場町","koaza":"","lat":35.278852,"lng":135.237549,"zip":"6230044"},{"town":"八津合町","koaza":"","lat":35.363781,"lng":135.406677,"zip":"6231122"},{"town":"若竹町","koaza":"","lat":35.298697,"lng":135.259383,"zip":"6230014"},{"town":"若松町","koaza":"","lat":35.299962,"lng":135.258371,"zip":"6230015"},{"town":"和木町","koaza":"","lat":35.277205,"lng":135.292165,"zip":"6291274"},{"town":"私市町","koaza":"上一本木","lat":35.312082,"lng":135.18637,"zip":"6230226"},{"town":"私市町","koaza":"立石","lat":35.314721,"lng":135.188289,"zip":"6230226"},{"town":"私市町","koaza":"麦原","lat":35.31356,"lng":135.187783,"zip":"6230226"},{"town":"私市町","koaza":"ヌタリ","lat":35.312719,"lng":135.188222,"zip":"6230226"},{"town":"私市町","koaza":"長内","lat":35.31234,"lng":135.190021,"zip":"6230226"},{"town":"私市町","koaza":"新土畑","lat":35.312735,"lng":135.18923,"zip":"6230226"},{"town":"私市町","koaza":"西ノ段","lat":35.314864,"lng":135.190583,"zip":"6230226"},{"town":"私市町","koaza":"中村段","lat":35.314785,"lng":135.193464,"zip":"6230226"},{"town":"私市町","koaza":"大町","lat":35.313542,"lng":135.192066,"zip":"6230226"},{"town":"鍛治屋町","koaza":"寺内","lat":35.335096,"lng":135.19547,"zip":"6230235"},{"town":"私市町","koaza":"出溝","lat":35.312366,"lng":135.191223,"zip":"6230226"},{"town":"小西町","koaza":"湯須","lat":35.325864,"lng":135.198069,"zip":"6230234"},{"town":"私市町","koaza":"一盃水","lat":35.322511,"lng":135.193306,"zip":"6230226"},{"town":"私市町","koaza":"下堤ノ内","lat":35.311941,"lng":135.192116,"zip":"6230226"},{"town":"私市町","koaza":"山田","lat":35.319916,"lng":135.195634,"zip":"6230226"},{"town":"私市町","koaza":"上堤ノ内","lat":35.311945,"lng":135.193383,"zip":"6230226"},{"town":"私市町","koaza":"横堤下","lat":35.311727,"lng":135.1946,"zip":"6230226"},{"town":"私市町","koaza":"左古","lat":35.313145,"lng":135.194866,"zip":"6230226"},{"town":"小貝町","koaza":"所堺","lat":35.309842,"lng":135.197434,"zip":"6230225"},{"town":"小貝町","koaza":"新八","lat":35.310804,"lng":135.198853,"zip":"6230225"},{"town":"私市町","koaza":"田中賀","lat":35.313286,"lng":135.196182,"zip":"6230226"},{"town":"高津町","koaza":"下大橋","lat":35.303966,"lng":135.197682,"zip":"6230045"},{"town":"高津町","koaza":"六路屋","lat":35.306533,"lng":135.198695,"zip":"6230045"},{"town":"高津町","koaza":"大橋","lat":35.303627,"lng":135.198846,"zip":"6230045"},{"town":"高津町","koaza":"一ツ橋","lat":35.302816,"lng":135.199862,"zip":"6230045"},{"town":"高津町","koaza":"中工後","lat":35.305835,"lng":135.198649,"zip":"6230045"},{"town":"高津町","koaza":"下工後","lat":35.304002,"lng":135.198693,"zip":"6230045"},{"town":"私市町","koaza":"嘉門田","lat":35.313936,"lng":135.199065,"zip":"6230226"},{"town":"私市町","koaza":"上野","lat":35.315369,"lng":135.200964,"zip":"6230226"},{"town":"小西町","koaza":"上前田","lat":35.330487,"lng":135.19923,"zip":"6230234"},{"town":"小貝町","koaza":"桜木","lat":35.310262,"lng":135.201155,"zip":"6230225"},{"town":"高津町","koaza":"芝原添","lat":35.306264,"lng":135.199718,"zip":"6230045"},{"town":"高津町","koaza":"鍬元","lat":35.305751,"lng":135.19948,"zip":"6230045"},{"town":"小貝町","koaza":"奥山","lat":35.311492,"lng":135.200326,"zip":"6230225"},{"town":"高津町","koaza":"横枕","lat":35.305615,"lng":135.200556,"zip":"6230045"},{"town":"高津町","koaza":"長通","lat":35.30223,"lng":135.200783,"zip":"6230045"},{"town":"高津町","koaza":"谷口","lat":35.298931,"lng":135.20965,"zip":"6230045"},{"town":"高津町","koaza":"松ヶ崎","lat":35.298924,"lng":135.201423,"zip":"6230045"},{"town":"小貝町","koaza":"西山","lat":35.312428,"lng":135.201996,"zip":"6230225"},{"town":"小貝町","koaza":"西田","lat":35.31101,"lng":135.202747,"zip":"6230225"},{"town":"石原町","koaza":"長畑","lat":35.316082,"lng":135.208657,"zip":"6230224"},{"town":"高津町","koaza":"長瀬","lat":35.304113,"lng":135.202772,"zip":"6230045"},{"town":"高津町","koaza":"西ノ開市","lat":35.30275,"lng":135.202383,"zip":"6230045"},{"town":"高津町","koaza":"宇洲","lat":35.303414,"lng":135.203175,"zip":"6230045"},{"town":"高津町","koaza":"二反田","lat":35.302767,"lng":135.201861,"zip":"6230045"},{"town":"高津町","koaza":"北川","lat":35.302305,"lng":135.204771,"zip":"6230045"},{"town":"小貝町","koaza":"岼山","lat":35.312445,"lng":135.204465,"zip":"6230225"},{"town":"小西町","koaza":"落合","lat":35.331109,"lng":135.205197,"zip":"6230234"},{"town":"高津町","koaza":"三反田","lat":35.30434,"lng":135.204737,"zip":"6230045"},{"town":"小貝町","koaza":"岼","lat":35.311178,"lng":135.20734,"zip":"6230225"},{"town":"石原町","koaza":"野々下","lat":35.316043,"lng":135.205106,"zip":"6230224"},{"town":"小西町","koaza":"上内田","lat":35.328388,"lng":135.205993,"zip":"6230234"},{"town":"小貝町","koaza":"樋ノ口","lat":35.310475,"lng":135.204643,"zip":"6230225"},{"town":"高津町","koaza":"前地","lat":35.298549,"lng":135.206526,"zip":"6230045"},{"town":"高津町","koaza":"花ノ町","lat":35.299398,"lng":135.205691,"zip":"6230045"},{"town":"高津町","koaza":"竹ヶ下","lat":35.300282,"lng":135.206064,"zip":"6230045"},{"town":"高津町","koaza":"堂ノ本","lat":35.301525,"lng":135.205568,"zip":"6230045"},{"town":"今田町","koaza":"立石","lat":35.332065,"lng":135.210391,"zip":"6230233"},{"town":"大島町","koaza":"楮ノ木","lat":35.308101,"lng":135.210233,"zip":"6230046"},{"town":"高津町","koaza":"塚本","lat":35.299052,"lng":135.205595,"zip":"6230045"},{"town":"小貝町","koaza":"岼上通","lat":35.3113,"lng":135.206398,"zip":"6230225"},{"town":"高津町","koaza":"仲溝","lat":35.300737,"lng":135.205806,"zip":"6230045"},{"town":"石原町","koaza":"山根","lat":35.316859,"lng":135.206898,"zip":"6230224"},{"town":"高津町","koaza":"古屋敷","lat":35.302334,"lng":135.206242,"zip":"6230045"},{"town":"高津町","koaza":"久雲寺","lat":35.301054,"lng":135.206618,"zip":"6230045"},{"town":"高津町","koaza":"高土井","lat":35.303945,"lng":135.207365,"zip":"6230045"},{"town":"高津町","koaza":"谷尻","lat":35.302812,"lng":135.207123,"zip":"6230045"},{"town":"小西町","koaza":"馬場下","lat":35.326785,"lng":135.207293,"zip":"6230234"},{"town":"高津町","koaza":"坂本","lat":35.300278,"lng":135.207809,"zip":"6230045"},{"town":"小西町","koaza":"内田","lat":35.329527,"lng":135.207469,"zip":"6230234"},{"town":"高津町","koaza":"荒倉","lat":35.301065,"lng":135.207874,"zip":"6230045"},{"town":"高津町","koaza":"段","lat":35.298709,"lng":135.208416,"zip":"6230045"},{"town":"小西町","koaza":"二間瀬","lat":35.326568,"lng":135.208475,"zip":"6230234"},{"town":"高津町","koaza":"市場","lat":35.301365,"lng":135.208721,"zip":"6230045"},{"town":"高津町","koaza":"西地","lat":35.302729,"lng":135.208911,"zip":"6230045"},{"town":"高津町","koaza":"西ノ坪","lat":35.304253,"lng":135.211051,"zip":"6230045"},{"town":"高津町","koaza":"市ノ坪","lat":35.304788,"lng":135.209503,"zip":"6230045"},{"town":"高津町","koaza":"上地","lat":35.30227,"lng":135.209771,"zip":"6230045"},{"town":"舘町","koaza":"木綿田","lat":35.329693,"lng":135.211047,"zip":"6230232"},{"town":"高津町","koaza":"藤ノ木","lat":35.304274,"lng":135.211905,"zip":"6230045"},{"town":"今田町","koaza":"長源名","lat":35.332374,"lng":135.211785,"zip":"6230233"},{"town":"豊里町","koaza":"小崎新田","lat":35.314569,"lng":135.211565,"zip":"6230223"},{"town":"物部町","koaza":"高倉前","lat":35.365522,"lng":135.220314,"zip":"6230362"},{"town":"栗町","koaza":"野原","lat":35.308738,"lng":135.227867,"zip":"6230222"},{"town":"豊里町","koaza":"三宅","lat":35.320846,"lng":135.212317,"zip":"6230223"},{"town":"栗町","koaza":"小崎","lat":35.312272,"lng":135.211863,"zip":"6230222"},{"town":"栗町","koaza":"早田","lat":35.312971,"lng":135.213145,"zip":"6230222"},{"town":"石原町","koaza":"長砂浦","lat":35.31833,"lng":135.212089,"zip":"6230224"},{"town":"舘町","koaza":"絵熊","lat":35.325841,"lng":135.213383,"zip":"6230232"},{"town":"豊里町","koaza":"長砂","lat":35.318759,"lng":135.214669,"zip":"6230223"},{"town":"舘町","koaza":"下舘","lat":35.3268,"lng":135.213876,"zip":"6230232"},{"town":"舘町","koaza":"岸ノ下","lat":35.326455,"lng":135.212649,"zip":"6230232"},{"town":"今田町","koaza":"上開","lat":35.335986,"lng":135.213194,"zip":"6230233"},{"town":"今田町","koaza":"下開","lat":35.335569,"lng":135.21462,"zip":"6230233"},{"town":"栗町","koaza":"竹ノ下","lat":35.31556,"lng":135.213024,"zip":"6230222"},{"town":"栗町","koaza":"丈府","lat":35.311535,"lng":135.21315,"zip":"6230222"},{"town":"豊里町","koaza":"福垣","lat":35.320841,"lng":135.215794,"zip":"6230223"},{"town":"高津町","koaza":"楮ノ木","lat":35.304931,"lng":135.213979,"zip":"6230045"},{"town":"舘町","koaza":"シボラ","lat":35.329019,"lng":135.215029,"zip":"6230232"},{"town":"栗町","koaza":"行志","lat":35.315649,"lng":135.215519,"zip":"6230222"},{"town":"栗町","koaza":"佃","lat":35.312404,"lng":135.216892,"zip":"6230222"},{"town":"舘町","koaza":"晩留","lat":35.333232,"lng":135.21546,"zip":"6230232"},{"town":"高津町","koaza":"小山ノ下","lat":35.303922,"lng":135.214289,"zip":"6230045"},{"town":"大畠町","koaza":"竹ヶ谷","lat":35.336488,"lng":135.214484,"zip":"6230231"},{"town":"高津町","koaza":"天田井","lat":35.304789,"lng":135.21585,"zip":"6230045"},{"town":"栗町","koaza":"桶底","lat":35.316981,"lng":135.218554,"zip":"6230222"},{"town":"栗町","koaza":"後田","lat":35.317462,"lng":135.216756,"zip":"6230222"},{"town":"栗町","koaza":"野佃","lat":35.311317,"lng":135.218065,"zip":"6230222"},{"town":"栗町","koaza":"川原田","lat":35.310296,"lng":135.217458,"zip":"6230222"},{"town":"舘町","koaza":"モトレ","lat":35.330713,"lng":135.216264,"zip":"6230232"},{"town":"舘町","koaza":"高谷","lat":35.332279,"lng":135.216929,"zip":"6230232"},{"town":"物部町","koaza":"北前田","lat":35.357034,"lng":135.216598,"zip":"6230362"},{"town":"新庄町","koaza":"八田古","lat":35.341184,"lng":135.215837,"zip":"6230363"},{"town":"大島町","koaza":"岡ノ段","lat":35.302429,"lng":135.219969,"zip":"6230046"},{"town":"大島町","koaza":"南天田井","lat":35.304839,"lng":135.220314,"zip":"6230046"},{"town":"大島町","koaza":"岡ノ下","lat":35.305118,"lng":135.217551,"zip":"6230046"},{"town":"栗町","koaza":"平田","lat":35.316398,"lng":135.217387,"zip":"6230222"},{"town":"栗町","koaza":"南ユルズ","lat":35.313413,"lng":135.218206,"zip":"6230222"},{"town":"栗町","koaza":"北ユルズ","lat":35.313969,"lng":135.219302,"zip":"6230222"},{"town":"栗町","koaza":"小東","lat":35.317724,"lng":135.221089,"zip":"6230222"},{"town":"栗町","koaza":"大野","lat":35.320422,"lng":135.224231,"zip":"6230222"},{"town":"栗町","koaza":"沢","lat":35.319016,"lng":135.221616,"zip":"6230222"},{"town":"栗町","koaza":"タコラ田","lat":35.316188,"lng":135.22008,"zip":"6230222"},{"town":"大島町","koaza":"湯屋","lat":35.296572,"lng":135.224136,"zip":"6230046"},{"town":"栗町","koaza":"花貝","lat":35.314947,"lng":135.220052,"zip":"6230222"},{"town":"栗町","koaza":"下沼上","lat":35.311075,"lng":135.219577,"zip":"6230222"},{"town":"物部町","koaza":"南車田","lat":35.350797,"lng":135.220256,"zip":"6230362"},{"town":"栗町","koaza":"貝尻","lat":35.313426,"lng":135.220332,"zip":"6230222"},{"town":"舘町","koaza":"岩口","lat":35.32478,"lng":135.221963,"zip":"6230232"},{"town":"栗町","koaza":"内沼","lat":35.313037,"lng":135.222248,"zip":"6230222"},{"town":"物部町","koaza":"濁渕","lat":35.354558,"lng":135.220877,"zip":"6230362"},{"town":"栗町","koaza":"丁畑","lat":35.310612,"lng":135.222517,"zip":"6230222"},{"town":"栗町","koaza":"ウケ川","lat":35.310539,"lng":135.221399,"zip":"6230222"},{"town":"大島町","koaza":"坂尻","lat":35.303915,"lng":135.221849,"zip":"6230046"},{"town":"大島町","koaza":"荒堀","lat":35.304694,"lng":135.221666,"zip":"6230046"},{"town":"大島町","koaza":"畠田","lat":35.304578,"lng":135.22282,"zip":"6230046"},{"town":"栗町","koaza":"榎原","lat":35.309061,"lng":135.223341,"zip":"6230222"},{"town":"栗町","koaza":"中島","lat":35.311883,"lng":135.223422,"zip":"6230222"},{"town":"舘町","koaza":"楞厳寺","lat":35.32375,"lng":135.223579,"zip":"6230232"},{"town":"栗町","koaza":"土居ノ内","lat":35.315179,"lng":135.224621,"zip":"6230222"},{"town":"舘町","koaza":"畑山","lat":35.326189,"lng":135.22674,"zip":"6230232"},{"town":"栗町","koaza":"イノババ","lat":35.308728,"lng":135.224874,"zip":"6230222"},{"town":"大島町","koaza":"二反目","lat":35.304923,"lng":135.225008,"zip":"6230046"},{"town":"大畠町","koaza":"東谷田","lat":35.336369,"lng":135.227214,"zip":"6230231"},{"town":"大島町","koaza":"梶長","lat":35.303187,"lng":135.223988,"zip":"6230046"},{"town":"栗町","koaza":"相定","lat":35.309382,"lng":135.225443,"zip":"6230222"},{"town":"栗町","koaza":"北ノ前","lat":35.314746,"lng":135.226065,"zip":"6230222"},{"town":"栗町","koaza":"上八田","lat":35.310927,"lng":135.224873,"zip":"6230222"},{"town":"栗町","koaza":"市庭","lat":35.313358,"lng":135.225911,"zip":"6230222"},{"town":"大島町","koaza":"大江","lat":35.303562,"lng":135.225915,"zip":"6230046"},{"town":"栗町","koaza":"山田","lat":35.319861,"lng":135.225377,"zip":"6230222"},{"town":"大畠町","koaza":"西谷田","lat":35.333785,"lng":135.227798,"zip":"6230231"},{"town":"栗町","koaza":"大谷","lat":35.320642,"lng":135.226779,"zip":"6230222"},{"town":"大島町","koaza":"道屋","lat":35.301954,"lng":135.226624,"zip":"6230046"},{"town":"栗町","koaza":"ガラ","lat":35.309481,"lng":135.226657,"zip":"6230222"},{"town":"栗町","koaza":"上村","lat":35.314819,"lng":135.22827,"zip":"6230222"},{"town":"栗町","koaza":"間島","lat":35.312894,"lng":135.227314,"zip":"6230222"},{"town":"大島町","koaza":"ヒナサギ","lat":35.300865,"lng":135.227646,"zip":"6230046"},{"town":"大島町","koaza":"市場","lat":35.304225,"lng":135.227353,"zip":"6230046"},{"town":"大島町","koaza":"中地","lat":35.303394,"lng":135.227433,"zip":"6230046"},{"town":"大畠町","koaza":"岡ノ段","lat":35.331011,"lng":135.230099,"zip":"6230231"},{"town":"大島町","koaza":"穴見","lat":35.302109,"lng":135.227927,"zip":"6230046"},{"town":"大畠町","koaza":"一ノ丸","lat":35.334617,"lng":135.228151,"zip":"6230231"},{"town":"大島町","koaza":"岩鼻","lat":35.300508,"lng":135.229529,"zip":"6230046"},{"town":"大島町","koaza":"前田","lat":35.303289,"lng":135.228307,"zip":"6230046"},{"town":"栗町","koaza":"長瀬","lat":35.310601,"lng":135.229069,"zip":"6230222"},{"town":"大島町","koaza":"内山田","lat":35.301559,"lng":135.230249,"zip":"6230046"},{"town":"大島町","koaza":"桶井","lat":35.305318,"lng":135.22931,"zip":"6230046"},{"town":"上延町","koaza":"新庄","lat":35.299624,"lng":135.233287,"zip":"6230043"},{"town":"大島町","koaza":"外山田","lat":35.302269,"lng":135.229033,"zip":"6230046"},{"town":"安場町","koaza":"西ノ前","lat":35.277777,"lng":135.232108,"zip":"6230044"},{"town":"上延町","koaza":"堂ノ奥","lat":35.295413,"lng":135.22983,"zip":"6230043"},{"town":"位田町","koaza":"桧前","lat":35.321431,"lng":135.232111,"zip":"6230221"},{"town":"安場町","koaza":"後ヶ市","lat":35.29061,"lng":135.23815,"zip":"6230044"},{"town":"位田町","koaza":"岼","lat":35.3154,"lng":135.233754,"zip":"6230221"},{"town":"大島町","koaza":"二反田","lat":35.303352,"lng":135.230742,"zip":"6230046"},{"town":"大島町","koaza":"南和田","lat":35.30437,"lng":135.230691,"zip":"6230046"},{"town":"大島町","koaza":"北和田","lat":35.305231,"lng":135.230674,"zip":"6230046"},{"town":"上延町","koaza":"宮ノ谷","lat":35.294898,"lng":135.231634,"zip":"6230043"},{"town":"大畠町","koaza":"寺尾","lat":35.335639,"lng":135.231216,"zip":"6230231"},{"town":"上延町","koaza":"菅","lat":35.295734,"lng":135.233746,"zip":"6230043"},{"town":"大島町","koaza":"柳","lat":35.305615,"lng":135.231748,"zip":"6230046"},{"town":"位田町","koaza":"馬渕","lat":35.329936,"lng":135.233405,"zip":"6230221"},{"town":"位田町","koaza":"込山","lat":35.333876,"lng":135.233812,"zip":"6230221"},{"town":"安場町","koaza":"ハゲ谷","lat":35.273411,"lng":135.237102,"zip":"6230044"},{"town":"大島町","koaza":"松戸","lat":35.304301,"lng":135.232214,"zip":"6230046"},{"town":"大島町","koaza":"沓田","lat":35.302711,"lng":135.233534,"zip":"6230046"},{"town":"大島町","koaza":"魚梁ノ上","lat":35.306247,"lng":135.233632,"zip":"6230046"},{"town":"大島町","koaza":"大籔","lat":35.301184,"lng":135.232281,"zip":"6230046"},{"town":"大島町","koaza":"船田","lat":35.303764,"lng":135.232663,"zip":"6230046"},{"town":"位田町","koaza":"中野台","lat":35.313487,"lng":135.23377,"zip":"6230221"},{"town":"位田町","koaza":"北野台","lat":35.313838,"lng":135.23377,"zip":"6230221"},{"town":"延町","koaza":"柳","lat":35.303742,"lng":135.234562,"zip":"6230041"},{"town":"延町","koaza":"知連田","lat":35.306828,"lng":135.233796,"zip":"6230041"},{"town":"延町","koaza":"船田","lat":35.303693,"lng":135.233596,"zip":"6230041"},{"town":"上延町","koaza":"岩鼻","lat":35.301085,"lng":135.233567,"zip":"6230043"},{"town":"延町","koaza":"高木","lat":35.304872,"lng":135.234094,"zip":"6230041"},{"town":"安場町","koaza":"造免","lat":35.295376,"lng":135.234607,"zip":"6230044"},{"town":"上延町","koaza":"八反","lat":35.300685,"lng":135.234689,"zip":"6230043"},{"town":"上延町","koaza":"上雑面","lat":35.29592,"lng":135.234328,"zip":"6230043"},{"town":"上延町","koaza":"下雑面","lat":35.29782,"lng":135.234003,"zip":"6230043"},{"town":"位田町","koaza":"瀬戸","lat":35.31496,"lng":135.235815,"zip":"6230221"},{"town":"位田町","koaza":"堂ノ前","lat":35.312072,"lng":135.236466,"zip":"6230221"},{"town":"延町","koaza":"鳥居","lat":35.30296,"lng":135.234865,"zip":"6230041"},{"town":"位田町","koaza":"岡倉","lat":35.330784,"lng":135.236269,"zip":"6230221"},{"town":"延町","koaza":"堂浦","lat":35.306081,"lng":135.235912,"zip":"6230041"},{"town":"位田町","koaza":"中ノ丁","lat":35.312654,"lng":135.235712,"zip":"6230221"},{"town":"安場町","koaza":"稲田","lat":35.287686,"lng":135.236287,"zip":"6230044"},{"town":"上延町","koaza":"中ノ貝","lat":35.294571,"lng":135.236385,"zip":"6230043"},{"town":"位田町","koaza":"寺町","lat":35.313639,"lng":135.236011,"zip":"6230221"},{"town":"延町","koaza":"弓場","lat":35.304343,"lng":135.23669,"zip":"6230041"},{"town":"上延町","koaza":"前田","lat":35.298651,"lng":135.236132,"zip":"6230043"},{"town":"岡町","koaza":"弓場","lat":35.30319,"lng":135.236059,"zip":"6230042"},{"town":"岡町","koaza":"鳥居","lat":35.300878,"lng":135.23662,"zip":"6230042"},{"town":"上延町","koaza":"旦寺","lat":35.296268,"lng":135.237122,"zip":"6230043"},{"town":"上延町","koaza":"九反","lat":35.299883,"lng":135.23602,"zip":"6230043"},{"town":"安場町","koaza":"鳴竹","lat":35.283788,"lng":135.237167,"zip":"6230044"},{"town":"上延町","koaza":"蛭子","lat":35.296584,"lng":135.238203,"zip":"6230043"},{"town":"位田町","koaza":"宮ノ越","lat":35.314178,"lng":135.237205,"zip":"6230221"},{"town":"上延町","koaza":"沢","lat":35.29797,"lng":135.236932,"zip":"6230043"},{"town":"安場町","koaza":"打越","lat":35.293038,"lng":135.236768,"zip":"6230044"},{"town":"岡町","koaza":"中沢","lat":35.299988,"lng":135.239023,"zip":"6230042"},{"town":"延町","koaza":"北在家","lat":35.307077,"lng":135.238231,"zip":"6230041"},{"town":"位田町","koaza":"野本","lat":35.312406,"lng":135.239241,"zip":"6230221"},{"town":"岡町","koaza":"西角","lat":35.302984,"lng":135.2379,"zip":"6230042"},{"town":"延町","koaza":"南在家","lat":35.306031,"lng":135.238563,"zip":"6230041"},{"town":"安場町","koaza":"西ノ段","lat":35.276111,"lng":135.238132,"zip":"6230044"},{"town":"安場町","koaza":"姥ヶ前","lat":35.279677,"lng":135.238796,"zip":"6230044"},{"town":"岡町","koaza":"長田","lat":35.301913,"lng":135.238299,"zip":"6230042"},{"town":"安場町","koaza":"口吉見","lat":35.290504,"lng":135.239979,"zip":"6230044"},{"town":"位田町","koaza":"戸石","lat":35.324258,"lng":135.239386,"zip":"6230221"},{"town":"岡町","koaza":"山田","lat":35.298106,"lng":135.238478,"zip":"6230042"},{"town":"延町","koaza":"野上","lat":35.308307,"lng":135.238979,"zip":"6230041"},{"town":"安場町","koaza":"七斗代","lat":35.276833,"lng":135.239114,"zip":"6230044"},{"town":"安場町","koaza":"平尾","lat":35.289286,"lng":135.238266,"zip":"6230044"},{"town":"安場町","koaza":"堂ノ下","lat":35.282356,"lng":135.238659,"zip":"6230044"},{"town":"延町","koaza":"蓮花","lat":35.30519,"lng":135.238592,"zip":"6230041"},{"town":"安場町","koaza":"家下","lat":35.287977,"lng":135.238256,"zip":"6230044"},{"town":"岡町","koaza":"下山","lat":35.297426,"lng":135.23977,"zip":"6230042"},{"town":"位田町","koaza":"臼谷","lat":35.321141,"lng":135.240685,"zip":"6230221"},{"town":"安場町","koaza":"東ノ段","lat":35.278222,"lng":135.239289,"zip":"6230044"},{"town":"安場町","koaza":"宮ノ越","lat":35.282095,"lng":135.239708,"zip":"6230044"},{"town":"岡町","koaza":"斗代","lat":35.301741,"lng":135.24047,"zip":"6230042"},{"town":"岡町","koaza":"庭苅","lat":35.305251,"lng":135.239679,"zip":"6230042"},{"town":"井倉町","koaza":"長田","lat":35.303319,"lng":135.24214,"zip":"6230054"},{"town":"延町","koaza":"庭苅","lat":35.306083,"lng":135.239621,"zip":"6230041"},{"town":"岡町","koaza":"堺","lat":35.300121,"lng":135.240286,"zip":"6230042"},{"town":"岡町","koaza":"野上","lat":35.308171,"lng":135.240613,"zip":"6230042"},{"town":"志賀郷町","koaza":"北町","lat":35.368414,"lng":135.239892,"zip":"6230343"},{"town":"岡町","koaza":"堂ノ前","lat":35.302619,"lng":135.240165,"zip":"6230042"},{"town":"位田町","koaza":"蓮花寺","lat":35.313592,"lng":135.241596,"zip":"6230221"},{"town":"岡町","koaza":"四ッ尾下","lat":35.298956,"lng":135.241542,"zip":"6230042"},{"town":"岡町","koaza":"小丈子","lat":35.304888,"lng":135.240675,"zip":"6230042"},{"town":"志賀郷町","koaza":"丁田","lat":35.37091,"lng":135.241797,"zip":"6230343"},{"town":"岡町","koaza":"舘ノ内","lat":35.302809,"lng":135.241082,"zip":"6230042"},{"town":"田野町","koaza":"田野山","lat":35.279087,"lng":135.257868,"zip":"6230034"},{"town":"位田町","koaza":"浦壁","lat":35.314565,"lng":135.250949,"zip":"6230221"},{"town":"位田町","koaza":"畑尻","lat":35.325058,"lng":135.24168,"zip":"6230221"},{"town":"宮代町","koaza":"土代","lat":35.301716,"lng":135.242513,"zip":"6230053"},{"town":"井倉町","koaza":"古川","lat":35.307077,"lng":135.24214,"zip":"6230054"},{"town":"井倉町","koaza":"下恵福田","lat":35.305963,"lng":135.241984,"zip":"6230054"},{"town":"位田町","koaza":"細谷","lat":35.32638,"lng":135.243271,"zip":"6230221"},{"town":"井倉町","koaza":"小庄司","lat":35.305128,"lng":135.242013,"zip":"6230054"},{"town":"井倉町","koaza":"下有行","lat":35.304461,"lng":135.242147,"zip":"6230054"},{"town":"位田町","koaza":"赤田","lat":35.327975,"lng":135.246107,"zip":"6230221"},{"town":"位田町","koaza":"市場","lat":35.313164,"lng":135.244532,"zip":"6230221"},{"town":"宮代町","koaza":"宮ノ下","lat":35.301297,"lng":135.243652,"zip":"6230053"},{"town":"宮代町","koaza":"門ノ前","lat":35.302486,"lng":135.243888,"zip":"6230053"},{"town":"井倉町","koaza":"上有行","lat":35.304424,"lng":135.243326,"zip":"6230054"},{"town":"井倉町","koaza":"杉ノ木","lat":35.305014,"lng":135.243106,"zip":"6230054"},{"town":"井倉町","koaza":"西門","lat":35.305411,"lng":135.243109,"zip":"6230054"},{"town":"井倉町","koaza":"高芝原","lat":35.307944,"lng":135.243343,"zip":"6230054"},{"town":"井倉町","koaza":"上恵福田","lat":35.305796,"lng":135.243387,"zip":"6230054"},{"town":"田野町","koaza":"笹ヶ谷","lat":35.289062,"lng":135.246609,"zip":"6230034"},{"town":"宮代町","koaza":"明知","lat":35.300257,"lng":135.244545,"zip":"6230053"},{"town":"井倉町","koaza":"仲屋敷","lat":35.303141,"lng":135.244668,"zip":"6230054"},{"town":"神宮寺町","koaza":"加迫","lat":35.300368,"lng":135.247108,"zip":"6230026"},{"town":"井倉町","koaza":"北三十代","lat":35.307576,"lng":135.244574,"zip":"6230054"},{"town":"井倉町","koaza":"梅ヶ畑","lat":35.30381,"lng":135.244396,"zip":"6230054"},{"town":"宮代町","koaza":"前田","lat":35.302318,"lng":135.246096,"zip":"6230053"},{"town":"田野町","koaza":"赤坂","lat":35.28393,"lng":135.249762,"zip":"6230034"},{"town":"井倉町","koaza":"堀","lat":35.305537,"lng":135.246011,"zip":"6230054"},{"town":"井倉町","koaza":"舘","lat":35.304198,"lng":135.245334,"zip":"6230054"},{"town":"井倉町","koaza":"溝渕","lat":35.303411,"lng":135.246152,"zip":"6230054"},{"town":"井倉町","koaza":"家下","lat":35.306627,"lng":135.245859,"zip":"6230054"},{"town":"田野町","koaza":"風久呂","lat":35.28939,"lng":135.248867,"zip":"6230034"},{"town":"神宮寺町","koaza":"蟹田","lat":35.297466,"lng":135.249545,"zip":"6230026"},{"town":"位田町","koaza":"田岸","lat":35.313938,"lng":135.248244,"zip":"6230221"},{"town":"井倉町","koaza":"南大町","lat":35.307844,"lng":135.247516,"zip":"6230054"},{"town":"位田町","koaza":"石原","lat":35.309433,"lng":135.247604,"zip":"6230221"},{"town":"井倉町","koaza":"大将軍","lat":35.305432,"lng":135.246925,"zip":"6230054"},{"town":"井倉町","koaza":"土居下","lat":35.306794,"lng":135.24707,"zip":"6230054"},{"town":"田野町","koaza":"寄合","lat":35.286257,"lng":135.2481,"zip":"6230034"},{"town":"井倉町","koaza":"樋ノ元","lat":35.303836,"lng":135.246809,"zip":"6230054"},{"town":"井倉町","koaza":"北大町","lat":35.308869,"lng":135.247383,"zip":"6230054"},{"town":"位田町","koaza":"岩井","lat":35.315276,"lng":135.253065,"zip":"6230221"},{"town":"有岡町","koaza":"御領","lat":35.322952,"lng":135.255925,"zip":"6230006"},{"town":"井倉新町","koaza":"宮坂","lat":35.302502,"lng":135.248218,"zip":"6230051"},{"town":"井倉新町","koaza":"南大橋","lat":35.303565,"lng":135.248291,"zip":"6230051"},{"town":"宮代町","koaza":"宮代","lat":35.301405,"lng":135.248284,"zip":"6230053"},{"town":"井倉町","koaza":"東","lat":35.305009,"lng":135.248212,"zip":"6230054"},{"town":"井倉町","koaza":"日渡り","lat":35.306768,"lng":135.24833,"zip":"6230054"},{"town":"井倉町","koaza":"西田","lat":35.307721,"lng":135.248478,"zip":"6230054"},{"town":"井倉新町","koaza":"中畠","lat":35.308717,"lng":135.250799,"zip":"6230051"},{"town":"神宮寺町","koaza":"大迫","lat":35.296989,"lng":135.250508,"zip":"6230026"},{"town":"神宮寺町","koaza":"筋違畑","lat":35.299391,"lng":135.249203,"zip":"6230026"},{"town":"井倉新町","koaza":"北大橋","lat":35.304876,"lng":135.250033,"zip":"6230051"},{"town":"井倉新町","koaza":"土ノ上","lat":35.305556,"lng":135.251127,"zip":"6230051"},{"town":"井倉新町","koaza":"横縄手","lat":35.30327,"lng":135.250386,"zip":"6230051"},{"town":"井倉新町","koaza":"上大橋","lat":35.303011,"lng":135.249528,"zip":"6230051"},{"town":"井倉新町","koaza":"譲り葉","lat":35.307638,"lng":135.249591,"zip":"6230051"},{"town":"神宮寺町","koaza":"渡り畔","lat":35.299872,"lng":135.249839,"zip":"6230026"},{"town":"上野町","koaza":"小倉","lat":35.288747,"lng":135.250296,"zip":"6230035"},{"town":"井倉新町","koaza":"石風呂","lat":35.304039,"lng":135.251023,"zip":"6230051"},{"town":"田野町","koaza":"岡倉","lat":35.283525,"lng":135.251343,"zip":"6230034"},{"town":"神宮寺町","koaza":"西谷","lat":35.298933,"lng":135.250811,"zip":"6230026"},{"town":"駅前通り","koaza":"東石ヶ坪","lat":35.302387,"lng":135.251344,"zip":"6230000"},{"town":"神宮寺町","koaza":"東善坊","lat":35.296999,"lng":135.251271,"zip":"6230026"},{"town":"有岡町","koaza":"李ヶ坪","lat":35.334047,"lng":135.253097,"zip":"6230006"},{"town":"田野町","koaza":"愛宕","lat":35.2841,"lng":135.253063,"zip":"6230034"},{"town":"幸通り","koaza":"西馬場","lat":35.300553,"lng":135.25101,"zip":"6230000"},{"town":"神宮寺町","koaza":"東谷","lat":35.298301,"lng":135.251509,"zip":"6230026"},{"town":"神宮寺町","koaza":"山ノ神","lat":35.296643,"lng":135.251907,"zip":"6230026"},{"town":"有岡町","koaza":"岩欠","lat":35.316891,"lng":135.251945,"zip":"6230006"},{"town":"上野町","koaza":"五反田","lat":35.287713,"lng":135.254096,"zip":"6230035"},{"town":"神宮寺町","koaza":"藤山","lat":35.294956,"lng":135.253507,"zip":"6230026"},{"town":"井倉新町","koaza":"瓜田","lat":35.303692,"lng":135.252151,"zip":"6230051"},{"town":"青野町","koaza":"鵜ノ目","lat":35.305743,"lng":135.251615,"zip":"6230011"},{"town":"青野町","koaza":"塚下","lat":35.307847,"lng":135.252423,"zip":"6230011"},{"town":"青野町","koaza":"大塚","lat":35.307412,"lng":135.253729,"zip":"6230011"},{"town":"青野町","koaza":"走り下","lat":35.308591,"lng":135.252885,"zip":"6230011"},{"town":"上野町","koaza":"上池田","lat":35.289445,"lng":135.256929,"zip":"6230035"},{"town":"上野町","koaza":"藤山","lat":35.292366,"lng":135.256209,"zip":"6230035"},{"town":"神宮寺町","koaza":"古屋敷","lat":35.297263,"lng":135.252509,"zip":"6230026"},{"town":"神宮寺町","koaza":"重代","lat":35.297768,"lng":135.253637,"zip":"6230026"},{"town":"西新町","koaza":"西馬場","lat":35.300384,"lng":135.252711,"zip":"6230065"},{"town":"青野町","koaza":"西馬場下","lat":35.30281,"lng":135.253049,"zip":"6230011"},{"town":"青野町","koaza":"六反目","lat":35.304405,"lng":135.253835,"zip":"6230011"},{"town":"神宮寺町","koaza":"上藤山","lat":35.295809,"lng":135.254953,"zip":"6230026"},{"town":"青野町","koaza":"東鵜ノ目","lat":35.305734,"lng":135.253838,"zip":"6230011"},{"town":"青野町","koaza":"東馬場下","lat":35.302376,"lng":135.254271,"zip":"6230011"},{"town":"田野町","koaza":"才ヶ首","lat":35.286956,"lng":135.256053,"zip":"6230034"},{"town":"天神町","koaza":"西綾部","lat":35.300685,"lng":135.254626,"zip":"6230061"},{"town":"神宮寺町","koaza":"下藤山","lat":35.297091,"lng":135.254278,"zip":"6230026"},{"town":"有岡町","koaza":"柳原","lat":35.329113,"lng":135.258976,"zip":"6230006"},{"town":"青野町","koaza":"上深ヶ","lat":35.307704,"lng":135.25706,"zip":"6230011"},{"town":"月見町","koaza":"上正屋","lat":35.297108,"lng":135.255375,"zip":"6230025"},{"town":"有岡町","koaza":"遠坂","lat":35.333319,"lng":135.259864,"zip":"6230006"},{"town":"西町三丁目","koaza":"北大坪","lat":35.303504,"lng":135.256271,"zip":"6230016"},{"town":"上野町","koaza":"西ヶ窪","lat":35.28886,"lng":135.256995,"zip":"6230035"},{"town":"西町三丁目","koaza":"南大坪","lat":35.302182,"lng":135.256041,"zip":"6230016"},{"town":"天神町","koaza":"南大坪","lat":35.30148,"lng":135.255532,"zip":"6230061"},{"town":"里町","koaza":"小南","lat":35.314814,"lng":135.257075,"zip":"6230005"},{"town":"里町","koaza":"馬草","lat":35.312268,"lng":135.256623,"zip":"6230005"},{"town":"里町","koaza":"北ノ田","lat":35.31286,"lng":135.256703,"zip":"6230005"},{"town":"田町","koaza":"若宮下","lat":35.295896,"lng":135.25667,"zip":"6230024"},{"town":"青野町","koaza":"深ミ田","lat":35.304418,"lng":135.256737,"zip":"6230011"},{"town":"青野町","koaza":"西吉美前","lat":35.307475,"lng":135.258618,"zip":"6230011"},{"town":"上野町","koaza":"上野","lat":35.293681,"lng":135.258308,"zip":"6230035"},{"town":"里町","koaza":"向屋敷","lat":35.313898,"lng":135.25911,"zip":"6230005"},{"town":"綾中町","koaza":"堂ノ元","lat":35.300887,"lng":135.25862,"zip":"6230013"},{"town":"綾中町","koaza":"花ノ木","lat":35.301819,"lng":135.258193,"zip":"6230013"},{"town":"若松町","koaza":"庵ノ上","lat":35.300983,"lng":135.257968,"zip":"6230015"},{"town":"青野町","koaza":"西ノ後","lat":35.30293,"lng":135.258032,"zip":"6230011"},{"town":"有岡町","koaza":"才ノ前","lat":35.326717,"lng":135.259502,"zip":"6230006"},{"town":"青野町","koaza":"亀無","lat":35.305011,"lng":135.257799,"zip":"6230011"},{"town":"青野町","koaza":"下入ヶ口","lat":35.306583,"lng":135.258962,"zip":"6230011"},{"town":"青野町","koaza":"棗ヶ市","lat":35.30492,"lng":135.259576,"zip":"6230011"},{"town":"寺町","koaza":"山椒","lat":35.289216,"lng":135.258471,"zip":"6230033"},{"town":"上野町","koaza":"下池田","lat":35.29209,"lng":135.260506,"zip":"6230035"},{"town":"寺町","koaza":"遊舟","lat":35.285595,"lng":135.25826,"zip":"6230033"},{"town":"寺町","koaza":"上石","lat":35.287478,"lng":135.259228,"zip":"6230033"},{"town":"里町","koaza":"野","lat":35.31342,"lng":135.258628,"zip":"6230005"},{"town":"若松町","koaza":"山塚","lat":35.299485,"lng":135.259264,"zip":"6230015"},{"town":"寺町","koaza":"大谷","lat":35.287056,"lng":135.260556,"zip":"6230033"},{"town":"寺町","koaza":"寺野","lat":35.289422,"lng":135.26041,"zip":"6230033"},{"town":"青野町","koaza":"宮ノ前","lat":35.304256,"lng":135.260089,"zip":"6230011"},{"town":"有岡町","koaza":"志庭垣","lat":35.325114,"lng":135.260337,"zip":"6230006"},{"town":"有岡町","koaza":"田部","lat":35.318548,"lng":135.259691,"zip":"6230006"},{"town":"寺町","koaza":"小山","lat":35.290732,"lng":135.260351,"zip":"6230033"},{"town":"有岡町","koaza":"沖ノ田","lat":35.323359,"lng":135.260864,"zip":"6230006"},{"town":"青野町","koaza":"鳩瀬","lat":35.307451,"lng":135.261412,"zip":"6230011"},{"town":"有岡町","koaza":"若宮","lat":35.321724,"lng":135.260077,"zip":"6230006"},{"town":"青野町","koaza":"東吉美前","lat":35.307159,"lng":135.259402,"zip":"6230011"},{"town":"有岡町","koaza":"橋詰","lat":35.31919,"lng":135.260208,"zip":"6230006"},{"town":"里町","koaza":"西ノ糸","lat":35.311835,"lng":135.260012,"zip":"6230005"},{"town":"新町","koaza":"西四ッ辻","lat":35.295845,"lng":135.260043,"zip":"6230023"},{"town":"川糸町","koaza":"下番取","lat":35.298754,"lng":135.260434,"zip":"6230012"},{"town":"青野町","koaza":"上入ヶ口","lat":35.305482,"lng":135.261057,"zip":"6230011"},{"town":"綾中町","koaza":"中村","lat":35.300465,"lng":135.259992,"zip":"6230013"},{"town":"青野町","koaza":"西青野","lat":35.30296,"lng":135.26002,"zip":"6230011"},{"town":"有岡町","koaza":"前田","lat":35.319632,"lng":135.260423,"zip":"6230006"},{"town":"本宮町","koaza":"本宮下","lat":35.295287,"lng":135.261842,"zip":"6230036"},{"town":"里町","koaza":"東浦","lat":35.311093,"lng":135.261578,"zip":"6230005"},{"town":"寺町","koaza":"山根","lat":35.288633,"lng":135.261555,"zip":"6230033"},{"town":"川糸町","koaza":"北古屋敷","lat":35.301328,"lng":135.261079,"zip":"6230012"},{"town":"川糸町","koaza":"丁畠","lat":35.300167,"lng":135.260829,"zip":"6230012"},{"town":"本宮町","koaza":"東四ッ辻","lat":35.295839,"lng":135.262416,"zip":"6230036"},{"town":"里町","koaza":"大坂","lat":35.31415,"lng":135.261579,"zip":"6230005"},{"town":"青野町","koaza":"高田","lat":35.304915,"lng":135.261929,"zip":"6230011"},{"town":"里町","koaza":"敷田","lat":35.316693,"lng":135.264863,"zip":"6230005"},{"town":"有岡町","koaza":"川原田","lat":35.321733,"lng":135.261014,"zip":"6230006"},{"town":"川糸町","koaza":"南古屋敷","lat":35.299311,"lng":135.261328,"zip":"6230012"},{"town":"青野町","koaza":"東青野","lat":35.303488,"lng":135.261787,"zip":"6230011"},{"town":"寺町","koaza":"農屋敷","lat":35.291121,"lng":135.261919,"zip":"6230033"},{"town":"寺町","koaza":"土取","lat":35.289507,"lng":135.261413,"zip":"6230033"},{"town":"里町","koaza":"築宮","lat":35.315726,"lng":135.264548,"zip":"6230005"},{"town":"青野町","koaza":"西中居","lat":35.306359,"lng":135.262439,"zip":"6230011"},{"town":"並松町","koaza":"上番取","lat":35.295935,"lng":135.262591,"zip":"6230037"},{"town":"並松町","koaza":"上溝口","lat":35.29728,"lng":135.262928,"zip":"6230037"},{"town":"寺町","koaza":"門田","lat":35.290072,"lng":135.263194,"zip":"6230033"},{"town":"有岡町","koaza":"友廣","lat":35.32608,"lng":135.262926,"zip":"6230006"},{"town":"寺町","koaza":"堂ノ前","lat":35.291716,"lng":135.262853,"zip":"6230033"},{"town":"川糸町","koaza":"堀ノ内","lat":35.29991,"lng":135.262558,"zip":"6230012"},{"town":"川糸町","koaza":"下溝口","lat":35.299242,"lng":135.263147,"zip":"6230012"},{"town":"川糸町","koaza":"天王森","lat":35.30206,"lng":135.262673,"zip":"6230012"},{"town":"青野町","koaza":"舘ノ後","lat":35.303191,"lng":135.262861,"zip":"6230011"},{"town":"有岡町","koaza":"岩鼻","lat":35.32516,"lng":135.262739,"zip":"6230006"},{"town":"青野町","koaza":"東中居","lat":35.307298,"lng":135.26294,"zip":"6230011"},{"town":"里町","koaza":"潜り","lat":35.314298,"lng":135.263404,"zip":"6230005"},{"town":"里町","koaza":"久田","lat":35.313061,"lng":135.26463,"zip":"6230005"},{"town":"有岡町","koaza":"高向","lat":35.319224,"lng":135.262989,"zip":"6230006"},{"town":"青野町","koaza":"出口","lat":35.306599,"lng":135.264293,"zip":"6230011"},{"town":"有岡町","koaza":"樋ノ本","lat":35.321668,"lng":135.262993,"zip":"6230006"},{"town":"川糸町","koaza":"南下市場","lat":35.299587,"lng":135.263918,"zip":"6230012"},{"town":"並松町","koaza":"寺下","lat":35.291604,"lng":135.263632,"zip":"6230037"},{"town":"里町","koaza":"山田","lat":35.311737,"lng":135.266076,"zip":"6230005"},{"town":"青野町","koaza":"河原口","lat":35.30482,"lng":135.264247,"zip":"6230011"},{"town":"寺町","koaza":"植松","lat":35.289721,"lng":135.264897,"zip":"6230033"},{"town":"多田町","koaza":"坊主山","lat":35.321428,"lng":135.268029,"zip":"6230004"},{"town":"寺町","koaza":"寺下","lat":35.290564,"lng":135.264979,"zip":"6230033"},{"town":"多田町","koaza":"西","lat":35.320541,"lng":135.267019,"zip":"6230004"},{"town":"有岡町","koaza":"田坂","lat":35.32561,"lng":135.265824,"zip":"6230006"},{"town":"味方町","koaza":"宮ノ上","lat":35.292827,"lng":135.266321,"zip":"6230031"},{"town":"野田町","koaza":"須知山","lat":35.277059,"lng":135.275521,"zip":"6230032"},{"town":"味方町","koaza":"鴨ノ堂","lat":35.29642,"lng":135.266967,"zip":"6230031"},{"town":"里町","koaza":"車田","lat":35.307924,"lng":135.270563,"zip":"6230005"},{"town":"味方町","koaza":"薬師前","lat":35.294217,"lng":135.267054,"zip":"6230031"},{"town":"野田町","koaza":"西ノ谷","lat":35.286891,"lng":135.282946,"zip":"6230032"},{"town":"味方町","koaza":"久保勝","lat":35.299162,"lng":135.266792,"zip":"6230031"},{"town":"野田町","koaza":"下赤谷","lat":35.289353,"lng":135.27206,"zip":"6230032"},{"town":"星原町","koaza":"岩戸","lat":35.334666,"lng":135.267367,"zip":"6230007"},{"town":"多田町","koaza":"田坂","lat":35.326599,"lng":135.267791,"zip":"6230004"},{"town":"野田町","koaza":"井根山","lat":35.288572,"lng":135.269205,"zip":"6230032"},{"town":"味方町","koaza":"舟ノ上","lat":35.300989,"lng":135.267065,"zip":"6230031"},{"town":"星原町","koaza":"堂前","lat":35.336317,"lng":135.267783,"zip":"6230007"},{"town":"多田町","koaza":"小佐田山","lat":35.325997,"lng":135.266995,"zip":"6230004"},{"town":"味方町","koaza":"中ノ坪","lat":35.292432,"lng":135.268909,"zip":"6230031"},{"town":"味方町","koaza":"石風呂","lat":35.300905,"lng":135.268433,"zip":"6230031"},{"town":"多田町","koaza":"後路","lat":35.321477,"lng":135.269219,"zip":"6230004"},{"town":"味方町","koaza":"倉谷","lat":35.295328,"lng":135.268223,"zip":"6230031"},{"town":"味方町","koaza":"三反畑","lat":35.303627,"lng":135.2686,"zip":"6230031"},{"town":"多田町","koaza":"沖田","lat":35.316962,"lng":135.269045,"zip":"6230004"},{"town":"里町","koaza":"鹿ノ子","lat":35.31826,"lng":135.268592,"zip":"6230005"},{"town":"味方町","koaza":"宮ノ前","lat":35.302895,"lng":135.269213,"zip":"6230031"},{"town":"味方町","koaza":"薬師谷","lat":35.301063,"lng":135.273355,"zip":"6230031"},{"town":"味方町","koaza":"北勝","lat":35.304394,"lng":135.268654,"zip":"6230031"},{"town":"小呂町","koaza":"菜畑","lat":35.333135,"lng":135.268978,"zip":"6230001"},{"town":"小呂町","koaza":"杉ノ木","lat":35.335525,"lng":135.268461,"zip":"6230001"},{"town":"味方町","koaza":"井上寺","lat":35.295364,"lng":135.273194,"zip":"6230031"},{"town":"味方町","koaza":"中車田","lat":35.306832,"lng":135.269131,"zip":"6230031"},{"town":"多田町","koaza":"前路","lat":35.319832,"lng":135.270682,"zip":"6230004"},{"town":"多田町","koaza":"寺田","lat":35.317161,"lng":135.270554,"zip":"6230004"},{"town":"味方町","koaza":"雨宮","lat":35.291985,"lng":135.27162,"zip":"6230031"},{"town":"多田町","koaza":"久後","lat":35.322367,"lng":135.269588,"zip":"6230004"},{"town":"味方町","koaza":"アミダジ","lat":35.304683,"lng":135.272981,"zip":"6230031"},{"town":"野田町","koaza":"上赤谷","lat":35.288295,"lng":135.273629,"zip":"6230032"},{"town":"味方町","koaza":"寺山","lat":35.306841,"lng":135.273135,"zip":"6230031"},{"town":"味方町","koaza":"畦田","lat":35.305127,"lng":135.271621,"zip":"6230031"},{"town":"多田町","koaza":"峠","lat":35.317835,"lng":135.272434,"zip":"6230004"},{"town":"多田町","koaza":"取畦","lat":35.322011,"lng":135.271808,"zip":"6230004"},{"town":"多田町","koaza":"宮ノ前","lat":35.320476,"lng":135.27149,"zip":"6230004"},{"town":"多田町","koaza":"鳴田","lat":35.316296,"lng":135.272497,"zip":"6230004"},{"town":"多田町","koaza":"丸山","lat":35.314535,"lng":135.273747,"zip":"6230004"},{"town":"多田町","koaza":"大井根","lat":35.315528,"lng":135.272521,"zip":"6230004"},{"town":"味方町","koaza":"鷲谷","lat":35.290879,"lng":135.273628,"zip":"6230031"},{"town":"味方町","koaza":"龍佛","lat":35.292027,"lng":135.273627,"zip":"6230031"},{"town":"多田町","koaza":"松浦","lat":35.32166,"lng":135.276988,"zip":"6230004"},{"town":"高倉町","koaza":"奥路","lat":35.330852,"lng":135.275505,"zip":"6230002"},{"town":"味方町","koaza":"平林","lat":35.291727,"lng":135.274308,"zip":"6230031"},{"town":"高倉町","koaza":"下路","lat":35.329014,"lng":135.277202,"zip":"6230002"},{"town":"高倉町","koaza":"高林","lat":35.334973,"lng":135.278884,"zip":"6230002"},{"town":"野田町","koaza":"番上目","lat":35.289014,"lng":135.276872,"zip":"6230032"},{"town":"下八田町","koaza":"松梨","lat":35.314129,"lng":135.278985,"zip":"6230116"},{"town":"高倉町","koaza":"大稲場","lat":35.327881,"lng":135.275373,"zip":"6230002"},{"town":"味方町","koaza":"光谷","lat":35.306056,"lng":135.274648,"zip":"6230031"},{"town":"野田町","koaza":"広田","lat":35.284418,"lng":135.277129,"zip":"6230032"},{"town":"下八田町","koaza":"瀬戸","lat":35.307994,"lng":135.275281,"zip":"6230116"},{"town":"下八田町","koaza":"西大平","lat":35.307251,"lng":135.276681,"zip":"6230116"},{"town":"西原町","koaza":"鷲垣","lat":35.291197,"lng":135.277068,"zip":"6291264"},{"town":"多田町","koaza":"黒岩","lat":35.323715,"lng":135.27846,"zip":"6230004"},{"town":"下八田町","koaza":"大迫","lat":35.311791,"lng":135.2768,"zip":"6230116"},{"town":"下八田町","koaza":"八ヶ谷","lat":35.309253,"lng":135.276183,"zip":"6230116"},{"town":"西原町","koaza":"菱子","lat":35.292269,"lng":135.28131,"zip":"6291264"},{"town":"和木町","koaza":"深山","lat":35.281128,"lng":135.282501,"zip":"6291274"},{"town":"下八田町","koaza":"下沢","lat":35.310278,"lng":135.278408,"zip":"6230116"},{"town":"高倉町","koaza":"外ノ神門","lat":35.328496,"lng":135.277359,"zip":"6230002"},{"town":"下八田町","koaza":"西山","lat":35.314978,"lng":135.279154,"zip":"6230116"},{"town":"下八田町","koaza":"光味","lat":35.309679,"lng":135.279046,"zip":"6230116"},{"town":"高倉町","koaza":"下田","lat":35.327477,"lng":135.278259,"zip":"6230002"},{"town":"野田町","koaza":"仲後","lat":35.287665,"lng":135.279908,"zip":"6230032"},{"town":"和木町","koaza":"西和木谷","lat":35.277905,"lng":135.288532,"zip":"6291274"},{"town":"下八田町","koaza":"角田","lat":35.311242,"lng":135.280027,"zip":"6230116"},{"town":"高倉町","koaza":"岡ノ下","lat":35.329623,"lng":135.278548,"zip":"6230002"},{"town":"下八田町","koaza":"水崎","lat":35.308086,"lng":135.279973,"zip":"6230116"},{"town":"野田町","koaza":"広田谷","lat":35.284804,"lng":135.28006,"zip":"6230032"},{"town":"下八田町","koaza":"光谷","lat":35.306802,"lng":135.278627,"zip":"6230116"},{"town":"高倉町","koaza":"大懐","lat":35.329183,"lng":135.279284,"zip":"6230002"},{"town":"西原町","koaza":"懸石","lat":35.289535,"lng":135.280708,"zip":"6291264"},{"town":"高倉町","koaza":"黒岩","lat":35.326612,"lng":135.279808,"zip":"6230002"},{"town":"下八田町","koaza":"岡西","lat":35.313783,"lng":135.280429,"zip":"6230116"},{"town":"下八田町","koaza":"中溝","lat":35.312286,"lng":135.281418,"zip":"6230116"},{"town":"下八田町","koaza":"段","lat":35.316025,"lng":135.281795,"zip":"6230116"},{"town":"高倉町","koaza":"峠","lat":35.328525,"lng":135.281167,"zip":"6230002"},{"town":"下八田町","koaza":"柿差","lat":35.31772,"lng":135.281526,"zip":"6230116"},{"town":"下八田町","koaza":"太古田","lat":35.311228,"lng":135.281353,"zip":"6230116"},{"town":"下八田町","koaza":"釜ヶ迫","lat":35.309551,"lng":135.281927,"zip":"6230116"},{"town":"高倉町","koaza":"大田","lat":35.328195,"lng":135.281964,"zip":"6230002"},{"town":"下八田町","koaza":"上沢","lat":35.313563,"lng":135.281816,"zip":"6230116"},{"town":"下八田町","koaza":"菖蒲谷","lat":35.302552,"lng":135.286125,"zip":"6230116"},{"town":"下八田町","koaza":"田ノ前","lat":35.311314,"lng":135.282968,"zip":"6230116"},{"town":"下八田町","koaza":"山ノ口","lat":35.310078,"lng":135.282044,"zip":"6230116"},{"town":"野田町","koaza":"寄合田","lat":35.287257,"lng":135.282904,"zip":"6230032"},{"town":"下八田町","koaza":"竹原","lat":35.316937,"lng":135.282864,"zip":"6230116"},{"town":"西原町","koaza":"茶屋ヶ迫","lat":35.289595,"lng":135.283777,"zip":"6291264"},{"town":"下八田町","koaza":"中西","lat":35.319752,"lng":135.283842,"zip":"6230116"},{"town":"下八田町","koaza":"宮ノ越","lat":35.314123,"lng":135.282378,"zip":"6230116"},{"town":"下八田町","koaza":"谷","lat":35.309055,"lng":135.283082,"zip":"6230116"},{"town":"下八田町","koaza":"堂ノ下","lat":35.314696,"lng":135.283965,"zip":"6230116"},{"town":"下八田町","koaza":"才ヶ花","lat":35.317582,"lng":135.285101,"zip":"6230116"},{"town":"下八田町","koaza":"中西口","lat":35.319137,"lng":135.283333,"zip":"6230116"},{"town":"下八田町","koaza":"西大坪","lat":35.319537,"lng":135.284205,"zip":"6230116"},{"town":"下八田町","koaza":"桐ヶ迫","lat":35.307008,"lng":135.284861,"zip":"6230116"},{"town":"渕垣町","koaza":"茶木原","lat":35.320596,"lng":135.284341,"zip":"6230115"},{"town":"渕垣町","koaza":"高尾","lat":35.321978,"lng":135.285544,"zip":"6230115"},{"town":"下八田町","koaza":"牛取","lat":35.314609,"lng":135.284771,"zip":"6230116"},{"town":"西原町","koaza":"東平林","lat":35.289333,"lng":135.287108,"zip":"6291264"},{"town":"下八田町","koaza":"大坪","lat":35.318966,"lng":135.286165,"zip":"6230116"},{"town":"下八田町","koaza":"菩提口","lat":35.316361,"lng":135.285814,"zip":"6230116"},{"town":"下八田町","koaza":"芋谷","lat":35.317761,"lng":135.28869,"zip":"6230116"},{"town":"西原町","koaza":"西平林","lat":35.289322,"lng":135.286113,"zip":"6291264"},{"town":"和木町","koaza":"佐々戸","lat":35.287466,"lng":135.295203,"zip":"6291274"},{"town":"渕垣町","koaza":"大坪","lat":35.319764,"lng":135.287466,"zip":"6230115"},{"town":"西原町","koaza":"塚穴","lat":35.288032,"lng":135.287314,"zip":"6291264"},{"town":"西原町","koaza":"中地","lat":35.290305,"lng":135.287575,"zip":"6291264"},{"town":"西原町","koaza":"西野々","lat":35.289676,"lng":135.287381,"zip":"6291264"},{"town":"西原町","koaza":"上地","lat":35.292673,"lng":135.288769,"zip":"6291264"},{"town":"渕垣町","koaza":"小白","lat":35.325207,"lng":135.288347,"zip":"6230115"},{"town":"渕垣町","koaza":"ミマヤ","lat":35.321755,"lng":135.28831,"zip":"6230115"},{"town":"渕垣町","koaza":"三社田","lat":35.319138,"lng":135.287889,"zip":"6230115"},{"town":"西原町","koaza":"籠原","lat":35.288624,"lng":135.288132,"zip":"6291264"},{"town":"渕垣町","koaza":"古社ノ下","lat":35.320818,"lng":135.288177,"zip":"6230115"},{"town":"和木町","koaza":"和戸成","lat":35.283249,"lng":135.292564,"zip":"6291274"},{"town":"和木町","koaza":"樋ノ口","lat":35.28156,"lng":135.288842,"zip":"6291274"},{"town":"渕垣町","koaza":"兵谷","lat":35.317328,"lng":135.289717,"zip":"6230115"},{"town":"岡安町","koaza":"家ノ下","lat":35.336738,"lng":135.290385,"zip":"6230114"},{"town":"西原町","koaza":"勝負換","lat":35.287172,"lng":135.289531,"zip":"6291264"},{"town":"渕垣町","koaza":"薮ノ下","lat":35.322625,"lng":135.289489,"zip":"6230115"},{"town":"渕垣町","koaza":"田尻","lat":35.322535,"lng":135.288323,"zip":"6230115"},{"town":"西原町","koaza":"札ノ前","lat":35.288543,"lng":135.289014,"zip":"6291264"},{"town":"渕垣町","koaza":"渕垣","lat":35.325986,"lng":135.290677,"zip":"6230115"},{"town":"渕垣町","koaza":"久田","lat":35.323516,"lng":135.289745,"zip":"6230115"},{"town":"西原町","koaza":"土師ノ木","lat":35.28987,"lng":135.289561,"zip":"6291264"},{"town":"和木町","koaza":"和木成","lat":35.278558,"lng":135.290105,"zip":"6291274"},{"town":"西原町","koaza":"谷口","lat":35.292678,"lng":135.290391,"zip":"6291264"},{"town":"渕垣町","koaza":"馬場","lat":35.321319,"lng":135.289424,"zip":"6230115"},{"town":"渕垣町","koaza":"木寺","lat":35.317561,"lng":135.293724,"zip":"6230115"},{"town":"西原町","koaza":"申酉","lat":35.288474,"lng":135.289831,"zip":"6291264"},{"town":"渕垣町","koaza":"奥ノ谷","lat":35.321949,"lng":135.290596,"zip":"6230115"},{"town":"西原町","koaza":"弓矢","lat":35.289652,"lng":135.290436,"zip":"6291264"},{"town":"渕垣町","koaza":"古川","lat":35.324707,"lng":135.291622,"zip":"6230115"},{"town":"岡安町","koaza":"田中","lat":35.334998,"lng":135.291164,"zip":"6230114"},{"town":"西原町","koaza":"十ノ塚","lat":35.288493,"lng":135.29048,"zip":"6291264"},{"town":"渕垣町","koaza":"段京","lat":35.323339,"lng":135.291409,"zip":"6230115"},{"town":"下八田町","koaza":"峠田","lat":35.30166,"lng":135.293283,"zip":"6230116"},{"town":"西原町","koaza":"地主","lat":35.291015,"lng":135.294878,"zip":"6291264"},{"town":"西原町","koaza":"南中山","lat":35.288432,"lng":135.291231,"zip":"6291264"},{"town":"西原町","koaza":"荒田","lat":35.289967,"lng":135.291019,"zip":"6291264"},{"town":"西原町","koaza":"北中山","lat":35.289646,"lng":135.29157,"zip":"6291264"},{"town":"西原町","koaza":"中ヶ沢","lat":35.288267,"lng":135.2931,"zip":"6291264"},{"town":"岡安町","koaza":"大道","lat":35.337632,"lng":135.29154,"zip":"6230114"},{"town":"渕垣町","koaza":"高野","lat":35.325143,"lng":135.29242,"zip":"6230115"},{"town":"渕垣町","koaza":"樋ノ口","lat":35.327021,"lng":135.29338,"zip":"6230115"},{"town":"渕垣町","koaza":"横田代","lat":35.329554,"lng":135.292389,"zip":"6230115"},{"town":"渕垣町","koaza":"郷久","lat":35.326291,"lng":135.292804,"zip":"6230115"},{"town":"渕垣町","koaza":"蛭子谷","lat":35.323384,"lng":135.296037,"zip":"6230115"},{"town":"岡安町","koaza":"寺所","lat":35.336189,"lng":135.292534,"zip":"6230114"},{"town":"岡安町","koaza":"流田","lat":35.335686,"lng":135.292528,"zip":"6230114"},{"town":"和木町","koaza":"松原","lat":35.283779,"lng":135.294733,"zip":"6291274"},{"town":"西原町","koaza":"弥九郎勝","lat":35.288798,"lng":135.293461,"zip":"6291264"},{"town":"岡安町","koaza":"奈良ノ木","lat":35.333799,"lng":135.292629,"zip":"6230114"},{"town":"西原町","koaza":"宮ノ谷","lat":35.289744,"lng":135.292983,"zip":"6291264"},{"town":"岡安町","koaza":"土樋ノ下","lat":35.334471,"lng":135.292815,"zip":"6230114"},{"town":"岡安町","koaza":"旅籠","lat":35.333069,"lng":135.293322,"zip":"6230114"},{"town":"渕垣町","koaza":"角","lat":35.330582,"lng":135.292958,"zip":"6230115"},{"town":"渕垣町","koaza":"荒神段","lat":35.325559,"lng":135.293778,"zip":"6230115"},{"town":"岡安町","koaza":"清戸","lat":35.334339,"lng":135.294077,"zip":"6230114"},{"town":"渕垣町","koaza":"横田","lat":35.32946,"lng":135.294213,"zip":"6230115"},{"town":"渕垣町","koaza":"岩神","lat":35.328752,"lng":135.293296,"zip":"6230115"},{"town":"渕垣町","koaza":"林ノ下","lat":35.327303,"lng":135.293584,"zip":"6230115"},{"town":"西原町","koaza":"小林","lat":35.290548,"lng":135.294008,"zip":"6291264"},{"town":"下原町","koaza":"角畑","lat":35.28794,"lng":135.299683,"zip":"6291273"},{"town":"岡安町","koaza":"中ノ段","lat":35.334823,"lng":135.294778,"zip":"6230114"},{"town":"岡安町","koaza":"岡","lat":35.335943,"lng":135.294626,"zip":"6230114"},{"town":"岡安町","koaza":"横田","lat":35.332589,"lng":135.294053,"zip":"6230114"},{"town":"渕垣町","koaza":"広道","lat":35.326845,"lng":135.293967,"zip":"6230115"},{"town":"渕垣町","koaza":"カトカ","lat":35.330343,"lng":135.29465,"zip":"6230115"},{"town":"岡安町","koaza":"中池","lat":35.333469,"lng":135.295759,"zip":"6230114"},{"town":"岡安町","koaza":"大日陰","lat":35.33414,"lng":135.296055,"zip":"6230114"},{"town":"西原町","koaza":"仲ノ下","lat":35.290639,"lng":135.296729,"zip":"6291264"},{"town":"西原町","koaza":"猪ノ尻","lat":35.289765,"lng":135.29528,"zip":"6291264"},{"town":"渕垣町","koaza":"廣道","lat":35.331126,"lng":135.295352,"zip":"6230115"},{"town":"岡安町","koaza":"奥池","lat":35.334657,"lng":135.296093,"zip":"6230114"},{"town":"下八田町","koaza":"上谷","lat":35.29749,"lng":135.295866,"zip":"6230116"},{"town":"西原町","koaza":"猪ノ坂","lat":35.291168,"lng":135.295756,"zip":"6291264"},{"town":"下八田町","koaza":"川原田","lat":35.297936,"lng":135.295654,"zip":"6230116"},{"town":"中山町","koaza":"鳴谷","lat":35.328883,"lng":135.298631,"zip":"6230105"},{"town":"中山町","koaza":"城山","lat":35.331632,"lng":135.299108,"zip":"6230105"},{"town":"西原町","koaza":"篭子石","lat":35.290078,"lng":135.296144,"zip":"6291264"},{"town":"西原町","koaza":"堂ノ上","lat":35.291455,"lng":135.296607,"zip":"6291264"},{"town":"鷹栖町","koaza":"栖岡","lat":35.29139,"lng":135.299242,"zip":"6291263"},{"town":"中山町","koaza":"桜","lat":35.332113,"lng":135.298655,"zip":"6230105"},{"town":"和木町","koaza":"柱堂","lat":35.286672,"lng":135.297241,"zip":"6291274"},{"town":"中山町","koaza":"奥鳴谷","lat":35.327683,"lng":135.299009,"zip":"6230105"},{"town":"鷹栖町","koaza":"下長瀬","lat":35.290651,"lng":135.299697,"zip":"6291263"},{"town":"中山町","koaza":"梅ノ木段","lat":35.3329,"lng":135.299265,"zip":"6230105"},{"town":"鷹栖町","koaza":"上長瀬","lat":35.292216,"lng":135.303257,"zip":"6291263"},{"town":"中山町","koaza":"段","lat":35.334098,"lng":135.30002,"zip":"6230105"},{"town":"中山町","koaza":"日向","lat":35.332242,"lng":135.303451,"zip":"6230105"},{"town":"鷹栖町","koaza":"桜ヶ坪","lat":35.308342,"lng":135.303584,"zip":"6291263"},{"town":"鷹栖町","koaza":"満門","lat":35.291681,"lng":135.301017,"zip":"6291263"},{"town":"旭町","koaza":"妙見","lat":35.316566,"lng":135.303557,"zip":"6291261"},{"town":"中山町","koaza":"山ノ神","lat":35.331559,"lng":135.301209,"zip":"6230105"},{"town":"中山町","koaza":"古川","lat":35.333587,"lng":135.301133,"zip":"6230105"},{"town":"黒谷町","koaza":"東谷","lat":35.377571,"lng":135.310674,"zip":"6230108"},{"town":"中山町","koaza":"中嶋","lat":35.332343,"lng":135.301772,"zip":"6230105"},{"town":"下原町","koaza":"野毛","lat":35.289527,"lng":135.303024,"zip":"6291273"},{"town":"下原町","koaza":"カジヤ","lat":35.287444,"lng":135.303619,"zip":"6291273"},{"town":"旭町","koaza":"高迫","lat":35.312768,"lng":135.311684,"zip":"6291261"},{"town":"旭町","koaza":"宮ノ下","lat":35.312692,"lng":135.303642,"zip":"6291261"},{"town":"中山町","koaza":"本丸段","lat":35.332513,"lng":135.305877,"zip":"6230105"},{"town":"鷹栖町","koaza":"風呂屋","lat":35.297129,"lng":135.307109,"zip":"6291263"},{"town":"中山町","koaza":"ヒヨ谷","lat":35.327541,"lng":135.305885,"zip":"6230105"},{"town":"鷹栖町","koaza":"遊里","lat":35.293199,"lng":135.30573,"zip":"6291263"},{"town":"下原町","koaza":"五反田","lat":35.289298,"lng":135.305948,"zip":"6291273"},{"town":"中山町","koaza":"野谷","lat":35.329662,"lng":135.307814,"zip":"6230105"},{"town":"下原町","koaza":"上ノ替地","lat":35.288156,"lng":135.305866,"zip":"6291273"},{"town":"中山町","koaza":"スゴ谷","lat":35.329415,"lng":135.305485,"zip":"6230105"},{"town":"中山町","koaza":"一ノ谷","lat":35.323156,"lng":135.306316,"zip":"6230105"},{"town":"下原町","koaza":"小屋ヶ谷","lat":35.286841,"lng":135.305935,"zip":"6291273"},{"town":"旭町","koaza":"大工田","lat":35.317581,"lng":135.30852,"zip":"6291261"},{"town":"鷹栖町","koaza":"大皆地","lat":35.292887,"lng":135.307656,"zip":"6291263"},{"town":"中山町","koaza":"河原","lat":35.325477,"lng":135.307125,"zip":"6230105"},{"town":"下原町","koaza":"布毛","lat":35.289937,"lng":135.309192,"zip":"6291273"},{"town":"旭町","koaza":"小嶋","lat":35.314336,"lng":135.307783,"zip":"6291261"},{"town":"旭町","koaza":"大峠","lat":35.315184,"lng":135.308339,"zip":"6291261"},{"town":"中山町","koaza":"大谷","lat":35.325969,"lng":135.30923,"zip":"6230105"},{"town":"安国寺町","koaza":"寺ノ段","lat":35.341911,"lng":135.307621,"zip":"6230104"},{"town":"鷹栖町","koaza":"鳥原","lat":35.293547,"lng":135.309032,"zip":"6291263"},{"town":"鷹栖町","koaza":"梅木谷","lat":35.292511,"lng":135.308741,"zip":"6291263"},{"town":"鷹栖町","koaza":"西ノ成","lat":35.293485,"lng":135.31,"zip":"6291263"},{"town":"梅迫町","koaza":"上町","lat":35.347084,"lng":135.310382,"zip":"6230103"},{"town":"鷹栖町","koaza":"豊後田","lat":35.294202,"lng":135.31151,"zip":"6291263"},{"town":"上杉町","koaza":"石子","lat":35.350884,"lng":135.313942,"zip":"6230102"},{"town":"鷹栖町","koaza":"小丸山","lat":35.296512,"lng":135.314302,"zip":"6291263"},{"town":"梅迫町","koaza":"大野","lat":35.346786,"lng":135.317483,"zip":"6230103"},{"town":"上杉町","koaza":"中嶋","lat":35.354914,"lng":135.313581,"zip":"6230102"},{"town":"東山町","koaza":"山家","lat":35.297255,"lng":135.316278,"zip":"6291262"},{"town":"釜輪町","koaza":"奥山口","lat":35.296829,"lng":135.345099,"zip":"6291254"}]