[{"town":"字青井","koaza":"","lat":35.493083,"lng":135.315918,"zip":"6250000"},{"town":"字赤野","koaza":"","lat":35.52469,"lng":135.38713,"zip":"6250000"},{"town":"字朝代","koaza":"","lat":35.444299,"lng":135.324277,"zip":"6250000"},{"town":"字朝来中","koaza":"","lat":35.504624,"lng":135.430102,"zip":"6250000"},{"town":"字余部上","koaza":"","lat":35.466774,"lng":135.3647,"zip":"6250000"},{"town":"字余部下","koaza":"","lat":35.477557,"lng":135.363615,"zip":"6250000"},{"town":"字池ノ内下","koaza":"","lat":35.399044,"lng":135.359816,"zip":"6250000"},{"town":"字伊佐津","koaza":"","lat":35.438662,"lng":135.332679,"zip":"6250000"},{"town":"字市場","koaza":"","lat":35.475652,"lng":135.411203,"zip":"6250000"},{"town":"字今田","koaza":"","lat":35.427861,"lng":135.359248,"zip":"6250000"},{"town":"字上根","koaza":"","lat":35.431135,"lng":135.37703,"zip":"6250000"},{"town":"字上安","koaza":"","lat":35.457213,"lng":135.349892,"zip":"6250000"},{"town":"字魚屋","koaza":"","lat":35.451617,"lng":135.328117,"zip":"6250000"},{"town":"字円満寺","koaza":"","lat":35.448882,"lng":135.332735,"zip":"6250000"},{"town":"字大内","koaza":"","lat":35.446423,"lng":135.335895,"zip":"6250000"},{"town":"字大川","koaza":"","lat":35.449967,"lng":135.257255,"zip":"6250000"},{"town":"字大君","koaza":"","lat":35.469296,"lng":135.307064,"zip":"6250000"},{"town":"字大丹生","koaza":"","lat":35.522793,"lng":135.362823,"zip":"6250000"},{"town":"字大波上","koaza":"","lat":35.50734,"lng":135.418023,"zip":"6250000"},{"town":"字大波下","koaza":"","lat":35.501691,"lng":135.400073,"zip":"6250000"},{"town":"字大俣","koaza":"","lat":35.444448,"lng":135.185427,"zip":"6250000"},{"town":"字大山","koaza":"","lat":35.548748,"lng":135.447307,"zip":"6250000"},{"town":"字岡田由里","koaza":"","lat":35.439128,"lng":135.225042,"zip":"6250000"},{"town":"字岡安","koaza":"","lat":35.50121,"lng":135.440687,"zip":"6250000"},{"town":"字小倉","koaza":"","lat":35.47391,"lng":135.429191,"zip":"6250000"},{"town":"字小橋","koaza":"","lat":35.556816,"lng":135.410091,"zip":"6250000"},{"town":"字蒲江","koaza":"","lat":35.490782,"lng":135.293386,"zip":"6250000"},{"town":"字上安久","koaza":"","lat":35.454241,"lng":135.337801,"zip":"6250000"},{"town":"字上漆原","koaza":"","lat":35.497391,"lng":135.239339,"zip":"6250000"},{"town":"字上東","koaza":"","lat":35.449,"lng":135.273047,"zip":"6250000"},{"town":"字上福井","koaza":"","lat":35.444762,"lng":135.292298,"zip":"6250000"},{"town":"字河辺中","koaza":"","lat":35.520923,"lng":135.404406,"zip":"6250000"},{"town":"字河辺原","koaza":"","lat":35.525549,"lng":135.426866,"zip":"6250000"},{"town":"字河辺由里","koaza":"","lat":35.53241,"lng":135.417877,"zip":"6250000"},{"town":"字鹿原","koaza":"","lat":35.475492,"lng":135.448484,"zip":"6250000"},{"town":"字観音寺","koaza":"","lat":35.540312,"lng":135.418324,"zip":"6250000"},{"town":"字岸谷","koaza":"","lat":35.396043,"lng":135.393005,"zip":"6250000"},{"town":"字喜多","koaza":"","lat":35.459864,"lng":135.307324,"zip":"6250000"},{"town":"字北吸","koaza":"","lat":35.471467,"lng":135.381543,"zip":"6250000"},{"town":"字北田辺","koaza":"","lat":35.449436,"lng":135.32987,"zip":"6250000"},{"town":"字吉坂","koaza":"","lat":35.486128,"lng":135.458471,"zip":"6250000"},{"town":"字木ノ下","koaza":"","lat":35.441182,"lng":135.412574,"zip":"6250000"},{"town":"字京口","koaza":"","lat":35.446056,"lng":135.325079,"zip":"6250000"},{"town":"字京田","koaza":"","lat":35.413027,"lng":135.332872,"zip":"6250000"},{"town":"字清道","koaza":"","lat":35.454136,"lng":135.365277,"zip":"6250000"},{"town":"字久田美","koaza":"","lat":35.41984,"lng":135.270585,"zip":"6250000"},{"town":"字公文名","koaza":"","lat":35.432081,"lng":135.328584,"zip":"6250000"},{"town":"字倉谷","koaza":"","lat":35.444232,"lng":135.340088,"zip":"6250000"},{"town":"字桑飼上","koaza":"","lat":35.411485,"lng":135.226633,"zip":"6250000"},{"town":"字桑飼下","koaza":"","lat":35.419526,"lng":135.24154,"zip":"6250000"},{"town":"字河原","koaza":"","lat":35.458581,"lng":135.23195,"zip":"6250000"},{"town":"字紺屋","koaza":"","lat":35.447436,"lng":135.322623,"zip":"6250000"},{"town":"字西方寺","koaza":"","lat":35.464986,"lng":135.214914,"zip":"6250000"},{"town":"字境谷","koaza":"","lat":35.436719,"lng":135.34053,"zip":"6250000"},{"town":"字笹部","koaza":"","lat":35.516555,"lng":135.453363,"zip":"6250000"},{"town":"字佐波賀","koaza":"","lat":35.508138,"lng":135.365915,"zip":"6250000"},{"town":"字志高","koaza":"","lat":35.433441,"lng":135.248558,"zip":"6250000"},{"town":"字地頭","koaza":"","lat":35.444299,"lng":135.20602,"zip":"6250000"},{"town":"字寺内","koaza":"","lat":35.451283,"lng":135.324353,"zip":"6250000"},{"town":"字下安久","koaza":"","lat":35.46162,"lng":135.333334,"zip":"6250000"},{"town":"字下漆原","koaza":"","lat":35.471872,"lng":135.244863,"zip":"6250000"},{"town":"字下東","koaza":"","lat":35.458719,"lng":135.28965,"zip":"6250000"},{"town":"字下福井","koaza":"","lat":35.447687,"lng":135.309258,"zip":"6250000"},{"town":"字下見谷","koaza":"","lat":35.474902,"lng":135.230641,"zip":"6250000"},{"town":"字城屋","koaza":"","lat":35.416713,"lng":135.301936,"zip":"6250000"},{"town":"字職人","koaza":"","lat":35.45001,"lng":135.32913,"zip":"6250000"},{"town":"字白杉","koaza":"","lat":35.509058,"lng":135.32454,"zip":"6250000"},{"town":"字白滝","koaza":"","lat":35.416694,"lng":135.390488,"zip":"6250000"},{"town":"字白屋","koaza":"","lat":35.497081,"lng":135.442025,"zip":"6250000"},{"town":"字新","koaza":"","lat":35.449035,"lng":135.323925,"zip":"6250000"},{"town":"字杉山","koaza":"","lat":35.508009,"lng":135.463861,"zip":"6250000"},{"town":"字瀬崎","koaza":"","lat":35.542848,"lng":135.362005,"zip":"6250000"},{"town":"字泉源寺","koaza":"","lat":35.487573,"lng":135.412671,"zip":"6250000"},{"town":"字田井","koaza":"","lat":35.562056,"lng":135.455392,"zip":"6250000"},{"town":"字平","koaza":"","lat":35.512422,"lng":135.380162,"zip":"6250000"},{"town":"字高野由里","koaza":"","lat":35.430801,"lng":135.31693,"zip":"6250000"},{"town":"字滝ケ宇呂","koaza":"","lat":35.466751,"lng":135.19685,"zip":"6250000"},{"town":"字竹屋","koaza":"","lat":35.450941,"lng":135.326514,"zip":"6250000"},{"town":"字田中","koaza":"","lat":35.485961,"lng":135.427201,"zip":"6250000"},{"town":"字多祢寺","koaza":"","lat":35.531984,"lng":135.39179,"zip":"6250000"},{"town":"字多門院","koaza":"","lat":35.460556,"lng":135.450884,"zip":"6250000"},{"town":"字丹波","koaza":"","lat":35.449853,"lng":135.328274,"zip":"6250000"},{"town":"字千歳","koaza":"","lat":35.537042,"lng":135.338914,"zip":"6250000"},{"town":"字常","koaza":"","lat":35.443891,"lng":135.404068,"zip":"6250000"},{"town":"字寺田","koaza":"","lat":35.429093,"lng":135.395772,"zip":"6250000"},{"town":"字天台","koaza":"","lat":35.446616,"lng":135.366551,"zip":"6250000"},{"town":"字堂奥","koaza":"","lat":35.461335,"lng":135.421206,"zip":"6250000"},{"town":"字十倉","koaza":"","lat":35.416103,"lng":135.325204,"zip":"6250000"},{"town":"字栃尾","koaza":"","lat":35.53176,"lng":135.441377,"zip":"6250000"},{"town":"字中田","koaza":"","lat":35.5143,"lng":135.406345,"zip":"6250000"},{"town":"字長谷","koaza":"","lat":35.48749,"lng":135.253967,"zip":"6250000"},{"town":"字長浜","koaza":"","lat":35.486139,"lng":135.363322,"zip":"6250000"},{"town":"字中山","koaza":"","lat":35.470072,"lng":135.28242,"zip":"6250000"},{"town":"字七日市","koaza":"","lat":35.429017,"lng":135.33213,"zip":"6250000"},{"town":"字成生","koaza":"","lat":35.589051,"lng":135.444771,"zip":"6250000"},{"town":"字西","koaza":"","lat":35.44988,"lng":135.320419,"zip":"6250000"},{"town":"字西神崎","koaza":"","lat":35.510417,"lng":135.293275,"zip":"6250000"},{"town":"字西屋","koaza":"","lat":35.52607,"lng":135.410068,"zip":"6250000"},{"town":"字西吉原","koaza":"","lat":35.455384,"lng":135.329184,"zip":"6250000"},{"town":"字女布","koaza":"","lat":35.421246,"lng":135.31384,"zip":"6250000"},{"town":"字布敷","koaza":"","lat":35.40858,"lng":135.358334,"zip":"6250000"},{"town":"字野原","koaza":"","lat":35.568976,"lng":135.435254,"zip":"6250000"},{"town":"字登尾","koaza":"","lat":35.510296,"lng":135.445563,"zip":"6250000"},{"town":"字野村寺","koaza":"","lat":35.432438,"lng":135.306659,"zip":"6250000"},{"town":"字八田","koaza":"","lat":35.454883,"lng":135.267099,"zip":"6250000"},{"town":"字八戸地","koaza":"","lat":35.464886,"lng":135.255701,"zip":"6250000"},{"town":"字浜","koaza":"","lat":35.474708,"lng":135.393147,"zip":"6250000"},{"town":"字東神崎","koaza":"","lat":35.515348,"lng":135.316538,"zip":"6250000"},{"town":"字東吉原","koaza":"","lat":35.457594,"lng":135.32775,"zip":"6250000"},{"town":"字引土","koaza":"","lat":35.440638,"lng":135.32113,"zip":"6250000"},{"town":"字引土新","koaza":"","lat":35.445599,"lng":135.323988,"zip":"6250000"},{"town":"字平野屋","koaza":"","lat":35.449849,"lng":135.327553,"zip":"6250000"},{"town":"字福来","koaza":"","lat":35.443536,"lng":135.353401,"zip":"6250000"},{"town":"字富室","koaza":"","lat":35.444524,"lng":135.237839,"zip":"6250000"},{"town":"字別所","koaza":"","lat":35.411693,"lng":135.363307,"zip":"6250000"},{"town":"字堀","koaza":"","lat":35.402574,"lng":135.337835,"zip":"6250000"},{"town":"字堀上","koaza":"","lat":35.447628,"lng":135.325236,"zip":"6250000"},{"town":"字本","koaza":"","lat":35.448332,"lng":135.327375,"zip":"6250000"},{"town":"字真倉","koaza":"","lat":35.400045,"lng":135.31702,"zip":"6250000"},{"town":"字松陰","koaza":"","lat":35.45424,"lng":135.323064,"zip":"6250000"},{"town":"字松尾","koaza":"","lat":35.49581,"lng":135.460265,"zip":"6250000"},{"town":"字丸田","koaza":"","lat":35.464213,"lng":135.272228,"zip":"6250000"},{"town":"字万願寺","koaza":"","lat":35.430481,"lng":135.342912,"zip":"6250000"},{"town":"字水間","koaza":"","lat":35.476204,"lng":135.289959,"zip":"6250000"},{"town":"字溝尻","koaza":"","lat":35.470699,"lng":135.41,"zip":"6250000"},{"town":"字三日市","koaza":"","lat":35.442406,"lng":135.265453,"zip":"6250000"},{"town":"字南田辺","koaza":"","lat":35.446726,"lng":135.331072,"zip":"6250000"},{"town":"字三浜","koaza":"","lat":35.550144,"lng":135.392961,"zip":"6250000"},{"town":"字宮津口","koaza":"","lat":35.449894,"lng":135.323101,"zip":"6250000"},{"town":"字室牛","koaza":"","lat":35.51945,"lng":135.421526,"zip":"6250000"},{"town":"字森","koaza":"","lat":35.459699,"lng":135.379626,"zip":"6250000"},{"town":"字安岡","koaza":"","lat":35.48816,"lng":135.440006,"zip":"6250000"},{"town":"字行永","koaza":"","lat":35.451092,"lng":135.389039,"zip":"6250000"},{"town":"字油江","koaza":"","lat":35.504624,"lng":135.294365,"zip":"6250000"},{"town":"字吉田","koaza":"","lat":35.483321,"lng":135.311105,"zip":"6250000"},{"town":"字吉野","koaza":"","lat":35.495953,"lng":135.430217,"zip":"6250000"},{"town":"字与保呂","koaza":"","lat":35.440515,"lng":135.436105,"zip":"6250000"},{"town":"字和江","koaza":"","lat":35.483334,"lng":135.272034,"zip":"6250000"},{"town":"字和田","koaza":"","lat":35.473035,"lng":135.34894,"zip":"6250000"},{"town":"朝来西町","koaza":"","lat":35.500026,"lng":135.425932,"zip":"6250004"},{"town":"愛宕上町","koaza":"","lat":35.483571,"lng":135.408211,"zip":"6250030"},{"town":"愛宕下町","koaza":"","lat":35.479781,"lng":135.406758,"zip":"6250032"},{"town":"愛宕中町","koaza":"","lat":35.481889,"lng":135.407233,"zip":"6250031"},{"town":"愛宕浜町","koaza":"","lat":35.478812,"lng":135.405418,"zip":"6250033"},{"town":"上安東町","koaza":"","lat":35.460401,"lng":135.350838,"zip":"6240911"},{"town":"大内野町","koaza":"","lat":35.446717,"lng":135.334455,"zip":"6240851"},{"town":"金屋町","koaza":"","lat":35.458999,"lng":135.400543,"zip":"6250053"},{"town":"亀岩町","koaza":"","lat":35.451151,"lng":135.398587,"zip":"6250077"},{"town":"鹿原西町","koaza":"","lat":35.480012,"lng":135.438459,"zip":"6250013"},{"town":"北浜町","koaza":"","lat":35.468021,"lng":135.398083,"zip":"6250050"},{"town":"京月町","koaza":"","lat":35.448439,"lng":135.398734,"zip":"6250076"},{"town":"京月東町","koaza":"","lat":35.448912,"lng":135.401515,"zip":"6250075"},{"town":"京田新町","koaza":"","lat":35.428319,"lng":135.325816,"zip":"6240826"},{"town":"清美が丘","koaza":"","lat":35.454987,"lng":135.359792,"zip":"6240901"},{"town":"清道新町","koaza":"","lat":35.45315,"lng":135.360989,"zip":"6240908"},{"town":"倉梯町","koaza":"","lat":35.463503,"lng":135.395941,"zip":"6250056"},{"town":"倉梯中町","koaza":"","lat":35.460373,"lng":135.395721,"zip":"6250055"},{"town":"七条中町","koaza":"","lat":35.460692,"lng":135.396764,"zip":"6250054"},{"town":"昭和台","koaza":"","lat":35.451568,"lng":135.353719,"zip":"6240904"},{"town":"白浜台","koaza":"","lat":35.477283,"lng":135.353152,"zip":"6250084"},{"town":"白屋町","koaza":"","lat":35.494933,"lng":135.434454,"zip":"6250012"},{"town":"高野台","koaza":"","lat":35.427873,"lng":135.31627,"zip":"6240832"},{"town":"田中町","koaza":"","lat":35.482671,"lng":135.420989,"zip":"6250024"},{"town":"常新町","koaza":"","lat":35.450123,"lng":135.403043,"zip":"6250071"},{"town":"田園町一丁目","koaza":"","lat":35.482345,"lng":135.434598,"zip":"6250027"},{"town":"田園町二丁目","koaza":"","lat":35.482859,"lng":135.435574,"zip":"6250027"},{"town":"天台新町","koaza":"","lat":35.451667,"lng":135.359968,"zip":"6240909"},{"town":"中田町","koaza":"","lat":35.512881,"lng":135.402672,"zip":"6250131"},{"town":"女布北町","koaza":"","lat":35.429826,"lng":135.322721,"zip":"6240836"},{"town":"八反田北町","koaza":"","lat":35.454188,"lng":135.394387,"zip":"6250070"},{"town":"八反田南町","koaza":"","lat":35.451469,"lng":135.396444,"zip":"6250078"},{"town":"浜町","koaza":"","lat":35.468211,"lng":135.39329,"zip":"6250037"},{"town":"福来問屋町","koaza":"","lat":35.4416,"lng":135.348439,"zip":"6240907"},{"town":"丸山口町","koaza":"","lat":35.459638,"lng":135.391434,"zip":"6250066"},{"town":"丸山町","koaza":"","lat":35.456447,"lng":135.391129,"zip":"6250063"},{"town":"丸山中町","koaza":"","lat":35.458226,"lng":135.390608,"zip":"6250065"},{"town":"丸山西町","koaza":"","lat":35.457051,"lng":135.388329,"zip":"6250064"},{"town":"溝尻町","koaza":"","lat":35.467037,"lng":135.408442,"zip":"6250042"},{"town":"溝尻中町","koaza":"","lat":35.469988,"lng":135.405211,"zip":"6250041"},{"town":"南浜町","koaza":"","lat":35.4678,"lng":135.395998,"zip":"6250057"},{"town":"桃山町","koaza":"","lat":35.467236,"lng":135.390988,"zip":"6250060"},{"town":"森本町","koaza":"","lat":35.463618,"lng":135.391125,"zip":"6250067"},{"town":"森町","koaza":"","lat":35.466876,"lng":135.39407,"zip":"6250061"},{"town":"安岡町","koaza":"","lat":35.482901,"lng":135.433079,"zip":"6250022"},{"town":"矢之助町","koaza":"","lat":35.473033,"lng":135.401705,"zip":"6250040"},{"town":"行永桜通り","koaza":"","lat":35.46504,"lng":135.403421,"zip":"6250058"},{"town":"行永東町","koaza":"","lat":35.463928,"lng":135.399154,"zip":"6250051"},{"town":"竜宮町","koaza":"","lat":35.480891,"lng":135.405973,"zip":"6250034"}]