[{"town":"粟生","koaza":"","lat":34.937151,"lng":135.676083,"zip":"6170811"},{"town":"泉が丘","koaza":"","lat":34.914593,"lng":135.683628,"zip":"6170846"},{"town":"一文橋一丁目","koaza":"","lat":34.9307,"lng":135.698761,"zip":"6170825"},{"town":"一文橋二丁目","koaza":"","lat":34.933971,"lng":135.69941,"zip":"6170825"},{"town":"一里塚","koaza":"","lat":34.925525,"lng":135.700187,"zip":"6170831"},{"town":"井ノ内","koaza":"","lat":34.942295,"lng":135.685174,"zip":"6170813"},{"town":"今里","koaza":"","lat":34.937988,"lng":135.694258,"zip":"6170814"},{"town":"今里一丁目","koaza":"","lat":34.932824,"lng":135.689707,"zip":"6170814"},{"town":"今里二丁目","koaza":"","lat":34.934236,"lng":135.689719,"zip":"6170814"},{"town":"今里三丁目","koaza":"","lat":34.935743,"lng":135.690022,"zip":"6170814"},{"town":"今里四丁目","koaza":"","lat":34.938132,"lng":135.690013,"zip":"6170814"},{"town":"今里五丁目","koaza":"","lat":34.936997,"lng":135.687118,"zip":"6170814"},{"town":"うぐいす台","koaza":"","lat":34.93305,"lng":135.684723,"zip":"6170815"},{"town":"梅が丘一丁目","koaza":"","lat":34.919996,"lng":135.687715,"zip":"6170841"},{"town":"梅が丘二丁目","koaza":"","lat":34.920004,"lng":135.685759,"zip":"6170841"},{"town":"梅が丘三丁目","koaza":"","lat":34.920379,"lng":135.683685,"zip":"6170841"},{"town":"奥海印寺","koaza":"","lat":34.924483,"lng":135.660777,"zip":"6170853"},{"town":"開田一丁目","koaza":"","lat":34.928769,"lng":135.696847,"zip":"6170826"},{"town":"開田二丁目","koaza":"","lat":34.924823,"lng":135.69749,"zip":"6170826"},{"town":"開田三丁目","koaza":"","lat":34.924909,"lng":135.69445,"zip":"6170826"},{"town":"開田四丁目","koaza":"","lat":34.921513,"lng":135.693483,"zip":"6170826"},{"town":"金ケ原","koaza":"","lat":34.913754,"lng":135.670734,"zip":"6170856"},{"town":"河陽が丘一丁目","koaza":"","lat":34.926272,"lng":135.673814,"zip":"6170852"},{"town":"河陽が丘二丁目","koaza":"","lat":34.928482,"lng":135.673121,"zip":"6170852"},{"town":"久貝一丁目","koaza":"","lat":34.913164,"lng":135.69651,"zip":"6170837"},{"town":"久貝二丁目","koaza":"","lat":34.912732,"lng":135.699386,"zip":"6170837"},{"town":"久貝三丁目","koaza":"","lat":34.91022,"lng":135.699901,"zip":"6170837"},{"town":"神足","koaza":"","lat":34.921132,"lng":135.709369,"zip":"6170833"},{"town":"神足一丁目","koaza":"","lat":34.924694,"lng":135.700199,"zip":"6170833"},{"town":"神足二丁目","koaza":"","lat":34.920358,"lng":135.698634,"zip":"6170833"},{"town":"神足三丁目","koaza":"","lat":34.920808,"lng":135.69694,"zip":"6170833"},{"town":"光風台","koaza":"","lat":34.930171,"lng":135.677949,"zip":"6170851"},{"town":"こがねが丘","koaza":"","lat":34.919287,"lng":135.671924,"zip":"6170854"},{"town":"柴の里","koaza":"","lat":34.936738,"lng":135.697278,"zip":"6170818"},{"town":"下海印寺","koaza":"","lat":34.917084,"lng":135.682795,"zip":"6170845"},{"town":"浄土谷","koaza":"","lat":34.909721,"lng":135.660826,"zip":"6170855"},{"town":"勝竜寺","koaza":"","lat":34.91331,"lng":135.705918,"zip":"6170836"},{"town":"城の里","koaza":"","lat":34.91624,"lng":135.705044,"zip":"6170835"},{"town":"高台一丁目","koaza":"","lat":34.92033,"lng":135.674491,"zip":"6170847"},{"town":"高台二丁目","koaza":"","lat":34.917973,"lng":135.676771,"zip":"6170847"},{"town":"高台三丁目","koaza":"","lat":34.915605,"lng":135.677015,"zip":"6170847"},{"town":"高台四丁目","koaza":"","lat":34.91393,"lng":135.675698,"zip":"6170847"},{"town":"高台西","koaza":"","lat":34.916411,"lng":135.672046,"zip":"6170857"},{"town":"滝ノ町一丁目","koaza":"","lat":34.940335,"lng":135.697322,"zip":"6170817"},{"town":"滝ノ町二丁目","koaza":"","lat":34.94426,"lng":135.694625,"zip":"6170817"},{"town":"竹の台","koaza":"","lat":34.920339,"lng":135.692707,"zip":"6170827"},{"town":"調子一丁目","koaza":"","lat":34.913311,"lng":135.693702,"zip":"6170844"},{"town":"調子二丁目","koaza":"","lat":34.910138,"lng":135.691086,"zip":"6170844"},{"town":"調子三丁目","koaza":"","lat":34.909443,"lng":135.69371,"zip":"6170844"},{"town":"長法寺","koaza":"","lat":34.932138,"lng":135.676774,"zip":"6170812"},{"town":"天神一丁目","koaza":"","lat":34.923394,"lng":135.690241,"zip":"6170824"},{"town":"天神二丁目","koaza":"","lat":34.923314,"lng":135.685162,"zip":"6170824"},{"town":"天神三丁目","koaza":"","lat":34.926822,"lng":135.684024,"zip":"6170824"},{"town":"天神四丁目","koaza":"","lat":34.928158,"lng":135.686235,"zip":"6170824"},{"town":"天神五丁目","koaza":"","lat":34.929707,"lng":135.686938,"zip":"6170824"},{"town":"東和苑","koaza":"","lat":34.923181,"lng":135.707707,"zip":"6170834"},{"town":"友岡","koaza":"","lat":34.916881,"lng":135.688639,"zip":"6170843"},{"town":"友岡一丁目","koaza":"","lat":34.918083,"lng":135.692379,"zip":"6170843"},{"town":"友岡二丁目","koaza":"","lat":34.916912,"lng":135.693996,"zip":"6170843"},{"town":"友岡三丁目","koaza":"","lat":34.914029,"lng":135.691868,"zip":"6170843"},{"town":"友岡四丁目","koaza":"","lat":34.91405,"lng":135.689911,"zip":"6170843"},{"town":"長岡一丁目","koaza":"","lat":34.929934,"lng":135.694172,"zip":"6170823"},{"town":"長岡二丁目","koaza":"","lat":34.928707,"lng":135.691094,"zip":"6170823"},{"town":"長岡三丁目","koaza":"","lat":34.932339,"lng":135.692062,"zip":"6170823"},{"town":"西の京","koaza":"","lat":34.944018,"lng":135.692664,"zip":"6170816"},{"town":"野添一丁目","koaza":"","lat":34.933247,"lng":135.696396,"zip":"6170821"},{"town":"野添二丁目","koaza":"","lat":34.933939,"lng":135.69413,"zip":"6170821"},{"town":"八条が丘一丁目","koaza":"","lat":34.928808,"lng":135.688738,"zip":"6170822"},{"town":"八条が丘二丁目","koaza":"","lat":34.930196,"lng":135.689766,"zip":"6170822"},{"town":"花山一丁目","koaza":"","lat":34.920998,"lng":135.68939,"zip":"6170842"},{"town":"花山二丁目","koaza":"","lat":34.919387,"lng":135.689507,"zip":"6170842"},{"town":"花山三丁目","koaza":"","lat":34.917921,"lng":135.68934,"zip":"6170842"},{"town":"馬場","koaza":"","lat":34.927549,"lng":135.708699,"zip":"6170828"},{"town":"馬場一丁目","koaza":"","lat":34.927684,"lng":135.700113,"zip":"6170828"},{"town":"馬場二丁目","koaza":"","lat":34.928292,"lng":135.702043,"zip":"6170828"},{"town":"東神足一丁目","koaza":"","lat":34.924251,"lng":135.702867,"zip":"6170832"},{"town":"東神足二丁目","koaza":"","lat":34.920759,"lng":135.701842,"zip":"6170832"},{"town":"緑が丘","koaza":"","lat":34.916903,"lng":135.696311,"zip":"6170838"},{"town":"奥海印寺","koaza":"野山","lat":34.930099,"lng":135.667574,"zip":"6170853"},{"town":"金ケ原","koaza":"金原寺","lat":34.917536,"lng":135.671212,"zip":"6170856"},{"town":"奥海印寺","koaza":"荒堀","lat":34.921117,"lng":135.672771,"zip":"6170853"},{"town":"奥海印寺","koaza":"鈴谷","lat":34.921064,"lng":135.669166,"zip":"6170853"},{"town":"金ケ原","koaza":"原田","lat":34.91749,"lng":135.669483,"zip":"6170856"},{"town":"奥海印寺","koaza":"西代","lat":34.923576,"lng":135.670267,"zip":"6170853"},{"town":"粟生","koaza":"西条内","lat":34.939151,"lng":135.67818,"zip":"6170811"},{"town":"奥海印寺","koaza":"片山田","lat":34.921965,"lng":135.671303,"zip":"6170853"},{"town":"奥海印寺","koaza":"竹ノ下","lat":34.922627,"lng":135.672561,"zip":"6170853"},{"town":"金ケ原","koaza":"芝","lat":34.91808,"lng":135.674031,"zip":"6170856"},{"town":"奥海印寺","koaza":"西垣外","lat":34.924348,"lng":135.672448,"zip":"6170853"},{"town":"奥海印寺","koaza":"山田","lat":34.919105,"lng":135.673524,"zip":"6170853"},{"town":"奥海印寺","koaza":"城","lat":34.923026,"lng":135.672945,"zip":"6170853"},{"town":"金ケ原","koaza":"上ノ谷","lat":34.916104,"lng":135.673331,"zip":"6170856"},{"town":"奥海印寺","koaza":"北垣外","lat":34.924575,"lng":135.673835,"zip":"6170853"},{"town":"奥海印寺","koaza":"条下裏","lat":34.925079,"lng":135.673555,"zip":"6170853"},{"town":"奥海印寺","koaza":"向イ山","lat":34.920716,"lng":135.67533,"zip":"6170853"},{"town":"金ケ原","koaza":"北裏","lat":34.916861,"lng":135.674268,"zip":"6170856"},{"town":"奥海印寺","koaza":"門ノ町","lat":34.923517,"lng":135.67393,"zip":"6170853"},{"town":"金ケ原","koaza":"勝坂","lat":34.917977,"lng":135.674689,"zip":"6170856"},{"town":"奥海印寺","koaza":"台田","lat":34.92393,"lng":135.674459,"zip":"6170853"},{"town":"長法寺","koaza":"祭ノ神","lat":34.933135,"lng":135.677826,"zip":"6170812"},{"town":"金ケ原","koaza":"寿先","lat":34.915679,"lng":135.67509,"zip":"6170856"},{"town":"金ケ原","koaza":"平井","lat":34.917567,"lng":135.675092,"zip":"6170856"},{"town":"奥海印寺","koaza":"奥ノ院","lat":34.929064,"lng":135.675053,"zip":"6170853"},{"town":"奥海印寺","koaza":"八戸木","lat":34.923252,"lng":135.675099,"zip":"6170853"},{"town":"奥海印寺","koaza":"新郷","lat":34.921665,"lng":135.675362,"zip":"6170853"},{"town":"粟生","koaza":"西条","lat":34.93784,"lng":135.677582,"zip":"6170811"},{"town":"奥海印寺","koaza":"大見坊","lat":34.925335,"lng":135.675834,"zip":"6170853"},{"town":"今里","koaza":"向イ芝","lat":34.943988,"lng":135.677131,"zip":"6170814"},{"town":"粟生","koaza":"弁天芝","lat":34.93675,"lng":135.678449,"zip":"6170811"},{"town":"奥海印寺","koaza":"普毛","lat":34.924531,"lng":135.676027,"zip":"6170853"},{"town":"金ケ原","koaza":"乙張","lat":34.916357,"lng":135.675643,"zip":"6170856"},{"town":"奥海印寺","koaza":"走田","lat":34.927619,"lng":135.676234,"zip":"6170853"},{"town":"奥海印寺","koaza":"火ノ尾","lat":34.92121,"lng":135.676826,"zip":"6170853"},{"town":"奥海印寺","koaza":"明神前","lat":34.926446,"lng":135.676642,"zip":"6170853"},{"town":"下海印寺","koaza":"菩提寺","lat":34.91894,"lng":135.677308,"zip":"6170845"},{"town":"奥海印寺","koaza":"多貝垣外","lat":34.923772,"lng":135.676316,"zip":"6170853"},{"town":"長法寺","koaza":"山ノ下","lat":34.93461,"lng":135.67788,"zip":"6170812"},{"town":"奥海印寺","koaza":"駿河田","lat":34.920133,"lng":135.677734,"zip":"6170853"},{"town":"奥海印寺","koaza":"東条","lat":34.924241,"lng":135.677058,"zip":"6170853"},{"town":"奥海印寺","koaza":"南垣外","lat":34.922216,"lng":135.67783,"zip":"6170853"},{"town":"奥海印寺","koaza":"新林","lat":34.928386,"lng":135.677995,"zip":"6170853"},{"town":"長法寺","koaza":"谷山","lat":34.932004,"lng":135.677719,"zip":"6170812"},{"town":"奥海印寺","koaza":"野辺田","lat":34.923251,"lng":135.677564,"zip":"6170853"},{"town":"下海印寺","koaza":"西山田","lat":34.917247,"lng":135.68098,"zip":"6170845"},{"town":"奥海印寺","koaza":"太鼓山","lat":34.924416,"lng":135.678998,"zip":"6170853"},{"town":"奥海印寺","koaza":"新度畑","lat":34.920891,"lng":135.678048,"zip":"6170853"},{"town":"井ノ内","koaza":"向井芝","lat":34.944484,"lng":135.679539,"zip":"6170813"},{"town":"奥海印寺","koaza":"北開","lat":34.927287,"lng":135.678857,"zip":"6170853"},{"town":"下海印寺","koaza":"西明寺","lat":34.914094,"lng":135.681346,"zip":"6170845"},{"town":"長法寺","koaza":"南谷","lat":34.932001,"lng":135.678702,"zip":"6170812"},{"town":"奥海印寺","koaza":"谷田","lat":34.926069,"lng":135.67968,"zip":"6170853"},{"town":"奥海印寺","koaza":"三反畑","lat":34.922114,"lng":135.678942,"zip":"6170853"},{"town":"下海印寺","koaza":"尾流","lat":34.919248,"lng":135.679199,"zip":"6170845"},{"town":"粟生","koaza":"北開","lat":34.938647,"lng":135.679619,"zip":"6170811"},{"town":"井ノ内","koaza":"坪井","lat":34.941929,"lng":135.680613,"zip":"6170813"},{"town":"粟生","koaza":"梶ケ前","lat":34.936843,"lng":135.679874,"zip":"6170811"},{"town":"奥海印寺","koaza":"坂ノ尻","lat":34.923051,"lng":135.679439,"zip":"6170853"},{"town":"下海印寺","koaza":"方丸","lat":34.919478,"lng":135.680412,"zip":"6170845"},{"town":"粟生","koaza":"川久保","lat":34.940142,"lng":135.680444,"zip":"6170811"},{"town":"奥海印寺","koaza":"森ノ下","lat":34.920976,"lng":135.679607,"zip":"6170853"},{"town":"長法寺","koaza":"北畠","lat":34.935593,"lng":135.68072,"zip":"6170812"},{"town":"粟生","koaza":"長通","lat":34.937691,"lng":135.681345,"zip":"6170811"},{"town":"長法寺","koaza":"北溝口","lat":34.933975,"lng":135.680345,"zip":"6170812"},{"town":"長法寺","koaza":"南溝口","lat":34.9332,"lng":135.680187,"zip":"6170812"},{"town":"長法寺","koaza":"力池","lat":34.930265,"lng":135.680287,"zip":"6170812"},{"town":"長法寺","koaza":"谷","lat":34.934659,"lng":135.681632,"zip":"6170812"},{"town":"粟生","koaza":"六反田","lat":34.938517,"lng":135.681322,"zip":"6170811"},{"town":"下海印寺","koaza":"西条","lat":34.917767,"lng":135.68209,"zip":"6170845"},{"town":"奥海印寺","koaza":"岡本","lat":34.922014,"lng":135.680598,"zip":"6170853"},{"town":"長法寺","koaza":"北篠谷","lat":34.933173,"lng":135.681275,"zip":"6170812"},{"town":"長法寺","koaza":"南篠谷","lat":34.931469,"lng":135.680954,"zip":"6170812"},{"town":"奥海印寺","koaza":"下条","lat":34.920681,"lng":135.681074,"zip":"6170853"},{"town":"粟生","koaza":"田内","lat":34.936622,"lng":135.681789,"zip":"6170811"},{"town":"奥海印寺","koaza":"東山","lat":34.922487,"lng":135.681253,"zip":"6170853"},{"town":"今里","koaza":"南平尾","lat":34.927698,"lng":135.682063,"zip":"6170814"},{"town":"井ノ内","koaza":"頭本","lat":34.944052,"lng":135.683349,"zip":"6170813"},{"town":"長法寺","koaza":"南野","lat":34.930402,"lng":135.68224,"zip":"6170812"},{"town":"井ノ内","koaza":"宮山","lat":34.942911,"lng":135.683038,"zip":"6170813"},{"town":"下海印寺","koaza":"上内田","lat":34.916773,"lng":135.683133,"zip":"6170845"},{"town":"長法寺","koaza":"北新面","lat":34.933836,"lng":135.682429,"zip":"6170812"},{"town":"井ノ内","koaza":"朝日寺","lat":34.94035,"lng":135.681584,"zip":"6170813"},{"town":"下海印寺","koaza":"北条","lat":34.919629,"lng":135.682342,"zip":"6170845"},{"town":"長法寺","koaza":"中畠","lat":34.932764,"lng":135.682735,"zip":"6170812"},{"town":"下海印寺","koaza":"東山","lat":34.921352,"lng":135.681851,"zip":"6170845"},{"town":"井ノ内","koaza":"小西","lat":34.94121,"lng":135.68282,"zip":"6170813"},{"town":"長法寺","koaza":"清水ケ瀬","lat":34.931698,"lng":135.682966,"zip":"6170812"},{"town":"長法寺","koaza":"川原谷","lat":34.929313,"lng":135.683553,"zip":"6170812"},{"town":"下海印寺","koaza":"川向井","lat":34.916234,"lng":135.684483,"zip":"6170845"},{"town":"井ノ内","koaza":"広海道","lat":34.942301,"lng":135.685045,"zip":"6170813"},{"town":"井ノ内","koaza":"白海道","lat":34.940577,"lng":135.684239,"zip":"6170813"},{"town":"粟生","koaza":"畑ケ田","lat":34.939308,"lng":135.684245,"zip":"6170811"},{"town":"今里","koaza":"蓮ケ糸","lat":34.93946,"lng":135.686744,"zip":"6170814"},{"town":"長法寺","koaza":"芝端","lat":34.930347,"lng":135.684052,"zip":"6170812"},{"town":"下海印寺","koaza":"横山","lat":34.918751,"lng":135.685717,"zip":"6170845"},{"town":"今里","koaza":"薬師堂","lat":34.934849,"lng":135.684697,"zip":"6170814"},{"town":"今里","koaza":"彦林","lat":34.936256,"lng":135.684888,"zip":"6170814"},{"town":"下海印寺","koaza":"東条","lat":34.917832,"lng":135.684978,"zip":"6170845"},{"town":"井ノ内","koaza":"横ケ端","lat":34.940135,"lng":135.685548,"zip":"6170813"},{"town":"今里","koaza":"細塚","lat":34.931118,"lng":135.684876,"zip":"6170814"},{"town":"下海印寺","koaza":"南谷","lat":34.913247,"lng":135.685157,"zip":"6170845"},{"town":"下海印寺","koaza":"岸ノ下","lat":34.916062,"lng":135.685075,"zip":"6170845"},{"town":"下海印寺","koaza":"下内田","lat":34.916424,"lng":135.686252,"zip":"6170845"},{"town":"今里","koaza":"西ノ口","lat":34.934262,"lng":135.686238,"zip":"6170814"},{"town":"下海印寺","koaza":"伊賀寺","lat":34.916579,"lng":135.687334,"zip":"6170845"},{"town":"井ノ内","koaza":"北内畑","lat":34.94331,"lng":135.688811,"zip":"6170813"},{"town":"井ノ内","koaza":"西ノ口","lat":34.943396,"lng":135.686304,"zip":"6170813"},{"town":"今里","koaza":"藤ノ木","lat":34.933041,"lng":135.686486,"zip":"6170814"},{"town":"井ノ内","koaza":"南内畑","lat":34.941486,"lng":135.688333,"zip":"6170813"},{"town":"友岡","koaza":"川向イ","lat":34.913128,"lng":135.686878,"zip":"6170843"},{"town":"井ノ内","koaza":"北裏","lat":34.94451,"lng":135.688934,"zip":"6170813"},{"town":"友岡","koaza":"川原","lat":34.913374,"lng":135.68818,"zip":"6170843"},{"town":"井ノ内","koaza":"坂川","lat":34.939916,"lng":135.68918,"zip":"6170813"},{"town":"下海印寺","koaza":"樽井","lat":34.914725,"lng":135.688089,"zip":"6170845"},{"town":"友岡","koaza":"西畑","lat":34.915502,"lng":135.688508,"zip":"6170843"},{"town":"友岡","koaza":"西山","lat":34.918046,"lng":135.68839,"zip":"6170843"},{"town":"今里","koaza":"赤ノ上","lat":34.939594,"lng":135.688941,"zip":"6170814"},{"town":"井ノ内","koaza":"的田","lat":34.944796,"lng":135.689842,"zip":"6170813"},{"town":"井ノ内","koaza":"玉ノ上","lat":34.943739,"lng":135.689868,"zip":"6170813"},{"town":"友岡","koaza":"山王","lat":34.915654,"lng":135.689095,"zip":"6170843"},{"town":"井ノ内","koaza":"下東ノ口","lat":34.941291,"lng":135.690226,"zip":"6170813"},{"town":"今里","koaza":"更ノ町","lat":34.940356,"lng":135.6927,"zip":"6170814"},{"town":"井ノ内","koaza":"上東ノ口","lat":34.942744,"lng":135.690115,"zip":"6170813"},{"town":"井ノ内","koaza":"上印田","lat":34.942384,"lng":135.691014,"zip":"6170813"},{"town":"井ノ内","koaza":"下印田","lat":34.941619,"lng":135.692313,"zip":"6170813"},{"town":"今里","koaza":"北ノ町","lat":34.935486,"lng":135.694169,"zip":"6170814"},{"town":"今里","koaza":"庄ノ渕","lat":34.937594,"lng":135.692657,"zip":"6170814"},{"town":"今里","koaza":"畔町","lat":34.938864,"lng":135.692358,"zip":"6170814"},{"town":"今里","koaza":"桃ケ本","lat":34.937613,"lng":135.694116,"zip":"6170814"},{"town":"今里","koaza":"樋ノ尻","lat":34.939344,"lng":135.695541,"zip":"6170814"},{"town":"今里","koaza":"貝川","lat":34.937405,"lng":135.696468,"zip":"6170814"},{"town":"今里","koaza":"川原","lat":34.938469,"lng":135.696933,"zip":"6170814"},{"town":"勝竜寺","koaza":"三枚田","lat":34.914738,"lng":135.703265,"zip":"6170836"},{"town":"勝竜寺","koaza":"西町一","lat":34.909863,"lng":135.702975,"zip":"6170836"},{"town":"勝竜寺","koaza":"二ノ坪","lat":34.91069,"lng":135.702893,"zip":"6170836"},{"town":"勝竜寺","koaza":"巡り原","lat":34.913287,"lng":135.702638,"zip":"6170836"},{"town":"馬場","koaza":"民家浦","lat":34.926381,"lng":135.702605,"zip":"6170828"},{"town":"馬場","koaza":"川原","lat":34.927197,"lng":135.703809,"zip":"6170828"},{"town":"馬場","koaza":"井料田","lat":34.927707,"lng":135.705129,"zip":"6170828"},{"town":"馬場","koaza":"人塚","lat":34.928653,"lng":135.703668,"zip":"6170828"},{"town":"勝竜寺","koaza":"町一","lat":34.909485,"lng":135.705207,"zip":"6170836"},{"town":"勝竜寺","koaza":"一町田","lat":34.910694,"lng":135.705755,"zip":"6170836"},{"town":"勝竜寺","koaza":"八ノ坪","lat":34.913878,"lng":135.704257,"zip":"6170836"},{"town":"勝竜寺","koaza":"店ノ前","lat":34.911137,"lng":135.704084,"zip":"6170836"},{"town":"神足","koaza":"北川原","lat":34.925793,"lng":135.704273,"zip":"6170833"},{"town":"神足","koaza":"太田","lat":34.917756,"lng":135.707195,"zip":"6170833"},{"town":"勝竜寺","koaza":"蔵道","lat":34.911612,"lng":135.705819,"zip":"6170836"},{"town":"神足","koaza":"木寺町","lat":34.918755,"lng":135.705186,"zip":"6170833"},{"town":"勝竜寺","koaza":"近竹","lat":34.912979,"lng":135.705189,"zip":"6170836"},{"town":"神足","koaza":"堂ケ園","lat":34.921111,"lng":135.704861,"zip":"6170833"},{"town":"神足","koaza":"イドタ","lat":34.920658,"lng":135.70483,"zip":"6170833"},{"town":"神足","koaza":"芝本","lat":34.922201,"lng":135.70496,"zip":"6170833"},{"town":"神足","koaza":"屋敷","lat":34.924241,"lng":135.705145,"zip":"6170833"},{"town":"神足","koaza":"稲葉","lat":34.919761,"lng":135.704805,"zip":"6170833"},{"town":"勝竜寺","koaza":"尻細","lat":34.915045,"lng":135.705224,"zip":"6170836"},{"town":"神足","koaza":"掛越","lat":34.925808,"lng":135.705398,"zip":"6170833"},{"town":"馬場","koaza":"見場走り","lat":34.926637,"lng":135.706895,"zip":"6170828"},{"town":"勝竜寺","koaza":"樋ノ口","lat":34.908921,"lng":135.706773,"zip":"6170836"},{"town":"神足","koaza":"森本","lat":34.922792,"lng":135.705944,"zip":"6170833"},{"town":"勝竜寺","koaza":"西川原田","lat":34.913891,"lng":135.706829,"zip":"6170836"},{"town":"神足","koaza":"垣外ケ内","lat":34.92367,"lng":135.705918,"zip":"6170833"},{"town":"神足","koaza":"ミドロ","lat":34.924828,"lng":135.706351,"zip":"6170833"},{"town":"勝竜寺","koaza":"南川原田","lat":34.91292,"lng":135.706453,"zip":"6170836"},{"town":"神足","koaza":"堂ケ内","lat":34.925593,"lng":135.707324,"zip":"6170833"},{"town":"神足","koaza":"焼町","lat":34.919871,"lng":135.707071,"zip":"6170833"},{"town":"勝竜寺","koaza":"西落辺","lat":34.914552,"lng":135.707518,"zip":"6170836"},{"town":"勝竜寺","koaza":"下長黒","lat":34.910963,"lng":135.70731,"zip":"6170836"},{"town":"勝竜寺","koaza":"八反田","lat":34.911501,"lng":135.70811,"zip":"6170836"},{"town":"勝竜寺","koaza":"宮田","lat":34.912356,"lng":135.708893,"zip":"6170836"},{"town":"神足","koaza":"大張","lat":34.921763,"lng":135.708904,"zip":"6170833"},{"town":"神足","koaza":"柳田","lat":34.920782,"lng":135.708704,"zip":"6170833"},{"town":"馬場","koaza":"図所","lat":34.927563,"lng":135.71038,"zip":"6170828"},{"town":"馬場","koaza":"北石ケ町","lat":34.928583,"lng":135.708852,"zip":"6170828"},{"town":"勝竜寺","koaza":"東落辺","lat":34.914895,"lng":135.708671,"zip":"6170836"},{"town":"勝竜寺","koaza":"蔵本","lat":34.915671,"lng":135.708796,"zip":"6170836"},{"town":"神足","koaza":"四ノ坪","lat":34.92465,"lng":135.709305,"zip":"6170833"},{"town":"神足","koaza":"神田","lat":34.925517,"lng":135.708862,"zip":"6170833"},{"town":"神足","koaza":"暮角","lat":34.918464,"lng":135.709477,"zip":"6170833"},{"town":"神足","koaza":"下八ノ坪","lat":34.919691,"lng":135.711914,"zip":"6170833"},{"town":"勝竜寺","koaza":"山崎作","lat":34.910488,"lng":135.709086,"zip":"6170836"},{"town":"神足","koaza":"芦原","lat":34.916717,"lng":135.709896,"zip":"6170833"},{"town":"神足","koaza":"麦生","lat":34.923673,"lng":135.709961,"zip":"6170833"},{"town":"神足","koaza":"雲宮","lat":34.922626,"lng":135.710211,"zip":"6170833"},{"town":"神足","koaza":"南薄井","lat":34.917739,"lng":135.709295,"zip":"6170833"},{"town":"神足","koaza":"七ノ坪","lat":34.920696,"lng":135.711241,"zip":"6170833"},{"town":"勝竜寺","koaza":"飛尾","lat":34.915667,"lng":135.710336,"zip":"6170836"},{"town":"勝竜寺","koaza":"六ノ坪","lat":34.914818,"lng":135.710195,"zip":"6170836"},{"town":"馬場","koaza":"六ノ坪","lat":34.926547,"lng":135.71318,"zip":"6170828"},{"town":"勝竜寺","koaza":"長黒","lat":34.913578,"lng":135.710226,"zip":"6170836"},{"town":"神足","koaza":"上八ノ坪","lat":34.92558,"lng":135.710891,"zip":"6170833"},{"town":"神足","koaza":"寺田","lat":34.922772,"lng":135.711893,"zip":"6170833"},{"town":"神足","koaza":"四反田","lat":34.925087,"lng":135.711471,"zip":"6170833"},{"town":"神足","koaza":"塚田","lat":34.918126,"lng":135.712506,"zip":"6170833"},{"town":"神足","koaza":"拾弐","lat":34.921626,"lng":135.712067,"zip":"6170833"},{"town":"神足","koaza":"十ケ坪","lat":34.917987,"lng":135.71154,"zip":"6170833"},{"town":"神足","koaza":"桑ケ本","lat":34.916772,"lng":135.71159,"zip":"6170833"},{"town":"神足","koaza":"五反田","lat":34.917439,"lng":135.713517,"zip":"6170833"},{"town":"神足","koaza":"典薬","lat":34.923618,"lng":135.714743,"zip":"6170833"},{"town":"馬場","koaza":"餅田","lat":34.92796,"lng":135.713426,"zip":"6170828"},{"town":"神足","koaza":"落述","lat":34.921577,"lng":135.714241,"zip":"6170833"},{"town":"神足","koaza":"橋本","lat":34.925132,"lng":135.714337,"zip":"6170833"},{"town":"神足","koaza":"棚次","lat":34.924649,"lng":135.715496,"zip":"6170833"},{"town":"金ケ原","koaza":"御所ノ内","lat":34.914861,"lng":135.674798,"zip":"6170856"},{"town":"金ケ原","koaza":"谷田","lat":34.915979,"lng":135.671034,"zip":"6170856"},{"town":"奥海印寺","koaza":"条下","lat":34.92515,"lng":135.672129,"zip":"6170853"}]