[{"town":"氏家","koaza":"","lat":36.686776,"lng":139.966872,"zip":"3291311"},{"town":"氏家新田","koaza":"","lat":36.673931,"lng":139.986256,"zip":"3291315"},{"town":"卯の里一丁目","koaza":"","lat":36.683325,"lng":139.957448,"zip":"3291323"},{"town":"卯の里二丁目","koaza":"","lat":36.683767,"lng":139.959929,"zip":"3291323"},{"town":"卯の里三丁目","koaza":"","lat":36.679483,"lng":139.9613,"zip":"3291323"},{"town":"卯の里四丁目","koaza":"","lat":36.679121,"lng":139.959113,"zip":"3291323"},{"town":"卯の里五丁目","koaza":"","lat":36.676868,"lng":139.960883,"zip":"3291323"},{"town":"上野","koaza":"","lat":36.687644,"lng":139.987455,"zip":"3291306"},{"town":"小入","koaza":"","lat":36.727891,"lng":139.994082,"zip":"3291415"},{"town":"大中","koaza":"","lat":36.680937,"lng":139.951101,"zip":"3291325"},{"town":"押上","koaza":"","lat":36.710983,"lng":139.931484,"zip":"3291334"},{"town":"柿木澤","koaza":"","lat":36.672561,"lng":140.005037,"zip":"3291300"},{"town":"柿木澤新田","koaza":"","lat":36.680856,"lng":139.992862,"zip":"3291300"},{"town":"鍛冶ケ澤","koaza":"","lat":36.688484,"lng":140.029158,"zip":"3291300"},{"town":"葛城","koaza":"","lat":36.703611,"lng":140.041737,"zip":"3291413"},{"town":"金枝","koaza":"","lat":36.742829,"lng":140.042482,"zip":"3291405"},{"town":"鹿子畑","koaza":"","lat":36.729362,"lng":140.058182,"zip":"3291404"},{"town":"蒲須坂","koaza":"","lat":36.723111,"lng":139.949421,"zip":"3291332"},{"town":"上阿久津","koaza":"","lat":36.651274,"lng":139.960741,"zip":"3291316"},{"town":"上河戸","koaza":"","lat":36.786502,"lng":139.992818,"zip":"3291401"},{"town":"北草川一丁目","koaza":"","lat":36.688466,"lng":139.952143,"zip":"3291322"},{"town":"北草川二丁目","koaza":"","lat":36.686541,"lng":139.955294,"zip":"3291322"},{"town":"喜連川","koaza":"","lat":36.731622,"lng":140.008552,"zip":"3291412"},{"town":"草川","koaza":"","lat":36.681676,"lng":139.955196,"zip":"3291324"},{"town":"桜ヶ丘一丁目","koaza":"","lat":36.745574,"lng":140.009932,"zip":"3291300"},{"town":"桜ヶ丘二丁目","koaza":"","lat":36.748798,"lng":140.008382,"zip":"3291300"},{"town":"桜ヶ丘三丁目","koaza":"","lat":36.748118,"lng":140.01147,"zip":"3291300"},{"town":"櫻野","koaza":"","lat":36.686695,"lng":139.977236,"zip":"3291312"},{"town":"下河戸","koaza":"","lat":36.766301,"lng":140.013265,"zip":"3291402"},{"town":"早乙女","koaza":"","lat":36.711355,"lng":140.007538,"zip":"3291414"},{"town":"富野岡","koaza":"","lat":36.695681,"lng":139.944043,"zip":"3291327"},{"town":"長久保","koaza":"","lat":36.709877,"lng":139.950998,"zip":"3291333"},{"town":"箱森新田","koaza":"","lat":36.720294,"lng":139.969827,"zip":"3291301"},{"town":"狹間田","koaza":"","lat":36.685339,"lng":140.008887,"zip":"3291305"},{"town":"馬場","koaza":"","lat":36.696954,"lng":139.954796,"zip":"3291321"},{"town":"フィオーレ喜連川一丁目","koaza":"","lat":36.736101,"lng":140.031383,"zip":"3291417"},{"town":"フィオーレ喜連川二丁目","koaza":"","lat":36.733562,"lng":140.029417,"zip":"3291417"},{"town":"フィオーレ喜連川三丁目","koaza":"","lat":36.736393,"lng":140.027059,"zip":"3291417"},{"town":"フィオーレ喜連川四丁目","koaza":"","lat":36.741118,"lng":140.02641,"zip":"3291417"},{"town":"フィオーレ喜連川五丁目","koaza":"","lat":36.742395,"lng":140.027732,"zip":"3291417"},{"town":"穂積","koaza":"","lat":36.758704,"lng":140.06082,"zip":"3291403"},{"town":"松島","koaza":"","lat":36.734402,"lng":139.97397,"zip":"3291331"},{"town":"松山","koaza":"","lat":36.701515,"lng":139.994263,"zip":"3291303"},{"town":"松山新田","koaza":"","lat":36.711236,"lng":139.980365,"zip":"3291302"},{"town":"南和田","koaza":"","lat":36.755157,"lng":140.029238,"zip":"3291406"},{"town":"向河原","koaza":"","lat":36.696793,"lng":139.936451,"zip":"3291326"},{"town":"鷲宿","koaza":"","lat":36.750863,"lng":139.987274,"zip":"3291411"},{"town":"喜連川","koaza":"鍬柄坂下","lat":36.721393,"lng":140.040023,"zip":"3291412"},{"town":"櫻野","koaza":"八幡","lat":36.681156,"lng":139.97069,"zip":"3291312"}]