[{"town":"石橋","koaza":"","lat":36.435221,"lng":139.861396,"zip":"3290511"},{"town":"磯部","koaza":"","lat":36.380142,"lng":139.901475,"zip":"3230111"},{"town":"医大前一丁目","koaza":"","lat":36.393614,"lng":139.852488,"zip":"3290403"},{"town":"医大前二丁目","koaza":"","lat":36.396616,"lng":139.854499,"zip":"3290403"},{"town":"医大前三丁目","koaza":"","lat":36.396177,"lng":139.856012,"zip":"3290403"},{"town":"医大前四丁目","koaza":"","lat":36.393076,"lng":139.854378,"zip":"3290403"},{"town":"駅東一丁目","koaza":"","lat":36.371938,"lng":139.842843,"zip":"3290413"},{"town":"駅東二丁目","koaza":"","lat":36.374279,"lng":139.844288,"zip":"3290413"},{"town":"駅東三丁目","koaza":"","lat":36.376405,"lng":139.845195,"zip":"3290413"},{"town":"駅東四丁目","koaza":"","lat":36.376675,"lng":139.847893,"zip":"3290413"},{"town":"駅東五丁目","koaza":"","lat":36.373498,"lng":139.847061,"zip":"3290413"},{"town":"駅東六丁目","koaza":"","lat":36.371647,"lng":139.84604,"zip":"3290413"},{"town":"駅東七丁目","koaza":"","lat":36.369359,"lng":139.84427,"zip":"3290413"},{"town":"大松山一丁目","koaza":"","lat":36.430944,"lng":139.85509,"zip":"3290519"},{"town":"上川島","koaza":"","lat":36.389398,"lng":139.913856,"zip":"3230103"},{"town":"上古山","koaza":"","lat":36.474089,"lng":139.856062,"zip":"3290501"},{"town":"上台","koaza":"","lat":36.438811,"lng":139.834582,"zip":"3290504"},{"town":"上大領","koaza":"","lat":36.434582,"lng":139.849141,"zip":"3290517"},{"town":"上坪山","koaza":"","lat":36.367083,"lng":139.897654,"zip":"3230113"},{"town":"上吉田","koaza":"","lat":36.386634,"lng":139.918304,"zip":"3230102"},{"town":"烏ケ森一丁目","koaza":"","lat":36.383539,"lng":139.853907,"zip":"3290411"},{"town":"烏ケ森二丁目","koaza":"","lat":36.381286,"lng":139.856538,"zip":"3290411"},{"town":"川中子","koaza":"","lat":36.383633,"lng":139.826056,"zip":"3290415"},{"town":"祇園一丁目","koaza":"","lat":36.393883,"lng":139.857119,"zip":"3290434"},{"town":"祇園二丁目","koaza":"","lat":36.394308,"lng":139.860846,"zip":"3290434"},{"town":"祇園三丁目","koaza":"","lat":36.391418,"lng":139.858938,"zip":"3290434"},{"town":"祇園四丁目","koaza":"","lat":36.390193,"lng":139.860845,"zip":"3290434"},{"town":"祇園五丁目","koaza":"","lat":36.389425,"lng":139.863652,"zip":"3290434"},{"town":"絹板","koaza":"","lat":36.355876,"lng":139.884996,"zip":"3230114"},{"town":"小金井","koaza":"","lat":36.391447,"lng":139.843796,"zip":"3290414"},{"town":"小金井一丁目","koaza":"","lat":36.383521,"lng":139.842273,"zip":"3290414"},{"town":"小金井二丁目","koaza":"","lat":36.385289,"lng":139.83991,"zip":"3290414"},{"town":"小金井三丁目","koaza":"","lat":36.381131,"lng":139.836952,"zip":"3290414"},{"town":"小金井四丁目","koaza":"","lat":36.379837,"lng":139.840081,"zip":"3290414"},{"town":"小金井五丁目","koaza":"","lat":36.376405,"lng":139.837594,"zip":"3290414"},{"town":"小金井六丁目","koaza":"","lat":36.374359,"lng":139.836423,"zip":"3290414"},{"town":"国分寺","koaza":"","lat":36.390963,"lng":139.808024,"zip":"3290417"},{"town":"笹原","koaza":"","lat":36.39897,"lng":139.85246,"zip":"3290402"},{"town":"三王山","koaza":"","lat":36.393714,"lng":139.909656,"zip":"3230101"},{"town":"柴","koaza":"","lat":36.366978,"lng":139.851113,"zip":"3290412"},{"town":"下石橋","koaza":"","lat":36.419814,"lng":139.858948,"zip":"3290512"},{"town":"下古山","koaza":"","lat":36.455302,"lng":139.855881,"zip":"3290502"},{"town":"下古山一丁目","koaza":"","lat":36.441861,"lng":139.857126,"zip":"3290502"},{"town":"下古山二丁目","koaza":"","lat":36.443435,"lng":139.857815,"zip":"3290502"},{"town":"下古山三丁目","koaza":"","lat":36.447238,"lng":139.860372,"zip":"3290502"},{"town":"下大領","koaza":"","lat":36.412832,"lng":139.84453,"zip":"3290513"},{"town":"下坪山","koaza":"","lat":36.365216,"lng":139.876145,"zip":"3230115"},{"town":"下長田","koaza":"","lat":36.453771,"lng":139.839591,"zip":"3290503"},{"town":"下文狹","koaza":"","lat":36.388798,"lng":139.890532,"zip":"3290424"},{"town":"下吉田","koaza":"","lat":36.359922,"lng":139.907317,"zip":"3230106"},{"town":"大光寺一丁目","koaza":"","lat":36.429966,"lng":139.852606,"zip":"3290516"},{"town":"大光寺二丁目","koaza":"","lat":36.430028,"lng":139.850739,"zip":"3290516"},{"town":"田中","koaza":"","lat":36.393185,"lng":139.889053,"zip":"3290425"},{"town":"中川島","koaza":"","lat":36.385987,"lng":139.911639,"zip":"3230104"},{"town":"中大領","koaza":"","lat":36.422333,"lng":139.844231,"zip":"3290515"},{"town":"成田","koaza":"","lat":36.414948,"lng":139.88848,"zip":"3290421"},{"town":"仁良川","koaza":"","lat":36.377237,"lng":139.877053,"zip":"3290432"},{"town":"橋本","koaza":"","lat":36.414563,"lng":139.83201,"zip":"3290506"},{"town":"花田","koaza":"","lat":36.359065,"lng":139.875908,"zip":"3230116"},{"town":"花の木一丁目","koaza":"","lat":36.431476,"lng":139.861888,"zip":"3290518"},{"town":"花の木二丁目","koaza":"","lat":36.430744,"lng":139.858558,"zip":"3290518"},{"town":"花の木三丁目","koaza":"","lat":36.429644,"lng":139.860221,"zip":"3290518"},{"town":"東根","koaza":"","lat":36.380759,"lng":139.890657,"zip":"3230112"},{"town":"東前原","koaza":"","lat":36.418839,"lng":139.847461,"zip":"3290514"},{"town":"文教一丁目","koaza":"","lat":36.442025,"lng":139.862216,"zip":"3290507"},{"town":"文教二丁目","koaza":"","lat":36.445402,"lng":139.862421,"zip":"3290507"},{"town":"文教三丁目","koaza":"","lat":36.44827,"lng":139.862847,"zip":"3290507"},{"town":"別当河原","koaza":"","lat":36.376335,"lng":139.906027,"zip":"3230107"},{"town":"細谷","koaza":"","lat":36.42648,"lng":139.836701,"zip":"3290505"},{"town":"町田","koaza":"","lat":36.404623,"lng":139.889803,"zip":"3290422"},{"town":"緑一丁目","koaza":"","lat":36.388342,"lng":139.853854,"zip":"3290433"},{"town":"緑二丁目","koaza":"","lat":36.384997,"lng":139.851186,"zip":"3290433"},{"town":"緑三丁目","koaza":"","lat":36.387667,"lng":139.856155,"zip":"3290433"},{"town":"緑四丁目","koaza":"","lat":36.386764,"lng":139.858691,"zip":"3290433"},{"town":"緑五丁目","koaza":"","lat":36.385729,"lng":139.860449,"zip":"3290433"},{"town":"緑六丁目","koaza":"","lat":36.382575,"lng":139.857931,"zip":"3290433"},{"town":"箕輪","koaza":"","lat":36.39935,"lng":139.831334,"zip":"3290401"},{"town":"紫","koaza":"","lat":36.379356,"lng":139.811656,"zip":"3290418"},{"town":"本吉田","koaza":"","lat":36.370303,"lng":139.911971,"zip":"3230105"},{"town":"薬師寺","koaza":"","lat":36.399224,"lng":139.871994,"zip":"3290431"},{"town":"谷地賀","koaza":"","lat":36.394235,"lng":139.896052,"zip":"3290423"}]