[{"town":"あけぼの町","koaza":"","lat":36.46455,"lng":139.824106,"zip":"3210206"},{"town":"いずみ町","koaza":"","lat":36.461459,"lng":139.828972,"zip":"3210213"},{"town":"駅東町","koaza":"","lat":36.422699,"lng":139.806975,"zip":"3210222"},{"town":"大字上稲葉","koaza":"","lat":36.451777,"lng":139.777949,"zip":"3210200"},{"town":"大字上田","koaza":"","lat":36.500036,"lng":139.813636,"zip":"3210200"},{"town":"大字北小林","koaza":"","lat":36.478835,"lng":139.819938,"zip":"3210200"},{"town":"大字国谷","koaza":"","lat":36.458674,"lng":139.811371,"zip":"3210200"},{"town":"大字下稲葉","koaza":"","lat":36.438471,"lng":139.778009,"zip":"3210200"},{"town":"大字助谷","koaza":"","lat":36.472793,"lng":139.804422,"zip":"3210200"},{"town":"大字中泉","koaza":"","lat":36.493272,"lng":139.800036,"zip":"3210200"},{"town":"大字七ツ石","koaza":"","lat":36.46337,"lng":139.764062,"zip":"3210200"},{"town":"大字羽生田","koaza":"","lat":36.472578,"lng":139.780817,"zip":"3210200"},{"town":"大字福和田","koaza":"","lat":36.452851,"lng":139.793826,"zip":"3210200"},{"town":"大字藤井","koaza":"","lat":36.415744,"lng":139.818012,"zip":"3210200"},{"town":"大字壬生乙","koaza":"","lat":36.415484,"lng":139.795368,"zip":"3210200"},{"town":"大字壬生甲","koaza":"","lat":36.434866,"lng":139.806634,"zip":"3210200"},{"town":"大字壬生丁","koaza":"","lat":36.450558,"lng":139.828689,"zip":"3210200"},{"town":"大字壬生丙","koaza":"","lat":36.454076,"lng":139.825722,"zip":"3210200"},{"town":"大字安塚","koaza":"","lat":36.485287,"lng":139.832878,"zip":"3210200"},{"town":"落合一丁目","koaza":"","lat":36.450315,"lng":139.818697,"zip":"3210218"},{"town":"落合二丁目","koaza":"","lat":36.454097,"lng":139.819435,"zip":"3210218"},{"town":"落合三丁目","koaza":"","lat":36.455469,"lng":139.821223,"zip":"3210218"},{"town":"おもちゃのまち一丁目","koaza":"","lat":36.464124,"lng":139.836743,"zip":"3210202"},{"town":"おもちゃのまち二丁目","koaza":"","lat":36.46716,"lng":139.835993,"zip":"3210202"},{"town":"おもちゃのまち三丁目","koaza":"","lat":36.463768,"lng":139.841024,"zip":"3210202"},{"town":"おもちゃのまち四丁目","koaza":"","lat":36.467572,"lng":139.84015,"zip":"3210202"},{"town":"おもちゃのまち五丁目","koaza":"","lat":36.46593,"lng":139.844058,"zip":"3210202"},{"town":"表町","koaza":"","lat":36.414743,"lng":139.801589,"zip":"3210224"},{"town":"寿町","koaza":"","lat":36.459715,"lng":139.824509,"zip":"3210212"},{"town":"幸町一丁目","koaza":"","lat":36.464224,"lng":139.829591,"zip":"3210203"},{"town":"幸町二丁目","koaza":"","lat":36.467288,"lng":139.831741,"zip":"3210203"},{"town":"幸町三丁目","koaza":"","lat":36.464223,"lng":139.832113,"zip":"3210203"},{"town":"幸町四丁目","koaza":"","lat":36.463426,"lng":139.834853,"zip":"3210203"},{"town":"至宝一丁目","koaza":"","lat":36.451722,"lng":139.822664,"zip":"3210217"},{"town":"至宝二丁目","koaza":"","lat":36.456229,"lng":139.825315,"zip":"3210217"},{"town":"至宝三丁目","koaza":"","lat":36.46028,"lng":139.826675,"zip":"3210217"},{"town":"大師町","koaza":"","lat":36.432456,"lng":139.800403,"zip":"3210228"},{"town":"中央町","koaza":"","lat":36.423236,"lng":139.803751,"zip":"3210226"},{"town":"通町","koaza":"","lat":36.428136,"lng":139.80362,"zip":"3210227"},{"town":"本丸一丁目","koaza":"","lat":36.429014,"lng":139.798141,"zip":"3210225"},{"town":"本丸二丁目","koaza":"","lat":36.422618,"lng":139.798521,"zip":"3210225"},{"town":"緑町一丁目","koaza":"","lat":36.465412,"lng":139.827696,"zip":"3210204"},{"town":"緑町二丁目","koaza":"","lat":36.467958,"lng":139.828541,"zip":"3210204"},{"town":"緑町三丁目","koaza":"","lat":36.470359,"lng":139.82932,"zip":"3210204"},{"town":"緑町四丁目","koaza":"","lat":36.472629,"lng":139.830116,"zip":"3210204"},{"town":"みぶ羽生田産業団地","koaza":"","lat":36.483928,"lng":139.783421,"zip":"3210238"},{"town":"元町","koaza":"","lat":36.416143,"lng":139.806593,"zip":"3210223"},{"town":"若草町","koaza":"","lat":36.463258,"lng":139.827225,"zip":"3210205"}]