[{"town":"相生町","koaza":"","lat":36.314003,"lng":139.582933,"zip":"3270023"},{"town":"会沢町","koaza":"","lat":36.426567,"lng":139.624355,"zip":"3270511"},{"town":"赤坂町","koaza":"","lat":36.305306,"lng":139.566923,"zip":"3270004"},{"town":"赤見町","koaza":"","lat":36.349895,"lng":139.528793,"zip":"3270104"},{"town":"秋山町","koaza":"","lat":36.528281,"lng":139.51485,"zip":"3270517"},{"town":"あくと町","koaza":"","lat":36.403658,"lng":139.601021,"zip":"3270525"},{"town":"浅沼町","koaza":"","lat":36.309185,"lng":139.58899,"zip":"3270831"},{"town":"朝日町","koaza":"","lat":36.31614,"lng":139.573019,"zip":"3270011"},{"town":"鐙塚町","koaza":"","lat":36.307458,"lng":139.608619,"zip":"3270815"},{"town":"飯田町","koaza":"","lat":36.282335,"lng":139.590384,"zip":"3270825"},{"town":"伊賀町","koaza":"","lat":36.3155,"lng":139.576412,"zip":"3270021"},{"town":"石塚町","koaza":"","lat":36.352222,"lng":139.558056,"zip":"3270103"},{"town":"出流原町","koaza":"","lat":36.366002,"lng":139.536248,"zip":"3270102"},{"town":"伊勢山町","koaza":"","lat":36.318224,"lng":139.607533,"zip":"3270817"},{"town":"犬伏上町","koaza":"","lat":36.328043,"lng":139.592352,"zip":"3270806"},{"town":"犬伏下町","koaza":"","lat":36.323789,"lng":139.600439,"zip":"3270804"},{"town":"犬伏新町","koaza":"","lat":36.324254,"lng":139.605307,"zip":"3270803"},{"town":"犬伏中町","koaza":"","lat":36.329069,"lng":139.595971,"zip":"3270805"},{"town":"伊保内町","koaza":"","lat":36.282419,"lng":139.580321,"zip":"3270034"},{"town":"岩崎町","koaza":"","lat":36.399549,"lng":139.560435,"zip":"3270307"},{"town":"植上町","koaza":"","lat":36.302038,"lng":139.582585,"zip":"3270832"},{"town":"植下町","koaza":"","lat":36.292056,"lng":139.579136,"zip":"3270835"},{"town":"植野町","koaza":"","lat":36.305249,"lng":139.580599,"zip":"3270837"},{"town":"梅園町","koaza":"","lat":36.407433,"lng":139.537845,"zip":"3270322"},{"town":"大蔵町","koaza":"","lat":36.315085,"lng":139.573069,"zip":"3270012"},{"town":"大栗町","koaza":"","lat":36.330603,"lng":139.600547,"zip":"3270807"},{"town":"大古屋町","koaza":"","lat":36.28332,"lng":139.570506,"zip":"3270033"},{"town":"大橋町","koaza":"","lat":36.312831,"lng":139.561919,"zip":"3270003"},{"town":"小見町","koaza":"","lat":36.347328,"lng":139.567756,"zip":"3270316"},{"town":"柿平町","koaza":"","lat":36.46168,"lng":139.5549,"zip":"3270515"},{"town":"嘉多山町","koaza":"","lat":36.417871,"lng":139.60863,"zip":"3270523"},{"town":"金井上町","koaza":"","lat":36.3112,"lng":139.572531,"zip":"3270015"},{"town":"金吹町","koaza":"","lat":36.310085,"lng":139.57995,"zip":"3270007"},{"town":"金屋下町","koaza":"","lat":36.311021,"lng":139.580784,"zip":"3270025"},{"town":"金屋仲町","koaza":"","lat":36.311314,"lng":139.57679,"zip":"3270026"},{"town":"庚申塚町","koaza":"","lat":36.287735,"lng":139.565344,"zip":"3270032"},{"town":"上台町","koaza":"","lat":36.308623,"lng":139.579605,"zip":"3270006"},{"town":"上羽田町","koaza":"","lat":36.296727,"lng":139.546428,"zip":"3270042"},{"town":"亀井町","koaza":"","lat":36.312351,"lng":139.580546,"zip":"3270024"},{"town":"閑馬町","koaza":"","lat":36.427696,"lng":139.513996,"zip":"3270321"},{"town":"北茂呂町","koaza":"","lat":36.29809,"lng":139.591279,"zip":"3270827"},{"town":"君田町","koaza":"","lat":36.298463,"lng":139.555762,"zip":"3270043"},{"town":"葛生西一丁目","koaza":"","lat":36.401235,"lng":139.607729,"zip":"3270507"},{"town":"葛生西二丁目","koaza":"","lat":36.408077,"lng":139.607768,"zip":"3270507"},{"town":"葛生西三丁目","koaza":"","lat":36.410252,"lng":139.609547,"zip":"3270507"},{"town":"葛生東一丁目","koaza":"","lat":36.40059,"lng":139.611427,"zip":"3270501"},{"town":"葛生東二丁目","koaza":"","lat":36.404946,"lng":139.612351,"zip":"3270501"},{"town":"葛生東三丁目","koaza":"","lat":36.40881,"lng":139.612643,"zip":"3270501"},{"town":"久保町","koaza":"","lat":36.317657,"lng":139.584439,"zip":"3270845"},{"town":"黒袴町","koaza":"","lat":36.31332,"lng":139.618365,"zip":"3270813"},{"town":"越名町","koaza":"","lat":36.29141,"lng":139.607014,"zip":"3270822"},{"town":"小中町","koaza":"","lat":36.337353,"lng":139.555231,"zip":"3270001"},{"town":"栄町","koaza":"","lat":36.311263,"lng":139.603243,"zip":"3270816"},{"town":"作原町","koaza":"","lat":36.51264,"lng":139.486963,"zip":"3270301"},{"town":"七軒町","koaza":"","lat":36.305969,"lng":139.57389,"zip":"3270005"},{"town":"寺中町","koaza":"","lat":36.300506,"lng":139.57286,"zip":"3270836"},{"town":"下羽田町","koaza":"","lat":36.283246,"lng":139.548671,"zip":"3270044"},{"town":"下彦間町","koaza":"","lat":36.40993,"lng":139.4967,"zip":"3270325"},{"town":"白岩町","koaza":"","lat":36.460504,"lng":139.522372,"zip":"3270302"},{"town":"新吉水町","koaza":"","lat":36.347828,"lng":139.575676,"zip":"3270314"},{"town":"関川町","koaza":"","lat":36.322814,"lng":139.61692,"zip":"3270811"},{"town":"仙波町","koaza":"","lat":36.463868,"lng":139.580973,"zip":"3280221"},{"town":"大祝町","koaza":"","lat":36.309592,"lng":139.575365,"zip":"3270016"},{"town":"大町","koaza":"","lat":36.314626,"lng":139.570691,"zip":"3270017"},{"town":"高砂町","koaza":"","lat":36.313823,"lng":139.579201,"zip":"3270022"},{"town":"高萩町","koaza":"","lat":36.300748,"lng":139.599591,"zip":"3270821"},{"town":"高橋町","koaza":"","lat":36.28839,"lng":139.534153,"zip":"3270045"},{"town":"高山町","koaza":"","lat":36.274664,"lng":139.608845,"zip":"3270823"},{"town":"田島町","koaza":"","lat":36.292977,"lng":139.562789,"zip":"3270031"},{"town":"多田町","koaza":"","lat":36.386563,"lng":139.593995,"zip":"3270311"},{"town":"田沼町","koaza":"","lat":36.369567,"lng":139.575274,"zip":"3270317"},{"town":"田之入町","koaza":"","lat":36.346772,"lng":139.58791,"zip":"3270841"},{"town":"築地町","koaza":"","lat":36.405976,"lng":139.61852,"zip":"3270502"},{"town":"寺久保町","koaza":"","lat":36.377135,"lng":139.519233,"zip":"3270101"},{"town":"天神町","koaza":"","lat":36.320191,"lng":139.572807,"zip":"3270847"},{"town":"天明町","koaza":"","lat":36.312114,"lng":139.570233,"zip":"3270014"},{"town":"栃本町","koaza":"","lat":36.356911,"lng":139.591526,"zip":"3270312"},{"town":"戸奈良町","koaza":"","lat":36.374778,"lng":139.556921,"zip":"3270323"},{"town":"富岡町","koaza":"","lat":36.317139,"lng":139.594699,"zip":"3270844"},{"town":"戸室町","koaza":"","lat":36.386618,"lng":139.574307,"zip":"3270306"},{"town":"豊代町","koaza":"","lat":36.423655,"lng":139.594099,"zip":"3270512"},{"town":"長坂町","koaza":"","lat":36.400792,"lng":139.625903,"zip":"3270524"},{"town":"中町","koaza":"","lat":36.385268,"lng":139.616042,"zip":"3270504"},{"town":"並木町","koaza":"","lat":36.32309,"lng":139.552033,"zip":"3270002"},{"town":"奈良渕町","koaza":"","lat":36.337621,"lng":139.586424,"zip":"3270842"},{"town":"西浦町","koaza":"","lat":36.300806,"lng":139.617723,"zip":"3270814"},{"town":"韮川町","koaza":"","lat":36.334968,"lng":139.612578,"zip":"3270802"},{"town":"長谷場町","koaza":"","lat":36.435911,"lng":139.538353,"zip":"3270303"},{"town":"鉢木町","koaza":"","lat":36.414714,"lng":139.604203,"zip":"3270508"},{"town":"飛駒町","koaza":"","lat":36.488736,"lng":139.452222,"zip":"3270231"},{"town":"富士町","koaza":"","lat":36.345892,"lng":139.603508,"zip":"3270801"},{"town":"富士見町","koaza":"","lat":36.396161,"lng":139.612327,"zip":"3270503"},{"town":"船越町","koaza":"","lat":36.415236,"lng":139.57263,"zip":"3270305"},{"town":"船津川町","koaza":"","lat":36.276776,"lng":139.561146,"zip":"3270035"},{"town":"堀米町","koaza":"","lat":36.327332,"lng":139.57518,"zip":"3270843"},{"town":"本町","koaza":"","lat":36.313837,"lng":139.574778,"zip":"3270013"},{"town":"馬門町","koaza":"","lat":36.281663,"lng":139.599646,"zip":"3270824"},{"town":"牧町","koaza":"","lat":36.448118,"lng":139.573084,"zip":"3270513"},{"town":"町谷町","koaza":"","lat":36.32179,"lng":139.62798,"zip":"3270812"},{"town":"御神楽町","koaza":"","lat":36.437665,"lng":139.560599,"zip":"3270304"},{"town":"水木町","koaza":"","lat":36.488179,"lng":139.540662,"zip":"3270516"},{"town":"宮下町","koaza":"","lat":36.413707,"lng":139.616636,"zip":"3270509"},{"town":"村上町","koaza":"","lat":36.302054,"lng":139.533659,"zip":"3270046"},{"town":"免鳥町","koaza":"","lat":36.310348,"lng":139.549121,"zip":"3270041"},{"town":"茂呂山町","koaza":"","lat":36.295277,"lng":139.592403,"zip":"3270826"},{"town":"山形町","koaza":"","lat":36.383038,"lng":139.538124,"zip":"3270324"},{"town":"山越町","koaza":"","lat":36.380816,"lng":139.58516,"zip":"3270318"},{"town":"山菅町","koaza":"","lat":36.39656,"lng":139.604858,"zip":"3270505"},{"town":"大和町","koaza":"","lat":36.312633,"lng":139.575878,"zip":"3270027"},{"town":"吉水駅前一丁目","koaza":"","lat":36.348284,"lng":139.578965,"zip":"3270315"},{"town":"吉水駅前二丁目","koaza":"","lat":36.342217,"lng":139.576656,"zip":"3270315"},{"town":"吉水駅前三丁目","koaza":"","lat":36.343029,"lng":139.574394,"zip":"3270315"},{"town":"吉水町","koaza":"","lat":36.346002,"lng":139.573064,"zip":"3270313"},{"town":"米山南町","koaza":"","lat":36.322807,"lng":139.607251,"zip":"3270818"},{"town":"万町","koaza":"","lat":36.313853,"lng":139.576684,"zip":"3270028"},{"town":"若松町","koaza":"","lat":36.31892,"lng":139.579138,"zip":"3270846"},{"town":"若宮上町","koaza":"","lat":36.297811,"lng":139.587535,"zip":"3270833"},{"town":"若宮下町","koaza":"","lat":36.294218,"lng":139.588052,"zip":"3270834"}]