[{"town":"相野沢町","koaza":"","lat":36.646869,"lng":139.911701,"zip":"3291113"},{"town":"明保野町","koaza":"","lat":36.547625,"lng":139.867601,"zip":"3200845"},{"town":"旭一丁目","koaza":"","lat":36.55475,"lng":139.883257,"zip":"3200818"},{"town":"旭二丁目","koaza":"","lat":36.552149,"lng":139.88504,"zip":"3200818"},{"town":"芦沼町","koaza":"","lat":36.670339,"lng":139.93672,"zip":"3210404"},{"town":"飯田町","koaza":"","lat":36.570248,"lng":139.807074,"zip":"3210347"},{"town":"飯山町","koaza":"","lat":36.703117,"lng":139.798977,"zip":"3212101"},{"town":"池上町","koaza":"","lat":36.561173,"lng":139.881864,"zip":"3200801"},{"town":"石井町","koaza":"","lat":36.535889,"lng":139.937483,"zip":"3210912"},{"town":"石那田町","koaza":"","lat":36.666114,"lng":139.812554,"zip":"3212103"},{"town":"泉が丘一丁目","koaza":"","lat":36.560633,"lng":139.915942,"zip":"3210952"},{"town":"泉が丘二丁目","koaza":"","lat":36.562259,"lng":139.919424,"zip":"3210952"},{"town":"泉が丘三丁目","koaza":"","lat":36.563598,"lng":139.918014,"zip":"3210952"},{"town":"泉が丘四丁目","koaza":"","lat":36.565693,"lng":139.917636,"zip":"3210952"},{"town":"泉が丘五丁目","koaza":"","lat":36.568449,"lng":139.916995,"zip":"3210952"},{"town":"泉が丘六丁目","koaza":"","lat":36.569091,"lng":139.919471,"zip":"3210952"},{"town":"泉が丘七丁目","koaza":"","lat":36.566568,"lng":139.921085,"zip":"3210952"},{"town":"泉町","koaza":"","lat":36.563041,"lng":139.879125,"zip":"3200034"},{"town":"板戸町","koaza":"","lat":36.593038,"lng":139.982997,"zip":"3213221"},{"town":"一条一丁目","koaza":"","lat":36.554187,"lng":139.880855,"zip":"3200821"},{"town":"一条二丁目","koaza":"","lat":36.551915,"lng":139.881398,"zip":"3200821"},{"town":"一条三丁目","koaza":"","lat":36.554121,"lng":139.877404,"zip":"3200821"},{"town":"一条四丁目","koaza":"","lat":36.551957,"lng":139.877636,"zip":"3200821"},{"town":"一の沢一丁目","koaza":"","lat":36.568237,"lng":139.858266,"zip":"3200047"},{"town":"一の沢二丁目","koaza":"","lat":36.571431,"lng":139.856785,"zip":"3200047"},{"town":"一ノ沢町","koaza":"","lat":36.576324,"lng":139.858758,"zip":"3200049"},{"town":"一番町","koaza":"","lat":36.559378,"lng":139.890206,"zip":"3200812"},{"town":"今泉一丁目","koaza":"","lat":36.562574,"lng":139.897123,"zip":"3210966"},{"town":"今泉二丁目","koaza":"","lat":36.562729,"lng":139.895125,"zip":"3210966"},{"town":"今泉三丁目","koaza":"","lat":36.565569,"lng":139.895226,"zip":"3210966"},{"town":"今泉四丁目","koaza":"","lat":36.565106,"lng":139.898325,"zip":"3210966"},{"town":"今泉五丁目","koaza":"","lat":36.566784,"lng":139.897826,"zip":"3210966"},{"town":"今泉新町","koaza":"","lat":36.573745,"lng":139.911029,"zip":"3210961"},{"town":"今泉町","koaza":"","lat":36.570826,"lng":139.901011,"zip":"3210962"},{"town":"今里町","koaza":"","lat":36.700048,"lng":139.890936,"zip":"3210402"},{"town":"今宮一丁目","koaza":"","lat":36.519113,"lng":139.866184,"zip":"3210166"},{"town":"今宮二丁目","koaza":"","lat":36.515512,"lng":139.866999,"zip":"3210166"},{"town":"今宮三丁目","koaza":"","lat":36.51564,"lng":139.863573,"zip":"3210166"},{"town":"今宮四丁目","koaza":"","lat":36.51052,"lng":139.867856,"zip":"3210166"},{"town":"岩曽町","koaza":"","lat":36.584306,"lng":139.904421,"zip":"3210973"},{"town":"岩原町","koaza":"","lat":36.612117,"lng":139.824838,"zip":"3212117"},{"town":"岩本町","koaza":"","lat":36.610307,"lng":139.900722,"zip":"3210976"},{"town":"インターパーク一丁目","koaza":"","lat":36.499554,"lng":139.903884,"zip":"3210118"},{"town":"インターパーク二丁目","koaza":"","lat":36.499397,"lng":139.906413,"zip":"3210118"},{"town":"インターパーク三丁目","koaza":"","lat":36.494661,"lng":139.904047,"zip":"3210118"},{"town":"インターパーク四丁目","koaza":"","lat":36.494757,"lng":139.909511,"zip":"3210118"},{"town":"インターパーク五丁目","koaza":"","lat":36.4883,"lng":139.904316,"zip":"3210118"},{"town":"インターパーク六丁目","koaza":"","lat":36.487956,"lng":139.906514,"zip":"3210118"},{"town":"上野町","koaza":"","lat":36.592581,"lng":139.933812,"zip":"3210981"},{"town":"上田町","koaza":"","lat":36.672754,"lng":139.913832,"zip":"3210405"},{"town":"駅前通り一丁目","koaza":"","lat":36.560605,"lng":139.896527,"zip":"3210964"},{"town":"駅前通り二丁目","koaza":"","lat":36.558464,"lng":139.894441,"zip":"3210964"},{"town":"駅前通り三丁目","koaza":"","lat":36.558379,"lng":139.896718,"zip":"3210964"},{"town":"江曽島一丁目","koaza":"","lat":36.526312,"lng":139.865246,"zip":"3210107"},{"town":"江曽島二丁目","koaza":"","lat":36.524409,"lng":139.863943,"zip":"3210107"},{"town":"江曽島三丁目","koaza":"","lat":36.52827,"lng":139.869016,"zip":"3210107"},{"town":"江曽島四丁目","koaza":"","lat":36.524573,"lng":139.86783,"zip":"3210107"},{"town":"江曽島五丁目","koaza":"","lat":36.52136,"lng":139.866976,"zip":"3210107"},{"town":"江曽島本町","koaza":"","lat":36.531445,"lng":139.868839,"zip":"3210101"},{"town":"江曽島町","koaza":"","lat":36.522858,"lng":139.872411,"zip":"3210102"},{"town":"江野町","koaza":"","lat":36.560251,"lng":139.882232,"zip":"3200802"},{"town":"大網町","koaza":"","lat":36.671081,"lng":139.844693,"zip":"3212111"},{"town":"大曽一丁目","koaza":"","lat":36.56913,"lng":139.8889,"zip":"3200014"},{"town":"大曽二丁目","koaza":"","lat":36.572643,"lng":139.888037,"zip":"3200014"},{"town":"大曽三丁目","koaza":"","lat":36.572437,"lng":139.891193,"zip":"3200014"},{"town":"大曽四丁目","koaza":"","lat":36.568816,"lng":139.891032,"zip":"3200014"},{"town":"大曽五丁目","koaza":"","lat":36.56876,"lng":139.893414,"zip":"3200014"},{"town":"大塚町","koaza":"","lat":36.535065,"lng":139.860732,"zip":"3210161"},{"town":"大通り一丁目","koaza":"","lat":36.560836,"lng":139.89131,"zip":"3200811"},{"town":"大通り二丁目","koaza":"","lat":36.559957,"lng":139.891159,"zip":"3200811"},{"town":"大通り三丁目","koaza":"","lat":36.559166,"lng":139.89402,"zip":"3200811"},{"town":"大通り四丁目","koaza":"","lat":36.560585,"lng":139.894971,"zip":"3200811"},{"town":"大通り五丁目","koaza":"","lat":36.561686,"lng":139.89335,"zip":"3200811"},{"town":"大谷町","koaza":"","lat":36.593859,"lng":139.824651,"zip":"3210345"},{"town":"御蔵町","koaza":"","lat":36.551174,"lng":139.886676,"zip":"3200823"},{"town":"小幡一丁目","koaza":"","lat":36.563276,"lng":139.875779,"zip":"3200036"},{"town":"小幡二丁目","koaza":"","lat":36.56365,"lng":139.873146,"zip":"3200036"},{"town":"海道町","koaza":"","lat":36.606304,"lng":139.923904,"zip":"3210971"},{"town":"春日町","koaza":"","lat":36.529117,"lng":139.86559,"zip":"3210108"},{"town":"金田町","koaza":"","lat":36.665268,"lng":139.898072,"zip":"3210406"},{"town":"叶谷町","koaza":"","lat":36.650437,"lng":139.883246,"zip":"3291117"},{"town":"上大曽町","koaza":"","lat":36.576483,"lng":139.890648,"zip":"3200013"},{"town":"上大塚町","koaza":"","lat":36.613185,"lng":139.91465,"zip":"3291106"},{"town":"上欠町","koaza":"","lat":36.54357,"lng":139.827008,"zip":"3200855"},{"town":"上金井町","koaza":"","lat":36.640039,"lng":139.854666,"zip":"3212115"},{"town":"上桑島町","koaza":"","lat":36.520231,"lng":139.94264,"zip":"3210913"},{"town":"上小池町","koaza":"","lat":36.684996,"lng":139.792725,"zip":"3212104"},{"town":"上小倉町","koaza":"","lat":36.711697,"lng":139.904025,"zip":"3210401"},{"town":"上籠谷町","koaza":"","lat":36.517169,"lng":139.973329,"zip":"3213233"},{"town":"上田原町","koaza":"","lat":36.644171,"lng":139.898492,"zip":"3291112"},{"town":"上戸祭一丁目","koaza":"","lat":36.584541,"lng":139.866065,"zip":"3200058"},{"town":"上戸祭二丁目","koaza":"","lat":36.588481,"lng":139.863814,"zip":"3200058"},{"town":"上戸祭三丁目","koaza":"","lat":36.593352,"lng":139.859737,"zip":"3200058"},{"town":"上戸祭四丁目","koaza":"","lat":36.597516,"lng":139.857655,"zip":"3200058"},{"town":"上戸祭町","koaza":"","lat":36.595227,"lng":139.864891,"zip":"3200051"},{"town":"上御田町","koaza":"","lat":36.499529,"lng":139.886489,"zip":"3210115"},{"town":"上横倉町","koaza":"","lat":36.652319,"lng":139.859784,"zip":"3212112"},{"town":"上横田町","koaza":"","lat":36.518577,"lng":139.886608,"zip":"3210106"},{"town":"刈沼町","koaza":"","lat":36.574474,"lng":139.982786,"zip":"3213224"},{"town":"川田町","koaza":"","lat":36.532302,"lng":139.889156,"zip":"3210111"},{"town":"川俣町","koaza":"","lat":36.604879,"lng":139.911138,"zip":"3210977"},{"town":"川向町","koaza":"","lat":36.560104,"lng":139.898143,"zip":"3210965"},{"town":"河原町","koaza":"","lat":36.550081,"lng":139.884142,"zip":"3200822"},{"town":"瓦谷町","koaza":"","lat":36.610764,"lng":139.889873,"zip":"3200002"},{"town":"関白町","koaza":"","lat":36.691247,"lng":139.882407,"zip":"3210412"},{"town":"菊水町","koaza":"","lat":36.547194,"lng":139.870662,"zip":"3200844"},{"town":"北一の沢町","koaza":"","lat":36.57172,"lng":139.862283,"zip":"3200048"},{"town":"北若松原一丁目","koaza":"","lat":36.507158,"lng":139.866096,"zip":"3210153"},{"town":"北若松原二丁目","koaza":"","lat":36.506615,"lng":139.863485,"zip":"3210153"},{"town":"京町","koaza":"","lat":36.552733,"lng":139.870597,"zip":"3200842"},{"town":"清住一丁目","koaza":"","lat":36.566047,"lng":139.877493,"zip":"3200037"},{"town":"清住二丁目","koaza":"","lat":36.566075,"lng":139.875452,"zip":"3200037"},{"town":"清住三丁目","koaza":"","lat":36.565965,"lng":139.872897,"zip":"3200037"},{"town":"清原工業団地","koaza":"","lat":36.549369,"lng":139.983365,"zip":"3213231"},{"town":"清原台一丁目","koaza":"","lat":36.564372,"lng":139.986414,"zip":"3213223"},{"town":"清原台二丁目","koaza":"","lat":36.562002,"lng":139.991065,"zip":"3213223"},{"town":"清原台三丁目","koaza":"","lat":36.559413,"lng":139.991584,"zip":"3213223"},{"town":"清原台四丁目","koaza":"","lat":36.555995,"lng":139.994056,"zip":"3213223"},{"town":"清原台五丁目","koaza":"","lat":36.550352,"lng":139.997202,"zip":"3213223"},{"town":"清原台六丁目","koaza":"","lat":36.541526,"lng":140.002854,"zip":"3213223"},{"town":"桑島町","koaza":"","lat":36.51404,"lng":139.958392,"zip":"3213234"},{"town":"越戸一丁目","koaza":"","lat":36.564617,"lng":139.924228,"zip":"3210951"},{"town":"越戸二丁目","koaza":"","lat":36.567811,"lng":139.922593,"zip":"3210951"},{"town":"越戸三丁目","koaza":"","lat":36.56788,"lng":139.924669,"zip":"3210951"},{"town":"越戸四丁目","koaza":"","lat":36.568283,"lng":139.926395,"zip":"3210951"},{"town":"越戸町","koaza":"","lat":36.572494,"lng":139.924736,"zip":"3210951"},{"town":"古賀志町","koaza":"","lat":36.611812,"lng":139.764557,"zip":"3210341"},{"town":"五代一丁目","koaza":"","lat":36.490072,"lng":139.860952,"zip":"3210135"},{"town":"五代二丁目","koaza":"","lat":36.495164,"lng":139.864989,"zip":"3210135"},{"town":"五代三丁目","koaza":"","lat":36.49567,"lng":139.862353,"zip":"3210135"},{"town":"鐺山町","koaza":"","lat":36.537708,"lng":139.966906,"zip":"3213235"},{"town":"駒生一丁目","koaza":"","lat":36.572297,"lng":139.852462,"zip":"3200066"},{"town":"駒生二丁目","koaza":"","lat":36.574982,"lng":139.851546,"zip":"3200066"},{"town":"駒生町","koaza":"","lat":36.590084,"lng":139.836006,"zip":"3200065"},{"town":"材木町","koaza":"","lat":36.561671,"lng":139.873739,"zip":"3200042"},{"town":"幸町","koaza":"","lat":36.55478,"lng":139.866664,"zip":"3200848"},{"town":"栄町","koaza":"","lat":36.563155,"lng":139.890185,"zip":"3200024"},{"town":"逆面町","koaza":"","lat":36.657285,"lng":139.895146,"zip":"3291111"},{"town":"鷺の谷町","koaza":"","lat":36.514547,"lng":139.824641,"zip":"3200854"},{"town":"桜一丁目","koaza":"","lat":36.562223,"lng":139.870751,"zip":"3200043"},{"town":"桜二丁目","koaza":"","lat":36.565348,"lng":139.869567,"zip":"3200043"},{"town":"桜三丁目","koaza":"","lat":36.563345,"lng":139.868478,"zip":"3200043"},{"town":"桜四丁目","koaza":"","lat":36.567582,"lng":139.866282,"zip":"3200043"},{"town":"桜五丁目","koaza":"","lat":36.564451,"lng":139.866256,"zip":"3200043"},{"town":"下ケ橋町","koaza":"","lat":36.656282,"lng":139.937372,"zip":"3291101"},{"town":"さつき一丁目","koaza":"","lat":36.49004,"lng":139.858585,"zip":"3210141"},{"town":"さつき二丁目","koaza":"","lat":36.485931,"lng":139.862577,"zip":"3210141"},{"town":"さつき三丁目","koaza":"","lat":36.483075,"lng":139.860822,"zip":"3210141"},{"town":"さるやま町","koaza":"","lat":36.513697,"lng":139.912455,"zip":"3210922"},{"town":"三番町","koaza":"","lat":36.55761,"lng":139.890794,"zip":"3200814"},{"town":"篠井町","koaza":"","lat":36.692546,"lng":139.826975,"zip":"3212102"},{"town":"下荒針町","koaza":"","lat":36.572023,"lng":139.823937,"zip":"3210346"},{"town":"下岡本町","koaza":"","lat":36.593565,"lng":139.956749,"zip":"3291104"},{"town":"下欠町","koaza":"","lat":36.52084,"lng":139.834483,"zip":"3200853"},{"town":"下金井町","koaza":"","lat":36.627245,"lng":139.855061,"zip":"3212114"},{"town":"下川俣町","koaza":"","lat":36.592264,"lng":139.908305,"zip":"3210972"},{"town":"下河原一丁目","koaza":"","lat":36.54921,"lng":139.886392,"zip":"3200824"},{"town":"下河原町","koaza":"","lat":36.548081,"lng":139.884011,"zip":"3200825"},{"town":"下栗一丁目","koaza":"","lat":36.537746,"lng":139.900543,"zip":"3210924"},{"town":"下栗町","koaza":"","lat":36.527129,"lng":139.908495,"zip":"3210923"},{"town":"下桑島町","koaza":"","lat":36.503395,"lng":139.951227,"zip":"3210914"},{"town":"下小池町","koaza":"","lat":36.683905,"lng":139.809881,"zip":"3212105"},{"town":"下小倉町","koaza":"","lat":36.690437,"lng":139.922211,"zip":"3210403"},{"town":"下反町町","koaza":"","lat":36.48827,"lng":139.888737,"zip":"3210122"},{"town":"下田原町","koaza":"","lat":36.624446,"lng":139.902121,"zip":"3291115"},{"town":"下砥上町","koaza":"","lat":36.533789,"lng":139.843272,"zip":"3200852"},{"town":"下戸祭一丁目","koaza":"","lat":36.572288,"lng":139.880206,"zip":"3200055"},{"town":"下戸祭二丁目","koaza":"","lat":36.572405,"lng":139.876695,"zip":"3200055"},{"town":"下平出町","koaza":"","lat":36.557889,"lng":139.948154,"zip":"3210903"},{"town":"下横倉町","koaza":"","lat":36.634558,"lng":139.866993,"zip":"3212113"},{"town":"下横田町","koaza":"","lat":36.480708,"lng":139.891562,"zip":"3210124"},{"town":"宿郷一丁目","koaza":"","lat":36.556084,"lng":139.900536,"zip":"3210945"},{"town":"宿郷二丁目","koaza":"","lat":36.554576,"lng":139.900257,"zip":"3210945"},{"town":"宿郷三丁目","koaza":"","lat":36.555043,"lng":139.906485,"zip":"3210945"},{"town":"宿郷五丁目","koaza":"","lat":36.55357,"lng":139.905745,"zip":"3210945"},{"town":"城東一丁目","koaza":"","lat":36.550041,"lng":139.90132,"zip":"3210935"},{"town":"城東二丁目","koaza":"","lat":36.5501,"lng":139.904223,"zip":"3210935"},{"town":"城南一丁目","koaza":"","lat":36.517856,"lng":139.881662,"zip":"3210117"},{"town":"城南二丁目","koaza":"","lat":36.514679,"lng":139.881535,"zip":"3210117"},{"town":"城南三丁目","koaza":"","lat":36.510537,"lng":139.881577,"zip":"3210117"},{"town":"松風台","koaza":"","lat":36.685595,"lng":139.891017,"zip":"3210413"},{"town":"昭和一丁目","koaza":"","lat":36.565494,"lng":139.880378,"zip":"3200032"},{"town":"昭和二丁目","koaza":"","lat":36.566991,"lng":139.88055,"zip":"3200032"},{"town":"昭和三丁目","koaza":"","lat":36.568288,"lng":139.883996,"zip":"3200032"},{"town":"白沢町","koaza":"","lat":36.629825,"lng":139.941286,"zip":"3291102"},{"town":"新富町","koaza":"","lat":36.486253,"lng":139.874028,"zip":"3210133"},{"town":"新町一丁目","koaza":"","lat":36.549614,"lng":139.874794,"zip":"3200831"},{"town":"新町二丁目","koaza":"","lat":36.547429,"lng":139.875723,"zip":"3200831"},{"town":"末広一丁目","koaza":"","lat":36.483863,"lng":139.873798,"zip":"3210144"},{"town":"末広二丁目","koaza":"","lat":36.480089,"lng":139.873217,"zip":"3210144"},{"town":"雀の宮一丁目","koaza":"","lat":36.494994,"lng":139.875155,"zip":"3210132"},{"town":"雀の宮二丁目","koaza":"","lat":36.499255,"lng":139.872879,"zip":"3210132"},{"town":"雀の宮三丁目","koaza":"","lat":36.493018,"lng":139.87405,"zip":"3210132"},{"town":"雀の宮四丁目","koaza":"","lat":36.494364,"lng":139.86958,"zip":"3210132"},{"town":"雀の宮五丁目","koaza":"","lat":36.489194,"lng":139.874329,"zip":"3210132"},{"town":"雀の宮六丁目","koaza":"","lat":36.489991,"lng":139.869725,"zip":"3210132"},{"town":"雀の宮七丁目","koaza":"","lat":36.489504,"lng":139.864591,"zip":"3210132"},{"town":"雀宮町","koaza":"","lat":36.49342,"lng":139.879176,"zip":"3210121"},{"town":"砂田町","koaza":"","lat":36.504011,"lng":139.910048,"zip":"3210113"},{"town":"住吉町","koaza":"","lat":36.55786,"lng":139.866653,"zip":"3200864"},{"town":"関堀町","koaza":"","lat":36.598524,"lng":139.897328,"zip":"3210975"},{"town":"千波町","koaza":"","lat":36.56298,"lng":139.892529,"zip":"3200022"},{"town":"大寛一丁目","koaza":"","lat":36.559899,"lng":139.873477,"zip":"3200867"},{"town":"大寛二丁目","koaza":"","lat":36.557787,"lng":139.873185,"zip":"3200867"},{"town":"台新田一丁目","koaza":"","lat":36.517263,"lng":139.879029,"zip":"3210104"},{"town":"台新田町","koaza":"","lat":36.517187,"lng":139.875639,"zip":"3210103"},{"town":"高砂町","koaza":"","lat":36.486596,"lng":139.869933,"zip":"3210134"},{"town":"高松町","koaza":"","lat":36.6666,"lng":139.870256,"zip":"3210416"},{"town":"宝井町","koaza":"","lat":36.627593,"lng":139.914679,"zip":"3291114"},{"town":"宝木町一丁目","koaza":"","lat":36.578038,"lng":139.855546,"zip":"3200061"},{"town":"宝木町二丁目","koaza":"","lat":36.590127,"lng":139.845059,"zip":"3200061"},{"town":"宝木本町","koaza":"","lat":36.619867,"lng":139.847718,"zip":"3200075"},{"town":"滝の原一丁目","koaza":"","lat":36.546457,"lng":139.865668,"zip":"3200846"},{"town":"滝の原二丁目","koaza":"","lat":36.543638,"lng":139.864459,"zip":"3200846"},{"town":"滝の原三丁目","koaza":"","lat":36.540647,"lng":139.863595,"zip":"3200846"},{"town":"滝谷町","koaza":"","lat":36.552318,"lng":139.866926,"zip":"3200847"},{"town":"竹下町","koaza":"","lat":36.551885,"lng":139.966863,"zip":"3213236"},{"town":"竹林町","koaza":"","lat":36.577759,"lng":139.904059,"zip":"3210974"},{"town":"田下町","koaza":"","lat":36.606412,"lng":139.812916,"zip":"3210343"},{"town":"田野町","koaza":"","lat":36.596725,"lng":139.805398,"zip":"3210344"},{"town":"中央一丁目","koaza":"","lat":36.558523,"lng":139.883036,"zip":"3200806"},{"town":"中央二丁目","koaza":"","lat":36.556677,"lng":139.883169,"zip":"3200806"},{"town":"中央三丁目","koaza":"","lat":36.556495,"lng":139.886037,"zip":"3200806"},{"town":"中央五丁目","koaza":"","lat":36.558229,"lng":139.886471,"zip":"3200806"},{"town":"中央本町","koaza":"","lat":36.558511,"lng":139.884832,"zip":"3200805"},{"town":"天神一丁目","koaza":"","lat":36.555652,"lng":139.889349,"zip":"3200816"},{"town":"天神二丁目","koaza":"","lat":36.553195,"lng":139.888875,"zip":"3200816"},{"town":"伝馬町","koaza":"","lat":36.561111,"lng":139.877792,"zip":"3200035"},{"town":"道場宿町","koaza":"","lat":36.564443,"lng":139.973896,"zip":"3213237"},{"town":"東谷町","koaza":"","lat":36.483803,"lng":139.899746,"zip":"3210123"},{"town":"砥上町","koaza":"","lat":36.551772,"lng":139.838954,"zip":"3200856"},{"town":"徳次郎町","koaza":"","lat":36.64929,"lng":139.837873,"zip":"3212116"},{"town":"戸祭一丁目","koaza":"","lat":36.572181,"lng":139.868335,"zip":"3200056"},{"town":"戸祭二丁目","koaza":"","lat":36.572001,"lng":139.865166,"zip":"3200056"},{"town":"戸祭三丁目","koaza":"","lat":36.57545,"lng":139.866574,"zip":"3200056"},{"town":"戸祭四丁目","koaza":"","lat":36.576592,"lng":139.861879,"zip":"3200056"},{"town":"戸祭台","koaza":"","lat":36.58166,"lng":139.877214,"zip":"3200017"},{"town":"戸祭町","koaza":"","lat":36.577168,"lng":139.877016,"zip":"3200053"},{"town":"戸祭元町","koaza":"","lat":36.569154,"lng":139.880596,"zip":"3200031"},{"town":"豊郷台一丁目","koaza":"","lat":36.603986,"lng":139.881244,"zip":"3200003"},{"town":"豊郷台二丁目","koaza":"","lat":36.602548,"lng":139.889341,"zip":"3200003"},{"town":"豊郷台三丁目","koaza":"","lat":36.608306,"lng":139.882507,"zip":"3200003"},{"town":"問屋町","koaza":"","lat":36.532216,"lng":139.923064,"zip":"3210911"},{"town":"中一の沢町","koaza":"","lat":36.5663,"lng":139.863687,"zip":"3200045"},{"town":"中今泉一丁目","koaza":"","lat":36.570258,"lng":139.905103,"zip":"3210968"},{"town":"中今泉二丁目","koaza":"","lat":36.567908,"lng":139.903544,"zip":"3210968"},{"town":"中今泉三丁目","koaza":"","lat":36.569095,"lng":139.907591,"zip":"3210968"},{"town":"中今泉四丁目","koaza":"","lat":36.56761,"lng":139.911378,"zip":"3210968"},{"town":"中今泉五丁目","koaza":"","lat":36.569919,"lng":139.913207,"zip":"3210968"},{"town":"長岡町","koaza":"","lat":36.598142,"lng":139.8796,"zip":"3200004"},{"town":"中岡本町","koaza":"","lat":36.613603,"lng":139.944708,"zip":"3291105"},{"town":"中河原町","koaza":"","lat":36.55712,"lng":139.889184,"zip":"3200815"},{"town":"中久保一丁目","koaza":"","lat":36.56113,"lng":139.922541,"zip":"3210906"},{"town":"中久保二丁目","koaza":"","lat":36.561109,"lng":139.924816,"zip":"3210906"},{"town":"中里町","koaza":"","lat":36.676639,"lng":139.889559,"zip":"3210414"},{"town":"中島町","koaza":"","lat":36.495733,"lng":139.89735,"zip":"3210114"},{"town":"中戸祭一丁目","koaza":"","lat":36.578651,"lng":139.867562,"zip":"3200057"},{"town":"中戸祭町","koaza":"","lat":36.580212,"lng":139.871417,"zip":"3200052"},{"town":"仲町","koaza":"","lat":36.561807,"lng":139.890462,"zip":"3200023"},{"town":"長峰町","koaza":"","lat":36.642898,"lng":139.928605,"zip":"3291107"},{"town":"西一丁目","koaza":"","lat":36.559585,"lng":139.877534,"zip":"3200861"},{"town":"西二丁目","koaza":"","lat":36.557741,"lng":139.877329,"zip":"3200861"},{"town":"西三丁目","koaza":"","lat":36.555499,"lng":139.87739,"zip":"3200861"},{"town":"西刑部町","koaza":"","lat":36.499111,"lng":139.928447,"zip":"3210917"},{"town":"西川田一丁目","koaza":"","lat":36.518232,"lng":139.854321,"zip":"3210152"},{"town":"西川田二丁目","koaza":"","lat":36.515753,"lng":139.856901,"zip":"3210152"},{"town":"西川田三丁目","koaza":"","lat":36.514092,"lng":139.853752,"zip":"3210152"},{"town":"西川田四丁目","koaza":"","lat":36.509877,"lng":139.85979,"zip":"3210152"},{"town":"西川田五丁目","koaza":"","lat":36.512931,"lng":139.851382,"zip":"3210152"},{"town":"西川田六丁目","koaza":"","lat":36.507874,"lng":139.857738,"zip":"3210152"},{"town":"西川田七丁目","koaza":"","lat":36.506782,"lng":139.861691,"zip":"3210152"},{"town":"西川田東町","koaza":"","lat":36.505379,"lng":139.858475,"zip":"3210154"},{"town":"西川田本町一丁目","koaza":"","lat":36.518693,"lng":139.850001,"zip":"3210158"},{"town":"西川田本町二丁目","koaza":"","lat":36.515222,"lng":139.84802,"zip":"3210158"},{"town":"西川田本町三丁目","koaza":"","lat":36.512423,"lng":139.842722,"zip":"3210158"},{"town":"西川田本町四丁目","koaza":"","lat":36.511473,"lng":139.846537,"zip":"3210158"},{"town":"西川田町","koaza":"","lat":36.52403,"lng":139.84889,"zip":"3210151"},{"town":"西川田南一丁目","koaza":"","lat":36.508449,"lng":139.848887,"zip":"3210155"},{"town":"西川田南二丁目","koaza":"","lat":36.507434,"lng":139.853357,"zip":"3210155"},{"town":"錦一丁目","koaza":"","lat":36.569127,"lng":139.895871,"zip":"3210967"},{"town":"錦二丁目","koaza":"","lat":36.571458,"lng":139.895189,"zip":"3210967"},{"town":"錦三丁目","koaza":"","lat":36.573492,"lng":139.894836,"zip":"3210967"},{"town":"西大寛一丁目","koaza":"","lat":36.560387,"lng":139.870165,"zip":"3200866"},{"town":"西大寛二丁目","koaza":"","lat":36.560762,"lng":139.867508,"zip":"3200866"},{"town":"西の宮一丁目","koaza":"","lat":36.573718,"lng":139.836794,"zip":"3200064"},{"town":"西の宮二丁目","koaza":"","lat":36.57468,"lng":139.839336,"zip":"3200064"},{"town":"西原一丁目","koaza":"","lat":36.555998,"lng":139.873182,"zip":"3200862"},{"town":"西原二丁目","koaza":"","lat":36.553787,"lng":139.873957,"zip":"3200862"},{"town":"西原三丁目","koaza":"","lat":36.551798,"lng":139.874223,"zip":"3200862"},{"town":"西原町","koaza":"","lat":36.539958,"lng":139.882933,"zip":"3200826"},{"town":"新里町","koaza":"","lat":36.633895,"lng":139.8126,"zip":"3212118"},{"town":"二番町","koaza":"","lat":36.558502,"lng":139.88894,"zip":"3200813"},{"town":"野高谷町","koaza":"","lat":36.562755,"lng":139.99768,"zip":"3213222"},{"town":"野沢町","koaza":"","lat":36.610728,"lng":139.857628,"zip":"3200071"},{"town":"羽牛田町","koaza":"","lat":36.484421,"lng":139.880745,"zip":"3210127"},{"town":"八幡台","koaza":"","lat":36.576998,"lng":139.886662,"zip":"3200015"},{"town":"花園町","koaza":"","lat":36.5497,"lng":139.871191,"zip":"3200843"},{"town":"花房一丁目","koaza":"","lat":36.548805,"lng":139.882651,"zip":"3200827"},{"town":"花房二丁目","koaza":"","lat":36.550064,"lng":139.877778,"zip":"3200827"},{"town":"花房三丁目","koaza":"","lat":36.548096,"lng":139.87849,"zip":"3200827"},{"town":"花房本町","koaza":"","lat":36.549704,"lng":139.880901,"zip":"3200828"},{"town":"塙田一丁目","koaza":"","lat":36.565789,"lng":139.884885,"zip":"3200027"},{"town":"塙田二丁目","koaza":"","lat":36.563779,"lng":139.885666,"zip":"3200027"},{"town":"塙田三丁目","koaza":"","lat":36.56337,"lng":139.888071,"zip":"3200027"},{"town":"塙田四丁目","koaza":"","lat":36.565657,"lng":139.888547,"zip":"3200027"},{"town":"塙田五丁目","koaza":"","lat":36.568565,"lng":139.886402,"zip":"3200027"},{"town":"馬場通り一丁目","koaza":"","lat":36.562339,"lng":139.885091,"zip":"3200026"},{"town":"馬場通り二丁目","koaza":"","lat":36.560954,"lng":139.884692,"zip":"3200026"},{"town":"馬場通り三丁目","koaza":"","lat":36.560683,"lng":139.887228,"zip":"3200026"},{"town":"馬場通り四丁目","koaza":"","lat":36.561311,"lng":139.887301,"zip":"3200026"},{"town":"針ケ谷一丁目","koaza":"","lat":36.494261,"lng":139.853083,"zip":"3210137"},{"town":"針ケ谷町","koaza":"","lat":36.487347,"lng":139.850809,"zip":"3210147"},{"town":"東今泉一丁目","koaza":"","lat":36.558222,"lng":139.915307,"zip":"3210941"},{"town":"東今泉二丁目","koaza":"","lat":36.558949,"lng":139.919553,"zip":"3210941"},{"town":"東浦町","koaza":"","lat":36.523415,"lng":139.854754,"zip":"3210167"},{"town":"東岡本町","koaza":"","lat":36.617336,"lng":139.963393,"zip":"3291103"},{"town":"東刑部町","koaza":"","lat":36.493141,"lng":139.953768,"zip":"3210915"},{"town":"東木代町","koaza":"","lat":36.481668,"lng":139.955583,"zip":"3210916"},{"town":"東宿郷一丁目","koaza":"","lat":36.559187,"lng":139.902347,"zip":"3210953"},{"town":"東宿郷二丁目","koaza":"","lat":36.557243,"lng":139.901303,"zip":"3210953"},{"town":"東宿郷三丁目","koaza":"","lat":36.557037,"lng":139.90552,"zip":"3210953"},{"town":"東宿郷四丁目","koaza":"","lat":36.558885,"lng":139.905636,"zip":"3210953"},{"town":"東宿郷五丁目","koaza":"","lat":36.558447,"lng":139.910574,"zip":"3210953"},{"town":"東宿郷六丁目","koaza":"","lat":36.556943,"lng":139.909502,"zip":"3210953"},{"town":"東宝木町","koaza":"","lat":36.578625,"lng":139.863148,"zip":"3200062"},{"town":"東戸祭一丁目","koaza":"","lat":36.571665,"lng":139.884196,"zip":"3200054"},{"town":"東塙田一丁目","koaza":"","lat":36.564928,"lng":139.891245,"zip":"3200021"},{"town":"東塙田二丁目","koaza":"","lat":36.566708,"lng":139.891706,"zip":"3200021"},{"town":"東原町","koaza":"","lat":36.528109,"lng":139.855621,"zip":"3210168"},{"town":"東町","koaza":"","lat":36.575524,"lng":139.916191,"zip":"3210985"},{"town":"東峰町","koaza":"","lat":36.543331,"lng":139.921437,"zip":"3210944"},{"town":"東簗瀬一丁目","koaza":"","lat":36.541566,"lng":139.900346,"zip":"3210925"},{"town":"東横田町","koaza":"","lat":36.509249,"lng":139.885758,"zip":"3210116"},{"town":"日の出一丁目","koaza":"","lat":36.545222,"lng":139.876114,"zip":"3200832"},{"town":"日の出二丁目","koaza":"","lat":36.54276,"lng":139.87153,"zip":"3200832"},{"town":"氷室町","koaza":"","lat":36.526474,"lng":139.996635,"zip":"3213232"},{"town":"兵庫塚一丁目","koaza":"","lat":36.503181,"lng":139.857922,"zip":"3210138"},{"town":"兵庫塚二丁目","koaza":"","lat":36.500711,"lng":139.857366,"zip":"3210138"},{"town":"兵庫塚三丁目","koaza":"","lat":36.496541,"lng":139.857287,"zip":"3210138"},{"town":"兵庫塚町","koaza":"","lat":36.501022,"lng":139.851972,"zip":"3210156"},{"town":"平出工業団地","koaza":"","lat":36.577138,"lng":139.931454,"zip":"3210905"},{"town":"平出町","koaza":"","lat":36.57386,"lng":139.945259,"zip":"3210901"},{"town":"平塚町","koaza":"","lat":36.486598,"lng":139.928416,"zip":"3210918"},{"town":"平松町","koaza":"","lat":36.548069,"lng":139.911751,"zip":"3210931"},{"town":"平松本町","koaza":"","lat":36.542613,"lng":139.910526,"zip":"3210932"},{"town":"福岡町","koaza":"","lat":36.6148,"lng":139.793395,"zip":"3210342"},{"town":"富士見が丘一丁目","koaza":"","lat":36.585578,"lng":139.884352,"zip":"3200011"},{"town":"富士見が丘二丁目","koaza":"","lat":36.583659,"lng":139.887551,"zip":"3200011"},{"town":"富士見が丘三丁目","koaza":"","lat":36.586739,"lng":139.888403,"zip":"3200011"},{"town":"富士見が丘四丁目","koaza":"","lat":36.589813,"lng":139.887845,"zip":"3200011"},{"town":"富士見町","koaza":"","lat":36.478864,"lng":139.861932,"zip":"3210146"},{"town":"二荒町","koaza":"","lat":36.559224,"lng":139.887191,"zip":"3200804"},{"town":"双葉一丁目","koaza":"","lat":36.526245,"lng":139.861591,"zip":"3210164"},{"town":"双葉二丁目","koaza":"","lat":36.526767,"lng":139.859478,"zip":"3210164"},{"town":"双葉三丁目","koaza":"","lat":36.527402,"lng":139.857511,"zip":"3210164"},{"town":"不動前一丁目","koaza":"","lat":36.546062,"lng":139.879295,"zip":"3200833"},{"town":"不動前二丁目","koaza":"","lat":36.545525,"lng":139.881131,"zip":"3200833"},{"town":"不動前三丁目","koaza":"","lat":36.544125,"lng":139.878078,"zip":"3200833"},{"town":"不動前四丁目","koaza":"","lat":36.542818,"lng":139.881099,"zip":"3200833"},{"town":"不動前五丁目","koaza":"","lat":36.542346,"lng":139.879517,"zip":"3200833"},{"town":"冬室町","koaza":"","lat":36.686915,"lng":139.861783,"zip":"3210417"},{"town":"古田町","koaza":"","lat":36.648715,"lng":139.920523,"zip":"3291108"},{"town":"星が丘一丁目","koaza":"","lat":36.568758,"lng":139.876321,"zip":"3200038"},{"town":"星が丘二丁目","koaza":"","lat":36.570286,"lng":139.875514,"zip":"3200038"},{"town":"細谷一丁目","koaza":"","lat":36.591193,"lng":139.855702,"zip":"3200073"},{"town":"細谷町","koaza":"","lat":36.590003,"lng":139.850256,"zip":"3200074"},{"town":"本町","koaza":"","lat":36.563066,"lng":139.882612,"zip":"3200033"},{"town":"本丸町","koaza":"","lat":36.55465,"lng":139.886191,"zip":"3200817"},{"town":"幕田町","koaza":"","lat":36.503136,"lng":139.839858,"zip":"3210157"},{"town":"曲師町","koaza":"","lat":36.560109,"lng":139.884675,"zip":"3200803"},{"town":"松が峰一丁目","koaza":"","lat":36.557913,"lng":139.880797,"zip":"3200807"},{"town":"松が峰二丁目","koaza":"","lat":36.556234,"lng":139.880809,"zip":"3200807"},{"town":"松田新田町","koaza":"","lat":36.686395,"lng":139.899803,"zip":"3210407"},{"town":"松原一丁目","koaza":"","lat":36.568611,"lng":139.871529,"zip":"3200041"},{"town":"松原二丁目","koaza":"","lat":36.572716,"lng":139.871283,"zip":"3200041"},{"town":"松原三丁目","koaza":"","lat":36.572875,"lng":139.873489,"zip":"3200041"},{"town":"満美穴町","koaza":"","lat":36.574176,"lng":139.974463,"zip":"3213225"},{"town":"操町","koaza":"","lat":36.557948,"lng":139.869763,"zip":"3200863"},{"town":"瑞穂一丁目","koaza":"","lat":36.51351,"lng":139.919235,"zip":"3210921"},{"town":"瑞穂二丁目","koaza":"","lat":36.508536,"lng":139.920007,"zip":"3210921"},{"town":"瑞穂三丁目","koaza":"","lat":36.503901,"lng":139.920048,"zip":"3210921"},{"town":"御田長島町","koaza":"","lat":36.477658,"lng":139.888536,"zip":"3210125"},{"town":"緑一丁目","koaza":"","lat":36.52233,"lng":139.863076,"zip":"3210165"},{"town":"緑二丁目","koaza":"","lat":36.519934,"lng":139.861859,"zip":"3210165"},{"town":"緑三丁目","koaza":"","lat":36.521883,"lng":139.857868,"zip":"3210165"},{"town":"緑四丁目","koaza":"","lat":36.517876,"lng":139.859161,"zip":"3210165"},{"town":"緑五丁目","koaza":"","lat":36.515922,"lng":139.861212,"zip":"3210165"},{"town":"みどり野町","koaza":"","lat":36.49908,"lng":139.860081,"zip":"3210136"},{"town":"南一の沢町","koaza":"","lat":36.563903,"lng":139.863411,"zip":"3200044"},{"town":"南大通り一丁目","koaza":"","lat":36.556788,"lng":139.893222,"zip":"3210963"},{"town":"南大通り二丁目","koaza":"","lat":36.554876,"lng":139.892974,"zip":"3210963"},{"town":"南大通り三丁目","koaza":"","lat":36.554193,"lng":139.895791,"zip":"3210963"},{"town":"南大通り四丁目","koaza":"","lat":36.55609,"lng":139.896171,"zip":"3210963"},{"town":"南高砂町","koaza":"","lat":36.48365,"lng":139.8704,"zip":"3210143"},{"town":"南町","koaza":"","lat":36.484011,"lng":139.86549,"zip":"3210142"},{"town":"峰一丁目","koaza":"","lat":36.554532,"lng":139.911494,"zip":"3210942"},{"town":"峰二丁目","koaza":"","lat":36.555254,"lng":139.916456,"zip":"3210942"},{"town":"峰三丁目","koaza":"","lat":36.552152,"lng":139.917023,"zip":"3210942"},{"town":"峰四丁目","koaza":"","lat":36.553504,"lng":139.921574,"zip":"3210942"},{"town":"峰町","koaza":"","lat":36.547296,"lng":139.917198,"zip":"3210943"},{"town":"宮園町","koaza":"","lat":36.559413,"lng":139.880822,"zip":"3200808"},{"town":"宮の内一丁目","koaza":"","lat":36.507416,"lng":139.877651,"zip":"3210131"},{"town":"宮の内二丁目","koaza":"","lat":36.505818,"lng":139.873871,"zip":"3210131"},{"town":"宮の内三丁目","koaza":"","lat":36.503852,"lng":139.876966,"zip":"3210131"},{"town":"宮の内四丁目","koaza":"","lat":36.500429,"lng":139.876384,"zip":"3210131"},{"town":"宮原一丁目","koaza":"","lat":36.543101,"lng":139.87569,"zip":"3200835"},{"town":"宮原三丁目","koaza":"","lat":36.541265,"lng":139.876716,"zip":"3200835"},{"town":"宮原四丁目","koaza":"","lat":36.54145,"lng":139.872684,"zip":"3200835"},{"town":"宮原五丁目","koaza":"","lat":36.540767,"lng":139.868847,"zip":"3200835"},{"town":"宮町","koaza":"","lat":36.562215,"lng":139.887552,"zip":"3200025"},{"town":"宮みらい","koaza":"","lat":36.558474,"lng":139.899945,"zip":"3210969"},{"town":"宮本町","koaza":"","lat":36.529319,"lng":139.861997,"zip":"3210163"},{"town":"宮山田町","koaza":"","lat":36.707983,"lng":139.861281,"zip":"3210411"},{"town":"御幸ケ原町","koaza":"","lat":36.589231,"lng":139.924956,"zip":"3210982"},{"town":"御幸町","koaza":"","lat":36.578112,"lng":139.92021,"zip":"3210984"},{"town":"御幸本町","koaza":"","lat":36.579759,"lng":139.925408,"zip":"3210983"},{"town":"睦町","koaza":"","lat":36.560243,"lng":139.86297,"zip":"3200865"},{"town":"免ノ内町","koaza":"","lat":36.674609,"lng":139.86127,"zip":"3210415"},{"town":"元今泉一丁目","koaza":"","lat":36.561553,"lng":139.902562,"zip":"3210954"},{"town":"元今泉二丁目","koaza":"","lat":36.56514,"lng":139.902407,"zip":"3210954"},{"town":"元今泉三丁目","koaza":"","lat":36.564373,"lng":139.906475,"zip":"3210954"},{"town":"元今泉四丁目","koaza":"","lat":36.560816,"lng":139.905974,"zip":"3210954"},{"town":"元今泉五丁目","koaza":"","lat":36.560781,"lng":139.909864,"zip":"3210954"},{"town":"元今泉六丁目","koaza":"","lat":36.560858,"lng":139.913225,"zip":"3210954"},{"town":"元今泉七丁目","koaza":"","lat":36.565355,"lng":139.913929,"zip":"3210954"},{"town":"元今泉八丁目","koaza":"","lat":36.564265,"lng":139.910117,"zip":"3210954"},{"town":"茂原一丁目","koaza":"","lat":36.475936,"lng":139.866592,"zip":"3210145"},{"town":"茂原二丁目","koaza":"","lat":36.475683,"lng":139.872685,"zip":"3210145"},{"town":"茂原三丁目","koaza":"","lat":36.471426,"lng":139.871969,"zip":"3210145"},{"town":"茂原町","koaza":"","lat":36.474768,"lng":139.879936,"zip":"3210126"},{"town":"屋板町","koaza":"","lat":36.513545,"lng":139.900776,"zip":"3210112"},{"town":"八千代一丁目","koaza":"","lat":36.53237,"lng":139.859081,"zip":"3210169"},{"town":"八千代二丁目","koaza":"","lat":36.530765,"lng":139.857896,"zip":"3210169"},{"town":"柳田町","koaza":"","lat":36.568422,"lng":139.958859,"zip":"3210902"},{"town":"簗瀬一丁目","koaza":"","lat":36.551977,"lng":139.891116,"zip":"3210934"},{"town":"簗瀬二丁目","koaza":"","lat":36.551374,"lng":139.893893,"zip":"3210934"},{"town":"簗瀬三丁目","koaza":"","lat":36.549402,"lng":139.895012,"zip":"3210934"},{"town":"簗瀬四丁目","koaza":"","lat":36.550385,"lng":139.898936,"zip":"3210934"},{"town":"簗瀬町","koaza":"","lat":36.543517,"lng":139.890977,"zip":"3210933"},{"town":"大和一丁目","koaza":"","lat":36.535835,"lng":139.864906,"zip":"3210162"},{"town":"大和二丁目","koaza":"","lat":36.531142,"lng":139.862788,"zip":"3210162"},{"town":"大和三丁目","koaza":"","lat":36.53763,"lng":139.862605,"zip":"3210162"},{"town":"山本一丁目","koaza":"","lat":36.581509,"lng":139.888658,"zip":"3200012"},{"town":"山本二丁目","koaza":"","lat":36.581475,"lng":139.882878,"zip":"3200012"},{"town":"山本三丁目","koaza":"","lat":36.58446,"lng":139.87918,"zip":"3200012"},{"town":"山本町","koaza":"","lat":36.578035,"lng":139.882937,"zip":"3200016"},{"town":"弥生一丁目","koaza":"","lat":36.543985,"lng":139.86765,"zip":"3200837"},{"town":"弥生二丁目","koaza":"","lat":36.541288,"lng":139.866603,"zip":"3200837"},{"town":"ゆいの杜一丁目","koaza":"","lat":36.571668,"lng":139.985636,"zip":"3213226"},{"town":"ゆいの杜二丁目","koaza":"","lat":36.576032,"lng":139.992294,"zip":"3213226"},{"town":"ゆいの杜三丁目","koaza":"","lat":36.571892,"lng":139.989589,"zip":"3213226"},{"town":"ゆいの杜四丁目","koaza":"","lat":36.569094,"lng":139.989728,"zip":"3213226"},{"town":"ゆいの杜五丁目","koaza":"","lat":36.566689,"lng":139.995554,"zip":"3213226"},{"town":"ゆいの杜六丁目","koaza":"","lat":36.569822,"lng":139.99597,"zip":"3213226"},{"town":"ゆいの杜七丁目","koaza":"","lat":36.573123,"lng":139.994583,"zip":"3213226"},{"town":"ゆいの杜八丁目","koaza":"","lat":36.571724,"lng":140.000201,"zip":"3213226"},{"town":"陽西町","koaza":"","lat":36.572145,"lng":139.85904,"zip":"3200063"},{"town":"陽東一丁目","koaza":"","lat":36.550117,"lng":139.925065,"zip":"3210904"},{"town":"陽東二丁目","koaza":"","lat":36.553915,"lng":139.925836,"zip":"3210904"},{"town":"陽東三丁目","koaza":"","lat":36.555035,"lng":139.923431,"zip":"3210904"},{"town":"陽東四丁目","koaza":"","lat":36.558363,"lng":139.924211,"zip":"3210904"},{"town":"陽東五丁目","koaza":"","lat":36.558492,"lng":139.931217,"zip":"3210904"},{"town":"陽東六丁目","koaza":"","lat":36.554861,"lng":139.930546,"zip":"3210904"},{"town":"陽東七丁目","koaza":"","lat":36.550078,"lng":139.930516,"zip":"3210904"},{"town":"陽東八丁目","koaza":"","lat":36.551753,"lng":139.933899,"zip":"3210904"},{"town":"陽南一丁目","koaza":"","lat":36.538584,"lng":139.875936,"zip":"3200834"},{"town":"陽南二丁目","koaza":"","lat":36.535349,"lng":139.877518,"zip":"3200834"},{"town":"陽南三丁目","koaza":"","lat":36.534959,"lng":139.871973,"zip":"3200834"},{"town":"陽南四丁目","koaza":"","lat":36.536285,"lng":139.867751,"zip":"3200834"},{"town":"横田新町","koaza":"","lat":36.511725,"lng":139.878398,"zip":"3210105"},{"town":"横山一丁目","koaza":"","lat":36.616219,"lng":139.890542,"zip":"3200005"},{"town":"横山二丁目","koaza":"","lat":36.617184,"lng":139.887605,"zip":"3200005"},{"town":"横山三丁目","koaza":"","lat":36.622061,"lng":139.886443,"zip":"3200005"},{"town":"横山町","koaza":"","lat":36.622895,"lng":139.874622,"zip":"3200001"},{"town":"吉野一丁目","koaza":"","lat":36.546438,"lng":139.872764,"zip":"3200838"},{"town":"吉野二丁目","koaza":"","lat":36.544501,"lng":139.871387,"zip":"3200838"},{"town":"立伏町","koaza":"","lat":36.638847,"lng":139.879664,"zip":"3291116"},{"town":"六道町","koaza":"","lat":36.554442,"lng":139.869386,"zip":"3200841"},{"town":"若草一丁目","koaza":"","lat":36.583309,"lng":139.864636,"zip":"3200072"},{"town":"若草二丁目","koaza":"","lat":36.582243,"lng":139.861356,"zip":"3200072"},{"town":"若草三丁目","koaza":"","lat":36.588008,"lng":139.861503,"zip":"3200072"},{"town":"若草四丁目","koaza":"","lat":36.586463,"lng":139.85833,"zip":"3200072"},{"town":"若草五丁目","koaza":"","lat":36.590814,"lng":139.859782,"zip":"3200072"},{"town":"若松原一丁目","koaza":"","lat":36.501351,"lng":139.869408,"zip":"3210139"},{"town":"若松原二丁目","koaza":"","lat":36.501631,"lng":139.866091,"zip":"3210139"},{"town":"若松原三丁目","koaza":"","lat":36.502065,"lng":139.863631,"zip":"3210139"},{"town":"西一の沢町","koaza":"","lat":36.566342,"lng":139.860525,"zip":"3200046"},{"town":"鶴田一丁目","koaza":"","lat":36.560594,"lng":139.856545,"zip":"3200857"},{"town":"鶴田二丁目","koaza":"","lat":36.56121,"lng":139.853235,"zip":"3200857"},{"town":"鶴田町","koaza":"","lat":36.555013,"lng":139.855103,"zip":"3200851"},{"town":"鶴田三丁目","koaza":"","lat":36.560763,"lng":139.849992,"zip":"3200857"},{"town":"新里町","koaza":"乙","lat":36.635003,"lng":139.814662,"zip":"3212118"},{"town":"新里町","koaza":"甲","lat":36.619042,"lng":139.807374,"zip":"3212118"},{"town":"新里町","koaza":"丙","lat":36.637804,"lng":139.822957,"zip":"3212118"},{"town":"新里町","koaza":"丁","lat":36.625468,"lng":139.832091,"zip":"3212118"},{"town":"中里町","koaza":"新堀下","lat":36.679557,"lng":139.900173,"zip":"3210414"},{"town":"平出町","koaza":"上野","lat":36.578926,"lng":139.93847,"zip":"3210901"}]