[{"town":"相生町","koaza":"","lat":36.74661,"lng":139.620836,"zip":"3211413"},{"town":"足尾町","koaza":"","lat":36.665745,"lng":139.47447,"zip":"3211511"},{"town":"足尾町赤倉","koaza":"","lat":36.666055,"lng":139.44614,"zip":"3211502"},{"town":"足尾町赤沢","koaza":"","lat":36.637858,"lng":139.442205,"zip":"3211524"},{"town":"足尾町愛宕下","koaza":"","lat":36.671818,"lng":139.443641,"zip":"3211501"},{"town":"足尾町上の平","koaza":"","lat":36.656541,"lng":139.450795,"zip":"3211505"},{"town":"足尾町掛水","koaza":"","lat":36.641422,"lng":139.4486,"zip":"3211512"},{"town":"足尾町上間藤","koaza":"","lat":36.658231,"lng":139.448319,"zip":"3211504"},{"town":"足尾町下間藤","koaza":"","lat":36.65382,"lng":139.449361,"zip":"3211506"},{"town":"足尾町砂畑","koaza":"","lat":36.628553,"lng":139.433747,"zip":"3211515"},{"town":"足尾町通洞","koaza":"","lat":36.63365,"lng":139.43988,"zip":"3211514"},{"town":"足尾町遠下","koaza":"","lat":36.626142,"lng":139.428603,"zip":"3211521"},{"town":"足尾町中才","koaza":"","lat":36.631068,"lng":139.433074,"zip":"3211522"},{"town":"足尾町南橋","koaza":"","lat":36.662613,"lng":139.444751,"zip":"3211507"},{"town":"足尾町深沢","koaza":"","lat":36.663384,"lng":139.448735,"zip":"3211503"},{"town":"足尾町本山","koaza":"","lat":36.667222,"lng":139.443587,"zip":"3211508"},{"town":"足尾町松原","koaza":"","lat":36.636087,"lng":139.440579,"zip":"3211523"},{"town":"足尾町向原","koaza":"","lat":36.637559,"lng":139.44601,"zip":"3211513"},{"town":"五十里","koaza":"","lat":36.946926,"lng":139.708647,"zip":"3212615"},{"town":"石屋町","koaza":"","lat":36.748023,"lng":139.614944,"zip":"3211405"},{"town":"和泉","koaza":"","lat":36.722451,"lng":139.662998,"zip":"3211425"},{"town":"板橋","koaza":"","lat":36.666162,"lng":139.732316,"zip":"3211102"},{"town":"稲荷町一丁目","koaza":"","lat":36.750577,"lng":139.612606,"zip":"3211411"},{"town":"稲荷町二丁目","koaza":"","lat":36.750608,"lng":139.616709,"zip":"3211411"},{"town":"稲荷町三丁目","koaza":"","lat":36.749108,"lng":139.616997,"zip":"3211411"},{"town":"猪倉","koaza":"","lat":36.659251,"lng":139.770887,"zip":"3212344"},{"town":"今市","koaza":"","lat":36.728233,"lng":139.699015,"zip":"3211261"},{"town":"今市本町","koaza":"","lat":36.718482,"lng":139.698661,"zip":"3211272"},{"town":"岩崎","koaza":"","lat":36.629915,"lng":139.750049,"zip":"3211104"},{"town":"薄井沢","koaza":"","lat":36.713168,"lng":139.766702,"zip":"3212333"},{"town":"大桑町","koaza":"","lat":36.763512,"lng":139.708309,"zip":"3212411"},{"town":"大沢町","koaza":"","lat":36.696943,"lng":139.762064,"zip":"3212341"},{"town":"大室","koaza":"","lat":36.721232,"lng":139.749875,"zip":"3212332"},{"town":"大渡","koaza":"","lat":36.761321,"lng":139.754773,"zip":"3212402"},{"town":"荊沢","koaza":"","lat":36.732935,"lng":139.724955,"zip":"3212336"},{"town":"嘉多蔵","koaza":"","lat":36.711758,"lng":139.79675,"zip":"3212354"},{"town":"上栗山","koaza":"","lat":36.844842,"lng":139.583672,"zip":"3212715"},{"town":"上鉢石町","koaza":"","lat":36.752109,"lng":139.604243,"zip":"3211401"},{"town":"上三依","koaza":"","lat":37.017838,"lng":139.736022,"zip":"3212802"},{"town":"柄倉","koaza":"","lat":36.794541,"lng":139.693596,"zip":"3212524"},{"town":"川治温泉川治","koaza":"","lat":36.907362,"lng":139.69354,"zip":"3212611"},{"town":"川治温泉高原","koaza":"","lat":36.913647,"lng":139.752698,"zip":"3212612"},{"town":"川治温泉滝","koaza":"","lat":36.883,"lng":139.700536,"zip":"3212614"},{"town":"川俣","koaza":"","lat":36.89164,"lng":139.45481,"zip":"3212717"},{"town":"川室","koaza":"","lat":36.762162,"lng":139.721035,"zip":"3212401"},{"town":"吉沢","koaza":"","lat":36.712053,"lng":139.706291,"zip":"3211273"},{"town":"鬼怒川温泉大原","koaza":"","lat":36.813735,"lng":139.717804,"zip":"3212522"},{"town":"鬼怒川温泉滝","koaza":"","lat":36.863562,"lng":139.687337,"zip":"3212526"},{"town":"清滝一丁目","koaza":"","lat":36.743903,"lng":139.56789,"zip":"3211444"},{"town":"清滝二丁目","koaza":"","lat":36.736196,"lng":139.556497,"zip":"3211444"},{"town":"清滝三丁目","koaza":"","lat":36.733147,"lng":139.553348,"zip":"3211444"},{"town":"清滝四丁目","koaza":"","lat":36.735251,"lng":139.560876,"zip":"3211444"},{"town":"清滝安良沢町","koaza":"","lat":36.749772,"lng":139.571589,"zip":"3211441"},{"town":"清滝桜ケ丘町","koaza":"","lat":36.73955,"lng":139.563631,"zip":"3211443"},{"town":"清滝新細尾町","koaza":"","lat":36.731985,"lng":139.54588,"zip":"3211448"},{"town":"清滝丹勢町","koaza":"","lat":36.742222,"lng":139.556818,"zip":"3211442"},{"town":"清滝中安戸町","koaza":"","lat":36.735907,"lng":139.558692,"zip":"3211446"},{"town":"清滝町","koaza":"","lat":36.739432,"lng":139.546983,"zip":"3211200"},{"town":"清滝和の代町","koaza":"","lat":36.741926,"lng":139.574244,"zip":"3211447"},{"town":"木和田島","koaza":"","lat":36.68368,"lng":139.751124,"zip":"3212345"},{"town":"久次良町","koaza":"","lat":36.753527,"lng":139.577032,"zip":"3211436"},{"town":"沓掛","koaza":"","lat":36.720446,"lng":139.809235,"zip":"3212353"},{"town":"倉ケ崎","koaza":"","lat":36.747705,"lng":139.700365,"zip":"3212412"},{"town":"倉ケ崎新田","koaza":"","lat":36.739091,"lng":139.702501,"zip":"3212413"},{"town":"栗原","koaza":"","lat":36.774294,"lng":139.706184,"zip":"3212421"},{"town":"黒部","koaza":"","lat":36.873192,"lng":139.595047,"zip":"3212713"},{"town":"小倉","koaza":"","lat":36.629884,"lng":139.722549,"zip":"3211106"},{"town":"御幸町","koaza":"","lat":36.748886,"lng":139.611308,"zip":"3211404"},{"town":"小佐越","koaza":"","lat":36.811486,"lng":139.695723,"zip":"3212525"},{"town":"小代","koaza":"","lat":36.656154,"lng":139.71561,"zip":"3211107"},{"town":"小林","koaza":"","lat":36.722885,"lng":139.833388,"zip":"3212352"},{"town":"小百","koaza":"","lat":36.805887,"lng":139.654147,"zip":"3212426"},{"town":"佐下部","koaza":"","lat":36.815664,"lng":139.674083,"zip":"3212427"},{"town":"沢又","koaza":"","lat":36.717763,"lng":139.788974,"zip":"3212355"},{"town":"山内","koaza":"","lat":36.761397,"lng":139.596779,"zip":"3211431"},{"town":"塩野室町","koaza":"","lat":36.736941,"lng":139.785531,"zip":"3212351"},{"town":"七里","koaza":"","lat":36.730654,"lng":139.619212,"zip":"3211423"},{"town":"下の内","koaza":"","lat":36.704021,"lng":139.687692,"zip":"3211276"},{"town":"下鉢石町","koaza":"","lat":36.750228,"lng":139.609255,"zip":"3211403"},{"town":"瀬川","koaza":"","lat":36.731371,"lng":139.672804,"zip":"3211263"},{"town":"瀬尾","koaza":"","lat":36.788178,"lng":139.631736,"zip":"3211264"},{"town":"芹沢","koaza":"","lat":36.999972,"lng":139.641946,"zip":"3212804"},{"town":"芹沼","koaza":"","lat":36.74426,"lng":139.719163,"zip":"3212405"},{"town":"千本木","koaza":"","lat":36.711411,"lng":139.688826,"zip":"3211277"},{"town":"高柴","koaza":"","lat":36.769174,"lng":139.709949,"zip":"3212422"},{"town":"高徳","koaza":"","lat":36.788864,"lng":139.719232,"zip":"3212523"},{"town":"高原","koaza":"","lat":36.922219,"lng":139.734723,"zip":"3212616"},{"town":"滝ケ原","koaza":"","lat":36.70871,"lng":139.584389,"zip":"3211356"},{"town":"匠町","koaza":"","lat":36.75069,"lng":139.594069,"zip":"3211433"},{"town":"丹勢","koaza":"","lat":36.74927,"lng":139.552014,"zip":"3211449"},{"town":"中央町","koaza":"","lat":36.720611,"lng":139.689362,"zip":"3211266"},{"town":"中宮祠","koaza":"","lat":36.766666,"lng":139.430946,"zip":"3211661"},{"town":"手岡","koaza":"","lat":36.647595,"lng":139.750614,"zip":"3211103"},{"town":"東和町","koaza":"","lat":36.745467,"lng":139.623147,"zip":"3211412"},{"town":"所野","koaza":"","lat":36.775681,"lng":139.611715,"zip":"3211421"},{"town":"土沢","koaza":"","lat":36.697617,"lng":139.72934,"zip":"3211274"},{"town":"独鈷沢","koaza":"","lat":36.972256,"lng":139.694019,"zip":"3212805"},{"town":"轟","koaza":"","lat":36.755312,"lng":139.738911,"zip":"3212404"},{"town":"豊田","koaza":"","lat":36.732649,"lng":139.704053,"zip":"3212414"},{"town":"土呂部","koaza":"","lat":36.894213,"lng":139.565247,"zip":"3212714"},{"town":"中小来川","koaza":"","lat":36.660631,"lng":139.606128,"zip":"3211354"},{"town":"長畑","koaza":"","lat":36.681148,"lng":139.671647,"zip":"3211108"},{"town":"中鉢石町","koaza":"","lat":36.751477,"lng":139.607852,"zip":"3211402"},{"town":"中三依","koaza":"","lat":37.021349,"lng":139.677499,"zip":"3212803"},{"town":"並木町","koaza":"","lat":36.718971,"lng":139.693686,"zip":"3211271"},{"town":"西小来川","koaza":"","lat":36.67889,"lng":139.595411,"zip":"3211355"},{"town":"西川","koaza":"","lat":36.940277,"lng":139.651473,"zip":"3212603"},{"town":"日光","koaza":"","lat":36.783421,"lng":139.547917,"zip":"3211415"},{"town":"根室","koaza":"","lat":36.703861,"lng":139.773755,"zip":"3212342"},{"town":"野門","koaza":"","lat":36.84685,"lng":139.532356,"zip":"3212716"},{"town":"野口","koaza":"","lat":36.733299,"lng":139.652294,"zip":"3211424"},{"town":"花石町","koaza":"","lat":36.752803,"lng":139.587221,"zip":"3211435"},{"town":"原宿","koaza":"","lat":36.76632,"lng":139.696661,"zip":"3212423"},{"town":"針貝","koaza":"","lat":36.740583,"lng":139.754299,"zip":"3212331"},{"town":"萩垣面","koaza":"","lat":36.762458,"lng":139.602573,"zip":"3211414"},{"town":"日蔭","koaza":"","lat":36.860757,"lng":139.634114,"zip":"3212712"},{"town":"東小来川","koaza":"","lat":36.696761,"lng":139.621913,"zip":"3211351"},{"town":"日向","koaza":"","lat":36.899164,"lng":139.636627,"zip":"3212711"},{"town":"平ケ崎","koaza":"","lat":36.716296,"lng":139.67657,"zip":"3211262"},{"town":"藤原","koaza":"","lat":36.878552,"lng":139.753205,"zip":"3212613"},{"town":"文挾町","koaza":"","lat":36.640409,"lng":139.731271,"zip":"3211105"},{"town":"宝殿","koaza":"","lat":36.744443,"lng":139.62658,"zip":"3211422"},{"town":"細尾町","koaza":"","lat":36.72995,"lng":139.52484,"zip":"3211445"},{"town":"本町","koaza":"","lat":36.753087,"lng":139.592175,"zip":"3211434"},{"town":"町谷","koaza":"","lat":36.749312,"lng":139.754579,"zip":"3212403"},{"town":"松原町","koaza":"","lat":36.747194,"lng":139.617902,"zip":"3211406"},{"town":"水無","koaza":"","lat":36.707461,"lng":139.740595,"zip":"3212334"},{"town":"南小来川","koaza":"","lat":36.648434,"lng":139.635489,"zip":"3211353"},{"town":"宮小来川","koaza":"","lat":36.665487,"lng":139.634917,"zip":"3211352"},{"town":"明神","koaza":"","lat":36.683568,"lng":139.70782,"zip":"3211101"},{"town":"室瀬","koaza":"","lat":36.70069,"lng":139.698854,"zip":"3211275"},{"town":"森友","koaza":"","lat":36.717183,"lng":139.724499,"zip":"3212335"},{"town":"安川町","koaza":"","lat":36.754137,"lng":139.597786,"zip":"3211432"},{"town":"矢野口","koaza":"","lat":36.725794,"lng":139.779335,"zip":"3212356"},{"town":"山口","koaza":"","lat":36.689441,"lng":139.774503,"zip":"3212343"},{"town":"山久保","koaza":"","lat":36.708136,"lng":139.643581,"zip":"3211426"},{"town":"湯西川","koaza":"","lat":36.963857,"lng":139.580071,"zip":"3212601"},{"town":"湯元","koaza":"","lat":36.812618,"lng":139.420411,"zip":"3211662"},{"town":"横川","koaza":"","lat":37.059351,"lng":139.755051,"zip":"3212801"},{"town":"若杉町","koaza":"","lat":36.74319,"lng":139.622413,"zip":"3211407"},{"town":"若間","koaza":"","lat":36.865523,"lng":139.565619,"zip":"3212718"},{"town":"倉ケ崎","koaza":"松原","lat":36.741147,"lng":139.702133,"zip":"3212412"},{"town":"小佐越","koaza":"坂の下","lat":36.806706,"lng":139.702939,"zip":"3212525"},{"town":"豊田","koaza":"若林","lat":36.73051,"lng":139.704007,"zip":"3212414"},{"town":"豊田","koaza":"藤ヶ久保","lat":36.736362,"lng":139.705994,"zip":"3212414"}]