[{"town":"旭町","koaza":"","lat":36.377396,"lng":139.736519,"zip":"3280035"},{"town":"梓町","koaza":"","lat":36.436411,"lng":139.688304,"zip":"3280131"},{"town":"新井町","koaza":"","lat":36.395009,"lng":139.709623,"zip":"3280061"},{"town":"泉川町","koaza":"","lat":36.390451,"lng":139.706937,"zip":"3280062"},{"town":"泉町","koaza":"","lat":36.386137,"lng":139.737174,"zip":"3280014"},{"town":"出流町","koaza":"","lat":36.477622,"lng":139.588918,"zip":"3280206"},{"town":"今泉町一丁目","koaza":"","lat":36.385127,"lng":139.751522,"zip":"3280027"},{"town":"今泉町二丁目","koaza":"","lat":36.385308,"lng":139.745866,"zip":"3280027"},{"town":"入舟町","koaza":"","lat":36.382538,"lng":139.730829,"zip":"3280016"},{"town":"祝町","koaza":"","lat":36.381028,"lng":139.728301,"zip":"3280052"},{"town":"岩出町","koaza":"","lat":36.377434,"lng":139.692777,"zip":"3280063"},{"town":"岩舟町五十畑","koaza":"","lat":36.332195,"lng":139.672352,"zip":"3294302"},{"town":"岩舟町和泉","koaza":"","lat":36.324476,"lng":139.673434,"zip":"3294303"},{"town":"岩舟町小野寺","koaza":"","lat":36.365271,"lng":139.633271,"zip":"3294314"},{"town":"岩舟町上岡","koaza":"","lat":36.344169,"lng":139.628203,"zip":"3294313"},{"town":"岩舟町静","koaza":"","lat":36.313234,"lng":139.663798,"zip":"3294307"},{"town":"岩舟町静戸","koaza":"","lat":36.306514,"lng":139.696794,"zip":"3294305"},{"town":"岩舟町静和","koaza":"","lat":36.318452,"lng":139.686199,"zip":"3294304"},{"town":"岩舟町下岡","koaza":"","lat":36.33807,"lng":139.630068,"zip":"3294312"},{"town":"岩舟町下津原","koaza":"","lat":36.316951,"lng":139.641412,"zip":"3294308"},{"town":"岩舟町畳岡","koaza":"","lat":36.323752,"lng":139.64436,"zip":"3294309"},{"town":"岩舟町新里","koaza":"","lat":36.33063,"lng":139.6427,"zip":"3294316"},{"town":"岩舟町古江","koaza":"","lat":36.334287,"lng":139.623538,"zip":"3294311"},{"town":"岩舟町曲ケ島","koaza":"","lat":36.299719,"lng":139.679552,"zip":"3294306"},{"town":"岩舟町三谷","koaza":"","lat":36.344004,"lng":139.644252,"zip":"3294315"},{"town":"岩舟町鷲巣","koaza":"","lat":36.336826,"lng":139.659517,"zip":"3294301"},{"town":"梅沢町","koaza":"","lat":36.435684,"lng":139.650104,"zip":"3280204"},{"town":"大久保町","koaza":"","lat":36.449514,"lng":139.660639,"zip":"3280202"},{"town":"大塚町","koaza":"","lat":36.410836,"lng":139.767554,"zip":"3280007"},{"town":"大平町新","koaza":"","lat":36.326172,"lng":139.704356,"zip":"3294425"},{"town":"大平町牛久","koaza":"","lat":36.362808,"lng":139.731465,"zip":"3294401"},{"town":"大平町榎本","koaza":"","lat":36.319568,"lng":139.726035,"zip":"3294422"},{"town":"大平町上高島","koaza":"","lat":36.340832,"lng":139.737113,"zip":"3294413"},{"town":"大平町川連","koaza":"","lat":36.358495,"lng":139.71816,"zip":"3294407"},{"town":"大平町北武井","koaza":"","lat":36.353324,"lng":139.750214,"zip":"3294412"},{"town":"大平町蔵井","koaza":"","lat":36.345697,"lng":139.721859,"zip":"3294403"},{"town":"大平町下高島","koaza":"","lat":36.337102,"lng":139.740435,"zip":"3294414"},{"town":"大平町下皆川","koaza":"","lat":36.356643,"lng":139.703947,"zip":"3294406"},{"town":"大平町富田","koaza":"","lat":36.338808,"lng":139.692743,"zip":"3294404"},{"town":"大平町土与","koaza":"","lat":36.355765,"lng":139.724209,"zip":"3294402"},{"town":"大平町西野田","koaza":"","lat":36.328946,"lng":139.718128,"zip":"3294421"},{"town":"大平町西水代","koaza":"","lat":36.31035,"lng":139.713054,"zip":"3294423"},{"town":"大平町西山田","koaza":"","lat":36.348688,"lng":139.67791,"zip":"3294405"},{"town":"大平町伯仲","koaza":"","lat":36.296198,"lng":139.713207,"zip":"3294424"},{"town":"大平町真弓","koaza":"","lat":36.33342,"lng":139.727536,"zip":"3294415"},{"town":"大平町横堀","koaza":"","lat":36.351986,"lng":139.737806,"zip":"3294411"},{"town":"大皆川町","koaza":"","lat":36.393088,"lng":139.69777,"zip":"3280068"},{"town":"大宮町","koaza":"","lat":36.389581,"lng":139.762571,"zip":"3280011"},{"town":"大森町","koaza":"","lat":36.417498,"lng":139.697972,"zip":"3280133"},{"town":"小野口町","koaza":"","lat":36.3762,"lng":139.660276,"zip":"3280065"},{"town":"嘉右衛門町","koaza":"","lat":36.388131,"lng":139.733272,"zip":"3280072"},{"town":"柏倉町","koaza":"","lat":36.398266,"lng":139.654824,"zip":"3280066"},{"town":"片柳町一丁目","koaza":"","lat":36.375146,"lng":139.722827,"zip":"3280053"},{"town":"片柳町二丁目","koaza":"","lat":36.369249,"lng":139.721417,"zip":"3280053"},{"town":"片柳町三丁目","koaza":"","lat":36.365425,"lng":139.720734,"zip":"3280053"},{"town":"片柳町四丁目","koaza":"","lat":36.366767,"lng":139.716516,"zip":"3280053"},{"town":"片柳町五丁目","koaza":"","lat":36.372473,"lng":139.714692,"zip":"3280053"},{"town":"西方町金井","koaza":"","lat":36.449786,"lng":139.748095,"zip":"3220602"},{"town":"西方町金崎","koaza":"","lat":36.470546,"lng":139.748071,"zip":"3220601"},{"town":"河合町","koaza":"","lat":36.373327,"lng":139.733512,"zip":"3280041"},{"town":"川原田町","koaza":"","lat":36.405976,"lng":139.729811,"zip":"3280123"},{"town":"神田町","koaza":"","lat":36.378993,"lng":139.746987,"zip":"3280032"},{"town":"木野地町","koaza":"","lat":36.416521,"lng":139.729719,"zip":"3280122"},{"town":"久保田町","koaza":"","lat":36.371771,"lng":139.772838,"zip":"3280021"},{"town":"国府町","koaza":"","lat":36.398418,"lng":139.76241,"zip":"3280006"},{"town":"高谷町","koaza":"","lat":36.358663,"lng":139.763934,"zip":"3280023"},{"town":"小平町","koaza":"","lat":36.388352,"lng":139.729068,"zip":"3280073"},{"town":"境町","koaza":"","lat":36.371601,"lng":139.728575,"zip":"3280043"},{"town":"志鳥町","koaza":"","lat":36.37312,"lng":139.672498,"zip":"3280064"},{"town":"城内町一丁目","koaza":"","lat":36.374891,"lng":139.743122,"zip":"3280033"},{"town":"城内町二丁目","koaza":"","lat":36.368614,"lng":139.745168,"zip":"3280033"},{"town":"昭和町","koaza":"","lat":36.389936,"lng":139.735886,"zip":"3280013"},{"town":"尻内町","koaza":"","lat":36.431771,"lng":139.643256,"zip":"3280203"},{"town":"惣社町","koaza":"","lat":36.404707,"lng":139.784051,"zip":"3280002"},{"town":"薗部町一丁目","koaza":"","lat":36.380602,"lng":139.719943,"zip":"3280074"},{"town":"薗部町二丁目","koaza":"","lat":36.375599,"lng":139.715523,"zip":"3280074"},{"town":"薗部町三丁目","koaza":"","lat":36.380738,"lng":139.71562,"zip":"3280074"},{"town":"薗部町四丁目","koaza":"","lat":36.374177,"lng":139.695871,"zip":"3280074"},{"town":"大光寺町","koaza":"","lat":36.390808,"lng":139.792969,"zip":"3280003"},{"town":"大町","koaza":"","lat":36.395566,"lng":139.734642,"zip":"3280071"},{"town":"田村町","koaza":"","lat":36.386439,"lng":139.783961,"zip":"3280004"},{"town":"千塚町","koaza":"","lat":36.415728,"lng":139.679246,"zip":"3280135"},{"town":"都賀町家中","koaza":"","lat":36.432322,"lng":139.758205,"zip":"3280111"},{"town":"都賀町臼久保","koaza":"","lat":36.434943,"lng":139.712186,"zip":"3280105"},{"town":"都賀町大柿","koaza":"","lat":36.45459,"lng":139.690032,"zip":"3280101"},{"town":"都賀町大橋","koaza":"","lat":36.440264,"lng":139.713403,"zip":"3280106"},{"town":"都賀町合戦場","koaza":"","lat":36.405416,"lng":139.743192,"zip":"3280113"},{"town":"都賀町木","koaza":"","lat":36.427684,"lng":139.716976,"zip":"3280104"},{"town":"都賀町富張","koaza":"","lat":36.448453,"lng":139.723635,"zip":"3280102"},{"town":"都賀町原宿","koaza":"","lat":36.430016,"lng":139.735777,"zip":"3280103"},{"town":"都賀町平川","koaza":"","lat":36.40842,"lng":139.753713,"zip":"3280112"},{"town":"都賀町深沢","koaza":"","lat":36.443066,"lng":139.699141,"zip":"3280107"},{"town":"都賀町升塚","koaza":"","lat":36.416001,"lng":139.742539,"zip":"3280114"},{"town":"仲方町","koaza":"","lat":36.423633,"lng":139.69557,"zip":"3280132"},{"town":"仲仕上町","koaza":"","lat":36.371853,"lng":139.755085,"zip":"3280025"},{"town":"鍋山町","koaza":"","lat":36.454544,"lng":139.632776,"zip":"3280205"},{"town":"錦町","koaza":"","lat":36.38584,"lng":139.729921,"zip":"3280017"},{"town":"沼和田町","koaza":"","lat":36.366032,"lng":139.737845,"zip":"3280042"},{"town":"野中町","koaza":"","lat":36.400959,"lng":139.717477,"zip":"3280124"},{"town":"箱森町","koaza":"","lat":36.391398,"lng":139.723035,"zip":"3280075"},{"town":"樋ノ口町","koaza":"","lat":36.360716,"lng":139.757957,"zip":"3280024"},{"town":"日ノ出町","koaza":"","lat":36.384771,"lng":139.741125,"zip":"3280031"},{"town":"平井町","koaza":"","lat":36.369489,"lng":139.70489,"zip":"3280054"},{"town":"平柳町一丁目","koaza":"","lat":36.392898,"lng":139.738997,"zip":"3280012"},{"town":"平柳町二丁目","koaza":"","lat":36.392117,"lng":139.745851,"zip":"3280012"},{"town":"平柳町三丁目","koaza":"","lat":36.396939,"lng":139.746827,"zip":"3280012"},{"town":"吹上町","koaza":"","lat":36.411572,"lng":139.709321,"zip":"3280125"},{"town":"藤岡町赤麻","koaza":"","lat":36.26982,"lng":139.675259,"zip":"3231102"},{"town":"藤岡町石川","koaza":"","lat":36.251579,"lng":139.680212,"zip":"3290316"},{"town":"藤岡町内野","koaza":"","lat":36.228429,"lng":139.673383,"zip":"3231103"},{"town":"藤岡町太田","koaza":"","lat":36.303457,"lng":139.644524,"zip":"3231108"},{"town":"藤岡町大田和","koaza":"","lat":36.299564,"lng":139.627764,"zip":"3231107"},{"town":"藤岡町大前","koaza":"","lat":36.282615,"lng":139.660655,"zip":"3231101"},{"town":"藤岡町甲","koaza":"","lat":36.283322,"lng":139.639366,"zip":"3231105"},{"town":"藤岡町下宮","koaza":"","lat":36.208745,"lng":139.666224,"zip":"3491221"},{"town":"藤岡町帯刀","koaza":"","lat":36.263954,"lng":139.690516,"zip":"3290317"},{"town":"藤岡町都賀","koaza":"","lat":36.28442,"lng":139.619126,"zip":"3231106"},{"town":"藤岡町富吉","koaza":"","lat":36.285278,"lng":139.697666,"zip":"3290311"},{"town":"藤岡町中根","koaza":"","lat":36.282672,"lng":139.687098,"zip":"3290319"},{"town":"藤岡町西前原","koaza":"","lat":36.2714,"lng":139.696572,"zip":"3290318"},{"town":"藤岡町新波","koaza":"","lat":36.265959,"lng":139.716501,"zip":"3290314"},{"town":"藤岡町蛭沼","koaza":"","lat":36.280636,"lng":139.708994,"zip":"3290312"},{"town":"藤岡町藤岡","koaza":"","lat":36.25178,"lng":139.645061,"zip":"3231104"},{"town":"藤岡町部屋","koaza":"","lat":36.256022,"lng":139.697944,"zip":"3290315"},{"town":"藤岡町緑川","koaza":"","lat":36.28131,"lng":139.721114,"zip":"3290313"},{"town":"藤田町","koaza":"","lat":36.371696,"lng":139.762105,"zip":"3280026"},{"town":"富士見町","koaza":"","lat":36.376832,"lng":139.727656,"zip":"3280044"},{"town":"星野町","koaza":"","lat":36.475379,"lng":139.637058,"zip":"3280201"},{"town":"細堀町","koaza":"","lat":36.418445,"lng":139.714625,"zip":"3280121"},{"town":"西方町本郷","koaza":"","lat":36.447126,"lng":139.735368,"zip":"3220603"},{"town":"西方町本城","koaza":"","lat":36.477198,"lng":139.726522,"zip":"3220606"},{"town":"本町","koaza":"","lat":36.378032,"lng":139.740658,"zip":"3280034"},{"town":"西方町真名子","koaza":"","lat":36.478161,"lng":139.67788,"zip":"3220605"},{"town":"皆川城内町","koaza":"","lat":36.383927,"lng":139.687541,"zip":"3280067"},{"town":"湊町","koaza":"","lat":36.37859,"lng":139.728854,"zip":"3280045"},{"town":"宮田町","koaza":"","lat":36.368616,"lng":139.765564,"zip":"3280022"},{"town":"宮町","koaza":"","lat":36.406197,"lng":139.688585,"zip":"3280134"},{"town":"室町","koaza":"","lat":36.376385,"lng":139.732345,"zip":"3280036"},{"town":"西方町元","koaza":"","lat":36.463909,"lng":139.732409,"zip":"3220604"},{"town":"柳橋町","koaza":"","lat":36.382445,"lng":139.723839,"zip":"3280051"},{"town":"柳原町","koaza":"","lat":36.414913,"lng":139.786699,"zip":"3280001"},{"town":"倭町","koaza":"","lat":36.378782,"lng":139.732903,"zip":"3280037"},{"town":"寄居町","koaza":"","lat":36.384719,"lng":139.778814,"zip":"3280005"},{"town":"万町","koaza":"","lat":36.382371,"lng":139.735667,"zip":"3280015"}]