[{"town":"大字石田","koaza":"","lat":36.468907,"lng":139.899607,"zip":"3290600"},{"town":"大字磯岡","koaza":"","lat":36.479353,"lng":139.910353,"zip":"3290600"},{"town":"大字大山","koaza":"","lat":36.446239,"lng":139.877167,"zip":"3290600"},{"town":"大字上蒲生","koaza":"","lat":36.447311,"lng":139.902559,"zip":"3290600"},{"town":"大字上郷","koaza":"","lat":36.447378,"lng":139.931566,"zip":"3290600"},{"town":"大字上神主","koaza":"","lat":36.460323,"lng":139.883196,"zip":"3290600"},{"town":"大字上三川","koaza":"","lat":36.427464,"lng":139.918054,"zip":"3290600"},{"town":"大字上文挾","koaza":"","lat":36.476912,"lng":139.946691,"zip":"3290600"},{"town":"大字川中子","koaza":"","lat":36.440524,"lng":139.890956,"zip":"3290600"},{"town":"大字五分一","koaza":"","lat":36.410758,"lng":139.897903,"zip":"3290600"},{"town":"大字坂上","koaza":"","lat":36.405558,"lng":139.911284,"zip":"3290600"},{"town":"大字鞘堂","koaza":"","lat":36.459107,"lng":139.869124,"zip":"3290600"},{"town":"大字三本木","koaza":"","lat":36.40961,"lng":139.9261,"zip":"3290600"},{"town":"大字下蒲生","koaza":"","lat":36.424767,"lng":139.898193,"zip":"3290600"},{"town":"大字下神主","koaza":"","lat":36.45205,"lng":139.885044,"zip":"3290600"},{"town":"大字多功","koaza":"","lat":36.428122,"lng":139.874987,"zip":"3290600"},{"town":"大字西木代","koaza":"","lat":36.481003,"lng":139.941717,"zip":"3290600"},{"town":"大字西蓼沼","koaza":"","lat":36.462806,"lng":139.926995,"zip":"3290600"},{"town":"大字西汗","koaza":"","lat":36.475408,"lng":139.926126,"zip":"3290600"},{"town":"大字東蓼沼","koaza":"","lat":36.460731,"lng":139.947998,"zip":"3290600"},{"town":"大字東汗","koaza":"","lat":36.470466,"lng":139.949111,"zip":"3290600"},{"town":"大字三村","koaza":"","lat":36.415046,"lng":139.908598,"zip":"3290600"},{"town":"大字梁","koaza":"","lat":36.428274,"lng":139.886244,"zip":"3290600"},{"town":"大字ゆうきが丘","koaza":"","lat":36.455261,"lng":139.878127,"zip":"3290600"},{"town":"しらさぎ一丁目","koaza":"","lat":36.440695,"lng":139.911256,"zip":"3290618"},{"town":"しらさぎ二丁目","koaza":"","lat":36.445026,"lng":139.909526,"zip":"3290618"},{"town":"しらさぎ三丁目","koaza":"","lat":36.443737,"lng":139.91659,"zip":"3290618"},{"town":"天神町","koaza":"","lat":36.436224,"lng":139.869997,"zip":"3290530"},{"town":"大字上三川","koaza":"庚申塚","lat":36.4285,"lng":139.906748,"zip":"3290600"},{"town":"大字上三川","koaza":"愛宕","lat":36.429752,"lng":139.907983,"zip":"3290600"}]