[{"town":"青田","koaza":"","lat":36.37427,"lng":139.942822,"zip":"3214531"},{"town":"青谷","koaza":"","lat":36.421296,"lng":140.065047,"zip":"3214312"},{"town":"赤羽","koaza":"","lat":36.494465,"lng":140.042978,"zip":"3214401"},{"town":"阿部岡","koaza":"","lat":36.403224,"lng":140.040243,"zip":"3214512"},{"town":"阿部品","koaza":"","lat":36.37279,"lng":139.993457,"zip":"3214517"},{"town":"荒町","koaza":"","lat":36.441687,"lng":140.01315,"zip":"3214305"},{"town":"荒町二丁目","koaza":"","lat":36.446694,"lng":140.012303,"zip":"3214305"},{"town":"荒町三丁目","koaza":"","lat":36.444137,"lng":140.016409,"zip":"3214305"},{"town":"荒町四丁目","koaza":"","lat":36.448141,"lng":140.018168,"zip":"3214305"},{"town":"飯貝","koaza":"","lat":36.478688,"lng":140.02278,"zip":"3214405"},{"town":"砂ケ原","koaza":"","lat":36.382723,"lng":139.930665,"zip":"3214546"},{"town":"石島","koaza":"","lat":36.388652,"lng":139.974694,"zip":"3214507"},{"town":"伊勢崎","koaza":"","lat":36.425112,"lng":139.980244,"zip":"3214342"},{"town":"大沼","koaza":"","lat":36.437498,"lng":139.949976,"zip":"3214356"},{"town":"大根田","koaza":"","lat":36.378866,"lng":139.981373,"zip":"3214506"},{"town":"大谷新町","koaza":"","lat":36.433055,"lng":139.999283,"zip":"3214332"},{"town":"大谷台町","koaza":"","lat":36.435427,"lng":139.991404,"zip":"3214338"},{"town":"大谷本町","koaza":"","lat":36.434712,"lng":139.998215,"zip":"3214333"},{"town":"大和田","koaza":"","lat":36.404062,"lng":139.983686,"zip":"3214508"},{"town":"沖","koaza":"","lat":36.395032,"lng":139.984765,"zip":"3214505"},{"town":"加倉","koaza":"","lat":36.427811,"lng":139.955344,"zip":"3214347"},{"town":"粕田","koaza":"","lat":36.426593,"lng":139.942142,"zip":"3214353"},{"town":"勝瓜","koaza":"","lat":36.462392,"lng":139.963096,"zip":"3214366"},{"town":"上江連","koaza":"","lat":36.343317,"lng":139.921106,"zip":"3214536"},{"town":"上大曽","koaza":"","lat":36.390093,"lng":139.949446,"zip":"3214542"},{"town":"上大田和","koaza":"","lat":36.482893,"lng":140.011787,"zip":"3214411"},{"town":"上大沼","koaza":"","lat":36.439365,"lng":139.949588,"zip":"3214355"},{"town":"上高間木","koaza":"","lat":36.443235,"lng":139.983568,"zip":"3214337"},{"town":"上高間木一丁目","koaza":"","lat":36.446026,"lng":139.988359,"zip":"3214337"},{"town":"上高間木二丁目","koaza":"","lat":36.441871,"lng":139.986981,"zip":"3214337"},{"town":"上高間木三丁目","koaza":"","lat":36.438895,"lng":139.985476,"zip":"3214337"},{"town":"上鷺谷","koaza":"","lat":36.48649,"lng":139.998623,"zip":"3214416"},{"town":"上谷貝","koaza":"","lat":36.394297,"lng":139.937587,"zip":"3214541"},{"town":"亀山","koaza":"","lat":36.459253,"lng":139.982932,"zip":"3214363"},{"town":"亀山一丁目","koaza":"","lat":36.451435,"lng":139.986619,"zip":"3214363"},{"town":"亀山二丁目","koaza":"","lat":36.453428,"lng":139.988023,"zip":"3214363"},{"town":"亀山三丁目","koaza":"","lat":36.452253,"lng":139.978725,"zip":"3214363"},{"town":"茅堤","koaza":"","lat":36.424988,"lng":139.971297,"zip":"3214344"},{"town":"鬼怒ケ丘","koaza":"","lat":36.459723,"lng":139.968844,"zip":"3214367"},{"town":"鬼怒ケ丘一丁目","koaza":"","lat":36.451,"lng":139.972418,"zip":"3214367"},{"town":"君島","koaza":"","lat":36.417421,"lng":140.045286,"zip":"3214316"},{"town":"京泉","koaza":"","lat":36.479478,"lng":140.033217,"zip":"3214406"},{"town":"久下田","koaza":"","lat":36.375651,"lng":139.959841,"zip":"3214521"},{"town":"久下田西一丁目","koaza":"","lat":36.378672,"lng":139.96712,"zip":"3214522"},{"town":"久下田西二丁目","koaza":"","lat":36.374742,"lng":139.966351,"zip":"3214522"},{"town":"久下田西三丁目","koaza":"","lat":36.374874,"lng":139.96455,"zip":"3214522"},{"town":"久下田西四丁目","koaza":"","lat":36.378977,"lng":139.964993,"zip":"3214522"},{"town":"久下田西五丁目","koaza":"","lat":36.379052,"lng":139.963126,"zip":"3214522"},{"town":"久下田西六丁目","koaza":"","lat":36.3748,"lng":139.963069,"zip":"3214522"},{"town":"久下田西七丁目","koaza":"","lat":36.371755,"lng":139.964371,"zip":"3214522"},{"town":"熊倉一丁目","koaza":"","lat":36.449045,"lng":139.992682,"zip":"3214369"},{"town":"熊倉二丁目","koaza":"","lat":36.443894,"lng":139.992908,"zip":"3214369"},{"town":"熊倉三丁目","koaza":"","lat":36.43911,"lng":139.990674,"zip":"3214369"},{"town":"熊倉町","koaza":"","lat":36.451668,"lng":139.993803,"zip":"3214362"},{"town":"桑ノ川","koaza":"","lat":36.38038,"lng":140.002103,"zip":"3214503"},{"town":"小橋","koaza":"","lat":36.419103,"lng":139.980427,"zip":"3214343"},{"town":"小林","koaza":"","lat":36.428779,"lng":140.036524,"zip":"3214321"},{"town":"古山","koaza":"","lat":36.356475,"lng":139.943285,"zip":"3214535"},{"town":"境","koaza":"","lat":36.354386,"lng":139.957368,"zip":"3214534"},{"town":"さくら一丁目","koaza":"","lat":36.385979,"lng":139.967897,"zip":"3214523"},{"town":"さくら二丁目","koaza":"","lat":36.38231,"lng":139.967969,"zip":"3214523"},{"town":"さくら三丁目","koaza":"","lat":36.382484,"lng":139.96526,"zip":"3214523"},{"town":"さくら四丁目","koaza":"","lat":36.386094,"lng":139.965454,"zip":"3214523"},{"town":"道祖土","koaza":"","lat":36.411185,"lng":140.04333,"zip":"3214315"},{"town":"鹿","koaza":"","lat":36.388758,"lng":139.995164,"zip":"3214504"},{"town":"島","koaza":"","lat":36.434804,"lng":140.026606,"zip":"3214326"},{"town":"清水","koaza":"","lat":36.484752,"lng":140.064439,"zip":"3214402"},{"town":"下大曽","koaza":"","lat":36.380692,"lng":139.951656,"zip":"3214543"},{"town":"下大田和","koaza":"","lat":36.466622,"lng":140.005412,"zip":"3214413"},{"town":"下大沼","koaza":"","lat":36.431244,"lng":139.951857,"zip":"3214357"},{"town":"下高間木","koaza":"","lat":36.431188,"lng":139.983759,"zip":"3214335"},{"town":"下高間木一丁目","koaza":"","lat":36.434123,"lng":139.984703,"zip":"3214335"},{"town":"下高間木二丁目","koaza":"","lat":36.429404,"lng":139.98666,"zip":"3214335"},{"town":"下籠谷","koaza":"","lat":36.482789,"lng":139.979821,"zip":"3214415"},{"town":"下鷺谷","koaza":"","lat":36.467318,"lng":139.994128,"zip":"3214414"},{"town":"須釜","koaza":"","lat":36.419847,"lng":140.056676,"zip":"3214313"},{"town":"反町","koaza":"","lat":36.380906,"lng":140.018656,"zip":"3214515"},{"town":"大道泉","koaza":"","lat":36.370396,"lng":139.922614,"zip":"3214545"},{"town":"台町","koaza":"","lat":36.438502,"lng":140.004768,"zip":"3214306"},{"town":"高勢町一丁目","koaza":"","lat":36.436871,"lng":139.976452,"zip":"3214341"},{"town":"高勢町二丁目","koaza":"","lat":36.433783,"lng":139.977705,"zip":"3214341"},{"town":"高勢町三丁目","koaza":"","lat":36.428656,"lng":139.980218,"zip":"3214341"},{"town":"高田","koaza":"","lat":36.388653,"lng":140.019441,"zip":"3214511"},{"town":"田島","koaza":"","lat":36.464553,"lng":140.029167,"zip":"3214404"},{"town":"田町","koaza":"","lat":36.437133,"lng":140.013765,"zip":"3214325"},{"town":"鶴田","koaza":"","lat":36.461779,"lng":140.054121,"zip":"3214302"},{"town":"寺内","koaza":"","lat":36.412286,"lng":139.975877,"zip":"3214345"},{"town":"寺久保一丁目","koaza":"","lat":36.448403,"lng":140.002541,"zip":"3214368"},{"town":"寺分","koaza":"","lat":36.428375,"lng":139.944865,"zip":"3214354"},{"town":"東光寺一丁目","koaza":"","lat":36.441059,"lng":140.021211,"zip":"3214309"},{"town":"東光寺二丁目","koaza":"","lat":36.444502,"lng":140.023439,"zip":"3214309"},{"town":"東光寺三丁目","koaza":"","lat":36.442517,"lng":140.024979,"zip":"3214309"},{"town":"中","koaza":"","lat":36.414826,"lng":139.949091,"zip":"3214351"},{"town":"中郷","koaza":"","lat":36.454136,"lng":140.016484,"zip":"3214308"},{"town":"長島","koaza":"","lat":36.369769,"lng":139.954523,"zip":"3214532"},{"town":"長田","koaza":"","lat":36.444465,"lng":139.963202,"zip":"3214364"},{"town":"長田一丁目","koaza":"","lat":36.448647,"lng":139.965472,"zip":"3214364"},{"town":"長沼","koaza":"","lat":36.357931,"lng":139.933265,"zip":"3214539"},{"town":"並木町一丁目","koaza":"","lat":36.440278,"lng":140.001611,"zip":"3214361"},{"town":"並木町二丁目","koaza":"","lat":36.440639,"lng":139.996367,"zip":"3214361"},{"town":"並木町三丁目","koaza":"","lat":36.445441,"lng":139.997621,"zip":"3214361"},{"town":"並木町四丁目","koaza":"","lat":36.446927,"lng":140.00012,"zip":"3214361"},{"town":"西大島","koaza":"","lat":36.355145,"lng":139.913695,"zip":"3214537"},{"town":"西郷","koaza":"","lat":36.45697,"lng":140.006633,"zip":"3214307"},{"town":"西高間木","koaza":"","lat":36.439227,"lng":139.980762,"zip":"3214336"},{"town":"西田井","koaza":"","lat":36.451381,"lng":140.059924,"zip":"3214301"},{"town":"西沼","koaza":"","lat":36.427214,"lng":140.006227,"zip":"3214324"},{"town":"根小屋","koaza":"","lat":36.375596,"lng":140.015078,"zip":"3214516"},{"town":"根本","koaza":"","lat":36.432917,"lng":140.055627,"zip":"3214311"},{"town":"白布ケ丘","koaza":"","lat":36.437108,"lng":139.998909,"zip":"3214331"},{"town":"八條","koaza":"","lat":36.451188,"lng":140.041381,"zip":"3214303"},{"town":"原町","koaza":"","lat":36.473214,"lng":140.041072,"zip":"3214403"},{"town":"東大島","koaza":"","lat":36.412159,"lng":140.028489,"zip":"3214322"},{"town":"東郷","koaza":"","lat":36.450473,"lng":140.028034,"zip":"3214304"},{"town":"東沼","koaza":"","lat":36.424308,"lng":140.016717,"zip":"3214323"},{"town":"程島","koaza":"","lat":36.359266,"lng":139.951175,"zip":"3214533"},{"town":"堀内","koaza":"","lat":36.474004,"lng":140.008938,"zip":"3214412"},{"town":"堀込","koaza":"","lat":36.373771,"lng":139.932077,"zip":"3214544"},{"town":"松山町","koaza":"","lat":36.421824,"lng":139.963707,"zip":"3214346"},{"town":"水戸部","koaza":"","lat":36.382112,"lng":140.029234,"zip":"3214514"},{"town":"南高岡","koaza":"","lat":36.400233,"lng":140.058396,"zip":"3214314"},{"town":"三谷","koaza":"","lat":36.386738,"lng":140.046125,"zip":"3214513"},{"town":"物井","koaza":"","lat":36.402657,"lng":140.005281,"zip":"3214502"},{"town":"谷貝新田","koaza":"","lat":36.396905,"lng":139.92789,"zip":"3214547"},{"town":"八木岡","koaza":"","lat":36.421896,"lng":139.992344,"zip":"3214334"},{"town":"柳林","koaza":"","lat":36.451676,"lng":139.954388,"zip":"3214365"},{"town":"横田","koaza":"","lat":36.410874,"lng":139.992718,"zip":"3214501"},{"town":"若旅","koaza":"","lat":36.399922,"lng":139.946008,"zip":"3214551"},{"town":"鷲巣","koaza":"","lat":36.35797,"lng":139.921687,"zip":"3214538"},{"town":"長田三丁目","koaza":"","lat":36.440284,"lng":139.959209,"zip":"3214364"},{"town":"長田二丁目","koaza":"","lat":36.438291,"lng":139.965472,"zip":"3214364"},{"town":"長田五丁目","koaza":"","lat":36.435617,"lng":139.96012,"zip":"3214364"},{"town":"長田四丁目","koaza":"","lat":36.438653,"lng":139.959478,"zip":"3214364"},{"town":"上大沼二丁目","koaza":"","lat":36.438384,"lng":139.955357,"zip":"3214355"},{"town":"上大沼一丁目","koaza":"","lat":36.435028,"lng":139.95546,"zip":"3214355"},{"town":"下大沼二丁目","koaza":"","lat":36.432324,"lng":139.956267,"zip":"3214357"},{"town":"下大沼一丁目","koaza":"","lat":36.432385,"lng":139.959105,"zip":"3214357"},{"town":"台町","koaza":"南原","lat":36.432777,"lng":140.001612,"zip":"3214306"},{"town":"亀山","koaza":"大野","lat":36.469281,"lng":139.96508,"zip":"3214363"}]