[{"town":"大字鮎田","koaza":"","lat":36.50083,"lng":140.208684,"zip":"3213500"},{"town":"大字天子","koaza":"","lat":36.510071,"lng":140.145751,"zip":"3213500"},{"town":"大字飯","koaza":"","lat":36.478025,"lng":140.174086,"zip":"3213500"},{"town":"大字飯野","koaza":"","lat":36.551247,"lng":140.234914,"zip":"3213500"},{"town":"大字入郷","koaza":"","lat":36.593669,"lng":140.20491,"zip":"3213500"},{"town":"大字烏生田","koaza":"","lat":36.575549,"lng":140.177792,"zip":"3213500"},{"town":"大字後郷","koaza":"","lat":36.563363,"lng":140.191889,"zip":"3213500"},{"town":"大字青梅","koaza":"","lat":36.513793,"lng":140.238296,"zip":"3213500"},{"town":"大字大瀬","koaza":"","lat":36.579853,"lng":140.188518,"zip":"3213500"},{"town":"大字大畑","koaza":"","lat":36.589276,"lng":140.186846,"zip":"3213500"},{"town":"大字小貫","koaza":"","lat":36.426718,"lng":140.187598,"zip":"3213500"},{"town":"大字小深","koaza":"","lat":36.58453,"lng":140.226923,"zip":"3213500"},{"town":"大字小山","koaza":"","lat":36.489891,"lng":140.161724,"zip":"3213500"},{"town":"大字神井","koaza":"","lat":36.515139,"lng":140.184721,"zip":"3213500"},{"town":"大字上後郷","koaza":"","lat":36.558478,"lng":140.168342,"zip":"3213500"},{"town":"大字上菅又","koaza":"","lat":36.55481,"lng":140.13445,"zip":"3213500"},{"town":"大字河井","koaza":"","lat":36.567025,"lng":140.214929,"zip":"3213500"},{"town":"大字河又","koaza":"","lat":36.601304,"lng":140.218519,"zip":"3213500"},{"town":"大字北高岡","koaza":"","lat":36.51579,"lng":140.163443,"zip":"3213500"},{"town":"大字木幡","koaza":"","lat":36.500518,"lng":140.160916,"zip":"3213500"},{"town":"大字黒田","koaza":"","lat":36.603403,"lng":140.148853,"zip":"3213500"},{"town":"大字小井戸","koaza":"","lat":36.548477,"lng":140.188239,"zip":"3213500"},{"town":"大字坂井","koaza":"","lat":36.544147,"lng":140.166259,"zip":"3213500"},{"town":"大字九石","koaza":"","lat":36.567487,"lng":140.175458,"zip":"3213500"},{"town":"大字塩田","koaza":"","lat":36.54059,"lng":140.202805,"zip":"3213500"},{"town":"大字下菅又","koaza":"","lat":36.544507,"lng":140.146315,"zip":"3213500"},{"town":"大字千本","koaza":"","lat":36.572074,"lng":140.145092,"zip":"3213500"},{"town":"大字竹原","koaza":"","lat":36.589294,"lng":140.174923,"zip":"3213500"},{"town":"大字所草","koaza":"","lat":36.579263,"lng":140.168204,"zip":"3213500"},{"town":"大字生井","koaza":"","lat":36.604044,"lng":140.164352,"zip":"3213500"},{"town":"大字林","koaza":"","lat":36.526809,"lng":140.21704,"zip":"3213500"},{"town":"大字桧山","koaza":"","lat":36.527351,"lng":140.241504,"zip":"3213500"},{"town":"大字深沢","koaza":"","lat":36.432864,"lng":140.164337,"zip":"3213500"},{"town":"大字福手","koaza":"","lat":36.485472,"lng":140.198677,"zip":"3213500"},{"town":"大字馬門","koaza":"","lat":36.542266,"lng":140.219451,"zip":"3213500"},{"town":"大字牧野","koaza":"","lat":36.578593,"lng":140.206041,"zip":"3213500"},{"town":"大字増井","koaza":"","lat":36.534576,"lng":140.200602,"zip":"3213500"},{"town":"大字町田","koaza":"","lat":36.580398,"lng":140.156875,"zip":"3213500"},{"town":"大字三坂","koaza":"","lat":36.52668,"lng":140.200402,"zip":"3213500"},{"town":"大字茂木","koaza":"","lat":36.529728,"lng":140.187034,"zip":"3213500"},{"town":"大字山内","koaza":"","lat":36.594304,"lng":140.234795,"zip":"3213500"}]