[{"town":"大字芦沼","koaza":"","lat":36.516829,"lng":140.131888,"zip":"3214200"},{"town":"大字梅ケ内","koaza":"","lat":36.40388,"lng":140.085634,"zip":"3214200"},{"town":"大字大郷戸","koaza":"","lat":36.412943,"lng":140.099607,"zip":"3214200"},{"town":"大字大沢","koaza":"","lat":36.486785,"lng":140.121883,"zip":"3214200"},{"town":"大字大平","koaza":"","lat":36.501191,"lng":140.139278,"zip":"3214200"},{"town":"大字小宅","koaza":"","lat":36.512618,"lng":140.115985,"zip":"3214200"},{"town":"大字上大羽","koaza":"","lat":36.439197,"lng":140.135927,"zip":"3214200"},{"town":"大字上山","koaza":"","lat":36.437388,"lng":140.079093,"zip":"3214200"},{"town":"大字北中","koaza":"","lat":36.480968,"lng":140.095345,"zip":"3214200"},{"town":"大字小泉","koaza":"","lat":36.414294,"lng":140.090041,"zip":"3214200"},{"town":"大字下大羽","koaza":"","lat":36.471434,"lng":140.140403,"zip":"3214200"},{"town":"大字長堤","koaza":"","lat":36.427633,"lng":140.077754,"zip":"3214200"},{"town":"大字七井","koaza":"","lat":36.504971,"lng":140.090638,"zip":"3214200"},{"town":"大字生田目","koaza":"","lat":36.448841,"lng":140.087407,"zip":"3214200"},{"town":"大字塙","koaza":"","lat":36.474286,"lng":140.079419,"zip":"3214200"},{"town":"大字東田井","koaza":"","lat":36.444489,"lng":140.070937,"zip":"3214200"},{"town":"大字前沢","koaza":"","lat":36.433775,"lng":140.091197,"zip":"3214200"},{"town":"大字益子","koaza":"","lat":36.45826,"lng":140.103414,"zip":"3214200"},{"town":"大字本沼","koaza":"","lat":36.412509,"lng":140.070852,"zip":"3214200"},{"town":"大字山本","koaza":"","lat":36.425181,"lng":140.111838,"zip":"3214200"},{"town":"城内坂","koaza":"","lat":36.464255,"lng":140.103535,"zip":"3214218"},{"town":"七井中央","koaza":"","lat":36.491074,"lng":140.097524,"zip":"3214107"},{"town":"大字益子","koaza":"大橋","lat":36.463011,"lng":140.085653,"zip":"3214200"},{"town":"大字大沢","koaza":"かも田","lat":36.490418,"lng":140.10202,"zip":"3214200"}]