[{"town":"大字赤羽","koaza":"","lat":36.515659,"lng":140.065667,"zip":"3213400"},{"town":"大字石下","koaza":"","lat":36.528079,"lng":140.124152,"zip":"3213400"},{"town":"大字市塙","koaza":"","lat":36.541425,"lng":140.108346,"zip":"3213400"},{"town":"大字大谷津","koaza":"","lat":36.597194,"lng":140.101059,"zip":"3213400"},{"town":"大字上根","koaza":"","lat":36.535978,"lng":140.082055,"zip":"3213400"},{"town":"大字刈生田","koaza":"","lat":36.588663,"lng":140.137352,"zip":"3213400"},{"town":"大字笹原田","koaza":"","lat":36.534018,"lng":140.142355,"zip":"3213400"},{"town":"大字塩田","koaza":"","lat":36.609972,"lng":140.106991,"zip":"3213400"},{"town":"大字椎谷","koaza":"","lat":36.565155,"lng":140.086409,"zip":"3213400"},{"town":"大字杉山","koaza":"","lat":36.578295,"lng":140.100659,"zip":"3213400"},{"town":"大字竹内","koaza":"","lat":36.620773,"lng":140.11146,"zip":"3213400"},{"town":"大字多田羅","koaza":"","lat":36.517969,"lng":140.086824,"zip":"3213400"},{"town":"大字田野辺","koaza":"","lat":36.57414,"lng":140.124046,"zip":"3213400"},{"town":"大字続谷","koaza":"","lat":36.595857,"lng":140.123272,"zip":"3213400"},{"town":"大字羽仏","koaza":"","lat":36.60024,"lng":140.134479,"zip":"3213400"},{"town":"大字文谷","koaza":"","lat":36.562048,"lng":140.101214,"zip":"3213400"},{"town":"大字見上","koaza":"","lat":36.61465,"lng":140.129685,"zip":"3213400"},{"town":"大字赤羽","koaza":"安内","lat":36.513888,"lng":140.061275,"zip":"3213400"}]