[{"town":"相生町","koaza":"","lat":36.336014,"lng":139.461246,"zip":"3260052"},{"town":"赤松台一丁目","koaza":"","lat":36.36313,"lng":139.471234,"zip":"3260062"},{"town":"赤松台二丁目","koaza":"","lat":36.363154,"lng":139.469365,"zip":"3260062"},{"town":"朝倉町","koaza":"","lat":36.31998,"lng":139.451413,"zip":"3260823"},{"town":"朝倉町二丁目","koaza":"","lat":36.318208,"lng":139.445825,"zip":"3260823"},{"town":"朝倉町三丁目","koaza":"","lat":36.319433,"lng":139.44201,"zip":"3260823"},{"town":"旭町","koaza":"","lat":36.338913,"lng":139.455575,"zip":"3260802"},{"town":"荒金町","koaza":"","lat":36.292642,"lng":139.448789,"zip":"3260832"},{"town":"新宿町","koaza":"","lat":36.302873,"lng":139.434182,"zip":"3260834"},{"town":"粟谷町","koaza":"","lat":36.393011,"lng":139.40382,"zip":"3260103"},{"town":"家富町","koaza":"","lat":36.338081,"lng":139.452212,"zip":"3260803"},{"town":"鵤木町","koaza":"","lat":36.313677,"lng":139.492459,"zip":"3260014"},{"town":"井草町","koaza":"","lat":36.336109,"lng":139.450651,"zip":"3260811"},{"town":"伊勢町","koaza":"","lat":36.3319,"lng":139.456419,"zip":"3260053"},{"town":"伊勢町一丁目","koaza":"","lat":36.332037,"lng":139.458233,"zip":"3260053"},{"town":"伊勢町二丁目","koaza":"","lat":36.333094,"lng":139.45923,"zip":"3260053"},{"town":"伊勢町三丁目","koaza":"","lat":36.333871,"lng":139.455728,"zip":"3260053"},{"town":"伊勢町四丁目","koaza":"","lat":36.329132,"lng":139.460248,"zip":"3260053"},{"town":"伊勢南町","koaza":"","lat":36.329289,"lng":139.455701,"zip":"3260054"},{"town":"板倉町","koaza":"","lat":36.374791,"lng":139.411594,"zip":"3260102"},{"town":"稲岡町","koaza":"","lat":36.329712,"lng":139.541962,"zip":"3294212"},{"town":"今福町","koaza":"","lat":36.342802,"lng":139.433461,"zip":"3260842"},{"town":"岩井町","koaza":"","lat":36.317682,"lng":139.469684,"zip":"3260046"},{"town":"永楽町","koaza":"","lat":36.331448,"lng":139.451547,"zip":"3260055"},{"town":"江川町","koaza":"","lat":36.355946,"lng":139.461397,"zip":"3260067"},{"town":"江川町一丁目","koaza":"","lat":36.350497,"lng":139.464873,"zip":"3260067"},{"town":"江川町二丁目","koaza":"","lat":36.352581,"lng":139.465143,"zip":"3260067"},{"town":"江川町三丁目","koaza":"","lat":36.356802,"lng":139.466976,"zip":"3260067"},{"town":"江川町四丁目","koaza":"","lat":36.358198,"lng":139.469302,"zip":"3260067"},{"town":"大岩町","koaza":"","lat":36.362319,"lng":139.440055,"zip":"3260841"},{"town":"大久保町","koaza":"","lat":36.314094,"lng":139.506233,"zip":"3260012"},{"town":"大月町","koaza":"","lat":36.342922,"lng":139.484005,"zip":"3260005"},{"town":"大沼田町","koaza":"","lat":36.332269,"lng":139.501798,"zip":"3260011"},{"town":"大橋町一丁目","koaza":"","lat":36.341966,"lng":139.463463,"zip":"3260051"},{"town":"大橋町二丁目","koaza":"","lat":36.33666,"lng":139.463223,"zip":"3260051"},{"town":"大前町","koaza":"","lat":36.356865,"lng":139.397586,"zip":"3260845"},{"town":"奥戸町","koaza":"","lat":36.300344,"lng":139.516975,"zip":"3294215"},{"town":"小曽根町","koaza":"","lat":36.278715,"lng":139.483795,"zip":"3260326"},{"town":"小俣町","koaza":"","lat":36.399002,"lng":139.38551,"zip":"3260141"},{"town":"小俣南町","koaza":"","lat":36.366316,"lng":139.377265,"zip":"3260142"},{"town":"利保町","koaza":"","lat":36.352658,"lng":139.475843,"zip":"3260006"},{"town":"利保町一丁目","koaza":"","lat":36.350872,"lng":139.470563,"zip":"3260006"},{"town":"利保町二丁目","koaza":"","lat":36.356088,"lng":139.471988,"zip":"3260006"},{"town":"利保町三丁目","koaza":"","lat":36.358414,"lng":139.472729,"zip":"3260006"},{"town":"鹿島町","koaza":"","lat":36.345634,"lng":139.405773,"zip":"3260844"},{"town":"樺崎町","koaza":"","lat":36.362835,"lng":139.499454,"zip":"3260004"},{"town":"上渋垂町","koaza":"","lat":36.3007,"lng":139.466336,"zip":"3260335"},{"town":"借宿町","koaza":"","lat":36.330124,"lng":139.436957,"zip":"3260826"},{"town":"借宿町一丁目","koaza":"","lat":36.329911,"lng":139.429647,"zip":"3260826"},{"town":"川崎町","koaza":"","lat":36.306035,"lng":139.499805,"zip":"3260013"},{"town":"久保田町","koaza":"","lat":36.292654,"lng":139.494569,"zip":"3260324"},{"town":"毛野新町一丁目","koaza":"","lat":36.321737,"lng":139.49215,"zip":"3260016"},{"town":"毛野新町二丁目","koaza":"","lat":36.322946,"lng":139.492674,"zip":"3260016"},{"town":"毛野新町三丁目","koaza":"","lat":36.324144,"lng":139.493205,"zip":"3260016"},{"town":"毛野新町四丁目","koaza":"","lat":36.325373,"lng":139.493623,"zip":"3260016"},{"town":"寿町","koaza":"","lat":36.323703,"lng":139.467497,"zip":"3260025"},{"town":"駒場町","koaza":"","lat":36.31986,"lng":139.528193,"zip":"3294217"},{"town":"栄町一丁目","koaza":"","lat":36.33684,"lng":139.439897,"zip":"3260815"},{"town":"栄町二丁目","koaza":"","lat":36.335497,"lng":139.439331,"zip":"3260815"},{"town":"里矢場町","koaza":"","lat":36.311572,"lng":139.424019,"zip":"3260835"},{"town":"猿田町","koaza":"","lat":36.31702,"lng":139.476328,"zip":"3260023"},{"town":"島田町","koaza":"","lat":36.299825,"lng":139.447683,"zip":"3260337"},{"town":"下渋垂町","koaza":"","lat":36.296865,"lng":139.481287,"zip":"3260334"},{"town":"昌平町","koaza":"","lat":36.33553,"lng":139.452939,"zip":"3260813"},{"town":"新山町","koaza":"","lat":36.346223,"lng":139.4669,"zip":"3260063"},{"town":"末広町","koaza":"","lat":36.342863,"lng":139.475813,"zip":"3260031"},{"town":"菅田町","koaza":"","lat":36.360938,"lng":139.480952,"zip":"3260007"},{"town":"菅田町一丁目","koaza":"","lat":36.363966,"lng":139.483667,"zip":"3260007"},{"town":"助戸一丁目","koaza":"","lat":36.329609,"lng":139.470869,"zip":"3260044"},{"town":"助戸二丁目","koaza":"","lat":36.329796,"lng":139.465652,"zip":"3260044"},{"town":"助戸三丁目","koaza":"","lat":36.332459,"lng":139.463693,"zip":"3260044"},{"town":"助戸大橋町","koaza":"","lat":36.338392,"lng":139.464746,"zip":"3260048"},{"town":"助戸新山町","koaza":"","lat":36.344081,"lng":139.47237,"zip":"3260041"},{"town":"助戸仲町","koaza":"","lat":36.331947,"lng":139.466641,"zip":"3260043"},{"town":"助戸東山町","koaza":"","lat":36.338453,"lng":139.467805,"zip":"3260042"},{"town":"大正町","koaza":"","lat":36.343026,"lng":139.453481,"zip":"3260807"},{"town":"大町","koaza":"","lat":36.336336,"lng":139.457487,"zip":"3260056"},{"town":"大門通","koaza":"","lat":36.336036,"lng":139.452113,"zip":"3260812"},{"town":"高松町","koaza":"","lat":36.282945,"lng":139.494746,"zip":"3260325"},{"town":"田島町","koaza":"","lat":36.383568,"lng":139.465571,"zip":"3260061"},{"town":"田島町一丁目","koaza":"","lat":36.360947,"lng":139.467605,"zip":"3260061"},{"town":"多田木町","koaza":"","lat":36.310583,"lng":139.525221,"zip":"3294214"},{"town":"田所町","koaza":"","lat":36.347066,"lng":139.461594,"zip":"3260066"},{"town":"田中町","koaza":"","lat":36.32591,"lng":139.451423,"zip":"3260822"},{"town":"千歳町","koaza":"","lat":36.327344,"lng":139.465912,"zip":"3260045"},{"town":"月谷町","koaza":"","lat":36.378077,"lng":139.448764,"zip":"3260068"},{"town":"常見町","koaza":"","lat":36.314084,"lng":139.484348,"zip":"3260022"},{"town":"常見町一丁目","koaza":"","lat":36.317273,"lng":139.483835,"zip":"3260022"},{"town":"常見町二丁目","koaza":"","lat":36.319497,"lng":139.485215,"zip":"3260022"},{"town":"常見町三丁目","koaza":"","lat":36.316926,"lng":139.487875,"zip":"3260022"},{"town":"寺岡町","koaza":"","lat":36.314506,"lng":139.538067,"zip":"3294213"},{"town":"通一丁目","koaza":"","lat":36.333808,"lng":139.452399,"zip":"3260814"},{"town":"通二丁目","koaza":"","lat":36.333774,"lng":139.449363,"zip":"3260814"},{"town":"通三丁目","koaza":"","lat":36.335068,"lng":139.446679,"zip":"3260814"},{"town":"通四丁目","koaza":"","lat":36.335764,"lng":139.444461,"zip":"3260814"},{"town":"通五丁目","koaza":"","lat":36.337256,"lng":139.442846,"zip":"3260814"},{"town":"通六丁目","koaza":"","lat":36.338523,"lng":139.441147,"zip":"3260814"},{"town":"通七丁目","koaza":"","lat":36.33995,"lng":139.438418,"zip":"3260814"},{"town":"常盤町","koaza":"","lat":36.326913,"lng":139.470067,"zip":"3260026"},{"town":"巴町","koaza":"","lat":36.339124,"lng":139.446536,"zip":"3260805"},{"town":"問屋町","koaza":"","lat":36.308047,"lng":139.466382,"zip":"3260333"},{"town":"中川町","koaza":"","lat":36.331852,"lng":139.42465,"zip":"3260825"},{"town":"名草上町","koaza":"","lat":36.42044,"lng":139.463066,"zip":"3260001"},{"town":"名草下町","koaza":"","lat":36.380891,"lng":139.488243,"zip":"3260003"},{"town":"名草下町一丁目","koaza":"","lat":36.367757,"lng":139.484712,"zip":"3260003"},{"town":"名草中町","koaza":"","lat":36.390421,"lng":139.478964,"zip":"3260002"},{"town":"西新井町","koaza":"","lat":36.317032,"lng":139.430993,"zip":"3260837"},{"town":"錦町","koaza":"","lat":36.328086,"lng":139.46349,"zip":"3260047"},{"town":"西砂原後町","koaza":"","lat":36.347157,"lng":139.459229,"zip":"3260065"},{"town":"西宮町","koaza":"","lat":36.345868,"lng":139.442511,"zip":"3260817"},{"town":"西場町","koaza":"","lat":36.328922,"lng":139.527497,"zip":"3294211"},{"town":"野田町","koaza":"","lat":36.290778,"lng":139.514927,"zip":"3260322"},{"town":"迫間町","koaza":"","lat":36.316261,"lng":139.518575,"zip":"3294216"},{"town":"葉鹿町","koaza":"","lat":36.373971,"lng":139.38895,"zip":"3260143"},{"town":"葉鹿町一丁目","koaza":"","lat":36.364424,"lng":139.392115,"zip":"3260143"},{"town":"葉鹿町二丁目","koaza":"","lat":36.367287,"lng":139.387397,"zip":"3260143"},{"town":"葉鹿南町","koaza":"","lat":36.35794,"lng":139.388661,"zip":"3260144"},{"town":"花園町","koaza":"","lat":36.335185,"lng":139.472989,"zip":"3260033"},{"town":"東砂原後町","koaza":"","lat":36.346514,"lng":139.46373,"zip":"3260064"},{"town":"久松町","koaza":"","lat":36.332473,"lng":139.471392,"zip":"3260034"},{"town":"福居町","koaza":"","lat":36.309935,"lng":139.456095,"zip":"3260338"},{"town":"福富新町","koaza":"","lat":36.312404,"lng":139.468876,"zip":"3260332"},{"town":"福富町","koaza":"","lat":36.308504,"lng":139.477935,"zip":"3260331"},{"town":"富士見町","koaza":"","lat":36.3416,"lng":139.473198,"zip":"3260037"},{"town":"藤本町","koaza":"","lat":36.298276,"lng":139.437285,"zip":"3260833"},{"town":"堀込町","koaza":"","lat":36.311665,"lng":139.438687,"zip":"3260831"},{"town":"本城一丁目","koaza":"","lat":36.352932,"lng":139.45398,"zip":"3260808"},{"town":"本城二丁目","koaza":"","lat":36.34708,"lng":139.451818,"zip":"3260808"},{"town":"本城三丁目","koaza":"","lat":36.342797,"lng":139.448826,"zip":"3260808"},{"town":"真砂町","koaza":"","lat":36.338328,"lng":139.473897,"zip":"3260032"},{"town":"松田町","koaza":"","lat":36.409503,"lng":139.436176,"zip":"3260101"},{"town":"丸山町","koaza":"","lat":36.339479,"lng":139.459111,"zip":"3260057"},{"town":"瑞穂野町","koaza":"","lat":36.284474,"lng":139.513997,"zip":"3260323"},{"town":"緑町一丁目","koaza":"","lat":36.337442,"lng":139.436914,"zip":"3260816"},{"town":"緑町二丁目","koaza":"","lat":36.334077,"lng":139.436065,"zip":"3260816"},{"town":"南大町","koaza":"","lat":36.321086,"lng":139.422701,"zip":"3260836"},{"town":"南町","koaza":"","lat":36.331316,"lng":139.447622,"zip":"3260821"},{"town":"宮北町","koaza":"","lat":36.324125,"lng":139.47308,"zip":"3260027"},{"town":"元学町","koaza":"","lat":36.341871,"lng":139.460563,"zip":"3260058"},{"town":"百頭町","koaza":"","lat":36.297045,"lng":139.458057,"zip":"3260336"},{"town":"八椚町","koaza":"","lat":36.32268,"lng":139.487848,"zip":"3260015"},{"town":"柳原町","koaza":"","lat":36.340857,"lng":139.452711,"zip":"3260806"},{"town":"梁田町","koaza":"","lat":36.303991,"lng":139.48873,"zip":"3260321"},{"town":"山川町","koaza":"","lat":36.324218,"lng":139.481546,"zip":"3260021"},{"town":"山下町","koaza":"","lat":36.355877,"lng":139.413839,"zip":"3260846"},{"town":"弥生町","koaza":"","lat":36.33887,"lng":139.471204,"zip":"3260036"},{"town":"八幡町","koaza":"","lat":36.325457,"lng":139.436068,"zip":"3260824"},{"town":"八幡町一丁目","koaza":"","lat":36.323955,"lng":139.443033,"zip":"3260824"},{"town":"八幡町二丁目","koaza":"","lat":36.32204,"lng":139.437277,"zip":"3260824"},{"town":"八幡町三丁目","koaza":"","lat":36.32281,"lng":139.433041,"zip":"3260824"},{"town":"有楽町","koaza":"","lat":36.34271,"lng":139.457478,"zip":"3260801"},{"town":"雪輪町","koaza":"","lat":36.337919,"lng":139.448546,"zip":"3260804"},{"town":"芳町","koaza":"","lat":36.335797,"lng":139.470104,"zip":"3260035"},{"town":"五十部町","koaza":"","lat":36.351822,"lng":139.428866,"zip":"3260843"},{"town":"若草町","koaza":"","lat":36.320978,"lng":139.472006,"zip":"3260024"},{"town":"羽刈町","koaza":"","lat":36.279498,"lng":139.473988,"zip":"3260327"},{"town":"県町","koaza":"","lat":36.286821,"lng":139.468745,"zip":"3260328"},{"town":"大前町","koaza":"仲田","lat":36.356321,"lng":139.40081,"zip":"3260845"},{"town":"堀込町","koaza":"宮前","lat":36.31198,"lng":139.440181,"zip":"3260831"}]