[{"town":"旭一丁目","koaza":"","lat":36.652605,"lng":140.163267,"zip":"3210624"},{"town":"旭二丁目","koaza":"","lat":36.655347,"lng":140.165676,"zip":"3210624"},{"town":"愛宕台","koaza":"","lat":36.65409,"lng":140.145864,"zip":"3210629"},{"town":"岩子","koaza":"","lat":36.663174,"lng":140.102539,"zip":"3210521"},{"town":"宇井","koaza":"","lat":36.662733,"lng":140.074168,"zip":"3210527"},{"town":"大金","koaza":"","lat":36.654068,"lng":140.096465,"zip":"3210522"},{"town":"大木須","koaza":"","lat":36.638513,"lng":140.226372,"zip":"3210613"},{"town":"大桶","koaza":"","lat":36.70934,"lng":140.149266,"zip":"3210602"},{"town":"大里","koaza":"","lat":36.642131,"lng":140.101021,"zip":"3210516"},{"town":"大沢","koaza":"","lat":36.669209,"lng":140.202414,"zip":"3210612"},{"town":"小倉","koaza":"","lat":36.669561,"lng":140.073025,"zip":"3210528"},{"town":"落合","koaza":"","lat":36.627083,"lng":140.125555,"zip":"3210636"},{"town":"表","koaza":"","lat":36.65844,"lng":140.16063,"zip":"3210623"},{"town":"金井一丁目","koaza":"","lat":36.6537,"lng":140.151256,"zip":"3210628"},{"town":"金井二丁目","koaza":"","lat":36.653028,"lng":140.154759,"zip":"3210628"},{"town":"神長","koaza":"","lat":36.658152,"lng":140.130061,"zip":"3210632"},{"town":"上川井","koaza":"","lat":36.716933,"lng":140.072881,"zip":"3210505"},{"town":"上境","koaza":"","lat":36.644776,"lng":140.180609,"zip":"3210617"},{"town":"興野","koaza":"","lat":36.672823,"lng":140.164721,"zip":"3210611"},{"town":"熊田","koaza":"","lat":36.684965,"lng":140.115028,"zip":"3210502"},{"town":"鴻野山","koaza":"","lat":36.673112,"lng":140.046639,"zip":"3210534"},{"town":"小河原","koaza":"","lat":36.659242,"lng":140.108401,"zip":"3210511"},{"town":"小木須","koaza":"","lat":36.617822,"lng":140.19993,"zip":"3210614"},{"town":"小白井","koaza":"","lat":36.68948,"lng":140.05036,"zip":"3210535"},{"town":"小塙","koaza":"","lat":36.645285,"lng":140.121867,"zip":"3210513"},{"town":"小原沢","koaza":"","lat":36.598985,"lng":140.180404,"zip":"3210615"},{"town":"三箇","koaza":"","lat":36.689245,"lng":140.071223,"zip":"3210531"},{"town":"志鳥","koaza":"","lat":36.719522,"lng":140.097481,"zip":"3210501"},{"town":"下川井","koaza":"","lat":36.699334,"lng":140.089817,"zip":"3210504"},{"town":"下境","koaza":"","lat":36.621971,"lng":140.176288,"zip":"3210616"},{"town":"城東","koaza":"","lat":36.661853,"lng":140.15855,"zip":"3210622"},{"town":"白久","koaza":"","lat":36.720754,"lng":140.138915,"zip":"3210601"},{"town":"城山","koaza":"","lat":36.665207,"lng":140.145468,"zip":"3210631"},{"town":"曲畑","koaza":"","lat":36.619691,"lng":140.090469,"zip":"3210523"},{"town":"高瀬","koaza":"","lat":36.653812,"lng":140.113604,"zip":"3210512"},{"town":"滝","koaza":"","lat":36.644401,"lng":140.138342,"zip":"3210633"},{"town":"滝田","koaza":"","lat":36.679691,"lng":140.141651,"zip":"3210605"},{"town":"田野倉","koaza":"","lat":36.656069,"lng":140.084847,"zip":"3210526"},{"town":"中央一丁目","koaza":"","lat":36.658408,"lng":140.15246,"zip":"3210621"},{"town":"中央二丁目","koaza":"","lat":36.656791,"lng":140.155632,"zip":"3210621"},{"town":"中央三丁目","koaza":"","lat":36.663684,"lng":140.152448,"zip":"3210621"},{"town":"月次","koaza":"","lat":36.669274,"lng":140.124504,"zip":"3210503"},{"town":"東原","koaza":"","lat":36.656983,"lng":140.102603,"zip":"3210517"},{"town":"中山","koaza":"","lat":36.70222,"lng":140.133247,"zip":"3210604"},{"town":"野上","koaza":"","lat":36.634995,"lng":140.153053,"zip":"3210634"},{"town":"初音","koaza":"","lat":36.649582,"lng":140.15864,"zip":"3210626"},{"town":"福岡","koaza":"","lat":36.648062,"lng":140.070831,"zip":"3210525"},{"town":"藤田","koaza":"","lat":36.683001,"lng":140.089832,"zip":"3210532"},{"town":"曲田","koaza":"","lat":36.630784,"lng":140.098597,"zip":"3210515"},{"town":"南一丁目","koaza":"","lat":36.64815,"lng":140.149578,"zip":"3210627"},{"town":"南二丁目","koaza":"","lat":36.64804,"lng":140.153059,"zip":"3210627"},{"town":"南大和久","koaza":"","lat":36.670113,"lng":140.104399,"zip":"3210533"},{"town":"宮原","koaza":"","lat":36.658115,"lng":140.17302,"zip":"3210625"},{"town":"向田","koaza":"","lat":36.623373,"lng":140.149887,"zip":"3210635"},{"town":"森田","koaza":"","lat":36.640159,"lng":140.128094,"zip":"3210514"},{"town":"谷浅見","koaza":"","lat":36.692889,"lng":140.158384,"zip":"3210603"},{"town":"八ケ代","koaza":"","lat":36.630944,"lng":140.069362,"zip":"3210524"},{"town":"横枕","koaza":"","lat":36.646541,"lng":140.208113,"zip":"3210618"}]