[{"town":"青木","koaza":"","lat":36.996675,"lng":139.992012,"zip":"3250103"},{"town":"東町","koaza":"","lat":36.888601,"lng":139.988137,"zip":"3292721"},{"town":"あたご町","koaza":"","lat":36.879934,"lng":139.98285,"zip":"3292725"},{"town":"阿波町","koaza":"","lat":36.972501,"lng":140.037867,"zip":"3250073"},{"town":"安藤町","koaza":"","lat":36.967634,"lng":140.062578,"zip":"3250021"},{"town":"井口","koaza":"","lat":36.915545,"lng":139.98028,"zip":"3292763"},{"town":"石林","koaza":"","lat":36.886226,"lng":140.007018,"zip":"3292711"},{"town":"板室","koaza":"","lat":37.101194,"lng":139.926405,"zip":"3250111"},{"town":"一区町","koaza":"","lat":36.847531,"lng":139.980756,"zip":"3292732"},{"town":"宇都野","koaza":"","lat":36.90291,"lng":139.886517,"zip":"3292816"},{"town":"扇町","koaza":"","lat":36.883733,"lng":139.984193,"zip":"3292726"},{"town":"大原間","koaza":"","lat":36.927585,"lng":140.020352,"zip":"3293153"},{"town":"大原間西一丁目","koaza":"","lat":36.930504,"lng":140.017814,"zip":"3293157"},{"town":"大原間西二丁目","koaza":"","lat":36.927106,"lng":140.01546,"zip":"3293157"},{"town":"遅野沢","koaza":"","lat":36.972112,"lng":139.905257,"zip":"3292803"},{"town":"折戸","koaza":"","lat":36.968766,"lng":139.929385,"zip":"3292804"},{"town":"春日町","koaza":"","lat":36.968283,"lng":140.030512,"zip":"3250075"},{"town":"金沢","koaza":"","lat":36.937458,"lng":139.867408,"zip":"3292812"},{"town":"鹿野崎","koaza":"","lat":36.969574,"lng":139.98443,"zip":"3293121"},{"town":"上赤田","koaza":"","lat":36.910368,"lng":139.947185,"zip":"3292748"},{"town":"上厚崎","koaza":"","lat":36.955976,"lng":140.031778,"zip":"3250026"},{"town":"上大塚新田","koaza":"","lat":36.941464,"lng":140.033391,"zip":"3293134"},{"town":"上大貫","koaza":"","lat":36.897802,"lng":139.923419,"zip":"3292814"},{"town":"上郷屋","koaza":"","lat":36.966696,"lng":139.977437,"zip":"3293127"},{"town":"上塩原","koaza":"","lat":37.003578,"lng":139.768224,"zip":"3292923"},{"town":"上中野","koaza":"","lat":36.928918,"lng":140.000952,"zip":"3293154"},{"town":"上横林","koaza":"","lat":36.960666,"lng":139.945604,"zip":"3292805"},{"town":"亀山","koaza":"","lat":37.029263,"lng":140.000432,"zip":"3250102"},{"town":"唐杉","koaza":"","lat":36.950009,"lng":140.005232,"zip":"3293131"},{"town":"木曽畑中","koaza":"","lat":36.911898,"lng":140.033159,"zip":"3250000"},{"town":"北赤田","koaza":"","lat":36.914679,"lng":139.955005,"zip":"3292741"},{"town":"北栄町","koaza":"","lat":36.979913,"lng":140.043006,"zip":"3250039"},{"town":"北二つ室","koaza":"","lat":36.87505,"lng":139.971596,"zip":"3292734"},{"town":"北弥六","koaza":"","lat":36.946903,"lng":140.013658,"zip":"3293132"},{"town":"北和田","koaza":"","lat":36.945171,"lng":139.992748,"zip":"3293151"},{"town":"共墾社","koaza":"","lat":36.957414,"lng":140.051718,"zip":"3250027"},{"town":"共墾社一丁目","koaza":"","lat":36.960352,"lng":140.049696,"zip":"3250027"},{"town":"清住町","koaza":"","lat":36.969448,"lng":140.042817,"zip":"3250067"},{"town":"木綿畑","koaza":"","lat":36.99471,"lng":139.934134,"zip":"3250116"},{"town":"沓掛","koaza":"","lat":36.942435,"lng":140.022667,"zip":"3293133"},{"town":"沓掛一丁目","koaza":"","lat":36.935246,"lng":140.022436,"zip":"3293133"},{"town":"沓掛二丁目","koaza":"","lat":36.936244,"lng":140.020603,"zip":"3293133"},{"town":"沓掛三丁目","koaza":"","lat":36.938819,"lng":140.020603,"zip":"3293133"},{"town":"黒磯","koaza":"","lat":36.982181,"lng":140.048154,"zip":"3250017"},{"town":"黒磯幸町","koaza":"","lat":36.968429,"lng":140.056108,"zip":"3250057"},{"town":"越堀","koaza":"","lat":36.955307,"lng":140.098674,"zip":"3250012"},{"town":"五軒町","koaza":"","lat":36.889968,"lng":139.980409,"zip":"3292753"},{"town":"小結","koaza":"","lat":37.016633,"lng":140.01246,"zip":"3250035"},{"town":"材木町","koaza":"","lat":36.974663,"lng":140.048933,"zip":"3250048"},{"town":"埼玉","koaza":"","lat":36.97444,"lng":140.017432,"zip":"3250033"},{"town":"桜町","koaza":"","lat":36.976677,"lng":140.052149,"zip":"3250042"},{"town":"笹沼","koaza":"","lat":36.937312,"lng":139.983401,"zip":"3293155"},{"town":"佐野","koaza":"","lat":36.938168,"lng":140.044696,"zip":"3293142"},{"town":"三区町","koaza":"","lat":36.881382,"lng":139.952605,"zip":"3292745"},{"town":"三本木","koaza":"","lat":36.929434,"lng":140.034321,"zip":"3293143"},{"town":"塩野崎","koaza":"","lat":36.963988,"lng":139.99532,"zip":"3293122"},{"town":"塩野崎新田","koaza":"","lat":36.959958,"lng":140.00375,"zip":"3293123"},{"town":"塩原","koaza":"","lat":36.958063,"lng":139.825145,"zip":"3292921"},{"town":"鴫内","koaza":"","lat":36.999194,"lng":139.915287,"zip":"3250118"},{"town":"島方","koaza":"","lat":36.931373,"lng":140.008211,"zip":"3293152"},{"town":"下厚崎","koaza":"","lat":36.949242,"lng":140.043664,"zip":"3250025"},{"town":"下大貫","koaza":"","lat":36.879678,"lng":139.928324,"zip":"3292815"},{"town":"下田野","koaza":"","lat":36.938369,"lng":139.905489,"zip":"3292811"},{"town":"下永田一丁目","koaza":"","lat":36.883215,"lng":139.995022,"zip":"3292712"},{"town":"下永田二丁目","koaza":"","lat":36.881794,"lng":139.993869,"zip":"3292712"},{"town":"下永田三丁目","koaza":"","lat":36.880424,"lng":139.991413,"zip":"3292712"},{"town":"下永田四丁目","koaza":"","lat":36.878443,"lng":139.988451,"zip":"3292712"},{"town":"下永田五丁目","koaza":"","lat":36.874575,"lng":139.987267,"zip":"3292712"},{"town":"下永田六丁目","koaza":"","lat":36.8753,"lng":139.996181,"zip":"3292712"},{"town":"下永田七丁目","koaza":"","lat":36.876013,"lng":140.003578,"zip":"3292712"},{"town":"下永田八丁目","koaza":"","lat":36.873261,"lng":140.002099,"zip":"3292712"},{"town":"下中野","koaza":"","lat":36.911651,"lng":140.013835,"zip":"3293146"},{"town":"新朝日","koaza":"","lat":36.974321,"lng":140.061361,"zip":"3250054"},{"town":"新南","koaza":"","lat":36.888536,"lng":139.994228,"zip":"3292704"},{"town":"新町","koaza":"","lat":36.976553,"lng":140.035872,"zip":"3250071"},{"town":"新緑町","koaza":"","lat":36.969002,"lng":140.039003,"zip":"3250066"},{"town":"末広町","koaza":"","lat":36.97014,"lng":140.045231,"zip":"3250061"},{"town":"住吉町","koaza":"","lat":36.965925,"lng":140.049984,"zip":"3250062"},{"town":"関根","koaza":"","lat":36.910865,"lng":140.002535,"zip":"3292701"},{"town":"関谷","koaza":"","lat":36.962606,"lng":139.900922,"zip":"3292801"},{"town":"千本松","koaza":"","lat":36.937732,"lng":139.93339,"zip":"3292747"},{"town":"大黒町","koaza":"","lat":36.97074,"lng":140.047747,"zip":"3250046"},{"town":"高阿津","koaza":"","lat":36.918471,"lng":139.916339,"zip":"3292813"},{"town":"高砂町","koaza":"","lat":36.973197,"lng":140.052302,"zip":"3250045"},{"town":"高林","koaza":"","lat":36.986475,"lng":139.951471,"zip":"3250107"},{"town":"高柳","koaza":"","lat":36.899873,"lng":139.99069,"zip":"3292707"},{"town":"太夫塚一丁目","koaza":"","lat":36.883019,"lng":139.977433,"zip":"3292735"},{"town":"太夫塚二丁目","koaza":"","lat":36.879954,"lng":139.979556,"zip":"3292735"},{"town":"太夫塚三丁目","koaza":"","lat":36.874528,"lng":139.977101,"zip":"3292735"},{"town":"太夫塚四丁目","koaza":"","lat":36.871714,"lng":139.979318,"zip":"3292735"},{"town":"太夫塚五丁目","koaza":"","lat":36.879721,"lng":139.973689,"zip":"3292735"},{"town":"太夫塚六丁目","koaza":"","lat":36.884407,"lng":139.970951,"zip":"3292735"},{"town":"中央町","koaza":"","lat":36.971925,"lng":140.054895,"zip":"3250052"},{"town":"槻沢","koaza":"","lat":36.902206,"lng":139.998889,"zip":"3292703"},{"town":"寺子","koaza":"","lat":36.973074,"lng":140.112814,"zip":"3250011"},{"town":"東栄一丁目","koaza":"","lat":36.970624,"lng":140.061803,"zip":"3250016"},{"town":"東栄二丁目","koaza":"","lat":36.970945,"lng":140.06403,"zip":"3250016"},{"town":"洞島","koaza":"","lat":36.963685,"lng":139.963549,"zip":"3250106"},{"town":"戸田","koaza":"","lat":37.016506,"lng":139.965338,"zip":"3250114"},{"town":"豊浦","koaza":"","lat":36.950076,"lng":140.056158,"zip":"3250023"},{"town":"豊浦北町","koaza":"","lat":36.978633,"lng":140.038274,"zip":"3250038"},{"town":"豊浦町","koaza":"","lat":36.964744,"lng":140.039764,"zip":"3250064"},{"town":"豊浦中町","koaza":"","lat":36.965434,"lng":140.043836,"zip":"3250063"},{"town":"豊浦南町","koaza":"","lat":36.962079,"lng":140.041091,"zip":"3250065"},{"town":"豊住町","koaza":"","lat":36.975563,"lng":140.040857,"zip":"3250072"},{"town":"鳥野目","koaza":"","lat":37.001781,"lng":140.027542,"zip":"3250036"},{"town":"中内","koaza":"","lat":36.958772,"lng":139.980351,"zip":"3293126"},{"town":"中塩原","koaza":"","lat":36.99782,"lng":139.805835,"zip":"3292924"},{"town":"永田町","koaza":"","lat":36.885989,"lng":139.984692,"zip":"3292727"},{"town":"鍋掛","koaza":"","lat":36.947691,"lng":140.080161,"zip":"3250013"},{"town":"並木町","koaza":"","lat":36.978674,"lng":140.032847,"zip":"3250031"},{"town":"二区町","koaza":"","lat":36.866489,"lng":139.96204,"zip":"3292733"},{"town":"西赤田","koaza":"","lat":36.901096,"lng":139.956145,"zip":"3292744"},{"town":"西朝日町","koaza":"","lat":36.885773,"lng":139.989405,"zip":"3292722"},{"town":"西岩崎","koaza":"","lat":37.029131,"lng":139.988315,"zip":"3250101"},{"town":"西遅沢","koaza":"","lat":36.92043,"lng":139.990653,"zip":"3292764"},{"town":"錦町","koaza":"","lat":36.965109,"lng":140.053419,"zip":"3250058"},{"town":"西幸町","koaza":"","lat":36.875858,"lng":139.982452,"zip":"3292724"},{"town":"西栄町","koaza":"","lat":36.888713,"lng":139.984678,"zip":"3292728"},{"town":"西新町","koaza":"","lat":36.972228,"lng":140.03295,"zip":"3250076"},{"town":"西富山","koaza":"","lat":36.905224,"lng":139.986738,"zip":"3292762"},{"town":"西原町","koaza":"","lat":36.888839,"lng":139.975712,"zip":"3292755"},{"town":"西三島一丁目","koaza":"","lat":36.891629,"lng":139.972706,"zip":"3292756"},{"town":"西三島二丁目","koaza":"","lat":36.889816,"lng":139.97036,"zip":"3292756"},{"town":"西三島三丁目","koaza":"","lat":36.887779,"lng":139.968541,"zip":"3292756"},{"town":"西三島四丁目","koaza":"","lat":36.8917,"lng":139.964328,"zip":"3292756"},{"town":"西三島五丁目","koaza":"","lat":36.893166,"lng":139.96619,"zip":"3292756"},{"town":"西三島六丁目","koaza":"","lat":36.895079,"lng":139.968559,"zip":"3292756"},{"town":"西三島七丁目","koaza":"","lat":36.896498,"lng":139.961875,"zip":"3292756"},{"town":"西大和","koaza":"","lat":36.887658,"lng":139.978687,"zip":"3292754"},{"town":"接骨木","koaza":"","lat":36.927235,"lng":139.961886,"zip":"3292807"},{"town":"沼野田和","koaza":"","lat":36.916703,"lng":140.025194,"zip":"3293144"},{"town":"野間","koaza":"","lat":36.931781,"lng":140.081472,"zip":"3250014"},{"town":"橋本町","koaza":"","lat":36.976996,"lng":140.057966,"zip":"3250043"},{"town":"波立","koaza":"","lat":36.950867,"lng":139.994281,"zip":"3293124"},{"town":"原町","koaza":"","lat":36.967082,"lng":140.066192,"zip":"3250015"},{"town":"東赤田","koaza":"","lat":36.908946,"lng":139.961393,"zip":"3292742"},{"town":"東遅沢","koaza":"","lat":36.919886,"lng":139.997402,"zip":"3292761"},{"town":"東小屋","koaza":"","lat":36.931131,"lng":140.027849,"zip":"3293147"},{"town":"東関根","koaza":"","lat":36.904235,"lng":140.005772,"zip":"3292702"},{"town":"東豊浦","koaza":"","lat":36.96531,"lng":140.061119,"zip":"3250022"},{"town":"東原","koaza":"","lat":37.000375,"lng":140.016962,"zip":"3250034"},{"town":"東三島一丁目","koaza":"","lat":36.899398,"lng":139.98366,"zip":"3292751"},{"town":"東三島二丁目","koaza":"","lat":36.898047,"lng":139.979986,"zip":"3292751"},{"town":"東三島三丁目","koaza":"","lat":36.896147,"lng":139.978475,"zip":"3292751"},{"town":"東三島四丁目","koaza":"","lat":36.899544,"lng":139.974362,"zip":"3292751"},{"town":"東三島五丁目","koaza":"","lat":36.90186,"lng":139.977366,"zip":"3292751"},{"town":"東三島六丁目","koaza":"","lat":36.904686,"lng":139.972363,"zip":"3292751"},{"town":"東大和町","koaza":"","lat":36.976998,"lng":140.046468,"zip":"3250041"},{"town":"蟇沼","koaza":"","lat":36.981616,"lng":139.891447,"zip":"3292802"},{"town":"二つ室","koaza":"","lat":36.863214,"lng":139.98485,"zip":"3292731"},{"town":"方京一丁目","koaza":"","lat":36.931918,"lng":140.01611,"zip":"3293156"},{"town":"方京二丁目","koaza":"","lat":36.933136,"lng":140.015465,"zip":"3293156"},{"town":"方京三丁目","koaza":"","lat":36.930169,"lng":140.011355,"zip":"3293156"},{"town":"細竹","koaza":"","lat":37.038313,"lng":139.975512,"zip":"3250113"},{"town":"本郷町","koaza":"","lat":36.97676,"lng":140.062549,"zip":"3250053"},{"town":"本町","koaza":"","lat":36.970612,"lng":140.058492,"zip":"3250056"},{"town":"前弥六","koaza":"","lat":36.942354,"lng":140.008178,"zip":"3293135"},{"town":"前弥六南町","koaza":"","lat":36.936244,"lng":140.017505,"zip":"3293136"},{"town":"松浦町","koaza":"","lat":36.968976,"lng":140.034479,"zip":"3250074"},{"town":"三島一丁目","koaza":"","lat":36.89457,"lng":139.976388,"zip":"3292752"},{"town":"三島二丁目","koaza":"","lat":36.893118,"lng":139.97489,"zip":"3292752"},{"town":"三島三丁目","koaza":"","lat":36.896708,"lng":139.970535,"zip":"3292752"},{"town":"三島四丁目","koaza":"","lat":36.898249,"lng":139.97198,"zip":"3292752"},{"town":"三島五丁目","koaza":"","lat":36.900769,"lng":139.966504,"zip":"3292752"},{"town":"緑一丁目","koaza":"","lat":36.867755,"lng":140.000831,"zip":"3292713"},{"town":"緑二丁目","koaza":"","lat":36.870213,"lng":139.997999,"zip":"3292713"},{"town":"南赤田","koaza":"","lat":36.904687,"lng":139.95793,"zip":"3292743"},{"town":"南郷屋一丁目","koaza":"","lat":36.891937,"lng":139.98136,"zip":"3292705"},{"town":"南郷屋二丁目","koaza":"","lat":36.892797,"lng":139.98391,"zip":"3292705"},{"town":"南郷屋三丁目","koaza":"","lat":36.893972,"lng":139.986243,"zip":"3292705"},{"town":"南郷屋四丁目","koaza":"","lat":36.89202,"lng":139.989936,"zip":"3292705"},{"town":"南郷屋五丁目","koaza":"","lat":36.895474,"lng":139.989155,"zip":"3292705"},{"town":"南町","koaza":"","lat":36.881005,"lng":139.986446,"zip":"3292723"},{"town":"箕輪","koaza":"","lat":36.976038,"lng":139.965924,"zip":"3250105"},{"town":"美原町","koaza":"","lat":36.982089,"lng":140.035348,"zip":"3250037"},{"town":"宮町","koaza":"","lat":36.973245,"lng":140.059247,"zip":"3250055"},{"town":"無栗屋","koaza":"","lat":36.951817,"lng":139.97574,"zip":"3293125"},{"town":"睦","koaza":"","lat":36.896747,"lng":139.985547,"zip":"3292706"},{"town":"百村","koaza":"","lat":37.080147,"lng":139.865112,"zip":"3250115"},{"town":"箭坪","koaza":"","lat":37.010054,"lng":139.950891,"zip":"3250108"},{"town":"山中新田","koaza":"","lat":36.936719,"lng":140.035659,"zip":"3293141"},{"town":"弥生町","koaza":"","lat":36.974303,"lng":140.055754,"zip":"3250044"},{"town":"油井","koaza":"","lat":37.04327,"lng":139.953866,"zip":"3250112"},{"town":"湯宮","koaza":"","lat":36.994907,"lng":139.905896,"zip":"3250117"},{"town":"豊町","koaza":"","lat":36.969846,"lng":140.05192,"zip":"3250051"},{"town":"湯本塩原","koaza":"","lat":36.939413,"lng":139.780559,"zip":"3292922"},{"town":"横林","koaza":"","lat":36.944627,"lng":139.960875,"zip":"3292806"},{"town":"四区町","koaza":"","lat":36.903588,"lng":139.940002,"zip":"3292746"},{"town":"若草町","koaza":"","lat":36.974179,"lng":140.030562,"zip":"3250032"},{"town":"若葉町","koaza":"","lat":36.972996,"lng":140.046701,"zip":"3250047"},{"town":"渡辺","koaza":"","lat":36.93484,"lng":140.055434,"zip":"3250024"},{"town":"関谷","koaza":"中町","lat":36.95425,"lng":139.898041,"zip":"3292801"},{"town":"島方","koaza":"上原","lat":36.938192,"lng":140.009485,"zip":"3293152"},{"town":"共墾社","koaza":"共墾場","lat":36.96038,"lng":140.047218,"zip":"3250027"},{"town":"鍋掛","koaza":"鍋掛原","lat":36.962518,"lng":140.064763,"zip":"3250013"},{"town":"野間","koaza":"神沼","lat":36.929453,"lng":140.077204,"zip":"3250014"},{"town":"豊浦","koaza":"豊浦","lat":36.955595,"lng":140.055816,"zip":"3250023"}]