[{"town":"大内","koaza":"","lat":36.739903,"lng":140.243488,"zip":"3240605"},{"town":"大那地","koaza":"","lat":36.719244,"lng":140.273568,"zip":"3240606"},{"town":"大山田上郷","koaza":"","lat":36.820967,"lng":140.210247,"zip":"3240601"},{"town":"大山田下郷","koaza":"","lat":36.78077,"lng":140.212114,"zip":"3240602"},{"town":"小川","koaza":"","lat":36.765773,"lng":140.126799,"zip":"3240501"},{"town":"恩田","koaza":"","lat":36.766893,"lng":140.103903,"zip":"3240503"},{"town":"片平","koaza":"","lat":36.741663,"lng":140.113029,"zip":"3240515"},{"town":"北向田","koaza":"","lat":36.747598,"lng":140.145539,"zip":"3240617"},{"town":"薬利","koaza":"","lat":36.774149,"lng":140.094595,"zip":"3240504"},{"town":"久那瀬","koaza":"","lat":36.728903,"lng":140.154166,"zip":"3240614"},{"town":"小砂","koaza":"","lat":36.802892,"lng":140.178519,"zip":"3240611"},{"town":"小口","koaza":"","lat":36.767618,"lng":140.14803,"zip":"3240618"},{"town":"浄法寺","koaza":"","lat":36.788596,"lng":140.097271,"zip":"3240506"},{"town":"白久","koaza":"","lat":36.724316,"lng":140.128975,"zip":"3240513"},{"town":"高岡","koaza":"","lat":36.735169,"lng":140.125793,"zip":"3240514"},{"town":"健武","koaza":"","lat":36.755381,"lng":140.194919,"zip":"3240608"},{"town":"富山","koaza":"","lat":36.690106,"lng":140.195209,"zip":"3240616"},{"town":"馬頭","koaza":"","lat":36.733538,"lng":140.171218,"zip":"3240613"},{"town":"東戸田","koaza":"","lat":36.746606,"lng":140.097412,"zip":"3240516"},{"town":"松野","koaza":"","lat":36.708337,"lng":140.177638,"zip":"3240615"},{"town":"三川又","koaza":"","lat":36.756313,"lng":140.142114,"zip":"3240600"},{"town":"三輪","koaza":"","lat":36.756048,"lng":140.094647,"zip":"3240502"},{"town":"盛泉","koaza":"","lat":36.770708,"lng":140.24791,"zip":"3240604"},{"town":"谷川","koaza":"","lat":36.783251,"lng":140.233431,"zip":"3240603"},{"town":"谷田","koaza":"","lat":36.735618,"lng":140.138022,"zip":"3240512"},{"town":"矢又","koaza":"","lat":36.711923,"lng":140.215532,"zip":"3240607"},{"town":"芳井","koaza":"","lat":36.777191,"lng":140.063248,"zip":"3240505"},{"town":"吉田","koaza":"","lat":36.74533,"lng":140.133499,"zip":"3240511"},{"town":"和見","koaza":"","lat":36.763593,"lng":140.172315,"zip":"3240612"},{"town":"馬頭","koaza":"上郷地","lat":36.743816,"lng":140.175842,"zip":"3240613"}]