[{"town":"麻苧町","koaza":"","lat":36.563155,"lng":139.744289,"zip":"3220058"},{"town":"旭が丘","koaza":"","lat":36.539905,"lng":139.699173,"zip":"3220345"},{"town":"朝日町","koaza":"","lat":36.564572,"lng":139.754549,"zip":"3220035"},{"town":"東町一丁目","koaza":"","lat":36.568639,"lng":139.769063,"zip":"3220022"},{"town":"東町二丁目","koaza":"","lat":36.566934,"lng":139.772811,"zip":"3220022"},{"town":"東町三丁目","koaza":"","lat":36.562837,"lng":139.774908,"zip":"3220022"},{"town":"油田町","koaza":"","lat":36.514631,"lng":139.721449,"zip":"3220342"},{"town":"池ノ森","koaza":"","lat":36.49792,"lng":139.787864,"zip":"3220018"},{"town":"石橋町","koaza":"","lat":36.562909,"lng":139.745841,"zip":"3220055"},{"town":"泉町","koaza":"","lat":36.573683,"lng":139.747671,"zip":"3220062"},{"town":"磯町","koaza":"","lat":36.494578,"lng":139.749692,"zip":"3220536"},{"town":"板荷","koaza":"","lat":36.635911,"lng":139.679728,"zip":"3211111"},{"town":"今宮町","koaza":"","lat":36.566563,"lng":139.74414,"zip":"3220068"},{"town":"入粟野","koaza":"","lat":36.587489,"lng":139.572705,"zip":"3220307"},{"town":"上野町","koaza":"","lat":36.568569,"lng":139.763295,"zip":"3220021"},{"town":"大和田町","koaza":"","lat":36.513051,"lng":139.758759,"zip":"3220525"},{"town":"御成橋町一丁目","koaza":"","lat":36.575434,"lng":139.751048,"zip":"3220005"},{"town":"御成橋町二丁目","koaza":"","lat":36.579739,"lng":139.753087,"zip":"3220005"},{"town":"貝島町","koaza":"","lat":36.559692,"lng":139.760716,"zip":"3220027"},{"town":"柏木","koaza":"","lat":36.504366,"lng":139.656377,"zip":"3220304"},{"town":"加園","koaza":"","lat":36.565886,"lng":139.680486,"zip":"3220252"},{"town":"上石川","koaza":"","lat":36.523671,"lng":139.799191,"zip":"3220015"},{"town":"上大久保","koaza":"","lat":36.629173,"lng":139.631614,"zip":"3220102"},{"town":"上粕尾","koaza":"","lat":36.595391,"lng":139.509653,"zip":"3220423"},{"town":"上久我","koaza":"","lat":36.603761,"lng":139.612182,"zip":"3220254"},{"town":"上材木町","koaza":"","lat":36.569212,"lng":139.746652,"zip":"3220065"},{"town":"上田町","koaza":"","lat":36.567301,"lng":139.750804,"zip":"3220066"},{"town":"上殿町","koaza":"","lat":36.547629,"lng":139.755986,"zip":"3220045"},{"town":"上永野","koaza":"","lat":36.528298,"lng":139.549647,"zip":"3280211"},{"town":"上奈良部町","koaza":"","lat":36.532983,"lng":139.766707,"zip":"3220522"},{"town":"上南摩町","koaza":"","lat":36.553351,"lng":139.663739,"zip":"3220346"},{"town":"上日向","koaza":"","lat":36.568645,"lng":139.709399,"zip":"3220076"},{"town":"亀和田町","koaza":"","lat":36.476526,"lng":139.753609,"zip":"3220534"},{"town":"北赤塚町","koaza":"","lat":36.479417,"lng":139.763419,"zip":"3220533"},{"town":"北半田","koaza":"","lat":36.499868,"lng":139.728648,"zip":"3220301"},{"town":"銀座一丁目","koaza":"","lat":36.565662,"lng":139.748771,"zip":"3220052"},{"town":"銀座二丁目","koaza":"","lat":36.565449,"lng":139.747831,"zip":"3220052"},{"town":"草久","koaza":"","lat":36.663917,"lng":139.543417,"zip":"3220101"},{"town":"口粟野","koaza":"","lat":36.522077,"lng":139.658141,"zip":"3220305"},{"town":"久野","koaza":"","lat":36.508042,"lng":139.688683,"zip":"3220303"},{"town":"久保町","koaza":"","lat":36.565758,"lng":139.746636,"zip":"3220051"},{"town":"晃望台","koaza":"","lat":36.560337,"lng":139.767544,"zip":"3220024"},{"town":"高谷","koaza":"","lat":36.590104,"lng":139.766039,"zip":"3220009"},{"town":"古賀志町","koaza":"","lat":36.598244,"lng":139.758498,"zip":"3220008"},{"town":"幸町一丁目","koaza":"","lat":36.562225,"lng":139.771528,"zip":"3220023"},{"town":"幸町二丁目","koaza":"","lat":36.55872,"lng":139.779333,"zip":"3220023"},{"town":"栄町一丁目","koaza":"","lat":36.554154,"lng":139.773144,"zip":"3220028"},{"town":"栄町二丁目","koaza":"","lat":36.552594,"lng":139.778534,"zip":"3220028"},{"town":"栄町三丁目","koaza":"","lat":36.549779,"lng":139.773615,"zip":"3220028"},{"town":"坂田山一丁目","koaza":"","lat":36.571831,"lng":139.740759,"zip":"3220069"},{"town":"坂田山二丁目","koaza":"","lat":36.570383,"lng":139.737956,"zip":"3220069"},{"town":"坂田山三丁目","koaza":"","lat":36.574766,"lng":139.738183,"zip":"3220069"},{"town":"坂田山四丁目","koaza":"","lat":36.575987,"lng":139.740133,"zip":"3220069"},{"town":"酒野谷","koaza":"","lat":36.541264,"lng":139.71673,"zip":"3220047"},{"town":"笹原田","koaza":"","lat":36.586495,"lng":139.711088,"zip":"3220078"},{"town":"さつき町","koaza":"","lat":36.536453,"lng":139.807916,"zip":"3220014"},{"town":"佐目町","koaza":"","lat":36.505816,"lng":139.71564,"zip":"3220343"},{"town":"三幸町","koaza":"","lat":36.560546,"lng":139.742489,"zip":"3220041"},{"town":"塩山町","koaza":"","lat":36.522804,"lng":139.737863,"zip":"3220527"},{"town":"下石川","koaza":"","lat":36.50873,"lng":139.803317,"zip":"3220017"},{"town":"下大久保","koaza":"","lat":36.621031,"lng":139.642002,"zip":"3220103"},{"town":"下粕尾","koaza":"","lat":36.505457,"lng":139.630116,"zip":"3220421"},{"town":"下久我","koaza":"","lat":36.588572,"lng":139.665572,"zip":"3220253"},{"town":"下材木町","koaza":"","lat":36.561996,"lng":139.745831,"zip":"3220056"},{"town":"下沢","koaza":"","lat":36.586448,"lng":139.694204,"zip":"3220256"},{"town":"下武子町","koaza":"","lat":36.574355,"lng":139.760109,"zip":"3220004"},{"town":"下田町一丁目","koaza":"","lat":36.560664,"lng":139.752356,"zip":"3220036"},{"town":"下田町二丁目","koaza":"","lat":36.563068,"lng":139.751038,"zip":"3220036"},{"town":"下遠部","koaza":"","lat":36.600837,"lng":139.704126,"zip":"3220079"},{"town":"下永野","koaza":"","lat":36.479699,"lng":139.612411,"zip":"3280212"},{"town":"下奈良部町","koaza":"","lat":36.52327,"lng":139.762022,"zip":"3220523"},{"town":"下南摩町","koaza":"","lat":36.526053,"lng":139.7168,"zip":"3220341"},{"town":"下日向","koaza":"","lat":36.556336,"lng":139.719734,"zip":"3220075"},{"town":"下横町","koaza":"","lat":36.56347,"lng":139.747505,"zip":"3220054"},{"town":"白桑田","koaza":"","lat":36.554418,"lng":139.819986,"zip":"3220011"},{"town":"末広町","koaza":"","lat":36.565469,"lng":139.751058,"zip":"3220038"},{"town":"千手町","koaza":"","lat":36.573678,"lng":139.744279,"zip":"3220061"},{"town":"千渡","koaza":"","lat":36.569623,"lng":139.784521,"zip":"3220002"},{"town":"武子","koaza":"","lat":36.599362,"lng":139.749588,"zip":"3220007"},{"town":"玉田町","koaza":"","lat":36.584086,"lng":139.735146,"zip":"3220072"},{"town":"寺町","koaza":"","lat":36.560832,"lng":139.746708,"zip":"3220057"},{"town":"天神町","koaza":"","lat":36.567393,"lng":139.74751,"zip":"3220067"},{"town":"栃窪","koaza":"","lat":36.586899,"lng":139.7888,"zip":"3220001"},{"town":"戸張町","koaza":"","lat":36.571005,"lng":139.748344,"zip":"3220063"},{"town":"富岡","koaza":"","lat":36.602908,"lng":139.736586,"zip":"3220006"},{"town":"鳥居跡町","koaza":"","lat":36.556711,"lng":139.746414,"zip":"3220044"},{"town":"中粟野","koaza":"","lat":36.541975,"lng":139.625388,"zip":"3220306"},{"town":"中粕尾","koaza":"","lat":36.539506,"lng":139.584684,"zip":"3220422"},{"town":"中田町","koaza":"","lat":36.564489,"lng":139.749695,"zip":"3220037"},{"town":"仲町","koaza":"","lat":36.564174,"lng":139.746582,"zip":"3220053"},{"town":"奈佐原町","koaza":"","lat":36.520597,"lng":139.751663,"zip":"3220528"},{"town":"仁神堂町","koaza":"","lat":36.579178,"lng":139.766953,"zip":"3220003"},{"town":"西鹿沼町","koaza":"","lat":36.570835,"lng":139.734401,"zip":"3220073"},{"town":"西沢町","koaza":"","lat":36.525011,"lng":139.697229,"zip":"3220344"},{"town":"西茂呂一丁目","koaza":"","lat":36.554528,"lng":139.765235,"zip":"3220029"},{"town":"西茂呂二丁目","koaza":"","lat":36.554231,"lng":139.768276,"zip":"3220029"},{"town":"西茂呂三丁目","koaza":"","lat":36.548282,"lng":139.769168,"zip":"3220029"},{"town":"西茂呂四丁目","koaza":"","lat":36.547458,"lng":139.765889,"zip":"3220029"},{"town":"日光奈良部町","koaza":"","lat":36.533956,"lng":139.755604,"zip":"3220521"},{"town":"楡木町","koaza":"","lat":36.506556,"lng":139.743748,"zip":"3220526"},{"town":"野沢町","koaza":"","lat":36.489794,"lng":139.739815,"zip":"3220535"},{"town":"野尻","koaza":"","lat":36.545887,"lng":139.707631,"zip":"3220251"},{"town":"花岡町","koaza":"","lat":36.556618,"lng":139.735605,"zip":"3220049"},{"town":"東末広町","koaza":"","lat":36.565422,"lng":139.753037,"zip":"3220039"},{"town":"引田","koaza":"","lat":36.606505,"lng":139.667583,"zip":"3220255"},{"town":"日吉町","koaza":"","lat":36.567243,"lng":139.727931,"zip":"3220074"},{"town":"深岩","koaza":"","lat":36.577698,"lng":139.717565,"zip":"3220077"},{"town":"深津","koaza":"","lat":36.537021,"lng":139.818823,"zip":"3220013"},{"town":"深程","koaza":"","lat":36.494679,"lng":139.697178,"zip":"3220302"},{"town":"藤江町","koaza":"","lat":36.496339,"lng":139.771353,"zip":"3220532"},{"town":"府中町","koaza":"","lat":36.565203,"lng":139.75678,"zip":"3220034"},{"town":"府所町","koaza":"","lat":36.565757,"lng":139.759622,"zip":"3220033"},{"town":"府所本町","koaza":"","lat":36.569985,"lng":139.755859,"zip":"3220032"},{"town":"文化橋町","koaza":"","lat":36.569642,"lng":139.751501,"zip":"3220064"},{"town":"蓬莱町","koaza":"","lat":36.559283,"lng":139.746285,"zip":"3220042"},{"town":"松原一丁目","koaza":"","lat":36.550592,"lng":139.81845,"zip":"3220012"},{"town":"松原二丁目","koaza":"","lat":36.548365,"lng":139.818473,"zip":"3220012"},{"town":"松原三丁目","koaza":"","lat":36.551277,"lng":139.814961,"zip":"3220012"},{"town":"松原四丁目","koaza":"","lat":36.553451,"lng":139.812324,"zip":"3220012"},{"town":"緑町一丁目","koaza":"","lat":36.558844,"lng":139.770063,"zip":"3220025"},{"town":"緑町二丁目","koaza":"","lat":36.557677,"lng":139.774316,"zip":"3220025"},{"town":"緑町三丁目","koaza":"","lat":36.555146,"lng":139.779418,"zip":"3220025"},{"town":"南上野町","koaza":"","lat":36.513666,"lng":139.774474,"zip":"3220531"},{"town":"みなみ町","koaza":"","lat":36.522955,"lng":139.771465,"zip":"3220524"},{"town":"見野","koaza":"","lat":36.599339,"lng":139.724238,"zip":"3220071"},{"town":"睦町","koaza":"","lat":36.572102,"lng":139.75281,"zip":"3220031"},{"town":"村井町","koaza":"","lat":36.547243,"lng":139.738488,"zip":"3220048"},{"town":"樅山町","koaza":"","lat":36.53648,"lng":139.743676,"zip":"3220046"},{"town":"茂呂","koaza":"","lat":36.543233,"lng":139.783759,"zip":"3220026"},{"town":"万町","koaza":"","lat":36.558102,"lng":139.750637,"zip":"3220043"},{"town":"流通センター","koaza":"","lat":36.514551,"lng":139.800578,"zip":"3220016"}]