[{"town":"（大字なし）","koaza":"","lat":35.864863,"lng":137.960291,"zip":"3994511"},{"town":"（大字なし）","koaza":"南原","lat":35.862345,"lng":137.923035,"zip":"3994511"},{"town":"（大字なし）","koaza":"神子柴","lat":35.86389,"lng":137.957242,"zip":"3994511"},{"town":"（大字なし）","koaza":"沢尻","lat":35.858284,"lng":137.941961,"zip":"3994511"},{"town":"（大字なし）","koaza":"大芝","lat":35.882561,"lng":137.950601,"zip":"3994511"},{"town":"（大字なし）","koaza":"大泉","lat":35.883783,"lng":137.959084,"zip":"3994511"},{"town":"（大字なし）","koaza":"田畑","lat":35.868176,"lng":137.967179,"zip":"3994511"},{"town":"（大字なし）","koaza":"北原","lat":35.895128,"lng":137.959159,"zip":"3994511"},{"town":"（大字なし）","koaza":"南殿","lat":35.872556,"lng":137.974969,"zip":"3994511"},{"town":"（大字なし）","koaza":"久保","lat":35.892792,"lng":137.976305,"zip":"3994511"},{"town":"（大字なし）","koaza":"塩ノ井","lat":35.884412,"lng":137.978741,"zip":"3994511"},{"town":"（大字なし）","koaza":"北殿","lat":35.878708,"lng":137.980214,"zip":"3994511"},{"town":"（大字なし）","koaza":"中込","lat":35.887312,"lng":137.976588,"zip":"3994511"}]