[{"town":"町一区","koaza":"","lat":35.770547,"lng":137.94313,"zip":"3994301"},{"town":"町二区","koaza":"","lat":35.767296,"lng":137.942775,"zip":"3994301"},{"town":"中越","koaza":"","lat":35.767903,"lng":137.953939,"zip":"3994301"},{"town":"つつじヶ丘","koaza":"","lat":35.762514,"lng":137.951224,"zip":"3994301"},{"town":"大原","koaza":"","lat":35.760032,"lng":137.94892,"zip":"3994301"},{"town":"町三区","koaza":"","lat":35.760882,"lng":137.941171,"zip":"3994301"},{"town":"大久保","koaza":"","lat":35.754821,"lng":137.955046,"zip":"3994301"},{"town":"大田切","koaza":"","lat":35.751033,"lng":137.93754,"zip":"3994301"},{"town":"新田","koaza":"","lat":35.753749,"lng":137.917057,"zip":"3994301"},{"town":"南割","koaza":"","lat":35.760563,"lng":137.928173,"zip":"3994301"},{"town":"北割","koaza":"","lat":35.769954,"lng":137.927518,"zip":"3994301"},{"town":"（大字なし）","koaza":"","lat":35.762043,"lng":137.937178,"zip":"3994301"},{"town":"（大字なし）","koaza":"新田","lat":35.755322,"lng":137.911208,"zip":"3994301"},{"town":"（大字なし）","koaza":"南割","lat":35.760975,"lng":137.925347,"zip":"3994301"},{"town":"（大字なし）","koaza":"大田切区","lat":35.752068,"lng":137.931978,"zip":"3994301"},{"town":"（大字なし）","koaza":"北割","lat":35.768272,"lng":137.930454,"zip":"3994301"},{"town":"（大字なし）","koaza":"町","lat":35.763544,"lng":137.94133,"zip":"3994301"},{"town":"（大字なし）","koaza":"大原区","lat":35.759198,"lng":137.948087,"zip":"3994301"},{"town":"（大字なし）","koaza":"中越","lat":35.767775,"lng":137.953731,"zip":"3994301"},{"town":"（大字なし）","koaza":"大久保","lat":35.757107,"lng":137.955274,"zip":"3994301"},{"town":"（大字なし）","koaza":"つつじが丘区","lat":35.763324,"lng":137.954174,"zip":"3994301"}]