[{"town":"大字赤塩","koaza":"","lat":36.762996,"lng":138.287712,"zip":"3891200"},{"town":"大字芋川","koaza":"","lat":36.781582,"lng":138.25936,"zip":"3891200"},{"town":"大字川上","koaza":"","lat":36.739241,"lng":138.186461,"zip":"3891200"},{"town":"大字川谷","koaza":"","lat":36.743856,"lng":138.274104,"zip":"3891200"},{"town":"大字倉井","koaza":"","lat":36.755504,"lng":138.260172,"zip":"3891200"},{"town":"大字黒川","koaza":"","lat":36.744307,"lng":138.224311,"zip":"3891200"},{"town":"大字高坂","koaza":"","lat":36.724563,"lng":138.193702,"zip":"3891200"},{"town":"大字小玉","koaza":"","lat":36.760785,"lng":138.219271,"zip":"3891200"},{"town":"大字坂口","koaza":"","lat":36.717536,"lng":138.202061,"zip":"3891200"},{"town":"大字地蔵久保","koaza":"","lat":36.717803,"lng":138.208872,"zip":"3891200"},{"town":"大字袖之山","koaza":"","lat":36.720617,"lng":138.221771,"zip":"3891200"},{"town":"大字豊野","koaza":"","lat":36.742538,"lng":138.2563,"zip":"3891200"},{"town":"大字東柏原","koaza":"","lat":36.784131,"lng":138.288497,"zip":"3891200"},{"town":"大字平出","koaza":"","lat":36.729262,"lng":138.241528,"zip":"3891200"},{"town":"大字普光寺","koaza":"","lat":36.767816,"lng":138.234512,"zip":"3891200"},{"town":"大字古町","koaza":"","lat":36.752418,"lng":138.206679,"zip":"3891200"},{"town":"大字牟礼","koaza":"","lat":36.744333,"lng":138.238702,"zip":"3891200"},{"town":"大字柳里","koaza":"","lat":36.745544,"lng":138.199697,"zip":"3891200"},{"town":"大字平出","koaza":"行人塚","lat":36.737535,"lng":138.245707,"zip":"3891200"}]