[{"town":"折山","koaza":"","lat":35.30061,"lng":137.616933,"zip":"3950701"},{"town":"高橋","koaza":"","lat":35.292582,"lng":137.615313,"zip":"3950701"},{"town":"市之瀬","koaza":"","lat":35.29223,"lng":137.600242,"zip":"3950701"},{"town":"取手","koaza":"","lat":35.285751,"lng":137.593763,"zip":"3950701"},{"town":"池之平","koaza":"","lat":35.279835,"lng":137.573973,"zip":"3950701"},{"town":"横旗","koaza":"","lat":35.28068,"lng":137.59503,"zip":"3950701"},{"town":"日向","koaza":"","lat":35.260609,"lng":137.559536,"zip":"3950701"},{"town":"月瀬平","koaza":"","lat":35.256665,"lng":137.563621,"zip":"3950701"},{"town":"初入","koaza":"","lat":35.261665,"lng":137.568057,"zip":"3950701"},{"town":"榊","koaza":"","lat":35.25589,"lng":137.570311,"zip":"3950701"},{"town":"大曽礼","koaza":"","lat":35.253355,"lng":137.56848,"zip":"3950701"},{"town":"中野","koaza":"","lat":35.273004,"lng":137.585875,"zip":"3950701"},{"town":"小川","koaza":"","lat":35.264271,"lng":137.585452,"zip":"3950701"},{"town":"大畑","koaza":"","lat":35.254904,"lng":137.579678,"zip":"3950701"},{"town":"万場瀬","koaza":"","lat":35.251806,"lng":137.572846,"zip":"3950701"},{"town":"小栃","koaza":"","lat":35.248989,"lng":137.564325,"zip":"3950701"},{"town":"下町","koaza":"","lat":35.25082,"lng":137.578762,"zip":"3950701"},{"town":"上町","koaza":"","lat":35.251946,"lng":137.581649,"zip":"3950701"},{"town":"坂町","koaza":"","lat":35.254975,"lng":137.58503,"zip":"3950701"},{"town":"黒地","koaza":"","lat":35.252721,"lng":137.587776,"zip":"3950701"},{"town":"新井","koaza":"","lat":35.243707,"lng":137.582635,"zip":"3950701"},{"town":"田島","koaza":"","lat":35.246172,"lng":137.587776,"zip":"3950701"},{"town":"老平","koaza":"","lat":35.248425,"lng":137.59834,"zip":"3950701"},{"town":"向黒地","koaza":"","lat":35.251806,"lng":137.595664,"zip":"3950701"},{"town":"下小戸名","koaza":"","lat":35.250793,"lng":137.621085,"zip":"3950701"},{"town":"倉平","koaza":"","lat":35.255271,"lng":137.641465,"zip":"3950701"},{"town":"小戸名","koaza":"","lat":35.248521,"lng":137.641205,"zip":"3950701"},{"town":"大代","koaza":"","lat":35.250339,"lng":137.654316,"zip":"3950701"},{"town":"浅間","koaza":"","lat":35.232295,"lng":137.615633,"zip":"3950701"},{"town":"檜原","koaza":"","lat":35.222365,"lng":137.598823,"zip":"3950701"},{"town":"離山","koaza":"","lat":35.210877,"lng":137.602003,"zip":"3950701"},{"town":"大又入","koaza":"","lat":35.208541,"lng":137.591099,"zip":"3950701"},{"town":"ぐみ野","koaza":"","lat":35.256947,"lng":137.600101,"zip":"3950701"}]