[{"town":"荒井","koaza":"","lat":35.844037,"lng":137.943096,"zip":"3960025"},{"town":"荒井内の萱","koaza":"","lat":35.836553,"lng":137.891384,"zip":"3960028"},{"town":"伊那","koaza":"","lat":35.838166,"lng":137.869905,"zip":"3960021"},{"town":"伊那部","koaza":"","lat":35.823949,"lng":137.962246,"zip":"3960011"},{"town":"上の原","koaza":"","lat":35.843135,"lng":137.983521,"zip":"3960008"},{"town":"小沢","koaza":"","lat":35.849205,"lng":137.927213,"zip":"3960032"},{"town":"上新田","koaza":"","lat":35.827233,"lng":137.965225,"zip":"3960012"},{"town":"上牧","koaza":"","lat":35.85354,"lng":137.978841,"zip":"3960006"},{"town":"狐島","koaza":"","lat":35.833986,"lng":137.960273,"zip":"3960014"},{"town":"小四郎久保","koaza":"","lat":35.856203,"lng":137.955026,"zip":"3960033"},{"town":"境","koaza":"","lat":35.832009,"lng":137.971839,"zip":"3960010"},{"town":"坂下","koaza":"","lat":35.843826,"lng":137.956557,"zip":"3960024"},{"town":"下新田","koaza":"","lat":35.825622,"lng":137.954596,"zip":"3960013"},{"town":"仙美","koaza":"","lat":35.847063,"lng":137.991592,"zip":"3960114"},{"town":"高遠町長藤","koaza":"","lat":35.867639,"lng":138.086734,"zip":"3960212"},{"town":"高遠町小原","koaza":"","lat":35.816436,"lng":138.05351,"zip":"3960215"},{"town":"高遠町勝間","koaza":"","lat":35.813491,"lng":138.068106,"zip":"3960214"},{"town":"高遠町上山田","koaza":"","lat":35.822746,"lng":138.032091,"zip":"3960217"},{"town":"高遠町芝平","koaza":"","lat":35.907072,"lng":138.146196,"zip":"3960302"},{"town":"高遠町下山田","koaza":"","lat":35.81501,"lng":138.046955,"zip":"3960216"},{"town":"高遠町西高遠","koaza":"","lat":35.8537,"lng":138.059188,"zip":"3960211"},{"town":"高遠町荊口","koaza":"","lat":35.868686,"lng":138.131231,"zip":"3960303"},{"town":"高遠町東高遠","koaza":"","lat":35.837157,"lng":138.075222,"zip":"3960213"},{"town":"高遠町藤澤","koaza":"","lat":35.932476,"lng":138.112005,"zip":"3960000"},{"town":"高遠町山室","koaza":"","lat":35.843297,"lng":138.114576,"zip":"3960304"},{"town":"中央","koaza":"","lat":35.842743,"lng":137.971198,"zip":"3960015"},{"town":"手良沢岡","koaza":"","lat":35.874342,"lng":138.007708,"zip":"3960002"},{"town":"手良中坪","koaza":"","lat":35.858792,"lng":138.03423,"zip":"3960004"},{"town":"手良野口","koaza":"","lat":35.88881,"lng":138.040013,"zip":"3960003"},{"town":"富県","koaza":"","lat":35.799768,"lng":138.01212,"zip":"3960621"},{"town":"中の原","koaza":"","lat":35.854412,"lng":137.923357,"zip":"3960031"},{"town":"西春近","koaza":"","lat":35.805569,"lng":137.898038,"zip":"3994431"},{"town":"西町","koaza":"","lat":35.834656,"lng":137.944366,"zip":"3960026"},{"town":"西箕輪","koaza":"","lat":35.882448,"lng":137.904527,"zip":"3994501"},{"town":"野底","koaza":"","lat":35.858749,"lng":137.998179,"zip":"3960005"},{"town":"長谷市野瀬","koaza":"","lat":35.728069,"lng":138.070093,"zip":"3960405"},{"town":"長谷浦","koaza":"","lat":35.656725,"lng":138.150325,"zip":"3960407"},{"town":"長谷黒河内","koaza":"","lat":35.808042,"lng":138.151728,"zip":"3960403"},{"town":"長谷杉島","koaza":"","lat":35.718741,"lng":138.116107,"zip":"3960406"},{"town":"長谷中尾","koaza":"","lat":35.758255,"lng":138.085125,"zip":"3960404"},{"town":"長谷非持","koaza":"","lat":35.81392,"lng":138.104302,"zip":"3960401"},{"town":"長谷溝口","koaza":"","lat":35.789467,"lng":138.090035,"zip":"3960402"},{"town":"日影","koaza":"","lat":35.835894,"lng":137.979683,"zip":"3960009"},{"town":"東春近","koaza":"","lat":35.798004,"lng":137.960259,"zip":"3994432"},{"town":"平沢","koaza":"","lat":35.854055,"lng":137.906436,"zip":"3960030"},{"town":"福島","koaza":"","lat":35.870229,"lng":137.993132,"zip":"3960001"},{"town":"前原","koaza":"","lat":35.851228,"lng":137.991274,"zip":"3960112"},{"town":"ますみヶ丘","koaza":"","lat":35.843213,"lng":137.914324,"zip":"3960027"},{"town":"美篶","koaza":"","lat":35.842701,"lng":138.007846,"zip":"3960111"},{"town":"御園","koaza":"","lat":35.857504,"lng":137.960993,"zip":"3960022"},{"town":"美原","koaza":"","lat":35.849847,"lng":137.994763,"zip":"3960113"},{"town":"山寺","koaza":"","lat":35.8497,"lng":137.958398,"zip":"3960023"},{"town":"横山","koaza":"","lat":35.847639,"lng":137.895552,"zip":"3960029"},{"town":"若宮","koaza":"","lat":35.853303,"lng":137.986587,"zip":"3960007"},{"town":"西箕輪","koaza":"与地","lat":35.863366,"lng":137.897663,"zip":"3994501"},{"town":"西春近","koaza":"小出二区","lat":35.836852,"lng":137.912536,"zip":"3994431"},{"town":"西箕輪","koaza":"中条","lat":35.870556,"lng":137.907095,"zip":"3994501"},{"town":"西箕輪","koaza":"梨ノ木","lat":35.87609,"lng":137.918617,"zip":"3994501"},{"town":"西町","koaza":"大坊","lat":35.837166,"lng":137.91826,"zip":"3960026"},{"town":"西箕輪","koaza":"羽広","lat":35.886969,"lng":137.923626,"zip":"3994501"},{"town":"西箕輪","koaza":"上戸","lat":35.869761,"lng":137.918909,"zip":"3994501"},{"town":"伊那","koaza":"小沢中","lat":35.848231,"lng":137.924161,"zip":"3960021"},{"town":"西箕輪","koaza":"吹上","lat":35.900185,"lng":137.931501,"zip":"3994501"},{"town":"西箕輪","koaza":"大萱","lat":35.877197,"lng":137.930913,"zip":"3994501"},{"town":"東春近","koaza":"木裏原","lat":35.804808,"lng":137.932892,"zip":"3994432"},{"town":"西町","koaza":"伊那部","lat":35.842621,"lng":137.931638,"zip":"3960026"},{"town":"伊那","koaza":"小沢下","lat":35.850573,"lng":137.93176,"zip":"3960021"},{"town":"西箕輪","koaza":"大泉新田","lat":35.894425,"lng":137.946038,"zip":"3994501"},{"town":"西春近","koaza":"沢渡","lat":35.80256,"lng":137.942996,"zip":"3994431"},{"town":"西春近","koaza":"上島","lat":35.819696,"lng":137.944965,"zip":"3994431"},{"town":"西春近","koaza":"下小出前","lat":35.79693,"lng":137.945813,"zip":"3994431"},{"town":"東春近","koaza":"渡場","lat":35.808451,"lng":137.949972,"zip":"3994432"},{"town":"東春近","koaza":"田原","lat":35.785205,"lng":137.963504,"zip":"3994432"},{"town":"東春近","koaza":"下殿島","lat":35.793139,"lng":137.959265,"zip":"3994432"},{"town":"東春近","koaza":"車屋","lat":35.823215,"lng":137.968462,"zip":"3994432"},{"town":"富県","koaza":"南福地","lat":35.791613,"lng":137.99047,"zip":"3960621"},{"town":"福島","koaza":"上手","lat":35.878084,"lng":137.99311,"zip":"3960001"},{"town":"富県","koaza":"桜井","lat":35.82681,"lng":138.005734,"zip":"3960621"},{"town":"美篶","koaza":"上川手","lat":35.835494,"lng":137.99866,"zip":"3960111"},{"town":"富県","koaza":"貝沼","lat":35.818558,"lng":138.002633,"zip":"3960621"},{"town":"富県","koaza":"北福地","lat":35.812393,"lng":138.00033,"zip":"3960621"},{"town":"美篶","koaza":"美篶団地","lat":35.849067,"lng":137.997639,"zip":"3960111"},{"town":"野底","koaza":"第二","lat":35.861231,"lng":137.998685,"zip":"3960005"},{"town":"福島","koaza":"立正","lat":35.870758,"lng":137.999012,"zip":"3960001"},{"town":"手良沢岡","koaza":"八ツ手","lat":35.876309,"lng":138.004982,"zip":"3960002"},{"town":"美篶","koaza":"末広","lat":35.848973,"lng":138.010565,"zip":"3960111"},{"town":"手良沢岡","koaza":"下手良","lat":35.866862,"lng":138.010682,"zip":"3960002"},{"town":"美篶","koaza":"下県","lat":35.837667,"lng":138.006321,"zip":"3960111"},{"town":"美篶","koaza":"中県","lat":35.837427,"lng":138.008684,"zip":"3960111"},{"town":"富県","koaza":"北新","lat":35.808701,"lng":138.030769,"zip":"3960621"},{"town":"美篶","koaza":"上原","lat":35.838215,"lng":138.015131,"zip":"3960111"},{"town":"富県","koaza":"上新山","lat":35.790682,"lng":138.034291,"zip":"3960621"},{"town":"美篶","koaza":"上大島","lat":35.839431,"lng":138.019593,"zip":"3960111"},{"town":"美篶","koaza":"横町","lat":35.841244,"lng":138.023374,"zip":"3960111"},{"town":"美篶","koaza":"南割","lat":35.841073,"lng":138.027061,"zip":"3960111"},{"town":"美篶","koaza":"芦沢","lat":35.845423,"lng":138.04724,"zip":"3960111"},{"town":"福島","koaza":"志茂","lat":35.862031,"lng":137.999043,"zip":"3960001"}]