[{"town":"跡部","koaza":"","lat":36.233296,"lng":138.462734,"zip":"3850054"},{"town":"新子田","koaza":"","lat":36.26053,"lng":138.495061,"zip":"3850007"},{"town":"今井","koaza":"","lat":36.248539,"lng":138.44867,"zip":"3850015"},{"town":"入澤","koaza":"","lat":36.17756,"lng":138.517206,"zip":"3840621"},{"town":"岩村田","koaza":"","lat":36.274376,"lng":138.479384,"zip":"3850022"},{"town":"岩村田北一丁目","koaza":"","lat":36.286099,"lng":138.481847,"zip":"3850023"},{"town":"印内","koaza":"","lat":36.288251,"lng":138.361169,"zip":"3842201"},{"town":"臼田","koaza":"","lat":36.202191,"lng":138.471859,"zip":"3840301"},{"town":"内山","koaza":"","lat":36.218522,"lng":138.57953,"zip":"3850031"},{"town":"大沢","koaza":"","lat":36.162006,"lng":138.37012,"zip":"3850045"},{"town":"太田部","koaza":"","lat":36.219349,"lng":138.489382,"zip":"3850033"},{"town":"小田井","koaza":"","lat":36.303538,"lng":138.483359,"zip":"3850009"},{"town":"鍛冶屋","koaza":"","lat":36.215842,"lng":138.477277,"zip":"3850041"},{"town":"春日","koaza":"","lat":36.179178,"lng":138.344005,"zip":"3842205"},{"town":"勝間","koaza":"","lat":36.187582,"lng":138.481906,"zip":"3840302"},{"town":"上小田切","koaza":"","lat":36.151393,"lng":138.391519,"zip":"3840306"},{"town":"上平尾","koaza":"","lat":36.286542,"lng":138.512315,"zip":"3850002"},{"town":"北川","koaza":"","lat":36.179787,"lng":138.477152,"zip":"3840304"},{"town":"協和","koaza":"","lat":36.190067,"lng":138.305919,"zip":"3842204"},{"town":"清川","koaza":"","lat":36.208548,"lng":138.515013,"zip":"3840411"},{"town":"桑山","koaza":"","lat":36.287372,"lng":138.403889,"zip":"3842101"},{"town":"甲","koaza":"","lat":36.260328,"lng":138.405259,"zip":"3842104"},{"town":"香坂","koaza":"","lat":36.266677,"lng":138.56791,"zip":"3850005"},{"town":"小宮山","koaza":"","lat":36.215031,"lng":138.429317,"zip":"3850047"},{"town":"佐久平駅北","koaza":"","lat":36.278979,"lng":138.463417,"zip":"3850027"},{"town":"佐久平駅東","koaza":"","lat":36.27803,"lng":138.466617,"zip":"3850028"},{"town":"佐久平駅南","koaza":"","lat":36.275551,"lng":138.46472,"zip":"3850029"},{"town":"桜井","koaza":"","lat":36.239644,"lng":138.44953,"zip":"3850056"},{"town":"猿久保","koaza":"","lat":36.258514,"lng":138.474712,"zip":"3850011"},{"town":"塩名田","koaza":"","lat":36.270135,"lng":138.423316,"zip":"3842102"},{"town":"志賀","koaza":"","lat":36.243194,"lng":138.566663,"zip":"3850006"},{"town":"下小田切","koaza":"","lat":36.187169,"lng":138.475456,"zip":"3840303"},{"town":"下越","koaza":"","lat":36.193416,"lng":138.48704,"zip":"3840414"},{"town":"下平尾","koaza":"","lat":36.276242,"lng":138.53666,"zip":"3850003"},{"town":"瀬戸","koaza":"","lat":36.245253,"lng":138.489097,"zip":"3850035"},{"town":"高柳","koaza":"","lat":36.211208,"lng":138.480285,"zip":"3850042"},{"town":"田口","koaza":"","lat":36.190245,"lng":138.56607,"zip":"3840412"},{"town":"塚原","koaza":"","lat":36.27055,"lng":138.441266,"zip":"3850025"},{"town":"常田","koaza":"","lat":36.280093,"lng":138.432931,"zip":"3850026"},{"town":"常和","koaza":"","lat":36.211736,"lng":138.528698,"zip":"3850032"},{"town":"伴野","koaza":"","lat":36.241838,"lng":138.436298,"zip":"3850061"},{"town":"取出町","koaza":"","lat":36.215903,"lng":138.469651,"zip":"3850043"},{"town":"中小田切","koaza":"","lat":36.175322,"lng":138.46642,"zip":"3840305"},{"town":"中込","koaza":"","lat":36.242432,"lng":138.466709,"zip":"3850051"},{"town":"中込一丁目","koaza":"","lat":36.230856,"lng":138.477516,"zip":"3850051"},{"town":"中込二丁目","koaza":"","lat":36.229055,"lng":138.474745,"zip":"3850051"},{"town":"中込三丁目","koaza":"","lat":36.226816,"lng":138.478265,"zip":"3850051"},{"town":"長土呂","koaza":"","lat":36.284982,"lng":138.46691,"zip":"3850021"},{"town":"鳴瀬","koaza":"","lat":36.255844,"lng":138.432152,"zip":"3850016"},{"town":"根岸","koaza":"","lat":36.237421,"lng":138.413825,"zip":"3850062"},{"town":"根々井","koaza":"","lat":36.260923,"lng":138.455989,"zip":"3850012"},{"town":"野沢","koaza":"","lat":36.223334,"lng":138.462724,"zip":"3850053"},{"town":"原","koaza":"","lat":36.224437,"lng":138.474036,"zip":"3850052"},{"town":"東立科","koaza":"","lat":36.208534,"lng":138.410935,"zip":"3850063"},{"town":"平賀","koaza":"","lat":36.2279,"lng":138.493569,"zip":"3850034"},{"town":"平塚","koaza":"","lat":36.269123,"lng":138.454279,"zip":"3850024"},{"town":"平林","koaza":"","lat":36.160307,"lng":138.491,"zip":"3840622"},{"town":"布施","koaza":"","lat":36.235023,"lng":138.382838,"zip":"3842203"},{"town":"本新町","koaza":"","lat":36.213744,"lng":138.463815,"zip":"3850044"},{"town":"前山","koaza":"","lat":36.207651,"lng":138.432469,"zip":"3850046"},{"town":"三河田","koaza":"","lat":36.252037,"lng":138.454577,"zip":"3850014"},{"town":"三塚","koaza":"","lat":36.230235,"lng":138.451064,"zip":"3850055"},{"town":"三分","koaza":"","lat":36.190879,"lng":138.497543,"zip":"3840413"},{"town":"御馬寄","koaza":"","lat":36.268081,"lng":138.411855,"zip":"3842103"},{"town":"茂田井","koaza":"","lat":36.278346,"lng":138.34084,"zip":"3842206"},{"town":"望月","koaza":"","lat":36.269967,"lng":138.357026,"zip":"3842202"},{"town":"矢嶋","koaza":"","lat":36.252748,"lng":138.387744,"zip":"3842105"},{"town":"安原","koaza":"","lat":36.268017,"lng":138.508561,"zip":"3850004"},{"town":"八幡","koaza":"","lat":36.268853,"lng":138.394099,"zip":"3842106"},{"town":"湯原","koaza":"","lat":36.184998,"lng":138.445159,"zip":"3840307"},{"town":"横根","koaza":"","lat":36.290783,"lng":138.498659,"zip":"3850001"},{"town":"横和","koaza":"","lat":36.256596,"lng":138.452299,"zip":"3850013"},{"town":"蓬田","koaza":"","lat":36.281582,"lng":138.385563,"zip":"3842107"},{"town":"大沢","koaza":"原","lat":36.210038,"lng":138.465055,"zip":"3850045"},{"town":"臼田","koaza":"旭ヶ丘","lat":36.196258,"lng":138.472621,"zip":"3840301"},{"town":"臼田","koaza":"美里","lat":36.206751,"lng":138.472104,"zip":"3840301"},{"town":"岩村田","koaza":"下樋田","lat":36.265736,"lng":138.466176,"zip":"3850022"},{"town":"中込","koaza":"久保","lat":36.242589,"lng":138.46688,"zip":"3850051"},{"town":"湯原","koaza":"滝","lat":36.190511,"lng":138.4724,"zip":"3840307"},{"town":"臼田","koaza":"諏訪","lat":36.200789,"lng":138.471068,"zip":"3840301"},{"town":"取出町","koaza":"橋詰","lat":36.213417,"lng":138.471074,"zip":"3850043"},{"town":"臼田","koaza":"下荒","lat":36.202265,"lng":138.472644,"zip":"3840301"},{"town":"臼田","koaza":"伊勢","lat":36.198564,"lng":138.475355,"zip":"3840301"},{"town":"臼田","koaza":"中央","lat":36.197106,"lng":138.477096,"zip":"3840301"},{"town":"猿久保","koaza":"前原","lat":36.259705,"lng":138.476274,"zip":"3850011"},{"town":"中込","koaza":"大塚","lat":36.247156,"lng":138.476426,"zip":"3850051"},{"town":"中込","koaza":"西妻神","lat":36.255015,"lng":138.476642,"zip":"3850051"},{"town":"中込","koaza":"東大堰手前","lat":36.252853,"lng":138.477496,"zip":"3850051"},{"town":"中込","koaza":"宮久保","lat":36.239504,"lng":138.477123,"zip":"3850051"},{"town":"臼田","koaza":"上荒","lat":36.200952,"lng":138.477867,"zip":"3840301"},{"town":"臼田","koaza":"住吉","lat":36.204374,"lng":138.479849,"zip":"3840301"},{"town":"臼田","koaza":"城下","lat":36.19436,"lng":138.478974,"zip":"3840301"},{"town":"臼田","koaza":"中町","lat":36.200898,"lng":138.479465,"zip":"3840301"},{"town":"臼田","koaza":"城山","lat":36.193779,"lng":138.480526,"zip":"3840301"},{"town":"臼田","koaza":"稲荷","lat":36.196984,"lng":138.480613,"zip":"3840301"},{"town":"臼田","koaza":"宮本","lat":36.195501,"lng":138.480329,"zip":"3840301"},{"town":"中込","koaza":"立石","lat":36.24748,"lng":138.478312,"zip":"3850051"},{"town":"臼田","koaza":"中荒","lat":36.203028,"lng":138.476188,"zip":"3840301"}]