[{"town":"栃原","koaza":"","lat":36.062461,"lng":138.510228,"zip":"3841201"},{"town":"川又","koaza":"","lat":36.059936,"lng":138.510228,"zip":"3841201"},{"town":"通岩","koaza":"","lat":36.062461,"lng":138.519773,"zip":"3841201"},{"town":"京ノ岩","koaza":"","lat":36.062291,"lng":138.528784,"zip":"3841201"},{"town":"宮平","koaza":"","lat":36.058613,"lng":138.538901,"zip":"3841201"},{"town":"久保","koaza":"","lat":36.060385,"lng":138.547711,"zip":"3841201"},{"town":"坂上","koaza":"","lat":36.061693,"lng":138.555125,"zip":"3841201"},{"town":"中尾","koaza":"","lat":36.06026,"lng":138.558831,"zip":"3841201"},{"town":"山口","koaza":"","lat":36.059562,"lng":138.563272,"zip":"3841201"},{"town":"箱瀬","koaza":"","lat":36.058416,"lng":138.575962,"zip":"3841201"},{"town":"下新井","koaza":"","lat":36.064317,"lng":138.585194,"zip":"3841201"},{"town":"大桑","koaza":"","lat":36.0662,"lng":138.592379,"zip":"3841201"},{"town":"白岩","koaza":"","lat":36.074988,"lng":138.6019,"zip":"3841201"},{"town":"三寸木","koaza":"","lat":36.074808,"lng":138.606821,"zip":"3841201"},{"town":"木次原","koaza":"","lat":36.068366,"lng":138.625614,"zip":"3841201"}]