[{"town":"明科中川手","koaza":"","lat":36.345441,"lng":137.934429,"zip":"3997102"},{"town":"明科七貴","koaza":"","lat":36.359566,"lng":137.909361,"zip":"3997104"},{"town":"明科東川手","koaza":"","lat":36.379821,"lng":137.95795,"zip":"3997101"},{"town":"明科光","koaza":"","lat":36.333037,"lng":137.945853,"zip":"3997103"},{"town":"明科南陸郷","koaza":"","lat":36.395346,"lng":137.920019,"zip":"3997105"},{"town":"豊科","koaza":"","lat":36.288673,"lng":137.909015,"zip":"3998205"},{"town":"豊科高家","koaza":"","lat":36.273491,"lng":137.927558,"zip":"3998204"},{"town":"豊科田沢","koaza":"","lat":36.307274,"lng":137.949875,"zip":"3998203"},{"town":"豊科光","koaza":"","lat":36.318806,"lng":137.932707,"zip":"3998202"},{"town":"豊科南穂高","koaza":"","lat":36.318326,"lng":137.908989,"zip":"3998201"},{"town":"穂高","koaza":"","lat":36.332363,"lng":137.879008,"zip":"3998303"},{"town":"穂高有明","koaza":"","lat":36.354657,"lng":137.847523,"zip":"3998301"},{"town":"穂高柏原","koaza":"","lat":36.319583,"lng":137.868857,"zip":"3998304"},{"town":"穂高北穂高","koaza":"","lat":36.36157,"lng":137.881685,"zip":"3998302"},{"town":"穂高牧","koaza":"","lat":36.326551,"lng":137.844855,"zip":"3998305"},{"town":"堀金烏川","koaza":"","lat":36.300428,"lng":137.85672,"zip":"3998211"},{"town":"堀金三田","koaza":"","lat":36.284999,"lng":137.853879,"zip":"3998212"},{"town":"三郷小倉","koaza":"","lat":36.261888,"lng":137.834574,"zip":"3998103"},{"town":"三郷明盛","koaza":"","lat":36.266935,"lng":137.896762,"zip":"3998101"},{"town":"三郷温","koaza":"","lat":36.263024,"lng":137.879337,"zip":"3998102"}]