[{"town":"相生町一丁目","koaza":"","lat":36.326878,"lng":138.422123,"zip":"3840025"},{"town":"相生町二丁目","koaza":"","lat":36.327302,"lng":138.424177,"zip":"3840025"},{"town":"相生町三丁目","koaza":"","lat":36.327444,"lng":138.425575,"zip":"3840025"},{"town":"赤坂一丁目","koaza":"","lat":36.325625,"lng":138.425654,"zip":"3840011"},{"town":"赤坂二丁目","koaza":"","lat":36.323577,"lng":138.423776,"zip":"3840011"},{"town":"荒町一丁目","koaza":"","lat":36.328143,"lng":138.427307,"zip":"3840014"},{"town":"荒町二丁目","koaza":"","lat":36.325819,"lng":138.428628,"zip":"3840014"},{"town":"市町一丁目","koaza":"","lat":36.330162,"lng":138.419967,"zip":"3840033"},{"town":"市町二丁目","koaza":"","lat":36.330264,"lng":138.417592,"zip":"3840033"},{"town":"市町三丁目","koaza":"","lat":36.332681,"lng":138.418845,"zip":"3840033"},{"town":"市町四丁目","koaza":"","lat":36.33487,"lng":138.416421,"zip":"3840033"},{"town":"市町五丁目","koaza":"","lat":36.335188,"lng":138.418498,"zip":"3840033"},{"town":"大字市","koaza":"","lat":36.290425,"lng":138.445845,"zip":"3840000"},{"town":"大字大久保","koaza":"","lat":36.319554,"lng":138.38342,"zip":"3840000"},{"town":"大字柏木","koaza":"","lat":36.328815,"lng":138.452676,"zip":"3840000"},{"town":"大字加増","koaza":"","lat":36.330652,"lng":138.448117,"zip":"3840000"},{"town":"大字塩野","koaza":"","lat":36.341934,"lng":138.479951,"zip":"3840000"},{"town":"大字滋野甲","koaza":"","lat":36.352987,"lng":138.392634,"zip":"3840000"},{"town":"大字滝原","koaza":"","lat":36.362027,"lng":138.416274,"zip":"3840000"},{"town":"大字西原","koaza":"","lat":36.344239,"lng":138.403916,"zip":"3840000"},{"town":"大字八満","koaza":"","lat":36.331075,"lng":138.466513,"zip":"3840000"},{"town":"大字菱平","koaza":"","lat":36.358827,"lng":138.438818,"zip":"3840000"},{"town":"大字平原","koaza":"","lat":36.315489,"lng":138.471695,"zip":"3840000"},{"town":"大字御影新田","koaza":"","lat":36.301331,"lng":138.467519,"zip":"3840000"},{"town":"大字耳取","koaza":"","lat":36.289452,"lng":138.427861,"zip":"3840000"},{"town":"大字森山","koaza":"","lat":36.301036,"lng":138.440265,"zip":"3840000"},{"town":"大字諸","koaza":"","lat":36.342363,"lng":138.415888,"zip":"3840000"},{"town":"大字山浦","koaza":"","lat":36.308909,"lng":138.406077,"zip":"3840000"},{"town":"大字和田","koaza":"","lat":36.290628,"lng":138.458116,"zip":"3840000"},{"town":"大手一丁目","koaza":"","lat":36.328496,"lng":138.421219,"zip":"3840031"},{"town":"大手二丁目","koaza":"","lat":36.328494,"lng":138.423722,"zip":"3840031"},{"town":"乙","koaza":"","lat":36.340124,"lng":138.438408,"zip":"3840802"},{"town":"乙女","koaza":"","lat":36.313435,"lng":138.438677,"zip":"3840004"},{"town":"加増一丁目","koaza":"","lat":36.320855,"lng":138.432697,"zip":"3840061"},{"town":"加増二丁目","koaza":"","lat":36.320917,"lng":138.435652,"zip":"3840061"},{"town":"加増三丁目","koaza":"","lat":36.315873,"lng":138.441343,"zip":"3840061"},{"town":"己","koaza":"","lat":36.370036,"lng":138.465393,"zip":"3840805"},{"town":"甲","koaza":"","lat":36.31151,"lng":138.431163,"zip":"3840801"},{"town":"古城一丁目","koaza":"","lat":36.329084,"lng":138.41745,"zip":"3840032"},{"town":"古城二丁目","koaza":"","lat":36.32561,"lng":138.420391,"zip":"3840032"},{"town":"古城三丁目","koaza":"","lat":36.324579,"lng":138.422157,"zip":"3840032"},{"town":"紺屋町一丁目","koaza":"","lat":36.327746,"lng":138.429059,"zip":"3840015"},{"town":"紺屋町二丁目","koaza":"","lat":36.328456,"lng":138.43155,"zip":"3840015"},{"town":"紺屋町三丁目","koaza":"","lat":36.329923,"lng":138.433543,"zip":"3840015"},{"town":"東雲一丁目","koaza":"","lat":36.329863,"lng":138.436466,"zip":"3840023"},{"town":"東雲二丁目","koaza":"","lat":36.330851,"lng":138.439979,"zip":"3840023"},{"town":"東雲三丁目","koaza":"","lat":36.329725,"lng":138.441302,"zip":"3840023"},{"town":"東雲四丁目","koaza":"","lat":36.331606,"lng":138.445069,"zip":"3840023"},{"town":"東雲五丁目","koaza":"","lat":36.332595,"lng":138.44025,"zip":"3840023"},{"town":"東雲六丁目","koaza":"","lat":36.332045,"lng":138.43616,"zip":"3840023"},{"town":"東雲七丁目","koaza":"","lat":36.334228,"lng":138.437382,"zip":"3840023"},{"town":"新町一丁目","koaza":"","lat":36.33166,"lng":138.415729,"zip":"3840034"},{"town":"新町二丁目","koaza":"","lat":36.333345,"lng":138.413119,"zip":"3840034"},{"town":"田町一丁目","koaza":"","lat":36.331125,"lng":138.423304,"zip":"3840028"},{"town":"田町二丁目","koaza":"","lat":36.332913,"lng":138.422535,"zip":"3840028"},{"town":"田町三丁目","koaza":"","lat":36.334514,"lng":138.421144,"zip":"3840028"},{"town":"鶴巻一丁目","koaza":"","lat":36.323534,"lng":138.428493,"zip":"3840007"},{"town":"鶴巻二丁目","koaza":"","lat":36.324172,"lng":138.428942,"zip":"3840007"},{"town":"丁","koaza":"","lat":36.326564,"lng":138.41693,"zip":"3840000"},{"town":"八幡町一丁目","koaza":"","lat":36.326521,"lng":138.430934,"zip":"3840016"},{"town":"八幡町二丁目","koaza":"","lat":36.327061,"lng":138.433253,"zip":"3840016"},{"town":"八幡町三丁目","koaza":"","lat":36.327959,"lng":138.435752,"zip":"3840016"},{"town":"丙","koaza":"","lat":36.332708,"lng":138.406232,"zip":"3840803"},{"town":"本町一丁目","koaza":"","lat":36.329737,"lng":138.421615,"zip":"3840026"},{"town":"本町二丁目","koaza":"","lat":36.32972,"lng":138.423216,"zip":"3840026"},{"town":"本町三丁目","koaza":"","lat":36.329275,"lng":138.42523,"zip":"3840026"},{"town":"松井一丁目","koaza":"","lat":36.334505,"lng":138.44224,"zip":"3840022"},{"town":"松井二丁目","koaza":"","lat":36.336276,"lng":138.440789,"zip":"3840022"},{"town":"三和一丁目","koaza":"","lat":36.330067,"lng":138.42984,"zip":"3840017"},{"town":"三和二丁目","koaza":"","lat":36.331689,"lng":138.432335,"zip":"3840017"},{"town":"三和三丁目","koaza":"","lat":36.331255,"lng":138.434259,"zip":"3840017"},{"town":"南町一丁目","koaza":"","lat":36.323997,"lng":138.425945,"zip":"3840012"},{"town":"南町二丁目","koaza":"","lat":36.322397,"lng":138.427491,"zip":"3840012"},{"town":"南町三丁目","koaza":"","lat":36.321458,"lng":138.426535,"zip":"3840012"},{"town":"御幸町一丁目","koaza":"","lat":36.316335,"lng":138.434617,"zip":"3840005"},{"town":"御幸町二丁目","koaza":"","lat":36.31698,"lng":138.43738,"zip":"3840005"},{"town":"諸一丁目","koaza":"","lat":36.336007,"lng":138.419572,"zip":"3840043"},{"town":"与良町一丁目","koaza":"","lat":36.323885,"lng":138.430159,"zip":"3840006"},{"town":"与良町二丁目","koaza":"","lat":36.325108,"lng":138.432982,"zip":"3840006"},{"town":"与良町三丁目","koaza":"","lat":36.321401,"lng":138.429717,"zip":"3840006"},{"town":"与良町四丁目","koaza":"","lat":36.321884,"lng":138.431703,"zip":"3840006"},{"town":"与良町五丁目","koaza":"","lat":36.323584,"lng":138.433723,"zip":"3840006"},{"town":"与良町六丁目","koaza":"","lat":36.326019,"lng":138.437653,"zip":"3840006"},{"town":"両神","koaza":"","lat":36.33203,"lng":138.410738,"zip":"3840035"},{"town":"六供一丁目","koaza":"","lat":36.331726,"lng":138.425638,"zip":"3840027"},{"town":"六供二丁目","koaza":"","lat":36.331574,"lng":138.427973,"zip":"3840027"},{"town":"丙","koaza":"青木","lat":36.337219,"lng":138.406603,"zip":"3840803"},{"town":"丙","koaza":"水押","lat":36.337449,"lng":138.412305,"zip":"3840803"},{"town":"大字諸","koaza":"宮司","lat":36.337615,"lng":138.415613,"zip":"3840000"},{"town":"大字山浦","koaza":"宮沢","lat":36.294886,"lng":138.419042,"zip":"3840000"},{"town":"甲","koaza":"小原","lat":36.311885,"lng":138.428182,"zip":"3840801"},{"town":"大字加増","koaza":"下原","lat":36.318019,"lng":138.44264,"zip":"3840000"},{"town":"大字加増","koaza":"東豆口","lat":36.317012,"lng":138.444483,"zip":"3840000"},{"town":"大字平原","koaza":"四ツ谷原","lat":36.311342,"lng":138.452586,"zip":"3840000"},{"town":"大字柏木","koaza":"大道上","lat":36.314055,"lng":138.449902,"zip":"3840000"},{"town":"大字平原","koaza":"柏木原","lat":36.31357,"lng":138.453998,"zip":"3840000"},{"town":"大字御影新田","koaza":"池の上","lat":36.299984,"lng":138.46653,"zip":"3840000"}]