[{"town":"赤羽一丁目","koaza":"","lat":36.07702,"lng":138.050334,"zip":"3940002"},{"town":"赤羽二丁目","koaza":"","lat":36.080456,"lng":138.049719,"zip":"3940002"},{"town":"赤羽三丁目","koaza":"","lat":36.078154,"lng":138.053526,"zip":"3940002"},{"town":"御倉町","koaza":"","lat":36.05571,"lng":138.040568,"zip":"3940043"},{"town":"長地","koaza":"","lat":36.102431,"lng":138.067943,"zip":"3940011"},{"town":"長地出早一丁目","koaza":"","lat":36.086866,"lng":138.052446,"zip":"3940089"},{"town":"長地出早二丁目","koaza":"","lat":36.092181,"lng":138.05213,"zip":"3940089"},{"town":"長地出早三丁目","koaza":"","lat":36.08755,"lng":138.056062,"zip":"3940089"},{"town":"長地片間町一丁目","koaza":"","lat":36.075519,"lng":138.05867,"zip":"3940084"},{"town":"長地片間町二丁目","koaza":"","lat":36.078776,"lng":138.057998,"zip":"3940084"},{"town":"長地御所一丁目","koaza":"","lat":36.070934,"lng":138.067417,"zip":"3940082"},{"town":"長地御所二丁目","koaza":"","lat":36.072781,"lng":138.071871,"zip":"3940082"},{"town":"長地小萩一丁目","koaza":"","lat":36.082425,"lng":138.055483,"zip":"3940085"},{"town":"長地小萩二丁目","koaza":"","lat":36.084054,"lng":138.059202,"zip":"3940085"},{"town":"長地小萩三丁目","koaza":"","lat":36.08034,"lng":138.062171,"zip":"3940085"},{"town":"長地権現町一丁目","koaza":"","lat":36.066972,"lng":138.068481,"zip":"3940081"},{"town":"長地権現町二丁目","koaza":"","lat":36.069069,"lng":138.072061,"zip":"3940081"},{"town":"長地権現町三丁目","koaza":"","lat":36.062791,"lng":138.072644,"zip":"3940081"},{"town":"長地権現町四丁目","koaza":"","lat":36.062282,"lng":138.069064,"zip":"3940081"},{"town":"長地鎮一丁目","koaza":"","lat":36.081674,"lng":138.068367,"zip":"3940087"},{"town":"長地鎮二丁目","koaza":"","lat":36.084277,"lng":138.06848,"zip":"3940087"},{"town":"長地柴宮一丁目","koaza":"","lat":36.073284,"lng":138.064721,"zip":"3940083"},{"town":"長地柴宮二丁目","koaza":"","lat":36.076471,"lng":138.062495,"zip":"3940083"},{"town":"長地柴宮三丁目","koaza":"","lat":36.075922,"lng":138.069231,"zip":"3940083"},{"town":"長地梨久保一丁目","koaza":"","lat":36.08291,"lng":138.062608,"zip":"3940088"},{"town":"長地梨久保二丁目","koaza":"","lat":36.086356,"lng":138.062973,"zip":"3940088"},{"town":"長地源一丁目","koaza":"","lat":36.07923,"lng":138.067254,"zip":"3940086"},{"town":"長地源二丁目","koaza":"","lat":36.078553,"lng":138.071012,"zip":"3940086"},{"town":"加茂町一丁目","koaza":"","lat":36.071111,"lng":138.052682,"zip":"3940003"},{"town":"加茂町二丁目","koaza":"","lat":36.073408,"lng":138.051389,"zip":"3940003"},{"town":"加茂町三丁目","koaza":"","lat":36.073303,"lng":138.054156,"zip":"3940003"},{"town":"加茂町四丁目","koaza":"","lat":36.074487,"lng":138.056615,"zip":"3940003"},{"town":"川岸","koaza":"","lat":36.035384,"lng":138.008814,"zip":"3940048"},{"town":"川岸上一丁目","koaza":"","lat":36.051413,"lng":138.031791,"zip":"3940048"},{"town":"川岸上二丁目","koaza":"","lat":36.056487,"lng":138.029749,"zip":"3940048"},{"town":"川岸上三丁目","koaza":"","lat":36.048239,"lng":138.02637,"zip":"3940048"},{"town":"川岸上四丁目","koaza":"","lat":36.051946,"lng":138.021816,"zip":"3940048"},{"town":"川岸中一丁目","koaza":"","lat":36.046066,"lng":138.022888,"zip":"3940047"},{"town":"川岸中二丁目","koaza":"","lat":36.041684,"lng":138.02512,"zip":"3940047"},{"town":"川岸中三丁目","koaza":"","lat":36.039652,"lng":138.021662,"zip":"3940047"},{"town":"川岸西一丁目","koaza":"","lat":36.034977,"lng":138.01993,"zip":"3940046"},{"town":"川岸西二丁目","koaza":"","lat":36.029899,"lng":138.016264,"zip":"3940046"},{"town":"川岸東一丁目","koaza":"","lat":36.050261,"lng":138.034977,"zip":"3940045"},{"town":"川岸東二丁目","koaza":"","lat":36.044915,"lng":138.029119,"zip":"3940045"},{"town":"川岸東三丁目","koaza":"","lat":36.037042,"lng":138.025258,"zip":"3940045"},{"town":"川岸東四丁目","koaza":"","lat":36.027357,"lng":138.01811,"zip":"3940045"},{"town":"川岸東五丁目","koaza":"","lat":36.018136,"lng":138.012947,"zip":"3940045"},{"town":"銀座一丁目","koaza":"","lat":36.067165,"lng":138.052102,"zip":"3940022"},{"town":"銀座二丁目","koaza":"","lat":36.068397,"lng":138.0542,"zip":"3940022"},{"town":"郷田一丁目","koaza":"","lat":36.069604,"lng":138.049124,"zip":"3940021"},{"town":"郷田二丁目","koaza":"","lat":36.072689,"lng":138.048079,"zip":"3940021"},{"town":"湖畔一丁目","koaza":"","lat":36.055449,"lng":138.054524,"zip":"3940034"},{"town":"湖畔二丁目","koaza":"","lat":36.056438,"lng":138.056849,"zip":"3940034"},{"town":"湖畔三丁目","koaza":"","lat":36.057097,"lng":138.061388,"zip":"3940034"},{"town":"湖畔四丁目","koaza":"","lat":36.059213,"lng":138.063263,"zip":"3940034"},{"town":"幸町","koaza":"","lat":36.065894,"lng":138.050077,"zip":"3940029"},{"town":"神明町一丁目","koaza":"","lat":36.075396,"lng":138.041449,"zip":"3940004"},{"town":"神明町二丁目","koaza":"","lat":36.075438,"lng":138.04663,"zip":"3940004"},{"town":"神明町三丁目","koaza":"","lat":36.080892,"lng":138.045276,"zip":"3940004"},{"town":"神明町四丁目","koaza":"","lat":36.080437,"lng":138.041039,"zip":"3940004"},{"town":"大栄町一丁目","koaza":"","lat":36.064694,"lng":138.056504,"zip":"3940025"},{"town":"大栄町二丁目","koaza":"","lat":36.0657,"lng":138.059104,"zip":"3940025"},{"town":"田中町一丁目","koaza":"","lat":36.059694,"lng":138.052907,"zip":"3940031"},{"town":"田中町二丁目","koaza":"","lat":36.060747,"lng":138.055582,"zip":"3940031"},{"town":"田中町三丁目","koaza":"","lat":36.060816,"lng":138.058425,"zip":"3940031"},{"town":"中央町一丁目","koaza":"","lat":36.059439,"lng":138.04656,"zip":"3940027"},{"town":"中央町二丁目","koaza":"","lat":36.060151,"lng":138.049875,"zip":"3940027"},{"town":"中央町三丁目","koaza":"","lat":36.062779,"lng":138.049899,"zip":"3940027"},{"town":"塚間町一丁目","koaza":"","lat":36.062251,"lng":138.052427,"zip":"3940026"},{"town":"塚間町二丁目","koaza":"","lat":36.063898,"lng":138.053844,"zip":"3940026"},{"town":"天竜町一丁目","koaza":"","lat":36.0555,"lng":138.044499,"zip":"3940035"},{"town":"天竜町二丁目","koaza":"","lat":36.056438,"lng":138.047807,"zip":"3940035"},{"town":"天竜町三丁目","koaza":"","lat":36.056737,"lng":138.050791,"zip":"3940035"},{"town":"成田町一丁目","koaza":"","lat":36.058435,"lng":138.039017,"zip":"3940042"},{"town":"成田町二丁目","koaza":"","lat":36.057304,"lng":138.03604,"zip":"3940042"},{"town":"南宮一丁目","koaza":"","lat":36.065579,"lng":138.064074,"zip":"3940033"},{"town":"南宮二丁目","koaza":"","lat":36.062416,"lng":138.064904,"zip":"3940033"},{"town":"南宮三丁目","koaza":"","lat":36.058955,"lng":138.066444,"zip":"3940033"},{"town":"東銀座一丁目","koaza":"","lat":36.069332,"lng":138.05715,"zip":"3940023"},{"town":"東銀座二丁目","koaza":"","lat":36.070533,"lng":138.059065,"zip":"3940023"},{"town":"堀ノ内一丁目","koaza":"","lat":36.067886,"lng":138.062946,"zip":"3940024"},{"town":"堀ノ内二丁目","koaza":"","lat":36.070414,"lng":138.062769,"zip":"3940024"},{"town":"本町一丁目","koaza":"","lat":36.058288,"lng":138.042353,"zip":"3940028"},{"town":"本町二丁目","koaza":"","lat":36.060248,"lng":138.043489,"zip":"3940028"},{"town":"本町三丁目","koaza":"","lat":36.06288,"lng":138.045057,"zip":"3940028"},{"town":"本町四丁目","koaza":"","lat":36.064261,"lng":138.047919,"zip":"3940028"},{"town":"湊","koaza":"","lat":36.030912,"lng":138.054723,"zip":"3940044"},{"town":"湊一丁目","koaza":"","lat":36.05193,"lng":138.051043,"zip":"3940044"},{"town":"湊二丁目","koaza":"","lat":36.046416,"lng":138.056136,"zip":"3940044"},{"town":"湊三丁目","koaza":"","lat":36.041085,"lng":138.062612,"zip":"3940044"},{"town":"湊四丁目","koaza":"","lat":36.035331,"lng":138.067594,"zip":"3940044"},{"town":"湊五丁目","koaza":"","lat":36.03097,"lng":138.073737,"zip":"3940044"},{"town":"山下町一丁目","koaza":"","lat":36.06648,"lng":138.044819,"zip":"3940005"},{"town":"山下町二丁目","koaza":"","lat":36.071264,"lng":138.043253,"zip":"3940005"},{"town":"山手町一丁目","koaza":"","lat":36.06276,"lng":138.040529,"zip":"3940041"},{"town":"山手町二丁目","koaza":"","lat":36.068374,"lng":138.041015,"zip":"3940041"},{"town":"山手町三丁目","koaza":"","lat":36.067417,"lng":138.036438,"zip":"3940041"},{"town":"若宮一丁目","koaza":"","lat":36.063569,"lng":138.060485,"zip":"3940032"},{"town":"若宮二丁目","koaza":"","lat":36.060961,"lng":138.061681,"zip":"3940032"},{"town":"（大字なし）","koaza":"","lat":36.079917,"lng":138.032991,"zip":"3940000"}]