[{"town":"開田高原末川","koaza":"","lat":35.969403,"lng":137.656763,"zip":"3970301"},{"town":"開田高原西野","koaza":"","lat":35.965399,"lng":137.576669,"zip":"3970302"},{"town":"新開","koaza":"","lat":35.878385,"lng":137.695706,"zip":"3970002"},{"town":"日義","koaza":"","lat":35.866169,"lng":137.76794,"zip":"3996101"},{"town":"福島","koaza":"","lat":35.824895,"lng":137.716955,"zip":"3970001"},{"town":"三岳","koaza":"","lat":35.855172,"lng":137.606316,"zip":"3970101"},{"town":"福島","koaza":"川西","lat":35.83307,"lng":137.680744,"zip":"3970001"},{"town":"福島","koaza":"塩淵","lat":35.838255,"lng":137.688585,"zip":"3970001"},{"town":"福島","koaza":"中畑","lat":35.846141,"lng":137.691306,"zip":"3970001"},{"town":"福島","koaza":"梅之内","lat":35.844131,"lng":137.69378,"zip":"3970001"},{"town":"福島","koaza":"八沢","lat":35.847716,"lng":137.694509,"zip":"3970001"},{"town":"福島","koaza":"上ノ段","lat":35.849168,"lng":137.696774,"zip":"3970001"},{"town":"福島","koaza":"本町","lat":35.850538,"lng":137.697814,"zip":"3970001"},{"town":"福島","koaza":"上町","lat":35.850476,"lng":137.699183,"zip":"3970001"},{"town":"新開","koaza":"福","lat":35.855017,"lng":137.710769,"zip":"3970002"}]