[{"town":"御岳高原","koaza":"","lat":35.848492,"lng":137.546506,"zip":"3970201"},{"town":"田の原","koaza":"","lat":35.874166,"lng":137.499977,"zip":"3970201"},{"town":"滝越","koaza":"","lat":35.812885,"lng":137.451094,"zip":"3970201"},{"town":"此島","koaza":"","lat":35.836308,"lng":137.608587,"zip":"3970201"},{"town":"二子持","koaza":"","lat":35.827595,"lng":137.610183,"zip":"3970201"},{"town":"崩越","koaza":"","lat":35.808041,"lng":137.589631,"zip":"3970201"},{"town":"鞍馬","koaza":"","lat":35.810369,"lng":137.58298,"zip":"3970201"},{"town":"大又","koaza":"","lat":35.825268,"lng":137.553051,"zip":"3970201"},{"town":"田島","koaza":"","lat":35.804184,"lng":137.559037,"zip":"3970201"},{"town":"瀬戸","koaza":"","lat":35.79801,"lng":137.528338,"zip":"3970201"},{"town":"池の越","koaza":"","lat":35.794351,"lng":137.527139,"zip":"3970201"},{"town":"松原","koaza":"","lat":35.79681,"lng":137.541653,"zip":"3970201"},{"town":"九蔵","koaza":"","lat":35.816122,"lng":137.528458,"zip":"3970201"},{"town":"中越","koaza":"","lat":35.805027,"lng":137.553108,"zip":"3970201"},{"town":"下条","koaza":"","lat":35.808205,"lng":137.552448,"zip":"3970201"},{"town":"上条","koaza":"","lat":35.810304,"lng":137.546571,"zip":"3970201"},{"town":"東","koaza":"","lat":35.811264,"lng":137.555447,"zip":"3970201"},{"town":"小川","koaza":"","lat":35.808205,"lng":137.542133,"zip":"3970201"},{"town":"野口","koaza":"","lat":35.803407,"lng":137.541473,"zip":"3970201"}]