[{"town":"旭町","koaza":"","lat":35.788827,"lng":137.692696,"zip":"3995609"},{"town":"駅前通り一丁目","koaza":"","lat":35.785717,"lng":137.694092,"zip":"3995603"},{"town":"駅前通り二丁目","koaza":"","lat":35.783222,"lng":137.693892,"zip":"3995603"},{"town":"駅前通り三丁目","koaza":"","lat":35.781686,"lng":137.693398,"zip":"3995603"},{"town":"大字上松","koaza":"","lat":35.804126,"lng":137.692023,"zip":"3995600"},{"town":"大字小川","koaza":"","lat":35.764279,"lng":137.642748,"zip":"3995600"},{"town":"大字荻原","koaza":"","lat":35.753252,"lng":137.729827,"zip":"3995600"},{"town":"栄町一丁目","koaza":"","lat":35.779557,"lng":137.692071,"zip":"3995605"},{"town":"栄町二丁目","koaza":"","lat":35.777842,"lng":137.692109,"zip":"3995605"},{"town":"栄町三丁目","koaza":"","lat":35.776733,"lng":137.693127,"zip":"3995605"},{"town":"正島町一丁目","koaza":"","lat":35.784771,"lng":137.691701,"zip":"3995604"},{"town":"正島町二丁目","koaza":"","lat":35.78096,"lng":137.691446,"zip":"3995604"},{"town":"本町通り一丁目","koaza":"","lat":35.786766,"lng":137.695282,"zip":"3995602"},{"town":"本町通り二丁目","koaza":"","lat":35.785288,"lng":137.696617,"zip":"3995602"},{"town":"本町通り三丁目","koaza":"","lat":35.78391,"lng":137.695999,"zip":"3995602"},{"town":"本町通り四丁目","koaza":"","lat":35.782128,"lng":137.694466,"zip":"3995602"},{"town":"緑町一丁目","koaza":"","lat":35.781892,"lng":137.695553,"zip":"3995606"},{"town":"緑町二丁目","koaza":"","lat":35.780201,"lng":137.694047,"zip":"3995606"},{"town":"緑町三丁目","koaza":"","lat":35.778349,"lng":137.694812,"zip":"3995606"}]