[{"town":"県","koaza":"","lat":36.361361,"lng":138.330531,"zip":"3890517"},{"town":"新屋","koaza":"","lat":36.368069,"lng":138.339329,"zip":"3890503"},{"town":"大日向","koaza":"","lat":36.332111,"lng":138.346946,"zip":"3890404"},{"town":"海善寺","koaza":"","lat":36.370698,"lng":138.323508,"zip":"3890504"},{"town":"加沢","koaza":"","lat":36.349044,"lng":138.349101,"zip":"3890514"},{"town":"和","koaza":"","lat":36.398933,"lng":138.347938,"zip":"3890505"},{"town":"鞍掛","koaza":"","lat":36.360862,"lng":138.356138,"zip":"3890502"},{"town":"塩川","koaza":"","lat":36.361601,"lng":138.307415,"zip":"3890519"},{"town":"滋野","koaza":"","lat":36.376454,"lng":138.396884,"zip":"3890513"},{"town":"島川原","koaza":"","lat":36.335344,"lng":138.35541,"zip":"3890401"},{"town":"下之城","koaza":"","lat":36.311275,"lng":138.344143,"zip":"3890405"},{"town":"田中","koaza":"","lat":36.355973,"lng":138.328797,"zip":"3890516"},{"town":"常田","koaza":"","lat":36.358404,"lng":138.342322,"zip":"3890515"},{"town":"布下","koaza":"","lat":36.336188,"lng":138.371441,"zip":"3890402"},{"town":"祢津","koaza":"","lat":36.395091,"lng":138.372465,"zip":"3890506"},{"town":"羽毛山","koaza":"","lat":36.344988,"lng":138.332715,"zip":"3890407"},{"town":"新張","koaza":"","lat":36.398096,"lng":138.398279,"zip":"3890501"},{"town":"御牧原","koaza":"","lat":36.310674,"lng":138.362084,"zip":"3890403"},{"town":"本海野","koaza":"","lat":36.363473,"lng":138.314494,"zip":"3890518"},{"town":"八重原","koaza":"","lat":36.326471,"lng":138.326033,"zip":"3890406"},{"town":"和","koaza":"王田","lat":36.368869,"lng":138.305201,"zip":"3890505"},{"town":"本海野","koaza":"長縄手","lat":36.361769,"lng":138.32285,"zip":"3890518"},{"town":"祢津","koaza":"砂田","lat":36.367252,"lng":138.346432,"zip":"3890506"},{"town":"滋野","koaza":"乙","lat":36.3487,"lng":138.367761,"zip":"3890513"},{"town":"滋野","koaza":"甲","lat":36.369815,"lng":138.394773,"zip":"3890513"}]