[{"town":"会田","koaza":"","lat":36.359378,"lng":137.992436,"zip":"3997402"},{"town":"県一丁目","koaza":"","lat":36.233394,"lng":137.982176,"zip":"3900812"},{"town":"県二丁目","koaza":"","lat":36.234548,"lng":137.98607,"zip":"3900812"},{"town":"県三丁目","koaza":"","lat":36.229596,"lng":137.98439,"zip":"3900812"},{"town":"赤怒田","koaza":"","lat":36.310068,"lng":138.012859,"zip":"3997415"},{"town":"旭一丁目","koaza":"","lat":36.243696,"lng":137.976178,"zip":"3900802"},{"town":"旭二丁目","koaza":"","lat":36.246623,"lng":137.977915,"zip":"3900802"},{"town":"旭三丁目","koaza":"","lat":36.251984,"lng":137.979526,"zip":"3900802"},{"town":"浅間温泉一丁目","koaza":"","lat":36.258779,"lng":137.987379,"zip":"3900303"},{"town":"浅間温泉二丁目","koaza":"","lat":36.264129,"lng":137.986275,"zip":"3900303"},{"town":"浅間温泉三丁目","koaza":"","lat":36.264523,"lng":137.991757,"zip":"3900303"},{"town":"梓川梓","koaza":"","lat":36.228275,"lng":137.834351,"zip":"3901702"},{"town":"梓川上野","koaza":"","lat":36.207055,"lng":137.82105,"zip":"3901703"},{"town":"梓川倭","koaza":"","lat":36.232167,"lng":137.892428,"zip":"3901701"},{"town":"安曇","koaza":"","lat":36.221169,"lng":137.686649,"zip":"3901504"},{"town":"穴沢","koaza":"","lat":36.3298,"lng":138.011881,"zip":"3997403"},{"town":"蟻ケ崎一丁目","koaza":"","lat":36.242223,"lng":137.963496,"zip":"3900861"},{"town":"蟻ケ崎二丁目","koaza":"","lat":36.242386,"lng":137.96613,"zip":"3900861"},{"town":"蟻ケ崎三丁目","koaza":"","lat":36.246512,"lng":137.966378,"zip":"3900861"},{"town":"蟻ケ崎四丁目","koaza":"","lat":36.246992,"lng":137.962587,"zip":"3900861"},{"town":"蟻ケ崎五丁目","koaza":"","lat":36.251412,"lng":137.963094,"zip":"3900861"},{"town":"蟻ケ崎六丁目","koaza":"","lat":36.250561,"lng":137.966209,"zip":"3900861"},{"town":"蟻ケ崎台","koaza":"","lat":36.250499,"lng":137.95967,"zip":"3900867"},{"town":"井川城一丁目","koaza":"","lat":36.223606,"lng":137.964725,"zip":"3900831"},{"town":"井川城二丁目","koaza":"","lat":36.220514,"lng":137.9677,"zip":"3900831"},{"town":"井川城三丁目","koaza":"","lat":36.217675,"lng":137.969022,"zip":"3900831"},{"town":"石芝一丁目","koaza":"","lat":36.210152,"lng":137.951186,"zip":"3900845"},{"town":"石芝二丁目","koaza":"","lat":36.207252,"lng":137.949365,"zip":"3900845"},{"town":"石芝三丁目","koaza":"","lat":36.203798,"lng":137.949682,"zip":"3900845"},{"town":"石芝四丁目","koaza":"","lat":36.203993,"lng":137.946366,"zip":"3900845"},{"town":"板場","koaza":"","lat":36.339234,"lng":137.982157,"zip":"3997405"},{"town":"市場","koaza":"","lat":36.198938,"lng":137.963063,"zip":"3990004"},{"town":"出川一丁目","koaza":"","lat":36.218226,"lng":137.977295,"zip":"3900827"},{"town":"埋橋一丁目","koaza":"","lat":36.228527,"lng":137.977632,"zip":"3900813"},{"town":"埋橋二丁目","koaza":"","lat":36.228975,"lng":137.980519,"zip":"3900813"},{"town":"大字浅間温泉","koaza":"","lat":36.264467,"lng":138.001688,"zip":"3990000"},{"town":"大字蟻ケ崎","koaza":"","lat":36.254524,"lng":137.959896,"zip":"3990000"},{"town":"大字今井","koaza":"","lat":36.15841,"lng":137.905011,"zip":"3990000"},{"town":"大字入山辺","koaza":"","lat":36.205089,"lng":138.076978,"zip":"3990000"},{"town":"大字内田","koaza":"","lat":36.160455,"lng":138.012983,"zip":"3990000"},{"town":"大字大村","koaza":"","lat":36.252586,"lng":137.990256,"zip":"3990000"},{"town":"大字岡田伊深","koaza":"","lat":36.29083,"lng":137.97418,"zip":"3990000"},{"town":"大字岡田下岡田","koaza":"","lat":36.269088,"lng":137.965466,"zip":"3990000"},{"town":"大字岡田町","koaza":"","lat":36.270505,"lng":137.978161,"zip":"3990000"},{"town":"大字岡田松岡","koaza":"","lat":36.260839,"lng":137.973289,"zip":"3990000"},{"town":"大字神林","koaza":"","lat":36.190806,"lng":137.924668,"zip":"3990000"},{"town":"大字空港東","koaza":"","lat":36.166873,"lng":137.928519,"zip":"3990000"},{"town":"大字寿小赤","koaza":"","lat":36.163038,"lng":137.972001,"zip":"3990000"},{"town":"大字寿白瀬渕","koaza":"","lat":36.182994,"lng":137.989837,"zip":"3990000"},{"town":"大字寿豊丘","koaza":"","lat":36.184231,"lng":137.979598,"zip":"3990000"},{"town":"大字笹賀","koaza":"","lat":36.177273,"lng":137.936327,"zip":"3990000"},{"town":"大字里山辺","koaza":"","lat":36.23554,"lng":138.004939,"zip":"3990000"},{"town":"大字稲倉","koaza":"","lat":36.293081,"lng":137.997742,"zip":"3990000"},{"town":"大字島内","koaza":"","lat":36.260954,"lng":137.94099,"zip":"3990000"},{"town":"大字島立","koaza":"","lat":36.223511,"lng":137.936509,"zip":"3990000"},{"town":"大字惣社","koaza":"","lat":36.243236,"lng":137.990288,"zip":"3990000"},{"town":"大字中山","koaza":"","lat":36.19018,"lng":138.014787,"zip":"3990000"},{"town":"大字新村","koaza":"","lat":36.223083,"lng":137.910208,"zip":"3990000"},{"town":"大字原","koaza":"","lat":36.269824,"lng":137.98541,"zip":"3990000"},{"town":"大字洞","koaza":"","lat":36.279914,"lng":137.994101,"zip":"3990000"},{"town":"大字松原","koaza":"","lat":36.176869,"lng":137.990436,"zip":"3990000"},{"town":"大字三才山","koaza":"","lat":36.270421,"lng":138.037174,"zip":"3990000"},{"town":"大字水汲","koaza":"","lat":36.260998,"lng":137.981702,"zip":"3990000"},{"town":"大字南浅間","koaza":"","lat":36.253254,"lng":137.983778,"zip":"3990000"},{"town":"大字宮渕","koaza":"","lat":36.23972,"lng":137.951769,"zip":"3990000"},{"town":"大字和田","koaza":"","lat":36.199033,"lng":137.909168,"zip":"3990000"},{"town":"大手一丁目","koaza":"","lat":36.235373,"lng":137.963551,"zip":"3900874"},{"town":"大手二丁目","koaza":"","lat":36.2357,"lng":137.966542,"zip":"3900874"},{"town":"大手三丁目","koaza":"","lat":36.235974,"lng":137.969506,"zip":"3900874"},{"town":"大手四丁目","koaza":"","lat":36.235668,"lng":137.973029,"zip":"3900874"},{"town":"大手五丁目","koaza":"","lat":36.236094,"lng":137.976588,"zip":"3900874"},{"town":"開智一丁目","koaza":"","lat":36.240777,"lng":137.966958,"zip":"3900876"},{"town":"開智二丁目","koaza":"","lat":36.24216,"lng":137.969319,"zip":"3900876"},{"town":"開智三丁目","koaza":"","lat":36.24561,"lng":137.971375,"zip":"3900876"},{"town":"金山町","koaza":"","lat":36.302183,"lng":138.024123,"zip":"3997413"},{"town":"鎌田一丁目","koaza":"","lat":36.222599,"lng":137.961819,"zip":"3900837"},{"town":"鎌田二丁目","koaza":"","lat":36.222976,"lng":137.958208,"zip":"3900837"},{"town":"刈谷原町","koaza":"","lat":36.312068,"lng":137.984767,"zip":"3997417"},{"town":"神田一丁目","koaza":"","lat":36.220283,"lng":137.991023,"zip":"3900822"},{"town":"神田二丁目","koaza":"","lat":36.214402,"lng":137.985802,"zip":"3900822"},{"town":"神田三丁目","koaza":"","lat":36.218132,"lng":137.985281,"zip":"3900822"},{"town":"北深志一丁目","koaza":"","lat":36.242155,"lng":137.972935,"zip":"3900872"},{"town":"北深志二丁目","koaza":"","lat":36.245059,"lng":137.973333,"zip":"3900872"},{"town":"北深志三丁目","koaza":"","lat":36.247141,"lng":137.973624,"zip":"3900872"},{"town":"桐一丁目","koaza":"","lat":36.249924,"lng":137.974778,"zip":"3900871"},{"town":"桐二丁目","koaza":"","lat":36.253522,"lng":137.974345,"zip":"3900871"},{"town":"桐三丁目","koaza":"","lat":36.25601,"lng":137.973208,"zip":"3900871"},{"town":"五常","koaza":"","lat":36.347031,"lng":137.965083,"zip":"3997401"},{"town":"寿北一丁目","koaza":"","lat":36.203895,"lng":137.972833,"zip":"3990011"},{"town":"寿北二丁目","koaza":"","lat":36.203987,"lng":137.977471,"zip":"3990011"},{"town":"寿北三丁目","koaza":"","lat":36.200316,"lng":137.972578,"zip":"3990011"},{"town":"寿北四丁目","koaza":"","lat":36.198713,"lng":137.978356,"zip":"3990011"},{"town":"寿北五丁目","koaza":"","lat":36.200058,"lng":137.98543,"zip":"3990011"},{"town":"寿北六丁目","koaza":"","lat":36.19556,"lng":137.973352,"zip":"3990011"},{"town":"寿北七丁目","koaza":"","lat":36.193601,"lng":137.97076,"zip":"3990011"},{"town":"寿北八丁目","koaza":"","lat":36.192632,"lng":137.98023,"zip":"3990011"},{"town":"寿北九丁目","koaza":"","lat":36.194078,"lng":137.98672,"zip":"3990011"},{"town":"寿台一丁目","koaza":"","lat":36.174222,"lng":137.978553,"zip":"3990025"},{"town":"寿台二丁目","koaza":"","lat":36.174362,"lng":137.980478,"zip":"3990025"},{"town":"寿台三丁目","koaza":"","lat":36.176179,"lng":137.980139,"zip":"3990025"},{"town":"寿台四丁目","koaza":"","lat":36.17787,"lng":137.980555,"zip":"3990025"},{"town":"寿台五丁目","koaza":"","lat":36.177879,"lng":137.982605,"zip":"3990025"},{"town":"寿台六丁目","koaza":"","lat":36.177051,"lng":137.984346,"zip":"3990025"},{"town":"寿台七丁目","koaza":"","lat":36.174121,"lng":137.985587,"zip":"3990025"},{"town":"寿台八丁目","koaza":"","lat":36.174893,"lng":137.983682,"zip":"3990025"},{"town":"寿台九丁目","koaza":"","lat":36.174223,"lng":137.982668,"zip":"3990025"},{"town":"寿中一丁目","koaza":"","lat":36.185725,"lng":137.96992,"zip":"3990026"},{"town":"寿中二丁目","koaza":"","lat":36.180224,"lng":137.970363,"zip":"3990026"},{"town":"寿南一丁目","koaza":"","lat":36.17556,"lng":137.969418,"zip":"3990027"},{"town":"小屋北一丁目","koaza":"","lat":36.186329,"lng":137.95938,"zip":"3990039"},{"town":"小屋北二丁目","koaza":"","lat":36.186482,"lng":137.955609,"zip":"3990039"},{"town":"小屋南一丁目","koaza":"","lat":36.179341,"lng":137.954506,"zip":"3990038"},{"town":"小屋南二丁目","koaza":"","lat":36.179115,"lng":137.949341,"zip":"3990038"},{"town":"笹部一丁目","koaza":"","lat":36.218165,"lng":137.951148,"zip":"3900847"},{"town":"笹部二丁目","koaza":"","lat":36.214133,"lng":137.95107,"zip":"3900847"},{"town":"笹部三丁目","koaza":"","lat":36.218354,"lng":137.947809,"zip":"3900847"},{"town":"笹部四丁目","koaza":"","lat":36.214084,"lng":137.946249,"zip":"3900847"},{"town":"沢村一丁目","koaza":"","lat":36.246233,"lng":137.969439,"zip":"3900877"},{"town":"沢村二丁目","koaza":"","lat":36.251013,"lng":137.970285,"zip":"3900877"},{"town":"沢村三丁目","koaza":"","lat":36.254486,"lng":137.967949,"zip":"3900877"},{"town":"清水一丁目","koaza":"","lat":36.236614,"lng":137.979989,"zip":"3900805"},{"town":"清水二丁目","koaza":"","lat":36.237249,"lng":137.984855,"zip":"3900805"},{"town":"城西一丁目","koaza":"","lat":36.238627,"lng":137.962701,"zip":"3900875"},{"town":"城西二丁目","koaza":"","lat":36.238661,"lng":137.966351,"zip":"3900875"},{"town":"城東一丁目","koaza":"","lat":36.237661,"lng":137.974251,"zip":"3900807"},{"town":"城東二丁目","koaza":"","lat":36.24061,"lng":137.975262,"zip":"3900807"},{"town":"庄内一丁目","koaza":"","lat":36.223805,"lng":137.970055,"zip":"3900828"},{"town":"庄内二丁目","koaza":"","lat":36.223781,"lng":137.974077,"zip":"3900828"},{"town":"庄内三丁目","koaza":"","lat":36.219639,"lng":137.973054,"zip":"3900828"},{"town":"城山","koaza":"","lat":36.249496,"lng":137.957794,"zip":"3900866"},{"town":"白板一丁目","koaza":"","lat":36.235154,"lng":137.960371,"zip":"3900863"},{"town":"白板二丁目","koaza":"","lat":36.238695,"lng":137.957612,"zip":"3900863"},{"town":"新橋","koaza":"","lat":36.247255,"lng":137.951834,"zip":"3900865"},{"town":"征矢野一丁目","koaza":"","lat":36.222395,"lng":137.955115,"zip":"3900842"},{"town":"征矢野二丁目","koaza":"","lat":36.215824,"lng":137.955418,"zip":"3900842"},{"town":"反町","koaza":"","lat":36.327062,"lng":137.986224,"zip":"3997418"},{"town":"高宮北","koaza":"","lat":36.217798,"lng":137.959007,"zip":"3900836"},{"town":"高宮中","koaza":"","lat":36.213238,"lng":137.95788,"zip":"3900834"},{"town":"高宮西","koaza":"","lat":36.209016,"lng":137.954212,"zip":"3900844"},{"town":"高宮東","koaza":"","lat":36.216946,"lng":137.96159,"zip":"3900835"},{"town":"高宮南","koaza":"","lat":36.209871,"lng":137.958067,"zip":"3900843"},{"town":"中央一丁目","koaza":"","lat":36.232746,"lng":137.965416,"zip":"3900811"},{"town":"中央二丁目","koaza":"","lat":36.23273,"lng":137.96941,"zip":"3900811"},{"town":"中央三丁目","koaza":"","lat":36.232897,"lng":137.97335,"zip":"3900811"},{"town":"中央四丁目","koaza":"","lat":36.233316,"lng":137.977414,"zip":"3900811"},{"town":"筑摩一丁目","koaza":"","lat":36.223225,"lng":137.977991,"zip":"3900821"},{"town":"筑摩二丁目","koaza":"","lat":36.224532,"lng":137.982555,"zip":"3900821"},{"town":"筑摩三丁目","koaza":"","lat":36.219267,"lng":137.982542,"zip":"3900821"},{"town":"筑摩四丁目","koaza":"","lat":36.224861,"lng":137.989487,"zip":"3900821"},{"town":"殿野入","koaza":"","lat":36.316356,"lng":138.022919,"zip":"3997414"},{"town":"取出","koaza":"","lat":36.339292,"lng":137.997057,"zip":"3997404"},{"town":"中川","koaza":"","lat":36.352464,"lng":138.034973,"zip":"3997411"},{"town":"中条","koaza":"","lat":36.225901,"lng":137.965493,"zip":"3900816"},{"town":"中山台","koaza":"","lat":36.181582,"lng":137.995609,"zip":"3900824"},{"town":"奈川","koaza":"","lat":36.071664,"lng":137.6749,"zip":"3901611"},{"town":"渚一丁目","koaza":"","lat":36.234551,"lng":137.956576,"zip":"3900841"},{"town":"渚二丁目","koaza":"","lat":36.229067,"lng":137.959118,"zip":"3900841"},{"town":"渚三丁目","koaza":"","lat":36.228721,"lng":137.95503,"zip":"3900841"},{"town":"渚四丁目","koaza":"","lat":36.227081,"lng":137.953286,"zip":"3900841"},{"town":"七嵐","koaza":"","lat":36.308748,"lng":138.002765,"zip":"3997416"},{"town":"並柳二丁目","koaza":"","lat":36.212895,"lng":137.981179,"zip":"3900825"},{"town":"並柳四丁目","koaza":"","lat":36.207332,"lng":137.982794,"zip":"3900825"},{"town":"野溝西一丁目","koaza":"","lat":36.203183,"lng":137.952484,"zip":"3990006"},{"town":"野溝西二丁目","koaza":"","lat":36.199568,"lng":137.952672,"zip":"3990006"},{"town":"野溝西三丁目","koaza":"","lat":36.194574,"lng":137.952131,"zip":"3990006"},{"town":"野溝東一丁目","koaza":"","lat":36.198821,"lng":137.958312,"zip":"3990034"},{"town":"野溝東二丁目","koaza":"","lat":36.193211,"lng":137.95541,"zip":"3990034"},{"town":"野溝木工一丁目","koaza":"","lat":36.203203,"lng":137.960664,"zip":"3990005"},{"town":"野溝木工二丁目","koaza":"","lat":36.202904,"lng":137.955298,"zip":"3990005"},{"town":"波田","koaza":"","lat":36.155021,"lng":137.796638,"zip":"3901401"},{"town":"巾上","koaza":"","lat":36.230654,"lng":137.962252,"zip":"3900817"},{"town":"平田西一丁目","koaza":"","lat":36.195589,"lng":137.960307,"zip":"3990015"},{"town":"平田西二丁目","koaza":"","lat":36.191986,"lng":137.959813,"zip":"3990015"},{"town":"平田東二丁目","koaza":"","lat":36.195132,"lng":137.965175,"zip":"3990014"},{"town":"平田東三丁目","koaza":"","lat":36.193852,"lng":137.967479,"zip":"3990014"},{"town":"深志一丁目","koaza":"","lat":36.229674,"lng":137.965969,"zip":"3900815"},{"town":"深志二丁目","koaza":"","lat":36.229743,"lng":137.969595,"zip":"3900815"},{"town":"深志三丁目","koaza":"","lat":36.229765,"lng":137.973743,"zip":"3900815"},{"town":"保福寺町","koaza":"","lat":36.308911,"lng":138.055863,"zip":"3997412"},{"town":"本庄一丁目","koaza":"","lat":36.227106,"lng":137.969289,"zip":"3900814"},{"town":"本庄二丁目","koaza":"","lat":36.22682,"lng":137.973834,"zip":"3900814"},{"town":"丸の内","koaza":"","lat":36.238358,"lng":137.969993,"zip":"3900873"},{"town":"美須々","koaza":"","lat":36.255881,"lng":137.977675,"zip":"3900801"},{"town":"南原一丁目","koaza":"","lat":36.210284,"lng":137.94779,"zip":"3900846"},{"town":"南原二丁目","koaza":"","lat":36.209471,"lng":137.944505,"zip":"3900846"},{"town":"南松本二丁目","koaza":"","lat":36.212933,"lng":137.965558,"zip":"3900832"},{"town":"宮田","koaza":"","lat":36.20681,"lng":137.958956,"zip":"3990001"},{"town":"宮渕一丁目","koaza":"","lat":36.240117,"lng":137.960061,"zip":"3900862"},{"town":"宮渕二丁目","koaza":"","lat":36.24288,"lng":137.959883,"zip":"3900862"},{"town":"宮渕三丁目","koaza":"","lat":36.242298,"lng":137.956085,"zip":"3900862"},{"town":"宮渕本村","koaza":"","lat":36.240858,"lng":137.953863,"zip":"3900864"},{"town":"村井町北一丁目","koaza":"","lat":36.186101,"lng":137.962189,"zip":"3990035"},{"town":"村井町北二丁目","koaza":"","lat":36.185359,"lng":137.965558,"zip":"3990035"},{"town":"村井町西一丁目","koaza":"","lat":36.17318,"lng":137.953196,"zip":"3990037"},{"town":"村井町西二丁目","koaza":"","lat":36.173359,"lng":137.948814,"zip":"3990037"},{"town":"村井町南一丁目","koaza":"","lat":36.177373,"lng":137.959493,"zip":"3990036"},{"town":"村井町南二丁目","koaza":"","lat":36.178362,"lng":137.96493,"zip":"3990036"},{"town":"村井町南三丁目","koaza":"","lat":36.173146,"lng":137.958116,"zip":"3990036"},{"town":"村井町南四丁目","koaza":"","lat":36.172739,"lng":137.963437,"zip":"3990036"},{"town":"女鳥羽一丁目","koaza":"","lat":36.238958,"lng":137.977471,"zip":"3900806"},{"town":"女鳥羽二丁目","koaza":"","lat":36.240978,"lng":137.977952,"zip":"3900806"},{"town":"女鳥羽三丁目","koaza":"","lat":36.243887,"lng":137.979139,"zip":"3900806"},{"town":"元町一丁目","koaza":"","lat":36.24039,"lng":137.981172,"zip":"3900803"},{"town":"元町二丁目","koaza":"","lat":36.244707,"lng":137.981897,"zip":"3900803"},{"town":"元町三丁目","koaza":"","lat":36.248457,"lng":137.982552,"zip":"3900803"},{"town":"横田一丁目","koaza":"","lat":36.240362,"lng":137.984803,"zip":"3900804"},{"town":"横田二丁目","koaza":"","lat":36.24294,"lng":137.985369,"zip":"3900804"},{"town":"横田三丁目","koaza":"","lat":36.245233,"lng":137.985455,"zip":"3900804"},{"town":"横田四丁目","koaza":"","lat":36.247517,"lng":137.986303,"zip":"3900804"},{"town":"両島","koaza":"","lat":36.223289,"lng":137.951012,"zip":"3900848"},{"town":"並柳三丁目","koaza":"","lat":36.207183,"lng":137.977392,"zip":"3900825"},{"town":"並柳一丁目","koaza":"","lat":36.21135,"lng":137.976747,"zip":"3900825"},{"town":"出川三丁目","koaza":"","lat":36.214915,"lng":137.97759,"zip":"3900827"},{"town":"出川二丁目","koaza":"","lat":36.21642,"lng":137.973415,"zip":"3900827"},{"town":"芳野","koaza":"","lat":36.204135,"lng":137.965659,"zip":"3990002"},{"town":"南松本一丁目","koaza":"","lat":36.213729,"lng":137.969541,"zip":"3900832"},{"town":"双葉","koaza":"","lat":36.210261,"lng":137.964443,"zip":"3900833"},{"town":"平田東一丁目","koaza":"","lat":36.202124,"lng":137.968318,"zip":"3990014"},{"town":"出川町","koaza":"","lat":36.209879,"lng":137.971051,"zip":"3900826"},{"town":"波田","koaza":"前淵","lat":36.186095,"lng":137.809132,"zip":"3901401"},{"town":"波田","koaza":"上海渡","lat":36.192593,"lng":137.829437,"zip":"3901401"},{"town":"波田","koaza":"上波田","lat":36.192295,"lng":137.842483,"zip":"3901401"},{"town":"波田","koaza":"渕東","lat":36.196755,"lng":137.841001,"zip":"3901401"},{"town":"波田","koaza":"中下原","lat":36.173788,"lng":137.847965,"zip":"3901401"},{"town":"波田","koaza":"鼠街道","lat":36.195859,"lng":137.851754,"zip":"3901401"},{"town":"波田","koaza":"新田","lat":36.185692,"lng":137.853061,"zip":"3901401"},{"town":"波田","koaza":"中波田","lat":36.188954,"lng":137.85082,"zip":"3901401"},{"town":"波田","koaza":"鍋割","lat":36.201522,"lng":137.853176,"zip":"3901401"},{"town":"波田","koaza":"下波田","lat":36.198068,"lng":137.861234,"zip":"3901401"},{"town":"波田","koaza":"原村","lat":36.188097,"lng":137.856892,"zip":"3901401"},{"town":"波田","koaza":"南原","lat":36.184845,"lng":137.860243,"zip":"3901401"},{"town":"波田","koaza":"上島","lat":36.207535,"lng":137.860061,"zip":"3901401"},{"town":"波田","koaza":"押出","lat":36.204827,"lng":137.860545,"zip":"3901401"},{"town":"波田","koaza":"下島","lat":36.208409,"lng":137.867653,"zip":"3901401"},{"town":"大字和田","koaza":"南西原","lat":36.189851,"lng":137.892348,"zip":"3990000"},{"town":"大字今井","koaza":"松本道","lat":36.176644,"lng":137.923806,"zip":"3990000"},{"town":"大字島立","koaza":"小柴","lat":36.231771,"lng":137.933475,"zip":"3990000"},{"town":"大字島立","koaza":"堀米","lat":36.231853,"lng":137.944486,"zip":"3990000"},{"town":"大字島立","koaza":"荒井","lat":36.232371,"lng":137.948194,"zip":"3990000"},{"town":"大字里山辺","koaza":"若里町","lat":36.236731,"lng":137.993301,"zip":"3990000"},{"town":"大字内田","koaza":"向井","lat":36.16503,"lng":137.998341,"zip":"3990000"},{"town":"大字内田","koaza":"荒井","lat":36.15482,"lng":137.997628,"zip":"3990000"},{"town":"大字里山辺","koaza":"湯ノ原","lat":36.248176,"lng":137.997894,"zip":"3990000"},{"town":"大字内田","koaza":"牛伏寺","lat":36.16835,"lng":138.006569,"zip":"3990000"},{"town":"大字内田","koaza":"牧の内","lat":36.159646,"lng":138.004313,"zip":"3990000"},{"town":"大字里山辺","koaza":"薄町","lat":36.235475,"lng":138.003913,"zip":"3990000"},{"town":"大字内田","koaza":"崖の湯","lat":36.153159,"lng":138.018791,"zip":"3990000"},{"town":"大字入山辺","koaza":"大和合","lat":36.202475,"lng":138.060252,"zip":"3990000"},{"town":"大字入山辺","koaza":"牛立","lat":36.201169,"lng":138.063843,"zip":"3990000"},{"town":"大字入山辺","koaza":"三城","lat":36.193279,"lng":138.097017,"zip":"3990000"}]