[{"town":"泉野","koaza":"","lat":35.995707,"lng":138.22845,"zip":"3910214"},{"town":"金沢","koaza":"","lat":35.945667,"lng":138.179452,"zip":"3910012"},{"town":"北山","koaza":"","lat":36.068783,"lng":138.272294,"zip":"3910212"},{"town":"湖東","koaza":"","lat":36.025398,"lng":138.204335,"zip":"3910211"},{"town":"城山","koaza":"","lat":36.004491,"lng":138.170165,"zip":"3910004"},{"town":"玉川","koaza":"","lat":35.986365,"lng":138.26356,"zip":"3910011"},{"town":"ちの","koaza":"","lat":36.002408,"lng":138.145936,"zip":"3910001"},{"town":"塚原一丁目","koaza":"","lat":35.998461,"lng":138.152314,"zip":"3910002"},{"town":"塚原二丁目","koaza":"","lat":35.997233,"lng":138.157369,"zip":"3910002"},{"town":"豊平","koaza":"","lat":36.008593,"lng":138.295905,"zip":"3910213"},{"town":"豊平泉","koaza":"","lat":36.008212,"lng":138.221594,"zip":"3910000"},{"town":"中大塩","koaza":"","lat":36.025641,"lng":138.186177,"zip":"3910215"},{"town":"中沖","koaza":"","lat":36.002839,"lng":138.131367,"zip":"3910000"},{"town":"仲町","koaza":"","lat":35.992839,"lng":138.157501,"zip":"3910005"},{"town":"本町西","koaza":"","lat":35.998659,"lng":138.162196,"zip":"3910000"},{"town":"本町東","koaza":"","lat":35.999861,"lng":138.168906,"zip":"3910000"},{"town":"宮川","koaza":"","lat":35.978166,"lng":138.160466,"zip":"3910013"},{"town":"米沢","koaza":"","lat":36.047629,"lng":138.186053,"zip":"3910216"},{"town":"宮川","koaza":"下河原","lat":35.992392,"lng":138.144074,"zip":"3910013"},{"town":"ちの","koaza":"横内","lat":35.99575,"lng":138.144526,"zip":"3910001"},{"town":"北山","koaza":"車山","lat":36.096285,"lng":138.211861,"zip":"3910212"},{"town":"北山","koaza":"湯川","lat":36.03859,"lng":138.2239,"zip":"3910212"},{"town":"北山","koaza":"柏原","lat":36.056086,"lng":138.228944,"zip":"3910212"},{"town":"北山","koaza":"白樺湖","lat":36.104479,"lng":138.237619,"zip":"3910212"},{"town":"北山","koaza":"蓼科","lat":36.057909,"lng":138.276111,"zip":"3910212"},{"town":"北山","koaza":"栗平","lat":36.035974,"lng":138.239695,"zip":"3910212"},{"town":"北山","koaza":"糸萱","lat":36.029993,"lng":138.246151,"zip":"3910212"},{"town":"北山","koaza":"奥蓼科","lat":36.047809,"lng":138.340626,"zip":"3910212"}]