[{"town":"柏木","koaza":"","lat":35.968757,"lng":138.196342,"zip":"3910105"},{"town":"菖蒲沢","koaza":"","lat":35.959739,"lng":138.200583,"zip":"3910106"},{"town":"室内","koaza":"","lat":35.962176,"lng":138.206676,"zip":"3910107"},{"town":"やつがね","koaza":"","lat":35.955937,"lng":138.214426,"zip":"3910113"},{"town":"払沢","koaza":"","lat":35.96783,"lng":138.216815,"zip":"3910104"},{"town":"八ツ手","koaza":"","lat":35.974118,"lng":138.226953,"zip":"3910103"},{"town":"大久保","koaza":"","lat":35.978895,"lng":138.2174,"zip":"3910101"},{"town":"柳沢","koaza":"","lat":35.982259,"lng":138.225735,"zip":"3910102"},{"town":"上里","koaza":"","lat":35.971242,"lng":138.246061,"zip":"3910111"},{"town":"南原","koaza":"","lat":35.935415,"lng":138.235045,"zip":"3910109"},{"town":"判之木","koaza":"","lat":35.947991,"lng":138.213451,"zip":"3910100"},{"town":"中新田","koaza":"","lat":35.946626,"lng":138.23719,"zip":"3910108"},{"town":"原山","koaza":"","lat":35.966466,"lng":138.254738,"zip":"3910115"},{"town":"農場","koaza":"","lat":35.976214,"lng":138.272481,"zip":"3910112"},{"town":"ペンション","koaza":"","lat":35.970268,"lng":138.266047,"zip":"3910114"}]