[{"town":"青木島二丁目","koaza":"","lat":36.617509,"lng":138.18148,"zip":"3812247"},{"town":"青木島三丁目","koaza":"","lat":36.615616,"lng":138.177322,"zip":"3812247"},{"town":"青木島四丁目","koaza":"","lat":36.614629,"lng":138.178592,"zip":"3812247"},{"town":"青木島町青木島","koaza":"","lat":36.61983,"lng":138.185095,"zip":"3812242"},{"town":"青木島町大塚","koaza":"","lat":36.60922,"lng":138.190223,"zip":"3812205"},{"town":"青木島町綱島","koaza":"","lat":36.616078,"lng":138.193029,"zip":"3812206"},{"town":"浅川一丁目","koaza":"","lat":36.684715,"lng":138.207257,"zip":"3810054"},{"town":"浅川二丁目","koaza":"","lat":36.68258,"lng":138.206561,"zip":"3810054"},{"town":"浅川三丁目","koaza":"","lat":36.684236,"lng":138.209058,"zip":"3810054"},{"town":"浅川四丁目","koaza":"","lat":36.682634,"lng":138.20876,"zip":"3810054"},{"town":"浅川五丁目","koaza":"","lat":36.684468,"lng":138.210855,"zip":"3810054"},{"town":"浅川一ノ瀬","koaza":"","lat":36.691293,"lng":138.188372,"zip":"3810000"},{"town":"浅川押田","koaza":"","lat":36.687479,"lng":138.209029,"zip":"3810056"},{"town":"浅川清水","koaza":"","lat":36.699876,"lng":138.194983,"zip":"3810072"},{"town":"浅川西条","koaza":"","lat":36.693512,"lng":138.214001,"zip":"3810057"},{"town":"浅川西平","koaza":"","lat":36.693313,"lng":138.200182,"zip":"3810066"},{"town":"浅川畑山","koaza":"","lat":36.689747,"lng":138.17799,"zip":"3810073"},{"town":"浅川東条","koaza":"","lat":36.682913,"lng":138.201161,"zip":"3810064"},{"town":"浅川福岡","koaza":"","lat":36.695215,"lng":138.208825,"zip":"3810062"},{"town":"安茂里小市一丁目","koaza":"","lat":36.6268,"lng":138.152239,"zip":"3800961"},{"town":"安茂里小市二丁目","koaza":"","lat":36.625769,"lng":138.145988,"zip":"3800961"},{"town":"安茂里小市三丁目","koaza":"","lat":36.624462,"lng":138.140986,"zip":"3800961"},{"town":"安茂里小市四丁目","koaza":"","lat":36.624926,"lng":138.136266,"zip":"3800961"},{"town":"伊勢宮一丁目","koaza":"","lat":36.63264,"lng":138.169333,"zip":"3800958"},{"town":"伊勢宮二丁目","koaza":"","lat":36.629959,"lng":138.169353,"zip":"3800958"},{"town":"伊勢宮三丁目","koaza":"","lat":36.627179,"lng":138.167537,"zip":"3800958"},{"town":"市場","koaza":"","lat":36.614502,"lng":138.226449,"zip":"3812202"},{"town":"稲里一丁目","koaza":"","lat":36.613066,"lng":138.170929,"zip":"3812243"},{"town":"稲里町下氷鉋","koaza":"","lat":36.606392,"lng":138.17837,"zip":"3812211"},{"town":"稲里町田牧","koaza":"","lat":36.593322,"lng":138.17414,"zip":"3812214"},{"town":"稲里町中央一丁目","koaza":"","lat":36.604534,"lng":138.17313,"zip":"3812217"},{"town":"稲里町中央二丁目","koaza":"","lat":36.601741,"lng":138.172923,"zip":"3812217"},{"town":"稲里町中央三丁目","koaza":"","lat":36.601896,"lng":138.166754,"zip":"3812217"},{"town":"稲里町中央四丁目","koaza":"","lat":36.605352,"lng":138.166542,"zip":"3812217"},{"town":"稲里町中氷鉋","koaza":"","lat":36.609178,"lng":138.168394,"zip":"3812215"},{"town":"稲田一丁目","koaza":"","lat":36.674813,"lng":138.217576,"zip":"3810042"},{"town":"稲田二丁目","koaza":"","lat":36.67315,"lng":138.2238,"zip":"3810042"},{"town":"稲田三丁目","koaza":"","lat":36.67235,"lng":138.23015,"zip":"3810042"},{"town":"稲田四丁目","koaza":"","lat":36.671077,"lng":138.232438,"zip":"3810042"},{"town":"居町","koaza":"","lat":36.650241,"lng":138.201094,"zip":"3800901"},{"town":"上松一丁目","koaza":"","lat":36.668262,"lng":138.199992,"zip":"3800802"},{"town":"上松二丁目","koaza":"","lat":36.667604,"lng":138.193521,"zip":"3800802"},{"town":"上松三丁目","koaza":"","lat":36.673525,"lng":138.195426,"zip":"3800802"},{"town":"上松四丁目","koaza":"","lat":36.675773,"lng":138.20196,"zip":"3800802"},{"town":"上松五丁目","koaza":"","lat":36.680934,"lng":138.196554,"zip":"3800802"},{"town":"上野一丁目","koaza":"","lat":36.696959,"lng":138.223321,"zip":"3810085"},{"town":"上野二丁目","koaza":"","lat":36.687138,"lng":138.234843,"zip":"3810085"},{"town":"上野三丁目","koaza":"","lat":36.689798,"lng":138.234173,"zip":"3810085"},{"town":"大字赤沼","koaza":"","lat":36.700902,"lng":138.275577,"zip":"3810000"},{"town":"大字上ケ屋","koaza":"","lat":36.693376,"lng":138.133202,"zip":"3810000"},{"town":"大字安茂里","koaza":"","lat":36.63925,"lng":138.158504,"zip":"3810000"},{"town":"大字石渡","koaza":"","lat":36.661039,"lng":138.239322,"zip":"3810000"},{"town":"大字泉平","koaza":"","lat":36.683493,"lng":138.158925,"zip":"3810000"},{"town":"大字稲葉","koaza":"","lat":36.633193,"lng":138.207952,"zip":"3810000"},{"town":"大字入山","koaza":"","lat":36.679723,"lng":138.1123,"zip":"3810000"},{"town":"大字上松","koaza":"","lat":36.677616,"lng":138.189513,"zip":"3810000"},{"town":"大字大町","koaza":"","lat":36.675716,"lng":138.267366,"zip":"3810000"},{"town":"大字風間","koaza":"","lat":36.635939,"lng":138.226113,"zip":"3810000"},{"town":"大字金箱","koaza":"","lat":36.676502,"lng":138.248537,"zip":"3810000"},{"town":"大字上駒沢","koaza":"","lat":36.680319,"lng":138.242239,"zip":"3810000"},{"town":"大字川合新田","koaza":"","lat":36.622899,"lng":138.206454,"zip":"3810000"},{"town":"大字北尾張部","koaza":"","lat":36.654668,"lng":138.238164,"zip":"3810000"},{"town":"大字北長池","koaza":"","lat":36.649344,"lng":138.242965,"zip":"3810000"},{"town":"大字北堀","koaza":"","lat":36.665602,"lng":138.24707,"zip":"3810000"},{"town":"大字栗田","koaza":"","lat":36.639115,"lng":138.19468,"zip":"3810000"},{"town":"大字小柴見","koaza":"","lat":36.64567,"lng":138.177232,"zip":"3810000"},{"town":"大字小島","koaza":"","lat":36.663206,"lng":138.252861,"zip":"3810000"},{"town":"大字小鍋","koaza":"","lat":36.659398,"lng":138.131307,"zip":"3810000"},{"town":"大字桜","koaza":"","lat":36.674414,"lng":138.152596,"zip":"3810000"},{"town":"大字三才","koaza":"","lat":36.68853,"lng":138.247847,"zip":"3810000"},{"town":"大字下駒沢","koaza":"","lat":36.682627,"lng":138.25476,"zip":"3810000"},{"town":"大字塩生乙","koaza":"","lat":36.63331,"lng":138.107396,"zip":"3810000"},{"town":"大字塩生甲","koaza":"","lat":36.633937,"lng":138.125307,"zip":"3810000"},{"town":"大字高田","koaza":"","lat":36.644889,"lng":138.210615,"zip":"3810000"},{"town":"大字田子","koaza":"","lat":36.697962,"lng":138.234418,"zip":"3810000"},{"town":"大字鑪","koaza":"","lat":36.673227,"lng":138.16411,"zip":"3810000"},{"town":"大字津野","koaza":"","lat":36.689509,"lng":138.275803,"zip":"3810000"},{"town":"大字鶴賀","koaza":"","lat":36.648,"lng":138.195013,"zip":"3810000"},{"town":"大字徳間","koaza":"","lat":36.680053,"lng":138.229566,"zip":"3810000"},{"town":"大字富田","koaza":"","lat":36.726618,"lng":138.139121,"zip":"3810000"},{"town":"大字富竹","koaza":"","lat":36.672238,"lng":138.246308,"zip":"3810000"},{"town":"大字中御所","koaza":"","lat":36.645685,"lng":138.181192,"zip":"3810000"},{"town":"大字長野","koaza":"","lat":36.674892,"lng":138.178449,"zip":"3810000"},{"town":"大字西尾張部","koaza":"","lat":36.648668,"lng":138.22647,"zip":"3810000"},{"town":"大字西和田","koaza":"","lat":36.649523,"lng":138.222431,"zip":"3810000"},{"town":"大字東和田","koaza":"","lat":36.654922,"lng":138.226465,"zip":"3810000"},{"town":"大字平柴","koaza":"","lat":36.650643,"lng":138.166244,"zip":"3810000"},{"town":"大字平林","koaza":"","lat":36.649807,"lng":138.210393,"zip":"3810000"},{"town":"大字広瀬","koaza":"","lat":36.678844,"lng":138.132699,"zip":"3810000"},{"town":"大字穂保","koaza":"","lat":36.684468,"lng":138.271756,"zip":"3810000"},{"town":"大字大豆島","koaza":"","lat":36.631147,"lng":138.233349,"zip":"3810000"},{"town":"大字檀田","koaza":"","lat":36.678818,"lng":138.205099,"zip":"3810000"},{"town":"大字南長池","koaza":"","lat":36.64458,"lng":138.232858,"zip":"3810000"},{"town":"大字南堀","koaza":"","lat":36.664389,"lng":138.241195,"zip":"3810000"},{"town":"大字三輪","koaza":"","lat":36.655853,"lng":138.19484,"zip":"3810000"},{"town":"大字村山","koaza":"","lat":36.665923,"lng":138.267226,"zip":"3810000"},{"town":"大字屋島","koaza":"","lat":36.638904,"lng":138.251251,"zip":"3810000"},{"town":"大字柳原","koaza":"","lat":36.656803,"lng":138.25974,"zip":"3810000"},{"town":"大字山田中","koaza":"","lat":36.649103,"lng":138.118406,"zip":"3810000"},{"town":"大字吉","koaza":"","lat":36.70917,"lng":138.243641,"zip":"3810000"},{"town":"大字若槻団地","koaza":"","lat":36.680096,"lng":138.21559,"zip":"3810000"},{"town":"大字若槻西条","koaza":"","lat":36.717492,"lng":138.243366,"zip":"3810000"},{"town":"大字若槻東条","koaza":"","lat":36.692501,"lng":138.219861,"zip":"3810000"},{"town":"大岡乙","koaza":"","lat":36.50428,"lng":137.978426,"zip":"3812703"},{"town":"大岡甲","koaza":"","lat":36.515877,"lng":137.994266,"zip":"3812704"},{"town":"大岡中牧","koaza":"","lat":36.510907,"lng":138.025491,"zip":"3812701"},{"town":"大岡弘崎","koaza":"","lat":36.526273,"lng":138.00063,"zip":"3812705"},{"town":"大岡丙","koaza":"","lat":36.486081,"lng":137.999382,"zip":"3812702"},{"town":"大橋南一丁目","koaza":"","lat":36.615375,"lng":138.198583,"zip":"3812207"},{"town":"大橋南二丁目","koaza":"","lat":36.612884,"lng":138.197944,"zip":"3812207"},{"town":"小島田町","koaza":"","lat":36.596784,"lng":138.187957,"zip":"3812212"},{"town":"神楽橋","koaza":"","lat":36.680721,"lng":138.209258,"zip":"3810053"},{"town":"合戦場一丁目","koaza":"","lat":36.579794,"lng":138.155712,"zip":"3888008"},{"town":"合戦場二丁目","koaza":"","lat":36.579878,"lng":138.158936,"zip":"3888008"},{"town":"合戦場三丁目","koaza":"","lat":36.577177,"lng":138.156997,"zip":"3888008"},{"town":"門沢","koaza":"","lat":36.704421,"lng":138.154572,"zip":"3800881"},{"town":"金井田","koaza":"","lat":36.582007,"lng":138.159273,"zip":"3812222"},{"town":"川中島町今井","koaza":"","lat":36.597103,"lng":138.147553,"zip":"3812226"},{"town":"川中島町今井原","koaza":"","lat":36.593832,"lng":138.147607,"zip":"3812227"},{"town":"川中島町今里","koaza":"","lat":36.607157,"lng":138.145204,"zip":"3812234"},{"town":"川中島町上氷鉋","koaza":"","lat":36.611911,"lng":138.157062,"zip":"3812233"},{"town":"川中島町原","koaza":"","lat":36.585886,"lng":138.151791,"zip":"3812224"},{"town":"川中島町御厨","koaza":"","lat":36.591639,"lng":138.162337,"zip":"3812221"},{"town":"川中島町四ツ屋","koaza":"","lat":36.615814,"lng":138.146174,"zip":"3812231"},{"town":"北郷","koaza":"","lat":36.718541,"lng":138.165275,"zip":"3810075"},{"town":"北条町","koaza":"","lat":36.65047,"lng":138.203313,"zip":"3810035"},{"town":"鬼無里","koaza":"","lat":36.724186,"lng":138.007803,"zip":"3814301"},{"town":"鬼無里日下野","koaza":"","lat":36.660884,"lng":138.026632,"zip":"3814303"},{"town":"鬼無里日影","koaza":"","lat":36.740097,"lng":137.961007,"zip":"3814302"},{"town":"桐原一丁目","koaza":"","lat":36.662862,"lng":138.213424,"zip":"3810045"},{"town":"桐原二丁目","koaza":"","lat":36.662497,"lng":138.216841,"zip":"3810045"},{"town":"坂中","koaza":"","lat":36.704069,"lng":138.204396,"zip":"3810061"},{"town":"桜新町","koaza":"","lat":36.653074,"lng":138.231372,"zip":"3810013"},{"town":"差出南一丁目","koaza":"","lat":36.630802,"lng":138.177581,"zip":"3800948"},{"town":"差出南二丁目","koaza":"","lat":36.630935,"lng":138.173996,"zip":"3800948"},{"town":"差出南三丁目","koaza":"","lat":36.62756,"lng":138.174938,"zip":"3800948"},{"town":"里島","koaza":"","lat":36.581079,"lng":138.153287,"zip":"3812223"},{"town":"早苗町","koaza":"","lat":36.6499,"lng":138.197358,"zip":"3800812"},{"town":"三本柳西一丁目","koaza":"","lat":36.618986,"lng":138.163437,"zip":"3812244"},{"town":"三本柳西二丁目","koaza":"","lat":36.616644,"lng":138.163297,"zip":"3812244"},{"town":"三本柳西三丁目","koaza":"","lat":36.614018,"lng":138.163864,"zip":"3812244"},{"town":"三本柳東一丁目","koaza":"","lat":36.620189,"lng":138.166618,"zip":"3812245"},{"town":"三本柳東二丁目","koaza":"","lat":36.617324,"lng":138.165828,"zip":"3812245"},{"town":"三本柳東三丁目","koaza":"","lat":36.614286,"lng":138.165936,"zip":"3812245"},{"town":"篠ノ井会","koaza":"","lat":36.571366,"lng":138.148732,"zip":"3888004"},{"town":"篠ノ井石川","koaza":"","lat":36.56945,"lng":138.110438,"zip":"3888015"},{"town":"篠ノ井有旅","koaza":"","lat":36.582032,"lng":138.099514,"zip":"3888016"},{"town":"篠ノ井岡田","koaza":"","lat":36.592121,"lng":138.123511,"zip":"3812225"},{"town":"篠ノ井御幣川","koaza":"","lat":36.570389,"lng":138.142035,"zip":"3888006"},{"town":"篠ノ井小松原","koaza":"","lat":36.609849,"lng":138.125834,"zip":"3812235"},{"town":"篠ノ井小森","koaza":"","lat":36.573887,"lng":138.160448,"zip":"3888003"},{"town":"篠ノ井塩崎","koaza":"","lat":36.552969,"lng":138.109935,"zip":"3888014"},{"town":"篠ノ井布施五明","koaza":"","lat":36.579317,"lng":138.125651,"zip":"3888011"},{"town":"篠ノ井布施高田","koaza":"","lat":36.580475,"lng":138.143281,"zip":"3888007"},{"town":"篠ノ井二ツ柳","koaza":"","lat":36.569283,"lng":138.12778,"zip":"3888012"},{"town":"篠ノ井山布施","koaza":"","lat":36.604411,"lng":138.092753,"zip":"3888017"},{"town":"篠ノ井横田","koaza":"","lat":36.561683,"lng":138.14717,"zip":"3888005"},{"town":"下氷鉋一丁目","koaza":"","lat":36.612016,"lng":138.177886,"zip":"3812216"},{"town":"伺去","koaza":"","lat":36.687308,"lng":138.198726,"zip":"3810063"},{"town":"真光寺","koaza":"","lat":36.692371,"lng":138.190392,"zip":"3810065"},{"town":"信更町赤田","koaza":"","lat":36.566,"lng":138.092489,"zip":"3812352"},{"town":"信更町上尾","koaza":"","lat":36.582349,"lng":138.056679,"zip":"3812344"},{"town":"信更町今泉","koaza":"","lat":36.565243,"lng":138.046693,"zip":"3812358"},{"town":"信更町桜井","koaza":"","lat":36.588011,"lng":138.074183,"zip":"3812343"},{"town":"信更町三水","koaza":"","lat":36.571316,"lng":138.05963,"zip":"3812359"},{"town":"信更町下平","koaza":"","lat":36.601581,"lng":138.072202,"zip":"3812341"},{"town":"信更町高野","koaza":"","lat":36.549869,"lng":138.034373,"zip":"3812355"},{"town":"信更町田沢","koaza":"","lat":36.528575,"lng":138.037421,"zip":"3812354"},{"town":"信更町田野口","koaza":"","lat":36.552933,"lng":138.069757,"zip":"3812353"},{"town":"信更町灰原","koaza":"","lat":36.557652,"lng":138.049608,"zip":"3812357"},{"town":"信更町氷ノ田","koaza":"","lat":36.574221,"lng":138.072415,"zip":"3812351"},{"town":"信更町古藤","koaza":"","lat":36.599903,"lng":138.061014,"zip":"3812347"},{"town":"信更町宮平","koaza":"","lat":36.595153,"lng":138.073429,"zip":"3812342"},{"town":"信更町安庭","koaza":"","lat":36.594488,"lng":138.046485,"zip":"3812346"},{"town":"信更町吉原","koaza":"","lat":36.561457,"lng":138.030722,"zip":"3812356"},{"town":"信更町涌池","koaza":"","lat":36.589739,"lng":138.058314,"zip":"3812345"},{"town":"信州新町上条","koaza":"","lat":36.577336,"lng":138.025928,"zip":"3812404"},{"town":"信州新町越道","koaza":"","lat":36.592623,"lng":137.98021,"zip":"3812401"},{"town":"信州新町里穂刈","koaza":"","lat":36.568698,"lng":138.000079,"zip":"3812406"},{"town":"信州新町下市場","koaza":"","lat":36.563057,"lng":137.993876,"zip":"3812413"},{"town":"信州新町新町","koaza":"","lat":36.569643,"lng":138.008404,"zip":"3812405"},{"town":"信州新町左右","koaza":"","lat":36.530089,"lng":137.9374,"zip":"3812424"},{"town":"信州新町竹房","koaza":"","lat":36.561158,"lng":138.015311,"zip":"3812411"},{"town":"信州新町中牧","koaza":"","lat":36.54129,"lng":138.003193,"zip":"3812415"},{"town":"信州新町信級","koaza":"","lat":36.554824,"lng":137.940766,"zip":"3812421"},{"town":"信州新町日原西","koaza":"","lat":36.543501,"lng":137.959085,"zip":"3812423"},{"town":"信州新町日原東","koaza":"","lat":36.554974,"lng":137.986868,"zip":"3812422"},{"town":"信州新町弘崎","koaza":"","lat":36.536824,"lng":137.990527,"zip":"3812416"},{"town":"信州新町牧田中","koaza":"","lat":36.547831,"lng":138.011036,"zip":"3812414"},{"town":"信州新町牧野島","koaza":"","lat":36.556269,"lng":138.008208,"zip":"3812412"},{"town":"信州新町水内","koaza":"","lat":36.581175,"lng":138.044115,"zip":"3812403"},{"town":"信州新町山上条","koaza":"","lat":36.587175,"lng":138.013722,"zip":"3812402"},{"town":"信州新町山穂刈","koaza":"","lat":36.578361,"lng":137.974694,"zip":"3812407"},{"town":"神明","koaza":"","lat":36.588707,"lng":138.180234,"zip":"3888020"},{"town":"台ケ窪","koaza":"","lat":36.709453,"lng":138.191518,"zip":"3810071"},{"town":"田中","koaza":"","lat":36.7001,"lng":138.226976,"zip":"3810086"},{"town":"丹波島二丁目","koaza":"","lat":36.615286,"lng":138.174924,"zip":"3812246"},{"town":"戸隠","koaza":"","lat":36.774264,"lng":138.065963,"zip":"3814101"},{"town":"戸隠祖山","koaza":"","lat":36.660444,"lng":138.068742,"zip":"3814103"},{"town":"戸隠栃原","koaza":"","lat":36.694895,"lng":138.054205,"zip":"3814104"},{"town":"戸隠豊岡","koaza":"","lat":36.699691,"lng":138.086625,"zip":"3814102"},{"town":"徳間一丁目","koaza":"","lat":36.679716,"lng":138.220601,"zip":"3810041"},{"town":"豊野町浅野","koaza":"","lat":36.718537,"lng":138.296294,"zip":"3891104"},{"town":"豊野町石","koaza":"","lat":36.71202,"lng":138.261032,"zip":"3891106"},{"town":"豊野町大倉","koaza":"","lat":36.734791,"lng":138.289393,"zip":"3891102"},{"town":"豊野町蟹沢","koaza":"","lat":36.732651,"lng":138.303972,"zip":"3891103"},{"town":"豊野町川谷","koaza":"","lat":36.738561,"lng":138.269098,"zip":"3891101"},{"town":"豊野町豊野","koaza":"","lat":36.717711,"lng":138.276356,"zip":"3891105"},{"town":"豊野町南郷","koaza":"","lat":36.696315,"lng":138.251585,"zip":"3891107"},{"town":"中越一丁目","koaza":"","lat":36.660564,"lng":138.220274,"zip":"3810044"},{"town":"中越二丁目","koaza":"","lat":36.662297,"lng":138.222216,"zip":"3810044"},{"town":"中御所一丁目","koaza":"","lat":36.641105,"lng":138.183373,"zip":"3800935"},{"town":"中御所二丁目","koaza":"","lat":36.63903,"lng":138.185856,"zip":"3800935"},{"town":"中御所三丁目","koaza":"","lat":36.638456,"lng":138.181694,"zip":"3800935"},{"town":"中御所四丁目","koaza":"","lat":36.634503,"lng":138.181167,"zip":"3800935"},{"town":"中御所五丁目","koaza":"","lat":36.629395,"lng":138.181391,"zip":"3800935"},{"town":"中御所町四丁目","koaza":"","lat":36.641969,"lng":138.181564,"zip":"3800934"},{"town":"中条","koaza":"","lat":36.6124,"lng":138.033604,"zip":"3813203"},{"town":"中条日下野","koaza":"","lat":36.635325,"lng":138.045865,"zip":"3813202"},{"town":"中条住良木","koaza":"","lat":36.614709,"lng":138.014452,"zip":"3813205"},{"town":"中条日高","koaza":"","lat":36.606488,"lng":138.051828,"zip":"3813201"},{"town":"中条御山里","koaza":"","lat":36.636327,"lng":138.017842,"zip":"3813204"},{"town":"中曽根","koaza":"","lat":36.709039,"lng":138.16041,"zip":"3810074"},{"town":"七二会","koaza":"","lat":36.629291,"lng":138.079047,"zip":"3813164"},{"town":"西三才","koaza":"","lat":36.685087,"lng":138.239827,"zip":"3810083"},{"town":"西和田一丁目","koaza":"","lat":36.65149,"lng":138.218331,"zip":"3810037"},{"town":"西和田二丁目","koaza":"","lat":36.657315,"lng":138.2153,"zip":"3810037"},{"town":"箱清水一丁目","koaza":"","lat":36.663825,"lng":138.192603,"zip":"3800801"},{"town":"箱清水二丁目","koaza":"","lat":36.665556,"lng":138.188485,"zip":"3800801"},{"town":"箱清水三丁目","koaza":"","lat":36.666076,"lng":138.1841,"zip":"3800801"},{"town":"東鶴賀町","koaza":"","lat":36.651709,"lng":138.200276,"zip":"3800811"},{"town":"平柴台","koaza":"","lat":36.643752,"lng":138.172767,"zip":"3800946"},{"town":"平林一丁目","koaza":"","lat":36.651893,"lng":138.212528,"zip":"3810036"},{"town":"平林二丁目","koaza":"","lat":36.655342,"lng":138.216162,"zip":"3810036"},{"town":"広田","koaza":"","lat":36.589271,"lng":138.177713,"zip":"3812213"},{"town":"真島町川合","koaza":"","lat":36.612295,"lng":138.216144,"zip":"3812203"},{"town":"真島町真島","koaza":"","lat":36.604837,"lng":138.208264,"zip":"3812204"},{"town":"松岡一丁目","koaza":"","lat":36.62794,"lng":138.218754,"zip":"3810026"},{"town":"松岡二丁目","koaza":"","lat":36.624091,"lng":138.218785,"zip":"3810026"},{"town":"松代温泉","koaza":"","lat":36.574191,"lng":138.210215,"zip":"3811226"},{"town":"松代町岩野","koaza":"","lat":36.563992,"lng":138.163493,"zip":"3811234"},{"town":"松代町大室","koaza":"","lat":36.587794,"lng":138.225721,"zip":"3811211"},{"town":"松代町小島田","koaza":"","lat":36.593058,"lng":138.209045,"zip":"3811213"},{"town":"松代町清野","koaza":"","lat":36.554897,"lng":138.182771,"zip":"3811233"},{"town":"松代町柴","koaza":"","lat":36.590491,"lng":138.200813,"zip":"3811214"},{"town":"松代町城東","koaza":"","lat":36.567709,"lng":138.205016,"zip":"3811224"},{"town":"松代町城北","koaza":"","lat":36.571471,"lng":138.202463,"zip":"3811235"},{"town":"松代町豊栄","koaza":"","lat":36.535841,"lng":138.250422,"zip":"3811222"},{"town":"松代町西条","koaza":"","lat":36.533545,"lng":138.207315,"zip":"3811232"},{"town":"松代町西寺尾","koaza":"","lat":36.577916,"lng":138.191939,"zip":"3811215"},{"town":"松代町東条","koaza":"","lat":36.565658,"lng":138.226709,"zip":"3811221"},{"town":"松代町東寺尾","koaza":"","lat":36.579014,"lng":138.202263,"zip":"3811225"},{"town":"松代町牧島","koaza":"","lat":36.591534,"lng":138.21306,"zip":"3811212"},{"town":"松代町松代","koaza":"","lat":36.56219,"lng":138.198273,"zip":"3811231"},{"town":"大豆島西沖","koaza":"","lat":36.632347,"lng":138.224001,"zip":"3810000"},{"town":"檀田一丁目","koaza":"","lat":36.677655,"lng":138.206586,"zip":"3810052"},{"town":"檀田二丁目","koaza":"","lat":36.677002,"lng":138.209989,"zip":"3810052"},{"town":"みこと川","koaza":"","lat":36.567943,"lng":138.136178,"zip":"3888013"},{"town":"三ツ出","koaza":"","lat":36.714781,"lng":138.183345,"zip":"3810076"},{"town":"皆神台","koaza":"","lat":36.554328,"lng":138.210981,"zip":"3811223"},{"town":"南高田一丁目","koaza":"","lat":36.64395,"lng":138.220705,"zip":"3810033"},{"town":"南高田二丁目","koaza":"","lat":36.643943,"lng":138.225127,"zip":"3810033"},{"town":"南千歳一丁目","koaza":"","lat":36.645218,"lng":138.189632,"zip":"3800823"},{"town":"南千歳二丁目","koaza":"","lat":36.646638,"lng":138.190608,"zip":"3800823"},{"town":"宮沖","koaza":"","lat":36.629811,"lng":138.163814,"zip":"3800952"},{"town":"三輪十丁目","koaza":"","lat":36.674336,"lng":138.205156,"zip":"3800803"},{"town":"三輪一丁目","koaza":"","lat":36.656369,"lng":138.205883,"zip":"3800803"},{"town":"三輪二丁目","koaza":"","lat":36.661754,"lng":138.209546,"zip":"3800803"},{"town":"三輪三丁目","koaza":"","lat":36.661368,"lng":138.205353,"zip":"3800803"},{"town":"三輪四丁目","koaza":"","lat":36.660691,"lng":138.201046,"zip":"3800803"},{"town":"三輪五丁目","koaza":"","lat":36.656787,"lng":138.201029,"zip":"3800803"},{"town":"三輪六丁目","koaza":"","lat":36.658671,"lng":138.1961,"zip":"3800803"},{"town":"三輪七丁目","koaza":"","lat":36.659323,"lng":138.192989,"zip":"3800803"},{"town":"三輪八丁目","koaza":"","lat":36.665602,"lng":138.201426,"zip":"3800803"},{"town":"三輪九丁目","koaza":"","lat":36.666539,"lng":138.206803,"zip":"3800803"},{"town":"屋敷田","koaza":"","lat":36.683301,"lng":138.211673,"zip":"3810055"},{"town":"柳町","koaza":"","lat":36.653152,"lng":138.201103,"zip":"3800805"},{"town":"吉田一丁目","koaza":"","lat":36.668114,"lng":138.213302,"zip":"3810043"},{"town":"吉田二丁目","koaza":"","lat":36.673173,"lng":138.211025,"zip":"3810043"},{"town":"吉田三丁目","koaza":"","lat":36.668812,"lng":138.223052,"zip":"3810043"},{"town":"吉田四丁目","koaza":"","lat":36.666564,"lng":138.229177,"zip":"3810043"},{"town":"吉田五丁目","koaza":"","lat":36.661062,"lng":138.229305,"zip":"3810043"},{"town":"若里一丁目","koaza":"","lat":36.634656,"lng":138.187178,"zip":"3800928"},{"town":"若里二丁目","koaza":"","lat":36.633551,"lng":138.193114,"zip":"3800928"},{"town":"若里三丁目","koaza":"","lat":36.630343,"lng":138.194078,"zip":"3800928"},{"town":"若里四丁目","koaza":"","lat":36.6303,"lng":138.186927,"zip":"3800928"},{"town":"若里五丁目","koaza":"","lat":36.627193,"lng":138.186867,"zip":"3800928"},{"town":"若穂牛島","koaza":"","lat":36.61678,"lng":138.241865,"zip":"3812201"},{"town":"若穂川田","koaza":"","lat":36.601923,"lng":138.24884,"zip":"3810103"},{"town":"若穂保科","koaza":"","lat":36.56697,"lng":138.281333,"zip":"3810102"},{"town":"若穂綿内","koaza":"","lat":36.615684,"lng":138.269711,"zip":"3810101"},{"town":"若宮一丁目","koaza":"","lat":36.645799,"lng":138.220969,"zip":"3810032"},{"town":"若宮二丁目","koaza":"","lat":36.64649,"lng":138.225055,"zip":"3810032"},{"town":"大字茂菅","koaza":"","lat":36.665281,"lng":138.16523,"zip":"3810000"},{"town":"大字南長野","koaza":"","lat":36.649947,"lng":138.184107,"zip":"3810000"},{"town":"大字西長野","koaza":"","lat":36.662684,"lng":138.175502,"zip":"3810000"},{"town":"新諏訪一丁目","koaza":"","lat":36.657722,"lng":138.171796,"zip":"3800873"},{"town":"青木島一丁目","koaza":"","lat":36.619004,"lng":138.178709,"zip":"3812247"},{"town":"丹波島一丁目","koaza":"","lat":36.617459,"lng":138.1714,"zip":"3812246"},{"town":"丹波島三丁目","koaza":"","lat":36.619139,"lng":138.173522,"zip":"3812246"},{"town":"若里六丁目","koaza":"","lat":36.626561,"lng":138.193479,"zip":"3800928"},{"town":"若里七丁目","koaza":"","lat":36.627358,"lng":138.198954,"zip":"3800928"},{"town":"大字若里","koaza":"","lat":36.626368,"lng":138.196603,"zip":"3810000"},{"town":"アークス","koaza":"","lat":36.623756,"lng":138.197926,"zip":"3800918"},{"town":"新諏訪二丁目","koaza":"","lat":36.659681,"lng":138.172503,"zip":"3800873"},{"town":"篠ノ井東福寺","koaza":"","lat":36.574209,"lng":138.172633,"zip":"3888002"},{"town":"東犀南","koaza":"","lat":36.585188,"lng":138.180922,"zip":"3888001"},{"town":"篠ノ井杵淵","koaza":"","lat":36.576662,"lng":138.184273,"zip":"3888019"},{"town":"篠ノ井西寺尾","koaza":"","lat":36.586789,"lng":138.188573,"zip":"3888018"},{"town":"篠ノ井塩崎","koaza":"四之宮","lat":36.555444,"lng":138.10524,"zip":"3888014"},{"town":"篠ノ井塩崎","koaza":"越","lat":36.544766,"lng":138.104657,"zip":"3888014"},{"town":"篠ノ井塩崎","koaza":"長谷","lat":36.548163,"lng":138.101997,"zip":"3888014"},{"town":"篠ノ井塩崎","koaza":"明戸","lat":36.549686,"lng":138.106612,"zip":"3888014"},{"town":"篠ノ井塩崎","koaza":"上町","lat":36.547138,"lng":138.113618,"zip":"3888014"},{"town":"篠ノ井塩崎","koaza":"角間","lat":36.553184,"lng":138.115706,"zip":"3888014"},{"town":"篠ノ井石川","koaza":"下石川","lat":36.568263,"lng":138.113469,"zip":"3888015"},{"town":"篠ノ井布施五明","koaza":"柳沢","lat":36.577062,"lng":138.117771,"zip":"3888011"},{"town":"篠ノ井塩崎","koaza":"山崎","lat":36.557487,"lng":138.118548,"zip":"3888014"},{"town":"篠ノ井塩崎","koaza":"平久保","lat":36.560294,"lng":138.12407,"zip":"3888014"},{"town":"篠ノ井布施五明","koaza":"瀬原田","lat":36.579294,"lng":138.12635,"zip":"3888011"},{"town":"篠ノ井二ツ柳","koaza":"方田","lat":36.571458,"lng":138.123827,"zip":"3888012"},{"town":"篠ノ井二ツ柳","koaza":"作見","lat":36.564187,"lng":138.125821,"zip":"3888012"},{"town":"篠ノ井塩崎","koaza":"上篠ノ井","lat":36.562119,"lng":138.129829,"zip":"3888014"},{"town":"篠ノ井岡田","koaza":"本組","lat":36.594417,"lng":138.127409,"zip":"3812225"},{"town":"篠ノ井岡田","koaza":"南町","lat":36.59017,"lng":138.128776,"zip":"3812225"},{"town":"篠ノ井二ツ柳","koaza":"大当","lat":36.567331,"lng":138.131512,"zip":"3888012"},{"town":"篠ノ井二ツ柳","koaza":"中条","lat":36.57189,"lng":138.130983,"zip":"3888012"},{"town":"篠ノ井岡田","koaza":"古町","lat":36.592614,"lng":138.129395,"zip":"3812225"},{"town":"篠ノ井小松原","koaza":"南組","lat":36.611138,"lng":138.13316,"zip":"3812235"},{"town":"篠ノ井布施五明","koaza":"五明","lat":36.580064,"lng":138.132929,"zip":"3888011"},{"town":"篠ノ井岡田","koaza":"深町","lat":36.58728,"lng":138.129875,"zip":"3812225"},{"town":"篠ノ井岡田","koaza":"中町","lat":36.592192,"lng":138.130041,"zip":"3812225"},{"town":"篠ノ井小松原","koaza":"犀口","lat":36.619889,"lng":138.134244,"zip":"3812235"},{"town":"篠ノ井小松原","koaza":"段ノ原","lat":36.600316,"lng":138.131879,"zip":"3812235"},{"town":"篠ノ井小松原","koaza":"中組","lat":36.613693,"lng":138.131724,"zip":"3812235"},{"town":"篠ノ井二ツ柳","koaza":"昭和","lat":36.571005,"lng":138.135014,"zip":"3888012"},{"town":"篠ノ井小松原","koaza":"北組","lat":36.616413,"lng":138.132231,"zip":"3812235"},{"town":"篠ノ井塩崎","koaza":"東篠ノ井","lat":36.563768,"lng":138.136069,"zip":"3888014"},{"town":"篠ノ井塩崎","koaza":"庄ノ宮","lat":36.560624,"lng":138.134931,"zip":"3888014"},{"town":"篠ノ井布施五明","koaza":"宮前","lat":36.577654,"lng":138.135448,"zip":"3888011"},{"town":"篠ノ井布施高田","koaza":"西組","lat":36.581814,"lng":138.138595,"zip":"3888007"},{"town":"篠ノ井岡田","koaza":"築地","lat":36.586844,"lng":138.1391,"zip":"3812225"},{"town":"篠ノ井布施高田","koaza":"内堀","lat":36.577724,"lng":138.139993,"zip":"3888007"},{"town":"篠ノ井布施高田","koaza":"南条","lat":36.5828,"lng":138.141655,"zip":"3888007"},{"town":"篠ノ井横田","koaza":"西横田","lat":36.560676,"lng":138.141076,"zip":"3888005"},{"town":"篠ノ井布施高田","koaza":"芝沢","lat":36.578642,"lng":138.143491,"zip":"3888007"},{"town":"篠ノ井布施高田","koaza":"高田","lat":36.583198,"lng":138.145534,"zip":"3888007"},{"town":"篠ノ井布施高田","koaza":"唐臼","lat":36.578297,"lng":138.150535,"zip":"3888007"},{"town":"篠ノ井横田","koaza":"東横田","lat":36.564222,"lng":138.151625,"zip":"3888005"},{"town":"大字安茂里","koaza":"西河原","lat":36.630837,"lng":138.15803,"zip":"3810000"},{"town":"大字安茂里","koaza":"犀北団地","lat":36.626866,"lng":138.161789,"zip":"3810000"},{"town":"篠ノ井小森","koaza":"小森東","lat":36.571531,"lng":138.16526,"zip":"3888003"},{"town":"大字安茂里","koaza":"小路","lat":36.634002,"lng":138.167296,"zip":"3810000"},{"town":"大字安茂里","koaza":"大門","lat":36.639456,"lng":138.169499,"zip":"3810000"},{"town":"大字安茂里","koaza":"杏花台","lat":36.643317,"lng":138.168028,"zip":"3810000"},{"town":"篠ノ井東福寺","koaza":"上組","lat":36.574313,"lng":138.167546,"zip":"3888002"},{"town":"篠ノ井東福寺","koaza":"中組","lat":36.572242,"lng":138.169806,"zip":"3888002"},{"town":"大字安茂里","koaza":"差出","lat":36.638144,"lng":138.174544,"zip":"3810000"},{"town":"大字西長野","koaza":"往生地","lat":36.663289,"lng":138.177029,"zip":"3810000"},{"town":"大字南長野","koaza":"妻科","lat":36.653618,"lng":138.175641,"zip":"3810000"},{"town":"大字安茂里","koaza":"米村","lat":36.635509,"lng":138.173654,"zip":"3810000"},{"town":"篠ノ井東福寺","koaza":"上庭","lat":36.582961,"lng":138.178156,"zip":"3888002"},{"town":"大字長野","koaza":"往生地","lat":36.664726,"lng":138.180445,"zip":"3810000"},{"town":"篠ノ井東福寺","koaza":"中沢","lat":36.570625,"lng":138.179561,"zip":"3888002"},{"town":"大字中御所","koaza":"岡田町","lat":36.646242,"lng":138.182182,"zip":"3810000"},{"town":"大字長野","koaza":"旭町","lat":36.654692,"lng":138.182244,"zip":"3810000"},{"town":"大字長野","koaza":"狐池","lat":36.660766,"lng":138.181986,"zip":"3810000"},{"town":"大字南長野","koaza":"南県町","lat":36.65014,"lng":138.183173,"zip":"3810000"},{"town":"大字南長野","koaza":"県町","lat":36.653076,"lng":138.183437,"zip":"3810000"},{"town":"大字長野","koaza":"立町","lat":36.657762,"lng":138.183744,"zip":"3810000"},{"town":"大字長野","koaza":"花咲町","lat":36.660649,"lng":138.183383,"zip":"3810000"},{"town":"大字南長野","koaza":"南石堂町","lat":36.644878,"lng":138.184627,"zip":"3810000"},{"town":"大字南長野","koaza":"北石堂町","lat":36.646634,"lng":138.185006,"zip":"3810000"},{"town":"大字長野","koaza":"桜枝町","lat":36.659199,"lng":138.183715,"zip":"3810000"},{"town":"大字長野","koaza":"横沢町","lat":36.661598,"lng":138.184781,"zip":"3810000"},{"town":"大字長野","koaza":"若松町","lat":36.656027,"lng":138.18549,"zip":"3810000"},{"town":"大字長野","koaza":"長門町","lat":36.65559,"lng":138.185364,"zip":"3810000"},{"town":"大字南長野","koaza":"諏訪町","lat":36.654385,"lng":138.185612,"zip":"3810000"},{"town":"大字南長野","koaza":"西後町","lat":36.652541,"lng":138.186274,"zip":"3810000"},{"town":"大字南長野","koaza":"新田町","lat":36.649116,"lng":138.186697,"zip":"3810000"},{"town":"大字長野","koaza":"西町","lat":36.655893,"lng":138.186247,"zip":"3810000"},{"town":"大字長野","koaza":"元善町","lat":36.659544,"lng":138.187774,"zip":"3810000"},{"town":"大字鶴賀","koaza":"問御所町","lat":36.649906,"lng":138.187641,"zip":"3810000"},{"town":"大字鶴賀","koaza":"権堂町","lat":36.652856,"lng":138.1899,"zip":"3810000"},{"town":"大字長野","koaza":"東後町","lat":36.653683,"lng":138.187513,"zip":"3810000"},{"town":"大字鶴賀","koaza":"南千歳町","lat":36.646954,"lng":138.189503,"zip":"3810000"},{"town":"大字長野","koaza":"東町","lat":36.65557,"lng":138.188414,"zip":"3810000"},{"town":"大字長野","koaza":"東之門町","lat":36.659149,"lng":138.18935,"zip":"3810000"},{"town":"大字鶴賀","koaza":"上千歳町","lat":36.649979,"lng":138.190531,"zip":"3810000"},{"town":"大字鶴賀","koaza":"田町","lat":36.654636,"lng":138.194873,"zip":"3810000"},{"town":"大字栗田","koaza":"西番場","lat":36.637452,"lng":138.190922,"zip":"3810000"},{"town":"大字栗田","koaza":"源田窪","lat":36.641225,"lng":138.190971,"zip":"3810000"},{"town":"大字長野","koaza":"岩石町","lat":36.657404,"lng":138.191033,"zip":"3810000"},{"town":"大字鶴賀","koaza":"緑町","lat":36.649454,"lng":138.193435,"zip":"3810000"},{"town":"大字鶴賀","koaza":"西鶴賀町","lat":36.652892,"lng":138.194555,"zip":"3810000"},{"town":"大字長野","koaza":"新町","lat":36.660278,"lng":138.19263,"zip":"3810000"},{"town":"大字鶴賀","koaza":"東鶴賀町","lat":36.651886,"lng":138.197604,"zip":"3810000"},{"town":"大字稲葉","koaza":"上千田","lat":36.633085,"lng":138.198175,"zip":"3810000"},{"town":"大字栗田","koaza":"舎利田","lat":36.637086,"lng":138.200788,"zip":"3810000"},{"town":"大字三輪","koaza":"淀ケ橋","lat":36.654466,"lng":138.202261,"zip":"3810000"},{"town":"大字三輪","koaza":"荒屋","lat":36.653574,"lng":138.20777,"zip":"3810000"},{"town":"大字大豆島","koaza":"松岡","lat":36.631098,"lng":138.21985,"zip":"3810000"},{"town":"大字東和田","koaza":"前田沖","lat":36.653697,"lng":138.22159,"zip":"3810000"},{"town":"大字若槻東条","koaza":"迎田","lat":36.682195,"lng":138.221837,"zip":"3810000"},{"town":"大字徳間","koaza":"本堂原","lat":36.680808,"lng":138.232814,"zip":"3810000"},{"town":"大字石渡","koaza":"前田","lat":36.660708,"lng":138.238598,"zip":"3810000"},{"town":"大字上駒沢","koaza":"駒沢新町","lat":36.682694,"lng":138.24056,"zip":"3810000"},{"town":"大字屋島","koaza":"南屋島","lat":36.641315,"lng":138.248987,"zip":"3810000"},{"town":"大字柳原","koaza":"北長池境沖","lat":36.656666,"lng":138.250025,"zip":"3810000"},{"town":"大字屋島","koaza":"北屋島","lat":36.649182,"lng":138.253585,"zip":"3810000"},{"town":"大字大町","koaza":"大曲","lat":36.676579,"lng":138.259661,"zip":"3810000"},{"town":"大字長野","koaza":"栄町","lat":36.657292,"lng":138.185934,"zip":"3810000"},{"town":"大字長野","koaza":"伊勢町","lat":36.658694,"lng":138.18977,"zip":"3810000"},{"town":"大字長野","koaza":"横町","lat":36.657571,"lng":138.188483,"zip":"3810000"},{"town":"大字長野","koaza":"大門町","lat":36.655852,"lng":138.187143,"zip":"3810000"},{"town":"大字安茂里","koaza":"伊勢宮","lat":36.627778,"lng":138.165347,"zip":"3810000"},{"town":"大字長野","koaza":"上西之門町","lat":36.659253,"lng":138.186202,"zip":"3810000"},{"town":"大字長野","koaza":"西之門町","lat":36.658337,"lng":138.18642,"zip":"3810000"},{"town":"大字南長野","koaza":"末広町","lat":36.64418,"lng":138.187222,"zip":"3810000"}]