[{"town":"赤須東","koaza":"","lat":35.732245,"lng":137.938003,"zip":"3994105"},{"town":"赤須町","koaza":"","lat":35.731059,"lng":137.934562,"zip":"3994113"},{"town":"赤穂","koaza":"","lat":35.736129,"lng":137.866731,"zip":"3994117"},{"town":"飯坂一丁目","koaza":"","lat":35.737161,"lng":137.944826,"zip":"3994102"},{"town":"飯坂二丁目","koaza":"","lat":35.737198,"lng":137.951857,"zip":"3994102"},{"town":"上穂北","koaza":"","lat":35.742676,"lng":137.933601,"zip":"3994116"},{"town":"上穂栄町","koaza":"","lat":35.736714,"lng":137.931304,"zip":"3994115"},{"town":"上穂南","koaza":"","lat":35.732346,"lng":137.931809,"zip":"3994114"},{"town":"北町","koaza":"","lat":35.741199,"lng":137.936888,"zip":"3994111"},{"town":"経塚","koaza":"","lat":35.729597,"lng":137.943509,"zip":"3994104"},{"town":"下市場","koaza":"","lat":35.726108,"lng":137.93767,"zip":"3994108"},{"town":"下平","koaza":"","lat":35.73065,"lng":137.960047,"zip":"3994232"},{"town":"中央","koaza":"","lat":35.735742,"lng":137.935208,"zip":"3994112"},{"town":"中沢","koaza":"","lat":35.720444,"lng":138.015304,"zip":"3994231"},{"town":"梨の木","koaza":"","lat":35.732917,"lng":137.943448,"zip":"3994103"},{"town":"東伊那","koaza":"","lat":35.760499,"lng":137.985167,"zip":"3994321"},{"town":"東町","koaza":"","lat":35.73731,"lng":137.938978,"zip":"3994106"},{"town":"南田","koaza":"","lat":35.729922,"lng":137.937678,"zip":"3994107"},{"town":"赤穂","koaza":"北割一区","lat":35.743852,"lng":137.8922,"zip":"3994117"},{"town":"赤穂","koaza":"北割二区","lat":35.73902,"lng":137.896223,"zip":"3994117"},{"town":"赤穂","koaza":"福岡","lat":35.706956,"lng":137.92048,"zip":"3994117"},{"town":"赤穂","koaza":"大徳原","lat":35.71147,"lng":137.906703,"zip":"3994117"},{"town":"赤穂","koaza":"小町屋","lat":35.725375,"lng":137.942222,"zip":"3994117"},{"town":"赤穂","koaza":"市場割","lat":35.709024,"lng":137.942472,"zip":"3994117"},{"town":"赤穂","koaza":"上赤須","lat":35.707705,"lng":137.953926,"zip":"3994117"}]