[{"town":"浮羽町朝田","koaza":"","lat":33.330546,"lng":130.792127,"zip":"8391401"},{"town":"浮羽町妹川","koaza":"","lat":33.299594,"lng":130.758914,"zip":"8391415"},{"town":"浮羽町浮羽","koaza":"","lat":33.334317,"lng":130.778502,"zip":"8391402"},{"town":"浮羽町小塩","koaza":"","lat":33.304194,"lng":130.848285,"zip":"8391412"},{"town":"浮羽町高見","koaza":"","lat":33.347719,"lng":130.806773,"zip":"8391406"},{"town":"浮羽町田篭","koaza":"","lat":33.273123,"lng":130.841605,"zip":"8391414"},{"town":"浮羽町流川","koaza":"","lat":33.325059,"lng":130.780794,"zip":"8391411"},{"town":"浮羽町新川","koaza":"","lat":33.282363,"lng":130.802072,"zip":"8391413"},{"town":"浮羽町西隈上","koaza":"","lat":33.339202,"lng":130.794246,"zip":"8391404"},{"town":"浮羽町東隈上","koaza":"","lat":33.33804,"lng":130.801552,"zip":"8391403"},{"town":"浮羽町古川","koaza":"","lat":33.353418,"lng":130.799586,"zip":"8391405"},{"town":"浮羽町三春","koaza":"","lat":33.346219,"lng":130.824663,"zip":"8391407"},{"town":"浮羽町山北","koaza":"","lat":33.334218,"lng":130.820625,"zip":"8391408"},{"town":"吉井町","koaza":"","lat":33.342521,"lng":130.751243,"zip":"8391321"},{"town":"吉井町生葉","koaza":"","lat":33.347664,"lng":130.73797,"zip":"8391342"},{"town":"吉井町江南","koaza":"","lat":33.362807,"lng":130.735757,"zip":"8391341"},{"town":"吉井町清瀬","koaza":"","lat":33.337749,"lng":130.765656,"zip":"8391312"},{"town":"吉井町桜井","koaza":"","lat":33.345534,"lng":130.786142,"zip":"8391301"},{"town":"吉井町鷹取","koaza":"","lat":33.322275,"lng":130.729183,"zip":"8391343"},{"town":"吉井町橘田","koaza":"","lat":33.357629,"lng":130.760547,"zip":"8391307"},{"town":"吉井町千年","koaza":"","lat":33.354414,"lng":130.772707,"zip":"8391304"},{"town":"吉井町徳丸","koaza":"","lat":33.341479,"lng":130.781491,"zip":"8391302"},{"town":"吉井町富永","koaza":"","lat":33.324315,"lng":130.738748,"zip":"8391333"},{"town":"吉井町長栖","koaza":"","lat":33.367273,"lng":130.727368,"zip":"8391344"},{"town":"吉井町新治","koaza":"","lat":33.351409,"lng":130.749945,"zip":"8391306"},{"town":"吉井町福永","koaza":"","lat":33.351681,"lng":130.764019,"zip":"8391305"},{"town":"吉井町福益","koaza":"","lat":33.322627,"lng":130.749963,"zip":"8391332"},{"town":"吉井町宮田","koaza":"","lat":33.342888,"lng":130.773245,"zip":"8391303"},{"town":"吉井町屋部","koaza":"","lat":33.325235,"lng":130.762341,"zip":"8391331"},{"town":"吉井町八和田","koaza":"","lat":33.358788,"lng":130.74829,"zip":"8391308"},{"town":"吉井町若宮","koaza":"","lat":33.343284,"lng":130.765592,"zip":"8391311"}]