[{"town":"大字筏溝","koaza":"","lat":33.197394,"lng":130.434366,"zip":"8300400"},{"town":"大字絵下古賀","koaza":"","lat":33.206634,"lng":130.433095,"zip":"8300400"},{"town":"大字大角","koaza":"","lat":33.226092,"lng":130.449737,"zip":"8300400"},{"town":"大字大藪","koaza":"","lat":33.189613,"lng":130.447217,"zip":"8300400"},{"town":"大字奥牟田","koaza":"","lat":33.198592,"lng":130.447728,"zip":"8300400"},{"town":"大字上木佐木","koaza":"","lat":33.204247,"lng":130.435474,"zip":"8300400"},{"town":"大字上白垣","koaza":"","lat":33.218153,"lng":130.425858,"zip":"8300400"},{"town":"大字上八院","koaza":"","lat":33.21448,"lng":130.432035,"zip":"8300400"},{"town":"大字上牟田口","koaza":"","lat":33.19962,"lng":130.428457,"zip":"8300400"},{"town":"大字笹渕","koaza":"","lat":33.238286,"lng":130.447161,"zip":"8300400"},{"town":"大字侍島","koaza":"","lat":33.208224,"lng":130.450862,"zip":"8300400"},{"town":"大字高橋","koaza":"","lat":33.190585,"lng":130.455349,"zip":"8300400"},{"town":"大字八町牟田","koaza":"","lat":33.209755,"lng":130.433085,"zip":"8300400"},{"town":"大字蛭池","koaza":"","lat":33.214514,"lng":130.45181,"zip":"8300400"},{"town":"大字福土","koaza":"","lat":33.230524,"lng":130.456278,"zip":"8300400"},{"town":"大字前牟田","koaza":"","lat":33.231355,"lng":130.440709,"zip":"8300400"},{"town":"大字三八松","koaza":"","lat":33.189894,"lng":130.437617,"zip":"8300400"},{"town":"大字横溝","koaza":"","lat":33.223417,"lng":130.428019,"zip":"8300400"}]