[{"town":"朝霧一丁目","koaza":"","lat":33.818416,"lng":130.727969,"zip":"8090021"},{"town":"朝霧二丁目","koaza":"","lat":33.819118,"lng":130.730437,"zip":"8090021"},{"town":"朝霧三丁目","koaza":"","lat":33.81656,"lng":130.732611,"zip":"8090021"},{"town":"朝霧四丁目","koaza":"","lat":33.815709,"lng":130.729305,"zip":"8090021"},{"town":"朝霧五丁目","koaza":"","lat":33.81421,"lng":130.733177,"zip":"8090021"},{"town":"池田一丁目","koaza":"","lat":33.813137,"lng":130.725635,"zip":"8090024"},{"town":"池田二丁目","koaza":"","lat":33.814686,"lng":130.727652,"zip":"8090024"},{"town":"岩瀬一丁目","koaza":"","lat":33.828614,"lng":130.712654,"zip":"8090011"},{"town":"岩瀬二丁目","koaza":"","lat":33.832656,"lng":130.709541,"zip":"8090011"},{"town":"岩瀬三丁目","koaza":"","lat":33.834602,"lng":130.713933,"zip":"8090011"},{"town":"岩瀬四丁目","koaza":"","lat":33.835888,"lng":130.709412,"zip":"8090011"},{"town":"岩瀬西町","koaza":"","lat":33.837445,"lng":130.704979,"zip":"8090041"},{"town":"扇ヶ浦一丁目","koaza":"","lat":33.817068,"lng":130.720602,"zip":"8090000"},{"town":"扇ヶ浦二丁目","koaza":"","lat":33.817149,"lng":130.723319,"zip":"8090000"},{"town":"扇ヶ浦三丁目","koaza":"","lat":33.816786,"lng":130.725594,"zip":"8090000"},{"town":"扇ヶ浦四丁目","koaza":"","lat":33.819942,"lng":130.72305,"zip":"8090000"},{"town":"大字上底井野","koaza":"","lat":33.818511,"lng":130.687324,"zip":"8090000"},{"town":"大字下大隈","koaza":"","lat":33.808391,"lng":130.698983,"zip":"8090000"},{"town":"大字中底井野","koaza":"","lat":33.823941,"lng":130.677307,"zip":"8090000"},{"town":"大字垣生","koaza":"","lat":33.823414,"lng":130.696685,"zip":"8090000"},{"town":"大辻町","koaza":"","lat":33.8085,"lng":130.725338,"zip":"8090026"},{"town":"大根土","koaza":"","lat":33.822766,"lng":130.717337,"zip":"8090039"},{"town":"小田ヶ浦一丁目","koaza":"","lat":33.81119,"lng":130.719092,"zip":"8090000"},{"town":"小田ヶ浦二丁目","koaza":"","lat":33.81254,"lng":130.721369,"zip":"8090000"},{"town":"上蓮花寺一丁目","koaza":"","lat":33.823564,"lng":130.723483,"zip":"8090013"},{"town":"上蓮花寺二丁目","koaza":"","lat":33.821897,"lng":130.722994,"zip":"8090013"},{"town":"上蓮花寺三丁目","koaza":"","lat":33.823027,"lng":130.722139,"zip":"8090013"},{"town":"上蓮花寺四丁目","koaza":"","lat":33.823496,"lng":130.721418,"zip":"8090013"},{"town":"桜台一丁目","koaza":"","lat":33.821002,"lng":130.737037,"zip":"8090017"},{"town":"桜台二丁目","koaza":"","lat":33.819414,"lng":130.740787,"zip":"8090017"},{"town":"浄花町","koaza":"","lat":33.829141,"lng":130.69919,"zip":"8090038"},{"town":"太賀一丁目","koaza":"","lat":33.824712,"lng":130.725835,"zip":"8090015"},{"town":"太賀二丁目","koaza":"","lat":33.825986,"lng":130.727397,"zip":"8090015"},{"town":"太賀三丁目","koaza":"","lat":33.827537,"lng":130.727747,"zip":"8090015"},{"town":"太賀四丁目","koaza":"","lat":33.829683,"lng":130.727037,"zip":"8090015"},{"town":"中央一丁目","koaza":"","lat":33.82016,"lng":130.714069,"zip":"8090030"},{"town":"中央二丁目","koaza":"","lat":33.825993,"lng":130.711156,"zip":"8090030"},{"town":"中央三丁目","koaza":"","lat":33.824824,"lng":130.713552,"zip":"8090030"},{"town":"中央四丁目","koaza":"","lat":33.824055,"lng":130.716583,"zip":"8090030"},{"town":"中央五丁目","koaza":"","lat":33.82369,"lng":130.719618,"zip":"8090030"},{"town":"通谷一丁目","koaza":"","lat":33.823417,"lng":130.730699,"zip":"8090018"},{"town":"通谷二丁目","koaza":"","lat":33.820341,"lng":130.732822,"zip":"8090018"},{"town":"通谷三丁目","koaza":"","lat":33.81821,"lng":130.734336,"zip":"8090018"},{"town":"通谷四丁目","koaza":"","lat":33.817535,"lng":130.737229,"zip":"8090018"},{"town":"通谷五丁目","koaza":"","lat":33.81528,"lng":130.73832,"zip":"8090018"},{"town":"通谷六丁目","koaza":"","lat":33.817767,"lng":130.740245,"zip":"8090018"},{"town":"土手ノ内一丁目","koaza":"","lat":33.80827,"lng":130.707054,"zip":"8090033"},{"town":"土手ノ内二丁目","koaza":"","lat":33.809204,"lng":130.710357,"zip":"8090033"},{"town":"土手ノ内三丁目","koaza":"","lat":33.808577,"lng":130.713681,"zip":"8090033"},{"town":"中尾一丁目","koaza":"","lat":33.816273,"lng":130.71434,"zip":"8090032"},{"town":"中尾二丁目","koaza":"","lat":33.810967,"lng":130.715475,"zip":"8090032"},{"town":"中尾三丁目","koaza":"","lat":33.814099,"lng":130.717049,"zip":"8090032"},{"town":"中尾四丁目","koaza":"","lat":33.815807,"lng":130.717619,"zip":"8090032"},{"town":"長津一丁目","koaza":"","lat":33.823556,"lng":130.706715,"zip":"8090036"},{"town":"長津二丁目","koaza":"","lat":33.827814,"lng":130.707279,"zip":"8090036"},{"town":"長津三丁目","koaza":"","lat":33.831833,"lng":130.70597,"zip":"8090036"},{"town":"中鶴一丁目","koaza":"","lat":33.826725,"lng":130.702524,"zip":"8090037"},{"town":"中鶴二丁目","koaza":"","lat":33.830477,"lng":130.702739,"zip":"8090037"},{"town":"中鶴三丁目","koaza":"","lat":33.831285,"lng":130.700556,"zip":"8090037"},{"town":"中鶴四丁目","koaza":"","lat":33.83272,"lng":130.701756,"zip":"8090037"},{"town":"中間一丁目","koaza":"","lat":33.818822,"lng":130.708474,"zip":"8090034"},{"town":"中間二丁目","koaza":"","lat":33.814467,"lng":130.708725,"zip":"8090034"},{"town":"中間三丁目","koaza":"","lat":33.814842,"lng":130.712242,"zip":"8090034"},{"town":"中間四丁目","koaza":"","lat":33.820779,"lng":130.709766,"zip":"8090034"},{"town":"七重町","koaza":"","lat":33.804955,"lng":130.723465,"zip":"8090027"},{"town":"鍋山町","koaza":"","lat":33.820857,"lng":130.726098,"zip":"8090022"},{"town":"東中間一丁目","koaza":"","lat":33.817566,"lng":130.716131,"zip":"8090019"},{"town":"東中間二丁目","koaza":"","lat":33.819345,"lng":130.718136,"zip":"8090019"},{"town":"東中間三丁目","koaza":"","lat":33.821563,"lng":130.720552,"zip":"8090019"},{"town":"深坂一丁目","koaza":"","lat":33.810494,"lng":130.727387,"zip":"8090025"},{"town":"深坂二丁目","koaza":"","lat":33.812426,"lng":130.729024,"zip":"8090025"},{"town":"星ヶ丘","koaza":"","lat":33.821183,"lng":130.734916,"zip":"8090000"},{"town":"松ヶ岡","koaza":"","lat":33.81623,"lng":130.720537,"zip":"8090000"},{"town":"弥生一丁目","koaza":"","lat":33.809204,"lng":130.720855,"zip":"8090028"},{"town":"弥生二丁目","koaza":"","lat":33.810741,"lng":130.7237,"zip":"8090028"},{"town":"蓮花寺一丁目","koaza":"","lat":33.828077,"lng":130.725113,"zip":"8090014"},{"town":"蓮花寺二丁目","koaza":"","lat":33.829225,"lng":130.722469,"zip":"8090014"},{"town":"蓮花寺三丁目","koaza":"","lat":33.830051,"lng":130.7186,"zip":"8090014"}]