[{"town":"合川町","koaza":"","lat":33.313495,"lng":130.538246,"zip":"8390861"},{"town":"朝妻町","koaza":"","lat":33.312147,"lng":130.546699,"zip":"8390843"},{"town":"旭町","koaza":"","lat":33.326481,"lng":130.510382,"zip":"8300011"},{"town":"洗町","koaza":"","lat":33.325286,"lng":130.502135,"zip":"8300029"},{"town":"荒木町荒木","koaza":"","lat":33.262928,"lng":130.499834,"zip":"8300063"},{"town":"荒木町今","koaza":"","lat":33.254349,"lng":130.494259,"zip":"8300065"},{"town":"荒木町下荒木","koaza":"","lat":33.269319,"lng":130.48971,"zip":"8300066"},{"town":"荒木町白口","koaza":"","lat":33.282383,"lng":130.500411,"zip":"8300062"},{"town":"荒木町藤田","koaza":"","lat":33.26054,"lng":130.533656,"zip":"8300064"},{"town":"梅満町","koaza":"","lat":33.308174,"lng":130.495508,"zip":"8300048"},{"town":"江戸屋敷一丁目","koaza":"","lat":33.290429,"lng":130.512343,"zip":"8300059"},{"town":"江戸屋敷二丁目","koaza":"","lat":33.289488,"lng":130.515417,"zip":"8300059"},{"town":"大石町","koaza":"","lat":33.314534,"lng":130.493616,"zip":"8300049"},{"town":"大手町","koaza":"","lat":33.313554,"lng":130.524422,"zip":"8300034"},{"town":"大橋町合楽","koaza":"","lat":33.335087,"lng":130.636108,"zip":"8390832"},{"town":"大橋町常持","koaza":"","lat":33.332164,"lng":130.631437,"zip":"8390833"},{"town":"大橋町蜷川","koaza":"","lat":33.343644,"lng":130.629147,"zip":"8390831"},{"town":"上津一丁目","koaza":"","lat":33.288001,"lng":130.526886,"zip":"8300055"},{"town":"上津二丁目","koaza":"","lat":33.284337,"lng":130.529278,"zip":"8300055"},{"town":"上津町","koaza":"","lat":33.2811,"lng":130.532463,"zip":"8300052"},{"town":"北野町赤司","koaza":"","lat":33.360346,"lng":130.601839,"zip":"8301127"},{"town":"北野町石崎","koaza":"","lat":33.332397,"lng":130.565133,"zip":"8301116"},{"town":"北野町稲数","koaza":"","lat":33.364959,"lng":130.599178,"zip":"8301126"},{"town":"北野町今山","koaza":"","lat":33.353287,"lng":130.581395,"zip":"8301122"},{"town":"北野町大城","koaza":"","lat":33.339496,"lng":130.619772,"zip":"8301104"},{"town":"北野町乙丸","koaza":"","lat":33.358147,"lng":130.610825,"zip":"8301125"},{"town":"北野町乙吉","koaza":"","lat":33.35244,"lng":130.610824,"zip":"8301124"},{"town":"北野町金島","koaza":"","lat":33.347551,"lng":130.616421,"zip":"8301103"},{"town":"北野町上弓削","koaza":"","lat":33.335777,"lng":130.560773,"zip":"8301117"},{"town":"北野町高良","koaza":"","lat":33.335191,"lng":130.57407,"zip":"8301114"},{"town":"北野町十郎丸","koaza":"","lat":33.348325,"lng":130.572694,"zip":"8301121"},{"town":"北野町陣屋","koaza":"","lat":33.357745,"lng":130.592819,"zip":"8301112"},{"town":"北野町千代島","koaza":"","lat":33.343447,"lng":130.592416,"zip":"8301111"},{"town":"北野町塚島","koaza":"","lat":33.345907,"lng":130.603416,"zip":"8301107"},{"town":"北野町冨多","koaza":"","lat":33.364422,"lng":130.611836,"zip":"8301123"},{"town":"北野町鳥巣","koaza":"","lat":33.332923,"lng":130.583764,"zip":"8301115"},{"town":"北野町中","koaza":"","lat":33.354916,"lng":130.587281,"zip":"8301113"},{"town":"北野町中川","koaza":"","lat":33.361367,"lng":130.624687,"zip":"8301101"},{"town":"北野町中島","koaza":"","lat":33.340394,"lng":130.594101,"zip":"8301105"},{"town":"北野町仁王丸","koaza":"","lat":33.350731,"lng":130.600096,"zip":"8301106"},{"town":"北野町守部","koaza":"","lat":33.359985,"lng":130.618066,"zip":"8390000"},{"town":"北野町八重亀","koaza":"","lat":33.35486,"lng":130.621925,"zip":"8301102"},{"town":"京町","koaza":"","lat":33.322024,"lng":130.498496,"zip":"8300028"},{"town":"草野町草野","koaza":"","lat":33.312298,"lng":130.638482,"zip":"8390835"},{"town":"草野町紅桃林","koaza":"","lat":33.321767,"lng":130.640921,"zip":"8390834"},{"town":"草野町矢作","koaza":"","lat":33.315292,"lng":130.627392,"zip":"8390837"},{"town":"草野町吉木","koaza":"","lat":33.307507,"lng":130.622589,"zip":"8390836"},{"town":"櫛原町","koaza":"","lat":33.319205,"lng":130.514914,"zip":"8300013"},{"town":"高良内町","koaza":"","lat":33.284109,"lng":130.589883,"zip":"8390852"},{"town":"小頭町","koaza":"","lat":33.311235,"lng":130.511283,"zip":"8300045"},{"town":"国分町","koaza":"","lat":33.294703,"lng":130.53665,"zip":"8390863"},{"town":"小森野一丁目","koaza":"","lat":33.333946,"lng":130.510355,"zip":"8300001"},{"town":"小森野二丁目","koaza":"","lat":33.338001,"lng":130.509275,"zip":"8300001"},{"town":"小森野三丁目","koaza":"","lat":33.341393,"lng":130.510019,"zip":"8300001"},{"town":"小森野四丁目","koaza":"","lat":33.334706,"lng":130.517885,"zip":"8300001"},{"town":"小森野五丁目","koaza":"","lat":33.340726,"lng":130.515842,"zip":"8300001"},{"town":"小森野六丁目","koaza":"","lat":33.337109,"lng":130.522415,"zip":"8300001"},{"town":"小森野七丁目","koaza":"","lat":33.338232,"lng":130.528467,"zip":"8300001"},{"town":"小森野町","koaza":"","lat":33.330769,"lng":130.509454,"zip":"8300019"},{"town":"篠山町","koaza":"","lat":33.324572,"lng":130.506367,"zip":"8300021"},{"town":"篠原町","koaza":"","lat":33.312463,"lng":130.525417,"zip":"8300036"},{"town":"荘島町","koaza":"","lat":33.314451,"lng":130.505668,"zip":"8300042"},{"town":"城島町青木島","koaza":"","lat":33.244908,"lng":130.396367,"zip":"8300222"},{"town":"城島町芦塚","koaza":"","lat":33.285696,"lng":130.433721,"zip":"8300201"},{"town":"城島町浮島","koaza":"","lat":33.252991,"lng":130.395336,"zip":"8300221"},{"town":"城島町内野","koaza":"","lat":33.261974,"lng":130.433647,"zip":"8300204"},{"town":"城島町江上","koaza":"","lat":33.234046,"lng":130.432056,"zip":"8300213"},{"town":"城島町江上上","koaza":"","lat":33.242026,"lng":130.436437,"zip":"8300212"},{"town":"城島町江上本","koaza":"","lat":33.233651,"lng":130.421651,"zip":"8300214"},{"town":"城島町江島","koaza":"","lat":33.247752,"lng":130.413159,"zip":"8300216"},{"town":"城島町大依","koaza":"","lat":33.251592,"lng":130.438664,"zip":"8300205"},{"town":"城島町上青木","koaza":"","lat":33.242409,"lng":130.41075,"zip":"8300224"},{"town":"城島町下青木","koaza":"","lat":33.234927,"lng":130.405674,"zip":"8300225"},{"town":"城島町下田","koaza":"","lat":33.270511,"lng":130.42411,"zip":"8300202"},{"town":"城島町城島","koaza":"","lat":33.257725,"lng":130.428996,"zip":"8300207"},{"town":"城島町四郎丸","koaza":"","lat":33.244128,"lng":130.406131,"zip":"8300223"},{"town":"城島町楢津","koaza":"","lat":33.25278,"lng":130.421494,"zip":"8300211"},{"town":"城島町西青木","koaza":"","lat":33.237372,"lng":130.395024,"zip":"8300226"},{"town":"城島町浜","koaza":"","lat":33.266889,"lng":130.42944,"zip":"8300203"},{"town":"城島町原中牟田","koaza":"","lat":33.243281,"lng":130.424234,"zip":"8300215"},{"town":"城島町六町原","koaza":"","lat":33.248246,"lng":130.434706,"zip":"8300206"},{"town":"城南町","koaza":"","lat":33.320946,"lng":130.506326,"zip":"8300022"},{"town":"白山町","koaza":"","lat":33.314707,"lng":130.499843,"zip":"8300041"},{"town":"新合川一丁目","koaza":"","lat":33.322661,"lng":130.539389,"zip":"8390865"},{"town":"新合川二丁目","koaza":"","lat":33.318915,"lng":130.540711,"zip":"8390865"},{"town":"諏訪野町","koaza":"","lat":33.3065,"lng":130.524725,"zip":"8300037"},{"town":"青峰一丁目","koaza":"","lat":33.285783,"lng":130.560107,"zip":"8390853"},{"town":"青峰二丁目","koaza":"","lat":33.284106,"lng":130.563311,"zip":"8390853"},{"town":"青峰三丁目","koaza":"","lat":33.281038,"lng":130.559197,"zip":"8390853"},{"town":"瀬下町","koaza":"","lat":33.317577,"lng":130.492888,"zip":"8300025"},{"town":"善導寺町飯田","koaza":"","lat":33.331112,"lng":130.607469,"zip":"8390824"},{"town":"善導寺町木塚","koaza":"","lat":33.327826,"lng":130.590987,"zip":"8390822"},{"town":"善導寺町島","koaza":"","lat":33.327278,"lng":130.622568,"zip":"8390825"},{"town":"善導寺町与田","koaza":"","lat":33.330301,"lng":130.59935,"zip":"8390823"},{"town":"大善寺大橋一丁目","koaza":"","lat":33.272773,"lng":130.477642,"zip":"8300079"},{"town":"大善寺町黒田","koaza":"","lat":33.269057,"lng":130.453592,"zip":"8300075"},{"town":"大善寺町中津","koaza":"","lat":33.277247,"lng":130.450635,"zip":"8300077"},{"town":"大善寺町藤吉","koaza":"","lat":33.272139,"lng":130.458724,"zip":"8300076"},{"town":"大善寺町宮本","koaza":"","lat":33.278859,"lng":130.479976,"zip":"8300073"},{"town":"大善寺町夜明","koaza":"","lat":33.270435,"lng":130.466289,"zip":"8300074"},{"town":"大善寺南一丁目","koaza":"","lat":33.269666,"lng":130.476057,"zip":"8300070"},{"town":"大善寺南二丁目","koaza":"","lat":33.270574,"lng":130.479451,"zip":"8300070"},{"town":"太郎原町","koaza":"","lat":33.322124,"lng":130.579146,"zip":"8390821"},{"town":"高野一丁目","koaza":"","lat":33.330498,"lng":130.524145,"zip":"8300002"},{"town":"高野二丁目","koaza":"","lat":33.33465,"lng":130.526577,"zip":"8300002"},{"town":"田主丸町秋成","koaza":"","lat":33.345158,"lng":130.716904,"zip":"8391203"},{"town":"田主丸町朝森","koaza":"","lat":33.352413,"lng":130.671238,"zip":"8391227"},{"town":"田主丸町石垣","koaza":"","lat":33.322035,"lng":130.705791,"zip":"8391212"},{"town":"田主丸町以真恵","koaza":"","lat":33.34294,"lng":130.656614,"zip":"8391223"},{"town":"田主丸町恵利","koaza":"","lat":33.356816,"lng":130.669553,"zip":"8391228"},{"town":"田主丸町上原","koaza":"","lat":33.344515,"lng":130.672519,"zip":"8391221"},{"town":"田主丸町志塚島","koaza":"","lat":33.343673,"lng":130.664248,"zip":"8391222"},{"town":"田主丸町菅原","koaza":"","lat":33.353449,"lng":130.640795,"zip":"8391225"},{"town":"田主丸町鷹取","koaza":"","lat":33.344998,"lng":130.727025,"zip":"8391202"},{"town":"田主丸町竹野","koaza":"","lat":33.318795,"lng":130.660111,"zip":"8391215"},{"town":"田主丸町田主丸","koaza":"","lat":33.342607,"lng":130.693516,"zip":"8391233"},{"town":"田主丸町地徳","koaza":"","lat":33.319891,"lng":130.672924,"zip":"8391214"},{"town":"田主丸町常盤","koaza":"","lat":33.350553,"lng":130.699634,"zip":"8391232"},{"town":"田主丸町豊城","koaza":"","lat":33.346627,"lng":130.682656,"zip":"8391234"},{"town":"田主丸町中尾","koaza":"","lat":33.318686,"lng":130.649738,"zip":"8391216"},{"town":"田主丸町長栖","koaza":"","lat":33.357239,"lng":130.719133,"zip":"8391201"},{"town":"田主丸町野田","koaza":"","lat":33.356706,"lng":130.68824,"zip":"8391231"},{"town":"田主丸町殖木","koaza":"","lat":33.343788,"lng":130.705666,"zip":"8391204"},{"town":"田主丸町船越","koaza":"","lat":33.355907,"lng":130.709369,"zip":"8391205"},{"town":"田主丸町牧","koaza":"","lat":33.342106,"lng":130.645648,"zip":"8391224"},{"town":"田主丸町益生田","koaza":"","lat":33.321172,"lng":130.68887,"zip":"8391213"},{"town":"田主丸町森部","koaza":"","lat":33.32136,"lng":130.719738,"zip":"8391211"},{"town":"田主丸町八幡","koaza":"","lat":33.35636,"lng":130.653972,"zip":"8391226"},{"town":"田主丸町吉本","koaza":"","lat":33.339029,"lng":130.72059,"zip":"8391206"},{"town":"中央町","koaza":"","lat":33.318042,"lng":130.505994,"zip":"8300023"},{"town":"津福今町","koaza":"","lat":33.29252,"lng":130.505188,"zip":"8300061"},{"town":"津福本町","koaza":"","lat":33.298169,"lng":130.50531,"zip":"8300047"},{"town":"寺町","koaza":"","lat":33.317831,"lng":130.520593,"zip":"8300014"},{"town":"天神町","koaza":"","lat":33.311293,"lng":130.521713,"zip":"8300033"},{"town":"東和町","koaza":"","lat":33.312036,"lng":130.523827,"zip":"8300035"},{"town":"通東町","koaza":"","lat":33.314724,"lng":130.522147,"zip":"8300016"},{"town":"通外町","koaza":"","lat":33.316652,"lng":130.525441,"zip":"8300005"},{"town":"通町","koaza":"","lat":33.316912,"lng":130.514886,"zip":"8300018"},{"town":"長門石一丁目","koaza":"","lat":33.322331,"lng":130.493191,"zip":"8300027"},{"town":"長門石二丁目","koaza":"","lat":33.329783,"lng":130.488488,"zip":"8300027"},{"town":"長門石三丁目","koaza":"","lat":33.327678,"lng":130.486935,"zip":"8300027"},{"town":"長門石四丁目","koaza":"","lat":33.331015,"lng":130.486164,"zip":"8300027"},{"town":"長門石五丁目","koaza":"","lat":33.330142,"lng":130.482763,"zip":"8300027"},{"town":"長門石町","koaza":"","lat":33.32487,"lng":130.484554,"zip":"8300026"},{"town":"縄手町","koaza":"","lat":33.318886,"lng":130.501202,"zip":"8300024"},{"town":"南薫西町","koaza":"","lat":33.318087,"lng":130.523129,"zip":"8300006"},{"town":"南薫町","koaza":"","lat":33.319638,"lng":130.525846,"zip":"8300004"},{"town":"西町","koaza":"","lat":33.302493,"lng":130.517368,"zip":"8300038"},{"town":"野中町","koaza":"","lat":33.307018,"lng":130.534955,"zip":"8390862"},{"town":"野伏間一丁目","koaza":"","lat":33.284809,"lng":130.512042,"zip":"8300058"},{"town":"花畑一丁目","koaza":"","lat":33.306033,"lng":130.513943,"zip":"8300039"},{"town":"花畑二丁目","koaza":"","lat":33.307198,"lng":130.517062,"zip":"8300039"},{"town":"花畑三丁目","koaza":"","lat":33.305257,"lng":130.51615,"zip":"8300039"},{"town":"原古賀町","koaza":"","lat":33.309742,"lng":130.510296,"zip":"8300046"},{"town":"東合川一丁目","koaza":"","lat":33.321875,"lng":130.547991,"zip":"8390809"},{"town":"東合川二丁目","koaza":"","lat":33.31975,"lng":130.547045,"zip":"8390809"},{"town":"東合川三丁目","koaza":"","lat":33.315925,"lng":130.551249,"zip":"8390809"},{"town":"東合川四丁目","koaza":"","lat":33.31616,"lng":130.555344,"zip":"8390809"},{"town":"東合川五丁目","koaza":"","lat":33.31921,"lng":130.555112,"zip":"8390809"},{"town":"東合川六丁目","koaza":"","lat":33.319565,"lng":130.557883,"zip":"8390809"},{"town":"東合川七丁目","koaza":"","lat":33.323691,"lng":130.554019,"zip":"8390809"},{"town":"東合川八丁目","koaza":"","lat":33.326763,"lng":130.55171,"zip":"8390809"},{"town":"東合川九丁目","koaza":"","lat":33.326846,"lng":130.5582,"zip":"8390809"},{"town":"東合川新町","koaza":"","lat":33.322847,"lng":130.557579,"zip":"8390808"},{"town":"東合川干出町","koaza":"","lat":33.324931,"lng":130.547528,"zip":"8390806"},{"town":"東合川町","koaza":"","lat":33.316526,"lng":130.547011,"zip":"8390807"},{"town":"東櫛原町","koaza":"","lat":33.323521,"lng":130.521087,"zip":"8300003"},{"town":"東町","koaza":"","lat":33.311437,"lng":130.518123,"zip":"8300032"},{"town":"日ノ出町","koaza":"","lat":33.322328,"lng":130.512867,"zip":"8300012"},{"town":"百年公園","koaza":"","lat":33.322145,"lng":130.53334,"zip":"8390864"},{"town":"日吉町","koaza":"","lat":33.315683,"lng":130.513445,"zip":"8300017"},{"town":"藤光一丁目","koaza":"","lat":33.284674,"lng":130.515056,"zip":"8300057"},{"town":"藤光町","koaza":"","lat":33.271769,"lng":130.518729,"zip":"8300054"},{"town":"藤山町","koaza":"","lat":33.270954,"lng":130.554282,"zip":"8300053"},{"town":"螢川町","koaza":"","lat":33.317268,"lng":130.517776,"zip":"8300015"},{"town":"本町","koaza":"","lat":33.311432,"lng":130.507605,"zip":"8300044"},{"town":"松ケ枝町","koaza":"","lat":33.31111,"lng":130.506115,"zip":"8300043"},{"town":"御井朝妻一丁目","koaza":"","lat":33.311451,"lng":130.550207,"zip":"8390842"},{"town":"御井旗崎一丁目","koaza":"","lat":33.313612,"lng":130.553555,"zip":"8390841"},{"town":"御井旗崎二丁目","koaza":"","lat":33.314456,"lng":130.557751,"zip":"8390841"},{"town":"御井旗崎三丁目","koaza":"","lat":33.317325,"lng":130.560265,"zip":"8390841"},{"town":"御井旗崎四丁目","koaza":"","lat":33.316646,"lng":130.563696,"zip":"8390841"},{"town":"御井旗崎五丁目","koaza":"","lat":33.31387,"lng":130.561592,"zip":"8390841"},{"town":"御井町","koaza":"","lat":33.300689,"lng":130.558901,"zip":"8390851"},{"town":"三潴町生岩","koaza":"","lat":33.233485,"lng":130.462368,"zip":"8300113"},{"town":"三潴町壱町原","koaza":"","lat":33.250487,"lng":130.448343,"zip":"8300115"},{"town":"三潴町清松","koaza":"","lat":33.25097,"lng":130.442398,"zip":"8300116"},{"town":"三潴町草場","koaza":"","lat":33.261002,"lng":130.442683,"zip":"8300105"},{"town":"三潴町高三潴","koaza":"","lat":33.256616,"lng":130.453879,"zip":"8300103"},{"town":"三潴町田川","koaza":"","lat":33.257862,"lng":130.480732,"zip":"8300102"},{"town":"三潴町玉満","koaza":"","lat":33.247531,"lng":130.466349,"zip":"8300112"},{"town":"三潴町西牟田","koaza":"","lat":33.243294,"lng":130.479963,"zip":"8300111"},{"town":"三潴町早津崎","koaza":"","lat":33.265198,"lng":130.474857,"zip":"8300101"},{"town":"三潴町原田","koaza":"","lat":33.257638,"lng":130.447328,"zip":"8300104"},{"town":"三潴町福光","koaza":"","lat":33.244113,"lng":130.45091,"zip":"8300114"},{"town":"南一丁目","koaza":"","lat":33.291261,"lng":130.518298,"zip":"8300006"},{"town":"南二丁目","koaza":"","lat":33.294534,"lng":130.52221,"zip":"8300006"},{"town":"南三丁目","koaza":"","lat":33.291744,"lng":130.523016,"zip":"8300006"},{"town":"南四丁目","koaza":"","lat":33.289433,"lng":130.523191,"zip":"8300006"},{"town":"宮ノ陣一丁目","koaza":"","lat":33.330089,"lng":130.529632,"zip":"8390801"},{"town":"宮ノ陣二丁目","koaza":"","lat":33.338607,"lng":130.533188,"zip":"8390801"},{"town":"宮ノ陣三丁目","koaza":"","lat":33.335676,"lng":130.538101,"zip":"8390801"},{"town":"宮ノ陣四丁目","koaza":"","lat":33.331779,"lng":130.537125,"zip":"8390801"},{"town":"宮ノ陣五丁目","koaza":"","lat":33.327328,"lng":130.533794,"zip":"8390801"},{"town":"宮ノ陣六丁目","koaza":"","lat":33.329131,"lng":130.542544,"zip":"8390801"},{"town":"宮ノ陣町大杜","koaza":"","lat":33.336879,"lng":130.546997,"zip":"8390803"},{"town":"宮ノ陣町五郎丸","koaza":"","lat":33.339787,"lng":130.539983,"zip":"8390802"},{"town":"宮ノ陣町八丁島","koaza":"","lat":33.349253,"lng":130.562092,"zip":"8390805"},{"town":"宮ノ陣町若松","koaza":"","lat":33.340723,"lng":130.554711,"zip":"8390804"},{"town":"六ツ門町","koaza":"","lat":33.312575,"lng":130.513775,"zip":"8300031"},{"town":"本山一丁目","koaza":"","lat":33.285676,"lng":130.518042,"zip":"8300056"},{"town":"本山二丁目","koaza":"","lat":33.285984,"lng":130.522302,"zip":"8300056"},{"town":"安武町住吉","koaza":"","lat":33.287573,"lng":130.473306,"zip":"8300078"},{"town":"安武町武島","koaza":"","lat":33.297998,"lng":130.467287,"zip":"8300071"},{"town":"安武町安武本","koaza":"","lat":33.293296,"lng":130.485898,"zip":"8300072"},{"town":"山川安居野一丁目","koaza":"","lat":33.320411,"lng":130.567838,"zip":"8390812"},{"town":"山川安居野二丁目","koaza":"","lat":33.321031,"lng":130.571633,"zip":"8390812"},{"town":"山川安居野三丁目","koaza":"","lat":33.316919,"lng":130.570425,"zip":"8390812"},{"town":"山川市ノ上町","koaza":"","lat":33.316966,"lng":130.574449,"zip":"8390813"},{"town":"山川追分一丁目","koaza":"","lat":33.315271,"lng":130.566278,"zip":"8390814"},{"town":"山川追分二丁目","koaza":"","lat":33.314579,"lng":130.5692,"zip":"8390814"},{"town":"山川沓形町","koaza":"","lat":33.31913,"lng":130.56168,"zip":"8390815"},{"town":"山川神代一丁目","koaza":"","lat":33.321525,"lng":130.561465,"zip":"8390811"},{"town":"山川神代二丁目","koaza":"","lat":33.32466,"lng":130.563095,"zip":"8390811"},{"town":"山川神代三丁目","koaza":"","lat":33.323322,"lng":130.565789,"zip":"8390811"},{"town":"山川野口町","koaza":"","lat":33.319262,"lng":130.56462,"zip":"8390816"},{"town":"山川町","koaza":"","lat":33.307513,"lng":130.565795,"zip":"8390817"},{"town":"山本町豊田","koaza":"","lat":33.304882,"lng":130.587251,"zip":"8390827"},{"town":"山本町耳納","koaza":"","lat":33.304759,"lng":130.608015,"zip":"8390826"},{"town":"東櫛原町","koaza":"サコノ","lat":33.324233,"lng":130.515452,"zip":"8300003"},{"town":"西町","koaza":"鞍打","lat":33.300064,"lng":130.515343,"zip":"8300038"},{"town":"東櫛原町","koaza":"亀甲","lat":33.32766,"lng":130.516803,"zip":"8300003"},{"town":"東櫛原町","koaza":"小高橋","lat":33.324142,"lng":130.519415,"zip":"8300003"},{"town":"東町","koaza":"上天神田","lat":33.312023,"lng":130.520777,"zip":"8300032"},{"town":"国分町","koaza":"野田","lat":33.299627,"lng":130.531009,"zip":"8390863"},{"town":"上津町","koaza":"中尾山","lat":33.275478,"lng":130.537502,"zip":"8300052"},{"town":"上津町","koaza":"赤坂","lat":33.276466,"lng":130.536688,"zip":"8300052"},{"town":"上津町","koaza":"向野","lat":33.267465,"lng":130.537808,"zip":"8300052"},{"town":"野中町","koaza":"東原","lat":33.304251,"lng":130.540366,"zip":"8390862"},{"town":"藤山町","koaza":"湯納楚","lat":33.261704,"lng":130.543527,"zip":"8300053"},{"town":"北野町高良","koaza":"七杖","lat":33.339054,"lng":130.574732,"zip":"8301114"}]