[{"town":"呰見","koaza":"","lat":33.678306,"lng":130.997909,"zip":"8240102"},{"town":"綾野","koaza":"","lat":33.671516,"lng":130.989195,"zip":"8240104"},{"town":"有久","koaza":"","lat":33.680957,"lng":130.990738,"zip":"8240106"},{"town":"勝山池田","koaza":"","lat":33.715603,"lng":130.901532,"zip":"8240818"},{"town":"勝山岩熊","koaza":"","lat":33.709625,"lng":130.891423,"zip":"8240817"},{"town":"勝山上田","koaza":"","lat":33.695922,"lng":130.92329,"zip":"8240821"},{"town":"勝山浦河内","koaza":"","lat":33.718743,"lng":130.876597,"zip":"8240814"},{"town":"勝山大久保","koaza":"","lat":33.679992,"lng":130.915204,"zip":"8240801"},{"town":"勝山上矢山","koaza":"","lat":33.732659,"lng":130.886739,"zip":"8240815"},{"town":"勝山黒田","koaza":"","lat":33.709554,"lng":130.924571,"zip":"8240822"},{"town":"勝山長川","koaza":"","lat":33.710189,"lng":130.898942,"zip":"8240812"},{"town":"勝山松田","koaza":"","lat":33.680064,"lng":130.893742,"zip":"8240802"},{"town":"勝山箕田","koaza":"","lat":33.697812,"lng":130.891869,"zip":"8240811"},{"town":"勝山宮原","koaza":"","lat":33.704506,"lng":130.890609,"zip":"8240813"},{"town":"勝山矢山","koaza":"","lat":33.717342,"lng":130.889478,"zip":"8240816"},{"town":"上坂","koaza":"","lat":33.66811,"lng":130.978733,"zip":"8240111"},{"town":"上原","koaza":"","lat":33.663459,"lng":130.983528,"zip":"8240112"},{"town":"彦徳","koaza":"","lat":33.680938,"lng":130.963671,"zip":"8240122"},{"town":"国作","koaza":"","lat":33.687229,"lng":130.987334,"zip":"8240125"},{"town":"国分","koaza":"","lat":33.679934,"lng":130.978372,"zip":"8240123"},{"town":"犀川鐙畑","koaza":"","lat":33.587902,"lng":130.923057,"zip":"8240214"},{"town":"犀川犬丸","koaza":"","lat":33.623749,"lng":130.974478,"zip":"8240242"},{"town":"犀川内垣","koaza":"","lat":33.637987,"lng":130.965981,"zip":"8240241"},{"town":"犀川生立","koaza":"","lat":33.655834,"lng":130.937396,"zip":"8240215"},{"town":"犀川扇谷","koaza":"","lat":33.534388,"lng":130.949919,"zip":"8240254"},{"town":"犀川大熊","koaza":"","lat":33.633688,"lng":130.932608,"zip":"8240212"},{"town":"犀川大坂","koaza":"","lat":33.653811,"lng":130.899771,"zip":"8240225"},{"town":"犀川大村","koaza":"","lat":33.654187,"lng":130.922994,"zip":"8240222"},{"town":"犀川上伊良原","koaza":"","lat":33.551137,"lng":130.945022,"zip":"8240252"},{"town":"犀川上高屋","koaza":"","lat":33.617306,"lng":130.944942,"zip":"8240202"},{"town":"犀川木井馬場","koaza":"","lat":33.620542,"lng":130.963332,"zip":"8240243"},{"town":"犀川喜多良","koaza":"","lat":33.608768,"lng":130.920614,"zip":"8240213"},{"town":"犀川木山","koaza":"","lat":33.66643,"lng":130.934582,"zip":"8240235"},{"town":"犀川崎山","koaza":"","lat":33.621906,"lng":130.910929,"zip":"8240224"},{"town":"犀川下伊良原","koaza":"","lat":33.578404,"lng":130.944352,"zip":"8240251"},{"town":"犀川下高屋","koaza":"","lat":33.639185,"lng":130.94806,"zip":"8240201"},{"town":"犀川末江","koaza":"","lat":33.644818,"lng":130.957723,"zip":"8240204"},{"town":"犀川続命院","koaza":"","lat":33.666201,"lng":130.951712,"zip":"8240203"},{"town":"犀川谷口","koaza":"","lat":33.658828,"lng":130.931641,"zip":"8240216"},{"town":"犀川花熊","koaza":"","lat":33.673411,"lng":130.949706,"zip":"8240233"},{"town":"犀川久富","koaza":"","lat":33.659667,"lng":130.959483,"zip":"8240205"},{"town":"犀川古川","koaza":"","lat":33.65228,"lng":130.948779,"zip":"8240217"},{"town":"犀川帆柱","koaza":"","lat":33.510431,"lng":130.958446,"zip":"8240253"},{"town":"犀川本庄","koaza":"","lat":33.645856,"lng":130.939311,"zip":"8240231"},{"town":"犀川八ツ溝","koaza":"","lat":33.656696,"lng":130.943721,"zip":"8240206"},{"town":"犀川柳瀬","koaza":"","lat":33.641641,"lng":130.917975,"zip":"8240223"},{"town":"犀川山鹿","koaza":"","lat":33.647532,"lng":130.929764,"zip":"8240221"},{"town":"犀川横瀬","koaza":"","lat":33.597383,"lng":130.95639,"zip":"8240244"},{"town":"下原","koaza":"","lat":33.672317,"lng":130.997712,"zip":"8240103"},{"town":"節丸","koaza":"","lat":33.643037,"lng":130.978264,"zip":"8240114"},{"town":"惣社","koaza":"","lat":33.686239,"lng":130.981513,"zip":"8240124"},{"town":"田中","koaza":"","lat":33.688671,"lng":130.993423,"zip":"8240107"},{"town":"徳政","koaza":"","lat":33.677869,"lng":130.986707,"zip":"8240105"},{"town":"徳永","koaza":"","lat":33.686474,"lng":130.998785,"zip":"8240101"},{"town":"豊津","koaza":"","lat":33.673691,"lng":130.972126,"zip":"8240121"},{"town":"光冨","koaza":"","lat":33.655479,"lng":130.978523,"zip":"8240115"},{"town":"吉岡","koaza":"","lat":33.662468,"lng":130.989831,"zip":"8240113"}]