[{"town":"新津一丁目","koaza":"","lat":33.754071,"lng":130.975388,"zip":"8000344"},{"town":"新津二丁目","koaza":"","lat":33.750411,"lng":130.976219,"zip":"8000344"},{"town":"新津三丁目","koaza":"","lat":33.750029,"lng":130.973899,"zip":"8000344"},{"town":"新津四丁目","koaza":"","lat":33.750007,"lng":130.97214,"zip":"8000344"},{"town":"磯浜町一丁目","koaza":"","lat":33.783174,"lng":130.984655,"zip":"8000313"},{"town":"磯浜町二丁目","koaza":"","lat":33.778528,"lng":130.985538,"zip":"8000313"},{"town":"大字集","koaza":"","lat":33.76814,"lng":130.964421,"zip":"8000300"},{"town":"大字雨窪","koaza":"","lat":33.791334,"lng":130.966519,"zip":"8000300"},{"town":"大字新津","koaza":"","lat":33.750547,"lng":130.966476,"zip":"8000300"},{"town":"大字稲光","koaza":"","lat":33.752698,"lng":130.938254,"zip":"8000300"},{"town":"大字岡崎","koaza":"","lat":33.740274,"lng":130.945686,"zip":"8000300"},{"town":"大字尾倉","koaza":"","lat":33.761909,"lng":130.966352,"zip":"8000300"},{"town":"大字上片島","koaza":"","lat":33.741286,"lng":130.954691,"zip":"8000300"},{"town":"大字苅田","koaza":"","lat":33.805785,"lng":130.980271,"zip":"8000300"},{"town":"大字葛川","koaza":"","lat":33.751399,"lng":130.947849,"zip":"8000300"},{"town":"大字黒添","koaza":"","lat":33.747354,"lng":130.928882,"zip":"8000300"},{"town":"大字下新津","koaza":"","lat":33.754321,"lng":130.981729,"zip":"8000300"},{"town":"大字下片島","koaza":"","lat":33.752297,"lng":130.955983,"zip":"8000300"},{"town":"大字鋤崎","koaza":"","lat":33.744348,"lng":130.938615,"zip":"8000300"},{"town":"大字谷","koaza":"","lat":33.758551,"lng":130.921835,"zip":"8000300"},{"town":"大字馬場","koaza":"","lat":33.779078,"lng":130.972679,"zip":"8000300"},{"town":"大字浜町","koaza":"","lat":33.766874,"lng":130.982149,"zip":"8000300"},{"town":"大字提","koaza":"","lat":33.788255,"lng":130.972767,"zip":"8000300"},{"town":"大字二崎","koaza":"","lat":33.746133,"lng":130.987197,"zip":"8000300"},{"town":"大字法正寺","koaza":"","lat":33.751242,"lng":130.917948,"zip":"8000300"},{"town":"大字松山","koaza":"","lat":33.803741,"lng":130.985412,"zip":"8000300"},{"town":"大字光国","koaza":"","lat":33.781674,"lng":130.966385,"zip":"8000300"},{"town":"大字南原","koaza":"","lat":33.775794,"lng":130.964109,"zip":"8000300"},{"town":"大字山口","koaza":"","lat":33.768421,"lng":130.936141,"zip":"8000300"},{"town":"大字与原","koaza":"","lat":33.754034,"lng":130.99236,"zip":"8000300"},{"town":"尾倉一丁目","koaza":"","lat":33.76537,"lng":130.977538,"zip":"8000353"},{"town":"尾倉二丁目","koaza":"","lat":33.762601,"lng":130.977006,"zip":"8000353"},{"town":"尾倉三丁目","koaza":"","lat":33.761597,"lng":130.978342,"zip":"8000353"},{"town":"尾倉四丁目","koaza":"","lat":33.761844,"lng":130.975405,"zip":"8000353"},{"town":"小波瀬一丁目","koaza":"","lat":33.758296,"lng":130.97653,"zip":"8000345"},{"town":"小波瀬二丁目","koaza":"","lat":33.755979,"lng":130.975991,"zip":"8000345"},{"town":"京町一丁目","koaza":"","lat":33.782181,"lng":130.981127,"zip":"8000351"},{"town":"京町二丁目","koaza":"","lat":33.77834,"lng":130.980934,"zip":"8000351"},{"town":"空港南町","koaza":"","lat":33.827802,"lng":131.035274,"zip":"8000305"},{"town":"近衛ヶ丘","koaza":"","lat":33.766106,"lng":130.976894,"zip":"8000300"},{"town":"幸町","koaza":"","lat":33.791659,"lng":130.984213,"zip":"8000314"},{"town":"桜ヶ丘","koaza":"","lat":33.757663,"lng":130.97385,"zip":"8000300"},{"town":"神田町一丁目","koaza":"","lat":33.785162,"lng":130.980752,"zip":"8000361"},{"town":"神田町二丁目","koaza":"","lat":33.79058,"lng":130.979783,"zip":"8000361"},{"town":"神田町三丁目","koaza":"","lat":33.794727,"lng":130.978632,"zip":"8000361"},{"town":"新浜町","koaza":"","lat":33.767125,"lng":131.00061,"zip":"8000321"},{"town":"殿川町","koaza":"","lat":33.772389,"lng":130.986106,"zip":"8000312"},{"town":"富久町一丁目","koaza":"","lat":33.77378,"lng":130.979485,"zip":"8000352"},{"town":"富久町二丁目","koaza":"","lat":33.769359,"lng":130.978383,"zip":"8000352"},{"town":"鳥越町","koaza":"","lat":33.809418,"lng":131.003306,"zip":"8000304"},{"town":"長浜町","koaza":"","lat":33.782072,"lng":130.995314,"zip":"8000311"},{"town":"松原町","koaza":"","lat":33.799002,"lng":130.98479,"zip":"8000301"},{"town":"港町","koaza":"","lat":33.789228,"lng":130.992804,"zip":"8000315"},{"town":"与原一丁目","koaza":"","lat":33.758462,"lng":130.979415,"zip":"8000323"},{"town":"与原二丁目","koaza":"","lat":33.755754,"lng":130.979852,"zip":"8000323"},{"town":"与原三丁目","koaza":"","lat":33.752875,"lng":130.979433,"zip":"8000323"},{"town":"若久町一丁目","koaza":"","lat":33.795872,"lng":130.97581,"zip":"8000302"},{"town":"若久町二丁目","koaza":"","lat":33.79778,"lng":130.972024,"zip":"8000302"},{"town":"若久町三丁目","koaza":"","lat":33.800025,"lng":130.975151,"zip":"8000302"},{"town":"大字下新津","koaza":"淀野","lat":33.753187,"lng":130.981726,"zip":"8000300"}]