[{"town":"稲富","koaza":"","lat":33.207555,"lng":130.549345,"zip":"8340047"},{"town":"井延","koaza":"","lat":33.219271,"lng":130.587508,"zip":"8340026"},{"town":"今福","koaza":"","lat":33.228701,"lng":130.535466,"zip":"8340061"},{"town":"岩崎","koaza":"","lat":33.222308,"lng":130.547252,"zip":"8340062"},{"town":"鵜池","koaza":"","lat":33.205915,"lng":130.526495,"zip":"8340055"},{"town":"大籠","koaza":"","lat":33.223067,"lng":130.602113,"zip":"8340013"},{"town":"大島","koaza":"","lat":33.219825,"lng":130.562655,"zip":"8340005"},{"town":"緒玉","koaza":"","lat":33.199266,"lng":130.549507,"zip":"8340041"},{"town":"蒲原","koaza":"","lat":33.216936,"lng":130.543699,"zip":"8340064"},{"town":"亀甲","koaza":"","lat":33.21713,"lng":130.533694,"zip":"8340065"},{"town":"川犬","koaza":"","lat":33.188025,"lng":130.53893,"zip":"8340053"},{"town":"北田形","koaza":"","lat":33.212584,"lng":130.614358,"zip":"8340021"},{"town":"祈祷院","koaza":"","lat":33.213727,"lng":130.587102,"zip":"8340025"},{"town":"国武","koaza":"","lat":33.201061,"lng":130.544339,"zip":"8340046"},{"town":"黒木町今","koaza":"","lat":33.221815,"lng":130.671099,"zip":"8341221"},{"town":"黒木町大淵","koaza":"","lat":33.161857,"lng":130.734923,"zip":"8341202"},{"town":"黒木町鹿子生","koaza":"","lat":33.176888,"lng":130.6433,"zip":"8341212"},{"town":"黒木町笠原","koaza":"","lat":33.218513,"lng":130.741788,"zip":"8341222"},{"town":"黒木町北大淵","koaza":"","lat":33.186294,"lng":130.761062,"zip":"8341201"},{"town":"黒木町北木屋","koaza":"","lat":33.205149,"lng":130.718595,"zip":"8341203"},{"town":"黒木町黒木","koaza":"","lat":33.212344,"lng":130.671383,"zip":"8341217"},{"town":"黒木町桑原","koaza":"","lat":33.209617,"lng":130.665198,"zip":"8341216"},{"town":"黒木町木屋","koaza":"","lat":33.183846,"lng":130.68274,"zip":"8341204"},{"town":"黒木町田代","koaza":"","lat":33.155035,"lng":130.650527,"zip":"8341205"},{"town":"黒木町田本","koaza":"","lat":33.210355,"lng":130.640501,"zip":"8341214"},{"town":"黒木町土窪","koaza":"","lat":33.194341,"lng":130.642019,"zip":"8341211"},{"town":"黒木町本分","koaza":"","lat":33.216959,"lng":130.644322,"zip":"8341213"},{"town":"黒木町湯辺田","koaza":"","lat":33.211948,"lng":130.631909,"zip":"8341215"},{"town":"黒土","koaza":"","lat":33.22212,"lng":130.58722,"zip":"8340002"},{"town":"酒井田","koaza":"","lat":33.195653,"lng":130.556821,"zip":"8340042"},{"town":"上陽町上横山","koaza":"","lat":33.275146,"lng":130.680249,"zip":"8341101"},{"town":"上陽町北川内","koaza":"","lat":33.236688,"lng":130.657721,"zip":"8341102"},{"town":"上陽町久木原","koaza":"","lat":33.257973,"lng":130.689425,"zip":"8341103"},{"town":"上陽町下横山","koaza":"","lat":33.267707,"lng":130.639318,"zip":"8341104"},{"town":"新庄","koaza":"","lat":33.198586,"lng":130.535949,"zip":"8340052"},{"town":"平","koaza":"","lat":33.193779,"lng":130.543568,"zip":"8340045"},{"town":"高塚","koaza":"","lat":33.203766,"lng":130.55872,"zip":"8340034"},{"town":"宅間田","koaza":"","lat":33.228062,"lng":130.567675,"zip":"8340001"},{"town":"忠見","koaza":"","lat":33.223485,"lng":130.594887,"zip":"8340014"},{"town":"立花町兼松","koaza":"","lat":33.182567,"lng":130.597269,"zip":"8340082"},{"town":"立花町上辺春","koaza":"","lat":33.131847,"lng":130.619663,"zip":"8340083"},{"town":"立花町北山","koaza":"","lat":33.175206,"lng":130.573799,"zip":"8340085"},{"town":"立花町下辺春","koaza":"","lat":33.169908,"lng":130.616153,"zip":"8340073"},{"town":"立花町白木","koaza":"","lat":33.140882,"lng":130.574795,"zip":"8340084"},{"town":"立花町田形","koaza":"","lat":33.206863,"lng":130.62097,"zip":"8340071"},{"town":"立花町谷川","koaza":"","lat":33.203543,"lng":130.603176,"zip":"8340074"},{"town":"立花町遠久谷","koaza":"","lat":33.189273,"lng":130.624822,"zip":"8340072"},{"town":"立花町原島","koaza":"","lat":33.206581,"lng":130.590496,"zip":"8340075"},{"town":"立花町山崎","koaza":"","lat":33.194072,"lng":130.581386,"zip":"8340081"},{"town":"龍ケ原","koaza":"","lat":33.223442,"lng":130.53265,"zip":"8340067"},{"town":"立野","koaza":"","lat":33.206815,"lng":130.540009,"zip":"8340051"},{"town":"津江","koaza":"","lat":33.211894,"lng":130.578546,"zip":"8340024"},{"town":"豊福","koaza":"","lat":33.23227,"lng":130.577235,"zip":"8340016"},{"town":"長野","koaza":"","lat":33.230106,"lng":130.625594,"zip":"8340011"},{"town":"納楚","koaza":"","lat":33.21691,"lng":130.570748,"zip":"8340004"},{"town":"馬場","koaza":"","lat":33.208579,"lng":130.568646,"zip":"8340023"},{"town":"光","koaza":"","lat":33.192348,"lng":130.550525,"zip":"8340043"},{"town":"平田","koaza":"","lat":33.219022,"lng":130.579149,"zip":"8340003"},{"town":"星野村","koaza":"","lat":33.249598,"lng":130.761118,"zip":"8340201"},{"town":"本","koaza":"","lat":33.232916,"lng":130.593742,"zip":"8340015"},{"town":"前古賀","koaza":"","lat":33.203442,"lng":130.532346,"zip":"8340054"},{"town":"宮野","koaza":"","lat":33.200095,"lng":130.564904,"zip":"8340032"},{"town":"室岡","koaza":"","lat":33.217471,"lng":130.527158,"zip":"8340066"},{"town":"本町","koaza":"","lat":33.209529,"lng":130.558273,"zip":"8340031"},{"town":"本村","koaza":"","lat":33.216575,"lng":130.55516,"zip":"8340063"},{"town":"柳島","koaza":"","lat":33.21381,"lng":130.600106,"zip":"8340022"},{"town":"柳瀬","koaza":"","lat":33.19229,"lng":130.562455,"zip":"8340033"},{"town":"矢原","koaza":"","lat":33.186064,"lng":130.548192,"zip":"8340044"},{"town":"矢部村北矢部","koaza":"","lat":33.1626,"lng":130.83596,"zip":"8341401"},{"town":"矢部村矢部","koaza":"","lat":33.139261,"lng":130.803791,"zip":"8341402"},{"town":"山内","koaza":"","lat":33.225157,"lng":130.610639,"zip":"8340012"},{"town":"吉田","koaza":"","lat":33.226978,"lng":130.557492,"zip":"8340006"},{"town":"龍ケ原","koaza":"若草","lat":33.22482,"lng":130.530441,"zip":"8340067"},{"town":"蒲原","koaza":"大島","lat":33.217171,"lng":130.541913,"zip":"8340064"},{"town":"本村","koaza":"筒川","lat":33.21666,"lng":130.553997,"zip":"8340063"},{"town":"大島","koaza":"深町","lat":33.216625,"lng":130.563191,"zip":"8340005"},{"town":"津江","koaza":"津江","lat":33.21483,"lng":130.574581,"zip":"8340024"}]