[{"town":"旭町","koaza":"","lat":33.8977,"lng":130.824288,"zip":"8040083"},{"town":"浅生一丁目","koaza":"","lat":33.891078,"lng":130.828165,"zip":"8040062"},{"town":"浅生二丁目","koaza":"","lat":33.894174,"lng":130.826447,"zip":"8040062"},{"town":"浅生三丁目","koaza":"","lat":33.892846,"lng":130.825404,"zip":"8040062"},{"town":"一枝一丁目","koaza":"","lat":33.886241,"lng":130.837682,"zip":"8040021"},{"town":"一枝二丁目","koaza":"","lat":33.885258,"lng":130.839968,"zip":"8040021"},{"town":"一枝三丁目","koaza":"","lat":33.884611,"lng":130.841868,"zip":"8040021"},{"town":"一枝四丁目","koaza":"","lat":33.882232,"lng":130.840634,"zip":"8040021"},{"town":"大字戸畑","koaza":"","lat":33.914852,"lng":130.831779,"zip":"8040000"},{"town":"大字中原","koaza":"","lat":33.910357,"lng":130.845989,"zip":"8040000"},{"town":"沖台一丁目","koaza":"","lat":33.888831,"lng":130.82848,"zip":"8040064"},{"town":"沖台二丁目","koaza":"","lat":33.89216,"lng":130.823321,"zip":"8040064"},{"town":"川代一丁目","koaza":"","lat":33.902626,"lng":130.824299,"zip":"8040071"},{"town":"川代二丁目","koaza":"","lat":33.90412,"lng":130.820803,"zip":"8040071"},{"town":"観音寺町","koaza":"","lat":33.883877,"lng":130.831048,"zip":"8040043"},{"town":"北鳥旗町","koaza":"","lat":33.900472,"lng":130.820439,"zip":"8040075"},{"town":"銀座一丁目","koaza":"","lat":33.897562,"lng":130.81832,"zip":"8040076"},{"town":"銀座二丁目","koaza":"","lat":33.899141,"lng":130.81761,"zip":"8040076"},{"town":"小芝一丁目","koaza":"","lat":33.892189,"lng":130.835066,"zip":"8040092"},{"town":"小芝二丁目","koaza":"","lat":33.896031,"lng":130.83627,"zip":"8040092"},{"town":"小芝三丁目","koaza":"","lat":33.899245,"lng":130.837243,"zip":"8040092"},{"town":"金比羅町","koaza":"","lat":33.877816,"lng":130.839277,"zip":"8040022"},{"town":"幸町","koaza":"","lat":33.898731,"lng":130.82556,"zip":"8040084"},{"town":"境川一丁目","koaza":"","lat":33.889036,"lng":130.843091,"zip":"8040013"},{"town":"境川二丁目","koaza":"","lat":33.8929,"lng":130.844729,"zip":"8040013"},{"town":"沢見一丁目","koaza":"","lat":33.891295,"lng":130.837028,"zip":"8040093"},{"town":"沢見二丁目","koaza":"","lat":33.895193,"lng":130.837773,"zip":"8040093"},{"town":"三六町","koaza":"","lat":33.899514,"lng":130.835059,"zip":"8040091"},{"town":"椎ノ木町","koaza":"","lat":33.882992,"lng":130.82489,"zip":"8040033"},{"town":"汐井町","koaza":"","lat":33.896153,"lng":130.819534,"zip":"8040067"},{"town":"正津町","koaza":"","lat":33.889985,"lng":130.829605,"zip":"8040063"},{"town":"新池一丁目","koaza":"","lat":33.895126,"lng":130.828456,"zip":"8040082"},{"town":"新池二丁目","koaza":"","lat":33.897349,"lng":130.82803,"zip":"8040082"},{"town":"新池三丁目","koaza":"","lat":33.900011,"lng":130.828496,"zip":"8040082"},{"town":"新川町","koaza":"","lat":33.891243,"lng":130.822536,"zip":"8040065"},{"town":"菅原一丁目","koaza":"","lat":33.886865,"lng":130.828748,"zip":"8040044"},{"town":"菅原二丁目","koaza":"","lat":33.885517,"lng":130.826175,"zip":"8040044"},{"town":"菅原三丁目","koaza":"","lat":33.885478,"lng":130.829964,"zip":"8040044"},{"town":"菅原四丁目","koaza":"","lat":33.883248,"lng":130.828324,"zip":"8040044"},{"town":"仙水町","koaza":"","lat":33.891766,"lng":130.839924,"zip":"8040015"},{"town":"千防一丁目","koaza":"","lat":33.893542,"lng":130.830739,"zip":"8040081"},{"town":"千防二丁目","koaza":"","lat":33.896815,"lng":130.831744,"zip":"8040081"},{"town":"千防三丁目","koaza":"","lat":33.899819,"lng":130.83218,"zip":"8040081"},{"town":"高峰一丁目","koaza":"","lat":33.888147,"lng":130.825874,"zip":"8040051"},{"town":"高峰二丁目","koaza":"","lat":33.886638,"lng":130.82446,"zip":"8040051"},{"town":"高峰三丁目","koaza":"","lat":33.885494,"lng":130.822543,"zip":"8040051"},{"town":"土取町","koaza":"","lat":33.889876,"lng":130.842334,"zip":"8040014"},{"town":"天神一丁目","koaza":"","lat":33.892779,"lng":130.833042,"zip":"8040094"},{"town":"天神二丁目","koaza":"","lat":33.8964,"lng":130.834275,"zip":"8040094"},{"town":"天籟寺一丁目","koaza":"","lat":33.889556,"lng":130.833362,"zip":"8040041"},{"town":"天籟寺二丁目","koaza":"","lat":33.888491,"lng":130.831626,"zip":"8040041"},{"town":"飛幡町","koaza":"","lat":33.904459,"lng":130.826885,"zip":"8040001"},{"town":"中原新町","koaza":"","lat":33.901783,"lng":130.841052,"zip":"8040003"},{"town":"中原西一丁目","koaza":"","lat":33.898767,"lng":130.839314,"zip":"8040011"},{"town":"中原西二丁目","koaza":"","lat":33.897913,"lng":130.841473,"zip":"8040011"},{"town":"中原西三丁目","koaza":"","lat":33.896352,"lng":130.843152,"zip":"8040011"},{"town":"中原東一丁目","koaza":"","lat":33.896153,"lng":130.845572,"zip":"8040012"},{"town":"中原東二丁目","koaza":"","lat":33.898609,"lng":130.846079,"zip":"8040012"},{"town":"中原東三丁目","koaza":"","lat":33.896706,"lng":130.848881,"zip":"8040012"},{"town":"中原東四丁目","koaza":"","lat":33.90001,"lng":130.846195,"zip":"8040012"},{"town":"中本町","koaza":"","lat":33.896367,"lng":130.823294,"zip":"8040061"},{"town":"西大谷一丁目","koaza":"","lat":33.880722,"lng":130.82673,"zip":"8040032"},{"town":"西大谷二丁目","koaza":"","lat":33.878695,"lng":130.82374,"zip":"8040032"},{"town":"西鞘ケ谷町","koaza":"","lat":33.874746,"lng":130.829559,"zip":"8040024"},{"town":"初音町","koaza":"","lat":33.893928,"lng":130.820844,"zip":"8040066"},{"town":"東大谷一丁目","koaza":"","lat":33.879631,"lng":130.830735,"zip":"8040031"},{"town":"東大谷二丁目","koaza":"","lat":33.878945,"lng":130.826794,"zip":"8040031"},{"town":"東大谷三丁目","koaza":"","lat":33.875445,"lng":130.827064,"zip":"8040031"},{"town":"東鞘ケ谷町","koaza":"","lat":33.875497,"lng":130.834525,"zip":"8040023"},{"town":"福柳木一丁目","koaza":"","lat":33.881859,"lng":130.835754,"zip":"8040025"},{"town":"福柳木二丁目","koaza":"","lat":33.879866,"lng":130.835703,"zip":"8040025"},{"town":"牧山一丁目","koaza":"","lat":33.890951,"lng":130.814265,"zip":"8040053"},{"town":"牧山二丁目","koaza":"","lat":33.890007,"lng":130.815318,"zip":"8040053"},{"town":"牧山三丁目","koaza":"","lat":33.887598,"lng":130.816101,"zip":"8040053"},{"town":"牧山四丁目","koaza":"","lat":33.890868,"lng":130.812149,"zip":"8040053"},{"town":"牧山五丁目","koaza":"","lat":33.888022,"lng":130.810507,"zip":"8040053"},{"town":"牧山海岸","koaza":"","lat":33.891273,"lng":130.806356,"zip":"8040077"},{"town":"牧山新町","koaza":"","lat":33.89351,"lng":130.815654,"zip":"8040054"},{"town":"丸町一丁目","koaza":"","lat":33.889214,"lng":130.82255,"zip":"8040052"},{"town":"丸町二丁目","koaza":"","lat":33.890566,"lng":130.820176,"zip":"8040052"},{"town":"丸町三丁目","koaza":"","lat":33.888573,"lng":130.819159,"zip":"8040052"},{"town":"南鳥旗町","koaza":"","lat":33.89891,"lng":130.821015,"zip":"8040074"},{"town":"明治町","koaza":"","lat":33.899925,"lng":130.822819,"zip":"8040073"},{"town":"元宮町","koaza":"","lat":33.900234,"lng":130.824902,"zip":"8040072"},{"town":"夜宮一丁目","koaza":"","lat":33.887558,"lng":130.834635,"zip":"8040042"},{"town":"夜宮二丁目","koaza":"","lat":33.885495,"lng":130.832027,"zip":"8040042"},{"town":"夜宮三丁目","koaza":"","lat":33.884486,"lng":130.834606,"zip":"8040042"}]