[{"town":"青葉台","koaza":"","lat":33.885076,"lng":130.92079,"zip":"8000045"},{"town":"泉ケ丘","koaza":"","lat":33.891163,"lng":130.935003,"zip":"8000041"},{"town":"稲積一丁目","koaza":"","lat":33.888064,"lng":130.927841,"zip":"8000048"},{"town":"稲積二丁目","koaza":"","lat":33.886329,"lng":130.92896,"zip":"8000048"},{"town":"梅ノ木町","koaza":"","lat":33.908549,"lng":130.935677,"zip":"8000026"},{"town":"老松町","koaza":"","lat":33.946371,"lng":130.969312,"zip":"8010864"},{"town":"大字伊川","koaza":"","lat":33.911009,"lng":130.975146,"zip":"8000000"},{"town":"大字今津","koaza":"","lat":33.882254,"lng":130.983263,"zip":"8000000"},{"town":"大字大積","koaza":"","lat":33.930808,"lng":130.994236,"zip":"8000000"},{"town":"大字吉志","koaza":"","lat":33.871364,"lng":130.946266,"zip":"8000000"},{"town":"大字喜多久","koaza":"","lat":33.913683,"lng":130.999474,"zip":"8000000"},{"town":"大字黒川","koaza":"","lat":33.927466,"lng":130.961135,"zip":"8000000"},{"town":"大字小森江","koaza":"","lat":33.924526,"lng":130.950612,"zip":"8000000"},{"town":"大字猿喰","koaza":"","lat":33.894525,"lng":130.977856,"zip":"8000000"},{"town":"大字白野江","koaza":"","lat":33.945783,"lng":130.996794,"zip":"8000000"},{"town":"大字大里","koaza":"","lat":33.897065,"lng":130.948966,"zip":"8000000"},{"town":"大字田野浦","koaza":"","lat":33.955781,"lng":131.00053,"zip":"8000000"},{"town":"大字恒見","koaza":"","lat":33.855589,"lng":130.975604,"zip":"8000000"},{"town":"大字畑","koaza":"","lat":33.88451,"lng":130.963202,"zip":"8000000"},{"town":"大字柄杓田","koaza":"","lat":33.909314,"lng":130.99115,"zip":"8000000"},{"town":"大字門司","koaza":"","lat":33.935316,"lng":130.958284,"zip":"8000000"},{"town":"大久保一丁目","koaza":"","lat":33.956226,"lng":130.97417,"zip":"8010883"},{"town":"大久保二丁目","koaza":"","lat":33.955647,"lng":130.977268,"zip":"8010883"},{"town":"大久保三丁目","koaza":"","lat":33.954874,"lng":130.980371,"zip":"8010883"},{"town":"奥田一丁目","koaza":"","lat":33.910666,"lng":130.955907,"zip":"8000011"},{"town":"奥田二丁目","koaza":"","lat":33.908838,"lng":130.954638,"zip":"8000011"},{"town":"奥田三丁目","koaza":"","lat":33.908665,"lng":130.958631,"zip":"8000011"},{"town":"奥田四丁目","koaza":"","lat":33.913258,"lng":130.961046,"zip":"8000011"},{"town":"奥田五丁目","koaza":"","lat":33.914367,"lng":130.958975,"zip":"8000011"},{"town":"花月園","koaza":"","lat":33.948116,"lng":130.9786,"zip":"8010876"},{"town":"風師一丁目","koaza":"","lat":33.938707,"lng":130.951537,"zip":"8010801"},{"town":"風師二丁目","koaza":"","lat":33.937104,"lng":130.951671,"zip":"8010801"},{"town":"風師三丁目","koaza":"","lat":33.933889,"lng":130.948288,"zip":"8010801"},{"town":"風師四丁目","koaza":"","lat":33.929884,"lng":130.946755,"zip":"8010801"},{"town":"春日町","koaza":"","lat":33.930959,"lng":130.971413,"zip":"8010823"},{"town":"片上海岸","koaza":"","lat":33.930009,"lng":130.943013,"zip":"8000061"},{"town":"片上町","koaza":"","lat":33.924762,"lng":130.94519,"zip":"8000003"},{"town":"上二十町","koaza":"","lat":33.909244,"lng":130.945042,"zip":"8000016"},{"town":"上藤松一丁目","koaza":"","lat":33.881981,"lng":130.929774,"zip":"8000044"},{"town":"上藤松二丁目","koaza":"","lat":33.881494,"lng":130.926716,"zip":"8000044"},{"town":"上藤松三丁目","koaza":"","lat":33.882185,"lng":130.921325,"zip":"8000044"},{"town":"上本町","koaza":"","lat":33.946144,"lng":130.980234,"zip":"8010871"},{"town":"上馬寄一丁目","koaza":"","lat":33.890261,"lng":130.929576,"zip":"8000042"},{"town":"上馬寄二丁目","koaza":"","lat":33.888412,"lng":130.931647,"zip":"8000042"},{"town":"上馬寄三丁目","koaza":"","lat":33.885817,"lng":130.932211,"zip":"8000042"},{"town":"吉志一丁目","koaza":"","lat":33.871247,"lng":130.972825,"zip":"8000114"},{"town":"吉志二丁目","koaza":"","lat":33.865617,"lng":130.972225,"zip":"8000114"},{"town":"吉志三丁目","koaza":"","lat":33.865039,"lng":130.968348,"zip":"8000114"},{"town":"吉志四丁目","koaza":"","lat":33.86611,"lng":130.965157,"zip":"8000114"},{"town":"吉志五丁目","koaza":"","lat":33.865743,"lng":130.958729,"zip":"8000114"},{"town":"吉志六丁目","koaza":"","lat":33.868289,"lng":130.961416,"zip":"8000114"},{"town":"吉志七丁目","koaza":"","lat":33.870435,"lng":130.965297,"zip":"8000114"},{"town":"吉志新町一丁目","koaza":"","lat":33.869472,"lng":130.969786,"zip":"8000118"},{"town":"吉志新町二丁目","koaza":"","lat":33.871177,"lng":130.970369,"zip":"8000118"},{"town":"吉志新町三丁目","koaza":"","lat":33.874057,"lng":130.970285,"zip":"8000118"},{"town":"吉志新町四丁目","koaza":"","lat":33.872907,"lng":130.967349,"zip":"8000118"},{"town":"北川町","koaza":"","lat":33.921977,"lng":130.944578,"zip":"8000004"},{"town":"旧門司一丁目","koaza":"","lat":33.953231,"lng":130.967684,"zip":"8010854"},{"town":"旧門司二丁目","koaza":"","lat":33.956521,"lng":130.965581,"zip":"8010854"},{"town":"清滝一丁目","koaza":"","lat":33.94116,"lng":130.960264,"zip":"8010833"},{"town":"清滝二丁目","koaza":"","lat":33.94326,"lng":130.96179,"zip":"8010833"},{"town":"清滝三丁目","koaza":"","lat":33.941423,"lng":130.962664,"zip":"8010833"},{"town":"清滝四丁目","koaza":"","lat":33.942318,"lng":130.965168,"zip":"8010833"},{"town":"清滝五丁目","koaza":"","lat":33.94199,"lng":130.967105,"zip":"8010833"},{"town":"清見一丁目","koaza":"","lat":33.951524,"lng":130.975093,"zip":"8010882"},{"town":"清見二丁目","koaza":"","lat":33.952041,"lng":130.979166,"zip":"8010882"},{"town":"清見三丁目","koaza":"","lat":33.950348,"lng":130.981635,"zip":"8010882"},{"town":"清見四丁目","koaza":"","lat":33.948301,"lng":130.983671,"zip":"8010882"},{"town":"清見佐夜町","koaza":"","lat":33.944854,"lng":130.988071,"zip":"8010886"},{"town":"葛葉一丁目","koaza":"","lat":33.935866,"lng":130.948194,"zip":"8010808"},{"town":"葛葉二丁目","koaza":"","lat":33.932953,"lng":130.945978,"zip":"8010808"},{"town":"葛葉三丁目","koaza":"","lat":33.928781,"lng":130.943644,"zip":"8010808"},{"town":"黒川西一丁目","koaza":"","lat":33.923009,"lng":130.979299,"zip":"8010825"},{"town":"黒川西二丁目","koaza":"","lat":33.919843,"lng":130.981523,"zip":"8010825"},{"town":"黒川西三丁目","koaza":"","lat":33.920632,"lng":130.983038,"zip":"8010825"},{"town":"黒川東一丁目","koaza":"","lat":33.926172,"lng":130.98212,"zip":"8010826"},{"town":"黒川東二丁目","koaza":"","lat":33.929575,"lng":130.982469,"zip":"8010826"},{"town":"黄金町","koaza":"","lat":33.908652,"lng":130.938902,"zip":"8000027"},{"town":"小松町","koaza":"","lat":33.89521,"lng":130.936056,"zip":"8000034"},{"town":"小森江一丁目","koaza":"","lat":33.922543,"lng":130.940836,"zip":"8000007"},{"town":"小森江二丁目","koaza":"","lat":33.922252,"lng":130.942281,"zip":"8000007"},{"town":"小森江三丁目","koaza":"","lat":33.916526,"lng":130.939567,"zip":"8000007"},{"town":"栄町","koaza":"","lat":33.945447,"lng":130.966107,"zip":"8010863"},{"town":"寺内一丁目","koaza":"","lat":33.907379,"lng":130.94733,"zip":"8000015"},{"town":"寺内二丁目","koaza":"","lat":33.904868,"lng":130.945782,"zip":"8000015"},{"town":"寺内三丁目","koaza":"","lat":33.903747,"lng":130.947077,"zip":"8000015"},{"town":"寺内四丁目","koaza":"","lat":33.904627,"lng":130.950348,"zip":"8000015"},{"town":"寺内五丁目","koaza":"","lat":33.902907,"lng":130.948529,"zip":"8000015"},{"town":"下二十町","koaza":"","lat":33.911685,"lng":130.939837,"zip":"8000028"},{"town":"下馬寄","koaza":"","lat":33.896082,"lng":130.928382,"zip":"8000051"},{"town":"社ノ木一丁目","koaza":"","lat":33.894576,"lng":130.926474,"zip":"8000054"},{"town":"社ノ木二丁目","koaza":"","lat":33.892672,"lng":130.928363,"zip":"8000054"},{"town":"庄司町","koaza":"","lat":33.945053,"lng":130.971006,"zip":"8010865"},{"town":"白野江一丁目","koaza":"","lat":33.933481,"lng":131.007242,"zip":"8010802"},{"town":"白野江二丁目","koaza":"","lat":33.936637,"lng":131.00567,"zip":"8010802"},{"town":"白野江三丁目","koaza":"","lat":33.941347,"lng":131.009213,"zip":"8010802"},{"town":"白野江四丁目","koaza":"","lat":33.946484,"lng":131.006971,"zip":"8010802"},{"town":"城山町","koaza":"","lat":33.902874,"lng":130.952835,"zip":"8000013"},{"town":"新開","koaza":"","lat":33.95616,"lng":130.985681,"zip":"8010885"},{"town":"新原町","koaza":"","lat":33.892362,"lng":130.931802,"zip":"8000053"},{"town":"新門司一丁目","koaza":"","lat":33.874735,"lng":130.98341,"zip":"8000115"},{"town":"新門司二丁目","koaza":"","lat":33.864975,"lng":130.991268,"zip":"8000115"},{"town":"新門司三丁目","koaza":"","lat":33.856433,"lng":130.990574,"zip":"8000115"},{"town":"新門司北一丁目","koaza":"","lat":33.887441,"lng":130.988733,"zip":"8000113"},{"town":"新門司北二丁目","koaza":"","lat":33.888885,"lng":130.998609,"zip":"8000113"},{"town":"新門司北三丁目","koaza":"","lat":33.879657,"lng":130.998717,"zip":"8000113"},{"town":"瀬戸町","koaza":"","lat":33.959188,"lng":130.973267,"zip":"8010884"},{"town":"大里桜ケ丘","koaza":"","lat":33.898582,"lng":130.957576,"zip":"8000018"},{"town":"大里新町","koaza":"","lat":33.896321,"lng":130.923807,"zip":"8000057"},{"town":"大里戸ノ上一丁目","koaza":"","lat":33.906073,"lng":130.938417,"zip":"8000024"},{"town":"大里戸ノ上二丁目","koaza":"","lat":33.905548,"lng":130.941544,"zip":"8000024"},{"town":"大里戸ノ上三丁目","koaza":"","lat":33.904757,"lng":130.943324,"zip":"8000024"},{"town":"大里戸ノ上四丁目","koaza":"","lat":33.900791,"lng":130.944502,"zip":"8000024"},{"town":"大里原町","koaza":"","lat":33.899684,"lng":130.932221,"zip":"8000038"},{"town":"大里東一丁目","koaza":"","lat":33.914072,"lng":130.94057,"zip":"8000022"},{"town":"大里東二丁目","koaza":"","lat":33.914034,"lng":130.943073,"zip":"8000022"},{"town":"大里東三丁目","koaza":"","lat":33.915094,"lng":130.945387,"zip":"8000022"},{"town":"大里東四丁目","koaza":"","lat":33.912442,"lng":130.945715,"zip":"8000022"},{"town":"大里東五丁目","koaza":"","lat":33.914046,"lng":130.946916,"zip":"8000022"},{"town":"大里東口","koaza":"","lat":33.912529,"lng":130.937747,"zip":"8000029"},{"town":"大里本町一丁目","koaza":"","lat":33.913153,"lng":130.93644,"zip":"8000063"},{"town":"大里本町二丁目","koaza":"","lat":33.909252,"lng":130.93417,"zip":"8000063"},{"town":"大里本町三丁目","koaza":"","lat":33.904794,"lng":130.930018,"zip":"8000063"},{"town":"大里元町","koaza":"","lat":33.918597,"lng":130.938425,"zip":"8000062"},{"town":"大里桃山町","koaza":"","lat":33.893099,"lng":130.937562,"zip":"8000033"},{"town":"高砂町","koaza":"","lat":33.925617,"lng":130.976636,"zip":"8010822"},{"town":"高田一丁目","koaza":"","lat":33.901326,"lng":130.934203,"zip":"8000031"},{"town":"高田二丁目","koaza":"","lat":33.899609,"lng":130.935725,"zip":"8000031"},{"town":"太刀浦海岸","koaza":"","lat":33.964256,"lng":130.997877,"zip":"8010805"},{"town":"谷町一丁目","koaza":"","lat":33.945018,"lng":130.978132,"zip":"8010872"},{"town":"谷町二丁目","koaza":"","lat":33.942565,"lng":130.978332,"zip":"8010872"},{"town":"田野浦一丁目","koaza":"","lat":33.955085,"lng":130.991249,"zip":"8010803"},{"town":"田野浦二丁目","koaza":"","lat":33.958453,"lng":130.992753,"zip":"8010803"},{"town":"田野浦三丁目","koaza":"","lat":33.95613,"lng":130.994819,"zip":"8010803"},{"town":"田野浦海岸","koaza":"","lat":33.959674,"lng":130.984138,"zip":"8010804"},{"town":"恒見町","koaza":"","lat":33.864294,"lng":130.974097,"zip":"8000116"},{"town":"永黒一丁目","koaza":"","lat":33.910378,"lng":130.948874,"zip":"8000017"},{"town":"永黒二丁目","koaza":"","lat":33.908416,"lng":130.950913,"zip":"8000017"},{"town":"長谷一丁目","koaza":"","lat":33.942284,"lng":130.972445,"zip":"8010861"},{"town":"長谷二丁目","koaza":"","lat":33.940825,"lng":130.975319,"zip":"8010861"},{"town":"中二十町","koaza":"","lat":33.909868,"lng":130.942597,"zip":"8000023"},{"town":"中町","koaza":"","lat":33.902586,"lng":130.930684,"zip":"8000039"},{"town":"鳴竹一丁目","koaza":"","lat":33.953745,"lng":130.985139,"zip":"8010881"},{"town":"鳴竹二丁目","koaza":"","lat":33.95312,"lng":130.988469,"zip":"8010881"},{"town":"西海岸一丁目","koaza":"","lat":33.943824,"lng":130.958138,"zip":"8010841"},{"town":"西海岸二丁目","koaza":"","lat":33.94073,"lng":130.953344,"zip":"8010841"},{"town":"西海岸三丁目","koaza":"","lat":33.935642,"lng":130.945547,"zip":"8010841"},{"town":"錦町","koaza":"","lat":33.943918,"lng":130.96743,"zip":"8010862"},{"town":"西新町一丁目","koaza":"","lat":33.891029,"lng":130.921565,"zip":"8000056"},{"town":"西新町二丁目","koaza":"","lat":33.890129,"lng":130.918381,"zip":"8000056"},{"town":"畑田町","koaza":"","lat":33.951847,"lng":130.971296,"zip":"8010874"},{"town":"浜町","koaza":"","lat":33.949534,"lng":130.9664,"zip":"8010856"},{"town":"羽山一丁目","koaza":"","lat":33.920301,"lng":130.943636,"zip":"8000005"},{"town":"羽山二丁目","koaza":"","lat":33.918303,"lng":130.94701,"zip":"8000005"},{"town":"原町別院","koaza":"","lat":33.897969,"lng":130.930187,"zip":"8000037"},{"town":"東新町一丁目","koaza":"","lat":33.893511,"lng":130.924193,"zip":"8000055"},{"town":"東新町二丁目","koaza":"","lat":33.891396,"lng":130.92506,"zip":"8000055"},{"town":"東本町一丁目","koaza":"","lat":33.948068,"lng":130.967691,"zip":"8010851"},{"town":"東本町二丁目","koaza":"","lat":33.950518,"lng":130.968077,"zip":"8010851"},{"town":"東馬寄","koaza":"","lat":33.89454,"lng":130.930462,"zip":"8000052"},{"town":"東港町","koaza":"","lat":33.950406,"lng":130.964052,"zip":"8010853"},{"town":"東門司一丁目","koaza":"","lat":33.949548,"lng":130.970559,"zip":"8010873"},{"town":"東門司二丁目","koaza":"","lat":33.946957,"lng":130.974414,"zip":"8010873"},{"town":"光町一丁目","koaza":"","lat":33.887568,"lng":130.922326,"zip":"8000046"},{"town":"光町二丁目","koaza":"","lat":33.887495,"lng":130.91928,"zip":"8000046"},{"town":"柄杓田町","koaza":"","lat":33.906892,"lng":130.992365,"zip":"8010814"},{"town":"広石一丁目","koaza":"","lat":33.941166,"lng":130.957635,"zip":"8010842"},{"town":"広石二丁目","koaza":"","lat":33.939764,"lng":130.956397,"zip":"8010842"},{"town":"藤松一丁目","koaza":"","lat":33.888362,"lng":130.925347,"zip":"8000047"},{"town":"藤松二丁目","koaza":"","lat":33.885182,"lng":130.926486,"zip":"8000047"},{"town":"藤松三丁目","koaza":"","lat":33.885435,"lng":130.923412,"zip":"8000047"},{"town":"二タ松町","koaza":"","lat":33.927969,"lng":130.945472,"zip":"8000002"},{"town":"不老町一丁目","koaza":"","lat":33.898387,"lng":130.936686,"zip":"8000032"},{"town":"不老町二丁目","koaza":"","lat":33.89836,"lng":130.939733,"zip":"8000032"},{"town":"別院","koaza":"","lat":33.894221,"lng":130.934162,"zip":"8000035"},{"town":"法師庵","koaza":"","lat":33.948917,"lng":130.976568,"zip":"8010875"},{"town":"本町","koaza":"","lat":33.943744,"lng":130.964193,"zip":"8010834"},{"town":"松崎町","koaza":"","lat":33.906582,"lng":130.952919,"zip":"8000012"},{"town":"松原一丁目","koaza":"","lat":33.900002,"lng":130.924021,"zip":"8000064"},{"town":"松原二丁目","koaza":"","lat":33.896008,"lng":130.919402,"zip":"8000064"},{"town":"松原三丁目","koaza":"","lat":33.894307,"lng":130.917162,"zip":"8000064"},{"town":"丸山一丁目","koaza":"","lat":33.938636,"lng":130.967743,"zip":"8010831"},{"town":"丸山二丁目","koaza":"","lat":33.938829,"lng":130.970243,"zip":"8010831"},{"town":"丸山三丁目","koaza":"","lat":33.934984,"lng":130.9673,"zip":"8010831"},{"town":"丸山四丁目","koaza":"","lat":33.932521,"lng":130.96503,"zip":"8010831"},{"town":"丸山吉野町","koaza":"","lat":33.937427,"lng":130.972448,"zip":"8010824"},{"town":"緑ケ丘","koaza":"","lat":33.884259,"lng":130.930908,"zip":"8000043"},{"town":"港町","koaza":"","lat":33.946085,"lng":130.964353,"zip":"8010852"},{"town":"南本町","koaza":"","lat":33.916593,"lng":130.94207,"zip":"8000021"},{"town":"元清滝","koaza":"","lat":33.938272,"lng":130.961389,"zip":"8010832"},{"town":"桃山台","koaza":"","lat":33.889884,"lng":130.936711,"zip":"8000030"},{"town":"柳原町","koaza":"","lat":33.896788,"lng":130.934034,"zip":"8000036"},{"town":"柳町一丁目","koaza":"","lat":33.904443,"lng":130.937195,"zip":"8000025"},{"town":"柳町二丁目","koaza":"","lat":33.903043,"lng":130.935771,"zip":"8000025"},{"town":"柳町三丁目","koaza":"","lat":33.902267,"lng":130.939213,"zip":"8000025"},{"town":"柳町四丁目","koaza":"","lat":33.901128,"lng":130.940801,"zip":"8000025"},{"town":"矢筈町","koaza":"","lat":33.917774,"lng":130.943453,"zip":"8000006"}]