[{"town":"安部山","koaza":"","lat":33.850402,"lng":130.907,"zip":"8000258"},{"town":"石田町","koaza":"","lat":33.839129,"lng":130.88699,"zip":"8020838"},{"town":"石田南一丁目","koaza":"","lat":33.82433,"lng":130.881214,"zip":"8020836"},{"town":"石田南二丁目","koaza":"","lat":33.825836,"lng":130.885236,"zip":"8020836"},{"town":"石田南三丁目","koaza":"","lat":33.822329,"lng":130.883555,"zip":"8020836"},{"town":"大字石田","koaza":"","lat":33.819097,"lng":130.883333,"zip":"8020000"},{"town":"大字石原町","koaza":"","lat":33.788729,"lng":130.862738,"zip":"8020000"},{"town":"大字市丸","koaza":"","lat":33.76902,"lng":130.875891,"zip":"8020000"},{"town":"大字井手浦","koaza":"","lat":33.77509,"lng":130.893088,"zip":"8020000"},{"town":"大字合馬","koaza":"","lat":33.804677,"lng":130.827823,"zip":"8020000"},{"town":"大字長行","koaza":"","lat":33.830008,"lng":130.835659,"zip":"8020000"},{"town":"大字頂吉","koaza":"","lat":33.739572,"lng":130.826398,"zip":"8020000"},{"town":"大字隠蓑","koaza":"","lat":33.820653,"lng":130.890618,"zip":"8020000"},{"town":"大字蒲生","koaza":"","lat":33.841251,"lng":130.856793,"zip":"8020000"},{"town":"大字木下","koaza":"","lat":33.773547,"lng":130.862905,"zip":"8020000"},{"town":"大字朽網","koaza":"","lat":33.793884,"lng":130.948075,"zip":"8020000"},{"town":"大字葛原","koaza":"","lat":33.857332,"lng":130.918582,"zip":"8020000"},{"town":"大字小森","koaza":"","lat":33.759084,"lng":130.867044,"zip":"8020000"},{"town":"大字志井","koaza":"","lat":33.809859,"lng":130.87899,"zip":"8020000"},{"town":"大字新道寺","koaza":"","lat":33.755577,"lng":130.883661,"zip":"8020000"},{"town":"大字曽根","koaza":"","lat":33.834642,"lng":130.957945,"zip":"8020000"},{"town":"大字曽根新田","koaza":"","lat":33.815453,"lng":130.961817,"zip":"8020000"},{"town":"大字高津尾","koaza":"","lat":33.802211,"lng":130.856611,"zip":"8020000"},{"town":"大字田代","koaza":"","lat":33.809615,"lng":130.804829,"zip":"8020000"},{"town":"大字辻三","koaza":"","lat":33.819034,"lng":130.825326,"zip":"8020000"},{"town":"大字道原","koaza":"","lat":33.769566,"lng":130.829084,"zip":"8020000"},{"town":"大字徳吉","koaza":"","lat":33.809378,"lng":130.863666,"zip":"8020000"},{"town":"大字長野","koaza":"","lat":33.81301,"lng":130.908109,"zip":"8020000"},{"town":"大字貫","koaza":"","lat":33.797318,"lng":130.921379,"zip":"8020000"},{"town":"大字沼","koaza":"","lat":33.85558,"lng":130.931307,"zip":"8020000"},{"town":"大字春吉","koaza":"","lat":33.789481,"lng":130.846202,"zip":"8020000"},{"town":"大字堀越","koaza":"","lat":33.809129,"lng":130.889301,"zip":"8020000"},{"town":"大字南方","koaza":"","lat":33.834106,"lng":130.855761,"zip":"8020000"},{"town":"大字母原","koaza":"","lat":33.794178,"lng":130.886,"zip":"8020000"},{"town":"大字山本","koaza":"","lat":33.800769,"lng":130.845328,"zip":"8020000"},{"town":"大字湯川","koaza":"","lat":33.854431,"lng":130.908788,"zip":"8020000"},{"town":"大字横代","koaza":"","lat":33.816099,"lng":130.897136,"zip":"8020000"},{"town":"大字吉田","koaza":"","lat":33.846264,"lng":130.972022,"zip":"8020000"},{"town":"大字呼野","koaza":"","lat":33.74567,"lng":130.8676,"zip":"8020000"},{"town":"長行西一丁目","koaza":"","lat":33.820703,"lng":130.852538,"zip":"8030272"},{"town":"長行西二丁目","koaza":"","lat":33.817283,"lng":130.850469,"zip":"8030272"},{"town":"長行西三丁目","koaza":"","lat":33.817565,"lng":130.852668,"zip":"8030272"},{"town":"長行西四丁目","koaza":"","lat":33.815819,"lng":130.854267,"zip":"8030272"},{"town":"長行西五丁目","koaza":"","lat":33.814133,"lng":130.849306,"zip":"8030272"},{"town":"長行東一丁目","koaza":"","lat":33.81907,"lng":130.863109,"zip":"8030273"},{"town":"長行東二丁目","koaza":"","lat":33.819843,"lng":130.860474,"zip":"8030273"},{"town":"長行東三丁目","koaza":"","lat":33.817681,"lng":130.858117,"zip":"8030273"},{"town":"上石田一丁目","koaza":"","lat":33.832301,"lng":130.886621,"zip":"8020833"},{"town":"上石田二丁目","koaza":"","lat":33.829552,"lng":130.8836,"zip":"8020833"},{"town":"上石田三丁目","koaza":"","lat":33.832595,"lng":130.891224,"zip":"8020833"},{"town":"上石田四丁目","koaza":"","lat":33.828756,"lng":130.887329,"zip":"8020833"},{"town":"上葛原一丁目","koaza":"","lat":33.840829,"lng":130.911566,"zip":"8000255"},{"town":"上葛原二丁目","koaza":"","lat":33.839044,"lng":130.908612,"zip":"8000255"},{"town":"上曽根一丁目","koaza":"","lat":33.820715,"lng":130.944283,"zip":"8000223"},{"town":"上曽根二丁目","koaza":"","lat":33.817973,"lng":130.945537,"zip":"8000223"},{"town":"上曽根三丁目","koaza":"","lat":33.817969,"lng":130.941387,"zip":"8000223"},{"town":"上曽根四丁目","koaza":"","lat":33.814695,"lng":130.947446,"zip":"8000223"},{"town":"上曽根五丁目","koaza":"","lat":33.813716,"lng":130.943037,"zip":"8000223"},{"town":"上曽根新町","koaza":"","lat":33.818266,"lng":130.948779,"zip":"8000215"},{"town":"上貫一丁目","koaza":"","lat":33.820533,"lng":130.93264,"zip":"8000244"},{"town":"上貫二丁目","koaza":"","lat":33.817302,"lng":130.930015,"zip":"8000244"},{"town":"上貫三丁目","koaza":"","lat":33.813938,"lng":130.924886,"zip":"8000244"},{"town":"上吉田一丁目","koaza":"","lat":33.853186,"lng":130.949423,"zip":"8000201"},{"town":"上吉田二丁目","koaza":"","lat":33.855436,"lng":130.950758,"zip":"8000201"},{"town":"上吉田三丁目","koaza":"","lat":33.85598,"lng":130.946266,"zip":"8000201"},{"town":"上吉田四丁目","koaza":"","lat":33.858912,"lng":130.945027,"zip":"8000201"},{"town":"上吉田五丁目","koaza":"","lat":33.858838,"lng":130.951674,"zip":"8000201"},{"town":"上吉田六丁目","koaza":"","lat":33.855864,"lng":130.953184,"zip":"8000201"},{"town":"蒲生一丁目","koaza":"","lat":33.845926,"lng":130.868421,"zip":"8020978"},{"town":"蒲生二丁目","koaza":"","lat":33.846284,"lng":130.865703,"zip":"8020978"},{"town":"蒲生三丁目","koaza":"","lat":33.841835,"lng":130.86754,"zip":"8020978"},{"town":"蒲生四丁目","koaza":"","lat":33.841545,"lng":130.863566,"zip":"8020978"},{"town":"蒲生五丁目","koaza":"","lat":33.837942,"lng":130.860464,"zip":"8020978"},{"town":"企救丘一丁目","koaza":"","lat":33.824313,"lng":130.878522,"zip":"8020981"},{"town":"企救丘二丁目","koaza":"","lat":33.821243,"lng":130.877976,"zip":"8020981"},{"town":"企救丘三丁目","koaza":"","lat":33.824828,"lng":130.875752,"zip":"8020981"},{"town":"企救丘四丁目","koaza":"","lat":33.826017,"lng":130.873178,"zip":"8020981"},{"town":"企救丘五丁目","koaza":"","lat":33.828923,"lng":130.872915,"zip":"8020981"},{"town":"企救丘六丁目","koaza":"","lat":33.830582,"lng":130.870931,"zip":"8020981"},{"town":"北方一丁目","koaza":"","lat":33.848289,"lng":130.881713,"zip":"8020841"},{"town":"北方二丁目","koaza":"","lat":33.848768,"lng":130.879923,"zip":"8020841"},{"town":"北方三丁目","koaza":"","lat":33.849041,"lng":130.875985,"zip":"8020841"},{"town":"北方四丁目","koaza":"","lat":33.842446,"lng":130.873376,"zip":"8020841"},{"town":"北方五丁目","koaza":"","lat":33.842339,"lng":130.881267,"zip":"8020841"},{"town":"空港北町","koaza":"","lat":33.846402,"lng":131.034144,"zip":"8000306"},{"town":"朽網西一丁目","koaza":"","lat":33.810778,"lng":130.953509,"zip":"8000233"},{"town":"朽網西二丁目","koaza":"","lat":33.812105,"lng":130.949121,"zip":"8000233"},{"town":"朽網西三丁目","koaza":"","lat":33.807368,"lng":130.946507,"zip":"8000233"},{"town":"朽網西四丁目","koaza":"","lat":33.805119,"lng":130.949736,"zip":"8000233"},{"town":"朽網西五丁目","koaza":"","lat":33.807874,"lng":130.95013,"zip":"8000233"},{"town":"朽網西六丁目","koaza":"","lat":33.809077,"lng":130.951896,"zip":"8000233"},{"town":"朽網東一丁目","koaza":"","lat":33.802151,"lng":130.95173,"zip":"8000232"},{"town":"朽網東二丁目","koaza":"","lat":33.805775,"lng":130.958466,"zip":"8000232"},{"town":"朽網東三丁目","koaza":"","lat":33.801099,"lng":130.954359,"zip":"8000232"},{"town":"朽網東四丁目","koaza":"","lat":33.798898,"lng":130.96405,"zip":"8000232"},{"town":"朽網東五丁目","koaza":"","lat":33.801788,"lng":130.963587,"zip":"8000232"},{"town":"朽網東六丁目","koaza":"","lat":33.803589,"lng":130.966727,"zip":"8000232"},{"town":"葛原一丁目","koaza":"","lat":33.843936,"lng":130.909501,"zip":"8000251"},{"town":"葛原二丁目","koaza":"","lat":33.847114,"lng":130.909699,"zip":"8000251"},{"town":"葛原三丁目","koaza":"","lat":33.847122,"lng":130.912994,"zip":"8000251"},{"town":"葛原四丁目","koaza":"","lat":33.846511,"lng":130.915551,"zip":"8000251"},{"town":"葛原五丁目","koaza":"","lat":33.842519,"lng":130.914436,"zip":"8000251"},{"town":"葛原高松一丁目","koaza":"","lat":33.847932,"lng":130.926246,"zip":"8000252"},{"town":"葛原高松二丁目","koaza":"","lat":33.848873,"lng":130.921768,"zip":"8000252"},{"town":"葛原東一丁目","koaza":"","lat":33.839533,"lng":130.928045,"zip":"8000206"},{"town":"葛原東二丁目","koaza":"","lat":33.8417,"lng":130.930462,"zip":"8000206"},{"town":"葛原東三丁目","koaza":"","lat":33.84038,"lng":130.934758,"zip":"8000206"},{"town":"葛原東四丁目","koaza":"","lat":33.836887,"lng":130.932417,"zip":"8000206"},{"town":"葛原東五丁目","koaza":"","lat":33.836585,"lng":130.926407,"zip":"8000206"},{"town":"葛原東六丁目","koaza":"","lat":33.835626,"lng":130.930226,"zip":"8000206"},{"town":"葛原本町一丁目","koaza":"","lat":33.841096,"lng":130.919167,"zip":"8000253"},{"town":"葛原本町二丁目","koaza":"","lat":33.845206,"lng":130.917732,"zip":"8000253"},{"town":"葛原本町三丁目","koaza":"","lat":33.845368,"lng":130.921069,"zip":"8000253"},{"town":"葛原本町四丁目","koaza":"","lat":33.84334,"lng":130.92447,"zip":"8000253"},{"town":"葛原本町五丁目","koaza":"","lat":33.844339,"lng":130.927044,"zip":"8000253"},{"town":"葛原本町六丁目","koaza":"","lat":33.840112,"lng":130.924416,"zip":"8000253"},{"town":"葛原元町一丁目","koaza":"","lat":33.839242,"lng":130.91774,"zip":"8000254"},{"town":"葛原元町二丁目","koaza":"","lat":33.837728,"lng":130.922811,"zip":"8000254"},{"town":"葛原元町三丁目","koaza":"","lat":33.836989,"lng":130.917342,"zip":"8000254"},{"town":"志井一丁目","koaza":"","lat":33.820155,"lng":130.872799,"zip":"8020985"},{"town":"志井二丁目","koaza":"","lat":33.821233,"lng":130.868189,"zip":"8020985"},{"town":"志井三丁目","koaza":"","lat":33.820328,"lng":130.866656,"zip":"8020985"},{"town":"志井四丁目","koaza":"","lat":33.820232,"lng":130.870429,"zip":"8020985"},{"town":"志井五丁目","koaza":"","lat":33.816924,"lng":130.872466,"zip":"8020985"},{"town":"志井六丁目","koaza":"","lat":33.81712,"lng":130.876906,"zip":"8020985"},{"town":"志井公園","koaza":"","lat":33.818848,"lng":130.881012,"zip":"8020984"},{"town":"志井鷹羽台","koaza":"","lat":33.806302,"lng":130.872535,"zip":"8020986"},{"town":"重住一丁目","koaza":"","lat":33.854587,"lng":130.887205,"zip":"8020811"},{"town":"重住二丁目","koaza":"","lat":33.854849,"lng":130.889536,"zip":"8020811"},{"town":"志徳一丁目","koaza":"","lat":33.824023,"lng":130.872506,"zip":"8020983"},{"town":"志徳二丁目","koaza":"","lat":33.819609,"lng":130.875887,"zip":"8020983"},{"town":"下石田一丁目","koaza":"","lat":33.837502,"lng":130.89087,"zip":"8020832"},{"town":"下石田二丁目","koaza":"","lat":33.83461,"lng":130.889953,"zip":"8020832"},{"town":"下石田三丁目","koaza":"","lat":33.836245,"lng":130.886932,"zip":"8020832"},{"town":"下城野一丁目","koaza":"","lat":33.856531,"lng":130.877719,"zip":"8020804"},{"town":"下城野二丁目","koaza":"","lat":33.853017,"lng":130.878468,"zip":"8020804"},{"town":"下城野三丁目","koaza":"","lat":33.857375,"lng":130.876048,"zip":"8020804"},{"town":"下曽根一丁目","koaza":"","lat":33.83422,"lng":130.935374,"zip":"8000217"},{"town":"下曽根二丁目","koaza":"","lat":33.835174,"lng":130.938728,"zip":"8000217"},{"town":"下曽根三丁目","koaza":"","lat":33.832303,"lng":130.937648,"zip":"8000217"},{"town":"下曽根四丁目","koaza":"","lat":33.830685,"lng":130.940601,"zip":"8000217"},{"town":"下曽根新町","koaza":"","lat":33.832316,"lng":130.932866,"zip":"8000221"},{"town":"下貫一丁目","koaza":"","lat":33.817721,"lng":130.932718,"zip":"8000236"},{"town":"下貫二丁目","koaza":"","lat":33.816855,"lng":130.934609,"zip":"8000236"},{"town":"下貫三丁目","koaza":"","lat":33.814269,"lng":130.934219,"zip":"8000236"},{"town":"下貫四丁目","koaza":"","lat":33.812824,"lng":130.937444,"zip":"8000236"},{"town":"下南方一丁目","koaza":"","lat":33.834349,"lng":130.857995,"zip":"8020977"},{"town":"下南方二丁目","koaza":"","lat":33.834871,"lng":130.85995,"zip":"8020977"},{"town":"下吉田一丁目","koaza":"","lat":33.844634,"lng":130.959876,"zip":"8000203"},{"town":"下吉田二丁目","koaza":"","lat":33.841138,"lng":130.965524,"zip":"8000203"},{"town":"下吉田三丁目","koaza":"","lat":33.844749,"lng":130.965052,"zip":"8000203"},{"town":"下吉田四丁目","koaza":"","lat":33.846758,"lng":130.963571,"zip":"8000203"},{"town":"城野一丁目","koaza":"","lat":33.856961,"lng":130.887046,"zip":"8020802"},{"town":"城野二丁目","koaza":"","lat":33.857023,"lng":130.884496,"zip":"8020802"},{"town":"城野三丁目","koaza":"","lat":33.854318,"lng":130.883398,"zip":"8020802"},{"town":"城野四丁目","koaza":"","lat":33.853941,"lng":130.880641,"zip":"8020802"},{"town":"新曽根","koaza":"","lat":33.838983,"lng":130.952814,"zip":"8000211"},{"town":"星和台一丁目","koaza":"","lat":33.832679,"lng":130.879641,"zip":"8020973"},{"town":"星和台二丁目","koaza":"","lat":33.830984,"lng":130.880858,"zip":"8020973"},{"town":"曽根北町","koaza":"","lat":33.836145,"lng":130.944624,"zip":"8000229"},{"town":"曽根新田北一丁目","koaza":"","lat":33.824333,"lng":130.948412,"zip":"8000219"},{"town":"曽根新田北二丁目","koaza":"","lat":33.823192,"lng":130.949321,"zip":"8000219"},{"town":"曽根新田北三丁目","koaza":"","lat":33.821254,"lng":130.954071,"zip":"8000219"},{"town":"曽根新田北四丁目","koaza":"","lat":33.825731,"lng":130.952012,"zip":"8000219"},{"town":"曽根新田北五丁目","koaza":"","lat":33.825675,"lng":130.954076,"zip":"8000219"},{"town":"曽根新田北六丁目","koaza":"","lat":33.825616,"lng":130.956128,"zip":"8000219"},{"town":"曽根新田北七丁目","koaza":"","lat":33.824466,"lng":130.958425,"zip":"8000219"},{"town":"曽根新田南一丁目","koaza":"","lat":33.816898,"lng":130.951986,"zip":"8000220"},{"town":"曽根新田南二丁目","koaza":"","lat":33.817951,"lng":130.9555,"zip":"8000220"},{"town":"曽根新田南三丁目","koaza":"","lat":33.815622,"lng":130.957504,"zip":"8000220"},{"town":"曽根新田南四丁目","koaza":"","lat":33.818762,"lng":130.958881,"zip":"8000220"},{"town":"高野一丁目","koaza":"","lat":33.82997,"lng":130.856852,"zip":"8030275"},{"town":"高野二丁目","koaza":"","lat":33.826788,"lng":130.855214,"zip":"8030275"},{"town":"高野三丁目","koaza":"","lat":33.830076,"lng":130.854616,"zip":"8030275"},{"town":"高野四丁目","koaza":"","lat":33.833427,"lng":130.850864,"zip":"8030275"},{"town":"高野五丁目","koaza":"","lat":33.829746,"lng":130.84815,"zip":"8030275"},{"town":"高野六丁目","koaza":"","lat":33.828209,"lng":130.846263,"zip":"8030275"},{"town":"田原一丁目","koaza":"","lat":33.82848,"lng":130.932352,"zip":"8000225"},{"town":"田原二丁目","koaza":"","lat":33.828101,"lng":130.934925,"zip":"8000225"},{"town":"田原三丁目","koaza":"","lat":33.826608,"lng":130.932497,"zip":"8000225"},{"town":"田原四丁目","koaza":"","lat":33.824404,"lng":130.931169,"zip":"8000225"},{"town":"田原五丁目","koaza":"","lat":33.820825,"lng":130.928788,"zip":"8000225"},{"town":"田原新町一丁目","koaza":"","lat":33.831836,"lng":130.928391,"zip":"8000226"},{"town":"田原新町二丁目","koaza":"","lat":33.829983,"lng":130.930392,"zip":"8000226"},{"town":"田原新町三丁目","koaza":"","lat":33.828611,"lng":130.930179,"zip":"8000226"},{"town":"津田一丁目","koaza":"","lat":33.829077,"lng":130.920243,"zip":"8000242"},{"town":"津田二丁目","koaza":"","lat":33.826549,"lng":130.921025,"zip":"8000242"},{"town":"津田三丁目","koaza":"","lat":33.827745,"lng":130.923031,"zip":"8000242"},{"town":"津田四丁目","koaza":"","lat":33.827823,"lng":130.925505,"zip":"8000242"},{"town":"津田五丁目","koaza":"","lat":33.826236,"lng":130.927005,"zip":"8000242"},{"town":"津田新町一丁目","koaza":"","lat":33.833571,"lng":130.927367,"zip":"8000227"},{"town":"津田新町二丁目","koaza":"","lat":33.833603,"lng":130.923228,"zip":"8000227"},{"town":"津田新町三丁目","koaza":"","lat":33.832019,"lng":130.923982,"zip":"8000227"},{"town":"津田新町四丁目","koaza":"","lat":33.830152,"lng":130.926165,"zip":"8000227"},{"town":"津田南町","koaza":"","lat":33.823681,"lng":130.917613,"zip":"8000248"},{"town":"徳吉西一丁目","koaza":"","lat":33.816211,"lng":130.858035,"zip":"8030278"},{"town":"徳吉西二丁目","koaza":"","lat":33.813703,"lng":130.856442,"zip":"8030278"},{"town":"徳吉西三丁目","koaza":"","lat":33.811696,"lng":130.854967,"zip":"8030278"},{"town":"徳吉東一丁目","koaza":"","lat":33.815519,"lng":130.860554,"zip":"8030277"},{"town":"徳吉東二丁目","koaza":"","lat":33.815337,"lng":130.862954,"zip":"8030277"},{"town":"徳吉東三丁目","koaza":"","lat":33.815141,"lng":130.865161,"zip":"8030277"},{"town":"徳吉東四丁目","koaza":"","lat":33.811991,"lng":130.861903,"zip":"8030277"},{"town":"徳吉東五丁目","koaza":"","lat":33.81154,"lng":130.859185,"zip":"8030277"},{"town":"徳吉南一丁目","koaza":"","lat":33.808918,"lng":130.855266,"zip":"8030279"},{"town":"徳吉南二丁目","koaza":"","lat":33.808838,"lng":130.852235,"zip":"8030279"},{"town":"徳吉南三丁目","koaza":"","lat":33.811335,"lng":130.849537,"zip":"8030279"},{"town":"徳吉南四丁目","koaza":"","lat":33.809473,"lng":130.849356,"zip":"8030279"},{"town":"徳力一丁目","koaza":"","lat":33.830824,"lng":130.86756,"zip":"8020974"},{"town":"徳力二丁目","koaza":"","lat":33.829773,"lng":130.868518,"zip":"8020974"},{"town":"徳力三丁目","koaza":"","lat":33.827538,"lng":130.867416,"zip":"8020974"},{"town":"徳力四丁目","koaza":"","lat":33.824212,"lng":130.869085,"zip":"8020974"},{"town":"徳力五丁目","koaza":"","lat":33.825393,"lng":130.865778,"zip":"8020974"},{"town":"徳力六丁目","koaza":"","lat":33.82491,"lng":130.862992,"zip":"8020974"},{"town":"徳力七丁目","koaza":"","lat":33.822416,"lng":130.865366,"zip":"8020974"},{"town":"徳力新町一丁目","koaza":"","lat":33.838862,"lng":130.866925,"zip":"8020979"},{"town":"徳力新町二丁目","koaza":"","lat":33.835504,"lng":130.866605,"zip":"8020979"},{"town":"徳力団地","koaza":"","lat":33.831434,"lng":130.865098,"zip":"8020975"},{"town":"長尾一丁目","koaza":"","lat":33.825772,"lng":130.858594,"zip":"8030274"},{"town":"長尾二丁目","koaza":"","lat":33.825949,"lng":130.856551,"zip":"8030274"},{"town":"長尾三丁目","koaza":"","lat":33.822588,"lng":130.851083,"zip":"8030274"},{"town":"長尾四丁目","koaza":"","lat":33.822909,"lng":130.855517,"zip":"8030274"},{"town":"長尾五丁目","koaza":"","lat":33.82247,"lng":130.860573,"zip":"8030274"},{"town":"長尾六丁目","koaza":"","lat":33.820237,"lng":130.856841,"zip":"8030274"},{"town":"中曽根一丁目","koaza":"","lat":33.827767,"lng":130.937305,"zip":"8000222"},{"town":"中曽根二丁目","koaza":"","lat":33.824011,"lng":130.93695,"zip":"8000222"},{"town":"中曽根三丁目","koaza":"","lat":33.825904,"lng":130.939283,"zip":"8000222"},{"town":"中曽根四丁目","koaza":"","lat":33.825923,"lng":130.941665,"zip":"8000222"},{"town":"中曽根五丁目","koaza":"","lat":33.821876,"lng":130.940285,"zip":"8000222"},{"town":"中曽根六丁目","koaza":"","lat":33.822427,"lng":130.94345,"zip":"8000222"},{"town":"中曽根新町","koaza":"","lat":33.824254,"lng":130.945816,"zip":"8000216"},{"town":"中曽根東一丁目","koaza":"","lat":33.827839,"lng":130.942182,"zip":"8000213"},{"town":"中曽根東二丁目","koaza":"","lat":33.831418,"lng":130.944129,"zip":"8000213"},{"town":"中曽根東三丁目","koaza":"","lat":33.82766,"lng":130.947153,"zip":"8000213"},{"town":"中曽根東四丁目","koaza":"","lat":33.831138,"lng":130.947685,"zip":"8000213"},{"town":"中曽根東五丁目","koaza":"","lat":33.831945,"lng":130.952776,"zip":"8000213"},{"town":"中曽根東六丁目","koaza":"","lat":33.829099,"lng":130.953877,"zip":"8000213"},{"town":"中貫一丁目","koaza":"","lat":33.812962,"lng":130.928032,"zip":"8000237"},{"town":"中貫二丁目","koaza":"","lat":33.811639,"lng":130.929531,"zip":"8000237"},{"town":"中貫本町","koaza":"","lat":33.810356,"lng":130.930715,"zip":"8000235"},{"town":"長野一丁目","koaza":"","lat":33.835289,"lng":130.908751,"zip":"8000228"},{"town":"長野二丁目","koaza":"","lat":33.834115,"lng":130.914569,"zip":"8000228"},{"town":"長野三丁目","koaza":"","lat":33.833965,"lng":130.920414,"zip":"8000228"},{"town":"長野東町","koaza":"","lat":33.822259,"lng":130.915735,"zip":"8000247"},{"town":"長野本町一丁目","koaza":"","lat":33.831838,"lng":130.914431,"zip":"8000241"},{"town":"長野本町二丁目","koaza":"","lat":33.830825,"lng":130.917972,"zip":"8000241"},{"town":"長野本町三丁目","koaza":"","lat":33.827752,"lng":130.915311,"zip":"8000241"},{"town":"長野本町四丁目","koaza":"","lat":33.829531,"lng":130.911294,"zip":"8000241"},{"town":"中吉田一丁目","koaza":"","lat":33.847362,"lng":130.950249,"zip":"8000204"},{"town":"中吉田二丁目","koaza":"","lat":33.843207,"lng":130.94974,"zip":"8000204"},{"town":"中吉田三丁目","koaza":"","lat":33.845944,"lng":130.951556,"zip":"8000204"},{"town":"中吉田四丁目","koaza":"","lat":33.844311,"lng":130.954541,"zip":"8000204"},{"town":"中吉田五丁目","koaza":"","lat":33.847434,"lng":130.95753,"zip":"8000204"},{"town":"中吉田六丁目","koaza":"","lat":33.849896,"lng":130.95475,"zip":"8000204"},{"town":"西貫一丁目","koaza":"","lat":33.818213,"lng":130.919487,"zip":"8000243"},{"town":"西貫二丁目","koaza":"","lat":33.820486,"lng":130.922589,"zip":"8000243"},{"town":"西水町","koaza":"","lat":33.852457,"lng":130.892938,"zip":"8020812"},{"town":"蜷田若園一丁目","koaza":"","lat":33.843504,"lng":130.889488,"zip":"8020814"},{"town":"蜷田若園二丁目","koaza":"","lat":33.845951,"lng":130.892207,"zip":"8020814"},{"town":"蜷田若園三丁目","koaza":"","lat":33.84396,"lng":130.894316,"zip":"8020814"},{"town":"貫弥生が丘一丁目","koaza":"","lat":33.809256,"lng":130.932956,"zip":"8000234"},{"town":"貫弥生が丘二丁目","koaza":"","lat":33.805838,"lng":130.929797,"zip":"8000234"},{"town":"貫弥生が丘三丁目","koaza":"","lat":33.803385,"lng":130.926222,"zip":"8000234"},{"town":"沼新町一丁目","koaza":"","lat":33.851635,"lng":130.945511,"zip":"8000218"},{"town":"沼新町二丁目","koaza":"","lat":33.852824,"lng":130.943991,"zip":"8000218"},{"town":"沼新町三丁目","koaza":"","lat":33.856042,"lng":130.942095,"zip":"8000218"},{"town":"沼本町一丁目","koaza":"","lat":33.845863,"lng":130.941329,"zip":"8000208"},{"town":"沼本町二丁目","koaza":"","lat":33.850154,"lng":130.939318,"zip":"8000208"},{"town":"沼本町三丁目","koaza":"","lat":33.850646,"lng":130.942048,"zip":"8000208"},{"town":"沼本町四丁目","koaza":"","lat":33.84801,"lng":130.945028,"zip":"8000208"},{"town":"沼緑町一丁目","koaza":"","lat":33.8436,"lng":130.933774,"zip":"8000207"},{"town":"沼緑町二丁目","koaza":"","lat":33.847219,"lng":130.930154,"zip":"8000207"},{"town":"沼緑町三丁目","koaza":"","lat":33.848042,"lng":130.932419,"zip":"8000207"},{"town":"沼緑町四丁目","koaza":"","lat":33.848595,"lng":130.93584,"zip":"8000207"},{"town":"沼緑町五丁目","koaza":"","lat":33.846034,"lng":130.937162,"zip":"8000207"},{"town":"沼南町一丁目","koaza":"","lat":33.842976,"lng":130.939486,"zip":"8000205"},{"town":"沼南町二丁目","koaza":"","lat":33.844013,"lng":130.945093,"zip":"8000205"},{"town":"沼南町三丁目","koaza":"","lat":33.840415,"lng":130.94414,"zip":"8000205"},{"town":"八幡町","koaza":"","lat":33.861461,"lng":130.877396,"zip":"8020805"},{"town":"葉山町一丁目","koaza":"","lat":33.840745,"lng":130.884494,"zip":"8020837"},{"town":"葉山町二丁目","koaza":"","lat":33.837349,"lng":130.880677,"zip":"8020837"},{"town":"葉山町三丁目","koaza":"","lat":33.835389,"lng":130.882703,"zip":"8020837"},{"town":"春ケ丘","koaza":"","lat":33.850048,"lng":130.883904,"zip":"8020803"},{"town":"東貫一丁目","koaza":"","lat":33.8219,"lng":130.935902,"zip":"8000224"},{"town":"東貫二丁目","koaza":"","lat":33.81957,"lng":130.937196,"zip":"8000224"},{"town":"東貫三丁目","koaza":"","lat":33.816903,"lng":130.939191,"zip":"8000224"},{"town":"東水町","koaza":"","lat":33.851266,"lng":130.894676,"zip":"8020813"},{"town":"日の出町一丁目","koaza":"","lat":33.840436,"lng":130.876278,"zip":"8020842"},{"town":"日の出町二丁目","koaza":"","lat":33.839434,"lng":130.878174,"zip":"8020842"},{"town":"平尾台一丁目","koaza":"","lat":33.7564,"lng":130.892133,"zip":"8030180"},{"town":"平尾台二丁目","koaza":"","lat":33.757559,"lng":130.897407,"zip":"8030180"},{"town":"平尾台三丁目","koaza":"","lat":33.757744,"lng":130.903877,"zip":"8030180"},{"town":"富士見一丁目","koaza":"","lat":33.858076,"lng":130.883289,"zip":"8020801"},{"town":"富士見二丁目","koaza":"","lat":33.858135,"lng":130.878649,"zip":"8020801"},{"town":"富士見三丁目","koaza":"","lat":33.860178,"lng":130.880039,"zip":"8020801"},{"town":"舞ケ丘一丁目","koaza":"","lat":33.828367,"lng":130.902738,"zip":"8020823"},{"town":"舞ケ丘二丁目","koaza":"","lat":33.824291,"lng":130.901531,"zip":"8020823"},{"town":"舞ケ丘三丁目","koaza":"","lat":33.825141,"lng":130.903689,"zip":"8020823"},{"town":"舞ケ丘四丁目","koaza":"","lat":33.825293,"lng":130.906009,"zip":"8020823"},{"town":"舞ケ丘五丁目","koaza":"","lat":33.826503,"lng":130.907443,"zip":"8020823"},{"town":"舞ケ丘六丁目","koaza":"","lat":33.829834,"lng":130.906864,"zip":"8020823"},{"town":"南方一丁目","koaza":"","lat":33.836899,"lng":130.863194,"zip":"8020976"},{"town":"南方二丁目","koaza":"","lat":33.833978,"lng":130.863232,"zip":"8020976"},{"town":"南方三丁目","koaza":"","lat":33.832467,"lng":130.860696,"zip":"8020976"},{"town":"南方四丁目","koaza":"","lat":33.82943,"lng":130.860386,"zip":"8020976"},{"town":"南方五丁目","koaza":"","lat":33.825914,"lng":130.861089,"zip":"8020976"},{"town":"南若園町","koaza":"","lat":33.84209,"lng":130.887115,"zip":"8020815"},{"town":"守恒一丁目","koaza":"","lat":33.836018,"lng":130.876525,"zip":"8020972"},{"town":"守恒二丁目","koaza":"","lat":33.834537,"lng":130.874629,"zip":"8020972"},{"town":"守恒三丁目","koaza":"","lat":33.834398,"lng":130.878736,"zip":"8020972"},{"town":"守恒四丁目","koaza":"","lat":33.832017,"lng":130.874453,"zip":"8020972"},{"town":"守恒五丁目","koaza":"","lat":33.831027,"lng":130.877754,"zip":"8020972"},{"town":"守恒本町一丁目","koaza":"","lat":33.837291,"lng":130.871632,"zip":"8020971"},{"town":"守恒本町二丁目","koaza":"","lat":33.835057,"lng":130.872166,"zip":"8020971"},{"town":"守恒本町三丁目","koaza":"","lat":33.834673,"lng":130.869812,"zip":"8020971"},{"town":"八重洲町","koaza":"","lat":33.840912,"lng":130.89142,"zip":"8020831"},{"town":"山手一丁目","koaza":"","lat":33.829196,"lng":130.876256,"zip":"8020982"},{"town":"山手二丁目","koaza":"","lat":33.827785,"lng":130.877731,"zip":"8020982"},{"town":"山手三丁目","koaza":"","lat":33.826857,"lng":130.881263,"zip":"8020982"},{"town":"湯川一丁目","koaza":"","lat":33.847353,"lng":130.898838,"zip":"8000257"},{"town":"湯川二丁目","koaza":"","lat":33.850128,"lng":130.90061,"zip":"8000257"},{"town":"湯川三丁目","koaza":"","lat":33.848953,"lng":130.903533,"zip":"8000257"},{"town":"湯川四丁目","koaza":"","lat":33.847359,"lng":130.90608,"zip":"8000257"},{"town":"湯川五丁目","koaza":"","lat":33.84496,"lng":130.904324,"zip":"8000257"},{"town":"湯川新町一丁目","koaza":"","lat":33.847179,"lng":130.896049,"zip":"8000256"},{"town":"湯川新町二丁目","koaza":"","lat":33.84327,"lng":130.898002,"zip":"8000256"},{"town":"湯川新町三丁目","koaza":"","lat":33.841833,"lng":130.900813,"zip":"8000256"},{"town":"湯川新町四丁目","koaza":"","lat":33.840995,"lng":130.904356,"zip":"8000256"},{"town":"横代北町一丁目","koaza":"","lat":33.838944,"lng":130.895236,"zip":"8020821"},{"town":"横代北町二丁目","koaza":"","lat":33.837853,"lng":130.899015,"zip":"8020821"},{"town":"横代北町三丁目","koaza":"","lat":33.834657,"lng":130.897046,"zip":"8020821"},{"town":"横代北町四丁目","koaza":"","lat":33.83258,"lng":130.895138,"zip":"8020821"},{"town":"横代北町五丁目","koaza":"","lat":33.836038,"lng":130.894347,"zip":"8020821"},{"town":"横代葉山","koaza":"","lat":33.823702,"lng":130.89361,"zip":"8020825"},{"town":"横代東町一丁目","koaza":"","lat":33.835541,"lng":130.900629,"zip":"8020822"},{"town":"横代東町二丁目","koaza":"","lat":33.835959,"lng":130.903919,"zip":"8020822"},{"town":"横代東町三丁目","koaza":"","lat":33.832719,"lng":130.904983,"zip":"8020822"},{"town":"横代東町四丁目","koaza":"","lat":33.831528,"lng":130.899054,"zip":"8020822"},{"town":"横代東町五丁目","koaza":"","lat":33.828016,"lng":130.897295,"zip":"8020822"},{"town":"横代南町一丁目","koaza":"","lat":33.83004,"lng":130.894477,"zip":"8020826"},{"town":"横代南町二丁目","koaza":"","lat":33.829331,"lng":130.890106,"zip":"8020826"},{"town":"横代南町三丁目","koaza":"","lat":33.827797,"lng":130.891312,"zip":"8020826"},{"town":"横代南町四丁目","koaza":"","lat":33.827196,"lng":130.894623,"zip":"8020826"},{"town":"横代南町五丁目","koaza":"","lat":33.82565,"lng":130.890304,"zip":"8020826"},{"town":"吉田にれの木坂一丁目","koaza":"","lat":33.849756,"lng":130.948154,"zip":"8000210"},{"town":"吉田にれの木坂二丁目","koaza":"","lat":33.850751,"lng":130.949463,"zip":"8000210"},{"town":"若園一丁目","koaza":"","lat":33.850262,"lng":130.886945,"zip":"8020816"},{"town":"若園二丁目","koaza":"","lat":33.851799,"lng":130.890237,"zip":"8020816"},{"town":"若園三丁目","koaza":"","lat":33.846943,"lng":130.889561,"zip":"8020816"},{"town":"若園四丁目","koaza":"","lat":33.846047,"lng":130.886507,"zip":"8020816"},{"town":"若園五丁目","koaza":"","lat":33.846326,"lng":130.883718,"zip":"8020816"},{"town":"貫弥生が丘四丁目","koaza":"","lat":33.807153,"lng":130.927888,"zip":"8000234"},{"town":"大字朽網","koaza":"草見","lat":33.804103,"lng":130.970011,"zip":"8020000"}]