[{"town":"青葉台西一丁目","koaza":"","lat":33.902525,"lng":130.687721,"zip":"8080143"},{"town":"青葉台西二丁目","koaza":"","lat":33.906682,"lng":130.684988,"zip":"8080143"},{"town":"青葉台西三丁目","koaza":"","lat":33.901375,"lng":130.68626,"zip":"8080143"},{"town":"青葉台西四丁目","koaza":"","lat":33.898114,"lng":130.686453,"zip":"8080143"},{"town":"青葉台西五丁目","koaza":"","lat":33.901395,"lng":130.683372,"zip":"8080143"},{"town":"青葉台西六丁目","koaza":"","lat":33.904452,"lng":130.68153,"zip":"8080143"},{"town":"青葉台東一丁目","koaza":"","lat":33.903259,"lng":130.689416,"zip":"8080141"},{"town":"青葉台東二丁目","koaza":"","lat":33.906085,"lng":130.689147,"zip":"8080141"},{"town":"青葉台南一丁目","koaza":"","lat":33.896035,"lng":130.691937,"zip":"8080142"},{"town":"青葉台南二丁目","koaza":"","lat":33.898064,"lng":130.691,"zip":"8080142"},{"town":"青葉台南三丁目","koaza":"","lat":33.898751,"lng":130.693118,"zip":"8080142"},{"town":"赤岩町","koaza":"","lat":33.888598,"lng":130.765653,"zip":"8080175"},{"town":"赤崎町","koaza":"","lat":33.919179,"lng":130.787212,"zip":"8080003"},{"town":"赤島町","koaza":"","lat":33.895565,"lng":130.780312,"zip":"8080073"},{"town":"今光一丁目","koaza":"","lat":33.892968,"lng":130.774652,"zip":"8080071"},{"town":"今光二丁目","koaza":"","lat":33.895831,"lng":130.773449,"zip":"8080071"},{"town":"今光三丁目","koaza":"","lat":33.898278,"lng":130.77537,"zip":"8080071"},{"town":"栄盛川町","koaza":"","lat":33.910891,"lng":130.800334,"zip":"8080014"},{"town":"老松一丁目","koaza":"","lat":33.908798,"lng":130.80463,"zip":"8080032"},{"town":"老松二丁目","koaza":"","lat":33.910233,"lng":130.80449,"zip":"8080032"},{"town":"大字蜑住","koaza":"","lat":33.909089,"lng":130.707907,"zip":"8080000"},{"town":"大字有毛","koaza":"","lat":33.925447,"lng":130.695942,"zip":"8080000"},{"town":"大字安瀬","koaza":"","lat":33.924922,"lng":130.807495,"zip":"8080000"},{"town":"大字安屋","koaza":"","lat":33.927671,"lng":130.719363,"zip":"8080000"},{"town":"大字大鳥居","koaza":"","lat":33.899796,"lng":130.699851,"zip":"8080000"},{"town":"大字小竹","koaza":"","lat":33.91465,"lng":130.755029,"zip":"8080000"},{"town":"大字乙丸","koaza":"","lat":33.910735,"lng":130.690001,"zip":"8080000"},{"town":"大字小石","koaza":"","lat":33.910565,"lng":130.775848,"zip":"8080000"},{"town":"大字小敷","koaza":"","lat":33.892385,"lng":130.701471,"zip":"8080000"},{"town":"大字修多羅","koaza":"","lat":33.90231,"lng":130.798588,"zip":"8080000"},{"town":"大字高須","koaza":"","lat":33.895183,"lng":130.685053,"zip":"8080000"},{"town":"大字竹並","koaza":"","lat":33.912227,"lng":130.723272,"zip":"8080000"},{"town":"大字頓田","koaza":"","lat":33.912378,"lng":130.734172,"zip":"8080000"},{"town":"大字畠田","koaza":"","lat":33.902511,"lng":130.752076,"zip":"8080000"},{"town":"大字払川","koaza":"","lat":33.900211,"lng":130.721155,"zip":"8080000"},{"town":"大字藤木","koaza":"","lat":33.898186,"lng":130.769171,"zip":"8080000"},{"town":"大字二島","koaza":"","lat":33.897912,"lng":130.758809,"zip":"8080000"},{"town":"大池町","koaza":"","lat":33.895484,"lng":130.793599,"zip":"8080061"},{"town":"大井戸町","koaza":"","lat":33.907208,"lng":130.804854,"zip":"8080033"},{"town":"大谷町","koaza":"","lat":33.905996,"lng":130.79039,"zip":"8080051"},{"town":"片山一丁目","koaza":"","lat":33.898966,"lng":130.741711,"zip":"8080106"},{"town":"片山二丁目","koaza":"","lat":33.897658,"lng":130.743409,"zip":"8080106"},{"town":"片山三丁目","koaza":"","lat":33.898672,"lng":130.745153,"zip":"8080106"},{"town":"上原町","koaza":"","lat":33.913332,"lng":130.792907,"zip":"8080015"},{"town":"鴨生田一丁目","koaza":"","lat":33.893662,"lng":130.734492,"zip":"8080105"},{"town":"鴨生田二丁目","koaza":"","lat":33.894525,"lng":130.735684,"zip":"8080105"},{"town":"鴨生田三丁目","koaza":"","lat":33.896766,"lng":130.736167,"zip":"8080105"},{"town":"鴨生田四丁目","koaza":"","lat":33.898753,"lng":130.737874,"zip":"8080105"},{"town":"北浜一丁目","koaza":"","lat":33.910857,"lng":130.814028,"zip":"8080023"},{"town":"北浜二丁目","koaza":"","lat":33.912408,"lng":130.810217,"zip":"8080023"},{"town":"北湊町","koaza":"","lat":33.915935,"lng":130.804189,"zip":"8080027"},{"town":"響南町","koaza":"","lat":33.919778,"lng":130.79912,"zip":"8080011"},{"town":"くきのうみ中央","koaza":"","lat":33.891361,"lng":130.79342,"zip":"8080066"},{"town":"久岐の浜","koaza":"","lat":33.896692,"lng":130.80365,"zip":"8080054"},{"town":"小石本村町","koaza":"","lat":33.917298,"lng":130.7824,"zip":"8080001"},{"town":"小糸町","koaza":"","lat":33.909249,"lng":130.78894,"zip":"8080046"},{"town":"向洋町","koaza":"","lat":33.926191,"lng":130.785301,"zip":"8080002"},{"town":"小敷ひびきの二丁目","koaza":"","lat":33.890816,"lng":130.704835,"zip":"8080139"},{"town":"小敷ひびきの三丁目","koaza":"","lat":33.888192,"lng":130.704786,"zip":"8080139"},{"town":"桜町","koaza":"","lat":33.909819,"lng":130.80674,"zip":"8080026"},{"town":"迫田町","koaza":"","lat":33.914098,"lng":130.786272,"zip":"8080041"},{"town":"塩屋二丁目","koaza":"","lat":33.892898,"lng":130.720764,"zip":"8080131"},{"town":"塩屋三丁目","koaza":"","lat":33.891533,"lng":130.718196,"zip":"8080131"},{"town":"下原町","koaza":"","lat":33.91681,"lng":130.790667,"zip":"8080005"},{"town":"新大谷町","koaza":"","lat":33.904868,"lng":130.794491,"zip":"8080052"},{"town":"修多羅一丁目","koaza":"","lat":33.901507,"lng":130.801748,"zip":"8080053"},{"town":"修多羅二丁目","koaza":"","lat":33.898304,"lng":130.801321,"zip":"8080053"},{"town":"修多羅三丁目","koaza":"","lat":33.899861,"lng":130.797951,"zip":"8080053"},{"town":"高須北一丁目","koaza":"","lat":33.89467,"lng":130.69198,"zip":"8080147"},{"town":"高須北二丁目","koaza":"","lat":33.89311,"lng":130.690672,"zip":"8080147"},{"town":"高須北三丁目","koaza":"","lat":33.892201,"lng":130.68885,"zip":"8080147"},{"town":"高須西一丁目","koaza":"","lat":33.892723,"lng":130.685906,"zip":"8080146"},{"town":"高須西二丁目","koaza":"","lat":33.888903,"lng":130.684228,"zip":"8080146"},{"town":"高須東一丁目","koaza":"","lat":33.892545,"lng":130.695098,"zip":"8080144"},{"town":"高須東二丁目","koaza":"","lat":33.891016,"lng":130.697584,"zip":"8080144"},{"town":"高須東三丁目","koaza":"","lat":33.887745,"lng":130.696797,"zip":"8080144"},{"town":"高須東四丁目","koaza":"","lat":33.890493,"lng":130.692349,"zip":"8080144"},{"town":"高須南一丁目","koaza":"","lat":33.886153,"lng":130.694426,"zip":"8080145"},{"town":"高須南二丁目","koaza":"","lat":33.889092,"lng":130.69012,"zip":"8080145"},{"town":"高須南三丁目","koaza":"","lat":33.887787,"lng":130.690795,"zip":"8080145"},{"town":"高須南四丁目","koaza":"","lat":33.886938,"lng":130.689233,"zip":"8080145"},{"town":"高須南五丁目","koaza":"","lat":33.886651,"lng":130.68694,"zip":"8080145"},{"town":"棚田町","koaza":"","lat":33.913084,"lng":130.790095,"zip":"8080042"},{"town":"童子丸一丁目","koaza":"","lat":33.891092,"lng":130.766715,"zip":"8080076"},{"town":"童子丸二丁目","koaza":"","lat":33.891067,"lng":130.763808,"zip":"8080076"},{"town":"童子丸町","koaza":"","lat":33.892346,"lng":130.764183,"zip":"8080000"},{"town":"中川町","koaza":"","lat":33.905855,"lng":130.807057,"zip":"8080025"},{"town":"中畑町","koaza":"","lat":33.91061,"lng":130.785191,"zip":"8080047"},{"town":"波打町","koaza":"","lat":33.912629,"lng":130.801333,"zip":"8080013"},{"town":"西小石町","koaza":"","lat":33.919511,"lng":130.791443,"zip":"8080004"},{"town":"西園町","koaza":"","lat":33.909483,"lng":130.800976,"zip":"8080031"},{"town":"西天神町","koaza":"","lat":33.890793,"lng":130.76082,"zip":"8080101"},{"town":"西畑町","koaza":"","lat":33.909711,"lng":130.793248,"zip":"8080043"},{"town":"白山一丁目","koaza":"","lat":33.901695,"lng":130.804958,"zip":"8080035"},{"town":"白山二丁目","koaza":"","lat":33.906898,"lng":130.802366,"zip":"8080035"},{"town":"白山三丁目","koaza":"","lat":33.906209,"lng":130.800312,"zip":"8080035"},{"town":"畠田一丁目","koaza":"","lat":33.901931,"lng":130.746946,"zip":"8080104"},{"town":"畠田二丁目","koaza":"","lat":33.903291,"lng":130.744933,"zip":"8080104"},{"town":"畠田三丁目","koaza":"","lat":33.90181,"lng":130.741967,"zip":"8080104"},{"town":"畑谷町","koaza":"","lat":33.9029,"lng":130.793139,"zip":"8080055"},{"town":"花野路一丁目","koaza":"","lat":33.907958,"lng":130.681872,"zip":"8080136"},{"town":"花野路二丁目","koaza":"","lat":33.909371,"lng":130.680607,"zip":"8080136"},{"town":"花野路三丁目","koaza":"","lat":33.907027,"lng":130.676649,"zip":"8080136"},{"town":"浜町一丁目","koaza":"","lat":33.905716,"lng":130.812951,"zip":"8080024"},{"town":"浜町二丁目","koaza":"","lat":33.906654,"lng":130.80939,"zip":"8080024"},{"town":"浜町三丁目","koaza":"","lat":33.909357,"lng":130.809767,"zip":"8080024"},{"town":"原町","koaza":"","lat":33.915906,"lng":130.794721,"zip":"8080016"},{"town":"東小石町","koaza":"","lat":33.918883,"lng":130.795886,"zip":"8080017"},{"town":"東畑町","koaza":"","lat":33.908581,"lng":130.796634,"zip":"8080044"},{"town":"東二島一丁目","koaza":"","lat":33.890459,"lng":130.75905,"zip":"8080102"},{"town":"東二島二丁目","koaza":"","lat":33.890165,"lng":130.757169,"zip":"8080102"},{"town":"東二島三丁目","koaza":"","lat":33.890776,"lng":130.754207,"zip":"8080102"},{"town":"東二島四丁目","koaza":"","lat":33.889431,"lng":130.751223,"zip":"8080102"},{"town":"東二島五丁目","koaza":"","lat":33.891381,"lng":130.749251,"zip":"8080102"},{"town":"ひびきの","koaza":"","lat":33.889676,"lng":130.711783,"zip":"8080135"},{"town":"ひびきの北","koaza":"","lat":33.891644,"lng":130.709864,"zip":"8080138"},{"town":"ひびきの南一丁目","koaza":"","lat":33.88728,"lng":130.714479,"zip":"8080137"},{"town":"ひびきの南二丁目","koaza":"","lat":33.886101,"lng":130.711918,"zip":"8080137"},{"town":"響町一丁目","koaza":"","lat":33.940111,"lng":130.821747,"zip":"8080021"},{"town":"響町二丁目","koaza":"","lat":33.93991,"lng":130.791662,"zip":"8080021"},{"town":"響町三丁目","koaza":"","lat":33.934638,"lng":130.756574,"zip":"8080021"},{"town":"深町一丁目","koaza":"","lat":33.91436,"lng":130.798672,"zip":"8080012"},{"town":"深町二丁目","koaza":"","lat":33.911772,"lng":130.796053,"zip":"8080012"},{"town":"藤ノ木一丁目","koaza":"","lat":33.891937,"lng":130.785574,"zip":"8080074"},{"town":"藤ノ木二丁目","koaza":"","lat":33.891741,"lng":130.777847,"zip":"8080074"},{"town":"藤ノ木三丁目","koaza":"","lat":33.89084,"lng":130.773231,"zip":"8080074"},{"town":"二島一丁目","koaza":"","lat":33.890462,"lng":130.744668,"zip":"8080103"},{"town":"二島二丁目","koaza":"","lat":33.892147,"lng":130.746589,"zip":"8080103"},{"town":"二島三丁目","koaza":"","lat":33.893876,"lng":130.743799,"zip":"8080103"},{"town":"二島四丁目","koaza":"","lat":33.895804,"lng":130.74451,"zip":"8080103"},{"town":"二島五丁目","koaza":"","lat":33.895056,"lng":130.739688,"zip":"8080103"},{"town":"二島六丁目","koaza":"","lat":33.891654,"lng":130.739151,"zip":"8080103"},{"town":"古前一丁目","koaza":"","lat":33.893524,"lng":130.798545,"zip":"8080062"},{"town":"古前二丁目","koaza":"","lat":33.896996,"lng":130.798121,"zip":"8080062"},{"town":"本町一丁目","koaza":"","lat":33.903307,"lng":130.812886,"zip":"8080034"},{"town":"本町二丁目","koaza":"","lat":33.902968,"lng":130.809464,"zip":"8080034"},{"town":"本町三丁目","koaza":"","lat":33.902618,"lng":130.807219,"zip":"8080034"},{"town":"南二島一丁目","koaza":"","lat":33.885158,"lng":130.758474,"zip":"8080109"},{"town":"南二島二丁目","koaza":"","lat":33.884313,"lng":130.750988,"zip":"8080109"},{"town":"南二島三丁目","koaza":"","lat":33.882021,"lng":130.760039,"zip":"8080109"},{"town":"南二島四丁目","koaza":"","lat":33.884916,"lng":130.770161,"zip":"8080109"},{"town":"南二島五丁目","koaza":"","lat":33.88634,"lng":130.779789,"zip":"8080109"},{"town":"宮前町","koaza":"","lat":33.916506,"lng":130.787586,"zip":"8080006"},{"town":"宮丸一丁目","koaza":"","lat":33.895943,"lng":130.788356,"zip":"8080064"},{"town":"宮丸二丁目","koaza":"","lat":33.894839,"lng":130.785412,"zip":"8080064"},{"town":"柳崎町","koaza":"","lat":33.929592,"lng":130.742881,"zip":"8080111"},{"town":"山手町","koaza":"","lat":33.904018,"lng":130.80202,"zip":"8080036"},{"town":"山ノ堂町","koaza":"","lat":33.906135,"lng":130.797491,"zip":"8080045"},{"town":"百合野町","koaza":"","lat":33.897918,"lng":130.783531,"zip":"8080072"},{"town":"用勺町","koaza":"","lat":33.894029,"lng":130.769696,"zip":"8080077"},{"town":"和田町","koaza":"","lat":33.893785,"lng":130.792346,"zip":"8080063"},{"town":"塩屋一丁目","koaza":"","lat":33.897209,"lng":130.717852,"zip":"8080131"},{"town":"塩屋四丁目","koaza":"","lat":33.897928,"lng":130.712088,"zip":"8080131"},{"town":"小敷ひびきの一丁目","koaza":"","lat":33.897805,"lng":130.705051,"zip":"8080139"}]