[{"town":"青葉一丁目","koaza":"","lat":33.887916,"lng":130.867263,"zip":"8030822"},{"town":"青葉二丁目","koaza":"","lat":33.885045,"lng":130.865589,"zip":"8030822"},{"town":"赤坂一丁目","koaza":"","lat":33.887521,"lng":130.905469,"zip":"8020032"},{"town":"赤坂二丁目","koaza":"","lat":33.888197,"lng":130.907647,"zip":"8020032"},{"town":"赤坂三丁目","koaza":"","lat":33.889067,"lng":130.910158,"zip":"8020032"},{"town":"赤坂四丁目","koaza":"","lat":33.889445,"lng":130.913599,"zip":"8020032"},{"town":"赤坂五丁目","koaza":"","lat":33.891815,"lng":130.913765,"zip":"8020032"},{"town":"赤坂海岸","koaza":"","lat":33.89398,"lng":130.910434,"zip":"8020031"},{"town":"浅野一丁目","koaza":"","lat":33.887066,"lng":130.882887,"zip":"8020001"},{"town":"浅野二丁目","koaza":"","lat":33.887709,"lng":130.885848,"zip":"8020001"},{"town":"浅野三丁目","koaza":"","lat":33.890919,"lng":130.885296,"zip":"8020001"},{"town":"朝日ケ丘","koaza":"","lat":33.889061,"lng":130.85305,"zip":"8030833"},{"town":"足原一丁目","koaza":"","lat":33.869187,"lng":130.896452,"zip":"8020043"},{"town":"足原二丁目","koaza":"","lat":33.865526,"lng":130.896782,"zip":"8020043"},{"town":"愛宕一丁目","koaza":"","lat":33.888499,"lng":130.864985,"zip":"8030828"},{"town":"愛宕二丁目","koaza":"","lat":33.886779,"lng":130.863403,"zip":"8030828"},{"town":"足立一丁目","koaza":"","lat":33.869086,"lng":130.900198,"zip":"8020042"},{"town":"足立二丁目","koaza":"","lat":33.866706,"lng":130.901298,"zip":"8020042"},{"town":"足立三丁目","koaza":"","lat":33.865881,"lng":130.899229,"zip":"8020042"},{"town":"泉台一丁目","koaza":"","lat":33.86802,"lng":130.852417,"zip":"8030842"},{"town":"泉台二丁目","koaza":"","lat":33.866622,"lng":130.850266,"zip":"8030842"},{"town":"泉台三丁目","koaza":"","lat":33.867029,"lng":130.847773,"zip":"8030842"},{"town":"泉台四丁目","koaza":"","lat":33.863178,"lng":130.848739,"zip":"8030842"},{"town":"板櫃町","koaza":"","lat":33.884236,"lng":130.858968,"zip":"8030824"},{"town":"井堀一丁目","koaza":"","lat":33.882808,"lng":130.849079,"zip":"8030835"},{"town":"井堀二丁目","koaza":"","lat":33.885626,"lng":130.851332,"zip":"8030835"},{"town":"井堀三丁目","koaza":"","lat":33.884419,"lng":130.845225,"zip":"8030835"},{"town":"井堀四丁目","koaza":"","lat":33.880746,"lng":130.844917,"zip":"8030835"},{"town":"井堀五丁目","koaza":"","lat":33.877214,"lng":130.842816,"zip":"8030835"},{"town":"今町一丁目","koaza":"","lat":33.861296,"lng":130.874094,"zip":"8030862"},{"town":"今町二丁目","koaza":"","lat":33.857368,"lng":130.873692,"zip":"8030862"},{"town":"今町三丁目","koaza":"","lat":33.855261,"lng":130.872078,"zip":"8030862"},{"town":"鋳物師町","koaza":"","lat":33.889133,"lng":130.869093,"zip":"8030821"},{"town":"魚町一丁目","koaza":"","lat":33.884854,"lng":130.880537,"zip":"8020006"},{"town":"魚町二丁目","koaza":"","lat":33.883694,"lng":130.880277,"zip":"8020006"},{"town":"魚町三丁目","koaza":"","lat":33.882527,"lng":130.879971,"zip":"8020006"},{"town":"魚町四丁目","koaza":"","lat":33.881135,"lng":130.879997,"zip":"8020006"},{"town":"宇佐町一丁目","koaza":"","lat":33.876934,"lng":130.890464,"zip":"8020016"},{"town":"宇佐町二丁目","koaza":"","lat":33.875497,"lng":130.89251,"zip":"8020016"},{"town":"江南町","koaza":"","lat":33.875641,"lng":130.883215,"zip":"8020083"},{"town":"大字藍島","koaza":"","lat":33.992902,"lng":130.817337,"zip":"8020000"},{"town":"大字足原","koaza":"","lat":33.86353,"lng":130.914506,"zip":"8020000"},{"town":"大字馬島","koaza":"","lat":33.96833,"lng":130.85384,"zip":"8020000"},{"town":"大字富野","koaza":"","lat":33.876843,"lng":130.913449,"zip":"8020000"},{"town":"大田町","koaza":"","lat":33.878794,"lng":130.891115,"zip":"8020015"},{"town":"大手町","koaza":"","lat":33.877444,"lng":130.870952,"zip":"8030814"},{"town":"大畠一丁目","koaza":"","lat":33.873016,"lng":130.895323,"zip":"8020026"},{"town":"大畠二丁目","koaza":"","lat":33.874215,"lng":130.898484,"zip":"8020026"},{"town":"大畠三丁目","koaza":"","lat":33.872046,"lng":130.897886,"zip":"8020026"},{"town":"鍛冶町一丁目","koaza":"","lat":33.883129,"lng":130.88304,"zip":"8020004"},{"town":"鍛冶町二丁目","koaza":"","lat":33.882605,"lng":130.886272,"zip":"8020004"},{"town":"片野一丁目","koaza":"","lat":33.869253,"lng":130.881791,"zip":"8020064"},{"town":"片野二丁目","koaza":"","lat":33.867114,"lng":130.883871,"zip":"8020064"},{"town":"片野三丁目","koaza":"","lat":33.867263,"lng":130.881049,"zip":"8020064"},{"town":"片野四丁目","koaza":"","lat":33.86269,"lng":130.88152,"zip":"8020064"},{"town":"片野五丁目","koaza":"","lat":33.863567,"lng":130.879019,"zip":"8020064"},{"town":"片野新町一丁目","koaza":"","lat":33.863977,"lng":130.88461,"zip":"8020062"},{"town":"片野新町二丁目","koaza":"","lat":33.861275,"lng":130.884829,"zip":"8020062"},{"town":"金田一丁目","koaza":"","lat":33.878618,"lng":130.866074,"zip":"8030816"},{"town":"金田二丁目","koaza":"","lat":33.880545,"lng":130.865002,"zip":"8030816"},{"town":"金田三丁目","koaza":"","lat":33.880532,"lng":130.86166,"zip":"8030816"},{"town":"上到津一丁目","koaza":"","lat":33.878537,"lng":130.851937,"zip":"8030845"},{"town":"上到津二丁目","koaza":"","lat":33.874885,"lng":130.85182,"zip":"8030845"},{"town":"上到津三丁目","koaza":"","lat":33.873609,"lng":130.849272,"zip":"8030845"},{"town":"上到津四丁目","koaza":"","lat":33.872778,"lng":130.845653,"zip":"8030845"},{"town":"上富野一丁目","koaza":"","lat":33.884273,"lng":130.896721,"zip":"8020022"},{"town":"上富野二丁目","koaza":"","lat":33.883023,"lng":130.901183,"zip":"8020022"},{"town":"上富野三丁目","koaza":"","lat":33.886055,"lng":130.900744,"zip":"8020022"},{"town":"上富野四丁目","koaza":"","lat":33.886858,"lng":130.903606,"zip":"8020022"},{"town":"上富野五丁目","koaza":"","lat":33.883843,"lng":130.905198,"zip":"8020022"},{"town":"香春口一丁目","koaza":"","lat":33.874575,"lng":130.880065,"zip":"8020084"},{"town":"香春口二丁目","koaza":"","lat":33.874496,"lng":130.881691,"zip":"8020084"},{"town":"神岳一丁目","koaza":"","lat":33.871684,"lng":130.890904,"zip":"8020045"},{"town":"神岳二丁目","koaza":"","lat":33.872808,"lng":130.892952,"zip":"8020045"},{"town":"貴船町","koaza":"","lat":33.869704,"lng":130.871814,"zip":"8020073"},{"town":"木町一丁目","koaza":"","lat":33.873831,"lng":130.867082,"zip":"8030851"},{"town":"木町二丁目","koaza":"","lat":33.870511,"lng":130.868055,"zip":"8030851"},{"town":"木町三丁目","koaza":"","lat":33.870945,"lng":130.865065,"zip":"8030851"},{"town":"木町四丁目","koaza":"","lat":33.873499,"lng":130.864374,"zip":"8030851"},{"town":"京町一丁目","koaza":"","lat":33.885474,"lng":130.878609,"zip":"8020002"},{"town":"京町二丁目","koaza":"","lat":33.886262,"lng":130.880563,"zip":"8020002"},{"town":"京町三丁目","koaza":"","lat":33.885234,"lng":130.883542,"zip":"8020002"},{"town":"京町四丁目","koaza":"","lat":33.885029,"lng":130.887545,"zip":"8020002"},{"town":"清水一丁目","koaza":"","lat":33.876436,"lng":130.859997,"zip":"8030841"},{"town":"清水二丁目","koaza":"","lat":33.874281,"lng":130.860873,"zip":"8030841"},{"town":"清水三丁目","koaza":"","lat":33.874058,"lng":130.85911,"zip":"8030841"},{"town":"清水四丁目","koaza":"","lat":33.871181,"lng":130.858638,"zip":"8030841"},{"town":"清水五丁目","koaza":"","lat":33.869905,"lng":130.855081,"zip":"8030841"},{"town":"霧ケ丘一丁目","koaza":"","lat":33.856201,"lng":130.896376,"zip":"8020052"},{"town":"霧ケ丘二丁目","koaza":"","lat":33.855108,"lng":130.900182,"zip":"8020052"},{"town":"霧ケ丘三丁目","koaza":"","lat":33.851199,"lng":130.897064,"zip":"8020052"},{"town":"金鶏町","koaza":"","lat":33.871237,"lng":130.850103,"zip":"8030843"},{"town":"熊谷一丁目","koaza":"","lat":33.859763,"lng":130.867807,"zip":"8030864"},{"town":"熊谷二丁目","koaza":"","lat":33.855616,"lng":130.86885,"zip":"8030864"},{"town":"熊谷三丁目","koaza":"","lat":33.855288,"lng":130.865524,"zip":"8030864"},{"town":"熊谷四丁目","koaza":"","lat":33.857611,"lng":130.862937,"zip":"8030864"},{"town":"熊谷五丁目","koaza":"","lat":33.851606,"lng":130.863175,"zip":"8030864"},{"town":"熊本一丁目","koaza":"","lat":33.868192,"lng":130.891024,"zip":"8020044"},{"town":"熊本二丁目","koaza":"","lat":33.86987,"lng":130.893269,"zip":"8020044"},{"town":"熊本三丁目","koaza":"","lat":33.867092,"lng":130.893507,"zip":"8020044"},{"town":"熊本四丁目","koaza":"","lat":33.865226,"lng":130.894267,"zip":"8020044"},{"town":"黒住町","koaza":"","lat":33.861897,"lng":130.893771,"zip":"8020056"},{"town":"黒原一丁目","koaza":"","lat":33.863954,"lng":130.899557,"zip":"8020051"},{"town":"黒原二丁目","koaza":"","lat":33.861154,"lng":130.900095,"zip":"8020051"},{"town":"黒原三丁目","koaza":"","lat":33.860811,"lng":130.896455,"zip":"8020051"},{"town":"黄金一丁目","koaza":"","lat":33.871166,"lng":130.87895,"zip":"8020071"},{"town":"黄金二丁目","koaza":"","lat":33.868819,"lng":130.879094,"zip":"8020071"},{"town":"許斐町","koaza":"","lat":33.89539,"lng":130.878922,"zip":"8030803"},{"town":"米町一丁目","koaza":"","lat":33.884076,"lng":130.883104,"zip":"8020003"},{"town":"米町二丁目","koaza":"","lat":33.883631,"lng":130.886048,"zip":"8020003"},{"town":"小文字一丁目","koaza":"","lat":33.878504,"lng":130.903339,"zip":"8020037"},{"town":"小文字二丁目","koaza":"","lat":33.875616,"lng":130.903654,"zip":"8020037"},{"town":"紺屋町","koaza":"","lat":33.880508,"lng":130.883979,"zip":"8020081"},{"town":"菜園場一丁目","koaza":"","lat":33.883549,"lng":130.863779,"zip":"8030823"},{"town":"菜園場二丁目","koaza":"","lat":33.883835,"lng":130.861507,"zip":"8030823"},{"town":"堺町一丁目","koaza":"","lat":33.882016,"lng":130.882769,"zip":"8020005"},{"town":"堺町二丁目","koaza":"","lat":33.881575,"lng":130.885836,"zip":"8020005"},{"town":"三郎丸一丁目","koaza":"","lat":33.864552,"lng":130.887347,"zip":"8020061"},{"town":"三郎丸二丁目","koaza":"","lat":33.863844,"lng":130.889844,"zip":"8020061"},{"town":"三郎丸三丁目","koaza":"","lat":33.868259,"lng":130.888369,"zip":"8020061"},{"town":"皿山町","koaza":"","lat":33.8683,"lng":130.857278,"zip":"8030854"},{"town":"山門町","koaza":"","lat":33.873962,"lng":130.902829,"zip":"8020024"},{"town":"重住三丁目","koaza":"","lat":33.857896,"lng":130.890099,"zip":"8020011"},{"town":"篠崎一丁目","koaza":"","lat":33.866417,"lng":130.868991,"zip":"8030861"},{"town":"篠崎二丁目","koaza":"","lat":33.862301,"lng":130.869241,"zip":"8030861"},{"town":"篠崎三丁目","koaza":"","lat":33.861719,"lng":130.864547,"zip":"8030861"},{"town":"篠崎四丁目","koaza":"","lat":33.862804,"lng":130.862461,"zip":"8030861"},{"town":"篠崎五丁目","koaza":"","lat":33.861004,"lng":130.86117,"zip":"8030861"},{"town":"下到津一丁目","koaza":"","lat":33.880138,"lng":130.857856,"zip":"8030846"},{"town":"下到津二丁目","koaza":"","lat":33.881874,"lng":130.85325,"zip":"8030846"},{"town":"下到津三丁目","koaza":"","lat":33.878811,"lng":130.854741,"zip":"8030846"},{"town":"下到津四丁目","koaza":"","lat":33.877837,"lng":130.856954,"zip":"8030846"},{"town":"下到津五丁目","koaza":"","lat":33.875299,"lng":130.856812,"zip":"8030846"},{"town":"下富野一丁目","koaza":"","lat":33.882002,"lng":130.893532,"zip":"8020023"},{"town":"下富野二丁目","koaza":"","lat":33.882291,"lng":130.896846,"zip":"8020023"},{"town":"下富野三丁目","koaza":"","lat":33.879637,"lng":130.896591,"zip":"8020023"},{"town":"下富野四丁目","koaza":"","lat":33.876525,"lng":130.895107,"zip":"8020023"},{"town":"下富野五丁目","koaza":"","lat":33.877345,"lng":130.898635,"zip":"8020023"},{"town":"寿山町","koaza":"","lat":33.870432,"lng":130.902857,"zip":"8020025"},{"town":"城内","koaza":"","lat":33.882995,"lng":130.873499,"zip":"8030813"},{"town":"城野団地","koaza":"","lat":33.862326,"lng":130.89133,"zip":"8020055"},{"town":"昭和町","koaza":"","lat":33.874404,"lng":130.878112,"zip":"8020075"},{"town":"白銀一丁目","koaza":"","lat":33.870624,"lng":130.875653,"zip":"8020074"},{"town":"白銀二丁目","koaza":"","lat":33.868288,"lng":130.876089,"zip":"8020074"},{"town":"白萩町","koaza":"","lat":33.883754,"lng":130.854843,"zip":"8030825"},{"town":"神幸町","koaza":"","lat":33.881589,"lng":130.902923,"zip":"8020038"},{"town":"新高田一丁目","koaza":"","lat":33.867824,"lng":130.865078,"zip":"8030852"},{"town":"新高田二丁目","koaza":"","lat":33.866219,"lng":130.863537,"zip":"8030852"},{"town":"親和町","koaza":"","lat":33.902297,"lng":130.851116,"zip":"8030805"},{"town":"末広一丁目","koaza":"","lat":33.886703,"lng":130.890448,"zip":"8020012"},{"town":"末広二丁目","koaza":"","lat":33.890333,"lng":130.896673,"zip":"8020012"},{"town":"須賀町","koaza":"","lat":33.881546,"lng":130.908731,"zip":"8020034"},{"town":"砂津一丁目","koaza":"","lat":33.881536,"lng":130.888814,"zip":"8020014"},{"town":"砂津二丁目","koaza":"","lat":33.88174,"lng":130.891554,"zip":"8020014"},{"town":"砂津三丁目","koaza":"","lat":33.883836,"lng":130.890819,"zip":"8020014"},{"town":"船頭町","koaza":"","lat":33.887192,"lng":130.879063,"zip":"8020008"},{"town":"船場町","koaza":"","lat":33.883935,"lng":130.878271,"zip":"8020007"},{"town":"大門一丁目","koaza":"","lat":33.885517,"lng":130.871462,"zip":"8030811"},{"town":"大門二丁目","koaza":"","lat":33.887394,"lng":130.872636,"zip":"8030811"},{"town":"高尾一丁目","koaza":"","lat":33.866004,"lng":130.858217,"zip":"8030853"},{"town":"高尾二丁目","koaza":"","lat":33.861927,"lng":130.853026,"zip":"8030853"},{"town":"高浜一丁目","koaza":"","lat":33.887206,"lng":130.897185,"zip":"8020021"},{"town":"高浜二丁目","koaza":"","lat":33.89016,"lng":130.903241,"zip":"8020021"},{"town":"高坊一丁目","koaza":"","lat":33.858414,"lng":130.893009,"zip":"8020053"},{"town":"高坊二丁目","koaza":"","lat":33.855646,"lng":130.892871,"zip":"8020053"},{"town":"高見台","koaza":"","lat":33.894592,"lng":130.855579,"zip":"8030838"},{"town":"高峰町","koaza":"","lat":33.888128,"lng":130.854984,"zip":"8030826"},{"town":"竪林町","koaza":"","lat":33.868869,"lng":130.861844,"zip":"8030855"},{"town":"竪町一丁目","koaza":"","lat":33.885858,"lng":130.869697,"zip":"8030818"},{"town":"竪町二丁目","koaza":"","lat":33.884839,"lng":130.867505,"zip":"8030818"},{"town":"田町","koaza":"","lat":33.881787,"lng":130.868267,"zip":"8030817"},{"town":"常盤町","koaza":"","lat":33.880094,"lng":130.906594,"zip":"8020035"},{"town":"富野台","koaza":"","lat":33.886151,"lng":130.913713,"zip":"8020033"},{"town":"中井一丁目","koaza":"","lat":33.894856,"lng":130.849981,"zip":"8030836"},{"town":"中井二丁目","koaza":"","lat":33.890776,"lng":130.850695,"zip":"8030836"},{"town":"中井三丁目","koaza":"","lat":33.891905,"lng":130.847267,"zip":"8030836"},{"town":"中井四丁目","koaza":"","lat":33.88771,"lng":130.848977,"zip":"8030836"},{"town":"中井五丁目","koaza":"","lat":33.88833,"lng":130.845332,"zip":"8030836"},{"town":"中井口","koaza":"","lat":33.897202,"lng":130.852883,"zip":"8030837"},{"town":"中井浜","koaza":"","lat":33.899634,"lng":130.850404,"zip":"8030804"},{"town":"中島一丁目","koaza":"","lat":33.877634,"lng":130.877783,"zip":"8020076"},{"town":"中島二丁目","koaza":"","lat":33.875055,"lng":130.874414,"zip":"8020076"},{"town":"中津口一丁目","koaza":"","lat":33.879075,"lng":130.886998,"zip":"8020018"},{"town":"中津口二丁目","koaza":"","lat":33.877834,"lng":130.885527,"zip":"8020018"},{"town":"長浜町","koaza":"","lat":33.8856,"lng":130.891022,"zip":"8020013"},{"town":"西港町","koaza":"","lat":33.904751,"lng":130.868833,"zip":"8030801"},{"town":"萩崎町","koaza":"","lat":33.874231,"lng":130.885329,"zip":"8020066"},{"town":"馬借一丁目","koaza":"","lat":33.880911,"lng":130.877956,"zip":"8020077"},{"town":"馬借二丁目","koaza":"","lat":33.878268,"lng":130.879008,"zip":"8020077"},{"town":"馬借三丁目","koaza":"","lat":33.878368,"lng":130.88075,"zip":"8020077"},{"town":"原町一丁目","koaza":"","lat":33.876509,"lng":130.863162,"zip":"8030815"},{"town":"原町二丁目","koaza":"","lat":33.875494,"lng":130.865386,"zip":"8030815"},{"town":"日明一丁目","koaza":"","lat":33.891562,"lng":130.86269,"zip":"8030831"},{"town":"日明二丁目","koaza":"","lat":33.890405,"lng":130.860671,"zip":"8030831"},{"town":"日明三丁目","koaza":"","lat":33.89175,"lng":130.855967,"zip":"8030831"},{"town":"日明四丁目","koaza":"","lat":33.892588,"lng":130.859612,"zip":"8030831"},{"town":"日明五丁目","koaza":"","lat":33.894641,"lng":130.858872,"zip":"8030831"},{"town":"東篠崎一丁目","koaza":"","lat":33.865978,"lng":130.877806,"zip":"8020072"},{"town":"東篠崎二丁目","koaza":"","lat":33.863628,"lng":130.874618,"zip":"8020072"},{"town":"東篠崎三丁目","koaza":"","lat":33.866762,"lng":130.872989,"zip":"8020072"},{"town":"東港一丁目","koaza":"","lat":33.892482,"lng":130.86848,"zip":"8030802"},{"town":"東港二丁目","koaza":"","lat":33.895187,"lng":130.869787,"zip":"8030802"},{"town":"平松町","koaza":"","lat":33.891487,"lng":130.864891,"zip":"8030832"},{"town":"古船場町","koaza":"","lat":33.878897,"lng":130.882776,"zip":"8020082"},{"town":"弁天町","koaza":"","lat":33.870752,"lng":130.862123,"zip":"8030856"},{"town":"真鶴一丁目","koaza":"","lat":33.874126,"lng":130.854269,"zip":"8030844"},{"town":"真鶴二丁目","koaza":"","lat":33.871726,"lng":130.854418,"zip":"8030844"},{"town":"緑ケ丘一丁目","koaza":"","lat":33.889128,"lng":130.859042,"zip":"8030827"},{"town":"緑ケ丘二丁目","koaza":"","lat":33.887238,"lng":130.858236,"zip":"8030827"},{"town":"緑ケ丘三丁目","koaza":"","lat":33.88622,"lng":130.859168,"zip":"8030827"},{"town":"南丘一丁目","koaza":"","lat":33.852095,"lng":130.871137,"zip":"8030863"},{"town":"南丘二丁目","koaza":"","lat":33.848928,"lng":130.870531,"zip":"8030863"},{"town":"南丘三丁目","koaza":"","lat":33.851178,"lng":130.8665,"zip":"8030863"},{"town":"三萩野一丁目","koaza":"","lat":33.872433,"lng":130.882397,"zip":"8020065"},{"town":"三萩野二丁目","koaza":"","lat":33.869719,"lng":130.88463,"zip":"8020065"},{"town":"三萩野三丁目","koaza":"","lat":33.871045,"lng":130.887211,"zip":"8020065"},{"town":"都一丁目","koaza":"","lat":33.878516,"lng":130.848574,"zip":"8030834"},{"town":"都二丁目","koaza":"","lat":33.877316,"lng":130.846476,"zip":"8030834"},{"town":"妙見町","koaza":"","lat":33.865234,"lng":130.90521,"zip":"8020041"},{"town":"室町一丁目","koaza":"","lat":33.885784,"lng":130.875494,"zip":"8030812"},{"town":"室町二丁目","koaza":"","lat":33.886753,"lng":130.876113,"zip":"8030812"},{"town":"室町三丁目","koaza":"","lat":33.888161,"lng":130.87583,"zip":"8030812"},{"town":"明和町","koaza":"","lat":33.874994,"lng":130.888716,"zip":"8020017"},{"town":"山田町","koaza":"","lat":33.850549,"lng":130.850678,"zip":"8030865"},{"town":"吉野町","koaza":"","lat":33.873753,"lng":130.876339,"zip":"8020085"},{"town":"若富士町","koaza":"","lat":33.858789,"lng":130.886296,"zip":"8020063"},{"town":"片野新町三丁目","koaza":"","lat":33.860953,"lng":130.887612,"zip":"8020062"},{"town":"東城野町","koaza":"","lat":33.859836,"lng":130.889668,"zip":"8020054"}]