[{"town":"青柳","koaza":"","lat":33.70597,"lng":130.48004,"zip":"8113134"},{"town":"青柳町","koaza":"","lat":33.708067,"lng":130.496861,"zip":"8113133"},{"town":"糸ケ浦","koaza":"","lat":33.714979,"lng":130.469923,"zip":"8113136"},{"town":"今在家","koaza":"","lat":33.720404,"lng":130.477005,"zip":"8113131"},{"town":"今の庄一丁目","koaza":"","lat":33.730692,"lng":130.474923,"zip":"8113117"},{"town":"今の庄二丁目","koaza":"","lat":33.727219,"lng":130.473072,"zip":"8113117"},{"town":"今の庄三丁目","koaza":"","lat":33.724095,"lng":130.473717,"zip":"8113117"},{"town":"駅東一丁目","koaza":"","lat":33.729035,"lng":130.468756,"zip":"8113102"},{"town":"駅東二丁目","koaza":"","lat":33.731246,"lng":130.468155,"zip":"8113102"},{"town":"駅東三丁目","koaza":"","lat":33.73389,"lng":130.469158,"zip":"8113102"},{"town":"駅東四丁目","koaza":"","lat":33.73709,"lng":130.470181,"zip":"8113102"},{"town":"駅東五丁目","koaza":"","lat":33.738821,"lng":130.470833,"zip":"8113102"},{"town":"小竹","koaza":"","lat":33.698426,"lng":130.473842,"zip":"8113135"},{"town":"小山田","koaza":"","lat":33.715764,"lng":130.507048,"zip":"8113126"},{"town":"花鶴丘一丁目","koaza":"","lat":33.727113,"lng":130.467517,"zip":"8113104"},{"town":"花鶴丘二丁目","koaza":"","lat":33.725509,"lng":130.464031,"zip":"8113104"},{"town":"花鶴丘三丁目","koaza":"","lat":33.723646,"lng":130.470039,"zip":"8113104"},{"town":"川原","koaza":"","lat":33.717222,"lng":130.487446,"zip":"8113132"},{"town":"久保","koaza":"","lat":33.737252,"lng":130.48725,"zip":"8113115"},{"town":"古賀","koaza":"","lat":33.732869,"lng":130.457231,"zip":"8113137"},{"town":"薦野","koaza":"","lat":33.72526,"lng":130.545307,"zip":"8113122"},{"town":"鹿部","koaza":"","lat":33.716112,"lng":130.463991,"zip":"8113105"},{"town":"庄","koaza":"","lat":33.727837,"lng":130.48179,"zip":"8113116"},{"town":"新久保一丁目","koaza":"","lat":33.734496,"lng":130.480175,"zip":"8113118"},{"town":"新久保二丁目","koaza":"","lat":33.736286,"lng":130.48064,"zip":"8113118"},{"town":"新原","koaza":"","lat":33.722813,"lng":130.488662,"zip":"8113127"},{"town":"谷山","koaza":"","lat":33.701936,"lng":130.511608,"zip":"8113125"},{"town":"千鳥一丁目","koaza":"","lat":33.74069,"lng":130.47372,"zip":"8113113"},{"town":"千鳥二丁目","koaza":"","lat":33.742527,"lng":130.474319,"zip":"8113113"},{"town":"千鳥三丁目","koaza":"","lat":33.742265,"lng":130.478364,"zip":"8113113"},{"town":"千鳥四丁目","koaza":"","lat":33.746756,"lng":130.478348,"zip":"8113113"},{"town":"千鳥五丁目","koaza":"","lat":33.746691,"lng":130.475436,"zip":"8113113"},{"town":"千鳥六丁目","koaza":"","lat":33.749869,"lng":130.47895,"zip":"8113113"},{"town":"中央一丁目","koaza":"","lat":33.730037,"lng":130.471754,"zip":"8113103"},{"town":"中央二丁目","koaza":"","lat":33.732183,"lng":130.472038,"zip":"8113103"},{"town":"中央三丁目","koaza":"","lat":33.73453,"lng":130.472488,"zip":"8113103"},{"town":"中央四丁目","koaza":"","lat":33.736058,"lng":130.473146,"zip":"8113103"},{"town":"中央五丁目","koaza":"","lat":33.736583,"lng":130.476102,"zip":"8113103"},{"town":"中央六丁目","koaza":"","lat":33.738551,"lng":130.474338,"zip":"8113103"},{"town":"天神一丁目","koaza":"","lat":33.730774,"lng":130.463969,"zip":"8113101"},{"town":"天神二丁目","koaza":"","lat":33.734755,"lng":130.466505,"zip":"8113101"},{"town":"天神三丁目","koaza":"","lat":33.738271,"lng":130.467914,"zip":"8113101"},{"town":"天神四丁目","koaza":"","lat":33.737202,"lng":130.464926,"zip":"8113101"},{"town":"天神五丁目","koaza":"","lat":33.731611,"lng":130.461885,"zip":"8113101"},{"town":"天神六丁目","koaza":"","lat":33.732673,"lng":130.460311,"zip":"8113101"},{"town":"天神七丁目","koaza":"","lat":33.737644,"lng":130.462008,"zip":"8113101"},{"town":"米多比","koaza":"","lat":33.720489,"lng":130.52712,"zip":"8113123"},{"town":"花見東一丁目","koaza":"","lat":33.745041,"lng":130.471777,"zip":"8113112"},{"town":"花見東二丁目","koaza":"","lat":33.746131,"lng":130.469156,"zip":"8113112"},{"town":"花見東三丁目","koaza":"","lat":33.748136,"lng":130.467099,"zip":"8113112"},{"town":"花見東四丁目","koaza":"","lat":33.749114,"lng":130.470378,"zip":"8113112"},{"town":"花見東五丁目","koaza":"","lat":33.748216,"lng":130.474067,"zip":"8113112"},{"town":"花見東六丁目","koaza":"","lat":33.750576,"lng":130.475099,"zip":"8113112"},{"town":"花見東七丁目","koaza":"","lat":33.751498,"lng":130.471419,"zip":"8113112"},{"town":"花見南一丁目","koaza":"","lat":33.741947,"lng":130.46962,"zip":"8113111"},{"town":"花見南二丁目","koaza":"","lat":33.742509,"lng":130.467198,"zip":"8113111"},{"town":"花見南三丁目","koaza":"","lat":33.742724,"lng":130.464814,"zip":"8113111"},{"town":"日吉一丁目","koaza":"","lat":33.726379,"lng":130.460919,"zip":"8113106"},{"town":"日吉二丁目","koaza":"","lat":33.726371,"lng":130.458096,"zip":"8113106"},{"town":"日吉三丁目","koaza":"","lat":33.722568,"lng":130.455816,"zip":"8113106"},{"town":"舞の里一丁目","koaza":"","lat":33.749028,"lng":130.482143,"zip":"8113114"},{"town":"舞の里二丁目","koaza":"","lat":33.745988,"lng":130.480999,"zip":"8113114"},{"town":"舞の里三丁目","koaza":"","lat":33.745764,"lng":130.486139,"zip":"8113114"},{"town":"舞の里四丁目","koaza":"","lat":33.745051,"lng":130.490662,"zip":"8113114"},{"town":"舞の里五丁目","koaza":"","lat":33.743946,"lng":130.495111,"zip":"8113114"},{"town":"美明一丁目","koaza":"","lat":33.722046,"lng":130.464555,"zip":"8113107"},{"town":"美明二丁目","koaza":"","lat":33.721031,"lng":130.459534,"zip":"8113107"},{"town":"美明三丁目","koaza":"","lat":33.719877,"lng":130.462449,"zip":"8113107"},{"town":"筵内","koaza":"","lat":33.734428,"lng":130.502344,"zip":"8113121"},{"town":"薬王寺","koaza":"","lat":33.713889,"lng":130.519668,"zip":"8113124"},{"town":"美郷","koaza":"","lat":33.741714,"lng":130.483849,"zip":"8113119"}]