[{"town":"芥田","koaza":"","lat":33.543253,"lng":130.719609,"zip":"8200331"},{"town":"飯田","koaza":"","lat":33.569553,"lng":130.701762,"zip":"8200501"},{"town":"泉河内","koaza":"","lat":33.515575,"lng":130.686704,"zip":"8200334"},{"town":"稲築才田","koaza":"","lat":33.577609,"lng":130.733196,"zip":"8200204"},{"town":"猪国","koaza":"","lat":33.574853,"lng":130.773502,"zip":"8210014"},{"town":"岩崎","koaza":"","lat":33.596589,"lng":130.716052,"zip":"8200205"},{"town":"牛隈","koaza":"","lat":33.565181,"lng":130.736734,"zip":"8200301"},{"town":"馬見","koaza":"","lat":33.509861,"lng":130.758231,"zip":"8200321"},{"town":"漆生","koaza":"","lat":33.585748,"lng":130.717195,"zip":"8200201"},{"town":"大隈","koaza":"","lat":33.539067,"lng":130.760448,"zip":"8210004"},{"town":"大隈町","koaza":"","lat":33.541776,"lng":130.74036,"zip":"8210002"},{"town":"小野谷","koaza":"","lat":33.504653,"lng":130.771971,"zip":"8200314"},{"town":"嘉穂才田","koaza":"","lat":33.541945,"lng":130.700018,"zip":"8200336"},{"town":"上","koaza":"","lat":33.528153,"lng":130.764371,"zip":"8200311"},{"town":"上臼井","koaza":"","lat":33.560463,"lng":130.708598,"zip":"8200502"},{"town":"上西郷","koaza":"","lat":33.544745,"lng":130.73177,"zip":"8200306"},{"town":"上山田","koaza":"","lat":33.563082,"lng":130.774092,"zip":"8210012"},{"town":"鴨生","koaza":"","lat":33.607769,"lng":130.730433,"zip":"8200206"},{"town":"口春","koaza":"","lat":33.604869,"lng":130.71307,"zip":"8200207"},{"town":"熊ヶ畑","koaza":"","lat":33.537641,"lng":130.786907,"zip":"8200200"},{"town":"九郎原","koaza":"","lat":33.547643,"lng":130.703691,"zip":"8200337"},{"town":"桑野","koaza":"","lat":33.498888,"lng":130.795134,"zip":"8200313"},{"town":"光代","koaza":"","lat":33.566807,"lng":130.720177,"zip":"8200503"},{"town":"貞月","koaza":"","lat":33.5553,"lng":130.732824,"zip":"8200305"},{"town":"椎木","koaza":"","lat":33.529708,"lng":130.745214,"zip":"8200323"},{"town":"下臼井","koaza":"","lat":33.574976,"lng":130.709285,"zip":"8200504"},{"town":"下山田","koaza":"","lat":33.574623,"lng":130.755303,"zip":"8210011"},{"town":"千手","koaza":"","lat":33.510694,"lng":130.723729,"zip":"8200332"},{"town":"大力","koaza":"","lat":33.522699,"lng":130.704508,"zip":"8200333"},{"town":"中益","koaza":"","lat":33.540362,"lng":130.747857,"zip":"8200303"},{"town":"西郷","koaza":"","lat":33.557032,"lng":130.719986,"zip":"8200505"},{"town":"東畑","koaza":"","lat":33.522001,"lng":130.668757,"zip":"8200335"},{"town":"平","koaza":"","lat":33.588011,"lng":130.740695,"zip":"8200203"},{"town":"平山","koaza":"","lat":33.559699,"lng":130.69836,"zip":"8200506"},{"town":"屏","koaza":"","lat":33.50503,"lng":130.742688,"zip":"8200322"},{"town":"宮吉","koaza":"","lat":33.523565,"lng":130.775189,"zip":"8200312"},{"town":"山野","koaza":"","lat":33.6101,"lng":130.706749,"zip":"8200202"}]