[{"town":"青葉町","koaza":"","lat":33.017146,"lng":130.460387,"zip":"8360897"},{"town":"曙町","koaza":"","lat":33.029643,"lng":130.448429,"zip":"8360852"},{"town":"旭町一丁目","koaza":"","lat":33.035485,"lng":130.450235,"zip":"8360807"},{"town":"旭町二丁目","koaza":"","lat":33.035927,"lng":130.452117,"zip":"8360807"},{"town":"旭町三丁目","koaza":"","lat":33.037912,"lng":130.450446,"zip":"8360807"},{"town":"浅牟田町","koaza":"","lat":33.035617,"lng":130.456557,"zip":"8360817"},{"town":"飯田町","koaza":"","lat":33.009322,"lng":130.457014,"zip":"8360087"},{"town":"泉町","koaza":"","lat":33.03455,"lng":130.451409,"zip":"8360831"},{"town":"出雲町","koaza":"","lat":33.030693,"lng":130.4505,"zip":"8360854"},{"town":"一浦町","koaza":"","lat":33.024332,"lng":130.449836,"zip":"8360863"},{"town":"一部町","koaza":"","lat":33.013013,"lng":130.450902,"zip":"8360085"},{"town":"一本町","koaza":"","lat":33.033138,"lng":130.451254,"zip":"8360834"},{"town":"入船町","koaza":"","lat":33.016508,"lng":130.426683,"zip":"8360063"},{"town":"岩本新町一丁目","koaza":"","lat":33.07039,"lng":130.487647,"zip":"8370910"},{"town":"岩本新町二丁目","koaza":"","lat":33.071362,"lng":130.490258,"zip":"8370910"},{"town":"右京町","koaza":"","lat":33.018335,"lng":130.439813,"zip":"8360846"},{"town":"臼井新町一丁目","koaza":"","lat":33.011679,"lng":130.457878,"zip":"8360882"},{"town":"臼井新町二丁目","koaza":"","lat":33.010321,"lng":130.461375,"zip":"8360882"},{"town":"臼井町","koaza":"","lat":33.006507,"lng":130.458682,"zip":"8360094"},{"town":"恵比須町","koaza":"","lat":33.042051,"lng":130.44318,"zip":"8360014"},{"town":"延命寺町","koaza":"","lat":33.017335,"lng":130.442254,"zip":"8360877"},{"town":"大字甘木","koaza":"","lat":33.064074,"lng":130.461097,"zip":"8360000"},{"town":"大字櫟野","koaza":"","lat":33.014674,"lng":130.495562,"zip":"8360000"},{"town":"大字今山","koaza":"","lat":33.03492,"lng":130.494582,"zip":"8360000"},{"town":"大字岩本","koaza":"","lat":33.066897,"lng":130.495538,"zip":"8360000"},{"town":"大字勝立","koaza":"","lat":33.009585,"lng":130.481084,"zip":"8360000"},{"town":"大字上内","koaza":"","lat":33.082065,"lng":130.504815,"zip":"8360000"},{"town":"大字教楽来","koaza":"","lat":33.013124,"lng":130.509724,"zip":"8360000"},{"town":"大字草木","koaza":"","lat":33.052824,"lng":130.462803,"zip":"8360000"},{"town":"大字歴木","koaza":"","lat":33.036657,"lng":130.476901,"zip":"8360000"},{"town":"大字久福木","koaza":"","lat":33.055167,"lng":130.484441,"zip":"8360000"},{"town":"大字倉永","koaza":"","lat":33.07894,"lng":130.455278,"zip":"8360000"},{"town":"大字四ケ","koaza":"","lat":33.074559,"lng":130.519186,"zip":"8360000"},{"town":"大字白銀","koaza":"","lat":33.068529,"lng":130.483848,"zip":"8360000"},{"town":"大字白川","koaza":"","lat":33.045445,"lng":130.468289,"zip":"8360000"},{"town":"大字新町","koaza":"","lat":33.042746,"lng":130.481199,"zip":"8360000"},{"town":"大字田隈","koaza":"","lat":33.056307,"lng":130.469865,"zip":"8360000"},{"town":"大字橘","koaza":"","lat":33.06598,"lng":130.475061,"zip":"8360000"},{"town":"大字手鎌","koaza":"","lat":33.051944,"lng":130.446749,"zip":"8360000"},{"town":"大字唐船","koaza":"","lat":33.061302,"lng":130.444715,"zip":"8360000"},{"town":"大字三池","koaza":"","lat":33.049455,"lng":130.483104,"zip":"8360000"},{"town":"大字岬","koaza":"","lat":33.069336,"lng":130.444207,"zip":"8360000"},{"town":"大字宮崎","koaza":"","lat":33.082065,"lng":130.477191,"zip":"8360000"},{"town":"大字宮部","koaza":"","lat":33.057577,"lng":130.494441,"zip":"8360000"},{"town":"大字吉野","koaza":"","lat":33.073553,"lng":130.471402,"zip":"8360000"},{"town":"大浦町","koaza":"","lat":33.026079,"lng":130.474322,"zip":"8360824"},{"town":"小川町","koaza":"","lat":33.022806,"lng":130.430507,"zip":"8360036"},{"town":"沖田町","koaza":"","lat":33.009474,"lng":130.449135,"zip":"8360091"},{"town":"柿園町一丁目","koaza":"","lat":33.040685,"lng":130.452155,"zip":"8360801"},{"town":"柿園町二丁目","koaza":"","lat":33.039797,"lng":130.453126,"zip":"8360801"},{"town":"柿園町三丁目","koaza":"","lat":33.04145,"lng":130.453892,"zip":"8360801"},{"town":"片平町","koaza":"","lat":33.015117,"lng":130.443778,"zip":"8360082"},{"town":"加納町一丁目","koaza":"","lat":33.011978,"lng":130.428369,"zip":"8360071"},{"town":"加納町二丁目","koaza":"","lat":33.010293,"lng":130.428217,"zip":"8360071"},{"town":"上白川町一丁目","koaza":"","lat":33.046604,"lng":130.462271,"zip":"8370926"},{"town":"上白川町二丁目","koaza":"","lat":33.04586,"lng":130.465851,"zip":"8370926"},{"town":"上町一丁目","koaza":"","lat":33.031124,"lng":130.448853,"zip":"8360853"},{"town":"上町二丁目","koaza":"","lat":33.028486,"lng":130.449788,"zip":"8360853"},{"town":"上屋敷町一丁目","koaza":"","lat":33.011839,"lng":130.431323,"zip":"8360072"},{"town":"上屋敷町二丁目","koaza":"","lat":33.010121,"lng":130.430309,"zip":"8360072"},{"town":"亀谷町","koaza":"","lat":33.033583,"lng":130.462805,"zip":"8360823"},{"town":"亀甲町","koaza":"","lat":33.038601,"lng":130.460756,"zip":"8360812"},{"town":"瓦町","koaza":"","lat":33.035183,"lng":130.463491,"zip":"8360815"},{"town":"神田町","koaza":"","lat":33.006301,"lng":130.454343,"zip":"8360093"},{"town":"北磯町","koaza":"","lat":33.040753,"lng":130.440583,"zip":"8360016"},{"town":"久保田町一丁目","koaza":"","lat":33.031002,"lng":130.443815,"zip":"8360045"},{"town":"久保田町二丁目","koaza":"","lat":33.02845,"lng":130.442165,"zip":"8360045"},{"town":"健老町","koaza":"","lat":33.047744,"lng":130.433037,"zip":"8360011"},{"town":"合成町","koaza":"","lat":33.023275,"lng":130.4613,"zip":"8360891"},{"town":"黄金町一丁目","koaza":"","lat":33.018187,"lng":130.451061,"zip":"8360872"},{"town":"黄金町二丁目","koaza":"","lat":33.017317,"lng":130.448451,"zip":"8360872"},{"town":"小浜町","koaza":"","lat":33.028287,"lng":130.434765,"zip":"8360034"},{"town":"小浜町一丁目","koaza":"","lat":33.031271,"lng":130.438815,"zip":"8360034"},{"town":"小浜町二丁目","koaza":"","lat":33.02828,"lng":130.437517,"zip":"8360034"},{"town":"小浜町三丁目","koaza":"","lat":33.025819,"lng":130.436669,"zip":"8360034"},{"town":"栄町一丁目","koaza":"","lat":33.036262,"lng":130.448959,"zip":"8360042"},{"town":"栄町二丁目","koaza":"","lat":33.036517,"lng":130.447784,"zip":"8360042"},{"town":"桜町","koaza":"","lat":33.004868,"lng":130.449455,"zip":"8360092"},{"town":"左古町","koaza":"","lat":33.032068,"lng":130.45059,"zip":"8360836"},{"town":"笹林町一丁目","koaza":"","lat":33.028661,"lng":130.447509,"zip":"8360851"},{"town":"笹林町二丁目","koaza":"","lat":33.027201,"lng":130.448642,"zip":"8360851"},{"town":"笹原町一丁目","koaza":"","lat":33.011893,"lng":130.465516,"zip":"8360884"},{"town":"笹原町二丁目","koaza":"","lat":33.008585,"lng":130.464909,"zip":"8360884"},{"town":"笹原町三丁目","koaza":"","lat":33.009429,"lng":130.470615,"zip":"8360884"},{"town":"三坑町","koaza":"","lat":33.026159,"lng":130.457348,"zip":"8360825"},{"town":"汐屋町","koaza":"","lat":33.016075,"lng":130.429916,"zip":"8360057"},{"town":"四箇新町一丁目","koaza":"","lat":33.072989,"lng":130.528325,"zip":"8370907"},{"town":"四箇新町二丁目","koaza":"","lat":33.072368,"lng":130.532716,"zip":"8370907"},{"town":"四箇新町三丁目","koaza":"","lat":33.077041,"lng":130.533824,"zip":"8370907"},{"town":"下池町","koaza":"","lat":33.009129,"lng":130.472601,"zip":"8360885"},{"town":"下白川町一丁目","koaza":"","lat":33.045524,"lng":130.452483,"zip":"8370928"},{"town":"下白川町二丁目","koaza":"","lat":33.044471,"lng":130.455815,"zip":"8370928"},{"town":"上官町一丁目","koaza":"","lat":33.027146,"lng":130.451413,"zip":"8360866"},{"town":"上官町二丁目","koaza":"","lat":33.024331,"lng":130.452165,"zip":"8360866"},{"town":"上官町三丁目","koaza":"","lat":33.022043,"lng":130.454167,"zip":"8360866"},{"town":"上官町四丁目","koaza":"","lat":33.020067,"lng":130.45446,"zip":"8360866"},{"town":"正山町","koaza":"","lat":33.021393,"lng":130.439538,"zip":"8360845"},{"town":"浄真町","koaza":"","lat":33.021149,"lng":130.441949,"zip":"8360844"},{"town":"昭和開","koaza":"","lat":33.061612,"lng":130.428524,"zip":"8360001"},{"town":"昭和町","koaza":"","lat":33.01983,"lng":130.444009,"zip":"8360871"},{"town":"白金町","koaza":"","lat":33.022304,"lng":130.436209,"zip":"8360052"},{"town":"不知火町一丁目","koaza":"","lat":33.028924,"lng":130.444643,"zip":"8360843"},{"town":"不知火町二丁目","koaza":"","lat":33.02621,"lng":130.442961,"zip":"8360843"},{"town":"不知火町三丁目","koaza":"","lat":33.024333,"lng":130.441604,"zip":"8360843"},{"town":"城町一丁目","koaza":"","lat":33.043993,"lng":130.444447,"zip":"8360007"},{"town":"城町二丁目","koaza":"","lat":33.046194,"lng":130.444506,"zip":"8360007"},{"town":"新開町","koaza":"","lat":33.039953,"lng":130.429625,"zip":"8360017"},{"town":"新勝立町一丁目","koaza":"","lat":33.016978,"lng":130.469282,"zip":"8360895"},{"town":"新勝立町二丁目","koaza":"","lat":33.015911,"lng":130.470632,"zip":"8360895"},{"town":"新勝立町三丁目","koaza":"","lat":33.017089,"lng":130.473223,"zip":"8360895"},{"town":"新勝立町四丁目","koaza":"","lat":33.016777,"lng":130.476021,"zip":"8360895"},{"town":"新勝立町五丁目","koaza":"","lat":33.012779,"lng":130.471877,"zip":"8360895"},{"town":"新勝立町六丁目","koaza":"","lat":33.014285,"lng":130.468472,"zip":"8360895"},{"town":"新港町","koaza":"","lat":33.017473,"lng":130.417019,"zip":"8360061"},{"town":"新栄町","koaza":"","lat":33.03798,"lng":130.448277,"zip":"8360041"},{"town":"新地町","koaza":"","lat":33.033201,"lng":130.437069,"zip":"8360032"},{"town":"真道寺町","koaza":"","lat":33.024998,"lng":130.45335,"zip":"8360864"},{"town":"末広町","koaza":"","lat":33.019614,"lng":130.458254,"zip":"8360874"},{"town":"住吉町","koaza":"","lat":33.036716,"lng":130.441921,"zip":"8360024"},{"town":"諏訪町一丁目","koaza":"","lat":33.02049,"lng":130.432601,"zip":"8360051"},{"town":"諏訪町二丁目","koaza":"","lat":33.019731,"lng":130.430647,"zip":"8360051"},{"town":"諏訪町三丁目","koaza":"","lat":33.016112,"lng":130.432295,"zip":"8360051"},{"town":"早米来町一丁目","koaza":"","lat":33.007339,"lng":130.426536,"zip":"8360077"},{"town":"早米来町二丁目","koaza":"","lat":33.006272,"lng":130.425792,"zip":"8360077"},{"town":"大黒町一丁目","koaza":"","lat":33.04298,"lng":130.447699,"zip":"8360006"},{"town":"大黒町二丁目","koaza":"","lat":33.044199,"lng":130.447449,"zip":"8360006"},{"town":"大黒町三丁目","koaza":"","lat":33.045506,"lng":130.447966,"zip":"8360006"},{"town":"大黒町四丁目","koaza":"","lat":33.046336,"lng":130.449218,"zip":"8360006"},{"town":"大正町一丁目","koaza":"","lat":33.036143,"lng":130.445003,"zip":"8360047"},{"town":"大正町二丁目","koaza":"","lat":33.034268,"lng":130.443212,"zip":"8360047"},{"town":"大正町三丁目","koaza":"","lat":33.032806,"lng":130.441848,"zip":"8360047"},{"town":"大正町四丁目","koaza":"","lat":33.031174,"lng":130.441133,"zip":"8360047"},{"town":"大正町五丁目","koaza":"","lat":33.029023,"lng":130.43926,"zip":"8360047"},{"town":"大正町六丁目","koaza":"","lat":33.025932,"lng":130.437408,"zip":"8360047"},{"town":"高砂町","koaza":"","lat":33.01335,"lng":130.42623,"zip":"8360064"},{"town":"宝坂町一丁目","koaza":"","lat":33.025977,"lng":130.445103,"zip":"8360861"},{"town":"宝坂町二丁目","koaza":"","lat":33.023011,"lng":130.444772,"zip":"8360861"},{"town":"谷町","koaza":"","lat":33.0321,"lng":130.449241,"zip":"8360837"},{"town":"田端町","koaza":"","lat":33.015328,"lng":130.441112,"zip":"8360081"},{"town":"築町","koaza":"","lat":33.034009,"lng":130.447719,"zip":"8360841"},{"town":"千代町","koaza":"","lat":33.02309,"lng":130.434231,"zip":"8360035"},{"town":"椿黒町","koaza":"","lat":33.043173,"lng":130.451627,"zip":"8360005"},{"town":"天神町","koaza":"","lat":33.040204,"lng":130.442694,"zip":"8360015"},{"town":"天道町","koaza":"","lat":33.016151,"lng":130.464777,"zip":"8360896"},{"town":"天領町一丁目","koaza":"","lat":33.017663,"lng":130.435362,"zip":"8360054"},{"town":"天領町二丁目","koaza":"","lat":33.014498,"lng":130.435554,"zip":"8360054"},{"town":"天領町三丁目","koaza":"","lat":33.013234,"lng":130.433907,"zip":"8360054"},{"town":"稲荷町","koaza":"","lat":33.032085,"lng":130.459265,"zip":"8360822"},{"town":"通町一丁目","koaza":"","lat":33.039422,"lng":130.45908,"zip":"8360805"},{"town":"通町二丁目","koaza":"","lat":33.040735,"lng":130.463972,"zip":"8360805"},{"town":"常盤町","koaza":"","lat":33.03355,"lng":130.448706,"zip":"8360832"},{"town":"鳥塚町","koaza":"","lat":33.04104,"lng":130.459205,"zip":"8360803"},{"town":"中島町","koaza":"","lat":33.036434,"lng":130.443654,"zip":"8360023"},{"town":"中白川町一丁目","koaza":"","lat":33.043918,"lng":130.458892,"zip":"8370927"},{"town":"中白川町二丁目","koaza":"","lat":33.043874,"lng":130.462562,"zip":"8370927"},{"town":"中白川町三丁目","koaza":"","lat":33.045555,"lng":130.460659,"zip":"8370927"},{"town":"長田町","koaza":"","lat":33.012835,"lng":130.440394,"zip":"8360083"},{"town":"中友町","koaza":"","lat":33.034534,"lng":130.441402,"zip":"8360025"},{"town":"中町一丁目","koaza":"","lat":33.039997,"lng":130.443968,"zip":"8360013"},{"town":"中町二丁目","koaza":"","lat":33.041759,"lng":130.444582,"zip":"8360013"},{"town":"長溝町","koaza":"","lat":33.042234,"lng":130.463174,"zip":"8360804"},{"town":"七浦町","koaza":"","lat":33.021954,"lng":130.456925,"zip":"8360865"},{"town":"浪花町","koaza":"","lat":33.008068,"lng":130.425055,"zip":"8360066"},{"town":"西新町","koaza":"","lat":33.035228,"lng":130.430072,"zip":"8360031"},{"town":"西浜田町","koaza":"","lat":33.034941,"lng":130.437655,"zip":"8360027"},{"town":"西港町一丁目","koaza":"","lat":33.023086,"lng":130.425918,"zip":"8360062"},{"town":"西港町二丁目","koaza":"","lat":33.01821,"lng":130.426849,"zip":"8360062"},{"town":"西宮浦町","koaza":"","lat":33.029634,"lng":130.453534,"zip":"8360835"},{"town":"野添町","koaza":"","lat":33.007442,"lng":130.462104,"zip":"8360095"},{"town":"萩尾町一丁目","koaza":"","lat":33.006629,"lng":130.466608,"zip":"8360096"},{"town":"萩尾町二丁目","koaza":"","lat":33.004685,"lng":130.467855,"zip":"8360096"},{"town":"橋口町","koaza":"","lat":33.03469,"lng":130.446841,"zip":"8360043"},{"town":"八尻町一丁目","koaza":"","lat":33.036891,"lng":130.45461,"zip":"8360811"},{"town":"八尻町二丁目","koaza":"","lat":33.037377,"lng":130.45679,"zip":"8360811"},{"town":"八尻町三丁目","koaza":"","lat":33.037335,"lng":130.457745,"zip":"8360811"},{"town":"八本町","koaza":"","lat":33.037147,"lng":130.460962,"zip":"8360816"},{"town":"初島","koaza":"","lat":33.053221,"lng":130.404501,"zip":"8360000"},{"town":"花園町","koaza":"","lat":33.021614,"lng":130.451296,"zip":"8360867"},{"town":"馬場町","koaza":"","lat":33.013085,"lng":130.446239,"zip":"8360084"},{"town":"浜田町","koaza":"","lat":33.036634,"lng":130.438235,"zip":"8360026"},{"town":"浜町","koaza":"","lat":33.038309,"lng":130.443967,"zip":"8360021"},{"town":"早鐘町","koaza":"","lat":33.021307,"lng":130.474316,"zip":"8360892"},{"town":"駛馬町","koaza":"","lat":33.018359,"lng":130.452285,"zip":"8360873"},{"town":"原山町","koaza":"","lat":33.02478,"lng":130.447133,"zip":"8360862"},{"town":"東泉町","koaza":"","lat":33.033271,"lng":130.453698,"zip":"8360821"},{"town":"東新町一丁目","koaza":"","lat":33.037604,"lng":130.452493,"zip":"8360806"},{"town":"東新町二丁目","koaza":"","lat":33.038167,"lng":130.455722,"zip":"8360806"},{"town":"東萩尾町","koaza":"","lat":33.004368,"lng":130.473565,"zip":"8360097"},{"town":"東宮浦町","koaza":"","lat":33.029465,"lng":130.455099,"zip":"8360827"},{"town":"樋口町","koaza":"","lat":33.013993,"lng":130.430876,"zip":"8360055"},{"town":"日出町一丁目","koaza":"","lat":33.038703,"lng":130.453942,"zip":"8360802"},{"town":"日出町二丁目","koaza":"","lat":33.039783,"lng":130.455167,"zip":"8360802"},{"town":"日出町三丁目","koaza":"","lat":33.041248,"lng":130.455255,"zip":"8360802"},{"town":"姫島町","koaza":"","lat":33.013901,"lng":130.42861,"zip":"8360056"},{"town":"平原町","koaza":"","lat":33.038276,"lng":130.465122,"zip":"8360813"},{"town":"藤田町","koaza":"","lat":33.007069,"lng":130.44407,"zip":"8360074"},{"town":"船津町","koaza":"","lat":33.008644,"lng":130.437807,"zip":"8360073"},{"town":"船津町一丁目","koaza":"","lat":33.012053,"lng":130.435507,"zip":"8360073"},{"town":"船津町二丁目","koaza":"","lat":33.010032,"lng":130.435088,"zip":"8360073"},{"town":"古町","koaza":"","lat":33.033134,"lng":130.445529,"zip":"8360044"},{"town":"本町一丁目","koaza":"","lat":33.035404,"lng":130.446184,"zip":"8360046"},{"town":"本町二丁目","koaza":"","lat":33.033682,"lng":130.444457,"zip":"8360046"},{"town":"本町三丁目","koaza":"","lat":33.031539,"lng":130.443014,"zip":"8360046"},{"town":"本町四丁目","koaza":"","lat":33.028622,"lng":130.441103,"zip":"8360046"},{"town":"本町五丁目","koaza":"","lat":33.025976,"lng":130.439746,"zip":"8360046"},{"town":"本町六丁目","koaza":"","lat":33.02492,"lng":130.438206,"zip":"8360046"},{"town":"馬込町一丁目","koaza":"","lat":33.011923,"lng":130.452943,"zip":"8360086"},{"town":"馬込町二丁目","koaza":"","lat":33.011292,"lng":130.455131,"zip":"8360086"},{"town":"松浦町","koaza":"","lat":33.029231,"lng":130.451206,"zip":"8360855"},{"town":"松原町","koaza":"","lat":33.032032,"lng":130.440221,"zip":"8360033"},{"town":"馬渡町","koaza":"","lat":33.013093,"lng":130.466235,"zip":"8360883"},{"town":"三池島","koaza":"","lat":33.03927,"lng":130.354097,"zip":"8360000"},{"town":"三川町一丁目","koaza":"","lat":33.018397,"lng":130.429477,"zip":"8360065"},{"town":"三川町二丁目","koaza":"","lat":33.016216,"lng":130.428103,"zip":"8360065"},{"town":"三川町三丁目","koaza":"","lat":33.013097,"lng":130.427215,"zip":"8360065"},{"town":"三川町四丁目","koaza":"","lat":33.010603,"lng":130.426462,"zip":"8360065"},{"town":"三川町五丁目","koaza":"","lat":33.007297,"lng":130.427899,"zip":"8360065"},{"town":"岬町","koaza":"","lat":33.029155,"lng":130.427888,"zip":"8360037"},{"town":"三里町一丁目","koaza":"","lat":33.008688,"lng":130.429458,"zip":"8360076"},{"town":"三里町二丁目","koaza":"","lat":33.007581,"lng":130.429655,"zip":"8360076"},{"town":"三里町三丁目","koaza":"","lat":33.006028,"lng":130.429644,"zip":"8360076"},{"town":"港町","koaza":"","lat":33.03741,"lng":130.443932,"zip":"8360022"},{"town":"南船津町一丁目","koaza":"","lat":33.009473,"lng":130.433791,"zip":"8360075"},{"town":"南船津町二丁目","koaza":"","lat":33.007888,"lng":130.43377,"zip":"8360075"},{"town":"南船津町三丁目","koaza":"","lat":33.006907,"lng":130.433638,"zip":"8360075"},{"town":"南船津町四丁目","koaza":"","lat":33.005862,"lng":130.433519,"zip":"8360075"},{"town":"宮坂町","koaza":"","lat":33.026571,"lng":130.452494,"zip":"8360856"},{"town":"宮原町一丁目","koaza":"","lat":33.014383,"lng":130.453966,"zip":"8360875"},{"town":"宮原町二丁目","koaza":"","lat":33.017084,"lng":130.455516,"zip":"8360875"},{"town":"宮山町","koaza":"","lat":33.0257,"lng":130.455468,"zip":"8360857"},{"town":"明治町一丁目","koaza":"","lat":33.03911,"lng":130.445416,"zip":"8360012"},{"town":"明治町二丁目","koaza":"","lat":33.040666,"lng":130.446657,"zip":"8360012"},{"town":"明治町三丁目","koaza":"","lat":33.041627,"lng":130.449276,"zip":"8360012"},{"town":"焼石町","koaza":"","lat":33.031,"lng":130.457511,"zip":"8360826"},{"town":"八江町","koaza":"","lat":33.01588,"lng":130.439274,"zip":"8360847"},{"town":"山下町","koaza":"","lat":33.020492,"lng":130.435654,"zip":"8360053"},{"town":"山上町","koaza":"","lat":33.033608,"lng":130.449887,"zip":"8360833"},{"town":"有明町一丁目","koaza":"","lat":33.03247,"lng":130.44682,"zip":"8360842"},{"town":"有明町二丁目","koaza":"","lat":33.030776,"lng":130.445915,"zip":"8360842"},{"town":"四山町","koaza":"","lat":33.004531,"lng":130.404829,"zip":"8360067"},{"town":"米生町一丁目","koaza":"","lat":33.015206,"lng":130.458268,"zip":"8360881"},{"town":"米生町二丁目","koaza":"","lat":33.012781,"lng":130.461865,"zip":"8360881"},{"town":"龍湖瀬町","koaza":"","lat":33.033985,"lng":130.468192,"zip":"8360814"},{"town":"若宮町","koaza":"","lat":33.016151,"lng":130.446105,"zip":"8360876"},{"town":"大字吉野","koaza":"中尾","lat":33.074422,"lng":130.470376,"zip":"8360000"}]