[{"town":"曙町一丁目","koaza":"","lat":33.534157,"lng":130.477789,"zip":"8160934"},{"town":"曙町二丁目","koaza":"","lat":33.535399,"lng":130.47889,"zip":"8160934"},{"town":"曙町三丁目","koaza":"","lat":33.533817,"lng":130.480112,"zip":"8160934"},{"town":"旭ケ丘一丁目","koaza":"","lat":33.511464,"lng":130.48383,"zip":"8160953"},{"town":"旭ケ丘二丁目","koaza":"","lat":33.510182,"lng":130.482318,"zip":"8160953"},{"town":"牛頸一丁目","koaza":"","lat":33.497499,"lng":130.464037,"zip":"8160971"},{"town":"牛頸二丁目","koaza":"","lat":33.499885,"lng":130.467878,"zip":"8160971"},{"town":"牛頸三丁目","koaza":"","lat":33.499796,"lng":130.470355,"zip":"8160971"},{"town":"牛頸四丁目","koaza":"","lat":33.503888,"lng":130.470892,"zip":"8160971"},{"town":"大字牛頸","koaza":"","lat":33.483132,"lng":130.469965,"zip":"8160000"},{"town":"大字上大利","koaza":"","lat":33.520825,"lng":130.478669,"zip":"8160000"},{"town":"大字白木原","koaza":"","lat":33.524642,"lng":130.479192,"zip":"8160000"},{"town":"大字中","koaza":"","lat":33.556189,"lng":130.485645,"zip":"8160000"},{"town":"大池一丁目","koaza":"","lat":33.545133,"lng":130.487098,"zip":"8160904"},{"town":"大池二丁目","koaza":"","lat":33.541243,"lng":130.488293,"zip":"8160904"},{"town":"大城一丁目","koaza":"","lat":33.536971,"lng":130.490341,"zip":"8160911"},{"town":"大城四丁目","koaza":"","lat":33.533313,"lng":130.494723,"zip":"8160911"},{"town":"大城五丁目","koaza":"","lat":33.533095,"lng":130.500282,"zip":"8160911"},{"town":"乙金一丁目","koaza":"","lat":33.545799,"lng":130.491133,"zip":"8160902"},{"town":"乙金台一丁目","koaza":"","lat":33.538913,"lng":130.490138,"zip":"8160903"},{"town":"乙金東二丁目","koaza":"","lat":33.555716,"lng":130.498487,"zip":"8160901"},{"town":"乙金東三丁目","koaza":"","lat":33.555646,"lng":130.494069,"zip":"8160901"},{"town":"乙金東四丁目","koaza":"","lat":33.558667,"lng":130.499323,"zip":"8160901"},{"town":"上大利一丁目","koaza":"","lat":33.522062,"lng":130.480808,"zip":"8160955"},{"town":"上大利二丁目","koaza":"","lat":33.51926,"lng":130.482821,"zip":"8160955"},{"town":"上大利三丁目","koaza":"","lat":33.517126,"lng":130.483713,"zip":"8160955"},{"town":"上大利四丁目","koaza":"","lat":33.514859,"lng":130.482726,"zip":"8160955"},{"town":"上大利五丁目","koaza":"","lat":33.51541,"lng":130.478351,"zip":"8160955"},{"town":"川久保一丁目","koaza":"","lat":33.548871,"lng":130.485734,"zip":"8160905"},{"town":"川久保二丁目","koaza":"","lat":33.550277,"lng":130.48971,"zip":"8160905"},{"town":"川久保三丁目","koaza":"","lat":33.547693,"lng":130.488107,"zip":"8160905"},{"town":"瓦田一丁目","koaza":"","lat":33.530076,"lng":130.478919,"zip":"8160932"},{"town":"瓦田二丁目","koaza":"","lat":33.531722,"lng":130.480875,"zip":"8160932"},{"town":"瓦田三丁目","koaza":"","lat":33.532618,"lng":130.48265,"zip":"8160932"},{"town":"瓦田四丁目","koaza":"","lat":33.535285,"lng":130.483515,"zip":"8160932"},{"town":"瓦田五丁目","koaza":"","lat":33.536479,"lng":130.480636,"zip":"8160932"},{"town":"栄町一丁目","koaza":"","lat":33.540746,"lng":130.469561,"zip":"8160924"},{"town":"栄町二丁目","koaza":"","lat":33.539193,"lng":130.470927,"zip":"8160924"},{"town":"栄町三丁目","koaza":"","lat":33.539137,"lng":130.469113,"zip":"8160924"},{"town":"雑餉隈町一丁目","koaza":"","lat":33.541466,"lng":130.470814,"zip":"8160923"},{"town":"雑餉隈町二丁目","koaza":"","lat":33.543116,"lng":130.471072,"zip":"8160923"},{"town":"雑餉隈町三丁目","koaza":"","lat":33.542158,"lng":130.472102,"zip":"8160923"},{"town":"雑餉隈町四丁目","koaza":"","lat":33.540116,"lng":130.472794,"zip":"8160923"},{"town":"雑餉隈町五丁目","koaza":"","lat":33.539685,"lng":130.472219,"zip":"8160923"},{"town":"下大利一丁目","koaza":"","lat":33.521593,"lng":130.487378,"zip":"8160952"},{"town":"下大利二丁目","koaza":"","lat":33.519891,"lng":130.48876,"zip":"8160952"},{"town":"下大利三丁目","koaza":"","lat":33.518925,"lng":130.492024,"zip":"8160952"},{"town":"下大利四丁目","koaza":"","lat":33.516732,"lng":130.488384,"zip":"8160952"},{"town":"下大利五丁目","koaza":"","lat":33.515249,"lng":130.485337,"zip":"8160952"},{"town":"下大利団地","koaza":"","lat":33.523502,"lng":130.491813,"zip":"8160951"},{"town":"白木原一丁目","koaza":"","lat":33.527727,"lng":130.481217,"zip":"8160943"},{"town":"白木原二丁目","koaza":"","lat":33.525942,"lng":130.481994,"zip":"8160943"},{"town":"白木原三丁目","koaza":"","lat":33.529788,"lng":130.483012,"zip":"8160943"},{"town":"白木原四丁目","koaza":"","lat":33.529024,"lng":130.48595,"zip":"8160943"},{"town":"白木原五丁目","koaza":"","lat":33.531146,"lng":130.48655,"zip":"8160943"},{"town":"中央一丁目","koaza":"","lat":33.524838,"lng":130.483303,"zip":"8160942"},{"town":"中央二丁目","koaza":"","lat":33.523214,"lng":130.484674,"zip":"8160942"},{"town":"月の浦一丁目","koaza":"","lat":33.500692,"lng":130.462855,"zip":"8160983"},{"town":"月の浦二丁目","koaza":"","lat":33.50237,"lng":130.459018,"zip":"8160983"},{"town":"月の浦三丁目","koaza":"","lat":33.500058,"lng":130.458797,"zip":"8160983"},{"town":"月の浦四丁目","koaza":"","lat":33.498334,"lng":130.454881,"zip":"8160983"},{"town":"月の浦五丁目","koaza":"","lat":33.498546,"lng":130.452004,"zip":"8160983"},{"town":"筒井一丁目","koaza":"","lat":33.542518,"lng":130.475583,"zip":"8160931"},{"town":"筒井二丁目","koaza":"","lat":33.541467,"lng":130.478282,"zip":"8160931"},{"town":"筒井三丁目","koaza":"","lat":33.539812,"lng":130.479091,"zip":"8160931"},{"town":"筒井四丁目","koaza":"","lat":33.542561,"lng":130.480931,"zip":"8160931"},{"town":"筒井五丁目","koaza":"","lat":33.538106,"lng":130.481439,"zip":"8160931"},{"town":"つつじケ丘一丁目","koaza":"","lat":33.50062,"lng":130.48422,"zip":"8160962"},{"town":"つつじケ丘二丁目","koaza":"","lat":33.498222,"lng":130.482245,"zip":"8160962"},{"town":"つつじケ丘三丁目","koaza":"","lat":33.495647,"lng":130.482027,"zip":"8160962"},{"town":"つつじケ丘四丁目","koaza":"","lat":33.494023,"lng":130.478422,"zip":"8160962"},{"town":"つつじケ丘五丁目","koaza":"","lat":33.490484,"lng":130.47937,"zip":"8160962"},{"town":"つつじケ丘六丁目","koaza":"","lat":33.490195,"lng":130.48201,"zip":"8160962"},{"town":"中一丁目","koaza":"","lat":33.553702,"lng":130.481694,"zip":"8160942"},{"town":"中二丁目","koaza":"","lat":33.55184,"lng":130.484127,"zip":"8160942"},{"town":"中三丁目","koaza":"","lat":33.553777,"lng":130.491158,"zip":"8160942"},{"town":"仲畑一丁目","koaza":"","lat":33.560488,"lng":130.464804,"zip":"8160921"},{"town":"仲畑二丁目","koaza":"","lat":33.556549,"lng":130.468483,"zip":"8160921"},{"town":"仲畑三丁目","koaza":"","lat":33.552626,"lng":130.473686,"zip":"8160921"},{"town":"仲畑四丁目","koaza":"","lat":33.55085,"lng":130.471487,"zip":"8160921"},{"town":"錦町一丁目","koaza":"","lat":33.540636,"lng":130.473226,"zip":"8160935"},{"town":"錦町二丁目","koaza":"","lat":33.539069,"lng":130.474691,"zip":"8160935"},{"town":"錦町三丁目","koaza":"","lat":33.538715,"lng":130.477303,"zip":"8160935"},{"town":"錦町四丁目","koaza":"","lat":33.537246,"lng":130.476631,"zip":"8160935"},{"town":"畑ケ坂一丁目","koaza":"","lat":33.503617,"lng":130.468528,"zip":"8160982"},{"town":"畑ケ坂二丁目","koaza":"","lat":33.501879,"lng":130.465668,"zip":"8160982"},{"town":"東大利一丁目","koaza":"","lat":33.5257,"lng":130.486788,"zip":"8160941"},{"town":"東大利二丁目","koaza":"","lat":33.523084,"lng":130.489617,"zip":"8160941"},{"town":"東大利三丁目","koaza":"","lat":33.527554,"lng":130.489025,"zip":"8160941"},{"town":"東大利四丁目","koaza":"","lat":33.528799,"lng":130.489463,"zip":"8160941"},{"town":"平野台一丁目","koaza":"","lat":33.496616,"lng":130.469347,"zip":"8160972"},{"town":"平野台二丁目","koaza":"","lat":33.4939,"lng":130.468893,"zip":"8160972"},{"town":"平野台三丁目","koaza":"","lat":33.495578,"lng":130.465054,"zip":"8160972"},{"town":"平野台四丁目","koaza":"","lat":33.493216,"lng":130.465689,"zip":"8160972"},{"town":"御笠川一丁目","koaza":"","lat":33.549117,"lng":130.478954,"zip":"8160912"},{"town":"御笠川二丁目","koaza":"","lat":33.540902,"lng":130.484056,"zip":"8160912"},{"town":"御笠川三丁目","koaza":"","lat":33.533599,"lng":130.487856,"zip":"8160912"},{"town":"御笠川四丁目","koaza":"","lat":33.549548,"lng":130.481375,"zip":"8160912"},{"town":"御笠川五丁目","koaza":"","lat":33.541921,"lng":130.485558,"zip":"8160912"},{"town":"御笠川六丁目","koaza":"","lat":33.534354,"lng":130.489641,"zip":"8160912"},{"town":"瑞穂町一丁目","koaza":"","lat":33.533777,"lng":130.476554,"zip":"8160933"},{"town":"瑞穂町二丁目","koaza":"","lat":33.532667,"lng":130.477182,"zip":"8160933"},{"town":"瑞穂町三丁目","koaza":"","lat":33.531461,"lng":130.475989,"zip":"8160933"},{"town":"瑞穂町四丁目","koaza":"","lat":33.531433,"lng":130.477446,"zip":"8160933"},{"town":"緑ケ丘一丁目","koaza":"","lat":33.505052,"lng":130.486607,"zip":"8160961"},{"town":"緑ケ丘二丁目","koaza":"","lat":33.504215,"lng":130.487383,"zip":"8160961"},{"town":"緑ケ丘三丁目","koaza":"","lat":33.504266,"lng":130.483891,"zip":"8160961"},{"town":"緑ケ丘四丁目","koaza":"","lat":33.502386,"lng":130.48566,"zip":"8160961"},{"town":"南大利一丁目","koaza":"","lat":33.510496,"lng":130.477611,"zip":"8160956"},{"town":"南大利二丁目","koaza":"","lat":33.510763,"lng":130.479553,"zip":"8160956"},{"town":"南ケ丘一丁目","koaza":"","lat":33.507228,"lng":130.484669,"zip":"8160964"},{"town":"南ケ丘二丁目","koaza":"","lat":33.505133,"lng":130.48183,"zip":"8160964"},{"town":"南ケ丘三丁目","koaza":"","lat":33.502268,"lng":130.481767,"zip":"8160964"},{"town":"南ケ丘四丁目","koaza":"","lat":33.502525,"lng":130.478817,"zip":"8160964"},{"town":"南ケ丘五丁目","koaza":"","lat":33.502001,"lng":130.476153,"zip":"8160964"},{"town":"南ケ丘六丁目","koaza":"","lat":33.498872,"lng":130.478068,"zip":"8160964"},{"town":"南ケ丘七丁目","koaza":"","lat":33.498065,"lng":130.479247,"zip":"8160964"},{"town":"宮野台","koaza":"","lat":33.498048,"lng":130.475922,"zip":"8160963"},{"town":"紫台","koaza":"","lat":33.506607,"lng":130.47966,"zip":"8160954"},{"town":"山田一丁目","koaza":"","lat":33.547515,"lng":130.471882,"zip":"8160922"},{"town":"山田二丁目","koaza":"","lat":33.545821,"lng":130.472921,"zip":"8160922"},{"town":"山田三丁目","koaza":"","lat":33.548616,"lng":130.475525,"zip":"8160922"},{"town":"山田四丁目","koaza":"","lat":33.543914,"lng":130.473539,"zip":"8160922"},{"town":"山田五丁目","koaza":"","lat":33.545696,"lng":130.478452,"zip":"8160922"},{"town":"横峰一丁目","koaza":"","lat":33.508128,"lng":130.472725,"zip":"8160973"},{"town":"横峰二丁目","koaza":"","lat":33.50487,"lng":130.47492,"zip":"8160973"},{"town":"若草一丁目","koaza":"","lat":33.505848,"lng":130.463983,"zip":"8160981"},{"town":"若草二丁目","koaza":"","lat":33.505031,"lng":130.466487,"zip":"8160981"},{"town":"若草三丁目","koaza":"","lat":33.507015,"lng":130.470584,"zip":"8160981"},{"town":"若草四丁目","koaza":"","lat":33.509043,"lng":130.471172,"zip":"8160981"},{"town":"乙金東一丁目","koaza":"","lat":33.553109,"lng":130.495351,"zip":"8160901"},{"town":"乙金二丁目","koaza":"","lat":33.549081,"lng":130.494564,"zip":"8160902"},{"town":"乙金台二丁目","koaza":"","lat":33.54245,"lng":130.49095,"zip":"8160903"},{"town":"乙金三丁目","koaza":"","lat":33.544992,"lng":130.494965,"zip":"8160902"},{"town":"大字瓦田","koaza":"","lat":33.53576,"lng":130.510215,"zip":"8160000"},{"town":"大字乙金","koaza":"","lat":33.545354,"lng":130.50327,"zip":"8160000"},{"town":"大城三丁目","koaza":"","lat":33.536606,"lng":130.495533,"zip":"8160911"},{"town":"乙金台三丁目","koaza":"","lat":33.542119,"lng":130.49383,"zip":"8160903"},{"town":"大城二丁目","koaza":"","lat":33.539267,"lng":130.497003,"zip":"8160911"}]