[{"town":"青葉台一丁目","koaza":"","lat":33.508293,"lng":130.491321,"zip":"8180137"},{"town":"青葉台二丁目","koaza":"","lat":33.510753,"lng":130.489318,"zip":"8180137"},{"town":"青葉台三丁目","koaza":"","lat":33.511213,"lng":130.487469,"zip":"8180137"},{"town":"青葉台四丁目","koaza":"","lat":33.507506,"lng":130.488623,"zip":"8180137"},{"town":"青山一丁目","koaza":"","lat":33.509201,"lng":130.535043,"zip":"8180121"},{"town":"青山二丁目","koaza":"","lat":33.504926,"lng":130.533001,"zip":"8180121"},{"town":"青山三丁目","koaza":"","lat":33.506989,"lng":130.53725,"zip":"8180121"},{"town":"青山四丁目","koaza":"","lat":33.50326,"lng":130.537355,"zip":"8180121"},{"town":"石穴","koaza":"","lat":33.508867,"lng":130.544942,"zip":"8180100"},{"town":"石坂一丁目","koaza":"","lat":33.514639,"lng":130.530731,"zip":"8180118"},{"town":"石坂二丁目","koaza":"","lat":33.512094,"lng":130.533923,"zip":"8180118"},{"town":"石坂三丁目","koaza":"","lat":33.514921,"lng":130.535454,"zip":"8180118"},{"town":"石坂四丁目","koaza":"","lat":33.51643,"lng":130.537313,"zip":"8180118"},{"town":"梅ケ丘一丁目","koaza":"","lat":33.49283,"lng":130.539105,"zip":"8180123"},{"town":"梅ケ丘二丁目","koaza":"","lat":33.494289,"lng":130.541992,"zip":"8180123"},{"town":"大字内山","koaza":"","lat":33.529587,"lng":130.553469,"zip":"8180100"},{"town":"大字大佐野","koaza":"","lat":33.485918,"lng":130.490163,"zip":"8180100"},{"town":"大字観世音寺","koaza":"","lat":33.523383,"lng":130.519196,"zip":"8180100"},{"town":"大字北谷","koaza":"","lat":33.546478,"lng":130.550904,"zip":"8180100"},{"town":"大字国分","koaza":"","lat":33.52703,"lng":130.509297,"zip":"8180100"},{"town":"大字坂本","koaza":"","lat":33.524024,"lng":130.515572,"zip":"8180100"},{"town":"大字太宰府","koaza":"","lat":33.533305,"lng":130.529349,"zip":"8180100"},{"town":"大字通古賀","koaza":"","lat":33.513524,"lng":130.500499,"zip":"8180100"},{"town":"大字水城","koaza":"","lat":33.531678,"lng":130.507513,"zip":"8180100"},{"town":"大字向佐野","koaza":"","lat":33.509966,"lng":130.500279,"zip":"8180100"},{"town":"大字吉松","koaza":"","lat":33.515072,"lng":130.497212,"zip":"8180100"},{"town":"大佐野一丁目","koaza":"","lat":33.505967,"lng":130.499317,"zip":"8180134"},{"town":"大佐野二丁目","koaza":"","lat":33.50264,"lng":130.49761,"zip":"8180134"},{"town":"大佐野三丁目","koaza":"","lat":33.500855,"lng":130.493553,"zip":"8180134"},{"town":"大佐野四丁目","koaza":"","lat":33.502697,"lng":130.492923,"zip":"8180134"},{"town":"大佐野五丁目","koaza":"","lat":33.496556,"lng":130.489298,"zip":"8180134"},{"town":"大佐野六丁目","koaza":"","lat":33.497386,"lng":130.485897,"zip":"8180134"},{"town":"観世音寺一丁目","koaza":"","lat":33.512471,"lng":130.520145,"zip":"8180101"},{"town":"観世音寺二丁目","koaza":"","lat":33.51231,"lng":130.512112,"zip":"8180101"},{"town":"観世音寺三丁目","koaza":"","lat":33.515089,"lng":130.511113,"zip":"8180101"},{"town":"観世音寺四丁目","koaza":"","lat":33.516808,"lng":130.518272,"zip":"8180101"},{"town":"観世音寺五丁目","koaza":"","lat":33.516313,"lng":130.523144,"zip":"8180101"},{"town":"観世音寺六丁目","koaza":"","lat":33.520632,"lng":130.52293,"zip":"8180101"},{"town":"国分一丁目","koaza":"","lat":33.518538,"lng":130.499274,"zip":"8180132"},{"town":"国分二丁目","koaza":"","lat":33.522259,"lng":130.501459,"zip":"8180132"},{"town":"国分三丁目","koaza":"","lat":33.519048,"lng":130.503828,"zip":"8180132"},{"town":"国分四丁目","koaza":"","lat":33.520386,"lng":130.5084,"zip":"8180132"},{"town":"国分五丁目","koaza":"","lat":33.523885,"lng":130.506696,"zip":"8180132"},{"town":"五条一丁目","koaza":"","lat":33.516184,"lng":130.528134,"zip":"8180125"},{"town":"五条二丁目","koaza":"","lat":33.511117,"lng":130.522293,"zip":"8180125"},{"town":"五条三丁目","koaza":"","lat":33.508873,"lng":130.525629,"zip":"8180125"},{"town":"五条四丁目","koaza":"","lat":33.510895,"lng":130.529731,"zip":"8180125"},{"town":"五条五丁目","koaza":"","lat":33.508563,"lng":130.530165,"zip":"8180125"},{"town":"五条六丁目","koaza":"","lat":33.50656,"lng":130.530023,"zip":"8180125"},{"town":"宰都一丁目","koaza":"","lat":33.514673,"lng":130.500905,"zip":"8180139"},{"town":"宰都二丁目","koaza":"","lat":33.517397,"lng":130.497377,"zip":"8180139"},{"town":"宰府一丁目","koaza":"","lat":33.518943,"lng":130.529634,"zip":"8180117"},{"town":"宰府二丁目","koaza":"","lat":33.517952,"lng":130.533028,"zip":"8180117"},{"town":"宰府三丁目","koaza":"","lat":33.521803,"lng":130.533203,"zip":"8180117"},{"town":"宰府四丁目","koaza":"","lat":33.520528,"lng":130.537705,"zip":"8180117"},{"town":"宰府五丁目","koaza":"","lat":33.527459,"lng":130.535816,"zip":"8180117"},{"town":"宰府六丁目","koaza":"","lat":33.529052,"lng":130.538072,"zip":"8180117"},{"town":"坂本一丁目","koaza":"","lat":33.5146,"lng":130.504721,"zip":"8180133"},{"town":"坂本二丁目","koaza":"","lat":33.516231,"lng":130.505649,"zip":"8180133"},{"town":"坂本三丁目","koaza":"","lat":33.517999,"lng":130.510211,"zip":"8180133"},{"town":"三条一丁目","koaza":"","lat":33.52621,"lng":130.532357,"zip":"8180111"},{"town":"三条二丁目","koaza":"","lat":33.529193,"lng":130.532757,"zip":"8180111"},{"town":"三条三丁目","koaza":"","lat":33.531376,"lng":130.534145,"zip":"8180111"},{"town":"白川","koaza":"","lat":33.517813,"lng":130.525823,"zip":"8180102"},{"town":"朱雀一丁目","koaza":"","lat":33.508497,"lng":130.522064,"zip":"8180103"},{"town":"朱雀二丁目","koaza":"","lat":33.505101,"lng":130.519214,"zip":"8180103"},{"town":"朱雀三丁目","koaza":"","lat":33.505552,"lng":130.516613,"zip":"8180103"},{"town":"朱雀四丁目","koaza":"","lat":33.508499,"lng":130.517663,"zip":"8180103"},{"town":"朱雀五丁目","koaza":"","lat":33.510544,"lng":130.518355,"zip":"8180103"},{"town":"朱雀六丁目","koaza":"","lat":33.509342,"lng":130.513515,"zip":"8180103"},{"town":"高雄一丁目","koaza":"","lat":33.496393,"lng":130.536676,"zip":"8180122"},{"town":"高雄二丁目","koaza":"","lat":33.504197,"lng":130.54133,"zip":"8180122"},{"town":"高雄三丁目","koaza":"","lat":33.504416,"lng":130.544441,"zip":"8180122"},{"town":"高雄四丁目","koaza":"","lat":33.499636,"lng":130.542134,"zip":"8180122"},{"town":"高雄五丁目","koaza":"","lat":33.496022,"lng":130.540993,"zip":"8180122"},{"town":"高雄六丁目","koaza":"","lat":33.498177,"lng":130.544864,"zip":"8180122"},{"town":"通古賀一丁目","koaza":"","lat":33.511103,"lng":130.512056,"zip":"8180104"},{"town":"通古賀二丁目","koaza":"","lat":33.510269,"lng":130.50916,"zip":"8180104"},{"town":"通古賀三丁目","koaza":"","lat":33.51084,"lng":130.506318,"zip":"8180104"},{"town":"通古賀四丁目","koaza":"","lat":33.506959,"lng":130.508733,"zip":"8180104"},{"town":"通古賀五丁目","koaza":"","lat":33.506664,"lng":130.512226,"zip":"8180104"},{"town":"通古賀六丁目","koaza":"","lat":33.504962,"lng":130.515023,"zip":"8180104"},{"town":"都府楼南一丁目","koaza":"","lat":33.509982,"lng":130.505389,"zip":"8180105"},{"town":"都府楼南二丁目","koaza":"","lat":33.506622,"lng":130.506256,"zip":"8180105"},{"town":"都府楼南三丁目","koaza":"","lat":33.503814,"lng":130.507742,"zip":"8180105"},{"town":"都府楼南四丁目","koaza":"","lat":33.502712,"lng":130.51023,"zip":"8180105"},{"town":"都府楼南五丁目","koaza":"","lat":33.502409,"lng":130.512682,"zip":"8180105"},{"town":"長浦台一丁目","koaza":"","lat":33.505482,"lng":130.491813,"zip":"8180136"},{"town":"長浦台二丁目","koaza":"","lat":33.502342,"lng":130.490053,"zip":"8180136"},{"town":"長浦台三丁目","koaza":"","lat":33.502431,"lng":130.488139,"zip":"8180136"},{"town":"長浦台四丁目","koaza":"","lat":33.505087,"lng":130.490064,"zip":"8180136"},{"town":"梅香苑一丁目","koaza":"","lat":33.499375,"lng":130.532259,"zip":"8180124"},{"town":"梅香苑二丁目","koaza":"","lat":33.500756,"lng":130.534779,"zip":"8180124"},{"town":"梅香苑三丁目","koaza":"","lat":33.501375,"lng":130.537083,"zip":"8180124"},{"town":"梅香苑四丁目","koaza":"","lat":33.498515,"lng":130.535588,"zip":"8180124"},{"town":"御笠一丁目","koaza":"","lat":33.533338,"lng":130.538202,"zip":"8180110"},{"town":"御笠二丁目","koaza":"","lat":33.535287,"lng":130.537588,"zip":"8180110"},{"town":"御笠三丁目","koaza":"","lat":33.541315,"lng":130.538723,"zip":"8180110"},{"town":"御笠四丁目","koaza":"","lat":33.542392,"lng":130.540328,"zip":"8180110"},{"town":"御笠五丁目","koaza":"","lat":33.53725,"lng":130.544948,"zip":"8180110"},{"town":"水城一丁目","koaza":"","lat":33.523627,"lng":130.494711,"zip":"8180131"},{"town":"水城二丁目","koaza":"","lat":33.528779,"lng":130.494272,"zip":"8180131"},{"town":"水城三丁目","koaza":"","lat":33.524349,"lng":130.498022,"zip":"8180131"},{"town":"水城四丁目","koaza":"","lat":33.525205,"lng":130.501704,"zip":"8180131"},{"town":"水城五丁目","koaza":"","lat":33.528216,"lng":130.501474,"zip":"8180131"},{"town":"水城六丁目","koaza":"","lat":33.528855,"lng":130.498937,"zip":"8180131"},{"town":"向佐野一丁目","koaza":"","lat":33.510087,"lng":130.496236,"zip":"8180135"},{"town":"向佐野二丁目","koaza":"","lat":33.50778,"lng":130.497437,"zip":"8180135"},{"town":"向佐野三丁目","koaza":"","lat":33.505737,"lng":130.495344,"zip":"8180135"},{"town":"向佐野四丁目","koaza":"","lat":33.508781,"lng":130.494261,"zip":"8180135"},{"town":"吉松一丁目","koaza":"","lat":33.515058,"lng":130.494848,"zip":"8180138"},{"town":"吉松二丁目","koaza":"","lat":33.514355,"lng":130.493078,"zip":"8180138"},{"town":"吉松三丁目","koaza":"","lat":33.513512,"lng":130.491543,"zip":"8180138"},{"town":"吉松四丁目","koaza":"","lat":33.511415,"lng":130.491206,"zip":"8180138"},{"town":"連歌屋一丁目","koaza":"","lat":33.521964,"lng":130.526962,"zip":"8180119"},{"town":"連歌屋二丁目","koaza":"","lat":33.522497,"lng":130.531296,"zip":"8180119"},{"town":"連歌屋三丁目","koaza":"","lat":33.52467,"lng":130.528025,"zip":"8180119"}]