[{"town":"青葉台一丁目","koaza":"","lat":33.778945,"lng":130.579825,"zip":"8114162"},{"town":"青葉台二丁目","koaza":"","lat":33.775262,"lng":130.582104,"zip":"8114162"},{"town":"赤間一丁目","koaza":"","lat":33.800349,"lng":130.582387,"zip":"8114146"},{"town":"赤間二丁目","koaza":"","lat":33.803551,"lng":130.587635,"zip":"8114146"},{"town":"赤間三丁目","koaza":"","lat":33.803202,"lng":130.589648,"zip":"8114146"},{"town":"赤間四丁目","koaza":"","lat":33.805437,"lng":130.588503,"zip":"8114146"},{"town":"赤間五丁目","koaza":"","lat":33.80478,"lng":130.591654,"zip":"8114146"},{"town":"赤間六丁目","koaza":"","lat":33.807167,"lng":130.591662,"zip":"8114146"},{"town":"赤間駅前一丁目","koaza":"","lat":33.808725,"lng":130.571106,"zip":"8114185"},{"town":"赤間駅前二丁目","koaza":"","lat":33.808862,"lng":130.565721,"zip":"8114185"},{"town":"赤間文教町","koaza":"","lat":33.811649,"lng":130.593918,"zip":"8114148"},{"town":"朝野","koaza":"","lat":33.783145,"lng":130.568067,"zip":"8113415"},{"town":"朝町","koaza":"","lat":33.774643,"lng":130.588458,"zip":"8114161"},{"town":"アスティ一丁目","koaza":"","lat":33.795111,"lng":130.608752,"zip":"8114157"},{"town":"アスティ二丁目","koaza":"","lat":33.797591,"lng":130.607732,"zip":"8114157"},{"town":"池浦","koaza":"","lat":33.833172,"lng":130.539297,"zip":"8113401"},{"town":"池田","koaza":"","lat":33.8496,"lng":130.549605,"zip":"8113515"},{"town":"石丸","koaza":"","lat":33.81071,"lng":130.600587,"zip":"8114147"},{"town":"石丸一丁目","koaza":"","lat":33.803478,"lng":130.595078,"zip":"8114147"},{"town":"石丸二丁目","koaza":"","lat":33.806722,"lng":130.59528,"zip":"8114147"},{"town":"石丸三丁目","koaza":"","lat":33.810527,"lng":130.59823,"zip":"8114147"},{"town":"石丸四丁目","koaza":"","lat":33.807686,"lng":130.60012,"zip":"8114147"},{"town":"泉ヶ丘一丁目","koaza":"","lat":33.819127,"lng":130.57433,"zip":"8113400"},{"town":"泉ヶ丘二丁目","koaza":"","lat":33.817285,"lng":130.574857,"zip":"8113400"},{"town":"稲元","koaza":"","lat":33.805973,"lng":130.555155,"zip":"8113406"},{"town":"稲元一丁目","koaza":"","lat":33.805874,"lng":130.562661,"zip":"8113406"},{"town":"稲元二丁目","koaza":"","lat":33.808271,"lng":130.553984,"zip":"8113406"},{"town":"稲元三丁目","koaza":"","lat":33.811455,"lng":130.550781,"zip":"8113406"},{"town":"稲元四丁目","koaza":"","lat":33.810577,"lng":130.555386,"zip":"8113406"},{"town":"稲元五丁目","koaza":"","lat":33.81374,"lng":130.558533,"zip":"8113406"},{"town":"稲元六丁目","koaza":"","lat":33.815621,"lng":130.556429,"zip":"8113406"},{"town":"稲元七丁目","koaza":"","lat":33.81806,"lng":130.554815,"zip":"8113406"},{"town":"江口","koaza":"","lat":33.847857,"lng":130.512231,"zip":"8113502"},{"town":"桜美台","koaza":"","lat":33.79972,"lng":130.578799,"zip":"8114177"},{"town":"王丸","koaza":"","lat":33.782063,"lng":130.544229,"zip":"8113422"},{"town":"大井","koaza":"","lat":33.798981,"lng":130.517919,"zip":"8113432"},{"town":"大井台","koaza":"","lat":33.800685,"lng":130.523568,"zip":"8113433"},{"town":"大井南","koaza":"","lat":33.805394,"lng":130.528553,"zip":"8113440"},{"town":"大島","koaza":"","lat":33.901233,"lng":130.422649,"zip":"8113701"},{"town":"大谷","koaza":"","lat":33.815989,"lng":130.569563,"zip":"8114141"},{"town":"大穂","koaza":"","lat":33.765241,"lng":130.548297,"zip":"8113421"},{"town":"大穂町","koaza":"","lat":33.776052,"lng":130.553834,"zip":"8113400"},{"town":"河東","koaza":"","lat":33.821686,"lng":130.544986,"zip":"8113402"},{"town":"鐘崎","koaza":"","lat":33.883237,"lng":130.533734,"zip":"8113512"},{"town":"久原","koaza":"","lat":33.792736,"lng":130.546532,"zip":"8113437"},{"town":"くりえいと一丁目","koaza":"","lat":33.811462,"lng":130.564011,"zip":"8114184"},{"town":"くりえいと二丁目","koaza":"","lat":33.815386,"lng":130.56416,"zip":"8114184"},{"town":"くりえいと三丁目","koaza":"","lat":33.819626,"lng":130.566196,"zip":"8114184"},{"town":"公園通り一丁目","koaza":"","lat":33.836196,"lng":130.547819,"zip":"8113516"},{"town":"公園通り二丁目","koaza":"","lat":33.837437,"lng":130.552027,"zip":"8113516"},{"town":"公園通り三丁目","koaza":"","lat":33.838274,"lng":130.554985,"zip":"8113516"},{"town":"上八","koaza":"","lat":33.874445,"lng":130.538908,"zip":"8113513"},{"town":"神湊","koaza":"","lat":33.849467,"lng":130.495043,"zip":"8113501"},{"town":"広陵台一丁目","koaza":"","lat":33.794691,"lng":130.59753,"zip":"8114165"},{"town":"広陵台二丁目","koaza":"","lat":33.790052,"lng":130.596157,"zip":"8114165"},{"town":"広陵台三丁目","koaza":"","lat":33.78751,"lng":130.601145,"zip":"8114165"},{"town":"広陵台四丁目","koaza":"","lat":33.789179,"lng":130.598911,"zip":"8114165"},{"town":"広陵台五丁目","koaza":"","lat":33.791646,"lng":130.598141,"zip":"8114165"},{"town":"栄町","koaza":"","lat":33.807044,"lng":130.56931,"zip":"8114173"},{"town":"桜一丁目","koaza":"","lat":33.794623,"lng":130.591139,"zip":"8114177"},{"town":"三郎丸","koaza":"","lat":33.820029,"lng":130.583027,"zip":"8114143"},{"town":"三郎丸一丁目","koaza":"","lat":33.811352,"lng":130.57391,"zip":"8114143"},{"town":"三郎丸二丁目","koaza":"","lat":33.809975,"lng":130.575924,"zip":"8114143"},{"town":"三郎丸三丁目","koaza":"","lat":33.814523,"lng":130.575779,"zip":"8114143"},{"town":"三郎丸四丁目","koaza":"","lat":33.813816,"lng":130.579269,"zip":"8114143"},{"town":"三郎丸五丁目","koaza":"","lat":33.810957,"lng":130.579366,"zip":"8114143"},{"town":"三郎丸六丁目","koaza":"","lat":33.811935,"lng":130.582148,"zip":"8114143"},{"town":"地島","koaza":"","lat":33.904496,"lng":130.498617,"zip":"8113511"},{"town":"自由ヶ丘","koaza":"","lat":33.79772,"lng":130.57056,"zip":"8113400"},{"town":"自由ヶ丘十丁目","koaza":"","lat":33.78754,"lng":130.582085,"zip":"8113400"},{"town":"自由ヶ丘十一丁目","koaza":"","lat":33.785364,"lng":130.580987,"zip":"8113400"},{"town":"自由ヶ丘一丁目","koaza":"","lat":33.795892,"lng":130.572503,"zip":"8113400"},{"town":"自由ヶ丘二丁目","koaza":"","lat":33.79725,"lng":130.576783,"zip":"8113400"},{"town":"自由ヶ丘三丁目","koaza":"","lat":33.795132,"lng":130.577154,"zip":"8113400"},{"town":"自由ヶ丘四丁目","koaza":"","lat":33.792149,"lng":130.577865,"zip":"8113400"},{"town":"自由ヶ丘五丁目","koaza":"","lat":33.792583,"lng":130.573195,"zip":"8113400"},{"town":"自由ヶ丘六丁目","koaza":"","lat":33.795037,"lng":130.569909,"zip":"8113400"},{"town":"自由ヶ丘七丁目","koaza":"","lat":33.798795,"lng":130.565227,"zip":"8113400"},{"town":"自由ヶ丘八丁目","koaza":"","lat":33.78929,"lng":130.577004,"zip":"8113400"},{"town":"自由ヶ丘九丁目","koaza":"","lat":33.786993,"lng":130.577833,"zip":"8113400"},{"town":"自由ヶ丘西町","koaza":"","lat":33.799814,"lng":130.57005,"zip":"8113400"},{"town":"自由ヶ丘南一丁目","koaza":"","lat":33.781825,"lng":130.583785,"zip":"8113400"},{"town":"自由ヶ丘南二丁目","koaza":"","lat":33.780991,"lng":130.586664,"zip":"8113400"},{"town":"自由ヶ丘南三丁目","koaza":"","lat":33.779183,"lng":130.587953,"zip":"8113400"},{"town":"自由ヶ丘南四丁目","koaza":"","lat":33.779314,"lng":130.592693,"zip":"8113400"},{"town":"城西ヶ丘一丁目","koaza":"","lat":33.818664,"lng":130.550782,"zip":"8113400"},{"town":"城西ヶ丘二丁目","koaza":"","lat":33.818681,"lng":130.548594,"zip":"8113400"},{"town":"城西ヶ丘三丁目","koaza":"","lat":33.816719,"lng":130.552303,"zip":"8113400"},{"town":"城西ヶ丘四丁目","koaza":"","lat":33.814086,"lng":130.551616,"zip":"8113400"},{"town":"城西ヶ丘五丁目","koaza":"","lat":33.811408,"lng":130.552423,"zip":"8113400"},{"town":"城西ヶ丘六丁目","koaza":"","lat":33.813466,"lng":130.555447,"zip":"8113400"},{"town":"樟陽台一丁目","koaza":"","lat":33.824876,"lng":130.536456,"zip":"8113408"},{"town":"樟陽台二丁目","koaza":"","lat":33.827828,"lng":130.53521,"zip":"8113408"},{"town":"須恵","koaza":"","lat":33.823074,"lng":130.564483,"zip":"8113405"},{"town":"須恵一丁目","koaza":"","lat":33.810939,"lng":130.560875,"zip":"8113405"},{"town":"須恵二丁目","koaza":"","lat":33.815127,"lng":130.56129,"zip":"8113405"},{"town":"須恵三丁目","koaza":"","lat":33.820418,"lng":130.563389,"zip":"8113405"},{"town":"須恵四丁目","koaza":"","lat":33.820265,"lng":130.556702,"zip":"8113405"},{"town":"田久","koaza":"","lat":33.80522,"lng":130.576327,"zip":"8114175"},{"town":"田久一丁目","koaza":"","lat":33.803319,"lng":130.566203,"zip":"8114175"},{"town":"田久二丁目","koaza":"","lat":33.803826,"lng":130.569116,"zip":"8114175"},{"town":"田久三丁目","koaza":"","lat":33.804387,"lng":130.573916,"zip":"8114175"},{"town":"田久四丁目","koaza":"","lat":33.801099,"lng":130.571746,"zip":"8114175"},{"town":"田久五丁目","koaza":"","lat":33.801161,"lng":130.574247,"zip":"8114175"},{"town":"田久六丁目","koaza":"","lat":33.802087,"lng":130.579136,"zip":"8114175"},{"town":"田熊","koaza":"","lat":33.806613,"lng":130.535623,"zip":"8113431"},{"town":"田熊一丁目","koaza":"","lat":33.800964,"lng":130.534275,"zip":"8113431"},{"town":"田熊二丁目","koaza":"","lat":33.800031,"lng":130.53663,"zip":"8113431"},{"town":"田熊三丁目","koaza":"","lat":33.798609,"lng":130.532799,"zip":"8113431"},{"town":"田熊四丁目","koaza":"","lat":33.795165,"lng":130.528995,"zip":"8113431"},{"town":"田熊五丁目","koaza":"","lat":33.799554,"lng":130.526802,"zip":"8113431"},{"town":"田熊六丁目","koaza":"","lat":33.801056,"lng":130.531285,"zip":"8113431"},{"town":"武丸","koaza":"","lat":33.80232,"lng":130.608588,"zip":"8114152"},{"town":"田島","koaza":"","lat":33.819351,"lng":130.509439,"zip":"8113505"},{"town":"田野","koaza":"","lat":33.854076,"lng":130.527607,"zip":"8113514"},{"town":"多禮","koaza":"","lat":33.824483,"lng":130.526154,"zip":"8113507"},{"town":"土穴","koaza":"","lat":33.817352,"lng":130.570661,"zip":"8114183"},{"town":"土穴一丁目","koaza":"","lat":33.812696,"lng":130.56621,"zip":"8114183"},{"town":"土穴二丁目","koaza":"","lat":33.811388,"lng":130.567918,"zip":"8114183"},{"town":"土穴三丁目","koaza":"","lat":33.810658,"lng":130.570569,"zip":"8114183"},{"town":"土穴四丁目","koaza":"","lat":33.814144,"lng":130.573318,"zip":"8114183"},{"town":"天平台","koaza":"","lat":33.821318,"lng":130.559671,"zip":"8113407"},{"town":"東郷","koaza":"","lat":33.800799,"lng":130.545355,"zip":"8113436"},{"town":"東郷一丁目","koaza":"","lat":33.804939,"lng":130.540134,"zip":"8113436"},{"town":"東郷二丁目","koaza":"","lat":33.805474,"lng":130.542809,"zip":"8113436"},{"town":"東郷三丁目","koaza":"","lat":33.808523,"lng":130.543729,"zip":"8113436"},{"town":"東郷四丁目","koaza":"","lat":33.805861,"lng":130.546817,"zip":"8113436"},{"town":"東郷五丁目","koaza":"","lat":33.804396,"lng":130.543724,"zip":"8113436"},{"town":"東郷六丁目","koaza":"","lat":33.801021,"lng":130.540767,"zip":"8113436"},{"town":"徳重","koaza":"","lat":33.79738,"lng":130.592242,"zip":"8114164"},{"town":"徳重一丁目","koaza":"","lat":33.799383,"lng":130.585808,"zip":"8114164"},{"town":"徳重二丁目","koaza":"","lat":33.800142,"lng":130.589421,"zip":"8114164"},{"town":"名残","koaza":"","lat":33.782414,"lng":130.595445,"zip":"8114155"},{"town":"野坂","koaza":"","lat":33.772846,"lng":130.565408,"zip":"8113423"},{"town":"葉山一丁目","koaza":"","lat":33.79425,"lng":130.584881,"zip":"8114171"},{"town":"葉山二丁目","koaza":"","lat":33.793464,"lng":130.587545,"zip":"8114171"},{"town":"原町","koaza":"","lat":33.78264,"lng":130.557087,"zip":"8113424"},{"town":"ひかりヶ丘一丁目","koaza":"","lat":33.819187,"lng":130.537585,"zip":"8113400"},{"town":"ひかりヶ丘二丁目","koaza":"","lat":33.820769,"lng":130.537449,"zip":"8113400"},{"town":"ひかりヶ丘三丁目","koaza":"","lat":33.822284,"lng":130.537413,"zip":"8113400"},{"town":"ひかりヶ丘四丁目","koaza":"","lat":33.822705,"lng":130.534301,"zip":"8113400"},{"town":"ひかりヶ丘五丁目","koaza":"","lat":33.81947,"lng":130.534485,"zip":"8113400"},{"town":"ひかりヶ丘六丁目","koaza":"","lat":33.817969,"lng":130.536602,"zip":"8113400"},{"town":"ひかりヶ丘七丁目","koaza":"","lat":33.816441,"lng":130.535595,"zip":"8113400"},{"town":"日の里一丁目","koaza":"","lat":33.793494,"lng":130.531236,"zip":"8113425"},{"town":"日の里二丁目","koaza":"","lat":33.795844,"lng":130.535788,"zip":"8113425"},{"town":"日の里三丁目","koaza":"","lat":33.798995,"lng":130.541857,"zip":"8113425"},{"town":"日の里四丁目","koaza":"","lat":33.79516,"lng":130.540574,"zip":"8113425"},{"town":"日の里五丁目","koaza":"","lat":33.790695,"lng":130.536067,"zip":"8113425"},{"town":"日の里六丁目","koaza":"","lat":33.789472,"lng":130.539813,"zip":"8113425"},{"town":"日の里七丁目","koaza":"","lat":33.785257,"lng":130.533806,"zip":"8113425"},{"town":"日の里八丁目","koaza":"","lat":33.788214,"lng":130.531988,"zip":"8113425"},{"town":"日の里九丁目","koaza":"","lat":33.788996,"lng":130.526774,"zip":"8113425"},{"town":"平等寺","koaza":"","lat":33.82524,"lng":130.575425,"zip":"8113412"},{"town":"平井一丁目","koaza":"","lat":33.796918,"lng":130.526041,"zip":"8113430"},{"town":"平井二丁目","koaza":"","lat":33.794776,"lng":130.525385,"zip":"8113430"},{"town":"平井三丁目","koaza":"","lat":33.792595,"lng":130.52485,"zip":"8113430"},{"town":"深田","koaza":"","lat":33.832635,"lng":130.507756,"zip":"8113504"},{"town":"冨地原","koaza":"","lat":33.790857,"lng":130.606547,"zip":"8114154"},{"town":"曲","koaza":"","lat":33.797426,"lng":130.556161,"zip":"8114113"},{"town":"三倉","koaza":"","lat":33.802564,"lng":130.528858,"zip":"8113439"},{"town":"光岡","koaza":"","lat":33.788699,"lng":130.556305,"zip":"8113414"},{"town":"緑町","koaza":"","lat":33.796449,"lng":130.586784,"zip":"8114172"},{"town":"宮田一丁目","koaza":"","lat":33.796927,"lng":130.564027,"zip":"8113416"},{"town":"宮田二丁目","koaza":"","lat":33.792482,"lng":130.568319,"zip":"8113416"},{"town":"牟田尻","koaza":"","lat":33.839788,"lng":130.500071,"zip":"8113503"},{"town":"村山田","koaza":"","lat":33.782916,"lng":130.522108,"zip":"8113434"},{"town":"用山","koaza":"","lat":33.801291,"lng":130.506248,"zip":"8113435"},{"town":"山田","koaza":"","lat":33.833626,"lng":130.56394,"zip":"8113411"},{"town":"吉田","koaza":"","lat":33.837248,"lng":130.524239,"zip":"8113506"},{"town":"吉留","koaza":"","lat":33.801199,"lng":130.624353,"zip":"8114153"},{"town":"陵厳寺","koaza":"","lat":33.817221,"lng":130.593926,"zip":"8114145"},{"town":"陵厳寺一丁目","koaza":"","lat":33.806653,"lng":130.585828,"zip":"8114145"},{"town":"陵厳寺二丁目","koaza":"","lat":33.811091,"lng":130.583677,"zip":"8114145"},{"town":"陵厳寺三丁目","koaza":"","lat":33.810571,"lng":130.586851,"zip":"8114145"},{"town":"陵厳寺四丁目","koaza":"","lat":33.809853,"lng":130.588584,"zip":"8114145"},{"town":"和歌美台","koaza":"","lat":33.80268,"lng":130.525627,"zip":"8113438"},{"town":"王丸","koaza":"徳丸","lat":33.785017,"lng":130.546947,"zip":"8113422"},{"town":"光岡","koaza":"七田","lat":33.78339,"lng":130.553659,"zip":"8113414"},{"town":"曲","koaza":"京縄手","lat":33.789726,"lng":130.56453,"zip":"8114113"}]