[{"town":"赤川","koaza":"","lat":33.347642,"lng":130.541368,"zip":"8380135"},{"town":"稲吉","koaza":"","lat":33.383173,"lng":130.565854,"zip":"8380128"},{"town":"井上","koaza":"","lat":33.404813,"lng":130.577702,"zip":"8380114"},{"town":"大板井","koaza":"","lat":33.401554,"lng":130.564526,"zip":"8380142"},{"town":"大崎","koaza":"","lat":33.386225,"lng":130.559305,"zip":"8380127"},{"town":"大保","koaza":"","lat":33.40997,"lng":130.561396,"zip":"8380115"},{"town":"小郡","koaza":"","lat":33.402664,"lng":130.549605,"zip":"8380141"},{"town":"乙隈","koaza":"","lat":33.431883,"lng":130.580614,"zip":"8380104"},{"town":"上岩田","koaza":"","lat":33.399794,"lng":130.576258,"zip":"8380121"},{"town":"上西鰺坂","koaza":"","lat":33.363151,"lng":130.548719,"zip":"8380136"},{"town":"祇園一丁目","koaza":"","lat":33.395865,"lng":130.551934,"zip":"8380144"},{"town":"祇園二丁目","koaza":"","lat":33.3957,"lng":130.549475,"zip":"8380144"},{"town":"小板井","koaza":"","lat":33.393897,"lng":130.561335,"zip":"8380143"},{"town":"下岩田","koaza":"","lat":33.388178,"lng":130.578952,"zip":"8380123"},{"town":"下西鰺坂","koaza":"","lat":33.356707,"lng":130.553019,"zip":"8380134"},{"town":"津古","koaza":"","lat":33.442626,"lng":130.558166,"zip":"8380102"},{"town":"寺福童","koaza":"","lat":33.384521,"lng":130.548823,"zip":"8380138"},{"town":"希みが丘一丁目","koaza":"","lat":33.436183,"lng":130.544003,"zip":"8380107"},{"town":"希みが丘二丁目","koaza":"","lat":33.436084,"lng":130.539923,"zip":"8380107"},{"town":"希みが丘三丁目","koaza":"","lat":33.437541,"lng":130.537322,"zip":"8380107"},{"town":"希みが丘四丁目","koaza":"","lat":33.439625,"lng":130.541131,"zip":"8380107"},{"town":"希みが丘五丁目","koaza":"","lat":33.437939,"lng":130.545541,"zip":"8380107"},{"town":"希みが丘六丁目","koaza":"","lat":33.439896,"lng":130.546748,"zip":"8380107"},{"town":"干潟","koaza":"","lat":33.418639,"lng":130.590917,"zip":"8380112"},{"town":"平方","koaza":"","lat":33.363541,"lng":130.576897,"zip":"8380131"},{"town":"吹上","koaza":"","lat":33.417643,"lng":130.580991,"zip":"8380111"},{"town":"福童","koaza":"","lat":33.372107,"lng":130.545894,"zip":"8380137"},{"town":"二夕","koaza":"","lat":33.378787,"lng":130.569819,"zip":"8380100"},{"town":"二森","koaza":"","lat":33.377123,"lng":130.558837,"zip":"8380126"},{"town":"古飯","koaza":"","lat":33.376471,"lng":130.57654,"zip":"8380124"},{"town":"松崎","koaza":"","lat":33.396583,"lng":130.587504,"zip":"8380122"},{"town":"三国が丘一丁目","koaza":"","lat":33.435558,"lng":130.563935,"zip":"8380103"},{"town":"三国が丘二丁目","koaza":"","lat":33.43942,"lng":130.564934,"zip":"8380103"},{"town":"三国が丘三丁目","koaza":"","lat":33.442086,"lng":130.565922,"zip":"8380103"},{"town":"三国が丘四丁目","koaza":"","lat":33.440071,"lng":130.567365,"zip":"8380103"},{"town":"三国が丘五丁目","koaza":"","lat":33.436802,"lng":130.567805,"zip":"8380103"},{"town":"三国が丘六丁目","koaza":"","lat":33.434313,"lng":130.566888,"zip":"8380103"},{"town":"三国が丘七丁目","koaza":"","lat":33.432812,"lng":130.566908,"zip":"8380103"},{"town":"美鈴が丘一丁目","koaza":"","lat":33.43321,"lng":130.552594,"zip":"8380101"},{"town":"美鈴が丘二丁目","koaza":"","lat":33.431052,"lng":130.552072,"zip":"8380101"},{"town":"美鈴が丘三丁目","koaza":"","lat":33.433838,"lng":130.548531,"zip":"8380101"},{"town":"美鈴が丘四丁目","koaza":"","lat":33.435087,"lng":130.54948,"zip":"8380101"},{"town":"美鈴が丘五丁目","koaza":"","lat":33.436457,"lng":130.551209,"zip":"8380101"},{"town":"美鈴の杜一丁目","koaza":"","lat":33.431956,"lng":130.560701,"zip":"8380108"},{"town":"美鈴の杜二丁目","koaza":"","lat":33.429189,"lng":130.560304,"zip":"8380108"},{"town":"美鈴の杜三丁目","koaza":"","lat":33.432195,"lng":130.558498,"zip":"8380108"},{"town":"三沢","koaza":"","lat":33.427498,"lng":130.551589,"zip":"8380106"},{"town":"光行","koaza":"","lat":33.362443,"lng":130.569948,"zip":"8380132"},{"town":"八坂","koaza":"","lat":33.359331,"lng":130.562808,"zip":"8380133"},{"town":"山隈","koaza":"","lat":33.411982,"lng":130.600722,"zip":"8380113"},{"town":"横隈","koaza":"","lat":33.424022,"lng":130.572684,"zip":"8380105"},{"town":"力武","koaza":"","lat":33.41872,"lng":130.56848,"zip":"8380116"},{"town":"小郡","koaza":"下町","lat":33.393977,"lng":130.547973,"zip":"8380141"},{"town":"津古","koaza":"土取","lat":33.439614,"lng":130.560625,"zip":"8380102"},{"town":"小板井","koaza":"蓮輪","lat":33.39286,"lng":130.558873,"zip":"8380143"},{"town":"津古","koaza":"半女寺","lat":33.444644,"lng":130.567431,"zip":"8380102"},{"town":"山隈","koaza":"弥八郎","lat":33.408222,"lng":130.596376,"zip":"8380113"}]