[{"town":"赤坂","koaza":"","lat":33.480188,"lng":130.589599,"zip":"8380222"},{"town":"朝園","koaza":"","lat":33.426049,"lng":130.635384,"zip":"8380817"},{"town":"朝日","koaza":"","lat":33.466769,"lng":130.566979,"zip":"8380227"},{"town":"石櫃","koaza":"","lat":33.465286,"lng":130.580915,"zip":"8380225"},{"town":"弥永","koaza":"","lat":33.442405,"lng":130.649567,"zip":"8380811"},{"town":"大久保","koaza":"","lat":33.429975,"lng":130.613421,"zip":"8380825"},{"town":"大塚","koaza":"","lat":33.435008,"lng":130.653425,"zip":"8380812"},{"town":"上高場","koaza":"","lat":33.437291,"lng":130.619674,"zip":"8380821"},{"town":"櫛木","koaza":"","lat":33.499582,"lng":130.660591,"zip":"8380201"},{"town":"栗田","koaza":"","lat":33.453848,"lng":130.636006,"zip":"8380801"},{"town":"三箇山","koaza":"","lat":33.488374,"lng":130.647857,"zip":"8380202"},{"town":"四三嶋","koaza":"","lat":33.432575,"lng":130.592451,"zip":"8380212"},{"town":"篠隈","koaza":"","lat":33.457824,"lng":130.600221,"zip":"8380215"},{"town":"下高場","koaza":"","lat":33.440834,"lng":130.604669,"zip":"8380211"},{"town":"新町","koaza":"","lat":33.43368,"lng":130.638157,"zip":"8380816"},{"town":"曽根田","koaza":"","lat":33.482357,"lng":130.614448,"zip":"8380206"},{"town":"高田","koaza":"","lat":33.419065,"lng":130.630201,"zip":"8380814"},{"town":"高上","koaza":"","lat":33.426716,"lng":130.620295,"zip":"8380822"},{"town":"長者町","koaza":"","lat":33.45427,"lng":130.609547,"zip":"8380204"},{"town":"当所","koaza":"","lat":33.451244,"lng":130.618309,"zip":"8380803"},{"town":"砥上","koaza":"","lat":33.478756,"lng":130.600043,"zip":"8380223"},{"town":"中牟田","koaza":"","lat":33.466618,"lng":130.575483,"zip":"8380226"},{"town":"野町","koaza":"","lat":33.423152,"lng":130.62361,"zip":"8380815"},{"town":"畑嶋","koaza":"","lat":33.462333,"lng":130.629801,"zip":"8380203"},{"town":"原地蔵","koaza":"","lat":33.409459,"lng":130.616381,"zip":"8380824"},{"town":"東小田","koaza":"","lat":33.451421,"lng":130.57931,"zip":"8380214"},{"town":"久光","koaza":"","lat":33.438994,"lng":130.634828,"zip":"8380802"},{"town":"吹田","koaza":"","lat":33.470836,"lng":130.590266,"zip":"8380221"},{"town":"二","koaza":"","lat":33.476485,"lng":130.564312,"zip":"8380228"},{"town":"松延","koaza":"","lat":33.463259,"lng":130.587469,"zip":"8380224"},{"town":"三並","koaza":"","lat":33.474469,"lng":130.625972,"zip":"8380205"},{"town":"三牟田","koaza":"","lat":33.472773,"lng":130.607045,"zip":"8380207"},{"town":"森山","koaza":"","lat":33.455747,"lng":130.629721,"zip":"8380804"},{"town":"安野","koaza":"","lat":33.443417,"lng":130.595108,"zip":"8380213"},{"town":"山隈","koaza":"","lat":33.420314,"lng":130.609787,"zip":"8380823"},{"town":"依井","koaza":"","lat":33.429917,"lng":130.643468,"zip":"8380813"},{"town":"久光","koaza":"引田","lat":33.434992,"lng":130.636159,"zip":"8380802"}]