[{"town":"相窪","koaza":"","lat":33.409771,"lng":130.685034,"zip":"8380025"},{"town":"秋月","koaza":"","lat":33.478576,"lng":130.6873,"zip":"8380001"},{"town":"秋月野鳥","koaza":"","lat":33.47802,"lng":130.709686,"zip":"8380011"},{"town":"甘木","koaza":"","lat":33.419152,"lng":130.65697,"zip":"8380068"},{"town":"甘水","koaza":"","lat":33.476672,"lng":130.666845,"zip":"8380005"},{"town":"石成","koaza":"","lat":33.389915,"lng":130.69434,"zip":"8381317"},{"town":"板屋","koaza":"","lat":33.421185,"lng":130.698178,"zip":"8380027"},{"town":"荷原","koaza":"","lat":33.424415,"lng":130.733563,"zip":"8380029"},{"town":"入地","koaza":"","lat":33.389371,"lng":130.717977,"zip":"8381315"},{"town":"上畑","koaza":"","lat":33.369308,"lng":130.675057,"zip":"8380042"},{"town":"牛木","koaza":"","lat":33.419074,"lng":130.646239,"zip":"8380067"},{"town":"牛鶴","koaza":"","lat":33.401363,"lng":130.691428,"zip":"8380024"},{"town":"烏集院","koaza":"","lat":33.400567,"lng":130.724476,"zip":"8381301"},{"town":"鵜木","koaza":"","lat":33.370126,"lng":130.681825,"zip":"8380038"},{"town":"江川","koaza":"","lat":33.467982,"lng":130.752578,"zip":"8380012"},{"town":"大庭","koaza":"","lat":33.38201,"lng":130.701932,"zip":"8381316"},{"town":"小隈","koaza":"","lat":33.384218,"lng":130.65576,"zip":"8380052"},{"town":"小田","koaza":"","lat":33.392947,"lng":130.664332,"zip":"8380051"},{"town":"柿原","koaza":"","lat":33.42074,"lng":130.687644,"zip":"8380026"},{"town":"片延","koaza":"","lat":33.367031,"lng":130.683092,"zip":"8380036"},{"town":"金丸","koaza":"","lat":33.380124,"lng":130.665199,"zip":"8380048"},{"town":"鎌崎","koaza":"","lat":33.383273,"lng":130.668626,"zip":"8380041"},{"town":"上秋月","koaza":"","lat":33.460913,"lng":130.705683,"zip":"8380019"},{"town":"上浦","koaza":"","lat":33.398455,"lng":130.64245,"zip":"8380057"},{"town":"上寺","koaza":"","lat":33.363934,"lng":130.718512,"zip":"8381313"},{"town":"隈江","koaza":"","lat":33.453534,"lng":130.654157,"zip":"8380004"},{"town":"倉吉","koaza":"","lat":33.376815,"lng":130.64483,"zip":"8380046"},{"town":"黒川","koaza":"","lat":33.415101,"lng":130.787018,"zip":"8380072"},{"town":"桑原","koaza":"","lat":33.386085,"lng":130.677703,"zip":"8380039"},{"town":"古賀","koaza":"","lat":33.409999,"lng":130.677869,"zip":"8380063"},{"town":"古毛","koaza":"","lat":33.371638,"lng":130.73788,"zip":"8381307"},{"town":"佐田","koaza":"","lat":33.433499,"lng":130.806013,"zip":"8380071"},{"town":"下渕","koaza":"","lat":33.440561,"lng":130.676756,"zip":"8380016"},{"town":"下浦","koaza":"","lat":33.39767,"lng":130.630615,"zip":"8380055"},{"town":"白鳥","koaza":"","lat":33.376348,"lng":130.651643,"zip":"8380045"},{"town":"城","koaza":"","lat":33.413194,"lng":130.739592,"zip":"8380022"},{"town":"須川","koaza":"","lat":33.39512,"lng":130.751138,"zip":"8381304"},{"town":"千手","koaza":"","lat":33.465074,"lng":130.673202,"zip":"8380017"},{"town":"草水","koaza":"","lat":33.388106,"lng":130.64322,"zip":"8380054"},{"town":"田島","koaza":"","lat":33.385216,"lng":130.683946,"zip":"8380033"},{"town":"田代","koaza":"","lat":33.441012,"lng":130.709617,"zip":"8380013"},{"town":"多々連","koaza":"","lat":33.37695,"lng":130.718556,"zip":"8381311"},{"town":"田中","koaza":"","lat":33.368928,"lng":130.718268,"zip":"8381312"},{"town":"千代丸","koaza":"","lat":33.410761,"lng":130.648464,"zip":"8380066"},{"town":"堤","koaza":"","lat":33.422368,"lng":130.674959,"zip":"8380062"},{"town":"徳渕","koaza":"","lat":33.376577,"lng":130.663153,"zip":"8380047"},{"town":"頓田","koaza":"","lat":33.412071,"lng":130.671379,"zip":"8380064"},{"town":"中","koaza":"","lat":33.364931,"lng":130.677136,"zip":"8380035"},{"town":"中島田","koaza":"","lat":33.388846,"lng":130.688387,"zip":"8380032"},{"town":"中寒水","koaza":"","lat":33.3875,"lng":130.650701,"zip":"8380053"},{"town":"長田","koaza":"","lat":33.367074,"lng":130.664628,"zip":"8380043"},{"town":"中原","koaza":"","lat":33.403711,"lng":130.621478,"zip":"8380056"},{"town":"長渕","koaza":"","lat":33.36666,"lng":130.702963,"zip":"8381314"},{"town":"楢原","koaza":"","lat":33.45629,"lng":130.664308,"zip":"8380003"},{"town":"杷木赤谷","koaza":"","lat":33.406286,"lng":130.842729,"zip":"8381501"},{"town":"杷木池田","koaza":"","lat":33.370252,"lng":130.815254,"zip":"8381511"},{"town":"杷木大山","koaza":"","lat":33.367649,"lng":130.845882,"zip":"8381503"},{"town":"杷木久喜宮","koaza":"","lat":33.366786,"lng":130.800353,"zip":"8381514"},{"town":"杷木古賀","koaza":"","lat":33.373874,"lng":130.802339,"zip":"8381513"},{"town":"杷木白木","koaza":"","lat":33.380533,"lng":130.817924,"zip":"8381507"},{"town":"杷木志波","koaza":"","lat":33.372522,"lng":130.778762,"zip":"8381521"},{"town":"杷木寒水","koaza":"","lat":33.376399,"lng":130.808565,"zip":"8381512"},{"town":"杷木林田","koaza":"","lat":33.360804,"lng":130.824933,"zip":"8381506"},{"town":"杷木穂坂","koaza":"","lat":33.352471,"lng":130.837681,"zip":"8381505"},{"town":"杷木星丸","koaza":"","lat":33.375,"lng":130.836438,"zip":"8381504"},{"town":"杷木松末","koaza":"","lat":33.393205,"lng":130.835345,"zip":"8381502"},{"town":"杷木若市","koaza":"","lat":33.365822,"lng":130.793188,"zip":"8381515"},{"town":"長谷山","koaza":"","lat":33.470004,"lng":130.680916,"zip":"8380002"},{"town":"林田","koaza":"","lat":33.375924,"lng":130.67025,"zip":"8380037"},{"town":"菱野","koaza":"","lat":33.382444,"lng":130.752427,"zip":"8381305"},{"town":"一木","koaza":"","lat":33.406056,"lng":130.660452,"zip":"8380065"},{"town":"日向石","koaza":"","lat":33.445208,"lng":130.688109,"zip":"8380018"},{"town":"平塚","koaza":"","lat":33.394328,"lng":130.651983,"zip":"8380059"},{"town":"比良松","koaza":"","lat":33.384049,"lng":130.727027,"zip":"8381303"},{"town":"福光","koaza":"","lat":33.375347,"lng":130.681579,"zip":"8380034"},{"town":"菩提寺","koaza":"","lat":33.425262,"lng":130.664043,"zip":"8380061"},{"town":"馬田","koaza":"","lat":33.40772,"lng":130.636504,"zip":"8380058"},{"town":"三奈木","koaza":"","lat":33.411276,"lng":130.703973,"zip":"8380023"},{"town":"美奈宜の杜一丁目","koaza":"","lat":33.425329,"lng":130.711855,"zip":"8380020"},{"town":"美奈宜の杜二丁目","koaza":"","lat":33.428694,"lng":130.710135,"zip":"8380020"},{"town":"美奈宜の杜三丁目","koaza":"","lat":33.429413,"lng":130.713017,"zip":"8380020"},{"town":"美奈宜の杜四丁目","koaza":"","lat":33.433772,"lng":130.71256,"zip":"8380020"},{"town":"美奈宜の杜五丁目","koaza":"","lat":33.434586,"lng":130.719162,"zip":"8380020"},{"town":"美奈宜の杜六丁目","koaza":"","lat":33.437716,"lng":130.717191,"zip":"8380020"},{"town":"美奈宜の杜七丁目","koaza":"","lat":33.437855,"lng":130.713006,"zip":"8380020"},{"town":"宮野","koaza":"","lat":33.396139,"lng":130.728061,"zip":"8381302"},{"town":"持丸","koaza":"","lat":33.434572,"lng":130.667339,"zip":"8380015"},{"town":"八重津","koaza":"","lat":33.37268,"lng":130.662255,"zip":"8380044"},{"town":"屋形原","koaza":"","lat":33.429835,"lng":130.700396,"zip":"8380028"},{"town":"屋永","koaza":"","lat":33.397275,"lng":130.676606,"zip":"8380031"},{"town":"矢野竹","koaza":"","lat":33.441144,"lng":130.732803,"zip":"8380021"},{"town":"山田","koaza":"","lat":33.37768,"lng":130.759413,"zip":"8381306"},{"town":"山見","koaza":"","lat":33.446937,"lng":130.70454,"zip":"8380014"},{"town":"来春","koaza":"","lat":33.413023,"lng":130.663509,"zip":"8380069"},{"town":"甘木","koaza":"ミノケ","lat":33.411818,"lng":130.655434,"zip":"8380068"},{"town":"堤","koaza":"十三塚","lat":33.414729,"lng":130.674691,"zip":"8380062"}]