[{"town":"伊田町","koaza":"","lat":33.643903,"lng":130.814115,"zip":"8250015"},{"town":"魚町","koaza":"","lat":33.643514,"lng":130.818389,"zip":"8250014"},{"town":"大字伊加利","koaza":"","lat":33.62166,"lng":130.831691,"zip":"8250000"},{"town":"大字伊田","koaza":"","lat":33.642788,"lng":130.831945,"zip":"8250000"},{"town":"大字位登","koaza":"","lat":33.611631,"lng":130.78641,"zip":"8250000"},{"town":"大字猪国","koaza":"","lat":33.586402,"lng":130.779824,"zip":"8250000"},{"town":"大字川宮","koaza":"","lat":33.642695,"lng":130.793785,"zip":"8250000"},{"town":"大字夏吉","koaza":"","lat":33.67416,"lng":130.816018,"zip":"8250000"},{"town":"大字奈良","koaza":"","lat":33.625347,"lng":130.808725,"zip":"8250000"},{"town":"大字糒","koaza":"","lat":33.661576,"lng":130.800618,"zip":"8250000"},{"town":"大字弓削田","koaza":"","lat":33.628829,"lng":130.772336,"zip":"8250000"},{"town":"春日町","koaza":"","lat":33.629802,"lng":130.795911,"zip":"8260026"},{"town":"上本町","koaza":"","lat":33.625376,"lng":130.799739,"zip":"8260023"},{"town":"寿町","koaza":"","lat":33.64781,"lng":130.811807,"zip":"8250017"},{"town":"栄町","koaza":"","lat":33.638584,"lng":130.808579,"zip":"8250011"},{"town":"桜町","koaza":"","lat":33.636351,"lng":130.795719,"zip":"8260021"},{"town":"白鳥町","koaza":"","lat":33.63954,"lng":130.822219,"zip":"8250003"},{"town":"新町","koaza":"","lat":33.643898,"lng":130.807354,"zip":"8250016"},{"town":"大黒町","koaza":"","lat":33.627926,"lng":130.79584,"zip":"8260025"},{"town":"中央町","koaza":"","lat":33.640129,"lng":130.806447,"zip":"8250013"},{"town":"千代町","koaza":"","lat":33.637169,"lng":130.803715,"zip":"8260031"},{"town":"西本町","koaza":"","lat":33.625207,"lng":130.795818,"zip":"8260024"},{"town":"番田町","koaza":"","lat":33.6453,"lng":130.814593,"zip":"8250018"},{"town":"日の出町","koaza":"","lat":33.643257,"lng":130.812238,"zip":"8250012"},{"town":"平松町","koaza":"","lat":33.633325,"lng":130.801159,"zip":"8260032"},{"town":"本町","koaza":"","lat":33.630135,"lng":130.799736,"zip":"8260022"},{"town":"丸山町","koaza":"","lat":33.625866,"lng":130.802781,"zip":"8260033"},{"town":"宮尾町","koaza":"","lat":33.632173,"lng":130.79589,"zip":"8260027"},{"town":"大字弓削田","koaza":"橋本","lat":33.631572,"lng":130.785749,"zip":"8250000"},{"town":"大字川宮","koaza":"大藪","lat":33.649178,"lng":130.798927,"zip":"8250000"},{"town":"大字夏吉","koaza":"上吉田","lat":33.660841,"lng":130.825114,"zip":"8250000"}]