[{"town":"大字赤地","koaza":"","lat":33.728356,"lng":130.728331,"zip":"8220000"},{"town":"大字植木","koaza":"","lat":33.779172,"lng":130.707618,"zip":"8220000"},{"town":"大字永満寺","koaza":"","lat":33.734551,"lng":130.773632,"zip":"8220000"},{"town":"大字上境","koaza":"","lat":33.730633,"lng":130.757183,"zip":"8220000"},{"town":"大字上新入","koaza":"","lat":33.748776,"lng":130.704176,"zip":"8220000"},{"town":"大字上頓野","koaza":"","lat":33.76959,"lng":130.779623,"zip":"8220000"},{"town":"大字感田","koaza":"","lat":33.764472,"lng":130.737746,"zip":"8220000"},{"town":"大字下境","koaza":"","lat":33.729828,"lng":130.742529,"zip":"8220000"},{"town":"大字下新入","koaza":"","lat":33.761219,"lng":130.699456,"zip":"8220000"},{"town":"大字知古","koaza":"","lat":33.759305,"lng":130.72788,"zip":"8220000"},{"town":"大字頓野","koaza":"","lat":33.752084,"lng":130.766981,"zip":"8220000"},{"town":"大字中泉","koaza":"","lat":33.712862,"lng":130.737788,"zip":"8220000"},{"town":"大字直方","koaza":"","lat":33.740356,"lng":130.724868,"zip":"8220000"},{"town":"大字畑","koaza":"","lat":33.74601,"lng":130.77397,"zip":"8220000"},{"town":"大字山部","koaza":"","lat":33.743612,"lng":130.720643,"zip":"8220000"},{"town":"神正町","koaza":"","lat":33.753709,"lng":130.724433,"zip":"8220023"},{"town":"新知町","koaza":"","lat":33.757675,"lng":130.720944,"zip":"8220021"},{"town":"新町一丁目","koaza":"","lat":33.740801,"lng":130.72876,"zip":"8220015"},{"town":"新町二丁目","koaza":"","lat":33.738344,"lng":130.727701,"zip":"8220015"},{"town":"新町三丁目","koaza":"","lat":33.736286,"lng":130.726312,"zip":"8220015"},{"town":"須崎町","koaza":"","lat":33.750839,"lng":130.725791,"zip":"8220024"},{"town":"知古一丁目","koaza":"","lat":33.754417,"lng":130.726413,"zip":"8220022"},{"town":"知古二丁目","koaza":"","lat":33.757971,"lng":130.724237,"zip":"8220022"},{"town":"知古三丁目","koaza":"","lat":33.759506,"lng":130.723391,"zip":"8220022"},{"town":"津田町","koaza":"","lat":33.747921,"lng":130.730523,"zip":"8220026"},{"town":"殿町","koaza":"","lat":33.74417,"lng":130.729409,"zip":"8220017"},{"town":"日吉町","koaza":"","lat":33.752013,"lng":130.729077,"zip":"8220025"},{"town":"古町","koaza":"","lat":33.7473,"lng":130.727153,"zip":"8220027"},{"town":"丸山町","koaza":"","lat":33.733421,"lng":130.725186,"zip":"8220014"},{"town":"溝堀一丁目","koaza":"","lat":33.738624,"lng":130.730737,"zip":"8220013"},{"town":"溝堀二丁目","koaza":"","lat":33.733393,"lng":130.729082,"zip":"8220013"},{"town":"溝堀三丁目","koaza":"","lat":33.733738,"lng":130.731078,"zip":"8220013"},{"town":"湯野原一丁目","koaza":"","lat":33.767585,"lng":130.747108,"zip":"8220008"},{"town":"湯野原二丁目","koaza":"","lat":33.76895,"lng":130.750289,"zip":"8220008"},{"town":"大字植木","koaza":"一丁田","lat":33.769141,"lng":130.709279,"zip":"8220000"},{"town":"大字下新入","koaza":"貴船","lat":33.762488,"lng":130.71728,"zip":"8220000"},{"town":"大字感田","koaza":"中牟田","lat":33.766987,"lng":130.735475,"zip":"8220000"},{"town":"大字感田","koaza":"稗田","lat":33.761253,"lng":130.740082,"zip":"8220000"},{"town":"大字頓野","koaza":"芝原","lat":33.747584,"lng":130.737701,"zip":"8220000"}]