[{"town":"相生町一丁目","koaza":"","lat":33.544607,"lng":130.456278,"zip":"8120885"},{"town":"相生町二丁目","koaza":"","lat":33.544886,"lng":130.457902,"zip":"8120885"},{"town":"相生町三丁目","koaza":"","lat":33.545891,"lng":130.458425,"zip":"8120885"},{"town":"青木一丁目","koaza":"","lat":33.59192,"lng":130.45394,"zip":"8120851"},{"town":"青木二丁目","koaza":"","lat":33.593917,"lng":130.459181,"zip":"8120851"},{"town":"井相田一丁目","koaza":"","lat":33.5584,"lng":130.462292,"zip":"8120881"},{"town":"井相田二丁目","koaza":"","lat":33.554442,"lng":130.465233,"zip":"8120881"},{"town":"井相田三丁目","koaza":"","lat":33.55084,"lng":130.468106,"zip":"8120881"},{"town":"板付一丁目","koaza":"","lat":33.570477,"lng":130.448936,"zip":"8120888"},{"town":"板付二丁目","koaza":"","lat":33.566364,"lng":130.452826,"zip":"8120888"},{"town":"板付三丁目","koaza":"","lat":33.565211,"lng":130.449749,"zip":"8120888"},{"town":"板付四丁目","koaza":"","lat":33.561683,"lng":130.452386,"zip":"8120888"},{"town":"板付五丁目","koaza":"","lat":33.563609,"lng":130.454591,"zip":"8120888"},{"town":"板付六丁目","koaza":"","lat":33.559943,"lng":130.456668,"zip":"8120888"},{"town":"板付七丁目","koaza":"","lat":33.557311,"lng":130.454555,"zip":"8120888"},{"town":"浦田一丁目","koaza":"","lat":33.575732,"lng":130.476481,"zip":"8120861"},{"town":"浦田二丁目","koaza":"","lat":33.57086,"lng":130.47623,"zip":"8120861"},{"town":"榎田一丁目","koaza":"","lat":33.596319,"lng":130.437461,"zip":"8120004"},{"town":"榎田二丁目","koaza":"","lat":33.592217,"lng":130.438622,"zip":"8120004"},{"town":"大字青木","koaza":"","lat":33.586887,"lng":130.446245,"zip":"8120000"},{"town":"大字板付","koaza":"","lat":33.567772,"lng":130.453892,"zip":"8120000"},{"town":"大字堅粕","koaza":"","lat":33.59962,"lng":130.438436,"zip":"8120000"},{"town":"大字金隈","koaza":"","lat":33.561901,"lng":130.479346,"zip":"8120000"},{"town":"大字上臼井","koaza":"","lat":33.590954,"lng":130.44525,"zip":"8120000"},{"town":"大字雀居","koaza":"","lat":33.580892,"lng":130.446208,"zip":"8120000"},{"town":"大字下臼井","koaza":"","lat":33.59855,"lng":130.444755,"zip":"8120000"},{"town":"大字下月隈","koaza":"","lat":33.576582,"lng":130.45609,"zip":"8120000"},{"town":"大字東平尾","koaza":"","lat":33.583781,"lng":130.450859,"zip":"8120000"},{"town":"大字立花寺","koaza":"","lat":33.568701,"lng":130.473508,"zip":"8120000"},{"town":"大井一丁目","koaza":"","lat":33.605247,"lng":130.441543,"zip":"8120001"},{"town":"大井二丁目","koaza":"","lat":33.6037,"lng":130.443498,"zip":"8120001"},{"town":"沖浜町","koaza":"","lat":33.609202,"lng":130.401384,"zip":"8120031"},{"town":"堅粕一丁目","koaza":"","lat":33.597896,"lng":130.418858,"zip":"8120043"},{"town":"堅粕二丁目","koaza":"","lat":33.597424,"lng":130.420514,"zip":"8120043"},{"town":"堅粕三丁目","koaza":"","lat":33.597822,"lng":130.422697,"zip":"8120043"},{"town":"堅粕四丁目","koaza":"","lat":33.596548,"lng":130.425222,"zip":"8120043"},{"town":"堅粕五丁目","koaza":"","lat":33.594733,"lng":130.422723,"zip":"8120043"},{"town":"金の隈一丁目","koaza":"","lat":33.561379,"lng":130.471138,"zip":"8120863"},{"town":"金の隈二丁目","koaza":"","lat":33.556869,"lng":130.473806,"zip":"8120863"},{"town":"金の隈三丁目","koaza":"","lat":33.555517,"lng":130.477805,"zip":"8120863"},{"town":"上川端町","koaza":"","lat":33.593877,"lng":130.408683,"zip":"8120026"},{"town":"上呉服町","koaza":"","lat":33.598279,"lng":130.411825,"zip":"8120036"},{"town":"上牟田一丁目","koaza":"","lat":33.58799,"lng":130.436479,"zip":"8120006"},{"town":"上牟田二丁目","koaza":"","lat":33.585232,"lng":130.43657,"zip":"8120006"},{"town":"上牟田三丁目","koaza":"","lat":33.583509,"lng":130.435484,"zip":"8120006"},{"town":"神屋町","koaza":"","lat":33.600972,"lng":130.403774,"zip":"8120022"},{"town":"祇園町","koaza":"","lat":33.591921,"lng":130.412345,"zip":"8120038"},{"town":"銀天町一丁目","koaza":"","lat":33.545636,"lng":130.462034,"zip":"8120879"},{"town":"銀天町二丁目","koaza":"","lat":33.545167,"lng":130.463348,"zip":"8120879"},{"town":"銀天町三丁目","koaza":"","lat":33.545951,"lng":130.464304,"zip":"8120879"},{"town":"空港前一丁目","koaza":"","lat":33.602698,"lng":130.447209,"zip":"8120002"},{"town":"空港前二丁目","koaza":"","lat":33.599502,"lng":130.451065,"zip":"8120002"},{"town":"空港前三丁目","koaza":"","lat":33.596742,"lng":130.452135,"zip":"8120002"},{"town":"空港前四丁目","koaza":"","lat":33.593994,"lng":130.452987,"zip":"8120002"},{"town":"空港前五丁目","koaza":"","lat":33.59526,"lng":130.456077,"zip":"8120002"},{"town":"御供所町","koaza":"","lat":33.596514,"lng":130.414681,"zip":"8120037"},{"town":"寿町一丁目","koaza":"","lat":33.541482,"lng":130.459585,"zip":"8120884"},{"town":"寿町二丁目","koaza":"","lat":33.542854,"lng":130.460401,"zip":"8120884"},{"town":"寿町三丁目","koaza":"","lat":33.544448,"lng":130.460813,"zip":"8120884"},{"town":"古門戸町","koaza":"","lat":33.597803,"lng":130.404176,"zip":"8120029"},{"town":"三筑一丁目","koaza":"","lat":33.552933,"lng":130.454616,"zip":"8120887"},{"town":"三筑二丁目","koaza":"","lat":33.549695,"lng":130.456599,"zip":"8120887"},{"town":"山王一丁目","koaza":"","lat":33.582815,"lng":130.431489,"zip":"8120015"},{"town":"山王二丁目","koaza":"","lat":33.579753,"lng":130.434836,"zip":"8120015"},{"town":"東雲町一丁目","koaza":"","lat":33.545878,"lng":130.465996,"zip":"8120871"},{"town":"東雲町二丁目","koaza":"","lat":33.546394,"lng":130.466703,"zip":"8120871"},{"town":"東雲町三丁目","koaza":"","lat":33.5473,"lng":130.46741,"zip":"8120871"},{"town":"東雲町四丁目","koaza":"","lat":33.54778,"lng":130.46835,"zip":"8120871"},{"town":"下川端町","koaza":"","lat":33.59576,"lng":130.406025,"zip":"8120027"},{"town":"下呉服町","koaza":"","lat":33.601515,"lng":130.408246,"zip":"8120034"},{"town":"昭南町一丁目","koaza":"","lat":33.540195,"lng":130.461945,"zip":"8120876"},{"town":"昭南町二丁目","koaza":"","lat":33.539138,"lng":130.462871,"zip":"8120876"},{"town":"昭南町三丁目","koaza":"","lat":33.538528,"lng":130.461754,"zip":"8120876"},{"town":"新和町一丁目","koaza":"","lat":33.537804,"lng":130.46496,"zip":"8120875"},{"town":"新和町二丁目","koaza":"","lat":33.537417,"lng":130.463049,"zip":"8120875"},{"town":"須崎町","koaza":"","lat":33.596863,"lng":130.402398,"zip":"8120028"},{"town":"住吉一丁目","koaza":"","lat":33.589768,"lng":130.411069,"zip":"8120018"},{"town":"住吉二丁目","koaza":"","lat":33.587584,"lng":130.411742,"zip":"8120018"},{"town":"住吉三丁目","koaza":"","lat":33.58505,"lng":130.411939,"zip":"8120018"},{"town":"住吉四丁目","koaza":"","lat":33.583351,"lng":130.412873,"zip":"8120018"},{"town":"住吉五丁目","koaza":"","lat":33.582145,"lng":130.415345,"zip":"8120018"},{"town":"石城町","koaza":"","lat":33.605316,"lng":130.405758,"zip":"8120032"},{"town":"大博町","koaza":"","lat":33.602814,"lng":130.405825,"zip":"8120033"},{"town":"竹丘町一丁目","koaza":"","lat":33.542856,"lng":130.464894,"zip":"8120878"},{"town":"竹丘町二丁目","koaza":"","lat":33.54436,"lng":130.464594,"zip":"8120878"},{"town":"竹丘町三丁目","koaza":"","lat":33.54489,"lng":130.466109,"zip":"8120878"},{"town":"竹下一丁目","koaza":"","lat":33.569552,"lng":130.429477,"zip":"8120895"},{"town":"竹下二丁目","koaza":"","lat":33.573621,"lng":130.428985,"zip":"8120895"},{"town":"竹下三丁目","koaza":"","lat":33.572025,"lng":130.431296,"zip":"8120895"},{"town":"竹下四丁目","koaza":"","lat":33.568697,"lng":130.43248,"zip":"8120895"},{"town":"竹下五丁目","koaza":"","lat":33.56835,"lng":130.43471,"zip":"8120895"},{"town":"築港本町","koaza":"","lat":33.602693,"lng":130.400499,"zip":"8120021"},{"town":"千代一丁目","koaza":"","lat":33.601927,"lng":130.418047,"zip":"8120044"},{"town":"千代二丁目","koaza":"","lat":33.599359,"lng":130.41615,"zip":"8120044"},{"town":"千代三丁目","koaza":"","lat":33.602625,"lng":130.411345,"zip":"8120044"},{"town":"千代四丁目","koaza":"","lat":33.60505,"lng":130.413523,"zip":"8120044"},{"town":"千代五丁目","koaza":"","lat":33.607115,"lng":130.411219,"zip":"8120044"},{"town":"千代六丁目","koaza":"","lat":33.607826,"lng":130.408816,"zip":"8120044"},{"town":"月隈一丁目","koaza":"","lat":33.578177,"lng":130.462508,"zip":"8120858"},{"town":"月隈二丁目","koaza":"","lat":33.578875,"lng":130.46888,"zip":"8120858"},{"town":"月隈三丁目","koaza":"","lat":33.573644,"lng":130.46463,"zip":"8120858"},{"town":"月隈四丁目","koaza":"","lat":33.570533,"lng":130.459366,"zip":"8120858"},{"town":"月隈五丁目","koaza":"","lat":33.567729,"lng":130.462653,"zip":"8120858"},{"town":"月隈六丁目","koaza":"","lat":33.570628,"lng":130.467362,"zip":"8120858"},{"town":"綱場町","koaza":"","lat":33.597589,"lng":130.407811,"zip":"8120024"},{"town":"対馬小路","koaza":"","lat":33.599056,"lng":130.401351,"zip":"8120020"},{"town":"店屋町","koaza":"","lat":33.596161,"lng":130.409787,"zip":"8120025"},{"town":"東光一丁目","koaza":"","lat":33.592417,"lng":130.42573,"zip":"8120008"},{"town":"東光二丁目","koaza":"","lat":33.59446,"lng":130.427377,"zip":"8120008"},{"town":"東光寺町一丁目","koaza":"","lat":33.575678,"lng":130.434422,"zip":"8120896"},{"town":"東光寺町二丁目","koaza":"","lat":33.575381,"lng":130.437467,"zip":"8120896"},{"town":"那珂一丁目","koaza":"","lat":33.572241,"lng":130.435747,"zip":"8120893"},{"town":"那珂二丁目","koaza":"","lat":33.568659,"lng":130.437615,"zip":"8120893"},{"town":"那珂三丁目","koaza":"","lat":33.570021,"lng":130.440283,"zip":"8120893"},{"town":"那珂四丁目","koaza":"","lat":33.570616,"lng":130.444337,"zip":"8120893"},{"town":"那珂五丁目","koaza":"","lat":33.566185,"lng":130.44426,"zip":"8120893"},{"town":"那珂六丁目","koaza":"","lat":33.565086,"lng":130.439711,"zip":"8120893"},{"town":"中呉服町","koaza":"","lat":33.599676,"lng":130.409872,"zip":"8120035"},{"town":"中洲一丁目","koaza":"","lat":33.589821,"lng":130.40909,"zip":"8100801"},{"town":"中洲二丁目","koaza":"","lat":33.592002,"lng":130.408535,"zip":"8100801"},{"town":"中洲三丁目","koaza":"","lat":33.593347,"lng":130.406877,"zip":"8100801"},{"town":"中洲四丁目","koaza":"","lat":33.592178,"lng":130.406251,"zip":"8100801"},{"town":"中洲五丁目","koaza":"","lat":33.59397,"lng":130.4041,"zip":"8100801"},{"town":"中洲中島町","koaza":"","lat":33.595235,"lng":130.402559,"zip":"8100802"},{"town":"奈良屋町","koaza":"","lat":33.599102,"lng":130.405827,"zip":"8120023"},{"town":"西月隈一丁目","koaza":"","lat":33.574334,"lng":130.449782,"zip":"8120857"},{"town":"西月隈二丁目","koaza":"","lat":33.574627,"lng":130.453097,"zip":"8120857"},{"town":"西月隈三丁目","koaza":"","lat":33.571166,"lng":130.452972,"zip":"8120857"},{"town":"西月隈四丁目","koaza":"","lat":33.566221,"lng":130.460125,"zip":"8120857"},{"town":"西月隈五丁目","koaza":"","lat":33.565679,"lng":130.457291,"zip":"8120857"},{"town":"西月隈六丁目","koaza":"","lat":33.562228,"lng":130.460426,"zip":"8120857"},{"town":"西春町一丁目","koaza":"","lat":33.542504,"lng":130.466602,"zip":"8120873"},{"town":"西春町二丁目","koaza":"","lat":33.541968,"lng":130.468515,"zip":"8120873"},{"town":"西春町三丁目","koaza":"","lat":33.540984,"lng":130.467239,"zip":"8120873"},{"town":"西春町四丁目","koaza":"","lat":33.539917,"lng":130.46822,"zip":"8120873"},{"town":"博多駅中央街","koaza":"","lat":33.589783,"lng":130.420591,"zip":"8120012"},{"town":"博多駅東一丁目","koaza":"","lat":33.592321,"lng":130.423177,"zip":"8120013"},{"town":"博多駅東二丁目","koaza":"","lat":33.588503,"lng":130.424883,"zip":"8120013"},{"town":"博多駅東三丁目","koaza":"","lat":33.58697,"lng":130.427278,"zip":"8120013"},{"town":"博多駅前一丁目","koaza":"","lat":33.593755,"lng":130.418361,"zip":"8120011"},{"town":"博多駅前二丁目","koaza":"","lat":33.591537,"lng":130.41598,"zip":"8120011"},{"town":"博多駅前三丁目","koaza":"","lat":33.588034,"lng":130.416106,"zip":"8120011"},{"town":"博多駅前四丁目","koaza":"","lat":33.583483,"lng":130.419086,"zip":"8120011"},{"town":"博多駅南一丁目","koaza":"","lat":33.585581,"lng":130.422455,"zip":"8120016"},{"town":"博多駅南二丁目","koaza":"","lat":33.583038,"lng":130.422817,"zip":"8120016"},{"town":"博多駅南三丁目","koaza":"","lat":33.581322,"lng":130.424997,"zip":"8120016"},{"town":"博多駅南四丁目","koaza":"","lat":33.580028,"lng":130.429386,"zip":"8120016"},{"town":"博多駅南五丁目","koaza":"","lat":33.577489,"lng":130.426687,"zip":"8120016"},{"town":"博多駅南六丁目","koaza":"","lat":33.577113,"lng":130.432067,"zip":"8120016"},{"town":"春町一丁目","koaza":"","lat":33.543818,"lng":130.468053,"zip":"8120872"},{"town":"春町二丁目","koaza":"","lat":33.544393,"lng":130.468976,"zip":"8120872"},{"town":"春町三丁目","koaza":"","lat":33.545463,"lng":130.469482,"zip":"8120872"},{"town":"半道橋一丁目","koaza":"","lat":33.580889,"lng":130.438091,"zip":"8120897"},{"town":"半道橋二丁目","koaza":"","lat":33.583681,"lng":130.439718,"zip":"8120897"},{"town":"比恵町","koaza":"","lat":33.585553,"lng":130.429481,"zip":"8120014"},{"town":"東公園","koaza":"","lat":33.605706,"lng":130.419358,"zip":"8120045"},{"town":"東月隈一丁目","koaza":"","lat":33.582331,"lng":130.468499,"zip":"8120854"},{"town":"東月隈二丁目","koaza":"","lat":33.583512,"lng":130.470017,"zip":"8120854"},{"town":"東月隈三丁目","koaza":"","lat":33.582963,"lng":130.473116,"zip":"8120854"},{"town":"東月隈四丁目","koaza":"","lat":33.577007,"lng":130.473668,"zip":"8120854"},{"town":"東月隈五丁目","koaza":"","lat":33.576122,"lng":130.470975,"zip":"8120854"},{"town":"東那珂一丁目","koaza":"","lat":33.576257,"lng":130.440682,"zip":"8120892"},{"town":"東那珂二丁目","koaza":"","lat":33.578367,"lng":130.446259,"zip":"8120892"},{"town":"東那珂三丁目","koaza":"","lat":33.574075,"lng":130.445202,"zip":"8120892"},{"town":"東比恵一丁目","koaza":"","lat":33.589998,"lng":130.428555,"zip":"8120007"},{"town":"東比恵二丁目","koaza":"","lat":33.592148,"lng":130.43014,"zip":"8120007"},{"town":"東比恵三丁目","koaza":"","lat":33.591138,"lng":130.434711,"zip":"8120007"},{"town":"東比恵四丁目","koaza":"","lat":33.586605,"lng":130.432457,"zip":"8120007"},{"town":"東平尾一丁目","koaza":"","lat":33.589798,"lng":130.45632,"zip":"8120853"},{"town":"東平尾二丁目","koaza":"","lat":33.58608,"lng":130.457411,"zip":"8120853"},{"town":"東平尾三丁目","koaza":"","lat":33.582779,"lng":130.458824,"zip":"8120853"},{"town":"東平尾公園一丁目","koaza":"","lat":33.590496,"lng":130.461468,"zip":"8120852"},{"town":"東平尾公園二丁目","koaza":"","lat":33.584947,"lng":130.464297,"zip":"8120852"},{"town":"光丘町一丁目","koaza":"","lat":33.539466,"lng":130.465588,"zip":"8120874"},{"town":"光丘町二丁目","koaza":"","lat":33.538519,"lng":130.466803,"zip":"8120874"},{"town":"光丘町三丁目","koaza":"","lat":33.537774,"lng":130.46768,"zip":"8120874"},{"town":"南八幡町一丁目","koaza":"","lat":33.54612,"lng":130.455658,"zip":"8120886"},{"town":"南八幡町二丁目","koaza":"","lat":33.54739,"lng":130.455813,"zip":"8120886"},{"town":"南本町一丁目","koaza":"","lat":33.546588,"lng":130.459694,"zip":"8120883"},{"town":"南本町二丁目","koaza":"","lat":33.546596,"lng":130.461757,"zip":"8120883"},{"town":"美野島一丁目","koaza":"","lat":33.580622,"lng":130.416544,"zip":"8120017"},{"town":"美野島二丁目","koaza":"","lat":33.578923,"lng":130.41753,"zip":"8120017"},{"town":"美野島三丁目","koaza":"","lat":33.577718,"lng":130.419582,"zip":"8120017"},{"town":"美野島四丁目","koaza":"","lat":33.575318,"lng":130.422696,"zip":"8120017"},{"town":"麦野一丁目","koaza":"","lat":33.554041,"lng":130.456915,"zip":"8120882"},{"town":"麦野二丁目","koaza":"","lat":33.556484,"lng":130.459106,"zip":"8120882"},{"town":"麦野三丁目","koaza":"","lat":33.553598,"lng":130.461243,"zip":"8120882"},{"town":"麦野四丁目","koaza":"","lat":33.550006,"lng":130.460327,"zip":"8120882"},{"town":"麦野五丁目","koaza":"","lat":33.549892,"lng":130.462928,"zip":"8120882"},{"town":"麦野六丁目","koaza":"","lat":33.548793,"lng":130.465697,"zip":"8120882"},{"town":"元町一丁目","koaza":"","lat":33.542656,"lng":130.461839,"zip":"8120877"},{"town":"元町二丁目","koaza":"","lat":33.541837,"lng":130.463215,"zip":"8120877"},{"town":"元町三丁目","koaza":"","lat":33.540423,"lng":130.463914,"zip":"8120877"},{"town":"諸岡一丁目","koaza":"","lat":33.563048,"lng":130.447461,"zip":"8120894"},{"town":"諸岡二丁目","koaza":"","lat":33.55877,"lng":130.451188,"zip":"8120894"},{"town":"諸岡三丁目","koaza":"","lat":33.560932,"lng":130.444756,"zip":"8120894"},{"town":"諸岡四丁目","koaza":"","lat":33.558279,"lng":130.448245,"zip":"8120894"},{"town":"諸岡五丁目","koaza":"","lat":33.554909,"lng":130.449982,"zip":"8120894"},{"town":"諸岡六丁目","koaza":"","lat":33.551891,"lng":130.451435,"zip":"8120894"},{"town":"豊一丁目","koaza":"","lat":33.596306,"lng":130.431747,"zip":"8120042"},{"town":"豊二丁目","koaza":"","lat":33.59859,"lng":130.434037,"zip":"8120042"},{"town":"吉塚一丁目","koaza":"","lat":33.601405,"lng":130.423973,"zip":"8120041"},{"town":"吉塚二丁目","koaza":"","lat":33.602645,"lng":130.426695,"zip":"8120041"},{"town":"吉塚三丁目","koaza":"","lat":33.599088,"lng":130.42856,"zip":"8120041"},{"town":"吉塚四丁目","koaza":"","lat":33.601254,"lng":130.43248,"zip":"8120041"},{"town":"吉塚五丁目","koaza":"","lat":33.60366,"lng":130.430528,"zip":"8120041"},{"town":"吉塚六丁目","koaza":"","lat":33.606929,"lng":130.427836,"zip":"8120041"},{"town":"吉塚七丁目","koaza":"","lat":33.608567,"lng":130.430819,"zip":"8120041"},{"town":"吉塚八丁目","koaza":"","lat":33.604072,"lng":130.435152,"zip":"8120041"},{"town":"吉塚本町","koaza":"","lat":33.60733,"lng":130.423914,"zip":"8120046"},{"town":"立花寺一丁目","koaza":"","lat":33.564631,"lng":130.466288,"zip":"8120862"},{"town":"立花寺二丁目","koaza":"","lat":33.566907,"lng":130.469269,"zip":"8120862"},{"town":"冷泉町","koaza":"","lat":33.594402,"lng":130.411953,"zip":"8120039"}]