[{"town":"愛宕一丁目","koaza":"","lat":33.582288,"lng":130.334183,"zip":"8190015"},{"town":"愛宕二丁目","koaza":"","lat":33.584939,"lng":130.333726,"zip":"8190015"},{"town":"愛宕三丁目","koaza":"","lat":33.584231,"lng":130.338464,"zip":"8190015"},{"town":"愛宕四丁目","koaza":"","lat":33.585986,"lng":130.340615,"zip":"8190015"},{"town":"愛宕浜一丁目","koaza":"","lat":33.592566,"lng":130.334784,"zip":"8190013"},{"town":"愛宕浜二丁目","koaza":"","lat":33.594675,"lng":130.339375,"zip":"8190013"},{"town":"愛宕浜三丁目","koaza":"","lat":33.597133,"lng":130.330062,"zip":"8190013"},{"town":"愛宕浜四丁目","koaza":"","lat":33.593759,"lng":130.329204,"zip":"8190013"},{"town":"愛宕南一丁目","koaza":"","lat":33.578583,"lng":130.330937,"zip":"8190007"},{"town":"愛宕南二丁目","koaza":"","lat":33.581431,"lng":130.331849,"zip":"8190007"},{"town":"壱岐団地","koaza":"","lat":33.559814,"lng":130.315508,"zip":"8190042"},{"town":"生の松原一丁目","koaza":"","lat":33.581405,"lng":130.303019,"zip":"8190055"},{"town":"生の松原二丁目","koaza":"","lat":33.577416,"lng":130.303126,"zip":"8190055"},{"town":"生の松原三丁目","koaza":"","lat":33.576763,"lng":130.298595,"zip":"8190055"},{"town":"生の松原四丁目","koaza":"","lat":33.572235,"lng":130.298152,"zip":"8190055"},{"town":"生松台一丁目","koaza":"","lat":33.557448,"lng":130.300636,"zip":"8190044"},{"town":"生松台二丁目","koaza":"","lat":33.554466,"lng":130.300623,"zip":"8190044"},{"town":"生松台三丁目","koaza":"","lat":33.553925,"lng":130.298446,"zip":"8190044"},{"town":"石丸一丁目","koaza":"","lat":33.574965,"lng":130.321359,"zip":"8190025"},{"town":"石丸二丁目","koaza":"","lat":33.574103,"lng":130.318069,"zip":"8190025"},{"town":"石丸三丁目","koaza":"","lat":33.573799,"lng":130.313648,"zip":"8190025"},{"town":"石丸四丁目","koaza":"","lat":33.569966,"lng":130.315197,"zip":"8190025"},{"town":"泉一丁目","koaza":"","lat":33.576678,"lng":130.240747,"zip":"8190381"},{"town":"泉二丁目","koaza":"","lat":33.577554,"lng":130.242863,"zip":"8190381"},{"town":"泉三丁目","koaza":"","lat":33.577691,"lng":130.245077,"zip":"8190381"},{"town":"今宿一丁目","koaza":"","lat":33.58224,"lng":130.271799,"zip":"8190167"},{"town":"今宿二丁目","koaza":"","lat":33.583214,"lng":130.267518,"zip":"8190167"},{"town":"今宿三丁目","koaza":"","lat":33.580389,"lng":130.267422,"zip":"8190167"},{"town":"今宿青木","koaza":"","lat":33.570886,"lng":130.28858,"zip":"8190162"},{"town":"今宿駅前一丁目","koaza":"","lat":33.580721,"lng":130.277737,"zip":"8190168"},{"town":"今宿上ノ原","koaza":"","lat":33.554374,"lng":130.278802,"zip":"8190163"},{"town":"今宿西一丁目","koaza":"","lat":33.575475,"lng":130.270442,"zip":"8190169"},{"town":"今宿東一丁目","koaza":"","lat":33.575737,"lng":130.274964,"zip":"8190161"},{"town":"今宿東二丁目","koaza":"","lat":33.576335,"lng":130.278754,"zip":"8190161"},{"town":"今宿東三丁目","koaza":"","lat":33.576545,"lng":130.28231,"zip":"8190161"},{"town":"今宿町","koaza":"","lat":33.567383,"lng":130.26874,"zip":"8190164"},{"town":"今津","koaza":"","lat":33.609809,"lng":130.252145,"zip":"8190165"},{"town":"内浜一丁目","koaza":"","lat":33.580252,"lng":130.321438,"zip":"8190005"},{"town":"内浜二丁目","koaza":"","lat":33.581144,"lng":130.318356,"zip":"8190005"},{"town":"大字飯氏","koaza":"","lat":33.564043,"lng":130.251982,"zip":"8190000"},{"town":"大字飯盛","koaza":"","lat":33.538482,"lng":130.306494,"zip":"8190000"},{"town":"大字宇田川原","koaza":"","lat":33.555944,"lng":130.239844,"zip":"8190000"},{"town":"大字小呂島","koaza":"","lat":33.868302,"lng":130.035919,"zip":"8190000"},{"town":"大字金武","koaza":"","lat":33.52098,"lng":130.302178,"zip":"8190000"},{"town":"大字草場","koaza":"","lat":33.611323,"lng":130.21257,"zip":"8190000"},{"town":"大字桑原","koaza":"","lat":33.601775,"lng":130.225948,"zip":"8190000"},{"town":"大字玄界島","koaza":"","lat":33.688495,"lng":130.231824,"zip":"8190000"},{"town":"大字小田","koaza":"","lat":33.629472,"lng":130.21594,"zip":"8190000"},{"town":"大字下山門","koaza":"","lat":33.575036,"lng":130.294266,"zip":"8190000"},{"town":"大字拾六町","koaza":"","lat":33.560526,"lng":130.295225,"zip":"8190000"},{"town":"大字周船寺","koaza":"","lat":33.573801,"lng":130.252078,"zip":"8190000"},{"town":"大字千里","koaza":"","lat":33.562309,"lng":130.243392,"zip":"8190000"},{"town":"大字田","koaza":"","lat":33.538991,"lng":130.322996,"zip":"8190000"},{"town":"大字田尻","koaza":"","lat":33.587723,"lng":130.249559,"zip":"8190000"},{"town":"大字太郎丸","koaza":"","lat":33.596413,"lng":130.242491,"zip":"8190000"},{"town":"大字徳永","koaza":"","lat":33.567909,"lng":130.257602,"zip":"8190000"},{"town":"大字西入部","koaza":"","lat":33.517207,"lng":130.320075,"zip":"8190000"},{"town":"大字西浦","koaza":"","lat":33.653538,"lng":130.215353,"zip":"8190000"},{"town":"大字野方","koaza":"","lat":33.554492,"lng":130.294301,"zip":"8190000"},{"town":"大字橋本","koaza":"","lat":33.548397,"lng":130.322007,"zip":"8190000"},{"town":"大字羽根戸","koaza":"","lat":33.543057,"lng":130.301167,"zip":"8190000"},{"town":"大字宮浦","koaza":"","lat":33.646833,"lng":130.227249,"zip":"8190000"},{"town":"大字女原","koaza":"","lat":33.56598,"lng":130.263189,"zip":"8190000"},{"town":"大字元岡","koaza":"","lat":33.592831,"lng":130.218033,"zip":"8190000"},{"town":"大字吉武","koaza":"","lat":33.532171,"lng":130.305987,"zip":"8190000"},{"town":"大町団地","koaza":"","lat":33.576988,"lng":130.319168,"zip":"8190021"},{"town":"小戸一丁目","koaza":"","lat":33.590745,"lng":130.320055,"zip":"8190001"},{"town":"小戸二丁目","koaza":"","lat":33.594805,"lng":130.317805,"zip":"8190001"},{"town":"小戸三丁目","koaza":"","lat":33.588423,"lng":130.314441,"zip":"8190001"},{"town":"小戸四丁目","koaza":"","lat":33.5847,"lng":130.316398,"zip":"8190001"},{"town":"小戸五丁目","koaza":"","lat":33.586212,"lng":130.310079,"zip":"8190001"},{"town":"上山門一丁目","koaza":"","lat":33.573038,"lng":130.306956,"zip":"8190054"},{"town":"上山門二丁目","koaza":"","lat":33.572272,"lng":130.304086,"zip":"8190054"},{"town":"上山門三丁目","koaza":"","lat":33.572437,"lng":130.301159,"zip":"8190054"},{"town":"北原一丁目","koaza":"","lat":33.578281,"lng":130.257087,"zip":"8190379"},{"town":"九大新町","koaza":"","lat":33.594146,"lng":130.230339,"zip":"8190388"},{"town":"西都一丁目","koaza":"","lat":33.579508,"lng":130.261172,"zip":"8190367"},{"town":"西都二丁目","koaza":"","lat":33.577141,"lng":130.265781,"zip":"8190367"},{"town":"下山門一丁目","koaza":"","lat":33.579277,"lng":130.316926,"zip":"8190052"},{"town":"下山門二丁目","koaza":"","lat":33.58104,"lng":130.312808,"zip":"8190052"},{"town":"下山門三丁目","koaza":"","lat":33.577799,"lng":130.312967,"zip":"8190052"},{"town":"下山門四丁目","koaza":"","lat":33.578534,"lng":130.309913,"zip":"8190052"},{"town":"下山門団地","koaza":"","lat":33.578294,"lng":130.306659,"zip":"8190051"},{"town":"十郎川団地","koaza":"","lat":33.570058,"lng":130.311698,"zip":"8190024"},{"town":"拾六町一丁目","koaza":"","lat":33.565846,"lng":130.3157,"zip":"8190041"},{"town":"拾六町二丁目","koaza":"","lat":33.56535,"lng":130.311749,"zip":"8190041"},{"town":"拾六町三丁目","koaza":"","lat":33.565901,"lng":130.309378,"zip":"8190041"},{"town":"拾六町四丁目","koaza":"","lat":33.565311,"lng":130.304389,"zip":"8190041"},{"town":"拾六町五丁目","koaza":"","lat":33.57033,"lng":130.305776,"zip":"8190041"},{"town":"拾六町団地","koaza":"","lat":33.563814,"lng":130.306977,"zip":"8190045"},{"town":"城の原団地","koaza":"","lat":33.57335,"lng":130.30914,"zip":"8190053"},{"town":"周船寺一丁目","koaza":"","lat":33.571805,"lng":130.243015,"zip":"8190373"},{"town":"周船寺二丁目","koaza":"","lat":33.573979,"lng":130.246474,"zip":"8190373"},{"town":"周船寺三丁目","koaza":"","lat":33.57502,"lng":130.249965,"zip":"8190373"},{"town":"田尻一丁目","koaza":"","lat":33.578714,"lng":130.247191,"zip":"8190383"},{"town":"太郎丸一丁目","koaza":"","lat":33.589603,"lng":130.236149,"zip":"8190384"},{"town":"太郎丸二丁目","koaza":"","lat":33.584457,"lng":130.236205,"zip":"8190384"},{"town":"太郎丸三丁目","koaza":"","lat":33.583432,"lng":130.230554,"zip":"8190384"},{"town":"太郎丸四丁目","koaza":"","lat":33.587925,"lng":130.230498,"zip":"8190384"},{"town":"戸切一丁目","koaza":"","lat":33.552078,"lng":130.321828,"zip":"8190032"},{"town":"戸切二丁目","koaza":"","lat":33.55452,"lng":130.317203,"zip":"8190032"},{"town":"戸切三丁目","koaza":"","lat":33.55086,"lng":130.316246,"zip":"8190032"},{"town":"徳永北","koaza":"","lat":33.575124,"lng":130.257663,"zip":"8190378"},{"town":"豊浜一丁目","koaza":"","lat":33.590048,"lng":130.340896,"zip":"8190014"},{"town":"豊浜二丁目","koaza":"","lat":33.59022,"lng":130.336817,"zip":"8190014"},{"town":"豊浜三丁目","koaza":"","lat":33.58927,"lng":130.333735,"zip":"8190014"},{"town":"西の丘一丁目","koaza":"","lat":33.562391,"lng":130.301607,"zip":"8190046"},{"town":"西の丘二丁目","koaza":"","lat":33.566742,"lng":130.299021,"zip":"8190046"},{"town":"西の丘三丁目","koaza":"","lat":33.56466,"lng":130.298652,"zip":"8190046"},{"town":"野方一丁目","koaza":"","lat":33.558749,"lng":130.310626,"zip":"8190043"},{"town":"野方二丁目","koaza":"","lat":33.55393,"lng":130.310137,"zip":"8190043"},{"town":"野方三丁目","koaza":"","lat":33.549707,"lng":130.310396,"zip":"8190043"},{"town":"野方四丁目","koaza":"","lat":33.549615,"lng":130.305595,"zip":"8190043"},{"town":"野方五丁目","koaza":"","lat":33.553263,"lng":130.304938,"zip":"8190043"},{"town":"野方六丁目","koaza":"","lat":33.559874,"lng":130.306302,"zip":"8190043"},{"town":"野方七丁目","koaza":"","lat":33.557006,"lng":130.303877,"zip":"8190043"},{"town":"能古","koaza":"","lat":33.622845,"lng":130.305936,"zip":"8190012"},{"town":"橋本一丁目","koaza":"","lat":33.561078,"lng":130.321706,"zip":"8190033"},{"town":"橋本二丁目","koaza":"","lat":33.556601,"lng":130.321465,"zip":"8190033"},{"town":"福重一丁目","koaza":"","lat":33.565898,"lng":130.324786,"zip":"8190022"},{"town":"福重二丁目","koaza":"","lat":33.56566,"lng":130.320603,"zip":"8190022"},{"town":"福重三丁目","koaza":"","lat":33.570549,"lng":130.31984,"zip":"8190022"},{"town":"福重四丁目","koaza":"","lat":33.570909,"lng":130.323913,"zip":"8190022"},{"town":"福重五丁目","koaza":"","lat":33.574765,"lng":130.325261,"zip":"8190022"},{"town":"福重団地","koaza":"","lat":33.56999,"lng":130.325197,"zip":"8190023"},{"town":"富士見一丁目","koaza":"","lat":33.581757,"lng":130.237583,"zip":"8190387"},{"town":"富士見二丁目","koaza":"","lat":33.582357,"lng":130.241423,"zip":"8190387"},{"town":"富士見三丁目","koaza":"","lat":33.582138,"lng":130.244484,"zip":"8190387"},{"town":"女原北","koaza":"","lat":33.575606,"lng":130.263948,"zip":"8190377"},{"town":"室見が丘一丁目","koaza":"","lat":33.519894,"lng":130.316206,"zip":"8190030"},{"town":"室見が丘二丁目","koaza":"","lat":33.520362,"lng":130.32003,"zip":"8190030"},{"town":"室見が丘三丁目","koaza":"","lat":33.517127,"lng":130.317677,"zip":"8190030"},{"town":"姪の浜一丁目","koaza":"","lat":33.585443,"lng":130.329444,"zip":"8190002"},{"town":"姪の浜二丁目","koaza":"","lat":33.588946,"lng":130.330082,"zip":"8190002"},{"town":"姪の浜三丁目","koaza":"","lat":33.590422,"lng":130.325639,"zip":"8190002"},{"town":"姪の浜四丁目","koaza":"","lat":33.585553,"lng":130.325666,"zip":"8190002"},{"town":"姪の浜五丁目","koaza":"","lat":33.585737,"lng":130.321907,"zip":"8190002"},{"town":"姪の浜六丁目","koaza":"","lat":33.589439,"lng":130.321624,"zip":"8190002"},{"town":"姪浜駅南一丁目","koaza":"","lat":33.582533,"lng":130.325438,"zip":"8190006"},{"town":"姪浜駅南二丁目","koaza":"","lat":33.578932,"lng":130.325152,"zip":"8190006"},{"town":"姪浜駅南三丁目","koaza":"","lat":33.580139,"lng":130.327688,"zip":"8190006"},{"town":"姪浜駅南四丁目","koaza":"","lat":33.580688,"lng":130.329403,"zip":"8190006"},{"town":"元浜一丁目","koaza":"","lat":33.59224,"lng":130.227451,"zip":"8190386"},{"town":"元浜二丁目","koaza":"","lat":33.586353,"lng":130.226301,"zip":"8190386"},{"town":"元浜三丁目","koaza":"","lat":33.584723,"lng":130.223279,"zip":"8190386"},{"town":"元浜四丁目","koaza":"","lat":33.582803,"lng":130.219992,"zip":"8190386"},{"town":"横浜一丁目","koaza":"","lat":33.584992,"lng":130.264689,"zip":"8190166"},{"town":"横浜二丁目","koaza":"","lat":33.590625,"lng":130.262777,"zip":"8190166"},{"town":"横浜三丁目","koaza":"","lat":33.584232,"lng":130.259756,"zip":"8190166"},{"town":"大字徳永","koaza":"地内","lat":33.578908,"lng":130.25501,"zip":"8190000"},{"town":"大字徳永","koaza":"大町","lat":33.580687,"lng":130.256174,"zip":"8190000"},{"town":"大字徳永","koaza":"松尾","lat":33.573497,"lng":130.256186,"zip":"8190000"}]