[{"town":"赤坂一丁目","koaza":"","lat":33.587481,"lng":130.390215,"zip":"8100042"},{"town":"赤坂二丁目","koaza":"","lat":33.584676,"lng":130.387489,"zip":"8100042"},{"town":"赤坂三丁目","koaza":"","lat":33.582436,"lng":130.386003,"zip":"8100042"},{"town":"荒津一丁目","koaza":"","lat":33.601467,"lng":130.379311,"zip":"8100076"},{"town":"荒津二丁目","koaza":"","lat":33.60269,"lng":130.375197,"zip":"8100076"},{"town":"荒戸一丁目","koaza":"","lat":33.592308,"lng":130.378298,"zip":"8100062"},{"town":"荒戸二丁目","koaza":"","lat":33.592403,"lng":130.376527,"zip":"8100062"},{"town":"荒戸三丁目","koaza":"","lat":33.592797,"lng":130.374043,"zip":"8100062"},{"town":"伊崎","koaza":"","lat":33.597108,"lng":130.371883,"zip":"8100067"},{"town":"今泉一丁目","koaza":"","lat":33.585542,"lng":130.399442,"zip":"8100021"},{"town":"今泉二丁目","koaza":"","lat":33.584253,"lng":130.397188,"zip":"8100021"},{"town":"今川一丁目","koaza":"","lat":33.58733,"lng":130.368843,"zip":"8100054"},{"town":"今川二丁目","koaza":"","lat":33.585925,"lng":130.36557,"zip":"8100054"},{"town":"大手門一丁目","koaza":"","lat":33.589337,"lng":130.384103,"zip":"8100074"},{"town":"大手門二丁目","koaza":"","lat":33.590956,"lng":130.38479,"zip":"8100074"},{"town":"大手門三丁目","koaza":"","lat":33.591218,"lng":130.380968,"zip":"8100074"},{"town":"大濠一丁目","koaza":"","lat":33.583844,"lng":130.373514,"zip":"8100052"},{"town":"大濠二丁目","koaza":"","lat":33.586932,"lng":130.371981,"zip":"8100052"},{"town":"大濠公園","koaza":"","lat":33.586182,"lng":130.376188,"zip":"8100051"},{"town":"大宮一丁目","koaza":"","lat":33.578617,"lng":130.402834,"zip":"8100013"},{"town":"大宮二丁目","koaza":"","lat":33.575757,"lng":130.404953,"zip":"8100013"},{"town":"小笹一丁目","koaza":"","lat":33.562201,"lng":130.391102,"zip":"8100033"},{"town":"小笹二丁目","koaza":"","lat":33.561803,"lng":130.38688,"zip":"8100033"},{"town":"小笹三丁目","koaza":"","lat":33.564073,"lng":130.38725,"zip":"8100033"},{"town":"小笹四丁目","koaza":"","lat":33.568468,"lng":130.38665,"zip":"8100033"},{"town":"小笹五丁目","koaza":"","lat":33.56945,"lng":130.390819,"zip":"8100033"},{"town":"清川一丁目","koaza":"","lat":33.5818,"lng":130.408214,"zip":"8100005"},{"town":"清川二丁目","koaza":"","lat":33.580018,"lng":130.41042,"zip":"8100005"},{"town":"清川三丁目","koaza":"","lat":33.577699,"lng":130.412262,"zip":"8100005"},{"town":"草香江一丁目","koaza":"","lat":33.580813,"lng":130.375383,"zip":"8100045"},{"town":"草香江二丁目","koaza":"","lat":33.579276,"lng":130.373936,"zip":"8100045"},{"town":"黒門","koaza":"","lat":33.589336,"lng":130.371621,"zip":"8100055"},{"town":"警固一丁目","koaza":"","lat":33.583992,"lng":130.394202,"zip":"8100023"},{"town":"警固二丁目","koaza":"","lat":33.582884,"lng":130.390508,"zip":"8100023"},{"town":"警固三丁目","koaza":"","lat":33.579881,"lng":130.391425,"zip":"8100023"},{"town":"御所ヶ谷","koaza":"","lat":33.576111,"lng":130.392063,"zip":"8100000"},{"town":"桜坂一丁目","koaza":"","lat":33.579186,"lng":130.388376,"zip":"8100024"},{"town":"桜坂二丁目","koaza":"","lat":33.579315,"lng":130.385605,"zip":"8100024"},{"town":"桜坂三丁目","koaza":"","lat":33.575664,"lng":130.386855,"zip":"8100024"},{"town":"笹丘一丁目","koaza":"","lat":33.565552,"lng":130.377865,"zip":"8100034"},{"town":"笹丘二丁目","koaza":"","lat":33.565764,"lng":130.382874,"zip":"8100034"},{"town":"笹丘三丁目","koaza":"","lat":33.563266,"lng":130.381741,"zip":"8100034"},{"town":"山荘通三丁目","koaza":"","lat":33.572977,"lng":130.395531,"zip":"8100018"},{"town":"地行一丁目","koaza":"","lat":33.589843,"lng":130.367287,"zip":"8100064"},{"town":"地行二丁目","koaza":"","lat":33.587643,"lng":130.363774,"zip":"8100064"},{"town":"地行三丁目","koaza":"","lat":33.589353,"lng":130.362592,"zip":"8100064"},{"town":"地行四丁目","koaza":"","lat":33.591688,"lng":130.366228,"zip":"8100064"},{"town":"地行浜一丁目","koaza":"","lat":33.591974,"lng":130.361057,"zip":"8100065"},{"town":"地行浜二丁目","koaza":"","lat":33.595116,"lng":130.361513,"zip":"8100065"},{"town":"浄水通","koaza":"","lat":33.575856,"lng":130.393766,"zip":"8100028"},{"town":"城内","koaza":"","lat":33.586182,"lng":130.382636,"zip":"8100043"},{"town":"白金一丁目","koaza":"","lat":33.57953,"lng":130.404419,"zip":"8100012"},{"town":"白金二丁目","koaza":"","lat":33.576655,"lng":130.406885,"zip":"8100012"},{"town":"大名一丁目","koaza":"","lat":33.586898,"lng":130.394219,"zip":"8100041"},{"town":"大名二丁目","koaza":"","lat":33.589378,"lng":130.393298,"zip":"8100041"},{"town":"高砂一丁目","koaza":"","lat":33.580527,"lng":130.406448,"zip":"8100011"},{"town":"高砂二丁目","koaza":"","lat":33.577485,"lng":130.409105,"zip":"8100011"},{"town":"谷一丁目","koaza":"","lat":33.576456,"lng":130.382134,"zip":"8100031"},{"town":"谷二丁目","koaza":"","lat":33.574618,"lng":130.382371,"zip":"8100031"},{"town":"輝国一丁目","koaza":"","lat":33.572158,"lng":130.384041,"zip":"8100032"},{"town":"輝国二丁目","koaza":"","lat":33.57064,"lng":130.381059,"zip":"8100032"},{"town":"天神一丁目","koaza":"","lat":33.590878,"lng":130.401396,"zip":"8100001"},{"town":"天神二丁目","koaza":"","lat":33.58939,"lng":130.398043,"zip":"8100001"},{"town":"天神三丁目","koaza":"","lat":33.593515,"lng":130.396224,"zip":"8100001"},{"town":"天神四丁目","koaza":"","lat":33.59458,"lng":130.39985,"zip":"8100001"},{"town":"天神五丁目","koaza":"","lat":33.596781,"lng":130.398918,"zip":"8100001"},{"town":"唐人町一丁目","koaza":"","lat":33.590839,"lng":130.370819,"zip":"8100063"},{"town":"唐人町二丁目","koaza":"","lat":33.593325,"lng":130.368771,"zip":"8100063"},{"town":"唐人町三丁目","koaza":"","lat":33.593891,"lng":130.371017,"zip":"8100063"},{"town":"鳥飼一丁目","koaza":"","lat":33.581902,"lng":130.368982,"zip":"8100053"},{"town":"鳥飼二丁目","koaza":"","lat":33.583884,"lng":130.370513,"zip":"8100053"},{"town":"鳥飼三丁目","koaza":"","lat":33.583281,"lng":130.366426,"zip":"8100053"},{"town":"長浜一丁目","koaza":"","lat":33.595066,"lng":130.393748,"zip":"8100072"},{"town":"長浜二丁目","koaza":"","lat":33.592981,"lng":130.38893,"zip":"8100072"},{"town":"長浜三丁目","koaza":"","lat":33.594518,"lng":130.388759,"zip":"8100072"},{"town":"那の川二丁目","koaza":"","lat":33.574412,"lng":130.408211,"zip":"8100015"},{"town":"那の津一丁目","koaza":"","lat":33.598078,"lng":130.396613,"zip":"8100071"},{"town":"那の津二丁目","koaza":"","lat":33.599838,"lng":130.394522,"zip":"8100071"},{"town":"那の津三丁目","koaza":"","lat":33.601682,"lng":130.391417,"zip":"8100071"},{"town":"那の津四丁目","koaza":"","lat":33.604261,"lng":130.390023,"zip":"8100071"},{"town":"那の津五丁目","koaza":"","lat":33.607159,"lng":130.388248,"zip":"8100071"},{"town":"西公園","koaza":"","lat":33.59723,"lng":130.375648,"zip":"8100061"},{"town":"西中洲","koaza":"","lat":33.59134,"lng":130.404959,"zip":"8100002"},{"town":"梅光園一丁目","koaza":"","lat":33.575055,"lng":130.376209,"zip":"8100035"},{"town":"梅光園二丁目","koaza":"","lat":33.571029,"lng":130.377448,"zip":"8100035"},{"town":"梅光園三丁目","koaza":"","lat":33.569299,"lng":130.377351,"zip":"8100035"},{"town":"梅光園団地","koaza":"","lat":33.573648,"lng":130.376906,"zip":"8100036"},{"town":"春吉一丁目","koaza":"","lat":33.584048,"lng":130.408132,"zip":"8100003"},{"town":"春吉二丁目","koaza":"","lat":33.587083,"lng":130.407777,"zip":"8100003"},{"town":"春吉三丁目","koaza":"","lat":33.588914,"lng":130.406705,"zip":"8100003"},{"town":"平尾一丁目","koaza":"","lat":33.578615,"lng":130.40141,"zip":"8100014"},{"town":"平尾二丁目","koaza":"","lat":33.574314,"lng":130.403876,"zip":"8100014"},{"town":"平尾三丁目","koaza":"","lat":33.575924,"lng":130.398935,"zip":"8100014"},{"town":"平尾四丁目","koaza":"","lat":33.572847,"lng":130.398825,"zip":"8100014"},{"town":"平尾五丁目","koaza":"","lat":33.570074,"lng":130.396174,"zip":"8100014"},{"town":"平丘町","koaza":"","lat":33.574618,"lng":130.395325,"zip":"8100017"},{"town":"平尾浄水町","koaza":"","lat":33.572193,"lng":130.393903,"zip":"8100029"},{"town":"福浜一丁目","koaza":"","lat":33.598889,"lng":130.36762,"zip":"8100066"},{"town":"福浜二丁目","koaza":"","lat":33.596212,"lng":130.367033,"zip":"8100066"},{"town":"古小烏町","koaza":"","lat":33.577783,"lng":130.392173,"zip":"8100026"},{"town":"平和三丁目","koaza":"","lat":33.566972,"lng":130.396517,"zip":"8100016"},{"town":"平和五丁目","koaza":"","lat":33.564136,"lng":130.394421,"zip":"8100016"},{"town":"舞鶴一丁目","koaza":"","lat":33.592684,"lng":130.393582,"zip":"8100073"},{"town":"舞鶴二丁目","koaza":"","lat":33.591904,"lng":130.391022,"zip":"8100073"},{"town":"舞鶴三丁目","koaza":"","lat":33.591174,"lng":130.388266,"zip":"8100073"},{"town":"港一丁目","koaza":"","lat":33.593366,"lng":130.384044,"zip":"8100075"},{"town":"港二丁目","koaza":"","lat":33.594156,"lng":130.379777,"zip":"8100075"},{"town":"港三丁目","koaza":"","lat":33.598078,"lng":130.380369,"zip":"8100075"},{"town":"南公園","koaza":"","lat":33.573528,"lng":130.388222,"zip":"8100037"},{"town":"薬院一丁目","koaza":"","lat":33.582845,"lng":130.399722,"zip":"8100022"},{"town":"薬院二丁目","koaza":"","lat":33.581249,"lng":130.394888,"zip":"8100022"},{"town":"薬院三丁目","koaza":"","lat":33.579492,"lng":130.399561,"zip":"8100022"},{"town":"薬院四丁目","koaza":"","lat":33.578315,"lng":130.396327,"zip":"8100022"},{"town":"薬院伊福町","koaza":"","lat":33.578611,"lng":130.392865,"zip":"8100025"},{"town":"六本松一丁目","koaza":"","lat":33.58086,"lng":130.379389,"zip":"8100044"},{"town":"六本松二丁目","koaza":"","lat":33.578767,"lng":130.377861,"zip":"8100044"},{"town":"六本松三丁目","koaza":"","lat":33.57957,"lng":130.382518,"zip":"8100044"},{"town":"六本松四丁目","koaza":"","lat":33.57551,"lng":130.378064,"zip":"8100044"},{"town":"渡辺通一丁目","koaza":"","lat":33.58388,"lng":130.405881,"zip":"8100004"},{"town":"渡辺通二丁目","koaza":"","lat":33.583259,"lng":130.403543,"zip":"8100004"},{"town":"渡辺通三丁目","koaza":"","lat":33.585842,"lng":130.404706,"zip":"8100004"},{"town":"渡辺通四丁目","koaza":"","lat":33.585545,"lng":130.402436,"zip":"8100004"},{"town":"渡辺通五丁目","koaza":"","lat":33.587525,"lng":130.403601,"zip":"8100004"}]