[{"town":"曙一丁目","koaza":"","lat":33.577125,"lng":130.361082,"zip":"8140004"},{"town":"曙二丁目","koaza":"","lat":33.575574,"lng":130.360484,"zip":"8140004"},{"town":"荒江二丁目","koaza":"","lat":33.571821,"lng":130.355673,"zip":"8140021"},{"town":"荒江三丁目","koaza":"","lat":33.571352,"lng":130.352491,"zip":"8140021"},{"town":"有田一丁目","koaza":"","lat":33.564347,"lng":130.336128,"zip":"8140033"},{"town":"有田二丁目","koaza":"","lat":33.561806,"lng":130.33537,"zip":"8140033"},{"town":"有田三丁目","koaza":"","lat":33.558732,"lng":130.334137,"zip":"8140033"},{"town":"有田四丁目","koaza":"","lat":33.558505,"lng":130.33805,"zip":"8140033"},{"town":"有田五丁目","koaza":"","lat":33.556998,"lng":130.335437,"zip":"8140033"},{"town":"有田六丁目","koaza":"","lat":33.557824,"lng":130.330071,"zip":"8140033"},{"town":"有田七丁目","koaza":"","lat":33.562231,"lng":130.331139,"zip":"8140033"},{"town":"有田八丁目","koaza":"","lat":33.55807,"lng":130.327392,"zip":"8140033"},{"town":"有田団地","koaza":"","lat":33.557912,"lng":130.331865,"zip":"8140034"},{"town":"飯倉二丁目","koaza":"","lat":33.566458,"lng":130.353443,"zip":"8140161"},{"town":"飯倉三丁目","koaza":"","lat":33.565638,"lng":130.348831,"zip":"8140161"},{"town":"飯倉四丁目","koaza":"","lat":33.562161,"lng":130.350245,"zip":"8140161"},{"town":"飯倉五丁目","koaza":"","lat":33.562144,"lng":130.355254,"zip":"8140161"},{"town":"飯倉六丁目","koaza":"","lat":33.55828,"lng":130.353936,"zip":"8140161"},{"town":"飯倉七丁目","koaza":"","lat":33.558141,"lng":130.350428,"zip":"8140161"},{"town":"飯倉八丁目","koaza":"","lat":33.559088,"lng":130.347494,"zip":"8140161"},{"town":"内野一丁目","koaza":"","lat":33.502329,"lng":130.33804,"zip":"8111123"},{"town":"内野二丁目","koaza":"","lat":33.497735,"lng":130.338071,"zip":"8111123"},{"town":"内野三丁目","koaza":"","lat":33.500811,"lng":130.340251,"zip":"8111123"},{"town":"内野四丁目","koaza":"","lat":33.503143,"lng":130.343289,"zip":"8111123"},{"town":"内野五丁目","koaza":"","lat":33.499361,"lng":130.342412,"zip":"8111123"},{"town":"内野六丁目","koaza":"","lat":33.49879,"lng":130.345264,"zip":"8111123"},{"town":"内野七丁目","koaza":"","lat":33.494443,"lng":130.344414,"zip":"8111123"},{"town":"内野八丁目","koaza":"","lat":33.494856,"lng":130.340006,"zip":"8111123"},{"town":"梅林六丁目","koaza":"","lat":33.541997,"lng":130.351232,"zip":"8140172"},{"town":"梅林七丁目","koaza":"","lat":33.538913,"lng":130.353299,"zip":"8140172"},{"town":"大字飯場","koaza":"","lat":33.495665,"lng":130.28426,"zip":"8140000"},{"town":"大字石釜","koaza":"","lat":33.479892,"lng":130.311867,"zip":"8140000"},{"town":"大字板屋","koaza":"","lat":33.440587,"lng":130.377316,"zip":"8140000"},{"town":"大字内野","koaza":"","lat":33.506444,"lng":130.348132,"zip":"8140000"},{"town":"大字梅林","koaza":"","lat":33.536428,"lng":130.357546,"zip":"8140000"},{"town":"大字小笠木","koaza":"","lat":33.477105,"lng":130.371761,"zip":"8140000"},{"town":"大字椎原","koaza":"","lat":33.457831,"lng":130.350391,"zip":"8140000"},{"town":"大字重留","koaza":"","lat":33.523741,"lng":130.348574,"zip":"8140000"},{"town":"大字西","koaza":"","lat":33.477945,"lng":130.335572,"zip":"8140000"},{"town":"大字西油山","koaza":"","lat":33.520981,"lng":130.360146,"zip":"8140000"},{"town":"大字西入部","koaza":"","lat":33.510757,"lng":130.31906,"zip":"8140000"},{"town":"大字野芥","koaza":"","lat":33.530975,"lng":130.35914,"zip":"8140000"},{"town":"大字東入部","koaza":"","lat":33.513384,"lng":130.345069,"zip":"8140000"},{"town":"大字曲渕","koaza":"","lat":33.490615,"lng":130.299755,"zip":"8140000"},{"town":"大字脇山","koaza":"","lat":33.494253,"lng":130.357016,"zip":"8140000"},{"town":"賀茂一丁目","koaza":"","lat":33.554337,"lng":130.341933,"zip":"8140164"},{"town":"賀茂二丁目","koaza":"","lat":33.550227,"lng":130.342556,"zip":"8140164"},{"town":"賀茂三丁目","koaza":"","lat":33.549136,"lng":130.338394,"zip":"8140164"},{"town":"賀茂四丁目","koaza":"","lat":33.553236,"lng":130.33752,"zip":"8140164"},{"town":"小田部一丁目","koaza":"","lat":33.569818,"lng":130.335339,"zip":"8140032"},{"town":"小田部二丁目","koaza":"","lat":33.566895,"lng":130.335874,"zip":"8140032"},{"town":"小田部三丁目","koaza":"","lat":33.565909,"lng":130.331952,"zip":"8140032"},{"town":"小田部四丁目","koaza":"","lat":33.566528,"lng":130.328372,"zip":"8140032"},{"town":"小田部五丁目","koaza":"","lat":33.56962,"lng":130.329781,"zip":"8140032"},{"town":"小田部六丁目","koaza":"","lat":33.572971,"lng":130.328318,"zip":"8140032"},{"town":"小田部七丁目","koaza":"","lat":33.57287,"lng":130.331347,"zip":"8140032"},{"town":"早良一丁目","koaza":"","lat":33.505611,"lng":130.337306,"zip":"8111122"},{"town":"早良二丁目","koaza":"","lat":33.50688,"lng":130.335239,"zip":"8111122"},{"town":"早良三丁目","koaza":"","lat":33.509195,"lng":130.33341,"zip":"8111122"},{"town":"早良四丁目","koaza":"","lat":33.508072,"lng":130.330266,"zip":"8111122"},{"town":"早良五丁目","koaza":"","lat":33.504428,"lng":130.331549,"zip":"8111122"},{"town":"早良六丁目","koaza":"","lat":33.500834,"lng":130.33271,"zip":"8111122"},{"town":"早良七丁目","koaza":"","lat":33.496738,"lng":130.333411,"zip":"8111122"},{"town":"四箇一丁目","koaza":"","lat":33.531587,"lng":130.323521,"zip":"8111103"},{"town":"四箇二丁目","koaza":"","lat":33.531018,"lng":130.328562,"zip":"8111103"},{"town":"四箇三丁目","koaza":"","lat":33.52671,"lng":130.324534,"zip":"8111103"},{"town":"四箇四丁目","koaza":"","lat":33.527269,"lng":130.328501,"zip":"8111103"},{"town":"四箇五丁目","koaza":"","lat":33.527799,"lng":130.332532,"zip":"8111103"},{"town":"四箇六丁目","koaza":"","lat":33.532183,"lng":130.32979,"zip":"8111103"},{"town":"四箇田団地","koaza":"","lat":33.534862,"lng":130.331661,"zip":"8140176"},{"town":"重留一丁目","koaza":"","lat":33.534313,"lng":130.339887,"zip":"8111101"},{"town":"重留二丁目","koaza":"","lat":33.533403,"lng":130.343176,"zip":"8111101"},{"town":"重留三丁目","koaza":"","lat":33.532872,"lng":130.346406,"zip":"8111101"},{"town":"重留四丁目","koaza":"","lat":33.529957,"lng":130.341622,"zip":"8111101"},{"town":"重留五丁目","koaza":"","lat":33.525872,"lng":130.343076,"zip":"8111101"},{"town":"重留六丁目","koaza":"","lat":33.530372,"lng":130.339095,"zip":"8111101"},{"town":"重留七丁目","koaza":"","lat":33.53264,"lng":130.335782,"zip":"8111101"},{"town":"重留八丁目","koaza":"","lat":33.527854,"lng":130.336205,"zip":"8111101"},{"town":"城西一丁目","koaza":"","lat":33.582361,"lng":130.363078,"zip":"8140003"},{"town":"城西二丁目","koaza":"","lat":33.579542,"lng":130.363,"zip":"8140003"},{"town":"城西三丁目","koaza":"","lat":33.580293,"lng":130.360338,"zip":"8140003"},{"town":"昭代一丁目","koaza":"","lat":33.576278,"lng":130.356833,"zip":"8140012"},{"town":"昭代二丁目","koaza":"","lat":33.576883,"lng":130.353787,"zip":"8140012"},{"town":"昭代三丁目","koaza":"","lat":33.575829,"lng":130.350619,"zip":"8140012"},{"town":"次郎丸一丁目","koaza":"","lat":33.553398,"lng":130.332868,"zip":"8140165"},{"town":"次郎丸二丁目","koaza":"","lat":33.554911,"lng":130.328385,"zip":"8140165"},{"town":"次郎丸三丁目","koaza":"","lat":33.549348,"lng":130.325525,"zip":"8140165"},{"town":"次郎丸四丁目","koaza":"","lat":33.549244,"lng":130.32895,"zip":"8140165"},{"town":"次郎丸五丁目","koaza":"","lat":33.549637,"lng":130.331686,"zip":"8140165"},{"town":"次郎丸六丁目","koaza":"","lat":33.549267,"lng":130.334752,"zip":"8140165"},{"town":"祖原","koaza":"","lat":33.579274,"lng":130.357162,"zip":"8140005"},{"town":"高取一丁目","koaza":"","lat":33.579819,"lng":130.352809,"zip":"8140011"},{"town":"高取二丁目","koaza":"","lat":33.579551,"lng":130.349773,"zip":"8140011"},{"town":"田隈一丁目","koaza":"","lat":33.545987,"lng":130.34,"zip":"8140174"},{"town":"田隈二丁目","koaza":"","lat":33.545276,"lng":130.336626,"zip":"8140174"},{"town":"田隈三丁目","koaza":"","lat":33.541864,"lng":130.34004,"zip":"8140174"},{"town":"田村一丁目","koaza":"","lat":33.544905,"lng":130.325857,"zip":"8140175"},{"town":"田村二丁目","koaza":"","lat":33.544618,"lng":130.331065,"zip":"8140175"},{"town":"田村三丁目","koaza":"","lat":33.540466,"lng":130.328124,"zip":"8140175"},{"town":"田村四丁目","koaza":"","lat":33.541135,"lng":130.334291,"zip":"8140175"},{"town":"田村五丁目","koaza":"","lat":33.53715,"lng":130.334982,"zip":"8140175"},{"town":"田村六丁目","koaza":"","lat":33.536821,"lng":130.329746,"zip":"8140175"},{"town":"田村七丁目","koaza":"","lat":33.537758,"lng":130.324788,"zip":"8140175"},{"town":"西入部一丁目","koaza":"","lat":33.522775,"lng":130.324618,"zip":"8111121"},{"town":"西入部二丁目","koaza":"","lat":33.518987,"lng":130.326538,"zip":"8111121"},{"town":"西入部三丁目","koaza":"","lat":33.514716,"lng":130.329589,"zip":"8111121"},{"town":"西入部四丁目","koaza":"","lat":33.512741,"lng":130.328272,"zip":"8111121"},{"town":"西入部五丁目","koaza":"","lat":33.517494,"lng":130.323622,"zip":"8111121"},{"town":"西新一丁目","koaza":"","lat":33.584071,"lng":130.362148,"zip":"8140002"},{"town":"西新二丁目","koaza":"","lat":33.586853,"lng":130.36001,"zip":"8140002"},{"town":"西新三丁目","koaza":"","lat":33.585779,"lng":130.357585,"zip":"8140002"},{"town":"西新四丁目","koaza":"","lat":33.582866,"lng":130.359494,"zip":"8140002"},{"town":"西新五丁目","koaza":"","lat":33.581208,"lng":130.35581,"zip":"8140002"},{"town":"西新六丁目","koaza":"","lat":33.585288,"lng":130.355071,"zip":"8140002"},{"town":"西新七丁目","koaza":"","lat":33.584829,"lng":130.35222,"zip":"8140002"},{"town":"野芥一丁目","koaza":"","lat":33.546198,"lng":130.347842,"zip":"8140171"},{"town":"野芥二丁目","koaza":"","lat":33.546428,"lng":130.344404,"zip":"8140171"},{"town":"野芥三丁目","koaza":"","lat":33.541182,"lng":130.344295,"zip":"8140171"},{"town":"野芥四丁目","koaza":"","lat":33.540404,"lng":130.34727,"zip":"8140171"},{"town":"野芥五丁目","koaza":"","lat":33.53727,"lng":130.349732,"zip":"8140171"},{"town":"野芥六丁目","koaza":"","lat":33.534972,"lng":130.348959,"zip":"8140171"},{"town":"野芥七丁目","koaza":"","lat":33.53823,"lng":130.341546,"zip":"8140171"},{"town":"野芥八丁目","koaza":"","lat":33.537145,"lng":130.337606,"zip":"8140171"},{"town":"原一丁目","koaza":"","lat":33.572258,"lng":130.34845,"zip":"8140022"},{"town":"原二丁目","koaza":"","lat":33.568993,"lng":130.348445,"zip":"8140022"},{"town":"原三丁目","koaza":"","lat":33.570634,"lng":130.344335,"zip":"8140022"},{"town":"原四丁目","koaza":"","lat":33.568485,"lng":130.340731,"zip":"8140022"},{"town":"原五丁目","koaza":"","lat":33.564555,"lng":130.339694,"zip":"8140022"},{"town":"原六丁目","koaza":"","lat":33.565015,"lng":130.343765,"zip":"8140022"},{"town":"原七丁目","koaza":"","lat":33.561515,"lng":130.34379,"zip":"8140022"},{"town":"原八丁目","koaza":"","lat":33.559554,"lng":130.340393,"zip":"8140022"},{"town":"原団地","koaza":"","lat":33.571955,"lng":130.341004,"zip":"8140023"},{"town":"東入部一丁目","koaza":"","lat":33.524336,"lng":130.341335,"zip":"8111102"},{"town":"東入部二丁目","koaza":"","lat":33.520647,"lng":130.33689,"zip":"8111102"},{"town":"東入部三丁目","koaza":"","lat":33.524528,"lng":130.333926,"zip":"8111102"},{"town":"東入部四丁目","koaza":"","lat":33.523559,"lng":130.32892,"zip":"8111102"},{"town":"東入部五丁目","koaza":"","lat":33.518809,"lng":130.329963,"zip":"8111102"},{"town":"東入部六丁目","koaza":"","lat":33.519044,"lng":130.333607,"zip":"8111102"},{"town":"東入部七丁目","koaza":"","lat":33.51363,"lng":130.333488,"zip":"8111102"},{"town":"東入部八丁目","koaza":"","lat":33.509512,"lng":130.33851,"zip":"8111102"},{"town":"藤崎一丁目","koaza":"","lat":33.579264,"lng":130.347461,"zip":"8140013"},{"town":"藤崎二丁目","koaza":"","lat":33.575762,"lng":130.347684,"zip":"8140013"},{"town":"干隈三丁目","koaza":"","lat":33.552924,"lng":130.34865,"zip":"8140163"},{"town":"干隈四丁目","koaza":"","lat":33.556212,"lng":130.346257,"zip":"8140163"},{"town":"干隈五丁目","koaza":"","lat":33.553297,"lng":130.345789,"zip":"8140163"},{"town":"干隈六丁目","koaza":"","lat":33.550234,"lng":130.346701,"zip":"8140163"},{"town":"星の原団地","koaza":"","lat":33.557647,"lng":130.343612,"zip":"8140162"},{"town":"南庄一丁目","koaza":"","lat":33.57406,"lng":130.340811,"zip":"8140031"},{"town":"南庄二丁目","koaza":"","lat":33.575814,"lng":130.338503,"zip":"8140031"},{"town":"南庄三丁目","koaza":"","lat":33.572061,"lng":130.336758,"zip":"8140031"},{"town":"南庄四丁目","koaza":"","lat":33.573911,"lng":130.333694,"zip":"8140031"},{"town":"南庄五丁目","koaza":"","lat":33.576721,"lng":130.331362,"zip":"8140031"},{"town":"南庄六丁目","koaza":"","lat":33.577343,"lng":130.33552,"zip":"8140031"},{"town":"室住団地","koaza":"","lat":33.562506,"lng":130.32819,"zip":"8140035"},{"town":"室見一丁目","koaza":"","lat":33.583886,"lng":130.342017,"zip":"8140015"},{"town":"室見二丁目","koaza":"","lat":33.579145,"lng":130.343576,"zip":"8140015"},{"town":"室見三丁目","koaza":"","lat":33.575817,"lng":130.343249,"zip":"8140015"},{"town":"室見四丁目","koaza":"","lat":33.578169,"lng":130.340628,"zip":"8140015"},{"town":"室見五丁目","koaza":"","lat":33.579212,"lng":130.338084,"zip":"8140015"},{"town":"百道一丁目","koaza":"","lat":33.584491,"lng":130.349702,"zip":"8140006"},{"town":"百道二丁目","koaza":"","lat":33.582752,"lng":130.346207,"zip":"8140006"},{"town":"百道三丁目","koaza":"","lat":33.585792,"lng":130.345583,"zip":"8140006"},{"town":"百道浜一丁目","koaza":"","lat":33.590677,"lng":130.356785,"zip":"8140001"},{"town":"百道浜二丁目","koaza":"","lat":33.594447,"lng":130.353804,"zip":"8140001"},{"town":"百道浜三丁目","koaza":"","lat":33.589806,"lng":130.351037,"zip":"8140001"},{"town":"百道浜四丁目","koaza":"","lat":33.592107,"lng":130.346847,"zip":"8140001"},{"town":"弥生一丁目","koaza":"","lat":33.579189,"lng":130.345607,"zip":"8140014"},{"town":"弥生二丁目","koaza":"","lat":33.575753,"lng":130.345783,"zip":"8140014"},{"town":"脇山一丁目","koaza":"","lat":33.498453,"lng":130.351829,"zip":"8111111"},{"town":"脇山二丁目","koaza":"","lat":33.498038,"lng":130.348249,"zip":"8111111"}]