[{"town":"青葉一丁目","koaza":"","lat":33.63918,"lng":130.462263,"zip":"8130025"},{"town":"青葉二丁目","koaza":"","lat":33.644669,"lng":130.457583,"zip":"8130025"},{"town":"青葉三丁目","koaza":"","lat":33.643644,"lng":130.463075,"zip":"8130025"},{"town":"青葉四丁目","koaza":"","lat":33.648938,"lng":130.462524,"zip":"8130025"},{"town":"青葉五丁目","koaza":"","lat":33.646439,"lng":130.465808,"zip":"8130025"},{"town":"青葉六丁目","koaza":"","lat":33.643733,"lng":130.469854,"zip":"8130025"},{"town":"青葉七丁目","koaza":"","lat":33.638845,"lng":130.467568,"zip":"8130025"},{"town":"大字香椎","koaza":"","lat":33.660892,"lng":130.464664,"zip":"8130000"},{"town":"大字勝馬","koaza":"","lat":33.681963,"lng":130.297382,"zip":"8130000"},{"town":"大字上和白","koaza":"","lat":33.68586,"lng":130.439859,"zip":"8130000"},{"town":"大字西戸崎","koaza":"","lat":33.661997,"lng":130.356064,"zip":"8130000"},{"town":"大字志賀島","koaza":"","lat":33.668216,"lng":130.307127,"zip":"8130000"},{"town":"大字下原","koaza":"","lat":33.678449,"lng":130.461897,"zip":"8130000"},{"town":"大字名子","koaza":"","lat":33.64396,"lng":130.478197,"zip":"8130000"},{"town":"大字奈多","koaza":"","lat":33.681977,"lng":130.395484,"zip":"8130000"},{"town":"大字浜男","koaza":"","lat":33.671342,"lng":130.461596,"zip":"8130000"},{"town":"大字弘","koaza":"","lat":33.67092,"lng":130.294996,"zip":"8130000"},{"town":"大字三苫","koaza":"","lat":33.698146,"lng":130.413171,"zip":"8130000"},{"town":"大岳一丁目","koaza":"","lat":33.650749,"lng":130.344701,"zip":"8110322"},{"town":"大岳二丁目","koaza":"","lat":33.654354,"lng":130.342633,"zip":"8110322"},{"town":"大岳三丁目","koaza":"","lat":33.655048,"lng":130.334369,"zip":"8110322"},{"town":"大岳四丁目","koaza":"","lat":33.652338,"lng":130.335431,"zip":"8110322"},{"town":"貝塚団地","koaza":"","lat":33.632247,"lng":130.422459,"zip":"8120052"},{"town":"香椎一丁目","koaza":"","lat":33.654842,"lng":130.445137,"zip":"8130011"},{"town":"香椎二丁目","koaza":"","lat":33.658453,"lng":130.450759,"zip":"8130011"},{"town":"香椎三丁目","koaza":"","lat":33.655721,"lng":130.453783,"zip":"8130011"},{"town":"香椎四丁目","koaza":"","lat":33.654254,"lng":130.450344,"zip":"8130011"},{"town":"香椎五丁目","koaza":"","lat":33.651195,"lng":130.449904,"zip":"8130011"},{"town":"香椎六丁目","koaza":"","lat":33.648532,"lng":130.455918,"zip":"8130011"},{"town":"香椎駅東一丁目","koaza":"","lat":33.659752,"lng":130.448584,"zip":"8130012"},{"town":"香椎駅東二丁目","koaza":"","lat":33.661356,"lng":130.446623,"zip":"8130012"},{"town":"香椎駅東三丁目","koaza":"","lat":33.665003,"lng":130.449734,"zip":"8130012"},{"town":"香椎駅東四丁目","koaza":"","lat":33.665582,"lng":130.455255,"zip":"8130012"},{"town":"香椎駅前一丁目","koaza":"","lat":33.659009,"lng":130.442893,"zip":"8130013"},{"town":"香椎駅前二丁目","koaza":"","lat":33.660396,"lng":130.439958,"zip":"8130013"},{"town":"香椎駅前三丁目","koaza":"","lat":33.66453,"lng":130.442236,"zip":"8130013"},{"town":"香椎台一丁目","koaza":"","lat":33.650904,"lng":130.454646,"zip":"8130014"},{"town":"香椎台二丁目","koaza":"","lat":33.65159,"lng":130.4582,"zip":"8130014"},{"town":"香椎台三丁目","koaza":"","lat":33.650548,"lng":130.461218,"zip":"8130014"},{"town":"香椎台四丁目","koaza":"","lat":33.654371,"lng":130.461368,"zip":"8130014"},{"town":"香椎台五丁目","koaza":"","lat":33.655271,"lng":130.459039,"zip":"8130014"},{"town":"香椎団地","koaza":"","lat":33.653924,"lng":130.437109,"zip":"8130015"},{"town":"香椎照葉一丁目","koaza":"","lat":33.664174,"lng":130.425838,"zip":"8130017"},{"town":"香椎照葉二丁目","koaza":"","lat":33.667566,"lng":130.424354,"zip":"8130017"},{"town":"香椎照葉三丁目","koaza":"","lat":33.661195,"lng":130.421195,"zip":"8130017"},{"town":"香椎照葉四丁目","koaza":"","lat":33.665073,"lng":130.420338,"zip":"8130017"},{"town":"香椎照葉五丁目","koaza":"","lat":33.663703,"lng":130.416663,"zip":"8130017"},{"town":"香椎照葉六丁目","koaza":"","lat":33.668591,"lng":130.416359,"zip":"8130017"},{"town":"香椎照葉七丁目","koaza":"","lat":33.673475,"lng":130.418358,"zip":"8130017"},{"town":"香椎浜一丁目","koaza":"","lat":33.653065,"lng":130.432156,"zip":"8130016"},{"town":"香椎浜二丁目","koaza":"","lat":33.654058,"lng":130.426844,"zip":"8130016"},{"town":"香椎浜三丁目","koaza":"","lat":33.657817,"lng":130.42906,"zip":"8130016"},{"town":"香椎浜四丁目","koaza":"","lat":33.656219,"lng":130.433986,"zip":"8130016"},{"town":"香椎浜ふ頭一丁目","koaza":"","lat":33.654304,"lng":130.422196,"zip":"8130018"},{"town":"香椎浜ふ頭二丁目","koaza":"","lat":33.655113,"lng":130.419753,"zip":"8130018"},{"town":"香椎浜ふ頭三丁目","koaza":"","lat":33.65314,"lng":130.414168,"zip":"8130018"},{"town":"香椎浜ふ頭四丁目","koaza":"","lat":33.652938,"lng":130.409445,"zip":"8130018"},{"town":"香住ヶ丘一丁目","koaza":"","lat":33.667184,"lng":130.438476,"zip":"8130003"},{"town":"香住ヶ丘二丁目","koaza":"","lat":33.670484,"lng":130.440357,"zip":"8130003"},{"town":"香住ヶ丘三丁目","koaza":"","lat":33.672591,"lng":130.43719,"zip":"8130003"},{"town":"香住ヶ丘四丁目","koaza":"","lat":33.675111,"lng":130.432706,"zip":"8130003"},{"town":"香住ヶ丘五丁目","koaza":"","lat":33.674636,"lng":130.42841,"zip":"8130003"},{"town":"香住ヶ丘六丁目","koaza":"","lat":33.670482,"lng":130.43173,"zip":"8130003"},{"town":"香住ヶ丘七丁目","koaza":"","lat":33.666656,"lng":130.433956,"zip":"8130003"},{"town":"蒲田一丁目","koaza":"","lat":33.640888,"lng":130.48405,"zip":"8130023"},{"town":"蒲田二丁目","koaza":"","lat":33.634378,"lng":130.483027,"zip":"8130023"},{"town":"蒲田三丁目","koaza":"","lat":33.632795,"lng":130.487988,"zip":"8130023"},{"town":"蒲田四丁目","koaza":"","lat":33.635601,"lng":130.492527,"zip":"8130023"},{"town":"蒲田五丁目","koaza":"","lat":33.645499,"lng":130.488794,"zip":"8130023"},{"town":"雁の巣一丁目","koaza":"","lat":33.685995,"lng":130.406248,"zip":"8110206"},{"town":"雁の巣二丁目","koaza":"","lat":33.682816,"lng":130.402225,"zip":"8110206"},{"town":"郷口町","koaza":"","lat":33.614864,"lng":130.429195,"zip":"8120069"},{"town":"西戸崎一丁目","koaza":"","lat":33.651228,"lng":130.358508,"zip":"8110321"},{"town":"西戸崎二丁目","koaza":"","lat":33.646072,"lng":130.358666,"zip":"8110321"},{"town":"西戸崎三丁目","koaza":"","lat":33.645766,"lng":130.354792,"zip":"8110321"},{"town":"西戸崎四丁目","koaza":"","lat":33.648333,"lng":130.352921,"zip":"8110321"},{"town":"西戸崎五丁目","koaza":"","lat":33.65027,"lng":130.349165,"zip":"8110321"},{"town":"西戸崎六丁目","koaza":"","lat":33.652681,"lng":130.349846,"zip":"8110321"},{"town":"塩浜一丁目","koaza":"","lat":33.692885,"lng":130.419835,"zip":"8110203"},{"town":"塩浜二丁目","koaza":"","lat":33.688629,"lng":130.42556,"zip":"8110203"},{"town":"塩浜三丁目","koaza":"","lat":33.687161,"lng":130.419519,"zip":"8110203"},{"town":"下原一丁目","koaza":"","lat":33.672544,"lng":130.453767,"zip":"8130002"},{"town":"下原二丁目","koaza":"","lat":33.668539,"lng":130.457536,"zip":"8130002"},{"town":"下原三丁目","koaza":"","lat":33.674789,"lng":130.457829,"zip":"8130002"},{"town":"下原四丁目","koaza":"","lat":33.674136,"lng":130.452338,"zip":"8130002"},{"town":"下原五丁目","koaza":"","lat":33.676987,"lng":130.451889,"zip":"8130002"},{"town":"社領一丁目","koaza":"","lat":33.612076,"lng":130.429211,"zip":"8120068"},{"town":"社領二丁目","koaza":"","lat":33.611642,"lng":130.433051,"zip":"8120068"},{"town":"社領三丁目","koaza":"","lat":33.609364,"lng":130.43501,"zip":"8120068"},{"town":"城浜団地","koaza":"","lat":33.649619,"lng":130.423827,"zip":"8130045"},{"town":"高美台一丁目","koaza":"","lat":33.687429,"lng":130.448841,"zip":"8110215"},{"town":"高美台二丁目","koaza":"","lat":33.687302,"lng":130.444463,"zip":"8110215"},{"town":"高美台三丁目","koaza":"","lat":33.691133,"lng":130.444317,"zip":"8110215"},{"town":"高美台四丁目","koaza":"","lat":33.693862,"lng":130.445288,"zip":"8110215"},{"town":"多々良一丁目","koaza":"","lat":33.631056,"lng":130.454051,"zip":"8130033"},{"town":"多々良二丁目","koaza":"","lat":33.632277,"lng":130.447253,"zip":"8130033"},{"town":"多の津一丁目","koaza":"","lat":33.626466,"lng":130.450927,"zip":"8130034"},{"town":"多の津二丁目","koaza":"","lat":33.627933,"lng":130.454587,"zip":"8130034"},{"town":"多の津三丁目","koaza":"","lat":33.629768,"lng":130.444079,"zip":"8130034"},{"town":"多の津四丁目","koaza":"","lat":33.624069,"lng":130.448038,"zip":"8130034"},{"town":"多の津五丁目","koaza":"","lat":33.621858,"lng":130.449549,"zip":"8130034"},{"town":"千早一丁目","koaza":"","lat":33.649149,"lng":130.429433,"zip":"8130044"},{"town":"千早二丁目","koaza":"","lat":33.646871,"lng":130.432657,"zip":"8130044"},{"town":"千早三丁目","koaza":"","lat":33.651165,"lng":130.435586,"zip":"8130044"},{"town":"千早四丁目","koaza":"","lat":33.647777,"lng":130.437592,"zip":"8130044"},{"town":"千早五丁目","koaza":"","lat":33.654302,"lng":130.440933,"zip":"8130044"},{"town":"千早六丁目","koaza":"","lat":33.656049,"lng":130.438162,"zip":"8130044"},{"town":"土井一丁目","koaza":"","lat":33.634792,"lng":130.462819,"zip":"8130032"},{"town":"土井二丁目","koaza":"","lat":33.631015,"lng":130.463074,"zip":"8130032"},{"town":"土井三丁目","koaza":"","lat":33.633777,"lng":130.46602,"zip":"8130032"},{"town":"土井四丁目","koaza":"","lat":33.636768,"lng":130.469771,"zip":"8130032"},{"town":"唐原一丁目","koaza":"","lat":33.675046,"lng":130.438049,"zip":"8130001"},{"town":"唐原二丁目","koaza":"","lat":33.678213,"lng":130.432426,"zip":"8130001"},{"town":"唐原三丁目","koaza":"","lat":33.677632,"lng":130.436737,"zip":"8130001"},{"town":"唐原四丁目","koaza":"","lat":33.678939,"lng":130.440222,"zip":"8130001"},{"town":"唐原五丁目","koaza":"","lat":33.675355,"lng":130.442035,"zip":"8130001"},{"town":"唐原六丁目","koaza":"","lat":33.67747,"lng":130.445156,"zip":"8130001"},{"town":"唐原七丁目","koaza":"","lat":33.675975,"lng":130.447943,"zip":"8130001"},{"town":"名子一丁目","koaza":"","lat":33.636317,"lng":130.476375,"zip":"8130024"},{"town":"名子二丁目","koaza":"","lat":33.640518,"lng":130.475836,"zip":"8130024"},{"town":"名子三丁目","koaza":"","lat":33.642503,"lng":130.472669,"zip":"8130024"},{"town":"名島一丁目","koaza":"","lat":33.645674,"lng":130.423168,"zip":"8130043"},{"town":"名島二丁目","koaza":"","lat":33.643148,"lng":130.426624,"zip":"8130043"},{"town":"名島三丁目","koaza":"","lat":33.645238,"lng":130.428754,"zip":"8130043"},{"town":"名島四丁目","koaza":"","lat":33.640177,"lng":130.431164,"zip":"8130043"},{"town":"名島五丁目","koaza":"","lat":33.642841,"lng":130.436738,"zip":"8130043"},{"town":"奈多一丁目","koaza":"","lat":33.690157,"lng":130.416514,"zip":"8110204"},{"town":"奈多二丁目","koaza":"","lat":33.691488,"lng":130.410444,"zip":"8110204"},{"town":"奈多三丁目","koaza":"","lat":33.688162,"lng":130.412974,"zip":"8110204"},{"town":"奈多団地","koaza":"","lat":33.685883,"lng":130.413958,"zip":"8110205"},{"town":"箱崎一丁目","koaza":"","lat":33.61618,"lng":130.423548,"zip":"8120053"},{"town":"箱崎二丁目","koaza":"","lat":33.61859,"lng":130.419845,"zip":"8120053"},{"town":"箱崎三丁目","koaza":"","lat":33.620895,"lng":130.422748,"zip":"8120053"},{"town":"箱崎四丁目","koaza":"","lat":33.620604,"lng":130.416823,"zip":"8120053"},{"town":"箱崎五丁目","koaza":"","lat":33.627554,"lng":130.420566,"zip":"8120053"},{"town":"箱崎六丁目","koaza":"","lat":33.626468,"lng":130.424279,"zip":"8120053"},{"town":"箱崎七丁目","koaza":"","lat":33.635771,"lng":130.424622,"zip":"8120053"},{"town":"箱崎ふ頭一丁目","koaza":"","lat":33.62274,"lng":130.409395,"zip":"8120051"},{"town":"箱崎ふ頭二丁目","koaza":"","lat":33.628974,"lng":130.418499,"zip":"8120051"},{"town":"箱崎ふ頭三丁目","koaza":"","lat":33.638188,"lng":130.422323,"zip":"8120051"},{"town":"箱崎ふ頭四丁目","koaza":"","lat":33.639795,"lng":130.414245,"zip":"8120051"},{"town":"箱崎ふ頭五丁目","koaza":"","lat":33.62981,"lng":130.414457,"zip":"8120051"},{"town":"箱崎ふ頭六丁目","koaza":"","lat":33.631661,"lng":130.410678,"zip":"8120051"},{"town":"筥松一丁目","koaza":"","lat":33.616096,"lng":130.432599,"zip":"8120061"},{"town":"筥松二丁目","koaza":"","lat":33.616874,"lng":130.428019,"zip":"8120061"},{"town":"筥松三丁目","koaza":"","lat":33.624945,"lng":130.428777,"zip":"8120061"},{"town":"筥松四丁目","koaza":"","lat":33.633762,"lng":130.428151,"zip":"8120061"},{"town":"筥松新町","koaza":"","lat":33.611897,"lng":130.437188,"zip":"8120067"},{"town":"八田一丁目","koaza":"","lat":33.634454,"lng":130.45827,"zip":"8130031"},{"town":"八田二丁目","koaza":"","lat":33.637147,"lng":130.459083,"zip":"8130031"},{"town":"八田三丁目","koaza":"","lat":33.638806,"lng":130.456482,"zip":"8130031"},{"town":"八田四丁目","koaza":"","lat":33.641139,"lng":130.45558,"zip":"8130031"},{"town":"原田一丁目","koaza":"","lat":33.616681,"lng":130.435728,"zip":"8120063"},{"town":"原田二丁目","koaza":"","lat":33.621358,"lng":130.432416,"zip":"8120063"},{"town":"原田三丁目","koaza":"","lat":33.622012,"lng":130.438143,"zip":"8120063"},{"town":"原田四丁目","koaza":"","lat":33.623191,"lng":130.442451,"zip":"8120063"},{"town":"東浜一丁目","koaza":"","lat":33.613858,"lng":130.412259,"zip":"8120055"},{"town":"東浜二丁目","koaza":"","lat":33.614583,"lng":130.405222,"zip":"8120055"},{"town":"二又瀬","koaza":"","lat":33.608204,"lng":130.439716,"zip":"8120066"},{"town":"二又瀬新町","koaza":"","lat":33.610838,"lng":130.440584,"zip":"8120065"},{"town":"馬出一丁目","koaza":"","lat":33.608969,"lng":130.421254,"zip":"8120054"},{"town":"馬出二丁目","koaza":"","lat":33.611237,"lng":130.419589,"zip":"8120054"},{"town":"馬出三丁目","koaza":"","lat":33.610258,"lng":130.415154,"zip":"8120054"},{"town":"馬出四丁目","koaza":"","lat":33.614806,"lng":130.417232,"zip":"8120054"},{"town":"馬出五丁目","koaza":"","lat":33.613118,"lng":130.421234,"zip":"8120054"},{"town":"馬出六丁目","koaza":"","lat":33.611078,"lng":130.426688,"zip":"8120054"},{"town":"舞松原一丁目","koaza":"","lat":33.639301,"lng":130.451472,"zip":"8130042"},{"town":"舞松原二丁目","koaza":"","lat":33.643517,"lng":130.446822,"zip":"8130042"},{"town":"舞松原三丁目","koaza":"","lat":33.64584,"lng":130.448318,"zip":"8130042"},{"town":"舞松原四丁目","koaza":"","lat":33.646714,"lng":130.452089,"zip":"8130042"},{"town":"舞松原五丁目","koaza":"","lat":33.643987,"lng":130.45151,"zip":"8130042"},{"town":"舞松原六丁目","koaza":"","lat":33.642871,"lng":130.452993,"zip":"8130042"},{"town":"松香台一丁目","koaza":"","lat":33.66685,"lng":130.446574,"zip":"8130004"},{"town":"松香台二丁目","koaza":"","lat":33.671056,"lng":130.446705,"zip":"8130004"},{"town":"松崎一丁目","koaza":"","lat":33.635457,"lng":130.443328,"zip":"8130035"},{"town":"松崎二丁目","koaza":"","lat":33.63591,"lng":130.439295,"zip":"8130035"},{"town":"松崎三丁目","koaza":"","lat":33.638091,"lng":130.436999,"zip":"8130035"},{"town":"松崎四丁目","koaza":"","lat":33.644207,"lng":130.439918,"zip":"8130035"},{"town":"松島一丁目","koaza":"","lat":33.624279,"lng":130.434931,"zip":"8120062"},{"town":"松島二丁目","koaza":"","lat":33.626874,"lng":130.431246,"zip":"8120062"},{"town":"松島三丁目","koaza":"","lat":33.627404,"lng":130.437496,"zip":"8120062"},{"town":"松島四丁目","koaza":"","lat":33.631166,"lng":130.432127,"zip":"8120062"},{"town":"松島五丁目","koaza":"","lat":33.629842,"lng":130.438904,"zip":"8120062"},{"town":"松島六丁目","koaza":"","lat":33.633816,"lng":130.434091,"zip":"8120062"},{"town":"松田一丁目","koaza":"","lat":33.615754,"lng":130.440814,"zip":"8120064"},{"town":"松田二丁目","koaza":"","lat":33.619146,"lng":130.442025,"zip":"8120064"},{"town":"松田三丁目","koaza":"","lat":33.617652,"lng":130.445713,"zip":"8120064"},{"town":"御島崎一丁目","koaza":"","lat":33.660381,"lng":130.436029,"zip":"8130005"},{"town":"御島崎二丁目","koaza":"","lat":33.663357,"lng":130.437038,"zip":"8130005"},{"town":"水谷一丁目","koaza":"","lat":33.647903,"lng":130.445139,"zip":"8130041"},{"town":"水谷二丁目","koaza":"","lat":33.650689,"lng":130.443222,"zip":"8130041"},{"town":"水谷三丁目","koaza":"","lat":33.650252,"lng":130.44697,"zip":"8130041"},{"town":"三苫一丁目","koaza":"","lat":33.695908,"lng":130.419582,"zip":"8110201"},{"town":"三苫二丁目","koaza":"","lat":33.694363,"lng":130.414403,"zip":"8110201"},{"town":"三苫三丁目","koaza":"","lat":33.698538,"lng":130.417816,"zip":"8110201"},{"town":"三苫四丁目","koaza":"","lat":33.698118,"lng":130.421745,"zip":"8110201"},{"town":"三苫五丁目","koaza":"","lat":33.704741,"lng":130.421684,"zip":"8110201"},{"town":"三苫六丁目","koaza":"","lat":33.70276,"lng":130.418199,"zip":"8110201"},{"town":"三苫七丁目","koaza":"","lat":33.706895,"lng":130.419277,"zip":"8110201"},{"town":"三苫八丁目","koaza":"","lat":33.708797,"lng":130.421657,"zip":"8110201"},{"town":"みどりが丘一丁目","koaza":"","lat":33.650644,"lng":130.467879,"zip":"8130021"},{"town":"みどりが丘二丁目","koaza":"","lat":33.64776,"lng":130.472301,"zip":"8130021"},{"town":"みどりが丘三丁目","koaza":"","lat":33.645905,"lng":130.474651,"zip":"8130021"},{"town":"みなと香椎一丁目","koaza":"","lat":33.660269,"lng":130.407513,"zip":"8130019"},{"town":"みなと香椎二丁目","koaza":"","lat":33.664063,"lng":130.410378,"zip":"8130019"},{"town":"みなと香椎三丁目","koaza":"","lat":33.665872,"lng":130.404433,"zip":"8130019"},{"town":"美和台一丁目","koaza":"","lat":33.699,"lng":130.431838,"zip":"8110212"},{"town":"美和台四丁目","koaza":"","lat":33.703097,"lng":130.425211,"zip":"8110212"},{"town":"美和台五丁目","koaza":"","lat":33.705781,"lng":130.425775,"zip":"8110212"},{"town":"美和台六丁目","koaza":"","lat":33.7048,"lng":130.430961,"zip":"8110212"},{"town":"美和台七丁目","koaza":"","lat":33.702599,"lng":130.430162,"zip":"8110212"},{"town":"美和台新町","koaza":"","lat":33.707899,"lng":130.426795,"zip":"8110211"},{"town":"若宮一丁目","koaza":"","lat":33.634704,"lng":130.454883,"zip":"8130036"},{"town":"若宮二丁目","koaza":"","lat":33.63472,"lng":130.450165,"zip":"8130036"},{"town":"若宮三丁目","koaza":"","lat":33.637491,"lng":130.448536,"zip":"8130036"},{"town":"若宮四丁目","koaza":"","lat":33.640792,"lng":130.444916,"zip":"8130036"},{"town":"若宮五丁目","koaza":"","lat":33.643441,"lng":130.443118,"zip":"8130036"},{"town":"和白一丁目","koaza":"","lat":33.682534,"lng":130.434809,"zip":"8110202"},{"town":"和白二丁目","koaza":"","lat":33.68574,"lng":130.433892,"zip":"8110202"},{"town":"和白三丁目","koaza":"","lat":33.689242,"lng":130.431906,"zip":"8110202"},{"town":"和白四丁目","koaza":"","lat":33.685379,"lng":130.432337,"zip":"8110202"},{"town":"和白五丁目","koaza":"","lat":33.69306,"lng":130.426588,"zip":"8110202"},{"town":"和白丘一丁目","koaza":"","lat":33.695568,"lng":130.436775,"zip":"8110213"},{"town":"和白丘二丁目","koaza":"","lat":33.693787,"lng":130.432083,"zip":"8110213"},{"town":"和白丘三丁目","koaza":"","lat":33.697738,"lng":130.43463,"zip":"8110213"},{"town":"和白丘四丁目","koaza":"","lat":33.700985,"lng":130.436932,"zip":"8110213"},{"town":"和白東一丁目","koaza":"","lat":33.686601,"lng":130.435083,"zip":"8110214"},{"town":"和白東二丁目","koaza":"","lat":33.692023,"lng":130.438693,"zip":"8110214"},{"town":"和白東三丁目","koaza":"","lat":33.695526,"lng":130.440906,"zip":"8110214"},{"town":"和白東四丁目","koaza":"","lat":33.696563,"lng":130.444853,"zip":"8110214"},{"town":"和白東五丁目","koaza":"","lat":33.698897,"lng":130.443546,"zip":"8110214"},{"town":"美和台二丁目","koaza":"","lat":33.698385,"lng":130.428172,"zip":"8110212"},{"town":"和白六丁目","koaza":"","lat":33.696147,"lng":130.425315,"zip":"8110202"},{"town":"美和台三丁目","koaza":"","lat":33.699752,"lng":130.424511,"zip":"8110212"}]