[{"town":"あけぼの","koaza":"","lat":33.771213,"lng":130.511945,"zip":"8113220"},{"town":"畦町","koaza":"","lat":33.764027,"lng":130.536064,"zip":"8113202"},{"town":"在自","koaza":"","lat":33.792853,"lng":130.483353,"zip":"8113301"},{"town":"内殿","koaza":"","lat":33.749563,"lng":130.516494,"zip":"8113205"},{"town":"大石","koaza":"","lat":33.806379,"lng":130.485516,"zip":"8113302"},{"town":"小竹","koaza":"","lat":33.781452,"lng":130.514954,"zip":"8113226"},{"town":"小竹一丁目","koaza":"","lat":33.778016,"lng":130.516448,"zip":"8113226"},{"town":"小竹二丁目","koaza":"","lat":33.779783,"lng":130.514751,"zip":"8113226"},{"town":"勝浦","koaza":"","lat":33.828677,"lng":130.489197,"zip":"8113521"},{"town":"上西郷","koaza":"","lat":33.750727,"lng":130.503449,"zip":"8113207"},{"town":"光陽台一丁目","koaza":"","lat":33.767049,"lng":130.494467,"zip":"8113223"},{"town":"光陽台二丁目","koaza":"","lat":33.765659,"lng":130.496384,"zip":"8113223"},{"town":"光陽台三丁目","koaza":"","lat":33.768268,"lng":130.498045,"zip":"8113223"},{"town":"光陽台四丁目","koaza":"","lat":33.771565,"lng":130.501047,"zip":"8113223"},{"town":"光陽台五丁目","koaza":"","lat":33.773826,"lng":130.501947,"zip":"8113223"},{"town":"光陽台六丁目","koaza":"","lat":33.77661,"lng":130.501599,"zip":"8113223"},{"town":"光陽台南","koaza":"","lat":33.767823,"lng":130.499243,"zip":"8113228"},{"town":"桜川","koaza":"","lat":33.770896,"lng":130.507705,"zip":"8113229"},{"town":"舎利蔵","koaza":"","lat":33.742081,"lng":130.530697,"zip":"8113204"},{"town":"須多田","koaza":"","lat":33.799488,"lng":130.48726,"zip":"8113303"},{"town":"高平","koaza":"","lat":33.773374,"lng":130.5067,"zip":"8113227"},{"town":"中央一丁目","koaza":"","lat":33.767336,"lng":130.491411,"zip":"8113217"},{"town":"中央二丁目","koaza":"","lat":33.7666,"lng":130.488159,"zip":"8113217"},{"town":"中央三丁目","koaza":"","lat":33.763634,"lng":130.485909,"zip":"8113217"},{"town":"中央四丁目","koaza":"","lat":33.767303,"lng":130.485357,"zip":"8113217"},{"town":"中央五丁目","koaza":"","lat":33.767154,"lng":130.481996,"zip":"8113217"},{"town":"中央六丁目","koaza":"","lat":33.764002,"lng":130.481252,"zip":"8113217"},{"town":"津丸","koaza":"","lat":33.767216,"lng":130.509811,"zip":"8113222"},{"town":"津屋崎","koaza":"","lat":33.802873,"lng":130.4697,"zip":"8113304"},{"town":"津屋崎一丁目","koaza":"","lat":33.783706,"lng":130.471418,"zip":"8113304"},{"town":"津屋崎二丁目","koaza":"","lat":33.785907,"lng":130.47439,"zip":"8113304"},{"town":"津屋崎三丁目","koaza":"","lat":33.788518,"lng":130.466049,"zip":"8113304"},{"town":"津屋崎四丁目","koaza":"","lat":33.790025,"lng":130.46139,"zip":"8113304"},{"town":"津屋崎五丁目","koaza":"","lat":33.797171,"lng":130.465807,"zip":"8113304"},{"town":"津屋崎六丁目","koaza":"","lat":33.790259,"lng":130.467706,"zip":"8113304"},{"town":"津屋崎七丁目","koaza":"","lat":33.794027,"lng":130.472615,"zip":"8113304"},{"town":"津屋崎八丁目","koaza":"","lat":33.795169,"lng":130.47137,"zip":"8113304"},{"town":"手光","koaza":"","lat":33.780965,"lng":130.501528,"zip":"8113224"},{"town":"手光南一丁目","koaza":"","lat":33.769695,"lng":130.494249,"zip":"8113218"},{"town":"手光南二丁目","koaza":"","lat":33.770734,"lng":130.493362,"zip":"8113218"},{"town":"西福間一丁目","koaza":"","lat":33.769105,"lng":130.47952,"zip":"8113219"},{"town":"西福間二丁目","koaza":"","lat":33.764499,"lng":130.476698,"zip":"8113219"},{"town":"奴山","koaza":"","lat":33.813048,"lng":130.496458,"zip":"8113522"},{"town":"花見が丘一丁目","koaza":"","lat":33.76093,"lng":130.480345,"zip":"8113214"},{"town":"花見が丘二丁目","koaza":"","lat":33.759003,"lng":130.47871,"zip":"8113214"},{"town":"花見が丘三丁目","koaza":"","lat":33.756135,"lng":130.477355,"zip":"8113214"},{"town":"花見が浜一丁目","koaza":"","lat":33.760561,"lng":130.474313,"zip":"8113216"},{"town":"花見が浜二丁目","koaza":"","lat":33.757215,"lng":130.47371,"zip":"8113216"},{"town":"花見が浜三丁目","koaza":"","lat":33.758129,"lng":130.470325,"zip":"8113216"},{"town":"花見の里一丁目","koaza":"","lat":33.752472,"lng":130.479057,"zip":"8113215"},{"town":"花見の里二丁目","koaza":"","lat":33.753441,"lng":130.476482,"zip":"8113215"},{"town":"花見の里三丁目","koaza":"","lat":33.754193,"lng":130.470925,"zip":"8113215"},{"town":"東福間一丁目","koaza":"","lat":33.77509,"lng":130.511845,"zip":"8113225"},{"town":"東福間二丁目","koaza":"","lat":33.776045,"lng":130.507937,"zip":"8113225"},{"town":"東福間三丁目","koaza":"","lat":33.776506,"lng":130.50966,"zip":"8113225"},{"town":"東福間四丁目","koaza":"","lat":33.776042,"lng":130.511072,"zip":"8113225"},{"town":"東福間五丁目","koaza":"","lat":33.777182,"lng":130.51354,"zip":"8113225"},{"town":"東福間六丁目","koaza":"","lat":33.779489,"lng":130.51296,"zip":"8113225"},{"town":"東福間七丁目","koaza":"","lat":33.77986,"lng":130.509736,"zip":"8113225"},{"town":"東福間八丁目","koaza":"","lat":33.782841,"lng":130.510851,"zip":"8113225"},{"town":"久末","koaza":"","lat":33.76401,"lng":130.515462,"zip":"8113206"},{"town":"日蒔野一丁目","koaza":"","lat":33.762523,"lng":130.489714,"zip":"8113209"},{"town":"日蒔野二丁目","koaza":"","lat":33.761296,"lng":130.485101,"zip":"8113209"},{"town":"日蒔野三丁目","koaza":"","lat":33.759552,"lng":130.48428,"zip":"8113209"},{"town":"日蒔野四丁目","koaza":"","lat":33.760228,"lng":130.488673,"zip":"8113209"},{"town":"日蒔野五丁目","koaza":"","lat":33.759648,"lng":130.494893,"zip":"8113209"},{"town":"日蒔野六丁目","koaza":"","lat":33.753024,"lng":130.492835,"zip":"8113209"},{"town":"福間駅東一丁目","koaza":"","lat":33.764042,"lng":130.490546,"zip":"8113208"},{"town":"福間駅東二丁目","koaza":"","lat":33.764627,"lng":130.492786,"zip":"8113208"},{"town":"福間駅東三丁目","koaza":"","lat":33.763998,"lng":130.498814,"zip":"8113208"},{"town":"福間南一丁目","koaza":"","lat":33.756545,"lng":130.489907,"zip":"8113212"},{"town":"福間南二丁目","koaza":"","lat":33.75486,"lng":130.486199,"zip":"8113212"},{"town":"福間南三丁目","koaza":"","lat":33.754627,"lng":130.483788,"zip":"8113212"},{"town":"福間南四丁目","koaza":"","lat":33.755844,"lng":130.480874,"zip":"8113212"},{"town":"福間南五丁目","koaza":"","lat":33.753411,"lng":130.482122,"zip":"8113212"},{"town":"星ヶ丘","koaza":"","lat":33.788449,"lng":130.482735,"zip":"8113200"},{"town":"宮司","koaza":"","lat":33.784456,"lng":130.489491,"zip":"8113305"},{"town":"宮司一丁目","koaza":"","lat":33.772256,"lng":130.485156,"zip":"8113305"},{"town":"宮司二丁目","koaza":"","lat":33.772374,"lng":130.481527,"zip":"8113305"},{"town":"宮司三丁目","koaza":"","lat":33.777508,"lng":130.485405,"zip":"8113305"},{"town":"宮司四丁目","koaza":"","lat":33.776633,"lng":130.480746,"zip":"8113305"},{"town":"宮司五丁目","koaza":"","lat":33.780986,"lng":130.478209,"zip":"8113305"},{"town":"宮司六丁目","koaza":"","lat":33.784961,"lng":130.478477,"zip":"8113305"},{"town":"宮司ヶ丘","koaza":"","lat":33.783798,"lng":130.481865,"zip":"8113312"},{"town":"宮司浜二丁目","koaza":"","lat":33.775785,"lng":130.475394,"zip":"8113311"},{"town":"宮司浜三丁目","koaza":"","lat":33.77978,"lng":130.474037,"zip":"8113311"},{"town":"宮司浜四丁目","koaza":"","lat":33.777016,"lng":130.471281,"zip":"8113311"},{"town":"宮司元町","koaza":"","lat":33.780157,"lng":130.48669,"zip":"8113309"},{"town":"村山田","koaza":"","lat":33.775015,"lng":130.521806,"zip":"8113200"},{"town":"本木","koaza":"","lat":33.747262,"lng":130.540777,"zip":"8113203"},{"town":"八並","koaza":"","lat":33.772277,"lng":130.534768,"zip":"8113201"},{"town":"生家","koaza":"","lat":33.811607,"lng":130.487658,"zip":"8113306"},{"town":"有弥の里一丁目","koaza":"","lat":33.750713,"lng":130.484015,"zip":"8113211"},{"town":"有弥の里二丁目","koaza":"","lat":33.748851,"lng":130.488316,"zip":"8113211"},{"town":"若木台一丁目","koaza":"","lat":33.772679,"lng":130.513044,"zip":"8113221"},{"town":"若木台二丁目","koaza":"","lat":33.774495,"lng":130.514014,"zip":"8113221"},{"town":"若木台三丁目","koaza":"","lat":33.775303,"lng":130.518458,"zip":"8113221"},{"town":"若木台四丁目","koaza":"","lat":33.772113,"lng":130.517469,"zip":"8113221"},{"town":"若木台五丁目","koaza":"","lat":33.77164,"lng":130.520471,"zip":"8113221"},{"town":"若木台六丁目","koaza":"","lat":33.772731,"lng":130.523407,"zip":"8113221"},{"town":"渡","koaza":"","lat":33.801404,"lng":130.455221,"zip":"8113307"},{"town":"西福間三丁目","koaza":"","lat":33.764913,"lng":130.471842,"zip":"8113219"},{"town":"宮司浜一丁目","koaza":"","lat":33.773573,"lng":130.476692,"zip":"8113311"},{"town":"西福間五丁目","koaza":"","lat":33.770501,"lng":130.474753,"zip":"8113219"},{"town":"西福間四丁目","koaza":"","lat":33.769083,"lng":130.472961,"zip":"8113219"},{"town":"（大字なし）","koaza":"","lat":33.753414,"lng":130.489137,"zip":"8113200"}]