[{"town":"大字和泉","koaza":"","lat":33.207351,"lng":130.494048,"zip":"8330000"},{"town":"大字一条","koaza":"","lat":33.247149,"lng":130.510214,"zip":"8330000"},{"town":"大字江口","koaza":"","lat":33.217876,"lng":130.466255,"zip":"8330000"},{"town":"大字尾島","koaza":"","lat":33.186853,"lng":130.501876,"zip":"8330000"},{"town":"大字折地","koaza":"","lat":33.194048,"lng":130.466099,"zip":"8330000"},{"town":"大字上北島","koaza":"","lat":33.198307,"lng":130.492805,"zip":"8330000"},{"town":"大字北長田","koaza":"","lat":33.184594,"lng":130.511972,"zip":"8330000"},{"town":"大字久恵","koaza":"","lat":33.193714,"lng":130.5222,"zip":"8330000"},{"town":"大字熊野","koaza":"","lat":33.22792,"lng":130.496465,"zip":"8330000"},{"town":"大字蔵数","koaza":"","lat":33.23556,"lng":130.49819,"zip":"8330000"},{"town":"大字古島","koaza":"","lat":33.197195,"lng":130.470993,"zip":"8330000"},{"town":"大字四ケ所","koaza":"","lat":33.210382,"lng":130.461736,"zip":"8330000"},{"town":"大字島田","koaza":"","lat":33.203604,"lng":130.472219,"zip":"8330000"},{"town":"大字志","koaza":"","lat":33.187554,"lng":130.497465,"zip":"8330000"},{"town":"大字下北島","koaza":"","lat":33.199076,"lng":130.481184,"zip":"8330000"},{"town":"大字下妻","koaza":"","lat":33.177035,"lng":130.469705,"zip":"8330000"},{"town":"大字庄島","koaza":"","lat":33.207434,"lng":130.479121,"zip":"8330000"},{"town":"大字新溝","koaza":"","lat":33.196123,"lng":130.516176,"zip":"8330000"},{"town":"大字井田","koaza":"","lat":33.199326,"lng":130.458577,"zip":"8330000"},{"town":"大字高江","koaza":"","lat":33.221441,"lng":130.479003,"zip":"8330000"},{"town":"大字津島","koaza":"","lat":33.179881,"lng":130.494545,"zip":"8330000"},{"town":"大字常用","koaza":"","lat":33.187462,"lng":130.486522,"zip":"8330000"},{"town":"大字鶴田","koaza":"","lat":33.19285,"lng":130.507483,"zip":"8330000"},{"town":"大字徳久","koaza":"","lat":33.214242,"lng":130.505328,"zip":"8330000"},{"town":"大字富重","koaza":"","lat":33.218807,"lng":130.473025,"zip":"8330000"},{"town":"大字富久","koaza":"","lat":33.210873,"lng":130.46926,"zip":"8330000"},{"town":"大字富安","koaza":"","lat":33.175146,"lng":130.457046,"zip":"8330000"},{"town":"大字中折地","koaza":"","lat":33.186959,"lng":130.475104,"zip":"8330000"},{"town":"大字長崎","koaza":"","lat":33.20685,"lng":130.484846,"zip":"8330000"},{"town":"大字長浜","koaza":"","lat":33.207065,"lng":130.513948,"zip":"8330000"},{"town":"大字中牟田","koaza":"","lat":33.187514,"lng":130.465196,"zip":"8330000"},{"town":"大字西牟田","koaza":"","lat":33.234732,"lng":130.480757,"zip":"8330000"},{"town":"大字野町","koaza":"","lat":33.199072,"lng":130.500688,"zip":"8330000"},{"town":"大字羽犬塚","koaza":"","lat":33.216798,"lng":130.500235,"zip":"8330000"},{"town":"大字久富","koaza":"","lat":33.223065,"lng":130.488561,"zip":"8330000"},{"town":"大字前津","koaza":"","lat":33.226082,"lng":130.513796,"zip":"8330000"},{"town":"大字馬間田","koaza":"","lat":33.180941,"lng":130.463232,"zip":"8330000"},{"town":"大字水田","koaza":"","lat":33.194745,"lng":130.482972,"zip":"8330000"},{"town":"大字溝口","koaza":"","lat":33.187019,"lng":130.525321,"zip":"8330000"},{"town":"大字山ノ井","koaza":"","lat":33.20815,"lng":130.502226,"zip":"8330000"},{"town":"大字若菜","koaza":"","lat":33.212811,"lng":130.482628,"zip":"8330000"},{"town":"大字山ノ井","koaza":"宇野田","lat":33.210847,"lng":130.506231,"zip":"8330000"},{"town":"大字熊野","koaza":"大坪","lat":33.229414,"lng":130.50656,"zip":"8330000"}]