[{"town":"大字赤幡","koaza":"","lat":33.655445,"lng":131.017801,"zip":"8290100"},{"town":"大字上り松","koaza":"","lat":33.624757,"lng":131.055116,"zip":"8290100"},{"town":"大字有安","koaza":"","lat":33.631306,"lng":131.08261,"zip":"8290100"},{"town":"大字石堂","koaza":"","lat":33.623422,"lng":131.060405,"zip":"8290100"},{"town":"大字櫟原","koaza":"","lat":33.582174,"lng":130.996435,"zip":"8290100"},{"town":"大字岩丸","koaza":"","lat":33.598738,"lng":131.014249,"zip":"8290100"},{"town":"大字上ノ河内","koaza":"","lat":33.610386,"lng":131.060194,"zip":"8290100"},{"town":"大字臼田","koaza":"","lat":33.651159,"lng":131.053044,"zip":"8290100"},{"town":"大字宇留津","koaza":"","lat":33.672261,"lng":131.055975,"zip":"8290100"},{"town":"大字小原","koaza":"","lat":33.630812,"lng":131.052332,"zip":"8290100"},{"town":"大字小山田","koaza":"","lat":33.622518,"lng":131.010581,"zip":"8290100"},{"town":"大字上香楽","koaza":"","lat":33.628739,"lng":131.00015,"zip":"8290100"},{"town":"大字上深野","koaza":"","lat":33.63571,"lng":130.990796,"zip":"8290100"},{"town":"大字上別府","koaza":"","lat":33.669556,"lng":131.023244,"zip":"8290100"},{"town":"大字袈裟丸","koaza":"","lat":33.647281,"lng":131.001851,"zip":"8290100"},{"town":"大字越路","koaza":"","lat":33.654332,"lng":131.041546,"zip":"8290100"},{"town":"大字極楽寺","koaza":"","lat":33.59476,"lng":131.028847,"zip":"8290100"},{"town":"大字坂本","koaza":"","lat":33.649634,"lng":131.047457,"zip":"8290100"},{"town":"大字寒田","koaza":"","lat":33.541058,"lng":130.987615,"zip":"8290100"},{"town":"大字椎田","koaza":"","lat":33.648915,"lng":131.057149,"zip":"8290100"},{"town":"大字下香楽","koaza":"","lat":33.640381,"lng":131.006606,"zip":"8290100"},{"town":"大字下深野","koaza":"","lat":33.643348,"lng":130.996144,"zip":"8290100"},{"town":"大字下別府","koaza":"","lat":33.676076,"lng":131.027119,"zip":"8290100"},{"town":"大字真如寺","koaza":"","lat":33.591024,"lng":131.03735,"zip":"8290100"},{"town":"大字高塚","koaza":"","lat":33.66133,"lng":131.056703,"zip":"8290100"},{"town":"大字築城","koaza":"","lat":33.665003,"lng":131.037009,"zip":"8290100"},{"town":"大字伝法寺","koaza":"","lat":33.617691,"lng":130.986305,"zip":"8290100"},{"town":"大字奈古","koaza":"","lat":33.636933,"lng":131.030277,"zip":"8290100"},{"town":"大字西八田","koaza":"","lat":33.681623,"lng":131.047013,"zip":"8290100"},{"town":"大字東築城","koaza":"","lat":33.671937,"lng":131.037779,"zip":"8290100"},{"town":"大字東八田","koaza":"","lat":33.671637,"lng":131.046066,"zip":"8290100"},{"town":"大字日奈古","koaza":"","lat":33.632461,"lng":131.03967,"zip":"8290100"},{"town":"大字広末","koaza":"","lat":33.653898,"lng":131.027742,"zip":"8290100"},{"town":"大字船迫","koaza":"","lat":33.658105,"lng":130.997421,"zip":"8290100"},{"town":"大字本庄","koaza":"","lat":33.585809,"lng":130.975485,"zip":"8290100"},{"town":"大字松丸","koaza":"","lat":33.628052,"lng":130.987959,"zip":"8290100"},{"town":"大字水原","koaza":"","lat":33.644657,"lng":131.038369,"zip":"8290100"},{"town":"大字湊","koaza":"","lat":33.646134,"lng":131.070484,"zip":"8290100"},{"town":"大字安武","koaza":"","lat":33.658254,"lng":131.008926,"zip":"8290100"},{"town":"大字山本","koaza":"","lat":33.635632,"lng":131.048115,"zip":"8290100"},{"town":"大字弓の師","koaza":"","lat":33.675098,"lng":131.014619,"zip":"8290100"}]