[{"town":"大字相島","koaza":"","lat":33.761034,"lng":130.37239,"zip":"8110100"},{"town":"大字下府","koaza":"","lat":33.708197,"lng":130.436972,"zip":"8110100"},{"town":"大字新宮","koaza":"","lat":33.714863,"lng":130.432087,"zip":"8110100"},{"town":"大字立花口","koaza":"","lat":33.684431,"lng":130.483767,"zip":"8110100"},{"town":"大字原上","koaza":"","lat":33.688899,"lng":130.458583,"zip":"8110100"},{"town":"大字的野","koaza":"","lat":33.691151,"lng":130.494887,"zip":"8110100"},{"town":"大字三代","koaza":"","lat":33.698897,"lng":130.457925,"zip":"8110100"},{"town":"大字湊","koaza":"","lat":33.713599,"lng":130.423562,"zip":"8110100"},{"town":"桜山手一丁目","koaza":"","lat":33.70282,"lng":130.437831,"zip":"8110113"},{"town":"桜山手二丁目","koaza":"","lat":33.703967,"lng":130.437784,"zip":"8110113"},{"town":"桜山手三丁目","koaza":"","lat":33.706147,"lng":130.438224,"zip":"8110113"},{"town":"下府一丁目","koaza":"","lat":33.711331,"lng":130.439864,"zip":"8110112"},{"town":"下府二丁目","koaza":"","lat":33.707962,"lng":130.444373,"zip":"8110112"},{"town":"下府三丁目","koaza":"","lat":33.708761,"lng":130.440217,"zip":"8110112"},{"town":"下府四丁目","koaza":"","lat":33.71077,"lng":130.43609,"zip":"8110112"},{"town":"下府五丁目","koaza":"","lat":33.713085,"lng":130.436181,"zip":"8110112"},{"town":"下府六丁目","koaza":"","lat":33.714041,"lng":130.435028,"zip":"8110112"},{"town":"下府七丁目","koaza":"","lat":33.716572,"lng":130.440565,"zip":"8110112"},{"town":"下府八丁目","koaza":"","lat":33.715878,"lng":130.440367,"zip":"8110112"},{"town":"中央駅前二丁目","koaza":"","lat":33.709799,"lng":130.451634,"zip":"8110120"},{"town":"花立花一丁目","koaza":"","lat":33.692945,"lng":130.478873,"zip":"8110103"},{"town":"花立花二丁目","koaza":"","lat":33.691705,"lng":130.475435,"zip":"8110103"},{"town":"花立花三丁目","koaza":"","lat":33.693845,"lng":130.47748,"zip":"8110103"},{"town":"花立花四丁目","koaza":"","lat":33.693039,"lng":130.47637,"zip":"8110103"},{"town":"花立花五丁目","koaza":"","lat":33.693192,"lng":130.475645,"zip":"8110103"},{"town":"美咲一丁目","koaza":"","lat":33.704043,"lng":130.442657,"zip":"8110121"},{"town":"美咲二丁目","koaza":"","lat":33.701523,"lng":130.440839,"zip":"8110121"},{"town":"美咲三丁目","koaza":"","lat":33.70467,"lng":130.440539,"zip":"8110121"},{"town":"緑ケ浜一丁目","koaza":"","lat":33.716631,"lng":130.447563,"zip":"8110119"},{"town":"緑ケ浜二丁目","koaza":"","lat":33.719917,"lng":130.451349,"zip":"8110119"},{"town":"緑ケ浜四丁目","koaza":"","lat":33.712136,"lng":130.446714,"zip":"8110119"},{"town":"湊坂一丁目","koaza":"","lat":33.705711,"lng":130.435202,"zip":"8110114"},{"town":"湊坂二丁目","koaza":"","lat":33.706545,"lng":130.434169,"zip":"8110114"},{"town":"湊坂三丁目","koaza":"","lat":33.70551,"lng":130.433737,"zip":"8110114"},{"town":"湊坂四丁目","koaza":"","lat":33.708595,"lng":130.430146,"zip":"8110114"},{"town":"湊坂五丁目","koaza":"","lat":33.708893,"lng":130.431638,"zip":"8110114"},{"town":"湊坂六丁目","koaza":"","lat":33.709993,"lng":130.430965,"zip":"8110114"},{"town":"杜の宮一丁目","koaza":"","lat":33.715594,"lng":130.443589,"zip":"8110122"},{"town":"杜の宮二丁目","koaza":"","lat":33.714934,"lng":130.440697,"zip":"8110122"},{"town":"杜の宮三丁目","koaza":"","lat":33.712529,"lng":130.439891,"zip":"8110122"},{"town":"杜の宮四丁目","koaza":"","lat":33.712658,"lng":130.442784,"zip":"8110122"},{"town":"夜臼一丁目","koaza":"","lat":33.700462,"lng":130.443989,"zip":"8110110"},{"town":"夜臼二丁目","koaza":"","lat":33.702915,"lng":130.444742,"zip":"8110110"},{"town":"夜臼三丁目","koaza":"","lat":33.701642,"lng":130.446409,"zip":"8110110"},{"town":"夜臼四丁目","koaza":"","lat":33.699946,"lng":130.445903,"zip":"8110110"},{"town":"夜臼五丁目","koaza":"","lat":33.699781,"lng":130.447951,"zip":"8110110"},{"town":"夜臼六丁目","koaza":"","lat":33.702632,"lng":130.44829,"zip":"8110110"},{"town":"緑ケ浜三丁目","koaza":"","lat":33.717585,"lng":130.452616,"zip":"8110119"},{"town":"大字上府","koaza":"","lat":33.707864,"lng":130.459866,"zip":"8110100"},{"town":"上府北三丁目","koaza":"","lat":33.716554,"lng":130.458655,"zip":"8110123"},{"town":"中央駅前一丁目","koaza":"","lat":33.711626,"lng":130.452714,"zip":"8110120"},{"town":"上府北四丁目","koaza":"","lat":33.718408,"lng":130.456183,"zip":"8110123"},{"town":"上府北一丁目","koaza":"","lat":33.715057,"lng":130.453166,"zip":"8110123"},{"town":"上府北二丁目","koaza":"","lat":33.713075,"lng":130.455744,"zip":"8110123"},{"town":"新宮東一丁目","koaza":"","lat":33.70761,"lng":130.449588,"zip":"8110124"},{"town":"新宮東二丁目","koaza":"","lat":33.705427,"lng":130.447177,"zip":"8110124"},{"town":"新宮東三丁目","koaza":"","lat":33.703716,"lng":130.450297,"zip":"8110124"},{"town":"新宮東四丁目","koaza":"","lat":33.705951,"lng":130.45168,"zip":"8110124"},{"town":"新宮東五丁目","koaza":"","lat":33.702691,"lng":130.452619,"zip":"8110124"},{"town":"三代西一丁目","koaza":"","lat":33.700384,"lng":130.451134,"zip":"8110125"},{"town":"三代西二丁目","koaza":"","lat":33.698169,"lng":130.449753,"zip":"8110125"},{"town":"大字三代","koaza":"山ノ後","lat":33.698777,"lng":130.450982,"zip":"8110100"},{"town":"大字三代","koaza":"壁塗","lat":33.703803,"lng":130.455308,"zip":"8110100"}]