[{"town":"石橋台","koaza":"","lat":33.576877,"lng":130.479575,"zip":"8112203"},{"town":"王子一丁目","koaza":"","lat":33.591988,"lng":130.470857,"zip":"8112209"},{"town":"王子二丁目","koaza":"","lat":33.58853,"lng":130.469414,"zip":"8112209"},{"town":"王子三丁目","koaza":"","lat":33.589998,"lng":130.46679,"zip":"8112209"},{"town":"王子四丁目","koaza":"","lat":33.593475,"lng":130.46876,"zip":"8112209"},{"town":"大字志免","koaza":"","lat":33.591471,"lng":130.485951,"zip":"8112200"},{"town":"大字田富","koaza":"","lat":33.574775,"lng":130.496053,"zip":"8112200"},{"town":"大字別府","koaza":"","lat":33.592756,"lng":130.464458,"zip":"8112200"},{"town":"大字南里","koaza":"","lat":33.595361,"lng":130.47634,"zip":"8112200"},{"town":"大字吉原","koaza":"","lat":33.573384,"lng":130.488277,"zip":"8112200"},{"town":"片峰一丁目","koaza":"","lat":33.58952,"lng":130.476069,"zip":"8112245"},{"town":"片峰二丁目","koaza":"","lat":33.587513,"lng":130.476171,"zip":"8112245"},{"town":"片峰三丁目","koaza":"","lat":33.58736,"lng":130.471838,"zip":"8112245"},{"town":"片峰四丁目","koaza":"","lat":33.589244,"lng":130.473639,"zip":"8112245"},{"town":"片峰中央一丁目","koaza":"","lat":33.585244,"lng":130.474993,"zip":"8112246"},{"town":"片峰中央二丁目","koaza":"","lat":33.584206,"lng":130.477599,"zip":"8112246"},{"town":"片峰中央三丁目","koaza":"","lat":33.580905,"lng":130.475498,"zip":"8112246"},{"town":"片峰中央四丁目","koaza":"","lat":33.58499,"lng":130.472832,"zip":"8112246"},{"town":"坂瀬","koaza":"","lat":33.579745,"lng":130.476801,"zip":"8112248"},{"town":"桜丘一丁目","koaza":"","lat":33.572982,"lng":130.481729,"zip":"8112201"},{"town":"桜丘二丁目","koaza":"","lat":33.570156,"lng":130.481631,"zip":"8112201"},{"town":"桜丘三丁目","koaza":"","lat":33.568641,"lng":130.479655,"zip":"8112201"},{"town":"桜丘四丁目","koaza":"","lat":33.56589,"lng":130.484395,"zip":"8112201"},{"town":"桜丘五丁目","koaza":"","lat":33.562845,"lng":130.485942,"zip":"8112201"},{"town":"志免一丁目","koaza":"","lat":33.587486,"lng":130.48512,"zip":"8112202"},{"town":"志免二丁目","koaza":"","lat":33.585445,"lng":130.486999,"zip":"8112202"},{"town":"志免三丁目","koaza":"","lat":33.583293,"lng":130.484155,"zip":"8112202"},{"town":"志免四丁目","koaza":"","lat":33.585037,"lng":130.482043,"zip":"8112202"},{"town":"志免中央一丁目","koaza":"","lat":33.591415,"lng":130.481283,"zip":"8112244"},{"town":"志免中央二丁目","koaza":"","lat":33.589282,"lng":130.483452,"zip":"8112244"},{"town":"志免中央三丁目","koaza":"","lat":33.586812,"lng":130.480022,"zip":"8112244"},{"town":"志免中央四丁目","koaza":"","lat":33.589442,"lng":130.479043,"zip":"8112244"},{"town":"志免東一丁目","koaza":"","lat":33.582372,"lng":130.487171,"zip":"8112243"},{"town":"志免東二丁目","koaza":"","lat":33.580925,"lng":130.49073,"zip":"8112243"},{"town":"志免東三丁目","koaza":"","lat":33.58239,"lng":130.490877,"zip":"8112243"},{"town":"志免東四丁目","koaza":"","lat":33.583531,"lng":130.493134,"zip":"8112243"},{"town":"田富一丁目","koaza":"","lat":33.578735,"lng":130.492845,"zip":"8112204"},{"town":"田富二丁目","koaza":"","lat":33.580797,"lng":130.495769,"zip":"8112204"},{"town":"田富三丁目","koaza":"","lat":33.578972,"lng":130.497884,"zip":"8112204"},{"town":"田富四丁目","koaza":"","lat":33.576751,"lng":130.494242,"zip":"8112204"},{"town":"東公園台一丁目","koaza":"","lat":33.587296,"lng":130.490015,"zip":"8112241"},{"town":"東公園台二丁目","koaza":"","lat":33.589264,"lng":130.489929,"zip":"8112241"},{"town":"別府一丁目","koaza":"","lat":33.603402,"lng":130.462648,"zip":"8112205"},{"town":"別府二丁目","koaza":"","lat":33.601535,"lng":130.460492,"zip":"8112205"},{"town":"別府三丁目","koaza":"","lat":33.603332,"lng":130.455788,"zip":"8112205"},{"town":"別府四丁目","koaza":"","lat":33.605527,"lng":130.459547,"zip":"8112205"},{"town":"別府北一丁目","koaza":"","lat":33.607805,"lng":130.457495,"zip":"8112233"},{"town":"別府北二丁目","koaza":"","lat":33.606559,"lng":130.453772,"zip":"8112233"},{"town":"別府北三丁目","koaza":"","lat":33.604981,"lng":130.451007,"zip":"8112233"},{"town":"別府北四丁目","koaza":"","lat":33.603232,"lng":130.45083,"zip":"8112233"},{"town":"別府西一丁目","koaza":"","lat":33.598421,"lng":130.460398,"zip":"8112232"},{"town":"別府西二丁目","koaza":"","lat":33.598838,"lng":130.457151,"zip":"8112232"},{"town":"別府西三丁目","koaza":"","lat":33.600117,"lng":130.455565,"zip":"8112232"},{"town":"別府東一丁目","koaza":"","lat":33.596387,"lng":130.465598,"zip":"8112231"},{"town":"別府東二丁目","koaza":"","lat":33.59454,"lng":130.462413,"zip":"8112231"},{"town":"別府東三丁目","koaza":"","lat":33.597324,"lng":130.462626,"zip":"8112231"},{"town":"松ケ丘","koaza":"","lat":33.585487,"lng":130.489687,"zip":"8112242"},{"town":"御手洗一丁目","koaza":"","lat":33.606359,"lng":130.449325,"zip":"8112206"},{"town":"御手洗二丁目","koaza":"","lat":33.605632,"lng":130.445537,"zip":"8112206"},{"town":"南里一丁目","koaza":"","lat":33.593398,"lng":130.472681,"zip":"8112207"},{"town":"南里二丁目","koaza":"","lat":33.595167,"lng":130.473479,"zip":"8112207"},{"town":"南里三丁目","koaza":"","lat":33.596857,"lng":130.467783,"zip":"8112207"},{"town":"南里四丁目","koaza":"","lat":33.597821,"lng":130.470955,"zip":"8112207"},{"town":"南里五丁目","koaza":"","lat":33.59954,"lng":130.472272,"zip":"8112207"},{"town":"南里六丁目","koaza":"","lat":33.600696,"lng":130.46771,"zip":"8112207"},{"town":"南里七丁目","koaza":"","lat":33.599252,"lng":130.465553,"zip":"8112207"},{"town":"向ヶ丘一丁目","koaza":"","lat":33.581975,"lng":130.478837,"zip":"8112200"},{"town":"向ヶ丘二丁目","koaza":"","lat":33.579483,"lng":130.479873,"zip":"8112200"},{"town":"大字田富","koaza":"伊賀杭","lat":33.575756,"lng":130.497085,"zip":"8112200"},{"town":"大字田富","koaza":"牛丸","lat":33.574624,"lng":130.498074,"zip":"8112200"}]