[{"town":"有田","koaza":"","lat":33.544417,"lng":130.222544,"zip":"8191132"},{"town":"有田中央一丁目","koaza":"","lat":33.546107,"lng":130.210782,"zip":"8191127"},{"town":"有田中央二丁目","koaza":"","lat":33.546693,"lng":130.214856,"zip":"8191127"},{"town":"飯原","koaza":"","lat":33.502543,"lng":130.213128,"zip":"8191152"},{"town":"池田","koaza":"","lat":33.562667,"lng":130.235335,"zip":"8191103"},{"town":"井田","koaza":"","lat":33.547874,"lng":130.235005,"zip":"8191562"},{"town":"板持","koaza":"","lat":33.574673,"lng":130.228139,"zip":"8191101"},{"town":"板持一丁目","koaza":"","lat":33.571315,"lng":130.231441,"zip":"8191101"},{"town":"板持二丁目","koaza":"","lat":33.574435,"lng":130.232282,"zip":"8191101"},{"town":"岩本","koaza":"","lat":33.551015,"lng":130.173512,"zip":"8191126"},{"town":"井原","koaza":"","lat":33.519892,"lng":130.248756,"zip":"8191582"},{"town":"浦志","koaza":"","lat":33.566696,"lng":130.207466,"zip":"8191112"},{"town":"浦志一丁目","koaza":"","lat":33.561154,"lng":130.212058,"zip":"8191112"},{"town":"浦志二丁目","koaza":"","lat":33.563085,"lng":130.210986,"zip":"8191112"},{"town":"浦志三丁目","koaza":"","lat":33.565111,"lng":130.210779,"zip":"8191112"},{"town":"潤","koaza":"","lat":33.56848,"lng":130.214345,"zip":"8191105"},{"town":"潤一丁目","koaza":"","lat":33.560167,"lng":130.218243,"zip":"8191105"},{"town":"潤二丁目","koaza":"","lat":33.562524,"lng":130.217478,"zip":"8191105"},{"town":"潤三丁目","koaza":"","lat":33.564782,"lng":130.216613,"zip":"8191105"},{"town":"潤四丁目","koaza":"","lat":33.566767,"lng":130.215204,"zip":"8191105"},{"town":"王丸","koaza":"","lat":33.519597,"lng":130.28137,"zip":"8191573"},{"town":"大浦","koaza":"","lat":33.546834,"lng":130.192231,"zip":"8191135"},{"town":"荻浦","koaza":"","lat":33.553123,"lng":130.186014,"zip":"8191121"},{"town":"加布里","koaza":"","lat":33.546371,"lng":130.164877,"zip":"8191124"},{"town":"神在","koaza":"","lat":33.541082,"lng":130.174972,"zip":"8191123"},{"town":"川付","koaza":"","lat":33.502853,"lng":130.18712,"zip":"8191155"},{"town":"川原","koaza":"","lat":33.507382,"lng":130.274784,"zip":"8191574"},{"town":"蔵持","koaza":"","lat":33.537302,"lng":130.223302,"zip":"8191141"},{"town":"高来寺","koaza":"","lat":33.5547,"lng":130.247612,"zip":"8191563"},{"town":"香力","koaza":"","lat":33.526893,"lng":130.214772,"zip":"8191147"},{"town":"志登","koaza":"","lat":33.570548,"lng":130.221398,"zip":"8191106"},{"town":"篠原","koaza":"","lat":33.555492,"lng":130.215075,"zip":"8191131"},{"town":"篠原西一丁目","koaza":"","lat":33.550923,"lng":130.204038,"zip":"8191129"},{"town":"篠原西二丁目","koaza":"","lat":33.550212,"lng":130.208114,"zip":"8191129"},{"town":"篠原西三丁目","koaza":"","lat":33.548051,"lng":130.20887,"zip":"8191129"},{"town":"篠原東一丁目","koaza":"","lat":33.552925,"lng":130.209776,"zip":"8191128"},{"town":"篠原東二丁目","koaza":"","lat":33.551452,"lng":130.211386,"zip":"8191128"},{"town":"篠原東三丁目","koaza":"","lat":33.551184,"lng":130.215827,"zip":"8191128"},{"town":"志摩井田原","koaza":"","lat":33.592769,"lng":130.185578,"zip":"8191301"},{"town":"志摩稲留","koaza":"","lat":33.59116,"lng":130.173174,"zip":"8191313"},{"town":"志摩稲葉","koaza":"","lat":33.574334,"lng":130.185013,"zip":"8191315"},{"town":"志摩岐志","koaza":"","lat":33.578086,"lng":130.127209,"zip":"8191334"},{"town":"志摩久家","koaza":"","lat":33.557347,"lng":130.140596,"zip":"8191331"},{"town":"志摩芥屋","koaza":"","lat":33.58041,"lng":130.104763,"zip":"8191335"},{"town":"志摩小金丸","koaza":"","lat":33.585759,"lng":130.160947,"zip":"8191323"},{"town":"志摩小富士","koaza":"","lat":33.564222,"lng":130.170987,"zip":"8191321"},{"town":"志摩桜井","koaza":"","lat":33.620101,"lng":130.190956,"zip":"8191304"},{"town":"志摩新町","koaza":"","lat":33.57171,"lng":130.134287,"zip":"8191333"},{"town":"志摩津和崎","koaza":"","lat":33.578898,"lng":130.190192,"zip":"8191311"},{"town":"志摩西貝塚","koaza":"","lat":33.578883,"lng":130.141427,"zip":"8191325"},{"town":"志摩野北","koaza":"","lat":33.614485,"lng":130.169574,"zip":"8191303"},{"town":"志摩初","koaza":"","lat":33.58233,"lng":130.179352,"zip":"8191312"},{"town":"志摩馬場","koaza":"","lat":33.593165,"lng":130.207589,"zip":"8191305"},{"town":"志摩東貝塚","koaza":"","lat":33.579124,"lng":130.14995,"zip":"8191324"},{"town":"志摩姫島","koaza":"","lat":33.57009,"lng":130.048938,"zip":"8191336"},{"town":"志摩船越","koaza":"","lat":33.554001,"lng":130.120437,"zip":"8191332"},{"town":"志摩松隈","koaza":"","lat":33.589229,"lng":130.198361,"zip":"8191306"},{"town":"志摩御床","koaza":"","lat":33.567883,"lng":130.145292,"zip":"8191322"},{"town":"志摩師吉","koaza":"","lat":33.573615,"lng":130.173474,"zip":"8191314"},{"town":"志摩吉田","koaza":"","lat":33.603278,"lng":130.184869,"zip":"8191302"},{"town":"白糸","koaza":"","lat":33.481179,"lng":130.176451,"zip":"8191154"},{"town":"新田","koaza":"","lat":33.56888,"lng":130.194927,"zip":"8191114"},{"town":"瑞梅寺","koaza":"","lat":33.496024,"lng":130.250396,"zip":"8191581"},{"town":"末永","koaza":"","lat":33.52701,"lng":130.275472,"zip":"8191572"},{"town":"瀬戸","koaza":"","lat":33.509287,"lng":130.182989,"zip":"8191156"},{"town":"曽根","koaza":"","lat":33.537234,"lng":130.231079,"zip":"8191561"},{"town":"大門","koaza":"","lat":33.549453,"lng":130.247636,"zip":"8191564"},{"town":"高上","koaza":"","lat":33.517665,"lng":130.23082,"zip":"8191143"},{"town":"高祖","koaza":"","lat":33.539845,"lng":130.266292,"zip":"8191571"},{"town":"高田","koaza":"","lat":33.566633,"lng":130.236566,"zip":"8191102"},{"town":"高田一丁目","koaza":"","lat":33.567471,"lng":130.233685,"zip":"8191102"},{"town":"高田二丁目","koaza":"","lat":33.569422,"lng":130.231567,"zip":"8191102"},{"town":"高田三丁目","koaza":"","lat":33.574505,"lng":130.234963,"zip":"8191102"},{"town":"高田四丁目","koaza":"","lat":33.572049,"lng":130.237292,"zip":"8191102"},{"town":"高田五丁目","koaza":"","lat":33.569317,"lng":130.237473,"zip":"8191102"},{"town":"多久","koaza":"","lat":33.543054,"lng":130.194529,"zip":"8191134"},{"town":"千早新田","koaza":"","lat":33.553524,"lng":130.171395,"zip":"8191125"},{"town":"泊","koaza":"","lat":33.578154,"lng":130.213011,"zip":"8191111"},{"town":"富","koaza":"","lat":33.538558,"lng":130.208883,"zip":"8191133"},{"town":"長野","koaza":"","lat":33.495425,"lng":130.198435,"zip":"8191153"},{"town":"西堂","koaza":"","lat":33.519904,"lng":130.260463,"zip":"8191575"},{"town":"二丈一貴山","koaza":"","lat":33.489135,"lng":130.141286,"zip":"8191622"},{"town":"二丈石崎","koaza":"","lat":33.519489,"lng":130.162785,"zip":"8191623"},{"town":"二丈片山","koaza":"","lat":33.526196,"lng":130.15085,"zip":"8191611"},{"town":"二丈上深江","koaza":"","lat":33.513285,"lng":130.157292,"zip":"8191621"},{"town":"二丈鹿家","koaza":"","lat":33.482425,"lng":130.056456,"zip":"8191642"},{"town":"二丈武","koaza":"","lat":33.527642,"lng":130.169521,"zip":"8191616"},{"town":"二丈田中","koaza":"","lat":33.536533,"lng":130.166204,"zip":"8191615"},{"town":"二丈長石","koaza":"","lat":33.50455,"lng":130.166273,"zip":"8191625"},{"town":"二丈浜窪","koaza":"","lat":33.537976,"lng":130.157638,"zip":"8191614"},{"town":"二丈波呂","koaza":"","lat":33.506048,"lng":130.174286,"zip":"8191626"},{"town":"二丈深江","koaza":"","lat":33.506658,"lng":130.135552,"zip":"8191601"},{"town":"二丈福井","koaza":"","lat":33.495394,"lng":130.104097,"zip":"8191631"},{"town":"二丈松末","koaza":"","lat":33.529084,"lng":130.142948,"zip":"8191612"},{"town":"二丈松国","koaza":"","lat":33.520064,"lng":130.177505,"zip":"8191627"},{"town":"二丈満吉","koaza":"","lat":33.501838,"lng":130.158632,"zip":"8191624"},{"town":"二丈吉井","koaza":"","lat":33.487896,"lng":130.078077,"zip":"8191641"},{"town":"波多江","koaza":"","lat":33.556435,"lng":130.226488,"zip":"8191104"},{"town":"波多江駅北一丁目","koaza":"","lat":33.56384,"lng":130.222758,"zip":"8191107"},{"town":"波多江駅北二丁目","koaza":"","lat":33.566321,"lng":130.223366,"zip":"8191107"},{"town":"波多江駅北三丁目","koaza":"","lat":33.566844,"lng":130.226786,"zip":"8191107"},{"town":"波多江駅北四丁目","koaza":"","lat":33.565073,"lng":130.2282,"zip":"8191107"},{"town":"波多江駅南一丁目","koaza":"","lat":33.563457,"lng":130.227387,"zip":"8191108"},{"town":"波多江駅南二丁目","koaza":"","lat":33.562509,"lng":130.229576,"zip":"8191108"},{"town":"東","koaza":"","lat":33.530799,"lng":130.186352,"zip":"8191122"},{"town":"本","koaza":"","lat":33.52308,"lng":130.199877,"zip":"8191151"},{"town":"前原","koaza":"","lat":33.56011,"lng":130.18819,"zip":"8191113"},{"town":"前原駅南一丁目","koaza":"","lat":33.555047,"lng":130.194602,"zip":"8191138"},{"town":"前原駅南二丁目","koaza":"","lat":33.554622,"lng":130.200742,"zip":"8191138"},{"town":"前原駅南三丁目","koaza":"","lat":33.555523,"lng":130.203494,"zip":"8191138"},{"town":"前原北一丁目","koaza":"","lat":33.562671,"lng":130.196332,"zip":"8191118"},{"town":"前原北二丁目","koaza":"","lat":33.564008,"lng":130.194221,"zip":"8191118"},{"town":"前原北三丁目","koaza":"","lat":33.565258,"lng":130.19936,"zip":"8191118"},{"town":"前原北四丁目","koaza":"","lat":33.563403,"lng":130.199745,"zip":"8191118"},{"town":"前原中央一丁目","koaza":"","lat":33.558218,"lng":130.203037,"zip":"8191116"},{"town":"前原中央二丁目","koaza":"","lat":33.558696,"lng":130.20042,"zip":"8191116"},{"town":"前原中央三丁目","koaza":"","lat":33.560945,"lng":130.2002,"zip":"8191116"},{"town":"前原西一丁目","koaza":"","lat":33.557095,"lng":130.195265,"zip":"8191117"},{"town":"前原西二丁目","koaza":"","lat":33.556932,"lng":130.191474,"zip":"8191117"},{"town":"前原西三丁目","koaza":"","lat":33.559757,"lng":130.193256,"zip":"8191117"},{"town":"前原西四丁目","koaza":"","lat":33.560776,"lng":130.196027,"zip":"8191117"},{"town":"前原西五丁目","koaza":"","lat":33.562876,"lng":130.19295,"zip":"8191117"},{"town":"前原東一丁目","koaza":"","lat":33.559475,"lng":130.206963,"zip":"8191119"},{"town":"前原東二丁目","koaza":"","lat":33.56194,"lng":130.205276,"zip":"8191119"},{"town":"前原東三丁目","koaza":"","lat":33.56427,"lng":130.203098,"zip":"8191119"},{"town":"前原南一丁目","koaza":"","lat":33.556542,"lng":130.206487,"zip":"8191139"},{"town":"前原南二丁目","koaza":"","lat":33.556945,"lng":130.210286,"zip":"8191139"},{"town":"三雲","koaza":"","lat":33.539247,"lng":130.240656,"zip":"8191583"},{"town":"三坂","koaza":"","lat":33.520749,"lng":130.224152,"zip":"8191146"},{"town":"美咲が丘一丁目","koaza":"","lat":33.549427,"lng":130.188221,"zip":"8191136"},{"town":"美咲が丘二丁目","koaza":"","lat":33.54854,"lng":130.191621,"zip":"8191136"},{"town":"美咲が丘三丁目","koaza":"","lat":33.546905,"lng":130.186817,"zip":"8191136"},{"town":"美咲が丘四丁目","koaza":"","lat":33.548642,"lng":130.186272,"zip":"8191136"},{"town":"南風台一丁目","koaza":"","lat":33.553326,"lng":130.194528,"zip":"8191137"},{"town":"南風台二丁目","koaza":"","lat":33.551933,"lng":130.195151,"zip":"8191137"},{"town":"南風台三丁目","koaza":"","lat":33.549917,"lng":130.195658,"zip":"8191137"},{"town":"南風台四丁目","koaza":"","lat":33.550315,"lng":130.198477,"zip":"8191137"},{"town":"南風台五丁目","koaza":"","lat":33.551647,"lng":130.199149,"zip":"8191137"},{"town":"南風台六丁目","koaza":"","lat":33.550001,"lng":130.200565,"zip":"8191137"},{"town":"南風台七丁目","koaza":"","lat":33.547463,"lng":130.195798,"zip":"8191137"},{"town":"南風台八丁目","koaza":"","lat":33.549371,"lng":130.193581,"zip":"8191137"},{"town":"八島","koaza":"","lat":33.529794,"lng":130.225379,"zip":"8191142"},{"town":"山北","koaza":"","lat":33.514528,"lng":130.237148,"zip":"8191144"},{"town":"油比","koaza":"","lat":33.577866,"lng":130.19814,"zip":"8191115"},{"town":"雷山","koaza":"","lat":33.496589,"lng":130.228404,"zip":"8191145"},{"town":"伊都の杜一丁目","koaza":"","lat":33.559523,"lng":130.213209,"zip":"8191130"},{"town":"伊都の杜三丁目","koaza":"","lat":33.557321,"lng":130.213713,"zip":"8191130"},{"town":"伊都の杜二丁目","koaza":"","lat":33.558734,"lng":130.215841,"zip":"8191130"},{"town":"志摩津和崎","koaza":"宮ノ元","lat":33.580093,"lng":130.186385,"zip":"8191311"}]