[{"town":"浅木一丁目","koaza":"","lat":33.832125,"lng":130.669891,"zip":"8114312"},{"town":"浅木二丁目","koaza":"","lat":33.830984,"lng":130.667178,"zip":"8114312"},{"town":"浅木三丁目","koaza":"","lat":33.826611,"lng":130.669539,"zip":"8114312"},{"town":"大字浅木","koaza":"","lat":33.830552,"lng":130.674607,"zip":"8114300"},{"town":"大字今古賀","koaza":"","lat":33.848334,"lng":130.66534,"zip":"8114300"},{"town":"大字老良","koaza":"","lat":33.837713,"lng":130.685308,"zip":"8114300"},{"town":"大字尾崎","koaza":"","lat":33.859805,"lng":130.647468,"zip":"8114300"},{"town":"大字鬼津","koaza":"","lat":33.865693,"lng":130.662314,"zip":"8114300"},{"town":"大字上別府","koaza":"","lat":33.832222,"lng":130.653199,"zip":"8114300"},{"town":"大字木守","koaza":"","lat":33.839933,"lng":130.671564,"zip":"8114300"},{"town":"大字島津","koaza":"","lat":33.878017,"lng":130.674239,"zip":"8114300"},{"town":"大字広渡","koaza":"","lat":33.85793,"lng":130.676843,"zip":"8114300"},{"town":"大字別府","koaza":"","lat":33.847779,"lng":130.656831,"zip":"8114300"},{"town":"大字虫生津","koaza":"","lat":33.820957,"lng":130.653861,"zip":"8114300"},{"town":"大字若松","koaza":"","lat":33.867767,"lng":130.67042,"zip":"8114300"},{"town":"遠賀川一丁目","koaza":"","lat":33.846653,"lng":130.671421,"zip":"8114307"},{"town":"遠賀川二丁目","koaza":"","lat":33.848158,"lng":130.672028,"zip":"8114307"},{"town":"遠賀川三丁目","koaza":"","lat":33.850446,"lng":130.67282,"zip":"8114307"},{"town":"旧停一丁目","koaza":"","lat":33.848553,"lng":130.679138,"zip":"8114306"},{"town":"旧停二丁目","koaza":"","lat":33.848957,"lng":130.677221,"zip":"8114306"},{"town":"島門","koaza":"","lat":33.856814,"lng":130.663708,"zip":"8114333"},{"town":"田園一丁目","koaza":"","lat":33.854127,"lng":130.653738,"zip":"8114343"},{"town":"田園二丁目","koaza":"","lat":33.855352,"lng":130.652217,"zip":"8114343"},{"town":"田園三丁目","koaza":"","lat":33.858176,"lng":130.654334,"zip":"8114343"},{"town":"広渡一丁目","koaza":"","lat":33.853272,"lng":130.672651,"zip":"8114302"},{"town":"芙蓉一丁目","koaza":"","lat":33.822461,"lng":130.660694,"zip":"8114322"},{"town":"芙蓉二丁目","koaza":"","lat":33.822234,"lng":130.659531,"zip":"8114322"},{"town":"松の本一丁目","koaza":"","lat":33.85332,"lng":130.67008,"zip":"8114305"},{"town":"松の本二丁目","koaza":"","lat":33.854383,"lng":130.667716,"zip":"8114305"},{"town":"松の本三丁目","koaza":"","lat":33.855628,"lng":130.665233,"zip":"8114305"},{"town":"松の本四丁目","koaza":"","lat":33.856741,"lng":130.668196,"zip":"8114305"},{"town":"松の本五丁目","koaza":"","lat":33.856344,"lng":130.670953,"zip":"8114305"},{"town":"松の本六丁目","koaza":"","lat":33.858181,"lng":130.671788,"zip":"8114305"},{"town":"松の本七丁目","koaza":"","lat":33.858516,"lng":130.667997,"zip":"8114305"},{"town":"虫生津南","koaza":"","lat":33.820945,"lng":130.666392,"zip":"8114324"},{"town":"蓮角","koaza":"","lat":33.836932,"lng":130.665328,"zip":"8114334"},{"town":"若葉台","koaza":"","lat":33.824683,"lng":130.652738,"zip":"8114323"},{"town":"大字今古賀","koaza":"貴舟","lat":33.847475,"lng":130.664045,"zip":"8114300"},{"town":"大字今古賀","koaza":"砂田","lat":33.85081,"lng":130.66809,"zip":"8114300"}]