[{"town":"旭台一丁目","koaza":"","lat":33.855015,"lng":130.617091,"zip":"8114215"},{"town":"旭台二丁目","koaza":"","lat":33.855909,"lng":130.619832,"zip":"8114215"},{"town":"旭台三丁目","koaza":"","lat":33.85895,"lng":130.619414,"zip":"8114215"},{"town":"旭台四丁目","koaza":"","lat":33.857694,"lng":130.623488,"zip":"8114215"},{"town":"旭台五丁目","koaza":"","lat":33.854341,"lng":130.622484,"zip":"8114215"},{"town":"旭南","koaza":"","lat":33.851853,"lng":130.625926,"zip":"8114216"},{"town":"海老津一丁目","koaza":"","lat":33.841245,"lng":130.617004,"zip":"8114231"},{"town":"海老津二丁目","koaza":"","lat":33.839294,"lng":130.619656,"zip":"8114231"},{"town":"海老津三丁目","koaza":"","lat":33.838345,"lng":130.61468,"zip":"8114231"},{"town":"海老津駅前","koaza":"","lat":33.842129,"lng":130.623046,"zip":"8114236"},{"town":"海老津駅南一丁目","koaza":"","lat":33.838346,"lng":130.628654,"zip":"8114238"},{"town":"海老津駅南二丁目","koaza":"","lat":33.840255,"lng":130.629026,"zip":"8114238"},{"town":"海老津駅南三丁目","koaza":"","lat":33.838517,"lng":130.631245,"zip":"8114238"},{"town":"大字内浦","koaza":"","lat":33.86806,"lng":130.564715,"zip":"8114200"},{"town":"大字海老津","koaza":"","lat":33.830542,"lng":130.617495,"zip":"8114200"},{"town":"大字黒山","koaza":"","lat":33.870183,"lng":130.623755,"zip":"8114200"},{"town":"大字上畑","koaza":"","lat":33.827059,"lng":130.598608,"zip":"8114200"},{"town":"大字高倉","koaza":"","lat":33.841229,"lng":130.595618,"zip":"8114200"},{"town":"大字手野","koaza":"","lat":33.863617,"lng":130.580987,"zip":"8114200"},{"town":"大字戸切","koaza":"","lat":33.832518,"lng":130.635186,"zip":"8114200"},{"town":"大字糠塚","koaza":"","lat":33.868918,"lng":130.638602,"zip":"8114200"},{"town":"大字野間","koaza":"","lat":33.83889,"lng":130.610268,"zip":"8114200"},{"town":"大字波津","koaza":"","lat":33.880316,"lng":130.555633,"zip":"8114200"},{"town":"大字原","koaza":"","lat":33.874712,"lng":130.564663,"zip":"8114200"},{"town":"大字三吉","koaza":"","lat":33.8618,"lng":130.592183,"zip":"8114200"},{"town":"大字山田","koaza":"","lat":33.856792,"lng":130.631371,"zip":"8114200"},{"town":"大字吉木","koaza":"","lat":33.866297,"lng":130.607559,"zip":"8114200"},{"town":"公園通り一丁目","koaza":"","lat":33.849582,"lng":130.609788,"zip":"8114235"},{"town":"公園通り二丁目","koaza":"","lat":33.849655,"lng":130.607272,"zip":"8114235"},{"town":"公園通り三丁目","koaza":"","lat":33.851377,"lng":130.6058,"zip":"8114235"},{"town":"高陽台一丁目","koaza":"","lat":33.84182,"lng":130.627662,"zip":"8114227"},{"town":"高陽台二丁目","koaza":"","lat":33.841293,"lng":130.629558,"zip":"8114227"},{"town":"高陽台三丁目","koaza":"","lat":33.843159,"lng":130.631825,"zip":"8114227"},{"town":"桜台","koaza":"","lat":33.849259,"lng":130.624064,"zip":"8114217"},{"town":"中央台一丁目","koaza":"","lat":33.850755,"lng":130.619896,"zip":"8114218"},{"town":"中央台二丁目","koaza":"","lat":33.847195,"lng":130.619201,"zip":"8114218"},{"town":"中央台三丁目","koaza":"","lat":33.846601,"lng":130.622682,"zip":"8114218"},{"town":"中央台四丁目","koaza":"","lat":33.844281,"lng":130.621512,"zip":"8114218"},{"town":"中央台五丁目","koaza":"","lat":33.843709,"lng":130.618683,"zip":"8114218"},{"town":"中央台六丁目","koaza":"","lat":33.846815,"lng":130.616065,"zip":"8114218"},{"town":"鍋田一丁目","koaza":"","lat":33.848404,"lng":130.634754,"zip":"8114224"},{"town":"鍋田二丁目","koaza":"","lat":33.846366,"lng":130.634225,"zip":"8114224"},{"town":"野間一丁目","koaza":"","lat":33.85248,"lng":130.611106,"zip":"8114233"},{"town":"野間二丁目","koaza":"","lat":33.850596,"lng":130.614114,"zip":"8114233"},{"town":"野間三丁目","koaza":"","lat":33.854945,"lng":130.613418,"zip":"8114233"},{"town":"野間四丁目","koaza":"","lat":33.852043,"lng":130.61774,"zip":"8114233"},{"town":"野間五丁目","koaza":"","lat":33.853425,"lng":130.61959,"zip":"8114233"},{"town":"野間南","koaza":"","lat":33.844377,"lng":130.614374,"zip":"8114239"},{"town":"東高陽一丁目","koaza":"","lat":33.844706,"lng":130.636183,"zip":"8114225"},{"town":"東高陽二丁目","koaza":"","lat":33.846097,"lng":130.637009,"zip":"8114225"},{"town":"東高陽三丁目","koaza":"","lat":33.847484,"lng":130.639149,"zip":"8114225"},{"town":"東高倉一丁目","koaza":"","lat":33.846835,"lng":130.610662,"zip":"8114237"},{"town":"東高倉二丁目","koaza":"","lat":33.844973,"lng":130.611225,"zip":"8114237"},{"town":"東松原一丁目","koaza":"","lat":33.843105,"lng":130.625749,"zip":"8114228"},{"town":"東松原二丁目","koaza":"","lat":33.844921,"lng":130.627235,"zip":"8114228"},{"town":"東松原三丁目","koaza":"","lat":33.843552,"lng":130.629208,"zip":"8114228"},{"town":"東山田一丁目","koaza":"","lat":33.848239,"lng":130.627294,"zip":"8114220"},{"town":"東山田二丁目","koaza":"","lat":33.850022,"lng":130.633649,"zip":"8114220"},{"town":"松ケ台一丁目","koaza":"","lat":33.860364,"lng":130.620131,"zip":"8114214"},{"town":"松ケ台二丁目","koaza":"","lat":33.862314,"lng":130.620588,"zip":"8114214"},{"town":"松ケ台三丁目","koaza":"","lat":33.863346,"lng":130.62431,"zip":"8114214"},{"town":"松ケ台四丁目","koaza":"","lat":33.862839,"lng":130.626665,"zip":"8114214"},{"town":"松ケ台五丁目","koaza":"","lat":33.86042,"lng":130.624118,"zip":"8114214"},{"town":"南高陽","koaza":"","lat":33.842711,"lng":130.634655,"zip":"8114226"},{"town":"山田峠一丁目","koaza":"","lat":33.851449,"lng":130.635102,"zip":"8114223"},{"town":"山田峠二丁目","koaza":"","lat":33.851787,"lng":130.636504,"zip":"8114223"},{"town":"百合ケ丘一丁目","koaza":"","lat":33.845927,"lng":130.628187,"zip":"8114229"},{"town":"百合ケ丘二丁目","koaza":"","lat":33.847253,"lng":130.63078,"zip":"8114229"},{"town":"吉木西一丁目","koaza":"","lat":33.857862,"lng":130.60323,"zip":"8114242"},{"town":"吉木西二丁目","koaza":"","lat":33.861581,"lng":130.601955,"zip":"8114242"},{"town":"吉木東一丁目","koaza":"","lat":33.8551,"lng":130.607287,"zip":"8114241"},{"town":"吉木東二丁目","koaza":"","lat":33.858465,"lng":130.609076,"zip":"8114241"}]