[{"town":"江川台","koaza":"","lat":33.891672,"lng":130.682298,"zip":"8070142"},{"town":"大字芦屋","koaza":"","lat":33.884201,"lng":130.651902,"zip":"8070100"},{"town":"大字山鹿","koaza":"","lat":33.905809,"lng":130.667375,"zip":"8070100"},{"town":"祇園町","koaza":"","lat":33.890127,"lng":130.674527,"zip":"8070123"},{"town":"幸町","koaza":"","lat":33.894591,"lng":130.661196,"zip":"8070101"},{"town":"白浜町","koaza":"","lat":33.892672,"lng":130.660248,"zip":"8070111"},{"town":"正門町","koaza":"","lat":33.889761,"lng":130.661709,"zip":"8070112"},{"town":"船頭町","koaza":"","lat":33.892409,"lng":130.670248,"zip":"8070121"},{"town":"高浜町","koaza":"","lat":33.887923,"lng":130.670444,"zip":"8070122"},{"town":"中ノ浜","koaza":"","lat":33.893511,"lng":130.666507,"zip":"8070113"},{"town":"西浜町","koaza":"","lat":33.897011,"lng":130.662874,"zip":"8070102"},{"town":"花美坂","koaza":"","lat":33.904002,"lng":130.675181,"zip":"8070143"},{"town":"浜口町","koaza":"","lat":33.882507,"lng":130.671003,"zip":"8070132"},{"town":"緑ヶ丘","koaza":"","lat":33.884792,"lng":130.668171,"zip":"8070100"},{"town":"大字芦屋","koaza":"粟屋","lat":33.872106,"lng":130.650063,"zip":"8070100"},{"town":"大字芦屋","koaza":"大城","lat":33.876108,"lng":130.662319,"zip":"8070100"},{"town":"大字山鹿","koaza":"柏原","lat":33.909335,"lng":130.6653,"zip":"8070100"},{"town":"大字山鹿","koaza":"田屋","lat":33.914222,"lng":130.669102,"zip":"8070100"},{"town":"大字山鹿","koaza":"丸の内","lat":33.904183,"lng":130.665185,"zip":"8070100"},{"town":"大字山鹿","koaza":"正津ヶ浜","lat":33.907636,"lng":130.669488,"zip":"8070100"},{"town":"大字山鹿","koaza":"大君","lat":33.893623,"lng":130.679629,"zip":"8070100"}]