[{"town":"伊左座一丁目","koaza":"","lat":33.843702,"lng":130.688366,"zip":"8070056"},{"town":"伊左座二丁目","koaza":"","lat":33.841682,"lng":130.689356,"zip":"8070056"},{"town":"伊左座三丁目","koaza":"","lat":33.84272,"lng":130.693752,"zip":"8070056"},{"town":"伊左座四丁目","koaza":"","lat":33.840756,"lng":130.693783,"zip":"8070056"},{"town":"伊左座五丁目","koaza":"","lat":33.838662,"lng":130.690574,"zip":"8070056"},{"town":"猪熊十丁目","koaza":"","lat":33.886526,"lng":130.680237,"zip":"8070001"},{"town":"猪熊一丁目","koaza":"","lat":33.868188,"lng":130.682159,"zip":"8070001"},{"town":"猪熊二丁目","koaza":"","lat":33.872081,"lng":130.682294,"zip":"8070001"},{"town":"猪熊三丁目","koaza":"","lat":33.871373,"lng":130.686631,"zip":"8070001"},{"town":"猪熊四丁目","koaza":"","lat":33.875106,"lng":130.68184,"zip":"8070001"},{"town":"猪熊五丁目","koaza":"","lat":33.87522,"lng":130.68706,"zip":"8070001"},{"town":"猪熊六丁目","koaza":"","lat":33.877711,"lng":130.681435,"zip":"8070001"},{"town":"猪熊七丁目","koaza":"","lat":33.878935,"lng":130.686059,"zip":"8070001"},{"town":"猪熊八丁目","koaza":"","lat":33.881093,"lng":130.681304,"zip":"8070001"},{"town":"猪熊九丁目","koaza":"","lat":33.88245,"lng":130.684872,"zip":"8070001"},{"town":"梅ノ木団地","koaza":"","lat":33.868199,"lng":130.689086,"zip":"8070006"},{"town":"えぶり一丁目","koaza":"","lat":33.856051,"lng":130.684687,"zip":"8070031"},{"town":"えぶり二丁目","koaza":"","lat":33.859357,"lng":130.682635,"zip":"8070031"},{"town":"おかの台","koaza":"","lat":33.874869,"lng":130.691656,"zip":"8070003"},{"town":"鯉口","koaza":"","lat":33.853427,"lng":130.701059,"zip":"8070047"},{"town":"古賀一丁目","koaza":"","lat":33.863059,"lng":130.683575,"zip":"8070012"},{"town":"古賀二丁目","koaza":"","lat":33.866708,"lng":130.685065,"zip":"8070012"},{"town":"古賀三丁目","koaza":"","lat":33.863238,"lng":130.690129,"zip":"8070012"},{"town":"頃末北一丁目","koaza":"","lat":33.85487,"lng":130.694463,"zip":"8070022"},{"town":"頃末北二丁目","koaza":"","lat":33.854963,"lng":130.69098,"zip":"8070022"},{"town":"頃末北三丁目","koaza":"","lat":33.858705,"lng":130.692922,"zip":"8070022"},{"town":"頃末北四丁目","koaza":"","lat":33.859499,"lng":130.697143,"zip":"8070022"},{"town":"頃末南一丁目","koaza":"","lat":33.854252,"lng":130.697333,"zip":"8070025"},{"town":"頃末南二丁目","koaza":"","lat":33.855911,"lng":130.700451,"zip":"8070025"},{"town":"頃末南三丁目","koaza":"","lat":33.851063,"lng":130.695769,"zip":"8070025"},{"town":"下二西一丁目","koaza":"","lat":33.850417,"lng":130.690677,"zip":"8070052"},{"town":"下二西二丁目","koaza":"","lat":33.847879,"lng":130.692305,"zip":"8070052"},{"town":"下二西三丁目","koaza":"","lat":33.844909,"lng":130.692837,"zip":"8070052"},{"town":"下二東一丁目","koaza":"","lat":33.848153,"lng":130.695496,"zip":"8070053"},{"town":"下二東二丁目","koaza":"","lat":33.845547,"lng":130.697242,"zip":"8070053"},{"town":"下二東三丁目","koaza":"","lat":33.843134,"lng":130.698416,"zip":"8070053"},{"town":"高尾","koaza":"","lat":33.861311,"lng":130.697538,"zip":"8070024"},{"town":"高松","koaza":"","lat":33.87042,"lng":130.692745,"zip":"8070005"},{"town":"立屋敷一丁目","koaza":"","lat":33.851609,"lng":130.686971,"zip":"8070051"},{"town":"立屋敷二丁目","koaza":"","lat":33.848089,"lng":130.689566,"zip":"8070051"},{"town":"立屋敷三丁目","koaza":"","lat":33.847278,"lng":130.686324,"zip":"8070051"},{"town":"中央","koaza":"","lat":33.862593,"lng":130.694964,"zip":"8070023"},{"town":"樋口","koaza":"","lat":33.873523,"lng":130.689233,"zip":"8070002"},{"town":"樋口東","koaza":"","lat":33.873015,"lng":130.69486,"zip":"8070004"},{"town":"二西一丁目","koaza":"","lat":33.840774,"lng":130.695672,"zip":"8070055"},{"town":"二西二丁目","koaza":"","lat":33.837504,"lng":130.696074,"zip":"8070055"},{"town":"二西三丁目","koaza":"","lat":33.835953,"lng":130.692735,"zip":"8070055"},{"town":"二西四丁目","koaza":"","lat":33.833164,"lng":130.696167,"zip":"8070055"},{"town":"二東一丁目","koaza":"","lat":33.841005,"lng":130.699174,"zip":"8070054"},{"town":"二東二丁目","koaza":"","lat":33.838607,"lng":130.699572,"zip":"8070054"},{"town":"二東三丁目","koaza":"","lat":33.83564,"lng":130.700751,"zip":"8070054"},{"town":"緑ケ丘一丁目","koaza":"","lat":33.858949,"lng":130.687653,"zip":"8070011"},{"town":"緑ケ丘二丁目","koaza":"","lat":33.859939,"lng":130.686942,"zip":"8070011"},{"town":"宮尾台","koaza":"","lat":33.847464,"lng":130.712257,"zip":"8070041"},{"town":"美吉野","koaza":"","lat":33.85401,"lng":130.703055,"zip":"8070044"},{"town":"牟田","koaza":"","lat":33.867368,"lng":130.69312,"zip":"8070007"},{"town":"吉田団地","koaza":"","lat":33.842868,"lng":130.706404,"zip":"8070042"},{"town":"吉田西一丁目","koaza":"","lat":33.851728,"lng":130.700106,"zip":"8070046"},{"town":"吉田西二丁目","koaza":"","lat":33.848369,"lng":130.699713,"zip":"8070046"},{"town":"吉田西三丁目","koaza":"","lat":33.84637,"lng":130.701752,"zip":"8070046"},{"town":"吉田西四丁目","koaza":"","lat":33.843283,"lng":130.702905,"zip":"8070046"},{"town":"吉田西五丁目","koaza":"","lat":33.844268,"lng":130.705348,"zip":"8070046"},{"town":"吉田東一丁目","koaza":"","lat":33.851085,"lng":130.703069,"zip":"8070045"},{"town":"吉田東二丁目","koaza":"","lat":33.848985,"lng":130.703523,"zip":"8070045"},{"town":"吉田東三丁目","koaza":"","lat":33.84942,"lng":130.706968,"zip":"8070045"},{"town":"吉田東四丁目","koaza":"","lat":33.844738,"lng":130.707861,"zip":"8070045"},{"town":"吉田東五丁目","koaza":"","lat":33.847149,"lng":130.709692,"zip":"8070045"},{"town":"吉田南一丁目","koaza":"","lat":33.840434,"lng":130.70684,"zip":"8070048"},{"town":"吉田南二丁目","koaza":"","lat":33.838542,"lng":130.710075,"zip":"8070048"},{"town":"吉田南三丁目","koaza":"","lat":33.842102,"lng":130.711825,"zip":"8070048"},{"town":"吉田南四丁目","koaza":"","lat":33.843981,"lng":130.714593,"zip":"8070048"},{"town":"吉田南五丁目","koaza":"","lat":33.837968,"lng":130.71732,"zip":"8070048"}]