[{"town":"今光一丁目","koaza":"","lat":33.522734,"lng":130.431285,"zip":"8111211"},{"town":"今光二丁目","koaza":"","lat":33.520795,"lng":130.432652,"zip":"8111211"},{"town":"今光三丁目","koaza":"","lat":33.519829,"lng":130.431099,"zip":"8111211"},{"town":"今光四丁目","koaza":"","lat":33.516747,"lng":130.430394,"zip":"8111211"},{"town":"今光五丁目","koaza":"","lat":33.518814,"lng":130.428602,"zip":"8111211"},{"town":"今光六丁目","koaza":"","lat":33.521861,"lng":130.427368,"zip":"8111211"},{"town":"今光七丁目","koaza":"","lat":33.522197,"lng":130.425718,"zip":"8111211"},{"town":"今光八丁目","koaza":"","lat":33.521516,"lng":130.424429,"zip":"8111211"},{"town":"後野一丁目","koaza":"","lat":33.504618,"lng":130.417218,"zip":"8111241"},{"town":"後野二丁目","koaza":"","lat":33.506628,"lng":130.420702,"zip":"8111241"},{"town":"後野三丁目","koaza":"","lat":33.508526,"lng":130.417926,"zip":"8111241"},{"town":"後野四丁目","koaza":"","lat":33.506623,"lng":130.418231,"zip":"8111241"},{"town":"後野五丁目","koaza":"","lat":33.506073,"lng":130.412916,"zip":"8111241"},{"town":"恵子一丁目","koaza":"","lat":33.51507,"lng":130.419104,"zip":"8111255"},{"town":"恵子二丁目","koaza":"","lat":33.514522,"lng":130.417191,"zip":"8111255"},{"town":"恵子三丁目","koaza":"","lat":33.51196,"lng":130.418604,"zip":"8111255"},{"town":"恵子四丁目","koaza":"","lat":33.512385,"lng":130.416639,"zip":"8111255"},{"town":"恵子五丁目","koaza":"","lat":33.514304,"lng":130.414692,"zip":"8111255"},{"town":"恵子六丁目","koaza":"","lat":33.51292,"lng":130.413924,"zip":"8111255"},{"town":"王塚台一丁目","koaza":"","lat":33.502809,"lng":130.438057,"zip":"8111221"},{"town":"王塚台二丁目","koaza":"","lat":33.501309,"lng":130.435395,"zip":"8111221"},{"town":"王塚台三丁目","koaza":"","lat":33.500633,"lng":130.432854,"zip":"8111221"},{"town":"大字安徳","koaza":"","lat":33.496774,"lng":130.426114,"zip":"8111200"},{"town":"大字市ノ瀬","koaza":"","lat":33.439673,"lng":130.436644,"zip":"8111200"},{"town":"大字後野","koaza":"","lat":33.504454,"lng":130.40012,"zip":"8111200"},{"town":"大字埋金","koaza":"","lat":33.459785,"lng":130.445807,"zip":"8111200"},{"town":"大字恵子","koaza":"","lat":33.510335,"lng":130.419002,"zip":"8111200"},{"town":"大字片縄","koaza":"","lat":33.517261,"lng":130.408284,"zip":"8111200"},{"town":"大字上梶原","koaza":"","lat":33.481925,"lng":130.443092,"zip":"8111200"},{"town":"大字五ケ山","koaza":"","lat":33.417864,"lng":130.423756,"zip":"8111200"},{"town":"大字五郎丸","koaza":"","lat":33.506624,"lng":130.432255,"zip":"8111200"},{"town":"大字下梶原","koaza":"","lat":33.499005,"lng":130.441123,"zip":"8111200"},{"town":"大字仲","koaza":"","lat":33.503926,"lng":130.43023,"zip":"8111200"},{"town":"大字道善","koaza":"","lat":33.511696,"lng":130.420527,"zip":"8111200"},{"town":"大字中原","koaza":"","lat":33.506021,"lng":130.444957,"zip":"8111200"},{"town":"大字南面里","koaza":"","lat":33.462565,"lng":130.396442,"zip":"8111200"},{"town":"大字成竹","koaza":"","lat":33.454954,"lng":130.412194,"zip":"8111200"},{"town":"大字西隈","koaza":"","lat":33.498512,"lng":130.416585,"zip":"8111200"},{"town":"大字西畑","koaza":"","lat":33.488443,"lng":130.390894,"zip":"8111200"},{"town":"大字東隈","koaza":"","lat":33.503447,"lng":130.425921,"zip":"8111200"},{"town":"大字不入道","koaza":"","lat":33.472268,"lng":130.428092,"zip":"8111200"},{"town":"大字別所","koaza":"","lat":33.485469,"lng":130.408051,"zip":"8111200"},{"town":"大字松木","koaza":"","lat":33.502568,"lng":130.442959,"zip":"8111200"},{"town":"大字山田","koaza":"","lat":33.484521,"lng":130.423194,"zip":"8111200"},{"town":"片縄十丁目","koaza":"","lat":33.522042,"lng":130.423355,"zip":"8111201"},{"town":"片縄一丁目","koaza":"","lat":33.517451,"lng":130.426926,"zip":"8111201"},{"town":"片縄二丁目","koaza":"","lat":33.517112,"lng":130.425032,"zip":"8111201"},{"town":"片縄三丁目","koaza":"","lat":33.516828,"lng":130.423261,"zip":"8111201"},{"town":"片縄四丁目","koaza":"","lat":33.515692,"lng":130.421014,"zip":"8111201"},{"town":"片縄五丁目","koaza":"","lat":33.517425,"lng":130.419422,"zip":"8111201"},{"town":"片縄六丁目","koaza":"","lat":33.516646,"lng":130.416821,"zip":"8111201"},{"town":"片縄七丁目","koaza":"","lat":33.517943,"lng":130.417739,"zip":"8111201"},{"town":"片縄八丁目","koaza":"","lat":33.519507,"lng":130.422358,"zip":"8111201"},{"town":"片縄九丁目","koaza":"","lat":33.519939,"lng":130.423942,"zip":"8111201"},{"town":"片縄北一丁目","koaza":"","lat":33.519436,"lng":130.418097,"zip":"8111203"},{"town":"片縄北二丁目","koaza":"","lat":33.521482,"lng":130.418704,"zip":"8111203"},{"town":"片縄北三丁目","koaza":"","lat":33.523555,"lng":130.422285,"zip":"8111203"},{"town":"片縄北四丁目","koaza":"","lat":33.527714,"lng":130.423386,"zip":"8111203"},{"town":"片縄北五丁目","koaza":"","lat":33.524445,"lng":130.421072,"zip":"8111203"},{"town":"片縄北六丁目","koaza":"","lat":33.522154,"lng":130.415257,"zip":"8111203"},{"town":"片縄北七丁目","koaza":"","lat":33.523378,"lng":130.414853,"zip":"8111203"},{"town":"片縄北八丁目","koaza":"","lat":33.525424,"lng":130.41974,"zip":"8111203"},{"town":"片縄西一丁目","koaza":"","lat":33.516504,"lng":130.415906,"zip":"8111202"},{"town":"片縄西二丁目","koaza":"","lat":33.516038,"lng":130.414765,"zip":"8111202"},{"town":"片縄西三丁目","koaza":"","lat":33.514486,"lng":130.412674,"zip":"8111202"},{"town":"片縄西四丁目","koaza":"","lat":33.519025,"lng":130.413472,"zip":"8111202"},{"town":"片縄西五丁目","koaza":"","lat":33.521944,"lng":130.410951,"zip":"8111202"},{"town":"片縄東一丁目","koaza":"","lat":33.526596,"lng":130.42625,"zip":"8111204"},{"town":"上梶原一丁目","koaza":"","lat":33.495596,"lng":130.433613,"zip":"8111223"},{"town":"五郎丸一丁目","koaza":"","lat":33.513188,"lng":130.428077,"zip":"8111252"},{"town":"五郎丸二丁目","koaza":"","lat":33.510608,"lng":130.428826,"zip":"8111252"},{"town":"五郎丸三丁目","koaza":"","lat":33.509085,"lng":130.429688,"zip":"8111252"},{"town":"五郎丸四丁目","koaza":"","lat":33.505528,"lng":130.434495,"zip":"8111252"},{"town":"下梶原一丁目","koaza":"","lat":33.497317,"lng":130.435149,"zip":"8111222"},{"town":"下梶原二丁目","koaza":"","lat":33.498731,"lng":130.438128,"zip":"8111222"},{"town":"仲一丁目","koaza":"","lat":33.510283,"lng":130.426493,"zip":"8111253"},{"town":"仲二丁目","koaza":"","lat":33.508129,"lng":130.427119,"zip":"8111253"},{"town":"仲三丁目","koaza":"","lat":33.507106,"lng":130.423701,"zip":"8111253"},{"town":"仲四丁目","koaza":"","lat":33.501978,"lng":130.432085,"zip":"8111253"},{"town":"仲丸一丁目","koaza":"","lat":33.504085,"lng":130.43396,"zip":"8111256"},{"town":"道善一丁目","koaza":"","lat":33.512843,"lng":130.424726,"zip":"8111254"},{"town":"道善二丁目","koaza":"","lat":33.512499,"lng":130.422699,"zip":"8111254"},{"town":"道善三丁目","koaza":"","lat":33.509811,"lng":130.423286,"zip":"8111254"},{"town":"道善四丁目","koaza":"","lat":33.508947,"lng":130.419417,"zip":"8111254"},{"town":"道善五丁目","koaza":"","lat":33.511802,"lng":130.421483,"zip":"8111254"},{"town":"中原一丁目","koaza":"","lat":33.520284,"lng":130.433869,"zip":"8111213"},{"town":"中原二丁目","koaza":"","lat":33.518495,"lng":130.434077,"zip":"8111213"},{"town":"中原三丁目","koaza":"","lat":33.516711,"lng":130.434411,"zip":"8111213"},{"town":"中原四丁目","koaza":"","lat":33.513772,"lng":130.43473,"zip":"8111213"},{"town":"中原五丁目","koaza":"","lat":33.510384,"lng":130.437441,"zip":"8111213"},{"town":"中原六丁目","koaza":"","lat":33.513909,"lng":130.436416,"zip":"8111213"},{"town":"中原東一丁目","koaza":"","lat":33.511302,"lng":130.441737,"zip":"8111214"},{"town":"中原東二丁目","koaza":"","lat":33.510781,"lng":130.43963,"zip":"8111214"},{"town":"西隈一丁目","koaza":"","lat":33.501457,"lng":130.421773,"zip":"8111242"},{"town":"西隈二丁目","koaza":"","lat":33.496669,"lng":130.420097,"zip":"8111242"},{"town":"西隈三丁目","koaza":"","lat":33.500448,"lng":130.419281,"zip":"8111242"},{"town":"西隈四丁目","koaza":"","lat":33.494974,"lng":130.417662,"zip":"8111242"},{"town":"東隈一丁目","koaza":"","lat":33.504167,"lng":130.422112,"zip":"8111243"},{"town":"松木一丁目","koaza":"","lat":33.513502,"lng":130.433035,"zip":"8111251"},{"town":"松木二丁目","koaza":"","lat":33.509344,"lng":130.4346,"zip":"8111251"},{"town":"松木三丁目","koaza":"","lat":33.513443,"lng":130.430777,"zip":"8111251"},{"town":"松木四丁目","koaza":"","lat":33.507637,"lng":130.436313,"zip":"8111251"},{"town":"松木五丁目","koaza":"","lat":33.504616,"lng":130.436556,"zip":"8111251"},{"town":"松木六丁目","koaza":"","lat":33.503479,"lng":130.439622,"zip":"8111251"},{"town":"松原","koaza":"","lat":33.507512,"lng":130.438404,"zip":"8111215"},{"town":"観晴が丘","koaza":"","lat":33.50883,"lng":130.444792,"zip":"8111216"}]