[{"town":"相田","koaza":"","lat":33.670933,"lng":130.649704,"zip":"8200052"},{"town":"阿恵","koaza":"","lat":33.556776,"lng":130.642567,"zip":"8200704"},{"town":"赤坂","koaza":"","lat":33.620002,"lng":130.731438,"zip":"8200106"},{"town":"秋松","koaza":"","lat":33.621822,"lng":130.676401,"zip":"8200083"},{"town":"有井","koaza":"","lat":33.651494,"lng":130.720942,"zip":"8200112"},{"town":"有安","koaza":"","lat":33.64276,"lng":130.724552,"zip":"8200111"},{"town":"飯塚","koaza":"","lat":33.636163,"lng":130.686064,"zip":"8200041"},{"town":"伊川","koaza":"","lat":33.65363,"lng":130.64959,"zip":"8200054"},{"town":"伊岐須","koaza":"","lat":33.653164,"lng":130.662295,"zip":"8200053"},{"town":"入水","koaza":"","lat":33.619581,"lng":130.750999,"zip":"8200103"},{"town":"内野","koaza":"","lat":33.533075,"lng":130.637679,"zip":"8200706"},{"town":"潤野","koaza":"","lat":33.632388,"lng":130.656672,"zip":"8200021"},{"town":"枝国","koaza":"","lat":33.634674,"lng":130.672474,"zip":"8200081"},{"town":"大門","koaza":"","lat":33.657714,"lng":130.73182,"zip":"8200114"},{"town":"小正","koaza":"","lat":33.626113,"lng":130.662816,"zip":"8200089"},{"town":"鹿毛馬","koaza":"","lat":33.66937,"lng":130.741669,"zip":"8201112"},{"town":"片島一丁目","koaza":"","lat":33.644206,"lng":130.680783,"zip":"8200068"},{"town":"片島二丁目","koaza":"","lat":33.649099,"lng":130.683771,"zip":"8200068"},{"town":"片島三丁目","koaza":"","lat":33.648351,"lng":130.680966,"zip":"8200068"},{"town":"上三緒","koaza":"","lat":33.624578,"lng":130.711967,"zip":"8200013"},{"town":"柏の森","koaza":"","lat":33.642284,"lng":130.703596,"zip":"8200011"},{"town":"川島","koaza":"","lat":33.657032,"lng":130.690952,"zip":"8200002"},{"town":"川津","koaza":"","lat":33.652158,"lng":130.676384,"zip":"8200067"},{"town":"北古賀","koaza":"","lat":33.583812,"lng":130.650793,"zip":"8200703"},{"town":"口原","koaza":"","lat":33.689374,"lng":130.716765,"zip":"8201114"},{"town":"久保白","koaza":"","lat":33.597542,"lng":130.651366,"zip":"8200078"},{"town":"桑曲","koaza":"","lat":33.512141,"lng":130.638569,"zip":"8200707"},{"town":"建花寺","koaza":"","lat":33.662295,"lng":130.633976,"zip":"8200049"},{"town":"幸袋","koaza":"","lat":33.660476,"lng":130.680928,"zip":"8200066"},{"town":"菰田","koaza":"","lat":33.625127,"lng":130.691818,"zip":"8200015"},{"town":"菰田西一丁目","koaza":"","lat":33.627534,"lng":130.688798,"zip":"8200017"},{"town":"菰田西二丁目","koaza":"","lat":33.62976,"lng":130.688171,"zip":"8200017"},{"town":"菰田西三丁目","koaza":"","lat":33.635425,"lng":130.689813,"zip":"8200017"},{"town":"菰田東一丁目","koaza":"","lat":33.628947,"lng":130.692195,"zip":"8200016"},{"town":"菰田東二丁目","koaza":"","lat":33.631846,"lng":130.691668,"zip":"8200016"},{"town":"佐與","koaza":"","lat":33.668642,"lng":130.722249,"zip":"8201113"},{"town":"下三緒","koaza":"","lat":33.633287,"lng":130.705253,"zip":"8200012"},{"town":"目尾","koaza":"","lat":33.677247,"lng":130.701197,"zip":"8200062"},{"town":"舎利蔵","koaza":"","lat":33.61201,"lng":130.62519,"zip":"8200087"},{"town":"庄司","koaza":"","lat":33.680965,"lng":130.661448,"zip":"8200051"},{"town":"庄内元吉","koaza":"","lat":33.663759,"lng":130.732722,"zip":"8200113"},{"town":"新飯塚","koaza":"","lat":33.644124,"lng":130.690422,"zip":"8200005"},{"town":"新立岩","koaza":"","lat":33.647078,"lng":130.688992,"zip":"8200004"},{"town":"勢田","koaza":"","lat":33.692897,"lng":130.734442,"zip":"8201111"},{"town":"大日寺","koaza":"","lat":33.636454,"lng":130.637484,"zip":"8200046"},{"town":"大分","koaza":"","lat":33.584459,"lng":130.62472,"zip":"8200712"},{"town":"高倉","koaza":"","lat":33.60299,"lng":130.764387,"zip":"8200104"},{"town":"高田","koaza":"","lat":33.599203,"lng":130.632871,"zip":"8200079"},{"town":"多田","koaza":"","lat":33.643713,"lng":130.743246,"zip":"8200116"},{"town":"忠隈","koaza":"","lat":33.621987,"lng":130.687282,"zip":"8200071"},{"town":"立岩","koaza":"","lat":33.647637,"lng":130.698644,"zip":"8200003"},{"town":"太郎丸","koaza":"","lat":33.606679,"lng":130.671504,"zip":"8200076"},{"town":"筑穂元吉","koaza":"","lat":33.57258,"lng":130.636109,"zip":"8200705"},{"town":"津島","koaza":"","lat":33.676086,"lng":130.680866,"zip":"8200064"},{"town":"筒野","koaza":"","lat":33.601517,"lng":130.750054,"zip":"8200105"},{"town":"綱分","koaza":"","lat":33.631359,"lng":130.733878,"zip":"8200101"},{"town":"椿","koaza":"","lat":33.616886,"lng":130.658727,"zip":"8200084"},{"town":"津原","koaza":"","lat":33.609111,"lng":130.647113,"zip":"8200086"},{"town":"鶴三緒","koaza":"","lat":33.624682,"lng":130.699169,"zip":"8200014"},{"town":"天道","koaza":"","lat":33.603626,"lng":130.677344,"zip":"8200075"},{"town":"徳前","koaza":"","lat":33.63207,"lng":130.68164,"zip":"8200033"},{"town":"内住","koaza":"","lat":33.59009,"lng":130.588744,"zip":"8200713"},{"town":"中","koaza":"","lat":33.669251,"lng":130.675714,"zip":"8200065"},{"town":"長尾","koaza":"","lat":33.57461,"lng":130.649331,"zip":"8200701"},{"town":"鯰田","koaza":"","lat":33.663711,"lng":130.70213,"zip":"8200001"},{"town":"西徳前","koaza":"","lat":33.637624,"lng":130.679188,"zip":"8200031"},{"town":"西町","koaza":"","lat":33.640665,"lng":130.679114,"zip":"8200043"},{"town":"仁保","koaza":"","lat":33.65315,"lng":130.738851,"zip":"8200115"},{"town":"花瀬","koaza":"","lat":33.643213,"lng":130.656328,"zip":"8200045"},{"town":"東徳前","koaza":"","lat":33.635308,"lng":130.679906,"zip":"8200032"},{"town":"平塚","koaza":"","lat":33.568016,"lng":130.65639,"zip":"8200702"},{"town":"平恒","koaza":"","lat":33.606502,"lng":130.690307,"zip":"8200073"},{"town":"弁分","koaza":"","lat":33.621379,"lng":130.662235,"zip":"8200088"},{"town":"堀池","koaza":"","lat":33.627366,"lng":130.682012,"zip":"8200070"},{"town":"本町","koaza":"","lat":33.638944,"lng":130.684633,"zip":"8200042"},{"town":"馬敷","koaza":"","lat":33.564979,"lng":130.608807,"zip":"8200709"},{"town":"南尾","koaza":"","lat":33.616682,"lng":130.69001,"zip":"8200072"},{"town":"宮町","koaza":"","lat":33.641794,"lng":130.683147,"zip":"8200069"},{"town":"明星寺","koaza":"","lat":33.624844,"lng":130.635588,"zip":"8200022"},{"town":"椋本","koaza":"","lat":33.603699,"lng":130.660719,"zip":"8200077"},{"town":"八木山","koaza":"","lat":33.633712,"lng":130.602091,"zip":"8200047"},{"town":"安恒","koaza":"","lat":33.611425,"lng":130.658717,"zip":"8200085"},{"town":"柳橋","koaza":"","lat":33.673692,"lng":130.690092,"zip":"8200063"},{"town":"山口","koaza":"","lat":33.547409,"lng":130.609559,"zip":"8200711"},{"town":"山倉","koaza":"","lat":33.625231,"lng":130.744869,"zip":"8200102"},{"town":"弥山","koaza":"","lat":33.529166,"lng":130.663399,"zip":"8200708"},{"town":"横田","koaza":"","lat":33.645021,"lng":130.669217,"zip":"8200044"},{"town":"芳雄町","koaza":"","lat":33.640287,"lng":130.690999,"zip":"8200018"},{"town":"吉北","koaza":"","lat":33.683095,"lng":130.686486,"zip":"8200061"},{"town":"吉原町","koaza":"","lat":33.641376,"lng":130.686618,"zip":"8200040"},{"town":"楽市","koaza":"","lat":33.610213,"lng":130.677143,"zip":"8200074"},{"town":"蓮台寺","koaza":"","lat":33.649336,"lng":130.631651,"zip":"8200048"},{"town":"若菜","koaza":"","lat":33.628356,"lng":130.673941,"zip":"8200082"},{"town":"川津","koaza":"栗明","lat":33.648252,"lng":130.672923,"zip":"8200067"},{"town":"川津","koaza":"君ヶ坂","lat":33.651445,"lng":130.672854,"zip":"8200067"},{"town":"枝国","koaza":"長浦","lat":33.637446,"lng":130.673929,"zip":"8200081"},{"town":"川津","koaza":"向柳","lat":33.647471,"lng":130.674466,"zip":"8200067"},{"town":"柏の森","koaza":"大谷","lat":33.644982,"lng":130.713117,"zip":"8200011"}]