[{"town":"相の木","koaza":"","lat":33.691462,"lng":133.08025,"zip":"7911709"},{"town":"相の峰","koaza":"","lat":33.693109,"lng":133.004457,"zip":"7911705"},{"town":"有枝","koaza":"","lat":33.631169,"lng":132.942822,"zip":"7911505"},{"town":"入野","koaza":"","lat":33.661322,"lng":132.887833,"zip":"7911202"},{"town":"大川","koaza":"","lat":33.60982,"lng":132.937228,"zip":"7911504"},{"town":"大成","koaza":"","lat":33.707294,"lng":133.067178,"zip":"7911702"},{"town":"笠方","koaza":"","lat":33.732227,"lng":133.027412,"zip":"7911703"},{"town":"上黒岩","koaza":"","lat":33.614653,"lng":132.964568,"zip":"7911501"},{"town":"上野尻","koaza":"","lat":33.646689,"lng":132.89826,"zip":"7911206"},{"town":"上畑野川","koaza":"","lat":33.70471,"lng":132.917589,"zip":"7911211"},{"town":"久万","koaza":"","lat":33.657872,"lng":132.894815,"zip":"7911201"},{"town":"黒藤川","koaza":"","lat":33.593118,"lng":133.012751,"zip":"7911515"},{"town":"河の子","koaza":"","lat":33.671184,"lng":133.090575,"zip":"7911708"},{"town":"沢渡","koaza":"","lat":33.607621,"lng":132.994498,"zip":"7911514"},{"town":"仕出","koaza":"","lat":33.620114,"lng":132.991738,"zip":"7911513"},{"town":"渋草","koaza":"","lat":33.701884,"lng":133.027932,"zip":"7911701"},{"town":"下野尻","koaza":"","lat":33.634948,"lng":132.898007,"zip":"7911207"},{"town":"下畑野川","koaza":"","lat":33.671768,"lng":132.941076,"zip":"7911212"},{"town":"菅生","koaza":"","lat":33.658303,"lng":132.955331,"zip":"7911205"},{"town":"父野川","koaza":"","lat":33.604329,"lng":132.862031,"zip":"7911223"},{"town":"露峰","koaza":"","lat":33.611789,"lng":132.90091,"zip":"7911221"},{"town":"直瀬","koaza":"","lat":33.703722,"lng":132.9613,"zip":"7911213"},{"town":"中組","koaza":"","lat":33.672797,"lng":133.055831,"zip":"7911707"},{"town":"中黒岩","koaza":"","lat":33.605087,"lng":132.975107,"zip":"7911502"},{"town":"中津","koaza":"","lat":33.551849,"lng":133.043848,"zip":"7911803"},{"town":"七鳥","koaza":"","lat":33.644724,"lng":132.985056,"zip":"7911511"},{"town":"西谷","koaza":"","lat":33.519229,"lng":132.946971,"zip":"7911802"},{"town":"西明神","koaza":"","lat":33.667549,"lng":132.873813,"zip":"7911203"},{"town":"二名","koaza":"","lat":33.650931,"lng":132.85393,"zip":"7911222"},{"town":"東川","koaza":"","lat":33.641561,"lng":133.038619,"zip":"7911512"},{"town":"東明神","koaza":"","lat":33.698416,"lng":132.87756,"zip":"7911204"},{"town":"日野浦","koaza":"","lat":33.580925,"lng":132.966504,"zip":"7911503"},{"town":"本組","koaza":"","lat":33.674632,"lng":133.015034,"zip":"7911706"},{"town":"前組","koaza":"","lat":33.712464,"lng":132.992826,"zip":"7911704"},{"town":"柳井川","koaza":"","lat":33.532746,"lng":133.011704,"zip":"7911801"},{"town":"若山","koaza":"","lat":33.704691,"lng":133.098526,"zip":"7911710"}]