[{"town":"阿方","koaza":"","lat":34.067445,"lng":132.966444,"zip":"7940081"},{"town":"朝倉上","koaza":"","lat":33.971933,"lng":133.008027,"zip":"7991607"},{"town":"朝倉北","koaza":"","lat":33.993194,"lng":133.014454,"zip":"7991604"},{"town":"朝倉下","koaza":"","lat":34.001753,"lng":133.014371,"zip":"7991603"},{"town":"朝倉南","koaza":"","lat":33.989148,"lng":133.03035,"zip":"7991606"},{"town":"旭町一丁目","koaza":"","lat":34.063744,"lng":132.999794,"zip":"7940042"},{"town":"旭町二丁目","koaza":"","lat":34.062487,"lng":133.00123,"zip":"7940042"},{"town":"旭町三丁目","koaza":"","lat":34.06101,"lng":133.002238,"zip":"7940042"},{"town":"旭町四丁目","koaza":"","lat":34.059294,"lng":133.003813,"zip":"7940042"},{"town":"旭町五丁目","koaza":"","lat":34.057286,"lng":133.005172,"zip":"7940042"},{"town":"五十嵐","koaza":"","lat":34.030621,"lng":132.983636,"zip":"7940861"},{"town":"いこいの丘","koaza":"","lat":34.070253,"lng":132.978572,"zip":"7940085"},{"town":"石井町一丁目","koaza":"","lat":34.076301,"lng":132.988283,"zip":"7940006"},{"town":"石井町二丁目","koaza":"","lat":34.079513,"lng":132.986852,"zip":"7940006"},{"town":"石井町三丁目","koaza":"","lat":34.082305,"lng":132.986971,"zip":"7940006"},{"town":"石井町四丁目","koaza":"","lat":34.084415,"lng":132.986241,"zip":"7940006"},{"town":"石井町五丁目","koaza":"","lat":34.079977,"lng":132.980332,"zip":"7940006"},{"town":"石橋町一丁目","koaza":"","lat":34.046668,"lng":133.003018,"zip":"7940824"},{"town":"石橋町二丁目","koaza":"","lat":34.045076,"lng":133.003563,"zip":"7940824"},{"town":"泉川町一丁目","koaza":"","lat":34.057516,"lng":132.997028,"zip":"7940057"},{"town":"泉川町二丁目","koaza":"","lat":34.054662,"lng":132.992789,"zip":"7940057"},{"town":"今治村","koaza":"","lat":34.022239,"lng":133.093952,"zip":"7940014"},{"town":"内堀一丁目","koaza":"","lat":34.103784,"lng":132.96803,"zip":"7992116"},{"town":"内堀二丁目","koaza":"","lat":34.102948,"lng":132.965212,"zip":"7992116"},{"town":"内堀三丁目","koaza":"","lat":34.101566,"lng":132.962002,"zip":"7992116"},{"town":"馬越","koaza":"","lat":34.062119,"lng":132.98112,"zip":"7940062"},{"town":"馬越町一丁目","koaza":"","lat":34.055721,"lng":132.983855,"zip":"7940062"},{"town":"馬越町二丁目","koaza":"","lat":34.058998,"lng":132.982658,"zip":"7940062"},{"town":"馬越町三丁目","koaza":"","lat":34.057659,"lng":132.980851,"zip":"7940062"},{"town":"馬越町四丁目","koaza":"","lat":34.055246,"lng":132.981332,"zip":"7940062"},{"town":"馬島","koaza":"","lat":34.117553,"lng":132.992708,"zip":"7992123"},{"town":"枝堀町一丁目","koaza":"","lat":34.061724,"lng":133.008675,"zip":"7940035"},{"town":"枝堀町二丁目","koaza":"","lat":34.060502,"lng":133.009992,"zip":"7940035"},{"town":"枝堀町三丁目","koaza":"","lat":34.058506,"lng":133.010454,"zip":"7940035"},{"town":"恵美須町一丁目","koaza":"","lat":34.067381,"lng":133.005218,"zip":"7940031"},{"town":"恵美須町二丁目","koaza":"","lat":34.065859,"lng":133.006464,"zip":"7940031"},{"town":"恵美須町三丁目","koaza":"","lat":34.066105,"lng":133.008449,"zip":"7940031"},{"town":"延喜","koaza":"","lat":34.07329,"lng":132.958493,"zip":"7940084"},{"town":"大新田町一丁目","koaza":"","lat":34.08283,"lng":132.994296,"zip":"7940005"},{"town":"大新田町二丁目","koaza":"","lat":34.078516,"lng":132.993904,"zip":"7940005"},{"town":"大新田町三丁目","koaza":"","lat":34.079411,"lng":132.992779,"zip":"7940005"},{"town":"大新田町四丁目","koaza":"","lat":34.082828,"lng":132.992578,"zip":"7940005"},{"town":"大新田町五丁目","koaza":"","lat":34.080186,"lng":132.990399,"zip":"7940005"},{"town":"大西町大井浜","koaza":"","lat":34.0635,"lng":132.923462,"zip":"7992204"},{"town":"大西町九王","koaza":"","lat":34.084067,"lng":132.926907,"zip":"7992201"},{"town":"大西町紺原","koaza":"","lat":34.067114,"lng":132.938228,"zip":"7992202"},{"town":"大西町新町","koaza":"","lat":34.065189,"lng":132.93073,"zip":"7992203"},{"town":"大西町別府","koaza":"","lat":34.058588,"lng":132.895185,"zip":"7992209"},{"town":"大西町星浦","koaza":"","lat":34.049739,"lng":132.901623,"zip":"7992208"},{"town":"大西町宮脇","koaza":"","lat":34.052585,"lng":132.929187,"zip":"7992205"},{"town":"大西町山之内","koaza":"","lat":34.035657,"lng":132.909219,"zip":"7992207"},{"town":"大西町脇","koaza":"","lat":34.055476,"lng":132.915426,"zip":"7992206"},{"town":"大浜町一丁目","koaza":"","lat":34.096148,"lng":132.983253,"zip":"7940002"},{"town":"大浜町二丁目","koaza":"","lat":34.098195,"lng":132.981818,"zip":"7940002"},{"town":"大浜町三丁目","koaza":"","lat":34.10051,"lng":132.980712,"zip":"7940002"},{"town":"大三島町明日","koaza":"","lat":34.260029,"lng":133.007765,"zip":"7941303"},{"town":"大三島町台","koaza":"","lat":34.229008,"lng":133.005092,"zip":"7941305"},{"town":"大三島町浦戸","koaza":"","lat":34.217697,"lng":132.958711,"zip":"7941308"},{"town":"大三島町大見","koaza":"","lat":34.264114,"lng":132.989086,"zip":"7941302"},{"town":"大三島町口総","koaza":"","lat":34.216005,"lng":132.971626,"zip":"7941307"},{"town":"大三島町野々江","koaza":"","lat":34.21503,"lng":132.997318,"zip":"7941306"},{"town":"大三島町肥海","koaza":"","lat":34.273994,"lng":132.998095,"zip":"7941301"},{"town":"大三島町宮浦","koaza":"","lat":34.239033,"lng":133.025373,"zip":"7941304"},{"town":"大三島町宗方","koaza":"","lat":34.201649,"lng":132.95964,"zip":"7941309"},{"town":"風早町一丁目","koaza":"","lat":34.069007,"lng":133.003394,"zip":"7940017"},{"town":"風早町二丁目","koaza":"","lat":34.06979,"lng":133.002706,"zip":"7940017"},{"town":"風早町三丁目","koaza":"","lat":34.070746,"lng":133.00192,"zip":"7940017"},{"town":"風早町四丁目","koaza":"","lat":34.07209,"lng":133.000802,"zip":"7940017"},{"town":"片原町一丁目","koaza":"","lat":34.069063,"lng":133.005676,"zip":"7940013"},{"town":"片原町二丁目","koaza":"","lat":34.070639,"lng":133.004004,"zip":"7940013"},{"town":"片原町三丁目","koaza":"","lat":34.071596,"lng":133.00303,"zip":"7940013"},{"town":"片原町四丁目","koaza":"","lat":34.072593,"lng":133.00216,"zip":"7940013"},{"town":"片原町五丁目","koaza":"","lat":34.071995,"lng":133.003592,"zip":"7940013"},{"town":"片山一丁目","koaza":"","lat":34.054743,"lng":132.978966,"zip":"7940063"},{"town":"片山二丁目","koaza":"","lat":34.052016,"lng":132.982058,"zip":"7940063"},{"town":"片山三丁目","koaza":"","lat":34.05087,"lng":132.985173,"zip":"7940063"},{"town":"片山四丁目","koaza":"","lat":34.049094,"lng":132.986422,"zip":"7940063"},{"town":"河南町一丁目","koaza":"","lat":34.051351,"lng":132.994738,"zip":"7940822"},{"town":"河南町二丁目","koaza":"","lat":34.048916,"lng":132.994171,"zip":"7940822"},{"town":"河南町三丁目","koaza":"","lat":34.049935,"lng":132.991628,"zip":"7940822"},{"town":"鐘場町一丁目","koaza":"","lat":34.084919,"lng":132.991208,"zip":"7940004"},{"town":"鐘場町二丁目","koaza":"","lat":34.0842,"lng":132.989227,"zip":"7940004"},{"town":"上浦町甘崎","koaza":"","lat":34.242044,"lng":133.041052,"zip":"7941403"},{"town":"上浦町井口","koaza":"","lat":34.262214,"lng":133.032107,"zip":"7941402"},{"town":"上浦町盛","koaza":"","lat":34.288275,"lng":133.015129,"zip":"7941401"},{"town":"上浦町瀬戸","koaza":"","lat":34.221949,"lng":133.047066,"zip":"7941404"},{"town":"上徳","koaza":"","lat":34.036732,"lng":133.014342,"zip":"7991511"},{"town":"上徳一丁目","koaza":"","lat":34.043615,"lng":133.015501,"zip":"7991511"},{"town":"唐子台西一丁目","koaza":"","lat":34.033827,"lng":133.02559,"zip":"7991532"},{"town":"唐子台西二丁目","koaza":"","lat":34.032165,"lng":133.025844,"zip":"7991532"},{"town":"唐子台西三丁目","koaza":"","lat":34.030273,"lng":133.026014,"zip":"7991532"},{"town":"唐子台東一丁目","koaza":"","lat":34.032881,"lng":133.028424,"zip":"7991531"},{"town":"唐子台東二丁目","koaza":"","lat":34.030599,"lng":133.028421,"zip":"7991531"},{"town":"唐子台東三丁目","koaza":"","lat":34.028458,"lng":133.029383,"zip":"7991531"},{"town":"神宮","koaza":"","lat":34.051169,"lng":132.954931,"zip":"7940074"},{"town":"祇園町一丁目","koaza":"","lat":34.055947,"lng":133.007714,"zip":"7940804"},{"town":"祇園町二丁目","koaza":"","lat":34.05493,"lng":133.005615,"zip":"7940804"},{"town":"祇園町三丁目","koaza":"","lat":34.053997,"lng":133.003475,"zip":"7940804"},{"town":"菊間町池原","koaza":"","lat":34.036049,"lng":132.862892,"zip":"7992304"},{"town":"菊間町川上","koaza":"","lat":34.011936,"lng":132.866332,"zip":"7992307"},{"town":"菊間町河之内","koaza":"","lat":34.012666,"lng":132.881883,"zip":"7992306"},{"town":"菊間町高田","koaza":"","lat":34.019424,"lng":132.846243,"zip":"7992309"},{"town":"菊間町佐方","koaza":"","lat":34.047604,"lng":132.886606,"zip":"7992301"},{"town":"菊間町種","koaza":"","lat":34.041023,"lng":132.871958,"zip":"7992302"},{"town":"菊間町田之尻","koaza":"","lat":34.018543,"lng":132.815362,"zip":"7992312"},{"town":"菊間町長坂","koaza":"","lat":34.024155,"lng":132.834506,"zip":"7992310"},{"town":"菊間町中川","koaza":"","lat":34.003824,"lng":132.858575,"zip":"7992308"},{"town":"菊間町西山","koaza":"","lat":34.008269,"lng":132.832451,"zip":"7992311"},{"town":"菊間町浜","koaza":"","lat":34.036417,"lng":132.847936,"zip":"7992303"},{"town":"菊間町松尾","koaza":"","lat":34.020776,"lng":132.8697,"zip":"7992305"},{"town":"北高下町一丁目","koaza":"","lat":34.054301,"lng":133.014409,"zip":"7940812"},{"town":"北高下町二丁目","koaza":"","lat":34.05244,"lng":133.012266,"zip":"7940812"},{"town":"北高下町三丁目","koaza":"","lat":34.050983,"lng":133.0108,"zip":"7940812"},{"town":"北高下町四丁目","koaza":"","lat":34.049721,"lng":133.009244,"zip":"7940812"},{"town":"北鳥生町一丁目","koaza":"","lat":34.056517,"lng":133.011944,"zip":"7940803"},{"town":"北鳥生町二丁目","koaza":"","lat":34.054919,"lng":133.008973,"zip":"7940803"},{"town":"北鳥生町三丁目","koaza":"","lat":34.053655,"lng":133.007255,"zip":"7940803"},{"town":"北鳥生町四丁目","koaza":"","lat":34.05194,"lng":133.005303,"zip":"7940803"},{"town":"北鳥生町五丁目","koaza":"","lat":34.049862,"lng":133.003177,"zip":"7940803"},{"town":"北浜町","koaza":"","lat":34.077674,"lng":132.997974,"zip":"7940011"},{"town":"北日吉町一丁目","koaza":"","lat":34.064505,"lng":132.991031,"zip":"7940054"},{"town":"北日吉町二丁目","koaza":"","lat":34.061639,"lng":132.987193,"zip":"7940054"},{"town":"北日吉町三丁目","koaza":"","lat":34.05937,"lng":132.985746,"zip":"7940054"},{"town":"北宝来町一丁目","koaza":"","lat":34.064123,"lng":132.995396,"zip":"7940028"},{"town":"北宝来町二丁目","koaza":"","lat":34.065407,"lng":132.994125,"zip":"7940028"},{"town":"北宝来町三丁目","koaza":"","lat":34.066592,"lng":132.992724,"zip":"7940028"},{"town":"北宝来町四丁目","koaza":"","lat":34.067698,"lng":132.991471,"zip":"7940028"},{"town":"喜田村","koaza":"","lat":34.039383,"lng":133.018398,"zip":"7991502"},{"town":"喜田村一丁目","koaza":"","lat":34.045455,"lng":133.018533,"zip":"7991502"},{"town":"喜田村二丁目","koaza":"","lat":34.047487,"lng":133.019627,"zip":"7991502"},{"town":"喜田村三丁目","koaza":"","lat":34.04869,"lng":133.020893,"zip":"7991502"},{"town":"喜田村四丁目","koaza":"","lat":34.048444,"lng":133.0236,"zip":"7991502"},{"town":"喜田村五丁目","koaza":"","lat":34.045095,"lng":133.025114,"zip":"7991502"},{"town":"喜田村六丁目","koaza":"","lat":34.044306,"lng":133.022631,"zip":"7991502"},{"town":"喜田村七丁目","koaza":"","lat":34.042783,"lng":133.020258,"zip":"7991502"},{"town":"喜田村八丁目","koaza":"","lat":34.040899,"lng":133.018976,"zip":"7991502"},{"town":"衣干町一丁目","koaza":"","lat":34.050233,"lng":133.017143,"zip":"7940813"},{"town":"衣干町二丁目","koaza":"","lat":34.049383,"lng":133.017687,"zip":"7940813"},{"town":"衣干町三丁目","koaza":"","lat":34.047891,"lng":133.015378,"zip":"7940813"},{"town":"衣干町四丁目","koaza":"","lat":34.045804,"lng":133.01305,"zip":"7940813"},{"town":"共栄町一丁目","koaza":"","lat":34.067322,"lng":133.000524,"zip":"7940024"},{"town":"共栄町二丁目","koaza":"","lat":34.068144,"lng":132.999834,"zip":"7940024"},{"town":"共栄町三丁目","koaza":"","lat":34.069021,"lng":132.999097,"zip":"7940024"},{"town":"共栄町四丁目","koaza":"","lat":34.070339,"lng":132.998055,"zip":"7940024"},{"town":"共栄町五丁目","koaza":"","lat":34.071638,"lng":132.997275,"zip":"7940024"},{"town":"蔵敷町一丁目","koaza":"","lat":34.058469,"lng":132.999739,"zip":"7940044"},{"town":"蔵敷町二丁目","koaza":"","lat":34.056601,"lng":133.001376,"zip":"7940044"},{"town":"クリエイティブヒルズ","koaza":"","lat":34.049244,"lng":132.967167,"zip":"7940069"},{"town":"来島","koaza":"","lat":34.125389,"lng":132.979247,"zip":"7992122"},{"town":"鯉池町一丁目","koaza":"","lat":34.052946,"lng":132.987634,"zip":"7940059"},{"town":"鯉池町二丁目","koaza":"","lat":34.052473,"lng":132.989083,"zip":"7940059"},{"town":"鯉池町三丁目","koaza":"","lat":34.0513,"lng":132.990003,"zip":"7940059"},{"town":"小泉一丁目","koaza":"","lat":34.050479,"lng":132.974899,"zip":"7940064"},{"town":"小泉二丁目","koaza":"","lat":34.049728,"lng":132.977022,"zip":"7940064"},{"town":"小泉三丁目","koaza":"","lat":34.048483,"lng":132.978943,"zip":"7940064"},{"town":"小泉四丁目","koaza":"","lat":34.04657,"lng":132.980044,"zip":"7940064"},{"town":"小泉五丁目","koaza":"","lat":34.045631,"lng":132.983181,"zip":"7940064"},{"town":"郷桜井一丁目","koaza":"","lat":34.018869,"lng":133.031498,"zip":"7991523"},{"town":"郷桜井二丁目","koaza":"","lat":34.012047,"lng":133.036228,"zip":"7991523"},{"town":"郷桜井三丁目","koaza":"","lat":34.014106,"lng":133.037238,"zip":"7991523"},{"town":"郷桜井四丁目","koaza":"","lat":34.013855,"lng":133.039753,"zip":"7991523"},{"town":"広紹寺町一丁目","koaza":"","lat":34.054153,"lng":133.001016,"zip":"7940805"},{"town":"広紹寺町二丁目","koaza":"","lat":34.052035,"lng":133.002326,"zip":"7940805"},{"town":"郷新屋敷町一丁目","koaza":"","lat":34.044242,"lng":133.001803,"zip":"7940826"},{"town":"郷新屋敷町二丁目","koaza":"","lat":34.042657,"lng":133.003986,"zip":"7940826"},{"town":"郷新屋敷町三丁目","koaza":"","lat":34.041307,"lng":133.002228,"zip":"7940826"},{"town":"郷新屋敷町四丁目","koaza":"","lat":34.042977,"lng":133.000152,"zip":"7940826"},{"town":"郷新屋敷町五丁目","koaza":"","lat":34.040818,"lng":133.000123,"zip":"7940826"},{"town":"高地町一丁目","koaza":"","lat":34.071103,"lng":132.983802,"zip":"7940051"},{"town":"高地町二丁目","koaza":"","lat":34.075734,"lng":132.976221,"zip":"7940051"},{"town":"郷本町一丁目","koaza":"","lat":34.048052,"lng":132.996979,"zip":"7940823"},{"town":"郷本町二丁目","koaza":"","lat":34.046835,"lng":132.995041,"zip":"7940823"},{"town":"郷本町三丁目","koaza":"","lat":34.046103,"lng":132.992464,"zip":"7940823"},{"town":"小浦町二丁目","koaza":"","lat":34.111722,"lng":132.974534,"zip":"7992111"},{"town":"郷六ヶ内町一丁目","koaza":"","lat":34.046078,"lng":132.999519,"zip":"7940000"},{"town":"郷六ヶ内町二丁目","koaza":"","lat":34.0446,"lng":132.997979,"zip":"7940000"},{"town":"郷六ヶ内町三丁目","koaza":"","lat":34.04338,"lng":132.996768,"zip":"7940000"},{"town":"黄金町一丁目","koaza":"","lat":34.066169,"lng":133.002584,"zip":"7940037"},{"town":"黄金町二丁目","koaza":"","lat":34.064434,"lng":133.004375,"zip":"7940037"},{"town":"黄金町三丁目","koaza":"","lat":34.062591,"lng":133.00491,"zip":"7940037"},{"town":"黄金町四丁目","koaza":"","lat":34.060817,"lng":133.007163,"zip":"7940037"},{"town":"黄金町五丁目","koaza":"","lat":34.059533,"lng":133.008375,"zip":"7940037"},{"town":"黄金町六丁目","koaza":"","lat":34.057733,"lng":133.008548,"zip":"7940037"},{"town":"国分","koaza":"","lat":34.029098,"lng":133.015824,"zip":"7991533"},{"town":"国分一丁目","koaza":"","lat":34.031752,"lng":133.022762,"zip":"7991533"},{"town":"国分二丁目","koaza":"","lat":34.031597,"lng":133.019575,"zip":"7991533"},{"town":"国分三丁目","koaza":"","lat":34.027731,"lng":133.019983,"zip":"7991533"},{"town":"国分四丁目","koaza":"","lat":34.02653,"lng":133.027037,"zip":"7991533"},{"town":"国分五丁目","koaza":"","lat":34.02578,"lng":133.03098,"zip":"7991533"},{"town":"国分六丁目","koaza":"","lat":34.023707,"lng":133.02509,"zip":"7991533"},{"town":"国分七丁目","koaza":"","lat":34.024489,"lng":133.019714,"zip":"7991533"},{"town":"米屋町一丁目","koaza":"","lat":34.068273,"lng":133.002199,"zip":"7940021"},{"town":"米屋町二丁目","koaza":"","lat":34.069112,"lng":133.001477,"zip":"7940021"},{"town":"米屋町三丁目","koaza":"","lat":34.070034,"lng":133.00075,"zip":"7940021"},{"town":"米屋町四丁目","koaza":"","lat":34.071359,"lng":132.999642,"zip":"7940021"},{"town":"古谷","koaza":"","lat":34.004965,"lng":132.990102,"zip":"7991601"},{"town":"栄町一丁目","koaza":"","lat":34.067681,"lng":133.001246,"zip":"7940023"},{"town":"栄町二丁目","koaza":"","lat":34.068534,"lng":133.000548,"zip":"7940023"},{"town":"栄町三丁目","koaza":"","lat":34.069425,"lng":132.999786,"zip":"7940023"},{"town":"栄町四丁目","koaza":"","lat":34.070819,"lng":132.998591,"zip":"7940023"},{"town":"桜井","koaza":"","lat":34.004348,"lng":133.049499,"zip":"7991522"},{"town":"桜井一丁目","koaza":"","lat":34.024301,"lng":133.040887,"zip":"7991522"},{"town":"桜井二丁目","koaza":"","lat":34.022157,"lng":133.035943,"zip":"7991522"},{"town":"桜井三丁目","koaza":"","lat":34.020627,"lng":133.031938,"zip":"7991522"},{"town":"桜井四丁目","koaza":"","lat":34.018522,"lng":133.03838,"zip":"7991522"},{"town":"桜井五丁目","koaza":"","lat":34.021485,"lng":133.041981,"zip":"7991522"},{"town":"桜井六丁目","koaza":"","lat":34.018657,"lng":133.043872,"zip":"7991522"},{"town":"桜井団地一丁目","koaza":"","lat":34.027123,"lng":133.017066,"zip":"7991534"},{"town":"桜井団地二丁目","koaza":"","lat":34.026008,"lng":133.016142,"zip":"7991534"},{"town":"桜井団地三丁目","koaza":"","lat":34.025114,"lng":133.015538,"zip":"7991534"},{"town":"桜井団地四丁目","koaza":"","lat":34.023821,"lng":133.014885,"zip":"7991534"},{"town":"桜井団地五丁目","koaza":"","lat":34.023718,"lng":133.013501,"zip":"7991534"},{"town":"地堀一丁目","koaza":"","lat":34.105346,"lng":132.965755,"zip":"7992117"},{"town":"地堀二丁目","koaza":"","lat":34.104544,"lng":132.964435,"zip":"7992117"},{"town":"地堀三丁目","koaza":"","lat":34.105819,"lng":132.963705,"zip":"7992117"},{"town":"地堀四丁目","koaza":"","lat":34.104831,"lng":132.9628,"zip":"7992117"},{"town":"地堀五丁目","koaza":"","lat":34.104023,"lng":132.961947,"zip":"7992117"},{"town":"地堀六丁目","koaza":"","lat":34.103017,"lng":132.960446,"zip":"7992117"},{"town":"しまなみの杜","koaza":"","lat":34.071585,"lng":132.971549,"zip":"7940086"},{"town":"しまなみヒルズ","koaza":"","lat":34.069274,"lng":132.971902,"zip":"7940087"},{"town":"末広町一丁目","koaza":"","lat":34.065511,"lng":133.001605,"zip":"7940038"},{"town":"末広町二丁目","koaza":"","lat":34.063954,"lng":133.002881,"zip":"7940038"},{"town":"末広町三丁目","koaza":"","lat":34.062071,"lng":133.00406,"zip":"7940038"},{"town":"末広町四丁目","koaza":"","lat":34.060151,"lng":133.00581,"zip":"7940038"},{"town":"関前大下","koaza":"","lat":34.192192,"lng":132.925127,"zip":"7941103"},{"town":"関前岡村","koaza":"","lat":34.187489,"lng":132.877259,"zip":"7941101"},{"town":"関前小大下","koaza":"","lat":34.189904,"lng":132.901628,"zip":"7941102"},{"town":"蒼社町一丁目","koaza":"","lat":34.055497,"lng":132.997286,"zip":"7940058"},{"town":"蒼社町二丁目","koaza":"","lat":34.053435,"lng":132.9938,"zip":"7940058"},{"town":"杣田","koaza":"","lat":34.09065,"lng":132.956483,"zip":"7992114"},{"town":"大正町一丁目","koaza":"","lat":34.066814,"lng":132.9996,"zip":"7940025"},{"town":"大正町二丁目","koaza":"","lat":34.068221,"lng":132.998475,"zip":"7940025"},{"town":"大正町三丁目","koaza":"","lat":34.069994,"lng":132.996769,"zip":"7940025"},{"town":"大正町四丁目","koaza":"","lat":34.070955,"lng":132.995981,"zip":"7940025"},{"town":"大正町五丁目","koaza":"","lat":34.071952,"lng":132.995506,"zip":"7940025"},{"town":"大正町六丁目","koaza":"","lat":34.073373,"lng":132.994567,"zip":"7940025"},{"town":"大正町七丁目","koaza":"","lat":34.074882,"lng":132.993335,"zip":"7940025"},{"town":"高市","koaza":"","lat":34.025404,"lng":133.00985,"zip":"7991512"},{"town":"高橋","koaza":"","lat":34.036697,"lng":132.967233,"zip":"7940066"},{"town":"高橋ふれあいの丘","koaza":"","lat":34.040843,"lng":132.958921,"zip":"7940067"},{"town":"高部","koaza":"","lat":34.095635,"lng":132.969063,"zip":"7992113"},{"town":"宅間","koaza":"","lat":34.077466,"lng":132.942137,"zip":"7940083"},{"town":"立花町一丁目","koaza":"","lat":34.053055,"lng":132.997457,"zip":"7940821"},{"town":"立花町二丁目","koaza":"","lat":34.051384,"lng":132.998474,"zip":"7940821"},{"town":"立花町三丁目","koaza":"","lat":34.049964,"lng":132.999896,"zip":"7940821"},{"town":"立花町四丁目","koaza":"","lat":34.048347,"lng":133.001237,"zip":"7940821"},{"town":"玉川町大野","koaza":"","lat":34.022825,"lng":132.943507,"zip":"7940102"},{"town":"玉川町鬼原","koaza":"","lat":33.997617,"lng":132.943899,"zip":"7940117"},{"town":"玉川町葛谷","koaza":"","lat":34.00818,"lng":132.89886,"zip":"7940125"},{"town":"玉川町桂","koaza":"","lat":34.010437,"lng":132.927383,"zip":"7940107"},{"town":"玉川町木地","koaza":"","lat":33.936752,"lng":132.960744,"zip":"7940122"},{"town":"玉川町高野","koaza":"","lat":34.012162,"lng":132.947799,"zip":"7940115"},{"town":"玉川町小鴨部","koaza":"","lat":34.014087,"lng":132.966533,"zip":"7940112"},{"town":"玉川町三反地","koaza":"","lat":34.017599,"lng":132.939696,"zip":"7940101"},{"town":"玉川町摺木","koaza":"","lat":34.029166,"lng":132.938857,"zip":"7940104"},{"town":"玉川町長谷","koaza":"","lat":34.004702,"lng":132.93343,"zip":"7940109"},{"town":"玉川町中村","koaza":"","lat":34.020335,"lng":132.953072,"zip":"7940111"},{"town":"玉川町鍋地","koaza":"","lat":34.023914,"lng":132.919267,"zip":"7940106"},{"town":"玉川町鈍川","koaza":"","lat":33.978095,"lng":132.948289,"zip":"7940121"},{"town":"玉川町畑寺","koaza":"","lat":34.001107,"lng":132.955412,"zip":"7940116"},{"town":"玉川町別所","koaza":"","lat":34.017358,"lng":132.975659,"zip":"7940113"},{"town":"玉川町法界寺","koaza":"","lat":34.032688,"lng":132.949432,"zip":"7940103"},{"town":"玉川町御厩","koaza":"","lat":34.012718,"lng":132.912474,"zip":"7940108"},{"town":"玉川町八幡","koaza":"","lat":34.02794,"lng":132.977714,"zip":"7940114"},{"town":"玉川町與和木","koaza":"","lat":34.033293,"lng":132.92785,"zip":"7940105"},{"town":"玉川町龍岡上","koaza":"","lat":33.947679,"lng":132.917215,"zip":"7940124"},{"town":"玉川町龍岡下","koaza":"","lat":33.9933,"lng":132.909232,"zip":"7940123"},{"town":"旦","koaza":"","lat":34.015021,"lng":133.026161,"zip":"7991536"},{"town":"近見町一丁目","koaza":"","lat":34.090563,"lng":132.985589,"zip":"7940007"},{"town":"近見町二丁目","koaza":"","lat":34.087933,"lng":132.985326,"zip":"7940007"},{"town":"近見町三丁目","koaza":"","lat":34.092511,"lng":132.981478,"zip":"7940007"},{"town":"近見町四丁目","koaza":"","lat":34.088573,"lng":132.980953,"zip":"7940007"},{"town":"近見町五丁目","koaza":"","lat":34.087819,"lng":132.975464,"zip":"7940007"},{"town":"辻堂一丁目","koaza":"","lat":34.040496,"lng":133.008736,"zip":"7940827"},{"town":"辻堂二丁目","koaza":"","lat":34.040304,"lng":133.006078,"zip":"7940827"},{"town":"辻堂三丁目","koaza":"","lat":34.038995,"lng":133.005224,"zip":"7940827"},{"town":"辻堂四丁目","koaza":"","lat":34.037972,"lng":133.00398,"zip":"7940827"},{"town":"土橋町一丁目","koaza":"","lat":34.0481,"lng":133.006481,"zip":"7940815"},{"town":"土橋町二丁目","koaza":"","lat":34.046578,"lng":133.004812,"zip":"7940815"},{"town":"天保山町一丁目","koaza":"","lat":34.068833,"lng":133.008993,"zip":"7940032"},{"town":"天保山町二丁目","koaza":"","lat":34.066316,"lng":133.010986,"zip":"7940032"},{"town":"天保山町三丁目","koaza":"","lat":34.064584,"lng":133.012864,"zip":"7940032"},{"town":"天保山町四丁目","koaza":"","lat":34.064886,"lng":133.015092,"zip":"7940032"},{"town":"天保山町五丁目","koaza":"","lat":34.062958,"lng":133.016291,"zip":"7940032"},{"town":"天保山町六丁目","koaza":"","lat":34.060585,"lng":133.019061,"zip":"7940032"},{"town":"通町一丁目","koaza":"","lat":34.066886,"lng":133.003865,"zip":"7940036"},{"town":"通町二丁目","koaza":"","lat":34.065305,"lng":133.005135,"zip":"7940036"},{"town":"通町三丁目","koaza":"","lat":34.063484,"lng":133.007384,"zip":"7940036"},{"town":"常盤町一丁目","koaza":"","lat":34.068632,"lng":133.004559,"zip":"7940015"},{"town":"常盤町二丁目","koaza":"","lat":34.06745,"lng":133.002287,"zip":"7940015"},{"town":"常盤町三丁目","koaza":"","lat":34.066268,"lng":133.000227,"zip":"7940015"},{"town":"常盤町四丁目","koaza":"","lat":34.063824,"lng":132.997761,"zip":"7940015"},{"town":"常盤町五丁目","koaza":"","lat":34.06096,"lng":132.994766,"zip":"7940015"},{"town":"常盤町六丁目","koaza":"","lat":34.058102,"lng":132.991179,"zip":"7940015"},{"town":"常盤町七丁目","koaza":"","lat":34.055931,"lng":132.988937,"zip":"7940015"},{"town":"常盤町八丁目","koaza":"","lat":34.054135,"lng":132.986602,"zip":"7940015"},{"town":"徳重","koaza":"","lat":34.036394,"lng":132.985403,"zip":"7940863"},{"town":"富田新港一丁目","koaza":"","lat":34.049259,"lng":133.029882,"zip":"7991503"},{"town":"富田新港二丁目","koaza":"","lat":34.047285,"lng":133.027272,"zip":"7991503"},{"town":"長沢","koaza":"","lat":33.999056,"lng":133.039937,"zip":"7991527"},{"town":"中寺","koaza":"","lat":34.037716,"lng":132.991148,"zip":"7940840"},{"town":"中浜町一丁目","koaza":"","lat":34.069242,"lng":133.00398,"zip":"7940016"},{"town":"中浜町二丁目","koaza":"","lat":34.070202,"lng":133.003167,"zip":"7940016"},{"town":"中浜町三丁目","koaza":"","lat":34.071158,"lng":133.002472,"zip":"7940016"},{"town":"中浜町四丁目","koaza":"","lat":34.07233,"lng":133.001445,"zip":"7940016"},{"town":"中日吉町一丁目","koaza":"","lat":34.062072,"lng":132.992226,"zip":"7940055"},{"town":"中日吉町二丁目","koaza":"","lat":34.059723,"lng":132.990223,"zip":"7940055"},{"town":"中日吉町三丁目","koaza":"","lat":34.057254,"lng":132.986967,"zip":"7940055"},{"town":"中堀一丁目","koaza":"","lat":34.100997,"lng":132.966075,"zip":"7992115"},{"town":"中堀二丁目","koaza":"","lat":34.099889,"lng":132.963399,"zip":"7992115"},{"town":"中堀三丁目","koaza":"","lat":34.100864,"lng":132.959788,"zip":"7992115"},{"town":"中堀四丁目","koaza":"","lat":34.100703,"lng":132.957991,"zip":"7992115"},{"town":"波方町大浦","koaza":"","lat":34.113951,"lng":132.963879,"zip":"7992110"},{"town":"波方町岡","koaza":"","lat":34.110418,"lng":132.930705,"zip":"7992108"},{"town":"波方町小部","koaza":"","lat":34.102454,"lng":132.929789,"zip":"7992103"},{"town":"波方町郷","koaza":"","lat":34.108409,"lng":132.960254,"zip":"7992110"},{"town":"波方町波方","koaza":"","lat":34.124868,"lng":132.948135,"zip":"7992101"},{"town":"波方町西浦","koaza":"","lat":34.129969,"lng":132.941307,"zip":"7992107"},{"town":"波方町樋口","koaza":"","lat":34.096523,"lng":132.943191,"zip":"7992102"},{"town":"波方町馬刀潟","koaza":"","lat":34.114599,"lng":132.922625,"zip":"7992105"},{"town":"波方町宮崎","koaza":"","lat":34.115241,"lng":132.904989,"zip":"7992104"},{"town":"波方町森上","koaza":"","lat":34.119077,"lng":132.932931,"zip":"7992106"},{"town":"波方町養老","koaza":"","lat":34.108913,"lng":132.943133,"zip":"7992109"},{"town":"にぎわい広場","koaza":"","lat":34.044275,"lng":132.962099,"zip":"7940068"},{"town":"新谷","koaza":"","lat":34.020049,"lng":132.988614,"zip":"7940850"},{"town":"登畑","koaza":"","lat":34.01972,"lng":133.016694,"zip":"7991535"},{"town":"野間","koaza":"","lat":34.056388,"lng":132.944093,"zip":"7940082"},{"town":"拝志","koaza":"","lat":34.040737,"lng":133.026185,"zip":"7991504"},{"town":"伯方町有津","koaza":"","lat":34.203033,"lng":133.088204,"zip":"7942301"},{"town":"伯方町伊方","koaza":"","lat":34.221683,"lng":133.07466,"zip":"7942303"},{"town":"伯方町叶浦","koaza":"","lat":34.208379,"lng":133.079126,"zip":"7942302"},{"town":"伯方町北浦","koaza":"","lat":34.227039,"lng":133.097078,"zip":"7942304"},{"town":"伯方町木浦","koaza":"","lat":34.206212,"lng":133.111833,"zip":"7942305"},{"town":"波止浜","koaza":"","lat":34.103644,"lng":132.971287,"zip":"7992112"},{"town":"波止浜一丁目","koaza":"","lat":34.106266,"lng":132.967892,"zip":"7992112"},{"town":"波止浜二丁目","koaza":"","lat":34.107837,"lng":132.966174,"zip":"7992112"},{"town":"波止浜三丁目","koaza":"","lat":34.109229,"lng":132.967404,"zip":"7992112"},{"town":"波止浜四丁目","koaza":"","lat":34.111454,"lng":132.96713,"zip":"7992112"},{"town":"八町西一丁目","koaza":"","lat":34.047495,"lng":132.988554,"zip":"7940832"},{"town":"八町西二丁目","koaza":"","lat":34.046586,"lng":132.989801,"zip":"7940832"},{"town":"八町西三丁目","koaza":"","lat":34.044384,"lng":132.990084,"zip":"7940832"},{"town":"八町西四丁目","koaza":"","lat":34.043133,"lng":132.994431,"zip":"7940832"},{"town":"八町西五丁目","koaza":"","lat":34.042089,"lng":132.992591,"zip":"7940832"},{"town":"八町東一丁目","koaza":"","lat":34.041066,"lng":132.997024,"zip":"7940831"},{"town":"八町東二丁目","koaza":"","lat":34.040137,"lng":132.995266,"zip":"7940831"},{"town":"八町東三丁目","koaza":"","lat":34.037748,"lng":132.998154,"zip":"7940831"},{"town":"八町東四丁目","koaza":"","lat":34.03928,"lng":132.999488,"zip":"7940831"},{"town":"八町東五丁目","koaza":"","lat":34.037065,"lng":133.002573,"zip":"7940831"},{"town":"八町東六丁目","koaza":"","lat":34.035213,"lng":133.001548,"zip":"7940831"},{"town":"東鳥生町一丁目","koaza":"","lat":34.057951,"lng":133.017398,"zip":"7940801"},{"town":"東鳥生町二丁目","koaza":"","lat":34.055549,"lng":133.018087,"zip":"7940801"},{"town":"東鳥生町三丁目","koaza":"","lat":34.054096,"lng":133.018311,"zip":"7940801"},{"town":"東鳥生町四丁目","koaza":"","lat":34.052193,"lng":133.019993,"zip":"7940801"},{"town":"東鳥生町五丁目","koaza":"","lat":34.055899,"lng":133.022713,"zip":"7940801"},{"town":"東村","koaza":"","lat":34.038185,"lng":133.019991,"zip":"7991506"},{"town":"東村一丁目","koaza":"","lat":34.043233,"lng":133.028504,"zip":"7991506"},{"town":"東村二丁目","koaza":"","lat":34.041429,"lng":133.030725,"zip":"7991506"},{"town":"東村三丁目","koaza":"","lat":34.039889,"lng":133.033195,"zip":"7991506"},{"town":"東村四丁目","koaza":"","lat":34.038113,"lng":133.028162,"zip":"7991506"},{"town":"東村五丁目","koaza":"","lat":34.038859,"lng":133.023267,"zip":"7991506"},{"town":"東村南一丁目","koaza":"","lat":34.036434,"lng":133.03311,"zip":"7991507"},{"town":"東村南二丁目","koaza":"","lat":34.035748,"lng":133.027432,"zip":"7991507"},{"town":"東門町一丁目","koaza":"","lat":34.064795,"lng":133.010133,"zip":"7940033"},{"town":"東門町二丁目","koaza":"","lat":34.063319,"lng":133.011364,"zip":"7940033"},{"town":"東門町三丁目","koaza":"","lat":34.061544,"lng":133.012025,"zip":"7940033"},{"town":"東門町四丁目","koaza":"","lat":34.059604,"lng":133.013318,"zip":"7940033"},{"town":"東門町五丁目","koaza":"","lat":34.061825,"lng":133.015016,"zip":"7940033"},{"town":"東門町六丁目","koaza":"","lat":34.060343,"lng":133.016784,"zip":"7940033"},{"town":"古国分一丁目","koaza":"","lat":34.03121,"lng":133.03729,"zip":"7991521"},{"town":"古国分二丁目","koaza":"","lat":34.03207,"lng":133.032933,"zip":"7991521"},{"town":"古国分三丁目","koaza":"","lat":34.026752,"lng":133.035132,"zip":"7991521"},{"town":"別宮町一丁目","koaza":"","lat":34.066671,"lng":132.998065,"zip":"7940026"},{"town":"別宮町二丁目","koaza":"","lat":34.068068,"lng":132.997114,"zip":"7940026"},{"town":"別宮町三丁目","koaza":"","lat":34.069014,"lng":132.995528,"zip":"7940026"},{"town":"別宮町四丁目","koaza":"","lat":34.070503,"lng":132.993998,"zip":"7940026"},{"town":"別宮町五丁目","koaza":"","lat":34.071528,"lng":132.99197,"zip":"7940026"},{"town":"別宮町六丁目","koaza":"","lat":34.072762,"lng":132.992829,"zip":"7940026"},{"town":"別宮町七丁目","koaza":"","lat":34.07484,"lng":132.990744,"zip":"7940026"},{"town":"別宮町八丁目","koaza":"","lat":34.073033,"lng":132.9898,"zip":"7940026"},{"town":"別宮町九丁目","koaza":"","lat":34.070818,"lng":132.989317,"zip":"7940026"},{"town":"別名","koaza":"","lat":34.044394,"lng":132.974477,"zip":"7940065"},{"town":"本町一丁目","koaza":"","lat":34.068585,"lng":133.00284,"zip":"7940018"},{"town":"本町二丁目","koaza":"","lat":34.069463,"lng":133.002097,"zip":"7940018"},{"town":"本町三丁目","koaza":"","lat":34.070373,"lng":133.001353,"zip":"7940018"},{"town":"本町四丁目","koaza":"","lat":34.071668,"lng":133.000221,"zip":"7940018"},{"town":"本町五丁目","koaza":"","lat":34.073323,"lng":132.998639,"zip":"7940018"},{"town":"本町六丁目","koaza":"","lat":34.075663,"lng":132.996776,"zip":"7940018"},{"town":"本町七丁目","koaza":"","lat":34.07767,"lng":132.995789,"zip":"7940018"},{"town":"孫兵衛作","koaza":"","lat":33.986108,"lng":133.050179,"zip":"7991526"},{"town":"町谷","koaza":"","lat":34.019203,"lng":133.001519,"zip":"7991514"},{"town":"松木","koaza":"","lat":34.031383,"lng":133.003467,"zip":"7991513"},{"town":"松本町一丁目","koaza":"","lat":34.065078,"lng":133.000801,"zip":"7940041"},{"town":"松本町二丁目","koaza":"","lat":34.063403,"lng":133.002032,"zip":"7940041"},{"town":"松本町三丁目","koaza":"","lat":34.061566,"lng":133.00351,"zip":"7940041"},{"town":"松本町四丁目","koaza":"","lat":34.059664,"lng":133.004876,"zip":"7940041"},{"town":"松本町五丁目","koaza":"","lat":34.058546,"lng":133.006426,"zip":"7940041"},{"town":"美須賀町一丁目","koaza":"","lat":34.064291,"lng":133.008763,"zip":"7940034"},{"town":"美須賀町二丁目","koaza":"","lat":34.06247,"lng":133.00995,"zip":"7940034"},{"town":"美須賀町三丁目","koaza":"","lat":34.06101,"lng":133.011265,"zip":"7940034"},{"town":"美須賀町四丁目","koaza":"","lat":34.059108,"lng":133.012,"zip":"7940034"},{"town":"湊町一丁目","koaza":"","lat":34.086956,"lng":132.992262,"zip":"7940003"},{"town":"湊町二丁目","koaza":"","lat":34.091261,"lng":132.989332,"zip":"7940003"},{"town":"南高下町一丁目","koaza":"","lat":34.052134,"lng":133.015203,"zip":"7940811"},{"town":"南高下町二丁目","koaza":"","lat":34.050931,"lng":133.015979,"zip":"7940811"},{"town":"南高下町三丁目","koaza":"","lat":34.04933,"lng":133.013106,"zip":"7940811"},{"town":"南高下町四丁目","koaza":"","lat":34.047935,"lng":133.011125,"zip":"7940811"},{"town":"南大門町一丁目","koaza":"","lat":34.065272,"lng":132.997035,"zip":"7940027"},{"town":"南大門町二丁目","koaza":"","lat":34.066587,"lng":132.995554,"zip":"7940027"},{"town":"南大門町三丁目","koaza":"","lat":34.067809,"lng":132.993999,"zip":"7940027"},{"town":"南大門町四丁目","koaza":"","lat":34.069485,"lng":132.992278,"zip":"7940027"},{"town":"南鳥生町一丁目","koaza":"","lat":34.055269,"lng":133.012598,"zip":"7940802"},{"town":"南鳥生町二丁目","koaza":"","lat":34.053767,"lng":133.010425,"zip":"7940802"},{"town":"南鳥生町三丁目","koaza":"","lat":34.052344,"lng":133.009034,"zip":"7940802"},{"town":"南鳥生町四丁目","koaza":"","lat":34.050594,"lng":133.006951,"zip":"7940802"},{"town":"南日吉町一丁目","koaza":"","lat":34.059425,"lng":132.996082,"zip":"7940056"},{"town":"南日吉町二丁目","koaza":"","lat":34.057309,"lng":132.993421,"zip":"7940056"},{"town":"南日吉町三丁目","koaza":"","lat":34.054793,"lng":132.990888,"zip":"7940056"},{"town":"南宝来町一丁目","koaza":"","lat":34.06138,"lng":132.9979,"zip":"7940043"},{"town":"南宝来町二丁目","koaza":"","lat":34.059999,"lng":133.000801,"zip":"7940043"},{"town":"南宝来町三丁目","koaza":"","lat":34.058545,"lng":133.0026,"zip":"7940043"},{"town":"美保町一丁目","koaza":"","lat":34.073406,"lng":133.000702,"zip":"7940012"},{"town":"美保町二丁目","koaza":"","lat":34.074035,"lng":133.000388,"zip":"7940012"},{"town":"美保町三丁目","koaza":"","lat":34.075037,"lng":132.999557,"zip":"7940012"},{"town":"宮ヶ崎","koaza":"","lat":34.014382,"lng":133.011501,"zip":"7991537"},{"town":"宮窪町四阪島","koaza":"","lat":34.107576,"lng":133.187313,"zip":"7920080"},{"town":"宮窪町友浦","koaza":"","lat":34.160669,"lng":133.086398,"zip":"7942204"},{"town":"宮窪町早川","koaza":"","lat":34.187983,"lng":133.04194,"zip":"7942201"},{"town":"宮窪町宮窪","koaza":"","lat":34.169471,"lng":133.070385,"zip":"7942203"},{"town":"宮窪町余所国","koaza":"","lat":34.185449,"lng":133.057805,"zip":"7942202"},{"town":"宮下町一丁目","koaza":"","lat":34.068459,"lng":132.98826,"zip":"7940052"},{"town":"宮下町二丁目","koaza":"","lat":34.066346,"lng":132.988327,"zip":"7940052"},{"town":"宮下町三丁目","koaza":"","lat":34.067827,"lng":132.985607,"zip":"7940052"},{"town":"室屋町一丁目","koaza":"","lat":34.067976,"lng":133.001733,"zip":"7940022"},{"town":"室屋町二丁目","koaza":"","lat":34.068843,"lng":133.000839,"zip":"7940022"},{"town":"室屋町三丁目","koaza":"","lat":34.069745,"lng":133.000165,"zip":"7940022"},{"town":"室屋町四丁目","koaza":"","lat":34.071017,"lng":132.999132,"zip":"7940022"},{"town":"室屋町五丁目","koaza":"","lat":34.072794,"lng":132.997048,"zip":"7940022"},{"town":"室屋町六丁目","koaza":"","lat":34.074453,"lng":132.995479,"zip":"7940022"},{"town":"室屋町七丁目","koaza":"","lat":34.076484,"lng":132.994582,"zip":"7940022"},{"town":"矢田","koaza":"","lat":34.050479,"lng":132.963303,"zip":"7940073"},{"town":"山方町一丁目","koaza":"","lat":34.066118,"lng":132.981856,"zip":"7940053"},{"town":"山方町二丁目","koaza":"","lat":34.062363,"lng":132.98361,"zip":"7940053"},{"town":"山口","koaza":"","lat":34.002614,"lng":133.002218,"zip":"7991602"},{"town":"山路","koaza":"","lat":34.060421,"lng":132.975967,"zip":"7940072"},{"town":"山路町一丁目","koaza":"","lat":34.059682,"lng":132.978092,"zip":"7940071"},{"town":"湯ノ浦","koaza":"","lat":33.995589,"lng":133.052914,"zip":"7991525"},{"town":"横田町一丁目","koaza":"","lat":34.046186,"lng":133.009331,"zip":"7940814"},{"town":"横田町二丁目","koaza":"","lat":34.04407,"lng":133.011124,"zip":"7940814"},{"town":"横田町三丁目","koaza":"","lat":34.04248,"lng":133.009362,"zip":"7940814"},{"town":"横田町四丁目","koaza":"","lat":34.043979,"lng":133.007259,"zip":"7940814"},{"town":"吉海町幸新田","koaza":"","lat":34.145972,"lng":133.039805,"zip":"7942111"},{"town":"吉海町正味","koaza":"","lat":34.114799,"lng":133.017708,"zip":"7942117"},{"town":"吉海町田浦","koaza":"","lat":34.185814,"lng":133.031858,"zip":"7942101"},{"town":"吉海町津島","koaza":"","lat":34.152985,"lng":133.000623,"zip":"7942119"},{"town":"吉海町泊","koaza":"","lat":34.172208,"lng":133.041672,"zip":"7942102"},{"town":"吉海町名駒","koaza":"","lat":34.112473,"lng":133.026209,"zip":"7942116"},{"town":"吉海町仁江","koaza":"","lat":34.147059,"lng":133.059687,"zip":"7942104"},{"town":"吉海町福田","koaza":"","lat":34.156853,"lng":133.047325,"zip":"7942103"},{"town":"吉海町臥間","koaza":"","lat":34.129776,"lng":133.021537,"zip":"7942118"},{"town":"吉海町南浦","koaza":"","lat":34.115056,"lng":133.03771,"zip":"7942115"},{"town":"吉海町名","koaza":"","lat":34.127746,"lng":133.039263,"zip":"7942116"},{"town":"吉海町椋名","koaza":"","lat":34.136702,"lng":133.022445,"zip":"7942113"},{"town":"吉海町八幡","koaza":"","lat":34.144023,"lng":133.044017,"zip":"7942110"},{"town":"四村","koaza":"","lat":34.034855,"lng":132.981697,"zip":"7940862"},{"town":"吉海町本庄","koaza":"","lat":34.145938,"lng":133.029357,"zip":"7942112"},{"town":"小浦町一丁目","koaza":"","lat":34.109682,"lng":132.972517,"zip":"7992111"},{"town":"砂場町二丁目","koaza":"","lat":34.110533,"lng":132.977767,"zip":"7940001"},{"town":"砂場町一丁目","koaza":"","lat":34.104196,"lng":132.978451,"zip":"7940001"},{"town":"馬越","koaza":"二番耕地","lat":34.062125,"lng":132.981443,"zip":"7940062"},{"town":"古谷","koaza":"甲","lat":34.008946,"lng":133.004267,"zip":"7991601"},{"town":"町谷","koaza":"大坪","lat":34.028644,"lng":133.006203,"zip":"7991514"},{"town":"山口","koaza":"甲","lat":34.006364,"lng":133.006485,"zip":"7991602"},{"town":"朝倉下","koaza":"乙","lat":34.000759,"lng":133.007248,"zip":"7991603"},{"town":"朝倉南","koaza":"甲","lat":33.989102,"lng":133.015299,"zip":"7991606"},{"town":"朝倉北","koaza":"甲","lat":33.997741,"lng":133.016938,"zip":"7991604"},{"town":"朝倉下","koaza":"甲","lat":33.998327,"lng":133.018505,"zip":"7991603"},{"town":"朝倉南","koaza":"乙","lat":33.994448,"lng":133.027491,"zip":"7991606"}]