[{"town":"麻生","koaza":"","lat":33.770781,"lng":132.778757,"zip":"7912114"},{"town":"岩谷","koaza":"","lat":33.729103,"lng":132.807846,"zip":"7912142"},{"town":"岩谷口","koaza":"","lat":33.735696,"lng":132.803116,"zip":"7912141"},{"town":"鵜崎","koaza":"","lat":33.713154,"lng":132.76623,"zip":"7912100"},{"town":"多居谷","koaza":"","lat":33.634628,"lng":132.820779,"zip":"7912206"},{"town":"大角蔵","koaza":"","lat":33.730553,"lng":132.752612,"zip":"7912126"},{"town":"大平","koaza":"","lat":33.714325,"lng":132.817746,"zip":"7912145"},{"town":"大南","koaza":"","lat":33.727812,"lng":132.789519,"zip":"7912132"},{"town":"上原町","koaza":"","lat":33.763302,"lng":132.782484,"zip":"7912117"},{"town":"川井","koaza":"","lat":33.751608,"lng":132.774301,"zip":"7912123"},{"town":"川登","koaza":"","lat":33.701809,"lng":132.807837,"zip":"7912143"},{"town":"北川毛","koaza":"","lat":33.739711,"lng":132.784622,"zip":"7912131"},{"town":"五本松","koaza":"","lat":33.724888,"lng":132.778979,"zip":"7912133"},{"town":"重光","koaza":"","lat":33.781942,"lng":132.780621,"zip":"7912112"},{"town":"拾町","koaza":"","lat":33.780407,"lng":132.785321,"zip":"7912113"},{"town":"千足","koaza":"","lat":33.744062,"lng":132.799391,"zip":"7912122"},{"town":"仙波","koaza":"","lat":33.654447,"lng":132.821558,"zip":"7912207"},{"town":"総津","koaza":"","lat":33.635243,"lng":132.791192,"zip":"7912205"},{"town":"高市","koaza":"","lat":33.627712,"lng":132.765063,"zip":"7912204"},{"town":"高尾田","koaza":"","lat":33.779877,"lng":132.795277,"zip":"7912103"},{"town":"田ノ浦","koaza":"","lat":33.769787,"lng":132.76889,"zip":"7912124"},{"town":"玉谷","koaza":"","lat":33.66717,"lng":132.784857,"zip":"7912202"},{"town":"外山","koaza":"","lat":33.722261,"lng":132.766258,"zip":"7912134"},{"town":"中野川","koaza":"","lat":33.652368,"lng":132.77679,"zip":"7912203"},{"town":"七折","koaza":"","lat":33.748251,"lng":132.753741,"zip":"7912125"},{"town":"原町","koaza":"","lat":33.770285,"lng":132.792972,"zip":"7912116"},{"town":"万年","koaza":"","lat":33.709039,"lng":132.781822,"zip":"7912144"},{"town":"満穂","koaza":"","lat":33.669587,"lng":132.813843,"zip":"7912201"},{"town":"宮内","koaza":"","lat":33.751182,"lng":132.795067,"zip":"7912121"},{"town":"三角","koaza":"","lat":33.766437,"lng":132.78025,"zip":"7912115"},{"town":"八倉","koaza":"","lat":33.785312,"lng":132.775897,"zip":"7912111"}]