[{"town":"大字恵久美","koaza":"","lat":33.793632,"lng":132.7284,"zip":"7913100"},{"town":"大字大溝","koaza":"","lat":33.782901,"lng":132.725452,"zip":"7913100"},{"town":"大字上高柳","koaza":"","lat":33.798934,"lng":132.731295,"zip":"7913100"},{"town":"大字神崎","koaza":"","lat":33.789132,"lng":132.741114,"zip":"7913100"},{"town":"大字北川原","koaza":"","lat":33.801752,"lng":132.702067,"zip":"7913100"},{"town":"大字北黒田","koaza":"","lat":33.781156,"lng":132.711217,"zip":"7913100"},{"town":"大字出作","koaza":"","lat":33.789567,"lng":132.751819,"zip":"7913100"},{"town":"大字昌農内","koaza":"","lat":33.800268,"lng":132.720447,"zip":"7913100"},{"town":"大字大間","koaza":"","lat":33.80007,"lng":132.739031,"zip":"7913100"},{"town":"大字筒井","koaza":"","lat":33.790916,"lng":132.699561,"zip":"7913100"},{"town":"大字鶴吉","koaza":"","lat":33.782538,"lng":132.738795,"zip":"7913100"},{"town":"大字徳丸","koaza":"","lat":33.792518,"lng":132.760613,"zip":"7913100"},{"town":"大字中川原","koaza":"","lat":33.799982,"lng":132.753524,"zip":"7913100"},{"town":"大字永田","koaza":"","lat":33.788627,"lng":132.726055,"zip":"7913100"},{"town":"大字西古泉","koaza":"","lat":33.794521,"lng":132.713929,"zip":"7913100"},{"town":"大字西高柳","koaza":"","lat":33.80492,"lng":132.721432,"zip":"7913100"},{"town":"大字浜","koaza":"","lat":33.789199,"lng":132.701735,"zip":"7913100"},{"town":"大字東古泉","koaza":"","lat":33.787475,"lng":132.720514,"zip":"7913100"},{"town":"大字南黒田","koaza":"","lat":33.774073,"lng":132.712713,"zip":"7913100"},{"town":"大字横田","koaza":"","lat":33.776557,"lng":132.729227,"zip":"7913100"}]