[{"town":"市場","koaza":"","lat":33.738342,"lng":132.697864,"zip":"7993122"},{"town":"稲荷","koaza":"","lat":33.741984,"lng":132.716554,"zip":"7993121"},{"town":"上野","koaza":"","lat":33.772114,"lng":132.748155,"zip":"7993103"},{"town":"鵜崎","koaza":"","lat":33.708383,"lng":132.760227,"zip":"7993136"},{"town":"大平","koaza":"","lat":33.71682,"lng":132.705197,"zip":"7993131"},{"town":"尾崎","koaza":"","lat":33.74953,"lng":132.693569,"zip":"7993127"},{"town":"上吾川","koaza":"","lat":33.753505,"lng":132.717571,"zip":"7993112"},{"town":"上唐川","koaza":"","lat":33.719582,"lng":132.738218,"zip":"7993134"},{"town":"上三谷","koaza":"","lat":33.758596,"lng":132.737474,"zip":"7993104"},{"town":"米湊","koaza":"","lat":33.753461,"lng":132.703302,"zip":"7993113"},{"town":"下吾川","koaza":"","lat":33.767149,"lng":132.708137,"zip":"7993111"},{"town":"下唐川","koaza":"","lat":33.723069,"lng":132.726737,"zip":"7993133"},{"town":"下三谷","koaza":"","lat":33.762106,"lng":132.726404,"zip":"7993105"},{"town":"中村","koaza":"","lat":33.737128,"lng":132.69213,"zip":"7993123"},{"town":"中山町出渕","koaza":"","lat":33.636057,"lng":132.729836,"zip":"7913203"},{"town":"中山町栗田","koaza":"","lat":33.675699,"lng":132.764973,"zip":"7913202"},{"town":"中山町佐礼谷","koaza":"","lat":33.687918,"lng":132.731771,"zip":"7913201"},{"town":"中山町中山","koaza":"","lat":33.647622,"lng":132.689024,"zip":"7913205"},{"town":"灘町","koaza":"","lat":33.757871,"lng":132.700308,"zip":"7993114"},{"town":"平岡","koaza":"","lat":33.710343,"lng":132.723086,"zip":"7993132"},{"town":"双海町大久保","koaza":"","lat":33.656058,"lng":132.61012,"zip":"7993311"},{"town":"双海町上灘","koaza":"","lat":33.673651,"lng":132.666341,"zip":"7993202"},{"town":"双海町串","koaza":"","lat":33.628737,"lng":132.570715,"zip":"7993313"},{"town":"双海町高野川","koaza":"","lat":33.700887,"lng":132.670124,"zip":"7993201"},{"town":"双海町高岸","koaza":"","lat":33.670083,"lng":132.630464,"zip":"7993207"},{"town":"本郡","koaza":"","lat":33.745711,"lng":132.688823,"zip":"7993126"},{"town":"三秋","koaza":"","lat":33.71496,"lng":132.679638,"zip":"7993124"},{"town":"三島町","koaza":"","lat":33.748817,"lng":132.698128,"zip":"7993128"},{"town":"湊町","koaza":"","lat":33.762201,"lng":132.701816,"zip":"7993115"},{"town":"宮下","koaza":"","lat":33.773096,"lng":132.761045,"zip":"7993102"},{"town":"森","koaza":"","lat":33.739379,"lng":132.683632,"zip":"7993125"},{"town":"八倉","koaza":"","lat":33.782784,"lng":132.769076,"zip":"7993101"},{"town":"両澤","koaza":"","lat":33.71987,"lng":132.753929,"zip":"7993100"},{"town":"米湊","koaza":"安広","lat":33.757102,"lng":132.705117,"zip":"7993113"},{"town":"下吾川","koaza":"馬塚","lat":33.772775,"lng":132.708144,"zip":"7993111"}]