[{"town":"穴井","koaza":"","lat":33.398859,"lng":132.397361,"zip":"7968054"},{"town":"江戸岡一丁目","koaza":"","lat":33.458085,"lng":132.434634,"zip":"7960031"},{"town":"江戸岡二丁目","koaza":"","lat":33.457843,"lng":132.436987,"zip":"7960031"},{"town":"大島","koaza":"","lat":33.386221,"lng":132.340204,"zip":"7968060"},{"town":"大谷口一丁目","koaza":"","lat":33.456518,"lng":132.423001,"zip":"7968001"},{"town":"大谷口二丁目","koaza":"","lat":33.455819,"lng":132.422794,"zip":"7968001"},{"town":"大平","koaza":"","lat":33.470429,"lng":132.430493,"zip":"7960004"},{"town":"釜倉","koaza":"","lat":33.410131,"lng":132.45853,"zip":"7968036"},{"town":"川上町上泊","koaza":"","lat":33.425893,"lng":132.399421,"zip":"7968051"},{"town":"川上町川名津","koaza":"","lat":33.424443,"lng":132.406685,"zip":"7968050"},{"town":"川上町白石","koaza":"","lat":33.429734,"lng":132.406565,"zip":"7968052"},{"town":"川之内","koaza":"","lat":33.467945,"lng":132.479206,"zip":"7968025"},{"town":"北浜一丁目","koaza":"","lat":33.462754,"lng":132.422234,"zip":"7960048"},{"town":"国木","koaza":"","lat":33.449755,"lng":132.45614,"zip":"7968015"},{"town":"栗野浦","koaza":"","lat":33.455914,"lng":132.420644,"zip":"7968008"},{"town":"郷","koaza":"","lat":33.47168,"lng":132.469784,"zip":"7968020"},{"town":"合田","koaza":"","lat":33.438469,"lng":132.411356,"zip":"7968041"},{"town":"五反田","koaza":"","lat":33.448822,"lng":132.44089,"zip":"7968010"},{"town":"産業通","koaza":"","lat":33.453461,"lng":132.432268,"zip":"7968004"},{"town":"舌間","koaza":"","lat":33.443414,"lng":132.416432,"zip":"7968040"},{"town":"高野地","koaza":"","lat":33.478935,"lng":132.447158,"zip":"7960005"},{"town":"谷","koaza":"","lat":33.409911,"lng":132.441623,"zip":"7968037"},{"town":"中津川","koaza":"","lat":33.436841,"lng":132.463534,"zip":"7968030"},{"town":"日土町","koaza":"","lat":33.510875,"lng":132.445334,"zip":"7960170"},{"town":"広瀬一丁目","koaza":"","lat":33.455621,"lng":132.425147,"zip":"7968002"},{"town":"広瀬二丁目","koaza":"","lat":33.455601,"lng":132.427437,"zip":"7968002"},{"town":"広瀬三丁目","koaza":"","lat":33.453865,"lng":132.426993,"zip":"7968002"},{"town":"布喜川","koaza":"","lat":33.425709,"lng":132.440754,"zip":"7968039"},{"town":"古町一丁目","koaza":"","lat":33.455486,"lng":132.429652,"zip":"7968003"},{"town":"古町二丁目","koaza":"","lat":33.453081,"lng":132.430709,"zip":"7968003"},{"town":"保内町磯崎","koaza":"","lat":33.542505,"lng":132.41552,"zip":"7960203"},{"town":"保内町川之石","koaza":"","lat":33.481135,"lng":132.40109,"zip":"7960201"},{"town":"保内町喜木","koaza":"","lat":33.48263,"lng":132.407975,"zip":"7960111"},{"town":"保内町喜木津","koaza":"","lat":33.527943,"lng":132.386392,"zip":"7960204"},{"town":"保内町須川","koaza":"","lat":33.483577,"lng":132.416987,"zip":"7960112"},{"town":"保内町広早","koaza":"","lat":33.525543,"lng":132.381233,"zip":"7960205"},{"town":"保内町宮内","koaza":"","lat":33.491474,"lng":132.39742,"zip":"7960202"},{"town":"真網代","koaza":"","lat":33.413766,"lng":132.393932,"zip":"7968053"},{"town":"松柏","koaza":"","lat":33.461662,"lng":132.439298,"zip":"7960010"},{"town":"向灘","koaza":"","lat":33.463531,"lng":132.411068,"zip":"7960001"},{"town":"元城団地","koaza":"","lat":33.446532,"lng":132.435853,"zip":"7968011"},{"town":"八代","koaza":"","lat":33.448025,"lng":132.430385,"zip":"7968006"},{"town":"八代一丁目","koaza":"","lat":33.449924,"lng":132.431298,"zip":"7968006"},{"town":"矢野町","koaza":"","lat":33.453273,"lng":132.433585,"zip":"7968005"},{"town":"横平","koaza":"","lat":33.41901,"lng":132.427049,"zip":"7968038"},{"town":"若山","koaza":"","lat":33.423081,"lng":132.459834,"zip":"7968035"},{"town":"愛宕","koaza":"","lat":33.460676,"lng":132.429188,"zip":"7960056"},{"town":"愛宕山","koaza":"","lat":33.46265,"lng":132.43002,"zip":"7960057"},{"town":"愛宕山団地","koaza":"","lat":33.4622,"lng":132.426785,"zip":"7960057"},{"town":"旭町一丁目","koaza":"","lat":33.45862,"lng":132.420243,"zip":"7960086"},{"town":"旭町三丁目","koaza":"","lat":33.458324,"lng":132.421789,"zip":"7960086"},{"town":"旭町二丁目","koaza":"","lat":33.458405,"lng":132.421152,"zip":"7960086"},{"town":"駅前二丁目","koaza":"","lat":33.459702,"lng":132.434755,"zip":"7960022"},{"town":"沖新田","koaza":"","lat":33.4594,"lng":132.418768,"zip":"7960087"},{"town":"海望園","koaza":"","lat":33.462524,"lng":132.42642,"zip":"7960053"},{"town":"幸町","koaza":"","lat":33.464555,"lng":132.428168,"zip":"7960051"},{"town":"出島","koaza":"","lat":33.458684,"lng":132.415713,"zip":"7960089"},{"town":"昭和通","koaza":"","lat":33.457975,"lng":132.421037,"zip":"7960037"},{"town":"松蔭町","koaza":"","lat":33.459753,"lng":132.430227,"zip":"7960027"},{"town":"松本町二丁目","koaza":"","lat":33.463594,"lng":132.427437,"zip":"7960052"},{"town":"新川","koaza":"","lat":33.457537,"lng":132.420484,"zip":"7960036"},{"town":"神宮","koaza":"","lat":33.462374,"lng":132.432863,"zip":"7960020"},{"town":"大黒町一丁目","koaza":"","lat":33.459783,"lng":132.422916,"zip":"7960083"},{"town":"大黒町五丁目","koaza":"","lat":33.459723,"lng":132.420725,"zip":"7960083"},{"town":"大黒町三丁目","koaza":"","lat":33.459923,"lng":132.421922,"zip":"7960083"},{"town":"大黒町四丁目","koaza":"","lat":33.460089,"lng":132.421218,"zip":"7960083"},{"town":"大黒町二丁目","koaza":"","lat":33.460083,"lng":132.422443,"zip":"7960083"},{"town":"大門","koaza":"","lat":33.461624,"lng":132.426877,"zip":"7960055"},{"town":"天神通二丁目","koaza":"","lat":33.458911,"lng":132.421491,"zip":"7960085"},{"town":"南大黒町","koaza":"","lat":33.459508,"lng":132.421873,"zip":"7960084"},{"town":"桧谷一丁目","koaza":"","lat":33.46081,"lng":132.437531,"zip":"7960021"},{"town":"桧谷三丁目","koaza":"","lat":33.459897,"lng":132.435494,"zip":"7960021"},{"town":"桧谷四丁目","koaza":"","lat":33.462341,"lng":132.435409,"zip":"7960021"},{"town":"桧谷二丁目","koaza":"","lat":33.460282,"lng":132.436753,"zip":"7960021"},{"town":"北大黒町","koaza":"","lat":33.460431,"lng":132.422136,"zip":"7960082"},{"town":"（大字なし）","koaza":"","lat":33.459078,"lng":132.433762,"zip":"7960000"},{"town":"（大字なし）","koaza":"新川","lat":33.457685,"lng":132.420754,"zip":"7960000"},{"town":"（大字なし）","koaza":"朝潮橋","lat":33.461158,"lng":132.421679,"zip":"7960000"},{"town":"（大字なし）","koaza":"大黒町","lat":33.4599,"lng":132.421702,"zip":"7960000"},{"town":"（大字なし）","koaza":"白浜通","lat":33.464604,"lng":132.423819,"zip":"7960000"},{"town":"（大字なし）","koaza":"千代田町","lat":33.458123,"lng":132.423696,"zip":"7960000"},{"town":"（大字なし）","koaza":"須崎","lat":33.456971,"lng":132.42496,"zip":"7960000"},{"town":"（大字なし）","koaza":"浜田町","lat":33.45737,"lng":132.42761,"zip":"7960000"},{"town":"（大字なし）","koaza":"大正町","lat":33.457697,"lng":132.4285,"zip":"7960000"},{"town":"（大字なし）","koaza":"東新川","lat":33.457186,"lng":132.430104,"zip":"7960000"},{"town":"（大字なし）","koaza":"東矢野町","lat":33.458934,"lng":132.432801,"zip":"7960000"},{"town":"（大字なし）","koaza":"駅前","lat":33.45947,"lng":132.434987,"zip":"7960000"},{"town":"（大字なし）","koaza":"神宮前","lat":33.4597,"lng":132.433557,"zip":"7960000"},{"town":"（大字なし）","koaza":"桧谷","lat":33.459971,"lng":132.435692,"zip":"7960000"},{"town":"（大字なし）","koaza":"神宮通","lat":33.460885,"lng":132.432571,"zip":"7960000"},{"town":"（大字なし）","koaza":"江戸岡","lat":33.457243,"lng":132.430865,"zip":"7960000"},{"town":"広瀬四丁目","koaza":"","lat":33.451854,"lng":132.427935,"zip":"7968002"},{"town":"矢野町","koaza":"徳雲坊","lat":33.453694,"lng":132.433148,"zip":"7968005"},{"town":"（大字なし）","koaza":"下松影","lat":33.458026,"lng":132.429301,"zip":"7960000"},{"town":"（大字なし）","koaza":"花小路","lat":33.458269,"lng":132.428264,"zip":"7960000"},{"town":"（大字なし）","koaza":"下浜田","lat":33.456906,"lng":132.427304,"zip":"7960000"},{"town":"（大字なし）","koaza":"清水町","lat":33.458525,"lng":132.427736,"zip":"7960000"},{"town":"（大字なし）","koaza":"松蔭町","lat":33.460351,"lng":132.430384,"zip":"7960000"},{"town":"（大字なし）","koaza":"北大黒町","lat":33.460379,"lng":132.421947,"zip":"7960000"},{"town":"（大字なし）","koaza":"旭町","lat":33.458365,"lng":132.421081,"zip":"7960000"},{"town":"（大字なし）","koaza":"昭和通","lat":33.457958,"lng":132.421624,"zip":"7960000"},{"town":"（大字なし）","koaza":"沖新田","lat":33.459557,"lng":132.419982,"zip":"7960000"},{"town":"（大字なし）","koaza":"中央マーケット","lat":33.457872,"lng":132.423319,"zip":"7960000"},{"town":"（大字なし）","koaza":"裁判所通","lat":33.465741,"lng":132.424895,"zip":"7960000"},{"town":"（大字なし）","koaza":"南大黒町","lat":33.459597,"lng":132.42189,"zip":"7960000"},{"town":"（大字なし）","koaza":"旧役場通","lat":33.45813,"lng":132.423912,"zip":"7960000"},{"town":"（大字なし）","koaza":"天神通","lat":33.45888,"lng":132.422243,"zip":"7960000"},{"town":"（大字なし）","koaza":"幸町","lat":33.463599,"lng":132.425232,"zip":"7960000"},{"town":"（大字なし）","koaza":"東近江屋町","lat":33.463718,"lng":132.424906,"zip":"7960000"},{"town":"（大字なし）","koaza":"中央","lat":33.45854,"lng":132.425516,"zip":"7960000"},{"town":"（大字なし）","koaza":"喜多町","lat":33.465636,"lng":132.424754,"zip":"7960000"},{"town":"（大字なし）","koaza":"西近江屋町","lat":33.463892,"lng":132.424665,"zip":"7960000"},{"town":"（大字なし）","koaza":"新町","lat":33.460017,"lng":132.424314,"zip":"7960000"},{"town":"（大字なし）","koaza":"船場通","lat":33.459722,"lng":132.424514,"zip":"7960000"},{"town":"（大字なし）","koaza":"仲之町","lat":33.460526,"lng":132.42393,"zip":"7960000"},{"town":"（大字なし）","koaza":"下道","lat":33.459036,"lng":132.42453,"zip":"7960000"},{"town":"（大字なし）","koaza":"本町","lat":33.45911,"lng":132.426056,"zip":"7960000"},{"town":"（大字なし）","koaza":"大門","lat":33.460402,"lng":132.426918,"zip":"7960000"},{"town":"（大字なし）","koaza":"片山町","lat":33.458857,"lng":132.426594,"zip":"7960000"},{"town":"（大字なし）","koaza":"浜之町","lat":33.459215,"lng":132.425348,"zip":"7960000"},{"town":"（大字なし）","koaza":"新港","lat":33.461495,"lng":132.42308,"zip":"7960000"},{"town":"（大字なし）","koaza":"戎町","lat":33.461195,"lng":132.423376,"zip":"7960000"},{"town":"（大字なし）","koaza":"旧港","lat":33.462807,"lng":132.424111,"zip":"7960000"},{"town":"（大字なし）","koaza":"港町","lat":33.461854,"lng":132.423675,"zip":"7960000"},{"town":"（大字なし）","koaza":"西近江屋町浜通","lat":33.463628,"lng":132.424076,"zip":"7960000"},{"town":"（大字なし）","koaza":"海望園","lat":33.462684,"lng":132.424609,"zip":"7960000"},{"town":"（大字なし）","koaza":"松本町","lat":33.463386,"lng":132.425336,"zip":"7960000"},{"town":"（大字なし）","koaza":"新栄町","lat":33.460247,"lng":132.424859,"zip":"7960000"},{"town":"（大字なし）","koaza":"横町","lat":33.459986,"lng":132.425467,"zip":"7960000"},{"town":"（大字なし）","koaza":"西海寺","lat":33.460951,"lng":132.428302,"zip":"7960000"},{"town":"（大字なし）","koaza":"海老崎","lat":33.460875,"lng":132.425078,"zip":"7960000"},{"town":"（大字なし）","koaza":"愛宕","lat":33.462545,"lng":132.428711,"zip":"7960000"},{"town":"（大字なし）","koaza":"琴平町","lat":33.461598,"lng":132.425287,"zip":"7960000"}]