[{"town":"赤水","koaza":"","lat":32.958715,"lng":132.526213,"zip":"7984123"},{"town":"網代","koaza":"","lat":33.028261,"lng":132.40813,"zip":"7983708"},{"town":"敦盛","koaza":"","lat":32.936338,"lng":132.59785,"zip":"7984345"},{"town":"家串","koaza":"","lat":33.047714,"lng":132.471843,"zip":"7983705"},{"town":"一本松","koaza":"","lat":32.961864,"lng":132.64877,"zip":"7984408"},{"town":"鯆越","koaza":"","lat":32.944363,"lng":132.580436,"zip":"7984351"},{"town":"岩水","koaza":"","lat":32.937805,"lng":132.610823,"zip":"7984344"},{"town":"内泊","koaza":"","lat":32.938764,"lng":132.49259,"zip":"7984206"},{"town":"上大道","koaza":"","lat":32.970192,"lng":132.618703,"zip":"7984407"},{"town":"大成川","koaza":"","lat":32.929678,"lng":132.505557,"zip":"7984214"},{"town":"大浜","koaza":"","lat":32.922548,"lng":132.602886,"zip":"7984347"},{"town":"小地島","koaza":"","lat":32.930516,"lng":132.430972,"zip":"7984100"},{"town":"垣内","koaza":"","lat":32.948869,"lng":132.599836,"zip":"7984343"},{"town":"柿ノ浦","koaza":"","lat":32.933852,"lng":132.588848,"zip":"7984346"},{"town":"樫月","koaza":"","lat":32.951691,"lng":132.519118,"zip":"7984204"},{"town":"鹿島","koaza":"","lat":32.945803,"lng":132.451488,"zip":"7984209"},{"town":"柏","koaza":"","lat":33.02375,"lng":132.502533,"zip":"7983701"},{"town":"柏崎","koaza":"","lat":33.015788,"lng":132.487541,"zip":"7983702"},{"town":"高茂","koaza":"","lat":32.920133,"lng":132.481416,"zip":"7984219"},{"town":"小浦","koaza":"","lat":32.949346,"lng":132.526144,"zip":"7984203"},{"town":"越田","koaza":"","lat":32.947257,"lng":132.540793,"zip":"7984201"},{"town":"小成川","koaza":"","lat":32.92684,"lng":132.502301,"zip":"7984215"},{"town":"小山","koaza":"","lat":32.955809,"lng":132.666409,"zip":"7984403"},{"town":"猿鳴","koaza":"","lat":32.97417,"lng":132.488687,"zip":"7984126"},{"town":"下久家","koaza":"","lat":32.937452,"lng":132.512049,"zip":"7984212"},{"town":"城辺乙","koaza":"","lat":32.967797,"lng":132.581287,"zip":"7984132"},{"town":"城辺甲","koaza":"","lat":32.961002,"lng":132.586826,"zip":"7984131"},{"town":"須ノ川","koaza":"","lat":33.037492,"lng":132.494022,"zip":"7983703"},{"town":"僧都","koaza":"","lat":33.027035,"lng":132.565801,"zip":"7984136"},{"town":"外泊","koaza":"","lat":32.936224,"lng":132.477113,"zip":"7984208"},{"town":"高畑","koaza":"","lat":32.961211,"lng":132.513031,"zip":"7984124"},{"town":"樽見","koaza":"","lat":32.931595,"lng":132.511646,"zip":"7984213"},{"town":"中浦","koaza":"","lat":32.971939,"lng":132.49481,"zip":"7984125"},{"town":"中玉","koaza":"","lat":32.92394,"lng":132.617655,"zip":"7984348"},{"town":"中泊","koaza":"","lat":32.935998,"lng":132.483867,"zip":"7984207"},{"town":"中川","koaza":"","lat":32.946847,"lng":132.635483,"zip":"7984404"},{"town":"魚神山","koaza":"","lat":33.05185,"lng":132.43091,"zip":"7983707"},{"town":"久家","koaza":"","lat":32.938627,"lng":132.502954,"zip":"7984211"},{"town":"久良","koaza":"","lat":32.939759,"lng":132.543743,"zip":"7984353"},{"town":"平碆","koaza":"","lat":33.046378,"lng":132.473554,"zip":"7983704"},{"town":"広見","koaza":"","lat":32.975003,"lng":132.638595,"zip":"7984406"},{"town":"深浦","koaza":"","lat":32.947546,"lng":132.588292,"zip":"7984342"},{"town":"福浦","koaza":"","lat":32.918698,"lng":132.490722,"zip":"7984216"},{"town":"船越","koaza":"","lat":32.957685,"lng":132.499854,"zip":"7984205"},{"town":"古月","koaza":"","lat":32.944175,"lng":132.575878,"zip":"7984352"},{"town":"防城成川","koaza":"","lat":32.960744,"lng":132.538806,"zip":"7984122"},{"town":"正木","koaza":"","lat":33.012992,"lng":132.661617,"zip":"7984401"},{"town":"増田","koaza":"","lat":32.985893,"lng":132.652556,"zip":"7984402"},{"town":"御荘長洲","koaza":"","lat":32.98497,"lng":132.545143,"zip":"7984103"},{"town":"御荘長月","koaza":"","lat":32.989716,"lng":132.578034,"zip":"7984105"},{"town":"御荘平城","koaza":"","lat":32.961863,"lng":132.56274,"zip":"7984110"},{"town":"御荘平山","koaza":"","lat":32.977013,"lng":132.535129,"zip":"7984102"},{"town":"御荘深泥","koaza":"","lat":32.955456,"lng":132.540046,"zip":"7984121"},{"town":"御荘和口","koaza":"","lat":32.989818,"lng":132.560972,"zip":"7984104"},{"town":"満倉","koaza":"","lat":32.952846,"lng":132.608661,"zip":"7984405"},{"town":"緑乙","koaza":"","lat":32.991849,"lng":132.599899,"zip":"7984133"},{"town":"緑甲","koaza":"","lat":33.001596,"lng":132.620004,"zip":"7984134"},{"town":"緑丙","koaza":"","lat":33.031875,"lng":132.606819,"zip":"7984135"},{"town":"麦ケ浦","koaza":"","lat":32.91565,"lng":132.51515,"zip":"7984217"},{"town":"武者泊","koaza":"","lat":32.913394,"lng":132.518371,"zip":"7984218"},{"town":"油袋","koaza":"","lat":33.044405,"lng":132.445747,"zip":"7983706"},{"town":"弓立","koaza":"","lat":32.948823,"lng":132.529361,"zip":"7984202"},{"town":"横島","koaza":"","lat":32.939949,"lng":132.404338,"zip":"7984100"},{"town":"蓮乗寺","koaza":"","lat":32.953492,"lng":132.585428,"zip":"7984341"},{"town":"脇本","koaza":"","lat":32.93233,"lng":132.643527,"zip":"7984349"},{"town":"御荘菊川","koaza":"","lat":33.001975,"lng":132.520945,"zip":"7984101"}]