[{"town":"五十崎","koaza":"","lat":33.529722,"lng":132.643893,"zip":"7950301"},{"town":"石畳","koaza":"","lat":33.634296,"lng":132.630641,"zip":"7913343"},{"town":"五百木","koaza":"","lat":33.576987,"lng":132.692691,"zip":"7913351"},{"town":"臼杵","koaza":"","lat":33.622158,"lng":132.829911,"zip":"7913514"},{"town":"内子","koaza":"","lat":33.551735,"lng":132.647879,"zip":"7913301"},{"town":"大久喜","koaza":"","lat":33.511444,"lng":132.653901,"zip":"7950302"},{"town":"大瀬北","koaza":"","lat":33.619277,"lng":132.741281,"zip":"7913362"},{"town":"大瀬中央","koaza":"","lat":33.600222,"lng":132.734117,"zip":"7913361"},{"town":"大瀬東","koaza":"","lat":33.570163,"lng":132.74708,"zip":"7913363"},{"town":"大瀬南","koaza":"","lat":33.550678,"lng":132.725629,"zip":"7913364"},{"town":"大平","koaza":"","lat":33.599915,"lng":132.831293,"zip":"7913504"},{"town":"小田","koaza":"","lat":33.567192,"lng":132.805486,"zip":"7913501"},{"town":"上川","koaza":"","lat":33.575094,"lng":132.87954,"zip":"7913523"},{"town":"上田渡","koaza":"","lat":33.615092,"lng":132.789861,"zip":"7913513"},{"town":"川中","koaza":"","lat":33.607863,"lng":132.693532,"zip":"7913321"},{"town":"河内","koaza":"","lat":33.595467,"lng":132.635634,"zip":"7913342"},{"town":"北表","koaza":"","lat":33.516811,"lng":132.702996,"zip":"7950307"},{"town":"重松","koaza":"","lat":33.538867,"lng":132.684229,"zip":"7950304"},{"town":"宿間","koaza":"","lat":33.520668,"lng":132.672287,"zip":"7950305"},{"town":"城廻","koaza":"","lat":33.570936,"lng":132.666456,"zip":"7913310"},{"town":"只海","koaza":"","lat":33.53249,"lng":132.709069,"zip":"7950309"},{"town":"立山","koaza":"","lat":33.5938,"lng":132.667574,"zip":"7913331"},{"town":"立石","koaza":"","lat":33.557288,"lng":132.764617,"zip":"7913505"},{"town":"知清","koaza":"","lat":33.550979,"lng":132.662109,"zip":"7913322"},{"town":"寺村","koaza":"","lat":33.562785,"lng":132.794067,"zip":"7913502"},{"town":"中川","koaza":"","lat":33.544628,"lng":132.876868,"zip":"7913522"},{"town":"中田渡","koaza":"","lat":33.599165,"lng":132.790421,"zip":"7913512"},{"town":"日野川","koaza":"","lat":33.588188,"lng":132.813344,"zip":"7913503"},{"town":"平岡","koaza":"","lat":33.53755,"lng":132.664756,"zip":"7950303"},{"town":"福岡","koaza":"","lat":33.503095,"lng":132.67291,"zip":"7950306"},{"town":"袋口","koaza":"","lat":33.613837,"lng":132.647085,"zip":"7913332"},{"town":"本川","koaza":"","lat":33.565268,"lng":132.820646,"zip":"7913521"},{"town":"南山","koaza":"","lat":33.54298,"lng":132.789995,"zip":"7913506"},{"town":"村前","koaza":"","lat":33.556346,"lng":132.693023,"zip":"7913352"},{"town":"山鳥坂","koaza":"","lat":33.527502,"lng":132.72607,"zip":"7950308"},{"town":"吉野川","koaza":"","lat":33.589308,"lng":132.78046,"zip":"7913511"},{"town":"論田","koaza":"","lat":33.575515,"lng":132.645139,"zip":"7913341"}]