[{"town":"金田町金川","koaza":"","lat":33.977056,"lng":133.595496,"zip":"7990123"},{"town":"金田町三角寺","koaza":"","lat":33.966111,"lng":133.590632,"zip":"7990124"},{"town":"金田町半田","koaza":"","lat":33.989473,"lng":133.609,"zip":"7990122"},{"town":"上柏町","koaza":"","lat":33.967775,"lng":133.570638,"zip":"7990412"},{"town":"上分町","koaza":"","lat":33.989088,"lng":133.588503,"zip":"7990121"},{"town":"川滝町下山","koaza":"","lat":33.993957,"lng":133.654476,"zip":"7990127"},{"town":"川滝町領家","koaza":"","lat":33.980438,"lng":133.639997,"zip":"7990128"},{"town":"川之江町","koaza":"","lat":34.014304,"lng":133.579682,"zip":"7990101"},{"town":"川之江町長須","koaza":"","lat":34.030302,"lng":133.587077,"zip":"7990102"},{"town":"川之江町余木","koaza":"","lat":34.03512,"lng":133.595284,"zip":"7990103"},{"town":"金砂町小川山","koaza":"","lat":33.911612,"lng":133.564827,"zip":"7990641"},{"town":"金砂町平野山","koaza":"","lat":33.920326,"lng":133.527559,"zip":"7990642"},{"town":"金生町下分","koaza":"","lat":34.00079,"lng":133.582415,"zip":"7990111"},{"town":"金生町山田井","koaza":"","lat":34.016639,"lng":133.616508,"zip":"7990112"},{"town":"具定町","koaza":"","lat":33.96085,"lng":133.52972,"zip":"7990423"},{"town":"寒川町","koaza":"","lat":33.952462,"lng":133.507717,"zip":"7990431"},{"town":"柴生町","koaza":"","lat":34.000201,"lng":133.624553,"zip":"7990125"},{"town":"下柏町","koaza":"","lat":33.98585,"lng":133.566343,"zip":"7990411"},{"town":"下川町","koaza":"","lat":34.007157,"lng":133.652554,"zip":"7990126"},{"town":"新宮町馬立","koaza":"","lat":33.920842,"lng":133.621658,"zip":"7990301"},{"town":"新宮町上山","koaza":"","lat":33.955409,"lng":133.664035,"zip":"7990302"},{"town":"新宮町新宮","koaza":"","lat":33.948159,"lng":133.636449,"zip":"7990303"},{"town":"新宮町新瀬川","koaza":"","lat":33.905012,"lng":133.66028,"zip":"7990304"},{"town":"土居町入野","koaza":"","lat":33.950339,"lng":133.421129,"zip":"7990712"},{"town":"土居町上野","koaza":"","lat":33.915363,"lng":133.384952,"zip":"7990721"},{"town":"土居町浦山","koaza":"","lat":33.920365,"lng":133.420249,"zip":"7990713"},{"town":"土居町蕪崎","koaza":"","lat":33.978979,"lng":133.43171,"zip":"7990724"},{"town":"土居町北野","koaza":"","lat":33.959404,"lng":133.393946,"zip":"7990722"},{"town":"土居町小林","koaza":"","lat":33.959651,"lng":133.43902,"zip":"7990702"},{"town":"土居町津根","koaza":"","lat":33.967002,"lng":133.45345,"zip":"7990704"},{"town":"土居町天満","koaza":"","lat":33.978484,"lng":133.406257,"zip":"7990723"},{"town":"土居町土居","koaza":"","lat":33.961412,"lng":133.421499,"zip":"7990711"},{"town":"土居町中村","koaza":"","lat":33.962919,"lng":133.432115,"zip":"7990701"},{"town":"土居町野田","koaza":"","lat":33.963837,"lng":133.464495,"zip":"7990705"},{"town":"土居町畑野","koaza":"","lat":33.948516,"lng":133.410162,"zip":"7990714"},{"town":"土居町藤原","koaza":"","lat":33.972073,"lng":133.443498,"zip":"7990703"},{"town":"富郷町寒川山","koaza":"","lat":33.890758,"lng":133.512048,"zip":"7990643"},{"town":"富郷町津根山","koaza":"","lat":33.873913,"lng":133.470317,"zip":"7990645"},{"town":"富郷町豊坂","koaza":"","lat":33.921746,"lng":133.489829,"zip":"7990644"},{"town":"豊岡町五良野","koaza":"","lat":33.959408,"lng":133.48167,"zip":"7990434"},{"town":"豊岡町大町","koaza":"","lat":33.962794,"lng":133.489105,"zip":"7990432"},{"town":"豊岡町岡銅","koaza":"","lat":33.939267,"lng":133.465282,"zip":"7990436"},{"town":"豊岡町長田","koaza":"","lat":33.966449,"lng":133.474714,"zip":"7990435"},{"town":"豊岡町豊田","koaza":"","lat":33.968431,"lng":133.481128,"zip":"7990433"},{"town":"中曽根町","koaza":"","lat":33.965099,"lng":133.549186,"zip":"7990413"},{"town":"中之庄町","koaza":"","lat":33.963258,"lng":133.536488,"zip":"7990422"},{"town":"三島朝日一丁目","koaza":"","lat":33.98632,"lng":133.553002,"zip":"7990403"},{"town":"三島朝日二丁目","koaza":"","lat":33.987588,"lng":133.558205,"zip":"7990403"},{"town":"三島朝日三丁目","koaza":"","lat":33.984844,"lng":133.555243,"zip":"7990403"},{"town":"三島金子一丁目","koaza":"","lat":33.983445,"lng":133.534268,"zip":"7990421"},{"town":"三島金子二丁目","koaza":"","lat":33.980026,"lng":133.537569,"zip":"7990421"},{"town":"三島金子三丁目","koaza":"","lat":33.977585,"lng":133.538084,"zip":"7990421"},{"town":"三島紙屋町","koaza":"","lat":33.990528,"lng":133.551686,"zip":"7990402"},{"town":"三島中央一丁目","koaza":"","lat":33.986419,"lng":133.540767,"zip":"7990405"},{"town":"三島中央二丁目","koaza":"","lat":33.982222,"lng":133.5449,"zip":"7990405"},{"town":"三島中央三丁目","koaza":"","lat":33.981476,"lng":133.542925,"zip":"7990405"},{"town":"三島中央四丁目","koaza":"","lat":33.98072,"lng":133.540573,"zip":"7990405"},{"town":"三島中央五丁目","koaza":"","lat":33.978202,"lng":133.542851,"zip":"7990405"},{"town":"三島宮川一丁目","koaza":"","lat":33.986668,"lng":133.547201,"zip":"7990404"},{"town":"三島宮川二丁目","koaza":"","lat":33.984471,"lng":133.54969,"zip":"7990404"},{"town":"三島宮川三丁目","koaza":"","lat":33.982955,"lng":133.547448,"zip":"7990404"},{"town":"三島宮川四丁目","koaza":"","lat":33.981174,"lng":133.549809,"zip":"7990404"},{"town":"村松町","koaza":"","lat":33.997561,"lng":133.554638,"zip":"7990401"},{"town":"妻鳥町","koaza":"","lat":33.991779,"lng":133.572307,"zip":"7990113"},{"town":"豊岡町長田","koaza":"桶ノ上","lat":33.97163,"lng":133.475874,"zip":"7990435"},{"town":"寒川町","koaza":"大門","lat":33.967211,"lng":133.503062,"zip":"7990431"},{"town":"具定町","koaza":"倉之内","lat":33.974699,"lng":133.52679,"zip":"7990423"},{"town":"川之江町","koaza":"横田","lat":34.003925,"lng":133.565172,"zip":"7990101"},{"town":"川之江町","koaza":"塚田","lat":34.000158,"lng":133.566627,"zip":"7990101"},{"town":"妻鳥町","koaza":"樋ノ上","lat":33.987248,"lng":133.571502,"zip":"7990113"},{"town":"妻鳥町","koaza":"長束","lat":33.997841,"lng":133.572828,"zip":"7990113"},{"town":"妻鳥町","koaza":"上樋之上","lat":33.986515,"lng":133.573439,"zip":"7990113"},{"town":"金田町半田","koaza":"甲","lat":34.00527,"lng":133.608155,"zip":"7990122"}]