[{"town":"阿蔵","koaza":"","lat":33.512059,"lng":132.532018,"zip":"7950025"},{"town":"市木","koaza":"","lat":33.517444,"lng":132.571367,"zip":"7950062"},{"town":"稲積","koaza":"","lat":33.460498,"lng":132.527484,"zip":"7950007"},{"town":"梅川","koaza":"","lat":33.452166,"lng":132.56109,"zip":"7950003"},{"town":"宇和川","koaza":"","lat":33.462239,"lng":132.640439,"zip":"7950088"},{"town":"大洲","koaza":"","lat":33.505549,"lng":132.542621,"zip":"7950012"},{"town":"戒川","koaza":"","lat":33.59968,"lng":132.538824,"zip":"7993421"},{"town":"上須戒","koaza":"","lat":33.540208,"lng":132.500204,"zip":"7950032"},{"town":"河辺町植松","koaza":"","lat":33.484373,"lng":132.741899,"zip":"7971601"},{"town":"河辺町川上","koaza":"","lat":33.524713,"lng":132.769921,"zip":"7971607"},{"town":"河辺町川崎","koaza":"","lat":33.515624,"lng":132.749952,"zip":"7971604"},{"town":"河辺町河都","koaza":"","lat":33.496629,"lng":132.757865,"zip":"7971605"},{"town":"河辺町北平","koaza":"","lat":33.525413,"lng":132.80933,"zip":"7971608"},{"town":"河辺町三嶋","koaza":"","lat":33.497947,"lng":132.784867,"zip":"7971606"},{"town":"河辺町山鳥坂","koaza":"","lat":33.498787,"lng":132.721513,"zip":"7971602"},{"town":"河辺町横山","koaza":"","lat":33.509001,"lng":132.732319,"zip":"7971603"},{"town":"北裏","koaza":"","lat":33.455263,"lng":132.509895,"zip":"7950009"},{"town":"北只","koaza":"","lat":33.490843,"lng":132.54084,"zip":"7950001"},{"town":"喜多山","koaza":"","lat":33.552043,"lng":132.627233,"zip":"7950075"},{"town":"蔵川","koaza":"","lat":33.452069,"lng":132.606802,"zip":"7950089"},{"town":"黒木","koaza":"","lat":33.479849,"lng":132.532077,"zip":"7950008"},{"town":"恋木","koaza":"","lat":33.560655,"lng":132.608858,"zip":"7950074"},{"town":"五郎","koaza":"","lat":33.533801,"lng":132.547674,"zip":"7950051"},{"town":"柴","koaza":"","lat":33.571716,"lng":132.512742,"zip":"7993433"},{"town":"白滝","koaza":"","lat":33.58472,"lng":132.523013,"zip":"7993431"},{"town":"菅田町宇津","koaza":"","lat":33.490873,"lng":132.612842,"zip":"7950084"},{"town":"菅田町大竹","koaza":"","lat":33.482885,"lng":132.576465,"zip":"7950083"},{"town":"菅田町菅田","koaza":"","lat":33.50695,"lng":132.588,"zip":"7950081"},{"town":"高山","koaza":"","lat":33.516529,"lng":132.517016,"zip":"7950024"},{"town":"多田","koaza":"","lat":33.546937,"lng":132.550083,"zip":"7950031"},{"town":"田処","koaza":"","lat":33.608361,"lng":132.589855,"zip":"7950078"},{"town":"田口","koaza":"","lat":33.514007,"lng":132.558083,"zip":"7950063"},{"town":"手成","koaza":"","lat":33.581766,"lng":132.551735,"zip":"7950044"},{"town":"常磐町","koaza":"","lat":33.513915,"lng":132.545629,"zip":"7950053"},{"town":"徳森","koaza":"","lat":33.524891,"lng":132.585004,"zip":"7950061"},{"town":"豊茂","koaza":"","lat":33.556213,"lng":132.471056,"zip":"7993462"},{"town":"長谷","koaza":"","lat":33.45588,"lng":132.544012,"zip":"7950004"},{"town":"長浜","koaza":"","lat":33.614095,"lng":132.483899,"zip":"7993402"},{"town":"長浜町青島","koaza":"","lat":33.735683,"lng":132.481259,"zip":"7993470"},{"town":"長浜町出海","koaza":"","lat":33.551379,"lng":132.437981,"zip":"7993456"},{"town":"長浜町大越","koaza":"","lat":33.599508,"lng":132.512482,"zip":"7993422"},{"town":"長浜町沖浦","koaza":"","lat":33.600672,"lng":132.475738,"zip":"7993405"},{"town":"長浜町櫛生","koaza":"","lat":33.570134,"lng":132.449153,"zip":"7993453"},{"town":"長浜町黒田","koaza":"","lat":33.614223,"lng":132.499371,"zip":"7993407"},{"town":"長浜町今坊","koaza":"","lat":33.62222,"lng":132.522987,"zip":"7993411"},{"town":"長浜町下須戒","koaza":"","lat":33.585725,"lng":132.500249,"zip":"7993441"},{"town":"長浜町上老松","koaza":"","lat":33.60089,"lng":132.502335,"zip":"7993444"},{"town":"長浜町須沢","koaza":"","lat":33.589308,"lng":132.462148,"zip":"7993451"},{"town":"長浜町拓海","koaza":"","lat":33.626336,"lng":132.506682,"zip":"7993413"},{"town":"長浜町仁久","koaza":"","lat":33.605795,"lng":132.491861,"zip":"7993403"},{"town":"長浜町晴海","koaza":"","lat":33.620802,"lng":132.495702,"zip":"7993412"},{"town":"長浜町穂積","koaza":"","lat":33.583181,"lng":132.475723,"zip":"7993442"},{"town":"中村","koaza":"","lat":33.514703,"lng":132.54232,"zip":"7950054"},{"town":"成能","koaza":"","lat":33.49378,"lng":132.654044,"zip":"7950086"},{"town":"新谷","koaza":"","lat":33.538365,"lng":132.608649,"zip":"7950069"},{"town":"新谷町","koaza":"","lat":33.537277,"lng":132.598903,"zip":"7950073"},{"town":"西大洲","koaza":"","lat":33.50053,"lng":132.530027,"zip":"7950013"},{"town":"八多喜町","koaza":"","lat":33.5605,"lng":132.533139,"zip":"7950041"},{"town":"春賀","koaza":"","lat":33.555865,"lng":132.553085,"zip":"7950046"},{"town":"東宇山","koaza":"","lat":33.556995,"lng":132.571799,"zip":"7950045"},{"town":"東大洲","koaza":"","lat":33.527646,"lng":132.571139,"zip":"7950064"},{"town":"東若宮","koaza":"","lat":33.529886,"lng":132.56553,"zip":"7950065"},{"town":"肱川町宇和川","koaza":"","lat":33.462766,"lng":132.66169,"zip":"7971503"},{"town":"肱川町大谷","koaza":"","lat":33.434765,"lng":132.663904,"zip":"7971507"},{"town":"肱川町中居谷","koaza":"","lat":33.501309,"lng":132.698436,"zip":"7971501"},{"town":"肱川町中津","koaza":"","lat":33.459409,"lng":132.739767,"zip":"7971506"},{"town":"肱川町西","koaza":"","lat":33.430169,"lng":132.69211,"zip":"7971508"},{"town":"肱川町名荷谷","koaza":"","lat":33.484507,"lng":132.680509,"zip":"7971502"},{"town":"肱川町山鳥坂","koaza":"","lat":33.471446,"lng":132.716314,"zip":"7971504"},{"town":"肱川町予子林","koaza":"","lat":33.434662,"lng":132.703123,"zip":"7971505"},{"town":"平野町野田","koaza":"","lat":33.475579,"lng":132.50646,"zip":"7950021"},{"town":"平野町平地","koaza":"","lat":33.50084,"lng":132.491016,"zip":"7950023"},{"town":"冨士","koaza":"","lat":33.512134,"lng":132.575245,"zip":"7950000"},{"town":"藤縄","koaza":"","lat":33.566789,"lng":132.591542,"zip":"7950076"},{"town":"松尾","koaza":"","lat":33.482621,"lng":132.551721,"zip":"7950002"},{"town":"森山","koaza":"","lat":33.475342,"lng":132.636815,"zip":"7950087"},{"town":"野佐来","koaza":"","lat":33.472445,"lng":132.542581,"zip":"7950006"},{"town":"柳沢","koaza":"","lat":33.583165,"lng":132.600569,"zip":"7950077"},{"town":"柚木","koaza":"","lat":33.503637,"lng":132.553007,"zip":"7950011"},{"town":"横野","koaza":"","lat":33.441338,"lng":132.545904,"zip":"7950005"},{"town":"米津","koaza":"","lat":33.572532,"lng":132.540331,"zip":"7950042"},{"town":"若宮","koaza":"","lat":33.521514,"lng":132.549221,"zip":"7950052"},{"town":"長浜","koaza":"甲","lat":33.613108,"lng":132.4827,"zip":"7993402"},{"town":"長浜町下須戒","koaza":"甲","lat":33.592641,"lng":132.494057,"zip":"7993441"},{"town":"白滝","koaza":"甲","lat":33.584015,"lng":132.522716,"zip":"7993431"},{"town":"西大洲","koaza":"ヤスバ甲","lat":33.504754,"lng":132.525711,"zip":"7950013"},{"town":"徳森","koaza":"宮方","lat":33.533059,"lng":132.578947,"zip":"7950061"},{"town":"新谷","koaza":"乙","lat":33.534059,"lng":132.590817,"zip":"7950069"},{"town":"菅田町菅田","koaza":"甲","lat":33.511248,"lng":132.586999,"zip":"7950081"},{"town":"新谷","koaza":"甲","lat":33.537489,"lng":132.601945,"zip":"7950069"},{"town":"新谷","koaza":"蔵地","lat":33.533314,"lng":132.584916,"zip":"7950069"},{"town":"新谷","koaza":"田中","lat":33.534267,"lng":132.588541,"zip":"7950069"}]