[{"town":"曙町","koaza":"","lat":33.223042,"lng":132.560646,"zip":"7980030"},{"town":"朝日町一丁目","koaza":"","lat":33.226724,"lng":132.562307,"zip":"7980004"},{"town":"朝日町二丁目","koaza":"","lat":33.226686,"lng":132.561281,"zip":"7980004"},{"town":"朝日町三丁目","koaza":"","lat":33.226631,"lng":132.560334,"zip":"7980004"},{"town":"朝日町四丁目","koaza":"","lat":33.226612,"lng":132.559218,"zip":"7980004"},{"town":"愛宕町一丁目","koaza":"","lat":33.215384,"lng":132.57197,"zip":"7980042"},{"town":"愛宕町二丁目","koaza":"","lat":33.21615,"lng":132.571034,"zip":"7980042"},{"town":"愛宕町三丁目","koaza":"","lat":33.217293,"lng":132.57043,"zip":"7980042"},{"town":"泉町一丁目","koaza":"","lat":33.231999,"lng":132.571347,"zip":"7980026"},{"town":"泉町二丁目","koaza":"","lat":33.233361,"lng":132.57234,"zip":"7980026"},{"town":"泉町三丁目","koaza":"","lat":33.233639,"lng":132.571054,"zip":"7980026"},{"town":"泉町四丁目","koaza":"","lat":33.234871,"lng":132.572137,"zip":"7980026"},{"town":"伊吹町","koaza":"","lat":33.234583,"lng":132.579287,"zip":"7980023"},{"town":"祝森","koaza":"","lat":33.168551,"lng":132.561613,"zip":"7980078"},{"town":"宇和津町一丁目","koaza":"","lat":33.215881,"lng":132.576244,"zip":"7980043"},{"town":"宇和津町二丁目","koaza":"","lat":33.216041,"lng":132.573213,"zip":"7980043"},{"town":"宇和津町三丁目","koaza":"","lat":33.217317,"lng":132.572036,"zip":"7980043"},{"town":"恵美須町一丁目","koaza":"","lat":33.223694,"lng":132.565149,"zip":"7980032"},{"town":"恵美須町二丁目","koaza":"","lat":33.225312,"lng":132.564231,"zip":"7980032"},{"town":"大宮町一丁目","koaza":"","lat":33.220392,"lng":132.571417,"zip":"7980039"},{"town":"大宮町二丁目","koaza":"","lat":33.221136,"lng":132.57031,"zip":"7980039"},{"town":"大宮町三丁目","koaza":"","lat":33.221792,"lng":132.571387,"zip":"7980039"},{"town":"御徒町","koaza":"","lat":33.214018,"lng":132.563348,"zip":"7980063"},{"town":"柿原","koaza":"","lat":33.239534,"lng":132.594091,"zip":"7980027"},{"town":"賀古町一丁目","koaza":"","lat":33.215022,"lng":132.56971,"zip":"7980053"},{"town":"賀古町二丁目","koaza":"","lat":33.215231,"lng":132.5688,"zip":"7980053"},{"town":"川内","koaza":"","lat":33.192273,"lng":132.573348,"zip":"7980076"},{"town":"北新町","koaza":"","lat":33.228582,"lng":132.564309,"zip":"7980010"},{"town":"京町","koaza":"","lat":33.215664,"lng":132.568199,"zip":"7980052"},{"town":"石応","koaza":"","lat":33.207576,"lng":132.521259,"zip":"7980091"},{"town":"御殿町","koaza":"","lat":33.216392,"lng":132.564055,"zip":"7980061"},{"town":"寿町一丁目","koaza":"","lat":33.224911,"lng":132.562068,"zip":"7980007"},{"town":"寿町二丁目","koaza":"","lat":33.224042,"lng":132.559903,"zip":"7980007"},{"town":"小浜","koaza":"","lat":33.203992,"lng":132.509932,"zip":"7980092"},{"town":"蒋淵","koaza":"","lat":33.195876,"lng":132.402379,"zip":"7980000"},{"town":"佐伯町一丁目","koaza":"","lat":33.214427,"lng":132.562266,"zip":"7980064"},{"town":"佐伯町二丁目","koaza":"","lat":33.214399,"lng":132.560645,"zip":"7980064"},{"town":"栄町港一丁目","koaza":"","lat":33.2233,"lng":132.563819,"zip":"7980031"},{"town":"栄町港二丁目","koaza":"","lat":33.222036,"lng":132.56031,"zip":"7980031"},{"town":"栄町港三丁目","koaza":"","lat":33.224034,"lng":132.562456,"zip":"7980031"},{"town":"坂下津","koaza":"","lat":33.218349,"lng":132.547421,"zip":"7980087"},{"town":"桜町","koaza":"","lat":33.215281,"lng":132.564363,"zip":"7980062"},{"town":"笹町","koaza":"","lat":33.214246,"lng":132.572403,"zip":"7980054"},{"town":"笹町一丁目","koaza":"","lat":33.214124,"lng":132.571054,"zip":"7980054"},{"town":"笹町二丁目","koaza":"","lat":33.214571,"lng":132.570246,"zip":"7980054"},{"town":"下波","koaza":"","lat":33.185312,"lng":132.450232,"zip":"7980104"},{"town":"白浜","koaza":"","lat":33.211446,"lng":132.530359,"zip":"7980090"},{"town":"神田川原","koaza":"","lat":33.213339,"lng":132.563531,"zip":"7980070"},{"town":"新田町一丁目","koaza":"","lat":33.211919,"lng":132.559294,"zip":"7980080"},{"town":"新田町二丁目","koaza":"","lat":33.213243,"lng":132.557992,"zip":"7980080"},{"town":"新田町三丁目","koaza":"","lat":33.212005,"lng":132.557331,"zip":"7980080"},{"town":"新田町四丁目","koaza":"","lat":33.213785,"lng":132.55536,"zip":"7980080"},{"town":"新町一丁目","koaza":"","lat":33.222449,"lng":132.566748,"zip":"7980035"},{"town":"新町二丁目","koaza":"","lat":33.223151,"lng":132.566355,"zip":"7980035"},{"town":"須賀通","koaza":"","lat":33.228975,"lng":132.559835,"zip":"7980011"},{"town":"住吉町","koaza":"","lat":33.230808,"lng":132.555744,"zip":"7980003"},{"town":"住吉町一丁目","koaza":"","lat":33.22685,"lng":132.557809,"zip":"7980003"},{"town":"住吉町二丁目","koaza":"","lat":33.22777,"lng":132.555717,"zip":"7980003"},{"town":"住吉町三丁目","koaza":"","lat":33.229194,"lng":132.552513,"zip":"7980003"},{"town":"大超寺奥","koaza":"","lat":33.206514,"lng":132.585087,"zip":"7980045"},{"town":"高串","koaza":"","lat":33.260227,"lng":132.56532,"zip":"7980020"},{"town":"中央町一丁目","koaza":"","lat":33.220334,"lng":132.567955,"zip":"7980040"},{"town":"中央町二丁目","koaza":"","lat":33.221604,"lng":132.567812,"zip":"7980040"},{"town":"築地町一丁目","koaza":"","lat":33.225468,"lng":132.554307,"zip":"7980005"},{"town":"築地町二丁目","koaza":"","lat":33.224724,"lng":132.553402,"zip":"7980005"},{"town":"津島町嵐","koaza":"","lat":33.078137,"lng":132.489107,"zip":"7983344"},{"town":"津島町岩渕","koaza":"","lat":33.13649,"lng":132.554906,"zip":"7983311"},{"town":"津島町岩松","koaza":"","lat":33.11825,"lng":132.499587,"zip":"7983301"},{"town":"津島町後","koaza":"","lat":33.062088,"lng":132.407697,"zip":"7983331"},{"town":"津島町浦知","koaza":"","lat":33.064763,"lng":132.494042,"zip":"7983342"},{"town":"津島町塩定","koaza":"","lat":33.058951,"lng":132.49247,"zip":"7983341"},{"town":"津島町大浦","koaza":"","lat":33.058237,"lng":132.472773,"zip":"7983337"},{"town":"津島町柿之浦","koaza":"","lat":33.05345,"lng":132.487727,"zip":"7983338"},{"town":"津島町鰹網代","koaza":"","lat":33.038902,"lng":132.398025,"zip":"7980000"},{"town":"津島町上畑地","koaza":"","lat":33.065612,"lng":132.512352,"zip":"7983323"},{"town":"津島町北灘","koaza":"","lat":33.149139,"lng":132.470566,"zip":"7983362"},{"town":"津島町山財","koaza":"","lat":33.144309,"lng":132.5964,"zip":"7983312"},{"town":"津島町下畑地","koaza":"","lat":33.073193,"lng":132.532359,"zip":"7983322"},{"town":"津島町須下","koaza":"","lat":33.066051,"lng":132.411616,"zip":"7983332"},{"town":"津島町曽根","koaza":"","lat":33.099312,"lng":132.474789,"zip":"7983356"},{"town":"津島町田颪","koaza":"","lat":33.090517,"lng":132.473934,"zip":"7983354"},{"town":"津島町高田","koaza":"","lat":33.140558,"lng":132.526574,"zip":"7983302"},{"town":"津島町竹ヶ島","koaza":"","lat":33.106867,"lng":132.413403,"zip":"7980000"},{"town":"津島町田之浜","koaza":"","lat":33.105887,"lng":132.478989,"zip":"7983357"},{"town":"津島町近家","koaza":"","lat":33.135345,"lng":132.508786,"zip":"7983303"},{"town":"津島町坪井","koaza":"","lat":33.075818,"lng":132.463597,"zip":"7983352"},{"town":"津島町泥目水","koaza":"","lat":33.086577,"lng":132.466193,"zip":"7983353"},{"town":"津島町成","koaza":"","lat":33.059916,"lng":132.42455,"zip":"7983333"},{"town":"津島町鼡鳴","koaza":"","lat":33.087323,"lng":132.480671,"zip":"7983346"},{"town":"津島町針木","koaza":"","lat":33.070642,"lng":132.486499,"zip":"7983343"},{"town":"津島町平井","koaza":"","lat":33.058249,"lng":132.45924,"zip":"7983335"},{"town":"津島町曲烏","koaza":"","lat":33.058239,"lng":132.46613,"zip":"7983336"},{"town":"津島町槇川","koaza":"","lat":33.076476,"lng":132.629135,"zip":"7983272"},{"town":"津島町増穂","koaza":"","lat":33.091187,"lng":132.549269,"zip":"7983313"},{"town":"津島町御内","koaza":"","lat":33.110065,"lng":132.636293,"zip":"7983271"},{"town":"津島町弓立","koaza":"","lat":33.084892,"lng":132.472622,"zip":"7983351"},{"town":"津島町横浦","koaza":"","lat":33.081398,"lng":132.482744,"zip":"7983345"},{"town":"津島町漁家","koaza":"","lat":33.058981,"lng":132.444664,"zip":"7983334"},{"town":"津島町脇","koaza":"","lat":33.097246,"lng":132.483511,"zip":"7983355"},{"town":"鶴島町","koaza":"","lat":33.226361,"lng":132.565391,"zip":"7980033"},{"town":"天赦公園","koaza":"","lat":33.215807,"lng":132.561011,"zip":"7980065"},{"town":"天神町","koaza":"","lat":33.226237,"lng":132.570348,"zip":"7980036"},{"town":"戸島","koaza":"","lat":33.204696,"lng":132.363142,"zip":"7980212"},{"town":"中沢町一丁目","koaza":"","lat":33.209284,"lng":132.557231,"zip":"7980081"},{"town":"中沢町二丁目","koaza":"","lat":33.206331,"lng":132.555416,"zip":"7980081"},{"town":"長堀一丁目","koaza":"","lat":33.209232,"lng":132.554537,"zip":"7980082"},{"town":"長堀二丁目","koaza":"","lat":33.210429,"lng":132.553853,"zip":"7980082"},{"town":"長堀三丁目","koaza":"","lat":33.20751,"lng":132.551065,"zip":"7980082"},{"town":"夏目町一丁目","koaza":"","lat":33.207586,"lng":132.553605,"zip":"7980083"},{"town":"夏目町二丁目","koaza":"","lat":33.205479,"lng":132.553592,"zip":"7980083"},{"town":"夏目町三丁目","koaza":"","lat":33.206042,"lng":132.552227,"zip":"7980083"},{"town":"並松一丁目","koaza":"","lat":33.207563,"lng":132.557778,"zip":"7980074"},{"town":"並松二丁目","koaza":"","lat":33.205909,"lng":132.556837,"zip":"7980074"},{"town":"錦町","koaza":"","lat":33.226647,"lng":132.568488,"zip":"7980034"},{"town":"野川","koaza":"","lat":33.205626,"lng":132.608566,"zip":"7982146"},{"town":"蛤","koaza":"","lat":33.231878,"lng":132.52527,"zip":"7980098"},{"town":"日振島","koaza":"","lat":33.169211,"lng":132.287135,"zip":"7980099"},{"town":"百之浦","koaza":"","lat":33.226326,"lng":132.52499,"zip":"7980097"},{"town":"平浦","koaza":"","lat":33.193896,"lng":132.494971,"zip":"7980095"},{"town":"広小路","koaza":"","lat":33.216292,"lng":132.567751,"zip":"7980051"},{"town":"藤江","koaza":"","lat":33.237409,"lng":132.560231,"zip":"7980010"},{"town":"文京町","koaza":"","lat":33.2163,"lng":132.559097,"zip":"7980066"},{"town":"別当一丁目","koaza":"","lat":33.209064,"lng":132.549422,"zip":"7980086"},{"town":"別当二丁目","koaza":"","lat":33.20961,"lng":132.547607,"zip":"7980086"},{"town":"別当三丁目","koaza":"","lat":33.211087,"lng":132.547097,"zip":"7980086"},{"town":"別当四丁目","koaza":"","lat":33.212193,"lng":132.54688,"zip":"7980086"},{"town":"別当五丁目","koaza":"","lat":33.211299,"lng":132.545343,"zip":"7980086"},{"town":"別当六丁目","koaza":"","lat":33.209401,"lng":132.546781,"zip":"7980086"},{"town":"弁天町一丁目","koaza":"","lat":33.223672,"lng":132.558427,"zip":"7980006"},{"town":"弁天町二丁目","koaza":"","lat":33.222902,"lng":132.555961,"zip":"7980006"},{"town":"弁天町三丁目","koaza":"","lat":33.2247,"lng":132.556835,"zip":"7980006"},{"town":"保手一丁目","koaza":"","lat":33.214817,"lng":132.55443,"zip":"7980088"},{"town":"保手二丁目","koaza":"","lat":33.211308,"lng":132.551435,"zip":"7980088"},{"town":"保手三丁目","koaza":"","lat":33.212999,"lng":132.551074,"zip":"7980088"},{"town":"保手四丁目","koaza":"","lat":33.213144,"lng":132.549211,"zip":"7980088"},{"town":"保手五丁目","koaza":"","lat":33.211412,"lng":132.549004,"zip":"7980088"},{"town":"堀端町","koaza":"","lat":33.217166,"lng":132.567413,"zip":"7980050"},{"town":"本町追手一丁目","koaza":"","lat":33.218406,"lng":132.57023,"zip":"7980041"},{"town":"本町追手二丁目","koaza":"","lat":33.219499,"lng":132.569605,"zip":"7980041"},{"town":"桝形町一丁目","koaza":"","lat":33.219185,"lng":132.561503,"zip":"7980067"},{"town":"桝形町二丁目","koaza":"","lat":33.221061,"lng":132.561513,"zip":"7980067"},{"town":"桝形町三丁目","koaza":"","lat":33.22031,"lng":132.560261,"zip":"7980067"},{"town":"丸穂","koaza":"","lat":33.224752,"lng":132.581304,"zip":"7980037"},{"town":"丸穂町一丁目","koaza":"","lat":33.224064,"lng":132.573456,"zip":"7980037"},{"town":"丸穂町二丁目","koaza":"","lat":33.222707,"lng":132.570466,"zip":"7980037"},{"town":"丸穂町三丁目","koaza":"","lat":33.224225,"lng":132.569721,"zip":"7980037"},{"town":"丸穂町四丁目","koaza":"","lat":33.222781,"lng":132.568949,"zip":"7980037"},{"town":"丸之内一丁目","koaza":"","lat":33.219287,"lng":132.565159,"zip":"7980060"},{"town":"丸之内二丁目","koaza":"","lat":33.217575,"lng":132.564694,"zip":"7980060"},{"town":"丸之内三丁目","koaza":"","lat":33.218402,"lng":132.563326,"zip":"7980060"},{"town":"丸之内四丁目","koaza":"","lat":33.220707,"lng":132.562476,"zip":"7980060"},{"town":"丸之内五丁目","koaza":"","lat":33.221848,"lng":132.564041,"zip":"7980060"},{"town":"三浦西","koaza":"","lat":33.161527,"lng":132.481609,"zip":"7980102"},{"town":"三浦東","koaza":"","lat":33.179497,"lng":132.515172,"zip":"7980101"},{"town":"光満","koaza":"","lat":33.260457,"lng":132.592494,"zip":"7980021"},{"town":"三間町大内","koaza":"","lat":33.287151,"lng":132.649706,"zip":"7981136"},{"town":"三間町大藤","koaza":"","lat":33.313681,"lng":132.590659,"zip":"7981101"},{"town":"三間町音地","koaza":"","lat":33.312009,"lng":132.656891,"zip":"7981141"},{"town":"三間町金銅","koaza":"","lat":33.294198,"lng":132.638205,"zip":"7981134"},{"town":"三間町兼近","koaza":"","lat":33.279799,"lng":132.649863,"zip":"7981137"},{"town":"三間町川之内","koaza":"","lat":33.317438,"lng":132.628321,"zip":"7981121"},{"town":"三間町北増穂","koaza":"","lat":33.305225,"lng":132.614212,"zip":"7981111"},{"town":"三間町黒井地","koaza":"","lat":33.316107,"lng":132.607852,"zip":"7981116"},{"town":"三間町黒川","koaza":"","lat":33.298157,"lng":132.652061,"zip":"7981143"},{"town":"三間町小沢川","koaza":"","lat":33.300745,"lng":132.623466,"zip":"7981122"},{"town":"三間町古藤田","koaza":"","lat":33.291687,"lng":132.643611,"zip":"7981135"},{"town":"三間町是延","koaza":"","lat":33.278376,"lng":132.635922,"zip":"7981139"},{"town":"三間町是能","koaza":"","lat":33.291095,"lng":132.568519,"zip":"7981105"},{"town":"三間町則","koaza":"","lat":33.31305,"lng":132.578671,"zip":"7981102"},{"town":"三間町曽根","koaza":"","lat":33.291171,"lng":132.581994,"zip":"7981104"},{"town":"三間町田川","koaza":"","lat":33.312813,"lng":132.640613,"zip":"7981131"},{"town":"三間町土居垣内","koaza":"","lat":33.286444,"lng":132.636212,"zip":"7981138"},{"town":"三間町土居中","koaza":"","lat":33.275258,"lng":132.614942,"zip":"7981125"},{"town":"三間町戸雁","koaza":"","lat":33.295845,"lng":132.601247,"zip":"7981115"},{"town":"三間町中野中","koaza":"","lat":33.290812,"lng":132.630043,"zip":"7981133"},{"town":"三間町波岡","koaza":"","lat":33.297401,"lng":132.628914,"zip":"7981132"},{"town":"三間町成家","koaza":"","lat":33.296498,"lng":132.590994,"zip":"7981103"},{"town":"三間町迫目","koaza":"","lat":33.277637,"lng":132.604668,"zip":"7981113"},{"town":"三間町増田","koaza":"","lat":33.278768,"lng":132.623922,"zip":"7981124"},{"town":"三間町三間中間","koaza":"","lat":33.283963,"lng":132.666663,"zip":"7981142"},{"town":"三間町宮野下","koaza":"","lat":33.296159,"lng":132.611882,"zip":"7981112"},{"town":"三間町務田","koaza":"","lat":33.284321,"lng":132.598018,"zip":"7981114"},{"town":"三間町元宗","koaza":"","lat":33.291709,"lng":132.620248,"zip":"7981123"},{"town":"宮下","koaza":"","lat":33.205156,"lng":132.538868,"zip":"7980085"},{"town":"御幸町一丁目","koaza":"","lat":33.227668,"lng":132.564046,"zip":"7980013"},{"town":"御幸町二丁目","koaza":"","lat":33.22651,"lng":132.563723,"zip":"7980013"},{"town":"妙典寺前","koaza":"","lat":33.205368,"lng":132.570671,"zip":"7980071"},{"town":"明倫町一丁目","koaza":"","lat":33.219343,"lng":132.555232,"zip":"7980068"},{"town":"明倫町二丁目","koaza":"","lat":33.218888,"lng":132.55728,"zip":"7980068"},{"town":"明倫町三丁目","koaza":"","lat":33.219521,"lng":132.559071,"zip":"7980068"},{"town":"明倫町四丁目","koaza":"","lat":33.217633,"lng":132.558364,"zip":"7980068"},{"town":"明倫町五丁目","koaza":"","lat":33.217055,"lng":132.55629,"zip":"7980068"},{"town":"元結掛一丁目","koaza":"","lat":33.212007,"lng":132.56106,"zip":"7980072"},{"town":"元結掛二丁目","koaza":"","lat":33.210842,"lng":132.560802,"zip":"7980072"},{"town":"保田","koaza":"","lat":33.190246,"lng":132.543933,"zip":"7980077"},{"town":"山際","koaza":"","lat":33.207941,"lng":132.561816,"zip":"7980073"},{"town":"山際一丁目","koaza":"","lat":33.208547,"lng":132.560402,"zip":"7980073"},{"town":"山際二丁目","koaza":"","lat":33.209623,"lng":132.56039,"zip":"7980073"},{"town":"山際三丁目","koaza":"","lat":33.207513,"lng":132.558833,"zip":"7980073"},{"town":"山際四丁目","koaza":"","lat":33.210019,"lng":132.559273,"zip":"7980073"},{"town":"遊子","koaza":"","lat":33.191879,"lng":132.453354,"zip":"7980103"},{"town":"吉田町浅川","koaza":"","lat":33.267815,"lng":132.527652,"zip":"7993763"},{"town":"吉田町魚棚","koaza":"","lat":33.274914,"lng":132.540959,"zip":"7993704"},{"town":"吉田町裡町","koaza":"","lat":33.275765,"lng":132.543119,"zip":"7993706"},{"town":"吉田町沖村","koaza":"","lat":33.288434,"lng":132.524242,"zip":"7993751"},{"town":"吉田町奥浦","koaza":"","lat":33.283663,"lng":132.48571,"zip":"7993772"},{"town":"吉田町河内","koaza":"","lat":33.287765,"lng":132.504666,"zip":"7993752"},{"town":"吉田町北小路","koaza":"","lat":33.284342,"lng":132.541849,"zip":"7993701"},{"town":"吉田町白浦","koaza":"","lat":33.305297,"lng":132.528141,"zip":"7993741"},{"town":"吉田町立間","koaza":"","lat":33.304045,"lng":132.549775,"zip":"7993730"},{"town":"吉田町立間尻","koaza":"","lat":33.275489,"lng":132.551855,"zip":"7993710"},{"town":"吉田町知永","koaza":"","lat":33.258328,"lng":132.546687,"zip":"7993720"},{"town":"吉田町鶴間","koaza":"","lat":33.273379,"lng":132.532423,"zip":"7993707"},{"town":"吉田町鶴間新","koaza":"","lat":33.284545,"lng":132.531435,"zip":"7980000"},{"town":"吉田町南君","koaza":"","lat":33.268433,"lng":132.512429,"zip":"7993771"},{"town":"吉田町西小路","koaza":"","lat":33.279015,"lng":132.53858,"zip":"7993702"},{"town":"吉田町東小路","koaza":"","lat":33.279589,"lng":132.541326,"zip":"7993703"},{"town":"吉田町深浦","koaza":"","lat":33.320907,"lng":132.503984,"zip":"7993743"},{"town":"吉田町法花津","koaza":"","lat":33.326381,"lng":132.524275,"zip":"7993742"},{"town":"吉田町本町","koaza":"","lat":33.275614,"lng":132.541879,"zip":"7993705"},{"town":"寄松","koaza":"","lat":33.192492,"lng":132.529764,"zip":"7980084"},{"town":"蕨","koaza":"","lat":33.193818,"lng":132.511775,"zip":"7980094"},{"town":"和霊公園","koaza":"","lat":33.228428,"lng":132.565727,"zip":"7980014"},{"town":"和霊町","koaza":"","lat":33.232284,"lng":132.566536,"zip":"7980012"},{"town":"和霊中町一丁目","koaza":"","lat":33.229502,"lng":132.570307,"zip":"7980016"},{"town":"和霊中町二丁目","koaza":"","lat":33.229604,"lng":132.569255,"zip":"7980016"},{"town":"和霊中町三丁目","koaza":"","lat":33.231669,"lng":132.570285,"zip":"7980016"},{"town":"和霊東町一丁目","koaza":"","lat":33.229004,"lng":132.57254,"zip":"7980017"},{"town":"和霊東町二丁目","koaza":"","lat":33.230609,"lng":132.573664,"zip":"7980017"},{"town":"和霊東町三丁目","koaza":"","lat":33.231129,"lng":132.572102,"zip":"7980017"},{"town":"和霊元町一丁目","koaza":"","lat":33.227035,"lng":132.567198,"zip":"7980015"},{"town":"和霊元町二丁目","koaza":"","lat":33.227971,"lng":132.567915,"zip":"7980015"},{"town":"和霊元町三丁目","koaza":"","lat":33.228539,"lng":132.568585,"zip":"7980015"},{"town":"和霊元町四丁目","koaza":"","lat":33.229365,"lng":132.5673,"zip":"7980015"},{"town":"本九島","koaza":"","lat":33.227927,"lng":132.51712,"zip":"7980096"},{"town":"大浦","koaza":"","lat":33.245278,"lng":132.545059,"zip":"7980001"},{"town":"津島町北灘","koaza":"甲","lat":33.138879,"lng":132.500411,"zip":"7983362"},{"town":"津島町岩松","koaza":"甲","lat":33.125555,"lng":132.520576,"zip":"7983301"},{"town":"吉田町沖村","koaza":"甲","lat":33.291454,"lng":132.530795,"zip":"7993751"},{"town":"吉田町東小路","koaza":"甲","lat":33.278196,"lng":132.540717,"zip":"7993703"},{"town":"保田","koaza":"宮ノ段","lat":33.189149,"lng":132.546134,"zip":"7980077"},{"town":"保田","koaza":"若藤","lat":33.190992,"lng":132.546897,"zip":"7980077"},{"town":"祝森","koaza":"長田","lat":33.182121,"lng":132.549481,"zip":"7980078"},{"town":"寄松","koaza":"竹ノ鼻","lat":33.200017,"lng":132.54933,"zip":"7980084"},{"town":"伊吹町","koaza":"北宇和島町","lat":33.237717,"lng":132.565731,"zip":"7980023"},{"town":"伊吹町","koaza":"上井関","lat":33.237591,"lng":132.568252,"zip":"7980023"},{"town":"伊吹町","koaza":"カネツキ田","lat":33.239498,"lng":132.569463,"zip":"7980023"}]