[{"town":"井内","koaza":"","lat":33.748647,"lng":132.933395,"zip":"7910315"},{"town":"上村","koaza":"","lat":33.769665,"lng":132.854169,"zip":"7910221"},{"town":"牛渕","koaza":"","lat":33.790706,"lng":132.848621,"zip":"7910213"},{"town":"上林","koaza":"","lat":33.74319,"lng":132.893954,"zip":"7910223"},{"town":"河之内","koaza":"","lat":33.790609,"lng":132.973892,"zip":"7910321"},{"town":"北方","koaza":"","lat":33.820826,"lng":132.91541,"zip":"7910303"},{"town":"北野田","koaza":"","lat":33.793893,"lng":132.832002,"zip":"7910215"},{"town":"志津川","koaza":"","lat":33.809495,"lng":132.875036,"zip":"7910204"},{"town":"下林","koaza":"","lat":33.758917,"lng":132.869324,"zip":"7910222"},{"town":"則之内","koaza":"","lat":33.782918,"lng":132.930318,"zip":"7910311"},{"town":"田窪","koaza":"","lat":33.79037,"lng":132.860296,"zip":"7910212"},{"town":"滑川","koaza":"","lat":33.797611,"lng":133.004804,"zip":"7910322"},{"town":"西岡","koaza":"","lat":33.812423,"lng":132.869427,"zip":"7910205"},{"town":"野田一丁目","koaza":"","lat":33.794866,"lng":132.841148,"zip":"7910216"},{"town":"野田二丁目","koaza":"","lat":33.794519,"lng":132.837994,"zip":"7910216"},{"town":"野田三丁目","koaza":"","lat":33.794556,"lng":132.835071,"zip":"7910216"},{"town":"樋口","koaza":"","lat":33.822826,"lng":132.886589,"zip":"7910202"},{"town":"松瀬川","koaza":"","lat":33.828294,"lng":132.945231,"zip":"7910314"},{"town":"南方","koaza":"","lat":33.788918,"lng":132.902291,"zip":"7910301"},{"town":"南野田","koaza":"","lat":33.787178,"lng":132.835461,"zip":"7910214"},{"town":"見奈良","koaza":"","lat":33.792101,"lng":132.876856,"zip":"7910211"},{"town":"明河","koaza":"","lat":33.774754,"lng":133.006384,"zip":"7910323"},{"town":"山之内","koaza":"","lat":33.863716,"lng":132.923525,"zip":"7910201"},{"town":"横河原","koaza":"","lat":33.80093,"lng":132.884856,"zip":"7910203"},{"town":"吉久","koaza":"","lat":33.785606,"lng":132.88959,"zip":"7910302"},{"town":"田窪","koaza":"門田","lat":33.784374,"lng":132.855824,"zip":"7910212"}]