[{"town":"愛光町","koaza":"","lat":33.846316,"lng":132.749193,"zip":"7900064"},{"town":"安居島","koaza":"","lat":34.069636,"lng":132.704365,"zip":"7992433"},{"town":"会津町","koaza":"","lat":33.862186,"lng":132.726065,"zip":"7918076"},{"town":"青波町","koaza":"","lat":33.885329,"lng":132.856175,"zip":"7910124"},{"town":"青葉台","koaza":"","lat":33.857724,"lng":132.735192,"zip":"7918019"},{"town":"浅海原","koaza":"","lat":34.001847,"lng":132.795325,"zip":"7992401"},{"town":"浅海本谷","koaza":"","lat":34.007847,"lng":132.81228,"zip":"7992402"},{"town":"朝日ケ丘一丁目","koaza":"","lat":33.844984,"lng":132.740477,"zip":"7918024"},{"town":"朝日ケ丘二丁目","koaza":"","lat":33.848359,"lng":132.744108,"zip":"7918024"},{"town":"旭町","koaza":"","lat":33.839485,"lng":132.776824,"zip":"7900876"},{"town":"朝美一丁目","koaza":"","lat":33.843604,"lng":132.745387,"zip":"7918023"},{"town":"朝美二丁目","koaza":"","lat":33.846586,"lng":132.746064,"zip":"7918023"},{"town":"朝生田町一丁目","koaza":"","lat":33.823191,"lng":132.773714,"zip":"7900952"},{"town":"朝生田町二丁目","koaza":"","lat":33.823281,"lng":132.769552,"zip":"7900952"},{"town":"朝生田町三丁目","koaza":"","lat":33.823335,"lng":132.766601,"zip":"7900952"},{"town":"朝生田町四丁目","koaza":"","lat":33.823299,"lng":132.763616,"zip":"7900952"},{"town":"朝生田町五丁目","koaza":"","lat":33.820663,"lng":132.771511,"zip":"7900952"},{"town":"朝生田町六丁目","koaza":"","lat":33.82048,"lng":132.767167,"zip":"7900952"},{"town":"朝生田町七丁目","koaza":"","lat":33.820489,"lng":132.762705,"zip":"7900952"},{"town":"天山一丁目","koaza":"","lat":33.822489,"lng":132.778633,"zip":"7900951"},{"town":"天山二丁目","koaza":"","lat":33.820087,"lng":132.778178,"zip":"7900951"},{"town":"天山三丁目","koaza":"","lat":33.820191,"lng":132.774841,"zip":"7900951"},{"town":"天山町","koaza":"","lat":33.822522,"lng":132.781289,"zip":"7900951"},{"town":"粟井河原","koaza":"","lat":33.936854,"lng":132.766222,"zip":"7992463"},{"town":"安城寺町","koaza":"","lat":33.879403,"lng":132.740016,"zip":"7918006"},{"town":"居相一丁目","koaza":"","lat":33.810574,"lng":132.774073,"zip":"7900934"},{"town":"居相二丁目","koaza":"","lat":33.810289,"lng":132.771442,"zip":"7900934"},{"town":"居相三丁目","koaza":"","lat":33.810241,"lng":132.7691,"zip":"7900934"},{"town":"居相四丁目","koaza":"","lat":33.807749,"lng":132.770335,"zip":"7900934"},{"town":"居相五丁目","koaza":"","lat":33.807713,"lng":132.773921,"zip":"7900934"},{"town":"居相六丁目","koaza":"","lat":33.805712,"lng":132.77153,"zip":"7900934"},{"town":"生石町","koaza":"","lat":33.83307,"lng":132.742317,"zip":"7900051"},{"town":"石手一丁目","koaza":"","lat":33.849307,"lng":132.800391,"zip":"7900852"},{"town":"石手二丁目","koaza":"","lat":33.846769,"lng":132.7984,"zip":"7900852"},{"town":"石手三丁目","koaza":"","lat":33.845639,"lng":132.795813,"zip":"7900852"},{"town":"石手四丁目","koaza":"","lat":33.844043,"lng":132.792009,"zip":"7900852"},{"town":"石手五丁目","koaza":"","lat":33.846897,"lng":132.792201,"zip":"7900852"},{"town":"石手白石","koaza":"","lat":33.845551,"lng":132.802933,"zip":"7900902"},{"town":"石風呂町","koaza":"","lat":33.875987,"lng":132.717067,"zip":"7918084"},{"town":"泉町","koaza":"","lat":33.831962,"lng":132.767325,"zip":"7900025"},{"town":"磯河内","koaza":"","lat":33.928125,"lng":132.769395,"zip":"7992467"},{"town":"市坪北一丁目","koaza":"","lat":33.81357,"lng":132.753668,"zip":"7900946"},{"town":"市坪北二丁目","koaza":"","lat":33.812759,"lng":132.750904,"zip":"7900946"},{"town":"市坪西町","koaza":"","lat":33.809432,"lng":132.744574,"zip":"7900948"},{"town":"市坪南一丁目","koaza":"","lat":33.809532,"lng":132.753662,"zip":"7900947"},{"town":"市坪南二丁目","koaza":"","lat":33.809329,"lng":132.750875,"zip":"7900947"},{"town":"市坪南三丁目","koaza":"","lat":33.805752,"lng":132.75205,"zip":"7900947"},{"town":"一番町一丁目","koaza":"","lat":33.841126,"lng":132.773657,"zip":"7900001"},{"town":"一番町二丁目","koaza":"","lat":33.841222,"lng":132.771378,"zip":"7900001"},{"town":"一番町三丁目","koaza":"","lat":33.841925,"lng":132.768726,"zip":"7900001"},{"town":"一番町四丁目","koaza":"","lat":33.841289,"lng":132.766214,"zip":"7900001"},{"town":"和泉北一丁目","koaza":"","lat":33.823903,"lng":132.759925,"zip":"7900038"},{"town":"和泉北二丁目","koaza":"","lat":33.823321,"lng":132.756037,"zip":"7900038"},{"town":"和泉北三丁目","koaza":"","lat":33.819154,"lng":132.756713,"zip":"7900038"},{"town":"和泉北四丁目","koaza":"","lat":33.81764,"lng":132.757692,"zip":"7900038"},{"town":"和泉南一丁目","koaza":"","lat":33.818264,"lng":132.764546,"zip":"7900941"},{"town":"和泉南二丁目","koaza":"","lat":33.816505,"lng":132.763727,"zip":"7900941"},{"town":"和泉南三丁目","koaza":"","lat":33.816833,"lng":132.758889,"zip":"7900941"},{"town":"和泉南四丁目","koaza":"","lat":33.814622,"lng":132.757794,"zip":"7900941"},{"town":"和泉南五丁目","koaza":"","lat":33.813363,"lng":132.757824,"zip":"7900941"},{"town":"和泉南六丁目","koaza":"","lat":33.811151,"lng":132.758819,"zip":"7900941"},{"town":"井門町","koaza":"","lat":33.796879,"lng":132.777215,"zip":"7911114"},{"town":"猪木","koaza":"","lat":33.954983,"lng":132.835386,"zip":"7992416"},{"town":"今在家一丁目","koaza":"","lat":33.809274,"lng":132.791593,"zip":"7911106"},{"town":"今在家二丁目","koaza":"","lat":33.806922,"lng":132.791754,"zip":"7911106"},{"town":"今在家三丁目","koaza":"","lat":33.804874,"lng":132.791672,"zip":"7911106"},{"town":"今在家四丁目","koaza":"","lat":33.802261,"lng":132.79172,"zip":"7911106"},{"town":"今在家町","koaza":"","lat":33.808562,"lng":132.794184,"zip":"7911103"},{"town":"祝谷二丁目","koaza":"","lat":33.855782,"lng":132.780457,"zip":"7900833"},{"town":"祝谷三丁目","koaza":"","lat":33.855494,"lng":132.775837,"zip":"7900833"},{"town":"祝谷四丁目","koaza":"","lat":33.858479,"lng":132.777203,"zip":"7900833"},{"town":"祝谷五丁目","koaza":"","lat":33.858791,"lng":132.779239,"zip":"7900833"},{"town":"祝谷六丁目","koaza":"","lat":33.863326,"lng":132.774303,"zip":"7900833"},{"town":"祝谷西町","koaza":"","lat":33.860193,"lng":132.772049,"zip":"7900832"},{"town":"祝谷東町","koaza":"","lat":33.859562,"lng":132.786727,"zip":"7900835"},{"town":"祝谷町一丁目","koaza":"","lat":33.855715,"lng":132.785232,"zip":"7900834"},{"town":"岩崎町一丁目","koaza":"","lat":33.845037,"lng":132.786526,"zip":"7900854"},{"town":"岩崎町二丁目","koaza":"","lat":33.846113,"lng":132.784088,"zip":"7900854"},{"town":"院内","koaza":"","lat":33.958252,"lng":132.814885,"zip":"7992423"},{"town":"上野町","koaza":"","lat":33.773216,"lng":132.803547,"zip":"7911136"},{"town":"牛谷","koaza":"","lat":33.933601,"lng":132.809367,"zip":"7992446"},{"town":"内浜町","koaza":"","lat":33.86603,"lng":132.726942,"zip":"7918077"},{"town":"内宮町","koaza":"","lat":33.893863,"lng":132.749212,"zip":"7992654"},{"town":"馬木町","koaza":"","lat":33.893107,"lng":132.744688,"zip":"7992655"},{"town":"梅木町","koaza":"","lat":33.916651,"lng":132.851335,"zip":"7902643"},{"town":"梅田町","koaza":"","lat":33.859526,"lng":132.714055,"zip":"7918051"},{"town":"宇和間","koaza":"","lat":33.963279,"lng":132.590243,"zip":"7914506"},{"town":"永代町","koaza":"","lat":33.834486,"lng":132.761566,"zip":"7900022"},{"town":"枝松一丁目","koaza":"","lat":33.836594,"lng":132.785574,"zip":"7900962"},{"town":"枝松二丁目","koaza":"","lat":33.83477,"lng":132.784816,"zip":"7900962"},{"town":"枝松三丁目","koaza":"","lat":33.832712,"lng":132.784868,"zip":"7900962"},{"town":"枝松四丁目","koaza":"","lat":33.830769,"lng":132.784912,"zip":"7900962"},{"town":"枝松五丁目","koaza":"","lat":33.828291,"lng":132.784873,"zip":"7900962"},{"town":"枝松六丁目","koaza":"","lat":33.825415,"lng":132.784859,"zip":"7900962"},{"town":"恵原町","koaza":"","lat":33.764542,"lng":132.811391,"zip":"7911134"},{"town":"大井野町","koaza":"","lat":33.918991,"lng":132.886523,"zip":"7910134"},{"town":"大浦","koaza":"","lat":34.000094,"lng":132.77919,"zip":"7992408"},{"town":"大街道一丁目","koaza":"","lat":33.83716,"lng":132.77011,"zip":"7900004"},{"town":"大街道二丁目","koaza":"","lat":33.839723,"lng":132.770173,"zip":"7900004"},{"town":"大街道三丁目","koaza":"","lat":33.843224,"lng":132.770284,"zip":"7900004"},{"town":"大可賀一丁目","koaza":"","lat":33.854284,"lng":132.714511,"zip":"7918057"},{"town":"大可賀二丁目","koaza":"","lat":33.851504,"lng":132.714391,"zip":"7918057"},{"town":"大河内","koaza":"","lat":33.935299,"lng":132.821182,"zip":"7910000"},{"town":"大手町一丁目","koaza":"","lat":33.839926,"lng":132.757116,"zip":"7900067"},{"town":"大手町二丁目","koaza":"","lat":33.839862,"lng":132.75348,"zip":"7900067"},{"town":"大西谷","koaza":"","lat":33.910213,"lng":132.788232,"zip":"7992458"},{"town":"大橋町","koaza":"","lat":33.782756,"lng":132.810565,"zip":"7911126"},{"town":"小川","koaza":"","lat":33.919532,"lng":132.771357,"zip":"7992468"},{"town":"尾儀原","koaza":"","lat":33.981909,"lng":132.828089,"zip":"7992418"},{"town":"小栗一丁目","koaza":"","lat":33.826979,"lng":132.763189,"zip":"7900036"},{"town":"小栗二丁目","koaza":"","lat":33.826171,"lng":132.760448,"zip":"7900036"},{"town":"小栗三丁目","koaza":"","lat":33.827376,"lng":132.759671,"zip":"7900036"},{"town":"小栗四丁目","koaza":"","lat":33.828988,"lng":132.761832,"zip":"7900036"},{"town":"小栗五丁目","koaza":"","lat":33.828704,"lng":132.75886,"zip":"7900036"},{"town":"小栗六丁目","koaza":"","lat":33.827071,"lng":132.755874,"zip":"7900036"},{"town":"小栗七丁目","koaza":"","lat":33.827044,"lng":132.753069,"zip":"7900036"},{"town":"小栗町","koaza":"","lat":33.825954,"lng":132.750614,"zip":"7900037"},{"town":"越智一丁目","koaza":"","lat":33.808261,"lng":132.787509,"zip":"7900933"},{"town":"越智二丁目","koaza":"","lat":33.810089,"lng":132.784573,"zip":"7900933"},{"town":"越智三丁目","koaza":"","lat":33.810084,"lng":132.781619,"zip":"7900933"},{"town":"小野町","koaza":"","lat":33.850318,"lng":132.856486,"zip":"7910241"},{"town":"小浜","koaza":"","lat":33.963528,"lng":132.635812,"zip":"7914502"},{"town":"小山田","koaza":"","lat":33.992632,"lng":132.84534,"zip":"7992410"},{"town":"恩地町","koaza":"","lat":33.917071,"lng":132.83552,"zip":"7902642"},{"town":"海岸通","koaza":"","lat":33.857417,"lng":132.710859,"zip":"7918058"},{"town":"春日町","koaza":"","lat":33.832841,"lng":132.765111,"zip":"7900024"},{"town":"上総町","koaza":"","lat":33.906452,"lng":132.853131,"zip":"7902644"},{"town":"片山","koaza":"","lat":33.949053,"lng":132.777825,"zip":"7992439"},{"town":"歩行町一丁目","koaza":"","lat":33.842597,"lng":132.773673,"zip":"7900801"},{"town":"歩行町二丁目","koaza":"","lat":33.842494,"lng":132.771647,"zip":"7900801"},{"town":"勝岡町","koaza":"","lat":33.900906,"lng":132.722481,"zip":"7992661"},{"town":"勝山町一丁目","koaza":"","lat":33.839085,"lng":132.775365,"zip":"7900878"},{"town":"勝山町二丁目","koaza":"","lat":33.844402,"lng":132.775435,"zip":"7900878"},{"town":"門田町","koaza":"","lat":33.915103,"lng":132.687557,"zip":"7918091"},{"town":"鹿峰","koaza":"","lat":33.940035,"lng":132.771328,"zip":"7992461"},{"town":"上伊台町","koaza":"","lat":33.890387,"lng":132.806137,"zip":"7910111"},{"town":"上市一丁目","koaza":"","lat":33.84449,"lng":132.78887,"zip":"7900853"},{"town":"上市二丁目","koaza":"","lat":33.847815,"lng":132.789416,"zip":"7900853"},{"town":"上川原町","koaza":"","lat":33.778731,"lng":132.811621,"zip":"7911124"},{"town":"上高野町","koaza":"","lat":33.859566,"lng":132.810591,"zip":"7910103"},{"town":"上難波","koaza":"","lat":33.983455,"lng":132.803482,"zip":"7992405"},{"town":"上怒和","koaza":"","lat":33.985502,"lng":132.552871,"zip":"7914322"},{"town":"鴨川一丁目","koaza":"","lat":33.87323,"lng":132.753266,"zip":"7918004"},{"town":"鴨川二丁目","koaza":"","lat":33.873981,"lng":132.750963,"zip":"7918004"},{"town":"鴨川三丁目","koaza":"","lat":33.874015,"lng":132.748778,"zip":"7918004"},{"town":"鴨之池","koaza":"","lat":33.929965,"lng":132.770994,"zip":"7992466"},{"town":"萱町一丁目","koaza":"","lat":33.841584,"lng":132.757027,"zip":"7900813"},{"town":"萱町二丁目","koaza":"","lat":33.844011,"lng":132.756967,"zip":"7900813"},{"town":"萱町三丁目","koaza":"","lat":33.846424,"lng":132.756986,"zip":"7900813"},{"town":"萱町四丁目","koaza":"","lat":33.848649,"lng":132.756648,"zip":"7900813"},{"town":"萱町五丁目","koaza":"","lat":33.850294,"lng":132.756604,"zip":"7900813"},{"town":"萱町六丁目","koaza":"","lat":33.852909,"lng":132.756407,"zip":"7900813"},{"town":"河中町","koaza":"","lat":33.899884,"lng":132.87202,"zip":"7910132"},{"town":"川の郷町","koaza":"","lat":33.872855,"lng":132.871922,"zip":"7910129"},{"town":"河原町","koaza":"","lat":33.834415,"lng":132.770691,"zip":"7900013"},{"town":"神田町","koaza":"","lat":33.861458,"lng":132.717713,"zip":"7918063"},{"town":"祇園町","koaza":"","lat":33.830629,"lng":132.774078,"zip":"7900965"},{"town":"儀式","koaza":"","lat":33.984989,"lng":132.861472,"zip":"7992411"},{"town":"来住町","koaza":"","lat":33.806831,"lng":132.800645,"zip":"7911102"},{"town":"北井門一丁目","koaza":"","lat":33.805641,"lng":132.779747,"zip":"7911105"},{"town":"北井門二丁目","koaza":"","lat":33.803033,"lng":132.780334,"zip":"7911105"},{"town":"北井門三丁目","koaza":"","lat":33.805733,"lng":132.775197,"zip":"7911105"},{"town":"北井門四丁目","koaza":"","lat":33.803351,"lng":132.775012,"zip":"7911105"},{"town":"北井門五丁目","koaza":"","lat":33.803483,"lng":132.770125,"zip":"7911105"},{"town":"北梅本町","koaza":"","lat":33.824485,"lng":132.860568,"zip":"7910242"},{"town":"北久米町","koaza":"","lat":33.816687,"lng":132.793491,"zip":"7900923"},{"town":"北斎院町","koaza":"","lat":33.839402,"lng":132.723636,"zip":"7918031"},{"town":"北立花町","koaza":"","lat":33.834261,"lng":132.77277,"zip":"7900867"},{"town":"北土居一丁目","koaza":"","lat":33.806292,"lng":132.787584,"zip":"7911104"},{"town":"北土居二丁目","koaza":"","lat":33.802838,"lng":132.787623,"zip":"7911104"},{"town":"北土居三丁目","koaza":"","lat":33.802988,"lng":132.784429,"zip":"7911104"},{"town":"北土居四丁目","koaza":"","lat":33.806611,"lng":132.78359,"zip":"7911104"},{"town":"北土居五丁目","koaza":"","lat":33.807735,"lng":132.779227,"zip":"7911104"},{"town":"北藤原町","koaza":"","lat":33.834441,"lng":132.758681,"zip":"7900033"},{"town":"北持田町","koaza":"","lat":33.844506,"lng":132.777346,"zip":"7900873"},{"town":"北吉田町","koaza":"","lat":33.837799,"lng":132.70459,"zip":"7918041"},{"town":"衣山一丁目","koaza":"","lat":33.853049,"lng":132.746374,"zip":"7918025"},{"town":"衣山二丁目","koaza":"","lat":33.852792,"lng":132.743142,"zip":"7918025"},{"town":"衣山三丁目","koaza":"","lat":33.852183,"lng":132.739752,"zip":"7918025"},{"town":"衣山四丁目","koaza":"","lat":33.852359,"lng":132.736372,"zip":"7918025"},{"town":"衣山五丁目","koaza":"","lat":33.847948,"lng":132.737536,"zip":"7918025"},{"town":"客","koaza":"","lat":33.915185,"lng":132.795569,"zip":"7992454"},{"town":"木屋町一丁目","koaza":"","lat":33.848553,"lng":132.760285,"zip":"7900821"},{"town":"木屋町二丁目","koaza":"","lat":33.850268,"lng":132.760222,"zip":"7900821"},{"town":"木屋町三丁目","koaza":"","lat":33.8528,"lng":132.760126,"zip":"7900821"},{"town":"木屋町四丁目","koaza":"","lat":33.855284,"lng":132.760597,"zip":"7900821"},{"town":"清住一丁目","koaza":"","lat":33.854187,"lng":132.717731,"zip":"7918055"},{"town":"清住二丁目","koaza":"","lat":33.851228,"lng":132.717803,"zip":"7918055"},{"town":"喜与町一丁目","koaza":"","lat":33.843858,"lng":132.773748,"zip":"7900802"},{"town":"喜与町二丁目","koaza":"","lat":33.843807,"lng":132.772229,"zip":"7900802"},{"town":"空港通一丁目","koaza":"","lat":33.828054,"lng":132.748481,"zip":"7900054"},{"town":"空港通二丁目","koaza":"","lat":33.828423,"lng":132.742354,"zip":"7900054"},{"town":"空港通三丁目","koaza":"","lat":33.827892,"lng":132.738162,"zip":"7900054"},{"town":"空港通四丁目","koaza":"","lat":33.827874,"lng":132.735787,"zip":"7900054"},{"town":"空港通五丁目","koaza":"","lat":33.827813,"lng":132.733419,"zip":"7900054"},{"town":"空港通六丁目","koaza":"","lat":33.827811,"lng":132.730422,"zip":"7900054"},{"town":"空港通七丁目","koaza":"","lat":33.827801,"lng":132.727598,"zip":"7900054"},{"town":"九川","koaza":"","lat":33.931239,"lng":132.866102,"zip":"7910150"},{"town":"久谷町","koaza":"","lat":33.719232,"lng":132.837506,"zip":"7911132"},{"town":"久保","koaza":"","lat":33.938514,"lng":132.767957,"zip":"7992462"},{"town":"久保田町","koaza":"","lat":33.822324,"lng":132.720433,"zip":"7918035"},{"town":"窪野町","koaza":"","lat":33.733212,"lng":132.856678,"zip":"7911131"},{"town":"熊田","koaza":"","lat":33.968129,"lng":132.597305,"zip":"7914507"},{"town":"久万ノ台","koaza":"","lat":33.859432,"lng":132.742567,"zip":"7918016"},{"town":"久米窪田町","koaza":"","lat":33.804652,"lng":132.811203,"zip":"7911101"},{"town":"桑原一丁目","koaza":"","lat":33.835855,"lng":132.788967,"zip":"7900911"},{"town":"桑原二丁目","koaza":"","lat":33.835795,"lng":132.791822,"zip":"7900911"},{"town":"桑原三丁目","koaza":"","lat":33.833455,"lng":132.795937,"zip":"7900911"},{"town":"桑原四丁目","koaza":"","lat":33.832031,"lng":132.794275,"zip":"7900911"},{"town":"桑原五丁目","koaza":"","lat":33.831876,"lng":132.791468,"zip":"7900911"},{"town":"桑原六丁目","koaza":"","lat":33.831812,"lng":132.788998,"zip":"7900911"},{"town":"桑原七丁目","koaza":"","lat":33.829267,"lng":132.792256,"zip":"7900911"},{"town":"神浦","koaza":"","lat":33.953074,"lng":132.600521,"zip":"7914505"},{"town":"河野高山","koaza":"","lat":33.939723,"lng":132.802129,"zip":"7992445"},{"town":"河野中須賀","koaza":"","lat":33.947127,"lng":132.770985,"zip":"7992438"},{"town":"河野別府","koaza":"","lat":33.952383,"lng":132.781747,"zip":"7992436"},{"town":"光洋台","koaza":"","lat":33.92091,"lng":132.762556,"zip":"7992469"},{"town":"小川谷","koaza":"","lat":33.929977,"lng":132.797578,"zip":"7992451"},{"town":"小坂一丁目","koaza":"","lat":33.834836,"lng":132.781245,"zip":"7900963"},{"town":"小坂二丁目","koaza":"","lat":33.832696,"lng":132.781358,"zip":"7900963"},{"town":"小坂三丁目","koaza":"","lat":33.830741,"lng":132.78131,"zip":"7900963"},{"town":"小坂四丁目","koaza":"","lat":33.828254,"lng":132.780772,"zip":"7900963"},{"town":"小坂五丁目","koaza":"","lat":33.825796,"lng":132.780826,"zip":"7900963"},{"town":"此花町","koaza":"","lat":33.840242,"lng":132.779731,"zip":"7900863"},{"town":"小村町","koaza":"","lat":33.779142,"lng":132.815546,"zip":"7911125"},{"town":"米野町","koaza":"","lat":33.919984,"lng":132.910126,"zip":"7910135"},{"town":"小屋町","koaza":"","lat":33.911743,"lng":132.834317,"zip":"7902645"},{"town":"権現町","koaza":"","lat":33.898046,"lng":132.771163,"zip":"7992653"},{"town":"才之原","koaza":"","lat":33.970794,"lng":132.820861,"zip":"7992417"},{"town":"桜ケ丘","koaza":"","lat":33.871815,"lng":132.728625,"zip":"7918072"},{"town":"桜谷町","koaza":"","lat":33.853744,"lng":132.791492,"zip":"7900838"},{"town":"佐古","koaza":"","lat":33.940917,"lng":132.790382,"zip":"7992447"},{"town":"猿川","koaza":"","lat":33.965873,"lng":132.843578,"zip":"7992415"},{"town":"猿川原","koaza":"","lat":33.978419,"lng":132.839242,"zip":"7992419"},{"town":"三町一丁目","koaza":"","lat":33.82811,"lng":132.795003,"zip":"7900914"},{"town":"三町二丁目","koaza":"","lat":33.826232,"lng":132.795068,"zip":"7900914"},{"town":"三町三丁目","koaza":"","lat":33.824759,"lng":132.795297,"zip":"7900914"},{"town":"三番町一丁目","koaza":"","lat":33.838004,"lng":132.773579,"zip":"7900003"},{"town":"三番町二丁目","koaza":"","lat":33.838088,"lng":132.771249,"zip":"7900003"},{"town":"三番町三丁目","koaza":"","lat":33.837898,"lng":132.768838,"zip":"7900003"},{"town":"三番町四丁目","koaza":"","lat":33.8379,"lng":132.766298,"zip":"7900003"},{"town":"三番町五丁目","koaza":"","lat":33.83791,"lng":132.763423,"zip":"7900003"},{"town":"三番町六丁目","koaza":"","lat":33.837928,"lng":132.760035,"zip":"7900003"},{"town":"三番町七丁目","koaza":"","lat":33.838297,"lng":132.756718,"zip":"7900003"},{"town":"三番町八丁目","koaza":"","lat":33.838234,"lng":132.752998,"zip":"7900003"},{"town":"食場町","koaza":"","lat":33.850778,"lng":132.829126,"zip":"7910104"},{"town":"志津川町","koaza":"","lat":33.878989,"lng":132.747144,"zip":"7918003"},{"town":"東雲町","koaza":"","lat":33.845331,"lng":132.773986,"zip":"7900803"},{"town":"清水町一丁目","koaza":"","lat":33.848598,"lng":132.763939,"zip":"7900823"},{"town":"清水町二丁目","koaza":"","lat":33.850248,"lng":132.764059,"zip":"7900823"},{"town":"清水町三丁目","koaza":"","lat":33.852554,"lng":132.765794,"zip":"7900823"},{"town":"清水町四丁目","koaza":"","lat":33.854772,"lng":132.763562,"zip":"7900823"},{"town":"下伊台町","koaza":"","lat":33.873539,"lng":132.799896,"zip":"7910112"},{"town":"下難波","koaza":"","lat":33.98906,"lng":132.782745,"zip":"7992407"},{"town":"宿野町","koaza":"","lat":33.873102,"lng":132.834897,"zip":"7910123"},{"town":"庄","koaza":"","lat":33.978922,"lng":132.813266,"zip":"7992404"},{"town":"正円寺一丁目","koaza":"","lat":33.840705,"lng":132.796081,"zip":"7900904"},{"town":"正円寺二丁目","koaza":"","lat":33.838852,"lng":132.797202,"zip":"7900904"},{"town":"正円寺三丁目","koaza":"","lat":33.836712,"lng":132.798359,"zip":"7900904"},{"town":"正円寺四丁目","koaza":"","lat":33.836829,"lng":132.795371,"zip":"7900904"},{"town":"常光寺町","koaza":"","lat":33.852116,"lng":132.797378,"zip":"7900851"},{"town":"城山町","koaza":"","lat":33.910184,"lng":132.823768,"zip":"7902647"},{"town":"庄府","koaza":"","lat":33.986078,"lng":132.87747,"zip":"7992412"},{"town":"常保免","koaza":"","lat":33.948105,"lng":132.786554,"zip":"7992442"},{"town":"浄瑠璃町","koaza":"","lat":33.749282,"lng":132.815242,"zip":"7911133"},{"town":"昭和町","koaza":"","lat":33.846277,"lng":132.77704,"zip":"7900872"},{"town":"新石手","koaza":"","lat":33.845483,"lng":132.799744,"zip":"7900901"},{"town":"神次郎町","koaza":"","lat":33.903802,"lng":132.836629,"zip":"7902646"},{"town":"新立町","koaza":"","lat":33.837607,"lng":132.78091,"zip":"7900865"},{"town":"新浜町","koaza":"","lat":33.874977,"lng":132.713408,"zip":"7918083"},{"town":"末広町","koaza":"","lat":33.833434,"lng":132.763254,"zip":"7900023"},{"town":"末町","koaza":"","lat":33.873896,"lng":132.824968,"zip":"7910122"},{"town":"須賀町","koaza":"","lat":33.857895,"lng":132.71588,"zip":"7918052"},{"town":"杉立町","koaza":"","lat":33.86465,"lng":132.846664,"zip":"7910105"},{"town":"菅沢町","koaza":"","lat":33.906825,"lng":132.811683,"zip":"7902648"},{"town":"苞木","koaza":"","lat":33.94092,"lng":132.775124,"zip":"7992460"},{"town":"住吉一丁目","koaza":"","lat":33.864233,"lng":132.718038,"zip":"7918062"},{"town":"住吉二丁目","koaza":"","lat":33.864442,"lng":132.715629,"zip":"7918062"},{"town":"善応寺","koaza":"","lat":33.950876,"lng":132.798087,"zip":"7992443"},{"town":"太山寺町","koaza":"","lat":33.887046,"lng":132.724298,"zip":"7992662"},{"town":"高井町","koaza":"","lat":33.796264,"lng":132.816453,"zip":"7911111"},{"town":"高岡町","koaza":"","lat":33.830862,"lng":132.720361,"zip":"7918036"},{"town":"高木町","koaza":"","lat":33.884423,"lng":132.744753,"zip":"7918007"},{"town":"高砂町一丁目","koaza":"","lat":33.848564,"lng":132.761978,"zip":"7900822"},{"town":"高砂町二丁目","koaza":"","lat":33.850255,"lng":132.761776,"zip":"7900822"},{"town":"高砂町三丁目","koaza":"","lat":33.85274,"lng":132.76181,"zip":"7900822"},{"town":"高砂町四丁目","koaza":"","lat":33.855057,"lng":132.762262,"zip":"7900822"},{"town":"高田","koaza":"","lat":33.963851,"lng":132.805576,"zip":"7992422"},{"town":"鷹子町","koaza":"","lat":33.819919,"lng":132.813414,"zip":"7900925"},{"town":"高野町","koaza":"","lat":33.85279,"lng":132.814055,"zip":"7910102"},{"town":"高浜町一丁目","koaza":"","lat":33.880049,"lng":132.703484,"zip":"7918081"},{"town":"高浜町二丁目","koaza":"","lat":33.88424,"lng":132.703312,"zip":"7918081"},{"town":"高浜町三丁目","koaza":"","lat":33.885495,"lng":132.702291,"zip":"7918081"},{"town":"高浜町四丁目","koaza":"","lat":33.885414,"lng":132.704429,"zip":"7918081"},{"town":"高浜町五丁目","koaza":"","lat":33.886045,"lng":132.70619,"zip":"7918081"},{"town":"高浜町六丁目","koaza":"","lat":33.895421,"lng":132.712086,"zip":"7918081"},{"town":"高山町","koaza":"","lat":33.867553,"lng":132.725088,"zip":"7918079"},{"town":"滝本","koaza":"","lat":33.964183,"lng":132.834135,"zip":"7992416"},{"town":"拓川町","koaza":"","lat":33.826255,"lng":132.765536,"zip":"7900967"},{"town":"竹原二丁目","koaza":"","lat":33.832237,"lng":132.7531,"zip":"7900053"},{"town":"竹原三丁目","koaza":"","lat":33.831886,"lng":132.749554,"zip":"7900053"},{"town":"竹原四丁目","koaza":"","lat":33.831613,"lng":132.746509,"zip":"7900053"},{"town":"竹原町","koaza":"","lat":33.831929,"lng":132.75551,"zip":"7900052"},{"town":"竹原町一丁目","koaza":"","lat":33.833353,"lng":132.755508,"zip":"7900052"},{"town":"立花一丁目","koaza":"","lat":33.831443,"lng":132.771511,"zip":"7900966"},{"town":"立花二丁目","koaza":"","lat":33.82875,"lng":132.772499,"zip":"7900966"},{"town":"立花三丁目","koaza":"","lat":33.826164,"lng":132.773086,"zip":"7900966"},{"town":"立花四丁目","koaza":"","lat":33.828724,"lng":132.767951,"zip":"7900966"},{"town":"立花五丁目","koaza":"","lat":33.827715,"lng":132.770744,"zip":"7900966"},{"town":"立花六丁目","koaza":"","lat":33.825811,"lng":132.769355,"zip":"7900966"},{"town":"辰巳町","koaza":"","lat":33.866684,"lng":132.717967,"zip":"7918086"},{"town":"立岩米之野","koaza":"","lat":33.960871,"lng":132.874926,"zip":"7992413"},{"town":"立岩中村","koaza":"","lat":33.966265,"lng":132.857205,"zip":"7992414"},{"town":"谷町","koaza":"","lat":33.880685,"lng":132.757394,"zip":"7918002"},{"town":"玉谷町","koaza":"","lat":33.894604,"lng":132.844175,"zip":"7910126"},{"town":"樽味一丁目","koaza":"","lat":33.840335,"lng":132.788373,"zip":"7900905"},{"town":"樽味二丁目","koaza":"","lat":33.840621,"lng":132.791886,"zip":"7900905"},{"town":"樽味三丁目","koaza":"","lat":33.838703,"lng":132.793363,"zip":"7900905"},{"town":"樽味四丁目","koaza":"","lat":33.83876,"lng":132.788625,"zip":"7900905"},{"town":"千舟町一丁目","koaza":"","lat":33.836705,"lng":132.773754,"zip":"7900011"},{"town":"千舟町二丁目","koaza":"","lat":33.836603,"lng":132.771485,"zip":"7900011"},{"town":"千舟町三丁目","koaza":"","lat":33.836826,"lng":132.768797,"zip":"7900011"},{"town":"千舟町四丁目","koaza":"","lat":33.836823,"lng":132.766263,"zip":"7900011"},{"town":"千舟町五丁目","koaza":"","lat":33.836751,"lng":132.763488,"zip":"7900011"},{"town":"千舟町六丁目","koaza":"","lat":33.836698,"lng":132.760077,"zip":"7900011"},{"town":"千舟町七丁目","koaza":"","lat":33.837093,"lng":132.75672,"zip":"7900011"},{"town":"千舟町八丁目","koaza":"","lat":33.836595,"lng":132.753577,"zip":"7900011"},{"town":"中央一丁目","koaza":"","lat":33.853932,"lng":132.751538,"zip":"7918015"},{"town":"中央二丁目","koaza":"","lat":33.85583,"lng":132.746259,"zip":"7918015"},{"town":"束本一丁目","koaza":"","lat":33.832743,"lng":132.787183,"zip":"7900916"},{"town":"束本二丁目","koaza":"","lat":33.827807,"lng":132.787221,"zip":"7900916"},{"town":"築山町","koaza":"","lat":33.838629,"lng":132.779864,"zip":"7900864"},{"town":"辻町","koaza":"","lat":33.84332,"lng":132.748952,"zip":"7900063"},{"town":"常竹","koaza":"","lat":33.935987,"lng":132.780488,"zip":"7992455"},{"town":"津吉町","koaza":"","lat":33.768358,"lng":132.836029,"zip":"7911122"},{"town":"津和地","koaza":"","lat":33.977624,"lng":132.506547,"zip":"7914324"},{"town":"出合","koaza":"","lat":33.807803,"lng":132.72223,"zip":"7900048"},{"town":"鉄砲町","koaza":"","lat":33.848652,"lng":132.765956,"zip":"7900827"},{"town":"土居田町","koaza":"","lat":33.823276,"lng":132.746488,"zip":"7900056"},{"town":"土居町","koaza":"","lat":33.798272,"lng":132.790757,"zip":"7911115"},{"town":"問屋町","koaza":"","lat":33.864324,"lng":132.750904,"zip":"7918018"},{"town":"道後一万","koaza":"","lat":33.848157,"lng":132.777269,"zip":"7900844"},{"town":"道後今市","koaza":"","lat":33.850457,"lng":132.77746,"zip":"7900845"},{"town":"道後北代","koaza":"","lat":33.852983,"lng":132.777633,"zip":"7900846"},{"town":"道後喜多町","koaza":"","lat":33.851313,"lng":132.781202,"zip":"7900848"},{"town":"道後公園","koaza":"","lat":33.848429,"lng":132.786792,"zip":"7900857"},{"town":"道後鷺谷町","koaza":"","lat":33.853968,"lng":132.786266,"zip":"7900836"},{"town":"道後多幸町","koaza":"","lat":33.853526,"lng":132.783887,"zip":"7900841"},{"town":"道後樋又","koaza":"","lat":33.852406,"lng":132.772246,"zip":"7900825"},{"town":"道後姫塚","koaza":"","lat":33.849578,"lng":132.790415,"zip":"7900858"},{"town":"道後町一丁目","koaza":"","lat":33.848949,"lng":132.784022,"zip":"7900843"},{"town":"道後町二丁目","koaza":"","lat":33.848894,"lng":132.781027,"zip":"7900843"},{"town":"道後緑台","koaza":"","lat":33.85339,"lng":132.781178,"zip":"7900847"},{"town":"道後湯月町","koaza":"","lat":33.852166,"lng":132.788598,"zip":"7900837"},{"town":"道後湯之町","koaza":"","lat":33.851251,"lng":132.785321,"zip":"7900842"},{"town":"土手内","koaza":"","lat":33.970974,"lng":132.772834,"zip":"7992432"},{"town":"土橋町","koaza":"","lat":33.833055,"lng":132.756549,"zip":"7900032"},{"town":"泊町","koaza":"","lat":33.885778,"lng":132.673122,"zip":"7918093"},{"town":"富久町","koaza":"","lat":33.822368,"lng":132.728708,"zip":"7918034"},{"town":"中一万町","koaza":"","lat":33.846531,"lng":132.774057,"zip":"7900804"},{"town":"永木町一丁目","koaza":"","lat":33.836412,"lng":132.776874,"zip":"7900866"},{"town":"永木町二丁目","koaza":"","lat":33.835355,"lng":132.774791,"zip":"7900866"},{"town":"長師","koaza":"","lat":33.961097,"lng":132.624615,"zip":"7914503"},{"town":"中島粟井","koaza":"","lat":34.001693,"lng":132.638574,"zip":"7914511"},{"town":"中島大浦","koaza":"","lat":33.978209,"lng":132.623938,"zip":"7914501"},{"town":"中須賀一丁目","koaza":"","lat":33.864826,"lng":132.723868,"zip":"7918078"},{"town":"中須賀二丁目","koaza":"","lat":33.866619,"lng":132.722676,"zip":"7918078"},{"town":"中須賀三丁目","koaza":"","lat":33.865964,"lng":132.720488,"zip":"7918078"},{"town":"中通","koaza":"","lat":33.984942,"lng":132.792429,"zip":"7992406"},{"town":"中西内","koaza":"","lat":33.972451,"lng":132.785683,"zip":"7992426"},{"town":"中西外","koaza":"","lat":33.963883,"lng":132.784177,"zip":"7992425"},{"town":"中野町","koaza":"","lat":33.773351,"lng":132.824951,"zip":"7911121"},{"town":"中村一丁目","koaza":"","lat":33.834948,"lng":132.777786,"zip":"7900964"},{"town":"中村二丁目","koaza":"","lat":33.832673,"lng":132.777226,"zip":"7900964"},{"town":"中村三丁目","koaza":"","lat":33.830733,"lng":132.777186,"zip":"7900964"},{"town":"中村四丁目","koaza":"","lat":33.828016,"lng":132.776618,"zip":"7900964"},{"town":"中村五丁目","koaza":"","lat":33.825667,"lng":132.776631,"zip":"7900964"},{"town":"夏目","koaza":"","lat":33.943006,"lng":132.780071,"zip":"7992437"},{"town":"西石井一丁目","koaza":"","lat":33.81758,"lng":132.773781,"zip":"7900931"},{"town":"西石井二丁目","koaza":"","lat":33.81763,"lng":132.771462,"zip":"7900931"},{"town":"西石井三丁目","koaza":"","lat":33.81767,"lng":132.76909,"zip":"7900931"},{"town":"西石井四丁目","koaza":"","lat":33.814075,"lng":132.769081,"zip":"7900931"},{"town":"西石井五丁目","koaza":"","lat":33.813787,"lng":132.771416,"zip":"7900931"},{"town":"西石井六丁目","koaza":"","lat":33.813734,"lng":132.773961,"zip":"7900931"},{"town":"西一万町","koaza":"","lat":33.84625,"lng":132.772495,"zip":"7900805"},{"town":"錦町","koaza":"","lat":33.8377,"lng":132.77662,"zip":"7900877"},{"town":"西谷","koaza":"","lat":33.922163,"lng":132.783456,"zip":"7992457"},{"town":"西長戸町","koaza":"","lat":33.867813,"lng":132.741949,"zip":"7918017"},{"town":"西野町","koaza":"","lat":33.762006,"lng":132.802809,"zip":"7911135"},{"town":"西垣生町","koaza":"","lat":33.813675,"lng":132.701207,"zip":"7918044"},{"town":"二番町一丁目","koaza":"","lat":33.839601,"lng":132.773604,"zip":"7900002"},{"town":"二番町二丁目","koaza":"","lat":33.839637,"lng":132.771329,"zip":"7900002"},{"town":"二番町三丁目","koaza":"","lat":33.8396,"lng":132.768883,"zip":"7900002"},{"town":"二番町四丁目","koaza":"","lat":33.839549,"lng":132.766295,"zip":"7900002"},{"town":"饒","koaza":"","lat":33.988991,"lng":132.61161,"zip":"7914509"},{"town":"野忽那","koaza":"","lat":33.971129,"lng":132.688764,"zip":"7914432"},{"town":"梅津寺町","koaza":"","lat":33.875102,"lng":132.708901,"zip":"7918082"},{"town":"萩原","koaza":"","lat":33.996209,"lng":132.819152,"zip":"7992403"},{"town":"白水台一丁目","koaza":"","lat":33.873516,"lng":132.780745,"zip":"7910113"},{"town":"白水台二丁目","koaza":"","lat":33.873831,"lng":132.778802,"zip":"7910113"},{"town":"白水台三丁目","koaza":"","lat":33.878062,"lng":132.779613,"zip":"7910113"},{"town":"白水台四丁目","koaza":"","lat":33.87716,"lng":132.781205,"zip":"7910113"},{"town":"白水台五丁目","koaza":"","lat":33.871823,"lng":132.778513,"zip":"7910113"},{"town":"白水台六丁目","koaza":"","lat":33.874666,"lng":132.777196,"zip":"7910113"},{"town":"畑寺一丁目","koaza":"","lat":33.833533,"lng":132.800314,"zip":"7900913"},{"town":"畑寺二丁目","koaza":"","lat":33.83093,"lng":132.799445,"zip":"7900913"},{"town":"畑寺三丁目","koaza":"","lat":33.827893,"lng":132.80066,"zip":"7900913"},{"town":"畑寺四丁目","koaza":"","lat":33.825711,"lng":132.801917,"zip":"7900913"},{"town":"畑寺町","koaza":"","lat":33.832092,"lng":132.808517,"zip":"7900912"},{"town":"畑里","koaza":"","lat":34.001643,"lng":132.63388,"zip":"7914510"},{"town":"八反地","koaza":"","lat":33.965262,"lng":132.791637,"zip":"7992424"},{"town":"花園町","koaza":"","lat":33.837673,"lng":132.761772,"zip":"7900005"},{"town":"祓川一丁目","koaza":"","lat":33.858646,"lng":132.720781,"zip":"7918066"},{"town":"祓川二丁目","koaza":"","lat":33.860881,"lng":132.721087,"zip":"7918066"},{"town":"針田町","koaza":"","lat":33.822356,"lng":132.735852,"zip":"7900055"},{"town":"春美町","koaza":"","lat":33.868848,"lng":132.721916,"zip":"7918087"},{"town":"東石井一丁目","koaza":"","lat":33.819024,"lng":132.780144,"zip":"7900932"},{"town":"東石井二丁目","koaza":"","lat":33.816515,"lng":132.779812,"zip":"7900932"},{"town":"東石井三丁目","koaza":"","lat":33.814741,"lng":132.780195,"zip":"7900932"},{"town":"東石井四丁目","koaza":"","lat":33.812216,"lng":132.781068,"zip":"7900932"},{"town":"東石井五丁目","koaza":"","lat":33.816176,"lng":132.776027,"zip":"7900932"},{"town":"東石井六丁目","koaza":"","lat":33.811526,"lng":132.777308,"zip":"7900932"},{"town":"東石井七丁目","koaza":"","lat":33.807754,"lng":132.776336,"zip":"7900932"},{"town":"東一万町","koaza":"","lat":33.847064,"lng":132.77711,"zip":"7900871"},{"town":"東大栗町","koaza":"","lat":33.904426,"lng":132.782986,"zip":"7992649"},{"town":"東方町","koaza":"","lat":33.763088,"lng":132.820612,"zip":"7911123"},{"town":"東川町","koaza":"","lat":33.907198,"lng":132.880525,"zip":"7910133"},{"town":"東長戸一丁目","koaza":"","lat":33.867559,"lng":132.753829,"zip":"7918005"},{"town":"東長戸二丁目","koaza":"","lat":33.866919,"lng":132.749063,"zip":"7918005"},{"town":"東長戸三丁目","koaza":"","lat":33.870492,"lng":132.749055,"zip":"7918005"},{"town":"東長戸四丁目","koaza":"","lat":33.870459,"lng":132.752605,"zip":"7918005"},{"town":"東野一丁目","koaza":"","lat":33.842746,"lng":132.795181,"zip":"7900903"},{"town":"東野二丁目","koaza":"","lat":33.842184,"lng":132.799244,"zip":"7900903"},{"town":"東野三丁目","koaza":"","lat":33.840377,"lng":132.814919,"zip":"7900903"},{"town":"東野四丁目","koaza":"","lat":33.840742,"lng":132.804642,"zip":"7900903"},{"town":"東野五丁目","koaza":"","lat":33.838594,"lng":132.801428,"zip":"7900903"},{"town":"東野六丁目","koaza":"","lat":33.835731,"lng":132.800126,"zip":"7900903"},{"town":"東垣生町","koaza":"","lat":33.813135,"lng":132.714338,"zip":"7918043"},{"town":"東山町","koaza":"","lat":33.865874,"lng":132.732596,"zip":"7918074"},{"town":"日の出町","koaza":"","lat":33.837121,"lng":132.782305,"zip":"7900961"},{"town":"ひばりケ丘","koaza":"","lat":33.862467,"lng":132.730363,"zip":"7918075"},{"town":"姫原一丁目","koaza":"","lat":33.866348,"lng":132.764888,"zip":"7918012"},{"town":"姫原二丁目","koaza":"","lat":33.86621,"lng":132.759802,"zip":"7918012"},{"town":"姫原三丁目","koaza":"","lat":33.865618,"lng":132.75599,"zip":"7918012"},{"town":"平井町","koaza":"","lat":33.824694,"lng":132.836156,"zip":"7910243"},{"town":"平田町","koaza":"","lat":33.887137,"lng":132.754694,"zip":"7918001"},{"town":"平林","koaza":"","lat":33.927244,"lng":132.791223,"zip":"7992452"},{"town":"福音寺町","koaza":"","lat":33.821822,"lng":132.790842,"zip":"7900921"},{"town":"福角町","koaza":"","lat":33.897923,"lng":132.759734,"zip":"7992652"},{"town":"福見川町","koaza":"","lat":33.889285,"lng":132.884195,"zip":"7910128"},{"town":"藤野町","koaza":"","lat":33.897644,"lng":132.857518,"zip":"7910127"},{"town":"藤原一丁目","koaza":"","lat":33.83048,"lng":132.761734,"zip":"7900035"},{"town":"藤原二丁目","koaza":"","lat":33.830372,"lng":132.758659,"zip":"7900035"},{"town":"藤原町","koaza":"","lat":33.832286,"lng":132.758338,"zip":"7900034"},{"town":"二神","koaza":"","lat":33.932138,"lng":132.529218,"zip":"7914323"},{"town":"府中","koaza":"","lat":33.955365,"lng":132.775728,"zip":"7992435"},{"town":"船ケ谷町","koaza":"","lat":33.871743,"lng":132.734293,"zip":"7918073"},{"town":"麓","koaza":"","lat":33.92254,"lng":132.803729,"zip":"7992453"},{"town":"古川北一丁目","koaza":"","lat":33.814687,"lng":132.764287,"zip":"7900942"},{"town":"古川北二丁目","koaza":"","lat":33.812643,"lng":132.764322,"zip":"7900942"},{"town":"古川北三丁目","koaza":"","lat":33.810955,"lng":132.764327,"zip":"7900942"},{"town":"古川北四丁目","koaza":"","lat":33.809443,"lng":132.764327,"zip":"7900942"},{"town":"古川西一丁目","koaza":"","lat":33.810568,"lng":132.756965,"zip":"7900944"},{"town":"古川西二丁目","koaza":"","lat":33.808664,"lng":132.757795,"zip":"7900944"},{"town":"古川西三丁目","koaza":"","lat":33.805226,"lng":132.756919,"zip":"7900944"},{"town":"古川南一丁目","koaza":"","lat":33.807734,"lng":132.764353,"zip":"7900943"},{"town":"古川南二丁目","koaza":"","lat":33.806534,"lng":132.764003,"zip":"7900943"},{"town":"古川南三丁目","koaza":"","lat":33.802792,"lng":132.760676,"zip":"7900943"},{"town":"古三津一丁目","koaza":"","lat":33.859405,"lng":132.72402,"zip":"7918067"},{"town":"古三津二丁目","koaza":"","lat":33.859043,"lng":132.727179,"zip":"7918067"},{"town":"古三津三丁目","koaza":"","lat":33.858888,"lng":132.730704,"zip":"7918067"},{"town":"古三津四丁目","koaza":"","lat":33.854745,"lng":132.732442,"zip":"7918067"},{"town":"古三津五丁目","koaza":"","lat":33.855781,"lng":132.726709,"zip":"7918067"},{"town":"古三津六丁目","koaza":"","lat":33.856197,"lng":132.721375,"zip":"7918067"},{"town":"古三津町","koaza":"","lat":33.853369,"lng":132.729908,"zip":"7918067"},{"town":"文京町","koaza":"","lat":33.849715,"lng":132.770515,"zip":"7900826"},{"town":"平和通一丁目","koaza":"","lat":33.847577,"lng":132.773825,"zip":"7900807"},{"town":"平和通二丁目","koaza":"","lat":33.847649,"lng":132.770418,"zip":"7900807"},{"town":"平和通三丁目","koaza":"","lat":33.847299,"lng":132.767074,"zip":"7900807"},{"town":"平和通四丁目","koaza":"","lat":33.84723,"lng":132.763343,"zip":"7900807"},{"town":"平和通五丁目","koaza":"","lat":33.847629,"lng":132.760635,"zip":"7900807"},{"town":"平和通六丁目","koaza":"","lat":33.84763,"lng":132.75657,"zip":"7900807"},{"town":"別府町","koaza":"","lat":33.846241,"lng":132.720868,"zip":"7918056"},{"town":"北条","koaza":"","lat":33.978983,"lng":132.779623,"zip":"7992431"},{"town":"北条辻","koaza":"","lat":33.968379,"lng":132.777843,"zip":"7992430"},{"town":"保免上一丁目","koaza":"","lat":33.818466,"lng":132.752079,"zip":"7900041"},{"town":"保免上二丁目","koaza":"","lat":33.815746,"lng":132.751287,"zip":"7900041"},{"town":"保免中一丁目","koaza":"","lat":33.818116,"lng":132.747173,"zip":"7900042"},{"town":"保免中二丁目","koaza":"","lat":33.817028,"lng":132.74789,"zip":"7900042"},{"town":"保免中三丁目","koaza":"","lat":33.813804,"lng":132.747367,"zip":"7900042"},{"town":"保免西一丁目","koaza":"","lat":33.817546,"lng":132.744424,"zip":"7900043"},{"town":"保免西二丁目","koaza":"","lat":33.817028,"lng":132.741844,"zip":"7900043"},{"town":"保免西三丁目","koaza":"","lat":33.813851,"lng":132.744173,"zip":"7900043"},{"town":"保免西四丁目","koaza":"","lat":33.812811,"lng":132.741799,"zip":"7900043"},{"town":"星岡一丁目","koaza":"","lat":33.81811,"lng":132.787144,"zip":"7900922"},{"town":"星岡二丁目","koaza":"","lat":33.818455,"lng":132.783735,"zip":"7900922"},{"town":"星岡三丁目","koaza":"","lat":33.815393,"lng":132.78529,"zip":"7900922"},{"town":"星岡四丁目","koaza":"","lat":33.813531,"lng":132.787732,"zip":"7900922"},{"town":"星岡五丁目","koaza":"","lat":33.810821,"lng":132.787137,"zip":"7900922"},{"town":"星岡町","koaza":"","lat":33.820525,"lng":132.788584,"zip":"7900922"},{"town":"堀江町","koaza":"","lat":33.908885,"lng":132.759138,"zip":"7992651"},{"town":"堀之内","koaza":"","lat":33.842173,"lng":132.761254,"zip":"7900007"},{"town":"本谷","koaza":"","lat":33.931166,"lng":132.783918,"zip":"7992456"},{"town":"本町一丁目","koaza":"","lat":33.841662,"lng":132.75844,"zip":"7900811"},{"town":"本町二丁目","koaza":"","lat":33.843999,"lng":132.758455,"zip":"7900811"},{"town":"本町三丁目","koaza":"","lat":33.846311,"lng":132.758643,"zip":"7900811"},{"town":"本町四丁目","koaza":"","lat":33.848472,"lng":132.75866,"zip":"7900811"},{"town":"本町五丁目","koaza":"","lat":33.850282,"lng":132.75869,"zip":"7900811"},{"town":"本町六丁目","koaza":"","lat":33.852826,"lng":132.758761,"zip":"7900811"},{"town":"本町七丁目","koaza":"","lat":33.855437,"lng":132.75912,"zip":"7900811"},{"town":"正岡神田","koaza":"","lat":33.968255,"lng":132.810954,"zip":"7992421"},{"town":"松前町一丁目","koaza":"","lat":33.841621,"lng":132.757702,"zip":"7900812"},{"town":"松前町二丁目","koaza":"","lat":33.844008,"lng":132.757653,"zip":"7900812"},{"town":"松前町三丁目","koaza":"","lat":33.846412,"lng":132.757657,"zip":"7900812"},{"town":"松前町四丁目","koaza":"","lat":33.848601,"lng":132.757651,"zip":"7900812"},{"town":"松前町五丁目","koaza":"","lat":33.85028,"lng":132.757729,"zip":"7900812"},{"town":"真砂町","koaza":"","lat":33.832591,"lng":132.760831,"zip":"7900021"},{"town":"松江町","koaza":"","lat":33.856226,"lng":132.714419,"zip":"7918054"},{"town":"松末一丁目","koaza":"","lat":33.826837,"lng":132.790334,"zip":"7900915"},{"town":"松末二丁目","koaza":"","lat":33.825734,"lng":132.788349,"zip":"7900915"},{"town":"松ノ木一丁目","koaza":"","lat":33.870023,"lng":132.719258,"zip":"7918071"},{"town":"松ノ木二丁目","koaza":"","lat":33.875208,"lng":132.723555,"zip":"7918071"},{"town":"丸之内","koaza":"","lat":33.844595,"lng":132.766555,"zip":"7900008"},{"town":"味酒町一丁目","koaza":"","lat":33.841555,"lng":132.75583,"zip":"7900814"},{"town":"味酒町二丁目","koaza":"","lat":33.844027,"lng":132.755574,"zip":"7900814"},{"town":"味酒町三丁目","koaza":"","lat":33.846429,"lng":132.755751,"zip":"7900814"},{"town":"美沢一丁目","koaza":"","lat":33.849752,"lng":132.748641,"zip":"7918022"},{"town":"美沢二丁目","koaza":"","lat":33.849809,"lng":132.744542,"zip":"7918022"},{"town":"三杉町","koaza":"","lat":33.863344,"lng":132.721106,"zip":"7918065"},{"town":"溝辺町","koaza":"","lat":33.851633,"lng":132.805997,"zip":"7910101"},{"town":"御宝町","koaza":"","lat":33.840992,"lng":132.776877,"zip":"7900875"},{"town":"三津一丁目","koaza":"","lat":33.865851,"lng":132.712209,"zip":"7918061"},{"town":"三津二丁目","koaza":"","lat":33.86363,"lng":132.712054,"zip":"7918061"},{"town":"三津三丁目","koaza":"","lat":33.86156,"lng":132.713245,"zip":"7918061"},{"town":"三津ふ頭","koaza":"","lat":33.864195,"lng":132.708542,"zip":"7918060"},{"town":"みどりケ丘","koaza":"","lat":33.858664,"lng":132.733573,"zip":"7918068"},{"town":"緑町一丁目","koaza":"","lat":33.845975,"lng":132.770125,"zip":"7900806"},{"town":"緑町二丁目","koaza":"","lat":33.846786,"lng":132.770264,"zip":"7900806"},{"town":"水泥町","koaza":"","lat":33.80331,"lng":132.826475,"zip":"7910244"},{"town":"水口町","koaza":"","lat":33.905183,"lng":132.860242,"zip":"7910131"},{"town":"湊町一丁目","koaza":"","lat":33.836085,"lng":132.773616,"zip":"7900012"},{"town":"湊町二丁目","koaza":"","lat":33.835622,"lng":132.771973,"zip":"7900012"},{"town":"湊町三丁目","koaza":"","lat":33.835677,"lng":132.769073,"zip":"7900012"},{"town":"湊町四丁目","koaza":"","lat":33.835795,"lng":132.765892,"zip":"7900012"},{"town":"湊町五丁目","koaza":"","lat":33.835933,"lng":132.762679,"zip":"7900012"},{"town":"湊町六丁目","koaza":"","lat":33.835909,"lng":132.760075,"zip":"7900012"},{"town":"湊町七丁目","koaza":"","lat":33.835713,"lng":132.755855,"zip":"7900012"},{"town":"湊町八丁目","koaza":"","lat":33.835621,"lng":132.752151,"zip":"7900012"},{"town":"港山町","koaza":"","lat":33.868632,"lng":132.713752,"zip":"7918085"},{"town":"南梅本町","koaza":"","lat":33.800612,"lng":132.840061,"zip":"7910245"},{"town":"南江戸一丁目","koaza":"","lat":33.838208,"lng":132.75005,"zip":"7900062"},{"town":"南江戸二丁目","koaza":"","lat":33.837105,"lng":132.747599,"zip":"7900062"},{"town":"南江戸三丁目","koaza":"","lat":33.837865,"lng":132.745204,"zip":"7900062"},{"town":"南江戸四丁目","koaza":"","lat":33.837758,"lng":132.741668,"zip":"7900062"},{"town":"南江戸五丁目","koaza":"","lat":33.842118,"lng":132.742746,"zip":"7900062"},{"town":"南江戸六丁目","koaza":"","lat":33.842026,"lng":132.737377,"zip":"7900062"},{"town":"南江戸町","koaza":"","lat":33.838413,"lng":132.737774,"zip":"7900061"},{"town":"南久米町","koaza":"","lat":33.817141,"lng":132.80287,"zip":"7900924"},{"town":"南斎院町","koaza":"","lat":33.83303,"lng":132.731679,"zip":"7918032"},{"town":"南高井町","koaza":"","lat":33.788893,"lng":132.813034,"zip":"7911112"},{"town":"南土居町","koaza":"","lat":33.797985,"lng":132.802906,"zip":"7911116"},{"town":"南白水一丁目","koaza":"","lat":33.865829,"lng":132.784772,"zip":"7910114"},{"town":"南白水二丁目","koaza":"","lat":33.867954,"lng":132.786699,"zip":"7910114"},{"town":"南白水三丁目","koaza":"","lat":33.866402,"lng":132.788037,"zip":"7910114"},{"town":"南堀端町","koaza":"","lat":33.839074,"lng":132.761724,"zip":"7900006"},{"town":"南町一丁目","koaza":"","lat":33.846446,"lng":132.781687,"zip":"7900856"},{"town":"南町二丁目","koaza":"","lat":33.846442,"lng":132.779371,"zip":"7900856"},{"town":"南持田町","koaza":"","lat":33.842356,"lng":132.777125,"zip":"7900874"},{"town":"南吉田町","koaza":"","lat":33.827937,"lng":132.703969,"zip":"7918042"},{"town":"宮内","koaza":"","lat":33.953436,"lng":132.790837,"zip":"7992441"},{"town":"宮田町","koaza":"","lat":33.842382,"lng":132.752948,"zip":"7900066"},{"town":"宮西一丁目","koaza":"","lat":33.845813,"lng":132.752728,"zip":"7900065"},{"town":"宮西二丁目","koaza":"","lat":33.848687,"lng":132.752838,"zip":"7900065"},{"town":"宮西三丁目","koaza":"","lat":33.850066,"lng":132.75469,"zip":"7900065"},{"town":"宮野","koaza":"","lat":33.963138,"lng":132.608903,"zip":"7914504"},{"town":"御幸一丁目","koaza":"","lat":33.857038,"lng":132.767085,"zip":"7900824"},{"town":"御幸二丁目","koaza":"","lat":33.857609,"lng":132.761507,"zip":"7900824"},{"town":"明神丘","koaza":"","lat":33.854391,"lng":132.728148,"zip":"7918027"},{"town":"睦月","koaza":"","lat":33.962891,"lng":132.660927,"zip":"7914431"},{"town":"室町","koaza":"","lat":33.831168,"lng":132.763785,"zip":"7900026"},{"town":"室町一丁目","koaza":"","lat":33.828795,"lng":132.765308,"zip":"7900026"},{"town":"室町二丁目","koaza":"","lat":33.82957,"lng":132.763921,"zip":"7900026"},{"town":"持田町一丁目","koaza":"","lat":33.842769,"lng":132.783629,"zip":"7900855"},{"town":"持田町二丁目","koaza":"","lat":33.842396,"lng":132.780051,"zip":"7900855"},{"town":"持田町三丁目","koaza":"","lat":33.844397,"lng":132.781644,"zip":"7900855"},{"town":"持田町四丁目","koaza":"","lat":33.844422,"lng":132.779358,"zip":"7900855"},{"town":"元怒和","koaza":"","lat":33.976789,"lng":132.544191,"zip":"7914321"},{"town":"元町","koaza":"","lat":33.859522,"lng":132.717426,"zip":"7918064"},{"town":"紅葉町","koaza":"","lat":33.841622,"lng":132.787591,"zip":"7900861"},{"town":"森松町","koaza":"","lat":33.789207,"lng":132.791713,"zip":"7911113"},{"town":"安岡","koaza":"","lat":33.931325,"lng":132.776309,"zip":"7992464"},{"town":"柳谷町","koaza":"","lat":33.925858,"lng":132.830661,"zip":"7902641"},{"town":"柳井町一丁目","koaza":"","lat":33.833157,"lng":132.770038,"zip":"7900014"},{"town":"柳井町二丁目","koaza":"","lat":33.833439,"lng":132.768265,"zip":"7900014"},{"town":"柳井町三丁目","koaza":"","lat":33.834441,"lng":132.766087,"zip":"7900014"},{"town":"柳原","koaza":"","lat":33.95667,"lng":132.770896,"zip":"7992434"},{"town":"山越一丁目","koaza":"","lat":33.857631,"lng":132.756226,"zip":"7918013"},{"town":"山越二丁目","koaza":"","lat":33.860198,"lng":132.756228,"zip":"7918013"},{"town":"山越三丁目","koaza":"","lat":33.862096,"lng":132.764194,"zip":"7918013"},{"town":"山越四丁目","koaza":"","lat":33.862654,"lng":132.755576,"zip":"7918013"},{"town":"山越五丁目","koaza":"","lat":33.860839,"lng":132.751777,"zip":"7918013"},{"town":"山越六丁目","koaza":"","lat":33.857517,"lng":132.751577,"zip":"7918013"},{"town":"山越町","koaza":"","lat":33.855055,"lng":132.756309,"zip":"7918014"},{"town":"山田町","koaza":"","lat":33.866689,"lng":132.778784,"zip":"7900831"},{"town":"山西町","koaza":"","lat":33.850954,"lng":132.727614,"zip":"7918026"},{"town":"雄郡一丁目","koaza":"","lat":33.830147,"lng":132.755811,"zip":"7900031"},{"town":"雄郡二丁目","koaza":"","lat":33.829896,"lng":132.753467,"zip":"7900031"},{"town":"湯の山一丁目","koaza":"","lat":33.8677,"lng":132.813555,"zip":"7910121"},{"town":"湯の山二丁目","koaza":"","lat":33.870241,"lng":132.813718,"zip":"7910121"},{"town":"湯の山三丁目","koaza":"","lat":33.871836,"lng":132.815164,"zip":"7910121"},{"town":"湯の山四丁目","koaza":"","lat":33.869178,"lng":132.815311,"zip":"7910121"},{"town":"湯の山五丁目","koaza":"","lat":33.869863,"lng":132.817088,"zip":"7910121"},{"town":"湯の山六丁目","koaza":"","lat":33.867345,"lng":132.817556,"zip":"7910121"},{"town":"湯の山七丁目","koaza":"","lat":33.869007,"lng":132.81901,"zip":"7910121"},{"town":"湯の山八丁目","koaza":"","lat":33.872205,"lng":132.816792,"zip":"7910121"},{"town":"湯の山東一丁目","koaza":"","lat":33.87218,"lng":132.818749,"zip":"7910120"},{"town":"湯の山東二丁目","koaza":"","lat":33.8725,"lng":132.82041,"zip":"7910120"},{"town":"湯の山東三丁目","koaza":"","lat":33.874305,"lng":132.820792,"zip":"7910120"},{"town":"湯の山東四丁目","koaza":"","lat":33.872615,"lng":132.822239,"zip":"7910120"},{"town":"湯の山東五丁目","koaza":"","lat":33.870745,"lng":132.821083,"zip":"7910120"},{"town":"湯山柳","koaza":"","lat":33.887493,"lng":132.83469,"zip":"7910125"},{"town":"湯渡町","koaza":"","lat":33.840046,"lng":132.783517,"zip":"7900862"},{"town":"余戸中一丁目","koaza":"","lat":33.813923,"lng":132.73154,"zip":"7900045"},{"town":"余戸中二丁目","koaza":"","lat":33.813609,"lng":132.72988,"zip":"7900045"},{"town":"余戸中三丁目","koaza":"","lat":33.813582,"lng":132.727561,"zip":"7900045"},{"town":"余戸中四丁目","koaza":"","lat":33.817583,"lng":132.728084,"zip":"7900045"},{"town":"余戸中五丁目","koaza":"","lat":33.817615,"lng":132.731208,"zip":"7900045"},{"town":"余戸中六丁目","koaza":"","lat":33.81758,"lng":132.733672,"zip":"7900045"},{"town":"余戸西一丁目","koaza":"","lat":33.813536,"lng":132.725131,"zip":"7900046"},{"town":"余戸西二丁目","koaza":"","lat":33.813514,"lng":132.722722,"zip":"7900046"},{"town":"余戸西三丁目","koaza":"","lat":33.813568,"lng":132.720414,"zip":"7900046"},{"town":"余戸西四丁目","koaza":"","lat":33.817429,"lng":132.720467,"zip":"7900046"},{"town":"余戸西五丁目","koaza":"","lat":33.817455,"lng":132.722789,"zip":"7900046"},{"town":"余戸西六丁目","koaza":"","lat":33.817533,"lng":132.725001,"zip":"7900046"},{"town":"余戸東一丁目","koaza":"","lat":33.813931,"lng":132.737747,"zip":"7900044"},{"town":"余戸東二丁目","koaza":"","lat":33.813615,"lng":132.734733,"zip":"7900044"},{"town":"余戸東三丁目","koaza":"","lat":33.813564,"lng":132.732698,"zip":"7900044"},{"town":"余戸東四丁目","koaza":"","lat":33.817542,"lng":132.736055,"zip":"7900044"},{"town":"余戸東五丁目","koaza":"","lat":33.817713,"lng":132.738917,"zip":"7900044"},{"town":"余戸南一丁目","koaza":"","lat":33.811155,"lng":132.738337,"zip":"7900047"},{"town":"余戸南二丁目","koaza":"","lat":33.809166,"lng":132.733777,"zip":"7900047"},{"town":"余戸南三丁目","koaza":"","lat":33.808847,"lng":132.730173,"zip":"7900047"},{"town":"余戸南四丁目","koaza":"","lat":33.808879,"lng":132.727788,"zip":"7900047"},{"town":"余戸南五丁目","koaza":"","lat":33.809389,"lng":132.725,"zip":"7900047"},{"town":"余戸南六丁目","koaza":"","lat":33.810097,"lng":132.721529,"zip":"7900047"},{"town":"横谷","koaza":"","lat":33.942461,"lng":132.832824,"zip":"7992444"},{"town":"吉木","koaza":"","lat":33.97726,"lng":132.604101,"zip":"7914508"},{"town":"吉野町","koaza":"","lat":33.862179,"lng":132.733365,"zip":"7918069"},{"town":"吉藤一丁目","koaza":"","lat":33.870362,"lng":132.765375,"zip":"7918011"},{"town":"吉藤二丁目","koaza":"","lat":33.869697,"lng":132.759808,"zip":"7918011"},{"town":"吉藤三丁目","koaza":"","lat":33.870653,"lng":132.756144,"zip":"7918011"},{"town":"吉藤四丁目","koaza":"","lat":33.874108,"lng":132.75612,"zip":"7918011"},{"town":"吉藤五丁目","koaza":"","lat":33.876981,"lng":132.770587,"zip":"7918011"},{"town":"六軒家町","koaza":"","lat":33.851253,"lng":132.752283,"zip":"7918021"},{"town":"若草町","koaza":"","lat":33.845962,"lng":132.760459,"zip":"7900808"},{"town":"若葉町","koaza":"","lat":33.856236,"lng":132.717527,"zip":"7918053"},{"town":"和気町一丁目","koaza":"","lat":33.89372,"lng":132.738185,"zip":"7992656"},{"town":"和気町二丁目","koaza":"","lat":33.899122,"lng":132.734604,"zip":"7992656"},{"town":"和田","koaza":"","lat":33.932367,"lng":132.772218,"zip":"7992465"},{"town":"由良町","koaza":"","lat":33.905504,"lng":132.671934,"zip":"7918092"},{"town":"大可賀三丁目","koaza":"","lat":33.848712,"lng":132.705319,"zip":"7918057"}]