[{"town":"明浜町狩浜","koaza":"","lat":33.322711,"lng":132.461707,"zip":"7970113"},{"town":"明浜町高山","koaza":"","lat":33.322221,"lng":132.434691,"zip":"7970201"},{"town":"明浜町田之浜","koaza":"","lat":33.321714,"lng":132.386987,"zip":"7970203"},{"town":"明浜町渡江","koaza":"","lat":33.322509,"lng":132.478631,"zip":"7970112"},{"town":"明浜町宮野浦","koaza":"","lat":33.313825,"lng":132.412749,"zip":"7970202"},{"town":"宇和町明間","koaza":"","lat":33.347607,"lng":132.590278,"zip":"7970010"},{"town":"宇和町明石","koaza":"","lat":33.3705,"lng":132.53186,"zip":"7970007"},{"town":"宇和町伊賀上","koaza":"","lat":33.346851,"lng":132.503238,"zip":"7970014"},{"town":"宇和町伊崎","koaza":"","lat":33.395266,"lng":132.527558,"zip":"7970004"},{"town":"宇和町稲生","koaza":"","lat":33.360924,"lng":132.53763,"zip":"7970013"},{"town":"宇和町伊延","koaza":"","lat":33.420978,"lng":132.48685,"zip":"7970034"},{"town":"宇和町岩木","koaza":"","lat":33.397572,"lng":132.468793,"zip":"7970026"},{"town":"宇和町卯之町一丁目","koaza":"","lat":33.370793,"lng":132.513018,"zip":"7970015"},{"town":"宇和町卯之町二丁目","koaza":"","lat":33.364355,"lng":132.509161,"zip":"7970015"},{"town":"宇和町卯之町三丁目","koaza":"","lat":33.361999,"lng":132.511882,"zip":"7970015"},{"town":"宇和町卯之町四丁目","koaza":"","lat":33.361921,"lng":132.517636,"zip":"7970015"},{"town":"宇和町卯之町五丁目","koaza":"","lat":33.359487,"lng":132.523095,"zip":"7970015"},{"town":"宇和町大江","koaza":"","lat":33.40844,"lng":132.514204,"zip":"7970043"},{"town":"宇和町岡山","koaza":"","lat":33.419637,"lng":132.502186,"zip":"7970033"},{"town":"宇和町小野田","koaza":"","lat":33.367071,"lng":132.487071,"zip":"7970022"},{"town":"宇和町小原","koaza":"","lat":33.392714,"lng":132.483657,"zip":"7970027"},{"town":"宇和町皆田","koaza":"","lat":33.343535,"lng":132.534611,"zip":"7970012"},{"town":"宇和町上松葉","koaza":"","lat":33.380667,"lng":132.508201,"zip":"7970046"},{"town":"宇和町加茂","koaza":"","lat":33.398829,"lng":132.515325,"zip":"7970044"},{"town":"宇和町河内","koaza":"","lat":33.436646,"lng":132.49829,"zip":"7970035"},{"town":"宇和町清沢","koaza":"","lat":33.392976,"lng":132.495205,"zip":"7970030"},{"town":"宇和町窪","koaza":"","lat":33.392019,"lng":132.549563,"zip":"7970003"},{"town":"宇和町久保","koaza":"","lat":33.445798,"lng":132.516975,"zip":"7970036"},{"town":"宇和町郷内","koaza":"","lat":33.389475,"lng":132.457574,"zip":"7970025"},{"town":"宇和町坂戸","koaza":"","lat":33.390781,"lng":132.509925,"zip":"7970045"},{"town":"宇和町さくら","koaza":"","lat":33.375242,"lng":132.526596,"zip":"7970008"},{"town":"宇和町下松葉","koaza":"","lat":33.374804,"lng":132.506239,"zip":"7970018"},{"town":"宇和町常定寺","koaza":"","lat":33.389612,"lng":132.528232,"zip":"7970005"},{"town":"宇和町新城","koaza":"","lat":33.377685,"lng":132.53888,"zip":"7970006"},{"town":"宇和町神領","koaza":"","lat":33.363985,"lng":132.503861,"zip":"7970016"},{"town":"宇和町瀬戸","koaza":"","lat":33.417035,"lng":132.514488,"zip":"7970042"},{"town":"宇和町田苗真土","koaza":"","lat":33.404378,"lng":132.495287,"zip":"7970032"},{"town":"宇和町田野中","koaza":"","lat":33.413315,"lng":132.54016,"zip":"7970001"},{"town":"宇和町永長","koaza":"","lat":33.37889,"lng":132.494107,"zip":"7970029"},{"town":"宇和町西山田","koaza":"","lat":33.380384,"lng":132.467583,"zip":"7970024"},{"town":"宇和町野田","koaza":"","lat":33.354354,"lng":132.48488,"zip":"7970021"},{"town":"宇和町信里","koaza":"","lat":33.433025,"lng":132.532431,"zip":"7970037"},{"town":"宇和町東多田","koaza":"","lat":33.426516,"lng":132.514805,"zip":"7970041"},{"town":"宇和町久枝","koaza":"","lat":33.36488,"lng":132.49686,"zip":"7970020"},{"town":"宇和町下川","koaza":"","lat":33.348664,"lng":132.552837,"zip":"7970011"},{"town":"宇和町ひまわり","koaza":"","lat":33.370565,"lng":132.504707,"zip":"7970017"},{"town":"宇和町平野","koaza":"","lat":33.401262,"lng":132.548317,"zip":"7970002"},{"town":"宇和町杢所","koaza":"","lat":33.39894,"lng":132.497284,"zip":"7970031"},{"town":"宇和町山田","koaza":"","lat":33.355581,"lng":132.460575,"zip":"7970023"},{"town":"宇和町れんげ","koaza":"","lat":33.38552,"lng":132.498041,"zip":"7970028"},{"town":"城川町魚成","koaza":"","lat":33.370177,"lng":132.714281,"zip":"7971716"},{"town":"城川町下相","koaza":"","lat":33.365586,"lng":132.740657,"zip":"7971717"},{"town":"城川町男河内","koaza":"","lat":33.396295,"lng":132.723629,"zip":"7971714"},{"town":"城川町嘉喜尾","koaza":"","lat":33.398457,"lng":132.745119,"zip":"7971713"},{"town":"城川町川津南","koaza":"","lat":33.386338,"lng":132.828224,"zip":"7971704"},{"town":"城川町窪野","koaza":"","lat":33.411466,"lng":132.802651,"zip":"7971703"},{"town":"城川町田穂","koaza":"","lat":33.367892,"lng":132.682867,"zip":"7971715"},{"town":"城川町高野子","koaza":"","lat":33.365675,"lng":132.802047,"zip":"7971705"},{"town":"城川町土居","koaza":"","lat":33.390776,"lng":132.767973,"zip":"7971701"},{"town":"城川町野井川","koaza":"","lat":33.444086,"lng":132.79865,"zip":"7971711"},{"town":"城川町古市","koaza":"","lat":33.368472,"lng":132.767388,"zip":"7971702"},{"town":"城川町遊子谷","koaza":"","lat":33.42551,"lng":132.761754,"zip":"7971712"},{"town":"野村町阿下","koaza":"","lat":33.382599,"lng":132.670389,"zip":"7971211"},{"town":"野村町旭","koaza":"","lat":33.392007,"lng":132.586331,"zip":"7971106"},{"town":"野村町大西","koaza":"","lat":33.40401,"lng":132.669629,"zip":"7971324"},{"town":"野村町大野ケ原","koaza":"","lat":33.477995,"lng":132.872923,"zip":"7971434"},{"town":"野村町片川","koaza":"","lat":33.391168,"lng":132.627349,"zip":"7971213"},{"town":"野村町釜川","koaza":"","lat":33.393832,"lng":132.692056,"zip":"7971323"},{"town":"野村町鎌田","koaza":"","lat":33.405617,"lng":132.685342,"zip":"7971326"},{"town":"野村町河西","koaza":"","lat":33.364839,"lng":132.60631,"zip":"7971104"},{"town":"野村町蔵良","koaza":"","lat":33.405271,"lng":132.653389,"zip":"7971216"},{"town":"野村町栗木","koaza":"","lat":33.413117,"lng":132.699032,"zip":"7971327"},{"town":"野村町小松","koaza":"","lat":33.489616,"lng":132.822294,"zip":"7971433"},{"town":"野村町坂石","koaza":"","lat":33.410953,"lng":132.717843,"zip":"7971322"},{"town":"野村町白髭","koaza":"","lat":33.436814,"lng":132.570849,"zip":"7971101"},{"town":"野村町四郎谷","koaza":"","lat":33.383939,"lng":132.607002,"zip":"7971103"},{"town":"野村町惣川","koaza":"","lat":33.473556,"lng":132.795384,"zip":"7971432"},{"town":"野村町高瀬","koaza":"","lat":33.423177,"lng":132.633657,"zip":"7971215"},{"town":"野村町鳥鹿野","koaza":"","lat":33.410122,"lng":132.570017,"zip":"7971107"},{"town":"野村町富野川","koaza":"","lat":33.418495,"lng":132.610278,"zip":"7971214"},{"town":"野村町長谷","koaza":"","lat":33.380356,"lng":132.571802,"zip":"7971105"},{"town":"野村町中通川","koaza":"","lat":33.414631,"lng":132.667632,"zip":"7971325"},{"town":"野村町西","koaza":"","lat":33.419188,"lng":132.683598,"zip":"7971328"},{"town":"野村町野村","koaza":"","lat":33.361119,"lng":132.643658,"zip":"7971212"},{"town":"野村町平野","koaza":"","lat":33.399693,"lng":132.639734,"zip":"7971217"},{"town":"野村町舟戸","koaza":"","lat":33.460491,"lng":132.765725,"zip":"7971431"},{"town":"野村町松溪","koaza":"","lat":33.414851,"lng":132.589759,"zip":"7970000"},{"town":"野村町予子林","koaza":"","lat":33.430722,"lng":132.725793,"zip":"7971321"},{"town":"三瓶町朝立","koaza":"","lat":33.39077,"lng":132.432933,"zip":"7960907"},{"town":"三瓶町安土","koaza":"","lat":33.374246,"lng":132.41773,"zip":"7960909"},{"town":"三瓶町有網代","koaza":"","lat":33.36897,"lng":132.414275,"zip":"7960910"},{"town":"三瓶町有太刀","koaza":"","lat":33.365581,"lng":132.419377,"zip":"7960911"},{"town":"三瓶町和泉","koaza":"","lat":33.4,"lng":132.438693,"zip":"7960906"},{"town":"三瓶町蔵貫","koaza":"","lat":33.347788,"lng":132.43771,"zip":"7960913"},{"town":"三瓶町蔵貫浦","koaza":"","lat":33.35512,"lng":132.423333,"zip":"7960912"},{"town":"三瓶町鴫山","koaza":"","lat":33.408622,"lng":132.420657,"zip":"7960905"},{"town":"三瓶町下泊","koaza":"","lat":33.335541,"lng":132.388593,"zip":"7960915"},{"town":"三瓶町周木","koaza":"","lat":33.375253,"lng":132.39198,"zip":"7960901"},{"town":"三瓶町津布理","koaza":"","lat":33.371711,"lng":132.432594,"zip":"7960908"},{"town":"三瓶町長早","koaza":"","lat":33.368954,"lng":132.392926,"zip":"7960902"},{"town":"三瓶町二及","koaza":"","lat":33.379323,"lng":132.402854,"zip":"7960903"},{"town":"三瓶町垣生","koaza":"","lat":33.389642,"lng":132.407718,"zip":"7960904"},{"town":"三瓶町皆江","koaza":"","lat":33.336715,"lng":132.41385,"zip":"7960914"},{"town":"明浜町俵津","koaza":"","lat":33.335128,"lng":132.482618,"zip":"7970111"},{"town":"三瓶町朝立","koaza":"小又","lat":33.387925,"lng":132.428628,"zip":"7960907"}]