[{"town":"生名","koaza":"","lat":34.270477,"lng":133.178516,"zip":"7942550"},{"town":"魚島","koaza":"","lat":34.177054,"lng":133.320114,"zip":"7942540"},{"town":"弓削太田","koaza":"","lat":34.253252,"lng":133.202862,"zip":"7942508"},{"town":"弓削大谷","koaza":"","lat":34.274338,"lng":133.227558,"zip":"7942513"},{"town":"弓削鎌田","koaza":"","lat":34.242432,"lng":133.206211,"zip":"7942510"},{"town":"弓削上弓削","koaza":"","lat":34.275825,"lng":133.212777,"zip":"7942503"},{"town":"弓削狩尾","koaza":"","lat":34.268354,"lng":133.222018,"zip":"7942512"},{"town":"弓削久司浦","koaza":"","lat":34.283243,"lng":133.227307,"zip":"7942501"},{"town":"弓削沢津","koaza":"","lat":34.279084,"lng":133.217841,"zip":"7942502"},{"town":"弓削下弓削","koaza":"","lat":34.256102,"lng":133.20592,"zip":"7942506"},{"town":"弓削豊島","koaza":"","lat":34.232468,"lng":133.26066,"zip":"7942530"},{"town":"弓削土生","koaza":"","lat":34.249277,"lng":133.202875,"zip":"7942509"},{"town":"弓削引野","koaza":"","lat":34.268502,"lng":133.204421,"zip":"7942504"},{"town":"弓削日比","koaza":"","lat":34.248701,"lng":133.211876,"zip":"7942511"},{"town":"弓削百貫","koaza":"","lat":34.300715,"lng":133.275754,"zip":"7942503"},{"town":"弓削藤谷","koaza":"","lat":34.262737,"lng":133.211186,"zip":"7942507"},{"town":"弓削明神","koaza":"","lat":34.263751,"lng":133.204059,"zip":"7942505"},{"town":"岩城","koaza":"","lat":34.261037,"lng":133.148681,"zip":"7942410"},{"town":"弓削佐島","koaza":"","lat":34.241749,"lng":133.186522,"zip":"7942520"}]