[{"town":"青ノ木","koaza":"","lat":36.231086,"lng":136.247967,"zip":"9190814"},{"town":"赤尾","koaza":"","lat":36.245536,"lng":136.225945,"zip":"9104273"},{"town":"芦鶴","koaza":"","lat":36.232287,"lng":136.194426,"zip":"9104102"},{"town":"伊井","koaza":"","lat":36.192258,"lng":136.243881,"zip":"9190614"},{"town":"井江葭","koaza":"","lat":36.230948,"lng":136.21032,"zip":"9104112"},{"town":"池口","koaza":"","lat":36.192237,"lng":136.238656,"zip":"9190615"},{"town":"市姫一丁目","koaza":"","lat":36.211014,"lng":136.232119,"zip":"9190621"},{"town":"市姫二丁目","koaza":"","lat":36.214053,"lng":136.228574,"zip":"9190621"},{"town":"市姫三丁目","koaza":"","lat":36.210535,"lng":136.228124,"zip":"9190621"},{"town":"市姫四丁目","koaza":"","lat":36.207709,"lng":136.230608,"zip":"9190621"},{"town":"市姫五丁目","koaza":"","lat":36.202305,"lng":136.230905,"zip":"9190621"},{"town":"稲越","koaza":"","lat":36.203955,"lng":136.233826,"zip":"9190623"},{"town":"牛ノ谷","koaza":"","lat":36.255914,"lng":136.286176,"zip":"9190721"},{"town":"牛山","koaza":"","lat":36.239191,"lng":136.205658,"zip":"9104111"},{"town":"宇根","koaza":"","lat":36.240561,"lng":136.306063,"zip":"9190600"},{"town":"畝市野々","koaza":"","lat":36.247964,"lng":136.29339,"zip":"9190722"},{"town":"瓜生","koaza":"","lat":36.182992,"lng":136.275524,"zip":"9190742"},{"town":"大溝一丁目","koaza":"","lat":36.214039,"lng":136.222681,"zip":"9190628"},{"town":"大溝二丁目","koaza":"","lat":36.210637,"lng":136.222483,"zip":"9190628"},{"town":"大溝三丁目","koaza":"","lat":36.207701,"lng":136.22324,"zip":"9190628"},{"town":"温泉一丁目","koaza":"","lat":36.223856,"lng":136.193887,"zip":"9104104"},{"town":"温泉二丁目","koaza":"","lat":36.2256,"lng":136.194863,"zip":"9104104"},{"town":"温泉三丁目","koaza":"","lat":36.223874,"lng":136.19138,"zip":"9104104"},{"town":"温泉四丁目","koaza":"","lat":36.225385,"lng":136.19264,"zip":"9104104"},{"town":"温泉五丁目","koaza":"","lat":36.227399,"lng":136.192742,"zip":"9104104"},{"town":"柿原","koaza":"","lat":36.240208,"lng":136.240268,"zip":"9190812"},{"town":"鎌谷","koaza":"","lat":36.209589,"lng":136.297124,"zip":"9190732"},{"town":"河原井手","koaza":"","lat":36.194312,"lng":136.235678,"zip":"9190616"},{"town":"上番","koaza":"","lat":36.203142,"lng":136.212782,"zip":"9104134"},{"town":"北","koaza":"","lat":36.198775,"lng":136.269184,"zip":"9190749"},{"town":"北潟","koaza":"","lat":36.26276,"lng":136.226659,"zip":"9104272"},{"town":"北金津","koaza":"","lat":36.218358,"lng":136.216303,"zip":"9190634"},{"town":"北野","koaza":"","lat":36.201775,"lng":136.267642,"zip":"9190748"},{"town":"北疋田","koaza":"","lat":36.186256,"lng":136.268223,"zip":"9190744"},{"town":"北本堂","koaza":"","lat":36.212815,"lng":136.176617,"zip":"9104146"},{"town":"清滝","koaza":"","lat":36.207682,"lng":136.313783,"zip":"9190733"},{"town":"国影","koaza":"","lat":36.226227,"lng":136.204421,"zip":"9104115"},{"town":"熊坂","koaza":"","lat":36.229701,"lng":136.289299,"zip":"9190723"},{"town":"公文","koaza":"","lat":36.212738,"lng":136.180298,"zip":"9104147"},{"town":"桑原","koaza":"","lat":36.191584,"lng":136.254787,"zip":"9190612"},{"town":"河間","koaza":"","lat":36.202075,"lng":136.187088,"zip":"9104142"},{"town":"権世","koaza":"","lat":36.21507,"lng":136.290263,"zip":"9190737"},{"town":"権世市野々","koaza":"","lat":36.220953,"lng":136.300941,"zip":"9190731"},{"town":"坂口","koaza":"","lat":36.247339,"lng":136.239932,"zip":"9190817"},{"town":"笹岡","koaza":"","lat":36.214511,"lng":136.273383,"zip":"9190726"},{"town":"沢","koaza":"","lat":36.253049,"lng":136.268117,"zip":"9190804"},{"town":"重義","koaza":"","lat":36.215693,"lng":136.2082,"zip":"9104122"},{"town":"下金屋","koaza":"","lat":36.243422,"lng":136.282578,"zip":"9190727"},{"town":"下番","koaza":"","lat":36.199595,"lng":136.193834,"zip":"9104138"},{"town":"自由ヶ丘一丁目","koaza":"","lat":36.213207,"lng":136.237258,"zip":"9190600"},{"town":"自由ヶ丘二丁目","koaza":"","lat":36.218088,"lng":136.238007,"zip":"9190600"},{"town":"城","koaza":"","lat":36.253719,"lng":136.19156,"zip":"9104276"},{"town":"城新田","koaza":"","lat":36.254477,"lng":136.186467,"zip":"9104275"},{"town":"次郎丸","koaza":"","lat":36.189541,"lng":136.267822,"zip":"9190745"},{"town":"新","koaza":"","lat":36.197934,"lng":136.226746,"zip":"9190600"},{"town":"新用","koaza":"","lat":36.200233,"lng":136.226339,"zip":"9190600"},{"town":"菅野","koaza":"","lat":36.212849,"lng":136.247474,"zip":"9190602"},{"town":"角屋","koaza":"","lat":36.21315,"lng":136.170374,"zip":"9104145"},{"town":"清王","koaza":"","lat":36.23006,"lng":136.235191,"zip":"9190815"},{"town":"清間","koaza":"","lat":36.197078,"lng":136.249979,"zip":"9190611"},{"town":"高塚","koaza":"","lat":36.223463,"lng":136.234028,"zip":"9190631"},{"town":"滝","koaza":"","lat":36.240211,"lng":136.264001,"zip":"9190805"},{"town":"田中々","koaza":"","lat":36.21507,"lng":136.194744,"zip":"9104124"},{"town":"玉木","koaza":"","lat":36.207329,"lng":136.187801,"zip":"9104141"},{"town":"谷畠","koaza":"","lat":36.209441,"lng":136.212886,"zip":"9104132"},{"town":"東善寺","koaza":"","lat":36.2088,"lng":136.217755,"zip":"9104131"},{"town":"轟木","koaza":"","lat":36.195982,"lng":136.214503,"zip":"9104133"},{"town":"中浜","koaza":"","lat":36.201761,"lng":136.1783,"zip":"9104144"},{"town":"中番","koaza":"","lat":36.198833,"lng":136.201943,"zip":"9104137"},{"town":"波松","koaza":"","lat":36.262136,"lng":136.20141,"zip":"9104277"},{"town":"西温泉一丁目","koaza":"","lat":36.221634,"lng":136.185515,"zip":"9104127"},{"town":"西温泉二丁目","koaza":"","lat":36.221669,"lng":136.183537,"zip":"9104127"},{"town":"布目","koaza":"","lat":36.219251,"lng":136.180489,"zip":"9104126"},{"town":"橋屋","koaza":"","lat":36.269401,"lng":136.25925,"zip":"9190802"},{"town":"蓮ケ浦","koaza":"","lat":36.255566,"lng":136.24483,"zip":"9190811"},{"town":"花乃杜一丁目","koaza":"","lat":36.216926,"lng":136.222942,"zip":"9190633"},{"town":"花乃杜二丁目","koaza":"","lat":36.22161,"lng":136.226041,"zip":"9190633"},{"town":"花乃杜三丁目","koaza":"","lat":36.221246,"lng":136.222494,"zip":"9190633"},{"town":"花乃杜四丁目","koaza":"","lat":36.22156,"lng":136.218874,"zip":"9190633"},{"town":"花乃杜五丁目","koaza":"","lat":36.227615,"lng":136.225024,"zip":"9190633"},{"town":"馬場","koaza":"","lat":36.200651,"lng":136.222813,"zip":"9190600"},{"town":"浜坂","koaza":"","lat":36.284853,"lng":136.24247,"zip":"9104271"},{"town":"春宮一丁目","koaza":"","lat":36.215285,"lng":136.233846,"zip":"9190632"},{"town":"春宮二丁目","koaza":"","lat":36.217903,"lng":136.232088,"zip":"9190632"},{"town":"春宮三丁目","koaza":"","lat":36.219358,"lng":136.228394,"zip":"9190632"},{"town":"番田","koaza":"","lat":36.213415,"lng":136.20074,"zip":"9104123"},{"town":"番堂野","koaza":"","lat":36.25054,"lng":136.199935,"zip":"9104274"},{"town":"東温泉一丁目","koaza":"","lat":36.220511,"lng":136.199164,"zip":"9104121"},{"town":"東温泉二丁目","koaza":"","lat":36.22062,"lng":136.200874,"zip":"9104121"},{"town":"東田中","koaza":"","lat":36.194033,"lng":136.268256,"zip":"9190746"},{"town":"東山","koaza":"","lat":36.182787,"lng":136.288711,"zip":"9190734"},{"town":"樋山","koaza":"","lat":36.262674,"lng":136.26066,"zip":"9190803"},{"town":"二面","koaza":"","lat":36.233778,"lng":136.198825,"zip":"9104103"},{"town":"二面一丁目","koaza":"","lat":36.226703,"lng":136.198438,"zip":"9104103"},{"town":"二面二丁目","koaza":"","lat":36.226571,"lng":136.200248,"zip":"9104103"},{"town":"二面三丁目","koaza":"","lat":36.224095,"lng":136.199648,"zip":"9104103"},{"town":"二面四丁目","koaza":"","lat":36.22454,"lng":136.198412,"zip":"9104103"},{"town":"二面五丁目","koaza":"","lat":36.222272,"lng":136.198173,"zip":"9104103"},{"town":"舟津","koaza":"","lat":36.227732,"lng":136.187577,"zip":"9104105"},{"town":"舟津一丁目","koaza":"","lat":36.227782,"lng":136.190498,"zip":"9104105"},{"town":"舟津二丁目","koaza":"","lat":36.226543,"lng":136.190486,"zip":"9104105"},{"town":"舟津三丁目","koaza":"","lat":36.225375,"lng":136.190373,"zip":"9104105"},{"town":"舟津四丁目","koaza":"","lat":36.22331,"lng":136.190271,"zip":"9104105"},{"town":"古屋石塚","koaza":"","lat":36.184249,"lng":136.257731,"zip":"9190613"},{"town":"細呂木","koaza":"","lat":36.268581,"lng":136.247339,"zip":"9190801"},{"town":"堀江十楽","koaza":"","lat":36.216872,"lng":136.188748,"zip":"9104125"},{"town":"御簾尾","koaza":"","lat":36.19745,"lng":136.261936,"zip":"9190747"},{"town":"南金津","koaza":"","lat":36.203048,"lng":136.226126,"zip":"9190600"},{"town":"南疋田","koaza":"","lat":36.180892,"lng":136.266138,"zip":"9190743"},{"town":"宮谷","koaza":"","lat":36.22793,"lng":136.263774,"zip":"9190806"},{"town":"宮前","koaza":"","lat":36.211817,"lng":136.182701,"zip":"9104147"},{"town":"矢地","koaza":"","lat":36.205301,"lng":136.253717,"zip":"9190603"},{"town":"山西方寺","koaza":"","lat":36.233635,"lng":136.242774,"zip":"9190813"},{"town":"山十楽","koaza":"","lat":36.233797,"lng":136.226992,"zip":"9190816"},{"town":"山室","koaza":"","lat":36.220384,"lng":136.247282,"zip":"9190601"},{"town":"指中","koaza":"","lat":36.250433,"lng":136.255516,"zip":"9190807"},{"town":"横垣","koaza":"","lat":36.228906,"lng":136.216015,"zip":"9104113"},{"town":"吉崎","koaza":"","lat":36.282043,"lng":136.254336,"zip":"9220679"},{"town":"吉崎一丁目","koaza":"","lat":36.288984,"lng":136.251146,"zip":"9220679"},{"town":"吉崎二丁目","koaza":"","lat":36.289835,"lng":136.25342,"zip":"9220679"},{"town":"前谷","koaza":"","lat":36.205131,"lng":136.275249,"zip":"9190725"},{"town":"後山","koaza":"","lat":36.191394,"lng":136.289955,"zip":"9190735"},{"town":"椚","koaza":"","lat":36.20213,"lng":136.28277,"zip":"9190736"},{"town":"中川","koaza":"","lat":36.195568,"lng":136.276569,"zip":"9190741"}]