[{"town":"相田","koaza":"","lat":35.525772,"lng":135.909444,"zip":"9191312"},{"town":"安賀里","koaza":"","lat":35.477504,"lng":135.8802,"zip":"9191523"},{"town":"麻生野","koaza":"","lat":35.521596,"lng":135.854528,"zip":"9191502"},{"town":"海士坂","koaza":"","lat":35.529602,"lng":135.849939,"zip":"9191501"},{"town":"有田","koaza":"","lat":35.484693,"lng":135.867202,"zip":"9191507"},{"town":"生倉","koaza":"","lat":35.560477,"lng":135.904991,"zip":"9191304"},{"town":"井崎","koaza":"","lat":35.514831,"lng":135.898564,"zip":"9191316"},{"town":"市場","koaza":"","lat":35.460034,"lng":135.859102,"zip":"9191541"},{"town":"井ノ口","koaza":"","lat":35.462514,"lng":135.850902,"zip":"9191542"},{"town":"岩屋","koaza":"","lat":35.510405,"lng":135.894385,"zip":"9191325"},{"town":"上野","koaza":"","lat":35.506041,"lng":135.904219,"zip":"9191321"},{"town":"海山","koaza":"","lat":35.588683,"lng":135.865429,"zip":"9191461"},{"town":"瓜生","koaza":"","lat":35.45669,"lng":135.882309,"zip":"9191525"},{"town":"上瀬","koaza":"","lat":35.586026,"lng":135.908167,"zip":"9191302"},{"town":"大鳥羽","koaza":"","lat":35.503273,"lng":135.865794,"zip":"9191504"},{"town":"小川","koaza":"","lat":35.608407,"lng":135.845083,"zip":"9191453"},{"town":"小原","koaza":"","lat":35.499342,"lng":135.876787,"zip":"9191514"},{"town":"兼田","koaza":"","lat":35.473532,"lng":135.839086,"zip":"9191554"},{"town":"上黒田","koaza":"","lat":35.513083,"lng":135.863642,"zip":"9191503"},{"town":"上野木","koaza":"","lat":35.477297,"lng":135.813012,"zip":"9191557"},{"town":"上吉田","koaza":"","lat":35.464698,"lng":135.869312,"zip":"9191527"},{"town":"仮屋","koaza":"","lat":35.453977,"lng":135.873995,"zip":"9191534"},{"town":"北前川","koaza":"","lat":35.545927,"lng":135.911922,"zip":"9191305"},{"town":"気山","koaza":"","lat":35.580792,"lng":135.909055,"zip":"9191301"},{"town":"熊川","koaza":"","lat":35.444277,"lng":135.899509,"zip":"9191532"},{"town":"倉見","koaza":"","lat":35.49455,"lng":135.901403,"zip":"9191323"},{"town":"神谷","koaza":"","lat":35.465937,"lng":135.831735,"zip":"9191544"},{"town":"河内","koaza":"","lat":35.432485,"lng":135.890052,"zip":"9191533"},{"town":"無悪","koaza":"","lat":35.520393,"lng":135.868104,"zip":"9191512"},{"town":"佐古","koaza":"","lat":35.535853,"lng":135.89168,"zip":"9191335"},{"town":"下タ中","koaza":"","lat":35.483209,"lng":135.876776,"zip":"9191521"},{"town":"島の内","koaza":"","lat":35.563934,"lng":135.86937,"zip":"9191462"},{"town":"下野木","koaza":"","lat":35.484045,"lng":135.807063,"zip":"9191559"},{"town":"下吉田","koaza":"","lat":35.46886,"lng":135.866112,"zip":"9191528"},{"town":"塩坂越","koaza":"","lat":35.590168,"lng":135.857721,"zip":"9191455"},{"town":"成願寺","koaza":"","lat":35.50432,"lng":135.90133,"zip":"9191322"},{"town":"白屋","koaza":"","lat":35.495948,"lng":135.895735,"zip":"9191324"},{"town":"新道","koaza":"","lat":35.448917,"lng":135.899716,"zip":"9191531"},{"town":"末野","koaza":"","lat":35.482359,"lng":135.89143,"zip":"9191522"},{"town":"杉山","koaza":"","lat":35.491088,"lng":135.854191,"zip":"9191551"},{"town":"関","koaza":"","lat":35.454591,"lng":135.882841,"zip":"9191526"},{"town":"世久見","koaza":"","lat":35.572134,"lng":135.849957,"zip":"9191464"},{"town":"田井","koaza":"","lat":35.559207,"lng":135.869769,"zip":"9191462"},{"town":"田上","koaza":"","lat":35.522268,"lng":135.879079,"zip":"9191326"},{"town":"館川","koaza":"","lat":35.555658,"lng":135.908639,"zip":"9191332"},{"town":"田名","koaza":"","lat":35.543055,"lng":135.898827,"zip":"9191334"},{"town":"玉置","koaza":"","lat":35.477563,"lng":135.820744,"zip":"9191556"},{"town":"中央","koaza":"","lat":35.549971,"lng":135.908719,"zip":"9191333"},{"town":"堤","koaza":"","lat":35.474639,"lng":135.854194,"zip":"9191553"},{"town":"常神","koaza":"","lat":35.636976,"lng":135.820512,"zip":"9191451"},{"town":"天徳寺","koaza":"","lat":35.461136,"lng":135.843021,"zip":"9191543"},{"town":"鳥浜","koaza":"","lat":35.553155,"lng":135.903348,"zip":"9191331"},{"town":"長江","koaza":"","lat":35.495777,"lng":135.866322,"zip":"9191505"},{"town":"中野木","koaza":"","lat":35.483426,"lng":135.814852,"zip":"9191558"},{"town":"成出","koaza":"","lat":35.558101,"lng":135.875561,"zip":"9191463"},{"town":"能登野","koaza":"","lat":35.511388,"lng":135.905326,"zip":"9191314"},{"town":"日笠","koaza":"","lat":35.469029,"lng":135.823146,"zip":"9191545"},{"town":"東黒田","koaza":"","lat":35.523006,"lng":135.886517,"zip":"9191327"},{"town":"藤井","koaza":"","lat":35.532472,"lng":135.909874,"zip":"9191311"},{"town":"三方","koaza":"","lat":35.556773,"lng":135.910483,"zip":"9191303"},{"town":"神子","koaza":"","lat":35.622961,"lng":135.837806,"zip":"9191452"},{"town":"三生野","koaza":"","lat":35.525931,"lng":135.867059,"zip":"9191511"},{"town":"三十三団地","koaza":"","lat":35.505388,"lng":135.898671,"zip":"9191328"},{"town":"三田","koaza":"","lat":35.509318,"lng":135.872629,"zip":"9191513"},{"town":"南","koaza":"","lat":35.49666,"lng":135.879591,"zip":"9191515"},{"town":"南前川","koaza":"","lat":35.54077,"lng":135.908215,"zip":"9191306"},{"town":"三宅","koaza":"","lat":35.459151,"lng":135.865923,"zip":"9191536"},{"town":"向笠","koaza":"","lat":35.546348,"lng":135.884655,"zip":"9191336"},{"town":"武生","koaza":"","lat":35.477585,"lng":135.829605,"zip":"9191555"},{"town":"持田","koaza":"","lat":35.490044,"lng":135.867433,"zip":"9191506"},{"town":"山内","koaza":"","lat":35.490796,"lng":135.876675,"zip":"9191516"},{"town":"遊子","koaza":"","lat":35.602327,"lng":135.857147,"zip":"9191454"},{"town":"横渡","koaza":"","lat":35.51691,"lng":135.903207,"zip":"9191313"},{"town":"若王子","koaza":"","lat":35.455333,"lng":135.869586,"zip":"9191535"},{"town":"若狭テクノバレー","koaza":"","lat":35.477349,"lng":135.859423,"zip":"9191552"},{"town":"脇袋","koaza":"","lat":35.466734,"lng":135.876063,"zip":"9191524"}]