[{"town":"麻生","koaza":"","lat":35.60087,"lng":135.959182,"zip":"9191133"},{"town":"五十谷","koaza":"","lat":35.589507,"lng":135.963279,"zip":"9191135"},{"town":"太田","koaza":"","lat":35.607874,"lng":135.993857,"zip":"9191206"},{"town":"大藪","koaza":"","lat":35.592748,"lng":135.918235,"zip":"9191100"},{"town":"金山","koaza":"","lat":35.597348,"lng":135.924748,"zip":"9191145"},{"town":"河原市","koaza":"","lat":35.606497,"lng":135.944261,"zip":"9191138"},{"town":"北田","koaza":"","lat":35.642867,"lng":135.995057,"zip":"9191204"},{"town":"木野","koaza":"","lat":35.61266,"lng":135.950324,"zip":"9191131"},{"town":"気山","koaza":"","lat":35.584052,"lng":135.922311,"zip":"9191147"},{"town":"久々子","koaza":"","lat":35.604679,"lng":135.91533,"zip":"9191123"},{"town":"郷市","koaza":"","lat":35.602688,"lng":135.936839,"zip":"9191141"},{"town":"興道寺","koaza":"","lat":35.589658,"lng":135.94387,"zip":"9191142"},{"town":"佐柿","koaza":"","lat":35.610501,"lng":135.95927,"zip":"9191132"},{"town":"坂尻","koaza":"","lat":35.621796,"lng":135.959148,"zip":"9191208"},{"town":"笹田","koaza":"","lat":35.607368,"lng":135.902755,"zip":"9191125"},{"town":"佐田","koaza":"","lat":35.626876,"lng":135.995738,"zip":"9191205"},{"town":"菅浜","koaza":"","lat":35.659677,"lng":135.98716,"zip":"9191203"},{"town":"竹波","koaza":"","lat":35.698965,"lng":135.993283,"zip":"9191202"},{"town":"中寺","koaza":"","lat":35.598304,"lng":135.949571,"zip":"9191136"},{"town":"丹生","koaza":"","lat":35.714524,"lng":135.971157,"zip":"9191201"},{"town":"早瀬","koaza":"","lat":35.618955,"lng":135.901072,"zip":"9191124"},{"town":"日向","koaza":"","lat":35.621214,"lng":135.852542,"zip":"9191126"},{"town":"松原","koaza":"","lat":35.607838,"lng":135.93121,"zip":"9191122"},{"town":"南市","koaza":"","lat":35.602437,"lng":135.943511,"zip":"9191137"},{"town":"宮代","koaza":"","lat":35.596111,"lng":135.966677,"zip":"9191134"},{"town":"安江","koaza":"","lat":35.591258,"lng":135.957487,"zip":"9191135"},{"town":"山上","koaza":"","lat":35.613615,"lng":135.97237,"zip":"9191207"},{"town":"寄戸","koaza":"","lat":35.581026,"lng":135.964721,"zip":"9191135"},{"town":"和田","koaza":"","lat":35.617969,"lng":135.94456,"zip":"9191121"},{"town":"佐野","koaza":"","lat":35.57971,"lng":135.953385,"zip":"9191143"},{"town":"雲谷","koaza":"","lat":35.570847,"lng":135.961194,"zip":"9191100"},{"town":"新庄","koaza":"","lat":35.5451,"lng":135.987399,"zip":"9191144"},{"town":"郷市","koaza":"多倉田","lat":35.603173,"lng":135.932308,"zip":"9191141"}]