[{"town":"青野","koaza":"","lat":35.96271,"lng":136.1071,"zip":"9160152"},{"town":"赤井谷","koaza":"","lat":35.973191,"lng":136.044334,"zip":"9160205"},{"town":"朝日","koaza":"","lat":35.96975,"lng":136.122675,"zip":"9160146"},{"town":"朝日一丁目","koaza":"","lat":35.971569,"lng":136.131366,"zip":"9160146"},{"town":"天谷","koaza":"","lat":36.020086,"lng":136.062915,"zip":"9160101"},{"town":"市","koaza":"","lat":35.984966,"lng":136.13923,"zip":"9160135"},{"town":"入尾","koaza":"","lat":35.987552,"lng":136.054109,"zip":"9160201"},{"town":"岩開","koaza":"","lat":35.961066,"lng":136.121585,"zip":"9160145"},{"town":"岩倉","koaza":"","lat":35.981238,"lng":136.072675,"zip":"9160212"},{"town":"牛越","koaza":"","lat":35.988827,"lng":136.111635,"zip":"9160126"},{"town":"宇須尾","koaza":"","lat":35.935547,"lng":136.125459,"zip":"9160262"},{"town":"内郡","koaza":"","lat":35.97424,"lng":136.118249,"zip":"9160147"},{"town":"打越","koaza":"","lat":35.967708,"lng":136.055627,"zip":"9160216"},{"town":"梅浦","koaza":"","lat":35.969019,"lng":136.000479,"zip":"9160311"},{"town":"上戸","koaza":"","lat":35.960042,"lng":136.080759,"zip":"9160214"},{"town":"上野","koaza":"","lat":35.931855,"lng":136.116644,"zip":"9160267"},{"town":"江波","koaza":"","lat":35.93993,"lng":136.072062,"zip":"9160255"},{"town":"円満","koaza":"","lat":35.9296,"lng":136.125447,"zip":"9160263"},{"town":"笈松","koaza":"","lat":35.984968,"lng":136.044669,"zip":"9160206"},{"town":"大谷","koaza":"","lat":35.942353,"lng":136.120172,"zip":"9160251"},{"town":"大谷寺","koaza":"","lat":36.007322,"lng":136.09276,"zip":"9160117"},{"town":"大畑","koaza":"","lat":35.997397,"lng":136.115458,"zip":"9160121"},{"town":"小川","koaza":"","lat":35.999278,"lng":136.053874,"zip":"9160108"},{"town":"小倉","koaza":"","lat":35.99725,"lng":136.100623,"zip":"9160111"},{"town":"大樟","koaza":"","lat":35.944154,"lng":136.004666,"zip":"9160316"},{"town":"小曽原","koaza":"","lat":35.927905,"lng":136.066764,"zip":"9160273"},{"town":"織田","koaza":"","lat":35.962427,"lng":136.063666,"zip":"9160215"},{"town":"乙坂","koaza":"","lat":35.991237,"lng":136.143633,"zip":"9160131"},{"town":"樫津","koaza":"","lat":35.9331,"lng":136.090141,"zip":"9160272"},{"town":"頭谷","koaza":"","lat":35.956161,"lng":136.101707,"zip":"9160153"},{"town":"蚊谷寺","koaza":"","lat":35.946476,"lng":136.101454,"zip":"9160253"},{"town":"金谷","koaza":"","lat":35.969805,"lng":136.106055,"zip":"9160151"},{"town":"上糸生","koaza":"","lat":36.002385,"lng":136.077949,"zip":"9160107"},{"town":"上川去","koaza":"","lat":35.967477,"lng":136.13211,"zip":"9160142"},{"town":"上山中","koaza":"","lat":35.951909,"lng":136.024234,"zip":"9160225"},{"town":"気比庄","koaza":"","lat":35.976969,"lng":136.14226,"zip":"9160133"},{"town":"熊谷","koaza":"","lat":35.918849,"lng":136.028618,"zip":"9160275"},{"town":"茱原","koaza":"","lat":35.968744,"lng":136.093447,"zip":"9160155"},{"town":"厨","koaza":"","lat":35.924606,"lng":136.012095,"zip":"9160422"},{"town":"小樟","koaza":"","lat":35.947668,"lng":135.999138,"zip":"9160315"},{"town":"午房ヶ平","koaza":"","lat":35.878378,"lng":136.011836,"zip":"9160200"},{"town":"米ノ","koaza":"","lat":35.89219,"lng":136.007885,"zip":"9160426"},{"town":"境野","koaza":"","lat":35.956176,"lng":136.092229,"zip":"9160154"},{"town":"桜谷","koaza":"","lat":35.970444,"lng":136.074964,"zip":"9160213"},{"town":"笹川","koaza":"","lat":35.988571,"lng":136.069721,"zip":"9160211"},{"town":"佐々生","koaza":"","lat":35.952871,"lng":136.120522,"zip":"9160144"},{"town":"下糸生","koaza":"","lat":35.982051,"lng":136.086882,"zip":"9160114"},{"town":"下河原","koaza":"","lat":35.944492,"lng":136.057886,"zip":"9160223"},{"town":"下山中","koaza":"","lat":35.960773,"lng":136.017957,"zip":"9160226"},{"town":"宿","koaza":"","lat":35.95262,"lng":135.997277,"zip":"9160312"},{"town":"新保","koaza":"","lat":35.948689,"lng":135.992952,"zip":"9160313"},{"town":"蝉口","koaza":"","lat":35.942113,"lng":136.112435,"zip":"9160252"},{"town":"左右","koaza":"","lat":35.985297,"lng":135.972322,"zip":"9160302"},{"town":"大王丸","koaza":"","lat":35.956929,"lng":136.042496,"zip":"9160222"},{"town":"平等","koaza":"","lat":35.942323,"lng":136.038083,"zip":"9160224"},{"town":"田中","koaza":"","lat":35.98587,"lng":136.14881,"zip":"9160132"},{"town":"玉川","koaza":"","lat":35.969003,"lng":135.975336,"zip":"9160304"},{"town":"血ヶ平","koaza":"","lat":35.977752,"lng":135.979727,"zip":"9160200"},{"town":"寺","koaza":"","lat":35.935147,"lng":136.108379,"zip":"9160266"},{"town":"天王","koaza":"","lat":35.984078,"lng":136.116523,"zip":"9160122"},{"town":"天宝","koaza":"","lat":35.98074,"lng":136.126447,"zip":"9160123"},{"town":"栃川","koaza":"","lat":35.991992,"lng":136.126809,"zip":"9160136"},{"town":"中","koaza":"","lat":35.964506,"lng":136.051637,"zip":"9160204"},{"town":"中野","koaza":"","lat":35.999924,"lng":136.087027,"zip":"9160116"},{"town":"梨子ヶ平","koaza":"","lat":35.99213,"lng":135.967457,"zip":"9160301"},{"town":"西ケ丘","koaza":"","lat":35.971062,"lng":136.063651,"zip":"9160219"},{"town":"西田中","koaza":"","lat":35.976232,"lng":136.129363,"zip":"9160141"},{"town":"西田中一丁目","koaza":"","lat":35.976203,"lng":136.133993,"zip":"9160141"},{"town":"西田中二丁目","koaza":"","lat":35.976308,"lng":136.136071,"zip":"9160141"},{"town":"西田中三丁目","koaza":"","lat":35.974415,"lng":136.136222,"zip":"9160141"},{"town":"西田中四丁目","koaza":"","lat":35.974339,"lng":136.134085,"zip":"9160141"},{"town":"野","koaza":"","lat":35.935683,"lng":136.117769,"zip":"9160261"},{"town":"野末","koaza":"","lat":35.989473,"lng":136.104214,"zip":"9160127"},{"town":"萩野","koaza":"","lat":35.972186,"lng":136.061683,"zip":"9160218"},{"town":"八田","koaza":"","lat":35.921061,"lng":136.11073,"zip":"9160264"},{"town":"八田新保","koaza":"","lat":35.931468,"lng":136.100663,"zip":"9160265"},{"town":"東内郡一丁目","koaza":"","lat":35.973082,"lng":136.133341,"zip":"9160156"},{"town":"東内郡二丁目","koaza":"","lat":35.973085,"lng":136.13633,"zip":"9160156"},{"town":"東内郡三丁目","koaza":"","lat":35.971603,"lng":136.13645,"zip":"9160156"},{"town":"東内郡四丁目","koaza":"","lat":35.971629,"lng":136.133434,"zip":"9160156"},{"town":"東二ツ屋","koaza":"","lat":36.019402,"lng":136.075715,"zip":"9160200"},{"town":"広野","koaza":"","lat":35.94859,"lng":136.086032,"zip":"9160254"},{"town":"舟場","koaza":"","lat":35.9257,"lng":136.095298,"zip":"9160271"},{"town":"古屋","koaza":"","lat":35.929243,"lng":136.050689,"zip":"9160276"},{"town":"宝泉寺","koaza":"","lat":35.979794,"lng":136.115489,"zip":"9160124"},{"town":"細野","koaza":"","lat":35.977718,"lng":136.062402,"zip":"9160202"},{"town":"真木","koaza":"","lat":36.013576,"lng":136.068654,"zip":"9160102"},{"town":"増谷","koaza":"","lat":35.91277,"lng":136.038785,"zip":"9160274"},{"town":"丸山","koaza":"","lat":35.975009,"lng":136.05946,"zip":"9160217"},{"town":"三崎","koaza":"","lat":35.966029,"lng":136.041329,"zip":"9160221"},{"town":"道口","koaza":"","lat":35.939893,"lng":136.012476,"zip":"9160421"},{"town":"茗荷","koaza":"","lat":35.996947,"lng":136.015248,"zip":"9160200"},{"town":"山田","koaza":"","lat":35.979759,"lng":136.05163,"zip":"9160203"},{"town":"横山","koaza":"","lat":35.981538,"lng":136.10469,"zip":"9160125"},{"town":"四ツ杉","koaza":"","lat":35.961459,"lng":136.034087,"zip":"9160227"},{"town":"六呂師","koaza":"","lat":35.885306,"lng":136.014545,"zip":"9160427"},{"town":"高佐","koaza":"","lat":35.9025,"lng":136.009042,"zip":"9160425"},{"town":"茂原","koaza":"","lat":35.91048,"lng":136.004193,"zip":"9160423"}]