[{"town":"莇生谷","koaza":"","lat":35.90194,"lng":136.37912,"zip":"9102500"},{"town":"安善寺","koaza":"","lat":35.898797,"lng":136.356775,"zip":"9102504"},{"town":"池田","koaza":"","lat":35.891733,"lng":136.335715,"zip":"9102515"},{"town":"板垣","koaza":"","lat":35.881203,"lng":136.318976,"zip":"9102527"},{"town":"市","koaza":"","lat":35.880954,"lng":136.339026,"zip":"9102525"},{"town":"稲荷","koaza":"","lat":35.887622,"lng":136.345255,"zip":"9102512"},{"town":"魚見","koaza":"","lat":35.844475,"lng":136.277437,"zip":"9102534"},{"town":"大本","koaza":"","lat":35.919393,"lng":136.410272,"zip":"9102552"},{"town":"尾緩","koaza":"","lat":35.933063,"lng":136.430025,"zip":"9102551"},{"town":"小畑","koaza":"","lat":35.942647,"lng":136.382551,"zip":"9102557"},{"town":"柿ケ原","koaza":"","lat":35.924045,"lng":136.34782,"zip":"9102508"},{"town":"籠掛","koaza":"","lat":35.897547,"lng":136.418863,"zip":"9102553"},{"town":"金見谷","koaza":"","lat":35.907718,"lng":136.389661,"zip":"9102554"},{"town":"蒲沢","koaza":"","lat":35.898928,"lng":136.398379,"zip":"9102500"},{"town":"上荒谷","koaza":"","lat":35.872286,"lng":136.327176,"zip":"9102526"},{"town":"木谷","koaza":"","lat":35.807367,"lng":136.358025,"zip":"9102500"},{"town":"河内","koaza":"","lat":35.829074,"lng":136.401182,"zip":"9102523"},{"town":"定方","koaza":"","lat":35.868063,"lng":136.324435,"zip":"9102537"},{"town":"志津原","koaza":"","lat":35.854569,"lng":136.388163,"zip":"9102523"},{"town":"清水谷","koaza":"","lat":35.918624,"lng":136.329856,"zip":"9102507"},{"town":"下荒谷","koaza":"","lat":35.940614,"lng":136.410919,"zip":"9102500"},{"town":"新保","koaza":"","lat":35.854617,"lng":136.309643,"zip":"9102532"},{"town":"菅生","koaza":"","lat":35.862111,"lng":136.302512,"zip":"9102535"},{"town":"田代","koaza":"","lat":35.803021,"lng":136.413396,"zip":"9102500"},{"town":"谷口","koaza":"","lat":35.901832,"lng":136.363129,"zip":"9102503"},{"town":"千代谷","koaza":"","lat":35.925455,"lng":136.382775,"zip":"9102555"},{"town":"月ケ瀬","koaza":"","lat":35.8763,"lng":136.358828,"zip":"9102522"},{"town":"常安","koaza":"","lat":35.874473,"lng":136.345545,"zip":"9102521"},{"town":"寺島","koaza":"","lat":35.886763,"lng":136.334089,"zip":"9102513"},{"town":"寺谷","koaza":"","lat":35.90098,"lng":136.340142,"zip":"9102517"},{"town":"土合皿尾","koaza":"","lat":35.85103,"lng":136.358333,"zip":"9102524"},{"town":"楢俣","koaza":"","lat":35.807118,"lng":136.381009,"zip":"9102500"},{"town":"西青","koaza":"","lat":35.914159,"lng":136.42685,"zip":"9102500"},{"town":"西角間","koaza":"","lat":35.86514,"lng":136.313448,"zip":"9102536"},{"town":"野尻","koaza":"","lat":35.916829,"lng":136.360826,"zip":"9102502"},{"town":"稗田","koaza":"","lat":35.918432,"lng":136.447398,"zip":"9102500"},{"town":"東青","koaza":"","lat":35.924823,"lng":136.426338,"zip":"9102500"},{"town":"東角間","koaza":"","lat":35.85612,"lng":136.331335,"zip":"9102531"},{"town":"東俣","koaza":"","lat":35.837499,"lng":136.322047,"zip":"9102533"},{"town":"広瀬","koaza":"","lat":35.906836,"lng":136.349975,"zip":"9102506"},{"town":"松ケ谷","koaza":"","lat":35.93471,"lng":136.363016,"zip":"9102556"},{"town":"水海","koaza":"","lat":35.881691,"lng":136.392317,"zip":"9102505"},{"town":"美濃俣","koaza":"","lat":35.862451,"lng":136.415812,"zip":"9102500"},{"town":"持越","koaza":"","lat":35.928243,"lng":136.355314,"zip":"9102501"},{"town":"薮田","koaza":"","lat":35.894539,"lng":136.350536,"zip":"9102511"},{"town":"山田","koaza":"","lat":35.897359,"lng":136.324343,"zip":"9102516"},{"town":"割谷","koaza":"","lat":35.830034,"lng":136.363182,"zip":"9102500"}]