[{"town":"旭毛屋町","koaza":"","lat":36.048632,"lng":136.511828,"zip":"9110817"},{"town":"旭町一丁目","koaza":"","lat":36.056845,"lng":136.508143,"zip":"9110803"},{"town":"旭町二丁目","koaza":"","lat":36.053076,"lng":136.509761,"zip":"9110803"},{"town":"旭町三丁目","koaza":"","lat":36.04983,"lng":136.51423,"zip":"9110803"},{"town":"荒土町伊波","koaza":"","lat":36.079886,"lng":136.467233,"zip":"9110045"},{"town":"荒土町北新在家","koaza":"","lat":36.084721,"lng":136.480959,"zip":"9110041"},{"town":"荒土町北宮地","koaza":"","lat":36.083738,"lng":136.466883,"zip":"9110047"},{"town":"荒土町清水島","koaza":"","lat":36.081657,"lng":136.484033,"zip":"9110041"},{"town":"荒土町新保","koaza":"","lat":36.073047,"lng":136.482259,"zip":"9110043"},{"town":"荒土町田名部","koaza":"","lat":36.078284,"lng":136.48049,"zip":"9110042"},{"town":"荒土町布市","koaza":"","lat":36.07979,"lng":136.48996,"zip":"9110041"},{"town":"荒土町別所","koaza":"","lat":36.089992,"lng":136.478107,"zip":"9110048"},{"town":"荒土町細野","koaza":"","lat":36.125642,"lng":136.479745,"zip":"9110048"},{"town":"荒土町細野口","koaza":"","lat":36.091753,"lng":136.464822,"zip":"9110048"},{"town":"荒土町堀名中清水","koaza":"","lat":36.084787,"lng":136.455403,"zip":"9110046"},{"town":"荒土町松ヶ崎","koaza":"","lat":36.073558,"lng":136.474504,"zip":"9110000"},{"town":"荒土町松田","koaza":"","lat":36.078743,"lng":136.473983,"zip":"9110042"},{"town":"荒土町妙金島","koaza":"","lat":36.075405,"lng":136.463038,"zip":"9110045"},{"town":"猪野","koaza":"","lat":36.043914,"lng":136.516915,"zip":"9110812"},{"town":"猪野口","koaza":"","lat":36.032593,"lng":136.516341,"zip":"9110813"},{"town":"猪野毛屋","koaza":"","lat":36.044377,"lng":136.509651,"zip":"9110816"},{"town":"遅羽町大袋","koaza":"","lat":36.036602,"lng":136.48397,"zip":"9110834"},{"town":"遅羽町北山","koaza":"","lat":36.04152,"lng":136.485967,"zip":"9110833"},{"town":"遅羽町下荒井","koaza":"","lat":36.024491,"lng":136.505217,"zip":"9110836"},{"town":"遅羽町比島","koaza":"","lat":36.061362,"lng":136.483536,"zip":"9110831"},{"town":"遅羽町ほうき","koaza":"","lat":36.033356,"lng":136.497148,"zip":"9110000"},{"town":"遅羽町蓬生","koaza":"","lat":36.049429,"lng":136.490192,"zip":"9110832"},{"town":"片瀬","koaza":"","lat":36.051987,"lng":136.521833,"zip":"9110811"},{"town":"片瀬町一丁目","koaza":"","lat":36.054555,"lng":136.51415,"zip":"9110811"},{"town":"片瀬町二丁目","koaza":"","lat":36.051204,"lng":136.515926,"zip":"9110811"},{"town":"上高島","koaza":"","lat":36.040791,"lng":136.505078,"zip":"9110815"},{"town":"北市","koaza":"","lat":36.042819,"lng":136.509465,"zip":"9110815"},{"town":"北郷町伊知地","koaza":"","lat":36.103933,"lng":136.412535,"zip":"9110055"},{"town":"北郷町岩屋","koaza":"","lat":36.121084,"lng":136.44989,"zip":"9110055"},{"town":"北郷町志比原","koaza":"","lat":36.088196,"lng":136.437285,"zip":"9110051"},{"town":"北郷町西妙金島","koaza":"","lat":36.075527,"lng":136.453353,"zip":"9110052"},{"town":"北郷町坂東島","koaza":"","lat":36.085841,"lng":136.406059,"zip":"9110056"},{"town":"北郷町東野","koaza":"","lat":36.104867,"lng":136.42868,"zip":"9110054"},{"town":"北郷町檜曽谷","koaza":"","lat":36.086939,"lng":136.44864,"zip":"9110051"},{"town":"北郷町森川","koaza":"","lat":36.079285,"lng":136.439893,"zip":"9110053"},{"town":"北谷町小原","koaza":"","lat":36.078605,"lng":136.620457,"zip":"9110001"},{"town":"北谷町北六呂師","koaza":"","lat":36.101068,"lng":136.552507,"zip":"9110004"},{"town":"北谷町木根橋","koaza":"","lat":36.095006,"lng":136.581313,"zip":"9110002"},{"town":"北谷町河合","koaza":"","lat":36.103118,"lng":136.56059,"zip":"9110003"},{"town":"北谷町杉山","koaza":"","lat":36.11826,"lng":136.543716,"zip":"9110005"},{"town":"北谷町谷","koaza":"","lat":36.124596,"lng":136.579751,"zip":"9110006"},{"town":"北谷町中尾","koaza":"","lat":36.10176,"lng":136.544038,"zip":"9110004"},{"town":"北谷町中野俣","koaza":"","lat":36.139501,"lng":136.542118,"zip":"9110000"},{"town":"毛屋町","koaza":"","lat":36.046101,"lng":136.510696,"zip":"9110816"},{"town":"郡町一丁目","koaza":"","lat":36.069595,"lng":136.497379,"zip":"9110035"},{"town":"郡町二丁目","koaza":"","lat":36.073494,"lng":136.50182,"zip":"9110035"},{"town":"郡町三丁目","koaza":"","lat":36.073076,"lng":136.49668,"zip":"9110035"},{"town":"栄町一丁目","koaza":"","lat":36.062415,"lng":136.497019,"zip":"9110033"},{"town":"栄町二丁目","koaza":"","lat":36.063212,"lng":136.495718,"zip":"9110033"},{"town":"栄町三丁目","koaza":"","lat":36.064925,"lng":136.498336,"zip":"9110033"},{"town":"栄町四丁目","koaza":"","lat":36.065449,"lng":136.49555,"zip":"9110033"},{"town":"栄町五丁目","koaza":"","lat":36.065802,"lng":136.49374,"zip":"9110033"},{"town":"沢町一丁目","koaza":"","lat":36.063506,"lng":136.500136,"zip":"9110801"},{"town":"沢町二丁目","koaza":"","lat":36.064291,"lng":136.502526,"zip":"9110801"},{"town":"鹿谷町北西俣","koaza":"","lat":36.042182,"lng":136.446299,"zip":"9110846"},{"town":"鹿谷町西光寺","koaza":"","lat":36.054137,"lng":136.453847,"zip":"9110847"},{"town":"鹿谷町志田","koaza":"","lat":36.064986,"lng":136.4629,"zip":"9110842"},{"town":"鹿谷町杉俣","koaza":"","lat":36.058532,"lng":136.47218,"zip":"9110843"},{"town":"鹿谷町西遅羽口","koaza":"","lat":36.048127,"lng":136.468974,"zip":"9110844"},{"town":"鹿谷町東遅羽口","koaza":"","lat":36.047844,"lng":136.476938,"zip":"9110844"},{"town":"鹿谷町保田","koaza":"","lat":36.063709,"lng":136.449213,"zip":"9110848"},{"town":"鹿谷町発坂","koaza":"","lat":36.06768,"lng":136.466962,"zip":"9110841"},{"town":"鹿谷町本郷","koaza":"","lat":36.055382,"lng":136.466201,"zip":"9110843"},{"town":"鹿谷町矢戸口","koaza":"","lat":36.032758,"lng":136.458469,"zip":"9110845"},{"town":"下毛屋","koaza":"","lat":36.046652,"lng":136.507398,"zip":"9110816"},{"town":"下高島","koaza":"","lat":36.053849,"lng":136.496616,"zip":"9110815"},{"town":"昭和町一丁目","koaza":"","lat":36.061901,"lng":136.50493,"zip":"9110802"},{"town":"昭和町二丁目","koaza":"","lat":36.06414,"lng":136.512403,"zip":"9110802"},{"town":"昭和町三丁目","koaza":"","lat":36.060722,"lng":136.508982,"zip":"9110802"},{"town":"滝波町一丁目","koaza":"","lat":36.069246,"lng":136.491227,"zip":"9110034"},{"town":"滝波町二丁目","koaza":"","lat":36.071856,"lng":136.493086,"zip":"9110034"},{"town":"滝波町三丁目","koaza":"","lat":36.069313,"lng":136.48602,"zip":"9110034"},{"town":"滝波町四丁目","koaza":"","lat":36.072833,"lng":136.486943,"zip":"9110034"},{"town":"滝波町五丁目","koaza":"","lat":36.075022,"lng":136.494259,"zip":"9110034"},{"town":"立川町一丁目","koaza":"","lat":36.054502,"lng":136.500169,"zip":"9110805"},{"town":"立川町二丁目","koaza":"","lat":36.050426,"lng":136.502276,"zip":"9110805"},{"town":"長山町一丁目","koaza":"","lat":36.067421,"lng":136.506568,"zip":"9110031"},{"town":"長山町二丁目","koaza":"","lat":36.069615,"lng":136.505142,"zip":"9110031"},{"town":"野向町牛ヶ谷","koaza":"","lat":36.111466,"lng":136.525462,"zip":"9110000"},{"town":"野向町北野津又","koaza":"","lat":36.108264,"lng":136.498178,"zip":"9110017"},{"town":"野向町竹林","koaza":"","lat":36.084266,"lng":136.490516,"zip":"9110015"},{"town":"野向町聖丸","koaza":"","lat":36.090951,"lng":136.497534,"zip":"9110014"},{"town":"野向町深谷","koaza":"","lat":36.095511,"lng":136.507309,"zip":"9110013"},{"town":"野向町薬師神谷","koaza":"","lat":36.095918,"lng":136.531095,"zip":"9110012"},{"town":"野向町横倉","koaza":"","lat":36.13109,"lng":136.511236,"zip":"9110017"},{"town":"野向町龍谷","koaza":"","lat":36.090441,"lng":136.490052,"zip":"9110016"},{"town":"平泉寺町赤尾","koaza":"","lat":36.029395,"lng":136.53769,"zip":"9110823"},{"town":"平泉寺町岩ヶ野","koaza":"","lat":36.015165,"lng":136.546496,"zip":"9110000"},{"town":"平泉寺町大矢谷","koaza":"","lat":36.020359,"lng":136.557438,"zip":"9110824"},{"town":"平泉寺町大渡","koaza":"","lat":36.025817,"lng":136.518321,"zip":"9110828"},{"town":"平泉寺町岡横江","koaza":"","lat":36.039492,"lng":136.517277,"zip":"9110821"},{"town":"平泉寺町壁倉","koaza":"","lat":36.020468,"lng":136.526359,"zip":"9110826"},{"town":"平泉寺町小矢谷","koaza":"","lat":36.028649,"lng":136.555991,"zip":"9110824"},{"town":"平泉寺町笹尾","koaza":"","lat":36.024846,"lng":136.532318,"zip":"9110827"},{"town":"平泉寺町平泉寺","koaza":"","lat":36.04474,"lng":136.582866,"zip":"9110822"},{"town":"本町一丁目","koaza":"","lat":36.061306,"lng":136.497002,"zip":"9110806"},{"town":"本町二丁目","koaza":"","lat":36.059829,"lng":136.497771,"zip":"9110806"},{"town":"本町三丁目","koaza":"","lat":36.058097,"lng":136.497967,"zip":"9110806"},{"town":"本町四丁目","koaza":"","lat":36.056787,"lng":136.498787,"zip":"9110806"},{"town":"松原","koaza":"","lat":36.066401,"lng":136.491355,"zip":"9110000"},{"town":"村岡町暮見","koaza":"","lat":36.081981,"lng":136.530918,"zip":"9110022"},{"town":"村岡町黒原","koaza":"","lat":36.085598,"lng":136.501883,"zip":"9110026"},{"town":"村岡町郡","koaza":"","lat":36.076622,"lng":136.504383,"zip":"9110000"},{"town":"村岡町五本寺","koaza":"","lat":36.080961,"lng":136.500919,"zip":"9110025"},{"town":"村岡町浄土寺","koaza":"","lat":36.071791,"lng":136.521161,"zip":"9110024"},{"town":"村岡町滝波","koaza":"","lat":36.086084,"lng":136.515164,"zip":"9110000"},{"town":"村岡町寺尾","koaza":"","lat":36.081118,"lng":136.515114,"zip":"9110023"},{"town":"村岡町栃神谷","koaza":"","lat":36.091035,"lng":136.545586,"zip":"9110021"},{"town":"元町一丁目","koaza":"","lat":36.060235,"lng":136.50192,"zip":"9110804"},{"town":"元町二丁目","koaza":"","lat":36.05616,"lng":136.502797,"zip":"9110804"},{"town":"元町三丁目","koaza":"","lat":36.051716,"lng":136.504727,"zip":"9110804"},{"town":"芳野","koaza":"","lat":36.071082,"lng":136.56092,"zip":"9110022"},{"town":"芳野町一丁目","koaza":"","lat":36.066065,"lng":136.502567,"zip":"9110032"},{"town":"芳野町二丁目","koaza":"","lat":36.068358,"lng":136.501367,"zip":"9110032"},{"town":"若猪野","koaza":"","lat":36.035785,"lng":136.508989,"zip":"9110814"},{"town":"遅羽町比島","koaza":"千代田","lat":36.057297,"lng":136.491107,"zip":"9110831"},{"town":"遅羽町比島","koaza":"中島","lat":36.052697,"lng":136.492822,"zip":"9110831"}]