[{"town":"合波","koaza":"","lat":35.758799,"lng":136.206748,"zip":"9190121"},{"town":"赤萩","koaza":"","lat":35.830022,"lng":136.101606,"zip":"9151105"},{"town":"阿久和","koaza":"","lat":35.810898,"lng":136.211122,"zip":"9190213"},{"town":"荒井","koaza":"","lat":35.738512,"lng":136.187036,"zip":"9190123"},{"town":"板取","koaza":"","lat":35.717626,"lng":136.150581,"zip":"9190128"},{"town":"今泉","koaza":"","lat":35.839314,"lng":136.071496,"zip":"9151112"},{"town":"今庄","koaza":"","lat":35.769863,"lng":136.213046,"zip":"9190131"},{"town":"鋳物師","koaza":"","lat":35.844321,"lng":136.20003,"zip":"9190202"},{"town":"上野","koaza":"","lat":35.828859,"lng":136.213138,"zip":"9190204"},{"town":"宇津尾","koaza":"","lat":35.71745,"lng":136.215512,"zip":"9190125"},{"town":"大桐","koaza":"","lat":35.760502,"lng":136.13912,"zip":"9190136"},{"town":"大谷","koaza":"","lat":35.790804,"lng":136.105974,"zip":"9151103"},{"town":"奥野々","koaza":"","lat":35.807681,"lng":136.162629,"zip":"9190215"},{"town":"小倉谷","koaza":"","lat":35.776046,"lng":136.284925,"zip":"9190114"},{"town":"金粕","koaza":"","lat":35.82178,"lng":136.238264,"zip":"9190206"},{"town":"甲楽城","koaza":"","lat":35.841823,"lng":136.055767,"zip":"9151113"},{"town":"上温谷","koaza":"","lat":35.786777,"lng":136.270501,"zip":"9190115"},{"town":"上平吹","koaza":"","lat":35.852439,"lng":136.191836,"zip":"9190201"},{"town":"上別所","koaza":"","lat":35.815153,"lng":136.189929,"zip":"9190216"},{"town":"久喜","koaza":"","lat":35.789044,"lng":136.232957,"zip":"9190119"},{"town":"具谷","koaza":"","lat":35.826872,"lng":136.117101,"zip":"9151101"},{"town":"河内","koaza":"","lat":35.817146,"lng":136.105722,"zip":"9151106"},{"town":"河野","koaza":"","lat":35.828148,"lng":136.079579,"zip":"9151111"},{"town":"鯖波","koaza":"","lat":35.816702,"lng":136.200622,"zip":"9190212"},{"town":"嶋","koaza":"","lat":35.848159,"lng":136.187192,"zip":"9190200"},{"town":"清水","koaza":"","lat":35.834428,"lng":136.166074,"zip":"9190226"},{"town":"新道","koaza":"","lat":35.762588,"lng":136.172073,"zip":"9190133"},{"town":"杉谷","koaza":"","lat":35.811527,"lng":136.280256,"zip":"9190111"},{"town":"菅谷","koaza":"","lat":35.790959,"lng":136.135643,"zip":"9151102"},{"town":"関ケ鼻","koaza":"","lat":35.826605,"lng":136.198409,"zip":"9190211"},{"town":"瀬戸","koaza":"","lat":35.787722,"lng":136.325649,"zip":"9190113"},{"town":"杣木俣","koaza":"","lat":35.817957,"lng":136.301598,"zip":"9190112"},{"town":"大門","koaza":"","lat":35.748588,"lng":136.210394,"zip":"9190122"},{"town":"大良","koaza":"","lat":35.807178,"lng":136.091182,"zip":"9151104"},{"town":"堂宮","koaza":"","lat":35.821033,"lng":136.213055,"zip":"9190205"},{"town":"中小屋","koaza":"","lat":35.812422,"lng":136.246098,"zip":"9190214"},{"town":"長沢","koaza":"","lat":35.796681,"lng":136.237869,"zip":"9190118"},{"town":"西大道","koaza":"","lat":35.829799,"lng":136.187976,"zip":"9190224"},{"town":"糠","koaza":"","lat":35.861157,"lng":136.035063,"zip":"9151114"},{"town":"橋立","koaza":"","lat":35.707524,"lng":136.233274,"zip":"9190126"},{"town":"馬上免","koaza":"","lat":35.789735,"lng":136.242772,"zip":"9190117"},{"town":"八田","koaza":"","lat":35.853294,"lng":136.051817,"zip":"9151114"},{"town":"燧","koaza":"","lat":35.784425,"lng":136.207671,"zip":"9190104"},{"town":"東大道","koaza":"","lat":35.833692,"lng":136.195088,"zip":"9190223"},{"town":"東谷","koaza":"","lat":35.830182,"lng":136.172195,"zip":"9190225"},{"town":"日野","koaza":"","lat":35.844068,"lng":136.188534,"zip":"9190222"},{"town":"広野","koaza":"","lat":35.706972,"lng":136.274271,"zip":"9190127"},{"town":"二ツ屋","koaza":"","lat":35.739876,"lng":136.151581,"zip":"9190135"},{"town":"古木","koaza":"","lat":35.793988,"lng":136.258312,"zip":"9190116"},{"town":"牧谷","koaza":"","lat":35.841615,"lng":136.231121,"zip":"9190203"},{"town":"孫谷","koaza":"","lat":35.743531,"lng":136.178471,"zip":"9190129"},{"town":"桝谷","koaza":"","lat":35.746694,"lng":136.255468,"zip":"9190200"},{"town":"南今庄","koaza":"","lat":35.760488,"lng":136.189732,"zip":"9190132"},{"town":"八飯","koaza":"","lat":35.722149,"lng":136.181597,"zip":"9190124"},{"town":"八乙女","koaza":"","lat":35.79722,"lng":136.204247,"zip":"9190102"},{"town":"社谷","koaza":"","lat":35.790788,"lng":136.221735,"zip":"9190103"},{"town":"湯尾","koaza":"","lat":35.794537,"lng":136.17548,"zip":"9190101"},{"town":"脇本","koaza":"","lat":35.847274,"lng":136.181661,"zip":"9190227"}]