[{"town":"浅見","koaza":"","lat":36.077441,"lng":136.377695,"zip":"9101323"},{"town":"荒谷","koaza":"","lat":36.065347,"lng":136.342162,"zip":"9101227"},{"town":"飯島","koaza":"","lat":36.089768,"lng":136.360081,"zip":"9101217"},{"town":"石上","koaza":"","lat":36.071649,"lng":136.405182,"zip":"9101313"},{"town":"市荒川","koaza":"","lat":36.072258,"lng":136.41683,"zip":"9101302"},{"town":"市右エ門島","koaza":"","lat":36.083594,"lng":136.394393,"zip":"9101316"},{"town":"市野々","koaza":"","lat":36.065729,"lng":136.334492,"zip":"9101226"},{"town":"岩野","koaza":"","lat":36.09551,"lng":136.35942,"zip":"9101204"},{"town":"大月","koaza":"","lat":36.075763,"lng":136.391065,"zip":"9101322"},{"town":"大野島","koaza":"","lat":36.082407,"lng":136.398153,"zip":"9101311"},{"town":"上浄法寺","koaza":"","lat":36.098348,"lng":136.354813,"zip":"9101203"},{"town":"北島","koaza":"","lat":36.084972,"lng":136.37723,"zip":"9101325"},{"town":"京善","koaza":"","lat":36.073247,"lng":136.322871,"zip":"9101225"},{"town":"栗住波","koaza":"","lat":36.072196,"lng":136.396148,"zip":"9101314"},{"town":"けやき台","koaza":"","lat":36.078906,"lng":136.316735,"zip":"9101223"},{"town":"光明寺","koaza":"","lat":36.089262,"lng":136.346707,"zip":"9101216"},{"town":"山王","koaza":"","lat":36.079635,"lng":136.393282,"zip":"9101321"},{"town":"志比","koaza":"","lat":36.055314,"lng":136.352166,"zip":"9101228"},{"town":"清水","koaza":"","lat":36.07813,"lng":136.401198,"zip":"9101312"},{"town":"下浄法寺","koaza":"","lat":36.097081,"lng":136.347496,"zip":"9101202"},{"town":"せせらぎ","koaza":"","lat":36.07356,"lng":136.394942,"zip":"9101315"},{"town":"高橋","koaza":"","lat":36.095894,"lng":136.330696,"zip":"9101213"},{"town":"竹原","koaza":"","lat":36.072665,"lng":136.41137,"zip":"9101305"},{"town":"谷口","koaza":"","lat":36.092509,"lng":136.335091,"zip":"9101214"},{"town":"寺本","koaza":"","lat":36.0774,"lng":136.323967,"zip":"9101224"},{"town":"栃原","koaza":"","lat":36.092648,"lng":136.373951,"zip":"9101206"},{"town":"轟","koaza":"","lat":36.085168,"lng":136.361843,"zip":"9101218"},{"town":"中島","koaza":"","lat":36.075698,"lng":136.411002,"zip":"9101301"},{"town":"鳴鹿山鹿","koaza":"","lat":36.102785,"lng":136.330564,"zip":"9101201"},{"town":"野中","koaza":"","lat":36.082536,"lng":136.374846,"zip":"9101324"},{"town":"花谷","koaza":"","lat":36.089381,"lng":136.341972,"zip":"9101215"},{"town":"東古市","koaza":"","lat":36.098198,"lng":136.327542,"zip":"9101212"},{"town":"藤巻","koaza":"","lat":36.071451,"lng":136.418019,"zip":"9101303"},{"town":"法寺岡","koaza":"","lat":36.099231,"lng":136.320943,"zip":"9101211"},{"town":"牧福島","koaza":"","lat":36.082954,"lng":136.385036,"zip":"9101326"},{"town":"松岡葵一丁目","koaza":"","lat":36.09358,"lng":136.297739,"zip":"9101132"},{"town":"松岡葵二丁目","koaza":"","lat":36.092354,"lng":136.296636,"zip":"9101132"},{"town":"松岡葵三丁目","koaza":"","lat":36.092163,"lng":136.294665,"zip":"9101132"},{"town":"松岡石舟","koaza":"","lat":36.08522,"lng":136.299145,"zip":"9101115"},{"town":"松岡小畑","koaza":"","lat":36.072157,"lng":136.28817,"zip":"9101126"},{"town":"松岡学園","koaza":"","lat":36.111411,"lng":136.292873,"zip":"9101102"},{"town":"松岡春日一丁目","koaza":"","lat":36.091247,"lng":136.298864,"zip":"9101133"},{"town":"松岡春日二丁目","koaza":"","lat":36.090616,"lng":136.296311,"zip":"9101133"},{"town":"松岡春日三丁目","koaza":"","lat":36.08872,"lng":136.297942,"zip":"9101133"},{"town":"松岡上合月","koaza":"","lat":36.102085,"lng":136.300336,"zip":"9101103"},{"town":"松岡上吉野","koaza":"","lat":36.05583,"lng":136.301087,"zip":"9101124"},{"town":"松岡観音一丁目","koaza":"","lat":36.09402,"lng":136.285157,"zip":"9101137"},{"town":"松岡観音二丁目","koaza":"","lat":36.093872,"lng":136.283007,"zip":"9101137"},{"town":"松岡観音三丁目","koaza":"","lat":36.092659,"lng":136.284773,"zip":"9101137"},{"town":"松岡椚","koaza":"","lat":36.096347,"lng":136.297162,"zip":"9101131"},{"town":"松岡窪","koaza":"","lat":36.093936,"lng":136.307161,"zip":"9101136"},{"town":"松岡兼定島","koaza":"","lat":36.109002,"lng":136.281719,"zip":"9101142"},{"town":"松岡越坂一丁目","koaza":"","lat":36.081771,"lng":136.299985,"zip":"9101112"},{"town":"松岡越坂二丁目","koaza":"","lat":36.082386,"lng":136.298795,"zip":"9101112"},{"town":"松岡御公領","koaza":"","lat":36.107399,"lng":136.291691,"zip":"9101106"},{"town":"松岡木ノ下一丁目","koaza":"","lat":36.094352,"lng":136.295822,"zip":"9101139"},{"town":"松岡木ノ下二丁目","koaza":"","lat":36.094509,"lng":136.293397,"zip":"9101139"},{"town":"松岡木ノ下三丁目","koaza":"","lat":36.093492,"lng":136.293396,"zip":"9101139"},{"town":"松岡芝原一丁目","koaza":"","lat":36.090941,"lng":136.293351,"zip":"9101134"},{"town":"松岡芝原二丁目","koaza":"","lat":36.090991,"lng":136.291317,"zip":"9101134"},{"town":"松岡芝原三丁目","koaza":"","lat":36.09105,"lng":136.288997,"zip":"9101134"},{"town":"松岡志比堺","koaza":"","lat":36.099044,"lng":136.310823,"zip":"9101111"},{"town":"松岡島","koaza":"","lat":36.06422,"lng":136.289397,"zip":"9101100"},{"town":"松岡清水","koaza":"","lat":36.087077,"lng":136.299546,"zip":"9101116"},{"town":"松岡下合月","koaza":"","lat":36.104614,"lng":136.295643,"zip":"9101104"},{"town":"松岡神明一丁目","koaza":"","lat":36.09503,"lng":136.301597,"zip":"9101117"},{"town":"松岡神明二丁目","koaza":"","lat":36.094738,"lng":136.300136,"zip":"9101117"},{"town":"松岡神明三丁目","koaza":"","lat":36.093047,"lng":136.301044,"zip":"9101117"},{"town":"松岡末政","koaza":"","lat":36.10537,"lng":136.287848,"zip":"9101105"},{"town":"松岡西野中","koaza":"","lat":36.06804,"lng":136.293373,"zip":"9101125"},{"town":"松岡樋爪","koaza":"","lat":36.112393,"lng":136.294754,"zip":"9101101"},{"town":"松岡平成","koaza":"","lat":36.110911,"lng":136.282651,"zip":"9101144"},{"town":"松岡松ケ丘一丁目","koaza":"","lat":36.083454,"lng":136.298418,"zip":"9101113"},{"town":"松岡松ケ原一丁目","koaza":"","lat":36.094321,"lng":136.290764,"zip":"9101138"},{"town":"松岡松ケ原二丁目","koaza":"","lat":36.094183,"lng":136.287957,"zip":"9101138"},{"town":"松岡松ケ原三丁目","koaza":"","lat":36.092996,"lng":136.290878,"zip":"9101138"},{"town":"松岡松ケ原四丁目","koaza":"","lat":36.092762,"lng":136.287797,"zip":"9101138"},{"town":"松岡宮重","koaza":"","lat":36.069384,"lng":136.297215,"zip":"9101122"},{"town":"松岡室","koaza":"","lat":36.08983,"lng":136.304382,"zip":"9101135"},{"town":"松岡薬師一丁目","koaza":"","lat":36.096583,"lng":136.305949,"zip":"9101118"},{"town":"松岡薬師二丁目","koaza":"","lat":36.095707,"lng":136.303304,"zip":"9101118"},{"town":"松岡薬師三丁目","koaza":"","lat":36.095101,"lng":136.305426,"zip":"9101118"},{"town":"松岡湯谷","koaza":"","lat":36.064318,"lng":136.298542,"zip":"9101123"},{"town":"松岡吉野","koaza":"","lat":36.076189,"lng":136.296199,"zip":"9101121"},{"town":"松岡吉野堺","koaza":"","lat":36.084271,"lng":136.294048,"zip":"9101127"},{"town":"松岡領家","koaza":"","lat":36.114918,"lng":136.282648,"zip":"9101141"},{"town":"松岡渡新田","koaza":"","lat":36.105592,"lng":136.276069,"zip":"9101143"},{"town":"吉波","koaza":"","lat":36.094495,"lng":136.366138,"zip":"9101205"},{"town":"吉峰","koaza":"","lat":36.061089,"lng":136.42127,"zip":"9101304"},{"town":"諏訪間","koaza":"","lat":36.086132,"lng":136.317747,"zip":"9101222"},{"town":"山","koaza":"","lat":36.091645,"lng":136.324249,"zip":"9101321"}]