[{"town":"坂井町朝日一丁目","koaza":"","lat":36.160439,"lng":136.238345,"zip":"9190517"},{"town":"坂井町朝日二丁目","koaza":"","lat":36.16054,"lng":136.238792,"zip":"9190517"},{"town":"坂井町朝日三丁目","koaza":"","lat":36.160496,"lng":136.239231,"zip":"9190517"},{"town":"坂井町朝日四丁目","koaza":"","lat":36.160671,"lng":136.239596,"zip":"9190517"},{"town":"坂井町朝日五丁目","koaza":"","lat":36.159565,"lng":136.23891,"zip":"9190517"},{"town":"坂井町朝日六丁目","koaza":"","lat":36.159662,"lng":136.239809,"zip":"9190517"},{"town":"坂井町朝日七丁目","koaza":"","lat":36.159988,"lng":136.240586,"zip":"9190517"},{"town":"坂井町朝日八丁目","koaza":"","lat":36.161019,"lng":136.240118,"zip":"9190517"},{"town":"坂井町今井","koaza":"","lat":36.189564,"lng":136.17708,"zip":"9190531"},{"town":"坂井町大味","koaza":"","lat":36.186687,"lng":136.203331,"zip":"9190547"},{"town":"坂井町折戸","koaza":"","lat":36.176435,"lng":136.151385,"zip":"9190537"},{"town":"坂井町上新庄","koaza":"","lat":36.162711,"lng":136.227237,"zip":"9190522"},{"town":"坂井町上関","koaza":"","lat":36.184458,"lng":136.229253,"zip":"9190502"},{"town":"坂井町上兵庫","koaza":"","lat":36.169924,"lng":136.21196,"zip":"9190526"},{"town":"坂井町河和田","koaza":"","lat":36.173468,"lng":136.242428,"zip":"9190505"},{"town":"坂井町木部新保","koaza":"","lat":36.165488,"lng":136.162916,"zip":"9190536"},{"town":"坂井町木部東","koaza":"","lat":36.179017,"lng":136.181228,"zip":"9190533"},{"town":"坂井町清永","koaza":"","lat":36.170731,"lng":136.183983,"zip":"9190534"},{"town":"坂井町蔵垣内","koaza":"","lat":36.175649,"lng":136.220445,"zip":"9190542"},{"town":"坂井町五本","koaza":"","lat":36.177698,"lng":136.23151,"zip":"9190507"},{"town":"坂井町御油田","koaza":"","lat":36.17336,"lng":136.252756,"zip":"9190504"},{"town":"坂井町定旨","koaza":"","lat":36.170945,"lng":136.233357,"zip":"9190506"},{"town":"坂井町島","koaza":"","lat":36.171378,"lng":136.177468,"zip":"9190535"},{"town":"坂井町下新庄","koaza":"","lat":36.168914,"lng":136.225917,"zip":"9190521"},{"town":"坂井町下関","koaza":"","lat":36.19167,"lng":136.227983,"zip":"9190501"},{"town":"坂井町下兵庫","koaza":"","lat":36.173631,"lng":136.1966,"zip":"9190527"},{"town":"坂井町新庄一丁目","koaza":"","lat":36.160042,"lng":136.234613,"zip":"9190523"},{"town":"坂井町新庄二丁目","koaza":"","lat":36.160463,"lng":136.237051,"zip":"9190523"},{"town":"坂井町新庄三丁目","koaza":"","lat":36.161467,"lng":136.235585,"zip":"9190523"},{"town":"坂井町高柳","koaza":"","lat":36.182182,"lng":136.174878,"zip":"9190532"},{"town":"坂井町蛸","koaza":"","lat":36.18831,"lng":136.183594,"zip":"9190546"},{"town":"坂井町田島","koaza":"","lat":36.157734,"lng":136.248138,"zip":"9190513"},{"town":"坂井町田島窪","koaza":"","lat":36.157558,"lng":136.25452,"zip":"9190514"},{"town":"坂井町徳分田","koaza":"","lat":36.158828,"lng":136.21931,"zip":"9190525"},{"town":"坂井町長畑","koaza":"","lat":36.166228,"lng":136.235091,"zip":"9190511"},{"town":"坂井町長屋","koaza":"","lat":36.179444,"lng":136.246832,"zip":"9190503"},{"town":"坂井町西","koaza":"","lat":36.180647,"lng":136.211566,"zip":"9190543"},{"town":"坂井町東","koaza":"","lat":36.186218,"lng":136.217444,"zip":"9190541"},{"town":"坂井町東荒井","koaza":"","lat":36.183722,"lng":136.187486,"zip":"9190545"},{"town":"坂井町東長田","koaza":"","lat":36.152917,"lng":136.219339,"zip":"9190524"},{"town":"坂井町東中野","koaza":"","lat":36.183144,"lng":136.20487,"zip":"9190544"},{"town":"坂井町福島","koaza":"","lat":36.151632,"lng":136.23114,"zip":"9190516"},{"town":"坂井町宮領","koaza":"","lat":36.164062,"lng":136.245186,"zip":"9190512"},{"town":"坂井町若宮","koaza":"","lat":36.155133,"lng":136.239166,"zip":"9190515"},{"town":"春江町石塚","koaza":"","lat":36.146345,"lng":136.182915,"zip":"9190483"},{"town":"春江町石仏","koaza":"","lat":36.130126,"lng":136.236017,"zip":"9190423"},{"town":"春江町いちい野","koaza":"","lat":36.130443,"lng":136.231438,"zip":"9190424"},{"town":"春江町いちい野北","koaza":"","lat":36.134145,"lng":136.232494,"zip":"9190425"},{"town":"春江町いちい野中央","koaza":"","lat":36.131252,"lng":136.229766,"zip":"9190426"},{"town":"春江町井向","koaza":"","lat":36.163854,"lng":136.197793,"zip":"9190403"},{"town":"春江町江留上","koaza":"","lat":36.123888,"lng":136.220455,"zip":"9190455"},{"town":"春江町江留上旭","koaza":"","lat":36.126344,"lng":136.223897,"zip":"9190451"},{"town":"春江町江留上昭和","koaza":"","lat":36.122003,"lng":136.222741,"zip":"9190463"},{"town":"春江町江留上新町","koaza":"","lat":36.125402,"lng":136.217154,"zip":"9190465"},{"town":"春江町江留上中央","koaza":"","lat":36.123848,"lng":136.226407,"zip":"9190453"},{"town":"春江町江留上錦","koaza":"","lat":36.122471,"lng":136.217116,"zip":"9190464"},{"town":"春江町江留上日の出","koaza":"","lat":36.122759,"lng":136.228094,"zip":"9190454"},{"town":"春江町江留上本町","koaza":"","lat":36.125625,"lng":136.226483,"zip":"9190452"},{"town":"春江町江留上緑","koaza":"","lat":36.124988,"lng":136.222033,"zip":"9190461"},{"town":"春江町江留上大和","koaza":"","lat":36.123515,"lng":136.223305,"zip":"9190462"},{"town":"春江町江留下","koaza":"","lat":36.126904,"lng":136.222481,"zip":"9190415"},{"town":"春江町江留下相田","koaza":"","lat":36.12725,"lng":136.217854,"zip":"9190417"},{"town":"春江町江留下宇和江","koaza":"","lat":36.126881,"lng":136.22053,"zip":"9190416"},{"town":"春江町江留下高道","koaza":"","lat":36.129968,"lng":136.218927,"zip":"9190418"},{"town":"春江町江留下屋敷","koaza":"","lat":36.129435,"lng":136.221576,"zip":"9190414"},{"town":"春江町江留中","koaza":"","lat":36.138966,"lng":136.216784,"zip":"9190412"},{"town":"春江町大針","koaza":"","lat":36.146853,"lng":136.225725,"zip":"9190421"},{"town":"春江町大牧","koaza":"","lat":36.159645,"lng":136.193759,"zip":"9190402"},{"town":"春江町沖布目","koaza":"","lat":36.140197,"lng":136.231402,"zip":"9190422"},{"town":"春江町上小森","koaza":"","lat":36.154448,"lng":136.185087,"zip":"9190405"},{"town":"春江町木部西方寺","koaza":"","lat":36.158326,"lng":136.172568,"zip":"9190408"},{"town":"春江町金剛寺","koaza":"","lat":36.140236,"lng":136.193452,"zip":"9190471"},{"town":"春江町境","koaza":"","lat":36.132017,"lng":136.226965,"zip":"9190434"},{"town":"春江町境上町","koaza":"","lat":36.130705,"lng":136.226294,"zip":"9190434"},{"town":"春江町境元町","koaza":"","lat":36.131331,"lng":136.223968,"zip":"9190434"},{"town":"春江町境為","koaza":"","lat":36.132741,"lng":136.234918,"zip":"9100200"},{"town":"春江町定重","koaza":"","lat":36.120818,"lng":136.247203,"zip":"9190441"},{"town":"春江町定広","koaza":"","lat":36.157155,"lng":136.166133,"zip":"9190409"},{"town":"春江町下小森","koaza":"","lat":36.158174,"lng":136.182661,"zip":"9190406"},{"town":"春江町正善","koaza":"","lat":36.151582,"lng":136.167802,"zip":"9190487"},{"town":"春江町正蓮花","koaza":"","lat":36.122153,"lng":136.234269,"zip":"9190443"},{"town":"春江町随応寺","koaza":"","lat":36.133183,"lng":136.218943,"zip":"9190413"},{"town":"春江町随応寺中央","koaza":"","lat":36.135095,"lng":136.216556,"zip":"9100200"},{"town":"春江町千歩寺","koaza":"","lat":36.145138,"lng":136.206211,"zip":"9190481"},{"town":"春江町高江","koaza":"","lat":36.132386,"lng":136.188845,"zip":"9190479"},{"town":"春江町田端","koaza":"","lat":36.135283,"lng":136.196262,"zip":"9190477"},{"town":"春江町為国","koaza":"","lat":36.133924,"lng":136.225454,"zip":"9190431"},{"town":"春江町為国亀ケ久保","koaza":"","lat":36.13442,"lng":136.22812,"zip":"9190432"},{"town":"春江町為国幸","koaza":"","lat":36.127536,"lng":136.227813,"zip":"9190435"},{"town":"春江町為国中区","koaza":"","lat":36.128119,"lng":136.226829,"zip":"9190436"},{"town":"春江町為国西の宮","koaza":"","lat":36.128464,"lng":136.225001,"zip":"9190437"},{"town":"春江町為国平成","koaza":"","lat":36.133069,"lng":136.227153,"zip":"9190433"},{"town":"春江町辻","koaza":"","lat":36.161116,"lng":136.177257,"zip":"9190407"},{"town":"春江町取次","koaza":"","lat":36.146652,"lng":136.175472,"zip":"9190485"},{"town":"春江町中筋","koaza":"","lat":36.126943,"lng":136.240564,"zip":"9190449"},{"town":"春江町中筋大手","koaza":"","lat":36.128458,"lng":136.230636,"zip":"9190447"},{"town":"春江町中筋春日","koaza":"","lat":36.126865,"lng":136.230631,"zip":"9190446"},{"town":"春江町中筋北浦","koaza":"","lat":36.128149,"lng":136.23504,"zip":"9190448"},{"town":"春江町中筋高田","koaza":"","lat":36.126143,"lng":136.233694,"zip":"9190445"},{"town":"春江町中筋三ツ屋","koaza":"","lat":36.125829,"lng":136.230631,"zip":"9190444"},{"town":"春江町中庄","koaza":"","lat":36.146259,"lng":136.195949,"zip":"9190482"},{"town":"春江町西太郎丸","koaza":"","lat":36.130875,"lng":136.207492,"zip":"9190474"},{"town":"春江町西長田","koaza":"","lat":36.155417,"lng":136.203983,"zip":"9190404"},{"town":"春江町針原","koaza":"","lat":36.125558,"lng":136.202044,"zip":"9190476"},{"town":"春江町東太郎丸","koaza":"","lat":36.128821,"lng":136.215485,"zip":"9190475"},{"town":"春江町姫王","koaza":"","lat":36.152141,"lng":136.175069,"zip":"9190488"},{"town":"春江町藤鷲塚","koaza":"","lat":36.145161,"lng":136.21678,"zip":"9190411"},{"town":"春江町布施田新","koaza":"","lat":36.146019,"lng":136.169789,"zip":"9190486"},{"town":"春江町堀越","koaza":"","lat":36.166454,"lng":136.178656,"zip":"9190401"},{"town":"春江町本堂","koaza":"","lat":36.136236,"lng":136.205698,"zip":"9190473"},{"town":"春江町松木","koaza":"","lat":36.138223,"lng":136.198727,"zip":"9190472"},{"town":"春江町安沢","koaza":"","lat":36.140826,"lng":136.176421,"zip":"9190484"},{"town":"春江町寄安","koaza":"","lat":36.121372,"lng":136.241879,"zip":"9190442"},{"town":"丸岡町赤坂","koaza":"","lat":36.159044,"lng":136.292459,"zip":"9100212"},{"town":"丸岡町朝陽一丁目","koaza":"","lat":36.157397,"lng":136.265093,"zip":"9100265"},{"town":"丸岡町朝陽二丁目","koaza":"","lat":36.157414,"lng":136.263676,"zip":"9100265"},{"town":"丸岡町愛宕","koaza":"","lat":36.148539,"lng":136.278892,"zip":"9100301"},{"town":"丸岡町油為頭","koaza":"","lat":36.12265,"lng":136.285718,"zip":"9100324"},{"town":"丸岡町荒町","koaza":"","lat":36.155528,"lng":136.271385,"zip":"9100227"},{"town":"丸岡町石上","koaza":"","lat":36.147155,"lng":136.282585,"zip":"9100317"},{"town":"丸岡町石城戸町一丁目","koaza":"","lat":36.149942,"lng":136.271418,"zip":"9100243"},{"town":"丸岡町石城戸町二丁目","koaza":"","lat":36.14867,"lng":136.271741,"zip":"9100243"},{"town":"丸岡町石城戸町三丁目","koaza":"","lat":36.147704,"lng":136.272291,"zip":"9100243"},{"town":"丸岡町石城戸町四丁目","koaza":"","lat":36.146824,"lng":136.271449,"zip":"9100243"},{"town":"丸岡町磯部島","koaza":"","lat":36.112517,"lng":136.276504,"zip":"9100346"},{"town":"丸岡町磯部新保","koaza":"","lat":36.116595,"lng":136.25543,"zip":"9100368"},{"town":"丸岡町磯部福庄","koaza":"","lat":36.114003,"lng":136.267866,"zip":"9100365"},{"town":"丸岡町板倉","koaza":"","lat":36.124871,"lng":136.28919,"zip":"9100325"},{"town":"丸岡町一本田","koaza":"","lat":36.149174,"lng":136.261084,"zip":"9100254"},{"town":"丸岡町一本田中","koaza":"","lat":36.154633,"lng":136.262123,"zip":"9100253"},{"town":"丸岡町一本田福所","koaza":"","lat":36.160329,"lng":136.264239,"zip":"9100251"},{"town":"丸岡町乾","koaza":"","lat":36.156672,"lng":136.267389,"zip":"9100237"},{"town":"丸岡町乾下田","koaza":"","lat":36.154296,"lng":136.266636,"zip":"9100264"},{"town":"丸岡町猪爪","koaza":"","lat":36.145374,"lng":136.272133,"zip":"9100303"},{"town":"丸岡町猪爪一丁目","koaza":"","lat":36.14308,"lng":136.275323,"zip":"9100303"},{"town":"丸岡町猪爪二丁目","koaza":"","lat":36.142378,"lng":136.272865,"zip":"9100303"},{"town":"丸岡町猪爪三丁目","koaza":"","lat":36.145044,"lng":136.274072,"zip":"9100303"},{"town":"丸岡町猪爪四丁目","koaza":"","lat":36.147146,"lng":136.274068,"zip":"9100303"},{"town":"丸岡町猪爪五丁目","koaza":"","lat":36.145204,"lng":136.275502,"zip":"9100303"},{"town":"丸岡町猪爪六丁目","koaza":"","lat":36.142285,"lng":136.277651,"zip":"9100303"},{"town":"丸岡町猪爪七丁目","koaza":"","lat":36.141001,"lng":136.275807,"zip":"9100303"},{"town":"丸岡町猪爪九丁目","koaza":"","lat":36.140514,"lng":136.272411,"zip":"9100303"},{"town":"丸岡町今市","koaza":"","lat":36.116502,"lng":136.274633,"zip":"9100234"},{"town":"丸岡町今福","koaza":"","lat":36.143919,"lng":136.265304,"zip":"9100304"},{"town":"丸岡町今町","koaza":"","lat":36.148581,"lng":136.276274,"zip":"9100348"},{"town":"丸岡町上田町一丁目","koaza":"","lat":36.154749,"lng":136.267469,"zip":"9100263"},{"town":"丸岡町上田町二丁目","koaza":"","lat":36.15584,"lng":136.267603,"zip":"9100263"},{"town":"丸岡町牛ケ島","koaza":"","lat":36.132325,"lng":136.274827,"zip":"9100356"},{"town":"丸岡町宇随","koaza":"","lat":36.108873,"lng":136.262074,"zip":"9100366"},{"town":"丸岡町宇田","koaza":"","lat":36.167865,"lng":136.259082,"zip":"9100275"},{"town":"丸岡町内田","koaza":"","lat":36.146,"lng":136.289897,"zip":"9100313"},{"town":"丸岡町大森","koaza":"","lat":36.131003,"lng":136.296961,"zip":"9100322"},{"town":"丸岡町小黒","koaza":"","lat":36.139987,"lng":136.284071,"zip":"9100315"},{"town":"丸岡町女形谷","koaza":"","lat":36.170347,"lng":136.302019,"zip":"9100211"},{"town":"丸岡町霞ケ丘一丁目","koaza":"","lat":36.151226,"lng":136.275741,"zip":"9100232"},{"town":"丸岡町霞ケ丘二丁目","koaza":"","lat":36.152409,"lng":136.276997,"zip":"9100232"},{"town":"丸岡町霞ケ丘三丁目","koaza":"","lat":36.151456,"lng":136.276812,"zip":"9100232"},{"town":"丸岡町霞ケ丘四丁目","koaza":"","lat":36.15025,"lng":136.276593,"zip":"9100232"},{"town":"丸岡町霞町一丁目","koaza":"","lat":36.15227,"lng":136.271411,"zip":"9100231"},{"town":"丸岡町霞町二丁目","koaza":"","lat":36.154182,"lng":136.27116,"zip":"9100231"},{"town":"丸岡町霞町三丁目","koaza":"","lat":36.153995,"lng":136.274324,"zip":"9100231"},{"town":"丸岡町霞町四丁目","koaza":"","lat":36.151797,"lng":136.273588,"zip":"9100231"},{"town":"丸岡町金元","koaza":"","lat":36.111482,"lng":136.311335,"zip":"9100333"},{"town":"丸岡町上金屋","koaza":"","lat":36.108558,"lng":136.310576,"zip":"9100335"},{"town":"丸岡町上久米田","koaza":"","lat":36.118596,"lng":136.335913,"zip":"9100331"},{"town":"丸岡町上竹田","koaza":"","lat":36.143642,"lng":136.339884,"zip":"9100202"},{"town":"丸岡町上安田","koaza":"","lat":36.122749,"lng":136.261549,"zip":"9100362"},{"town":"丸岡町川上","koaza":"","lat":36.179077,"lng":136.298199,"zip":"9100206"},{"town":"丸岡町北横地","koaza":"","lat":36.132815,"lng":136.250533,"zip":"9100374"},{"town":"丸岡町北横地一丁目","koaza":"","lat":36.130253,"lng":136.254976,"zip":"9100374"},{"town":"丸岡町儀間","koaza":"","lat":36.135016,"lng":136.271612,"zip":"9100357"},{"town":"丸岡町熊堂","koaza":"","lat":36.109102,"lng":136.270099,"zip":"9100347"},{"town":"丸岡町玄女","koaza":"","lat":36.169815,"lng":136.263505,"zip":"9100276"},{"town":"丸岡町栄一丁目","koaza":"","lat":36.158167,"lng":136.271129,"zip":"9100262"},{"town":"丸岡町栄二丁目","koaza":"","lat":36.158457,"lng":136.269674,"zip":"9100262"},{"town":"丸岡町笹和田","koaza":"","lat":36.147087,"lng":136.255553,"zip":"9100382"},{"town":"丸岡町里竹田","koaza":"","lat":36.176758,"lng":136.261041,"zip":"9100277"},{"town":"丸岡町里丸岡","koaza":"","lat":36.157468,"lng":136.273755,"zip":"9100302"},{"town":"丸岡町里丸岡一丁目","koaza":"","lat":36.146977,"lng":136.2771,"zip":"9100302"},{"town":"丸岡町里丸岡二丁目","koaza":"","lat":36.145176,"lng":136.277382,"zip":"9100302"},{"town":"丸岡町里丸岡三丁目","koaza":"","lat":36.14358,"lng":136.27759,"zip":"9100302"},{"town":"丸岡町三本木","koaza":"","lat":36.156728,"lng":136.283447,"zip":"9100223"},{"town":"丸岡町篠岡","koaza":"","lat":36.148818,"lng":136.285444,"zip":"9100316"},{"town":"丸岡町下久米田","koaza":"","lat":36.121585,"lng":136.304848,"zip":"9100332"},{"town":"丸岡町下安田","koaza":"","lat":36.126596,"lng":136.257133,"zip":"9100363"},{"town":"丸岡町城北一丁目","koaza":"","lat":36.159265,"lng":136.276485,"zip":"9100221"},{"town":"丸岡町城北二丁目","koaza":"","lat":36.158131,"lng":136.27688,"zip":"9100221"},{"town":"丸岡町城北三丁目","koaza":"","lat":36.157173,"lng":136.277058,"zip":"9100221"},{"town":"丸岡町城北四丁目","koaza":"","lat":36.1572,"lng":136.275226,"zip":"9100221"},{"town":"丸岡町城北五丁目","koaza":"","lat":36.158025,"lng":136.274233,"zip":"9100221"},{"town":"丸岡町城北六丁目","koaza":"","lat":36.159175,"lng":136.273449,"zip":"9100221"},{"town":"丸岡町四郎丸","koaza":"","lat":36.116308,"lng":136.278559,"zip":"9100345"},{"town":"丸岡町新九頭竜一丁目","koaza":"","lat":36.11687,"lng":136.262073,"zip":"9100369"},{"town":"丸岡町新九頭竜二丁目","koaza":"","lat":36.119007,"lng":136.263272,"zip":"9100369"},{"town":"丸岡町新鳴鹿一丁目","koaza":"","lat":36.108784,"lng":136.298474,"zip":"9100337"},{"town":"丸岡町新鳴鹿二丁目","koaza":"","lat":36.108474,"lng":136.300506,"zip":"9100337"},{"town":"丸岡町新鳴鹿三丁目","koaza":"","lat":36.10746,"lng":136.29852,"zip":"9100337"},{"town":"丸岡町新間","koaza":"","lat":36.137202,"lng":136.275226,"zip":"9100352"},{"town":"丸岡町末政","koaza":"","lat":36.133083,"lng":136.283845,"zip":"9100326"},{"town":"丸岡町千田","koaza":"","lat":36.169664,"lng":136.267318,"zip":"9100274"},{"town":"丸岡町曽々木","koaza":"","lat":36.148171,"lng":136.292472,"zip":"9100312"},{"town":"丸岡町高瀬","koaza":"","lat":36.12734,"lng":136.272544,"zip":"9100355"},{"town":"丸岡町高田","koaza":"","lat":36.121845,"lng":136.281709,"zip":"9100342"},{"town":"丸岡町高柳","koaza":"","lat":36.13244,"lng":136.260341,"zip":"9100373"},{"town":"丸岡町巽町一丁目","koaza":"","lat":36.149817,"lng":136.272668,"zip":"9100235"},{"town":"丸岡町巽町二丁目","koaza":"","lat":36.148582,"lng":136.272838,"zip":"9100235"},{"town":"丸岡町巽町三丁目","koaza":"","lat":36.148278,"lng":136.2741,"zip":"9100235"},{"town":"丸岡町谷町一丁目","koaza":"","lat":36.149842,"lng":136.269641,"zip":"9100245"},{"town":"丸岡町谷町二丁目","koaza":"","lat":36.148521,"lng":136.269886,"zip":"9100245"},{"town":"丸岡町谷町三丁目","koaza":"","lat":36.147262,"lng":136.27038,"zip":"9100245"},{"town":"丸岡町為安","koaza":"","lat":36.111029,"lng":136.300253,"zip":"9100338"},{"town":"丸岡町田屋","koaza":"","lat":36.151782,"lng":136.293971,"zip":"9100213"},{"town":"丸岡町反保","koaza":"","lat":36.122291,"lng":136.27013,"zip":"9100349"},{"town":"丸岡町筑後清水","koaza":"","lat":36.128383,"lng":136.279199,"zip":"9100353"},{"town":"丸岡町坪江","koaza":"","lat":36.175768,"lng":136.278065,"zip":"9100208"},{"town":"丸岡町坪ノ内","koaza":"","lat":36.116419,"lng":136.287617,"zip":"9100343"},{"town":"丸岡町東陽一丁目","koaza":"","lat":36.149689,"lng":136.276181,"zip":"9100233"},{"town":"丸岡町東陽二丁目","koaza":"","lat":36.150366,"lng":136.27463,"zip":"9100233"},{"town":"丸岡町富田町一丁目","koaza":"","lat":36.150081,"lng":136.270533,"zip":"9100244"},{"town":"丸岡町富田町二丁目","koaza":"","lat":36.14821,"lng":136.270814,"zip":"9100244"},{"town":"丸岡町友末","koaza":"","lat":36.115666,"lng":136.294784,"zip":"9100344"},{"town":"丸岡町豊原","koaza":"","lat":36.151632,"lng":136.305321,"zip":"9100311"},{"town":"丸岡町豊原高瀬","koaza":"","lat":36.126972,"lng":136.276803,"zip":"9100354"},{"town":"丸岡町寅国","koaza":"","lat":36.141156,"lng":136.268983,"zip":"9100351"},{"town":"丸岡町長崎","koaza":"","lat":36.141401,"lng":136.248598,"zip":"9100383"},{"town":"丸岡町西瓜屋","koaza":"","lat":36.145649,"lng":136.268895,"zip":"9100246"},{"town":"丸岡町西里丸岡","koaza":"","lat":36.150818,"lng":136.266631,"zip":"9100242"},{"town":"丸岡町長畝","koaza":"","lat":36.166708,"lng":136.277184,"zip":"9100273"},{"town":"丸岡町野中山王","koaza":"","lat":36.126347,"lng":136.300109,"zip":"9100323"},{"town":"丸岡町乗兼","koaza":"","lat":36.174284,"lng":136.271733,"zip":"9100272"},{"town":"丸岡町羽崎","koaza":"","lat":36.113035,"lng":136.259516,"zip":"9100367"},{"town":"丸岡町畑中","koaza":"","lat":36.151471,"lng":136.291706,"zip":"9100214"},{"town":"丸岡町八幡町","koaza":"","lat":36.146077,"lng":136.27108,"zip":"9100305"},{"town":"丸岡町八ケ郷","koaza":"","lat":36.150271,"lng":136.280027,"zip":"9100224"},{"town":"丸岡町八丁","koaza":"","lat":36.117967,"lng":136.266589,"zip":"9100212"},{"town":"丸岡町針ノ木一丁目","koaza":"","lat":36.15898,"lng":136.268675,"zip":"9100261"},{"town":"丸岡町東二ツ屋","koaza":"","lat":36.106559,"lng":136.316328,"zip":"9100334"},{"town":"丸岡町伏屋","koaza":"","lat":36.158846,"lng":136.284273,"zip":"9100222"},{"town":"丸岡町舟寄","koaza":"","lat":36.145355,"lng":136.2399,"zip":"9100381"},{"town":"丸岡町堀水","koaza":"","lat":36.175443,"lng":136.267335,"zip":"9100271"},{"town":"丸岡町本町一丁目","koaza":"","lat":36.151134,"lng":136.269661,"zip":"9100236"},{"town":"丸岡町本町二丁目","koaza":"","lat":36.152899,"lng":136.269419,"zip":"9100236"},{"town":"丸岡町本町三丁目","koaza":"","lat":36.154758,"lng":136.269025,"zip":"9100236"},{"town":"丸岡町本町四丁目","koaza":"","lat":36.156186,"lng":136.270831,"zip":"9100236"},{"town":"丸岡町舛田","koaza":"","lat":36.143507,"lng":136.290714,"zip":"9100314"},{"town":"丸岡町松川","koaza":"","lat":36.155264,"lng":136.280054,"zip":"9100225"},{"town":"丸岡町松川一丁目","koaza":"","lat":36.155744,"lng":136.276915,"zip":"9100225"},{"town":"丸岡町松川二丁目","koaza":"","lat":36.153804,"lng":136.277788,"zip":"9100225"},{"town":"丸岡町松川町","koaza":"","lat":36.156107,"lng":136.274397,"zip":"9100226"},{"town":"丸岡町南今市","koaza":"","lat":36.11291,"lng":136.2791,"zip":"9100350"},{"town":"丸岡町南横地","koaza":"","lat":36.125087,"lng":136.249205,"zip":"9100375"},{"town":"丸岡町御幸一丁目","koaza":"","lat":36.158548,"lng":136.266695,"zip":"9100252"},{"town":"丸岡町安田新","koaza":"","lat":36.126729,"lng":136.264976,"zip":"9100361"},{"town":"丸岡町八ツ口","koaza":"","lat":36.141993,"lng":136.258448,"zip":"9100371"},{"town":"丸岡町柳町","koaza":"","lat":36.153663,"lng":136.268192,"zip":"9100241"},{"town":"丸岡町山口","koaza":"","lat":36.148796,"lng":136.388308,"zip":"9100203"},{"town":"丸岡町山久保","koaza":"","lat":36.175511,"lng":136.30214,"zip":"9100207"},{"town":"丸岡町山崎三ケ","koaza":"","lat":36.136037,"lng":136.30491,"zip":"9100321"},{"town":"丸岡町山竹田","koaza":"","lat":36.17747,"lng":136.326552,"zip":"9100204"},{"town":"丸岡町与河","koaza":"","lat":36.154389,"lng":136.28918,"zip":"9100215"},{"town":"丸岡町吉谷","koaza":"","lat":36.162845,"lng":136.350972,"zip":"9100200"},{"town":"丸岡町吉政","koaza":"","lat":36.136871,"lng":136.259847,"zip":"9100372"},{"town":"丸岡町四ツ屋","koaza":"","lat":36.132154,"lng":136.242371,"zip":"9100384"},{"town":"丸岡町四ツ柳","koaza":"","lat":36.121878,"lng":136.275396,"zip":"9100341"},{"town":"丸岡町寄永","koaza":"","lat":36.112957,"lng":136.30162,"zip":"9100339"},{"town":"丸岡町楽間","koaza":"","lat":36.108838,"lng":136.304148,"zip":"9100336"},{"town":"三国町青葉台","koaza":"","lat":36.223767,"lng":136.145015,"zip":"9130053"},{"town":"三国町油屋","koaza":"","lat":36.198162,"lng":136.164095,"zip":"9130022"},{"town":"三国町安島","koaza":"","lat":36.242721,"lng":136.133879,"zip":"9130063"},{"town":"三国町安島一丁目","koaza":"","lat":36.245467,"lng":136.12945,"zip":"9130063"},{"town":"三国町安島二丁目","koaza":"","lat":36.246567,"lng":136.12914,"zip":"9130063"},{"town":"三国町安島三丁目","koaza":"","lat":36.247931,"lng":136.129336,"zip":"9130063"},{"town":"三国町安島四丁目","koaza":"","lat":36.249389,"lng":136.129325,"zip":"9130063"},{"town":"三国町池上","koaza":"","lat":36.241012,"lng":136.184331,"zip":"9130001"},{"town":"三国町池見","koaza":"","lat":36.180337,"lng":136.161411,"zip":"9130024"},{"town":"三国町石丸","koaza":"","lat":36.190473,"lng":136.166304,"zip":"9130023"},{"town":"三国町運動公園一丁目","koaza":"","lat":36.225632,"lng":136.147773,"zip":"9130052"},{"town":"三国町運動公園二丁目","koaza":"","lat":36.228685,"lng":136.15117,"zip":"9130052"},{"town":"三国町運動公園三丁目","koaza":"","lat":36.230518,"lng":136.151452,"zip":"9130052"},{"town":"三国町沖野々","koaza":"","lat":36.171007,"lng":136.136924,"zip":"9130035"},{"town":"三国町覚善","koaza":"","lat":36.223724,"lng":136.159218,"zip":"9130041"},{"town":"三国町梶","koaza":"","lat":36.247199,"lng":136.153408,"zip":"9130061"},{"town":"三国町加戸","koaza":"","lat":36.228549,"lng":136.174635,"zip":"9130002"},{"town":"三国町川崎","koaza":"","lat":36.195876,"lng":136.154965,"zip":"9130025"},{"town":"三国町北本町一丁目","koaza":"","lat":36.215506,"lng":136.150352,"zip":"9130046"},{"town":"三国町北本町二丁目","koaza":"","lat":36.21701,"lng":136.148706,"zip":"9130046"},{"town":"三国町北本町三丁目","koaza":"","lat":36.214221,"lng":136.146626,"zip":"9130046"},{"town":"三国町北本町四丁目","koaza":"","lat":36.213616,"lng":136.148494,"zip":"9130046"},{"town":"三国町黒目","koaza":"","lat":36.18242,"lng":136.12984,"zip":"9130038"},{"town":"三国町米ケ脇","koaza":"","lat":36.231456,"lng":136.136908,"zip":"9130057"},{"town":"三国町米ケ脇一丁目","koaza":"","lat":36.227241,"lng":136.137551,"zip":"9130057"},{"town":"三国町米ケ脇二丁目","koaza":"","lat":36.229663,"lng":136.135389,"zip":"9130057"},{"town":"三国町米ケ脇三丁目","koaza":"","lat":36.228747,"lng":136.133948,"zip":"9130057"},{"town":"三国町米ケ脇四丁目","koaza":"","lat":36.222923,"lng":136.135042,"zip":"9130057"},{"town":"三国町米ケ脇五丁目","koaza":"","lat":36.225479,"lng":136.135376,"zip":"9130057"},{"town":"三国町崎","koaza":"","lat":36.244935,"lng":136.143612,"zip":"9130065"},{"town":"三国町山王一丁目","koaza":"","lat":36.211051,"lng":136.155953,"zip":"9130044"},{"town":"三国町山王二丁目","koaza":"","lat":36.209534,"lng":136.153268,"zip":"9130044"},{"town":"三国町山王三丁目","koaza":"","lat":36.208495,"lng":136.155085,"zip":"9130044"},{"town":"三国町山王四丁目","koaza":"","lat":36.207062,"lng":136.157316,"zip":"9130044"},{"town":"三国町山王五丁目","koaza":"","lat":36.208035,"lng":136.160006,"zip":"9130044"},{"town":"三国町山王六丁目","koaza":"","lat":36.209165,"lng":136.157428,"zip":"9130044"},{"town":"三国町汐見一丁目","koaza":"","lat":36.204738,"lng":136.154925,"zip":"9130027"},{"town":"三国町汐見二丁目","koaza":"","lat":36.205272,"lng":136.15411,"zip":"9130027"},{"town":"三国町汐見三丁目","koaza":"","lat":36.204202,"lng":136.152893,"zip":"9130027"},{"town":"三国町下野","koaza":"","lat":36.174385,"lng":136.142019,"zip":"9130033"},{"town":"三国町宿","koaza":"","lat":36.229245,"lng":136.140592,"zip":"9130056"},{"town":"三国町宿一丁目","koaza":"","lat":36.219571,"lng":136.140555,"zip":"9130056"},{"town":"三国町宿二丁目","koaza":"","lat":36.2222,"lng":136.139465,"zip":"9130056"},{"town":"三国町宿三丁目","koaza":"","lat":36.224043,"lng":136.137581,"zip":"9130056"},{"town":"三国町陣ケ岡","koaza":"","lat":36.234113,"lng":136.14272,"zip":"9130062"},{"town":"三国町新宿一丁目","koaza":"","lat":36.223245,"lng":136.141918,"zip":"9130058"},{"town":"三国町新宿二丁目","koaza":"","lat":36.226652,"lng":136.141389,"zip":"9130058"},{"town":"三国町新保","koaza":"","lat":36.207518,"lng":136.1372,"zip":"9130038"},{"town":"三国町神明一丁目","koaza":"","lat":36.217496,"lng":136.14679,"zip":"9130047"},{"town":"三国町神明二丁目","koaza":"","lat":36.216804,"lng":136.143988,"zip":"9130047"},{"town":"三国町神明三丁目","koaza":"","lat":36.215246,"lng":136.144966,"zip":"9130047"},{"town":"三国町滝谷","koaza":"","lat":36.229959,"lng":136.146685,"zip":"9130054"},{"town":"三国町滝谷一丁目","koaza":"","lat":36.220667,"lng":136.146539,"zip":"9130054"},{"town":"三国町滝谷二丁目","koaza":"","lat":36.218933,"lng":136.144769,"zip":"9130054"},{"town":"三国町滝谷三丁目","koaza":"","lat":36.217975,"lng":136.143568,"zip":"9130054"},{"town":"三国町嵩","koaza":"","lat":36.233984,"lng":136.155707,"zip":"9130051"},{"town":"三国町竹松","koaza":"","lat":36.212978,"lng":136.165386,"zip":"9130017"},{"town":"三国町中央一丁目","koaza":"","lat":36.217202,"lng":136.158248,"zip":"9130042"},{"town":"三国町中央二丁目","koaza":"","lat":36.220575,"lng":136.15701,"zip":"9130042"},{"town":"三国町つつじが丘","koaza":"","lat":36.22139,"lng":136.143569,"zip":"9130055"},{"town":"三国町玉江","koaza":"","lat":36.19829,"lng":136.171765,"zip":"9130014"},{"town":"三国町殿島","koaza":"","lat":36.206486,"lng":136.153601,"zip":"9130026"},{"town":"三国町西今市","koaza":"","lat":36.20932,"lng":136.172176,"zip":"9130012"},{"town":"三国町錦一丁目","koaza":"","lat":36.216045,"lng":136.15495,"zip":"9130043"},{"town":"三国町錦二丁目","koaza":"","lat":36.218408,"lng":136.156069,"zip":"9130043"},{"town":"三国町錦三丁目","koaza":"","lat":36.216755,"lng":136.152828,"zip":"9130043"},{"town":"三国町錦四丁目","koaza":"","lat":36.214555,"lng":136.152763,"zip":"9130043"},{"town":"三国町西谷","koaza":"","lat":36.230445,"lng":136.16321,"zip":"9130003"},{"town":"三国町西野中","koaza":"","lat":36.184296,"lng":136.151496,"zip":"9130034"},{"town":"三国町野中","koaza":"","lat":36.19418,"lng":136.173964,"zip":"9130015"},{"town":"三国町浜地","koaza":"","lat":36.250456,"lng":136.172891,"zip":"9130005"},{"town":"三国町平山","koaza":"","lat":36.237473,"lng":136.16702,"zip":"9130004"},{"town":"三国町藤沢","koaza":"","lat":36.204286,"lng":136.170421,"zip":"9130013"},{"town":"三国町三国","koaza":"","lat":36.206575,"lng":136.149904,"zip":"9130016"},{"town":"三国町三国東一丁目","koaza":"","lat":36.215113,"lng":136.161335,"zip":"9130016"},{"town":"三国町三国東二丁目","koaza":"","lat":36.212904,"lng":136.161993,"zip":"9130016"},{"town":"三国町三国東三丁目","koaza":"","lat":36.210623,"lng":136.162311,"zip":"9130016"},{"town":"三国町三国東四丁目","koaza":"","lat":36.208213,"lng":136.162498,"zip":"9130016"},{"town":"三国町三国東五丁目","koaza":"","lat":36.211247,"lng":136.159621,"zip":"9130016"},{"town":"三国町三国東六丁目","koaza":"","lat":36.212363,"lng":136.158262,"zip":"9130016"},{"town":"三国町三国東七丁目","koaza":"","lat":36.214579,"lng":136.157086,"zip":"9130016"},{"town":"三国町水居","koaza":"","lat":36.218476,"lng":136.169543,"zip":"9130011"},{"town":"三国町緑ケ丘一丁目","koaza":"","lat":36.218123,"lng":136.150032,"zip":"9130048"},{"town":"三国町緑ケ丘二丁目","koaza":"","lat":36.219411,"lng":136.15337,"zip":"9130048"},{"town":"三国町緑ケ丘三丁目","koaza":"","lat":36.221932,"lng":136.148641,"zip":"9130048"},{"town":"三国町緑ケ丘四丁目","koaza":"","lat":36.223388,"lng":136.153079,"zip":"9130048"},{"town":"三国町緑ケ丘五丁目","koaza":"","lat":36.224171,"lng":136.156153,"zip":"9130048"},{"town":"三国町南本町一丁目","koaza":"","lat":36.212776,"lng":136.154819,"zip":"9130045"},{"town":"三国町南本町二丁目","koaza":"","lat":36.213569,"lng":136.151696,"zip":"9130045"},{"town":"三国町南本町三丁目","koaza":"","lat":36.212296,"lng":136.15004,"zip":"9130045"},{"town":"三国町南本町四丁目","koaza":"","lat":36.211374,"lng":136.153233,"zip":"9130045"},{"town":"三国町山岸","koaza":"","lat":36.189321,"lng":136.142557,"zip":"9130038"},{"town":"三国町横越","koaza":"","lat":36.166134,"lng":136.144198,"zip":"9130035"},{"town":"三国町米納津","koaza":"","lat":36.171357,"lng":136.117913,"zip":"9130038"},{"town":"三国町楽円","koaza":"","lat":36.202894,"lng":136.162967,"zip":"9130021"}]