[{"town":"石山","koaza":"","lat":35.443055,"lng":135.561644,"zip":"9192125"},{"town":"犬見","koaza":"","lat":35.499794,"lng":135.620606,"zip":"9192106"},{"town":"大島","koaza":"","lat":35.52726,"lng":135.633785,"zip":"9192101"},{"town":"岡田","koaza":"","lat":35.466148,"lng":135.609164,"zip":"9192116"},{"town":"岡安","koaza":"","lat":35.462197,"lng":135.582323,"zip":"9192128"},{"town":"尾内","koaza":"","lat":35.473077,"lng":135.631216,"zip":"9192103"},{"town":"川上","koaza":"","lat":35.441444,"lng":135.511138,"zip":"9192134"},{"town":"久保","koaza":"","lat":35.436477,"lng":135.554804,"zip":"9192133"},{"town":"神崎","koaza":"","lat":35.449244,"lng":135.586385,"zip":"9192122"},{"town":"小車田","koaza":"","lat":35.445474,"lng":135.566466,"zip":"9192124"},{"town":"小堀","koaza":"","lat":35.478015,"lng":135.608036,"zip":"9192105"},{"town":"笹谷","koaza":"","lat":35.460292,"lng":135.570633,"zip":"9192127"},{"town":"佐畑","koaza":"","lat":35.455797,"lng":135.563087,"zip":"9192126"},{"town":"鹿野","koaza":"","lat":35.446057,"lng":135.57421,"zip":"9192123"},{"town":"芝崎","koaza":"","lat":35.463276,"lng":135.617112,"zip":"9192113"},{"town":"成和","koaza":"","lat":35.482946,"lng":135.611048,"zip":"9192104"},{"town":"父子","koaza":"","lat":35.445658,"lng":135.600933,"zip":"9192115"},{"town":"長井","koaza":"","lat":35.471052,"lng":135.640531,"zip":"9192102"},{"town":"名田庄挙野","koaza":"","lat":35.395885,"lng":135.694209,"zip":"9170363"},{"town":"名田庄井上","koaza":"","lat":35.390302,"lng":135.624257,"zip":"9170385"},{"town":"名田庄奥坂本","koaza":"","lat":35.422046,"lng":135.581049,"zip":"9170387"},{"town":"名田庄小倉","koaza":"","lat":35.399474,"lng":135.670894,"zip":"9170371"},{"town":"名田庄小倉畑","koaza":"","lat":35.404071,"lng":135.695623,"zip":"9170365"},{"town":"名田庄木谷","koaza":"","lat":35.387001,"lng":135.76579,"zip":"9170361"},{"town":"名田庄口坂本","koaza":"","lat":35.403419,"lng":135.614316,"zip":"9170386"},{"town":"名田庄下","koaza":"","lat":35.404436,"lng":135.657174,"zip":"9170383"},{"town":"名田庄染ケ谷","koaza":"","lat":35.361986,"lng":135.685891,"zip":"9170373"},{"town":"名田庄堂本","koaza":"","lat":35.375984,"lng":135.696047,"zip":"9170372"},{"town":"名田庄中","koaza":"","lat":35.398974,"lng":135.645439,"zip":"9170374"},{"town":"名田庄永谷","koaza":"","lat":35.371648,"lng":135.745699,"zip":"9170362"},{"town":"名田庄西谷","koaza":"","lat":35.415744,"lng":135.629789,"zip":"9170384"},{"town":"名田庄納田終","koaza":"","lat":35.397878,"lng":135.562074,"zip":"9170375"},{"town":"名田庄久坂","koaza":"","lat":35.397769,"lng":135.682363,"zip":"9170382"},{"town":"名田庄槇谷","koaza":"","lat":35.374365,"lng":135.648282,"zip":"9170373"},{"town":"名田庄三重","koaza":"","lat":35.41006,"lng":135.683229,"zip":"9170381"},{"town":"名田庄虫鹿野","koaza":"","lat":35.400185,"lng":135.711281,"zip":"9170364"},{"town":"名田庄虫谷","koaza":"","lat":35.373127,"lng":135.724517,"zip":"9170361"},{"town":"成海","koaza":"","lat":35.480648,"lng":135.630405,"zip":"9192107"},{"town":"野尻","koaza":"","lat":35.451815,"lng":135.623,"zip":"9192114"},{"town":"広岡","koaza":"","lat":35.458003,"lng":135.591674,"zip":"9192129"},{"town":"福谷","koaza":"","lat":35.452367,"lng":135.541083,"zip":"9192131"},{"town":"本郷","koaza":"","lat":35.475455,"lng":135.620672,"zip":"9192111"},{"town":"万願寺","koaza":"","lat":35.460056,"lng":135.599834,"zip":"9192121"},{"town":"三森","koaza":"","lat":35.43482,"lng":135.541284,"zip":"9192135"},{"town":"安川","koaza":"","lat":35.448251,"lng":135.553427,"zip":"9192132"},{"town":"山田","koaza":"","lat":35.457657,"lng":135.631912,"zip":"9192112"}]