[{"town":"茜町","koaza":"","lat":35.971514,"lng":136.485796,"zip":"9120068"},{"town":"朝日","koaza":"","lat":35.908475,"lng":136.658465,"zip":"9120205"},{"town":"朝日前坂","koaza":"","lat":35.95257,"lng":136.693936,"zip":"9120201"},{"town":"阿難祖地頭方","koaza":"","lat":35.932291,"lng":136.494929,"zip":"9120063"},{"town":"阿難祖領家","koaza":"","lat":35.933423,"lng":136.482058,"zip":"9120063"},{"town":"有明町","koaza":"","lat":35.982856,"lng":136.499661,"zip":"9120035"},{"town":"石谷","koaza":"","lat":35.994641,"lng":136.56939,"zip":"9120134"},{"town":"泉町","koaza":"","lat":35.982217,"lng":136.484308,"zip":"9120086"},{"town":"伊勢","koaza":"","lat":35.837787,"lng":136.648485,"zip":"9120000"},{"town":"板倉","koaza":"","lat":35.902442,"lng":136.653377,"zip":"9120206"},{"town":"伊月","koaza":"","lat":35.919,"lng":136.679329,"zip":"9120000"},{"town":"糸魚町","koaza":"","lat":35.975594,"lng":136.490964,"zip":"9120054"},{"town":"犬山","koaza":"","lat":35.986974,"lng":136.477056,"zip":"9120091"},{"town":"井ノ口","koaza":"","lat":35.979335,"lng":136.525414,"zip":"9120826"},{"town":"猪島","koaza":"","lat":35.96379,"lng":136.521466,"zip":"9120404"},{"town":"飯降","koaza":"","lat":35.969523,"lng":136.469384,"zip":"9120072"},{"town":"今井","koaza":"","lat":35.938569,"lng":136.545958,"zip":"9120424"},{"town":"右近次郎","koaza":"","lat":35.966089,"lng":136.48805,"zip":"9120067"},{"town":"牛ケ原","koaza":"","lat":36.005727,"lng":136.462861,"zip":"9120091"},{"town":"上野","koaza":"","lat":35.990279,"lng":136.533029,"zip":"9120813"},{"town":"榎","koaza":"","lat":35.951625,"lng":136.507988,"zip":"9120435"},{"town":"太田","koaza":"","lat":36.009467,"lng":136.48834,"zip":"9120005"},{"town":"大谷","koaza":"","lat":35.878572,"lng":136.726148,"zip":"9120000"},{"town":"大月","koaza":"","lat":36.00356,"lng":136.585644,"zip":"9120132"},{"town":"大矢戸","koaza":"","lat":36.019769,"lng":136.476006,"zip":"9120001"},{"town":"小黒見","koaza":"","lat":35.983353,"lng":136.600531,"zip":"9120144"},{"town":"小沢","koaza":"","lat":35.810415,"lng":136.530078,"zip":"9120000"},{"town":"落合","koaza":"","lat":35.986584,"lng":136.583856,"zip":"9120146"},{"town":"面谷","koaza":"","lat":35.83414,"lng":136.736298,"zip":"9120000"},{"town":"貝皿","koaza":"","lat":35.914037,"lng":136.666594,"zip":"9120204"},{"town":"開発","koaza":"","lat":35.957765,"lng":136.528242,"zip":"9120416"},{"town":"柿ケ嶋","koaza":"","lat":35.977096,"lng":136.574068,"zip":"9120147"},{"town":"角野","koaza":"","lat":35.897999,"lng":136.655965,"zip":"9120217"},{"town":"角野前坂","koaza":"","lat":35.938437,"lng":136.715357,"zip":"9120202"},{"town":"春日","koaza":"","lat":35.969336,"lng":136.50308,"zip":"9120053"},{"town":"春日一丁目","koaza":"","lat":35.978907,"lng":136.494252,"zip":"9120053"},{"town":"春日二丁目","koaza":"","lat":35.974741,"lng":136.494313,"zip":"9120053"},{"town":"春日三丁目","koaza":"","lat":35.975356,"lng":136.497515,"zip":"9120053"},{"town":"要町","koaza":"","lat":35.989859,"lng":136.489624,"zip":"9120026"},{"town":"上秋生","koaza":"","lat":35.8196,"lng":136.611333,"zip":"9120000"},{"town":"上麻生嶋","koaza":"","lat":35.988965,"lng":136.521964,"zip":"9120814"},{"town":"上荒井","koaza":"","lat":35.95988,"lng":136.478282,"zip":"9120074"},{"town":"上打波","koaza":"","lat":36.033779,"lng":136.679263,"zip":"9120151"},{"town":"上大納","koaza":"","lat":35.878362,"lng":136.590445,"zip":"9120216"},{"town":"上黒谷","koaza":"","lat":35.939772,"lng":136.472449,"zip":"9120076"},{"town":"上笹又","koaza":"","lat":35.887792,"lng":136.490041,"zip":"9120000"},{"town":"上舌","koaza":"","lat":35.949127,"lng":136.49413,"zip":"9120064"},{"town":"上半原","koaza":"","lat":35.886942,"lng":136.785931,"zip":"9120221"},{"town":"上丁","koaza":"","lat":35.978391,"lng":136.466507,"zip":"9120813"},{"town":"上若生子","koaza":"","lat":35.888357,"lng":136.544266,"zip":"9120000"},{"town":"亀山","koaza":"","lat":35.985135,"lng":136.479882,"zip":"9120087"},{"town":"川合","koaza":"","lat":35.905288,"lng":136.680925,"zip":"9120218"},{"town":"川嶋","koaza":"","lat":35.991769,"lng":136.519077,"zip":"9120814"},{"town":"木落","koaza":"","lat":35.95717,"lng":136.556114,"zip":"9120824"},{"town":"北御門","koaza":"","lat":35.968584,"lng":136.518372,"zip":"9120402"},{"town":"金山","koaza":"","lat":35.989074,"lng":136.598056,"zip":"9120143"},{"town":"久澤","koaza":"","lat":35.817678,"lng":136.693771,"zip":"9120000"},{"town":"国時町","koaza":"","lat":35.97479,"lng":136.503466,"zip":"9120043"},{"town":"熊河","koaza":"","lat":35.811836,"lng":136.440158,"zip":"9120000"},{"town":"黒当戸","koaza":"","lat":35.846602,"lng":136.523378,"zip":"9120000"},{"town":"鍬掛","koaza":"","lat":35.97628,"lng":136.476647,"zip":"9120071"},{"town":"御給","koaza":"","lat":35.957229,"lng":136.541854,"zip":"9120412"},{"town":"五條方","koaza":"","lat":35.941992,"lng":136.548562,"zip":"9120421"},{"town":"小谷堂","koaza":"","lat":35.970871,"lng":136.741767,"zip":"9120000"},{"town":"木本","koaza":"","lat":35.92224,"lng":136.500981,"zip":"9120433"},{"town":"小矢戸","koaza":"","lat":36.018765,"lng":136.491056,"zip":"9120002"},{"town":"御領","koaza":"","lat":35.991271,"lng":136.577244,"zip":"9120133"},{"town":"幸町","koaza":"","lat":35.980602,"lng":136.501212,"zip":"9120047"},{"town":"桜塚町","koaza":"","lat":35.971291,"lng":136.502429,"zip":"9120044"},{"town":"三面","koaza":"","lat":35.968617,"lng":136.718617,"zip":"9120000"},{"town":"佐開","koaza":"","lat":35.934893,"lng":136.579739,"zip":"9120422"},{"town":"篠座","koaza":"","lat":35.963528,"lng":136.498629,"zip":"9120061"},{"town":"篠座町","koaza":"","lat":35.973063,"lng":136.49206,"zip":"9120061"},{"town":"下秋生","koaza":"","lat":35.814948,"lng":136.578235,"zip":"9120000"},{"town":"下麻生嶋","koaza":"","lat":35.998594,"lng":136.52265,"zip":"9120815"},{"town":"下打波","koaza":"","lat":35.959225,"lng":136.650435,"zip":"9120152"},{"town":"下大納","koaza":"","lat":35.872824,"lng":136.62987,"zip":"9120215"},{"town":"下黒谷","koaza":"","lat":35.952074,"lng":136.47203,"zip":"9120075"},{"town":"下郷","koaza":"","lat":35.958445,"lng":136.51852,"zip":"9120432"},{"town":"下笹又","koaza":"","lat":35.898556,"lng":136.508344,"zip":"9120000"},{"town":"下据","koaza":"","lat":35.965783,"lng":136.508922,"zip":"9120431"},{"town":"下舌","koaza":"","lat":35.957571,"lng":136.489445,"zip":"9120065"},{"town":"下半原","koaza":"","lat":35.894357,"lng":136.760497,"zip":"9120211"},{"town":"下山","koaza":"","lat":35.919324,"lng":136.6256,"zip":"9120207"},{"town":"下唯野","koaza":"","lat":35.977379,"lng":136.557885,"zip":"9120822"},{"town":"下丁","koaza":"","lat":35.986579,"lng":136.456895,"zip":"9120815"},{"town":"下若生子","koaza":"","lat":35.917301,"lng":136.544555,"zip":"9120423"},{"town":"清水","koaza":"","lat":35.97914,"lng":136.484797,"zip":"9120086"},{"town":"庄林","koaza":"","lat":36.004406,"lng":136.492368,"zip":"9120006"},{"town":"菖蒲池","koaza":"","lat":35.981236,"lng":136.514216,"zip":"9120041"},{"town":"城町","koaza":"","lat":35.986556,"lng":136.484233,"zip":"9120087"},{"town":"新河原","koaza":"","lat":36.013765,"lng":136.528096,"zip":"9120801"},{"town":"新庄","koaza":"","lat":35.975473,"lng":136.485644,"zip":"9120085"},{"town":"新塚原","koaza":"","lat":35.98094,"lng":136.542359,"zip":"9120825"},{"town":"新田","koaza":"","lat":36.002966,"lng":136.544892,"zip":"9120802"},{"town":"新町","koaza":"","lat":35.991918,"lng":136.490055,"zip":"9120027"},{"town":"神明町","koaza":"","lat":35.978751,"lng":136.500583,"zip":"9120046"},{"town":"巣原","koaza":"","lat":35.844075,"lng":136.474029,"zip":"9120000"},{"town":"清瀧","koaza":"","lat":35.982444,"lng":136.477838,"zip":"9120092"},{"town":"清和町","koaza":"","lat":35.986374,"lng":136.50225,"zip":"9120032"},{"town":"高砂町","koaza":"","lat":35.979306,"lng":136.491256,"zip":"9120055"},{"town":"田野","koaza":"","lat":35.98415,"lng":136.52958,"zip":"9120827"},{"town":"千歳","koaza":"","lat":35.951748,"lng":136.501405,"zip":"9120062"},{"town":"塚原","koaza":"","lat":35.974468,"lng":136.534202,"zip":"9120825"},{"town":"月美町","koaza":"","lat":35.986167,"lng":136.499982,"zip":"9120031"},{"town":"土打","koaza":"","lat":35.994394,"lng":136.546259,"zip":"9120811"},{"town":"土布子","koaza":"","lat":36.016046,"lng":136.519165,"zip":"9120805"},{"town":"天神町","koaza":"","lat":35.97922,"lng":136.488298,"zip":"9120084"},{"town":"稲郷","koaza":"","lat":35.94946,"lng":136.521663,"zip":"9120415"},{"town":"堂嶋","koaza":"","lat":35.995106,"lng":136.611003,"zip":"9120145"},{"town":"堂本","koaza":"","lat":35.994966,"lng":136.511015,"zip":"9120013"},{"town":"富嶋","koaza":"","lat":36.000653,"lng":136.535952,"zip":"9120803"},{"town":"富塚","koaza":"","lat":35.987448,"lng":136.541643,"zip":"9120812"},{"town":"米俵","koaza":"","lat":35.856954,"lng":136.703673,"zip":"9120000"},{"town":"友江","koaza":"","lat":35.995062,"lng":136.504285,"zip":"9120016"},{"town":"友兼","koaza":"","lat":35.961986,"lng":136.532581,"zip":"9120411"},{"town":"中荒井","koaza":"","lat":35.9934,"lng":136.494314,"zip":"9120023"},{"town":"中荒井町一丁目","koaza":"","lat":35.990511,"lng":136.491512,"zip":"9120023"},{"town":"中荒井町二丁目","koaza":"","lat":35.98846,"lng":136.493717,"zip":"9120023"},{"town":"中据","koaza":"","lat":35.958033,"lng":136.510328,"zip":"9120437"},{"town":"中島","koaza":"","lat":35.866371,"lng":136.493731,"zip":"9120000"},{"town":"中津川","koaza":"","lat":36.006392,"lng":136.499794,"zip":"9120004"},{"town":"中野","koaza":"","lat":35.993334,"lng":136.481284,"zip":"9120021"},{"town":"長野","koaza":"","lat":35.88648,"lng":136.676738,"zip":"9120214"},{"town":"中野町一丁目","koaza":"","lat":35.992842,"lng":136.486761,"zip":"9120021"},{"town":"中野町二丁目","koaza":"","lat":35.994089,"lng":136.489652,"zip":"9120021"},{"town":"中野町三丁目","koaza":"","lat":35.994779,"lng":136.492092,"zip":"9120021"},{"town":"中野町四丁目","koaza":"","lat":35.996714,"lng":136.493846,"zip":"9120021"},{"town":"中挾","koaza":"","lat":35.989061,"lng":136.50478,"zip":"9120015"},{"town":"中挾一丁目","koaza":"","lat":35.986914,"lng":136.504508,"zip":"9120015"},{"town":"中挾二丁目","koaza":"","lat":35.989993,"lng":136.501616,"zip":"9120015"},{"town":"中挾三丁目","koaza":"","lat":35.992799,"lng":136.50093,"zip":"9120015"},{"town":"中保","koaza":"","lat":35.988594,"lng":136.511472,"zip":"9120014"},{"town":"中丁","koaza":"","lat":35.979447,"lng":136.457124,"zip":"9120023"},{"town":"七板","koaza":"","lat":35.985104,"lng":136.549422,"zip":"9120821"},{"town":"荷暮","koaza":"","lat":35.829862,"lng":136.771232,"zip":"9120000"},{"town":"西市","koaza":"","lat":36.001085,"lng":136.483346,"zip":"9120007"},{"town":"西大月","koaza":"","lat":36.015943,"lng":136.499679,"zip":"9120003"},{"town":"西勝原","koaza":"","lat":35.958705,"lng":136.600567,"zip":"9120155"},{"town":"錦町","koaza":"","lat":35.986888,"lng":136.49224,"zip":"9120024"},{"town":"西据","koaza":"","lat":35.95649,"lng":136.502816,"zip":"9120436"},{"town":"温見","koaza":"","lat":35.786083,"lng":136.491672,"zip":"9120000"},{"town":"野尻","koaza":"","lat":35.879213,"lng":136.696796,"zip":"9120213"},{"town":"後野","koaza":"","lat":35.929556,"lng":136.680889,"zip":"9120203"},{"town":"野中","koaza":"","lat":35.949486,"lng":136.533687,"zip":"9120414"},{"town":"箱ケ瀬","koaza":"","lat":35.868583,"lng":136.750629,"zip":"9120212"},{"town":"橋爪","koaza":"","lat":36.005538,"lng":136.598311,"zip":"9120141"},{"town":"花房","koaza":"","lat":36.004704,"lng":136.553913,"zip":"9120138"},{"town":"萩ケ野","koaza":"","lat":35.995416,"lng":136.556625,"zip":"9120137"},{"town":"東市布","koaza":"","lat":35.872076,"lng":136.809434,"zip":"9120222"},{"town":"東大月","koaza":"","lat":36.015832,"lng":136.505822,"zip":"9120003"},{"town":"東勝原","koaza":"","lat":35.968842,"lng":136.607364,"zip":"9120154"},{"town":"東中","koaza":"","lat":35.97654,"lng":136.506457,"zip":"9120042"},{"town":"東中町","koaza":"","lat":35.979171,"lng":136.503521,"zip":"9120042"},{"town":"東中野一丁目","koaza":"","lat":35.997956,"lng":136.496976,"zip":"9120017"},{"town":"東中野二丁目","koaza":"","lat":35.995676,"lng":136.49698,"zip":"9120017"},{"town":"東中野三丁目","koaza":"","lat":35.993966,"lng":136.495518,"zip":"9120017"},{"town":"東山","koaza":"","lat":35.955049,"lng":136.536052,"zip":"9120413"},{"town":"日吉町","koaza":"","lat":35.981908,"lng":136.493256,"zip":"9120051"},{"town":"平澤地頭","koaza":"","lat":35.933724,"lng":136.543599,"zip":"9120000"},{"town":"平澤領家","koaza":"","lat":35.936114,"lng":136.538149,"zip":"9120000"},{"town":"深井","koaza":"","lat":35.963217,"lng":136.474493,"zip":"9120073"},{"town":"伏石","koaza":"","lat":35.985877,"lng":136.575708,"zip":"9120149"},{"town":"不動堂","koaza":"","lat":35.999938,"lng":136.56695,"zip":"9120139"},{"town":"寶慶寺","koaza":"","lat":35.903836,"lng":136.45706,"zip":"9120000"},{"town":"仏原","koaza":"","lat":35.945419,"lng":136.620379,"zip":"9120153"},{"town":"本町","koaza":"","lat":35.987637,"lng":136.489059,"zip":"9120025"},{"town":"松丸","koaza":"","lat":35.989845,"lng":136.561349,"zip":"9120136"},{"town":"美川町","koaza":"","lat":35.985399,"lng":136.497126,"zip":"9120036"},{"town":"美里町","koaza":"","lat":35.983816,"lng":136.503415,"zip":"9120033"},{"town":"水落町","koaza":"","lat":35.990292,"lng":136.486858,"zip":"9120088"},{"town":"南春日野","koaza":"","lat":35.963939,"lng":136.494283,"zip":"9120066"},{"town":"南新在家","koaza":"","lat":36.01189,"lng":136.51026,"zip":"9120011"},{"town":"南六呂師","koaza":"","lat":36.022434,"lng":136.598015,"zip":"9120131"},{"town":"蓑道","koaza":"","lat":35.997518,"lng":136.595603,"zip":"9120142"},{"town":"明倫町","koaza":"","lat":35.983104,"lng":136.488935,"zip":"9120083"},{"town":"持穴","koaza":"","lat":35.850115,"lng":136.733452,"zip":"9120000"},{"town":"本戸","koaza":"","lat":35.854391,"lng":136.558577,"zip":"9120000"},{"town":"元町","koaza":"","lat":35.985177,"lng":136.489399,"zip":"9120081"},{"town":"森政地頭","koaza":"","lat":35.957759,"lng":136.523111,"zip":"9120405"},{"town":"森政領家","koaza":"","lat":35.969927,"lng":136.526916,"zip":"9120403"},{"town":"森目","koaza":"","lat":36.007224,"lng":136.53108,"zip":"9120804"},{"town":"森本","koaza":"","lat":35.987922,"lng":136.567372,"zip":"9120135"},{"town":"矢","koaza":"","lat":36.00592,"lng":136.480314,"zip":"9120008"},{"town":"八町","koaza":"","lat":35.983389,"lng":136.56675,"zip":"9120148"},{"town":"大和町","koaza":"","lat":35.984489,"lng":136.494477,"zip":"9120082"},{"town":"弥生町","koaza":"","lat":35.980935,"lng":136.497089,"zip":"9120052"},{"town":"陽明町一丁目","koaza":"","lat":35.989158,"lng":136.496245,"zip":"9120022"},{"town":"陽明町二丁目","koaza":"","lat":35.989358,"lng":136.498746,"zip":"9120022"},{"town":"陽明町三丁目","koaza":"","lat":35.992829,"lng":136.498104,"zip":"9120022"},{"town":"陽明町四丁目","koaza":"","lat":35.991916,"lng":136.495064,"zip":"9120022"},{"town":"横枕","koaza":"","lat":36.002247,"lng":136.509331,"zip":"9120012"},{"town":"吉","koaza":"","lat":35.974196,"lng":136.515185,"zip":"9120401"},{"town":"吉野町","koaza":"","lat":35.98261,"lng":136.504945,"zip":"9120034"},{"town":"若杉町","koaza":"","lat":35.974827,"lng":136.500526,"zip":"9120045"},{"town":"鷲","koaza":"","lat":35.896939,"lng":136.671497,"zip":"9120000"},{"town":"蕨生","koaza":"","lat":35.964654,"lng":136.563562,"zip":"9120823"},{"town":"西山","koaza":"","lat":35.935573,"lng":136.533235,"zip":"9120426"},{"town":"森山","koaza":"","lat":35.929372,"lng":136.523751,"zip":"9120427"}]