[{"town":"青","koaza":"","lat":35.484779,"lng":135.504888,"zip":"9192384"},{"town":"青戸","koaza":"","lat":35.48978,"lng":135.58738,"zip":"9192204"},{"town":"旭ケ丘一丁目","koaza":"","lat":35.486171,"lng":135.488195,"zip":"9192375"},{"town":"安土","koaza":"","lat":35.494375,"lng":135.584619,"zip":"9192202"},{"town":"今寺","koaza":"","lat":35.496855,"lng":135.479707,"zip":"9192376"},{"town":"岩神","koaza":"","lat":35.488911,"lng":135.5655,"zip":"9192222"},{"town":"上瀬","koaza":"","lat":35.551991,"lng":135.477933,"zip":"9192356"},{"town":"小黒飯","koaza":"","lat":35.512079,"lng":135.508152,"zip":"9192363"},{"town":"音海","koaza":"","lat":35.539737,"lng":135.510215,"zip":"9192361"},{"town":"笠原","koaza":"","lat":35.469694,"lng":135.55633,"zip":"9192216"},{"town":"鐘寄","koaza":"","lat":35.488788,"lng":135.530881,"zip":"9192212"},{"town":"鎌倉","koaza":"","lat":35.521353,"lng":135.454704,"zip":"9192352"},{"town":"上車持","koaza":"","lat":35.478686,"lng":135.591961,"zip":"9192206"},{"town":"神野","koaza":"","lat":35.518284,"lng":135.493916,"zip":"9192365"},{"town":"神野浦","koaza":"","lat":35.525514,"lng":135.491097,"zip":"9192366"},{"town":"事代","koaza":"","lat":35.494129,"lng":135.552702,"zip":"9192221"},{"town":"子生","koaza":"","lat":35.468909,"lng":135.534708,"zip":"9192216"},{"town":"小和田","koaza":"","lat":35.487893,"lng":135.50197,"zip":"9192373"},{"town":"坂田","koaza":"","lat":35.475302,"lng":135.541545,"zip":"9192216"},{"town":"三明","koaza":"","lat":35.491328,"lng":135.549541,"zip":"9192229"},{"town":"塩土","koaza":"","lat":35.493,"lng":135.54653,"zip":"9192228"},{"town":"紫水ケ丘一丁目","koaza":"","lat":35.48746,"lng":135.567046,"zip":"9192223"},{"town":"下","koaza":"","lat":35.530216,"lng":135.45726,"zip":"9192353"},{"town":"下車持","koaza":"","lat":35.481955,"lng":135.591786,"zip":"9192205"},{"town":"水明","koaza":"","lat":35.493678,"lng":135.595055,"zip":"9192203"},{"town":"関屋","koaza":"","lat":35.480778,"lng":135.495277,"zip":"9192386"},{"town":"薗部","koaza":"","lat":35.488118,"lng":135.560357,"zip":"9192224"},{"town":"高野","koaza":"","lat":35.49492,"lng":135.488294,"zip":"9192374"},{"town":"高森","koaza":"","lat":35.485476,"lng":135.599963,"zip":"9192200"},{"town":"立石","koaza":"","lat":35.488176,"lng":135.539673,"zip":"9192226"},{"town":"田ノ浦","koaza":"","lat":35.523348,"lng":135.508333,"zip":"9192362"},{"town":"中津海","koaza":"","lat":35.489225,"lng":135.527908,"zip":"9192211"},{"town":"中山","koaza":"","lat":35.495961,"lng":135.498071,"zip":"9192371"},{"town":"難波江","koaza":"","lat":35.504902,"lng":135.503665,"zip":"9192364"},{"town":"西三松","koaza":"","lat":35.496,"lng":135.509176,"zip":"9192381"},{"town":"畑","koaza":"","lat":35.484848,"lng":135.535764,"zip":"9192213"},{"town":"東三松","koaza":"","lat":35.488815,"lng":135.520376,"zip":"9192382"},{"town":"日置","koaza":"","lat":35.485532,"lng":135.511229,"zip":"9192383"},{"town":"日引","koaza":"","lat":35.542675,"lng":135.473781,"zip":"9192355"},{"town":"蒜畠","koaza":"","lat":35.483819,"lng":135.48193,"zip":"9192375"},{"town":"馬居寺","koaza":"","lat":35.480893,"lng":135.583321,"zip":"9192207"},{"town":"緑ケ丘一丁目","koaza":"","lat":35.493115,"lng":135.507662,"zip":"9192372"},{"town":"南団地一丁目","koaza":"","lat":35.485742,"lng":135.547788,"zip":"9192215"},{"town":"南団地二丁目","koaza":"","lat":35.485195,"lng":135.551532,"zip":"9192215"},{"town":"宮尾","koaza":"","lat":35.534485,"lng":135.467258,"zip":"9192354"},{"town":"宮崎","koaza":"","lat":35.484357,"lng":135.550196,"zip":"9192225"},{"town":"山中","koaza":"","lat":35.520548,"lng":135.471385,"zip":"9192351"},{"town":"湯谷","koaza":"","lat":35.483295,"lng":135.54327,"zip":"9192214"},{"town":"横津海","koaza":"","lat":35.475162,"lng":135.498316,"zip":"9192385"},{"town":"六路谷","koaza":"","lat":35.47949,"lng":135.475925,"zip":"9192387"},{"town":"若宮","koaza":"","lat":35.490678,"lng":135.545055,"zip":"9192227"},{"town":"和田","koaza":"","lat":35.491709,"lng":135.577913,"zip":"9192201"}]