[{"town":"相生","koaza":"","lat":35.44583,"lng":135.683899,"zip":"9170037"},{"town":"青井","koaza":"","lat":35.487116,"lng":135.731418,"zip":"9170041"},{"town":"阿納","koaza":"","lat":35.538382,"lng":135.783973,"zip":"9170105"},{"town":"阿納尻","koaza":"","lat":35.532517,"lng":135.770174,"zip":"9170106"},{"town":"池河内","koaza":"","lat":35.433632,"lng":135.830096,"zip":"9170238"},{"town":"生守","koaza":"","lat":35.481168,"lng":135.7543,"zip":"9170027"},{"town":"一番町","koaza":"","lat":35.50095,"lng":135.74624,"zip":"9170071"},{"town":"犬熊","koaza":"","lat":35.528576,"lng":135.789253,"zip":"9170104"},{"town":"上野","koaza":"","lat":35.469769,"lng":135.792075,"zip":"9170234"},{"town":"宇久","koaza":"","lat":35.556148,"lng":135.711328,"zip":"9170113"},{"town":"雲浜一丁目","koaza":"","lat":35.50743,"lng":135.748784,"zip":"9170096"},{"town":"雲浜二丁目","koaza":"","lat":35.50736,"lng":135.746167,"zip":"9170096"},{"town":"駅前町","koaza":"","lat":35.492306,"lng":135.747219,"zip":"9170077"},{"town":"大谷","koaza":"","lat":35.510892,"lng":135.826413,"zip":"9170221"},{"town":"大手町","koaza":"","lat":35.495865,"lng":135.745542,"zip":"9170078"},{"town":"奥田縄","koaza":"","lat":35.436299,"lng":135.735677,"zip":"9170034"},{"town":"岡津","koaza":"","lat":35.487166,"lng":135.66322,"zip":"9170046"},{"town":"尾崎","koaza":"","lat":35.470128,"lng":135.740232,"zip":"9170032"},{"town":"遠敷","koaza":"","lat":35.489677,"lng":135.780645,"zip":"9170241"},{"town":"遠敷十丁目","koaza":"","lat":35.485736,"lng":135.774272,"zip":"9170241"},{"town":"遠敷一丁目","koaza":"","lat":35.48344,"lng":135.782467,"zip":"9170241"},{"town":"遠敷二丁目","koaza":"","lat":35.48344,"lng":135.785911,"zip":"9170241"},{"town":"遠敷三丁目","koaza":"","lat":35.481608,"lng":135.784325,"zip":"9170241"},{"town":"遠敷四丁目","koaza":"","lat":35.481585,"lng":135.782105,"zip":"9170241"},{"town":"遠敷五丁目","koaza":"","lat":35.482524,"lng":135.779254,"zip":"9170241"},{"town":"遠敷六丁目","koaza":"","lat":35.484165,"lng":135.779563,"zip":"9170241"},{"town":"遠敷七丁目","koaza":"","lat":35.485193,"lng":135.77693,"zip":"9170241"},{"town":"遠敷八丁目","koaza":"","lat":35.483559,"lng":135.776525,"zip":"9170241"},{"town":"遠敷九丁目","koaza":"","lat":35.48433,"lng":135.774154,"zip":"9170241"},{"town":"小浜浅間","koaza":"","lat":35.491007,"lng":135.735802,"zip":"9170055"},{"town":"小浜飛鳥","koaza":"","lat":35.490699,"lng":135.732857,"zip":"9170057"},{"town":"小浜生玉","koaza":"","lat":35.497592,"lng":135.742386,"zip":"9170085"},{"town":"小浜今宮","koaza":"","lat":35.496494,"lng":135.743129,"zip":"9170062"},{"town":"小浜大原","koaza":"","lat":35.490102,"lng":135.734198,"zip":"9170056"},{"town":"小浜大宮","koaza":"","lat":35.491829,"lng":135.741649,"zip":"9170053"},{"town":"小浜男山","koaza":"","lat":35.492144,"lng":135.739171,"zip":"9170052"},{"town":"小浜鹿島","koaza":"","lat":35.492174,"lng":135.737697,"zip":"9170067"},{"town":"小浜香取","koaza":"","lat":35.491976,"lng":135.733841,"zip":"9170058"},{"town":"小浜神田","koaza":"","lat":35.493152,"lng":135.741026,"zip":"9170066"},{"town":"小浜貴船","koaza":"","lat":35.492417,"lng":135.735548,"zip":"9170059"},{"town":"小浜清滝","koaza":"","lat":35.498916,"lng":135.744154,"zip":"9170083"},{"town":"小浜酒井","koaza":"","lat":35.494107,"lng":135.744104,"zip":"9170063"},{"town":"小浜塩竃","koaza":"","lat":35.498027,"lng":135.741451,"zip":"9170000"},{"town":"小浜白鳥","koaza":"","lat":35.493252,"lng":135.737344,"zip":"9170051"},{"town":"小浜白鬚","koaza":"","lat":35.495833,"lng":135.741127,"zip":"9170069"},{"town":"小浜鈴鹿","koaza":"","lat":35.499365,"lng":135.742455,"zip":"9170087"},{"town":"小浜住吉","koaza":"","lat":35.494111,"lng":135.740231,"zip":"9170065"},{"town":"小浜多賀","koaza":"","lat":35.500497,"lng":135.742235,"zip":"9170088"},{"town":"小浜竜田","koaza":"","lat":35.493563,"lng":135.741934,"zip":"9170064"},{"town":"小浜玉前","koaza":"","lat":35.496836,"lng":135.741082,"zip":"9170061"},{"town":"小浜津島","koaza":"","lat":35.501122,"lng":135.743953,"zip":"9170082"},{"town":"小浜日吉","koaza":"","lat":35.494977,"lng":135.738909,"zip":"9170068"},{"town":"小浜広峰","koaza":"","lat":35.496668,"lng":135.74407,"zip":"9170084"},{"town":"小屋","koaza":"","lat":35.431055,"lng":135.612051,"zip":"9170357"},{"town":"加尾","koaza":"","lat":35.540605,"lng":135.772753,"zip":"9170112"},{"town":"学園町","koaza":"","lat":35.510424,"lng":135.760358,"zip":"9170003"},{"town":"堅海","koaza":"","lat":35.540457,"lng":135.725115,"zip":"9170116"},{"town":"加斗","koaza":"","lat":35.47004,"lng":135.661609,"zip":"9170045"},{"town":"金屋","koaza":"","lat":35.472372,"lng":135.785836,"zip":"9170242"},{"town":"上田","koaza":"","lat":35.433798,"lng":135.648955,"zip":"9170356"},{"town":"上竹原","koaza":"","lat":35.497532,"lng":135.755464,"zip":"9170022"},{"town":"上根来","koaza":"","lat":35.403958,"lng":135.795766,"zip":"9170248"},{"town":"加茂","koaza":"","lat":35.48791,"lng":135.828557,"zip":"9170223"},{"town":"川崎一丁目","koaza":"","lat":35.500324,"lng":135.739521,"zip":"9170081"},{"town":"川崎二丁目","koaza":"","lat":35.502099,"lng":135.740167,"zip":"9170081"},{"town":"川崎三丁目","koaza":"","lat":35.501773,"lng":135.737451,"zip":"9170081"},{"town":"木崎","koaza":"","lat":35.486707,"lng":135.765128,"zip":"9170025"},{"town":"北塩屋","koaza":"","lat":35.514908,"lng":135.756254,"zip":"9170002"},{"town":"口田縄","koaza":"","lat":35.441309,"lng":135.719038,"zip":"9170035"},{"town":"熊野","koaza":"","lat":35.518335,"lng":135.785772,"zip":"9170012"},{"town":"栗田","koaza":"","lat":35.501834,"lng":135.779962,"zip":"9170015"},{"town":"鯉川","koaza":"","lat":35.473611,"lng":135.651703,"zip":"9170047"},{"town":"甲ケ崎","koaza":"","lat":35.528467,"lng":135.75538,"zip":"9170107"},{"town":"国分","koaza":"","lat":35.48083,"lng":135.787667,"zip":"9170231"},{"town":"小松原","koaza":"","lat":35.512677,"lng":135.749575,"zip":"9170006"},{"town":"山王前一丁目","koaza":"","lat":35.51165,"lng":135.753856,"zip":"9170019"},{"town":"山王前二丁目","koaza":"","lat":35.511647,"lng":135.755354,"zip":"9170019"},{"town":"三分一","koaza":"","lat":35.458887,"lng":135.811591,"zip":"9170236"},{"town":"志積","koaza":"","lat":35.524068,"lng":135.79768,"zip":"9170103"},{"town":"四分一","koaza":"","lat":35.468756,"lng":135.80111,"zip":"9170235"},{"town":"下田","koaza":"","lat":35.427664,"lng":135.665781,"zip":"9170355"},{"town":"下竹原","koaza":"","lat":35.514531,"lng":135.750657,"zip":"9170007"},{"town":"下根来","koaza":"","lat":35.426899,"lng":135.779182,"zip":"9170246"},{"town":"城内一丁目","koaza":"","lat":35.502806,"lng":135.748086,"zip":"9170095"},{"town":"城内二丁目","koaza":"","lat":35.505174,"lng":135.743614,"zip":"9170095"},{"town":"神宮寺","koaza":"","lat":35.46026,"lng":135.779425,"zip":"9170244"},{"town":"新小松原","koaza":"","lat":35.516886,"lng":135.751213,"zip":"9170008"},{"town":"新保","koaza":"","lat":35.501153,"lng":135.832895,"zip":"9170222"},{"town":"須縄","koaza":"","lat":35.449656,"lng":135.749386,"zip":"9170033"},{"town":"太興寺","koaza":"","lat":35.478482,"lng":135.799673,"zip":"9170233"},{"town":"高塚","koaza":"","lat":35.496623,"lng":135.779907,"zip":"9170014"},{"town":"田烏","koaza":"","lat":35.549305,"lng":135.834274,"zip":"9170101"},{"town":"竹長","koaza":"","lat":35.494607,"lng":135.813164,"zip":"9170224"},{"town":"多田","koaza":"","lat":35.472898,"lng":135.767758,"zip":"9170026"},{"town":"太良庄","koaza":"","lat":35.500299,"lng":135.793707,"zip":"9170013"},{"town":"竹原","koaza":"","lat":35.499175,"lng":135.752958,"zip":"9170021"},{"town":"千種一丁目","koaza":"","lat":35.497374,"lng":135.750631,"zip":"9170072"},{"town":"千種二丁目","koaza":"","lat":35.50056,"lng":135.748853,"zip":"9170072"},{"town":"忠野","koaza":"","lat":35.454337,"lng":135.785133,"zip":"9170245"},{"town":"次吉","koaza":"","lat":35.504649,"lng":135.771355,"zip":"9170016"},{"town":"東市場","koaza":"","lat":35.481645,"lng":135.793811,"zip":"9170232"},{"town":"泊","koaza":"","lat":35.549016,"lng":135.705874,"zip":"9170117"},{"town":"中井","koaza":"","lat":35.452176,"lng":135.708996,"zip":"9170036"},{"town":"中ノ畑","koaza":"","lat":35.406226,"lng":135.776749,"zip":"9170247"},{"town":"奈胡","koaza":"","lat":35.521738,"lng":135.771855,"zip":"9170011"},{"town":"西小川","koaza":"","lat":35.54978,"lng":135.770779,"zip":"9170111"},{"town":"西勢","koaza":"","lat":35.480836,"lng":135.701248,"zip":"9170043"},{"town":"西津","koaza":"","lat":35.508884,"lng":135.753749,"zip":"9170091"},{"town":"野代","koaza":"","lat":35.467917,"lng":135.755982,"zip":"9170028"},{"town":"後瀬町","koaza":"","lat":35.494391,"lng":135.750036,"zip":"9170074"},{"town":"羽賀","koaza":"","lat":35.510602,"lng":135.76643,"zip":"9170017"},{"town":"飯盛","koaza":"","lat":35.474175,"lng":135.680654,"zip":"9170044"},{"town":"東勢","koaza":"","lat":35.477666,"lng":135.71661,"zip":"9170042"},{"town":"平野","koaza":"","lat":35.471911,"lng":135.806115,"zip":"9170226"},{"town":"深谷","koaza":"","lat":35.423826,"lng":135.706273,"zip":"9170352"},{"town":"深野","koaza":"","lat":35.417777,"lng":135.686465,"zip":"9170353"},{"town":"福谷","koaza":"","lat":35.520868,"lng":135.757258,"zip":"9170001"},{"town":"伏原","koaza":"","lat":35.48696,"lng":135.74312,"zip":"9170054"},{"town":"府中","koaza":"","lat":35.494597,"lng":135.762488,"zip":"9170023"},{"town":"仏谷","koaza":"","lat":35.52633,"lng":135.729956,"zip":"9170115"},{"town":"堀屋敷","koaza":"","lat":35.510152,"lng":135.747777,"zip":"9170097"},{"town":"本保","koaza":"","lat":35.507671,"lng":135.80471,"zip":"9170225"},{"town":"松ヶ崎一丁目","koaza":"","lat":35.509777,"lng":135.753014,"zip":"9170000"},{"town":"松ヶ崎二丁目","koaza":"","lat":35.509292,"lng":135.755615,"zip":"9170000"},{"town":"丸山","koaza":"","lat":35.501003,"lng":135.757422,"zip":"9170094"},{"town":"水取一丁目","koaza":"","lat":35.504501,"lng":135.750611,"zip":"9170093"},{"town":"水取二丁目","koaza":"","lat":35.50583,"lng":135.751878,"zip":"9170093"},{"town":"水取三丁目","koaza":"","lat":35.502967,"lng":135.753051,"zip":"9170093"},{"town":"水取四丁目","koaza":"","lat":35.505181,"lng":135.755086,"zip":"9170093"},{"town":"湊","koaza":"","lat":35.507527,"lng":135.758736,"zip":"9170004"},{"town":"南川町","koaza":"","lat":35.492499,"lng":135.754825,"zip":"9170075"},{"town":"宮の前","koaza":"","lat":35.471785,"lng":135.781809,"zip":"9170249"},{"town":"門前","koaza":"","lat":35.454167,"lng":135.801838,"zip":"9170237"},{"town":"矢代","koaza":"","lat":35.528467,"lng":135.816738,"zip":"9170102"},{"town":"谷田部","koaza":"","lat":35.471766,"lng":135.725321,"zip":"9170031"},{"town":"山手一丁目","koaza":"","lat":35.507092,"lng":135.750057,"zip":"9170092"},{"town":"山手二丁目","koaza":"","lat":35.507138,"lng":135.752997,"zip":"9170092"},{"town":"山手三丁目","koaza":"","lat":35.507849,"lng":135.755535,"zip":"9170092"},{"town":"湯岡","koaza":"","lat":35.483631,"lng":135.746801,"zip":"9170076"},{"town":"四谷町","koaza":"","lat":35.49642,"lng":135.749036,"zip":"9170073"},{"town":"竜前","koaza":"","lat":35.472201,"lng":135.777145,"zip":"9170243"},{"town":"若狭","koaza":"","lat":35.541156,"lng":135.744075,"zip":"9170114"},{"town":"和久里","koaza":"","lat":35.48795,"lng":135.75891,"zip":"9170024"},{"town":"和多田","koaza":"","lat":35.429895,"lng":135.684975,"zip":"9170354"}]