[{"town":"在田町","koaza":"","lat":35.994514,"lng":136.146607,"zip":"9103614"},{"town":"赤坂町","koaza":"","lat":35.999336,"lng":135.989078,"zip":"9103556"},{"town":"赤谷町","koaza":"","lat":35.963444,"lng":136.335967,"zip":"9102475"},{"town":"明里町","koaza":"","lat":36.060895,"lng":136.199152,"zip":"9188052"},{"town":"朝谷町","koaza":"","lat":35.99879,"lng":136.351973,"zip":"9102357"},{"town":"朝宮町","koaza":"","lat":36.036058,"lng":136.176828,"zip":"9103605"},{"town":"足谷町","koaza":"","lat":36.075854,"lng":136.108162,"zip":"9103266"},{"town":"味見河内町","koaza":"","lat":35.937921,"lng":136.447817,"zip":"9102463"},{"town":"足羽一丁目","koaza":"","lat":36.059357,"lng":136.209421,"zip":"9188007"},{"town":"足羽二丁目","koaza":"","lat":36.060399,"lng":136.205262,"zip":"9188007"},{"town":"足羽三丁目","koaza":"","lat":36.057761,"lng":136.205192,"zip":"9188007"},{"town":"足羽四丁目","koaza":"","lat":36.05588,"lng":136.201887,"zip":"9188007"},{"town":"足羽五丁目","koaza":"","lat":36.057459,"lng":136.19943,"zip":"9188007"},{"town":"足羽上町","koaza":"","lat":36.055235,"lng":136.207431,"zip":"9188006"},{"town":"浅水三ケ町","koaza":"","lat":36.002987,"lng":136.202137,"zip":"9188183"},{"town":"浅水町","koaza":"","lat":36.006347,"lng":136.199473,"zip":"9188181"},{"town":"浅水二日町","koaza":"","lat":36.001975,"lng":136.197951,"zip":"9188182"},{"town":"網戸瀬町","koaza":"","lat":36.105751,"lng":136.201204,"zip":"9100104"},{"town":"安波賀町","koaza":"","lat":36.01009,"lng":136.300354,"zip":"9102152"},{"town":"安波賀中島町","koaza":"","lat":36.015112,"lng":136.296343,"zip":"9102151"},{"town":"安保町","koaza":"","lat":36.009301,"lng":136.197946,"zip":"9188153"},{"town":"天池町","koaza":"","lat":36.10803,"lng":136.216026,"zip":"9100124"},{"town":"尼ケ谷町","koaza":"","lat":36.013085,"lng":136.036241,"zip":"9103525"},{"town":"天菅生町","koaza":"","lat":36.122816,"lng":136.169331,"zip":"9100041"},{"town":"鮎川町","koaza":"","lat":36.090976,"lng":136.038863,"zip":"9103402"},{"town":"荒木新保町","koaza":"","lat":36.034073,"lng":136.266646,"zip":"9102172"},{"town":"荒木町","koaza":"","lat":36.039727,"lng":136.266929,"zip":"9102171"},{"town":"荒木別所町","koaza":"","lat":36.04582,"lng":136.264219,"zip":"9188232"},{"town":"荒谷町","koaza":"","lat":36.109971,"lng":136.123395,"zip":"9103251"},{"town":"飯塚町","koaza":"","lat":36.06376,"lng":136.181315,"zip":"9188067"},{"town":"幾久町","koaza":"","lat":36.082265,"lng":136.226476,"zip":"9100014"},{"town":"幾代二丁目","koaza":"","lat":36.087933,"lng":136.225994,"zip":"9100013"},{"town":"居倉町","koaza":"","lat":36.006354,"lng":135.987576,"zip":"9103555"},{"town":"池尻町","koaza":"","lat":36.150436,"lng":136.151667,"zip":"9103106"},{"town":"生部町","koaza":"","lat":35.99101,"lng":136.249157,"zip":"9190314"},{"town":"石新保町","koaza":"","lat":36.156613,"lng":136.105099,"zip":"9103133"},{"town":"石橋町","koaza":"","lat":36.151573,"lng":136.101277,"zip":"9103137"},{"town":"石畠町","koaza":"","lat":36.136542,"lng":136.122146,"zip":"9103123"},{"town":"石盛町","koaza":"","lat":36.116846,"lng":136.227768,"zip":"9100122"},{"town":"泉田町","koaza":"","lat":36.09441,"lng":136.270089,"zip":"9100817"},{"town":"板垣一丁目","koaza":"","lat":36.050678,"lng":136.228989,"zip":"9188104"},{"town":"板垣二丁目","koaza":"","lat":36.048312,"lng":136.229507,"zip":"9188104"},{"town":"板垣三丁目","koaza":"","lat":36.046209,"lng":136.233162,"zip":"9188104"},{"town":"板垣四丁目","koaza":"","lat":36.045666,"lng":136.229263,"zip":"9188104"},{"town":"板垣五丁目","koaza":"","lat":36.04386,"lng":136.229717,"zip":"9188104"},{"town":"板垣町","koaza":"","lat":36.051872,"lng":136.229141,"zip":"9188103"},{"town":"一王寺町","koaza":"","lat":36.097381,"lng":136.134327,"zip":"9103262"},{"town":"市波町","koaza":"","lat":36.013177,"lng":136.327263,"zip":"9102222"},{"town":"市ノ瀬町","koaza":"","lat":36.129311,"lng":136.106495,"zip":"9103125"},{"town":"一本木町","koaza":"","lat":36.05286,"lng":136.225995,"zip":"9188101"},{"town":"糸崎町","koaza":"","lat":36.117652,"lng":136.06216,"zip":"9103383"},{"town":"稲多新町","koaza":"","lat":36.102459,"lng":136.22369,"zip":"9100156"},{"town":"稲多浜町","koaza":"","lat":36.101141,"lng":136.224153,"zip":"9100155"},{"town":"稲多元町","koaza":"","lat":36.102139,"lng":136.225606,"zip":"9100154"},{"town":"稲津町","koaza":"","lat":36.027967,"lng":136.25824,"zip":"9102177"},{"town":"今泉町","koaza":"","lat":36.06646,"lng":136.262051,"zip":"9188213"},{"town":"今市町","koaza":"","lat":36.014729,"lng":136.203628,"zip":"9188152"},{"town":"岩倉町","koaza":"","lat":36.004359,"lng":136.260477,"zip":"9190303"},{"town":"印田町","koaza":"","lat":36.055814,"lng":136.261062,"zip":"9188217"},{"town":"上野町","koaza":"","lat":36.138867,"lng":136.148075,"zip":"9103118"},{"town":"上野本町","koaza":"","lat":36.111799,"lng":136.242438,"zip":"9100134"},{"town":"上野本町新","koaza":"","lat":36.114599,"lng":136.239759,"zip":"9100135"},{"town":"上伏町","koaza":"","lat":36.09393,"lng":136.190933,"zip":"9100055"},{"town":"宇坂大谷町","koaza":"","lat":36.041562,"lng":136.334051,"zip":"9102227"},{"town":"宇坂別所町","koaza":"","lat":36.000213,"lng":136.330277,"zip":"9102223"},{"town":"羽水一丁目","koaza":"","lat":36.042139,"lng":136.229742,"zip":"9188114"},{"town":"羽水二丁目","koaza":"","lat":36.039634,"lng":136.229069,"zip":"9188114"},{"town":"羽水三丁目","koaza":"","lat":36.037639,"lng":136.229243,"zip":"9188114"},{"town":"獺ケ口町","koaza":"","lat":36.021306,"lng":136.361088,"zip":"9102211"},{"town":"謡谷町","koaza":"","lat":36.040556,"lng":136.036197,"zip":"9103522"},{"town":"内山梨子町","koaza":"","lat":36.132264,"lng":136.156158,"zip":"9103116"},{"town":"馬垣町","koaza":"","lat":36.047101,"lng":136.236788,"zip":"9188111"},{"town":"漆原町","koaza":"","lat":36.111784,"lng":136.25218,"zip":"9180000"},{"town":"運動公園一丁目","koaza":"","lat":36.052698,"lng":136.180033,"zip":"9188046"},{"town":"運動公園二丁目","koaza":"","lat":36.04834,"lng":136.179635,"zip":"9188046"},{"town":"運動公園三丁目","koaza":"","lat":36.054951,"lng":136.177285,"zip":"9188046"},{"town":"運動公園四丁目","koaza":"","lat":36.052428,"lng":136.177999,"zip":"9188046"},{"town":"江上町","koaza":"","lat":36.133421,"lng":136.173997,"zip":"9103113"},{"town":"江尻ケ丘町","koaza":"","lat":35.992736,"lng":136.187593,"zip":"9188175"},{"town":"江端町","koaza":"","lat":36.028836,"lng":136.212236,"zip":"9188016"},{"town":"海老助町","koaza":"","lat":36.089941,"lng":136.193374,"zip":"9100047"},{"town":"江守中一丁目","koaza":"","lat":36.035204,"lng":136.195398,"zip":"9188025"},{"town":"江守中二丁目","koaza":"","lat":36.037547,"lng":136.195944,"zip":"9188025"},{"town":"江守中町","koaza":"","lat":36.034837,"lng":136.200208,"zip":"9188025"},{"town":"江守の里一丁目","koaza":"","lat":36.030781,"lng":136.182588,"zip":"9188035"},{"town":"江守の里二丁目","koaza":"","lat":36.027447,"lng":136.180632,"zip":"9188035"},{"town":"円山一丁目","koaza":"","lat":36.071145,"lng":136.245785,"zip":"9188207"},{"town":"円成寺町","koaza":"","lat":36.019011,"lng":136.254672,"zip":"9102175"},{"town":"大窪町","koaza":"","lat":36.137694,"lng":136.079945,"zip":"9103371"},{"town":"大久保町","koaza":"","lat":36.025502,"lng":136.348832,"zip":"9102213"},{"town":"大島町","koaza":"","lat":36.030646,"lng":136.208729,"zip":"9188018"},{"town":"大瀬町","koaza":"","lat":36.072259,"lng":136.183843,"zip":"9188063"},{"town":"太田町","koaza":"","lat":36.009538,"lng":136.231797,"zip":"9190323"},{"town":"大谷町","koaza":"","lat":36.130461,"lng":136.133515,"zip":"9103253"},{"town":"大手一丁目","koaza":"","lat":36.065828,"lng":136.227056,"zip":"9100005"},{"town":"大手二丁目","koaza":"","lat":36.064506,"lng":136.224573,"zip":"9100005"},{"town":"大手三丁目","koaza":"","lat":36.0649,"lng":136.219363,"zip":"9100005"},{"town":"大年町","koaza":"","lat":36.111849,"lng":136.151201,"zip":"9103255"},{"town":"大土呂町","koaza":"","lat":36.013284,"lng":136.211527,"zip":"9190327"},{"town":"大町","koaza":"","lat":36.032047,"lng":136.220479,"zip":"9188116"},{"town":"大町一丁目","koaza":"","lat":36.035914,"lng":136.219276,"zip":"9188116"},{"town":"大町二丁目","koaza":"","lat":36.03517,"lng":136.221711,"zip":"9188116"},{"town":"大味町","koaza":"","lat":36.049778,"lng":136.021213,"zip":"9103551"},{"town":"大宮一丁目","koaza":"","lat":36.082838,"lng":136.225446,"zip":"9100016"},{"town":"大宮二丁目","koaza":"","lat":36.081989,"lng":136.219666,"zip":"9100016"},{"town":"大宮三丁目","koaza":"","lat":36.08151,"lng":136.212427,"zip":"9100016"},{"town":"大宮四丁目","koaza":"","lat":36.081368,"lng":136.207602,"zip":"9100016"},{"town":"大宮五丁目","koaza":"","lat":36.080903,"lng":136.204177,"zip":"9100016"},{"town":"大宮六丁目","koaza":"","lat":36.080337,"lng":136.19973,"zip":"9100016"},{"town":"大宮町","koaza":"","lat":36.002537,"lng":136.414722,"zip":"9102334"},{"town":"大村町","koaza":"","lat":35.997459,"lng":136.244363,"zip":"9190316"},{"town":"大森町","koaza":"","lat":36.024538,"lng":136.126373,"zip":"9103634"},{"town":"大矢町","koaza":"","lat":36.03106,"lng":136.047583,"zip":"9103515"},{"town":"大和田一丁目","koaza":"","lat":36.09203,"lng":136.248464,"zip":"9100836"},{"town":"大和田二丁目","koaza":"","lat":36.09696,"lng":136.250196,"zip":"9100836"},{"town":"大和田町","koaza":"","lat":36.096373,"lng":136.25609,"zip":"9100802"},{"town":"岡西谷町","koaza":"","lat":36.03774,"lng":136.275395,"zip":"9188228"},{"town":"奥平町","koaza":"","lat":36.079924,"lng":136.098091,"zip":"9103268"},{"town":"恐神町","koaza":"","lat":36.071407,"lng":136.161766,"zip":"9188071"},{"town":"小当見町","koaza":"","lat":35.963296,"lng":136.404146,"zip":"9102465"},{"town":"大丹生町","koaza":"","lat":36.069714,"lng":136.041394,"zip":"9103404"},{"town":"大畑町","koaza":"","lat":36.050044,"lng":136.284234,"zip":"9188226"},{"town":"小羽町","koaza":"","lat":36.032069,"lng":136.14113,"zip":"9103621"},{"town":"小山谷町","koaza":"","lat":36.054685,"lng":136.196906,"zip":"9188053"},{"town":"折立町","koaza":"","lat":35.942782,"lng":136.341966,"zip":"9102474"},{"town":"開発一丁目","koaza":"","lat":36.076598,"lng":136.240879,"zip":"9100842"},{"town":"開発二丁目","koaza":"","lat":36.078433,"lng":136.241206,"zip":"9100842"},{"town":"開発三丁目","koaza":"","lat":36.080416,"lng":136.241652,"zip":"9100842"},{"town":"開発四丁目","koaza":"","lat":36.08286,"lng":136.237902,"zip":"9100842"},{"town":"開発五丁目","koaza":"","lat":36.086132,"lng":136.241781,"zip":"9100842"},{"town":"開発町","koaza":"","lat":36.08367,"lng":136.242884,"zip":"9100841"},{"town":"柿谷町","koaza":"","lat":36.08937,"lng":136.151278,"zip":"9103265"},{"town":"学園一丁目","koaza":"","lat":36.069807,"lng":136.201798,"zip":"9100028"},{"town":"学園二丁目","koaza":"","lat":36.06986,"lng":136.199052,"zip":"9100028"},{"town":"学園三丁目","koaza":"","lat":36.06955,"lng":136.196044,"zip":"9100028"},{"town":"花月一丁目","koaza":"","lat":36.069165,"lng":136.211369,"zip":"9100022"},{"town":"花月二丁目","koaza":"","lat":36.069315,"lng":136.209459,"zip":"9100022"},{"town":"花月三丁目","koaza":"","lat":36.069456,"lng":136.207635,"zip":"9100022"},{"town":"花月四丁目","koaza":"","lat":36.069574,"lng":136.205731,"zip":"9100022"},{"town":"花月五丁目","koaza":"","lat":36.069734,"lng":136.203853,"zip":"9100022"},{"town":"篭谷町","koaza":"","lat":36.026754,"lng":136.388178,"zip":"9102205"},{"town":"風尾町","koaza":"","lat":36.036412,"lng":136.045414,"zip":"9103516"},{"town":"風巻町","koaza":"","lat":36.027481,"lng":136.142542,"zip":"9103622"},{"town":"主計中町","koaza":"","lat":36.00084,"lng":136.206561,"zip":"9188166"},{"town":"春日一丁目","koaza":"","lat":36.05351,"lng":136.219907,"zip":"9188108"},{"town":"春日二丁目","koaza":"","lat":36.05155,"lng":136.219313,"zip":"9188108"},{"town":"春日三丁目","koaza":"","lat":36.050942,"lng":136.22448,"zip":"9188108"},{"town":"春日町","koaza":"","lat":36.050202,"lng":136.219722,"zip":"9188107"},{"town":"片粕町","koaza":"","lat":36.049166,"lng":136.164162,"zip":"9103603"},{"town":"片山町","koaza":"","lat":36.025293,"lng":136.166402,"zip":"9103611"},{"town":"勝見一丁目","koaza":"","lat":36.055361,"lng":136.224959,"zip":"9100856"},{"town":"勝見二丁目","koaza":"","lat":36.055296,"lng":136.22873,"zip":"9100856"},{"town":"勝見三丁目","koaza":"","lat":36.053209,"lng":136.232745,"zip":"9100856"},{"town":"鹿俣町","koaza":"","lat":35.983613,"lng":136.279618,"zip":"9102156"},{"town":"金屋町","koaza":"","lat":36.074677,"lng":136.168265,"zip":"9188061"},{"town":"上莇生田町","koaza":"","lat":36.023678,"lng":136.233364,"zip":"9188133"},{"town":"上一光町","koaza":"","lat":36.064588,"lng":136.09382,"zip":"9188081"},{"town":"上江尻町","koaza":"","lat":35.99149,"lng":136.190058,"zip":"9188174"},{"town":"上北野一丁目","koaza":"","lat":36.061821,"lng":136.250516,"zip":"9188203"},{"town":"上北野二丁目","koaza":"","lat":36.059253,"lng":136.249243,"zip":"9188203"},{"town":"上河北町","koaza":"","lat":36.015791,"lng":136.233598,"zip":"9190322"},{"town":"上天下町","koaza":"","lat":36.036982,"lng":136.134959,"zip":"9103633"},{"town":"上東郷町","koaza":"","lat":36.013368,"lng":136.258596,"zip":"9102174"},{"town":"上中町","koaza":"","lat":36.083263,"lng":136.268757,"zip":"9100826"},{"town":"上毘沙門町","koaza":"","lat":36.019628,"lng":136.277745,"zip":"9102144"},{"town":"上細江町","koaza":"","lat":36.01578,"lng":136.247411,"zip":"9190302"},{"town":"上森田一丁目","koaza":"","lat":36.113589,"lng":136.226528,"zip":"9100142"},{"town":"上森田二丁目","koaza":"","lat":36.112757,"lng":136.229781,"zip":"9100142"},{"town":"上森田三丁目","koaza":"","lat":36.111849,"lng":136.231945,"zip":"9100142"},{"town":"上森田四丁目","koaza":"","lat":36.111773,"lng":136.233991,"zip":"9100142"},{"town":"上森田五丁目","koaza":"","lat":36.108788,"lng":136.235041,"zip":"9100142"},{"town":"上森田町","koaza":"","lat":36.114112,"lng":136.23365,"zip":"9100141"},{"town":"上六条町","koaza":"","lat":36.026756,"lng":136.246625,"zip":"9188132"},{"town":"加茂内町","koaza":"","lat":36.019024,"lng":136.111126,"zip":"9103644"},{"town":"加茂河原一丁目","koaza":"","lat":36.061044,"lng":136.196356,"zip":"9188057"},{"town":"加茂河原二丁目","koaza":"","lat":36.061913,"lng":136.194261,"zip":"9188057"},{"town":"加茂河原三丁目","koaza":"","lat":36.063043,"lng":136.191893,"zip":"9188057"},{"town":"加茂河原四丁目","koaza":"","lat":36.05941,"lng":136.19328,"zip":"9188057"},{"town":"加茂河原町","koaza":"","lat":36.05562,"lng":136.193589,"zip":"9188054"},{"town":"加茂町","koaza":"","lat":36.020598,"lng":136.116095,"zip":"9103644"},{"town":"加茂緑苑町","koaza":"","lat":36.05366,"lng":136.192013,"zip":"9188058"},{"town":"河合勝見町","koaza":"","lat":36.110642,"lng":136.198015,"zip":"9100105"},{"town":"河合寄安町","koaza":"","lat":36.12029,"lng":136.250314,"zip":"9100132"},{"town":"川合鷲塚町","koaza":"","lat":36.117762,"lng":136.204864,"zip":"9100102"},{"town":"川尻町","koaza":"","lat":36.123647,"lng":136.090785,"zip":"9103136"},{"town":"神当部町","koaza":"","lat":35.957277,"lng":136.439129,"zip":"9102462"},{"town":"岸水町","koaza":"","lat":36.114214,"lng":136.169757,"zip":"9100042"},{"town":"木田一丁目","koaza":"","lat":36.048168,"lng":136.223391,"zip":"9188105"},{"town":"木田二丁目","koaza":"","lat":36.046082,"lng":136.22423,"zip":"9188105"},{"town":"木田三丁目","koaza":"","lat":36.042501,"lng":136.224861,"zip":"9188105"},{"town":"北今泉町","koaza":"","lat":36.071099,"lng":136.25838,"zip":"9188212"},{"town":"北菅生町","koaza":"","lat":36.106634,"lng":136.052125,"zip":"9103385"},{"town":"木田町","koaza":"","lat":36.046657,"lng":136.219949,"zip":"9188106"},{"town":"北楢原町","koaza":"","lat":36.101562,"lng":136.174885,"zip":"9100045"},{"town":"北野上町","koaza":"","lat":36.099745,"lng":136.276146,"zip":"9100815"},{"town":"北野下町","koaza":"","lat":36.100879,"lng":136.264087,"zip":"9100814"},{"town":"北堀町","koaza":"","lat":36.070501,"lng":136.156406,"zip":"9188072"},{"town":"北山新保町","koaza":"","lat":36.00341,"lng":136.25155,"zip":"9190318"},{"town":"北山町","koaza":"","lat":35.999157,"lng":136.239996,"zip":"9190317"},{"town":"北四ツ居一丁目","koaza":"","lat":36.064496,"lng":136.245217,"zip":"9188205"},{"town":"北四ツ居二丁目","koaza":"","lat":36.066274,"lng":136.24524,"zip":"9188205"},{"town":"北四ツ居三丁目","koaza":"","lat":36.068306,"lng":136.2454,"zip":"9188205"},{"town":"北四ツ居町","koaza":"","lat":36.070541,"lng":136.248585,"zip":"9188206"},{"town":"狐橋一丁目","koaza":"","lat":36.058941,"lng":136.179885,"zip":"9188043"},{"town":"狐橋二丁目","koaza":"","lat":36.060259,"lng":136.179105,"zip":"9188043"},{"town":"城戸ノ内町","koaza":"","lat":36.000745,"lng":136.296261,"zip":"9102153"},{"town":"木下町","koaza":"","lat":36.149248,"lng":136.126404,"zip":"9103147"},{"town":"経栄一丁目","koaza":"","lat":36.088316,"lng":136.224262,"zip":"9100012"},{"town":"経田一丁目","koaza":"","lat":36.089261,"lng":136.222197,"zip":"9100011"},{"town":"経田二丁目","koaza":"","lat":36.089063,"lng":136.218065,"zip":"9100011"},{"town":"木米町","koaza":"","lat":36.096776,"lng":136.146116,"zip":"9103264"},{"town":"久喜津町","koaza":"","lat":36.05136,"lng":136.173149,"zip":"9188047"},{"town":"串野町","koaza":"","lat":36.140604,"lng":136.133197,"zip":"9103145"},{"town":"国見町","koaza":"","lat":36.094023,"lng":136.072273,"zip":"9103401"},{"town":"国見元町","koaza":"","lat":36.083808,"lng":136.076794,"zip":"9180000"},{"town":"国山町","koaza":"","lat":36.055217,"lng":136.043384,"zip":"9103518"},{"town":"蔵作町","koaza":"","lat":35.982818,"lng":136.348553,"zip":"9102356"},{"town":"グリーンハイツ十丁目","koaza":"","lat":36.038681,"lng":136.168797,"zip":"9103604"},{"town":"グリーンハイツ一丁目","koaza":"","lat":36.045721,"lng":136.159218,"zip":"9103604"},{"town":"グリーンハイツ二丁目","koaza":"","lat":36.045245,"lng":136.157509,"zip":"9103604"},{"town":"グリーンハイツ三丁目","koaza":"","lat":36.045104,"lng":136.163774,"zip":"9103604"},{"town":"グリーンハイツ四丁目","koaza":"","lat":36.044239,"lng":136.163812,"zip":"9103604"},{"town":"グリーンハイツ五丁目","koaza":"","lat":36.041866,"lng":136.164836,"zip":"9103604"},{"town":"グリーンハイツ六丁目","koaza":"","lat":36.04251,"lng":136.166049,"zip":"9103604"},{"town":"グリーンハイツ七丁目","koaza":"","lat":36.041153,"lng":136.166399,"zip":"9103604"},{"town":"グリーンハイツ八丁目","koaza":"","lat":36.041257,"lng":136.16889,"zip":"9103604"},{"town":"グリーンハイツ九丁目","koaza":"","lat":36.040341,"lng":136.167411,"zip":"9103604"},{"town":"栗森町","koaza":"","lat":36.118158,"lng":136.241005,"zip":"9100136"},{"town":"栗森町浜","koaza":"","lat":36.115282,"lng":136.241162,"zip":"9100136"},{"town":"黒丸城町","koaza":"","lat":36.151097,"lng":136.156355,"zip":"9103107"},{"town":"黒丸町","koaza":"","lat":36.105605,"lng":136.185452,"zip":"9100052"},{"town":"下馬一丁目","koaza":"","lat":36.043811,"lng":136.239304,"zip":"9188112"},{"town":"下馬二丁目","koaza":"","lat":36.042009,"lng":136.23698,"zip":"9188112"},{"town":"下馬三丁目","koaza":"","lat":36.040036,"lng":136.233857,"zip":"9188112"},{"town":"下馬町","koaza":"","lat":36.039271,"lng":136.241217,"zip":"9188113"},{"town":"毛矢一丁目","koaza":"","lat":36.057689,"lng":136.216243,"zip":"9188003"},{"town":"毛矢二丁目","koaza":"","lat":36.058326,"lng":136.214615,"zip":"9188003"},{"town":"毛矢三丁目","koaza":"","lat":36.056529,"lng":136.211914,"zip":"9188003"},{"town":"玄正島町","koaza":"","lat":36.088079,"lng":136.279443,"zip":"9100822"},{"town":"堅達町","koaza":"","lat":36.072473,"lng":136.275731,"zip":"9188221"},{"town":"乾徳一丁目","koaza":"","lat":36.07246,"lng":136.21158,"zip":"9100021"},{"town":"乾徳二丁目","koaza":"","lat":36.07253,"lng":136.209688,"zip":"9100021"},{"town":"乾徳三丁目","koaza":"","lat":36.072669,"lng":136.207812,"zip":"9100021"},{"town":"乾徳四丁目","koaza":"","lat":36.073012,"lng":136.205474,"zip":"9100021"},{"town":"小稲津町","koaza":"","lat":36.034121,"lng":136.242012,"zip":"9188131"},{"town":"小宇坂島町","koaza":"","lat":35.990566,"lng":136.362666,"zip":"9102353"},{"town":"小宇坂町","koaza":"","lat":35.992741,"lng":136.367545,"zip":"9102352"},{"town":"合島町","koaza":"","lat":36.038538,"lng":136.262328,"zip":"9188233"},{"town":"河水町","koaza":"","lat":36.052647,"lng":136.277108,"zip":"9188223"},{"town":"合谷町","koaza":"","lat":36.020655,"lng":136.183562,"zip":"9188033"},{"town":"河内町","koaza":"","lat":36.087575,"lng":136.116492,"zip":"9103267"},{"town":"河増町","koaza":"","lat":36.0609,"lng":136.25626,"zip":"9188218"},{"town":"光陽一丁目","koaza":"","lat":36.065875,"lng":136.202492,"zip":"9100026"},{"town":"光陽二丁目","koaza":"","lat":36.065873,"lng":136.1992,"zip":"9100026"},{"town":"光陽三丁目","koaza":"","lat":36.065868,"lng":136.196294,"zip":"9100026"},{"town":"光陽四丁目","koaza":"","lat":36.066366,"lng":136.193364,"zip":"9100026"},{"town":"郡町","koaza":"","lat":36.103078,"lng":136.194797,"zip":"9100051"},{"town":"甑谷町","koaza":"","lat":36.001921,"lng":136.142813,"zip":"9103613"},{"town":"小尉町","koaza":"","lat":36.157547,"lng":136.157883,"zip":"9103102"},{"town":"御所垣内町","koaza":"","lat":36.132842,"lng":136.167709,"zip":"9103112"},{"town":"五太子町","koaza":"","lat":36.070391,"lng":136.065025,"zip":"9188083"},{"town":"小丹生町","koaza":"","lat":36.06427,"lng":136.028657,"zip":"9103405"},{"town":"小野町","koaza":"","lat":36.137539,"lng":136.12838,"zip":"9103122"},{"town":"御油町","koaza":"","lat":36.018535,"lng":136.150951,"zip":"9103617"},{"town":"小和清水町","koaza":"","lat":36.009393,"lng":136.345845,"zip":"9102212"},{"town":"小幡町","koaza":"","lat":36.147767,"lng":136.121588,"zip":"9103146"},{"town":"境寺町","koaza":"","lat":36.001557,"lng":136.372237,"zip":"9102347"},{"town":"栄町","koaza":"","lat":36.109736,"lng":136.223641,"zip":"9100151"},{"town":"坂下町","koaza":"","lat":36.069253,"lng":136.27791,"zip":"9188222"},{"town":"笹谷町","koaza":"","lat":36.017182,"lng":136.095728,"zip":"9103645"},{"town":"定正町","koaza":"","lat":36.119219,"lng":136.224755,"zip":"9100121"},{"town":"里別所新町","koaza":"","lat":36.088389,"lng":136.198092,"zip":"9100056"},{"town":"里別所町","koaza":"","lat":36.08781,"lng":136.194209,"zip":"9100057"},{"town":"左内町","koaza":"","lat":36.05963,"lng":136.213074,"zip":"9188002"},{"town":"佐野町","koaza":"","lat":36.136111,"lng":136.141079,"zip":"9103121"},{"town":"三郎丸一丁目","koaza":"","lat":36.077552,"lng":136.19304,"zip":"9100033"},{"town":"三郎丸二丁目","koaza":"","lat":36.078627,"lng":136.191726,"zip":"9100033"},{"town":"三郎丸三丁目","koaza":"","lat":36.082484,"lng":136.193966,"zip":"9100033"},{"town":"三郎丸四丁目","koaza":"","lat":36.083278,"lng":136.194147,"zip":"9100033"},{"town":"三郎丸町","koaza":"","lat":36.080372,"lng":136.184046,"zip":"9100036"},{"town":"更毛町","koaza":"","lat":36.057393,"lng":136.112427,"zip":"9188078"},{"town":"皿谷町","koaza":"","lat":36.027869,"lng":136.432938,"zip":"9102201"},{"town":"三十八社町","koaza":"","lat":35.998679,"lng":136.190604,"zip":"9188176"},{"town":"三本木町","koaza":"","lat":35.987693,"lng":136.207088,"zip":"9188164"},{"town":"三万谷町","koaza":"","lat":36.004912,"lng":136.315165,"zip":"9102224"},{"town":"志比口一丁目","koaza":"","lat":36.069321,"lng":136.233733,"zip":"9100845"},{"town":"志比口二丁目","koaza":"","lat":36.071,"lng":136.237787,"zip":"9100845"},{"town":"志比口三丁目","koaza":"","lat":36.072539,"lng":136.236016,"zip":"9100845"},{"town":"宿布町","koaza":"","lat":36.017757,"lng":136.307193,"zip":"9102143"},{"town":"重立町","koaza":"","lat":36.081239,"lng":136.286146,"zip":"9100823"},{"town":"四十谷町","koaza":"","lat":36.105812,"lng":136.168951,"zip":"9100043"},{"town":"志津が丘一丁目","koaza":"","lat":36.01777,"lng":136.122184,"zip":"9103635"},{"town":"志津が丘二丁目","koaza":"","lat":36.01716,"lng":136.123421,"zip":"9103635"},{"town":"志津が丘三丁目","koaza":"","lat":36.014409,"lng":136.119761,"zip":"9103635"},{"town":"志津が丘四丁目","koaza":"","lat":36.013091,"lng":136.121075,"zip":"9103635"},{"town":"品ケ瀬町","koaza":"","lat":36.005144,"lng":136.362896,"zip":"9102348"},{"town":"篠尾町","koaza":"","lat":36.034518,"lng":136.296019,"zip":"9102148"},{"town":"島寺町","koaza":"","lat":36.021941,"lng":136.145346,"zip":"9103623"},{"town":"島橋町","koaza":"","lat":36.089178,"lng":136.276843,"zip":"9100821"},{"town":"島山梨子町","koaza":"","lat":36.13424,"lng":136.16343,"zip":"9103111"},{"town":"清水杉谷町","koaza":"","lat":36.032661,"lng":136.155772,"zip":"9103607"},{"town":"清水平町","koaza":"","lat":36.09895,"lng":136.110869,"zip":"9103268"},{"town":"清水町","koaza":"","lat":36.057961,"lng":136.16081,"zip":"9103601"},{"town":"清水畑町","koaza":"","lat":36.035308,"lng":136.09405,"zip":"9103646"},{"town":"清水山町","koaza":"","lat":36.009521,"lng":136.159369,"zip":"9103612"},{"town":"下莇生田町","koaza":"","lat":36.026013,"lng":136.222207,"zip":"9188134"},{"town":"下荒井町","koaza":"","lat":36.025193,"lng":136.207567,"zip":"9188017"},{"town":"下一光町","koaza":"","lat":36.058513,"lng":136.06682,"zip":"9188082"},{"town":"下市町","koaza":"","lat":36.077514,"lng":136.17824,"zip":"9188062"},{"town":"下江尻町","koaza":"","lat":35.992248,"lng":136.192786,"zip":"9188173"},{"town":"下江守町","koaza":"","lat":36.039535,"lng":136.179733,"zip":"9188037"},{"town":"下河北町","koaza":"","lat":36.017717,"lng":136.220868,"zip":"9190321"},{"town":"下天下町","koaza":"","lat":36.041256,"lng":136.142167,"zip":"9103632"},{"town":"下東郷町","koaza":"","lat":36.020069,"lng":136.262001,"zip":"9102173"},{"town":"下中町","koaza":"","lat":36.076133,"lng":136.258441,"zip":"9188211"},{"town":"下毘沙門町","koaza":"","lat":36.022998,"lng":136.267463,"zip":"9102146"},{"town":"下細江町","koaza":"","lat":36.019432,"lng":136.242656,"zip":"9190301"},{"town":"下森田桜町","koaza":"","lat":36.110801,"lng":136.227483,"zip":"9100146"},{"town":"下森田新町","koaza":"","lat":36.107493,"lng":136.230783,"zip":"9100143"},{"town":"下森田町","koaza":"","lat":36.111343,"lng":136.226424,"zip":"9100147"},{"town":"下森田藤巻町","koaza":"","lat":36.109484,"lng":136.227237,"zip":"9100145"},{"town":"下森田本町","koaza":"","lat":36.108213,"lng":136.226258,"zip":"9100144"},{"town":"下六条町","koaza":"","lat":36.031869,"lng":136.232512,"zip":"9188135"},{"town":"宿堂町","koaza":"","lat":36.031602,"lng":136.059932,"zip":"9103513"},{"town":"順化一丁目","koaza":"","lat":36.064831,"lng":136.216288,"zip":"9100023"},{"town":"順化二丁目","koaza":"","lat":36.065403,"lng":136.213639,"zip":"9100023"},{"town":"成願寺町","koaza":"","lat":36.030445,"lng":136.277469,"zip":"9102147"},{"town":"浄教寺町","koaza":"","lat":35.978962,"lng":136.30866,"zip":"9102155"},{"town":"小路町","koaza":"","lat":36.014812,"lng":136.280156,"zip":"9102166"},{"town":"城東一丁目","koaza":"","lat":36.061332,"lng":136.232576,"zip":"9100853"},{"town":"城東二丁目","koaza":"","lat":36.061556,"lng":136.23588,"zip":"9100853"},{"town":"城東三丁目","koaza":"","lat":36.061306,"lng":136.238777,"zip":"9100853"},{"town":"城東四丁目","koaza":"","lat":36.058564,"lng":136.238096,"zip":"9100853"},{"town":"浄土寺町","koaza":"","lat":36.138273,"lng":136.154495,"zip":"9103117"},{"town":"生野町","koaza":"","lat":35.987886,"lng":136.214349,"zip":"9188163"},{"town":"菖蒲谷町","koaza":"","lat":36.150446,"lng":136.140424,"zip":"9103148"},{"town":"昭和新町","koaza":"","lat":36.161489,"lng":136.156498,"zip":"9103101"},{"town":"白方町","koaza":"","lat":36.161908,"lng":136.115608,"zip":"9103131"},{"town":"白滝町","koaza":"","lat":36.037679,"lng":136.075088,"zip":"9103511"},{"town":"白浜町","koaza":"","lat":36.081261,"lng":136.030079,"zip":"9103403"},{"town":"城有町","koaza":"","lat":35.990035,"lng":135.990971,"zip":"9103557"},{"town":"次郎丸町","koaza":"","lat":36.038312,"lng":136.279578,"zip":"9188227"},{"town":"新下江守町","koaza":"","lat":36.03352,"lng":136.184746,"zip":"9188036"},{"town":"新田本町","koaza":"","lat":36.103587,"lng":136.251084,"zip":"9100812"},{"town":"新開町","koaza":"","lat":36.015263,"lng":136.218204,"zip":"9190328"},{"town":"新保一丁目","koaza":"","lat":36.080516,"lng":136.247384,"zip":"9100833"},{"town":"新保二丁目","koaza":"","lat":36.080258,"lng":136.250264,"zip":"9100833"},{"town":"新保三丁目","koaza":"","lat":36.08169,"lng":136.252548,"zip":"9100833"},{"town":"新保北一丁目","koaza":"","lat":36.08741,"lng":136.248981,"zip":"9100838"},{"town":"新保町","koaza":"","lat":36.085467,"lng":136.252781,"zip":"9100832"},{"town":"椙谷町","koaza":"","lat":35.987829,"lng":136.375818,"zip":"9102346"},{"town":"末広町","koaza":"","lat":35.997919,"lng":136.202834,"zip":"9188172"},{"town":"末町","koaza":"","lat":36.049332,"lng":136.104377,"zip":"9188077"},{"town":"菅谷一丁目","koaza":"","lat":36.071497,"lng":136.19447,"zip":"9100034"},{"town":"菅谷二丁目","koaza":"","lat":36.073282,"lng":136.191866,"zip":"9100034"},{"town":"菅谷町","koaza":"","lat":36.075419,"lng":136.187512,"zip":"9100035"},{"town":"杉谷町","koaza":"","lat":36.015675,"lng":136.192836,"zip":"9188155"},{"town":"砂子坂町","koaza":"","lat":36.145054,"lng":136.147825,"zip":"9103143"},{"town":"砂子田町","koaza":"","lat":36.161906,"lng":136.148762,"zip":"9103141"},{"town":"成和一丁目","koaza":"","lat":36.055646,"lng":136.243471,"zip":"9188239"},{"town":"成和二丁目","koaza":"","lat":36.056988,"lng":136.247375,"zip":"9188239"},{"town":"仙町","koaza":"","lat":36.128441,"lng":136.161254,"zip":"9103115"},{"town":"曽万布町","koaza":"","lat":36.046734,"lng":136.260092,"zip":"9188234"},{"town":"大願寺一丁目","koaza":"","lat":36.082734,"lng":136.231295,"zip":"9100001"},{"town":"大願寺二丁目","koaza":"","lat":36.082753,"lng":136.22956,"zip":"9100001"},{"town":"大願寺三丁目","koaza":"","lat":36.082635,"lng":136.22788,"zip":"9100001"},{"town":"大東一丁目","koaza":"","lat":36.064407,"lng":136.250999,"zip":"9188202"},{"town":"大東二丁目","koaza":"","lat":36.06626,"lng":136.249256,"zip":"9188202"},{"town":"大東三丁目","koaza":"","lat":36.068356,"lng":136.249136,"zip":"9188202"},{"town":"高尾町","koaza":"","lat":36.028923,"lng":136.301515,"zip":"9102141"},{"town":"高木一丁目","koaza":"","lat":36.097069,"lng":136.226969,"zip":"9100805"},{"town":"高木二丁目","koaza":"","lat":36.093013,"lng":136.228066,"zip":"9100805"},{"town":"高木北一丁目","koaza":"","lat":36.098599,"lng":136.229914,"zip":"9100807"},{"town":"高木北二丁目","koaza":"","lat":36.098776,"lng":136.232419,"zip":"9100807"},{"town":"高木北三丁目","koaza":"","lat":36.097851,"lng":136.234417,"zip":"9100807"},{"town":"高木北四丁目","koaza":"","lat":36.097642,"lng":136.236081,"zip":"9100807"},{"town":"高木北五丁目","koaza":"","lat":36.096246,"lng":136.237484,"zip":"9100807"},{"town":"高木中央一丁目","koaza":"","lat":36.090674,"lng":136.231299,"zip":"9100804"},{"town":"高木中央二丁目","koaza":"","lat":36.090724,"lng":136.235959,"zip":"9100804"},{"town":"高木中央三丁目","koaza":"","lat":36.090347,"lng":136.239572,"zip":"9100804"},{"town":"高木町","koaza":"","lat":36.094476,"lng":136.224685,"zip":"9100806"},{"town":"高木西一丁目","koaza":"","lat":36.097622,"lng":136.223593,"zip":"9100070"},{"town":"高須町","koaza":"","lat":36.111118,"lng":136.101884,"zip":"9103374"},{"town":"高田町","koaza":"","lat":36.030634,"lng":136.318963,"zip":"9102226"},{"town":"高塚町","koaza":"","lat":36.057477,"lng":136.181018,"zip":"9188044"},{"town":"高屋町","koaza":"","lat":36.116497,"lng":136.17723,"zip":"9100107"},{"town":"高柳一丁目","koaza":"","lat":36.090267,"lng":136.24363,"zip":"9100837"},{"town":"高柳二丁目","koaza":"","lat":36.095953,"lng":136.244767,"zip":"9100837"},{"town":"高柳三丁目","koaza":"","lat":36.096876,"lng":136.240786,"zip":"9100837"},{"town":"高柳町","koaza":"","lat":36.098553,"lng":136.238381,"zip":"9100803"},{"town":"滝波町","koaza":"","lat":36.025802,"lng":136.09833,"zip":"9103643"},{"town":"竹生町","koaza":"","lat":36.047127,"lng":136.151509,"zip":"9103602"},{"town":"田治島町","koaza":"","lat":35.999347,"lng":136.259366,"zip":"9190311"},{"town":"田尻町","koaza":"","lat":36.019259,"lng":136.317459,"zip":"9102225"},{"town":"田尻栃谷町","koaza":"","lat":36.037052,"lng":136.164546,"zip":"9103606"},{"town":"種池一丁目","koaza":"","lat":36.035961,"lng":136.190584,"zip":"9188031"},{"town":"種池二丁目","koaza":"","lat":36.038068,"lng":136.187917,"zip":"9188031"},{"town":"種池町","koaza":"","lat":36.035767,"lng":136.186933,"zip":"9188031"},{"town":"田中町","koaza":"","lat":36.006331,"lng":136.256804,"zip":"9190304"},{"town":"田ノ頭町","koaza":"","lat":36.131271,"lng":136.119322,"zip":"9103124"},{"town":"田ノ谷町","koaza":"","lat":36.099062,"lng":136.168274,"zip":"9100044"},{"town":"為寄町","koaza":"","lat":36.140782,"lng":136.121611,"zip":"9103128"},{"town":"田原一丁目","koaza":"","lat":36.072838,"lng":136.217451,"zip":"9100018"},{"town":"田原二丁目","koaza":"","lat":36.072811,"lng":136.214593,"zip":"9100018"},{"town":"千合町","koaza":"","lat":36.051431,"lng":136.032933,"zip":"9103521"},{"town":"地蔵堂町","koaza":"","lat":36.086363,"lng":136.191183,"zip":"9100048"},{"town":"中央一丁目","koaza":"","lat":36.060907,"lng":136.220219,"zip":"9100006"},{"town":"中央二丁目","koaza":"","lat":36.058668,"lng":136.218992,"zip":"9100006"},{"town":"中央三丁目","koaza":"","lat":36.06244,"lng":136.214929,"zip":"9100006"},{"town":"月見一丁目","koaza":"","lat":36.045758,"lng":136.21717,"zip":"9188011"},{"town":"月見二丁目","koaza":"","lat":36.045994,"lng":136.213555,"zip":"9188011"},{"town":"月見三丁目","koaza":"","lat":36.046432,"lng":136.209973,"zip":"9188011"},{"town":"月見四丁目","koaza":"","lat":36.046506,"lng":136.205515,"zip":"9188011"},{"town":"月見五丁目","koaza":"","lat":36.045766,"lng":136.201318,"zip":"9188011"},{"town":"つくし野一丁目","koaza":"","lat":36.119558,"lng":136.216281,"zip":"9100101"},{"town":"つくし野二丁目","koaza":"","lat":36.116982,"lng":136.217369,"zip":"9100101"},{"town":"つくし野三丁目","koaza":"","lat":36.11748,"lng":136.214915,"zip":"9100101"},{"town":"つくも一丁目","koaza":"","lat":36.061763,"lng":136.211906,"zip":"9188001"},{"town":"つくも二丁目","koaza":"","lat":36.063023,"lng":136.209147,"zip":"9188001"},{"town":"土橋町","koaza":"","lat":36.099888,"lng":136.18865,"zip":"9100053"},{"town":"角折町","koaza":"","lat":36.06876,"lng":136.178102,"zip":"9188068"},{"town":"角原町","koaza":"","lat":35.995622,"lng":136.217516,"zip":"9188162"},{"town":"坪谷町","koaza":"","lat":36.007602,"lng":136.136051,"zip":"9103615"},{"town":"剣大谷町","koaza":"","lat":36.120771,"lng":136.161226,"zip":"9103114"},{"town":"手寄一丁目","koaza":"","lat":36.059793,"lng":136.223786,"zip":"9100858"},{"town":"手寄二丁目","koaza":"","lat":36.059338,"lng":136.226947,"zip":"9100858"},{"town":"寺前町","koaza":"","lat":36.103772,"lng":136.240554,"zip":"9100801"},{"town":"照手一丁目","koaza":"","lat":36.065501,"lng":136.211053,"zip":"9100024"},{"town":"照手二丁目","koaza":"","lat":36.066088,"lng":136.209185,"zip":"9100024"},{"town":"照手三丁目","koaza":"","lat":36.066295,"lng":136.207555,"zip":"9100024"},{"town":"照手四丁目","koaza":"","lat":36.066152,"lng":136.205466,"zip":"9100024"},{"town":"照手町四丁目","koaza":"","lat":36.064799,"lng":136.204273,"zip":"9100025"},{"town":"殿下町","koaza":"","lat":36.057508,"lng":136.268445,"zip":"9188216"},{"town":"天王町","koaza":"","lat":36.027024,"lng":136.238235,"zip":"9188136"},{"town":"問屋町一丁目","koaza":"","lat":36.055745,"lng":136.25166,"zip":"9188231"},{"town":"問屋町二丁目","koaza":"","lat":36.055319,"lng":136.256,"zip":"9188231"},{"town":"問屋町三丁目","koaza":"","lat":36.052507,"lng":136.251764,"zip":"9188231"},{"town":"問屋町四丁目","koaza":"","lat":36.052531,"lng":136.256045,"zip":"9188231"},{"town":"東郷中島町","koaza":"","lat":36.023825,"lng":136.258027,"zip":"9102176"},{"town":"東郷二ケ町","koaza":"","lat":36.017485,"lng":136.270027,"zip":"9102165"},{"town":"堂島町","koaza":"","lat":36.094697,"lng":136.261287,"zip":"9100818"},{"town":"燈豊町","koaza":"","lat":36.122383,"lng":136.129631,"zip":"9103252"},{"town":"灯明寺一丁目","koaza":"","lat":36.090783,"lng":136.211587,"zip":"9100063"},{"town":"灯明寺二丁目","koaza":"","lat":36.093813,"lng":136.212614,"zip":"9100063"},{"town":"灯明寺三丁目","koaza":"","lat":36.096941,"lng":136.216638,"zip":"9100063"},{"town":"灯明寺四丁目","koaza":"","lat":36.096885,"lng":136.209306,"zip":"9100063"},{"town":"灯明寺町","koaza":"","lat":36.093047,"lng":136.218959,"zip":"9100062"},{"town":"栂野町","koaza":"","lat":36.036486,"lng":136.254917,"zip":"9102178"},{"town":"徳尾町","koaza":"","lat":35.978274,"lng":136.20853,"zip":"9188165"},{"town":"徳光町","koaza":"","lat":36.008291,"lng":136.247123,"zip":"9190305"},{"town":"所谷町","koaza":"","lat":36.030249,"lng":136.41949,"zip":"9102202"},{"town":"栃泉町","koaza":"","lat":36.005905,"lng":136.275344,"zip":"9102163"},{"town":"豊岡一丁目","koaza":"","lat":36.068653,"lng":136.191847,"zip":"9100027"},{"town":"豊岡二丁目","koaza":"","lat":36.070906,"lng":136.189937,"zip":"9100027"},{"town":"豊島一丁目","koaza":"","lat":36.057682,"lng":136.22122,"zip":"9100857"},{"town":"豊島二丁目","koaza":"","lat":36.056908,"lng":136.223596,"zip":"9100857"},{"town":"中荒井町","koaza":"","lat":36.019879,"lng":136.20245,"zip":"9188151"},{"town":"中河内町","koaza":"","lat":36.087342,"lng":136.135172,"zip":"9103263"},{"town":"中新田町","koaza":"","lat":36.102719,"lng":136.25773,"zip":"9100813"},{"town":"中平町","koaza":"","lat":36.088091,"lng":136.09975,"zip":"9103268"},{"town":"中角町","koaza":"","lat":36.106374,"lng":136.20794,"zip":"9100103"},{"town":"中野一丁目","koaza":"","lat":36.001326,"lng":136.184201,"zip":"9188186"},{"town":"中野二丁目","koaza":"","lat":36.003015,"lng":136.186005,"zip":"9188186"},{"town":"中野三丁目","koaza":"","lat":36.003189,"lng":136.189935,"zip":"9188186"},{"town":"中ノ郷町","koaza":"","lat":36.093097,"lng":136.277455,"zip":"9100816"},{"town":"中野町","koaza":"","lat":36.004343,"lng":136.181304,"zip":"9188185"},{"town":"長橋町","koaza":"","lat":36.114189,"lng":136.055096,"zip":"9103384"},{"town":"中毘沙門町","koaza":"","lat":36.023,"lng":136.275951,"zip":"9102145"},{"town":"中藤新保町","koaza":"","lat":36.107219,"lng":136.246745,"zip":"9100811"},{"town":"中町","koaza":"","lat":36.102256,"lng":136.14295,"zip":"9103256"},{"town":"長本町","koaza":"","lat":36.074515,"lng":136.241246,"zip":"9100844"},{"town":"中山町","koaza":"","lat":36.140372,"lng":136.117707,"zip":"9103127"},{"town":"中手町","koaza":"","lat":35.954009,"lng":136.415745,"zip":"9102464"},{"town":"南居町","koaza":"","lat":36.020056,"lng":136.174572,"zip":"9188034"},{"town":"波寄町","koaza":"","lat":36.157426,"lng":136.140635,"zip":"9103142"},{"town":"奈良瀬町","koaza":"","lat":36.004803,"lng":136.338747,"zip":"9102221"},{"town":"仁位町","koaza":"","lat":36.013628,"lng":136.402798,"zip":"9102336"},{"town":"西天田町","koaza":"","lat":35.977252,"lng":136.367338,"zip":"9102355"},{"town":"西荒井町","koaza":"","lat":36.096173,"lng":136.121507,"zip":"9103261"},{"town":"西板垣町","koaza":"","lat":36.05292,"lng":136.228825,"zip":"9188102"},{"town":"西市布町","koaza":"","lat":35.962627,"lng":136.388472,"zip":"9102466"},{"town":"西大味町","koaza":"","lat":35.988329,"lng":136.254957,"zip":"9190313"},{"town":"西開発一丁目","koaza":"","lat":36.075148,"lng":136.236394,"zip":"9100843"},{"town":"西開発二丁目","koaza":"","lat":36.079485,"lng":136.235568,"zip":"9100843"},{"town":"西開発三丁目","koaza":"","lat":36.082679,"lng":136.234626,"zip":"9100843"},{"town":"西開発四丁目","koaza":"","lat":36.086123,"lng":136.233506,"zip":"9100843"},{"town":"西学園一丁目","koaza":"","lat":36.067578,"lng":136.186099,"zip":"9188064"},{"town":"西学園二丁目","koaza":"","lat":36.068557,"lng":136.186748,"zip":"9188064"},{"town":"西学園三丁目","koaza":"","lat":36.0696,"lng":136.187264,"zip":"9188064"},{"town":"西方一丁目","koaza":"","lat":36.051717,"lng":136.23529,"zip":"9100855"},{"town":"西方二丁目","koaza":"","lat":36.050638,"lng":136.238252,"zip":"9100855"},{"town":"西木田一丁目","koaza":"","lat":36.054025,"lng":136.216444,"zip":"9188004"},{"town":"西木田二丁目","koaza":"","lat":36.054032,"lng":136.213875,"zip":"9188004"},{"town":"西木田三丁目","koaza":"","lat":36.054025,"lng":136.211508,"zip":"9188004"},{"town":"西木田四丁目","koaza":"","lat":36.05388,"lng":136.209276,"zip":"9188004"},{"town":"西木田五丁目","koaza":"","lat":36.051301,"lng":136.205933,"zip":"9188004"},{"town":"西河原町","koaza":"","lat":35.963897,"lng":136.36185,"zip":"9102471"},{"town":"西下野町","koaza":"","lat":36.064851,"lng":136.166569,"zip":"9188041"},{"town":"西新町","koaza":"","lat":35.993561,"lng":136.286249,"zip":"9102157"},{"town":"西谷一丁目","koaza":"","lat":36.038196,"lng":136.207586,"zip":"9188023"},{"town":"西谷二丁目","koaza":"","lat":36.038512,"lng":136.203359,"zip":"9188023"},{"town":"西谷三丁目","koaza":"","lat":36.040378,"lng":136.198229,"zip":"9188023"},{"town":"西谷町","koaza":"","lat":36.04171,"lng":136.201409,"zip":"9188022"},{"town":"西中町","koaza":"","lat":36.032186,"lng":136.409559,"zip":"9102203"},{"town":"西中野町","koaza":"","lat":36.145078,"lng":136.153075,"zip":"9103105"},{"town":"西畑町","koaza":"","lat":36.136885,"lng":136.089217,"zip":"9103373"},{"town":"西袋町","koaza":"","lat":35.989906,"lng":136.237333,"zip":"9190315"},{"town":"西二ツ屋町","koaza":"","lat":36.13729,"lng":136.085039,"zip":"9103372"},{"town":"西別所町","koaza":"","lat":36.036707,"lng":136.067017,"zip":"9103512"},{"town":"西堀町","koaza":"","lat":36.079976,"lng":136.188972,"zip":"9100037"},{"town":"日光一丁目","koaza":"","lat":36.073056,"lng":136.203119,"zip":"9100029"},{"town":"日光二丁目","koaza":"","lat":36.072747,"lng":136.199777,"zip":"9100029"},{"town":"新田塚一丁目","koaza":"","lat":36.091687,"lng":136.207456,"zip":"9100067"},{"town":"新田塚二丁目","koaza":"","lat":36.091502,"lng":136.202557,"zip":"9100067"},{"town":"新田塚町","koaza":"","lat":36.08838,"lng":136.212123,"zip":"9100064"},{"town":"二の宮一丁目","koaza":"","lat":36.087393,"lng":136.228832,"zip":"9100015"},{"town":"二の宮二丁目","koaza":"","lat":36.08565,"lng":136.224061,"zip":"9100015"},{"town":"二の宮三丁目","koaza":"","lat":36.085039,"lng":136.218514,"zip":"9100015"},{"town":"二の宮四丁目","koaza":"","lat":36.08536,"lng":136.212224,"zip":"9100015"},{"town":"二の宮五丁目","koaza":"","lat":36.085233,"lng":136.207588,"zip":"9100015"},{"town":"縫原町","koaza":"","lat":36.007759,"lng":136.410541,"zip":"9102335"},{"town":"猫瀬町","koaza":"","lat":36.076479,"lng":136.11519,"zip":"9103266"},{"town":"野波町","koaza":"","lat":36.00446,"lng":136.432654,"zip":"9102333"},{"town":"計石町","koaza":"","lat":36.00001,"lng":136.439505,"zip":"9102331"},{"town":"羽坂町","koaza":"","lat":36.064479,"lng":136.140722,"zip":"9188075"},{"town":"畠中町","koaza":"","lat":36.044792,"lng":136.04821,"zip":"9103517"},{"town":"花野谷町","koaza":"","lat":36.045376,"lng":136.290879,"zip":"9188224"},{"town":"花守町","koaza":"","lat":36.003996,"lng":136.172536,"zip":"9188187"},{"town":"花堂北一丁目","koaza":"","lat":36.041589,"lng":136.216313,"zip":"9188012"},{"town":"花堂北二丁目","koaza":"","lat":36.041488,"lng":136.210446,"zip":"9188012"},{"town":"花堂中一丁目","koaza":"","lat":36.037056,"lng":136.215986,"zip":"9188014"},{"town":"花堂中二丁目","koaza":"","lat":36.037847,"lng":136.211323,"zip":"9188014"},{"town":"花堂東一丁目","koaza":"","lat":36.040203,"lng":136.220052,"zip":"9188013"},{"town":"花堂東二丁目","koaza":"","lat":36.040231,"lng":136.222799,"zip":"9188013"},{"town":"花堂南一丁目","koaza":"","lat":36.033865,"lng":136.214964,"zip":"9188015"},{"town":"花堂南二丁目","koaza":"","lat":36.033895,"lng":136.211664,"zip":"9188015"},{"town":"浜北山町","koaza":"","lat":36.011089,"lng":135.999838,"zip":"9103554"},{"town":"浜島町","koaza":"","lat":36.149098,"lng":136.114497,"zip":"9103132"},{"town":"浜住町","koaza":"","lat":36.125558,"lng":136.073677,"zip":"9103377"},{"town":"浜別所町","koaza":"","lat":36.13912,"lng":136.10666,"zip":"9103134"},{"town":"林町","koaza":"","lat":36.088841,"lng":136.26886,"zip":"9100828"},{"town":"林藤島町","koaza":"","lat":36.089218,"lng":136.262835,"zip":"9100829"},{"town":"原目町","koaza":"","lat":36.074175,"lng":136.264877,"zip":"9100825"},{"town":"春山一丁目","koaza":"","lat":36.068842,"lng":136.216925,"zip":"9100019"},{"town":"春山二丁目","koaza":"","lat":36.068985,"lng":136.214505,"zip":"9100019"},{"town":"半田町","koaza":"","lat":36.006469,"lng":136.218153,"zip":"9190326"},{"town":"東天田町","koaza":"","lat":35.977876,"lng":136.38249,"zip":"9102354"},{"town":"東今泉町","koaza":"","lat":36.065382,"lng":136.253855,"zip":"9188214"},{"town":"東大味町","koaza":"","lat":35.988124,"lng":136.266105,"zip":"9190312"},{"town":"東川上町","koaza":"","lat":35.992901,"lng":136.445715,"zip":"9102341"},{"town":"東河原町","koaza":"","lat":35.958995,"lng":136.375705,"zip":"9102472"},{"town":"東下野町","koaza":"","lat":36.063802,"lng":136.173391,"zip":"9188042"},{"town":"東新町","koaza":"","lat":35.990382,"lng":136.302691,"zip":"9102154"},{"town":"東平町","koaza":"","lat":36.076933,"lng":136.130793,"zip":"9103266"},{"town":"東俣町","koaza":"","lat":35.98211,"lng":136.440984,"zip":"9102342"},{"town":"引目町","koaza":"","lat":36.024348,"lng":136.198912,"zip":"9188156"},{"town":"日之出一丁目","koaza":"","lat":36.063777,"lng":136.226284,"zip":"9100859"},{"town":"日之出二丁目","koaza":"","lat":36.062934,"lng":136.227418,"zip":"9100859"},{"town":"日之出三丁目","koaza":"","lat":36.062989,"lng":136.229686,"zip":"9100859"},{"town":"日之出四丁目","koaza":"","lat":36.063193,"lng":136.232736,"zip":"9100859"},{"town":"日之出五丁目","koaza":"","lat":36.066701,"lng":136.232128,"zip":"9100859"},{"town":"平尾町","koaza":"","lat":36.041926,"lng":136.098498,"zip":"9103641"},{"town":"深坂町","koaza":"","lat":36.141105,"lng":136.112658,"zip":"9103126"},{"town":"深谷町","koaza":"","lat":36.08472,"lng":136.168944,"zip":"9100049"},{"town":"深見町","koaza":"","lat":36.002574,"lng":136.268699,"zip":"9102164"},{"town":"福一丁目","koaza":"","lat":36.047344,"lng":136.189788,"zip":"9188045"},{"town":"福二丁目","koaza":"","lat":36.049838,"lng":136.190195,"zip":"9188045"},{"town":"福島町","koaza":"","lat":36.02832,"lng":136.342943,"zip":"9102214"},{"town":"福新町","koaza":"","lat":36.048505,"lng":136.184538,"zip":"9188045"},{"town":"福町","koaza":"","lat":36.052368,"lng":136.183413,"zip":"9188027"},{"town":"藤島町","koaza":"","lat":36.08857,"lng":136.272823,"zip":"9100827"},{"town":"武周町","koaza":"","lat":36.034173,"lng":136.037715,"zip":"9103523"},{"town":"布施田町","koaza":"","lat":36.142421,"lng":136.162309,"zip":"9103104"},{"town":"二上町","koaza":"","lat":36.001362,"lng":136.22425,"zip":"9190325"},{"town":"二ツ屋町","koaza":"","lat":36.018662,"lng":136.024392,"zip":"9103526"},{"town":"渕一丁目","koaza":"","lat":36.039852,"lng":136.193743,"zip":"9188026"},{"town":"渕二丁目","koaza":"","lat":36.043426,"lng":136.189298,"zip":"9188026"},{"town":"渕三丁目","koaza":"","lat":36.041853,"lng":136.185887,"zip":"9188026"},{"town":"渕四丁目","koaza":"","lat":36.045679,"lng":136.184198,"zip":"9188026"},{"town":"渕町","koaza":"","lat":36.042766,"lng":136.193649,"zip":"9188026"},{"town":"二日市町","koaza":"","lat":36.128357,"lng":136.184628,"zip":"9100109"},{"town":"舟橋一丁目","koaza":"","lat":36.098628,"lng":136.22597,"zip":"9100808"},{"town":"舟橋二丁目","koaza":"","lat":36.099306,"lng":136.229063,"zip":"9100808"},{"town":"舟橋三丁目","koaza":"","lat":36.101516,"lng":136.232487,"zip":"9100808"},{"town":"舟橋黒竜一丁目","koaza":"","lat":36.099426,"lng":136.214949,"zip":"9100069"},{"town":"舟橋黒竜二丁目","koaza":"","lat":36.09976,"lng":136.213179,"zip":"9100069"},{"town":"舟橋新一丁目","koaza":"","lat":36.099375,"lng":136.210627,"zip":"9100068"},{"town":"舟橋新二丁目","koaza":"","lat":36.097677,"lng":136.205302,"zip":"9100068"},{"town":"舟橋新町","koaza":"","lat":36.100177,"lng":136.208087,"zip":"9100061"},{"town":"舟橋町","koaza":"","lat":36.100641,"lng":136.228186,"zip":"9100809"},{"town":"冬野町","koaza":"","lat":36.01134,"lng":136.184478,"zip":"9188154"},{"town":"古市一丁目","koaza":"","lat":36.104546,"lng":136.225331,"zip":"9100152"},{"town":"古市二丁目","koaza":"","lat":36.10683,"lng":136.225859,"zip":"9100152"},{"town":"古市三丁目","koaza":"","lat":36.104886,"lng":136.226948,"zip":"9100152"},{"town":"古市町","koaza":"","lat":36.104616,"lng":136.229782,"zip":"9100153"},{"town":"文京一丁目","koaza":"","lat":36.077924,"lng":136.222498,"zip":"9100017"},{"town":"文京二丁目","koaza":"","lat":36.07771,"lng":136.217702,"zip":"9100017"},{"town":"文京三丁目","koaza":"","lat":36.077122,"lng":136.212868,"zip":"9100017"},{"town":"文京四丁目","koaza":"","lat":36.077051,"lng":136.208528,"zip":"9100017"},{"town":"文京五丁目","koaza":"","lat":36.076885,"lng":136.204983,"zip":"9100017"},{"town":"文京六丁目","koaza":"","lat":36.076381,"lng":136.200052,"zip":"9100017"},{"town":"文京七丁目","koaza":"","lat":36.07618,"lng":136.1955,"zip":"9100017"},{"town":"別所町","koaza":"","lat":36.034262,"lng":136.225845,"zip":"9188115"},{"town":"別畑町","koaza":"","lat":36.015578,"lng":136.050815,"zip":"9103524"},{"town":"宝永一丁目","koaza":"","lat":36.068605,"lng":136.230012,"zip":"9100004"},{"town":"宝永二丁目","koaza":"","lat":36.068937,"lng":136.226877,"zip":"9100004"},{"town":"宝永三丁目","koaza":"","lat":36.068952,"lng":136.223539,"zip":"9100004"},{"town":"宝永四丁目","koaza":"","lat":36.068835,"lng":136.219613,"zip":"9100004"},{"town":"鉾ケ崎町","koaza":"","lat":36.001537,"lng":136.211445,"zip":"9188161"},{"town":"細坂町","koaza":"","lat":36.057681,"lng":136.144507,"zip":"9188074"},{"town":"帆谷町","koaza":"","lat":36.000308,"lng":136.231259,"zip":"9190324"},{"town":"堀ノ宮一丁目","koaza":"","lat":36.080537,"lng":136.196204,"zip":"9100032"},{"town":"堀ノ宮町","koaza":"","lat":36.083685,"lng":136.196263,"zip":"9100031"},{"town":"本堂町","koaza":"","lat":36.058199,"lng":136.128581,"zip":"9188076"},{"town":"舞屋町","koaza":"","lat":36.034353,"lng":136.204445,"zip":"9188024"},{"town":"前波町","koaza":"","lat":36.02062,"lng":136.300462,"zip":"9102142"},{"town":"真木町","koaza":"","lat":35.998884,"lng":136.200202,"zip":"9188184"},{"town":"真栗町","koaza":"","lat":36.010646,"lng":136.149823,"zip":"9103616"},{"town":"町屋一丁目","koaza":"","lat":36.078749,"lng":136.232726,"zip":"9100002"},{"town":"町屋二丁目","koaza":"","lat":36.078822,"lng":136.230185,"zip":"9100002"},{"town":"町屋三丁目","koaza":"","lat":36.078203,"lng":136.226948,"zip":"9100002"},{"town":"松蔭町","koaza":"","lat":36.125301,"lng":136.055731,"zip":"9103382"},{"town":"松城町","koaza":"","lat":36.062004,"lng":136.240954,"zip":"9100852"},{"town":"松本一丁目","koaza":"","lat":36.074042,"lng":136.231067,"zip":"9100003"},{"town":"松本二丁目","koaza":"","lat":36.073966,"lng":136.227211,"zip":"9100003"},{"town":"松本三丁目","koaza":"","lat":36.073256,"lng":136.223867,"zip":"9100003"},{"town":"松本四丁目","koaza":"","lat":36.072929,"lng":136.220153,"zip":"9100003"},{"town":"松本上町","koaza":"","lat":36.07389,"lng":136.233745,"zip":"9180000"},{"town":"間戸町","koaza":"","lat":35.988434,"lng":136.396618,"zip":"9102345"},{"town":"間山町","koaza":"","lat":36.080674,"lng":136.276724,"zip":"9100824"},{"town":"丸山一丁目","koaza":"","lat":36.07486,"lng":136.243689,"zip":"9100834"},{"town":"丸山二丁目","koaza":"","lat":36.074479,"lng":136.246623,"zip":"9100834"},{"town":"丸山三丁目","koaza":"","lat":36.076221,"lng":136.249378,"zip":"9100834"},{"town":"丸山町","koaza":"","lat":36.074395,"lng":136.250481,"zip":"9100835"},{"town":"三尾野町","koaza":"","lat":36.005042,"lng":136.164662,"zip":"9188188"},{"town":"水切町","koaza":"","lat":36.146609,"lng":136.135104,"zip":"9103144"},{"town":"水越一丁目","koaza":"","lat":36.06746,"lng":136.189645,"zip":"9188065"},{"town":"水越二丁目","koaza":"","lat":36.066385,"lng":136.187857,"zip":"9188065"},{"town":"水谷町","koaza":"","lat":36.037414,"lng":136.058803,"zip":"9103514"},{"town":"三ツ屋一丁目","koaza":"","lat":36.083839,"lng":136.191822,"zip":"9100038"},{"town":"三ツ屋二丁目","koaza":"","lat":36.084628,"lng":136.193,"zip":"9100038"},{"town":"三ツ屋町","koaza":"","lat":36.08344,"lng":136.187164,"zip":"9100039"},{"town":"三留町","koaza":"","lat":36.036232,"lng":136.147321,"zip":"9103608"},{"town":"南江守町","koaza":"","lat":36.02777,"lng":136.18996,"zip":"9188032"},{"town":"南菅生町","koaza":"","lat":36.103286,"lng":136.046617,"zip":"9103386"},{"town":"南楢原町","koaza":"","lat":36.098795,"lng":136.178231,"zip":"9100046"},{"town":"南西俣町","koaza":"","lat":35.979993,"lng":136.427761,"zip":"9102343"},{"town":"南野津又町","koaza":"","lat":35.967522,"lng":136.439476,"zip":"9102461"},{"town":"南宮地町","koaza":"","lat":35.987985,"lng":136.415249,"zip":"9102344"},{"town":"南山町","koaza":"","lat":36.008952,"lng":136.283991,"zip":"9102162"},{"town":"南四ツ居一丁目","koaza":"","lat":36.062054,"lng":136.244858,"zip":"9188204"},{"town":"南四ツ居二丁目","koaza":"","lat":36.060532,"lng":136.244656,"zip":"9188204"},{"town":"南四ツ居町","koaza":"","lat":36.068388,"lng":136.250985,"zip":"9188201"},{"town":"蓑町","koaza":"","lat":36.11627,"lng":136.072859,"zip":"9103381"},{"town":"みのり一丁目","koaza":"","lat":36.049961,"lng":136.216427,"zip":"9188005"},{"town":"みのり二丁目","koaza":"","lat":36.050347,"lng":136.214146,"zip":"9188005"},{"town":"みのり三丁目","koaza":"","lat":36.049836,"lng":136.210676,"zip":"9188005"},{"town":"みのり四丁目","koaza":"","lat":36.049532,"lng":136.206137,"zip":"9188005"},{"town":"三宅町","koaza":"","lat":36.150455,"lng":136.161083,"zip":"9103103"},{"town":"宮郷町","koaza":"","lat":36.113094,"lng":136.085882,"zip":"9103375"},{"town":"宮地町","koaza":"","lat":36.039975,"lng":136.284241,"zip":"9188225"},{"town":"美山大谷町","koaza":"","lat":36.0342,"lng":136.393571,"zip":"9102204"},{"town":"美山町","koaza":"","lat":35.999087,"lng":136.361057,"zip":"9102351"},{"town":"御幸一丁目","koaza":"","lat":36.058215,"lng":136.228585,"zip":"9100854"},{"town":"御幸二丁目","koaza":"","lat":36.057548,"lng":136.23222,"zip":"9100854"},{"town":"御幸三丁目","koaza":"","lat":36.055569,"lng":136.23604,"zip":"9100854"},{"town":"御幸四丁目","koaza":"","lat":36.055091,"lng":136.239792,"zip":"9100854"},{"town":"六日市町","koaza":"","lat":36.111587,"lng":136.189155,"zip":"9100106"},{"town":"和布町","koaza":"","lat":36.129317,"lng":136.06627,"zip":"9103376"},{"town":"免鳥町","koaza":"","lat":36.129415,"lng":136.077465,"zip":"9103378"},{"town":"本折町","koaza":"","lat":36.031584,"lng":136.118502,"zip":"9103642"},{"town":"桃園一丁目","koaza":"","lat":36.061749,"lng":136.202202,"zip":"9188051"},{"town":"桃園二丁目","koaza":"","lat":36.058879,"lng":136.202132,"zip":"9188051"},{"town":"森田新保町","koaza":"","lat":36.118221,"lng":136.252329,"zip":"9180000"},{"town":"森行町","koaza":"","lat":35.99518,"lng":136.200202,"zip":"9188171"},{"town":"門前一丁目","koaza":"","lat":36.049379,"lng":136.196634,"zip":"9188021"},{"town":"門前二丁目","koaza":"","lat":36.048965,"lng":136.194679,"zip":"9188021"},{"town":"門前町","koaza":"","lat":36.051039,"lng":136.197572,"zip":"9188021"},{"town":"八重巻町","koaza":"","lat":36.107549,"lng":136.220703,"zip":"9100123"},{"town":"八重巻中町","koaza":"","lat":36.104034,"lng":136.222125,"zip":"9100158"},{"town":"八重巻東町","koaza":"","lat":36.105183,"lng":136.223764,"zip":"9100157"},{"town":"薬師町","koaza":"","lat":36.008673,"lng":136.385325,"zip":"9102337"},{"town":"安竹町","koaza":"","lat":36.096988,"lng":136.188424,"zip":"9100054"},{"town":"安田町","koaza":"","lat":36.069069,"lng":136.150198,"zip":"9188073"},{"town":"安原町","koaza":"","lat":36.015505,"lng":136.278237,"zip":"9102167"},{"town":"八ツ島一丁目","koaza":"","lat":36.085984,"lng":136.20504,"zip":"9100066"},{"town":"八ツ島町","koaza":"","lat":36.084382,"lng":136.201858,"zip":"9100065"},{"town":"八ツ俣町","koaza":"","lat":35.992832,"lng":135.973814,"zip":"9103558"},{"town":"山内町","koaza":"","lat":36.009562,"lng":136.120544,"zip":"9103636"},{"town":"山奥町","koaza":"","lat":36.044467,"lng":136.2071,"zip":"9188009"},{"town":"山室町","koaza":"","lat":36.122852,"lng":136.184007,"zip":"9100108"},{"town":"八幡町","koaza":"","lat":36.125905,"lng":136.150553,"zip":"9103254"},{"town":"有楽町","koaza":"","lat":36.063002,"lng":136.205239,"zip":"9188008"},{"town":"横越町","koaza":"","lat":35.948908,"lng":136.359156,"zip":"9102473"},{"town":"吉山町","koaza":"","lat":36.025911,"lng":136.376763,"zip":"9102206"},{"town":"四ツ井一丁目","koaza":"","lat":36.065643,"lng":136.236231,"zip":"9100846"},{"town":"四ツ井二丁目","koaza":"","lat":36.068919,"lng":136.237908,"zip":"9100846"},{"town":"米松一丁目","koaza":"","lat":36.06536,"lng":136.23978,"zip":"9100851"},{"town":"米松二丁目","koaza":"","lat":36.069873,"lng":136.241584,"zip":"9100851"},{"town":"両橋屋町","koaza":"","lat":36.141973,"lng":136.090372,"zip":"9103135"},{"town":"寮町","koaza":"","lat":36.062989,"lng":136.278782,"zip":"9188215"},{"town":"若栄町","koaza":"","lat":36.083833,"lng":136.260894,"zip":"9100831"},{"town":"若杉一丁目","koaza":"","lat":36.059452,"lng":136.188811,"zip":"9188055"},{"town":"若杉二丁目","koaza":"","lat":36.055461,"lng":136.189509,"zip":"9188055"},{"town":"若杉三丁目","koaza":"","lat":36.052848,"lng":136.190139,"zip":"9188055"},{"town":"若杉四丁目","koaza":"","lat":36.057288,"lng":136.184604,"zip":"9188055"},{"town":"若杉町","koaza":"","lat":36.058729,"lng":136.192235,"zip":"9188055"},{"town":"若杉浜一丁目","koaza":"","lat":36.063329,"lng":136.1886,"zip":"9188056"},{"town":"若杉浜二丁目","koaza":"","lat":36.061992,"lng":136.187831,"zip":"9188056"},{"town":"若杉浜三丁目","koaza":"","lat":36.060763,"lng":136.186424,"zip":"9188056"},{"town":"脇三ケ町","koaza":"","lat":36.014975,"lng":136.288932,"zip":"9102161"},{"town":"和田一丁目","koaza":"","lat":36.050729,"lng":136.240936,"zip":"9188238"},{"town":"和田二丁目","koaza":"","lat":36.049297,"lng":136.242623,"zip":"9188238"},{"town":"和田三丁目","koaza":"","lat":36.049785,"lng":136.245656,"zip":"9188238"},{"town":"和田町","koaza":"","lat":36.048751,"lng":136.143153,"zip":"9103631"},{"town":"和田中一丁目","koaza":"","lat":36.045975,"lng":136.243111,"zip":"9188236"},{"town":"和田中二丁目","koaza":"","lat":36.046804,"lng":136.248196,"zip":"9188236"},{"town":"和田中三丁目","koaza":"","lat":36.045749,"lng":136.251596,"zip":"9188236"},{"town":"和田中町","koaza":"","lat":36.043734,"lng":136.253341,"zip":"9188235"},{"town":"和田東一丁目","koaza":"","lat":36.053293,"lng":136.247262,"zip":"9188237"},{"town":"和田東二丁目","koaza":"","lat":36.049265,"lng":136.249619,"zip":"9188237"},{"town":"渡町","koaza":"","lat":36.062988,"lng":136.186399,"zip":"9188066"},{"town":"蒲生町","koaza":"","lat":36.028305,"lng":136.012909,"zip":"9103553"},{"town":"茱崎町","koaza":"","lat":36.041152,"lng":136.019165,"zip":"9103552"},{"town":"円山二丁目","koaza":"","lat":36.070801,"lng":136.247755,"zip":"9188207"},{"town":"大島町","koaza":"柳","lat":36.033799,"lng":136.207823,"zip":"9188018"},{"town":"和田中町","koaza":"舟橋","lat":36.04774,"lng":136.252646,"zip":"9188235"},{"town":"久喜津町","koaza":"東二本松","lat":36.056857,"lng":136.179797,"zip":"9188047"},{"town":"殿下町","koaza":"豆田","lat":36.056982,"lng":136.273588,"zip":"9188216"},{"town":"二日市町","koaza":"柿ノ木","lat":36.131281,"lng":136.181805,"zip":"9100109"}]