[{"town":"相木町","koaza":"","lat":35.932367,"lng":136.311394,"zip":"9150202"},{"town":"あおば町","koaza":"","lat":35.896762,"lng":136.167349,"zip":"9150064"},{"town":"赤坂町","koaza":"","lat":35.942714,"lng":136.24532,"zip":"9150256"},{"town":"赤谷町","koaza":"","lat":35.921059,"lng":136.291954,"zip":"9150214"},{"town":"味真野町","koaza":"","lat":35.887155,"lng":136.227897,"zip":"9150025"},{"town":"吾妻町","koaza":"","lat":35.900542,"lng":136.169925,"zip":"9150069"},{"town":"荒谷町","koaza":"","lat":35.87265,"lng":136.202433,"zip":"9150045"},{"town":"粟田部町","koaza":"","lat":35.91459,"lng":136.237887,"zip":"9150242"},{"town":"粟田部町中央一丁目","koaza":"","lat":35.918976,"lng":136.243241,"zip":"9150241"},{"town":"粟田部町中央二丁目","koaza":"","lat":35.919973,"lng":136.245279,"zip":"9150241"},{"town":"粟野町","koaza":"","lat":35.910083,"lng":136.04929,"zip":"9151242"},{"town":"安養寺町","koaza":"","lat":35.908246,"lng":136.075025,"zip":"9151201"},{"town":"家久町","koaza":"","lat":35.929543,"lng":136.168318,"zip":"9150801"},{"town":"池泉町","koaza":"","lat":35.888882,"lng":136.232682,"zip":"9150023"},{"town":"池ノ上町","koaza":"","lat":35.871768,"lng":136.134193,"zip":"9150873"},{"town":"市野々町","koaza":"","lat":35.905641,"lng":136.300137,"zip":"9150216"},{"town":"稲寄町","koaza":"","lat":35.920796,"lng":136.184969,"zip":"9150095"},{"town":"今宿町","koaza":"","lat":35.862574,"lng":136.16691,"zip":"9150861"},{"town":"入谷町","koaza":"","lat":35.874364,"lng":136.28809,"zip":"9150035"},{"town":"岩内町","koaza":"","lat":35.893757,"lng":136.203376,"zip":"9150016"},{"town":"岩本町","koaza":"","lat":35.907722,"lng":136.246942,"zip":"9150233"},{"town":"瓜生町","koaza":"","lat":35.924121,"lng":136.182703,"zip":"9150096"},{"town":"瓜生野町","koaza":"","lat":35.81976,"lng":136.142912,"zip":"9150865"},{"town":"不老町","koaza":"","lat":35.902415,"lng":136.242991,"zip":"9150235"},{"town":"大塩町","koaza":"","lat":35.847331,"lng":136.153162,"zip":"9150863"},{"town":"大滝町","koaza":"","lat":35.900101,"lng":136.256845,"zip":"9150234"},{"town":"大谷町","koaza":"","lat":35.917113,"lng":136.274585,"zip":"9150218"},{"town":"大手町","koaza":"","lat":35.887069,"lng":136.210961,"zip":"9150015"},{"town":"大平町","koaza":"","lat":35.905667,"lng":136.270703,"zip":"9150228"},{"town":"大虫町","koaza":"","lat":35.901502,"lng":136.110146,"zip":"9150885"},{"town":"大虫本町","koaza":"","lat":35.897189,"lng":136.139967,"zip":"9150884"},{"town":"大屋町","koaza":"","lat":35.895438,"lng":136.191855,"zip":"9150042"},{"town":"岡本町","koaza":"","lat":35.896729,"lng":136.14641,"zip":"9150835"},{"town":"押田一丁目","koaza":"","lat":35.9058,"lng":136.185198,"zip":"9150083"},{"town":"押田二丁目","koaza":"","lat":35.905331,"lng":136.188005,"zip":"9150083"},{"town":"小野谷町","koaza":"","lat":35.882144,"lng":136.183976,"zip":"9150054"},{"town":"春日野町","koaza":"","lat":35.855538,"lng":136.139356,"zip":"9150877"},{"town":"片屋町","koaza":"","lat":35.920532,"lng":136.147334,"zip":"9150893"},{"town":"桂町","koaza":"","lat":35.905604,"lng":136.16499,"zip":"9150812"},{"town":"金屋町","koaza":"","lat":35.904069,"lng":136.227699,"zip":"9150011"},{"town":"上太田町","koaza":"","lat":35.907029,"lng":136.148757,"zip":"9150882"},{"town":"上大坪町","koaza":"","lat":35.881402,"lng":136.22705,"zip":"9150024"},{"town":"上小松町","koaza":"","lat":35.841342,"lng":136.162624,"zip":"9150864"},{"town":"上四目町","koaza":"","lat":35.894331,"lng":136.132731,"zip":"9150886"},{"town":"上杉本町","koaza":"","lat":35.886522,"lng":136.059278,"zip":"9151203"},{"town":"上真柄町","koaza":"","lat":35.900727,"lng":136.220627,"zip":"9150011"},{"town":"萱谷町","koaza":"","lat":35.8678,"lng":136.222926,"zip":"9150037"},{"town":"北小山町","koaza":"","lat":35.899664,"lng":136.230652,"zip":"9150021"},{"town":"北府一丁目","koaza":"","lat":35.9146,"lng":136.172579,"zip":"9150802"},{"town":"北府二丁目","koaza":"","lat":35.914305,"lng":136.168451,"zip":"9150802"},{"town":"北府三丁目","koaza":"","lat":35.912314,"lng":136.164477,"zip":"9150802"},{"town":"北府四丁目","koaza":"","lat":35.917513,"lng":136.165603,"zip":"9150802"},{"town":"北府本町","koaza":"","lat":35.919213,"lng":136.16883,"zip":"9150802"},{"town":"北坂下町","koaza":"","lat":35.92128,"lng":136.267097,"zip":"9150219"},{"town":"北千福町","koaza":"","lat":35.898896,"lng":136.151886,"zip":"9150834"},{"town":"北町","koaza":"","lat":35.909222,"lng":136.214078,"zip":"9150004"},{"town":"北山町","koaza":"","lat":35.918551,"lng":136.134223,"zip":"9150897"},{"town":"京町一丁目","koaza":"","lat":35.903178,"lng":136.164951,"zip":"9150813"},{"town":"京町二丁目","koaza":"","lat":35.902464,"lng":136.162747,"zip":"9150813"},{"town":"京町三丁目","koaza":"","lat":35.90385,"lng":136.16277,"zip":"9150813"},{"town":"清根町","koaza":"","lat":35.939672,"lng":136.307373,"zip":"9150203"},{"town":"葛岡町","koaza":"","lat":35.902006,"lng":136.191848,"zip":"9150041"},{"town":"朽飯町","koaza":"","lat":35.935268,"lng":136.258497,"zip":"9150261"},{"town":"国兼町","koaza":"","lat":35.850253,"lng":136.170261,"zip":"9150862"},{"town":"国高一丁目","koaza":"","lat":35.910502,"lng":136.185408,"zip":"9150082"},{"town":"国高二丁目","koaza":"","lat":35.910363,"lng":136.188473,"zip":"9150082"},{"town":"国高三丁目","koaza":"","lat":35.914474,"lng":136.187174,"zip":"9150082"},{"town":"国中町","koaza":"","lat":35.934978,"lng":136.2356,"zip":"9150254"},{"town":"黒川町","koaza":"","lat":35.891655,"lng":136.069585,"zip":"9151202"},{"town":"勾当原町","koaza":"","lat":35.86722,"lng":136.081769,"zip":"9151221"},{"town":"向陽町","koaza":"","lat":35.873945,"lng":136.151959,"zip":"9150874"},{"town":"国府一丁目","koaza":"","lat":35.905439,"lng":136.167059,"zip":"9150076"},{"town":"国府二丁目","koaza":"","lat":35.907835,"lng":136.167515,"zip":"9150076"},{"town":"小杉町","koaza":"","lat":35.903877,"lng":136.054018,"zip":"9151243"},{"town":"小谷町","koaza":"","lat":35.870632,"lng":136.048512,"zip":"9151234"},{"town":"小野町","koaza":"","lat":35.881863,"lng":136.100868,"zip":"9151215"},{"town":"五分市町","koaza":"","lat":35.894224,"lng":136.230214,"zip":"9150026"},{"town":"小松一丁目","koaza":"","lat":35.904635,"lng":136.156713,"zip":"9150816"},{"town":"小松二丁目","koaza":"","lat":35.907217,"lng":136.155613,"zip":"9150816"},{"town":"米口町","koaza":"","lat":35.875888,"lng":136.054748,"zip":"9151212"},{"town":"幸町","koaza":"","lat":35.903909,"lng":136.16698,"zip":"9150075"},{"town":"定友町","koaza":"","lat":35.916874,"lng":136.248997,"zip":"9150231"},{"town":"沢町","koaza":"","lat":35.894196,"lng":136.150533,"zip":"9150833"},{"town":"芝原一丁目","koaza":"","lat":35.918013,"lng":136.162154,"zip":"9150805"},{"town":"芝原二丁目","koaza":"","lat":35.921036,"lng":136.163658,"zip":"9150805"},{"town":"芝原三丁目","koaza":"","lat":35.917023,"lng":136.157893,"zip":"9150805"},{"town":"芝原四丁目","koaza":"","lat":35.919488,"lng":136.159438,"zip":"9150805"},{"town":"芝原五丁目","koaza":"","lat":35.923176,"lng":136.162108,"zip":"9150805"},{"town":"島町","koaza":"","lat":35.910117,"lng":136.270685,"zip":"9150223"},{"town":"清水頭町","koaza":"","lat":35.892415,"lng":136.226597,"zip":"9150012"},{"town":"下太田町","koaza":"","lat":35.912343,"lng":136.150487,"zip":"9150881"},{"town":"下四目町","koaza":"","lat":35.903819,"lng":136.141922,"zip":"9150887"},{"town":"下中津原町","koaza":"","lat":35.861965,"lng":136.100618,"zip":"9151222"},{"town":"下平吹町","koaza":"","lat":35.869635,"lng":136.178739,"zip":"9150855"},{"town":"下別所町","koaza":"","lat":35.85008,"lng":136.088779,"zip":"9151224"},{"town":"庄町","koaza":"","lat":35.905965,"lng":136.199019,"zip":"9150093"},{"town":"庄田町","koaza":"","lat":35.885601,"lng":136.20585,"zip":"9150043"},{"town":"菖蒲谷町","koaza":"","lat":35.881432,"lng":136.045014,"zip":"9151233"},{"town":"勝蓮花町","koaza":"","lat":35.880872,"lng":136.085757,"zip":"9151214"},{"town":"四郎丸町","koaza":"","lat":35.869575,"lng":136.163687,"zip":"9150857"},{"town":"白崎町","koaza":"","lat":35.867744,"lng":136.148474,"zip":"9150876"},{"town":"新在家町","koaza":"","lat":35.911618,"lng":136.245873,"zip":"9150232"},{"town":"新町","koaza":"","lat":35.903742,"lng":136.152908,"zip":"9150883"},{"town":"新堂町","koaza":"","lat":35.942077,"lng":136.236593,"zip":"9150255"},{"town":"新保一丁目","koaza":"","lat":35.910661,"lng":136.156382,"zip":"9150804"},{"town":"新保二丁目","koaza":"","lat":35.913688,"lng":136.15614,"zip":"9150804"},{"town":"新保町","koaza":"","lat":35.911447,"lng":136.153671,"zip":"9150804"},{"town":"神明町","koaza":"","lat":35.898787,"lng":136.167347,"zip":"9150066"},{"town":"杉尾町","koaza":"","lat":35.915228,"lng":136.257945,"zip":"9150221"},{"town":"杉崎町","koaza":"","lat":35.900428,"lng":136.204889,"zip":"9150006"},{"town":"菅町","koaza":"","lat":35.863119,"lng":136.049108,"zip":"9151235"},{"town":"住吉町","koaza":"","lat":35.898633,"lng":136.169708,"zip":"9150067"},{"town":"千合谷町","koaza":"","lat":35.890143,"lng":136.032914,"zip":"9151231"},{"town":"千福町","koaza":"","lat":35.889281,"lng":136.154787,"zip":"9150846"},{"town":"曽原町","koaza":"","lat":35.912951,"lng":136.056876,"zip":"9151241"},{"town":"高岡町","koaza":"","lat":35.932731,"lng":136.26234,"zip":"9150262"},{"town":"高木町","koaza":"","lat":35.924319,"lng":136.195595,"zip":"9150091"},{"town":"高瀬一丁目","koaza":"","lat":35.895461,"lng":136.157765,"zip":"9150832"},{"town":"高瀬二丁目","koaza":"","lat":35.899157,"lng":136.158226,"zip":"9150832"},{"town":"高森町","koaza":"","lat":35.906123,"lng":136.139629,"zip":"9150888"},{"town":"武生柳町","koaza":"","lat":35.895785,"lng":136.165048,"zip":"9150824"},{"town":"千原町","koaza":"","lat":35.908509,"lng":136.238175,"zip":"9150243"},{"town":"中央一丁目","koaza":"","lat":35.901183,"lng":136.158074,"zip":"9150814"},{"town":"中央二丁目","koaza":"","lat":35.902627,"lng":136.156725,"zip":"9150814"},{"town":"長五町","koaza":"","lat":35.90815,"lng":136.2788,"zip":"9150223"},{"town":"塚町","koaza":"","lat":35.913628,"lng":136.196429,"zip":"9150092"},{"town":"塚原町","koaza":"","lat":35.8697,"lng":136.155164,"zip":"9150875"},{"town":"月見町","koaza":"","lat":35.878092,"lng":136.16197,"zip":"9150843"},{"town":"土山町","koaza":"","lat":35.87541,"lng":136.043752,"zip":"9151234"},{"town":"常久町","koaza":"","lat":35.886239,"lng":136.163916,"zip":"9150842"},{"town":"寺地町","koaza":"","lat":35.935398,"lng":136.28967,"zip":"9150204"},{"town":"天王町","koaza":"","lat":35.900667,"lng":136.167424,"zip":"9150068"},{"town":"戸谷町","koaza":"","lat":35.919332,"lng":136.222942,"zip":"9150003"},{"town":"轟井町","koaza":"","lat":35.911771,"lng":136.264295,"zip":"9150222"},{"town":"殿町","koaza":"","lat":35.919333,"lng":136.270395,"zip":"9150219"},{"town":"都辺町","koaza":"","lat":35.888387,"lng":136.054142,"zip":"9151204"},{"town":"中居町","koaza":"","lat":35.883676,"lng":136.295916,"zip":"9150034"},{"town":"中印町","koaza":"","lat":35.894721,"lng":136.272986,"zip":"9150227"},{"town":"長尾町","koaza":"","lat":35.921671,"lng":136.218048,"zip":"9150002"},{"town":"中新庄町","koaza":"","lat":35.92701,"lng":136.213812,"zip":"9150001"},{"town":"長谷町","koaza":"","lat":35.926304,"lng":136.281449,"zip":"9150212"},{"town":"中津原町","koaza":"","lat":35.852317,"lng":136.107457,"zip":"9151223"},{"town":"中津山町","koaza":"","lat":35.92853,"lng":136.234042,"zip":"9150253"},{"town":"長土呂町","koaza":"","lat":35.918612,"lng":136.189955,"zip":"9150097"},{"town":"中野町","koaza":"","lat":35.893059,"lng":136.05006,"zip":"9151246"},{"town":"中平吹町","koaza":"","lat":35.861109,"lng":136.18913,"zip":"9150856"},{"town":"中山町","koaza":"","lat":35.858026,"lng":136.063805,"zip":"9151226"},{"town":"波垣町","koaza":"","lat":35.933649,"lng":136.284176,"zip":"9150205"},{"town":"畷町","koaza":"","lat":35.887365,"lng":136.166039,"zip":"9150851"},{"town":"二階堂町","koaza":"","lat":35.887283,"lng":136.045469,"zip":"9151232"},{"town":"西尾町","koaza":"","lat":35.890008,"lng":136.216165,"zip":"9150014"},{"town":"西樫尾町","koaza":"","lat":35.915361,"lng":136.229222,"zip":"9150244"},{"town":"錦町","koaza":"","lat":35.902557,"lng":136.172645,"zip":"9150073"},{"town":"西河内町","koaza":"","lat":35.927119,"lng":136.322549,"zip":"9150201"},{"town":"西庄境町","koaza":"","lat":35.932987,"lng":136.247436,"zip":"9150252"},{"town":"西谷町","koaza":"","lat":35.877321,"lng":136.192476,"zip":"9150046"},{"town":"丹生郷町","koaza":"","lat":35.909184,"lng":136.141476,"zip":"9150894"},{"town":"野岡町","koaza":"","lat":35.92655,"lng":136.251006,"zip":"9150264"},{"town":"野上町一丁目","koaza":"","lat":35.899992,"lng":136.149666,"zip":"9150836"},{"town":"野上町二丁目","koaza":"","lat":35.898321,"lng":136.149499,"zip":"9150836"},{"town":"野上町三丁目","koaza":"","lat":35.900154,"lng":136.147864,"zip":"9150836"},{"town":"萩原町","koaza":"","lat":35.895518,"lng":136.054855,"zip":"9151205"},{"town":"余田町","koaza":"","lat":35.933036,"lng":136.146406,"zip":"9150891"},{"town":"馬上免町","koaza":"","lat":35.917136,"lng":136.18569,"zip":"9150081"},{"town":"畑町","koaza":"","lat":35.879578,"lng":136.178263,"zip":"9150055"},{"town":"八石町","koaza":"","lat":35.902485,"lng":136.280443,"zip":"9150224"},{"town":"八幡一丁目","koaza":"","lat":35.911706,"lng":136.175407,"zip":"9150085"},{"town":"八幡二丁目","koaza":"","lat":35.915851,"lng":136.177026,"zip":"9150085"},{"town":"春山町","koaza":"","lat":35.932824,"lng":136.278742,"zip":"9150206"},{"town":"万代町","koaza":"","lat":35.906814,"lng":136.171722,"zip":"9150072"},{"town":"桧尾谷町","koaza":"","lat":35.881941,"lng":136.251304,"zip":"9150000"},{"town":"東樫尾町","koaza":"","lat":35.940082,"lng":136.280831,"zip":"9150207"},{"town":"東庄境町","koaza":"","lat":35.937509,"lng":136.253127,"zip":"9150251"},{"town":"東千福町","koaza":"","lat":35.890928,"lng":136.15805,"zip":"9150847"},{"town":"氷坂町","koaza":"","lat":35.928087,"lng":136.13889,"zip":"9150892"},{"town":"日野美一丁目","koaza":"","lat":35.899584,"lng":136.154969,"zip":"9150831"},{"town":"日野美二丁目","koaza":"","lat":35.899485,"lng":136.153948,"zip":"9150831"},{"town":"姫川一丁目","koaza":"","lat":35.890681,"lng":136.169095,"zip":"9150062"},{"town":"姫川二丁目","koaza":"","lat":35.894624,"lng":136.171111,"zip":"9150062"},{"town":"平出一丁目","koaza":"","lat":35.907986,"lng":136.160086,"zip":"9150803"},{"town":"平出二丁目","koaza":"","lat":35.911496,"lng":136.160766,"zip":"9150803"},{"town":"平出三丁目","koaza":"","lat":35.915824,"lng":136.161007,"zip":"9150803"},{"town":"平林町","koaza":"","lat":35.884063,"lng":136.199566,"zip":"9150044"},{"town":"広瀬町","koaza":"","lat":35.877729,"lng":136.119876,"zip":"9150872"},{"town":"深草一丁目","koaza":"","lat":35.903532,"lng":136.160134,"zip":"9150815"},{"town":"深草二丁目","koaza":"","lat":35.906073,"lng":136.160942,"zip":"9150815"},{"town":"藤木町","koaza":"","lat":35.933567,"lng":136.266471,"zip":"9150209"},{"town":"富士見が丘一丁目","koaza":"","lat":35.872686,"lng":136.168567,"zip":"9150854"},{"town":"富士見が丘二丁目","koaza":"","lat":35.872483,"lng":136.170658,"zip":"9150854"},{"town":"府中一丁目","koaza":"","lat":35.902913,"lng":136.169778,"zip":"9150071"},{"town":"府中二丁目","koaza":"","lat":35.905284,"lng":136.169583,"zip":"9150071"},{"town":"府中三丁目","koaza":"","lat":35.907878,"lng":136.16958,"zip":"9150071"},{"town":"文室町","koaza":"","lat":35.86297,"lng":136.253159,"zip":"9150036"},{"town":"文京一丁目","koaza":"","lat":35.890566,"lng":136.161944,"zip":"9150841"},{"town":"文京二丁目","koaza":"","lat":35.893815,"lng":136.161394,"zip":"9150841"},{"town":"平和町","koaza":"","lat":35.899076,"lng":136.162592,"zip":"9150827"},{"town":"別印町","koaza":"","lat":35.890525,"lng":136.306783,"zip":"9150225"},{"town":"蓬莱町","koaza":"","lat":35.902363,"lng":136.166999,"zip":"9150074"},{"town":"仏谷町","koaza":"","lat":35.872235,"lng":136.058434,"zip":"9151212"},{"town":"帆山町","koaza":"","lat":35.895021,"lng":136.178104,"zip":"9150051"},{"town":"堀川町","koaza":"","lat":35.899318,"lng":136.172869,"zip":"9150061"},{"town":"堀町","koaza":"","lat":35.881697,"lng":136.051797,"zip":"9151211"},{"town":"本多一丁目","koaza":"","lat":35.905764,"lng":136.163169,"zip":"9150811"},{"town":"本多二丁目","koaza":"","lat":35.907873,"lng":136.165249,"zip":"9150811"},{"town":"本多三丁目","koaza":"","lat":35.907937,"lng":136.163557,"zip":"9150811"},{"town":"本保町","koaza":"","lat":35.928917,"lng":136.158738,"zip":"9150806"},{"town":"本町","koaza":"","lat":35.899091,"lng":136.165075,"zip":"9150823"},{"town":"真柄町","koaza":"","lat":35.902704,"lng":136.211169,"zip":"9150005"},{"town":"牧町","koaza":"","lat":35.901604,"lng":136.047503,"zip":"9151244"},{"town":"松森町","koaza":"","lat":35.882824,"lng":136.165634,"zip":"9150852"},{"town":"丸岡町","koaza":"","lat":35.876096,"lng":136.069586,"zip":"9151213"},{"town":"水間町","koaza":"","lat":35.91309,"lng":136.283434,"zip":"9150217"},{"town":"三ツ口町","koaza":"","lat":35.887003,"lng":136.158026,"zip":"9150845"},{"town":"三ツ俣町","koaza":"","lat":35.90808,"lng":136.126752,"zip":"9150895"},{"town":"三ツ屋町","koaza":"","lat":35.918523,"lng":136.205249,"zip":"9150007"},{"town":"南一丁目","koaza":"","lat":35.889744,"lng":136.165434,"zip":"9150825"},{"town":"南二丁目","koaza":"","lat":35.89162,"lng":136.165834,"zip":"9150825"},{"town":"南三丁目","koaza":"","lat":35.893178,"lng":136.16506,"zip":"9150825"},{"town":"南小山町","koaza":"","lat":35.89463,"lng":136.241825,"zip":"9150022"},{"town":"南坂下町","koaza":"","lat":35.894016,"lng":136.294874,"zip":"9150226"},{"town":"南中町","koaza":"","lat":35.921279,"lng":136.279919,"zip":"9150213"},{"town":"蓑脇町","koaza":"","lat":35.881303,"lng":136.261759,"zip":"9150033"},{"town":"宮谷町","koaza":"","lat":35.881806,"lng":136.217527,"zip":"9150013"},{"town":"御幸町","koaza":"","lat":35.895697,"lng":136.162815,"zip":"9150826"},{"town":"妙法寺町","koaza":"","lat":35.878871,"lng":136.156997,"zip":"9150844"},{"town":"向新保町","koaza":"","lat":35.878141,"lng":136.171558,"zip":"9150056"},{"town":"向が丘町","koaza":"","lat":35.893399,"lng":136.136926,"zip":"9150871"},{"town":"村国一丁目","koaza":"","lat":35.90335,"lng":136.177259,"zip":"9150084"},{"town":"村国二丁目","koaza":"","lat":35.906078,"lng":136.176407,"zip":"9150084"},{"town":"村国三丁目","koaza":"","lat":35.910907,"lng":136.180825,"zip":"9150084"},{"town":"村国四丁目","koaza":"","lat":35.915404,"lng":136.181725,"zip":"9150084"},{"town":"村国町","koaza":"","lat":35.902287,"lng":136.181738,"zip":"9150000"},{"town":"室谷町","koaza":"","lat":35.927881,"lng":136.266693,"zip":"9150211"},{"town":"元町","koaza":"","lat":35.901003,"lng":136.164882,"zip":"9150822"},{"town":"森久町","koaza":"","lat":35.834539,"lng":136.15215,"zip":"9150865"},{"town":"安戸町","koaza":"","lat":35.872001,"lng":136.036846,"zip":"9151235"},{"town":"柳元町","koaza":"","lat":35.913903,"lng":136.297527,"zip":"9150215"},{"town":"矢放町","koaza":"","lat":35.889433,"lng":136.184356,"zip":"9150052"},{"town":"矢船町","koaza":"","lat":35.888157,"lng":136.174488,"zip":"9150057"},{"town":"山室町","koaza":"","lat":35.924233,"lng":136.257223,"zip":"9150263"},{"town":"行松町","koaza":"","lat":35.877889,"lng":136.165499,"zip":"9150853"},{"town":"豊町","koaza":"","lat":35.896215,"lng":136.169148,"zip":"9150065"},{"town":"湯谷町","koaza":"","lat":35.854595,"lng":136.077595,"zip":"9151225"},{"town":"余川町","koaza":"","lat":35.886304,"lng":136.241554,"zip":"9150031"},{"town":"横市町","koaza":"","lat":35.908894,"lng":136.195275,"zip":"9150094"},{"town":"横住町","koaza":"","lat":35.931322,"lng":136.300721,"zip":"9150203"},{"town":"横根町","koaza":"","lat":35.911951,"lng":136.128902,"zip":"9150896"},{"town":"領家町","koaza":"","lat":35.935754,"lng":136.272344,"zip":"9150208"},{"town":"若須町","koaza":"","lat":35.897777,"lng":136.039485,"zip":"9151245"},{"town":"若竹町","koaza":"","lat":35.893754,"lng":136.167605,"zip":"9150063"},{"town":"若松町","koaza":"","lat":35.901086,"lng":136.162107,"zip":"9150821"},{"town":"行松町","koaza":"一丁目","lat":35.87913,"lng":136.166895,"zip":"9150853"},{"town":"家久町","koaza":"一丁目","lat":35.930842,"lng":136.168165,"zip":"9150801"},{"town":"家久町","koaza":"二丁目","lat":35.931845,"lng":136.169835,"zip":"9150801"},{"town":"行松町","koaza":"二丁目","lat":35.878129,"lng":136.167247,"zip":"9150853"},{"town":"上真柄町","koaza":"宮谷入会地","lat":35.886163,"lng":136.220111,"zip":"9150011"}]