[{"town":"旭町一丁目","koaza":"","lat":35.944274,"lng":136.187465,"zip":"9160025"},{"town":"旭町二丁目","koaza":"","lat":35.945699,"lng":136.187509,"zip":"9160025"},{"town":"旭町三丁目","koaza":"","lat":35.947122,"lng":136.187507,"zip":"9160025"},{"town":"旭町四丁目","koaza":"","lat":35.948836,"lng":136.187583,"zip":"9160025"},{"town":"莇生田町","koaza":"","lat":35.945339,"lng":136.278342,"zip":"9161224"},{"town":"有定町一丁目","koaza":"","lat":35.944858,"lng":136.177645,"zip":"9160057"},{"town":"有定町二丁目","koaza":"","lat":35.944662,"lng":136.174507,"zip":"9160057"},{"town":"有定町三丁目","koaza":"","lat":35.949132,"lng":136.174542,"zip":"9160057"},{"town":"石田上町","koaza":"","lat":35.976123,"lng":136.162383,"zip":"9160083"},{"town":"石田下町","koaza":"","lat":35.982965,"lng":136.156505,"zip":"9160081"},{"town":"石田中町","koaza":"","lat":35.975215,"lng":136.153961,"zip":"9160082"},{"town":"石生谷町","koaza":"","lat":35.940027,"lng":136.133093,"zip":"9160076"},{"town":"磯部町","koaza":"","lat":35.958641,"lng":136.239968,"zip":"9161114"},{"town":"入町","koaza":"","lat":35.994702,"lng":136.170549,"zip":"9160008"},{"town":"漆原町","koaza":"","lat":35.941368,"lng":136.143989,"zip":"9160075"},{"town":"大倉町","koaza":"","lat":35.963516,"lng":136.157035,"zip":"9160085"},{"town":"大野町","koaza":"","lat":35.973513,"lng":136.233011,"zip":"9161102"},{"town":"落井町","koaza":"","lat":35.95353,"lng":136.234414,"zip":"9161115"},{"town":"乙坂今北町","koaza":"","lat":35.960864,"lng":136.230329,"zip":"9161104"},{"town":"尾花町","koaza":"","lat":35.952787,"lng":136.296954,"zip":"9161233"},{"town":"片山町","koaza":"","lat":35.949864,"lng":136.276703,"zip":"9161223"},{"town":"金谷町","koaza":"","lat":35.965262,"lng":136.284648,"zip":"9161231"},{"town":"上氏家町","koaza":"","lat":35.939552,"lng":136.157293,"zip":"9160066"},{"town":"上河内町","koaza":"","lat":35.946675,"lng":136.308042,"zip":"9161235"},{"town":"上河端町","koaza":"","lat":35.95712,"lng":136.198888,"zip":"9160037"},{"town":"上鯖江一丁目","koaza":"","lat":35.937181,"lng":136.17818,"zip":"9160055"},{"town":"上鯖江二丁目","koaza":"","lat":35.934819,"lng":136.17757,"zip":"9160055"},{"town":"上鯖江町","koaza":"","lat":35.928165,"lng":136.17752,"zip":"9160055"},{"town":"上戸口町","koaza":"","lat":35.970093,"lng":136.253865,"zip":"9161111"},{"town":"神中町一丁目","koaza":"","lat":35.970858,"lng":136.196982,"zip":"9160016"},{"town":"神中町二丁目","koaza":"","lat":35.97216,"lng":136.19221,"zip":"9160016"},{"town":"神中町三丁目","koaza":"","lat":35.973472,"lng":136.187464,"zip":"9160016"},{"town":"上野田町","koaza":"","lat":35.939734,"lng":136.151921,"zip":"9160074"},{"town":"川去町","koaza":"","lat":35.970339,"lng":136.144298,"zip":"9160088"},{"town":"川島町","koaza":"","lat":35.947112,"lng":136.231692,"zip":"9161116"},{"town":"河和田町","koaza":"","lat":35.947717,"lng":136.267981,"zip":"9161222"},{"town":"北中町","koaza":"","lat":35.953945,"lng":136.281798,"zip":"9161237"},{"town":"北野町","koaza":"","lat":35.966909,"lng":136.172499,"zip":"9160029"},{"town":"北野町一丁目","koaza":"","lat":35.963643,"lng":136.178319,"zip":"9160029"},{"town":"北野町二丁目","koaza":"","lat":35.966791,"lng":136.178118,"zip":"9160029"},{"town":"熊田町","koaza":"","lat":35.950833,"lng":136.168579,"zip":"9160062"},{"town":"下司町","koaza":"","lat":35.939068,"lng":136.170835,"zip":"9160064"},{"town":"小泉町","koaza":"","lat":35.969996,"lng":136.159447,"zip":"9160084"},{"town":"小黒町","koaza":"","lat":35.953891,"lng":136.180701,"zip":"9160028"},{"town":"小黒町一丁目","koaza":"","lat":35.953976,"lng":136.176967,"zip":"9160028"},{"town":"小黒町二丁目","koaza":"","lat":35.951618,"lng":136.17434,"zip":"9160028"},{"town":"小黒町三丁目","koaza":"","lat":35.955961,"lng":136.173239,"zip":"9160028"},{"town":"五郎丸町","koaza":"","lat":35.93595,"lng":136.192424,"zip":"9160044"},{"town":"幸町一丁目","koaza":"","lat":35.974181,"lng":136.181133,"zip":"9160018"},{"town":"幸町二丁目","koaza":"","lat":35.977018,"lng":136.180471,"zip":"9160018"},{"town":"桜町一丁目","koaza":"","lat":35.94594,"lng":136.182661,"zip":"9160027"},{"town":"桜町二丁目","koaza":"","lat":35.94778,"lng":136.180062,"zip":"9160027"},{"town":"桜町三丁目","koaza":"","lat":35.948714,"lng":136.182612,"zip":"9160027"},{"town":"定次町","koaza":"","lat":35.935173,"lng":136.197162,"zip":"9160043"},{"town":"沢町","koaza":"","lat":35.949087,"lng":136.301318,"zip":"9161234"},{"town":"三六町一丁目","koaza":"","lat":35.970399,"lng":136.178142,"zip":"9160021"},{"town":"三六町二丁目","koaza":"","lat":35.973258,"lng":136.178462,"zip":"9160021"},{"town":"寺中町","koaza":"","lat":35.957652,"lng":136.289667,"zip":"9161232"},{"town":"四方谷町","koaza":"","lat":35.978295,"lng":136.220627,"zip":"9161106"},{"town":"持明寺町","koaza":"","lat":35.960739,"lng":136.145986,"zip":"9160071"},{"town":"下氏家町","koaza":"","lat":35.947086,"lng":136.157219,"zip":"9160067"},{"town":"下河端町","koaza":"","lat":35.967658,"lng":136.197246,"zip":"9160038"},{"town":"下新庄町","koaza":"","lat":35.934806,"lng":136.213353,"zip":"9160034"},{"town":"下野田町","koaza":"","lat":35.947452,"lng":136.149131,"zip":"9160073"},{"town":"新町","koaza":"","lat":35.940463,"lng":136.203903,"zip":"9160035"},{"town":"神明町一丁目","koaza":"","lat":35.97034,"lng":136.181127,"zip":"9160017"},{"town":"神明町二丁目","koaza":"","lat":35.9733,"lng":136.184202,"zip":"9160017"},{"town":"神明町三丁目","koaza":"","lat":35.976374,"lng":136.184467,"zip":"9160017"},{"town":"神明町四丁目","koaza":"","lat":35.979234,"lng":136.185769,"zip":"9160017"},{"town":"神明町五丁目","koaza":"","lat":35.981911,"lng":136.187597,"zip":"9160017"},{"town":"新横江一丁目","koaza":"","lat":35.941021,"lng":136.194365,"zip":"9160042"},{"town":"新横江二丁目","koaza":"","lat":35.940921,"lng":136.19818,"zip":"9160042"},{"town":"杉本町","koaza":"","lat":35.982425,"lng":136.16925,"zip":"9160005"},{"town":"住吉町一丁目","koaza":"","lat":35.94207,"lng":136.181802,"zip":"9160056"},{"town":"住吉町二丁目","koaza":"","lat":35.939313,"lng":136.17862,"zip":"9160056"},{"town":"住吉町三丁目","koaza":"","lat":35.942003,"lng":136.178053,"zip":"9160056"},{"town":"大正寺町","koaza":"","lat":35.985337,"lng":136.232227,"zip":"9161101"},{"town":"糺町","koaza":"","lat":35.974722,"lng":136.172718,"zip":"9160004"},{"town":"田所町","koaza":"","lat":35.976804,"lng":136.178131,"zip":"9160003"},{"town":"田村町","koaza":"","lat":35.964117,"lng":136.149526,"zip":"9160087"},{"town":"長泉寺町","koaza":"","lat":35.952696,"lng":136.190776,"zip":"9160024"},{"town":"長泉寺町一丁目","koaza":"","lat":35.952118,"lng":136.186255,"zip":"9160024"},{"town":"長泉寺町二丁目","koaza":"","lat":35.954795,"lng":136.186509,"zip":"9160024"},{"town":"つつじケ丘町","koaza":"","lat":35.989545,"lng":136.184503,"zip":"9160011"},{"town":"当田町","koaza":"","lat":35.946605,"lng":136.162879,"zip":"9160065"},{"town":"戸口町","koaza":"","lat":35.950085,"lng":136.248358,"zip":"9161113"},{"town":"鳥羽一丁目","koaza":"","lat":35.985487,"lng":136.189144,"zip":"9160013"},{"town":"鳥羽二丁目","koaza":"","lat":35.988894,"lng":136.19077,"zip":"9160013"},{"town":"鳥羽三丁目","koaza":"","lat":35.987394,"lng":136.185505,"zip":"9160013"},{"town":"鳥羽町","koaza":"","lat":35.981939,"lng":136.199047,"zip":"9160014"},{"town":"鳥井町","koaza":"","lat":35.944267,"lng":136.169143,"zip":"9160063"},{"town":"南井町","koaza":"","lat":35.982757,"lng":136.225265,"zip":"9161107"},{"town":"中戸口町","koaza":"","lat":35.961306,"lng":136.251408,"zip":"9161112"},{"town":"中野町","koaza":"","lat":35.950263,"lng":136.214377,"zip":"9160033"},{"town":"西大井町","koaza":"","lat":35.958773,"lng":136.139064,"zip":"9160078"},{"town":"西番町","koaza":"","lat":35.992008,"lng":136.158043,"zip":"9160006"},{"town":"西袋町","koaza":"","lat":35.957233,"lng":136.275089,"zip":"9161221"},{"town":"西山町","koaza":"","lat":35.955786,"lng":136.183151,"zip":"9160023"},{"town":"二丁掛町","koaza":"","lat":35.954801,"lng":136.157306,"zip":"9160068"},{"town":"橋立町","koaza":"","lat":35.96993,"lng":136.209996,"zip":"9160031"},{"town":"東鯖江一丁目","koaza":"","lat":35.944813,"lng":136.195409,"zip":"9160041"},{"town":"東鯖江二丁目","koaza":"","lat":35.94895,"lng":136.195116,"zip":"9160041"},{"town":"東鯖江三丁目","koaza":"","lat":35.944848,"lng":136.198158,"zip":"9160041"},{"town":"東鯖江四丁目","koaza":"","lat":35.949125,"lng":136.197994,"zip":"9160041"},{"town":"東清水町","koaza":"","lat":35.95239,"lng":136.285054,"zip":"9161236"},{"town":"東米岡一丁目","koaza":"","lat":35.985566,"lng":136.183532,"zip":"9160012"},{"town":"東米岡二丁目","koaza":"","lat":35.986465,"lng":136.182284,"zip":"9160012"},{"town":"日の出町","koaza":"","lat":35.941043,"lng":136.187036,"zip":"9160053"},{"town":"平井町","koaza":"","lat":35.960755,"lng":136.16555,"zip":"9160061"},{"town":"深江町","koaza":"","lat":35.941811,"lng":136.184703,"zip":"9160052"},{"town":"冬島町","koaza":"","lat":35.956199,"lng":136.149322,"zip":"9160072"},{"town":"舟枝町","koaza":"","lat":35.962584,"lng":136.212032,"zip":"9160032"},{"town":"舟津町一丁目","koaza":"","lat":35.937009,"lng":136.186221,"zip":"9160054"},{"town":"舟津町二丁目","koaza":"","lat":35.938404,"lng":136.182785,"zip":"9160054"},{"town":"舟津町三丁目","koaza":"","lat":35.936747,"lng":136.181689,"zip":"9160054"},{"town":"舟津町四丁目","koaza":"","lat":35.93327,"lng":136.182122,"zip":"9160054"},{"town":"舟津町五丁目","koaza":"","lat":35.931756,"lng":136.177183,"zip":"9160054"},{"town":"別司町","koaza":"","lat":35.948679,"lng":136.258113,"zip":"9161225"},{"town":"別所町","koaza":"","lat":35.973333,"lng":136.242531,"zip":"9161103"},{"town":"本町一丁目","koaza":"","lat":35.944401,"lng":136.185068,"zip":"9160026"},{"town":"本町二丁目","koaza":"","lat":35.946018,"lng":136.184813,"zip":"9160026"},{"town":"本町三丁目","koaza":"","lat":35.947407,"lng":136.184738,"zip":"9160026"},{"town":"本町四丁目","koaza":"","lat":35.949021,"lng":136.184808,"zip":"9160026"},{"town":"松成町","koaza":"","lat":35.958466,"lng":136.223938,"zip":"9161118"},{"town":"丸山町一丁目","koaza":"","lat":35.979629,"lng":136.181068,"zip":"9160019"},{"town":"丸山町二丁目","koaza":"","lat":35.982534,"lng":136.182712,"zip":"9160019"},{"town":"丸山町三丁目","koaza":"","lat":35.981024,"lng":136.178015,"zip":"9160019"},{"town":"丸山町四丁目","koaza":"","lat":35.984065,"lng":136.179207,"zip":"9160019"},{"town":"三尾野出作町","koaza":"","lat":35.993822,"lng":136.163163,"zip":"9160007"},{"town":"水落町","koaza":"","lat":35.960387,"lng":136.191011,"zip":"9160022"},{"town":"水落町一丁目","koaza":"","lat":35.960073,"lng":136.179865,"zip":"9160022"},{"town":"水落町二丁目","koaza":"","lat":35.960928,"lng":136.185944,"zip":"9160022"},{"town":"水落町三丁目","koaza":"","lat":35.966726,"lng":136.183962,"zip":"9160022"},{"town":"水落町四丁目","koaza":"","lat":35.969738,"lng":136.184309,"zip":"9160022"},{"town":"宮前一丁目","koaza":"","lat":35.93745,"lng":136.189457,"zip":"9160045"},{"town":"宮前二丁目","koaza":"","lat":35.932948,"lng":136.187313,"zip":"9160045"},{"town":"御幸町一丁目","koaza":"","lat":35.977298,"lng":136.19753,"zip":"9160015"},{"town":"御幸町二丁目","koaza":"","lat":35.976816,"lng":136.191984,"zip":"9160015"},{"town":"御幸町三丁目","koaza":"","lat":35.980138,"lng":136.193421,"zip":"9160015"},{"town":"御幸町四丁目","koaza":"","lat":35.979501,"lng":136.189849,"zip":"9160015"},{"town":"屋形町","koaza":"","lat":35.943254,"lng":136.183678,"zip":"9160051"},{"town":"柳町一丁目","koaza":"","lat":35.944666,"lng":136.189881,"zip":"9160047"},{"town":"柳町二丁目","koaza":"","lat":35.948039,"lng":136.189759,"zip":"9160047"},{"town":"柳町三丁目","koaza":"","lat":35.944734,"lng":136.192637,"zip":"9160047"},{"town":"柳町四丁目","koaza":"","lat":35.948888,"lng":136.192284,"zip":"9160047"},{"town":"横江町一丁目","koaza":"","lat":35.941077,"lng":136.189981,"zip":"9160046"},{"town":"横江町二丁目","koaza":"","lat":35.941195,"lng":136.191889,"zip":"9160046"},{"town":"横越町","koaza":"","lat":35.946995,"lng":136.202686,"zip":"9160036"},{"town":"吉江町","koaza":"","lat":35.989088,"lng":136.173454,"zip":"9160001"},{"town":"吉田町","koaza":"","lat":35.959784,"lng":136.15649,"zip":"9160086"},{"town":"吉谷町","koaza":"","lat":35.969531,"lng":136.216628,"zip":"9161105"},{"town":"米岡町","koaza":"","lat":35.988044,"lng":136.179393,"zip":"9160002"},{"town":"和田町","koaza":"","lat":35.949025,"lng":136.136595,"zip":"9160077"}]