[{"town":"青葉一丁目","koaza":"","lat":38.929515,"lng":141.12729,"zip":"0210031"},{"town":"青葉二丁目","koaza":"","lat":38.931489,"lng":141.12848,"zip":"0210031"},{"town":"赤荻","koaza":"","lat":38.947564,"lng":141.091209,"zip":"0210041"},{"town":"字相去","koaza":"","lat":38.923678,"lng":141.139166,"zip":"0210000"},{"town":"字宇南","koaza":"","lat":38.927064,"lng":141.143248,"zip":"0210000"},{"town":"字柄貝","koaza":"","lat":38.925084,"lng":141.141862,"zip":"0210000"},{"town":"字北十軒街","koaza":"","lat":38.933627,"lng":141.141459,"zip":"0210000"},{"town":"字北ほうりょう","koaza":"","lat":38.931698,"lng":141.144976,"zip":"0210000"},{"town":"字久保","koaza":"","lat":38.933537,"lng":141.14742,"zip":"0210000"},{"town":"字桜街","koaza":"","lat":38.933095,"lng":141.140078,"zip":"0210000"},{"town":"字沢","koaza":"","lat":38.911005,"lng":141.145425,"zip":"0210000"},{"town":"字散田","koaza":"","lat":38.926652,"lng":141.144434,"zip":"0210000"},{"town":"字下大槻街","koaza":"","lat":38.932547,"lng":141.139792,"zip":"0210000"},{"town":"字吸川街","koaza":"","lat":38.928847,"lng":141.13985,"zip":"0210000"},{"town":"字台町","koaza":"","lat":38.918178,"lng":141.128374,"zip":"0210000"},{"town":"字反町","koaza":"","lat":38.926248,"lng":141.139255,"zip":"0210000"},{"town":"字釣山","koaza":"","lat":38.923059,"lng":141.128795,"zip":"0210000"},{"town":"字鳴神","koaza":"","lat":38.929004,"lng":141.143654,"zip":"0210000"},{"town":"字新山","koaza":"","lat":38.923011,"lng":141.136085,"zip":"0210000"},{"town":"字西沢","koaza":"","lat":38.922013,"lng":141.137766,"zip":"0210000"},{"town":"字二本木","koaza":"","lat":38.927923,"lng":141.142482,"zip":"0210000"},{"town":"字沼田","koaza":"","lat":38.928767,"lng":141.146048,"zip":"0210000"},{"town":"字機織山","koaza":"","lat":38.917846,"lng":141.137419,"zip":"0210000"},{"town":"字東花王町","koaza":"","lat":38.935094,"lng":141.139286,"zip":"0210000"},{"town":"旭町","koaza":"","lat":38.919748,"lng":141.133791,"zip":"0210864"},{"town":"字広街","koaza":"","lat":38.924419,"lng":141.131282,"zip":"0210000"},{"town":"字樋渡","koaza":"","lat":38.930535,"lng":141.146807,"zip":"0210000"},{"town":"字深町","koaza":"","lat":38.925895,"lng":141.13838,"zip":"0210000"},{"town":"字南十軒街","koaza":"","lat":38.932192,"lng":141.141443,"zip":"0210000"},{"town":"字南ほうりょう","koaza":"","lat":38.929833,"lng":141.143226,"zip":"0210000"},{"town":"字柳町","koaza":"","lat":38.927147,"lng":141.140774,"zip":"0210000"},{"town":"字要害","koaza":"","lat":38.934778,"lng":141.143105,"zip":"0210000"},{"town":"石畑","koaza":"","lat":38.937115,"lng":141.134944,"zip":"0210008"},{"town":"磐井町","koaza":"","lat":38.934662,"lng":141.134578,"zip":"0210894"},{"town":"駅前","koaza":"","lat":38.925328,"lng":141.136604,"zip":"0210867"},{"town":"大手町","koaza":"","lat":38.929429,"lng":141.134557,"zip":"0210884"},{"town":"大町","koaza":"","lat":38.928766,"lng":141.136491,"zip":"0210881"},{"town":"上大槻街","koaza":"","lat":38.928782,"lng":141.138057,"zip":"0210882"},{"town":"上日照","koaza":"","lat":38.939527,"lng":141.134675,"zip":"0210007"},{"town":"川崎町薄衣","koaza":"","lat":38.894741,"lng":141.289886,"zip":"0290202"},{"town":"川崎町門崎","koaza":"","lat":38.925543,"lng":141.25654,"zip":"0290201"},{"town":"川辺","koaza":"","lat":38.969129,"lng":141.141008,"zip":"0210000"},{"town":"厳美町","koaza":"","lat":38.98239,"lng":140.889024,"zip":"0210101"},{"town":"五十人町","koaza":"","lat":38.930522,"lng":141.141742,"zip":"0210804"},{"town":"狐禅寺","koaza":"","lat":38.934393,"lng":141.19902,"zip":"0290131"},{"town":"五代町","koaza":"","lat":38.935983,"lng":141.131807,"zip":"0210022"},{"town":"寿町","koaza":"","lat":38.932039,"lng":141.12308,"zip":"0210052"},{"town":"幸町","koaza":"","lat":38.930161,"lng":141.123046,"zip":"0210024"},{"town":"桜木町","koaza":"","lat":38.934356,"lng":141.137385,"zip":"0210891"},{"town":"三関","koaza":"","lat":38.923624,"lng":141.148364,"zip":"0210821"},{"town":"地主町","koaza":"","lat":38.932105,"lng":141.134339,"zip":"0210893"},{"town":"城内","koaza":"","lat":38.926984,"lng":141.130277,"zip":"0210877"},{"town":"上坊","koaza":"","lat":38.942486,"lng":141.13397,"zip":"0210006"},{"town":"新大町","koaza":"","lat":38.924856,"lng":141.134573,"zip":"0210883"},{"town":"新町","koaza":"","lat":38.955713,"lng":141.129175,"zip":"0210001"},{"town":"末広一丁目","koaza":"","lat":38.927235,"lng":141.125336,"zip":"0210032"},{"town":"末広二丁目","koaza":"","lat":38.926377,"lng":141.12059,"zip":"0210032"},{"town":"関が丘","koaza":"","lat":38.917934,"lng":141.145132,"zip":"0210851"},{"town":"千厩町磐清水","koaza":"","lat":38.940777,"lng":141.318575,"zip":"0290804"},{"town":"千厩町奥玉","koaza":"","lat":38.959032,"lng":141.3898,"zip":"0291111"},{"town":"千厩町清田","koaza":"","lat":38.928817,"lng":141.381207,"zip":"0290801"},{"town":"千厩町小梨","koaza":"","lat":38.894206,"lng":141.386745,"zip":"0290802"},{"town":"千厩町千厩","koaza":"","lat":38.919739,"lng":141.344747,"zip":"0290803"},{"town":"大東町大原","koaza":"","lat":39.045686,"lng":141.439002,"zip":"0290711"},{"town":"大東町沖田","koaza":"","lat":39.048676,"lng":141.335018,"zip":"0290603"},{"town":"大東町猿沢","koaza":"","lat":39.049524,"lng":141.29062,"zip":"0290431"},{"town":"大東町渋民","koaza":"","lat":39.020871,"lng":141.343766,"zip":"0290521"},{"town":"大東町摺沢","koaza":"","lat":38.982495,"lng":141.331584,"zip":"0290523"},{"town":"大東町曽慶","koaza":"","lat":38.989169,"lng":141.391264,"zip":"0290522"},{"town":"大東町鳥海","koaza":"","lat":39.091885,"lng":141.338638,"zip":"0290602"},{"town":"大東町中川","koaza":"","lat":39.099921,"lng":141.394598,"zip":"0290601"},{"town":"高崎町","koaza":"","lat":38.92254,"lng":141.130864,"zip":"0210875"},{"town":"滝沢","koaza":"","lat":38.906984,"lng":141.184711,"zip":"0290132"},{"town":"竹山町","koaza":"","lat":38.935514,"lng":141.126513,"zip":"0210027"},{"town":"田村町","koaza":"","lat":38.929959,"lng":141.13194,"zip":"0210885"},{"town":"中央町一丁目","koaza":"","lat":38.933778,"lng":141.130006,"zip":"0210021"},{"town":"中央町二丁目","koaza":"","lat":38.936165,"lng":141.129222,"zip":"0210021"},{"town":"千代田町","koaza":"","lat":38.913647,"lng":141.132542,"zip":"0210862"},{"town":"銅谷町","koaza":"","lat":38.932695,"lng":141.125425,"zip":"0210023"},{"town":"中里","koaza":"","lat":38.942815,"lng":141.146764,"zip":"0210005"},{"town":"萩荘","koaza":"","lat":38.911182,"lng":141.032568,"zip":"0210102"},{"town":"八幡町","koaza":"","lat":38.925177,"lng":141.13276,"zip":"0210871"},{"town":"花泉町老松","koaza":"","lat":38.828568,"lng":141.207892,"zip":"0293103"},{"town":"花泉町金沢","koaza":"","lat":38.866305,"lng":141.190108,"zip":"0293102"},{"town":"花泉町永井","koaza":"","lat":38.77644,"lng":141.22698,"zip":"0293206"},{"town":"花泉町花泉","koaza":"","lat":38.835731,"lng":141.151914,"zip":"0293101"},{"town":"花泉町日形","koaza":"","lat":38.831146,"lng":141.24191,"zip":"0293104"},{"town":"花泉町油島","koaza":"","lat":38.803706,"lng":141.162213,"zip":"0293207"},{"town":"花泉町涌津","koaza":"","lat":38.805404,"lng":141.202307,"zip":"0293105"},{"town":"東五代","koaza":"","lat":38.941697,"lng":141.131522,"zip":"0210003"},{"town":"東地主町","koaza":"","lat":38.931237,"lng":141.13861,"zip":"0210892"},{"town":"東台","koaza":"","lat":38.920281,"lng":141.161006,"zip":"0210822"},{"town":"東山町田河津","koaza":"","lat":39.032299,"lng":141.23573,"zip":"0290301"},{"town":"東山町長坂","koaza":"","lat":38.990593,"lng":141.261091,"zip":"0290302"},{"town":"東山町松川","koaza":"","lat":38.962426,"lng":141.255738,"zip":"0290303"},{"town":"藤沢町大籠","koaza":"","lat":38.800232,"lng":141.405908,"zip":"0293522"},{"town":"藤沢町黄海","koaza":"","lat":38.830865,"lng":141.292084,"zip":"0293311"},{"town":"藤沢町砂子田","koaza":"","lat":38.886875,"lng":141.356536,"zip":"0293403"},{"town":"藤沢町徳田","koaza":"","lat":38.867421,"lng":141.372789,"zip":"0293404"},{"town":"藤沢町新沼","koaza":"","lat":38.879519,"lng":141.342928,"zip":"0293402"},{"town":"藤沢町西口","koaza":"","lat":38.867255,"lng":141.314485,"zip":"0293406"},{"town":"藤沢町藤沢","koaza":"","lat":38.838733,"lng":141.34717,"zip":"0293405"},{"town":"藤沢町保呂羽","koaza":"","lat":38.845516,"lng":141.385268,"zip":"0293521"},{"town":"藤沢町増沢","koaza":"","lat":38.888804,"lng":141.32745,"zip":"0293401"},{"town":"舞川","koaza":"","lat":38.965234,"lng":141.187432,"zip":"0210221"},{"town":"真柴","koaza":"","lat":38.89879,"lng":141.135188,"zip":"0210901"},{"town":"町浦","koaza":"","lat":38.944399,"lng":141.132425,"zip":"0210004"},{"town":"南新町","koaza":"","lat":38.923706,"lng":141.135725,"zip":"0210866"},{"town":"南町","koaza":"","lat":38.915562,"lng":141.1312,"zip":"0210863"},{"town":"宮坂町","koaza":"","lat":38.92121,"lng":141.132526,"zip":"0210872"},{"town":"宮下町","koaza":"","lat":38.940851,"lng":141.127734,"zip":"0210013"},{"town":"宮前町","koaza":"","lat":38.93801,"lng":141.128168,"zip":"0210012"},{"town":"室根町折壁","koaza":"","lat":38.943683,"lng":141.469743,"zip":"0291201"},{"town":"室根町折壁一丁目","koaza":"","lat":38.937763,"lng":141.447371,"zip":"0291201"},{"town":"室根町折壁二丁目","koaza":"","lat":38.938146,"lng":141.450311,"zip":"0291201"},{"town":"室根町津谷川","koaza":"","lat":38.849312,"lng":141.431355,"zip":"0291211"},{"town":"室根町矢越","koaza":"","lat":38.91228,"lng":141.424479,"zip":"0291202"},{"town":"弥栄","koaza":"","lat":38.89234,"lng":141.238495,"zip":"0290211"},{"town":"山目","koaza":"","lat":38.938181,"lng":141.118392,"zip":"0210063"},{"town":"山目町一丁目","koaza":"","lat":38.944065,"lng":141.129255,"zip":"0210011"},{"town":"山目町二丁目","koaza":"","lat":38.94708,"lng":141.130268,"zip":"0210011"},{"town":"山目町三丁目","koaza":"","lat":38.95078,"lng":141.131174,"zip":"0210011"},{"town":"豊町","koaza":"","lat":38.931228,"lng":141.141746,"zip":"0210805"},{"town":"蘭梅町","koaza":"","lat":38.94362,"lng":141.126646,"zip":"0210014"},{"town":"厳美町","koaza":"上ノ台","lat":38.946986,"lng":141.037672,"zip":"0210101"},{"town":"厳美町","koaza":"樋ノ口","lat":38.948784,"lng":141.039326,"zip":"0210101"},{"town":"厳美町","koaza":"南滝ノ上","lat":38.944468,"lng":141.043857,"zip":"0210101"},{"town":"厳美町","koaza":"山口","lat":38.951804,"lng":141.043083,"zip":"0210101"},{"town":"厳美町","koaza":"鴻ノ巣","lat":38.941507,"lng":141.0497,"zip":"0210101"},{"town":"厳美町","koaza":"滝ノ上","lat":38.945888,"lng":141.046045,"zip":"0210101"},{"town":"厳美町","koaza":"笹辺良","lat":38.949105,"lng":141.045867,"zip":"0210101"},{"town":"厳美町","koaza":"舟卸","lat":38.936062,"lng":141.053963,"zip":"0210101"},{"town":"厳美町","koaza":"高田","lat":38.948297,"lng":141.048798,"zip":"0210101"},{"town":"厳美町","koaza":"水神木","lat":38.948472,"lng":141.057562,"zip":"0210101"},{"town":"厳美町","koaza":"沖野々","lat":38.944128,"lng":141.052999,"zip":"0210101"},{"town":"厳美町","koaza":"宿","lat":38.944439,"lng":141.056684,"zip":"0210101"},{"town":"萩荘","koaza":"下大桑","lat":38.919191,"lng":141.069961,"zip":"0210102"},{"town":"厳美町","koaza":"雨田","lat":38.941849,"lng":141.063259,"zip":"0210101"},{"town":"厳美町","koaza":"宝竜","lat":38.950618,"lng":141.073146,"zip":"0210101"},{"town":"厳美町","koaza":"上野","lat":38.939982,"lng":141.070178,"zip":"0210101"},{"town":"萩荘","koaza":"羽根橋","lat":38.914504,"lng":141.072099,"zip":"0210102"},{"town":"萩荘","koaza":"要害","lat":38.929706,"lng":141.079735,"zip":"0210102"},{"town":"萩荘","koaza":"梨木平","lat":38.914065,"lng":141.076898,"zip":"0210102"},{"town":"萩荘","koaza":"泉山","lat":38.911033,"lng":141.07765,"zip":"0210102"},{"town":"萩荘","koaza":"要害山田","lat":38.925458,"lng":141.076787,"zip":"0210102"},{"town":"萩荘","koaza":"雨堤","lat":38.909512,"lng":141.07392,"zip":"0210102"},{"town":"厳美町","koaza":"野崎","lat":38.936043,"lng":141.075395,"zip":"0210101"},{"town":"厳美町","koaza":"杭丁","lat":38.941113,"lng":141.07641,"zip":"0210101"},{"town":"赤荻","koaza":"豊料","lat":38.94905,"lng":141.077697,"zip":"0210041"},{"town":"赤荻","koaza":"福泉","lat":38.946974,"lng":141.07615,"zip":"0210041"},{"town":"萩荘","koaza":"奥倉","lat":38.908255,"lng":141.076347,"zip":"0210102"},{"town":"赤荻","koaza":"鬼吉","lat":38.938232,"lng":141.082649,"zip":"0210041"},{"town":"萩荘","koaza":"鹿込","lat":38.920157,"lng":141.077841,"zip":"0210102"},{"town":"萩荘","koaza":"大袋","lat":38.936045,"lng":141.079495,"zip":"0210102"},{"town":"萩荘","koaza":"大繋","lat":38.916535,"lng":141.081072,"zip":"0210102"},{"town":"萩荘","koaza":"古内","lat":38.927559,"lng":141.080457,"zip":"0210102"},{"town":"萩荘","koaza":"館下","lat":38.917896,"lng":141.089567,"zip":"0210102"},{"town":"萩荘","koaza":"川ノ上","lat":38.922103,"lng":141.080217,"zip":"0210102"},{"town":"萩荘","koaza":"西黒沢","lat":38.926169,"lng":141.084488,"zip":"0210102"},{"town":"萩荘","koaza":"大久保","lat":38.932624,"lng":141.082183,"zip":"0210102"},{"town":"赤荻","koaza":"雲南","lat":38.941711,"lng":141.083832,"zip":"0210041"},{"town":"萩荘","koaza":"下モ田","lat":38.921381,"lng":141.084483,"zip":"0210102"},{"town":"赤荻","koaza":"上台","lat":38.933711,"lng":141.088192,"zip":"0210041"},{"town":"萩荘","koaza":"野手倍","lat":38.927232,"lng":141.087307,"zip":"0210102"},{"town":"赤荻","koaza":"槻本","lat":38.937914,"lng":141.084878,"zip":"0210041"},{"town":"萩荘","koaza":"小繋","lat":38.91817,"lng":141.085649,"zip":"0210102"},{"town":"赤荻","koaza":"下袋","lat":38.932727,"lng":141.085483,"zip":"0210041"},{"town":"萩荘","koaza":"中島","lat":38.921773,"lng":141.088545,"zip":"0210102"},{"town":"萩荘","koaza":"谷起島西方","lat":38.924536,"lng":141.09044,"zip":"0210102"},{"town":"赤荻","koaza":"亀田","lat":38.940629,"lng":141.089316,"zip":"0210041"},{"town":"赤荻","koaza":"上袋","lat":38.935439,"lng":141.089606,"zip":"0210041"},{"town":"萩荘","koaza":"打ノ目","lat":38.91557,"lng":141.094677,"zip":"0210102"},{"town":"赤荻","koaza":"宿","lat":38.945945,"lng":141.094,"zip":"0210041"},{"town":"萩荘","koaza":"境ノ神","lat":38.919727,"lng":141.095376,"zip":"0210102"},{"town":"赤荻","koaza":"清水","lat":38.930478,"lng":141.09326,"zip":"0210041"},{"town":"赤荻","koaza":"荻野","lat":38.934517,"lng":141.095604,"zip":"0210041"},{"town":"萩荘","koaza":"鈴ケ沢","lat":38.912375,"lng":141.09442,"zip":"0210102"},{"town":"萩荘","koaza":"谷起島南方","lat":38.924121,"lng":141.09682,"zip":"0210102"},{"town":"赤荻","koaza":"桜町","lat":38.939352,"lng":141.09655,"zip":"0210041"},{"town":"萩荘","koaza":"谷起島北方","lat":38.926157,"lng":141.097185,"zip":"0210102"},{"town":"赤荻","koaza":"松木","lat":38.929418,"lng":141.098746,"zip":"0210041"},{"town":"赤荻","koaza":"鶴巻","lat":38.936547,"lng":141.102298,"zip":"0210041"},{"town":"萩荘","koaza":"松ケ沢","lat":38.914895,"lng":141.09838,"zip":"0210102"},{"town":"赤荻","koaza":"宮田","lat":38.942302,"lng":141.0999,"zip":"0210041"},{"town":"萩荘","koaza":"上中田","lat":38.916599,"lng":141.101184,"zip":"0210102"},{"town":"赤荻","koaza":"月町","lat":38.940424,"lng":141.102998,"zip":"0210041"},{"town":"赤荻","koaza":"口袋","lat":38.926862,"lng":141.102031,"zip":"0210041"},{"town":"赤荻","koaza":"上谷地","lat":38.934147,"lng":141.101998,"zip":"0210041"},{"town":"萩荘","koaza":"鍋倉","lat":38.905451,"lng":141.114436,"zip":"0210102"},{"town":"萩荘","koaza":"下モ下釜","lat":38.922932,"lng":141.101855,"zip":"0210102"},{"town":"萩荘","koaza":"西田","lat":38.914339,"lng":141.101498,"zip":"0210102"},{"town":"萩荘","koaza":"千ノ沢","lat":38.912446,"lng":141.102237,"zip":"0210102"},{"town":"萩荘","koaza":"江川南方","lat":38.912548,"lng":141.105745,"zip":"0210102"},{"town":"真柴","koaza":"柳沢","lat":38.901407,"lng":141.11212,"zip":"0210901"},{"town":"赤荻","koaza":"下谷地","lat":38.934228,"lng":141.106368,"zip":"0210041"},{"town":"赤荻","koaza":"野中","lat":38.931621,"lng":141.106724,"zip":"0210041"},{"town":"赤荻","koaza":"中条","lat":38.943091,"lng":141.106597,"zip":"0210041"},{"town":"萩荘","koaza":"高梨東","lat":38.921367,"lng":141.106375,"zip":"0210102"},{"town":"萩荘","koaza":"高梨北方","lat":38.926102,"lng":141.108564,"zip":"0210102"},{"town":"萩荘","koaza":"江川","lat":38.913386,"lng":141.108197,"zip":"0210102"},{"town":"萩荘","koaza":"砂子田","lat":38.920142,"lng":141.105787,"zip":"0210102"},{"town":"萩荘","koaza":"高梨南方","lat":38.923172,"lng":141.108979,"zip":"0210102"},{"town":"赤荻","koaza":"堺","lat":38.938199,"lng":141.107696,"zip":"0210041"},{"town":"山目","koaza":"館","lat":38.943528,"lng":141.117123,"zip":"0210063"},{"town":"山目","koaza":"沢内","lat":38.942346,"lng":141.115643,"zip":"0210063"},{"town":"萩荘","koaza":"釜ケ淵","lat":38.926089,"lng":141.110681,"zip":"0210102"},{"town":"萩荘","koaza":"白山田","lat":38.916847,"lng":141.108216,"zip":"0210102"},{"town":"萩荘","koaza":"金ケ崎","lat":38.921553,"lng":141.111449,"zip":"0210102"},{"town":"真柴","koaza":"藤後沢","lat":38.891547,"lng":141.112013,"zip":"0210901"},{"town":"萩荘","koaza":"下中田","lat":38.919634,"lng":141.108401,"zip":"0210102"},{"town":"萩荘","koaza":"山崎","lat":38.911645,"lng":141.112222,"zip":"0210102"},{"town":"萩荘","koaza":"袋田","lat":38.917003,"lng":141.108923,"zip":"0210102"},{"town":"山目","koaza":"境","lat":38.93444,"lng":141.110847,"zip":"0210063"},{"town":"山目","koaza":"立沢","lat":38.929845,"lng":141.112287,"zip":"0210063"},{"town":"山目","koaza":"泥田","lat":38.936832,"lng":141.112651,"zip":"0210063"},{"town":"萩荘","koaza":"竹際","lat":38.914842,"lng":141.11283,"zip":"0210102"},{"town":"山目","koaza":"才天","lat":38.932167,"lng":141.114148,"zip":"0210063"},{"town":"中里","koaza":"大平山","lat":38.950473,"lng":141.113588,"zip":"0210005"},{"town":"萩荘","koaza":"川崎","lat":38.919458,"lng":141.112842,"zip":"0210102"},{"town":"萩荘","koaza":"小萩","lat":38.923278,"lng":141.114052,"zip":"0210102"},{"town":"萩荘","koaza":"畑下","lat":38.917442,"lng":141.113546,"zip":"0210102"},{"town":"山目","koaza":"泥田山下","lat":38.939574,"lng":141.115063,"zip":"0210063"},{"town":"萩荘","koaza":"中町","lat":38.923975,"lng":141.114455,"zip":"0210102"},{"town":"山目","koaza":"中野","lat":38.934174,"lng":141.11514,"zip":"0210063"},{"town":"中里","koaza":"沢田","lat":38.953095,"lng":141.123679,"zip":"0210005"},{"town":"山目","koaza":"里前","lat":38.926623,"lng":141.118341,"zip":"0210063"},{"town":"萩荘","koaza":"大清水","lat":38.919975,"lng":141.11653,"zip":"0210102"},{"town":"山目","koaza":"十二神","lat":38.928933,"lng":141.116905,"zip":"0210063"},{"town":"真柴","koaza":"新山","lat":38.90595,"lng":141.121222,"zip":"0210901"},{"town":"萩荘","koaza":"駒下","lat":38.920746,"lng":141.118033,"zip":"0210102"},{"town":"萩荘","koaza":"本町","lat":38.922821,"lng":141.119004,"zip":"0210102"},{"town":"山目","koaza":"大槻","lat":38.936835,"lng":141.118323,"zip":"0210063"},{"town":"真柴","koaza":"八幡","lat":38.897613,"lng":141.127483,"zip":"0210901"},{"town":"真柴","koaza":"宮沢","lat":38.912408,"lng":141.123814,"zip":"0210901"},{"town":"真柴","koaza":"祈祷沢","lat":38.885937,"lng":141.121704,"zip":"0210901"},{"town":"山目","koaza":"三反田","lat":38.93245,"lng":141.119983,"zip":"0210063"},{"town":"萩荘","koaza":"箱清水","lat":38.920822,"lng":141.120273,"zip":"0210102"},{"town":"山目","koaza":"寺前","lat":38.93631,"lng":141.122566,"zip":"0210063"},{"town":"山目","koaza":"向野","lat":38.930567,"lng":141.121294,"zip":"0210063"},{"town":"萩荘","koaza":"脇田郷","lat":38.923925,"lng":141.12436,"zip":"0210102"},{"town":"山目","koaza":"前田","lat":38.93457,"lng":141.12309,"zip":"0210063"},{"town":"真柴","koaza":"原下","lat":38.90481,"lng":141.12897,"zip":"0210901"},{"town":"真柴","koaza":"千刈田","lat":38.912293,"lng":141.130116,"zip":"0210901"},{"town":"真柴","koaza":"川戸","lat":38.898671,"lng":141.130201,"zip":"0210901"},{"town":"真柴","koaza":"中田","lat":38.905956,"lng":141.137454,"zip":"0210901"},{"town":"真柴","koaza":"蒲沢","lat":38.902593,"lng":141.136053,"zip":"0210901"},{"town":"中里","koaza":"南白幡","lat":38.939172,"lng":141.138354,"zip":"0210005"},{"town":"三関","koaza":"神田","lat":38.922934,"lng":141.144776,"zip":"0210821"},{"town":"三関","koaza":"小沢","lat":38.918026,"lng":141.148899,"zip":"0210821"},{"town":"中里","koaza":"雲南","lat":38.93971,"lng":141.143285,"zip":"0210005"},{"town":"真柴","koaza":"堀場","lat":38.899032,"lng":141.145159,"zip":"0210901"},{"town":"中里","koaza":"照井","lat":38.937581,"lng":141.145455,"zip":"0210005"},{"town":"中里","koaza":"神明","lat":38.940689,"lng":141.147665,"zip":"0210005"},{"town":"三関","koaza":"日照","lat":38.927984,"lng":141.149078,"zip":"0210821"},{"town":"中里","koaza":"舟場","lat":38.936574,"lng":141.149362,"zip":"0210005"},{"town":"三関","koaza":"外谷起","lat":38.932875,"lng":141.149432,"zip":"0210821"},{"town":"中里","koaza":"在家","lat":38.938129,"lng":141.148533,"zip":"0210005"},{"town":"三関","koaza":"仲田","lat":38.926416,"lng":141.151265,"zip":"0210821"},{"town":"真柴","koaza":"中屋敷","lat":38.90153,"lng":141.153566,"zip":"0210901"},{"town":"三関","koaza":"白崎","lat":38.925066,"lng":141.153684,"zip":"0210821"},{"town":"三関","koaza":"桜町","lat":38.930092,"lng":141.152501,"zip":"0210821"},{"town":"中里","koaza":"石川瀬","lat":38.939589,"lng":141.150529,"zip":"0210005"},{"town":"中里","koaza":"上大林","lat":38.94232,"lng":141.151934,"zip":"0210005"},{"town":"中里","koaza":"荒谷","lat":38.938509,"lng":141.152557,"zip":"0210005"},{"town":"狐禅寺","koaza":"石ノ瀬","lat":38.939264,"lng":141.156171,"zip":"0290131"},{"town":"真柴","koaza":"矢ノ目沢","lat":38.908802,"lng":141.155487,"zip":"0210901"},{"town":"中里","koaza":"南谷起","lat":38.930897,"lng":141.156304,"zip":"0210005"},{"town":"滝沢","koaza":"矢ノ目沢","lat":38.912066,"lng":141.16401,"zip":"0290132"},{"town":"真柴","koaza":"細田","lat":38.901134,"lng":141.157111,"zip":"0210901"},{"town":"狐禅寺","koaza":"八郎沢","lat":38.929334,"lng":141.161511,"zip":"0290131"},{"town":"滝沢","koaza":"鶴ケ沢","lat":38.905794,"lng":141.163521,"zip":"0290132"},{"town":"三関","koaza":"外山","lat":38.92787,"lng":141.161182,"zip":"0210821"},{"town":"真柴","koaza":"鹿込","lat":38.902567,"lng":141.159804,"zip":"0210901"},{"town":"滝沢","koaza":"水口","lat":38.912807,"lng":141.171041,"zip":"0290132"},{"town":"狐禅寺","koaza":"久田","lat":38.934877,"lng":141.164429,"zip":"0290131"},{"town":"狐禅寺","koaza":"手負沢","lat":38.933899,"lng":141.166007,"zip":"0290131"},{"town":"狐禅寺","koaza":"谷地田","lat":38.936886,"lng":141.164014,"zip":"0290131"},{"town":"滝沢","koaza":"町田","lat":38.922435,"lng":141.169388,"zip":"0290132"},{"town":"狐禅寺","koaza":"峰下","lat":38.93763,"lng":141.166856,"zip":"0290131"},{"town":"滝沢","koaza":"駒場","lat":38.926481,"lng":141.170232,"zip":"0290132"},{"town":"狐禅寺","koaza":"舞台","lat":38.944647,"lng":141.169644,"zip":"0290131"},{"town":"狐禅寺","koaza":"田谷下","lat":38.940524,"lng":141.16824,"zip":"0290131"},{"town":"狐禅寺","koaza":"大平","lat":38.936158,"lng":141.169874,"zip":"0290131"},{"town":"滝沢","koaza":"清水尻","lat":38.901506,"lng":141.173965,"zip":"0290132"},{"town":"滝沢","koaza":"寺田下","lat":38.908695,"lng":141.176496,"zip":"0290132"},{"town":"滝沢","koaza":"宮田","lat":38.928263,"lng":141.170666,"zip":"0290132"},{"town":"滝沢","koaza":"館下","lat":38.90553,"lng":141.178171,"zip":"0290132"},{"town":"狐禅寺","koaza":"上ミ田","lat":38.936446,"lng":141.177793,"zip":"0290131"},{"town":"東山町松川","koaza":"三室平","lat":38.963241,"lng":141.239028,"zip":"0290303"},{"town":"東山町松川","koaza":"滝ノ沢平","lat":38.98041,"lng":141.237951,"zip":"0290303"},{"town":"東山町松川","koaza":"岩ノ下","lat":38.950429,"lng":141.242762,"zip":"0290303"},{"town":"東山町長坂","koaza":"南山谷","lat":38.995665,"lng":141.245277,"zip":"0290302"},{"town":"東山町長坂","koaza":"北山谷","lat":38.99675,"lng":141.239863,"zip":"0290302"},{"town":"東山町松川","koaza":"滝ノ沢","lat":38.979335,"lng":141.241937,"zip":"0290303"},{"town":"東山町松川","koaza":"野谷起","lat":38.973109,"lng":141.241821,"zip":"0290303"},{"town":"東山町松川","koaza":"三室","lat":38.960948,"lng":141.242725,"zip":"0290303"},{"town":"東山町長坂","koaza":"羽根堀","lat":38.985782,"lng":141.246659,"zip":"0290302"},{"town":"東山町松川","koaza":"野平","lat":38.969639,"lng":141.246418,"zip":"0290303"},{"town":"東山町長坂","koaza":"町裏","lat":38.981476,"lng":141.247172,"zip":"0290302"},{"town":"東山町松川","koaza":"卯入道平","lat":38.961887,"lng":141.249647,"zip":"0290303"},{"town":"東山町松川","koaza":"館","lat":38.952448,"lng":141.252488,"zip":"0290303"},{"town":"東山町松川","koaza":"卯入道","lat":38.959371,"lng":141.252626,"zip":"0290303"},{"town":"東山町長坂","koaza":"西本町","lat":38.996551,"lng":141.252473,"zip":"0290302"},{"town":"東山町松川","koaza":"深堀外ノ目","lat":38.940148,"lng":141.249247,"zip":"0290303"},{"town":"東山町長坂","koaza":"町","lat":38.990363,"lng":141.253426,"zip":"0290302"},{"town":"東山町松川","koaza":"深堀","lat":38.940815,"lng":141.254294,"zip":"0290303"},{"town":"東山町松川","koaza":"深堀内ノ目","lat":38.93991,"lng":141.250418,"zip":"0290303"},{"town":"東山町松川","koaza":"岩ノ下沖","lat":38.947949,"lng":141.251487,"zip":"0290303"},{"town":"東山町松川","koaza":"寺崎","lat":38.949485,"lng":141.254105,"zip":"0290303"},{"town":"東山町長坂","koaza":"北磐井里","lat":39.012081,"lng":141.262896,"zip":"0290302"},{"town":"東山町松川","koaza":"台","lat":38.952902,"lng":141.256865,"zip":"0290303"},{"town":"東山町長坂","koaza":"平林","lat":39.015903,"lng":141.257886,"zip":"0290302"},{"town":"東山町松川","koaza":"町裏","lat":38.956901,"lng":141.255099,"zip":"0290303"},{"town":"東山町松川","koaza":"外大久保","lat":38.964618,"lng":141.256289,"zip":"0290303"},{"town":"東山町松川","koaza":"一市町","lat":38.955625,"lng":141.257103,"zip":"0290303"},{"town":"東山町松川","koaza":"六日町","lat":38.955285,"lng":141.255681,"zip":"0290303"},{"town":"東山町長坂","koaza":"東本町","lat":38.998414,"lng":141.26308,"zip":"0290302"},{"town":"東山町松川","koaza":"町裏ノ上","lat":38.960122,"lng":141.261382,"zip":"0290303"},{"town":"東山町松川","koaza":"地蔵平","lat":38.950249,"lng":141.256874,"zip":"0290303"},{"town":"東山町松川","koaza":"中通","lat":38.951928,"lng":141.263612,"zip":"0290303"},{"town":"東山町長坂","koaza":"久保","lat":38.992857,"lng":141.264986,"zip":"0290302"},{"town":"東山町長坂","koaza":"南磐井里","lat":39.005655,"lng":141.265473,"zip":"0290302"},{"town":"東山町松川","koaza":"大久保","lat":38.973414,"lng":141.260488,"zip":"0290303"},{"town":"東山町長坂","koaza":"中倉","lat":39.017769,"lng":141.265274,"zip":"0290302"},{"town":"東山町長坂","koaza":"柴宿","lat":38.997359,"lng":141.270734,"zip":"0290302"},{"town":"東山町長坂","koaza":"館合","lat":39.000734,"lng":141.282793,"zip":"0290302"},{"town":"東山町長坂","koaza":"里前","lat":38.991441,"lng":141.283074,"zip":"0290302"},{"town":"千厩町千厩","koaza":"八ツ尾沢","lat":38.915811,"lng":141.312256,"zip":"0290803"},{"town":"千厩町千厩","koaza":"駒ノ沢","lat":38.917969,"lng":141.317908,"zip":"0290803"},{"town":"千厩町千厩","koaza":"西小田","lat":38.90745,"lng":141.324586,"zip":"0290803"},{"town":"千厩町千厩","koaza":"東小田","lat":38.902541,"lng":141.327192,"zip":"0290803"},{"town":"千厩町千厩","koaza":"神ノ田","lat":38.914436,"lng":141.325717,"zip":"0290803"},{"town":"千厩町千厩","koaza":"梅田","lat":38.911097,"lng":141.325136,"zip":"0290803"},{"town":"千厩町磐清水","koaza":"沼田","lat":38.924411,"lng":141.323461,"zip":"0290804"},{"town":"千厩町千厩","koaza":"境田","lat":38.924138,"lng":141.326638,"zip":"0290803"},{"town":"千厩町千厩","koaza":"久保田","lat":38.921835,"lng":141.328135,"zip":"0290803"},{"town":"千厩町磐清水","koaza":"北山","lat":38.925844,"lng":141.324328,"zip":"0290804"},{"town":"千厩町千厩","koaza":"脇谷","lat":38.917503,"lng":141.326318,"zip":"0290803"},{"town":"千厩町千厩","koaza":"北方","lat":38.920279,"lng":141.331149,"zip":"0290803"},{"town":"千厩町千厩","koaza":"古ケ口","lat":38.913002,"lng":141.331704,"zip":"0290803"},{"town":"千厩町千厩","koaza":"西中沢","lat":38.935781,"lng":141.342524,"zip":"0290803"},{"town":"千厩町千厩","koaza":"町浦","lat":38.917329,"lng":141.33342,"zip":"0290803"},{"town":"千厩町千厩","koaza":"宮田","lat":38.928844,"lng":141.332476,"zip":"0290803"},{"town":"千厩町千厩","koaza":"町","lat":38.918342,"lng":141.332671,"zip":"0290803"},{"town":"千厩町千厩","koaza":"摩王","lat":38.914274,"lng":141.334897,"zip":"0290803"},{"town":"千厩町千厩","koaza":"新山","lat":38.907937,"lng":141.332906,"zip":"0290803"},{"town":"藤沢町増沢","koaza":"深持","lat":38.903315,"lng":141.335042,"zip":"0293401"},{"town":"千厩町千厩","koaza":"宮敷","lat":38.923725,"lng":141.335347,"zip":"0290803"},{"town":"千厩町千厩","koaza":"舘山","lat":38.916678,"lng":141.337028,"zip":"0290803"},{"town":"千厩町千厩","koaza":"土橋","lat":38.910461,"lng":141.337875,"zip":"0290803"},{"town":"千厩町千厩","koaza":"四日町","lat":38.920799,"lng":141.337517,"zip":"0290803"},{"town":"千厩町千厩","koaza":"前田","lat":38.916219,"lng":141.340756,"zip":"0290803"},{"town":"千厩町千厩","koaza":"中上","lat":38.912351,"lng":141.338367,"zip":"0290803"},{"town":"千厩町千厩","koaza":"石堂","lat":38.920346,"lng":141.341803,"zip":"0290803"},{"town":"千厩町千厩","koaza":"構井田","lat":38.922864,"lng":141.343229,"zip":"0290803"},{"town":"千厩町千厩","koaza":"竹原","lat":38.904609,"lng":141.342082,"zip":"0290803"},{"town":"千厩町千厩","koaza":"草井沢","lat":38.928877,"lng":141.340422,"zip":"0290803"},{"town":"千厩町千厩","koaza":"下木六","lat":38.91114,"lng":141.346432,"zip":"0290803"},{"town":"千厩町千厩","koaza":"神子ノ沢","lat":38.905917,"lng":141.346153,"zip":"0290803"},{"town":"千厩町千厩","koaza":"東中沢","lat":38.932042,"lng":141.344717,"zip":"0290803"},{"town":"千厩町千厩","koaza":"上駒場","lat":38.926467,"lng":141.352994,"zip":"0290803"},{"town":"千厩町千厩","koaza":"下駒場","lat":38.923765,"lng":141.352496,"zip":"0290803"},{"town":"千厩町千厩","koaza":"北ノ沢","lat":38.916222,"lng":141.352955,"zip":"0290803"},{"town":"千厩町千厩","koaza":"金山沢","lat":38.933971,"lng":141.35023,"zip":"0290803"},{"town":"千厩町清田","koaza":"川南","lat":38.936316,"lng":141.349147,"zip":"0290801"},{"town":"千厩町千厩","koaza":"中駒場","lat":38.93254,"lng":141.358263,"zip":"0290803"},{"town":"千厩町清田","koaza":"小天平","lat":38.935052,"lng":141.352775,"zip":"0290801"},{"town":"千厩町清田","koaza":"台","lat":38.931313,"lng":141.358566,"zip":"0290801"},{"town":"千厩町清田","koaza":"鳥喰","lat":38.927796,"lng":141.360957,"zip":"0290801"},{"town":"厳美町","koaza":"下谷起","lat":38.941675,"lng":141.054996,"zip":"0210101"}]