[{"town":"大ケ口一丁目","koaza":"","lat":39.370512,"lng":141.888831,"zip":"0281132"},{"town":"大ケ口二丁目","koaza":"","lat":39.3743,"lng":141.885633,"zip":"0281132"},{"town":"金澤","koaza":"","lat":39.459542,"lng":141.777384,"zip":"0281100"},{"town":"大町","koaza":"","lat":39.358859,"lng":141.907098,"zip":"0281112"},{"town":"須賀町","koaza":"","lat":39.356602,"lng":141.905868,"zip":"0281113"},{"town":"本町","koaza":"","lat":39.357565,"lng":141.901925,"zip":"0281116"},{"town":"新町","koaza":"","lat":39.36148,"lng":141.906562,"zip":"0281111"},{"town":"末広町","koaza":"","lat":39.361053,"lng":141.904321,"zip":"0281117"},{"town":"栄町","koaza":"","lat":39.355096,"lng":141.90059,"zip":"0281114"},{"town":"桜木町","koaza":"","lat":39.359179,"lng":141.88744,"zip":"0281122"},{"town":"小鎚","koaza":"","lat":39.375826,"lng":141.830523,"zip":"0281121"},{"town":"上町","koaza":"","lat":39.357851,"lng":141.899339,"zip":"0281115"},{"town":"吉里吉里四丁目","koaza":"","lat":39.370548,"lng":141.938272,"zip":"0281101"},{"town":"新港町","koaza":"","lat":39.358017,"lng":141.913231,"zip":"0281104"},{"town":"安渡一丁目","koaza":"","lat":39.361436,"lng":141.910373,"zip":"0281105"},{"town":"港町","koaza":"","lat":39.356085,"lng":141.915489,"zip":"0281103"},{"town":"安渡二丁目","koaza":"","lat":39.360093,"lng":141.916987,"zip":"0281105"},{"town":"安渡三丁目","koaza":"","lat":39.357038,"lng":141.919373,"zip":"0281105"},{"town":"赤浜一丁目","koaza":"","lat":39.353638,"lng":141.928877,"zip":"0281102"},{"town":"赤浜二丁目","koaza":"","lat":39.356372,"lng":141.934831,"zip":"0281102"},{"town":"大槌","koaza":"","lat":39.399476,"lng":141.864553,"zip":"0281131"},{"town":"赤浜三丁目","koaza":"","lat":39.351464,"lng":141.937595,"zip":"0281102"},{"town":"吉里吉里二丁目","koaza":"","lat":39.370153,"lng":141.940564,"zip":"0281101"},{"town":"吉里吉里一丁目","koaza":"","lat":39.368836,"lng":141.942261,"zip":"0281101"},{"town":"吉里吉里","koaza":"","lat":39.386715,"lng":141.928049,"zip":"0281101"},{"town":"吉里吉里三丁目","koaza":"","lat":39.371062,"lng":141.947034,"zip":"0281101"},{"town":"小鎚","koaza":"第十九地割","lat":39.372084,"lng":141.863244,"zip":"0281121"},{"town":"大槌","koaza":"第九地割","lat":39.385468,"lng":141.869346,"zip":"0281131"},{"town":"大槌","koaza":"第八地割","lat":39.392641,"lng":141.868101,"zip":"0281131"},{"town":"小鎚","koaza":"第二十地割","lat":39.36242,"lng":141.875636,"zip":"0281121"},{"town":"大槌","koaza":"第十地割","lat":39.386741,"lng":141.877584,"zip":"0281131"},{"town":"小鎚","koaza":"第二十二地割","lat":39.360665,"lng":141.878852,"zip":"0281121"},{"town":"小鎚","koaza":"第二十一地割","lat":39.362403,"lng":141.879698,"zip":"0281121"},{"town":"小鎚","koaza":"第二十三地割","lat":39.357966,"lng":141.881129,"zip":"0281121"},{"town":"大槌","koaza":"第十二地割","lat":39.380798,"lng":141.88572,"zip":"0281131"},{"town":"小鎚","koaza":"第二十六地割","lat":39.356438,"lng":141.888715,"zip":"0281121"},{"town":"大槌","koaza":"第十四地割","lat":39.366292,"lng":141.896276,"zip":"0281131"},{"town":"小鎚","koaza":"第二十七地割","lat":39.354196,"lng":141.89404,"zip":"0281121"},{"town":"小鎚","koaza":"第二十八地割","lat":39.350173,"lng":141.904262,"zip":"0281121"},{"town":"大槌","koaza":"第十五地割","lat":39.369488,"lng":141.898263,"zip":"0281131"},{"town":"大槌","koaza":"第二十三地割","lat":39.369612,"lng":141.905695,"zip":"0281131"},{"town":"大槌","koaza":"第二十二地割","lat":39.366382,"lng":141.905655,"zip":"0281131"},{"town":"大槌","koaza":"第二十四地割","lat":39.36514,"lng":141.909328,"zip":"0281131"},{"town":"大槌","koaza":"第二十一地割","lat":39.355485,"lng":141.912862,"zip":"0281131"},{"town":"吉里吉里","koaza":"第九地割","lat":39.382865,"lng":141.93076,"zip":"0281101"},{"town":"吉里吉里","koaza":"第一地割","lat":39.365644,"lng":141.930574,"zip":"0281101"},{"town":"吉里吉里","koaza":"第十地割","lat":39.383479,"lng":141.933482,"zip":"0281101"},{"town":"吉里吉里","koaza":"第十一地割","lat":39.38591,"lng":141.936153,"zip":"0281101"},{"town":"吉里吉里","koaza":"第七地割","lat":39.377633,"lng":141.939159,"zip":"0281101"},{"town":"吉里吉里","koaza":"第十四地割","lat":39.376712,"lng":141.94009,"zip":"0281101"},{"town":"小鎚","koaza":"第二十五地割","lat":39.360391,"lng":141.890439,"zip":"0281121"},{"town":"大槌","koaza":"第二十七地割","lat":39.366025,"lng":141.916257,"zip":"0281131"},{"town":"大槌","koaza":"第十六地割","lat":39.367229,"lng":141.898206,"zip":"0281131"},{"town":"大槌","koaza":"第十三地割","lat":39.372159,"lng":141.891008,"zip":"0281131"},{"town":"吉里吉里","koaza":"第十三地割","lat":39.389524,"lng":141.938748,"zip":"0281101"},{"town":"吉里吉里","koaza":"第八地割","lat":39.382002,"lng":141.935703,"zip":"0281101"},{"town":"吉里吉里","koaza":"第十二地割","lat":39.389109,"lng":141.93703,"zip":"0281101"},{"town":"小鎚","koaza":"第二十四地割","lat":39.359011,"lng":141.882407,"zip":"0281121"},{"town":"小鎚","koaza":"第十八地割","lat":39.371615,"lng":141.859894,"zip":"0281121"},{"town":"小鎚","koaza":"第三十二地割","lat":39.359346,"lng":141.901634,"zip":"0281121"},{"town":"吉里吉里","koaza":"第五地割","lat":39.373447,"lng":141.936,"zip":"0281101"},{"town":"吉里吉里","koaza":"第三十二地割","lat":39.364643,"lng":141.95203,"zip":"0281101"},{"town":"吉里吉里","koaza":"第二十一地割","lat":39.363669,"lng":141.941669,"zip":"0281101"},{"town":"吉里吉里","koaza":"第二地割","lat":39.367536,"lng":141.929722,"zip":"0281101"},{"town":"大槌","koaza":"第二十八地割","lat":39.363771,"lng":141.922952,"zip":"0281131"}]