[{"town":"浅内","koaza":"","lat":39.809125,"lng":141.711972,"zip":"0282231"},{"town":"安家","koaza":"","lat":39.979308,"lng":141.690287,"zip":"0270611"},{"town":"穴沢","koaza":"","lat":39.841039,"lng":141.627141,"zip":"0285642"},{"town":"尼額","koaza":"","lat":39.832572,"lng":141.773654,"zip":"0270508"},{"town":"岩泉","koaza":"","lat":39.861571,"lng":141.800805,"zip":"0270501"},{"town":"大川","koaza":"","lat":39.765703,"lng":141.63489,"zip":"0282232"},{"town":"乙茂","koaza":"","lat":39.844126,"lng":141.857026,"zip":"0270502"},{"town":"小本","koaza":"","lat":39.854936,"lng":141.955554,"zip":"0270421"},{"town":"門","koaza":"","lat":39.902638,"lng":141.587881,"zip":"0285641"},{"town":"釜津田","koaza":"","lat":39.777677,"lng":141.532538,"zip":"0285633"},{"town":"上有芸","koaza":"","lat":39.754499,"lng":141.788413,"zip":"0270505"},{"town":"猿沢","koaza":"","lat":39.80727,"lng":141.876235,"zip":"0270503"},{"town":"下有芸","koaza":"","lat":39.77965,"lng":141.856573,"zip":"0270504"},{"town":"鼠入","koaza":"","lat":39.780121,"lng":141.751962,"zip":"0270506"},{"town":"中里","koaza":"","lat":39.834355,"lng":141.927064,"zip":"0270423"},{"town":"中島","koaza":"","lat":39.832795,"lng":141.949278,"zip":"0270422"},{"town":"二升石","koaza":"","lat":39.855786,"lng":141.736366,"zip":"0270507"},{"town":"袰野","koaza":"","lat":39.838466,"lng":141.897068,"zip":"0270424"},{"town":"袰綿","koaza":"","lat":39.86711,"lng":141.695821,"zip":"0285643"},{"town":"岩泉","koaza":"中野","lat":39.842709,"lng":141.790481,"zip":"0270501"},{"town":"岩泉","koaza":"土橋","lat":39.847865,"lng":141.783391,"zip":"0270501"},{"town":"岩泉","koaza":"天間","lat":39.848692,"lng":141.786264,"zip":"0270501"},{"town":"岩泉","koaza":"太田","lat":39.846906,"lng":141.788837,"zip":"0270501"},{"town":"岩泉","koaza":"下宿","lat":39.846115,"lng":141.79069,"zip":"0270501"},{"town":"岩泉","koaza":"和川原","lat":39.848725,"lng":141.789476,"zip":"0270501"},{"town":"岩泉","koaza":"村木","lat":39.846779,"lng":141.791757,"zip":"0270501"},{"town":"岩泉","koaza":"向町","lat":39.84322,"lng":141.792201,"zip":"0270501"},{"town":"岩泉","koaza":"小屋敷","lat":39.86391,"lng":141.79332,"zip":"0270501"},{"town":"岩泉","koaza":"中家","lat":39.847091,"lng":141.796588,"zip":"0270501"},{"town":"岩泉","koaza":"松橋","lat":39.843431,"lng":141.794424,"zip":"0270501"},{"town":"岩泉","koaza":"上川崎","lat":39.842282,"lng":141.794328,"zip":"0270501"},{"town":"岩泉","koaza":"三本松","lat":39.846962,"lng":141.802527,"zip":"0270501"},{"town":"岩泉","koaza":"惣畑","lat":39.843607,"lng":141.800983,"zip":"0270501"},{"town":"岩泉","koaza":"片畑","lat":39.849411,"lng":141.79717,"zip":"0270501"},{"town":"岩泉","koaza":"森の越","lat":39.848004,"lng":141.799849,"zip":"0270501"},{"town":"岩泉","koaza":"府金","lat":39.854639,"lng":141.801614,"zip":"0270501"},{"town":"岩泉","koaza":"志田","lat":39.849952,"lng":141.802215,"zip":"0270501"},{"town":"岩泉","koaza":"沢廻","lat":39.855315,"lng":141.802287,"zip":"0270501"},{"town":"岩泉","koaza":"西構","lat":39.851503,"lng":141.814101,"zip":"0270501"},{"town":"中島","koaza":"長内","lat":39.841893,"lng":141.95445,"zip":"0270422"},{"town":"小本","koaza":"長内","lat":39.843642,"lng":141.951776,"zip":"0270421"},{"town":"小本","koaza":"上中野","lat":39.844119,"lng":141.95692,"zip":"0270421"},{"town":"小本","koaza":"南中野","lat":39.843205,"lng":141.959181,"zip":"0270421"},{"town":"小本","koaza":"中野","lat":39.847595,"lng":141.961065,"zip":"0270421"},{"town":"小本","koaza":"大牛内","lat":39.848544,"lng":141.960167,"zip":"0270421"},{"town":"小本","koaza":"内の沢","lat":39.842543,"lng":141.968553,"zip":"0270421"},{"town":"小本","koaza":"家の向","lat":39.846596,"lng":141.965449,"zip":"0270421"},{"town":"小本","koaza":"小本","lat":39.844042,"lng":141.968752,"zip":"0270421"},{"town":"岩泉","koaza":"新町","lat":39.848747,"lng":141.820693,"zip":"0270501"},{"town":"小本","koaza":"須賀","lat":39.847329,"lng":141.969915,"zip":"0270421"},{"town":"小本","koaza":"下中野","lat":39.848634,"lng":141.963556,"zip":"0270421"},{"town":"小本","koaza":"鈩","lat":39.845505,"lng":141.961477,"zip":"0270421"},{"town":"小本","koaza":"鼻保","lat":39.850246,"lng":141.964193,"zip":"0270421"},{"town":"岩泉","koaza":"小林","lat":39.848205,"lng":141.816795,"zip":"0270501"},{"town":"岩泉","koaza":"堤ケ沢","lat":39.848489,"lng":141.784091,"zip":"0270501"},{"town":"岩泉","koaza":"大館","lat":39.848985,"lng":141.793111,"zip":"0270501"},{"town":"岩泉","koaza":"垂柳","lat":39.848966,"lng":141.813988,"zip":"0270501"},{"town":"岩泉","koaza":"合の山","lat":39.849074,"lng":141.810368,"zip":"0270501"},{"town":"岩泉","koaza":"田屋峠","lat":39.84708,"lng":141.783071,"zip":"0270501"},{"town":"岩泉","koaza":"一ツ石","lat":39.851139,"lng":141.80948,"zip":"0270501"},{"town":"岩泉","koaza":"横道","lat":39.853051,"lng":141.806937,"zip":"0270501"},{"town":"岩泉","koaza":"神成","lat":39.863584,"lng":141.791394,"zip":"0270501"},{"town":"岩泉","koaza":"大北川","lat":39.850819,"lng":141.819052,"zip":"0270501"}]