[{"town":"明戸","koaza":"","lat":39.957441,"lng":141.915631,"zip":"0288402"},{"town":"一の渡","koaza":"","lat":39.955034,"lng":141.837717,"zip":"0288401"},{"town":"蝦夷森","koaza":"","lat":39.920535,"lng":141.802792,"zip":"0288401"},{"town":"大芦","koaza":"","lat":39.895861,"lng":141.928082,"zip":"0288405"},{"town":"大森","koaza":"","lat":39.938414,"lng":141.821842,"zip":"0288401"},{"town":"尾肝要","koaza":"","lat":39.942537,"lng":141.845574,"zip":"0288401"},{"town":"奥地","koaza":"","lat":39.947745,"lng":141.823169,"zip":"0288401"},{"town":"奥地向","koaza":"","lat":39.930898,"lng":141.826689,"zip":"0288401"},{"town":"茅刈沢","koaza":"","lat":39.94472,"lng":141.804888,"zip":"0288401"},{"town":"川平","koaza":"","lat":39.943653,"lng":141.903603,"zip":"0288407"},{"town":"北山","koaza":"","lat":39.975163,"lng":141.941055,"zip":"0288402"},{"town":"切牛","koaza":"","lat":39.900195,"lng":141.945089,"zip":"0288405"},{"town":"猿山","koaza":"","lat":39.87617,"lng":141.893055,"zip":"0288406"},{"town":"島越","koaza":"","lat":39.904876,"lng":141.922931,"zip":"0288404"},{"town":"菅窪","koaza":"","lat":39.917156,"lng":141.893908,"zip":"0288407"},{"town":"巣合","koaza":"","lat":39.966932,"lng":141.866763,"zip":"0288401"},{"town":"千丈","koaza":"","lat":39.917107,"lng":141.834138,"zip":"0288401"},{"town":"千足","koaza":"","lat":39.969135,"lng":141.814255,"zip":"0288401"},{"town":"滝ノ沢","koaza":"","lat":39.955556,"lng":141.856699,"zip":"0288401"},{"town":"田代","koaza":"","lat":39.959438,"lng":141.826163,"zip":"0288401"},{"town":"田野畑","koaza":"","lat":39.931372,"lng":141.886549,"zip":"0288407"},{"town":"机","koaza":"","lat":39.961224,"lng":141.93605,"zip":"0288402"},{"town":"年呂部","koaza":"","lat":39.87264,"lng":141.860826,"zip":"0288406"},{"town":"長根","koaza":"","lat":39.959634,"lng":141.811104,"zip":"0288401"},{"town":"七滝","koaza":"","lat":39.911548,"lng":141.8614,"zip":"0288406"},{"town":"沼袋","koaza":"","lat":39.934484,"lng":141.837547,"zip":"0288401"},{"town":"子木地","koaza":"","lat":39.935437,"lng":141.811881,"zip":"0288401"},{"town":"子木屋敷","koaza":"","lat":39.923731,"lng":141.819287,"zip":"0288401"},{"town":"萩牛","koaza":"","lat":39.970363,"lng":141.847415,"zip":"0288401"},{"town":"浜岩泉","koaza":"","lat":39.894861,"lng":141.901066,"zip":"0288405"},{"town":"日蔭","koaza":"","lat":39.953812,"lng":141.799501,"zip":"0288401"},{"town":"姫松","koaza":"","lat":39.926177,"lng":141.846969,"zip":"0288401"},{"town":"真木沢","koaza":"","lat":39.883332,"lng":141.932729,"zip":"0288405"},{"town":"松前沢","koaza":"","lat":39.91824,"lng":141.922149,"zip":"0288404"},{"town":"三沢","koaza":"","lat":39.912501,"lng":141.812145,"zip":"0288401"},{"town":"南大芦","koaza":"","lat":39.871459,"lng":141.914375,"zip":"0288405"},{"town":"室場","koaza":"","lat":39.893198,"lng":141.853838,"zip":"0288406"},{"town":"目名","koaza":"","lat":39.880515,"lng":141.869248,"zip":"0288406"},{"town":"羅賀","koaza":"","lat":39.938102,"lng":141.908699,"zip":"0288403"},{"town":"和野","koaza":"","lat":39.930553,"lng":141.917168,"zip":"0288407"}]