[{"town":"荒川","koaza":"","lat":39.539248,"lng":141.835275,"zip":"0281303"},{"town":"飯岡","koaza":"","lat":39.460197,"lng":141.938135,"zip":"0281352"},{"town":"石峠","koaza":"","lat":39.545801,"lng":141.919648,"zip":"0281301"},{"town":"大沢","koaza":"","lat":39.5022,"lng":141.977922,"zip":"0281311"},{"town":"織笠","koaza":"","lat":39.434252,"lng":141.916107,"zip":"0281361"},{"town":"川向町","koaza":"","lat":39.464517,"lng":141.952466,"zip":"0281342"},{"town":"北浜町","koaza":"","lat":39.47167,"lng":141.952903,"zip":"0281331"},{"town":"後楽町","koaza":"","lat":39.470103,"lng":141.950666,"zip":"0281333"},{"town":"境田町","koaza":"","lat":39.461485,"lng":141.9542,"zip":"0281343"},{"town":"中央町","koaza":"","lat":39.467735,"lng":141.952699,"zip":"0281332"},{"town":"豊間根","koaza":"","lat":39.505841,"lng":141.868684,"zip":"0281302"},{"town":"長崎一丁目","koaza":"","lat":39.463296,"lng":141.949865,"zip":"0281351"},{"town":"長崎二丁目","koaza":"","lat":39.461926,"lng":141.947035,"zip":"0281351"},{"town":"長崎三丁目","koaza":"","lat":39.465311,"lng":141.947423,"zip":"0281351"},{"town":"長崎四丁目","koaza":"","lat":39.463349,"lng":141.946236,"zip":"0281351"},{"town":"八幡町","koaza":"","lat":39.46681,"lng":141.949253,"zip":"0281341"},{"town":"船越","koaza":"","lat":39.442374,"lng":142.012522,"zip":"0281371"},{"town":"山田","koaza":"","lat":39.47396,"lng":141.921997,"zip":"0281321"},{"town":"山田","koaza":"第十六地割","lat":39.473914,"lng":141.941703,"zip":"0281321"},{"town":"山田","koaza":"第十五地割","lat":39.475998,"lng":141.938526,"zip":"0281321"},{"town":"飯岡","koaza":"第六地割","lat":39.459734,"lng":141.939425,"zip":"0281352"},{"town":"飯岡","koaza":"第七地割","lat":39.462996,"lng":141.941671,"zip":"0281352"},{"town":"山田","koaza":"第十四地割","lat":39.478281,"lng":141.944277,"zip":"0281321"},{"town":"山田","koaza":"第九地割","lat":39.471451,"lng":141.945735,"zip":"0281321"},{"town":"山田","koaza":"第十二地割","lat":39.475882,"lng":141.944353,"zip":"0281321"},{"town":"山田","koaza":"第十一地割","lat":39.47419,"lng":141.946898,"zip":"0281321"},{"town":"飯岡","koaza":"第九地割","lat":39.467884,"lng":141.945042,"zip":"0281352"},{"town":"織笠","koaza":"第十四地割","lat":39.45407,"lng":141.951688,"zip":"0281361"},{"town":"織笠","koaza":"第三地割","lat":39.444257,"lng":141.950545,"zip":"0281361"},{"town":"飯岡","koaza":"第十三地割","lat":39.469585,"lng":141.948662,"zip":"0281352"},{"town":"山田","koaza":"第三地割","lat":39.481217,"lng":141.951524,"zip":"0281321"},{"town":"山田","koaza":"第十地割","lat":39.473076,"lng":141.949131,"zip":"0281321"},{"town":"山田","koaza":"第四地割","lat":39.477108,"lng":141.951291,"zip":"0281321"},{"town":"山田","koaza":"第十三地割","lat":39.475705,"lng":141.948943,"zip":"0281321"},{"town":"山田","koaza":"第五地割","lat":39.476631,"lng":141.953532,"zip":"0281321"},{"town":"織笠","koaza":"第二地割","lat":39.447141,"lng":141.956495,"zip":"0281361"},{"town":"山田","koaza":"第二地割","lat":39.476086,"lng":141.955521,"zip":"0281321"},{"town":"織笠","koaza":"第十二地割","lat":39.454411,"lng":141.958548,"zip":"0281361"},{"town":"大沢","koaza":"第一地割","lat":39.479359,"lng":141.964531,"zip":"0281311"},{"town":"織笠","koaza":"第一地割","lat":39.446057,"lng":141.963831,"zip":"0281361"},{"town":"織笠","koaza":"第九地割","lat":39.449059,"lng":141.955843,"zip":"0281361"},{"town":"織笠","koaza":"第十一地割","lat":39.450937,"lng":141.959588,"zip":"0281361"},{"town":"船越","koaza":"第六地割","lat":39.439156,"lng":141.971684,"zip":"0281371"},{"town":"大沢","koaza":"第三地割","lat":39.485282,"lng":141.966474,"zip":"0281311"},{"town":"大沢","koaza":"第五地割","lat":39.485644,"lng":141.968254,"zip":"0281311"},{"town":"大沢","koaza":"第二地割","lat":39.482417,"lng":141.967835,"zip":"0281311"},{"town":"大沢","koaza":"第六地割","lat":39.485789,"lng":141.970708,"zip":"0281311"},{"town":"船越","koaza":"第三地割","lat":39.424428,"lng":141.971351,"zip":"0281371"},{"town":"船越","koaza":"第二地割","lat":39.422335,"lng":141.970951,"zip":"0281371"},{"town":"大沢","koaza":"第七地割","lat":39.484765,"lng":141.973123,"zip":"0281311"},{"town":"船越","koaza":"第四地割","lat":39.425976,"lng":141.973054,"zip":"0281371"},{"town":"船越","koaza":"第五地割","lat":39.428744,"lng":141.974822,"zip":"0281371"},{"town":"大沢","koaza":"第八地割","lat":39.484343,"lng":141.97499,"zip":"0281311"},{"town":"船越","koaza":"第七地割","lat":39.434665,"lng":141.975879,"zip":"0281371"},{"town":"船越","koaza":"第十地割","lat":39.428522,"lng":141.980301,"zip":"0281371"},{"town":"大沢","koaza":"第九地割","lat":39.484569,"lng":141.977322,"zip":"0281311"},{"town":"大沢","koaza":"第十地割","lat":39.486267,"lng":141.97997,"zip":"0281311"},{"town":"船越","koaza":"第十三地割","lat":39.419758,"lng":141.986725,"zip":"0281371"},{"town":"船越","koaza":"第十五地割","lat":39.417934,"lng":141.990505,"zip":"0281371"},{"town":"船越","koaza":"第十四地割","lat":39.422771,"lng":141.992075,"zip":"0281371"},{"town":"船越","koaza":"第十七地割","lat":39.414228,"lng":141.991,"zip":"0281371"},{"town":"船越","koaza":"第八地割","lat":39.434793,"lng":141.979342,"zip":"0281371"},{"town":"船越","koaza":"第九地割","lat":39.434024,"lng":141.977857,"zip":"0281371"},{"town":"飯岡","koaza":"第一地割","lat":39.46015,"lng":141.954214,"zip":"0281352"},{"town":"大沢","koaza":"第十一地割","lat":39.482852,"lng":141.980704,"zip":"0281311"},{"town":"飯岡","koaza":"第十地割","lat":39.468244,"lng":141.946204,"zip":"0281352"},{"town":"飯岡","koaza":"第八地割","lat":39.465385,"lng":141.943801,"zip":"0281352"},{"town":"飯岡","koaza":"第二地割","lat":39.453996,"lng":141.937641,"zip":"0281352"},{"town":"飯岡","koaza":"第五地割","lat":39.459263,"lng":141.944064,"zip":"0281352"},{"town":"織笠","koaza":"第十三地割","lat":39.456781,"lng":141.95617,"zip":"0281361"},{"town":"織笠","koaza":"第十地割","lat":39.451633,"lng":141.953341,"zip":"0281361"},{"town":"織笠","koaza":"第八地割","lat":39.447525,"lng":141.947645,"zip":"0281361"},{"town":"船越","koaza":"第十二地割","lat":39.422312,"lng":141.98332,"zip":"0281371"},{"town":"船越","koaza":"第十一地割","lat":39.424536,"lng":141.984907,"zip":"0281371"},{"town":"船越","koaza":"第十六地割","lat":39.41815,"lng":141.989649,"zip":"0281371"},{"town":"山田","koaza":"第十七地割","lat":39.474606,"lng":141.932571,"zip":"0281321"},{"town":"山田","koaza":"第一地割","lat":39.477329,"lng":141.95666,"zip":"0281321"}]