[{"town":"旭町","koaza":"","lat":40.201584,"lng":141.777466,"zip":"0280014"},{"town":"荒町","koaza":"","lat":40.192786,"lng":141.757752,"zip":"0280063"},{"town":"荒町一丁目","koaza":"","lat":40.192223,"lng":141.760338,"zip":"0280063"},{"town":"荒町二丁目","koaza":"","lat":40.191516,"lng":141.760158,"zip":"0280063"},{"town":"宇部町","koaza":"","lat":40.128419,"lng":141.778357,"zip":"0288111"},{"town":"駅前","koaza":"","lat":40.190264,"lng":141.77109,"zip":"0280000"},{"town":"枝成沢","koaza":"","lat":40.205659,"lng":141.706681,"zip":"0280034"},{"town":"大川目町","koaza":"","lat":40.16545,"lng":141.686054,"zip":"0280091"},{"town":"大沢","koaza":"","lat":40.186075,"lng":141.745967,"zip":"0280083"},{"town":"長内町","koaza":"","lat":40.172622,"lng":141.802689,"zip":"0280041"},{"town":"柏崎","koaza":"","lat":40.18626,"lng":141.766154,"zip":"0280054"},{"town":"柏崎一丁目","koaza":"","lat":40.185942,"lng":141.767604,"zip":"0280054"},{"town":"川崎町","koaza":"","lat":40.190869,"lng":141.77574,"zip":"0280051"},{"town":"川貫","koaza":"","lat":40.186232,"lng":141.754442,"zip":"0280082"},{"town":"京の森","koaza":"","lat":40.203639,"lng":141.773225,"zip":"0280013"},{"town":"源道","koaza":"","lat":40.20229,"lng":141.786724,"zip":"0280015"},{"town":"小久慈町","koaza":"","lat":40.146037,"lng":141.730938,"zip":"0280071"},{"town":"栄町","koaza":"","lat":40.195692,"lng":141.757548,"zip":"0280024"},{"town":"侍浜町","koaza":"","lat":40.258047,"lng":141.774255,"zip":"0287801"},{"town":"沢里","koaza":"","lat":40.202457,"lng":141.730167,"zip":"0280035"},{"town":"十八日町一丁目","koaza":"","lat":40.191876,"lng":141.765127,"zip":"0280065"},{"town":"十八日町二丁目","koaza":"","lat":40.190731,"lng":141.765073,"zip":"0280065"},{"town":"新中の橋","koaza":"","lat":40.194398,"lng":141.767235,"zip":"0280023"},{"town":"田高一丁目","koaza":"","lat":40.183822,"lng":141.768564,"zip":"0280053"},{"town":"巽町","koaza":"","lat":40.1876,"lng":141.767511,"zip":"0280055"},{"town":"巽町一丁目","koaza":"","lat":40.188651,"lng":141.768492,"zip":"0280055"},{"town":"巽町二丁目","koaza":"","lat":40.187667,"lng":141.768531,"zip":"0280055"},{"town":"田屋町","koaza":"","lat":40.195144,"lng":141.774382,"zip":"0280022"},{"town":"中央一丁目","koaza":"","lat":40.192132,"lng":141.768858,"zip":"0280061"},{"town":"中央二丁目","koaza":"","lat":40.191404,"lng":141.769988,"zip":"0280061"},{"town":"中央三丁目","koaza":"","lat":40.189887,"lng":141.769944,"zip":"0280061"},{"town":"中央四丁目","koaza":"","lat":40.189681,"lng":141.768734,"zip":"0280061"},{"town":"寺里","koaza":"","lat":40.200727,"lng":141.742415,"zip":"0280032"},{"town":"天神堂","koaza":"","lat":40.203222,"lng":141.753819,"zip":"0280031"},{"town":"中の橋一丁目","koaza":"","lat":40.19238,"lng":141.766822,"zip":"0280066"},{"town":"中町","koaza":"","lat":40.187997,"lng":141.764242,"zip":"0280056"},{"town":"中町一丁目","koaza":"","lat":40.189091,"lng":141.766641,"zip":"0280056"},{"town":"中町二丁目","koaza":"","lat":40.189699,"lng":141.76494,"zip":"0280056"},{"town":"夏井町","koaza":"","lat":40.228697,"lng":141.739946,"zip":"0280001"},{"town":"新井田","koaza":"","lat":40.196336,"lng":141.780834,"zip":"0280012"},{"town":"西の沢","koaza":"","lat":40.191428,"lng":141.756135,"zip":"0280081"},{"town":"二十八日町一丁目","koaza":"","lat":40.190947,"lng":141.767371,"zip":"0280062"},{"town":"二十八日町二丁目","koaza":"","lat":40.190297,"lng":141.767139,"zip":"0280062"},{"town":"畑田","koaza":"","lat":40.196146,"lng":141.730307,"zip":"0280033"},{"town":"本町一丁目","koaza":"","lat":40.188353,"lng":141.770689,"zip":"0280052"},{"town":"本町二丁目","koaza":"","lat":40.188027,"lng":141.769795,"zip":"0280052"},{"town":"本町三丁目","koaza":"","lat":40.185642,"lng":141.769336,"zip":"0280052"},{"town":"湊町","koaza":"","lat":40.201402,"lng":141.793697,"zip":"0280011"},{"town":"門前","koaza":"","lat":40.202421,"lng":141.765874,"zip":"0280021"},{"town":"山形町小国","koaza":"","lat":40.066342,"lng":141.614829,"zip":"0288712"},{"town":"山形町川井","koaza":"","lat":40.143636,"lng":141.57171,"zip":"0288602"},{"town":"山形町霜畑","koaza":"","lat":40.093413,"lng":141.568475,"zip":"0288713"},{"town":"山形町繋","koaza":"","lat":40.143183,"lng":141.643008,"zip":"0288711"},{"town":"山形町荷軽部","koaza":"","lat":40.167005,"lng":141.505458,"zip":"0288603"},{"town":"山形町日野沢","koaza":"","lat":40.190555,"lng":141.535562,"zip":"0288604"},{"town":"山形町戸呂町","koaza":"","lat":40.202664,"lng":141.600616,"zip":"0288601"},{"town":"山形町来内","koaza":"","lat":40.112155,"lng":141.491957,"zip":"0288605"},{"town":"山根町","koaza":"","lat":40.080137,"lng":141.694628,"zip":"0288521"},{"town":"八日町","koaza":"","lat":40.190393,"lng":141.762165,"zip":"0280064"},{"town":"八日町一丁目","koaza":"","lat":40.192053,"lng":141.763097,"zip":"0280064"},{"town":"八日町二丁目","koaza":"","lat":40.191044,"lng":141.762512,"zip":"0280064"},{"town":"大川目町","koaza":"第二十地割","lat":40.191074,"lng":141.703146,"zip":"0280091"},{"town":"大川目町","koaza":"第十九地割","lat":40.184392,"lng":141.704326,"zip":"0280091"},{"town":"大川目町","koaza":"第二十一地割","lat":40.191519,"lng":141.702781,"zip":"0280091"},{"town":"大川目町","koaza":"第二十二地割","lat":40.190363,"lng":141.708326,"zip":"0280091"},{"town":"大川目町","koaza":"第十一地割","lat":40.181747,"lng":141.705718,"zip":"0280091"},{"town":"大川目町","koaza":"第九地割","lat":40.177764,"lng":141.710803,"zip":"0280091"},{"town":"大川目町","koaza":"第十二地割","lat":40.182153,"lng":141.70825,"zip":"0280091"},{"town":"大川目町","koaza":"第十三地割","lat":40.183492,"lng":141.713037,"zip":"0280091"},{"town":"大川目町","koaza":"第二十三地割","lat":40.18943,"lng":141.710388,"zip":"0280091"},{"town":"大川目町","koaza":"第十八地割","lat":40.187192,"lng":141.710332,"zip":"0280091"},{"town":"大川目町","koaza":"第二十五地割","lat":40.191841,"lng":141.712054,"zip":"0280091"},{"town":"大川目町","koaza":"第二十四地割","lat":40.190406,"lng":141.714904,"zip":"0280091"},{"town":"大川目町","koaza":"第八地割","lat":40.176648,"lng":141.715727,"zip":"0280091"},{"town":"大川目町","koaza":"第七地割","lat":40.177493,"lng":141.71516,"zip":"0280091"},{"town":"枝成沢","koaza":"第十二地割","lat":40.195788,"lng":141.718391,"zip":"0280034"},{"town":"大川目町","koaza":"第十七地割","lat":40.186193,"lng":141.715862,"zip":"0280091"},{"town":"枝成沢","koaza":"第十三地割","lat":40.199776,"lng":141.714075,"zip":"0280034"},{"town":"大川目町","koaza":"第十四地割","lat":40.183304,"lng":141.717657,"zip":"0280091"},{"town":"枝成沢","koaza":"第十九地割","lat":40.198968,"lng":141.717214,"zip":"0280034"},{"town":"大川目町","koaza":"第二十六地割","lat":40.188388,"lng":141.720577,"zip":"0280091"},{"town":"大川目町","koaza":"第六地割","lat":40.180306,"lng":141.720175,"zip":"0280091"},{"town":"大川目町","koaza":"第五地割","lat":40.179877,"lng":141.723569,"zip":"0280091"},{"town":"大川目町","koaza":"第二十七地割","lat":40.19068,"lng":141.724858,"zip":"0280091"},{"town":"大川目町","koaza":"第十五地割","lat":40.183339,"lng":141.721919,"zip":"0280091"},{"town":"畑田","koaza":"第二十地割","lat":40.194379,"lng":141.728148,"zip":"0280033"},{"town":"大川目町","koaza":"第二十八地割","lat":40.193416,"lng":141.725165,"zip":"0280091"},{"town":"小久慈町","koaza":"第十九地割","lat":40.169357,"lng":141.731005,"zip":"0280071"},{"town":"大川目町","koaza":"第三地割","lat":40.184274,"lng":141.728347,"zip":"0280091"},{"town":"畑田","koaza":"第二十一地割","lat":40.196378,"lng":141.734566,"zip":"0280033"},{"town":"大川目町","koaza":"第四地割","lat":40.183048,"lng":141.728744,"zip":"0280091"},{"town":"小久慈町","koaza":"第一地割","lat":40.156085,"lng":141.729082,"zip":"0280071"},{"town":"大川目町","koaza":"第二十九地割","lat":40.193125,"lng":141.728069,"zip":"0280091"},{"town":"小久慈町","koaza":"第四地割","lat":40.158736,"lng":141.730167,"zip":"0280071"},{"town":"大川目町","koaza":"第十六地割","lat":40.190245,"lng":141.72978,"zip":"0280091"},{"town":"小久慈町","koaza":"第二地割","lat":40.15463,"lng":141.731629,"zip":"0280071"},{"town":"小久慈町","koaza":"第三地割","lat":40.157526,"lng":141.731544,"zip":"0280071"},{"town":"畑田","koaza":"第二十五地割","lat":40.189765,"lng":141.732763,"zip":"0280033"},{"town":"大川目町","koaza":"第一地割","lat":40.185908,"lng":141.734239,"zip":"0280091"},{"town":"小久慈町","koaza":"第五地割","lat":40.159764,"lng":141.732239,"zip":"0280071"},{"town":"畑田","koaza":"第二十四地割","lat":40.194095,"lng":141.733915,"zip":"0280033"},{"town":"沢里","koaza":"第二十二地割","lat":40.197587,"lng":141.733482,"zip":"0280035"},{"town":"小久慈町","koaza":"第七地割","lat":40.156568,"lng":141.73523,"zip":"0280071"},{"town":"小久慈町","koaza":"第六地割","lat":40.159323,"lng":141.734946,"zip":"0280071"},{"town":"大川目町","koaza":"第二地割","lat":40.188329,"lng":141.73678,"zip":"0280091"},{"town":"小久慈町","koaza":"第六十八地割","lat":40.152686,"lng":141.735195,"zip":"0280071"},{"town":"小久慈町","koaza":"第九地割","lat":40.160364,"lng":141.735309,"zip":"0280071"},{"town":"沢里","koaza":"第二十三地割","lat":40.197363,"lng":141.735662,"zip":"0280035"},{"town":"畑田","koaza":"第二十六地割","lat":40.191612,"lng":141.740008,"zip":"0280033"},{"town":"沢里","koaza":"第二十四地割","lat":40.195404,"lng":141.737042,"zip":"0280035"},{"town":"小久慈町","koaza":"第十地割","lat":40.163982,"lng":141.737521,"zip":"0280071"},{"town":"小久慈町","koaza":"第十二地割","lat":40.161404,"lng":141.736474,"zip":"0280071"},{"town":"小久慈町","koaza":"第六十三地割","lat":40.154722,"lng":141.737942,"zip":"0280071"},{"town":"寺里","koaza":"第二十八地割","lat":40.196167,"lng":141.740215,"zip":"0280032"},{"town":"小久慈町","koaza":"第八地割","lat":40.159315,"lng":141.737615,"zip":"0280071"},{"town":"小久慈町","koaza":"第十三地割","lat":40.163691,"lng":141.739729,"zip":"0280071"},{"town":"小久慈町","koaza":"第十八地割","lat":40.167839,"lng":141.739646,"zip":"0280071"},{"town":"寺里","koaza":"第二十七地割","lat":40.194718,"lng":141.742428,"zip":"0280032"},{"town":"小久慈町","koaza":"第六十一地割","lat":40.158561,"lng":141.741334,"zip":"0280071"},{"town":"小久慈町","koaza":"第十四地割","lat":40.166744,"lng":141.736815,"zip":"0280071"},{"town":"小久慈町","koaza":"第五十九地割","lat":40.15894,"lng":141.745396,"zip":"0280071"},{"town":"小久慈町","koaza":"第二十地割","lat":40.16995,"lng":141.740344,"zip":"0280071"},{"town":"天神堂","koaza":"第三十四地割","lat":40.200343,"lng":141.751869,"zip":"0280031"},{"town":"小久慈町","koaza":"第十五地割","lat":40.163199,"lng":141.743454,"zip":"0280071"},{"town":"川貫","koaza":"第十一地割","lat":40.185422,"lng":141.747572,"zip":"0280082"},{"town":"小久慈町","koaza":"第二十一地割","lat":40.169202,"lng":141.744232,"zip":"0280071"},{"town":"小久慈町","koaza":"第六十地割","lat":40.160453,"lng":141.743174,"zip":"0280071"},{"town":"寺里","koaza":"第二十九地割","lat":40.205105,"lng":141.745447,"zip":"0280032"},{"town":"小久慈町","koaza":"第二十二地割","lat":40.167331,"lng":141.745537,"zip":"0280071"},{"town":"小久慈町","koaza":"第十六地割","lat":40.16585,"lng":141.744839,"zip":"0280071"},{"town":"寺里","koaza":"第三十地割","lat":40.194964,"lng":141.7462,"zip":"0280032"},{"town":"大沢","koaza":"第九地割","lat":40.187476,"lng":141.74632,"zip":"0280083"},{"town":"小久慈町","koaza":"第五十八地割","lat":40.163789,"lng":141.745307,"zip":"0280071"},{"town":"小久慈町","koaza":"第五十三地割","lat":40.163872,"lng":141.748136,"zip":"0280071"},{"town":"小久慈町","koaza":"第二十五地割","lat":40.17227,"lng":141.749622,"zip":"0280071"},{"town":"小久慈町","koaza":"第五十七地割","lat":40.162859,"lng":141.748418,"zip":"0280071"},{"town":"小久慈町","koaza":"第五十六地割","lat":40.15849,"lng":141.747991,"zip":"0280071"},{"town":"大沢","koaza":"第八地割","lat":40.190421,"lng":141.747697,"zip":"0280083"},{"town":"小久慈町","koaza":"第二十三地割","lat":40.16747,"lng":141.748222,"zip":"0280071"},{"town":"小久慈町","koaza":"第二十四地割","lat":40.170109,"lng":141.748745,"zip":"0280071"},{"town":"小久慈町","koaza":"第五十四地割","lat":40.161756,"lng":141.749858,"zip":"0280071"},{"town":"川貫","koaza":"第七地割","lat":40.191208,"lng":141.752526,"zip":"0280082"},{"town":"寺里","koaza":"第三十三地割","lat":40.196304,"lng":141.750088,"zip":"0280032"},{"town":"寺里","koaza":"第三十一地割","lat":40.195327,"lng":141.7506,"zip":"0280032"},{"town":"小久慈町","koaza":"第五十二地割","lat":40.163413,"lng":141.749969,"zip":"0280071"},{"town":"寺里","koaza":"第三十四地割","lat":40.197681,"lng":141.750004,"zip":"0280032"},{"town":"小久慈町","koaza":"第二十七地割","lat":40.170739,"lng":141.752363,"zip":"0280071"},{"town":"小久慈町","koaza":"第二十六地割","lat":40.171113,"lng":141.750769,"zip":"0280071"},{"town":"小久慈町","koaza":"第三十地割","lat":40.175097,"lng":141.752397,"zip":"0280071"},{"town":"小久慈町","koaza":"第五十五地割","lat":40.162047,"lng":141.750658,"zip":"0280071"},{"town":"川貫","koaza":"第十地割","lat":40.187644,"lng":141.751108,"zip":"0280082"},{"town":"川貫","koaza":"第九地割","lat":40.189239,"lng":141.751484,"zip":"0280082"},{"town":"小久慈町","koaza":"第四十九地割","lat":40.164893,"lng":141.753198,"zip":"0280071"},{"town":"小久慈町","koaza":"第四十七地割","lat":40.168289,"lng":141.753654,"zip":"0280071"},{"town":"小久慈町","koaza":"第四十八地割","lat":40.166194,"lng":141.750922,"zip":"0280071"},{"town":"小久慈町","koaza":"第五十一地割","lat":40.162583,"lng":141.751798,"zip":"0280071"},{"town":"天神堂","koaza":"第三十三地割","lat":40.198313,"lng":141.753046,"zip":"0280031"},{"town":"栄町","koaza":"第三十一地割","lat":40.196075,"lng":141.754018,"zip":"0280024"},{"town":"小久慈町","koaza":"第四十六地割","lat":40.166215,"lng":141.753693,"zip":"0280071"},{"town":"小久慈町","koaza":"第二十九地割","lat":40.172469,"lng":141.753264,"zip":"0280071"},{"town":"西の沢","koaza":"第六地割","lat":40.191132,"lng":141.755764,"zip":"0280081"},{"town":"川貫","koaza":"第五地割","lat":40.188411,"lng":141.756765,"zip":"0280082"},{"town":"小久慈町","koaza":"第三十三地割","lat":40.175017,"lng":141.754433,"zip":"0280071"},{"town":"小久慈町","koaza":"第二十八地割","lat":40.171885,"lng":141.754879,"zip":"0280071"},{"town":"小久慈町","koaza":"第三十一地割","lat":40.177886,"lng":141.755927,"zip":"0280071"},{"town":"小久慈町","koaza":"第三十二地割","lat":40.176277,"lng":141.755444,"zip":"0280071"},{"town":"夏井町","koaza":"夏井","lat":40.221017,"lng":141.756795,"zip":"0280001"},{"town":"小久慈町","koaza":"第四十五地割","lat":40.166415,"lng":141.756123,"zip":"0280071"},{"town":"小久慈町","koaza":"第三十五地割","lat":40.17513,"lng":141.756483,"zip":"0280071"},{"town":"夏井町","koaza":"黒沼","lat":40.22211,"lng":141.760462,"zip":"0280001"},{"town":"小久慈町","koaza":"第四十三地割","lat":40.169439,"lng":141.757691,"zip":"0280071"},{"town":"西の沢","koaza":"第五地割","lat":40.189805,"lng":141.756365,"zip":"0280081"},{"town":"小久慈町","koaza":"第三十四地割","lat":40.173234,"lng":141.757956,"zip":"0280071"},{"town":"栄町","koaza":"第三十二地割","lat":40.196243,"lng":141.758456,"zip":"0280024"},{"town":"長内町","koaza":"第十地割","lat":40.181074,"lng":141.759372,"zip":"0280041"},{"town":"荒町","koaza":"第三地割","lat":40.192508,"lng":141.757418,"zip":"0280063"},{"town":"天神堂","koaza":"第三十五地割","lat":40.201095,"lng":141.759491,"zip":"0280031"},{"town":"門前","koaza":"第一地割","lat":40.203146,"lng":141.763783,"zip":"0280021"},{"town":"天神堂","koaza":"第三十六地割","lat":40.199451,"lng":141.759707,"zip":"0280031"},{"town":"天神堂","koaza":"第三十二地割","lat":40.196498,"lng":141.759347,"zip":"0280031"},{"town":"小久慈町","koaza":"第四十一地割","lat":40.170104,"lng":141.758568,"zip":"0280071"},{"town":"小久慈町","koaza":"第四十二地割","lat":40.171468,"lng":141.757471,"zip":"0280071"},{"town":"小久慈町","koaza":"第三十六地割","lat":40.174436,"lng":141.760392,"zip":"0280071"},{"town":"夏井町","koaza":"早坂","lat":40.218771,"lng":141.772295,"zip":"0280001"},{"town":"小久慈町","koaza":"第三十七地割","lat":40.172789,"lng":141.759447,"zip":"0280071"},{"town":"長内町","koaza":"第十一地割","lat":40.178669,"lng":141.760915,"zip":"0280041"},{"town":"荒町","koaza":"第四地割","lat":40.190658,"lng":141.761089,"zip":"0280063"},{"town":"天神堂","koaza":"第三十七地割","lat":40.197273,"lng":141.761413,"zip":"0280031"},{"town":"長内町","koaza":"第九地割","lat":40.181881,"lng":141.765069,"zip":"0280041"},{"town":"長内町","koaza":"第十二地割","lat":40.176752,"lng":141.763562,"zip":"0280041"},{"town":"栄町","koaza":"第三十七地割","lat":40.194344,"lng":141.762737,"zip":"0280024"},{"town":"中町","koaza":"第一地割","lat":40.189112,"lng":141.763425,"zip":"0280056"},{"town":"長内町","koaza":"第十七地割","lat":40.170602,"lng":141.774355,"zip":"0280041"},{"town":"宇部町","koaza":"第三地割","lat":40.140806,"lng":141.775804,"zip":"0288111"},{"town":"八日町","koaza":"第四地割","lat":40.190095,"lng":141.762169,"zip":"0280064"},{"town":"小久慈町","koaza":"第三十九地割","lat":40.172367,"lng":141.76358,"zip":"0280071"},{"town":"宇部町","koaza":"第二地割","lat":40.148772,"lng":141.765428,"zip":"0288111"},{"town":"門前","koaza":"第三十六地割","lat":40.199763,"lng":141.763907,"zip":"0280021"},{"town":"長内町","koaza":"第八地割","lat":40.178918,"lng":141.765382,"zip":"0280041"},{"town":"門前","koaza":"第三十七地割","lat":40.197723,"lng":141.764209,"zip":"0280021"},{"town":"巽町","koaza":"第五地割","lat":40.187406,"lng":141.767501,"zip":"0280055"},{"town":"長内町","koaza":"第十三地割","lat":40.173148,"lng":141.764808,"zip":"0280041"},{"town":"小久慈町","koaza":"第三十八地割","lat":40.173468,"lng":141.764567,"zip":"0280071"},{"town":"長内町","koaza":"第十六地割","lat":40.181847,"lng":141.772423,"zip":"0280041"},{"town":"柏崎","koaza":"第五地割","lat":40.186588,"lng":141.766571,"zip":"0280054"},{"town":"門前","koaza":"第二地割","lat":40.198807,"lng":141.767054,"zip":"0280021"},{"town":"長内町","koaza":"第六地割","lat":40.182957,"lng":141.766635,"zip":"0280041"},{"town":"新中の橋","koaza":"第四地割","lat":40.194428,"lng":141.768066,"zip":"0280023"},{"town":"門前","koaza":"第四地割","lat":40.196219,"lng":141.768726,"zip":"0280021"},{"town":"長内町","koaza":"第七地割","lat":40.181806,"lng":141.768244,"zip":"0280041"},{"town":"門前","koaza":"第三地割","lat":40.198414,"lng":141.76965,"zip":"0280021"},{"town":"門前","koaza":"第五地割","lat":40.194702,"lng":141.770262,"zip":"0280021"},{"town":"門前","koaza":"第六地割","lat":40.198,"lng":141.772112,"zip":"0280021"},{"town":"田屋町","koaza":"第一地割","lat":40.194796,"lng":141.774641,"zip":"0280022"},{"town":"旭町","koaza":"第七地割","lat":40.201198,"lng":141.776822,"zip":"0280014"},{"town":"長内町","koaza":"第二十一地割","lat":40.183141,"lng":141.773568,"zip":"0280041"},{"town":"長内町","koaza":"第二十四地割","lat":40.186969,"lng":141.774672,"zip":"0280041"},{"town":"京の森","koaza":"第七地割","lat":40.203108,"lng":141.772485,"zip":"0280013"},{"town":"長内町","koaza":"第二十二地割","lat":40.185123,"lng":141.773717,"zip":"0280041"},{"town":"旭町","koaza":"第八地割","lat":40.198318,"lng":141.77335,"zip":"0280014"},{"town":"田屋町","koaza":"第二地割","lat":40.196559,"lng":141.775026,"zip":"0280022"},{"town":"長内町","koaza":"第十八地割","lat":40.16867,"lng":141.775002,"zip":"0280041"},{"town":"夏井町","koaza":"鳥谷","lat":40.223698,"lng":141.781178,"zip":"0280001"},{"town":"長内町","koaza":"第二十三地割","lat":40.184164,"lng":141.776497,"zip":"0280041"},{"town":"夏井町","koaza":"大崎","lat":40.212852,"lng":141.782323,"zip":"0280001"},{"town":"長内町","koaza":"第二十地割","lat":40.17752,"lng":141.78124,"zip":"0280041"},{"town":"夏井町","koaza":"大崎第三地割","lat":40.206582,"lng":141.785414,"zip":"0280001"},{"town":"宇部町","koaza":"第四地割","lat":40.127875,"lng":141.77972,"zip":"0288111"},{"town":"宇部町","koaza":"第一地割","lat":40.126994,"lng":141.77683,"zip":"0288111"},{"town":"長内町","koaza":"第十九地割","lat":40.173782,"lng":141.776329,"zip":"0280041"},{"town":"夏井町","koaza":"大崎第一地割","lat":40.211137,"lng":141.777026,"zip":"0280001"},{"town":"旭町","koaza":"第九地割","lat":40.199956,"lng":141.776443,"zip":"0280014"},{"town":"旭町","koaza":"第十地割","lat":40.198807,"lng":141.778575,"zip":"0280014"},{"town":"新井田","koaza":"第五地割","lat":40.19514,"lng":141.781268,"zip":"0280012"},{"town":"長内町","koaza":"第二十六地割","lat":40.184637,"lng":141.779272,"zip":"0280041"},{"town":"長内町","koaza":"第二十八地割","lat":40.184228,"lng":141.783415,"zip":"0280041"},{"town":"新井田","koaza":"第三地割","lat":40.197774,"lng":141.780304,"zip":"0280012"},{"town":"長内町","koaza":"第二十五地割","lat":40.188817,"lng":141.77824,"zip":"0280041"},{"town":"新井田","koaza":"第四地割","lat":40.196456,"lng":141.781791,"zip":"0280012"},{"town":"旭町","koaza":"第十一地割","lat":40.200417,"lng":141.780396,"zip":"0280014"},{"town":"長内町","koaza":"第二十七地割","lat":40.187235,"lng":141.781447,"zip":"0280041"},{"town":"夏井町","koaza":"閉伊口","lat":40.220315,"lng":141.799252,"zip":"0280001"},{"town":"長内町","koaza":"第三十二地割","lat":40.18958,"lng":141.781281,"zip":"0280041"},{"town":"源道","koaza":"第十二地割","lat":40.200563,"lng":141.78189,"zip":"0280015"},{"town":"源道","koaza":"第十三地割","lat":40.202839,"lng":141.785853,"zip":"0280015"},{"town":"宇部町","koaza":"第五地割","lat":40.133005,"lng":141.786702,"zip":"0288111"},{"town":"長内町","koaza":"第三十地割","lat":40.189652,"lng":141.785432,"zip":"0280041"},{"town":"長内町","koaza":"第三十一地割","lat":40.189619,"lng":141.782688,"zip":"0280041"},{"town":"宇部町","koaza":"第六地割","lat":40.127942,"lng":141.788808,"zip":"0288111"},{"town":"源道","koaza":"第十四地割","lat":40.200485,"lng":141.783703,"zip":"0280015"},{"town":"長内町","koaza":"第二十九地割","lat":40.187683,"lng":141.785369,"zip":"0280041"},{"town":"湊町","koaza":"第十五地割","lat":40.197189,"lng":141.786056,"zip":"0280011"},{"town":"長内町","koaza":"第三十四地割","lat":40.189487,"lng":141.788985,"zip":"0280041"},{"town":"源道","koaza":"第十七地割","lat":40.202001,"lng":141.788741,"zip":"0280015"},{"town":"源道","koaza":"第十六地割","lat":40.200049,"lng":141.787363,"zip":"0280015"},{"town":"宇部町","koaza":"第八地割","lat":40.129582,"lng":141.789565,"zip":"0288111"},{"town":"長内町","koaza":"第三十五地割","lat":40.185769,"lng":141.794402,"zip":"0280041"},{"town":"夏井町","koaza":"大崎第八地割","lat":40.211536,"lng":141.789443,"zip":"0280001"},{"town":"湊町","koaza":"第十七地割","lat":40.200491,"lng":141.789552,"zip":"0280011"},{"town":"長内町","koaza":"第三十七地割","lat":40.192739,"lng":141.790472,"zip":"0280041"},{"town":"夏井町","koaza":"大崎第九地割","lat":40.209871,"lng":141.789778,"zip":"0280001"},{"town":"湊町","koaza":"第十八地割","lat":40.200077,"lng":141.791288,"zip":"0280011"},{"town":"夏井町","koaza":"大崎第十地割","lat":40.208387,"lng":141.790324,"zip":"0280001"},{"town":"長内町","koaza":"第三十六地割","lat":40.188284,"lng":141.792831,"zip":"0280041"},{"town":"宇部町","koaza":"第七地割","lat":40.123556,"lng":141.794211,"zip":"0288111"},{"town":"湊町","koaza":"第十三地割","lat":40.204028,"lng":141.791052,"zip":"0280011"},{"town":"夏井町","koaza":"大崎第十一地割","lat":40.208988,"lng":141.792044,"zip":"0280001"},{"town":"湊町","koaza":"第十九地割","lat":40.201298,"lng":141.791197,"zip":"0280011"},{"town":"長内町","koaza":"第四十地割","lat":40.196516,"lng":141.796378,"zip":"0280041"},{"town":"宇部町","koaza":"第十地割","lat":40.127153,"lng":141.798718,"zip":"0288111"},{"town":"夏井町","koaza":"大崎第十二地割","lat":40.210763,"lng":141.792837,"zip":"0280001"},{"town":"宇部町","koaza":"第十七地割","lat":40.1333,"lng":141.808023,"zip":"0288111"},{"town":"湊町","koaza":"第二十地割","lat":40.202241,"lng":141.793573,"zip":"0280011"},{"town":"夏井町","koaza":"大崎第十四地割","lat":40.206713,"lng":141.794455,"zip":"0280001"},{"town":"夏井町","koaza":"大崎第十三地割","lat":40.210139,"lng":141.79448,"zip":"0280001"},{"town":"夏井町","koaza":"閉伊口第九地割","lat":40.211421,"lng":141.798778,"zip":"0280001"},{"town":"長内町","koaza":"第四十二地割","lat":40.194928,"lng":141.796545,"zip":"0280041"},{"town":"湊町","koaza":"第二十三地割","lat":40.203227,"lng":141.79441,"zip":"0280011"},{"town":"湊町","koaza":"第二十二地割","lat":40.204857,"lng":141.795057,"zip":"0280011"},{"town":"宇部町","koaza":"第九地割","lat":40.126334,"lng":141.798172,"zip":"0288111"},{"town":"長内町","koaza":"第四十三地割","lat":40.179924,"lng":141.808716,"zip":"0280041"},{"town":"宇部町","koaza":"第十二地割","lat":40.122311,"lng":141.800541,"zip":"0288111"},{"town":"宇部町","koaza":"第十六地割","lat":40.125943,"lng":141.809144,"zip":"0288111"},{"town":"宇部町","koaza":"第十一地割","lat":40.122724,"lng":141.805079,"zip":"0288111"},{"town":"侍浜町","koaza":"麦生","lat":40.220538,"lng":141.810958,"zip":"0287801"},{"town":"宇部町","koaza":"第十三地割","lat":40.12013,"lng":141.808414,"zip":"0288111"},{"town":"長内町","koaza":"第四十四地割","lat":40.18164,"lng":141.808931,"zip":"0280041"},{"town":"宇部町","koaza":"第十五地割","lat":40.121815,"lng":141.809843,"zip":"0288111"},{"town":"宇部町","koaza":"第十八地割","lat":40.131252,"lng":141.809566,"zip":"0288111"},{"town":"宇部町","koaza":"第十四地割","lat":40.118486,"lng":141.814539,"zip":"0288111"},{"town":"小久慈町","koaza":"第十七地割","lat":40.16648,"lng":141.742073,"zip":"0280071"},{"town":"小久慈町","koaza":"第十一地割","lat":40.166495,"lng":141.734123,"zip":"0280071"},{"town":"新中の橋","koaza":"第五地割","lat":40.194448,"lng":141.769978,"zip":"0280023"},{"town":"長内町","koaza":"第三十三地割","lat":40.192622,"lng":141.787434,"zip":"0280041"},{"town":"新中の橋","koaza":"第三十七地割","lat":40.195069,"lng":141.765648,"zip":"0280023"},{"town":"夏井町","koaza":"早坂第十四地割","lat":40.217641,"lng":141.781875,"zip":"0280001"},{"town":"夏井町","koaza":"夏井第一地割","lat":40.22211,"lng":141.754256,"zip":"0280001"},{"town":"夏井町","koaza":"早坂第三地割","lat":40.217751,"lng":141.763569,"zip":"0280001"},{"town":"夏井町","koaza":"早坂第八地割","lat":40.216282,"lng":141.773643,"zip":"0280001"},{"town":"夏井町","koaza":"鳥谷第八地割","lat":40.218765,"lng":141.784231,"zip":"0280001"},{"town":"夏井町","koaza":"鳥谷第七地割","lat":40.224273,"lng":141.782651,"zip":"0280001"}]