[{"town":"姉帯","koaza":"","lat":40.161251,"lng":141.336756,"zip":"0285222"},{"town":"出ル町","koaza":"","lat":40.149975,"lng":141.202299,"zip":"0285304"},{"town":"一戸","koaza":"","lat":40.224688,"lng":141.289535,"zip":"0285312"},{"town":"岩舘","koaza":"","lat":40.193021,"lng":141.308028,"zip":"0285316"},{"town":"宇別","koaza":"","lat":40.064252,"lng":141.296179,"zip":"0285131"},{"town":"奥中山","koaza":"","lat":40.085142,"lng":141.21771,"zip":"0285134"},{"town":"小友","koaza":"","lat":40.155526,"lng":141.242666,"zip":"0285303"},{"town":"面岸","koaza":"","lat":40.168973,"lng":141.371229,"zip":"0285223"},{"town":"高善寺","koaza":"","lat":40.216691,"lng":141.29043,"zip":"0285311"},{"town":"小鳥谷","koaza":"","lat":40.153408,"lng":141.29769,"zip":"0285221"},{"town":"小繋","koaza":"","lat":40.122662,"lng":141.270493,"zip":"0285132"},{"town":"西法寺","koaza":"","lat":40.200904,"lng":141.291199,"zip":"0285301"},{"town":"月舘","koaza":"","lat":40.185539,"lng":141.24311,"zip":"0285305"},{"town":"鳥越","koaza":"","lat":40.235087,"lng":141.277271,"zip":"0285313"},{"town":"中里","koaza":"","lat":40.203537,"lng":141.262504,"zip":"0285306"},{"town":"中山","koaza":"","lat":40.07508,"lng":141.254735,"zip":"0285233"},{"town":"楢山","koaza":"","lat":40.219915,"lng":141.354358,"zip":"0285314"},{"town":"根反","koaza":"","lat":40.191156,"lng":141.348791,"zip":"0285315"},{"town":"平糠","koaza":"","lat":40.095399,"lng":141.308737,"zip":"0285224"},{"town":"女鹿","koaza":"","lat":40.147406,"lng":141.25945,"zip":"0285302"},{"town":"鳥越","koaza":"悪戸平","lat":40.241952,"lng":141.269479,"zip":"0285313"},{"town":"鳥越","koaza":"川原田平","lat":40.240595,"lng":141.273332,"zip":"0285313"},{"town":"鳥越","koaza":"上野平","lat":40.240544,"lng":141.27488,"zip":"0285313"},{"town":"鳥越","koaza":"額卸","lat":40.234891,"lng":141.276432,"zip":"0285313"},{"town":"鳥越","koaza":"野月内舘","lat":40.234054,"lng":141.279602,"zip":"0285313"},{"town":"一戸","koaza":"親久保","lat":40.23157,"lng":141.278058,"zip":"0285312"},{"town":"一戸","koaza":"樋ノ口","lat":40.223966,"lng":141.285461,"zip":"0285312"},{"town":"鳥越","koaza":"野月道ノ下","lat":40.236171,"lng":141.280905,"zip":"0285313"},{"town":"鳥越","koaza":"宮古沢","lat":40.243598,"lng":141.283753,"zip":"0285313"},{"town":"鳥越","koaza":"滝ノ沢","lat":40.240199,"lng":141.281315,"zip":"0285313"},{"town":"鳥越","koaza":"中野平","lat":40.237929,"lng":141.282739,"zip":"0285313"},{"town":"西法寺","koaza":"平田沢","lat":40.207355,"lng":141.291776,"zip":"0285301"},{"town":"一戸","koaza":"大越田","lat":40.22981,"lng":141.28879,"zip":"0285312"},{"town":"鳥越","koaza":"中屋敷","lat":40.242686,"lng":141.285481,"zip":"0285313"},{"town":"鳥越","koaza":"戸屋森","lat":40.241346,"lng":141.286277,"zip":"0285313"},{"town":"一戸","koaza":"越田橋","lat":40.224578,"lng":141.293517,"zip":"0285312"},{"town":"高善寺","koaza":"蒼前久保","lat":40.21237,"lng":141.293163,"zip":"0285311"},{"town":"一戸","koaza":"蒔前","lat":40.22289,"lng":141.29715,"zip":"0285312"},{"town":"西法寺","koaza":"稲荷","lat":40.209809,"lng":141.296497,"zip":"0285301"},{"town":"高善寺","koaza":"大川鉢","lat":40.214474,"lng":141.295609,"zip":"0285311"},{"town":"高善寺","koaza":"古舘平","lat":40.218086,"lng":141.296506,"zip":"0285311"},{"town":"西法寺","koaza":"関屋","lat":40.203867,"lng":141.296933,"zip":"0285301"},{"town":"一戸","koaza":"小井田","lat":40.225372,"lng":141.297743,"zip":"0285312"},{"town":"西法寺","koaza":"諏訪野","lat":40.207511,"lng":141.297818,"zip":"0285301"},{"town":"高善寺","koaza":"野田","lat":40.213773,"lng":141.298391,"zip":"0285311"},{"town":"一戸","koaza":"砂森","lat":40.209194,"lng":141.303704,"zip":"0285312"},{"town":"一戸","koaza":"向町","lat":40.216164,"lng":141.300144,"zip":"0285312"},{"town":"一戸","koaza":"本町","lat":40.219183,"lng":141.299138,"zip":"0285312"},{"town":"西法寺","koaza":"舘越","lat":40.193244,"lng":141.302223,"zip":"0285301"},{"town":"楢山","koaza":"平船向","lat":40.230565,"lng":141.298323,"zip":"0285314"},{"town":"一戸","koaza":"大沢","lat":40.223397,"lng":141.301573,"zip":"0285312"},{"town":"小鳥谷","koaza":"女鹿口","lat":40.190892,"lng":141.304545,"zip":"0285221"},{"town":"岩舘","koaza":"馬場平","lat":40.198564,"lng":141.303003,"zip":"0285316"},{"town":"一戸","koaza":"北舘","lat":40.215448,"lng":141.305556,"zip":"0285312"},{"town":"岩舘","koaza":"沢田","lat":40.201067,"lng":141.303798,"zip":"0285316"},{"town":"楢山","koaza":"平船","lat":40.229931,"lng":141.303046,"zip":"0285314"},{"town":"岩舘","koaza":"子守","lat":40.196543,"lng":141.306896,"zip":"0285316"},{"town":"一戸","koaza":"田中","lat":40.208068,"lng":141.30923,"zip":"0285312"},{"town":"一戸","koaza":"上野","lat":40.211631,"lng":141.308044,"zip":"0285312"},{"town":"岩舘","koaza":"田中","lat":40.202389,"lng":141.307389,"zip":"0285316"},{"town":"岩舘","koaza":"舘","lat":40.199739,"lng":141.30906,"zip":"0285316"},{"town":"根反","koaza":"漆畑","lat":40.193668,"lng":141.31057,"zip":"0285315"},{"town":"岩舘","koaza":"御所野","lat":40.196042,"lng":141.315212,"zip":"0285316"},{"town":"岩舘","koaza":"下地切","lat":40.200723,"lng":141.31491,"zip":"0285316"},{"town":"一戸","koaza":"大道沢","lat":40.230474,"lng":141.296346,"zip":"0285312"},{"town":"鳥越","koaza":"過利石","lat":40.242713,"lng":141.284314,"zip":"0285313"},{"town":"鳥越","koaza":"駒木平","lat":40.24757,"lng":141.271239,"zip":"0285313"},{"town":"鳥越","koaza":"太田","lat":40.239008,"lng":141.277382,"zip":"0285313"},{"town":"一戸","koaza":"前田","lat":40.227734,"lng":141.288712,"zip":"0285312"},{"town":"高善寺","koaza":"寺屋敷","lat":40.211612,"lng":141.292768,"zip":"0285311"},{"town":"西法寺","koaza":"西法寺","lat":40.206086,"lng":141.289361,"zip":"0285301"},{"town":"女鹿","koaza":"草木","lat":40.191361,"lng":141.297978,"zip":"0285302"},{"town":"根反","koaza":"御所野","lat":40.193581,"lng":141.317452,"zip":"0285315"},{"town":"岩舘","koaza":"上地切","lat":40.198397,"lng":141.317883,"zip":"0285316"},{"town":"西法寺","koaza":"大平","lat":40.200486,"lng":141.290939,"zip":"0285301"},{"town":"高善寺","koaza":"傘木","lat":40.219172,"lng":141.294165,"zip":"0285311"},{"town":"鳥越","koaza":"稲荷沢","lat":40.236178,"lng":141.283372,"zip":"0285313"}]