[{"town":"安比","koaza":"","lat":40.243094,"lng":141.215237,"zip":"0286723"},{"town":"石切所","koaza":"","lat":40.257674,"lng":141.280656,"zip":"0286103"},{"town":"釜沢","koaza":"","lat":40.351312,"lng":141.314397,"zip":"0285713"},{"town":"上斗米","koaza":"","lat":40.277241,"lng":141.163335,"zip":"0286108"},{"town":"金田一","koaza":"","lat":40.32054,"lng":141.318425,"zip":"0285711"},{"town":"下斗米","koaza":"","lat":40.296388,"lng":141.235349,"zip":"0285702"},{"town":"浄法寺町","koaza":"","lat":40.17617,"lng":141.109438,"zip":"0286857"},{"town":"白鳥","koaza":"","lat":40.245232,"lng":141.352176,"zip":"0286107"},{"town":"足沢","koaza":"","lat":40.243599,"lng":141.161612,"zip":"0286724"},{"town":"仁左平","koaza":"","lat":40.308164,"lng":141.331566,"zip":"0286106"},{"town":"似鳥","koaza":"","lat":40.240039,"lng":141.246793,"zip":"0286721"},{"town":"野々上","koaza":"","lat":40.319446,"lng":141.27268,"zip":"0285712"},{"town":"福岡","koaza":"","lat":40.279813,"lng":141.333986,"zip":"0286101"},{"town":"福田","koaza":"","lat":40.219451,"lng":141.214006,"zip":"0286722"},{"town":"堀野","koaza":"","lat":40.292914,"lng":141.305376,"zip":"0286105"},{"town":"米沢","koaza":"","lat":40.279412,"lng":141.282161,"zip":"0286104"},{"town":"石切所","koaza":"晴山","lat":40.254582,"lng":141.280711,"zip":"0286103"},{"town":"石切所","koaza":"松ノ木田","lat":40.260401,"lng":141.280485,"zip":"0286103"},{"town":"石切所","koaza":"台中平","lat":40.252629,"lng":141.282682,"zip":"0286103"},{"town":"石切所","koaza":"横長根","lat":40.260558,"lng":141.278465,"zip":"0286103"},{"town":"石切所","koaza":"上里沢","lat":40.258589,"lng":141.281747,"zip":"0286103"},{"town":"石切所","koaza":"野中","lat":40.255055,"lng":141.279959,"zip":"0286103"},{"town":"米沢","koaza":"上平","lat":40.280349,"lng":141.288135,"zip":"0286104"},{"town":"石切所","koaza":"大渕","lat":40.252723,"lng":141.279302,"zip":"0286103"},{"town":"石切所","koaza":"諏訪前","lat":40.257042,"lng":141.283146,"zip":"0286103"},{"town":"米沢","koaza":"上村","lat":40.279235,"lng":141.290792,"zip":"0286104"},{"town":"石切所","koaza":"火行塚","lat":40.260337,"lng":141.281823,"zip":"0286103"},{"town":"石切所","koaza":"向川原","lat":40.250706,"lng":141.281701,"zip":"0286103"},{"town":"米沢","koaza":"沢内","lat":40.289011,"lng":141.288892,"zip":"0286104"},{"town":"石切所","koaza":"大村","lat":40.265196,"lng":141.286316,"zip":"0286103"},{"town":"石切所","koaza":"森合","lat":40.2611,"lng":141.284844,"zip":"0286103"},{"town":"石切所","koaza":"川原","lat":40.254101,"lng":141.288857,"zip":"0286103"},{"town":"石切所","koaza":"前田","lat":40.257213,"lng":141.285183,"zip":"0286103"},{"town":"石切所","koaza":"枋ノ木","lat":40.259357,"lng":141.286661,"zip":"0286103"},{"town":"石切所","koaza":"荒瀬","lat":40.254496,"lng":141.287129,"zip":"0286103"},{"town":"石切所","koaza":"風吹","lat":40.253533,"lng":141.292026,"zip":"0286103"},{"town":"石切所","koaza":"下ノ平","lat":40.269851,"lng":141.290742,"zip":"0286103"},{"town":"米沢","koaza":"家ノ上","lat":40.285211,"lng":141.29024,"zip":"0286104"},{"town":"石切所","koaza":"田尻平","lat":40.256764,"lng":141.288084,"zip":"0286103"},{"town":"石切所","koaza":"前小路","lat":40.264124,"lng":141.289178,"zip":"0286103"},{"town":"金田一","koaza":"海老田","lat":40.297252,"lng":141.293509,"zip":"0285711"},{"town":"石切所","koaza":"牛間木","lat":40.261818,"lng":141.290096,"zip":"0286103"},{"town":"金田一","koaza":"新田野","lat":40.303559,"lng":141.296598,"zip":"0285711"},{"town":"石切所","koaza":"船場","lat":40.259108,"lng":141.291384,"zip":"0286103"},{"town":"石切所","koaza":"荷渡","lat":40.268194,"lng":141.294485,"zip":"0286103"},{"town":"金田一","koaza":"舘","lat":40.309675,"lng":141.300196,"zip":"0285711"},{"town":"金田一","koaza":"下山井","lat":40.335009,"lng":141.30084,"zip":"0285711"},{"town":"石切所","koaza":"中道","lat":40.269719,"lng":141.293712,"zip":"0286103"},{"town":"福岡","koaza":"八幡下","lat":40.264355,"lng":141.294236,"zip":"0286101"},{"town":"石切所","koaza":"杉ノ沢","lat":40.260934,"lng":141.293325,"zip":"0286103"},{"town":"金田一","koaza":"沢田","lat":40.310241,"lng":141.293811,"zip":"0285711"},{"town":"石切所","koaza":"狼穴","lat":40.268868,"lng":141.295583,"zip":"0286103"},{"town":"米沢","koaza":"荒谷","lat":40.283394,"lng":141.294065,"zip":"0286104"},{"town":"米沢","koaza":"下村","lat":40.278973,"lng":141.295357,"zip":"0286104"},{"town":"堀野","koaza":"下タ川原","lat":40.290309,"lng":141.2944,"zip":"0286105"},{"town":"福岡","koaza":"五日町","lat":40.267321,"lng":141.299265,"zip":"0286101"},{"town":"金田一","koaza":"小野","lat":40.334784,"lng":141.296681,"zip":"0285711"},{"town":"石切所","koaza":"中曽根","lat":40.271871,"lng":141.295201,"zip":"0286103"},{"town":"米沢","koaza":"長瀬","lat":40.295572,"lng":141.294647,"zip":"0286104"},{"town":"福岡","koaza":"橋場","lat":40.266004,"lng":141.296473,"zip":"0286101"},{"town":"金田一","koaza":"水梨","lat":40.323691,"lng":141.303241,"zip":"0285711"},{"town":"福岡","koaza":"下川原","lat":40.275609,"lng":141.297132,"zip":"0286101"},{"town":"石切所","koaza":"上野々","lat":40.259135,"lng":141.298365,"zip":"0286103"},{"town":"堀野","koaza":"長瀬","lat":40.295517,"lng":141.295787,"zip":"0286105"},{"town":"金田一","koaza":"上平","lat":40.302222,"lng":141.297424,"zip":"0285711"},{"town":"堀野","koaza":"三十刈","lat":40.284679,"lng":141.296531,"zip":"0286105"},{"town":"石切所","koaza":"古川","lat":40.269174,"lng":141.297457,"zip":"0286103"},{"town":"福岡","koaza":"八幡平","lat":40.263521,"lng":141.2988,"zip":"0286101"},{"town":"米沢","koaza":"下平","lat":40.297488,"lng":141.296145,"zip":"0286104"},{"town":"堀野","koaza":"東側","lat":40.289122,"lng":141.296424,"zip":"0286105"},{"town":"金田一","koaza":"上田面","lat":40.303705,"lng":141.301495,"zip":"0285711"},{"town":"福岡","koaza":"長嶺","lat":40.280953,"lng":141.299291,"zip":"0286101"},{"town":"堀野","koaza":"馬場","lat":40.296155,"lng":141.298769,"zip":"0286105"},{"town":"金田一","koaza":"野月","lat":40.31378,"lng":141.304299,"zip":"0285711"},{"town":"堀野","koaza":"長地","lat":40.295155,"lng":141.300413,"zip":"0286105"},{"town":"福岡","koaza":"横丁","lat":40.273544,"lng":141.299293,"zip":"0286101"},{"town":"福岡","koaza":"裏小路","lat":40.276057,"lng":141.298675,"zip":"0286101"},{"town":"福岡","koaza":"田町","lat":40.277157,"lng":141.299152,"zip":"0286101"},{"town":"石切所","koaza":"穴切","lat":40.260325,"lng":141.30108,"zip":"0286103"},{"town":"石切所","koaza":"合野々","lat":40.259988,"lng":141.302398,"zip":"0286103"},{"town":"福岡","koaza":"松ノ丸","lat":40.26673,"lng":141.300258,"zip":"0286101"},{"town":"金田一","koaza":"権現","lat":40.321656,"lng":141.30138,"zip":"0285711"},{"town":"福岡","koaza":"下町","lat":40.276415,"lng":141.300043,"zip":"0286101"},{"town":"福岡","koaza":"下中町","lat":40.274918,"lng":141.300474,"zip":"0286101"},{"town":"福岡","koaza":"前田","lat":40.278183,"lng":141.300386,"zip":"0286101"},{"town":"福岡","koaza":"城ノ外","lat":40.269966,"lng":141.301719,"zip":"0286101"},{"town":"福岡","koaza":"在府小路","lat":40.264919,"lng":141.302138,"zip":"0286101"},{"town":"福岡","koaza":"中町","lat":40.273883,"lng":141.300755,"zip":"0286101"},{"town":"福岡","koaza":"落久保","lat":40.271276,"lng":141.301405,"zip":"0286101"},{"town":"福岡","koaza":"上町","lat":40.273293,"lng":141.300815,"zip":"0286101"},{"town":"堀野","koaza":"大川原毛","lat":40.300606,"lng":141.304138,"zip":"0286105"},{"town":"福岡","koaza":"杉中","lat":40.277089,"lng":141.300869,"zip":"0286101"},{"town":"石切所","koaza":"鳥谷森沢","lat":40.258979,"lng":141.300687,"zip":"0286103"},{"town":"福岡","koaza":"町裏","lat":40.273787,"lng":141.301442,"zip":"0286101"},{"town":"金田一","koaza":"下平道ノ上","lat":40.319071,"lng":141.303722,"zip":"0285711"},{"town":"福岡","koaza":"城ノ内","lat":40.267403,"lng":141.303454,"zip":"0286101"},{"town":"堀野","koaza":"大谷地","lat":40.294527,"lng":141.301691,"zip":"0286105"},{"town":"福岡","koaza":"下川又","lat":40.272519,"lng":141.304413,"zip":"0286101"},{"town":"金田一","koaza":"荒田","lat":40.308125,"lng":141.30461,"zip":"0285711"},{"town":"福岡","koaza":"高清水","lat":40.279129,"lng":141.304581,"zip":"0286101"},{"town":"福岡","koaza":"上平","lat":40.275524,"lng":141.304588,"zip":"0286101"},{"town":"石切所","koaza":"馬作目","lat":40.261587,"lng":141.302805,"zip":"0286103"},{"town":"石切所","koaza":"槻ノ木沢","lat":40.253528,"lng":141.304284,"zip":"0286103"},{"town":"金田一","koaza":"段ノ越","lat":40.33118,"lng":141.302799,"zip":"0285711"},{"town":"堀野","koaza":"道ノ上","lat":40.3004,"lng":141.30966,"zip":"0286105"},{"town":"福岡","koaza":"川又","lat":40.270762,"lng":141.305139,"zip":"0286101"},{"town":"福岡","koaza":"大平","lat":40.284279,"lng":141.30587,"zip":"0286101"},{"town":"石切所","koaza":"村松","lat":40.258555,"lng":141.304032,"zip":"0286103"},{"town":"金田一","koaza":"駒焼場","lat":40.324075,"lng":141.305759,"zip":"0285711"},{"town":"堀野","koaza":"大畑","lat":40.297699,"lng":141.307063,"zip":"0286105"},{"town":"金田一","koaza":"八ツ長","lat":40.31252,"lng":141.30884,"zip":"0285711"},{"town":"石切所","koaza":"鐺倉","lat":40.254554,"lng":141.306302,"zip":"0286103"},{"town":"福岡","koaza":"上野沢","lat":40.277536,"lng":141.305329,"zip":"0286101"},{"town":"金田一","koaza":"天間","lat":40.331958,"lng":141.305595,"zip":"0285711"},{"town":"金田一","koaza":"小林","lat":40.324658,"lng":141.30847,"zip":"0285711"},{"town":"金田一","koaza":"大釜","lat":40.319999,"lng":141.306995,"zip":"0285711"},{"town":"石切所","koaza":"柿ノ木平","lat":40.261653,"lng":141.30829,"zip":"0286103"},{"town":"金田一","koaza":"馬場","lat":40.317439,"lng":141.306668,"zip":"0285711"},{"town":"福岡","koaza":"大沢倉","lat":40.278823,"lng":141.306743,"zip":"0286101"},{"town":"福岡","koaza":"陣場","lat":40.275705,"lng":141.3099,"zip":"0286101"},{"town":"石切所","koaza":"大坊下","lat":40.257063,"lng":141.306335,"zip":"0286103"},{"town":"石切所","koaza":"穴牛","lat":40.268418,"lng":141.311991,"zip":"0286103"},{"town":"石切所","koaza":"中穴牛","lat":40.264262,"lng":141.311818,"zip":"0286103"},{"town":"福岡","koaza":"中村","lat":40.272668,"lng":141.311971,"zip":"0286101"},{"town":"仁左平","koaza":"横手","lat":40.306428,"lng":141.308873,"zip":"0286106"},{"town":"石切所","koaza":"天神下","lat":40.260257,"lng":141.310406,"zip":"0286103"},{"town":"石切所","koaza":"上穴牛","lat":40.263776,"lng":141.308868,"zip":"0286103"},{"town":"福岡","koaza":"上野","lat":40.278539,"lng":141.3113,"zip":"0286101"},{"town":"金田一","koaza":"中ノ森","lat":40.326308,"lng":141.309077,"zip":"0285711"},{"town":"金田一","koaza":"沖","lat":40.317562,"lng":141.312866,"zip":"0285711"},{"town":"金田一","koaza":"長川","lat":40.323408,"lng":141.317348,"zip":"0285711"},{"town":"仁左平","koaza":"戸花","lat":40.304527,"lng":141.312941,"zip":"0286106"},{"town":"仁左平","koaza":"小山","lat":40.300076,"lng":141.317461,"zip":"0286106"},{"town":"金田一","koaza":"上山","lat":40.325143,"lng":141.31144,"zip":"0285711"},{"town":"仁左平","koaza":"矢沢","lat":40.311207,"lng":141.314802,"zip":"0286106"},{"town":"福岡","koaza":"鍵取","lat":40.271271,"lng":141.313614,"zip":"0286101"},{"town":"石切所","koaza":"穴牛長久保","lat":40.265476,"lng":141.313084,"zip":"0286103"},{"town":"仁左平","koaza":"稲荷","lat":40.308963,"lng":141.314067,"zip":"0286106"},{"town":"金田一","koaza":"湯田","lat":40.320992,"lng":141.319232,"zip":"0285711"},{"town":"仁左平","koaza":"下構","lat":40.30567,"lng":141.315363,"zip":"0286106"},{"town":"福岡","koaza":"妻ノ神","lat":40.277476,"lng":141.31611,"zip":"0286101"},{"town":"仁左平","koaza":"中田","lat":40.303351,"lng":141.316206,"zip":"0286106"},{"town":"福岡","koaza":"横山","lat":40.276644,"lng":141.31735,"zip":"0286101"},{"town":"福岡","koaza":"矢神","lat":40.271006,"lng":141.318314,"zip":"0286101"},{"town":"仁左平","koaza":"大畑","lat":40.313236,"lng":141.318902,"zip":"0286106"},{"town":"仁左平","koaza":"舘原","lat":40.30903,"lng":141.318001,"zip":"0286106"},{"town":"福岡","koaza":"鳥越","lat":40.284091,"lng":141.318844,"zip":"0286101"},{"town":"仁左平","koaza":"大下","lat":40.304929,"lng":141.318028,"zip":"0286106"},{"town":"福岡","koaza":"尻子内川原","lat":40.267833,"lng":141.317062,"zip":"0286101"},{"town":"福岡","koaza":"大明神平","lat":40.268217,"lng":141.318488,"zip":"0286101"},{"town":"仁左平","koaza":"大段","lat":40.300098,"lng":141.319194,"zip":"0286106"},{"town":"金田一","koaza":"大沼","lat":40.322969,"lng":141.324887,"zip":"0285711"},{"town":"仁左平","koaza":"大子","lat":40.310772,"lng":141.321682,"zip":"0286106"},{"town":"仁左平","koaza":"十文字平","lat":40.311777,"lng":141.325621,"zip":"0286106"},{"town":"仁左平","koaza":"清水向","lat":40.301768,"lng":141.319175,"zip":"0286106"},{"town":"仁左平","koaza":"中屋敷","lat":40.304542,"lng":141.320025,"zip":"0286106"},{"town":"金田一","koaza":"湯田上野","lat":40.315625,"lng":141.323825,"zip":"0285711"},{"town":"仁左平","koaza":"沖野","lat":40.308122,"lng":141.325345,"zip":"0286106"},{"town":"金田一","koaza":"中里","lat":40.319605,"lng":141.322818,"zip":"0285711"},{"town":"仁左平","koaza":"馬場平","lat":40.301633,"lng":141.321819,"zip":"0286106"},{"town":"仁左平","koaza":"久保","lat":40.304145,"lng":141.322445,"zip":"0286106"},{"town":"金田一","koaza":"跡支","lat":40.320784,"lng":141.326893,"zip":"0285711"},{"town":"仁左平","koaza":"北井沢","lat":40.316066,"lng":141.333264,"zip":"0286106"},{"town":"金田一","koaza":"細沼","lat":40.318739,"lng":141.319455,"zip":"0285711"}]