[{"town":"相沢","koaza":"","lat":40.119321,"lng":140.940422,"zip":"0287619"},{"town":"藍野々道ノ上","koaza":"","lat":40.149801,"lng":140.944767,"zip":"0287100"},{"town":"藍野々道ノ下","koaza":"","lat":40.149447,"lng":140.955015,"zip":"0287100"},{"town":"愛の山","koaza":"","lat":40.14368,"lng":140.947649,"zip":"0287635"},{"town":"赤子平","koaza":"","lat":40.114562,"lng":141.061823,"zip":"0287526"},{"town":"赤坂田","koaza":"","lat":40.055377,"lng":140.970924,"zip":"0287554"},{"town":"足深","koaza":"","lat":40.1422,"lng":140.956006,"zip":"0287679"},{"town":"安代寺田","koaza":"","lat":40.124486,"lng":141.080545,"zip":"0287506"},{"town":"安代寄木","koaza":"","lat":40.048312,"lng":141.011133,"zip":"0287552"},{"town":"安比高原","koaza":"","lat":40.004766,"lng":140.978292,"zip":"0287306"},{"town":"兄川","koaza":"","lat":40.10016,"lng":140.890605,"zip":"0287621"},{"town":"兄畑中川原","koaza":"","lat":40.116536,"lng":140.877143,"zip":"0287622"},{"town":"荒木田","koaza":"","lat":39.990307,"lng":141.074242,"zip":"0287406"},{"town":"荒屋新町","koaza":"","lat":40.096301,"lng":141.040457,"zip":"0287534"},{"town":"家ノ裏","koaza":"","lat":40.143059,"lng":140.954144,"zip":"0287674"},{"town":"石神","koaza":"","lat":40.116739,"lng":141.085501,"zip":"0287521"},{"town":"石名坂","koaza":"","lat":40.140466,"lng":140.943772,"zip":"0287615"},{"town":"石名坂下タ","koaza":"","lat":40.138339,"lng":140.945888,"zip":"0287614"},{"town":"石森","koaza":"","lat":40.147814,"lng":140.967808,"zip":"0287663"},{"town":"五日市","koaza":"","lat":40.120794,"lng":141.053856,"zip":"0287562"},{"town":"岩木向","koaza":"","lat":40.127515,"lng":141.093982,"zip":"0287501"},{"town":"岩屋","koaza":"","lat":40.136096,"lng":141.073868,"zip":"0287505"},{"town":"上の山","koaza":"","lat":40.113222,"lng":141.04391,"zip":"0287531"},{"town":"丑山","koaza":"","lat":40.121224,"lng":140.95703,"zip":"0287602"},{"town":"丑山口","koaza":"","lat":40.134111,"lng":140.95608,"zip":"0287604"},{"town":"打田内","koaza":"","lat":40.108182,"lng":141.027193,"zip":"0287536"},{"town":"鵜谷地","koaza":"","lat":40.135822,"lng":140.957249,"zip":"0287605"},{"town":"姥子石","koaza":"","lat":40.135558,"lng":140.964238,"zip":"0287606"},{"town":"馬揚沢","koaza":"","lat":40.160699,"lng":140.975771,"zip":"0287655"},{"town":"扇畑","koaza":"","lat":40.045407,"lng":141.034801,"zip":"0287553"},{"town":"大沢","koaza":"","lat":40.168084,"lng":140.992136,"zip":"0287661"},{"town":"大沢田","koaza":"","lat":40.14512,"lng":140.973059,"zip":"0287664"},{"town":"大面平","koaza":"","lat":40.133946,"lng":140.968624,"zip":"0287607"},{"town":"大更","koaza":"","lat":39.911413,"lng":141.125139,"zip":"0287111"},{"town":"大又沢口","koaza":"","lat":40.128253,"lng":140.874795,"zip":"0287624"},{"town":"沖田表","koaza":"","lat":40.136505,"lng":140.95172,"zip":"0287611"},{"town":"沖ノ平","koaza":"","lat":40.116714,"lng":140.883534,"zip":"0287625"},{"town":"折壁","koaza":"","lat":40.141401,"lng":140.937826,"zip":"0287617"},{"town":"柿本","koaza":"","lat":40.138583,"lng":140.954647,"zip":"0287100"},{"town":"欠田","koaza":"","lat":40.137798,"lng":140.951091,"zip":"0287612"},{"town":"柏台一丁目","koaza":"","lat":39.920554,"lng":140.978817,"zip":"0287303"},{"town":"柏台二丁目","koaza":"","lat":39.916966,"lng":140.980649,"zip":"0287303"},{"town":"柏台三丁目","koaza":"","lat":39.914346,"lng":140.975027,"zip":"0287303"},{"town":"帷子","koaza":"","lat":39.98279,"lng":141.130044,"zip":"0287402"},{"town":"叺田","koaza":"","lat":40.100157,"lng":141.057178,"zip":"0287533"},{"town":"上岩木","koaza":"","lat":40.132987,"lng":141.092965,"zip":"0287502"},{"town":"上藤","koaza":"","lat":40.125867,"lng":141.08752,"zip":"0287100"},{"town":"川原","koaza":"","lat":40.112784,"lng":141.05777,"zip":"0287527"},{"town":"切通","koaza":"","lat":40.159907,"lng":140.941138,"zip":"0287643"},{"town":"久保田","koaza":"","lat":40.124626,"lng":141.088945,"zip":"0287100"},{"town":"栗木田","koaza":"","lat":40.164766,"lng":140.952076,"zip":"0287657"},{"town":"黒沢","koaza":"","lat":40.047374,"lng":140.991378,"zip":"0287555"},{"town":"越戸","koaza":"","lat":40.131548,"lng":141.000635,"zip":"0287100"},{"town":"小原道ノ下","koaza":"","lat":40.158556,"lng":140.929177,"zip":"0287638"},{"town":"小森","koaza":"","lat":40.14432,"lng":140.957901,"zip":"0287678"},{"town":"小柳田","koaza":"","lat":40.104372,"lng":141.059837,"zip":"0287532"},{"town":"小屋畑","koaza":"","lat":40.082212,"lng":141.008639,"zip":"0287543"},{"town":"作平","koaza":"","lat":40.093517,"lng":140.878457,"zip":"0287621"},{"town":"佐比内","koaza":"","lat":40.122863,"lng":140.908241,"zip":"0287627"},{"town":"沢口","koaza":"","lat":40.146838,"lng":140.95595,"zip":"0287676"},{"town":"地蔵田","koaza":"","lat":40.140333,"lng":140.957549,"zip":"0287100"},{"town":"下タ川原","koaza":"","lat":40.156057,"lng":140.943188,"zip":"0287645"},{"town":"下町","koaza":"","lat":40.131864,"lng":141.056349,"zip":"0287561"},{"town":"清水","koaza":"","lat":40.104255,"lng":141.047077,"zip":"0287535"},{"town":"下岩木","koaza":"","lat":40.134992,"lng":141.10043,"zip":"0287100"},{"town":"下の田","koaza":"","lat":40.129345,"lng":141.096466,"zip":"0287511"},{"town":"蛇石","koaza":"","lat":40.134711,"lng":140.929235,"zip":"0287618"},{"town":"勝善川原","koaza":"","lat":40.159708,"lng":140.946024,"zip":"0287642"},{"town":"白沢口","koaza":"","lat":40.119641,"lng":140.903214,"zip":"0287629"},{"town":"新田","koaza":"","lat":40.059377,"lng":141.025009,"zip":"0287551"},{"town":"杉沢","koaza":"","lat":40.152206,"lng":140.986733,"zip":"0287662"},{"town":"雀長根","koaza":"","lat":40.156473,"lng":140.936591,"zip":"0287644"},{"town":"関沢口","koaza":"","lat":40.117351,"lng":141.096468,"zip":"0287516"},{"town":"瀬ノ沢","koaza":"","lat":40.172386,"lng":140.921463,"zip":"0287631"},{"town":"平舘","koaza":"","lat":39.964679,"lng":141.079413,"zip":"0287405"},{"town":"高畑","koaza":"","lat":40.069717,"lng":141.061296,"zip":"0287542"},{"town":"滝沢","koaza":"","lat":40.13454,"lng":141.028674,"zip":"0287566"},{"town":"田沢","koaza":"","lat":40.128493,"lng":140.96765,"zip":"0287601"},{"town":"田の沢","koaza":"","lat":40.141728,"lng":141.037048,"zip":"0287563"},{"town":"田山","koaza":"","lat":40.144204,"lng":140.955505,"zip":"0287677"},{"town":"長者前","koaza":"","lat":40.168924,"lng":140.972452,"zip":"0287651"},{"town":"土沢","koaza":"","lat":40.131446,"lng":141.102978,"zip":"0287513"},{"town":"繋沢","koaza":"","lat":40.107963,"lng":141.081012,"zip":"0287523"},{"town":"寺志田","koaza":"","lat":40.088894,"lng":141.042352,"zip":"0287541"},{"town":"田頭","koaza":"","lat":39.914455,"lng":141.076563,"zip":"0287112"},{"town":"戸鎖","koaza":"","lat":40.135259,"lng":140.917057,"zip":"0287626"},{"town":"戸沢","koaza":"","lat":40.148028,"lng":141.01755,"zip":"0287567"},{"town":"殿坂下","koaza":"","lat":40.137608,"lng":140.956973,"zip":"0287673"},{"town":"中佐井","koaza":"","lat":40.118071,"lng":141.098092,"zip":"0287514"},{"town":"長坂","koaza":"","lat":40.125751,"lng":140.919812,"zip":"0287100"},{"town":"長志田","koaza":"","lat":40.177217,"lng":140.98015,"zip":"0287100"},{"town":"中島","koaza":"","lat":40.113807,"lng":140.883297,"zip":"0287100"},{"town":"中田","koaza":"","lat":40.126851,"lng":141.091304,"zip":"0287503"},{"town":"中ノ平","koaza":"","lat":40.124503,"lng":140.898673,"zip":"0287100"},{"town":"苗代沢","koaza":"","lat":40.140617,"lng":140.982619,"zip":"0287100"},{"town":"西根寺田","koaza":"","lat":40.027073,"lng":141.116405,"zip":"0287401"},{"town":"根石","koaza":"","lat":40.178888,"lng":140.963001,"zip":"0287652"},{"town":"野駄","koaza":"","lat":39.943154,"lng":141.037939,"zip":"0287301"},{"town":"花舘","koaza":"","lat":40.139595,"lng":140.962184,"zip":"0287100"},{"town":"馬場下タ","koaza":"","lat":40.141388,"lng":140.958983,"zip":"0287100"},{"town":"晴山","koaza":"","lat":40.120414,"lng":141.071493,"zip":"0287100"},{"town":"日影","koaza":"","lat":40.114855,"lng":141.068799,"zip":"0287525"},{"town":"日泥道ノ上","koaza":"","lat":40.150872,"lng":140.936401,"zip":"0287633"},{"town":"平笠","koaza":"","lat":39.889655,"lng":141.055166,"zip":"0287113"},{"town":"比路平","koaza":"","lat":40.160611,"lng":140.936163,"zip":"0287641"},{"town":"古屋敷","koaza":"","lat":40.096588,"lng":141.09098,"zip":"0287515"},{"town":"星沢","koaza":"","lat":40.027804,"lng":140.991814,"zip":"0287556"},{"town":"細野","koaza":"","lat":40.019699,"lng":140.968161,"zip":"0287557"},{"town":"保戸坂","koaza":"","lat":40.076648,"lng":141.019973,"zip":"0287544"},{"town":"堀切","koaza":"","lat":39.95148,"lng":141.112811,"zip":"0287404"},{"town":"袰部","koaza":"","lat":40.036853,"lng":140.86626,"zip":"0287100"},{"town":"前田","koaza":"","lat":40.122525,"lng":141.083516,"zip":"0287504"},{"town":"曲田","koaza":"","lat":40.112831,"lng":141.027349,"zip":"0287537"},{"town":"亦戸川原","koaza":"","lat":40.137893,"lng":140.94856,"zip":"0287613"},{"town":"松尾","koaza":"","lat":39.970821,"lng":141.04468,"zip":"0287305"},{"town":"松木田","koaza":"","lat":40.066967,"lng":141.002053,"zip":"0287545"},{"town":"松原","koaza":"","lat":40.109998,"lng":141.060196,"zip":"0287100"},{"town":"緑ガ丘","koaza":"","lat":39.94871,"lng":140.930455,"zip":"0287304"},{"town":"目名市","koaza":"","lat":40.129943,"lng":141.036964,"zip":"0287565"},{"town":"矢神","koaza":"","lat":40.129287,"lng":140.942737,"zip":"0287603"},{"town":"谷地田","koaza":"","lat":40.119104,"lng":141.041659,"zip":"0287564"},{"town":"谷地中","koaza":"","lat":40.133372,"lng":140.983661,"zip":"0287608"},{"town":"山岸","koaza":"","lat":40.117647,"lng":141.107163,"zip":"0287512"},{"town":"山口","koaza":"","lat":40.120295,"lng":141.078545,"zip":"0287522"},{"town":"湯の沢","koaza":"","lat":40.104704,"lng":141.069304,"zip":"0287524"},{"town":"上関","koaza":"","lat":39.967458,"lng":141.101136,"zip":"0287403"},{"town":"和屋敷道ノ上","koaza":"","lat":40.14653,"lng":140.939534,"zip":"0287634"},{"town":"日泥道ノ下","koaza":"","lat":40.150624,"lng":140.934268,"zip":"0287637"},{"town":"和屋敷道ノ下","koaza":"","lat":40.14362,"lng":140.934488,"zip":"0287636"},{"town":"大多利沢口","koaza":"","lat":40.14771,"lng":140.932703,"zip":"0287100"},{"town":"二タ子","koaza":"","lat":40.143034,"lng":140.927073,"zip":"0287616"},{"town":"小原道ノ上","koaza":"","lat":40.159157,"lng":140.924036,"zip":"0287632"},{"town":"松尾寄木","koaza":"","lat":39.918626,"lng":141.013448,"zip":"0287302"},{"town":"小岩井","koaza":"","lat":40.118267,"lng":140.892551,"zip":"0287628"},{"town":"舘市","koaza":"","lat":40.110661,"lng":140.895316,"zip":"0287623"},{"town":"赤平","koaza":"","lat":40.118224,"lng":140.899282,"zip":"0287100"},{"town":"田中下タ","koaza":"","lat":40.141196,"lng":140.953731,"zip":"0287672"},{"town":"下モ川原","koaza":"","lat":40.140293,"lng":140.951405,"zip":"0287675"},{"town":"平又","koaza":"","lat":40.166861,"lng":140.959399,"zip":"0287653"},{"town":"左妻","koaza":"","lat":40.150262,"lng":140.957595,"zip":"0287656"},{"town":"不動川原","koaza":"","lat":40.162782,"lng":140.962418,"zip":"0287100"},{"town":"小峠","koaza":"","lat":40.159031,"lng":140.955689,"zip":"0287654"},{"town":"田頭","koaza":"第六地割","lat":39.915659,"lng":141.067637,"zip":"0287112"},{"town":"田頭","koaza":"第八地割","lat":39.921679,"lng":141.06638,"zip":"0287112"},{"town":"田頭","koaza":"第七地割","lat":39.919569,"lng":141.06761,"zip":"0287112"},{"town":"田頭","koaza":"第十二地割","lat":39.929629,"lng":141.063263,"zip":"0287112"},{"town":"田頭","koaza":"第十地割","lat":39.926742,"lng":141.068275,"zip":"0287112"},{"town":"野駄","koaza":"第十九地割","lat":39.952628,"lng":141.065584,"zip":"0287301"},{"town":"野駄","koaza":"第二十一地割","lat":39.956898,"lng":141.068793,"zip":"0287301"},{"town":"田頭","koaza":"第十一地割","lat":39.928092,"lng":141.066853,"zip":"0287112"},{"town":"野駄","koaza":"第二十地割","lat":39.956217,"lng":141.068164,"zip":"0287301"},{"town":"田頭","koaza":"第九地割","lat":39.925342,"lng":141.06542,"zip":"0287112"},{"town":"田頭","koaza":"第十七地割","lat":39.920283,"lng":141.070761,"zip":"0287112"},{"town":"田頭","koaza":"第十三地割","lat":39.93237,"lng":141.069522,"zip":"0287112"},{"town":"田頭","koaza":"第十四地割","lat":39.932511,"lng":141.072178,"zip":"0287112"},{"town":"平舘","koaza":"第十七地割","lat":39.952764,"lng":141.081604,"zip":"0287405"},{"town":"田頭","koaza":"第十六地割","lat":39.925858,"lng":141.071423,"zip":"0287112"},{"town":"田頭","koaza":"第十五地割","lat":39.927369,"lng":141.075707,"zip":"0287112"},{"town":"田頭","koaza":"第十八地割","lat":39.91717,"lng":141.074074,"zip":"0287112"},{"town":"田頭","koaza":"第四地割","lat":39.91486,"lng":141.075208,"zip":"0287112"},{"town":"田頭","koaza":"第二十八地割","lat":39.923883,"lng":141.076997,"zip":"0287112"},{"town":"平舘","koaza":"第十五地割","lat":39.956584,"lng":141.075449,"zip":"0287405"},{"town":"田頭","koaza":"第三十二地割","lat":39.931599,"lng":141.078834,"zip":"0287112"},{"town":"平舘","koaza":"第十四地割","lat":39.956349,"lng":141.082288,"zip":"0287405"},{"town":"田頭","koaza":"第二十七地割","lat":39.921165,"lng":141.077092,"zip":"0287112"},{"town":"田頭","koaza":"第三地割","lat":39.911623,"lng":141.079739,"zip":"0287112"},{"town":"平舘","koaza":"第二十二地割","lat":39.947317,"lng":141.078931,"zip":"0287405"},{"town":"田頭","koaza":"第三十地割","lat":39.927644,"lng":141.083727,"zip":"0287112"},{"town":"野駄","koaza":"第二十六地割","lat":39.948493,"lng":141.077408,"zip":"0287301"},{"town":"田頭","koaza":"第二十九地割","lat":39.92614,"lng":141.080926,"zip":"0287112"},{"town":"田頭","koaza":"第五地割","lat":39.911143,"lng":141.078352,"zip":"0287112"},{"town":"平舘","koaza":"第二十三地割","lat":39.943587,"lng":141.082145,"zip":"0287405"},{"town":"田頭","koaza":"第三十三地割","lat":39.932403,"lng":141.082708,"zip":"0287112"},{"town":"田頭","koaza":"第二十六地割","lat":39.921895,"lng":141.080389,"zip":"0287112"},{"town":"田頭","koaza":"第十九地割","lat":39.920607,"lng":141.081644,"zip":"0287112"},{"town":"田頭","koaza":"第二十三地割","lat":39.917002,"lng":141.083952,"zip":"0287112"},{"town":"平舘","koaza":"第十六地割","lat":39.954544,"lng":141.082224,"zip":"0287405"},{"town":"田頭","koaza":"第二十一地割","lat":39.914099,"lng":141.081142,"zip":"0287112"},{"town":"田頭","koaza":"第三十五地割","lat":39.929366,"lng":141.087499,"zip":"0287112"},{"town":"田頭","koaza":"第二地割","lat":39.910622,"lng":141.082546,"zip":"0287112"},{"town":"田頭","koaza":"第二十五地割","lat":39.922319,"lng":141.08449,"zip":"0287112"},{"town":"平舘","koaza":"第十八地割","lat":39.951929,"lng":141.083624,"zip":"0287405"},{"town":"平舘","koaza":"第十地割","lat":39.949887,"lng":141.088757,"zip":"0287405"},{"town":"平舘","koaza":"第二十四地割","lat":39.942628,"lng":141.088008,"zip":"0287405"},{"town":"田頭","koaza":"第二十四地割","lat":39.920807,"lng":141.086331,"zip":"0287112"},{"town":"平舘","koaza":"第十一地割","lat":39.950901,"lng":141.086168,"zip":"0287405"},{"town":"田頭","koaza":"第三十四地割","lat":39.9338,"lng":141.090981,"zip":"0287112"},{"town":"平舘","koaza":"第十三地割","lat":39.953179,"lng":141.085885,"zip":"0287405"},{"town":"田頭","koaza":"第三十八地割","lat":39.929738,"lng":141.090823,"zip":"0287112"},{"town":"田頭","koaza":"第三十九地割","lat":39.922944,"lng":141.091713,"zip":"0287112"},{"town":"大更","koaza":"第二十三地割","lat":39.910191,"lng":141.092046,"zip":"0287111"},{"town":"田頭","koaza":"第二十二地割","lat":39.916042,"lng":141.087414,"zip":"0287112"},{"town":"平舘","koaza":"第九地割","lat":39.94901,"lng":141.092666,"zip":"0287405"},{"town":"大更","koaza":"第一地割","lat":39.883735,"lng":141.093686,"zip":"0287111"},{"town":"田頭","koaza":"第一地割","lat":39.901466,"lng":141.087005,"zip":"0287112"},{"town":"平舘","koaza":"第二十地割","lat":39.947462,"lng":141.08858,"zip":"0287405"},{"town":"大更","koaza":"第二十四地割","lat":39.917344,"lng":141.094362,"zip":"0287111"},{"town":"平舘","koaza":"第十二地割","lat":39.950964,"lng":141.089203,"zip":"0287405"},{"town":"大更","koaza":"第十七地割","lat":39.89438,"lng":141.090241,"zip":"0287111"},{"town":"大更","koaza":"第十八地割","lat":39.901162,"lng":141.094258,"zip":"0287111"},{"town":"平舘","koaza":"第二十五地割","lat":39.938504,"lng":141.093458,"zip":"0287405"},{"town":"大更","koaza":"第二十二地割","lat":39.909864,"lng":141.093006,"zip":"0287111"},{"town":"田頭","koaza":"第三十七地割","lat":39.930181,"lng":141.093395,"zip":"0287112"},{"town":"平舘","koaza":"第七地割","lat":39.954432,"lng":141.093579,"zip":"0287405"},{"town":"田頭","koaza":"第三十六地割","lat":39.932783,"lng":141.093764,"zip":"0287112"},{"town":"大更","koaza":"第十六地割","lat":39.896252,"lng":141.095898,"zip":"0287111"},{"town":"大更","koaza":"第三十五地割","lat":39.924429,"lng":141.095296,"zip":"0287111"},{"town":"平舘","koaza":"第八地割","lat":39.952181,"lng":141.095769,"zip":"0287405"},{"town":"大更","koaza":"第二地割","lat":39.885685,"lng":141.102118,"zip":"0287111"},{"town":"平舘","koaza":"第二十六地割","lat":39.942685,"lng":141.095502,"zip":"0287405"},{"town":"堀切","koaza":"第十三地割","lat":39.959327,"lng":141.097933,"zip":"0287404"},{"town":"大更","koaza":"第二十五地割","lat":39.914192,"lng":141.100922,"zip":"0287111"},{"town":"大更","koaza":"第三十七地割","lat":39.93054,"lng":141.104444,"zip":"0287111"},{"town":"大更","koaza":"第二十一地割","lat":39.909942,"lng":141.099262,"zip":"0287111"},{"town":"大更","koaza":"第三十六地割","lat":39.925343,"lng":141.103183,"zip":"0287111"},{"town":"荒木田","koaza":"第十二地割","lat":39.962169,"lng":141.098136,"zip":"0287406"},{"town":"大更","koaza":"第十九地割","lat":39.902068,"lng":141.100567,"zip":"0287111"},{"town":"平舘","koaza":"第二十九地割","lat":39.937325,"lng":141.100709,"zip":"0287405"},{"town":"大更","koaza":"第三十四地割","lat":39.917121,"lng":141.105962,"zip":"0287111"},{"town":"堀切","koaza":"第九地割","lat":39.947786,"lng":141.098268,"zip":"0287404"},{"town":"平舘","koaza":"第二十八地割","lat":39.939649,"lng":141.099453,"zip":"0287405"},{"town":"平舘","koaza":"第二十七地割","lat":39.943745,"lng":141.097977,"zip":"0287405"},{"town":"堀切","koaza":"第十二地割","lat":39.958558,"lng":141.101682,"zip":"0287404"},{"town":"平舘","koaza":"第三十地割","lat":39.93833,"lng":141.100653,"zip":"0287405"},{"town":"大更","koaza":"第二十六地割","lat":39.909539,"lng":141.104062,"zip":"0287111"},{"town":"大更","koaza":"第二十地割","lat":39.906534,"lng":141.106526,"zip":"0287111"},{"town":"平舘","koaza":"第三十二地割","lat":39.934067,"lng":141.107228,"zip":"0287405"},{"town":"大更","koaza":"第十四地割","lat":39.906483,"lng":141.109884,"zip":"0287111"},{"town":"大更","koaza":"第三十三地割","lat":39.915228,"lng":141.111461,"zip":"0287111"},{"town":"平舘","koaza":"第三十一地割","lat":39.934637,"lng":141.112295,"zip":"0287405"},{"town":"大更","koaza":"第二十七地割","lat":39.909735,"lng":141.113303,"zip":"0287111"},{"town":"大更","koaza":"第十五地割","lat":39.902423,"lng":141.113552,"zip":"0287111"},{"town":"大更","koaza":"第三十二地割","lat":39.919042,"lng":141.114434,"zip":"0287111"},{"town":"大更","koaza":"第三地割","lat":39.891773,"lng":141.117088,"zip":"0287111"},{"town":"大更","koaza":"第三十一地割","lat":39.9267,"lng":141.116687,"zip":"0287111"},{"town":"大更","koaza":"第十三地割","lat":39.90528,"lng":141.120179,"zip":"0287111"},{"town":"大更","koaza":"第二十八地割","lat":39.911919,"lng":141.119072,"zip":"0287111"},{"town":"大更","koaza":"第二十九地割","lat":39.919529,"lng":141.120534,"zip":"0287111"},{"town":"大更","koaza":"第十二地割","lat":39.902587,"lng":141.128602,"zip":"0287111"},{"town":"大更","koaza":"第十地割","lat":39.916194,"lng":141.129877,"zip":"0287111"},{"town":"大更","koaza":"第四地割","lat":39.89102,"lng":141.128799,"zip":"0287111"},{"town":"大更","koaza":"第十一地割","lat":39.909245,"lng":141.129173,"zip":"0287111"},{"town":"大更","koaza":"第三十地割","lat":39.922068,"lng":141.130203,"zip":"0287111"},{"town":"大更","koaza":"第五地割","lat":39.889484,"lng":141.139319,"zip":"0287111"},{"town":"大更","koaza":"第七地割","lat":39.903307,"lng":141.144934,"zip":"0287111"},{"town":"大更","koaza":"第六地割","lat":39.901181,"lng":141.139494,"zip":"0287111"},{"town":"大更","koaza":"第九地割","lat":39.911134,"lng":141.142064,"zip":"0287111"},{"town":"大更","koaza":"第八地割","lat":39.905635,"lng":141.149362,"zip":"0287111"},{"town":"田頭","koaza":"第三十一地割","lat":39.929126,"lng":141.080237,"zip":"0287112"},{"town":"平笠","koaza":"第二十五地割","lat":39.876381,"lng":141.085862,"zip":"0287113"}]