[{"town":"相去町","koaza":"","lat":39.249061,"lng":141.091612,"zip":"0240051"},{"town":"青柳町一丁目","koaza":"","lat":39.284155,"lng":141.120827,"zip":"0240031"},{"town":"青柳町二丁目","koaza":"","lat":39.284916,"lng":141.117315,"zip":"0240031"},{"town":"有田町","koaza":"","lat":39.293604,"lng":141.105415,"zip":"0240081"},{"town":"飯豊","koaza":"","lat":39.352831,"lng":141.090196,"zip":"0240001"},{"town":"稲瀬町","koaza":"","lat":39.255782,"lng":141.142235,"zip":"0240041"},{"town":"上野町一丁目","koaza":"","lat":39.29783,"lng":141.12578,"zip":"0240021"},{"town":"上野町二丁目","koaza":"","lat":39.300507,"lng":141.123775,"zip":"0240021"},{"town":"上野町三丁目","koaza":"","lat":39.305894,"lng":141.123611,"zip":"0240021"},{"town":"上野町四丁目","koaza":"","lat":39.303836,"lng":141.126941,"zip":"0240021"},{"town":"上野町五丁目","koaza":"","lat":39.301019,"lng":141.130003,"zip":"0240021"},{"town":"大堤北一丁目","koaza":"","lat":39.264588,"lng":141.101166,"zip":"0240052"},{"town":"大堤北二丁目","koaza":"","lat":39.264458,"lng":141.104812,"zip":"0240052"},{"town":"大堤西一丁目","koaza":"","lat":39.264701,"lng":141.097629,"zip":"0240053"},{"town":"大堤西二丁目","koaza":"","lat":39.262805,"lng":141.09726,"zip":"0240053"},{"town":"大堤東一丁目","koaza":"","lat":39.26423,"lng":141.108172,"zip":"0240054"},{"town":"大堤東二丁目","koaza":"","lat":39.263699,"lng":141.110687,"zip":"0240054"},{"town":"大堤東三丁目","koaza":"","lat":39.260653,"lng":141.107319,"zip":"0240054"},{"town":"大堤南一丁目","koaza":"","lat":39.262294,"lng":141.100858,"zip":"0240055"},{"town":"大堤南二丁目","koaza":"","lat":39.262248,"lng":141.10454,"zip":"0240055"},{"town":"大堤南三丁目","koaza":"","lat":39.260257,"lng":141.104738,"zip":"0240055"},{"town":"大通り一丁目","koaza":"","lat":39.28174,"lng":141.120863,"zip":"0240061"},{"town":"大通り二丁目","koaza":"","lat":39.282741,"lng":141.116544,"zip":"0240061"},{"town":"大通り三丁目","koaza":"","lat":39.284387,"lng":141.112403,"zip":"0240061"},{"town":"大通り四丁目","koaza":"","lat":39.286766,"lng":141.106638,"zip":"0240061"},{"town":"大曲町","koaza":"","lat":39.286055,"lng":141.111621,"zip":"0240091"},{"town":"鬼柳町","koaza":"","lat":39.275565,"lng":141.090714,"zip":"0240056"},{"town":"鍛冶町一丁目","koaza":"","lat":39.289215,"lng":141.107977,"zip":"0240062"},{"town":"鍛冶町二丁目","koaza":"","lat":39.289787,"lng":141.105623,"zip":"0240062"},{"town":"鍛冶町三丁目","koaza":"","lat":39.290662,"lng":141.103277,"zip":"0240062"},{"town":"上江釣子","koaza":"","lat":39.297809,"lng":141.07699,"zip":"0240071"},{"town":"上鬼柳","koaza":"","lat":39.27312,"lng":141.071865,"zip":"0240057"},{"town":"川岸一丁目","koaza":"","lat":39.278364,"lng":141.123062,"zip":"0240032"},{"town":"川岸二丁目","koaza":"","lat":39.28572,"lng":141.124313,"zip":"0240032"},{"town":"川岸三丁目","koaza":"","lat":39.283712,"lng":141.127475,"zip":"0240032"},{"town":"川岸四丁目","koaza":"","lat":39.286845,"lng":141.128163,"zip":"0240032"},{"town":"北鬼柳","koaza":"","lat":39.295352,"lng":141.094661,"zip":"0240072"},{"town":"北工業団地","koaza":"","lat":39.334108,"lng":141.126288,"zip":"0240102"},{"town":"口内町","koaza":"","lat":39.29135,"lng":141.203865,"zip":"0240211"},{"town":"九年橋一丁目","koaza":"","lat":39.279271,"lng":141.114253,"zip":"0240063"},{"town":"九年橋二丁目","koaza":"","lat":39.282857,"lng":141.113198,"zip":"0240063"},{"town":"九年橋三丁目","koaza":"","lat":39.282573,"lng":141.109651,"zip":"0240063"},{"town":"黒岩","koaza":"","lat":39.306351,"lng":141.164658,"zip":"0240042"},{"town":"黒沢尻一丁目","koaza":"","lat":39.289932,"lng":141.130528,"zip":"0240022"},{"town":"黒沢尻二丁目","koaza":"","lat":39.29393,"lng":141.130761,"zip":"0240022"},{"town":"黒沢尻三丁目","koaza":"","lat":39.29617,"lng":141.131974,"zip":"0240022"},{"town":"黒沢尻四丁目","koaza":"","lat":39.296601,"lng":141.136504,"zip":"0240022"},{"town":"小鳥崎","koaza":"","lat":39.297763,"lng":141.142048,"zip":"0240105"},{"town":"幸町","koaza":"","lat":39.286301,"lng":141.121785,"zip":"0240033"},{"town":"さくら通り一丁目","koaza":"","lat":39.296258,"lng":141.116029,"zip":"0240084"},{"town":"さくら通り二丁目","koaza":"","lat":39.298372,"lng":141.109382,"zip":"0240084"},{"town":"さくら通り三丁目","koaza":"","lat":39.297275,"lng":141.116317,"zip":"0240084"},{"town":"さくら通り四丁目","koaza":"","lat":39.299776,"lng":141.111921,"zip":"0240084"},{"town":"さくら通り五丁目","koaza":"","lat":39.302638,"lng":141.109916,"zip":"0240084"},{"town":"里分","koaza":"","lat":39.290735,"lng":141.136483,"zip":"0240023"},{"town":"更木","koaza":"","lat":39.341508,"lng":141.155707,"zip":"0240103"},{"town":"下江釣子","koaza":"","lat":39.293745,"lng":141.058002,"zip":"0240073"},{"town":"下鬼柳","koaza":"","lat":39.275211,"lng":141.111405,"zip":"0240058"},{"town":"新穀町一丁目","koaza":"","lat":39.289124,"lng":141.112788,"zip":"0240092"},{"town":"新穀町二丁目","koaza":"","lat":39.289984,"lng":141.110576,"zip":"0240092"},{"town":"諏訪町一丁目","koaza":"","lat":39.286243,"lng":141.11941,"zip":"0240034"},{"town":"諏訪町二丁目","koaza":"","lat":39.286887,"lng":141.117457,"zip":"0240034"},{"town":"立花","koaza":"","lat":39.280629,"lng":141.146025,"zip":"0240043"},{"town":"堤ケ丘一丁目","koaza":"","lat":39.308011,"lng":141.115813,"zip":"0240011"},{"town":"堤ケ丘二丁目","koaza":"","lat":39.312566,"lng":141.115587,"zip":"0240011"},{"town":"常盤台一丁目","koaza":"","lat":39.300061,"lng":141.119736,"zip":"0240012"},{"town":"常盤台二丁目","koaza":"","lat":39.300385,"lng":141.115365,"zip":"0240012"},{"town":"常盤台三丁目","koaza":"","lat":39.303645,"lng":141.113605,"zip":"0240012"},{"town":"常盤台四丁目","koaza":"","lat":39.308555,"lng":141.112535,"zip":"0240012"},{"town":"中野町一丁目","koaza":"","lat":39.289499,"lng":141.12476,"zip":"0240024"},{"town":"中野町二丁目","koaza":"","lat":39.292798,"lng":141.124548,"zip":"0240024"},{"town":"中野町三丁目","koaza":"","lat":39.295536,"lng":141.125808,"zip":"0240024"},{"town":"滑田","koaza":"","lat":39.313954,"lng":141.066916,"zip":"0240074"},{"town":"成田","koaza":"","lat":39.346666,"lng":141.126254,"zip":"0240003"},{"town":"新平","koaza":"","lat":39.323825,"lng":141.061317,"zip":"0240075"},{"town":"鳩岡崎","koaza":"","lat":39.31067,"lng":141.085489,"zip":"0240076"},{"town":"花園町一丁目","koaza":"","lat":39.288396,"lng":141.121072,"zip":"0240035"},{"town":"花園町二丁目","koaza":"","lat":39.28905,"lng":141.119089,"zip":"0240035"},{"town":"花園町三丁目","koaza":"","lat":39.29039,"lng":141.1211,"zip":"0240035"},{"town":"平沢","koaza":"","lat":39.323407,"lng":141.169696,"zip":"0240044"},{"town":"臥牛","koaza":"","lat":39.353311,"lng":141.175943,"zip":"0240101"},{"town":"藤沢","koaza":"","lat":39.323472,"lng":141.085261,"zip":"0240013"},{"town":"二子町","koaza":"","lat":39.317735,"lng":141.139753,"zip":"0240104"},{"town":"本石町一丁目","koaza":"","lat":39.290441,"lng":141.114886,"zip":"0240093"},{"town":"本石町二丁目","koaza":"","lat":39.292403,"lng":141.115329,"zip":"0240093"},{"town":"本通り一丁目","koaza":"","lat":39.286213,"lng":141.114715,"zip":"0240094"},{"town":"本通り二丁目","koaza":"","lat":39.288761,"lng":141.116559,"zip":"0240094"},{"town":"本通り三丁目","koaza":"","lat":39.29208,"lng":141.119145,"zip":"0240094"},{"town":"本通り四丁目","koaza":"","lat":39.294136,"lng":141.120737,"zip":"0240094"},{"town":"孫屋敷","koaza":"","lat":39.291514,"lng":141.127457,"zip":"0240025"},{"town":"町分","koaza":"","lat":39.30172,"lng":141.105736,"zip":"0240082"},{"town":"村崎野","koaza":"","lat":39.329203,"lng":141.102551,"zip":"0240004"},{"town":"柳原町一丁目","koaza":"","lat":39.293003,"lng":141.111885,"zip":"0240083"},{"town":"柳原町二丁目","koaza":"","lat":39.293357,"lng":141.109199,"zip":"0240083"},{"town":"柳原町三丁目","koaza":"","lat":39.294915,"lng":141.116038,"zip":"0240083"},{"town":"柳原町四丁目","koaza":"","lat":39.295541,"lng":141.112845,"zip":"0240083"},{"town":"柳原町五丁目","koaza":"","lat":39.295986,"lng":141.10863,"zip":"0240083"},{"town":"湯沢","koaza":"","lat":39.317702,"lng":141.171635,"zip":"0240045"},{"town":"芳町","koaza":"","lat":39.287508,"lng":141.111003,"zip":"0240095"},{"town":"流通センター","koaza":"","lat":39.317062,"lng":141.095614,"zip":"0240014"},{"town":"和賀町岩崎","koaza":"","lat":39.26295,"lng":141.037038,"zip":"0240321"},{"town":"和賀町岩崎新田","koaza":"","lat":39.257546,"lng":141.005171,"zip":"0240322"},{"town":"和賀町岩沢","koaza":"","lat":39.299776,"lng":140.937111,"zip":"0240325"},{"town":"和賀町後藤","koaza":"","lat":39.333517,"lng":141.020408,"zip":"0240335"},{"town":"和賀町煤孫","koaza":"","lat":39.273326,"lng":140.991219,"zip":"0240323"},{"town":"和賀町仙人","koaza":"","lat":39.307632,"lng":140.902514,"zip":"0240326"},{"town":"和賀町竪川目","koaza":"","lat":39.304657,"lng":140.997489,"zip":"0240332"},{"town":"和賀町長沼","koaza":"","lat":39.298566,"lng":141.021554,"zip":"0240333"},{"town":"和賀町藤根","koaza":"","lat":39.314478,"lng":141.031423,"zip":"0240334"},{"town":"和賀町山口","koaza":"","lat":39.293623,"lng":140.97997,"zip":"0240324"},{"town":"和賀町横川目","koaza":"","lat":39.31813,"lng":140.978399,"zip":"0240331"},{"town":"若宮町一丁目","koaza":"","lat":39.278215,"lng":141.118114,"zip":"0240064"},{"town":"若宮町二丁目","koaza":"","lat":39.280902,"lng":141.116398,"zip":"0240064"},{"town":"和賀町仙人","koaza":"二地割","lat":39.304287,"lng":140.902384,"zip":"0240326"},{"town":"和賀町仙人","koaza":"四地割","lat":39.31041,"lng":140.907152,"zip":"0240326"},{"town":"和賀町仙人","koaza":"三地割","lat":39.309441,"lng":140.90698,"zip":"0240326"},{"town":"和賀町仙人","koaza":"一地割","lat":39.308807,"lng":140.904714,"zip":"0240326"},{"town":"和賀町仙人","koaza":"八地割","lat":39.311639,"lng":140.913207,"zip":"0240326"},{"town":"和賀町仙人","koaza":"七地割","lat":39.308842,"lng":140.910763,"zip":"0240326"},{"town":"和賀町仙人","koaza":"五地割","lat":39.307796,"lng":140.914964,"zip":"0240326"},{"town":"和賀町仙人","koaza":"九地割","lat":39.310799,"lng":140.921301,"zip":"0240326"},{"town":"和賀町仙人","koaza":"六地割","lat":39.306862,"lng":140.917383,"zip":"0240326"},{"town":"和賀町岩沢","koaza":"八地割","lat":39.303068,"lng":140.928239,"zip":"0240325"},{"town":"和賀町岩沢","koaza":"九地割","lat":39.302425,"lng":140.939544,"zip":"0240325"},{"town":"和賀町岩沢","koaza":"十地割","lat":39.300244,"lng":140.937673,"zip":"0240325"},{"town":"和賀町横川目","koaza":"三地割","lat":39.30588,"lng":140.944045,"zip":"0240331"},{"town":"和賀町岩沢","koaza":"十四地割","lat":39.301562,"lng":140.949125,"zip":"0240325"},{"town":"和賀町横川目","koaza":"四地割","lat":39.307737,"lng":140.958064,"zip":"0240331"},{"town":"和賀町岩沢","koaza":"十三地割","lat":39.298919,"lng":140.951716,"zip":"0240325"},{"town":"和賀町山口","koaza":"十八地割","lat":39.298765,"lng":140.958304,"zip":"0240324"},{"town":"和賀町山口","koaza":"十六地割","lat":39.303306,"lng":140.956427,"zip":"0240324"},{"town":"和賀町横川目","koaza":"十七地割","lat":39.328144,"lng":140.968923,"zip":"0240331"},{"town":"和賀町岩崎新田","koaza":"一地割","lat":39.240602,"lng":140.95614,"zip":"0240322"},{"town":"和賀町横川目","koaza":"六地割","lat":39.309576,"lng":140.964909,"zip":"0240331"},{"town":"和賀町横川目","koaza":"八地割","lat":39.306459,"lng":140.96421,"zip":"0240331"},{"town":"和賀町山口","koaza":"十七地割","lat":39.301904,"lng":140.96622,"zip":"0240324"},{"town":"和賀町横川目","koaza":"七地割","lat":39.313751,"lng":140.971656,"zip":"0240331"},{"town":"和賀町横川目","koaza":"十八地割","lat":39.335681,"lng":140.973582,"zip":"0240331"},{"town":"和賀町山口","koaza":"十九地割","lat":39.300451,"lng":140.966058,"zip":"0240324"},{"town":"和賀町横川目","koaza":"五地割","lat":39.312566,"lng":140.965788,"zip":"0240331"},{"town":"和賀町横川目","koaza":"十五地割","lat":39.322743,"lng":140.971827,"zip":"0240331"},{"town":"和賀町岩崎新田","koaza":"二地割","lat":39.24646,"lng":140.985429,"zip":"0240322"},{"town":"和賀町山口","koaza":"二十二地割","lat":39.298891,"lng":140.969582,"zip":"0240324"},{"town":"和賀町横川目","koaza":"二十二地割","lat":39.342875,"lng":140.973951,"zip":"0240331"},{"town":"和賀町横川目","koaza":"十二地割","lat":39.308176,"lng":140.97352,"zip":"0240331"},{"town":"和賀町横川目","koaza":"十六地割","lat":39.323573,"lng":140.976373,"zip":"0240331"},{"town":"和賀町山口","koaza":"三十八地割","lat":39.29308,"lng":140.972359,"zip":"0240324"},{"town":"和賀町横川目","koaza":"十三地割","lat":39.314516,"lng":140.975659,"zip":"0240331"},{"town":"和賀町岩崎","koaza":"一地割","lat":39.241403,"lng":140.989335,"zip":"0240321"},{"town":"和賀町山口","koaza":"二十一地割","lat":39.301138,"lng":140.972695,"zip":"0240324"},{"town":"和賀町山口","koaza":"二十三地割","lat":39.296673,"lng":140.973669,"zip":"0240324"},{"town":"和賀町山口","koaza":"二十地割","lat":39.30179,"lng":140.973104,"zip":"0240324"},{"town":"和賀町横川目","koaza":"二十三地割","lat":39.357209,"lng":140.974219,"zip":"0240331"},{"town":"和賀町山口","koaza":"二十六地割","lat":39.300934,"lng":140.974815,"zip":"0240324"},{"town":"和賀町横川目","koaza":"二十地割","lat":39.337526,"lng":140.974856,"zip":"0240331"},{"town":"和賀町横川目","koaza":"十一地割","lat":39.30818,"lng":140.97747,"zip":"0240331"},{"town":"和賀町山口","koaza":"三十七地割","lat":39.29842,"lng":140.976954,"zip":"0240324"},{"town":"和賀町山口","koaza":"二十七地割","lat":39.299771,"lng":140.979455,"zip":"0240324"},{"town":"和賀町横川目","koaza":"二十一地割","lat":39.337833,"lng":140.978113,"zip":"0240331"},{"town":"和賀町横川目","koaza":"九地割","lat":39.303413,"lng":140.976513,"zip":"0240331"},{"town":"和賀町煤孫","koaza":"一地割","lat":39.267861,"lng":140.97931,"zip":"0240323"},{"town":"和賀町横川目","koaza":"十地割","lat":39.307511,"lng":140.98115,"zip":"0240331"},{"town":"和賀町煤孫","koaza":"二地割","lat":39.277543,"lng":140.992129,"zip":"0240323"},{"town":"和賀町横川目","koaza":"十九地割","lat":39.325161,"lng":140.979965,"zip":"0240331"},{"town":"和賀町山口","koaza":"四十六地割","lat":39.288406,"lng":140.982365,"zip":"0240324"},{"town":"和賀町山口","koaza":"四十地割","lat":39.291174,"lng":140.979232,"zip":"0240324"},{"town":"和賀町横川目","koaza":"十四地割","lat":39.319125,"lng":140.978749,"zip":"0240331"},{"town":"和賀町山口","koaza":"四十二地割","lat":39.296966,"lng":140.978848,"zip":"0240324"},{"town":"和賀町山口","koaza":"三十六地割","lat":39.298298,"lng":140.980102,"zip":"0240324"},{"town":"和賀町横川目","koaza":"二十四地割","lat":39.350788,"lng":140.982755,"zip":"0240331"},{"town":"和賀町山口","koaza":"四十一地割","lat":39.296247,"lng":140.980822,"zip":"0240324"},{"town":"和賀町山口","koaza":"四十三地割","lat":39.298366,"lng":140.981927,"zip":"0240324"},{"town":"和賀町横川目","koaza":"三十六地割","lat":39.307336,"lng":140.986841,"zip":"0240331"},{"town":"和賀町横川目","koaza":"二十六地割","lat":39.339583,"lng":140.982767,"zip":"0240331"},{"town":"和賀町山口","koaza":"二十八地割","lat":39.301275,"lng":140.981408,"zip":"0240324"},{"town":"和賀町横川目","koaza":"三十五地割","lat":39.310012,"lng":140.987293,"zip":"0240331"},{"town":"和賀町横川目","koaza":"二十七地割","lat":39.334045,"lng":140.982698,"zip":"0240331"},{"town":"和賀町横川目","koaza":"三十四地割","lat":39.316097,"lng":140.983653,"zip":"0240331"},{"town":"和賀町山口","koaza":"三十四地割","lat":39.299555,"lng":140.982447,"zip":"0240324"},{"town":"和賀町横川目","koaza":"二十八地割","lat":39.331824,"lng":140.984178,"zip":"0240331"},{"town":"和賀町山口","koaza":"四十四地割","lat":39.296055,"lng":140.984045,"zip":"0240324"},{"town":"和賀町横川目","koaza":"二十九地割","lat":39.327019,"lng":140.98745,"zip":"0240331"},{"town":"和賀町山口","koaza":"三十三地割","lat":39.301194,"lng":140.982865,"zip":"0240324"},{"town":"和賀町横川目","koaza":"二十五地割","lat":39.348815,"lng":140.983066,"zip":"0240331"},{"town":"和賀町横川目","koaza":"三十地割","lat":39.323151,"lng":140.98388,"zip":"0240331"},{"town":"和賀町煤孫","koaza":"望野","lat":39.270009,"lng":140.991381,"zip":"0240323"},{"town":"和賀町山口","koaza":"四十五地割","lat":39.29423,"lng":140.986836,"zip":"0240324"},{"town":"和賀町岩崎新田","koaza":"神楽","lat":39.252008,"lng":140.991272,"zip":"0240322"},{"town":"和賀町横川目","koaza":"三十三地割","lat":39.316255,"lng":140.986192,"zip":"0240331"},{"town":"和賀町後藤","koaza":"一地割","lat":39.334613,"lng":140.994846,"zip":"0240335"},{"town":"和賀町竪川目","koaza":"四地割","lat":39.305147,"lng":140.993601,"zip":"0240332"},{"town":"和賀町煤孫","koaza":"十二地割","lat":39.290679,"lng":140.990014,"zip":"0240323"},{"town":"和賀町横川目","koaza":"三十一地割","lat":39.318882,"lng":140.997996,"zip":"0240331"},{"town":"和賀町山口","koaza":"四十七地割","lat":39.293298,"lng":140.989296,"zip":"0240324"},{"town":"和賀町横川目","koaza":"三十二地割","lat":39.313911,"lng":140.98775,"zip":"0240331"},{"town":"和賀町山口","koaza":"四十八地割","lat":39.294892,"lng":140.990303,"zip":"0240324"},{"town":"和賀町岩崎新田","koaza":"五地割","lat":39.251256,"lng":140.999185,"zip":"0240322"},{"town":"和賀町横川目","koaza":"三十七地割","lat":39.310626,"lng":140.995794,"zip":"0240331"},{"town":"和賀町竪川目","koaza":"二地割","lat":39.306672,"lng":140.997137,"zip":"0240332"},{"town":"和賀町煤孫","koaza":"四地割","lat":39.266178,"lng":140.997093,"zip":"0240323"},{"town":"和賀町岩崎新田","koaza":"六地割","lat":39.25134,"lng":141.006775,"zip":"0240322"},{"town":"和賀町煤孫","koaza":"十三地割","lat":39.291793,"lng":140.996279,"zip":"0240323"},{"town":"和賀町岩崎","koaza":"二地割","lat":39.247874,"lng":141.007192,"zip":"0240321"},{"town":"和賀町煤孫","koaza":"十一地割","lat":39.28951,"lng":140.998005,"zip":"0240323"},{"town":"和賀町煤孫","koaza":"十地割","lat":39.287178,"lng":141.000243,"zip":"0240323"},{"town":"和賀町竪川目","koaza":"三地割","lat":39.30201,"lng":140.995842,"zip":"0240332"},{"town":"和賀町竪川目","koaza":"一地割","lat":39.310291,"lng":141.002167,"zip":"0240332"},{"town":"和賀町竪川目","koaza":"五地割","lat":39.296944,"lng":140.996531,"zip":"0240332"},{"town":"和賀町煤孫","koaza":"三地割","lat":39.278639,"lng":140.999372,"zip":"0240323"},{"town":"和賀町岩崎新田","koaza":"曙","lat":39.262175,"lng":141.003051,"zip":"0240322"},{"town":"和賀町煤孫","koaza":"十四地割","lat":39.292094,"lng":141.002011,"zip":"0240323"},{"town":"和賀町後藤","koaza":"六地割","lat":39.34294,"lng":141.00166,"zip":"0240335"},{"town":"和賀町岩崎新田","koaza":"真栄","lat":39.260286,"lng":141.00741,"zip":"0240322"},{"town":"和賀町後藤","koaza":"二地割","lat":39.327991,"lng":141.004525,"zip":"0240335"},{"town":"和賀町竪川目","koaza":"七地割","lat":39.301367,"lng":141.004445,"zip":"0240332"},{"town":"和賀町竪川目","koaza":"六地割","lat":39.29617,"lng":141.001918,"zip":"0240332"},{"town":"和賀町竪川目","koaza":"八地割","lat":39.304723,"lng":141.004192,"zip":"0240332"},{"town":"和賀町煤孫","koaza":"十六地割","lat":39.287236,"lng":141.006191,"zip":"0240323"},{"town":"和賀町岩崎新田","koaza":"豊栄","lat":39.253737,"lng":141.004361,"zip":"0240322"},{"town":"和賀町岩崎新田","koaza":"旭ヶ丘","lat":39.266111,"lng":141.00621,"zip":"0240322"},{"town":"和賀町煤孫","koaza":"十五地割","lat":39.289901,"lng":141.007525,"zip":"0240323"},{"town":"和賀町藤根","koaza":"一地割","lat":39.319183,"lng":141.011631,"zip":"0240334"},{"town":"和賀町長沼","koaza":"十二地割","lat":39.29771,"lng":141.005707,"zip":"0240333"},{"town":"和賀町煤孫","koaza":"九地割","lat":39.283884,"lng":141.008586,"zip":"0240323"},{"town":"和賀町長沼","koaza":"二地割","lat":39.301858,"lng":141.018805,"zip":"0240333"},{"town":"和賀町岩崎新田","koaza":"四地割","lat":39.270113,"lng":141.008182,"zip":"0240322"},{"town":"和賀町煤孫","koaza":"十八地割","lat":39.289779,"lng":141.010977,"zip":"0240323"},{"town":"和賀町煤孫","koaza":"十七地割","lat":39.286212,"lng":141.012396,"zip":"0240323"},{"town":"和賀町長沼","koaza":"一地割","lat":39.304207,"lng":141.014944,"zip":"0240333"},{"town":"和賀町長沼","koaza":"三地割","lat":39.298262,"lng":141.012955,"zip":"0240333"},{"town":"和賀町岩崎新田","koaza":"大和","lat":39.26693,"lng":141.014988,"zip":"0240322"},{"town":"和賀町長沼","koaza":"十一地割","lat":39.29669,"lng":141.011711,"zip":"0240333"},{"town":"和賀町岩崎","koaza":"三地割","lat":39.253147,"lng":141.019372,"zip":"0240321"},{"town":"和賀町後藤","koaza":"七地割","lat":39.34142,"lng":141.018211,"zip":"0240335"},{"town":"和賀町煤孫","koaza":"八地割","lat":39.283163,"lng":141.017243,"zip":"0240323"},{"town":"和賀町煤孫","koaza":"六地割","lat":39.28051,"lng":141.018938,"zip":"0240323"},{"town":"和賀町煤孫","koaza":"五地割","lat":39.281286,"lng":141.014517,"zip":"0240323"},{"town":"和賀町藤根","koaza":"二地割","lat":39.316805,"lng":141.02325,"zip":"0240334"},{"town":"和賀町煤孫","koaza":"十九地割","lat":39.288147,"lng":141.018094,"zip":"0240323"},{"town":"和賀町長沼","koaza":"四地割","lat":39.297293,"lng":141.019765,"zip":"0240333"},{"town":"和賀町煤孫","koaza":"二十地割","lat":39.285254,"lng":141.0193,"zip":"0240323"},{"town":"和賀町後藤","koaza":"三地割","lat":39.326131,"lng":141.018939,"zip":"0240335"},{"town":"和賀町岩崎新田","koaza":"大東","lat":39.271672,"lng":141.027853,"zip":"0240322"},{"town":"和賀町煤孫","koaza":"七地割","lat":39.283445,"lng":141.025007,"zip":"0240323"},{"town":"和賀町長沼","koaza":"五地割","lat":39.300775,"lng":141.026487,"zip":"0240333"},{"town":"和賀町藤根","koaza":"五地割","lat":39.313804,"lng":141.022596,"zip":"0240334"},{"town":"和賀町藤根","koaza":"六地割","lat":39.318723,"lng":141.028435,"zip":"0240334"},{"town":"和賀町岩崎","koaza":"四地割","lat":39.259788,"lng":141.030808,"zip":"0240321"},{"town":"和賀町煤孫","koaza":"二十一地割","lat":39.286118,"lng":141.023168,"zip":"0240323"},{"town":"和賀町藤根","koaza":"四地割","lat":39.310119,"lng":141.025382,"zip":"0240334"},{"town":"和賀町岩崎","koaza":"二十一地割","lat":39.286705,"lng":141.026011,"zip":"0240321"},{"town":"和賀町岩崎新田","koaza":"七地割","lat":39.266656,"lng":141.030027,"zip":"0240322"},{"town":"和賀町長沼","koaza":"十四地割","lat":39.288635,"lng":141.02448,"zip":"0240333"},{"town":"和賀町長沼","koaza":"七地割","lat":39.295636,"lng":141.031132,"zip":"0240333"},{"town":"和賀町藤根","koaza":"十七地割","lat":39.303785,"lng":141.031467,"zip":"0240334"},{"town":"和賀町藤根","koaza":"十四地割","lat":39.313232,"lng":141.029638,"zip":"0240334"},{"town":"和賀町藤根","koaza":"十五地割","lat":39.310025,"lng":141.027726,"zip":"0240334"},{"town":"和賀町藤根","koaza":"十六地割","lat":39.306576,"lng":141.032035,"zip":"0240334"},{"town":"和賀町岩崎","koaza":"二十二地割","lat":39.284641,"lng":141.029943,"zip":"0240321"},{"town":"和賀町長沼","koaza":"九地割","lat":39.294399,"lng":141.029369,"zip":"0240333"},{"town":"和賀町後藤","koaza":"九地割","lat":39.336786,"lng":141.031935,"zip":"0240335"},{"town":"和賀町後藤","koaza":"八地割","lat":39.334091,"lng":141.030116,"zip":"0240335"},{"town":"和賀町長沼","koaza":"六地割","lat":39.298193,"lng":141.032474,"zip":"0240333"},{"town":"和賀町岩崎","koaza":"二十地割","lat":39.282746,"lng":141.032562,"zip":"0240321"},{"town":"和賀町岩崎","koaza":"五地割","lat":39.267201,"lng":141.037991,"zip":"0240321"},{"town":"和賀町岩崎新田","koaza":"十地割","lat":39.275711,"lng":141.034659,"zip":"0240322"},{"town":"和賀町岩崎","koaza":"七地割","lat":39.256721,"lng":141.032585,"zip":"0240321"},{"town":"和賀町岩崎","koaza":"十五地割","lat":39.273648,"lng":141.040687,"zip":"0240321"},{"town":"和賀町岩崎","koaza":"十九地割","lat":39.281884,"lng":141.034353,"zip":"0240321"},{"town":"和賀町藤根","koaza":"十三地割","lat":39.318811,"lng":141.036051,"zip":"0240334"},{"town":"和賀町藤根","koaza":"八地割","lat":39.326808,"lng":141.038139,"zip":"0240334"},{"town":"相去町","koaza":"日香下","lat":39.254443,"lng":141.035446,"zip":"0240051"},{"town":"和賀町藤根","koaza":"十八地割","lat":39.303024,"lng":141.037306,"zip":"0240334"},{"town":"和賀町岩崎","koaza":"六地割","lat":39.262851,"lng":141.035963,"zip":"0240321"},{"town":"和賀町後藤","koaza":"十地割","lat":39.333645,"lng":141.037929,"zip":"0240335"},{"town":"和賀町岩崎","koaza":"二十三地割","lat":39.28378,"lng":141.035144,"zip":"0240321"},{"town":"和賀町岩崎","koaza":"二十四地割","lat":39.286441,"lng":141.034903,"zip":"0240321"},{"town":"和賀町藤根","koaza":"二十地割","lat":39.31051,"lng":141.037546,"zip":"0240334"},{"town":"和賀町岩崎","koaza":"二十五地割","lat":39.282656,"lng":141.042333,"zip":"0240321"},{"town":"和賀町藤根","koaza":"十二地割","lat":39.319323,"lng":141.040907,"zip":"0240334"},{"town":"和賀町長沼","koaza":"八地割","lat":39.294562,"lng":141.037502,"zip":"0240333"},{"town":"和賀町後藤","koaza":"十一地割","lat":39.333994,"lng":141.041939,"zip":"0240335"},{"town":"下江釣子","koaza":"十地割","lat":39.29437,"lng":141.041204,"zip":"0240073"},{"town":"下江釣子","koaza":"十一地割","lat":39.298093,"lng":141.040229,"zip":"0240073"},{"town":"和賀町藤根","koaza":"二十一地割","lat":39.312217,"lng":141.043116,"zip":"0240334"},{"town":"相去町","koaza":"旭","lat":39.251097,"lng":141.038043,"zip":"0240051"},{"town":"和賀町藤根","koaza":"九地割","lat":39.323954,"lng":141.041271,"zip":"0240334"},{"town":"相去町","koaza":"内野","lat":39.256829,"lng":141.040493,"zip":"0240051"},{"town":"相去町","koaza":"上三十人町","lat":39.261077,"lng":141.047918,"zip":"0240051"},{"town":"下江釣子","koaza":"九地割","lat":39.291839,"lng":141.044039,"zip":"0240073"},{"town":"和賀町岩崎","koaza":"十八地割","lat":39.281673,"lng":141.041584,"zip":"0240321"},{"town":"和賀町岩崎","koaza":"十四地割","lat":39.271368,"lng":141.042905,"zip":"0240321"},{"town":"和賀町藤根","koaza":"十九地割","lat":39.306762,"lng":141.041628,"zip":"0240334"},{"town":"和賀町藤根","koaza":"二十六地割","lat":39.307666,"lng":141.0462,"zip":"0240334"},{"town":"和賀町後藤","koaza":"十二地割","lat":39.330994,"lng":141.046429,"zip":"0240335"},{"town":"下江釣子","koaza":"十二地割","lat":39.296443,"lng":141.046995,"zip":"0240073"},{"town":"和賀町岩崎","koaza":"八地割","lat":39.268867,"lng":141.043402,"zip":"0240321"},{"town":"和賀町藤根","koaza":"二十二地割","lat":39.312434,"lng":141.04791,"zip":"0240334"},{"town":"下江釣子","koaza":"十三地割","lat":39.299504,"lng":141.046865,"zip":"0240073"},{"town":"和賀町藤根","koaza":"二十九地割","lat":39.300603,"lng":141.048041,"zip":"0240334"},{"town":"和賀町藤根","koaza":"十地割","lat":39.321688,"lng":141.048315,"zip":"0240334"},{"town":"和賀町岩崎","koaza":"十六地割","lat":39.276632,"lng":141.046505,"zip":"0240321"},{"town":"下江釣子","koaza":"八地割","lat":39.291892,"lng":141.045589,"zip":"0240073"},{"town":"和賀町藤根","koaza":"十一地割","lat":39.31795,"lng":141.050915,"zip":"0240334"},{"town":"和賀町藤根","koaza":"二十八地割","lat":39.302851,"lng":141.048745,"zip":"0240334"},{"town":"和賀町藤根","koaza":"二十七地割","lat":39.305054,"lng":141.049308,"zip":"0240334"},{"town":"和賀町岩崎","koaza":"二十六地割","lat":39.284689,"lng":141.04823,"zip":"0240321"},{"town":"和賀町藤根","koaza":"二十五地割","lat":39.308643,"lng":141.049186,"zip":"0240334"},{"town":"下江釣子","koaza":"七地割","lat":39.292806,"lng":141.047967,"zip":"0240073"},{"town":"和賀町岩崎","koaza":"十七地割","lat":39.279316,"lng":141.048976,"zip":"0240321"},{"town":"下江釣子","koaza":"十四地割","lat":39.296824,"lng":141.050789,"zip":"0240073"},{"town":"和賀町岩崎","koaza":"二十七地割","lat":39.284916,"lng":141.054076,"zip":"0240321"},{"town":"和賀町岩崎","koaza":"二十八地割","lat":39.281847,"lng":141.05031,"zip":"0240321"},{"town":"滑田","koaza":"三地割","lat":39.321536,"lng":141.051995,"zip":"0240074"},{"town":"和賀町岩崎","koaza":"十二地割","lat":39.278302,"lng":141.052738,"zip":"0240321"},{"town":"和賀町後藤","koaza":"十三地割","lat":39.328265,"lng":141.054314,"zip":"0240335"},{"town":"和賀町藤根","koaza":"二十三地割","lat":39.311245,"lng":141.054991,"zip":"0240334"},{"town":"和賀町藤根","koaza":"二十四地割","lat":39.307879,"lng":141.053763,"zip":"0240334"},{"town":"和賀町岩崎","koaza":"二十九地割","lat":39.280565,"lng":141.052812,"zip":"0240321"},{"town":"新平","koaza":"一地割","lat":39.325525,"lng":141.051009,"zip":"0240075"},{"town":"下江釣子","koaza":"六地割","lat":39.292534,"lng":141.056992,"zip":"0240073"},{"town":"滑田","koaza":"五地割","lat":39.31527,"lng":141.05721,"zip":"0240074"},{"town":"下江釣子","koaza":"十五地割","lat":39.295809,"lng":141.059101,"zip":"0240073"},{"town":"滑田","koaza":"七地割","lat":39.310058,"lng":141.05629,"zip":"0240074"},{"town":"上江釣子","koaza":"一地割","lat":39.299596,"lng":141.057777,"zip":"0240071"},{"town":"藤沢","koaza":"二地割","lat":39.33792,"lng":141.059075,"zip":"0240013"},{"town":"下江釣子","koaza":"五地割","lat":39.29429,"lng":141.056141,"zip":"0240073"},{"town":"相去町","koaza":"上成沢","lat":39.263407,"lng":141.06253,"zip":"0240051"},{"town":"和賀町岩崎","koaza":"十一地割","lat":39.280757,"lng":141.060081,"zip":"0240321"},{"town":"滑田","koaza":"四地割","lat":39.317043,"lng":141.059227,"zip":"0240074"},{"town":"滑田","koaza":"六地割","lat":39.314729,"lng":141.060055,"zip":"0240074"},{"town":"滑田","koaza":"一地割","lat":39.318884,"lng":141.061972,"zip":"0240074"},{"town":"相去町","koaza":"下三十人町","lat":39.267477,"lng":141.061743,"zip":"0240051"},{"town":"下江釣子","koaza":"四地割","lat":39.292591,"lng":141.060197,"zip":"0240073"},{"town":"上江釣子","koaza":"三地割","lat":39.303224,"lng":141.060509,"zip":"0240071"},{"town":"和賀町岩崎","koaza":"三十地割","lat":39.281795,"lng":141.060994,"zip":"0240321"},{"town":"滑田","koaza":"九地割","lat":39.305522,"lng":141.061807,"zip":"0240074"},{"town":"滑田","koaza":"十三地割","lat":39.31099,"lng":141.060113,"zip":"0240074"},{"town":"滑田","koaza":"八地割","lat":39.307904,"lng":141.062592,"zip":"0240074"},{"town":"上江釣子","koaza":"四地割","lat":39.301883,"lng":141.061512,"zip":"0240071"},{"town":"上江釣子","koaza":"二地割","lat":39.301033,"lng":141.059619,"zip":"0240071"},{"town":"和賀町岩崎","koaza":"三十一地割","lat":39.284028,"lng":141.062119,"zip":"0240321"},{"town":"相去町","koaza":"大清水","lat":39.255839,"lng":141.061902,"zip":"0240051"},{"town":"滑田","koaza":"二地割","lat":39.318898,"lng":141.061042,"zip":"0240074"},{"town":"新平","koaza":"二地割","lat":39.321098,"lng":141.065289,"zip":"0240075"},{"town":"相去町","koaza":"上寒田清水","lat":39.253664,"lng":141.060328,"zip":"0240051"},{"town":"村崎野","koaza":"一地割","lat":39.343599,"lng":141.063574,"zip":"0240004"},{"town":"藤沢","koaza":"一地割","lat":39.333591,"lng":141.060411,"zip":"0240013"},{"town":"村崎野","koaza":"二地割","lat":39.3401,"lng":141.063164,"zip":"0240004"},{"town":"上江釣子","koaza":"五地割","lat":39.299424,"lng":141.064693,"zip":"0240071"},{"town":"新平","koaza":"三地割","lat":39.326382,"lng":141.064951,"zip":"0240075"},{"town":"滑田","koaza":"十四地割","lat":39.315747,"lng":141.064481,"zip":"0240074"},{"town":"上江釣子","koaza":"六地割","lat":39.300861,"lng":141.066818,"zip":"0240071"},{"town":"相去町","koaza":"上大谷地","lat":39.255229,"lng":141.067701,"zip":"0240051"},{"town":"相去町","koaza":"下成沢","lat":39.265295,"lng":141.070989,"zip":"0240051"},{"town":"下江釣子","koaza":"十六地割","lat":39.296326,"lng":141.068801,"zip":"0240073"},{"town":"相去町","koaza":"下寒田清水","lat":39.251119,"lng":141.064194,"zip":"0240051"},{"town":"下江釣子","koaza":"三地割","lat":39.29443,"lng":141.065577,"zip":"0240073"},{"town":"和賀町岩崎","koaza":"三十三地割","lat":39.282491,"lng":141.064303,"zip":"0240321"},{"town":"相去町","koaza":"中成沢","lat":39.264847,"lng":141.071304,"zip":"0240051"},{"town":"和賀町岩崎","koaza":"三十二地割","lat":39.284201,"lng":141.065308,"zip":"0240321"},{"town":"滑田","koaza":"十二地割","lat":39.31074,"lng":141.066926,"zip":"0240074"},{"town":"藤沢","koaza":"三地割","lat":39.329285,"lng":141.065171,"zip":"0240013"},{"town":"上鬼柳","koaza":"十三地割","lat":39.286938,"lng":141.065891,"zip":"0240057"},{"town":"滑田","koaza":"十地割","lat":39.30464,"lng":141.067578,"zip":"0240074"},{"town":"鬼柳町","koaza":"膝口","lat":39.280292,"lng":141.067924,"zip":"0240056"},{"town":"新平","koaza":"四地割","lat":39.322397,"lng":141.068758,"zip":"0240075"},{"town":"上江釣子","koaza":"七地割","lat":39.300414,"lng":141.069565,"zip":"0240071"},{"town":"滑田","koaza":"十五地割","lat":39.31712,"lng":141.07135,"zip":"0240074"},{"town":"滑田","koaza":"十六地割","lat":39.312898,"lng":141.068806,"zip":"0240074"},{"town":"村崎野","koaza":"四地割","lat":39.347579,"lng":141.07315,"zip":"0240004"},{"town":"鬼柳町","koaza":"寺田","lat":39.282395,"lng":141.070427,"zip":"0240056"},{"town":"鬼柳町","koaza":"六軒","lat":39.276424,"lng":141.073232,"zip":"0240056"},{"town":"滑田","koaza":"十一地割","lat":39.309133,"lng":141.071487,"zip":"0240074"},{"town":"滑田","koaza":"十七地割","lat":39.31038,"lng":141.070309,"zip":"0240074"},{"town":"新平","koaza":"五地割","lat":39.323408,"lng":141.06984,"zip":"0240075"},{"town":"藤沢","koaza":"五地割","lat":39.329938,"lng":141.07604,"zip":"0240013"},{"town":"下江釣子","koaza":"二地割","lat":39.295053,"lng":141.069897,"zip":"0240073"},{"town":"上江釣子","koaza":"八地割","lat":39.303697,"lng":141.072538,"zip":"0240071"},{"town":"上江釣子","koaza":"十七地割","lat":39.298064,"lng":141.0741,"zip":"0240071"},{"town":"上江釣子","koaza":"十八地割","lat":39.295995,"lng":141.075076,"zip":"0240071"},{"town":"上江釣子","koaza":"十六地割","lat":39.301286,"lng":141.074426,"zip":"0240071"},{"town":"鬼柳町","koaza":"中佐野","lat":39.279012,"lng":141.075976,"zip":"0240056"},{"town":"鬼柳町","koaza":"元年","lat":39.280976,"lng":141.075685,"zip":"0240056"},{"town":"相去町","koaza":"中大谷地","lat":39.2529,"lng":141.078096,"zip":"0240051"},{"town":"滑田","koaza":"十八地割","lat":39.31094,"lng":141.076615,"zip":"0240074"},{"town":"鬼柳町","koaza":"鼠川原","lat":39.284215,"lng":141.078762,"zip":"0240056"},{"town":"滑田","koaza":"十九地割","lat":39.313644,"lng":141.076811,"zip":"0240074"},{"town":"上江釣子","koaza":"九地割","lat":39.302832,"lng":141.078164,"zip":"0240071"},{"town":"村崎野","koaza":"八地割","lat":39.334341,"lng":141.077864,"zip":"0240004"},{"town":"滑田","koaza":"二十地割","lat":39.314227,"lng":141.077201,"zip":"0240074"},{"town":"相去町","koaza":"大谷地","lat":39.254634,"lng":141.077285,"zip":"0240051"},{"town":"上江釣子","koaza":"十地割","lat":39.305913,"lng":141.076027,"zip":"0240071"},{"town":"相去町","koaza":"土井","lat":39.24606,"lng":141.078149,"zip":"0240051"},{"town":"飯豊","koaza":"十一地割","lat":39.351666,"lng":141.07803,"zip":"0240001"},{"town":"藤沢","koaza":"十二地割","lat":39.322711,"lng":141.082466,"zip":"0240013"},{"town":"上江釣子","koaza":"二十地割","lat":39.292149,"lng":141.082053,"zip":"0240071"},{"town":"相去町","koaza":"揚場","lat":39.247246,"lng":141.080031,"zip":"0240051"},{"town":"村崎野","koaza":"七地割","lat":39.337452,"lng":141.08354,"zip":"0240004"},{"town":"相去町","koaza":"上土井","lat":39.245474,"lng":141.079259,"zip":"0240051"},{"town":"藤沢","koaza":"七地割","lat":39.328024,"lng":141.081985,"zip":"0240013"},{"town":"藤沢","koaza":"八地割","lat":39.323331,"lng":141.079733,"zip":"0240013"},{"town":"飯豊","koaza":"十地割","lat":39.35174,"lng":141.081455,"zip":"0240001"},{"town":"相去町","koaza":"中平沢","lat":39.241452,"lng":141.079882,"zip":"0240051"},{"town":"上江釣子","koaza":"十五地割","lat":39.29742,"lng":141.081589,"zip":"0240071"},{"town":"鬼柳町","koaza":"柳上","lat":39.275838,"lng":141.083013,"zip":"0240056"},{"town":"上江釣子","koaza":"十九地割","lat":39.294862,"lng":141.083287,"zip":"0240071"},{"town":"藤沢","koaza":"六地割","lat":39.331418,"lng":141.079944,"zip":"0240013"},{"town":"上江釣子","koaza":"十一地割","lat":39.303985,"lng":141.080466,"zip":"0240071"},{"town":"上江釣子","koaza":"十三地割","lat":39.301468,"lng":141.085046,"zip":"0240071"},{"town":"鳩岡崎","koaza":"三地割","lat":39.314046,"lng":141.082533,"zip":"0240076"},{"town":"鬼柳町","koaza":"新井田","lat":39.27808,"lng":141.082692,"zip":"0240056"},{"town":"相去町","koaza":"大谷地長根","lat":39.250479,"lng":141.081841,"zip":"0240051"},{"town":"飯豊","koaza":"十五地割","lat":39.350234,"lng":141.081178,"zip":"0240001"},{"town":"村崎野","koaza":"五地割","lat":39.341711,"lng":141.08743,"zip":"0240004"},{"town":"相去町","koaza":"大松沢","lat":39.244069,"lng":141.084111,"zip":"0240051"},{"town":"相去町","koaza":"葛西檀","lat":39.263766,"lng":141.086115,"zip":"0240051"},{"town":"下鬼柳","koaza":"十七地割","lat":39.267204,"lng":141.088872,"zip":"0240058"},{"town":"鬼柳町","koaza":"下川原","lat":39.281368,"lng":141.084949,"zip":"0240056"},{"town":"鳩岡崎","koaza":"四地割","lat":39.311177,"lng":141.081419,"zip":"0240076"},{"town":"相去町","koaza":"下大谷地","lat":39.251934,"lng":141.084476,"zip":"0240051"},{"town":"藤沢","koaza":"十一地割","lat":39.318775,"lng":141.083863,"zip":"0240013"},{"town":"飯豊","koaza":"九地割","lat":39.356111,"lng":141.084583,"zip":"0240001"},{"town":"村崎野","koaza":"九地割","lat":39.33009,"lng":141.086929,"zip":"0240004"},{"town":"相去町","koaza":"小門岡","lat":39.249468,"lng":141.085569,"zip":"0240051"},{"town":"相去町","koaza":"滝の沢","lat":39.264694,"lng":141.088296,"zip":"0240051"},{"town":"下鬼柳","koaza":"四地割","lat":39.282827,"lng":141.091036,"zip":"0240058"},{"town":"相去町","koaza":"高前檀","lat":39.261872,"lng":141.085362,"zip":"0240051"},{"town":"相去町","koaza":"中土井","lat":39.247256,"lng":141.084455,"zip":"0240051"},{"town":"上江釣子","koaza":"十四地割","lat":39.296689,"lng":141.082796,"zip":"0240071"},{"town":"鳩岡崎","koaza":"五地割","lat":39.306241,"lng":141.085947,"zip":"0240076"},{"town":"相去町","koaza":"平林","lat":39.253464,"lng":141.094368,"zip":"0240051"},{"town":"鬼柳町","koaza":"満屋","lat":39.274308,"lng":141.086899,"zip":"0240056"},{"town":"北鬼柳","koaza":"二十六地割","lat":39.289082,"lng":141.088136,"zip":"0240072"},{"town":"飯豊","koaza":"十七地割","lat":39.347823,"lng":141.088315,"zip":"0240001"},{"town":"飯豊","koaza":"十六地割","lat":39.347104,"lng":141.088746,"zip":"0240001"},{"town":"上江釣子","koaza":"十二地割","lat":39.302894,"lng":141.087289,"zip":"0240071"},{"town":"鳩岡崎","koaza":"二地割","lat":39.313466,"lng":141.086628,"zip":"0240076"},{"town":"飯豊","koaza":"十八地割","lat":39.348334,"lng":141.089011,"zip":"0240001"},{"town":"相去町","koaza":"和田","lat":39.236349,"lng":141.090865,"zip":"0240051"},{"town":"北鬼柳","koaza":"十四地割","lat":39.296215,"lng":141.08729,"zip":"0240072"},{"town":"北鬼柳","koaza":"二十五地割","lat":39.291172,"lng":141.087008,"zip":"0240072"},{"town":"相去町","koaza":"山根梨の木","lat":39.244153,"lng":141.095892,"zip":"0240051"},{"town":"鬼柳町","koaza":"田の神","lat":39.27734,"lng":141.089753,"zip":"0240056"},{"town":"相去町","koaza":"七里","lat":39.232789,"lng":141.088193,"zip":"0240051"},{"town":"飯豊","koaza":"十九地割","lat":39.352026,"lng":141.091426,"zip":"0240001"},{"town":"村崎野","koaza":"十地割","lat":39.337075,"lng":141.090228,"zip":"0240004"},{"town":"相去町","koaza":"寺後沢","lat":39.24914,"lng":141.087915,"zip":"0240051"},{"town":"飯豊","koaza":"八地割","lat":39.357201,"lng":141.087551,"zip":"0240001"},{"town":"北鬼柳","koaza":"十九地割","lat":39.29422,"lng":141.092899,"zip":"0240072"},{"town":"北鬼柳","koaza":"二十一地割","lat":39.291822,"lng":141.09247,"zip":"0240072"},{"town":"鬼柳町","koaza":"反目","lat":39.280434,"lng":141.089899,"zip":"0240056"},{"town":"藤沢","koaza":"十四地割","lat":39.315754,"lng":141.089571,"zip":"0240013"},{"town":"相去町","koaza":"下土井","lat":39.248599,"lng":141.090412,"zip":"0240051"},{"town":"北鬼柳","koaza":"十五地割","lat":39.295161,"lng":141.093254,"zip":"0240072"},{"town":"北鬼柳","koaza":"二十地割","lat":39.292698,"lng":141.093331,"zip":"0240072"},{"town":"相去町","koaza":"和田尻","lat":39.23645,"lng":141.093676,"zip":"0240051"},{"town":"相去町","koaza":"和田前","lat":39.234493,"lng":141.091268,"zip":"0240051"},{"town":"鬼柳町","koaza":"宿","lat":39.271366,"lng":141.091397,"zip":"0240056"},{"town":"北鬼柳","koaza":"十六地割","lat":39.29638,"lng":141.091913,"zip":"0240072"},{"town":"相去町","koaza":"笹長根","lat":39.230744,"lng":141.092968,"zip":"0240051"},{"town":"北鬼柳","koaza":"十一地割","lat":39.299665,"lng":141.094367,"zip":"0240072"},{"town":"藤沢","koaza":"十三地割","lat":39.32351,"lng":141.092109,"zip":"0240013"},{"town":"飯豊","koaza":"七地割","lat":39.357712,"lng":141.091242,"zip":"0240001"},{"town":"北鬼柳","koaza":"一地割","lat":39.30876,"lng":141.092904,"zip":"0240072"},{"town":"鬼柳町","koaza":"堰合","lat":39.276191,"lng":141.093906,"zip":"0240056"},{"town":"飯豊","koaza":"二十一地割","lat":39.343698,"lng":141.097756,"zip":"0240001"},{"town":"北鬼柳","koaza":"九地割","lat":39.301389,"lng":141.091937,"zip":"0240072"},{"town":"飯豊","koaza":"二十地割","lat":39.347903,"lng":141.094015,"zip":"0240001"},{"town":"相去町","koaza":"舘","lat":39.248065,"lng":141.096268,"zip":"0240051"},{"town":"北鬼柳","koaza":"二十七地割","lat":39.287345,"lng":141.093048,"zip":"0240072"},{"town":"村崎野","koaza":"十三地割","lat":39.323532,"lng":141.100034,"zip":"0240004"},{"town":"鬼柳町","koaza":"卯の木","lat":39.270677,"lng":141.095692,"zip":"0240056"},{"town":"北鬼柳","koaza":"二十二地割","lat":39.290791,"lng":141.095844,"zip":"0240072"},{"town":"村崎野","koaza":"十二地割","lat":39.333264,"lng":141.093749,"zip":"0240004"},{"town":"相去町","koaza":"寺前沢","lat":39.249807,"lng":141.095519,"zip":"0240051"},{"town":"下鬼柳","koaza":"十六地割","lat":39.266345,"lng":141.096501,"zip":"0240058"},{"town":"飯豊","koaza":"六地割","lat":39.349862,"lng":141.097732,"zip":"0240001"},{"town":"北鬼柳","koaza":"二地割","lat":39.307578,"lng":141.09567,"zip":"0240072"},{"town":"北鬼柳","koaza":"八地割","lat":39.304883,"lng":141.095,"zip":"0240072"},{"town":"相去町","koaza":"旧舘沢","lat":39.260932,"lng":141.097311,"zip":"0240051"},{"town":"相去町","koaza":"往還西","lat":39.235568,"lng":141.098738,"zip":"0240051"},{"town":"藤沢","koaza":"十五地割","lat":39.310664,"lng":141.098922,"zip":"0240013"},{"town":"北鬼柳","koaza":"二十九地割","lat":39.285529,"lng":141.100913,"zip":"0240072"},{"town":"北鬼柳","koaza":"二十三地割","lat":39.287942,"lng":141.097245,"zip":"0240072"},{"town":"村崎野","koaza":"十一地割","lat":39.340973,"lng":141.099887,"zip":"0240004"},{"town":"鬼柳町","koaza":"都鳥","lat":39.277023,"lng":141.098466,"zip":"0240056"},{"town":"藤沢","koaza":"十六地割","lat":39.322531,"lng":141.096787,"zip":"0240013"},{"town":"北鬼柳","koaza":"十地割","lat":39.299121,"lng":141.097744,"zip":"0240072"},{"town":"北鬼柳","koaza":"二十八地割","lat":39.286783,"lng":141.097172,"zip":"0240072"},{"town":"北鬼柳","koaza":"三地割","lat":39.30546,"lng":141.099269,"zip":"0240072"},{"town":"飯豊","koaza":"五地割","lat":39.351653,"lng":141.099715,"zip":"0240001"},{"town":"北鬼柳","koaza":"七地割","lat":39.303784,"lng":141.097794,"zip":"0240072"},{"town":"北鬼柳","koaza":"十七地割","lat":39.295507,"lng":141.100115,"zip":"0240072"},{"town":"村崎野","koaza":"二十地割","lat":39.342352,"lng":141.108105,"zip":"0240004"},{"town":"北鬼柳","koaza":"十八地割","lat":39.293822,"lng":141.101603,"zip":"0240072"},{"town":"下鬼柳","koaza":"十五地割","lat":39.26669,"lng":141.100587,"zip":"0240058"},{"town":"町分","koaza":"十八地割","lat":39.288624,"lng":141.100946,"zip":"0240082"},{"town":"北鬼柳","koaza":"五地割","lat":39.302675,"lng":141.101292,"zip":"0240072"},{"town":"北鬼柳","koaza":"三十三地割","lat":39.286809,"lng":141.102914,"zip":"0240072"},{"town":"相去町","koaza":"岩の目","lat":39.2356,"lng":141.101177,"zip":"0240051"},{"town":"鬼柳町","koaza":"笊渕","lat":39.270718,"lng":141.102413,"zip":"0240056"},{"town":"相去町","koaza":"蒼前森","lat":39.259519,"lng":141.102286,"zip":"0240051"},{"town":"相去町","koaza":"舘下","lat":39.248082,"lng":141.100367,"zip":"0240051"},{"town":"飯豊","koaza":"二十二地割","lat":39.348764,"lng":141.10183,"zip":"0240001"},{"town":"北鬼柳","koaza":"六地割","lat":39.299401,"lng":141.101654,"zip":"0240072"},{"town":"相去町","koaza":"丙午","lat":39.245563,"lng":141.104887,"zip":"0240051"},{"town":"相去町","koaza":"山田","lat":39.256351,"lng":141.105257,"zip":"0240051"},{"town":"鬼柳町","koaza":"打越","lat":39.266528,"lng":141.108654,"zip":"0240056"},{"town":"鬼柳町","koaza":"荒高","lat":39.276311,"lng":141.104979,"zip":"0240056"},{"town":"藤沢","koaza":"十七地割","lat":39.313423,"lng":141.108856,"zip":"0240013"},{"town":"村崎野","koaza":"十八地割","lat":39.331916,"lng":141.108461,"zip":"0240004"},{"town":"町分","koaza":"七地割","lat":39.2957,"lng":141.104507,"zip":"0240082"},{"town":"町分","koaza":"三地割","lat":39.29891,"lng":141.103694,"zip":"0240082"},{"town":"村崎野","koaza":"十九地割","lat":39.338686,"lng":141.107897,"zip":"0240004"},{"town":"北鬼柳","koaza":"四地割","lat":39.307368,"lng":141.102964,"zip":"0240072"},{"town":"相去町","koaza":"下谷木","lat":39.240311,"lng":141.10245,"zip":"0240051"},{"town":"下鬼柳","koaza":"十四地割","lat":39.266478,"lng":141.102455,"zip":"0240058"},{"town":"村崎野","koaza":"十五地割","lat":39.321669,"lng":141.113283,"zip":"0240004"},{"town":"相去町","koaza":"前塘","lat":39.256566,"lng":141.101979,"zip":"0240051"},{"town":"村崎野","koaza":"十六地割","lat":39.325804,"lng":141.112208,"zip":"0240004"},{"town":"町分","koaza":"二地割","lat":39.303177,"lng":141.105289,"zip":"0240082"},{"town":"成田","koaza":"二十一地割","lat":39.348943,"lng":141.105482,"zip":"0240003"},{"town":"村崎野","koaza":"十七地割","lat":39.328014,"lng":141.10993,"zip":"0240004"},{"town":"飯豊","koaza":"二十三地割","lat":39.346327,"lng":141.106913,"zip":"0240001"},{"town":"北鬼柳","koaza":"三十二地割","lat":39.285668,"lng":141.104903,"zip":"0240072"},{"town":"相去町","koaza":"荒屋敷","lat":39.253415,"lng":141.1067,"zip":"0240051"},{"town":"北鬼柳","koaza":"三十一地割","lat":39.28352,"lng":141.104907,"zip":"0240072"},{"town":"成田","koaza":"二十地割","lat":39.351526,"lng":141.104291,"zip":"0240003"},{"town":"町分","koaza":"一地割","lat":39.307152,"lng":141.106303,"zip":"0240082"},{"town":"藤沢","koaza":"十八地割","lat":39.309454,"lng":141.108605,"zip":"0240013"},{"town":"飯豊","koaza":"三地割","lat":39.355907,"lng":141.105453,"zip":"0240001"},{"town":"鬼柳町","koaza":"糠塚","lat":39.270703,"lng":141.10836,"zip":"0240056"},{"town":"町分","koaza":"四地割","lat":39.299568,"lng":141.106219,"zip":"0240082"},{"town":"相去町","koaza":"中新田","lat":39.251176,"lng":141.106884,"zip":"0240051"},{"town":"成田","koaza":"二十二地割","lat":39.34983,"lng":141.109619,"zip":"0240003"},{"town":"村崎野","koaza":"十四地割","lat":39.315644,"lng":141.114537,"zip":"0240004"},{"town":"鬼柳町","koaza":"荒堰","lat":39.274006,"lng":141.108307,"zip":"0240056"},{"town":"飯豊","koaza":"二十四地割","lat":39.34453,"lng":141.106609,"zip":"0240001"},{"town":"村崎野","koaza":"二十二地割","lat":39.334237,"lng":141.113475,"zip":"0240004"},{"town":"相去町","koaza":"朴の木","lat":39.252749,"lng":141.108734,"zip":"0240051"},{"town":"相去町","koaza":"十二の木","lat":39.254549,"lng":141.111024,"zip":"0240051"},{"town":"相去町","koaza":"西裏","lat":39.260565,"lng":141.111627,"zip":"0240051"},{"town":"成田","koaza":"十九地割","lat":39.355211,"lng":141.110123,"zip":"0240003"},{"town":"藤沢","koaza":"十九地割","lat":39.305209,"lng":141.116888,"zip":"0240013"},{"town":"藤沢","koaza":"二十地割","lat":39.313052,"lng":141.112467,"zip":"0240013"},{"town":"相去町","koaza":"松の木","lat":39.259218,"lng":141.111834,"zip":"0240051"},{"town":"相去町","koaza":"小糠沢","lat":39.256845,"lng":141.110839,"zip":"0240051"},{"town":"鬼柳町","koaza":"川原小屋","lat":39.270251,"lng":141.112387,"zip":"0240056"},{"town":"相去町","koaza":"白山道","lat":39.25642,"lng":141.112714,"zip":"0240051"},{"town":"鬼柳町","koaza":"古川","lat":39.272935,"lng":141.113227,"zip":"0240056"},{"town":"成田","koaza":"二十三地割","lat":39.349189,"lng":141.116411,"zip":"0240003"},{"town":"稲瀬町","koaza":"押切","lat":39.239644,"lng":141.117513,"zip":"0240041"},{"town":"相去町","koaza":"熊堂","lat":39.254994,"lng":141.112987,"zip":"0240051"},{"town":"相去町","koaza":"相去","lat":39.261361,"lng":141.114587,"zip":"0240051"},{"town":"鬼柳町","koaza":"鷹鳥羽","lat":39.268421,"lng":141.11739,"zip":"0240056"},{"town":"相去町","koaza":"東裏","lat":39.260791,"lng":141.116601,"zip":"0240051"},{"town":"相去町","koaza":"西野","lat":39.264348,"lng":141.114511,"zip":"0240051"},{"town":"村崎野","koaza":"二十三地割","lat":39.331773,"lng":141.117974,"zip":"0240004"},{"town":"村崎野","koaza":"二十一地割","lat":39.338687,"lng":141.115375,"zip":"0240004"},{"town":"相去町","koaza":"町浦","lat":39.261156,"lng":141.115399,"zip":"0240051"},{"town":"鬼柳町","koaza":"町分","lat":39.26669,"lng":141.116197,"zip":"0240056"},{"town":"稲瀬町","koaza":"上台","lat":39.250761,"lng":141.124549,"zip":"0240041"},{"town":"村崎野","koaza":"二十四地割","lat":39.32726,"lng":141.120676,"zip":"0240004"},{"town":"成田","koaza":"二十六地割","lat":39.342986,"lng":141.12242,"zip":"0240003"},{"town":"藤沢","koaza":"二十一地割","lat":39.309665,"lng":141.119589,"zip":"0240013"},{"town":"稲瀬町","koaza":"前田","lat":39.246084,"lng":141.123008,"zip":"0240041"},{"town":"稲瀬町","koaza":"金附","lat":39.247368,"lng":141.119361,"zip":"0240041"},{"town":"稲瀬町","koaza":"地蔵堂","lat":39.239514,"lng":141.120692,"zip":"0240041"},{"town":"藤沢","koaza":"二十二地割","lat":39.305688,"lng":141.120681,"zip":"0240013"},{"town":"二子町","koaza":"明神","lat":39.313134,"lng":141.13134,"zip":"0240104"},{"town":"二子町","koaza":"高屋","lat":39.310637,"lng":141.1283,"zip":"0240104"},{"town":"稲瀬町","koaza":"山岸","lat":39.240761,"lng":141.122995,"zip":"0240041"},{"town":"成田","koaza":"二十五地割","lat":39.349076,"lng":141.126809,"zip":"0240003"},{"town":"二子町","koaza":"南田","lat":39.318732,"lng":141.126252,"zip":"0240104"},{"town":"稲瀬町","koaza":"岩脇","lat":39.265638,"lng":141.134745,"zip":"0240041"},{"town":"二子町","koaza":"上野","lat":39.30658,"lng":141.127904,"zip":"0240104"},{"town":"立花","koaza":"十四地割","lat":39.27209,"lng":141.12675,"zip":"0240043"},{"town":"成田","koaza":"二十八地割","lat":39.346524,"lng":141.127286,"zip":"0240003"},{"town":"二子町","koaza":"築舘","lat":39.323375,"lng":141.129943,"zip":"0240104"},{"town":"稲瀬町","koaza":"水越","lat":39.245496,"lng":141.131641,"zip":"0240041"},{"town":"立花","koaza":"十二地割","lat":39.277601,"lng":141.127698,"zip":"0240043"},{"town":"稲瀬町","koaza":"大谷地","lat":39.241702,"lng":141.130581,"zip":"0240041"},{"town":"成田","koaza":"二十七地割","lat":39.344701,"lng":141.129563,"zip":"0240003"},{"town":"立花","koaza":"十三地割","lat":39.274351,"lng":141.1285,"zip":"0240043"},{"town":"二子町","koaza":"秋子沢","lat":39.328677,"lng":141.132305,"zip":"0240104"},{"town":"二子町","koaza":"堰向","lat":39.321626,"lng":141.131135,"zip":"0240104"},{"town":"立花","koaza":"十五地割","lat":39.275901,"lng":141.134865,"zip":"0240043"},{"town":"二子町","koaza":"西川目","lat":39.319277,"lng":141.133155,"zip":"0240104"},{"town":"立花","koaza":"十地割","lat":39.281872,"lng":141.132906,"zip":"0240043"},{"town":"里分","koaza":"二地割","lat":39.29847,"lng":141.131499,"zip":"0240023"},{"town":"里分","koaza":"八地割","lat":39.291728,"lng":141.132847,"zip":"0240023"},{"town":"成田","koaza":"五地割","lat":39.34676,"lng":141.132377,"zip":"0240003"},{"town":"里分","koaza":"十二地割","lat":39.288613,"lng":141.134682,"zip":"0240023"},{"town":"二子町","koaza":"中島","lat":39.314709,"lng":141.134925,"zip":"0240104"},{"town":"二子町","koaza":"野田","lat":39.308249,"lng":141.134811,"zip":"0240104"},{"town":"立花","koaza":"十一地割","lat":39.277899,"lng":141.133458,"zip":"0240043"},{"town":"稲瀬町","koaza":"内門岡","lat":39.262663,"lng":141.143877,"zip":"0240041"},{"town":"稲瀬町","koaza":"田合田","lat":39.255438,"lng":141.140775,"zip":"0240041"},{"town":"立花","koaza":"九地割","lat":39.280458,"lng":141.133571,"zip":"0240043"},{"town":"里分","koaza":"四地割","lat":39.293794,"lng":141.134403,"zip":"0240023"},{"town":"成田","koaza":"一地割","lat":39.344379,"lng":141.132894,"zip":"0240003"},{"town":"里分","koaza":"七地割","lat":39.292376,"lng":141.136071,"zip":"0240023"},{"town":"二子町","koaza":"羽々下","lat":39.323645,"lng":141.133637,"zip":"0240104"},{"town":"二子町","koaza":"蟹沢","lat":39.300468,"lng":141.13615,"zip":"0240104"},{"town":"二子町","koaza":"渋谷","lat":39.329013,"lng":141.137341,"zip":"0240104"},{"town":"二子町","koaza":"坊舘","lat":39.331526,"lng":141.140787,"zip":"0240104"},{"town":"二子町","koaza":"中居俵","lat":39.304028,"lng":141.138443,"zip":"0240104"},{"town":"立花","koaza":"八地割","lat":39.279035,"lng":141.135174,"zip":"0240043"},{"town":"立花","koaza":"十六地割","lat":39.276673,"lng":141.139461,"zip":"0240043"},{"town":"立花","koaza":"五地割","lat":39.283702,"lng":141.137489,"zip":"0240043"},{"town":"二子町","koaza":"下中島","lat":39.311028,"lng":141.136689,"zip":"0240104"},{"town":"立花","koaza":"七地割","lat":39.281812,"lng":141.137943,"zip":"0240043"},{"town":"二子町","koaza":"鳥喰","lat":39.321265,"lng":141.141758,"zip":"0240104"},{"town":"立花","koaza":"三地割","lat":39.287368,"lng":141.13875,"zip":"0240043"},{"town":"二子町","koaza":"才の羽々","lat":39.306479,"lng":141.140232,"zip":"0240104"},{"town":"小鳥崎","koaza":"一地割","lat":39.299116,"lng":141.139742,"zip":"0240105"},{"town":"小鳥崎","koaza":"二地割","lat":39.298084,"lng":141.142518,"zip":"0240105"},{"town":"里分","koaza":"六地割","lat":39.29099,"lng":141.138284,"zip":"0240023"},{"town":"里分","koaza":"五地割","lat":39.295193,"lng":141.139824,"zip":"0240023"},{"town":"立花","koaza":"六地割","lat":39.283493,"lng":141.138965,"zip":"0240043"},{"town":"立花","koaza":"十七地割","lat":39.280007,"lng":141.140007,"zip":"0240043"},{"town":"二子町","koaza":"鳥喰前","lat":39.319316,"lng":141.141357,"zip":"0240104"},{"town":"二子町","koaza":"西小沼","lat":39.317683,"lng":141.140764,"zip":"0240104"},{"town":"二子町","koaza":"宿西","lat":39.3284,"lng":141.14027,"zip":"0240104"},{"town":"立花","koaza":"四地割","lat":39.285668,"lng":141.139556,"zip":"0240043"},{"town":"立花","koaza":"二十地割","lat":39.282814,"lng":141.142165,"zip":"0240043"},{"town":"二子町","koaza":"下岡島","lat":39.308029,"lng":141.141783,"zip":"0240104"},{"town":"小鳥崎","koaza":"三地割","lat":39.297011,"lng":141.144404,"zip":"0240105"},{"town":"二子町","koaza":"山岸","lat":39.303176,"lng":141.14006,"zip":"0240104"},{"town":"二子町","koaza":"上岡島","lat":39.311993,"lng":141.142839,"zip":"0240104"},{"town":"二子町","koaza":"宿東","lat":39.327501,"lng":141.143186,"zip":"0240104"},{"town":"二子町","koaza":"小沼","lat":39.316464,"lng":141.144455,"zip":"0240104"},{"town":"立花","koaza":"二地割","lat":39.29248,"lng":141.144276,"zip":"0240043"},{"town":"立花","koaza":"十八地割","lat":39.277856,"lng":141.144746,"zip":"0240043"},{"town":"立花","koaza":"二十二地割","lat":39.286051,"lng":141.146951,"zip":"0240043"},{"town":"立花","koaza":"二十四地割","lat":39.289519,"lng":141.150047,"zip":"0240043"},{"town":"立花","koaza":"二十三地割","lat":39.287686,"lng":141.147761,"zip":"0240043"},{"town":"更木","koaza":"八地割","lat":39.337318,"lng":141.144588,"zip":"0240103"},{"town":"立花","koaza":"一地割","lat":39.290058,"lng":141.146456,"zip":"0240043"},{"town":"二子町","koaza":"宿表","lat":39.330455,"lng":141.145028,"zip":"0240104"},{"town":"二子町","koaza":"舘下","lat":39.303605,"lng":141.144404,"zip":"0240104"},{"town":"二子町","koaza":"宿裏","lat":39.328124,"lng":141.144316,"zip":"0240104"},{"town":"立花","koaza":"十九地割","lat":39.281454,"lng":141.14544,"zip":"0240043"},{"town":"更木","koaza":"十八地割","lat":39.336045,"lng":141.145702,"zip":"0240103"},{"town":"二子町","koaza":"上瀬打場","lat":39.331071,"lng":141.145996,"zip":"0240104"},{"town":"二子町","koaza":"千苅","lat":39.304076,"lng":141.145665,"zip":"0240104"},{"town":"立花","koaza":"二十一地割","lat":39.283308,"lng":141.146491,"zip":"0240043"},{"town":"更木","koaza":"四地割","lat":39.343861,"lng":141.145754,"zip":"0240103"},{"town":"黒岩","koaza":"二十四地割","lat":39.300392,"lng":141.149617,"zip":"0240042"},{"town":"更木","koaza":"三地割","lat":39.347296,"lng":141.146625,"zip":"0240103"},{"town":"更木","koaza":"二地割","lat":39.349634,"lng":141.149178,"zip":"0240103"},{"town":"更木","koaza":"十地割","lat":39.340228,"lng":141.148727,"zip":"0240103"},{"town":"二子町","koaza":"田尻","lat":39.317217,"lng":141.147397,"zip":"0240104"},{"town":"二子町","koaza":"中村","lat":39.310748,"lng":141.147356,"zip":"0240104"},{"town":"更木","koaza":"十一地割","lat":39.342521,"lng":141.147245,"zip":"0240103"},{"town":"二子町","koaza":"矢白","lat":39.320984,"lng":141.150282,"zip":"0240104"},{"town":"更木","koaza":"十九地割","lat":39.336629,"lng":141.149067,"zip":"0240103"},{"town":"立花","koaza":"二十六地割","lat":39.280119,"lng":141.15705,"zip":"0240043"},{"town":"二子町","koaza":"尻引","lat":39.312954,"lng":141.150691,"zip":"0240104"},{"town":"稲瀬町","koaza":"福田地","lat":39.261564,"lng":141.156361,"zip":"0240041"},{"town":"更木","koaza":"十二地割","lat":39.344791,"lng":141.150012,"zip":"0240103"},{"town":"二子町","koaza":"上川端","lat":39.323859,"lng":141.151498,"zip":"0240104"},{"town":"二子町","koaza":"下川端","lat":39.31781,"lng":141.153411,"zip":"0240104"},{"town":"更木","koaza":"一地割","lat":39.353164,"lng":141.149671,"zip":"0240103"},{"town":"更木","koaza":"十六地割","lat":39.340828,"lng":141.151586,"zip":"0240103"},{"town":"更木","koaza":"十五地割","lat":39.344367,"lng":141.151999,"zip":"0240103"},{"town":"黒岩","koaza":"二十三地割","lat":39.302786,"lng":141.150481,"zip":"0240042"},{"town":"更木","koaza":"十三地割","lat":39.350039,"lng":141.151672,"zip":"0240103"},{"town":"黒岩","koaza":"二十地割","lat":39.306541,"lng":141.152167,"zip":"0240042"},{"town":"更木","koaza":"十七地割","lat":39.338453,"lng":141.150871,"zip":"0240103"},{"town":"更木","koaza":"三十四地割","lat":39.332811,"lng":141.156089,"zip":"0240103"},{"town":"立花","koaza":"二十七地割","lat":39.285902,"lng":141.159161,"zip":"0240043"},{"town":"更木","koaza":"十四地割","lat":39.348283,"lng":141.152675,"zip":"0240103"},{"town":"立花","koaza":"二十五地割","lat":39.285053,"lng":141.155484,"zip":"0240043"},{"town":"更木","koaza":"二十二地割","lat":39.341199,"lng":141.152802,"zip":"0240103"},{"town":"更木","koaza":"二十地割","lat":39.336132,"lng":141.152928,"zip":"0240103"},{"town":"黒岩","koaza":"十二地割","lat":39.302729,"lng":141.154321,"zip":"0240042"},{"town":"立花","koaza":"三十地割","lat":39.291254,"lng":141.155901,"zip":"0240043"},{"town":"立花","koaza":"二十九地割","lat":39.290056,"lng":141.158222,"zip":"0240043"},{"town":"二子町","koaza":"室屋","lat":39.324964,"lng":141.153211,"zip":"0240104"},{"town":"黒岩","koaza":"十九地割","lat":39.309586,"lng":141.153905,"zip":"0240042"},{"town":"黒岩","koaza":"十四地割","lat":39.307269,"lng":141.157023,"zip":"0240042"},{"town":"更木","koaza":"二十一地割","lat":39.33845,"lng":141.155454,"zip":"0240103"},{"town":"更木","koaza":"二十三地割","lat":39.3415,"lng":141.155151,"zip":"0240103"},{"town":"更木","koaza":"二十七地割","lat":39.352551,"lng":141.154162,"zip":"0240103"},{"town":"黒岩","koaza":"十八地割","lat":39.311386,"lng":141.155833,"zip":"0240042"},{"town":"更木","koaza":"三十三地割","lat":39.334876,"lng":141.160676,"zip":"0240103"},{"town":"黒岩","koaza":"十三地割","lat":39.30553,"lng":141.156901,"zip":"0240042"},{"town":"稲瀬町","koaza":"岩川","lat":39.259915,"lng":141.161672,"zip":"0240041"},{"town":"稲瀬町","koaza":"熊沢","lat":39.272172,"lng":141.164384,"zip":"0240041"},{"town":"平沢","koaza":"五地割","lat":39.325954,"lng":141.159231,"zip":"0240044"},{"town":"更木","koaza":"二十四地割","lat":39.342909,"lng":141.157903,"zip":"0240103"},{"town":"黒岩","koaza":"十五地割","lat":39.309513,"lng":141.158831,"zip":"0240042"},{"town":"更木","koaza":"三十五地割","lat":39.328623,"lng":141.160014,"zip":"0240103"},{"town":"黒岩","koaza":"十六地割","lat":39.311883,"lng":141.158271,"zip":"0240042"},{"town":"黒岩","koaza":"十地割","lat":39.302814,"lng":141.166864,"zip":"0240042"},{"town":"更木","koaza":"二十九地割","lat":39.345397,"lng":141.162668,"zip":"0240103"},{"town":"更木","koaza":"二十八地割","lat":39.352509,"lng":141.161681,"zip":"0240103"},{"town":"黒岩","koaza":"十七地割","lat":39.317615,"lng":141.160847,"zip":"0240042"},{"town":"平沢","koaza":"三地割","lat":39.323285,"lng":141.158522,"zip":"0240044"},{"town":"立花","koaza":"二十八地割","lat":39.288453,"lng":141.161512,"zip":"0240043"},{"town":"平沢","koaza":"四地割","lat":39.32307,"lng":141.160572,"zip":"0240044"},{"town":"黒岩","koaza":"七地割","lat":39.312918,"lng":141.161322,"zip":"0240042"},{"town":"口内町","koaza":"金成","lat":39.292614,"lng":141.169499,"zip":"0240211"},{"town":"更木","koaza":"三十地割","lat":39.344286,"lng":141.165482,"zip":"0240103"},{"town":"更木","koaza":"三十二地割","lat":39.340259,"lng":141.165992,"zip":"0240103"},{"town":"更木","koaza":"三十一地割","lat":39.34229,"lng":141.16057,"zip":"0240103"},{"town":"平沢","koaza":"六地割","lat":39.324635,"lng":141.161352,"zip":"0240044"},{"town":"黒岩","koaza":"九地割","lat":39.308576,"lng":141.161738,"zip":"0240042"},{"town":"平沢","koaza":"二地割","lat":39.3212,"lng":141.162262,"zip":"0240044"},{"town":"黒岩","koaza":"八地割","lat":39.310653,"lng":141.163686,"zip":"0240042"},{"town":"更木","koaza":"三十六地割","lat":39.332833,"lng":141.168267,"zip":"0240103"},{"town":"黒岩","koaza":"二地割","lat":39.303908,"lng":141.167496,"zip":"0240042"},{"town":"平沢","koaza":"七地割","lat":39.32358,"lng":141.164817,"zip":"0240044"},{"town":"平沢","koaza":"九地割","lat":39.327037,"lng":141.164938,"zip":"0240044"},{"town":"湯沢","koaza":"七地割","lat":39.31971,"lng":141.165242,"zip":"0240045"},{"town":"臥牛","koaza":"十三地割","lat":39.363282,"lng":141.166857,"zip":"0240101"},{"town":"臥牛","koaza":"十四地割","lat":39.368789,"lng":141.168166,"zip":"0240101"},{"town":"湯沢","koaza":"五地割","lat":39.317068,"lng":141.16755,"zip":"0240045"},{"town":"口内町","koaza":"飯森","lat":39.282729,"lng":141.170067,"zip":"0240211"},{"town":"口内町","koaza":"小洞","lat":39.276279,"lng":141.172075,"zip":"0240211"},{"town":"黒岩","koaza":"五地割","lat":39.314608,"lng":141.177896,"zip":"0240042"},{"town":"黒岩","koaza":"三地割","lat":39.305741,"lng":141.167816,"zip":"0240042"},{"town":"平沢","koaza":"八地割","lat":39.325314,"lng":141.168674,"zip":"0240044"},{"town":"平沢","koaza":"十八地割","lat":39.323955,"lng":141.17784,"zip":"0240044"},{"town":"黒岩","koaza":"四地割","lat":39.307532,"lng":141.174413,"zip":"0240042"},{"town":"湯沢","koaza":"六地割","lat":39.319876,"lng":141.169389,"zip":"0240045"},{"town":"平沢","koaza":"十地割","lat":39.328026,"lng":141.169223,"zip":"0240044"},{"town":"臥牛","koaza":"六地割","lat":39.351818,"lng":141.172315,"zip":"0240101"},{"town":"臥牛","koaza":"七地割","lat":39.357605,"lng":141.170748,"zip":"0240101"},{"town":"平沢","koaza":"十一地割","lat":39.330581,"lng":141.172137,"zip":"0240044"},{"town":"臥牛","koaza":"八地割","lat":39.356115,"lng":141.173749,"zip":"0240101"},{"town":"臥牛","koaza":"十一地割","lat":39.360813,"lng":141.175797,"zip":"0240101"},{"town":"口内町","koaza":"国ケ森","lat":39.287962,"lng":141.173574,"zip":"0240211"},{"town":"湯沢","koaza":"一地割","lat":39.32153,"lng":141.176341,"zip":"0240045"},{"town":"口内町","koaza":"野","lat":39.296796,"lng":141.176828,"zip":"0240211"},{"town":"平沢","koaza":"十二地割","lat":39.32872,"lng":141.173799,"zip":"0240044"},{"town":"平沢","koaza":"十三地割","lat":39.326856,"lng":141.178271,"zip":"0240044"},{"town":"臥牛","koaza":"九地割","lat":39.357362,"lng":141.175681,"zip":"0240101"},{"town":"口内町","koaza":"境田","lat":39.289862,"lng":141.179281,"zip":"0240211"},{"town":"口内町","koaza":"行仕","lat":39.274373,"lng":141.179541,"zip":"0240211"},{"town":"臥牛","koaza":"十地割","lat":39.356823,"lng":141.179027,"zip":"0240101"},{"town":"口内町","koaza":"舘沢","lat":39.284058,"lng":141.177062,"zip":"0240211"},{"town":"臥牛","koaza":"五地割","lat":39.34934,"lng":141.18371,"zip":"0240101"},{"town":"口内町","koaza":"大竹","lat":39.311758,"lng":141.184416,"zip":"0240211"},{"town":"平沢","koaza":"十四地割","lat":39.331005,"lng":141.178888,"zip":"0240044"},{"town":"口内町","koaza":"寒風","lat":39.295301,"lng":141.180148,"zip":"0240211"},{"town":"口内町","koaza":"金田","lat":39.297746,"lng":141.182975,"zip":"0240211"},{"town":"口内町","koaza":"岩井","lat":39.300658,"lng":141.191361,"zip":"0240211"},{"town":"口内町","koaza":"中小池","lat":39.292379,"lng":141.184735,"zip":"0240211"},{"town":"口内町","koaza":"反町","lat":39.290385,"lng":141.186219,"zip":"0240211"},{"town":"口内町","koaza":"中野","lat":39.307766,"lng":141.187451,"zip":"0240211"},{"town":"口内町","koaza":"森合","lat":39.296818,"lng":141.190074,"zip":"0240211"},{"town":"口内町","koaza":"長根","lat":39.293972,"lng":141.190804,"zip":"0240211"},{"town":"口内町","koaza":"草刈場","lat":39.278999,"lng":141.210688,"zip":"0240211"},{"town":"口内町","koaza":"森","lat":39.311432,"lng":141.191357,"zip":"0240211"},{"town":"口内町","koaza":"飛沢","lat":39.303767,"lng":141.193112,"zip":"0240211"},{"town":"口内町","koaza":"飛","lat":39.293983,"lng":141.196357,"zip":"0240211"},{"town":"口内町","koaza":"青木田","lat":39.299558,"lng":141.201497,"zip":"0240211"},{"town":"口内町","koaza":"芦沢","lat":39.308911,"lng":141.20335,"zip":"0240211"},{"town":"口内町","koaza":"久田","lat":39.287688,"lng":141.205722,"zip":"0240211"},{"town":"口内町","koaza":"荒町","lat":39.296954,"lng":141.202427,"zip":"0240211"},{"town":"口内町","koaza":"仁田","lat":39.273694,"lng":141.210502,"zip":"0240211"},{"town":"口内町","koaza":"新町","lat":39.293526,"lng":141.204994,"zip":"0240211"},{"town":"口内町","koaza":"松坂","lat":39.295554,"lng":141.206106,"zip":"0240211"},{"town":"口内町","koaza":"千刈","lat":39.284093,"lng":141.208405,"zip":"0240211"},{"town":"口内町","koaza":"大越田","lat":39.269881,"lng":141.216622,"zip":"0240211"},{"town":"口内町","koaza":"大町","lat":39.299108,"lng":141.213068,"zip":"0240211"},{"town":"口内町","koaza":"蓬田","lat":39.281721,"lng":141.215222,"zip":"0240211"},{"town":"口内町","koaza":"新田","lat":39.300181,"lng":141.221082,"zip":"0240211"},{"town":"口内町","koaza":"堰根","lat":39.285826,"lng":141.215339,"zip":"0240211"},{"town":"口内町","koaza":"田谷","lat":39.290589,"lng":141.218159,"zip":"0240211"},{"town":"口内町","koaza":"下雲南","lat":39.265172,"lng":141.219545,"zip":"0240211"},{"town":"口内町","koaza":"雲南","lat":39.282548,"lng":141.21919,"zip":"0240211"},{"town":"口内町","koaza":"樋渡","lat":39.276762,"lng":141.219538,"zip":"0240211"},{"town":"口内町","koaza":"宝積","lat":39.288485,"lng":141.22279,"zip":"0240211"},{"town":"口内町","koaza":"大鳥田","lat":39.274288,"lng":141.225268,"zip":"0240211"},{"town":"口内町","koaza":"亀ケ森","lat":39.283836,"lng":141.221855,"zip":"0240211"},{"town":"口内町","koaza":"長洞","lat":39.296983,"lng":141.227447,"zip":"0240211"},{"town":"口内町","koaza":"宝海沼","lat":39.268725,"lng":141.231676,"zip":"0240211"},{"town":"口内町","koaza":"金峯山","lat":39.285593,"lng":141.22959,"zip":"0240211"},{"town":"口内町","koaza":"松越","lat":39.281861,"lng":141.230841,"zip":"0240211"},{"town":"口内町","koaza":"綾内","lat":39.29304,"lng":141.227323,"zip":"0240211"},{"town":"口内町","koaza":"古川口","lat":39.27606,"lng":141.237477,"zip":"0240211"},{"town":"口内町","koaza":"真木沢","lat":39.282928,"lng":141.237582,"zip":"0240211"},{"town":"口内町","koaza":"中島","lat":39.271951,"lng":141.238545,"zip":"0240211"},{"town":"口内町","koaza":"亀岩","lat":39.273326,"lng":141.241743,"zip":"0240211"},{"town":"口内町","koaza":"上野田","lat":39.271647,"lng":141.243797,"zip":"0240211"},{"town":"和賀町山口","koaza":"三十地割","lat":39.295154,"lng":140.992715,"zip":"0240324"},{"town":"和賀町山口","koaza":"十五地割","lat":39.303702,"lng":140.954978,"zip":"0240324"}]