[{"town":"赤崎町","koaza":"","lat":39.057747,"lng":141.75258,"zip":"0220007"},{"town":"猪川町","koaza":"","lat":39.083792,"lng":141.657303,"zip":"0220004"},{"town":"盛町","koaza":"","lat":39.078426,"lng":141.702141,"zip":"0220003"},{"town":"三陸町越喜来","koaza":"","lat":39.116479,"lng":141.796373,"zip":"0220101"},{"town":"三陸町綾里","koaza":"","lat":39.054973,"lng":141.791506,"zip":"0220211"},{"town":"立根町","koaza":"","lat":39.126737,"lng":141.743074,"zip":"0220006"},{"town":"日頃市町","koaza":"","lat":39.1491,"lng":141.682414,"zip":"0220005"},{"town":"大船渡町","koaza":"","lat":39.053227,"lng":141.701335,"zip":"0220002"},{"town":"三陸町吉浜","koaza":"","lat":39.152834,"lng":141.805733,"zip":"0220102"},{"town":"末崎町","koaza":"","lat":39.014566,"lng":141.707681,"zip":"0220001"},{"town":"日頃市町","koaza":"川内","lat":39.120702,"lng":141.673281,"zip":"0220005"},{"town":"日頃市町","koaza":"関谷","lat":39.127692,"lng":141.669809,"zip":"0220005"},{"town":"日頃市町","koaza":"坂本沢","lat":39.129985,"lng":141.669257,"zip":"0220005"},{"town":"日頃市町","koaza":"黒森沢","lat":39.131321,"lng":141.67039,"zip":"0220005"},{"town":"日頃市町","koaza":"中板用","lat":39.111728,"lng":141.67916,"zip":"0220005"},{"town":"日頃市町","koaza":"中宿","lat":39.133748,"lng":141.680195,"zip":"0220005"},{"town":"日頃市町","koaza":"下宿","lat":39.128807,"lng":141.678178,"zip":"0220005"},{"town":"日頃市町","koaza":"下板用","lat":39.109767,"lng":141.681784,"zip":"0220005"},{"town":"日頃市町","koaza":"上板用","lat":39.115479,"lng":141.679247,"zip":"0220005"},{"town":"日頃市町","koaza":"上宿","lat":39.132526,"lng":141.681601,"zip":"0220005"},{"town":"猪川町","koaza":"藤沢口","lat":39.100848,"lng":141.688705,"zip":"0220004"},{"town":"猪川町","koaza":"久名畑","lat":39.094745,"lng":141.697946,"zip":"0220004"},{"town":"日頃市町","koaza":"沼川","lat":39.105886,"lng":141.687529,"zip":"0220005"},{"town":"日頃市町","koaza":"下鷹生","lat":39.138408,"lng":141.686219,"zip":"0220005"},{"town":"日頃市町","koaza":"長安寺","lat":39.109695,"lng":141.687664,"zip":"0220005"},{"town":"日頃市町","koaza":"上代","lat":39.144304,"lng":141.686783,"zip":"0220005"},{"town":"盛町","koaza":"宇津野沢","lat":39.078934,"lng":141.705,"zip":"0220003"},{"town":"盛町","koaza":"沢川","lat":39.082788,"lng":141.702448,"zip":"0220003"},{"town":"日頃市町","koaza":"上鷹生","lat":39.143403,"lng":141.689564,"zip":"0220005"},{"town":"末崎町","koaza":"石浜","lat":39.022947,"lng":141.70577,"zip":"0220001"},{"town":"立根町","koaza":"釜石沢","lat":39.114038,"lng":141.692888,"zip":"0220006"},{"town":"日頃市町","koaza":"下小通","lat":39.118504,"lng":141.694909,"zip":"0220005"},{"town":"末崎町","koaza":"船河原","lat":39.027579,"lng":141.704403,"zip":"0220001"},{"town":"末崎町","koaza":"上山","lat":39.010072,"lng":141.705521,"zip":"0220001"},{"town":"猪川町","koaza":"千刈","lat":39.102389,"lng":141.698561,"zip":"0220004"},{"town":"日頃市町","koaza":"上小通","lat":39.120812,"lng":141.695709,"zip":"0220005"},{"town":"日頃市町","koaza":"中小通","lat":39.120434,"lng":141.696233,"zip":"0220005"},{"town":"立根町","koaza":"猫足","lat":39.113958,"lng":141.711847,"zip":"0220006"},{"town":"大船渡町","koaza":"山馬越","lat":39.062153,"lng":141.711485,"zip":"0220002"},{"town":"末崎町","koaza":"作沢","lat":39.000356,"lng":141.705626,"zip":"0220001"},{"town":"猪川町","koaza":"下権現堂","lat":39.09328,"lng":141.705531,"zip":"0220004"},{"town":"盛町","koaza":"権現堂","lat":39.09036,"lng":141.705894,"zip":"0220003"},{"town":"猪川町","koaza":"前田","lat":39.098565,"lng":141.706131,"zip":"0220004"},{"town":"盛町","koaza":"柿ノ木沢","lat":39.086267,"lng":141.704331,"zip":"0220003"},{"town":"盛町","koaza":"下舘下","lat":39.076596,"lng":141.711115,"zip":"0220003"},{"town":"立根町","koaza":"堰口","lat":39.10316,"lng":141.707429,"zip":"0220006"},{"town":"末崎町","koaza":"峯岸","lat":39.020436,"lng":141.713919,"zip":"0220001"},{"town":"盛町","koaza":"御山下","lat":39.078098,"lng":141.708781,"zip":"0220003"},{"town":"盛町","koaza":"舘下","lat":39.084429,"lng":141.707639,"zip":"0220003"},{"town":"末崎町","koaza":"中野","lat":39.012646,"lng":141.712818,"zip":"0220001"},{"town":"末崎町","koaza":"細浦","lat":39.014227,"lng":141.71223,"zip":"0220001"},{"town":"末崎町","koaza":"内田","lat":39.017941,"lng":141.712327,"zip":"0220001"},{"town":"立根町","koaza":"久保","lat":39.110641,"lng":141.710753,"zip":"0220006"},{"town":"末崎町","koaza":"高清水","lat":38.995364,"lng":141.70755,"zip":"0220001"},{"town":"盛町","koaza":"木町","lat":39.089084,"lng":141.708114,"zip":"0220003"},{"town":"盛町","koaza":"町","lat":39.086223,"lng":141.708846,"zip":"0220003"},{"town":"立根町","koaza":"岩脇","lat":39.102182,"lng":141.708758,"zip":"0220006"},{"town":"末崎町","koaza":"小田","lat":39.000857,"lng":141.709169,"zip":"0220001"},{"town":"末崎町","koaza":"烏崎","lat":38.993447,"lng":141.708865,"zip":"0220001"},{"town":"立根町","koaza":"宮田","lat":39.101209,"lng":141.71227,"zip":"0220006"},{"town":"猪川町","koaza":"轆轤石","lat":39.09471,"lng":141.710935,"zip":"0220004"},{"town":"大船渡町","koaza":"明神前","lat":39.061044,"lng":141.713894,"zip":"0220002"},{"town":"大船渡町","koaza":"鷹頭","lat":39.031454,"lng":141.712794,"zip":"0220002"},{"town":"盛町","koaza":"内ノ目","lat":39.083001,"lng":141.710799,"zip":"0220003"},{"town":"末崎町","koaza":"大田","lat":39.000888,"lng":141.71281,"zip":"0220001"},{"town":"盛町","koaza":"東町","lat":39.088524,"lng":141.711299,"zip":"0220003"},{"town":"末崎町","koaza":"平林","lat":39.006973,"lng":141.711898,"zip":"0220001"},{"town":"立根町","koaza":"桑原","lat":39.108165,"lng":141.711567,"zip":"0220006"},{"town":"大船渡町","koaza":"富沢","lat":39.072426,"lng":141.711988,"zip":"0220002"},{"town":"立根町","koaza":"堀之内","lat":39.104042,"lng":141.712293,"zip":"0220006"},{"town":"大船渡町","koaza":"丸森","lat":39.03081,"lng":141.713241,"zip":"0220002"},{"town":"盛町","koaza":"東町裏","lat":39.085915,"lng":141.710639,"zip":"0220003"},{"town":"大船渡町","koaza":"猪頭","lat":39.054251,"lng":141.715347,"zip":"0220002"},{"town":"盛町","koaza":"みどり町","lat":39.084252,"lng":141.713935,"zip":"0220003"},{"town":"猪川町","koaza":"中井沢","lat":39.091458,"lng":141.715789,"zip":"0220004"},{"town":"立根町","koaza":"寒風","lat":39.123184,"lng":141.719558,"zip":"0220006"},{"town":"末崎町","koaza":"鶴巻","lat":39.000035,"lng":141.716082,"zip":"0220001"},{"town":"盛町","koaza":"馬場","lat":39.082486,"lng":141.712975,"zip":"0220003"},{"town":"大船渡町","koaza":"赤沢","lat":39.06777,"lng":141.714463,"zip":"0220002"},{"town":"立根町","koaza":"舞良","lat":39.130953,"lng":141.715983,"zip":"0220006"},{"town":"立根町","koaza":"中野","lat":39.108093,"lng":141.715134,"zip":"0220006"},{"town":"大船渡町","koaza":"上山","lat":39.064311,"lng":141.715327,"zip":"0220002"},{"town":"立根町","koaza":"冷清水","lat":39.111086,"lng":141.713909,"zip":"0220006"},{"town":"大船渡町","koaza":"地ノ森","lat":39.073584,"lng":141.716214,"zip":"0220002"},{"town":"猪川町","koaza":"長洞","lat":39.097065,"lng":141.716039,"zip":"0220004"},{"town":"立根町","koaza":"田ノ上","lat":39.103832,"lng":141.714877,"zip":"0220006"},{"town":"盛町","koaza":"二本枠","lat":39.080696,"lng":141.714847,"zip":"0220003"},{"town":"盛町","koaza":"田中島","lat":39.080494,"lng":141.717753,"zip":"0220003"},{"town":"立根町","koaza":"小林","lat":39.118097,"lng":141.717107,"zip":"0220006"},{"town":"末崎町","koaza":"小細浦","lat":39.011481,"lng":141.715558,"zip":"0220001"},{"town":"大船渡町","koaza":"下船渡","lat":39.035668,"lng":141.716803,"zip":"0220002"},{"town":"盛町","koaza":"中道下","lat":39.078716,"lng":141.716885,"zip":"0220003"},{"town":"赤崎町","koaza":"諏訪前","lat":39.087145,"lng":141.716429,"zip":"0220007"},{"town":"大船渡町","koaza":"笹崎","lat":39.055318,"lng":141.719592,"zip":"0220002"},{"town":"大船渡町","koaza":"永沢","lat":39.051813,"lng":141.719968,"zip":"0220002"},{"town":"末崎町","koaza":"神坂","lat":39.015271,"lng":141.717375,"zip":"0220001"},{"town":"立根町","koaza":"関谷","lat":39.115686,"lng":141.718175,"zip":"0220006"},{"town":"立根町","koaza":"野尻","lat":39.128416,"lng":141.724341,"zip":"0220006"},{"town":"末崎町","koaza":"山岸","lat":39.009977,"lng":141.718957,"zip":"0220001"},{"town":"大船渡町","koaza":"新田","lat":39.07003,"lng":141.7182,"zip":"0220002"},{"town":"立根町","koaza":"下欠","lat":39.101888,"lng":141.718496,"zip":"0220006"},{"town":"赤崎町","koaza":"中井","lat":39.088315,"lng":141.720129,"zip":"0220007"},{"town":"大船渡町","koaza":"上平","lat":39.047368,"lng":141.720033,"zip":"0220002"},{"town":"末崎町","koaza":"門之浜","lat":39.001339,"lng":141.717611,"zip":"0220001"},{"town":"猪川町","koaza":"冨岡","lat":39.100405,"lng":141.721354,"zip":"0220004"},{"town":"大船渡町","koaza":"野々田","lat":39.058645,"lng":141.721875,"zip":"0220002"},{"town":"大船渡町","koaza":"砂森","lat":39.0761,"lng":141.718203,"zip":"0220002"},{"town":"立根町","koaza":"向田","lat":39.109098,"lng":141.718504,"zip":"0220006"},{"town":"大船渡町","koaza":"下平","lat":39.043749,"lng":141.72055,"zip":"0220002"},{"town":"大船渡町","koaza":"台","lat":39.065469,"lng":141.720181,"zip":"0220002"},{"town":"大船渡町","koaza":"中港","lat":39.073108,"lng":141.719441,"zip":"0220002"},{"town":"立根町","koaza":"川原","lat":39.110655,"lng":141.719772,"zip":"0220006"},{"town":"大船渡町","koaza":"堀川","lat":39.076565,"lng":141.720176,"zip":"0220002"},{"town":"大船渡町","koaza":"茶屋前","lat":39.063217,"lng":141.72147,"zip":"0220002"},{"town":"立根町","koaza":"前谷地","lat":39.119079,"lng":141.72098,"zip":"0220006"},{"town":"猪川町","koaza":"長谷堂","lat":39.099376,"lng":141.725224,"zip":"0220004"},{"town":"大船渡町","koaza":"宮ノ前","lat":39.037736,"lng":141.719192,"zip":"0220002"},{"town":"立根町","koaza":"上ノ台","lat":39.113651,"lng":141.721924,"zip":"0220006"},{"town":"立根町","koaza":"平田","lat":39.122136,"lng":141.720353,"zip":"0220006"},{"town":"赤崎町","koaza":"石橋前","lat":39.082021,"lng":141.721767,"zip":"0220007"},{"town":"末崎町","koaza":"小中井","lat":38.998539,"lng":141.722505,"zip":"0220001"},{"town":"赤崎町","koaza":"沢田","lat":39.086303,"lng":141.725454,"zip":"0220007"},{"town":"大船渡町","koaza":"砂子前","lat":39.039789,"lng":141.72177,"zip":"0220002"},{"town":"立根町","koaza":"田谷","lat":39.11814,"lng":141.723661,"zip":"0220006"},{"town":"大船渡町","koaza":"欠ノ下向","lat":39.069005,"lng":141.723268,"zip":"0220002"},{"town":"赤崎町","koaza":"曲土手","lat":39.076423,"lng":141.723544,"zip":"0220007"},{"town":"猪川町","koaza":"善蔵敷","lat":39.093112,"lng":141.731299,"zip":"0220004"},{"town":"立根町","koaza":"小森","lat":39.1234,"lng":141.723501,"zip":"0220006"},{"town":"大船渡町","koaza":"役料","lat":39.071764,"lng":141.722525,"zip":"0220002"},{"town":"赤崎町","koaza":"亀井田","lat":39.078995,"lng":141.722624,"zip":"0220007"},{"town":"末崎町","koaza":"西舘","lat":38.992427,"lng":141.726375,"zip":"0220001"},{"town":"赤崎町","koaza":"佐野","lat":39.080114,"lng":141.725412,"zip":"0220007"},{"town":"赤崎町","koaza":"普金","lat":39.0737,"lng":141.72797,"zip":"0220007"},{"town":"立根町","koaza":"萱中","lat":39.12751,"lng":141.734074,"zip":"0220006"},{"town":"立根町","koaza":"沼田","lat":39.117062,"lng":141.732525,"zip":"0220006"},{"town":"赤崎町","koaza":"塩場","lat":39.070427,"lng":141.728218,"zip":"0220007"},{"town":"末崎町","koaza":"中森","lat":38.994189,"lng":141.731642,"zip":"0220001"},{"town":"末崎町","koaza":"山根","lat":38.995454,"lng":141.731186,"zip":"0220001"},{"town":"赤崎町","koaza":"宮野","lat":39.089295,"lng":141.733809,"zip":"0220007"},{"town":"末崎町","koaza":"泊里","lat":38.99126,"lng":141.730203,"zip":"0220001"},{"town":"猪川町","koaza":"今出","lat":39.107564,"lng":141.731031,"zip":"0220004"},{"town":"赤崎町","koaza":"跡浜","lat":39.071663,"lng":141.734201,"zip":"0220007"},{"town":"末崎町","koaza":"大豆沢","lat":38.992612,"lng":141.733049,"zip":"0220001"},{"town":"赤崎町","koaza":"蛸ノ浦","lat":39.03654,"lng":141.742145,"zip":"0220007"},{"town":"立根町","koaza":"細野","lat":39.124786,"lng":141.743821,"zip":"0220006"},{"town":"赤崎町","koaza":"鳥沢","lat":39.02864,"lng":141.743065,"zip":"0220007"},{"town":"赤崎町","koaza":"大立","lat":39.055856,"lng":141.740283,"zip":"0220007"},{"town":"赤崎町","koaza":"清水","lat":39.040522,"lng":141.739339,"zip":"0220007"},{"town":"赤崎町","koaza":"山口","lat":39.06338,"lng":141.739161,"zip":"0220007"},{"town":"赤崎町","koaza":"生形","lat":39.067524,"lng":141.738039,"zip":"0220007"},{"town":"立根町","koaza":"大畑野","lat":39.123359,"lng":141.741578,"zip":"0220006"},{"town":"赤崎町","koaza":"永浜","lat":39.050616,"lng":141.740935,"zip":"0220007"},{"town":"赤崎町","koaza":"後ノ入","lat":39.076288,"lng":141.746203,"zip":"0220007"},{"town":"末崎町","koaza":"大浜","lat":38.992204,"lng":141.738222,"zip":"0220001"},{"town":"赤崎町","koaza":"大洞","lat":39.068703,"lng":141.744552,"zip":"0220007"},{"town":"赤崎町","koaza":"長崎","lat":39.022218,"lng":141.753041,"zip":"0220007"},{"town":"赤崎町","koaza":"外口","lat":39.021911,"lng":141.76002,"zip":"0220007"},{"town":"赤崎町","koaza":"合足","lat":39.037496,"lng":141.763055,"zip":"0220007"}]