[{"town":"赤前","koaza":"","lat":39.584141,"lng":141.971273,"zip":"0270202"},{"town":"愛宕一丁目","koaza":"","lat":39.644274,"lng":141.960963,"zip":"0270092"},{"town":"愛宕二丁目","koaza":"","lat":39.643013,"lng":141.963189,"zip":"0270092"},{"town":"新町","koaza":"","lat":39.642883,"lng":141.952793,"zip":"0270086"},{"town":"泉町","koaza":"","lat":39.644405,"lng":141.937767,"zip":"0270062"},{"town":"板屋一丁目","koaza":"","lat":39.63409,"lng":141.91787,"zip":"0270048"},{"town":"板屋二丁目","koaza":"","lat":39.63376,"lng":141.915637,"zip":"0270048"},{"town":"板屋三丁目","koaza":"","lat":39.636114,"lng":141.910952,"zip":"0270048"},{"town":"板屋四丁目","koaza":"","lat":39.637454,"lng":141.913753,"zip":"0270048"},{"town":"江繋","koaza":"","lat":39.538554,"lng":141.642287,"zip":"0282421"},{"town":"大通一丁目","koaza":"","lat":39.641482,"lng":141.952197,"zip":"0270083"},{"town":"大通二丁目","koaza":"","lat":39.64,"lng":141.9522,"zip":"0270083"},{"town":"大通三丁目","koaza":"","lat":39.639959,"lng":141.949721,"zip":"0270083"},{"town":"大通四丁目","koaza":"","lat":39.640962,"lng":141.948963,"zip":"0270083"},{"town":"小国","koaza":"","lat":39.489097,"lng":141.657375,"zip":"0282422"},{"town":"音部","koaza":"","lat":39.591515,"lng":142.002746,"zip":"0270112"},{"town":"重茂","koaza":"","lat":39.545131,"lng":142.01426,"zip":"0270111"},{"town":"片巣","koaza":"","lat":39.599569,"lng":141.637676,"zip":"0282303"},{"town":"門馬","koaza":"","lat":39.612931,"lng":141.483878,"zip":"0282632"},{"town":"河南一丁目","koaza":"","lat":39.620509,"lng":141.951643,"zip":"0270039"},{"town":"金浜","koaza":"","lat":39.595665,"lng":141.939363,"zip":"0270033"},{"town":"鴨崎町","koaza":"","lat":39.643741,"lng":141.941714,"zip":"0270078"},{"town":"刈屋","koaza":"","lat":39.663125,"lng":141.724884,"zip":"0282104"},{"town":"川井","koaza":"","lat":39.584256,"lng":141.667468,"zip":"0282402"},{"town":"川内","koaza":"","lat":39.64311,"lng":141.582794,"zip":"0282513"},{"town":"神田沢町","koaza":"","lat":39.635919,"lng":141.918574,"zip":"0270042"},{"town":"上鼻一丁目","koaza":"","lat":39.632744,"lng":141.910718,"zip":"0270044"},{"town":"上鼻二丁目","koaza":"","lat":39.631592,"lng":141.913956,"zip":"0270044"},{"town":"神林","koaza":"","lat":39.619258,"lng":141.963526,"zip":"0270028"},{"town":"区界第一地割","koaza":"","lat":39.645709,"lng":141.356334,"zip":"0270000"},{"town":"区界第二地割","koaza":"","lat":39.65753,"lng":141.376641,"zip":"0270000"},{"town":"区界第三地割","koaza":"","lat":39.634041,"lng":141.430135,"zip":"0270000"},{"town":"区界第四地割","koaza":"","lat":39.640752,"lng":141.429189,"zip":"0270000"},{"town":"黒田町","koaza":"","lat":39.642966,"lng":141.950666,"zip":"0270085"},{"town":"黒森町","koaza":"","lat":39.651562,"lng":141.940442,"zip":"0270065"},{"town":"鍬ヶ崎","koaza":"","lat":39.656243,"lng":141.968127,"zip":"0270000"},{"town":"花原市","koaza":"","lat":39.637434,"lng":141.858398,"zip":"0270046"},{"town":"小沢一丁目","koaza":"","lat":39.648285,"lng":141.951202,"zip":"0270071"},{"town":"小沢二丁目","koaza":"","lat":39.652168,"lng":141.946195,"zip":"0270071"},{"town":"小山田","koaza":"","lat":39.628721,"lng":141.93558,"zip":"0270038"},{"town":"小山田一丁目","koaza":"","lat":39.632308,"lng":141.948794,"zip":"0270038"},{"town":"小山田二丁目","koaza":"","lat":39.633449,"lng":141.941493,"zip":"0270038"},{"town":"小山田三丁目","koaza":"","lat":39.630475,"lng":141.939885,"zip":"0270038"},{"town":"小山田四丁目","koaza":"","lat":39.633781,"lng":141.934966,"zip":"0270038"},{"town":"栄町","koaza":"","lat":39.641343,"lng":141.945264,"zip":"0270076"},{"town":"崎鍬ヶ崎","koaza":"","lat":39.66938,"lng":141.95824,"zip":"0270000"},{"town":"崎山","koaza":"","lat":39.690982,"lng":141.93898,"zip":"0270097"},{"town":"五月町","koaza":"","lat":39.647551,"lng":141.946092,"zip":"0270072"},{"town":"佐原一丁目","koaza":"","lat":39.654407,"lng":141.961223,"zip":"0270095"},{"town":"佐原二丁目","koaza":"","lat":39.655495,"lng":141.957545,"zip":"0270095"},{"town":"佐原三丁目","koaza":"","lat":39.656847,"lng":141.953176,"zip":"0270095"},{"town":"佐原四丁目","koaza":"","lat":39.658046,"lng":141.956479,"zip":"0270095"},{"town":"沢田","koaza":"","lat":39.646306,"lng":141.95614,"zip":"0270088"},{"town":"白浜","koaza":"","lat":39.608087,"lng":141.9903,"zip":"0270201"},{"town":"新川町","koaza":"","lat":39.64142,"lng":141.956194,"zip":"0270081"},{"town":"末広町","koaza":"","lat":39.641864,"lng":141.949055,"zip":"0270084"},{"town":"鈴久名","koaza":"","lat":39.612031,"lng":141.590463,"zip":"0282512"},{"town":"千徳","koaza":"","lat":39.649141,"lng":141.881081,"zip":"0270058"},{"town":"千徳町","koaza":"","lat":39.636335,"lng":141.922952,"zip":"0270043"},{"town":"磯鶏","koaza":"","lat":39.62911,"lng":141.952304,"zip":"0270024"},{"town":"磯鶏一丁目","koaza":"","lat":39.626673,"lng":141.962079,"zip":"0270024"},{"town":"磯鶏二丁目","koaza":"","lat":39.623312,"lng":141.958592,"zip":"0270024"},{"town":"磯鶏三丁目","koaza":"","lat":39.619439,"lng":141.9586,"zip":"0270024"},{"town":"磯鶏石崎","koaza":"","lat":39.631553,"lng":141.962512,"zip":"0270022"},{"town":"磯鶏沖","koaza":"","lat":39.628521,"lng":141.962583,"zip":"0270023"},{"town":"磯鶏西","koaza":"","lat":39.630799,"lng":141.95972,"zip":"0270027"},{"town":"高浜","koaza":"","lat":39.607428,"lng":141.94609,"zip":"0270032"},{"town":"高浜一丁目","koaza":"","lat":39.609414,"lng":141.956657,"zip":"0270032"},{"town":"高浜二丁目","koaza":"","lat":39.605255,"lng":141.954529,"zip":"0270032"},{"town":"高浜三丁目","koaza":"","lat":39.606662,"lng":141.953051,"zip":"0270032"},{"town":"高浜四丁目","koaza":"","lat":39.601958,"lng":141.947627,"zip":"0270032"},{"town":"田鎖","koaza":"","lat":39.62364,"lng":141.897746,"zip":"0270036"},{"town":"田代","koaza":"","lat":39.706493,"lng":141.851492,"zip":"0270067"},{"town":"舘合町","koaza":"","lat":39.641612,"lng":141.940039,"zip":"0270077"},{"town":"田の神一丁目","koaza":"","lat":39.64697,"lng":141.939533,"zip":"0270066"},{"town":"田の神二丁目","koaza":"","lat":39.647283,"lng":141.937734,"zip":"0270066"},{"town":"津軽石","koaza":"","lat":39.567345,"lng":141.931498,"zip":"0270203"},{"town":"築地一丁目","koaza":"","lat":39.643295,"lng":141.958122,"zip":"0270091"},{"town":"築地二丁目","koaza":"","lat":39.641033,"lng":141.960613,"zip":"0270091"},{"town":"中里団地","koaza":"","lat":39.647312,"lng":141.960575,"zip":"0270093"},{"town":"長沢","koaza":"","lat":39.57591,"lng":141.840948,"zip":"0270034"},{"town":"長根一丁目","koaza":"","lat":39.642429,"lng":141.934081,"zip":"0270055"},{"town":"長根二丁目","koaza":"","lat":39.642623,"lng":141.930839,"zip":"0270055"},{"town":"長根三丁目","koaza":"","lat":39.640786,"lng":141.927882,"zip":"0270055"},{"town":"長根四丁目","koaza":"","lat":39.643757,"lng":141.927609,"zip":"0270055"},{"town":"長町一丁目","koaza":"","lat":39.636825,"lng":141.928491,"zip":"0270053"},{"town":"長町二丁目","koaza":"","lat":39.633293,"lng":141.92179,"zip":"0270053"},{"town":"夏屋","koaza":"","lat":39.669504,"lng":141.613143,"zip":"0282511"},{"town":"西ヶ丘二丁目","koaza":"","lat":39.640875,"lng":141.912115,"zip":"0270000"},{"town":"西ヶ丘三丁目","koaza":"","lat":39.64398,"lng":141.910628,"zip":"0270000"},{"town":"西町一丁目","koaza":"","lat":39.645713,"lng":141.944165,"zip":"0270061"},{"town":"西町二丁目","koaza":"","lat":39.647716,"lng":141.944086,"zip":"0270061"},{"town":"西町三丁目","koaza":"","lat":39.646874,"lng":141.941463,"zip":"0270061"},{"town":"西町四丁目","koaza":"","lat":39.649528,"lng":141.942441,"zip":"0270061"},{"town":"根市","koaza":"","lat":39.63783,"lng":141.883282,"zip":"0270047"},{"town":"箱石","koaza":"","lat":39.611142,"lng":141.642496,"zip":"0282504"},{"town":"花輪","koaza":"","lat":39.601158,"lng":141.909063,"zip":"0270035"},{"town":"腹帯","koaza":"","lat":39.580086,"lng":141.768899,"zip":"0282103"},{"town":"日影町","koaza":"","lat":39.64973,"lng":141.96072,"zip":"0270007"},{"town":"蟇目","koaza":"","lat":39.649308,"lng":141.822259,"zip":"0282102"},{"town":"日の出町","koaza":"","lat":39.651373,"lng":141.953929,"zip":"0270094"},{"town":"平津戸","koaza":"","lat":39.627785,"lng":141.515352,"zip":"0282633"},{"town":"藤の川","koaza":"","lat":39.614095,"lng":141.958981,"zip":"0270029"},{"town":"藤原一丁目","koaza":"","lat":39.638578,"lng":141.958623,"zip":"0270021"},{"town":"藤原二丁目","koaza":"","lat":39.638069,"lng":141.961918,"zip":"0270021"},{"town":"藤原三丁目","koaza":"","lat":39.635487,"lng":141.963426,"zip":"0270021"},{"town":"藤原上町","koaza":"","lat":39.634732,"lng":141.956817,"zip":"0270021"},{"town":"古田","koaza":"","lat":39.588482,"lng":141.728669,"zip":"0282301"},{"town":"保久田","koaza":"","lat":39.643675,"lng":141.947914,"zip":"0270074"},{"town":"松山","koaza":"","lat":39.619592,"lng":141.91484,"zip":"0270037"},{"town":"実田一丁目","koaza":"","lat":39.625574,"lng":141.958106,"zip":"0270025"},{"town":"実田二丁目","koaza":"","lat":39.623268,"lng":141.952806,"zip":"0270025"},{"town":"緑ヶ丘","koaza":"","lat":39.64601,"lng":141.947508,"zip":"0270000"},{"town":"南町","koaza":"","lat":39.637877,"lng":141.950647,"zip":"0270051"},{"town":"宮古","koaza":"","lat":39.635826,"lng":141.950128,"zip":"0270000"},{"town":"宮園","koaza":"","lat":39.664971,"lng":141.933623,"zip":"0270064"},{"town":"宮町一丁目","koaza":"","lat":39.639412,"lng":141.946607,"zip":"0270052"},{"town":"宮町二丁目","koaza":"","lat":39.637359,"lng":141.946201,"zip":"0270052"},{"town":"宮町三丁目","koaza":"","lat":39.639433,"lng":141.94071,"zip":"0270052"},{"town":"宮町四丁目","koaza":"","lat":39.639566,"lng":141.934897,"zip":"0270052"},{"town":"向町","koaza":"","lat":39.640485,"lng":141.954042,"zip":"0270082"},{"town":"茂市","koaza":"","lat":39.62401,"lng":141.79147,"zip":"0282101"},{"town":"本町","koaza":"","lat":39.643284,"lng":141.956116,"zip":"0270089"},{"town":"八木沢","koaza":"","lat":39.606672,"lng":141.929301,"zip":"0270031"},{"town":"八木沢一丁目","koaza":"","lat":39.620943,"lng":141.947784,"zip":"0270031"},{"town":"八木沢二丁目","koaza":"","lat":39.621477,"lng":141.946887,"zip":"0270031"},{"town":"八木沢三丁目","koaza":"","lat":39.622338,"lng":141.943978,"zip":"0270031"},{"town":"八木沢四丁目","koaza":"","lat":39.618044,"lng":141.943209,"zip":"0270031"},{"town":"山口","koaza":"","lat":39.661837,"lng":141.939912,"zip":"0270063"},{"town":"山口一丁目","koaza":"","lat":39.653,"lng":141.937585,"zip":"0270063"},{"town":"山口二丁目","koaza":"","lat":39.651099,"lng":141.93127,"zip":"0270063"},{"town":"山口三丁目","koaza":"","lat":39.646817,"lng":141.934646,"zip":"0270063"},{"town":"山口四丁目","koaza":"","lat":39.646879,"lng":141.931384,"zip":"0270063"},{"town":"山口五丁目","koaza":"","lat":39.657633,"lng":141.93281,"zip":"0270063"},{"town":"横町","koaza":"","lat":39.646142,"lng":141.952728,"zip":"0270087"},{"town":"老木","koaza":"","lat":39.615018,"lng":141.85683,"zip":"0270045"},{"town":"和井内","koaza":"","lat":39.714931,"lng":141.686769,"zip":"0282105"},{"town":"和見町","koaza":"","lat":39.643586,"lng":141.945254,"zip":"0270075"},{"town":"上村一丁目","koaza":"","lat":39.627907,"lng":141.958597,"zip":"0270026"},{"town":"上村二丁目","koaza":"","lat":39.626487,"lng":141.956144,"zip":"0270026"},{"town":"田老三王三丁目","koaza":"","lat":39.741738,"lng":141.980787,"zip":"0270325"},{"town":"田老三王二丁目","koaza":"","lat":39.740509,"lng":141.979005,"zip":"0270325"},{"town":"田老三王一丁目","koaza":"","lat":39.74031,"lng":141.975998,"zip":"0270325"},{"town":"田老三丁目","koaza":"","lat":39.739238,"lng":141.972475,"zip":"0270307"},{"town":"田老四丁目","koaza":"","lat":39.740583,"lng":141.971658,"zip":"0270307"},{"town":"田老一丁目","koaza":"","lat":39.735699,"lng":141.968583,"zip":"0270307"},{"town":"田老二丁目","koaza":"","lat":39.735824,"lng":141.971373,"zip":"0270307"},{"town":"西ヶ丘一丁目","koaza":"","lat":39.640677,"lng":141.916215,"zip":"0270000"},{"town":"近内六丁目","koaza":"","lat":39.650021,"lng":141.912869,"zip":"0270056"},{"town":"近内五丁目","koaza":"","lat":39.649249,"lng":141.911836,"zip":"0270056"},{"town":"近内四丁目","koaza":"","lat":39.648748,"lng":141.91615,"zip":"0270056"},{"town":"近内三丁目","koaza":"","lat":39.647456,"lng":141.916603,"zip":"0270056"},{"town":"近内","koaza":"","lat":39.659565,"lng":141.906821,"zip":"0270056"},{"town":"西ヶ丘四丁目","koaza":"","lat":39.643987,"lng":141.915941,"zip":"0270000"},{"town":"太田二丁目","koaza":"","lat":39.640102,"lng":141.925084,"zip":"0270054"},{"town":"太田一丁目","koaza":"","lat":39.638884,"lng":141.928496,"zip":"0270054"},{"town":"近内二丁目","koaza":"","lat":39.642769,"lng":141.920885,"zip":"0270056"},{"town":"近内一丁目","koaza":"","lat":39.642189,"lng":141.92536,"zip":"0270056"},{"town":"光岸地","koaza":"","lat":39.641163,"lng":141.964671,"zip":"0270005"},{"town":"臨港通","koaza":"","lat":39.64059,"lng":141.968241,"zip":"0270004"},{"town":"鍬ヶ崎上町","koaza":"","lat":39.643307,"lng":141.966096,"zip":"0270000"},{"town":"鍬ヶ崎仲町","koaza":"","lat":39.645536,"lng":141.965925,"zip":"0270000"},{"town":"日立浜町","koaza":"","lat":39.647758,"lng":141.976106,"zip":"0270001"},{"town":"港町","koaza":"","lat":39.646899,"lng":141.969267,"zip":"0270003"},{"town":"山根町","koaza":"","lat":39.648523,"lng":141.970136,"zip":"0270002"},{"town":"鍬ヶ崎下町","koaza":"","lat":39.647629,"lng":141.966742,"zip":"0270000"},{"town":"蛸の浜町","koaza":"","lat":39.649622,"lng":141.968689,"zip":"0270009"},{"town":"熊野町","koaza":"","lat":39.65177,"lng":141.964338,"zip":"0270008"},{"town":"花原市","koaza":"第一地割","lat":39.634196,"lng":141.86628,"zip":"0270046"},{"town":"花原市","koaza":"第二地割","lat":39.630442,"lng":141.857087,"zip":"0270046"},{"town":"根市","koaza":"第五地割","lat":39.635576,"lng":141.874296,"zip":"0270047"},{"town":"根市","koaza":"第六地割","lat":39.638647,"lng":141.879807,"zip":"0270047"},{"town":"根市","koaza":"第七地割","lat":39.634052,"lng":141.887113,"zip":"0270047"},{"town":"根市","koaza":"第八地割","lat":39.633827,"lng":141.888245,"zip":"0270047"},{"town":"根市","koaza":"第九地割","lat":39.634453,"lng":141.888924,"zip":"0270047"},{"town":"田鎖","koaza":"第三地割","lat":39.621146,"lng":141.901384,"zip":"0270036"},{"town":"根市","koaza":"第二地割","lat":39.632726,"lng":141.894967,"zip":"0270047"},{"town":"根市","koaza":"第一地割","lat":39.633022,"lng":141.892843,"zip":"0270047"},{"town":"田鎖","koaza":"第二地割","lat":39.622819,"lng":141.899303,"zip":"0270036"},{"town":"田鎖","koaza":"第十三地割","lat":39.632764,"lng":141.897526,"zip":"0270036"},{"town":"花輪","koaza":"第五地割","lat":39.609062,"lng":141.89561,"zip":"0270035"},{"town":"花輪","koaza":"第四地割","lat":39.609027,"lng":141.898892,"zip":"0270035"},{"town":"花輪","koaza":"第六地割","lat":39.61063,"lng":141.898961,"zip":"0270035"},{"town":"田鎖","koaza":"第十二地割","lat":39.628852,"lng":141.901172,"zip":"0270036"},{"town":"田鎖","koaza":"第四地割","lat":39.617779,"lng":141.900525,"zip":"0270036"},{"town":"花輪","koaza":"第八地割","lat":39.613027,"lng":141.899375,"zip":"0270035"},{"town":"花輪","koaza":"第七地割","lat":39.611183,"lng":141.899479,"zip":"0270035"},{"town":"千徳","koaza":"第十地割","lat":39.632316,"lng":141.903117,"zip":"0270058"},{"town":"田鎖","koaza":"第一地割","lat":39.626085,"lng":141.900276,"zip":"0270036"},{"town":"花輪","koaza":"第十地割","lat":39.616469,"lng":141.900833,"zip":"0270035"},{"town":"花輪","koaza":"第十一地割","lat":39.618506,"lng":141.902521,"zip":"0270035"},{"town":"田鎖","koaza":"第十地割","lat":39.626496,"lng":141.9021,"zip":"0270036"},{"town":"田鎖","koaza":"第八地割","lat":39.625007,"lng":141.903786,"zip":"0270036"},{"town":"田鎖","koaza":"第十一地割","lat":39.624135,"lng":141.903032,"zip":"0270036"},{"town":"田鎖","koaza":"第七地割","lat":39.621378,"lng":141.903636,"zip":"0270036"},{"town":"田鎖","koaza":"第九地割","lat":39.626472,"lng":141.90524,"zip":"0270036"},{"town":"田鎖","koaza":"第六地割","lat":39.618232,"lng":141.90486,"zip":"0270036"},{"town":"花輪","koaza":"第十五地割","lat":39.614123,"lng":141.909913,"zip":"0270035"},{"town":"田鎖","koaza":"第五地割","lat":39.617972,"lng":141.907119,"zip":"0270036"},{"town":"津軽石","koaza":"第十五地割","lat":39.556897,"lng":141.921454,"zip":"0270203"},{"town":"近内","koaza":"第七地割","lat":39.655221,"lng":141.908853,"zip":"0270056"},{"town":"松山","koaza":"第一地割","lat":39.627353,"lng":141.91259,"zip":"0270037"},{"town":"松山","koaza":"第十二地割","lat":39.620995,"lng":141.911371,"zip":"0270037"},{"town":"松山","koaza":"第十一地割","lat":39.617426,"lng":141.913105,"zip":"0270037"},{"town":"松山","koaza":"第三地割","lat":39.625003,"lng":141.911968,"zip":"0270037"},{"town":"松山","koaza":"第五地割","lat":39.62424,"lng":141.913798,"zip":"0270037"},{"town":"松山","koaza":"第十三地割","lat":39.623042,"lng":141.913413,"zip":"0270037"},{"town":"松山","koaza":"第四地割","lat":39.627733,"lng":141.914625,"zip":"0270037"},{"town":"松山","koaza":"第十地割","lat":39.618858,"lng":141.917545,"zip":"0270037"},{"town":"松山","koaza":"第八地割","lat":39.624087,"lng":141.917732,"zip":"0270037"},{"town":"松山","koaza":"第九地割","lat":39.621826,"lng":141.914989,"zip":"0270037"},{"town":"近内","koaza":"第五地割","lat":39.655049,"lng":141.924699,"zip":"0270056"},{"town":"松山","koaza":"第六地割","lat":39.62581,"lng":141.919477,"zip":"0270037"},{"town":"八木沢","koaza":"第八地割","lat":39.611194,"lng":141.926478,"zip":"0270031"},{"town":"松山","koaza":"第七地割","lat":39.623814,"lng":141.919509,"zip":"0270037"},{"town":"津軽石","koaza":"第十六地割","lat":39.557255,"lng":141.923128,"zip":"0270203"},{"town":"八木沢","koaza":"第三地割","lat":39.619806,"lng":141.935726,"zip":"0270031"},{"town":"千徳","koaza":"第十三地割","lat":39.628141,"lng":141.921348,"zip":"0270058"},{"town":"千徳","koaza":"第十四地割","lat":39.626059,"lng":141.923724,"zip":"0270058"},{"town":"千徳","koaza":"第十五地割","lat":39.63107,"lng":141.926089,"zip":"0270058"},{"town":"津軽石","koaza":"第十九地割","lat":39.573859,"lng":141.92824,"zip":"0270203"},{"town":"津軽石","koaza":"第十三地割","lat":39.562888,"lng":141.936085,"zip":"0270203"},{"town":"津軽石","koaza":"第十四地割","lat":39.562149,"lng":141.930998,"zip":"0270203"},{"town":"津軽石","koaza":"第十地割","lat":39.570613,"lng":141.935708,"zip":"0270203"},{"town":"小山田","koaza":"第二地割","lat":39.629552,"lng":141.935265,"zip":"0270038"},{"town":"八木沢","koaza":"第五地割","lat":39.615878,"lng":141.941692,"zip":"0270031"},{"town":"津軽石","koaza":"第四地割","lat":39.581163,"lng":141.935651,"zip":"0270203"},{"town":"金浜","koaza":"第五地割","lat":39.593697,"lng":141.937673,"zip":"0270033"},{"town":"津軽石","koaza":"第六地割","lat":39.578775,"lng":141.934241,"zip":"0270203"},{"town":"津軽石","koaza":"第九地割","lat":39.573876,"lng":141.933733,"zip":"0270203"},{"town":"津軽石","koaza":"第十二地割","lat":39.561244,"lng":141.951337,"zip":"0270203"},{"town":"金浜","koaza":"第一地割","lat":39.598053,"lng":141.939861,"zip":"0270033"},{"town":"八木沢","koaza":"第七地割","lat":39.612614,"lng":141.93726,"zip":"0270031"},{"town":"小山田","koaza":"第一地割","lat":39.635986,"lng":141.935244,"zip":"0270038"},{"town":"津軽石","koaza":"第三地割","lat":39.583543,"lng":141.937519,"zip":"0270203"},{"town":"津軽石","koaza":"第五地割","lat":39.579717,"lng":141.937513,"zip":"0270203"},{"town":"小山田","koaza":"第三地割","lat":39.636202,"lng":141.937824,"zip":"0270038"},{"town":"津軽石","koaza":"第一地割","lat":39.587186,"lng":141.942039,"zip":"0270203"},{"town":"津軽石","koaza":"第十一地割","lat":39.571792,"lng":141.939124,"zip":"0270203"},{"town":"金浜","koaza":"第七地割","lat":39.591181,"lng":141.944759,"zip":"0270033"},{"town":"津軽石","koaza":"第七地割","lat":39.578521,"lng":141.940421,"zip":"0270203"},{"town":"八木沢","koaza":"第六地割","lat":39.616155,"lng":141.939934,"zip":"0270031"},{"town":"津軽石","koaza":"第二地割","lat":39.582987,"lng":141.945111,"zip":"0270203"},{"town":"金浜","koaza":"第二地割","lat":39.595754,"lng":141.942447,"zip":"0270033"},{"town":"小山田","koaza":"第四地割","lat":39.635308,"lng":141.942628,"zip":"0270038"},{"town":"田老","koaza":"八幡水神","lat":39.727075,"lng":141.949165,"zip":"0270307"},{"town":"津軽石","koaza":"第八地割","lat":39.579101,"lng":141.943404,"zip":"0270203"},{"town":"山口","koaza":"第四地割","lat":39.65912,"lng":141.942974,"zip":"0270063"},{"town":"金浜","koaza":"第四地割","lat":39.593402,"lng":141.943104,"zip":"0270033"},{"town":"赤前","koaza":"第一地割","lat":39.577213,"lng":141.944455,"zip":"0270202"},{"town":"金浜","koaza":"第六地割","lat":39.593518,"lng":141.943935,"zip":"0270033"},{"town":"田老","koaza":"小林","lat":39.729903,"lng":141.959615,"zip":"0270307"},{"town":"崎山","koaza":"第六地割","lat":39.681019,"lng":141.957526,"zip":"0270097"},{"town":"赤前","koaza":"第四地割","lat":39.578722,"lng":141.949349,"zip":"0270202"},{"town":"赤前","koaza":"第三地割","lat":39.572622,"lng":141.953675,"zip":"0270202"},{"town":"赤前","koaza":"第六地割","lat":39.582243,"lng":141.949152,"zip":"0270202"},{"town":"八木沢","koaza":"第四地割","lat":39.618101,"lng":141.948432,"zip":"0270031"},{"town":"崎鍬ヶ崎","koaza":"第一地割","lat":39.65745,"lng":141.949068,"zip":"0270000"},{"town":"磯鶏","koaza":"第七地割","lat":39.618959,"lng":141.949321,"zip":"0270024"},{"town":"赤前","koaza":"第二地割","lat":39.57713,"lng":141.950787,"zip":"0270202"},{"town":"崎鍬ヶ崎","koaza":"第四地割","lat":39.661332,"lng":141.950801,"zip":"0270000"},{"town":"赤前","koaza":"第八地割","lat":39.582548,"lng":141.951484,"zip":"0270202"},{"town":"田老","koaza":"館が森","lat":39.736257,"lng":141.968091,"zip":"0270307"},{"town":"崎鍬ヶ崎","koaza":"第八地割","lat":39.663475,"lng":141.958716,"zip":"0270000"},{"town":"崎鍬ヶ崎","koaza":"第七地割","lat":39.668173,"lng":141.952386,"zip":"0270000"},{"town":"崎鍬ヶ崎","koaza":"第三地割","lat":39.659508,"lng":141.957777,"zip":"0270000"},{"town":"赤前","koaza":"第五地割","lat":39.577667,"lng":141.951795,"zip":"0270202"},{"town":"崎鍬ヶ崎","koaza":"第九地割","lat":39.667807,"lng":141.958703,"zip":"0270000"},{"town":"赤前","koaza":"第九地割","lat":39.583894,"lng":141.953671,"zip":"0270202"},{"town":"磯鶏","koaza":"第三地割","lat":39.628574,"lng":141.955565,"zip":"0270024"},{"town":"崎山","koaza":"第七地割","lat":39.672725,"lng":141.957667,"zip":"0270097"},{"town":"赤前","koaza":"第十一地割","lat":39.584515,"lng":141.955592,"zip":"0270202"},{"town":"田老","koaza":"西向山","lat":39.721809,"lng":141.979641,"zip":"0270307"},{"town":"崎山","koaza":"第四地割","lat":39.703679,"lng":141.960482,"zip":"0270097"},{"town":"崎山","koaza":"第二地割","lat":39.675907,"lng":141.959317,"zip":"0270097"},{"town":"崎山","koaza":"第五地割","lat":39.691484,"lng":141.958896,"zip":"0270097"},{"town":"田老","koaza":"小田代","lat":39.727682,"lng":141.959886,"zip":"0270307"},{"town":"崎山","koaza":"第三地割","lat":39.679695,"lng":141.965849,"zip":"0270097"},{"town":"崎山","koaza":"第一地割","lat":39.67188,"lng":141.96022,"zip":"0270097"},{"town":"崎鍬ヶ崎","koaza":"第二地割","lat":39.658391,"lng":141.959984,"zip":"0270000"},{"town":"崎鍬ヶ崎","koaza":"第十一地割","lat":39.669991,"lng":141.962008,"zip":"0270000"},{"town":"田老","koaza":"樫内","lat":39.709462,"lng":141.96856,"zip":"0270307"},{"town":"鍬ヶ崎","koaza":"第六地割","lat":39.656642,"lng":141.968412,"zip":"0270000"},{"town":"田老","koaza":"古田","lat":39.724942,"lng":141.963648,"zip":"0270307"},{"town":"崎鍬ヶ崎","koaza":"第十地割","lat":39.66246,"lng":141.968498,"zip":"0270000"},{"town":"崎鍬ヶ崎","koaza":"第十三地割","lat":39.669603,"lng":141.967969,"zip":"0270000"},{"town":"磯鶏","koaza":"第四地割","lat":39.631582,"lng":141.965406,"zip":"0270024"},{"town":"田老","koaza":"田の沢","lat":39.735787,"lng":141.965357,"zip":"0270307"},{"town":"崎鍬ヶ崎","koaza":"第十四地割","lat":39.676618,"lng":141.969413,"zip":"0270000"},{"town":"田老","koaza":"ケラス","lat":39.742466,"lng":141.970754,"zip":"0270307"},{"town":"田老","koaza":"向山","lat":39.730258,"lng":141.965719,"zip":"0270307"},{"town":"田老","koaza":"田中","lat":39.734015,"lng":141.966594,"zip":"0270307"},{"town":"崎鍬ヶ崎","koaza":"第十二地割","lat":39.665736,"lng":141.971564,"zip":"0270000"},{"town":"田老","koaza":"川向","lat":39.735939,"lng":141.971421,"zip":"0270307"},{"town":"田老","koaza":"乙部","lat":39.743289,"lng":141.973739,"zip":"0270307"},{"town":"田老","koaza":"荒谷","lat":39.740603,"lng":141.971709,"zip":"0270307"},{"town":"崎鍬ヶ崎","koaza":"第十六地割","lat":39.675787,"lng":141.975831,"zip":"0270000"},{"town":"崎鍬ヶ崎","koaza":"第十七地割","lat":39.681534,"lng":141.975423,"zip":"0270000"},{"town":"崎鍬ヶ崎","koaza":"第十五地割","lat":39.672077,"lng":141.976081,"zip":"0270000"},{"town":"崎鍬ヶ崎","koaza":"第十八地割","lat":39.683016,"lng":141.979731,"zip":"0270000"},{"town":"田老","koaza":"野原","lat":39.736925,"lng":141.976886,"zip":"0270307"},{"town":"田老","koaza":"越田","lat":39.746836,"lng":141.97641,"zip":"0270307"},{"town":"田老","koaza":"青砂里","lat":39.739327,"lng":141.9817,"zip":"0270307"},{"town":"崎鍬ヶ崎","koaza":"第五地割","lat":39.667337,"lng":141.94595,"zip":"0270000"},{"town":"花輪","koaza":"第九地割","lat":39.615231,"lng":141.898376,"zip":"0270035"},{"town":"花輪","koaza":"第十六地割","lat":39.609974,"lng":141.904509,"zip":"0270035"},{"town":"金浜","koaza":"第三地割","lat":39.599381,"lng":141.937043,"zip":"0270033"},{"town":"近内","koaza":"第六地割","lat":39.654442,"lng":141.912922,"zip":"0270056"},{"town":"近内","koaza":"第四地割","lat":39.650135,"lng":141.91999,"zip":"0270056"},{"town":"近内","koaza":"第十一地割","lat":39.640788,"lng":141.920399,"zip":"0270056"},{"town":"近内","koaza":"第十地割","lat":39.645338,"lng":141.915883,"zip":"0270056"},{"town":"近内","koaza":"第二地割","lat":39.643203,"lng":141.923912,"zip":"0270056"},{"town":"老木","koaza":"第十一地割","lat":39.6292,"lng":141.883387,"zip":"0270045"},{"town":"八木沢","koaza":"第九地割","lat":39.600105,"lng":141.92428,"zip":"0270031"},{"town":"近内","koaza":"第九地割","lat":39.648735,"lng":141.908853,"zip":"0270056"},{"town":"千徳","koaza":"第二十三地割","lat":39.649385,"lng":141.903969,"zip":"0270058"}]