[{"town":"板橋","koaza":"","lat":39.700293,"lng":141.021876,"zip":"0200502"},{"town":"稲荷下","koaza":"","lat":39.698931,"lng":140.973844,"zip":"0200546"},{"town":"上野","koaza":"","lat":39.721613,"lng":140.91749,"zip":"0200583"},{"town":"鴬宿","koaza":"","lat":39.611669,"lng":140.882218,"zip":"0200574"},{"town":"御明神","koaza":"","lat":39.684005,"lng":140.891858,"zip":"0200581"},{"town":"柿木","koaza":"","lat":39.701371,"lng":140.966685,"zip":"0200544"},{"town":"上兎野","koaza":"","lat":39.682157,"lng":140.991925,"zip":"0200500"},{"town":"上笹森","koaza":"","lat":39.715017,"lng":140.983636,"zip":"0200559"},{"town":"上曽根田","koaza":"","lat":39.693131,"lng":140.978625,"zip":"0200555"},{"town":"上平","koaza":"","lat":39.702186,"lng":140.987338,"zip":"0200557"},{"town":"上町北","koaza":"","lat":39.695538,"lng":140.96861,"zip":"0200538"},{"town":"上町西","koaza":"","lat":39.694659,"lng":140.969631,"zip":"0200537"},{"town":"上町東","koaza":"","lat":39.694817,"lng":140.971546,"zip":"0200539"},{"town":"上町南","koaza":"","lat":39.693774,"lng":140.971645,"zip":"0200530"},{"town":"川原","koaza":"","lat":39.687137,"lng":140.961659,"zip":"0200534"},{"town":"黒沢川","koaza":"","lat":39.687792,"lng":140.987944,"zip":"0200517"},{"town":"源大堂","koaza":"","lat":39.691801,"lng":140.972367,"zip":"0200525"},{"town":"小日谷地","koaza":"","lat":39.693904,"lng":140.960665,"zip":"0200535"},{"town":"笹森","koaza":"","lat":39.703065,"lng":140.994106,"zip":"0200551"},{"town":"塩ケ森","koaza":"","lat":39.685517,"lng":140.993349,"zip":"0200512"},{"town":"下兎野","koaza":"","lat":39.68057,"lng":140.992875,"zip":"0200513"},{"town":"下久保","koaza":"","lat":39.685348,"lng":140.977736,"zip":"0200522"},{"town":"下笹森","koaza":"","lat":39.706078,"lng":140.981551,"zip":"0200558"},{"town":"下曽根田","koaza":"","lat":39.691099,"lng":140.983374,"zip":"0200553"},{"town":"下平","koaza":"","lat":39.694392,"lng":140.988734,"zip":"0200552"},{"town":"下長根","koaza":"","lat":39.67551,"lng":140.992421,"zip":"0200515"},{"town":"下町","koaza":"","lat":39.690431,"lng":140.977351,"zip":"0200528"},{"town":"下町西","koaza":"","lat":39.69203,"lng":140.975349,"zip":"0200529"},{"town":"下町東","koaza":"","lat":39.685185,"lng":140.987012,"zip":"0200520"},{"town":"千刈田","koaza":"","lat":39.696454,"lng":140.977613,"zip":"0200541"},{"town":"麁津田","koaza":"","lat":39.686331,"lng":140.982122,"zip":"0200521"},{"town":"高前田","koaza":"","lat":39.700666,"lng":140.962565,"zip":"0200543"},{"town":"繋","koaza":"","lat":39.680182,"lng":141.00587,"zip":"0200571"},{"town":"寺の下","koaza":"","lat":39.688276,"lng":140.976516,"zip":"0200524"},{"town":"中黒沢川","koaza":"","lat":39.737405,"lng":140.994305,"zip":"0200505"},{"town":"中沼","koaza":"","lat":39.715211,"lng":140.991007,"zip":"0200504"},{"town":"長畑","koaza":"","lat":39.691717,"lng":140.991968,"zip":"0200511"},{"town":"中町","koaza":"","lat":39.693243,"lng":140.973583,"zip":"0200527"},{"town":"長山","koaza":"","lat":39.789563,"lng":140.97367,"zip":"0200585"},{"town":"名子","koaza":"","lat":39.695829,"lng":140.982941,"zip":"0200556"},{"town":"七ツ森","koaza":"","lat":39.700247,"lng":141.006243,"zip":"0200503"},{"town":"仁佐瀬","koaza":"","lat":39.703786,"lng":141.033021,"zip":"0200501"},{"town":"西安庭","koaza":"","lat":39.62889,"lng":141.009969,"zip":"0200572"},{"town":"西根","koaza":"","lat":39.790559,"lng":140.903853,"zip":"0200584"},{"town":"沼返","koaza":"","lat":39.718442,"lng":141.003066,"zip":"0200506"},{"town":"根堀","koaza":"","lat":39.687174,"lng":140.97343,"zip":"0200523"},{"town":"野中","koaza":"","lat":39.677959,"lng":140.991274,"zip":"0200514"},{"town":"橋場","koaza":"","lat":39.740988,"lng":140.836036,"zip":"0200582"},{"town":"八卦","koaza":"","lat":39.693181,"lng":140.966529,"zip":"0200536"},{"town":"林","koaza":"","lat":39.690834,"lng":140.961659,"zip":"0200533"},{"town":"拂川","koaza":"","lat":39.688377,"lng":140.968159,"zip":"0200500"},{"town":"晴山","koaza":"","lat":39.700195,"lng":140.975949,"zip":"0200547"},{"town":"町裏","koaza":"","lat":39.692035,"lng":140.9765,"zip":"0200554"},{"town":"麻見田","koaza":"","lat":39.690938,"lng":140.969861,"zip":"0200531"},{"town":"丸谷地","koaza":"","lat":39.744979,"lng":141.011334,"zip":"0200507"},{"town":"万田渡","koaza":"","lat":39.695978,"lng":140.970948,"zip":"0200542"},{"town":"南畑","koaza":"","lat":39.58581,"lng":140.921458,"zip":"0200573"},{"town":"明神","koaza":"","lat":39.683135,"lng":140.977938,"zip":"0200500"},{"town":"谷地","koaza":"","lat":39.701123,"lng":140.97003,"zip":"0200545"},{"town":"御明神","koaza":"赤渕","lat":39.685106,"lng":140.907864,"zip":"0200581"},{"town":"御明神","koaza":"山津田","lat":39.688814,"lng":140.913398,"zip":"0200581"},{"town":"御明神","koaza":"虚空蔵","lat":39.680246,"lng":140.912901,"zip":"0200581"},{"town":"鴬宿","koaza":"第六地割","lat":39.635543,"lng":140.921806,"zip":"0200574"},{"town":"御明神","koaza":"滝沢","lat":39.683404,"lng":140.916467,"zip":"0200581"},{"town":"御明神","koaza":"荒屋敷","lat":39.683886,"lng":140.921518,"zip":"0200581"},{"town":"御明神","koaza":"平渡","lat":39.681855,"lng":140.921174,"zip":"0200581"},{"town":"鴬宿","koaza":"第七地割","lat":39.635957,"lng":140.921391,"zip":"0200574"},{"town":"上野","koaza":"上沢田","lat":39.722753,"lng":140.931909,"zip":"0200583"},{"town":"御明神","koaza":"石山","lat":39.681985,"lng":140.925263,"zip":"0200581"},{"town":"御明神","koaza":"多賀","lat":39.684583,"lng":140.930514,"zip":"0200581"},{"town":"上野","koaza":"松嶺","lat":39.700019,"lng":140.927904,"zip":"0200583"},{"town":"上野","koaza":"横欠","lat":39.717485,"lng":140.933434,"zip":"0200583"},{"town":"西根","koaza":"谷地","lat":39.74029,"lng":140.929854,"zip":"0200584"},{"town":"御明神","koaza":"南野","lat":39.681165,"lng":140.930445,"zip":"0200581"},{"town":"西根","koaza":"上生堀","lat":39.730488,"lng":140.930536,"zip":"0200584"},{"town":"御明神","koaza":"沼","lat":39.68807,"lng":140.929232,"zip":"0200581"},{"town":"鴬宿","koaza":"第九地割","lat":39.641266,"lng":140.932134,"zip":"0200574"},{"town":"御明神","koaza":"干泥","lat":39.688551,"lng":140.934105,"zip":"0200581"},{"town":"上野","koaza":"上和野","lat":39.703451,"lng":140.93008,"zip":"0200583"},{"town":"上野","koaza":"中野","lat":39.698673,"lng":140.93332,"zip":"0200583"},{"town":"上野","koaza":"長沢","lat":39.707639,"lng":140.933449,"zip":"0200583"},{"town":"上野","koaza":"沢口","lat":39.69932,"lng":140.930413,"zip":"0200583"},{"town":"上野","koaza":"糠塚","lat":39.704151,"lng":140.931766,"zip":"0200583"},{"town":"上野","koaza":"二ツ森","lat":39.69307,"lng":140.936257,"zip":"0200583"},{"town":"御明神","koaza":"御明神","lat":39.685359,"lng":140.931499,"zip":"0200581"},{"town":"鴬宿","koaza":"第十地割","lat":39.639133,"lng":140.935215,"zip":"0200574"},{"town":"御明神","koaza":"小坂","lat":39.685777,"lng":140.935819,"zip":"0200581"},{"town":"上野","koaza":"下沢田","lat":39.709579,"lng":140.933092,"zip":"0200583"},{"town":"御明神","koaza":"天川","lat":39.678929,"lng":140.938178,"zip":"0200581"},{"town":"御明神","koaza":"古舘","lat":39.682778,"lng":140.935937,"zip":"0200581"},{"town":"御明神","koaza":"赤沢","lat":39.676456,"lng":140.938565,"zip":"0200581"},{"town":"上野","koaza":"天狗谷地","lat":39.721388,"lng":140.936662,"zip":"0200583"},{"town":"御明神","koaza":"曲谷地","lat":39.686744,"lng":140.940518,"zip":"0200581"},{"town":"上野","koaza":"土橋","lat":39.709327,"lng":140.93792,"zip":"0200583"},{"town":"上野","koaza":"片子","lat":39.692251,"lng":140.937107,"zip":"0200583"},{"town":"西根","koaza":"熊野田","lat":39.740145,"lng":140.935313,"zip":"0200584"},{"town":"上野","koaza":"野中","lat":39.7142,"lng":140.935107,"zip":"0200583"},{"town":"西根","koaza":"石倉","lat":39.731968,"lng":140.943365,"zip":"0200584"},{"town":"西根","koaza":"田茂木","lat":39.751747,"lng":140.937625,"zip":"0200584"},{"town":"上野","koaza":"曽利","lat":39.700733,"lng":140.937641,"zip":"0200583"},{"town":"西根","koaza":"中村","lat":39.745675,"lng":140.9376,"zip":"0200584"},{"town":"上野","koaza":"上野沢","lat":39.692551,"lng":140.94346,"zip":"0200583"},{"town":"西根","koaza":"清水端","lat":39.751203,"lng":140.939439,"zip":"0200584"},{"town":"上野","koaza":"天神","lat":39.703983,"lng":140.938363,"zip":"0200583"},{"town":"西安庭","koaza":"第一地割","lat":39.646525,"lng":140.939972,"zip":"0200572"},{"town":"上野","koaza":"間取沢","lat":39.709029,"lng":140.94192,"zip":"0200583"},{"town":"御明神","koaza":"高八卦","lat":39.682526,"lng":140.940512,"zip":"0200581"},{"town":"西根","koaza":"中生堀","lat":39.720772,"lng":140.942456,"zip":"0200584"},{"town":"西根","koaza":"栗木平","lat":39.765273,"lng":140.940415,"zip":"0200584"},{"town":"西根","koaza":"八丁野","lat":39.739946,"lng":140.941597,"zip":"0200584"},{"town":"長山","koaza":"有根","lat":39.788671,"lng":140.945772,"zip":"0200585"},{"town":"西根","koaza":"上八丁","lat":39.742165,"lng":140.942325,"zip":"0200584"},{"town":"上野","koaza":"砂壁","lat":39.704819,"lng":140.944172,"zip":"0200583"},{"town":"南畑","koaza":"第二十二地割","lat":39.628591,"lng":140.94501,"zip":"0200573"},{"town":"御明神","koaza":"中屋敷","lat":39.689865,"lng":140.941913,"zip":"0200581"},{"town":"上野","koaza":"平子田","lat":39.703555,"lng":140.942513,"zip":"0200583"},{"town":"南畑","koaza":"第三十二地割","lat":39.643822,"lng":140.943983,"zip":"0200573"},{"town":"西根","koaza":"合野々","lat":39.746156,"lng":140.946544,"zip":"0200584"},{"town":"上野","koaza":"上屋敷","lat":39.694604,"lng":140.946127,"zip":"0200583"},{"town":"上野","koaza":"観音堂","lat":39.693125,"lng":140.943811,"zip":"0200583"},{"town":"長山","koaza":"猫沢","lat":39.795887,"lng":140.949772,"zip":"0200585"},{"town":"西根","koaza":"大宮","lat":39.735982,"lng":140.9485,"zip":"0200584"},{"town":"上野","koaza":"新里","lat":39.691721,"lng":140.946006,"zip":"0200583"},{"town":"御明神","koaza":"中村","lat":39.686721,"lng":140.947197,"zip":"0200581"},{"town":"西根","koaza":"西篠崎","lat":39.769376,"lng":140.947273,"zip":"0200584"},{"town":"御明神","koaza":"幅","lat":39.689191,"lng":140.946947,"zip":"0200581"},{"town":"南畑","koaza":"第三十一地割","lat":39.633592,"lng":140.945432,"zip":"0200573"},{"town":"上野","koaza":"中谷地","lat":39.699138,"lng":140.945752,"zip":"0200583"},{"town":"西根","koaza":"堀切","lat":39.764514,"lng":140.94666,"zip":"0200584"},{"town":"御明神","koaza":"四ツ家","lat":39.681994,"lng":140.949323,"zip":"0200581"},{"town":"西根","koaza":"上葛根田","lat":39.729035,"lng":140.947925,"zip":"0200584"},{"town":"上野","koaza":"岩持","lat":39.700693,"lng":140.948067,"zip":"0200583"},{"town":"西安庭","koaza":"第四地割","lat":39.65126,"lng":140.948242,"zip":"0200572"},{"town":"南畑","koaza":"第三十地割","lat":39.633108,"lng":140.947921,"zip":"0200573"},{"town":"上野","koaza":"上岩持","lat":39.70404,"lng":140.947215,"zip":"0200583"},{"town":"西根","koaza":"上篠崎","lat":39.775373,"lng":140.947153,"zip":"0200584"},{"town":"長山","koaza":"岩手山","lat":39.814733,"lng":140.949246,"zip":"0200585"},{"town":"上野","koaza":"八幡","lat":39.69713,"lng":140.949992,"zip":"0200583"},{"town":"上野","koaza":"上高田","lat":39.692906,"lng":140.950159,"zip":"0200583"},{"town":"長山","koaza":"舘","lat":39.781739,"lng":140.951515,"zip":"0200585"},{"town":"御明神","koaza":"大曲戸","lat":39.676296,"lng":140.952274,"zip":"0200581"},{"town":"南畑","koaza":"第三十三地割","lat":39.648882,"lng":140.948933,"zip":"0200573"},{"town":"西根","koaza":"下篠崎","lat":39.768272,"lng":140.949766,"zip":"0200584"},{"town":"西根","koaza":"上駒木野","lat":39.751023,"lng":140.950422,"zip":"0200584"},{"town":"西安庭","koaza":"第三十七地割","lat":39.641751,"lng":140.952798,"zip":"0200572"},{"town":"西安庭","koaza":"第五地割","lat":39.653427,"lng":140.949343,"zip":"0200572"},{"town":"西安庭","koaza":"第七地割","lat":39.656843,"lng":140.952023,"zip":"0200572"},{"town":"西安庭","koaza":"第八地割","lat":39.656818,"lng":140.949211,"zip":"0200572"},{"town":"西根","koaza":"下葛根田","lat":39.718683,"lng":140.950146,"zip":"0200584"},{"town":"長山","koaza":"篠川原","lat":39.7744,"lng":140.957153,"zip":"0200585"},{"town":"西根","koaza":"東篠崎","lat":39.774179,"lng":140.951076,"zip":"0200584"},{"town":"西安庭","koaza":"第六地割","lat":39.652863,"lng":140.952041,"zip":"0200572"},{"town":"西根","koaza":"葛根田","lat":39.722137,"lng":140.950731,"zip":"0200584"},{"town":"御明神","koaza":"籬野","lat":39.676014,"lng":140.956656,"zip":"0200581"},{"town":"長山","koaza":"川母渕","lat":39.712806,"lng":140.954667,"zip":"0200585"},{"town":"上野","koaza":"上川原","lat":39.699349,"lng":140.952053,"zip":"0200583"},{"town":"西根","koaza":"中野","lat":39.725688,"lng":140.952845,"zip":"0200584"},{"town":"西根","koaza":"下駒木野","lat":39.732813,"lng":140.954581,"zip":"0200584"},{"town":"御明神","koaza":"上黒沢","lat":39.68666,"lng":140.953958,"zip":"0200581"},{"town":"長山","koaza":"下川原","lat":39.703384,"lng":140.953891,"zip":"0200585"},{"town":"上野","koaza":"下川原","lat":39.692567,"lng":140.95455,"zip":"0200583"},{"town":"西安庭","koaza":"第三十六地割","lat":39.653238,"lng":140.954534,"zip":"0200572"},{"town":"御明神","koaza":"南黒沢","lat":39.683933,"lng":140.954775,"zip":"0200581"},{"town":"長山","koaza":"土樋","lat":39.720064,"lng":140.95656,"zip":"0200585"},{"town":"長山","koaza":"早坂","lat":39.765457,"lng":140.961537,"zip":"0200585"},{"town":"西根","koaza":"東駒木野","lat":39.743161,"lng":140.956287,"zip":"0200584"},{"town":"長山","koaza":"篠ケ森","lat":39.780121,"lng":140.955725,"zip":"0200585"},{"town":"西安庭","koaza":"椛平","lat":39.65807,"lng":140.959666,"zip":"0200572"},{"town":"御明神","koaza":"籬","lat":39.681749,"lng":140.957948,"zip":"0200581"},{"town":"御明神","koaza":"中黒沢","lat":39.684726,"lng":140.958451,"zip":"0200581"},{"town":"西安庭","koaza":"第九地割","lat":39.669546,"lng":140.956537,"zip":"0200572"},{"town":"西根","koaza":"南駒木野","lat":39.736932,"lng":140.956963,"zip":"0200584"},{"town":"西安庭","koaza":"第三十五地割","lat":39.653694,"lng":140.960663,"zip":"0200572"},{"town":"長山","koaza":"高前田","lat":39.703215,"lng":140.9586,"zip":"0200585"},{"town":"長山","koaza":"松木","lat":39.7094,"lng":140.962121,"zip":"0200585"},{"town":"長山","koaza":"堤","lat":39.715083,"lng":140.961239,"zip":"0200585"},{"town":"西安庭","koaza":"第十地割","lat":39.668863,"lng":140.965384,"zip":"0200572"},{"town":"南畑","koaza":"第二十八地割","lat":39.633477,"lng":140.963091,"zip":"0200573"},{"town":"長山","koaza":"芦谷地","lat":39.769574,"lng":140.964235,"zip":"0200585"},{"town":"南畑","koaza":"第二十六地割","lat":39.628495,"lng":140.968517,"zip":"0200573"},{"town":"長山","koaza":"中上","lat":39.723254,"lng":140.965549,"zip":"0200585"},{"town":"長山","koaza":"矢筈","lat":39.733309,"lng":140.963093,"zip":"0200585"},{"town":"長山","koaza":"西寄内","lat":39.73904,"lng":140.965399,"zip":"0200585"},{"town":"長山","koaza":"柳原","lat":39.736791,"lng":140.963164,"zip":"0200585"},{"town":"長山","koaza":"狼沢","lat":39.756901,"lng":140.970004,"zip":"0200585"},{"town":"長山","koaza":"岩井花","lat":39.750029,"lng":140.96452,"zip":"0200585"},{"town":"西安庭","koaza":"第十五地割","lat":39.674996,"lng":140.974659,"zip":"0200572"},{"town":"長山","koaza":"東早坂","lat":39.762375,"lng":140.965097,"zip":"0200585"},{"town":"長山","koaza":"横森","lat":39.718809,"lng":140.963222,"zip":"0200585"},{"town":"西安庭","koaza":"第三十二地割","lat":39.661743,"lng":140.964229,"zip":"0200572"},{"town":"長山","koaza":"森合","lat":39.717821,"lng":140.965648,"zip":"0200585"},{"town":"長山","koaza":"猿子","lat":39.729839,"lng":140.967032,"zip":"0200585"},{"town":"西安庭","koaza":"第四十地割","lat":39.659863,"lng":140.969834,"zip":"0200572"},{"town":"長山","koaza":"久保田","lat":39.740731,"lng":140.965824,"zip":"0200585"},{"town":"長山","koaza":"堀切野","lat":39.763269,"lng":140.971147,"zip":"0200585"},{"town":"長山","koaza":"竹花","lat":39.71438,"lng":140.967335,"zip":"0200585"},{"town":"西安庭","koaza":"第三十一地割","lat":39.663683,"lng":140.969312,"zip":"0200572"},{"town":"長山","koaza":"林崎","lat":39.707432,"lng":140.96796,"zip":"0200585"},{"town":"長山","koaza":"中村","lat":39.739545,"lng":140.96753,"zip":"0200585"},{"town":"長山","koaza":"梍","lat":39.735823,"lng":140.967802,"zip":"0200585"},{"town":"西安庭","koaza":"旭台","lat":39.648986,"lng":140.97194,"zip":"0200572"},{"town":"長山","koaza":"極楽野","lat":39.767388,"lng":140.979618,"zip":"0200585"},{"town":"長山","koaza":"高八卦","lat":39.744561,"lng":140.965902,"zip":"0200585"},{"town":"長山","koaza":"盆花平","lat":39.79157,"lng":140.971482,"zip":"0200585"},{"town":"長山","koaza":"林ノ沢","lat":39.75645,"lng":140.983503,"zip":"0200585"},{"town":"長山","koaza":"上小林","lat":39.717829,"lng":140.968881,"zip":"0200585"},{"town":"西安庭","koaza":"第十六地割","lat":39.677813,"lng":140.974295,"zip":"0200572"},{"town":"長山","koaza":"野中谷地","lat":39.728112,"lng":140.969023,"zip":"0200585"},{"town":"長山","koaza":"谷地","lat":39.709559,"lng":140.969045,"zip":"0200585"},{"town":"長山","koaza":"漆原","lat":39.720229,"lng":140.968251,"zip":"0200585"},{"town":"西安庭","koaza":"第三十八地割","lat":39.639535,"lng":140.970207,"zip":"0200572"},{"town":"長山","koaza":"羽上","lat":39.715972,"lng":140.970912,"zip":"0200585"},{"town":"西安庭","koaza":"第四十二地割","lat":39.635452,"lng":140.969506,"zip":"0200572"},{"town":"長山","koaza":"栗木","lat":39.722191,"lng":140.972685,"zip":"0200585"},{"town":"長山","koaza":"赤坂","lat":39.703286,"lng":140.972014,"zip":"0200585"},{"town":"長山","koaza":"七ツ田","lat":39.729192,"lng":140.972229,"zip":"0200585"},{"town":"長山","koaza":"蒲谷地","lat":39.71814,"lng":140.972113,"zip":"0200585"},{"town":"長山","koaza":"堂山","lat":39.708873,"lng":140.971383,"zip":"0200585"},{"town":"西安庭","koaza":"第三十九地割","lat":39.644767,"lng":140.972467,"zip":"0200572"},{"town":"西安庭","koaza":"第四十三地割","lat":39.64326,"lng":140.979888,"zip":"0200572"},{"town":"長山","koaza":"狐森","lat":39.738441,"lng":140.976539,"zip":"0200585"},{"town":"西安庭","koaza":"第三十地割","lat":39.663743,"lng":140.974041,"zip":"0200572"},{"town":"長山","koaza":"小松坂","lat":39.714389,"lng":140.975012,"zip":"0200585"},{"town":"西安庭","koaza":"第四十一地割","lat":39.654722,"lng":140.97491,"zip":"0200572"},{"town":"長山","koaza":"麁台久保","lat":39.705118,"lng":140.977668,"zip":"0200585"},{"town":"西安庭","koaza":"第十一地割","lat":39.668991,"lng":140.97452,"zip":"0200572"},{"town":"長山","koaza":"松森","lat":39.725115,"lng":140.978171,"zip":"0200585"},{"town":"長山","koaza":"晴山","lat":39.7012,"lng":140.978299,"zip":"0200585"},{"town":"長山","koaza":"小鉢森","lat":39.758162,"lng":140.98988,"zip":"0200585"},{"town":"西安庭","koaza":"第十四地割","lat":39.668979,"lng":140.978571,"zip":"0200572"},{"town":"長山","koaza":"大鉢森","lat":39.751652,"lng":140.980009,"zip":"0200585"},{"town":"西安庭","koaza":"第二十八地割","lat":39.663635,"lng":140.981478,"zip":"0200572"},{"town":"西安庭","koaza":"第二十三地割","lat":39.669146,"lng":140.982146,"zip":"0200572"},{"town":"西安庭","koaza":"第二十六地割","lat":39.660824,"lng":140.982322,"zip":"0200572"},{"town":"西安庭","koaza":"第二十七地割","lat":39.662627,"lng":140.984372,"zip":"0200572"},{"town":"西安庭","koaza":"第二十九地割","lat":39.661245,"lng":140.981448,"zip":"0200572"},{"town":"西安庭","koaza":"第二十五地割","lat":39.658557,"lng":140.989526,"zip":"0200572"},{"town":"西安庭","koaza":"第五十一地割","lat":39.633214,"lng":140.987903,"zip":"0200572"},{"town":"西安庭","koaza":"第四十四地割","lat":39.635883,"lng":140.986414,"zip":"0200572"},{"town":"西安庭","koaza":"第四十六地割","lat":39.653259,"lng":140.991436,"zip":"0200572"},{"town":"西安庭","koaza":"第五十地割","lat":39.642018,"lng":140.991473,"zip":"0200572"},{"town":"西安庭","koaza":"第四十八地割","lat":39.648595,"lng":140.996242,"zip":"0200572"},{"town":"繋","koaza":"第七地割","lat":39.680261,"lng":141.010019,"zip":"0200571"},{"town":"繋","koaza":"第五地割","lat":39.684107,"lng":141.003986,"zip":"0200571"},{"town":"繋","koaza":"第四地割","lat":39.678902,"lng":141.002738,"zip":"0200571"},{"town":"繋","koaza":"第六地割","lat":39.681095,"lng":141.009034,"zip":"0200571"},{"town":"繋","koaza":"第八地割","lat":39.689965,"lng":141.011191,"zip":"0200571"},{"town":"西根","koaza":"北妻","lat":39.745324,"lng":140.932991,"zip":"0200584"},{"town":"鴬宿","koaza":"第八地割","lat":39.643897,"lng":140.92895,"zip":"0200574"},{"town":"西安庭","koaza":"第二地割","lat":39.650759,"lng":140.944819,"zip":"0200572"},{"town":"南畑","koaza":"男助山","lat":39.643048,"lng":140.940526,"zip":"0200573"},{"town":"西安庭","koaza":"第三十四地割","lat":39.659411,"lng":140.956619,"zip":"0200572"},{"town":"西安庭","koaza":"第三十三地割","lat":39.662698,"lng":140.960213,"zip":"0200572"},{"town":"西安庭","koaza":"第四十五地割","lat":39.646827,"lng":140.987081,"zip":"0200572"},{"town":"御明神","koaza":"大柳","lat":39.685889,"lng":140.919103,"zip":"0200581"}]