[{"town":"大字五日市","koaza":"","lat":40.007751,"lng":141.225631,"zip":"0284300"},{"town":"大字一方井","koaza":"","lat":40.014401,"lng":141.177735,"zip":"0284300"},{"town":"大字江刈内","koaza":"","lat":39.956128,"lng":141.25456,"zip":"0284300"},{"town":"大字川口","koaza":"","lat":39.902676,"lng":141.308582,"zip":"0284300"},{"town":"大字久保","koaza":"","lat":40.01222,"lng":141.190864,"zip":"0284300"},{"town":"大字黒石","koaza":"","lat":39.989898,"lng":141.157244,"zip":"0284300"},{"town":"大字黒内","koaza":"","lat":39.998088,"lng":141.136885,"zip":"0284300"},{"town":"大字子抱","koaza":"","lat":39.937353,"lng":141.187691,"zip":"0284300"},{"town":"大字大坊","koaza":"","lat":39.970763,"lng":141.335063,"zip":"0284300"},{"town":"大字土川","koaza":"","lat":39.948375,"lng":141.158802,"zip":"0284300"},{"town":"大字沼宮内","koaza":"","lat":40.006453,"lng":141.268085,"zip":"0284300"},{"town":"大字葉木田","koaza":"","lat":39.997124,"lng":141.146872,"zip":"0284300"},{"town":"大字坊","koaza":"","lat":39.969574,"lng":141.179046,"zip":"0284300"},{"town":"大字御堂","koaza":"","lat":40.042704,"lng":141.231537,"zip":"0284300"},{"town":"大字一方井","koaza":"第七地割","lat":39.967056,"lng":141.157386,"zip":"0284300"},{"town":"大字一方井","koaza":"第六地割","lat":39.969267,"lng":141.157748,"zip":"0284300"},{"town":"大字一方井","koaza":"第八地割","lat":39.962961,"lng":141.162806,"zip":"0284300"},{"town":"大字一方井","koaza":"第十二地割","lat":39.967688,"lng":141.162645,"zip":"0284300"},{"town":"大字一方井","koaza":"第五地割","lat":39.973609,"lng":141.160521,"zip":"0284300"},{"town":"大字土川","koaza":"第二地割","lat":39.949889,"lng":141.172608,"zip":"0284300"},{"town":"大字一方井","koaza":"第十三地割","lat":39.97286,"lng":141.166323,"zip":"0284300"},{"town":"大字一方井","koaza":"第十四地割","lat":39.969257,"lng":141.168939,"zip":"0284300"},{"town":"大字一方井","koaza":"第四地割","lat":39.974638,"lng":141.169562,"zip":"0284300"},{"town":"大字土川","koaza":"第四地割","lat":39.962191,"lng":141.173869,"zip":"0284300"},{"town":"大字土川","koaza":"第三地割","lat":39.953214,"lng":141.179757,"zip":"0284300"},{"town":"大字一方井","koaza":"第十五地割","lat":39.970433,"lng":141.171095,"zip":"0284300"},{"town":"大字一方井","koaza":"第十六地割","lat":39.975379,"lng":141.171954,"zip":"0284300"},{"town":"大字坊","koaza":"第二地割","lat":39.96872,"lng":141.178649,"zip":"0284300"},{"town":"大字土川","koaza":"第七地割","lat":39.965904,"lng":141.17695,"zip":"0284300"},{"town":"大字久保","koaza":"第九地割","lat":39.957439,"lng":141.188704,"zip":"0284300"},{"town":"大字久保","koaza":"第八地割","lat":39.963294,"lng":141.184705,"zip":"0284300"},{"town":"大字土川","koaza":"第八地割","lat":39.967296,"lng":141.182665,"zip":"0284300"},{"town":"大字子抱","koaza":"第十一地割","lat":39.921107,"lng":141.192706,"zip":"0284300"},{"town":"大字子抱","koaza":"第九地割","lat":39.931622,"lng":141.186802,"zip":"0284300"},{"town":"大字一方井","koaza":"第十七地割","lat":39.973168,"lng":141.188938,"zip":"0284300"},{"town":"大字久保","koaza":"第七地割","lat":39.964041,"lng":141.190291,"zip":"0284300"},{"town":"大字久保","koaza":"第十地割","lat":39.9489,"lng":141.19028,"zip":"0284300"},{"town":"大字子抱","koaza":"第十地割","lat":39.933198,"lng":141.190555,"zip":"0284300"},{"town":"大字川口","koaza":"第四地割","lat":39.93303,"lng":141.194066,"zip":"0284300"},{"town":"大字子抱","koaza":"第八地割","lat":39.941558,"lng":141.192375,"zip":"0284300"},{"town":"大字子抱","koaza":"第二地割","lat":39.959171,"lng":141.19327,"zip":"0284300"},{"town":"大字川口","koaza":"第一地割","lat":39.938161,"lng":141.197886,"zip":"0284300"},{"town":"大字子抱","koaza":"第七地割","lat":39.944893,"lng":141.19406,"zip":"0284300"},{"town":"大字久保","koaza":"第六地割","lat":39.962412,"lng":141.194213,"zip":"0284300"},{"town":"大字川口","koaza":"第三地割","lat":39.933288,"lng":141.196871,"zip":"0284300"},{"town":"大字子抱","koaza":"第四地割","lat":39.948148,"lng":141.195553,"zip":"0284300"},{"town":"大字子抱","koaza":"第三地割","lat":39.950624,"lng":141.197929,"zip":"0284300"},{"town":"大字久保","koaza":"第四地割","lat":39.976605,"lng":141.20426,"zip":"0284300"},{"town":"大字子抱","koaza":"第一地割","lat":39.960085,"lng":141.198893,"zip":"0284300"},{"town":"大字川口","koaza":"第十一地割","lat":39.916647,"lng":141.196613,"zip":"0284300"},{"town":"大字川口","koaza":"第十二地割","lat":39.911183,"lng":141.201378,"zip":"0284300"},{"town":"大字久保","koaza":"第五地割","lat":39.969104,"lng":141.201364,"zip":"0284300"},{"town":"大字川口","koaza":"第十地割","lat":39.917023,"lng":141.20122,"zip":"0284300"},{"town":"大字川口","koaza":"第五地割","lat":39.932976,"lng":141.201483,"zip":"0284300"},{"town":"大字川口","koaza":"第六地割","lat":39.929959,"lng":141.200429,"zip":"0284300"},{"town":"大字川口","koaza":"第八地割","lat":39.92155,"lng":141.200051,"zip":"0284300"},{"town":"大字子抱","koaza":"第六地割","lat":39.941913,"lng":141.206252,"zip":"0284300"},{"town":"大字川口","koaza":"第十七地割","lat":39.927632,"lng":141.201781,"zip":"0284300"},{"town":"大字川口","koaza":"第九地割","lat":39.92091,"lng":141.201474,"zip":"0284300"},{"town":"大字久保","koaza":"第三地割","lat":39.986286,"lng":141.210097,"zip":"0284300"},{"town":"大字川口","koaza":"第十八地割","lat":39.935043,"lng":141.203688,"zip":"0284300"},{"town":"大字五日市","koaza":"第十一地割","lat":39.965396,"lng":141.213462,"zip":"0284300"},{"town":"大字川口","koaza":"第十三地割","lat":39.912196,"lng":141.203615,"zip":"0284300"},{"town":"大字川口","koaza":"第十五地割","lat":39.922047,"lng":141.207317,"zip":"0284300"},{"town":"大字久保","koaza":"第二地割","lat":39.991688,"lng":141.212795,"zip":"0284300"},{"town":"大字川口","koaza":"第十四地割","lat":39.916574,"lng":141.208288,"zip":"0284300"},{"town":"大字子抱","koaza":"第五地割","lat":39.956226,"lng":141.212235,"zip":"0284300"},{"town":"大字川口","koaza":"第四十八地割","lat":39.935142,"lng":141.214068,"zip":"0284300"},{"town":"大字久保","koaza":"第一地割","lat":39.995439,"lng":141.208256,"zip":"0284300"},{"town":"大字五日市","koaza":"第九地割","lat":39.976443,"lng":141.216603,"zip":"0284300"},{"town":"大字五日市","koaza":"第十二地割","lat":39.95895,"lng":141.213306,"zip":"0284300"},{"town":"大字五日市","koaza":"第十地割","lat":39.969254,"lng":141.21521,"zip":"0284300"},{"town":"大字川口","koaza":"第四十九地割","lat":39.940795,"lng":141.217611,"zip":"0284300"},{"town":"大字江刈内","koaza":"第二地割","lat":39.946893,"lng":141.218019,"zip":"0284300"},{"town":"大字江刈内","koaza":"第三地割","lat":39.953178,"lng":141.215947,"zip":"0284300"},{"town":"大字川口","koaza":"第二十一地割","lat":39.919026,"lng":141.21606,"zip":"0284300"},{"town":"大字江刈内","koaza":"第一地割","lat":39.947796,"lng":141.216251,"zip":"0284300"},{"town":"大字川口","koaza":"第十九地割","lat":39.920957,"lng":141.217137,"zip":"0284300"},{"town":"大字江刈内","koaza":"第四地割","lat":39.957261,"lng":141.217195,"zip":"0284300"},{"town":"大字五日市","koaza":"第七地割","lat":39.981145,"lng":141.222374,"zip":"0284300"},{"town":"大字江刈内","koaza":"第六地割","lat":39.959873,"lng":141.222219,"zip":"0284300"},{"town":"大字江刈内","koaza":"第九地割","lat":39.967673,"lng":141.220842,"zip":"0284300"},{"town":"大字沼宮内","koaza":"第七地割","lat":39.97087,"lng":141.221292,"zip":"0284300"},{"town":"大字江刈内","koaza":"第十地割","lat":39.966594,"lng":141.223205,"zip":"0284300"},{"town":"大字江刈内","koaza":"第十一地割","lat":39.968013,"lng":141.222651,"zip":"0284300"},{"town":"大字五日市","koaza":"第八地割","lat":39.980361,"lng":141.224125,"zip":"0284300"},{"town":"大字沼宮内","koaza":"第六地割","lat":39.972018,"lng":141.224572,"zip":"0284300"},{"town":"大字沼宮内","koaza":"第八地割","lat":39.974433,"lng":141.22432,"zip":"0284300"},{"town":"大字沼宮内","koaza":"第九地割","lat":39.974632,"lng":141.226481,"zip":"0284300"},{"town":"大字江刈内","koaza":"第十三地割","lat":39.965375,"lng":141.225053,"zip":"0284300"},{"town":"大字沼宮内","koaza":"第十六地割","lat":39.991238,"lng":141.228141,"zip":"0284300"},{"town":"大字沼宮内","koaza":"第十四地割","lat":39.984827,"lng":141.226744,"zip":"0284300"},{"town":"大字沼宮内","koaza":"第十地割","lat":39.975519,"lng":141.226721,"zip":"0284300"},{"town":"大字沼宮内","koaza":"第十一地割","lat":39.976103,"lng":141.229303,"zip":"0284300"},{"town":"大字江刈内","koaza":"第二十六地割","lat":39.949156,"lng":141.238409,"zip":"0284300"},{"town":"大字沼宮内","koaza":"第十三地割","lat":39.985607,"lng":141.228733,"zip":"0284300"},{"town":"大字沼宮内","koaza":"第十二地割","lat":39.985243,"lng":141.233437,"zip":"0284300"},{"town":"大字五日市","koaza":"第五地割","lat":39.997498,"lng":141.231018,"zip":"0284300"},{"town":"大字沼宮内","koaza":"第十五地割","lat":39.99451,"lng":141.231893,"zip":"0284300"},{"town":"大字沼宮内","koaza":"第十七地割","lat":39.997041,"lng":141.232386,"zip":"0284300"},{"town":"大字沼宮内","koaza":"第二地割","lat":39.975316,"lng":141.235553,"zip":"0284300"},{"town":"大字五日市","koaza":"第四地割","lat":40.003181,"lng":141.236468,"zip":"0284300"},{"town":"大字沼宮内","koaza":"第十八地割","lat":39.997755,"lng":141.235172,"zip":"0284300"},{"town":"大字江刈内","koaza":"第十七地割","lat":39.965758,"lng":141.235339,"zip":"0284300"},{"town":"大字江刈内","koaza":"第二十三地割","lat":39.959761,"lng":141.237573,"zip":"0284300"},{"town":"大字江刈内","koaza":"第二十五地割","lat":39.958414,"lng":141.237981,"zip":"0284300"},{"town":"大字沼宮内","koaza":"第一地割","lat":39.982221,"lng":141.243188,"zip":"0284300"},{"town":"大字沼宮内","koaza":"第二十地割","lat":40.004374,"lng":141.238248,"zip":"0284300"},{"town":"大字沼宮内","koaza":"第二十一地割","lat":40.006281,"lng":141.240156,"zip":"0284300"},{"town":"大字沼宮内","koaza":"第二十二地割","lat":40.006686,"lng":141.243456,"zip":"0284300"},{"town":"大字川口","koaza":"第二十地割","lat":39.921398,"lng":141.212626,"zip":"0284300"},{"town":"大字川口","koaza":"第五十地割","lat":39.941571,"lng":141.213533,"zip":"0284300"},{"town":"大字川口","koaza":"第五十一地割","lat":39.938537,"lng":141.211125,"zip":"0284300"},{"town":"大字江刈内","koaza":"第七地割","lat":39.961467,"lng":141.216856,"zip":"0284300"},{"town":"大字江刈内","koaza":"第八地割","lat":39.964618,"lng":141.217488,"zip":"0284300"},{"town":"大字江刈内","koaza":"第十五地割","lat":39.958943,"lng":141.231933,"zip":"0284300"},{"town":"大字江刈内","koaza":"第二十四地割","lat":39.959649,"lng":141.235798,"zip":"0284300"},{"town":"大字江刈内","koaza":"第十六地割","lat":39.961118,"lng":141.232302,"zip":"0284300"},{"town":"大字江刈内","koaza":"第十九地割","lat":39.972021,"lng":141.237226,"zip":"0284300"},{"town":"大字江刈内","koaza":"第十四地割","lat":39.963803,"lng":141.22954,"zip":"0284300"},{"town":"大字江刈内","koaza":"第十二地割","lat":39.963996,"lng":141.230021,"zip":"0284300"},{"town":"大字沼宮内","koaza":"第三地割","lat":39.972585,"lng":141.227587,"zip":"0284300"},{"town":"大字沼宮内","koaza":"第五地割","lat":39.972045,"lng":141.227765,"zip":"0284300"},{"town":"大字沼宮内","koaza":"第三十七地割","lat":39.980998,"lng":141.226546,"zip":"0284300"},{"town":"大字沼宮内","koaza":"第三十八地割","lat":39.981317,"lng":141.228757,"zip":"0284300"},{"town":"大字五日市","koaza":"第六地割","lat":39.984404,"lng":141.225917,"zip":"0284300"},{"town":"大字沼宮内","koaza":"第十九地割","lat":40.004564,"lng":141.239711,"zip":"0284300"},{"town":"大字沼宮内","koaza":"第二十三地割","lat":39.9985,"lng":141.242912,"zip":"0284300"},{"town":"大字坊","koaza":"第一地割","lat":39.970155,"lng":141.17621,"zip":"0284300"},{"town":"大字土川","koaza":"第五地割","lat":39.962543,"lng":141.172607,"zip":"0284300"},{"town":"大字沼宮内","koaza":"第二十五地割","lat":40.00346,"lng":141.248911,"zip":"0284300"}]