[{"town":"穴口","koaza":"","lat":39.743192,"lng":141.107387,"zip":"0200633"},{"town":"一本木","koaza":"","lat":39.833674,"lng":141.122386,"zip":"0200604"},{"town":"岩手山","koaza":"","lat":39.817803,"lng":141.06835,"zip":"0200618"},{"town":"鵜飼安達","koaza":"","lat":39.783579,"lng":141.007763,"zip":"0200685"},{"town":"鵜飼石留","koaza":"","lat":39.727357,"lng":141.097949,"zip":"0200673"},{"town":"鵜飼姥屋敷","koaza":"","lat":39.786033,"lng":141.017306,"zip":"0200681"},{"town":"鵜飼大緩","koaza":"","lat":39.735202,"lng":141.094428,"zip":"0200662"},{"town":"鵜飼鬼越","koaza":"","lat":39.766624,"lng":141.044482,"zip":"0200686"},{"town":"鵜飼御庭田","koaza":"","lat":39.732694,"lng":141.076167,"zip":"0200655"},{"town":"鵜飼家近森","koaza":"","lat":39.737524,"lng":141.074271,"zip":"0200600"},{"town":"鵜飼鰍森","koaza":"","lat":39.736633,"lng":141.073297,"zip":"0200657"},{"town":"鵜飼上高柳","koaza":"","lat":39.729408,"lng":141.090785,"zip":"0200671"},{"town":"鵜飼上山","koaza":"","lat":39.736732,"lng":141.066528,"zip":"0200656"},{"town":"鵜飼上前田","koaza":"","lat":39.740019,"lng":141.071222,"zip":"0200688"},{"town":"鵜飼狐洞","koaza":"","lat":39.737897,"lng":141.088119,"zip":"0200668"},{"town":"鵜飼笹森","koaza":"","lat":39.733338,"lng":141.091041,"zip":"0200664"},{"town":"鵜飼清水沢","koaza":"","lat":39.743423,"lng":141.07189,"zip":"0200658"},{"town":"鵜飼下高柳","koaza":"","lat":39.729046,"lng":141.094205,"zip":"0200672"},{"town":"鵜飼下前田","koaza":"","lat":39.723965,"lng":141.084837,"zip":"0200600"},{"town":"鵜飼白石","koaza":"","lat":39.74145,"lng":141.090057,"zip":"0200661"},{"town":"鵜飼先古川","koaza":"","lat":39.733603,"lng":141.081462,"zip":"0200666"},{"town":"鵜飼外久保","koaza":"","lat":39.7436,"lng":141.075401,"zip":"0200659"},{"town":"鵜飼高坊","koaza":"","lat":39.743037,"lng":141.06216,"zip":"0200600"},{"town":"鵜飼高柳","koaza":"","lat":39.72511,"lng":141.094641,"zip":"0200674"},{"town":"鵜飼滝向","koaza":"","lat":39.727822,"lng":141.077377,"zip":"0200675"},{"town":"鵜飼田端","koaza":"","lat":39.739091,"lng":141.072558,"zip":"0200600"},{"town":"鵜飼樋の口","koaza":"","lat":39.728004,"lng":141.084568,"zip":"0200677"},{"town":"鵜飼洞畑","koaza":"","lat":39.742992,"lng":141.081034,"zip":"0200652"},{"town":"鵜飼年毛","koaza":"","lat":39.727622,"lng":141.088202,"zip":"0200678"},{"town":"鵜飼栃平","koaza":"","lat":39.740534,"lng":141.064197,"zip":"0200600"},{"town":"鵜飼沼森","koaza":"","lat":39.777912,"lng":141.054838,"zip":"0200684"},{"town":"鵜飼迫","koaza":"","lat":39.738271,"lng":141.079398,"zip":"0200653"},{"town":"鵜飼八人打","koaza":"","lat":39.728476,"lng":141.081965,"zip":"0200676"},{"town":"鵜飼花平","koaza":"","lat":39.787053,"lng":141.039603,"zip":"0200683"},{"town":"鵜飼細谷地","koaza":"","lat":39.746358,"lng":141.084486,"zip":"0200651"},{"town":"鵜飼向新田","koaza":"","lat":39.735208,"lng":141.084447,"zip":"0200667"},{"town":"鵜飼諸葛川","koaza":"","lat":39.731998,"lng":141.097559,"zip":"0200663"},{"town":"鵜飼臨安","koaza":"","lat":39.796807,"lng":141.033875,"zip":"0200682"},{"town":"後","koaza":"","lat":39.839043,"lng":141.094179,"zip":"0200601"},{"town":"卯遠坂","koaza":"","lat":39.782234,"lng":141.108898,"zip":"0200615"},{"town":"狼久保","koaza":"","lat":39.786359,"lng":141.136561,"zip":"0200627"},{"town":"大石渡","koaza":"","lat":39.799119,"lng":141.095214,"zip":"0200613"},{"town":"大釜荒屋敷","koaza":"","lat":39.706381,"lng":141.068339,"zip":"0200769"},{"town":"大釜上釜","koaza":"","lat":39.705426,"lng":141.05969,"zip":"0200754"},{"town":"大釜大清水","koaza":"","lat":39.718344,"lng":141.027847,"zip":"0200758"},{"town":"大釜大清水東","koaza":"","lat":39.710886,"lng":141.034275,"zip":"0200600"},{"town":"大釜大畑","koaza":"","lat":39.705634,"lng":141.075025,"zip":"0200763"},{"town":"大釜鬼が滝","koaza":"","lat":39.697586,"lng":141.039104,"zip":"0200776"},{"town":"大釜風林","koaza":"","lat":39.708989,"lng":141.026687,"zip":"0200757"},{"town":"大釜釜口","koaza":"","lat":39.703454,"lng":141.054926,"zip":"0200755"},{"town":"大釜上竹鼻","koaza":"","lat":39.700501,"lng":141.067399,"zip":"0200773"},{"town":"大釜小屋敷","koaza":"","lat":39.702561,"lng":141.065404,"zip":"0200765"},{"town":"大釜塩の森","koaza":"","lat":39.696441,"lng":141.058629,"zip":"0200774"},{"town":"大釜白山","koaza":"","lat":39.709547,"lng":141.054667,"zip":"0200752"},{"town":"大釜千が窪","koaza":"","lat":39.710354,"lng":141.043674,"zip":"0200751"},{"town":"大釜高森","koaza":"","lat":39.703443,"lng":141.04315,"zip":"0200756"},{"town":"大釜竹鼻","koaza":"","lat":39.703062,"lng":141.073693,"zip":"0200771"},{"town":"大釜田の尻","koaza":"","lat":39.707927,"lng":141.068307,"zip":"0200761"},{"town":"大釜土井尻","koaza":"","lat":39.705119,"lng":141.069941,"zip":"0200764"},{"town":"大釜外館","koaza":"","lat":39.707861,"lng":141.07235,"zip":"0200762"},{"town":"大釜中瀬","koaza":"","lat":39.699703,"lng":141.072564,"zip":"0200772"},{"town":"大釜中道","koaza":"","lat":39.701136,"lng":141.054882,"zip":"0200767"},{"town":"大釜仁沢瀬","koaza":"","lat":39.69968,"lng":141.042338,"zip":"0200777"},{"town":"大釜沼袋","koaza":"","lat":39.693756,"lng":141.047244,"zip":"0200775"},{"town":"大釜八幡前","koaza":"","lat":39.702249,"lng":141.060647,"zip":"0200766"},{"town":"大釜細屋","koaza":"","lat":39.708171,"lng":141.064129,"zip":"0200753"},{"town":"大釜吉清水","koaza":"","lat":39.699308,"lng":141.05207,"zip":"0200779"},{"town":"大釜吉水","koaza":"","lat":39.698278,"lng":141.049861,"zip":"0200778"},{"town":"大釜和田","koaza":"","lat":39.70526,"lng":141.064375,"zip":"0200768"},{"town":"大久保","koaza":"","lat":39.743726,"lng":141.094531,"zip":"0200636"},{"town":"大崎","koaza":"","lat":39.81117,"lng":141.147649,"zip":"0200621"},{"town":"大沢内木津沢","koaza":"","lat":39.737023,"lng":141.056651,"zip":"0200600"},{"town":"大沢大久保","koaza":"","lat":39.730993,"lng":141.061919,"zip":"0200600"},{"town":"大沢籠屋敷","koaza":"","lat":39.724051,"lng":141.06755,"zip":"0200701"},{"town":"大沢上鶴子","koaza":"","lat":39.725076,"lng":141.070835,"zip":"0200702"},{"town":"大沢熊が沢","koaza":"","lat":39.731834,"lng":141.06587,"zip":"0200600"},{"town":"大沢熊田","koaza":"","lat":39.728006,"lng":141.068226,"zip":"0200600"},{"town":"大沢小太郎山","koaza":"","lat":39.735621,"lng":141.053063,"zip":"0200600"},{"town":"大沢小谷地","koaza":"","lat":39.716315,"lng":141.075392,"zip":"0200718"},{"town":"大沢五郎沢","koaza":"","lat":39.734604,"lng":141.059058,"zip":"0200600"},{"town":"大沢鷺が沢","koaza":"","lat":39.728223,"lng":141.06646,"zip":"0200600"},{"town":"大沢篠平","koaza":"","lat":39.734499,"lng":141.062236,"zip":"0200600"},{"town":"大沢下屋敷","koaza":"","lat":39.717748,"lng":141.07764,"zip":"0200715"},{"town":"大沢神が窪","koaza":"","lat":39.720685,"lng":141.063326,"zip":"0200600"},{"town":"大沢新道","koaza":"","lat":39.719593,"lng":141.079444,"zip":"0200713"},{"town":"大沢堰合","koaza":"","lat":39.721409,"lng":141.072645,"zip":"0200703"},{"town":"大沢外木津沢","koaza":"","lat":39.738496,"lng":141.056605,"zip":"0200600"},{"town":"大沢高峯","koaza":"","lat":39.739723,"lng":141.059466,"zip":"0200600"},{"town":"大沢館","koaza":"","lat":39.722122,"lng":141.064553,"zip":"0200707"},{"town":"大沢茶臼玉","koaza":"","lat":39.722403,"lng":141.061056,"zip":"0200600"},{"town":"大沢堤平","koaza":"","lat":39.727802,"lng":141.059693,"zip":"0200600"},{"town":"大沢鶴子","koaza":"","lat":39.722758,"lng":141.073324,"zip":"0200719"},{"town":"大沢鳥谷平","koaza":"","lat":39.725874,"lng":141.060602,"zip":"0200600"},{"town":"大沢外山野","koaza":"","lat":39.748323,"lng":141.04072,"zip":"0200709"},{"town":"大沢鳥足形","koaza":"","lat":39.732185,"lng":141.057423,"zip":"0200600"},{"town":"大沢長坪","koaza":"","lat":39.723732,"lng":141.076443,"zip":"0200712"},{"town":"大沢野老平","koaza":"","lat":39.730046,"lng":141.058104,"zip":"0200600"},{"town":"大沢箸木平","koaza":"","lat":39.725944,"lng":141.063871,"zip":"0200708"},{"town":"大沢早坂","koaza":"","lat":39.739035,"lng":141.051725,"zip":"0200600"},{"town":"大沢火石","koaza":"","lat":39.74071,"lng":141.054988,"zip":"0200600"},{"town":"大沢二タ又","koaza":"","lat":39.719145,"lng":141.071111,"zip":"0200705"},{"town":"大沢ブナ平","koaza":"","lat":39.726961,"lng":141.055788,"zip":"0200600"},{"town":"大沢堀切","koaza":"","lat":39.730011,"lng":141.053517,"zip":"0200600"},{"town":"大沢舛村","koaza":"","lat":39.718354,"lng":141.076664,"zip":"0200714"},{"town":"大沢水穴沢","koaza":"","lat":39.744256,"lng":141.051623,"zip":"0200600"},{"town":"大沢弥作畑","koaza":"","lat":39.748113,"lng":141.049079,"zip":"0200710"},{"town":"大沢谷地上","koaza":"","lat":39.724725,"lng":141.074498,"zip":"0200711"},{"town":"大沢谷地中","koaza":"","lat":39.717619,"lng":141.073495,"zip":"0200704"},{"town":"大沢湯の沢","koaza":"","lat":39.732921,"lng":141.054289,"zip":"0200600"},{"town":"大沢四つ谷","koaza":"","lat":39.716154,"lng":141.076768,"zip":"0200600"},{"town":"大沢米倉","koaza":"","lat":39.717242,"lng":141.07582,"zip":"0200716"},{"town":"大沢若松","koaza":"","lat":39.72785,"lng":141.064081,"zip":"0200600"},{"town":"大沢割田","koaza":"","lat":39.721491,"lng":141.068458,"zip":"0200706"},{"town":"大森平","koaza":"","lat":39.830945,"lng":141.103417,"zip":"0200602"},{"town":"加賀内","koaza":"","lat":39.821276,"lng":141.112087,"zip":"0200606"},{"town":"上岩手山","koaza":"","lat":39.81834,"lng":141.038031,"zip":"0200619"},{"town":"上鵜飼","koaza":"","lat":39.749032,"lng":141.06117,"zip":"0200687"},{"town":"上中村","koaza":"","lat":39.791924,"lng":141.113056,"zip":"0200614"},{"town":"黒沢","koaza":"","lat":39.755764,"lng":141.066681,"zip":"0200646"},{"town":"篠木綾織","koaza":"","lat":39.714865,"lng":141.072942,"zip":"0200723"},{"town":"篠木荒屋","koaza":"","lat":39.714221,"lng":141.064301,"zip":"0200726"},{"town":"篠木大寺沢","koaza":"","lat":39.71413,"lng":141.055626,"zip":"0200745"},{"town":"篠木苧桶沢","koaza":"","lat":39.737349,"lng":141.038106,"zip":"0200742"},{"town":"篠木上綾織","koaza":"","lat":39.716372,"lng":141.068709,"zip":"0200722"},{"town":"篠木上篠木","koaza":"","lat":39.717961,"lng":141.063107,"zip":"0200728"},{"town":"篠木上中村","koaza":"","lat":39.721284,"lng":141.041968,"zip":"0200600"},{"town":"篠木草井沢","koaza":"","lat":39.724435,"lng":141.053811,"zip":"0200600"},{"town":"篠木黒畑","koaza":"","lat":39.707601,"lng":141.076034,"zip":"0200735"},{"town":"篠木小谷地","koaza":"","lat":39.713291,"lng":141.076108,"zip":"0200724"},{"town":"篠木参郷","koaza":"","lat":39.711179,"lng":141.069063,"zip":"0200736"},{"town":"篠木参郷の森","koaza":"","lat":39.712024,"lng":141.065283,"zip":"0200738"},{"town":"篠木外山","koaza":"","lat":39.726749,"lng":141.044432,"zip":"0200743"},{"town":"篠木館が沢","koaza":"","lat":39.716475,"lng":141.057462,"zip":"0200744"},{"town":"篠木中将","koaza":"","lat":39.718942,"lng":141.046759,"zip":"0200600"},{"town":"篠木堤","koaza":"","lat":39.710426,"lng":141.06407,"zip":"0200737"},{"town":"篠木堤平","koaza":"","lat":39.719792,"lng":141.057007,"zip":"0200600"},{"town":"篠木寺沢","koaza":"","lat":39.712541,"lng":141.059838,"zip":"0200600"},{"town":"篠木砥石沢","koaza":"","lat":39.718563,"lng":141.052024,"zip":"0200600"},{"town":"篠木樋の口","koaza":"","lat":39.711522,"lng":141.0769,"zip":"0200732"},{"town":"篠木鳥谷平","koaza":"","lat":39.716487,"lng":141.062086,"zip":"0200727"},{"town":"篠木長沢","koaza":"","lat":39.731938,"lng":141.041552,"zip":"0200600"},{"town":"篠木中鼻","koaza":"","lat":39.715493,"lng":141.059156,"zip":"0200600"},{"town":"篠木中村","koaza":"","lat":39.717697,"lng":141.06831,"zip":"0200721"},{"town":"篠木中屋敷","koaza":"","lat":39.714232,"lng":141.067614,"zip":"0200725"},{"town":"篠木仁沢瀬","koaza":"","lat":39.729939,"lng":141.021593,"zip":"0200746"},{"town":"篠木一つ森","koaza":"","lat":39.721233,"lng":141.052026,"zip":"0200600"},{"town":"篠木宝竜平","koaza":"","lat":39.722675,"lng":141.058415,"zip":"0200600"},{"town":"篠木待場","koaza":"","lat":39.708225,"lng":141.07791,"zip":"0200733"},{"town":"篠木水上沢","koaza":"","lat":39.715806,"lng":141.053214,"zip":"0200600"},{"town":"篠木明法","koaza":"","lat":39.712342,"lng":141.072795,"zip":"0200731"},{"town":"篠木矢取森","koaza":"","lat":39.74671,"lng":141.028272,"zip":"0200741"},{"town":"下鵜飼","koaza":"","lat":39.731793,"lng":141.078399,"zip":"0200665"},{"town":"新田","koaza":"","lat":39.775103,"lng":141.161082,"zip":"0200600"},{"town":"巣子","koaza":"","lat":39.774961,"lng":141.126215,"zip":"0200611"},{"town":"砂込","koaza":"","lat":39.815255,"lng":141.12733,"zip":"0200605"},{"town":"外山","koaza":"","lat":39.762629,"lng":141.087554,"zip":"0200643"},{"town":"高屋敷","koaza":"","lat":39.74963,"lng":141.084728,"zip":"0200645"},{"town":"高屋敷平","koaza":"","lat":39.747504,"lng":141.094969,"zip":"0200637"},{"town":"長太郎林","koaza":"","lat":39.825445,"lng":141.106976,"zip":"0200608"},{"town":"土沢","koaza":"","lat":39.750077,"lng":141.099047,"zip":"0200638"},{"town":"木賊川","koaza":"","lat":39.775339,"lng":141.112855,"zip":"0200616"},{"town":"留が森","koaza":"","lat":39.838689,"lng":141.119183,"zip":"0200603"},{"town":"中鵜飼","koaza":"","lat":39.735422,"lng":141.076272,"zip":"0200654"},{"town":"中村","koaza":"","lat":39.757889,"lng":141.098253,"zip":"0200642"},{"town":"楢の木沢","koaza":"","lat":39.782792,"lng":141.160908,"zip":"0200623"},{"town":"祢宜屋敷","koaza":"","lat":39.762464,"lng":141.099207,"zip":"0200641"},{"town":"根堀坂","koaza":"","lat":39.763536,"lng":141.104101,"zip":"0200631"},{"town":"野沢","koaza":"","lat":39.792869,"lng":141.15399,"zip":"0200622"},{"town":"葉の木沢山","koaza":"","lat":39.775802,"lng":141.140695,"zip":"0200625"},{"town":"平蔵沢","koaza":"","lat":39.762215,"lng":141.073222,"zip":"0200644"},{"town":"牧野林","koaza":"","lat":39.756151,"lng":141.106986,"zip":"0200632"},{"town":"末代窪","koaza":"","lat":39.776488,"lng":141.160218,"zip":"0200600"},{"town":"松屋敷","koaza":"","lat":39.770874,"lng":141.156434,"zip":"0200600"},{"town":"耳取山","koaza":"","lat":39.74533,"lng":141.099193,"zip":"0200635"},{"town":"明神平","koaza":"","lat":39.770119,"lng":141.131442,"zip":"0200626"},{"town":"室小路","koaza":"","lat":39.738025,"lng":141.098816,"zip":"0200634"},{"town":"柳沢","koaza":"","lat":39.811514,"lng":141.092543,"zip":"0200612"},{"town":"柳原","koaza":"","lat":39.829621,"lng":141.107792,"zip":"0200609"},{"town":"簗平","koaza":"","lat":39.800465,"lng":141.162553,"zip":"0200600"},{"town":"弥兵エ林","koaza":"","lat":39.825382,"lng":141.114766,"zip":"0200607"},{"town":"湯舟沢","koaza":"","lat":39.780427,"lng":141.091284,"zip":"0200617"},{"town":"妻の神","koaza":"","lat":39.776107,"lng":141.151474,"zip":"0200624"}]