[{"town":"青山一丁目","koaza":"","lat":39.721677,"lng":141.11318,"zip":"0200133"},{"town":"青山二丁目","koaza":"","lat":39.724726,"lng":141.114235,"zip":"0200133"},{"town":"青山三丁目","koaza":"","lat":39.727935,"lng":141.115068,"zip":"0200133"},{"town":"青山四丁目","koaza":"","lat":39.73147,"lng":141.116478,"zip":"0200133"},{"town":"浅岸","koaza":"","lat":39.737119,"lng":141.279988,"zip":"0200801"},{"town":"浅岸一丁目","koaza":"","lat":39.711972,"lng":141.175691,"zip":"0200801"},{"town":"浅岸二丁目","koaza":"","lat":39.713971,"lng":141.175206,"zip":"0200801"},{"town":"浅岸三丁目","koaza":"","lat":39.712412,"lng":141.181911,"zip":"0200801"},{"town":"愛宕下","koaza":"","lat":39.713089,"lng":141.161136,"zip":"0200014"},{"town":"愛宕町","koaza":"","lat":39.709894,"lng":141.159483,"zip":"0200013"},{"town":"安倍館町","koaza":"","lat":39.719547,"lng":141.125885,"zip":"0200126"},{"town":"飯岡新田","koaza":"","lat":39.665898,"lng":141.137034,"zip":"0200852"},{"town":"砂子沢","koaza":"","lat":39.597886,"lng":141.354936,"zip":"0200312"},{"town":"猪去一本木","koaza":"","lat":39.684935,"lng":141.075894,"zip":"0200000"},{"town":"猪去大橋","koaza":"","lat":39.683318,"lng":141.072521,"zip":"0200000"},{"town":"猪去大道","koaza":"","lat":39.681861,"lng":141.068749,"zip":"0200000"},{"town":"猪去三枚橋","koaza":"","lat":39.688983,"lng":141.065954,"zip":"0200000"},{"town":"猪去外久保","koaza":"","lat":39.687634,"lng":141.070611,"zip":"0200000"},{"town":"猪去早俄上","koaza":"","lat":39.689118,"lng":141.060752,"zip":"0200000"},{"town":"猪去畑中","koaza":"","lat":39.680579,"lng":141.066259,"zip":"0200000"},{"town":"猪去藤松","koaza":"","lat":39.684659,"lng":141.068221,"zip":"0200000"},{"town":"猪去的場","koaza":"","lat":39.68556,"lng":141.070708,"zip":"0200000"},{"town":"猪去米倉","koaza":"","lat":39.689993,"lng":141.070032,"zip":"0200000"},{"town":"稲荷町","koaza":"","lat":39.709886,"lng":141.112861,"zip":"0200142"},{"town":"岩清水","koaza":"","lat":39.720807,"lng":141.161748,"zip":"0200012"},{"town":"岩脇町","koaza":"","lat":39.745174,"lng":141.146069,"zip":"0200101"},{"town":"上田一丁目","koaza":"","lat":39.712485,"lng":141.144908,"zip":"0200066"},{"town":"上田二丁目","koaza":"","lat":39.716717,"lng":141.144243,"zip":"0200066"},{"town":"上田三丁目","koaza":"","lat":39.715821,"lng":141.137737,"zip":"0200066"},{"town":"上田四丁目","koaza":"","lat":39.720761,"lng":141.135009,"zip":"0200066"},{"town":"上田堤一丁目","koaza":"","lat":39.730044,"lng":141.149385,"zip":"0200113"},{"town":"上田堤二丁目","koaza":"","lat":39.728446,"lng":141.152116,"zip":"0200113"},{"town":"内丸","koaza":"","lat":39.701902,"lng":141.152504,"zip":"0200023"},{"town":"大ケ生","koaza":"","lat":39.613245,"lng":141.258942,"zip":"0200404"},{"town":"大沢川原一丁目","koaza":"","lat":39.699262,"lng":141.147112,"zip":"0200025"},{"town":"大沢川原二丁目","koaza":"","lat":39.699377,"lng":141.144404,"zip":"0200025"},{"town":"大沢川原三丁目","koaza":"","lat":39.700059,"lng":141.142323,"zip":"0200025"},{"town":"大館町","koaza":"","lat":39.714566,"lng":141.11059,"zip":"0200147"},{"town":"大通一丁目","koaza":"","lat":39.702454,"lng":141.148611,"zip":"0200022"},{"town":"大通二丁目","koaza":"","lat":39.703128,"lng":141.145906,"zip":"0200022"},{"town":"大通三丁目","koaza":"","lat":39.703933,"lng":141.141276,"zip":"0200022"},{"town":"乙部","koaza":"","lat":39.61546,"lng":141.208087,"zip":"0200403"},{"town":"開運橋通","koaza":"","lat":39.701997,"lng":141.142841,"zip":"0200026"},{"town":"加賀野","koaza":"","lat":39.704826,"lng":141.182517,"zip":"0200807"},{"town":"加賀野一丁目","koaza":"","lat":39.706983,"lng":141.16142,"zip":"0200807"},{"town":"加賀野二丁目","koaza":"","lat":39.706743,"lng":141.165439,"zip":"0200807"},{"town":"加賀野三丁目","koaza":"","lat":39.706239,"lng":141.168499,"zip":"0200807"},{"town":"加賀野四丁目","koaza":"","lat":39.710095,"lng":141.167052,"zip":"0200807"},{"town":"門","koaza":"","lat":39.669513,"lng":141.180286,"zip":"0200823"},{"town":"門一丁目","koaza":"","lat":39.671214,"lng":141.170232,"zip":"0200823"},{"town":"門二丁目","koaza":"","lat":39.664992,"lng":141.172549,"zip":"0200823"},{"town":"上太田穴口","koaza":"","lat":39.690582,"lng":141.057125,"zip":"0200000"},{"town":"上太田神子塚","koaza":"","lat":39.697079,"lng":141.089585,"zip":"0200000"},{"town":"上太田上瀬","koaza":"","lat":39.692106,"lng":141.055702,"zip":"0200000"},{"town":"上太田上ノ野","koaza":"","lat":39.691312,"lng":141.089402,"zip":"0200000"},{"town":"上太田上ノ畑","koaza":"","lat":39.687628,"lng":141.09138,"zip":"0200000"},{"town":"上太田上野屋敷","koaza":"","lat":39.693786,"lng":141.096118,"zip":"0200000"},{"town":"上太田犾森","koaza":"","lat":39.690148,"lng":141.077689,"zip":"0200000"},{"town":"上太田大堀","koaza":"","lat":39.692231,"lng":141.071989,"zip":"0200000"},{"town":"上太田金財","koaza":"","lat":39.692667,"lng":141.090379,"zip":"0200000"},{"town":"上太田上犾森","koaza":"","lat":39.690532,"lng":141.07131,"zip":"0200000"},{"town":"上太田上田中","koaza":"","lat":39.694769,"lng":141.088349,"zip":"0200000"},{"town":"上太田上吉本","koaza":"","lat":39.689108,"lng":141.082357,"zip":"0200000"},{"town":"上太田川後","koaza":"","lat":39.698136,"lng":141.091693,"zip":"0200000"},{"town":"上太田川原","koaza":"","lat":39.701413,"lng":141.090292,"zip":"0200000"},{"town":"上太田北田","koaza":"","lat":39.696588,"lng":141.098956,"zip":"0200000"},{"town":"上太田窪屋敷","koaza":"","lat":39.688533,"lng":141.086626,"zip":"0200000"},{"town":"上太田弘法清水","koaza":"","lat":39.692613,"lng":141.093323,"zip":"0200000"},{"town":"上太田三枚橋","koaza":"","lat":39.692006,"lng":141.06424,"zip":"0200000"},{"town":"上太田清水田","koaza":"","lat":39.693795,"lng":141.089303,"zip":"0200000"},{"town":"上太田下法丁","koaza":"","lat":39.691794,"lng":141.094701,"zip":"0200000"},{"town":"上太田下川戸","koaza":"","lat":39.694887,"lng":141.085923,"zip":"0200000"},{"town":"上太田下川原","koaza":"","lat":39.703642,"lng":141.099403,"zip":"0200000"},{"town":"上太田下中屋敷","koaza":"","lat":39.701186,"lng":141.096092,"zip":"0200000"},{"town":"上太田関端","koaza":"","lat":39.688758,"lng":141.093372,"zip":"0200000"},{"town":"上太田蔵戸","koaza":"","lat":39.702475,"lng":141.101629,"zip":"0200000"},{"town":"上太田蔵戸前","koaza":"","lat":39.699835,"lng":141.102556,"zip":"0200000"},{"town":"上太田舘","koaza":"","lat":39.69496,"lng":141.094354,"zip":"0200000"},{"town":"上太田田中","koaza":"","lat":39.695078,"lng":141.090645,"zip":"0200000"},{"town":"上太田田中留","koaza":"","lat":39.69448,"lng":141.065812,"zip":"0200000"},{"town":"上太田田屋","koaza":"","lat":39.694996,"lng":141.084028,"zip":"0200000"},{"town":"上太田樋ノ口","koaza":"","lat":39.695524,"lng":141.076287,"zip":"0200000"},{"town":"上太田中瀬","koaza":"","lat":39.695943,"lng":141.063646,"zip":"0200000"},{"town":"上太田中関","koaza":"","lat":39.685399,"lng":141.089204,"zip":"0200000"},{"town":"上太田中屋敷","koaza":"","lat":39.692556,"lng":141.076581,"zip":"0200000"},{"town":"上太田沼舘","koaza":"","lat":39.696315,"lng":141.081542,"zip":"0200000"},{"town":"上太田畑中","koaza":"","lat":39.690275,"lng":141.095195,"zip":"0200000"},{"town":"上太田半在家","koaza":"","lat":39.698075,"lng":141.093839,"zip":"0200000"},{"town":"上太田細田","koaza":"","lat":39.69636,"lng":141.08736,"zip":"0200000"},{"town":"上太田松ノ木","koaza":"","lat":39.69586,"lng":141.093577,"zip":"0200000"},{"town":"上太田森合","koaza":"","lat":39.689033,"lng":141.075934,"zip":"0200000"},{"town":"上太田痩野","koaza":"","lat":39.69355,"lng":141.085024,"zip":"0200000"},{"town":"上太田八千刈","koaza":"","lat":39.694468,"lng":141.096566,"zip":"0200000"},{"town":"上太田八ツ口","koaza":"","lat":39.698321,"lng":141.099218,"zip":"0200000"},{"town":"上太田吉本","koaza":"","lat":39.687184,"lng":141.08433,"zip":"0200000"},{"town":"上太田四ツ家","koaza":"","lat":39.685463,"lng":141.085519,"zip":"0200000"},{"town":"上太田上村","koaza":"","lat":39.690457,"lng":141.093081,"zip":"0200000"},{"town":"上鹿妻五兵エ新田","koaza":"","lat":39.684516,"lng":141.096992,"zip":"0200000"},{"town":"上鹿妻清水田","koaza":"","lat":39.683917,"lng":141.089064,"zip":"0200000"},{"town":"上鹿妻田貝","koaza":"","lat":39.682006,"lng":141.104323,"zip":"0200000"},{"town":"上鹿妻竹鼻","koaza":"","lat":39.680486,"lng":141.094369,"zip":"0200000"},{"town":"上鹿妻竹花前","koaza":"","lat":39.681476,"lng":141.098572,"zip":"0200000"},{"town":"上鹿妻寺地","koaza":"","lat":39.67915,"lng":141.095055,"zip":"0200000"},{"town":"上鹿妻中島","koaza":"","lat":39.683341,"lng":141.09282,"zip":"0200000"},{"town":"上鹿妻茂吉","koaza":"","lat":39.679565,"lng":141.102237,"zip":"0200000"},{"town":"上鹿妻與市新田","koaza":"","lat":39.684492,"lng":141.093922,"zip":"0200000"},{"town":"上鹿妻夜鷹","koaza":"","lat":39.679427,"lng":141.098273,"zip":"0200000"},{"town":"上厨川","koaza":"","lat":39.709615,"lng":141.092856,"zip":"0200143"},{"town":"上堂一丁目","koaza":"","lat":39.724698,"lng":141.1204,"zip":"0200125"},{"town":"上堂二丁目","koaza":"","lat":39.727062,"lng":141.120835,"zip":"0200125"},{"town":"上堂三丁目","koaza":"","lat":39.728064,"lng":141.126804,"zip":"0200125"},{"town":"上堂四丁目","koaza":"","lat":39.732968,"lng":141.124911,"zip":"0200125"},{"town":"上ノ橋町","koaza":"","lat":39.705067,"lng":141.159367,"zip":"0200887"},{"town":"上米内","koaza":"","lat":39.751469,"lng":141.222297,"zip":"0200001"},{"town":"川目","koaza":"","lat":39.674327,"lng":141.227758,"zip":"0200812"},{"town":"川目町","koaza":"","lat":39.683235,"lng":141.182648,"zip":"0200811"},{"town":"北飯岡一丁目","koaza":"","lat":39.678936,"lng":141.132141,"zip":"0200857"},{"town":"北飯岡二丁目","koaza":"","lat":39.674954,"lng":141.131763,"zip":"0200857"},{"town":"北飯岡三丁目","koaza":"","lat":39.670332,"lng":141.13658,"zip":"0200857"},{"town":"北飯岡四丁目","koaza":"","lat":39.670401,"lng":141.133466,"zip":"0200857"},{"town":"北天昌寺町","koaza":"","lat":39.712338,"lng":141.117108,"zip":"0200136"},{"town":"北松園一丁目","koaza":"","lat":39.756155,"lng":141.17273,"zip":"0200105"},{"town":"北松園二丁目","koaza":"","lat":39.760705,"lng":141.171498,"zip":"0200105"},{"town":"北松園三丁目","koaza":"","lat":39.761846,"lng":141.168141,"zip":"0200105"},{"town":"北松園四丁目","koaza":"","lat":39.761847,"lng":141.176487,"zip":"0200105"},{"town":"北山一丁目","koaza":"","lat":39.713919,"lng":141.152181,"zip":"0200061"},{"town":"北山二丁目","koaza":"","lat":39.717256,"lng":141.149982,"zip":"0200061"},{"town":"北夕顔瀬町","koaza":"","lat":39.710085,"lng":141.128772,"zip":"0200031"},{"town":"厨川一丁目","koaza":"","lat":39.742266,"lng":141.128667,"zip":"0200124"},{"town":"厨川二丁目","koaza":"","lat":39.739974,"lng":141.130907,"zip":"0200124"},{"town":"厨川三丁目","koaza":"","lat":39.750637,"lng":141.13378,"zip":"0200124"},{"town":"厨川四丁目","koaza":"","lat":39.750816,"lng":141.131017,"zip":"0200124"},{"town":"厨川五丁目","koaza":"","lat":39.752996,"lng":141.131896,"zip":"0200124"},{"town":"黒石野一丁目","koaza":"","lat":39.741326,"lng":141.14978,"zip":"0200111"},{"town":"黒石野二丁目","koaza":"","lat":39.741662,"lng":141.144598,"zip":"0200111"},{"town":"黒石野三丁目","koaza":"","lat":39.742182,"lng":141.140345,"zip":"0200111"},{"town":"黒川","koaza":"","lat":39.636977,"lng":141.219525,"zip":"0200402"},{"town":"小杉山","koaza":"","lat":39.697757,"lng":141.170157,"zip":"0200815"},{"town":"小鳥沢一丁目","koaza":"","lat":39.763995,"lng":141.166296,"zip":"0200104"},{"town":"小鳥沢二丁目","koaza":"","lat":39.766454,"lng":141.170743,"zip":"0200104"},{"town":"紺屋町","koaza":"","lat":39.703065,"lng":141.156525,"zip":"0200885"},{"town":"菜園一丁目","koaza":"","lat":39.700925,"lng":141.148035,"zip":"0200024"},{"town":"菜園二丁目","koaza":"","lat":39.701631,"lng":141.145383,"zip":"0200024"},{"town":"材木町","koaza":"","lat":39.707195,"lng":141.13756,"zip":"0200063"},{"town":"境田町","koaza":"","lat":39.707688,"lng":141.125095,"zip":"0200041"},{"town":"肴町","koaza":"","lat":39.697775,"lng":141.153892,"zip":"0200878"},{"town":"桜台一丁目","koaza":"","lat":39.753813,"lng":141.192495,"zip":"0200002"},{"town":"桜台二丁目","koaza":"","lat":39.749929,"lng":141.199129,"zip":"0200002"},{"town":"桜台三丁目","koaza":"","lat":39.74617,"lng":141.197048,"zip":"0200002"},{"town":"山王町","koaza":"","lat":39.698401,"lng":141.16592,"zip":"0200821"},{"town":"三本柳","koaza":"","lat":39.656741,"lng":141.170502,"zip":"0200831"},{"town":"志家町","koaza":"","lat":39.699691,"lng":141.161514,"zip":"0200883"},{"town":"清水町","koaza":"","lat":39.695388,"lng":141.150603,"zip":"0200875"},{"town":"下飯岡","koaza":"","lat":39.666461,"lng":141.123569,"zip":"0200853"},{"town":"下太田榊","koaza":"","lat":39.696668,"lng":141.116342,"zip":"0200000"},{"town":"下太田沢田","koaza":"","lat":39.697497,"lng":141.112407,"zip":"0200000"},{"town":"下太田下川原","koaza":"","lat":39.699673,"lng":141.119069,"zip":"0200000"},{"town":"下太田新堰端","koaza":"","lat":39.683371,"lng":141.107847,"zip":"0200000"},{"town":"下太田新田","koaza":"","lat":39.696806,"lng":141.125238,"zip":"0200000"},{"town":"下太田杉田","koaza":"","lat":39.691246,"lng":141.117683,"zip":"0200000"},{"town":"下太田田中","koaza":"","lat":39.694147,"lng":141.113391,"zip":"0200000"},{"town":"下太田田端","koaza":"","lat":39.691453,"lng":141.112765,"zip":"0200000"},{"town":"下太田方八丁","koaza":"","lat":39.685443,"lng":141.107847,"zip":"0200000"},{"town":"下太田宮田","koaza":"","lat":39.68976,"lng":141.10977,"zip":"0200000"},{"town":"下鹿妻","koaza":"","lat":39.677205,"lng":141.115657,"zip":"0200856"},{"town":"下厨川","koaza":"","lat":39.760159,"lng":141.135832,"zip":"0200123"},{"town":"下ノ橋町","koaza":"","lat":39.697483,"lng":141.149995,"zip":"0200877"},{"town":"下米内","koaza":"","lat":39.725762,"lng":141.188198,"zip":"0200003"},{"town":"下米内一丁目","koaza":"","lat":39.715495,"lng":141.177406,"zip":"0200003"},{"town":"下米内二丁目","koaza":"","lat":39.717226,"lng":141.177855,"zip":"0200003"},{"town":"城西町","koaza":"","lat":39.704997,"lng":141.125885,"zip":"0200044"},{"town":"新庄","koaza":"","lat":39.704037,"lng":141.329239,"zip":"0200803"},{"town":"新庄町","koaza":"","lat":39.702118,"lng":141.168129,"zip":"0200806"},{"town":"新田町","koaza":"","lat":39.705968,"lng":141.129262,"zip":"0200042"},{"town":"神明町","koaza":"","lat":39.700977,"lng":141.158894,"zip":"0200884"},{"town":"住吉町","koaza":"","lat":39.701861,"lng":141.164069,"zip":"0200882"},{"town":"前九年一丁目","koaza":"","lat":39.713656,"lng":141.127816,"zip":"0200127"},{"town":"前九年二丁目","koaza":"","lat":39.715196,"lng":141.124881,"zip":"0200127"},{"town":"前九年三丁目","koaza":"","lat":39.720172,"lng":141.120385,"zip":"0200127"},{"town":"仙北一丁目","koaza":"","lat":39.690685,"lng":141.149084,"zip":"0200861"},{"town":"仙北二丁目","koaza":"","lat":39.686862,"lng":141.150959,"zip":"0200861"},{"town":"仙北三丁目","koaza":"","lat":39.681412,"lng":141.15125,"zip":"0200861"},{"town":"仙北町","koaza":"","lat":39.692943,"lng":141.139478,"zip":"0200865"},{"town":"大慈寺町","koaza":"","lat":39.693867,"lng":141.157762,"zip":"0200828"},{"town":"大新町","koaza":"","lat":39.715692,"lng":141.11667,"zip":"0200135"},{"town":"高崩","koaza":"","lat":39.685698,"lng":141.163448,"zip":"0200825"},{"town":"高松一丁目","koaza":"","lat":39.722429,"lng":141.142214,"zip":"0200114"},{"town":"高松二丁目","koaza":"","lat":39.723856,"lng":141.134823,"zip":"0200114"},{"town":"高松三丁目","koaza":"","lat":39.726992,"lng":141.142395,"zip":"0200114"},{"town":"高松四丁目","koaza":"","lat":39.728781,"lng":141.135535,"zip":"0200114"},{"town":"館向町","koaza":"","lat":39.719955,"lng":141.129598,"zip":"0200115"},{"town":"芋田","koaza":"","lat":39.864613,"lng":141.187198,"zip":"0284131"},{"town":"上田","koaza":"","lat":39.775491,"lng":141.174078,"zip":"0200066"},{"town":"川崎","koaza":"","lat":39.857925,"lng":141.164298,"zip":"0284135"},{"town":"川又","koaza":"","lat":39.786492,"lng":141.209156,"zip":"0200203"},{"town":"好摩","koaza":"","lat":39.883543,"lng":141.174096,"zip":"0284125"},{"town":"渋民","koaza":"","lat":39.84366,"lng":141.182201,"zip":"0284132"},{"town":"下田","koaza":"","lat":39.853952,"lng":141.13639,"zip":"0284134"},{"town":"玉山","koaza":"","lat":39.824485,"lng":141.214556,"zip":"0200202"},{"town":"寺林","koaza":"","lat":39.899014,"lng":141.208133,"zip":"0284122"},{"town":"玉山永井","koaza":"","lat":39.911491,"lng":141.180811,"zip":"0284121"},{"town":"玉山馬場","koaza":"","lat":39.860641,"lng":141.251324,"zip":"0284124"},{"town":"日戸","koaza":"","lat":39.803492,"lng":141.239568,"zip":"0200201"},{"town":"巻堀","koaza":"","lat":39.886611,"lng":141.215718,"zip":"0284123"},{"town":"松内","koaza":"","lat":39.88646,"lng":141.147969,"zip":"0284136"},{"town":"門前寺","koaza":"","lat":39.815211,"lng":141.163465,"zip":"0284133"},{"town":"薮川","koaza":"","lat":39.818087,"lng":141.390724,"zip":"0282711"},{"town":"茶畑一丁目","koaza":"","lat":39.693698,"lng":141.164866,"zip":"0200822"},{"town":"茶畑二丁目","koaza":"","lat":39.691424,"lng":141.163184,"zip":"0200822"},{"town":"中央通一丁目","koaza":"","lat":39.704882,"lng":141.148947,"zip":"0200021"},{"town":"中央通二丁目","koaza":"","lat":39.705355,"lng":141.14543,"zip":"0200021"},{"town":"中央通三丁目","koaza":"","lat":39.705872,"lng":141.142371,"zip":"0200021"},{"town":"月が丘一丁目","koaza":"","lat":39.732004,"lng":141.111318,"zip":"0200121"},{"town":"月が丘二丁目","koaza":"","lat":39.731906,"lng":141.105776,"zip":"0200121"},{"town":"月が丘三丁目","koaza":"","lat":39.737421,"lng":141.108104,"zip":"0200121"},{"town":"津志田","koaza":"","lat":39.664732,"lng":141.145595,"zip":"0200835"},{"town":"津志田中央一丁目","koaza":"","lat":39.663413,"lng":141.156546,"zip":"0200838"},{"town":"津志田中央二丁目","koaza":"","lat":39.661085,"lng":141.157327,"zip":"0200838"},{"town":"津志田中央三丁目","koaza":"","lat":39.662427,"lng":141.151967,"zip":"0200838"},{"town":"津志田町一丁目","koaza":"","lat":39.669504,"lng":141.155095,"zip":"0200837"},{"town":"津志田町二丁目","koaza":"","lat":39.665311,"lng":141.156323,"zip":"0200837"},{"town":"津志田町三丁目","koaza":"","lat":39.66592,"lng":141.152739,"zip":"0200837"},{"town":"津志田西一丁目","koaza":"","lat":39.668632,"lng":141.150371,"zip":"0200836"},{"town":"津志田西二丁目","koaza":"","lat":39.662994,"lng":141.148824,"zip":"0200836"},{"town":"津志田南一丁目","koaza":"","lat":39.658941,"lng":141.159991,"zip":"0200839"},{"town":"津志田南二丁目","koaza":"","lat":39.658502,"lng":141.156285,"zip":"0200839"},{"town":"津志田南三丁目","koaza":"","lat":39.658828,"lng":141.151364,"zip":"0200839"},{"town":"土淵","koaza":"","lat":39.720977,"lng":141.082893,"zip":"0200144"},{"town":"つつじが丘","koaza":"","lat":39.708644,"lng":141.181123,"zip":"0200802"},{"town":"繋","koaza":"","lat":39.674577,"lng":141.02193,"zip":"0200055"},{"town":"手代森","koaza":"","lat":39.650499,"lng":141.2124,"zip":"0200401"},{"town":"天昌寺町","koaza":"","lat":39.710953,"lng":141.121792,"zip":"0200137"},{"town":"天神町","koaza":"","lat":39.704032,"lng":141.165563,"zip":"0200881"},{"town":"永井","koaza":"","lat":39.651182,"lng":141.146489,"zip":"0200834"},{"town":"中太田泉田","koaza":"","lat":39.69934,"lng":141.109199,"zip":"0200000"},{"town":"中太田官台","koaza":"","lat":39.695104,"lng":141.10127,"zip":"0200000"},{"town":"中太田北太田","koaza":"","lat":39.700768,"lng":141.106725,"zip":"0200000"},{"town":"中太田小沼","koaza":"","lat":39.690624,"lng":141.099889,"zip":"0200000"},{"town":"中太田新田","koaza":"","lat":39.704038,"lng":141.108692,"zip":"0200000"},{"town":"中太田八卦","koaza":"","lat":39.698051,"lng":141.104906,"zip":"0200000"},{"town":"中太田深持","koaza":"","lat":39.692662,"lng":141.101141,"zip":"0200000"},{"town":"中太田法丁","koaza":"","lat":39.687343,"lng":141.098012,"zip":"0200000"},{"town":"中太田方八丁","koaza":"","lat":39.685754,"lng":141.102706,"zip":"0200000"},{"town":"中太田屋敷田","koaza":"","lat":39.695288,"lng":141.107619,"zip":"0200000"},{"town":"中太田吉原","koaza":"","lat":39.690278,"lng":141.104002,"zip":"0200000"},{"town":"長田町","koaza":"","lat":39.708254,"lng":141.140268,"zip":"0200062"},{"town":"中堤町","koaza":"","lat":39.719235,"lng":141.105605,"zip":"0200131"},{"town":"中野一丁目","koaza":"","lat":39.693402,"lng":141.169166,"zip":"0200816"},{"town":"中野二丁目","koaza":"","lat":39.690924,"lng":141.167453,"zip":"0200816"},{"town":"中ノ橋通一丁目","koaza":"","lat":39.699787,"lng":141.155853,"zip":"0200871"},{"town":"中ノ橋通二丁目","koaza":"","lat":39.697819,"lng":141.160392,"zip":"0200871"},{"town":"長橋町","koaza":"","lat":39.71772,"lng":141.100918,"zip":"0200146"},{"town":"中屋敷町","koaza":"","lat":39.707271,"lng":141.12068,"zip":"0200141"},{"town":"梨木町","koaza":"","lat":39.710089,"lng":141.135968,"zip":"0200064"},{"town":"名須川町","koaza":"","lat":39.711398,"lng":141.15297,"zip":"0200016"},{"town":"鉈屋町","koaza":"","lat":39.691623,"lng":141.157729,"zip":"0200827"},{"town":"西青山一丁目","koaza":"","lat":39.722172,"lng":141.107571,"zip":"0200132"},{"town":"西青山二丁目","koaza":"","lat":39.72725,"lng":141.107759,"zip":"0200132"},{"town":"西青山三丁目","koaza":"","lat":39.726429,"lng":141.101884,"zip":"0200132"},{"town":"西下台町","koaza":"","lat":39.714248,"lng":141.132127,"zip":"0200065"},{"town":"西仙北一丁目","koaza":"","lat":39.689121,"lng":141.145884,"zip":"0200864"},{"town":"西仙北二丁目","koaza":"","lat":39.68245,"lng":141.1473,"zip":"0200864"},{"town":"西松園一丁目","koaza":"","lat":39.751564,"lng":141.155093,"zip":"0200103"},{"town":"西松園二丁目","koaza":"","lat":39.752509,"lng":141.159228,"zip":"0200103"},{"town":"西松園三丁目","koaza":"","lat":39.755257,"lng":141.159866,"zip":"0200103"},{"town":"西松園四丁目","koaza":"","lat":39.757788,"lng":141.159314,"zip":"0200103"},{"town":"西見前","koaza":"","lat":39.640998,"lng":141.157157,"zip":"0200833"},{"town":"根田茂","koaza":"","lat":39.629159,"lng":141.296281,"zip":"0200313"},{"town":"箱清水一丁目","koaza":"","lat":39.734734,"lng":141.133513,"zip":"0200116"},{"town":"箱清水二丁目","koaza":"","lat":39.734492,"lng":141.129159,"zip":"0200116"},{"town":"八幡町","koaza":"","lat":39.696365,"lng":141.163254,"zip":"0200872"},{"town":"羽場","koaza":"","lat":39.655775,"lng":141.10802,"zip":"0200841"},{"town":"馬場町","koaza":"","lat":39.696651,"lng":141.146042,"zip":"0200876"},{"town":"東安庭","koaza":"","lat":39.67877,"lng":141.173568,"zip":"0200824"},{"town":"東安庭一丁目","koaza":"","lat":39.681402,"lng":141.165576,"zip":"0200824"},{"town":"東安庭二丁目","koaza":"","lat":39.677926,"lng":141.163677,"zip":"0200824"},{"town":"東安庭三丁目","koaza":"","lat":39.678032,"lng":141.166914,"zip":"0200824"},{"town":"東黒石野一丁目","koaza":"","lat":39.745647,"lng":141.151848,"zip":"0200108"},{"town":"東黒石野二丁目","koaza":"","lat":39.747639,"lng":141.15341,"zip":"0200108"},{"town":"東黒石野三丁目","koaza":"","lat":39.747635,"lng":141.157531,"zip":"0200108"},{"town":"東桜山","koaza":"","lat":39.708529,"lng":141.177324,"zip":"0200804"},{"town":"東新庄一丁目","koaza":"","lat":39.700292,"lng":141.17224,"zip":"0200805"},{"town":"東新庄二丁目","koaza":"","lat":39.704577,"lng":141.173033,"zip":"0200805"},{"town":"東仙北一丁目","koaza":"","lat":39.682628,"lng":141.15512,"zip":"0200862"},{"town":"東仙北二丁目","koaza":"","lat":39.679646,"lng":141.15796,"zip":"0200862"},{"town":"東中野","koaza":"","lat":39.686137,"lng":141.173173,"zip":"0200817"},{"town":"東中野町","koaza":"","lat":39.695655,"lng":141.172662,"zip":"0200814"},{"town":"東松園一丁目","koaza":"","lat":39.749002,"lng":141.168211,"zip":"0200106"},{"town":"東松園二丁目","koaza":"","lat":39.75577,"lng":141.166178,"zip":"0200106"},{"town":"東松園三丁目","koaza":"","lat":39.756792,"lng":141.169746,"zip":"0200106"},{"town":"東松園四丁目","koaza":"","lat":39.760033,"lng":141.163516,"zip":"0200106"},{"town":"東緑が丘","koaza":"","lat":39.733611,"lng":141.149503,"zip":"0200112"},{"town":"東見前","koaza":"","lat":39.637897,"lng":141.175632,"zip":"0200832"},{"town":"東山一丁目","koaza":"","lat":39.691739,"lng":141.175917,"zip":"0200813"},{"town":"東山二丁目","koaza":"","lat":39.68871,"lng":141.179626,"zip":"0200813"},{"town":"平賀新田","koaza":"","lat":39.718742,"lng":141.091842,"zip":"0200145"},{"town":"本町通一丁目","koaza":"","lat":39.706467,"lng":141.154638,"zip":"0200015"},{"town":"本町通二丁目","koaza":"","lat":39.708003,"lng":141.14977,"zip":"0200015"},{"town":"本町通三丁目","koaza":"","lat":39.709049,"lng":141.145368,"zip":"0200015"},{"town":"前潟一丁目","koaza":"","lat":39.710506,"lng":141.107215,"zip":"0200148"},{"town":"前潟二丁目","koaza":"","lat":39.711295,"lng":141.104708,"zip":"0200148"},{"town":"前潟三丁目","koaza":"","lat":39.711641,"lng":141.102298,"zip":"0200148"},{"town":"前潟四丁目","koaza":"","lat":39.711217,"lng":141.099095,"zip":"0200148"},{"town":"松尾町","koaza":"","lat":39.695087,"lng":141.159139,"zip":"0200873"},{"town":"松園一丁目","koaza":"","lat":39.74669,"lng":141.164144,"zip":"0200107"},{"town":"松園二丁目","koaza":"","lat":39.750884,"lng":141.164904,"zip":"0200107"},{"town":"松園三丁目","koaza":"","lat":39.751188,"lng":141.161827,"zip":"0200107"},{"town":"神子田町","koaza":"","lat":39.687895,"lng":141.160512,"zip":"0200826"},{"town":"みたけ一丁目","koaza":"","lat":39.735278,"lng":141.119977,"zip":"0200122"},{"town":"みたけ二丁目","koaza":"","lat":39.742999,"lng":141.125078,"zip":"0200122"},{"town":"みたけ三丁目","koaza":"","lat":39.738958,"lng":141.115974,"zip":"0200122"},{"town":"みたけ四丁目","koaza":"","lat":39.74489,"lng":141.120867,"zip":"0200122"},{"town":"みたけ五丁目","koaza":"","lat":39.740846,"lng":141.111093,"zip":"0200122"},{"town":"みたけ六丁目","koaza":"","lat":39.745791,"lng":141.11497,"zip":"0200122"},{"town":"三ツ割","koaza":"","lat":39.738611,"lng":141.163638,"zip":"0200011"},{"town":"三ツ割一丁目","koaza":"","lat":39.716754,"lng":141.155729,"zip":"0200011"},{"town":"三ツ割二丁目","koaza":"","lat":39.71991,"lng":141.154256,"zip":"0200011"},{"town":"三ツ割三丁目","koaza":"","lat":39.721829,"lng":141.158418,"zip":"0200011"},{"town":"三ツ割四丁目","koaza":"","lat":39.729155,"lng":141.160069,"zip":"0200011"},{"town":"三ツ割五丁目","koaza":"","lat":39.728739,"lng":141.162525,"zip":"0200011"},{"town":"緑が丘一丁目","koaza":"","lat":39.730981,"lng":141.142852,"zip":"0200117"},{"town":"緑が丘二丁目","koaza":"","lat":39.7348,"lng":141.138996,"zip":"0200117"},{"town":"緑が丘三丁目","koaza":"","lat":39.736082,"lng":141.145577,"zip":"0200117"},{"town":"緑が丘四丁目","koaza":"","lat":39.736951,"lng":141.142181,"zip":"0200117"},{"town":"南青山町","koaza":"","lat":39.718466,"lng":141.113572,"zip":"0200134"},{"town":"南大通一丁目","koaza":"","lat":39.69737,"lng":141.156962,"zip":"0200874"},{"town":"南大通二丁目","koaza":"","lat":39.694633,"lng":141.154169,"zip":"0200874"},{"town":"南大通三丁目","koaza":"","lat":39.692668,"lng":141.152846,"zip":"0200874"},{"town":"南仙北一丁目","koaza":"","lat":39.678115,"lng":141.152025,"zip":"0200863"},{"town":"南仙北二丁目","koaza":"","lat":39.673665,"lng":141.151819,"zip":"0200863"},{"town":"南仙北三丁目","koaza":"","lat":39.672014,"lng":141.162101,"zip":"0200863"},{"town":"向中野","koaza":"","lat":39.672415,"lng":141.143331,"zip":"0200851"},{"town":"向中野一丁目","koaza":"","lat":39.682454,"lng":141.144565,"zip":"0200851"},{"town":"向中野二丁目","koaza":"","lat":39.682272,"lng":141.138974,"zip":"0200851"},{"town":"向中野三丁目","koaza":"","lat":39.682541,"lng":141.132716,"zip":"0200851"},{"town":"向中野四丁目","koaza":"","lat":39.678047,"lng":141.145562,"zip":"0200851"},{"town":"向中野五丁目","koaza":"","lat":39.678195,"lng":141.139363,"zip":"0200851"},{"town":"向中野六丁目","koaza":"","lat":39.676025,"lng":141.145536,"zip":"0200851"},{"town":"向中野七丁目","koaza":"","lat":39.67483,"lng":141.137583,"zip":"0200851"},{"town":"本宮一丁目","koaza":"","lat":39.688195,"lng":141.142335,"zip":"0200866"},{"town":"本宮二丁目","koaza":"","lat":39.688427,"lng":141.138272,"zip":"0200866"},{"town":"本宮三丁目","koaza":"","lat":39.690071,"lng":141.131228,"zip":"0200866"},{"town":"本宮四丁目","koaza":"","lat":39.686441,"lng":141.130749,"zip":"0200866"},{"town":"本宮五丁目","koaza":"","lat":39.690464,"lng":141.122432,"zip":"0200866"},{"town":"本宮六丁目","koaza":"","lat":39.68677,"lng":141.122165,"zip":"0200866"},{"town":"本宮七丁目","koaza":"","lat":39.68343,"lng":141.126517,"zip":"0200866"},{"town":"紅葉が丘","koaza":"","lat":39.716621,"lng":141.166497,"zip":"0200005"},{"town":"盛岡駅西通一丁目","koaza":"","lat":39.702143,"lng":141.131688,"zip":"0200045"},{"town":"盛岡駅西通二丁目","koaza":"","lat":39.698721,"lng":141.135252,"zip":"0200045"},{"town":"盛岡駅前北通","koaza":"","lat":39.705926,"lng":141.134102,"zip":"0200033"},{"town":"盛岡駅前通","koaza":"","lat":39.700328,"lng":141.13827,"zip":"0200034"},{"town":"簗川","koaza":"","lat":39.670843,"lng":141.315057,"zip":"0200311"},{"town":"山岸","koaza":"","lat":39.743278,"lng":141.174599,"zip":"0200004"},{"town":"山岸一丁目","koaza":"","lat":39.713068,"lng":141.164808,"zip":"0200004"},{"town":"山岸二丁目","koaza":"","lat":39.713573,"lng":141.168862,"zip":"0200004"},{"town":"山岸三丁目","koaza":"","lat":39.719932,"lng":141.173024,"zip":"0200004"},{"town":"山岸四丁目","koaza":"","lat":39.720586,"lng":141.170377,"zip":"0200004"},{"town":"山岸五丁目","koaza":"","lat":39.719818,"lng":141.166288,"zip":"0200004"},{"town":"山岸六丁目","koaza":"","lat":39.727909,"lng":141.171501,"zip":"0200004"},{"town":"夕顔瀬町","koaza":"","lat":39.708462,"lng":141.132363,"zip":"0200032"},{"town":"湯沢","koaza":"","lat":39.646891,"lng":141.103674,"zip":"0200842"},{"town":"湯沢西一丁目","koaza":"","lat":39.642701,"lng":141.094248,"zip":"0200843"},{"town":"湯沢西二丁目","koaza":"","lat":39.641289,"lng":141.094106,"zip":"0200843"},{"town":"湯沢西三丁目","koaza":"","lat":39.639919,"lng":141.094081,"zip":"0200843"},{"town":"湯沢東一丁目","koaza":"","lat":39.642038,"lng":141.097286,"zip":"0200844"},{"town":"湯沢東二丁目","koaza":"","lat":39.641542,"lng":141.099371,"zip":"0200844"},{"town":"湯沢東三丁目","koaza":"","lat":39.642135,"lng":141.101278,"zip":"0200844"},{"town":"湯沢南一丁目","koaza":"","lat":39.638579,"lng":141.095378,"zip":"0200845"},{"town":"湯沢南二丁目","koaza":"","lat":39.636644,"lng":141.094821,"zip":"0200845"},{"town":"流通センター北一丁目","koaza":"","lat":39.642185,"lng":141.111918,"zip":"0200846"},{"town":"若園町","koaza":"","lat":39.703121,"lng":141.159979,"zip":"0200886"},{"town":"猪去細越","koaza":"","lat":39.662055,"lng":141.070513,"zip":"0200000"},{"town":"猪去上猪去","koaza":"","lat":39.677328,"lng":141.062344,"zip":"0200000"},{"town":"猪去上平","koaza":"","lat":39.67768,"lng":141.064669,"zip":"0200000"},{"town":"猪去橋場","koaza":"","lat":39.680443,"lng":141.071234,"zip":"0200000"},{"town":"上鹿妻切付","koaza":"","lat":39.6812,"lng":141.081703,"zip":"0200000"},{"town":"上太田岡沼","koaza":"","lat":39.683871,"lng":141.079676,"zip":"0200000"},{"town":"上鹿妻野中","koaza":"","lat":39.682192,"lng":141.082375,"zip":"0200000"},{"town":"上鹿妻稲荷場","koaza":"","lat":39.681631,"lng":141.076217,"zip":"0200000"},{"town":"上太田上川原","koaza":"","lat":39.701072,"lng":141.08524,"zip":"0200000"},{"town":"上太田若宮","koaza":"","lat":39.694378,"lng":141.080844,"zip":"0200000"},{"town":"上太田赤前口","koaza":"","lat":39.697894,"lng":141.078235,"zip":"0200000"},{"town":"上太田碇","koaza":"","lat":39.695278,"lng":141.072399,"zip":"0200000"},{"town":"上太田小細工","koaza":"","lat":39.690548,"lng":141.080692,"zip":"0200000"},{"town":"上太田細工","koaza":"","lat":39.692395,"lng":141.080844,"zip":"0200000"},{"town":"上太田十文字","koaza":"","lat":39.691571,"lng":141.083349,"zip":"0200000"},{"town":"上太田小田屋敷","koaza":"","lat":39.690857,"lng":141.085171,"zip":"0200000"},{"town":"本宮","koaza":"","lat":39.682658,"lng":141.117101,"zip":"0200866"},{"town":"上太田谷地","koaza":"","lat":39.689738,"lng":141.117562,"zip":"0200000"},{"town":"下太田林崎","koaza":"","lat":39.689622,"lng":141.113614,"zip":"0200000"},{"town":"上飯岡","koaza":"","lat":39.664713,"lng":141.088924,"zip":"0200854"},{"town":"上鹿妻天沼","koaza":"","lat":39.681085,"lng":141.089422,"zip":"0200000"},{"town":"猪去釈迦堂","koaza":"","lat":39.677145,"lng":141.073695,"zip":"0200000"},{"town":"上鹿妻小和田","koaza":"","lat":39.679224,"lng":141.082111,"zip":"0200000"},{"town":"上鹿妻稲荷前","koaza":"","lat":39.679709,"lng":141.077198,"zip":"0200000"},{"town":"上鹿妻朴","koaza":"","lat":39.678943,"lng":141.089809,"zip":"0200000"},{"town":"上鹿妻朴前","koaza":"","lat":39.67915,"lng":141.09273,"zip":"0200000"},{"town":"上鹿妻山崎","koaza":"","lat":39.678683,"lng":141.084035,"zip":"0200000"},{"town":"上鹿妻蟹沢","koaza":"","lat":39.675962,"lng":141.086822,"zip":"0200000"},{"town":"上鹿妻二ツ沢","koaza":"","lat":39.677033,"lng":141.083644,"zip":"0200000"},{"town":"猪去堰合","koaza":"","lat":39.685796,"lng":141.063053,"zip":"0200000"},{"town":"猪去田面野木","koaza":"","lat":39.684367,"lng":141.055936,"zip":"0200000"},{"town":"上鹿妻横道","koaza":"","lat":39.662452,"lng":141.077767,"zip":"0200000"},{"town":"上鹿妻飯ノ森","koaza":"","lat":39.663985,"lng":141.077681,"zip":"0200000"},{"town":"繋","koaza":"除キ","lat":39.669757,"lng":141.005184,"zip":"0200055"},{"town":"繋","koaza":"上野","lat":39.662398,"lng":141.009784,"zip":"0200055"},{"town":"繋","koaza":"堂ケ沢","lat":39.688881,"lng":141.015619,"zip":"0200055"},{"town":"繋","koaza":"萪内沢","lat":39.663307,"lng":141.02667,"zip":"0200055"},{"town":"繋","koaza":"尾入野","lat":39.692388,"lng":141.020794,"zip":"0200055"},{"town":"繋","koaza":"舘市","lat":39.675022,"lng":141.019288,"zip":"0200055"},{"town":"繋","koaza":"湯ノ舘","lat":39.676635,"lng":141.022618,"zip":"0200055"},{"town":"繋","koaza":"猿田甲","lat":39.675576,"lng":141.028431,"zip":"0200055"},{"town":"繋","koaza":"山根","lat":39.694726,"lng":141.026486,"zip":"0200055"},{"town":"繋","koaza":"猿田","lat":39.680975,"lng":141.026888,"zip":"0200055"},{"town":"繋","koaza":"北ノ浦","lat":39.695767,"lng":141.032347,"zip":"0200055"},{"town":"繋","koaza":"下猿田","lat":39.69071,"lng":141.032194,"zip":"0200055"},{"town":"繋","koaza":"北久保","lat":39.692692,"lng":141.041425,"zip":"0200055"},{"town":"猪去田面木","koaza":"","lat":39.68548,"lng":141.061742,"zip":"0200000"},{"town":"湯沢","koaza":"一地割","lat":39.640706,"lng":141.086807,"zip":"0200842"},{"town":"土淵","koaza":"北野","lat":39.727457,"lng":141.072237,"zip":"0200144"},{"town":"上飯岡","koaza":"二十四地割","lat":39.664928,"lng":141.081055,"zip":"0200854"},{"town":"上飯岡","koaza":"一地割","lat":39.657692,"lng":141.079394,"zip":"0200854"},{"town":"土淵","koaza":"谷地上","lat":39.725586,"lng":141.076781,"zip":"0200144"},{"town":"土淵","koaza":"山崎","lat":39.726761,"lng":141.076923,"zip":"0200144"},{"town":"土淵","koaza":"四ツ屋","lat":39.713744,"lng":141.081456,"zip":"0200144"},{"town":"上厨川","koaza":"上ノ代","lat":39.712075,"lng":141.079411,"zip":"0200143"},{"town":"上厨川","koaza":"横沼","lat":39.70821,"lng":141.082867,"zip":"0200143"},{"town":"羽場","koaza":"十九地割","lat":39.648569,"lng":141.088215,"zip":"0200841"},{"town":"土淵","koaza":"谷地道","lat":39.716822,"lng":141.082595,"zip":"0200144"},{"town":"上飯岡","koaza":"八地割","lat":39.662517,"lng":141.086815,"zip":"0200854"},{"town":"上厨川","koaza":"大屋敷","lat":39.712873,"lng":141.085574,"zip":"0200143"},{"town":"上厨川","koaza":"竹中","lat":39.709009,"lng":141.08414,"zip":"0200143"},{"town":"湯沢","koaza":"四地割","lat":39.648373,"lng":141.091472,"zip":"0200842"},{"town":"上飯岡","koaza":"七地割","lat":39.661735,"lng":141.087828,"zip":"0200854"},{"town":"上厨川","koaza":"横長根","lat":39.706461,"lng":141.086798,"zip":"0200143"},{"town":"上飯岡","koaza":"六地割","lat":39.657399,"lng":141.085427,"zip":"0200854"},{"town":"上厨川","koaza":"柳原","lat":39.704797,"lng":141.087595,"zip":"0200143"},{"town":"上鹿妻蟹沢","koaza":"甲","lat":39.678399,"lng":141.085214,"zip":"0200000"},{"town":"土淵","koaza":"橋場","lat":39.714761,"lng":141.087049,"zip":"0200144"},{"town":"上飯岡","koaza":"二地割","lat":39.654232,"lng":141.089002,"zip":"0200854"},{"town":"湯沢","koaza":"二地割","lat":39.644641,"lng":141.100639,"zip":"0200842"},{"town":"上飯岡","koaza":"二十三地割","lat":39.674474,"lng":141.092771,"zip":"0200854"},{"town":"上飯岡","koaza":"九地割","lat":39.668971,"lng":141.096023,"zip":"0200854"},{"town":"上厨川","koaza":"下川原","lat":39.71024,"lng":141.089267,"zip":"0200143"},{"town":"上厨川","koaza":"野子","lat":39.70844,"lng":141.091157,"zip":"0200143"},{"town":"土淵","koaza":"幅","lat":39.713068,"lng":141.090079,"zip":"0200144"},{"town":"上厨川","koaza":"川原","lat":39.706601,"lng":141.095447,"zip":"0200143"},{"town":"湯沢","koaza":"三地割","lat":39.64616,"lng":141.096988,"zip":"0200842"},{"town":"平賀新田","koaza":"平賀","lat":39.714068,"lng":141.095978,"zip":"0200145"},{"town":"上飯岡","koaza":"三地割","lat":39.653844,"lng":141.096044,"zip":"0200854"},{"town":"上厨川","koaza":"幅","lat":39.714469,"lng":141.098008,"zip":"0200143"},{"town":"上飯岡","koaza":"五地割","lat":39.659552,"lng":141.096234,"zip":"0200854"},{"town":"上厨川","koaza":"下村","lat":39.709688,"lng":141.097225,"zip":"0200143"},{"town":"平賀新田","koaza":"高柳","lat":39.722296,"lng":141.094922,"zip":"0200145"},{"town":"上厨川","koaza":"小荒川","lat":39.707951,"lng":141.09575,"zip":"0200143"},{"town":"上飯岡","koaza":"四地割","lat":39.658354,"lng":141.097224,"zip":"0200854"},{"town":"平賀新田","koaza":"金目","lat":39.721472,"lng":141.094921,"zip":"0200145"},{"town":"平賀新田","koaza":"大谷地","lat":39.716502,"lng":141.094636,"zip":"0200145"},{"town":"平賀新田","koaza":"外田","lat":39.715525,"lng":141.097204,"zip":"0200145"},{"town":"平賀新田","koaza":"水道","lat":39.717826,"lng":141.096793,"zip":"0200145"},{"town":"羽場","koaza":"二十地割","lat":39.652963,"lng":141.101145,"zip":"0200841"},{"town":"上飯岡","koaza":"二十二地割","lat":39.677857,"lng":141.101984,"zip":"0200854"},{"town":"羽場","koaza":"二地割","lat":39.660541,"lng":141.101303,"zip":"0200841"},{"town":"羽場","koaza":"一地割","lat":39.661918,"lng":141.099879,"zip":"0200841"},{"town":"上飯岡","koaza":"二十一地割","lat":39.676245,"lng":141.101864,"zip":"0200854"},{"town":"湯沢","koaza":"五地割","lat":39.648183,"lng":141.101448,"zip":"0200842"},{"town":"下田","koaza":"生出","lat":39.868954,"lng":141.121574,"zip":"0284134"},{"town":"上厨川","koaza":"前潟","lat":39.709717,"lng":141.102743,"zip":"0200143"},{"town":"羽場","koaza":"十五地割","lat":39.659149,"lng":141.103486,"zip":"0200841"},{"town":"上飯岡","koaza":"十地割","lat":39.666833,"lng":141.100478,"zip":"0200854"},{"town":"上飯岡","koaza":"十六地割","lat":39.670542,"lng":141.101693,"zip":"0200854"},{"town":"上飯岡","koaza":"十七地割","lat":39.673408,"lng":141.104269,"zip":"0200854"},{"town":"羽場","koaza":"十六地割","lat":39.655547,"lng":141.107064,"zip":"0200841"},{"town":"湯沢","koaza":"十九地割","lat":39.650096,"lng":141.105519,"zip":"0200842"},{"town":"上厨川","koaza":"杉原","lat":39.708229,"lng":141.108152,"zip":"0200143"},{"town":"湯沢","koaza":"六地割","lat":39.646843,"lng":141.105174,"zip":"0200842"},{"town":"羽場","koaza":"十八地割","lat":39.652058,"lng":141.106256,"zip":"0200841"},{"town":"湯沢","koaza":"八地割","lat":39.636388,"lng":141.104374,"zip":"0200842"},{"town":"羽場","koaza":"三地割","lat":39.662349,"lng":141.103935,"zip":"0200841"},{"town":"上飯岡","koaza":"十一地割","lat":39.667786,"lng":141.104197,"zip":"0200854"},{"town":"上飯岡","koaza":"十五地割","lat":39.669868,"lng":141.104318,"zip":"0200854"},{"town":"湯沢","koaza":"七地割","lat":39.642722,"lng":141.105262,"zip":"0200842"},{"town":"上厨川","koaza":"新田","lat":39.710149,"lng":141.105167,"zip":"0200143"},{"town":"下鹿妻","koaza":"長持","lat":39.676629,"lng":141.106606,"zip":"0200856"},{"town":"上飯岡","koaza":"十八地割","lat":39.670394,"lng":141.105867,"zip":"0200854"},{"town":"上飯岡","koaza":"十四地割","lat":39.667696,"lng":141.107293,"zip":"0200854"},{"town":"湯沢","koaza":"九地割","lat":39.64134,"lng":141.107723,"zip":"0200842"},{"town":"本宮","koaza":"石仏","lat":39.679455,"lng":141.108161,"zip":"0200866"},{"town":"羽場","koaza":"十四地割","lat":39.658684,"lng":141.110304,"zip":"0200841"},{"town":"上飯岡","koaza":"二十地割","lat":39.672148,"lng":141.109849,"zip":"0200854"},{"town":"羽場","koaza":"十七地割","lat":39.654072,"lng":141.109772,"zip":"0200841"},{"town":"湯沢","koaza":"十八地割","lat":39.649972,"lng":141.109276,"zip":"0200842"},{"town":"上飯岡","koaza":"十九地割","lat":39.670255,"lng":141.110329,"zip":"0200854"},{"town":"湯沢","koaza":"十地割","lat":39.646178,"lng":141.111192,"zip":"0200842"},{"town":"下鹿妻","koaza":"辻屋敷","lat":39.674512,"lng":141.110804,"zip":"0200856"},{"town":"本宮","koaza":"上越場","lat":39.679216,"lng":141.111388,"zip":"0200866"},{"town":"本宮","koaza":"林崎","lat":39.682311,"lng":141.111291,"zip":"0200866"},{"town":"本宮","koaza":"水門","lat":39.680121,"lng":141.113757,"zip":"0200866"},{"town":"下田","koaza":"仲平","lat":39.855889,"lng":141.12072,"zip":"0284134"},{"town":"羽場","koaza":"十三地割","lat":39.655531,"lng":141.115237,"zip":"0200841"},{"town":"下飯岡","koaza":"一地割","lat":39.675251,"lng":141.114469,"zip":"0200853"},{"town":"本宮","koaza":"大宮","lat":39.684475,"lng":141.113994,"zip":"0200866"},{"town":"下飯岡","koaza":"四地割","lat":39.67172,"lng":141.113362,"zip":"0200853"},{"town":"下飯岡","koaza":"三地割","lat":39.671544,"lng":141.116088,"zip":"0200853"},{"town":"下田","koaza":"石羽根","lat":39.848631,"lng":141.133833,"zip":"0284134"},{"town":"下飯岡","koaza":"二地割","lat":39.673714,"lng":141.116355,"zip":"0200853"},{"town":"本宮","koaza":"小林","lat":39.683121,"lng":141.116268,"zip":"0200866"},{"town":"湯沢","koaza":"十六地割","lat":39.653921,"lng":141.114602,"zip":"0200842"},{"town":"本宮","koaza":"久保筋","lat":39.687523,"lng":141.114833,"zip":"0200866"},{"town":"羽場","koaza":"七地割","lat":39.65833,"lng":141.116732,"zip":"0200841"},{"town":"湯沢","koaza":"十一地割","lat":39.645418,"lng":141.115782,"zip":"0200842"},{"town":"湯沢","koaza":"十七地割","lat":39.649266,"lng":141.115808,"zip":"0200842"},{"town":"下飯岡","koaza":"六地割","lat":39.665318,"lng":141.118401,"zip":"0200853"},{"town":"下飯岡","koaza":"五地割","lat":39.66812,"lng":141.121694,"zip":"0200853"},{"town":"湯沢","koaza":"十二地割","lat":39.645981,"lng":141.116738,"zip":"0200842"},{"town":"羽場","koaza":"六地割","lat":39.660062,"lng":141.115014,"zip":"0200841"},{"town":"下鹿妻","koaza":"西田","lat":39.676816,"lng":141.118332,"zip":"0200856"},{"town":"本宮","koaza":"大柳","lat":39.680947,"lng":141.119628,"zip":"0200866"},{"town":"湯沢","koaza":"十四地割","lat":39.650565,"lng":141.118317,"zip":"0200842"},{"town":"本宮","koaza":"小幅","lat":39.685422,"lng":141.117761,"zip":"0200866"},{"town":"湯沢","koaza":"十五地割","lat":39.652641,"lng":141.12101,"zip":"0200842"},{"town":"湯沢","koaza":"十三地割","lat":39.647112,"lng":141.119211,"zip":"0200842"},{"town":"本宮","koaza":"小板小瀬","lat":39.693993,"lng":141.12101,"zip":"0200866"},{"town":"下飯岡","koaza":"七地割","lat":39.664156,"lng":141.120667,"zip":"0200853"},{"town":"羽場","koaza":"十二地割","lat":39.656475,"lng":141.122139,"zip":"0200841"},{"town":"本宮","koaza":"松幅","lat":39.693099,"lng":141.123228,"zip":"0200866"},{"town":"本宮","koaza":"鬼柳","lat":39.68315,"lng":141.122192,"zip":"0200866"},{"town":"羽場","koaza":"十一地割","lat":39.653743,"lng":141.123399,"zip":"0200841"},{"town":"下飯岡","koaza":"九地割","lat":39.671056,"lng":141.121683,"zip":"0200853"},{"town":"下飯岡","koaza":"十地割","lat":39.67228,"lng":141.122645,"zip":"0200853"},{"town":"下飯岡","koaza":"十五地割","lat":39.662931,"lng":141.123571,"zip":"0200853"},{"town":"下鹿妻","koaza":"前田","lat":39.674374,"lng":141.123703,"zip":"0200856"},{"town":"下鹿妻","koaza":"下通","lat":39.678137,"lng":141.126104,"zip":"0200856"},{"town":"本宮","koaza":"野古","lat":39.679793,"lng":141.123807,"zip":"0200866"},{"town":"羽場","koaza":"八地割","lat":39.659302,"lng":141.123065,"zip":"0200841"},{"town":"下厨川","koaza":"穴口","lat":39.75965,"lng":141.127654,"zip":"0200123"},{"town":"下飯岡","koaza":"八地割","lat":39.667494,"lng":141.123869,"zip":"0200853"},{"town":"羽場","koaza":"九地割","lat":39.656765,"lng":141.12577,"zip":"0200841"},{"town":"下飯岡","koaza":"十六地割","lat":39.661021,"lng":141.126958,"zip":"0200853"},{"town":"下飯岡","koaza":"十四地割","lat":39.666074,"lng":141.128087,"zip":"0200853"},{"town":"下鹿妻","koaza":"南田","lat":39.673909,"lng":141.128481,"zip":"0200856"},{"town":"下飯岡","koaza":"十一地割","lat":39.668561,"lng":141.126622,"zip":"0200853"},{"town":"羽場","koaza":"十地割","lat":39.652443,"lng":141.128192,"zip":"0200841"},{"town":"飯岡新田","koaza":"三地割","lat":39.675928,"lng":141.128442,"zip":"0200852"},{"town":"下田","koaza":"柴沢","lat":39.838516,"lng":141.138497,"zip":"0284134"},{"town":"下飯岡","koaza":"十七地割","lat":39.662063,"lng":141.127565,"zip":"0200853"},{"town":"本宮","koaza":"蛇屋敷","lat":39.693846,"lng":141.129899,"zip":"0200866"},{"town":"下鹿妻","koaza":"北","lat":39.681232,"lng":141.12825,"zip":"0200856"},{"town":"本宮","koaza":"荒屋","lat":39.692394,"lng":141.129235,"zip":"0200866"},{"town":"下飯岡","koaza":"十九地割","lat":39.660524,"lng":141.129209,"zip":"0200853"},{"town":"下飯岡","koaza":"十八地割","lat":39.661322,"lng":141.130454,"zip":"0200853"},{"town":"下飯岡","koaza":"十三地割","lat":39.664741,"lng":141.12998,"zip":"0200853"},{"town":"下飯岡","koaza":"十二地割","lat":39.66893,"lng":141.130564,"zip":"0200853"},{"town":"永井","koaza":"二地割","lat":39.655049,"lng":141.133777,"zip":"0200834"},{"town":"下厨川","koaza":"四十四田","lat":39.748491,"lng":141.133744,"zip":"0200123"},{"town":"飯岡新田","koaza":"十地割","lat":39.665153,"lng":141.132504,"zip":"0200852"},{"town":"飯岡新田","koaza":"九地割","lat":39.662648,"lng":141.133018,"zip":"0200852"},{"town":"飯岡新田","koaza":"四地割","lat":39.671394,"lng":141.131025,"zip":"0200852"},{"town":"永井","koaza":"一地割","lat":39.656591,"lng":141.134209,"zip":"0200834"},{"town":"下飯岡","koaza":"二十地割","lat":39.660818,"lng":141.131614,"zip":"0200853"},{"town":"松内","koaza":"松内","lat":39.88656,"lng":141.144587,"zip":"0284136"},{"town":"下厨川","koaza":"鍋屋敷","lat":39.76382,"lng":141.139018,"zip":"0200123"},{"town":"下厨川","koaza":"赤平","lat":39.746269,"lng":141.138542,"zip":"0200123"},{"town":"飯岡新田","koaza":"八地割","lat":39.667002,"lng":141.135279,"zip":"0200852"},{"town":"永井","koaza":"八地割","lat":39.650579,"lng":141.134886,"zip":"0200834"},{"town":"永井","koaza":"四地割","lat":39.651022,"lng":141.133731,"zip":"0200834"},{"town":"永井","koaza":"十二地割","lat":39.657429,"lng":141.137244,"zip":"0200834"},{"town":"永井","koaza":"三地割","lat":39.653674,"lng":141.136457,"zip":"0200834"},{"town":"永井","koaza":"五地割","lat":39.645345,"lng":141.13629,"zip":"0200834"},{"town":"下飯岡","koaza":"二十一地割","lat":39.66084,"lng":141.137259,"zip":"0200853"},{"town":"永井","koaza":"十一地割","lat":39.655161,"lng":141.138804,"zip":"0200834"},{"town":"永井","koaza":"七地割","lat":39.649396,"lng":141.14113,"zip":"0200834"},{"town":"永井","koaza":"十三地割","lat":39.657893,"lng":141.139591,"zip":"0200834"},{"town":"永井","koaza":"九地割","lat":39.651695,"lng":141.138435,"zip":"0200834"},{"town":"永井","koaza":"十四地割","lat":39.659897,"lng":141.139392,"zip":"0200834"},{"town":"飯岡新田","koaza":"七地割","lat":39.665128,"lng":141.141385,"zip":"0200852"},{"town":"飯岡新田","koaza":"五地割","lat":39.668378,"lng":141.137952,"zip":"0200852"},{"town":"下田","koaza":"古河川原","lat":39.87046,"lng":141.154013,"zip":"0284134"},{"town":"飯岡新田","koaza":"六地割","lat":39.66691,"lng":141.141034,"zip":"0200852"},{"town":"向中野","koaza":"東道明","lat":39.670512,"lng":141.142973,"zip":"0200851"},{"town":"向中野","koaza":"西道明","lat":39.671385,"lng":141.140503,"zip":"0200851"},{"town":"下田","koaza":"牛転","lat":39.851852,"lng":141.149738,"zip":"0284134"},{"town":"永井","koaza":"三十一地割","lat":39.6447,"lng":141.141489,"zip":"0200834"},{"town":"永井","koaza":"十地割","lat":39.654383,"lng":141.141828,"zip":"0200834"},{"town":"向中野","koaza":"細谷地","lat":39.674368,"lng":141.142578,"zip":"0200851"},{"town":"津志田","koaza":"一地割","lat":39.662213,"lng":141.142674,"zip":"0200835"},{"town":"津志田","koaza":"五地割","lat":39.667698,"lng":141.144401,"zip":"0200835"},{"town":"永井","koaza":"十六地割","lat":39.656501,"lng":141.143664,"zip":"0200834"},{"town":"永井","koaza":"六地割","lat":39.647649,"lng":141.141735,"zip":"0200834"},{"town":"永井","koaza":"十五地割","lat":39.65805,"lng":141.143614,"zip":"0200834"},{"town":"津志田","koaza":"二地割","lat":39.660731,"lng":141.144077,"zip":"0200835"},{"town":"永井","koaza":"十九地割","lat":39.64908,"lng":141.145623,"zip":"0200834"},{"town":"永井","koaza":"十八地割","lat":39.651311,"lng":141.144571,"zip":"0200834"},{"town":"向中野","koaza":"幅","lat":39.67231,"lng":141.144275,"zip":"0200851"},{"town":"永井","koaza":"三十地割","lat":39.643823,"lng":141.144532,"zip":"0200834"},{"town":"永井","koaza":"十七地割","lat":39.65466,"lng":141.145672,"zip":"0200834"},{"town":"上田","koaza":"松屋敷","lat":39.757139,"lng":141.155175,"zip":"0200066"},{"town":"津志田","koaza":"四地割","lat":39.666273,"lng":141.14544,"zip":"0200835"},{"town":"向中野","koaza":"鶴子","lat":39.674564,"lng":141.145531,"zip":"0200851"},{"town":"津志田","koaza":"三地割","lat":39.663956,"lng":141.145441,"zip":"0200835"},{"town":"上田","koaza":"狐森","lat":39.721416,"lng":141.150097,"zip":"0200066"},{"town":"津志田","koaza":"十一地割","lat":39.662142,"lng":141.146882,"zip":"0200835"},{"town":"上田","koaza":"堤頭","lat":39.727109,"lng":141.148735,"zip":"0200066"},{"town":"永井","koaza":"二十地割","lat":39.652544,"lng":141.149896,"zip":"0200834"},{"town":"松内","koaza":"簗場","lat":39.894463,"lng":141.150181,"zip":"0284136"},{"town":"下田","koaza":"生出向","lat":39.845525,"lng":141.152118,"zip":"0284134"},{"town":"津志田","koaza":"九地割","lat":39.666785,"lng":141.147592,"zip":"0200835"},{"town":"松内","koaza":"古川","lat":39.878332,"lng":141.154943,"zip":"0284136"},{"town":"上田","koaza":"稲荷窪","lat":39.724688,"lng":141.151551,"zip":"0200066"},{"town":"下田","koaza":"頭無","lat":39.847945,"lng":141.152406,"zip":"0284134"},{"town":"西見前","koaza":"二十一地割","lat":39.642737,"lng":141.153828,"zip":"0200833"},{"town":"永井","koaza":"二十一地割","lat":39.655763,"lng":141.15094,"zip":"0200834"},{"town":"永井","koaza":"二十六地割","lat":39.648371,"lng":141.149503,"zip":"0200834"},{"town":"永井","koaza":"二十五地割","lat":39.64878,"lng":141.152745,"zip":"0200834"},{"town":"上田","koaza":"宇登坂長根","lat":39.734454,"lng":141.154331,"zip":"0200066"},{"town":"三ツ割","koaza":"鉢ノ皮","lat":39.738756,"lng":141.159501,"zip":"0200011"},{"town":"下田","koaza":"陣場","lat":39.83916,"lng":141.153156,"zip":"0284134"},{"town":"永井","koaza":"二十三地割","lat":39.652816,"lng":141.152408,"zip":"0200834"},{"town":"下田","koaza":"滝の下","lat":39.860005,"lng":141.155998,"zip":"0284134"},{"town":"津志田","koaza":"十二地割","lat":39.65694,"lng":141.153157,"zip":"0200835"},{"town":"永井","koaza":"二十二地割","lat":39.654909,"lng":141.15491,"zip":"0200834"},{"town":"上田","koaza":"東黒石野","lat":39.748789,"lng":141.152222,"zip":"0200066"},{"town":"上田","koaza":"狐崎稲荷","lat":39.724332,"lng":141.155074,"zip":"0200066"},{"town":"松内","koaza":"新田","lat":39.896697,"lng":141.153993,"zip":"0284136"},{"town":"西見前","koaza":"二地割","lat":39.637225,"lng":141.15332,"zip":"0200833"},{"town":"松内","koaza":"舘","lat":39.898403,"lng":141.153697,"zip":"0284136"},{"town":"西見前","koaza":"三地割","lat":39.639136,"lng":141.156478,"zip":"0200833"},{"town":"西見前","koaza":"二十地割","lat":39.643577,"lng":141.154801,"zip":"0200833"},{"town":"西見前","koaza":"十九地割","lat":39.647499,"lng":141.156233,"zip":"0200833"},{"town":"西見前","koaza":"四地割","lat":39.637334,"lng":141.156281,"zip":"0200833"},{"town":"永井","koaza":"二十四地割","lat":39.651354,"lng":141.157485,"zip":"0200834"},{"town":"津志田","koaza":"十三地割","lat":39.655887,"lng":141.155857,"zip":"0200835"},{"town":"松内","koaza":"和台","lat":39.899579,"lng":141.158521,"zip":"0284136"},{"town":"三ツ割","koaza":"金比羅前","lat":39.722491,"lng":141.156158,"zip":"0200011"},{"town":"下田","koaza":"生出袋","lat":39.848674,"lng":141.157307,"zip":"0284134"},{"town":"三ツ割","koaza":"久保屋敷","lat":39.719446,"lng":141.156869,"zip":"0200011"},{"town":"松内","koaza":"石花","lat":39.887949,"lng":141.159247,"zip":"0284136"},{"town":"下田","koaza":"大百刈","lat":39.849391,"lng":141.15613,"zip":"0284134"},{"town":"津志田","koaza":"二十六地割","lat":39.670555,"lng":141.157467,"zip":"0200835"},{"town":"好摩","koaza":"夏間木","lat":39.872884,"lng":141.166195,"zip":"0284125"},{"town":"西見前","koaza":"八地割","lat":39.640428,"lng":141.1586,"zip":"0200833"},{"town":"下田","koaza":"下田","lat":39.849398,"lng":141.159288,"zip":"0284134"},{"town":"西見前","koaza":"五地割","lat":39.633317,"lng":141.157286,"zip":"0200833"},{"town":"津志田","koaza":"十四地割","lat":39.655136,"lng":141.159257,"zip":"0200835"},{"town":"西見前","koaza":"十七地割","lat":39.644734,"lng":141.159756,"zip":"0200833"},{"town":"三ツ割","koaza":"下更ノ沢","lat":39.727793,"lng":141.157863,"zip":"0200011"},{"town":"三ツ割","koaza":"洞清水","lat":39.725745,"lng":141.162552,"zip":"0200011"},{"town":"津志田","koaza":"二十七地割","lat":39.669529,"lng":141.160934,"zip":"0200835"},{"town":"好摩","koaza":"小袋","lat":39.883183,"lng":141.162041,"zip":"0284125"},{"town":"三ツ割","koaza":"更ノ沢","lat":39.733206,"lng":141.160677,"zip":"0200011"},{"town":"西見前","koaza":"六地割","lat":39.63378,"lng":141.159864,"zip":"0200833"},{"town":"松内","koaza":"在家","lat":39.875291,"lng":141.158717,"zip":"0284136"},{"town":"西見前","koaza":"七地割","lat":39.635869,"lng":141.160038,"zip":"0200833"},{"town":"三本柳","koaza":"一地割","lat":39.667079,"lng":141.159868,"zip":"0200831"},{"town":"三ツ割","koaza":"下岩清水","lat":39.719111,"lng":141.161861,"zip":"0200011"},{"town":"西見前","koaza":"十八地割","lat":39.648432,"lng":141.160537,"zip":"0200833"},{"town":"好摩","koaza":"新田","lat":39.891093,"lng":141.164666,"zip":"0284125"},{"town":"津志田","koaza":"二十一地割","lat":39.663393,"lng":141.160255,"zip":"0200835"},{"town":"三本柳","koaza":"十地割","lat":39.652322,"lng":141.160848,"zip":"0200831"},{"town":"好摩","koaza":"和台","lat":39.901039,"lng":141.164594,"zip":"0284125"},{"town":"下田","koaza":"船綱","lat":39.836227,"lng":141.159,"zip":"0284134"},{"town":"西見前","koaza":"十三地割","lat":39.639083,"lng":141.164379,"zip":"0200833"},{"town":"西見前","koaza":"十六地割","lat":39.643346,"lng":141.161413,"zip":"0200833"},{"town":"下田","koaza":"牡丹野","lat":39.842362,"lng":141.159956,"zip":"0284134"},{"town":"川崎","koaza":"上川崎","lat":39.855794,"lng":141.164103,"zip":"0284135"},{"town":"三本柳","koaza":"三地割","lat":39.665117,"lng":141.160329,"zip":"0200831"},{"town":"津志田","koaza":"十六地割","lat":39.657368,"lng":141.159722,"zip":"0200835"},{"town":"三ツ割","koaza":"上岩清水","lat":39.721926,"lng":141.161205,"zip":"0200011"},{"town":"川崎","koaza":"向川崎","lat":39.859498,"lng":141.165694,"zip":"0284135"},{"town":"津志田","koaza":"十五地割","lat":39.656938,"lng":141.161634,"zip":"0200835"},{"town":"三本柳","koaza":"四地割","lat":39.66295,"lng":141.163441,"zip":"0200831"},{"town":"川崎","koaza":"外平","lat":39.855535,"lng":141.161004,"zip":"0284135"},{"town":"東安庭","koaza":"五日市川原","lat":39.676157,"lng":141.162925,"zip":"0200824"},{"town":"三本柳","koaza":"五地割","lat":39.659329,"lng":141.163195,"zip":"0200831"},{"town":"西見前","koaza":"十五地割","lat":39.645444,"lng":141.163261,"zip":"0200833"},{"town":"渋民","koaza":"岩鼻","lat":39.829257,"lng":141.163653,"zip":"0284132"},{"town":"三本柳","koaza":"二地割","lat":39.665784,"lng":141.16367,"zip":"0200831"},{"town":"渋民","koaza":"泉田","lat":39.845628,"lng":141.166458,"zip":"0284132"},{"town":"川崎","koaza":"川崎","lat":39.853339,"lng":141.165213,"zip":"0284135"},{"town":"渋民","koaza":"小前田","lat":39.841662,"lng":141.166587,"zip":"0284132"},{"town":"好摩","koaza":"芋田向","lat":39.866895,"lng":141.169771,"zip":"0284125"},{"town":"東中野","koaza":"柳下","lat":39.687246,"lng":141.165965,"zip":"0200817"},{"town":"西見前","koaza":"十地割","lat":39.633618,"lng":141.164059,"zip":"0200833"},{"town":"三本柳","koaza":"八地割","lat":39.656285,"lng":141.16653,"zip":"0200831"},{"town":"三ツ割","koaza":"櫃石","lat":39.739785,"lng":141.168229,"zip":"0200011"},{"town":"三本柳","koaza":"七地割","lat":39.657007,"lng":141.167621,"zip":"0200831"},{"town":"三本柳","koaza":"十一地割","lat":39.651859,"lng":141.164195,"zip":"0200831"},{"town":"東中野","koaza":"見石","lat":39.686866,"lng":141.167268,"zip":"0200817"},{"town":"渋民","koaza":"大前田","lat":39.838046,"lng":141.165604,"zip":"0284132"},{"town":"三本柳","koaza":"九地割","lat":39.653892,"lng":141.166829,"zip":"0200831"},{"town":"好摩","koaza":"野中","lat":39.879108,"lng":141.17269,"zip":"0284125"},{"town":"西見前","koaza":"十四地割","lat":39.641596,"lng":141.166193,"zip":"0200833"},{"town":"三本柳","koaza":"十二地割","lat":39.6506,"lng":141.16666,"zip":"0200831"},{"town":"東安庭","koaza":"厚朴田","lat":39.682832,"lng":141.164854,"zip":"0200824"},{"town":"山岸","koaza":"合間","lat":39.721881,"lng":141.166262,"zip":"0200004"},{"town":"向中野","koaza":"新田","lat":39.664247,"lng":141.168107,"zip":"0200851"},{"town":"山岸","koaza":"庚申下","lat":39.722982,"lng":141.167735,"zip":"0200004"},{"town":"東中野","koaza":"五輪","lat":39.683827,"lng":141.167421,"zip":"0200817"},{"town":"三本柳","koaza":"六地割","lat":39.661613,"lng":141.167216,"zip":"0200831"},{"town":"三本柳","koaza":"二十三地割","lat":39.647426,"lng":141.1671,"zip":"0200831"},{"town":"門","koaza":"川原道","lat":39.661486,"lng":141.174367,"zip":"0200823"},{"town":"渋民","koaza":"鶴塚","lat":39.848667,"lng":141.168631,"zip":"0284132"},{"town":"三本柳","koaza":"十三地割","lat":39.6546,"lng":141.168929,"zip":"0200831"},{"town":"三本柳","koaza":"二十二地割","lat":39.648855,"lng":141.168284,"zip":"0200831"},{"town":"東見前","koaza":"九地割","lat":39.644232,"lng":141.16987,"zip":"0200832"},{"town":"西見前","koaza":"十二地割","lat":39.637702,"lng":141.168685,"zip":"0200833"},{"town":"門","koaza":"真立","lat":39.67218,"lng":141.172413,"zip":"0200823"},{"town":"東安庭","koaza":"蝶ケ森","lat":39.677233,"lng":141.171098,"zip":"0200824"},{"town":"渋民","koaza":"大森","lat":39.830043,"lng":141.174089,"zip":"0284132"},{"town":"渋民","koaza":"狐沢","lat":39.836813,"lng":141.168207,"zip":"0284132"},{"town":"渋民","koaza":"駅","lat":39.844006,"lng":141.168277,"zip":"0284132"},{"town":"渋民","koaza":"愛宕","lat":39.84069,"lng":141.170928,"zip":"0284132"},{"town":"好摩","koaza":"上山","lat":39.872509,"lng":141.175133,"zip":"0284125"},{"town":"芋田","koaza":"下武道","lat":39.855281,"lng":141.170361,"zip":"0284131"},{"town":"東見前","koaza":"六地割","lat":39.640574,"lng":141.172339,"zip":"0200832"},{"town":"西見前","koaza":"十一地割","lat":39.634032,"lng":141.1711,"zip":"0200833"},{"town":"東中野","koaza":"日蔭山","lat":39.686955,"lng":141.169674,"zip":"0200817"},{"town":"三本柳","koaza":"十四地割","lat":39.656035,"lng":141.171062,"zip":"0200831"},{"town":"東中野","koaza":"立石","lat":39.685452,"lng":141.169854,"zip":"0200817"},{"town":"芋田","koaza":"上武道","lat":39.858419,"lng":141.172997,"zip":"0284131"},{"town":"東見前","koaza":"五地割","lat":39.640164,"lng":141.170043,"zip":"0200832"},{"town":"東中野","koaza":"片岡","lat":39.689509,"lng":141.175216,"zip":"0200817"},{"town":"東安庭","koaza":"小森","lat":39.680536,"lng":141.169561,"zip":"0200824"},{"town":"山岸","koaza":"大平","lat":39.740068,"lng":141.175658,"zip":"0200004"},{"town":"渋民","koaza":"渋民","lat":39.844568,"lng":141.171388,"zip":"0284132"},{"town":"山岸","koaza":"洞清水下","lat":39.733585,"lng":141.170503,"zip":"0200004"},{"town":"東安庭","koaza":"舘","lat":39.68153,"lng":141.170183,"zip":"0200824"},{"town":"三本柳","koaza":"二十一地割","lat":39.648804,"lng":141.171283,"zip":"0200831"},{"town":"三本柳","koaza":"二十地割","lat":39.648157,"lng":141.172173,"zip":"0200831"},{"town":"山岸","koaza":"外山岸","lat":39.749561,"lng":141.177424,"zip":"0200004"},{"town":"好摩","koaza":"好摩沢","lat":39.891686,"lng":141.180066,"zip":"0284125"},{"town":"東見前","koaza":"八地割","lat":39.643057,"lng":141.173802,"zip":"0200832"},{"town":"三本柳","koaza":"二十四地割","lat":39.646691,"lng":141.173947,"zip":"0200831"},{"town":"東中野","koaza":"岩本","lat":39.689675,"lng":141.169733,"zip":"0200817"},{"town":"東安庭","koaza":"檀ケ森","lat":39.679018,"lng":141.171586,"zip":"0200824"},{"town":"三本柳","koaza":"十七地割","lat":39.652938,"lng":141.172975,"zip":"0200831"},{"town":"渋民","koaza":"鶴飼","lat":39.850119,"lng":141.172655,"zip":"0284132"},{"town":"川又","koaza":"赤坂","lat":39.787595,"lng":141.191071,"zip":"0200203"},{"town":"東見前","koaza":"四地割","lat":39.637314,"lng":141.173664,"zip":"0200832"},{"town":"加賀野","koaza":"桜山","lat":39.709263,"lng":141.172973,"zip":"0200807"},{"town":"東安庭","koaza":"松長根","lat":39.68215,"lng":141.17424,"zip":"0200824"},{"town":"東安庭","koaza":"妻ケ森","lat":39.681065,"lng":141.1736,"zip":"0200824"},{"town":"芋田","koaza":"上芋田","lat":39.86974,"lng":141.179015,"zip":"0284131"},{"town":"下米内","koaza":"寺並","lat":39.718599,"lng":141.176685,"zip":"0200003"},{"town":"玉山","koaza":"白沢","lat":39.809563,"lng":141.18451,"zip":"0200202"},{"town":"門","koaza":"唐","lat":39.672063,"lng":141.17727,"zip":"0200823"},{"town":"東中野","koaza":"金勢","lat":39.687581,"lng":141.175449,"zip":"0200817"},{"town":"三本柳","koaza":"十五地割","lat":39.655563,"lng":141.174568,"zip":"0200831"},{"town":"門","koaza":"蝶ケ森","lat":39.674089,"lng":141.1751,"zip":"0200823"},{"town":"東見前","koaza":"一地割","lat":39.633578,"lng":141.176434,"zip":"0200832"},{"town":"門","koaza":"須摩","lat":39.670524,"lng":141.178871,"zip":"0200823"},{"town":"芋田","koaza":"武道","lat":39.859711,"lng":141.176433,"zip":"0284131"},{"town":"東安庭","koaza":"中ケ森","lat":39.67797,"lng":141.174293,"zip":"0200824"},{"town":"門","koaza":"角下","lat":39.664893,"lng":141.174242,"zip":"0200823"},{"town":"渋民","koaza":"長渡","lat":39.840803,"lng":141.179114,"zip":"0284132"},{"town":"下米内","koaza":"閉伊街道","lat":39.727603,"lng":141.176521,"zip":"0200003"},{"town":"東中野","koaza":"金勢前","lat":39.685541,"lng":141.17589,"zip":"0200817"},{"town":"永井","koaza":"鳥木沢","lat":39.898477,"lng":141.175019,"zip":"0200834"},{"town":"三本柳","koaza":"十六地割","lat":39.653526,"lng":141.17702,"zip":"0200831"},{"town":"三本柳","koaza":"十八地割","lat":39.651589,"lng":141.176404,"zip":"0200831"},{"town":"東安庭","koaza":"八ケ森","lat":39.67548,"lng":141.178018,"zip":"0200824"},{"town":"手代森","koaza":"七地割","lat":39.65976,"lng":141.176684,"zip":"0200401"},{"town":"川目","koaza":"第十九地割","lat":39.694597,"lng":141.179575,"zip":"0200812"},{"town":"東見前","koaza":"七地割","lat":39.640085,"lng":141.176448,"zip":"0200832"},{"town":"三本柳","koaza":"二十五地割","lat":39.646534,"lng":141.176498,"zip":"0200831"},{"town":"東見前","koaza":"三地割","lat":39.636112,"lng":141.177272,"zip":"0200832"},{"town":"渋民","koaza":"越戸","lat":39.851636,"lng":141.181844,"zip":"0284132"},{"town":"東中野","koaza":"沢田","lat":39.684939,"lng":141.1779,"zip":"0200817"},{"town":"新庄","koaza":"瀬戸","lat":39.705425,"lng":141.177116,"zip":"0200803"},{"town":"芋田","koaza":"昼久保","lat":39.864061,"lng":141.181689,"zip":"0284131"},{"town":"東見前","koaza":"二地割","lat":39.634107,"lng":141.178951,"zip":"0200832"},{"town":"好摩","koaza":"中塚","lat":39.88025,"lng":141.182137,"zip":"0284125"},{"town":"下米内","koaza":"佐倉","lat":39.722385,"lng":141.181452,"zip":"0200003"},{"town":"川目","koaza":"第十七地割","lat":39.693262,"lng":141.181593,"zip":"0200812"},{"town":"手代森","koaza":"六地割","lat":39.664386,"lng":141.180119,"zip":"0200401"},{"town":"芋田","koaza":"下芋田","lat":39.866573,"lng":141.177822,"zip":"0284131"},{"town":"三本柳","koaza":"十九地割","lat":39.649648,"lng":141.177744,"zip":"0200831"},{"town":"上米内","koaza":"名乗沢","lat":39.741276,"lng":141.182488,"zip":"0200001"},{"town":"加賀野","koaza":"才ノ神","lat":39.705205,"lng":141.182196,"zip":"0200807"},{"town":"新庄","koaza":"岩山","lat":39.698965,"lng":141.18303,"zip":"0200803"},{"town":"渋民","koaza":"岩の沢","lat":39.84678,"lng":141.180583,"zip":"0284132"},{"town":"芋田","koaza":"芋田","lat":39.866783,"lng":141.181974,"zip":"0284131"},{"town":"玉山","koaza":"宮前","lat":39.819999,"lng":141.185478,"zip":"0200202"},{"town":"手代森","koaza":"二十八地割","lat":39.645047,"lng":141.180556,"zip":"0200401"},{"town":"手代森","koaza":"八地割","lat":39.657813,"lng":141.181636,"zip":"0200401"},{"town":"手代森","koaza":"九地割","lat":39.660456,"lng":141.183079,"zip":"0200401"},{"town":"川目","koaza":"第十地割","lat":39.674211,"lng":141.194419,"zip":"0200812"},{"town":"上米内","koaza":"庄ケ畑","lat":39.761307,"lng":141.18411,"zip":"0200001"},{"town":"上米内","koaza":"松木平","lat":39.742394,"lng":141.192667,"zip":"0200001"},{"town":"浅岸","koaza":"橋場","lat":39.714195,"lng":141.184011,"zip":"0200801"},{"town":"川目","koaza":"第十六地割","lat":39.693318,"lng":141.186522,"zip":"0200812"},{"town":"玉山","koaza":"宇峠","lat":39.806447,"lng":141.186598,"zip":"0200202"},{"town":"下米内","koaza":"大豆門","lat":39.719156,"lng":141.183663,"zip":"0200003"},{"town":"手代森","koaza":"二十九地割","lat":39.642208,"lng":141.182633,"zip":"0200401"},{"town":"手代森","koaza":"十四地割","lat":39.653262,"lng":141.184692,"zip":"0200401"},{"town":"上米内","koaza":"道ノ下","lat":39.753894,"lng":141.184373,"zip":"0200001"},{"town":"手代森","koaza":"二十七地割","lat":39.645401,"lng":141.183699,"zip":"0200401"},{"town":"浅岸","koaza":"二ツ森","lat":39.716656,"lng":141.19447,"zip":"0200801"},{"town":"浅岸","koaza":"稲久保","lat":39.708859,"lng":141.186344,"zip":"0200801"},{"town":"手代森","koaza":"三十地割","lat":39.639849,"lng":141.184086,"zip":"0200401"},{"town":"黒川","koaza":"九地割","lat":39.633431,"lng":141.183472,"zip":"0200402"},{"town":"日戸","koaza":"鷹高","lat":39.80023,"lng":141.19058,"zip":"0200201"},{"town":"下米内","koaza":"一本松","lat":39.720365,"lng":141.187237,"zip":"0200003"},{"town":"渋民","koaza":"山屋","lat":39.855353,"lng":141.19267,"zip":"0284132"},{"town":"黒川","koaza":"十九地割","lat":39.621107,"lng":141.183477,"zip":"0200402"},{"town":"川目","koaza":"第十四地割","lat":39.688529,"lng":141.184797,"zip":"0200812"},{"town":"川目","koaza":"第十一地割","lat":39.679166,"lng":141.18791,"zip":"0200812"},{"town":"手代森","koaza":"十地割","lat":39.657611,"lng":141.188511,"zip":"0200401"},{"town":"黒川","koaza":"十地割","lat":39.629736,"lng":141.184742,"zip":"0200402"},{"town":"黒川","koaza":"十八地割","lat":39.62838,"lng":141.188717,"zip":"0200402"},{"town":"黒川","koaza":"二十地割","lat":39.624005,"lng":141.184733,"zip":"0200402"},{"town":"上米内","koaza":"岩沢","lat":39.767856,"lng":141.184544,"zip":"0200001"},{"town":"上米内","koaza":"砂子沢","lat":39.774078,"lng":141.188917,"zip":"0200001"},{"town":"黒川","koaza":"二十二地割","lat":39.617406,"lng":141.18774,"zip":"0200402"},{"town":"手代森","koaza":"二十六地割","lat":39.649334,"lng":141.184645,"zip":"0200401"},{"town":"黒川","koaza":"十一地割","lat":39.632805,"lng":141.185986,"zip":"0200402"},{"town":"手代森","koaza":"二十五地割","lat":39.647342,"lng":141.185257,"zip":"0200401"},{"town":"川目","koaza":"第十五地割","lat":39.691681,"lng":141.193421,"zip":"0200812"},{"town":"下米内","koaza":"伊勢沢","lat":39.72562,"lng":141.186326,"zip":"0200003"},{"town":"手代森","koaza":"十三地割","lat":39.655967,"lng":141.188174,"zip":"0200401"},{"town":"浅岸","koaza":"向田","lat":39.709856,"lng":141.18517,"zip":"0200801"},{"town":"手代森","koaza":"二十四地割","lat":39.645466,"lng":141.186794,"zip":"0200401"},{"town":"浅岸","koaza":"堰根","lat":39.711002,"lng":141.187921,"zip":"0200801"},{"town":"黒川","koaza":"八地割","lat":39.635496,"lng":141.187527,"zip":"0200402"},{"town":"玉山","koaza":"高久保","lat":39.812194,"lng":141.190163,"zip":"0200202"},{"town":"好摩","koaza":"簗袋","lat":39.887946,"lng":141.187013,"zip":"0284125"},{"town":"加賀野","koaza":"狐洞","lat":39.705831,"lng":141.186281,"zip":"0200807"},{"town":"黒川","koaza":"二十一地割","lat":39.621205,"lng":141.187769,"zip":"0200402"},{"town":"芋田","koaza":"沢田","lat":39.874267,"lng":141.186937,"zip":"0284131"},{"town":"手代森","koaza":"二十三地割","lat":39.642037,"lng":141.187123,"zip":"0200401"},{"town":"上米内","koaza":"赤坂","lat":39.75921,"lng":141.193488,"zip":"0200001"},{"town":"手代森","koaza":"十六地割","lat":39.649181,"lng":141.187807,"zip":"0200401"},{"town":"黒川","koaza":"十六地割","lat":39.626463,"lng":141.189326,"zip":"0200402"},{"town":"黒川","koaza":"六地割","lat":39.637568,"lng":141.188075,"zip":"0200402"},{"town":"手代森","koaza":"十五地割","lat":39.651625,"lng":141.188714,"zip":"0200401"},{"town":"乙部","koaza":"五地割","lat":39.612479,"lng":141.191991,"zip":"0200403"},{"town":"上米内","koaza":"明通","lat":39.768713,"lng":141.200979,"zip":"0200001"},{"town":"手代森","koaza":"十七地割","lat":39.648727,"lng":141.191455,"zip":"0200401"},{"town":"川又","koaza":"奴屋敷","lat":39.784207,"lng":141.195566,"zip":"0200203"},{"town":"下米内","koaza":"至沢","lat":39.729162,"lng":141.193516,"zip":"0200003"},{"town":"手代森","koaza":"十二地割","lat":39.65594,"lng":141.190659,"zip":"0200401"},{"town":"上米内","koaza":"野頭","lat":39.741101,"lng":141.191863,"zip":"0200001"},{"town":"玉山","koaza":"二子沢","lat":39.820111,"lng":141.195433,"zip":"0200202"},{"town":"手代森","koaza":"二十地割","lat":39.643651,"lng":141.188765,"zip":"0200401"},{"town":"黒川","koaza":"十二地割","lat":39.632871,"lng":141.191413,"zip":"0200402"},{"town":"黒川","koaza":"十七地割","lat":39.630709,"lng":141.191392,"zip":"0200402"},{"town":"手代森","koaza":"二十一地割","lat":39.642392,"lng":141.194727,"zip":"0200401"},{"town":"黒川","koaza":"七地割","lat":39.636711,"lng":141.190462,"zip":"0200402"},{"town":"黒川","koaza":"五地割","lat":39.636683,"lng":141.19295,"zip":"0200402"},{"town":"手代森","koaza":"二十二地割","lat":39.640205,"lng":141.187864,"zip":"0200401"},{"town":"上米内","koaza":"大誘","lat":39.737018,"lng":141.190802,"zip":"0200001"},{"town":"乙部","koaza":"四地割","lat":39.619614,"lng":141.192514,"zip":"0200403"},{"town":"手代森","koaza":"五地割","lat":39.661466,"lng":141.193832,"zip":"0200401"},{"town":"巻堀","koaza":"巻堀","lat":39.893588,"lng":141.196229,"zip":"0284123"},{"town":"日戸","koaza":"人待","lat":39.805537,"lng":141.1913,"zip":"0200201"},{"town":"日戸","koaza":"市の坪","lat":39.796314,"lng":141.195502,"zip":"0200201"},{"town":"黒川","koaza":"十四地割","lat":39.630014,"lng":141.196138,"zip":"0200402"},{"town":"手代森","koaza":"十一地割","lat":39.659889,"lng":141.196363,"zip":"0200401"},{"town":"手代森","koaza":"十九地割","lat":39.640823,"lng":141.203821,"zip":"0200401"},{"town":"黒川","koaza":"四地割","lat":39.635059,"lng":141.199185,"zip":"0200402"},{"town":"新庄","koaza":"下八木田","lat":39.697491,"lng":141.206121,"zip":"0200803"},{"town":"玉山","koaza":"田畑","lat":39.815788,"lng":141.198836,"zip":"0200202"},{"town":"乙部","koaza":"六地割","lat":39.613333,"lng":141.195945,"zip":"0200403"},{"town":"玉山","koaza":"才の沢","lat":39.812803,"lng":141.196901,"zip":"0200202"},{"town":"乙部","koaza":"三十一地割","lat":39.607917,"lng":141.194089,"zip":"0200403"},{"town":"黒川","koaza":"十三地割","lat":39.631342,"lng":141.197502,"zip":"0200402"},{"town":"日戸","koaza":"栗木田","lat":39.795697,"lng":141.203511,"zip":"0200201"},{"town":"乙部","koaza":"二地割","lat":39.61836,"lng":141.195796,"zip":"0200403"},{"town":"玉山","koaza":"和田","lat":39.808549,"lng":141.201812,"zip":"0200202"},{"town":"玉山","koaza":"大二子","lat":39.827461,"lng":141.1955,"zip":"0200202"},{"town":"川又","koaza":"苗代端","lat":39.787608,"lng":141.19679,"zip":"0200203"},{"town":"乙部","koaza":"三地割","lat":39.618737,"lng":141.195885,"zip":"0200403"},{"town":"乙部","koaza":"三十地割","lat":39.606887,"lng":141.19806,"zip":"0200403"},{"town":"川目","koaza":"第七地割","lat":39.675674,"lng":141.199077,"zip":"0200812"},{"town":"巻堀","koaza":"中道","lat":39.890934,"lng":141.19869,"zip":"0284123"},{"town":"乙部","koaza":"三十二地割","lat":39.60389,"lng":141.199227,"zip":"0200403"},{"town":"乙部","koaza":"十三地割","lat":39.610838,"lng":141.199807,"zip":"0200403"},{"town":"寺林","koaza":"梨木平","lat":39.904106,"lng":141.200177,"zip":"0284122"},{"town":"乙部","koaza":"七地割","lat":39.613685,"lng":141.197481,"zip":"0200403"},{"town":"巻堀","koaza":"幅下","lat":39.891725,"lng":141.202699,"zip":"0284123"},{"town":"上米内","koaza":"中居","lat":39.742845,"lng":141.207169,"zip":"0200001"},{"town":"巻堀","koaza":"本宮","lat":39.896202,"lng":141.198571,"zip":"0284123"},{"town":"寺林","koaza":"才津沢","lat":39.898445,"lng":141.19825,"zip":"0284122"},{"town":"乙部","koaza":"十二地割","lat":39.613731,"lng":141.201487,"zip":"0200403"},{"town":"上米内","koaza":"米内沢","lat":39.751343,"lng":141.207118,"zip":"0200001"},{"town":"玉山","koaza":"姥前","lat":39.802019,"lng":141.202295,"zip":"0200202"},{"town":"川目","koaza":"第六地割","lat":39.682878,"lng":141.214437,"zip":"0200812"},{"town":"川又","koaza":"小沢","lat":39.79196,"lng":141.203263,"zip":"0200203"},{"town":"手代森","koaza":"四地割","lat":39.662246,"lng":141.20526,"zip":"0200401"},{"town":"乙部","koaza":"二十九地割","lat":39.607759,"lng":141.202714,"zip":"0200403"},{"town":"川又","koaza":"道地","lat":39.788135,"lng":141.207414,"zip":"0200203"},{"town":"寺林","koaza":"平森","lat":39.896686,"lng":141.214176,"zip":"0284122"},{"town":"黒川","koaza":"十五地割","lat":39.630944,"lng":141.208327,"zip":"0200402"},{"town":"乙部","koaza":"二十八地割","lat":39.606172,"lng":141.202883,"zip":"0200403"},{"town":"乙部","koaza":"八地割","lat":39.617092,"lng":141.202088,"zip":"0200403"},{"town":"乙部","koaza":"二十七地割","lat":39.60521,"lng":141.20028,"zip":"0200403"},{"town":"新庄","koaza":"上八木田","lat":39.69418,"lng":141.213639,"zip":"0200803"},{"town":"寺林","koaza":"下も山","lat":39.903499,"lng":141.201462,"zip":"0284122"},{"town":"川又","koaza":"鉢森","lat":39.784027,"lng":141.206275,"zip":"0200203"},{"town":"黒川","koaza":"三地割","lat":39.638064,"lng":141.208393,"zip":"0200402"},{"town":"寺林","koaza":"境平","lat":39.906507,"lng":141.208445,"zip":"0284122"},{"town":"乙部","koaza":"十一地割","lat":39.615046,"lng":141.204745,"zip":"0200403"},{"town":"浅岸","koaza":"綱取","lat":39.722635,"lng":141.209148,"zip":"0200801"},{"town":"乙部","koaza":"九地割","lat":39.616829,"lng":141.205782,"zip":"0200403"},{"town":"乙部","koaza":"十四地割","lat":39.609943,"lng":141.20647,"zip":"0200403"},{"town":"玉山","koaza":"一笠","lat":39.817632,"lng":141.204272,"zip":"0200202"},{"town":"乙部","koaza":"二十六地割","lat":39.604389,"lng":141.21011,"zip":"0200403"},{"town":"手代森","koaza":"三地割","lat":39.665925,"lng":141.208595,"zip":"0200401"},{"town":"乙部","koaza":"二十五地割","lat":39.606527,"lng":141.208757,"zip":"0200403"},{"town":"日戸","koaza":"道合","lat":39.802531,"lng":141.21866,"zip":"0200201"},{"town":"玉山","koaza":"中里","lat":39.810132,"lng":141.209995,"zip":"0200202"},{"town":"川又","koaza":"中舘","lat":39.78841,"lng":141.213983,"zip":"0200203"},{"town":"玉山","koaza":"国名沢","lat":39.813411,"lng":141.206074,"zip":"0200202"},{"town":"玉山","koaza":"小森","lat":39.804922,"lng":141.211929,"zip":"0200202"},{"town":"玉山","koaza":"祝の沢","lat":39.80818,"lng":141.207284,"zip":"0200202"},{"town":"上米内","koaza":"畑井野","lat":39.743354,"lng":141.21411,"zip":"0200001"},{"town":"玉山","koaza":"鮹の沢","lat":39.814599,"lng":141.206421,"zip":"0200202"},{"town":"日戸","koaza":"一本杉","lat":39.797485,"lng":141.20909,"zip":"0200201"},{"town":"手代森","koaza":"十八地割","lat":39.65076,"lng":141.211077,"zip":"0200401"},{"town":"乙部","koaza":"十地割","lat":39.614843,"lng":141.210292,"zip":"0200403"},{"town":"乙部","koaza":"十五地割","lat":39.607497,"lng":141.208476,"zip":"0200403"},{"town":"川又","koaza":"宮田","lat":39.785846,"lng":141.214124,"zip":"0200203"},{"town":"乙部","koaza":"十六地割","lat":39.609399,"lng":141.211576,"zip":"0200403"},{"town":"黒川","koaza":"二地割","lat":39.641066,"lng":141.219266,"zip":"0200402"},{"town":"川又","koaza":"新沢","lat":39.782963,"lng":141.214236,"zip":"0200203"},{"town":"手代森","koaza":"二地割","lat":39.6606,"lng":141.21522,"zip":"0200401"},{"town":"日戸","koaza":"古屋敷","lat":39.799897,"lng":141.215568,"zip":"0200201"},{"town":"川又","koaza":"大日向","lat":39.778253,"lng":141.214017,"zip":"0200203"},{"town":"乙部","koaza":"二十三地割","lat":39.605492,"lng":141.217792,"zip":"0200403"},{"town":"乙部","koaza":"二十四地割","lat":39.603465,"lng":141.211091,"zip":"0200403"},{"town":"乙部","koaza":"一地割","lat":39.627843,"lng":141.217409,"zip":"0200403"},{"town":"乙部","koaza":"十七地割","lat":39.616813,"lng":141.217909,"zip":"0200403"},{"town":"上米内","koaza":"畑","lat":39.74828,"lng":141.22538,"zip":"0200001"},{"town":"玉山","koaza":"川久保","lat":39.810376,"lng":141.214225,"zip":"0200202"},{"town":"上米内","koaza":"小浜","lat":39.769721,"lng":141.222086,"zip":"0200001"},{"town":"上米内","koaza":"白石","lat":39.767195,"lng":141.229971,"zip":"0200001"},{"town":"巻堀","koaza":"西郡","lat":39.884065,"lng":141.221949,"zip":"0284123"},{"town":"大ケ生","koaza":"三十地割","lat":39.630311,"lng":141.229638,"zip":"0200404"},{"town":"浅岸","koaza":"下大葛","lat":39.711572,"lng":141.226308,"zip":"0200801"},{"town":"乙部","koaza":"二十二地割","lat":39.609136,"lng":141.224969,"zip":"0200403"},{"town":"手代森","koaza":"一地割","lat":39.648332,"lng":141.236279,"zip":"0200401"},{"town":"浅岸","koaza":"木々塚","lat":39.701171,"lng":141.231296,"zip":"0200801"},{"town":"日戸","koaza":"間洞","lat":39.805671,"lng":141.220668,"zip":"0200201"},{"town":"乙部","koaza":"十八地割","lat":39.612647,"lng":141.224096,"zip":"0200403"},{"town":"日戸","koaza":"日影","lat":39.803077,"lng":141.221622,"zip":"0200201"},{"town":"大ケ生","koaza":"三十一地割","lat":39.618964,"lng":141.226343,"zip":"0200404"},{"town":"乙部","koaza":"二十一地割","lat":39.610952,"lng":141.228587,"zip":"0200403"},{"town":"乙部","koaza":"十九地割","lat":39.613051,"lng":141.230983,"zip":"0200403"},{"town":"黒川","koaza":"一地割","lat":39.642709,"lng":141.234717,"zip":"0200402"},{"town":"乙部","koaza":"二十地割","lat":39.611272,"lng":141.231703,"zip":"0200403"},{"town":"大ケ生","koaza":"二十五地割","lat":39.617702,"lng":141.231436,"zip":"0200404"},{"town":"川目","koaza":"第二地割","lat":39.670022,"lng":141.246088,"zip":"0200812"},{"town":"大ケ生","koaza":"二十四地割","lat":39.613712,"lng":141.232768,"zip":"0200404"},{"town":"浅岸","koaza":"上大葛","lat":39.713207,"lng":141.23476,"zip":"0200801"},{"town":"大ケ生","koaza":"二十七地割","lat":39.619264,"lng":141.230478,"zip":"0200404"},{"town":"大ケ生","koaza":"二十六地割","lat":39.622075,"lng":141.237105,"zip":"0200404"},{"town":"大ケ生","koaza":"二十地割","lat":39.607524,"lng":141.236977,"zip":"0200404"},{"town":"大ケ生","koaza":"二十一地割","lat":39.610249,"lng":141.237956,"zip":"0200404"},{"town":"大ケ生","koaza":"十八地割","lat":39.608111,"lng":141.244982,"zip":"0200404"},{"town":"大ケ生","koaza":"二十九地割","lat":39.637339,"lng":141.246696,"zip":"0200404"},{"town":"大ケ生","koaza":"十九地割","lat":39.604393,"lng":141.239156,"zip":"0200404"},{"town":"新庄","koaza":"小貝沢","lat":39.710685,"lng":141.270422,"zip":"0200803"},{"town":"川目","koaza":"第一地割","lat":39.663137,"lng":141.251752,"zip":"0200812"},{"town":"浅岸","koaza":"元信","lat":39.722299,"lng":141.257358,"zip":"0200801"},{"town":"川目","koaza":"第三地割","lat":39.689595,"lng":141.250347,"zip":"0200812"},{"town":"大ケ生","koaza":"八地割","lat":39.628243,"lng":141.240161,"zip":"0200404"},{"town":"大ケ生","koaza":"七地割","lat":39.632911,"lng":141.250577,"zip":"0200404"},{"town":"大ケ生","koaza":"十七地割","lat":39.603435,"lng":141.249369,"zip":"0200404"},{"town":"大ケ生","koaza":"十二地割","lat":39.624062,"lng":141.251076,"zip":"0200404"},{"town":"大ケ生","koaza":"六地割","lat":39.627879,"lng":141.254418,"zip":"0200404"},{"town":"浅岸","koaza":"鍋倉","lat":39.742504,"lng":141.252076,"zip":"0200801"},{"town":"大ケ生","koaza":"十一地割","lat":39.62326,"lng":141.256042,"zip":"0200404"},{"town":"大ケ生","koaza":"十五地割","lat":39.60003,"lng":141.257298,"zip":"0200404"},{"town":"大ケ生","koaza":"十三地割","lat":39.619347,"lng":141.258407,"zip":"0200404"},{"town":"大ケ生","koaza":"五地割","lat":39.636646,"lng":141.266073,"zip":"0200404"},{"town":"大ケ生","koaza":"四地割","lat":39.626482,"lng":141.262622,"zip":"0200404"},{"town":"新庄","koaza":"銭掛","lat":39.714879,"lng":141.264684,"zip":"0200803"},{"town":"大ケ生","koaza":"三地割","lat":39.622347,"lng":141.262356,"zip":"0200404"},{"town":"大ケ生","koaza":"十四地割","lat":39.615486,"lng":141.263249,"zip":"0200404"},{"town":"大ケ生","koaza":"一地割","lat":39.619943,"lng":141.274765,"zip":"0200404"},{"town":"大ケ生","koaza":"二地割","lat":39.624198,"lng":141.274033,"zip":"0200404"},{"town":"根田茂","koaza":"第四地割","lat":39.628238,"lng":141.285911,"zip":"0200313"},{"town":"浅岸","koaza":"大志田","lat":39.739947,"lng":141.282774,"zip":"0200801"},{"town":"簗川","koaza":"第六地割","lat":39.675261,"lng":141.297473,"zip":"0200311"},{"town":"根田茂","koaza":"第五地割","lat":39.632372,"lng":141.297466,"zip":"0200313"},{"town":"簗川","koaza":"第五地割","lat":39.667469,"lng":141.301189,"zip":"0200311"},{"town":"根田茂","koaza":"第二地割","lat":39.62553,"lng":141.294641,"zip":"0200313"},{"town":"簗川","koaza":"第四地割","lat":39.665894,"lng":141.311235,"zip":"0200311"},{"town":"根田茂","koaza":"第一地割","lat":39.625294,"lng":141.314993,"zip":"0200313"},{"town":"砂子沢","koaza":"第六地割","lat":39.590625,"lng":141.326673,"zip":"0200312"},{"town":"簗川","koaza":"第二地割","lat":39.671691,"lng":141.329821,"zip":"0200311"},{"town":"砂子沢","koaza":"第十二地割","lat":39.613302,"lng":141.319445,"zip":"0200312"},{"town":"簗川","koaza":"第三地割","lat":39.665033,"lng":141.321395,"zip":"0200311"},{"town":"砂子沢","koaza":"第十一地割","lat":39.605935,"lng":141.316252,"zip":"0200312"},{"town":"砂子沢","koaza":"第九地割","lat":39.594166,"lng":141.323938,"zip":"0200312"},{"town":"簗川","koaza":"第一地割","lat":39.660759,"lng":141.324654,"zip":"0200311"},{"town":"砂子沢","koaza":"第四地割","lat":39.59801,"lng":141.325738,"zip":"0200312"},{"town":"砂子沢","koaza":"第三地割","lat":39.596924,"lng":141.328673,"zip":"0200312"},{"town":"砂子沢","koaza":"第五地割","lat":39.595583,"lng":141.329415,"zip":"0200312"},{"town":"大ケ生","koaza":"二十八地割","lat":39.631257,"lng":141.237182,"zip":"0200404"},{"town":"砂子沢","koaza":"第十地割","lat":39.602615,"lng":141.318145,"zip":"0200312"},{"town":"砂子沢","koaza":"第十三地割","lat":39.603605,"lng":141.317301,"zip":"0200312"}]