[{"town":"赤沢","koaza":"","lat":39.537107,"lng":141.246917,"zip":"0283533"},{"town":"稲藤","koaza":"","lat":39.548403,"lng":141.123493,"zip":"0283451"},{"town":"犬渕","koaza":"","lat":39.51518,"lng":141.165945,"zip":"0283311"},{"town":"犬吠森","koaza":"","lat":39.562303,"lng":141.182775,"zip":"0283312"},{"town":"江柄","koaza":"","lat":39.599543,"lng":141.235806,"zip":"0283321"},{"town":"大巻","koaza":"","lat":39.535681,"lng":141.187456,"zip":"0283314"},{"town":"片寄","koaza":"","lat":39.522329,"lng":141.120306,"zip":"0283452"},{"town":"上平沢","koaza":"","lat":39.555724,"lng":141.107205,"zip":"0283441"},{"town":"上松本","koaza":"","lat":39.572476,"lng":141.075115,"zip":"0283443"},{"town":"北沢","koaza":"","lat":39.600805,"lng":141.217346,"zip":"0283323"},{"town":"北田","koaza":"","lat":39.568561,"lng":141.211311,"zip":"0283536"},{"town":"北日詰","koaza":"","lat":39.540684,"lng":141.158184,"zip":"0283309"},{"town":"草刈","koaza":"","lat":39.56828,"lng":141.192035,"zip":"0283325"},{"town":"高水寺","koaza":"","lat":39.575217,"lng":141.163777,"zip":"0283303"},{"town":"小屋敷","koaza":"","lat":39.574592,"lng":141.089514,"zip":"0283444"},{"town":"桜町","koaza":"","lat":39.546823,"lng":141.165899,"zip":"0283307"},{"town":"桜町一丁目","koaza":"","lat":39.549625,"lng":141.165339,"zip":"0283307"},{"town":"桜町二丁目","koaza":"","lat":39.547867,"lng":141.165467,"zip":"0283307"},{"town":"佐比内","koaza":"","lat":39.510092,"lng":141.252038,"zip":"0283316"},{"town":"下松本","koaza":"","lat":39.573053,"lng":141.125494,"zip":"0283446"},{"town":"紫波中央駅前一丁目","koaza":"","lat":39.553609,"lng":141.159339,"zip":"0283318"},{"town":"紫波中央駅前二丁目","koaza":"","lat":39.553351,"lng":141.156247,"zip":"0283318"},{"town":"紫波中央駅前三丁目","koaza":"","lat":39.55733,"lng":141.155341,"zip":"0283318"},{"town":"紫波中央駅前四丁目","koaza":"","lat":39.55754,"lng":141.156989,"zip":"0283318"},{"town":"紫波中央駅前五丁目","koaza":"","lat":39.557629,"lng":141.158578,"zip":"0283318"},{"town":"陣ケ岡","koaza":"","lat":39.572708,"lng":141.146142,"zip":"0283302"},{"town":"土舘","koaza":"","lat":39.541705,"lng":141.099338,"zip":"0283453"},{"town":"遠山","koaza":"","lat":39.556548,"lng":141.212698,"zip":"0283535"},{"town":"栃内","koaza":"","lat":39.593076,"lng":141.210366,"zip":"0283322"},{"town":"中島","koaza":"","lat":39.578229,"lng":141.151302,"zip":"0283301"},{"town":"西長岡","koaza":"","lat":39.577303,"lng":141.204393,"zip":"0283326"},{"town":"東長岡","koaza":"","lat":39.588792,"lng":141.238968,"zip":"0283324"},{"town":"彦部","koaza":"","lat":39.513824,"lng":141.193982,"zip":"0283315"},{"town":"日詰","koaza":"","lat":39.55731,"lng":141.162574,"zip":"0283305"},{"town":"日詰駅前一丁目","koaza":"","lat":39.539098,"lng":141.162403,"zip":"0283310"},{"town":"日詰駅前二丁目","koaza":"","lat":39.538089,"lng":141.162163,"zip":"0283310"},{"town":"日詰西一丁目","koaza":"","lat":39.553718,"lng":141.165722,"zip":"0283306"},{"town":"日詰西二丁目","koaza":"","lat":39.551509,"lng":141.16594,"zip":"0283306"},{"town":"日詰西三丁目","koaza":"","lat":39.551113,"lng":141.163758,"zip":"0283306"},{"town":"日詰西四丁目","koaza":"","lat":39.550762,"lng":141.161762,"zip":"0283306"},{"town":"日詰西五丁目","koaza":"","lat":39.55291,"lng":141.161324,"zip":"0283306"},{"town":"日詰西六丁目","koaza":"","lat":39.553286,"lng":141.163327,"zip":"0283306"},{"town":"平沢","koaza":"","lat":39.547931,"lng":141.13866,"zip":"0283308"},{"town":"二日町","koaza":"","lat":39.566734,"lng":141.155032,"zip":"0283304"},{"town":"船久保","koaza":"","lat":39.565017,"lng":141.255984,"zip":"0283532"},{"town":"星山","koaza":"","lat":39.550656,"lng":141.190277,"zip":"0283313"},{"town":"升沢","koaza":"","lat":39.561647,"lng":141.087728,"zip":"0283442"},{"town":"南伝法寺","koaza":"","lat":39.588113,"lng":141.086306,"zip":"0283445"},{"town":"南日詰","koaza":"","lat":39.524657,"lng":141.170587,"zip":"0283317"},{"town":"宮手","koaza":"","lat":39.566697,"lng":141.123341,"zip":"0283447"},{"town":"紫野","koaza":"","lat":39.560043,"lng":141.231351,"zip":"0283534"},{"town":"山屋","koaza":"","lat":39.577581,"lng":141.24034,"zip":"0283531"},{"town":"吉水","koaza":"","lat":39.566867,"lng":141.103439,"zip":"0283448"},{"town":"升沢","koaza":"前平","lat":39.559312,"lng":141.07981,"zip":"0283442"},{"town":"小屋敷","koaza":"新在家","lat":39.582359,"lng":141.083811,"zip":"0283444"},{"town":"上松本","koaza":"境","lat":39.564505,"lng":141.08223,"zip":"0283443"},{"town":"升沢","koaza":"小森","lat":39.561227,"lng":141.080016,"zip":"0283442"},{"town":"上松本","koaza":"沢田","lat":39.570148,"lng":141.084463,"zip":"0283443"},{"town":"升沢","koaza":"竹原","lat":39.560711,"lng":141.084507,"zip":"0283442"},{"town":"上松本","koaza":"中野","lat":39.564794,"lng":141.086697,"zip":"0283443"},{"town":"上松本","koaza":"内方","lat":39.571789,"lng":141.085235,"zip":"0283443"},{"town":"上松本","koaza":"柳屋敷","lat":39.572892,"lng":141.087144,"zip":"0283443"},{"town":"升沢","koaza":"久保","lat":39.562264,"lng":141.088543,"zip":"0283442"},{"town":"上松本","koaza":"清水屋敷","lat":39.568185,"lng":141.088203,"zip":"0283443"},{"town":"土舘","koaza":"弥勒地","lat":39.552777,"lng":141.088384,"zip":"0283453"},{"town":"上松本","koaza":"柿田","lat":39.569772,"lng":141.091875,"zip":"0283443"},{"town":"小屋敷","koaza":"小林","lat":39.575668,"lng":141.08997,"zip":"0283444"},{"town":"南伝法寺","koaza":"上山新田","lat":39.584633,"lng":141.088797,"zip":"0283445"},{"town":"片寄","koaza":"大明神","lat":39.520198,"lng":141.096902,"zip":"0283452"},{"town":"南伝法寺","koaza":"上山","lat":39.583851,"lng":141.095749,"zip":"0283445"},{"town":"土舘","koaza":"松森","lat":39.539694,"lng":141.094967,"zip":"0283453"},{"town":"小屋敷","koaza":"阿弥陀堂","lat":39.572294,"lng":141.09364,"zip":"0283444"},{"town":"土舘","koaza":"石田","lat":39.552966,"lng":141.093982,"zip":"0283453"},{"town":"小屋敷","koaza":"古屋敷","lat":39.572306,"lng":141.097299,"zip":"0283444"},{"town":"南伝法寺","koaza":"水持","lat":39.576724,"lng":141.099199,"zip":"0283445"},{"town":"南伝法寺","koaza":"沢口","lat":39.579703,"lng":141.096041,"zip":"0283445"},{"town":"小屋敷","koaza":"野原","lat":39.574951,"lng":141.097951,"zip":"0283444"},{"town":"小屋敷","koaza":"京田","lat":39.57261,"lng":141.101361,"zip":"0283444"},{"town":"小屋敷","koaza":"荒屋","lat":39.568703,"lng":141.101054,"zip":"0283444"},{"town":"升沢","koaza":"田屋","lat":39.562035,"lng":141.099412,"zip":"0283442"},{"town":"上平沢","koaza":"樋ノ口","lat":39.552762,"lng":141.102294,"zip":"0283441"},{"town":"南伝法寺","koaza":"大畑","lat":39.579172,"lng":141.105165,"zip":"0283445"},{"town":"南伝法寺","koaza":"小黒沢","lat":39.575856,"lng":141.098707,"zip":"0283445"},{"town":"上平沢","koaza":"川原","lat":39.557143,"lng":141.102548,"zip":"0283441"},{"town":"南伝法寺","koaza":"中屋敷","lat":39.577811,"lng":141.102401,"zip":"0283445"},{"town":"上平沢","koaza":"熊田","lat":39.559876,"lng":141.098948,"zip":"0283441"},{"town":"土舘","koaza":"関沢","lat":39.549281,"lng":141.101725,"zip":"0283453"},{"town":"片寄","koaza":"後在所","lat":39.51542,"lng":141.101659,"zip":"0283452"},{"town":"吉水","koaza":"清水屋敷","lat":39.565311,"lng":141.101399,"zip":"0283448"},{"town":"吉水","koaza":"小深田","lat":39.569189,"lng":141.102635,"zip":"0283448"},{"town":"南伝法寺","koaza":"宇南","lat":39.576973,"lng":141.10453,"zip":"0283445"},{"town":"片寄","koaza":"二ツ森","lat":39.510702,"lng":141.104803,"zip":"0283452"},{"town":"片寄","koaza":"堤下","lat":39.515476,"lng":141.107024,"zip":"0283452"},{"town":"宮手","koaza":"作岡","lat":39.562489,"lng":141.105483,"zip":"0283447"},{"town":"土舘","koaza":"浦田","lat":39.541232,"lng":141.107043,"zip":"0283453"},{"town":"片寄","koaza":"中平","lat":39.531773,"lng":141.104381,"zip":"0283452"},{"town":"片寄","koaza":"笠井田","lat":39.521695,"lng":141.104908,"zip":"0283452"},{"town":"上平沢","koaza":"南馬場","lat":39.555051,"lng":141.107472,"zip":"0283441"},{"town":"上平沢","koaza":"川崎","lat":39.555692,"lng":141.097845,"zip":"0283441"},{"town":"片寄","koaza":"大沢尻","lat":39.537196,"lng":141.10485,"zip":"0283452"},{"town":"宮手","koaza":"泉屋敷","lat":39.5651,"lng":141.105358,"zip":"0283447"},{"town":"上平沢","koaza":"川原田","lat":39.552735,"lng":141.106654,"zip":"0283441"},{"town":"上平沢","koaza":"八幡","lat":39.558792,"lng":141.105459,"zip":"0283441"},{"town":"片寄","koaza":"漆立","lat":39.519123,"lng":141.10816,"zip":"0283452"},{"town":"吉水","koaza":"中村","lat":39.56825,"lng":141.1053,"zip":"0283448"},{"town":"片寄","koaza":"日当","lat":39.522773,"lng":141.107532,"zip":"0283452"},{"town":"片寄","koaza":"鶉森","lat":39.530419,"lng":141.108337,"zip":"0283452"},{"town":"片寄","koaza":"十二神","lat":39.5167,"lng":141.107076,"zip":"0283452"},{"town":"片寄","koaza":"野添","lat":39.508113,"lng":141.108425,"zip":"0283452"},{"town":"片寄","koaza":"沢口","lat":39.52493,"lng":141.108831,"zip":"0283452"},{"town":"上平沢","koaza":"馬場","lat":39.555962,"lng":141.111149,"zip":"0283441"},{"town":"片寄","koaza":"沢田前","lat":39.535825,"lng":141.108268,"zip":"0283452"},{"town":"上平沢","koaza":"若宮","lat":39.559343,"lng":141.110321,"zip":"0283441"},{"town":"小屋敷","koaza":"四方田","lat":39.572844,"lng":141.109927,"zip":"0283444"},{"town":"片寄","koaza":"漆原","lat":39.524249,"lng":141.108589,"zip":"0283452"},{"town":"片寄","koaza":"朴田","lat":39.519912,"lng":141.111369,"zip":"0283452"},{"town":"土舘","koaza":"百目木","lat":39.545981,"lng":141.110446,"zip":"0283453"},{"town":"宮手","koaza":"上戸","lat":39.564612,"lng":141.110322,"zip":"0283447"},{"town":"片寄","koaza":"白旗","lat":39.513472,"lng":141.109589,"zip":"0283452"},{"town":"宮手","koaza":"栃花","lat":39.563406,"lng":141.113307,"zip":"0283447"},{"town":"片寄","koaza":"野際","lat":39.511061,"lng":141.109732,"zip":"0283452"},{"town":"片寄","koaza":"大木","lat":39.522983,"lng":141.110488,"zip":"0283452"},{"town":"土舘","koaza":"金田","lat":39.538671,"lng":141.110475,"zip":"0283453"},{"town":"片寄","koaza":"山田前","lat":39.518002,"lng":141.109707,"zip":"0283452"},{"town":"土舘","koaza":"内川","lat":39.549372,"lng":141.111608,"zip":"0283453"},{"town":"下松本","koaza":"上渡","lat":39.568384,"lng":141.110797,"zip":"0283446"},{"town":"稲藤","koaza":"升形","lat":39.553046,"lng":141.112232,"zip":"0283451"},{"town":"南伝法寺","koaza":"和田","lat":39.57396,"lng":141.107274,"zip":"0283445"},{"town":"土舘","koaza":"谷地","lat":39.544458,"lng":141.112667,"zip":"0283453"},{"town":"下松本","koaza":"二ツ屋","lat":39.570126,"lng":141.112214,"zip":"0283446"},{"town":"南伝法寺","koaza":"八卦","lat":39.575667,"lng":141.111945,"zip":"0283445"},{"town":"片寄","koaza":"寺田","lat":39.52943,"lng":141.11493,"zip":"0283452"},{"town":"片寄","koaza":"野中","lat":39.512352,"lng":141.113674,"zip":"0283452"},{"town":"南伝法寺","koaza":"漆田","lat":39.578063,"lng":141.111574,"zip":"0283445"},{"town":"南伝法寺","koaza":"車","lat":39.578985,"lng":141.111691,"zip":"0283445"},{"town":"小屋敷","koaza":"道ノ下","lat":39.572926,"lng":141.115758,"zip":"0283444"},{"town":"土舘","koaza":"萩屋敷","lat":39.533198,"lng":141.1139,"zip":"0283453"},{"town":"稲藤","koaza":"牡丹野","lat":39.551079,"lng":141.116801,"zip":"0283451"},{"town":"片寄","koaza":"久保田","lat":39.515869,"lng":141.114101,"zip":"0283452"},{"town":"片寄","koaza":"沢崎","lat":39.525923,"lng":141.113772,"zip":"0283452"},{"town":"下松本","koaza":"下二合","lat":39.569354,"lng":141.116229,"zip":"0283446"},{"town":"土舘","koaza":"田屋","lat":39.539741,"lng":141.113774,"zip":"0283453"},{"town":"南伝法寺","koaza":"高木","lat":39.580085,"lng":141.116244,"zip":"0283445"},{"town":"片寄","koaza":"熊林","lat":39.513588,"lng":141.111997,"zip":"0283452"},{"town":"稲藤","koaza":"川原","lat":39.54548,"lng":141.118615,"zip":"0283451"},{"town":"南伝法寺","koaza":"前野","lat":39.580991,"lng":141.114524,"zip":"0283445"},{"town":"南伝法寺","koaza":"新田","lat":39.576466,"lng":141.119302,"zip":"0283445"},{"town":"小屋敷","koaza":"中谷地","lat":39.57421,"lng":141.115743,"zip":"0283444"},{"town":"南伝法寺","koaza":"大谷地","lat":39.583602,"lng":141.117046,"zip":"0283445"},{"town":"宮手","koaza":"谷地舘","lat":39.561961,"lng":141.115922,"zip":"0283447"},{"town":"片寄","koaza":"百目木","lat":39.52033,"lng":141.117788,"zip":"0283452"},{"town":"片寄","koaza":"上久保","lat":39.51855,"lng":141.11898,"zip":"0283452"},{"town":"片寄","koaza":"丹後","lat":39.525095,"lng":141.119491,"zip":"0283452"},{"town":"土舘","koaza":"沖田","lat":39.536523,"lng":141.121999,"zip":"0283453"},{"town":"上平沢","koaza":"東馬場","lat":39.55433,"lng":141.116515,"zip":"0283441"},{"town":"土舘","koaza":"牡丹野","lat":39.54425,"lng":141.117153,"zip":"0283453"},{"town":"片寄","koaza":"久保田前","lat":39.517546,"lng":141.118522,"zip":"0283452"},{"town":"土舘","koaza":"北田","lat":39.529964,"lng":141.119261,"zip":"0283453"},{"town":"上平沢","koaza":"新田","lat":39.557795,"lng":141.118113,"zip":"0283441"},{"town":"上平沢","koaza":"栗田","lat":39.553509,"lng":141.121576,"zip":"0283441"},{"town":"片寄","koaza":"野崎","lat":39.526878,"lng":141.120682,"zip":"0283452"},{"town":"稲藤","koaza":"後藤","lat":39.552909,"lng":141.118454,"zip":"0283451"},{"town":"土舘","koaza":"谷地中","lat":39.534487,"lng":141.117919,"zip":"0283453"},{"town":"小屋敷","koaza":"夫屋敷","lat":39.573632,"lng":141.119384,"zip":"0283444"},{"town":"宮手","koaza":"野中","lat":39.563846,"lng":141.12138,"zip":"0283447"},{"town":"宮手","koaza":"朴田","lat":39.567646,"lng":141.1184,"zip":"0283447"},{"town":"土舘","koaza":"小林","lat":39.540617,"lng":141.118879,"zip":"0283453"},{"town":"稲藤","koaza":"新里","lat":39.543553,"lng":141.121071,"zip":"0283451"},{"town":"下松本","koaza":"元地","lat":39.571608,"lng":141.121185,"zip":"0283446"},{"town":"南伝法寺","koaza":"川原","lat":39.58587,"lng":141.121129,"zip":"0283445"},{"town":"宮手","koaza":"向田","lat":39.565373,"lng":141.120789,"zip":"0283447"},{"town":"南伝法寺","koaza":"下高木","lat":39.583228,"lng":141.122558,"zip":"0283445"},{"town":"片寄","koaza":"野畑","lat":39.517416,"lng":141.129329,"zip":"0283452"},{"town":"稲藤","koaza":"関口","lat":39.550927,"lng":141.121633,"zip":"0283451"},{"town":"土舘","koaza":"新里","lat":39.540476,"lng":141.121197,"zip":"0283453"},{"town":"片寄","koaza":"堀米","lat":39.522865,"lng":141.121914,"zip":"0283452"},{"town":"南伝法寺","koaza":"両沼","lat":39.578259,"lng":141.123933,"zip":"0283445"},{"town":"南伝法寺","koaza":"久保屋敷","lat":39.578491,"lng":141.118651,"zip":"0283445"},{"town":"上平沢","koaza":"久田","lat":39.557722,"lng":141.122192,"zip":"0283441"},{"town":"宮手","koaza":"中宮","lat":39.569577,"lng":141.125598,"zip":"0283447"},{"town":"土舘","koaza":"尻掛","lat":39.536983,"lng":141.12412,"zip":"0283453"},{"town":"片寄","koaza":"土手田","lat":39.527126,"lng":141.125582,"zip":"0283452"},{"town":"片寄","koaza":"中島","lat":39.531242,"lng":141.125558,"zip":"0283452"},{"town":"南伝法寺","koaza":"細谷地","lat":39.575462,"lng":141.123891,"zip":"0283445"},{"town":"南伝法寺","koaza":"長根","lat":39.585088,"lng":141.122828,"zip":"0283445"},{"town":"稲藤","koaza":"学屋","lat":39.547248,"lng":141.125828,"zip":"0283451"},{"town":"稲藤","koaza":"内田","lat":39.55043,"lng":141.126225,"zip":"0283451"},{"town":"稲藤","koaza":"廿木","lat":39.545239,"lng":141.125737,"zip":"0283451"},{"town":"稲藤","koaza":"田屋","lat":39.551571,"lng":141.126877,"zip":"0283451"},{"town":"土舘","koaza":"川久保","lat":39.538721,"lng":141.127961,"zip":"0283453"},{"town":"稲藤","koaza":"瀬平","lat":39.554012,"lng":141.124666,"zip":"0283451"},{"town":"宮手","koaza":"立分","lat":39.56605,"lng":141.124757,"zip":"0283447"},{"town":"下松本","koaza":"蓬田","lat":39.572988,"lng":141.128935,"zip":"0283446"},{"town":"稲藤","koaza":"南七合","lat":39.546413,"lng":141.127565,"zip":"0283451"},{"town":"稲藤","koaza":"宝木","lat":39.544287,"lng":141.126666,"zip":"0283451"},{"town":"稲藤","koaza":"田中","lat":39.548999,"lng":141.128064,"zip":"0283451"},{"town":"片寄","koaza":"四ツ屋","lat":39.5206,"lng":141.134513,"zip":"0283452"},{"town":"片寄","koaza":"梅田","lat":39.527993,"lng":141.13448,"zip":"0283452"},{"town":"上平沢","koaza":"油田","lat":39.560526,"lng":141.129153,"zip":"0283441"},{"town":"宮手","koaza":"久々舘","lat":39.570383,"lng":141.132459,"zip":"0283447"},{"town":"宮手","koaza":"土森","lat":39.568136,"lng":141.130781,"zip":"0283447"},{"town":"稲藤","koaza":"和田","lat":39.550627,"lng":141.131469,"zip":"0283451"},{"town":"稲藤","koaza":"太田元","lat":39.55572,"lng":141.130836,"zip":"0283451"},{"town":"平沢","koaza":"野田","lat":39.543622,"lng":141.134797,"zip":"0283308"},{"town":"上平沢","koaza":"西在家","lat":39.557077,"lng":141.128357,"zip":"0283441"},{"town":"宮手","koaza":"越場","lat":39.562045,"lng":141.132847,"zip":"0283447"},{"town":"下松本","koaza":"曽利目","lat":39.57458,"lng":141.131526,"zip":"0283446"},{"town":"平沢","koaza":"四折","lat":39.546914,"lng":141.136168,"zip":"0283308"},{"town":"平沢","koaza":"大松","lat":39.540761,"lng":141.133282,"zip":"0283308"},{"town":"宮手","koaza":"陣ケ岡","lat":39.569747,"lng":141.141333,"zip":"0283447"},{"town":"平沢","koaza":"幅","lat":39.54893,"lng":141.134723,"zip":"0283308"},{"town":"上平沢","koaza":"下油田","lat":39.558971,"lng":141.132402,"zip":"0283441"},{"town":"片寄","koaza":"木戸","lat":39.530929,"lng":141.136221,"zip":"0283452"},{"town":"平沢","koaza":"滝名川","lat":39.538148,"lng":141.134261,"zip":"0283308"},{"town":"平沢","koaza":"檜","lat":39.551165,"lng":141.136654,"zip":"0283308"},{"town":"平沢","koaza":"舘","lat":39.554589,"lng":141.137852,"zip":"0283308"},{"town":"宮手","koaza":"北田","lat":39.565467,"lng":141.135202,"zip":"0283447"},{"town":"片寄","koaza":"下谷地","lat":39.514849,"lng":141.135271,"zip":"0283452"},{"town":"平沢","koaza":"越場","lat":39.555981,"lng":141.137294,"zip":"0283308"},{"town":"平沢","koaza":"六本松","lat":39.556687,"lng":141.135653,"zip":"0283308"},{"town":"中島","koaza":"上竹林","lat":39.576312,"lng":141.136846,"zip":"0283301"},{"town":"平沢","koaza":"佐藤部","lat":39.539157,"lng":141.13639,"zip":"0283308"},{"town":"平沢","koaza":"新田","lat":39.544082,"lng":141.139634,"zip":"0283308"},{"town":"平沢","koaza":"高","lat":39.560102,"lng":141.138614,"zip":"0283308"},{"town":"片寄","koaza":"新田","lat":39.524612,"lng":141.137798,"zip":"0283452"},{"town":"片寄","koaza":"源氏谷地","lat":39.518136,"lng":141.141115,"zip":"0283452"},{"town":"宮手","koaza":"追分","lat":39.562936,"lng":141.140049,"zip":"0283447"},{"town":"中島","koaza":"下竹林","lat":39.577549,"lng":141.14197,"zip":"0283301"},{"town":"平沢","koaza":"境田","lat":39.546594,"lng":141.14239,"zip":"0283308"},{"town":"片寄","koaza":"岡田","lat":39.524126,"lng":141.141074,"zip":"0283452"},{"town":"南日詰","koaza":"野原","lat":39.533986,"lng":141.140577,"zip":"0283317"},{"town":"平沢","koaza":"的場","lat":39.544514,"lng":141.143403,"zip":"0283308"},{"town":"二日町","koaza":"追分","lat":39.563594,"lng":141.14342,"zip":"0283304"},{"town":"平沢","koaza":"堤頭","lat":39.552121,"lng":141.142063,"zip":"0283308"},{"town":"北日詰","koaza":"外谷地","lat":39.53825,"lng":141.150508,"zip":"0283309"},{"town":"南日詰","koaza":"梅田","lat":39.527594,"lng":141.146329,"zip":"0283317"},{"town":"平沢","koaza":"油田","lat":39.554898,"lng":141.142628,"zip":"0283308"},{"town":"中島","koaza":"野際","lat":39.582146,"lng":141.148895,"zip":"0283301"},{"town":"中島","koaza":"上長根","lat":39.578636,"lng":141.146544,"zip":"0283301"},{"town":"片寄","koaza":"川原","lat":39.524177,"lng":141.148583,"zip":"0283452"},{"town":"陣ケ岡","koaza":"漆田","lat":39.573343,"lng":141.144469,"zip":"0283302"},{"town":"陣ケ岡","koaza":"平坊","lat":39.568543,"lng":141.14482,"zip":"0283302"},{"town":"中島","koaza":"下長根","lat":39.578777,"lng":141.150568,"zip":"0283301"},{"town":"片寄","koaza":"鶴泉","lat":39.512345,"lng":141.147256,"zip":"0283452"},{"town":"片寄","koaza":"北沢","lat":39.520395,"lng":141.149617,"zip":"0283452"},{"town":"平沢","koaza":"長尾沢","lat":39.549939,"lng":141.149513,"zip":"0283308"},{"town":"南日詰","koaza":"川原","lat":39.527384,"lng":141.151045,"zip":"0283317"},{"town":"桜町","koaza":"上野沢","lat":39.551832,"lng":141.152952,"zip":"0283307"},{"town":"北日詰","koaza":"牡丹野","lat":39.545019,"lng":141.152349,"zip":"0283309"},{"town":"南日詰","koaza":"長根","lat":39.529539,"lng":141.150398,"zip":"0283317"},{"town":"陣ケ岡","koaza":"沢田","lat":39.575021,"lng":141.15099,"zip":"0283302"},{"town":"片寄","koaza":"越田","lat":39.520562,"lng":141.151739,"zip":"0283452"},{"town":"片寄","koaza":"古道","lat":39.517404,"lng":141.152745,"zip":"0283452"},{"town":"中島","koaza":"鷲内","lat":39.579273,"lng":141.15412,"zip":"0283301"},{"town":"中島","koaza":"八平","lat":39.581928,"lng":141.15286,"zip":"0283301"},{"town":"片寄","koaza":"野尻","lat":39.513412,"lng":141.151831,"zip":"0283452"},{"town":"南日詰","koaza":"八卦","lat":39.532581,"lng":141.154774,"zip":"0283317"},{"town":"二日町","koaza":"西七久保","lat":39.564182,"lng":141.154112,"zip":"0283304"},{"town":"陣ケ岡","koaza":"幅","lat":39.575274,"lng":141.152901,"zip":"0283302"},{"town":"中島","koaza":"落合","lat":39.58182,"lng":141.154234,"zip":"0283301"},{"town":"南日詰","koaza":"京田","lat":39.525659,"lng":141.157902,"zip":"0283317"},{"town":"犬渕","koaza":"深田","lat":39.512088,"lng":141.156721,"zip":"0283311"},{"town":"片寄","koaza":"下中田","lat":39.521371,"lng":141.153957,"zip":"0283452"},{"town":"平沢","koaza":"松田","lat":39.549409,"lng":141.157523,"zip":"0283308"},{"town":"犬渕","koaza":"上田","lat":39.517998,"lng":141.159278,"zip":"0283311"},{"town":"日詰","koaza":"七久保","lat":39.560668,"lng":141.154502,"zip":"0283305"},{"town":"北日詰","koaza":"西屋敷","lat":39.540794,"lng":141.157585,"zip":"0283309"},{"town":"北日詰","koaza":"下藪","lat":39.541903,"lng":141.156221,"zip":"0283309"},{"town":"北日詰","koaza":"守屋","lat":39.542687,"lng":141.160636,"zip":"0283309"},{"town":"中島","koaza":"樋ノ口","lat":39.576752,"lng":141.153423,"zip":"0283301"},{"town":"北日詰","koaza":"八卦","lat":39.534227,"lng":141.157046,"zip":"0283309"},{"town":"中島","koaza":"前郷","lat":39.579767,"lng":141.160351,"zip":"0283301"},{"town":"中島","koaza":"桜田","lat":39.577968,"lng":141.159982,"zip":"0283301"},{"town":"日詰","koaza":"朝日田","lat":39.560075,"lng":141.162037,"zip":"0283305"},{"town":"桜町","koaza":"中桜","lat":39.549131,"lng":141.160861,"zip":"0283307"},{"town":"犬渕","koaza":"南谷地","lat":39.511358,"lng":141.164838,"zip":"0283311"},{"town":"南日詰","koaza":"蔭沼","lat":39.528432,"lng":141.159505,"zip":"0283317"},{"town":"高水寺","koaza":"古屋敷","lat":39.5751,"lng":141.163118,"zip":"0283303"},{"town":"桜町","koaza":"田頭","lat":39.546901,"lng":141.162021,"zip":"0283307"},{"town":"二日町","koaza":"北七久保","lat":39.564614,"lng":141.161997,"zip":"0283304"},{"town":"犬渕","koaza":"谷地田","lat":39.514452,"lng":141.162073,"zip":"0283311"},{"town":"日詰","koaza":"丸盛","lat":39.557147,"lng":141.160714,"zip":"0283305"},{"town":"桜町","koaza":"高木","lat":39.545021,"lng":141.162763,"zip":"0283307"},{"town":"犬渕","koaza":"新田堰","lat":39.519144,"lng":141.163906,"zip":"0283311"},{"town":"北日詰","koaza":"東ノ坊","lat":39.53627,"lng":141.164259,"zip":"0283309"},{"town":"南日詰","koaza":"箱清水","lat":39.533891,"lng":141.160957,"zip":"0283317"},{"town":"日詰","koaza":"中新田","lat":39.554391,"lng":141.160984,"zip":"0283305"},{"town":"高水寺","koaza":"土手","lat":39.572346,"lng":141.164869,"zip":"0283303"},{"town":"犬渕","koaza":"西田","lat":39.518812,"lng":141.169463,"zip":"0283311"},{"town":"南日詰","koaza":"滝名川","lat":39.522583,"lng":141.168405,"zip":"0283317"},{"town":"北日詰","koaza":"白旗","lat":39.541068,"lng":141.165957,"zip":"0283309"},{"town":"高水寺","koaza":"中田","lat":39.577476,"lng":141.164665,"zip":"0283303"},{"town":"二日町","koaza":"南七久保","lat":39.560948,"lng":141.163456,"zip":"0283304"},{"town":"日詰","koaza":"下丸森","lat":39.556028,"lng":141.165958,"zip":"0283305"},{"town":"南日詰","koaza":"田中","lat":39.527786,"lng":141.164524,"zip":"0283317"},{"town":"高水寺","koaza":"田中","lat":39.569898,"lng":141.164816,"zip":"0283303"},{"town":"犬渕","koaza":"下越田","lat":39.514591,"lng":141.168883,"zip":"0283311"},{"town":"高水寺","koaza":"大坊","lat":39.56863,"lng":141.164433,"zip":"0283303"},{"town":"北日詰","koaza":"大日堂","lat":39.538512,"lng":141.16655,"zip":"0283309"},{"town":"桜町","koaza":"才土地","lat":39.543591,"lng":141.16719,"zip":"0283307"},{"town":"南日詰","koaza":"小路口","lat":39.5311,"lng":141.168512,"zip":"0283317"},{"town":"桜町","koaza":"中屋敷","lat":39.546571,"lng":141.167494,"zip":"0283307"},{"town":"南日詰","koaza":"宮崎","lat":39.530176,"lng":141.168495,"zip":"0283317"},{"town":"高水寺","koaza":"向畑","lat":39.576362,"lng":141.168319,"zip":"0283303"},{"town":"二日町","koaza":"山子","lat":39.564825,"lng":141.168013,"zip":"0283304"},{"town":"二日町","koaza":"田中前","lat":39.571325,"lng":141.168292,"zip":"0283304"},{"town":"高水寺","koaza":"稲村","lat":39.581126,"lng":141.168027,"zip":"0283303"},{"town":"桜町","koaza":"浦田","lat":39.542196,"lng":141.168258,"zip":"0283307"},{"town":"南日詰","koaza":"廿木","lat":39.524331,"lng":141.17487,"zip":"0283317"},{"town":"日詰","koaza":"西裏","lat":39.553655,"lng":141.167923,"zip":"0283305"},{"town":"桜町","koaza":"大坪","lat":39.549054,"lng":141.169796,"zip":"0283307"},{"town":"日詰","koaza":"郡山駅","lat":39.555271,"lng":141.169432,"zip":"0283305"},{"town":"南日詰","koaza":"大銀","lat":39.533841,"lng":141.169405,"zip":"0283317"},{"town":"北日詰","koaza":"下東ノ坊","lat":39.537906,"lng":141.168608,"zip":"0283309"},{"town":"日詰","koaza":"石田","lat":39.55914,"lng":141.171468,"zip":"0283305"},{"town":"北日詰","koaza":"城内","lat":39.537366,"lng":141.170829,"zip":"0283309"},{"town":"二日町","koaza":"向山","lat":39.563535,"lng":141.170711,"zip":"0283304"},{"town":"桜町","koaza":"下川原","lat":39.551071,"lng":141.170382,"zip":"0283307"},{"town":"桜町","koaza":"三本木","lat":39.541504,"lng":141.172922,"zip":"0283307"},{"town":"二日町","koaza":"御堂前","lat":39.5696,"lng":141.172048,"zip":"0283304"},{"town":"高水寺","koaza":"川原","lat":39.575996,"lng":141.171083,"zip":"0283303"},{"town":"桜町","koaza":"本町","lat":39.54356,"lng":141.170992,"zip":"0283307"},{"town":"日詰","koaza":"東裏","lat":39.555425,"lng":141.172267,"zip":"0283305"},{"town":"二日町","koaza":"古舘","lat":39.567165,"lng":141.172597,"zip":"0283304"},{"town":"彦部","koaza":"野上","lat":39.507313,"lng":141.172852,"zip":"0283315"},{"town":"桜町","koaza":"上川原","lat":39.553889,"lng":141.172352,"zip":"0283307"},{"town":"桜町","koaza":"本町川原","lat":39.546401,"lng":141.172658,"zip":"0283307"},{"town":"南日詰","koaza":"下川原","lat":39.522553,"lng":141.175022,"zip":"0283317"},{"town":"彦部","koaza":"耳ケ沢","lat":39.506605,"lng":141.177591,"zip":"0283315"},{"town":"犬吠森","koaza":"境","lat":39.551698,"lng":141.177294,"zip":"0283312"},{"town":"大巻","koaza":"船場","lat":39.53565,"lng":141.179184,"zip":"0283314"},{"town":"南日詰","koaza":"八坂","lat":39.523063,"lng":141.177401,"zip":"0283317"},{"town":"彦部","koaza":"竹原","lat":39.512083,"lng":141.183712,"zip":"0283315"},{"town":"犬吠森","koaza":"間木沢","lat":39.56079,"lng":141.178713,"zip":"0283312"},{"town":"大巻","koaza":"桜田","lat":39.539271,"lng":141.178787,"zip":"0283314"},{"town":"星山","koaza":"東田","lat":39.544452,"lng":141.179132,"zip":"0283313"},{"town":"星山","koaza":"間野村","lat":39.547625,"lng":141.179715,"zip":"0283313"},{"town":"犬吠森","koaza":"沼端","lat":39.568129,"lng":141.181294,"zip":"0283312"},{"town":"星山","koaza":"樋口","lat":39.552677,"lng":141.181266,"zip":"0283313"},{"town":"大巻","koaza":"太田","lat":39.533363,"lng":141.180607,"zip":"0283314"},{"town":"彦部","koaza":"姉市","lat":39.506062,"lng":141.185293,"zip":"0283315"},{"town":"星山","koaza":"上谷地","lat":39.559392,"lng":141.18152,"zip":"0283313"},{"town":"犬吠森","koaza":"沼口","lat":39.561673,"lng":141.18187,"zip":"0283312"},{"town":"大巻","koaza":"白旗","lat":39.53129,"lng":141.182902,"zip":"0283314"},{"town":"大巻","koaza":"金矢","lat":39.54385,"lng":141.181921,"zip":"0283314"},{"town":"大巻","koaza":"八竜","lat":39.537304,"lng":141.183696,"zip":"0283314"},{"town":"犬吠森","koaza":"小路口","lat":39.570508,"lng":141.183605,"zip":"0283312"},{"town":"星山","koaza":"朝日田","lat":39.559812,"lng":141.184059,"zip":"0283313"},{"town":"犬吠森","koaza":"岩ノ沢","lat":39.569072,"lng":141.187028,"zip":"0283312"},{"town":"大巻","koaza":"長沢尻","lat":39.531229,"lng":141.185259,"zip":"0283314"},{"town":"大巻","koaza":"梅ノ木","lat":39.536375,"lng":141.187895,"zip":"0283314"},{"town":"彦部","koaza":"久保","lat":39.52742,"lng":141.189647,"zip":"0283315"},{"town":"犬吠森","koaza":"沼田","lat":39.576625,"lng":141.187692,"zip":"0283312"},{"town":"西長岡","koaza":"大又","lat":39.583876,"lng":141.18924,"zip":"0283326"},{"town":"星山","koaza":"津花","lat":39.550546,"lng":141.189586,"zip":"0283313"},{"town":"大巻","koaza":"門田","lat":39.531463,"lng":141.189995,"zip":"0283314"},{"town":"星山","koaza":"杉田","lat":39.545014,"lng":141.198045,"zip":"0283313"},{"town":"星山","koaza":"高屋敷","lat":39.552537,"lng":141.190087,"zip":"0283313"},{"town":"西長岡","koaza":"長谷田","lat":39.57897,"lng":141.191308,"zip":"0283326"},{"town":"草刈","koaza":"中嶋","lat":39.570093,"lng":141.189935,"zip":"0283325"},{"town":"犬吠森","koaza":"後田","lat":39.574043,"lng":141.189938,"zip":"0283312"},{"town":"星山","koaza":"車","lat":39.557849,"lng":141.193837,"zip":"0283313"},{"town":"彦部","koaza":"後庵","lat":39.524015,"lng":141.189982,"zip":"0283315"},{"town":"星山","koaza":"柏森","lat":39.554824,"lng":141.190851,"zip":"0283313"},{"town":"西長岡","koaza":"白山","lat":39.583226,"lng":141.191866,"zip":"0283326"},{"town":"東長岡","koaza":"長苗代","lat":39.585959,"lng":141.191319,"zip":"0283324"},{"town":"彦部","koaza":"石ケ森","lat":39.513116,"lng":141.19344,"zip":"0283315"},{"town":"彦部","koaza":"川前","lat":39.521026,"lng":141.192711,"zip":"0283315"},{"town":"彦部","koaza":"暮坪","lat":39.52797,"lng":141.196655,"zip":"0283315"},{"town":"東長岡","koaza":"米一田","lat":39.58595,"lng":141.193965,"zip":"0283324"},{"town":"西長岡","koaza":"雷","lat":39.579124,"lng":141.192674,"zip":"0283326"},{"town":"彦部","koaza":"千手堂","lat":39.501077,"lng":141.193525,"zip":"0283315"},{"town":"草刈","koaza":"中屋敷","lat":39.574619,"lng":141.19405,"zip":"0283325"},{"town":"草刈","koaza":"大地田","lat":39.5684,"lng":141.19478,"zip":"0283325"},{"town":"西長岡","koaza":"矢羽木","lat":39.583596,"lng":141.193665,"zip":"0283326"},{"town":"彦部","koaza":"定内","lat":39.523913,"lng":141.199074,"zip":"0283315"},{"town":"彦部","koaza":"川久保","lat":39.517715,"lng":141.192979,"zip":"0283315"},{"town":"西長岡","koaza":"飛鳥田","lat":39.577556,"lng":141.194847,"zip":"0283326"},{"town":"北田","koaza":"砥堀","lat":39.572264,"lng":141.194233,"zip":"0283536"},{"town":"西長岡","koaza":"境田","lat":39.579647,"lng":141.195098,"zip":"0283326"},{"town":"西長岡","koaza":"昼嶋","lat":39.581711,"lng":141.195808,"zip":"0283326"},{"town":"彦部","koaza":"東","lat":39.521958,"lng":141.199612,"zip":"0283315"},{"town":"彦部","koaza":"機織","lat":39.519885,"lng":141.201276,"zip":"0283315"},{"town":"彦部","koaza":"大森","lat":39.515581,"lng":141.196118,"zip":"0283315"},{"town":"栃内","koaza":"中田","lat":39.590368,"lng":141.199539,"zip":"0283322"},{"town":"東長岡","koaza":"天王","lat":39.587494,"lng":141.194043,"zip":"0283324"},{"town":"彦部","koaza":"一ノ沢","lat":39.497492,"lng":141.199822,"zip":"0283315"},{"town":"彦部","koaza":"小田ノ沢","lat":39.516507,"lng":141.200121,"zip":"0283315"},{"town":"東長岡","koaza":"細工田","lat":39.583936,"lng":141.201832,"zip":"0283324"},{"town":"東長岡","koaza":"竹洞","lat":39.582948,"lng":141.201301,"zip":"0283324"},{"town":"江柄","koaza":"大地田","lat":39.600488,"lng":141.199857,"zip":"0283321"},{"town":"江柄","koaza":"日向","lat":39.599523,"lng":141.204531,"zip":"0283321"},{"town":"栃内","koaza":"小畑","lat":39.590285,"lng":141.202937,"zip":"0283322"},{"town":"彦部","koaza":"堰田","lat":39.524927,"lng":141.204911,"zip":"0283315"},{"town":"東長岡","koaza":"柳田","lat":39.586925,"lng":141.204479,"zip":"0283324"},{"town":"江柄","koaza":"手造","lat":39.59682,"lng":141.203917,"zip":"0283321"},{"town":"栃内","koaza":"上屋敷","lat":39.592816,"lng":141.203829,"zip":"0283322"},{"town":"東長岡","koaza":"舘","lat":39.58265,"lng":141.205192,"zip":"0283324"},{"town":"江柄","koaza":"清水屋敷","lat":39.595358,"lng":141.206207,"zip":"0283321"},{"town":"赤沢","koaza":"木戸脇","lat":39.527621,"lng":141.205756,"zip":"0283533"},{"town":"赤沢","koaza":"的場","lat":39.526592,"lng":141.20926,"zip":"0283533"},{"town":"二日町","koaza":"下川原","lat":39.574558,"lng":141.169685,"zip":"0283304"},{"town":"小屋敷","koaza":"関口","lat":39.571737,"lng":141.106264,"zip":"0283444"},{"town":"上松本","koaza":"荒屋敷","lat":39.564038,"lng":141.094936,"zip":"0283443"},{"town":"上松本","koaza":"柳田","lat":39.567714,"lng":141.091051,"zip":"0283443"},{"town":"上松本","koaza":"五反田","lat":39.567891,"lng":141.093482,"zip":"0283443"},{"town":"上平沢","koaza":"作岡","lat":39.559777,"lng":141.119476,"zip":"0283441"},{"town":"平沢","koaza":"川又","lat":39.550412,"lng":141.139805,"zip":"0283308"},{"town":"上平沢","koaza":"谷地","lat":39.55931,"lng":141.124047,"zip":"0283441"},{"town":"下松本","koaza":"新田","lat":39.57364,"lng":141.123212,"zip":"0283446"},{"town":"稲藤","koaza":"栗田","lat":39.551936,"lng":141.117763,"zip":"0283451"},{"town":"吉水","koaza":"祭田","lat":39.571033,"lng":141.108823,"zip":"0283448"},{"town":"土舘","koaza":"田面木","lat":39.55225,"lng":141.097585,"zip":"0283453"},{"town":"土舘","koaza":"木金","lat":39.546895,"lng":141.095712,"zip":"0283453"},{"town":"土舘","koaza":"和田","lat":39.550942,"lng":141.096564,"zip":"0283453"},{"town":"上平沢","koaza":"蓬田","lat":39.558028,"lng":141.095084,"zip":"0283441"},{"town":"上平沢","koaza":"前田","lat":39.558726,"lng":141.086852,"zip":"0283441"},{"town":"升沢","koaza":"市ノ町","lat":39.559011,"lng":141.0844,"zip":"0283442"},{"town":"升沢","koaza":"田中","lat":39.559587,"lng":141.089843,"zip":"0283442"},{"town":"吉水","koaza":"的","lat":39.563619,"lng":141.099092,"zip":"0283448"},{"town":"小屋敷","koaza":"昼場","lat":39.566026,"lng":141.099117,"zip":"0283444"},{"town":"上松本","koaza":"北坊","lat":39.564985,"lng":141.087871,"zip":"0283443"},{"town":"上松本","koaza":"秋祭","lat":39.567204,"lng":141.084203,"zip":"0283443"},{"town":"上松本","koaza":"東円地","lat":39.569549,"lng":141.087409,"zip":"0283443"},{"town":"小屋敷","koaza":"大内田","lat":39.571732,"lng":141.10458,"zip":"0283444"},{"town":"上松本","koaza":"田中","lat":39.567547,"lng":141.096325,"zip":"0283443"},{"town":"二日町","koaza":"栗木田","lat":39.572067,"lng":141.155578,"zip":"0283304"},{"town":"日詰","koaza":"上新田","lat":39.55724,"lng":141.147777,"zip":"0283305"},{"town":"日詰","koaza":"牡丹野","lat":39.550665,"lng":141.160486,"zip":"0283305"},{"town":"北日詰","koaza":"新行坊","lat":39.546142,"lng":141.153417,"zip":"0283309"},{"town":"北日詰","koaza":"八反田","lat":39.53736,"lng":141.161887,"zip":"0283309"},{"town":"二日町","koaza":"川原毛","lat":39.568385,"lng":141.160515,"zip":"0283304"},{"town":"二日町","koaza":"大橋","lat":39.567243,"lng":141.164285,"zip":"0283304"},{"town":"彦部","koaza":"寺沢","lat":39.512194,"lng":141.189519,"zip":"0283315"},{"town":"彦部","koaza":"小深田","lat":39.515903,"lng":141.188616,"zip":"0283315"},{"town":"大巻","koaza":"花立","lat":39.540775,"lng":141.192908,"zip":"0283314"},{"town":"大巻","koaza":"大峯","lat":39.536387,"lng":141.190705,"zip":"0283314"},{"town":"大巻","koaza":"上山","lat":39.535901,"lng":141.196302,"zip":"0283314"},{"town":"大巻","koaza":"小玉根","lat":39.539649,"lng":141.188164,"zip":"0283314"},{"town":"草刈","koaza":"善前野","lat":39.564485,"lng":141.197248,"zip":"0283325"},{"town":"栃内","koaza":"和屋敷","lat":39.592029,"lng":141.203875,"zip":"0283322"},{"town":"江柄","koaza":"福田","lat":39.594952,"lng":141.201103,"zip":"0283321"},{"town":"栃内","koaza":"栃内","lat":39.596273,"lng":141.199362,"zip":"0283322"},{"town":"栃内","koaza":"境","lat":39.593293,"lng":141.200813,"zip":"0283322"},{"town":"高水寺","koaza":"欠上り","lat":39.579364,"lng":141.169772,"zip":"0283303"},{"town":"彦部","koaza":"天田","lat":39.512159,"lng":141.178385,"zip":"0283315"},{"town":"上松本","koaza":"高屋敷","lat":39.569217,"lng":141.078773,"zip":"0283443"},{"town":"土舘","koaza":"和山","lat":39.542054,"lng":141.095857,"zip":"0283453"},{"town":"上平沢","koaza":"岡田","lat":39.55675,"lng":141.097773,"zip":"0283441"},{"town":"上平沢","koaza":"大畑","lat":39.556552,"lng":141.090208,"zip":"0283441"}]