[{"town":"永栄","koaza":"","lat":39.158154,"lng":140.972985,"zip":"0294505"},{"town":"永沢","koaza":"","lat":39.167782,"lng":141.031588,"zip":"0294504"},{"town":"西根","koaza":"","lat":39.214458,"lng":141.031574,"zip":"0294503"},{"town":"三ケ尻","koaza":"","lat":39.217309,"lng":141.114786,"zip":"0294502"},{"town":"六原","koaza":"","lat":39.240745,"lng":141.05856,"zip":"0294501"},{"town":"西根","koaza":"馬ノ沢","lat":39.22981,"lng":141.012314,"zip":"0294503"},{"town":"西根","koaza":"千貫石","lat":39.224813,"lng":141.015034,"zip":"0294503"},{"town":"西根","koaza":"野中","lat":39.226326,"lng":141.018522,"zip":"0294503"},{"town":"西根","koaza":"橇曳沢","lat":39.211766,"lng":141.021797,"zip":"0294503"},{"town":"西根","koaza":"赤坂","lat":39.202901,"lng":141.038089,"zip":"0294503"},{"town":"西根","koaza":"吉田沢","lat":39.220215,"lng":141.025975,"zip":"0294503"},{"town":"西根","koaza":"横堰","lat":39.217772,"lng":141.038198,"zip":"0294503"},{"town":"西根","koaza":"日當","lat":39.180662,"lng":141.04307,"zip":"0294503"},{"town":"西根","koaza":"小坂","lat":39.212566,"lng":141.045151,"zip":"0294503"},{"town":"西根","koaza":"錦","lat":39.240809,"lng":141.039403,"zip":"0294503"},{"town":"永沢","koaza":"上原","lat":39.177385,"lng":141.048137,"zip":"0294504"},{"town":"西根","koaza":"建野","lat":39.220195,"lng":141.041675,"zip":"0294503"},{"town":"六原","koaza":"頭無","lat":39.232014,"lng":141.050864,"zip":"0294501"},{"town":"六原","koaza":"上真栄木","lat":39.249711,"lng":141.044644,"zip":"0294501"},{"town":"六原","koaza":"伊吹","lat":39.242902,"lng":141.041137,"zip":"0294501"},{"town":"六原","koaza":"栄野","lat":39.25275,"lng":141.042181,"zip":"0294501"},{"town":"西根","koaza":"谷地向","lat":39.219467,"lng":141.042262,"zip":"0294503"},{"town":"六原","koaza":"大金森","lat":39.227041,"lng":141.04473,"zip":"0294501"},{"town":"永沢","koaza":"一ツ谷","lat":39.166622,"lng":141.044317,"zip":"0294504"},{"town":"西根","koaza":"荻生田","lat":39.215333,"lng":141.044291,"zip":"0294503"},{"town":"永沢","koaza":"上大谷地","lat":39.171176,"lng":141.051609,"zip":"0294504"},{"town":"永沢","koaza":"平","lat":39.169538,"lng":141.041633,"zip":"0294504"},{"town":"六原","koaza":"南寒田清水","lat":39.249455,"lng":141.054781,"zip":"0294501"},{"town":"永沢","koaza":"野崎","lat":39.165499,"lng":141.044503,"zip":"0294504"},{"town":"西根","koaza":"後田","lat":39.220211,"lng":141.047126,"zip":"0294503"},{"town":"西根","koaza":"稲沢","lat":39.200255,"lng":141.047504,"zip":"0294503"},{"town":"永沢","koaza":"上堰合","lat":39.166089,"lng":141.04592,"zip":"0294504"},{"town":"西根","koaza":"北御免","lat":39.218315,"lng":141.044967,"zip":"0294503"},{"town":"六原","koaza":"中穴持","lat":39.237151,"lng":141.051294,"zip":"0294501"},{"town":"西根","koaza":"新井田後","lat":39.186317,"lng":141.048599,"zip":"0294503"},{"town":"六原","koaza":"前二ツ森","lat":39.24249,"lng":141.050926,"zip":"0294501"},{"town":"永沢","koaza":"檀ノ越","lat":39.163361,"lng":141.04875,"zip":"0294504"},{"town":"西根","koaza":"谷地田","lat":39.215594,"lng":141.046111,"zip":"0294503"},{"town":"永沢","koaza":"横長根","lat":39.173849,"lng":141.051266,"zip":"0294504"},{"town":"永沢","koaza":"竹原","lat":39.168914,"lng":141.048703,"zip":"0294504"},{"town":"西根","koaza":"李田","lat":39.187464,"lng":141.054259,"zip":"0294503"},{"town":"西根","koaza":"杉村","lat":39.182322,"lng":141.049478,"zip":"0294503"},{"town":"西根","koaza":"内長志田","lat":39.217901,"lng":141.049624,"zip":"0294503"},{"town":"六原","koaza":"下真栄木","lat":39.251562,"lng":141.047854,"zip":"0294501"},{"town":"永沢","koaza":"兵庫沢","lat":39.181664,"lng":141.05389,"zip":"0294504"},{"town":"永沢","koaza":"高田","lat":39.166103,"lng":141.052159,"zip":"0294504"},{"town":"六原","koaza":"北穴持","lat":39.239109,"lng":141.053624,"zip":"0294501"},{"town":"永沢","koaza":"檀ノ越下","lat":39.163534,"lng":141.05071,"zip":"0294504"},{"town":"西根","koaza":"向原","lat":39.21043,"lng":141.052588,"zip":"0294503"},{"town":"六原","koaza":"前穴持","lat":39.234904,"lng":141.053771,"zip":"0294501"},{"town":"永栄","koaza":"桜田","lat":39.154355,"lng":141.05147,"zip":"0294505"},{"town":"西根","koaza":"檀ノ口","lat":39.185713,"lng":141.050833,"zip":"0294503"},{"town":"西根","koaza":"上大檀","lat":39.216224,"lng":141.052316,"zip":"0294503"},{"town":"西根","koaza":"上北田","lat":39.222102,"lng":141.052877,"zip":"0294503"},{"town":"六原","koaza":"蟹子沢","lat":39.233202,"lng":141.052018,"zip":"0294501"},{"town":"永栄","koaza":"細越浦","lat":39.159113,"lng":141.052002,"zip":"0294505"},{"town":"永沢","koaza":"頭防下","lat":39.166435,"lng":141.052707,"zip":"0294504"},{"town":"西根","koaza":"八荒神","lat":39.193897,"lng":141.052132,"zip":"0294503"},{"town":"西根","koaza":"宮ノ目","lat":39.189866,"lng":141.052138,"zip":"0294503"},{"town":"永沢","koaza":"竹原下","lat":39.171033,"lng":141.052909,"zip":"0294504"},{"town":"永栄","koaza":"南下高梨","lat":39.152614,"lng":141.053191,"zip":"0294505"},{"town":"西根","koaza":"中野","lat":39.191174,"lng":141.053115,"zip":"0294503"},{"town":"永栄","koaza":"細越","lat":39.156824,"lng":141.054435,"zip":"0294505"},{"town":"西根","koaza":"北湯沢","lat":39.193149,"lng":141.054948,"zip":"0294503"},{"town":"永沢","koaza":"刈明","lat":39.169431,"lng":141.056767,"zip":"0294504"},{"town":"永沢","koaza":"下原","lat":39.183819,"lng":141.062358,"zip":"0294504"},{"town":"永沢","koaza":"頭防後","lat":39.169654,"lng":141.05398,"zip":"0294504"},{"town":"永栄","koaza":"西島川原","lat":39.153878,"lng":141.055465,"zip":"0294505"},{"town":"西根","koaza":"南湯沢","lat":39.192069,"lng":141.055142,"zip":"0294503"},{"town":"西根","koaza":"金森","lat":39.224629,"lng":141.057619,"zip":"0294503"},{"town":"西根","koaza":"明神原","lat":39.193761,"lng":141.06234,"zip":"0294503"},{"town":"西根","koaza":"下前","lat":39.191194,"lng":141.055654,"zip":"0294503"},{"town":"永沢","koaza":"堀切後","lat":39.174427,"lng":141.05708,"zip":"0294504"},{"town":"六原","koaza":"二ツ森","lat":39.246436,"lng":141.057286,"zip":"0294501"},{"town":"西根","koaza":"高谷野原","lat":39.203124,"lng":141.064889,"zip":"0294503"},{"town":"六原","koaza":"新舘表","lat":39.237111,"lng":141.057669,"zip":"0294501"},{"town":"永沢","koaza":"掻餅原","lat":39.182015,"lng":141.057914,"zip":"0294504"},{"town":"永栄","koaza":"北島川原","lat":39.154423,"lng":141.057834,"zip":"0294505"},{"town":"六原","koaza":"新田","lat":39.246111,"lng":141.059778,"zip":"0294501"},{"town":"六原","koaza":"金森道下","lat":39.227909,"lng":141.058488,"zip":"0294501"},{"town":"六原","koaza":"新舘","lat":39.240464,"lng":141.060634,"zip":"0294501"},{"town":"西根","koaza":"大曲","lat":39.189777,"lng":141.058729,"zip":"0294503"},{"town":"永栄","koaza":"前養害","lat":39.157258,"lng":141.062338,"zip":"0294505"},{"town":"六原","koaza":"野中","lat":39.234979,"lng":141.061281,"zip":"0294501"},{"town":"永沢","koaza":"堀切後下","lat":39.173472,"lng":141.061223,"zip":"0294504"},{"town":"永沢","koaza":"三居浦","lat":39.162762,"lng":141.06044,"zip":"0294504"},{"town":"西根","koaza":"根岸","lat":39.190569,"lng":141.059984,"zip":"0294503"},{"town":"永沢","koaza":"平林後","lat":39.166214,"lng":141.06191,"zip":"0294504"},{"town":"西根","koaza":"二ツ堤","lat":39.224012,"lng":141.062839,"zip":"0294503"},{"town":"永沢","koaza":"上谷地","lat":39.173898,"lng":141.062693,"zip":"0294504"},{"town":"西根","koaza":"雛子沢","lat":39.18685,"lng":141.061598,"zip":"0294503"},{"town":"西根","koaza":"大清水","lat":39.190666,"lng":141.062799,"zip":"0294503"},{"town":"六原","koaza":"北長根","lat":39.248746,"lng":141.065246,"zip":"0294501"},{"town":"西根","koaza":"花舘","lat":39.208708,"lng":141.064399,"zip":"0294503"},{"town":"永沢","koaza":"平林","lat":39.164932,"lng":141.062993,"zip":"0294504"},{"town":"西根","koaza":"大森","lat":39.215327,"lng":141.06257,"zip":"0294503"},{"town":"西根","koaza":"熊野社","lat":39.222104,"lng":141.062041,"zip":"0294503"},{"town":"六原","koaza":"町の内表道の上","lat":39.244993,"lng":141.064684,"zip":"0294501"},{"town":"西根","koaza":"草刈場","lat":39.191981,"lng":141.063911,"zip":"0294503"},{"town":"六原","koaza":"舘平","lat":39.240923,"lng":141.066008,"zip":"0294501"},{"town":"六原","koaza":"赤石","lat":39.232629,"lng":141.063224,"zip":"0294501"},{"town":"永栄","koaza":"田谷","lat":39.159665,"lng":141.063536,"zip":"0294505"},{"town":"六原","koaza":"二の町表","lat":39.233878,"lng":141.070349,"zip":"0294501"},{"town":"永沢","koaza":"横沢","lat":39.173337,"lng":141.066036,"zip":"0294504"},{"town":"六原","koaza":"上二の町","lat":39.237953,"lng":141.069018,"zip":"0294501"},{"town":"六原","koaza":"上平前","lat":39.23897,"lng":141.065179,"zip":"0294501"},{"town":"六原","koaza":"下小路","lat":39.242449,"lng":141.065406,"zip":"0294501"},{"town":"西根","koaza":"畑中","lat":39.221184,"lng":141.064985,"zip":"0294503"},{"town":"西根","koaza":"森山","lat":39.211278,"lng":141.077844,"zip":"0294503"},{"town":"西根","koaza":"御免西","lat":39.198955,"lng":141.067908,"zip":"0294503"},{"town":"永沢","koaza":"関田前","lat":39.175555,"lng":141.068057,"zip":"0294504"},{"town":"西根","koaza":"坂水","lat":39.186358,"lng":141.067176,"zip":"0294503"},{"town":"六原","koaza":"町の内道下","lat":39.24642,"lng":141.068442,"zip":"0294501"},{"town":"永栄","koaza":"前村","lat":39.158508,"lng":141.066569,"zip":"0294505"},{"town":"西根","koaza":"中屋敷","lat":39.222629,"lng":141.067423,"zip":"0294503"},{"town":"永沢","koaza":"長坂後","lat":39.178831,"lng":141.067674,"zip":"0294504"},{"town":"西根","koaza":"花川","lat":39.203036,"lng":141.066072,"zip":"0294503"},{"town":"六原","koaza":"北長根道合","lat":39.248299,"lng":141.06842,"zip":"0294501"},{"town":"六原","koaza":"森合","lat":39.231402,"lng":141.070199,"zip":"0294501"},{"town":"西根","koaza":"下北田","lat":39.224991,"lng":141.068498,"zip":"0294503"},{"town":"西根","koaza":"濁沢","lat":39.207147,"lng":141.067566,"zip":"0294503"},{"town":"六原","koaza":"町の内表道下","lat":39.245162,"lng":141.068583,"zip":"0294501"},{"town":"六原","koaza":"坊主屋敷","lat":39.242202,"lng":141.068475,"zip":"0294501"},{"town":"永栄","koaza":"柳原","lat":39.158227,"lng":141.069094,"zip":"0294505"},{"town":"西根","koaza":"掛越","lat":39.219295,"lng":141.067832,"zip":"0294503"},{"town":"永沢","koaza":"広本","lat":39.180224,"lng":141.071103,"zip":"0294504"},{"town":"西根","koaza":"御免前","lat":39.195846,"lng":141.072641,"zip":"0294503"},{"town":"西根","koaza":"新田","lat":39.194791,"lng":141.072546,"zip":"0294503"},{"town":"西根","koaza":"高谷野","lat":39.192055,"lng":141.07384,"zip":"0294503"},{"town":"西根","koaza":"御免","lat":39.198987,"lng":141.071233,"zip":"0294503"},{"town":"六原","koaza":"下二の町","lat":39.236198,"lng":141.073221,"zip":"0294501"},{"town":"永沢","koaza":"上野中","lat":39.179376,"lng":141.072753,"zip":"0294504"},{"town":"西根","koaza":"南町","lat":39.195905,"lng":141.115944,"zip":"0294503"},{"town":"西根","koaza":"改断","lat":39.218524,"lng":141.070811,"zip":"0294503"},{"town":"永沢","koaza":"野中北","lat":39.183195,"lng":141.075334,"zip":"0294504"},{"town":"永栄","koaza":"西根岸","lat":39.162623,"lng":141.073226,"zip":"0294505"},{"town":"永沢","koaza":"橋本後","lat":39.177378,"lng":141.073991,"zip":"0294504"},{"town":"西根","koaza":"長根","lat":39.188144,"lng":141.074882,"zip":"0294503"},{"town":"西根","koaza":"滑利","lat":39.185095,"lng":141.073443,"zip":"0294503"},{"town":"永栄","koaza":"和田","lat":39.160351,"lng":141.075283,"zip":"0294505"},{"town":"六原","koaza":"堂所森道下","lat":39.230453,"lng":141.076388,"zip":"0294501"},{"town":"西根","koaza":"北田中","lat":39.225124,"lng":141.076342,"zip":"0294503"},{"town":"西根","koaza":"向新田","lat":39.219168,"lng":141.076741,"zip":"0294503"},{"town":"西根","koaza":"一本杉","lat":39.193241,"lng":141.075683,"zip":"0294503"},{"town":"永沢","koaza":"野中","lat":39.181824,"lng":141.077228,"zip":"0294504"},{"town":"永沢","koaza":"春慶","lat":39.178919,"lng":141.078831,"zip":"0294504"},{"town":"永沢","koaza":"南林蔵寺","lat":39.172465,"lng":141.079899,"zip":"0294504"},{"town":"六原","koaza":"安平前","lat":39.232827,"lng":141.077274,"zip":"0294501"},{"town":"西根","koaza":"北長根","lat":39.188525,"lng":141.076788,"zip":"0294503"},{"town":"西根","koaza":"下高谷野","lat":39.191143,"lng":141.079232,"zip":"0294503"},{"town":"永栄","koaza":"前砂子田","lat":39.162155,"lng":141.077845,"zip":"0294505"},{"town":"西根","koaza":"善光寺","lat":39.2203,"lng":141.07955,"zip":"0294503"},{"town":"西根","koaza":"広町","lat":39.22638,"lng":141.077362,"zip":"0294503"},{"town":"西根","koaza":"鶴ケ岡","lat":39.199101,"lng":141.083264,"zip":"0294503"},{"town":"西根","koaza":"入道森","lat":39.218059,"lng":141.080343,"zip":"0294503"},{"town":"西根","koaza":"前村","lat":39.190932,"lng":141.08082,"zip":"0294503"},{"town":"西根","koaza":"藤巻","lat":39.187159,"lng":141.083262,"zip":"0294503"},{"town":"西根","koaza":"油地","lat":39.1957,"lng":141.083296,"zip":"0294503"},{"town":"永沢","koaza":"大林","lat":39.169369,"lng":141.083032,"zip":"0294504"},{"town":"六原","koaza":"赤坂裏","lat":39.237058,"lng":141.082103,"zip":"0294501"},{"town":"西根","koaza":"荒田","lat":39.227187,"lng":141.08151,"zip":"0294503"},{"town":"六原","koaza":"東町","lat":39.229617,"lng":141.08314,"zip":"0294501"},{"town":"永栄","koaza":"中島","lat":39.164605,"lng":141.081299,"zip":"0294505"},{"town":"六原","koaza":"赤坂前","lat":39.233191,"lng":141.082433,"zip":"0294501"},{"town":"六原","koaza":"七里","lat":39.232448,"lng":141.08459,"zip":"0294501"},{"town":"永沢","koaza":"荒屋敷","lat":39.177306,"lng":141.079829,"zip":"0294504"},{"town":"西根","koaza":"土手ノ下","lat":39.189065,"lng":141.082961,"zip":"0294503"},{"town":"西根","koaza":"下平沢","lat":39.224738,"lng":141.085571,"zip":"0294503"},{"town":"永栄","koaza":"上谷起","lat":39.165343,"lng":141.084231,"zip":"0294505"},{"town":"西根","koaza":"日照","lat":39.192616,"lng":141.085298,"zip":"0294503"},{"town":"永沢","koaza":"松本舘","lat":39.170483,"lng":141.08338,"zip":"0294504"},{"town":"永沢","koaza":"上羽黒町","lat":39.176296,"lng":141.087101,"zip":"0294504"},{"town":"永栄","koaza":"西柏山","lat":39.172034,"lng":141.084759,"zip":"0294505"},{"town":"西根","koaza":"幅","lat":39.188676,"lng":141.085527,"zip":"0294503"},{"town":"永沢","koaza":"宿田","lat":39.179971,"lng":141.086118,"zip":"0294504"},{"town":"西根","koaza":"杉本","lat":39.197398,"lng":141.085593,"zip":"0294503"},{"town":"西根","koaza":"北田尻","lat":39.22149,"lng":141.085151,"zip":"0294503"},{"town":"永沢","koaza":"下舘","lat":39.174939,"lng":141.084413,"zip":"0294504"},{"town":"西根","koaza":"横街道","lat":39.225809,"lng":141.086002,"zip":"0294503"},{"town":"永沢","koaza":"関合","lat":39.181643,"lng":141.085319,"zip":"0294504"},{"town":"西根","koaza":"道ノ町","lat":39.190769,"lng":141.083472,"zip":"0294503"},{"town":"西根","koaza":"小石持","lat":39.19083,"lng":141.084799,"zip":"0294503"},{"town":"六原","koaza":"南長根","lat":39.230267,"lng":141.087552,"zip":"0294501"},{"town":"永栄","koaza":"上宿","lat":39.176744,"lng":141.090459,"zip":"0294505"},{"town":"永栄","koaza":"広町","lat":39.168033,"lng":141.087237,"zip":"0294505"},{"town":"永沢","koaza":"南黒沢","lat":39.183322,"lng":141.085724,"zip":"0294504"},{"town":"永栄","koaza":"関田","lat":39.170214,"lng":141.087194,"zip":"0294505"},{"town":"西根","koaza":"北荒巻","lat":39.220402,"lng":141.092357,"zip":"0294503"},{"town":"永沢","koaza":"馬場","lat":39.184114,"lng":141.090132,"zip":"0294504"},{"town":"西根","koaza":"鎌田","lat":39.222932,"lng":141.091517,"zip":"0294503"},{"town":"西根","koaza":"中ノ町","lat":39.192526,"lng":141.090895,"zip":"0294503"},{"town":"永沢","koaza":"北黒沢","lat":39.185642,"lng":141.088259,"zip":"0294504"},{"town":"永栄","koaza":"下田谷","lat":39.173399,"lng":141.091255,"zip":"0294505"},{"town":"永沢","koaza":"明道","lat":39.182767,"lng":141.091254,"zip":"0294504"},{"town":"西根","koaza":"一ツ屋","lat":39.201014,"lng":141.09229,"zip":"0294503"},{"town":"永沢","koaza":"下羽黒町","lat":39.177897,"lng":141.089621,"zip":"0294504"},{"town":"西根","koaza":"上畑田","lat":39.190521,"lng":141.090689,"zip":"0294503"},{"town":"六原","koaza":"笹長根","lat":39.229565,"lng":141.089953,"zip":"0294501"},{"town":"西根","koaza":"赤稲田","lat":39.200295,"lng":141.091095,"zip":"0294503"},{"town":"西根","koaza":"南細田","lat":39.197253,"lng":141.089086,"zip":"0294503"},{"town":"西根","koaza":"道場","lat":39.187425,"lng":141.09093,"zip":"0294503"},{"town":"永栄","koaza":"下田谷前","lat":39.171995,"lng":141.09183,"zip":"0294505"},{"town":"西根","koaza":"前谷地","lat":39.186943,"lng":141.093167,"zip":"0294503"},{"town":"西根","koaza":"寄添田","lat":39.192207,"lng":141.0982,"zip":"0294503"},{"town":"永栄","koaza":"大屋敷","lat":39.180856,"lng":141.094202,"zip":"0294505"},{"town":"西根","koaza":"辻岡","lat":39.195097,"lng":141.093092,"zip":"0294503"},{"town":"永栄","koaza":"猫屋敷","lat":39.174466,"lng":141.094603,"zip":"0294505"},{"town":"西根","koaza":"大平","lat":39.208783,"lng":141.095289,"zip":"0294503"},{"town":"西根","koaza":"久保屋敷","lat":39.203613,"lng":141.093414,"zip":"0294503"},{"town":"西根","koaza":"荒屋敷","lat":39.187161,"lng":141.097179,"zip":"0294503"},{"town":"西根","koaza":"北蟻ケ沢","lat":39.216317,"lng":141.093739,"zip":"0294503"},{"town":"三ケ尻","koaza":"鎌田東","lat":39.223783,"lng":141.092967,"zip":"0294502"},{"town":"三ケ尻","koaza":"上小倉沢","lat":39.228407,"lng":141.093778,"zip":"0294502"},{"town":"三ケ尻","koaza":"中の町","lat":39.226668,"lng":141.095878,"zip":"0294502"},{"town":"西根","koaza":"中谷宿","lat":39.202096,"lng":141.094284,"zip":"0294503"},{"town":"西根","koaza":"中針","lat":39.191318,"lng":141.095136,"zip":"0294503"},{"town":"永栄","koaza":"飛鳥田","lat":39.180448,"lng":141.097389,"zip":"0294505"},{"town":"西根","koaza":"北宿内","lat":39.207931,"lng":141.097546,"zip":"0294503"},{"town":"西根","koaza":"南蟻ケ沢","lat":39.213778,"lng":141.095872,"zip":"0294503"},{"town":"西根","koaza":"石田","lat":39.203322,"lng":141.097922,"zip":"0294503"},{"town":"西根","koaza":"南荒巻","lat":39.217493,"lng":141.096405,"zip":"0294503"},{"town":"西根","koaza":"斉藤谷地","lat":39.200353,"lng":141.09725,"zip":"0294503"},{"town":"西根","koaza":"膳棚","lat":39.205409,"lng":141.097103,"zip":"0294503"},{"town":"西根","koaza":"城堰","lat":39.195313,"lng":141.09571,"zip":"0294503"},{"town":"三ケ尻","koaza":"渋川向田","lat":39.222209,"lng":141.095425,"zip":"0294502"},{"town":"三ケ尻","koaza":"長根前","lat":39.226837,"lng":141.093696,"zip":"0294502"},{"town":"永栄","koaza":"一本木","lat":39.180023,"lng":141.098688,"zip":"0294505"},{"town":"西根","koaza":"福田","lat":39.210997,"lng":141.09824,"zip":"0294503"},{"town":"西根","koaza":"南宿内","lat":39.201476,"lng":141.095968,"zip":"0294503"},{"town":"三ケ尻","koaza":"南花沢","lat":39.224965,"lng":141.097465,"zip":"0294502"},{"town":"永栄","koaza":"笊田","lat":39.177443,"lng":141.098777,"zip":"0294505"},{"town":"西根","koaza":"中谷地","lat":39.193169,"lng":141.098382,"zip":"0294503"},{"town":"三ケ尻","koaza":"荒巻横道上","lat":39.219624,"lng":141.098977,"zip":"0294502"},{"town":"西根","koaza":"八百刈","lat":39.19513,"lng":141.098756,"zip":"0294503"},{"town":"西根","koaza":"針山","lat":39.188383,"lng":141.097198,"zip":"0294503"},{"town":"永栄","koaza":"下谷起","lat":39.182994,"lng":141.100987,"zip":"0294505"},{"town":"三ケ尻","koaza":"渋川","lat":39.223349,"lng":141.099077,"zip":"0294502"},{"town":"西根","koaza":"南田中","lat":39.203568,"lng":141.099662,"zip":"0294503"},{"town":"三ケ尻","koaza":"瘤木丁","lat":39.227822,"lng":141.101358,"zip":"0294502"},{"town":"西根","koaza":"杉ノ崎","lat":39.195401,"lng":141.102981,"zip":"0294503"},{"town":"西根","koaza":"前野","lat":39.190934,"lng":141.105134,"zip":"0294503"},{"town":"西根","koaza":"下釜","lat":39.184897,"lng":141.101395,"zip":"0294503"},{"town":"西根","koaza":"下谷地","lat":39.201857,"lng":141.101663,"zip":"0294503"},{"town":"西根","koaza":"舞野","lat":39.1885,"lng":141.101932,"zip":"0294503"},{"town":"西根","koaza":"野田","lat":39.204553,"lng":141.105767,"zip":"0294503"},{"town":"西根","koaza":"大谷","lat":39.19932,"lng":141.10229,"zip":"0294503"},{"town":"西根","koaza":"喜六","lat":39.19768,"lng":141.103094,"zip":"0294503"},{"town":"永栄","koaza":"五林","lat":39.179827,"lng":141.101934,"zip":"0294505"},{"town":"西根","koaza":"荒巻","lat":39.216346,"lng":141.099845,"zip":"0294503"},{"town":"三ケ尻","koaza":"嶋田","lat":39.224715,"lng":141.102823,"zip":"0294502"},{"town":"三ケ尻","koaza":"勘九郎東","lat":39.213857,"lng":141.102974,"zip":"0294502"},{"town":"三ケ尻","koaza":"水口沢","lat":39.218874,"lng":141.105587,"zip":"0294502"},{"town":"永栄","koaza":"川原田","lat":39.182884,"lng":141.106185,"zip":"0294505"},{"town":"西根","koaza":"大前","lat":39.197208,"lng":141.103455,"zip":"0294503"},{"town":"西根","koaza":"南野中","lat":39.204293,"lng":141.108315,"zip":"0294503"},{"town":"三ケ尻","koaza":"谷地中","lat":39.214908,"lng":141.108993,"zip":"0294502"},{"town":"西根","koaza":"下荒巻","lat":39.20985,"lng":141.104985,"zip":"0294503"},{"town":"西根","koaza":"北羽沢","lat":39.202203,"lng":141.109021,"zip":"0294503"},{"town":"西根","koaza":"西地蔵野","lat":39.197197,"lng":141.109308,"zip":"0294503"},{"town":"西根","koaza":"鑓水","lat":39.193432,"lng":141.109645,"zip":"0294503"},{"town":"三ケ尻","koaza":"十三本塚","lat":39.218922,"lng":141.109712,"zip":"0294502"},{"town":"西根","koaza":"二ノ宮","lat":39.186945,"lng":141.107996,"zip":"0294503"},{"town":"西根","koaza":"南羽沢","lat":39.200516,"lng":141.109579,"zip":"0294503"},{"town":"西根","koaza":"二の台","lat":39.209262,"lng":141.108379,"zip":"0294503"},{"town":"西根","koaza":"下庄","lat":39.185261,"lng":141.112062,"zip":"0294503"},{"town":"西根","koaza":"二ノ宮後","lat":39.18784,"lng":141.109403,"zip":"0294503"},{"town":"西根","koaza":"餅田","lat":39.20636,"lng":141.108995,"zip":"0294503"},{"town":"西根","koaza":"一の台","lat":39.207742,"lng":141.111799,"zip":"0294503"},{"town":"西根","koaza":"本宮後","lat":39.19768,"lng":141.11334,"zip":"0294503"},{"town":"三ケ尻","koaza":"六本松","lat":39.209673,"lng":141.112831,"zip":"0294502"},{"town":"三ケ尻","koaza":"千刈野","lat":39.211451,"lng":141.112956,"zip":"0294502"},{"town":"三ケ尻","koaza":"北千刈野","lat":39.213404,"lng":141.112747,"zip":"0294502"},{"town":"西根","koaza":"杉土手","lat":39.200784,"lng":141.114094,"zip":"0294503"},{"town":"三ケ尻","koaza":"清水端","lat":39.215221,"lng":141.113205,"zip":"0294502"},{"town":"西根","koaza":"西檀原","lat":39.205002,"lng":141.113218,"zip":"0294503"},{"town":"三ケ尻","koaza":"東関口","lat":39.220237,"lng":141.114129,"zip":"0294502"},{"town":"西根","koaza":"古寺","lat":39.19347,"lng":141.114492,"zip":"0294503"},{"town":"三ケ尻","koaza":"町田","lat":39.217071,"lng":141.114912,"zip":"0294502"},{"town":"三ケ尻","koaza":"南千刈野","lat":39.211249,"lng":141.114679,"zip":"0294502"},{"town":"三ケ尻","koaza":"川口田","lat":39.210361,"lng":141.117176,"zip":"0294502"},{"town":"西根","koaza":"舞田","lat":39.197144,"lng":141.116057,"zip":"0294503"},{"town":"三ケ尻","koaza":"上関口","lat":39.220116,"lng":141.114643,"zip":"0294502"},{"town":"三ケ尻","koaza":"前畑","lat":39.214512,"lng":141.117198,"zip":"0294502"},{"town":"西根","koaza":"谷来浦","lat":39.19937,"lng":141.114377,"zip":"0294503"},{"town":"西根","koaza":"下餅田","lat":39.2042,"lng":141.116624,"zip":"0294503"},{"town":"西根","koaza":"高堰","lat":39.192063,"lng":141.117388,"zip":"0294503"},{"town":"西根","koaza":"檀原前","lat":39.202981,"lng":141.118086,"zip":"0294503"},{"town":"三ケ尻","koaza":"畑中前","lat":39.220084,"lng":141.118069,"zip":"0294502"},{"town":"西根","koaza":"矢来","lat":39.199708,"lng":141.117681,"zip":"0294503"},{"town":"西根","koaza":"諏訪小路","lat":39.198905,"lng":141.119033,"zip":"0294503"},{"town":"西根","koaza":"本町","lat":39.196351,"lng":141.118072,"zip":"0294503"},{"town":"西根","koaza":"檀原","lat":39.205988,"lng":141.119555,"zip":"0294503"},{"town":"西根","koaza":"表小路","lat":39.195782,"lng":141.12068,"zip":"0294503"},{"town":"西根","koaza":"下河原","lat":39.203563,"lng":141.12308,"zip":"0294503"},{"town":"三ケ尻","koaza":"中道下","lat":39.218482,"lng":141.122479,"zip":"0294502"},{"town":"三ケ尻","koaza":"下谷起","lat":39.20404,"lng":141.121429,"zip":"0294502"},{"town":"三ケ尻","koaza":"横土手下","lat":39.219653,"lng":141.122408,"zip":"0294502"},{"town":"西根","koaza":"達小路","lat":39.194864,"lng":141.127093,"zip":"0294503"},{"town":"西根","koaza":"寺下","lat":39.191799,"lng":141.129645,"zip":"0294503"},{"town":"西根","koaza":"裏小路","lat":39.196446,"lng":141.121741,"zip":"0294503"},{"town":"西根","koaza":"街道下","lat":39.189729,"lng":141.126413,"zip":"0294503"},{"town":"永沢","koaza":"寺網","lat":39.174455,"lng":141.074614,"zip":"0294504"},{"town":"西根","koaza":"金谷","lat":39.197484,"lng":141.09814,"zip":"0294503"},{"town":"西根","koaza":"部津井","lat":39.196557,"lng":141.101835,"zip":"0294503"},{"town":"西根","koaza":"上餅田","lat":39.203008,"lng":141.113827,"zip":"0294503"},{"town":"西根","koaza":"上嶋田","lat":39.227675,"lng":141.085475,"zip":"0294503"},{"town":"西根","koaza":"下嶋田","lat":39.226035,"lng":141.090358,"zip":"0294503"},{"town":"六原","koaza":"検断谷地","lat":39.243713,"lng":141.059047,"zip":"0294501"},{"town":"六原","koaza":"伝内屋敷","lat":39.244829,"lng":141.071734,"zip":"0294501"},{"town":"六原","koaza":"土井道合","lat":39.239287,"lng":141.076495,"zip":"0294501"},{"town":"六原","koaza":"後平","lat":39.239974,"lng":141.073045,"zip":"0294501"},{"town":"六原","koaza":"平道下","lat":39.23512,"lng":141.075821,"zip":"0294501"},{"town":"六原","koaza":"葉の木立","lat":39.232611,"lng":141.073578,"zip":"0294501"},{"town":"西根","koaza":"上平沢","lat":39.218993,"lng":141.063304,"zip":"0294503"},{"town":"西根","koaza":"桜町","lat":39.21969,"lng":141.067525,"zip":"0294503"},{"town":"西根","koaza":"北中ノ町","lat":39.214164,"lng":141.049536,"zip":"0294503"},{"town":"西根","koaza":"吉田","lat":39.220074,"lng":141.0592,"zip":"0294503"},{"town":"三ケ尻","koaza":"丹蔵堰","lat":39.227552,"lng":141.095885,"zip":"0294502"},{"town":"永栄","koaza":"春宮田川原","lat":39.155971,"lng":141.062252,"zip":"0294505"},{"town":"永栄","koaza":"南島川原","lat":39.154754,"lng":141.059304,"zip":"0294505"},{"town":"永栄","koaza":"天王川原","lat":39.155822,"lng":141.06291,"zip":"0294505"},{"town":"永栄","koaza":"東春宮田","lat":39.157049,"lng":141.060446,"zip":"0294505"},{"town":"永栄","koaza":"西春宮田","lat":39.156803,"lng":141.05903,"zip":"0294505"},{"town":"永栄","koaza":"後養害","lat":39.157928,"lng":141.062638,"zip":"0294505"},{"town":"永栄","koaza":"田中","lat":39.161211,"lng":141.074557,"zip":"0294505"},{"town":"永栄","koaza":"仙光","lat":39.159993,"lng":141.065156,"zip":"0294505"},{"town":"永栄","koaza":"東根岸","lat":39.163662,"lng":141.074401,"zip":"0294505"},{"town":"永栄","koaza":"九石","lat":39.165615,"lng":141.079673,"zip":"0294505"},{"town":"永栄","koaza":"五木田","lat":39.164945,"lng":141.07735,"zip":"0294505"},{"town":"永栄","koaza":"寺蜘山","lat":39.161325,"lng":141.064047,"zip":"0294505"},{"town":"永沢","koaza":"不同沢","lat":39.164053,"lng":141.064298,"zip":"0294504"},{"town":"永栄","koaza":"寺窪","lat":39.160202,"lng":141.063224,"zip":"0294505"},{"town":"永栄","koaza":"上田谷","lat":39.166728,"lng":141.082299,"zip":"0294505"},{"town":"永栄","koaza":"五反町","lat":39.167881,"lng":141.084018,"zip":"0294505"},{"town":"永栄","koaza":"下中島","lat":39.167829,"lng":141.08605,"zip":"0294505"},{"town":"永栄","koaza":"斉林寺","lat":39.173493,"lng":141.087534,"zip":"0294505"},{"town":"永栄","koaza":"千刈田","lat":39.174412,"lng":141.092876,"zip":"0294505"},{"town":"永栄","koaza":"下広町","lat":39.175835,"lng":141.092729,"zip":"0294505"},{"town":"永栄","koaza":"沖","lat":39.176555,"lng":141.095664,"zip":"0294505"},{"town":"永栄","koaza":"落合","lat":39.181577,"lng":141.096991,"zip":"0294505"},{"town":"永栄","koaza":"林崎","lat":39.181318,"lng":141.100273,"zip":"0294505"},{"town":"永栄","koaza":"八反町","lat":39.180653,"lng":141.100134,"zip":"0294505"},{"town":"永栄","koaza":"大橋","lat":39.180434,"lng":141.103761,"zip":"0294505"},{"town":"永栄","koaza":"梨木町","lat":39.180568,"lng":141.104807,"zip":"0294505"},{"town":"永栄","koaza":"外下谷起","lat":39.182785,"lng":141.104005,"zip":"0294505"},{"town":"永栄","koaza":"飛鳥田後","lat":39.17923,"lng":141.093632,"zip":"0294505"},{"town":"永栄","koaza":"山根","lat":39.178307,"lng":141.094333,"zip":"0294505"},{"town":"永栄","koaza":"柳林","lat":39.178389,"lng":141.093444,"zip":"0294505"},{"town":"永沢","koaza":"田中","lat":39.172963,"lng":141.073114,"zip":"0294504"},{"town":"永沢","koaza":"横沢東","lat":39.175853,"lng":141.073165,"zip":"0294504"},{"town":"永沢","koaza":"魔々下","lat":39.176505,"lng":141.074699,"zip":"0294504"},{"town":"永沢","koaza":"西春慶","lat":39.179732,"lng":141.075803,"zip":"0294504"},{"town":"永沢","koaza":"関田","lat":39.177174,"lng":141.070202,"zip":"0294504"},{"town":"永沢","koaza":"大谷地","lat":39.172988,"lng":141.053692,"zip":"0294504"},{"town":"永沢","koaza":"林下","lat":39.170069,"lng":141.048076,"zip":"0294504"},{"town":"永沢","koaza":"原荒田","lat":39.175946,"lng":141.053243,"zip":"0294504"},{"town":"永沢","koaza":"堀切","lat":39.171633,"lng":141.059207,"zip":"0294504"},{"town":"永沢","koaza":"杉屋敷","lat":39.171592,"lng":141.059935,"zip":"0294504"},{"town":"永沢","koaza":"下谷地","lat":39.177329,"lng":141.057893,"zip":"0294504"},{"town":"永沢","koaza":"下原後","lat":39.181711,"lng":141.052187,"zip":"0294504"},{"town":"永沢","koaza":"広本山根","lat":39.181285,"lng":141.070808,"zip":"0294504"},{"town":"永沢","koaza":"蟹沢","lat":39.181113,"lng":141.063622,"zip":"0294504"},{"town":"永沢","koaza":"下原前","lat":39.182402,"lng":141.063916,"zip":"0294504"},{"town":"西根","koaza":"揚場","lat":39.186178,"lng":141.104177,"zip":"0294503"},{"town":"西根","koaza":"揚場後","lat":39.186852,"lng":141.104629,"zip":"0294503"},{"town":"西根","koaza":"高田","lat":39.190228,"lng":141.093062,"zip":"0294503"},{"town":"西根","koaza":"石持","lat":39.192265,"lng":141.089088,"zip":"0294503"},{"town":"西根","koaza":"南田尻","lat":39.192877,"lng":141.089787,"zip":"0294503"},{"town":"西根","koaza":"亀田","lat":39.190853,"lng":141.088572,"zip":"0294503"},{"town":"西根","koaza":"下辻田","lat":39.193981,"lng":141.082768,"zip":"0294503"},{"town":"西根","koaza":"沢田","lat":39.196027,"lng":141.075764,"zip":"0294503"},{"town":"西根","koaza":"鶴ケ沢","lat":39.200947,"lng":141.07767,"zip":"0294503"},{"town":"西根","koaza":"妻根","lat":39.196138,"lng":141.082213,"zip":"0294503"},{"town":"西根","koaza":"新井田前","lat":39.184825,"lng":141.048708,"zip":"0294503"},{"town":"西根","koaza":"下油地","lat":39.196524,"lng":141.088695,"zip":"0294503"},{"town":"西根","koaza":"中田","lat":39.194882,"lng":141.090727,"zip":"0294503"},{"town":"西根","koaza":"四反町","lat":39.19479,"lng":141.091338,"zip":"0294503"},{"town":"西根","koaza":"辻脇","lat":39.197323,"lng":141.094465,"zip":"0294503"},{"town":"西根","koaza":"医者屋敷","lat":39.196237,"lng":141.094978,"zip":"0294503"},{"town":"西根","koaza":"南摩知田","lat":39.198303,"lng":141.107614,"zip":"0294503"},{"town":"西根","koaza":"東地蔵野","lat":39.19642,"lng":141.108659,"zip":"0294503"},{"town":"西根","koaza":"六軒丁","lat":39.195807,"lng":141.121625,"zip":"0294503"},{"town":"永栄","koaza":"参居舘","lat":39.160841,"lng":141.062228,"zip":"0294505"},{"town":"永栄","koaza":"茶畑","lat":39.159174,"lng":141.059477,"zip":"0294505"},{"town":"永沢","koaza":"大前","lat":39.176667,"lng":141.080158,"zip":"0294504"},{"town":"永沢","koaza":"関合西","lat":39.18168,"lng":141.080908,"zip":"0294504"},{"town":"永沢","koaza":"東黒沢","lat":39.185482,"lng":141.089996,"zip":"0294504"},{"town":"西根","koaza":"南田","lat":39.192254,"lng":141.097542,"zip":"0294503"},{"town":"西根","koaza":"谷中","lat":39.1903,"lng":141.099448,"zip":"0294503"},{"town":"西根","koaza":"小針山","lat":39.190817,"lng":141.101705,"zip":"0294503"},{"town":"西根","koaza":"菊田","lat":39.191752,"lng":141.102334,"zip":"0294503"},{"town":"西根","koaza":"塩川原","lat":39.196084,"lng":141.111342,"zip":"0294503"},{"town":"西根","koaza":"鑓水東","lat":39.194322,"lng":141.109327,"zip":"0294503"},{"town":"西根","koaza":"縦街道北","lat":39.191668,"lng":141.114292,"zip":"0294503"},{"town":"西根","koaza":"縦街道南","lat":39.191493,"lng":141.115938,"zip":"0294503"},{"town":"西根","koaza":"街道上","lat":39.189709,"lng":141.124148,"zip":"0294503"},{"town":"西根","koaza":"鍛冶下","lat":39.191643,"lng":141.121127,"zip":"0294503"},{"town":"西根","koaza":"古寺前","lat":39.192797,"lng":141.115542,"zip":"0294503"},{"town":"西根","koaza":"中村","lat":39.224521,"lng":141.091324,"zip":"0294503"},{"town":"三ケ尻","koaza":"欠下","lat":39.207154,"lng":141.120357,"zip":"0294502"},{"town":"三ケ尻","koaza":"東畑","lat":39.217195,"lng":141.116421,"zip":"0294502"},{"town":"三ケ尻","koaza":"下道","lat":39.217153,"lng":141.118244,"zip":"0294502"},{"town":"三ケ尻","koaza":"上新田","lat":39.218163,"lng":141.11924,"zip":"0294502"},{"town":"西根","koaza":"二枚橋","lat":39.229796,"lng":141.011127,"zip":"0294503"},{"town":"六原","koaza":"穴持","lat":39.234842,"lng":141.055026,"zip":"0294501"},{"town":"六原","koaza":"狐森","lat":39.231031,"lng":141.059342,"zip":"0294501"},{"town":"六原","koaza":"田中東","lat":39.234749,"lng":141.070235,"zip":"0294501"},{"town":"三ケ尻","koaza":"上渋川","lat":39.22322,"lng":141.095901,"zip":"0294502"},{"town":"三ケ尻","koaza":"中荒巻","lat":39.217998,"lng":141.099393,"zip":"0294502"},{"town":"三ケ尻","koaza":"南荒巻","lat":39.216112,"lng":141.105292,"zip":"0294502"},{"town":"三ケ尻","koaza":"荒巻","lat":39.217062,"lng":141.102448,"zip":"0294502"},{"town":"西根","koaza":"北江甫","lat":39.203915,"lng":141.114943,"zip":"0294503"},{"town":"西根","koaza":"中江甫","lat":39.202681,"lng":141.116019,"zip":"0294503"},{"town":"西根","koaza":"南金谷","lat":39.196847,"lng":141.097939,"zip":"0294503"},{"town":"六原","koaza":"田中前","lat":39.229417,"lng":141.066623,"zip":"0294501"},{"town":"西根","koaza":"北山越道","lat":39.202432,"lng":141.076093,"zip":"0294503"},{"town":"西根","koaza":"大沢","lat":39.202845,"lng":141.082047,"zip":"0294503"},{"town":"西根","koaza":"川原","lat":39.199118,"lng":141.087417,"zip":"0294503"},{"town":"西根","koaza":"原添","lat":39.190572,"lng":141.111068,"zip":"0294503"},{"town":"永栄","koaza":"西広町","lat":39.159152,"lng":141.068906,"zip":"0294505"},{"town":"永栄","koaza":"平の下","lat":39.162833,"lng":141.070218,"zip":"0294505"},{"town":"西根","koaza":"大石","lat":39.190796,"lng":141.03922,"zip":"0294503"},{"town":"西根","koaza":"小湯沢","lat":39.186878,"lng":141.040234,"zip":"0294503"},{"town":"西根","koaza":"荒谷","lat":39.190906,"lng":141.048581,"zip":"0294503"},{"town":"西根","koaza":"二葉","lat":39.193492,"lng":141.046853,"zip":"0294503"},{"town":"西根","koaza":"南稲沢","lat":39.194512,"lng":141.049997,"zip":"0294503"},{"town":"西根","koaza":"中稲沢","lat":39.197407,"lng":141.047762,"zip":"0294503"},{"town":"西根","koaza":"向谷起","lat":39.201767,"lng":141.042124,"zip":"0294503"},{"town":"西根","koaza":"清水","lat":39.189067,"lng":141.065961,"zip":"0294503"},{"town":"西根","koaza":"中和田","lat":39.187328,"lng":141.069495,"zip":"0294503"},{"town":"西根","koaza":"頭無","lat":39.192451,"lng":141.068238,"zip":"0294503"},{"town":"西根","koaza":"和田後","lat":39.189443,"lng":141.068592,"zip":"0294503"},{"town":"西根","koaza":"堤下","lat":39.189982,"lng":141.072815,"zip":"0294503"},{"town":"西根","koaza":"大道畑","lat":39.188916,"lng":141.077556,"zip":"0294503"},{"town":"西根","koaza":"取揚石","lat":39.187431,"lng":141.078565,"zip":"0294503"},{"town":"西根","koaza":"堂ノ前","lat":39.185187,"lng":141.070626,"zip":"0294503"},{"town":"永沢","koaza":"三反町","lat":39.179399,"lng":141.079768,"zip":"0294504"},{"town":"永沢","koaza":"清水","lat":39.182414,"lng":141.080911,"zip":"0294504"},{"town":"永沢","koaza":"北清水","lat":39.184141,"lng":141.082498,"zip":"0294504"},{"town":"西根","koaza":"道前","lat":39.195519,"lng":141.082525,"zip":"0294503"},{"town":"西根","koaza":"川端","lat":39.208018,"lng":141.061707,"zip":"0294503"},{"town":"西根","koaza":"北大曲","lat":39.216886,"lng":141.076977,"zip":"0294503"},{"town":"西根","koaza":"舟久保","lat":39.218719,"lng":141.085528,"zip":"0294503"},{"town":"永沢","koaza":"躍子","lat":39.178389,"lng":141.082096,"zip":"0294504"},{"town":"西根","koaza":"桑木田","lat":39.189968,"lng":141.104966,"zip":"0294503"},{"town":"西根","koaza":"原添下","lat":39.189226,"lng":141.114895,"zip":"0294503"},{"town":"西根","koaza":"南町裏","lat":39.193895,"lng":141.117285,"zip":"0294503"},{"town":"西根","koaza":"東金谷","lat":39.198751,"lng":141.099721,"zip":"0294503"},{"town":"西根","koaza":"上谷地","lat":39.199323,"lng":141.096857,"zip":"0294503"},{"town":"西根","koaza":"北野中","lat":39.205754,"lng":141.105695,"zip":"0294503"},{"town":"西根","koaza":"上森","lat":39.216092,"lng":141.074499,"zip":"0294503"},{"town":"西根","koaza":"上荒巻","lat":39.211712,"lng":141.102215,"zip":"0294503"},{"town":"西根","koaza":"中荒巻","lat":39.209989,"lng":141.102274,"zip":"0294503"},{"town":"三ケ尻","koaza":"北花沢","lat":39.225304,"lng":141.092513,"zip":"0294502"},{"town":"三ケ尻","koaza":"後生平","lat":39.223152,"lng":141.108074,"zip":"0294502"},{"town":"三ケ尻","koaza":"東浦","lat":39.225221,"lng":141.109803,"zip":"0294502"},{"town":"三ケ尻","koaza":"上六百刈","lat":39.22275,"lng":141.11222,"zip":"0294502"},{"town":"三ケ尻","koaza":"中六百刈","lat":39.22491,"lng":141.111705,"zip":"0294502"},{"town":"三ケ尻","koaza":"西浦","lat":39.225963,"lng":141.09705,"zip":"0294502"},{"town":"三ケ尻","koaza":"下渋川","lat":39.221423,"lng":141.098316,"zip":"0294502"},{"town":"西根","koaza":"森","lat":39.202393,"lng":141.087783,"zip":"0294503"},{"town":"西根","koaza":"菖蒲沢","lat":39.205979,"lng":141.091912,"zip":"0294503"},{"town":"西根","koaza":"宿内川","lat":39.20641,"lng":141.112455,"zip":"0294503"},{"town":"三ケ尻","koaza":"渋川堤下","lat":39.22004,"lng":141.11335,"zip":"0294502"},{"town":"西根","koaza":"東大谷","lat":39.200668,"lng":141.10462,"zip":"0294503"},{"town":"西根","koaza":"白糸","lat":39.197308,"lng":141.122875,"zip":"0294503"},{"town":"西根","koaza":"仮屋","lat":39.196721,"lng":141.124586,"zip":"0294503"},{"town":"西根","koaza":"善生院","lat":39.196255,"lng":141.106318,"zip":"0294503"},{"town":"三ケ尻","koaza":"九反町","lat":39.220584,"lng":141.107009,"zip":"0294502"},{"town":"永栄","koaza":"愛宕川原","lat":39.156425,"lng":141.066064,"zip":"0294505"},{"town":"西根","koaza":"三反町","lat":39.183721,"lng":141.0955,"zip":"0294503"},{"town":"西根","koaza":"菅沢","lat":39.20242,"lng":141.039543,"zip":"0294503"},{"town":"永沢","koaza":"大上","lat":39.162217,"lng":141.054393,"zip":"0294504"}]