[{"town":"浅沢","koaza":"","lat":39.405529,"lng":141.114177,"zip":"0250067"},{"town":"東町","koaza":"","lat":39.384386,"lng":141.121362,"zip":"0250088"},{"town":"愛宕沢","koaza":"","lat":39.396994,"lng":141.10962,"zip":"0250000"},{"town":"愛宕町","koaza":"","lat":39.395458,"lng":141.112507,"zip":"0250071"},{"town":"石神町","koaza":"","lat":39.38127,"lng":141.103056,"zip":"0250095"},{"town":"石鳥谷町猪鼻","koaza":"","lat":39.446107,"lng":141.184233,"zip":"0283131"},{"town":"石鳥谷町江曽","koaza":"","lat":39.449305,"lng":141.142246,"zip":"0283151"},{"town":"石鳥谷町大瀬川","koaza":"","lat":39.511373,"lng":141.065814,"zip":"0283185"},{"town":"石鳥谷町上口一丁目","koaza":"","lat":39.50078,"lng":141.158557,"zip":"0283102"},{"town":"石鳥谷町上口二丁目","koaza":"","lat":39.501372,"lng":141.156349,"zip":"0283102"},{"town":"石鳥谷町上口三丁目","koaza":"","lat":39.502491,"lng":141.154178,"zip":"0283102"},{"town":"石鳥谷町北寺林","koaza":"","lat":39.487673,"lng":141.13232,"zip":"0283172"},{"town":"石鳥谷町黒沼","koaza":"","lat":39.452506,"lng":141.148441,"zip":"0283161"},{"town":"石鳥谷町好地","koaza":"","lat":39.498992,"lng":141.149651,"zip":"0283101"},{"town":"石鳥谷町五大堂","koaza":"","lat":39.435105,"lng":141.192282,"zip":"0283141"},{"town":"石鳥谷町小森林","koaza":"","lat":39.453176,"lng":141.134072,"zip":"0283153"},{"town":"石鳥谷町松林寺","koaza":"","lat":39.476497,"lng":141.096683,"zip":"0283182"},{"town":"石鳥谷町関口","koaza":"","lat":39.456689,"lng":141.166979,"zip":"0283133"},{"town":"石鳥谷町大興寺","koaza":"","lat":39.478921,"lng":141.113132,"zip":"0283181"},{"town":"石鳥谷町滝田","koaza":"","lat":39.454071,"lng":141.202411,"zip":"0283122"},{"town":"石鳥谷町戸塚","koaza":"","lat":39.468626,"lng":141.185391,"zip":"0283121"},{"town":"石鳥谷町富沢","koaza":"","lat":39.490189,"lng":141.101191,"zip":"0283184"},{"town":"石鳥谷町中寺林","koaza":"","lat":39.475056,"lng":141.136763,"zip":"0283171"},{"town":"石鳥谷町新堀","koaza":"","lat":39.484807,"lng":141.179195,"zip":"0283111"},{"town":"石鳥谷町西中島","koaza":"","lat":39.459154,"lng":141.145728,"zip":"0283162"},{"town":"石鳥谷町長谷堂","koaza":"","lat":39.485897,"lng":141.094803,"zip":"0283183"},{"town":"石鳥谷町八幡","koaza":"","lat":39.472799,"lng":141.151275,"zip":"0283163"},{"town":"石鳥谷町東中島","koaza":"","lat":39.44032,"lng":141.1723,"zip":"0283132"},{"town":"石鳥谷町南寺林","koaza":"","lat":39.458085,"lng":141.127094,"zip":"0283152"},{"town":"石鳥谷町八重畑","koaza":"","lat":39.441636,"lng":141.157173,"zip":"0283142"},{"town":"一本杉","koaza":"","lat":39.405067,"lng":141.084474,"zip":"0250058"},{"town":"円万寺","koaza":"","lat":39.393661,"lng":141.054953,"zip":"0250042"},{"town":"狼沢","koaza":"","lat":39.430281,"lng":141.098307,"zip":"0250322"},{"town":"太田","koaza":"","lat":39.37487,"lng":141.043181,"zip":"0250037"},{"town":"大通り一丁目","koaza":"","lat":39.391508,"lng":141.112487,"zip":"0250092"},{"town":"大通り二丁目","koaza":"","lat":39.388708,"lng":141.112943,"zip":"0250092"},{"town":"大迫町内川目","koaza":"","lat":39.519105,"lng":141.347672,"zip":"0283201"},{"town":"大迫町大迫","koaza":"","lat":39.472184,"lng":141.285969,"zip":"0283203"},{"town":"大迫町亀ケ森","koaza":"","lat":39.474514,"lng":141.24463,"zip":"0283204"},{"town":"大迫町外川目","koaza":"","lat":39.448303,"lng":141.333911,"zip":"0283202"},{"town":"大畑","koaza":"","lat":39.449869,"lng":141.105133,"zip":"0250303"},{"town":"大谷地","koaza":"","lat":39.36643,"lng":141.098138,"zip":"0250026"},{"town":"御田屋町","koaza":"","lat":39.386447,"lng":141.123523,"zip":"0250082"},{"town":"卸町","koaza":"","lat":39.445431,"lng":141.11161,"zip":"0250311"},{"town":"鍛治町","koaza":"","lat":39.384741,"lng":141.112993,"zip":"0250086"},{"town":"花城町","koaza":"","lat":39.389223,"lng":141.117314,"zip":"0250075"},{"town":"金矢","koaza":"","lat":39.433002,"lng":141.06466,"zip":"0250321"},{"town":"上北万丁目","koaza":"","lat":39.396965,"lng":141.077949,"zip":"0250056"},{"town":"上小舟渡","koaza":"","lat":39.396032,"lng":141.123965,"zip":"0250062"},{"town":"上諏訪","koaza":"","lat":39.373671,"lng":141.109222,"zip":"0250032"},{"town":"上町","koaza":"","lat":39.386128,"lng":141.118681,"zip":"0250087"},{"town":"上似内","koaza":"","lat":39.409094,"lng":141.147359,"zip":"0250007"},{"town":"上根子","koaza":"","lat":39.383733,"lng":141.067751,"zip":"0250043"},{"town":"北笹間","koaza":"","lat":39.352418,"lng":141.05741,"zip":"0250132"},{"town":"北湯口","koaza":"","lat":39.461377,"lng":141.094873,"zip":"0250301"},{"town":"空港南一丁目","koaza":"","lat":39.415935,"lng":141.137457,"zip":"0250008"},{"town":"空港南二丁目","koaza":"","lat":39.410749,"lng":141.137912,"zip":"0250008"},{"town":"葛","koaza":"","lat":39.430032,"lng":141.146882,"zip":"0250004"},{"town":"下シ沢","koaza":"","lat":39.446407,"lng":141.000676,"zip":"0250253"},{"town":"椚ノ目","koaza":"","lat":39.424075,"lng":141.0908,"zip":"0250323"},{"town":"幸田","koaza":"","lat":39.40134,"lng":141.202618,"zip":"0250013"},{"town":"胡四王一丁目","koaza":"","lat":39.408136,"lng":141.171088,"zip":"0250012"},{"town":"胡四王二丁目","koaza":"","lat":39.40815,"lng":141.177023,"zip":"0250012"},{"town":"小瀬川","koaza":"","lat":39.445512,"lng":141.035053,"zip":"0250324"},{"town":"材木町","koaza":"","lat":39.387796,"lng":141.10955,"zip":"0250098"},{"town":"坂本町","koaza":"","lat":39.392461,"lng":141.115906,"zip":"0250074"},{"town":"桜木町一丁目","koaza":"","lat":39.383437,"lng":141.111569,"zip":"0250094"},{"town":"桜木町二丁目","koaza":"","lat":39.381009,"lng":141.110102,"zip":"0250094"},{"town":"桜木町三丁目","koaza":"","lat":39.379911,"lng":141.105477,"zip":"0250094"},{"town":"桜台一丁目","koaza":"","lat":39.397774,"lng":141.107914,"zip":"0250064"},{"town":"桜台二丁目","koaza":"","lat":39.397865,"lng":141.104237,"zip":"0250064"},{"town":"桜町一丁目","koaza":"","lat":39.376689,"lng":141.117077,"zip":"0250084"},{"town":"桜町二丁目","koaza":"","lat":39.378723,"lng":141.121686,"zip":"0250084"},{"town":"桜町三丁目","koaza":"","lat":39.377099,"lng":141.128665,"zip":"0250084"},{"town":"桜町四丁目","koaza":"","lat":39.375112,"lng":141.122947,"zip":"0250084"},{"town":"里川口町","koaza":"","lat":39.388044,"lng":141.126838,"zip":"0250081"},{"town":"下幅","koaza":"","lat":39.400172,"lng":141.112885,"zip":"0250068"},{"town":"実相寺","koaza":"","lat":39.368537,"lng":141.112552,"zip":"0250035"},{"town":"下北万丁目","koaza":"","lat":39.394178,"lng":141.099889,"zip":"0250054"},{"town":"下小舟渡","koaza":"","lat":39.392871,"lng":141.123253,"zip":"0250063"},{"town":"下似内","koaza":"","lat":39.404879,"lng":141.131806,"zip":"0250006"},{"town":"下根子","koaza":"","lat":39.3619,"lng":141.098688,"zip":"0250025"},{"town":"十二丁目","koaza":"","lat":39.358268,"lng":141.122331,"zip":"0250000"},{"town":"城内","koaza":"","lat":39.390048,"lng":141.121765,"zip":"0250076"},{"town":"尻平川","koaza":"","lat":39.362213,"lng":140.970105,"zip":"0250137"},{"town":"新田","koaza":"","lat":39.400657,"lng":141.080669,"zip":"0250057"},{"town":"末広町","koaza":"","lat":39.386634,"lng":141.112875,"zip":"0250079"},{"town":"諏訪","koaza":"","lat":39.370157,"lng":141.107181,"zip":"0250033"},{"town":"諏訪町一丁目","koaza":"","lat":39.375611,"lng":141.1132,"zip":"0250039"},{"town":"諏訪町二丁目","koaza":"","lat":39.375638,"lng":141.109941,"zip":"0250039"},{"town":"台","koaza":"","lat":39.448854,"lng":141.065378,"zip":"0250305"},{"town":"高木","koaza":"","lat":39.385807,"lng":141.141662,"zip":"0250016"},{"town":"高田","koaza":"","lat":39.382372,"lng":141.125745,"zip":"0250083"},{"town":"高松","koaza":"","lat":39.380773,"lng":141.181148,"zip":"0250014"},{"town":"田力","koaza":"","lat":39.417698,"lng":141.15277,"zip":"0250005"},{"town":"天下田","koaza":"","lat":39.413036,"lng":141.103768,"zip":"0250001"},{"town":"東和町安俵","koaza":"","lat":39.377018,"lng":141.215544,"zip":"0280115"},{"town":"東和町砂子","koaza":"","lat":39.332279,"lng":141.269613,"zip":"0280134"},{"town":"東和町石鳩岡","koaza":"","lat":39.419517,"lng":141.275964,"zip":"0280103"},{"town":"東和町石持","koaza":"","lat":39.331778,"lng":141.194239,"zip":"0280154"},{"town":"東和町落合","koaza":"","lat":39.365137,"lng":141.229338,"zip":"0280151"},{"town":"東和町小友","koaza":"","lat":39.359461,"lng":141.267533,"zip":"0280121"},{"town":"東和町小原","koaza":"","lat":39.335556,"lng":141.243483,"zip":"0280136"},{"town":"東和町上浮田","koaza":"","lat":39.320519,"lng":141.211308,"zip":"0280143"},{"town":"東和町北小山田","koaza":"","lat":39.42936,"lng":141.208683,"zip":"0280107"},{"town":"東和町北川目","koaza":"","lat":39.419032,"lng":141.246324,"zip":"0280102"},{"town":"東和町北成島","koaza":"","lat":39.365305,"lng":141.19656,"zip":"0280116"},{"town":"東和町北前田","koaza":"","lat":39.442996,"lng":141.251742,"zip":"0280101"},{"town":"東和町倉沢","koaza":"","lat":39.322319,"lng":141.254822,"zip":"0280135"},{"town":"東和町小通","koaza":"","lat":39.359753,"lng":141.22414,"zip":"0280156"},{"town":"東和町駒籠","koaza":"","lat":39.320181,"lng":141.226178,"zip":"0280142"},{"town":"東和町下浮田","koaza":"","lat":39.325624,"lng":141.233887,"zip":"0280141"},{"town":"東和町新地","koaza":"","lat":39.395085,"lng":141.255603,"zip":"0280112"},{"town":"東和町外谷地","koaza":"","lat":39.417902,"lng":141.204289,"zip":"0280106"},{"town":"東和町鷹巣堂","koaza":"","lat":39.351814,"lng":141.259993,"zip":"0280133"},{"town":"東和町田瀬","koaza":"","lat":39.294719,"lng":141.314451,"zip":"0280123"},{"town":"東和町舘迫","koaza":"","lat":39.362722,"lng":141.248087,"zip":"0280132"},{"town":"東和町谷内","koaza":"","lat":39.345325,"lng":141.278983,"zip":"0280122"},{"town":"東和町土沢","koaza":"","lat":39.384291,"lng":141.239502,"zip":"0280114"},{"town":"東和町毒沢","koaza":"","lat":39.348864,"lng":141.241049,"zip":"0280152"},{"town":"東和町中内","koaza":"","lat":39.340228,"lng":141.208325,"zip":"0280153"},{"town":"東和町東晴山","koaza":"","lat":39.377732,"lng":141.260774,"zip":"0280113"},{"town":"東和町前田","koaza":"","lat":39.418492,"lng":141.221491,"zip":"0280105"},{"town":"東和町町井","koaza":"","lat":39.370678,"lng":141.241379,"zip":"0280131"},{"town":"東和町南川目","koaza":"","lat":39.405237,"lng":141.250591,"zip":"0280104"},{"town":"東和町南成島","koaza":"","lat":39.355002,"lng":141.201004,"zip":"0280155"},{"town":"東和町宮田","koaza":"","lat":39.322345,"lng":141.190417,"zip":"0280144"},{"town":"東和町百ノ沢","koaza":"","lat":39.400673,"lng":141.228187,"zip":"0280111"},{"town":"外台","koaza":"","lat":39.369417,"lng":141.124217,"zip":"0250000"},{"town":"外台川原","koaza":"","lat":39.369154,"lng":141.128688,"zip":"0250000"},{"town":"栃内","koaza":"","lat":39.351582,"lng":141.02333,"zip":"0250135"},{"town":"轟木","koaza":"","lat":39.360507,"lng":141.038825,"zip":"0250131"},{"town":"豊沢","koaza":"","lat":39.49212,"lng":140.959649,"zip":"0250251"},{"town":"豊沢町","koaza":"","lat":39.383092,"lng":141.11919,"zip":"0250089"},{"town":"中北万丁目","koaza":"","lat":39.394163,"lng":141.090569,"zip":"0250053"},{"town":"中笹間","koaza":"","lat":39.34666,"lng":141.048642,"zip":"0250133"},{"town":"中根子","koaza":"","lat":39.3757,"lng":141.093064,"zip":"0250036"},{"town":"仲町","koaza":"","lat":39.387706,"lng":141.119842,"zip":"0250077"},{"town":"鍋倉","koaza":"","lat":39.412972,"lng":141.065705,"zip":"0250046"},{"town":"鉛","koaza":"","lat":39.468505,"lng":140.992819,"zip":"0250252"},{"town":"成田","koaza":"","lat":39.354776,"lng":141.132381,"zip":"0250023"},{"town":"南城","koaza":"","lat":39.368483,"lng":141.119392,"zip":"0250021"},{"town":"西大通り一丁目","koaza":"","lat":39.393227,"lng":141.107955,"zip":"0250091"},{"town":"西大通り二丁目","koaza":"","lat":39.393609,"lng":141.103895,"zip":"0250091"},{"town":"西晴山","koaza":"","lat":39.388881,"lng":141.044919,"zip":"0250045"},{"town":"西宮野目","koaza":"","lat":39.423513,"lng":141.116439,"zip":"0250002"},{"town":"二枚橋","koaza":"","lat":39.441036,"lng":141.1153,"zip":"0250312"},{"town":"二枚橋町大通り一丁目","koaza":"","lat":39.442416,"lng":141.129798,"zip":"0250314"},{"town":"二枚橋町大通り二丁目","koaza":"","lat":39.441595,"lng":141.133285,"zip":"0250314"},{"town":"二枚橋町北一丁目","koaza":"","lat":39.444139,"lng":141.129561,"zip":"0250313"},{"town":"二枚橋町南一丁目","koaza":"","lat":39.43984,"lng":141.130527,"zip":"0250315"},{"town":"糠塚","koaza":"","lat":39.465752,"lng":141.113759,"zip":"0250302"},{"town":"野田","koaza":"","lat":39.39934,"lng":141.094903,"zip":"0250052"},{"town":"東十二丁目","koaza":"","lat":39.366415,"lng":141.147747,"zip":"0250088"},{"town":"東宮野目","koaza":"","lat":39.413666,"lng":141.129417,"zip":"0250003"},{"town":"膝立","koaza":"","lat":39.402557,"lng":141.060382,"zip":"0250041"},{"town":"一日市","koaza":"","lat":39.394309,"lng":141.115447,"zip":"0250073"},{"town":"藤沢町","koaza":"","lat":39.38361,"lng":141.106971,"zip":"0250096"},{"town":"双葉町","koaza":"","lat":39.384782,"lng":141.117151,"zip":"0250085"},{"town":"吹張町","koaza":"","lat":39.38754,"lng":141.114956,"zip":"0250078"},{"town":"不動","koaza":"","lat":39.377785,"lng":141.108908,"zip":"0250031"},{"town":"不動町一丁目","koaza":"","lat":39.378526,"lng":141.112275,"zip":"0250038"},{"town":"不動町二丁目","koaza":"","lat":39.377084,"lng":141.110143,"zip":"0250038"},{"town":"星が丘一丁目","koaza":"","lat":39.402819,"lng":141.10573,"zip":"0250065"},{"town":"星が丘二丁目","koaza":"","lat":39.405042,"lng":141.106881,"zip":"0250065"},{"town":"松園町","koaza":"","lat":39.409665,"lng":141.098434,"zip":"0250066"},{"town":"松園町一丁目","koaza":"","lat":39.407121,"lng":141.106367,"zip":"0250066"},{"town":"南川原町","koaza":"","lat":39.383077,"lng":141.114494,"zip":"0250093"},{"town":"南笹間","koaza":"","lat":39.333682,"lng":141.053674,"zip":"0250134"},{"town":"南新田","koaza":"","lat":39.403348,"lng":141.09557,"zip":"0250051"},{"town":"南諏訪町","koaza":"","lat":39.368388,"lng":141.102569,"zip":"0250034"},{"town":"南万丁目","koaza":"","lat":39.387522,"lng":141.088029,"zip":"0250055"},{"town":"本館","koaza":"","lat":39.411094,"lng":141.116253,"zip":"0250061"},{"town":"本館一丁目","koaza":"","lat":39.406155,"lng":141.121759,"zip":"0250061"},{"town":"本館二丁目","koaza":"","lat":39.407361,"lng":141.119073,"zip":"0250061"},{"town":"本館三丁目","koaza":"","lat":39.407764,"lng":141.115598,"zip":"0250061"},{"town":"矢沢","koaza":"","lat":39.409222,"lng":141.185245,"zip":"0250011"},{"town":"山の神","koaza":"","lat":39.361203,"lng":141.112151,"zip":"0250024"},{"town":"湯口","koaza":"","lat":39.413521,"lng":141.022193,"zip":"0250044"},{"town":"湯本","koaza":"","lat":39.442898,"lng":141.083865,"zip":"0250304"},{"town":"横志田","koaza":"","lat":39.364052,"lng":141.002253,"zip":"0250136"},{"town":"四日町一丁目","koaza":"","lat":39.397011,"lng":141.11533,"zip":"0250072"},{"town":"四日町二丁目","koaza":"","lat":39.398284,"lng":141.117567,"zip":"0250072"},{"town":"四日町三丁目","koaza":"","lat":39.400567,"lng":141.119479,"zip":"0250072"},{"town":"若葉町一丁目","koaza":"","lat":39.390828,"lng":141.103244,"zip":"0250097"},{"town":"若葉町二丁目","koaza":"","lat":39.388197,"lng":141.104075,"zip":"0250097"},{"town":"若葉町三丁目","koaza":"","lat":39.385966,"lng":141.104051,"zip":"0250097"},{"town":"横志田","koaza":"六地割","lat":39.355395,"lng":140.993192,"zip":"0250136"},{"town":"鉛","koaza":"西鉛","lat":39.469222,"lng":140.988578,"zip":"0250252"},{"town":"尻平川","koaza":"五地割","lat":39.354056,"lng":140.986357,"zip":"0250137"},{"town":"横志田","koaza":"五地割","lat":39.359145,"lng":140.989927,"zip":"0250136"},{"town":"尻平川","koaza":"四地割","lat":39.354601,"lng":140.987157,"zip":"0250137"},{"town":"鉛","koaza":"中平","lat":39.463155,"lng":140.993836,"zip":"0250252"},{"town":"鉛","koaza":"前野","lat":39.468083,"lng":140.991485,"zip":"0250252"},{"town":"鉛","koaza":"館","lat":39.469976,"lng":140.99083,"zip":"0250252"},{"town":"横志田","koaza":"四地割","lat":39.361262,"lng":140.992976,"zip":"0250136"},{"town":"鉛","koaza":"中野","lat":39.466345,"lng":140.994531,"zip":"0250252"},{"town":"下シ沢","koaza":"大久保","lat":39.461696,"lng":140.997965,"zip":"0250253"},{"town":"横志田","koaza":"三地割","lat":39.361936,"lng":140.997023,"zip":"0250136"},{"town":"横志田","koaza":"一地割","lat":39.367993,"lng":141.002533,"zip":"0250136"},{"town":"下シ沢","koaza":"野口","lat":39.456471,"lng":141.00036,"zip":"0250253"},{"town":"太田","koaza":"第十三地割","lat":39.382091,"lng":141.002995,"zip":"0250037"},{"town":"横志田","koaza":"十一地割","lat":39.352453,"lng":141.006761,"zip":"0250136"},{"town":"太田","koaza":"第四地割","lat":39.389103,"lng":141.0128,"zip":"0250037"},{"town":"横志田","koaza":"十地割","lat":39.355259,"lng":141.006118,"zip":"0250136"},{"town":"太田","koaza":"第三地割","lat":39.386568,"lng":141.007088,"zip":"0250037"},{"town":"太田","koaza":"第十六地割","lat":39.373909,"lng":141.007937,"zip":"0250037"},{"town":"下シ沢","koaza":"中野","lat":39.451542,"lng":141.004394,"zip":"0250253"},{"town":"下シ沢","koaza":"前田","lat":39.447199,"lng":141.003782,"zip":"0250253"},{"town":"下シ沢","koaza":"牛角","lat":39.443611,"lng":141.00554,"zip":"0250253"},{"town":"横志田","koaza":"七地割","lat":39.362688,"lng":141.011526,"zip":"0250136"},{"town":"太田","koaza":"第十五地割","lat":39.376492,"lng":141.007848,"zip":"0250037"},{"town":"轟木","koaza":"二十地割","lat":39.366319,"lng":141.012074,"zip":"0250131"},{"town":"湯口","koaza":"大沢","lat":39.436676,"lng":141.011483,"zip":"0250044"},{"town":"太田","koaza":"第十二地割","lat":39.381488,"lng":141.015484,"zip":"0250037"},{"town":"太田","koaza":"第十一地割","lat":39.382969,"lng":141.016682,"zip":"0250037"},{"town":"湯口","koaza":"天王","lat":39.414947,"lng":141.009597,"zip":"0250044"},{"town":"湯口","koaza":"松原","lat":39.408401,"lng":141.016133,"zip":"0250044"},{"town":"湯口","koaza":"細野","lat":39.431679,"lng":141.012294,"zip":"0250044"},{"town":"湯口","koaza":"洗沢","lat":39.410243,"lng":141.01733,"zip":"0250044"},{"town":"湯口","koaza":"志戸平","lat":39.419372,"lng":141.014134,"zip":"0250044"},{"town":"湯口","koaza":"佐野","lat":39.422869,"lng":141.013776,"zip":"0250044"},{"town":"湯口","koaza":"日蔭坂","lat":39.429445,"lng":141.018149,"zip":"0250044"},{"town":"湯口","koaza":"坂ノ上","lat":39.428409,"lng":141.015122,"zip":"0250044"},{"town":"湯口","koaza":"水上","lat":39.433436,"lng":141.01504,"zip":"0250044"},{"town":"湯口","koaza":"渡り","lat":39.429243,"lng":141.016894,"zip":"0250044"},{"town":"栃内","koaza":"六地割","lat":39.355456,"lng":141.016821,"zip":"0250135"},{"town":"太田","koaza":"第六地割","lat":39.396964,"lng":141.025565,"zip":"0250037"},{"town":"太田","koaza":"第五地割","lat":39.389835,"lng":141.020779,"zip":"0250037"},{"town":"栃内","koaza":"二十四地割","lat":39.34818,"lng":141.017775,"zip":"0250135"},{"town":"太田","koaza":"第十地割","lat":39.387136,"lng":141.028976,"zip":"0250037"},{"town":"栃内","koaza":"七地割","lat":39.353987,"lng":141.019353,"zip":"0250135"},{"town":"栃内","koaza":"八地割","lat":39.355801,"lng":141.021851,"zip":"0250135"},{"town":"栃内","koaza":"二十三地割","lat":39.348691,"lng":141.023189,"zip":"0250135"},{"town":"栃内","koaza":"四地割","lat":39.35135,"lng":141.020021,"zip":"0250135"},{"town":"中笹間","koaza":"一地割","lat":39.338687,"lng":141.030673,"zip":"0250133"},{"town":"栃内","koaza":"五地割","lat":39.352338,"lng":141.02144,"zip":"0250135"},{"town":"栃内","koaza":"二十二地割","lat":39.351252,"lng":141.02161,"zip":"0250135"},{"town":"栃内","koaza":"十八地割","lat":39.354463,"lng":141.021564,"zip":"0250135"},{"town":"太田","koaza":"第九地割","lat":39.388926,"lng":141.031466,"zip":"0250037"},{"town":"湯口","koaza":"鳥谷","lat":39.401079,"lng":141.026841,"zip":"0250044"},{"town":"栃内","koaza":"二十六地割","lat":39.34278,"lng":141.028169,"zip":"0250135"},{"town":"栃内","koaza":"二十地割","lat":39.352354,"lng":141.025005,"zip":"0250135"},{"town":"栃内","koaza":"十九地割","lat":39.354792,"lng":141.023582,"zip":"0250135"},{"town":"栃内","koaza":"十二地割","lat":39.360565,"lng":141.023986,"zip":"0250135"},{"town":"栃内","koaza":"十地割","lat":39.357866,"lng":141.024663,"zip":"0250135"},{"town":"栃内","koaza":"二十九地割","lat":39.349231,"lng":141.024716,"zip":"0250135"},{"town":"栃内","koaza":"二十一地割","lat":39.350301,"lng":141.024069,"zip":"0250135"},{"town":"栃内","koaza":"十三地割","lat":39.357559,"lng":141.028052,"zip":"0250135"},{"town":"栃内","koaza":"三十地割","lat":39.350351,"lng":141.026613,"zip":"0250135"},{"town":"湯口","koaza":"松沢","lat":39.404345,"lng":141.028035,"zip":"0250044"},{"town":"湯口","koaza":"蟹沢","lat":39.401532,"lng":141.031807,"zip":"0250044"},{"town":"栃内","koaza":"三十二地割","lat":39.351898,"lng":141.0286,"zip":"0250135"},{"town":"太田","koaza":"第七地割","lat":39.39599,"lng":141.028984,"zip":"0250037"},{"town":"栃内","koaza":"二十七地割","lat":39.343751,"lng":141.030494,"zip":"0250135"},{"town":"轟木","koaza":"十九地割","lat":39.360443,"lng":141.031323,"zip":"0250131"},{"town":"栃内","koaza":"十五地割","lat":39.356757,"lng":141.030344,"zip":"0250135"},{"town":"太田","koaza":"第二十地割","lat":39.365642,"lng":141.029337,"zip":"0250037"},{"town":"太田","koaza":"第八地割","lat":39.390549,"lng":141.033046,"zip":"0250037"},{"town":"栃内","koaza":"三十八地割","lat":39.342341,"lng":141.033056,"zip":"0250135"},{"town":"太田","koaza":"第二十一地割","lat":39.369873,"lng":141.030777,"zip":"0250037"},{"town":"栃内","koaza":"三十一地割","lat":39.35048,"lng":141.02928,"zip":"0250135"},{"town":"湯口","koaza":"古堂","lat":39.399346,"lng":141.032948,"zip":"0250044"},{"town":"太田","koaza":"第三十七地割","lat":39.366334,"lng":141.034494,"zip":"0250037"},{"town":"栃内","koaza":"三十六地割","lat":39.347299,"lng":141.031533,"zip":"0250135"},{"town":"栃内","koaza":"三十三地割","lat":39.351732,"lng":141.031843,"zip":"0250135"},{"town":"湯口","koaza":"上川原","lat":39.396038,"lng":141.031246,"zip":"0250044"},{"town":"栃内","koaza":"三十五地割","lat":39.34934,"lng":141.031106,"zip":"0250135"},{"town":"栃内","koaza":"三十四地割","lat":39.350901,"lng":141.032635,"zip":"0250135"},{"town":"栃内","koaza":"十四地割","lat":39.356491,"lng":141.032013,"zip":"0250135"},{"town":"栃内","koaza":"四十四地割","lat":39.35274,"lng":141.032945,"zip":"0250135"},{"town":"太田","koaza":"第三十六地割","lat":39.368406,"lng":141.033834,"zip":"0250037"},{"town":"湯口","koaza":"西田","lat":39.396222,"lng":141.035051,"zip":"0250044"},{"town":"太田","koaza":"第二十八地割","lat":39.384221,"lng":141.03996,"zip":"0250037"},{"town":"太田","koaza":"第三十五地割","lat":39.371873,"lng":141.037178,"zip":"0250037"},{"town":"轟木","koaza":"十八地割","lat":39.361489,"lng":141.036404,"zip":"0250131"},{"town":"中笹間","koaza":"二十地割","lat":39.354312,"lng":141.035993,"zip":"0250133"},{"town":"栃内","koaza":"三十七地割","lat":39.345064,"lng":141.035844,"zip":"0250135"},{"town":"栃内","koaza":"四十地割","lat":39.346889,"lng":141.035523,"zip":"0250135"},{"town":"栃内","koaza":"四十二地割","lat":39.348207,"lng":141.036827,"zip":"0250135"},{"town":"栃内","koaza":"四十三地割","lat":39.351771,"lng":141.036334,"zip":"0250135"},{"town":"湯口","koaza":"山根","lat":39.404047,"lng":141.04268,"zip":"0250044"},{"town":"湯口","koaza":"田屋","lat":39.393606,"lng":141.036785,"zip":"0250044"},{"town":"太田","koaza":"第二十六地割","lat":39.385845,"lng":141.038336,"zip":"0250037"},{"town":"湯口","koaza":"的場","lat":39.394434,"lng":141.037396,"zip":"0250044"},{"town":"太田","koaza":"第二十五地割","lat":39.384477,"lng":141.03674,"zip":"0250037"},{"town":"湯口","koaza":"平林","lat":39.401463,"lng":141.037636,"zip":"0250044"},{"town":"北笹間","koaza":"十八地割","lat":39.355134,"lng":141.037934,"zip":"0250132"},{"town":"太田","koaza":"第三十四地割","lat":39.375751,"lng":141.04019,"zip":"0250037"},{"town":"中笹間","koaza":"二地割","lat":39.339078,"lng":141.037768,"zip":"0250133"},{"town":"栃内","koaza":"四十一地割","lat":39.347152,"lng":141.038274,"zip":"0250135"},{"town":"栃内","koaza":"三十九地割","lat":39.34499,"lng":141.038614,"zip":"0250135"},{"town":"轟木","koaza":"十七地割","lat":39.360161,"lng":141.040775,"zip":"0250131"},{"town":"湯口","koaza":"鴻ノ巣","lat":39.396176,"lng":141.038128,"zip":"0250044"},{"town":"中笹間","koaza":"十七地割","lat":39.34883,"lng":141.039432,"zip":"0250133"},{"town":"中笹間","koaza":"十九地割","lat":39.350896,"lng":141.039338,"zip":"0250133"},{"town":"中笹間","koaza":"三地割","lat":39.339285,"lng":141.041099,"zip":"0250133"},{"town":"太田","koaza":"第三十八地割","lat":39.365688,"lng":141.038259,"zip":"0250037"},{"town":"太田","koaza":"第三十九地割","lat":39.367998,"lng":141.039839,"zip":"0250037"},{"town":"湯口","koaza":"反目","lat":39.400054,"lng":141.040176,"zip":"0250044"},{"town":"湯口","koaza":"石川原","lat":39.391368,"lng":141.039373,"zip":"0250044"},{"town":"太田","koaza":"第二十七地割","lat":39.379051,"lng":141.043561,"zip":"0250037"},{"town":"太田","koaza":"第四十地割","lat":39.371226,"lng":141.040952,"zip":"0250037"},{"town":"轟木","koaza":"十三地割","lat":39.363043,"lng":141.043713,"zip":"0250131"},{"town":"轟木","koaza":"十一地割","lat":39.365887,"lng":141.045692,"zip":"0250131"},{"town":"中笹間","koaza":"十八地割","lat":39.347342,"lng":141.040225,"zip":"0250133"},{"town":"上根子","koaza":"法前","lat":39.383087,"lng":141.049284,"zip":"0250043"},{"town":"中笹間","koaza":"四地割","lat":39.344309,"lng":141.041469,"zip":"0250133"},{"town":"太田","koaza":"第三十三地割","lat":39.374543,"lng":141.042999,"zip":"0250037"},{"town":"西晴山","koaza":"筑後","lat":39.387937,"lng":141.042609,"zip":"0250045"},{"town":"円万寺","koaza":"上中野","lat":39.394853,"lng":141.043154,"zip":"0250042"},{"town":"中笹間","koaza":"五地割","lat":39.345718,"lng":141.044758,"zip":"0250133"},{"town":"円万寺","koaza":"板橋","lat":39.396197,"lng":141.043799,"zip":"0250042"},{"town":"中笹間","koaza":"十四地割","lat":39.348178,"lng":141.047171,"zip":"0250133"},{"town":"轟木","koaza":"十二地割","lat":39.363966,"lng":141.046362,"zip":"0250131"},{"town":"轟木","koaza":"十六地割","lat":39.361724,"lng":141.042177,"zip":"0250131"},{"town":"中笹間","koaza":"十三地割","lat":39.350642,"lng":141.044824,"zip":"0250133"},{"town":"湯口","koaza":"二ツ堰","lat":39.392577,"lng":141.042516,"zip":"0250044"},{"town":"南笹間","koaza":"二地割","lat":39.335237,"lng":141.046164,"zip":"0250134"},{"town":"西晴山","koaza":"晴山","lat":39.388146,"lng":141.043683,"zip":"0250045"},{"town":"太田","koaza":"第二十九地割","lat":39.379502,"lng":141.046422,"zip":"0250037"},{"town":"鍋倉","koaza":"堰合","lat":39.411298,"lng":141.051987,"zip":"0250046"},{"town":"太田","koaza":"第四十一地割","lat":39.369065,"lng":141.046118,"zip":"0250037"},{"town":"北笹間","koaza":"十七地割","lat":39.354482,"lng":141.044548,"zip":"0250132"},{"town":"中笹間","koaza":"十六地割","lat":39.346186,"lng":141.045507,"zip":"0250133"},{"town":"湯口","koaza":"根岸","lat":39.405397,"lng":141.046086,"zip":"0250044"},{"town":"轟木","koaza":"十五地割","lat":39.358368,"lng":141.048394,"zip":"0250131"},{"town":"中笹間","koaza":"六地割","lat":39.344576,"lng":141.04804,"zip":"0250133"},{"town":"西晴山","koaza":"中野","lat":39.390348,"lng":141.04567,"zip":"0250045"},{"town":"北笹間","koaza":"十九地割","lat":39.353319,"lng":141.045679,"zip":"0250132"},{"town":"湯口","koaza":"新田","lat":39.397947,"lng":141.045247,"zip":"0250044"},{"town":"太田","koaza":"第三十二地割","lat":39.373704,"lng":141.049896,"zip":"0250037"},{"town":"上根子","koaza":"玄番","lat":39.38757,"lng":141.047573,"zip":"0250043"},{"town":"北笹間","koaza":"十四地割","lat":39.356951,"lng":141.047382,"zip":"0250132"},{"town":"南笹間","koaza":"一地割","lat":39.33767,"lng":141.04954,"zip":"0250134"},{"town":"鍋倉","koaza":"下堰田","lat":39.420024,"lng":141.060698,"zip":"0250046"},{"town":"轟木","koaza":"十四地割","lat":39.360344,"lng":141.049216,"zip":"0250131"},{"town":"北笹間","koaza":"二十地割","lat":39.351957,"lng":141.048018,"zip":"0250132"},{"town":"円万寺","koaza":"堰田","lat":39.393802,"lng":141.047667,"zip":"0250042"},{"town":"円万寺","koaza":"中野","lat":39.391888,"lng":141.047515,"zip":"0250042"},{"town":"膝立","koaza":"観音山","lat":39.410761,"lng":141.048496,"zip":"0250041"},{"town":"上根子","koaza":"瀬野","lat":39.384216,"lng":141.052574,"zip":"0250043"},{"town":"中笹間","koaza":"十五地割","lat":39.346491,"lng":141.047815,"zip":"0250133"},{"town":"北笹間","koaza":"二十一地割","lat":39.349827,"lng":141.049763,"zip":"0250132"},{"town":"円万寺","koaza":"赤沼","lat":39.397083,"lng":141.048374,"zip":"0250042"},{"town":"湯口","koaza":"銭谷","lat":39.404143,"lng":141.048221,"zip":"0250044"},{"town":"轟木","koaza":"十地割","lat":39.363323,"lng":141.051235,"zip":"0250131"},{"town":"太田","koaza":"第四十二地割","lat":39.368832,"lng":141.048415,"zip":"0250037"},{"town":"円万寺","koaza":"中村","lat":39.393562,"lng":141.052622,"zip":"0250042"},{"town":"円万寺","koaza":"大曲","lat":39.398077,"lng":141.050242,"zip":"0250042"},{"town":"南笹間","koaza":"三地割","lat":39.33445,"lng":141.051704,"zip":"0250134"},{"town":"上根子","koaza":"中野","lat":39.388,"lng":141.053244,"zip":"0250043"},{"town":"円万寺","koaza":"高円万寺","lat":39.405638,"lng":141.051006,"zip":"0250042"},{"town":"轟木","koaza":"九地割","lat":39.35977,"lng":141.051457,"zip":"0250131"},{"town":"中笹間","koaza":"九地割","lat":39.346815,"lng":141.049633,"zip":"0250133"},{"town":"円万寺","koaza":"下中野","lat":39.389906,"lng":141.05138,"zip":"0250042"},{"town":"北笹間","koaza":"十六地割","lat":39.353407,"lng":141.050611,"zip":"0250132"},{"town":"円万寺","koaza":"下堰田","lat":39.390974,"lng":141.053183,"zip":"0250042"},{"town":"北笹間","koaza":"十五地割","lat":39.355274,"lng":141.051076,"zip":"0250132"},{"town":"中笹間","koaza":"八地割","lat":39.344277,"lng":141.053396,"zip":"0250133"},{"town":"北笹間","koaza":"二十二地割","lat":39.348379,"lng":141.051755,"zip":"0250132"},{"town":"北笹間","koaza":"十三地割","lat":39.358267,"lng":141.05172,"zip":"0250132"},{"town":"中笹間","koaza":"七地割","lat":39.341831,"lng":141.053931,"zip":"0250133"},{"town":"上根子","koaza":"豊後","lat":39.385446,"lng":141.053012,"zip":"0250043"},{"town":"円万寺","koaza":"八幡","lat":39.398715,"lng":141.052411,"zip":"0250042"},{"town":"鍋倉","koaza":"山居","lat":39.41582,"lng":141.05342,"zip":"0250046"},{"town":"膝立","koaza":"二ケ村","lat":39.405387,"lng":141.05271,"zip":"0250041"},{"town":"膝立","koaza":"北野","lat":39.406142,"lng":141.053662,"zip":"0250041"},{"town":"轟木","koaza":"八地割","lat":39.359694,"lng":141.052791,"zip":"0250131"},{"town":"轟木","koaza":"七地割","lat":39.364355,"lng":141.055721,"zip":"0250131"},{"town":"円万寺","koaza":"大巻","lat":39.403683,"lng":141.053162,"zip":"0250042"},{"town":"円万寺","koaza":"同心川","lat":39.397322,"lng":141.053374,"zip":"0250042"},{"town":"円万寺","koaza":"法船","lat":39.390093,"lng":141.056398,"zip":"0250042"},{"town":"太田","koaza":"第四十三地割","lat":39.36844,"lng":141.054631,"zip":"0250037"},{"town":"北笹間","koaza":"八地割","lat":39.350432,"lng":141.058324,"zip":"0250132"},{"town":"北笹間","koaza":"十二地割","lat":39.353882,"lng":141.057041,"zip":"0250132"},{"town":"鍋倉","koaza":"上在家","lat":39.418693,"lng":141.05705,"zip":"0250046"},{"town":"上根子","koaza":"法領","lat":39.387415,"lng":141.058326,"zip":"0250043"},{"town":"上根子","koaza":"川端","lat":39.381081,"lng":141.05953,"zip":"0250043"},{"town":"膝立","koaza":"杉本","lat":39.398681,"lng":141.060788,"zip":"0250041"},{"town":"湯本","koaza":"第一地割","lat":39.452618,"lng":141.067284,"zip":"0250304"},{"town":"鍋倉","koaza":"出張","lat":39.415754,"lng":141.058785,"zip":"0250046"},{"town":"南笹間","koaza":"四地割","lat":39.332279,"lng":141.059251,"zip":"0250134"},{"town":"鍋倉","koaza":"宝閑","lat":39.417588,"lng":141.05956,"zip":"0250046"},{"town":"膝立","koaza":"名須川","lat":39.405481,"lng":141.06325,"zip":"0250041"},{"town":"太田","koaza":"第三十一地割","lat":39.376372,"lng":141.061232,"zip":"0250037"},{"town":"南笹間","koaza":"五地割","lat":39.327423,"lng":141.060011,"zip":"0250134"},{"town":"轟木","koaza":"三地割","lat":39.359756,"lng":141.063189,"zip":"0250131"},{"town":"金矢","koaza":"第五地割","lat":39.435911,"lng":141.067313,"zip":"0250321"},{"town":"轟木","koaza":"六地割","lat":39.363001,"lng":141.06237,"zip":"0250131"},{"town":"北笹間","koaza":"九地割","lat":39.352427,"lng":141.061592,"zip":"0250132"},{"town":"北笹間","koaza":"十地割","lat":39.354772,"lng":141.063355,"zip":"0250132"},{"town":"太田","koaza":"第五十地割","lat":39.368243,"lng":141.061149,"zip":"0250037"},{"town":"鍋倉","koaza":"沢端","lat":39.407712,"lng":141.063207,"zip":"0250046"},{"town":"膝立","koaza":"十二位","lat":39.400834,"lng":141.061515,"zip":"0250041"},{"town":"太田","koaza":"第四十四地割","lat":39.369096,"lng":141.061135,"zip":"0250037"},{"town":"北笹間","koaza":"七地割","lat":39.348049,"lng":141.060007,"zip":"0250132"},{"town":"中笹間","koaza":"十一地割","lat":39.346265,"lng":141.063044,"zip":"0250133"},{"town":"太田","koaza":"第四十六地割","lat":39.371842,"lng":141.060577,"zip":"0250037"},{"town":"太田","koaza":"第四十七地割","lat":39.371924,"lng":141.064024,"zip":"0250037"},{"town":"北笹間","koaza":"六地割","lat":39.349536,"lng":141.061335,"zip":"0250132"},{"town":"上根子","koaza":"新屋敷","lat":39.385917,"lng":141.06222,"zip":"0250043"},{"town":"上根子","koaza":"神山","lat":39.384189,"lng":141.061616,"zip":"0250043"},{"town":"太田","koaza":"第三十地割","lat":39.375665,"lng":141.065097,"zip":"0250037"},{"town":"円万寺","koaza":"高松寺","lat":39.390468,"lng":141.063037,"zip":"0250042"},{"town":"上根子","koaza":"道願","lat":39.381919,"lng":141.065337,"zip":"0250043"},{"town":"小瀬川","koaza":"第十三地割","lat":39.425431,"lng":141.063033,"zip":"0250324"},{"town":"鍋倉","koaza":"上新田","lat":39.411147,"lng":141.063349,"zip":"0250046"},{"town":"膝立","koaza":"上館","lat":39.399015,"lng":141.064375,"zip":"0250041"},{"town":"轟木","koaza":"五地割","lat":39.360312,"lng":141.062193,"zip":"0250131"},{"town":"湯本","koaza":"第十九地割","lat":39.439649,"lng":141.067882,"zip":"0250304"},{"town":"円万寺","koaza":"下高松寺","lat":39.389341,"lng":141.065207,"zip":"0250042"},{"town":"鍋倉","koaza":"鍛名","lat":39.416706,"lng":141.065366,"zip":"0250046"},{"town":"太田","koaza":"第四十八地割","lat":39.370288,"lng":141.063523,"zip":"0250037"},{"town":"鍋倉","koaza":"大巻","lat":39.415125,"lng":141.063898,"zip":"0250046"},{"town":"北笹間","koaza":"三地割","lat":39.350887,"lng":141.06469,"zip":"0250132"},{"town":"太田","koaza":"第四十九地割","lat":39.366732,"lng":141.06744,"zip":"0250037"},{"town":"台","koaza":"第二地割","lat":39.447334,"lng":141.070702,"zip":"0250305"},{"town":"轟木","koaza":"一地割","lat":39.361594,"lng":141.067547,"zip":"0250131"},{"town":"上根子","koaza":"和田","lat":39.386432,"lng":141.068977,"zip":"0250043"},{"town":"北笹間","koaza":"四地割","lat":39.347973,"lng":141.067577,"zip":"0250132"},{"town":"鍋倉","koaza":"地神","lat":39.411475,"lng":141.0655,"zip":"0250046"},{"town":"膝立","koaza":"中館","lat":39.394447,"lng":141.064887,"zip":"0250041"},{"town":"小瀬川","koaza":"第八地割","lat":39.418644,"lng":141.065606,"zip":"0250324"},{"town":"太田","koaza":"第五十一地割","lat":39.365004,"lng":141.067206,"zip":"0250037"},{"town":"膝立","koaza":"下館","lat":39.39766,"lng":141.066204,"zip":"0250041"},{"town":"鍋倉","koaza":"堰端","lat":39.406052,"lng":141.064784,"zip":"0250046"},{"town":"小瀬川","koaza":"第九地割","lat":39.422404,"lng":141.066434,"zip":"0250324"},{"town":"鍋倉","koaza":"百目木","lat":39.407412,"lng":141.065493,"zip":"0250046"},{"town":"小瀬川","koaza":"第十二地割","lat":39.426004,"lng":141.06606,"zip":"0250324"},{"town":"北笹間","koaza":"二地割","lat":39.35236,"lng":141.071005,"zip":"0250132"},{"town":"北笹間","koaza":"一地割","lat":39.355131,"lng":141.06752,"zip":"0250132"},{"town":"太田","koaza":"第五十六地割","lat":39.373407,"lng":141.069603,"zip":"0250037"},{"town":"北笹間","koaza":"十一地割","lat":39.355986,"lng":141.066979,"zip":"0250132"},{"town":"上根子","koaza":"渋田","lat":39.382843,"lng":141.069057,"zip":"0250043"},{"town":"膝立","koaza":"下倉","lat":39.393876,"lng":141.068551,"zip":"0250041"},{"town":"小瀬川","koaza":"第七地割","lat":39.419676,"lng":141.069548,"zip":"0250324"},{"town":"小瀬川","koaza":"第十一地割","lat":39.425089,"lng":141.071884,"zip":"0250324"},{"town":"鍋倉","koaza":"中新田","lat":39.404521,"lng":141.068042,"zip":"0250046"},{"town":"鍋倉","koaza":"館","lat":39.409746,"lng":141.069936,"zip":"0250046"},{"town":"上根子","koaza":"樋口","lat":39.380375,"lng":141.075097,"zip":"0250043"},{"town":"上根子","koaza":"雄鳥","lat":39.386427,"lng":141.070684,"zip":"0250043"},{"town":"鍋倉","koaza":"大口","lat":39.402738,"lng":141.068674,"zip":"0250046"},{"town":"金矢","koaza":"第六地割","lat":39.427932,"lng":141.075538,"zip":"0250321"},{"town":"轟木","koaza":"二地割","lat":39.360467,"lng":141.068895,"zip":"0250131"},{"town":"円万寺","koaza":"向野","lat":39.3895,"lng":141.072916,"zip":"0250042"},{"town":"鍋倉","koaza":"下新田","lat":39.402827,"lng":141.069793,"zip":"0250046"},{"town":"鍋倉","koaza":"前村","lat":39.411097,"lng":141.069186,"zip":"0250046"},{"town":"太田","koaza":"第五十二地割","lat":39.363128,"lng":141.070882,"zip":"0250037"},{"town":"太田","koaza":"第五十七地割","lat":39.374389,"lng":141.071409,"zip":"0250037"},{"town":"小瀬川","koaza":"第十地割","lat":39.423089,"lng":141.069818,"zip":"0250324"},{"town":"鍋倉","koaza":"野田","lat":39.415294,"lng":141.072991,"zip":"0250046"},{"town":"太田","koaza":"第五十五地割","lat":39.369782,"lng":141.070984,"zip":"0250037"},{"town":"膝立","koaza":"沢田","lat":39.39523,"lng":141.072021,"zip":"0250041"},{"town":"小瀬川","koaza":"第六地割","lat":39.420693,"lng":141.071657,"zip":"0250324"},{"town":"鍋倉","koaza":"大村","lat":39.413145,"lng":141.073543,"zip":"0250046"},{"town":"鍋倉","koaza":"一本杉","lat":39.404739,"lng":141.071295,"zip":"0250046"},{"town":"小瀬川","koaza":"第五地割","lat":39.418059,"lng":141.075471,"zip":"0250324"},{"town":"円万寺","koaza":"柏田","lat":39.392655,"lng":141.070655,"zip":"0250042"},{"town":"太田","koaza":"第六十八地割","lat":39.358603,"lng":141.07089,"zip":"0250037"},{"town":"太田","koaza":"第五十三地割","lat":39.36391,"lng":141.072443,"zip":"0250037"},{"town":"太田","koaza":"第五十八地割","lat":39.375014,"lng":141.080149,"zip":"0250037"},{"town":"円万寺","koaza":"松林","lat":39.39442,"lng":141.075788,"zip":"0250042"},{"town":"鍋倉","koaza":"荒屋敷","lat":39.407946,"lng":141.074539,"zip":"0250046"},{"town":"台","koaza":"第五地割","lat":39.447227,"lng":141.0742,"zip":"0250305"},{"town":"台","koaza":"第三地割","lat":39.445427,"lng":141.074206,"zip":"0250305"},{"town":"大畑","koaza":"第一地割","lat":39.452013,"lng":141.077035,"zip":"0250303"},{"town":"上根子","koaza":"下田","lat":39.381137,"lng":141.075058,"zip":"0250043"},{"town":"太田","koaza":"第六十七地割","lat":39.355072,"lng":141.076092,"zip":"0250037"},{"town":"鍋倉","koaza":"地森","lat":39.405807,"lng":141.076212,"zip":"0250046"},{"town":"上根子","koaza":"新田","lat":39.384106,"lng":141.074303,"zip":"0250043"},{"town":"湯本","koaza":"第二地割","lat":39.449906,"lng":141.074222,"zip":"0250304"},{"town":"太田","koaza":"第五十四地割","lat":39.368848,"lng":141.076914,"zip":"0250037"},{"town":"太田","koaza":"第六十地割","lat":39.371648,"lng":141.078,"zip":"0250037"},{"town":"鍋倉","koaza":"吹張","lat":39.410272,"lng":141.076082,"zip":"0250046"},{"town":"太田","koaza":"第六十六地割","lat":39.359708,"lng":141.075894,"zip":"0250037"},{"town":"湯本","koaza":"第十八地割","lat":39.43786,"lng":141.076346,"zip":"0250304"},{"town":"鍋倉","koaza":"高畑","lat":39.412054,"lng":141.077012,"zip":"0250046"},{"town":"太田","koaza":"第六十五地割","lat":39.362092,"lng":141.077648,"zip":"0250037"},{"town":"太田","koaza":"第五十九地割","lat":39.374392,"lng":141.078016,"zip":"0250037"},{"town":"鍋倉","koaza":"幸神","lat":39.408414,"lng":141.076451,"zip":"0250046"},{"town":"上根子","koaza":"谷地","lat":39.382348,"lng":141.079112,"zip":"0250043"},{"town":"鍋倉","koaza":"小松原","lat":39.404915,"lng":141.076018,"zip":"0250046"},{"town":"湯本","koaza":"第三地割","lat":39.445704,"lng":141.079165,"zip":"0250304"},{"town":"小瀬川","koaza":"第四地割","lat":39.418206,"lng":141.079347,"zip":"0250324"},{"town":"台","koaza":"第四地割","lat":39.442779,"lng":141.077223,"zip":"0250305"},{"town":"鍋倉","koaza":"北野","lat":39.415388,"lng":141.082031,"zip":"0250046"},{"town":"大畑","koaza":"第二地割","lat":39.449123,"lng":141.078809,"zip":"0250303"},{"town":"小瀬川","koaza":"第一地割","lat":39.424254,"lng":141.081135,"zip":"0250324"},{"town":"金矢","koaza":"第四地割","lat":39.434553,"lng":141.079688,"zip":"0250321"},{"town":"湯本","koaza":"第十六地割","lat":39.445035,"lng":141.078864,"zip":"0250304"},{"town":"鍋倉","koaza":"北村","lat":39.414499,"lng":141.078825,"zip":"0250046"},{"town":"金矢","koaza":"第七地割","lat":39.425466,"lng":141.080405,"zip":"0250321"},{"town":"小瀬川","koaza":"第二地割","lat":39.422156,"lng":141.079795,"zip":"0250324"},{"town":"太田","koaza":"第六十三地割","lat":39.365777,"lng":141.0813,"zip":"0250037"},{"town":"太田","koaza":"第六十一地割","lat":39.368803,"lng":141.081169,"zip":"0250037"},{"town":"鍋倉","koaza":"下沢田","lat":39.40962,"lng":141.080473,"zip":"0250046"},{"town":"上根子","koaza":"欠端","lat":39.379294,"lng":141.08377,"zip":"0250043"},{"town":"北湯口","koaza":"第十七地割","lat":39.453802,"lng":141.080271,"zip":"0250301"},{"town":"金矢","koaza":"第一地割","lat":39.437413,"lng":141.081255,"zip":"0250321"},{"town":"太田","koaza":"第六十四地割","lat":39.361535,"lng":141.084024,"zip":"0250037"},{"town":"湯本","koaza":"第十七地割","lat":39.440657,"lng":141.080479,"zip":"0250304"},{"town":"鍋倉","koaza":"谷畔","lat":39.410969,"lng":141.081071,"zip":"0250046"},{"town":"上根子","koaza":"熊堂","lat":39.381486,"lng":141.084026,"zip":"0250043"},{"town":"椚ノ目","koaza":"第一地割","lat":39.429029,"lng":141.082381,"zip":"0250323"},{"town":"北湯口","koaza":"第十八地割","lat":39.459192,"lng":141.081359,"zip":"0250301"},{"town":"湯本","koaza":"第十五地割","lat":39.442777,"lng":141.082327,"zip":"0250304"},{"town":"小瀬川","koaza":"第三地割","lat":39.418766,"lng":141.08835,"zip":"0250324"},{"town":"大畑","koaza":"第三地割","lat":39.446934,"lng":141.085892,"zip":"0250303"},{"town":"上根子","koaza":"石川原","lat":39.378472,"lng":141.085739,"zip":"0250043"},{"town":"金矢","koaza":"第三地割","lat":39.432926,"lng":141.083814,"zip":"0250321"},{"town":"中根子","koaza":"弐拾八樋田","lat":39.370545,"lng":141.084863,"zip":"0250036"},{"town":"金矢","koaza":"第二地割","lat":39.434292,"lng":141.08489,"zip":"0250321"},{"town":"湯本","koaza":"第十四地割","lat":39.440876,"lng":141.084777,"zip":"0250304"},{"town":"上根子","koaza":"米倉","lat":39.383495,"lng":141.0884,"zip":"0250043"},{"town":"中根子","koaza":"弐拾七樋田","lat":39.372207,"lng":141.083829,"zip":"0250036"},{"town":"椚ノ目","koaza":"第三地割","lat":39.424691,"lng":141.085484,"zip":"0250323"},{"town":"北湯口","koaza":"第十六地割","lat":39.450786,"lng":141.087219,"zip":"0250301"},{"town":"椚ノ目","koaza":"第二地割","lat":39.426081,"lng":141.08931,"zip":"0250323"},{"town":"北湯口","koaza":"第四地割","lat":39.465801,"lng":141.094623,"zip":"0250301"},{"town":"湯本","koaza":"第十三地割","lat":39.439283,"lng":141.087967,"zip":"0250304"},{"town":"中根子","koaza":"参拾参樋田","lat":39.372018,"lng":141.086677,"zip":"0250036"},{"town":"石鳥谷町大瀬川","koaza":"第二地割","lat":39.504231,"lng":141.089865,"zip":"0283185"},{"town":"北湯口","koaza":"第十三地割","lat":39.452679,"lng":141.088148,"zip":"0250301"},{"town":"北湯口","koaza":"第一地割","lat":39.458015,"lng":141.086493,"zip":"0250301"},{"town":"湯本","koaza":"第五地割","lat":39.443205,"lng":141.090183,"zip":"0250304"},{"town":"中根子","koaza":"弐拾九茨久保","lat":39.369074,"lng":141.087489,"zip":"0250036"},{"town":"湯本","koaza":"第四地割","lat":39.445379,"lng":141.088966,"zip":"0250304"},{"town":"椚ノ目","koaza":"第四地割","lat":39.422981,"lng":141.089022,"zip":"0250323"},{"town":"北湯口","koaza":"第十二地割","lat":39.455829,"lng":141.088113,"zip":"0250301"},{"town":"中根子","koaza":"中谷地","lat":39.370977,"lng":141.087142,"zip":"0250036"},{"town":"狼沢","koaza":"第六地割","lat":39.430837,"lng":141.089974,"zip":"0250322"},{"town":"石鳥谷町大瀬川","koaza":"第一地割","lat":39.506208,"lng":141.091584,"zip":"0283185"},{"town":"大畑","koaza":"第四地割","lat":39.449011,"lng":141.089426,"zip":"0250303"},{"town":"中根子","koaza":"関合","lat":39.377959,"lng":141.088513,"zip":"0250036"},{"town":"石鳥谷町富沢","koaza":"第十三地割","lat":39.497991,"lng":141.089981,"zip":"0283184"},{"town":"中根子","koaza":"拾六古館前","lat":39.378442,"lng":141.090948,"zip":"0250036"},{"town":"石鳥谷町富沢","koaza":"第十二地割","lat":39.49309,"lng":141.09447,"zip":"0283184"},{"town":"狼沢","koaza":"第一地割","lat":39.436707,"lng":141.091103,"zip":"0250322"},{"town":"中根子","koaza":"古館","lat":39.381638,"lng":141.090658,"zip":"0250036"},{"town":"中根子","koaza":"参拾茨久保","lat":39.366334,"lng":141.088878,"zip":"0250036"},{"town":"北湯口","koaza":"第三地割","lat":39.457234,"lng":141.093063,"zip":"0250301"},{"town":"北湯口","koaza":"第二地割","lat":39.460847,"lng":141.090358,"zip":"0250301"},{"town":"中根子","koaza":"参拾四樋田","lat":39.371672,"lng":141.09358,"zip":"0250036"},{"town":"北湯口","koaza":"第十五地割","lat":39.451524,"lng":141.090009,"zip":"0250301"},{"town":"中根子","koaza":"弐拾壱道地","lat":39.374828,"lng":141.093484,"zip":"0250036"},{"town":"中根子","koaza":"滝ノ沢","lat":39.38471,"lng":141.092526,"zip":"0250036"},{"town":"石鳥谷町松林寺","koaza":"第二地割","lat":39.474416,"lng":141.097253,"zip":"0283182"},{"town":"椚ノ目","koaza":"第七地割","lat":39.418435,"lng":141.098253,"zip":"0250323"},{"town":"石鳥谷町大興寺","koaza":"第二十三地割","lat":39.481361,"lng":141.10285,"zip":"0283181"},{"town":"中根子","koaza":"堂前","lat":39.3805,"lng":141.093157,"zip":"0250036"},{"town":"狼沢","koaza":"第七地割","lat":39.428047,"lng":141.091773,"zip":"0250322"},{"town":"湯本","koaza":"第十二地割","lat":39.438102,"lng":141.093168,"zip":"0250304"},{"town":"北湯口","koaza":"第十地割","lat":39.45446,"lng":141.094873,"zip":"0250301"},{"town":"北湯口","koaza":"第五地割","lat":39.464893,"lng":141.098664,"zip":"0250301"},{"town":"湯本","koaza":"第十一地割","lat":39.439692,"lng":141.094673,"zip":"0250304"},{"town":"狼沢","koaza":"第五地割","lat":39.431754,"lng":141.093328,"zip":"0250322"},{"town":"石鳥谷町大瀬川","koaza":"第三地割","lat":39.507516,"lng":141.096291,"zip":"0283185"},{"town":"中根子","koaza":"種市","lat":39.38536,"lng":141.093852,"zip":"0250036"},{"town":"湯本","koaza":"第六地割","lat":39.444779,"lng":141.09513,"zip":"0250304"},{"town":"湯本","koaza":"第七地割","lat":39.442522,"lng":141.099168,"zip":"0250304"},{"town":"大畑","koaza":"第十二地割","lat":39.448257,"lng":141.094287,"zip":"0250303"},{"town":"椚ノ目","koaza":"第五地割","lat":39.422776,"lng":141.094089,"zip":"0250323"},{"town":"中根子","koaza":"弐拾四神明","lat":39.372559,"lng":141.093607,"zip":"0250036"},{"town":"中根子","koaza":"道地","lat":39.37791,"lng":141.094029,"zip":"0250036"},{"town":"中根子","koaza":"中屋敷","lat":39.379011,"lng":141.096035,"zip":"0250036"},{"town":"中根子","koaza":"弐拾弐神明","lat":39.374374,"lng":141.094052,"zip":"0250036"},{"town":"北湯口","koaza":"第十一地割","lat":39.460089,"lng":141.098637,"zip":"0250301"},{"town":"大畑","koaza":"第五地割","lat":39.449184,"lng":141.097133,"zip":"0250303"},{"town":"北湯口","koaza":"第十四地割","lat":39.453414,"lng":141.096426,"zip":"0250301"},{"town":"中根子","koaza":"川前","lat":39.37658,"lng":141.096519,"zip":"0250036"},{"town":"椚ノ目","koaza":"第六地割","lat":39.419042,"lng":141.096877,"zip":"0250323"},{"town":"中根子","koaza":"参拾五館","lat":39.373197,"lng":141.09702,"zip":"0250036"},{"town":"石鳥谷町大瀬川","koaza":"第六地割","lat":39.503326,"lng":141.097839,"zip":"0283185"},{"town":"狼沢","koaza":"第二地割","lat":39.431158,"lng":141.097076,"zip":"0250322"},{"town":"湯本","koaza":"第十地割","lat":39.439616,"lng":141.10035,"zip":"0250304"},{"town":"石鳥谷町大瀬川","koaza":"第八地割","lat":39.496205,"lng":141.107883,"zip":"0283185"},{"town":"石鳥谷町大瀬川","koaza":"第七地割","lat":39.502277,"lng":141.104841,"zip":"0283185"},{"town":"狼沢","koaza":"第八地割","lat":39.423392,"lng":141.102585,"zip":"0250322"},{"town":"石鳥谷町松林寺","koaza":"第三地割","lat":39.471977,"lng":141.099732,"zip":"0283182"},{"town":"石鳥谷町長谷堂","koaza":"第一地割","lat":39.485003,"lng":141.100447,"zip":"0283183"},{"town":"中根子","koaza":"駒込","lat":39.382466,"lng":141.098929,"zip":"0250036"},{"town":"糠塚","koaza":"第一地割","lat":39.469677,"lng":141.09957,"zip":"0250302"},{"town":"中根子","koaza":"明堂","lat":39.377222,"lng":141.100595,"zip":"0250036"},{"town":"狼沢","koaza":"第四地割","lat":39.428331,"lng":141.099466,"zip":"0250322"},{"town":"中根子","koaza":"拾田屋","lat":39.379167,"lng":141.09812,"zip":"0250036"},{"town":"石鳥谷町大瀬川","koaza":"第五地割","lat":39.504903,"lng":141.0989,"zip":"0283185"},{"town":"中根子","koaza":"九田屋","lat":39.381293,"lng":141.098463,"zip":"0250036"},{"town":"石鳥谷町大瀬川","koaza":"第四地割","lat":39.505477,"lng":141.103566,"zip":"0283185"},{"town":"大畑","koaza":"第十一地割","lat":39.446912,"lng":141.099106,"zip":"0250303"},{"town":"大畑","koaza":"第七地割","lat":39.447639,"lng":141.099091,"zip":"0250303"},{"town":"大畑","koaza":"第六地割","lat":39.45133,"lng":141.100103,"zip":"0250303"},{"town":"北湯口","koaza":"第九地割","lat":39.452857,"lng":141.103179,"zip":"0250301"},{"town":"中根子","koaza":"参拾六館","lat":39.375026,"lng":141.100817,"zip":"0250036"},{"town":"二枚橋","koaza":"第一地割","lat":39.443873,"lng":141.105871,"zip":"0250312"},{"town":"北湯口","koaza":"第八地割","lat":39.454941,"lng":141.101814,"zip":"0250301"},{"town":"狼沢","koaza":"第九地割","lat":39.429399,"lng":141.101654,"zip":"0250322"},{"town":"西宮野目","koaza":"第十四地割","lat":39.416696,"lng":141.103812,"zip":"0250002"},{"town":"狼沢","koaza":"第三地割","lat":39.432869,"lng":141.10039,"zip":"0250322"},{"town":"西宮野目","koaza":"第二地割","lat":39.418927,"lng":141.105343,"zip":"0250002"},{"town":"北湯口","koaza":"第六地割","lat":39.459978,"lng":141.104679,"zip":"0250301"},{"town":"石鳥谷町松林寺","koaza":"第一地割","lat":39.478347,"lng":141.101907,"zip":"0283182"},{"town":"石鳥谷町大興寺","koaza":"第十八地割","lat":39.474059,"lng":141.103248,"zip":"0283181"},{"town":"糠塚","koaza":"第二地割","lat":39.469,"lng":141.102202,"zip":"0250302"},{"town":"中根子","koaza":"不動","lat":39.377372,"lng":141.10448,"zip":"0250036"},{"town":"西宮野目","koaza":"第一地割","lat":39.429832,"lng":141.111093,"zip":"0250002"},{"town":"二枚橋","koaza":"第二地割","lat":39.442443,"lng":141.107803,"zip":"0250312"},{"town":"石鳥谷町富沢","koaza":"第十一地割","lat":39.486637,"lng":141.103982,"zip":"0283184"},{"town":"石鳥谷町大興寺","koaza":"第十七地割","lat":39.47215,"lng":141.106015,"zip":"0283181"},{"town":"石鳥谷町大興寺","koaza":"第二十地割","lat":39.476192,"lng":141.106869,"zip":"0283181"},{"town":"狼沢","koaza":"第十地割","lat":39.431492,"lng":141.104401,"zip":"0250322"},{"town":"石鳥谷町大興寺","koaza":"第二地割","lat":39.484884,"lng":141.105279,"zip":"0283181"},{"town":"石鳥谷町長谷堂","koaza":"第二地割","lat":39.483315,"lng":141.10465,"zip":"0283183"},{"town":"石鳥谷町大興寺","koaza":"第二十一地割","lat":39.476819,"lng":141.107898,"zip":"0283181"},{"town":"石鳥谷町大興寺","koaza":"第二十二地割","lat":39.47947,"lng":141.105311,"zip":"0283181"},{"town":"大畑","koaza":"第八地割","lat":39.450715,"lng":141.107139,"zip":"0250303"},{"town":"石鳥谷町富沢","koaza":"第十地割","lat":39.486518,"lng":141.106551,"zip":"0283184"},{"town":"石鳥谷町大瀬川","koaza":"第十一地割","lat":39.504013,"lng":141.107885,"zip":"0283185"},{"town":"石鳥谷町長谷堂","koaza":"第三地割","lat":39.481424,"lng":141.107504,"zip":"0283183"},{"town":"糠塚","koaza":"第三地割","lat":39.466566,"lng":141.107494,"zip":"0250302"},{"town":"石鳥谷町大興寺","koaza":"第三地割","lat":39.482845,"lng":141.10883,"zip":"0283181"},{"town":"石鳥谷町富沢","koaza":"第八地割","lat":39.490702,"lng":141.107989,"zip":"0283184"},{"town":"石鳥谷町大興寺","koaza":"第四地割","lat":39.481184,"lng":141.10904,"zip":"0283181"},{"town":"石鳥谷町富沢","koaza":"第九地割","lat":39.488088,"lng":141.1089,"zip":"0283184"},{"town":"糠塚","koaza":"第五地割","lat":39.46897,"lng":141.110076,"zip":"0250302"},{"town":"大畑","koaza":"第九地割","lat":39.450261,"lng":141.112293,"zip":"0250303"},{"town":"石鳥谷町大興寺","koaza":"第十六地割","lat":39.470805,"lng":141.10949,"zip":"0283181"},{"town":"二枚橋","koaza":"第三地割","lat":39.440452,"lng":141.113782,"zip":"0250312"},{"town":"石鳥谷町富沢","koaza":"第二地割","lat":39.483817,"lng":141.10914,"zip":"0283184"},{"town":"石鳥谷町富沢","koaza":"第七地割","lat":39.491251,"lng":141.110891,"zip":"0283184"},{"town":"石鳥谷町富沢","koaza":"第三地割","lat":39.484512,"lng":141.109445,"zip":"0283184"},{"town":"糠塚","koaza":"第十一地割","lat":39.460937,"lng":141.112725,"zip":"0250302"},{"town":"石鳥谷町大興寺","koaza":"第十五地割","lat":39.47205,"lng":141.11171,"zip":"0283181"},{"town":"西宮野目","koaza":"第九地割","lat":39.417344,"lng":141.112405,"zip":"0250002"},{"town":"西宮野目","koaza":"第三地割","lat":39.426931,"lng":141.113171,"zip":"0250002"},{"town":"糠塚","koaza":"第四地割","lat":39.465093,"lng":141.113097,"zip":"0250302"},{"town":"北湯口","koaza":"第七地割","lat":39.453287,"lng":141.113262,"zip":"0250301"},{"town":"石鳥谷町大興寺","koaza":"第十地割","lat":39.477165,"lng":141.111234,"zip":"0283181"},{"town":"石鳥谷町富沢","koaza":"第六地割","lat":39.488437,"lng":141.113476,"zip":"0283184"},{"town":"石鳥谷町大瀬川","koaza":"第九地割","lat":39.495881,"lng":141.112301,"zip":"0283185"},{"town":"石鳥谷町大興寺","koaza":"第九地割","lat":39.478428,"lng":141.111598,"zip":"0283181"},{"town":"石鳥谷町富沢","koaza":"第五地割","lat":39.486186,"lng":141.113395,"zip":"0283184"},{"town":"石鳥谷町大興寺","koaza":"第八地割","lat":39.478534,"lng":141.114361,"zip":"0283181"},{"town":"石鳥谷町大興寺","koaza":"第五地割","lat":39.480732,"lng":141.112812,"zip":"0283181"},{"town":"石鳥谷町大興寺","koaza":"第十一地割","lat":39.476725,"lng":141.112895,"zip":"0283181"},{"town":"石鳥谷町大瀬川","koaza":"第十地割","lat":39.49843,"lng":141.113182,"zip":"0283185"},{"town":"石鳥谷町大瀬川","koaza":"第十八地割","lat":39.489478,"lng":141.117594,"zip":"0283185"},{"town":"石鳥谷町富沢","koaza":"第四地割","lat":39.485099,"lng":141.112994,"zip":"0283184"},{"town":"糠塚","koaza":"第十地割","lat":39.460319,"lng":141.113643,"zip":"0250302"},{"town":"大畑","koaza":"第十地割","lat":39.448622,"lng":141.116143,"zip":"0250303"},{"town":"西宮野目","koaza":"第八地割","lat":39.419247,"lng":141.115077,"zip":"0250002"},{"town":"石鳥谷町大瀬川","koaza":"第十二地割","lat":39.504152,"lng":141.122847,"zip":"0283185"},{"town":"成田","koaza":"第十八地割","lat":39.353289,"lng":141.114869,"zip":"0250023"},{"town":"石鳥谷町大瀬川","koaza":"第十三地割","lat":39.500184,"lng":141.117527,"zip":"0283185"},{"town":"西宮野目","koaza":"第四地割","lat":39.432562,"lng":141.12244,"zip":"0250002"},{"town":"糠塚","koaza":"第九地割","lat":39.465032,"lng":141.116228,"zip":"0250302"},{"town":"石鳥谷町南寺林","koaza":"第三地割","lat":39.458981,"lng":141.122301,"zip":"0283152"},{"town":"石鳥谷町富沢","koaza":"第一地割","lat":39.484408,"lng":141.115431,"zip":"0283184"},{"town":"石鳥谷町大興寺","koaza":"第十四地割","lat":39.470785,"lng":141.117445,"zip":"0283181"},{"town":"石鳥谷町大興寺","koaza":"第十二地割","lat":39.475777,"lng":141.116524,"zip":"0283181"},{"town":"二枚橋","koaza":"第四地割","lat":39.444768,"lng":141.118649,"zip":"0250312"},{"town":"石鳥谷町大興寺","koaza":"第十三地割","lat":39.472089,"lng":141.117728,"zip":"0283181"},{"town":"石鳥谷町大瀬川","koaza":"第十七地割","lat":39.494233,"lng":141.118413,"zip":"0283185"},{"town":"糠塚","koaza":"第六地割","lat":39.469184,"lng":141.119566,"zip":"0250302"},{"town":"西宮野目","koaza":"第十三地割","lat":39.413119,"lng":141.122004,"zip":"0250002"},{"town":"石鳥谷町大瀬川","koaza":"第十五地割","lat":39.497778,"lng":141.11896,"zip":"0283185"},{"town":"石鳥谷町北寺林","koaza":"第二地割","lat":39.476968,"lng":141.123378,"zip":"0283172"},{"town":"西宮野目","koaza":"第十二地割","lat":39.41539,"lng":141.119183,"zip":"0250002"},{"town":"糠塚","koaza":"第八地割","lat":39.464202,"lng":141.121557,"zip":"0250302"},{"town":"西宮野目","koaza":"第十地割","lat":39.417435,"lng":141.119678,"zip":"0250002"},{"town":"東宮野目","koaza":"第十三地割","lat":39.406941,"lng":141.123701,"zip":"0250003"},{"town":"石鳥谷町大瀬川","koaza":"第十九地割","lat":39.488741,"lng":141.120016,"zip":"0283185"},{"town":"西宮野目","koaza":"第六地割","lat":39.422414,"lng":141.124327,"zip":"0250002"},{"town":"石鳥谷町大瀬川","koaza":"第十六地割","lat":39.490913,"lng":141.121787,"zip":"0283185"},{"town":"二枚橋","koaza":"第六地割","lat":39.437389,"lng":141.127443,"zip":"0250312"},{"town":"石鳥谷町大興寺","koaza":"第七地割","lat":39.476039,"lng":141.119778,"zip":"0283181"},{"town":"西宮野目","koaza":"第七地割","lat":39.418369,"lng":141.123797,"zip":"0250002"},{"town":"石鳥谷町北寺林","koaza":"第三地割","lat":39.482298,"lng":141.121528,"zip":"0283172"},{"town":"二枚橋","koaza":"第五地割","lat":39.44415,"lng":141.123378,"zip":"0250312"},{"town":"糠塚","koaza":"第七地割","lat":39.466003,"lng":141.120541,"zip":"0250302"},{"town":"石鳥谷町大瀬川","koaza":"第二十地割","lat":39.487563,"lng":141.122921,"zip":"0283185"},{"town":"石鳥谷町南寺林","koaza":"第一地割","lat":39.471334,"lng":141.123757,"zip":"0283152"},{"town":"西宮野目","koaza":"第十一地割","lat":39.415012,"lng":141.123889,"zip":"0250002"},{"town":"西宮野目","koaza":"第五地割","lat":39.431238,"lng":141.126826,"zip":"0250002"},{"town":"石鳥谷町大瀬川","koaza":"第十四地割","lat":39.493775,"lng":141.125646,"zip":"0283185"},{"town":"石鳥谷町中寺林","koaza":"第十二地割","lat":39.4713,"lng":141.127239,"zip":"0283171"},{"town":"石鳥谷町北寺林","koaza":"第四地割","lat":39.482541,"lng":141.126151,"zip":"0283172"},{"town":"下似内","koaza":"第十七地割","lat":39.403523,"lng":141.124842,"zip":"0250006"},{"town":"石鳥谷町南寺林","koaza":"第七地割","lat":39.457374,"lng":141.125963,"zip":"0283152"},{"town":"石鳥谷町南寺林","koaza":"第二地割","lat":39.467607,"lng":141.12495,"zip":"0283152"},{"town":"成田","koaza":"第十七地割","lat":39.352257,"lng":141.127028,"zip":"0250023"},{"town":"下似内","koaza":"第十一地割","lat":39.399454,"lng":141.12476,"zip":"0250006"},{"town":"石鳥谷町北寺林","koaza":"第八地割","lat":39.488111,"lng":141.127258,"zip":"0283172"},{"town":"東宮野目","koaza":"第十二地割","lat":39.40841,"lng":141.125716,"zip":"0250003"},{"town":"下似内","koaza":"第十地割","lat":39.400438,"lng":141.130094,"zip":"0250006"},{"town":"石鳥谷町南寺林","koaza":"第八地割","lat":39.460677,"lng":141.128929,"zip":"0283152"},{"town":"下似内","koaza":"第四地割","lat":39.407839,"lng":141.128808,"zip":"0250006"},{"town":"東宮野目","koaza":"第十一地割","lat":39.411273,"lng":141.127074,"zip":"0250003"},{"town":"成田","koaza":"第十六地割","lat":39.355184,"lng":141.128116,"zip":"0250023"},{"town":"東宮野目","koaza":"第十地割","lat":39.415501,"lng":141.127859,"zip":"0250003"},{"town":"下似内","koaza":"第九地割","lat":39.402295,"lng":141.127123,"zip":"0250006"},{"town":"石鳥谷町南寺林","koaza":"第五地割","lat":39.445552,"lng":141.131469,"zip":"0283152"},{"town":"成田","koaza":"第二十四地割","lat":39.351352,"lng":141.128687,"zip":"0250023"},{"town":"石鳥谷町南寺林","koaza":"第六地割","lat":39.456409,"lng":141.128076,"zip":"0283152"},{"town":"石鳥谷町北寺林","koaza":"第十一地割","lat":39.503672,"lng":141.13772,"zip":"0283172"},{"town":"石鳥谷町南寺林","koaza":"第十三地割","lat":39.465301,"lng":141.132432,"zip":"0283152"},{"town":"石鳥谷町北寺林","koaza":"第五地割","lat":39.481198,"lng":141.131052,"zip":"0283172"},{"town":"成田","koaza":"第十四地割","lat":39.356417,"lng":141.130774,"zip":"0250023"},{"town":"石鳥谷町北寺林","koaza":"第七地割","lat":39.485882,"lng":141.133752,"zip":"0283172"},{"town":"東宮野目","koaza":"第九地割","lat":39.414136,"lng":141.128969,"zip":"0250003"},{"town":"石鳥谷町中寺林","koaza":"第十一地割","lat":39.46929,"lng":141.130049,"zip":"0283171"},{"town":"東宮野目","koaza":"第一地割","lat":39.420966,"lng":141.129213,"zip":"0250003"},{"town":"成田","koaza":"第十五地割","lat":39.353959,"lng":141.131068,"zip":"0250023"},{"town":"石鳥谷町南寺林","koaza":"第十一地割","lat":39.456121,"lng":141.132236,"zip":"0283152"},{"town":"石鳥谷町北寺林","koaza":"第十地割","lat":39.488788,"lng":141.1366,"zip":"0283172"},{"town":"葛","koaza":"第三地割","lat":39.426239,"lng":141.130529,"zip":"0250004"},{"town":"下似内","koaza":"第八地割","lat":39.403876,"lng":141.130657,"zip":"0250006"},{"town":"下似内","koaza":"第十二地割","lat":39.397653,"lng":141.12995,"zip":"0250006"},{"town":"高木","koaza":"第十四地割","lat":39.389992,"lng":141.131579,"zip":"0250016"},{"town":"石鳥谷町南寺林","koaza":"第九地割","lat":39.459703,"lng":141.13148,"zip":"0283152"},{"town":"高木","koaza":"第十三地割","lat":39.394883,"lng":141.132566,"zip":"0250016"},{"town":"石鳥谷町小森林","koaza":"第四地割","lat":39.449294,"lng":141.134253,"zip":"0283153"},{"town":"東宮野目","koaza":"第五地割","lat":39.418476,"lng":141.131998,"zip":"0250003"},{"town":"成田","koaza":"第十三地割","lat":39.3582,"lng":141.132602,"zip":"0250023"},{"town":"石鳥谷町北寺林","koaza":"第一地割","lat":39.47451,"lng":141.132062,"zip":"0283172"},{"town":"東宮野目","koaza":"第三地割","lat":39.419871,"lng":141.132293,"zip":"0250003"},{"town":"高木","koaza":"第二十八地割","lat":39.37844,"lng":141.134064,"zip":"0250016"},{"town":"高木","koaza":"第十七地割","lat":39.383406,"lng":141.135349,"zip":"0250016"},{"town":"高木","koaza":"第十六地割","lat":39.38591,"lng":141.135496,"zip":"0250016"},{"town":"石鳥谷町南寺林","koaza":"第十地割","lat":39.459875,"lng":141.136107,"zip":"0283152"},{"town":"高木","koaza":"第十五地割","lat":39.387901,"lng":141.133666,"zip":"0250016"},{"town":"高木","koaza":"第二十四地割","lat":39.382251,"lng":141.132914,"zip":"0250016"},{"town":"成田","koaza":"第十地割","lat":39.354931,"lng":141.135895,"zip":"0250023"},{"town":"高木","koaza":"第十二地割","lat":39.391305,"lng":141.133096,"zip":"0250016"},{"town":"石鳥谷町中寺林","koaza":"第八地割","lat":39.473457,"lng":141.135053,"zip":"0283171"},{"town":"石鳥谷町中寺林","koaza":"第九地割","lat":39.471898,"lng":141.134203,"zip":"0283171"},{"town":"下似内","koaza":"第二地割","lat":39.406542,"lng":141.134495,"zip":"0250006"},{"town":"石鳥谷町小森林","koaza":"第二地割","lat":39.457013,"lng":141.138278,"zip":"0283153"},{"town":"下似内","koaza":"第六地割","lat":39.404433,"lng":141.134385,"zip":"0250006"},{"town":"成田","koaza":"第十二地割","lat":39.356911,"lng":141.133637,"zip":"0250023"},{"town":"石鳥谷町小森林","koaza":"第五地割","lat":39.447666,"lng":141.135477,"zip":"0283153"},{"town":"高木","koaza":"第四地割","lat":39.398234,"lng":141.136997,"zip":"0250016"},{"town":"東十二丁目","koaza":"第一地割","lat":39.371034,"lng":141.13461,"zip":"0250088"},{"town":"高木","koaza":"第二十五地割","lat":39.37905,"lng":141.134869,"zip":"0250016"},{"town":"石鳥谷町北寺林","koaza":"第六地割","lat":39.479461,"lng":141.136254,"zip":"0283172"},{"town":"東十二丁目","koaza":"第二地割","lat":39.368381,"lng":141.135071,"zip":"0250088"},{"town":"成田","koaza":"第十一地割","lat":39.356234,"lng":141.137535,"zip":"0250023"},{"town":"葛","koaza":"第一地割","lat":39.440193,"lng":141.138088,"zip":"0250004"},{"town":"高木","koaza":"第二十六地割","lat":39.376076,"lng":141.135782,"zip":"0250016"},{"town":"石鳥谷町好地","koaza":"第五地割","lat":39.490197,"lng":141.140094,"zip":"0283101"},{"town":"高木","koaza":"第七地割","lat":39.393837,"lng":141.136788,"zip":"0250016"},{"town":"下似内","koaza":"第五地割","lat":39.404184,"lng":141.138291,"zip":"0250006"},{"town":"東十二丁目","koaza":"第三地割","lat":39.361608,"lng":141.14138,"zip":"0250088"},{"town":"石鳥谷町江曽","koaza":"第十地割","lat":39.445358,"lng":141.138467,"zip":"0283151"},{"town":"高木","koaza":"第二十七地割","lat":39.37404,"lng":141.137548,"zip":"0250016"},{"town":"石鳥谷町南寺林","koaza":"第十二地割","lat":39.460633,"lng":141.135976,"zip":"0283152"},{"town":"東十二丁目","koaza":"第六地割","lat":39.370236,"lng":141.138086,"zip":"0250088"},{"town":"下似内","koaza":"第七地割","lat":39.402118,"lng":141.138453,"zip":"0250006"},{"town":"石鳥谷町中寺林","koaza":"第十地割","lat":39.466231,"lng":141.13663,"zip":"0283171"},{"town":"東宮野目","koaza":"第四地割","lat":39.419677,"lng":141.136493,"zip":"0250003"},{"town":"石鳥谷町中寺林","koaza":"第六地割","lat":39.48285,"lng":141.140334,"zip":"0283171"},{"town":"高木","koaza":"第二十三地割","lat":39.379266,"lng":141.138629,"zip":"0250016"},{"town":"葛","koaza":"第二地割","lat":39.435193,"lng":141.138901,"zip":"0250004"},{"town":"東宮野目","koaza":"第二地割","lat":39.420945,"lng":141.138458,"zip":"0250003"},{"town":"東宮野目","koaza":"第七地割","lat":39.415458,"lng":141.138331,"zip":"0250003"},{"town":"高木","koaza":"第十一地割","lat":39.388237,"lng":141.138505,"zip":"0250016"},{"town":"石鳥谷町江曽","koaza":"第十一地割","lat":39.446623,"lng":141.137677,"zip":"0283151"},{"town":"高木","koaza":"第十八地割","lat":39.384218,"lng":141.139144,"zip":"0250016"},{"town":"東十二丁目","koaza":"第四地割","lat":39.365321,"lng":141.138265,"zip":"0250088"},{"town":"高木","koaza":"第十九地割","lat":39.386194,"lng":141.142356,"zip":"0250016"},{"town":"石鳥谷町中寺林","koaza":"第一地割","lat":39.462728,"lng":141.140944,"zip":"0283171"},{"town":"東十二丁目","koaza":"第十三地割","lat":39.366434,"lng":141.140259,"zip":"0250088"},{"town":"石鳥谷町中寺林","koaza":"第三地割","lat":39.471038,"lng":141.138494,"zip":"0283171"},{"town":"石鳥谷町江曽","koaza":"第五地割","lat":39.45058,"lng":141.139031,"zip":"0283151"},{"town":"石鳥谷町好地","koaza":"第一地割","lat":39.505559,"lng":141.144303,"zip":"0283101"},{"town":"石鳥谷町好地","koaza":"第三地割","lat":39.495101,"lng":141.144301,"zip":"0283101"},{"town":"下似内","koaza":"第十三地割","lat":39.403151,"lng":141.138899,"zip":"0250006"},{"town":"石鳥谷町小森林","koaza":"第一地割","lat":39.459714,"lng":141.139688,"zip":"0283153"},{"town":"石鳥谷町中寺林","koaza":"第二地割","lat":39.465784,"lng":141.142087,"zip":"0283171"},{"town":"石鳥谷町中寺林","koaza":"第四地割","lat":39.473721,"lng":141.139705,"zip":"0283171"},{"town":"東十二丁目","koaza":"第八地割","lat":39.374743,"lng":141.139232,"zip":"0250088"},{"town":"東十二丁目","koaza":"第五地割","lat":39.370484,"lng":141.14204,"zip":"0250088"},{"town":"上似内","koaza":"第九地割","lat":39.407042,"lng":141.140985,"zip":"0250007"},{"town":"石鳥谷町中寺林","koaza":"第五地割","lat":39.480084,"lng":141.13915,"zip":"0283171"},{"town":"石鳥谷町江曽","koaza":"第七地割","lat":39.446842,"lng":141.142071,"zip":"0283151"},{"town":"石鳥谷町中寺林","koaza":"第七地割","lat":39.48477,"lng":141.142624,"zip":"0283171"},{"town":"石鳥谷町江曽","koaza":"第四地割","lat":39.454923,"lng":141.140048,"zip":"0283151"},{"town":"高木","koaza":"第二十二地割","lat":39.379115,"lng":141.141423,"zip":"0250016"},{"town":"石鳥谷町八幡","koaza":"第二地割","lat":39.477939,"lng":141.14413,"zip":"0283163"},{"town":"石鳥谷町好地","koaza":"第二地割","lat":39.501664,"lng":141.143631,"zip":"0283101"},{"town":"高木","koaza":"第十地割","lat":39.389643,"lng":141.145891,"zip":"0250016"},{"town":"東十二丁目","koaza":"第二十二地割","lat":39.360743,"lng":141.143411,"zip":"0250088"},{"town":"葛","koaza":"第八地割","lat":39.431048,"lng":141.14305,"zip":"0250004"},{"town":"葛","koaza":"第六地割","lat":39.425023,"lng":141.141587,"zip":"0250004"},{"town":"東十二丁目","koaza":"第七地割","lat":39.371904,"lng":141.14009,"zip":"0250088"},{"town":"上似内","koaza":"第七地割","lat":39.412742,"lng":141.140341,"zip":"0250007"},{"town":"上似内","koaza":"第十地割","lat":39.409077,"lng":141.142064,"zip":"0250007"},{"town":"高木","koaza":"第二十一地割","lat":39.379195,"lng":141.143123,"zip":"0250016"},{"town":"石鳥谷町好地","koaza":"第四地割","lat":39.492848,"lng":141.144242,"zip":"0283101"},{"town":"上似内","koaza":"第十四地割","lat":39.402795,"lng":141.141701,"zip":"0250007"},{"town":"石鳥谷町黒沼","koaza":"第四地割","lat":39.45763,"lng":141.141949,"zip":"0283161"},{"town":"石鳥谷町江曽","koaza":"第六地割","lat":39.447545,"lng":141.141967,"zip":"0283151"},{"town":"上似内","koaza":"第六地割","lat":39.411804,"lng":141.14259,"zip":"0250007"},{"town":"石鳥谷町八幡","koaza":"第一地割","lat":39.4718,"lng":141.143841,"zip":"0283163"},{"town":"東十二丁目","koaza":"第十二地割","lat":39.368257,"lng":141.143924,"zip":"0250088"},{"town":"矢沢","koaza":"第二地割","lat":39.400598,"lng":141.148932,"zip":"0250011"},{"town":"東十二丁目","koaza":"第十四地割","lat":39.366825,"lng":141.142571,"zip":"0250088"},{"town":"石鳥谷町西中島","koaza":"第四地割","lat":39.459106,"lng":141.144742,"zip":"0283162"},{"town":"東十二丁目","koaza":"第二十一地割","lat":39.362163,"lng":141.145268,"zip":"0250088"},{"town":"高木","koaza":"第二十地割","lat":39.384928,"lng":141.149007,"zip":"0250016"},{"town":"石鳥谷町西中島","koaza":"第三地割","lat":39.461343,"lng":141.145256,"zip":"0283162"},{"town":"石鳥谷町江曽","koaza":"第二地割","lat":39.450288,"lng":141.14507,"zip":"0283151"},{"town":"石鳥谷町西中島","koaza":"第二地割","lat":39.463931,"lng":141.142852,"zip":"0283162"},{"town":"石鳥谷町黒沼","koaza":"第三地割","lat":39.45753,"lng":141.145195,"zip":"0283161"},{"town":"石鳥谷町江曽","koaza":"第九地割","lat":39.444277,"lng":141.142507,"zip":"0283151"},{"town":"石鳥谷町好地","koaza":"第六地割","lat":39.48871,"lng":141.145424,"zip":"0283101"},{"town":"石鳥谷町西中島","koaza":"第一地割","lat":39.463712,"lng":141.145022,"zip":"0283162"},{"town":"石鳥谷町好地","koaza":"第七地割","lat":39.491547,"lng":141.147523,"zip":"0283101"},{"town":"上似内","koaza":"第十三地割","lat":39.407072,"lng":141.143992,"zip":"0250007"},{"town":"葛","koaza":"第九地割","lat":39.430057,"lng":141.14779,"zip":"0250004"},{"town":"石鳥谷町八幡","koaza":"第二十三地割","lat":39.468712,"lng":141.144379,"zip":"0283163"},{"town":"田力","koaza":"第一地割","lat":39.417419,"lng":141.144224,"zip":"0250005"},{"town":"上似内","koaza":"第五地割","lat":39.412572,"lng":141.14446,"zip":"0250007"},{"town":"田力","koaza":"第三地割","lat":39.41766,"lng":141.146308,"zip":"0250005"},{"town":"田力","koaza":"第二地割","lat":39.42242,"lng":141.146354,"zip":"0250005"},{"town":"葛","koaza":"第七地割","lat":39.425119,"lng":141.148236,"zip":"0250004"},{"town":"石鳥谷町八幡","koaza":"第三地割","lat":39.480291,"lng":141.146385,"zip":"0283163"},{"town":"石鳥谷町黒沼","koaza":"第八地割","lat":39.451271,"lng":141.148886,"zip":"0283161"},{"town":"東十二丁目","koaza":"第九地割","lat":39.375136,"lng":141.146958,"zip":"0250088"},{"town":"東十二丁目","koaza":"第十一地割","lat":39.371106,"lng":141.146194,"zip":"0250088"},{"town":"石鳥谷町八幡","koaza":"第十一地割","lat":39.472294,"lng":141.147198,"zip":"0283163"},{"town":"高木","koaza":"第九地割","lat":39.393788,"lng":141.145429,"zip":"0250016"},{"town":"高木","koaza":"第一地割","lat":39.393131,"lng":141.149098,"zip":"0250016"},{"town":"石鳥谷町八重畑","koaza":"第二十六地割","lat":39.434141,"lng":141.16898,"zip":"0283142"},{"town":"石鳥谷町八幡","koaza":"第四地割","lat":39.48558,"lng":141.148228,"zip":"0283163"},{"town":"石鳥谷町八幡","koaza":"第二十二地割","lat":39.467993,"lng":141.147189,"zip":"0283163"},{"town":"東十二丁目","koaza":"第十五地割","lat":39.364873,"lng":141.147147,"zip":"0250088"},{"town":"石鳥谷町好地","koaza":"第十地割","lat":39.50186,"lng":141.147295,"zip":"0283101"},{"town":"石鳥谷町黒沼","koaza":"第二地割","lat":39.453146,"lng":141.146879,"zip":"0283161"},{"town":"石鳥谷町江曽","koaza":"第一地割","lat":39.449636,"lng":141.146248,"zip":"0283151"},{"town":"石鳥谷町八重畑","koaza":"第一地割","lat":39.442825,"lng":141.151155,"zip":"0283142"},{"town":"石鳥谷町八幡","koaza":"第十地割","lat":39.47281,"lng":141.150219,"zip":"0283163"},{"town":"石鳥谷町八重畑","koaza":"第十五地割","lat":39.439489,"lng":141.151525,"zip":"0283142"},{"town":"上似内","koaza":"第十一地割","lat":39.411672,"lng":141.146299,"zip":"0250007"},{"town":"上似内","koaza":"第十八地割","lat":39.403667,"lng":141.149271,"zip":"0250007"},{"town":"高木","koaza":"第三地割","lat":39.395394,"lng":141.146721,"zip":"0250016"},{"town":"東十二丁目","koaza":"第二十三地割","lat":39.356051,"lng":141.14892,"zip":"0250088"},{"town":"石鳥谷町八幡","koaza":"第七地割","lat":39.47666,"lng":141.147957,"zip":"0283163"},{"town":"高木","koaza":"第二地割","lat":39.396432,"lng":141.147958,"zip":"0250016"},{"town":"上似内","koaza":"第四地割","lat":39.410778,"lng":141.149813,"zip":"0250007"},{"town":"田力","koaza":"第四地割","lat":39.422356,"lng":141.149512,"zip":"0250005"},{"town":"石鳥谷町好地","koaza":"第八地割","lat":39.495665,"lng":141.150853,"zip":"0283101"},{"town":"石鳥谷町八幡","koaza":"第五地割","lat":39.484403,"lng":141.150108,"zip":"0283163"},{"town":"石鳥谷町好地","koaza":"第九地割","lat":39.499847,"lng":141.152282,"zip":"0283101"},{"town":"葛","koaza":"第十地割","lat":39.429901,"lng":141.148905,"zip":"0250004"},{"town":"石鳥谷町八幡","koaza":"第十四地割","lat":39.467229,"lng":141.148745,"zip":"0283163"},{"town":"石鳥谷町八幡","koaza":"第六地割","lat":39.478143,"lng":141.150281,"zip":"0283163"},{"town":"上似内","koaza":"第二地割","lat":39.412962,"lng":141.149601,"zip":"0250007"},{"town":"東十二丁目","koaza":"第十地割","lat":39.377071,"lng":141.159323,"zip":"0250088"},{"town":"石鳥谷町八幡","koaza":"第十二地割","lat":39.468544,"lng":141.151765,"zip":"0283163"},{"town":"東十二丁目","koaza":"第二十地割","lat":39.363115,"lng":141.14999,"zip":"0250088"},{"town":"東十二丁目","koaza":"第二十四地割","lat":39.356893,"lng":141.152573,"zip":"0250088"},{"town":"田力","koaza":"第十一地割","lat":39.415592,"lng":141.152882,"zip":"0250005"},{"town":"石鳥谷町八幡","koaza":"第九地割","lat":39.47242,"lng":141.152573,"zip":"0283163"},{"town":"石鳥谷町好地","koaza":"第十七地割","lat":39.491544,"lng":141.151682,"zip":"0283101"},{"town":"東十二丁目","koaza":"第十六地割","lat":39.366406,"lng":141.151174,"zip":"0250088"},{"town":"石鳥谷町八重畑","koaza":"第十八地割","lat":39.436768,"lng":141.154988,"zip":"0283142"},{"town":"矢沢","koaza":"第一地割","lat":39.396986,"lng":141.155361,"zip":"0250011"},{"town":"東十二丁目","koaza":"第十九地割","lat":39.358093,"lng":141.161543,"zip":"0250088"},{"town":"東十二丁目","koaza":"第二十五地割","lat":39.355133,"lng":141.15514,"zip":"0250088"},{"town":"東十二丁目","koaza":"第十七地割","lat":39.364315,"lng":141.152214,"zip":"0250088"},{"town":"石鳥谷町好地","koaza":"第十一地割","lat":39.504887,"lng":141.154713,"zip":"0283101"},{"town":"葛","koaza":"第十六地割","lat":39.428458,"lng":141.172443,"zip":"0250004"},{"town":"高松","koaza":"第二地割","lat":39.39294,"lng":141.157276,"zip":"0250014"},{"town":"東十二丁目","koaza":"第十八地割","lat":39.366578,"lng":141.156687,"zip":"0250088"},{"town":"田力","koaza":"第五地割","lat":39.41922,"lng":141.152596,"zip":"0250005"},{"town":"葛","koaza":"第十一地割","lat":39.422941,"lng":141.156259,"zip":"0250004"},{"town":"石鳥谷町好地","koaza":"第十六地割","lat":39.497014,"lng":141.154578,"zip":"0283101"},{"town":"田力","koaza":"第六地割","lat":39.420666,"lng":141.154963,"zip":"0250005"},{"town":"高松","koaza":"第三地割","lat":39.390894,"lng":141.157718,"zip":"0250014"},{"town":"石鳥谷町八重畑","koaza":"第二地割","lat":39.442654,"lng":141.154312,"zip":"0283142"},{"town":"石鳥谷町関口","koaza":"第二十七地割","lat":39.450007,"lng":141.155851,"zip":"0283133"},{"town":"田力","koaza":"第十地割","lat":39.417369,"lng":141.157496,"zip":"0250005"},{"town":"石鳥谷町関口","koaza":"第二地割","lat":39.462538,"lng":141.158788,"zip":"0283133"},{"town":"石鳥谷町八重畑","koaza":"第二十四地割","lat":39.434206,"lng":141.154632,"zip":"0283142"},{"town":"石鳥谷町八幡","koaza":"第十三地割","lat":39.467537,"lng":141.156994,"zip":"0283163"},{"town":"石鳥谷町八重畑","koaza":"第十四地割","lat":39.440145,"lng":141.155143,"zip":"0283142"},{"town":"高松","koaza":"第六地割","lat":39.384637,"lng":141.15812,"zip":"0250014"},{"town":"田力","koaza":"第十二地割","lat":39.414057,"lng":141.15726,"zip":"0250005"},{"town":"高松","koaza":"第五地割","lat":39.388281,"lng":141.157376,"zip":"0250014"},{"town":"石鳥谷町新堀","koaza":"第三十一地割","lat":39.493712,"lng":141.158303,"zip":"0283111"},{"town":"矢沢","koaza":"第三地割","lat":39.403735,"lng":141.164986,"zip":"0250011"},{"town":"矢沢","koaza":"第四地割","lat":39.407007,"lng":141.163056,"zip":"0250011"},{"town":"石鳥谷町八幡","koaza":"第八地割","lat":39.473355,"lng":141.156998,"zip":"0283163"},{"town":"石鳥谷町好地","koaza":"第十五地割","lat":39.50493,"lng":141.15625,"zip":"0283101"},{"town":"石鳥谷町八重畑","koaza":"第三地割","lat":39.443184,"lng":141.159332,"zip":"0283142"},{"town":"石鳥谷町八重畑","koaza":"第十三地割","lat":39.441414,"lng":141.156901,"zip":"0283142"},{"town":"石鳥谷町八重畑","koaza":"第二十三地割","lat":39.435468,"lng":141.158815,"zip":"0283142"},{"town":"石鳥谷町八重畑","koaza":"第四地割","lat":39.447158,"lng":141.158488,"zip":"0283142"},{"town":"石鳥谷町好地","koaza":"第十二地割","lat":39.505839,"lng":141.160313,"zip":"0283101"},{"town":"石鳥谷町新堀","koaza":"第三十三地割","lat":39.489382,"lng":141.157462,"zip":"0283111"},{"town":"高松","koaza":"第七地割","lat":39.381745,"lng":141.162277,"zip":"0250014"},{"town":"石鳥谷町新堀","koaza":"第三十四地割","lat":39.482507,"lng":141.158456,"zip":"0283111"},{"town":"石鳥谷町新堀","koaza":"第三十地割","lat":39.493358,"lng":141.159409,"zip":"0283111"},{"town":"石鳥谷町関口","koaza":"第二十六地割","lat":39.450568,"lng":141.159591,"zip":"0283133"},{"town":"石鳥谷町関口","koaza":"第二十五地割","lat":39.451735,"lng":141.158589,"zip":"0283133"},{"town":"石鳥谷町新堀","koaza":"第二十八地割","lat":39.489095,"lng":141.159253,"zip":"0283111"},{"town":"田力","koaza":"第九地割","lat":39.417125,"lng":141.160349,"zip":"0250005"},{"town":"矢沢","koaza":"第六地割","lat":39.416471,"lng":141.168759,"zip":"0250011"},{"town":"石鳥谷町新堀","koaza":"第三十五地割","lat":39.485734,"lng":141.159821,"zip":"0283111"},{"town":"石鳥谷町八重畑","koaza":"第六地割","lat":39.448577,"lng":141.160766,"zip":"0283142"},{"town":"田力","koaza":"第七地割","lat":39.420486,"lng":141.162518,"zip":"0250005"},{"town":"高松","koaza":"第二十二地割","lat":39.376453,"lng":141.166011,"zip":"0250014"},{"town":"石鳥谷町新堀","koaza":"第十二地割","lat":39.495412,"lng":141.162093,"zip":"0283111"},{"town":"高松","koaza":"第九地割","lat":39.389204,"lng":141.163055,"zip":"0250014"},{"town":"石鳥谷町関口","koaza":"第二十一地割","lat":39.45033,"lng":141.161294,"zip":"0283133"},{"town":"高松","koaza":"第八地割","lat":39.385345,"lng":141.164797,"zip":"0250014"},{"town":"石鳥谷町好地","koaza":"第十四地割","lat":39.503593,"lng":141.161145,"zip":"0283101"},{"town":"石鳥谷町八重畑","koaza":"第十九地割","lat":39.43732,"lng":141.161114,"zip":"0283142"},{"town":"石鳥谷町新堀","koaza":"第二十九地割","lat":39.492996,"lng":141.163346,"zip":"0283111"},{"town":"高松","koaza":"第一地割","lat":39.396319,"lng":141.162941,"zip":"0250014"},{"town":"石鳥谷町新堀","koaza":"第二十七地割","lat":39.488337,"lng":141.16189,"zip":"0283111"},{"town":"石鳥谷町八重畑","koaza":"第二十二地割","lat":39.435405,"lng":141.162951,"zip":"0283142"},{"town":"石鳥谷町関口","koaza":"第二十地割","lat":39.452,"lng":141.164049,"zip":"0283133"},{"town":"石鳥谷町関口","koaza":"第四地割","lat":39.460518,"lng":141.16104,"zip":"0283133"},{"town":"石鳥谷町新堀","koaza":"第四十七地割","lat":39.478987,"lng":141.164246,"zip":"0283111"},{"town":"石鳥谷町新堀","koaza":"第三十八地割","lat":39.486086,"lng":141.162357,"zip":"0283111"},{"town":"矢沢","koaza":"第五地割","lat":39.410144,"lng":141.16595,"zip":"0250011"},{"town":"石鳥谷町新堀","koaza":"第四十一地割","lat":39.47999,"lng":141.164562,"zip":"0283111"},{"town":"石鳥谷町関口","koaza":"第一地割","lat":39.463848,"lng":141.16259,"zip":"0283133"},{"town":"石鳥谷町八重畑","koaza":"第二十地割","lat":39.440244,"lng":141.164209,"zip":"0283142"},{"town":"石鳥谷町関口","koaza":"第五地割","lat":39.461662,"lng":141.163219,"zip":"0283133"},{"town":"石鳥谷町新堀","koaza":"第三十六地割","lat":39.480642,"lng":141.162674,"zip":"0283111"},{"town":"石鳥谷町新堀","koaza":"第五十六地割","lat":39.463806,"lng":141.167219,"zip":"0283111"},{"town":"石鳥谷町八重畑","koaza":"第二十一地割","lat":39.437126,"lng":141.165297,"zip":"0283142"},{"town":"石鳥谷町新堀","koaza":"第四十八地割","lat":39.476329,"lng":141.163313,"zip":"0283111"},{"town":"高松","koaza":"第二十三地割","lat":39.370587,"lng":141.171945,"zip":"0250014"},{"town":"葛","koaza":"第十二地割","lat":39.424403,"lng":141.164356,"zip":"0250004"},{"town":"石鳥谷町関口","koaza":"第八地割","lat":39.457462,"lng":141.164665,"zip":"0283133"},{"town":"高松","koaza":"第十一地割","lat":39.395039,"lng":141.167509,"zip":"0250014"},{"town":"石鳥谷町八重畑","koaza":"第五地割","lat":39.448089,"lng":141.165228,"zip":"0283142"},{"town":"石鳥谷町新堀","koaza":"第十一地割","lat":39.496384,"lng":141.163701,"zip":"0283111"},{"town":"田力","koaza":"第八地割","lat":39.420293,"lng":141.164957,"zip":"0250005"},{"town":"石鳥谷町八重畑","koaza":"第十一地割","lat":39.442003,"lng":141.164213,"zip":"0283142"},{"town":"石鳥谷町八重畑","koaza":"第二十五地割","lat":39.433353,"lng":141.164761,"zip":"0283142"},{"town":"石鳥谷町新堀","koaza":"第五十五地割","lat":39.468482,"lng":141.164208,"zip":"0283111"},{"town":"石鳥谷町新堀","koaza":"第十三地割","lat":39.496822,"lng":141.165298,"zip":"0283111"},{"town":"石鳥谷町新堀","koaza":"第十四地割","lat":39.494919,"lng":141.16497,"zip":"0283111"},{"town":"石鳥谷町新堀","koaza":"第四十九地割","lat":39.473543,"lng":141.165802,"zip":"0283111"},{"town":"石鳥谷町新堀","koaza":"第三十九地割","lat":39.48682,"lng":141.166908,"zip":"0283111"},{"town":"石鳥谷町関口","koaza":"第九地割","lat":39.458667,"lng":141.165189,"zip":"0283133"},{"town":"石鳥谷町八重畑","koaza":"第二十七地割","lat":39.436243,"lng":141.166368,"zip":"0283142"},{"town":"石鳥谷町新堀","koaza":"第二十五地割","lat":39.489647,"lng":141.167615,"zip":"0283111"},{"town":"石鳥谷町関口","koaza":"第七地割","lat":39.461908,"lng":141.166719,"zip":"0283133"},{"town":"石鳥谷町関口","koaza":"第十地割","lat":39.46051,"lng":141.167975,"zip":"0283133"},{"town":"高松","koaza":"第二十六地割","lat":39.399024,"lng":141.172325,"zip":"0250014"},{"town":"石鳥谷町関口","koaza":"第十一地割","lat":39.458458,"lng":141.16924,"zip":"0283133"},{"town":"高松","koaza":"第二十地割","lat":39.376035,"lng":141.173559,"zip":"0250014"},{"town":"石鳥谷町八重畑","koaza":"第十地割","lat":39.442194,"lng":141.168259,"zip":"0283142"},{"town":"石鳥谷町新堀","koaza":"第九地割","lat":39.501452,"lng":141.169085,"zip":"0283111"},{"town":"葛","koaza":"第十九地割","lat":39.424122,"lng":141.171439,"zip":"0250004"},{"town":"石鳥谷町新堀","koaza":"第十地割","lat":39.500852,"lng":141.166958,"zip":"0283111"},{"town":"石鳥谷町新堀","koaza":"第五十四地割","lat":39.468693,"lng":141.171802,"zip":"0283111"},{"town":"石鳥谷町新堀","koaza":"第二十四地割","lat":39.491893,"lng":141.170505,"zip":"0283111"},{"town":"石鳥谷町東中島","koaza":"第九地割","lat":39.439888,"lng":141.167909,"zip":"0283132"},{"town":"石鳥谷町関口","koaza":"第十九地割","lat":39.452145,"lng":141.170491,"zip":"0283133"},{"town":"石鳥谷町新堀","koaza":"第五十三地割","lat":39.473294,"lng":141.16761,"zip":"0283111"},{"town":"石鳥谷町八重畑","koaza":"第八地割","lat":39.447961,"lng":141.169717,"zip":"0283142"},{"town":"石鳥谷町新堀","koaza":"第五十二地割","lat":39.472003,"lng":141.174646,"zip":"0283111"},{"town":"石鳥谷町八重畑","koaza":"第七地割","lat":39.450885,"lng":141.170704,"zip":"0283142"},{"town":"石鳥谷町新堀","koaza":"第四十六地割","lat":39.47925,"lng":141.168176,"zip":"0283111"},{"town":"石鳥谷町新堀","koaza":"第二地割","lat":39.503206,"lng":141.169867,"zip":"0283111"},{"town":"石鳥谷町八重畑","koaza":"第九地割","lat":39.445957,"lng":141.17045,"zip":"0283142"},{"town":"石鳥谷町新堀","koaza":"第十五地割","lat":39.496471,"lng":141.169609,"zip":"0283111"},{"town":"石鳥谷町東中島","koaza":"第八地割","lat":39.437588,"lng":141.168709,"zip":"0283132"},{"town":"高松","koaza":"第十地割","lat":39.387541,"lng":141.172682,"zip":"0250014"},{"town":"石鳥谷町戸塚","koaza":"第十三地割","lat":39.462274,"lng":141.168961,"zip":"0283121"},{"town":"石鳥谷町関口","koaza":"第十二地割","lat":39.456751,"lng":141.169594,"zip":"0283133"},{"town":"石鳥谷町新堀","koaza":"第十六地割","lat":39.49307,"lng":141.170713,"zip":"0283111"},{"town":"矢沢","koaza":"第十地割","lat":39.407296,"lng":141.173954,"zip":"0250011"},{"town":"石鳥谷町新堀","koaza":"第八地割","lat":39.499337,"lng":141.170464,"zip":"0283111"},{"town":"石鳥谷町八重畑","koaza":"第二十八地割","lat":39.434622,"lng":141.171497,"zip":"0283142"},{"town":"石鳥谷町東中島","koaza":"第七地割","lat":39.441089,"lng":141.171159,"zip":"0283132"},{"town":"石鳥谷町新堀","koaza":"第三地割","lat":39.502822,"lng":141.170734,"zip":"0283111"},{"town":"高松","koaza":"第二十一地割","lat":39.372284,"lng":141.172063,"zip":"0250014"},{"town":"高松","koaza":"第十二地割","lat":39.382885,"lng":141.173367,"zip":"0250014"},{"town":"葛","koaza":"第十八地割","lat":39.428451,"lng":141.170199,"zip":"0250004"},{"town":"高松","koaza":"第二十五地割","lat":39.364873,"lng":141.172633,"zip":"0250014"},{"town":"石鳥谷町関口","koaza":"第十四地割","lat":39.455963,"lng":141.17554,"zip":"0283133"},{"town":"矢沢","koaza":"第十二地割","lat":39.403059,"lng":141.180497,"zip":"0250011"},{"town":"高松","koaza":"第二十四地割","lat":39.367746,"lng":141.173095,"zip":"0250014"},{"town":"石鳥谷町猪鼻","koaza":"第十一地割","lat":39.445572,"lng":141.173077,"zip":"0283131"},{"town":"石鳥谷町関口","koaza":"第十五地割","lat":39.458184,"lng":141.172307,"zip":"0283133"},{"town":"石鳥谷町新堀","koaza":"第一地割","lat":39.504205,"lng":141.171081,"zip":"0283111"},{"town":"矢沢","koaza":"第九地割","lat":39.413617,"lng":141.172557,"zip":"0250011"},{"town":"石鳥谷町新堀","koaza":"第四十地割","lat":39.487355,"lng":141.17232,"zip":"0283111"},{"town":"石鳥谷町新堀","koaza":"第四十四地割","lat":39.483222,"lng":141.172931,"zip":"0283111"},{"town":"石鳥谷町関口","koaza":"第十六地割","lat":39.458023,"lng":141.173291,"zip":"0283133"},{"town":"石鳥谷町戸塚","koaza":"第十四地割","lat":39.465249,"lng":141.171953,"zip":"0283121"},{"town":"石鳥谷町戸塚","koaza":"第十五地割","lat":39.465905,"lng":141.174146,"zip":"0283121"},{"town":"石鳥谷町猪鼻","koaza":"第七地割","lat":39.449911,"lng":141.173954,"zip":"0283131"},{"town":"石鳥谷町戸塚","koaza":"第十二地割","lat":39.462275,"lng":141.172555,"zip":"0283121"},{"town":"葛","koaza":"第十七地割","lat":39.424271,"lng":141.173472,"zip":"0250004"},{"town":"石鳥谷町五大堂","koaza":"第十七地割","lat":39.429462,"lng":141.175978,"zip":"0283141"},{"town":"石鳥谷町五大堂","koaza":"第二十八地割","lat":39.438078,"lng":141.173219,"zip":"0283141"},{"town":"石鳥谷町戸塚","koaza":"第十六地割","lat":39.468485,"lng":141.173731,"zip":"0283121"},{"town":"石鳥谷町新堀","koaza":"第七地割","lat":39.49509,"lng":141.173373,"zip":"0283111"},{"town":"石鳥谷町東中島","koaza":"第三地割","lat":39.439255,"lng":141.174735,"zip":"0283132"},{"town":"石鳥谷町東中島","koaza":"第六地割","lat":39.442444,"lng":141.175007,"zip":"0283132"},{"town":"石鳥谷町東中島","koaza":"第四地割","lat":39.441069,"lng":141.176069,"zip":"0283132"},{"town":"石鳥谷町新堀","koaza":"第二十三地割","lat":39.490508,"lng":141.176317,"zip":"0283111"},{"town":"石鳥谷町八重畑","koaza":"第二十九地割","lat":39.432663,"lng":141.175958,"zip":"0283142"},{"town":"高松","koaza":"第十三地割","lat":39.385628,"lng":141.176875,"zip":"0250014"},{"town":"矢沢","koaza":"第十一地割","lat":39.405467,"lng":141.178014,"zip":"0250011"},{"town":"石鳥谷町戸塚","koaza":"第十一地割","lat":39.464231,"lng":141.175076,"zip":"0283121"},{"town":"高松","koaza":"第三十一地割","lat":39.394669,"lng":141.185021,"zip":"0250014"},{"town":"石鳥谷町新堀","koaza":"第二十二地割","lat":39.486473,"lng":141.177459,"zip":"0283111"},{"town":"石鳥谷町新堀","koaza":"第五地割","lat":39.499739,"lng":141.176894,"zip":"0283111"},{"town":"石鳥谷町五大堂","koaza":"第二十一地割","lat":39.431104,"lng":141.176858,"zip":"0283141"},{"town":"石鳥谷町猪鼻","koaza":"第六地割","lat":39.452662,"lng":141.175384,"zip":"0283131"},{"town":"高松","koaza":"第二十七地割","lat":39.398195,"lng":141.17458,"zip":"0250014"},{"town":"石鳥谷町新堀","koaza":"第十七地割","lat":39.492816,"lng":141.176217,"zip":"0283111"},{"town":"石鳥谷町新堀","koaza":"第四十二地割","lat":39.483356,"lng":141.178376,"zip":"0283111"},{"town":"石鳥谷町新堀","koaza":"第十八地割","lat":39.493614,"lng":141.177039,"zip":"0283111"},{"town":"石鳥谷町東中島","koaza":"第五地割","lat":39.442841,"lng":141.176618,"zip":"0283132"},{"town":"石鳥谷町新堀","koaza":"第四十三地割","lat":39.480587,"lng":141.177926,"zip":"0283111"},{"town":"石鳥谷町戸塚","koaza":"第一地割","lat":39.468702,"lng":141.185841,"zip":"0283121"},{"town":"石鳥谷町猪鼻","koaza":"第五地割","lat":39.455308,"lng":141.179891,"zip":"0283131"},{"town":"石鳥谷町新堀","koaza":"第六地割","lat":39.496731,"lng":141.177618,"zip":"0283111"},{"town":"石鳥谷町戸塚","koaza":"第九地割","lat":39.464689,"lng":141.178194,"zip":"0283121"},{"town":"石鳥谷町五大堂","koaza":"第十六地割","lat":39.42626,"lng":141.177961,"zip":"0283141"},{"town":"石鳥谷町猪鼻","koaza":"第二地割","lat":39.446247,"lng":141.179361,"zip":"0283131"},{"town":"石鳥谷町猪鼻","koaza":"第四地割","lat":39.452962,"lng":141.178414,"zip":"0283131"},{"town":"石鳥谷町新堀","koaza":"第五十一地割","lat":39.476803,"lng":141.178271,"zip":"0283111"},{"town":"石鳥谷町関口","koaza":"第十七地割","lat":39.459832,"lng":141.177779,"zip":"0283133"},{"town":"石鳥谷町猪鼻","koaza":"第一地割","lat":39.442072,"lng":141.177913,"zip":"0283131"},{"town":"石鳥谷町五大堂","koaza":"第二十三地割","lat":39.432755,"lng":141.177882,"zip":"0283141"},{"town":"石鳥谷町戸塚","koaza":"第五地割","lat":39.461202,"lng":141.18298,"zip":"0283121"},{"town":"石鳥谷町東中島","koaza":"第二地割","lat":39.439295,"lng":141.177647,"zip":"0283132"},{"town":"石鳥谷町五大堂","koaza":"第十八地割","lat":39.429545,"lng":141.17929,"zip":"0283141"},{"town":"石鳥谷町五大堂","koaza":"第二十六地割","lat":39.437164,"lng":141.178706,"zip":"0283141"},{"town":"石鳥谷町新堀","koaza":"第五十七地割","lat":39.4746,"lng":141.17989,"zip":"0283111"},{"town":"東和町北成島","koaza":"一区","lat":39.362785,"lng":141.181649,"zip":"0280116"},{"town":"石鳥谷町五大堂","koaza":"第二十四地割","lat":39.435575,"lng":141.178741,"zip":"0283141"},{"town":"石鳥谷町新堀","koaza":"第六十五地割","lat":39.494248,"lng":141.181847,"zip":"0283111"},{"town":"高松","koaza":"第三十二地割","lat":39.391503,"lng":141.197285,"zip":"0250014"},{"town":"石鳥谷町五大堂","koaza":"第十九地割","lat":39.42922,"lng":141.180137,"zip":"0283141"},{"town":"石鳥谷町新堀","koaza":"第二十地割","lat":39.489618,"lng":141.180445,"zip":"0283111"},{"town":"石鳥谷町新堀","koaza":"第五十九地割","lat":39.484203,"lng":141.180394,"zip":"0283111"},{"town":"石鳥谷町新堀","koaza":"第五十八地割","lat":39.480419,"lng":141.179951,"zip":"0283111"},{"town":"石鳥谷町新堀","koaza":"第六十三地割","lat":39.486283,"lng":141.183336,"zip":"0283111"},{"town":"石鳥谷町新堀","koaza":"第六十八地割","lat":39.499402,"lng":141.180972,"zip":"0283111"},{"town":"石鳥谷町滝田","koaza":"第十一地割","lat":39.454351,"lng":141.182654,"zip":"0283122"},{"town":"石鳥谷町五大堂","koaza":"第十五地割","lat":39.427375,"lng":141.182685,"zip":"0283141"},{"town":"石鳥谷町新堀","koaza":"第二十一地割","lat":39.484957,"lng":141.180515,"zip":"0283111"},{"town":"石鳥谷町五大堂","koaza":"第二十地割","lat":39.42968,"lng":141.180542,"zip":"0283141"},{"town":"石鳥谷町滝田","koaza":"第十二地割","lat":39.455173,"lng":141.18348,"zip":"0283122"},{"town":"高松","koaza":"第十五地割","lat":39.384277,"lng":141.186161,"zip":"0250014"},{"town":"東和町南成島","koaza":"一区","lat":39.361604,"lng":141.194069,"zip":"0280155"},{"town":"石鳥谷町東中島","koaza":"第一地割","lat":39.439483,"lng":141.184151,"zip":"0283132"},{"town":"石鳥谷町五大堂","koaza":"第十地割","lat":39.435747,"lng":141.1848,"zip":"0283141"},{"town":"矢沢","koaza":"第八地割","lat":39.41365,"lng":141.190889,"zip":"0250011"},{"town":"高松","koaza":"第十八地割","lat":39.372405,"lng":141.183077,"zip":"0250014"},{"town":"石鳥谷町新堀","koaza":"第六十六地割","lat":39.495961,"lng":141.196873,"zip":"0283111"},{"town":"石鳥谷町新堀","koaza":"第六十四地割","lat":39.488409,"lng":141.18646,"zip":"0283111"},{"town":"石鳥谷町新堀","koaza":"第六十二地割","lat":39.48382,"lng":141.192131,"zip":"0283111"},{"town":"石鳥谷町五大堂","koaza":"第十一地割","lat":39.431122,"lng":141.183124,"zip":"0283141"},{"town":"石鳥谷町五大堂","koaza":"第十四地割","lat":39.424594,"lng":141.182581,"zip":"0283141"},{"town":"高松","koaza":"第十六地割","lat":39.378059,"lng":141.186751,"zip":"0250014"},{"town":"石鳥谷町戸塚","koaza":"第七地割","lat":39.465014,"lng":141.18559,"zip":"0283121"},{"town":"石鳥谷町滝田","koaza":"第十五地割","lat":39.459778,"lng":141.183514,"zip":"0283122"},{"town":"石鳥谷町猪鼻","koaza":"第三地割","lat":39.448258,"lng":141.183458,"zip":"0283131"},{"town":"矢沢","koaza":"第十三地割","lat":39.405185,"lng":141.186372,"zip":"0250011"},{"town":"石鳥谷町五大堂","koaza":"第十二地割","lat":39.427173,"lng":141.185043,"zip":"0283141"},{"town":"高松","koaza":"第十七地割","lat":39.371959,"lng":141.188791,"zip":"0250014"},{"town":"石鳥谷町五大堂","koaza":"第八地割","lat":39.431577,"lng":141.189035,"zip":"0283141"},{"town":"幸田","koaza":"第八地割","lat":39.407966,"lng":141.199553,"zip":"0250013"},{"town":"石鳥谷町滝田","koaza":"第十地割","lat":39.452921,"lng":141.189166,"zip":"0283122"},{"town":"東和町北成島","koaza":"二区","lat":39.367222,"lng":141.196228,"zip":"0280116"},{"town":"石鳥谷町戸塚","koaza":"第四地割","lat":39.466248,"lng":141.189469,"zip":"0283121"},{"town":"東和町北成島","koaza":"三区","lat":39.363914,"lng":141.193622,"zip":"0280116"},{"town":"石鳥谷町滝田","koaza":"第十六地割","lat":39.461176,"lng":141.190598,"zip":"0283122"},{"town":"石鳥谷町五大堂","koaza":"第九地割","lat":39.436893,"lng":141.189614,"zip":"0283141"},{"town":"石鳥谷町新堀","koaza":"第六十地割","lat":39.481341,"lng":141.191159,"zip":"0283111"},{"town":"石鳥谷町新堀","koaza":"第六十七地割","lat":39.499888,"lng":141.191308,"zip":"0283111"},{"town":"幸田","koaza":"第四地割","lat":39.39932,"lng":141.197146,"zip":"0250013"},{"town":"幸田","koaza":"第七地割","lat":39.406298,"lng":141.190156,"zip":"0250013"},{"town":"高松","koaza":"第三十四地割","lat":39.380135,"lng":141.201318,"zip":"0250014"},{"town":"石鳥谷町戸塚","koaza":"第二地割","lat":39.469755,"lng":141.193806,"zip":"0283121"},{"town":"石鳥谷町五大堂","koaza":"第五地割","lat":39.439969,"lng":141.197314,"zip":"0283141"},{"town":"東和町南成島","koaza":"三区","lat":39.356596,"lng":141.192449,"zip":"0280155"},{"town":"高松","koaza":"第三十地割","lat":39.394378,"lng":141.194439,"zip":"0250014"},{"town":"東和町外谷地","koaza":"一区","lat":39.426785,"lng":141.196934,"zip":"0280106"},{"town":"東和町南成島","koaza":"二区","lat":39.36118,"lng":141.195319,"zip":"0280155"},{"town":"幸田","koaza":"第六地割","lat":39.402785,"lng":141.195444,"zip":"0250013"},{"town":"石鳥谷町滝田","koaza":"第十七地割","lat":39.461599,"lng":141.196058,"zip":"0283122"},{"town":"東和町南成島","koaza":"四区","lat":39.353913,"lng":141.196206,"zip":"0280155"},{"town":"石鳥谷町滝田","koaza":"第九地割","lat":39.454699,"lng":141.194428,"zip":"0283122"},{"town":"石鳥谷町滝田","koaza":"第二十地割","lat":39.463311,"lng":141.198523,"zip":"0283122"},{"town":"東和町安俵","koaza":"七区","lat":39.378122,"lng":141.216366,"zip":"0280115"},{"town":"高松","koaza":"第二十九地割","lat":39.395355,"lng":141.196579,"zip":"0250014"},{"town":"東和町北小山田","koaza":"一区","lat":39.430634,"lng":141.198684,"zip":"0280107"},{"town":"石鳥谷町滝田","koaza":"第八地割","lat":39.455987,"lng":141.202137,"zip":"0283122"},{"town":"東和町安俵","koaza":"八区","lat":39.373401,"lng":141.198568,"zip":"0280115"},{"town":"高松","koaza":"第三十三地割","lat":39.384611,"lng":141.197421,"zip":"0250014"},{"town":"石鳥谷町滝田","koaza":"第十八地割","lat":39.45959,"lng":141.199921,"zip":"0283122"},{"town":"東和町南成島","koaza":"五区","lat":39.357122,"lng":141.200309,"zip":"0280155"},{"town":"石鳥谷町新堀","koaza":"第六十一地割","lat":39.484806,"lng":141.197277,"zip":"0283111"},{"town":"東和町外谷地","koaza":"二区","lat":39.422837,"lng":141.198443,"zip":"0280106"},{"town":"東和町外谷地","koaza":"六区","lat":39.416429,"lng":141.198825,"zip":"0280106"},{"town":"東和町北成島","koaza":"四区","lat":39.368053,"lng":141.20397,"zip":"0280116"},{"town":"東和町安俵","koaza":"九区","lat":39.370078,"lng":141.21421,"zip":"0280115"},{"town":"東和町北成島","koaza":"五区","lat":39.36373,"lng":141.206234,"zip":"0280116"},{"town":"幸田","koaza":"第五地割","lat":39.403922,"lng":141.19974,"zip":"0250013"},{"town":"東和町外谷地","koaza":"七区","lat":39.413443,"lng":141.20233,"zip":"0280106"},{"town":"石鳥谷町滝田","koaza":"第十九地割","lat":39.46146,"lng":141.201448,"zip":"0283122"},{"town":"幸田","koaza":"第一地割","lat":39.401833,"lng":141.201179,"zip":"0250013"},{"town":"大迫町亀ケ森","koaza":"第二十二地割","lat":39.475348,"lng":141.204072,"zip":"0283204"},{"town":"幸田","koaza":"第三地割","lat":39.395655,"lng":141.201251,"zip":"0250013"},{"town":"東和町北小山田","koaza":"二区","lat":39.425126,"lng":141.207844,"zip":"0280107"},{"town":"東和町外谷地","koaza":"三区","lat":39.421133,"lng":141.203419,"zip":"0280106"},{"town":"東和町南成島","koaza":"六区","lat":39.352625,"lng":141.206134,"zip":"0280155"},{"town":"幸田","koaza":"第十三地割","lat":39.400484,"lng":141.203204,"zip":"0250013"},{"town":"幸田","koaza":"第二地割","lat":39.396983,"lng":141.20308,"zip":"0250013"},{"town":"東和町安俵","koaza":"一区","lat":39.389807,"lng":141.204635,"zip":"0280115"},{"town":"東和町外谷地","koaza":"五区","lat":39.419085,"lng":141.209293,"zip":"0280106"},{"town":"幸田","koaza":"第二十地割","lat":39.405367,"lng":141.206179,"zip":"0250013"},{"town":"幸田","koaza":"第十四地割","lat":39.403515,"lng":141.204435,"zip":"0250013"},{"town":"東和町北小山田","koaza":"三区","lat":39.432682,"lng":141.20905,"zip":"0280107"},{"town":"幸田","koaza":"第十二地割","lat":39.39472,"lng":141.210989,"zip":"0250013"},{"town":"東和町外谷地","koaza":"八区","lat":39.410891,"lng":141.20958,"zip":"0280106"},{"town":"大迫町亀ケ森","koaza":"第十八地割","lat":39.481404,"lng":141.210416,"zip":"0283204"},{"town":"東和町南成島","koaza":"七区","lat":39.358616,"lng":141.212668,"zip":"0280155"},{"town":"東和町北小山田","koaza":"四区","lat":39.43,"lng":141.209018,"zip":"0280107"},{"town":"大迫町亀ケ森","koaza":"第二十三地割","lat":39.474773,"lng":141.208679,"zip":"0283204"},{"town":"東和町安俵","koaza":"二区","lat":39.389564,"lng":141.215483,"zip":"0280115"},{"town":"幸田","koaza":"第十九地割","lat":39.404561,"lng":141.207611,"zip":"0250013"},{"town":"幸田","koaza":"第十五地割","lat":39.400748,"lng":141.2082,"zip":"0250013"},{"town":"東和町土沢","koaza":"一区","lat":39.391597,"lng":141.221197,"zip":"0280114"},{"town":"東和町外谷地","koaza":"四区","lat":39.420631,"lng":141.210164,"zip":"0280106"},{"town":"幸田","koaza":"第十六地割","lat":39.39777,"lng":141.215253,"zip":"0250013"},{"town":"大迫町亀ケ森","koaza":"第二十四地割","lat":39.46965,"lng":141.214285,"zip":"0283204"},{"town":"東和町北小山田","koaza":"七区","lat":39.425882,"lng":141.212066,"zip":"0280107"},{"town":"東和町安俵","koaza":"五区","lat":39.381239,"lng":141.213413,"zip":"0280115"},{"town":"大迫町亀ケ森","koaza":"第二十一地割","lat":39.476022,"lng":141.21131,"zip":"0283204"},{"town":"幸田","koaza":"第十七地割","lat":39.400168,"lng":141.211698,"zip":"0250013"},{"town":"東和町南成島","koaza":"九区","lat":39.351578,"lng":141.214927,"zip":"0280155"},{"town":"東和町前田","koaza":"一区","lat":39.421466,"lng":141.218808,"zip":"0280105"},{"town":"東和町前田","koaza":"二区","lat":39.415029,"lng":141.214685,"zip":"0280105"},{"town":"東和町北小山田","koaza":"六区","lat":39.426949,"lng":141.218546,"zip":"0280107"},{"town":"東和町安俵","koaza":"四区","lat":39.384804,"lng":141.217091,"zip":"0280115"},{"town":"東和町南成島","koaza":"八区","lat":39.361005,"lng":141.214684,"zip":"0280155"},{"town":"東和町前田","koaza":"三区","lat":39.414347,"lng":141.217079,"zip":"0280105"},{"town":"東和町百ノ沢","koaza":"一区","lat":39.404121,"lng":141.216879,"zip":"0280111"},{"town":"東和町安俵","koaza":"十区","lat":39.37432,"lng":141.218078,"zip":"0280115"},{"town":"大迫町亀ケ森","koaza":"第十九地割","lat":39.477352,"lng":141.216321,"zip":"0283204"},{"town":"大迫町亀ケ森","koaza":"第二十地割","lat":39.473712,"lng":141.215599,"zip":"0283204"},{"town":"東和町百ノ沢","koaza":"七区","lat":39.40176,"lng":141.218539,"zip":"0280111"},{"town":"大迫町亀ケ森","koaza":"第十七地割","lat":39.481468,"lng":141.217463,"zip":"0283204"},{"town":"東和町落合","koaza":"一区","lat":39.373017,"lng":141.226607,"zip":"0280151"},{"town":"大迫町亀ケ森","koaza":"第十六地割","lat":39.475426,"lng":141.220194,"zip":"0283204"},{"town":"幸田","koaza":"第十一地割","lat":39.393494,"lng":141.217581,"zip":"0250013"},{"town":"東和町安俵","koaza":"三区","lat":39.387257,"lng":141.22096,"zip":"0280115"},{"town":"大迫町亀ケ森","koaza":"第二十七地割","lat":39.474046,"lng":141.220973,"zip":"0283204"},{"town":"東和町小通","koaza":"二区","lat":39.359975,"lng":141.220747,"zip":"0280156"},{"town":"東和町前田","koaza":"五区","lat":39.41798,"lng":141.220203,"zip":"0280105"},{"town":"東和町安俵","koaza":"六区","lat":39.384319,"lng":141.224477,"zip":"0280115"},{"town":"東和町小通","koaza":"一区","lat":39.36495,"lng":141.222804,"zip":"0280156"},{"town":"東和町前田","koaza":"六区","lat":39.423992,"lng":141.225161,"zip":"0280105"},{"town":"東和町前田","koaza":"四区","lat":39.410584,"lng":141.223253,"zip":"0280105"},{"town":"東和町百ノ沢","koaza":"八区","lat":39.398486,"lng":141.224829,"zip":"0280111"},{"town":"東和町安俵","koaza":"十一区","lat":39.382664,"lng":141.225152,"zip":"0280115"},{"town":"東和町百ノ沢","koaza":"二区","lat":39.406243,"lng":141.225117,"zip":"0280111"},{"town":"東和町土沢","koaza":"二区","lat":39.389984,"lng":141.226104,"zip":"0280114"},{"town":"大迫町亀ケ森","koaza":"第十五地割","lat":39.477705,"lng":141.227265,"zip":"0283204"},{"town":"東和町小通","koaza":"三区","lat":39.359855,"lng":141.226231,"zip":"0280156"},{"town":"東和町百ノ沢","koaza":"六区","lat":39.400387,"lng":141.227676,"zip":"0280111"},{"town":"東和町前田","koaza":"七区","lat":39.427562,"lng":141.226498,"zip":"0280105"},{"town":"東和町落合","koaza":"二区","lat":39.364898,"lng":141.233077,"zip":"0280151"},{"town":"東和町前田","koaza":"九区","lat":39.419789,"lng":141.231048,"zip":"0280105"},{"town":"東和町前田","koaza":"八区","lat":39.424152,"lng":141.229367,"zip":"0280105"},{"town":"東和町土沢","koaza":"六区","lat":39.382591,"lng":141.229994,"zip":"0280114"},{"town":"東和町前田","koaza":"十一区","lat":39.406346,"lng":141.230909,"zip":"0280105"},{"town":"大迫町亀ケ森","koaza":"第十四地割","lat":39.477774,"lng":141.231475,"zip":"0283204"},{"town":"東和町土沢","koaza":"八区","lat":39.385343,"lng":141.230555,"zip":"0280114"},{"town":"東和町百ノ沢","koaza":"九区","lat":39.395483,"lng":141.228845,"zip":"0280111"},{"town":"東和町土沢","koaza":"五区","lat":39.386693,"lng":141.23241,"zip":"0280114"},{"town":"東和町前田","koaza":"十区","lat":39.413744,"lng":141.228663,"zip":"0280105"},{"town":"大迫町亀ケ森","koaza":"第十三地割","lat":39.479579,"lng":141.22953,"zip":"0283204"},{"town":"東和町百ノ沢","koaza":"三区","lat":39.402392,"lng":141.231796,"zip":"0280111"},{"town":"東和町毒沢","koaza":"五区","lat":39.342721,"lng":141.23127,"zip":"0280152"},{"town":"東和町百ノ沢","koaza":"五区","lat":39.394765,"lng":141.235397,"zip":"0280111"},{"town":"大迫町亀ケ森","koaza":"第二十九地割","lat":39.473558,"lng":141.230315,"zip":"0283204"},{"town":"東和町北川目","koaza":"二区","lat":39.419353,"lng":141.232722,"zip":"0280102"},{"town":"東和町毒沢","koaza":"二区","lat":39.352563,"lng":141.230896,"zip":"0280152"},{"town":"大迫町亀ケ森","koaza":"第十一地割","lat":39.478809,"lng":141.23852,"zip":"0283204"},{"town":"東和町毒沢","koaza":"六区","lat":39.339362,"lng":141.233857,"zip":"0280152"},{"town":"大迫町亀ケ森","koaza":"第二十八地割","lat":39.473669,"lng":141.233774,"zip":"0283204"},{"town":"東和町土沢","koaza":"四区","lat":39.39051,"lng":141.242083,"zip":"0280114"},{"town":"東和町土沢","koaza":"三区","lat":39.392365,"lng":141.240687,"zip":"0280114"},{"town":"東和町町井","koaza":"一区","lat":39.371747,"lng":141.23447,"zip":"0280131"},{"town":"東和町南川目","koaza":"五区","lat":39.406291,"lng":141.237792,"zip":"0280104"},{"town":"大迫町亀ケ森","koaza":"第十二地割","lat":39.477202,"lng":141.232949,"zip":"0283204"},{"town":"東和町百ノ沢","koaza":"四区","lat":39.398123,"lng":141.23755,"zip":"0280111"},{"town":"東和町毒沢","koaza":"一区","lat":39.356978,"lng":141.239311,"zip":"0280152"},{"town":"東和町北川目","koaza":"三区","lat":39.414329,"lng":141.237434,"zip":"0280102"},{"town":"東和町土沢","koaza":"七区","lat":39.377789,"lng":141.238739,"zip":"0280114"},{"town":"東和町土沢","koaza":"九区","lat":39.382477,"lng":141.237909,"zip":"0280114"},{"town":"大迫町亀ケ森","koaza":"第九地割","lat":39.485306,"lng":141.243912,"zip":"0283204"},{"town":"東和町毒沢","koaza":"七区","lat":39.341661,"lng":141.245112,"zip":"0280152"},{"town":"東和町町井","koaza":"三区","lat":39.37075,"lng":141.240008,"zip":"0280131"},{"town":"東和町北川目","koaza":"五区","lat":39.419468,"lng":141.241657,"zip":"0280102"},{"town":"東和町南川目","koaza":"一区","lat":39.41102,"lng":141.241369,"zip":"0280104"},{"town":"東和町北川目","koaza":"一区","lat":39.424333,"lng":141.240592,"zip":"0280102"},{"town":"大迫町亀ケ森","koaza":"第三十一地割","lat":39.475005,"lng":141.239983,"zip":"0283204"},{"town":"東和町毒沢","koaza":"三区","lat":39.349708,"lng":141.242707,"zip":"0280152"},{"town":"大迫町亀ケ森","koaza":"第十地割","lat":39.481745,"lng":141.238424,"zip":"0283204"},{"town":"東和町舘迫","koaza":"二区","lat":39.365328,"lng":141.2455,"zip":"0280132"},{"town":"東和町町井","koaza":"二区","lat":39.371808,"lng":141.243734,"zip":"0280131"},{"town":"大迫町亀ケ森","koaza":"第三十二地割","lat":39.475812,"lng":141.242579,"zip":"0283204"},{"town":"東和町土沢","koaza":"十区","lat":39.379303,"lng":141.243838,"zip":"0280114"},{"town":"東和町北川目","koaza":"四区","lat":39.417086,"lng":141.246355,"zip":"0280102"},{"town":"大迫町亀ケ森","koaza":"第八地割","lat":39.480036,"lng":141.243458,"zip":"0283204"},{"town":"大迫町亀ケ森","koaza":"第三十三地割","lat":39.473054,"lng":141.245757,"zip":"0283204"},{"town":"東和町南川目","koaza":"六区","lat":39.399608,"lng":141.245851,"zip":"0280104"},{"town":"大迫町亀ケ森","koaza":"第七地割","lat":39.477836,"lng":141.244879,"zip":"0283204"},{"town":"東和町新地","koaza":"二区","lat":39.389751,"lng":141.249389,"zip":"0280112"},{"town":"東和町東晴山","koaza":"三区","lat":39.376346,"lng":141.249463,"zip":"0280113"},{"town":"東和町毒沢","koaza":"四区","lat":39.346955,"lng":141.248237,"zip":"0280152"},{"town":"東和町北川目","koaza":"六区","lat":39.418894,"lng":141.25225,"zip":"0280102"},{"town":"大迫町亀ケ森","koaza":"第三十五地割","lat":39.474875,"lng":141.244947,"zip":"0283204"},{"town":"東和町土沢","koaza":"十一区","lat":39.385731,"lng":141.246775,"zip":"0280114"},{"town":"大迫町亀ケ森","koaza":"第六地割","lat":39.478238,"lng":141.248584,"zip":"0283204"},{"town":"東和町新地","koaza":"一区","lat":39.393371,"lng":141.247047,"zip":"0280112"},{"town":"大迫町亀ケ森","koaza":"第三十四地割","lat":39.473329,"lng":141.247592,"zip":"0283204"},{"town":"東和町南川目","koaza":"四区","lat":39.405547,"lng":141.251702,"zip":"0280104"},{"town":"東和町舘迫","koaza":"三区","lat":39.362712,"lng":141.247508,"zip":"0280132"},{"town":"東和町砂子","koaza":"一区","lat":39.341245,"lng":141.250305,"zip":"0280134"},{"town":"東和町舘迫","koaza":"一区","lat":39.3656,"lng":141.252109,"zip":"0280132"},{"town":"東和町南川目","koaza":"七区","lat":39.402131,"lng":141.255161,"zip":"0280104"},{"town":"東和町東晴山","koaza":"七区","lat":39.373289,"lng":141.251458,"zip":"0280113"},{"town":"東和町南川目","koaza":"二区","lat":39.412832,"lng":141.249639,"zip":"0280104"},{"town":"東和町北川目","koaza":"八区","lat":39.417101,"lng":141.250789,"zip":"0280102"},{"town":"大迫町亀ケ森","koaza":"第五地割","lat":39.482788,"lng":141.253156,"zip":"0283204"},{"town":"大迫町亀ケ森","koaza":"第三十六地割","lat":39.474654,"lng":141.253559,"zip":"0283204"},{"town":"東和町南川目","koaza":"三区","lat":39.410528,"lng":141.254628,"zip":"0280104"},{"town":"大迫町亀ケ森","koaza":"第四地割","lat":39.478504,"lng":141.257654,"zip":"0283204"},{"town":"東和町新地","koaza":"三区","lat":39.39713,"lng":141.253446,"zip":"0280112"},{"town":"東和町舘迫","koaza":"四区","lat":39.361272,"lng":141.255539,"zip":"0280132"},{"town":"東和町東晴山","koaza":"六区","lat":39.373005,"lng":141.253481,"zip":"0280113"},{"town":"東和町鷹巣堂","koaza":"三区","lat":39.353772,"lng":141.25305,"zip":"0280133"},{"town":"東和町東晴山","koaza":"二区","lat":39.381982,"lng":141.258416,"zip":"0280113"},{"town":"東和町砂子","koaza":"三区","lat":39.339637,"lng":141.255102,"zip":"0280134"},{"town":"東和町鷹巣堂","koaza":"二区","lat":39.348899,"lng":141.262713,"zip":"0280133"},{"town":"東和町東晴山","koaza":"五区","lat":39.374067,"lng":141.255913,"zip":"0280113"},{"town":"大迫町亀ケ森","koaza":"第三十七地割","lat":39.471537,"lng":141.255259,"zip":"0283204"},{"town":"東和町鷹巣堂","koaza":"四区","lat":39.350703,"lng":141.253794,"zip":"0280133"},{"town":"東和町新地","koaza":"六区","lat":39.391332,"lng":141.268596,"zip":"0280112"},{"town":"大迫町亀ケ森","koaza":"第一地割","lat":39.476075,"lng":141.265971,"zip":"0283204"},{"town":"大迫町亀ケ森","koaza":"第三十八地割","lat":39.472954,"lng":141.257095,"zip":"0283204"},{"town":"東和町舘迫","koaza":"五区","lat":39.360632,"lng":141.257715,"zip":"0280132"},{"town":"東和町砂子","koaza":"二区","lat":39.344524,"lng":141.261622,"zip":"0280134"},{"town":"東和町東晴山","koaza":"八区","lat":39.364944,"lng":141.26047,"zip":"0280113"},{"town":"東和町北川目","koaza":"七区","lat":39.418754,"lng":141.258871,"zip":"0280102"},{"town":"東和町新地","koaza":"五区","lat":39.391557,"lng":141.263253,"zip":"0280112"},{"town":"東和町倉沢","koaza":"一区","lat":39.337285,"lng":141.257101,"zip":"0280135"},{"town":"東和町新地","koaza":"四区","lat":39.399196,"lng":141.261703,"zip":"0280112"},{"town":"東和町南川目","koaza":"八区","lat":39.406245,"lng":141.264487,"zip":"0280104"},{"town":"東和町東晴山","koaza":"十区","lat":39.368748,"lng":141.262844,"zip":"0280113"},{"town":"東和町小友","koaza":"二区","lat":39.356093,"lng":141.268539,"zip":"0280121"},{"town":"東和町石鳩岡","koaza":"八区","lat":39.411066,"lng":141.262216,"zip":"0280103"},{"town":"大迫町亀ケ森","koaza":"第三十九地割","lat":39.470005,"lng":141.259934,"zip":"0283204"},{"town":"大迫町亀ケ森","koaza":"第二地割","lat":39.476558,"lng":141.263871,"zip":"0283204"},{"town":"東和町小友","koaza":"一区","lat":39.360265,"lng":141.261129,"zip":"0280121"},{"town":"大迫町亀ケ森","koaza":"第四十三地割","lat":39.470181,"lng":141.262187,"zip":"0283204"},{"town":"東和町東晴山","koaza":"十一区","lat":39.367032,"lng":141.269948,"zip":"0280113"},{"town":"大迫町亀ケ森","koaza":"第四十四地割","lat":39.47154,"lng":141.267029,"zip":"0283204"},{"town":"東和町東晴山","koaza":"四区","lat":39.379224,"lng":141.263366,"zip":"0280113"},{"town":"大迫町亀ケ森","koaza":"第四十六地割","lat":39.474115,"lng":141.270279,"zip":"0283204"},{"town":"東和町鷹巣堂","koaza":"一区","lat":39.350395,"lng":141.268594,"zip":"0280133"},{"town":"大迫町亀ケ森","koaza":"第四十七地割","lat":39.473009,"lng":141.268344,"zip":"0283204"},{"town":"東和町谷内","koaza":"五区","lat":39.337633,"lng":141.275699,"zip":"0280122"},{"town":"東和町砂子","koaza":"四区","lat":39.338419,"lng":141.27084,"zip":"0280134"},{"town":"東和町東晴山","koaza":"一区","lat":39.387325,"lng":141.271943,"zip":"0280113"},{"town":"東和町谷内","koaza":"六区","lat":39.344936,"lng":141.27237,"zip":"0280122"},{"town":"大迫町大迫","koaza":"第十六地割","lat":39.4681,"lng":141.272625,"zip":"0283203"},{"town":"東和町東晴山","koaza":"十二区","lat":39.363595,"lng":141.277179,"zip":"0280113"},{"town":"大迫町大迫","koaza":"第十四地割","lat":39.474087,"lng":141.274483,"zip":"0283203"},{"town":"大迫町亀ケ森","koaza":"第四十八地割","lat":39.471929,"lng":141.272433,"zip":"0283204"},{"town":"大迫町大迫","koaza":"第十五地割","lat":39.470551,"lng":141.274038,"zip":"0283203"},{"town":"大迫町大迫","koaza":"第十七地割","lat":39.469531,"lng":141.275021,"zip":"0283203"},{"town":"東和町谷内","koaza":"七区","lat":39.356953,"lng":141.277274,"zip":"0280122"},{"town":"大迫町大迫","koaza":"第十三地割","lat":39.473115,"lng":141.279547,"zip":"0283203"},{"town":"東和町谷内","koaza":"二区","lat":39.349015,"lng":141.28005,"zip":"0280122"},{"town":"東和町谷内","koaza":"九区","lat":39.358465,"lng":141.284811,"zip":"0280122"},{"town":"大迫町大迫","koaza":"第十二地割","lat":39.470208,"lng":141.280597,"zip":"0283203"},{"town":"大迫町大迫","koaza":"第十地割","lat":39.480066,"lng":141.284582,"zip":"0283203"},{"town":"東和町谷内","koaza":"三区","lat":39.33867,"lng":141.284535,"zip":"0280122"},{"town":"大迫町大迫","koaza":"第四地割","lat":39.468598,"lng":141.284048,"zip":"0283203"},{"town":"東和町谷内","koaza":"八区","lat":39.35291,"lng":141.287003,"zip":"0280122"},{"town":"大迫町大迫","koaza":"第三地割","lat":39.466402,"lng":141.286496,"zip":"0283203"},{"town":"大迫町大迫","koaza":"第十九地割","lat":39.461869,"lng":141.286447,"zip":"0283203"},{"town":"大迫町大迫","koaza":"第十一地割","lat":39.470307,"lng":141.284644,"zip":"0283203"},{"town":"大迫町大迫","koaza":"第十八地割","lat":39.464322,"lng":141.28432,"zip":"0283203"},{"town":"大迫町外川目","koaza":"第三十四地割","lat":39.462112,"lng":141.288239,"zip":"0283202"},{"town":"大迫町大迫","koaza":"第九地割","lat":39.472159,"lng":141.287459,"zip":"0283203"},{"town":"大迫町大迫","koaza":"第二地割","lat":39.468635,"lng":141.289392,"zip":"0283203"},{"town":"大迫町外川目","koaza":"第二十八地割","lat":39.456648,"lng":141.293119,"zip":"0283202"},{"town":"東和町田瀬","koaza":"九区","lat":39.327206,"lng":141.292524,"zip":"0280123"},{"town":"大迫町大迫","koaza":"第五地割","lat":39.4701,"lng":141.291653,"zip":"0283203"},{"town":"大迫町大迫","koaza":"第一地割","lat":39.468273,"lng":141.296874,"zip":"0283203"},{"town":"東和町谷内","koaza":"十区","lat":39.358174,"lng":141.300834,"zip":"0280122"},{"town":"大迫町大迫","koaza":"第七地割","lat":39.473511,"lng":141.294393,"zip":"0283203"},{"town":"大迫町外川目","koaza":"第二十七地割","lat":39.456588,"lng":141.29371,"zip":"0283202"},{"town":"大迫町大迫","koaza":"第八地割","lat":39.47272,"lng":141.291081,"zip":"0283203"},{"town":"東和町谷内","koaza":"一区","lat":39.350442,"lng":141.300891,"zip":"0280122"},{"town":"東和町田瀬","koaza":"五区","lat":39.336874,"lng":141.301564,"zip":"0280123"},{"town":"大迫町大迫","koaza":"第六地割","lat":39.473301,"lng":141.297286,"zip":"0283203"},{"town":"東和町田瀬","koaza":"八区","lat":39.330046,"lng":141.29458,"zip":"0280123"},{"town":"東和町田瀬","koaza":"十区","lat":39.32636,"lng":141.300045,"zip":"0280123"},{"town":"東和町田瀬","koaza":"七区","lat":39.332217,"lng":141.298295,"zip":"0280123"},{"town":"東和町田瀬","koaza":"六区","lat":39.333693,"lng":141.307941,"zip":"0280123"},{"town":"東和町谷内","koaza":"十一区","lat":39.348492,"lng":141.299678,"zip":"0280122"},{"town":"大迫町外川目","koaza":"第二十六地割","lat":39.452434,"lng":141.302882,"zip":"0283202"},{"town":"大迫町内川目","koaza":"第四十八地割","lat":39.466558,"lng":141.30538,"zip":"0283201"},{"town":"東和町田瀬","koaza":"四区","lat":39.343753,"lng":141.303259,"zip":"0280123"},{"town":"東和町田瀬","koaza":"十四区","lat":39.315606,"lng":141.313041,"zip":"0280123"},{"town":"東和町田瀬","koaza":"二十二区","lat":39.284399,"lng":141.314942,"zip":"0280123"},{"town":"東和町田瀬","koaza":"二十区","lat":39.29446,"lng":141.319101,"zip":"0280123"},{"town":"東和町田瀬","koaza":"一区","lat":39.350388,"lng":141.326084,"zip":"0280123"},{"town":"東和町田瀬","koaza":"二区","lat":39.352909,"lng":141.32097,"zip":"0280123"},{"town":"東和町田瀬","koaza":"二十一区","lat":39.29171,"lng":141.320192,"zip":"0280123"},{"town":"東和町田瀬","koaza":"二十五区","lat":39.291254,"lng":141.338142,"zip":"0280123"},{"town":"東和町田瀬","koaza":"三十区","lat":39.312524,"lng":141.327722,"zip":"0280123"},{"town":"東和町田瀬","koaza":"二十四区","lat":39.29141,"lng":141.335778,"zip":"0280123"},{"town":"東和町田瀬","koaza":"十八区","lat":39.300668,"lng":141.317491,"zip":"0280123"},{"town":"東和町田瀬","koaza":"十六区","lat":39.305003,"lng":141.308052,"zip":"0280123"},{"town":"東和町田瀬","koaza":"十三区","lat":39.321216,"lng":141.303402,"zip":"0280123"},{"town":"東和町田瀬","koaza":"十二区","lat":39.323879,"lng":141.315565,"zip":"0280123"},{"town":"東和町田瀬","koaza":"十九区","lat":39.293182,"lng":141.316402,"zip":"0280123"},{"town":"東和町田瀬","koaza":"十五区","lat":39.307908,"lng":141.312319,"zip":"0280123"},{"town":"東和町田瀬","koaza":"十一区","lat":39.32432,"lng":141.300229,"zip":"0280123"},{"town":"東和町田瀬","koaza":"二十九区","lat":39.304911,"lng":141.330537,"zip":"0280123"},{"town":"東和町田瀬","koaza":"十七区","lat":39.303416,"lng":141.313301,"zip":"0280123"}]