[{"town":"長島","koaza":"","lat":38.990173,"lng":141.155797,"zip":"0294101"},{"town":"平泉","koaza":"","lat":38.988692,"lng":141.072354,"zip":"0294102"},{"town":"平泉","koaza":"毛越","lat":38.984061,"lng":141.100668,"zip":"0294102"},{"town":"平泉","koaza":"衣関","lat":39.000313,"lng":141.100546,"zip":"0294102"},{"town":"平泉","koaza":"泉ケ城","lat":39.005687,"lng":141.0913,"zip":"0294102"},{"town":"平泉","koaza":"大沢","lat":38.988028,"lng":141.104685,"zip":"0294102"},{"town":"平泉","koaza":"上徳沢","lat":39.024809,"lng":141.106679,"zip":"0294102"},{"town":"平泉","koaza":"坂下","lat":39.000692,"lng":141.108966,"zip":"0294102"},{"town":"平泉","koaza":"花立","lat":38.993583,"lng":141.11271,"zip":"0294102"},{"town":"平泉","koaza":"倉町","lat":38.984817,"lng":141.111503,"zip":"0294102"},{"town":"平泉","koaza":"森下","lat":39.017679,"lng":141.115893,"zip":"0294102"},{"town":"平泉","koaza":"田面","lat":38.982099,"lng":141.109255,"zip":"0294102"},{"town":"平泉","koaza":"新井田","lat":38.979472,"lng":141.112629,"zip":"0294102"},{"town":"平泉","koaza":"志羅山","lat":38.987892,"lng":141.11232,"zip":"0294102"},{"town":"平泉","koaza":"瀬原","lat":39.012723,"lng":141.112576,"zip":"0294102"},{"town":"平泉","koaza":"鈴沢","lat":38.989923,"lng":141.11463,"zip":"0294102"},{"town":"平泉","koaza":"樋渡","lat":38.981313,"lng":141.114361,"zip":"0294102"},{"town":"平泉","koaza":"高田","lat":38.969288,"lng":141.117989,"zip":"0294102"},{"town":"平泉","koaza":"柳御所","lat":38.995268,"lng":141.114121,"zip":"0294102"},{"town":"平泉","koaza":"祇園","lat":38.976357,"lng":141.116065,"zip":"0294102"},{"town":"平泉","koaza":"佐野原","lat":38.971794,"lng":141.117379,"zip":"0294102"},{"town":"平泉","koaza":"高田前","lat":38.96608,"lng":141.117727,"zip":"0294102"},{"town":"平泉","koaza":"上野台","lat":38.981477,"lng":141.118212,"zip":"0294102"},{"town":"平泉","koaza":"三日町","lat":38.975671,"lng":141.118045,"zip":"0294102"},{"town":"平泉","koaza":"泉屋","lat":38.988119,"lng":141.118595,"zip":"0294102"},{"town":"平泉","koaza":"下徳沢","lat":39.019054,"lng":141.11738,"zip":"0294102"},{"town":"平泉","koaza":"伽羅楽","lat":38.991412,"lng":141.11931,"zip":"0294102"},{"town":"平泉","koaza":"宿","lat":38.964166,"lng":141.119974,"zip":"0294102"},{"town":"平泉","koaza":"高玉","lat":38.978673,"lng":141.120012,"zip":"0294102"},{"town":"平泉","koaza":"大平","lat":38.958972,"lng":141.121389,"zip":"0294102"},{"town":"平泉","koaza":"佐野","lat":38.971247,"lng":141.1217,"zip":"0294102"},{"town":"平泉","koaza":"樋の沢","lat":38.962087,"lng":141.122044,"zip":"0294102"},{"town":"平泉","koaza":"塩沢","lat":38.966307,"lng":141.12361,"zip":"0294102"},{"town":"平泉","koaza":"正法","lat":38.961252,"lng":141.12473,"zip":"0294102"},{"town":"平泉","koaza":"大佐","lat":38.959477,"lng":141.126924,"zip":"0294102"},{"town":"平泉","koaza":"片岡","lat":38.971197,"lng":141.114909,"zip":"0294102"}]