[{"town":"岩井町","koaza":"","lat":39.268121,"lng":141.860047,"zip":"0260000"},{"town":"魚河岸","koaza":"","lat":39.273764,"lng":141.892465,"zip":"0260012"},{"town":"鵜住居町","koaza":"","lat":39.331992,"lng":141.863169,"zip":"0260301"},{"town":"嬉石町一丁目","koaza":"","lat":39.264051,"lng":141.887181,"zip":"0260003"},{"town":"嬉石町二丁目","koaza":"","lat":39.265416,"lng":141.887924,"zip":"0260003"},{"town":"嬉石町三丁目","koaza":"","lat":39.263101,"lng":141.891027,"zip":"0260003"},{"town":"大字釜石","koaza":"","lat":39.27702,"lng":141.852076,"zip":"0260000"},{"town":"大字平田","koaza":"","lat":39.236727,"lng":141.900671,"zip":"0260000"},{"town":"大平町一丁目","koaza":"","lat":39.260816,"lng":141.891458,"zip":"0260002"},{"town":"大平町二丁目","koaza":"","lat":39.259554,"lng":141.892363,"zip":"0260002"},{"town":"大平町三丁目","koaza":"","lat":39.258996,"lng":141.896215,"zip":"0260002"},{"town":"大平町四丁目","koaza":"","lat":39.263645,"lng":141.894752,"zip":"0260002"},{"town":"大只越町一丁目","koaza":"","lat":39.278343,"lng":141.879177,"zip":"0260022"},{"town":"大只越町二丁目","koaza":"","lat":39.27803,"lng":141.882712,"zip":"0260022"},{"town":"大町一丁目","koaza":"","lat":39.273134,"lng":141.881485,"zip":"0260024"},{"town":"大町二丁目","koaza":"","lat":39.273955,"lng":141.881043,"zip":"0260024"},{"town":"大町三丁目","koaza":"","lat":39.274603,"lng":141.880793,"zip":"0260024"},{"town":"大渡町一丁目","koaza":"","lat":39.272103,"lng":141.877756,"zip":"0260025"},{"town":"大渡町二丁目","koaza":"","lat":39.272997,"lng":141.877025,"zip":"0260025"},{"town":"大渡町三丁目","koaza":"","lat":39.27489,"lng":141.87505,"zip":"0260025"},{"town":"片岸町","koaza":"","lat":39.339105,"lng":141.887849,"zip":"0260302"},{"town":"甲子町","koaza":"","lat":39.263112,"lng":141.765642,"zip":"0260055"},{"town":"上中島町一丁目","koaza":"","lat":39.267688,"lng":141.853039,"zip":"0260041"},{"town":"上中島町二丁目","koaza":"","lat":39.266102,"lng":141.854772,"zip":"0260041"},{"town":"上中島町三丁目","koaza":"","lat":39.265551,"lng":141.85242,"zip":"0260041"},{"town":"上中島町四丁目","koaza":"","lat":39.265211,"lng":141.849906,"zip":"0260041"},{"town":"栗林町","koaza":"","lat":39.338746,"lng":141.817461,"zip":"0260412"},{"town":"源太沢町一丁目","koaza":"","lat":39.261845,"lng":141.855464,"zip":"0260042"},{"town":"源太沢町二丁目","koaza":"","lat":39.259407,"lng":141.856258,"zip":"0260042"},{"town":"小川町一丁目","koaza":"","lat":39.268831,"lng":141.839198,"zip":"0260045"},{"town":"小川町二丁目","koaza":"","lat":39.274476,"lng":141.838984,"zip":"0260045"},{"town":"小川町三丁目","koaza":"","lat":39.26978,"lng":141.834989,"zip":"0260045"},{"town":"小川町四丁目","koaza":"","lat":39.268368,"lng":141.83591,"zip":"0260045"},{"town":"小川町五丁目","koaza":"","lat":39.270298,"lng":141.832014,"zip":"0260045"},{"town":"小佐野町一丁目","koaza":"","lat":39.263523,"lng":141.834989,"zip":"0260052"},{"town":"小佐野町二丁目","koaza":"","lat":39.26426,"lng":141.842149,"zip":"0260052"},{"town":"小佐野町三丁目","koaza":"","lat":39.263341,"lng":141.839207,"zip":"0260052"},{"town":"小佐野町四丁目","koaza":"","lat":39.2626,"lng":141.835466,"zip":"0260052"},{"town":"駒木町","koaza":"","lat":39.276375,"lng":141.868596,"zip":"0260033"},{"town":"桜木町一丁目","koaza":"","lat":39.266334,"lng":141.838658,"zip":"0260046"},{"town":"桜木町二丁目","koaza":"","lat":39.267545,"lng":141.835452,"zip":"0260046"},{"town":"定内町一丁目","koaza":"","lat":39.260834,"lng":141.832762,"zip":"0260053"},{"town":"定内町二丁目","koaza":"","lat":39.259727,"lng":141.836472,"zip":"0260053"},{"town":"定内町三丁目","koaza":"","lat":39.258012,"lng":141.831904,"zip":"0260053"},{"town":"定内町四丁目","koaza":"","lat":39.253196,"lng":141.834713,"zip":"0260053"},{"town":"新浜町一丁目","koaza":"","lat":39.273623,"lng":141.902382,"zip":"0260015"},{"town":"新浜町二丁目","koaza":"","lat":39.271718,"lng":141.905122,"zip":"0260015"},{"town":"新町","koaza":"","lat":39.264984,"lng":141.845188,"zip":"0260043"},{"town":"鈴子町","koaza":"","lat":39.271374,"lng":141.870205,"zip":"0260031"},{"town":"住吉町","koaza":"","lat":39.266832,"lng":141.847812,"zip":"0260044"},{"town":"只越町一丁目","koaza":"","lat":39.273891,"lng":141.885868,"zip":"0260021"},{"town":"只越町二丁目","koaza":"","lat":39.2747,"lng":141.885227,"zip":"0260021"},{"town":"只越町三丁目","koaza":"","lat":39.275647,"lng":141.884262,"zip":"0260021"},{"town":"千鳥町一丁目","koaza":"","lat":39.274126,"lng":141.86383,"zip":"0260032"},{"town":"千鳥町二丁目","koaza":"","lat":39.276444,"lng":141.862326,"zip":"0260032"},{"town":"天神町","koaza":"","lat":39.278404,"lng":141.885583,"zip":"0260023"},{"town":"唐丹町","koaza":"","lat":39.202008,"lng":141.796257,"zip":"0260061"},{"town":"中妻町一丁目","koaza":"","lat":39.271723,"lng":141.861538,"zip":"0260034"},{"town":"中妻町二丁目","koaza":"","lat":39.270349,"lng":141.858713,"zip":"0260034"},{"town":"中妻町三丁目","koaza":"","lat":39.269392,"lng":141.856115,"zip":"0260034"},{"town":"野田町一丁目","koaza":"","lat":39.258409,"lng":141.828029,"zip":"0260054"},{"town":"野田町二丁目","koaza":"","lat":39.255331,"lng":141.820945,"zip":"0260054"},{"town":"野田町三丁目","koaza":"","lat":39.258645,"lng":141.822265,"zip":"0260054"},{"town":"野田町四丁目","koaza":"","lat":39.259639,"lng":141.826313,"zip":"0260054"},{"town":"野田町五丁目","koaza":"","lat":39.261478,"lng":141.827856,"zip":"0260054"},{"town":"箱崎町","koaza":"","lat":39.326989,"lng":141.946021,"zip":"0260303"},{"town":"橋野町","koaza":"","lat":39.356881,"lng":141.725482,"zip":"0260411"},{"town":"浜町一丁目","koaza":"","lat":39.275435,"lng":141.889367,"zip":"0260013"},{"town":"浜町二丁目","koaza":"","lat":39.275469,"lng":141.892106,"zip":"0260013"},{"town":"浜町三丁目","koaza":"","lat":39.278088,"lng":141.8913,"zip":"0260013"},{"town":"東前町","koaza":"","lat":39.274646,"lng":141.893751,"zip":"0260014"},{"town":"松原町一丁目","koaza":"","lat":39.265287,"lng":141.881202,"zip":"0260004"},{"town":"松原町二丁目","koaza":"","lat":39.264951,"lng":141.88233,"zip":"0260004"},{"town":"松原町三丁目","koaza":"","lat":39.267624,"lng":141.882631,"zip":"0260004"},{"town":"港町一丁目","koaza":"","lat":39.267547,"lng":141.889488,"zip":"0260011"},{"town":"港町二丁目","koaza":"","lat":39.270597,"lng":141.881973,"zip":"0260011"},{"town":"八雲町","koaza":"","lat":39.272852,"lng":141.855772,"zip":"0260035"},{"town":"両石町","koaza":"","lat":39.292803,"lng":141.865639,"zip":"0260304"},{"town":"礼ケ口町","koaza":"","lat":39.261717,"lng":141.846901,"zip":"0260051"},{"town":"甲子町","koaza":"第一地割","lat":39.274254,"lng":141.723213,"zip":"0260055"},{"town":"甲子町","koaza":"第二地割","lat":39.261804,"lng":141.730663,"zip":"0260055"},{"town":"甲子町","koaza":"第三地割","lat":39.253996,"lng":141.743712,"zip":"0260055"},{"town":"甲子町","koaza":"第四地割","lat":39.253166,"lng":141.754904,"zip":"0260055"},{"town":"甲子町","koaza":"第五地割","lat":39.250517,"lng":141.76585,"zip":"0260055"},{"town":"甲子町","koaza":"第六地割","lat":39.251639,"lng":141.771113,"zip":"0260055"},{"town":"甲子町","koaza":"第七地割","lat":39.252956,"lng":141.776963,"zip":"0260055"},{"town":"甲子町","koaza":"第八地割","lat":39.250225,"lng":141.782223,"zip":"0260055"},{"town":"甲子町","koaza":"第九地割","lat":39.248251,"lng":141.793746,"zip":"0260055"},{"town":"甲子町","koaza":"第十六地割","lat":39.286894,"lng":141.807907,"zip":"0260055"},{"town":"甲子町","koaza":"第十地割","lat":39.255755,"lng":141.801473,"zip":"0260055"},{"town":"甲子町","koaza":"第十五地割","lat":39.271512,"lng":141.826469,"zip":"0260055"},{"town":"甲子町","koaza":"第十四地割","lat":39.26917,"lng":141.831033,"zip":"0260055"},{"town":"鵜住居町","koaza":"第二地割","lat":39.346124,"lng":141.846968,"zip":"0260301"},{"town":"鵜住居町","koaza":"第三地割","lat":39.340137,"lng":141.852923,"zip":"0260301"},{"town":"鵜住居町","koaza":"第五地割","lat":39.336571,"lng":141.861544,"zip":"0260301"},{"town":"両石町","koaza":"第四地割","lat":39.297812,"lng":141.869319,"zip":"0260304"},{"town":"大字釜石","koaza":"第十二地割","lat":39.26661,"lng":141.862357,"zip":"0260000"},{"town":"大字平田","koaza":"第二地割","lat":39.246469,"lng":141.872147,"zip":"0260000"},{"town":"鵜住居町","koaza":"第八地割","lat":39.335919,"lng":141.873819,"zip":"0260301"},{"town":"鵜住居町","koaza":"第二十九地割","lat":39.325279,"lng":141.873672,"zip":"0260301"},{"town":"鵜住居町","koaza":"第七地割","lat":39.333761,"lng":141.874977,"zip":"0260301"},{"town":"大字平田","koaza":"第一地割","lat":39.246637,"lng":141.876047,"zip":"0260000"},{"town":"鵜住居町","koaza":"第十二地割","lat":39.331668,"lng":141.880471,"zip":"0260301"},{"town":"片岸町","koaza":"第一地割","lat":39.334146,"lng":141.883907,"zip":"0260302"},{"town":"鵜住居町","koaza":"第二十八地割","lat":39.320434,"lng":141.882582,"zip":"0260301"},{"town":"大字平田","koaza":"第五地割","lat":39.236915,"lng":141.888281,"zip":"0260000"},{"town":"鵜住居町","koaza":"第二十六地割","lat":39.31605,"lng":141.88378,"zip":"0260301"},{"town":"鵜住居町","koaza":"第十三地割","lat":39.324488,"lng":141.878579,"zip":"0260301"},{"town":"両石町","koaza":"第三地割","lat":39.309922,"lng":141.888557,"zip":"0260304"},{"town":"鵜住居町","koaza":"第二十五地割","lat":39.31963,"lng":141.886193,"zip":"0260301"},{"town":"大字平田","koaza":"第三地割","lat":39.249054,"lng":141.88943,"zip":"0260000"},{"town":"鵜住居町","koaza":"第十四地割","lat":39.330333,"lng":141.885813,"zip":"0260301"},{"town":"鵜住居町","koaza":"第十五地割","lat":39.327958,"lng":141.886523,"zip":"0260301"},{"town":"大字平田","koaza":"第四地割","lat":39.240849,"lng":141.885806,"zip":"0260000"},{"town":"鵜住居町","koaza":"第十六地割","lat":39.325472,"lng":141.887064,"zip":"0260301"},{"town":"両石町","koaza":"第二地割","lat":39.310895,"lng":141.888406,"zip":"0260304"},{"town":"片岸町","koaza":"第三地割","lat":39.333268,"lng":141.888984,"zip":"0260302"},{"town":"大字平田","koaza":"第六地割","lat":39.243864,"lng":141.892844,"zip":"0260000"},{"town":"片岸町","koaza":"第四地割","lat":39.33517,"lng":141.892051,"zip":"0260302"},{"town":"鵜住居町","koaza":"第十七地割","lat":39.327108,"lng":141.889743,"zip":"0260301"},{"town":"両石町","koaza":"第一地割","lat":39.309589,"lng":141.892472,"zip":"0260304"},{"town":"鵜住居町","koaza":"第二十一地割","lat":39.326495,"lng":141.906551,"zip":"0260301"},{"town":"片岸町","koaza":"第十地割","lat":39.345444,"lng":141.904824,"zip":"0260302"},{"town":"箱崎町","koaza":"第十三地割","lat":39.310431,"lng":141.909001,"zip":"0260303"},{"town":"箱崎町","koaza":"第七地割","lat":39.322236,"lng":141.918601,"zip":"0260303"},{"town":"鵜住居町","koaza":"第十地割","lat":39.335527,"lng":141.876475,"zip":"0260301"},{"town":"鵜住居町","koaza":"第四地割","lat":39.342409,"lng":141.845972,"zip":"0260301"},{"town":"鵜住居町","koaza":"第六地割","lat":39.335677,"lng":141.855555,"zip":"0260301"},{"town":"鵜住居町","koaza":"第一地割","lat":39.346188,"lng":141.838102,"zip":"0260301"},{"town":"片岸町","koaza":"第九地割","lat":39.342342,"lng":141.891336,"zip":"0260302"},{"town":"片岸町","koaza":"第八地割","lat":39.342897,"lng":141.89603,"zip":"0260302"},{"town":"片岸町","koaza":"第六地割","lat":39.33254,"lng":141.89399,"zip":"0260302"},{"town":"甲子町","koaza":"第十二地割","lat":39.245946,"lng":141.838812,"zip":"0260055"},{"town":"大字釜石","koaza":"第三地割","lat":39.253024,"lng":141.896405,"zip":"0260000"},{"town":"片岸町","koaza":"第二地割","lat":39.334381,"lng":141.8878,"zip":"0260302"},{"town":"鵜住居町","koaza":"第十一地割","lat":39.331905,"lng":141.884061,"zip":"0260301"},{"town":"鵜住居町","koaza":"第二十七地割","lat":39.320541,"lng":141.883389,"zip":"0260301"},{"town":"鵜住居町","koaza":"第二十四地割","lat":39.321964,"lng":141.88651,"zip":"0260301"},{"town":"鵜住居町","koaza":"第二十三地割","lat":39.322659,"lng":141.887635,"zip":"0260301"},{"town":"両石町","koaza":"第五地割","lat":39.300251,"lng":141.892824,"zip":"0260304"},{"town":"鵜住居町","koaza":"第十八地割","lat":39.326752,"lng":141.891867,"zip":"0260301"},{"town":"鵜住居町","koaza":"第十九地割","lat":39.327956,"lng":141.894071,"zip":"0260301"},{"town":"鵜住居町","koaza":"第二十地割","lat":39.327323,"lng":141.898142,"zip":"0260301"},{"town":"鵜住居町","koaza":"第二十二地割","lat":39.324068,"lng":141.903393,"zip":"0260301"},{"town":"箱崎町","koaza":"第九地割","lat":39.326158,"lng":141.909459,"zip":"0260303"},{"town":"箱崎町","koaza":"第八地割","lat":39.322084,"lng":141.915335,"zip":"0260303"},{"town":"箱崎町","koaza":"第十地割","lat":39.319092,"lng":141.910125,"zip":"0260303"},{"town":"箱崎町","koaza":"第十一地割","lat":39.318378,"lng":141.912916,"zip":"0260303"},{"town":"箱崎町","koaza":"第十二地割","lat":39.318593,"lng":141.914374,"zip":"0260303"},{"town":"箱崎町","koaza":"第五地割","lat":39.319983,"lng":141.918434,"zip":"0260303"},{"town":"箱崎町","koaza":"第六地割","lat":39.3211,"lng":141.927048,"zip":"0260303"}]