[{"town":"小友町","koaza":"","lat":38.997881,"lng":141.693076,"zip":"0292207"},{"town":"気仙町","koaza":"","lat":38.998348,"lng":141.596265,"zip":"0292204"},{"town":"高田町","koaza":"","lat":39.030175,"lng":141.644633,"zip":"0292205"},{"town":"竹駒町","koaza":"","lat":39.051204,"lng":141.622624,"zip":"0292203"},{"town":"矢作町","koaza":"","lat":39.053374,"lng":141.525767,"zip":"0292201"},{"town":"横田町","koaza":"","lat":39.080528,"lng":141.581512,"zip":"0292202"},{"town":"米崎町","koaza":"","lat":39.033749,"lng":141.670707,"zip":"0292206"},{"town":"広田町","koaza":"","lat":38.961794,"lng":141.705681,"zip":"0292208"},{"town":"気仙町","koaza":"荒川沢","lat":39.015171,"lng":141.604468,"zip":"0292204"},{"town":"竹駒町","koaza":"館","lat":39.038314,"lng":141.604825,"zip":"0292203"},{"town":"気仙町","koaza":"荒川","lat":39.019894,"lng":141.608958,"zip":"0292204"},{"town":"竹駒町","koaza":"大畑","lat":39.034279,"lng":141.605492,"zip":"0292203"},{"town":"竹駒町","koaza":"下壷","lat":39.041413,"lng":141.603857,"zip":"0292203"},{"town":"気仙町","koaza":"垂井ヶ沢","lat":39.00793,"lng":141.608681,"zip":"0292204"},{"town":"竹駒町","koaza":"赤畑","lat":39.041041,"lng":141.609025,"zip":"0292203"},{"town":"竹駒町","koaza":"十日市場","lat":39.032321,"lng":141.613624,"zip":"0292203"},{"town":"竹駒町","koaza":"細根沢","lat":39.038249,"lng":141.612019,"zip":"0292203"},{"town":"気仙町","koaza":"三本松","lat":39.002095,"lng":141.619047,"zip":"0292204"},{"town":"気仙町","koaza":"牧田","lat":38.989144,"lng":141.616471,"zip":"0292204"},{"town":"気仙町","koaza":"神崎","lat":39.02198,"lng":141.613765,"zip":"0292204"},{"town":"気仙町","koaza":"上長部","lat":38.991113,"lng":141.61171,"zip":"0292204"},{"town":"気仙町","koaza":"丑沢","lat":38.999897,"lng":141.61555,"zip":"0292204"},{"town":"竹駒町","koaza":"上細根","lat":39.040913,"lng":141.614031,"zip":"0292203"},{"town":"竹駒町","koaza":"仲の沢","lat":39.036636,"lng":141.615301,"zip":"0292203"},{"town":"気仙町","koaza":"月山","lat":38.993727,"lng":141.613634,"zip":"0292204"},{"town":"気仙町","koaza":"中井","lat":39.01491,"lng":141.614355,"zip":"0292204"},{"town":"気仙町","koaza":"愛宕下","lat":39.005889,"lng":141.614502,"zip":"0292204"},{"town":"気仙町","koaza":"湊","lat":38.9916,"lng":141.620153,"zip":"0292204"},{"town":"気仙町","koaza":"水上","lat":38.984747,"lng":141.617944,"zip":"0292204"},{"town":"竹駒町","koaza":"滝の里","lat":39.032063,"lng":141.620051,"zip":"0292203"},{"town":"気仙町","koaza":"町裏","lat":39.009313,"lng":141.615928,"zip":"0292204"},{"town":"気仙町","koaza":"町","lat":39.008535,"lng":141.615993,"zip":"0292204"},{"town":"気仙町","koaza":"的場","lat":39.005684,"lng":141.618731,"zip":"0292204"},{"town":"気仙町","koaza":"小渕","lat":39.004603,"lng":141.617311,"zip":"0292204"},{"town":"竹駒町","koaza":"相川","lat":39.031077,"lng":141.625475,"zip":"0292203"},{"town":"高田町","koaza":"中川原","lat":39.021212,"lng":141.619972,"zip":"0292205"},{"town":"気仙町","koaza":"中瀬","lat":39.015202,"lng":141.618691,"zip":"0292204"},{"town":"気仙町","koaza":"二日市","lat":38.995818,"lng":141.622879,"zip":"0292204"},{"town":"気仙町","koaza":"要谷","lat":38.980915,"lng":141.622453,"zip":"0292204"},{"town":"気仙町","koaza":"奈々切","lat":39.014391,"lng":141.620744,"zip":"0292204"},{"town":"気仙町","koaza":"木場","lat":39.006934,"lng":141.620895,"zip":"0292204"},{"town":"気仙町","koaza":"土手影","lat":39.009344,"lng":141.622964,"zip":"0292204"},{"town":"高田町","koaza":"栃ヶ沢","lat":39.024125,"lng":141.624156,"zip":"0292205"},{"town":"気仙町","koaza":"川口","lat":38.998436,"lng":141.622786,"zip":"0292204"},{"town":"気仙町","koaza":"田の浜","lat":38.997264,"lng":141.620675,"zip":"0292204"},{"town":"気仙町","koaza":"双六","lat":38.982778,"lng":141.624771,"zip":"0292204"},{"town":"気仙町","koaza":"中堰","lat":39.011587,"lng":141.624525,"zip":"0292204"},{"town":"気仙町","koaza":"古谷","lat":38.988086,"lng":141.622852,"zip":"0292204"},{"town":"気仙町","koaza":"福伏","lat":38.977127,"lng":141.626382,"zip":"0292204"},{"town":"高田町","koaza":"大石沖","lat":39.021328,"lng":141.622618,"zip":"0292205"},{"town":"高田町","koaza":"森の前","lat":39.016516,"lng":141.624606,"zip":"0292205"},{"town":"高田町","koaza":"大石","lat":39.020487,"lng":141.625014,"zip":"0292205"},{"town":"高田町","koaza":"鳴石","lat":39.02398,"lng":141.629127,"zip":"0292205"},{"town":"高田町","koaza":"並杉","lat":39.013583,"lng":141.627424,"zip":"0292205"},{"town":"気仙町","koaza":"砂盛","lat":39.005513,"lng":141.6275,"zip":"0292204"},{"town":"高田町","koaza":"馬場前","lat":39.01571,"lng":141.627259,"zip":"0292205"},{"town":"高田町","koaza":"古川","lat":39.006272,"lng":141.634939,"zip":"0292205"},{"town":"高田町","koaza":"本丸","lat":39.019776,"lng":141.628403,"zip":"0292205"},{"town":"高田町","koaza":"馬場","lat":39.017475,"lng":141.627011,"zip":"0292205"},{"town":"高田町","koaza":"大町","lat":39.017784,"lng":141.629081,"zip":"0292205"},{"town":"高田町","koaza":"館の沖","lat":39.015129,"lng":141.630925,"zip":"0292205"},{"town":"高田町","koaza":"洞の沢","lat":39.020341,"lng":141.630761,"zip":"0292205"},{"town":"高田町","koaza":"大隅","lat":39.030919,"lng":141.638111,"zip":"0292205"},{"town":"高田町","koaza":"荒町","lat":39.017706,"lng":141.631112,"zip":"0292205"},{"town":"高田町","koaza":"曲松","lat":39.010543,"lng":141.633762,"zip":"0292205"},{"town":"高田町","koaza":"西和野","lat":39.02529,"lng":141.634608,"zip":"0292205"},{"town":"高田町","koaza":"裏田","lat":39.016572,"lng":141.632626,"zip":"0292205"},{"town":"高田町","koaza":"砂畑","lat":39.013548,"lng":141.633884,"zip":"0292205"},{"town":"高田町","koaza":"川原","lat":39.01797,"lng":141.632726,"zip":"0292205"},{"town":"高田町","koaza":"下和野","lat":39.01976,"lng":141.633843,"zip":"0292205"},{"town":"高田町","koaza":"寒風","lat":39.017069,"lng":141.635912,"zip":"0292205"},{"town":"高田町","koaza":"中和野","lat":39.026609,"lng":141.637736,"zip":"0292205"},{"town":"高田町","koaza":"東和野","lat":39.023718,"lng":141.638725,"zip":"0292205"},{"town":"高田町","koaza":"本宿","lat":39.011994,"lng":141.637724,"zip":"0292205"},{"town":"高田町","koaza":"長砂","lat":39.015013,"lng":141.639516,"zip":"0292205"},{"town":"高田町","koaza":"中宿","lat":39.010459,"lng":141.641668,"zip":"0292205"},{"town":"高田町","koaza":"太田","lat":39.019297,"lng":141.642119,"zip":"0292205"},{"town":"高田町","koaza":"中長砂","lat":39.012668,"lng":141.64195,"zip":"0292205"},{"town":"高田町","koaza":"山苗代","lat":39.024984,"lng":141.64509,"zip":"0292205"},{"town":"高田町","koaza":"中田","lat":39.014654,"lng":141.648288,"zip":"0292205"},{"town":"高田町","koaza":"飯森場","lat":39.018121,"lng":141.644689,"zip":"0292205"},{"town":"高田町","koaza":"下宿","lat":39.010042,"lng":141.644962,"zip":"0292205"},{"town":"米崎町","koaza":"沼田","lat":39.009487,"lng":141.648982,"zip":"0292206"},{"town":"高田町","koaza":"法量","lat":39.017935,"lng":141.646747,"zip":"0292205"},{"town":"米崎町","koaza":"地竹沢","lat":39.019197,"lng":141.651735,"zip":"0292206"},{"town":"高田町","koaza":"荒沢","lat":39.021635,"lng":141.649347,"zip":"0292205"},{"town":"米崎町","koaza":"中田","lat":39.010359,"lng":141.649902,"zip":"0292206"},{"town":"米崎町","koaza":"松峰","lat":39.011142,"lng":141.653212,"zip":"0292206"},{"town":"米崎町","koaza":"脇の沢","lat":39.009565,"lng":141.661081,"zip":"0292206"},{"town":"米崎町","koaza":"糠塚沢","lat":39.02031,"lng":141.65743,"zip":"0292206"},{"town":"米崎町","koaza":"西の沢","lat":39.019478,"lng":141.65822,"zip":"0292206"},{"town":"米崎町","koaza":"神田","lat":39.011988,"lng":141.661077,"zip":"0292206"},{"town":"米崎町","koaza":"館","lat":39.004737,"lng":141.660223,"zip":"0292206"},{"town":"米崎町","koaza":"川崎","lat":39.015079,"lng":141.658281,"zip":"0292206"},{"town":"米崎町","koaza":"野沢","lat":39.021009,"lng":141.663392,"zip":"0292206"},{"town":"米崎町","koaza":"川向","lat":39.015583,"lng":141.665622,"zip":"0292206"},{"town":"米崎町","koaza":"川内","lat":39.018234,"lng":141.665996,"zip":"0292206"},{"town":"米崎町","koaza":"川西","lat":39.010515,"lng":141.666428,"zip":"0292206"},{"town":"米崎町","koaza":"佐野","lat":39.028184,"lng":141.66465,"zip":"0292206"},{"town":"米崎町","koaza":"堂の前","lat":39.00598,"lng":141.669855,"zip":"0292206"},{"town":"米崎町","koaza":"中島","lat":39.008605,"lng":141.670645,"zip":"0292206"},{"town":"米崎町","koaza":"道の上","lat":39.013454,"lng":141.668948,"zip":"0292206"},{"town":"小友町","koaza":"金浜","lat":39.003641,"lng":141.674626,"zip":"0292207"},{"town":"気仙町","koaza":"内野","lat":39.01068,"lng":141.611625,"zip":"0292204"},{"town":"気仙町","koaza":"中ヶ谷","lat":39.015,"lng":141.61301,"zip":"0292204"}]