[{"town":"秋浜","koaza":"","lat":36.729045,"lng":136.696116,"zip":"9291175"},{"town":"宇気","koaza":"","lat":36.736249,"lng":136.713612,"zip":"9291121"},{"town":"宇気一丁目","koaza":"","lat":36.740686,"lng":136.714066,"zip":"9291121"},{"town":"内高松","koaza":"","lat":36.763013,"lng":136.736226,"zip":"9291214"},{"town":"内日角","koaza":"","lat":36.706022,"lng":136.700525,"zip":"9291126"},{"town":"内日角一丁目","koaza":"","lat":36.714452,"lng":136.703707,"zip":"9291126"},{"town":"内日角二丁目","koaza":"","lat":36.712705,"lng":136.700162,"zip":"9291126"},{"town":"内日角三丁目","koaza":"","lat":36.712247,"lng":136.701954,"zip":"9291126"},{"town":"内日角四丁目","koaza":"","lat":36.71164,"lng":136.70039,"zip":"9291126"},{"town":"内日角五丁目","koaza":"","lat":36.716721,"lng":136.698468,"zip":"9291126"},{"town":"内日角六丁目","koaza":"","lat":36.716624,"lng":136.697008,"zip":"9291126"},{"town":"宇野気","koaza":"","lat":36.719713,"lng":136.70343,"zip":"9291125"},{"town":"宇野気一丁目","koaza":"","lat":36.715461,"lng":136.703103,"zip":"9291125"},{"town":"宇野気二丁目","koaza":"","lat":36.716705,"lng":136.703989,"zip":"9291125"},{"town":"上田名","koaza":"","lat":36.737513,"lng":136.746144,"zip":"9291102"},{"town":"大崎","koaza":"","lat":36.703653,"lng":136.681871,"zip":"9291127"},{"town":"学園台一丁目","koaza":"","lat":36.780316,"lng":136.733441,"zip":"9291210"},{"town":"学園台二丁目","koaza":"","lat":36.778638,"lng":136.732595,"zip":"9291210"},{"town":"学園台三丁目","koaza":"","lat":36.777421,"lng":136.72788,"zip":"9291210"},{"town":"学園台四丁目","koaza":"","lat":36.778696,"lng":136.729146,"zip":"9291210"},{"town":"学園台五丁目","koaza":"","lat":36.780494,"lng":136.730202,"zip":"9291210"},{"town":"笠島","koaza":"","lat":36.749992,"lng":136.73121,"zip":"9291104"},{"town":"上山田","koaza":"","lat":36.713488,"lng":136.724928,"zip":"9291115"},{"town":"狩鹿野","koaza":"","lat":36.708789,"lng":136.713349,"zip":"9291114"},{"town":"元女","koaza":"","lat":36.767482,"lng":136.790363,"zip":"9291206"},{"town":"木津","koaza":"","lat":36.747896,"lng":136.707284,"zip":"9291171"},{"town":"気屋","koaza":"","lat":36.721483,"lng":136.738089,"zip":"9291111"},{"town":"黒川","koaza":"","lat":36.771509,"lng":136.765141,"zip":"9291203"},{"town":"湖北","koaza":"","lat":36.692635,"lng":136.690504,"zip":"9291100"},{"town":"指江","koaza":"","lat":36.705155,"lng":136.719562,"zip":"9291113"},{"town":"下山田","koaza":"","lat":36.718707,"lng":136.724423,"zip":"9291116"},{"town":"白尾","koaza":"","lat":36.716901,"lng":136.688109,"zip":"9291177"},{"town":"瀬戸町","koaza":"","lat":36.780742,"lng":136.75419,"zip":"9291208"},{"town":"外日角","koaza":"","lat":36.72502,"lng":136.69395,"zip":"9291176"},{"town":"高松","koaza":"","lat":36.766923,"lng":136.718787,"zip":"9291215"},{"town":"多田","koaza":"","lat":36.706151,"lng":136.731924,"zip":"9291112"},{"town":"谷","koaza":"","lat":36.738682,"lng":136.728032,"zip":"9291103"},{"town":"遠塚","koaza":"","lat":36.737631,"lng":136.700039,"zip":"9291173"},{"town":"中沼","koaza":"","lat":36.781628,"lng":136.735391,"zip":"9291212"},{"town":"長柄町","koaza":"","lat":36.772416,"lng":136.741185,"zip":"9291213"},{"town":"夏栗","koaza":"","lat":36.774483,"lng":136.751234,"zip":"9291207"},{"town":"七窪","koaza":"","lat":36.727897,"lng":136.710963,"zip":"9291122"},{"town":"野寺","koaza":"","lat":36.783722,"lng":136.772485,"zip":"9291201"},{"town":"八野","koaza":"","lat":36.775187,"lng":136.784449,"zip":"9291202"},{"town":"鉢伏","koaza":"","lat":36.72692,"lng":136.724047,"zip":"9291117"},{"town":"浜北","koaza":"","lat":36.732356,"lng":136.697442,"zip":"9291174"},{"town":"二ツ屋","koaza":"","lat":36.78763,"lng":136.735854,"zip":"9291211"},{"town":"松浜","koaza":"","lat":36.743397,"lng":136.703749,"zip":"9291172"},{"town":"箕打","koaza":"","lat":36.761541,"lng":136.76977,"zip":"9291204"},{"town":"森","koaza":"","lat":36.715145,"lng":136.708963,"zip":"9291123"},{"town":"横山","koaza":"","lat":36.743768,"lng":136.718978,"zip":"9291105"},{"town":"余地","koaza":"","lat":36.748272,"lng":136.749463,"zip":"9291101"},{"town":"若緑","koaza":"","lat":36.760753,"lng":136.753634,"zip":"9291205"},{"town":"七窪","koaza":"ホ","lat":36.724282,"lng":136.71081,"zip":"9291122"},{"town":"鉢伏","koaza":"ホ","lat":36.723382,"lng":136.716579,"zip":"9291117"},{"town":"鉢伏","koaza":"ヘ","lat":36.721307,"lng":136.717727,"zip":"9291117"},{"town":"鉢伏","koaza":"イ","lat":36.726827,"lng":136.716085,"zip":"9291117"},{"town":"鉢伏","koaza":"ワ","lat":36.725068,"lng":136.720045,"zip":"9291117"},{"town":"鉢伏","koaza":"ト","lat":36.721749,"lng":136.722961,"zip":"9291117"},{"town":"鉢伏","koaza":"ア","lat":36.726363,"lng":136.727019,"zip":"9291117"},{"town":"気屋","koaza":"イ","lat":36.724031,"lng":136.725725,"zip":"9291111"},{"town":"宇気","koaza":"チ","lat":36.740115,"lng":136.715197,"zip":"9291121"},{"town":"横山","koaza":"ル","lat":36.743445,"lng":136.718746,"zip":"9291105"},{"town":"横山","koaza":"タ","lat":36.745716,"lng":136.715313,"zip":"9291105"},{"town":"横山","koaza":"ホ","lat":36.741788,"lng":136.718608,"zip":"9291105"},{"town":"横山","koaza":"ロ","lat":36.743042,"lng":136.723583,"zip":"9291105"},{"town":"谷","koaza":"と","lat":36.737959,"lng":136.731449,"zip":"9291103"},{"town":"上田名","koaza":"丑","lat":36.741276,"lng":136.732164,"zip":"9291102"},{"town":"七窪","koaza":"ヘ","lat":36.729958,"lng":136.708976,"zip":"9291122"},{"town":"七窪","koaza":"ヨ","lat":36.730798,"lng":136.712528,"zip":"9291122"},{"town":"七窪","koaza":"二","lat":36.726796,"lng":136.712945,"zip":"9291122"},{"town":"宇気","koaza":"イ","lat":36.735408,"lng":136.713038,"zip":"9291121"},{"town":"七窪","koaza":"ル","lat":36.72918,"lng":136.713928,"zip":"9291122"},{"town":"七窪","koaza":"ロ","lat":36.727521,"lng":136.713709,"zip":"9291122"},{"town":"鉢伏","koaza":"サ","lat":36.728657,"lng":136.720363,"zip":"9291117"},{"town":"鉢伏","koaza":"ヲ","lat":36.725343,"lng":136.719631,"zip":"9291117"},{"town":"谷","koaza":"ろ","lat":36.737082,"lng":136.724803,"zip":"9291103"},{"town":"宇気","koaza":"ワ","lat":36.734573,"lng":136.716171,"zip":"9291121"},{"town":"宇気","koaza":"ロ","lat":36.733451,"lng":136.716082,"zip":"9291121"},{"town":"宇気","koaza":"タ","lat":36.735265,"lng":136.711132,"zip":"9291121"},{"town":"宇気","koaza":"ヘ","lat":36.736604,"lng":136.717194,"zip":"9291121"},{"town":"宇気","koaza":"ト","lat":36.738179,"lng":136.715289,"zip":"9291121"},{"town":"宇気","koaza":"ニ","lat":36.736767,"lng":136.715038,"zip":"9291121"},{"town":"宇気","koaza":"ホ","lat":36.738415,"lng":136.71692,"zip":"9291121"},{"town":"横山","koaza":"カ","lat":36.737267,"lng":136.722256,"zip":"9291105"},{"town":"上田名","koaza":"乙","lat":36.743094,"lng":136.735301,"zip":"9291102"},{"town":"谷","koaza":"字","lat":36.742376,"lng":136.72882,"zip":"9291103"},{"town":"宇気","koaza":"り","lat":36.739601,"lng":136.72043,"zip":"9291121"},{"town":"谷","koaza":"イ","lat":36.743441,"lng":136.727018,"zip":"9291103"},{"town":"宇気","koaza":"い","lat":36.733398,"lng":136.714901,"zip":"9291121"},{"town":"鉢伏","koaza":"シ","lat":36.728186,"lng":136.721432,"zip":"9291117"},{"town":"谷","koaza":"ヲ","lat":36.740757,"lng":136.727355,"zip":"9291103"},{"town":"谷","koaza":"ト","lat":36.741807,"lng":136.730251,"zip":"9291103"},{"town":"谷","koaza":"チ","lat":36.739933,"lng":136.730807,"zip":"9291103"},{"town":"鉢伏","koaza":"ロ","lat":36.726097,"lng":136.71744,"zip":"9291117"},{"town":"内日角","koaza":"チ","lat":36.709435,"lng":136.696677,"zip":"9291126"},{"town":"内日角","koaza":"ト","lat":36.71121,"lng":136.697632,"zip":"9291126"},{"town":"内日角","koaza":"ヨ","lat":36.707335,"lng":136.697542,"zip":"9291126"},{"town":"内日角","koaza":"ル","lat":36.708874,"lng":136.699824,"zip":"9291126"},{"town":"内日角","koaza":"ニ","lat":36.712929,"lng":136.699524,"zip":"9291126"},{"town":"内日角","koaza":"タ","lat":36.708992,"lng":136.702202,"zip":"9291126"},{"town":"宇野気","koaza":"イ","lat":36.710418,"lng":136.703995,"zip":"9291125"},{"town":"森","koaza":"子","lat":36.710812,"lng":136.707214,"zip":"9291123"},{"town":"内日角","koaza":"キ","lat":36.702995,"lng":136.705473,"zip":"9291126"},{"town":"内日角","koaza":"ネ","lat":36.697547,"lng":136.706684,"zip":"9291126"},{"town":"狩鹿野","koaza":"一","lat":36.706234,"lng":136.709598,"zip":"9291114"},{"town":"指江","koaza":"西","lat":36.702166,"lng":136.711339,"zip":"9291113"},{"town":"内日角","koaza":"ヌ","lat":36.709935,"lng":136.699562,"zip":"9291126"},{"town":"狩鹿野","koaza":"ヘ","lat":36.709308,"lng":136.708027,"zip":"9291114"},{"town":"狩鹿野","koaza":"二","lat":36.708322,"lng":136.712385,"zip":"9291114"},{"town":"狩鹿野","koaza":"チ","lat":36.70702,"lng":136.710819,"zip":"9291114"},{"town":"森","koaza":"南","lat":36.713102,"lng":136.71137,"zip":"9291123"},{"town":"森","koaza":"カ","lat":36.714788,"lng":136.706637,"zip":"9291123"},{"town":"内日角","koaza":"ヲ","lat":36.708286,"lng":136.697075,"zip":"9291126"},{"town":"大崎","koaza":"ル","lat":36.700608,"lng":136.680085,"zip":"9291127"},{"town":"白尾","koaza":"ム","lat":36.714657,"lng":136.681955,"zip":"9291177"},{"town":"大崎","koaza":"ヨ","lat":36.709574,"lng":136.680097,"zip":"9291127"},{"town":"大崎","koaza":"イ","lat":36.697058,"lng":136.683258,"zip":"9291127"},{"town":"白尾","koaza":"ラ","lat":36.712235,"lng":136.686829,"zip":"9291177"},{"town":"大崎","koaza":"チ","lat":36.701845,"lng":136.686089,"zip":"9291127"},{"town":"大崎","koaza":"潮見台","lat":36.709667,"lng":136.684734,"zip":"9291127"},{"town":"白尾","koaza":"ナ","lat":36.713623,"lng":136.688156,"zip":"9291177"},{"town":"大崎","koaza":"北","lat":36.709371,"lng":136.690461,"zip":"9291127"},{"town":"大崎","koaza":"五字","lat":36.709501,"lng":136.689325,"zip":"9291127"},{"town":"大崎","koaza":"東","lat":36.708157,"lng":136.694534,"zip":"9291127"},{"town":"内日角","koaza":"西","lat":36.71366,"lng":136.696213,"zip":"9291126"},{"town":"内日角","koaza":"ヘ","lat":36.713066,"lng":136.69572,"zip":"9291126"},{"town":"内日角","koaza":"中","lat":36.713092,"lng":136.697033,"zip":"9291126"},{"town":"内日角","koaza":"ワ","lat":36.705286,"lng":136.695586,"zip":"9291126"},{"town":"大崎","koaza":"ホ","lat":36.707343,"lng":136.691517,"zip":"9291127"},{"town":"大崎","koaza":"五","lat":36.703424,"lng":136.68299,"zip":"9291127"},{"town":"大崎","koaza":"タ","lat":36.708127,"lng":136.678709,"zip":"9291127"},{"town":"大崎","koaza":"六","lat":36.704971,"lng":136.682554,"zip":"9291127"},{"town":"大崎","koaza":"中","lat":36.707918,"lng":136.688449,"zip":"9291127"},{"town":"大崎","koaza":"ヌ","lat":36.708856,"lng":136.69457,"zip":"9291127"},{"town":"大崎","koaza":"ヘ","lat":36.710188,"lng":136.694584,"zip":"9291127"},{"town":"大崎","koaza":"リ","lat":36.706941,"lng":136.691712,"zip":"9291127"},{"town":"内日角","koaza":"カ","lat":36.705424,"lng":136.697051,"zip":"9291126"},{"town":"木津","koaza":"ホ","lat":36.748776,"lng":136.702563,"zip":"9291171"},{"town":"松浜","koaza":"ホ","lat":36.745205,"lng":136.700847,"zip":"9291172"},{"town":"木津","koaza":"へ","lat":36.746504,"lng":136.703765,"zip":"9291171"},{"town":"松浜","koaza":"ロ","lat":36.744363,"lng":136.70556,"zip":"9291172"},{"town":"高松","koaza":"丙","lat":36.75683,"lng":136.706399,"zip":"9291215"},{"town":"木津","koaza":"ニ","lat":36.750019,"lng":136.706108,"zip":"9291171"},{"town":"木津","koaza":"一号","lat":36.751696,"lng":136.705285,"zip":"9291171"},{"town":"木津","koaza":"ロ","lat":36.749367,"lng":136.712153,"zip":"9291171"},{"town":"木津","koaza":"イ","lat":36.745192,"lng":136.71135,"zip":"9291171"},{"town":"松浜","koaza":"イ","lat":36.742038,"lng":136.708391,"zip":"9291172"},{"town":"木津","koaza":"ハ","lat":36.750512,"lng":136.709653,"zip":"9291171"},{"town":"高松","koaza":"丁","lat":36.753298,"lng":136.710746,"zip":"9291215"},{"town":"木津","koaza":"戍","lat":36.752511,"lng":136.716064,"zip":"9291171"},{"town":"高松","koaza":"ア","lat":36.7602,"lng":136.717256,"zip":"9291215"},{"town":"横山","koaza":"レ","lat":36.751341,"lng":136.719319,"zip":"9291105"},{"town":"高松","koaza":"ヤ","lat":36.768677,"lng":136.719764,"zip":"9291215"},{"town":"横山","koaza":"リ","lat":36.745559,"lng":136.720197,"zip":"9291105"},{"town":"横山","koaza":"チ","lat":36.746921,"lng":136.720861,"zip":"9291105"},{"town":"横山","koaza":"イ","lat":36.7468,"lng":136.724361,"zip":"9291105"},{"town":"横山","koaza":"ヘ","lat":36.751062,"lng":136.724239,"zip":"9291105"},{"town":"二ツ屋","koaza":"フ","lat":36.786516,"lng":136.723999,"zip":"9291211"},{"town":"笠島","koaza":"ニ","lat":36.750151,"lng":136.72715,"zip":"9291104"},{"town":"高松","koaza":"井","lat":36.771087,"lng":136.727883,"zip":"9291215"},{"town":"笠島","koaza":"ヘ","lat":36.750883,"lng":136.729309,"zip":"9291104"},{"town":"笠島","koaza":"ハ","lat":36.747385,"lng":136.728948,"zip":"9291104"},{"town":"笠島","koaza":"ホ","lat":36.751019,"lng":136.727713,"zip":"9291104"},{"town":"笠島","koaza":"イ","lat":36.744235,"lng":136.730873,"zip":"9291104"},{"town":"二ツ屋","koaza":"ソ","lat":36.784652,"lng":136.736197,"zip":"9291211"},{"town":"長柄町","koaza":"ソ","lat":36.777894,"lng":136.735735,"zip":"9291213"},{"town":"上田名","koaza":"子","lat":36.744948,"lng":136.734198,"zip":"9291102"},{"town":"内高松","koaza":"ヤ","lat":36.767695,"lng":136.737294,"zip":"9291214"},{"town":"横山","koaza":"井","lat":36.749206,"lng":136.718441,"zip":"9291105"},{"town":"横山","koaza":"ハ","lat":36.743194,"lng":136.721086,"zip":"9291105"},{"town":"横山","koaza":"ム","lat":36.742781,"lng":136.72079,"zip":"9291105"},{"town":"谷","koaza":"ワ","lat":36.743237,"lng":136.729176,"zip":"9291103"},{"town":"横山","koaza":"ノ","lat":36.74339,"lng":136.715949,"zip":"9291105"},{"town":"横山","koaza":"ヌ","lat":36.746698,"lng":136.718624,"zip":"9291105"},{"town":"横山","koaza":"ニ","lat":36.748494,"lng":136.72207,"zip":"9291105"},{"town":"横山","koaza":"ウ","lat":36.747817,"lng":136.720838,"zip":"9291105"},{"town":"白尾","koaza":"一号","lat":36.720833,"lng":136.684522,"zip":"9291177"},{"town":"白尾","koaza":"ネ","lat":36.715388,"lng":136.688618,"zip":"9291177"},{"town":"白尾","koaza":"カ","lat":36.719825,"lng":136.686387,"zip":"9291177"},{"town":"白尾","koaza":"ツ","lat":36.717254,"lng":136.689852,"zip":"9291177"},{"town":"白尾","koaza":"ヨ","lat":36.721875,"lng":136.686011,"zip":"9291177"},{"town":"白尾","koaza":"ヌ","lat":36.718328,"lng":136.689718,"zip":"9291177"},{"town":"外日角","koaza":"へ","lat":36.724643,"lng":136.687583,"zip":"9291176"},{"town":"白尾","koaza":"リ","lat":36.721514,"lng":136.689243,"zip":"9291177"},{"town":"白尾","koaza":"ワ","lat":36.719996,"lng":136.688902,"zip":"9291177"},{"town":"外日角","koaza":"ホ","lat":36.725281,"lng":136.689572,"zip":"9291176"},{"town":"外日角","koaza":"ニ","lat":36.724112,"lng":136.69434,"zip":"9291176"},{"town":"白尾","koaza":"ホ","lat":36.721697,"lng":136.693603,"zip":"9291177"},{"town":"白尾","koaza":"ル","lat":36.718876,"lng":136.693606,"zip":"9291177"},{"town":"白尾","koaza":"ニ","lat":36.722589,"lng":136.694993,"zip":"9291177"},{"town":"白尾","koaza":"タ","lat":36.717279,"lng":136.694053,"zip":"9291177"},{"town":"白尾","koaza":"ヲ","lat":36.718628,"lng":136.696255,"zip":"9291177"},{"town":"白尾","koaza":"ハ","lat":36.720627,"lng":136.6959,"zip":"9291177"},{"town":"内日角","koaza":"ホ","lat":36.715961,"lng":136.697674,"zip":"9291126"},{"town":"白尾","koaza":"ロ","lat":36.720715,"lng":136.69891,"zip":"9291177"},{"town":"宇野気","koaza":"ト","lat":36.717514,"lng":136.701145,"zip":"9291125"},{"town":"内日角","koaza":"ハ","lat":36.715156,"lng":136.700512,"zip":"9291126"},{"town":"宇野気","koaza":"チ","lat":36.721712,"lng":136.701798,"zip":"9291125"},{"town":"宇野気","koaza":"リ","lat":36.720346,"lng":136.705606,"zip":"9291125"},{"town":"宇野気","koaza":"ヌ","lat":36.725933,"lng":136.705008,"zip":"9291125"},{"town":"宇野気","koaza":"ニ","lat":36.71976,"lng":136.706243,"zip":"9291125"},{"town":"森","koaza":"レ","lat":36.722604,"lng":136.704279,"zip":"9291123"},{"town":"森","koaza":"ヲ","lat":36.717173,"lng":136.708955,"zip":"9291123"},{"town":"宇野気","koaza":"ハ","lat":36.717267,"lng":136.704419,"zip":"9291125"},{"town":"内日角","koaza":"ウ","lat":36.716074,"lng":136.695321,"zip":"9291126"},{"town":"遠塚","koaza":"イ","lat":36.739418,"lng":136.701349,"zip":"9291173"},{"town":"遠塚","koaza":"ロ","lat":36.736355,"lng":136.70448,"zip":"9291173"},{"town":"松浜","koaza":"ハ","lat":36.741312,"lng":136.704056,"zip":"9291172"},{"town":"宇気","koaza":"ツ","lat":36.737874,"lng":136.709661,"zip":"9291121"},{"town":"宇気","koaza":"ソ","lat":36.741991,"lng":136.71079,"zip":"9291121"},{"town":"松浜","koaza":"ニ","lat":36.742185,"lng":136.700029,"zip":"9291172"},{"town":"森","koaza":"リ","lat":36.719176,"lng":136.710963,"zip":"9291123"},{"town":"森","koaza":"ワ","lat":36.715732,"lng":136.710154,"zip":"9291123"},{"town":"秋浜","koaza":"一号","lat":36.727875,"lng":136.689452,"zip":"9291175"},{"town":"外日角","koaza":"一号","lat":36.726405,"lng":136.688141,"zip":"9291176"},{"town":"秋浜","koaza":"ホ","lat":36.730151,"lng":136.691288,"zip":"9291175"},{"town":"浜北","koaza":"へ","lat":36.73208,"lng":136.691383,"zip":"9291174"},{"town":"外日角","koaza":"ハ","lat":36.726416,"lng":136.696531,"zip":"9291176"},{"town":"浜北","koaza":"ホ","lat":36.731454,"lng":136.694454,"zip":"9291174"},{"town":"浜北","koaza":"一号","lat":36.733447,"lng":136.693183,"zip":"9291174"},{"town":"秋浜","koaza":"ニ","lat":36.730264,"lng":136.697438,"zip":"9291175"},{"town":"浜北","koaza":"ニ","lat":36.73344,"lng":136.696582,"zip":"9291174"},{"town":"秋浜","koaza":"ハ","lat":36.728617,"lng":136.696877,"zip":"9291175"},{"town":"遠塚","koaza":"ニ","lat":36.737249,"lng":136.696829,"zip":"9291173"},{"town":"浜北","koaza":"ハ","lat":36.731393,"lng":136.698102,"zip":"9291174"},{"town":"外日角","koaza":"ロ","lat":36.725212,"lng":136.699467,"zip":"9291176"},{"town":"遠塚","koaza":"ハ","lat":36.736994,"lng":136.699071,"zip":"9291173"},{"town":"外日角","koaza":"イ","lat":36.72384,"lng":136.697578,"zip":"9291176"},{"town":"秋浜","koaza":"イ","lat":36.730533,"lng":136.702789,"zip":"9291175"},{"town":"浜北","koaza":"ロ","lat":36.732029,"lng":136.701406,"zip":"9291174"},{"town":"七窪","koaza":"ヲ","lat":36.730376,"lng":136.706433,"zip":"9291122"},{"town":"七窪","koaza":"ハ","lat":36.724646,"lng":136.70932,"zip":"9291122"},{"town":"宇気","koaza":"子","lat":36.735389,"lng":136.707613,"zip":"9291121"},{"town":"秋浜","koaza":"へ","lat":36.727881,"lng":136.693118,"zip":"9291175"},{"town":"七窪","koaza":"リ","lat":36.727243,"lng":136.709666,"zip":"9291122"},{"town":"浜北","koaza":"イ","lat":36.733824,"lng":136.702398,"zip":"9291174"},{"town":"秋浜","koaza":"ロ","lat":36.72829,"lng":136.702233,"zip":"9291175"},{"town":"遠塚","koaza":"一号","lat":36.735581,"lng":136.693868,"zip":"9291173"},{"town":"七窪","koaza":"イ","lat":36.722569,"lng":136.709897,"zip":"9291122"},{"town":"森","koaza":"ソ","lat":36.721798,"lng":136.709487,"zip":"9291123"},{"town":"森","koaza":"チ","lat":36.719662,"lng":136.710935,"zip":"9291123"},{"town":"森","koaza":"ト","lat":36.719224,"lng":136.712656,"zip":"9291123"},{"town":"白尾","koaza":"イ","lat":36.722015,"lng":136.698564,"zip":"9291177"},{"town":"白尾","koaza":"ト","lat":36.722247,"lng":136.686754,"zip":"9291177"},{"town":"内日角","koaza":"ム","lat":36.715437,"lng":136.70004,"zip":"9291126"},{"town":"森","koaza":"ツ","lat":36.714538,"lng":136.711783,"zip":"9291123"},{"town":"森","koaza":"ヨ","lat":36.713828,"lng":136.704587,"zip":"9291123"},{"town":"笠島","koaza":"と","lat":36.742888,"lng":136.729642,"zip":"9291104"},{"town":"宇気","koaza":"ノ","lat":36.74181,"lng":136.716117,"zip":"9291121"},{"town":"狩鹿野","koaza":"リ","lat":36.705706,"lng":136.712238,"zip":"9291114"},{"town":"狩鹿野","koaza":"ニ","lat":36.710864,"lng":136.712378,"zip":"9291114"},{"town":"狩鹿野","koaza":"三","lat":36.710956,"lng":136.713689,"zip":"9291114"},{"town":"指江","koaza":"チ","lat":36.702109,"lng":136.714494,"zip":"9291113"},{"town":"指江","koaza":"ソ","lat":36.704584,"lng":136.715629,"zip":"9291113"},{"town":"森","koaza":"ヘ","lat":36.719629,"lng":136.712956,"zip":"9291123"},{"town":"指江","koaza":"中","lat":36.703314,"lng":136.716312,"zip":"9291113"},{"town":"森","koaza":"ホ","lat":36.719974,"lng":136.713282,"zip":"9291123"},{"town":"上山田","koaza":"ヌ","lat":36.71491,"lng":136.716799,"zip":"9291115"},{"town":"狩鹿野","koaza":"ハ","lat":36.707174,"lng":136.713495,"zip":"9291114"},{"town":"上山田","koaza":"い","lat":36.716497,"lng":136.7193,"zip":"9291115"},{"town":"下山田","koaza":"ヘ","lat":36.717935,"lng":136.718896,"zip":"9291116"},{"town":"指江","koaza":"東","lat":36.70558,"lng":136.719981,"zip":"9291113"},{"town":"下山田","koaza":"ロ","lat":36.718616,"lng":136.720646,"zip":"9291116"},{"town":"上山田","koaza":"ぬ","lat":36.710725,"lng":136.721103,"zip":"9291115"},{"town":"上山田","koaza":"ヨ","lat":36.71515,"lng":136.716164,"zip":"9291115"},{"town":"上山田","koaza":"ろ","lat":36.715791,"lng":136.723062,"zip":"9291115"},{"town":"下山田","koaza":"イ","lat":36.7195,"lng":136.721517,"zip":"9291116"},{"town":"上山田","koaza":"ロ","lat":36.714086,"lng":136.723024,"zip":"9291115"},{"town":"下山田","koaza":"ワ","lat":36.71781,"lng":136.725094,"zip":"9291116"},{"town":"下山田","koaza":"ト","lat":36.716219,"lng":136.725551,"zip":"9291116"},{"town":"上山田","koaza":"は","lat":36.714751,"lng":136.726045,"zip":"9291115"},{"town":"下山田","koaza":"ヨ","lat":36.720956,"lng":136.725811,"zip":"9291116"},{"town":"下山田","koaza":"リ","lat":36.717834,"lng":136.727385,"zip":"9291116"},{"town":"下山田","koaza":"ヲ","lat":36.720325,"lng":136.727553,"zip":"9291116"},{"town":"上山田","koaza":"ニ","lat":36.714709,"lng":136.727002,"zip":"9291115"},{"town":"森","koaza":"ハ","lat":36.719703,"lng":136.715872,"zip":"9291123"},{"town":"森","koaza":"二","lat":36.720367,"lng":136.713591,"zip":"9291123"},{"town":"狩鹿野","koaza":"ヌ","lat":36.708223,"lng":136.716431,"zip":"9291114"},{"town":"下山田","koaza":"ホ","lat":36.717175,"lng":136.722477,"zip":"9291116"},{"town":"森","koaza":"イ","lat":36.720228,"lng":136.716494,"zip":"9291123"},{"town":"森","koaza":"ロ","lat":36.719987,"lng":136.716151,"zip":"9291123"},{"town":"上山田","koaza":"ヘ","lat":36.712816,"lng":136.725331,"zip":"9291115"},{"town":"上山田","koaza":"チ","lat":36.712822,"lng":136.724908,"zip":"9291115"},{"town":"上山田","koaza":"ト","lat":36.713176,"lng":136.725094,"zip":"9291115"},{"town":"上山田","koaza":"フ","lat":36.714779,"lng":136.724209,"zip":"9291115"},{"town":"上山田","koaza":"ハ","lat":36.713239,"lng":136.724554,"zip":"9291115"},{"town":"上山田","koaza":"と","lat":36.713596,"lng":136.721387,"zip":"9291115"},{"town":"上山田","koaza":"ち","lat":36.714204,"lng":136.719656,"zip":"9291115"},{"town":"指江","koaza":"リ","lat":36.703282,"lng":136.718993,"zip":"9291113"},{"town":"狩鹿野","koaza":"ト","lat":36.707999,"lng":136.711186,"zip":"9291114"},{"town":"上山田","koaza":"を","lat":36.715928,"lng":136.715223,"zip":"9291115"},{"town":"上山田","koaza":"レ","lat":36.717077,"lng":136.717356,"zip":"9291115"},{"town":"上山田","koaza":"マ","lat":36.715774,"lng":136.716445,"zip":"9291115"},{"town":"上山田","koaza":"ソ","lat":36.715795,"lng":136.715294,"zip":"9291115"},{"town":"指江","koaza":"イ","lat":36.703168,"lng":136.717888,"zip":"9291113"},{"town":"指江","koaza":"ト","lat":36.703885,"lng":136.71837,"zip":"9291113"},{"town":"指江","koaza":"ヘ","lat":36.701647,"lng":136.719421,"zip":"9291113"},{"town":"指江","koaza":"ヌ","lat":36.704573,"lng":136.718431,"zip":"9291113"},{"town":"上山田","koaza":"タ","lat":36.714289,"lng":136.714631,"zip":"9291115"},{"town":"上山田","koaza":"る","lat":36.717454,"lng":136.718302,"zip":"9291115"},{"town":"白尾","koaza":"ヘ","lat":36.722738,"lng":136.691084,"zip":"9291177"},{"town":"大崎","koaza":"一","lat":36.710538,"lng":136.694515,"zip":"9291127"},{"town":"指江","koaza":"二","lat":36.706294,"lng":136.719587,"zip":"9291113"},{"town":"宇気","koaza":"レ","lat":36.740299,"lng":136.712733,"zip":"9291121"},{"town":"大崎","koaza":"三","lat":36.704187,"lng":136.685464,"zip":"9291127"},{"town":"大崎","koaza":"ハ","lat":36.701435,"lng":136.684663,"zip":"9291127"},{"town":"大崎","koaza":"六字","lat":36.71095,"lng":136.687097,"zip":"9291127"},{"town":"笠島","koaza":"ロ","lat":36.746761,"lng":136.7297,"zip":"9291104"},{"town":"大崎","koaza":"二","lat":36.705835,"lng":136.689627,"zip":"9291127"},{"town":"大崎","koaza":"ニ","lat":36.703321,"lng":136.68639,"zip":"9291127"},{"town":"横山","koaza":"キ","lat":36.749765,"lng":136.716657,"zip":"9291105"},{"town":"横山","koaza":"ヲ","lat":36.742576,"lng":136.719536,"zip":"9291105"},{"town":"上田名","koaza":"東","lat":36.744948,"lng":136.734198,"zip":"9291102"}]