[{"town":"相生町","koaza":"","lat":37.044229,"lng":136.966663,"zip":"9260044"},{"town":"青葉台町","koaza":"","lat":37.021354,"lng":136.941814,"zip":"9260823"},{"town":"青山町","koaza":"","lat":37.047151,"lng":136.913655,"zip":"9260831"},{"town":"旭町","koaza":"","lat":37.026467,"lng":136.914976,"zip":"9260833"},{"town":"麻生町","koaza":"","lat":37.011201,"lng":137.014983,"zip":"9260372"},{"town":"阿良町","koaza":"","lat":37.047593,"lng":136.963247,"zip":"9260807"},{"town":"新屋町","koaza":"","lat":37.063928,"lng":136.896163,"zip":"9292105"},{"town":"飯川町","koaza":"","lat":37.004521,"lng":136.9366,"zip":"9260826"},{"town":"生駒町","koaza":"","lat":37.046245,"lng":136.965362,"zip":"9260804"},{"town":"石崎町","koaza":"","lat":37.078718,"lng":136.931643,"zip":"9260171"},{"town":"石崎町香島一丁目","koaza":"","lat":37.082797,"lng":136.926828,"zip":"9260000"},{"town":"石崎町香島二丁目","koaza":"","lat":37.080837,"lng":136.925057,"zip":"9260000"},{"town":"石崎町香島三丁目","koaza":"","lat":37.079885,"lng":136.923946,"zip":"9260000"},{"town":"一本杉町","koaza":"","lat":37.047114,"lng":136.962538,"zip":"9260806"},{"town":"今町","koaza":"","lat":37.043548,"lng":136.969152,"zip":"9260055"},{"town":"魚町","koaza":"","lat":37.048879,"lng":136.961185,"zip":"9260864"},{"town":"後畠町","koaza":"","lat":37.025366,"lng":136.970734,"zip":"9260027"},{"town":"鵜浦町","koaza":"","lat":37.093962,"lng":137.042352,"zip":"9260001"},{"town":"馬出町","koaza":"","lat":37.046046,"lng":136.960855,"zip":"9260818"},{"town":"上野ヶ丘町","koaza":"","lat":37.059911,"lng":136.883507,"zip":"9260000"},{"town":"江曽町","koaza":"","lat":36.999372,"lng":136.943155,"zip":"9260825"},{"town":"江泊町","koaza":"","lat":37.065202,"lng":137.04167,"zip":"9260363"},{"town":"大田新町","koaza":"","lat":37.051145,"lng":136.998909,"zip":"9260006"},{"town":"大田町","koaza":"","lat":37.061889,"lng":137.013544,"zip":"9260006"},{"town":"大津町","koaza":"","lat":37.062833,"lng":136.845889,"zip":"9292126"},{"town":"大手町","koaza":"","lat":37.044415,"lng":136.965358,"zip":"9260047"},{"town":"大泊町","koaza":"","lat":36.965914,"lng":137.0162,"zip":"9260384"},{"town":"大野木町","koaza":"","lat":37.076971,"lng":137.045851,"zip":"9260362"},{"town":"岡町","koaza":"","lat":37.059656,"lng":137.022743,"zip":"9260005"},{"town":"奥原町","koaza":"","lat":37.074303,"lng":136.914856,"zip":"9260174"},{"town":"小栗町","koaza":"","lat":37.021405,"lng":137.014873,"zip":"9260373"},{"town":"垣吉町","koaza":"","lat":37.058674,"lng":136.898509,"zip":"9292104"},{"town":"鍜冶町","koaza":"","lat":37.043862,"lng":136.970544,"zip":"9260000"},{"town":"上府中町","koaza":"","lat":37.041323,"lng":136.969626,"zip":"9260053"},{"town":"亀山町","koaza":"","lat":37.046199,"lng":136.963387,"zip":"9260805"},{"town":"川尻町","koaza":"","lat":37.069944,"lng":136.894953,"zip":"9292101"},{"town":"川原町","koaza":"","lat":37.042497,"lng":136.96938,"zip":"9260054"},{"town":"北藤橋町","koaza":"","lat":37.044061,"lng":136.962232,"zip":"9260812"},{"town":"木町","koaza":"","lat":37.04832,"lng":136.962945,"zip":"9260808"},{"town":"熊淵町","koaza":"","lat":36.985434,"lng":137.001549,"zip":"9260387"},{"town":"黒崎町","koaza":"","lat":36.98997,"lng":137.036739,"zip":"9260381"},{"town":"小池川原町","koaza":"","lat":37.020403,"lng":136.971326,"zip":"9260026"},{"town":"柑子町","koaza":"","lat":37.027832,"lng":137.028575,"zip":"9260375"},{"town":"光陽台","koaza":"","lat":37.083487,"lng":136.924475,"zip":"9260177"},{"town":"郡町","koaza":"","lat":37.044981,"lng":136.973345,"zip":"9260051"},{"town":"国下町","koaza":"","lat":37.011151,"lng":136.954417,"zip":"9260037"},{"town":"国分町","koaza":"","lat":37.030864,"lng":136.952926,"zip":"9260821"},{"town":"小島町","koaza":"","lat":37.050128,"lng":136.952767,"zip":"9260852"},{"town":"寿町","koaza":"","lat":37.050525,"lng":136.965313,"zip":"9260861"},{"town":"小丸山台一丁目","koaza":"","lat":37.045466,"lng":136.955252,"zip":"9260855"},{"town":"小丸山台二丁目","koaza":"","lat":37.046476,"lng":136.952234,"zip":"9260855"},{"town":"小丸山台三丁目","koaza":"","lat":37.045975,"lng":136.94991,"zip":"9260855"},{"town":"米町","koaza":"","lat":37.047555,"lng":136.964758,"zip":"9260803"},{"town":"栄町","koaza":"","lat":37.033776,"lng":136.959257,"zip":"9260815"},{"town":"作事町","koaza":"","lat":37.045475,"lng":136.967595,"zip":"9260042"},{"town":"桜町","koaza":"","lat":37.051588,"lng":136.962653,"zip":"9260867"},{"town":"佐野町","koaza":"","lat":37.029355,"lng":137.005054,"zip":"9260013"},{"town":"佐味町","koaza":"","lat":37.042259,"lng":137.002715,"zip":"9260011"},{"town":"沢野町","koaza":"","lat":37.047063,"lng":137.026364,"zip":"9260003"},{"town":"山王町","koaza":"","lat":37.04128,"lng":136.972467,"zip":"9260052"},{"town":"七原町","koaza":"","lat":37.025009,"lng":136.868977,"zip":"9292115"},{"town":"清水平町","koaza":"","lat":37.022663,"lng":137.024938,"zip":"9260374"},{"town":"下町","koaza":"","lat":37.012821,"lng":136.936369,"zip":"9260824"},{"town":"昭和町","koaza":"","lat":37.049365,"lng":136.966688,"zip":"9260801"},{"town":"白浜町","koaza":"","lat":37.067895,"lng":136.875058,"zip":"9292124"},{"town":"白馬町","koaza":"","lat":37.020724,"lng":136.927118,"zip":"9260828"},{"town":"白銀町","koaza":"","lat":37.049507,"lng":136.962395,"zip":"9260863"},{"town":"新保町","koaza":"","lat":37.062203,"lng":136.923665,"zip":"9260845"},{"town":"神明町","koaza":"","lat":37.042644,"lng":136.965358,"zip":"9260046"},{"town":"菅沢町","koaza":"","lat":36.995363,"lng":137.016001,"zip":"9260000"},{"town":"杉森町","koaza":"","lat":37.04918,"lng":136.887792,"zip":"9292112"},{"town":"須能町","koaza":"","lat":37.00594,"lng":137.002533,"zip":"9260000"},{"town":"泉南台","koaza":"","lat":37.078029,"lng":136.921771,"zip":"9260179"},{"town":"袖ケ江町","koaza":"","lat":37.043135,"lng":136.967475,"zip":"9260045"},{"town":"外林町","koaza":"","lat":37.034019,"lng":137.030216,"zip":"9260376"},{"town":"祖浜町","koaza":"","lat":37.069364,"lng":136.931207,"zip":"9260846"},{"town":"高田町","koaza":"","lat":37.053132,"lng":136.897524,"zip":"9292111"},{"town":"竹町","koaza":"","lat":37.026771,"lng":136.976904,"zip":"9260023"},{"town":"橘町","koaza":"","lat":37.044798,"lng":136.96772,"zip":"9260043"},{"town":"田鶴浜町","koaza":"","lat":37.062039,"lng":136.888483,"zip":"9292121"},{"town":"多根町","koaza":"","lat":36.985694,"lng":136.97222,"zip":"9260034"},{"town":"千野町","koaza":"","lat":37.006906,"lng":136.966878,"zip":"9260033"},{"town":"つつじが浜","koaza":"","lat":37.053275,"lng":136.95992,"zip":"9260851"},{"town":"津向町","koaza":"","lat":37.060242,"lng":136.952978,"zip":"9260853"},{"town":"天神川原町","koaza":"","lat":37.031795,"lng":136.971637,"zip":"9260022"},{"town":"東浜町","koaza":"","lat":36.973112,"lng":137.036646,"zip":"9260383"},{"town":"常盤町","koaza":"","lat":37.049063,"lng":136.963302,"zip":"9260862"},{"town":"所口町","koaza":"","lat":37.037924,"lng":136.964588,"zip":"9260814"},{"town":"殿町","koaza":"","lat":37.048047,"lng":137.019756,"zip":"9260004"},{"town":"富岡町","koaza":"","lat":37.050246,"lng":136.960632,"zip":"9260866"},{"town":"中島町上畠","koaza":"","lat":37.131722,"lng":136.813516,"zip":"9292204"},{"town":"中島町大平","koaza":"","lat":37.141889,"lng":136.787217,"zip":"9292207"},{"town":"中島町奥吉田","koaza":"","lat":37.097054,"lng":136.843622,"zip":"9292231"},{"town":"中島町小牧","koaza":"","lat":37.146094,"lng":136.858036,"zip":"9292214"},{"town":"中島町笠師","koaza":"","lat":37.088521,"lng":136.831038,"zip":"9292233"},{"town":"中島町鹿島台","koaza":"","lat":37.127507,"lng":136.881068,"zip":"9292217"},{"town":"中島町河崎","koaza":"","lat":37.106952,"lng":136.842313,"zip":"9292243"},{"town":"中島町河内","koaza":"","lat":37.175413,"lng":136.822943,"zip":"9292201"},{"town":"中島町上町","koaza":"","lat":37.126579,"lng":136.843597,"zip":"9292223"},{"town":"中島町北免田","koaza":"","lat":37.126784,"lng":136.817848,"zip":"9292203"},{"town":"中島町北免田上畠町屋鳥越入会地","koaza":"","lat":37.13483,"lng":136.793545,"zip":"9260000"},{"town":"中島町呉竹","koaza":"","lat":37.194421,"lng":136.819027,"zip":"9260000"},{"town":"中島町崎山","koaza":"","lat":37.105263,"lng":136.853035,"zip":"9292242"},{"town":"中島町塩津","koaza":"","lat":37.080622,"lng":136.847213,"zip":"9292234"},{"town":"中島町瀬嵐","koaza":"","lat":37.117485,"lng":136.879831,"zip":"9292218"},{"town":"中島町外","koaza":"","lat":37.157689,"lng":136.867409,"zip":"9292213"},{"town":"中島町外原","koaza":"","lat":37.115811,"lng":136.784378,"zip":"9292247"},{"town":"中島町田岸","koaza":"","lat":37.162593,"lng":136.872745,"zip":"9292212"},{"town":"中島町土川","koaza":"","lat":37.109252,"lng":136.808037,"zip":"9292246"},{"town":"中島町豊田","koaza":"","lat":37.096802,"lng":136.816649,"zip":"9292245"},{"town":"中島町豊田町","koaza":"","lat":37.104258,"lng":136.829701,"zip":"9292244"},{"town":"中島町鳥越","koaza":"","lat":37.143852,"lng":136.802821,"zip":"9292206"},{"town":"中島町長浦","koaza":"","lat":37.129717,"lng":136.894635,"zip":"9292216"},{"town":"中島町中島","koaza":"","lat":37.120362,"lng":136.858219,"zip":"9292222"},{"town":"中島町西谷内","koaza":"","lat":37.166753,"lng":136.803629,"zip":"9292209"},{"town":"中島町西谷内藤瀬河内入会地","koaza":"","lat":37.150636,"lng":136.831311,"zip":"9260000"},{"town":"中島町浜田","koaza":"","lat":37.113017,"lng":136.839445,"zip":"9292241"},{"town":"中島町深浦","koaza":"","lat":37.136357,"lng":136.884706,"zip":"9292215"},{"town":"中島町藤瀬","koaza":"","lat":37.142741,"lng":136.8228,"zip":"9292227"},{"town":"中島町筆染","koaza":"","lat":37.102439,"lng":136.860528,"zip":"9292232"},{"town":"中島町古江","koaza":"","lat":37.152258,"lng":136.79753,"zip":"9292208"},{"town":"中島町別所","koaza":"","lat":37.17226,"lng":136.845094,"zip":"9292202"},{"town":"中島町町屋","koaza":"","lat":37.136702,"lng":136.806993,"zip":"9292205"},{"town":"中島町町屋上畠北免田入会地","koaza":"","lat":37.129242,"lng":136.79129,"zip":"9260000"},{"town":"中島町宮前","koaza":"","lat":37.129598,"lng":136.835809,"zip":"9292225"},{"town":"中島町谷内","koaza":"","lat":37.137867,"lng":136.841165,"zip":"9292221"},{"town":"中島町山戸田","koaza":"","lat":37.12398,"lng":136.824807,"zip":"9292224"},{"town":"中島町横田","koaza":"","lat":37.138321,"lng":136.830494,"zip":"9292226"},{"town":"中島町横見","koaza":"","lat":37.170792,"lng":136.870703,"zip":"9292211"},{"town":"中挟町","koaza":"","lat":37.005422,"lng":136.951358,"zip":"9260000"},{"town":"なぎの浦","koaza":"","lat":37.054923,"lng":136.957525,"zip":"9260854"},{"town":"西下町","koaza":"","lat":37.041775,"lng":136.891863,"zip":"9292113"},{"town":"西藤橋町","koaza":"","lat":37.043688,"lng":136.95774,"zip":"9260817"},{"town":"塗師町","koaza":"","lat":37.044789,"lng":136.969237,"zip":"9260056"},{"town":"能登島えの目町","koaza":"","lat":37.152822,"lng":137.041603,"zip":"9260203"},{"town":"能登島小浦町","koaza":"","lat":37.135406,"lng":137.040486,"zip":"9260208"},{"town":"能登島久木町","koaza":"","lat":37.149313,"lng":136.912756,"zip":"9260227"},{"town":"能登島向田町","koaza":"","lat":37.129614,"lng":137.002003,"zip":"9260211"},{"town":"能登島佐波町","koaza":"","lat":37.115051,"lng":136.982562,"zip":"9260212"},{"town":"能登島須曽町","koaza":"","lat":37.108407,"lng":136.964229,"zip":"9260213"},{"town":"能登島田尻町","koaza":"","lat":37.1467,"lng":136.907476,"zip":"9260226"},{"town":"能登島通町","koaza":"","lat":37.135721,"lng":136.907461,"zip":"9260225"},{"town":"能登島長崎町","koaza":"","lat":37.142368,"lng":137.034101,"zip":"9260204"},{"town":"能登島閨町","koaza":"","lat":37.13622,"lng":136.936162,"zip":"9260222"},{"town":"能登島野崎町","koaza":"","lat":37.126617,"lng":137.034835,"zip":"9260205"},{"town":"能登島祖母ケ浦町","koaza":"","lat":37.151301,"lng":137.026326,"zip":"9260201"},{"town":"能登島八ケ崎町","koaza":"","lat":37.156839,"lng":137.035815,"zip":"9260202"},{"town":"能登島半浦町","koaza":"","lat":37.114085,"lng":136.94586,"zip":"9260223"},{"town":"能登島日出ケ島町","koaza":"","lat":37.117617,"lng":137.028476,"zip":"9260206"},{"town":"能登島百万石町","koaza":"","lat":37.140271,"lng":136.914206,"zip":"9260224"},{"town":"能登島二穴町","koaza":"","lat":37.119411,"lng":137.016998,"zip":"9260207"},{"town":"能登島別所町","koaza":"","lat":37.121674,"lng":136.963007,"zip":"9260214"},{"town":"能登島曲町","koaza":"","lat":37.137689,"lng":136.979515,"zip":"9260216"},{"town":"能登島南町","koaza":"","lat":37.135773,"lng":136.959415,"zip":"9260215"},{"town":"能登島無関町","koaza":"","lat":37.136826,"lng":136.94876,"zip":"9260221"},{"town":"八田町","koaza":"","lat":36.997474,"lng":136.960315,"zip":"9260035"},{"town":"花園町","koaza":"","lat":36.982449,"lng":137.043951,"zip":"9260382"},{"town":"東三階町","koaza":"","lat":37.021407,"lng":136.914857,"zip":"9260834"},{"town":"東山町","koaza":"","lat":37.057235,"lng":136.904697,"zip":"9292103"},{"town":"桧物町","koaza":"","lat":37.045296,"lng":136.965262,"zip":"9260048"},{"town":"深見町","koaza":"","lat":37.058577,"lng":136.86689,"zip":"9292125"},{"town":"藤野町","koaza":"","lat":37.029098,"lng":136.969435,"zip":"9260028"},{"town":"藤橋町","koaza":"","lat":37.041154,"lng":136.941183,"zip":"9260816"},{"town":"府中町","koaza":"","lat":37.047459,"lng":136.968611,"zip":"9260041"},{"town":"舟尾町","koaza":"","lat":37.068077,"lng":136.905635,"zip":"9292102"},{"town":"古府町","koaza":"","lat":37.015361,"lng":136.970497,"zip":"9260031"},{"town":"古城町","koaza":"","lat":37.013729,"lng":136.978955,"zip":"9260025"},{"town":"古屋敷町","koaza":"","lat":37.02343,"lng":136.975325,"zip":"9260024"},{"town":"細口町","koaza":"","lat":37.029414,"lng":136.936711,"zip":"9260822"},{"town":"松百町","koaza":"","lat":37.061844,"lng":136.943295,"zip":"9260841"},{"town":"松本町","koaza":"","lat":37.049099,"lng":136.959409,"zip":"9260865"},{"town":"万行町","koaza":"","lat":37.032828,"lng":136.990047,"zip":"9260012"},{"town":"三島町","koaza":"","lat":37.04836,"lng":136.965358,"zip":"9260802"},{"town":"御祓町","koaza":"","lat":37.042815,"lng":136.963605,"zip":"9260811"},{"town":"湊町一丁目","koaza":"","lat":37.045947,"lng":136.97027,"zip":"9260058"},{"town":"湊町二丁目","koaza":"","lat":37.04579,"lng":136.97191,"zip":"9260058"},{"town":"南ケ丘町","koaza":"","lat":37.018995,"lng":136.963679,"zip":"9260032"},{"town":"南藤橋町","koaza":"","lat":37.041983,"lng":136.960996,"zip":"9260813"},{"town":"三引町","koaza":"","lat":37.054094,"lng":136.876622,"zip":"9292123"},{"town":"三室町","koaza":"","lat":37.092983,"lng":137.022957,"zip":"9260007"},{"town":"本府中町","koaza":"","lat":37.036566,"lng":136.970248,"zip":"9260021"},{"town":"矢田新町","koaza":"","lat":37.04861,"lng":136.979996,"zip":"9260015"},{"town":"矢田町","koaza":"","lat":37.027428,"lng":136.983357,"zip":"9260014"},{"town":"山崎町","koaza":"","lat":36.975605,"lng":137.012767,"zip":"9260385"},{"town":"大和町","koaza":"","lat":37.042505,"lng":136.977021,"zip":"9260016"},{"town":"八幡町","koaza":"","lat":37.018275,"lng":136.94811,"zip":"9260038"},{"town":"湯川町","koaza":"","lat":37.075755,"lng":137.029741,"zip":"9260002"},{"town":"吉田町","koaza":"","lat":37.03451,"lng":136.870626,"zip":"9292116"},{"town":"若林町","koaza":"","lat":37.002706,"lng":136.927887,"zip":"9260827"},{"town":"和倉町","koaza":"","lat":37.084833,"lng":136.914215,"zip":"9260175"},{"town":"和倉町ひばり一丁目","koaza":"","lat":37.086987,"lng":136.924315,"zip":"9260176"},{"town":"和倉町ひばり二丁目","koaza":"","lat":37.084966,"lng":136.923682,"zip":"9260176"},{"town":"和倉町ひばり三丁目","koaza":"","lat":37.083159,"lng":136.919989,"zip":"9260176"},{"town":"佐々波町","koaza":"","lat":37.008624,"lng":137.036139,"zip":"9260371"},{"town":"庵町","koaza":"","lat":37.03893,"lng":137.038361,"zip":"9260366"},{"town":"直津町","koaza":"","lat":37.049452,"lng":136.921517,"zip":"9260844"},{"town":"赤浦町","koaza":"","lat":37.051434,"lng":136.937172,"zip":"9260843"},{"town":"赤浦新町","koaza":"","lat":37.056986,"lng":136.931029,"zip":"9260000"},{"town":"池崎町","koaza":"","lat":37.037379,"lng":136.914258,"zip":"9260831"},{"town":"盤若野町","koaza":"","lat":37.030723,"lng":136.907608,"zip":"9260832"},{"town":"町屋町","koaza":"","lat":37.03202,"lng":136.900677,"zip":"9260836"},{"town":"満仁町","koaza":"","lat":37.040749,"lng":136.899463,"zip":"9260838"},{"town":"温井町","koaza":"","lat":37.034427,"lng":136.896773,"zip":"9260837"},{"town":"西三階町","koaza":"","lat":37.022678,"lng":136.89868,"zip":"9260835"},{"town":"伊久留町","koaza":"","lat":37.027598,"lng":136.883353,"zip":"9292114"},{"town":"奥原町","koaza":"ク","lat":37.084157,"lng":136.904591,"zip":"9260174"},{"town":"奥原町","koaza":"マ","lat":37.084755,"lng":136.906207,"zip":"9260174"},{"town":"奥原町","koaza":"三","lat":37.08717,"lng":136.906555,"zip":"9260174"},{"town":"青山町","koaza":"い","lat":37.045473,"lng":136.91322,"zip":"9260831"},{"town":"和倉町","koaza":"六","lat":37.088916,"lng":136.910163,"zip":"9260175"},{"town":"和倉町","koaza":"タ","lat":37.089227,"lng":136.908641,"zip":"9260175"},{"town":"直津町","koaza":"ワ","lat":37.051435,"lng":136.921398,"zip":"9260844"},{"town":"奥原町","koaza":"下","lat":37.074081,"lng":136.91507,"zip":"9260174"},{"town":"和倉町","koaza":"レ","lat":37.087538,"lng":136.912439,"zip":"9260175"},{"town":"奥原町","koaza":"ナ","lat":37.06923,"lng":136.912303,"zip":"9260174"},{"town":"奥原町","koaza":"タ","lat":37.070153,"lng":136.913633,"zip":"9260174"},{"town":"和倉町","koaza":"ヨ","lat":37.089182,"lng":136.914204,"zip":"9260175"},{"town":"奥原町","koaza":"上","lat":37.073024,"lng":136.916535,"zip":"9260174"},{"town":"和倉町","koaza":"ツ","lat":37.085786,"lng":136.914498,"zip":"9260175"},{"town":"和倉町","koaza":"ソ","lat":37.087006,"lng":136.914652,"zip":"9260175"},{"town":"和倉町","koaza":"カ","lat":37.087636,"lng":136.915338,"zip":"9260175"},{"town":"直津町","koaza":"子","lat":37.056971,"lng":136.91583,"zip":"9260844"},{"town":"直津町","koaza":"カ","lat":37.050261,"lng":136.920693,"zip":"9260844"},{"town":"和倉町","koaza":"ナ","lat":37.086068,"lng":136.915978,"zip":"9260175"},{"town":"和倉町","koaza":"ワ","lat":37.088743,"lng":136.916735,"zip":"9260175"},{"town":"和倉町","koaza":"ラ","lat":37.087032,"lng":136.916715,"zip":"9260175"},{"town":"和倉町","koaza":"ク","lat":37.085648,"lng":136.917321,"zip":"9260175"},{"town":"和倉町","koaza":"三","lat":37.084855,"lng":136.918225,"zip":"9260175"},{"town":"和倉町","koaza":"ヲ","lat":37.08815,"lng":136.918163,"zip":"9260175"},{"town":"和倉町","koaza":"二","lat":37.084487,"lng":136.919947,"zip":"9260175"},{"town":"和倉町","koaza":"和歌崎","lat":37.088537,"lng":136.920199,"zip":"9260175"},{"town":"和倉町","koaza":"ホ","lat":37.084299,"lng":136.919637,"zip":"9260175"},{"town":"和倉町","koaza":"ニ","lat":37.085974,"lng":136.921924,"zip":"9260175"},{"town":"石崎町","koaza":"ヌ","lat":37.080233,"lng":136.922087,"zip":"9260171"},{"town":"奥原町","koaza":"ロ","lat":37.07142,"lng":136.920798,"zip":"9260174"},{"town":"和倉町","koaza":"ル","lat":37.087301,"lng":136.921304,"zip":"9260175"},{"town":"祖浜町","koaza":"三","lat":37.0725,"lng":136.922776,"zip":"9260846"},{"town":"和倉町","koaza":"リ","lat":37.085621,"lng":136.921506,"zip":"9260175"},{"town":"石崎町","koaza":"タ","lat":37.076228,"lng":136.924406,"zip":"9260171"},{"town":"直津町","koaza":"ニ","lat":37.054319,"lng":136.925032,"zip":"9260844"},{"town":"石崎町","koaza":"ヨ","lat":37.077077,"lng":136.926533,"zip":"9260171"},{"town":"石崎町","koaza":"レ","lat":37.074535,"lng":136.927594,"zip":"9260171"},{"town":"祖浜町","koaza":"弐","lat":37.072486,"lng":136.92547,"zip":"9260846"},{"town":"新保町","koaza":"マ","lat":37.06484,"lng":136.931463,"zip":"9260845"},{"town":"祖浜町","koaza":"ヲ","lat":37.071423,"lng":136.926426,"zip":"9260846"},{"town":"祖浜町","koaza":"カ","lat":37.072053,"lng":136.928404,"zip":"9260846"},{"town":"石崎町","koaza":"ワ","lat":37.080701,"lng":136.929578,"zip":"9260171"},{"town":"石崎町","koaza":"甲","lat":37.082295,"lng":136.927835,"zip":"9260171"},{"town":"赤浦新町","koaza":"リ","lat":37.05604,"lng":136.92958,"zip":"9260000"},{"town":"石崎町","koaza":"乙","lat":37.082868,"lng":136.933067,"zip":"9260171"},{"town":"石崎町","koaza":"チ","lat":37.085497,"lng":136.930058,"zip":"9260171"},{"town":"石崎町","koaza":"テ","lat":37.073441,"lng":136.930776,"zip":"9260171"},{"town":"石崎町","koaza":"ケ","lat":37.085147,"lng":136.934807,"zip":"9260171"},{"town":"石崎町","koaza":"ウ","lat":37.072228,"lng":136.93138,"zip":"9260171"},{"town":"石崎町","koaza":"ツ","lat":37.077523,"lng":136.931396,"zip":"9260171"},{"town":"赤浦町","koaza":"カ","lat":37.055491,"lng":136.933793,"zip":"9260843"},{"town":"石崎町","koaza":"ニ","lat":37.076874,"lng":136.933301,"zip":"9260171"},{"town":"石崎町","koaza":"ロ","lat":37.074844,"lng":136.934492,"zip":"9260171"},{"town":"石崎町","koaza":"ホ","lat":37.078417,"lng":136.93268,"zip":"9260171"},{"town":"石崎町","koaza":"ハ","lat":37.077336,"lng":136.93447,"zip":"9260171"},{"town":"石崎町","koaza":"丙","lat":37.079766,"lng":136.934018,"zip":"9260171"},{"town":"祖浜町","koaza":"ハ","lat":37.070924,"lng":136.935361,"zip":"9260846"},{"town":"赤浦町","koaza":"ム","lat":37.056849,"lng":136.934522,"zip":"9260843"},{"town":"祖浜町","koaza":"ロ","lat":37.068992,"lng":136.934403,"zip":"9260846"},{"town":"石崎町","koaza":"一","lat":37.077865,"lng":136.935081,"zip":"9260171"},{"town":"石崎町","koaza":"丁","lat":37.080012,"lng":136.935136,"zip":"9260171"},{"town":"石崎町","koaza":"イ","lat":37.073175,"lng":136.934769,"zip":"9260171"},{"town":"新保町","koaza":"ソ","lat":37.068264,"lng":136.936829,"zip":"9260845"},{"town":"松百町","koaza":"三","lat":37.065351,"lng":136.940887,"zip":"9260841"},{"town":"赤浦町","koaza":"ワ","lat":37.050998,"lng":136.936633,"zip":"9260843"},{"town":"新保町","koaza":"レ","lat":37.068288,"lng":136.935198,"zip":"9260845"},{"town":"祖浜町","koaza":"イ","lat":37.070648,"lng":136.936057,"zip":"9260846"},{"town":"新保町","koaza":"タ","lat":37.067169,"lng":136.936216,"zip":"9260845"},{"town":"赤浦町","koaza":"ヌ","lat":37.051476,"lng":136.940075,"zip":"9260843"},{"town":"石崎町","koaza":"マ","lat":37.081113,"lng":136.939459,"zip":"9260171"},{"town":"赤浦町","koaza":"ウ","lat":37.05919,"lng":136.937517,"zip":"9260843"},{"town":"松百町","koaza":"ワ","lat":37.067125,"lng":136.937989,"zip":"9260841"},{"town":"新保町","koaza":"カ","lat":37.069034,"lng":136.937352,"zip":"9260845"},{"town":"松百町","koaza":"ヲ","lat":37.066146,"lng":136.937813,"zip":"9260841"},{"town":"松百町","koaza":"ヌ","lat":37.065069,"lng":136.939238,"zip":"9260841"},{"town":"松百町","koaza":"カ","lat":37.066471,"lng":136.940103,"zip":"9260841"},{"town":"松百町","koaza":"リ","lat":37.063923,"lng":136.942121,"zip":"9260841"},{"town":"松百町","koaza":"二","lat":37.066546,"lng":136.942123,"zip":"9260841"},{"town":"小島町","koaza":"六","lat":37.049796,"lng":136.948399,"zip":"9260852"},{"town":"松百町","koaza":"六","lat":37.058663,"lng":136.9432,"zip":"9260841"},{"town":"松百町","koaza":"八","lat":37.06376,"lng":136.943976,"zip":"9260841"},{"town":"松百町","koaza":"一","lat":37.060706,"lng":136.942987,"zip":"9260841"},{"town":"小島町","koaza":"九","lat":37.048376,"lng":136.94827,"zip":"9260852"},{"town":"松百町","koaza":"七","lat":37.061606,"lng":136.946241,"zip":"9260841"},{"town":"津向町","koaza":"ヘ","lat":37.056712,"lng":136.948186,"zip":"9260853"},{"town":"小島町","koaza":"五","lat":37.052067,"lng":136.949944,"zip":"9260852"},{"town":"津向町","koaza":"ホ","lat":37.055719,"lng":136.952652,"zip":"9260853"},{"town":"津向町","koaza":"松山","lat":37.05769,"lng":136.95078,"zip":"9260853"},{"town":"津向町","koaza":"ニ","lat":37.050417,"lng":136.950749,"zip":"9260853"},{"town":"小島町","koaza":"三","lat":37.056298,"lng":136.951264,"zip":"9260852"},{"town":"小島町","koaza":"チ","lat":37.048175,"lng":136.952237,"zip":"9260852"},{"town":"津向町","koaza":"ト","lat":37.056932,"lng":136.954506,"zip":"9260853"},{"town":"小島町","koaza":"西部","lat":37.045191,"lng":136.951967,"zip":"9260852"},{"town":"小島町","koaza":"十","lat":37.050008,"lng":136.952039,"zip":"9260852"},{"town":"小島町","koaza":"リ","lat":37.050245,"lng":136.952554,"zip":"9260852"},{"town":"小島町","koaza":"レ","lat":37.05531,"lng":136.953234,"zip":"9260852"},{"town":"津向町","koaza":"ロ","lat":37.047913,"lng":136.953976,"zip":"9260853"},{"town":"小島町","koaza":"ホ","lat":37.051609,"lng":136.957225,"zip":"9260852"},{"town":"松百町","koaza":"五","lat":37.056487,"lng":136.945768,"zip":"9260841"},{"town":"和倉町","koaza":"一","lat":37.089995,"lng":136.916631,"zip":"9260175"},{"town":"奥原町","koaza":"十一","lat":37.076941,"lng":136.920447,"zip":"9260174"},{"town":"奥原町","koaza":"十","lat":37.074984,"lng":136.919254,"zip":"9260174"},{"town":"奥原町","koaza":"ア","lat":37.077666,"lng":136.91732,"zip":"9260174"},{"town":"奥原町","koaza":"ヌ","lat":37.072821,"lng":136.915664,"zip":"9260174"},{"town":"奥原町","koaza":"十二","lat":37.073185,"lng":136.918566,"zip":"9260174"},{"town":"奥原町","koaza":"十三","lat":37.068321,"lng":136.912682,"zip":"9260174"},{"town":"奥原町","koaza":"リ","lat":37.073246,"lng":136.917355,"zip":"9260174"},{"town":"和倉町","koaza":"子","lat":37.085233,"lng":136.915835,"zip":"9260175"},{"town":"和倉町","koaza":"五","lat":37.085914,"lng":136.912017,"zip":"9260175"},{"town":"奥原町","koaza":"ワ","lat":37.075348,"lng":136.916097,"zip":"9260174"},{"town":"石崎町","koaza":"カ","lat":37.078502,"lng":136.931457,"zip":"9260171"},{"town":"石崎町","koaza":"ソ","lat":37.076308,"lng":136.930764,"zip":"9260171"},{"town":"祖浜町","koaza":"五","lat":37.070164,"lng":136.933346,"zip":"9260846"},{"town":"松百町","koaza":"四","lat":37.064677,"lng":136.936107,"zip":"9260841"},{"town":"松百町","koaza":"チ","lat":37.062714,"lng":136.941761,"zip":"9260841"},{"town":"松百町","koaza":"イ","lat":37.06137,"lng":136.944428,"zip":"9260841"},{"town":"赤浦町","koaza":"え","lat":37.058335,"lng":136.940976,"zip":"9260843"},{"town":"赤浦町","koaza":"五","lat":37.054053,"lng":136.936035,"zip":"9260843"},{"town":"赤浦町","koaza":"ヨ","lat":37.054382,"lng":136.931098,"zip":"9260843"},{"town":"直津町","koaza":"ヨ","lat":37.048508,"lng":136.924434,"zip":"9260844"},{"town":"石崎町","koaza":"ヲ","lat":37.080153,"lng":136.928729,"zip":"9260171"},{"town":"石崎町","koaza":"コ","lat":37.079845,"lng":136.928996,"zip":"9260171"},{"town":"石崎町","koaza":"エ","lat":37.074985,"lng":136.930499,"zip":"9260171"},{"town":"赤浦町","koaza":"ラ","lat":37.058984,"lng":136.929807,"zip":"9260843"},{"town":"赤浦町","koaza":"ノ","lat":37.061088,"lng":136.935567,"zip":"9260843"},{"town":"赤浦町","koaza":"オ","lat":37.062114,"lng":136.935006,"zip":"9260843"},{"town":"津向町","koaza":"チ","lat":37.059385,"lng":136.947796,"zip":"9260853"},{"town":"小島町","koaza":"ル","lat":37.052707,"lng":136.954011,"zip":"9260852"},{"town":"小島町","koaza":"ロ","lat":37.04697,"lng":136.955459,"zip":"9260852"},{"town":"小島町","koaza":"ナ","lat":37.064417,"lng":136.955181,"zip":"9260852"},{"town":"小島町","koaza":"ヌ","lat":37.052332,"lng":136.955535,"zip":"9260852"},{"town":"津向町","koaza":"和田","lat":37.062914,"lng":136.95803,"zip":"9260853"},{"town":"津向町","koaza":"イ","lat":37.047688,"lng":136.955433,"zip":"9260853"},{"town":"小島町","koaza":"大開地","lat":37.053547,"lng":136.956361,"zip":"9260852"},{"town":"津向町","koaza":"浜高","lat":37.066153,"lng":136.95919,"zip":"9260853"},{"town":"小島町","koaza":"イ","lat":37.044406,"lng":136.95669,"zip":"9260852"},{"town":"小島町","koaza":"ト","lat":37.047918,"lng":136.95633,"zip":"9260852"},{"town":"小島町","koaza":"ヘ","lat":37.049806,"lng":136.956492,"zip":"9260852"},{"town":"小島町","koaza":"ハ","lat":37.047177,"lng":136.958545,"zip":"9260852"},{"town":"小島町","koaza":"十七","lat":37.044397,"lng":136.957047,"zip":"9260852"},{"town":"西藤橋町","koaza":"カ","lat":37.044532,"lng":136.957594,"zip":"9260817"},{"town":"松本町","koaza":"ニ","lat":37.048826,"lng":136.958969,"zip":"9260865"},{"town":"西藤橋町","koaza":"御貸屋山","lat":37.044897,"lng":136.95934,"zip":"9260817"},{"town":"馬出町","koaza":"ハ","lat":37.045201,"lng":136.959902,"zip":"9260818"},{"town":"小島町","koaza":"ニ","lat":37.048011,"lng":136.958464,"zip":"9260852"},{"town":"馬出町","koaza":"七十五","lat":37.045989,"lng":136.960367,"zip":"9260818"},{"town":"馬出町","koaza":"ソ","lat":37.047076,"lng":136.96011,"zip":"9260818"},{"town":"馬出町","koaza":"ツ","lat":37.046793,"lng":136.961589,"zip":"9260818"},{"town":"北藤橋町","koaza":"ロ","lat":37.044221,"lng":136.962277,"zip":"9260812"},{"town":"馬出町","koaza":"ナ","lat":37.046207,"lng":136.962239,"zip":"9260818"},{"town":"御祓町","koaza":"子","lat":37.044381,"lng":136.963108,"zip":"9260811"},{"town":"御祓町","koaza":"ホ","lat":37.04403,"lng":136.963122,"zip":"9260811"},{"town":"御祓町","koaza":"イ","lat":37.043393,"lng":136.964191,"zip":"9260811"},{"town":"馬出町","koaza":"イ","lat":37.045482,"lng":136.963593,"zip":"9260818"},{"town":"袖ケ江町","koaza":"イ","lat":37.043921,"lng":136.967344,"zip":"9260045"},{"town":"郡町","koaza":"二","lat":37.044997,"lng":136.973525,"zip":"9260051"},{"town":"矢田新町","koaza":"チ","lat":37.044761,"lng":136.97549,"zip":"9260015"},{"town":"矢田新町","koaza":"イ","lat":37.045922,"lng":136.975655,"zip":"9260015"},{"town":"大和町","koaza":"チ","lat":37.043668,"lng":136.97569,"zip":"9260016"},{"town":"矢田新町","koaza":"ハ","lat":37.047527,"lng":136.977159,"zip":"9260015"},{"town":"矢田新町","koaza":"ニ","lat":37.049073,"lng":136.976792,"zip":"9260015"},{"town":"矢田新町","koaza":"ロ","lat":37.047116,"lng":136.979157,"zip":"9260015"},{"town":"大和町","koaza":"ト","lat":37.04345,"lng":136.977462,"zip":"9260016"},{"town":"矢田町","koaza":"一","lat":37.043733,"lng":136.98027,"zip":"9260014"},{"town":"矢田町","koaza":"ロ","lat":37.046561,"lng":136.978949,"zip":"9260014"},{"town":"矢田新町","koaza":"ホ","lat":37.047705,"lng":136.979706,"zip":"9260015"},{"town":"矢田新町","koaza":"六十八","lat":37.047578,"lng":136.978352,"zip":"9260015"},{"town":"矢田町","koaza":"と","lat":37.044991,"lng":136.978608,"zip":"9260014"},{"town":"矢田新町","koaza":"六十七","lat":37.048611,"lng":136.979321,"zip":"9260015"},{"town":"矢田新町","koaza":"乙","lat":37.049267,"lng":136.980493,"zip":"9260015"},{"town":"矢田新町","koaza":"ト","lat":37.045336,"lng":136.981279,"zip":"9260015"},{"town":"矢田町","koaza":"二","lat":37.040902,"lng":136.980404,"zip":"9260014"},{"town":"万行町","koaza":"二","lat":37.044886,"lng":136.983833,"zip":"9260012"},{"town":"万行町","koaza":"一","lat":37.047788,"lng":136.984931,"zip":"9260012"},{"town":"万行町","koaza":"六","lat":37.044887,"lng":136.987565,"zip":"9260012"},{"town":"万行町","koaza":"四","lat":37.046814,"lng":136.985386,"zip":"9260012"},{"town":"万行町","koaza":"三","lat":37.045412,"lng":136.986536,"zip":"9260012"},{"town":"万行町","koaza":"五","lat":37.048718,"lng":136.98851,"zip":"9260012"},{"town":"万行町","koaza":"七十六","lat":37.045205,"lng":136.989245,"zip":"9260012"},{"town":"佐味町","koaza":"一","lat":37.04975,"lng":136.990669,"zip":"9260011"},{"town":"万行町","koaza":"十一","lat":37.043951,"lng":136.990015,"zip":"9260012"},{"town":"佐味町","koaza":"イ","lat":37.048921,"lng":136.992384,"zip":"9260011"},{"town":"万行町","koaza":"十","lat":37.044266,"lng":136.99204,"zip":"9260012"},{"town":"佐味町","koaza":"ロ","lat":37.049143,"lng":136.993649,"zip":"9260011"},{"town":"万行町","koaza":"八","lat":37.044474,"lng":136.992932,"zip":"9260012"},{"town":"佐味町","koaza":"ハ","lat":37.050759,"lng":136.993744,"zip":"9260011"},{"town":"佐味町","koaza":"三十","lat":37.046892,"lng":136.996123,"zip":"9260011"},{"town":"佐味町","koaza":"タ","lat":37.044413,"lng":136.994947,"zip":"9260011"},{"town":"佐味町","koaza":"三","lat":37.052165,"lng":136.99463,"zip":"9260011"},{"town":"佐味町","koaza":"森山","lat":37.046535,"lng":136.994371,"zip":"9260011"},{"town":"佐味町","koaza":"ニ","lat":37.050409,"lng":136.995651,"zip":"9260011"},{"town":"佐味町","koaza":"二十八","lat":37.045438,"lng":136.995843,"zip":"9260011"},{"town":"佐味町","koaza":"ホ","lat":37.052257,"lng":136.995382,"zip":"9260011"},{"town":"佐味町","koaza":"三十二","lat":37.044546,"lng":136.995746,"zip":"9260011"},{"town":"佐味町","koaza":"二十九","lat":37.047413,"lng":136.996938,"zip":"9260011"},{"town":"大田町","koaza":"イ","lat":37.053893,"lng":136.997076,"zip":"9260006"},{"town":"佐味町","koaza":"十","lat":37.047698,"lng":136.998211,"zip":"9260011"},{"town":"矢田町","koaza":"ニ","lat":37.045918,"lng":136.978201,"zip":"9260014"},{"town":"矢田新町","koaza":"ヘ","lat":37.04875,"lng":136.979766,"zip":"9260015"},{"town":"矢田町","koaza":"ハ","lat":37.046007,"lng":136.980769,"zip":"9260014"},{"town":"西藤橋町","koaza":"ハ","lat":37.044069,"lng":136.959612,"zip":"9260817"},{"town":"西藤橋町","koaza":"ニ","lat":37.044702,"lng":136.958092,"zip":"9260817"},{"town":"西藤橋町","koaza":"レ","lat":37.044895,"lng":136.958766,"zip":"9260817"},{"town":"北藤橋町","koaza":"子","lat":37.044255,"lng":136.961511,"zip":"9260812"},{"town":"津向町","koaza":"ハ","lat":37.052991,"lng":136.954487,"zip":"9260853"},{"town":"松百町","koaza":"ト","lat":37.060121,"lng":136.945025,"zip":"9260841"},{"town":"津向町","koaza":"野中","lat":37.063182,"lng":136.954768,"zip":"9260853"},{"town":"小島町","koaza":"四","lat":37.054377,"lng":136.948583,"zip":"9260852"},{"town":"白馬町","koaza":"三十六","lat":37.023862,"lng":136.933504,"zip":"9260828"},{"town":"下町","koaza":"己","lat":37.016791,"lng":136.934546,"zip":"9260824"},{"town":"藤橋町","koaza":"キ","lat":37.03975,"lng":136.939372,"zip":"9260816"},{"town":"細口町","koaza":"マイダリ山","lat":37.034617,"lng":136.935735,"zip":"9260822"},{"town":"飯川町","koaza":"き","lat":37.004438,"lng":136.934633,"zip":"9260826"},{"town":"白馬町","koaza":"五十七","lat":37.023681,"lng":136.937295,"zip":"9260828"},{"town":"白馬町","koaza":"三十四","lat":37.021814,"lng":136.934606,"zip":"9260828"},{"town":"白馬町","koaza":"七十","lat":37.02069,"lng":136.935676,"zip":"9260828"},{"town":"飯川町","koaza":"け","lat":37.004926,"lng":136.936386,"zip":"9260826"},{"town":"飯川町","koaza":"せ","lat":37.006481,"lng":136.936122,"zip":"9260826"},{"town":"白馬町","koaza":"ヲ","lat":37.021169,"lng":136.9348,"zip":"9260828"},{"town":"下町","koaza":"巳","lat":37.011249,"lng":136.935523,"zip":"9260824"},{"town":"下町","koaza":"コ","lat":37.008983,"lng":136.935904,"zip":"9260824"},{"town":"下町","koaza":"ケ","lat":37.011235,"lng":136.936965,"zip":"9260824"},{"town":"白馬町","koaza":"五十九","lat":37.022883,"lng":136.937758,"zip":"9260828"},{"town":"下町","koaza":"マ","lat":37.0134,"lng":136.938076,"zip":"9260824"},{"town":"下町","koaza":"オ","lat":37.012214,"lng":136.938326,"zip":"9260824"},{"town":"飯川町","koaza":"く","lat":37.004322,"lng":136.937661,"zip":"9260826"},{"town":"白馬町","koaza":"五十六","lat":37.025687,"lng":136.938559,"zip":"9260828"},{"town":"下町","koaza":"ヤ","lat":37.010378,"lng":136.938251,"zip":"9260824"},{"town":"国分町","koaza":"ム","lat":37.036996,"lng":136.943824,"zip":"9260821"},{"town":"飯川町","koaza":"十一","lat":37.004329,"lng":136.939522,"zip":"9260826"},{"town":"飯川町","koaza":"こ","lat":37.007869,"lng":136.939709,"zip":"9260826"},{"town":"下町","koaza":"井","lat":37.013162,"lng":136.93979,"zip":"9260824"},{"town":"飯川町","koaza":"し","lat":37.009676,"lng":136.939156,"zip":"9260826"},{"town":"下町","koaza":"丙","lat":37.014951,"lng":136.93877,"zip":"9260824"},{"town":"青葉台町","koaza":"甲","lat":37.021727,"lng":136.939159,"zip":"9260823"},{"town":"飯川町","koaza":"ケ","lat":37.005424,"lng":136.939228,"zip":"9260826"},{"town":"細口町","koaza":"に","lat":37.028459,"lng":136.94025,"zip":"9260822"},{"town":"下町","koaza":"庚","lat":37.015636,"lng":136.939766,"zip":"9260824"},{"town":"飯川町","koaza":"十三","lat":37.007047,"lng":136.940981,"zip":"9260826"},{"town":"飯川町","koaza":"十二","lat":37.006026,"lng":136.939921,"zip":"9260826"},{"town":"飯川町","koaza":"四十九","lat":37.005988,"lng":136.93936,"zip":"9260826"},{"town":"白馬町","koaza":"五十八","lat":37.024302,"lng":136.940516,"zip":"9260828"},{"town":"下町","koaza":"ク","lat":37.011633,"lng":136.939826,"zip":"9260824"},{"town":"下町","koaza":"ム","lat":37.010838,"lng":136.9401,"zip":"9260824"},{"town":"下町","koaza":"ウ","lat":37.01158,"lng":136.941427,"zip":"9260824"},{"town":"下町","koaza":"タ","lat":37.016258,"lng":136.941079,"zip":"9260824"},{"town":"下町","koaza":"ヨ","lat":37.018002,"lng":136.94205,"zip":"9260824"},{"town":"飯川町","koaza":"さ","lat":37.009088,"lng":136.941998,"zip":"9260826"},{"town":"下町","koaza":"レ","lat":37.01306,"lng":136.941048,"zip":"9260824"},{"town":"細口町","koaza":"ろ","lat":37.026575,"lng":136.942573,"zip":"9260822"},{"town":"細口町","koaza":"へ","lat":37.029248,"lng":136.941872,"zip":"9260822"},{"town":"下町","koaza":"子","lat":37.012133,"lng":136.942183,"zip":"9260824"},{"town":"細口町","koaza":"い","lat":37.027863,"lng":136.946783,"zip":"9260822"},{"town":"下町","koaza":"ソ","lat":37.011757,"lng":136.942821,"zip":"9260824"},{"town":"江曽町","koaza":"ウ","lat":37.005345,"lng":136.94259,"zip":"9260825"},{"town":"下町","koaza":"ナ","lat":37.010444,"lng":136.943234,"zip":"9260824"},{"town":"下町","koaza":"ツ","lat":37.012057,"lng":136.943644,"zip":"9260824"},{"town":"飯川町","koaza":"一","lat":37.007101,"lng":136.942623,"zip":"9260826"},{"town":"下町","koaza":"ラ","lat":37.00894,"lng":136.943317,"zip":"9260824"},{"town":"下町","koaza":"ヌ","lat":37.015697,"lng":136.942943,"zip":"9260824"},{"town":"下町","koaza":"ル","lat":37.016997,"lng":136.94368,"zip":"9260824"},{"town":"八幡町","koaza":"カ","lat":37.022769,"lng":136.947999,"zip":"9260038"},{"town":"細口町","koaza":"ニ","lat":37.028267,"lng":136.943303,"zip":"9260822"},{"town":"江曽町","koaza":"ム","lat":37.006506,"lng":136.942739,"zip":"9260825"},{"town":"下町","koaza":"ホ","lat":37.01322,"lng":136.943221,"zip":"9260824"},{"town":"江曽町","koaza":"ラ","lat":37.006582,"lng":136.943357,"zip":"9260825"},{"town":"細口町","koaza":"ハ","lat":37.028618,"lng":136.944172,"zip":"9260822"},{"town":"江曽町","koaza":"ナ","lat":37.008094,"lng":136.94385,"zip":"9260825"},{"town":"八幡町","koaza":"る","lat":37.018537,"lng":136.945027,"zip":"9260038"},{"town":"下町","koaza":"ニ","lat":37.011033,"lng":136.94422,"zip":"9260824"},{"town":"下町","koaza":"ヘ","lat":37.01311,"lng":136.945474,"zip":"9260824"},{"town":"飯川町","koaza":"九十四","lat":37.009213,"lng":136.944214,"zip":"9260826"},{"town":"江曽町","koaza":"ル","lat":37.007936,"lng":136.944423,"zip":"9260825"},{"town":"細口町","koaza":"源田山","lat":37.025405,"lng":136.945039,"zip":"9260822"},{"town":"下町","koaza":"ロ","lat":37.011484,"lng":136.945505,"zip":"9260824"},{"town":"江曽町","koaza":"ワ","lat":37.005544,"lng":136.946306,"zip":"9260825"},{"town":"江曽町","koaza":"ヌ","lat":37.009078,"lng":136.946057,"zip":"9260825"},{"town":"細口町","koaza":"ロ","lat":37.0273,"lng":136.94529,"zip":"9260822"},{"town":"国分町","koaza":"ア","lat":37.03119,"lng":136.948464,"zip":"9260821"},{"town":"国分町","koaza":"テ","lat":37.030068,"lng":136.947646,"zip":"9260821"},{"town":"江曽町","koaza":"ハ","lat":37.011368,"lng":136.946995,"zip":"9260825"},{"town":"八幡町","koaza":"ち","lat":37.02298,"lng":136.947573,"zip":"9260038"},{"town":"八幡町","koaza":"と","lat":37.020767,"lng":136.947001,"zip":"9260038"},{"town":"国分町","koaza":"エ","lat":37.029243,"lng":136.947972,"zip":"9260821"},{"town":"国分町","koaza":"ラ","lat":37.035782,"lng":136.951127,"zip":"9260821"},{"town":"国分町","koaza":"シ","lat":37.035458,"lng":136.949002,"zip":"9260821"},{"town":"八幡町","koaza":"ヲ","lat":37.020495,"lng":136.948111,"zip":"9260038"},{"town":"国分町","koaza":"ヤ","lat":37.025521,"lng":136.950257,"zip":"9260821"},{"town":"八幡町","koaza":"ろ","lat":37.015315,"lng":136.94913,"zip":"9260038"},{"town":"八幡町","koaza":"ワ","lat":37.022666,"lng":136.948374,"zip":"9260038"},{"town":"藤橋町","koaza":"戌","lat":37.038745,"lng":136.953097,"zip":"9260816"},{"town":"八幡町","koaza":"ル","lat":37.018326,"lng":136.94877,"zip":"9260038"},{"town":"中挟町","koaza":"ワ","lat":37.006521,"lng":136.950119,"zip":"9260000"},{"town":"八幡町","koaza":"ヘ","lat":37.019611,"lng":136.949838,"zip":"9260038"},{"town":"中挟町","koaza":"ヲ","lat":37.007898,"lng":136.94966,"zip":"9260000"},{"town":"八幡町","koaza":"ハ","lat":37.017413,"lng":136.949216,"zip":"9260038"},{"town":"国下町","koaza":"チ","lat":37.013299,"lng":136.949776,"zip":"9260037"},{"town":"国分町","koaza":"ウ","lat":37.032607,"lng":136.949744,"zip":"9260821"},{"town":"八幡町","koaza":"ロ","lat":37.013685,"lng":136.950223,"zip":"9260038"},{"town":"国下町","koaza":"ト","lat":37.012632,"lng":136.950617,"zip":"9260037"},{"town":"国分町","koaza":"メ","lat":37.042738,"lng":136.951095,"zip":"9260821"},{"town":"八幡町","koaza":"ニ","lat":37.015735,"lng":136.951027,"zip":"9260038"},{"town":"中挟町","koaza":"レ","lat":37.008089,"lng":136.950796,"zip":"9260000"},{"town":"八幡町","koaza":"ホ","lat":37.022971,"lng":136.949319,"zip":"9260038"},{"town":"国分町","koaza":"井","lat":37.032586,"lng":136.953017,"zip":"9260821"},{"town":"藤橋町","koaza":"酉","lat":37.040305,"lng":136.953482,"zip":"9260816"},{"town":"国下町","koaza":"ハ","lat":37.009931,"lng":136.95161,"zip":"9260037"},{"town":"中挟町","koaza":"い","lat":37.009059,"lng":136.951883,"zip":"9260000"},{"town":"国分町","koaza":"ト","lat":37.029787,"lng":136.953826,"zip":"9260821"},{"town":"国下町","koaza":"を","lat":37.016892,"lng":136.952338,"zip":"9260037"},{"town":"国下町","koaza":"ル","lat":37.015131,"lng":136.952602,"zip":"9260037"},{"town":"藤橋町","koaza":"亥","lat":37.036817,"lng":136.954945,"zip":"9260816"},{"town":"国分町","koaza":"ノ","lat":37.034087,"lng":136.954228,"zip":"9260821"},{"town":"千野町","koaza":"レ","lat":37.015465,"lng":136.952551,"zip":"9260033"},{"town":"千野町","koaza":"に","lat":37.017898,"lng":136.95423,"zip":"9260033"},{"town":"千野町","koaza":"い","lat":37.014873,"lng":136.954155,"zip":"9260033"},{"town":"国分町","koaza":"ナ","lat":37.035384,"lng":136.954363,"zip":"9260821"},{"town":"国下町","koaza":"わ","lat":37.016192,"lng":136.953257,"zip":"9260037"},{"town":"国下町","koaza":"い","lat":37.013641,"lng":136.954303,"zip":"9260037"},{"town":"千野町","koaza":"ろ","lat":37.016891,"lng":136.954313,"zip":"9260033"},{"town":"八田町","koaza":"は","lat":37.007203,"lng":136.954966,"zip":"9260035"},{"town":"藤橋町","koaza":"申","lat":37.040168,"lng":136.955706,"zip":"9260816"},{"town":"国下町","koaza":"か","lat":37.016839,"lng":136.954791,"zip":"9260037"},{"town":"国下町","koaza":"子","lat":37.01145,"lng":136.955444,"zip":"9260037"},{"town":"八田町","koaza":"ヨ","lat":37.007408,"lng":136.956073,"zip":"9260035"},{"town":"国下町","koaza":"ム","lat":37.01198,"lng":136.956628,"zip":"9260037"},{"town":"国分町","koaza":"ル","lat":37.029091,"lng":136.956763,"zip":"9260821"},{"town":"国分町","koaza":"ワ","lat":37.029837,"lng":136.95662,"zip":"9260821"},{"town":"藤橋町","koaza":"未","lat":37.04239,"lng":136.957044,"zip":"9260816"},{"town":"千野町","koaza":"は","lat":37.018262,"lng":136.957257,"zip":"9260033"},{"town":"所口町","koaza":"リ","lat":37.042726,"lng":136.95605,"zip":"9260814"},{"town":"国分町","koaza":"ツ","lat":37.033002,"lng":136.956189,"zip":"9260821"},{"town":"千野町","koaza":"ナ","lat":37.013681,"lng":136.957587,"zip":"9260033"},{"town":"千野町","koaza":"ほ","lat":37.020622,"lng":136.956282,"zip":"9260033"},{"town":"国分町","koaza":"カ","lat":37.031187,"lng":136.958313,"zip":"9260821"},{"town":"国下町","koaza":"ほ","lat":37.009525,"lng":136.956948,"zip":"9260037"},{"town":"千野町","koaza":"へ","lat":37.019979,"lng":136.957674,"zip":"9260033"},{"town":"千野町","koaza":"ラ","lat":37.015435,"lng":136.957524,"zip":"9260033"},{"town":"藤橋町","koaza":"巳","lat":37.040618,"lng":136.958594,"zip":"9260816"},{"town":"国分町","koaza":"レ","lat":37.034315,"lng":136.95777,"zip":"9260821"},{"town":"千野町","koaza":"二十","lat":37.015689,"lng":136.958157,"zip":"9260033"},{"town":"古府町","koaza":"に","lat":37.022732,"lng":136.958181,"zip":"9260031"},{"town":"千野町","koaza":"ぬ","lat":37.009021,"lng":136.958507,"zip":"9260033"},{"town":"藤橋町","koaza":"辰","lat":37.038089,"lng":136.959828,"zip":"9260816"},{"town":"古府町","koaza":"ぬ","lat":37.028595,"lng":136.961533,"zip":"9260031"},{"town":"古府町","koaza":"い","lat":37.022444,"lng":136.958986,"zip":"9260031"},{"town":"藤橋町","koaza":"午","lat":37.041741,"lng":136.958254,"zip":"9260816"},{"town":"千野町","koaza":"ム","lat":37.013575,"lng":136.958752,"zip":"9260033"},{"town":"千野町","koaza":"井","lat":37.016785,"lng":136.959194,"zip":"9260033"},{"town":"千野町","koaza":"と","lat":37.018929,"lng":136.959651,"zip":"9260033"},{"town":"国分町","koaza":"ヲ","lat":37.029025,"lng":136.959719,"zip":"9260821"},{"town":"西藤橋町","koaza":"エ","lat":37.043018,"lng":136.960996,"zip":"9260817"},{"town":"国分町","koaza":"ヨ","lat":37.02986,"lng":136.959059,"zip":"9260821"},{"town":"藤橋町","koaza":"卯","lat":37.035894,"lng":136.95879,"zip":"9260816"},{"town":"古府町","koaza":"ほ","lat":37.025321,"lng":136.95946,"zip":"9260031"},{"town":"国分町","koaza":"タ","lat":37.03242,"lng":136.959898,"zip":"9260821"},{"town":"千野町","koaza":"セ","lat":37.011478,"lng":136.959866,"zip":"9260033"},{"town":"千野町","koaza":"ウ","lat":37.014246,"lng":136.959567,"zip":"9260033"},{"town":"藤橋町","koaza":"ラ","lat":37.036627,"lng":136.959694,"zip":"9260816"},{"town":"千野町","koaza":"シ","lat":37.013668,"lng":136.96022,"zip":"9260033"},{"town":"藤橋町","koaza":"ナ","lat":37.035026,"lng":136.959585,"zip":"9260816"},{"town":"古府町","koaza":"ろ","lat":37.021987,"lng":136.960029,"zip":"9260031"},{"town":"古府町","koaza":"へ","lat":37.024348,"lng":136.961058,"zip":"9260031"},{"town":"所口町","koaza":"チ","lat":37.041296,"lng":136.959566,"zip":"9260814"},{"town":"千野町","koaza":"二十一","lat":37.014893,"lng":136.960032,"zip":"9260033"},{"town":"千野町","koaza":"モ","lat":37.012572,"lng":136.960402,"zip":"9260033"},{"town":"藤橋町","koaza":"子","lat":37.035926,"lng":136.960223,"zip":"9260816"},{"town":"南藤橋町","koaza":"巳","lat":37.041021,"lng":136.960331,"zip":"9260813"},{"town":"古府町","koaza":"わ","lat":37.033576,"lng":136.961161,"zip":"9260031"},{"town":"藤橋町","koaza":"寅","lat":37.035966,"lng":136.960828,"zip":"9260816"},{"town":"千野町","koaza":"ミ","lat":37.014886,"lng":136.960594,"zip":"9260033"},{"town":"古府町","koaza":"り","lat":37.027049,"lng":136.961183,"zip":"9260031"},{"town":"千野町","koaza":"ス","lat":37.011568,"lng":136.960974,"zip":"9260033"},{"town":"所口町","koaza":"ヘ","lat":37.038613,"lng":136.960789,"zip":"9260814"},{"town":"古府町","koaza":"は","lat":37.022123,"lng":136.961383,"zip":"9260031"},{"town":"古府町","koaza":"お","lat":37.03039,"lng":136.962394,"zip":"9260031"},{"town":"南藤橋町","koaza":"午","lat":37.041754,"lng":136.960897,"zip":"9260813"},{"town":"千野町","koaza":"メ","lat":37.013755,"lng":136.961553,"zip":"9260033"},{"town":"南藤橋町","koaza":"子","lat":37.042818,"lng":136.961796,"zip":"9260813"},{"town":"藤橋町","koaza":"レ","lat":37.038336,"lng":136.962312,"zip":"9260816"},{"town":"千野町","koaza":"ト","lat":37.01504,"lng":136.961534,"zip":"9260033"},{"town":"藤橋町","koaza":"丑","lat":37.03988,"lng":136.962741,"zip":"9260816"},{"town":"所口町","koaza":"ホ","lat":37.039414,"lng":136.961594,"zip":"9260814"},{"town":"所口町","koaza":"ニ","lat":37.041438,"lng":136.961535,"zip":"9260814"},{"town":"古府町","koaza":"コ","lat":37.020511,"lng":136.961931,"zip":"9260031"},{"town":"古府町","koaza":"三ケ塚","lat":37.020804,"lng":136.961671,"zip":"9260031"},{"town":"古府町","koaza":"ち","lat":37.026902,"lng":136.96327,"zip":"9260031"},{"town":"古府町","koaza":"ム","lat":37.02478,"lng":136.962097,"zip":"9260031"},{"town":"古府町","koaza":"と","lat":37.025184,"lng":136.964275,"zip":"9260031"},{"town":"藤橋町","koaza":"ソ","lat":37.037506,"lng":136.963084,"zip":"9260816"},{"town":"千野町","koaza":"二十二","lat":37.015358,"lng":136.965014,"zip":"9260033"},{"town":"古府町","koaza":"よ","lat":37.030443,"lng":136.963457,"zip":"9260031"},{"town":"本府中町","koaza":"ヌ","lat":37.033641,"lng":136.964965,"zip":"9260021"},{"town":"千野町","koaza":"マ","lat":37.017662,"lng":136.96634,"zip":"9260033"},{"town":"古府町","koaza":"タ","lat":37.029361,"lng":136.96333,"zip":"9260031"},{"town":"古府町","koaza":"南谷","lat":37.021692,"lng":136.966977,"zip":"9260031"},{"town":"藤橋町","koaza":"ト","lat":37.04092,"lng":136.963325,"zip":"9260816"},{"town":"古府町","koaza":"サ","lat":37.02287,"lng":136.963659,"zip":"9260031"},{"town":"古府町","koaza":"ヌ","lat":37.029693,"lng":136.964001,"zip":"9260031"},{"town":"所口町","koaza":"ハ","lat":37.038424,"lng":136.963992,"zip":"9260814"},{"town":"所口町","koaza":"甲","lat":37.04096,"lng":136.963843,"zip":"9260814"},{"town":"所口町","koaza":"イ","lat":37.039567,"lng":136.964039,"zip":"9260814"},{"town":"古府町","koaza":"ワ","lat":37.028701,"lng":136.964298,"zip":"9260031"},{"town":"神明町","koaza":"ホ","lat":37.041521,"lng":136.965294,"zip":"9260046"},{"town":"本府中町","koaza":"ホ","lat":37.040308,"lng":136.96472,"zip":"9260021"},{"town":"古府町","koaza":"か","lat":37.032911,"lng":136.964672,"zip":"9260031"},{"town":"古府町","koaza":"る","lat":37.027872,"lng":136.965261,"zip":"9260031"},{"town":"古府町","koaza":"た","lat":37.032327,"lng":136.966136,"zip":"9260031"},{"town":"古府町","koaza":"ラ","lat":37.024336,"lng":136.964839,"zip":"9260031"},{"town":"古府町","koaza":"ヲ","lat":37.028494,"lng":136.965667,"zip":"9260031"},{"town":"古府町","koaza":"キ","lat":37.023272,"lng":136.96526,"zip":"9260031"},{"town":"天神川原町","koaza":"ル","lat":37.036392,"lng":136.964745,"zip":"9260022"},{"town":"古府町","koaza":"笠松","lat":37.022243,"lng":136.965577,"zip":"9260031"},{"town":"神明町","koaza":"ロ","lat":37.042639,"lng":136.965967,"zip":"9260046"},{"town":"神明町","koaza":"イ","lat":37.043255,"lng":136.964646,"zip":"9260046"},{"town":"天神川原町","koaza":"ヌ","lat":37.034999,"lng":136.965706,"zip":"9260022"},{"town":"所口町","koaza":"ロ","lat":37.035936,"lng":136.965693,"zip":"9260814"},{"town":"古府町","koaza":"そ","lat":37.029453,"lng":136.965858,"zip":"9260031"},{"town":"本府中町","koaza":"ヘ","lat":37.038839,"lng":136.965092,"zip":"9260021"},{"town":"本府中町","koaza":"チ","lat":37.036877,"lng":136.967637,"zip":"9260021"},{"town":"古府町","koaza":"ね","lat":37.023575,"lng":136.965922,"zip":"9260031"},{"town":"古府町","koaza":"赤坂","lat":37.01981,"lng":136.966466,"zip":"9260031"},{"town":"古府町","koaza":"モ","lat":37.01944,"lng":136.967351,"zip":"9260031"},{"town":"藤野町","koaza":"ハ","lat":37.028208,"lng":136.966835,"zip":"9260028"},{"town":"本府中町","koaza":"ト","lat":37.038405,"lng":136.96789,"zip":"9260021"},{"town":"古府町","koaza":"つ","lat":37.025706,"lng":136.966993,"zip":"9260031"},{"town":"本府中町","koaza":"ニ","lat":37.040573,"lng":136.967874,"zip":"9260021"},{"town":"本府中町","koaza":"ハ","lat":37.04184,"lng":136.96695,"zip":"9260021"},{"town":"袖ケ江町","koaza":"ハ","lat":37.042765,"lng":136.968071,"zip":"9260045"},{"town":"古府町","koaza":"ら","lat":37.019066,"lng":136.967253,"zip":"9260031"},{"town":"古府町","koaza":"れ","lat":37.031186,"lng":136.966361,"zip":"9260031"},{"town":"古府町","koaza":"な","lat":37.020376,"lng":136.966903,"zip":"9260031"},{"town":"藤野町","koaza":"ニ","lat":37.02679,"lng":136.968336,"zip":"9260028"},{"town":"藤野町","koaza":"リ","lat":37.029672,"lng":136.971881,"zip":"9260028"},{"town":"本府中町","koaza":"ル","lat":37.035414,"lng":136.967933,"zip":"9260021"},{"town":"藤野町","koaza":"ロ","lat":37.030953,"lng":136.967552,"zip":"9260028"},{"town":"藤野町","koaza":"イ","lat":37.032172,"lng":136.968907,"zip":"9260028"},{"town":"古府町","koaza":"エ","lat":37.020561,"lng":136.968024,"zip":"9260031"},{"town":"本府中町","koaza":"ヲ","lat":37.033486,"lng":136.968136,"zip":"9260021"},{"town":"後畠町","koaza":"チ","lat":37.02628,"lng":136.968325,"zip":"9260027"},{"town":"小池川原町","koaza":"チ","lat":37.021673,"lng":136.968982,"zip":"9260026"},{"town":"後畠町","koaza":"リ","lat":37.025686,"lng":136.969198,"zip":"9260027"},{"town":"上府中町","koaza":"セ","lat":37.041715,"lng":136.969346,"zip":"9260053"},{"town":"藤野町","koaza":"ホ","lat":37.029734,"lng":136.969635,"zip":"9260028"},{"town":"本府中町","koaza":"ワ","lat":37.035707,"lng":136.969913,"zip":"9260021"},{"town":"天神川原町","koaza":"ヲ","lat":37.033305,"lng":136.970536,"zip":"9260022"},{"town":"天神川原町","koaza":"ホ","lat":37.031099,"lng":136.970199,"zip":"9260022"},{"town":"上府中町","koaza":"ス","lat":37.041124,"lng":136.970302,"zip":"9260053"},{"town":"小池川原町","koaza":"ヌ","lat":37.021667,"lng":136.969905,"zip":"9260026"},{"town":"古屋敷町","koaza":"カ","lat":37.023546,"lng":136.973609,"zip":"9260024"},{"town":"後畠町","koaza":"後畠山","lat":37.026164,"lng":136.970993,"zip":"9260027"},{"town":"本府中町","koaza":"ソ","lat":37.039658,"lng":136.970576,"zip":"9260021"},{"town":"本府中町","koaza":"レ","lat":37.038043,"lng":136.970432,"zip":"9260021"},{"town":"本府中町","koaza":"ヒ","lat":37.039375,"lng":136.970528,"zip":"9260021"},{"town":"小池川原町","koaza":"ル","lat":37.021398,"lng":136.97085,"zip":"9260026"},{"town":"小池川原町","koaza":"ホ","lat":37.019547,"lng":136.971514,"zip":"9260026"},{"town":"古屋敷町","koaza":"イ","lat":37.022218,"lng":136.970526,"zip":"9260024"},{"town":"上府中町","koaza":"ソ","lat":37.041054,"lng":136.970626,"zip":"9260053"},{"town":"山王町","koaza":"ス","lat":37.042713,"lng":136.970655,"zip":"9260052"},{"town":"古屋敷町","koaza":"ニ","lat":37.02227,"lng":136.971254,"zip":"9260024"},{"town":"本府中町","koaza":"カ","lat":37.035158,"lng":136.972107,"zip":"9260021"},{"town":"本府中町","koaza":"ヨ","lat":37.037527,"lng":136.971295,"zip":"9260021"},{"town":"天神川原町","koaza":"カ","lat":37.034547,"lng":136.97111,"zip":"9260022"},{"town":"本府中町","koaza":"ム","lat":37.032056,"lng":136.97108,"zip":"9260021"},{"town":"山王町","koaza":"一","lat":37.042951,"lng":136.971183,"zip":"9260052"},{"town":"郡町","koaza":"一","lat":37.043265,"lng":136.972096,"zip":"9260051"},{"town":"後畠町","koaza":"ヲ","lat":37.026714,"lng":136.971611,"zip":"9260027"},{"town":"山王町","koaza":"ソ","lat":37.041205,"lng":136.971352,"zip":"9260052"},{"town":"山王町","koaza":"シ","lat":37.04172,"lng":136.972032,"zip":"9260052"},{"town":"天神川原町","koaza":"ハ","lat":37.031148,"lng":136.972368,"zip":"9260022"},{"town":"山王町","koaza":"ツ","lat":37.040915,"lng":136.972717,"zip":"9260052"},{"town":"天神川原町","koaza":"ロ","lat":37.031567,"lng":136.972975,"zip":"9260022"},{"town":"本府中町","koaza":"タ","lat":37.038204,"lng":136.971588,"zip":"9260021"},{"town":"天神川原町","koaza":"ニ","lat":37.030033,"lng":136.972683,"zip":"9260022"},{"town":"山王町","koaza":"ミ","lat":37.042638,"lng":136.972856,"zip":"9260052"},{"town":"本府中町","koaza":"テ","lat":37.035395,"lng":136.974401,"zip":"9260021"},{"town":"本府中町","koaza":"ア","lat":37.03833,"lng":136.973656,"zip":"9260021"},{"town":"古屋敷町","koaza":"ル","lat":37.022495,"lng":136.973681,"zip":"9260024"},{"town":"後畠町","koaza":"イ","lat":37.027512,"lng":136.973584,"zip":"9260027"},{"town":"本府中町","koaza":"天神山","lat":37.031581,"lng":136.974358,"zip":"9260021"},{"town":"藤野町","koaza":"ヘ","lat":37.029688,"lng":136.972152,"zip":"9260028"},{"town":"古屋敷町","koaza":"ワ","lat":37.023307,"lng":136.974426,"zip":"9260024"},{"town":"本府中町","koaza":"エ","lat":37.033888,"lng":136.974508,"zip":"9260021"},{"town":"古屋敷町","koaza":"ヨ","lat":37.024762,"lng":136.97524,"zip":"9260024"},{"town":"古屋敷町","koaza":"ラントウ","lat":37.025352,"lng":136.974587,"zip":"9260024"},{"town":"竹町","koaza":"大天神山","lat":37.028715,"lng":136.975324,"zip":"9260023"},{"town":"大和町","koaza":"リ","lat":37.041004,"lng":136.974701,"zip":"9260016"},{"town":"大和町","koaza":"タ","lat":37.040059,"lng":136.974315,"zip":"9260016"},{"town":"矢田町","koaza":"三","lat":37.039273,"lng":136.976944,"zip":"9260014"},{"town":"古屋敷町","koaza":"ヲ","lat":37.023067,"lng":136.975477,"zip":"9260024"},{"town":"矢田町","koaza":"子","lat":37.038551,"lng":136.974946,"zip":"9260014"},{"town":"矢田町","koaza":"四","lat":37.034693,"lng":136.976912,"zip":"9260014"},{"town":"竹町","koaza":"ワ","lat":37.026199,"lng":136.975099,"zip":"9260023"},{"town":"竹町","koaza":"ヲ","lat":37.026237,"lng":136.975655,"zip":"9260023"},{"town":"竹町","koaza":"ヨ","lat":37.026418,"lng":136.976235,"zip":"9260023"},{"town":"矢田町","koaza":"メ","lat":37.030683,"lng":136.976658,"zip":"9260014"},{"town":"竹町","koaza":"リ","lat":37.028353,"lng":136.976993,"zip":"9260023"},{"town":"古城町","koaza":"ロ","lat":37.022468,"lng":136.975952,"zip":"9260025"},{"town":"大和町","koaza":"ヌ","lat":37.042172,"lng":136.977107,"zip":"9260016"},{"town":"矢田町","koaza":"ヌ","lat":37.041288,"lng":136.976141,"zip":"9260014"},{"town":"竹町","koaza":"タ","lat":37.025055,"lng":136.976444,"zip":"9260023"},{"town":"古屋敷町","koaza":"タ","lat":37.024623,"lng":136.976664,"zip":"9260024"},{"town":"矢田町","koaza":"ソ","lat":37.038034,"lng":136.976731,"zip":"9260014"},{"town":"竹町","koaza":"ヘ","lat":37.02781,"lng":136.977549,"zip":"9260023"},{"town":"矢田町","koaza":"ユ","lat":37.033525,"lng":136.977111,"zip":"9260014"},{"town":"竹町","koaza":"ハ","lat":37.026729,"lng":136.978569,"zip":"9260023"},{"town":"矢田町","koaza":"ミ","lat":37.029106,"lng":136.977999,"zip":"9260014"},{"town":"矢田町","koaza":"サ","lat":37.0327,"lng":136.978388,"zip":"9260014"},{"town":"古屋敷町","koaza":"レ","lat":37.024236,"lng":136.97783,"zip":"9260024"},{"town":"大和町","koaza":"ル","lat":37.041972,"lng":136.979092,"zip":"9260016"},{"town":"矢田町","koaza":"ヰ","lat":37.03466,"lng":136.979047,"zip":"9260014"},{"town":"矢田町","koaza":"三十一","lat":37.031369,"lng":136.979012,"zip":"9260014"},{"town":"古屋敷町","koaza":"ソ","lat":37.025091,"lng":136.978093,"zip":"9260024"},{"town":"矢田町","koaza":"五","lat":37.029248,"lng":136.980762,"zip":"9260014"},{"town":"矢田町","koaza":"レ","lat":37.03751,"lng":136.979574,"zip":"9260014"},{"town":"矢田町","koaza":"ウ","lat":37.036004,"lng":136.979133,"zip":"9260014"},{"town":"竹町","koaza":"ニ","lat":37.026091,"lng":136.978843,"zip":"9260023"},{"town":"竹町","koaza":"子","lat":37.024833,"lng":136.978604,"zip":"9260023"},{"town":"大和町","koaza":"ヘ","lat":37.04257,"lng":136.978973,"zip":"9260016"},{"town":"竹町","koaza":"ツ","lat":37.024852,"lng":136.979109,"zip":"9260023"},{"town":"竹町","koaza":"イ","lat":37.026784,"lng":136.979714,"zip":"9260023"},{"town":"竹町","koaza":"ロ","lat":37.026169,"lng":136.979851,"zip":"9260023"},{"town":"矢田町","koaza":"ノ","lat":37.035387,"lng":136.980145,"zip":"9260014"},{"town":"矢田町","koaza":"ヒ","lat":37.030858,"lng":136.980569,"zip":"9260014"},{"town":"矢田町","koaza":"オ","lat":37.0366,"lng":136.982348,"zip":"9260014"},{"town":"矢田町","koaza":"コ","lat":37.033979,"lng":136.980837,"zip":"9260014"},{"town":"矢田町","koaza":"二十三号島田","lat":37.028325,"lng":136.983144,"zip":"9260014"},{"town":"矢田町","koaza":"ヘ","lat":37.041323,"lng":136.981481,"zip":"9260014"},{"town":"矢田町","koaza":"ク","lat":37.035561,"lng":136.982988,"zip":"9260014"},{"town":"矢田町","koaza":"ホ","lat":37.041412,"lng":136.982973,"zip":"9260014"},{"town":"矢田町","koaza":"フ","lat":37.03285,"lng":136.98254,"zip":"9260014"},{"town":"矢田町","koaza":"ヨ","lat":37.038129,"lng":136.98311,"zip":"9260014"},{"town":"矢田町","koaza":"二十四号白土","lat":37.02934,"lng":136.984209,"zip":"9260014"},{"town":"矢田町","koaza":"マ","lat":37.035029,"lng":136.984812,"zip":"9260014"},{"town":"矢田町","koaza":"ヤ","lat":37.035998,"lng":136.984251,"zip":"9260014"},{"town":"万行町","koaza":"十四","lat":37.043133,"lng":136.984798,"zip":"9260012"},{"town":"万行町","koaza":"十五","lat":37.042711,"lng":136.985054,"zip":"9260012"},{"town":"矢田町","koaza":"ス","lat":37.032017,"lng":136.984489,"zip":"9260014"},{"town":"万行町","koaza":"二十四","lat":37.038699,"lng":136.985767,"zip":"9260012"},{"town":"矢田町","koaza":"二十五号雉子曽","lat":37.029618,"lng":136.984632,"zip":"9260014"},{"town":"矢田町","koaza":"亥","lat":37.029241,"lng":136.984701,"zip":"9260014"},{"town":"万行町","koaza":"二十二","lat":37.038756,"lng":136.986174,"zip":"9260012"},{"town":"万行町","koaza":"十六","lat":37.041263,"lng":136.986721,"zip":"9260012"},{"town":"万行町","koaza":"十七","lat":37.042144,"lng":136.985799,"zip":"9260012"},{"town":"万行町","koaza":"二十六","lat":37.034512,"lng":136.986058,"zip":"9260012"},{"town":"万行町","koaza":"二十五","lat":37.036145,"lng":136.986574,"zip":"9260012"},{"town":"万行町","koaza":"二十九","lat":37.035275,"lng":136.989292,"zip":"9260012"},{"town":"万行町","koaza":"二十八","lat":37.034657,"lng":136.98695,"zip":"9260012"},{"town":"矢田町","koaza":"二十六号石蔵","lat":37.027499,"lng":136.986682,"zip":"9260014"},{"town":"矢田町","koaza":"丑","lat":37.027449,"lng":136.987759,"zip":"9260014"},{"town":"万行町","koaza":"二十七","lat":37.035344,"lng":136.988372,"zip":"9260012"},{"town":"万行町","koaza":"二十三","lat":37.036963,"lng":136.988069,"zip":"9260012"},{"town":"万行町","koaza":"十九","lat":37.040714,"lng":136.987764,"zip":"9260012"},{"town":"矢田町","koaza":"卯","lat":37.026388,"lng":136.987413,"zip":"9260014"},{"town":"万行町","koaza":"四十八","lat":37.028359,"lng":136.989235,"zip":"9260012"},{"town":"万行町","koaza":"十八","lat":37.041838,"lng":136.988214,"zip":"9260012"},{"town":"万行町","koaza":"三十","lat":37.036283,"lng":136.990548,"zip":"9260012"},{"town":"万行町","koaza":"二十一","lat":37.037164,"lng":136.989803,"zip":"9260012"},{"town":"万行町","koaza":"三十二","lat":37.038514,"lng":136.990943,"zip":"9260012"},{"town":"万行町","koaza":"十二","lat":37.042484,"lng":136.989441,"zip":"9260012"},{"town":"万行町","koaza":"二十","lat":37.040648,"lng":136.990774,"zip":"9260012"},{"town":"万行町","koaza":"四十三","lat":37.030903,"lng":136.991571,"zip":"9260012"},{"town":"万行町","koaza":"七十七","lat":37.042305,"lng":136.990976,"zip":"9260012"},{"town":"万行町","koaza":"三十一","lat":37.035137,"lng":136.992398,"zip":"9260012"},{"town":"万行町","koaza":"三十四","lat":37.04173,"lng":136.992812,"zip":"9260012"},{"town":"万行町","koaza":"六十","lat":37.034638,"lng":136.991979,"zip":"9260012"},{"town":"万行町","koaza":"五十五","lat":37.031257,"lng":136.99229,"zip":"9260012"},{"town":"万行町","koaza":"四十一","lat":37.033642,"lng":136.992748,"zip":"9260012"},{"town":"万行町","koaza":"三十三","lat":37.039152,"lng":136.993129,"zip":"9260012"},{"town":"万行町","koaza":"四十二","lat":37.032626,"lng":136.99261,"zip":"9260012"},{"town":"万行町","koaza":"六十一","lat":37.031961,"lng":136.992909,"zip":"9260012"},{"town":"万行町","koaza":"九","lat":37.043595,"lng":136.992911,"zip":"9260012"},{"town":"万行町","koaza":"三十八","lat":37.03562,"lng":136.99339,"zip":"9260012"},{"town":"万行町","koaza":"六十二","lat":37.032355,"lng":136.993283,"zip":"9260012"},{"town":"万行町","koaza":"三十六","lat":37.040401,"lng":136.993642,"zip":"9260012"},{"town":"万行町","koaza":"四十","lat":37.03416,"lng":136.993329,"zip":"9260012"},{"town":"万行町","koaza":"六十四","lat":37.032652,"lng":136.99428,"zip":"9260012"},{"town":"万行町","koaza":"三十九","lat":37.034739,"lng":136.995076,"zip":"9260012"},{"town":"佐味町","koaza":"三十四","lat":37.04138,"lng":136.995414,"zip":"9260011"},{"town":"佐野町","koaza":"ハ","lat":37.034621,"lng":136.99536,"zip":"9260013"},{"town":"佐味町","koaza":"レ","lat":37.042407,"lng":136.995899,"zip":"9260011"},{"town":"佐味町","koaza":"三十三","lat":37.041231,"lng":136.996602,"zip":"9260011"},{"town":"佐味町","koaza":"ヨ","lat":37.043131,"lng":136.996416,"zip":"9260011"},{"town":"佐野町","koaza":"中","lat":37.038449,"lng":136.99678,"zip":"9260013"},{"town":"佐味町","koaza":"二十七","lat":37.042534,"lng":136.996787,"zip":"9260011"},{"town":"佐野町","koaza":"ノ","lat":37.036234,"lng":136.997216,"zip":"9260013"},{"town":"国分町","koaza":"オ","lat":37.030924,"lng":136.953787,"zip":"9260821"},{"town":"本府中町","koaza":"井","lat":37.037979,"lng":136.969324,"zip":"9260021"},{"town":"矢田町","koaza":"エ","lat":37.033318,"lng":136.979685,"zip":"9260014"},{"town":"神明町","koaza":"ト","lat":37.041962,"lng":136.96545,"zip":"9260046"},{"town":"上府中町","koaza":"モ","lat":37.041149,"lng":136.968715,"zip":"9260053"},{"town":"本府中町","koaza":"モ","lat":37.038299,"lng":136.968783,"zip":"9260021"},{"town":"矢田町","koaza":"カ","lat":37.040399,"lng":136.983414,"zip":"9260014"},{"town":"矢田町","koaza":"ワ","lat":37.040149,"lng":136.982316,"zip":"9260014"},{"town":"後畠町","koaza":"ロ","lat":37.027018,"lng":136.973133,"zip":"9260027"},{"town":"江曽町","koaza":"井","lat":37.003378,"lng":136.94151,"zip":"9260825"},{"town":"江曽町","koaza":"ノ","lat":37.003903,"lng":136.943153,"zip":"9260825"},{"town":"江曽町","koaza":"オ","lat":37.002853,"lng":136.942357,"zip":"9260825"},{"town":"下町","koaza":"ハ","lat":37.010417,"lng":136.945329,"zip":"9260824"},{"town":"下町","koaza":"イ","lat":37.012264,"lng":136.947294,"zip":"9260824"},{"town":"下町","koaza":"テ","lat":37.009798,"lng":136.934758,"zip":"9260824"},{"town":"飯川町","koaza":"す","lat":37.006471,"lng":136.937174,"zip":"9260826"},{"town":"飯川町","koaza":"ユ","lat":37.005631,"lng":136.937265,"zip":"9260826"},{"town":"中挟町","koaza":"タ","lat":37.006561,"lng":136.951224,"zip":"9260000"},{"town":"中挟町","koaza":"ヨ","lat":37.006276,"lng":136.950137,"zip":"9260000"},{"town":"中挟町","koaza":"ろ","lat":37.00938,"lng":136.949885,"zip":"9260000"},{"town":"中挟町","koaza":"ホ","lat":37.009686,"lng":136.950887,"zip":"9260000"},{"town":"江曽町","koaza":"ロ","lat":37.010919,"lng":136.94829,"zip":"9260825"},{"town":"中挟町","koaza":"チ","lat":37.010909,"lng":136.949882,"zip":"9260000"},{"town":"中挟町","koaza":"リ","lat":37.012111,"lng":136.949343,"zip":"9260000"},{"town":"国下町","koaza":"リ","lat":37.013457,"lng":136.95045,"zip":"9260037"},{"town":"国下町","koaza":"ろ","lat":37.013207,"lng":136.950559,"zip":"9260037"},{"town":"八幡町","koaza":"イ","lat":37.013445,"lng":136.94951,"zip":"9260038"},{"town":"八幡町","koaza":"い","lat":37.013718,"lng":136.949154,"zip":"9260038"},{"town":"千野町","koaza":"貞","lat":37.013522,"lng":136.951299,"zip":"9260033"},{"town":"八田町","koaza":"ロ","lat":37.014494,"lng":136.951818,"zip":"9260035"},{"town":"八田町","koaza":"い","lat":37.013983,"lng":136.952144,"zip":"9260035"},{"town":"国下町","koaza":"ヲ","lat":37.016175,"lng":136.951967,"zip":"9260037"},{"town":"千野町","koaza":"カ","lat":37.016362,"lng":136.956926,"zip":"9260033"},{"town":"千野町","koaza":"ワ","lat":37.016349,"lng":136.957815,"zip":"9260033"},{"town":"千野町","koaza":"ヨ","lat":37.01781,"lng":136.955764,"zip":"9260033"},{"town":"国分町","koaza":"ロ","lat":37.02211,"lng":136.95677,"zip":"9260821"},{"town":"国分町","koaza":"リ","lat":37.024394,"lng":136.957306,"zip":"9260821"},{"town":"千野町","koaza":"ヲ","lat":37.020211,"lng":136.959672,"zip":"9260033"},{"town":"古府町","koaza":"ノ","lat":37.024061,"lng":136.962365,"zip":"9260031"},{"town":"古府町","koaza":"ヘ","lat":37.024276,"lng":136.962056,"zip":"9260031"},{"town":"古府町","koaza":"ユ","lat":37.024758,"lng":136.965532,"zip":"9260031"},{"town":"古府町","koaza":"ナ","lat":37.025701,"lng":136.964228,"zip":"9260031"},{"town":"古府町","koaza":"メ","lat":37.025367,"lng":136.966078,"zip":"9260031"},{"town":"古府町","koaza":"ミ","lat":37.024361,"lng":136.967487,"zip":"9260031"},{"town":"古府町","koaza":"ル","lat":37.02999,"lng":136.96649,"zip":"9260031"},{"town":"古府町","koaza":"チ","lat":37.031302,"lng":136.966927,"zip":"9260031"},{"town":"本府中町","koaza":"ナ","lat":37.032836,"lng":136.967438,"zip":"9260021"},{"town":"矢田町","koaza":"ア","lat":37.031145,"lng":136.979494,"zip":"9260014"},{"town":"八幡町","koaza":"ヨ","lat":37.0199,"lng":136.946854,"zip":"9260038"},{"town":"八幡町","koaza":"ほ","lat":37.0219,"lng":136.95023,"zip":"9260038"},{"town":"細口町","koaza":"チ","lat":37.031298,"lng":136.938251,"zip":"9260822"},{"town":"細口町","koaza":"ト","lat":37.030562,"lng":136.942512,"zip":"9260822"},{"town":"細口町","koaza":"ほ","lat":37.029067,"lng":136.942596,"zip":"9260822"},{"town":"細口町","koaza":"ホ","lat":37.029659,"lng":136.944359,"zip":"9260822"},{"town":"細口町","koaza":"タ","lat":37.026809,"lng":136.945793,"zip":"9260822"},{"town":"国分町","koaza":"ケ","lat":37.028161,"lng":136.950325,"zip":"9260821"},{"town":"国分町","koaza":"コ","lat":37.03138,"lng":136.950667,"zip":"9260821"},{"town":"国分町","koaza":"ク","lat":37.030414,"lng":136.951757,"zip":"9260821"},{"town":"江曽町","koaza":"カ","lat":37.005938,"lng":136.945586,"zip":"9260825"},{"town":"江曽町","koaza":"タ","lat":37.005088,"lng":136.945031,"zip":"9260825"},{"town":"江曽町","koaza":"子","lat":37.009042,"lng":136.944913,"zip":"9260825"},{"town":"古府町","koaza":"ロ","lat":37.030799,"lng":136.962598,"zip":"9260031"},{"town":"千野町","koaza":"ヤ","lat":37.018212,"lng":136.966719,"zip":"9260033"},{"town":"竹町","koaza":"ホ","lat":37.025623,"lng":136.978444,"zip":"9260023"},{"town":"竹町","koaza":"ソ","lat":37.025142,"lng":136.978888,"zip":"9260023"},{"town":"藤橋町","koaza":"ア","lat":37.044175,"lng":136.944858,"zip":"9260816"},{"town":"藤橋町","koaza":"西","lat":37.043117,"lng":136.949341,"zip":"9260816"},{"town":"藤橋町","koaza":"ケ","lat":37.043358,"lng":136.951853,"zip":"9260816"},{"town":"西藤橋町","koaza":"午","lat":37.044079,"lng":136.960517,"zip":"9260817"},{"town":"郡町","koaza":"三","lat":37.044075,"lng":136.971991,"zip":"9260051"},{"town":"万行町","koaza":"十三","lat":37.04386,"lng":136.98477,"zip":"9260012"},{"town":"佐味町","koaza":"三十七","lat":37.04358,"lng":136.996339,"zip":"9260011"},{"town":"藤橋町","koaza":"テ","lat":37.044207,"lng":136.949977,"zip":"9260816"},{"town":"津向町","koaza":"ヲ","lat":37.063561,"lng":136.953207,"zip":"9260853"},{"town":"津向町","koaza":"巻口","lat":37.061191,"lng":136.950375,"zip":"9260853"},{"town":"飯川町","koaza":"二","lat":37.00405,"lng":136.940837,"zip":"9260826"},{"town":"西藤橋町","koaza":"テ","lat":37.043874,"lng":136.956797,"zip":"9260817"}]