[{"town":"合河町","koaza":"","lat":36.340309,"lng":136.381082,"zip":"9220337"},{"town":"荒木町","koaza":"","lat":36.280808,"lng":136.343268,"zip":"9220278"},{"town":"伊切町","koaza":"","lat":36.36468,"lng":136.355206,"zip":"9220406"},{"town":"一白町一丁目","koaza":"","lat":36.359886,"lng":136.370998,"zip":"9220403"},{"town":"一白町二丁目","koaza":"","lat":36.357934,"lng":136.371911,"zip":"9220403"},{"town":"動橋町","koaza":"","lat":36.324613,"lng":136.385913,"zip":"9220331"},{"town":"潮津町","koaza":"","lat":36.345719,"lng":136.353651,"zip":"9220411"},{"town":"宇谷町","koaza":"","lat":36.296913,"lng":136.404648,"zip":"9220312"},{"town":"打越町","koaza":"","lat":36.333722,"lng":136.406507,"zip":"9220302"},{"town":"大菅波町","koaza":"","lat":36.317719,"lng":136.337575,"zip":"9220425"},{"town":"奥谷町","koaza":"","lat":36.277152,"lng":136.274939,"zip":"9220856"},{"town":"小塩辻町","koaza":"","lat":36.338821,"lng":136.329831,"zip":"9220445"},{"town":"小塩町","koaza":"","lat":36.347212,"lng":136.312972,"zip":"9220553"},{"town":"尾中町","koaza":"","lat":36.333556,"lng":136.349097,"zip":"9220428"},{"town":"梶井町","koaza":"","lat":36.323208,"lng":136.390174,"zip":"9220305"},{"town":"柏野町","koaza":"","lat":36.27557,"lng":136.405789,"zip":"9220262"},{"town":"片野町","koaza":"","lat":36.322519,"lng":136.286595,"zip":"9220564"},{"town":"片山津温泉","koaza":"","lat":36.343998,"lng":136.365452,"zip":"9220412"},{"town":"片山津町","koaza":"","lat":36.339834,"lng":136.372331,"zip":"9220414"},{"town":"桂谷町","koaza":"","lat":36.266575,"lng":136.37371,"zip":"9220273"},{"town":"上河崎町","koaza":"","lat":36.30766,"lng":136.340735,"zip":"9220013"},{"town":"加茂町","koaza":"","lat":36.308632,"lng":136.360889,"zip":"9220241"},{"town":"河南町","koaza":"","lat":36.272395,"lng":136.347447,"zip":"9220277"},{"town":"河原町","koaza":"","lat":36.306354,"lng":136.385804,"zip":"9220314"},{"town":"干拓町","koaza":"","lat":36.351142,"lng":136.386306,"zip":"9220307"},{"town":"熊坂町","koaza":"","lat":36.27431,"lng":136.295804,"zip":"9220842"},{"town":"黒崎町","koaza":"","lat":36.335306,"lng":136.294685,"zip":"9220565"},{"town":"黒瀬町","koaza":"","lat":36.29584,"lng":136.341326,"zip":"9220823"},{"town":"桑原町","koaza":"","lat":36.313198,"lng":136.383905,"zip":"9220326"},{"town":"源平町","koaza":"","lat":36.353426,"lng":136.359259,"zip":"9220404"},{"town":"小坂町","koaza":"","lat":36.289569,"lng":136.387068,"zip":"9220266"},{"town":"湖城町一丁目","koaza":"","lat":36.3391,"lng":136.362562,"zip":"9220413"},{"town":"湖城町二丁目","koaza":"","lat":36.337985,"lng":136.360524,"zip":"9220413"},{"town":"湖城町三丁目","koaza":"","lat":36.336833,"lng":136.358957,"zip":"9220413"},{"town":"小菅波町","koaza":"","lat":36.317725,"lng":136.344374,"zip":"9220424"},{"town":"小菅波町一丁目","koaza":"","lat":36.31881,"lng":136.348652,"zip":"9220424"},{"town":"小菅波町二丁目","koaza":"","lat":36.317044,"lng":136.348363,"zip":"9220424"},{"town":"幸町一丁目","koaza":"","lat":36.30044,"lng":136.316966,"zip":"9220831"},{"town":"幸町二丁目","koaza":"","lat":36.299933,"lng":136.318809,"zip":"9220831"},{"town":"作見町","koaza":"","lat":36.321712,"lng":136.353915,"zip":"9220423"},{"town":"塩浜町","koaza":"","lat":36.352608,"lng":136.333063,"zip":"9220446"},{"town":"塩屋町","koaza":"","lat":36.296318,"lng":136.250065,"zip":"9220673"},{"town":"篠原新町","koaza":"","lat":36.361513,"lng":136.344849,"zip":"9220441"},{"town":"篠原町","koaza":"","lat":36.357227,"lng":136.345971,"zip":"9220442"},{"town":"柴山町","koaza":"","lat":36.36,"lng":136.380491,"zip":"9220402"},{"town":"清水町","koaza":"","lat":36.30926,"lng":136.39086,"zip":"9220315"},{"town":"下河崎町","koaza":"","lat":36.309673,"lng":136.331922,"zip":"9220012"},{"town":"庄町","koaza":"","lat":36.319032,"lng":136.37716,"zip":"9220332"},{"town":"白鳥町","koaza":"","lat":36.295262,"lng":136.315795,"zip":"9220836"},{"town":"新保町","koaza":"","lat":36.37022,"lng":136.370488,"zip":"9220401"},{"town":"吸坂町","koaza":"","lat":36.303625,"lng":136.336049,"zip":"9220822"},{"town":"須谷町","koaza":"","lat":36.266089,"lng":136.384872,"zip":"9220264"},{"town":"曽宇町","koaza":"","lat":36.259041,"lng":136.315951,"zip":"9220000"},{"town":"直下町","koaza":"","lat":36.256694,"lng":136.328219,"zip":"9220825"},{"town":"大聖寺相生町","koaza":"","lat":36.310733,"lng":136.314143,"zip":"9220061"},{"town":"大聖寺麻畠町","koaza":"","lat":36.31042,"lng":136.315407,"zip":"9220028"},{"town":"大聖寺荒町","koaza":"","lat":36.305532,"lng":136.314593,"zip":"9220034"},{"town":"大聖寺一本橋町","koaza":"","lat":36.304727,"lng":136.312515,"zip":"9220036"},{"town":"大聖寺今出町","koaza":"","lat":36.304037,"lng":136.304254,"zip":"9220863"},{"town":"大聖寺魚町","koaza":"","lat":36.305775,"lng":136.310562,"zip":"9220042"},{"town":"大聖寺上木町","koaza":"","lat":36.306334,"lng":136.273075,"zip":"9220001"},{"town":"大聖寺越前町","koaza":"","lat":36.304654,"lng":136.307423,"zip":"9220802"},{"town":"大聖寺大新道","koaza":"","lat":36.302626,"lng":136.309498,"zip":"9220806"},{"town":"大聖寺荻生町","koaza":"","lat":36.309309,"lng":136.300207,"zip":"9220003"},{"town":"大聖寺鍛冶町","koaza":"","lat":36.305488,"lng":136.31219,"zip":"9220037"},{"town":"大聖寺片原町","koaza":"","lat":36.307882,"lng":136.31092,"zip":"9220056"},{"town":"大聖寺金子町","koaza":"","lat":36.306875,"lng":136.317273,"zip":"9220032"},{"town":"大聖寺上福田町","koaza":"","lat":36.313104,"lng":136.309967,"zip":"9220004"},{"town":"大聖寺亀町","koaza":"","lat":36.309957,"lng":136.316849,"zip":"9220026"},{"town":"大聖寺観音町","koaza":"","lat":36.305152,"lng":136.309871,"zip":"9220046"},{"town":"大聖寺北片原町","koaza":"","lat":36.310677,"lng":136.312348,"zip":"9220064"},{"town":"大聖寺京町","koaza":"","lat":36.307196,"lng":136.311556,"zip":"9220055"},{"town":"大聖寺五軒町","koaza":"","lat":36.304774,"lng":136.310706,"zip":"9220043"},{"town":"大聖寺木呂場町","koaza":"","lat":36.307348,"lng":136.318039,"zip":"9220031"},{"town":"大聖寺地方町","koaza":"","lat":36.301378,"lng":136.301169,"zip":"9220861"},{"town":"大聖寺敷地","koaza":"","lat":36.319495,"lng":136.325557,"zip":"9220011"},{"town":"大聖寺下屋敷町","koaza":"","lat":36.29948,"lng":136.309038,"zip":"9220841"},{"town":"大聖寺十一町","koaza":"","lat":36.304169,"lng":136.312147,"zip":"9220045"},{"town":"大聖寺新組町","koaza":"","lat":36.310769,"lng":136.308854,"zip":"9220068"},{"town":"大聖寺新町","koaza":"","lat":36.310155,"lng":136.313056,"zip":"9220063"},{"town":"大聖寺神明町","koaza":"","lat":36.302886,"lng":136.306921,"zip":"9220807"},{"town":"大聖寺新屋敷町","koaza":"","lat":36.30383,"lng":136.310148,"zip":"9220805"},{"town":"大聖寺菅生","koaza":"","lat":36.304446,"lng":136.321161,"zip":"9220815"},{"town":"大聖寺菅生町","koaza":"","lat":36.307287,"lng":136.319296,"zip":"9220814"},{"town":"大聖寺関町","koaza":"","lat":36.304604,"lng":136.305855,"zip":"9220801"},{"town":"大聖寺瀬越町","koaza":"","lat":36.298599,"lng":136.259553,"zip":"9220671"},{"town":"大聖寺大名竹町","koaza":"","lat":36.310686,"lng":136.318272,"zip":"9220023"},{"town":"大聖寺鷹匠町","koaza":"","lat":36.307825,"lng":136.313362,"zip":"9220053"},{"town":"大聖寺田原町","koaza":"","lat":36.304569,"lng":136.315762,"zip":"9220812"},{"town":"大聖寺鉄砲町","koaza":"","lat":36.304239,"lng":136.314124,"zip":"9220035"},{"town":"大聖寺寺町","koaza":"","lat":36.307083,"lng":136.312963,"zip":"9220054"},{"town":"大聖寺天神下町","koaza":"","lat":36.312195,"lng":136.321136,"zip":"9220007"},{"town":"大聖寺殿町","koaza":"","lat":36.310403,"lng":136.310079,"zip":"9220066"},{"town":"大聖寺中新道","koaza":"","lat":36.303528,"lng":136.30893,"zip":"9220804"},{"town":"大聖寺仲町","koaza":"","lat":36.308982,"lng":136.311855,"zip":"9220051"},{"town":"大聖寺中町","koaza":"","lat":36.305349,"lng":136.309062,"zip":"9220047"},{"town":"大聖寺永町","koaza":"","lat":36.309335,"lng":136.320335,"zip":"9220024"},{"town":"大聖寺錦町","koaza":"","lat":36.307199,"lng":136.304076,"zip":"9220862"},{"town":"大聖寺八間道","koaza":"","lat":36.308278,"lng":136.308107,"zip":"9220057"},{"town":"大聖寺馬場町","koaza":"","lat":36.306146,"lng":136.307385,"zip":"9220048"},{"town":"大聖寺番場町","koaza":"","lat":36.309722,"lng":136.309444,"zip":"9220067"},{"town":"大聖寺東町一丁目","koaza":"","lat":36.305249,"lng":136.318581,"zip":"9220816"},{"town":"大聖寺東町二丁目","koaza":"","lat":36.304075,"lng":136.318725,"zip":"9220816"},{"town":"大聖寺東町三丁目","koaza":"","lat":36.303634,"lng":136.316486,"zip":"9220816"},{"town":"大聖寺東町四丁目","koaza":"","lat":36.302574,"lng":136.316472,"zip":"9220816"},{"town":"大聖寺東横町","koaza":"","lat":36.303924,"lng":136.311217,"zip":"9220044"},{"town":"大聖寺福田町","koaza":"","lat":36.308594,"lng":136.312485,"zip":"9220052"},{"town":"大聖寺藤ノ木町","koaza":"","lat":36.312153,"lng":136.320066,"zip":"9220006"},{"town":"大聖寺法華坊町","koaza":"","lat":36.306833,"lng":136.314624,"zip":"9220033"},{"town":"大聖寺本町","koaza":"","lat":36.306825,"lng":136.310239,"zip":"9220041"},{"town":"大聖寺松ケ根町","koaza":"","lat":36.3103,"lng":136.313947,"zip":"9220062"},{"town":"大聖寺三ツ町","koaza":"","lat":36.30138,"lng":136.292501,"zip":"9220853"},{"town":"大聖寺三ツ屋町","koaza":"","lat":36.303898,"lng":136.308361,"zip":"9220803"},{"town":"大聖寺南町","koaza":"","lat":36.302377,"lng":136.313823,"zip":"9220811"},{"town":"大聖寺耳聞山仲町","koaza":"","lat":36.310268,"lng":136.317544,"zip":"9220025"},{"town":"大聖寺耳聞山町","koaza":"","lat":36.3086,"lng":136.316193,"zip":"9220027"},{"town":"大聖寺山田町","koaza":"","lat":36.306224,"lng":136.312532,"zip":"9220038"},{"town":"大聖寺弓町","koaza":"","lat":36.30593,"lng":136.317034,"zip":"9220813"},{"town":"高尾町","koaza":"","lat":36.331548,"lng":136.319901,"zip":"9220562"},{"town":"高塚町","koaza":"","lat":36.337059,"lng":136.401764,"zip":"9220301"},{"town":"田尻町","koaza":"","lat":36.346859,"lng":136.318541,"zip":"9220552"},{"town":"橘町","koaza":"","lat":36.28881,"lng":136.277453,"zip":"9220855"},{"town":"勅使町","koaza":"","lat":36.303657,"lng":136.391769,"zip":"9220313"},{"town":"津波倉町","koaza":"","lat":36.310954,"lng":136.377724,"zip":"9220333"},{"town":"手塚町","koaza":"","lat":36.356981,"lng":136.357275,"zip":"9220405"},{"town":"百々町","koaza":"","lat":36.286518,"lng":136.317727,"zip":"9220832"},{"town":"塔尾町","koaza":"","lat":36.267029,"lng":136.409478,"zip":"9220263"},{"town":"冨塚町","koaza":"","lat":36.328845,"lng":136.360602,"zip":"9220421"},{"town":"永井町","koaza":"","lat":36.287874,"lng":136.268589,"zip":"9220857"},{"town":"中島町","koaza":"","lat":36.340093,"lng":136.390263,"zip":"9220306"},{"town":"中代町","koaza":"","lat":36.306134,"lng":136.351737,"zip":"9220014"},{"town":"七日市町","koaza":"","lat":36.315591,"lng":136.372481,"zip":"9220335"},{"town":"南郷町","koaza":"","lat":36.298896,"lng":136.328541,"zip":"9220821"},{"town":"西島町","koaza":"","lat":36.310823,"lng":136.369966,"zip":"9220334"},{"town":"野田町","koaza":"","lat":36.346048,"lng":136.343961,"zip":"9220443"},{"town":"白山台","koaza":"","lat":36.321813,"lng":136.346017,"zip":"9220437"},{"town":"箱宮町","koaza":"","lat":36.327238,"lng":136.411411,"zip":"9220303"},{"town":"橋立町","koaza":"","lat":36.349061,"lng":136.304351,"zip":"9220554"},{"town":"日谷町","koaza":"","lat":36.263974,"lng":136.334022,"zip":"9220824"},{"town":"深田町","koaza":"","lat":36.340541,"lng":136.305694,"zip":"9220566"},{"town":"二子塚町","koaza":"","lat":36.305743,"lng":136.379009,"zip":"9220325"},{"town":"二ツ屋町","koaza":"","lat":36.294529,"lng":136.384302,"zip":"9220267"},{"town":"分校町","koaza":"","lat":36.321941,"lng":136.399901,"zip":"9220304"},{"town":"別所町","koaza":"","lat":36.272826,"lng":136.364018,"zip":"9220274"},{"town":"別所町一丁目","koaza":"","lat":36.272896,"lng":136.360425,"zip":"9220274"},{"town":"別所町二丁目","koaza":"","lat":36.271135,"lng":136.361305,"zip":"9220274"},{"town":"別所町三丁目","koaza":"","lat":36.269739,"lng":136.362501,"zip":"9220274"},{"town":"別所町四丁目","koaza":"","lat":36.270648,"lng":136.359728,"zip":"9220274"},{"town":"保賀町","koaza":"","lat":36.294521,"lng":136.351031,"zip":"9220015"},{"town":"細坪町","koaza":"","lat":36.287278,"lng":136.310811,"zip":"9220835"},{"town":"松が丘一丁目","koaza":"","lat":36.325573,"lng":136.340885,"zip":"9220436"},{"town":"松が丘二丁目","koaza":"","lat":36.326376,"lng":136.337304,"zip":"9220436"},{"town":"松が丘三丁目","koaza":"","lat":36.323015,"lng":136.336434,"zip":"9220436"},{"town":"松が丘四丁目","koaza":"","lat":36.322585,"lng":136.340829,"zip":"9220436"},{"town":"三木町","koaza":"","lat":36.295694,"lng":136.28408,"zip":"9220854"},{"town":"美岬町","koaza":"","lat":36.348404,"lng":136.325245,"zip":"9220551"},{"town":"水田丸町","koaza":"","lat":36.281197,"lng":136.387184,"zip":"9220265"},{"town":"美谷が丘","koaza":"","lat":36.290149,"lng":136.319356,"zip":"9220834"},{"town":"宮地町","koaza":"","lat":36.345754,"lng":136.337928,"zip":"9220444"},{"town":"宮町","koaza":"","lat":36.336669,"lng":136.313801,"zip":"9220561"},{"town":"森町","koaza":"","lat":36.302256,"lng":136.384341,"zip":"9220321"},{"town":"山田町","koaza":"","lat":36.329185,"lng":136.337285,"zip":"9220431"},{"town":"山中温泉旭町","koaza":"","lat":36.264027,"lng":136.359424,"zip":"9220104"},{"town":"山中温泉荒谷町","koaza":"","lat":36.242977,"lng":136.423959,"zip":"9220134"},{"town":"山中温泉泉町","koaza":"","lat":36.263097,"lng":136.361665,"zip":"9220105"},{"town":"山中温泉市谷町","koaza":"","lat":36.210024,"lng":136.423668,"zip":"9220000"},{"town":"山中温泉今立町","koaza":"","lat":36.239828,"lng":136.451647,"zip":"9220135"},{"town":"山中温泉上野町","koaza":"","lat":36.250044,"lng":136.368809,"zip":"9220117"},{"town":"山中温泉上野町一丁目","koaza":"","lat":36.255098,"lng":136.369037,"zip":"9220117"},{"town":"山中温泉上原町","koaza":"","lat":36.252802,"lng":136.362046,"zip":"9220107"},{"town":"山中温泉上原町一丁目","koaza":"","lat":36.256672,"lng":136.361808,"zip":"9220107"},{"town":"山中温泉上原町二丁目","koaza":"","lat":36.25773,"lng":136.364043,"zip":"9220107"},{"town":"山中温泉大内町","koaza":"","lat":36.178832,"lng":136.353721,"zip":"9220000"},{"town":"山中温泉大土町","koaza":"","lat":36.201882,"lng":136.481974,"zip":"9220135"},{"town":"山中温泉河鹿町","koaza":"","lat":36.241836,"lng":136.382193,"zip":"9220126"},{"town":"山中温泉風谷町","koaza":"","lat":36.214754,"lng":136.339779,"zip":"9220137"},{"town":"山中温泉上新保町","koaza":"","lat":36.221752,"lng":136.461985,"zip":"9220000"},{"town":"山中温泉加美谷台一丁目","koaza":"","lat":36.257406,"lng":136.365661,"zip":"9220118"},{"town":"山中温泉加美谷台二丁目","koaza":"","lat":36.255159,"lng":136.364648,"zip":"9220118"},{"town":"山中温泉栢野町","koaza":"","lat":36.227275,"lng":136.350481,"zip":"9220138"},{"town":"山中温泉枯渕町","koaza":"","lat":36.202439,"lng":136.370867,"zip":"9220000"},{"town":"山中温泉九谷町","koaza":"","lat":36.181599,"lng":136.441589,"zip":"9220136"},{"town":"山中温泉こおろぎ町","koaza":"","lat":36.236094,"lng":136.358253,"zip":"9220128"},{"town":"山中温泉小杉町","koaza":"","lat":36.200255,"lng":136.403053,"zip":"9220000"},{"town":"山中温泉西住町","koaza":"","lat":36.20786,"lng":136.439154,"zip":"9220000"},{"town":"山中温泉栄町","koaza":"","lat":36.245088,"lng":136.373731,"zip":"9220125"},{"town":"山中温泉坂下町","koaza":"","lat":36.205643,"lng":136.394308,"zip":"9220136"},{"town":"山中温泉四十九院町","koaza":"","lat":36.244863,"lng":136.392909,"zip":"9220131"},{"town":"山中温泉下谷町","koaza":"","lat":36.23724,"lng":136.375247,"zip":"9220127"},{"town":"山中温泉生水町","koaza":"","lat":36.204979,"lng":136.409524,"zip":"9220000"},{"town":"山中温泉菅谷町","koaza":"","lat":36.226337,"lng":136.375825,"zip":"9220139"},{"town":"山中温泉杉水町","koaza":"","lat":36.209312,"lng":136.457566,"zip":"9220136"},{"town":"山中温泉菅生谷町","koaza":"","lat":36.258251,"lng":136.410418,"zip":"9220134"},{"town":"山中温泉滝町","koaza":"","lat":36.245834,"lng":136.411485,"zip":"9220133"},{"town":"山中温泉塚谷町","koaza":"","lat":36.259966,"lng":136.372046,"zip":"9220111"},{"town":"山中温泉塚谷町一丁目","koaza":"","lat":36.260216,"lng":136.36822,"zip":"9220111"},{"town":"山中温泉塚谷町二丁目","koaza":"","lat":36.25641,"lng":136.366837,"zip":"9220111"},{"town":"山中温泉塚谷町三丁目","koaza":"","lat":36.256761,"lng":136.368481,"zip":"9220111"},{"town":"山中温泉中田町","koaza":"","lat":36.265415,"lng":136.35029,"zip":"9220101"},{"town":"山中温泉中津原町","koaza":"","lat":36.261443,"lng":136.396636,"zip":"9220132"},{"town":"山中温泉西桂木町","koaza":"","lat":36.253372,"lng":136.373623,"zip":"9220112"},{"town":"山中温泉二天町","koaza":"","lat":36.272608,"lng":136.356717,"zip":"9220101"},{"town":"山中温泉白山町","koaza":"","lat":36.250387,"lng":136.372421,"zip":"9220116"},{"town":"山中温泉長谷田町","koaza":"","lat":36.255028,"lng":136.354824,"zip":"9220102"},{"town":"山中温泉東桂木町","koaza":"","lat":36.254114,"lng":136.374331,"zip":"9220113"},{"town":"山中温泉東町一丁目","koaza":"","lat":36.252484,"lng":136.378738,"zip":"9220114"},{"town":"山中温泉東町二丁目","koaza":"","lat":36.246601,"lng":136.380754,"zip":"9220114"},{"town":"山中温泉冨士見町","koaza":"","lat":36.249277,"lng":136.373594,"zip":"9220000"},{"town":"山中温泉片谷町","koaza":"","lat":36.188994,"lng":136.385589,"zip":"9220136"},{"town":"山中温泉本町一丁目","koaza":"","lat":36.249895,"lng":136.374592,"zip":"9220115"},{"town":"山中温泉本町二丁目","koaza":"","lat":36.24719,"lng":136.374408,"zip":"9220115"},{"town":"山中温泉真砂町","koaza":"","lat":36.158269,"lng":136.456578,"zip":"9220136"},{"town":"山中温泉南町","koaza":"","lat":36.244177,"lng":136.370316,"zip":"9220129"},{"town":"山中温泉宮の杜一丁目","koaza":"","lat":36.264316,"lng":136.356519,"zip":"9220109"},{"town":"山中温泉宮の杜二丁目","koaza":"","lat":36.26265,"lng":136.358395,"zip":"9220109"},{"town":"山中温泉薬師町","koaza":"","lat":36.248293,"lng":136.371862,"zip":"9220123"},{"town":"山中温泉湯の出町","koaza":"","lat":36.246059,"lng":136.371178,"zip":"9220124"},{"town":"山中温泉湯の本町","koaza":"","lat":36.24889,"lng":136.374039,"zip":"9220122"},{"town":"山中温泉我谷町","koaza":"","lat":36.206015,"lng":136.349944,"zip":"9220137"},{"town":"豊町","koaza":"","lat":36.327665,"lng":136.305237,"zip":"9220563"},{"town":"弓波町","koaza":"","lat":36.32016,"lng":136.36215,"zip":"9220422"},{"town":"八日市町","koaza":"","lat":36.326925,"lng":136.371888,"zip":"9220336"},{"town":"横北町","koaza":"","lat":36.28631,"lng":136.400319,"zip":"9220261"},{"town":"吉崎町","koaza":"","lat":36.287343,"lng":136.259204,"zip":"9220672"},{"town":"若葉台","koaza":"","lat":36.30454,"lng":136.374441,"zip":"9220323"},{"town":"栄谷町","koaza":"","lat":36.308117,"lng":136.403188,"zip":"9220311"},{"town":"松山町","koaza":"","lat":36.314876,"lng":136.390493,"zip":"9220316"},{"town":"山本町","koaza":"","lat":36.31152,"lng":136.392389,"zip":"9220000"},{"town":"大聖寺岡町","koaza":"","lat":36.317454,"lng":136.318638,"zip":"9220005"},{"town":"大聖寺下福田町","koaza":"","lat":36.314864,"lng":136.294432,"zip":"9220002"},{"town":"大聖寺畑町","koaza":"","lat":36.320041,"lng":136.307303,"zip":"9220004"},{"town":"山代温泉","koaza":"","lat":36.289873,"lng":136.363033,"zip":"9220242"},{"town":"上野町","koaza":"","lat":36.295756,"lng":136.378119,"zip":"9220222"},{"town":"丸山町一丁目","koaza":"","lat":36.29553,"lng":136.373759,"zip":"9220221"},{"town":"尾俣町","koaza":"","lat":36.280372,"lng":136.376946,"zip":"9220271"},{"town":"丸山町三丁目","koaza":"","lat":36.291677,"lng":136.374824,"zip":"9220221"},{"town":"丸山町二丁目","koaza":"","lat":36.294144,"lng":136.374576,"zip":"9220221"},{"town":"大聖寺上木町","koaza":"堤ノ表","lat":36.312432,"lng":136.278846,"zip":"9220001"},{"town":"大聖寺上木町","koaza":"本村","lat":36.30604,"lng":136.27805,"zip":"9220001"},{"town":"大聖寺上木町","koaza":"ヘ","lat":36.303377,"lng":136.276627,"zip":"9220001"},{"town":"大聖寺上木町","koaza":"ホ","lat":36.304522,"lng":136.279055,"zip":"9220001"},{"town":"大聖寺上木町","koaza":"ハ","lat":36.305994,"lng":136.282172,"zip":"9220001"},{"town":"片野町","koaza":"二十一","lat":36.322933,"lng":136.282106,"zip":"9220564"},{"town":"片野町","koaza":"三","lat":36.324078,"lng":136.281561,"zip":"9220564"},{"town":"片野町","koaza":"四","lat":36.324577,"lng":136.284515,"zip":"9220564"},{"town":"大聖寺上木町","koaza":"ロ","lat":36.304976,"lng":136.284801,"zip":"9220001"},{"town":"片野町","koaza":"子","lat":36.320854,"lng":136.290724,"zip":"9220564"},{"town":"大聖寺下福田町","koaza":"ソ","lat":36.307191,"lng":136.288588,"zip":"9220002"},{"town":"大聖寺三ツ町","koaza":"ヨ","lat":36.302702,"lng":136.288781,"zip":"9220853"},{"town":"黒崎町","koaza":"ル","lat":36.335859,"lng":136.292971,"zip":"9220565"},{"town":"大聖寺下福田町","koaza":"ヨ","lat":36.310539,"lng":136.289777,"zip":"9220002"},{"town":"大聖寺下福田町","koaza":"ト","lat":36.312004,"lng":136.289961,"zip":"9220002"},{"town":"黒崎町","koaza":"ワ","lat":36.330702,"lng":136.2938,"zip":"9220565"},{"town":"黒崎町","koaza":"ヌ","lat":36.337851,"lng":136.293511,"zip":"9220565"},{"town":"豊町","koaza":"い","lat":36.326512,"lng":136.305692,"zip":"9220563"},{"town":"黒崎町","koaza":"め","lat":36.335254,"lng":136.294636,"zip":"9220565"},{"town":"黒崎町","koaza":"ゆ","lat":36.336919,"lng":136.295983,"zip":"9220565"},{"town":"大聖寺下福田町","koaza":"十二","lat":36.317254,"lng":136.300039,"zip":"9220002"},{"town":"大聖寺三ツ町","koaza":"錦城ケ丘","lat":36.304023,"lng":136.295658,"zip":"9220853"},{"town":"橋立町","koaza":"ム","lat":36.351982,"lng":136.309004,"zip":"9220554"},{"town":"橋立町","koaza":"ふ","lat":36.349992,"lng":136.302812,"zip":"9220554"},{"town":"黒崎町","koaza":"あ","lat":36.33242,"lng":136.302042,"zip":"9220565"},{"town":"大聖寺下福田町","koaza":"ヌ","lat":36.313672,"lng":136.299517,"zip":"9220002"},{"town":"大聖寺荻生町","koaza":"五","lat":36.308904,"lng":136.299395,"zip":"9220003"},{"town":"大聖寺下福田町","koaza":"八","lat":36.313627,"lng":136.301277,"zip":"9220002"},{"town":"大聖寺下福田町","koaza":"三","lat":36.313458,"lng":136.300774,"zip":"9220002"},{"town":"大聖寺下福田町","koaza":"ロ","lat":36.314303,"lng":136.301278,"zip":"9220002"},{"town":"大聖寺下福田町","koaza":"チ","lat":36.313203,"lng":136.302969,"zip":"9220002"},{"town":"大聖寺畑町","koaza":"ろ","lat":36.316815,"lng":136.307011,"zip":"9220004"},{"town":"深田町","koaza":"イ","lat":36.341567,"lng":136.306325,"zip":"9220566"},{"town":"大聖寺上福田町","koaza":"ト","lat":36.312156,"lng":136.305085,"zip":"9220004"},{"town":"深田町","koaza":"ハ","lat":36.339622,"lng":136.30689,"zip":"9220566"},{"town":"深田町","koaza":"ろ","lat":36.340596,"lng":136.305869,"zip":"9220566"},{"town":"豊町","koaza":"ろ","lat":36.331134,"lng":136.307807,"zip":"9220563"},{"town":"大聖寺神明町","koaza":"ロ","lat":36.304001,"lng":136.307803,"zip":"9220807"},{"town":"大聖寺上福田町","koaza":"ニ","lat":36.311856,"lng":136.309731,"zip":"9220004"},{"town":"大聖寺上福田町","koaza":"ヘ甲","lat":36.310733,"lng":136.307156,"zip":"9220004"},{"town":"大聖寺畑町","koaza":"は","lat":36.316731,"lng":136.309294,"zip":"9220004"},{"town":"橋立町","koaza":"ラ","lat":36.350648,"lng":136.308623,"zip":"9220554"},{"town":"大聖寺上福田町","koaza":"ホ","lat":36.311381,"lng":136.30967,"zip":"9220004"},{"town":"深田町","koaza":"い","lat":36.345693,"lng":136.309255,"zip":"9220566"},{"town":"深田町","koaza":"ユ","lat":36.333429,"lng":136.310626,"zip":"9220566"},{"town":"大聖寺本町","koaza":"イ","lat":36.307355,"lng":136.309463,"zip":"9220041"},{"town":"大聖寺中新道","koaza":"イ","lat":36.303759,"lng":136.30934,"zip":"9220804"},{"town":"大聖寺畑町","koaza":"イ","lat":36.318522,"lng":136.30799,"zip":"9220004"},{"town":"橋立町","koaza":"に","lat":36.347692,"lng":136.310078,"zip":"9220554"},{"town":"橋立町","koaza":"イ","lat":36.351471,"lng":136.310825,"zip":"9220554"},{"town":"小塩町","koaza":"人","lat":36.343783,"lng":136.313127,"zip":"9220553"},{"town":"大聖寺上福田町","koaza":"ハ","lat":36.311703,"lng":136.312634,"zip":"9220004"},{"town":"大聖寺上福田町","koaza":"ヌ","lat":36.312978,"lng":136.312535,"zip":"9220004"},{"town":"高尾町","koaza":"ヤ","lat":36.329997,"lng":136.319318,"zip":"9220562"},{"town":"大聖寺地方町","koaza":"一","lat":36.30208,"lng":136.311579,"zip":"9220861"},{"town":"宮町","koaza":"ヲ","lat":36.339946,"lng":136.312331,"zip":"9220561"},{"town":"大聖寺南町","koaza":"チ","lat":36.302618,"lng":136.312329,"zip":"9220811"},{"town":"小塩町","koaza":"ケ","lat":36.351084,"lng":136.312766,"zip":"9220553"},{"town":"高尾町","koaza":"シ","lat":36.327852,"lng":136.312306,"zip":"9220562"},{"town":"大聖寺南町","koaza":"ホ","lat":36.302614,"lng":136.31297,"zip":"9220811"},{"town":"大聖寺南町","koaza":"ト","lat":36.304119,"lng":136.313054,"zip":"9220811"},{"town":"小塩町","koaza":"コ","lat":36.35197,"lng":136.315619,"zip":"9220553"},{"town":"大聖寺上福田町","koaza":"カ","lat":36.320573,"lng":136.315477,"zip":"9220004"},{"town":"田尻町","koaza":"拓","lat":36.341586,"lng":136.31501,"zip":"9220552"},{"town":"大聖寺上福田町","koaza":"に","lat":36.315932,"lng":136.314232,"zip":"9220004"},{"town":"小塩町","koaza":"マ","lat":36.35002,"lng":136.314007,"zip":"9220553"},{"town":"小塩町","koaza":"ヤ","lat":36.350253,"lng":136.314745,"zip":"9220553"},{"town":"小塩町","koaza":"ろ","lat":36.348714,"lng":136.315072,"zip":"9220553"},{"town":"田尻町","koaza":"西","lat":36.347754,"lng":136.31592,"zip":"9220552"},{"town":"大聖寺岡町","koaza":"ホ","lat":36.313981,"lng":136.317457,"zip":"9220005"},{"town":"大聖寺鉄砲町","koaza":"イ","lat":36.304347,"lng":136.31512,"zip":"9220035"},{"town":"大聖寺田原町","koaza":"ロ","lat":36.304346,"lng":136.315278,"zip":"9220812"},{"town":"高尾町","koaza":"ル","lat":36.325674,"lng":136.315762,"zip":"9220562"},{"town":"宮町","koaza":"カ","lat":36.338327,"lng":136.316571,"zip":"9220561"},{"town":"大聖寺田原町","koaza":"イ","lat":36.304727,"lng":136.316131,"zip":"9220812"},{"town":"高尾町","koaza":"モ","lat":36.326575,"lng":136.317333,"zip":"9220562"},{"town":"大聖寺岡町","koaza":"ニ","lat":36.312867,"lng":136.316798,"zip":"9220005"},{"town":"田尻町","koaza":"浜山","lat":36.35265,"lng":136.318242,"zip":"9220552"},{"town":"大聖寺上福田町","koaza":"四人山","lat":36.323571,"lng":136.316679,"zip":"9220004"},{"town":"高尾町","koaza":"マ","lat":36.32794,"lng":136.317055,"zip":"9220562"},{"town":"大聖寺南町","koaza":"イ","lat":36.304675,"lng":136.316902,"zip":"9220811"},{"town":"田尻町","koaza":"オ","lat":36.349814,"lng":136.318652,"zip":"9220552"},{"town":"大聖寺永町","koaza":"イ","lat":36.307846,"lng":136.319571,"zip":"9220024"},{"town":"大聖寺岡町","koaza":"ロ","lat":36.312808,"lng":136.319043,"zip":"9220005"},{"town":"大聖寺岡町","koaza":"ハ","lat":36.312845,"lng":136.317804,"zip":"9220005"},{"town":"田尻町","koaza":"南","lat":36.347461,"lng":136.317914,"zip":"9220552"},{"town":"田尻町","koaza":"イ","lat":36.351686,"lng":136.317414,"zip":"9220552"},{"town":"大聖寺永町","koaza":"ハ","lat":36.310666,"lng":136.320291,"zip":"9220024"},{"town":"田尻町","koaza":"ロ","lat":36.351471,"lng":136.318353,"zip":"9220552"},{"town":"田尻町","koaza":"東","lat":36.344666,"lng":136.320403,"zip":"9220552"},{"town":"大聖寺菅生町","koaza":"イ","lat":36.307328,"lng":136.319126,"zip":"9220814"},{"town":"大聖寺岡町","koaza":"イ","lat":36.312285,"lng":136.319432,"zip":"9220005"},{"town":"高尾町","koaza":"フ","lat":36.329398,"lng":136.319855,"zip":"9220562"},{"town":"大聖寺敷地","koaza":"伊","lat":36.32089,"lng":136.321529,"zip":"9220011"},{"town":"田尻町","koaza":"北","lat":36.351599,"lng":136.320198,"zip":"9220552"},{"town":"大聖寺敷地","koaza":"レ","lat":36.322835,"lng":136.320108,"zip":"9220011"},{"town":"田尻町","koaza":"大峰","lat":36.345576,"lng":136.320961,"zip":"9220552"},{"town":"大聖寺永町","koaza":"ロ","lat":36.309688,"lng":136.320409,"zip":"9220024"},{"town":"大聖寺敷地","koaza":"ル乙","lat":36.313062,"lng":136.322586,"zip":"9220011"},{"town":"大聖寺菅生町","koaza":"タ","lat":36.306823,"lng":136.320338,"zip":"9220814"},{"town":"大聖寺敷地","koaza":"ヌ","lat":36.316555,"lng":136.326854,"zip":"9220011"},{"town":"大聖寺菅生","koaza":"タ","lat":36.306355,"lng":136.321147,"zip":"9220815"},{"town":"大聖寺永町","koaza":"ホ","lat":36.308133,"lng":136.321418,"zip":"9220024"},{"town":"大聖寺永町","koaza":"ニ","lat":36.310772,"lng":136.321192,"zip":"9220024"},{"town":"高尾町","koaza":"ス","lat":36.323671,"lng":136.32151,"zip":"9220562"},{"town":"大聖寺敷地","koaza":"ソ甲","lat":36.322898,"lng":136.321477,"zip":"9220011"},{"town":"美岬町","koaza":"ハ","lat":36.354139,"lng":136.321904,"zip":"9220551"},{"town":"大聖寺敷地","koaza":"ワ","lat":36.313387,"lng":136.324915,"zip":"9220011"},{"town":"美岬町","koaza":"な","lat":36.351175,"lng":136.323079,"zip":"9220551"},{"town":"美岬町","koaza":"ト","lat":36.35039,"lng":136.324711,"zip":"9220551"},{"town":"美岬町","koaza":"ヘ","lat":36.351053,"lng":136.322646,"zip":"9220551"},{"town":"美岬町","koaza":"田尻境山","lat":36.34403,"lng":136.323604,"zip":"9220551"},{"town":"美岬町","koaza":"尼ゴジ","lat":36.354536,"lng":136.323564,"zip":"9220551"},{"town":"南郷町","koaza":"カ","lat":36.303138,"lng":136.322674,"zip":"9220821"},{"town":"南郷町","koaza":"レ","lat":36.305222,"lng":136.324301,"zip":"9220821"},{"town":"南郷町","koaza":"ワ","lat":36.303727,"lng":136.325219,"zip":"9220821"},{"town":"大聖寺敷地","koaza":"ル甲","lat":36.31466,"lng":136.324462,"zip":"9220011"},{"town":"美岬町","koaza":"ヌ","lat":36.344883,"lng":136.324903,"zip":"9220551"},{"town":"小塩辻町","koaza":"ヤ","lat":36.335244,"lng":136.327601,"zip":"9220445"},{"town":"美岬町","koaza":"い","lat":36.353022,"lng":136.324375,"zip":"9220551"},{"town":"美岬町","koaza":"子","lat":36.353899,"lng":136.326377,"zip":"9220551"},{"town":"美岬町","koaza":"そ","lat":36.353159,"lng":136.325516,"zip":"9220551"},{"town":"大聖寺敷地","koaza":"ヲ","lat":36.313316,"lng":136.327161,"zip":"9220011"},{"town":"美岬町","koaza":"ム","lat":36.350297,"lng":136.326087,"zip":"9220551"},{"town":"美岬町","koaza":"小々谷山","lat":36.344229,"lng":136.32736,"zip":"9220551"},{"town":"美岬町","koaza":"や","lat":36.346069,"lng":136.327268,"zip":"9220551"},{"town":"美岬町","koaza":"れ","lat":36.352886,"lng":136.326895,"zip":"9220551"},{"town":"大聖寺敷地","koaza":"ト","lat":36.315502,"lng":136.327993,"zip":"9220011"},{"town":"大聖寺敷地","koaza":"イ","lat":36.326921,"lng":136.32652,"zip":"9220011"},{"town":"美岬町","koaza":"わ","lat":36.353457,"lng":136.326917,"zip":"9220551"},{"town":"美岬町","koaza":"タ","lat":36.354537,"lng":136.327046,"zip":"9220551"},{"town":"南郷町","koaza":"ソ","lat":36.306703,"lng":136.328421,"zip":"9220821"},{"town":"小塩辻町","koaza":"カ","lat":36.339523,"lng":136.328854,"zip":"9220445"},{"town":"美岬町","koaza":"礼","lat":36.351764,"lng":136.327085,"zip":"9220551"},{"town":"小塩辻町","koaza":"レ","lat":36.342885,"lng":136.327836,"zip":"9220445"},{"town":"美岬町","koaza":"ヨ","lat":36.352033,"lng":136.327145,"zip":"9220551"},{"town":"小塩辻町","koaza":"ソ","lat":36.343539,"lng":136.328149,"zip":"9220445"},{"town":"小塩辻町","koaza":"ヨ","lat":36.33825,"lng":136.328145,"zip":"9220445"},{"town":"美岬町","koaza":"よ","lat":36.354439,"lng":136.327769,"zip":"9220551"},{"town":"美岬町","koaza":"與","lat":36.353313,"lng":136.328353,"zip":"9220551"},{"town":"大聖寺敷地","koaza":"リ","lat":36.317053,"lng":136.329018,"zip":"9220011"},{"town":"小塩辻町","koaza":"ケ","lat":36.341456,"lng":136.330824,"zip":"9220445"},{"town":"山田町","koaza":"リ","lat":36.323242,"lng":136.329958,"zip":"9220431"},{"town":"塩浜町","koaza":"よ","lat":36.347826,"lng":136.32916,"zip":"9220446"},{"town":"塩浜町","koaza":"は","lat":36.354785,"lng":136.33106,"zip":"9220446"},{"town":"小塩辻町","koaza":"タ","lat":36.339227,"lng":136.329399,"zip":"9220445"},{"town":"塩浜町","koaza":"に","lat":36.353947,"lng":136.330879,"zip":"9220446"},{"town":"大聖寺敷地","koaza":"ヘ","lat":36.317007,"lng":136.331098,"zip":"9220011"},{"town":"下河崎町","koaza":"リ","lat":36.308648,"lng":136.331649,"zip":"9220012"},{"town":"下河崎町","koaza":"ト","lat":36.306402,"lng":136.332131,"zip":"9220012"},{"town":"南郷町","koaza":"ル","lat":36.305953,"lng":136.332035,"zip":"9220821"},{"town":"小塩辻町","koaza":"南","lat":36.33633,"lng":136.331862,"zip":"9220445"},{"town":"塩浜町","koaza":"ほ","lat":36.354087,"lng":136.33196,"zip":"9220446"},{"town":"塩浜町","koaza":"と","lat":36.355248,"lng":136.332615,"zip":"9220446"},{"town":"小塩辻町","koaza":"井","lat":36.337762,"lng":136.33356,"zip":"9220445"},{"town":"下河崎町","koaza":"カ","lat":36.30618,"lng":136.332562,"zip":"9220012"},{"town":"小塩辻町","koaza":"笹尾","lat":36.33732,"lng":136.336805,"zip":"9220445"},{"town":"下河崎町","koaza":"ヘ","lat":36.307405,"lng":136.333534,"zip":"9220012"},{"town":"塩浜町","koaza":"ち","lat":36.356367,"lng":136.334303,"zip":"9220446"},{"town":"山田町","koaza":"ワ","lat":36.328798,"lng":136.334129,"zip":"9220431"},{"town":"塩浜町","koaza":"へ","lat":36.353622,"lng":136.332806,"zip":"9220446"},{"town":"塩浜町","koaza":"リ","lat":36.354333,"lng":136.335161,"zip":"9220446"},{"town":"山田町","koaza":"ヲ","lat":36.328177,"lng":136.334086,"zip":"9220431"},{"town":"小塩辻町","koaza":"ウ","lat":36.338794,"lng":136.334541,"zip":"9220445"},{"town":"大菅波町","koaza":"ト","lat":36.318381,"lng":136.334966,"zip":"9220425"},{"town":"山田町","koaza":"カ","lat":36.328643,"lng":136.335989,"zip":"9220431"},{"town":"大聖寺下福田町","koaza":"十七","lat":36.312851,"lng":136.290601,"zip":"9220002"},{"town":"大聖寺下福田町","koaza":"レ","lat":36.309291,"lng":136.288684,"zip":"9220002"},{"town":"黒崎町","koaza":"子","lat":36.33692,"lng":136.294291,"zip":"9220565"},{"town":"黒崎町","koaza":"リ","lat":36.337271,"lng":136.294912,"zip":"9220565"},{"town":"黒崎町","koaza":"チ","lat":36.338205,"lng":136.294977,"zip":"9220565"},{"town":"黒崎町","koaza":"き","lat":36.344476,"lng":136.297741,"zip":"9220565"},{"town":"深田町","koaza":"ロ","lat":36.343448,"lng":136.302612,"zip":"9220566"},{"town":"片野町","koaza":"ス","lat":36.325222,"lng":136.289841,"zip":"9220564"},{"town":"片野町","koaza":"イ","lat":36.323892,"lng":136.285411,"zip":"9220564"},{"town":"大聖寺荻生町","koaza":"十九","lat":36.309392,"lng":136.299191,"zip":"9220003"},{"town":"大聖寺今出町","koaza":"六甲","lat":36.303866,"lng":136.304609,"zip":"9220863"},{"town":"片野町","koaza":"二","lat":36.327274,"lng":136.283244,"zip":"9220564"},{"town":"大聖寺地方町","koaza":"十四","lat":36.305795,"lng":136.299323,"zip":"9220861"},{"town":"大聖寺地方町","koaza":"十三","lat":36.3041,"lng":136.301598,"zip":"9220861"},{"town":"大聖寺地方町","koaza":"六甲","lat":36.303419,"lng":136.305088,"zip":"9220861"},{"town":"大聖寺敷地","koaza":"二十二","lat":36.324782,"lng":136.326334,"zip":"9220011"},{"town":"大聖寺敷地","koaza":"十六","lat":36.322461,"lng":136.326945,"zip":"9220011"},{"town":"大聖寺敷地","koaza":"二十四","lat":36.325287,"lng":136.32789,"zip":"9220011"},{"town":"宮町","koaza":"い","lat":36.339956,"lng":136.31474,"zip":"9220561"},{"town":"大聖寺敷地","koaza":"ナ","lat":36.321826,"lng":136.327049,"zip":"9220011"},{"town":"大聖寺敷地","koaza":"十八","lat":36.322451,"lng":136.326149,"zip":"9220011"},{"town":"大聖寺地方町","koaza":"西栄町","lat":36.303605,"lng":136.304724,"zip":"9220861"},{"town":"塩浜町","koaza":"浜山","lat":36.357221,"lng":136.334634,"zip":"9220446"},{"town":"塩浜町","koaza":"イ","lat":36.357496,"lng":136.333884,"zip":"9220446"},{"town":"小塩町","koaza":"菅崎山","lat":36.344293,"lng":136.311099,"zip":"9220553"},{"town":"小塩町","koaza":"大野山","lat":36.342278,"lng":136.311969,"zip":"9220553"},{"town":"大聖寺三ツ町","koaza":"ム","lat":36.304435,"lng":136.296714,"zip":"9220853"},{"town":"高尾町","koaza":"大山","lat":36.330272,"lng":136.31291,"zip":"9220562"},{"town":"山田町","koaza":"ト","lat":36.331144,"lng":136.331999,"zip":"9220431"},{"town":"山田町","koaza":"北山田","lat":36.328682,"lng":136.332453,"zip":"9220431"},{"town":"大聖寺敷地","koaza":"チ","lat":36.320117,"lng":136.331093,"zip":"9220011"},{"town":"大聖寺菅生","koaza":"ツ","lat":36.30712,"lng":136.321132,"zip":"9220815"},{"town":"大菅波町","koaza":"タ","lat":36.318398,"lng":136.338746,"zip":"9220425"},{"town":"大菅波町","koaza":"ル","lat":36.319483,"lng":136.337839,"zip":"9220425"},{"town":"上河崎町","koaza":"子","lat":36.304593,"lng":136.346202,"zip":"9220013"},{"town":"大菅波町","koaza":"レ","lat":36.318975,"lng":136.338248,"zip":"9220425"},{"town":"山田町","koaza":"タ","lat":36.331112,"lng":136.340568,"zip":"9220431"},{"town":"宮地町","koaza":"ト","lat":36.346344,"lng":136.33894,"zip":"9220444"},{"town":"上河崎町","koaza":"ウ","lat":36.308442,"lng":136.339158,"zip":"9220013"},{"town":"上河崎町","koaza":"ヨ","lat":36.308545,"lng":136.340772,"zip":"9220013"},{"town":"山田町","koaza":"平拍子","lat":36.335146,"lng":136.339677,"zip":"9220431"},{"town":"大菅波町","koaza":"ヨ","lat":36.319074,"lng":136.339325,"zip":"9220425"},{"town":"上河崎町","koaza":"カ","lat":36.3079,"lng":136.340947,"zip":"9220013"},{"town":"大菅波町","koaza":"ヲ","lat":36.319121,"lng":136.341337,"zip":"9220425"},{"town":"篠原町","koaza":"ホ","lat":36.353214,"lng":136.340099,"zip":"9220442"},{"town":"山田町","koaza":"た","lat":36.329403,"lng":136.340044,"zip":"9220431"},{"town":"宮地町","koaza":"チ","lat":36.346568,"lng":136.34101,"zip":"9220444"},{"town":"篠原町","koaza":"ニ","lat":36.354269,"lng":136.340306,"zip":"9220442"},{"town":"篠原町","koaza":"ハ","lat":36.355036,"lng":136.340582,"zip":"9220442"},{"town":"上河崎町","koaza":"タ","lat":36.310127,"lng":136.339843,"zip":"9220013"},{"town":"篠原新町","koaza":"一","lat":36.359837,"lng":136.344672,"zip":"9220441"},{"town":"篠原町","koaza":"リ","lat":36.35304,"lng":136.340962,"zip":"9220442"},{"town":"小菅波町","koaza":"カ","lat":36.319966,"lng":136.342792,"zip":"9220424"},{"town":"上河崎町","koaza":"イ","lat":36.309268,"lng":136.341818,"zip":"9220013"},{"town":"篠原町","koaza":"ル","lat":36.354547,"lng":136.342271,"zip":"9220442"},{"town":"山田町","koaza":"ら","lat":36.32881,"lng":136.342209,"zip":"9220431"},{"town":"篠原町","koaza":"ヌ","lat":36.35345,"lng":136.343074,"zip":"9220442"},{"town":"上河崎町","koaza":"レ","lat":36.30773,"lng":136.343299,"zip":"9220013"},{"town":"山田町","koaza":"な","lat":36.329855,"lng":136.342682,"zip":"9220431"},{"town":"山田町","koaza":"ラ","lat":36.329051,"lng":136.343541,"zip":"9220431"},{"town":"野田町","koaza":"ユ","lat":36.34749,"lng":136.343496,"zip":"9220443"},{"town":"野田町","koaza":"ヨ","lat":36.346338,"lng":136.343476,"zip":"9220443"},{"town":"山田町","koaza":"ナ","lat":36.329969,"lng":136.343292,"zip":"9220431"},{"town":"山田町","koaza":"ウ","lat":36.330443,"lng":136.344358,"zip":"9220431"},{"town":"野田町","koaza":"サ","lat":36.348392,"lng":136.345407,"zip":"9220443"},{"town":"野田町","koaza":"キ","lat":36.347262,"lng":136.345044,"zip":"9220443"},{"town":"潮津町","koaza":"ヘ","lat":36.347889,"lng":136.349863,"zip":"9220411"},{"town":"小菅波町","koaza":"ヌ","lat":36.31904,"lng":136.346272,"zip":"9220424"},{"town":"山田町","koaza":"お","lat":36.33142,"lng":136.347376,"zip":"9220431"},{"town":"野田町","koaza":"松ヶ丘","lat":36.349924,"lng":136.347971,"zip":"9220443"},{"town":"野田町","koaza":"リ","lat":36.3479,"lng":136.34666,"zip":"9220443"},{"town":"保賀町","koaza":"オ","lat":36.305047,"lng":136.34735,"zip":"9220015"},{"town":"作見町","koaza":"甲","lat":36.329168,"lng":136.349,"zip":"9220423"},{"town":"小菅波町","koaza":"平","lat":36.321048,"lng":136.348744,"zip":"9220424"},{"town":"尾中町","koaza":"ホ","lat":36.330997,"lng":136.348574,"zip":"9220428"},{"town":"上河崎町","koaza":"ハ","lat":36.305566,"lng":136.346719,"zip":"9220013"},{"town":"小菅波町","koaza":"ヘ","lat":36.318937,"lng":136.347175,"zip":"9220424"},{"town":"小塩辻町","koaza":"ム","lat":36.337576,"lng":136.339781,"zip":"9220445"},{"town":"塩浜町","koaza":"ゐ","lat":36.354741,"lng":136.336451,"zip":"9220446"},{"town":"篠原町","koaza":"ロ","lat":36.355767,"lng":136.338004,"zip":"9220442"},{"town":"篠原町","koaza":"ア","lat":36.357123,"lng":136.339604,"zip":"9220442"},{"town":"美岬町","koaza":"ナ","lat":36.353421,"lng":136.326486,"zip":"9220551"},{"town":"美岬町","koaza":"ロ","lat":36.353741,"lng":136.32447,"zip":"9220551"},{"town":"美岬町","koaza":"フ","lat":36.353215,"lng":136.323893,"zip":"9220551"},{"town":"美岬町","koaza":"ゐ","lat":36.347501,"lng":136.32552,"zip":"9220551"},{"town":"美岬町","koaza":"ら","lat":36.350625,"lng":136.327274,"zip":"9220551"},{"town":"美岬町","koaza":"ホ","lat":36.350311,"lng":136.327324,"zip":"9220551"},{"town":"美岬町","koaza":"ろ","lat":36.351834,"lng":136.324838,"zip":"9220551"},{"town":"野田町","koaza":"タ","lat":36.346307,"lng":136.342048,"zip":"9220443"},{"town":"深田町","koaza":"リ","lat":36.339621,"lng":136.304092,"zip":"9220566"},{"town":"橋立町","koaza":"ウ","lat":36.350367,"lng":136.306991,"zip":"9220554"},{"town":"小塩町","koaza":"エ","lat":36.351687,"lng":136.315894,"zip":"9220553"},{"town":"橋立町","koaza":"ロ","lat":36.35071,"lng":136.311513,"zip":"9220554"},{"town":"中代町","koaza":"ニ","lat":36.304752,"lng":136.349555,"zip":"9220014"},{"town":"上河崎町","koaza":"オ","lat":36.307912,"lng":136.335747,"zip":"9220013"},{"town":"塩浜町","koaza":"ケ","lat":36.34465,"lng":136.333036,"zip":"9220446"},{"town":"小塩辻町","koaza":"ネ","lat":36.342869,"lng":136.333193,"zip":"9220445"},{"town":"小塩辻町","koaza":"イ","lat":36.33796,"lng":136.335723,"zip":"9220445"},{"town":"田尻町","koaza":"ク","lat":36.349451,"lng":136.319469,"zip":"9220552"},{"town":"高尾町","koaza":"い","lat":36.326004,"lng":136.31602,"zip":"9220562"},{"town":"高尾町","koaza":"ク","lat":36.32779,"lng":136.318744,"zip":"9220562"},{"town":"高尾町","koaza":"リ","lat":36.326119,"lng":136.314503,"zip":"9220562"},{"town":"大聖寺上福田町","koaza":"ヘ","lat":36.31203,"lng":136.30672,"zip":"9220004"},{"town":"大聖寺菅生","koaza":"ニ","lat":36.306457,"lng":136.320133,"zip":"9220815"},{"town":"上河崎町","koaza":"ケ","lat":36.306728,"lng":136.336048,"zip":"9220013"},{"town":"吸坂町","koaza":"カ","lat":36.306152,"lng":136.334305,"zip":"9220822"},{"town":"小菅波町","koaza":"ト","lat":36.320139,"lng":136.347117,"zip":"9220424"},{"town":"大菅波町","koaza":"チ","lat":36.320142,"lng":136.335818,"zip":"9220425"},{"town":"大菅波町","koaza":"フ","lat":36.320339,"lng":136.340202,"zip":"9220425"},{"town":"大聖寺岡町","koaza":"ト","lat":36.313413,"lng":136.319014,"zip":"9220005"},{"town":"大聖寺上福田町","koaza":"ロ","lat":36.31333,"lng":136.314307,"zip":"9220004"},{"town":"大聖寺上福田町","koaza":"ル","lat":36.313056,"lng":136.315497,"zip":"9220004"},{"town":"大聖寺上福田町","koaza":"チ","lat":36.31884,"lng":136.315289,"zip":"9220004"},{"town":"大聖寺畑町","koaza":"ニ甲","lat":36.318059,"lng":136.31377,"zip":"9220004"},{"town":"大聖寺畑町","koaza":"ニ乙","lat":36.317999,"lng":136.311793,"zip":"9220004"},{"town":"高尾町","koaza":"ミ","lat":36.328312,"lng":136.313136,"zip":"9220562"},{"town":"高尾町","koaza":"メ","lat":36.32718,"lng":136.315504,"zip":"9220562"},{"town":"山田町","koaza":"エ","lat":36.326394,"lng":136.342883,"zip":"9220431"},{"town":"山田町","koaza":"イ","lat":36.326037,"lng":136.342477,"zip":"9220431"},{"town":"山田町","koaza":"蛇谷","lat":36.325939,"lng":136.334444,"zip":"9220431"},{"town":"小菅波町","koaza":"チ","lat":36.319986,"lng":136.346727,"zip":"9220424"},{"town":"小菅波町","koaza":"リ","lat":36.319213,"lng":136.343668,"zip":"9220424"},{"town":"大聖寺畑町","koaza":"ニ","lat":36.316602,"lng":136.311495,"zip":"9220004"},{"town":"橋立町","koaza":"ナ","lat":36.348249,"lng":136.309867,"zip":"9220554"},{"town":"橋立町","koaza":"は","lat":36.349009,"lng":136.311206,"zip":"9220554"},{"town":"田尻町","koaza":"ケ","lat":36.350678,"lng":136.316728,"zip":"9220552"},{"town":"田尻町","koaza":"ホ","lat":36.350533,"lng":136.317582,"zip":"9220552"},{"town":"大聖寺南町","koaza":"ニ","lat":36.302926,"lng":136.314942,"zip":"9220811"},{"town":"大聖寺南町","koaza":"ロ","lat":36.303897,"lng":136.315493,"zip":"9220811"},{"town":"黒崎町","koaza":"ハ","lat":36.341493,"lng":136.298169,"zip":"9220565"},{"town":"黒崎町","koaza":"ウ","lat":36.338976,"lng":136.294718,"zip":"9220565"},{"town":"宮町","koaza":"ロ","lat":36.339099,"lng":136.311855,"zip":"9220561"},{"town":"小塩町","koaza":"い","lat":36.346165,"lng":136.310377,"zip":"9220553"},{"town":"田尻町","koaza":"マ","lat":36.349706,"lng":136.317572,"zip":"9220552"},{"town":"小塩辻町","koaza":"ワ","lat":36.341585,"lng":136.324743,"zip":"9220445"},{"town":"高尾町","koaza":"ヌ","lat":36.324991,"lng":136.313991,"zip":"9220562"},{"town":"大聖寺岡町","koaza":"ヨ","lat":36.322587,"lng":136.319545,"zip":"9220005"},{"town":"山田町","koaza":"ニ","lat":36.326556,"lng":136.345896,"zip":"9220431"},{"town":"山田町","koaza":"の","lat":36.328275,"lng":136.34655,"zip":"9220431"},{"town":"山田町","koaza":"子","lat":36.327818,"lng":136.34153,"zip":"9220431"},{"town":"山田町","koaza":"ツ","lat":36.326564,"lng":136.341381,"zip":"9220431"},{"town":"美岬町","koaza":"久","lat":36.352105,"lng":136.327259,"zip":"9220551"},{"town":"中代町","koaza":"ホ","lat":36.306677,"lng":136.349323,"zip":"9220014"},{"town":"吸坂町","koaza":"レ","lat":36.305801,"lng":136.335184,"zip":"9220822"},{"town":"下河崎町","koaza":"レ","lat":36.306582,"lng":136.333946,"zip":"9220012"},{"town":"吸坂町","koaza":"ナ","lat":36.304464,"lng":136.335525,"zip":"9220822"},{"town":"尾中町","koaza":"ニ","lat":36.332235,"lng":136.34989,"zip":"9220428"},{"town":"作見町","koaza":"ワ","lat":36.32166,"lng":136.351517,"zip":"9220423"},{"town":"伊切町","koaza":"甲","lat":36.364885,"lng":136.352075,"zip":"9220406"},{"town":"尾中町","koaza":"ヘ","lat":36.332212,"lng":136.350459,"zip":"9220428"},{"town":"作見町","koaza":"カ","lat":36.322781,"lng":136.350786,"zip":"9220423"},{"town":"作見町","koaza":"ソ","lat":36.33057,"lng":136.351044,"zip":"9220423"},{"town":"作見町","koaza":"リ","lat":36.319074,"lng":136.351183,"zip":"9220423"},{"town":"潮津町","koaza":"ト","lat":36.347154,"lng":136.353607,"zip":"9220411"},{"town":"中代町","koaza":"ル","lat":36.305741,"lng":136.352512,"zip":"9220014"},{"town":"中代町","koaza":"ハ","lat":36.304326,"lng":136.352495,"zip":"9220014"},{"town":"片山津町","koaza":"農山","lat":36.339165,"lng":136.353086,"zip":"9220414"},{"town":"伊切町","koaza":"に","lat":36.361592,"lng":136.356067,"zip":"9220406"},{"town":"潮津町","koaza":"ハ","lat":36.349089,"lng":136.353114,"zip":"9220411"},{"town":"片山津町","koaza":"ユ","lat":36.338017,"lng":136.355795,"zip":"9220414"},{"town":"中代町","koaza":"ヲ","lat":36.303342,"lng":136.354514,"zip":"9220014"},{"town":"作見町","koaza":"ル","lat":36.320059,"lng":136.35387,"zip":"9220423"},{"town":"作見町","koaza":"ロ","lat":36.322458,"lng":136.355099,"zip":"9220423"},{"town":"作見町","koaza":"ヌ","lat":36.319013,"lng":136.353978,"zip":"9220423"},{"town":"作見町","koaza":"ヘ","lat":36.31862,"lng":136.355301,"zip":"9220423"},{"town":"潮津町","koaza":"ユ","lat":36.348654,"lng":136.358661,"zip":"9220411"},{"town":"片山津町","koaza":"松","lat":36.336202,"lng":136.355315,"zip":"9220414"},{"town":"伊切町","koaza":"ワ","lat":36.364999,"lng":136.355614,"zip":"9220406"},{"town":"片山津町","koaza":"巳","lat":36.340521,"lng":136.358626,"zip":"9220414"},{"town":"伊切町","koaza":"タ","lat":36.359793,"lng":136.355572,"zip":"9220406"},{"town":"冨塚町","koaza":"甲","lat":36.329272,"lng":136.356183,"zip":"9220421"},{"town":"潮津町","koaza":"リ","lat":36.346171,"lng":136.360351,"zip":"9220411"},{"town":"冨塚町","koaza":"子","lat":36.327132,"lng":136.356369,"zip":"9220421"},{"town":"手塚町","koaza":"ユ","lat":36.358881,"lng":136.356338,"zip":"9220405"},{"town":"伊切町","koaza":"い","lat":36.369582,"lng":136.35807,"zip":"9220406"},{"town":"潮津町","koaza":"ロ","lat":36.35136,"lng":136.358689,"zip":"9220411"},{"town":"中代町","koaza":"リ","lat":36.306361,"lng":136.354864,"zip":"9220014"},{"town":"作見町","koaza":"ラ","lat":36.325864,"lng":136.356347,"zip":"9220423"},{"town":"伊切町","koaza":"ヲ","lat":36.366156,"lng":136.356329,"zip":"9220406"},{"town":"手塚町","koaza":"サ","lat":36.356639,"lng":136.357226,"zip":"9220405"},{"town":"作見町","koaza":"ハ","lat":36.320328,"lng":136.356143,"zip":"9220423"},{"town":"作見町","koaza":"ニ","lat":36.31929,"lng":136.357661,"zip":"9220423"},{"town":"作見町","koaza":"ト","lat":36.316948,"lng":136.356777,"zip":"9220423"},{"town":"冨塚町","koaza":"瓶焼","lat":36.327416,"lng":136.357115,"zip":"9220421"},{"town":"片山津町","koaza":"城山","lat":36.335748,"lng":136.357104,"zip":"9220414"},{"town":"加茂町","koaza":"カ","lat":36.307468,"lng":136.357656,"zip":"9220241"},{"town":"伊切町","koaza":"レ","lat":36.363408,"lng":136.357056,"zip":"9220406"},{"town":"作見町","koaza":"イ","lat":36.324201,"lng":136.3573,"zip":"9220423"},{"town":"冨塚町","koaza":"中尾","lat":36.33488,"lng":136.361352,"zip":"9220421"},{"town":"伊切町","koaza":"ろ","lat":36.363643,"lng":136.359282,"zip":"9220406"},{"town":"冨塚町","koaza":"チ","lat":36.32575,"lng":136.358145,"zip":"9220421"},{"town":"作見町","koaza":"ホ","lat":36.316407,"lng":136.35799,"zip":"9220423"},{"town":"手塚町","koaza":"テ","lat":36.357758,"lng":136.358564,"zip":"9220405"},{"town":"加茂町","koaza":"五十二","lat":36.309009,"lng":136.359218,"zip":"9220241"},{"town":"伊切町","koaza":"ソ","lat":36.364526,"lng":136.357648,"zip":"9220406"},{"town":"片山津町","koaza":"キ","lat":36.335121,"lng":136.359471,"zip":"9220414"},{"town":"加茂町","koaza":"ワ","lat":36.30319,"lng":136.358803,"zip":"9220241"},{"town":"冨塚町","koaza":"祖開","lat":36.330752,"lng":136.358979,"zip":"9220421"},{"town":"加茂町","koaza":"ヲ","lat":36.307044,"lng":136.360121,"zip":"9220241"},{"town":"潮津町","koaza":"ウ","lat":36.343686,"lng":136.361017,"zip":"9220411"},{"town":"潮津町","koaza":"イ","lat":36.350404,"lng":136.362056,"zip":"9220411"},{"town":"片山津町","koaza":"ア乙","lat":36.334005,"lng":136.362484,"zip":"9220414"},{"town":"潮津町","koaza":"チ","lat":36.347323,"lng":136.360553,"zip":"9220411"},{"town":"新保町","koaza":"拓","lat":36.370883,"lng":136.361053,"zip":"9220401"},{"town":"手塚町","koaza":"セ","lat":36.356752,"lng":136.360405,"zip":"9220405"},{"town":"加茂町","koaza":"三十三","lat":36.308208,"lng":136.360364,"zip":"9220241"},{"town":"伊切町","koaza":"新","lat":36.354826,"lng":136.360749,"zip":"9220406"},{"town":"片山津温泉","koaza":"桜ヶ丘","lat":36.344951,"lng":136.362277,"zip":"9220412"},{"town":"弓波町","koaza":"イ","lat":36.324552,"lng":136.362859,"zip":"9220422"},{"town":"加茂町","koaza":"チ","lat":36.308515,"lng":136.362522,"zip":"9220241"},{"town":"片山津温泉","koaza":"ア","lat":36.347943,"lng":136.363476,"zip":"9220412"},{"town":"加茂町","koaza":"ハ","lat":36.308726,"lng":136.365298,"zip":"9220241"},{"town":"冨塚町","koaza":"イ","lat":36.327412,"lng":136.363973,"zip":"9220421"},{"town":"片山津町","koaza":"ク","lat":36.337652,"lng":136.364999,"zip":"9220414"},{"town":"弓波町","koaza":"ニ","lat":36.324031,"lng":136.364508,"zip":"9220422"},{"town":"片山津温泉","koaza":"七","lat":36.344591,"lng":136.365166,"zip":"9220412"},{"town":"片山津温泉","koaza":"ヒ","lat":36.345297,"lng":136.364551,"zip":"9220412"},{"town":"片山津町","koaza":"子","lat":36.340984,"lng":136.365854,"zip":"9220414"},{"town":"弓波町","koaza":"ホ","lat":36.325449,"lng":136.365327,"zip":"9220422"},{"town":"冨塚町","koaza":"ヌ","lat":36.328756,"lng":136.365919,"zip":"9220421"},{"town":"西島町","koaza":"チ","lat":36.307648,"lng":136.367205,"zip":"9220334"},{"town":"片山津町","koaza":"テ","lat":36.338671,"lng":136.366299,"zip":"9220414"},{"town":"片山津温泉","koaza":"乙","lat":36.344812,"lng":136.367192,"zip":"9220412"},{"town":"片山津町","koaza":"セ","lat":36.334843,"lng":136.368153,"zip":"9220414"},{"town":"伊切町","koaza":"フ","lat":36.362285,"lng":136.366913,"zip":"9220406"},{"town":"片山津温泉","koaza":"十一","lat":36.344248,"lng":136.36652,"zip":"9220412"},{"town":"新保町","koaza":"ヤ","lat":36.361412,"lng":136.36704,"zip":"9220401"},{"town":"片山津町","koaza":"オ","lat":36.339488,"lng":136.36743,"zip":"9220414"},{"town":"片山津温泉","koaza":"井","lat":36.342589,"lng":136.367916,"zip":"9220412"},{"town":"西島町","koaza":"ワ","lat":36.3089,"lng":136.370446,"zip":"9220334"},{"town":"新保町","koaza":"三","lat":36.367124,"lng":136.371218,"zip":"9220401"},{"town":"新保町","koaza":"ワ","lat":36.36211,"lng":136.368689,"zip":"9220401"},{"town":"片山津町","koaza":"リ","lat":36.338295,"lng":136.368915,"zip":"9220414"},{"town":"片山津町","koaza":"タ","lat":36.340473,"lng":136.369198,"zip":"9220414"},{"town":"片山津町","koaza":"ソ","lat":36.342287,"lng":136.369617,"zip":"9220414"},{"town":"片山津町","koaza":"ハ","lat":36.332785,"lng":136.36869,"zip":"9220414"},{"town":"片山津町","koaza":"ニ","lat":36.33426,"lng":136.369541,"zip":"9220414"},{"town":"西島町","koaza":"井","lat":36.312077,"lng":136.369955,"zip":"9220334"},{"town":"片山津町","koaza":"チ","lat":36.335708,"lng":136.370086,"zip":"9220414"},{"town":"片山津温泉","koaza":"ウ","lat":36.342539,"lng":136.370329,"zip":"9220412"},{"town":"新保町","koaza":"タ","lat":36.365652,"lng":136.370962,"zip":"9220401"},{"town":"八日市町","koaza":"ハ","lat":36.325507,"lng":136.370055,"zip":"9220336"},{"town":"新保町","koaza":"カ","lat":36.363507,"lng":136.370983,"zip":"9220401"},{"town":"八日市町","koaza":"イ","lat":36.325541,"lng":136.370739,"zip":"9220336"},{"town":"片山津町","koaza":"ツ","lat":36.341835,"lng":136.372669,"zip":"9220414"},{"town":"新保町","koaza":"ヨ","lat":36.364624,"lng":136.372547,"zip":"9220401"},{"town":"七日市町","koaza":"イ","lat":36.316968,"lng":136.372421,"zip":"9220335"},{"town":"八日市町","koaza":"ロ","lat":36.324186,"lng":136.371754,"zip":"9220336"},{"town":"七日市町","koaza":"チ","lat":36.315202,"lng":136.372313,"zip":"9220335"},{"town":"片山津町","koaza":"ホ","lat":36.334533,"lng":136.372709,"zip":"9220414"},{"town":"片山津町","koaza":"ヘ","lat":36.334868,"lng":136.374467,"zip":"9220414"},{"town":"片山津町","koaza":"ト","lat":36.33565,"lng":136.372811,"zip":"9220414"},{"town":"新保町","koaza":"ル","lat":36.366576,"lng":136.374365,"zip":"9220401"},{"town":"八日市町","koaza":"ニ","lat":36.326623,"lng":136.371433,"zip":"9220336"},{"town":"片山津町","koaza":"北","lat":36.340872,"lng":136.374036,"zip":"9220414"},{"town":"七日市町","koaza":"リ","lat":36.313175,"lng":136.373172,"zip":"9220335"},{"town":"七日市町","koaza":"ル","lat":36.307043,"lng":136.373705,"zip":"9220335"},{"town":"新保町","koaza":"乙","lat":36.370292,"lng":136.373333,"zip":"9220401"},{"town":"西島町","koaza":"カ","lat":36.31101,"lng":136.371075,"zip":"9220334"},{"town":"庄町","koaza":"ル","lat":36.316969,"lng":136.375203,"zip":"9220332"},{"town":"新保町","koaza":"ロ","lat":36.380495,"lng":136.375216,"zip":"9220401"},{"town":"新保町","koaza":"ヲ","lat":36.366116,"lng":136.375442,"zip":"9220401"},{"town":"七日市町","koaza":"ヌ","lat":36.309095,"lng":136.374471,"zip":"9220335"},{"town":"新保町","koaza":"リ","lat":36.368135,"lng":136.374968,"zip":"9220401"},{"town":"津波倉町","koaza":"ホ","lat":36.309802,"lng":136.375024,"zip":"9220333"},{"town":"柴山町","koaza":"と","lat":36.357847,"lng":136.376319,"zip":"9220402"},{"town":"庄町","koaza":"ヌ","lat":36.318865,"lng":136.373709,"zip":"9220332"},{"town":"庄町","koaza":"ワ","lat":36.312344,"lng":136.375223,"zip":"9220332"},{"town":"二子塚町","koaza":"ヌ","lat":36.30903,"lng":136.376241,"zip":"9220325"},{"town":"津波倉町","koaza":"ニ","lat":36.310648,"lng":136.376253,"zip":"9220333"},{"town":"庄町","koaza":"ヲ","lat":36.314619,"lng":136.375815,"zip":"9220332"},{"town":"津波倉町","koaza":"ハ","lat":36.312048,"lng":136.37749,"zip":"9220333"},{"town":"合河町","koaza":"ホ","lat":36.334385,"lng":136.377772,"zip":"9220337"},{"town":"動橋町","koaza":"ム","lat":36.330197,"lng":136.379973,"zip":"9220331"},{"town":"新保町","koaza":"ホ","lat":36.367619,"lng":136.377252,"zip":"9220401"},{"town":"二子塚町","koaza":"リ","lat":36.310057,"lng":136.377664,"zip":"9220325"},{"town":"柴山町","koaza":"し","lat":36.356539,"lng":136.378004,"zip":"9220402"},{"town":"津波倉町","koaza":"ロ","lat":36.311417,"lng":136.378389,"zip":"9220333"},{"town":"動橋町","koaza":"井","lat":36.328519,"lng":136.377761,"zip":"9220331"},{"town":"柴山町","koaza":"よ","lat":36.36039,"lng":136.38414,"zip":"9220402"},{"town":"庄町","koaza":"カ","lat":36.312172,"lng":136.379424,"zip":"9220332"},{"town":"合河町","koaza":"ハ","lat":36.333273,"lng":136.378787,"zip":"9220337"},{"town":"片山津町","koaza":"奈","lat":36.343475,"lng":136.378793,"zip":"9220414"},{"town":"二子塚町","koaza":"ハ","lat":36.305345,"lng":136.380152,"zip":"9220325"},{"town":"二子塚町","koaza":"チ","lat":36.308109,"lng":136.37946,"zip":"9220325"},{"town":"合河町","koaza":"ロ","lat":36.332382,"lng":136.38084,"zip":"9220337"},{"town":"柴山町","koaza":"三","lat":36.358417,"lng":136.380804,"zip":"9220402"},{"town":"合河町","koaza":"ヘ","lat":36.334711,"lng":136.381071,"zip":"9220337"},{"town":"桑原町","koaza":"チ","lat":36.311691,"lng":136.382294,"zip":"9220326"},{"town":"桑原町","koaza":"ト","lat":36.313698,"lng":136.382477,"zip":"9220326"},{"town":"柴山町","koaza":"二","lat":36.360372,"lng":136.380739,"zip":"9220402"},{"town":"動橋町","koaza":"ラ","lat":36.330043,"lng":136.383818,"zip":"9220331"},{"town":"動橋町","koaza":"ネ","lat":36.326065,"lng":136.381713,"zip":"9220331"},{"town":"柴山町","koaza":"ツ","lat":36.361944,"lng":136.381691,"zip":"9220402"},{"town":"柴山町","koaza":"れ","lat":36.363548,"lng":136.380932,"zip":"9220402"},{"town":"桑原町","koaza":"リ","lat":36.309479,"lng":136.382219,"zip":"9220326"},{"town":"桑原町","koaza":"ヘ","lat":36.316292,"lng":136.381169,"zip":"9220326"},{"town":"動橋町","koaza":"ナ","lat":36.328843,"lng":136.382463,"zip":"9220331"},{"town":"柴山町","koaza":"ノ","lat":36.362753,"lng":136.384571,"zip":"9220402"},{"town":"柴山町","koaza":"一","lat":36.359725,"lng":136.382898,"zip":"9220402"},{"town":"柴山町","koaza":"ね","lat":36.363548,"lng":136.383132,"zip":"9220402"},{"town":"動橋町","koaza":"レ","lat":36.318752,"lng":136.382572,"zip":"9220331"},{"town":"桑原町","koaza":"ニ","lat":36.319159,"lng":136.383677,"zip":"9220326"},{"town":"動橋町","koaza":"ヨ","lat":36.324216,"lng":136.384532,"zip":"9220331"},{"town":"動橋町","koaza":"タ","lat":36.321506,"lng":136.383429,"zip":"9220331"},{"town":"河原町","koaza":"ト","lat":36.307423,"lng":136.383204,"zip":"9220314"},{"town":"桑原町","koaza":"イ","lat":36.312969,"lng":136.384444,"zip":"9220326"},{"town":"桑原町","koaza":"ホ","lat":36.314625,"lng":136.384141,"zip":"9220326"},{"town":"桑原町","koaza":"ル","lat":36.310599,"lng":136.384592,"zip":"9220326"},{"town":"動橋町","koaza":"イ","lat":36.326722,"lng":136.38354,"zip":"9220331"},{"town":"動橋町","koaza":"ロ","lat":36.329207,"lng":136.385879,"zip":"9220331"},{"town":"中島町","koaza":"六","lat":36.33955,"lng":136.386357,"zip":"9220306"},{"town":"動橋町","koaza":"カ","lat":36.321412,"lng":136.385467,"zip":"9220331"},{"town":"河原町","koaza":"ホ","lat":36.307217,"lng":136.384,"zip":"9220314"},{"town":"合河町","koaza":"イ","lat":36.333478,"lng":136.385352,"zip":"9220337"},{"town":"中島町","koaza":"ラ","lat":36.33752,"lng":136.38703,"zip":"9220306"},{"town":"梶井町","koaza":"ケ","lat":36.319948,"lng":136.385179,"zip":"9220305"},{"town":"動橋町","koaza":"ワ","lat":36.32452,"lng":136.386377,"zip":"9220331"},{"town":"桑原町","koaza":"ロ","lat":36.314721,"lng":136.3863,"zip":"9220326"},{"town":"動橋町","koaza":"ニ","lat":36.331901,"lng":136.386781,"zip":"9220331"},{"town":"河原町","koaza":"イ","lat":36.304756,"lng":136.386958,"zip":"9220314"},{"town":"中島町","koaza":"ナ","lat":36.338577,"lng":136.38658,"zip":"9220306"},{"town":"中島町","koaza":"よ","lat":36.344716,"lng":136.387774,"zip":"9220306"},{"town":"動橋町","koaza":"ヲ","lat":36.32427,"lng":136.387383,"zip":"9220331"},{"town":"動橋町","koaza":"ハ","lat":36.329707,"lng":136.388259,"zip":"9220331"},{"town":"合河町","koaza":"ヲ","lat":36.333432,"lng":136.387888,"zip":"9220337"},{"town":"動橋町","koaza":"ホ","lat":36.331051,"lng":136.38909,"zip":"9220331"},{"town":"河原町","koaza":"ロ","lat":36.306077,"lng":136.388737,"zip":"9220314"},{"town":"清水町","koaza":"イ","lat":36.30833,"lng":136.389689,"zip":"9220315"},{"town":"中島町","koaza":"五","lat":36.340715,"lng":136.388456,"zip":"9220306"},{"town":"動橋町","koaza":"ル","lat":36.326926,"lng":136.388794,"zip":"9220331"},{"town":"中島町","koaza":"ニ","lat":36.336731,"lng":136.389276,"zip":"9220306"},{"town":"中島町","koaza":"ホ","lat":36.339393,"lng":136.388748,"zip":"9220306"},{"town":"動橋町","koaza":"ヌ","lat":36.329059,"lng":136.388318,"zip":"9220331"},{"town":"梶井町","koaza":"ヨ","lat":36.3221,"lng":136.389851,"zip":"9220305"},{"town":"動橋町","koaza":"ヘ","lat":36.328901,"lng":136.390639,"zip":"9220331"},{"town":"中島町","koaza":"ハ","lat":36.333441,"lng":136.389376,"zip":"9220306"},{"town":"松山町","koaza":"ハ","lat":36.313202,"lng":136.389678,"zip":"9220316"},{"town":"松山町","koaza":"イ","lat":36.317285,"lng":136.390633,"zip":"9220316"},{"town":"勅使町","koaza":"ヌ","lat":36.303814,"lng":136.389982,"zip":"9220313"},{"town":"動橋町","koaza":"リ","lat":36.325311,"lng":136.390247,"zip":"9220331"},{"town":"清水町","koaza":"ニ","lat":36.309509,"lng":136.389778,"zip":"9220315"},{"town":"清水町","koaza":"ロ","lat":36.306952,"lng":136.389897,"zip":"9220315"},{"town":"動橋町","koaza":"チ","lat":36.326847,"lng":136.390533,"zip":"9220331"},{"town":"勅使町","koaza":"リ","lat":36.303126,"lng":136.391333,"zip":"9220313"},{"town":"清水町","koaza":"ハ","lat":36.30949,"lng":136.390657,"zip":"9220315"},{"town":"中島町","koaza":"ヘ","lat":36.338799,"lng":136.391368,"zip":"9220306"},{"town":"中島町","koaza":"一","lat":36.332289,"lng":136.391572,"zip":"9220306"},{"town":"梶井町","koaza":"ヲ","lat":36.322116,"lng":136.390712,"zip":"9220305"},{"town":"勅使町","koaza":"チ","lat":36.304469,"lng":136.391481,"zip":"9220313"},{"town":"中島町","koaza":"イ","lat":36.331286,"lng":136.391802,"zip":"9220306"},{"town":"分校町","koaza":"ぬ","lat":36.317733,"lng":136.393834,"zip":"9220304"},{"town":"勅使町","koaza":"ヲ","lat":36.301995,"lng":136.39177,"zip":"9220313"},{"town":"動橋町","koaza":"ト","lat":36.330949,"lng":136.393451,"zip":"9220331"},{"town":"分校町","koaza":"る","lat":36.320721,"lng":136.395585,"zip":"9220304"},{"town":"勅使町","koaza":"ハ","lat":36.304194,"lng":136.393825,"zip":"9220313"},{"town":"栄谷町","koaza":"ロ","lat":36.308797,"lng":136.396191,"zip":"9220311"},{"town":"宇谷町","koaza":"戊","lat":36.304259,"lng":136.397923,"zip":"9220312"},{"town":"分校町","koaza":"カ","lat":36.321033,"lng":136.396003,"zip":"9220304"},{"town":"分校町","koaza":"リ","lat":36.323298,"lng":136.399095,"zip":"9220304"},{"town":"栄谷町","koaza":"カ","lat":36.307995,"lng":136.398037,"zip":"9220311"},{"town":"分校町","koaza":"前山","lat":36.31807,"lng":136.397263,"zip":"9220304"},{"town":"分校町","koaza":"ヌ","lat":36.320843,"lng":136.398369,"zip":"9220304"},{"town":"分校町","koaza":"ち","lat":36.320008,"lng":136.39852,"zip":"9220304"},{"town":"高塚町","koaza":"ホ","lat":36.335201,"lng":136.399307,"zip":"9220301"},{"town":"高塚町","koaza":"ト","lat":36.336541,"lng":136.399704,"zip":"9220301"},{"town":"分校町","koaza":"ル","lat":36.321651,"lng":136.398573,"zip":"9220304"},{"town":"栄谷町","koaza":"ル","lat":36.308358,"lng":136.399927,"zip":"9220311"},{"town":"打越町","koaza":"ニ","lat":36.329697,"lng":136.400012,"zip":"9220302"},{"town":"宇谷町","koaza":"イ","lat":36.3054,"lng":136.400359,"zip":"9220312"},{"town":"分校町","koaza":"ユ","lat":36.317067,"lng":136.401699,"zip":"9220304"},{"town":"分校町","koaza":"井","lat":36.325252,"lng":136.400634,"zip":"9220304"},{"town":"分校町","koaza":"と","lat":36.320994,"lng":136.400495,"zip":"9220304"},{"town":"宇谷町","koaza":"己","lat":36.303221,"lng":136.400732,"zip":"9220312"},{"town":"分校町","koaza":"ウ","lat":36.3237,"lng":136.401384,"zip":"9220304"},{"town":"打越町","koaza":"と","lat":36.335312,"lng":136.403337,"zip":"9220302"},{"town":"打越町","koaza":"ヘ","lat":36.334222,"lng":136.401261,"zip":"9220302"},{"town":"分校町","koaza":"ヘ","lat":36.327632,"lng":136.402072,"zip":"9220304"},{"town":"高塚町","koaza":"ヘ","lat":36.337286,"lng":136.40203,"zip":"9220301"},{"town":"打越町","koaza":"ホ","lat":36.32962,"lng":136.401498,"zip":"9220302"},{"town":"分校町","koaza":"ノ","lat":36.320129,"lng":136.40299,"zip":"9220304"},{"town":"分校町","koaza":"オ","lat":36.325075,"lng":136.402711,"zip":"9220304"},{"town":"高塚町","koaza":"リ","lat":36.339395,"lng":136.403544,"zip":"9220301"},{"town":"分校町","koaza":"フ","lat":36.322243,"lng":136.402161,"zip":"9220304"},{"town":"分校町","koaza":"ろ","lat":36.326355,"lng":136.404486,"zip":"9220304"},{"town":"高塚町","koaza":"ヲ","lat":36.337356,"lng":136.403666,"zip":"9220301"},{"town":"箱宮町","koaza":"ト","lat":36.328129,"lng":136.405295,"zip":"9220303"},{"town":"分校町","koaza":"ク","lat":36.327798,"lng":136.406552,"zip":"9220304"},{"town":"打越町","koaza":"ち","lat":36.3345,"lng":136.405329,"zip":"9220302"},{"town":"栄谷町","koaza":"ト","lat":36.310189,"lng":136.404789,"zip":"9220311"},{"town":"打越町","koaza":"む","lat":36.336242,"lng":136.405549,"zip":"9220302"},{"town":"宇谷町","koaza":"ハ","lat":36.30285,"lng":136.405909,"zip":"9220312"},{"town":"分校町","koaza":"い","lat":36.325756,"lng":136.406766,"zip":"9220304"},{"town":"分校町","koaza":"ほ","lat":36.321378,"lng":136.408046,"zip":"9220304"},{"town":"打越町","koaza":"ら","lat":36.335549,"lng":136.407541,"zip":"9220302"},{"town":"箱宮町","koaza":"ヘ","lat":36.330101,"lng":136.407104,"zip":"9220303"},{"town":"箱宮町","koaza":"ウ","lat":36.330223,"lng":136.409289,"zip":"9220303"},{"town":"箱宮町","koaza":"ヌ","lat":36.326431,"lng":136.408512,"zip":"9220303"},{"town":"高塚町","koaza":"ら","lat":36.336952,"lng":136.408509,"zip":"9220301"},{"town":"箱宮町","koaza":"井","lat":36.331388,"lng":136.409883,"zip":"9220303"},{"town":"箱宮町","koaza":"ヨ","lat":36.328978,"lng":136.408681,"zip":"9220303"},{"town":"箱宮町","koaza":"カ","lat":36.327572,"lng":136.408555,"zip":"9220303"},{"town":"打越町","koaza":"れ","lat":36.336299,"lng":136.40966,"zip":"9220302"},{"town":"箱宮町","koaza":"ム","lat":36.328797,"lng":136.411632,"zip":"9220303"},{"town":"箱宮町","koaza":"ノ","lat":36.331364,"lng":136.411946,"zip":"9220303"},{"town":"箱宮町","koaza":"レ","lat":36.326008,"lng":136.412276,"zip":"9220303"},{"town":"箱宮町","koaza":"ク","lat":36.330165,"lng":136.413943,"zip":"9220303"},{"town":"箱宮町","koaza":"ラ","lat":36.327947,"lng":136.41311,"zip":"9220303"},{"town":"箱宮町","koaza":"ナ","lat":36.327002,"lng":136.414109,"zip":"9220303"},{"town":"打越町","koaza":"ソ","lat":36.334951,"lng":136.415897,"zip":"9220302"},{"town":"弓波町","koaza":"ヨ","lat":36.316478,"lng":136.359008,"zip":"9220422"},{"town":"加茂町","koaza":"ソ","lat":36.315318,"lng":136.358084,"zip":"9220241"},{"town":"加茂町","koaza":"ヨ","lat":36.30972,"lng":136.357993,"zip":"9220241"},{"town":"西島町","koaza":"ヌ","lat":36.304724,"lng":136.369044,"zip":"9220334"},{"town":"西島町","koaza":"ル","lat":36.305652,"lng":136.370629,"zip":"9220334"},{"town":"上野町","koaza":"井","lat":36.303363,"lng":136.370122,"zip":"9220222"},{"town":"分校町","koaza":"タ","lat":36.318551,"lng":136.395746,"zip":"9220304"},{"town":"分校町","koaza":"ヨ","lat":36.322827,"lng":136.39618,"zip":"9220304"},{"town":"分校町","koaza":"ケ","lat":36.324162,"lng":136.404717,"zip":"9220304"},{"town":"分校町","koaza":"コ","lat":36.321778,"lng":136.406314,"zip":"9220304"},{"town":"新保町","koaza":"ほ","lat":36.360069,"lng":136.359469,"zip":"9220401"},{"town":"柴山町","koaza":"も","lat":36.357297,"lng":136.364315,"zip":"9220402"},{"town":"柴山町","koaza":"ひ","lat":36.357911,"lng":136.36783,"zip":"9220402"},{"town":"柴山町","koaza":"ソ","lat":36.362408,"lng":136.380755,"zip":"9220402"},{"town":"新保町","koaza":"ト","lat":36.374659,"lng":136.376207,"zip":"9220401"},{"town":"八日市町","koaza":"ホ","lat":36.328209,"lng":136.371342,"zip":"9220336"},{"town":"片山津温泉","koaza":"ク","lat":36.344308,"lng":136.367531,"zip":"9220412"},{"town":"片山津温泉","koaza":"モ","lat":36.346218,"lng":136.365615,"zip":"9220412"},{"town":"片山津温泉","koaza":"ヨ","lat":36.343495,"lng":136.36692,"zip":"9220412"},{"town":"片山津温泉","koaza":"大欠","lat":36.343324,"lng":136.366616,"zip":"9220412"},{"town":"新保町","koaza":"灰戸山","lat":36.358374,"lng":136.368744,"zip":"9220401"},{"town":"新保町","koaza":"ケ","lat":36.363179,"lng":136.36784,"zip":"9220401"},{"town":"伊切町","koaza":"は","lat":36.359565,"lng":136.360502,"zip":"9220406"},{"town":"伊切町","koaza":"丁","lat":36.359221,"lng":136.360934,"zip":"9220406"},{"town":"新保町","koaza":"ウ","lat":36.364287,"lng":136.368685,"zip":"9220401"},{"town":"新保町","koaza":"ラ","lat":36.36456,"lng":136.36999,"zip":"9220401"},{"town":"柴山町","koaza":"ゆ","lat":36.361204,"lng":136.380965,"zip":"9220402"},{"town":"潮津町","koaza":"村の上","lat":36.346118,"lng":136.355065,"zip":"9220411"},{"town":"片山津温泉","koaza":"辰","lat":36.343623,"lng":136.363499,"zip":"9220412"},{"town":"片山津温泉","koaza":"丙","lat":36.344149,"lng":136.365063,"zip":"9220412"},{"town":"中島町","koaza":"ト","lat":36.336349,"lng":136.391333,"zip":"9220306"},{"town":"合河町","koaza":"ニ","lat":36.330845,"lng":136.375063,"zip":"9220337"},{"town":"動橋町","koaza":"ウ","lat":36.328526,"lng":136.378744,"zip":"9220331"},{"town":"庄町","koaza":"ロ","lat":36.32645,"lng":136.37572,"zip":"9220332"},{"town":"動橋町","koaza":"オ","lat":36.327948,"lng":136.375732,"zip":"9220331"},{"town":"片山津町","koaza":"ス乙","lat":36.337481,"lng":136.363892,"zip":"9220414"},{"town":"片山津町","koaza":"ス丙","lat":36.338644,"lng":136.365517,"zip":"9220414"},{"town":"片山津町","koaza":"ワ","lat":36.339864,"lng":136.363769,"zip":"9220414"},{"town":"片山津町","koaza":"エ","lat":36.338377,"lng":136.366677,"zip":"9220414"},{"town":"伊切町","koaza":"ナ","lat":36.364511,"lng":136.368427,"zip":"9220406"},{"town":"弓波町","koaza":"ロ","lat":36.325983,"lng":136.36031,"zip":"9220422"},{"town":"潮津町","koaza":"ム","lat":36.347533,"lng":136.358572,"zip":"9220411"},{"town":"桑原町","koaza":"ハ","lat":36.316982,"lng":136.386634,"zip":"9220326"},{"town":"片山津温泉","koaza":"丁","lat":36.343191,"lng":136.362106,"zip":"9220412"},{"town":"潮津町","koaza":"タ","lat":36.343495,"lng":136.361106,"zip":"9220411"},{"town":"片山津温泉","koaza":"シ","lat":36.344512,"lng":136.363004,"zip":"9220412"},{"town":"片山津温泉","koaza":"セ","lat":36.34594,"lng":136.364933,"zip":"9220412"},{"town":"片山津温泉","koaza":"堂後","lat":36.34579,"lng":136.363942,"zip":"9220412"},{"town":"片山津温泉","koaza":"子","lat":36.346384,"lng":136.362606,"zip":"9220412"},{"town":"伊切町","koaza":"乙","lat":36.36489,"lng":136.353835,"zip":"9220406"},{"town":"片山津町","koaza":"ム","lat":36.34343,"lng":136.37429,"zip":"9220414"},{"town":"片山津温泉","koaza":"甲","lat":36.342914,"lng":136.366914,"zip":"9220412"},{"town":"中島町","koaza":"子","lat":36.341985,"lng":136.386376,"zip":"9220306"},{"town":"合河町","koaza":"ア","lat":36.333529,"lng":136.387542,"zip":"9220337"},{"town":"箱宮町","koaza":"ヤ","lat":36.332699,"lng":136.413471,"zip":"9220303"},{"town":"箱宮町","koaza":"オ","lat":36.331155,"lng":136.413854,"zip":"9220303"},{"town":"箱宮町","koaza":"ヲ","lat":36.325464,"lng":136.410625,"zip":"9220303"},{"town":"箱宮町","koaza":"ル","lat":36.324645,"lng":136.410997,"zip":"9220303"},{"town":"箱宮町","koaza":"エ","lat":36.324507,"lng":136.413318,"zip":"9220303"},{"town":"分校町","koaza":"に","lat":36.322075,"lng":136.409556,"zip":"9220304"},{"town":"分校町","koaza":"マ","lat":36.321838,"lng":136.405517,"zip":"9220304"},{"town":"分校町","koaza":"ハ","lat":36.324174,"lng":136.397564,"zip":"9220304"},{"town":"分校町","koaza":"は","lat":36.323352,"lng":136.403996,"zip":"9220304"},{"town":"分校町","koaza":"ト","lat":36.324173,"lng":136.398101,"zip":"9220304"},{"town":"分校町","koaza":"ア","lat":36.317717,"lng":136.404846,"zip":"9220304"},{"town":"分校町","koaza":"ム","lat":36.32199,"lng":136.400714,"zip":"9220304"},{"town":"庄町","koaza":"イ","lat":36.326669,"lng":136.377841,"zip":"9220332"},{"town":"西島町","koaza":"ト","lat":36.310456,"lng":136.369144,"zip":"9220334"},{"town":"冨塚町","koaza":"ホ","lat":36.325967,"lng":136.364769,"zip":"9220421"},{"town":"冨塚町","koaza":"ロ","lat":36.326565,"lng":136.367879,"zip":"9220421"},{"town":"冨塚町","koaza":"ト","lat":36.326654,"lng":136.363044,"zip":"9220421"},{"town":"栄谷町","koaza":"ワ","lat":36.306171,"lng":136.397366,"zip":"9220311"},{"town":"栄谷町","koaza":"ヲ","lat":36.306207,"lng":136.399685,"zip":"9220311"},{"town":"栄谷町","koaza":"ナ","lat":36.305469,"lng":136.398933,"zip":"9220311"},{"town":"宇谷町","koaza":"ウ","lat":36.303171,"lng":136.396227,"zip":"9220312"},{"town":"宇谷町","koaza":"子","lat":36.303286,"lng":136.402189,"zip":"9220312"},{"town":"宇谷町","koaza":"ロ","lat":36.303991,"lng":136.40402,"zip":"9220312"},{"town":"松山町","koaza":"ホ","lat":36.311356,"lng":136.388739,"zip":"9220316"},{"town":"二子塚町","koaza":"ロ","lat":36.306041,"lng":136.379666,"zip":"9220325"},{"town":"二子塚町","koaza":"ホ","lat":36.304084,"lng":136.381657,"zip":"9220325"},{"town":"西島町","koaza":"ヨ","lat":36.312275,"lng":136.371921,"zip":"9220334"},{"town":"西島町","koaza":"エ","lat":36.307156,"lng":136.368842,"zip":"9220334"},{"town":"加茂町","koaza":"ト","lat":36.308789,"lng":136.361278,"zip":"9220241"},{"town":"中代町","koaza":"ヌ","lat":36.307193,"lng":136.354013,"zip":"9220014"},{"town":"冨塚町","koaza":"ユ","lat":36.327919,"lng":136.356779,"zip":"9220421"},{"town":"作見町","koaza":"ヨ","lat":36.323709,"lng":136.352567,"zip":"9220423"},{"town":"作見町","koaza":"ヲ","lat":36.32232,"lng":136.352555,"zip":"9220423"},{"town":"弓波町","koaza":"ハ","lat":36.323828,"lng":136.359607,"zip":"9220422"},{"town":"片山津町","koaza":"ネ","lat":36.342555,"lng":136.375265,"zip":"9220414"},{"town":"伊切町","koaza":"ト","lat":36.367039,"lng":136.355734,"zip":"9220406"},{"town":"西島町","koaza":"リ","lat":36.305833,"lng":136.368967,"zip":"9220334"},{"town":"河原町","koaza":"ヘ","lat":36.30533,"lng":136.38501,"zip":"9220314"},{"town":"栄谷町","koaza":"一","lat":36.306484,"lng":136.398136,"zip":"9220311"},{"town":"松山町","koaza":"ロ","lat":36.314561,"lng":136.39035,"zip":"9220316"},{"town":"松山町","koaza":"ニ","lat":36.313102,"lng":136.392706,"zip":"9220316"},{"town":"分校町","koaza":"ソ","lat":36.315711,"lng":136.3917,"zip":"9220304"},{"town":"作見町","koaza":"ナ","lat":36.324053,"lng":136.35425,"zip":"9220423"},{"town":"作見町","koaza":"レ","lat":36.327369,"lng":136.353842,"zip":"9220423"},{"town":"冨塚町","koaza":"リ","lat":36.331252,"lng":136.366551,"zip":"9220421"},{"town":"冨塚町","koaza":"ニ","lat":36.330375,"lng":136.366022,"zip":"9220421"},{"town":"梶井町","koaza":"ル","lat":36.32153,"lng":136.390351,"zip":"9220305"},{"town":"中島町","koaza":"ロ","lat":36.334417,"lng":136.391349,"zip":"9220306"},{"town":"新保町","koaza":"チ","lat":36.370113,"lng":136.377858,"zip":"9220401"},{"town":"新保町","koaza":"ヘ","lat":36.370893,"lng":136.368277,"zip":"9220401"},{"town":"作見町","koaza":"藤平山","lat":36.328532,"lng":136.349486,"zip":"9220423"},{"town":"作見町","koaza":"大野山","lat":36.32981,"lng":136.349745,"zip":"9220423"},{"town":"山田町","koaza":"ク","lat":36.330321,"lng":136.34884,"zip":"9220431"},{"town":"尾中町","koaza":"イ","lat":36.335476,"lng":136.352018,"zip":"9220428"},{"town":"冨塚町","koaza":"千本松","lat":36.337956,"lng":136.345796,"zip":"9220421"},{"town":"潮津町","koaza":"ソ","lat":36.350317,"lng":136.349083,"zip":"9220411"},{"town":"潮津町","koaza":"レ","lat":36.351966,"lng":136.349349,"zip":"9220411"},{"town":"篠原新町","koaza":"セ","lat":36.362429,"lng":136.346443,"zip":"9220441"},{"town":"冨塚町","koaza":"ツ","lat":36.328098,"lng":136.357008,"zip":"9220421"},{"town":"塩屋町","koaza":"ホ","lat":36.295673,"lng":136.246976,"zip":"9220673"},{"town":"塩屋町","koaza":"ニ","lat":36.296304,"lng":136.248222,"zip":"9220673"},{"town":"塩屋町","koaza":"ハ","lat":36.296363,"lng":136.248857,"zip":"9220673"},{"town":"塩屋町","koaza":"ロ","lat":36.296332,"lng":136.25074,"zip":"9220673"},{"town":"塩屋町","koaza":"イ","lat":36.295411,"lng":136.251992,"zip":"9220673"},{"town":"吉崎町","koaza":"ヘ","lat":36.290835,"lng":136.253969,"zip":"9220672"},{"town":"大聖寺瀬越町","koaza":"二十二","lat":36.292872,"lng":136.252399,"zip":"9220671"},{"town":"塩屋町","koaza":"能登屋後","lat":36.295796,"lng":136.252489,"zip":"9220673"},{"town":"吉崎町","koaza":"ニ","lat":36.29026,"lng":136.255985,"zip":"9220672"},{"town":"永井町","koaza":"四","lat":36.292788,"lng":136.259307,"zip":"9220857"},{"town":"吉崎町","koaza":"ト","lat":36.288448,"lng":136.260149,"zip":"9220672"},{"town":"大聖寺瀬越町","koaza":"二十三","lat":36.295085,"lng":136.260568,"zip":"9220671"},{"town":"吉崎町","koaza":"元塩屋ル","lat":36.290063,"lng":136.26085,"zip":"9220672"},{"town":"永井町","koaza":"七十一","lat":36.286578,"lng":136.262993,"zip":"9220857"},{"town":"大聖寺瀬越町","koaza":"イ","lat":36.297025,"lng":136.263233,"zip":"9220671"},{"town":"永井町","koaza":"五十六","lat":36.288029,"lng":136.26797,"zip":"9220857"},{"town":"永井町","koaza":"六十七","lat":36.289275,"lng":136.264671,"zip":"9220857"},{"town":"永井町","koaza":"五十八","lat":36.288911,"lng":136.266258,"zip":"9220857"},{"town":"大聖寺上木町","koaza":"出村","lat":36.300468,"lng":136.272096,"zip":"9220001"},{"town":"大聖寺上木町","koaza":"ト","lat":36.296969,"lng":136.273661,"zip":"9220001"},{"town":"三木町","koaza":"ヌ","lat":36.300958,"lng":136.27503,"zip":"9220854"},{"town":"永井町","koaza":"四十五","lat":36.293371,"lng":136.274798,"zip":"9220857"},{"town":"三木町","koaza":"チ","lat":36.296938,"lng":136.277613,"zip":"9220854"},{"town":"奥谷町","koaza":"三","lat":36.285648,"lng":136.278051,"zip":"9220856"},{"town":"奥谷町","koaza":"十一","lat":36.284674,"lng":136.279077,"zip":"9220856"},{"town":"橘町","koaza":"二","lat":36.289189,"lng":136.278042,"zip":"9220855"},{"town":"奥谷町","koaza":"十二","lat":36.282731,"lng":136.279024,"zip":"9220856"},{"town":"三木町","koaza":"ト","lat":36.296416,"lng":136.282826,"zip":"9220854"},{"town":"奥谷町","koaza":"十四","lat":36.281647,"lng":136.280365,"zip":"9220856"},{"town":"三木町","koaza":"ヲ","lat":36.300033,"lng":136.282292,"zip":"9220854"},{"town":"三木町","koaza":"三十六","lat":36.296484,"lng":136.284849,"zip":"9220854"},{"town":"三木町","koaza":"ニ","lat":36.293307,"lng":136.285209,"zip":"9220854"},{"town":"三木町","koaza":"三十四","lat":36.29428,"lng":136.285555,"zip":"9220854"},{"town":"三木町","koaza":"ハ","lat":36.293743,"lng":136.28872,"zip":"9220854"},{"town":"熊坂町","koaza":"テ","lat":36.284749,"lng":136.291412,"zip":"9220842"},{"town":"大聖寺三ツ町","koaza":"ワ","lat":36.300937,"lng":136.293444,"zip":"9220853"},{"town":"熊坂町","koaza":"ア","lat":36.282541,"lng":136.292978,"zip":"9220842"},{"town":"熊坂町","koaza":"キ","lat":36.284431,"lng":136.294917,"zip":"9220842"},{"town":"熊坂町","koaza":"サ","lat":36.287667,"lng":136.295037,"zip":"9220842"},{"town":"熊坂町","koaza":"オ","lat":36.290295,"lng":136.296932,"zip":"9220842"},{"town":"熊坂町","koaza":"ユ","lat":36.284188,"lng":136.295465,"zip":"9220842"},{"town":"熊坂町","koaza":"平山","lat":36.295841,"lng":136.298267,"zip":"9220842"},{"town":"熊坂町","koaza":"ク","lat":36.292885,"lng":136.298728,"zip":"9220842"},{"town":"熊坂町","koaza":"六","lat":36.299104,"lng":136.298695,"zip":"9220842"},{"town":"熊坂町","koaza":"四","lat":36.298016,"lng":136.300107,"zip":"9220842"},{"town":"大聖寺地方町","koaza":"七","lat":36.301112,"lng":136.301441,"zip":"9220861"},{"town":"熊坂町","koaza":"チ","lat":36.294319,"lng":136.306684,"zip":"9220842"},{"town":"大聖寺地方町","koaza":"八","lat":36.302311,"lng":136.30203,"zip":"9220861"},{"town":"大聖寺地方町","koaza":"六乙","lat":36.30184,"lng":136.304264,"zip":"9220861"},{"town":"熊坂町","koaza":"辰","lat":36.283502,"lng":136.304657,"zip":"9220842"},{"town":"細坪町","koaza":"ホ","lat":36.287361,"lng":136.311978,"zip":"9220835"},{"town":"熊坂町","koaza":"レ","lat":36.296467,"lng":136.305283,"zip":"9220842"},{"town":"熊坂町","koaza":"ヌ","lat":36.30072,"lng":136.307467,"zip":"9220842"},{"town":"大聖寺地方町","koaza":"二","lat":36.30039,"lng":136.308307,"zip":"9220861"},{"town":"大聖寺下屋敷町","koaza":"イ","lat":36.300981,"lng":136.309144,"zip":"9220841"},{"town":"熊坂町","koaza":"ホ","lat":36.297569,"lng":136.310552,"zip":"9220842"},{"town":"熊坂町","koaza":"ハ","lat":36.300936,"lng":136.310291,"zip":"9220842"},{"town":"熊坂町","koaza":"ニ","lat":36.300404,"lng":136.31258,"zip":"9220842"},{"town":"細坪町","koaza":"ヘ","lat":36.291222,"lng":136.313976,"zip":"9220835"},{"town":"曽宇町","koaza":"ヱ","lat":36.297281,"lng":136.318756,"zip":"9220000"},{"town":"曽宇町","koaza":"ワ","lat":36.27781,"lng":136.318602,"zip":"9220000"},{"town":"百々町","koaza":"八","lat":36.295328,"lng":136.318998,"zip":"9220832"},{"town":"曽宇町","koaza":"テ","lat":36.29593,"lng":136.320544,"zip":"9220000"},{"town":"熊坂町","koaza":"イ","lat":36.30124,"lng":136.319832,"zip":"9220842"},{"town":"曽宇町","koaza":"ニ","lat":36.291628,"lng":136.320208,"zip":"9220000"},{"town":"曽宇町","koaza":"ア","lat":36.290753,"lng":136.321163,"zip":"9220000"},{"town":"曽宇町","koaza":"ヘ","lat":36.284789,"lng":136.321196,"zip":"9220000"},{"town":"百々町","koaza":"十七","lat":36.287678,"lng":136.321227,"zip":"9220832"},{"town":"直下町","koaza":"イ","lat":36.286611,"lng":136.322248,"zip":"9220825"},{"town":"直下町","koaza":"ニ丙","lat":36.282855,"lng":136.324103,"zip":"9220825"},{"town":"直下町","koaza":"ロ","lat":36.286305,"lng":136.323474,"zip":"9220825"},{"town":"南郷町","koaza":"チ","lat":36.296644,"lng":136.328356,"zip":"9220821"},{"town":"直下町","koaza":"ニ","lat":36.284253,"lng":136.32398,"zip":"9220825"},{"town":"直下町","koaza":"ホ","lat":36.281047,"lng":136.325382,"zip":"9220825"},{"town":"直下町","koaza":"ハ","lat":36.285516,"lng":136.325288,"zip":"9220825"},{"town":"日谷町","koaza":"四","lat":36.284004,"lng":136.328315,"zip":"9220824"},{"town":"直下町","koaza":"タ","lat":36.270329,"lng":136.327814,"zip":"9220825"},{"town":"日谷町","koaza":"五","lat":36.283355,"lng":136.328455,"zip":"9220824"},{"town":"直下町","koaza":"リ","lat":36.279587,"lng":136.329393,"zip":"9220825"},{"town":"南郷町","koaza":"リ","lat":36.301625,"lng":136.331413,"zip":"9220821"},{"town":"日谷町","koaza":"六","lat":36.281165,"lng":136.332727,"zip":"9220824"},{"town":"日谷町","koaza":"五十二甲","lat":36.274647,"lng":136.334163,"zip":"9220824"},{"town":"日谷町","koaza":"五十四","lat":36.27051,"lng":136.333825,"zip":"9220824"},{"town":"永井町","koaza":"四十六","lat":36.29242,"lng":136.274108,"zip":"9220857"},{"town":"永井町","koaza":"四十九","lat":36.291812,"lng":136.273557,"zip":"9220857"},{"town":"永井町","koaza":"四十七","lat":36.291231,"lng":136.27592,"zip":"9220857"},{"town":"大聖寺瀬越町","koaza":"ロ","lat":36.295465,"lng":136.264341,"zip":"9220671"},{"town":"大聖寺瀬越町","koaza":"二十五","lat":36.294728,"lng":136.268351,"zip":"9220671"},{"town":"日谷町","koaza":"三十五","lat":36.279655,"lng":136.330908,"zip":"9220824"},{"town":"日谷町","koaza":"七","lat":36.27997,"lng":136.331251,"zip":"9220824"},{"town":"曽宇町","koaza":"メ","lat":36.280174,"lng":136.320067,"zip":"9220000"},{"town":"曽宇町","koaza":"キ","lat":36.28302,"lng":136.320043,"zip":"9220000"},{"town":"曽宇町","koaza":"サ","lat":36.284127,"lng":136.320171,"zip":"9220000"},{"town":"熊坂町","koaza":"エ","lat":36.263254,"lng":136.28959,"zip":"9220842"},{"town":"橘町","koaza":"三","lat":36.28869,"lng":136.278025,"zip":"9220855"},{"town":"曽宇町","koaza":"子","lat":36.275006,"lng":136.316349,"zip":"9220000"},{"town":"曽宇町","koaza":"リ","lat":36.280067,"lng":136.318582,"zip":"9220000"},{"town":"曽宇町","koaza":"ホ","lat":36.285713,"lng":136.320949,"zip":"9220000"},{"town":"曽宇町","koaza":"ト","lat":36.283931,"lng":136.318771,"zip":"9220000"},{"town":"百々町","koaza":"イ","lat":36.285212,"lng":136.320221,"zip":"9220832"},{"town":"百々町","koaza":"七","lat":36.297311,"lng":136.318235,"zip":"9220832"},{"town":"曽宇町","koaza":"ロ","lat":36.293881,"lng":136.319393,"zip":"9220000"},{"town":"大聖寺瀬越町","koaza":"塩屋境山","lat":36.298084,"lng":136.257625,"zip":"9220671"},{"town":"塩屋町","koaza":"ヘ","lat":36.29325,"lng":136.249229,"zip":"9220673"},{"town":"塩屋町","koaza":"宮前","lat":36.295299,"lng":136.252709,"zip":"9220673"},{"town":"三木町","koaza":"イ","lat":36.293652,"lng":136.291125,"zip":"9220854"},{"town":"三木町","koaza":"ロ","lat":36.292904,"lng":136.291133,"zip":"9220854"},{"town":"三木町","koaza":"ワ","lat":36.297595,"lng":136.284445,"zip":"9220854"},{"town":"塩屋町","koaza":"雁山","lat":36.295409,"lng":136.25462,"zip":"9220673"},{"town":"大聖寺上木町","koaza":"ソ","lat":36.299179,"lng":136.265085,"zip":"9220001"},{"town":"永井町","koaza":"六十九","lat":36.288754,"lng":136.26443,"zip":"9220857"},{"town":"永井町","koaza":"六十八","lat":36.288763,"lng":136.264929,"zip":"9220857"},{"town":"永井町","koaza":"百三十五","lat":36.288348,"lng":136.269507,"zip":"9220857"},{"town":"百々町","koaza":"参","lat":36.298954,"lng":136.321447,"zip":"9220832"},{"town":"百々町","koaza":"四","lat":36.29879,"lng":136.320851,"zip":"9220832"},{"town":"大聖寺上木町","koaza":"開墾地","lat":36.297178,"lng":136.270966,"zip":"9220001"},{"town":"熊坂町","koaza":"三","lat":36.297073,"lng":136.297891,"zip":"9220842"},{"town":"細坪町","koaza":"大ブンタ山","lat":36.292677,"lng":136.317123,"zip":"9220835"},{"town":"熊坂町","koaza":"五","lat":36.299189,"lng":136.30095,"zip":"9220842"},{"town":"永井町","koaza":"五十五","lat":36.289903,"lng":136.268719,"zip":"9220857"},{"town":"日谷町","koaza":"四十五","lat":36.278745,"lng":136.333097,"zip":"9220824"},{"town":"日谷町","koaza":"四十六","lat":36.275656,"lng":136.331651,"zip":"9220824"},{"town":"日谷町","koaza":"四十九","lat":36.276378,"lng":136.333123,"zip":"9220824"},{"town":"日谷町","koaza":"四十八","lat":36.2763,"lng":136.333774,"zip":"9220824"},{"town":"日谷町","koaza":"四十七","lat":36.275546,"lng":136.333989,"zip":"9220824"},{"town":"日谷町","koaza":"四十四","lat":36.277935,"lng":136.333586,"zip":"9220824"},{"town":"黒瀬町","koaza":"ホ","lat":36.297468,"lng":136.341932,"zip":"9220823"},{"town":"荒木町","koaza":"ニ","lat":36.28348,"lng":136.343389,"zip":"9220278"},{"town":"黒瀬町","koaza":"ハ","lat":36.296335,"lng":136.342773,"zip":"9220823"},{"town":"黒瀬町","koaza":"チ","lat":36.298633,"lng":136.343596,"zip":"9220823"},{"town":"河南町","koaza":"ヌ","lat":36.286072,"lng":136.347533,"zip":"9220277"},{"town":"黒瀬町","koaza":"ヘ","lat":36.297691,"lng":136.343939,"zip":"9220823"},{"town":"荒木町","koaza":"ハ","lat":36.284725,"lng":136.34595,"zip":"9220278"},{"town":"黒瀬町","koaza":"ニ","lat":36.296193,"lng":136.346293,"zip":"9220823"},{"town":"河南町","koaza":"ル","lat":36.283586,"lng":136.34785,"zip":"9220277"},{"town":"保賀町","koaza":"ナ","lat":36.294698,"lng":136.348106,"zip":"9220015"},{"town":"保賀町","koaza":"ム","lat":36.296156,"lng":136.34845,"zip":"9220015"},{"town":"保賀町","koaza":"ソ","lat":36.293556,"lng":136.349377,"zip":"9220015"},{"town":"河南町","koaza":"ワ","lat":36.281573,"lng":136.349221,"zip":"9220277"},{"town":"保賀町","koaza":"タ","lat":36.295289,"lng":136.349131,"zip":"9220015"},{"town":"河南町","koaza":"カ","lat":36.280041,"lng":136.350916,"zip":"9220277"},{"town":"保賀町","koaza":"ヘ","lat":36.294655,"lng":136.3503,"zip":"9220015"},{"town":"河南町","koaza":"ト","lat":36.281742,"lng":136.351394,"zip":"9220277"},{"town":"山代温泉","koaza":"上宮","lat":36.287584,"lng":136.352422,"zip":"9220242"},{"town":"河南町","koaza":"ヘ","lat":36.281421,"lng":136.352449,"zip":"9220277"},{"town":"河南町","koaza":"ヨ","lat":36.278784,"lng":136.352677,"zip":"9220277"},{"town":"山代温泉","koaza":"四十四","lat":36.292276,"lng":136.354751,"zip":"9220242"},{"town":"山中温泉中田町","koaza":"ハ","lat":36.267133,"lng":136.354848,"zip":"9220101"},{"town":"山代温泉","koaza":"十一","lat":36.286712,"lng":136.352489,"zip":"9220242"},{"town":"河南町","koaza":"ハ","lat":36.283535,"lng":136.353592,"zip":"9220277"},{"town":"保賀町","koaza":"リ","lat":36.294268,"lng":136.354259,"zip":"9220015"},{"town":"河南町","koaza":"タ","lat":36.276018,"lng":136.35466,"zip":"9220277"},{"town":"山中温泉中田町","koaza":"ト","lat":36.273455,"lng":136.354942,"zip":"9220101"},{"town":"山中温泉中田町","koaza":"ホ","lat":36.270428,"lng":136.354489,"zip":"9220101"},{"town":"山代温泉","koaza":"北部一丁目","lat":36.294995,"lng":136.356337,"zip":"9220242"},{"town":"山代温泉","koaza":"桔梗丘四丁目","lat":36.283013,"lng":136.355471,"zip":"9220242"},{"town":"山代温泉","koaza":"南町","lat":36.280803,"lng":136.355264,"zip":"9220242"},{"town":"山代温泉","koaza":"十","lat":36.28793,"lng":136.354986,"zip":"9220242"},{"town":"別所町","koaza":"漆器団地","lat":36.276122,"lng":136.357934,"zip":"9220274"},{"town":"山中温泉長谷田町","koaza":"ハ","lat":36.266057,"lng":136.355812,"zip":"9220102"},{"town":"山代温泉","koaza":"桔梗丘二丁目","lat":36.28711,"lng":136.356217,"zip":"9220242"},{"town":"山代温泉","koaza":"十六","lat":36.28944,"lng":136.356881,"zip":"9220242"},{"town":"山代温泉","koaza":"山背台二丁目","lat":36.292333,"lng":136.357543,"zip":"9220242"},{"town":"山代温泉","koaza":"桔梗丘三丁目","lat":36.28522,"lng":136.356818,"zip":"9220242"},{"town":"山代温泉","koaza":"桔梗丘一丁目","lat":36.288689,"lng":136.357047,"zip":"9220242"},{"town":"山中温泉長谷田町","koaza":"ロ","lat":36.267999,"lng":136.357251,"zip":"9220102"},{"town":"山代温泉","koaza":"四十五","lat":36.293408,"lng":136.368885,"zip":"9220242"},{"town":"山中温泉長谷田町","koaza":"ヘ","lat":36.265593,"lng":136.35794,"zip":"9220102"},{"town":"山中温泉栢野町","koaza":"ニ","lat":36.223048,"lng":136.358474,"zip":"9220138"},{"town":"別所町","koaza":"ホ","lat":36.273179,"lng":136.357582,"zip":"9220274"},{"town":"別所町","koaza":"富士見ケ丘二","lat":36.278007,"lng":136.35684,"zip":"9220274"},{"town":"山代温泉","koaza":"ホ","lat":36.279184,"lng":136.357316,"zip":"9220242"},{"town":"山代温泉","koaza":"リ","lat":36.282991,"lng":136.357768,"zip":"9220242"},{"town":"別所町","koaza":"富士見ケ丘九","lat":36.276882,"lng":136.357085,"zip":"9220274"},{"town":"山代温泉","koaza":"ト","lat":36.281162,"lng":136.358759,"zip":"9220242"},{"town":"山中温泉二天町","koaza":"ホ","lat":36.274698,"lng":136.357507,"zip":"9220101"},{"town":"山代温泉","koaza":"山背台一丁目","lat":36.291489,"lng":136.358338,"zip":"9220242"},{"town":"山代温泉","koaza":"北部二丁目","lat":36.296835,"lng":136.358022,"zip":"9220242"},{"town":"山代温泉","koaza":"ル","lat":36.285633,"lng":136.359104,"zip":"9220242"},{"town":"山代温泉","koaza":"ヨ","lat":36.288581,"lng":136.358572,"zip":"9220242"},{"town":"山代温泉","koaza":"ヲ","lat":36.286019,"lng":136.358255,"zip":"9220242"},{"town":"山代温泉","koaza":"ヘ","lat":36.279378,"lng":136.360064,"zip":"9220242"},{"town":"山代温泉","koaza":"三十五","lat":36.299163,"lng":136.358604,"zip":"9220242"},{"town":"山代温泉","koaza":"カ","lat":36.286819,"lng":136.35841,"zip":"9220242"},{"town":"山中温泉長谷田町","koaza":"ヌ","lat":36.264912,"lng":136.358863,"zip":"9220102"},{"town":"山中温泉栢野町","koaza":"ハ","lat":36.226003,"lng":136.358999,"zip":"9220138"},{"town":"山代温泉","koaza":"ヌ","lat":36.283019,"lng":136.359986,"zip":"9220242"},{"town":"山中温泉栢野町","koaza":"ト","lat":36.22755,"lng":136.359041,"zip":"9220138"},{"town":"山代温泉","koaza":"十七","lat":36.290294,"lng":136.361923,"zip":"9220242"},{"town":"山中温泉旭町","koaza":"ヌ","lat":36.264357,"lng":136.358856,"zip":"9220104"},{"town":"山中温泉長谷田町","koaza":"ト","lat":36.266728,"lng":136.360663,"zip":"9220102"},{"town":"山代温泉","koaza":"北部三丁目","lat":36.297679,"lng":136.360192,"zip":"9220242"},{"town":"山代温泉","koaza":"三十六","lat":36.298176,"lng":136.363964,"zip":"9220242"},{"town":"山中温泉上原町","koaza":"ロ甲","lat":36.259177,"lng":136.360371,"zip":"9220107"},{"town":"山代温泉","koaza":"八","lat":36.286604,"lng":136.361278,"zip":"9220242"},{"town":"山中温泉長谷田町","koaza":"リ","lat":36.264517,"lng":136.360593,"zip":"9220102"},{"town":"山代温泉","koaza":"幸町","lat":36.291377,"lng":136.361432,"zip":"9220242"},{"town":"山代温泉","koaza":"二十二","lat":36.294114,"lng":136.361133,"zip":"9220242"},{"town":"山代温泉","koaza":"万松園通","lat":36.287997,"lng":136.359952,"zip":"9220242"},{"town":"山中温泉長谷田町","koaza":"ヨ","lat":36.262715,"lng":136.360392,"zip":"9220102"},{"town":"山代温泉","koaza":"神明町","lat":36.293483,"lng":136.362232,"zip":"9220242"},{"town":"山中温泉上原町","koaza":"イ","lat":36.261455,"lng":136.361383,"zip":"9220107"},{"town":"山代温泉","koaza":"十八","lat":36.288676,"lng":136.361673,"zip":"9220242"},{"town":"別所町","koaza":"ソ甲","lat":36.273322,"lng":136.361682,"zip":"9220274"},{"town":"山中温泉上原町","koaza":"ハ","lat":36.259079,"lng":136.361395,"zip":"9220107"},{"town":"山代温泉","koaza":"北部四丁目","lat":36.295563,"lng":136.362769,"zip":"9220242"},{"town":"山代温泉","koaza":"三十八","lat":36.297264,"lng":136.363302,"zip":"9220242"},{"town":"山代温泉","koaza":"温泉通","lat":36.29111,"lng":136.362787,"zip":"9220242"},{"town":"山代温泉","koaza":"大和町","lat":36.286117,"lng":136.368771,"zip":"9220242"},{"town":"山中温泉上原町","koaza":"ル","lat":36.260598,"lng":136.364411,"zip":"9220107"},{"town":"山中温泉上原町","koaza":"カ","lat":36.262874,"lng":136.363336,"zip":"9220107"},{"town":"山代温泉","koaza":"東山町","lat":36.290371,"lng":136.363003,"zip":"9220242"},{"town":"山中温泉上原町","koaza":"ヨ","lat":36.264914,"lng":136.363452,"zip":"9220107"},{"town":"山中温泉菅谷町","koaza":"ホ","lat":36.228613,"lng":136.364055,"zip":"9220139"},{"town":"山中温泉菅谷町","koaza":"ニ","lat":36.228961,"lng":136.363487,"zip":"9220139"},{"town":"山代温泉","koaza":"三十九","lat":36.296265,"lng":136.365029,"zip":"9220242"},{"town":"山中温泉上原町","koaza":"ワ","lat":36.262131,"lng":136.365514,"zip":"9220107"},{"town":"山代温泉","koaza":"四十九","lat":36.294369,"lng":136.367162,"zip":"9220242"},{"town":"山中温泉菅谷町","koaza":"ヘ","lat":36.229967,"lng":136.366071,"zip":"9220139"},{"town":"山中温泉菅谷町","koaza":"ハ","lat":36.23173,"lng":136.365034,"zip":"9220139"},{"town":"山代温泉","koaza":"四十","lat":36.296251,"lng":136.36581,"zip":"9220242"},{"town":"山中温泉菅谷町","koaza":"ロ","lat":36.23312,"lng":136.368136,"zip":"9220139"},{"town":"山代温泉","koaza":"三十七","lat":36.298684,"lng":136.368752,"zip":"9220242"},{"town":"山中温泉菅谷町","koaza":"ト","lat":36.230834,"lng":136.368413,"zip":"9220139"},{"town":"山中温泉塚谷町","koaza":"ニ","lat":36.258531,"lng":136.368678,"zip":"9220111"},{"town":"山中温泉菅谷町","koaza":"イ","lat":36.23552,"lng":136.368864,"zip":"9220139"},{"town":"山中温泉上野町","koaza":"ル","lat":36.254099,"lng":136.369678,"zip":"9220117"},{"town":"山中温泉下谷町","koaza":"ニ","lat":36.237431,"lng":136.370505,"zip":"9220127"},{"town":"山中温泉塚谷町","koaza":"ロ","lat":36.259001,"lng":136.370484,"zip":"9220111"},{"town":"山代温泉","koaza":"桜町二丁目","lat":36.289984,"lng":136.371375,"zip":"9220242"},{"town":"山中温泉塚谷町","koaza":"イ","lat":36.257113,"lng":136.371373,"zip":"9220111"},{"town":"山中温泉こおろぎ町","koaza":"ロ","lat":36.239319,"lng":136.368619,"zip":"9220128"},{"town":"山代温泉","koaza":"桜町一丁目","lat":36.292452,"lng":136.371345,"zip":"9220242"},{"town":"上野町","koaza":"タ","lat":36.300339,"lng":136.371693,"zip":"9220222"},{"town":"山中温泉白山町","koaza":"ハ","lat":36.252137,"lng":136.372004,"zip":"9220116"},{"town":"山中温泉こおろぎ町","koaza":"ニ","lat":36.241964,"lng":136.371553,"zip":"9220128"},{"town":"山中温泉南町","koaza":"ロ","lat":36.244682,"lng":136.37175,"zip":"9220129"},{"town":"尾俣町","koaza":"イ","lat":36.294668,"lng":136.372707,"zip":"9220271"},{"town":"山中温泉南町","koaza":"ニ","lat":36.244002,"lng":136.37257,"zip":"9220129"},{"town":"山中温泉西桂木町","koaza":"ヌ","lat":36.25364,"lng":136.373331,"zip":"9220112"},{"town":"山中温泉薬師町","koaza":"井","lat":36.248132,"lng":136.372472,"zip":"9220123"},{"town":"山中温泉薬師町","koaza":"ウ","lat":36.247569,"lng":136.372235,"zip":"9220123"},{"town":"山中温泉西桂木町","koaza":"ル","lat":36.252895,"lng":136.372839,"zip":"9220112"},{"town":"山中温泉湯の出町","koaza":"タ","lat":36.246189,"lng":136.372466,"zip":"9220124"},{"town":"山中温泉下谷町","koaza":"ロ","lat":36.241244,"lng":136.373306,"zip":"9220127"},{"town":"山中温泉湯の出町","koaza":"ロ","lat":36.245521,"lng":136.37232,"zip":"9220124"},{"town":"山中温泉白山町","koaza":"ノ","lat":36.249989,"lng":136.373384,"zip":"9220116"},{"town":"山中温泉白山町","koaza":"井","lat":36.248694,"lng":136.372638,"zip":"9220116"},{"town":"山中温泉南町","koaza":"ヨ","lat":36.245407,"lng":136.372881,"zip":"9220129"},{"town":"山中温泉上野町","koaza":"リ","lat":36.252164,"lng":136.373153,"zip":"9220117"},{"town":"山中温泉湯の出町","koaza":"レ","lat":36.246119,"lng":136.372744,"zip":"9220124"},{"town":"山中温泉冨士見町","koaza":"オ","lat":36.249593,"lng":136.373628,"zip":"9220000"},{"town":"山中温泉薬師町","koaza":"ム","lat":36.24769,"lng":136.372772,"zip":"9220123"},{"town":"山中温泉栄町","koaza":"ニ","lat":36.245282,"lng":136.37324,"zip":"9220125"},{"town":"山中温泉冨士見町","koaza":"ム","lat":36.247761,"lng":136.373522,"zip":"9220000"},{"town":"山中温泉栄町","koaza":"ホ","lat":36.245013,"lng":136.373802,"zip":"9220125"},{"town":"山中温泉河鹿町","koaza":"ホ","lat":36.245361,"lng":136.37484,"zip":"9220126"},{"town":"山中温泉湯の本町","koaza":"ラ","lat":36.247724,"lng":136.373685,"zip":"9220122"},{"town":"山中温泉東桂木町","koaza":"ヌ","lat":36.25332,"lng":136.374644,"zip":"9220113"},{"town":"山中温泉湯の本町","koaza":"ク","lat":36.249536,"lng":136.374026,"zip":"9220122"},{"town":"山中温泉西桂木町","koaza":"ト","lat":36.251779,"lng":136.374974,"zip":"9220112"},{"town":"上野町","koaza":"ツ","lat":36.299436,"lng":136.377138,"zip":"9220222"},{"town":"上野町","koaza":"ニ","lat":36.296258,"lng":136.377171,"zip":"9220222"},{"town":"尾俣町","koaza":"ル","lat":36.282269,"lng":136.37766,"zip":"9220271"},{"town":"上野町","koaza":"ル","lat":36.298323,"lng":136.377056,"zip":"9220222"},{"town":"上野町","koaza":"子","lat":36.300207,"lng":136.378165,"zip":"9220222"},{"town":"須谷町","koaza":"ハ","lat":36.272756,"lng":136.389829,"zip":"9220264"},{"town":"小坂町","koaza":"ト","lat":36.276741,"lng":136.380364,"zip":"9220266"},{"town":"森町","koaza":"ル","lat":36.300443,"lng":136.382303,"zip":"9220321"},{"town":"二ツ屋町","koaza":"ニ","lat":36.293469,"lng":136.382887,"zip":"9220267"},{"town":"二ツ屋町","koaza":"ノ","lat":36.290949,"lng":136.383965,"zip":"9220267"},{"town":"水田丸町","koaza":"ヨ","lat":36.28645,"lng":136.384918,"zip":"9220265"},{"town":"二ツ屋町","koaza":"タ","lat":36.294578,"lng":136.384734,"zip":"9220267"},{"town":"二ツ屋町","koaza":"イ","lat":36.295742,"lng":136.384907,"zip":"9220267"},{"town":"小坂町","koaza":"ロ","lat":36.288589,"lng":136.388499,"zip":"9220266"},{"town":"水田丸町","koaza":"リ","lat":36.286778,"lng":136.388984,"zip":"9220265"},{"town":"水田丸町","koaza":"ワ","lat":36.279831,"lng":136.390797,"zip":"9220265"},{"town":"水田丸町","koaza":"ヌ","lat":36.284535,"lng":136.389929,"zip":"9220265"},{"town":"勅使町","koaza":"ル","lat":36.301782,"lng":136.390151,"zip":"9220313"},{"town":"水田丸町","koaza":"ト","lat":36.284852,"lng":136.391336,"zip":"9220265"},{"town":"水田丸町","koaza":"チ","lat":36.284065,"lng":136.391386,"zip":"9220265"},{"town":"柏野町","koaza":"イ","lat":36.278971,"lng":136.391393,"zip":"9220262"},{"town":"勅使町","koaza":"イ","lat":36.299751,"lng":136.391767,"zip":"9220313"},{"town":"横北町","koaza":"ハ","lat":36.291575,"lng":136.392247,"zip":"9220261"},{"town":"横北町","koaza":"ニ","lat":36.292807,"lng":136.391817,"zip":"9220261"},{"town":"横北町","koaza":"イ","lat":36.289312,"lng":136.392107,"zip":"9220261"},{"town":"水田丸町","koaza":"ヘ","lat":36.287298,"lng":136.392705,"zip":"9220265"},{"town":"横北町","koaza":"チ","lat":36.292123,"lng":136.392728,"zip":"9220261"},{"town":"柏野町","koaza":"ト","lat":36.276094,"lng":136.394203,"zip":"9220262"},{"town":"塔尾町","koaza":"イ","lat":36.270856,"lng":136.393583,"zip":"9220263"},{"town":"横北町","koaza":"リ","lat":36.286165,"lng":136.401692,"zip":"9220261"},{"town":"塔尾町","koaza":"リ","lat":36.270357,"lng":136.39546,"zip":"9220263"},{"town":"柏野町","koaza":"リ","lat":36.274208,"lng":136.393879,"zip":"9220262"},{"town":"塔尾町","koaza":"ロ","lat":36.273525,"lng":136.393876,"zip":"9220263"},{"town":"宇谷町","koaza":"ヤ","lat":36.300648,"lng":136.396971,"zip":"9220312"},{"town":"宇谷町","koaza":"タ","lat":36.299371,"lng":136.402206,"zip":"9220312"},{"town":"宇谷町","koaza":"ソ","lat":36.301942,"lng":136.402825,"zip":"9220312"},{"town":"宇谷町","koaza":"丙","lat":36.301707,"lng":136.400634,"zip":"9220312"},{"town":"宇谷町","koaza":"ル","lat":36.301971,"lng":136.404437,"zip":"9220312"},{"town":"宇谷町","koaza":"ヌ","lat":36.30214,"lng":136.40495,"zip":"9220312"},{"town":"宇谷町","koaza":"乙","lat":36.301488,"lng":136.405314,"zip":"9220312"},{"town":"山中温泉栢野町","koaza":"イ","lat":36.230236,"lng":136.36046,"zip":"9220138"},{"town":"山中温泉こおろぎ町","koaza":"イ","lat":36.235027,"lng":136.365798,"zip":"9220128"},{"town":"山中温泉栢野町","koaza":"ロ","lat":36.228702,"lng":136.359881,"zip":"9220138"},{"town":"山中温泉栢野町","koaza":"ホ","lat":36.227592,"lng":136.360366,"zip":"9220138"},{"town":"山中温泉薬師町","koaza":"ハ","lat":36.247682,"lng":136.371676,"zip":"9220123"},{"town":"山中温泉白山町","koaza":"リ","lat":36.251637,"lng":136.372446,"zip":"9220116"},{"town":"山中温泉中田町","koaza":"ニ","lat":36.269933,"lng":136.355882,"zip":"9220101"},{"town":"山中温泉二天町","koaza":"ヰ","lat":36.27435,"lng":136.356741,"zip":"9220101"},{"town":"別所町","koaza":"イ","lat":36.274192,"lng":136.358707,"zip":"9220274"},{"town":"別所町","koaza":"富士見ケ丘十","lat":36.276925,"lng":136.357442,"zip":"9220274"},{"town":"別所町","koaza":"富士見ケ丘十一","lat":36.276976,"lng":136.357972,"zip":"9220274"},{"town":"別所町","koaza":"富士見ケ丘四","lat":36.277994,"lng":136.357756,"zip":"9220274"},{"town":"別所町","koaza":"富士見ケ丘十二","lat":36.277082,"lng":136.358489,"zip":"9220274"},{"town":"別所町","koaza":"富士見ケ丘十三","lat":36.277176,"lng":136.359014,"zip":"9220274"},{"town":"二ツ屋町","koaza":"ち","lat":36.293093,"lng":136.386064,"zip":"9220267"},{"town":"二ツ屋町","koaza":"カ","lat":36.295147,"lng":136.386223,"zip":"9220267"},{"town":"柏野町","koaza":"ロ","lat":36.279486,"lng":136.391824,"zip":"9220262"},{"town":"水田丸町","koaza":"カ","lat":36.285891,"lng":136.388565,"zip":"9220265"},{"town":"河南町","koaza":"ヲ","lat":36.281374,"lng":136.350616,"zip":"9220277"},{"town":"宇谷町","koaza":"丁","lat":36.301487,"lng":136.399073,"zip":"9220312"},{"town":"上野町","koaza":"ホ","lat":36.299252,"lng":136.378708,"zip":"9220222"},{"town":"山代温泉","koaza":"イ","lat":36.295396,"lng":136.371457,"zip":"9220242"},{"town":"山代温泉","koaza":"五十","lat":36.294253,"lng":136.369076,"zip":"9220242"},{"town":"山代温泉","koaza":"四十七甲","lat":36.29447,"lng":136.370343,"zip":"9220242"},{"town":"山代温泉","koaza":"二十","lat":36.292019,"lng":136.359997,"zip":"9220242"},{"town":"別所町","koaza":"富士見ケ丘八","lat":36.276865,"lng":136.356887,"zip":"9220274"},{"town":"山代温泉","koaza":"四十八","lat":36.294895,"lng":136.369081,"zip":"9220242"},{"town":"山代温泉","koaza":"八幡","lat":36.290219,"lng":136.354585,"zip":"9220242"},{"town":"山代温泉","koaza":"十二","lat":36.290162,"lng":136.354265,"zip":"9220242"},{"town":"山代温泉","koaza":"二十三","lat":36.294052,"lng":136.359386,"zip":"9220242"},{"town":"加茂町","koaza":"ナ","lat":36.302104,"lng":136.359283,"zip":"9220241"},{"town":"山代温泉","koaza":"九谷町","lat":36.292494,"lng":136.363945,"zip":"9220242"},{"town":"黒瀬町","koaza":"ヲ","lat":36.300469,"lng":136.339976,"zip":"9220823"},{"town":"黒瀬町","koaza":"タ","lat":36.298349,"lng":136.339255,"zip":"9220823"},{"town":"別所町","koaza":"ロ","lat":36.275354,"lng":136.360333,"zip":"9220274"},{"town":"桂谷町","koaza":"タ","lat":36.26798,"lng":136.37421,"zip":"9220273"},{"town":"桂谷町","koaza":"ヨ","lat":36.27076,"lng":136.373513,"zip":"9220273"},{"town":"南郷町","koaza":"三","lat":36.29047,"lng":136.332902,"zip":"9220821"},{"town":"日谷町","koaza":"五十五","lat":36.269125,"lng":136.335165,"zip":"9220824"},{"town":"横北町","koaza":"ロ","lat":36.29081,"lng":136.3926,"zip":"9220261"},{"town":"小坂町","koaza":"ヨ","lat":36.290577,"lng":136.387184,"zip":"9220266"},{"town":"保賀町","koaza":"ツ","lat":36.290059,"lng":136.349506,"zip":"9220015"},{"town":"黒瀬町","koaza":"ワ","lat":36.299695,"lng":136.34068,"zip":"9220823"},{"town":"吉崎町","koaza":"ホ","lat":36.291322,"lng":136.254387,"zip":"9220672"},{"town":"吉崎町","koaza":"ハ","lat":36.290145,"lng":136.258083,"zip":"9220672"},{"town":"吉崎町","koaza":"タ","lat":36.28778,"lng":136.258273,"zip":"9220672"},{"town":"大聖寺三ツ町","koaza":"チ","lat":36.302961,"lng":136.293949,"zip":"9220853"},{"town":"南郷町","koaza":"ヲ","lat":36.302644,"lng":136.327487,"zip":"9220821"},{"town":"横北町","koaza":"カ","lat":36.293307,"lng":136.381885,"zip":"9220261"},{"town":"上野町","koaza":"ム","lat":36.299918,"lng":136.371283,"zip":"9220222"},{"town":"大聖寺菅生","koaza":"ロ","lat":36.302057,"lng":136.318987,"zip":"9220815"},{"town":"大聖寺菅生","koaza":"イ","lat":36.301716,"lng":136.318967,"zip":"9220815"},{"town":"直下町","koaza":"ト","lat":36.279467,"lng":136.324962,"zip":"9220825"},{"town":"曽宇町","koaza":"ヲ","lat":36.279441,"lng":136.318409,"zip":"9220000"},{"town":"曽宇町","koaza":"ヨ","lat":36.275338,"lng":136.315959,"zip":"9220000"},{"town":"直下町","koaza":"ヨ","lat":36.273584,"lng":136.327937,"zip":"9220825"},{"town":"直下町","koaza":"ヲ","lat":36.277176,"lng":136.327918,"zip":"9220825"},{"town":"山中温泉下谷町","koaza":"ハ","lat":36.2382,"lng":136.373391,"zip":"9220127"},{"town":"山中温泉上原町","koaza":"ト甲","lat":36.253675,"lng":136.365177,"zip":"9220107"},{"town":"山中温泉上原町","koaza":"甲","lat":36.254225,"lng":136.364171,"zip":"9220107"},{"town":"山中温泉上原町","koaza":"リ","lat":36.258419,"lng":136.362309,"zip":"9220107"},{"town":"山中温泉上原町","koaza":"ヲ","lat":36.261021,"lng":136.365334,"zip":"9220107"},{"town":"永井町","koaza":"五十二","lat":36.290729,"lng":136.271217,"zip":"9220857"},{"town":"永井町","koaza":"五十","lat":36.290718,"lng":136.272651,"zip":"9220857"},{"town":"永井町","koaza":"五十一","lat":36.289968,"lng":136.270843,"zip":"9220857"},{"town":"細坪町","koaza":"ル","lat":36.296379,"lng":136.315124,"zip":"9220835"},{"town":"細坪町","koaza":"ヌ","lat":36.295345,"lng":136.314033,"zip":"9220835"},{"town":"細坪町","koaza":"マ","lat":36.294902,"lng":136.317088,"zip":"9220835"},{"town":"細坪町","koaza":"カ","lat":36.292507,"lng":136.317487,"zip":"9220835"},{"town":"細坪町","koaza":"ケ","lat":36.294084,"lng":136.317356,"zip":"9220835"},{"town":"細坪町","koaza":"ニ","lat":36.279834,"lng":136.307579,"zip":"9220835"},{"town":"山中温泉薬師町","koaza":"ト","lat":36.248608,"lng":136.372182,"zip":"9220123"},{"town":"山中温泉白山町","koaza":"チ","lat":36.249783,"lng":136.372714,"zip":"9220116"},{"town":"上野町","koaza":"エ","lat":36.298492,"lng":136.373285,"zip":"9220222"},{"town":"小坂町","koaza":"ニ","lat":36.294601,"lng":136.386853,"zip":"9220266"},{"town":"二ツ屋町","koaza":"ヲ","lat":36.29116,"lng":136.387114,"zip":"9220267"},{"town":"横北町","koaza":"ワ","lat":36.290194,"lng":136.385088,"zip":"9220261"},{"town":"二ツ屋町","koaza":"ヘ","lat":36.29172,"lng":136.386854,"zip":"9220267"},{"town":"黒瀬町","koaza":"ヨ","lat":36.295636,"lng":136.342244,"zip":"9220823"},{"town":"細坪町","koaza":"タ","lat":36.290715,"lng":136.315133,"zip":"9220835"},{"town":"細坪町","koaza":"ヤ","lat":36.293276,"lng":136.316034,"zip":"9220835"},{"town":"熊坂町","koaza":"リ","lat":36.296334,"lng":136.307443,"zip":"9220842"},{"town":"大聖寺三ツ町","koaza":"メ","lat":36.300456,"lng":136.292482,"zip":"9220853"},{"town":"柏野町","koaza":"チ","lat":36.275459,"lng":136.392029,"zip":"9220262"},{"town":"二ツ屋町","koaza":"ホ","lat":36.289339,"lng":136.382608,"zip":"9220267"},{"town":"上野町","koaza":"イ","lat":36.29202,"lng":136.380907,"zip":"9220222"},{"town":"上野町","koaza":"ケ","lat":36.290072,"lng":136.37751,"zip":"9220222"},{"town":"二ツ屋町","koaza":"と","lat":36.293965,"lng":136.385901,"zip":"9220267"},{"town":"二ツ屋町","koaza":"ト","lat":36.294121,"lng":136.385264,"zip":"9220267"},{"town":"宇谷町","koaza":"リ","lat":36.301652,"lng":136.405106,"zip":"9220312"},{"town":"大聖寺上木町","koaza":"稲干場","lat":36.302018,"lng":136.274007,"zip":"9220001"},{"town":"大聖寺上木町","koaza":"治郎助","lat":36.303512,"lng":136.273133,"zip":"9220001"},{"town":"大聖寺三ツ町","koaza":"カ","lat":36.300845,"lng":136.288991,"zip":"9220853"},{"town":"大聖寺地方町","koaza":"十五","lat":36.302347,"lng":136.299248,"zip":"9220861"},{"town":"南郷町","koaza":"ト","lat":36.302209,"lng":136.330012,"zip":"9220821"},{"town":"南郷町","koaza":"ヌ","lat":36.302244,"lng":136.33341,"zip":"9220821"},{"town":"黒瀬町","koaza":"ル","lat":36.302477,"lng":136.341858,"zip":"9220823"},{"town":"二子塚町","koaza":"ニ","lat":36.30352,"lng":136.380899,"zip":"9220325"},{"town":"勅使町","koaza":"ロ","lat":36.301957,"lng":136.393349,"zip":"9220313"},{"town":"宇谷町","koaza":"ツ","lat":36.302903,"lng":136.403256,"zip":"9220312"},{"town":"宇谷町","koaza":"ニ","lat":36.302507,"lng":136.405484,"zip":"9220312"},{"town":"南郷町","koaza":"イ","lat":36.301084,"lng":136.324374,"zip":"9220821"},{"town":"吸坂町","koaza":"ル","lat":36.305518,"lng":136.332851,"zip":"9220822"},{"town":"吸坂町","koaza":"ヨ","lat":36.305133,"lng":136.334396,"zip":"9220822"},{"town":"黒瀬町","koaza":"乙","lat":36.303186,"lng":136.338769,"zip":"9220823"},{"town":"熊坂町","koaza":"丑","lat":36.296563,"lng":136.312097,"zip":"9220842"},{"town":"吸坂町","koaza":"ヌ","lat":36.303704,"lng":136.336194,"zip":"9220822"},{"town":"吸坂町","koaza":"ヤ","lat":36.304002,"lng":136.336114,"zip":"9220822"},{"town":"山中温泉上野町","koaza":"ヲ","lat":36.251048,"lng":136.367395,"zip":"9220117"},{"town":"山中温泉塚谷町","koaza":"ホ","lat":36.25622,"lng":136.370256,"zip":"9220111"},{"town":"山中温泉薬師町","koaza":"リ","lat":36.248565,"lng":136.371214,"zip":"9220123"},{"town":"山中温泉上原町","koaza":"ヌ","lat":36.259722,"lng":136.36321,"zip":"9220107"},{"town":"別所町","koaza":"富士見ケ丘七","lat":36.277665,"lng":136.35929,"zip":"9220274"},{"town":"別所町","koaza":"富士見ケ丘六","lat":36.277995,"lng":136.358824,"zip":"9220274"},{"town":"別所町","koaza":"富士見ケ丘五","lat":36.278,"lng":136.358296,"zip":"9220274"},{"town":"別所町","koaza":"富士見ケ丘三","lat":36.278002,"lng":136.357212,"zip":"9220274"},{"town":"別所町","koaza":"富士見ケ丘一","lat":36.278007,"lng":136.356639,"zip":"9220274"},{"town":"吸坂町","koaza":"チ","lat":36.30269,"lng":136.337381,"zip":"9220822"},{"town":"大聖寺地方町","koaza":"九","lat":36.303297,"lng":136.303362,"zip":"9220861"},{"town":"大聖寺地方町","koaza":"十","lat":36.302344,"lng":136.30278,"zip":"9220861"},{"town":"熊坂町","koaza":"タ","lat":36.295228,"lng":136.298254,"zip":"9220842"},{"town":"熊坂町","koaza":"丁","lat":36.294052,"lng":136.297875,"zip":"9220842"},{"town":"熊坂町","koaza":"ヤ","lat":36.290742,"lng":136.294115,"zip":"9220842"},{"town":"熊坂町","koaza":"乙","lat":36.285949,"lng":136.291916,"zip":"9220842"},{"town":"熊坂町","koaza":"マ","lat":36.288918,"lng":136.294554,"zip":"9220842"},{"town":"熊坂町","koaza":"ヲ","lat":36.298344,"lng":136.305967,"zip":"9220842"},{"town":"大聖寺地方町","koaza":"六丙","lat":36.299748,"lng":136.303952,"zip":"9220861"},{"town":"山中温泉四十九院町","koaza":"ト","lat":36.258129,"lng":136.392298,"zip":"9220131"},{"town":"山中温泉四十九院町","koaza":"か","lat":36.258632,"lng":136.392746,"zip":"9220131"},{"town":"山中温泉四十九院町","koaza":"イ","lat":36.265224,"lng":136.394084,"zip":"9220131"},{"town":"山中温泉菅生谷町","koaza":"ハ","lat":36.263672,"lng":136.39985,"zip":"9220134"},{"town":"山中温泉中津原町","koaza":"ハ","lat":36.262044,"lng":136.39737,"zip":"9220132"},{"town":"山中温泉中津原町","koaza":"と","lat":36.262547,"lng":136.39714,"zip":"9220132"},{"town":"山中温泉滝町","koaza":"へ","lat":36.26122,"lng":136.399769,"zip":"9220133"},{"town":"山中温泉中津原町","koaza":"ニ","lat":36.262088,"lng":136.398072,"zip":"9220132"},{"town":"山中温泉滝町","koaza":"ハ","lat":36.256944,"lng":136.404987,"zip":"9220133"},{"town":"山中温泉滝町","koaza":"ニ","lat":36.259048,"lng":136.402226,"zip":"9220133"},{"town":"山中温泉滝町","koaza":"ホ","lat":36.260302,"lng":136.400983,"zip":"9220133"},{"town":"山中温泉滝町","koaza":"ル","lat":36.259972,"lng":136.400686,"zip":"9220133"},{"town":"山中温泉滝町","koaza":"リ","lat":36.259758,"lng":136.400888,"zip":"9220133"},{"town":"山代温泉","koaza":"三十","lat":36.30244,"lng":136.358827,"zip":"9220242"},{"town":"山代温泉","koaza":"二十九戊","lat":36.302737,"lng":136.359336,"zip":"9220242"},{"town":"山中温泉菅生谷町","koaza":"ロ","lat":36.260185,"lng":136.411802,"zip":"9220134"},{"town":"大聖寺三ツ町","koaza":"ニ","lat":36.305823,"lng":136.286727,"zip":"9220853"},{"town":"大菅波町","koaza":"ツ","lat":36.31886,"lng":136.336624,"zip":"9220425"},{"town":"大聖寺三ツ町","koaza":"ホ","lat":36.305289,"lng":136.290912,"zip":"9220853"},{"town":"永井町","koaza":"四十三","lat":36.294758,"lng":136.275774,"zip":"9220857"},{"town":"桂谷町","koaza":"ワ","lat":36.27342,"lng":136.372577,"zip":"9220273"},{"town":"山中温泉塚谷町","koaza":"ト","lat":36.253169,"lng":136.366862,"zip":"9220111"},{"town":"山中温泉長谷田町","koaza":"チ","lat":36.267455,"lng":136.361819,"zip":"9220102"},{"town":"日谷町","koaza":"五十三","lat":36.271977,"lng":136.336358,"zip":"9220824"},{"town":"直下町","koaza":"カ","lat":36.275235,"lng":136.328436,"zip":"9220825"},{"town":"曽宇町","koaza":"タ","lat":36.275234,"lng":136.317257,"zip":"9220000"},{"town":"曽宇町","koaza":"ル丙","lat":36.280835,"lng":136.322186,"zip":"9220000"},{"town":"曽宇町","koaza":"ル乙","lat":36.279893,"lng":136.320617,"zip":"9220000"},{"town":"曽宇町","koaza":"カ","lat":36.276797,"lng":136.317631,"zip":"9220000"},{"town":"熊坂町","koaza":"ヒ","lat":36.279995,"lng":136.292706,"zip":"9220842"},{"town":"黒瀬町","koaza":"イ","lat":36.293178,"lng":136.347314,"zip":"9220823"},{"town":"黒瀬町","koaza":"ネ","lat":36.288794,"lng":136.348595,"zip":"9220823"},{"town":"山中温泉二天町","koaza":"ワ","lat":36.273878,"lng":136.356008,"zip":"9220101"},{"town":"大聖寺上福田町","koaza":"ソ","lat":36.323035,"lng":136.316257,"zip":"9220004"},{"town":"大聖寺上福田町","koaza":"ノ","lat":36.322916,"lng":136.313069,"zip":"9220004"},{"town":"大聖寺岡町","koaza":"戊","lat":36.319894,"lng":136.319333,"zip":"9220005"},{"town":"大聖寺敷地","koaza":"平床","lat":36.323622,"lng":136.320664,"zip":"9220011"},{"town":"小菅波町","koaza":"天日町","lat":36.319757,"lng":136.343582,"zip":"9220424"},{"town":"冨塚町","koaza":"ときわ台","lat":36.327833,"lng":136.35574,"zip":"9220421"},{"town":"上野町","koaza":"カ","lat":36.296887,"lng":136.373576,"zip":"9220222"},{"town":"山代温泉","koaza":"四十七乙","lat":36.297906,"lng":136.371347,"zip":"9220242"},{"town":"上野町","koaza":"丸山","lat":36.294786,"lng":136.373125,"zip":"9220222"},{"town":"上野町","koaza":"神平","lat":36.295014,"lng":136.372932,"zip":"9220222"}]