[{"town":"相生町","koaza":"","lat":36.399515,"lng":136.445495,"zip":"9230946"},{"town":"青路町","koaza":"","lat":36.365457,"lng":136.427139,"zip":"9230967"},{"town":"赤瀬町","koaza":"","lat":36.299604,"lng":136.48643,"zip":"9230185"},{"town":"上リ江町","koaza":"","lat":36.312934,"lng":136.476934,"zip":"9230187"},{"town":"あけぼの町","koaza":"","lat":36.425566,"lng":136.476259,"zip":"9230035"},{"town":"旭町","koaza":"","lat":36.396615,"lng":136.449231,"zip":"9230953"},{"town":"芦田町一丁目","koaza":"","lat":36.405156,"lng":136.444287,"zip":"9230938"},{"town":"芦田町二丁目","koaza":"","lat":36.405122,"lng":136.442582,"zip":"9230938"},{"town":"安宅新町","koaza":"","lat":36.400848,"lng":136.404495,"zip":"9230995"},{"town":"安宅町","koaza":"","lat":36.419859,"lng":136.422919,"zip":"9230003"},{"town":"飴屋町","koaza":"","lat":36.400062,"lng":136.450242,"zip":"9230922"},{"town":"荒木田町","koaza":"","lat":36.404477,"lng":136.5069,"zip":"9230823"},{"town":"嵐町","koaza":"","lat":36.379598,"lng":136.568891,"zip":"9230078"},{"town":"荒屋町","koaza":"","lat":36.433562,"lng":136.474463,"zip":"9230032"},{"town":"有明町","koaza":"","lat":36.398912,"lng":136.457816,"zip":"9230864"},{"town":"粟津町","koaza":"","lat":36.323268,"lng":136.447001,"zip":"9230326"},{"town":"育成町","koaza":"","lat":36.402407,"lng":136.438882,"zip":"9230943"},{"town":"池城町","koaza":"","lat":36.348309,"lng":136.560493,"zip":"9230161"},{"town":"泉町","koaza":"","lat":36.414136,"lng":136.448047,"zip":"9230901"},{"town":"糸町","koaza":"","lat":36.403176,"lng":136.469827,"zip":"9230813"},{"town":"犬丸町","koaza":"","lat":36.425788,"lng":136.456835,"zip":"9230015"},{"town":"井口町","koaza":"","lat":36.334723,"lng":136.45192,"zip":"9230316"},{"town":"今江町","koaza":"","lat":36.374706,"lng":136.444666,"zip":"9230964"},{"town":"今江町一丁目","koaza":"","lat":36.384754,"lng":136.437419,"zip":"9230964"},{"town":"今江町二丁目","koaza":"","lat":36.383094,"lng":136.439447,"zip":"9230964"},{"town":"今江町三丁目","koaza":"","lat":36.382045,"lng":136.443619,"zip":"9230964"},{"town":"今江町四丁目","koaza":"","lat":36.380905,"lng":136.446761,"zip":"9230964"},{"town":"今江町五丁目","koaza":"","lat":36.377177,"lng":136.440398,"zip":"9230964"},{"town":"今江町六丁目","koaza":"","lat":36.378385,"lng":136.436999,"zip":"9230964"},{"town":"今江町七丁目","koaza":"","lat":36.379633,"lng":136.433773,"zip":"9230964"},{"town":"今江町八丁目","koaza":"","lat":36.37523,"lng":136.433484,"zip":"9230964"},{"town":"今江町九丁目","koaza":"","lat":36.371762,"lng":136.433422,"zip":"9230964"},{"town":"岩上町","koaza":"","lat":36.322354,"lng":136.522747,"zip":"9230177"},{"town":"岩渕町","koaza":"","lat":36.395605,"lng":136.545544,"zip":"9230073"},{"town":"鵜川町","koaza":"","lat":36.405052,"lng":136.544084,"zip":"9230063"},{"town":"浮城町","koaza":"","lat":36.408808,"lng":136.443066,"zip":"9230908"},{"town":"浮柳町","koaza":"","lat":36.405927,"lng":136.420833,"zip":"9230993"},{"town":"打越町","koaza":"","lat":36.39912,"lng":136.474114,"zip":"9230831"},{"town":"打越町一丁目","koaza":"","lat":36.397012,"lng":136.477371,"zip":"9230831"},{"town":"打木町","koaza":"","lat":36.31633,"lng":136.499311,"zip":"9230184"},{"town":"梅田町","koaza":"","lat":36.418257,"lng":136.455169,"zip":"9230023"},{"town":"漆町","koaza":"","lat":36.404373,"lng":136.484686,"zip":"9230812"},{"town":"江指町","koaza":"","lat":36.349084,"lng":136.493875,"zip":"9230155"},{"town":"扇原町","koaza":"","lat":36.348727,"lng":136.415841,"zip":"9230973"},{"town":"扇町","koaza":"","lat":36.386514,"lng":136.457033,"zip":"9230853"},{"town":"大川町一丁目","koaza":"","lat":36.415143,"lng":136.451898,"zip":"9230911"},{"town":"大川町二丁目","koaza":"","lat":36.414847,"lng":136.449877,"zip":"9230911"},{"town":"大川町三丁目","koaza":"","lat":36.412851,"lng":136.450694,"zip":"9230911"},{"town":"大島町","koaza":"","lat":36.428808,"lng":136.44774,"zip":"9230001"},{"town":"大杉町","koaza":"","lat":36.240048,"lng":136.502713,"zip":"9230186"},{"town":"大野町","koaza":"","lat":36.371183,"lng":136.497085,"zip":"9230156"},{"town":"沖町","koaza":"","lat":36.399772,"lng":136.465028,"zip":"9230861"},{"town":"尾小屋町","koaza":"","lat":36.295208,"lng":136.538297,"zip":"9230172"},{"town":"御館町","koaza":"","lat":36.424851,"lng":136.452722,"zip":"9230016"},{"town":"小野町","koaza":"","lat":36.415342,"lng":136.502358,"zip":"9230054"},{"town":"小原町","koaza":"","lat":36.272102,"lng":136.560818,"zip":"9230000"},{"town":"おびし町","koaza":"","lat":36.338785,"lng":136.44746,"zip":"9230314"},{"town":"御宮町","koaza":"","lat":36.406211,"lng":136.454766,"zip":"9230805"},{"town":"梯町","koaza":"","lat":36.420164,"lng":136.451585,"zip":"9230028"},{"town":"観音下町","koaza":"","lat":36.329273,"lng":136.543304,"zip":"9230171"},{"town":"金平町","koaza":"","lat":36.354504,"lng":136.508166,"zip":"9230153"},{"town":"金屋町","koaza":"","lat":36.406619,"lng":136.483657,"zip":"9230812"},{"town":"上荒屋町","koaza":"","lat":36.325204,"lng":136.434065,"zip":"9230331"},{"town":"上小松町","koaza":"","lat":36.410034,"lng":136.463285,"zip":"9230802"},{"town":"上寺町","koaza":"","lat":36.400987,"lng":136.446793,"zip":"9230935"},{"town":"上牧町","koaza":"","lat":36.41956,"lng":136.446281,"zip":"9230027"},{"town":"上麦口町","koaza":"","lat":36.372438,"lng":136.55334,"zip":"9230077"},{"town":"上本折町","koaza":"","lat":36.395123,"lng":136.448159,"zip":"9230955"},{"town":"上八里町","koaza":"","lat":36.422183,"lng":136.526497,"zip":"9230051"},{"town":"軽海町","koaza":"","lat":36.394832,"lng":136.509149,"zip":"9230824"},{"town":"川辺町","koaza":"","lat":36.412801,"lng":136.474874,"zip":"9230044"},{"town":"北浅井町","koaza":"","lat":36.390331,"lng":136.463061,"zip":"9230851"},{"town":"木場台","koaza":"","lat":36.350873,"lng":136.448006,"zip":"9230312"},{"town":"木場町","koaza":"","lat":36.357726,"lng":136.454286,"zip":"9230311"},{"town":"希望丘","koaza":"","lat":36.398828,"lng":136.497597,"zip":"9230826"},{"town":"京町","koaza":"","lat":36.407192,"lng":136.448865,"zip":"9230918"},{"town":"草野町","koaza":"","lat":36.408702,"lng":136.411794,"zip":"9230996"},{"town":"串茶屋町","koaza":"","lat":36.375653,"lng":136.427541,"zip":"9230966"},{"town":"串町","koaza":"","lat":36.367718,"lng":136.412685,"zip":"9230965"},{"town":"工業団地一丁目","koaza":"","lat":36.391987,"lng":136.391246,"zip":"9230994"},{"town":"工業団地二丁目","koaza":"","lat":36.386337,"lng":136.38059,"zip":"9230994"},{"town":"河田町","koaza":"","lat":36.417632,"lng":136.511262,"zip":"9230053"},{"town":"光陽町","koaza":"","lat":36.403097,"lng":136.500688,"zip":"9230822"},{"town":"国府台一丁目","koaza":"","lat":36.416367,"lng":136.517859,"zip":"9230061"},{"town":"国府台二丁目","koaza":"","lat":36.415586,"lng":136.515255,"zip":"9230061"},{"town":"国府台三丁目","koaza":"","lat":36.412458,"lng":136.51754,"zip":"9230061"},{"town":"国府台四丁目","koaza":"","lat":36.41448,"lng":136.519158,"zip":"9230061"},{"town":"国府台五丁目","koaza":"","lat":36.416192,"lng":136.525195,"zip":"9230061"},{"town":"五国寺町","koaza":"","lat":36.372742,"lng":136.512068,"zip":"9230152"},{"town":"小島町","koaza":"","lat":36.421329,"lng":136.438769,"zip":"9230002"},{"town":"古城町","koaza":"","lat":36.412666,"lng":136.448235,"zip":"9230902"},{"town":"小寺町","koaza":"","lat":36.410428,"lng":136.453309,"zip":"9230806"},{"town":"湖東町","koaza":"","lat":36.360114,"lng":136.394379,"zip":"9230000"},{"town":"古府町","koaza":"","lat":36.413657,"lng":136.497872,"zip":"9230055"},{"town":"こまつの杜","koaza":"","lat":36.403374,"lng":136.455191,"zip":"9230869"},{"town":"小山田町","koaza":"","lat":36.340189,"lng":136.459808,"zip":"9230315"},{"town":"小馬出町","koaza":"","lat":36.407469,"lng":136.446719,"zip":"9230904"},{"town":"細工町","koaza":"","lat":36.407105,"lng":136.451958,"zip":"9230915"},{"town":"材木町","koaza":"","lat":36.407094,"lng":136.45048,"zip":"9230916"},{"town":"幸町一丁目","koaza":"","lat":36.395298,"lng":136.453068,"zip":"9230867"},{"town":"幸町二丁目","koaza":"","lat":36.393881,"lng":136.452177,"zip":"9230867"},{"town":"幸町三丁目","koaza":"","lat":36.392219,"lng":136.451124,"zip":"9230867"},{"town":"栄町","koaza":"","lat":36.399531,"lng":136.447025,"zip":"9230934"},{"town":"桜木町","koaza":"","lat":36.405058,"lng":136.439768,"zip":"9230942"},{"town":"佐々木町","koaza":"","lat":36.405473,"lng":136.496043,"zip":"9230821"},{"town":"里川町","koaza":"","lat":36.411576,"lng":136.529368,"zip":"9230062"},{"town":"佐美町","koaza":"","lat":36.376024,"lng":136.391593,"zip":"9230984"},{"town":"沢町","koaza":"","lat":36.349876,"lng":136.519433,"zip":"9230165"},{"town":"三谷町","koaza":"","lat":36.367762,"lng":136.455441,"zip":"9230844"},{"town":"塩原町","koaza":"","lat":36.33487,"lng":136.519293,"zip":"9230163"},{"town":"四丁町","koaza":"","lat":36.35512,"lng":136.413145,"zip":"9230971"},{"town":"島田町","koaza":"","lat":36.419204,"lng":136.459811,"zip":"9230021"},{"town":"島町","koaza":"","lat":36.351021,"lng":136.43215,"zip":"9230303"},{"town":"清水町","koaza":"","lat":36.399158,"lng":136.44796,"zip":"9230958"},{"town":"下粟津町","koaza":"","lat":36.345678,"lng":136.432144,"zip":"9230304"},{"town":"下牧町","koaza":"","lat":36.414491,"lng":136.438672,"zip":"9230026"},{"town":"下牧町一丁目","koaza":"","lat":36.423272,"lng":136.444071,"zip":"9230026"},{"town":"下八里町","koaza":"","lat":36.423768,"lng":136.517752,"zip":"9230052"},{"town":"城南町","koaza":"","lat":36.407143,"lng":136.436809,"zip":"9230941"},{"town":"城北町","koaza":"","lat":36.431009,"lng":136.455326,"zip":"9230013"},{"town":"正蓮寺町","koaza":"","lat":36.38751,"lng":136.503252,"zip":"9230151"},{"town":"白江町","koaza":"","lat":36.408275,"lng":136.472819,"zip":"9230811"},{"town":"白嶺町一丁目","koaza":"","lat":36.390983,"lng":136.450501,"zip":"9230866"},{"town":"白嶺町二丁目","koaza":"","lat":36.389916,"lng":136.450248,"zip":"9230866"},{"town":"白嶺町三丁目","koaza":"","lat":36.389457,"lng":136.451444,"zip":"9230866"},{"town":"白松町","koaza":"","lat":36.4052,"lng":136.467115,"zip":"9230814"},{"town":"白山田町","koaza":"","lat":36.333977,"lng":136.463285,"zip":"9230321"},{"town":"新鍛冶町","koaza":"","lat":36.408221,"lng":136.452351,"zip":"9230914"},{"town":"新大工町","koaza":"","lat":36.406873,"lng":136.4463,"zip":"9230906"},{"town":"新保町","koaza":"","lat":36.17763,"lng":136.526803,"zip":"9230175"},{"town":"新町","koaza":"","lat":36.410519,"lng":136.452015,"zip":"9230912"},{"town":"須天町一丁目","koaza":"","lat":36.388887,"lng":136.442126,"zip":"9230963"},{"town":"須天町二丁目","koaza":"","lat":36.387739,"lng":136.442732,"zip":"9230963"},{"town":"末広町","koaza":"","lat":36.400877,"lng":136.441678,"zip":"9230945"},{"town":"瀬領町","koaza":"","lat":36.329671,"lng":136.489447,"zip":"9230183"},{"town":"清六町","koaza":"","lat":36.395144,"lng":136.46205,"zip":"9230862"},{"town":"千木野町","koaza":"","lat":36.38302,"lng":136.476073,"zip":"9230834"},{"town":"千木野町一丁目","koaza":"","lat":36.385827,"lng":136.479637,"zip":"9230834"},{"town":"千木野町二丁目","koaza":"","lat":36.383991,"lng":136.479727,"zip":"9230834"},{"town":"千木野町三丁目","koaza":"","lat":36.385587,"lng":136.482218,"zip":"9230834"},{"town":"千木野町四丁目","koaza":"","lat":36.384035,"lng":136.481363,"zip":"9230834"},{"town":"千代町","koaza":"","lat":36.414724,"lng":136.491957,"zip":"9230041"},{"town":"園町","koaza":"","lat":36.409334,"lng":136.458465,"zip":"9230801"},{"town":"大文字町","koaza":"","lat":36.402417,"lng":136.447978,"zip":"9230931"},{"town":"大領中町一丁目","koaza":"","lat":36.389244,"lng":136.445948,"zip":"9230962"},{"town":"大領中町二丁目","koaza":"","lat":36.386144,"lng":136.444008,"zip":"9230962"},{"town":"大領中町三丁目","koaza":"","lat":36.388384,"lng":136.447905,"zip":"9230962"},{"town":"大領中町四丁目","koaza":"","lat":36.385455,"lng":136.446273,"zip":"9230962"},{"town":"大領町","koaza":"","lat":36.383809,"lng":136.451548,"zip":"9230854"},{"town":"鷹匠町","koaza":"","lat":36.406772,"lng":136.44721,"zip":"9230905"},{"town":"宝町","koaza":"","lat":36.403009,"lng":136.461984,"zip":"9230803"},{"town":"高堂町","koaza":"","lat":36.439158,"lng":136.480472,"zip":"9230031"},{"town":"滝ケ原町","koaza":"","lat":36.283847,"lng":136.42932,"zip":"9230335"},{"town":"拓栄町","koaza":"","lat":36.387916,"lng":136.425452,"zip":"9230981"},{"town":"地子町","koaza":"","lat":36.406172,"lng":136.447583,"zip":"9230905"},{"town":"茶屋町","koaza":"","lat":36.416822,"lng":136.452973,"zip":"9230024"},{"town":"津江町","koaza":"","lat":36.225164,"lng":136.574639,"zip":"9230000"},{"town":"月津町","koaza":"","lat":36.351605,"lng":136.401881,"zip":"9230972"},{"town":"月美丘","koaza":"","lat":36.351032,"lng":136.411616,"zip":"9230974"},{"town":"津波倉町","koaza":"","lat":36.343901,"lng":136.447594,"zip":"9230313"},{"town":"鶴ケ島町","koaza":"","lat":36.412244,"lng":136.43357,"zip":"9230992"},{"town":"寺町","koaza":"","lat":36.403294,"lng":136.447158,"zip":"9230932"},{"town":"天神町","koaza":"","lat":36.416703,"lng":136.449747,"zip":"9230025"},{"town":"土居原町","koaza":"","lat":36.400853,"lng":136.451986,"zip":"9230921"},{"town":"戸津町","koaza":"","lat":36.333853,"lng":136.438857,"zip":"9230327"},{"town":"殿町一丁目","koaza":"","lat":36.412758,"lng":136.449362,"zip":"9230919"},{"town":"殿町二丁目","koaza":"","lat":36.41005,"lng":136.4494,"zip":"9230919"},{"town":"問屋町","koaza":"","lat":36.420476,"lng":136.464886,"zip":"9230037"},{"town":"中海町","koaza":"","lat":36.385513,"lng":136.517906,"zip":"9230071"},{"town":"長崎町","koaza":"","lat":36.421912,"lng":136.429662,"zip":"9230004"},{"town":"長崎町一丁目","koaza":"","lat":36.425839,"lng":136.440192,"zip":"9230004"},{"town":"長崎町二丁目","koaza":"","lat":36.425099,"lng":136.436783,"zip":"9230004"},{"town":"長崎町三丁目","koaza":"","lat":36.422835,"lng":136.434086,"zip":"9230004"},{"town":"長崎町四丁目","koaza":"","lat":36.420223,"lng":136.431189,"zip":"9230004"},{"town":"長崎町五丁目","koaza":"","lat":36.42804,"lng":136.434358,"zip":"9230004"},{"town":"長谷町","koaza":"","lat":36.35411,"lng":136.487329,"zip":"9230181"},{"town":"長田町","koaza":"","lat":36.427709,"lng":136.469565,"zip":"9230034"},{"town":"中ノ峠町","koaza":"","lat":36.376801,"lng":136.579811,"zip":"9230078"},{"town":"中町","koaza":"","lat":36.406749,"lng":136.449761,"zip":"9230917"},{"town":"那谷町","koaza":"","lat":36.313881,"lng":136.418064,"zip":"9230336"},{"town":"南陽町","koaza":"","lat":36.330154,"lng":136.440433,"zip":"9230328"},{"town":"西荒谷町","koaza":"","lat":36.316219,"lng":136.455237,"zip":"9230323"},{"town":"西軽海町一丁目","koaza":"","lat":36.398253,"lng":136.500847,"zip":"9230825"},{"town":"西軽海町二丁目","koaza":"","lat":36.39634,"lng":136.503229,"zip":"9230825"},{"town":"西軽海町三丁目","koaza":"","lat":36.395609,"lng":136.497782,"zip":"9230825"},{"town":"西軽海町四丁目","koaza":"","lat":36.394008,"lng":136.499857,"zip":"9230825"},{"town":"錦町","koaza":"","lat":36.397395,"lng":136.445662,"zip":"9230948"},{"town":"西町","koaza":"","lat":36.404618,"lng":136.446057,"zip":"9230927"},{"town":"西原町","koaza":"","lat":36.324949,"lng":136.451055,"zip":"9230325"},{"town":"西俣町","koaza":"","lat":36.293592,"lng":136.510358,"zip":"9230176"},{"town":"西本折町","koaza":"","lat":36.397199,"lng":136.447183,"zip":"9230956"},{"town":"額見町","koaza":"","lat":36.359168,"lng":136.404177,"zip":"9230977"},{"town":"布橋町","koaza":"","lat":36.336645,"lng":136.507943,"zip":"9230164"},{"town":"野立町","koaza":"","lat":36.363262,"lng":136.418334,"zip":"9230965"},{"town":"野田町","koaza":"","lat":36.431589,"lng":136.478273,"zip":"9230033"},{"town":"能美町","koaza":"","lat":36.411274,"lng":136.484721,"zip":"9230042"},{"town":"白山町","koaza":"","lat":36.397272,"lng":136.450826,"zip":"9230951"},{"town":"波佐谷町","koaza":"","lat":36.34496,"lng":136.482398,"zip":"9230182"},{"town":"波佐羅町","koaza":"","lat":36.337846,"lng":136.532264,"zip":"9230162"},{"town":"花坂町","koaza":"","lat":36.381499,"lng":136.492247,"zip":"9230157"},{"town":"花立町","koaza":"","lat":36.211924,"lng":136.534024,"zip":"9230174"},{"town":"埴田町","koaza":"","lat":36.406418,"lng":136.512964,"zip":"9230066"},{"town":"浜佐美本町","koaza":"","lat":36.41348,"lng":136.416172,"zip":"9230997"},{"town":"浜佐美町","koaza":"","lat":36.38208,"lng":136.381135,"zip":"9230985"},{"town":"浜田町","koaza":"","lat":36.406981,"lng":136.443397,"zip":"9230907"},{"town":"林町","koaza":"","lat":36.339681,"lng":136.436385,"zip":"9230344"},{"town":"馬場町","koaza":"","lat":36.317247,"lng":136.437416,"zip":"9230333"},{"town":"東町","koaza":"","lat":36.402685,"lng":136.450469,"zip":"9230923"},{"town":"東山町","koaza":"","lat":36.370833,"lng":136.483139,"zip":"9230842"},{"town":"光町","koaza":"","lat":36.404162,"lng":136.459479,"zip":"9230804"},{"town":"日末町","koaza":"","lat":36.386026,"lng":136.399319,"zip":"9230983"},{"town":"一針町","koaza":"","lat":36.416401,"lng":136.478493,"zip":"9230043"},{"town":"日の出町一丁目","koaza":"","lat":36.400451,"lng":136.454896,"zip":"9230868"},{"town":"日の出町二丁目","koaza":"","lat":36.400664,"lng":136.457307,"zip":"9230868"},{"town":"日の出町三丁目","koaza":"","lat":36.397836,"lng":136.453493,"zip":"9230868"},{"town":"日の出町四丁目","koaza":"","lat":36.397944,"lng":136.455479,"zip":"9230868"},{"town":"日用町","koaza":"","lat":36.314193,"lng":136.466337,"zip":"9230324"},{"town":"日吉町","koaza":"","lat":36.398668,"lng":136.44609,"zip":"9230947"},{"town":"平面町","koaza":"","lat":36.417594,"lng":136.468587,"zip":"9230036"},{"town":"蛭川町","koaza":"","lat":36.431858,"lng":136.462754,"zip":"9230011"},{"town":"福乃宮町一丁目","koaza":"","lat":36.394169,"lng":136.454984,"zip":"9230865"},{"town":"福乃宮町二丁目","koaza":"","lat":36.390868,"lng":136.45508,"zip":"9230865"},{"town":"二ツ梨町","koaza":"","lat":36.33016,"lng":136.425216,"zip":"9230345"},{"town":"符津町","koaza":"","lat":36.358445,"lng":136.430513,"zip":"9230302"},{"town":"不動島町","koaza":"","lat":36.395335,"lng":136.45969,"zip":"9230863"},{"town":"古河町","koaza":"","lat":36.403532,"lng":136.442421,"zip":"9230944"},{"town":"坊丸町","koaza":"","lat":36.429764,"lng":136.441435,"zip":"9230005"},{"town":"菩提町","koaza":"","lat":36.291648,"lng":136.450469,"zip":"9230334"},{"town":"本鍛冶町","koaza":"","lat":36.400912,"lng":136.447376,"zip":"9230933"},{"town":"本江町","koaza":"","lat":36.380061,"lng":136.471184,"zip":"9230841"},{"town":"本大工町一丁目","koaza":"","lat":36.401338,"lng":136.446369,"zip":"9230936"},{"town":"本大工町二丁目","koaza":"","lat":36.401312,"lng":136.445822,"zip":"9230936"},{"town":"本町一丁目","koaza":"","lat":36.402988,"lng":136.446537,"zip":"9230937"},{"town":"本町二丁目","koaza":"","lat":36.402847,"lng":136.446065,"zip":"9230937"},{"town":"本町三丁目","koaza":"","lat":36.402908,"lng":136.445499,"zip":"9230937"},{"town":"本町四丁目","koaza":"","lat":36.404077,"lng":136.445057,"zip":"9230937"},{"town":"本町五丁目","koaza":"","lat":36.40426,"lng":136.444416,"zip":"9230937"},{"town":"牧口町","koaza":"","lat":36.328149,"lng":136.457449,"zip":"9230322"},{"town":"松生町","koaza":"","lat":36.356452,"lng":136.422859,"zip":"9230306"},{"town":"松岡町","koaza":"","lat":36.353564,"lng":136.54102,"zip":"9230166"},{"town":"松崎町","koaza":"","lat":36.376198,"lng":136.414165,"zip":"9230982"},{"town":"松任町","koaza":"","lat":36.410046,"lng":136.45081,"zip":"9230913"},{"town":"松梨町","koaza":"","lat":36.426046,"lng":136.461955,"zip":"9230014"},{"town":"丸の内公園町","koaza":"","lat":36.410275,"lng":136.447704,"zip":"9230903"},{"town":"丸内町","koaza":"","lat":36.413768,"lng":136.443621,"zip":"9230903"},{"town":"丸の内町一丁目","koaza":"","lat":36.411151,"lng":136.445984,"zip":"9230903"},{"town":"丸の内町二丁目","koaza":"","lat":36.411058,"lng":136.442604,"zip":"9230903"},{"town":"丸山町","koaza":"","lat":36.243397,"lng":136.545384,"zip":"9230173"},{"town":"三田町","koaza":"","lat":36.393661,"lng":136.464058,"zip":"9230862"},{"town":"三日市町","koaza":"","lat":36.401022,"lng":136.449502,"zip":"9230924"},{"town":"みどり町","koaza":"","lat":36.393914,"lng":136.526554,"zip":"9230072"},{"town":"南浅井町","koaza":"","lat":36.382421,"lng":136.457875,"zip":"9230852"},{"town":"蓑輪町","koaza":"","lat":36.353802,"lng":136.425153,"zip":"9230305"},{"town":"美原町","koaza":"","lat":36.419926,"lng":136.456605,"zip":"9230022"},{"town":"向本折町","koaza":"","lat":36.395727,"lng":136.416586,"zip":"9230961"},{"town":"麦口町","koaza":"","lat":36.376145,"lng":136.544617,"zip":"9230076"},{"town":"村松町","koaza":"","lat":36.374062,"lng":136.415692,"zip":"9230968"},{"town":"本折町","koaza":"","lat":36.398041,"lng":136.447947,"zip":"9230957"},{"town":"矢崎町","koaza":"","lat":36.366223,"lng":136.436333,"zip":"9230301"},{"town":"八里台","koaza":"","lat":36.426861,"lng":136.524521,"zip":"9230056"},{"town":"矢田新町","koaza":"","lat":36.340898,"lng":136.4044,"zip":"9230976"},{"town":"矢田野町","koaza":"","lat":36.339981,"lng":136.41902,"zip":"9230342"},{"town":"矢田町","koaza":"","lat":36.344456,"lng":136.406043,"zip":"9230975"},{"town":"大和町","koaza":"","lat":36.397327,"lng":136.449989,"zip":"9230952"},{"town":"八幡","koaza":"","lat":36.394308,"lng":136.492493,"zip":"9230833"},{"town":"八幡町","koaza":"","lat":36.392265,"lng":136.448311,"zip":"9230954"},{"town":"遊泉寺町","koaza":"","lat":36.396492,"lng":136.531757,"zip":"9230064"},{"town":"湯上町","koaza":"","lat":36.323848,"lng":136.442197,"zip":"9230332"},{"town":"八日市町","koaza":"","lat":36.403494,"lng":136.44944,"zip":"9230925"},{"town":"八日市町地方","koaza":"","lat":36.405309,"lng":136.455477,"zip":"9230868"},{"town":"吉竹町","koaza":"","lat":36.389804,"lng":136.479085,"zip":"9230835"},{"town":"吉竹町一丁目","koaza":"","lat":36.394046,"lng":136.478939,"zip":"9230835"},{"town":"吉竹町二丁目","koaza":"","lat":36.394955,"lng":136.476449,"zip":"9230835"},{"town":"吉竹町三丁目","koaza":"","lat":36.395459,"lng":136.474469,"zip":"9230835"},{"town":"吉竹町四丁目","koaza":"","lat":36.395088,"lng":136.472927,"zip":"9230835"},{"town":"吉竹町五丁目","koaza":"","lat":36.393234,"lng":136.475723,"zip":"9230835"},{"town":"吉竹町六丁目","koaza":"","lat":36.390828,"lng":136.474923,"zip":"9230835"},{"town":"義仲町","koaza":"","lat":36.415699,"lng":136.418526,"zip":"9230998"},{"town":"龍助町","koaza":"","lat":36.402316,"lng":136.448719,"zip":"9230926"},{"town":"立明寺町","koaza":"","lat":36.402662,"lng":136.523642,"zip":"9230065"},{"town":"蓮代寺町","koaza":"","lat":36.368055,"lng":136.469551,"zip":"9230843"},{"town":"若杉町","koaza":"","lat":36.394425,"lng":136.484017,"zip":"9230832"},{"town":"若杉町一丁目","koaza":"","lat":36.398681,"lng":136.482559,"zip":"9230832"},{"town":"若杉町二丁目","koaza":"","lat":36.39798,"lng":136.48039,"zip":"9230832"},{"town":"若杉町三丁目","koaza":"","lat":36.395595,"lng":136.478881,"zip":"9230832"},{"town":"原町","koaza":"","lat":36.376396,"lng":136.534335,"zip":"9230075"},{"town":"桂町","koaza":"","lat":36.383899,"lng":136.526484,"zip":"9230074"},{"town":"浜佐美町","koaza":"ヲ","lat":36.3888,"lng":136.38139,"zip":"9230985"},{"town":"日末町","koaza":"サ","lat":36.395123,"lng":136.390054,"zip":"9230983"},{"town":"日末町","koaza":"ま","lat":36.395711,"lng":136.392729,"zip":"9230983"},{"town":"日末町","koaza":"マ","lat":36.396422,"lng":136.394259,"zip":"9230983"},{"town":"安宅新町","koaza":"ル","lat":36.401209,"lng":136.39845,"zip":"9230995"},{"town":"安宅新町","koaza":"ネ","lat":36.399698,"lng":136.400577,"zip":"9230995"},{"town":"安宅新町","koaza":"ナ","lat":36.397426,"lng":136.399794,"zip":"9230995"},{"town":"安宅新町","koaza":"ニ","lat":36.4015,"lng":136.403299,"zip":"9230995"},{"town":"日末町","koaza":"西","lat":36.382261,"lng":136.402954,"zip":"9230983"},{"town":"安宅新町","koaza":"ラ","lat":36.400061,"lng":136.403158,"zip":"9230995"},{"town":"安宅新町","koaza":"甲","lat":36.402478,"lng":136.404105,"zip":"9230995"},{"town":"日末町","koaza":"ノ","lat":36.381556,"lng":136.40408,"zip":"9230983"},{"town":"日末町","koaza":"ホ","lat":36.382681,"lng":136.404792,"zip":"9230983"},{"town":"日末町","koaza":"井","lat":36.381567,"lng":136.405809,"zip":"9230983"},{"town":"日末町","koaza":"わ","lat":36.384556,"lng":136.405277,"zip":"9230983"},{"town":"日末町","koaza":"ヘ","lat":36.38393,"lng":136.406833,"zip":"9230983"},{"town":"安宅新町","koaza":"乙","lat":36.403445,"lng":136.406211,"zip":"9230995"},{"town":"安宅新町","koaza":"イ","lat":36.401808,"lng":136.408831,"zip":"9230995"},{"town":"安宅新町","koaza":"ム","lat":36.400507,"lng":136.405658,"zip":"9230995"},{"town":"草野町","koaza":"ホ","lat":36.408249,"lng":136.407872,"zip":"9230996"},{"town":"日末町","koaza":"北","lat":36.384962,"lng":136.406846,"zip":"9230983"},{"town":"日末町","koaza":"ム","lat":36.382077,"lng":136.408676,"zip":"9230983"},{"town":"安宅新町","koaza":"丙","lat":36.403395,"lng":136.409736,"zip":"9230995"},{"town":"日末町","koaza":"ウ","lat":36.380738,"lng":136.408368,"zip":"9230983"},{"town":"日末町","koaza":"る","lat":36.385485,"lng":136.408399,"zip":"9230983"},{"town":"草野町","koaza":"チ","lat":36.40954,"lng":136.41062,"zip":"9230996"},{"town":"草野町","koaza":"イ","lat":36.407911,"lng":136.409504,"zip":"9230996"},{"town":"日末町","koaza":"ヌ","lat":36.383994,"lng":136.409209,"zip":"9230983"},{"town":"安宅新町","koaza":"ヨ","lat":36.40065,"lng":136.409148,"zip":"9230995"},{"town":"日末町","koaza":"ル","lat":36.383161,"lng":136.411062,"zip":"9230983"},{"town":"草野町","koaza":"乙","lat":36.405922,"lng":136.411471,"zip":"9230996"},{"town":"草野町","koaza":"ロ","lat":36.409165,"lng":136.410993,"zip":"9230996"},{"town":"日末町","koaza":"つ","lat":36.381071,"lng":136.410933,"zip":"9230983"},{"town":"日末町","koaza":"ち","lat":36.384269,"lng":136.412245,"zip":"9230983"},{"town":"浮柳町","koaza":"甲","lat":36.405271,"lng":136.418666,"zip":"9230993"},{"town":"日末町","koaza":"ね","lat":36.381898,"lng":136.412071,"zip":"9230983"},{"town":"日末町","koaza":"と","lat":36.382482,"lng":136.413308,"zip":"9230983"},{"town":"草野町","koaza":"丙","lat":36.406904,"lng":136.413667,"zip":"9230996"},{"town":"草野町","koaza":"ニ","lat":36.412239,"lng":136.413753,"zip":"9230996"},{"town":"日末町","koaza":"東","lat":36.38412,"lng":136.41439,"zip":"9230983"},{"town":"安宅新町","koaza":"レ","lat":36.405707,"lng":136.414597,"zip":"9230995"},{"town":"向本折町","koaza":"タ","lat":36.39714,"lng":136.414157,"zip":"9230961"},{"town":"草野町","koaza":"ハ","lat":36.406139,"lng":136.415989,"zip":"9230996"},{"town":"安宅町","koaza":"タ","lat":36.419225,"lng":136.418682,"zip":"9230003"},{"town":"浮柳町","koaza":"ハ","lat":36.407555,"lng":136.420241,"zip":"9230993"},{"town":"安宅町","koaza":"甲","lat":36.413834,"lng":136.420813,"zip":"9230003"},{"town":"安宅町","koaza":"レ","lat":36.416625,"lng":136.42252,"zip":"9230003"},{"town":"安宅町","koaza":"ヲ","lat":36.422847,"lng":136.421279,"zip":"9230003"},{"town":"浮柳町","koaza":"ロ","lat":36.409553,"lng":136.420372,"zip":"9230993"},{"town":"浮柳町","koaza":"ホ","lat":36.412914,"lng":136.420494,"zip":"9230993"},{"town":"浮柳町","koaza":"ニ","lat":36.407393,"lng":136.420699,"zip":"9230993"},{"town":"下牧町","koaza":"ニ","lat":36.412378,"lng":136.423391,"zip":"9230026"},{"town":"安宅町","koaza":"ワ","lat":36.421565,"lng":136.422473,"zip":"9230003"},{"town":"浮柳町","koaza":"ヘ","lat":36.407901,"lng":136.421342,"zip":"9230993"},{"town":"浮柳町","koaza":"丙","lat":36.408051,"lng":136.422775,"zip":"9230993"},{"town":"安宅町","koaza":"ヨ","lat":36.420218,"lng":136.424155,"zip":"9230003"},{"town":"鶴ケ島町","koaza":"鶴ケル","lat":36.406729,"lng":136.423922,"zip":"9230992"},{"town":"安宅町","koaza":"リ","lat":36.425356,"lng":136.426719,"zip":"9230003"},{"town":"安宅町","koaza":"カ","lat":36.421286,"lng":136.424198,"zip":"9230003"},{"town":"鶴ケ島町","koaza":"タ","lat":36.409784,"lng":136.423027,"zip":"9230992"},{"town":"安宅町","koaza":"ル","lat":36.424637,"lng":136.424117,"zip":"9230003"},{"town":"安宅町","koaza":"ヌ","lat":36.423397,"lng":136.424418,"zip":"9230003"},{"town":"下牧町","koaza":"ホ","lat":36.412099,"lng":136.425097,"zip":"9230026"},{"town":"浮柳町","koaza":"ル","lat":36.408088,"lng":136.42622,"zip":"9230993"},{"town":"安宅町","koaza":"ト","lat":36.421484,"lng":136.426287,"zip":"9230003"},{"town":"浮柳町","koaza":"ト","lat":36.406975,"lng":136.42569,"zip":"9230993"},{"town":"浮柳町","koaza":"リ","lat":36.410678,"lng":136.425916,"zip":"9230993"},{"town":"安宅町","koaza":"ヘ","lat":36.420008,"lng":136.427127,"zip":"9230003"},{"town":"安宅町","koaza":"チ","lat":36.422417,"lng":136.426481,"zip":"9230003"},{"town":"向本折町","koaza":"れ","lat":36.396573,"lng":136.427558,"zip":"9230961"},{"town":"安宅町","koaza":"乙","lat":36.422416,"lng":136.427562,"zip":"9230003"},{"town":"下牧町","koaza":"癸","lat":36.406146,"lng":136.429311,"zip":"9230026"},{"town":"長崎町","koaza":"ロ","lat":36.424017,"lng":136.429389,"zip":"9230004"},{"town":"長崎町","koaza":"チ","lat":36.42354,"lng":136.432231,"zip":"9230004"},{"town":"鶴ケ島町","koaza":"甲","lat":36.410208,"lng":136.429613,"zip":"9230992"},{"town":"向本折町","koaza":"そ","lat":36.39615,"lng":136.429706,"zip":"9230961"},{"town":"下牧町","koaza":"辛","lat":36.400936,"lng":136.435577,"zip":"9230026"},{"town":"長崎町","koaza":"ア","lat":36.416925,"lng":136.432168,"zip":"9230004"},{"town":"鶴ケ島町","koaza":"丑","lat":36.408299,"lng":136.431905,"zip":"9230992"},{"town":"小島町","koaza":"小ル","lat":36.420423,"lng":136.438579,"zip":"9230002"},{"town":"長崎町","koaza":"庚","lat":36.42284,"lng":136.431884,"zip":"9230004"},{"town":"長崎町","koaza":"ホ","lat":36.426817,"lng":136.436685,"zip":"9230004"},{"town":"向本折町","koaza":"つ","lat":36.398431,"lng":136.429242,"zip":"9230961"},{"town":"鶴ケ島町","koaza":"鶴ケイ","lat":36.411753,"lng":136.434743,"zip":"9230992"},{"town":"鶴ケ島町","koaza":"子","lat":36.408168,"lng":136.435115,"zip":"9230992"},{"town":"小島町","koaza":"小ホ","lat":36.421405,"lng":136.436523,"zip":"9230002"},{"town":"長崎町","koaza":"イ","lat":36.428479,"lng":136.437207,"zip":"9230004"},{"town":"小島町","koaza":"小イ","lat":36.422777,"lng":136.436858,"zip":"9230002"},{"town":"鶴ケ島町","koaza":"鶴ケロ","lat":36.411607,"lng":136.436512,"zip":"9230992"},{"town":"向本折町","koaza":"ネ","lat":36.39227,"lng":136.438251,"zip":"9230961"},{"town":"下牧町","koaza":"イ","lat":36.407662,"lng":136.437708,"zip":"9230026"},{"town":"向本折町","koaza":"ヨ","lat":36.387843,"lng":136.43856,"zip":"9230961"},{"town":"向本折町","koaza":"ホ","lat":36.396968,"lng":136.439493,"zip":"9230961"},{"town":"向本折町","koaza":"ヘ","lat":36.399925,"lng":136.438864,"zip":"9230961"},{"town":"向本折町","koaza":"坤","lat":36.390654,"lng":136.439495,"zip":"9230961"},{"town":"向本折町","koaza":"丑","lat":36.392444,"lng":136.439126,"zip":"9230961"},{"town":"小島町","koaza":"小ヘ","lat":36.423937,"lng":136.43918,"zip":"9230002"},{"town":"下牧町","koaza":"東","lat":36.418959,"lng":136.441881,"zip":"9230026"},{"town":"下牧町","koaza":"丙","lat":36.415483,"lng":136.441148,"zip":"9230026"},{"town":"小島町","koaza":"小リ","lat":36.420663,"lng":136.437527,"zip":"9230002"},{"town":"坊丸町","koaza":"丁","lat":36.430922,"lng":136.439082,"zip":"9230005"},{"town":"坊丸町","koaza":"乙","lat":36.430063,"lng":136.440692,"zip":"9230005"},{"town":"下牧町","koaza":"己","lat":36.407693,"lng":136.439659,"zip":"9230026"},{"town":"向本折町","koaza":"ヲ","lat":36.391543,"lng":136.439677,"zip":"9230961"},{"town":"向本折町","koaza":"カ","lat":36.389665,"lng":136.440806,"zip":"9230961"},{"town":"向本折町","koaza":"子","lat":36.394977,"lng":136.440681,"zip":"9230961"},{"town":"長崎町","koaza":"ニ","lat":36.428148,"lng":136.440678,"zip":"9230004"},{"town":"向本折町","koaza":"寅","lat":36.393187,"lng":136.441461,"zip":"9230961"},{"town":"小島町","koaza":"小チ","lat":36.420075,"lng":136.440939,"zip":"9230002"},{"town":"下牧町","koaza":"巳","lat":36.410044,"lng":136.440089,"zip":"9230026"},{"town":"下牧町","koaza":"戊","lat":36.410874,"lng":136.440316,"zip":"9230026"},{"town":"長崎町","koaza":"乙","lat":36.424178,"lng":136.441607,"zip":"9230004"},{"town":"丸内町","koaza":"鹿小屋","lat":36.412012,"lng":136.441536,"zip":"9230903"},{"town":"坊丸町","koaza":"甲","lat":36.429162,"lng":136.441772,"zip":"9230005"},{"town":"下牧町","koaza":"ツ","lat":36.411307,"lng":136.440781,"zip":"9230026"},{"town":"向本折町","koaza":"ワ","lat":36.390806,"lng":136.44255,"zip":"9230961"},{"town":"向本折町","koaza":"ニ","lat":36.397753,"lng":136.442521,"zip":"9230961"},{"town":"大島町","koaza":"ラ","lat":36.433792,"lng":136.442941,"zip":"9230001"},{"town":"浜田町","koaza":"ホ","lat":36.4076,"lng":136.442389,"zip":"9230907"},{"town":"浜田町","koaza":"ロ","lat":36.406737,"lng":136.443522,"zip":"9230907"},{"town":"向本折町","koaza":"午","lat":36.394306,"lng":136.444448,"zip":"9230961"},{"town":"丸内町","koaza":"大手","lat":36.414446,"lng":136.446325,"zip":"9230903"},{"town":"下牧町","koaza":"乙","lat":36.416104,"lng":136.444125,"zip":"9230026"},{"town":"丸内町","koaza":"中島","lat":36.413721,"lng":136.443807,"zip":"9230903"},{"town":"向本折町","koaza":"未","lat":36.396167,"lng":136.443958,"zip":"9230961"},{"town":"長崎町","koaza":"甲","lat":36.424858,"lng":136.444937,"zip":"9230004"},{"town":"丸内町","koaza":"二ノ丸","lat":36.412924,"lng":136.444697,"zip":"9230903"},{"town":"向本折町","koaza":"ハ","lat":36.396895,"lng":136.444466,"zip":"9230961"},{"town":"向本折町","koaza":"巳","lat":36.39164,"lng":136.445173,"zip":"9230961"},{"town":"上牧町","koaza":"ハ","lat":36.418558,"lng":136.445371,"zip":"9230027"},{"town":"向本折町","koaza":"イ","lat":36.391058,"lng":136.445627,"zip":"9230961"},{"town":"丸内町","koaza":"長土堤","lat":36.416012,"lng":136.445338,"zip":"9230903"},{"town":"上牧町","koaza":"は","lat":36.417838,"lng":136.446147,"zip":"9230027"},{"town":"浜田町","koaza":"イ","lat":36.406535,"lng":136.445326,"zip":"9230907"},{"town":"向本折町","koaza":"マ","lat":36.393526,"lng":136.446503,"zip":"9230961"},{"town":"大島町","koaza":"乙","lat":36.42993,"lng":136.44728,"zip":"9230001"},{"town":"大島町","koaza":"丙","lat":36.425431,"lng":136.448829,"zip":"9230001"},{"town":"上牧町","koaza":"ろ","lat":36.418452,"lng":136.446354,"zip":"9230027"},{"town":"大領町","koaza":"ロ","lat":36.386344,"lng":136.448747,"zip":"9230854"},{"town":"上牧町","koaza":"ロ","lat":36.416851,"lng":136.447176,"zip":"9230027"},{"town":"大領町","koaza":"そ","lat":36.384294,"lng":136.450023,"zip":"9230854"},{"town":"大島町","koaza":"大カ","lat":36.429179,"lng":136.44909,"zip":"9230001"},{"town":"大島町","koaza":"大ヨ","lat":36.43214,"lng":136.449803,"zip":"9230001"},{"town":"梯町","koaza":"イ","lat":36.421601,"lng":136.449263,"zip":"9230028"},{"town":"梯町","koaza":"ロ","lat":36.419002,"lng":136.449857,"zip":"9230028"},{"town":"大領町","koaza":"つ","lat":36.381572,"lng":136.452602,"zip":"9230854"},{"town":"大島町","koaza":"大ロ","lat":36.428824,"lng":136.450974,"zip":"9230001"},{"town":"大島町","koaza":"タ","lat":36.433481,"lng":136.450449,"zip":"9230001"},{"town":"梯町","koaza":"ヘ","lat":36.421909,"lng":136.451789,"zip":"9230028"},{"town":"大島町","koaza":"大ホ","lat":36.423892,"lng":136.450316,"zip":"9230001"},{"town":"大領町","koaza":"ハ","lat":36.385953,"lng":136.450399,"zip":"9230854"},{"town":"大島町","koaza":"甲","lat":36.430777,"lng":136.450725,"zip":"9230001"},{"town":"大領町","koaza":"イ","lat":36.387503,"lng":136.450791,"zip":"9230854"},{"town":"大領町","koaza":"ワ","lat":36.387173,"lng":136.451795,"zip":"9230854"},{"town":"大島町","koaza":"大イ","lat":36.432079,"lng":136.451124,"zip":"9230001"},{"town":"梯町","koaza":"ホ","lat":36.418572,"lng":136.452079,"zip":"9230028"},{"town":"大領町","koaza":"ね","lat":36.38407,"lng":136.452941,"zip":"9230854"},{"town":"御館町","koaza":"乙","lat":36.425444,"lng":136.453247,"zip":"9230016"},{"town":"北浅井町","koaza":"乙","lat":36.38983,"lng":136.452188,"zip":"9230851"},{"town":"梯町","koaza":"ト","lat":36.418229,"lng":136.452741,"zip":"9230028"},{"town":"小寺町","koaza":"甲","lat":36.413614,"lng":136.452496,"zip":"9230806"},{"town":"新鍛冶町","koaza":"乙","lat":36.408639,"lng":136.452858,"zip":"9230914"},{"town":"犬丸町","koaza":"丁","lat":36.427918,"lng":136.453851,"zip":"9230015"},{"town":"大領町","koaza":"な","lat":36.386276,"lng":136.453471,"zip":"9230854"},{"town":"御館町","koaza":"甲","lat":36.422882,"lng":136.454057,"zip":"9230016"},{"town":"小寺町","koaza":"乙","lat":36.408823,"lng":136.45375,"zip":"9230806"},{"town":"茶屋町","koaza":"リ","lat":36.417278,"lng":136.453776,"zip":"9230024"},{"town":"園町","koaza":"チ","lat":36.41414,"lng":136.453715,"zip":"9230801"},{"town":"蛭川町","koaza":"甲","lat":36.430704,"lng":136.458914,"zip":"9230011"},{"town":"小寺町","koaza":"丙","lat":36.406888,"lng":136.453464,"zip":"9230806"},{"town":"梯町","koaza":"リ","lat":36.416807,"lng":136.454642,"zip":"9230028"},{"town":"園町","koaza":"イ","lat":36.411768,"lng":136.455043,"zip":"9230801"},{"town":"北浅井町","koaza":"舟津","lat":36.388559,"lng":136.455227,"zip":"9230851"},{"town":"犬丸町","koaza":"丙","lat":36.425508,"lng":136.456002,"zip":"9230015"},{"town":"小寺町","koaza":"戊","lat":36.408043,"lng":136.454805,"zip":"9230806"},{"town":"島田町","koaza":"ト","lat":36.419873,"lng":136.45571,"zip":"9230021"},{"town":"園町","koaza":"ト","lat":36.411838,"lng":136.457265,"zip":"9230801"},{"town":"犬丸町","koaza":"甲","lat":36.427222,"lng":136.457592,"zip":"9230015"},{"town":"北浅井町","koaza":"ち","lat":36.38754,"lng":136.45622,"zip":"9230851"},{"town":"島田町","koaza":"ニ","lat":36.418003,"lng":136.458072,"zip":"9230021"},{"town":"不動島町","koaza":"甲","lat":36.393998,"lng":136.456822,"zip":"9230863"},{"town":"犬丸町","koaza":"乙","lat":36.423866,"lng":136.457294,"zip":"9230015"},{"town":"南浅井町","koaza":"ハ","lat":36.384553,"lng":136.457049,"zip":"9230852"},{"town":"島田町","koaza":"チ","lat":36.422527,"lng":136.45712,"zip":"9230021"},{"town":"園町","koaza":"ハ","lat":36.406398,"lng":136.459418,"zip":"9230801"},{"town":"南浅井町","koaza":"ロ","lat":36.381904,"lng":136.457137,"zip":"9230852"},{"town":"北浅井町","koaza":"り","lat":36.390887,"lng":136.458711,"zip":"9230851"},{"town":"沖町","koaza":"イ","lat":36.397456,"lng":136.45844,"zip":"9230861"},{"town":"島田町","koaza":"ホ","lat":36.418815,"lng":136.457955,"zip":"9230021"},{"town":"園町","koaza":"ホ","lat":36.407787,"lng":136.460224,"zip":"9230801"},{"town":"島田町","koaza":"ヘ","lat":36.420227,"lng":136.458248,"zip":"9230021"},{"town":"南浅井町","koaza":"ニ","lat":36.383791,"lng":136.457832,"zip":"9230852"},{"town":"不動島町","koaza":"乙","lat":36.393989,"lng":136.460646,"zip":"9230863"},{"town":"島田町","koaza":"リ","lat":36.421858,"lng":136.46093,"zip":"9230021"},{"town":"蛭川町","koaza":"西","lat":36.434403,"lng":136.458701,"zip":"9230011"},{"town":"沖町","koaza":"タ","lat":36.396989,"lng":136.461469,"zip":"9230861"},{"town":"園町","koaza":"ヘ","lat":36.411431,"lng":136.459192,"zip":"9230801"},{"town":"南浅井町","koaza":"イ","lat":36.384784,"lng":136.461917,"zip":"9230852"},{"town":"北浅井町","koaza":"ニ","lat":36.386703,"lng":136.458624,"zip":"9230851"},{"town":"北浅井町","koaza":"ハ","lat":36.388393,"lng":136.459286,"zip":"9230851"},{"town":"島田町","koaza":"庚","lat":36.419644,"lng":136.460155,"zip":"9230021"},{"town":"北浅井町","koaza":"と","lat":36.387688,"lng":136.461737,"zip":"9230851"},{"town":"蛭川町","koaza":"ヌ","lat":36.431814,"lng":136.460393,"zip":"9230011"},{"town":"北浅井町","koaza":"イ","lat":36.390051,"lng":136.459917,"zip":"9230851"},{"town":"上小松町","koaza":"甲","lat":36.413116,"lng":136.4631,"zip":"9230802"},{"town":"蛭川町","koaza":"乙","lat":36.432861,"lng":136.460096,"zip":"9230011"},{"town":"松梨町","koaza":"乙","lat":36.42653,"lng":136.46114,"zip":"9230014"},{"town":"島田町","koaza":"ロ","lat":36.41629,"lng":136.46095,"zip":"9230021"},{"town":"蓮代寺町","koaza":"よ","lat":36.381739,"lng":136.460745,"zip":"9230843"},{"town":"沖町","koaza":"ト","lat":36.399596,"lng":136.461448,"zip":"9230861"},{"town":"北浅井町","koaza":"は","lat":36.391853,"lng":136.461273,"zip":"9230851"},{"town":"沖町","koaza":"ロ","lat":36.397871,"lng":136.461742,"zip":"9230861"},{"town":"沖町","koaza":"チ","lat":36.401058,"lng":136.462723,"zip":"9230861"},{"town":"松梨町","koaza":"丙","lat":36.424268,"lng":136.46149,"zip":"9230014"},{"town":"島田町","koaza":"ヌ","lat":36.421436,"lng":136.46115,"zip":"9230021"},{"town":"清六町","koaza":"甲","lat":36.394714,"lng":136.462262,"zip":"9230862"},{"town":"北浅井町","koaza":"二号","lat":36.391435,"lng":136.46111,"zip":"9230851"},{"town":"沖町","koaza":"ネ","lat":36.402642,"lng":136.462526,"zip":"9230861"},{"town":"北浅井町","koaza":"三号","lat":36.393392,"lng":136.465568,"zip":"9230851"},{"town":"上小松町","koaza":"乙","lat":36.410228,"lng":136.462688,"zip":"9230802"},{"town":"上小松町","koaza":"丙","lat":36.406997,"lng":136.464842,"zip":"9230802"},{"town":"北浅井町","koaza":"ろ","lat":36.388951,"lng":136.461109,"zip":"9230851"},{"town":"本江町","koaza":"ホ","lat":36.386828,"lng":136.467236,"zip":"9230841"},{"town":"北浅井町","koaza":"一号","lat":36.389459,"lng":136.463437,"zip":"9230851"},{"town":"松梨町","koaza":"甲","lat":36.427111,"lng":136.464166,"zip":"9230014"},{"town":"園町","koaza":"ニ","lat":36.403997,"lng":136.465553,"zip":"9230801"},{"town":"島田町","koaza":"イ","lat":36.421022,"lng":136.462784,"zip":"9230021"},{"town":"平面町","koaza":"ト","lat":36.41811,"lng":136.464201,"zip":"9230036"},{"town":"蛭川町","koaza":"丁","lat":36.430296,"lng":136.466443,"zip":"9230011"},{"town":"長田町","koaza":"ル","lat":36.425397,"lng":136.46568,"zip":"9230034"},{"town":"沖町","koaza":"ハ","lat":36.397979,"lng":136.464585,"zip":"9230861"},{"town":"沖町","koaza":"ヘ","lat":36.398963,"lng":136.464407,"zip":"9230861"},{"town":"沖町","koaza":"レ","lat":36.39771,"lng":136.465172,"zip":"9230861"},{"town":"長田町","koaza":"丁","lat":36.427823,"lng":136.465724,"zip":"9230034"},{"town":"北浅井町","koaza":"へ","lat":36.389246,"lng":136.464493,"zip":"9230851"},{"town":"長田町","koaza":"甲","lat":36.427084,"lng":136.465153,"zip":"9230034"},{"town":"園町","koaza":"ヌ","lat":36.411062,"lng":136.46504,"zip":"9230801"},{"town":"長田町","koaza":"ヌ","lat":36.422264,"lng":136.46559,"zip":"9230034"},{"town":"沖町","koaza":"ツ","lat":36.398619,"lng":136.467231,"zip":"9230861"},{"town":"蛭川町","koaza":"東","lat":36.432993,"lng":136.466571,"zip":"9230011"},{"town":"平面町","koaza":"ヘ","lat":36.417974,"lng":136.466905,"zip":"9230036"},{"town":"白江町","koaza":"リ","lat":36.412166,"lng":136.467953,"zip":"9230811"},{"town":"白江町","koaza":"ト","lat":36.4097,"lng":136.469083,"zip":"9230811"},{"town":"北浅井町","koaza":"ほ","lat":36.387823,"lng":136.467004,"zip":"9230851"},{"town":"蛭川町","koaza":"い","lat":36.435352,"lng":136.46761,"zip":"9230011"},{"town":"長田町","koaza":"ヲ","lat":36.429271,"lng":136.468596,"zip":"9230034"},{"town":"沖町","koaza":"ナ","lat":36.402287,"lng":136.468751,"zip":"9230861"},{"town":"千木野町","koaza":"い","lat":36.387039,"lng":136.468728,"zip":"9230834"},{"town":"長田町","koaza":"ホ","lat":36.424237,"lng":136.469318,"zip":"9230034"},{"town":"白江町","koaza":"ヘ","lat":36.406634,"lng":136.468456,"zip":"9230811"},{"town":"長田町","koaza":"ワ","lat":36.430654,"lng":136.469072,"zip":"9230034"},{"town":"吉竹町","koaza":"は","lat":36.390485,"lng":136.470029,"zip":"9230835"},{"town":"長田町","koaza":"リ","lat":36.426852,"lng":136.469734,"zip":"9230034"},{"town":"平面町","koaza":"リ","lat":36.416505,"lng":136.469186,"zip":"9230036"},{"town":"沖町","koaza":"ソ","lat":36.397989,"lng":136.468564,"zip":"9230861"},{"town":"沖町","koaza":"ヌ","lat":36.400513,"lng":136.468776,"zip":"9230861"},{"town":"本江町","koaza":"ハ","lat":36.384177,"lng":136.470098,"zip":"9230841"},{"town":"平面町","koaza":"ヨ","lat":36.418521,"lng":136.468998,"zip":"9230036"},{"town":"打越町","koaza":"丙","lat":36.398901,"lng":136.471488,"zip":"9230831"},{"town":"沖町","koaza":"ホ","lat":36.399842,"lng":136.469828,"zip":"9230861"},{"town":"平面町","koaza":"イ","lat":36.414823,"lng":136.471443,"zip":"9230036"},{"town":"長田町","koaza":"ヘ","lat":36.426121,"lng":136.471419,"zip":"9230034"},{"town":"千木野町","koaza":"は","lat":36.383472,"lng":136.471397,"zip":"9230834"},{"town":"長田町","koaza":"ト","lat":36.42865,"lng":136.47134,"zip":"9230034"},{"town":"平面町","koaza":"カ","lat":36.417387,"lng":136.473125,"zip":"9230036"},{"town":"打越町","koaza":"丁","lat":36.397826,"lng":136.471426,"zip":"9230831"},{"town":"平面町","koaza":"ア","lat":36.418237,"lng":136.471333,"zip":"9230036"},{"town":"吉竹町","koaza":"に","lat":36.389166,"lng":136.471908,"zip":"9230835"},{"town":"白江町","koaza":"ナ","lat":36.409023,"lng":136.47126,"zip":"9230811"},{"town":"白江町","koaza":"ホ","lat":36.407093,"lng":136.472843,"zip":"9230811"},{"town":"白江町","koaza":"ロ","lat":36.403108,"lng":136.472087,"zip":"9230811"},{"town":"長田町","koaza":"ロ","lat":36.422893,"lng":136.474195,"zip":"9230034"},{"town":"打越町","koaza":"甲","lat":36.397537,"lng":136.475741,"zip":"9230831"},{"town":"荒屋町","koaza":"丙","lat":36.433621,"lng":136.473007,"zip":"9230032"},{"town":"吉竹町","koaza":"ほ","lat":36.388415,"lng":136.47224,"zip":"9230835"},{"town":"荒屋町","koaza":"甲","lat":36.434181,"lng":136.476741,"zip":"9230032"},{"town":"白江町","koaza":"チ","lat":36.409105,"lng":136.472116,"zip":"9230811"},{"town":"長田町","koaza":"イ","lat":36.426012,"lng":136.478344,"zip":"9230034"},{"town":"野田町","koaza":"丙","lat":36.4298,"lng":136.479788,"zip":"9230033"},{"town":"野田町","koaza":"乙","lat":36.430992,"lng":136.476802,"zip":"9230033"},{"town":"本江町","koaza":"ヨ","lat":36.380586,"lng":136.472815,"zip":"9230841"},{"town":"荒屋町","koaza":"丁","lat":36.43232,"lng":136.473653,"zip":"9230032"},{"town":"千木野町","koaza":"と","lat":36.382742,"lng":136.474118,"zip":"9230834"},{"town":"吉竹町","koaza":"南","lat":36.388948,"lng":136.47424,"zip":"9230835"},{"town":"吉竹町","koaza":"ヌ","lat":36.389318,"lng":136.474212,"zip":"9230835"},{"town":"白江町","koaza":"カ","lat":36.409651,"lng":136.474119,"zip":"9230811"},{"town":"白江町","koaza":"タ","lat":36.407441,"lng":136.475578,"zip":"9230811"},{"town":"打越町","koaza":"う","lat":36.400732,"lng":136.473703,"zip":"9230831"},{"town":"荒屋町","koaza":"乙","lat":36.434327,"lng":136.474952,"zip":"9230032"},{"town":"白江町","koaza":"ネ","lat":36.406732,"lng":136.473361,"zip":"9230811"},{"town":"白江町","koaza":"ニ","lat":36.405815,"lng":136.475505,"zip":"9230811"},{"town":"本江町","koaza":"ヘ","lat":36.379299,"lng":136.475624,"zip":"9230841"},{"town":"千木野町","koaza":"ち","lat":36.381925,"lng":136.475704,"zip":"9230834"},{"town":"一針町","koaza":"ル","lat":36.415051,"lng":136.476108,"zip":"9230043"},{"town":"打越町","koaza":"乙","lat":36.399407,"lng":136.476199,"zip":"9230831"},{"town":"平面町","koaza":"甲","lat":36.417801,"lng":136.475039,"zip":"9230036"},{"town":"千木野町","koaza":"に","lat":36.38549,"lng":136.474802,"zip":"9230834"},{"town":"白江町","koaza":"ハ","lat":36.402204,"lng":136.475358,"zip":"9230811"},{"town":"一針町","koaza":"ヌ","lat":36.41699,"lng":136.477983,"zip":"9230043"},{"town":"白江町","koaza":"ヨ","lat":36.408641,"lng":136.476685,"zip":"9230811"},{"town":"吉竹町","koaza":"と","lat":36.387657,"lng":136.477031,"zip":"9230835"},{"town":"吉竹町","koaza":"リ","lat":36.388585,"lng":136.476977,"zip":"9230835"},{"town":"千木野町","koaza":"へ","lat":36.384661,"lng":136.476679,"zip":"9230834"},{"town":"吉竹町","koaza":"た","lat":36.395811,"lng":136.475997,"zip":"9230835"},{"town":"千木野町","koaza":"ホ","lat":36.386172,"lng":136.476364,"zip":"9230834"},{"town":"打越町","koaza":"い","lat":36.399517,"lng":136.477021,"zip":"9230831"},{"town":"吉竹町","koaza":"ル","lat":36.38993,"lng":136.477569,"zip":"9230835"},{"town":"吉竹町","koaza":"か","lat":36.391582,"lng":136.47686,"zip":"9230835"},{"town":"一針町","koaza":"ロ","lat":36.422762,"lng":136.478692,"zip":"9230043"},{"town":"一針町","koaza":"ホ","lat":36.419367,"lng":136.478277,"zip":"9230043"},{"town":"吉竹町","koaza":"レ","lat":36.392572,"lng":136.477066,"zip":"9230835"},{"town":"吉竹町","koaza":"ね","lat":36.395003,"lng":136.47724,"zip":"9230835"},{"town":"千木野町","koaza":"ぬ","lat":36.383117,"lng":136.477018,"zip":"9230834"},{"town":"一針町","koaza":"レ","lat":36.414613,"lng":136.478233,"zip":"9230043"},{"town":"千木野町","koaza":"ヌ","lat":36.382554,"lng":136.477098,"zip":"9230834"},{"town":"千木野町","koaza":"ワ","lat":36.385736,"lng":136.477818,"zip":"9230834"},{"town":"白江町","koaza":"ツ","lat":36.402513,"lng":136.479459,"zip":"9230811"},{"town":"高堂町","koaza":"丙","lat":36.438469,"lng":136.477827,"zip":"9230031"},{"town":"白江町","koaza":"ワ","lat":36.411262,"lng":136.478658,"zip":"9230811"},{"town":"白江町","koaza":"ヲ","lat":36.413165,"lng":136.478082,"zip":"9230811"},{"town":"吉竹町","koaza":"よ","lat":36.393244,"lng":136.47932,"zip":"9230835"},{"town":"高堂町","koaza":"イ","lat":36.436177,"lng":136.478034,"zip":"9230031"},{"town":"高堂町","koaza":"ト","lat":36.438557,"lng":136.480497,"zip":"9230031"},{"town":"千木野町","koaza":"ル","lat":36.383123,"lng":136.479436,"zip":"9230834"},{"town":"野田町","koaza":"丁","lat":36.431788,"lng":136.479787,"zip":"9230033"},{"town":"千木野町","koaza":"る","lat":36.383259,"lng":136.478004,"zip":"9230834"},{"town":"白江町","koaza":"レ","lat":36.406717,"lng":136.478255,"zip":"9230811"},{"town":"白江町","koaza":"ソ","lat":36.402505,"lng":136.479018,"zip":"9230811"},{"town":"吉竹町","koaza":"ち","lat":36.387605,"lng":136.478783,"zip":"9230835"},{"town":"一針町","koaza":"午","lat":36.415397,"lng":136.47949,"zip":"9230043"},{"town":"千木野町","koaza":"カ","lat":36.386415,"lng":136.477812,"zip":"9230834"},{"town":"千木野町","koaza":"ヲ","lat":36.384363,"lng":136.478494,"zip":"9230834"},{"town":"野田町","koaza":"辛","lat":36.433315,"lng":136.478227,"zip":"9230033"},{"town":"若杉町","koaza":"ハ","lat":36.399765,"lng":136.479545,"zip":"9230832"},{"town":"高堂町","koaza":"ロ","lat":36.436552,"lng":136.482189,"zip":"9230031"},{"town":"一針町","koaza":"巳","lat":36.416959,"lng":136.479853,"zip":"9230043"},{"town":"吉竹町","koaza":"お","lat":36.389361,"lng":136.479354,"zip":"9230835"},{"town":"吉竹町","koaza":"わ","lat":36.391134,"lng":136.479987,"zip":"9230835"},{"town":"一針町","koaza":"カ","lat":36.413308,"lng":136.479464,"zip":"9230043"},{"town":"一針町","koaza":"ト","lat":36.418595,"lng":136.481073,"zip":"9230043"},{"town":"若杉町","koaza":"ホ","lat":36.395936,"lng":136.479593,"zip":"9230832"},{"town":"金屋町","koaza":"イ","lat":36.406454,"lng":136.483973,"zip":"9230812"},{"town":"千木野町","koaza":"ヨ","lat":36.383587,"lng":136.479718,"zip":"9230834"},{"town":"一針町","koaza":"ワ","lat":36.415011,"lng":136.480796,"zip":"9230043"},{"town":"吉竹町","koaza":"タ","lat":36.392461,"lng":136.482231,"zip":"9230835"},{"town":"若杉町","koaza":"ヲ","lat":36.395185,"lng":136.481564,"zip":"9230832"},{"town":"吉竹町","koaza":"ぬ","lat":36.387618,"lng":136.482558,"zip":"9230835"},{"town":"若杉町","koaza":"リ","lat":36.396866,"lng":136.481895,"zip":"9230832"},{"town":"野田町","koaza":"巳","lat":36.434653,"lng":136.48195,"zip":"9230033"},{"town":"野田町","koaza":"戊","lat":36.432796,"lng":136.481936,"zip":"9230033"},{"town":"吉竹町","koaza":"ヨ","lat":36.391241,"lng":136.481616,"zip":"9230835"},{"town":"吉竹町","koaza":"る","lat":36.388922,"lng":136.481982,"zip":"9230835"},{"town":"一針町","koaza":"リ","lat":36.417402,"lng":136.480789,"zip":"9230043"},{"town":"若杉町","koaza":"ワ","lat":36.394955,"lng":136.483232,"zip":"9230832"},{"town":"能美町","koaza":"ソ","lat":36.409929,"lng":136.483524,"zip":"9230042"},{"town":"高堂町","koaza":"ホ","lat":36.438243,"lng":136.483373,"zip":"9230031"},{"town":"能美町","koaza":"レ","lat":36.409215,"lng":136.483415,"zip":"9230042"},{"town":"若杉町","koaza":"ヌ乙","lat":36.396257,"lng":136.484825,"zip":"9230832"},{"town":"若杉町","koaza":"子","lat":36.391222,"lng":136.483568,"zip":"9230832"},{"town":"若杉町","koaza":"ヌ甲","lat":36.397808,"lng":136.484094,"zip":"9230832"},{"town":"若杉町","koaza":"ア","lat":36.393411,"lng":136.483532,"zip":"9230832"},{"town":"八幡","koaza":"甲","lat":36.400507,"lng":136.488324,"zip":"9230833"},{"town":"若杉町","koaza":"カ","lat":36.394126,"lng":136.484582,"zip":"9230832"},{"town":"能美町","koaza":"イ","lat":36.409246,"lng":136.485869,"zip":"9230042"},{"town":"若杉町","koaza":"ニ","lat":36.399229,"lng":136.484445,"zip":"9230832"},{"town":"高堂町","koaza":"ハ","lat":36.436764,"lng":136.4857,"zip":"9230031"},{"town":"若杉町","koaza":"ヤ","lat":36.39739,"lng":136.485418,"zip":"9230832"},{"town":"八幡","koaza":"庚","lat":36.397924,"lng":136.486802,"zip":"9230833"},{"town":"漆町","koaza":"イ","lat":36.404213,"lng":136.487058,"zip":"9230812"},{"town":"能美町","koaza":"タ","lat":36.408322,"lng":136.486418,"zip":"9230042"},{"town":"若杉町","koaza":"ソ","lat":36.391565,"lng":136.485944,"zip":"9230832"},{"town":"能美町","koaza":"ロ","lat":36.410872,"lng":136.485703,"zip":"9230042"},{"town":"能美町","koaza":"ニ","lat":36.416008,"lng":136.486859,"zip":"9230042"},{"town":"漆町","koaza":"ロ","lat":36.403112,"lng":136.487085,"zip":"9230812"},{"town":"若杉町","koaza":"レ","lat":36.395208,"lng":136.486062,"zip":"9230832"},{"town":"八幡","koaza":"辛","lat":36.395194,"lng":136.488269,"zip":"9230833"},{"town":"八幡","koaza":"癸","lat":36.39188,"lng":136.489072,"zip":"9230833"},{"town":"千代町","koaza":"甲","lat":36.409847,"lng":136.49041,"zip":"9230041"},{"town":"八幡","koaza":"己","lat":36.39836,"lng":136.489402,"zip":"9230833"},{"town":"八幡","koaza":"ロ","lat":36.389479,"lng":136.489979,"zip":"9230833"},{"town":"千代町","koaza":"い","lat":36.423203,"lng":136.491847,"zip":"9230041"},{"town":"八幡","koaza":"壬","lat":36.395463,"lng":136.490249,"zip":"9230833"},{"town":"千代町","koaza":"元","lat":36.412596,"lng":136.491496,"zip":"9230041"},{"town":"千代町","koaza":"平","lat":36.42423,"lng":136.490467,"zip":"9230041"},{"town":"八幡","koaza":"イ","lat":36.393901,"lng":136.490124,"zip":"9230833"},{"town":"八幡","koaza":"戊","lat":36.398189,"lng":136.490736,"zip":"9230833"},{"town":"千代町","koaza":"丁","lat":36.409231,"lng":136.493822,"zip":"9230041"},{"town":"八幡","koaza":"ハ","lat":36.386527,"lng":136.493337,"zip":"9230833"},{"town":"八幡","koaza":"丁","lat":36.394836,"lng":136.492334,"zip":"9230833"},{"town":"軽海町","koaza":"ソ","lat":36.400641,"lng":136.49578,"zip":"9230824"},{"town":"八幡","koaza":"ト","lat":36.400194,"lng":136.494023,"zip":"9230833"},{"town":"千代町","koaza":"乙","lat":36.412866,"lng":136.494472,"zip":"9230041"},{"town":"千代町","koaza":"丙","lat":36.410864,"lng":136.494716,"zip":"9230041"},{"town":"八幡","koaza":"丙","lat":36.40006,"lng":136.495374,"zip":"9230833"},{"town":"佐々木町","koaza":"イ","lat":36.404702,"lng":136.49689,"zip":"9230821"},{"town":"佐々木町","koaza":"ロ","lat":36.40437,"lng":136.495728,"zip":"9230821"},{"town":"正蓮寺町","koaza":"ニ","lat":36.38804,"lng":136.496092,"zip":"9230151"},{"town":"千代町","koaza":"と","lat":36.410456,"lng":136.496452,"zip":"9230041"},{"town":"古府町","koaza":"申","lat":36.411736,"lng":136.498775,"zip":"9230055"},{"town":"古府町","koaza":"リ","lat":36.411261,"lng":136.498334,"zip":"9230055"},{"town":"軽海町","koaza":"ツ","lat":36.400836,"lng":136.498975,"zip":"9230824"},{"town":"古府町","koaza":"ロ","lat":36.421565,"lng":136.505925,"zip":"9230055"},{"town":"小野町","koaza":"丁","lat":36.415129,"lng":136.501549,"zip":"9230054"},{"town":"古府町","koaza":"丁","lat":36.408827,"lng":136.499914,"zip":"9230055"},{"town":"古府町","koaza":"ヌ","lat":36.411151,"lng":136.500526,"zip":"9230055"},{"town":"中海町","koaza":"ハ","lat":36.392746,"lng":136.50373,"zip":"9230071"},{"town":"古府町","koaza":"ル","lat":36.409092,"lng":136.500608,"zip":"9230055"},{"town":"古府町","koaza":"亥","lat":36.411147,"lng":136.501456,"zip":"9230055"},{"town":"小野町","koaza":"戊","lat":36.412983,"lng":136.502335,"zip":"9230054"},{"town":"軽海町","koaza":"甲","lat":36.399231,"lng":136.504953,"zip":"9230824"},{"town":"古府町","koaza":"ヨ","lat":36.409565,"lng":136.50373,"zip":"9230055"},{"town":"古府町","koaza":"戊","lat":36.411101,"lng":136.502606,"zip":"9230055"},{"town":"古府町","koaza":"ヲ","lat":36.407804,"lng":136.502303,"zip":"9230055"},{"town":"軽海町","koaza":"ネ","lat":36.39997,"lng":136.503323,"zip":"9230824"},{"town":"小野町","koaza":"丙","lat":36.4151,"lng":136.503386,"zip":"9230054"},{"town":"古府町","koaza":"カ","lat":36.408167,"lng":136.503431,"zip":"9230055"},{"town":"小野町","koaza":"巳","lat":36.413478,"lng":136.50442,"zip":"9230054"},{"town":"小野町","koaza":"甲","lat":36.412509,"lng":136.50405,"zip":"9230054"},{"town":"古府町","koaza":"北","lat":36.41006,"lng":136.504878,"zip":"9230055"},{"town":"古府町","koaza":"子","lat":36.421289,"lng":136.504791,"zip":"9230055"},{"town":"荒木田町","koaza":"丙","lat":36.404958,"lng":136.506108,"zip":"9230823"},{"town":"古府町","koaza":"南","lat":36.408675,"lng":136.505474,"zip":"9230055"},{"town":"河田町","koaza":"ク","lat":36.414201,"lng":136.507138,"zip":"9230053"},{"town":"埴田町","koaza":"戊","lat":36.40769,"lng":136.511646,"zip":"9230066"},{"town":"河田町","koaza":"乙","lat":36.41229,"lng":136.50765,"zip":"9230053"},{"town":"軽海町","koaza":"ナ","lat":36.40016,"lng":136.507539,"zip":"9230824"},{"town":"河田町","koaza":"ル","lat":36.415012,"lng":136.506808,"zip":"9230053"},{"town":"埴田町","koaza":"ニ","lat":36.408348,"lng":136.50703,"zip":"9230066"},{"town":"河田町","koaza":"ヘ","lat":36.422027,"lng":136.509368,"zip":"9230053"},{"town":"河田町","koaza":"ヌ","lat":36.415837,"lng":136.508924,"zip":"9230053"},{"town":"河田町","koaza":"ト","lat":36.420641,"lng":136.508045,"zip":"9230053"},{"town":"河田町","koaza":"ツ","lat":36.415096,"lng":136.509689,"zip":"9230053"},{"town":"荒木田町","koaza":"ワ","lat":36.407365,"lng":136.508414,"zip":"9230823"},{"town":"河田町","koaza":"オ","lat":36.414124,"lng":136.509112,"zip":"9230053"},{"town":"河田町","koaza":"リ","lat":36.418959,"lng":136.510439,"zip":"9230053"},{"town":"河田町","koaza":"甲","lat":36.410896,"lng":136.509307,"zip":"9230053"},{"town":"軽海町","koaza":"ラ","lat":36.399686,"lng":136.511762,"zip":"9230824"},{"town":"河田町","koaza":"ヲ","lat":36.41925,"lng":136.511054,"zip":"9230053"},{"town":"河田町","koaza":"丁","lat":36.410179,"lng":136.511598,"zip":"9230053"},{"town":"軽海町","koaza":"ワ","lat":36.397575,"lng":136.511516,"zip":"9230824"},{"town":"軽海町","koaza":"ヲ","lat":36.398482,"lng":136.511697,"zip":"9230824"},{"town":"河田町","koaza":"ホ","lat":36.422854,"lng":136.511354,"zip":"9230053"},{"town":"荒木田町","koaza":"ホ","lat":36.40294,"lng":136.511878,"zip":"9230823"},{"town":"河田町","koaza":"子","lat":36.41727,"lng":136.511845,"zip":"9230053"},{"town":"荒木田町","koaza":"リ","lat":36.403388,"lng":136.5121,"zip":"9230823"},{"town":"荒木田町","koaza":"乙","lat":36.402238,"lng":136.510838,"zip":"9230823"},{"town":"荒木田町","koaza":"ニ","lat":36.402619,"lng":136.510555,"zip":"9230823"},{"town":"河田町","koaza":"わ","lat":36.421032,"lng":136.511654,"zip":"9230053"},{"town":"河田町","koaza":"か","lat":36.420036,"lng":136.512646,"zip":"9230053"},{"town":"河田町","koaza":"を","lat":36.419918,"lng":136.512152,"zip":"9230053"},{"town":"埴田町","koaza":"ヘ","lat":36.409487,"lng":136.512743,"zip":"9230066"},{"town":"埴田町","koaza":"ト","lat":36.408376,"lng":136.514644,"zip":"9230066"},{"town":"軽海町","koaza":"ウ","lat":36.399367,"lng":136.513385,"zip":"9230824"},{"town":"荒木田町","koaza":"ヘ","lat":36.402329,"lng":136.513119,"zip":"9230823"},{"town":"河田町","koaza":"ヨ","lat":36.417303,"lng":136.513724,"zip":"9230053"},{"town":"河田町","koaza":"カ","lat":36.418697,"lng":136.514098,"zip":"9230053"},{"town":"河田町","koaza":"ニ","lat":36.420812,"lng":136.515379,"zip":"9230053"},{"town":"軽海町","koaza":"ノ","lat":36.397382,"lng":136.51364,"zip":"9230824"},{"town":"河田町","koaza":"ソ","lat":36.416994,"lng":136.514207,"zip":"9230053"},{"town":"中海町","koaza":"六号","lat":36.393731,"lng":136.515186,"zip":"9230071"},{"town":"埴田町","koaza":"丁","lat":36.408393,"lng":136.516417,"zip":"9230066"},{"town":"河田町","koaza":"ろ","lat":36.419723,"lng":136.515441,"zip":"9230053"},{"town":"中海町","koaza":"チ","lat":36.393142,"lng":136.517552,"zip":"9230071"},{"town":"中海町","koaza":"七号","lat":36.394864,"lng":136.515816,"zip":"9230071"},{"town":"下八里町","koaza":"己","lat":36.41977,"lng":136.518192,"zip":"9230052"},{"town":"中海町","koaza":"八号","lat":36.394327,"lng":136.518117,"zip":"9230071"},{"town":"中海町","koaza":"ニ","lat":36.39807,"lng":136.518738,"zip":"9230071"},{"town":"遊泉寺町","koaza":"イ","lat":36.401327,"lng":136.5198,"zip":"9230064"},{"town":"中海町","koaza":"九号","lat":36.393693,"lng":136.519987,"zip":"9230071"},{"town":"下八里町","koaza":"ホ","lat":36.420411,"lng":136.52112,"zip":"9230052"},{"town":"遊泉寺町","koaza":"カ","lat":36.400828,"lng":136.520283,"zip":"9230064"},{"town":"下八里町","koaza":"戊","lat":36.420956,"lng":136.520083,"zip":"9230052"},{"town":"下八里町","koaza":"ニ","lat":36.421002,"lng":136.521186,"zip":"9230052"},{"town":"遊泉寺町","koaza":"レ","lat":36.399546,"lng":136.522231,"zip":"9230064"},{"town":"上八里町","koaza":"己","lat":36.421227,"lng":136.523775,"zip":"9230051"},{"town":"立明寺町","koaza":"ロ","lat":36.402437,"lng":136.52296,"zip":"9230065"},{"town":"遊泉寺町","koaza":"ホ","lat":36.400847,"lng":136.523203,"zip":"9230064"},{"town":"立明寺町","koaza":"イ","lat":36.40194,"lng":136.525055,"zip":"9230065"},{"town":"岩渕町","koaza":"ロ","lat":36.38928,"lng":136.524274,"zip":"9230073"},{"town":"遊泉寺町","koaza":"ヨ","lat":36.400159,"lng":136.524927,"zip":"9230064"},{"town":"岩渕町","koaza":"チ","lat":36.387673,"lng":136.526514,"zip":"9230073"},{"town":"里川町","koaza":"乙","lat":36.415251,"lng":136.529383,"zip":"9230062"},{"town":"上八里町","koaza":"ニ","lat":36.421465,"lng":136.526078,"zip":"9230051"},{"town":"遊泉寺町","koaza":"甲","lat":36.400052,"lng":136.529091,"zip":"9230064"},{"town":"桂町","koaza":"ロ","lat":36.38669,"lng":136.527867,"zip":"9230074"},{"town":"鵜川町","koaza":"ヘ","lat":36.401942,"lng":136.529242,"zip":"9230063"},{"town":"岩渕町","koaza":"ヌ","lat":36.388931,"lng":136.526351,"zip":"9230073"},{"town":"里川町","koaza":"ト","lat":36.415745,"lng":136.532196,"zip":"9230062"},{"town":"鵜川町","koaza":"ト","lat":36.403143,"lng":136.532801,"zip":"9230063"},{"town":"鵜川町","koaza":"ヌ","lat":36.403782,"lng":136.534426,"zip":"9230063"},{"town":"里川町","koaza":"チ","lat":36.416975,"lng":136.53363,"zip":"9230062"},{"town":"鵜川町","koaza":"ア","lat":36.404296,"lng":136.533466,"zip":"9230063"},{"town":"吉竹町","koaza":"れ","lat":36.389952,"lng":136.473997,"zip":"9230835"},{"town":"安宅町","koaza":"ラ","lat":36.412733,"lng":136.419546,"zip":"9230003"},{"town":"安宅町","koaza":"安宅林","lat":36.416283,"lng":136.421257,"zip":"9230003"},{"town":"千代町","koaza":"ろ","lat":36.4211,"lng":136.489185,"zip":"9230041"},{"town":"荒屋町","koaza":"に","lat":36.432788,"lng":136.473912,"zip":"9230032"},{"town":"下八里町","koaza":"イ","lat":36.420581,"lng":136.51686,"zip":"9230052"},{"town":"中海町","koaza":"五号","lat":36.390861,"lng":136.515408,"zip":"9230071"},{"town":"日末町","koaza":"ヲ","lat":36.38234,"lng":136.412116,"zip":"9230983"},{"town":"安宅新町","koaza":"ア","lat":36.403687,"lng":136.404942,"zip":"9230995"},{"town":"安宅新町","koaza":"丁","lat":36.405829,"lng":136.413444,"zip":"9230995"},{"town":"草野町","koaza":"甲","lat":36.406877,"lng":136.406931,"zip":"9230996"},{"town":"安宅新町","koaza":"ト","lat":36.402197,"lng":136.410943,"zip":"9230995"},{"town":"鶴ケ島町","koaza":"鶴ケヨ","lat":36.411068,"lng":136.426654,"zip":"9230992"},{"town":"鶴ケ島町","koaza":"鶴ケヌ","lat":36.410241,"lng":136.425746,"zip":"9230992"},{"town":"安宅町","koaza":"子","lat":36.413914,"lng":136.423905,"zip":"9230003"},{"town":"安宅町","koaza":"ツ","lat":36.414434,"lng":136.423901,"zip":"9230003"},{"town":"日末町","koaza":"リ","lat":36.384704,"lng":136.408461,"zip":"9230983"},{"town":"草野町","koaza":"ト","lat":36.40962,"lng":136.4217,"zip":"9230996"},{"town":"長崎町","koaza":"丙","lat":36.424307,"lng":136.437599,"zip":"9230004"},{"town":"上牧町","koaza":"に","lat":36.419761,"lng":136.44573,"zip":"9230027"},{"town":"上牧町","koaza":"イ","lat":36.416491,"lng":136.447871,"zip":"9230027"},{"town":"上牧町","koaza":"ニ","lat":36.417272,"lng":136.447697,"zip":"9230027"},{"town":"島田町","koaza":"巳","lat":36.417935,"lng":136.459909,"zip":"9230021"},{"town":"長田町","koaza":"ヨ","lat":36.427811,"lng":136.466661,"zip":"9230034"},{"town":"長田町","koaza":"タ","lat":36.429654,"lng":136.466926,"zip":"9230034"},{"town":"高堂町","koaza":"乙","lat":36.437404,"lng":136.477173,"zip":"9230031"},{"town":"高堂町","koaza":"ヘ","lat":36.439845,"lng":136.481475,"zip":"9230031"},{"town":"一針町","koaza":"イ","lat":36.424192,"lng":136.481355,"zip":"9230043"},{"town":"一針町","koaza":"ヲ","lat":36.413979,"lng":136.475039,"zip":"9230043"},{"town":"平面町","koaza":"乙","lat":36.415619,"lng":136.474132,"zip":"9230036"},{"town":"平面町","koaza":"ホ","lat":36.418026,"lng":136.468827,"zip":"9230036"},{"town":"大島町","koaza":"ツ","lat":36.430976,"lng":136.444631,"zip":"9230001"},{"town":"大島町","koaza":"大ヌ","lat":36.427136,"lng":136.448225,"zip":"9230001"},{"town":"向本折町","koaza":"卯","lat":36.391715,"lng":136.439185,"zip":"9230961"},{"town":"園町","koaza":"ロ","lat":36.408768,"lng":136.456085,"zip":"9230801"},{"town":"北浅井町","koaza":"甲","lat":36.389857,"lng":136.454904,"zip":"9230851"},{"town":"南浅井町","koaza":"カ","lat":36.385377,"lng":136.456385,"zip":"9230852"},{"town":"北浅井町","koaza":"ヌ","lat":36.388326,"lng":136.464429,"zip":"9230851"},{"town":"蓮代寺町","koaza":"と","lat":36.382144,"lng":136.460465,"zip":"9230843"},{"town":"一針町","koaza":"ヨ","lat":36.409005,"lng":136.482253,"zip":"9230043"},{"town":"打越町","koaza":"え","lat":36.397411,"lng":136.473575,"zip":"9230831"},{"town":"打越町","koaza":"あ","lat":36.397008,"lng":136.474523,"zip":"9230831"},{"town":"本江町","koaza":"ロ","lat":36.380655,"lng":136.470516,"zip":"9230841"},{"town":"本江町","koaza":"ヲ","lat":36.381831,"lng":136.472368,"zip":"9230841"},{"town":"本江町","koaza":"ワ","lat":36.381565,"lng":136.473876,"zip":"9230841"},{"town":"花坂町","koaza":"タ","lat":36.387188,"lng":136.495963,"zip":"9230157"},{"town":"花坂町","koaza":"リ","lat":36.386472,"lng":136.496121,"zip":"9230157"},{"town":"千代町","koaza":"子","lat":36.407205,"lng":136.488146,"zip":"9230041"},{"town":"若杉町","koaza":"タ","lat":36.39242,"lng":136.482981,"zip":"9230832"},{"town":"古府町","koaza":"酉","lat":36.4082,"lng":136.50146,"zip":"9230055"},{"town":"荒木田町","koaza":"ハ","lat":36.402471,"lng":136.508513,"zip":"9230823"},{"town":"軽海町","koaza":"ハ","lat":36.398728,"lng":136.510016,"zip":"9230824"},{"town":"荒木田町","koaza":"ト","lat":36.404544,"lng":136.511375,"zip":"9230823"},{"town":"荒木田町","koaza":"ヌ","lat":36.404474,"lng":136.509915,"zip":"9230823"},{"town":"軽海町","koaza":"ヘ","lat":36.397231,"lng":136.512916,"zip":"9230824"},{"town":"中海町","koaza":"ロ","lat":36.390953,"lng":136.522368,"zip":"9230071"},{"town":"中海町","koaza":"イ","lat":36.391258,"lng":136.520004,"zip":"9230071"},{"town":"岩渕町","koaza":"リ","lat":36.390009,"lng":136.5249,"zip":"9230073"},{"town":"岩渕町","koaza":"イ","lat":36.387943,"lng":136.527027,"zip":"9230073"},{"town":"鵜川町","koaza":"乙","lat":36.402199,"lng":136.518909,"zip":"9230063"},{"town":"埴田町","koaza":"甲","lat":36.403346,"lng":136.517666,"zip":"9230066"},{"town":"埴田町","koaza":"ロ","lat":36.404369,"lng":136.515092,"zip":"9230066"},{"town":"埴田町","koaza":"乙","lat":36.406644,"lng":136.514552,"zip":"9230066"},{"town":"遊泉寺町","koaza":"丙","lat":36.394952,"lng":136.526485,"zip":"9230064"},{"town":"遊泉寺町","koaza":"ヘ","lat":36.400971,"lng":136.524379,"zip":"9230064"},{"town":"鵜川町","koaza":"ホ","lat":36.401319,"lng":136.523405,"zip":"9230063"},{"town":"河田町","koaza":"丙","lat":36.412902,"lng":136.510135,"zip":"9230053"},{"town":"河田町","koaza":"ウ","lat":36.411834,"lng":136.510734,"zip":"9230053"},{"town":"河田町","koaza":"ム","lat":36.410709,"lng":136.512604,"zip":"9230053"},{"town":"立明寺町","koaza":"乙","lat":36.402057,"lng":136.520452,"zip":"9230065"},{"town":"立明寺町","koaza":"ハ","lat":36.402035,"lng":136.521448,"zip":"9230065"},{"town":"鵜川町","koaza":"カ","lat":36.402275,"lng":136.533429,"zip":"9230063"},{"town":"里川町","koaza":"ヌ","lat":36.415873,"lng":136.533196,"zip":"9230062"},{"town":"里川町","koaza":"リ","lat":36.416254,"lng":136.53276,"zip":"9230062"},{"town":"上八里町","koaza":"丙","lat":36.423199,"lng":136.526522,"zip":"9230051"},{"town":"河田町","koaza":"ワ","lat":36.420997,"lng":136.510965,"zip":"9230053"},{"town":"下八里町","koaza":"庚","lat":36.418803,"lng":136.518373,"zip":"9230052"},{"town":"上八里町","koaza":"ハ","lat":36.422002,"lng":136.52523,"zip":"9230051"},{"town":"上八里町","koaza":"丁","lat":36.421857,"lng":136.52409,"zip":"9230051"},{"town":"上八里町","koaza":"中山","lat":36.417436,"lng":136.53061,"zip":"9230051"},{"town":"鶴ケ島町","koaza":"ル","lat":36.406998,"lng":136.423337,"zip":"9230992"},{"town":"日末町","koaza":"り","lat":36.385131,"lng":136.411751,"zip":"9230983"},{"town":"蛭川町","koaza":"ト","lat":36.428309,"lng":136.465993,"zip":"9230011"},{"town":"上八里町","koaza":"ホ","lat":36.423288,"lng":136.527596,"zip":"9230051"},{"town":"日末町","koaza":"ろ","lat":36.384666,"lng":136.411999,"zip":"9230983"},{"town":"佐美町","koaza":"ハ","lat":36.377348,"lng":136.391532,"zip":"9230984"},{"town":"佐美町","koaza":"申","lat":36.377443,"lng":136.392867,"zip":"9230984"},{"town":"佐美町","koaza":"ニ","lat":36.37711,"lng":136.393187,"zip":"9230984"},{"town":"佐美町","koaza":"チ","lat":36.378239,"lng":136.395931,"zip":"9230984"},{"town":"額見町","koaza":"む","lat":36.355846,"lng":136.400628,"zip":"9230977"},{"town":"佐美町","koaza":"戌","lat":36.379061,"lng":136.395984,"zip":"9230984"},{"town":"佐美町","koaza":"亥","lat":36.379553,"lng":136.399591,"zip":"9230984"},{"town":"額見町","koaza":"ろ","lat":36.356453,"lng":136.398665,"zip":"9230977"},{"town":"額見町","koaza":"ニ","lat":36.356716,"lng":136.400803,"zip":"9230977"},{"town":"額見町","koaza":"よ","lat":36.355727,"lng":136.398872,"zip":"9230977"},{"town":"矢田新町","koaza":"カ","lat":36.341602,"lng":136.402896,"zip":"9230976"},{"town":"額見町","koaza":"ヨ","lat":36.356893,"lng":136.402216,"zip":"9230977"},{"town":"月津町","koaza":"ラ","lat":36.350739,"lng":136.405848,"zip":"9230972"},{"town":"額見町","koaza":"ヌ","lat":36.358411,"lng":136.403036,"zip":"9230977"},{"town":"月津町","koaza":"ユ","lat":36.352606,"lng":136.403295,"zip":"9230972"},{"town":"額見町","koaza":"ら","lat":36.357258,"lng":136.405556,"zip":"9230977"},{"town":"月津町","koaza":"キ","lat":36.351303,"lng":136.403197,"zip":"9230972"},{"town":"那谷町","koaza":"金","lat":36.315192,"lng":136.403103,"zip":"9230336"},{"town":"額見町","koaza":"わ","lat":36.360764,"lng":136.408352,"zip":"9230977"},{"town":"矢田町","koaza":"ワ","lat":36.344385,"lng":136.404369,"zip":"9230975"},{"town":"矢田町","koaza":"イ","lat":36.346286,"lng":136.40745,"zip":"9230975"},{"town":"月津町","koaza":"め","lat":36.35441,"lng":136.405509,"zip":"9230972"},{"town":"矢田町","koaza":"カ","lat":36.34512,"lng":136.405338,"zip":"9230975"},{"town":"月津町","koaza":"み","lat":36.354231,"lng":136.40757,"zip":"9230972"},{"town":"額見町","koaza":"な","lat":36.358406,"lng":136.408272,"zip":"9230977"},{"town":"矢田町","koaza":"タ","lat":36.344287,"lng":136.408504,"zip":"9230975"},{"town":"矢田町","koaza":"ヨ","lat":36.344559,"lng":136.406371,"zip":"9230975"},{"town":"月津町","koaza":"ナ","lat":36.352359,"lng":136.406363,"zip":"9230972"},{"town":"月津町","koaza":"な","lat":36.352475,"lng":136.408313,"zip":"9230972"},{"town":"月津町","koaza":"ミ","lat":36.354612,"lng":136.409051,"zip":"9230972"},{"town":"月津町","koaza":"こ","lat":36.351174,"lng":136.408305,"zip":"9230972"},{"town":"額見町","koaza":"工業団地","lat":36.360072,"lng":136.409448,"zip":"9230977"},{"town":"串町","koaza":"ヌ","lat":36.369674,"lng":136.414776,"zip":"9230965"},{"town":"月津町","koaza":"つ","lat":36.352652,"lng":136.410502,"zip":"9230972"},{"town":"松崎町","koaza":"チ","lat":36.377852,"lng":136.40959,"zip":"9230982"},{"town":"矢田町","koaza":"ロ","lat":36.346766,"lng":136.409412,"zip":"9230975"},{"town":"那谷町","koaza":"子","lat":36.315016,"lng":136.416795,"zip":"9230336"},{"town":"月津町","koaza":"シ","lat":36.356506,"lng":136.409233,"zip":"9230972"},{"town":"額見町","koaza":"エ","lat":36.357289,"lng":136.410176,"zip":"9230977"},{"town":"四丁町","koaza":"は","lat":36.353757,"lng":136.411552,"zip":"9230971"},{"town":"松崎町","koaza":"ホ","lat":36.376567,"lng":136.411234,"zip":"9230982"},{"town":"串町","koaza":"工業団地","lat":36.361612,"lng":136.419117,"zip":"9230965"},{"town":"松崎町","koaza":"ハ","lat":36.377323,"lng":136.411954,"zip":"9230982"},{"town":"四丁町","koaza":"ろ","lat":36.355801,"lng":136.411442,"zip":"9230971"},{"town":"矢田町","koaza":"ラ","lat":36.345914,"lng":136.412037,"zip":"9230975"},{"town":"松崎町","koaza":"ト","lat":36.376565,"lng":136.41303,"zip":"9230982"},{"town":"月津町","koaza":"ヲ","lat":36.35205,"lng":136.415847,"zip":"9230972"},{"town":"月津町","koaza":"ほ","lat":36.349047,"lng":136.412708,"zip":"9230972"},{"town":"四丁町","koaza":"に","lat":36.353728,"lng":136.413023,"zip":"9230971"},{"town":"矢田野町","koaza":"ウ","lat":36.337118,"lng":136.41374,"zip":"9230342"},{"town":"四丁町","koaza":"ホ","lat":36.356517,"lng":136.413839,"zip":"9230971"},{"town":"矢田野町","koaza":"三十八","lat":36.342125,"lng":136.413899,"zip":"9230342"},{"town":"月津町","koaza":"ト","lat":36.347722,"lng":136.413879,"zip":"9230972"},{"town":"松崎町","koaza":"ロ","lat":36.375057,"lng":136.414147,"zip":"9230982"},{"town":"佐美町","koaza":"戊","lat":36.373245,"lng":136.414038,"zip":"9230984"},{"town":"村松町","koaza":"甲","lat":36.375032,"lng":136.415181,"zip":"9230968"},{"town":"矢田野町","koaza":"ナ","lat":36.339727,"lng":136.415131,"zip":"9230342"},{"town":"二ツ梨町","koaza":"ヘ","lat":36.336051,"lng":136.418562,"zip":"9230345"},{"town":"矢田野町","koaza":"五十五","lat":36.333148,"lng":136.416549,"zip":"9230342"},{"town":"矢田野町","koaza":"ネ","lat":36.341703,"lng":136.415249,"zip":"9230342"},{"town":"矢田野町","koaza":"エ","lat":36.337785,"lng":136.41589,"zip":"9230342"},{"town":"日末町","koaza":"い","lat":36.378652,"lng":136.417553,"zip":"9230983"},{"town":"松崎町","koaza":"乙","lat":36.375795,"lng":136.41569,"zip":"9230982"},{"town":"矢田野町","koaza":"レ","lat":36.344573,"lng":136.41791,"zip":"9230342"},{"town":"矢田野町","koaza":"キ","lat":36.342491,"lng":136.415515,"zip":"9230342"},{"town":"矢田野町","koaza":"ア","lat":36.339499,"lng":136.415959,"zip":"9230342"},{"town":"矢田野町","koaza":"ユ","lat":36.341425,"lng":136.416305,"zip":"9230342"},{"town":"村松町","koaza":"丙","lat":36.375234,"lng":136.41862,"zip":"9230968"},{"town":"四丁町","koaza":"ヌ","lat":36.354459,"lng":136.416805,"zip":"9230971"},{"town":"矢田野町","koaza":"四十三","lat":36.338471,"lng":136.416493,"zip":"9230342"},{"town":"松崎町","koaza":"甲","lat":36.377768,"lng":136.416495,"zip":"9230982"},{"town":"矢田野町","koaza":"テ","lat":36.339441,"lng":136.417258,"zip":"9230342"},{"town":"矢田野町","koaza":"二十一","lat":36.349884,"lng":136.41938,"zip":"9230342"},{"town":"那谷町","koaza":"れ","lat":36.316026,"lng":136.41758,"zip":"9230336"},{"town":"佐美町","koaza":"庚","lat":36.37553,"lng":136.417079,"zip":"9230984"},{"town":"矢田野町","koaza":"二十九","lat":36.342142,"lng":136.417844,"zip":"9230342"},{"town":"符津町","koaza":"ケ","lat":36.355052,"lng":136.420584,"zip":"9230302"},{"town":"矢田野町","koaza":"三十一","lat":36.340813,"lng":136.417586,"zip":"9230342"},{"town":"矢田野町","koaza":"コ","lat":36.338076,"lng":136.418511,"zip":"9230342"},{"town":"串町","koaza":"リ","lat":36.374454,"lng":136.418938,"zip":"9230965"},{"town":"串町","koaza":"南","lat":36.366514,"lng":136.419052,"zip":"9230965"},{"town":"那谷町","koaza":"サ","lat":36.314785,"lng":136.4194,"zip":"9230336"},{"town":"矢田野町","koaza":"ヨ","lat":36.347477,"lng":136.41989,"zip":"9230342"},{"town":"矢田野町","koaza":"五十","lat":36.334481,"lng":136.419241,"zip":"9230342"},{"town":"蓑輪町","koaza":"イ","lat":36.351279,"lng":136.418847,"zip":"9230305"},{"town":"矢田野町","koaza":"六","lat":36.342983,"lng":136.418843,"zip":"9230342"},{"town":"那谷町","koaza":"レ","lat":36.316648,"lng":136.419202,"zip":"9230336"},{"town":"矢田野町","koaza":"カ","lat":36.349199,"lng":136.418719,"zip":"9230342"},{"town":"矢田野町","koaza":"フ","lat":36.339668,"lng":136.419015,"zip":"9230342"},{"town":"矢田野町","koaza":"五","lat":36.341555,"lng":136.419151,"zip":"9230342"},{"town":"矢田野町","koaza":"ミ","lat":36.337684,"lng":136.421221,"zip":"9230342"},{"town":"矢田野町","koaza":"リ","lat":36.342418,"lng":136.420463,"zip":"9230342"},{"town":"矢田野町","koaza":"五十一","lat":36.333899,"lng":136.421277,"zip":"9230342"},{"town":"矢田野町","koaza":"イ","lat":36.34129,"lng":136.421103,"zip":"9230342"},{"town":"矢田野町","koaza":"四十六","lat":36.338773,"lng":136.419557,"zip":"9230342"},{"town":"二ツ梨町","koaza":"ル","lat":36.327191,"lng":136.42033,"zip":"9230345"},{"town":"矢田野町","koaza":"ケ","lat":36.341753,"lng":136.419719,"zip":"9230342"},{"town":"串町","koaza":"チ","lat":36.370901,"lng":136.420579,"zip":"9230965"},{"town":"矢田野町","koaza":"四十五","lat":36.337738,"lng":136.419641,"zip":"9230342"},{"town":"那谷町","koaza":"キ","lat":36.315334,"lng":136.421002,"zip":"9230336"},{"town":"矢田野町","koaza":"ヌ","lat":36.345434,"lng":136.422268,"zip":"9230342"},{"town":"那谷町","koaza":"ぬ","lat":36.316982,"lng":136.420484,"zip":"9230336"},{"town":"矢田野町","koaza":"マ","lat":36.340436,"lng":136.420734,"zip":"9230342"},{"town":"矢田野町","koaza":"四十七","lat":36.338666,"lng":136.42007,"zip":"9230342"},{"town":"二ツ梨町","koaza":"タ","lat":36.331812,"lng":136.422597,"zip":"9230345"},{"town":"島町","koaza":"ヨ","lat":36.353833,"lng":136.421637,"zip":"9230303"},{"town":"矢田野町","koaza":"ワ","lat":36.350999,"lng":136.421679,"zip":"9230342"},{"town":"串町","koaza":"甲","lat":36.36906,"lng":136.422259,"zip":"9230965"},{"town":"矢田野町","koaza":"ル","lat":36.348037,"lng":136.421857,"zip":"9230342"},{"town":"矢田野町","koaza":"メ","lat":36.339827,"lng":136.422027,"zip":"9230342"},{"town":"矢田野町","koaza":"チ","lat":36.34296,"lng":136.422886,"zip":"9230342"},{"town":"二ツ梨町","koaza":"ワ","lat":36.327654,"lng":136.42153,"zip":"9230345"},{"town":"串町","koaza":"北","lat":36.375674,"lng":136.423486,"zip":"9230965"},{"town":"二ツ梨町","koaza":"カ","lat":36.329277,"lng":136.421748,"zip":"9230345"},{"town":"日末町","koaza":"は","lat":36.379769,"lng":136.420084,"zip":"9230983"},{"town":"串町","koaza":"庚","lat":36.371704,"lng":136.424054,"zip":"9230965"},{"town":"二ツ梨町","koaza":"ヨ","lat":36.330838,"lng":136.422706,"zip":"9230345"},{"town":"二ツ梨町","koaza":"ロ","lat":36.332222,"lng":136.422159,"zip":"9230345"},{"town":"串町","koaza":"乙","lat":36.37044,"lng":136.422567,"zip":"9230965"},{"town":"串町","koaza":"セ","lat":36.368119,"lng":136.423363,"zip":"9230965"},{"town":"矢田野町","koaza":"ヲ","lat":36.350062,"lng":136.422701,"zip":"9230342"},{"town":"那谷町","koaza":"ひ","lat":36.31487,"lng":136.422477,"zip":"9230336"},{"town":"島町","koaza":"ヲ","lat":36.353809,"lng":136.427115,"zip":"9230303"},{"town":"上荒屋町","koaza":"ナ","lat":36.337566,"lng":136.425094,"zip":"9230331"},{"town":"矢田野町","koaza":"ロ","lat":36.341771,"lng":136.423246,"zip":"9230342"},{"town":"符津町","koaza":"マ","lat":36.358391,"lng":136.423176,"zip":"9230302"},{"town":"那谷町","koaza":"モ","lat":36.314078,"lng":136.42302,"zip":"9230336"},{"town":"串町","koaza":"ホ","lat":36.378518,"lng":136.424926,"zip":"9230965"},{"town":"那谷町","koaza":"エ","lat":36.311694,"lng":136.422922,"zip":"9230336"},{"town":"矢田野町","koaza":"ヘ","lat":36.34775,"lng":136.424341,"zip":"9230342"},{"town":"島町","koaza":"カ","lat":36.352015,"lng":136.423923,"zip":"9230303"},{"town":"串町","koaza":"丙","lat":36.369495,"lng":136.425405,"zip":"9230965"},{"town":"矢田野町","koaza":"ト","lat":36.346132,"lng":136.42342,"zip":"9230342"},{"town":"那谷町","koaza":"も","lat":36.315043,"lng":136.424334,"zip":"9230336"},{"town":"那谷町","koaza":"十四","lat":36.312297,"lng":136.423394,"zip":"9230336"},{"town":"符津町","koaza":"ヤ","lat":36.357643,"lng":136.423748,"zip":"9230302"},{"town":"二ツ梨町","koaza":"イ","lat":36.331942,"lng":136.425095,"zip":"9230345"},{"town":"矢田野町","koaza":"十九","lat":36.351269,"lng":136.421304,"zip":"9230342"},{"town":"符津町","koaza":"ナ","lat":36.357599,"lng":136.425029,"zip":"9230302"},{"town":"那谷町","koaza":"セ","lat":36.312887,"lng":136.424809,"zip":"9230336"},{"town":"串町","koaza":"ト","lat":36.373503,"lng":136.423592,"zip":"9230965"},{"town":"串茶屋町","koaza":"い","lat":36.375634,"lng":136.426678,"zip":"9230966"},{"town":"串茶屋町","koaza":"甲","lat":36.374955,"lng":136.426337,"zip":"9230966"},{"town":"串町","koaza":"東","lat":36.368047,"lng":136.425285,"zip":"9230965"},{"town":"那谷町","koaza":"せ","lat":36.314276,"lng":136.425635,"zip":"9230336"},{"town":"串町","koaza":"壬","lat":36.373249,"lng":136.427191,"zip":"9230965"},{"town":"矢田野町","koaza":"ハ","lat":36.34505,"lng":136.424827,"zip":"9230342"},{"town":"下粟津町","koaza":"マ","lat":36.340323,"lng":136.424354,"zip":"9230304"},{"town":"符津町","koaza":"ツ","lat":36.361479,"lng":136.425148,"zip":"9230302"},{"town":"二ツ梨町","koaza":"エ","lat":36.337722,"lng":136.426171,"zip":"9230345"},{"town":"矢田野町","koaza":"ホ","lat":36.350514,"lng":136.425633,"zip":"9230342"},{"town":"下粟津町","koaza":"ケ","lat":36.343303,"lng":136.425269,"zip":"9230304"},{"town":"串茶屋町","koaza":"丙","lat":36.374593,"lng":136.428864,"zip":"9230966"},{"town":"蓑輪町","koaza":"ロ","lat":36.353372,"lng":136.425712,"zip":"9230305"},{"town":"二ツ梨町","koaza":"ク","lat":36.334369,"lng":136.426018,"zip":"9230345"},{"town":"下粟津町","koaza":"ア","lat":36.342829,"lng":136.426383,"zip":"9230304"},{"town":"下粟津町","koaza":"テ","lat":36.344794,"lng":136.42653,"zip":"9230304"},{"town":"符津町","koaza":"ヰ","lat":36.355126,"lng":136.424953,"zip":"9230302"},{"town":"矢田野町","koaza":"ニ","lat":36.346996,"lng":136.426301,"zip":"9230342"},{"town":"二ツ梨町","koaza":"ヤ","lat":36.336441,"lng":136.425757,"zip":"9230345"},{"town":"矢田野町","koaza":"十","lat":36.346456,"lng":136.42619,"zip":"9230342"},{"town":"二ツ梨町","koaza":"ラ","lat":36.333303,"lng":136.426561,"zip":"9230345"},{"town":"符津町","koaza":"ソ","lat":36.362732,"lng":136.426933,"zip":"9230302"},{"town":"下粟津町","koaza":"フ","lat":36.344603,"lng":136.427663,"zip":"9230304"},{"town":"串町","koaza":"己","lat":36.370621,"lng":136.426689,"zip":"9230965"},{"town":"二ツ梨町","koaza":"オ","lat":36.336183,"lng":136.426679,"zip":"9230345"},{"town":"島町","koaza":"ル","lat":36.352319,"lng":136.427954,"zip":"9230303"},{"town":"下粟津町","koaza":"ヤ","lat":36.34063,"lng":136.425574,"zip":"9230304"},{"town":"符津町","koaza":"イ","lat":36.355347,"lng":136.427915,"zip":"9230302"},{"town":"符津町","koaza":"ラ","lat":36.358383,"lng":136.427418,"zip":"9230302"},{"town":"串茶屋町","koaza":"戊","lat":36.377913,"lng":136.428281,"zip":"9230966"},{"town":"符津町","koaza":"オ","lat":36.362184,"lng":136.428136,"zip":"9230302"},{"town":"馬場町","koaza":"そ","lat":36.319371,"lng":136.431857,"zip":"9230333"},{"town":"下粟津町","koaza":"ク","lat":36.338159,"lng":136.427978,"zip":"9230304"},{"town":"符津町","koaza":"う","lat":36.355796,"lng":136.426651,"zip":"9230302"},{"town":"島町","koaza":"ヌ","lat":36.349276,"lng":136.427506,"zip":"9230303"},{"town":"符津町","koaza":"ク","lat":36.360223,"lng":136.427361,"zip":"9230302"},{"town":"二ツ梨町","koaza":"井","lat":36.334893,"lng":136.428087,"zip":"9230345"},{"town":"串町","koaza":"戊","lat":36.370366,"lng":136.429571,"zip":"9230965"},{"town":"下粟津町","koaza":"サ","lat":36.341301,"lng":136.428078,"zip":"9230304"},{"town":"符津町","koaza":"ム","lat":36.358528,"lng":136.428978,"zip":"9230302"},{"town":"下粟津町","koaza":"オ","lat":36.339539,"lng":136.430127,"zip":"9230304"},{"town":"串町","koaza":"丁","lat":36.369101,"lng":136.428628,"zip":"9230965"},{"town":"下粟津町","koaza":"ラ","lat":36.345126,"lng":136.42917,"zip":"9230304"},{"town":"矢崎町","koaza":"甲","lat":36.364636,"lng":136.429954,"zip":"9230301"},{"town":"矢崎町","koaza":"乙","lat":36.367425,"lng":136.430089,"zip":"9230301"},{"town":"下粟津町","koaza":"い","lat":36.346383,"lng":136.428905,"zip":"9230304"},{"town":"串茶屋町","koaza":"上野","lat":36.375225,"lng":136.428546,"zip":"9230966"},{"town":"下粟津町","koaza":"ツ","lat":36.343352,"lng":136.430449,"zip":"9230304"},{"town":"矢崎町","koaza":"丙","lat":36.367919,"lng":136.43214,"zip":"9230301"},{"town":"符津町","koaza":"い","lat":36.355768,"lng":136.429122,"zip":"9230302"},{"town":"下粟津町","koaza":"ら","lat":36.345478,"lng":136.429127,"zip":"9230304"},{"town":"島町","koaza":"チ","lat":36.3526,"lng":136.429869,"zip":"9230303"},{"town":"符津町","koaza":"ワ","lat":36.357128,"lng":136.430347,"zip":"9230302"},{"town":"林町","koaza":"子","lat":36.336145,"lng":136.429881,"zip":"9230344"},{"town":"下粟津町","koaza":"ナ","lat":36.344842,"lng":136.429967,"zip":"9230304"},{"town":"島町","koaza":"リ","lat":36.348774,"lng":136.431074,"zip":"9230303"},{"town":"二ツ梨町","koaza":"ウ","lat":36.333045,"lng":136.429983,"zip":"9230345"},{"town":"符津町","koaza":"カ","lat":36.35894,"lng":136.430883,"zip":"9230302"},{"town":"符津町","koaza":"タ","lat":36.361785,"lng":136.429942,"zip":"9230302"},{"town":"下粟津町","koaza":"下ロ","lat":36.346001,"lng":136.431344,"zip":"9230304"},{"town":"下粟津町","koaza":"ろ","lat":36.346494,"lng":136.432748,"zip":"9230304"},{"town":"下粟津町","koaza":"し","lat":36.341602,"lng":136.431067,"zip":"9230304"},{"town":"下粟津町","koaza":"れ","lat":36.342484,"lng":136.43088,"zip":"9230304"},{"town":"符津町","koaza":"ロ","lat":36.355692,"lng":136.430453,"zip":"9230302"},{"town":"矢崎町","koaza":"ネ","lat":36.363191,"lng":136.432872,"zip":"9230301"},{"town":"戸津町","koaza":"ヨ","lat":36.334958,"lng":136.434265,"zip":"9230327"},{"town":"島町","koaza":"イ","lat":36.35404,"lng":136.431371,"zip":"9230303"},{"town":"下粟津町","koaza":"よ","lat":36.342833,"lng":136.431217,"zip":"9230304"},{"town":"符津町","koaza":"ヨ","lat":36.360473,"lng":136.432004,"zip":"9230302"},{"town":"符津町","koaza":"ハ","lat":36.356151,"lng":136.432484,"zip":"9230302"},{"town":"下粟津町","koaza":"子","lat":36.345084,"lng":136.43187,"zip":"9230304"},{"town":"上荒屋町","koaza":"る","lat":36.322075,"lng":136.433075,"zip":"9230331"},{"town":"林町","koaza":"に","lat":36.340085,"lng":136.433131,"zip":"9230344"},{"town":"林町","koaza":"み","lat":36.34151,"lng":136.433444,"zip":"9230344"},{"town":"矢崎町","koaza":"ハ","lat":36.365294,"lng":136.432992,"zip":"9230301"},{"town":"林町","koaza":"タ","lat":36.34088,"lng":136.433174,"zip":"9230344"},{"town":"島町","koaza":"ニ","lat":36.348906,"lng":136.433368,"zip":"9230303"},{"town":"馬場町","koaza":"わ","lat":36.323342,"lng":136.43392,"zip":"9230333"},{"town":"上荒屋町","koaza":"れ","lat":36.327411,"lng":136.432828,"zip":"9230331"},{"town":"下粟津町","koaza":"か","lat":36.345388,"lng":136.432827,"zip":"9230304"},{"town":"馬場町","koaza":"か","lat":36.322703,"lng":136.433433,"zip":"9230333"},{"town":"矢崎町","koaza":"イ","lat":36.364294,"lng":136.433107,"zip":"9230301"},{"town":"上荒屋町","koaza":"ち","lat":36.326483,"lng":136.434033,"zip":"9230331"},{"town":"矢崎町","koaza":"ル","lat":36.36682,"lng":136.433029,"zip":"9230301"},{"town":"林町","koaza":"ヨ","lat":36.341187,"lng":136.435008,"zip":"9230344"},{"town":"矢崎町","koaza":"ナ","lat":36.368492,"lng":136.435307,"zip":"9230301"},{"town":"馬場町","koaza":"い","lat":36.324383,"lng":136.434157,"zip":"9230333"},{"town":"矢崎町","koaza":"丁","lat":36.370512,"lng":136.434063,"zip":"9230301"},{"town":"上荒屋町","koaza":"と","lat":36.325225,"lng":136.435026,"zip":"9230331"},{"town":"林町","koaza":"は","lat":36.340703,"lng":136.434885,"zip":"9230344"},{"town":"上荒屋町","koaza":"チ","lat":36.326592,"lng":136.435513,"zip":"9230331"},{"town":"下粟津町","koaza":"に","lat":36.346618,"lng":136.435543,"zip":"9230304"},{"town":"馬場町","koaza":"ル","lat":36.320414,"lng":136.435544,"zip":"9230333"},{"town":"林町","koaza":"ろ","lat":36.340805,"lng":136.436362,"zip":"9230344"},{"town":"今江町","koaza":"ツ","lat":36.371064,"lng":136.437922,"zip":"9230964"},{"town":"林町","koaza":"ト","lat":36.342239,"lng":136.43794,"zip":"9230344"},{"town":"馬場町","koaza":"ロ","lat":36.322275,"lng":136.435474,"zip":"9230333"},{"town":"林町","koaza":"い","lat":36.339283,"lng":136.437199,"zip":"9230344"},{"town":"林町","koaza":"ヲ","lat":36.340832,"lng":136.437475,"zip":"9230344"},{"town":"上荒屋町","koaza":"に","lat":36.325056,"lng":136.437893,"zip":"9230331"},{"town":"上荒屋町","koaza":"ろ","lat":36.327487,"lng":136.437945,"zip":"9230331"},{"town":"林町","koaza":"リ","lat":36.341001,"lng":136.43892,"zip":"9230344"},{"town":"上荒屋町","koaza":"は","lat":36.326331,"lng":136.43776,"zip":"9230331"},{"town":"津波倉町","koaza":"イ","lat":36.344207,"lng":136.438957,"zip":"9230313"},{"town":"湯上町","koaza":"ほ","lat":36.326855,"lng":136.438605,"zip":"9230332"},{"town":"上荒屋町","koaza":"い","lat":36.328067,"lng":136.438861,"zip":"9230331"},{"town":"今江町","koaza":"ち","lat":36.375761,"lng":136.442223,"zip":"9230964"},{"town":"戸津町","koaza":"オ","lat":36.336728,"lng":136.439057,"zip":"9230327"},{"town":"津波倉町","koaza":"ロ","lat":36.346704,"lng":136.441685,"zip":"9230313"},{"town":"津波倉町","koaza":"ワ","lat":36.344479,"lng":136.440396,"zip":"9230313"},{"town":"津波倉町","koaza":"ヲ","lat":36.344653,"lng":136.441722,"zip":"9230313"},{"town":"林町","koaza":"ヘ","lat":36.341196,"lng":136.439531,"zip":"9230344"},{"town":"林町","koaza":"ア","lat":36.337683,"lng":136.44023,"zip":"9230344"},{"town":"戸津町","koaza":"ち","lat":36.337066,"lng":136.44108,"zip":"9230327"},{"town":"戸津町","koaza":"う","lat":36.332289,"lng":136.440909,"zip":"9230327"},{"town":"林町","koaza":"ホ","lat":36.339896,"lng":136.440834,"zip":"9230344"},{"town":"湯上町","koaza":"ち","lat":36.326856,"lng":136.441749,"zip":"9230332"},{"town":"戸津町","koaza":"ヌ","lat":36.33539,"lng":136.441402,"zip":"9230327"},{"town":"津波倉町","koaza":"ル","lat":36.345952,"lng":136.442291,"zip":"9230313"},{"town":"林町","koaza":"ユ","lat":36.33609,"lng":136.445326,"zip":"9230344"},{"town":"戸津町","koaza":"井","lat":36.331976,"lng":136.442486,"zip":"9230327"},{"town":"湯上町","koaza":"ろ","lat":36.329159,"lng":136.442211,"zip":"9230332"},{"town":"粟津町","koaza":"ロ","lat":36.330072,"lng":136.442968,"zip":"9230326"},{"town":"湯上町","koaza":"ロ","lat":36.329577,"lng":136.441678,"zip":"9230332"},{"town":"木場町","koaza":"き","lat":36.355672,"lng":136.442711,"zip":"9230311"},{"town":"林町","koaza":"キ","lat":36.336837,"lng":136.443365,"zip":"9230344"},{"town":"津波倉町","koaza":"ヌ","lat":36.346051,"lng":136.443073,"zip":"9230313"},{"town":"戸津町","koaza":"ウ","lat":36.334001,"lng":136.439912,"zip":"9230327"},{"town":"戸津町","koaza":"ノ","lat":36.33228,"lng":136.443206,"zip":"9230327"},{"town":"木場町","koaza":"う","lat":36.356526,"lng":136.444036,"zip":"9230311"},{"town":"粟津町","koaza":"イ","lat":36.331576,"lng":136.446699,"zip":"9230326"},{"town":"津波倉町","koaza":"ネ","lat":36.345545,"lng":136.444207,"zip":"9230313"},{"town":"戸津町","koaza":"と","lat":36.336058,"lng":136.443977,"zip":"9230327"},{"town":"粟津町","koaza":"ハ","lat":36.330117,"lng":136.444262,"zip":"9230326"},{"town":"粟津町","koaza":"ニ","lat":36.329426,"lng":136.44451,"zip":"9230326"},{"town":"粟津町","koaza":"ホ","lat":36.329259,"lng":136.444966,"zip":"9230326"},{"town":"木場町","koaza":"イ","lat":36.358291,"lng":136.446723,"zip":"9230311"},{"town":"木場町","koaza":"ぬ","lat":36.364193,"lng":136.448051,"zip":"9230311"},{"town":"粟津町","koaza":"ワ","lat":36.33003,"lng":136.446601,"zip":"9230326"},{"town":"戸津町","koaza":"い","lat":36.333952,"lng":136.445308,"zip":"9230327"},{"town":"木場町","koaza":"あ","lat":36.357651,"lng":136.445829,"zip":"9230311"},{"town":"井口町","koaza":"ヘ","lat":36.334156,"lng":136.446508,"zip":"9230316"},{"town":"木場町","koaza":"癸","lat":36.351814,"lng":136.446487,"zip":"9230311"},{"town":"粟津町","koaza":"カ","lat":36.332354,"lng":136.447509,"zip":"9230326"},{"town":"井口町","koaza":"ト","lat":36.33706,"lng":136.445778,"zip":"9230316"},{"town":"木場町","koaza":"ロ","lat":36.359876,"lng":136.447864,"zip":"9230311"},{"town":"木場町","koaza":"カ","lat":36.354053,"lng":136.44968,"zip":"9230311"},{"town":"木場町","koaza":"チ","lat":36.356336,"lng":136.447411,"zip":"9230311"},{"town":"井口町","koaza":"ホ","lat":36.333107,"lng":136.447983,"zip":"9230316"},{"town":"木場町","koaza":"ト","lat":36.356756,"lng":136.448577,"zip":"9230311"},{"town":"白山田町","koaza":"ロ","lat":36.331536,"lng":136.450274,"zip":"9230321"},{"town":"今江町","koaza":"は","lat":36.380214,"lng":136.448294,"zip":"9230964"},{"town":"木場町","koaza":"ハ","lat":36.358954,"lng":136.44865,"zip":"9230311"},{"town":"木場町","koaza":"ホ","lat":36.357933,"lng":136.449234,"zip":"9230311"},{"town":"井口町","koaza":"は","lat":36.333075,"lng":136.44973,"zip":"9230316"},{"town":"西原町","koaza":"ト","lat":36.329583,"lng":136.449166,"zip":"9230325"},{"town":"三谷町","koaza":"ら","lat":36.366455,"lng":136.451586,"zip":"9230844"},{"town":"木場町","koaza":"ゆ","lat":36.357028,"lng":136.449278,"zip":"9230311"},{"town":"木場町","koaza":"や","lat":36.356312,"lng":136.449756,"zip":"9230311"},{"town":"木場町","koaza":"ニ","lat":36.358541,"lng":136.450061,"zip":"9230311"},{"town":"木場町","koaza":"み","lat":36.360031,"lng":136.450392,"zip":"9230311"},{"town":"木場町","koaza":"つ","lat":36.361723,"lng":136.45023,"zip":"9230311"},{"town":"西原町","koaza":"ヘ","lat":36.330855,"lng":136.450763,"zip":"9230325"},{"town":"今江町","koaza":"に","lat":36.378471,"lng":136.451346,"zip":"9230964"},{"town":"西原町","koaza":"い","lat":36.329951,"lng":136.45054,"zip":"9230325"},{"town":"西原町","koaza":"ろ","lat":36.329169,"lng":136.450677,"zip":"9230325"},{"town":"木場町","koaza":"ヘ","lat":36.359002,"lng":136.452484,"zip":"9230311"},{"town":"木場町","koaza":"む","lat":36.360815,"lng":136.450359,"zip":"9230311"},{"town":"井口町","koaza":"い","lat":36.333779,"lng":136.451852,"zip":"9230316"},{"town":"木場町","koaza":"ふ","lat":36.362668,"lng":136.450967,"zip":"9230311"},{"town":"木場町","koaza":"よ","lat":36.357962,"lng":136.45056,"zip":"9230311"},{"town":"井口町","koaza":"に","lat":36.332413,"lng":136.451234,"zip":"9230316"},{"town":"木場町","koaza":"め","lat":36.361508,"lng":136.450911,"zip":"9230311"},{"town":"木場町","koaza":"ら","lat":36.355527,"lng":136.441096,"zip":"9230311"},{"town":"木場町","koaza":"る","lat":36.360343,"lng":136.45126,"zip":"9230311"},{"town":"木場町","koaza":"ほ","lat":36.36165,"lng":136.452675,"zip":"9230311"},{"town":"木場町","koaza":"れ","lat":36.361093,"lng":136.451863,"zip":"9230311"},{"town":"牧口町","koaza":"そ","lat":36.331085,"lng":136.452074,"zip":"9230322"},{"town":"井口町","koaza":"ロ","lat":36.335265,"lng":136.452323,"zip":"9230316"},{"town":"井口町","koaza":"イ","lat":36.333966,"lng":136.452553,"zip":"9230316"},{"town":"三谷町","koaza":"そ","lat":36.369909,"lng":136.454345,"zip":"9230844"},{"town":"牧口町","koaza":"ハ","lat":36.330452,"lng":136.45409,"zip":"9230322"},{"town":"小山田町","koaza":"南","lat":36.337806,"lng":136.456478,"zip":"9230315"},{"town":"三谷町","koaza":"な","lat":36.370651,"lng":136.456304,"zip":"9230844"},{"town":"小山田町","koaza":"ニ","lat":36.338878,"lng":136.458904,"zip":"9230315"},{"town":"三谷町","koaza":"き","lat":36.372384,"lng":136.456456,"zip":"9230844"},{"town":"三谷町","koaza":"ヲ","lat":36.370944,"lng":136.456419,"zip":"9230844"},{"town":"小山田町","koaza":"中","lat":36.342882,"lng":136.457182,"zip":"9230315"},{"town":"三谷町","koaza":"イ","lat":36.372021,"lng":136.457903,"zip":"9230844"},{"town":"三谷町","koaza":"あ","lat":36.374308,"lng":136.458445,"zip":"9230844"},{"town":"小山田町","koaza":"に","lat":36.33817,"lng":136.457298,"zip":"9230315"},{"town":"小山田町","koaza":"北","lat":36.344808,"lng":136.460045,"zip":"9230315"},{"town":"三谷町","koaza":"ト","lat":36.370951,"lng":136.458612,"zip":"9230844"},{"town":"白山田町","koaza":"は","lat":36.334844,"lng":136.458692,"zip":"9230321"},{"town":"三谷町","koaza":"さ","lat":36.371559,"lng":136.459855,"zip":"9230844"},{"town":"白山田町","koaza":"ニ","lat":36.335772,"lng":136.462439,"zip":"9230321"},{"town":"三谷町","koaza":"ヘ","lat":36.372077,"lng":136.459353,"zip":"9230844"},{"town":"白山田町","koaza":"ヌ","lat":36.333748,"lng":136.460574,"zip":"9230321"},{"town":"三谷町","koaza":"ホ","lat":36.373075,"lng":136.459936,"zip":"9230844"},{"town":"蓮代寺町","koaza":"ほ","lat":36.372293,"lng":136.461548,"zip":"9230843"},{"town":"蓮代寺町","koaza":"ヘ","lat":36.373827,"lng":136.463037,"zip":"9230843"},{"town":"蓮代寺町","koaza":"ケ","lat":36.369074,"lng":136.462339,"zip":"9230843"},{"town":"木場町","koaza":"せ","lat":36.352052,"lng":136.46408,"zip":"9230311"},{"town":"蓮代寺町","koaza":"お","lat":36.376432,"lng":136.466402,"zip":"9230843"},{"town":"蓮代寺町","koaza":"に","lat":36.373383,"lng":136.464939,"zip":"9230843"},{"town":"蓮代寺町","koaza":"ヌ","lat":36.374811,"lng":136.467021,"zip":"9230843"},{"town":"蓮代寺町","koaza":"ろ","lat":36.372231,"lng":136.469024,"zip":"9230843"},{"town":"蓮代寺町","koaza":"ル乙","lat":36.377033,"lng":136.467764,"zip":"9230843"},{"town":"蓮代寺町","koaza":"い","lat":36.374159,"lng":136.468444,"zip":"9230843"},{"town":"日用町","koaza":"寅","lat":36.319778,"lng":136.466967,"zip":"9230324"},{"town":"蓮代寺町","koaza":"ハ甲","lat":36.376009,"lng":136.469449,"zip":"9230843"},{"town":"本江町","koaza":"丙","lat":36.377181,"lng":136.468787,"zip":"9230841"},{"town":"本江町","koaza":"イ","lat":36.377285,"lng":136.470256,"zip":"9230841"},{"town":"本江町","koaza":"タ","lat":36.379517,"lng":136.472584,"zip":"9230841"},{"town":"本江町","koaza":"レ","lat":36.378394,"lng":136.474549,"zip":"9230841"},{"town":"本江町","koaza":"乙","lat":36.377612,"lng":136.472048,"zip":"9230841"},{"town":"蓮代寺町","koaza":"ハ乙","lat":36.376015,"lng":136.471307,"zip":"9230843"},{"town":"本江町","koaza":"甲","lat":36.376216,"lng":136.473529,"zip":"9230841"},{"town":"東山町","koaza":"か","lat":36.378395,"lng":136.479282,"zip":"9230842"},{"town":"東山町","koaza":"ホ","lat":36.374422,"lng":136.477689,"zip":"9230842"},{"town":"東山町","koaza":"ヘ","lat":36.374481,"lng":136.478269,"zip":"9230842"},{"town":"東山町","koaza":"れ","lat":36.372867,"lng":136.478551,"zip":"9230842"},{"town":"本江町","koaza":"カ","lat":36.378766,"lng":136.47804,"zip":"9230841"},{"town":"東山町","koaza":"チ","lat":36.374189,"lng":136.479152,"zip":"9230842"},{"town":"東山町","koaza":"く","lat":36.371986,"lng":136.478911,"zip":"9230842"},{"town":"東山町","koaza":"ニ","lat":36.37821,"lng":136.478704,"zip":"9230842"},{"town":"東山町","koaza":"ト","lat":36.374937,"lng":136.479699,"zip":"9230842"},{"town":"東山町","koaza":"た","lat":36.375092,"lng":136.480608,"zip":"9230842"},{"town":"串町","koaza":"モ","lat":36.366646,"lng":136.425406,"zip":"9230965"},{"town":"矢田野町","koaza":"三十三","lat":36.342525,"lng":136.416708,"zip":"9230342"},{"town":"蓑輪町","koaza":"ニ","lat":36.353596,"lng":136.42385,"zip":"9230305"},{"town":"島町","koaza":"ワ","lat":36.352357,"lng":136.42507,"zip":"9230303"},{"town":"矢田野町","koaza":"ソ","lat":36.343427,"lng":136.415531,"zip":"9230342"},{"town":"矢田野町","koaza":"二十七","lat":36.343226,"lng":136.416095,"zip":"9230342"},{"town":"矢田野町","koaza":"四十九","lat":36.335248,"lng":136.420439,"zip":"9230342"},{"town":"矢田野町","koaza":"五十六","lat":36.33101,"lng":136.415784,"zip":"9230342"},{"town":"矢田野町","koaza":"六十五","lat":36.327717,"lng":136.423141,"zip":"9230342"},{"town":"那谷町","koaza":"ヨ","lat":36.320335,"lng":136.419259,"zip":"9230336"},{"town":"那谷町","koaza":"よ","lat":36.319798,"lng":136.418705,"zip":"9230336"},{"town":"二ツ梨町","koaza":"一貫山","lat":36.333852,"lng":136.430642,"zip":"9230345"},{"town":"那谷町","koaza":"桃","lat":36.316937,"lng":136.408572,"zip":"9230336"},{"town":"那谷町","koaza":"ナ","lat":36.315554,"lng":136.409796,"zip":"9230336"},{"town":"那谷町","koaza":"ヲ","lat":36.320188,"lng":136.420499,"zip":"9230336"},{"town":"那谷町","koaza":"ア","lat":36.314081,"lng":136.418125,"zip":"9230336"},{"town":"那谷町","koaza":"テ","lat":36.314823,"lng":136.417311,"zip":"9230336"},{"town":"上荒屋町","koaza":"ぬ","lat":36.322968,"lng":136.431604,"zip":"9230331"},{"town":"矢田新町","koaza":"ト","lat":36.34278,"lng":136.403454,"zip":"9230976"},{"town":"矢田新町","koaza":"ヘ","lat":36.343036,"lng":136.404376,"zip":"9230976"},{"town":"矢田町","koaza":"ソ","lat":36.343193,"lng":136.41175,"zip":"9230975"},{"town":"矢田野町","koaza":"ツ","lat":36.342638,"lng":136.4124,"zip":"9230342"},{"town":"矢田野町","koaza":"サ","lat":36.341227,"lng":136.416963,"zip":"9230342"},{"town":"矢田野町","koaza":"二","lat":36.341275,"lng":136.423779,"zip":"9230342"},{"town":"矢田野町","koaza":"ヤ","lat":36.340643,"lng":136.423797,"zip":"9230342"},{"town":"上荒屋町","koaza":"子","lat":36.339956,"lng":136.425531,"zip":"9230331"},{"town":"林町","koaza":"丙","lat":36.33646,"lng":136.430929,"zip":"9230344"},{"town":"馬場町","koaza":"よ","lat":36.320484,"lng":136.43489,"zip":"9230333"},{"town":"馬場町","koaza":"ろ","lat":36.322877,"lng":136.434883,"zip":"9230333"},{"town":"上荒屋町","koaza":"ニ","lat":36.325888,"lng":136.437288,"zip":"9230331"},{"town":"上荒屋町","koaza":"ト","lat":36.325699,"lng":136.436037,"zip":"9230331"},{"town":"上荒屋町","koaza":"ハ","lat":36.326182,"lng":136.436858,"zip":"9230331"},{"town":"上荒屋町","koaza":"ホ","lat":36.325406,"lng":136.4374,"zip":"9230331"},{"town":"上荒屋町","koaza":"ソ","lat":36.327816,"lng":136.431197,"zip":"9230331"},{"town":"上荒屋町","koaza":"レ","lat":36.32831,"lng":136.432045,"zip":"9230331"},{"town":"上荒屋町","koaza":"ツ","lat":36.330887,"lng":136.432416,"zip":"9230331"},{"town":"馬場町","koaza":"は","lat":36.32065,"lng":136.436927,"zip":"9230333"},{"town":"馬場町","koaza":"ハ","lat":36.320948,"lng":136.436262,"zip":"9230333"},{"town":"馬場町","koaza":"ヲ","lat":36.321874,"lng":136.434877,"zip":"9230333"},{"town":"湯上町","koaza":"へ","lat":36.326789,"lng":136.439496,"zip":"9230332"},{"town":"湯上町","koaza":"ト","lat":36.326276,"lng":136.439746,"zip":"9230332"},{"town":"湯上町","koaza":"は","lat":36.328242,"lng":136.440573,"zip":"9230332"},{"town":"湯上町","koaza":"ホ","lat":36.32756,"lng":136.439314,"zip":"9230332"},{"town":"湯上町","koaza":"に","lat":36.32783,"lng":136.441315,"zip":"9230332"},{"town":"湯上町","koaza":"ハ","lat":36.328718,"lng":136.441033,"zip":"9230332"},{"town":"湯上町","koaza":"イ","lat":36.329149,"lng":136.443147,"zip":"9230332"},{"town":"粟津町","koaza":"ヌ","lat":36.327092,"lng":136.446937,"zip":"9230326"},{"town":"粟津町","koaza":"ヲ","lat":36.329702,"lng":136.446298,"zip":"9230326"},{"town":"馬場町","koaza":"ヨ","lat":36.321162,"lng":136.434719,"zip":"9230333"},{"town":"湯上町","koaza":"と","lat":36.326528,"lng":136.440257,"zip":"9230332"},{"town":"戸津町","koaza":"ハ","lat":36.332792,"lng":136.444967,"zip":"9230327"},{"town":"戸津町","koaza":"ソ","lat":36.331521,"lng":136.443582,"zip":"9230327"},{"town":"戸津町","koaza":"ル","lat":36.334907,"lng":136.441091,"zip":"9230327"},{"town":"戸津町","koaza":"カ","lat":36.333171,"lng":136.437333,"zip":"9230327"},{"town":"戸津町","koaza":"に","lat":36.334148,"lng":136.443334,"zip":"9230327"},{"town":"戸津町","koaza":"ほ","lat":36.334947,"lng":136.443031,"zip":"9230327"},{"town":"白山田町","koaza":"イ","lat":36.33501,"lng":136.445325,"zip":"9230321"},{"town":"西原町","koaza":"乙","lat":36.330936,"lng":136.449235,"zip":"9230325"},{"town":"戸津町","koaza":"は","lat":36.333162,"lng":136.445297,"zip":"9230327"},{"town":"井口町","koaza":"ほ","lat":36.334027,"lng":136.448696,"zip":"9230316"},{"town":"井口町","koaza":"チ","lat":36.336564,"lng":136.451005,"zip":"9230316"},{"town":"井口町","koaza":"と","lat":36.335956,"lng":136.44648,"zip":"9230316"},{"town":"井口町","koaza":"ろ","lat":36.334281,"lng":136.451447,"zip":"9230316"},{"town":"津波倉町","koaza":"タ","lat":36.339195,"lng":136.444042,"zip":"9230313"},{"town":"津波倉町","koaza":"レ","lat":36.338908,"lng":136.445173,"zip":"9230313"},{"town":"小山田町","koaza":"奥","lat":36.338058,"lng":136.460446,"zip":"9230315"},{"town":"小山田町","koaza":"い","lat":36.339481,"lng":136.457946,"zip":"9230315"},{"town":"小山田町","koaza":"東","lat":36.340245,"lng":136.45936,"zip":"9230315"},{"town":"小山田町","koaza":"ろ","lat":36.339989,"lng":136.458522,"zip":"9230315"},{"town":"林町","koaza":"ソ","lat":36.339401,"lng":136.431465,"zip":"9230344"},{"town":"林町","koaza":"甲","lat":36.337882,"lng":136.430304,"zip":"9230344"},{"town":"津波倉町","koaza":"丁","lat":36.338646,"lng":136.445709,"zip":"9230313"},{"town":"下粟津町","koaza":"ノ","lat":36.339998,"lng":136.430061,"zip":"9230304"},{"town":"林町","koaza":"カ","lat":36.340877,"lng":136.435248,"zip":"9230344"},{"town":"津波倉町","koaza":"ソ","lat":36.342649,"lng":136.442778,"zip":"9230313"},{"town":"下粟津町","koaza":"を","lat":36.345037,"lng":136.434956,"zip":"9230304"},{"town":"下粟津町","koaza":"る","lat":36.34572,"lng":136.436747,"zip":"9230304"},{"town":"津波倉町","koaza":"チ","lat":36.346924,"lng":136.44693,"zip":"9230313"},{"town":"津波倉町","koaza":"ニ","lat":36.347685,"lng":136.443827,"zip":"9230313"},{"town":"津波倉町","koaza":"波","lat":36.348462,"lng":136.443117,"zip":"9230313"},{"town":"津波倉町","koaza":"ハ","lat":36.347564,"lng":136.442287,"zip":"9230313"},{"town":"木場町","koaza":"わ","lat":36.35381,"lng":136.447403,"zip":"9230311"},{"town":"木場町","koaza":"い","lat":36.35693,"lng":136.445237,"zip":"9230311"},{"town":"木場町","koaza":"子","lat":36.356513,"lng":136.446535,"zip":"9230311"},{"town":"木場町","koaza":"マ","lat":36.360006,"lng":136.448416,"zip":"9230311"},{"town":"木場町","koaza":"ち","lat":36.36115,"lng":136.449787,"zip":"9230311"},{"town":"木場町","koaza":"ひ","lat":36.360784,"lng":136.449482,"zip":"9230311"},{"town":"三谷町","koaza":"ル","lat":36.370297,"lng":136.45764,"zip":"9230844"},{"town":"蓮代寺町","koaza":"ヘ乙","lat":36.373103,"lng":136.460744,"zip":"9230843"},{"town":"蓮代寺町","koaza":"レ","lat":36.376023,"lng":136.471952,"zip":"9230843"},{"town":"本江町","koaza":"オ","lat":36.379083,"lng":136.474686,"zip":"9230841"},{"town":"東山町","koaza":"ね","lat":36.372928,"lng":136.477878,"zip":"9230842"},{"town":"東山町","koaza":"よ","lat":36.37654,"lng":136.480034,"zip":"9230842"},{"town":"東山町","koaza":"ハ","lat":36.375918,"lng":136.482801,"zip":"9230842"},{"town":"蓮代寺町","koaza":"ハ丙","lat":36.374551,"lng":136.468954,"zip":"9230843"},{"town":"蓮代寺町","koaza":"ニ甲","lat":36.374237,"lng":136.469098,"zip":"9230843"},{"town":"蓮代寺町","koaza":"は","lat":36.37406,"lng":136.465867,"zip":"9230843"},{"town":"下粟津町","koaza":"ぬ","lat":36.345636,"lng":136.43758,"zip":"9230304"},{"town":"下粟津町","koaza":"め","lat":36.344135,"lng":136.436939,"zip":"9230304"},{"town":"下粟津町","koaza":"コ","lat":36.345935,"lng":136.426975,"zip":"9230304"},{"town":"下粟津町","koaza":"エ","lat":36.347326,"lng":136.429676,"zip":"9230304"},{"town":"蓑輪町","koaza":"ハ","lat":36.354162,"lng":136.426975,"zip":"9230305"},{"town":"符津町","koaza":"ウ","lat":36.356417,"lng":136.425802,"zip":"9230302"},{"town":"矢田町","koaza":"オ","lat":36.345763,"lng":136.410331,"zip":"9230975"},{"town":"四丁町","koaza":"ハ","lat":36.3553,"lng":136.41216,"zip":"9230971"},{"town":"月津町","koaza":"ニ","lat":36.350279,"lng":136.406036,"zip":"9230972"},{"town":"月津町","koaza":"は","lat":36.349536,"lng":136.404334,"zip":"9230972"},{"town":"月津町","koaza":"ろ","lat":36.348947,"lng":136.402422,"zip":"9230972"},{"town":"串町","koaza":"ス","lat":36.367139,"lng":136.422321,"zip":"9230965"},{"town":"串町","koaza":"ミ","lat":36.363505,"lng":136.419372,"zip":"9230965"},{"town":"串町","koaza":"辛","lat":36.372871,"lng":136.423767,"zip":"9230965"},{"town":"下粟津町","koaza":"た","lat":36.340733,"lng":136.430533,"zip":"9230304"},{"town":"下粟津町","koaza":"み","lat":36.345674,"lng":136.433619,"zip":"9230304"},{"town":"矢田野町","koaza":"タ","lat":36.34483,"lng":136.418749,"zip":"9230342"},{"town":"月津町","koaza":"ワ","lat":36.351594,"lng":136.418346,"zip":"9230972"},{"town":"額見町","koaza":"ソ","lat":36.359402,"lng":136.404941,"zip":"9230977"},{"town":"額見町","koaza":"タ","lat":36.358818,"lng":136.404959,"zip":"9230977"},{"town":"月津町","koaza":"カ","lat":36.354653,"lng":136.415588,"zip":"9230972"},{"town":"四丁町","koaza":"ト","lat":36.356546,"lng":136.414954,"zip":"9230971"},{"town":"四丁町","koaza":"ヘ","lat":36.357151,"lng":136.413376,"zip":"9230971"},{"town":"四丁町","koaza":"ロ","lat":36.356352,"lng":136.410489,"zip":"9230971"},{"town":"那谷町","koaza":"メ","lat":36.313162,"lng":136.417039,"zip":"9230336"},{"town":"林町","koaza":"ほ","lat":36.338201,"lng":136.434062,"zip":"9230344"},{"town":"日末町","koaza":"た","lat":36.38058,"lng":136.398232,"zip":"9230983"},{"town":"日末町","koaza":"ニ","lat":36.381132,"lng":136.400815,"zip":"9230983"},{"town":"日末町","koaza":"そ","lat":36.380124,"lng":136.411855,"zip":"9230983"},{"town":"日末町","koaza":"ヨ","lat":36.379072,"lng":136.422712,"zip":"9230983"},{"town":"今江町","koaza":"ほ","lat":36.377682,"lng":136.452884,"zip":"9230964"},{"town":"蓮代寺町","koaza":"か","lat":36.380938,"lng":136.461753,"zip":"9230843"},{"town":"蓮代寺町","koaza":"わ","lat":36.380009,"lng":136.46388,"zip":"9230843"},{"town":"大島町","koaza":"子","lat":36.432102,"lng":136.442145,"zip":"9230001"},{"town":"東山町","koaza":"ら","lat":36.369049,"lng":136.486799,"zip":"9230842"},{"town":"符津町","koaza":"レ","lat":36.360853,"lng":136.428405,"zip":"9230302"},{"town":"小島町","koaza":"小ヲ","lat":36.413711,"lng":136.427171,"zip":"9230002"},{"town":"長崎町","koaza":"戊","lat":36.419909,"lng":136.428682,"zip":"9230004"},{"town":"丸内町","koaza":"土形","lat":36.41608,"lng":136.446598,"zip":"9230903"},{"town":"上八里町","koaza":"申","lat":36.421451,"lng":136.526903,"zip":"9230051"},{"town":"上八里町","koaza":"庚","lat":36.420708,"lng":136.524373,"zip":"9230051"},{"town":"岩渕町","koaza":"ル","lat":36.391669,"lng":136.526835,"zip":"9230073"},{"town":"中海町","koaza":"山林ニ","lat":36.39758,"lng":136.519081,"zip":"9230071"},{"town":"軽海町","koaza":"弐号","lat":36.397548,"lng":136.50895,"zip":"9230824"},{"town":"島町","koaza":"ヘ","lat":36.353514,"lng":136.436293,"zip":"9230303"},{"town":"那谷町","koaza":"イ","lat":36.309013,"lng":136.430566,"zip":"9230336"},{"town":"那谷町","koaza":"ス","lat":36.310989,"lng":136.428347,"zip":"9230336"},{"town":"上荒屋町","koaza":"か","lat":36.32268,"lng":136.431028,"zip":"9230331"},{"town":"那谷町","koaza":"ル","lat":36.317432,"lng":136.419946,"zip":"9230336"},{"town":"那谷町","koaza":"タ","lat":36.318299,"lng":136.418107,"zip":"9230336"},{"town":"小山田町","koaza":"西","lat":36.339946,"lng":136.454603,"zip":"9230315"},{"town":"木場町","koaza":"ユ","lat":36.3633,"lng":136.453579,"zip":"9230311"},{"town":"三谷町","koaza":"タ","lat":36.365352,"lng":136.453927,"zip":"9230844"},{"town":"軽海町","koaza":"チ","lat":36.39697,"lng":136.512606,"zip":"9230824"},{"town":"日末町","koaza":"メ","lat":36.397713,"lng":136.392505,"zip":"9230983"},{"town":"下粟津町","koaza":"り","lat":36.346322,"lng":136.437516,"zip":"9230304"},{"town":"東山町","koaza":"の","lat":36.368974,"lng":136.479791,"zip":"9230842"},{"town":"日用町","koaza":"丑","lat":36.318911,"lng":136.462536,"zip":"9230324"},{"town":"西荒谷町","koaza":"ニ","lat":36.320506,"lng":136.457871,"zip":"9230323"},{"town":"西荒谷町","koaza":"ア","lat":36.324003,"lng":136.455671,"zip":"9230323"},{"town":"牧口町","koaza":"イ","lat":36.329487,"lng":136.453672,"zip":"9230322"},{"town":"西原町","koaza":"ホ","lat":36.330539,"lng":136.450524,"zip":"9230325"},{"town":"粟津町","koaza":"リ","lat":36.329014,"lng":136.447852,"zip":"9230326"},{"town":"湯上町","koaza":"い","lat":36.327986,"lng":136.442466,"zip":"9230332"},{"town":"那谷町","koaza":"ハ","lat":36.31818,"lng":136.423479,"zip":"9230336"},{"town":"那谷町","koaza":"リ","lat":36.318472,"lng":136.422841,"zip":"9230336"},{"town":"那谷町","koaza":"ヌ","lat":36.317472,"lng":136.422699,"zip":"9230336"},{"town":"上荒屋町","koaza":"カ","lat":36.320717,"lng":136.428822,"zip":"9230331"},{"town":"上荒屋町","koaza":"イ","lat":36.328602,"lng":136.439608,"zip":"9230331"},{"town":"中海町","koaza":"十五号","lat":36.395408,"lng":136.523294,"zip":"9230071"},{"town":"中海町","koaza":"十三号","lat":36.39446,"lng":136.525912,"zip":"9230071"},{"town":"中海町","koaza":"十二号","lat":36.393343,"lng":136.524375,"zip":"9230071"},{"town":"中海町","koaza":"十号","lat":36.398337,"lng":136.52042,"zip":"9230071"},{"town":"蓑輪町","koaza":"ヌ","lat":36.354479,"lng":136.421288,"zip":"9230305"},{"town":"沖町","koaza":"ニ","lat":36.39645,"lng":136.470458,"zip":"9230861"},{"town":"清六町","koaza":"乙","lat":36.396278,"lng":136.470481,"zip":"9230862"}]