[{"town":"字アカシア一丁目","koaza":"","lat":36.634066,"lng":136.635087,"zip":"9200200"},{"town":"字アカシア二丁目","koaza":"","lat":36.635306,"lng":136.635839,"zip":"9200200"},{"town":"字旭ケ丘","koaza":"","lat":36.629518,"lng":136.632406,"zip":"9200200"},{"town":"字大根布","koaza":"","lat":36.655892,"lng":136.655006,"zip":"9200200"},{"town":"字大根布二丁目","koaza":"","lat":36.650543,"lng":136.648961,"zip":"9200200"},{"town":"字大根布三丁目","koaza":"","lat":36.651584,"lng":136.650186,"zip":"9200200"},{"town":"字大根布四丁目","koaza":"","lat":36.653529,"lng":136.650261,"zip":"9200200"},{"town":"字大根布五丁目","koaza":"","lat":36.656515,"lng":136.651325,"zip":"9200200"},{"town":"字大根布六丁目","koaza":"","lat":36.648966,"lng":136.644398,"zip":"9200200"},{"town":"字大根布七丁目","koaza":"","lat":36.651305,"lng":136.646185,"zip":"9200200"},{"town":"字大根布八丁目","koaza":"","lat":36.64798,"lng":136.644659,"zip":"9200200"},{"town":"字向陽台一丁目","koaza":"","lat":36.637697,"lng":136.63431,"zip":"9200200"},{"town":"字向陽台二丁目","koaza":"","lat":36.638889,"lng":136.632942,"zip":"9200200"},{"town":"字湖西","koaza":"","lat":36.677199,"lng":136.680147,"zip":"9200200"},{"town":"字大学一丁目","koaza":"","lat":36.656461,"lng":136.646093,"zip":"9200200"},{"town":"字大学二丁目","koaza":"","lat":36.655242,"lng":136.648322,"zip":"9200200"},{"town":"字大清台","koaza":"","lat":36.650928,"lng":136.642799,"zip":"9200200"},{"town":"字千鳥台一丁目","koaza":"","lat":36.635471,"lng":136.626914,"zip":"9200200"},{"town":"字千鳥台二丁目","koaza":"","lat":36.643026,"lng":136.632995,"zip":"9200200"},{"town":"字千鳥台三丁目","koaza":"","lat":36.6408,"lng":136.629036,"zip":"9200200"},{"town":"字千鳥台四丁目","koaza":"","lat":36.638635,"lng":136.623353,"zip":"9200200"},{"town":"字千鳥台五丁目","koaza":"","lat":36.642241,"lng":136.625854,"zip":"9200200"},{"town":"字鶴ケ丘一丁目","koaza":"","lat":36.639501,"lng":136.641049,"zip":"9200200"},{"town":"字鶴ケ丘三丁目","koaza":"","lat":36.643422,"lng":136.640129,"zip":"9200200"},{"town":"字鶴ケ丘四丁目","koaza":"","lat":36.643288,"lng":136.637368,"zip":"9200200"},{"town":"字鶴ケ丘五丁目","koaza":"","lat":36.64708,"lng":136.640259,"zip":"9200200"},{"town":"字西荒屋","koaza":"","lat":36.683066,"lng":136.670665,"zip":"9200200"},{"town":"字ハマナス一丁目","koaza":"","lat":36.652698,"lng":136.641312,"zip":"9200200"},{"town":"字ハマナス二丁目","koaza":"","lat":36.657001,"lng":136.643981,"zip":"9200200"},{"town":"字緑台一丁目","koaza":"","lat":36.634738,"lng":136.63068,"zip":"9200200"},{"town":"字緑台二丁目","koaza":"","lat":36.632504,"lng":136.628652,"zip":"9200200"},{"town":"字宮坂","koaza":"","lat":36.673304,"lng":136.652627,"zip":"9200200"},{"town":"字向粟崎一丁目","koaza":"","lat":36.629087,"lng":136.63572,"zip":"9200200"},{"town":"字向粟崎二丁目","koaza":"","lat":36.633194,"lng":136.63829,"zip":"9200200"},{"town":"字向粟崎三丁目","koaza":"","lat":36.631391,"lng":136.632558,"zip":"9200200"},{"town":"字向粟崎四丁目","koaza":"","lat":36.631994,"lng":136.631601,"zip":"9200200"},{"town":"字向粟崎五丁目","koaza":"","lat":36.638052,"lng":136.638284,"zip":"9200200"},{"town":"字室","koaza":"","lat":36.693432,"lng":136.675695,"zip":"9200200"},{"town":"白帆台一丁目","koaza":"","lat":36.669041,"lng":136.655249,"zip":"9200269"},{"town":"白帆台二丁目","koaza":"","lat":36.675071,"lng":136.660339,"zip":"9200269"},{"town":"字鶴ケ丘二丁目","koaza":"","lat":36.643871,"lng":136.643757,"zip":"9200200"},{"town":"字向粟崎","koaza":"","lat":36.640364,"lng":136.646542,"zip":"9200200"},{"town":"字大根布九丁目","koaza":"","lat":36.645602,"lng":136.646896,"zip":"9200200"},{"town":"字大根布一丁目","koaza":"","lat":36.647356,"lng":136.647367,"zip":"9200200"},{"town":"字向粟崎","koaza":"チ","lat":36.636056,"lng":136.625246,"zip":"9200200"},{"town":"字大根布","koaza":"り","lat":36.656856,"lng":136.641929,"zip":"9200200"},{"town":"字大根布","koaza":"と","lat":36.649251,"lng":136.638485,"zip":"9200200"},{"town":"字向粟崎","koaza":"を","lat":36.636274,"lng":136.640932,"zip":"9200200"},{"town":"字向粟崎","koaza":"ニ","lat":36.63758,"lng":136.642529,"zip":"9200200"},{"town":"字向粟崎","koaza":"わ","lat":36.640893,"lng":136.646353,"zip":"9200200"},{"town":"字向粟崎","koaza":"イ","lat":36.641393,"lng":136.644265,"zip":"9200200"},{"town":"字宮坂","koaza":"に","lat":36.663398,"lng":136.65215,"zip":"9200200"},{"town":"字大根布","koaza":"は","lat":36.648104,"lng":136.650442,"zip":"9200200"},{"town":"字大根布","koaza":"ぬ","lat":36.649515,"lng":136.652334,"zip":"9200200"},{"town":"字大根布","koaza":"ほ","lat":36.655391,"lng":136.653659,"zip":"9200200"},{"town":"字西荒屋","koaza":"へ","lat":36.677078,"lng":136.666213,"zip":"9200200"},{"town":"字宮坂","koaza":"ぬ","lat":36.675514,"lng":136.655645,"zip":"9200200"},{"town":"字宮坂","koaza":"イ","lat":36.663569,"lng":136.657231,"zip":"9200200"},{"town":"字宮坂","koaza":"い","lat":36.66459,"lng":136.658111,"zip":"9200200"},{"town":"字宮坂","koaza":"ニ","lat":36.666323,"lng":136.65883,"zip":"9200200"},{"town":"字宮坂","koaza":"ホ","lat":36.668841,"lng":136.660647,"zip":"9200200"},{"town":"字宮坂","koaza":"ほ","lat":36.67182,"lng":136.660458,"zip":"9200200"},{"town":"字宮坂","koaza":"ロ","lat":36.671664,"lng":136.662459,"zip":"9200200"},{"town":"字宮坂","koaza":"ハ","lat":36.674651,"lng":136.665428,"zip":"9200200"},{"town":"字西荒屋","koaza":"か","lat":36.675234,"lng":136.667354,"zip":"9200200"},{"town":"字西荒屋","koaza":"ぬ","lat":36.681339,"lng":136.664687,"zip":"9200200"},{"town":"字西荒屋","koaza":"イ","lat":36.678639,"lng":136.668984,"zip":"9200200"},{"town":"字西荒屋","koaza":"ハ","lat":36.680645,"lng":136.669197,"zip":"9200200"},{"town":"字西荒屋","koaza":"ホ","lat":36.683088,"lng":136.668606,"zip":"9200200"},{"town":"字西荒屋","koaza":"ロ","lat":36.681954,"lng":136.670774,"zip":"9200200"},{"town":"字西荒屋","koaza":"ち","lat":36.682528,"lng":136.673735,"zip":"9200200"},{"town":"字西荒屋","koaza":"り","lat":36.68271,"lng":136.673908,"zip":"9200200"},{"town":"字西荒屋","koaza":"わ","lat":36.682128,"lng":136.672454,"zip":"9200200"},{"town":"字室","koaza":"イ","lat":36.688513,"lng":136.675361,"zip":"9200200"},{"town":"字室","koaza":"ロ","lat":36.68985,"lng":136.677818,"zip":"9200200"},{"town":"字室","koaza":"ハ","lat":36.69387,"lng":136.682186,"zip":"9200200"},{"town":"字宮坂","koaza":"二","lat":36.67222,"lng":136.661846,"zip":"9200200"},{"town":"字宮坂","koaza":"ろ","lat":36.666405,"lng":136.659343,"zip":"9200200"},{"town":"字宮坂","koaza":"は","lat":36.668158,"lng":136.661139,"zip":"9200200"},{"town":"字室","koaza":"へ","lat":36.694499,"lng":136.679606,"zip":"9200200"},{"town":"字宮坂","koaza":"六","lat":36.666725,"lng":136.657947,"zip":"9200200"},{"town":"字宮坂","koaza":"三","lat":36.663764,"lng":136.656517,"zip":"9200200"},{"town":"字宮坂","koaza":"一","lat":36.674787,"lng":136.663412,"zip":"9200200"},{"town":"字宮坂","koaza":"七","lat":36.669938,"lng":136.660015,"zip":"9200200"},{"town":"字宮坂","koaza":"四","lat":36.665617,"lng":136.656433,"zip":"9200200"}]