[{"town":"字相窪","koaza":"","lat":36.646128,"lng":136.788988,"zip":"9290300"},{"town":"字浅田","koaza":"","lat":36.663007,"lng":136.743804,"zip":"9290300"},{"town":"字朝日畑","koaza":"","lat":36.648019,"lng":136.781147,"zip":"9290300"},{"town":"字莇谷","koaza":"","lat":36.68713,"lng":136.803123,"zip":"9290300"},{"town":"字池ケ原","koaza":"","lat":36.720046,"lng":136.781493,"zip":"9290300"},{"town":"字市谷","koaza":"","lat":36.703289,"lng":136.798129,"zip":"9290300"},{"town":"字岩崎","koaza":"","lat":36.67654,"lng":136.774867,"zip":"9290300"},{"town":"字牛首","koaza":"","lat":36.747174,"lng":136.825854,"zip":"9290300"},{"town":"字瓜生","koaza":"","lat":36.763378,"lng":136.816068,"zip":"9290300"},{"town":"字上野","koaza":"","lat":36.678918,"lng":136.7954,"zip":"9290300"},{"town":"字越中坂","koaza":"","lat":36.667601,"lng":136.793257,"zip":"9290300"},{"town":"字大窪","koaza":"","lat":36.650081,"lng":136.804546,"zip":"9290300"},{"town":"字太田","koaza":"","lat":36.651043,"lng":136.72241,"zip":"9290300"},{"town":"字大畠","koaza":"","lat":36.683212,"lng":136.79965,"zip":"9290300"},{"town":"字大熊","koaza":"","lat":36.709613,"lng":136.778357,"zip":"9290300"},{"town":"字加賀爪","koaza":"","lat":36.669016,"lng":136.736596,"zip":"9290300"},{"town":"字笠池ケ原","koaza":"","lat":36.696411,"lng":136.809128,"zip":"9290300"},{"town":"字潟端","koaza":"","lat":36.655432,"lng":136.709746,"zip":"9290300"},{"town":"字上大田","koaza":"","lat":36.751179,"lng":136.777813,"zip":"9290300"},{"town":"字上河合","koaza":"","lat":36.736379,"lng":136.80105,"zip":"9290300"},{"town":"字上藤又","koaza":"","lat":36.655676,"lng":136.797596,"zip":"9290300"},{"town":"字上矢田","koaza":"","lat":36.708039,"lng":136.748851,"zip":"9290300"},{"town":"字加茂","koaza":"","lat":36.689292,"lng":136.738232,"zip":"9290300"},{"town":"字刈安","koaza":"","lat":36.673292,"lng":136.787083,"zip":"9290300"},{"town":"字川尻","koaza":"","lat":36.672097,"lng":136.707422,"zip":"9290300"},{"town":"字河内","koaza":"","lat":36.672105,"lng":136.805225,"zip":"9290300"},{"town":"字北中条","koaza":"","lat":36.658859,"lng":136.734507,"zip":"9290300"},{"town":"字北横根","koaza":"","lat":36.644574,"lng":136.796643,"zip":"9290300"},{"town":"字興津","koaza":"","lat":36.730497,"lng":136.778478,"zip":"9290300"},{"town":"字倉見","koaza":"","lat":36.678591,"lng":136.76466,"zip":"9290300"},{"town":"字倶利伽羅","koaza":"","lat":36.664582,"lng":136.812191,"zip":"9290300"},{"town":"字五反田","koaza":"","lat":36.668227,"lng":136.716899,"zip":"9290300"},{"town":"字湖東","koaza":"","lat":36.676434,"lng":136.695281,"zip":"9290300"},{"town":"字篭月","koaza":"","lat":36.68772,"lng":136.793016,"zip":"9290300"},{"town":"字小熊","koaza":"","lat":36.714839,"lng":136.767357,"zip":"9290300"},{"town":"字材木","koaza":"","lat":36.639277,"lng":136.770396,"zip":"9290300"},{"town":"字坂戸","koaza":"","lat":36.670065,"lng":136.798112,"zip":"9290300"},{"town":"字七黒","koaza":"","lat":36.685845,"lng":136.774051,"zip":"9290300"},{"town":"字七野","koaza":"","lat":36.657286,"lng":136.764655,"zip":"9290300"},{"town":"字清水","koaza":"","lat":36.675828,"lng":136.73589,"zip":"9290300"},{"town":"字下河合","koaza":"","lat":36.736841,"lng":136.787816,"zip":"9290300"},{"town":"字下中","koaza":"","lat":36.653345,"lng":136.777523,"zip":"9290300"},{"town":"字下藤又","koaza":"","lat":36.647957,"lng":136.766837,"zip":"9290300"},{"town":"字下矢田","koaza":"","lat":36.705901,"lng":136.74132,"zip":"9290300"},{"town":"字庄","koaza":"","lat":36.67958,"lng":136.728491,"zip":"9290300"},{"town":"字常徳","koaza":"","lat":36.63562,"lng":136.78526,"zip":"9290300"},{"town":"字杉瀬","koaza":"","lat":36.667653,"lng":136.752643,"zip":"9290300"},{"town":"字竹橋","koaza":"","lat":36.663625,"lng":136.769833,"zip":"9290300"},{"town":"字種","koaza":"","lat":36.724593,"lng":136.762201,"zip":"9290300"},{"town":"字田屋","koaza":"","lat":36.680517,"lng":136.781532,"zip":"9290300"},{"town":"字九折","koaza":"","lat":36.676677,"lng":136.814628,"zip":"9290300"},{"town":"字津幡","koaza":"","lat":36.679298,"lng":136.75371,"zip":"9290300"},{"town":"字富田","koaza":"","lat":36.670872,"lng":136.778472,"zip":"9290300"},{"town":"字鳥越","koaza":"","lat":36.689922,"lng":136.776294,"zip":"9290300"},{"town":"字鳥屋尾","koaza":"","lat":36.694267,"lng":136.791026,"zip":"9290300"},{"town":"字中須加","koaza":"","lat":36.668185,"lng":136.724305,"zip":"9290300"},{"town":"字中橋","koaza":"","lat":36.673398,"lng":136.722061,"zip":"9290300"},{"town":"字中山","koaza":"","lat":36.716709,"lng":136.753576,"zip":"9290300"},{"town":"字能瀬","koaza":"","lat":36.691764,"lng":136.716671,"zip":"9290300"},{"town":"字八ノ谷","koaza":"","lat":36.710977,"lng":136.79193,"zip":"9290300"},{"town":"字原","koaza":"","lat":36.664004,"lng":136.788255,"zip":"9290300"},{"town":"字東荒屋","koaza":"","lat":36.661473,"lng":136.756292,"zip":"9290300"},{"town":"字彦太郎畠","koaza":"","lat":36.697339,"lng":136.799777,"zip":"9290300"},{"town":"字平野","koaza":"","lat":36.72318,"lng":136.77538,"zip":"9290300"},{"town":"字舟橋","koaza":"","lat":36.684105,"lng":136.717976,"zip":"9290300"},{"town":"字別所","koaza":"","lat":36.651826,"lng":136.765338,"zip":"9290300"},{"town":"字菩提寺","koaza":"","lat":36.735274,"lng":136.768847,"zip":"9290300"},{"town":"字御門","koaza":"","lat":36.699243,"lng":136.739974,"zip":"9290300"},{"town":"字緑が丘一丁目","koaza":"","lat":36.679525,"lng":136.748901,"zip":"9290300"},{"town":"字緑が丘二丁目","koaza":"","lat":36.682467,"lng":136.747779,"zip":"9290300"},{"town":"字緑が丘三丁目","koaza":"","lat":36.68054,"lng":136.745038,"zip":"9290300"},{"town":"字緑が丘四丁目","koaza":"","lat":36.682798,"lng":136.745156,"zip":"9290300"},{"town":"字南横根","koaza":"","lat":36.639184,"lng":136.796009,"zip":"9290300"},{"town":"字宮田","koaza":"","lat":36.684442,"lng":136.785243,"zip":"9290300"},{"town":"字谷内","koaza":"","lat":36.695625,"lng":136.745962,"zip":"9290300"},{"town":"字山北","koaza":"","lat":36.694704,"lng":136.779255,"zip":"9290300"},{"town":"字山森","koaza":"","lat":36.660274,"lng":136.806385,"zip":"9290300"},{"town":"字横浜","koaza":"","lat":36.666195,"lng":136.730131,"zip":"9290300"},{"town":"字吉倉","koaza":"","lat":36.698544,"lng":136.773258,"zip":"9290300"},{"town":"字領家","koaza":"","lat":36.698386,"lng":136.714351,"zip":"9290300"},{"town":"字蓮花寺","koaza":"","lat":36.692205,"lng":136.785184,"zip":"9290300"},{"town":"井上の荘一丁目","koaza":"","lat":36.670792,"lng":136.720389,"zip":"9290335"},{"town":"井上の荘二丁目","koaza":"","lat":36.669911,"lng":136.715201,"zip":"9290335"},{"town":"井上の荘三丁目","koaza":"","lat":36.671216,"lng":136.716863,"zip":"9290335"},{"town":"井上の荘四丁目","koaza":"","lat":36.671416,"lng":136.713482,"zip":"9290335"},{"town":"井上の荘五丁目","koaza":"","lat":36.672867,"lng":136.714863,"zip":"9290335"},{"town":"北中条一丁目","koaza":"","lat":36.66055,"lng":136.72592,"zip":"9290342"},{"town":"北中条二丁目","koaza":"","lat":36.662242,"lng":136.726079,"zip":"9290342"},{"town":"北中条三丁目","koaza":"","lat":36.664005,"lng":136.726274,"zip":"9290342"},{"town":"北中条四丁目","koaza":"","lat":36.663346,"lng":136.729414,"zip":"9290342"},{"town":"北中条五丁目","koaza":"","lat":36.661936,"lng":136.729134,"zip":"9290342"},{"town":"北中条六丁目","koaza":"","lat":36.660302,"lng":136.728563,"zip":"9290342"},{"town":"字旭山","koaza":"","lat":36.657508,"lng":136.75144,"zip":"9290300"},{"town":"字大坪","koaza":"","lat":36.651994,"lng":136.75649,"zip":"9290300"},{"town":"字仮生","koaza":"","lat":36.643878,"lng":136.760679,"zip":"9290300"},{"town":"字明神","koaza":"","lat":36.656259,"lng":136.744313,"zip":"9290300"},{"town":"字南中条","koaza":"","lat":36.655313,"lng":136.729008,"zip":"9290300"},{"town":"字井野河内","koaza":"","lat":36.653945,"lng":136.747599,"zip":"9290300"},{"town":"字浅谷","koaza":"","lat":36.644374,"lng":136.740641,"zip":"9290300"},{"town":"字五反田","koaza":"ハ","lat":36.668395,"lng":136.719544,"zip":"9290300"},{"town":"字五反田","koaza":"イ","lat":36.668537,"lng":136.721875,"zip":"9290300"},{"town":"字中須加","koaza":"平成台","lat":36.672835,"lng":136.727074,"zip":"9290300"},{"town":"字明神","koaza":"ハ","lat":36.657098,"lng":136.747037,"zip":"9290300"},{"town":"字明神","koaza":"ニ","lat":36.655598,"lng":136.745716,"zip":"9290300"},{"town":"字井野河内","koaza":"チ","lat":36.653418,"lng":136.747388,"zip":"9290300"},{"town":"字井野河内","koaza":"ニ","lat":36.653744,"lng":136.748054,"zip":"9290300"},{"town":"字七黒","koaza":"ニ","lat":36.687179,"lng":136.750133,"zip":"9290300"},{"town":"字富田","koaza":"子","lat":36.667938,"lng":136.772673,"zip":"9290300"},{"town":"字井野河内","koaza":"ハ","lat":36.654595,"lng":136.74836,"zip":"9290300"}]