[{"town":"飯田町","koaza":"","lat":37.438626,"lng":137.264129,"zip":"9271214"},{"town":"石神町","koaza":"","lat":37.49404,"lng":137.232294,"zip":"9271303"},{"town":"岩坂町","koaza":"","lat":37.469732,"lng":137.268197,"zip":"9271211"},{"town":"上戸町北方","koaza":"","lat":37.436881,"lng":137.249658,"zip":"9271215"},{"town":"上戸町寺社","koaza":"","lat":37.430578,"lng":137.233402,"zip":"9271216"},{"town":"上戸町南方","koaza":"","lat":37.427375,"lng":137.195088,"zip":"9271217"},{"town":"大谷町","koaza":"","lat":37.483637,"lng":137.176224,"zip":"9271321"},{"town":"折戸町","koaza":"","lat":37.518881,"lng":137.277351,"zip":"9271446"},{"town":"片岩町","koaza":"","lat":37.47873,"lng":137.137743,"zip":"9271323"},{"town":"唐笠町","koaza":"","lat":37.499718,"lng":137.264358,"zip":"9271445"},{"town":"川浦町","koaza":"","lat":37.515083,"lng":137.297849,"zip":"9271447"},{"town":"熊谷町","koaza":"","lat":37.448696,"lng":137.284229,"zip":"9271212"},{"town":"笹波町","koaza":"","lat":37.50273,"lng":137.231679,"zip":"9271302"},{"town":"清水町","koaza":"","lat":37.475618,"lng":137.124962,"zip":"9271324"},{"town":"正院町飯塚","koaza":"","lat":37.467048,"lng":137.296787,"zip":"9271202"},{"town":"正院町岡田","koaza":"","lat":37.480074,"lng":137.271185,"zip":"9271201"},{"town":"正院町川尻","koaza":"","lat":37.447826,"lng":137.302192,"zip":"9271205"},{"town":"正院町小路","koaza":"","lat":37.452682,"lng":137.290834,"zip":"9271207"},{"town":"正院町正院","koaza":"","lat":37.44464,"lng":137.290488,"zip":"9271206"},{"town":"正院町平床","koaza":"","lat":37.459574,"lng":137.305324,"zip":"9271203"},{"town":"高屋町","koaza":"","lat":37.511272,"lng":137.244054,"zip":"9271301"},{"town":"蛸島町","koaza":"","lat":37.44558,"lng":137.320389,"zip":"9271204"},{"town":"長橋町","koaza":"","lat":37.489443,"lng":137.148692,"zip":"9271322"},{"town":"仁江町","koaza":"","lat":37.474674,"lng":137.110113,"zip":"9271325"},{"town":"野々江町","koaza":"","lat":37.447177,"lng":137.273776,"zip":"9271213"},{"town":"狼煙新町","koaza":"","lat":37.516245,"lng":137.32323,"zip":"9271442"},{"town":"狼煙町","koaza":"","lat":37.521555,"lng":137.307517,"zip":"9271441"},{"town":"東山中町","koaza":"","lat":37.495596,"lng":137.284248,"zip":"9271443"},{"town":"宝立町鵜飼","koaza":"","lat":37.401395,"lng":137.240903,"zip":"9271222"},{"town":"宝立町鵜島","koaza":"","lat":37.396651,"lng":137.239341,"zip":"9271223"},{"town":"宝立町大町泥木","koaza":"","lat":37.400371,"lng":137.146893,"zip":"9271227"},{"town":"宝立町柏原","koaza":"","lat":37.397386,"lng":137.198593,"zip":"9271228"},{"town":"宝立町春日野","koaza":"","lat":37.41367,"lng":137.215966,"zip":"9271221"},{"town":"宝立町黒峰","koaza":"","lat":37.39,"lng":137.194935,"zip":"9271228"},{"town":"宝立町金峰寺","koaza":"","lat":37.402814,"lng":137.235495,"zip":"9271221"},{"town":"宝立町宗玄","koaza":"","lat":37.374419,"lng":137.227994,"zip":"9271225"},{"town":"宝立町馬渡","koaza":"","lat":37.3744,"lng":137.181715,"zip":"9271226"},{"town":"宝立町南黒丸","koaza":"","lat":37.389374,"lng":137.234387,"zip":"9271224"},{"town":"真浦町","koaza":"","lat":37.465722,"lng":137.097077,"zip":"9271326"},{"town":"馬緤町","koaza":"","lat":37.496944,"lng":137.201118,"zip":"9271304"},{"town":"三崎町粟津","koaza":"","lat":37.493675,"lng":137.321927,"zip":"9271452"},{"town":"三崎町宇治","koaza":"","lat":37.470474,"lng":137.338416,"zip":"9271454"},{"town":"三崎町大屋","koaza":"","lat":37.493927,"lng":137.305329,"zip":"9271457"},{"town":"三崎町高波","koaza":"","lat":37.463399,"lng":137.352431,"zip":"9271456"},{"town":"三崎町小泊","koaza":"","lat":37.450735,"lng":137.350889,"zip":"9271462"},{"town":"三崎町寺家","koaza":"","lat":37.502033,"lng":137.336147,"zip":"9271451"},{"town":"三崎町杉山","koaza":"","lat":37.479303,"lng":137.307837,"zip":"9271466"},{"town":"三崎町内方","koaza":"","lat":37.46486,"lng":137.3346,"zip":"9271468"},{"town":"三崎町二本松","koaza":"","lat":37.459606,"lng":137.314965,"zip":"9271465"},{"town":"三崎町引砂","koaza":"","lat":37.466556,"lng":137.346229,"zip":"9271455"},{"town":"三崎町伏見","koaza":"","lat":37.457502,"lng":137.345167,"zip":"9271461"},{"town":"三崎町細屋","koaza":"","lat":37.455528,"lng":137.323269,"zip":"9271464"},{"town":"三崎町本","koaza":"","lat":37.466157,"lng":137.323535,"zip":"9271467"},{"town":"三崎町雲津","koaza":"","lat":37.448503,"lng":137.33825,"zip":"9271463"},{"town":"三崎町森腰","koaza":"","lat":37.476733,"lng":137.336701,"zip":"9271453"},{"town":"若山町宇都山","koaza":"","lat":37.472211,"lng":137.206558,"zip":"9271237"},{"town":"若山町上黒丸","koaza":"","lat":37.45054,"lng":137.169872,"zip":"9271314"},{"town":"若山町上正力","koaza":"","lat":37.466629,"lng":137.182833,"zip":"9271311"},{"town":"若山町上山","koaza":"","lat":37.445815,"lng":137.149254,"zip":"9271317"},{"town":"若山町北山","koaza":"","lat":37.449951,"lng":137.135319,"zip":"9271318"},{"town":"若山町経念","koaza":"","lat":37.458473,"lng":137.250786,"zip":"9271234"},{"town":"若山町白滝","koaza":"","lat":37.435328,"lng":137.164336,"zip":"9271315"},{"town":"若山町鈴内","koaza":"","lat":37.471259,"lng":137.247195,"zip":"9271231"},{"town":"若山町出田","koaza":"","lat":37.448193,"lng":137.255286,"zip":"9271233"},{"town":"若山町洲巻","koaza":"","lat":37.435348,"lng":137.149945,"zip":"9271316"},{"town":"若山町大坊","koaza":"","lat":37.463747,"lng":137.202451,"zip":"9271237"},{"town":"若山町中","koaza":"","lat":37.453492,"lng":137.196453,"zip":"9271236"},{"town":"若山町中田","koaza":"","lat":37.448299,"lng":137.236421,"zip":"9271235"},{"town":"若山町延武","koaza":"","lat":37.465058,"lng":137.222927,"zip":"9271238"},{"town":"若山町火宮","koaza":"","lat":37.470472,"lng":137.226922,"zip":"9271238"},{"town":"若山町広栗","koaza":"","lat":37.454846,"lng":137.262995,"zip":"9271232"},{"town":"若山町二子","koaza":"","lat":37.459409,"lng":137.170415,"zip":"9271312"},{"town":"若山町古蔵","koaza":"","lat":37.464524,"lng":137.238843,"zip":"9271239"},{"town":"若山町南山","koaza":"","lat":37.438983,"lng":137.174043,"zip":"9271315"},{"town":"若山町向","koaza":"","lat":37.451574,"lng":137.224896,"zip":"9271235"},{"town":"若山町宗末","koaza":"","lat":37.452559,"lng":137.179989,"zip":"9271313"},{"town":"若山町吉ケ池","koaza":"","lat":37.462416,"lng":137.153097,"zip":"9271319"},{"town":"上戸町南方","koaza":"と","lat":37.421476,"lng":137.247563,"zip":"9271217"},{"town":"上戸町南方","koaza":"フ","lat":37.420458,"lng":137.247898,"zip":"9271217"},{"town":"上戸町寺社","koaza":"テ","lat":37.424902,"lng":137.248269,"zip":"9271216"},{"town":"上戸町寺社","koaza":"ホ","lat":37.424758,"lng":137.249074,"zip":"9271216"},{"town":"上戸町南方","koaza":"エ","lat":37.424442,"lng":137.249781,"zip":"9271217"},{"town":"上戸町北方","koaza":"は","lat":37.433721,"lng":137.254028,"zip":"9271215"},{"town":"若山町出田","koaza":"ヘ","lat":37.451247,"lng":137.254995,"zip":"9271233"},{"town":"上戸町北方","koaza":"ろ","lat":37.434069,"lng":137.256884,"zip":"9271215"},{"town":"上戸町北方","koaza":"い","lat":37.43534,"lng":137.258383,"zip":"9271215"},{"town":"飯田町","koaza":"二十","lat":37.441054,"lng":137.257717,"zip":"9271214"},{"town":"上戸町北方","koaza":"ロ","lat":37.433787,"lng":137.257555,"zip":"9271215"},{"town":"若山町出田","koaza":"ホ","lat":37.451956,"lng":137.258025,"zip":"9271233"},{"town":"飯田町","koaza":"十七","lat":37.438765,"lng":137.260654,"zip":"9271214"},{"town":"上戸町北方","koaza":"イ","lat":37.437434,"lng":137.257831,"zip":"9271215"},{"town":"飯田町","koaza":"か","lat":37.445675,"lng":137.260578,"zip":"9271214"},{"town":"飯田町","koaza":"十六","lat":37.437072,"lng":137.261412,"zip":"9271214"},{"town":"飯田町","koaza":"よ","lat":37.444042,"lng":137.263011,"zip":"9271214"},{"town":"飯田町","koaza":"十五","lat":37.435028,"lng":137.262397,"zip":"9271214"},{"town":"飯田町","koaza":"十四","lat":37.436891,"lng":137.262397,"zip":"9271214"},{"town":"飯田町","koaza":"九","lat":37.441928,"lng":137.263687,"zip":"9271214"},{"town":"飯田町","koaza":"十","lat":37.438738,"lng":137.263055,"zip":"9271214"},{"town":"若山町出田","koaza":"ワ","lat":37.444869,"lng":137.264031,"zip":"9271233"},{"town":"飯田町","koaza":"十三","lat":37.435574,"lng":137.264561,"zip":"9271214"},{"town":"飯田町","koaza":"十二","lat":37.437652,"lng":137.265178,"zip":"9271214"},{"town":"飯田町","koaza":"十一","lat":37.439626,"lng":137.264569,"zip":"9271214"},{"town":"飯田町","koaza":"五","lat":37.443851,"lng":137.265788,"zip":"9271214"},{"town":"飯田町","koaza":"七","lat":37.440307,"lng":137.265672,"zip":"9271214"},{"town":"飯田町","koaza":"二十六","lat":37.437844,"lng":137.268145,"zip":"9271214"},{"town":"野々江町","koaza":"ヒ","lat":37.442224,"lng":137.269067,"zip":"9271213"},{"town":"飯田町","koaza":"二十七","lat":37.438407,"lng":137.268079,"zip":"9271214"},{"town":"野々江町","koaza":"モ","lat":37.443636,"lng":137.268713,"zip":"9271213"},{"town":"飯田町","koaza":"二十八","lat":37.440996,"lng":137.267357,"zip":"9271214"},{"town":"飯田町","koaza":"二十九","lat":37.439638,"lng":137.268026,"zip":"9271214"},{"town":"岩坂町","koaza":"ト","lat":37.45666,"lng":137.271696,"zip":"9271211"},{"town":"野々江町","koaza":"ラ","lat":37.438842,"lng":137.27065,"zip":"9271213"},{"town":"野々江町","koaza":"ユ","lat":37.442765,"lng":137.271842,"zip":"9271213"},{"town":"野々江町","koaza":"キ","lat":37.44446,"lng":137.270681,"zip":"9271213"},{"town":"野々江町","koaza":"ナ","lat":37.439388,"lng":137.272123,"zip":"9271213"},{"town":"野々江町","koaza":"子","lat":37.441447,"lng":137.27337,"zip":"9271213"},{"town":"野々江町","koaza":"サ","lat":37.444206,"lng":137.272972,"zip":"9271213"},{"town":"野々江町","koaza":"ワ","lat":37.441895,"lng":137.275497,"zip":"9271213"},{"town":"野々江町","koaza":"ア","lat":37.442672,"lng":137.276802,"zip":"9271213"},{"town":"野々江町","koaza":"ヲ","lat":37.441847,"lng":137.277245,"zip":"9271213"},{"town":"野々江町","koaza":"ケ","lat":37.44642,"lng":137.280711,"zip":"9271213"},{"town":"岩坂町","koaza":"ロ","lat":37.456763,"lng":137.277916,"zip":"9271211"},{"town":"野々江町","koaza":"ホ","lat":37.442913,"lng":137.280556,"zip":"9271213"},{"town":"野々江町","koaza":"ニ","lat":37.443349,"lng":137.281545,"zip":"9271213"},{"town":"野々江町","koaza":"ヤ","lat":37.444313,"lng":137.28314,"zip":"9271213"},{"town":"岩坂町","koaza":"ニ","lat":37.45856,"lng":137.282559,"zip":"9271211"},{"town":"熊谷町","koaza":"ホ","lat":37.447651,"lng":137.28377,"zip":"9271212"},{"town":"野々江町","koaza":"ロ","lat":37.446616,"lng":137.282709,"zip":"9271213"},{"town":"野々江町","koaza":"ハ","lat":37.442484,"lng":137.284538,"zip":"9271213"},{"town":"熊谷町","koaza":"ヘ","lat":37.446853,"lng":137.284055,"zip":"9271212"},{"town":"正院町小路","koaza":"ち","lat":37.449901,"lng":137.287555,"zip":"9271207"},{"town":"正院町正院","koaza":"を","lat":37.444525,"lng":137.287042,"zip":"9271206"},{"town":"正院町小路","koaza":"ヌ","lat":37.448376,"lng":137.287223,"zip":"9271207"},{"town":"正院町正院","koaza":"わ","lat":37.443108,"lng":137.288243,"zip":"9271206"},{"town":"正院町小路","koaza":"チ","lat":37.44931,"lng":137.288388,"zip":"9271207"},{"town":"正院町小路","koaza":"リ","lat":37.449671,"lng":137.290477,"zip":"9271207"},{"town":"正院町川尻","koaza":"イ","lat":37.446925,"lng":137.294526,"zip":"9271205"},{"town":"正院町飯塚","koaza":"ト","lat":37.457583,"lng":137.297545,"zip":"9271202"},{"town":"正院町小路","koaza":"と","lat":37.451351,"lng":137.294389,"zip":"9271207"},{"town":"蛸島町","koaza":"ネ","lat":37.440073,"lng":137.308831,"zip":"9271204"},{"town":"蛸島町","koaza":"ナ","lat":37.442069,"lng":137.308285,"zip":"9271204"},{"town":"蛸島町","koaza":"子","lat":37.440693,"lng":137.309554,"zip":"9271204"},{"town":"若山町経念","koaza":"田","lat":37.456035,"lng":137.254634,"zip":"9271234"},{"town":"若山町出田","koaza":"わ","lat":37.4463,"lng":137.262508,"zip":"9271233"},{"town":"若山町出田","koaza":"を","lat":37.447455,"lng":137.262196,"zip":"9271233"},{"town":"飯田町","koaza":"四十二","lat":37.441816,"lng":137.26441,"zip":"9271214"},{"town":"飯田町","koaza":"八","lat":37.442111,"lng":137.265045,"zip":"9271214"},{"town":"飯田町","koaza":"十八","lat":37.439727,"lng":137.261635,"zip":"9271214"},{"town":"飯田町","koaza":"十九","lat":37.440428,"lng":137.259377,"zip":"9271214"},{"town":"若山町出田","koaza":"イ","lat":37.443115,"lng":137.258049,"zip":"9271233"},{"town":"正院町小路","koaza":"ト","lat":37.450317,"lng":137.294638,"zip":"9271207"},{"town":"上戸町北方","koaza":"ニ","lat":37.431813,"lng":137.255546,"zip":"9271215"},{"town":"上戸町寺社","koaza":"ハ","lat":37.428704,"lng":137.250264,"zip":"9271216"},{"town":"上戸町寺社","koaza":"サ","lat":37.427238,"lng":137.248105,"zip":"9271216"},{"town":"上戸町寺社","koaza":"ニ","lat":37.427093,"lng":137.25144,"zip":"9271216"},{"town":"上戸町南方","koaza":"え","lat":37.424957,"lng":137.249828,"zip":"9271217"},{"town":"蛸島町","koaza":"ラ","lat":37.440847,"lng":137.308236,"zip":"9271204"},{"town":"岩坂町","koaza":"ハ","lat":37.458276,"lng":137.275147,"zip":"9271211"},{"town":"上戸町寺社","koaza":"ろ","lat":37.426536,"lng":137.247765,"zip":"9271216"},{"town":"上戸町南方","koaza":"コ","lat":37.421913,"lng":137.248253,"zip":"9271217"},{"town":"野々江町","koaza":"マ","lat":37.444001,"lng":137.279517,"zip":"9271213"},{"town":"野々江町","koaza":"メ","lat":37.44044,"lng":137.271731,"zip":"9271213"},{"town":"野々江町","koaza":"シ","lat":37.440099,"lng":137.269098,"zip":"9271213"},{"town":"上戸町寺社","koaza":"に","lat":37.425342,"lng":137.248494,"zip":"9271216"},{"town":"上戸町寺社","koaza":"ほ","lat":37.423014,"lng":137.248363,"zip":"9271216"},{"town":"野々江町","koaza":"ス","lat":37.446203,"lng":137.266604,"zip":"9271213"},{"town":"上戸町南方","koaza":"ト","lat":37.421765,"lng":137.247156,"zip":"9271217"},{"town":"野々江町","koaza":"ク","lat":37.44507,"lng":137.281053,"zip":"9271213"},{"town":"上戸町南方","koaza":"ヘ","lat":37.419936,"lng":137.246625,"zip":"9271217"},{"town":"上戸町寺社","koaza":"は","lat":37.426046,"lng":137.247348,"zip":"9271216"},{"town":"上戸町南方","koaza":"ア","lat":37.426094,"lng":137.249157,"zip":"9271217"},{"town":"上戸町寺社","koaza":"ア","lat":37.426254,"lng":137.250467,"zip":"9271216"},{"town":"上戸町寺社","koaza":"い","lat":37.429197,"lng":137.247494,"zip":"9271216"},{"town":"若山町出田","koaza":"チ","lat":37.451046,"lng":137.259155,"zip":"9271233"},{"town":"若山町出田","koaza":"リ","lat":37.45011,"lng":137.260306,"zip":"9271233"},{"town":"若山町出田","koaza":"子","lat":37.450627,"lng":137.259677,"zip":"9271233"},{"town":"飯田町","koaza":"六","lat":37.442776,"lng":137.266312,"zip":"9271214"}]