[{"town":"相滝町","koaza":"","lat":36.339795,"lng":136.596001,"zip":"9202367"},{"town":"青葉台一丁目","koaza":"","lat":36.515913,"lng":136.580861,"zip":"9240819"},{"town":"青葉台二丁目","koaza":"","lat":36.514774,"lng":136.582036,"zip":"9240819"},{"town":"明島町","koaza":"","lat":36.461879,"lng":136.608952,"zip":"9202132"},{"town":"旭丘一丁目","koaza":"","lat":36.552502,"lng":136.573808,"zip":"9240004"},{"town":"旭丘二丁目","koaza":"","lat":36.551706,"lng":136.568637,"zip":"9240004"},{"town":"旭丘三丁目","koaza":"","lat":36.550689,"lng":136.563503,"zip":"9240004"},{"town":"旭丘四丁目","koaza":"","lat":36.551204,"lng":136.558394,"zip":"9240004"},{"town":"あさひ荘苑一丁目","koaza":"","lat":36.53508,"lng":136.574885,"zip":"9240019"},{"town":"あさひ荘苑二丁目","koaza":"","lat":36.536519,"lng":136.575512,"zip":"9240019"},{"town":"あさひ荘苑三丁目","koaza":"","lat":36.535656,"lng":136.577691,"zip":"9240019"},{"town":"あさひ荘苑四丁目","koaza":"","lat":36.537281,"lng":136.579561,"zip":"9240019"},{"town":"阿手町","koaza":"","lat":36.292247,"lng":136.570828,"zip":"9202356"},{"town":"阿弥陀島町","koaza":"","lat":36.504906,"lng":136.514823,"zip":"9240056"},{"town":"荒谷","koaza":"","lat":36.256858,"lng":136.687362,"zip":"9202332"},{"town":"荒屋柏野町","koaza":"","lat":36.498651,"lng":136.538938,"zip":"9240037"},{"town":"荒屋町","koaza":"","lat":36.484772,"lng":136.607879,"zip":"9202151"},{"town":"行町","koaza":"","lat":36.487512,"lng":136.591768,"zip":"9202148"},{"town":"安養寺","koaza":"","lat":36.497924,"lng":136.595502,"zip":"9202141"},{"town":"安養寺町","koaza":"","lat":36.494585,"lng":136.594252,"zip":"9202141"},{"town":"石立町","koaza":"","lat":36.51024,"lng":136.505371,"zip":"9240058"},{"town":"石同新町","koaza":"","lat":36.519735,"lng":136.570013,"zip":"9240806"},{"town":"石同町","koaza":"","lat":36.522221,"lng":136.568967,"zip":"9240807"},{"town":"井関町","koaza":"","lat":36.490785,"lng":136.507362,"zip":"9290211"},{"town":"一塚町","koaza":"","lat":36.558607,"lng":136.560487,"zip":"9240005"},{"town":"市原","koaza":"","lat":36.317577,"lng":136.650401,"zip":"9202327"},{"town":"乾町","koaza":"","lat":36.523661,"lng":136.583048,"zip":"9240803"},{"town":"井口町","koaza":"","lat":36.474282,"lng":136.605165,"zip":"9202154"},{"town":"今平町","koaza":"","lat":36.499757,"lng":136.579278,"zip":"9240827"},{"town":"内方新保町","koaza":"","lat":36.487621,"lng":136.555721,"zip":"9240847"},{"town":"漆島町","koaza":"","lat":36.472926,"lng":136.579775,"zip":"9240835"},{"town":"大竹町","koaza":"","lat":36.471417,"lng":136.589569,"zip":"9202144"},{"town":"小川町","koaza":"","lat":36.523624,"lng":136.521899,"zip":"9240067"},{"town":"尾添","koaza":"","lat":36.216223,"lng":136.729585,"zip":"9202333"},{"town":"乙丸町","koaza":"","lat":36.497677,"lng":136.573516,"zip":"9240826"},{"town":"女原","koaza":"","lat":36.268713,"lng":136.655885,"zip":"9202335"},{"town":"小柳町","koaza":"","lat":36.4726,"lng":136.617586,"zip":"9202103"},{"town":"笠間新一丁目","koaza":"","lat":36.505449,"lng":136.529699,"zip":"9240062"},{"town":"笠間町","koaza":"","lat":36.505134,"lng":136.523204,"zip":"9240063"},{"town":"鹿島平","koaza":"","lat":36.504163,"lng":136.508869,"zip":"9290206"},{"town":"鍛治町","koaza":"","lat":36.521591,"lng":136.565749,"zip":"9240876"},{"town":"鹿島町","koaza":"","lat":36.502941,"lng":136.501729,"zip":"9290201"},{"town":"柏町","koaza":"","lat":36.504516,"lng":136.534173,"zip":"9240043"},{"town":"数瀬町","koaza":"","lat":36.3017,"lng":136.588383,"zip":"9202355"},{"town":"釜清水町","koaza":"","lat":36.357992,"lng":136.614247,"zip":"9202341"},{"town":"釜谷","koaza":"","lat":36.247329,"lng":136.649666,"zip":"9202338"},{"town":"上小川町","koaza":"","lat":36.519403,"lng":136.520672,"zip":"9240066"},{"town":"上柏野町","koaza":"","lat":36.496299,"lng":136.546696,"zip":"9240035"},{"town":"上島田町","koaza":"","lat":36.482371,"lng":136.549616,"zip":"9240846"},{"town":"上野町","koaza":"","lat":36.372867,"lng":136.604429,"zip":"9202375"},{"town":"上二口町","koaza":"","lat":36.505083,"lng":136.576511,"zip":"9240828"},{"town":"上安田町","koaza":"","lat":36.481406,"lng":136.536414,"zip":"9240853"},{"town":"上吉谷町","koaza":"","lat":36.328687,"lng":136.632463,"zip":"9202344"},{"town":"河合町","koaza":"","lat":36.396328,"lng":136.60991,"zip":"9202373"},{"town":"河内町板尾","koaza":"","lat":36.382648,"lng":136.677627,"zip":"9202315"},{"town":"河内町内尾","koaza":"","lat":36.334261,"lng":136.70946,"zip":"9202318"},{"town":"河内町奥池","koaza":"","lat":36.35048,"lng":136.72157,"zip":"9202312"},{"town":"河内町きりの里","koaza":"","lat":36.390897,"lng":136.61692,"zip":"9202304"},{"town":"河内町金間","koaza":"","lat":36.359284,"lng":136.655755,"zip":"9202316"},{"town":"河内町口直海","koaza":"","lat":36.400414,"lng":136.642029,"zip":"9202301"},{"town":"河内町久保","koaza":"","lat":36.377315,"lng":136.630909,"zip":"9202313"},{"town":"河内町江津","koaza":"","lat":36.385156,"lng":136.615315,"zip":"9202305"},{"town":"河内町下折","koaza":"","lat":36.349545,"lng":136.67579,"zip":"9202317"},{"town":"河内町中直海","koaza":"","lat":36.391076,"lng":136.641798,"zip":"9202311"},{"town":"河内町吹上","koaza":"","lat":36.373787,"lng":136.63959,"zip":"9202314"},{"town":"河内町福岡","koaza":"","lat":36.393971,"lng":136.625005,"zip":"9202303"},{"town":"河内町ふじが丘","koaza":"","lat":36.399191,"lng":136.626421,"zip":"9202302"},{"town":"河内町吉岡","koaza":"","lat":36.37541,"lng":136.621893,"zip":"9202306"},{"town":"河原山町","koaza":"","lat":36.3044,"lng":136.632563,"zip":"9202346"},{"town":"北島町","koaza":"","lat":36.499589,"lng":136.516467,"zip":"9240055"},{"town":"北成町","koaza":"","lat":36.535062,"lng":136.556448,"zip":"9240030"},{"town":"北安田西一丁目","koaza":"","lat":36.524193,"lng":136.545733,"zip":"9240039"},{"town":"北安田西二丁目","koaza":"","lat":36.521254,"lng":136.545733,"zip":"9240039"},{"town":"北安田町","koaza":"","lat":36.524276,"lng":136.549223,"zip":"9240024"},{"town":"木滑","koaza":"","lat":36.306936,"lng":136.650774,"zip":"9202326"},{"town":"木滑新","koaza":"","lat":36.290795,"lng":136.66697,"zip":"9202325"},{"town":"倉部町","koaza":"","lat":36.557627,"lng":136.552398,"zip":"9240007"},{"town":"倉光十丁目","koaza":"","lat":36.509942,"lng":136.568885,"zip":"9240865"},{"town":"倉光一丁目","koaza":"","lat":36.512669,"lng":136.56915,"zip":"9240865"},{"town":"倉光二丁目","koaza":"","lat":36.513891,"lng":136.565757,"zip":"9240865"},{"town":"倉光三丁目","koaza":"","lat":36.511089,"lng":136.565574,"zip":"9240865"},{"town":"倉光四丁目","koaza":"","lat":36.512796,"lng":136.562641,"zip":"9240865"},{"town":"倉光五丁目","koaza":"","lat":36.516146,"lng":136.566009,"zip":"9240865"},{"town":"倉光六丁目","koaza":"","lat":36.516057,"lng":136.56823,"zip":"9240865"},{"town":"倉光七丁目","koaza":"","lat":36.516018,"lng":136.570026,"zip":"9240865"},{"town":"倉光八丁目","koaza":"","lat":36.51553,"lng":136.572263,"zip":"9240865"},{"town":"倉光九丁目","koaza":"","lat":36.510946,"lng":136.572223,"zip":"9240865"},{"town":"倉光西二丁目","koaza":"","lat":36.5165,"lng":136.562901,"zip":"9240866"},{"town":"黒瀬町","koaza":"","lat":36.513768,"lng":136.522112,"zip":"9240064"},{"town":"桑島","koaza":"","lat":36.193456,"lng":136.658869,"zip":"9202502"},{"town":"剣崎町","koaza":"","lat":36.497395,"lng":136.562076,"zip":"9240842"},{"town":"源兵島町","koaza":"","lat":36.485807,"lng":136.519451,"zip":"9240052"},{"town":"木津町","koaza":"","lat":36.502258,"lng":136.588794,"zip":"9240821"},{"town":"幸明町","koaza":"","lat":36.515989,"lng":136.578022,"zip":"9240817"},{"town":"御影堂町","koaza":"","lat":36.488147,"lng":136.549537,"zip":"9240851"},{"town":"小上町","koaza":"","lat":36.501563,"lng":136.542759,"zip":"9240034"},{"town":"五十谷町","koaza":"","lat":36.317078,"lng":136.560091,"zip":"9202357"},{"town":"五歩市町","koaza":"","lat":36.531752,"lng":136.576567,"zip":"9240014"},{"town":"五味島","koaza":"","lat":36.255601,"lng":136.653887,"zip":"9202337"},{"town":"坂尻町","koaza":"","lat":36.48229,"lng":136.623199,"zip":"9202102"},{"town":"佐良","koaza":"","lat":36.332608,"lng":136.653181,"zip":"9202322"},{"town":"三宮町","koaza":"","lat":36.43497,"lng":136.64682,"zip":"9202114"},{"town":"七原町","koaza":"","lat":36.485018,"lng":136.597643,"zip":"9202143"},{"town":"七郎町","koaza":"","lat":36.515647,"lng":136.525826,"zip":"9240065"},{"town":"柴木二丁目","koaza":"","lat":36.493627,"lng":136.6021,"zip":"9202164"},{"town":"柴木町","koaza":"","lat":36.49131,"lng":136.601295,"zip":"9202163"},{"town":"島田町","koaza":"","lat":36.481841,"lng":136.557132,"zip":"9240845"},{"town":"下柏野町","koaza":"","lat":36.496999,"lng":136.531907,"zip":"9240038"},{"town":"下田原","koaza":"","lat":36.201863,"lng":136.584736,"zip":"9202503"},{"town":"下野町","koaza":"","lat":36.383681,"lng":136.605885,"zip":"9202374"},{"town":"下吉谷町","koaza":"","lat":36.340512,"lng":136.628142,"zip":"9202342"},{"town":"白峰","koaza":"","lat":36.131836,"lng":136.686909,"zip":"9202501"},{"town":"白山町","koaza":"","lat":36.419823,"lng":136.644587,"zip":"9202115"},{"town":"新田町","koaza":"","lat":36.533341,"lng":136.570546,"zip":"9240015"},{"town":"新成二丁目","koaza":"","lat":36.532967,"lng":136.557959,"zip":"9240020"},{"town":"新成三丁目","koaza":"","lat":36.532813,"lng":136.555727,"zip":"9240020"},{"town":"新成四丁目","koaza":"","lat":36.529606,"lng":136.554799,"zip":"9240020"},{"town":"末広一丁目","koaza":"","lat":36.520398,"lng":136.56754,"zip":"9240878"},{"town":"末広二丁目","koaza":"","lat":36.518198,"lng":136.567616,"zip":"9240878"},{"town":"末正町","koaza":"","lat":36.481113,"lng":136.505027,"zip":"9290213"},{"town":"菅波町","koaza":"","lat":36.49018,"lng":136.572027,"zip":"9240825"},{"town":"杉森町","koaza":"","lat":36.350171,"lng":136.607581,"zip":"9202364"},{"town":"瀬木野町","koaza":"","lat":36.403988,"lng":136.619368,"zip":"9202372"},{"town":"瀬戸","koaza":"","lat":36.281657,"lng":136.657224,"zip":"9202331"},{"town":"瀬波","koaza":"","lat":36.307767,"lng":136.69145,"zip":"9202323"},{"town":"専福寺町","koaza":"","lat":36.524005,"lng":136.590452,"zip":"9240802"},{"town":"相川新町","koaza":"","lat":36.547902,"lng":136.542581,"zip":"9240028"},{"town":"相川町","koaza":"","lat":36.542172,"lng":136.54268,"zip":"9240027"},{"town":"竹松町","koaza":"","lat":36.546544,"lng":136.555606,"zip":"9240021"},{"town":"田地町","koaza":"","lat":36.490241,"lng":136.578406,"zip":"9240824"},{"town":"辰巳町","koaza":"","lat":36.521973,"lng":136.567325,"zip":"9240875"},{"town":"田中町","koaza":"","lat":36.529608,"lng":136.587783,"zip":"9240801"},{"town":"知気寺町","koaza":"","lat":36.484217,"lng":136.602952,"zip":"9202155"},{"town":"茶屋一丁目","koaza":"","lat":36.523183,"lng":136.560628,"zip":"9240867"},{"town":"茶屋二丁目","koaza":"","lat":36.51946,"lng":136.560971,"zip":"9240867"},{"town":"中宮","koaza":"","lat":36.259185,"lng":136.763637,"zip":"9202324"},{"town":"長屋町","koaza":"","lat":36.483385,"lng":136.497843,"zip":"9290214"},{"town":"千代野西一丁目","koaza":"","lat":36.521317,"lng":136.538684,"zip":"9240072"},{"town":"千代野西二丁目","koaza":"","lat":36.521669,"lng":136.535982,"zip":"9240072"},{"town":"千代野西三丁目","koaza":"","lat":36.523728,"lng":136.536014,"zip":"9240072"},{"town":"千代野西四丁目","koaza":"","lat":36.523345,"lng":136.538632,"zip":"9240072"},{"town":"千代野西五丁目","koaza":"","lat":36.525371,"lng":136.538585,"zip":"9240072"},{"town":"千代野西六丁目","koaza":"","lat":36.525426,"lng":136.535979,"zip":"9240072"},{"town":"千代野西七丁目","koaza":"","lat":36.52812,"lng":136.536075,"zip":"9240072"},{"town":"千代野西八丁目","koaza":"","lat":36.527574,"lng":136.538672,"zip":"9240072"},{"town":"千代野東一丁目","koaza":"","lat":36.520548,"lng":136.543355,"zip":"9240073"},{"town":"千代野東二丁目","koaza":"","lat":36.51971,"lng":136.541818,"zip":"9240073"},{"town":"千代野東三丁目","koaza":"","lat":36.522031,"lng":136.541147,"zip":"9240073"},{"town":"千代野東四丁目","koaza":"","lat":36.52526,"lng":136.541222,"zip":"9240073"},{"town":"千代野東五丁目","koaza":"","lat":36.524758,"lng":136.543538,"zip":"9240073"},{"town":"千代野東六丁目","koaza":"","lat":36.528047,"lng":136.542127,"zip":"9240073"},{"town":"千代野南一丁目","koaza":"","lat":36.517785,"lng":136.541925,"zip":"9240074"},{"town":"千代野南二丁目","koaza":"","lat":36.519981,"lng":136.537632,"zip":"9240074"},{"town":"月橋町","koaza":"","lat":36.464151,"lng":136.630824,"zip":"9202104"},{"town":"鶴来朝日町","koaza":"","lat":36.448555,"lng":136.632181,"zip":"9202111"},{"town":"鶴来今町","koaza":"","lat":36.441802,"lng":136.630073,"zip":"9202125"},{"town":"鶴来後山","koaza":"","lat":36.454041,"lng":136.648202,"zip":"9240000"},{"town":"鶴来大国町","koaza":"","lat":36.452006,"lng":136.62089,"zip":"9202133"},{"town":"鶴来上東町","koaza":"","lat":36.447357,"lng":136.628445,"zip":"9202127"},{"town":"鶴来桑島町","koaza":"","lat":36.496494,"lng":136.597749,"zip":"9202166"},{"town":"鶴来下東町","koaza":"","lat":36.448619,"lng":136.627637,"zip":"9202128"},{"town":"鶴来新町","koaza":"","lat":36.445011,"lng":136.628892,"zip":"9202126"},{"town":"鶴来清沢町","koaza":"","lat":36.447311,"lng":136.630473,"zip":"9202124"},{"town":"鶴来千原","koaza":"","lat":36.455086,"lng":136.63971,"zip":"9240000"},{"town":"鶴来知守町","koaza":"","lat":36.450827,"lng":136.627691,"zip":"9202122"},{"town":"鶴来日詰町","koaza":"","lat":36.450924,"lng":136.632628,"zip":"9202123"},{"town":"鶴来日吉町","koaza":"","lat":36.447335,"lng":136.640133,"zip":"9202112"},{"town":"鶴来古町","koaza":"","lat":36.447104,"lng":136.625314,"zip":"9202129"},{"town":"鶴来本町一丁目","koaza":"","lat":36.44673,"lng":136.627253,"zip":"9202121"},{"town":"鶴来本町二丁目","koaza":"","lat":36.448318,"lng":136.626781,"zip":"9202121"},{"town":"鶴来本町三丁目","koaza":"","lat":36.450175,"lng":136.625386,"zip":"9202121"},{"town":"鶴来本町四丁目","koaza":"","lat":36.454558,"lng":136.629349,"zip":"9202121"},{"town":"鶴来水戸町","koaza":"","lat":36.445259,"lng":136.621122,"zip":"9202134"},{"town":"鶴来水戸町二丁目","koaza":"","lat":36.443283,"lng":136.626454,"zip":"9202134"},{"town":"鶴来水戸町三丁目","koaza":"","lat":36.444607,"lng":136.624179,"zip":"9202134"},{"town":"鶴来水戸町四丁目","koaza":"","lat":36.446466,"lng":136.623098,"zip":"9202134"},{"town":"出合島町","koaza":"","lat":36.476358,"lng":136.528641,"zip":"9240854"},{"town":"出合町","koaza":"","lat":36.352924,"lng":136.590548,"zip":"9202368"},{"town":"手取町","koaza":"","lat":36.487244,"lng":136.502759,"zip":"9290212"},{"town":"道法寺町","koaza":"","lat":36.475509,"lng":136.634176,"zip":"9202162"},{"town":"鴇ケ谷","koaza":"","lat":36.241175,"lng":136.615952,"zip":"9202339"},{"town":"徳丸町","koaza":"","lat":36.522681,"lng":136.577844,"zip":"9240804"},{"town":"徳光町","koaza":"","lat":36.532609,"lng":136.532114,"zip":"9240071"},{"town":"富光寺町","koaza":"","lat":36.495215,"lng":136.600698,"zip":"9202165"},{"town":"中奥町","koaza":"","lat":36.51786,"lng":136.581006,"zip":"9240818"},{"town":"中柏野町","koaza":"","lat":36.498037,"lng":136.542465,"zip":"9240036"},{"town":"中島町","koaza":"","lat":36.408962,"lng":136.64118,"zip":"9202116"},{"town":"長島町","koaza":"","lat":36.492574,"lng":136.555106,"zip":"9240848"},{"town":"中新保町","koaza":"","lat":36.552889,"lng":136.578622,"zip":"9240003"},{"town":"長竹町","koaza":"","lat":36.521016,"lng":136.58896,"zip":"9240811"},{"town":"中成二丁目","koaza":"","lat":36.527161,"lng":136.554832,"zip":"9240029"},{"town":"中ノ郷町","koaza":"","lat":36.486179,"lng":136.585196,"zip":"9202147"},{"town":"成町","koaza":"","lat":36.522794,"lng":136.556739,"zip":"9240023"},{"town":"西柏一丁目","koaza":"","lat":36.502372,"lng":136.531044,"zip":"9240045"},{"town":"西柏二丁目","koaza":"","lat":36.501561,"lng":136.529494,"zip":"9240045"},{"town":"西柏三丁目","koaza":"","lat":36.500611,"lng":136.528288,"zip":"9240045"},{"town":"西柏町","koaza":"","lat":36.503345,"lng":136.532689,"zip":"9240044"},{"town":"西佐良町","koaza":"","lat":36.332938,"lng":136.639632,"zip":"9202343"},{"town":"西美沢野一丁目","koaza":"","lat":36.503257,"lng":136.529395,"zip":"9240046"},{"town":"西美沢野町","koaza":"","lat":36.504147,"lng":136.530862,"zip":"9240047"},{"town":"西米光町","koaza":"","lat":36.495919,"lng":136.50194,"zip":"9290202"},{"town":"布市一丁目","koaza":"","lat":36.522627,"lng":136.571083,"zip":"9240808"},{"town":"布市二丁目","koaza":"","lat":36.522556,"lng":136.573953,"zip":"9240808"},{"town":"野地町","koaza":"","lat":36.319555,"lng":136.584889,"zip":"9202352"},{"town":"博労一丁目","koaza":"","lat":36.521594,"lng":136.56461,"zip":"9240863"},{"town":"博労二丁目","koaza":"","lat":36.519835,"lng":136.565085,"zip":"9240863"},{"town":"博労三丁目","koaza":"","lat":36.518073,"lng":136.565211,"zip":"9240863"},{"town":"橋爪新町","koaza":"","lat":36.509104,"lng":136.585324,"zip":"9240814"},{"town":"橋爪町","koaza":"","lat":36.515783,"lng":136.58575,"zip":"9240812"},{"town":"蓮池町","koaza":"","lat":36.499919,"lng":136.497735,"zip":"9290205"},{"town":"八田中町","koaza":"","lat":36.55848,"lng":136.573235,"zip":"9240002"},{"town":"八田町","koaza":"","lat":36.560494,"lng":136.564166,"zip":"9240001"},{"town":"馬場一丁目","koaza":"","lat":36.52117,"lng":136.563063,"zip":"9240864"},{"town":"馬場二丁目","koaza":"","lat":36.518732,"lng":136.563024,"zip":"9240864"},{"town":"番匠町","koaza":"","lat":36.534264,"lng":136.582536,"zip":"9240013"},{"town":"番田町","koaza":"","lat":36.48015,"lng":136.526575,"zip":"9240856"},{"town":"東一番町","koaza":"","lat":36.523607,"lng":136.569315,"zip":"9240883"},{"town":"東柏町","koaza":"","lat":36.505482,"lng":136.534965,"zip":"9240042"},{"town":"東二番町","koaza":"","lat":36.524707,"lng":136.568811,"zip":"9240886"},{"town":"東二口","koaza":"","lat":36.284678,"lng":136.623779,"zip":"9202336"},{"town":"東美沢野町","koaza":"","lat":36.506616,"lng":136.533635,"zip":"9240041"},{"town":"左礫町","koaza":"","lat":36.293855,"lng":136.609365,"zip":"9202353"},{"town":"日御子町","koaza":"","lat":36.467855,"lng":136.610381,"zip":"9202153"},{"town":"日向町","koaza":"","lat":36.478819,"lng":136.593404,"zip":"9202146"},{"town":"平加町","koaza":"","lat":36.495254,"lng":136.491255,"zip":"9290204"},{"town":"平木町","koaza":"","lat":36.533597,"lng":136.546531,"zip":"9240026"},{"town":"平松町","koaza":"","lat":36.504976,"lng":136.568649,"zip":"9240841"},{"town":"広瀬町","koaza":"","lat":36.418149,"lng":136.625359,"zip":"9202371"},{"town":"深瀬","koaza":"","lat":36.234108,"lng":136.653939,"zip":"9202334"},{"town":"深瀬新町","koaza":"","lat":36.489149,"lng":136.597853,"zip":"9202142"},{"town":"福正寺町","koaza":"","lat":36.514221,"lng":136.591015,"zip":"9240813"},{"town":"福新町","koaza":"","lat":36.488971,"lng":136.536257,"zip":"9240858"},{"town":"福留町","koaza":"","lat":36.491797,"lng":136.529971,"zip":"9240051"},{"town":"福留南一丁目","koaza":"","lat":36.48776,"lng":136.527665,"zip":"9240059"},{"town":"福永町","koaza":"","lat":36.48493,"lng":136.531179,"zip":"9240857"},{"town":"福増町","koaza":"","lat":36.542001,"lng":136.577888,"zip":"9240012"},{"town":"仏師ヶ野町","koaza":"","lat":36.289061,"lng":136.636677,"zip":"9240000"},{"town":"藤波一丁目","koaza":"","lat":36.487531,"lng":136.575402,"zip":"9240831"},{"town":"藤波二丁目","koaza":"","lat":36.486609,"lng":136.576414,"zip":"9240831"},{"town":"藤木町","koaza":"","lat":36.484113,"lng":136.578801,"zip":"9240832"},{"town":"蕪城一丁目","koaza":"","lat":36.530716,"lng":136.553069,"zip":"9240025"},{"town":"蕪城二丁目","koaza":"","lat":36.531222,"lng":136.551529,"zip":"9240025"},{"town":"蕪城三丁目","koaza":"","lat":36.531248,"lng":136.54991,"zip":"9240025"},{"town":"蕪城四丁目","koaza":"","lat":36.532756,"lng":136.553294,"zip":"9240025"},{"town":"蕪城五丁目","koaza":"","lat":36.53457,"lng":136.553511,"zip":"9240025"},{"town":"部入道町","koaza":"","lat":36.494939,"lng":136.605801,"zip":"9202167"},{"town":"別宮出町","koaza":"","lat":36.355086,"lng":136.607369,"zip":"9202363"},{"town":"別宮町","koaza":"","lat":36.360408,"lng":136.605291,"zip":"9202362"},{"town":"法仏町","koaza":"","lat":36.517904,"lng":136.537579,"zip":"9240076"},{"town":"坊丸町","koaza":"","lat":36.493211,"lng":136.578973,"zip":"9240823"},{"town":"松本町","koaza":"","lat":36.51354,"lng":136.512951,"zip":"9240057"},{"town":"三浦町","koaza":"","lat":36.509165,"lng":136.578173,"zip":"9240815"},{"town":"美川今町","koaza":"","lat":36.487607,"lng":136.488311,"zip":"9290221"},{"town":"美川永代町","koaza":"","lat":36.489985,"lng":136.481482,"zip":"9290235"},{"town":"美川北町","koaza":"","lat":36.486735,"lng":136.486452,"zip":"9290223"},{"town":"美川神幸町","koaza":"","lat":36.488242,"lng":136.487267,"zip":"9290234"},{"town":"美川新町","koaza":"","lat":36.487149,"lng":136.486187,"zip":"9290222"},{"town":"美川末広町","koaza":"","lat":36.489172,"lng":136.487902,"zip":"9290232"},{"town":"美川中町","koaza":"","lat":36.487271,"lng":136.493114,"zip":"9290224"},{"town":"美川浜町","koaza":"","lat":36.489556,"lng":136.491716,"zip":"9290233"},{"town":"美川南町","koaza":"","lat":36.484692,"lng":136.484681,"zip":"9290215"},{"town":"美川本吉町","koaza":"","lat":36.482352,"lng":136.489499,"zip":"9290216"},{"town":"美川和波町","koaza":"","lat":36.491166,"lng":136.487351,"zip":"9290231"},{"town":"神子清水町","koaza":"","lat":36.344534,"lng":136.611842,"zip":"9202365"},{"town":"三坂町","koaza":"","lat":36.367749,"lng":136.591587,"zip":"9202361"},{"town":"美里町","koaza":"","lat":36.520703,"lng":136.581586,"zip":"9240820"},{"town":"美沢野町","koaza":"","lat":36.505254,"lng":136.531869,"zip":"9240048"},{"town":"水島町","koaza":"","lat":36.48078,"lng":136.513444,"zip":"9240855"},{"town":"みずほ一丁目","koaza":"","lat":36.49616,"lng":136.583943,"zip":"9240822"},{"town":"みずほ二丁目","koaza":"","lat":36.493122,"lng":136.584334,"zip":"9240822"},{"town":"みずほ三丁目","koaza":"","lat":36.492409,"lng":136.582843,"zip":"9240822"},{"town":"みずほ四丁目","koaza":"","lat":36.493665,"lng":136.582718,"zip":"9240822"},{"town":"みずほ五丁目","koaza":"","lat":36.49495,"lng":136.582514,"zip":"9240822"},{"town":"みずほ六丁目","koaza":"","lat":36.496133,"lng":136.58247,"zip":"9240822"},{"town":"水澄町","koaza":"","lat":36.490589,"lng":136.519539,"zip":"9240053"},{"town":"三ツ瀬町","koaza":"","lat":36.305558,"lng":136.597529,"zip":"9202354"},{"town":"三ツ屋野町","koaza":"","lat":36.318065,"lng":136.637048,"zip":"9202345"},{"town":"湊町","koaza":"","lat":36.475271,"lng":136.475618,"zip":"9290217"},{"town":"宮永市町","koaza":"","lat":36.538133,"lng":136.568649,"zip":"9240016"},{"town":"宮永新町","koaza":"","lat":36.549241,"lng":136.57497,"zip":"9240018"},{"town":"宮永町","koaza":"","lat":36.543483,"lng":136.567356,"zip":"9240017"},{"town":"宮原町","koaza":"","lat":36.506482,"lng":136.535509,"zip":"9240069"},{"town":"宮保新町","koaza":"","lat":36.507258,"lng":136.532025,"zip":"9240068"},{"town":"宮保町","koaza":"","lat":36.514747,"lng":136.534367,"zip":"9240061"},{"town":"宮丸町","koaza":"","lat":36.507701,"lng":136.549978,"zip":"9240033"},{"town":"三幸町","koaza":"","lat":36.51322,"lng":136.577803,"zip":"9240816"},{"town":"明法島町","koaza":"","lat":36.47582,"lng":136.588707,"zip":"9202145"},{"town":"向島町","koaza":"","lat":36.479452,"lng":136.582606,"zip":"9240833"},{"town":"村井新町","koaza":"","lat":36.551855,"lng":136.545906,"zip":"9240006"},{"town":"村井東一丁目","koaza":"","lat":36.51681,"lng":136.560093,"zip":"9240031"},{"town":"村井東二丁目","koaza":"","lat":36.515793,"lng":136.560072,"zip":"9240031"},{"town":"村井町","koaza":"","lat":36.508936,"lng":136.558844,"zip":"9240032"},{"town":"明光一丁目","koaza":"","lat":36.477179,"lng":136.611311,"zip":"9202152"},{"town":"明光二丁目","koaza":"","lat":36.474991,"lng":136.611217,"zip":"9202152"},{"town":"明光三丁目","koaza":"","lat":36.477328,"lng":136.609252,"zip":"9202152"},{"town":"明光四丁目","koaza":"","lat":36.476381,"lng":136.60808,"zip":"9202152"},{"town":"森島町","koaza":"","lat":36.467421,"lng":136.597939,"zip":"9202131"},{"town":"矢頃島町","koaza":"","lat":36.475268,"lng":136.582919,"zip":"9240834"},{"town":"安田町","koaza":"","lat":36.522568,"lng":136.562057,"zip":"9240862"},{"town":"安吉町","koaza":"","lat":36.487677,"lng":136.565588,"zip":"9240843"},{"town":"八束穂一丁目","koaza":"","lat":36.484329,"lng":136.574346,"zip":"9240838"},{"town":"八束穂二丁目","koaza":"","lat":36.484064,"lng":136.571862,"zip":"9240838"},{"town":"八束穂三丁目","koaza":"","lat":36.486087,"lng":136.570356,"zip":"9240838"},{"town":"八ツ矢新町","koaza":"","lat":36.529198,"lng":136.570211,"zip":"9240881"},{"town":"柳原町","koaza":"","lat":36.333738,"lng":136.577501,"zip":"9202351"},{"town":"八幡町","koaza":"","lat":36.440945,"lng":136.641284,"zip":"9202113"},{"town":"山島台一丁目","koaza":"","lat":36.471387,"lng":136.580785,"zip":"9240836"},{"town":"山島台二丁目","koaza":"","lat":36.469468,"lng":136.579838,"zip":"9240836"},{"town":"山島台三丁目","koaza":"","lat":36.470316,"lng":136.578042,"zip":"9240836"},{"town":"山島台四丁目","koaza":"","lat":36.47081,"lng":136.576189,"zip":"9240836"},{"town":"山島台五丁目","koaza":"","lat":36.47152,"lng":136.574298,"zip":"9240836"},{"town":"山島台六丁目","koaza":"","lat":36.472719,"lng":136.576338,"zip":"9240836"},{"town":"横江町","koaza":"","lat":36.543908,"lng":136.586166,"zip":"9240011"},{"town":"横町","koaza":"","lat":36.524543,"lng":136.562097,"zip":"9240861"},{"town":"吉田町","koaza":"","lat":36.476632,"lng":136.571461,"zip":"9240837"},{"town":"吉野","koaza":"","lat":36.357848,"lng":136.632265,"zip":"9202321"},{"town":"四日市町","koaza":"","lat":36.522766,"lng":136.568368,"zip":"9240874"},{"town":"四ツ屋町","koaza":"","lat":36.487371,"lng":136.542994,"zip":"9240852"},{"town":"米永町","koaza":"","lat":36.509467,"lng":136.542752,"zip":"9240075"},{"town":"米光町","koaza":"","lat":36.493819,"lng":136.513659,"zip":"9240054"},{"town":"寄新保町","koaza":"","lat":36.478356,"lng":136.561699,"zip":"9240844"},{"town":"若原町","koaza":"","lat":36.384891,"lng":136.59362,"zip":"9202376"},{"town":"若宮一丁目","koaza":"","lat":36.520688,"lng":136.574043,"zip":"9240805"},{"town":"若宮二丁目","koaza":"","lat":36.520026,"lng":136.572105,"zip":"9240805"},{"town":"若宮三丁目","koaza":"","lat":36.518418,"lng":136.572901,"zip":"9240805"},{"town":"渡津町","koaza":"","lat":36.332108,"lng":136.611291,"zip":"9202366"},{"town":"熱野町","koaza":"","lat":36.492827,"lng":136.611026,"zip":"9202161"},{"town":"陽羽里一丁目","koaza":"","lat":36.492511,"lng":136.614032,"zip":"9202168"},{"town":"曽谷町","koaza":"","lat":36.486492,"lng":136.630159,"zip":"9202101"},{"town":"陽羽里二丁目","koaza":"","lat":36.494771,"lng":136.614249,"zip":"9202168"},{"town":"八ツ矢町","koaza":"","lat":36.527094,"lng":136.571736,"zip":"9240882"},{"town":"東三番町","koaza":"","lat":36.525831,"lng":136.568482,"zip":"9240887"},{"town":"殿町","koaza":"","lat":36.525251,"lng":136.567555,"zip":"9240885"},{"town":"古城町","koaza":"","lat":36.524583,"lng":136.566606,"zip":"9240872"},{"town":"中町","koaza":"","lat":36.522731,"lng":136.564885,"zip":"9240877"},{"town":"東新町","koaza":"","lat":36.523376,"lng":136.567632,"zip":"9240884"},{"town":"八日市町","koaza":"","lat":36.522756,"lng":136.567275,"zip":"9240873"},{"town":"西新町","koaza":"","lat":36.524866,"lng":136.564148,"zip":"9240871"},{"town":"旭町","koaza":"","lat":36.527859,"lng":136.567925,"zip":"9240888"},{"town":"中成一丁目","koaza":"","lat":36.525943,"lng":136.557377,"zip":"9240029"},{"town":"新成一丁目","koaza":"","lat":36.530028,"lng":136.557674,"zip":"9240020"},{"town":"相木三丁目","koaza":"","lat":36.529788,"lng":136.561182,"zip":"9240081"},{"town":"相木町","koaza":"","lat":36.532028,"lng":136.563618,"zip":"9240022"},{"town":"相木二丁目","koaza":"","lat":36.527738,"lng":136.561359,"zip":"9240081"},{"town":"相木一丁目","koaza":"","lat":36.528239,"lng":136.565328,"zip":"9240081"},{"town":"菜の花一丁目","koaza":"","lat":36.510191,"lng":136.581097,"zip":"9240810"},{"town":"菜の花二丁目","koaza":"","lat":36.511344,"lng":136.582077,"zip":"9240810"},{"town":"菜の花三丁目","koaza":"","lat":36.512505,"lng":136.579874,"zip":"9240810"},{"town":"湊町","koaza":"己","lat":36.471041,"lng":136.468564,"zip":"9290217"},{"town":"湊町","koaza":"井","lat":36.480672,"lng":136.475087,"zip":"9290217"},{"town":"湊町","koaza":"七号","lat":36.46891,"lng":136.471689,"zip":"9290217"},{"town":"湊町","koaza":"六号","lat":36.470814,"lng":136.472315,"zip":"9290217"},{"town":"湊町","koaza":"五号","lat":36.471678,"lng":136.472866,"zip":"9290217"},{"town":"湊町","koaza":"ソ","lat":36.474175,"lng":136.473581,"zip":"9290217"},{"town":"湊町","koaza":"乙","lat":36.473118,"lng":136.474192,"zip":"9290217"},{"town":"湊町","koaza":"丁","lat":36.472197,"lng":136.473197,"zip":"9290217"},{"town":"湊町","koaza":"ム","lat":36.46814,"lng":136.474112,"zip":"9290217"},{"town":"湊町","koaza":"レ","lat":36.480184,"lng":136.475957,"zip":"9290217"},{"town":"湊町","koaza":"三号","lat":36.47482,"lng":136.47456,"zip":"9290217"},{"town":"湊町","koaza":"二号","lat":36.476236,"lng":136.475897,"zip":"9290217"},{"town":"湊町","koaza":"四号","lat":36.474464,"lng":136.475537,"zip":"9290217"},{"town":"湊町","koaza":"カ","lat":36.473058,"lng":136.475739,"zip":"9290217"},{"town":"湊町","koaza":"一号","lat":36.478287,"lng":136.47667,"zip":"9290217"},{"town":"美川南町","koaza":"乙","lat":36.484423,"lng":136.477362,"zip":"9290215"},{"town":"湊町","koaza":"ヨ","lat":36.479003,"lng":136.478246,"zip":"9290217"},{"town":"湊町","koaza":"ヲ","lat":36.475092,"lng":136.479037,"zip":"9290217"},{"town":"湊町","koaza":"チ","lat":36.473551,"lng":136.480208,"zip":"9290217"},{"town":"美川永代町","koaza":"甲","lat":36.489939,"lng":136.482237,"zip":"9290235"},{"town":"美川中町","koaza":"ヲ","lat":36.486599,"lng":136.483385,"zip":"9290224"},{"town":"美川北町","koaza":"ヲ","lat":36.486973,"lng":136.482737,"zip":"9290223"},{"town":"美川新町","koaza":"ヲ","lat":36.487431,"lng":136.483394,"zip":"9290222"},{"town":"美川永代町","koaza":"ヲ","lat":36.488531,"lng":136.483208,"zip":"9290235"},{"town":"美川南町","koaza":"ヌ","lat":36.48579,"lng":136.484489,"zip":"9290215"},{"town":"美川南町","koaza":"ヲ","lat":36.486187,"lng":136.483409,"zip":"9290215"},{"town":"美川和波町","koaza":"北","lat":36.491412,"lng":136.487295,"zip":"9290231"},{"town":"美川浜町","koaza":"ヲ","lat":36.488976,"lng":136.48382,"zip":"9290233"},{"town":"美川神幸町","koaza":"ヲ","lat":36.488488,"lng":136.483959,"zip":"9290234"},{"town":"美川永代町","koaza":"ル","lat":36.48762,"lng":136.485355,"zip":"9290235"},{"town":"美川新町","koaza":"ル","lat":36.487383,"lng":136.485365,"zip":"9290222"},{"town":"美川北町","koaza":"ル","lat":36.486948,"lng":136.485527,"zip":"9290223"},{"town":"美川中町","koaza":"ル","lat":36.486672,"lng":136.48474,"zip":"9290224"},{"town":"美川南町","koaza":"ル","lat":36.486214,"lng":136.484555,"zip":"9290215"},{"town":"美川浜町","koaza":"ル","lat":36.488998,"lng":136.485736,"zip":"9290233"},{"town":"美川神幸町","koaza":"ル","lat":36.488274,"lng":136.485517,"zip":"9290234"},{"town":"美川今町","koaza":"ル","lat":36.487818,"lng":136.485381,"zip":"9290221"},{"town":"美川末広町","koaza":"ル","lat":36.489254,"lng":136.485801,"zip":"9290232"},{"town":"美川和波町","koaza":"ル","lat":36.489701,"lng":136.486115,"zip":"9290231"},{"town":"美川南町","koaza":"ソ","lat":36.486041,"lng":136.486247,"zip":"9290215"},{"town":"美川中町","koaza":"ソ","lat":36.486474,"lng":136.487968,"zip":"9290224"},{"town":"美川本吉町","koaza":"子","lat":36.481786,"lng":136.490936,"zip":"9290216"},{"town":"平加町","koaza":"ヌ","lat":36.493213,"lng":136.489303,"zip":"9290204"},{"town":"美川北町","koaza":"ソ","lat":36.486673,"lng":136.487895,"zip":"9290223"},{"town":"美川今町","koaza":"ソ","lat":36.487502,"lng":136.488002,"zip":"9290221"},{"town":"美川神幸町","koaza":"ソ","lat":36.488284,"lng":136.487999,"zip":"9290234"},{"town":"美川浜町","koaza":"ソ","lat":36.488809,"lng":136.488131,"zip":"9290233"},{"town":"美川末広町","koaza":"ソ","lat":36.489294,"lng":136.488112,"zip":"9290232"},{"town":"美川本吉町","koaza":"丑","lat":36.483371,"lng":136.489191,"zip":"9290216"},{"town":"美川南町","koaza":"ハ","lat":36.483881,"lng":136.487651,"zip":"9290215"},{"town":"美川和波町","koaza":"ソ","lat":36.489547,"lng":136.487318,"zip":"9290231"},{"town":"美川新町","koaza":"ソ","lat":36.487116,"lng":136.48796,"zip":"9290222"},{"town":"美川永代町","koaza":"ソ","lat":36.487477,"lng":136.486828,"zip":"9290235"},{"town":"美川和波町","koaza":"カ","lat":36.490732,"lng":136.48873,"zip":"9290231"},{"town":"美川中町","koaza":"ロ","lat":36.485907,"lng":136.491296,"zip":"9290224"},{"town":"美川浜町","koaza":"ヨ","lat":36.490141,"lng":136.491848,"zip":"9290233"},{"town":"美川末広町","koaza":"ヨ","lat":36.48968,"lng":136.489803,"zip":"9290232"},{"town":"美川末広町","koaza":"カ","lat":36.489706,"lng":136.489168,"zip":"9290232"},{"town":"平加町","koaza":"ワ","lat":36.494933,"lng":136.490908,"zip":"9290204"},{"town":"美川新町","koaza":"レ","lat":36.487281,"lng":136.489765,"zip":"9290222"},{"town":"美川今町","koaza":"レ","lat":36.487663,"lng":136.490136,"zip":"9290221"},{"town":"美川北町","koaza":"レ","lat":36.487066,"lng":136.489909,"zip":"9290223"},{"town":"美川神幸町","koaza":"レ","lat":36.48794,"lng":136.48964,"zip":"9290234"},{"town":"美川今町","koaza":"イ","lat":36.487496,"lng":136.491071,"zip":"9290221"},{"town":"美川中町","koaza":"イ","lat":36.48821,"lng":136.493037,"zip":"9290224"},{"town":"平加町","koaza":"イ","lat":36.492074,"lng":136.491972,"zip":"9290204"},{"town":"平加町","koaza":"リ","lat":36.494896,"lng":136.492309,"zip":"9290204"},{"town":"長屋町","koaza":"ホ","lat":36.483716,"lng":136.494154,"zip":"9290214"},{"town":"長屋町","koaza":"ニ","lat":36.484144,"lng":136.495153,"zip":"9290214"},{"town":"平加町","koaza":"ハ","lat":36.490507,"lng":136.496389,"zip":"9290204"},{"town":"長屋町","koaza":"ハ","lat":36.485107,"lng":136.49596,"zip":"9290214"},{"town":"蓮池町","koaza":"オ","lat":36.501062,"lng":136.497631,"zip":"9290205"},{"town":"長屋町","koaza":"ロ","lat":36.487175,"lng":136.49561,"zip":"9290214"},{"town":"蓮池町","koaza":"エ","lat":36.500348,"lng":136.498025,"zip":"9290205"},{"town":"蓮池町","koaza":"カ","lat":36.502067,"lng":136.497093,"zip":"9290205"},{"town":"手取町","koaza":"キ","lat":36.487614,"lng":136.499287,"zip":"9290212"},{"town":"手取町","koaza":"ケ","lat":36.488935,"lng":136.49819,"zip":"9290212"},{"town":"長屋町","koaza":"イ","lat":36.485179,"lng":136.497558,"zip":"9290214"},{"town":"長屋町","koaza":"ト","lat":36.483453,"lng":136.497844,"zip":"9290214"},{"town":"手取町","koaza":"カ","lat":36.486477,"lng":136.500418,"zip":"9290212"},{"town":"平加町","koaza":"ニ","lat":36.492345,"lng":136.499535,"zip":"9290204"},{"town":"手取町","koaza":"コ","lat":36.490282,"lng":136.500285,"zip":"9290212"},{"town":"鹿島町","koaza":"ぬ","lat":36.503989,"lng":136.500617,"zip":"9290201"},{"town":"鹿島町","koaza":"リ","lat":36.502921,"lng":136.499586,"zip":"9290201"},{"town":"鹿島町","koaza":"一号","lat":36.505009,"lng":136.501859,"zip":"9290201"},{"town":"鹿島町","koaza":"ち","lat":36.502446,"lng":136.500637,"zip":"9290201"},{"town":"蓮池町","koaza":"ア","lat":36.500871,"lng":136.499613,"zip":"9290205"},{"town":"井関町","koaza":"ヌ","lat":36.490998,"lng":136.500956,"zip":"9290211"},{"town":"西米光町","koaza":"チ","lat":36.493643,"lng":136.502323,"zip":"9290202"},{"town":"西米光町","koaza":"ト","lat":36.494253,"lng":136.501485,"zip":"9290202"},{"town":"長屋町","koaza":"リ","lat":36.483446,"lng":136.5001,"zip":"9290214"},{"town":"手取町","koaza":"ス","lat":36.487142,"lng":136.502927,"zip":"9290212"},{"town":"手取町","koaza":"オ","lat":36.484068,"lng":136.502331,"zip":"9290212"},{"town":"鹿島町","koaza":"い","lat":36.503287,"lng":136.504202,"zip":"9290201"},{"town":"末正町","koaza":"ヘ","lat":36.483062,"lng":136.504275,"zip":"9290213"},{"town":"西米光町","koaza":"ロ","lat":36.495246,"lng":136.50394,"zip":"9290202"},{"town":"鹿島町","koaza":"ろ","lat":36.504998,"lng":136.50443,"zip":"9290201"},{"town":"手取町","koaza":"シ","lat":36.489371,"lng":136.503744,"zip":"9290212"},{"town":"手取町","koaza":"イ","lat":36.48796,"lng":136.504013,"zip":"9290212"},{"town":"鹿島町","koaza":"へ","lat":36.50106,"lng":136.505456,"zip":"9290201"},{"town":"井関町","koaza":"ト","lat":36.48982,"lng":136.504387,"zip":"9290211"},{"town":"手取町","koaza":"エ","lat":36.48399,"lng":136.50474,"zip":"9290212"},{"town":"末正町","koaza":"エ","lat":36.482702,"lng":136.505581,"zip":"9290213"},{"town":"西米光町","koaza":"リ","lat":36.494925,"lng":136.50525,"zip":"9290202"},{"town":"西米光町","koaza":"イ","lat":36.495267,"lng":136.505954,"zip":"9290202"},{"town":"末正町","koaza":"イ","lat":36.481963,"lng":136.507538,"zip":"9290213"},{"town":"末正町","koaza":"ト","lat":36.483554,"lng":136.504803,"zip":"9290213"},{"town":"鹿島町","koaza":"は","lat":36.506165,"lng":136.507591,"zip":"9290201"},{"town":"井関町","koaza":"ハ","lat":36.489038,"lng":136.509082,"zip":"9290211"},{"town":"鹿島町","koaza":"に","lat":36.502367,"lng":136.507715,"zip":"9290201"},{"town":"井関町","koaza":"ホ","lat":36.490401,"lng":136.508822,"zip":"9290211"},{"town":"井関町","koaza":"ニ","lat":36.490168,"lng":136.510398,"zip":"9290211"},{"town":"井関町","koaza":"イ","lat":36.489559,"lng":136.510807,"zip":"9290211"},{"town":"井関町","koaza":"ロ","lat":36.489269,"lng":136.511106,"zip":"9290211"},{"town":"中ノ郷町","koaza":"リ","lat":36.483277,"lng":136.582624,"zip":"9202147"},{"town":"中ノ郷町","koaza":"チ","lat":36.486962,"lng":136.583526,"zip":"9202147"},{"town":"大竹町","koaza":"ト","lat":36.469545,"lng":136.586503,"zip":"9202144"},{"town":"中ノ郷町","koaza":"イ","lat":36.48433,"lng":136.585779,"zip":"9202147"},{"town":"中ノ郷町","koaza":"ヘ","lat":36.4919,"lng":136.585762,"zip":"9202147"},{"town":"日向町","koaza":"ル","lat":36.478743,"lng":136.587662,"zip":"9202146"},{"town":"日向町","koaza":"ヌ","lat":36.482641,"lng":136.590567,"zip":"9202146"},{"town":"中ノ郷町","koaza":"ロ","lat":36.482608,"lng":136.588693,"zip":"9202147"},{"town":"中ノ郷町","koaza":"ハ","lat":36.483036,"lng":136.589336,"zip":"9202147"},{"town":"明法島町","koaza":"甲","lat":36.474164,"lng":136.590135,"zip":"9202145"},{"town":"行町","koaza":"西","lat":36.488746,"lng":136.590462,"zip":"9202148"},{"town":"大竹町","koaza":"ハ","lat":36.470934,"lng":136.590545,"zip":"9202144"},{"town":"大竹町","koaza":"ロ","lat":36.467896,"lng":136.593532,"zip":"9202144"},{"town":"行町","koaza":"北","lat":36.488992,"lng":136.591824,"zip":"9202148"},{"town":"大竹町","koaza":"イ","lat":36.471681,"lng":136.592328,"zip":"9202144"},{"town":"安養寺町","koaza":"ニ","lat":36.495422,"lng":136.592209,"zip":"9202141"},{"town":"行町","koaza":"イ","lat":36.485658,"lng":136.591947,"zip":"9202148"},{"town":"日向町","koaza":"和","lat":36.477876,"lng":136.594161,"zip":"9202146"},{"town":"明法島町","koaza":"丁","lat":36.47441,"lng":136.593037,"zip":"9202145"},{"town":"行町","koaza":"ホ","lat":36.485099,"lng":136.592897,"zip":"9202148"},{"town":"森島町","koaza":"い","lat":36.471155,"lng":136.597053,"zip":"9202131"},{"town":"行町","koaza":"南","lat":36.483364,"lng":136.592811,"zip":"9202148"},{"town":"安養寺町","koaza":"ト","lat":36.499321,"lng":136.59727,"zip":"9202141"},{"town":"安養寺町","koaza":"イ","lat":36.493811,"lng":136.595027,"zip":"9202141"},{"town":"森島町","koaza":"う","lat":36.467767,"lng":136.597983,"zip":"9202131"},{"town":"安養寺町","koaza":"ハ","lat":36.49138,"lng":136.594396,"zip":"9202141"},{"town":"日向町","koaza":"イ","lat":36.481295,"lng":136.594323,"zip":"9202146"},{"town":"七原町","koaza":"ロ","lat":36.487045,"lng":136.597192,"zip":"9202143"},{"town":"安養寺町","koaza":"ロ","lat":36.491666,"lng":136.595763,"zip":"9202141"},{"town":"日向町","koaza":"ニ","lat":36.476665,"lng":136.5963,"zip":"9202146"},{"town":"日向町","koaza":"ロ","lat":36.483076,"lng":136.596397,"zip":"9202146"},{"town":"日向町","koaza":"ヘ","lat":36.474433,"lng":136.595907,"zip":"9202146"},{"town":"安養寺町","koaza":"ヘ","lat":36.495519,"lng":136.596392,"zip":"9202141"},{"town":"日向町","koaza":"ホ","lat":36.474553,"lng":136.598357,"zip":"9202146"},{"town":"森島町","koaza":"以","lat":36.468829,"lng":136.596287,"zip":"9202131"},{"town":"森島町","koaza":"あ","lat":36.471562,"lng":136.599692,"zip":"9202131"},{"town":"森島町","koaza":"知","lat":36.468494,"lng":136.598165,"zip":"9202131"},{"town":"七原町","koaza":"イ","lat":36.486304,"lng":136.598151,"zip":"9202143"},{"town":"七原町","koaza":"チ","lat":36.480873,"lng":136.598937,"zip":"9202143"},{"town":"森島町","koaza":"奴","lat":36.469076,"lng":136.597983,"zip":"9202131"},{"town":"部入道町","koaza":"ヌ","lat":36.497416,"lng":136.598762,"zip":"9202167"},{"town":"柴木町","koaza":"丙","lat":36.493669,"lng":136.599884,"zip":"9202163"},{"town":"七原町","koaza":"リ","lat":36.479682,"lng":136.599656,"zip":"9202143"},{"town":"柴木町","koaza":"丁","lat":36.491341,"lng":136.599141,"zip":"9202163"},{"town":"七原町","koaza":"ト","lat":36.486469,"lng":136.598959,"zip":"9202143"},{"town":"知気寺町","koaza":"り","lat":36.487602,"lng":136.600475,"zip":"9202155"},{"town":"知気寺町","koaza":"に","lat":36.481899,"lng":136.601016,"zip":"9202155"},{"town":"七原町","koaza":"ヌ","lat":36.476753,"lng":136.600512,"zip":"9202143"},{"town":"知気寺町","koaza":"は","lat":36.480319,"lng":136.600878,"zip":"9202155"},{"town":"森島町","koaza":"利","lat":36.467549,"lng":136.601169,"zip":"9202131"},{"town":"井口町","koaza":"ろ","lat":36.47681,"lng":136.602485,"zip":"9202154"},{"town":"柴木町","koaza":"乙","lat":36.494196,"lng":136.603333,"zip":"9202163"},{"town":"明島町","koaza":"西","lat":36.465347,"lng":136.60473,"zip":"9202132"},{"town":"井口町","koaza":"に","lat":36.472132,"lng":136.603168,"zip":"9202154"},{"town":"柴木町","koaza":"甲","lat":36.49152,"lng":136.602107,"zip":"9202163"},{"town":"知気寺町","koaza":"ほ","lat":36.48099,"lng":136.603266,"zip":"9202155"},{"town":"井口町","koaza":"南","lat":36.474776,"lng":136.60379,"zip":"9202154"},{"town":"井口町","koaza":"北","lat":36.475537,"lng":136.603858,"zip":"9202154"},{"town":"知気寺町","koaza":"と","lat":36.487323,"lng":136.602746,"zip":"9202155"},{"town":"明島町","koaza":"山","lat":36.458206,"lng":136.608978,"zip":"9202132"},{"town":"井口町","koaza":"い","lat":36.476007,"lng":136.603442,"zip":"9202154"},{"town":"知気寺町","koaza":"へ","lat":36.48249,"lng":136.60586,"zip":"9202155"},{"town":"部入道町","koaza":"チ","lat":36.496196,"lng":136.604394,"zip":"9202167"},{"town":"明島町","koaza":"ヤ","lat":36.459508,"lng":136.605574,"zip":"9202132"},{"town":"部入道町","koaza":"ル","lat":36.496904,"lng":136.604124,"zip":"9202167"},{"town":"部入道町","koaza":"ヘ","lat":36.490828,"lng":136.605412,"zip":"9202167"},{"town":"荒屋町","koaza":"と","lat":36.489122,"lng":136.606841,"zip":"9202151"},{"town":"部入道町","koaza":"ロ","lat":36.497683,"lng":136.606438,"zip":"9202167"},{"town":"知気寺町","koaza":"ぬ","lat":36.48748,"lng":136.605082,"zip":"9202155"},{"town":"明島町","koaza":"タ","lat":36.465233,"lng":136.606065,"zip":"9202132"},{"town":"部入道町","koaza":"ト","lat":36.493645,"lng":136.605382,"zip":"9202167"},{"town":"部入道町","koaza":"ホ","lat":36.492071,"lng":136.606795,"zip":"9202167"},{"town":"部入道町","koaza":"ハ","lat":36.496408,"lng":136.605784,"zip":"9202167"},{"town":"井口町","koaza":"は","lat":36.474748,"lng":136.606491,"zip":"9202154"},{"town":"荒屋町","koaza":"に","lat":36.482355,"lng":136.607523,"zip":"9202151"},{"town":"明島町","koaza":"中","lat":36.463399,"lng":136.610155,"zip":"9202132"},{"town":"知気寺町","koaza":"い","lat":36.478825,"lng":136.607573,"zip":"9202155"},{"town":"道法寺町","koaza":"ロ","lat":36.489164,"lng":136.609843,"zip":"9202162"},{"town":"明島町","koaza":"ウ","lat":36.459715,"lng":136.606999,"zip":"9202132"},{"town":"部入道町","koaza":"イ","lat":36.498322,"lng":136.607529,"zip":"9202167"},{"town":"日御子町","koaza":"イ","lat":36.471319,"lng":136.608057,"zip":"9202153"},{"town":"明島町","koaza":"ム","lat":36.460306,"lng":136.607905,"zip":"9202132"},{"town":"日御子町","koaza":"ハ","lat":36.469852,"lng":136.60918,"zip":"9202153"},{"town":"荒屋町","koaza":"ほ","lat":36.483739,"lng":136.608626,"zip":"9202151"},{"town":"明島町","koaza":"ヨ","lat":36.463317,"lng":136.608698,"zip":"9202132"},{"town":"荒屋町","koaza":"は","lat":36.480928,"lng":136.609311,"zip":"9202151"},{"town":"熱野町","koaza":"ニ","lat":36.494742,"lng":136.609888,"zip":"9202161"},{"town":"熱野町","koaza":"ロ","lat":36.4917,"lng":136.610273,"zip":"9202161"},{"town":"日御子町","koaza":"ロ","lat":36.471194,"lng":136.60964,"zip":"9202153"},{"town":"道法寺町","koaza":"ハ","lat":36.485667,"lng":136.61252,"zip":"9202162"},{"town":"日御子町","koaza":"ニ","lat":36.467148,"lng":136.610762,"zip":"9202153"},{"town":"道法寺町","koaza":"ト","lat":36.483149,"lng":136.61086,"zip":"9202162"},{"town":"道法寺町","koaza":"レ","lat":36.480992,"lng":136.611107,"zip":"9202162"},{"town":"道法寺町","koaza":"ヘ","lat":36.482304,"lng":136.611737,"zip":"9202162"},{"town":"道法寺町","koaza":"ニ","lat":36.48716,"lng":136.612134,"zip":"9202162"},{"town":"熱野町","koaza":"ハ","lat":36.494451,"lng":136.611696,"zip":"9202161"},{"town":"道法寺町","koaza":"ホ","lat":36.484649,"lng":136.612705,"zip":"9202162"},{"town":"小柳町","koaza":"ろ","lat":36.470565,"lng":136.616912,"zip":"9202103"},{"town":"道法寺町","koaza":"イ","lat":36.488635,"lng":136.612545,"zip":"9202162"},{"town":"小柳町","koaza":"ホ","lat":36.471845,"lng":136.613636,"zip":"9202103"},{"town":"熱野町","koaza":"甲","lat":36.492953,"lng":136.612434,"zip":"9202161"},{"town":"熱野町","koaza":"イ","lat":36.491772,"lng":136.612876,"zip":"9202161"},{"town":"明島町","koaza":"リ","lat":36.462877,"lng":136.612851,"zip":"9202132"},{"town":"明島町","koaza":"春","lat":36.461073,"lng":136.612899,"zip":"9202132"},{"town":"日御子町","koaza":"ホ","lat":36.464646,"lng":136.614661,"zip":"9202153"},{"town":"明島町","koaza":"ヌ","lat":36.462572,"lng":136.613001,"zip":"9202132"},{"town":"道法寺町","koaza":"ソ","lat":36.479344,"lng":136.612988,"zip":"9202162"},{"town":"熱野町","koaza":"丙","lat":36.493278,"lng":136.612527,"zip":"9202161"},{"town":"道法寺町","koaza":"ツ","lat":36.476951,"lng":136.61376,"zip":"9202162"},{"town":"坂尻町","koaza":"ロ","lat":36.483971,"lng":136.614512,"zip":"9202102"},{"town":"坂尻町","koaza":"ヘ","lat":36.482917,"lng":136.614918,"zip":"9202102"},{"town":"坂尻町","koaza":"イ","lat":36.476915,"lng":136.615219,"zip":"9202102"},{"town":"曽谷町","koaza":"ニ","lat":36.488492,"lng":136.615069,"zip":"9202101"},{"town":"曽谷町","koaza":"ハ","lat":36.489824,"lng":136.615295,"zip":"9202101"},{"town":"坂尻町","koaza":"ホ","lat":36.484374,"lng":136.616773,"zip":"9202102"},{"town":"坂尻町","koaza":"ハ","lat":36.485905,"lng":136.616345,"zip":"9202102"},{"town":"坂尻町","koaza":"ヌ","lat":36.482708,"lng":136.615952,"zip":"9202102"},{"town":"坂尻町","koaza":"ル","lat":36.481143,"lng":136.620684,"zip":"9202102"},{"town":"曽谷町","koaza":"イ","lat":36.490155,"lng":136.617433,"zip":"9202101"},{"town":"坂尻町","koaza":"ト","lat":36.477745,"lng":136.616182,"zip":"9202102"},{"town":"小柳町","koaza":"ト","lat":36.47371,"lng":136.61626,"zip":"9202103"},{"town":"小柳町","koaza":"ヘ","lat":36.472414,"lng":136.616703,"zip":"9202103"},{"town":"曽谷町","koaza":"ロ","lat":36.490857,"lng":136.618488,"zip":"9202101"},{"town":"月橋町","koaza":"チ","lat":36.469361,"lng":136.618371,"zip":"9202104"},{"town":"鶴来大国町","koaza":"ロ","lat":36.454587,"lng":136.619449,"zip":"9202133"},{"town":"月橋町","koaza":"ト","lat":36.467884,"lng":136.618638,"zip":"9202104"},{"town":"曽谷町","koaza":"チ","lat":36.493466,"lng":136.619057,"zip":"9202101"},{"town":"曽谷町","koaza":"ホ","lat":36.489575,"lng":136.618599,"zip":"9202101"},{"town":"鶴来大国町","koaza":"西","lat":36.451889,"lng":136.621644,"zip":"9202133"},{"town":"月橋町","koaza":"ニ","lat":36.460258,"lng":136.621004,"zip":"9202104"},{"town":"月橋町","koaza":"リ","lat":36.464713,"lng":136.622797,"zip":"9202104"},{"town":"月橋町","koaza":"ヌ","lat":36.461852,"lng":136.622757,"zip":"9202104"},{"town":"月橋町","koaza":"ル","lat":36.460094,"lng":136.623782,"zip":"9202104"},{"town":"鶴来大国町","koaza":"ホ","lat":36.450582,"lng":136.621809,"zip":"9202133"},{"town":"鶴来大国町","koaza":"ヘ","lat":36.449956,"lng":136.624096,"zip":"9202133"},{"town":"鶴来大国町","koaza":"マ","lat":36.448906,"lng":136.624457,"zip":"9202133"},{"town":"鶴来水戸町","koaza":"ヤ","lat":36.446708,"lng":136.624554,"zip":"9202134"},{"town":"鶴来水戸町","koaza":"ネ","lat":36.444114,"lng":136.626765,"zip":"9202134"},{"town":"鶴来古町","koaza":"ヲ","lat":36.44922,"lng":136.625641,"zip":"9202129"},{"town":"鶴来古町","koaza":"ワ","lat":36.447942,"lng":136.625739,"zip":"9202129"},{"town":"鶴来古町","koaza":"ツ","lat":36.446169,"lng":136.626165,"zip":"9202129"},{"town":"鶴来知守町","koaza":"ヌ","lat":36.452031,"lng":136.626764,"zip":"9202122"},{"town":"鶴来知守町","koaza":"ル","lat":36.450312,"lng":136.627799,"zip":"9202122"},{"town":"鶴来下東町","koaza":"ル","lat":36.449298,"lng":136.627294,"zip":"9202128"},{"town":"鶴来下東町","koaza":"カ","lat":36.448378,"lng":136.627668,"zip":"9202128"},{"town":"鶴来新町","koaza":"ソ","lat":36.444883,"lng":136.628529,"zip":"9202126"},{"town":"鶴来新町","koaza":"ツ","lat":36.444134,"lng":136.628264,"zip":"9202126"},{"town":"鶴来知守町","koaza":"カ","lat":36.44931,"lng":136.62812,"zip":"9202122"},{"town":"鶴来上東町","koaza":"カ","lat":36.447169,"lng":136.628636,"zip":"9202127"},{"town":"鶴来新町","koaza":"レ","lat":36.445254,"lng":136.629073,"zip":"9202126"},{"town":"鶴来日詰町","koaza":"カ","lat":36.448886,"lng":136.62846,"zip":"9202123"},{"town":"鶴来清沢町","koaza":"ヨ","lat":36.44747,"lng":136.629727,"zip":"9202124"},{"town":"鶴来上東町","koaza":"ヨ","lat":36.447599,"lng":136.629188,"zip":"9202127"},{"town":"鶴来今町","koaza":"ツ","lat":36.442349,"lng":136.629977,"zip":"9202125"},{"town":"鶴来新町","koaza":"タ","lat":36.445554,"lng":136.630481,"zip":"9202126"},{"town":"鶴来今町","koaza":"レ","lat":36.442428,"lng":136.630466,"zip":"9202125"},{"town":"鶴来今町","koaza":"タ","lat":36.443083,"lng":136.630829,"zip":"9202125"},{"town":"鶴来清沢町","koaza":"タ","lat":36.446201,"lng":136.630426,"zip":"9202124"},{"town":"白山町","koaza":"タ","lat":36.432395,"lng":136.632981,"zip":"9202115"},{"town":"鶴来日吉町","koaza":"ハ","lat":36.446011,"lng":136.63399,"zip":"9202112"},{"town":"白山町","koaza":"へ","lat":36.423531,"lng":136.632439,"zip":"9202115"},{"town":"鶴来日吉町","koaza":"イ","lat":36.446628,"lng":136.631418,"zip":"9202112"},{"town":"白山町","koaza":"レ","lat":36.437455,"lng":136.633947,"zip":"9202115"},{"town":"白山町","koaza":"ロ","lat":36.429302,"lng":136.632924,"zip":"9202115"},{"town":"白山町","koaza":"ヨ","lat":36.430256,"lng":136.634108,"zip":"9202115"},{"town":"白山町","koaza":"カ","lat":36.428556,"lng":136.634126,"zip":"9202115"},{"town":"鶴来日吉町","koaza":"ロ","lat":36.445358,"lng":136.635559,"zip":"9202112"},{"town":"白山町","koaza":"開","lat":36.427168,"lng":136.634271,"zip":"9202115"},{"town":"白山町","koaza":"ソ","lat":36.433214,"lng":136.634531,"zip":"9202115"},{"town":"八幡町","koaza":"イ","lat":36.441559,"lng":136.634711,"zip":"9202113"},{"town":"鶴来日吉町","koaza":"ニ","lat":36.446317,"lng":136.63713,"zip":"9202112"},{"town":"白山町","koaza":"子","lat":36.429383,"lng":136.635243,"zip":"9202115"},{"town":"八幡町","koaza":"ヲ","lat":36.439861,"lng":136.63593,"zip":"9202113"},{"town":"八幡町","koaza":"ル","lat":36.437945,"lng":136.63717,"zip":"9202113"},{"town":"八幡町","koaza":"ワ","lat":36.441062,"lng":136.637667,"zip":"9202113"},{"town":"三宮町","koaza":"イ","lat":36.435778,"lng":136.637995,"zip":"9202114"},{"town":"三宮町","koaza":"ホ","lat":36.434077,"lng":136.63983,"zip":"9202114"},{"town":"三宮町","koaza":"ニ","lat":36.435133,"lng":136.638254,"zip":"9202114"},{"town":"八幡町","koaza":"リ","lat":36.439336,"lng":136.639098,"zip":"9202113"},{"town":"八幡町","koaza":"ヌ","lat":36.437187,"lng":136.640503,"zip":"9202113"},{"town":"美川浜町","koaza":"タ","lat":36.48901,"lng":136.492245,"zip":"9290233"},{"town":"美川神幸町","koaza":"タ","lat":36.488278,"lng":136.490219,"zip":"9290234"},{"town":"行町","koaza":"東","lat":36.48344,"lng":136.593915,"zip":"9202148"},{"town":"日御子町","koaza":"ヘ","lat":36.463658,"lng":136.616095,"zip":"9202153"},{"town":"平加町","koaza":"ヘ","lat":36.496008,"lng":136.495236,"zip":"9290204"},{"town":"平加町","koaza":"チ","lat":36.496622,"lng":136.494069,"zip":"9290204"},{"town":"平加町","koaza":"ホ","lat":36.493737,"lng":136.492471,"zip":"9290204"},{"town":"平加町","koaza":"ル","lat":36.492276,"lng":136.48991,"zip":"9290204"},{"town":"美川和波町","koaza":"ワ","lat":36.490467,"lng":136.484248,"zip":"9290231"},{"town":"蓮池町","koaza":"ホ","lat":36.500887,"lng":136.498197,"zip":"9290205"},{"town":"井関町","koaza":"ヘ","lat":36.48988,"lng":136.508276,"zip":"9290211"},{"town":"手取町","koaza":"ウ","lat":36.486754,"lng":136.505389,"zip":"9290212"},{"town":"手取町","koaza":"サ","lat":36.488757,"lng":136.501641,"zip":"9290212"},{"town":"手取町","koaza":"ク","lat":36.488076,"lng":136.497825,"zip":"9290212"},{"town":"美川南町","koaza":"ヘ","lat":36.485546,"lng":136.486958,"zip":"9290215"},{"town":"美川南町","koaza":"ロ","lat":36.485152,"lng":136.487665,"zip":"9290215"},{"town":"美川南町","koaza":"ト","lat":36.485264,"lng":136.487122,"zip":"9290215"},{"town":"湊町","koaza":"ラ","lat":36.467074,"lng":136.472502,"zip":"9290217"},{"town":"湊町","koaza":"子","lat":36.472844,"lng":136.469397,"zip":"9290217"},{"town":"湊町","koaza":"丙","lat":36.471632,"lng":136.471547,"zip":"9290217"},{"town":"湊町","koaza":"ワ","lat":36.476287,"lng":136.478864,"zip":"9290217"},{"town":"湊町","koaza":"タ","lat":36.482314,"lng":136.479037,"zip":"9290217"},{"town":"美川中町","koaza":"ヘ","lat":36.486051,"lng":136.487512,"zip":"9290224"},{"town":"美川中町","koaza":"ニ","lat":36.486504,"lng":136.490394,"zip":"9290224"},{"town":"美川中町","koaza":"レ","lat":36.486731,"lng":136.489918,"zip":"9290224"},{"town":"白山町","koaza":"ヲ","lat":36.428583,"lng":136.635371,"zip":"9202115"},{"town":"八幡町","koaza":"亥","lat":36.44187,"lng":136.632211,"zip":"9202113"},{"town":"八幡町","koaza":"戌","lat":36.444161,"lng":136.632647,"zip":"9202113"},{"town":"鶴来今町","koaza":"ソ","lat":36.443734,"lng":136.629645,"zip":"9202125"},{"town":"長屋町","koaza":"ル","lat":36.483562,"lng":136.496422,"zip":"9290214"},{"town":"曽谷町","koaza":"カ","lat":36.484023,"lng":136.631732,"zip":"9202101"},{"town":"曽谷町","koaza":"ヘ","lat":36.490511,"lng":136.619521,"zip":"9202101"},{"town":"曽谷町","koaza":"ソ","lat":36.49317,"lng":136.620511,"zip":"9202101"},{"town":"坂尻町","koaza":"ニ","lat":36.486515,"lng":136.620277,"zip":"9202102"},{"town":"小柳町","koaza":"ヌ","lat":36.476283,"lng":136.616068,"zip":"9202103"},{"town":"鶴来水戸町","koaza":"ノ","lat":36.44807,"lng":136.622344,"zip":"9202134"},{"town":"七原町","koaza":"ホ","lat":36.486939,"lng":136.596779,"zip":"9202143"},{"town":"知気寺町","koaza":"ち","lat":36.485363,"lng":136.600095,"zip":"9202155"},{"town":"森島町","koaza":"和","lat":36.471036,"lng":136.597971,"zip":"9202131"},{"town":"鶴来古町","koaza":"ヤ","lat":36.447155,"lng":136.625591,"zip":"9202129"},{"town":"鶴来日詰町","koaza":"ヨ","lat":36.448575,"lng":136.629755,"zip":"9202123"},{"town":"鶴来日詰町","koaza":"午","lat":36.44949,"lng":136.630362,"zip":"9202123"},{"town":"鶴来知守町","koaza":"ケ","lat":36.450949,"lng":136.628148,"zip":"9202122"},{"town":"鶴来日詰町","koaza":"巳","lat":36.451164,"lng":136.631875,"zip":"9202123"},{"town":"日向町","koaza":"ト","lat":36.476998,"lng":136.594181,"zip":"9202146"},{"town":"曽谷町","koaza":"ト","lat":36.493724,"lng":136.620637,"zip":"9202101"},{"town":"鶴来大国町","koaza":"ニ","lat":36.452956,"lng":136.622965,"zip":"9202133"},{"town":"鶴来大国町","koaza":"ク","lat":36.448877,"lng":136.623272,"zip":"9202133"},{"town":"鶴来水戸町","koaza":"ク","lat":36.448478,"lng":136.62269,"zip":"9202134"}]