[{"town":"粟生町","koaza":"","lat":36.878001,"lng":136.772127,"zip":"9250045"},{"town":"旭町","koaza":"","lat":36.894578,"lng":136.778914,"zip":"9250034"},{"town":"粟原町","koaza":"","lat":36.87698,"lng":136.784562,"zip":"9250043"},{"town":"石野町","koaza":"","lat":36.89345,"lng":136.799034,"zip":"9250026"},{"town":"一ノ宮町","koaza":"","lat":36.927569,"lng":136.760359,"zip":"9250004"},{"town":"飯山町","koaza":"","lat":36.901962,"lng":136.827902,"zip":"9250613"},{"town":"宇土野町","koaza":"","lat":36.892827,"lng":136.826526,"zip":"9250605"},{"town":"上江町","koaza":"","lat":36.909841,"lng":136.82083,"zip":"9250611"},{"town":"大川町","koaza":"","lat":36.903928,"lng":136.773825,"zip":"9250015"},{"town":"大川町一丁目","koaza":"","lat":36.902764,"lng":136.778629,"zip":"9250015"},{"town":"大川町二丁目","koaza":"","lat":36.903504,"lng":136.77759,"zip":"9250015"},{"town":"太田町","koaza":"","lat":36.892049,"lng":136.807119,"zip":"9250025"},{"town":"大町","koaza":"","lat":36.927417,"lng":136.8698,"zip":"9250072"},{"town":"尾長町","koaza":"","lat":36.914491,"lng":136.824687,"zip":"9250625"},{"town":"垣内田町","koaza":"","lat":36.902345,"lng":136.821479,"zip":"9250612"},{"town":"鹿島路町","koaza":"","lat":36.937661,"lng":136.81438,"zip":"9250076"},{"town":"金丸出町","koaza":"","lat":36.936866,"lng":136.836832,"zip":"9250075"},{"town":"釜屋町","koaza":"","lat":36.906745,"lng":136.779623,"zip":"9250014"},{"town":"上白瀬町","koaza":"","lat":36.897788,"lng":136.841705,"zip":"9250607"},{"town":"上中山町","koaza":"","lat":36.946298,"lng":136.801317,"zip":"9250011"},{"town":"川原町","koaza":"","lat":36.895261,"lng":136.782056,"zip":"9250033"},{"town":"御坊山町","koaza":"","lat":36.891701,"lng":136.78324,"zip":"9250047"},{"town":"酒井町","koaza":"","lat":36.919538,"lng":136.854526,"zip":"9250074"},{"town":"寺家町","koaza":"","lat":36.922805,"lng":136.772465,"zip":"9250003"},{"town":"志々見町","koaza":"","lat":36.910502,"lng":136.82914,"zip":"9250624"},{"town":"四町","koaza":"","lat":36.901414,"lng":136.811317,"zip":"9250616"},{"town":"柴垣町","koaza":"","lat":36.949408,"lng":136.770506,"zip":"9250001"},{"town":"島出町","koaza":"","lat":36.900046,"lng":136.770586,"zip":"9250051"},{"town":"下曽祢町","koaza":"","lat":36.94196,"lng":136.847008,"zip":"9250071"},{"town":"白石町","koaza":"","lat":36.891111,"lng":136.833603,"zip":"9250604"},{"town":"白瀬町","koaza":"","lat":36.896319,"lng":136.830001,"zip":"9250606"},{"town":"新保町","koaza":"","lat":36.869698,"lng":136.77154,"zip":"9250044"},{"town":"菅池町","koaza":"","lat":36.877188,"lng":136.874759,"zip":"9250601"},{"town":"次場町","koaza":"","lat":36.904406,"lng":136.794632,"zip":"9250028"},{"town":"千石町","koaza":"","lat":36.877773,"lng":136.859472,"zip":"9250602"},{"town":"千田町","koaza":"","lat":36.91428,"lng":136.81585,"zip":"9250626"},{"town":"滝谷町","koaza":"","lat":36.955394,"lng":136.777081,"zip":"9250002"},{"town":"滝町","koaza":"","lat":36.931236,"lng":136.755098,"zip":"9250005"},{"town":"千路町","koaza":"","lat":36.927838,"lng":136.798817,"zip":"9250012"},{"town":"中央町","koaza":"","lat":36.894228,"lng":136.7763,"zip":"9250052"},{"town":"千代町","koaza":"","lat":36.899381,"lng":136.818351,"zip":"9250615"},{"town":"千里浜町","koaza":"","lat":36.890596,"lng":136.76974,"zip":"9250054"},{"town":"土橋町","koaza":"","lat":36.881088,"lng":136.788939,"zip":"9250042"},{"town":"円井町","koaza":"","lat":36.912099,"lng":136.809225,"zip":"9250617"},{"town":"鶴多町","koaza":"","lat":36.899687,"lng":136.789822,"zip":"9250027"},{"town":"中川町","koaza":"","lat":36.891339,"lng":136.817394,"zip":"9250614"},{"town":"西潟町","koaza":"","lat":36.928648,"lng":136.817145,"zip":"9250000"},{"town":"西釜屋町","koaza":"","lat":36.908729,"lng":136.774583,"zip":"9250017"},{"town":"羽咋町","koaza":"","lat":36.906774,"lng":136.769156,"zip":"9250016"},{"town":"東潟町","koaza":"","lat":36.930298,"lng":136.832845,"zip":"9250077"},{"town":"東釜屋町","koaza":"","lat":36.908751,"lng":136.786841,"zip":"9250013"},{"town":"東川原町","koaza":"","lat":36.896106,"lng":136.786544,"zip":"9250032"},{"town":"東的場町","koaza":"","lat":36.90006,"lng":136.785264,"zip":"9250031"},{"town":"菱分町","koaza":"","lat":36.922507,"lng":136.835129,"zip":"9250621"},{"town":"兵庫町","koaza":"","lat":36.883454,"lng":136.779929,"zip":"9250046"},{"town":"深江町","koaza":"","lat":36.901609,"lng":136.80272,"zip":"9250022"},{"town":"福水町","koaza":"","lat":36.880358,"lng":136.837745,"zip":"9250603"},{"town":"堀替新町","koaza":"","lat":36.917121,"lng":136.833343,"zip":"9250622"},{"town":"本江町","koaza":"","lat":36.909154,"lng":136.842744,"zip":"9250623"},{"town":"本町","koaza":"","lat":36.898371,"lng":136.77737,"zip":"9250035"},{"town":"松ケ下町","koaza":"","lat":36.891094,"lng":136.785366,"zip":"9250048"},{"town":"的場町","koaza":"","lat":36.90016,"lng":136.78119,"zip":"9250036"},{"town":"神子原町","koaza":"","lat":36.897955,"lng":136.866304,"zip":"9250608"},{"town":"三ツ屋町","koaza":"","lat":36.897414,"lng":136.806426,"zip":"9250024"},{"town":"南潟町","koaza":"","lat":36.922394,"lng":136.818396,"zip":"9250000"},{"town":"南中央町","koaza":"","lat":36.890547,"lng":136.778396,"zip":"9250053"},{"town":"柳田町","koaza":"","lat":36.925157,"lng":136.784106,"zip":"9250018"},{"town":"柳橋町","koaza":"","lat":36.89139,"lng":136.788705,"zip":"9250049"},{"town":"吉崎町","koaza":"","lat":36.911896,"lng":136.799851,"zip":"9250021"},{"town":"四柳町","koaza":"","lat":36.925471,"lng":136.86003,"zip":"9250073"},{"town":"立開町","koaza":"","lat":36.889538,"lng":136.793843,"zip":"9250041"},{"town":"若草町","koaza":"","lat":36.896698,"lng":136.79814,"zip":"9250023"},{"town":"千里浜町","koaza":"タ","lat":36.89369,"lng":136.769805,"zip":"9250054"},{"town":"粟生町","koaza":"シ","lat":36.88114,"lng":136.768927,"zip":"9250045"},{"town":"粟生町","koaza":"ユ","lat":36.878038,"lng":136.772062,"zip":"9250045"},{"town":"千里浜町","koaza":"ソ","lat":36.896823,"lng":136.769998,"zip":"9250054"},{"town":"島出町","koaza":"上","lat":36.899844,"lng":136.7715,"zip":"9250051"},{"town":"寺家町","koaza":"カ","lat":36.917603,"lng":136.770755,"zip":"9250003"},{"town":"羽咋町","koaza":"オ","lat":36.912958,"lng":136.770104,"zip":"9250016"},{"town":"寺家町","koaza":"ワ","lat":36.918928,"lng":136.771171,"zip":"9250003"},{"town":"寺家町","koaza":"タ","lat":36.916127,"lng":136.772102,"zip":"9250003"},{"town":"西釜屋町","koaza":"ク","lat":36.908804,"lng":136.774979,"zip":"9250017"},{"town":"千里浜町","koaza":"リ","lat":36.891828,"lng":136.77134,"zip":"9250054"},{"town":"粟生町","koaza":"キ","lat":36.881017,"lng":136.775752,"zip":"9250045"},{"town":"千里浜町","koaza":"ワ","lat":36.885586,"lng":136.773068,"zip":"9250054"},{"town":"千里浜町","koaza":"ハ","lat":36.896858,"lng":136.772104,"zip":"9250054"},{"town":"千里浜町","koaza":"ニ","lat":36.893728,"lng":136.771048,"zip":"9250054"},{"town":"寺家町","koaza":"レ","lat":36.919603,"lng":136.773229,"zip":"9250003"},{"town":"千里浜町","koaza":"ロ","lat":36.894711,"lng":136.774325,"zip":"9250054"},{"town":"兵庫町","koaza":"申","lat":36.882813,"lng":136.775597,"zip":"9250046"},{"town":"大川町","koaza":"ク","lat":36.905418,"lng":136.774369,"zip":"9250015"},{"town":"島出町","koaza":"フ","lat":36.898626,"lng":136.774579,"zip":"9250051"},{"town":"千里浜町","koaza":"ヘ","lat":36.892055,"lng":136.773885,"zip":"9250054"},{"town":"兵庫町","koaza":"酉","lat":36.886075,"lng":136.775133,"zip":"9250046"},{"town":"千里浜町","koaza":"ト","lat":36.889727,"lng":136.774365,"zip":"9250054"},{"town":"千里浜町","koaza":"イ","lat":36.89337,"lng":136.774628,"zip":"9250054"},{"town":"大川町","koaza":"ヤ","lat":36.902955,"lng":136.774681,"zip":"9250015"},{"town":"中央町","koaza":"サ","lat":36.895068,"lng":136.776291,"zip":"9250052"},{"town":"中央町","koaza":"フ","lat":36.897207,"lng":136.774859,"zip":"9250052"},{"town":"南中央町","koaza":"キ","lat":36.890542,"lng":136.777291,"zip":"9250053"},{"town":"兵庫町","koaza":"レ","lat":36.884111,"lng":136.77561,"zip":"9250046"},{"town":"西釜屋町","koaza":"ヰ","lat":36.90695,"lng":136.776119,"zip":"9250017"},{"town":"中央町","koaza":"キ","lat":36.892357,"lng":136.77713,"zip":"9250052"},{"town":"兵庫町","koaza":"巳","lat":36.888537,"lng":136.77871,"zip":"9250046"},{"town":"島出町","koaza":"コ","lat":36.89865,"lng":136.775847,"zip":"9250051"},{"town":"柳田町","koaza":"ヘ","lat":36.920488,"lng":136.776492,"zip":"9250018"},{"town":"西釜屋町","koaza":"ノ","lat":36.909373,"lng":136.776456,"zip":"9250017"},{"town":"中央町","koaza":"コ","lat":36.896899,"lng":136.776239,"zip":"9250052"},{"town":"本町","koaza":"コ","lat":36.898143,"lng":136.777271,"zip":"9250035"},{"town":"本町","koaza":"マ","lat":36.899843,"lng":136.777578,"zip":"9250035"},{"town":"中央町","koaza":"ア","lat":36.89483,"lng":136.777128,"zip":"9250052"},{"town":"旭町","koaza":"コ","lat":36.896692,"lng":136.777923,"zip":"9250034"},{"town":"旭町","koaza":"ア","lat":36.895155,"lng":136.778337,"zip":"9250034"},{"town":"兵庫町","koaza":"タ","lat":36.882002,"lng":136.778623,"zip":"9250046"},{"town":"釜屋町","koaza":"ヰ","lat":36.90653,"lng":136.777885,"zip":"9250014"},{"town":"兵庫町","koaza":"午","lat":36.885145,"lng":136.777943,"zip":"9250046"},{"town":"兵庫町","koaza":"未","lat":36.882802,"lng":136.778879,"zip":"9250046"},{"town":"粟生町","koaza":"ヌ","lat":36.878974,"lng":136.777795,"zip":"9250045"},{"town":"釜屋町","koaza":"イ","lat":36.908452,"lng":136.778062,"zip":"9250014"},{"town":"釜屋町","koaza":"ノ","lat":36.90898,"lng":136.779095,"zip":"9250014"},{"town":"本町","koaza":"エ","lat":36.897492,"lng":136.778793,"zip":"9250035"},{"town":"中央町","koaza":"ユ","lat":36.892545,"lng":136.778174,"zip":"9250052"},{"town":"的場町","koaza":"松崎","lat":36.900832,"lng":136.779952,"zip":"9250036"},{"town":"旭町","koaza":"ユ","lat":36.892615,"lng":136.779746,"zip":"9250034"},{"town":"粟生町","koaza":"ハ","lat":36.878394,"lng":136.778877,"zip":"9250045"},{"town":"旭町","koaza":"エ","lat":36.89672,"lng":136.779109,"zip":"9250034"},{"town":"粟生町","koaza":"ル","lat":36.881318,"lng":136.779659,"zip":"9250045"},{"town":"釜屋町","koaza":"ウ","lat":36.904816,"lng":136.780883,"zip":"9250014"},{"town":"川原町","koaza":"エ","lat":36.897867,"lng":136.781569,"zip":"9250033"},{"town":"南中央町","koaza":"ユ","lat":36.890454,"lng":136.780637,"zip":"9250053"},{"town":"的場町","koaza":"稲荷山出口","lat":36.900417,"lng":136.781158,"zip":"9250036"},{"town":"川原町","koaza":"ア","lat":36.89631,"lng":136.780005,"zip":"9250033"},{"town":"釜屋町","koaza":"出口","lat":36.906711,"lng":136.780733,"zip":"9250014"},{"town":"釜屋町","koaza":"ム","lat":36.907735,"lng":136.779941,"zip":"9250014"},{"town":"兵庫町","koaza":"ワ辰","lat":36.888007,"lng":136.780145,"zip":"9250046"},{"town":"柳田町","koaza":"タ","lat":36.911427,"lng":136.780163,"zip":"9250018"},{"town":"兵庫町","koaza":"ワ","lat":36.887148,"lng":136.780726,"zip":"9250046"},{"town":"川原町","koaza":"テ","lat":36.895243,"lng":136.781451,"zip":"9250033"},{"town":"釜屋町","koaza":"ラ","lat":36.908975,"lng":136.780549,"zip":"9250014"},{"town":"兵庫町","koaza":"リ","lat":36.883572,"lng":136.78119,"zip":"9250046"},{"town":"的場町","koaza":"穴釜","lat":36.900552,"lng":136.782559,"zip":"9250036"},{"town":"兵庫町","koaza":"チ","lat":36.885593,"lng":136.782051,"zip":"9250046"},{"town":"的場町","koaza":"リ","lat":36.899273,"lng":136.78251,"zip":"9250036"},{"town":"兵庫町","koaza":"ホ","lat":36.887602,"lng":136.783157,"zip":"9250046"},{"town":"東釜屋町","koaza":"東区","lat":36.904064,"lng":136.783649,"zip":"9250013"},{"town":"川原町","koaza":"チ","lat":36.896571,"lng":136.782688,"zip":"9250033"},{"town":"兵庫町","koaza":"ヘ","lat":36.888356,"lng":136.783443,"zip":"9250046"},{"town":"東的場町","koaza":"雁田苗代","lat":36.899035,"lng":136.784495,"zip":"9250031"},{"town":"御坊山町","koaza":"チ","lat":36.893682,"lng":136.783829,"zip":"9250047"},{"town":"東川原町","koaza":"チ","lat":36.895414,"lng":136.783897,"zip":"9250032"},{"town":"松ケ下町","koaza":"イ","lat":36.890274,"lng":136.784507,"zip":"9250048"},{"town":"松ケ下町","koaza":"御坊山","lat":36.891995,"lng":136.784276,"zip":"9250048"},{"town":"東川原町","koaza":"砂池","lat":36.894621,"lng":136.784373,"zip":"9250032"},{"town":"松ケ下町","koaza":"砂田","lat":36.893441,"lng":136.785069,"zip":"9250048"},{"town":"東的場町","koaza":"角田","lat":36.903272,"lng":136.787573,"zip":"9250031"},{"town":"東川原町","koaza":"砂田","lat":36.894369,"lng":136.785062,"zip":"9250032"},{"town":"東川原町","koaza":"川","lat":36.897868,"lng":136.783828,"zip":"9250032"},{"town":"東川原町","koaza":"ワ","lat":36.895908,"lng":136.784919,"zip":"9250032"},{"town":"東川原町","koaza":"苗代","lat":36.895199,"lng":136.785638,"zip":"9250032"},{"town":"東川原町","koaza":"三俵刈苗代","lat":36.897101,"lng":136.785196,"zip":"9250032"},{"town":"東川原町","koaza":"ヘ","lat":36.895928,"lng":136.786594,"zip":"9250032"},{"town":"東的場町","koaza":"雁田","lat":36.89924,"lng":136.785818,"zip":"9250031"},{"town":"松ケ下町","koaza":"願上","lat":36.890369,"lng":136.786163,"zip":"9250048"},{"town":"東川原町","koaza":"柳橋","lat":36.894613,"lng":136.787215,"zip":"9250032"},{"town":"柳橋町","koaza":"堂田","lat":36.893303,"lng":136.786291,"zip":"9250049"},{"town":"松ケ下町","koaza":"大畠","lat":36.888869,"lng":136.786646,"zip":"9250048"},{"town":"土橋町","koaza":"ホ","lat":36.88749,"lng":136.786991,"zip":"9250042"},{"town":"東的場町","koaza":"古川田","lat":36.898071,"lng":136.787233,"zip":"9250031"},{"town":"東的場町","koaza":"小原田","lat":36.899454,"lng":136.787135,"zip":"9250031"},{"town":"東川原町","koaza":"古川田","lat":36.896328,"lng":136.786729,"zip":"9250032"},{"town":"柳橋町","koaza":"柳橋","lat":36.893667,"lng":136.787175,"zip":"9250049"},{"town":"柳橋町","koaza":"五久","lat":36.888472,"lng":136.788355,"zip":"9250049"},{"town":"鶴多町","koaza":"鏡田","lat":36.899631,"lng":136.788119,"zip":"9250027"},{"town":"鶴多町","koaza":"免田","lat":36.897915,"lng":136.788635,"zip":"9250027"},{"town":"東川原町","koaza":"免田","lat":36.895884,"lng":136.788723,"zip":"9250032"},{"town":"土橋町","koaza":"ト","lat":36.882292,"lng":136.788736,"zip":"9250042"},{"town":"土橋町","koaza":"リ","lat":36.879783,"lng":136.789185,"zip":"9250042"},{"town":"東川原町","koaza":"堂の口","lat":36.896311,"lng":136.788833,"zip":"9250032"},{"town":"土橋町","koaza":"ヘ","lat":36.8839,"lng":136.789091,"zip":"9250042"},{"town":"鶴多町","koaza":"堂の口","lat":36.897994,"lng":136.789575,"zip":"9250027"},{"town":"東川原町","koaza":"ホ","lat":36.89569,"lng":136.789565,"zip":"9250032"},{"town":"東川原町","koaza":"五俵刈","lat":36.895148,"lng":136.789747,"zip":"9250032"},{"town":"鶴多町","koaza":"五反田","lat":36.901999,"lng":136.790096,"zip":"9250027"},{"town":"鶴多町","koaza":"鶴多田","lat":36.898258,"lng":136.790764,"zip":"9250027"},{"town":"吉崎町","koaza":"ウ","lat":36.903937,"lng":136.790986,"zip":"9250021"},{"town":"鶴多町","koaza":"切道","lat":36.901,"lng":136.790938,"zip":"9250027"},{"town":"土橋町","koaza":"ハ","lat":36.882714,"lng":136.790106,"zip":"9250042"},{"town":"柳橋町","koaza":"五俵刈","lat":36.893943,"lng":136.791041,"zip":"9250049"},{"town":"柳橋町","koaza":"五石高","lat":36.894743,"lng":136.790816,"zip":"9250049"},{"town":"鶴多町","koaza":"五石高","lat":36.895519,"lng":136.791753,"zip":"9250027"},{"town":"立開町","koaza":"ニ","lat":36.892372,"lng":136.792608,"zip":"9250041"},{"town":"次場町","koaza":"井","lat":36.906462,"lng":136.791973,"zip":"9250028"},{"town":"吉崎町","koaza":"ム","lat":36.901772,"lng":136.792238,"zip":"9250021"},{"town":"鶴多町","koaza":"亀田","lat":36.897098,"lng":136.792556,"zip":"9250027"},{"town":"次場町","koaza":"ツ","lat":36.905854,"lng":136.793594,"zip":"9250028"},{"town":"次場町","koaza":"レ","lat":36.904951,"lng":136.792342,"zip":"9250028"},{"town":"吉崎町","koaza":"ラ","lat":36.897692,"lng":136.79365,"zip":"9250021"},{"town":"立開町","koaza":"ホ","lat":36.891703,"lng":136.793084,"zip":"9250041"},{"town":"次場町","koaza":"ヨ","lat":36.901802,"lng":136.79386,"zip":"9250028"},{"town":"石野町","koaza":"リ","lat":36.893656,"lng":136.793746,"zip":"9250026"},{"town":"立開町","koaza":"ト","lat":36.887711,"lng":136.79464,"zip":"9250041"},{"town":"石野町","koaza":"ヘ","lat":36.896219,"lng":136.795205,"zip":"9250026"},{"town":"石野町","koaza":"ト","lat":36.894575,"lng":136.795296,"zip":"9250026"},{"town":"立開町","koaza":"ヘ","lat":36.888895,"lng":136.795481,"zip":"9250041"},{"town":"次場町","koaza":"ソ","lat":36.905333,"lng":136.795856,"zip":"9250028"},{"town":"石野町","koaza":"ホ","lat":36.894154,"lng":136.797819,"zip":"9250026"},{"town":"深江町","koaza":"ヲ","lat":36.905967,"lng":136.798534,"zip":"9250022"},{"town":"吉崎町","koaza":"ヨ","lat":36.907701,"lng":136.798189,"zip":"9250021"},{"town":"次場町","koaza":"タ","lat":36.90339,"lng":136.798353,"zip":"9250028"},{"town":"石野町","koaza":"ニ","lat":36.89306,"lng":136.799684,"zip":"9250026"},{"town":"石野町","koaza":"イ","lat":36.894863,"lng":136.800574,"zip":"9250026"},{"town":"深江町","koaza":"ヌ","lat":36.90155,"lng":136.799265,"zip":"9250022"},{"town":"吉崎町","koaza":"カ","lat":36.908338,"lng":136.799745,"zip":"9250021"},{"town":"深江町","koaza":"チ","lat":36.897661,"lng":136.800675,"zip":"9250022"},{"town":"深江町","koaza":"ル","lat":36.902809,"lng":136.800067,"zip":"9250022"},{"town":"深江町","koaza":"ト","lat":36.902121,"lng":136.802426,"zip":"9250022"},{"town":"石野町","koaza":"ロ","lat":36.894357,"lng":136.802369,"zip":"9250026"},{"town":"吉崎町","koaza":"イ","lat":36.909081,"lng":136.80207,"zip":"9250021"},{"town":"深江町","koaza":"ヘ","lat":36.901713,"lng":136.803129,"zip":"9250022"},{"town":"三ツ屋町","koaza":"ロ","lat":36.896598,"lng":136.803772,"zip":"9250024"},{"town":"太田町","koaza":"へ","lat":36.89443,"lng":136.805008,"zip":"9250025"},{"town":"深江町","koaza":"ハ","lat":36.903304,"lng":136.803327,"zip":"9250022"},{"town":"三ツ屋町","koaza":"イ","lat":36.896682,"lng":136.805691,"zip":"9250024"},{"town":"太田町","koaza":"と","lat":36.894704,"lng":136.808076,"zip":"9250025"},{"town":"太田町","koaza":"い","lat":36.893169,"lng":136.809489,"zip":"9250025"},{"town":"千里浜町","koaza":"ヲ","lat":36.888683,"lng":136.774758,"zip":"9250054"},{"town":"東川原町","koaza":"三俵刈","lat":36.896267,"lng":136.785786,"zip":"9250032"},{"town":"千里浜町","koaza":"チ","lat":36.888811,"lng":136.772552,"zip":"9250054"},{"town":"粟生町","koaza":"ケ","lat":36.881438,"lng":136.774872,"zip":"9250045"},{"town":"千里浜町","koaza":"ヨ","lat":36.884052,"lng":136.766902,"zip":"9250054"},{"town":"千里浜町","koaza":"カ","lat":36.885522,"lng":136.770708,"zip":"9250054"},{"town":"千里浜町","koaza":"ホ","lat":36.892508,"lng":136.772054,"zip":"9250054"},{"town":"千里浜町","koaza":"ヌ","lat":36.88887,"lng":136.770155,"zip":"9250054"},{"town":"柳田町","koaza":"ヌ","lat":36.91376,"lng":136.780938,"zip":"9250018"},{"town":"柳田町","koaza":"た","lat":36.913015,"lng":136.780021,"zip":"9250018"},{"town":"西釜屋町","koaza":"オ","lat":36.9106,"lng":136.773413,"zip":"9250017"},{"town":"大川町","koaza":"イ","lat":36.904238,"lng":136.776506,"zip":"9250015"},{"town":"島出町","koaza":"マ","lat":36.899826,"lng":136.77602,"zip":"9250051"},{"town":"東川原町","koaza":"ト","lat":36.896292,"lng":136.786234,"zip":"9250032"},{"town":"川原町","koaza":"メ","lat":36.893895,"lng":136.781507,"zip":"9250033"},{"town":"兵庫町","koaza":"ヨ","lat":36.886607,"lng":136.776977,"zip":"9250046"},{"town":"粟生町","koaza":"ワ","lat":36.879863,"lng":136.774927,"zip":"9250045"},{"town":"柳田町","koaza":"ヤ","lat":36.919086,"lng":136.777674,"zip":"9250018"},{"town":"柳田町","koaza":"ナ","lat":36.917311,"lng":136.779004,"zip":"9250018"},{"town":"柳田町","koaza":"リ","lat":36.918604,"lng":136.778926,"zip":"9250018"},{"town":"柳田町","koaza":"ク","lat":36.918097,"lng":136.778139,"zip":"9250018"},{"town":"兵庫町","koaza":"ト","lat":36.88918,"lng":136.782538,"zip":"9250046"},{"town":"南中央町","koaza":"メ","lat":36.890176,"lng":136.781483,"zip":"9250053"},{"town":"兵庫町","koaza":"ヲ","lat":36.888381,"lng":136.781431,"zip":"9250046"},{"town":"兵庫町","koaza":"カ","lat":36.887941,"lng":136.779467,"zip":"9250046"},{"town":"兵庫町","koaza":"ル","lat":36.887735,"lng":136.781517,"zip":"9250046"},{"town":"兵庫町","koaza":"ヌ","lat":36.884375,"lng":136.780017,"zip":"9250046"},{"town":"粟生町","koaza":"ヲ","lat":36.88118,"lng":136.778526,"zip":"9250045"},{"town":"三ツ屋町","koaza":"ホ","lat":36.896003,"lng":136.806058,"zip":"9250024"},{"town":"羽咋町","koaza":"下","lat":36.904508,"lng":136.770843,"zip":"9250016"}]