[{"town":"東間","koaza":"","lat":36.791269,"lng":136.778056,"zip":"9291313"},{"town":"石坂","koaza":"","lat":36.859832,"lng":136.819645,"zip":"9291406"},{"town":"今浜","koaza":"","lat":36.82649,"lng":136.753077,"zip":"9291344"},{"town":"今浜新","koaza":"","lat":36.830107,"lng":136.748292,"zip":"9291345"},{"town":"上田","koaza":"","lat":36.810047,"lng":136.773553,"zip":"9291312"},{"town":"上田出","koaza":"","lat":36.810192,"lng":136.759951,"zip":"9291321"},{"town":"海老坂","koaza":"","lat":36.825723,"lng":136.826261,"zip":"9291405"},{"town":"小川","koaza":"","lat":36.821102,"lng":136.759226,"zip":"9291343"},{"town":"荻市","koaza":"","lat":36.862045,"lng":136.788378,"zip":"9291426"},{"town":"荻島","koaza":"","lat":36.85597,"lng":136.780774,"zip":"9291412"},{"town":"荻谷","koaza":"","lat":36.850784,"lng":136.790365,"zip":"9291413"},{"town":"御舘","koaza":"","lat":36.804493,"lng":136.759773,"zip":"9291323"},{"town":"河原","koaza":"","lat":36.818063,"lng":136.774485,"zip":"9291303"},{"town":"北川尻","koaza":"","lat":36.805395,"lng":136.748803,"zip":"9291332"},{"town":"米出","koaza":"","lat":36.815615,"lng":136.747203,"zip":"9291331"},{"town":"紺屋町","koaza":"","lat":36.795505,"lng":136.76914,"zip":"9291314"},{"town":"下石","koaza":"","lat":36.849731,"lng":136.827009,"zip":"9291406"},{"town":"散田","koaza":"","lat":36.850356,"lng":136.810734,"zip":"9291406"},{"town":"子浦","koaza":"","lat":36.863214,"lng":136.795607,"zip":"9291425"},{"town":"敷波","koaza":"","lat":36.853611,"lng":136.775272,"zip":"9291414"},{"town":"敷浪","koaza":"","lat":36.845714,"lng":136.778153,"zip":"9291415"},{"town":"清水原","koaza":"","lat":36.863847,"lng":136.8677,"zip":"9291402"},{"town":"宿","koaza":"","lat":36.839868,"lng":136.760935,"zip":"9291341"},{"town":"所司原","koaza":"","lat":36.836617,"lng":136.84421,"zip":"9291403"},{"town":"新宮","koaza":"","lat":36.839301,"lng":136.819752,"zip":"9291404"},{"town":"菅原","koaza":"","lat":36.874286,"lng":136.803395,"zip":"9291423"},{"town":"杉野屋","koaza":"","lat":36.87752,"lng":136.822499,"zip":"9291422"},{"town":"沢川","koaza":"","lat":36.769252,"lng":136.842746,"zip":"9390171"},{"town":"竹生野","koaza":"","lat":36.837706,"lng":136.779851,"zip":"9291305"},{"town":"坪山","koaza":"","lat":36.791668,"lng":136.762558,"zip":"9291325"},{"town":"出浜","koaza":"","lat":36.857484,"lng":136.758735,"zip":"9291416"},{"town":"中野","koaza":"","lat":36.80282,"lng":136.773715,"zip":"9291316"},{"town":"走入","koaza":"","lat":36.866275,"lng":136.852154,"zip":"9291402"},{"town":"原","koaza":"","lat":36.811885,"lng":136.833396,"zip":"9291404"},{"town":"針山","koaza":"","lat":36.824039,"lng":136.818193,"zip":"9291405"},{"town":"東野","koaza":"","lat":36.798876,"lng":136.777408,"zip":"9291315"},{"town":"聖川","koaza":"","lat":36.844283,"lng":136.804776,"zip":"9291405"},{"town":"平床","koaza":"","lat":36.820039,"lng":136.805909,"zip":"9291405"},{"town":"二口","koaza":"","lat":36.884548,"lng":136.79689,"zip":"9291421"},{"town":"冬野","koaza":"","lat":36.796152,"lng":136.755447,"zip":"9291326"},{"town":"宝達","koaza":"","lat":36.797566,"lng":136.816364,"zip":"9291301"},{"town":"正友","koaza":"","lat":36.799765,"lng":136.760557,"zip":"9291324"},{"town":"見砂","koaza":"","lat":36.856452,"lng":136.85121,"zip":"9291402"},{"town":"三日町","koaza":"","lat":36.802864,"lng":136.771397,"zip":"9291322"},{"town":"南吉田","koaza":"","lat":36.825545,"lng":136.780524,"zip":"9291304"},{"town":"麦生","koaza":"","lat":36.832257,"lng":136.75642,"zip":"9291342"},{"town":"向瀬","koaza":"","lat":36.863873,"lng":136.833234,"zip":"9291401"},{"town":"免田","koaza":"","lat":36.794604,"lng":136.738849,"zip":"9291333"},{"town":"森本","koaza":"","lat":36.788697,"lng":136.756205,"zip":"9291327"},{"town":"門前","koaza":"","lat":36.815112,"lng":136.768209,"zip":"9291311"},{"town":"柳瀬","koaza":"","lat":36.860641,"lng":136.774597,"zip":"9291411"},{"town":"山崎","koaza":"","lat":36.811929,"lng":136.78692,"zip":"9291302"},{"town":"吉野屋","koaza":"","lat":36.864426,"lng":136.807816,"zip":"9291424"}]