[{"town":"秋常町","koaza":"","lat":36.446746,"lng":136.515168,"zip":"9231103"},{"town":"莇生町","koaza":"","lat":36.446158,"lng":136.575532,"zip":"9231202"},{"town":"荒屋町","koaza":"","lat":36.443572,"lng":136.524959,"zip":"9231233"},{"town":"石子町","koaza":"","lat":36.43854,"lng":136.509989,"zip":"9231105"},{"town":"泉台町","koaza":"","lat":36.430879,"lng":136.522308,"zip":"9231111"},{"town":"岩内町","koaza":"","lat":36.446794,"lng":136.56693,"zip":"9231201"},{"town":"岩本町","koaza":"","lat":36.446445,"lng":136.613304,"zip":"9231207"},{"town":"牛島町","koaza":"","lat":36.427036,"lng":136.498353,"zip":"9231113"},{"town":"大長野町","koaza":"","lat":36.428414,"lng":136.487072,"zip":"9231115"},{"town":"大浜町","koaza":"","lat":36.457872,"lng":136.457726,"zip":"9290122"},{"town":"上開発町","koaza":"","lat":36.448042,"lng":136.53904,"zip":"9231231"},{"town":"上清水町","koaza":"","lat":36.457398,"lng":136.525704,"zip":"9231237"},{"town":"北市町","koaza":"","lat":36.45419,"lng":136.532211,"zip":"9231236"},{"town":"倉重町","koaza":"","lat":36.452717,"lng":136.542526,"zip":"9231246"},{"town":"高座町","koaza":"","lat":36.445532,"lng":136.520109,"zip":"9231234"},{"town":"五間堂町","koaza":"","lat":36.443487,"lng":136.483898,"zip":"9290103"},{"town":"小杉町","koaza":"","lat":36.420148,"lng":136.485813,"zip":"9231114"},{"town":"小長野町","koaza":"","lat":36.43287,"lng":136.489425,"zip":"9231116"},{"town":"金剛寺町","koaza":"","lat":36.427725,"lng":136.57219,"zip":"9231214"},{"town":"佐野町","koaza":"","lat":36.428128,"lng":136.508789,"zip":"9231112"},{"town":"三道山町","koaza":"","lat":36.447445,"lng":136.505615,"zip":"9231124"},{"town":"下開発町","koaza":"","lat":36.445047,"lng":136.531251,"zip":"9231232"},{"town":"下清水町","koaza":"","lat":36.461001,"lng":136.516635,"zip":"9231238"},{"town":"下ノ江町","koaza":"","lat":36.440049,"lng":136.457107,"zip":"9290115"},{"town":"新保町","koaza":"","lat":36.454273,"lng":136.515354,"zip":"9231102"},{"town":"末信町","koaza":"","lat":36.434239,"lng":136.500469,"zip":"9231117"},{"town":"大成町","koaza":"","lat":36.450356,"lng":136.462113,"zip":"9290113"},{"town":"大成町一丁目","koaza":"","lat":36.450088,"lng":136.46689,"zip":"9290113"},{"town":"大成町二丁目","koaza":"","lat":36.448375,"lng":136.466513,"zip":"9290113"},{"town":"大成町三丁目","koaza":"","lat":36.44932,"lng":136.469295,"zip":"9290113"},{"town":"高坂町","koaza":"","lat":36.438088,"lng":136.449624,"zip":"9290116"},{"town":"舘町","koaza":"","lat":36.425488,"lng":136.55865,"zip":"9231215"},{"town":"辰口町","koaza":"","lat":36.444967,"lng":136.5476,"zip":"9231245"},{"town":"坪野町","koaza":"","lat":36.425183,"lng":136.590829,"zip":"9231213"},{"town":"出口町","koaza":"","lat":36.457734,"lng":136.540517,"zip":"9231247"},{"town":"寺井町","koaza":"","lat":36.441257,"lng":136.497663,"zip":"9231121"},{"town":"寺畠町","koaza":"","lat":36.419981,"lng":136.550854,"zip":"9231223"},{"town":"道林町","koaza":"","lat":36.441682,"lng":136.444058,"zip":"9290125"},{"town":"徳山町","koaza":"","lat":36.433951,"lng":136.547876,"zip":"9231222"},{"town":"徳久町","koaza":"","lat":36.4492,"lng":136.52749,"zip":"9231235"},{"town":"中ノ江町","koaza":"","lat":36.440038,"lng":136.467571,"zip":"9290105"},{"town":"中庄町","koaza":"","lat":36.447341,"lng":136.479882,"zip":"9290104"},{"town":"中町","koaza":"","lat":36.451764,"lng":136.452464,"zip":"9290123"},{"town":"鍋谷町","koaza":"","lat":36.407536,"lng":136.585666,"zip":"9231216"},{"town":"西旭台町","koaza":"","lat":36.440676,"lng":136.565254,"zip":"9231100"},{"town":"西任田町","koaza":"","lat":36.449615,"lng":136.487715,"zip":"9290102"},{"town":"西二口町","koaza":"","lat":36.445015,"lng":136.47081,"zip":"9290106"},{"town":"根上町","koaza":"","lat":36.436699,"lng":136.44491,"zip":"9290116"},{"town":"能美一丁目","koaza":"","lat":36.454959,"lng":136.491529,"zip":"9290108"},{"town":"能美二丁目","koaza":"","lat":36.455607,"lng":136.489213,"zip":"9290108"},{"town":"能美三丁目","koaza":"","lat":36.453553,"lng":136.489012,"zip":"9290108"},{"town":"浜開発町","koaza":"","lat":36.445267,"lng":136.461864,"zip":"9290114"},{"town":"浜町","koaza":"","lat":36.447341,"lng":136.45102,"zip":"9290124"},{"town":"東任田町","koaza":"","lat":36.449615,"lng":136.493776,"zip":"9231122"},{"town":"火釜町","koaza":"","lat":36.453509,"lng":136.56106,"zip":"9231242"},{"town":"福岡町","koaza":"","lat":36.451033,"lng":136.475345,"zip":"9290107"},{"town":"福島町","koaza":"","lat":36.458137,"lng":136.470691,"zip":"9290112"},{"town":"仏大寺町","koaza":"","lat":36.403681,"lng":136.561355,"zip":"9231217"},{"town":"松が岡一丁目","koaza":"","lat":36.440297,"lng":136.528897,"zip":"9231225"},{"town":"松が岡二丁目","koaza":"","lat":36.438195,"lng":136.525404,"zip":"9231225"},{"town":"松が岡三丁目","koaza":"","lat":36.43609,"lng":136.526513,"zip":"9231225"},{"town":"松が岡四丁目","koaza":"","lat":36.437171,"lng":136.529573,"zip":"9231225"},{"town":"松が岡五丁目","koaza":"","lat":36.437418,"lng":136.53201,"zip":"9231225"},{"town":"末寺町","koaza":"","lat":36.44707,"lng":136.509471,"zip":"9231107"},{"town":"三ツ口町","koaza":"","lat":36.456687,"lng":136.577083,"zip":"9231203"},{"town":"三ツ屋町","koaza":"","lat":36.453064,"lng":136.549957,"zip":"9231243"},{"town":"緑が丘十丁目","koaza":"","lat":36.43822,"lng":136.534539,"zip":"9231226"},{"town":"緑が丘十一丁目","koaza":"","lat":36.440499,"lng":136.533328,"zip":"9231226"},{"town":"緑が丘一丁目","koaza":"","lat":36.445233,"lng":136.542073,"zip":"9231226"},{"town":"緑が丘二丁目","koaza":"","lat":36.443423,"lng":136.542389,"zip":"9231226"},{"town":"緑が丘三丁目","koaza":"","lat":36.442097,"lng":136.542254,"zip":"9231226"},{"town":"緑が丘四丁目","koaza":"","lat":36.441895,"lng":136.539923,"zip":"9231226"},{"town":"緑が丘五丁目","koaza":"","lat":36.444527,"lng":136.538555,"zip":"9231226"},{"town":"緑が丘六丁目","koaza":"","lat":36.440169,"lng":136.541014,"zip":"9231226"},{"town":"緑が丘七丁目","koaza":"","lat":36.438605,"lng":136.540486,"zip":"9231226"},{"town":"緑が丘八丁目","koaza":"","lat":36.437459,"lng":136.537012,"zip":"9231226"},{"town":"緑が丘九丁目","koaza":"","lat":36.440661,"lng":136.537229,"zip":"9231226"},{"town":"山口町","koaza":"","lat":36.433409,"lng":136.435082,"zip":"9290126"},{"town":"山田町","koaza":"","lat":36.458158,"lng":136.552611,"zip":"9231241"},{"town":"湯谷町","koaza":"","lat":36.437863,"lng":136.518284,"zip":"9231104"},{"town":"湯屋町","koaza":"","lat":36.440594,"lng":136.554788,"zip":"9231221"},{"town":"吉原釜屋町","koaza":"","lat":36.466345,"lng":136.466236,"zip":"9290121"},{"town":"吉原町","koaza":"","lat":36.463772,"lng":136.479008,"zip":"9290111"},{"town":"吉光町","koaza":"","lat":36.449131,"lng":136.498727,"zip":"9231123"},{"town":"来丸町","koaza":"","lat":36.444087,"lng":136.55965,"zip":"9231244"},{"town":"和気町","koaza":"","lat":36.422006,"lng":136.539941,"zip":"9231224"},{"town":"和光台一丁目","koaza":"","lat":36.425484,"lng":136.544521,"zip":"9231227"},{"town":"和光台二丁目","koaza":"","lat":36.427929,"lng":136.542909,"zip":"9231227"},{"town":"和光台三丁目","koaza":"","lat":36.427323,"lng":136.545148,"zip":"9231227"},{"town":"和光台四丁目","koaza":"","lat":36.429228,"lng":136.545137,"zip":"9231227"},{"town":"和光台五丁目","koaza":"","lat":36.430729,"lng":136.54124,"zip":"9231227"},{"town":"和佐谷町","koaza":"","lat":36.424794,"lng":136.616934,"zip":"9231208"},{"town":"和田町","koaza":"","lat":36.442074,"lng":136.506856,"zip":"9231106"},{"town":"旭台三丁目","koaza":"","lat":36.448259,"lng":136.58488,"zip":"9231211"},{"town":"長滝町","koaza":"","lat":36.442083,"lng":136.581792,"zip":"9231204"},{"town":"旭台四丁目","koaza":"","lat":36.444828,"lng":136.584854,"zip":"9231211"},{"town":"宮竹町","koaza":"","lat":36.45249,"lng":136.589526,"zip":"9231205"},{"town":"灯台笹町","koaza":"","lat":36.447625,"lng":136.6014,"zip":"9231206"},{"town":"旭台町","koaza":"","lat":36.441906,"lng":136.598053,"zip":"9231100"},{"town":"大口町","koaza":"","lat":36.429828,"lng":136.605296,"zip":"9231212"},{"town":"旭台一丁目","koaza":"","lat":36.443936,"lng":136.594134,"zip":"9231211"},{"town":"旭台二丁目","koaza":"","lat":36.449108,"lng":136.594009,"zip":"9231211"},{"town":"粟生町","koaza":"","lat":36.458758,"lng":136.502899,"zip":"9231101"},{"town":"赤井町","koaza":"","lat":36.457143,"lng":136.486229,"zip":"9290101"},{"town":"西二口町","koaza":"丙","lat":36.447657,"lng":136.468961,"zip":"9290106"},{"town":"福島町","koaza":"ヘ","lat":36.459744,"lng":136.470673,"zip":"9290112"},{"town":"吉原釜屋町","koaza":"チ","lat":36.465336,"lng":136.471269,"zip":"9290121"},{"town":"西二口町","koaza":"丁","lat":36.445303,"lng":136.468568,"zip":"9290106"},{"town":"福島町","koaza":"ル","lat":36.462279,"lng":136.471723,"zip":"9290112"},{"town":"吉原町","koaza":"ル","lat":36.465174,"lng":136.471805,"zip":"9290111"},{"town":"西二口町","koaza":"乙","lat":36.445107,"lng":136.471445,"zip":"9290106"},{"town":"福岡町","koaza":"ロ","lat":36.449083,"lng":136.473224,"zip":"9290107"},{"town":"西二口町","koaza":"イ","lat":36.447646,"lng":136.471029,"zip":"9290106"},{"town":"吉原町","koaza":"ワ","lat":36.463554,"lng":136.471549,"zip":"9290111"},{"town":"福岡町","koaza":"イ","lat":36.446907,"lng":136.47331,"zip":"9290107"},{"town":"吉原町","koaza":"カ","lat":36.463005,"lng":136.472967,"zip":"9290111"},{"town":"吉原町","koaza":"チ","lat":36.46457,"lng":136.473507,"zip":"9290111"},{"town":"吉原町","koaza":"ヲ","lat":36.466046,"lng":136.474181,"zip":"9290111"},{"town":"福岡町","koaza":"ハ","lat":36.448663,"lng":136.477594,"zip":"9290107"},{"town":"福岡町","koaza":"甲","lat":36.451225,"lng":136.475622,"zip":"9290107"},{"town":"中庄町","koaza":"丁","lat":36.445755,"lng":136.477538,"zip":"9290104"},{"town":"中庄町","koaza":"丙","lat":36.446651,"lng":136.47871,"zip":"9290104"},{"town":"福岡町","koaza":"チ","lat":36.454041,"lng":136.479116,"zip":"9290107"},{"town":"大長野町","koaza":"リ","lat":36.426965,"lng":136.48108,"zip":"9231115"},{"town":"中庄町","koaza":"い","lat":36.448565,"lng":136.47953,"zip":"9290104"},{"town":"五間堂町","koaza":"丙","lat":36.444017,"lng":136.480355,"zip":"9290103"},{"town":"五間堂町","koaza":"甲","lat":36.44513,"lng":136.481944,"zip":"9290103"},{"town":"大長野町","koaza":"チ","lat":36.427708,"lng":136.482922,"zip":"9231115"},{"town":"赤井町","koaza":"ハ","lat":36.45687,"lng":136.483007,"zip":"9290101"},{"town":"赤井町","koaza":"ち","lat":36.459546,"lng":136.482155,"zip":"9290101"},{"town":"五間堂町","koaza":"丁","lat":36.441909,"lng":136.484414,"zip":"9290103"},{"town":"赤井町","koaza":"ロ","lat":36.455516,"lng":136.483076,"zip":"9290101"},{"town":"赤井町","koaza":"は","lat":36.458656,"lng":136.487546,"zip":"9290101"},{"town":"赤井町","koaza":"イ","lat":36.45411,"lng":136.483567,"zip":"9290101"},{"town":"五間堂町","koaza":"辛","lat":36.445486,"lng":136.485483,"zip":"9290103"},{"town":"赤井町","koaza":"い","lat":36.453504,"lng":136.485744,"zip":"9290101"},{"town":"小杉町","koaza":"ホ","lat":36.416465,"lng":136.484392,"zip":"9231114"},{"town":"小長野町","koaza":"ハ","lat":36.43262,"lng":136.483901,"zip":"9231116"},{"town":"小杉町","koaza":"ハ","lat":36.420741,"lng":136.486198,"zip":"9231114"},{"town":"赤井町","koaza":"ト","lat":36.458634,"lng":136.484323,"zip":"9290101"},{"town":"五間堂町","koaza":"乙","lat":36.444395,"lng":136.485117,"zip":"9290103"},{"town":"赤井町","koaza":"ホ","lat":36.456893,"lng":136.483991,"zip":"9290101"},{"town":"赤井町","koaza":"ヲ","lat":36.458166,"lng":136.484657,"zip":"9290101"},{"town":"小杉町","koaza":"イ","lat":36.423345,"lng":136.48706,"zip":"9231114"},{"town":"大長野町","koaza":"ト","lat":36.43016,"lng":136.486429,"zip":"9231115"},{"town":"小長野町","koaza":"ロ","lat":36.430948,"lng":136.48558,"zip":"9231116"},{"town":"大長野町","koaza":"ヘ","lat":36.428744,"lng":136.485219,"zip":"9231115"},{"town":"赤井町","koaza":"ヘ","lat":36.45488,"lng":136.485256,"zip":"9290101"},{"town":"大長野町","koaza":"ル","lat":36.428314,"lng":136.487619,"zip":"9231115"},{"town":"大長野町","koaza":"ホ","lat":36.428136,"lng":136.489705,"zip":"9231115"},{"town":"西任田町","koaza":"ニ","lat":36.449818,"lng":136.486662,"zip":"9290102"},{"town":"小長野町","koaza":"イ","lat":36.431465,"lng":136.487799,"zip":"9231116"},{"town":"五間堂町","koaza":"戊","lat":36.443205,"lng":136.487278,"zip":"9290103"},{"town":"小杉町","koaza":"ヘ","lat":36.422152,"lng":136.48768,"zip":"9231114"},{"town":"西任田町","koaza":"ヘ","lat":36.450316,"lng":136.488353,"zip":"9290102"},{"town":"西任田町","koaza":"ロ","lat":36.44926,"lng":136.487966,"zip":"9290102"},{"town":"西任田町","koaza":"ワ","lat":36.45161,"lng":136.487641,"zip":"9290102"},{"town":"小長野町","koaza":"ニ","lat":36.432541,"lng":136.487813,"zip":"9231116"},{"town":"小長野町","koaza":"ホ","lat":36.432491,"lng":136.489912,"zip":"9231116"},{"town":"小長野町","koaza":"チ","lat":36.434805,"lng":136.489847,"zip":"9231116"},{"town":"小杉町","koaza":"ロ","lat":36.421417,"lng":136.487442,"zip":"9231114"},{"town":"寺井町","koaza":"ソ","lat":36.437138,"lng":136.490398,"zip":"9231121"},{"town":"寺井町","koaza":"ロ","lat":36.443523,"lng":136.491291,"zip":"9231121"},{"town":"寺井町","koaza":"イ","lat":36.442112,"lng":136.489313,"zip":"9231121"},{"town":"寺井町","koaza":"ウ","lat":36.438645,"lng":136.490598,"zip":"9231121"},{"town":"東任田町","koaza":"イ","lat":36.445376,"lng":136.493204,"zip":"9231122"},{"town":"西任田町","koaza":"イ","lat":36.449022,"lng":136.489306,"zip":"9290102"},{"town":"大長野町","koaza":"ハ","lat":36.430647,"lng":136.490371,"zip":"9231115"},{"town":"西任田町","koaza":"ヌ","lat":36.448635,"lng":136.490923,"zip":"9290102"},{"town":"大長野町","koaza":"ニ","lat":36.428558,"lng":136.491683,"zip":"9231115"},{"town":"西任田町","koaza":"チ","lat":36.45029,"lng":136.490366,"zip":"9290102"},{"town":"小長野町","koaza":"乙","lat":36.432561,"lng":136.490826,"zip":"9231116"},{"town":"寺井町","koaza":"ナ","lat":36.44153,"lng":136.49146,"zip":"9231121"},{"town":"寺井町","koaza":"レ","lat":36.437685,"lng":136.492542,"zip":"9231121"},{"town":"西任田町","koaza":"ト","lat":36.451033,"lng":136.49204,"zip":"9290102"},{"town":"寺井町","koaza":"れ","lat":36.436318,"lng":136.491772,"zip":"9231121"},{"town":"小長野町","koaza":"ト","lat":36.434745,"lng":136.493223,"zip":"9231116"},{"town":"小長野町","koaza":"戊","lat":36.432735,"lng":136.492646,"zip":"9231116"},{"town":"小長野町","koaza":"ヘ","lat":36.433302,"lng":136.493164,"zip":"9231116"},{"town":"大長野町","koaza":"イ","lat":36.432003,"lng":136.493183,"zip":"9231115"},{"town":"東任田町","koaza":"ハ","lat":36.44844,"lng":136.493127,"zip":"9231122"},{"town":"大長野町","koaza":"ロ","lat":36.430721,"lng":136.493085,"zip":"9231115"},{"town":"東任田町","koaza":"ニ","lat":36.449378,"lng":136.493724,"zip":"9231122"},{"town":"寺井町","koaza":"ラ","lat":36.442134,"lng":136.493326,"zip":"9231121"},{"town":"寺井町","koaza":"ム","lat":36.439732,"lng":136.493593,"zip":"9231121"},{"town":"牛島町","koaza":"カ","lat":36.428888,"lng":136.495061,"zip":"9231113"},{"town":"寺井町","koaza":"た","lat":36.436345,"lng":136.495895,"zip":"9231121"},{"town":"大長野町","koaza":"カ","lat":36.431634,"lng":136.494373,"zip":"9231115"},{"town":"東任田町","koaza":"ロ","lat":36.447575,"lng":136.494573,"zip":"9231122"},{"town":"末信町","koaza":"ヌ","lat":36.431297,"lng":136.495341,"zip":"9231117"},{"town":"粟生町","koaza":"西","lat":36.459665,"lng":136.49898,"zip":"9231101"},{"town":"寺井町","koaza":"り","lat":36.44012,"lng":136.495511,"zip":"9231121"},{"town":"寺井町","koaza":"ち","lat":36.441945,"lng":136.495222,"zip":"9231121"},{"town":"寺井町","koaza":"チ","lat":36.441263,"lng":136.494524,"zip":"9231121"},{"town":"吉光町","koaza":"ロ","lat":36.45105,"lng":136.498986,"zip":"9231123"},{"town":"寺井町","koaza":"タ","lat":36.438256,"lng":136.494911,"zip":"9231121"},{"town":"吉原町","koaza":"一","lat":36.464938,"lng":136.475861,"zip":"9290111"},{"town":"吉原町","koaza":"三","lat":36.465102,"lng":136.475113,"zip":"9290111"},{"town":"寺井町","koaza":"ヨ","lat":36.43829,"lng":136.497044,"zip":"9231121"},{"town":"吉光町","koaza":"イ","lat":36.450254,"lng":136.497239,"zip":"9231123"},{"town":"吉光町","koaza":"ト","lat":36.448044,"lng":136.497694,"zip":"9231123"},{"town":"吉光町","koaza":"ホ","lat":36.448312,"lng":136.500329,"zip":"9231123"},{"town":"寺井町","koaza":"ぬ","lat":36.441385,"lng":136.499047,"zip":"9231121"},{"town":"寺井町","koaza":"へ","lat":36.442281,"lng":136.499968,"zip":"9231121"},{"town":"末信町","koaza":"ト","lat":36.435579,"lng":136.498465,"zip":"9231117"},{"town":"牛島町","koaza":"ヨ","lat":36.430498,"lng":136.498704,"zip":"9231113"},{"town":"末信町","koaza":"ホ","lat":36.432467,"lng":136.501111,"zip":"9231117"},{"town":"牛島町","koaza":"チ","lat":36.428915,"lng":136.500068,"zip":"9231113"},{"town":"佐野町","koaza":"西","lat":36.422382,"lng":136.503003,"zip":"9231112"},{"town":"粟生町","koaza":"ヨ","lat":36.455676,"lng":136.500596,"zip":"9231101"},{"town":"牛島町","koaza":"タ","lat":36.432143,"lng":136.50143,"zip":"9231113"},{"town":"牛島町","koaza":"ロ","lat":36.430905,"lng":136.501325,"zip":"9231113"},{"town":"寺井町","koaza":"ニ","lat":36.444999,"lng":136.500785,"zip":"9231121"},{"town":"寺井町","koaza":"ほ","lat":36.443687,"lng":136.500268,"zip":"9231121"},{"town":"末信町","koaza":"ヘ","lat":36.434132,"lng":136.50115,"zip":"9231117"},{"town":"寺井町","koaza":"か","lat":36.437982,"lng":136.500496,"zip":"9231121"},{"town":"末信町","koaza":"イ","lat":36.435918,"lng":136.501242,"zip":"9231117"},{"town":"吉光町","koaza":"ハ","lat":36.450953,"lng":136.503321,"zip":"9231123"},{"town":"寺井町","koaza":"る","lat":36.441601,"lng":136.502711,"zip":"9231121"},{"town":"寺井町","koaza":"や","lat":36.443281,"lng":136.502812,"zip":"9231121"},{"town":"末信町","koaza":"乙","lat":36.436315,"lng":136.501966,"zip":"9231117"},{"town":"粟生町","koaza":"リ","lat":36.452771,"lng":136.503138,"zip":"9231101"},{"town":"牛島町","koaza":"ハ","lat":36.429152,"lng":136.502345,"zip":"9231113"},{"town":"牛島町","koaza":"イ","lat":36.432709,"lng":136.503644,"zip":"9231113"},{"town":"粟生町","koaza":"ヌ","lat":36.454526,"lng":136.502948,"zip":"9231101"},{"town":"寺井町","koaza":"ま","lat":36.446151,"lng":136.50325,"zip":"9231121"},{"town":"三道山町","koaza":"ニ","lat":36.447913,"lng":136.503976,"zip":"9231124"},{"town":"佐野町","koaza":"ヘ","lat":36.429114,"lng":136.504369,"zip":"9231112"},{"town":"粟生町","koaza":"イ","lat":36.451755,"lng":136.504734,"zip":"9231101"},{"town":"三道山町","koaza":"ハ","lat":36.449978,"lng":136.504626,"zip":"9231124"},{"town":"粟生町","koaza":"中","lat":36.455107,"lng":136.505526,"zip":"9231101"},{"town":"佐野町","koaza":"ハ","lat":36.431209,"lng":136.504782,"zip":"9231112"},{"town":"佐野町","koaza":"ロ","lat":36.432308,"lng":136.50664,"zip":"9231112"},{"town":"粟生町","koaza":"レ","lat":36.457874,"lng":136.506118,"zip":"9231101"},{"town":"三道山町","koaza":"オ","lat":36.446492,"lng":136.50551,"zip":"9231124"},{"town":"粟生町","koaza":"チ","lat":36.453671,"lng":136.506483,"zip":"9231101"},{"town":"粟生町","koaza":"ロ","lat":36.452812,"lng":136.506489,"zip":"9231101"},{"town":"寺井町","koaza":"い","lat":36.441855,"lng":136.505514,"zip":"9231121"},{"town":"三道山町","koaza":"ホ","lat":36.449025,"lng":136.505616,"zip":"9231124"},{"town":"三道山町","koaza":"チ","lat":36.44564,"lng":136.506633,"zip":"9231124"},{"town":"和田町","koaza":"ハ","lat":36.442927,"lng":136.507705,"zip":"9231106"},{"town":"石子町","koaza":"ハ","lat":36.438812,"lng":136.509508,"zip":"9231105"},{"town":"三道山町","koaza":"ヘ","lat":36.449241,"lng":136.506797,"zip":"9231124"},{"town":"佐野町","koaza":"ニ","lat":36.430654,"lng":136.508351,"zip":"9231112"},{"town":"佐野町","koaza":"ホ","lat":36.429031,"lng":136.507152,"zip":"9231112"},{"town":"石子町","koaza":"ロ","lat":36.436705,"lng":136.510257,"zip":"9231105"},{"town":"石子町","koaza":"石","lat":36.437014,"lng":136.508999,"zip":"9231105"},{"town":"末寺町","koaza":"ヘ","lat":36.448296,"lng":136.506862,"zip":"9231107"},{"town":"末寺町","koaza":"ハ","lat":36.444666,"lng":136.508436,"zip":"9231107"},{"town":"末寺町","koaza":"マ","lat":36.445495,"lng":136.507866,"zip":"9231107"},{"town":"粟生町","koaza":"ト","lat":36.455543,"lng":136.507334,"zip":"9231101"},{"town":"粟生町","koaza":"ハ","lat":36.452014,"lng":136.507707,"zip":"9231101"},{"town":"粟生町","koaza":"ホ","lat":36.453393,"lng":136.508369,"zip":"9231101"},{"town":"末寺町","koaza":"イ","lat":36.445738,"lng":136.510065,"zip":"9231107"},{"town":"粟生町","koaza":"ソ","lat":36.456233,"lng":136.508633,"zip":"9231101"},{"town":"粟生町","koaza":"ヘ","lat":36.454292,"lng":136.50853,"zip":"9231101"},{"town":"佐野町","koaza":"ヌ","lat":36.427973,"lng":136.510311,"zip":"9231112"},{"town":"佐野町","koaza":"イ","lat":36.432598,"lng":136.510757,"zip":"9231112"},{"town":"粟生町","koaza":"東","lat":36.454404,"lng":136.509028,"zip":"9231101"},{"town":"粟生町","koaza":"南","lat":36.451856,"lng":136.509246,"zip":"9231101"},{"town":"佐野町","koaza":"ク","lat":36.431017,"lng":136.510081,"zip":"9231112"},{"town":"石子町","koaza":"子","lat":36.440322,"lng":136.509868,"zip":"9231105"},{"town":"佐野町","koaza":"オ","lat":36.429927,"lng":136.509498,"zip":"9231112"},{"town":"佐野町","koaza":"ヲ","lat":36.429291,"lng":136.509784,"zip":"9231112"},{"town":"粟生町","koaza":"マ","lat":36.465637,"lng":136.511303,"zip":"9231101"},{"town":"新保町","koaza":"ヲ","lat":36.455022,"lng":136.512228,"zip":"9231102"},{"town":"佐野町","koaza":"い","lat":36.432886,"lng":136.511795,"zip":"9231112"},{"town":"石子町","koaza":"い","lat":36.433905,"lng":136.511846,"zip":"9231105"},{"town":"石子町","koaza":"イ","lat":36.43707,"lng":136.511826,"zip":"9231105"},{"town":"石子町","koaza":"ニ","lat":36.438679,"lng":136.512043,"zip":"9231105"},{"town":"佐野町","koaza":"ノ","lat":36.429674,"lng":136.512709,"zip":"9231112"},{"town":"佐野町","koaza":"井","lat":36.431002,"lng":136.512032,"zip":"9231112"},{"town":"秋常町","koaza":"ニ","lat":36.446128,"lng":136.514645,"zip":"9231103"},{"town":"秋常町","koaza":"ホ","lat":36.446363,"lng":136.514179,"zip":"9231103"},{"town":"秋常町","koaza":"北","lat":36.448687,"lng":136.514531,"zip":"9231103"},{"town":"新保町","koaza":"カ","lat":36.455392,"lng":136.51469,"zip":"9231102"},{"town":"新保町","koaza":"ル","lat":36.453912,"lng":136.513541,"zip":"9231102"},{"town":"湯谷町","koaza":"ヘ","lat":36.437993,"lng":136.519057,"zip":"9231104"},{"town":"佐野町","koaza":"巳","lat":36.431966,"lng":136.514379,"zip":"9231112"},{"town":"新保町","koaza":"チ","lat":36.45388,"lng":136.51593,"zip":"9231102"},{"town":"泉台町","koaza":"南","lat":36.428957,"lng":136.520664,"zip":"9231111"},{"town":"湯谷町","koaza":"ト","lat":36.434711,"lng":136.51788,"zip":"9231104"},{"town":"佐野町","koaza":"ワ","lat":36.432572,"lng":136.51246,"zip":"9231112"},{"town":"秋常町","koaza":"ト","lat":36.447646,"lng":136.515766,"zip":"9231103"},{"town":"佐野町","koaza":"甲","lat":36.42952,"lng":136.514749,"zip":"9231112"},{"town":"新保町","koaza":"ヨ","lat":36.455221,"lng":136.516193,"zip":"9231102"},{"town":"湯谷町","koaza":"ホ","lat":36.438201,"lng":136.517268,"zip":"9231104"},{"town":"新保町","koaza":"リ","lat":36.45283,"lng":136.516482,"zip":"9231102"},{"town":"新保町","koaza":"ト","lat":36.454101,"lng":136.517144,"zip":"9231102"},{"town":"秋常町","koaza":"ロ","lat":36.44649,"lng":136.517309,"zip":"9231103"},{"town":"泉台町","koaza":"西","lat":36.431722,"lng":136.519318,"zip":"9231111"},{"town":"下清水町","koaza":"ニ","lat":36.455156,"lng":136.51766,"zip":"9231238"},{"town":"湯谷町","koaza":"甲","lat":36.433873,"lng":136.51843,"zip":"9231104"},{"town":"新保町","koaza":"ホ","lat":36.452237,"lng":136.518229,"zip":"9231102"},{"town":"湯谷町","koaza":"ヨ","lat":36.436595,"lng":136.518073,"zip":"9231104"},{"town":"新保町","koaza":"ヘ","lat":36.453534,"lng":136.517263,"zip":"9231102"},{"town":"秋常町","koaza":"タ","lat":36.448184,"lng":136.517575,"zip":"9231103"},{"town":"下清水町","koaza":"イ","lat":36.454852,"lng":136.519623,"zip":"9231238"},{"town":"高座町","koaza":"ホ","lat":36.4474,"lng":136.520533,"zip":"9231234"},{"town":"湯谷町","koaza":"乙","lat":36.435582,"lng":136.522033,"zip":"9231104"},{"town":"泉台町","koaza":"中","lat":36.432562,"lng":136.523552,"zip":"9231111"},{"town":"高座町","koaza":"イ","lat":36.447169,"lng":136.521509,"zip":"9231234"},{"town":"上清水町","koaza":"ヘ","lat":36.45519,"lng":136.521554,"zip":"9231237"},{"town":"徳久町","koaza":"レ","lat":36.448615,"lng":136.522793,"zip":"9231235"},{"town":"荒屋町","koaza":"ホ","lat":36.445317,"lng":136.526457,"zip":"9231233"},{"town":"徳久町","koaza":"ナ","lat":36.450544,"lng":136.525973,"zip":"9231235"},{"town":"上清水町","koaza":"レ","lat":36.458988,"lng":136.525548,"zip":"9231237"},{"town":"泉台町","koaza":"東","lat":36.43341,"lng":136.525846,"zip":"9231111"},{"town":"荒屋町","koaza":"ヘ","lat":36.443787,"lng":136.525447,"zip":"9231233"},{"town":"荒屋町","koaza":"ト","lat":36.443106,"lng":136.526697,"zip":"9231233"},{"town":"上清水町","koaza":"ロ","lat":36.453911,"lng":136.526607,"zip":"9231237"},{"town":"徳久町","koaza":"ニ","lat":36.447995,"lng":136.526034,"zip":"9231235"},{"town":"和気町","koaza":"ヤ","lat":36.43125,"lng":136.529076,"zip":"9231224"},{"town":"北市町","koaza":"ト","lat":36.454484,"lng":136.528739,"zip":"9231236"},{"town":"上清水町","koaza":"ホ","lat":36.456539,"lng":136.527417,"zip":"9231237"},{"town":"上清水町","koaza":"イ","lat":36.455075,"lng":136.527933,"zip":"9231237"},{"town":"徳久町","koaza":"子","lat":36.450961,"lng":136.528331,"zip":"9231235"},{"town":"徳久町","koaza":"イ","lat":36.450117,"lng":136.527885,"zip":"9231235"},{"town":"上清水町","koaza":"ニ","lat":36.457588,"lng":136.528806,"zip":"9231237"},{"town":"北市町","koaza":"ヘ","lat":36.451635,"lng":136.528763,"zip":"9231236"},{"town":"上清水町","koaza":"タ","lat":36.459108,"lng":136.530545,"zip":"9231237"},{"town":"下開発町","koaza":"ア","lat":36.447301,"lng":136.53199,"zip":"9231232"},{"town":"下開発町","koaza":"キ","lat":36.446286,"lng":136.529799,"zip":"9231232"},{"town":"北市町","koaza":"リ","lat":36.455362,"lng":136.532989,"zip":"9231236"},{"town":"北市町","koaza":"ホ","lat":36.452012,"lng":136.531247,"zip":"9231236"},{"town":"和気町","koaza":"オ","lat":36.42965,"lng":136.532077,"zip":"9231224"},{"town":"和気町","koaza":"を","lat":36.422884,"lng":136.532508,"zip":"9231224"},{"town":"下開発町","koaza":"エ","lat":36.446159,"lng":136.531802,"zip":"9231232"},{"town":"徳久町","koaza":"ロ","lat":36.450733,"lng":136.532117,"zip":"9231235"},{"town":"和気町","koaza":"ち","lat":36.426973,"lng":136.53285,"zip":"9231224"},{"town":"北市町","koaza":"ロ","lat":36.452351,"lng":136.534992,"zip":"9231236"},{"town":"下開発町","koaza":"イ","lat":36.447998,"lng":136.53301,"zip":"9231232"},{"town":"徳山町","koaza":"下","lat":36.435091,"lng":136.533736,"zip":"9231222"},{"town":"和気町","koaza":"リ","lat":36.427001,"lng":136.535807,"zip":"9231224"},{"town":"和気町","koaza":"と","lat":36.425958,"lng":136.535404,"zip":"9231224"},{"town":"上開発町","koaza":"ホ","lat":36.448372,"lng":136.535065,"zip":"9231231"},{"town":"出口町","koaza":"ニ","lat":36.459451,"lng":136.539601,"zip":"9231247"},{"town":"徳山町","koaza":"タ","lat":36.435668,"lng":136.537569,"zip":"9231222"},{"town":"上開発町","koaza":"ニ","lat":36.450949,"lng":136.535593,"zip":"9231231"},{"town":"上開発町","koaza":"ヘ","lat":36.447345,"lng":136.537023,"zip":"9231231"},{"town":"和気町","koaza":"よ","lat":36.429824,"lng":136.537412,"zip":"9231224"},{"town":"和気町","koaza":"チ","lat":36.42553,"lng":136.537347,"zip":"9231224"},{"town":"上開発町","koaza":"イ","lat":36.449131,"lng":136.537927,"zip":"9231231"},{"town":"上開発町","koaza":"ハ","lat":36.451513,"lng":136.540314,"zip":"9231231"},{"town":"徳山町","koaza":"ト","lat":36.433324,"lng":136.539263,"zip":"9231222"},{"town":"和気町","koaza":"ウ","lat":36.430557,"lng":136.538956,"zip":"9231224"},{"town":"和気町","koaza":"井","lat":36.428246,"lng":136.540625,"zip":"9231224"},{"town":"徳山町","koaza":"上","lat":36.439328,"lng":136.542672,"zip":"9231222"},{"town":"出口町","koaza":"ホ","lat":36.456591,"lng":136.54055,"zip":"9231247"},{"town":"上開発町","koaza":"ト","lat":36.448352,"lng":136.539868,"zip":"9231231"},{"town":"和気町","koaza":"ロ","lat":36.42378,"lng":136.544854,"zip":"9231224"},{"town":"和気町","koaza":"ヘ","lat":36.426252,"lng":136.538737,"zip":"9231224"},{"town":"和気町","koaza":"ホ","lat":36.428552,"lng":136.541907,"zip":"9231224"},{"town":"倉重町","koaza":"丁","lat":36.453145,"lng":136.542203,"zip":"9231246"},{"town":"和気町","koaza":"は","lat":36.424395,"lng":136.542727,"zip":"9231224"},{"town":"出口町","koaza":"ロ","lat":36.454743,"lng":136.542112,"zip":"9231247"},{"town":"徳山町","koaza":"子","lat":36.438791,"lng":136.543501,"zip":"9231222"},{"town":"出口町","koaza":"イ","lat":36.454828,"lng":136.543507,"zip":"9231247"},{"town":"出口町","koaza":"ヘ","lat":36.455929,"lng":136.546031,"zip":"9231247"},{"town":"倉重町","koaza":"甲","lat":36.452801,"lng":136.543953,"zip":"9231246"},{"town":"三ツ屋町","koaza":"ロ","lat":36.452194,"lng":136.547373,"zip":"9231243"},{"town":"辰口町","koaza":"ヌ","lat":36.444692,"lng":136.547925,"zip":"9231245"},{"town":"辰口町","koaza":"チ","lat":36.44908,"lng":136.546969,"zip":"9231245"},{"town":"辰口町","koaza":"リ","lat":36.447831,"lng":136.547415,"zip":"9231245"},{"town":"和気町","koaza":"ろ","lat":36.423455,"lng":136.546647,"zip":"9231224"},{"town":"来丸町","koaza":"ワ","lat":36.447954,"lng":136.548035,"zip":"9231244"},{"town":"三ツ屋町","koaza":"イ","lat":36.453074,"lng":136.548307,"zip":"9231243"},{"town":"和気町","koaza":"イ","lat":36.423364,"lng":136.548317,"zip":"9231224"},{"town":"寺畠町","koaza":"丁","lat":36.421842,"lng":136.548279,"zip":"9231223"},{"town":"三ツ屋町","koaza":"チ","lat":36.451706,"lng":136.548605,"zip":"9231243"},{"town":"徳山町","koaza":"ナ","lat":36.435735,"lng":136.55075,"zip":"9231222"},{"town":"湯屋町","koaza":"リ","lat":36.442628,"lng":136.549946,"zip":"9231221"},{"town":"湯屋町","koaza":"カ","lat":36.443993,"lng":136.551042,"zip":"9231221"},{"town":"湯屋町","koaza":"ヘ","lat":36.439709,"lng":136.552036,"zip":"9231221"},{"town":"三ツ屋町","koaza":"ニ","lat":36.454655,"lng":136.553649,"zip":"9231243"},{"town":"山田町","koaza":"ロ","lat":36.455802,"lng":136.554007,"zip":"9231241"},{"town":"湯屋町","koaza":"ト","lat":36.441823,"lng":136.554584,"zip":"9231221"},{"town":"三ツ屋町","koaza":"ト","lat":36.452638,"lng":136.553945,"zip":"9231243"},{"town":"三ツ屋町","koaza":"ヘ","lat":36.453673,"lng":136.55438,"zip":"9231243"},{"town":"岩内町","koaza":"ニ","lat":36.458354,"lng":136.563113,"zip":"9231201"},{"town":"火釜町","koaza":"リ","lat":36.449237,"lng":136.560416,"zip":"9231242"},{"town":"岩内町","koaza":"カ","lat":36.453658,"lng":136.564455,"zip":"9231201"},{"town":"岩内町","koaza":"ロ","lat":36.455206,"lng":136.566899,"zip":"9231201"},{"town":"岩内町","koaza":"イ","lat":36.45431,"lng":136.56831,"zip":"9231201"},{"town":"岩内町","koaza":"ワ","lat":36.453914,"lng":136.567588,"zip":"9231201"},{"town":"岩内町","koaza":"ル","lat":36.453462,"lng":136.570052,"zip":"9231201"},{"town":"岩内町","koaza":"ヌ","lat":36.45368,"lng":136.571225,"zip":"9231201"},{"town":"岩内町","koaza":"リ","lat":36.454774,"lng":136.571588,"zip":"9231201"},{"town":"宮竹町","koaza":"ニ","lat":36.452785,"lng":136.583813,"zip":"9231205"},{"town":"宮竹町","koaza":"ホ","lat":36.454378,"lng":136.583635,"zip":"9231205"},{"town":"宮竹町","koaza":"イ","lat":36.452793,"lng":136.587604,"zip":"9231205"},{"town":"宮竹町","koaza":"ハ","lat":36.451264,"lng":136.586173,"zip":"9231205"},{"town":"大口町","koaza":"イ","lat":36.437279,"lng":136.595586,"zip":"9231212"},{"town":"宮竹町","koaza":"レ","lat":36.451723,"lng":136.588971,"zip":"9231205"},{"town":"宮竹町","koaza":"タ","lat":36.452569,"lng":136.593363,"zip":"9231205"},{"town":"宮竹町","koaza":"ヨ","lat":36.453324,"lng":136.5927,"zip":"9231205"},{"town":"宮竹町","koaza":"カ","lat":36.453592,"lng":136.59587,"zip":"9231205"},{"town":"灯台笹町","koaza":"ヌ","lat":36.450929,"lng":136.604753,"zip":"9231206"},{"town":"和気町","koaza":"利","lat":36.426147,"lng":136.534692,"zip":"9231224"},{"town":"和気町","koaza":"ル","lat":36.426561,"lng":136.534423,"zip":"9231224"},{"town":"倉重町","koaza":"乙","lat":36.453641,"lng":136.544407,"zip":"9231246"},{"town":"山口町","koaza":"ト","lat":36.431332,"lng":136.43135,"zip":"9290126"},{"town":"山口町","koaza":"ワ","lat":36.428547,"lng":136.431688,"zip":"9290126"},{"town":"山口町","koaza":"ヨ","lat":36.430196,"lng":136.434464,"zip":"9290126"},{"town":"山口町","koaza":"リ","lat":36.435787,"lng":136.433651,"zip":"9290126"},{"town":"山口町","koaza":"カ","lat":36.432781,"lng":136.434641,"zip":"9290126"},{"town":"山口町","koaza":"ホ","lat":36.436481,"lng":136.437699,"zip":"9290126"},{"town":"山口町","koaza":"ヘ","lat":36.434206,"lng":136.435923,"zip":"9290126"},{"town":"山口町","koaza":"ヲ","lat":36.432679,"lng":136.435828,"zip":"9290126"},{"town":"山口町","koaza":"タ","lat":36.432254,"lng":136.43815,"zip":"9290126"},{"town":"山口町","koaza":"ハ","lat":36.433146,"lng":136.437511,"zip":"9290126"},{"town":"山口町","koaza":"ニ","lat":36.435211,"lng":136.43871,"zip":"9290126"},{"town":"道林町","koaza":"ロ","lat":36.438915,"lng":136.439435,"zip":"9290125"},{"town":"山口町","koaza":"ル","lat":36.435756,"lng":136.44068,"zip":"9290126"},{"town":"山口町","koaza":"レ","lat":36.432753,"lng":136.440417,"zip":"9290126"},{"town":"道林町","koaza":"丑","lat":36.439061,"lng":136.4428,"zip":"9290125"},{"town":"道林町","koaza":"ね","lat":36.439756,"lng":136.446401,"zip":"9290125"},{"town":"道林町","koaza":"ヘ","lat":36.442557,"lng":136.442334,"zip":"9290125"},{"town":"根上町","koaza":"乙","lat":36.437377,"lng":136.445298,"zip":"9290116"},{"town":"道林町","koaza":"ハ","lat":36.440363,"lng":136.441361,"zip":"9290125"},{"town":"道林町","koaza":"ホ","lat":36.44152,"lng":136.44651,"zip":"9290125"},{"town":"浜町","koaza":"ヌ","lat":36.44596,"lng":136.44837,"zip":"9290124"},{"town":"道林町","koaza":"チ","lat":36.442094,"lng":136.447337,"zip":"9290125"},{"town":"浜町","koaza":"タ","lat":36.448557,"lng":136.450377,"zip":"9290124"},{"town":"高坂町","koaza":"ハ","lat":36.438362,"lng":136.448032,"zip":"9290116"},{"town":"道林町","koaza":"ト","lat":36.44322,"lng":136.446336,"zip":"9290125"},{"town":"道林町","koaza":"寅","lat":36.441855,"lng":136.449557,"zip":"9290125"},{"town":"高坂町","koaza":"ト","lat":36.440331,"lng":136.449102,"zip":"9290116"},{"town":"高坂町","koaza":"ロ","lat":36.438867,"lng":136.451594,"zip":"9290116"},{"town":"浜町","koaza":"ル","lat":36.447082,"lng":136.448961,"zip":"9290124"},{"town":"中町","koaza":"レ","lat":36.451262,"lng":136.452003,"zip":"9290123"},{"town":"高坂町","koaza":"ニ","lat":36.439526,"lng":136.449873,"zip":"9290116"},{"town":"浜町","koaza":"辰","lat":36.444521,"lng":136.451681,"zip":"9290124"},{"town":"下ノ江町","koaza":"酉","lat":36.442126,"lng":136.452847,"zip":"9290115"},{"town":"浜町","koaza":"巳","lat":36.445747,"lng":136.451367,"zip":"9290124"},{"town":"下ノ江町","koaza":"甲","lat":36.443371,"lng":136.452852,"zip":"9290115"},{"town":"高坂町","koaza":"イ","lat":36.437617,"lng":136.452001,"zip":"9290116"},{"town":"下ノ江町","koaza":"申","lat":36.441576,"lng":136.45359,"zip":"9290115"},{"town":"大浜町","koaza":"ム","lat":36.454998,"lng":136.453455,"zip":"9290122"},{"town":"中町","koaza":"ソ","lat":36.452504,"lng":136.453486,"zip":"9290123"},{"town":"下ノ江町","koaza":"イ","lat":36.436108,"lng":136.454383,"zip":"9290115"},{"town":"下ノ江町","koaza":"未","lat":36.441215,"lng":136.454857,"zip":"9290115"},{"town":"中町","koaza":"ツ","lat":36.451239,"lng":136.454956,"zip":"9290123"},{"town":"下ノ江町","koaza":"ト","lat":36.439262,"lng":136.454717,"zip":"9290115"},{"town":"下ノ江町","koaza":"ロ","lat":36.43579,"lng":136.455735,"zip":"9290115"},{"town":"大浜町","koaza":"ク","lat":36.457843,"lng":136.457171,"zip":"9290122"},{"town":"浜町","koaza":"甲","lat":36.445514,"lng":136.455117,"zip":"9290124"},{"town":"大浜町","koaza":"ウ","lat":36.455828,"lng":136.456038,"zip":"9290122"},{"town":"下ノ江町","koaza":"ヘ","lat":36.441571,"lng":136.456929,"zip":"9290115"},{"town":"浜開発町","koaza":"丁","lat":36.445415,"lng":136.456859,"zip":"9290114"},{"town":"下ノ江町","koaza":"ホ","lat":36.441713,"lng":136.458773,"zip":"9290115"},{"town":"大浜町","koaza":"フ","lat":36.461879,"lng":136.46024,"zip":"9290122"},{"town":"大浜町","koaza":"井","lat":36.453513,"lng":136.458369,"zip":"9290122"},{"town":"大浜町","koaza":"マ","lat":36.460644,"lng":136.45948,"zip":"9290122"},{"town":"浜町","koaza":"カ","lat":36.447637,"lng":136.458497,"zip":"9290124"},{"town":"中町","koaza":"子","lat":36.449632,"lng":136.456778,"zip":"9290123"},{"town":"大浜町","koaza":"ノ","lat":36.455396,"lng":136.458912,"zip":"9290122"},{"town":"大浜町","koaza":"オ","lat":36.456279,"lng":136.459423,"zip":"9290122"},{"town":"浜開発町","koaza":"丙","lat":36.444673,"lng":136.458561,"zip":"9290114"},{"town":"中町","koaza":"ナ","lat":36.450964,"lng":136.458323,"zip":"9290123"},{"town":"大成町","koaza":"ル","lat":36.447947,"lng":136.460066,"zip":"9290113"},{"town":"下ノ江町","koaza":"ハ","lat":36.436102,"lng":136.460761,"zip":"9290115"},{"town":"大浜町","koaza":"ヤ","lat":36.45844,"lng":136.460934,"zip":"9290122"},{"town":"大成町","koaza":"ト","lat":36.451214,"lng":136.462281,"zip":"9290113"},{"town":"大成町","koaza":"チ","lat":36.450534,"lng":136.460412,"zip":"9290113"},{"town":"浜開発町","koaza":"乙","lat":36.445532,"lng":136.461495,"zip":"9290114"},{"town":"大成町","koaza":"ヘ","lat":36.452144,"lng":136.46158,"zip":"9290113"},{"town":"大成町","koaza":"ハ","lat":36.452778,"lng":136.462396,"zip":"9290113"},{"town":"大成町","koaza":"ニ","lat":36.453087,"lng":136.461455,"zip":"9290113"},{"town":"大成町","koaza":"ロ","lat":36.452989,"lng":136.462767,"zip":"9290113"},{"town":"中ノ江町","koaza":"ヘ","lat":36.438365,"lng":136.466646,"zip":"9290105"},{"town":"吉原釜屋町","koaza":"ヲ","lat":36.462883,"lng":136.463666,"zip":"9290121"},{"town":"大浜町","koaza":"ケ","lat":36.458764,"lng":136.462351,"zip":"9290122"},{"town":"大成町","koaza":"ヌ","lat":36.448638,"lng":136.462509,"zip":"9290113"},{"town":"大成町","koaza":"リ","lat":36.449971,"lng":136.462508,"zip":"9290113"},{"town":"福島町","koaza":"オ","lat":36.456232,"lng":136.462957,"zip":"9290112"},{"town":"浜開発町","koaza":"甲","lat":36.445105,"lng":136.464535,"zip":"9290114"},{"town":"大成町","koaza":"ワ","lat":36.452588,"lng":136.46529,"zip":"9290113"},{"town":"吉原釜屋町","koaza":"ル","lat":36.462534,"lng":136.464604,"zip":"9290121"},{"town":"大成町","koaza":"ツ","lat":36.453394,"lng":136.465136,"zip":"9290113"},{"town":"福島町","koaza":"ソ","lat":36.458048,"lng":136.465175,"zip":"9290112"},{"town":"中ノ江町","koaza":"イ","lat":36.437931,"lng":136.468422,"zip":"9290105"},{"town":"中ノ江町","koaza":"は","lat":36.440081,"lng":136.467085,"zip":"9290105"},{"town":"福島町","koaza":"井","lat":36.460145,"lng":136.465566,"zip":"9290112"},{"town":"中ノ江町","koaza":"ほ","lat":36.439024,"lng":136.465438,"zip":"9290105"},{"town":"福島町","koaza":"タ","lat":36.455598,"lng":136.464878,"zip":"9290112"},{"town":"吉原釜屋町","koaza":"ロ","lat":36.46746,"lng":136.465646,"zip":"9290121"},{"town":"福島町","koaza":"マ","lat":36.460744,"lng":136.466063,"zip":"9290112"},{"town":"福島町","koaza":"い","lat":36.455741,"lng":136.467218,"zip":"9290112"},{"town":"福島町","koaza":"ツ","lat":36.459911,"lng":136.467572,"zip":"9290112"},{"town":"福島町","koaza":"ム","lat":36.461314,"lng":136.468306,"zip":"9290112"},{"town":"福島町","koaza":"ヨ","lat":36.45842,"lng":136.467662,"zip":"9290112"},{"town":"中ノ江町","koaza":"と","lat":36.437183,"lng":136.470279,"zip":"9290105"},{"town":"福島町","koaza":"ウ","lat":36.461768,"lng":136.467583,"zip":"9290112"},{"town":"吉原釜屋町","koaza":"ヌ","lat":36.463686,"lng":136.469036,"zip":"9290121"},{"town":"吉原釜屋町","koaza":"ハ","lat":36.469403,"lng":136.468898,"zip":"9290121"},{"town":"福島町","koaza":"レ","lat":36.454838,"lng":136.463528,"zip":"9290112"},{"town":"福島町","koaza":"ノ","lat":36.455483,"lng":136.463435,"zip":"9290112"},{"town":"大浜町","koaza":"コ","lat":36.461632,"lng":136.462384,"zip":"9290122"},{"town":"吉原釜屋町","koaza":"甲","lat":36.465038,"lng":136.465796,"zip":"9290121"},{"town":"吉原釜屋町","koaza":"ニ","lat":36.466269,"lng":136.4653,"zip":"9290121"},{"town":"吉原釜屋町","koaza":"イ","lat":36.465663,"lng":136.463016,"zip":"9290121"},{"town":"福島町","koaza":"ラ","lat":36.463186,"lng":136.469995,"zip":"9290112"},{"town":"福島町","koaza":"ろ","lat":36.45629,"lng":136.471327,"zip":"9290112"},{"town":"中ノ江町","koaza":"ろ","lat":36.441249,"lng":136.469965,"zip":"9290105"},{"town":"吉光町","koaza":"北","lat":36.452535,"lng":136.497417,"zip":"9231123"},{"town":"寺井町","koaza":"ハ","lat":36.444607,"lng":136.496201,"zip":"9231121"},{"town":"寺井町","koaza":"よ","lat":36.436435,"lng":136.497578,"zip":"9231121"},{"town":"末信町","koaza":"チ","lat":36.434628,"lng":136.496185,"zip":"9231117"},{"town":"牛島町","koaza":"リ","lat":36.429326,"lng":136.497035,"zip":"9231113"},{"town":"上清水町","koaza":"ハ","lat":36.454024,"lng":136.521507,"zip":"9231237"},{"town":"徳久町","koaza":"ソ","lat":36.450315,"lng":136.523328,"zip":"9231235"},{"town":"徳久町","koaza":"タ","lat":36.446944,"lng":136.523726,"zip":"9231235"},{"town":"寺井町","koaza":"ツ","lat":36.439446,"lng":136.491525,"zip":"9231121"},{"town":"寺井町","koaza":"わ","lat":36.439024,"lng":136.497681,"zip":"9231121"},{"town":"寺井町","koaza":"ワ","lat":36.438781,"lng":136.495863,"zip":"9231121"},{"town":"寺井町","koaza":"カ","lat":36.438134,"lng":136.498838,"zip":"9231121"},{"town":"三ツ屋町","koaza":"ホ","lat":36.455319,"lng":136.553669,"zip":"9231243"},{"town":"倉重町","koaza":"戊","lat":36.452136,"lng":136.542975,"zip":"9231246"},{"town":"上開発町","koaza":"チ","lat":36.446476,"lng":136.541563,"zip":"9231231"},{"town":"辰口町","koaza":"ロ","lat":36.446703,"lng":136.543232,"zip":"9231245"},{"town":"上開発町","koaza":"リ","lat":36.446252,"lng":136.541189,"zip":"9231231"},{"town":"上開発町","koaza":"ル","lat":36.446654,"lng":136.5392,"zip":"9231231"},{"town":"下開発町","koaza":"ウ","lat":36.446881,"lng":136.533917,"zip":"9231232"},{"town":"荒屋町","koaza":"ニ","lat":36.447242,"lng":136.526011,"zip":"9231233"},{"town":"下開発町","koaza":"カ","lat":36.443578,"lng":136.526921,"zip":"9231232"},{"town":"荒屋町","koaza":"カ","lat":36.444342,"lng":136.524678,"zip":"9231233"},{"town":"高座町","koaza":"ニ","lat":36.446831,"lng":136.519324,"zip":"9231234"},{"town":"秋常町","koaza":"甲","lat":36.447583,"lng":136.518511,"zip":"9231103"},{"town":"秋常町","koaza":"ヌ","lat":36.446946,"lng":136.517802,"zip":"9231103"},{"town":"秋常町","koaza":"ル","lat":36.449095,"lng":136.516568,"zip":"9231103"},{"town":"秋常町","koaza":"チ","lat":36.448995,"lng":136.517407,"zip":"9231103"},{"town":"和田町","koaza":"イ","lat":36.44247,"lng":136.5096,"zip":"9231106"},{"town":"和田町","koaza":"ロ","lat":36.442184,"lng":136.509182,"zip":"9231106"},{"town":"和田町","koaza":"ク","lat":36.441992,"lng":136.508312,"zip":"9231106"},{"town":"湯屋町","koaza":"ヌ","lat":36.443528,"lng":136.5513,"zip":"9231221"},{"town":"湯屋町","koaza":"チ","lat":36.442403,"lng":136.55193,"zip":"9231221"},{"town":"湯屋町","koaza":"ル","lat":36.442645,"lng":136.552859,"zip":"9231221"},{"town":"湯屋町","koaza":"ソ","lat":36.439796,"lng":136.551703,"zip":"9231221"},{"town":"湯谷町","koaza":"ソ","lat":36.436883,"lng":136.521654,"zip":"9231104"},{"town":"湯谷町","koaza":"子","lat":36.436237,"lng":136.522523,"zip":"9231104"},{"town":"湯谷町","koaza":"レ","lat":36.43434,"lng":136.517415,"zip":"9231104"},{"town":"湯谷町","koaza":"タ","lat":36.436029,"lng":136.516166,"zip":"9231104"},{"town":"湯谷町","koaza":"ワ","lat":36.436295,"lng":136.515364,"zip":"9231104"},{"town":"湯谷町","koaza":"カ","lat":36.436468,"lng":136.515681,"zip":"9231104"},{"town":"湯谷町","koaza":"ニ","lat":36.437775,"lng":136.514474,"zip":"9231104"},{"town":"佐野町","koaza":"ム","lat":36.42966,"lng":136.514041,"zip":"9231112"},{"town":"佐野町","koaza":"タ","lat":36.428935,"lng":136.514837,"zip":"9231112"},{"town":"佐野町","koaza":"子","lat":36.429157,"lng":136.514462,"zip":"9231112"},{"town":"佐野町","koaza":"卯","lat":36.428709,"lng":136.513345,"zip":"9231112"},{"town":"佐野町","koaza":"ウ","lat":36.432348,"lng":136.513396,"zip":"9231112"},{"town":"山口町","koaza":"ロ","lat":36.431318,"lng":136.437105,"zip":"9290126"},{"town":"山口町","koaza":"ヌ","lat":36.432735,"lng":136.439703,"zip":"9290126"},{"town":"根上町","koaza":"甲","lat":36.435681,"lng":136.445982,"zip":"9290116"},{"town":"道林町","koaza":"卯","lat":36.444124,"lng":136.448223,"zip":"9290125"},{"town":"和気町","koaza":"い","lat":36.423952,"lng":136.546553,"zip":"9231224"},{"town":"和気町","koaza":"ほ","lat":36.426109,"lng":136.539508,"zip":"9231224"},{"town":"和気町","koaza":"ト","lat":36.425205,"lng":136.535565,"zip":"9231224"},{"town":"和気町","koaza":"ワ","lat":36.425747,"lng":136.533199,"zip":"9231224"},{"town":"和気町","koaza":"る","lat":36.425767,"lng":136.532533,"zip":"9231224"},{"town":"和気町","koaza":"兵","lat":36.425271,"lng":136.538784,"zip":"9231224"},{"town":"湯谷町","koaza":"チ","lat":36.437716,"lng":136.518633,"zip":"9231104"},{"town":"佐野町","koaza":"辰","lat":36.433427,"lng":136.513734,"zip":"9231112"},{"town":"佐野町","koaza":"ヤ","lat":36.432027,"lng":136.50957,"zip":"9231112"},{"town":"佐野町","koaza":"ル","lat":36.427484,"lng":136.512473,"zip":"9231112"},{"town":"佐野町","koaza":"中","lat":36.427314,"lng":136.508958,"zip":"9231112"},{"town":"和気町","koaza":"に","lat":36.425231,"lng":136.542558,"zip":"9231224"},{"town":"湯谷町","koaza":"ツ","lat":36.434377,"lng":136.518125,"zip":"9231104"},{"town":"末信町","koaza":"一","lat":36.433085,"lng":136.499627,"zip":"9231117"},{"town":"小杉町","koaza":"南","lat":36.416343,"lng":136.483541,"zip":"9231114"},{"town":"吉原釜屋町","koaza":"ワ","lat":36.463095,"lng":136.460933,"zip":"9290121"},{"town":"浜町","koaza":"リ","lat":36.444816,"lng":136.451364,"zip":"9290124"},{"town":"浜町","koaza":"ヲ","lat":36.446359,"lng":136.453511,"zip":"9290124"},{"town":"福島町","koaza":"ワ","lat":36.461272,"lng":136.469305,"zip":"9290112"},{"town":"福島町","koaza":"ヲ","lat":36.462484,"lng":136.470558,"zip":"9290112"},{"town":"福島町","koaza":"子","lat":36.462137,"lng":136.469743,"zip":"9290112"},{"town":"福島町","koaza":"ヌ","lat":36.460959,"lng":136.470488,"zip":"9290112"},{"town":"福島町","koaza":"カ","lat":36.460771,"lng":136.469895,"zip":"9290112"},{"town":"福島町","koaza":"ク","lat":36.455969,"lng":136.462153,"zip":"9290112"},{"town":"大成町","koaza":"タ","lat":36.454271,"lng":136.461021,"zip":"9290113"},{"town":"大浜町","koaza":"テ","lat":36.456395,"lng":136.461799,"zip":"9290122"},{"town":"上清水町","koaza":"ト","lat":36.458637,"lng":136.523898,"zip":"9231237"},{"town":"秋常町","koaza":"ヲ","lat":36.448547,"lng":136.517298,"zip":"9231103"},{"town":"下清水町","koaza":"ソ","lat":36.46019,"lng":136.516603,"zip":"9231238"},{"town":"粟生町","koaza":"ネ","lat":36.458646,"lng":136.507487,"zip":"9231101"},{"town":"粟生町","koaza":"ツ","lat":36.458672,"lng":136.509565,"zip":"9231101"},{"town":"粟生町","koaza":"ク","lat":36.460537,"lng":136.505312,"zip":"9231101"},{"town":"粟生町","koaza":"ヤ","lat":36.459749,"lng":136.511395,"zip":"9231101"},{"town":"粟生町","koaza":"ニ","lat":36.452576,"lng":136.508818,"zip":"9231101"},{"town":"三道山町","koaza":"ト","lat":36.447277,"lng":136.506364,"zip":"9231124"},{"town":"寺井町","koaza":"ク","lat":36.444196,"lng":136.505865,"zip":"9231121"},{"town":"寺井町","koaza":"を","lat":36.443283,"lng":136.504555,"zip":"9231121"},{"town":"吉光町","koaza":"チ","lat":36.450309,"lng":136.498883,"zip":"9231123"},{"town":"吉光町","koaza":"南","lat":36.450444,"lng":136.499666,"zip":"9231123"},{"town":"東任田町","koaza":"南","lat":36.448859,"lng":136.495114,"zip":"9231122"},{"town":"寺井町","koaza":"は","lat":36.443605,"lng":136.496215,"zip":"9231121"},{"town":"寺井町","koaza":"ト","lat":36.442945,"lng":136.494855,"zip":"9231121"},{"town":"上清水町","koaza":"リ","lat":36.457248,"lng":136.531273,"zip":"9231237"},{"town":"寺井町","koaza":"子","lat":36.44094,"lng":136.491388,"zip":"9231121"},{"town":"西任田町","koaza":"ル","lat":36.449362,"lng":136.485142,"zip":"9290102"},{"town":"西任田町","koaza":"ハ","lat":36.44864,"lng":136.486641,"zip":"9290102"},{"town":"浜町","koaza":"ワ","lat":36.446455,"lng":136.455996,"zip":"9290124"},{"town":"浜町","koaza":"ヨ","lat":36.44759,"lng":136.454238,"zip":"9290124"},{"town":"寺井町","koaza":"と","lat":36.443083,"lng":136.4967,"zip":"9231121"},{"town":"大成町","koaza":"イ","lat":36.453687,"lng":136.462986,"zip":"9290113"},{"town":"大成町","koaza":"ソ","lat":36.453512,"lng":136.464553,"zip":"9290113"},{"town":"大成町","koaza":"ホ","lat":36.4523,"lng":136.462246,"zip":"9290113"},{"town":"福島町","koaza":"ヤ","lat":36.459205,"lng":136.463375,"zip":"9290112"},{"town":"大浜町","koaza":"ナ","lat":36.452341,"lng":136.458144,"zip":"9290122"},{"town":"大浜町","koaza":"酉","lat":36.452004,"lng":136.457408,"zip":"9290122"},{"town":"大浜町","koaza":"ラ","lat":36.454258,"lng":136.455777,"zip":"9290122"},{"town":"中町","koaza":"戌","lat":36.452399,"lng":136.455088,"zip":"9290123"},{"town":"中町","koaza":"ム","lat":36.453538,"lng":136.454344,"zip":"9290123"},{"town":"中町","koaza":"ラ","lat":36.452517,"lng":136.455921,"zip":"9290123"},{"town":"中町","koaza":"酉","lat":36.451621,"lng":136.456946,"zip":"9290123"},{"town":"中町","koaza":"申","lat":36.450374,"lng":136.457248,"zip":"9290123"},{"town":"中町","koaza":"ヨ","lat":36.449687,"lng":136.45479,"zip":"9290123"},{"town":"大浜町","koaza":"亥","lat":36.45411,"lng":136.45806,"zip":"9290122"},{"town":"浜開発町","koaza":"戊","lat":36.444545,"lng":136.456765,"zip":"9290114"},{"town":"中町","koaza":"未","lat":36.448893,"lng":136.455524,"zip":"9290123"},{"town":"浜町","koaza":"午","lat":36.448298,"lng":136.454633,"zip":"9290124"},{"town":"中町","koaza":"カ","lat":36.448344,"lng":136.457429,"zip":"9290123"},{"town":"粟生町","koaza":"ウ","lat":36.460855,"lng":136.494375,"zip":"9231101"},{"town":"赤井町","koaza":"に","lat":36.460581,"lng":136.493419,"zip":"9290101"}]