[{"town":"字朝日","koaza":"","lat":36.468136,"lng":136.491066,"zip":"9231200"},{"town":"字三反田","koaza":"","lat":36.464769,"lng":136.57203,"zip":"9231200"},{"town":"字田子島","koaza":"","lat":36.470111,"lng":136.530895,"zip":"9231200"},{"town":"字橘","koaza":"","lat":36.471984,"lng":136.502948,"zip":"9231200"},{"town":"字橘新","koaza":"","lat":36.478126,"lng":136.493494,"zip":"9231200"},{"town":"字土室","koaza":"","lat":36.474153,"lng":136.554389,"zip":"9231200"},{"town":"字藤蔵","koaza":"","lat":36.459766,"lng":136.599784,"zip":"9231200"},{"town":"字中島","koaza":"","lat":36.46399,"lng":136.587399,"zip":"9231200"},{"town":"字壱ツ屋","koaza":"","lat":36.468712,"lng":136.545703,"zip":"9231200"},{"town":"字舟場島","koaza":"","lat":36.468431,"lng":136.522831,"zip":"9231200"},{"town":"字山田先出","koaza":"","lat":36.464048,"lng":136.554022,"zip":"9231200"},{"town":"字与九郎島","koaza":"","lat":36.469887,"lng":136.538012,"zip":"9231200"},{"town":"字橘新","koaza":"リ","lat":36.476305,"lng":136.492084,"zip":"9231200"},{"town":"字橘新","koaza":"チ","lat":36.478185,"lng":136.492728,"zip":"9231200"},{"town":"字朝日","koaza":"イ","lat":36.471343,"lng":136.493512,"zip":"9231200"},{"town":"字橘新","koaza":"ホ","lat":36.479264,"lng":136.49331,"zip":"9231200"},{"town":"字朝日","koaza":"天","lat":36.462725,"lng":136.493665,"zip":"9231200"},{"town":"字橘新","koaza":"ニ","lat":36.480639,"lng":136.493961,"zip":"9231200"},{"town":"字朝日","koaza":"チ","lat":36.470023,"lng":136.493605,"zip":"9231200"},{"town":"字橘新","koaza":"イ","lat":36.476839,"lng":136.494412,"zip":"9231200"},{"town":"字橘新","koaza":"ロ","lat":36.479189,"lng":136.495881,"zip":"9231200"},{"town":"字橘","koaza":"イ","lat":36.477051,"lng":136.496658,"zip":"9231200"},{"town":"字橘新","koaza":"ハ","lat":36.480482,"lng":136.496907,"zip":"9231200"},{"town":"字朝日","koaza":"ル","lat":36.462397,"lng":136.496582,"zip":"9231200"},{"town":"字橘","koaza":"ル","lat":36.477867,"lng":136.497292,"zip":"9231200"},{"town":"字橘","koaza":"ヤ","lat":36.470619,"lng":136.50338,"zip":"9231200"},{"town":"字橘","koaza":"ラ","lat":36.472529,"lng":136.503036,"zip":"9231200"},{"town":"字橘","koaza":"レ","lat":36.473271,"lng":136.504733,"zip":"9231200"},{"town":"字橘","koaza":"ヨ","lat":36.475023,"lng":136.502972,"zip":"9231200"},{"town":"字橘","koaza":"チ","lat":36.475214,"lng":136.503229,"zip":"9231200"},{"town":"字橘","koaza":"ト","lat":36.47486,"lng":136.505427,"zip":"9231200"},{"town":"字橘","koaza":"ナ","lat":36.472148,"lng":136.505991,"zip":"9231200"},{"town":"字橘","koaza":"ハ","lat":36.474373,"lng":136.508682,"zip":"9231200"},{"town":"字橘","koaza":"ソ","lat":36.47287,"lng":136.50749,"zip":"9231200"},{"town":"字橘","koaza":"マ","lat":36.469285,"lng":136.509698,"zip":"9231200"},{"town":"字橘","koaza":"子","lat":36.470687,"lng":136.510818,"zip":"9231200"},{"town":"字橘","koaza":"ツ","lat":36.47226,"lng":136.510899,"zip":"9231200"},{"town":"字橘","koaza":"ケ","lat":36.468855,"lng":136.510163,"zip":"9231200"},{"town":"字橘","koaza":"ロ","lat":36.475229,"lng":136.511653,"zip":"9231200"},{"town":"字田子島","koaza":"ぬ","lat":36.470075,"lng":136.513044,"zip":"9231200"},{"town":"字田子島","koaza":"テ","lat":36.471091,"lng":136.513159,"zip":"9231200"},{"town":"字田子島","koaza":"ヘ","lat":36.476187,"lng":136.515149,"zip":"9231200"},{"town":"字田子島","koaza":"コ","lat":36.474947,"lng":136.514413,"zip":"9231200"},{"town":"字田子島","koaza":"に","lat":36.475605,"lng":136.516556,"zip":"9231200"},{"town":"字田子島","koaza":"は","lat":36.474038,"lng":136.514803,"zip":"9231200"},{"town":"字田子島","koaza":"マ","lat":36.473289,"lng":136.518416,"zip":"9231200"},{"town":"字田子島","koaza":"ケ","lat":36.474357,"lng":136.519348,"zip":"9231200"},{"town":"字田子島","koaza":"ウ","lat":36.47347,"lng":136.520069,"zip":"9231200"},{"town":"字田子島","koaza":"ち","lat":36.472906,"lng":136.517827,"zip":"9231200"},{"town":"字田子島","koaza":"ろ","lat":36.47511,"lng":136.52082,"zip":"9231200"},{"town":"字田子島","koaza":"ナ","lat":36.472471,"lng":136.522613,"zip":"9231200"},{"town":"字田子島","koaza":"い","lat":36.473198,"lng":136.524747,"zip":"9231200"},{"town":"字田子島","koaza":"井","lat":36.472586,"lng":136.521216,"zip":"9231200"},{"town":"字舟場島","koaza":"ハ","lat":36.469209,"lng":136.52406,"zip":"9231200"},{"town":"字田子島","koaza":"ヌ","lat":36.465188,"lng":136.526149,"zip":"9231200"},{"town":"字舟場島","koaza":"ロ","lat":36.46877,"lng":136.525127,"zip":"9231200"},{"town":"字田子島","koaza":"甲","lat":36.470671,"lng":136.52847,"zip":"9231200"},{"town":"字田子島","koaza":"レ","lat":36.472021,"lng":136.529997,"zip":"9231200"},{"town":"字与九郎島","koaza":"ヌ","lat":36.471717,"lng":136.532661,"zip":"9231200"},{"town":"字与九郎島","koaza":"リ","lat":36.471782,"lng":136.53502,"zip":"9231200"},{"town":"字与九郎島","koaza":"ル","lat":36.470915,"lng":136.537453,"zip":"9231200"},{"town":"字与九郎島","koaza":"ト","lat":36.472049,"lng":136.538106,"zip":"9231200"},{"town":"字与九郎島","koaza":"ヘ","lat":36.471581,"lng":136.539932,"zip":"9231200"},{"town":"字与九郎島","koaza":"ハ","lat":36.472289,"lng":136.540576,"zip":"9231200"},{"town":"字土室","koaza":"北","lat":36.478814,"lng":136.542727,"zip":"9231200"},{"town":"字壱ツ屋","koaza":"チ","lat":36.471176,"lng":136.543554,"zip":"9231200"},{"town":"字土室","koaza":"丁","lat":36.474149,"lng":136.543778,"zip":"9231200"},{"town":"字土室","koaza":"も","lat":36.479017,"lng":136.545011,"zip":"9231200"},{"town":"字土室","koaza":"西","lat":36.477106,"lng":136.544209,"zip":"9231200"},{"town":"字壱ツ屋","koaza":"ト","lat":36.471478,"lng":136.546178,"zip":"9231200"},{"town":"字壱ツ屋","koaza":"ヲ","lat":36.472187,"lng":136.544977,"zip":"9231200"},{"town":"字土室","koaza":"め","lat":36.475913,"lng":136.5448,"zip":"9231200"},{"town":"字土室","koaza":"ひ","lat":36.478326,"lng":136.546108,"zip":"9231200"},{"town":"字土室","koaza":"丙","lat":36.472618,"lng":136.546671,"zip":"9231200"},{"town":"字壱ツ屋","koaza":"ヘ","lat":36.468833,"lng":136.546011,"zip":"9231200"},{"town":"字土室","koaza":"ア","lat":36.477623,"lng":136.545816,"zip":"9231200"},{"town":"字土室","koaza":"コ","lat":36.477687,"lng":136.547179,"zip":"9231200"},{"town":"字土室","koaza":"東","lat":36.478369,"lng":136.548016,"zip":"9231200"},{"town":"字土室","koaza":"フ","lat":36.477125,"lng":136.547261,"zip":"9231200"},{"town":"字壱ツ屋","koaza":"ニ","lat":36.468245,"lng":136.547355,"zip":"9231200"},{"town":"字山田先出","koaza":"ソ","lat":36.465799,"lng":136.54802,"zip":"9231200"},{"town":"字土室","koaza":"あ","lat":36.480716,"lng":136.548761,"zip":"9231200"},{"town":"字山田先出","koaza":"礼","lat":36.466522,"lng":136.549547,"zip":"9231200"},{"town":"字土室","koaza":"え","lat":36.477064,"lng":136.550508,"zip":"9231200"},{"town":"字土室","koaza":"甲","lat":36.468829,"lng":136.552991,"zip":"9231200"},{"town":"字土室","koaza":"ま","lat":36.473142,"lng":136.554139,"zip":"9231200"},{"town":"字土室","koaza":"く","lat":36.47787,"lng":136.553528,"zip":"9231200"},{"town":"字土室","koaza":"の","lat":36.475151,"lng":136.558331,"zip":"9231200"},{"town":"字土室","koaza":"そ","lat":36.472936,"lng":136.556708,"zip":"9231200"},{"town":"字土室","koaza":"よ","lat":36.471859,"lng":136.558663,"zip":"9231200"},{"town":"字土室","koaza":"ツ","lat":36.47334,"lng":136.558082,"zip":"9231200"},{"town":"字土室","koaza":"た","lat":36.468513,"lng":136.558287,"zip":"9231200"},{"town":"字土室","koaza":"ナ","lat":36.474321,"lng":136.558797,"zip":"9231200"},{"town":"字土室","koaza":"ル","lat":36.473072,"lng":136.559577,"zip":"9231200"},{"town":"字土室","koaza":"カ","lat":36.469525,"lng":136.573124,"zip":"9231200"},{"town":"字土室","koaza":"ら","lat":36.474847,"lng":136.560886,"zip":"9231200"},{"town":"字土室","koaza":"ヌ","lat":36.47402,"lng":136.559956,"zip":"9231200"},{"town":"字土室","koaza":"わ","lat":36.471686,"lng":136.560627,"zip":"9231200"},{"town":"字山田先出","koaza":"仁","lat":36.466171,"lng":136.560874,"zip":"9231200"},{"town":"字土室","koaza":"を","lat":36.474331,"lng":136.561262,"zip":"9231200"},{"town":"字土室","koaza":"ほ","lat":36.467583,"lng":136.563116,"zip":"9231200"},{"town":"字土室","koaza":"ト","lat":36.471302,"lng":136.563318,"zip":"9231200"},{"town":"字土室","koaza":"ヘ","lat":36.470338,"lng":136.56513,"zip":"9231200"},{"town":"字三反田","koaza":"西","lat":36.467496,"lng":136.571306,"zip":"9231200"},{"town":"字三反田","koaza":"中","lat":36.467883,"lng":136.572603,"zip":"9231200"},{"town":"字三反田","koaza":"ロ","lat":36.46787,"lng":136.574669,"zip":"9231200"},{"town":"字三反田","koaza":"北","lat":36.468513,"lng":136.575185,"zip":"9231200"},{"town":"字三反田","koaza":"東","lat":36.465784,"lng":136.575353,"zip":"9231200"},{"town":"字土室","koaza":"い","lat":36.469956,"lng":136.575119,"zip":"9231200"},{"town":"字三反田","koaza":"イ","lat":36.467644,"lng":136.577538,"zip":"9231200"},{"town":"字中島","koaza":"ホ","lat":36.465064,"lng":136.582678,"zip":"9231200"},{"town":"字中島","koaza":"ニ","lat":36.46687,"lng":136.583603,"zip":"9231200"},{"town":"字中島","koaza":"ヘ","lat":36.464626,"lng":136.585885,"zip":"9231200"},{"town":"字中島","koaza":"ワ","lat":36.465067,"lng":136.586009,"zip":"9231200"},{"town":"字中島","koaza":"ハ","lat":36.466434,"lng":136.585566,"zip":"9231200"},{"town":"字中島","koaza":"ト","lat":36.46302,"lng":136.588307,"zip":"9231200"},{"town":"字中島","koaza":"ヲ","lat":36.463675,"lng":136.589417,"zip":"9231200"},{"town":"字中島","koaza":"ロ","lat":36.464513,"lng":136.589471,"zip":"9231200"},{"town":"字中島","koaza":"イ","lat":36.462775,"lng":136.591871,"zip":"9231200"},{"town":"字田子島","koaza":"酉","lat":36.468762,"lng":136.514023,"zip":"9231200"},{"town":"字朝日","koaza":"ホ","lat":36.467188,"lng":136.500125,"zip":"9231200"},{"town":"字橘","koaza":"テ","lat":36.468155,"lng":136.503692,"zip":"9231200"},{"town":"字橘","koaza":"エ","lat":36.466639,"lng":136.503991,"zip":"9231200"},{"town":"字田子島","koaza":"辰","lat":36.4729,"lng":136.513577,"zip":"9231200"},{"town":"字田子島","koaza":"卯","lat":36.472964,"lng":136.514835,"zip":"9231200"},{"town":"字田子島","koaza":"エ","lat":36.474508,"lng":136.514741,"zip":"9231200"},{"town":"字田子島","koaza":"ヤ","lat":36.473042,"lng":136.51858,"zip":"9231200"},{"town":"字田子島","koaza":"子","lat":36.471984,"lng":136.523219,"zip":"9231200"},{"town":"字田子島","koaza":"と","lat":36.471612,"lng":136.525164,"zip":"9231200"},{"town":"字田子島","koaza":"乙","lat":36.471433,"lng":136.527537,"zip":"9231200"},{"town":"字与九郎島","koaza":"イ","lat":36.472054,"lng":136.541625,"zip":"9231200"},{"town":"字与九郎島","koaza":"ロ","lat":36.471669,"lng":136.541583,"zip":"9231200"},{"town":"字土室","koaza":"サ","lat":36.47728,"lng":136.545409,"zip":"9231200"},{"town":"字橘","koaza":"コ","lat":36.468461,"lng":136.509478,"zip":"9231200"}]