[{"town":"赤崎町","koaza":"","lat":37.380985,"lng":136.818404,"zip":"9280053"},{"town":"海士町","koaza":"","lat":37.849929,"lng":136.916879,"zip":"9280072"},{"town":"石休場町","koaza":"","lat":37.365329,"lng":136.932306,"zip":"9280013"},{"town":"市ノ瀬町","koaza":"","lat":37.345989,"lng":136.914675,"zip":"9280015"},{"town":"稲舟町","koaza":"","lat":37.390385,"lng":136.928174,"zip":"9280004"},{"town":"打越町","koaza":"","lat":37.334069,"lng":136.885239,"zip":"9280028"},{"town":"鵜入町","koaza":"","lat":37.395105,"lng":136.848118,"zip":"9280065"},{"town":"小伊勢町","koaza":"","lat":37.382167,"lng":136.889241,"zip":"9280032"},{"town":"大沢町","koaza":"","lat":37.366653,"lng":136.821459,"zip":"9280054"},{"town":"大野町","koaza":"","lat":37.392025,"lng":136.941664,"zip":"9280005"},{"town":"小田屋町","koaza":"","lat":37.420358,"lng":137.029252,"zip":"9280251"},{"town":"釜屋谷町","koaza":"","lat":37.392583,"lng":136.883719,"zip":"9280064"},{"town":"上大沢町","koaza":"","lat":37.36686,"lng":136.791319,"zip":"9280055"},{"town":"上黒川町","koaza":"","lat":37.356626,"lng":136.843342,"zip":"9280045"},{"town":"上山町","koaza":"","lat":37.344811,"lng":136.804135,"zip":"9280057"},{"town":"河井町","koaza":"","lat":37.393614,"lng":136.906965,"zip":"9280001"},{"town":"北谷町","koaza":"","lat":37.351949,"lng":136.893117,"zip":"9280027"},{"town":"熊野町","koaza":"","lat":37.337743,"lng":136.90293,"zip":"9280016"},{"town":"気勝平町","koaza":"","lat":37.381338,"lng":136.895582,"zip":"9280023"},{"town":"里町","koaza":"","lat":37.424996,"lng":137.038239,"zip":"9280246"},{"town":"忍町","koaza":"","lat":37.400595,"lng":137.019522,"zip":"9280252"},{"town":"渋田町","koaza":"","lat":37.428623,"lng":137.048128,"zip":"9280241"},{"town":"下黒川町","koaza":"","lat":37.362244,"lng":136.856883,"zip":"9280044"},{"town":"白米町","koaza":"","lat":37.416908,"lng":136.999945,"zip":"9280256"},{"town":"新橋通","koaza":"","lat":37.393419,"lng":136.898608,"zip":"9280061"},{"town":"杉平町","koaza":"","lat":37.378242,"lng":136.916705,"zip":"9280011"},{"town":"惣領町","koaza":"","lat":37.393488,"lng":136.961117,"zip":"9280006"},{"town":"空熊町","koaza":"","lat":37.315712,"lng":136.874046,"zip":"9280037"},{"town":"尊利地町","koaza":"","lat":37.412761,"lng":137.021374,"zip":"9280253"},{"town":"滝又町","koaza":"","lat":37.323009,"lng":136.86262,"zip":"9280036"},{"town":"宅田町","koaza":"","lat":37.38546,"lng":136.900945,"zip":"9280022"},{"town":"中段町","koaza":"","lat":37.385615,"lng":136.882848,"zip":"9280041"},{"town":"塚田町","koaza":"","lat":37.392687,"lng":136.916581,"zip":"9280003"},{"town":"稲屋町","koaza":"","lat":37.372658,"lng":136.886875,"zip":"9280033"},{"town":"長井町","koaza":"","lat":37.366654,"lng":136.876838,"zip":"9280034"},{"town":"名舟町","koaza":"","lat":37.415933,"lng":137.015114,"zip":"9280254"},{"town":"縄又町","koaza":"","lat":37.339129,"lng":136.845576,"zip":"9280000"},{"town":"西院内町","koaza":"","lat":37.403025,"lng":137.04078,"zip":"9280244"},{"town":"西二又町","koaza":"","lat":37.35784,"lng":136.797138,"zip":"9280056"},{"town":"西山町","koaza":"","lat":37.396997,"lng":137.05417,"zip":"9280243"},{"town":"西脇町","koaza":"","lat":37.349126,"lng":136.900332,"zip":"9280026"},{"town":"野田町","koaza":"","lat":37.422597,"lng":137.010492,"zip":"9280255"},{"town":"東印内町","koaza":"","lat":37.408221,"lng":137.050204,"zip":"9280242"},{"town":"東中尾町","koaza":"","lat":37.363117,"lng":136.898677,"zip":"9280025"},{"town":"東山町","koaza":"","lat":37.402833,"lng":137.033402,"zip":"9280245"},{"town":"光浦町","koaza":"","lat":37.399362,"lng":136.873957,"zip":"9280067"},{"town":"深見町","koaza":"","lat":37.401056,"lng":136.989348,"zip":"9280007"},{"town":"鳳至町","koaza":"","lat":37.396974,"lng":136.897734,"zip":"9280073"},{"town":"房田町","koaza":"","lat":37.373055,"lng":136.857876,"zip":"9280043"},{"town":"二勢町","koaza":"","lat":37.387126,"lng":136.896312,"zip":"9280031"},{"town":"二ツ屋町","koaza":"","lat":37.389941,"lng":136.899356,"zip":"9280021"},{"town":"二俣町","koaza":"","lat":37.349611,"lng":136.866052,"zip":"9280046"},{"town":"久手川町","koaza":"","lat":37.381622,"lng":136.934581,"zip":"9280002"},{"town":"平成町","koaza":"","lat":37.394145,"lng":136.893146,"zip":"9280068"},{"town":"別所谷町","koaza":"","lat":37.345965,"lng":136.877916,"zip":"9280035"},{"town":"堀町","koaza":"","lat":37.396427,"lng":136.892115,"zip":"9280062"},{"town":"町野町粟蔵","koaza":"","lat":37.420263,"lng":137.101582,"zip":"9280215"},{"town":"町野町井面","koaza":"","lat":37.416028,"lng":137.083706,"zip":"9280217"},{"town":"町野町牛尾","koaza":"","lat":37.443314,"lng":137.113176,"zip":"9280211"},{"town":"町野町大川","koaza":"","lat":37.443944,"lng":137.052453,"zip":"9280231"},{"town":"町野町桶戸","koaza":"","lat":37.414993,"lng":137.092547,"zip":"9280216"},{"town":"町野町金蔵","koaza":"","lat":37.406066,"lng":137.073984,"zip":"9280236"},{"town":"町野町川西","koaza":"","lat":37.423079,"lng":137.070912,"zip":"9280235"},{"town":"町野町北円山","koaza":"","lat":37.399531,"lng":137.108943,"zip":"9280223"},{"town":"町野町佐野","koaza":"","lat":37.413182,"lng":137.115548,"zip":"9280214"},{"town":"町野町真久","koaza":"","lat":37.405463,"lng":137.097731,"zip":"9280221"},{"town":"町野町敷戸","koaza":"","lat":37.44325,"lng":137.087049,"zip":"9280203"},{"town":"町野町鈴屋","koaza":"","lat":37.429229,"lng":137.104884,"zip":"9280218"},{"town":"町野町曽々木","koaza":"","lat":37.457981,"lng":137.077788,"zip":"9280206"},{"town":"町野町寺地","koaza":"","lat":37.440872,"lng":137.09195,"zip":"9280202"},{"town":"町野町寺山","koaza":"","lat":37.434069,"lng":137.126326,"zip":"9280212"},{"town":"町野町徳成","koaza":"","lat":37.40167,"lng":137.086294,"zip":"9280226"},{"town":"町野町徳成谷内","koaza":"","lat":37.392928,"lng":137.08764,"zip":"9280225"},{"town":"町野町西時国","koaza":"","lat":37.453654,"lng":137.07947,"zip":"9280205"},{"town":"町野町東","koaza":"","lat":37.401302,"lng":137.095851,"zip":"9280222"},{"town":"町野町東大野","koaza":"","lat":37.434928,"lng":137.063743,"zip":"9280233"},{"town":"町野町広江","koaza":"","lat":37.442131,"lng":137.101815,"zip":"9280201"},{"town":"町野町伏戸","koaza":"","lat":37.444821,"lng":137.066558,"zip":"9280232"},{"town":"町野町舞谷","koaza":"","lat":37.407585,"lng":137.131924,"zip":"9280213"},{"town":"町野町真喜野","koaza":"","lat":37.427604,"lng":137.059303,"zip":"9280234"},{"town":"町野町南時国","koaza":"","lat":37.448501,"lng":137.085283,"zip":"9280204"},{"town":"町野町麦生野","koaza":"","lat":37.392342,"lng":137.095978,"zip":"9280224"},{"town":"マリンタウン","koaza":"","lat":37.395457,"lng":136.908856,"zip":"9280008"},{"town":"三井町市ノ坂","koaza":"","lat":37.286081,"lng":136.902832,"zip":"9292373"},{"town":"三井町内屋","koaza":"","lat":37.287123,"lng":136.876165,"zip":"9292374"},{"town":"三井町漆原","koaza":"","lat":37.306573,"lng":136.899617,"zip":"9292377"},{"town":"三井町小泉","koaza":"","lat":37.303511,"lng":136.910464,"zip":"9292378"},{"town":"三井町興徳寺","koaza":"","lat":37.319656,"lng":136.890195,"zip":"9292363"},{"town":"三井町新保","koaza":"","lat":37.298043,"lng":136.89171,"zip":"9292376"},{"town":"三井町洲衛","koaza":"","lat":37.292337,"lng":136.93492,"zip":"9292372"},{"town":"三井町渡合","koaza":"","lat":37.325045,"lng":136.900116,"zip":"9292365"},{"town":"三井町中","koaza":"","lat":37.314078,"lng":136.929918,"zip":"9292362"},{"town":"三井町長沢","koaza":"","lat":37.312653,"lng":136.896699,"zip":"9292379"},{"town":"三井町仁行","koaza":"","lat":37.347066,"lng":136.954329,"zip":"9292367"},{"town":"三井町細屋","koaza":"","lat":37.30411,"lng":136.885718,"zip":"9292375"},{"town":"三井町本江","koaza":"","lat":37.328791,"lng":136.905646,"zip":"9292366"},{"town":"三井町三洲穂","koaza":"","lat":37.301279,"lng":136.958829,"zip":"9292371"},{"town":"三井町与呂見","koaza":"","lat":37.336053,"lng":136.965326,"zip":"9292361"},{"town":"美谷町","koaza":"","lat":37.386026,"lng":136.859663,"zip":"9280066"},{"town":"水守町","koaza":"","lat":37.389082,"lng":136.890392,"zip":"9280063"},{"town":"門前町赤神","koaza":"","lat":37.24343,"lng":136.714622,"zip":"9272345"},{"town":"門前町浅生田","koaza":"","lat":37.30854,"lng":136.788328,"zip":"9272106"},{"town":"門前町荒屋","koaza":"","lat":37.276169,"lng":136.853907,"zip":"9272123"},{"town":"門前町安代原","koaza":"","lat":37.316183,"lng":136.774805,"zip":"9272107"},{"town":"門前町飯川谷","koaza":"","lat":37.231883,"lng":136.747004,"zip":"9272314"},{"town":"門前町五十洲","koaza":"","lat":37.341689,"lng":136.742651,"zip":"9272286"},{"town":"門前町池田","koaza":"","lat":37.254435,"lng":136.724996,"zip":"9272354"},{"town":"門前町井守上坂","koaza":"","lat":37.345904,"lng":136.770836,"zip":"9272274"},{"town":"門前町入山","koaza":"","lat":37.238989,"lng":136.727882,"zip":"9272336"},{"town":"門前町内保","koaza":"","lat":37.275872,"lng":136.805152,"zip":"9272137"},{"town":"門前町窕","koaza":"","lat":37.202525,"lng":136.751625,"zip":"9272322"},{"town":"門前町鵜山","koaza":"","lat":37.343144,"lng":136.753569,"zip":"9272281"},{"town":"門前町浦上","koaza":"","lat":37.319096,"lng":136.80485,"zip":"9272102"},{"town":"門前町上代","koaza":"","lat":37.235688,"lng":136.712794,"zip":"9272334"},{"town":"門前町江崎","koaza":"","lat":37.232099,"lng":136.766639,"zip":"9272303"},{"town":"門前町小石","koaza":"","lat":37.250851,"lng":136.800024,"zip":"9272141"},{"town":"門前町大釜","koaza":"","lat":37.21247,"lng":136.718049,"zip":"9272341"},{"town":"門前町大切","koaza":"","lat":37.241496,"lng":136.758938,"zip":"9272305"},{"town":"門前町大滝","koaza":"","lat":37.328932,"lng":136.766665,"zip":"9272282"},{"town":"門前町大泊","koaza":"","lat":37.238561,"lng":136.706259,"zip":"9272343"},{"town":"門前町鬼屋","koaza":"","lat":37.28243,"lng":136.770957,"zip":"9272147"},{"town":"門前町大生","koaza":"","lat":37.270237,"lng":136.749373,"zip":"9272163"},{"town":"門前町鹿磯","koaza":"","lat":37.296646,"lng":136.7368,"zip":"9272166"},{"town":"門前町貝吹","koaza":"","lat":37.290076,"lng":136.862086,"zip":"9272121"},{"town":"門前町風原","koaza":"","lat":37.255443,"lng":136.771205,"zip":"9272143"},{"town":"門前町鍛冶屋","koaza":"","lat":37.246017,"lng":136.739898,"zip":"9280000"},{"town":"門前町勝田","koaza":"","lat":37.297487,"lng":136.756843,"zip":"9272162"},{"town":"門前町上河内","koaza":"","lat":37.244603,"lng":136.788498,"zip":"9272142"},{"town":"門前町北川","koaza":"","lat":37.268893,"lng":136.732178,"zip":"9272352"},{"town":"門前町木原月","koaza":"","lat":37.216257,"lng":136.729486,"zip":"9272332"},{"town":"門前町切狭","koaza":"","lat":37.226149,"lng":136.761384,"zip":"9272311"},{"town":"門前町久川","koaza":"","lat":37.213216,"lng":136.773577,"zip":"9272321"},{"town":"門前町暮坂","koaza":"","lat":37.346851,"lng":136.780292,"zip":"9272273"},{"town":"門前町黒岩","koaza":"","lat":37.23582,"lng":136.719247,"zip":"9272335"},{"town":"門前町黒島町","koaza":"","lat":37.280808,"lng":136.736617,"zip":"9272165"},{"town":"門前町腰細","koaza":"","lat":37.242992,"lng":136.704738,"zip":"9272344"},{"town":"門前町小杉","koaza":"","lat":37.323799,"lng":136.752042,"zip":"9280000"},{"town":"門前町小滝","koaza":"","lat":37.269013,"lng":136.774815,"zip":"9272145"},{"town":"門前町小山","koaza":"","lat":37.251691,"lng":136.75261,"zip":"9272361"},{"town":"門前町是清","koaza":"","lat":37.258834,"lng":136.732982,"zip":"9272353"},{"town":"門前町定広","koaza":"","lat":37.255672,"lng":136.84289,"zip":"9272133"},{"town":"門前町猿橋","koaza":"","lat":37.263953,"lng":136.757095,"zip":"9272144"},{"town":"門前町四位","koaza":"","lat":37.300143,"lng":136.828965,"zip":"9272112"},{"town":"門前町椎木","koaza":"","lat":37.243205,"lng":136.752029,"zip":"9272362"},{"town":"門前町清水","koaza":"","lat":37.288793,"lng":136.76594,"zip":"9272175"},{"town":"門前町神明原","koaza":"","lat":37.210481,"lng":136.728554,"zip":"9272323"},{"town":"門前町白禿","koaza":"","lat":37.236884,"lng":136.757924,"zip":"9272304"},{"town":"門前町新町分","koaza":"","lat":37.243218,"lng":136.746019,"zip":"9272363"},{"town":"門前町薄野","koaza":"","lat":37.337384,"lng":136.781686,"zip":"9272275"},{"town":"門前町清沢","koaza":"","lat":37.2266,"lng":136.745331,"zip":"9272313"},{"town":"門前町千代","koaza":"","lat":37.266564,"lng":136.739728,"zip":"9272351"},{"town":"門前町平","koaza":"","lat":37.280004,"lng":136.832821,"zip":"9272131"},{"town":"門前町高根尾","koaza":"","lat":37.296895,"lng":136.782021,"zip":"9272172"},{"town":"門前町滝上","koaza":"","lat":37.309287,"lng":136.829968,"zip":"9272111"},{"town":"門前町滝町","koaza":"","lat":37.22413,"lng":136.731884,"zip":"9272325"},{"town":"門前町舘","koaza":"","lat":37.287576,"lng":136.761582,"zip":"9272173"},{"town":"門前町舘分","koaza":"","lat":37.223388,"lng":136.717338,"zip":"9280000"},{"town":"門前町谷口","koaza":"","lat":37.288131,"lng":136.812593,"zip":"9272114"},{"town":"門前町田村","koaza":"","lat":37.296993,"lng":136.788672,"zip":"9272105"},{"town":"門前町樽見","koaza":"","lat":37.360377,"lng":136.775576,"zip":"9272272"},{"town":"門前町地原","koaza":"","lat":37.263223,"lng":136.832445,"zip":"9272134"},{"town":"門前町剱地","koaza":"","lat":37.2267,"lng":136.706015,"zip":"9272342"},{"town":"門前町道下","koaza":"","lat":37.282513,"lng":136.745927,"zip":"9272164"},{"town":"門前町百成","koaza":"","lat":37.268514,"lng":136.827325,"zip":"9272135"},{"town":"門前町百成大角間","koaza":"","lat":37.34156,"lng":136.763478,"zip":"9272276"},{"town":"門前町俊兼","koaza":"","lat":37.294693,"lng":136.819108,"zip":"9272113"},{"town":"門前町栃木","koaza":"","lat":37.275602,"lng":136.788248,"zip":"9272154"},{"town":"門前町長井坂","koaza":"","lat":37.267889,"lng":136.847109,"zip":"9272132"},{"town":"門前町中田","koaza":"","lat":37.258429,"lng":136.746796,"zip":"9272366"},{"town":"門前町中野屋","koaza":"","lat":37.318144,"lng":136.789036,"zip":"9272108"},{"town":"門前町中谷内","koaza":"","lat":37.332473,"lng":136.751535,"zip":"9272283"},{"town":"門前町西中尾","koaza":"","lat":37.273579,"lng":136.765612,"zip":"9272146"},{"town":"門前町西中谷","koaza":"","lat":37.221478,"lng":136.748651,"zip":"9272312"},{"town":"門前町西円山","koaza":"","lat":37.341082,"lng":136.823508,"zip":"9272101"},{"town":"門前町能納屋","koaza":"","lat":37.288944,"lng":136.82137,"zip":"9272126"},{"town":"門前町走出","koaza":"","lat":37.291122,"lng":136.768858,"zip":"9272151"},{"town":"門前町原","koaza":"","lat":37.270749,"lng":136.861909,"zip":"9272122"},{"town":"門前町馬場","koaza":"","lat":37.227707,"lng":136.723055,"zip":"9272333"},{"town":"門前町東大町","koaza":"","lat":37.278262,"lng":136.848175,"zip":"9272124"},{"town":"門前町日野尾","koaza":"","lat":37.287814,"lng":136.772662,"zip":"9272155"},{"town":"門前町広岡","koaza":"","lat":37.28214,"lng":136.760472,"zip":"9272174"},{"town":"門前町広瀬","koaza":"","lat":37.285582,"lng":136.775005,"zip":"9272152"},{"town":"門前町深田","koaza":"","lat":37.280354,"lng":136.777874,"zip":"9272153"},{"town":"門前町深見","koaza":"","lat":37.314722,"lng":136.733314,"zip":"9272167"},{"town":"門前町藤浜","koaza":"","lat":37.249747,"lng":136.732894,"zip":"9272355"},{"town":"門前町二又","koaza":"","lat":37.244736,"lng":136.76497,"zip":"9272301"},{"town":"門前町二又川","koaza":"","lat":37.292199,"lng":136.842237,"zip":"9272127"},{"town":"門前町別所","koaza":"","lat":37.275915,"lng":136.839549,"zip":"9272125"},{"town":"門前町堀腰","koaza":"","lat":37.276325,"lng":136.827879,"zip":"9272138"},{"town":"門前町馬渡","koaza":"","lat":37.215255,"lng":136.739584,"zip":"9272324"},{"town":"門前町皆月","koaza":"","lat":37.355878,"lng":136.759708,"zip":"9272271"},{"town":"門前町南","koaza":"","lat":37.252938,"lng":136.733187,"zip":"9272365"},{"town":"門前町嶺","koaza":"","lat":37.294772,"lng":136.812834,"zip":"9272113"},{"town":"門前町宮古場","koaza":"","lat":37.315953,"lng":136.822204,"zip":"9272103"},{"town":"門前町餅田","koaza":"","lat":37.345504,"lng":136.755834,"zip":"9272277"},{"town":"門前町本市","koaza":"","lat":37.29053,"lng":136.78603,"zip":"9272171"},{"town":"門前町本内","koaza":"","lat":37.291926,"lng":136.805601,"zip":"9272115"},{"town":"門前町門前","koaza":"","lat":37.288395,"lng":136.768728,"zip":"9272156"},{"town":"門前町矢徳","koaza":"","lat":37.328711,"lng":136.742601,"zip":"9272284"},{"town":"門前町山是清","koaza":"","lat":37.237648,"lng":136.778186,"zip":"9272302"},{"town":"門前町山辺","koaza":"","lat":37.290045,"lng":136.796106,"zip":"9272104"},{"town":"門前町鑓川","koaza":"","lat":37.275159,"lng":136.819213,"zip":"9272136"},{"town":"門前町八幡","koaza":"","lat":37.298245,"lng":136.797686,"zip":"9272102"},{"town":"門前町吉浦","koaza":"","lat":37.327994,"lng":136.731181,"zip":"9272285"},{"town":"門前町六郎木","koaza":"","lat":37.312795,"lng":136.751817,"zip":"9272161"},{"town":"門前町和田","koaza":"","lat":37.300151,"lng":136.772448,"zip":"9272176"},{"town":"門前町渡瀬","koaza":"","lat":37.234114,"lng":136.733546,"zip":"9272331"},{"town":"山岸町","koaza":"","lat":37.375806,"lng":136.90213,"zip":"9280024"},{"town":"大和町","koaza":"","lat":37.319544,"lng":136.904119,"zip":"9292364"},{"town":"山ノ上町","koaza":"","lat":37.353598,"lng":136.923293,"zip":"9280014"},{"town":"山本町","koaza":"","lat":37.377534,"lng":136.872297,"zip":"9280042"},{"town":"横地町","koaza":"","lat":37.374376,"lng":136.911926,"zip":"9280012"},{"town":"輪島崎町","koaza":"","lat":37.404535,"lng":136.8993,"zip":"9280071"},{"town":"小池町","koaza":"","lat":37.387064,"lng":136.841611,"zip":"9280051"},{"town":"下山町","koaza":"","lat":37.381823,"lng":136.830776,"zip":"9280052"},{"town":"小伊勢町","koaza":"日隅","lat":37.382836,"lng":136.889325,"zip":"9280032"},{"town":"中段町","koaza":"長口","lat":37.38752,"lng":136.890866,"zip":"9280041"},{"town":"鳳至町","koaza":"袖ケ浜","lat":37.401953,"lng":136.896587,"zip":"9280073"},{"town":"釜屋谷町","koaza":"ト","lat":37.388804,"lng":136.892446,"zip":"9280064"},{"town":"水守町","koaza":"タキシヤ","lat":37.388266,"lng":136.893656,"zip":"9280063"},{"town":"中段町","koaza":"タキシヤ","lat":37.388511,"lng":136.893137,"zip":"9280041"},{"town":"鳳至町","koaza":"堂金田","lat":37.395945,"lng":136.895339,"zip":"9280073"},{"town":"鳳至町","koaza":"稲荷町","lat":37.39397,"lng":136.895104,"zip":"9280073"},{"town":"鳳至町","koaza":"畠田","lat":37.392935,"lng":136.895649,"zip":"9280073"},{"town":"鳳至町","koaza":"石浦町","lat":37.399382,"lng":136.897396,"zip":"9280073"},{"town":"鳳至町","koaza":"上町","lat":37.396291,"lng":136.897895,"zip":"9280073"},{"town":"鳳至町","koaza":"鳳至丁","lat":37.400054,"lng":136.897822,"zip":"9280073"},{"town":"海士町","koaza":"天地","lat":37.401743,"lng":136.897695,"zip":"9280072"},{"town":"鳳至町","koaza":"下町","lat":37.399294,"lng":136.900477,"zip":"9280073"},{"town":"河井町","koaza":"二十四部","lat":37.393619,"lng":136.900696,"zip":"9280001"},{"town":"山岸町","koaza":"ホ","lat":37.382679,"lng":136.902292,"zip":"9280024"},{"town":"山岸町","koaza":"ヘ","lat":37.381442,"lng":136.905102,"zip":"9280024"},{"town":"山岸町","koaza":"に","lat":37.383101,"lng":136.904053,"zip":"9280024"},{"town":"山岸町","koaza":"と","lat":37.380376,"lng":136.904336,"zip":"9280024"},{"town":"河井町","koaza":"十五部","lat":37.392999,"lng":136.905124,"zip":"9280001"},{"town":"山岸町","koaza":"ト","lat":37.380531,"lng":136.905888,"zip":"9280024"},{"town":"河井町","koaza":"十九部","lat":37.389817,"lng":136.906471,"zip":"9280001"},{"town":"山岸町","koaza":"ロ","lat":37.38118,"lng":136.908569,"zip":"9280024"},{"town":"河井町","koaza":"十三部","lat":37.390988,"lng":136.908041,"zip":"9280001"},{"town":"河井町","koaza":"五部","lat":37.39377,"lng":136.908497,"zip":"9280001"},{"town":"河井町","koaza":"十四部","lat":37.390723,"lng":136.909056,"zip":"9280001"},{"town":"杉平町","koaza":"成坪","lat":37.379558,"lng":136.909908,"zip":"9280011"},{"town":"河井町","koaza":"十六部","lat":37.388983,"lng":136.909145,"zip":"9280001"},{"town":"河井町","koaza":"十二部","lat":37.389051,"lng":136.910259,"zip":"9280001"},{"town":"杉平町","koaza":"蝦夷穴","lat":37.383171,"lng":136.910296,"zip":"9280011"},{"town":"河井町","koaza":"十一部","lat":37.388809,"lng":136.915446,"zip":"9280001"},{"town":"山岸町","koaza":"イ","lat":37.383214,"lng":136.907403,"zip":"9280024"},{"town":"釜屋谷町","koaza":"ニ","lat":37.392396,"lng":136.891752,"zip":"9280064"},{"town":"大野町","koaza":"菰沢","lat":37.39782,"lng":136.934759,"zip":"9280005"},{"town":"久手川町","koaza":"堂山","lat":37.386979,"lng":136.924125,"zip":"9280002"},{"town":"杉平町","koaza":"鬼田","lat":37.386901,"lng":136.90792,"zip":"9280011"}]