[{"town":"粟田一丁目","koaza":"","lat":36.510221,"lng":136.612654,"zip":"9218823"},{"town":"粟田二丁目","koaza":"","lat":36.512755,"lng":136.612783,"zip":"9218823"},{"town":"粟田三丁目","koaza":"","lat":36.515681,"lng":136.613734,"zip":"9218823"},{"town":"粟田四丁目","koaza":"","lat":36.516479,"lng":136.611592,"zip":"9218823"},{"town":"粟田五丁目","koaza":"","lat":36.514064,"lng":136.608439,"zip":"9218823"},{"town":"粟田六丁目","koaza":"","lat":36.510383,"lng":136.608398,"zip":"9218823"},{"town":"稲荷一丁目","koaza":"","lat":36.534511,"lng":136.604571,"zip":"9218805"},{"town":"稲荷二丁目","koaza":"","lat":36.534308,"lng":136.602129,"zip":"9218805"},{"town":"稲荷三丁目","koaza":"","lat":36.534483,"lng":136.600027,"zip":"9218805"},{"town":"扇が丘","koaza":"","lat":36.527559,"lng":136.625559,"zip":"9218812"},{"town":"御経塚二丁目","koaza":"","lat":36.548681,"lng":136.597717,"zip":"9218801"},{"town":"御経塚三丁目","koaza":"","lat":36.551772,"lng":136.597016,"zip":"9218801"},{"town":"御経塚四丁目","koaza":"","lat":36.550936,"lng":136.600623,"zip":"9218801"},{"town":"押越一丁目","koaza":"","lat":36.539342,"lng":136.610585,"zip":"9218803"},{"town":"押越二丁目","koaza":"","lat":36.54001,"lng":136.607673,"zip":"9218803"},{"town":"押野一丁目","koaza":"","lat":36.54274,"lng":136.614705,"zip":"9218802"},{"town":"押野二丁目","koaza":"","lat":36.540096,"lng":136.613554,"zip":"9218802"},{"town":"押野三丁目","koaza":"","lat":36.54027,"lng":136.61727,"zip":"9218802"},{"town":"押野四丁目","koaza":"","lat":36.540124,"lng":136.62131,"zip":"9218802"},{"town":"押野五丁目","koaza":"","lat":36.543876,"lng":136.620723,"zip":"9218802"},{"town":"押野六丁目","koaza":"","lat":36.545329,"lng":136.617677,"zip":"9218802"},{"town":"押野七丁目","koaza":"","lat":36.544911,"lng":136.614225,"zip":"9218802"},{"town":"上林一丁目","koaza":"","lat":36.49955,"lng":136.601343,"zip":"9218835"},{"town":"上林二丁目","koaza":"","lat":36.50241,"lng":136.599673,"zip":"9218835"},{"town":"上林三丁目","koaza":"","lat":36.503566,"lng":136.603058,"zip":"9218835"},{"town":"上林四丁目","koaza":"","lat":36.504848,"lng":136.605668,"zip":"9218835"},{"town":"上林五丁目","koaza":"","lat":36.500579,"lng":136.605947,"zip":"9218835"},{"town":"清金一丁目","koaza":"","lat":36.512842,"lng":136.595101,"zip":"9218837"},{"town":"清金二丁目","koaza":"","lat":36.516618,"lng":136.595869,"zip":"9218837"},{"town":"清金三丁目","koaza":"","lat":36.518896,"lng":136.59568,"zip":"9218837"},{"town":"位川","koaza":"","lat":36.524709,"lng":136.605798,"zip":"9218846"},{"town":"三納一丁目","koaza":"","lat":36.518216,"lng":136.609562,"zip":"9218825"},{"town":"三納二丁目","koaza":"","lat":36.521696,"lng":136.609701,"zip":"9218825"},{"town":"三納三丁目","koaza":"","lat":36.52455,"lng":136.609701,"zip":"9218825"},{"town":"下林一丁目","koaza":"","lat":36.518634,"lng":136.603047,"zip":"9218831"},{"town":"下林二丁目","koaza":"","lat":36.518763,"lng":136.599429,"zip":"9218831"},{"town":"下林三丁目","koaza":"","lat":36.523577,"lng":136.60001,"zip":"9218831"},{"town":"下林四丁目","koaza":"","lat":36.523429,"lng":136.603787,"zip":"9218831"},{"town":"新庄一丁目","koaza":"","lat":36.499015,"lng":136.611929,"zip":"9218824"},{"town":"新庄二丁目","koaza":"","lat":36.499044,"lng":136.609053,"zip":"9218824"},{"town":"新庄三丁目","koaza":"","lat":36.504065,"lng":136.610762,"zip":"9218824"},{"town":"新庄四丁目","koaza":"","lat":36.507204,"lng":136.612914,"zip":"9218824"},{"town":"新庄五丁目","koaza":"","lat":36.507468,"lng":136.610625,"zip":"9218824"},{"town":"新庄六丁目","koaza":"","lat":36.5058,"lng":136.607966,"zip":"9218824"},{"town":"末松一丁目","koaza":"","lat":36.505583,"lng":136.595277,"zip":"9218836"},{"town":"末松二丁目","koaza":"","lat":36.506302,"lng":136.591042,"zip":"9218836"},{"town":"末松三丁目","koaza":"","lat":36.510093,"lng":136.594204,"zip":"9218836"},{"town":"菅原町","koaza":"","lat":36.52672,"lng":136.615924,"zip":"9218814"},{"town":"住吉町","koaza":"","lat":36.526991,"lng":136.619505,"zip":"9218813"},{"town":"高橋町","koaza":"","lat":36.532092,"lng":136.625841,"zip":"9218811"},{"town":"太平寺一丁目","koaza":"","lat":36.527844,"lng":136.606441,"zip":"9218845"},{"town":"太平寺二丁目","koaza":"","lat":36.527389,"lng":136.603276,"zip":"9218845"},{"town":"太平寺三丁目","koaza":"","lat":36.530589,"lng":136.604642,"zip":"9218845"},{"town":"太平寺四丁目","koaza":"","lat":36.530646,"lng":136.606558,"zip":"9218845"},{"town":"藤平田一丁目","koaza":"","lat":36.518648,"lng":136.606717,"zip":"9218832"},{"town":"藤平田二丁目","koaza":"","lat":36.521871,"lng":136.607307,"zip":"9218832"},{"town":"長池","koaza":"","lat":36.543572,"lng":136.593938,"zip":"9218808"},{"town":"中林一丁目","koaza":"","lat":36.508414,"lng":136.605028,"zip":"9218834"},{"town":"中林二丁目","koaza":"","lat":36.506289,"lng":136.599645,"zip":"9218834"},{"town":"中林三丁目","koaza":"","lat":36.509716,"lng":136.600094,"zip":"9218834"},{"town":"中林四丁目","koaza":"","lat":36.513926,"lng":136.60013,"zip":"9218834"},{"town":"中林五丁目","koaza":"","lat":36.511716,"lng":136.604433,"zip":"9218834"},{"town":"白山町","koaza":"","lat":36.527753,"lng":136.612357,"zip":"9218821"},{"town":"藤平","koaza":"","lat":36.515339,"lng":136.604663,"zip":"9218832"},{"town":"堀内一丁目","koaza":"","lat":36.525782,"lng":136.596341,"zip":"9218844"},{"town":"堀内二丁目","koaza":"","lat":36.52627,"lng":136.598881,"zip":"9218844"},{"town":"堀内三丁目","koaza":"","lat":36.527639,"lng":136.601142,"zip":"9218844"},{"town":"堀内四丁目","koaza":"","lat":36.531096,"lng":136.602156,"zip":"9218844"},{"town":"本町一丁目","koaza":"","lat":36.536784,"lng":136.620643,"zip":"9218815"},{"town":"本町二丁目","koaza":"","lat":36.531709,"lng":136.619997,"zip":"9218815"},{"town":"本町三丁目","koaza":"","lat":36.531781,"lng":136.616333,"zip":"9218815"},{"town":"本町四丁目","koaza":"","lat":36.531306,"lng":136.612568,"zip":"9218815"},{"town":"本町五丁目","koaza":"","lat":36.529578,"lng":136.609628,"zip":"9218815"},{"town":"本町六丁目","koaza":"","lat":36.535406,"lng":136.608078,"zip":"9218815"},{"town":"柳町","koaza":"","lat":36.527342,"lng":136.582884,"zip":"9218848"},{"town":"矢作一丁目","koaza":"","lat":36.520316,"lng":136.613901,"zip":"9218822"},{"town":"矢作二丁目","koaza":"","lat":36.520687,"lng":136.611913,"zip":"9218822"},{"town":"矢作三丁目","koaza":"","lat":36.524283,"lng":136.612625,"zip":"9218822"},{"town":"矢作四丁目","koaza":"","lat":36.52386,"lng":136.614431,"zip":"9218822"},{"town":"横宮町","koaza":"","lat":36.535893,"lng":136.616924,"zip":"9218817"},{"town":"若松町","koaza":"","lat":36.535894,"lng":136.61271,"zip":"9218816"},{"town":"御経塚一丁目","koaza":"","lat":36.544616,"lng":136.597727,"zip":"9218801"},{"town":"御経塚五丁目","koaza":"","lat":36.545086,"lng":136.601287,"zip":"9218801"},{"town":"野代三丁目","koaza":"","lat":36.542657,"lng":136.603509,"zip":"9218804"},{"town":"野代二丁目","koaza":"","lat":36.540385,"lng":136.603487,"zip":"9218804"},{"town":"野代一丁目","koaza":"","lat":36.538645,"lng":136.602928,"zip":"9218804"},{"town":"稲荷四丁目","koaza":"","lat":36.53709,"lng":136.603105,"zip":"9218805"},{"town":"二日市二丁目","koaza":"","lat":36.540625,"lng":136.601478,"zip":"9218809"},{"town":"二日市一丁目","koaza":"","lat":36.541701,"lng":136.59707,"zip":"9218809"},{"town":"二日市三丁目","koaza":"","lat":36.541114,"lng":136.599818,"zip":"9218809"},{"town":"二日市五丁目","koaza":"","lat":36.539048,"lng":136.595586,"zip":"9218809"},{"town":"二日市四丁目","koaza":"","lat":36.537927,"lng":136.59781,"zip":"9218809"},{"town":"三日市一丁目","koaza":"","lat":36.535565,"lng":136.594777,"zip":"9218806"},{"town":"徳用三丁目","koaza":"","lat":36.535415,"lng":136.590741,"zip":"9218842"},{"town":"蓮花寺町","koaza":"","lat":36.527897,"lng":136.593047,"zip":"9218847"},{"town":"三日市二丁目","koaza":"","lat":36.534102,"lng":136.595092,"zip":"9218806"},{"town":"徳用二丁目","koaza":"","lat":36.533601,"lng":136.591068,"zip":"9218842"},{"town":"郷二丁目","koaza":"","lat":36.53364,"lng":136.586084,"zip":"9218849"},{"town":"郷一丁目","koaza":"","lat":36.534448,"lng":136.587738,"zip":"9218849"},{"town":"田尻町","koaza":"","lat":36.530548,"lng":136.596391,"zip":"9218843"},{"town":"堀内五丁目","koaza":"","lat":36.531126,"lng":136.599125,"zip":"9218844"},{"town":"三日市三丁目","koaza":"","lat":36.534266,"lng":136.598101,"zip":"9218806"},{"town":"郷町","koaza":"","lat":36.52622,"lng":136.586849,"zip":"9218841"},{"town":"二日市町","koaza":"","lat":36.544839,"lng":136.602511,"zip":"9218807"},{"town":"徳用一丁目","koaza":"","lat":36.531436,"lng":136.593083,"zip":"9218842"}]