[{"town":"青草町","koaza":"","lat":36.571525,"lng":136.656136,"zip":"9200907"},{"town":"相合谷町","koaza":"","lat":36.491987,"lng":136.707648,"zip":"9201322"},{"town":"暁町","koaza":"","lat":36.562942,"lng":136.67224,"zip":"9200926"},{"town":"赤土町","koaza":"","lat":36.583352,"lng":136.596634,"zip":"9200353"},{"town":"浅丘町","koaza":"","lat":36.638379,"lng":136.740653,"zip":"9200111"},{"town":"朝加屋町","koaza":"","lat":36.509489,"lng":136.724497,"zip":"9201132"},{"town":"浅川町","koaza":"","lat":36.51673,"lng":136.705331,"zip":"9201145"},{"town":"浅野本町","koaza":"","lat":36.586531,"lng":136.656886,"zip":"9200841"},{"town":"浅野本町一丁目","koaza":"","lat":36.580948,"lng":136.660871,"zip":"9200841"},{"town":"浅野本町二丁目","koaza":"","lat":36.58442,"lng":136.66046,"zip":"9200841"},{"town":"朝日牧町","koaza":"","lat":36.615406,"lng":136.75819,"zip":"9200126"},{"town":"旭町一丁目","koaza":"","lat":36.548614,"lng":136.686241,"zip":"9200941"},{"town":"旭町二丁目","koaza":"","lat":36.554182,"lng":136.683501,"zip":"9200941"},{"town":"旭町三丁目","koaza":"","lat":36.55299,"lng":136.681874,"zip":"9200941"},{"town":"小豆沢町","koaza":"","lat":36.525827,"lng":136.732955,"zip":"9201107"},{"town":"油車","koaza":"","lat":36.557665,"lng":136.656653,"zip":"9200996"},{"town":"天池町","koaza":"","lat":36.475802,"lng":136.711451,"zip":"9201331"},{"town":"荒屋一丁目","koaza":"","lat":36.615684,"lng":136.684239,"zip":"9203124"},{"town":"荒屋町","koaza":"","lat":36.61465,"lng":136.685684,"zip":"9203125"},{"town":"荒山町","koaza":"","lat":36.565563,"lng":136.784732,"zip":"9201101"},{"town":"有松一丁目","koaza":"","lat":36.542192,"lng":136.641574,"zip":"9218161"},{"town":"有松二丁目","koaza":"","lat":36.542978,"lng":136.637864,"zip":"9218161"},{"town":"有松三丁目","koaza":"","lat":36.539561,"lng":136.640295,"zip":"9218161"},{"town":"有松四丁目","koaza":"","lat":36.539755,"lng":136.636088,"zip":"9218161"},{"town":"有松五丁目","koaza":"","lat":36.53897,"lng":136.63808,"zip":"9218161"},{"town":"粟崎浜町","koaza":"","lat":36.634391,"lng":136.613521,"zip":"9200227"},{"town":"粟崎町","koaza":"","lat":36.620711,"lng":136.625269,"zip":"9200226"},{"town":"粟崎町一丁目","koaza":"","lat":36.626146,"lng":136.628321,"zip":"9200226"},{"town":"粟崎町二丁目","koaza":"","lat":36.628959,"lng":136.62766,"zip":"9200226"},{"town":"粟崎町三丁目","koaza":"","lat":36.626533,"lng":136.623959,"zip":"9200226"},{"town":"粟崎町四丁目","koaza":"","lat":36.630279,"lng":136.619645,"zip":"9200226"},{"town":"粟崎町五丁目","koaza":"","lat":36.623348,"lng":136.620324,"zip":"9200226"},{"town":"粟崎町六丁目","koaza":"","lat":36.621087,"lng":136.622143,"zip":"9200226"},{"town":"池田町一番丁","koaza":"","lat":36.557001,"lng":136.6546,"zip":"9200983"},{"town":"池田町二番丁","koaza":"","lat":36.557454,"lng":136.654416,"zip":"9200984"},{"town":"池田町三番丁","koaza":"","lat":36.558041,"lng":136.654297,"zip":"9200985"},{"town":"池田町四番丁","koaza":"","lat":36.557826,"lng":136.652999,"zip":"9200986"},{"town":"池田町立丁","koaza":"","lat":36.556636,"lng":136.653784,"zip":"9200987"},{"town":"石黒町","koaza":"","lat":36.481248,"lng":136.782442,"zip":"9201115"},{"town":"石引一丁目","koaza":"","lat":36.554944,"lng":136.672214,"zip":"9200935"},{"town":"石引二丁目","koaza":"","lat":36.554179,"lng":136.670508,"zip":"9200935"},{"town":"石引三丁目","koaza":"","lat":36.557599,"lng":136.669928,"zip":"9200935"},{"town":"石引四丁目","koaza":"","lat":36.557969,"lng":136.665987,"zip":"9200935"},{"town":"泉一丁目","koaza":"","lat":36.551171,"lng":136.643358,"zip":"9218041"},{"town":"泉二丁目","koaza":"","lat":36.548587,"lng":136.641684,"zip":"9218041"},{"town":"泉三丁目","koaza":"","lat":36.5456,"lng":136.640111,"zip":"9218041"},{"town":"泉が丘一丁目","koaza":"","lat":36.545713,"lng":136.646664,"zip":"9218035"},{"town":"泉が丘二丁目","koaza":"","lat":36.541872,"lng":136.64659,"zip":"9218035"},{"town":"泉野出町一丁目","koaza":"","lat":36.54042,"lng":136.653298,"zip":"9218116"},{"town":"泉野出町二丁目","koaza":"","lat":36.537543,"lng":136.65296,"zip":"9218116"},{"town":"泉野出町三丁目","koaza":"","lat":36.538828,"lng":136.649491,"zip":"9218116"},{"town":"泉野出町四丁目","koaza":"","lat":36.53574,"lng":136.650423,"zip":"9218116"},{"town":"泉野町一丁目","koaza":"","lat":36.546043,"lng":136.655426,"zip":"9218034"},{"town":"泉野町二丁目","koaza":"","lat":36.547389,"lng":136.653362,"zip":"9218034"},{"town":"泉野町三丁目","koaza":"","lat":36.54863,"lng":136.650872,"zip":"9218034"},{"town":"泉野町四丁目","koaza":"","lat":36.545694,"lng":136.65057,"zip":"9218034"},{"town":"泉野町五丁目","koaza":"","lat":36.542693,"lng":136.652714,"zip":"9218034"},{"town":"泉野町六丁目","koaza":"","lat":36.542623,"lng":136.650253,"zip":"9218034"},{"town":"泉本町一丁目","koaza":"","lat":36.546323,"lng":136.636604,"zip":"9218042"},{"town":"泉本町二丁目","koaza":"","lat":36.549408,"lng":136.63858,"zip":"9218042"},{"town":"泉本町三丁目","koaza":"","lat":36.549748,"lng":136.635372,"zip":"9218042"},{"town":"泉本町四丁目","koaza":"","lat":36.551883,"lng":136.63992,"zip":"9218042"},{"town":"泉本町五丁目","koaza":"","lat":36.552207,"lng":136.635644,"zip":"9218042"},{"town":"泉本町六丁目","koaza":"","lat":36.554177,"lng":136.637265,"zip":"9218042"},{"town":"泉本町七丁目","koaza":"","lat":36.553632,"lng":136.633309,"zip":"9218042"},{"town":"出雲町","koaza":"","lat":36.575561,"lng":136.62565,"zip":"9200056"},{"town":"磯部町","koaza":"","lat":36.596953,"lng":136.654629,"zip":"9200012"},{"town":"板ケ谷町","koaza":"","lat":36.489608,"lng":136.781568,"zip":"9201116"},{"town":"市瀬町","koaza":"","lat":36.576181,"lng":136.772333,"zip":"9200145"},{"town":"糸田一丁目","koaza":"","lat":36.557883,"lng":136.626874,"zip":"9218014"},{"town":"糸田二丁目","koaza":"","lat":36.558177,"lng":136.624002,"zip":"9218014"},{"town":"糸田新町","koaza":"","lat":36.557235,"lng":136.628944,"zip":"9218026"},{"town":"糸田町","koaza":"","lat":36.557863,"lng":136.628403,"zip":"9200000"},{"town":"いなほ一丁目","koaza":"","lat":36.552466,"lng":136.583532,"zip":"9200378"},{"town":"いなほ二丁目","koaza":"","lat":36.550306,"lng":136.580874,"zip":"9200378"},{"town":"茨木町","koaza":"","lat":36.557636,"lng":136.657778,"zip":"9200994"},{"town":"今泉町","koaza":"","lat":36.618616,"lng":136.766191,"zip":"9200125"},{"town":"今昭町","koaza":"","lat":36.60992,"lng":136.664577,"zip":"9200008"},{"town":"今町","koaza":"","lat":36.631467,"lng":136.705151,"zip":"9200106"},{"town":"入江一丁目","koaza":"","lat":36.566094,"lng":136.630306,"zip":"9218011"},{"town":"入江二丁目","koaza":"","lat":36.566425,"lng":136.625911,"zip":"9218011"},{"town":"入江三丁目","koaza":"","lat":36.567572,"lng":136.622799,"zip":"9218011"},{"town":"岩出町","koaza":"","lat":36.613637,"lng":136.702502,"zip":"9200171"},{"town":"上野本町","koaza":"","lat":36.542475,"lng":136.686198,"zip":"9200943"},{"town":"上山町","koaza":"","lat":36.501628,"lng":136.759673,"zip":"9201113"},{"town":"魚帰町","koaza":"","lat":36.514975,"lng":136.780576,"zip":"9201111"},{"town":"鶯町","koaza":"","lat":36.573311,"lng":136.669839,"zip":"9200837"},{"town":"卯辰町","koaza":"","lat":36.573478,"lng":136.673544,"zip":"9200832"},{"town":"打尾町","koaza":"","lat":36.522995,"lng":136.721332,"zip":"9201149"},{"town":"打木町","koaza":"","lat":36.567622,"lng":136.56658,"zip":"9200377"},{"town":"畝田中一丁目","koaza":"","lat":36.593064,"lng":136.611732,"zip":"9200343"},{"town":"畝田中二丁目","koaza":"","lat":36.596309,"lng":136.610928,"zip":"9200343"},{"town":"畝田中三丁目","koaza":"","lat":36.598418,"lng":136.610278,"zip":"9200343"},{"town":"畝田中四丁目","koaza":"","lat":36.600589,"lng":136.609633,"zip":"9200343"},{"town":"畝田西一丁目","koaza":"","lat":36.592617,"lng":136.608059,"zip":"9200342"},{"town":"畝田西二丁目","koaza":"","lat":36.594058,"lng":136.608521,"zip":"9200342"},{"town":"畝田東一丁目","koaza":"","lat":36.591855,"lng":136.615923,"zip":"9200344"},{"town":"畝田東二丁目","koaza":"","lat":36.594391,"lng":136.615807,"zip":"9200344"},{"town":"畝田東三丁目","koaza":"","lat":36.596754,"lng":136.615663,"zip":"9200344"},{"town":"畝田東四丁目","koaza":"","lat":36.598504,"lng":136.613281,"zip":"9200344"},{"town":"畝田町","koaza":"","lat":36.593108,"lng":136.605713,"zip":"9200342"},{"town":"梅沢町","koaza":"","lat":36.583501,"lng":136.654584,"zip":"9200000"},{"town":"梅田町","koaza":"","lat":36.624039,"lng":136.708246,"zip":"9203111"},{"town":"鱗町","koaza":"","lat":36.556353,"lng":136.656915,"zip":"9200971"},{"town":"上平町","koaza":"","lat":36.628356,"lng":136.777921,"zip":"9200122"},{"town":"永安町","koaza":"","lat":36.524095,"lng":136.68865,"zip":"9201301"},{"town":"駅西新町一丁目","koaza":"","lat":36.590549,"lng":136.639742,"zip":"9200027"},{"town":"駅西新町二丁目","koaza":"","lat":36.594607,"lng":136.639569,"zip":"9200027"},{"town":"駅西新町三丁目","koaza":"","lat":36.591994,"lng":136.63441,"zip":"9200027"},{"town":"駅西本町一丁目","koaza":"","lat":36.580048,"lng":136.639859,"zip":"9200025"},{"town":"駅西本町二丁目","koaza":"","lat":36.581571,"lng":136.637482,"zip":"9200025"},{"town":"駅西本町三丁目","koaza":"","lat":36.582778,"lng":136.635415,"zip":"9200025"},{"town":"駅西本町四丁目","koaza":"","lat":36.585206,"lng":136.632472,"zip":"9200025"},{"town":"駅西本町五丁目","koaza":"","lat":36.58371,"lng":136.630458,"zip":"9200025"},{"town":"駅西本町六丁目","koaza":"","lat":36.585374,"lng":136.6265,"zip":"9200025"},{"town":"枝町","koaza":"","lat":36.554315,"lng":136.65631,"zip":"9200973"},{"town":"榎尾町","koaza":"","lat":36.633317,"lng":136.748095,"zip":"9200112"},{"town":"円光寺一丁目","koaza":"","lat":36.532428,"lng":136.650819,"zip":"9218173"},{"town":"円光寺二丁目","koaza":"","lat":36.53292,"lng":136.648506,"zip":"9218173"},{"town":"円光寺三丁目","koaza":"","lat":36.532995,"lng":136.645513,"zip":"9218173"},{"town":"円光寺本町","koaza":"","lat":36.533019,"lng":136.642729,"zip":"9218176"},{"town":"円光寺町","koaza":"","lat":36.530681,"lng":136.65342,"zip":"9200000"},{"town":"小池町","koaza":"","lat":36.611054,"lng":136.745093,"zip":"9200162"},{"town":"扇町","koaza":"","lat":36.561793,"lng":136.66994,"zip":"9200927"},{"town":"大浦町","koaza":"","lat":36.620032,"lng":136.654227,"zip":"9200205"},{"town":"大桑一丁目","koaza":"","lat":36.532246,"lng":136.677224,"zip":"9218045"},{"town":"大桑二丁目","koaza":"","lat":36.535964,"lng":136.674673,"zip":"9218045"},{"town":"大桑三丁目","koaza":"","lat":36.535869,"lng":136.676837,"zip":"9218045"},{"town":"大桑新町","koaza":"","lat":36.540123,"lng":136.677911,"zip":"9200945"},{"town":"大桑町","koaza":"","lat":36.528253,"lng":136.685627,"zip":"9218046"},{"town":"大手町","koaza":"","lat":36.568584,"lng":136.662525,"zip":"9200912"},{"town":"大額一丁目","koaza":"","lat":36.514418,"lng":136.619876,"zip":"9218147"},{"town":"大額二丁目","koaza":"","lat":36.516367,"lng":136.624617,"zip":"9218147"},{"town":"大額三丁目","koaza":"","lat":36.51343,"lng":136.624323,"zip":"9218147"},{"town":"大額町","koaza":"","lat":36.501192,"lng":136.639714,"zip":"9218143"},{"town":"大野町一丁目","koaza":"","lat":36.611115,"lng":136.603486,"zip":"9200231"},{"town":"大野町二丁目","koaza":"","lat":36.611643,"lng":136.606278,"zip":"9200231"},{"town":"大野町三丁目","koaza":"","lat":36.61251,"lng":136.606419,"zip":"9200231"},{"town":"大野町四丁目","koaza":"","lat":36.622697,"lng":136.610592,"zip":"9200231"},{"town":"大野町五丁目","koaza":"","lat":36.612085,"lng":136.601924,"zip":"9200231"},{"town":"大野町六丁目","koaza":"","lat":36.61307,"lng":136.6041,"zip":"9200231"},{"town":"大野町七丁目","koaza":"","lat":36.613923,"lng":136.604233,"zip":"9200231"},{"town":"大野町新町","koaza":"","lat":36.628821,"lng":136.60819,"zip":"9200225"},{"town":"大場町","koaza":"","lat":36.627434,"lng":136.676729,"zip":"9203121"},{"town":"大樋町","koaza":"","lat":36.586217,"lng":136.676331,"zip":"9200818"},{"town":"大平沢町","koaza":"","lat":36.465975,"lng":136.686759,"zip":"9201335"},{"town":"沖町","koaza":"","lat":36.591474,"lng":136.654996,"zip":"9200013"},{"town":"奥新保町","koaza":"","lat":36.55746,"lng":136.798811,"zip":"9201101"},{"town":"大河端町","koaza":"","lat":36.616981,"lng":136.641193,"zip":"9200213"},{"town":"押野一丁目","koaza":"","lat":36.547616,"lng":136.620174,"zip":"9218056"},{"town":"押野二丁目","koaza":"","lat":36.54808,"lng":136.616758,"zip":"9218056"},{"town":"押野三丁目","koaza":"","lat":36.547748,"lng":136.613874,"zip":"9218056"},{"town":"鴛原町","koaza":"","lat":36.483779,"lng":136.717117,"zip":"9201324"},{"town":"乙丸町","koaza":"","lat":36.587218,"lng":136.663967,"zip":"9200807"},{"town":"小原町","koaza":"","lat":36.484657,"lng":136.677367,"zip":"9201343"},{"town":"大菱池町","koaza":"","lat":36.525312,"lng":136.77979,"zip":"9201111"},{"town":"尾山町","koaza":"","lat":36.567412,"lng":136.655532,"zip":"9200918"},{"town":"折谷町","koaza":"","lat":36.509715,"lng":136.762381,"zip":"9201112"},{"town":"尾張町一丁目","koaza":"","lat":36.570609,"lng":136.661346,"zip":"9200902"},{"town":"尾張町二丁目","koaza":"","lat":36.57179,"lng":136.659958,"zip":"9200902"},{"town":"加賀朝日町","koaza":"","lat":36.622133,"lng":136.755595,"zip":"9200114"},{"town":"蚊爪町","koaza":"","lat":36.628065,"lng":136.64548,"zip":"9200208"},{"town":"柿木畠","koaza":"","lat":36.56028,"lng":136.65608,"zip":"9200999"},{"town":"角間新町","koaza":"","lat":36.554398,"lng":136.699336,"zip":"9201163"},{"town":"角間町","koaza":"","lat":36.545948,"lng":136.709447,"zip":"9201164"},{"town":"笠市町","koaza":"","lat":36.578043,"lng":136.655061,"zip":"9200851"},{"town":"笠舞一丁目","koaza":"","lat":36.547812,"lng":136.674375,"zip":"9200965"},{"town":"笠舞二丁目","koaza":"","lat":36.550853,"lng":136.670287,"zip":"9200965"},{"town":"笠舞三丁目","koaza":"","lat":36.552804,"lng":136.667072,"zip":"9200965"},{"town":"笠舞本町一丁目","koaza":"","lat":36.546295,"lng":136.672872,"zip":"9200947"},{"town":"笠舞本町二丁目","koaza":"","lat":36.547744,"lng":136.669585,"zip":"9200947"},{"town":"笠舞町","koaza":"","lat":36.548892,"lng":136.675319,"zip":"9200000"},{"town":"樫見町","koaza":"","lat":36.484951,"lng":136.705672,"zip":"9201332"},{"town":"主計町","koaza":"","lat":36.572339,"lng":136.663591,"zip":"9200908"},{"town":"春日町","koaza":"","lat":36.58307,"lng":136.673329,"zip":"9200817"},{"town":"堅田町","koaza":"","lat":36.609517,"lng":136.70329,"zip":"9200164"},{"town":"かたつ","koaza":"","lat":36.629898,"lng":136.642602,"zip":"9200219"},{"town":"片町一丁目","koaza":"","lat":36.559958,"lng":136.653255,"zip":"9200981"},{"town":"片町二丁目","koaza":"","lat":36.560673,"lng":136.650627,"zip":"9200981"},{"town":"金市町","koaza":"","lat":36.610059,"lng":136.681491,"zip":"9203134"},{"town":"金石相生町","koaza":"","lat":36.61379,"lng":136.600132,"zip":"9200310"},{"town":"金石海原","koaza":"","lat":36.611104,"lng":136.591778,"zip":"9200000"},{"town":"金石北二丁目","koaza":"","lat":36.60742,"lng":136.5959,"zip":"9200338"},{"town":"金石北三丁目","koaza":"","lat":36.607201,"lng":136.599311,"zip":"9200338"},{"town":"金石北四丁目","koaza":"","lat":36.609942,"lng":136.59777,"zip":"9200338"},{"town":"金石西一丁目","koaza":"","lat":36.59964,"lng":136.590726,"zip":"9200337"},{"town":"金石西二丁目","koaza":"","lat":36.603842,"lng":136.589337,"zip":"9200337"},{"town":"金石西三丁目","koaza":"","lat":36.601719,"lng":136.594013,"zip":"9200337"},{"town":"金石西四丁目","koaza":"","lat":36.6054,"lng":136.592408,"zip":"9200337"},{"town":"金石東一丁目","koaza":"","lat":36.59975,"lng":136.598324,"zip":"9200335"},{"town":"金石東三丁目","koaza":"","lat":36.601229,"lng":136.595377,"zip":"9200335"},{"town":"金石本町","koaza":"","lat":36.598644,"lng":136.594918,"zip":"9200336"},{"town":"金川町","koaza":"","lat":36.521761,"lng":136.717167,"zip":"9201148"},{"town":"上荒屋一丁目","koaza":"","lat":36.546989,"lng":136.592866,"zip":"9218065"},{"town":"上荒屋二丁目","koaza":"","lat":36.550932,"lng":136.593561,"zip":"9218065"},{"town":"上荒屋三丁目","koaza":"","lat":36.550896,"lng":136.591477,"zip":"9218065"},{"town":"上荒屋四丁目","koaza":"","lat":36.554569,"lng":136.59275,"zip":"9218065"},{"town":"上荒屋五丁目","koaza":"","lat":36.556481,"lng":136.589438,"zip":"9218065"},{"town":"上荒屋六丁目","koaza":"","lat":36.554109,"lng":136.589254,"zip":"9218065"},{"town":"上荒屋七丁目","koaza":"","lat":36.551426,"lng":136.588552,"zip":"9218065"},{"town":"上荒屋八丁目","koaza":"","lat":36.549586,"lng":136.589702,"zip":"9218065"},{"town":"上近江町","koaza":"","lat":36.571061,"lng":136.657264,"zip":"9200905"},{"town":"上柿木畠","koaza":"","lat":36.559284,"lng":136.656855,"zip":"9200992"},{"town":"上辰巳町","koaza":"","lat":36.504539,"lng":136.709625,"zip":"9201304"},{"town":"上堤町","koaza":"","lat":36.568831,"lng":136.654472,"zip":"9200869"},{"town":"上中町","koaza":"","lat":36.5203,"lng":136.704015,"zip":"9201146"},{"town":"神野一丁目","koaza":"","lat":36.565674,"lng":136.598155,"zip":"9200368"},{"town":"神野二丁目","koaza":"","lat":36.564754,"lng":136.595821,"zip":"9200368"},{"town":"神野三丁目","koaza":"","lat":36.565473,"lng":136.593442,"zip":"9200368"},{"town":"神野町","koaza":"","lat":36.563293,"lng":136.597875,"zip":"9200365"},{"town":"上安原一丁目","koaza":"","lat":36.565915,"lng":136.590747,"zip":"9200370"},{"town":"上安原二丁目","koaza":"","lat":36.566013,"lng":136.588304,"zip":"9200370"},{"town":"上安原町","koaza":"","lat":36.562568,"lng":136.589432,"zip":"9200374"},{"town":"上安原南","koaza":"","lat":36.558415,"lng":136.591817,"zip":"9200374"},{"town":"神谷内町","koaza":"","lat":36.591985,"lng":136.695552,"zip":"9200801"},{"town":"上若松町","koaza":"","lat":36.551267,"lng":136.691758,"zip":"9201166"},{"town":"上涌波町","koaza":"","lat":36.584637,"lng":136.724208,"zip":"9200175"},{"town":"川岸町","koaza":"","lat":36.553945,"lng":136.655337,"zip":"9200974"},{"town":"河原市町","koaza":"","lat":36.604878,"lng":136.708254,"zip":"9200172"},{"town":"神田一丁目","koaza":"","lat":36.561499,"lng":136.636921,"zip":"9218027"},{"town":"神田二丁目","koaza":"","lat":36.559952,"lng":136.633721,"zip":"9218027"},{"town":"神田町","koaza":"","lat":36.559864,"lng":136.631322,"zip":"9200000"},{"town":"観音堂町","koaza":"","lat":36.590257,"lng":136.600734,"zip":"9200352"},{"town":"観音町三丁目","koaza":"","lat":36.570687,"lng":136.670282,"zip":"9200838"},{"town":"上原町","koaza":"","lat":36.48213,"lng":136.74699,"zip":"9201125"},{"town":"観法寺町","koaza":"","lat":36.618995,"lng":136.704434,"zip":"9203112"},{"town":"菊川一丁目","koaza":"","lat":36.550457,"lng":136.663251,"zip":"9200967"},{"town":"菊川二丁目","koaza":"","lat":36.551837,"lng":136.660322,"zip":"9200967"},{"town":"菊水町","koaza":"","lat":36.415553,"lng":136.69342,"zip":"9200000"},{"town":"木倉町","koaza":"","lat":36.561692,"lng":136.651866,"zip":"9200988"},{"town":"木越一丁目","koaza":"","lat":36.620441,"lng":136.669216,"zip":"9200202"},{"town":"木越二丁目","koaza":"","lat":36.620561,"lng":136.665586,"zip":"9200202"},{"town":"木越三丁目","koaza":"","lat":36.618117,"lng":136.667418,"zip":"9200202"},{"town":"木越町","koaza":"","lat":36.619927,"lng":136.661598,"zip":"9200201"},{"town":"岸川町","koaza":"","lat":36.639724,"lng":136.711654,"zip":"9200102"},{"town":"北方町","koaza":"","lat":36.584123,"lng":136.764591,"zip":"9200143"},{"town":"北千石町","koaza":"","lat":36.629289,"lng":136.767992,"zip":"9200128"},{"town":"北塚町","koaza":"","lat":36.571906,"lng":136.596448,"zip":"9200367"},{"town":"北寺町","koaza":"","lat":36.612411,"lng":136.648244,"zip":"9200206"},{"town":"北袋町","koaza":"","lat":36.505505,"lng":136.749145,"zip":"9201135"},{"town":"北町","koaza":"","lat":36.58252,"lng":136.627791,"zip":"9200055"},{"town":"北間町","koaza":"","lat":36.623901,"lng":136.638301,"zip":"9200212"},{"town":"北森本町","koaza":"","lat":36.624813,"lng":136.697009,"zip":"9203117"},{"town":"北安江一丁目","koaza":"","lat":36.582364,"lng":136.649562,"zip":"9200022"},{"town":"北安江二丁目","koaza":"","lat":36.586779,"lng":136.649445,"zip":"9200022"},{"town":"北安江三丁目","koaza":"","lat":36.584407,"lng":136.646487,"zip":"9200022"},{"town":"北安江四丁目","koaza":"","lat":36.587516,"lng":136.644897,"zip":"9200022"},{"town":"北安江町","koaza":"","lat":36.577115,"lng":136.647052,"zip":"9200023"},{"town":"木ノ新保町","koaza":"","lat":36.578255,"lng":136.648585,"zip":"9200858"},{"town":"京町","koaza":"","lat":36.582386,"lng":136.656553,"zip":"9200848"},{"town":"清川町","koaza":"","lat":36.552908,"lng":136.655727,"zip":"9218032"},{"town":"清瀬町","koaza":"","lat":36.495722,"lng":136.655947,"zip":"9218122"},{"town":"桐山町","koaza":"","lat":36.605978,"lng":136.735862,"zip":"9200163"},{"town":"国見町","koaza":"","lat":36.457371,"lng":136.701939,"zip":"9201333"},{"town":"窪一丁目","koaza":"","lat":36.524616,"lng":136.647653,"zip":"9218151"},{"town":"窪二丁目","koaza":"","lat":36.526062,"lng":136.646272,"zip":"9218151"},{"town":"窪三丁目","koaza":"","lat":36.523849,"lng":136.642375,"zip":"9218151"},{"town":"窪四丁目","koaza":"","lat":36.526758,"lng":136.641609,"zip":"9218151"},{"town":"窪五丁目","koaza":"","lat":36.526764,"lng":136.636869,"zip":"9218151"},{"town":"窪六丁目","koaza":"","lat":36.529377,"lng":136.642067,"zip":"9218151"},{"town":"窪七丁目","koaza":"","lat":36.530566,"lng":136.638471,"zip":"9218151"},{"town":"窪町","koaza":"","lat":36.514226,"lng":136.652698,"zip":"9200000"},{"town":"熊走町","koaza":"","lat":36.456505,"lng":136.711526,"zip":"9201326"},{"town":"倉ケ嶽","koaza":"","lat":36.474667,"lng":136.644332,"zip":"9218124"},{"town":"倉谷町","koaza":"","lat":36.382691,"lng":136.780865,"zip":"9200000"},{"town":"鞍月一丁目","koaza":"","lat":36.593998,"lng":136.625372,"zip":"9208203"},{"town":"鞍月二丁目","koaza":"","lat":36.59448,"lng":136.620537,"zip":"9208203"},{"town":"鞍月三丁目","koaza":"","lat":36.597818,"lng":136.619556,"zip":"9208203"},{"town":"鞍月四丁目","koaza":"","lat":36.598193,"lng":136.622318,"zip":"9208203"},{"town":"鞍月五丁目","koaza":"","lat":36.59912,"lng":136.624721,"zip":"9208203"},{"town":"鞍月東一丁目","koaza":"","lat":36.593007,"lng":136.630607,"zip":"9208201"},{"town":"鞍月東二丁目","koaza":"","lat":36.595744,"lng":136.629175,"zip":"9208201"},{"town":"車町","koaza":"","lat":36.585434,"lng":136.742628,"zip":"9200157"},{"town":"黒田一丁目","koaza":"","lat":36.562538,"lng":136.614283,"zip":"9218051"},{"town":"黒田二丁目","koaza":"","lat":36.560766,"lng":136.612706,"zip":"9218051"},{"town":"黒田町","koaza":"","lat":36.562551,"lng":136.615762,"zip":"9200000"},{"town":"見定町","koaza":"","lat":36.433815,"lng":136.724833,"zip":"9200000"},{"town":"兼六町","koaza":"","lat":36.562953,"lng":136.662307,"zip":"9200936"},{"town":"兼六元町","koaza":"","lat":36.566238,"lng":136.665273,"zip":"9200931"},{"town":"香林坊一丁目","koaza":"","lat":36.563454,"lng":136.654124,"zip":"9200961"},{"town":"香林坊二丁目","koaza":"","lat":36.564157,"lng":136.653091,"zip":"9200961"},{"town":"小金町","koaza":"","lat":36.582658,"lng":136.671191,"zip":"9200805"},{"town":"古郷町","koaza":"","lat":36.492264,"lng":136.767658,"zip":"9201114"},{"town":"小坂町","koaza":"","lat":36.590165,"lng":136.678247,"zip":"9200811"},{"town":"小将町","koaza":"","lat":36.564038,"lng":136.665435,"zip":"9200932"},{"town":"御所町","koaza":"","lat":36.584255,"lng":136.69889,"zip":"9200813"},{"town":"御所町一丁目","koaza":"","lat":36.581529,"lng":136.693642,"zip":"9200813"},{"town":"御所町二丁目","koaza":"","lat":36.580654,"lng":136.699789,"zip":"9200813"},{"town":"小立野二丁目","koaza":"","lat":36.549768,"lng":136.681413,"zip":"9200942"},{"town":"小立野三丁目","koaza":"","lat":36.548757,"lng":136.676601,"zip":"9200942"},{"town":"小立野四丁目","koaza":"","lat":36.551013,"lng":136.677374,"zip":"9200942"},{"town":"小立野五丁目","koaza":"","lat":36.555109,"lng":136.677175,"zip":"9200942"},{"town":"琴坂町","koaza":"","lat":36.632448,"lng":136.767778,"zip":"9200129"},{"town":"琴町","koaza":"","lat":36.630759,"lng":136.775044,"zip":"9200121"},{"town":"湖南町","koaza":"","lat":36.663248,"lng":136.684503,"zip":"9203107"},{"town":"此花町","koaza":"","lat":36.577745,"lng":136.651744,"zip":"9200852"},{"town":"小野町","koaza":"","lat":36.613917,"lng":136.736654,"zip":"9200168"},{"town":"小橋町","koaza":"","lat":36.578371,"lng":136.662506,"zip":"9200844"},{"town":"小菱池町","koaza":"","lat":36.523366,"lng":136.765692,"zip":"9201111"},{"town":"古府一丁目","koaza":"","lat":36.564238,"lng":136.607397,"zip":"9200362"},{"town":"古府二丁目","koaza":"","lat":36.567849,"lng":136.606404,"zip":"9200362"},{"town":"古府三丁目","koaza":"","lat":36.571562,"lng":136.60772,"zip":"9200362"},{"town":"小二又町","koaza":"","lat":36.556694,"lng":136.735346,"zip":"9200826"},{"town":"古府西一丁目","koaza":"","lat":36.573483,"lng":136.607159,"zip":"9200000"},{"town":"古府町","koaza":"","lat":36.571477,"lng":136.603318,"zip":"9200362"},{"town":"駒帰町","koaza":"","lat":36.481846,"lng":136.731523,"zip":"9201313"},{"town":"小嶺町","koaza":"","lat":36.577943,"lng":136.760142,"zip":"9200144"},{"town":"湖陽一丁目","koaza":"","lat":36.625697,"lng":136.689454,"zip":"9203103"},{"town":"湖陽二丁目","koaza":"","lat":36.627113,"lng":136.686863,"zip":"9203103"},{"town":"子来町","koaza":"","lat":36.571734,"lng":136.670291,"zip":"9200836"},{"town":"五郎島町","koaza":"","lat":36.617525,"lng":136.617203,"zip":"9200224"},{"town":"才田町","koaza":"","lat":36.643384,"lng":136.688249,"zip":"9203101"},{"town":"西念一丁目","koaza":"","lat":36.583014,"lng":136.642884,"zip":"9200024"},{"town":"西念二丁目","koaza":"","lat":36.585464,"lng":136.640472,"zip":"9200024"},{"town":"西念三丁目","koaza":"","lat":36.588854,"lng":136.636496,"zip":"9200024"},{"town":"西念四丁目","koaza":"","lat":36.587727,"lng":136.633162,"zip":"9200024"},{"town":"西念町","koaza":"","lat":36.59158,"lng":136.631014,"zip":"9200026"},{"town":"材木町","koaza":"","lat":36.567643,"lng":136.66896,"zip":"9200921"},{"town":"幸町","koaza":"","lat":36.55381,"lng":136.65842,"zip":"9200968"},{"town":"佐奇森町","koaza":"","lat":36.587854,"lng":136.585765,"zip":"9200357"},{"town":"桜田町","koaza":"","lat":36.575465,"lng":136.620294,"zip":"9200057"},{"town":"桜田町一丁目","koaza":"","lat":36.579475,"lng":136.619827,"zip":"9200057"},{"town":"桜田町二丁目","koaza":"","lat":36.5779,"lng":136.620914,"zip":"9200057"},{"town":"桜田町三丁目","koaza":"","lat":36.576397,"lng":136.619689,"zip":"9200057"},{"town":"桜町","koaza":"","lat":36.563076,"lng":136.676069,"zip":"9200923"},{"town":"里見町","koaza":"","lat":36.559118,"lng":136.655577,"zip":"9200998"},{"town":"醒ケ井町","koaza":"","lat":36.577043,"lng":136.643081,"zip":"9200034"},{"town":"三社町","koaza":"","lat":36.571192,"lng":136.644517,"zip":"9200861"},{"town":"三十苅町","koaza":"","lat":36.508064,"lng":136.617109,"zip":"9218131"},{"town":"山王町一丁目","koaza":"","lat":36.574955,"lng":136.700844,"zip":"9200821"},{"town":"山王町二丁目","koaza":"","lat":36.576717,"lng":136.695783,"zip":"9200821"},{"town":"四王寺町","koaza":"","lat":36.619457,"lng":136.722445,"zip":"9200166"},{"town":"四十万三丁目","koaza":"","lat":36.504098,"lng":136.618813,"zip":"9218135"},{"town":"四十万四丁目","koaza":"","lat":36.500208,"lng":136.617521,"zip":"9218135"},{"town":"四十万五丁目","koaza":"","lat":36.504274,"lng":136.615593,"zip":"9218135"},{"town":"四十万六丁目","koaza":"","lat":36.50026,"lng":136.615181,"zip":"9218135"},{"town":"しじま台一丁目","koaza":"","lat":36.506097,"lng":136.622869,"zip":"9218132"},{"town":"しじま台二丁目","koaza":"","lat":36.507306,"lng":136.621278,"zip":"9218132"},{"town":"四十万町","koaza":"","lat":36.495648,"lng":136.628689,"zip":"9218133"},{"town":"地代町","koaza":"","lat":36.623898,"lng":136.73952,"zip":"9200116"},{"town":"十間町","koaza":"","lat":36.570413,"lng":136.657181,"zip":"9200906"},{"town":"芝原町","koaza":"","lat":36.501708,"lng":136.766749,"zip":"9201129"},{"town":"四坊高坂町","koaza":"","lat":36.625995,"lng":136.727305,"zip":"9200104"},{"town":"四坊町","koaza":"","lat":36.626409,"lng":136.717466,"zip":"9200104"},{"town":"清水谷町","koaza":"","lat":36.595258,"lng":136.76499,"zip":"9200132"},{"town":"清水町","koaza":"","lat":36.54549,"lng":136.745197,"zip":"9201104"},{"town":"示野中町","koaza":"","lat":36.575037,"lng":136.616755,"zip":"9200058"},{"town":"示野中町一丁目","koaza":"","lat":36.577122,"lng":136.616684,"zip":"9200058"},{"town":"示野中町二丁目","koaza":"","lat":36.576196,"lng":136.616956,"zip":"9200058"},{"town":"示野町","koaza":"","lat":36.579346,"lng":136.611374,"zip":"9200059"},{"town":"下石引町","koaza":"","lat":36.560466,"lng":136.665974,"zip":"9200939"},{"town":"下近江町","koaza":"","lat":36.571567,"lng":136.657447,"zip":"9200904"},{"town":"下鴛原町","koaza":"","lat":36.491528,"lng":136.715068,"zip":"9201323"},{"town":"下柿木畠","koaza":"","lat":36.560351,"lng":136.654632,"zip":"9200991"},{"town":"下新町","koaza":"","lat":36.571834,"lng":136.662571,"zip":"9200910"},{"town":"下谷町","koaza":"","lat":36.491182,"lng":136.738655,"zip":"9201127"},{"town":"下堤町","koaza":"","lat":36.570902,"lng":136.655528,"zip":"9200917"},{"town":"下本多町五番丁","koaza":"","lat":36.556854,"lng":136.658046,"zip":"9200000"},{"town":"下本多町六番丁","koaza":"","lat":36.5582,"lng":136.658729,"zip":"9200000"},{"town":"下松原町","koaza":"","lat":36.570033,"lng":136.655524,"zip":"9200916"},{"town":"下安原町","koaza":"","lat":36.576931,"lng":136.575407,"zip":"9200371"},{"town":"下涌波町","koaza":"","lat":36.592296,"lng":136.71127,"zip":"9200176"},{"town":"十一屋町","koaza":"","lat":36.544864,"lng":136.660961,"zip":"9218106"},{"town":"十三間町","koaza":"","lat":36.556507,"lng":136.652387,"zip":"9200976"},{"town":"十三間町中丁","koaza":"","lat":36.557214,"lng":136.652739,"zip":"9200977"},{"town":"昌永町","koaza":"","lat":36.579511,"lng":136.659155,"zip":"9200846"},{"town":"城南一丁目","koaza":"","lat":36.54467,"lng":136.671047,"zip":"9200966"},{"town":"城南二丁目","koaza":"","lat":36.548657,"lng":136.664358,"zip":"9200966"},{"town":"正部町","koaza":"","lat":36.593141,"lng":136.734726,"zip":"9200154"},{"town":"城力町","koaza":"","lat":36.480337,"lng":136.72181,"zip":"9201325"},{"town":"昭和町","koaza":"","lat":36.57488,"lng":136.646973,"zip":"9200856"},{"town":"白菊町","koaza":"","lat":36.559484,"lng":136.647059,"zip":"9218024"},{"town":"白見町","koaza":"","lat":36.454643,"lng":136.750201,"zip":"9201126"},{"town":"新神田一丁目","koaza":"","lat":36.564835,"lng":136.634343,"zip":"9218013"},{"town":"新神田二丁目","koaza":"","lat":36.563049,"lng":136.632093,"zip":"9218013"},{"town":"新神田三丁目","koaza":"","lat":36.56105,"lng":136.631281,"zip":"9218013"},{"town":"新神田四丁目","koaza":"","lat":36.561485,"lng":136.628423,"zip":"9218013"},{"town":"新神田五丁目","koaza":"","lat":36.563054,"lng":136.627844,"zip":"9218013"},{"town":"神宮寺一丁目","koaza":"","lat":36.582558,"lng":136.667814,"zip":"9200806"},{"town":"神宮寺二丁目","koaza":"","lat":36.586825,"lng":136.668585,"zip":"9200806"},{"town":"神宮寺三丁目","koaza":"","lat":36.586191,"lng":136.666542,"zip":"9200806"},{"town":"神宮寺町","koaza":"","lat":36.588711,"lng":136.669732,"zip":"9200803"},{"town":"新竪町三丁目","koaza":"","lat":36.556061,"lng":136.655924,"zip":"9200995"},{"town":"新保本一丁目","koaza":"","lat":36.552466,"lng":136.605734,"zip":"9218062"},{"town":"新保本二丁目","koaza":"","lat":36.551851,"lng":136.602843,"zip":"9218062"},{"town":"新保本三丁目","koaza":"","lat":36.556505,"lng":136.602683,"zip":"9218062"},{"town":"新保本四丁目","koaza":"","lat":36.559629,"lng":136.603571,"zip":"9218062"},{"town":"新保本五丁目","koaza":"","lat":36.556664,"lng":136.605977,"zip":"9218062"},{"town":"新保町","koaza":"","lat":36.487051,"lng":136.663779,"zip":"9201345"},{"town":"進和町","koaza":"","lat":36.567087,"lng":136.611911,"zip":"9218006"},{"town":"末広町","koaza":"","lat":36.571104,"lng":136.678886,"zip":"9200833"},{"town":"末町","koaza":"","lat":36.517747,"lng":136.689329,"zip":"9201302"},{"town":"菅池町","koaza":"","lat":36.49112,"lng":136.727526,"zip":"9201311"},{"town":"杉浦町","koaza":"","lat":36.55514,"lng":136.655298,"zip":"9200972"},{"town":"須崎町","koaza":"","lat":36.624833,"lng":136.64182,"zip":"9200207"},{"town":"折違町","koaza":"","lat":36.576046,"lng":136.646303,"zip":"9200857"},{"town":"鈴見台一丁目","koaza":"","lat":36.563386,"lng":136.679761,"zip":"9201161"},{"town":"鈴見台二丁目","koaza":"","lat":36.562143,"lng":136.685709,"zip":"9201161"},{"town":"鈴見台三丁目","koaza":"","lat":36.564796,"lng":136.681625,"zip":"9201161"},{"town":"鈴見台四丁目","koaza":"","lat":36.563993,"lng":136.68774,"zip":"9201161"},{"town":"鈴見台五丁目","koaza":"","lat":36.566318,"lng":136.686724,"zip":"9201161"},{"town":"鈴見町","koaza":"","lat":36.562469,"lng":136.690474,"zip":"9201162"},{"town":"砂子坂町","koaza":"","lat":36.562589,"lng":136.803233,"zip":"9201101"},{"town":"住吉町","koaza":"","lat":36.477224,"lng":136.658455,"zip":"9201344"},{"town":"西都一丁目","koaza":"","lat":36.591728,"lng":136.62849,"zip":"9208202"},{"town":"西都二丁目","koaza":"","lat":36.589877,"lng":136.626214,"zip":"9208202"},{"town":"千木一丁目","koaza":"","lat":36.606033,"lng":136.675318,"zip":"9200002"},{"town":"千木町","koaza":"","lat":36.611822,"lng":136.670652,"zip":"9200001"},{"town":"瀬領町","koaza":"","lat":36.491479,"lng":136.721701,"zip":"9201312"},{"town":"専光寺町","koaza":"","lat":36.582485,"lng":136.585008,"zip":"9200356"},{"town":"千田町","koaza":"","lat":36.613029,"lng":136.659092,"zip":"9200204"},{"town":"千日町","koaza":"","lat":36.560605,"lng":136.6482,"zip":"9218023"},{"town":"千杉町","koaza":"","lat":36.626896,"lng":136.749545,"zip":"9200115"},{"town":"大工町","koaza":"","lat":36.558625,"lng":136.652866,"zip":"9200982"},{"town":"田井町","koaza":"","lat":36.5594,"lng":136.679938,"zip":"9200924"},{"town":"太陽が丘一丁目","koaza":"","lat":36.526059,"lng":136.709214,"zip":"9201154"},{"town":"太陽が丘二丁目","koaza":"","lat":36.531976,"lng":136.704277,"zip":"9201154"},{"town":"太陽が丘三丁目","koaza":"","lat":36.530489,"lng":136.708443,"zip":"9201154"},{"town":"平等本町","koaza":"","lat":36.521273,"lng":136.737736,"zip":"9201141"},{"town":"平町","koaza":"","lat":36.479904,"lng":136.699497,"zip":"9201334"},{"town":"大和町","koaza":"","lat":36.56938,"lng":136.638977,"zip":"9200046"},{"town":"高池町","koaza":"","lat":36.514223,"lng":136.726934,"zip":"9201143"},{"town":"高尾一丁目","koaza":"","lat":36.521682,"lng":136.640924,"zip":"9218152"},{"town":"高尾二丁目","koaza":"","lat":36.52188,"lng":136.638046,"zip":"9218152"},{"town":"高尾三丁目","koaza":"","lat":36.520978,"lng":136.635874,"zip":"9218152"},{"town":"高岡町","koaza":"","lat":36.568402,"lng":136.652677,"zip":"9200864"},{"town":"高尾台一丁目","koaza":"","lat":36.522624,"lng":136.634841,"zip":"9218155"},{"town":"高尾台二丁目","koaza":"","lat":36.5231,"lng":136.630588,"zip":"9218155"},{"town":"高尾台三丁目","koaza":"","lat":36.520922,"lng":136.628928,"zip":"9218155"},{"town":"高尾台四丁目","koaza":"","lat":36.522338,"lng":136.626881,"zip":"9218155"},{"town":"高尾町","koaza":"","lat":36.512364,"lng":136.645351,"zip":"9218153"},{"town":"高尾南一丁目","koaza":"","lat":36.516533,"lng":136.633631,"zip":"9218154"},{"town":"高尾南二丁目","koaza":"","lat":36.51693,"lng":136.631153,"zip":"9218154"},{"town":"高尾南三丁目","koaza":"","lat":36.518472,"lng":136.628267,"zip":"9218154"},{"town":"高坂町","koaza":"","lat":36.595544,"lng":136.742368,"zip":"9200155"},{"town":"高畠一丁目","koaza":"","lat":36.569704,"lng":136.6152,"zip":"9218001"},{"town":"高畠二丁目","koaza":"","lat":36.569783,"lng":136.610538,"zip":"9218001"},{"town":"高畠三丁目","koaza":"","lat":36.573686,"lng":136.612159,"zip":"9218001"},{"town":"田上一丁目","koaza":"","lat":36.542189,"lng":136.696553,"zip":"9201152"},{"town":"田上新町","koaza":"","lat":36.542618,"lng":136.698594,"zip":"9201153"},{"town":"高柳町","koaza":"","lat":36.594995,"lng":136.664969,"zip":"9200005"},{"town":"宝町","koaza":"","lat":36.557364,"lng":136.673051,"zip":"9200934"},{"town":"滝下町","koaza":"","lat":36.624086,"lng":136.780866,"zip":"9200123"},{"town":"竹又町","koaza":"","lat":36.603932,"lng":136.778463,"zip":"9200137"},{"town":"忠縄町","koaza":"","lat":36.630589,"lng":136.694499,"zip":"9203102"},{"town":"舘町","koaza":"","lat":36.525035,"lng":136.697827,"zip":"9200957"},{"town":"舘山町","koaza":"","lat":36.524241,"lng":136.69491,"zip":"9200956"},{"town":"辰巳町","koaza":"","lat":36.508502,"lng":136.699935,"zip":"9201303"},{"town":"竪町","koaza":"","lat":36.558885,"lng":136.654464,"zip":"9200997"},{"town":"田中町","koaza":"","lat":36.604431,"lng":136.662467,"zip":"9200007"},{"town":"田島町","koaza":"","lat":36.540864,"lng":136.763305,"zip":"9201103"},{"town":"玉川町","koaza":"","lat":36.570686,"lng":136.651282,"zip":"9200863"},{"town":"玉鉾一丁目","koaza":"","lat":36.570348,"lng":136.629764,"zip":"9218002"},{"town":"玉鉾二丁目","koaza":"","lat":36.572959,"lng":136.624591,"zip":"9218002"},{"town":"玉鉾三丁目","koaza":"","lat":36.570573,"lng":136.624246,"zip":"9218002"},{"town":"玉鉾四丁目","koaza":"","lat":36.57327,"lng":136.61837,"zip":"9218002"},{"town":"玉鉾五丁目","koaza":"","lat":36.57046,"lng":136.618729,"zip":"9218002"},{"town":"玉鉾町","koaza":"","lat":36.569188,"lng":136.621683,"zip":"9218003"},{"town":"俵原町","koaza":"","lat":36.633198,"lng":136.759623,"zip":"9200113"},{"town":"俵町","koaza":"","lat":36.530762,"lng":136.724308,"zip":"9201108"},{"town":"茅原町","koaza":"","lat":36.508897,"lng":136.714655,"zip":"9201138"},{"town":"中央通町","koaza":"","lat":36.563421,"lng":136.646831,"zip":"9200866"},{"town":"銚子町","koaza":"","lat":36.522996,"lng":136.703341,"zip":"9201147"},{"town":"塚崎町","koaza":"","lat":36.608748,"lng":136.696867,"zip":"9203113"},{"town":"月浦町","koaza":"","lat":36.603086,"lng":136.700714,"zip":"9200178"},{"town":"月影町","koaza":"","lat":36.629165,"lng":136.713976,"zip":"9200105"},{"town":"土子原町","koaza":"","lat":36.610683,"lng":136.769565,"zip":"9200135"},{"town":"土清水一丁目","koaza":"","lat":36.527529,"lng":136.692674,"zip":"9200955"},{"town":"土清水二丁目","koaza":"","lat":36.527035,"lng":136.690028,"zip":"9200955"},{"town":"土清水三丁目","koaza":"","lat":36.533053,"lng":136.690601,"zip":"9200955"},{"town":"土清水町","koaza":"","lat":36.536072,"lng":136.688252,"zip":"9200000"},{"town":"つつじが丘","koaza":"","lat":36.528207,"lng":136.680536,"zip":"9218103"},{"town":"鞁筒町","koaza":"","lat":36.620825,"lng":136.746807,"zip":"9200161"},{"town":"坪野町","koaza":"","lat":36.485797,"lng":136.653949,"zip":"9218123"},{"town":"釣部町","koaza":"","lat":36.567471,"lng":136.734494,"zip":"9200825"},{"town":"寺地一丁目","koaza":"","lat":36.536316,"lng":136.641946,"zip":"9218178"},{"town":"寺地二丁目","koaza":"","lat":36.536214,"lng":136.63727,"zip":"9218178"},{"town":"寺津町","koaza":"","lat":36.461144,"lng":136.72228,"zip":"9201315"},{"town":"寺町一丁目","koaza":"","lat":36.547466,"lng":136.657951,"zip":"9218033"},{"town":"寺町二丁目","koaza":"","lat":36.549399,"lng":136.654679,"zip":"9218033"},{"town":"寺町三丁目","koaza":"","lat":36.55089,"lng":136.656179,"zip":"9218033"},{"town":"寺町四丁目","koaza":"","lat":36.551,"lng":136.652543,"zip":"9218033"},{"town":"寺町五丁目","koaza":"","lat":36.554878,"lng":136.650721,"zip":"9218033"},{"town":"出羽町","koaza":"","lat":36.559519,"lng":136.662084,"zip":"9200963"},{"town":"天神町一丁目","koaza":"","lat":36.55892,"lng":136.676923,"zip":"9200925"},{"town":"天神町二丁目","koaza":"","lat":36.55958,"lng":136.67352,"zip":"9200925"},{"town":"伝燈寺町","koaza":"","lat":36.568745,"lng":136.717235,"zip":"9200824"},{"town":"戸板一丁目","koaza":"","lat":36.578932,"lng":136.624532,"zip":"9200068"},{"town":"戸板二丁目","koaza":"","lat":36.580074,"lng":136.624965,"zip":"9200068"},{"town":"戸板三丁目","koaza":"","lat":36.58039,"lng":136.629356,"zip":"9200068"},{"town":"戸板四丁目","koaza":"","lat":36.581044,"lng":136.62601,"zip":"9200068"},{"town":"戸板五丁目","koaza":"","lat":36.581233,"lng":136.622116,"zip":"9200068"},{"town":"戸板西一丁目","koaza":"","lat":36.580888,"lng":136.61702,"zip":"9200069"},{"town":"戸板西二丁目","koaza":"","lat":36.579918,"lng":136.615313,"zip":"9200069"},{"town":"問屋町一丁目","koaza":"","lat":36.605962,"lng":136.636677,"zip":"9200061"},{"town":"問屋町二丁目","koaza":"","lat":36.606363,"lng":136.640827,"zip":"9200061"},{"town":"問屋町三丁目","koaza":"","lat":36.60868,"lng":136.637409,"zip":"9200061"},{"town":"堂町","koaza":"","lat":36.457617,"lng":136.666881,"zip":"9200000"},{"town":"東力一丁目","koaza":"","lat":36.561051,"lng":136.624256,"zip":"9218015"},{"town":"東力二丁目","koaza":"","lat":36.561092,"lng":136.620319,"zip":"9218015"},{"town":"東力三丁目","koaza":"","lat":36.563437,"lng":136.625761,"zip":"9218015"},{"town":"東力四丁目","koaza":"","lat":36.563924,"lng":136.623007,"zip":"9218015"},{"town":"東力町","koaza":"","lat":36.563328,"lng":136.619478,"zip":"9218016"},{"town":"藤六町","koaza":"","lat":36.507749,"lng":136.727532,"zip":"9201133"},{"town":"富樫一丁目","koaza":"","lat":36.538815,"lng":136.646525,"zip":"9218171"},{"town":"富樫二丁目","koaza":"","lat":36.536699,"lng":136.64615,"zip":"9218171"},{"town":"富樫三丁目","koaza":"","lat":36.538269,"lng":136.642977,"zip":"9218171"},{"town":"利屋町","koaza":"","lat":36.643673,"lng":136.718733,"zip":"9200101"},{"town":"常盤町","koaza":"","lat":36.566374,"lng":136.674374,"zip":"9200834"},{"town":"栃尾町","koaza":"","lat":36.50078,"lng":136.782849,"zip":"9200000"},{"town":"飛梅町","koaza":"","lat":36.55889,"lng":136.667762,"zip":"9200938"},{"town":"戸水一丁目","koaza":"","lat":36.603361,"lng":136.621738,"zip":"9208204"},{"town":"戸水二丁目","koaza":"","lat":36.602462,"lng":136.618751,"zip":"9208204"},{"town":"戸水町","koaza":"","lat":36.608468,"lng":136.620019,"zip":"9200223"},{"town":"戸室新保","koaza":"","lat":36.542638,"lng":136.735278,"zip":"9201105"},{"town":"戸室別所","koaza":"","lat":36.533774,"lng":136.740759,"zip":"9201106"},{"town":"豊穂町","koaza":"","lat":36.57393,"lng":136.588913,"zip":"9200372"},{"town":"直江北一丁目","koaza":"","lat":36.61567,"lng":136.633715,"zip":"9208218"},{"town":"直江野町","koaza":"","lat":36.588051,"lng":136.759529,"zip":"9200141"},{"town":"中尾町","koaza":"","lat":36.621372,"lng":136.777098,"zip":"9200124"},{"town":"中川除町","koaza":"","lat":36.555187,"lng":136.654003,"zip":"9200975"},{"town":"長坂一丁目","koaza":"","lat":36.537782,"lng":136.661558,"zip":"9218112"},{"town":"長坂二丁目","koaza":"","lat":36.537259,"lng":136.659615,"zip":"9218112"},{"town":"長坂三丁目","koaza":"","lat":36.536296,"lng":136.656706,"zip":"9218112"},{"town":"長坂台","koaza":"","lat":36.533173,"lng":136.653357,"zip":"9218115"},{"town":"長坂町","koaza":"","lat":36.531779,"lng":136.657131,"zip":"9218114"},{"town":"長田一丁目","koaza":"","lat":36.575507,"lng":136.642011,"zip":"9200043"},{"town":"長田二丁目","koaza":"","lat":36.576867,"lng":136.638998,"zip":"9200043"},{"town":"長田本町","koaza":"","lat":36.574007,"lng":136.638748,"zip":"9200041"},{"town":"長田町","koaza":"","lat":36.57686,"lng":136.64195,"zip":"9200042"},{"town":"長土塀一丁目","koaza":"","lat":36.568488,"lng":136.647612,"zip":"9200867"},{"town":"長土塀二丁目","koaza":"","lat":36.567991,"lng":136.644161,"zip":"9200867"},{"town":"長土塀三丁目","koaza":"","lat":36.566909,"lng":136.64163,"zip":"9200867"},{"town":"中戸町","koaza":"","lat":36.499275,"lng":136.694819,"zip":"9201336"},{"town":"中橋町","koaza":"","lat":36.575313,"lng":136.643817,"zip":"9200035"},{"town":"長町一丁目","koaza":"","lat":36.565193,"lng":136.650714,"zip":"9200865"},{"town":"長町二丁目","koaza":"","lat":36.563785,"lng":136.649169,"zip":"9200865"},{"town":"長町三丁目","koaza":"","lat":36.566606,"lng":136.647402,"zip":"9200865"},{"town":"中村町","koaza":"","lat":36.561372,"lng":136.642923,"zip":"9218022"},{"town":"中屋一丁目","koaza":"","lat":36.561279,"lng":136.584549,"zip":"9200381"},{"town":"中屋二丁目","koaza":"","lat":36.563497,"lng":136.584073,"zip":"9200381"},{"town":"中屋町","koaza":"","lat":36.558215,"lng":136.586184,"zip":"9200375"},{"town":"中山町","koaza":"","lat":36.540088,"lng":136.721395,"zip":"9201109"},{"town":"中屋南","koaza":"","lat":36.553468,"lng":136.586041,"zip":"9200379"},{"town":"梨木町","koaza":"","lat":36.602631,"lng":136.723169,"zip":"9200151"},{"town":"七ツ屋町","koaza":"","lat":36.586346,"lng":136.651632,"zip":"9200021"},{"town":"七曲町","koaza":"","lat":36.5045,"lng":136.717949,"zip":"9201137"},{"town":"並木町","koaza":"","lat":36.570566,"lng":136.666185,"zip":"9200928"},{"town":"鳴瀬元町","koaza":"","lat":36.602742,"lng":136.728323,"zip":"9200152"},{"town":"鳴和一丁目","koaza":"","lat":36.586721,"lng":136.674132,"zip":"9200804"},{"town":"鳴和二丁目","koaza":"","lat":36.585961,"lng":136.671204,"zip":"9200804"},{"town":"鳴和台","koaza":"","lat":36.57886,"lng":136.679867,"zip":"9200815"},{"town":"鳴和町","koaza":"","lat":36.581537,"lng":136.676071,"zip":"9200814"},{"town":"西泉一丁目","koaza":"","lat":36.545393,"lng":136.632174,"zip":"9218043"},{"town":"西泉二丁目","koaza":"","lat":36.548109,"lng":136.633198,"zip":"9218043"},{"town":"西泉三丁目","koaza":"","lat":36.547101,"lng":136.630092,"zip":"9218043"},{"town":"西泉四丁目","koaza":"","lat":36.550323,"lng":136.630676,"zip":"9218043"},{"town":"西泉五丁目","koaza":"","lat":36.552474,"lng":136.630048,"zip":"9218043"},{"town":"西泉六丁目","koaza":"","lat":36.554502,"lng":136.629163,"zip":"9218043"},{"town":"西市瀬町","koaza":"","lat":36.499713,"lng":136.726533,"zip":"9201136"},{"town":"西大桑町","koaza":"","lat":36.540596,"lng":136.67122,"zip":"9218102"},{"town":"西金沢一丁目","koaza":"","lat":36.551558,"lng":136.61986,"zip":"9218054"},{"town":"西金沢二丁目","koaza":"","lat":36.552032,"lng":136.61692,"zip":"9218054"},{"town":"西金沢三丁目","koaza":"","lat":36.552151,"lng":136.613758,"zip":"9218054"},{"town":"西金沢四丁目","koaza":"","lat":36.556863,"lng":136.612181,"zip":"9218054"},{"town":"西金沢五丁目","koaza":"","lat":36.556817,"lng":136.614984,"zip":"9218054"},{"town":"西金沢新町","koaza":"","lat":36.553893,"lng":136.617873,"zip":"9218055"},{"town":"西町三番丁","koaza":"","lat":36.569661,"lng":136.656387,"zip":"9200913"},{"town":"西町四番丁","koaza":"","lat":36.569788,"lng":136.657498,"zip":"9200914"},{"town":"西町藪ノ内通","koaza":"","lat":36.570032,"lng":136.656069,"zip":"9200915"},{"town":"西堀川町","koaza":"","lat":36.582815,"lng":136.652588,"zip":"9200000"},{"town":"二宮町","koaza":"","lat":36.586572,"lng":136.628804,"zip":"9200067"},{"town":"額乙丸町","koaza":"","lat":36.510976,"lng":136.620623,"zip":"9218146"},{"town":"額新保一丁目","koaza":"","lat":36.520501,"lng":136.617296,"zip":"9218148"},{"town":"額新保二丁目","koaza":"","lat":36.51742,"lng":136.616782,"zip":"9218148"},{"town":"額新保三丁目","koaza":"","lat":36.514838,"lng":136.616252,"zip":"9218148"},{"town":"額新保町","koaza":"","lat":36.49024,"lng":136.650702,"zip":"9200000"},{"town":"額新町一丁目","koaza":"","lat":36.519418,"lng":136.621522,"zip":"9218149"},{"town":"額新町二丁目","koaza":"","lat":36.517591,"lng":136.620797,"zip":"9218149"},{"town":"額谷一丁目","koaza":"","lat":36.511006,"lng":136.627569,"zip":"9218145"},{"town":"額谷二丁目","koaza":"","lat":36.508322,"lng":136.625591,"zip":"9218145"},{"town":"額谷三丁目","koaza":"","lat":36.509637,"lng":136.624179,"zip":"9218145"},{"town":"額谷町","koaza":"","lat":36.503128,"lng":136.632417,"zip":"9218144"},{"town":"納年町","koaza":"","lat":36.584305,"lng":136.754221,"zip":"9200142"},{"town":"野田町","koaza":"","lat":36.533099,"lng":136.665732,"zip":"9218104"},{"town":"野町一丁目","koaza":"","lat":36.555976,"lng":136.649095,"zip":"9218031"},{"town":"野町二丁目","koaza":"","lat":36.556183,"lng":136.647092,"zip":"9218031"},{"town":"野町三丁目","koaza":"","lat":36.551957,"lng":136.648472,"zip":"9218031"},{"town":"野町四丁目","koaza":"","lat":36.553018,"lng":136.64501,"zip":"9218031"},{"town":"野町五丁目","koaza":"","lat":36.554349,"lng":136.642399,"zip":"9218031"},{"town":"博労町","koaza":"","lat":36.571114,"lng":136.658513,"zip":"9200903"},{"town":"橋場町","koaza":"","lat":36.57009,"lng":136.665231,"zip":"9200911"},{"town":"畠尾町","koaza":"","lat":36.465676,"lng":136.741064,"zip":"9200000"},{"town":"八幡町","koaza":"","lat":36.572799,"lng":136.668755,"zip":"9200000"},{"town":"八田町","koaza":"","lat":36.635728,"lng":136.67644,"zip":"9203106"},{"town":"花里町","koaza":"","lat":36.539736,"lng":136.679738,"zip":"9200951"},{"town":"花園八幡町","koaza":"","lat":36.631867,"lng":136.717134,"zip":"9200103"},{"town":"羽場町","koaza":"","lat":36.486839,"lng":136.749613,"zip":"9201128"},{"town":"日尾町","koaza":"","lat":36.441291,"lng":136.744275,"zip":"9200000"},{"town":"東荒屋町","koaza":"","lat":36.512817,"lng":136.718966,"zip":"9201131"},{"town":"東市瀬町","koaza":"","lat":36.510051,"lng":136.735597,"zip":"9201134"},{"town":"東蚊爪町","koaza":"","lat":36.627453,"lng":136.648558,"zip":"9200209"},{"town":"東蚊爪町一丁目","koaza":"","lat":36.638894,"lng":136.660383,"zip":"9200209"},{"town":"東蚊爪町二丁目","koaza":"","lat":36.636402,"lng":136.66228,"zip":"9200209"},{"town":"東兼六町","koaza":"","lat":36.560905,"lng":136.667801,"zip":"9200933"},{"town":"東長江町","koaza":"","lat":36.568076,"lng":136.69855,"zip":"9200822"},{"town":"東原町","koaza":"","lat":36.590038,"lng":136.784411,"zip":"9200131"},{"town":"東町","koaza":"","lat":36.494432,"lng":136.762391,"zip":"9201121"},{"town":"東御影町","koaza":"","lat":36.568518,"lng":136.675795,"zip":"9200835"},{"town":"東山一丁目","koaza":"","lat":36.571401,"lng":136.66691,"zip":"9200831"},{"town":"東山二丁目","koaza":"","lat":36.575167,"lng":136.67005,"zip":"9200831"},{"town":"東山三丁目","koaza":"","lat":36.574792,"lng":136.6641,"zip":"9200831"},{"town":"光が丘一丁目","koaza":"","lat":36.519514,"lng":136.624999,"zip":"9218142"},{"town":"光が丘二丁目","koaza":"","lat":36.515922,"lng":136.628318,"zip":"9218142"},{"town":"光が丘三丁目","koaza":"","lat":36.513161,"lng":136.628216,"zip":"9218142"},{"town":"疋田一丁目","koaza":"","lat":36.601726,"lng":136.672806,"zip":"9200003"},{"town":"疋田二丁目","koaza":"","lat":36.602456,"lng":136.674662,"zip":"9200003"},{"town":"疋田三丁目","koaza":"","lat":36.604862,"lng":136.670427,"zip":"9200003"},{"town":"疋田町","koaza":"","lat":36.60344,"lng":136.676028,"zip":"9200004"},{"town":"彦三町一丁目","koaza":"","lat":36.574165,"lng":136.659892,"zip":"9200901"},{"town":"彦三町二丁目","koaza":"","lat":36.574462,"lng":136.657315,"zip":"9200901"},{"town":"久安一丁目","koaza":"","lat":36.53236,"lng":136.63309,"zip":"9218164"},{"town":"久安二丁目","koaza":"","lat":36.534539,"lng":136.630938,"zip":"9218164"},{"town":"久安三丁目","koaza":"","lat":36.536939,"lng":136.631682,"zip":"9218164"},{"town":"久安四丁目","koaza":"","lat":36.536793,"lng":136.633999,"zip":"9218164"},{"town":"久安五丁目","koaza":"","lat":36.541039,"lng":136.632318,"zip":"9218164"},{"town":"久安六丁目","koaza":"","lat":36.54255,"lng":136.633838,"zip":"9218164"},{"town":"菱池小原町","koaza":"","lat":36.51521,"lng":136.770012,"zip":"9201111"},{"town":"瓢箪町","koaza":"","lat":36.577643,"lng":136.658511,"zip":"9200845"},{"town":"日吉町","koaza":"","lat":36.576406,"lng":136.646433,"zip":"9200033"},{"town":"平栗","koaza":"","lat":36.509278,"lng":136.66387,"zip":"9218121"},{"town":"広岡一丁目","koaza":"","lat":36.578394,"lng":136.646306,"zip":"9200031"},{"town":"広岡二丁目","koaza":"","lat":36.578685,"lng":136.643067,"zip":"9200031"},{"town":"広岡三丁目","koaza":"","lat":36.58129,"lng":136.645169,"zip":"9200031"},{"town":"広岡町","koaza":"","lat":36.575803,"lng":136.646009,"zip":"9200032"},{"town":"広坂一丁目","koaza":"","lat":36.560745,"lng":136.6578,"zip":"9200962"},{"town":"広坂二丁目","koaza":"","lat":36.563435,"lng":136.656161,"zip":"9200962"},{"town":"深谷町","koaza":"","lat":36.613925,"lng":136.715649,"zip":"9200165"},{"town":"福畠町","koaza":"","lat":36.617023,"lng":136.730478,"zip":"9200167"},{"town":"福久一丁目","koaza":"","lat":36.619091,"lng":136.680223,"zip":"9203126"},{"town":"福久二丁目","koaza":"","lat":36.618052,"lng":136.682417,"zip":"9203126"},{"town":"福久東一丁目","koaza":"","lat":36.61682,"lng":136.683907,"zip":"9203123"},{"town":"福久町","koaza":"","lat":36.615336,"lng":136.677843,"zip":"9203122"},{"town":"福増町","koaza":"","lat":36.561449,"lng":136.579862,"zip":"9200376"},{"town":"袋板屋町","koaza":"","lat":36.51688,"lng":136.712167,"zip":"9201144"},{"town":"袋畠町","koaza":"","lat":36.578089,"lng":136.604617,"zip":"9200361"},{"town":"袋町","koaza":"","lat":36.572364,"lng":136.657287,"zip":"9200909"},{"town":"藤江北一丁目","koaza":"","lat":36.58866,"lng":136.624089,"zip":"9200345"},{"town":"藤江北二丁目","koaza":"","lat":36.588517,"lng":136.621706,"zip":"9200345"},{"town":"藤江北三丁目","koaza":"","lat":36.589105,"lng":136.619425,"zip":"9200345"},{"town":"藤江北四丁目","koaza":"","lat":36.591989,"lng":136.621449,"zip":"9200345"},{"town":"藤江南一丁目","koaza":"","lat":36.5838,"lng":136.623603,"zip":"9200346"},{"town":"藤江南二丁目","koaza":"","lat":36.58489,"lng":136.621648,"zip":"9200346"},{"town":"藤江南三丁目","koaza":"","lat":36.585213,"lng":136.619497,"zip":"9200346"},{"town":"伏見新町","koaza":"","lat":36.534373,"lng":136.650411,"zip":"9218172"},{"town":"伏見台一丁目","koaza":"","lat":36.533123,"lng":136.640164,"zip":"9218177"},{"town":"伏見台二丁目","koaza":"","lat":36.533454,"lng":136.637761,"zip":"9218177"},{"town":"伏見台三丁目","koaza":"","lat":36.532919,"lng":136.636037,"zip":"9218177"},{"town":"普正寺町","koaza":"","lat":36.594701,"lng":136.589989,"zip":"9200351"},{"town":"二口町","koaza":"","lat":36.576698,"lng":136.634885,"zip":"9200051"},{"town":"二ツ寺町","koaza":"","lat":36.58312,"lng":136.602923,"zip":"9200354"},{"town":"二ツ屋町","koaza":"","lat":36.588811,"lng":136.629028,"zip":"9200065"},{"town":"二又新町","koaza":"","lat":36.389128,"lng":136.725121,"zip":"9201316"},{"town":"二俣町","koaza":"","lat":36.545002,"lng":136.786921,"zip":"9201102"},{"town":"二日市町","koaza":"","lat":36.63254,"lng":136.725045,"zip":"9200107"},{"town":"不動寺町","koaza":"","lat":36.606968,"lng":136.716661,"zip":"9200173"},{"town":"不室町","koaza":"","lat":36.570397,"lng":136.747092,"zip":"9200147"},{"town":"古屋谷町","koaza":"","lat":36.590814,"lng":136.750845,"zip":"9200156"},{"town":"平和町一丁目","koaza":"","lat":36.53769,"lng":136.664642,"zip":"9218105"},{"town":"平和町二丁目","koaza":"","lat":36.541444,"lng":136.666451,"zip":"9218105"},{"town":"平和町三丁目","koaza":"","lat":36.540342,"lng":136.662553,"zip":"9218105"},{"town":"別所町","koaza":"","lat":36.506755,"lng":136.677471,"zip":"9201341"},{"town":"法光寺町","koaza":"","lat":36.601175,"lng":136.689986,"zip":"9203132"},{"town":"芳斉一丁目","koaza":"","lat":36.570143,"lng":136.64799,"zip":"9200862"},{"town":"芳斉二丁目","koaza":"","lat":36.572537,"lng":136.6485,"zip":"9200862"},{"town":"法島町","koaza":"","lat":36.546051,"lng":136.663522,"zip":"9218101"},{"town":"北陽台一丁目","koaza":"","lat":36.597326,"lng":136.726209,"zip":"9200177"},{"town":"北陽台二丁目","koaza":"","lat":36.597327,"lng":136.71895,"zip":"9200177"},{"town":"北陽台三丁目","koaza":"","lat":36.599571,"lng":136.707041,"zip":"9200177"},{"town":"保古一丁目","koaza":"","lat":36.557238,"lng":136.619593,"zip":"9218052"},{"town":"保古二丁目","koaza":"","lat":36.555634,"lng":136.617978,"zip":"9218052"},{"town":"保古三丁目","koaza":"","lat":36.559135,"lng":136.617829,"zip":"9218052"},{"town":"保古町","koaza":"","lat":36.556639,"lng":136.616457,"zip":"9218053"},{"town":"堀川新町","koaza":"","lat":36.580569,"lng":136.650784,"zip":"9200849"},{"town":"堀川町","koaza":"","lat":36.580586,"lng":136.653521,"zip":"9200847"},{"town":"堀切町","koaza":"","lat":36.604324,"lng":136.759975,"zip":"9200133"},{"town":"本多町一丁目","koaza":"","lat":36.55424,"lng":136.664125,"zip":"9200964"},{"town":"本多町二丁目","koaza":"","lat":36.555719,"lng":136.66226,"zip":"9200964"},{"town":"本多町三丁目","koaza":"","lat":36.558717,"lng":136.660318,"zip":"9200964"},{"town":"本町一丁目","koaza":"","lat":36.575052,"lng":136.65253,"zip":"9200853"},{"town":"本町二丁目","koaza":"","lat":36.575592,"lng":136.649822,"zip":"9200853"},{"town":"馬替一丁目","koaza":"","lat":36.523113,"lng":136.624798,"zip":"9218141"},{"town":"馬替二丁目","koaza":"","lat":36.522759,"lng":136.622079,"zip":"9218141"},{"town":"馬替三丁目","koaza":"","lat":36.523414,"lng":136.619273,"zip":"9218141"},{"town":"牧町","koaza":"","lat":36.559231,"lng":136.720388,"zip":"9200827"},{"town":"牧山町","koaza":"","lat":36.579182,"lng":136.748559,"zip":"9200148"},{"town":"間明町","koaza":"","lat":36.565758,"lng":136.610281,"zip":"9218005"},{"town":"間明町一丁目","koaza":"","lat":36.567275,"lng":136.617621,"zip":"9218005"},{"town":"間明町二丁目","koaza":"","lat":36.564499,"lng":136.616193,"zip":"9218005"},{"town":"曲子原町","koaza":"","lat":36.609177,"lng":136.762091,"zip":"9200134"},{"town":"増泉一丁目","koaza":"","lat":36.557286,"lng":136.644043,"zip":"9218025"},{"town":"増泉二丁目","koaza":"","lat":36.559426,"lng":136.639919,"zip":"9218025"},{"town":"増泉三丁目","koaza":"","lat":36.556159,"lng":136.638661,"zip":"9218025"},{"town":"増泉四丁目","koaza":"","lat":36.55706,"lng":136.63509,"zip":"9218025"},{"town":"増泉五丁目","koaza":"","lat":36.557476,"lng":136.632094,"zip":"9218025"},{"town":"松島一丁目","koaza":"","lat":36.561871,"lng":136.603396,"zip":"9200364"},{"town":"松島二丁目","koaza":"","lat":36.56402,"lng":136.602892,"zip":"9200364"},{"town":"松島三丁目","koaza":"","lat":36.567106,"lng":136.602771,"zip":"9200364"},{"town":"松島町","koaza":"","lat":36.569317,"lng":136.601345,"zip":"9200364"},{"town":"松寺町","koaza":"","lat":36.606428,"lng":136.653576,"zip":"9200011"},{"town":"松根町","koaza":"","lat":36.616017,"lng":136.775842,"zip":"9200136"},{"town":"松村一丁目","koaza":"","lat":36.58834,"lng":136.615531,"zip":"9200348"},{"town":"松村二丁目","koaza":"","lat":36.585039,"lng":136.616252,"zip":"9200348"},{"town":"松村三丁目","koaza":"","lat":36.583026,"lng":136.615549,"zip":"9200348"},{"town":"松村四丁目","koaza":"","lat":36.583996,"lng":136.611401,"zip":"9200348"},{"town":"松村五丁目","koaza":"","lat":36.589134,"lng":136.61189,"zip":"9200348"},{"town":"松村六丁目","koaza":"","lat":36.589403,"lng":136.60947,"zip":"9200348"},{"town":"松村七丁目","koaza":"","lat":36.586175,"lng":136.607476,"zip":"9200348"},{"town":"松村町","koaza":"","lat":36.590095,"lng":136.616505,"zip":"9200347"},{"town":"大豆田本町","koaza":"","lat":36.570356,"lng":136.63442,"zip":"9218047"},{"town":"丸の内","koaza":"","lat":36.566057,"lng":136.659351,"zip":"9200937"},{"town":"三池栄町","koaza":"","lat":36.596358,"lng":136.671028,"zip":"9200809"},{"town":"三池新町","koaza":"","lat":36.598828,"lng":136.670537,"zip":"9200808"},{"town":"三池町","koaza":"","lat":36.59352,"lng":136.672944,"zip":"9200802"},{"town":"三浦町","koaza":"","lat":36.597679,"lng":136.64019,"zip":"9200063"},{"town":"御影町","koaza":"","lat":36.564078,"lng":136.640418,"zip":"9218021"},{"town":"みずき一丁目","koaza":"","lat":36.61954,"lng":136.672933,"zip":"9200201"},{"town":"みずき二丁目","koaza":"","lat":36.623126,"lng":136.67275,"zip":"9200201"},{"town":"みずき三丁目","koaza":"","lat":36.623543,"lng":136.669098,"zip":"9200201"},{"town":"みずき四丁目","koaza":"","lat":36.623513,"lng":136.664927,"zip":"9200201"},{"town":"水溜町","koaza":"","lat":36.556419,"lng":136.654995,"zip":"9200978"},{"town":"水淵町","koaza":"","lat":36.499715,"lng":136.702951,"zip":"9201321"},{"town":"水元町","koaza":"","lat":36.57639,"lng":136.789163,"zip":"9200000"},{"town":"三口新町","koaza":"","lat":36.539855,"lng":136.678955,"zip":"9200944"},{"town":"三口新町一丁目","koaza":"","lat":36.541189,"lng":136.682575,"zip":"9200944"},{"town":"三口新町二丁目","koaza":"","lat":36.540365,"lng":136.680794,"zip":"9200944"},{"town":"三口新町三丁目","koaza":"","lat":36.544491,"lng":136.679366,"zip":"9200944"},{"town":"三口新町四丁目","koaza":"","lat":36.542819,"lng":136.678247,"zip":"9200944"},{"town":"三口町","koaza":"","lat":36.608023,"lng":136.643583,"zip":"9200018"},{"town":"三小牛町","koaza":"","lat":36.511743,"lng":136.669782,"zip":"9201346"},{"town":"三ツ屋町","koaza":"","lat":36.610802,"lng":136.644,"zip":"9200214"},{"town":"みどり一丁目","koaza":"","lat":36.569315,"lng":136.590346,"zip":"9200373"},{"town":"みどり二丁目","koaza":"","lat":36.569176,"lng":136.58587,"zip":"9200373"},{"town":"みどり三丁目","koaza":"","lat":36.567518,"lng":136.583596,"zip":"9200373"},{"town":"緑が丘","koaza":"","lat":36.541801,"lng":136.656294,"zip":"9218117"},{"town":"湊一丁目","koaza":"","lat":36.643871,"lng":136.66039,"zip":"9200211"},{"town":"湊二丁目","koaza":"","lat":36.634859,"lng":136.647873,"zip":"9200211"},{"town":"湊三丁目","koaza":"","lat":36.621595,"lng":136.630799,"zip":"9200211"},{"town":"湊四丁目","koaza":"","lat":36.606028,"lng":136.618275,"zip":"9200211"},{"town":"南御所町","koaza":"","lat":36.580794,"lng":136.681842,"zip":"9200812"},{"town":"南四十万一丁目","koaza":"","lat":36.497724,"lng":136.620425,"zip":"9218134"},{"town":"南四十万二丁目","koaza":"","lat":36.497357,"lng":136.616972,"zip":"9218134"},{"town":"南四十万三丁目","koaza":"","lat":36.497444,"lng":136.614438,"zip":"9218134"},{"town":"南新保町","koaza":"","lat":36.597382,"lng":136.635873,"zip":"9200064"},{"town":"南千谷町","koaza":"","lat":36.623421,"lng":136.769929,"zip":"9200127"},{"town":"南町","koaza":"","lat":36.566363,"lng":136.653713,"zip":"9200919"},{"town":"南塚町","koaza":"","lat":36.567451,"lng":136.594797,"zip":"9200366"},{"town":"南広岡町","koaza":"","lat":36.571958,"lng":136.639947,"zip":"9200044"},{"town":"南森本町","koaza":"","lat":36.619482,"lng":136.693524,"zip":"9203116"},{"town":"宮野町","koaza":"","lat":36.599265,"lng":136.743905,"zip":"9200153"},{"town":"宮保町","koaza":"","lat":36.60481,"lng":136.667085,"zip":"9200006"},{"town":"弥勒町","koaza":"","lat":36.613864,"lng":136.689317,"zip":"9203115"},{"town":"三馬一丁目","koaza":"","lat":36.525852,"lng":136.631776,"zip":"9218162"},{"town":"三馬二丁目","koaza":"","lat":36.528949,"lng":136.635313,"zip":"9218162"},{"town":"三馬三丁目","koaza":"","lat":36.529128,"lng":136.631791,"zip":"9218162"},{"town":"向中町","koaza":"","lat":36.571699,"lng":136.639452,"zip":"9200045"},{"town":"武蔵町","koaza":"","lat":36.571843,"lng":136.654122,"zip":"9200855"},{"town":"無量寺一丁目","koaza":"","lat":36.602395,"lng":136.610003,"zip":"9200333"},{"town":"無量寺二丁目","koaza":"","lat":36.603976,"lng":136.609367,"zip":"9200333"},{"town":"無量寺三丁目","koaza":"","lat":36.605573,"lng":136.609283,"zip":"9200333"},{"town":"無量寺四丁目","koaza":"","lat":36.600506,"lng":136.614578,"zip":"9200333"},{"town":"無量寺五丁目","koaza":"","lat":36.602479,"lng":136.613193,"zip":"9200333"},{"town":"無量寺町","koaza":"","lat":36.604353,"lng":136.61332,"zip":"9200332"},{"town":"娚杉町","koaza":"","lat":36.458436,"lng":136.730565,"zip":"9201314"},{"town":"本江町","koaza":"","lat":36.567901,"lng":136.635023,"zip":"9218012"},{"town":"元菊町","koaza":"","lat":36.572163,"lng":136.642134,"zip":"9200036"},{"town":"元町一丁目","koaza":"","lat":36.5805,"lng":136.667348,"zip":"9200842"},{"town":"元町二丁目","koaza":"","lat":36.580542,"lng":136.664406,"zip":"9200842"},{"town":"百坂町","koaza":"","lat":36.607715,"lng":136.686273,"zip":"9203131"},{"town":"森戸一丁目","koaza":"","lat":36.55806,"lng":136.599912,"zip":"9218061"},{"town":"森戸二丁目","koaza":"","lat":36.558251,"lng":136.597686,"zip":"9218061"},{"town":"もりの里一丁目","koaza":"","lat":36.551413,"lng":136.689431,"zip":"9201167"},{"town":"もりの里二丁目","koaza":"","lat":36.555258,"lng":136.685596,"zip":"9201167"},{"town":"もりの里三丁目","koaza":"","lat":36.560271,"lng":136.682521,"zip":"9201167"},{"town":"森山一丁目","koaza":"","lat":36.576819,"lng":136.666678,"zip":"9200843"},{"town":"森山二丁目","koaza":"","lat":36.579351,"lng":136.66889,"zip":"9200843"},{"town":"諸江町","koaza":"","lat":36.597403,"lng":136.64558,"zip":"9200014"},{"town":"矢木一丁目","koaza":"","lat":36.556007,"lng":136.597012,"zip":"9218066"},{"town":"矢木二丁目","koaza":"","lat":36.555809,"lng":136.594704,"zip":"9218066"},{"town":"矢木三丁目","koaza":"","lat":36.560409,"lng":136.594012,"zip":"9218066"},{"town":"薬師堂町","koaza":"","lat":36.578076,"lng":136.629161,"zip":"9200052"},{"town":"薬師町","koaza":"","lat":36.588905,"lng":136.730845,"zip":"9200174"},{"town":"安江町","koaza":"","lat":36.574336,"lng":136.65497,"zip":"9200854"},{"town":"柳橋町","koaza":"","lat":36.601225,"lng":136.683505,"zip":"9203133"},{"town":"山川町","koaza":"","lat":36.501744,"lng":136.686781,"zip":"9201337"},{"town":"山科一丁目","koaza":"","lat":36.528405,"lng":136.649144,"zip":"9218175"},{"town":"山科二丁目","koaza":"","lat":36.530149,"lng":136.649373,"zip":"9218175"},{"town":"山科三丁目","koaza":"","lat":36.52978,"lng":136.645349,"zip":"9218175"},{"town":"山科町","koaza":"","lat":36.524021,"lng":136.658591,"zip":"9218174"},{"town":"山田屋小路二番丁","koaza":"","lat":36.555312,"lng":136.65712,"zip":"9200000"},{"town":"山の上町","koaza":"","lat":36.578084,"lng":136.67178,"zip":"9200816"},{"town":"山ノ上町五丁目","koaza":"","lat":36.577416,"lng":136.675889,"zip":"9200000"},{"town":"弥生一丁目","koaza":"","lat":36.54924,"lng":136.64674,"zip":"9218036"},{"town":"弥生二丁目","koaza":"","lat":36.546408,"lng":136.644072,"zip":"9218036"},{"town":"弥生三丁目","koaza":"","lat":36.542069,"lng":136.643302,"zip":"9218036"},{"town":"夕日寺町","koaza":"","lat":36.576068,"lng":136.716651,"zip":"9200823"},{"town":"柚木町","koaza":"","lat":36.567725,"lng":136.757626,"zip":"9200146"},{"town":"弓取町","koaza":"","lat":36.61103,"lng":136.640106,"zip":"9200215"},{"town":"湯谷原町","koaza":"","lat":36.528493,"lng":136.739296,"zip":"9201106"},{"town":"湯涌荒屋町","koaza":"","lat":36.467872,"lng":136.758835,"zip":"9201122"},{"town":"湯涌河内町","koaza":"","lat":36.459402,"lng":136.780613,"zip":"9201118"},{"town":"湯涌田子島町","koaza":"","lat":36.472954,"lng":136.750524,"zip":"9201124"},{"town":"湯涌曲町","koaza":"","lat":36.459126,"lng":136.767038,"zip":"9201119"},{"town":"湯涌町","koaza":"","lat":36.477685,"lng":136.755982,"zip":"9201123"},{"town":"八日市一丁目","koaza":"","lat":36.545098,"lng":136.610458,"zip":"9218064"},{"town":"八日市二丁目","koaza":"","lat":36.543651,"lng":136.606699,"zip":"9218064"},{"town":"八日市三丁目","koaza":"","lat":36.547204,"lng":136.604073,"zip":"9218064"},{"town":"八日市四丁目","koaza":"","lat":36.548589,"lng":136.607379,"zip":"9218064"},{"town":"八日市五丁目","koaza":"","lat":36.549455,"lng":136.610677,"zip":"9218064"},{"town":"八日市出町","koaza":"","lat":36.553767,"lng":136.609382,"zip":"9218063"},{"town":"横川一丁目","koaza":"","lat":36.535061,"lng":136.62381,"zip":"9218163"},{"town":"横川二丁目","koaza":"","lat":36.535405,"lng":136.62756,"zip":"9218163"},{"town":"横川三丁目","koaza":"","lat":36.538807,"lng":136.625856,"zip":"9218163"},{"town":"横川四丁目","koaza":"","lat":36.539711,"lng":136.629033,"zip":"9218163"},{"town":"横川五丁目","koaza":"","lat":36.54259,"lng":136.629686,"zip":"9218163"},{"town":"横川六丁目","koaza":"","lat":36.541439,"lng":136.625748,"zip":"9218163"},{"town":"横川七丁目","koaza":"","lat":36.542614,"lng":136.625067,"zip":"9218163"},{"town":"横谷町","koaza":"","lat":36.461674,"lng":136.789797,"zip":"9201117"},{"town":"横枕町","koaza":"","lat":36.607461,"lng":136.678551,"zip":"9203135"},{"town":"横山町","koaza":"","lat":36.564713,"lng":136.670475,"zip":"9200922"},{"town":"吉原町","koaza":"","lat":36.607645,"lng":136.692658,"zip":"9203114"},{"town":"米泉町十丁目","koaza":"","lat":36.555711,"lng":136.622762,"zip":"9218044"},{"town":"米泉町一丁目","koaza":"","lat":36.544554,"lng":136.626768,"zip":"9218044"},{"town":"米泉町二丁目","koaza":"","lat":36.544197,"lng":136.623413,"zip":"9218044"},{"town":"米泉町三丁目","koaza":"","lat":36.546774,"lng":136.623361,"zip":"9218044"},{"town":"米泉町四丁目","koaza":"","lat":36.546709,"lng":136.627055,"zip":"9218044"},{"town":"米泉町五丁目","koaza":"","lat":36.549133,"lng":136.626787,"zip":"9218044"},{"town":"米泉町六丁目","koaza":"","lat":36.549191,"lng":136.623253,"zip":"9218044"},{"town":"米泉町七丁目","koaza":"","lat":36.55183,"lng":136.622891,"zip":"9218044"},{"town":"米泉町八丁目","koaza":"","lat":36.551653,"lng":136.625956,"zip":"9218044"},{"town":"米泉町九丁目","koaza":"","lat":36.554345,"lng":136.624826,"zip":"9218044"},{"town":"米丸町","koaza":"","lat":36.568764,"lng":136.619601,"zip":"9218004"},{"town":"蓮花町","koaza":"","lat":36.51201,"lng":136.680897,"zip":"9201342"},{"town":"蓮如町","koaza":"","lat":36.517815,"lng":136.727842,"zip":"9201142"},{"town":"六枚町","koaza":"","lat":36.573543,"lng":136.64772,"zip":"9200868"},{"town":"若草町","koaza":"","lat":36.543265,"lng":136.659149,"zip":"9218111"},{"town":"稚日野町","koaza":"","lat":36.577082,"lng":136.598237,"zip":"9200355"},{"town":"若松町","koaza":"","lat":36.557019,"lng":136.699495,"zip":"9201165"},{"town":"若松町一丁目","koaza":"","lat":36.556861,"lng":136.690987,"zip":"9201165"},{"town":"若松町二丁目","koaza":"","lat":36.555688,"lng":136.688635,"zip":"9201165"},{"town":"若松町三丁目","koaza":"","lat":36.557911,"lng":136.687254,"zip":"9201165"},{"town":"若宮一丁目","koaza":"","lat":36.573321,"lng":136.63186,"zip":"9200054"},{"town":"若宮二丁目","koaza":"","lat":36.574652,"lng":136.629868,"zip":"9200054"},{"town":"若宮町","koaza":"","lat":36.578852,"lng":136.632129,"zip":"9200053"},{"town":"涌波一丁目","koaza":"","lat":36.532812,"lng":136.686425,"zip":"9200953"},{"town":"涌波二丁目","koaza":"","lat":36.536155,"lng":136.682275,"zip":"9200953"},{"town":"涌波三丁目","koaza":"","lat":36.536487,"lng":136.684356,"zip":"9200953"},{"town":"涌波四丁目","koaza":"","lat":36.537226,"lng":136.685881,"zip":"9200953"},{"town":"涌波町","koaza":"","lat":36.531637,"lng":136.688358,"zip":"9200954"},{"town":"割出町","koaza":"","lat":36.60068,"lng":136.640433,"zip":"9200062"},{"town":"田上本町","koaza":"","lat":36.531112,"lng":136.700201,"zip":"9201155"},{"town":"田上二丁目","koaza":"","lat":36.545304,"lng":136.695256,"zip":"9201152"},{"town":"旭町","koaza":"","lat":36.548238,"lng":136.689484,"zip":"9200941"},{"town":"田上さくら三丁目","koaza":"","lat":36.546402,"lng":136.689127,"zip":"9201157"},{"town":"田上の里二丁目","koaza":"","lat":36.547403,"lng":136.69166,"zip":"9201156"},{"town":"田上の里一丁目","koaza":"","lat":36.544191,"lng":136.693158,"zip":"9201156"},{"town":"小立野一丁目","koaza":"","lat":36.544332,"lng":136.684882,"zip":"9200942"},{"town":"田上さくら一丁目","koaza":"","lat":36.541252,"lng":136.690328,"zip":"9201157"},{"town":"田上さくら二丁目","koaza":"","lat":36.543907,"lng":136.689567,"zip":"9201157"},{"town":"田上町神","koaza":"","lat":36.541034,"lng":136.694265,"zip":"9200000"},{"town":"田上町","koaza":"","lat":36.542253,"lng":136.694305,"zip":"9201151"},{"town":"田上本町三丁目","koaza":"","lat":36.536927,"lng":136.696655,"zip":"9201155"},{"town":"田上本町一丁目","koaza":"","lat":36.532671,"lng":136.697226,"zip":"9201155"},{"town":"田上本町二丁目","koaza":"","lat":36.534672,"lng":136.6987,"zip":"9201155"},{"town":"田上本町四丁目","koaza":"","lat":36.538518,"lng":136.693619,"zip":"9201155"},{"town":"錦町","koaza":"","lat":36.537319,"lng":136.689038,"zip":"9200952"},{"town":"朝霧台一丁目","koaza":"","lat":36.534431,"lng":136.694808,"zip":"9201158"},{"town":"大友一丁目","koaza":"","lat":36.601605,"lng":136.62849,"zip":"9208205"},{"town":"直江町","koaza":"","lat":36.605059,"lng":136.633861,"zip":"9208216"},{"town":"近岡町","koaza":"","lat":36.610765,"lng":136.63089,"zip":"9208217"},{"town":"大友二丁目","koaza":"","lat":36.602691,"lng":136.627902,"zip":"9208205"},{"town":"御供田町","koaza":"","lat":36.606406,"lng":136.625935,"zip":"9208221"},{"town":"大友町","koaza":"","lat":36.604457,"lng":136.627198,"zip":"9208222"},{"town":"大友三丁目","koaza":"","lat":36.603641,"lng":136.626176,"zip":"9208205"},{"town":"畝田西三丁目","koaza":"","lat":36.596987,"lng":136.607174,"zip":"9200342"},{"town":"金石東二丁目","koaza":"","lat":36.602724,"lng":136.598417,"zip":"9200335"},{"town":"金石北一丁目","koaza":"","lat":36.604618,"lng":136.597427,"zip":"9200338"},{"town":"畝田西四丁目","koaza":"","lat":36.599985,"lng":136.60649,"zip":"9200342"},{"town":"木曳野二丁目","koaza":"","lat":36.599673,"lng":136.605197,"zip":"9200339"},{"town":"木曳野四丁目","koaza":"","lat":36.603008,"lng":136.601712,"zip":"9200339"},{"town":"木曳野三丁目","koaza":"","lat":36.602669,"lng":136.605546,"zip":"9200339"},{"town":"桂町","koaza":"","lat":36.605009,"lng":136.60398,"zip":"9200334"},{"town":"寺中町","koaza":"","lat":36.597368,"lng":136.602703,"zip":"9200341"},{"town":"木曳野一丁目","koaza":"","lat":36.59981,"lng":136.603296,"zip":"9200339"},{"town":"大河端西二丁目","koaza":"","lat":36.617502,"lng":136.639537,"zip":"9200210"},{"town":"大河端西一丁目","koaza":"","lat":36.613892,"lng":136.640635,"zip":"9200210"},{"town":"野田四丁目","koaza":"","lat":36.534484,"lng":136.663464,"zip":"9218107"},{"town":"野田三丁目","koaza":"","lat":36.533773,"lng":136.667533,"zip":"9218107"},{"town":"野田二丁目","koaza":"","lat":36.534807,"lng":136.670613,"zip":"9218107"},{"town":"野田一丁目","koaza":"","lat":36.531868,"lng":136.672699,"zip":"9218107"},{"town":"直江東一丁目","koaza":"","lat":36.613528,"lng":136.637266,"zip":"9208213"},{"town":"直江東二丁目","koaza":"","lat":36.615497,"lng":136.636344,"zip":"9208213"},{"town":"直江西一丁目","koaza":"","lat":36.611537,"lng":136.635268,"zip":"9208215"},{"town":"直江南一丁目","koaza":"","lat":36.605428,"lng":136.631618,"zip":"9208214"},{"town":"直江南二丁目","koaza":"","lat":36.610322,"lng":136.636569,"zip":"9208214"},{"town":"観音町一丁目","koaza":"","lat":36.572253,"lng":136.665685,"zip":"9200838"},{"town":"観音町二丁目","koaza":"","lat":36.571844,"lng":136.667252,"zip":"9200838"},{"town":"金石下本町","koaza":"","lat":36.60255,"lng":136.592725,"zip":"9200317"},{"town":"金石通町","koaza":"","lat":36.603804,"lng":136.593904,"zip":"9200316"},{"town":"金石味噌屋町","koaza":"","lat":36.603634,"lng":136.591595,"zip":"9200318"},{"town":"桂町","koaza":"リ","lat":36.60568,"lng":136.60258,"zip":"9200334"},{"town":"桂町","koaza":"ト","lat":36.607464,"lng":136.601778,"zip":"9200334"},{"town":"桂町","koaza":"チ","lat":36.60673,"lng":136.602322,"zip":"9200334"},{"town":"桂町","koaza":"ロ","lat":36.604151,"lng":136.603876,"zip":"9200334"},{"town":"桂町","koaza":"ホ","lat":36.607191,"lng":136.605195,"zip":"9200334"},{"town":"桂町","koaza":"ヘ","lat":36.608362,"lng":136.604843,"zip":"9200334"},{"town":"桂町","koaza":"ニ","lat":36.606587,"lng":136.606863,"zip":"9200334"},{"town":"桂町","koaza":"イ","lat":36.603713,"lng":136.606724,"zip":"9200334"},{"town":"無量寺町","koaza":"ナ","lat":36.608639,"lng":136.607712,"zip":"9200332"},{"town":"無量寺町","koaza":"子","lat":36.608047,"lng":136.608634,"zip":"9200332"},{"town":"無量寺町","koaza":"ト","lat":36.606805,"lng":136.608939,"zip":"9200332"},{"town":"無量寺町","koaza":"リ","lat":36.608849,"lng":136.612418,"zip":"9200332"},{"town":"無量寺町","koaza":"ソ","lat":36.607413,"lng":136.609529,"zip":"9200332"},{"town":"五郎島町","koaza":"カ","lat":36.620387,"lng":136.616577,"zip":"9200224"},{"town":"五郎島町","koaza":"ニ","lat":36.614978,"lng":136.614785,"zip":"9200224"},{"town":"五郎島町","koaza":"ホ","lat":36.615104,"lng":136.615612,"zip":"9200224"},{"town":"無量寺町","koaza":"ハ","lat":36.603207,"lng":136.616121,"zip":"9200332"},{"town":"五郎島町","koaza":"ヘ","lat":36.616731,"lng":136.617335,"zip":"9200224"},{"town":"五郎島町","koaza":"ヌ","lat":36.615738,"lng":136.618794,"zip":"9200224"},{"town":"粟崎町","koaza":"レ","lat":36.615525,"lng":136.621163,"zip":"9200226"},{"town":"五郎島町","koaza":"リ","lat":36.617402,"lng":136.620627,"zip":"9200224"},{"town":"五郎島町","koaza":"ヲ","lat":36.616316,"lng":136.620499,"zip":"9200224"},{"town":"戸水町","koaza":"ワ","lat":36.614478,"lng":136.619972,"zip":"9200223"},{"town":"戸水町","koaza":"カ","lat":36.608036,"lng":136.620011,"zip":"9200223"},{"town":"五郎島町","koaza":"ワ","lat":36.616792,"lng":136.622208,"zip":"9200224"},{"town":"粟崎町","koaza":"る","lat":36.618764,"lng":136.623026,"zip":"9200226"},{"town":"粟崎町","koaza":"ほ","lat":36.619508,"lng":136.624906,"zip":"9200226"},{"town":"粟崎町","koaza":"を","lat":36.620918,"lng":136.624079,"zip":"9200226"},{"town":"御供田町","koaza":"ロ","lat":36.606598,"lng":136.625001,"zip":"9208221"},{"town":"御供田町","koaza":"イ","lat":36.603945,"lng":136.624464,"zip":"9208221"},{"town":"御供田町","koaza":"ホ","lat":36.609376,"lng":136.625353,"zip":"9208221"},{"town":"粟崎町","koaza":"ト","lat":36.624795,"lng":136.627916,"zip":"9200226"},{"town":"粟崎町","koaza":"ヘ","lat":36.622776,"lng":136.626328,"zip":"9200226"},{"town":"御供田町","koaza":"ニ","lat":36.608768,"lng":136.627113,"zip":"9208221"},{"town":"御供田町","koaza":"ハ","lat":36.606068,"lng":136.627442,"zip":"9208221"},{"town":"大友町","koaza":"ハ","lat":36.604586,"lng":136.62714,"zip":"9208222"},{"town":"粟崎町","koaza":"ニ","lat":36.622146,"lng":136.627459,"zip":"9200226"},{"town":"粟崎町","koaza":"チ","lat":36.625101,"lng":136.629497,"zip":"9200226"},{"town":"粟崎町","koaza":"リ","lat":36.62455,"lng":136.629557,"zip":"9200226"},{"town":"粟崎町","koaza":"ワ","lat":36.627454,"lng":136.63106,"zip":"9200226"},{"town":"粟崎町","koaza":"ヌ","lat":36.627046,"lng":136.631749,"zip":"9200226"},{"town":"直江町","koaza":"ホ","lat":36.605664,"lng":136.632818,"zip":"9208216"},{"town":"大河端町","koaza":"西","lat":36.620037,"lng":136.634368,"zip":"9200213"},{"town":"北間町","koaza":"ホ","lat":36.621854,"lng":136.634204,"zip":"9200212"},{"town":"直江町","koaza":"ニ","lat":36.606054,"lng":136.63436,"zip":"9208216"},{"town":"北間町","koaza":"ハ","lat":36.622056,"lng":136.637655,"zip":"9200212"},{"town":"直江町","koaza":"ヘ","lat":36.608073,"lng":136.635922,"zip":"9208216"},{"town":"須崎町","koaza":"甲","lat":36.620312,"lng":136.639877,"zip":"9200207"},{"town":"三口町","koaza":"火","lat":36.608715,"lng":136.640979,"zip":"9200018"},{"town":"須崎町","koaza":"イ","lat":36.62789,"lng":136.641172,"zip":"9200207"},{"town":"北間町","koaza":"イ","lat":36.623973,"lng":136.639991,"zip":"9200212"},{"town":"大河端町","koaza":"東","lat":36.6162,"lng":136.641397,"zip":"9200213"},{"town":"須崎町","koaza":"チ","lat":36.621521,"lng":136.640846,"zip":"9200207"},{"town":"大河端町","koaza":"イ","lat":36.620603,"lng":136.640869,"zip":"9200213"},{"town":"須崎町","koaza":"ト","lat":36.623724,"lng":136.641848,"zip":"9200207"},{"town":"須崎町","koaza":"ロ","lat":36.626684,"lng":136.642395,"zip":"9200207"},{"town":"三ツ屋町","koaza":"イ","lat":36.610935,"lng":136.642265,"zip":"9200214"},{"town":"大河端町","koaza":"ホ","lat":36.615783,"lng":136.642831,"zip":"9200213"},{"town":"大河端町","koaza":"ニ","lat":36.61841,"lng":136.641758,"zip":"9200213"},{"town":"大河端町","koaza":"ロ","lat":36.617876,"lng":136.632921,"zip":"9200213"},{"town":"大友町","koaza":"ニ","lat":36.604298,"lng":136.628979,"zip":"9208222"},{"town":"無量寺町","koaza":"ホ","lat":36.602759,"lng":136.612598,"zip":"9200332"},{"town":"無量寺町","koaza":"ニ","lat":36.602895,"lng":136.614385,"zip":"9200332"},{"town":"桂町","koaza":"ハ","lat":36.605224,"lng":136.603193,"zip":"9200334"},{"town":"北間町","koaza":"ロ","lat":36.625389,"lng":136.638537,"zip":"9200212"},{"town":"粟崎町","koaza":"タ","lat":36.618794,"lng":136.622014,"zip":"9200226"},{"town":"五郎島町","koaza":"ハ","lat":36.616091,"lng":136.614617,"zip":"9200224"},{"town":"五郎島町","koaza":"ト","lat":36.617357,"lng":136.617975,"zip":"9200224"},{"town":"戸水町","koaza":"タ","lat":36.608026,"lng":136.617751,"zip":"9200223"},{"town":"戸水町","koaza":"ル","lat":36.609803,"lng":136.622329,"zip":"9200223"},{"town":"粟崎町","koaza":"カ","lat":36.623134,"lng":136.624906,"zip":"9200226"},{"town":"五郎島町","koaza":"ロ","lat":36.615038,"lng":136.614198,"zip":"9200224"},{"town":"三ツ屋町","koaza":"ロ","lat":36.611648,"lng":136.644239,"zip":"9200214"},{"town":"大河端町","koaza":"ヘ","lat":36.612506,"lng":136.644186,"zip":"9200213"},{"town":"蚊爪町","koaza":"ロ","lat":36.626782,"lng":136.64467,"zip":"9200208"},{"town":"蚊爪町","koaza":"イ","lat":36.625074,"lng":136.643377,"zip":"9200208"},{"town":"三口町","koaza":"木","lat":36.606559,"lng":136.644393,"zip":"9200018"},{"town":"三口町","koaza":"土","lat":36.609074,"lng":136.644153,"zip":"9200018"},{"town":"蚊爪町","koaza":"は","lat":36.629841,"lng":136.645595,"zip":"9200208"},{"town":"東蚊爪町","koaza":"ニ","lat":36.620641,"lng":136.645497,"zip":"9200209"},{"town":"諸江町","koaza":"下丁","lat":36.60296,"lng":136.646768,"zip":"9200014"},{"town":"東蚊爪町","koaza":"ホ","lat":36.62296,"lng":136.645648,"zip":"9200209"},{"town":"三口町","koaza":"金","lat":36.608277,"lng":136.646074,"zip":"9200018"},{"town":"東蚊爪町","koaza":"イ","lat":36.617755,"lng":136.645771,"zip":"9200209"},{"town":"三ツ屋町","koaza":"ハ","lat":36.610756,"lng":136.645993,"zip":"9200214"},{"town":"北寺町","koaza":"ニ","lat":36.614125,"lng":136.646599,"zip":"9200206"},{"town":"東蚊爪町","koaza":"チ","lat":36.625823,"lng":136.646987,"zip":"9200209"},{"town":"東蚊爪町","koaza":"ヘ","lat":36.622101,"lng":136.647717,"zip":"9200209"},{"town":"北寺町","koaza":"ロ","lat":36.611507,"lng":136.647652,"zip":"9200206"},{"town":"東蚊爪町","koaza":"ラ","lat":36.63182,"lng":136.654606,"zip":"9200209"},{"town":"東蚊爪町","koaza":"ハ","lat":36.619768,"lng":136.648267,"zip":"9200209"},{"town":"東蚊爪町","koaza":"ロ","lat":36.616718,"lng":136.649127,"zip":"9200209"},{"town":"北寺町","koaza":"ホ","lat":36.613715,"lng":136.649191,"zip":"9200206"},{"town":"東蚊爪町","koaza":"ト","lat":36.625791,"lng":136.648206,"zip":"9200209"},{"town":"松寺町","koaza":"カ","lat":36.606712,"lng":136.647756,"zip":"9200011"},{"town":"松寺町","koaza":"卯","lat":36.608842,"lng":136.649796,"zip":"9200011"},{"town":"北寺町","koaza":"ヘ","lat":36.611781,"lng":136.64883,"zip":"9200206"},{"town":"東蚊爪町","koaza":"ぬ","lat":36.627397,"lng":136.649185,"zip":"9200209"},{"town":"大浦町","koaza":"ヲ","lat":36.625098,"lng":136.650045,"zip":"9200205"},{"town":"大浦町","koaza":"ル","lat":36.621504,"lng":136.649932,"zip":"9200205"},{"town":"大浦町","koaza":"ハ","lat":36.614896,"lng":136.65154,"zip":"9200205"},{"town":"松寺町","koaza":"丑","lat":36.604641,"lng":136.652787,"zip":"9200011"},{"town":"松寺町","koaza":"寅","lat":36.606698,"lng":136.652308,"zip":"9200011"},{"town":"大浦町","koaza":"ヘ","lat":36.620994,"lng":136.652969,"zip":"9200205"},{"town":"大浦町","koaza":"ニ","lat":36.618484,"lng":136.651234,"zip":"9200205"},{"town":"大浦町","koaza":"ヌ","lat":36.625228,"lng":136.65246,"zip":"9200205"},{"town":"松寺町","koaza":"辰","lat":36.610045,"lng":136.652651,"zip":"9200011"},{"town":"大浦町","koaza":"ワ","lat":36.628765,"lng":136.653903,"zip":"9200205"},{"town":"松寺町","koaza":"巳","lat":36.610289,"lng":136.653644,"zip":"9200011"},{"town":"大浦町","koaza":"ホ","lat":36.616738,"lng":136.653573,"zip":"9200205"},{"town":"大浦町","koaza":"リ","lat":36.623713,"lng":136.655729,"zip":"9200205"},{"town":"松寺町","koaza":"未","lat":36.60745,"lng":136.657251,"zip":"9200011"},{"town":"松寺町","koaza":"申","lat":36.604155,"lng":136.656668,"zip":"9200011"},{"town":"大浦町","koaza":"ロ","lat":36.614033,"lng":136.654833,"zip":"9200205"},{"town":"大浦町","koaza":"ト","lat":36.617431,"lng":136.656917,"zip":"9200205"},{"town":"大浦町","koaza":"チ","lat":36.620467,"lng":136.656872,"zip":"9200205"},{"town":"大浦町","koaza":"カ","lat":36.627093,"lng":136.656988,"zip":"9200205"},{"town":"大浦町","koaza":"ヨ","lat":36.628732,"lng":136.657526,"zip":"9200205"},{"town":"千田町","koaza":"ヘ","lat":36.61596,"lng":136.65784,"zip":"9200204"},{"town":"東蚊爪町","koaza":"ク","lat":36.629935,"lng":136.65839,"zip":"9200209"},{"town":"千田町","koaza":"ニ","lat":36.61053,"lng":136.65772,"zip":"9200204"},{"town":"松寺町","koaza":"午","lat":36.608803,"lng":136.655991,"zip":"9200011"},{"town":"木越町","koaza":"レ","lat":36.621596,"lng":136.658428,"zip":"9200201"},{"town":"千田町","koaza":"ホ","lat":36.613659,"lng":136.657487,"zip":"9200204"},{"town":"木越町","koaza":"ソ","lat":36.623859,"lng":136.658569,"zip":"9200201"},{"town":"大場町","koaza":"フ","lat":36.62678,"lng":136.661276,"zip":"9203121"},{"town":"木越町","koaza":"ツ","lat":36.625563,"lng":136.660414,"zip":"9200201"},{"town":"木越町","koaza":"イ","lat":36.614554,"lng":136.660591,"zip":"9200201"},{"town":"千田町","koaza":"ハ","lat":36.612964,"lng":136.659869,"zip":"9200204"},{"town":"木越町","koaza":"ト","lat":36.618883,"lng":136.661375,"zip":"9200201"},{"town":"木越町","koaza":"ヘ","lat":36.616349,"lng":136.660737,"zip":"9200201"},{"town":"千田町","koaza":"ロ","lat":36.610327,"lng":136.661214,"zip":"9200204"},{"town":"木越町","koaza":"タ","lat":36.622261,"lng":136.661313,"zip":"9200201"},{"town":"田中町","koaza":"る","lat":36.605848,"lng":136.659722,"zip":"9200007"},{"town":"田中町","koaza":"わ","lat":36.608385,"lng":136.661689,"zip":"9200007"},{"town":"田中町","koaza":"か","lat":36.60817,"lng":136.660367,"zip":"9200007"},{"town":"大場町","koaza":"ア","lat":36.628659,"lng":136.661356,"zip":"9203121"},{"town":"木越町","koaza":"ヨ","lat":36.625264,"lng":136.662688,"zip":"9200201"},{"town":"田中町","koaza":"ぬ","lat":36.605768,"lng":136.661708,"zip":"9200007"},{"town":"大場町","koaza":"コ","lat":36.628283,"lng":136.663889,"zip":"9203121"},{"town":"千田町","koaza":"イ","lat":36.610426,"lng":136.662618,"zip":"9200204"},{"town":"大場町","koaza":"テ","lat":36.629731,"lng":136.662592,"zip":"9203121"},{"town":"木越町","koaza":"チ","lat":36.621977,"lng":136.663338,"zip":"9200201"},{"town":"今昭町","koaza":"乙","lat":36.610568,"lng":136.663498,"zip":"9200008"},{"town":"今昭町","koaza":"丙","lat":36.608352,"lng":136.66478,"zip":"9200008"},{"town":"木越町","koaza":"ロ","lat":36.613548,"lng":136.663984,"zip":"9200201"},{"town":"木越町","koaza":"ワ","lat":36.625942,"lng":136.666008,"zip":"9200201"},{"town":"大場町","koaza":"ケ","lat":36.627822,"lng":136.666031,"zip":"9203121"},{"town":"東蚊爪町","koaza":"ム","lat":36.637831,"lng":136.657227,"zip":"9200209"},{"town":"木越町","koaza":"ホ","lat":36.617051,"lng":136.664942,"zip":"9200201"},{"town":"木越町","koaza":"ハ","lat":36.613467,"lng":136.667124,"zip":"9200201"},{"town":"今昭町","koaza":"甲","lat":36.610919,"lng":136.66658,"zip":"9200008"},{"town":"宮保町","koaza":"ホ","lat":36.609182,"lng":136.667032,"zip":"9200006"},{"town":"宮保町","koaza":"ヘ","lat":36.606964,"lng":136.667137,"zip":"9200006"},{"town":"大浦町","koaza":"ソ","lat":36.632994,"lng":136.666307,"zip":"9200205"},{"town":"宮保町","koaza":"ニ","lat":36.605487,"lng":136.666397,"zip":"9200006"},{"town":"大場町","koaza":"ユ","lat":36.631504,"lng":136.667072,"zip":"9203121"},{"town":"千木町","koaza":"カ","lat":36.610755,"lng":136.667908,"zip":"9200001"},{"town":"木越町","koaza":"ヲ","lat":36.625432,"lng":136.668333,"zip":"9200201"},{"town":"大場町","koaza":"メ","lat":36.627417,"lng":136.66879,"zip":"9203121"},{"town":"千木町","koaza":"ヲ","lat":36.611479,"lng":136.669769,"zip":"9200001"},{"town":"千木町","koaza":"ル","lat":36.60825,"lng":136.669375,"zip":"9200001"},{"town":"千木町","koaza":"イ","lat":36.61414,"lng":136.669437,"zip":"9200001"},{"town":"大場町","koaza":"西","lat":36.626593,"lng":136.673655,"zip":"9203121"},{"town":"千木町","koaza":"ロ","lat":36.61692,"lng":136.669733,"zip":"9200001"},{"town":"千木町","koaza":"ワ","lat":36.611266,"lng":136.670631,"zip":"9200001"},{"town":"千木町","koaza":"ハ","lat":36.618576,"lng":136.670762,"zip":"9200001"},{"town":"千木町","koaza":"ホ","lat":36.613901,"lng":136.672738,"zip":"9200001"},{"town":"千木町","koaza":"ニ","lat":36.616747,"lng":136.672049,"zip":"9200001"},{"town":"千木町","koaza":"ヘ","lat":36.610634,"lng":136.672984,"zip":"9200001"},{"town":"千木町","koaza":"リ","lat":36.608483,"lng":136.672396,"zip":"9200001"},{"town":"大場町","koaza":"ノ","lat":36.626127,"lng":136.668845,"zip":"9203121"},{"town":"東蚊爪町","koaza":"マ","lat":36.634672,"lng":136.664476,"zip":"9200209"},{"town":"田中町","koaza":"を","lat":36.607283,"lng":136.664212,"zip":"9200007"},{"town":"田中町","koaza":"ち","lat":36.605452,"lng":136.664418,"zip":"9200007"},{"town":"三口町","koaza":"水","lat":36.607013,"lng":136.647542,"zip":"9200018"},{"town":"大場町","koaza":"エ","lat":36.628734,"lng":136.664995,"zip":"9203121"},{"town":"大浦町","koaza":"イ","lat":36.611287,"lng":136.656129,"zip":"9200205"},{"town":"千木町","koaza":"ヌ","lat":36.606522,"lng":136.669219,"zip":"9200001"},{"town":"木越町","koaza":"ニ","lat":36.616359,"lng":136.667214,"zip":"9200201"},{"town":"東蚊爪町","koaza":"リ","lat":36.62744,"lng":136.647448,"zip":"9200209"},{"town":"大場町","koaza":"マ","lat":36.630329,"lng":136.668562,"zip":"9203121"},{"town":"打木町","koaza":"西","lat":36.568175,"lng":136.564559,"zip":"9200377"},{"town":"下安原町","koaza":"西","lat":36.57669,"lng":136.573676,"zip":"9200371"},{"town":"打木町","koaza":"東","lat":36.566591,"lng":136.571163,"zip":"9200377"},{"town":"専光寺町","koaza":"レ","lat":36.585056,"lng":136.579969,"zip":"9200356"},{"town":"下安原町","koaza":"東","lat":36.573076,"lng":136.579076,"zip":"9200371"},{"town":"福増町","koaza":"北","lat":36.566436,"lng":136.578237,"zip":"9200376"},{"town":"専光寺町","koaza":"そ","lat":36.583094,"lng":136.579801,"zip":"9200356"},{"town":"福増町","koaza":"南","lat":36.559988,"lng":136.580151,"zip":"9200376"},{"town":"佐奇森町","koaza":"ヲ","lat":36.590772,"lng":136.582638,"zip":"9200357"},{"town":"赤土町","koaza":"ワ","lat":36.589563,"lng":136.581752,"zip":"9200353"},{"town":"専光寺町","koaza":"ツ","lat":36.587613,"lng":136.581464,"zip":"9200356"},{"town":"専光寺町","koaza":"せ","lat":36.58229,"lng":136.581476,"zip":"9200356"},{"town":"普正寺町","koaza":"十一","lat":36.594391,"lng":136.583069,"zip":"9200351"},{"town":"専光寺町","koaza":"タ","lat":36.585321,"lng":136.583359,"zip":"9200356"},{"town":"赤土町","koaza":"カ","lat":36.589952,"lng":136.583098,"zip":"9200353"},{"town":"普正寺町","koaza":"九","lat":36.597462,"lng":136.586575,"zip":"9200351"},{"town":"専光寺町","koaza":"カ","lat":36.584277,"lng":136.584356,"zip":"9200356"},{"town":"専光寺町","koaza":"ヲ","lat":36.579169,"lng":136.585521,"zip":"9200356"},{"town":"専光寺町","koaza":"ニ","lat":36.581686,"lng":136.586165,"zip":"9200356"},{"town":"専光寺町","koaza":"ハ","lat":36.584594,"lng":136.587443,"zip":"9200356"},{"town":"専光寺町","koaza":"ル","lat":36.578726,"lng":136.587955,"zip":"9200356"},{"town":"専光寺町","koaza":"ホ","lat":36.581048,"lng":136.589543,"zip":"9200356"},{"town":"佐奇森町","koaza":"ル","lat":36.587547,"lng":136.587733,"zip":"9200357"},{"town":"普正寺町","koaza":"五","lat":36.593963,"lng":136.589971,"zip":"9200351"},{"town":"専光寺町","koaza":"ロ","lat":36.58343,"lng":136.590696,"zip":"9200356"},{"town":"佐奇森町","koaza":"イ","lat":36.586206,"lng":136.589899,"zip":"9200357"},{"town":"専光寺町","koaza":"ヌ","lat":36.576335,"lng":136.591642,"zip":"9200356"},{"town":"普正寺町","koaza":"六","lat":36.592006,"lng":136.59113,"zip":"9200351"},{"town":"赤土町","koaza":"ヌ","lat":36.588696,"lng":136.591871,"zip":"9200353"},{"town":"専光寺町","koaza":"ト","lat":36.578328,"lng":136.592206,"zip":"9200356"},{"town":"赤土町","koaza":"ハ","lat":36.584307,"lng":136.592331,"zip":"9200353"},{"town":"専光寺町","koaza":"ヘ","lat":36.580315,"lng":136.593441,"zip":"9200356"},{"town":"普正寺町","koaza":"四","lat":36.59641,"lng":136.592549,"zip":"9200351"},{"town":"専光寺町","koaza":"イ","lat":36.582327,"lng":136.593363,"zip":"9200356"},{"town":"北塚町","koaza":"西","lat":36.57204,"lng":136.594268,"zip":"9200367"},{"town":"佐奇森町","koaza":"ロ","lat":36.586209,"lng":136.592929,"zip":"9200357"},{"town":"普正寺町","koaza":"一","lat":36.593213,"lng":136.592607,"zip":"9200351"},{"town":"金石本町","koaza":"ニ","lat":36.599546,"lng":136.593285,"zip":"9200336"},{"town":"神野町","koaza":"西","lat":36.56362,"lng":136.593897,"zip":"9200365"},{"town":"観音堂町","koaza":"ワ","lat":36.590985,"lng":136.594497,"zip":"9200352"},{"town":"稚日野町","koaza":"南","lat":36.576203,"lng":136.595865,"zip":"9200355"},{"town":"赤土町","koaza":"ニ","lat":36.582656,"lng":136.595447,"zip":"9200353"},{"town":"普正寺町","koaza":"三","lat":36.596024,"lng":136.595648,"zip":"9200351"},{"town":"金石本町","koaza":"ハ","lat":36.599155,"lng":136.594532,"zip":"9200336"},{"town":"稚日野町","koaza":"北","lat":36.579242,"lng":136.598539,"zip":"9200355"},{"town":"観音堂町","koaza":"カ","lat":36.591695,"lng":136.596831,"zip":"9200352"},{"town":"佐奇森町","koaza":"ホ","lat":36.586499,"lng":136.595912,"zip":"9200357"},{"town":"金石本町","koaza":"ロ","lat":36.597979,"lng":136.596733,"zip":"9200336"},{"town":"普正寺町","koaza":"二","lat":36.593245,"lng":136.595721,"zip":"9200351"},{"town":"観音堂町","koaza":"ヲ","lat":36.590369,"lng":136.598396,"zip":"9200352"},{"town":"赤土町","koaza":"ト","lat":36.582328,"lng":136.59669,"zip":"9200353"},{"town":"北塚町","koaza":"東","lat":36.572336,"lng":136.598766,"zip":"9200367"},{"town":"二ツ寺町","koaza":"ハ","lat":36.581666,"lng":136.597691,"zip":"9200354"},{"town":"寺中町","koaza":"ハ","lat":36.595133,"lng":136.599202,"zip":"9200341"},{"town":"寺中町","koaza":"ニ","lat":36.593011,"lng":136.599087,"zip":"9200341"},{"town":"赤土町","koaza":"ヘ","lat":36.584393,"lng":136.598991,"zip":"9200353"},{"town":"赤土町","koaza":"チ","lat":36.581944,"lng":136.599925,"zip":"9200353"},{"town":"神野町","koaza":"東","lat":36.562308,"lng":136.59876,"zip":"9200365"},{"town":"金石本町","koaza":"イ","lat":36.597354,"lng":136.599238,"zip":"9200336"},{"town":"観音堂町","koaza":"ロ","lat":36.593222,"lng":136.601564,"zip":"9200352"},{"town":"寺中町","koaza":"イ","lat":36.594782,"lng":136.60247,"zip":"9200341"},{"town":"観音堂町","koaza":"ホ","lat":36.59118,"lng":136.601481,"zip":"9200352"},{"town":"観音堂町","koaza":"ヌ","lat":36.589026,"lng":136.600329,"zip":"9200352"},{"town":"寺中町","koaza":"ロ","lat":36.595461,"lng":136.601474,"zip":"9200341"},{"town":"二ツ寺町","koaza":"イ","lat":36.584137,"lng":136.601894,"zip":"9200354"},{"town":"観音堂町","koaza":"ル","lat":36.589084,"lng":136.602962,"zip":"9200352"},{"town":"赤土町","koaza":"リ","lat":36.586917,"lng":136.603083,"zip":"9200353"},{"town":"寺中町","koaza":"チ","lat":36.601508,"lng":136.601033,"zip":"9200341"},{"town":"寺中町","koaza":"ホ","lat":36.59642,"lng":136.603701,"zip":"9200341"},{"town":"寺中町","koaza":"ヘ","lat":36.598276,"lng":136.6016,"zip":"9200341"},{"town":"古府町","koaza":"西","lat":36.5713,"lng":136.603223,"zip":"9200362"},{"town":"専光寺町","koaza":"チ","lat":36.579462,"lng":136.602391,"zip":"9200356"},{"town":"寺中町","koaza":"ト","lat":36.599712,"lng":136.600661,"zip":"9200341"},{"town":"二ツ寺町","koaza":"ロ","lat":36.585895,"lng":136.604203,"zip":"9200354"},{"town":"袋畠町","koaza":"南","lat":36.577407,"lng":136.603474,"zip":"9200361"},{"town":"袋畠町","koaza":"北","lat":36.57968,"lng":136.604078,"zip":"9200361"},{"town":"観音堂町","koaza":"ヘ","lat":36.591195,"lng":136.605441,"zip":"9200352"},{"town":"古府町","koaza":"東","lat":36.571953,"lng":136.60594,"zip":"9200362"},{"town":"観音堂町","koaza":"チ","lat":36.588837,"lng":136.605457,"zip":"9200352"},{"town":"観音堂町","koaza":"イ","lat":36.592758,"lng":136.605023,"zip":"9200352"},{"town":"畝田町","koaza":"チ","lat":36.59321,"lng":136.605548,"zip":"9200342"},{"town":"示野町","koaza":"西","lat":36.580656,"lng":136.608241,"zip":"9200059"},{"town":"示野町","koaza":"リ","lat":36.583044,"lng":136.607707,"zip":"9200059"},{"town":"示野町","koaza":"南","lat":36.577126,"lng":136.610346,"zip":"9200059"},{"town":"古府町","koaza":"南","lat":36.560716,"lng":136.610104,"zip":"9200362"},{"town":"示野町","koaza":"チ","lat":36.581,"lng":136.609818,"zip":"9200059"},{"town":"示野町","koaza":"ト","lat":36.578575,"lng":136.610158,"zip":"9200059"},{"town":"間明町","koaza":"ホ","lat":36.56537,"lng":136.6102,"zip":"9218005"},{"town":"示野町","koaza":"ロ","lat":36.581145,"lng":136.611512,"zip":"9200059"},{"town":"示野町","koaza":"イ","lat":36.578674,"lng":136.612241,"zip":"9200059"},{"town":"示野町","koaza":"ホ","lat":36.576858,"lng":136.612901,"zip":"9200059"},{"town":"松村町","koaza":"ヌ","lat":36.590361,"lng":136.615391,"zip":"9200347"},{"town":"無量寺町","koaza":"イ","lat":36.601119,"lng":136.613901,"zip":"9200332"},{"town":"示野町","koaza":"ハ","lat":36.580788,"lng":136.613102,"zip":"9200059"},{"town":"無量寺町","koaza":"ロ","lat":36.600306,"lng":136.616626,"zip":"9200332"},{"town":"東力町","koaza":"ハ","lat":36.562676,"lng":136.61822,"zip":"9218016"},{"town":"東力町","koaza":"ニ","lat":36.565148,"lng":136.620403,"zip":"9218016"},{"town":"桜田町","koaza":"サ","lat":36.580018,"lng":136.620337,"zip":"9200057"},{"town":"玉鉾町","koaza":"甲","lat":36.569495,"lng":136.624449,"zip":"9218003"},{"town":"出雲町","koaza":"イ","lat":36.577045,"lng":136.625255,"zip":"9200056"},{"town":"北町","koaza":"乙","lat":36.582876,"lng":136.62691,"zip":"9200055"},{"town":"薬師堂町","koaza":"ロ","lat":36.577999,"lng":136.629483,"zip":"9200052"},{"town":"北町","koaza":"丁","lat":36.581574,"lng":136.629534,"zip":"9200055"},{"town":"南新保町","koaza":"ヌ","lat":36.59795,"lng":136.630282,"zip":"9200064"},{"town":"玉鉾町","koaza":"イ","lat":36.568695,"lng":136.629795,"zip":"9218003"},{"town":"薬師堂町","koaza":"イ","lat":36.577591,"lng":136.629424,"zip":"9200052"},{"town":"南新保町","koaza":"リ","lat":36.600785,"lng":136.631462,"zip":"9200064"},{"town":"若宮町","koaza":"リ","lat":36.576785,"lng":136.631923,"zip":"9200053"},{"town":"若宮町","koaza":"チ","lat":36.578615,"lng":136.632132,"zip":"9200053"},{"town":"若宮町","koaza":"ホ","lat":36.580712,"lng":136.632104,"zip":"9200053"},{"town":"薬師堂町","koaza":"チ","lat":36.577143,"lng":136.631501,"zip":"9200052"},{"town":"大豆田本町","koaza":"甲","lat":36.571913,"lng":136.635859,"zip":"9218047"},{"town":"南新保町","koaza":"ル","lat":36.593711,"lng":136.631894,"zip":"9200064"},{"town":"南新保町","koaza":"チ","lat":36.596783,"lng":136.633627,"zip":"9200064"},{"town":"南新保町","koaza":"ト","lat":36.594276,"lng":136.63374,"zip":"9200064"},{"town":"南新保町","koaza":"イ","lat":36.598922,"lng":136.634858,"zip":"9200064"},{"town":"二口町","koaza":"ロ","lat":36.575971,"lng":136.635117,"zip":"9200051"},{"town":"南新保町","koaza":"ロ","lat":36.598922,"lng":136.636194,"zip":"9200064"},{"town":"二口町","koaza":"ハ","lat":36.577603,"lng":136.63464,"zip":"9200051"},{"town":"直江町","koaza":"ロ","lat":36.602885,"lng":136.633647,"zip":"9208216"},{"town":"二口町","koaza":"ニ","lat":36.579102,"lng":136.634939,"zip":"9200051"},{"town":"直江町","koaza":"イ","lat":36.60314,"lng":136.635134,"zip":"9208216"},{"town":"南新保町","koaza":"ヘ","lat":36.596058,"lng":136.636692,"zip":"9200064"},{"town":"二口町","koaza":"イ","lat":36.574448,"lng":136.63628,"zip":"9200051"},{"town":"大豆田本町","koaza":"ヌ","lat":36.571545,"lng":136.637286,"zip":"9218047"},{"town":"長田本町","koaza":"チ","lat":36.5732,"lng":136.639117,"zip":"9200041"},{"town":"南新保町","koaza":"ニ","lat":36.596014,"lng":136.638616,"zip":"9200064"},{"town":"長田本町","koaza":"ホ","lat":36.575082,"lng":136.63823,"zip":"9200041"},{"town":"南新保町","koaza":"ハ","lat":36.597587,"lng":136.639068,"zip":"9200064"},{"town":"長田本町","koaza":"ト","lat":36.574361,"lng":136.639703,"zip":"9200041"},{"town":"向中町","koaza":"十二","lat":36.571583,"lng":136.639482,"zip":"9200045"},{"town":"南広岡町","koaza":"ハ","lat":36.571977,"lng":136.639935,"zip":"9200044"},{"town":"諸江町","koaza":"中丁","lat":36.597012,"lng":136.645577,"zip":"9200014"},{"town":"諸江町","koaza":"上丁","lat":36.592403,"lng":136.645791,"zip":"9200014"},{"town":"磯部町","koaza":"ヲ","lat":36.596364,"lng":136.650738,"zip":"9200012"},{"town":"七ツ屋町","koaza":"ニ","lat":36.586676,"lng":136.651086,"zip":"9200021"},{"town":"沖町","koaza":"ホ","lat":36.591471,"lng":136.650756,"zip":"9200013"},{"town":"松寺町","koaza":"子","lat":36.601419,"lng":136.652929,"zip":"9200011"},{"town":"磯部町","koaza":"ヘ","lat":36.598803,"lng":136.652133,"zip":"9200012"},{"town":"浅野本町","koaza":"ホ","lat":36.587816,"lng":136.653042,"zip":"9200841"},{"town":"沖町","koaza":"ニ","lat":36.591715,"lng":136.652233,"zip":"9200013"},{"town":"磯部町","koaza":"ル","lat":36.593657,"lng":136.654154,"zip":"9200012"},{"town":"磯部町","koaza":"ヌ","lat":36.594778,"lng":136.65419,"zip":"9200012"},{"town":"七ツ屋町","koaza":"ヌ","lat":36.583275,"lng":136.652386,"zip":"9200021"},{"town":"沖町","koaza":"ハ","lat":36.592617,"lng":136.653164,"zip":"9200013"},{"town":"沖町","koaza":"ロ","lat":36.591626,"lng":136.656006,"zip":"9200013"},{"town":"磯部町","koaza":"ホ","lat":36.599464,"lng":136.654366,"zip":"9200012"},{"town":"松寺町","koaza":"酉","lat":36.601481,"lng":136.656266,"zip":"9200011"},{"town":"磯部町","koaza":"チ","lat":36.597548,"lng":136.654288,"zip":"9200012"},{"town":"磯部町","koaza":"リ","lat":36.596078,"lng":136.654234,"zip":"9200012"},{"town":"浅野本町","koaza":"ニ","lat":36.586546,"lng":136.657111,"zip":"9200841"},{"town":"磯部町","koaza":"ロ","lat":36.59573,"lng":136.658579,"zip":"9200012"},{"town":"磯部町","koaza":"イ","lat":36.59402,"lng":136.660165,"zip":"9200012"},{"town":"乙丸町","koaza":"丙","lat":36.588775,"lng":136.65818,"zip":"9200807"},{"town":"田中町","koaza":"は","lat":36.601172,"lng":136.659069,"zip":"9200007"},{"town":"高柳町","koaza":"一","lat":36.590884,"lng":136.661879,"zip":"9200005"},{"town":"磯部町","koaza":"ニ","lat":36.599739,"lng":136.659102,"zip":"9200012"},{"town":"田中町","koaza":"に","lat":36.603159,"lng":136.659653,"zip":"9200007"},{"town":"磯部町","koaza":"ハ","lat":36.597721,"lng":136.659487,"zip":"9200012"},{"town":"高柳町","koaza":"二","lat":36.59388,"lng":136.661934,"zip":"9200005"},{"town":"高柳町","koaza":"四","lat":36.59824,"lng":136.661416,"zip":"9200005"},{"town":"高柳町","koaza":"三","lat":36.596316,"lng":136.662081,"zip":"9200005"},{"town":"田中町","koaza":"ろ","lat":36.600759,"lng":136.662136,"zip":"9200007"},{"town":"田中町","koaza":"ほ","lat":36.603149,"lng":136.66154,"zip":"9200007"},{"town":"浅野本町","koaza":"ロ","lat":36.583501,"lng":136.663724,"zip":"9200841"},{"town":"高柳町","koaza":"ニ","lat":36.599649,"lng":136.662949,"zip":"9200005"},{"town":"乙丸町","koaza":"甲","lat":36.585811,"lng":136.664401,"zip":"9200807"},{"town":"田中町","koaza":"と","lat":36.602795,"lng":136.664362,"zip":"9200007"},{"town":"高柳町","koaza":"七","lat":36.595738,"lng":136.664983,"zip":"9200005"},{"town":"田中町","koaza":"い","lat":36.600631,"lng":136.663872,"zip":"9200007"},{"town":"高柳町","koaza":"八","lat":36.598218,"lng":136.665112,"zip":"9200005"},{"town":"高柳町","koaza":"五","lat":36.591492,"lng":136.664455,"zip":"9200005"},{"town":"高柳町","koaza":"六","lat":36.593542,"lng":136.665959,"zip":"9200005"},{"town":"高柳町","koaza":"ヘ","lat":36.594167,"lng":136.664212,"zip":"9200005"},{"town":"高柳町","koaza":"リ","lat":36.594313,"lng":136.66486,"zip":"9200005"},{"town":"高柳町","koaza":"チ","lat":36.59271,"lng":136.66492,"zip":"9200005"},{"town":"大豆田本町","koaza":"ハ","lat":36.568047,"lng":136.631758,"zip":"9218047"},{"town":"観音堂町","koaza":"ト","lat":36.590534,"lng":136.6076,"zip":"9200352"},{"town":"示野町","koaza":"ニ","lat":36.578653,"lng":136.614034,"zip":"9200059"},{"town":"宮保町","koaza":"ハ","lat":36.601634,"lng":136.667272,"zip":"9200006"},{"town":"高柳町","koaza":"十","lat":36.593447,"lng":136.668128,"zip":"9200005"},{"town":"高柳町","koaza":"十一","lat":36.596168,"lng":136.668255,"zip":"9200005"},{"town":"高柳町","koaza":"十二","lat":36.598457,"lng":136.667177,"zip":"9200005"},{"town":"高柳町","koaza":"ソ","lat":36.598675,"lng":136.668635,"zip":"9200005"},{"town":"宮保町","koaza":"イ","lat":36.60146,"lng":136.669619,"zip":"9200006"},{"town":"高柳町","koaza":"十三","lat":36.591902,"lng":136.669071,"zip":"9200005"},{"town":"小坂町","koaza":"西","lat":36.590325,"lng":136.6719,"zip":"9200811"},{"town":"卯辰町","koaza":"ヌ","lat":36.573337,"lng":136.670795,"zip":"9200832"},{"town":"中屋町","koaza":"西","lat":36.558391,"lng":136.583581,"zip":"9200375"},{"town":"中屋町","koaza":"東","lat":36.55875,"lng":136.587399,"zip":"9200375"},{"town":"保古町","koaza":"ニ","lat":36.557888,"lng":136.615889,"zip":"9218053"},{"town":"保古町","koaza":"ホ","lat":36.555369,"lng":136.616629,"zip":"9218053"},{"town":"東力町","koaza":"イ","lat":36.560104,"lng":136.625963,"zip":"9218016"},{"town":"乙丸町","koaza":"乙","lat":36.588683,"lng":136.665063,"zip":"9200807"},{"town":"広岡町","koaza":"イ","lat":36.576003,"lng":136.646118,"zip":"9200032"},{"town":"寺中町","koaza":"リ","lat":36.601912,"lng":136.600625,"zip":"9200341"},{"town":"高柳町","koaza":"九","lat":36.590569,"lng":136.666868,"zip":"9200005"},{"town":"観音堂町","koaza":"リ","lat":36.586428,"lng":136.605315,"zip":"9200352"},{"town":"若宮町","koaza":"ト","lat":36.579619,"lng":136.629292,"zip":"9200053"},{"town":"薬師堂町","koaza":"ハ","lat":36.579149,"lng":136.628437,"zip":"9200052"},{"town":"七ツ屋町","koaza":"甲","lat":36.584124,"lng":136.652284,"zip":"9200021"},{"town":"高柳町","koaza":"ヲ","lat":36.59427,"lng":136.665788,"zip":"9200005"},{"town":"神谷内町","koaza":"イ","lat":36.599841,"lng":136.67144,"zip":"9200801"},{"town":"専光寺町","koaza":"リ","lat":36.589557,"lng":136.57965,"zip":"9200356"},{"town":"金石本町","koaza":"ホ","lat":36.598083,"lng":136.59163,"zip":"9200336"},{"town":"専光寺町","koaza":"ワ","lat":36.581655,"lng":136.582635,"zip":"9200356"},{"town":"専光寺町","koaza":"ヨ","lat":36.585984,"lng":136.585459,"zip":"9200356"},{"town":"薬師堂町","koaza":"ニ","lat":36.578315,"lng":136.627279,"zip":"9200052"},{"town":"若宮町","koaza":"ヲ","lat":36.576409,"lng":136.63034,"zip":"9200053"},{"town":"磯部町","koaza":"ト","lat":36.597276,"lng":136.651207,"zip":"9200012"},{"town":"沖町","koaza":"イ","lat":36.591019,"lng":136.656982,"zip":"9200013"},{"town":"大豆田本町","koaza":"ロ","lat":36.567515,"lng":136.632585,"zip":"9218047"},{"town":"出雲町","koaza":"ロ","lat":36.575083,"lng":136.627398,"zip":"9200056"},{"town":"二ツ寺町","koaza":"ニ","lat":36.581552,"lng":136.602047,"zip":"9200354"},{"town":"宮保町","koaza":"ロ","lat":36.603608,"lng":136.66852,"zip":"9200006"},{"town":"四十万町","koaza":"北イ","lat":36.504342,"lng":136.6143,"zip":"9218133"},{"town":"四十万町","koaza":"い","lat":36.500664,"lng":136.614139,"zip":"9218133"},{"town":"三十苅町","koaza":"丁","lat":36.508455,"lng":136.615607,"zip":"9218131"},{"town":"三十苅町","koaza":"戊","lat":36.509118,"lng":136.614919,"zip":"9218131"},{"town":"額乙丸町","koaza":"ニ","lat":36.511082,"lng":136.616745,"zip":"9218146"},{"town":"三十苅町","koaza":"丙","lat":36.507403,"lng":136.618756,"zip":"9218131"},{"town":"三十苅町","koaza":"乙","lat":36.509184,"lng":136.618994,"zip":"9218131"},{"town":"額乙丸町","koaza":"ハ","lat":36.511023,"lng":136.618856,"zip":"9218146"},{"town":"額乙丸町","koaza":"ロ","lat":36.510868,"lng":136.620056,"zip":"9218146"},{"town":"四十万町","koaza":"リ","lat":36.50079,"lng":136.62209,"zip":"9218133"},{"town":"四十万町","koaza":"ユ","lat":36.494848,"lng":136.620866,"zip":"9218133"},{"town":"四十万町","koaza":"北カ","lat":36.503698,"lng":136.622508,"zip":"9218133"},{"town":"額乙丸町","koaza":"イ","lat":36.511122,"lng":136.622799,"zip":"9218146"},{"town":"四十万町","koaza":"北チ","lat":36.506349,"lng":136.623928,"zip":"9218133"},{"town":"四十万町","koaza":"北ワ","lat":36.502737,"lng":136.623605,"zip":"9218133"},{"town":"額谷町","koaza":"ロ","lat":36.507484,"lng":136.625904,"zip":"9218144"},{"town":"四十万町","koaza":"北ヲ","lat":36.503908,"lng":136.623858,"zip":"9218133"},{"town":"四十万町","koaza":"北ヌ","lat":36.505454,"lng":136.624378,"zip":"9218133"},{"town":"四十万町","koaza":"北ル","lat":36.506803,"lng":136.626124,"zip":"9218133"},{"town":"額谷町","koaza":"ハ","lat":36.5094,"lng":136.62585,"zip":"9218144"},{"town":"額谷町","koaza":"ニ","lat":36.509833,"lng":136.626717,"zip":"9218144"},{"town":"額谷町","koaza":"ワ","lat":36.509294,"lng":136.627636,"zip":"9218144"},{"town":"額谷町","koaza":"ヘ","lat":36.511595,"lng":136.629385,"zip":"9218144"},{"town":"額谷町","koaza":"リ","lat":36.511081,"lng":136.62912,"zip":"9218144"},{"town":"高尾町","koaza":"リ","lat":36.518836,"lng":136.63455,"zip":"9218153"},{"town":"大額町","koaza":"ヌ","lat":36.512678,"lng":136.630023,"zip":"9218143"},{"town":"高尾町","koaza":"ソ","lat":36.520029,"lng":136.631231,"zip":"9218153"},{"town":"大額町","koaza":"ル","lat":36.512531,"lng":136.630457,"zip":"9218143"},{"town":"大額町","koaza":"ヲ","lat":36.511535,"lng":136.631141,"zip":"9218143"},{"town":"高尾町","koaza":"レ","lat":36.518991,"lng":136.631835,"zip":"9218153"},{"town":"高尾町","koaza":"ル","lat":36.518202,"lng":136.633524,"zip":"9218153"},{"town":"高尾町","koaza":"ツ","lat":36.519381,"lng":136.632858,"zip":"9218153"},{"town":"高尾町","koaza":"タ","lat":36.518844,"lng":136.633201,"zip":"9218153"},{"town":"高尾町","koaza":"ウ","lat":36.513549,"lng":136.63796,"zip":"9218153"},{"town":"高尾町","koaza":"ヌ","lat":36.518148,"lng":136.636278,"zip":"9218153"},{"town":"山科町","koaza":"ヘ","lat":36.525957,"lng":136.650373,"zip":"9218174"},{"town":"山科町","koaza":"午","lat":36.527099,"lng":136.651002,"zip":"9218174"},{"town":"山科町","koaza":"チ","lat":36.529395,"lng":136.653374,"zip":"9218174"},{"town":"山科町","koaza":"ツ","lat":36.52403,"lng":136.652802,"zip":"9218174"},{"town":"山科町","koaza":"ソ","lat":36.522275,"lng":136.652692,"zip":"9218174"},{"town":"山科町","koaza":"ヌ","lat":36.524319,"lng":136.654434,"zip":"9218174"},{"town":"長坂町","koaza":"ヲ","lat":36.531817,"lng":136.656953,"zip":"9218114"},{"town":"山科町","koaza":"東","lat":36.526401,"lng":136.654801,"zip":"9218174"},{"town":"長坂町","koaza":"ル","lat":36.53325,"lng":136.65903,"zip":"9218114"},{"town":"野田町","koaza":"ヲ","lat":36.534638,"lng":136.659935,"zip":"9218104"},{"town":"三小牛町","koaza":"二十","lat":36.508914,"lng":136.671038,"zip":"9201346"},{"town":"野田町","koaza":"ト","lat":36.53465,"lng":136.668059,"zip":"9218104"},{"town":"野田町","koaza":"ヘ","lat":36.535749,"lng":136.669023,"zip":"9218104"},{"town":"三小牛町","koaza":"ナ","lat":36.505658,"lng":136.67216,"zip":"9201346"},{"town":"三小牛町","koaza":"ニ","lat":36.521414,"lng":136.671177,"zip":"9201346"},{"town":"三小牛町","koaza":"五","lat":36.519021,"lng":136.669608,"zip":"9201346"},{"town":"野田町","koaza":"西","lat":36.527717,"lng":136.669583,"zip":"9218104"},{"town":"別所町","koaza":"ク","lat":36.502807,"lng":136.673163,"zip":"9201341"},{"town":"三小牛町","koaza":"イ","lat":36.517716,"lng":136.671249,"zip":"9201346"},{"town":"野田町","koaza":"東","lat":36.528451,"lng":136.671375,"zip":"9218104"},{"town":"別所町","koaza":"ツ","lat":36.515585,"lng":136.672194,"zip":"9201341"},{"town":"三小牛町","koaza":"九","lat":36.519939,"lng":136.670838,"zip":"9201346"},{"town":"大桑町","koaza":"平","lat":36.536359,"lng":136.672824,"zip":"9218046"},{"town":"大桑町","koaza":"中尾山","lat":36.530947,"lng":136.672409,"zip":"9218046"},{"town":"山川町","koaza":"リ","lat":36.505171,"lng":136.686483,"zip":"9201337"},{"town":"大桑町","koaza":"リ","lat":36.531356,"lng":136.680168,"zip":"9218046"},{"town":"別所町","koaza":"井","lat":36.50222,"lng":136.676761,"zip":"9201341"},{"town":"別所町","koaza":"ラ","lat":36.511091,"lng":136.675869,"zip":"9201341"},{"town":"別所町","koaza":"ワ","lat":36.517216,"lng":136.674325,"zip":"9201341"},{"town":"野田町","koaza":"ナ","lat":36.530233,"lng":136.67485,"zip":"9218104"},{"town":"大桑町","koaza":"和","lat":36.528853,"lng":136.674781,"zip":"9218046"},{"town":"大桑町","koaza":"中平","lat":36.527549,"lng":136.675369,"zip":"9218046"},{"town":"野田町","koaza":"中平ム","lat":36.529071,"lng":136.675322,"zip":"9218104"},{"town":"大桑町","koaza":"ラ","lat":36.543649,"lng":136.675502,"zip":"9218046"},{"town":"別所町","koaza":"ム","lat":36.51008,"lng":136.676677,"zip":"9201341"},{"town":"別所町","koaza":"ウ","lat":36.505113,"lng":136.67939,"zip":"9201341"},{"town":"大桑町","koaza":"チ","lat":36.536999,"lng":136.677792,"zip":"9218046"},{"town":"別所町","koaza":"四","lat":36.519216,"lng":136.676945,"zip":"9201341"},{"town":"別所町","koaza":"ヲ","lat":36.513486,"lng":136.677063,"zip":"9201341"},{"town":"別所町","koaza":"五","lat":36.516828,"lng":136.676983,"zip":"9201341"},{"town":"別所町","koaza":"ト","lat":36.520711,"lng":136.677591,"zip":"9201341"},{"town":"大桑新町","koaza":"子","lat":36.540063,"lng":136.678157,"zip":"9200945"},{"town":"末町","koaza":"二十七","lat":36.521803,"lng":136.677921,"zip":"9201302"},{"town":"別所町","koaza":"六","lat":36.516477,"lng":136.678588,"zip":"9201341"},{"town":"蓮花町","koaza":"ル","lat":36.510721,"lng":136.678545,"zip":"9201342"},{"town":"蓮花町","koaza":"イ","lat":36.512685,"lng":136.681665,"zip":"9201342"},{"town":"大桑町","koaza":"ト","lat":36.53215,"lng":136.679497,"zip":"9218046"},{"town":"蓮花町","koaza":"ロ","lat":36.514487,"lng":136.681784,"zip":"9201342"},{"town":"別所町","koaza":"七","lat":36.516197,"lng":136.681336,"zip":"9201341"},{"town":"末町","koaza":"十五","lat":36.520121,"lng":136.682616,"zip":"9201302"},{"town":"大桑町","koaza":"タ","lat":36.535076,"lng":136.681591,"zip":"9218046"},{"town":"末町","koaza":"十四","lat":36.522439,"lng":136.683478,"zip":"9201302"},{"town":"末町","koaza":"十六","lat":36.519749,"lng":136.685645,"zip":"9201302"},{"town":"錦町","koaza":"ミ","lat":36.542118,"lng":136.684505,"zip":"9200952"},{"town":"末町","koaza":"二十六","lat":36.515523,"lng":136.684219,"zip":"9201302"},{"town":"山川町","koaza":"一","lat":36.511086,"lng":136.686495,"zip":"9201337"},{"town":"末町","koaza":"十三","lat":36.522989,"lng":136.685038,"zip":"9201302"},{"town":"末町","koaza":"十七","lat":36.518388,"lng":136.685802,"zip":"9201302"},{"town":"末町","koaza":"二十四","lat":36.513735,"lng":136.689482,"zip":"9201302"},{"town":"山川町","koaza":"三","lat":36.502992,"lng":136.686281,"zip":"9201337"},{"town":"末町","koaza":"十八","lat":36.515664,"lng":136.686564,"zip":"9201302"},{"town":"大桑町","koaza":"カ","lat":36.528073,"lng":136.68752,"zip":"9218046"},{"town":"末町","koaza":"十二","lat":36.522844,"lng":136.688592,"zip":"9201302"},{"town":"大桑町","koaza":"サ乙","lat":36.525308,"lng":136.687359,"zip":"9218046"},{"town":"山川町","koaza":"二","lat":36.503211,"lng":136.688224,"zip":"9201337"},{"town":"末町","koaza":"九","lat":36.521303,"lng":136.688317,"zip":"9201302"},{"town":"山川町","koaza":"寅","lat":36.510291,"lng":136.688599,"zip":"9201337"},{"town":"末町","koaza":"七","lat":36.518941,"lng":136.688762,"zip":"9201302"},{"town":"末町","koaza":"六","lat":36.517966,"lng":136.688469,"zip":"9201302"},{"town":"末町","koaza":"十九","lat":36.515247,"lng":136.688686,"zip":"9201302"},{"town":"涌波町","koaza":"癸","lat":36.531737,"lng":136.688447,"zip":"9200954"},{"town":"末町","koaza":"五","lat":36.516664,"lng":136.690479,"zip":"9201302"},{"town":"舘山町","koaza":"キ","lat":36.522838,"lng":136.691122,"zip":"9200956"},{"town":"天池町","koaza":"一","lat":36.510487,"lng":136.689791,"zip":"9201331"},{"town":"末町","koaza":"二十","lat":36.515123,"lng":136.690736,"zip":"9201302"},{"town":"錦町","koaza":"イ","lat":36.536793,"lng":136.690275,"zip":"9200952"},{"town":"末町","koaza":"二十三","lat":36.513208,"lng":136.691125,"zip":"9201302"},{"town":"末町","koaza":"二十五","lat":36.510275,"lng":136.692709,"zip":"9201302"},{"town":"末町","koaza":"ニ","lat":36.518986,"lng":136.692167,"zip":"9201302"},{"town":"末町","koaza":"四","lat":36.51508,"lng":136.693866,"zip":"9201302"},{"town":"天池町","koaza":"五","lat":36.509648,"lng":136.692615,"zip":"9201331"},{"town":"中戸町","koaza":"ロ","lat":36.506751,"lng":136.692037,"zip":"9201336"},{"town":"田上本町","koaza":"十","lat":36.536671,"lng":136.691688,"zip":"9201155"},{"town":"天池町","koaza":"二","lat":36.508362,"lng":136.692559,"zip":"9201331"},{"town":"中戸町","koaza":"イ","lat":36.507972,"lng":136.691807,"zip":"9201336"},{"town":"末町","koaza":"二十一","lat":36.513552,"lng":136.693469,"zip":"9201302"},{"town":"田上町","koaza":"ニ","lat":36.542746,"lng":136.693468,"zip":"9201151"},{"town":"田上本町","koaza":"テ","lat":36.530876,"lng":136.693834,"zip":"9201155"},{"town":"若松町","koaza":"京中","lat":36.551238,"lng":136.693483,"zip":"9201165"},{"town":"田上町","koaza":"イ","lat":36.541605,"lng":136.694109,"zip":"9201151"},{"town":"天池町","koaza":"三","lat":36.507109,"lng":136.694358,"zip":"9201331"},{"town":"若松町","koaza":"上野","lat":36.550501,"lng":136.694517,"zip":"9201165"},{"town":"舘山町","koaza":"ヘ","lat":36.524777,"lng":136.695023,"zip":"9200956"},{"town":"若松町","koaza":"セ","lat":36.547552,"lng":136.694699,"zip":"9201165"},{"town":"辰巳町","koaza":"ハ","lat":36.511464,"lng":136.69638,"zip":"9201303"},{"town":"田上町","koaza":"ヌ","lat":36.548766,"lng":136.694483,"zip":"9201151"},{"town":"舘山町","koaza":"ヨ","lat":36.523043,"lng":136.69468,"zip":"9200956"},{"town":"田上町","koaza":"ホ","lat":36.543551,"lng":136.694131,"zip":"9201151"},{"town":"田上町","koaza":"西","lat":36.543821,"lng":136.692233,"zip":"9201151"},{"town":"末町","koaza":"十","lat":36.515699,"lng":136.698035,"zip":"9201302"},{"town":"田上町","koaza":"レ","lat":36.54177,"lng":136.695136,"zip":"9201151"},{"town":"辰巳町","koaza":"チ","lat":36.508721,"lng":136.695566,"zip":"9201303"},{"town":"末町","koaza":"三","lat":36.514581,"lng":136.696204,"zip":"9201302"},{"town":"田上町","koaza":"公","lat":36.548343,"lng":136.697567,"zip":"9201151"},{"town":"舘町","koaza":"ホ","lat":36.525313,"lng":136.695698,"zip":"9200957"},{"town":"末町","koaza":"二十二","lat":36.511592,"lng":136.696984,"zip":"9201302"},{"town":"田上町","koaza":"耕","lat":36.544006,"lng":136.695914,"zip":"9201151"},{"town":"末町","koaza":"一","lat":36.512439,"lng":136.698195,"zip":"9201302"},{"town":"田上本町","koaza":"一","lat":36.529764,"lng":136.699345,"zip":"9201155"},{"town":"田上本町","koaza":"ヲ","lat":36.53118,"lng":136.698161,"zip":"9201155"},{"town":"末町","koaza":"二","lat":36.512789,"lng":136.698092,"zip":"9201302"},{"town":"田上本町","koaza":"そ","lat":36.535477,"lng":136.699334,"zip":"9201155"},{"town":"舘町","koaza":"ル","lat":36.528231,"lng":136.697169,"zip":"9200957"},{"town":"辰巳町","koaza":"ト","lat":36.508078,"lng":136.698485,"zip":"9201303"},{"town":"水淵町","koaza":"卯","lat":36.501621,"lng":136.70356,"zip":"9201321"},{"town":"辰巳町","koaza":"ロ","lat":36.510663,"lng":136.700833,"zip":"9201303"},{"town":"舘町","koaza":"ロ","lat":36.527731,"lng":136.698912,"zip":"9200957"},{"town":"田上町","koaza":"ナ","lat":36.540636,"lng":136.697859,"zip":"9201151"},{"town":"田上本町","koaza":"三","lat":36.533242,"lng":136.699055,"zip":"9201155"},{"town":"田上本町","koaza":"八","lat":36.536452,"lng":136.699294,"zip":"9201155"},{"town":"辰巳町","koaza":"七","lat":36.507866,"lng":136.699096,"zip":"9201303"},{"town":"銚子町","koaza":"ト","lat":36.525058,"lng":136.699577,"zip":"9201147"},{"town":"田上本町","koaza":"タ","lat":36.532487,"lng":136.699997,"zip":"9201155"},{"town":"田上町","koaza":"ラ","lat":36.538554,"lng":136.706984,"zip":"9201151"},{"town":"田上本町","koaza":"レ","lat":36.534627,"lng":136.699666,"zip":"9201155"},{"town":"田上本町","koaza":"ヨ","lat":36.530687,"lng":136.700839,"zip":"9201155"},{"town":"辰巳町","koaza":"十六","lat":36.507588,"lng":136.701849,"zip":"9201303"},{"town":"上中町","koaza":"ロ","lat":36.517277,"lng":136.702309,"zip":"9201146"},{"town":"田上本町","koaza":"カ","lat":36.530058,"lng":136.700903,"zip":"9201155"},{"town":"上辰巳町","koaza":"十","lat":36.514361,"lng":136.701799,"zip":"9201304"},{"town":"辰巳町","koaza":"ニ","lat":36.509611,"lng":136.70058,"zip":"9201303"},{"town":"舘町","koaza":"イ","lat":36.524851,"lng":136.702078,"zip":"9200957"},{"town":"銚子町","koaza":"イ","lat":36.522603,"lng":136.702749,"zip":"9201147"},{"town":"田上町","koaza":"ウ","lat":36.536816,"lng":136.702102,"zip":"9201151"},{"town":"辰巳町","koaza":"イ","lat":36.510069,"lng":136.703408,"zip":"9201303"},{"town":"末町","koaza":"イ","lat":36.513094,"lng":136.701936,"zip":"9201302"},{"town":"銚子町","koaza":"リ","lat":36.523978,"lng":136.704049,"zip":"9201147"},{"town":"浅川町","koaza":"ニ","lat":36.516278,"lng":136.703735,"zip":"9201145"},{"town":"上辰巳町","koaza":"一","lat":36.502964,"lng":136.705665,"zip":"9201304"},{"town":"袋板屋町","koaza":"南","lat":36.513465,"lng":136.708031,"zip":"9201144"},{"town":"上辰巳町","koaza":"ロ","lat":36.502844,"lng":136.709356,"zip":"9201304"},{"town":"上中町","koaza":"ニ","lat":36.520612,"lng":136.707223,"zip":"9201146"},{"town":"浅川町","koaza":"南","lat":36.514971,"lng":136.705579,"zip":"9201145"},{"town":"上中町","koaza":"ヘ","lat":36.521362,"lng":136.705468,"zip":"9201146"},{"town":"浅川町","koaza":"西","lat":36.517609,"lng":136.705497,"zip":"9201145"},{"town":"上辰巳町","koaza":"イ","lat":36.506276,"lng":136.708216,"zip":"9201304"},{"town":"袋板屋町","koaza":"西","lat":36.516476,"lng":136.707824,"zip":"9201144"},{"town":"浅川町","koaza":"イ","lat":36.519537,"lng":136.707246,"zip":"9201145"},{"town":"袋板屋町","koaza":"ロ","lat":36.51865,"lng":136.70938,"zip":"9201144"},{"town":"袋板屋町","koaza":"ル","lat":36.516227,"lng":136.709302,"zip":"9201144"},{"town":"上辰巳町","koaza":"四","lat":36.50214,"lng":136.710685,"zip":"9201304"},{"town":"金川町","koaza":"イ","lat":36.524728,"lng":136.710544,"zip":"9201148"},{"town":"袋板屋町","koaza":"ホ","lat":36.514531,"lng":136.709798,"zip":"9201144"},{"town":"上辰巳町","koaza":"六","lat":36.501124,"lng":136.711312,"zip":"9201304"},{"town":"相合谷町","koaza":"ニ","lat":36.498036,"lng":136.710352,"zip":"9201322"},{"town":"袋板屋町","koaza":"ヲ","lat":36.515267,"lng":136.713759,"zip":"9201144"},{"town":"茅原町","koaza":"ロ","lat":36.51067,"lng":136.714291,"zip":"9201138"},{"town":"東荒屋町","koaza":"ヌ","lat":36.511833,"lng":136.712218,"zip":"9201131"},{"town":"茅原町","koaza":"ハ","lat":36.510772,"lng":136.712197,"zip":"9201138"},{"town":"茅原町","koaza":"ニ","lat":36.507632,"lng":136.713425,"zip":"9201138"},{"town":"金川町","koaza":"ハ","lat":36.523025,"lng":136.714323,"zip":"9201148"},{"town":"茅原町","koaza":"イ","lat":36.511534,"lng":136.714673,"zip":"9201138"},{"town":"七曲町","koaza":"チ","lat":36.502726,"lng":136.714889,"zip":"9201137"},{"town":"俵町","koaza":"昭","lat":36.531878,"lng":136.716208,"zip":"9201108"},{"town":"俵町","koaza":"タ","lat":36.528791,"lng":136.71885,"zip":"9201108"},{"town":"俵町","koaza":"フ","lat":36.530782,"lng":136.716977,"zip":"9201108"},{"town":"打尾町","koaza":"ワ","lat":36.523509,"lng":136.716236,"zip":"9201149"},{"town":"中山町","koaza":"カ","lat":36.534637,"lng":136.716455,"zip":"9201109"},{"town":"東荒屋町","koaza":"イ","lat":36.511156,"lng":136.719415,"zip":"9201131"},{"town":"東荒屋町","koaza":"ハ","lat":36.510948,"lng":136.716944,"zip":"9201131"},{"town":"俵町","koaza":"へ","lat":36.534869,"lng":136.723512,"zip":"9201108"},{"town":"朝加屋町","koaza":"ル","lat":36.506512,"lng":136.724207,"zip":"9201132"},{"town":"金川町","koaza":"ニ","lat":36.520854,"lng":136.721758,"zip":"9201148"},{"town":"藤六町","koaza":"ハ","lat":36.50512,"lng":136.724373,"zip":"9201133"},{"town":"湯涌田子島町","koaza":"ホ","lat":36.489261,"lng":136.75238,"zip":"9201124"},{"town":"錦町","koaza":"一","lat":36.541466,"lng":136.688199,"zip":"9200952"},{"town":"別所町","koaza":"ソ","lat":36.517426,"lng":136.672961,"zip":"9201341"},{"town":"野田町","koaza":"ソ","lat":36.534988,"lng":136.671848,"zip":"9218104"},{"town":"大桑町","koaza":"ユ","lat":36.525892,"lng":136.688703,"zip":"9218046"},{"town":"錦町","koaza":"二","lat":36.541068,"lng":136.685648,"zip":"9200952"},{"town":"大桑町","koaza":"メ","lat":36.53741,"lng":136.68725,"zip":"9218046"},{"town":"田上町","koaza":"ヨ","lat":36.541328,"lng":136.701927,"zip":"9201151"},{"town":"錦町","koaza":"六","lat":36.541457,"lng":136.687018,"zip":"9200952"},{"town":"大桑町","koaza":"ハ","lat":36.538295,"lng":136.675104,"zip":"9218046"},{"town":"大桑町","koaza":"中ノ大平","lat":36.524246,"lng":136.677031,"zip":"9218046"},{"town":"大桑町","koaza":"ア","lat":36.526169,"lng":136.680874,"zip":"9218046"},{"town":"大桑町","koaza":"ヤ","lat":36.525233,"lng":136.676871,"zip":"9218046"},{"town":"大桑町","koaza":"上猫下","lat":36.52721,"lng":136.677848,"zip":"9218046"},{"town":"野田町","koaza":"ヨ","lat":36.532479,"lng":136.66915,"zip":"9218104"},{"town":"三小牛町","koaza":"六","lat":36.520362,"lng":136.671548,"zip":"9201346"},{"town":"三小牛町","koaza":"ハ","lat":36.519828,"lng":136.673017,"zip":"9201346"},{"town":"三小牛町","koaza":"十","lat":36.520495,"lng":136.672064,"zip":"9201346"},{"town":"末町","koaza":"ホ","lat":36.522388,"lng":136.689591,"zip":"9201302"},{"town":"別所町","koaza":"二","lat":36.518721,"lng":136.680283,"zip":"9201341"},{"town":"別所町","koaza":"三","lat":36.51761,"lng":136.68016,"zip":"9201341"},{"town":"別所町","koaza":"一","lat":36.521582,"lng":136.677063,"zip":"9201341"},{"town":"辰巳町","koaza":"四","lat":36.508537,"lng":136.700491,"zip":"9201303"},{"town":"袋板屋町","koaza":"イ","lat":36.517738,"lng":136.707948,"zip":"9201144"},{"town":"浅川町","koaza":"ホ","lat":36.519009,"lng":136.704576,"zip":"9201145"},{"town":"田上町","koaza":"タ","lat":36.543788,"lng":136.694853,"zip":"9201151"},{"town":"田上町","koaza":"ア","lat":36.546426,"lng":136.699872,"zip":"9201151"},{"town":"舘町","koaza":"ニ","lat":36.527179,"lng":136.696697,"zip":"9200957"},{"town":"大桑町","koaza":"中尾山ナ","lat":36.529826,"lng":136.67328,"zip":"9218046"},{"town":"上中町","koaza":"ハ","lat":36.519248,"lng":136.703727,"zip":"9201146"},{"town":"上中町","koaza":"巳","lat":36.520404,"lng":136.701858,"zip":"9201146"},{"town":"上中町","koaza":"イ","lat":36.520232,"lng":136.70311,"zip":"9201146"},{"town":"山科町","koaza":"ト","lat":36.527047,"lng":136.653042,"zip":"9218174"},{"town":"山科町","koaza":"ヲ","lat":36.525995,"lng":136.653116,"zip":"9218174"},{"town":"額谷町","koaza":"ヌ","lat":36.509652,"lng":136.629934,"zip":"9218144"},{"town":"額谷町","koaza":"ホ","lat":36.509093,"lng":136.629197,"zip":"9218144"},{"town":"高尾町","koaza":"チ","lat":36.520899,"lng":136.631919,"zip":"9218153"},{"town":"高尾町","koaza":"ハ","lat":36.520965,"lng":136.631286,"zip":"9218153"},{"town":"山科町","koaza":"リ","lat":36.528332,"lng":136.652533,"zip":"9218174"},{"town":"長坂町","koaza":"チ","lat":36.53064,"lng":136.658333,"zip":"9218114"},{"town":"野田町","koaza":"ル","lat":36.53467,"lng":136.666914,"zip":"9218104"},{"town":"野田町","koaza":"チ","lat":36.535751,"lng":136.666996,"zip":"9218104"},{"town":"大桑町","koaza":"大道割庚","lat":36.530777,"lng":136.68791,"zip":"9218046"},{"town":"大桑町","koaza":"ワ","lat":36.525401,"lng":136.688456,"zip":"9218046"},{"town":"別所町","koaza":"子","lat":36.519155,"lng":136.674817,"zip":"9201341"},{"town":"別所町","koaza":"レ","lat":36.514108,"lng":136.67431,"zip":"9201341"},{"town":"蓮花町","koaza":"ホ","lat":36.511958,"lng":136.67909,"zip":"9201342"},{"town":"辰巳町","koaza":"ヘ","lat":36.505285,"lng":136.69995,"zip":"9201303"},{"town":"辰巳町","koaza":"ホ","lat":36.506841,"lng":136.701269,"zip":"9201303"},{"town":"相合谷町","koaza":"イ","lat":36.498796,"lng":136.711451,"zip":"9201322"},{"town":"三小牛町","koaza":"ロ","lat":36.519212,"lng":136.67203,"zip":"9201346"},{"town":"三小牛町","koaza":"ホ","lat":36.519701,"lng":136.670936,"zip":"9201346"},{"town":"長坂町","koaza":"未","lat":36.534989,"lng":136.659141,"zip":"9218114"},{"town":"大桑町","koaza":"ナ","lat":36.542895,"lng":136.674529,"zip":"9218046"},{"town":"舘町","koaza":"ヌ","lat":36.530155,"lng":136.695995,"zip":"9200957"},{"town":"舘町","koaza":"ハ","lat":36.529771,"lng":136.695347,"zip":"9200957"},{"town":"銚子町","koaza":"ヌ","lat":36.526282,"lng":136.702434,"zip":"9201147"},{"town":"上中町","koaza":"ト","lat":36.522823,"lng":136.706598,"zip":"9201146"},{"town":"上中町","koaza":"ホ","lat":36.521981,"lng":136.70706,"zip":"9201146"},{"town":"上中町","koaza":"リ","lat":36.522968,"lng":136.708156,"zip":"9201146"},{"town":"袋板屋町","koaza":"ハ","lat":36.516063,"lng":136.710339,"zip":"9201144"},{"town":"高尾町","koaza":"子","lat":36.516621,"lng":136.64021,"zip":"9218153"},{"town":"大桑新町","koaza":"ラ","lat":36.541407,"lng":136.676991,"zip":"9200945"},{"town":"福久町","koaza":"ル","lat":36.616484,"lng":136.674458,"zip":"9203122"},{"town":"才田町","koaza":"西","lat":36.643331,"lng":136.6815,"zip":"9203101"},{"town":"福久町","koaza":"カ","lat":36.618512,"lng":136.675833,"zip":"9203122"},{"town":"福久町","koaza":"ヌ","lat":36.614032,"lng":136.674793,"zip":"9203122"},{"town":"八田町","koaza":"西","lat":36.632077,"lng":136.677795,"zip":"9203106"},{"town":"福久町","koaza":"チ","lat":36.610486,"lng":136.675508,"zip":"9203122"},{"town":"大場町","koaza":"東","lat":36.625422,"lng":136.68142,"zip":"9203121"},{"town":"千木町","koaza":"ト","lat":36.608611,"lng":136.674094,"zip":"9200001"},{"town":"福久町","koaza":"リ","lat":36.612559,"lng":136.677871,"zip":"9203122"},{"town":"福久町","koaza":"ト","lat":36.610178,"lng":136.677909,"zip":"9203122"},{"town":"福久町","koaza":"ヨ","lat":36.62036,"lng":136.676648,"zip":"9203122"},{"town":"八田町","koaza":"中","lat":36.635269,"lng":136.680968,"zip":"9203106"},{"town":"福久町","koaza":"ヲ","lat":36.615517,"lng":136.677875,"zip":"9203122"},{"town":"横枕町","koaza":"ニ","lat":36.607279,"lng":136.677027,"zip":"9203135"},{"town":"横枕町","koaza":"ハ","lat":36.607467,"lng":136.6781,"zip":"9203135"},{"town":"福久町","koaza":"ヘ","lat":36.612108,"lng":136.679404,"zip":"9203122"},{"town":"福久町","koaza":"ワ","lat":36.617682,"lng":136.678498,"zip":"9203122"},{"town":"福久町","koaza":"イ","lat":36.619885,"lng":136.678443,"zip":"9203122"},{"town":"金市町","koaza":"ロ","lat":36.609827,"lng":136.679224,"zip":"9203134"},{"town":"福久町","koaza":"ホ","lat":36.613962,"lng":136.680543,"zip":"9203122"},{"town":"横枕町","koaza":"ロ","lat":36.60581,"lng":136.680071,"zip":"9203135"},{"town":"金市町","koaza":"イ","lat":36.607957,"lng":136.680992,"zip":"9203134"},{"town":"金市町","koaza":"ニ","lat":36.610867,"lng":136.682123,"zip":"9203134"},{"town":"才田町","koaza":"中","lat":36.64124,"lng":136.684647,"zip":"9203101"},{"town":"金市町","koaza":"ハ","lat":36.612233,"lng":136.6814,"zip":"9203134"},{"town":"百坂町","koaza":"ハ","lat":36.607643,"lng":136.682304,"zip":"9203131"},{"town":"荒屋町","koaza":"ロ","lat":36.613594,"lng":136.682798,"zip":"9203125"},{"town":"横枕町","koaza":"イ","lat":36.60612,"lng":136.682693,"zip":"9203135"},{"town":"福久町","koaza":"ロ","lat":36.620026,"lng":136.683032,"zip":"9203122"},{"town":"金市町","koaza":"ホ","lat":36.610234,"lng":136.683188,"zip":"9203134"},{"town":"八田町","koaza":"東","lat":36.632843,"lng":136.687801,"zip":"9203106"},{"town":"百坂町","koaza":"ロ","lat":36.609355,"lng":136.685099,"zip":"9203131"},{"town":"荒屋町","koaza":"イ","lat":36.613216,"lng":136.684313,"zip":"9203125"},{"town":"百坂町","koaza":"ニ","lat":36.606511,"lng":136.684922,"zip":"9203131"},{"town":"福久町","koaza":"ハ","lat":36.619222,"lng":136.68562,"zip":"9203122"},{"town":"荒屋町","koaza":"ハ","lat":36.615441,"lng":136.684897,"zip":"9203125"},{"town":"百坂町","koaza":"イ","lat":36.610554,"lng":136.68655,"zip":"9203131"},{"town":"荒屋町","koaza":"ニ","lat":36.615336,"lng":136.685557,"zip":"9203125"},{"town":"弥勒町","koaza":"ワ","lat":36.612077,"lng":136.688313,"zip":"9203115"},{"town":"百坂町","koaza":"ト","lat":36.606781,"lng":136.685614,"zip":"9203131"},{"town":"南森本町","koaza":"ニ","lat":36.619113,"lng":136.687945,"zip":"9203116"},{"town":"才田町","koaza":"戊","lat":36.64324,"lng":136.69295,"zip":"9203101"},{"town":"弥勒町","koaza":"カ","lat":36.613543,"lng":136.68878,"zip":"9203115"},{"town":"南森本町","koaza":"ロ","lat":36.624107,"lng":136.690721,"zip":"9203116"},{"town":"才田町","koaza":"乙","lat":36.636757,"lng":136.689299,"zip":"9203101"},{"town":"百坂町","koaza":"リ","lat":36.609836,"lng":136.688766,"zip":"9203131"},{"town":"南森本町","koaza":"ホ","lat":36.618589,"lng":136.689527,"zip":"9203116"},{"town":"吉原町","koaza":"ヘ","lat":36.611134,"lng":136.689828,"zip":"9203114"},{"town":"南森本町","koaza":"ヘ","lat":36.621409,"lng":136.690938,"zip":"9203116"},{"town":"才田町","koaza":"は","lat":36.637123,"lng":136.691613,"zip":"9203101"},{"town":"才田町","koaza":"東","lat":36.639915,"lng":136.693159,"zip":"9203101"},{"town":"吉原町","koaza":"ヨ","lat":36.610374,"lng":136.691778,"zip":"9203114"},{"town":"弥勒町","koaza":"ヨ","lat":36.616007,"lng":136.690669,"zip":"9203115"},{"town":"弥勒町","koaza":"ロ","lat":36.612399,"lng":136.690567,"zip":"9203115"},{"town":"才田町","koaza":"甲","lat":36.634935,"lng":136.692109,"zip":"9203101"},{"town":"荒屋町","koaza":"ホ","lat":36.607801,"lng":136.690508,"zip":"9203125"},{"town":"南森本町","koaza":"イ","lat":36.623423,"lng":136.692822,"zip":"9203116"},{"town":"吉原町","koaza":"ハ","lat":36.612665,"lng":136.692386,"zip":"9203114"},{"town":"吉原町","koaza":"ホ","lat":36.611747,"lng":136.690942,"zip":"9203114"},{"town":"南森本町","koaza":"チ","lat":36.618387,"lng":136.693067,"zip":"9203116"},{"town":"南森本町","koaza":"ト","lat":36.6211,"lng":136.694367,"zip":"9203116"},{"town":"南森本町","koaza":"リ","lat":36.615189,"lng":136.694499,"zip":"9203116"},{"town":"吉原町","koaza":"チ","lat":36.611485,"lng":136.693363,"zip":"9203114"},{"town":"南森本町","koaza":"ヌ","lat":36.618617,"lng":136.695268,"zip":"9203116"},{"town":"吉原町","koaza":"リ","lat":36.610559,"lng":136.693958,"zip":"9203114"},{"town":"才田町","koaza":"丁","lat":36.636675,"lng":136.693979,"zip":"9203101"},{"town":"吉原町","koaza":"ロ","lat":36.612005,"lng":136.69514,"zip":"9203114"},{"town":"北森本町","koaza":"ト","lat":36.62434,"lng":136.695406,"zip":"9203117"},{"town":"北森本町","koaza":"ヘ","lat":36.626217,"lng":136.695128,"zip":"9203117"},{"town":"南森本町","koaza":"ル","lat":36.620771,"lng":136.695956,"zip":"9203116"},{"town":"吉原町","koaza":"イ","lat":36.610813,"lng":136.695039,"zip":"9203114"},{"town":"塚崎町","koaza":"ホ","lat":36.610627,"lng":136.696363,"zip":"9203113"},{"town":"塚崎町","koaza":"ヘ","lat":36.609257,"lng":136.696454,"zip":"9203113"},{"town":"北森本町","koaza":"ル","lat":36.623621,"lng":136.697179,"zip":"9203117"},{"town":"塚崎町","koaza":"ニ","lat":36.612033,"lng":136.696068,"zip":"9203113"},{"town":"塚崎町","koaza":"ハ","lat":36.615028,"lng":136.696267,"zip":"9203113"},{"town":"南森本町","koaza":"カ","lat":36.615895,"lng":136.697557,"zip":"9203116"},{"town":"南森本町","koaza":"ワ","lat":36.617404,"lng":136.698571,"zip":"9203116"},{"town":"南森本町","koaza":"ツ","lat":36.622216,"lng":136.69762,"zip":"9203116"},{"town":"塚崎町","koaza":"ロ","lat":36.611449,"lng":136.697882,"zip":"9203113"},{"town":"南森本町","koaza":"ヲ","lat":36.619864,"lng":136.698954,"zip":"9203116"},{"town":"北森本町","koaza":"ニ","lat":36.628466,"lng":136.697585,"zip":"9203117"},{"town":"堅田町","koaza":"甲","lat":36.609154,"lng":136.699182,"zip":"9200164"},{"town":"北森本町","koaza":"イ","lat":36.622368,"lng":136.698182,"zip":"9203117"},{"town":"塚崎町","koaza":"イ","lat":36.611262,"lng":136.698835,"zip":"9203113"},{"town":"岩出町","koaza":"イ","lat":36.615509,"lng":136.699937,"zip":"9200171"},{"town":"岩出町","koaza":"ハ","lat":36.613063,"lng":136.698503,"zip":"9200171"},{"town":"今町","koaza":"乙","lat":36.633754,"lng":136.701143,"zip":"9200106"},{"town":"月浦町","koaza":"イ","lat":36.607573,"lng":136.698943,"zip":"9200178"},{"town":"北森本町","koaza":"ロ","lat":36.624447,"lng":136.699359,"zip":"9203117"},{"town":"今町","koaza":"ニ","lat":36.62875,"lng":136.700292,"zip":"9200106"},{"town":"月浦町","koaza":"ロ","lat":36.605042,"lng":136.699921,"zip":"9200178"},{"town":"岩出町","koaza":"ロ","lat":36.616058,"lng":136.70095,"zip":"9200171"},{"town":"二日市町","koaza":"い","lat":36.649231,"lng":136.702969,"zip":"9200107"},{"town":"岩出町","koaza":"ニ","lat":36.611331,"lng":136.700782,"zip":"9200171"},{"town":"観法寺町","koaza":"ろ","lat":36.619997,"lng":136.702022,"zip":"9203112"},{"town":"才田町","koaza":"市","lat":36.6411,"lng":136.701679,"zip":"9203101"},{"town":"岩出町","koaza":"ホ","lat":36.612367,"lng":136.701212,"zip":"9200171"},{"town":"月浦町","koaza":"ハ","lat":36.607677,"lng":136.700155,"zip":"9200178"},{"town":"梅田町","koaza":"ハ","lat":36.624958,"lng":136.702489,"zip":"9203111"},{"town":"観法寺町","koaza":"い","lat":36.622618,"lng":136.702413,"zip":"9203112"},{"town":"北森本町","koaza":"ハ","lat":36.626867,"lng":136.701113,"zip":"9203117"},{"town":"今町","koaza":"ホ","lat":36.629166,"lng":136.702084,"zip":"9200106"},{"town":"堅田町","koaza":"丙","lat":36.609625,"lng":136.704034,"zip":"9200164"},{"town":"岩出町","koaza":"ヘ","lat":36.613942,"lng":136.702316,"zip":"9200171"},{"town":"堅田町","koaza":"乙","lat":36.607865,"lng":136.703889,"zip":"9200164"},{"town":"岩出町","koaza":"チ","lat":36.613079,"lng":136.702882,"zip":"9200171"},{"town":"今町","koaza":"甲","lat":36.633327,"lng":136.703948,"zip":"9200106"},{"town":"観法寺町","koaza":"リ","lat":36.616177,"lng":136.702941,"zip":"9203112"},{"town":"才田町","koaza":"利","lat":36.647364,"lng":136.704132,"zip":"9203101"},{"town":"堅田町","koaza":"ヘ","lat":36.61103,"lng":136.704256,"zip":"9200164"},{"town":"梅田町","koaza":"イ","lat":36.624117,"lng":136.702459,"zip":"9203111"},{"town":"岩出町","koaza":"リ","lat":36.615033,"lng":136.703607,"zip":"9200171"},{"town":"利屋町","koaza":"わ","lat":36.650151,"lng":136.704356,"zip":"9200101"},{"town":"今町","koaza":"ヨ","lat":36.628351,"lng":136.703679,"zip":"9200106"},{"town":"梅田町","koaza":"ニ","lat":36.627139,"lng":136.703714,"zip":"9203111"},{"town":"二日市町","koaza":"波","lat":36.640869,"lng":136.70338,"zip":"9200107"},{"town":"観法寺町","koaza":"は","lat":36.617272,"lng":136.703142,"zip":"9203112"},{"town":"今町","koaza":"ヘ","lat":36.631024,"lng":136.703529,"zip":"9200106"},{"town":"今町","koaza":"カ","lat":36.629879,"lng":136.705815,"zip":"9200106"},{"town":"観法寺町","koaza":"ほ","lat":36.619867,"lng":136.704165,"zip":"9203112"},{"town":"今町","koaza":"ト","lat":36.631989,"lng":136.705086,"zip":"9200106"},{"town":"梅田町","koaza":"ロ","lat":36.625888,"lng":136.704796,"zip":"9203111"},{"town":"二日市町","koaza":"ロ","lat":36.646768,"lng":136.70485,"zip":"9200107"},{"town":"梅田町","koaza":"ホ","lat":36.624421,"lng":136.705101,"zip":"9203111"},{"town":"今町","koaza":"ヲ","lat":36.630845,"lng":136.70494,"zip":"9200106"},{"town":"岸川町","koaza":"い","lat":36.643181,"lng":136.706559,"zip":"9200102"},{"town":"今町","koaza":"ル","lat":36.63148,"lng":136.707481,"zip":"9200106"},{"town":"梅田町","koaza":"チ","lat":36.623217,"lng":136.706212,"zip":"9203111"},{"town":"今町","koaza":"タ","lat":36.628461,"lng":136.706992,"zip":"9200106"},{"town":"堅田町","koaza":"ト","lat":36.609668,"lng":136.706066,"zip":"9200164"},{"town":"今町","koaza":"チ","lat":36.633945,"lng":136.707221,"zip":"9200106"},{"town":"梅田町","koaza":"ト","lat":36.623625,"lng":136.706433,"zip":"9203111"},{"town":"不動寺町","koaza":"イ","lat":36.608174,"lng":136.7079,"zip":"9200173"},{"town":"河原市町","koaza":"ニ","lat":36.607883,"lng":136.706753,"zip":"9200172"},{"town":"岸川町","koaza":"ろ","lat":36.640817,"lng":136.709337,"zip":"9200102"},{"town":"梅田町","koaza":"ル","lat":36.623535,"lng":136.707422,"zip":"9203111"},{"town":"堅田町","koaza":"丁","lat":36.610483,"lng":136.708869,"zip":"9200164"},{"town":"河原市町","koaza":"ハ","lat":36.6057,"lng":136.707913,"zip":"9200172"},{"town":"二日市町","koaza":"ホ","lat":36.635412,"lng":136.708455,"zip":"9200107"},{"town":"今町","koaza":"ヌ","lat":36.632904,"lng":136.708797,"zip":"9200106"},{"town":"今町","koaza":"ワ","lat":36.630689,"lng":136.7093,"zip":"9200106"},{"town":"岸川町","koaza":"は","lat":36.642882,"lng":136.709633,"zip":"9200102"},{"town":"二日市町","koaza":"リ","lat":36.63454,"lng":136.709028,"zip":"9200107"},{"town":"梅田町","koaza":"リ","lat":36.621477,"lng":136.711266,"zip":"9203111"},{"town":"二日市町","koaza":"ニ","lat":36.637527,"lng":136.710025,"zip":"9200107"},{"town":"河原市町","koaza":"ロ","lat":36.605605,"lng":136.708993,"zip":"9200172"},{"town":"岸川町","koaza":"に","lat":36.638448,"lng":136.710611,"zip":"9200102"},{"town":"深谷町","koaza":"ロ","lat":36.613006,"lng":136.708436,"zip":"9200165"},{"town":"二日市町","koaza":"チ","lat":36.636135,"lng":136.710429,"zip":"9200107"},{"town":"不動寺町","koaza":"ロ","lat":36.606551,"lng":136.71177,"zip":"9200173"},{"town":"今町","koaza":"リ","lat":36.632463,"lng":136.710992,"zip":"9200106"},{"town":"利屋町","koaza":"ろ","lat":36.64343,"lng":136.712459,"zip":"9200101"},{"town":"二日市町","koaza":"ヌ","lat":36.634948,"lng":136.710415,"zip":"9200107"},{"town":"利屋町","koaza":"は","lat":36.64459,"lng":136.711983,"zip":"9200101"},{"town":"二日市町","koaza":"ヘ","lat":36.634686,"lng":136.712875,"zip":"9200107"},{"town":"利屋町","koaza":"い","lat":36.642323,"lng":136.710909,"zip":"9200101"},{"town":"月影町","koaza":"月","lat":36.629155,"lng":136.711726,"zip":"9200105"},{"town":"岸川町","koaza":"ほ","lat":36.640186,"lng":136.712752,"zip":"9200102"},{"town":"月影町","koaza":"ロ","lat":36.630024,"lng":136.711858,"zip":"9200105"},{"town":"深谷町","koaza":"ホ","lat":36.619502,"lng":136.714093,"zip":"9200165"},{"town":"岸川町","koaza":"へ","lat":36.637697,"lng":136.712362,"zip":"9200102"},{"town":"不動寺町","koaza":"ニ","lat":36.608039,"lng":136.712168,"zip":"9200173"},{"town":"花園八幡町","koaza":"ロ","lat":36.632992,"lng":136.7137,"zip":"9200103"},{"town":"岸川町","koaza":"と","lat":36.639323,"lng":136.713318,"zip":"9200102"},{"town":"不動寺町","koaza":"ハ","lat":36.606759,"lng":136.712796,"zip":"9200173"},{"town":"岸川町","koaza":"チ","lat":36.637046,"lng":136.715,"zip":"9200102"},{"town":"花園八幡町","koaza":"甲","lat":36.632292,"lng":136.717289,"zip":"9200103"},{"town":"利屋町","koaza":"り","lat":36.640562,"lng":136.716208,"zip":"9200101"},{"town":"深谷町","koaza":"ヘ","lat":36.619264,"lng":136.715971,"zip":"9200165"},{"town":"深谷町","koaza":"チ","lat":36.614825,"lng":136.717029,"zip":"9200165"},{"town":"花園八幡町","koaza":"ハ","lat":36.633739,"lng":136.716676,"zip":"9200103"},{"town":"利屋町","koaza":"に","lat":36.646349,"lng":136.715618,"zip":"9200101"},{"town":"利屋町","koaza":"ヲ","lat":36.641081,"lng":136.71543,"zip":"9200101"},{"town":"岸川町","koaza":"り","lat":36.638291,"lng":136.716158,"zip":"9200102"},{"town":"利屋町","koaza":"る","lat":36.643421,"lng":136.719918,"zip":"9200101"},{"town":"二日市町","koaza":"カ","lat":36.634679,"lng":136.721594,"zip":"9200107"},{"town":"利屋町","koaza":"ち","lat":36.642064,"lng":136.718346,"zip":"9200101"},{"town":"利屋町","koaza":"と","lat":36.643873,"lng":136.718396,"zip":"9200101"},{"town":"利屋町","koaza":"へ","lat":36.645751,"lng":136.718965,"zip":"9200101"},{"town":"岸川町","koaza":"ナ","lat":36.638058,"lng":136.719062,"zip":"9200102"},{"town":"利屋町","koaza":"ぬ","lat":36.643566,"lng":136.715651,"zip":"9200101"},{"town":"利屋町","koaza":"カ","lat":36.641297,"lng":136.719585,"zip":"9200101"},{"town":"利屋町","koaza":"ム","lat":36.641344,"lng":136.722158,"zip":"9200101"},{"town":"北森本町","koaza":"ホ","lat":36.625992,"lng":136.697626,"zip":"9203117"},{"town":"才田町","koaza":"マ","lat":36.646733,"lng":136.684144,"zip":"9203101"},{"town":"利屋町","koaza":"ほ","lat":36.648374,"lng":136.713685,"zip":"9200101"},{"town":"南森本町","koaza":"ハ","lat":36.621362,"lng":136.688158,"zip":"9203116"},{"town":"北森本町","koaza":"ヌ","lat":36.625246,"lng":136.691175,"zip":"9203117"},{"town":"弥勒町","koaza":"タ","lat":36.616806,"lng":136.690393,"zip":"9203115"},{"town":"吉原町","koaza":"ニ","lat":36.612669,"lng":136.691321,"zip":"9203114"},{"town":"弥勒町","koaza":"ニ","lat":36.613012,"lng":136.690988,"zip":"9203115"},{"town":"深谷町","koaza":"ニ","lat":36.614393,"lng":136.711108,"zip":"9200165"},{"town":"月影町","koaza":"イ","lat":36.63031,"lng":136.710173,"zip":"9200105"},{"town":"弥勒町","koaza":"イ","lat":36.612086,"lng":136.689546,"zip":"9203115"},{"town":"弥勒町","koaza":"ハ","lat":36.612715,"lng":136.690885,"zip":"9203115"},{"town":"弥勒町","koaza":"ホ","lat":36.613194,"lng":136.691269,"zip":"9203115"},{"town":"吉原町","koaza":"ワ","lat":36.609544,"lng":136.69434,"zip":"9203114"},{"town":"塚崎町","koaza":"ワ","lat":36.608913,"lng":136.697216,"zip":"9203113"},{"town":"北森本町","koaza":"リ","lat":36.625772,"lng":136.692805,"zip":"9203117"},{"town":"観法寺町","koaza":"に","lat":36.618425,"lng":136.704352,"zip":"9203112"},{"town":"観法寺町","koaza":"ヘ","lat":36.621625,"lng":136.703061,"zip":"9203112"},{"town":"観法寺町","koaza":"ト","lat":36.620785,"lng":136.702733,"zip":"9203112"},{"town":"吉原町","koaza":"カ","lat":36.613618,"lng":136.693918,"zip":"9203114"},{"town":"塚崎町","koaza":"チ","lat":36.607005,"lng":136.694327,"zip":"9203113"},{"town":"堅田町","koaza":"チ","lat":36.609952,"lng":136.707307,"zip":"9200164"},{"town":"深谷町","koaza":"イ","lat":36.612436,"lng":136.712968,"zip":"9200165"},{"town":"二日市町","koaza":"ト","lat":36.637034,"lng":136.711154,"zip":"9200107"},{"town":"利屋町","koaza":"ソ","lat":36.644448,"lng":136.714519,"zip":"9200101"},{"town":"岸川町","koaza":"ヲ","lat":36.63768,"lng":136.718465,"zip":"9200102"},{"town":"利屋町","koaza":"乙","lat":36.647258,"lng":136.708374,"zip":"9200101"},{"town":"利屋町","koaza":"お","lat":36.643004,"lng":136.722789,"zip":"9200101"},{"town":"利屋町","koaza":"ヨ","lat":36.643122,"lng":136.720449,"zip":"9200101"},{"town":"利屋町","koaza":"レ","lat":36.642564,"lng":136.722012,"zip":"9200101"},{"town":"南森本町","koaza":"子","lat":36.623132,"lng":136.698351,"zip":"9203116"},{"town":"今町","koaza":"ロ","lat":36.63479,"lng":136.701369,"zip":"9200106"},{"town":"二日市町","koaza":"ワ","lat":36.635011,"lng":136.712806,"zip":"9200107"},{"town":"鳴和町","koaza":"ヌ","lat":36.582414,"lng":136.674482,"zip":"9200814"},{"town":"神谷内町","koaza":"ロ","lat":36.59899,"lng":136.673976,"zip":"9200801"},{"town":"鳴和町","koaza":"イ","lat":36.581236,"lng":136.674439,"zip":"9200814"},{"town":"小坂町","koaza":"北","lat":36.595175,"lng":136.677805,"zip":"9200811"},{"town":"鳴和町","koaza":"ウ","lat":36.582355,"lng":136.675468,"zip":"9200814"},{"town":"疋田町","koaza":"ロ","lat":36.60455,"lng":136.676859,"zip":"9200004"},{"town":"神谷内町","koaza":"ハ","lat":36.598679,"lng":136.677066,"zip":"9200801"},{"town":"疋田町","koaza":"ハ","lat":36.602719,"lng":136.676051,"zip":"9200004"},{"town":"小坂町","koaza":"中","lat":36.590483,"lng":136.677422,"zip":"9200811"},{"town":"鳴和町","koaza":"タ","lat":36.58313,"lng":136.677403,"zip":"9200814"},{"town":"柳橋町","koaza":"甲","lat":36.600676,"lng":136.679253,"zip":"9203133"},{"town":"小坂町","koaza":"南","lat":36.585604,"lng":136.68085,"zip":"9200811"},{"town":"柳橋町","koaza":"乙","lat":36.602278,"lng":136.67759,"zip":"9203133"},{"town":"山の上町","koaza":"ル","lat":36.578957,"lng":136.678049,"zip":"9200816"},{"town":"小坂町","koaza":"東","lat":36.589339,"lng":136.679347,"zip":"9200811"},{"town":"鳴和町","koaza":"ラ","lat":36.572901,"lng":136.681499,"zip":"9200814"},{"town":"神谷内町","koaza":"ニ","lat":36.59825,"lng":136.680595,"zip":"9200801"},{"town":"御所町","koaza":"イ","lat":36.583575,"lng":136.679969,"zip":"9200813"},{"town":"柳橋町","koaza":"丙","lat":36.601625,"lng":136.680037,"zip":"9203133"},{"town":"柳橋町","koaza":"ハ","lat":36.601431,"lng":136.680969,"zip":"9203133"},{"town":"御所町","koaza":"丑","lat":36.583311,"lng":136.682225,"zip":"9200813"},{"town":"御所町","koaza":"ヌ","lat":36.584973,"lng":136.685945,"zip":"9200813"},{"town":"小坂町","koaza":"未","lat":36.596026,"lng":136.682202,"zip":"9200811"},{"town":"小坂町","koaza":"巳","lat":36.591321,"lng":136.682662,"zip":"9200811"},{"town":"神谷内町","koaza":"ヘ","lat":36.598801,"lng":136.68367,"zip":"9200801"},{"town":"神谷内町","koaza":"ホ","lat":36.596785,"lng":136.682903,"zip":"9200801"},{"town":"柳橋町","koaza":"丁","lat":36.600313,"lng":136.682923,"zip":"9203133"},{"town":"御所町","koaza":"寅","lat":36.582135,"lng":136.683064,"zip":"9200813"},{"town":"柳橋町","koaza":"ニ","lat":36.601778,"lng":136.682695,"zip":"9203133"},{"town":"法光寺町","koaza":"ホ","lat":36.602365,"lng":136.684119,"zip":"9203132"},{"town":"柳橋町","koaza":"ア","lat":36.600511,"lng":136.684095,"zip":"9203133"},{"town":"東長江町","koaza":"ろ","lat":36.573133,"lng":136.687092,"zip":"9200822"},{"town":"柳橋町","koaza":"ホ","lat":36.601585,"lng":136.684237,"zip":"9203133"},{"town":"法光寺町","koaza":"ト","lat":36.604107,"lng":136.684673,"zip":"9203132"},{"town":"神谷内町","koaza":"葵","lat":36.598572,"lng":136.68761,"zip":"9200801"},{"town":"柳橋町","koaza":"ヘ","lat":36.600692,"lng":136.684962,"zip":"9203133"},{"town":"柳橋町","koaza":"ル","lat":36.601187,"lng":136.685032,"zip":"9203133"},{"town":"神谷内町","koaza":"ト","lat":36.597546,"lng":136.685595,"zip":"9200801"},{"town":"御所町","koaza":"辰","lat":36.581889,"lng":136.685645,"zip":"9200813"},{"town":"御所町","koaza":"リ","lat":36.582603,"lng":136.686361,"zip":"9200813"},{"town":"御所町","koaza":"オ","lat":36.584059,"lng":136.685658,"zip":"9200813"},{"town":"御所町","koaza":"巳","lat":36.582292,"lng":136.686258,"zip":"9200813"},{"town":"東長江町","koaza":"い","lat":36.578957,"lng":136.688912,"zip":"9200822"},{"town":"東長江町","koaza":"伊","lat":36.577646,"lng":136.68879,"zip":"9200822"},{"town":"東長江町","koaza":"呂","lat":36.576241,"lng":136.68857,"zip":"9200822"},{"town":"御所町","koaza":"未","lat":36.580413,"lng":136.689297,"zip":"9200813"},{"town":"御所町","koaza":"申","lat":36.578771,"lng":136.690541,"zip":"9200813"},{"town":"御所町","koaza":"酉","lat":36.579518,"lng":136.691526,"zip":"9200813"},{"town":"東長江町","koaza":"に","lat":36.577435,"lng":136.692363,"zip":"9200822"},{"town":"東長江町","koaza":"ほ","lat":36.576725,"lng":136.694186,"zip":"9200822"},{"town":"東長江町","koaza":"と","lat":36.573195,"lng":136.694352,"zip":"9200822"},{"town":"東長江町","koaza":"へ","lat":36.575535,"lng":136.694195,"zip":"9200822"},{"town":"東長江町","koaza":"ヌ","lat":36.572936,"lng":136.698606,"zip":"9200822"},{"town":"東長江町","koaza":"井","lat":36.573571,"lng":136.697666,"zip":"9200822"},{"town":"東長江町","koaza":"を","lat":36.572304,"lng":136.701338,"zip":"9200822"},{"town":"東長江町","koaza":"ウ","lat":36.572113,"lng":136.697843,"zip":"9200822"},{"town":"東長江町","koaza":"ね","lat":36.570888,"lng":136.699948,"zip":"9200822"},{"town":"東長江町","koaza":"オ","lat":36.574265,"lng":136.698934,"zip":"9200822"},{"town":"東長江町","koaza":"わ","lat":36.571868,"lng":136.701361,"zip":"9200822"},{"town":"河原市町","koaza":"ホ","lat":36.603414,"lng":136.705107,"zip":"9200172"},{"town":"月浦町","koaza":"レ","lat":36.602285,"lng":136.702362,"zip":"9200178"},{"town":"月浦町","koaza":"ソ","lat":36.600334,"lng":136.702546,"zip":"9200178"},{"town":"下涌波町","koaza":"イ","lat":36.602985,"lng":136.705269,"zip":"9200176"},{"town":"下涌波町","koaza":"ル","lat":36.593345,"lng":136.708812,"zip":"9200176"},{"town":"河原市町","koaza":"ヘ","lat":36.60319,"lng":136.7095,"zip":"9200172"},{"town":"河原市町","koaza":"イ","lat":36.604312,"lng":136.711124,"zip":"9200172"},{"town":"夕日寺町","koaza":"ホ","lat":36.571224,"lng":136.710188,"zip":"9200823"},{"town":"牧町","koaza":"イ","lat":36.568472,"lng":136.710919,"zip":"9200827"},{"town":"夕日寺町","koaza":"ト","lat":36.569571,"lng":136.7102,"zip":"9200823"},{"town":"下涌波町","koaza":"ヘ","lat":36.596921,"lng":136.711853,"zip":"9200176"},{"town":"伝燈寺町","koaza":"ハ","lat":36.567499,"lng":136.714968,"zip":"9200824"},{"town":"薬師町","koaza":"い","lat":36.603242,"lng":136.714042,"zip":"9200174"},{"town":"下涌波町","koaza":"ヌ","lat":36.595634,"lng":136.713692,"zip":"9200176"},{"town":"不動寺町","koaza":"ホ","lat":36.605151,"lng":136.71512,"zip":"9200173"},{"town":"不動寺町","koaza":"ワ","lat":36.604427,"lng":136.714915,"zip":"9200173"},{"town":"薬師町","koaza":"ロ","lat":36.601801,"lng":136.714495,"zip":"9200174"},{"town":"薬師町","koaza":"ハ","lat":36.602296,"lng":136.716236,"zip":"9200174"},{"town":"牧町","koaza":"ニ","lat":36.564681,"lng":136.716722,"zip":"9200827"},{"town":"上涌波町","koaza":"ハ","lat":36.590038,"lng":136.719563,"zip":"9200175"},{"town":"不動寺町","koaza":"ヘ","lat":36.603793,"lng":136.71813,"zip":"9200173"},{"town":"薬師町","koaza":"あ","lat":36.599457,"lng":136.720217,"zip":"9200174"},{"town":"薬師町","koaza":"ニ","lat":36.601931,"lng":136.719173,"zip":"9200174"},{"town":"不動寺町","koaza":"ト","lat":36.604721,"lng":136.718175,"zip":"9200173"},{"town":"薬師町","koaza":"れ","lat":36.602618,"lng":136.721261,"zip":"9200174"},{"town":"薬師町","koaza":"ほ","lat":36.600297,"lng":136.722289,"zip":"9200174"},{"town":"梨木町","koaza":"イ","lat":36.602259,"lng":136.723094,"zip":"9200151"},{"town":"鳴瀬元町","koaza":"イ","lat":36.599919,"lng":136.724578,"zip":"9200152"},{"town":"鳴瀬元町","koaza":"ハ","lat":36.601584,"lng":136.726455,"zip":"9200152"},{"town":"鳴瀬元町","koaza":"ロ","lat":36.600615,"lng":136.726457,"zip":"9200152"},{"town":"鳴瀬元町","koaza":"ヘ","lat":36.601514,"lng":136.728737,"zip":"9200152"},{"town":"宮野町","koaza":"リ","lat":36.598066,"lng":136.730821,"zip":"9200153"},{"town":"鳴瀬元町","koaza":"ニ","lat":36.600777,"lng":136.729019,"zip":"9200152"},{"town":"正部町","koaza":"ト","lat":36.595508,"lng":136.73177,"zip":"9200154"},{"town":"宮野町","koaza":"ル","lat":36.599147,"lng":136.731746,"zip":"9200153"},{"town":"正部町","koaza":"ニ","lat":36.596596,"lng":136.732385,"zip":"9200154"},{"town":"卯辰町","koaza":"ノ","lat":36.571814,"lng":136.675218,"zip":"9200832"},{"town":"鈴見町","koaza":"ニ","lat":36.559888,"lng":136.684869,"zip":"9201162"},{"town":"鈴見町","koaza":"郡家山","lat":36.559853,"lng":136.686236,"zip":"9201162"},{"town":"若松町","koaza":"南","lat":36.554984,"lng":136.690999,"zip":"9201165"},{"town":"若松町","koaza":"ツ","lat":36.556856,"lng":136.693886,"zip":"9201165"},{"town":"若松町","koaza":"茨尾","lat":36.554395,"lng":136.696528,"zip":"9201165"},{"town":"鈴見町","koaza":"ト","lat":36.561566,"lng":136.689437,"zip":"9201162"},{"town":"若松町","koaza":"ヲ","lat":36.561926,"lng":136.694521,"zip":"9201165"},{"town":"東長江町","koaza":"た","lat":36.561546,"lng":136.707735,"zip":"9200822"},{"town":"小坂町","koaza":"卯","lat":36.589272,"lng":136.679972,"zip":"9200811"},{"town":"小坂町","koaza":"寅","lat":36.588039,"lng":136.682529,"zip":"9200811"},{"town":"小坂町","koaza":"丑","lat":36.586973,"lng":136.679952,"zip":"9200811"},{"town":"東長江町","koaza":"利","lat":36.57654,"lng":136.691392,"zip":"9200822"},{"town":"東長江町","koaza":"は","lat":36.576631,"lng":136.691017,"zip":"9200822"},{"town":"東長江町","koaza":"辺","lat":36.567444,"lng":136.689898,"zip":"9200822"},{"town":"東長江町","koaza":"り","lat":36.570075,"lng":136.691193,"zip":"9200822"},{"town":"御所町","koaza":"井","lat":36.580794,"lng":136.68308,"zip":"9200813"},{"town":"小坂町","koaza":"マ","lat":36.594411,"lng":136.680269,"zip":"9200811"},{"town":"法光寺町","koaza":"ニ","lat":36.603207,"lng":136.684502,"zip":"9203132"},{"town":"下涌波町","koaza":"新屋鋪","lat":36.596981,"lng":136.710974,"zip":"9200176"},{"town":"東長江町","koaza":"コ","lat":36.575065,"lng":136.703378,"zip":"9200822"},{"town":"夕日寺町","koaza":"子","lat":36.57139,"lng":136.711245,"zip":"9200823"},{"town":"鳴和町","koaza":"ク","lat":36.58074,"lng":136.675629,"zip":"9200814"},{"town":"鳴和町","koaza":"ナ","lat":36.58352,"lng":136.675366,"zip":"9200814"},{"town":"鳴和町","koaza":"ヤ","lat":36.581183,"lng":136.67819,"zip":"9200814"},{"town":"御所町","koaza":"ロ","lat":36.581045,"lng":136.683533,"zip":"9200813"},{"town":"梨木町","koaza":"ロ","lat":36.601655,"lng":136.724178,"zip":"9200151"},{"town":"不動寺町","koaza":"ル","lat":36.603948,"lng":136.721355,"zip":"9200173"},{"town":"下涌波町","koaza":"丑","lat":36.598052,"lng":136.712977,"zip":"9200176"},{"town":"下涌波町","koaza":"ホ","lat":36.597795,"lng":136.712588,"zip":"9200176"},{"town":"牧町","koaza":"ロ","lat":36.566293,"lng":136.714981,"zip":"9200827"},{"town":"御所町","koaza":"午","lat":36.582602,"lng":136.687762,"zip":"9200813"},{"town":"柳橋町","koaza":"チ","lat":36.600227,"lng":136.681799,"zip":"9203133"},{"town":"柳橋町","koaza":"イ","lat":36.599954,"lng":136.68139,"zip":"9203133"},{"town":"神谷内町","koaza":"チ","lat":36.598327,"lng":136.685687,"zip":"9200801"},{"town":"神谷内町","koaza":"リ","lat":36.597551,"lng":136.68678,"zip":"9200801"},{"town":"小坂町","koaza":"辰","lat":36.590592,"lng":136.682807,"zip":"9200811"},{"town":"小坂町","koaza":"午","lat":36.588822,"lng":136.684656,"zip":"9200811"},{"town":"東長江町","koaza":"ル","lat":36.574362,"lng":136.694152,"zip":"9200822"},{"town":"東長江町","koaza":"ち","lat":36.56827,"lng":136.693133,"zip":"9200822"},{"town":"若松町","koaza":"ム","lat":36.554873,"lng":136.69794,"zip":"9201165"},{"town":"東長江町","koaza":"ヤ","lat":36.573721,"lng":136.700525,"zip":"9200822"},{"town":"東長江町","koaza":"ケ","lat":36.572771,"lng":136.703611,"zip":"9200822"},{"town":"夕日寺町","koaza":"イ","lat":36.572685,"lng":136.704173,"zip":"9200823"},{"town":"夕日寺町","koaza":"ニ","lat":36.571196,"lng":136.708115,"zip":"9200823"},{"town":"若松町","koaza":"ア","lat":36.559612,"lng":136.694667,"zip":"9201165"},{"town":"夕日寺町","koaza":"ヘ","lat":36.573053,"lng":136.715187,"zip":"9200823"},{"town":"東長江町","koaza":"か","lat":36.571613,"lng":136.698322,"zip":"9200822"},{"town":"東長江町","koaza":"よ","lat":36.568298,"lng":136.7027,"zip":"9200822"},{"town":"東長江町","koaza":"な","lat":36.569196,"lng":136.697441,"zip":"9200822"},{"town":"東長江町","koaza":"そ","lat":36.562192,"lng":136.705695,"zip":"9200822"},{"town":"東長江町","koaza":"つ","lat":36.563101,"lng":136.703698,"zip":"9200822"},{"town":"百坂町","koaza":"ホ","lat":36.607097,"lng":136.687197,"zip":"9203131"},{"town":"鳴和町","koaza":"リ","lat":36.580755,"lng":136.673108,"zip":"9200814"},{"town":"鳴和町","koaza":"ツ","lat":36.581421,"lng":136.673682,"zip":"9200814"},{"town":"無量寺町","koaza":"ラ","lat":36.610386,"lng":136.606712,"zip":"9200332"},{"town":"利屋町","koaza":"タ","lat":36.640405,"lng":136.730605,"zip":"9200101"},{"town":"錦町","koaza":"八","lat":36.533685,"lng":136.691328,"zip":"9200952"},{"town":"大桑町","koaza":"ツ甲","lat":36.536409,"lng":136.680339,"zip":"9218046"},{"town":"野田町","koaza":"ム","lat":36.534894,"lng":136.661576,"zip":"9218104"},{"town":"野田町","koaza":"レ","lat":36.534712,"lng":136.666652,"zip":"9218104"},{"town":"野田町","koaza":"タ","lat":36.534455,"lng":136.668555,"zip":"9218104"},{"town":"野田町","koaza":"ワ","lat":36.535886,"lng":136.66888,"zip":"9218104"},{"town":"野田町","koaza":"ネ","lat":36.53099,"lng":136.674596,"zip":"9218104"},{"town":"野田町","koaza":"野田山","lat":36.533434,"lng":136.663769,"zip":"9218104"},{"town":"長坂町","koaza":"丑","lat":36.537931,"lng":136.671298,"zip":"9218114"},{"town":"大桑町","koaza":"西ノ山","lat":36.533355,"lng":136.67284,"zip":"9218046"},{"town":"直江町","koaza":"ヲ","lat":36.617624,"lng":136.636053,"zip":"9208216"},{"town":"直江町","koaza":"ト","lat":36.607868,"lng":136.634733,"zip":"9208216"},{"town":"いなほ三丁目","koaza":"","lat":null,"lng":null,"zip":null},{"town":"金石上越前町","koaza":"","lat":null,"lng":null,"zip":null}]