[{"town":"字旭ケ丘","koaza":"","lat":37.220726,"lng":136.982184,"zip":"9270000"},{"town":"字伊久留","koaza":"","lat":37.27593,"lng":136.983813,"zip":"9270000"},{"town":"字岩車","koaza":"","lat":37.215535,"lng":136.965621,"zip":"9270000"},{"town":"字宇加川","koaza":"","lat":37.226229,"lng":137.065601,"zip":"9270000"},{"town":"字鵜島","koaza":"","lat":37.21777,"lng":136.893583,"zip":"9270000"},{"town":"字内浦","koaza":"","lat":37.224772,"lng":136.927252,"zip":"9270000"},{"town":"字宇留地","koaza":"","lat":37.22234,"lng":136.880674,"zip":"9270000"},{"town":"字上野","koaza":"","lat":37.239864,"lng":136.895386,"zip":"9270000"},{"town":"字大角間","koaza":"","lat":37.257378,"lng":136.818508,"zip":"9270000"},{"town":"字大町","koaza":"","lat":37.229926,"lng":136.899882,"zip":"9270000"},{"town":"字沖波","koaza":"","lat":37.217859,"lng":137.044233,"zip":"9270000"},{"town":"字乙ケ崎","koaza":"","lat":37.213664,"lng":136.900851,"zip":"9270000"},{"town":"字小又","koaza":"","lat":37.267068,"lng":136.877412,"zip":"9270000"},{"town":"字梶","koaza":"","lat":37.24923,"lng":136.945016,"zip":"9270000"},{"town":"字鹿島","koaza":"","lat":37.188046,"lng":136.885576,"zip":"9270000"},{"town":"字桂谷","koaza":"","lat":37.237478,"lng":136.824968,"zip":"9270000"},{"town":"字鹿波","koaza":"","lat":37.207977,"lng":136.99483,"zip":"9270000"},{"town":"字甲","koaza":"","lat":37.212919,"lng":137.018382,"zip":"9270000"},{"town":"字上唐川","koaza":"","lat":37.239245,"lng":136.862532,"zip":"9270000"},{"town":"字上中","koaza":"","lat":37.243234,"lng":136.813211,"zip":"9270000"},{"town":"字川島","koaza":"","lat":37.233284,"lng":136.909115,"zip":"9270000"},{"town":"字川尻","koaza":"","lat":37.233359,"lng":136.976288,"zip":"9270000"},{"town":"字河内","koaza":"","lat":37.21485,"lng":136.84919,"zip":"9270000"},{"town":"字北七海","koaza":"","lat":37.257836,"lng":136.902085,"zip":"9270000"},{"town":"字木原","koaza":"","lat":37.283615,"lng":136.962501,"zip":"9270000"},{"town":"字此木","koaza":"","lat":37.248716,"lng":136.901166,"zip":"9270000"},{"town":"字樟谷","koaza":"","lat":37.299577,"lng":136.986637,"zip":"9270000"},{"town":"字越渡","koaza":"","lat":37.232328,"lng":136.807727,"zip":"9270000"},{"town":"字越の原","koaza":"","lat":37.209301,"lng":136.875524,"zip":"9270000"},{"town":"字志ケ浦","koaza":"","lat":37.204355,"lng":136.898406,"zip":"9270000"},{"town":"字地蔵坊","koaza":"","lat":37.249462,"lng":136.884352,"zip":"9270000"},{"town":"字七海","koaza":"","lat":37.255672,"lng":136.913649,"zip":"9270000"},{"town":"字下唐川","koaza":"","lat":37.240664,"lng":136.843317,"zip":"9270000"},{"town":"字汁谷","koaza":"","lat":37.221575,"lng":136.828525,"zip":"9270000"},{"town":"字瑞鳳","koaza":"","lat":37.244606,"lng":136.953813,"zip":"9270000"},{"town":"字菅谷","koaza":"","lat":37.290851,"lng":136.98695,"zip":"9270000"},{"town":"字曽福","koaza":"","lat":37.178534,"lng":136.885029,"zip":"9270000"},{"town":"字曽山","koaza":"","lat":37.25787,"lng":136.99749,"zip":"9270000"},{"town":"字曽良","koaza":"","lat":37.193062,"lng":137.020133,"zip":"9270000"},{"town":"字大郷","koaza":"","lat":37.199602,"lng":137.005088,"zip":"9270000"},{"town":"字竹太","koaza":"","lat":37.249386,"lng":137.068143,"zip":"9270000"},{"town":"字天神谷","koaza":"","lat":37.239673,"lng":136.882418,"zip":"9270000"},{"town":"字中居","koaza":"","lat":37.257354,"lng":136.959352,"zip":"9270000"},{"town":"字中居南","koaza":"","lat":37.232006,"lng":136.937222,"zip":"9270000"},{"town":"字新崎","koaza":"","lat":37.204078,"lng":136.926732,"zip":"9270000"},{"town":"字根木","koaza":"","lat":37.200169,"lng":136.879585,"zip":"9270000"},{"town":"字挾石","koaza":"","lat":37.256543,"lng":136.871972,"zip":"9270000"},{"town":"字波志借","koaza":"","lat":37.265345,"lng":136.937158,"zip":"9270000"},{"town":"字花園","koaza":"","lat":37.236709,"lng":137.062396,"zip":"9270000"},{"town":"字東中谷","koaza":"","lat":37.245777,"lng":136.998748,"zip":"9270000"},{"town":"字比良","koaza":"","lat":37.248496,"lng":136.976106,"zip":"9270000"},{"town":"字平野","koaza":"","lat":37.256877,"lng":136.891376,"zip":"9270000"},{"town":"字藤巻","koaza":"","lat":37.270166,"lng":136.9542,"zip":"9270000"},{"town":"字古君","koaza":"","lat":37.241624,"lng":137.068908,"zip":"9270000"},{"town":"字前波","koaza":"","lat":37.225966,"lng":137.046916,"zip":"9270000"},{"town":"字緑ケ丘","koaza":"","lat":37.208985,"lng":136.916987,"zip":"9270000"},{"town":"字明千寺","koaza":"","lat":37.23744,"lng":137.041551,"zip":"9270000"},{"town":"字麦ケ浦","koaza":"","lat":37.256488,"lng":136.926998,"zip":"9270000"},{"town":"字山中","koaza":"","lat":37.238394,"lng":137.013965,"zip":"9270000"},{"town":"字由比ケ丘","koaza":"","lat":37.229207,"lng":136.921131,"zip":"9270000"},{"town":"字鹿路","koaza":"","lat":37.212078,"lng":136.870569,"zip":"9270000"},{"town":"字宇留地","koaza":"ミ","lat":37.229689,"lng":136.889865,"zip":"9270000"},{"town":"字宇留地","koaza":"ニ","lat":37.22519,"lng":136.890488,"zip":"9270000"},{"town":"字宇留地","koaza":"シ","lat":37.226701,"lng":136.890232,"zip":"9270000"},{"town":"字天神谷","koaza":"ハ","lat":37.235657,"lng":136.891426,"zip":"9270000"},{"town":"字平野","koaza":"ヨ","lat":37.250847,"lng":136.893228,"zip":"9270000"},{"town":"字天神谷","koaza":"ニ","lat":37.237673,"lng":136.891156,"zip":"9270000"},{"town":"字平野","koaza":"い","lat":37.248368,"lng":136.891642,"zip":"9270000"},{"town":"字上野","koaza":"い","lat":37.242418,"lng":136.89543,"zip":"9270000"},{"town":"字大町","koaza":"ヨ","lat":37.227536,"lng":136.894633,"zip":"9270000"},{"town":"字地蔵坊","koaza":"イ","lat":37.246856,"lng":136.895456,"zip":"9270000"},{"town":"字平野","koaza":"イ","lat":37.251332,"lng":136.897805,"zip":"9270000"},{"town":"字大町","koaza":"ヲ","lat":37.236106,"lng":136.898638,"zip":"9270000"},{"town":"字大町","koaza":"チ","lat":37.228528,"lng":136.901148,"zip":"9270000"},{"town":"字川島","koaza":"へ","lat":37.23998,"lng":136.899978,"zip":"9270000"},{"town":"字大町","koaza":"ヌ","lat":37.231012,"lng":136.900589,"zip":"9270000"},{"town":"字川島","koaza":"ろ","lat":37.233182,"lng":136.901206,"zip":"9270000"},{"town":"字大町","koaza":"リ","lat":37.229809,"lng":136.899656,"zip":"9270000"},{"town":"字大町","koaza":"ほ","lat":37.230579,"lng":136.903183,"zip":"9270000"},{"town":"字乙ケ崎","koaza":"リ","lat":37.217049,"lng":136.90664,"zip":"9270000"},{"town":"字川島","koaza":"い","lat":37.233727,"lng":136.904266,"zip":"9270000"},{"town":"字川島","koaza":"ホ","lat":37.236483,"lng":136.903296,"zip":"9270000"},{"town":"字大町","koaza":"ト","lat":37.228054,"lng":136.904765,"zip":"9270000"},{"town":"字大町","koaza":"に","lat":37.229525,"lng":136.904328,"zip":"9270000"},{"town":"字川島","koaza":"イ","lat":37.230235,"lng":136.907296,"zip":"9270000"},{"town":"字川島","koaza":"ハ","lat":37.234211,"lng":136.904259,"zip":"9270000"},{"town":"字川島","koaza":"カ","lat":37.233627,"lng":136.905347,"zip":"9270000"},{"town":"字川島","koaza":"ヨ","lat":37.233561,"lng":136.906766,"zip":"9270000"},{"town":"字大町","koaza":"ニ","lat":37.229034,"lng":136.905664,"zip":"9270000"},{"town":"字乙ケ崎","koaza":"ホ","lat":37.219916,"lng":136.906589,"zip":"9270000"},{"town":"字大町","koaza":"ホ","lat":37.226797,"lng":136.906405,"zip":"9270000"},{"town":"字鵜島","koaza":"ホ","lat":37.222763,"lng":136.910948,"zip":"9270000"},{"town":"字川島","koaza":"ア","lat":37.231804,"lng":136.908611,"zip":"9270000"},{"town":"字大町","koaza":"ロ","lat":37.226527,"lng":136.906979,"zip":"9270000"},{"town":"字乙ケ崎","koaza":"申","lat":37.212082,"lng":136.909375,"zip":"9270000"},{"town":"字川島","koaza":"レ","lat":37.23305,"lng":136.907741,"zip":"9270000"},{"town":"字大町","koaza":"ろ","lat":37.226245,"lng":136.908982,"zip":"9270000"},{"town":"字緑ケ丘","koaza":"ロ","lat":37.211613,"lng":136.908597,"zip":"9270000"},{"town":"字大町","koaza":"い","lat":37.225202,"lng":136.910155,"zip":"9270000"},{"town":"字川島","koaza":"サ","lat":37.230138,"lng":136.910577,"zip":"9270000"},{"town":"字乙ケ崎","koaza":"イ","lat":37.221594,"lng":136.909796,"zip":"9270000"},{"town":"字大町","koaza":"ハ","lat":37.228475,"lng":136.907469,"zip":"9270000"},{"town":"字川島","koaza":"キ","lat":37.228414,"lng":136.911084,"zip":"9270000"},{"town":"字川島","koaza":"ツ","lat":37.228119,"lng":136.911929,"zip":"9270000"},{"town":"字川島","koaza":"ヤ","lat":37.236566,"lng":136.913762,"zip":"9270000"},{"town":"字北七海","koaza":"ニ","lat":37.235925,"lng":136.917288,"zip":"9270000"},{"town":"字川島","koaza":"井","lat":37.225674,"lng":136.91785,"zip":"9270000"},{"town":"字七海","koaza":"ヘ","lat":37.236776,"lng":136.919567,"zip":"9270000"},{"town":"字由比ケ丘","koaza":"ラ","lat":37.229824,"lng":136.919552,"zip":"9270000"},{"town":"字由比ケ丘","koaza":"は","lat":37.231941,"lng":136.919876,"zip":"9270000"},{"town":"字由比ケ丘","koaza":"ろ","lat":37.232226,"lng":136.9207,"zip":"9270000"},{"town":"字由比ケ丘","koaza":"イ","lat":37.226617,"lng":136.921509,"zip":"9270000"},{"town":"字内浦","koaza":"ヘ","lat":37.223317,"lng":136.924299,"zip":"9270000"},{"town":"字川島","koaza":"ウ","lat":37.228306,"lng":136.914921,"zip":"9270000"},{"town":"字川島","koaza":"チ","lat":37.24012,"lng":136.903055,"zip":"9270000"},{"town":"字川島","koaza":"ヘ","lat":37.238482,"lng":136.900363,"zip":"9270000"},{"town":"字地蔵坊","koaza":"い","lat":37.245134,"lng":136.89571,"zip":"9270000"},{"town":"字川島","koaza":"は","lat":37.22994,"lng":136.905492,"zip":"9270000"},{"town":"字川島","koaza":"ロ","lat":37.232288,"lng":136.904196,"zip":"9270000"},{"town":"字由比ケ丘","koaza":"い","lat":37.227908,"lng":136.92014,"zip":"9270000"},{"town":"字川島","koaza":"ソ","lat":37.230084,"lng":136.908982,"zip":"9270000"},{"town":"字大町","koaza":"イ","lat":37.224787,"lng":136.907689,"zip":"9270000"},{"town":"字北七海","koaza":"ロ","lat":37.234971,"lng":136.916668,"zip":"9270000"},{"town":"字七海","koaza":"ロ","lat":37.236574,"lng":136.917908,"zip":"9270000"},{"town":"字麦ケ浦","koaza":"ハ","lat":37.234569,"lng":136.923688,"zip":"9270000"},{"town":"字川島","koaza":"ヲ","lat":37.23588,"lng":136.906307,"zip":"9270000"},{"town":"字川島","koaza":"ニ","lat":37.236284,"lng":136.901503,"zip":"9270000"},{"town":"字緑ケ丘","koaza":"ハ","lat":37.211332,"lng":136.915776,"zip":"9270000"},{"town":"字乙ケ崎","koaza":"ア","lat":37.215658,"lng":136.90633,"zip":"9270000"},{"town":"字鵜島","koaza":"ロ","lat":37.223606,"lng":136.909761,"zip":"9270000"},{"town":"字鵜島","koaza":"イ","lat":37.223012,"lng":136.910654,"zip":"9270000"},{"town":"字鵜島","koaza":"ハ","lat":37.22385,"lng":136.907812,"zip":"9270000"},{"town":"字鵜島","koaza":"ニ","lat":37.223765,"lng":136.907267,"zip":"9270000"},{"town":"字大町","koaza":"ヘ","lat":37.226529,"lng":136.905463,"zip":"9270000"},{"town":"字宇留地","koaza":"ロ","lat":37.22503,"lng":136.892472,"zip":"9270000"},{"town":"字大町","koaza":"ル","lat":37.234349,"lng":136.89735,"zip":"9270000"},{"town":"字川島","koaza":"コ","lat":37.235381,"lng":136.904675,"zip":"9270000"},{"town":"字川島","koaza":"ル","lat":37.235879,"lng":136.905546,"zip":"9270000"},{"town":"字川島","koaza":"ワ","lat":37.234964,"lng":136.906482,"zip":"9270000"},{"town":"字川島","koaza":"ク","lat":37.235671,"lng":136.906725,"zip":"9270000"},{"town":"字川島","koaza":"タ","lat":37.233371,"lng":136.909309,"zip":"9270000"},{"town":"字川島","koaza":"ラ","lat":37.230766,"lng":136.912422,"zip":"9270000"},{"town":"字乙ケ崎","koaza":"ヌ","lat":37.215764,"lng":136.905715,"zip":"9270000"},{"town":"字乙ケ崎","koaza":"ヲ","lat":37.215368,"lng":136.906857,"zip":"9270000"},{"town":"字乙ケ崎","koaza":"ウ","lat":37.213772,"lng":136.921247,"zip":"9270000"},{"town":"字内浦","koaza":"ホ","lat":37.220644,"lng":136.925685,"zip":"9270000"}]