[{"town":"浅井","koaza":"","lat":36.974945,"lng":136.906528,"zip":"9291816"},{"town":"蟻ケ原","koaza":"","lat":36.960961,"lng":136.94584,"zip":"9291813"},{"town":"在江","koaza":"","lat":37.004219,"lng":136.922542,"zip":"9291804"},{"town":"今羽坂","koaza":"","lat":36.997372,"lng":136.91135,"zip":"9291713"},{"town":"大槻","koaza":"","lat":37.008356,"lng":136.894925,"zip":"9291702"},{"town":"小竹","koaza":"","lat":36.947452,"lng":136.911535,"zip":"9291722"},{"town":"金丸","koaza":"","lat":36.947947,"lng":136.840272,"zip":"9291621"},{"town":"上後山","koaza":"","lat":36.983119,"lng":136.855023,"zip":"9291606"},{"town":"川田","koaza":"","lat":37.012821,"lng":136.913988,"zip":"9291701"},{"town":"久江","koaza":"","lat":36.951166,"lng":136.882907,"zip":"9291631"},{"town":"久江原山分","koaza":"","lat":36.938542,"lng":136.903142,"zip":"9291700"},{"town":"久乃木","koaza":"","lat":36.990051,"lng":136.943475,"zip":"9291801"},{"town":"黒氏","koaza":"","lat":36.981123,"lng":136.908578,"zip":"9291716"},{"town":"小金森","koaza":"","lat":36.936397,"lng":136.868708,"zip":"9291636"},{"town":"小田中","koaza":"","lat":36.937734,"lng":136.885422,"zip":"9291632"},{"town":"下後山","koaza":"","lat":36.972584,"lng":136.85275,"zip":"9291605"},{"town":"新庄","koaza":"","lat":37.00429,"lng":136.912222,"zip":"9291712"},{"town":"末坂","koaza":"","lat":36.996094,"lng":136.892502,"zip":"9291704"},{"town":"石動山","koaza":"","lat":36.960616,"lng":136.967813,"zip":"9291812"},{"town":"瀬戸","koaza":"","lat":37.013616,"lng":136.867719,"zip":"9291706"},{"town":"芹川","koaza":"","lat":36.96131,"lng":136.930749,"zip":"9291815"},{"town":"曽祢","koaza":"","lat":36.941749,"lng":136.857851,"zip":"9291637"},{"town":"高畠","koaza":"","lat":36.932325,"lng":136.87485,"zip":"9291635"},{"town":"武部","koaza":"","lat":36.983884,"lng":136.93096,"zip":"9291802"},{"town":"坪川","koaza":"","lat":36.99634,"lng":136.921755,"zip":"9291805"},{"town":"徳前","koaza":"","lat":36.974375,"lng":136.916017,"zip":"9291817"},{"town":"徳丸","koaza":"","lat":36.968168,"lng":136.86552,"zip":"9291603"},{"town":"西","koaza":"","lat":36.992483,"lng":136.919589,"zip":"9291803"},{"town":"二宮","koaza":"","lat":36.972114,"lng":136.939805,"zip":"9291811"},{"town":"二宮あおば台","koaza":"","lat":36.983126,"lng":136.919219,"zip":"9291818"},{"town":"能登部下","koaza":"","lat":36.959998,"lng":136.86015,"zip":"9291604"},{"town":"羽坂","koaza":"","lat":36.994608,"lng":136.908921,"zip":"9291714"},{"town":"花見月","koaza":"","lat":36.994916,"lng":136.864213,"zip":"9291705"},{"town":"原山","koaza":"","lat":36.955254,"lng":136.933847,"zip":"9291814"},{"town":"春木","koaza":"","lat":37.001011,"lng":136.898323,"zip":"9291703"},{"town":"廿九日","koaza":"","lat":37.008305,"lng":136.920541,"zip":"9291711"},{"town":"一青","koaza":"","lat":36.986632,"lng":136.904198,"zip":"9291715"},{"town":"福田","koaza":"","lat":36.945063,"lng":136.869187,"zip":"9291634"},{"town":"藤井","koaza":"","lat":36.936616,"lng":136.878325,"zip":"9291633"},{"town":"水白","koaza":"","lat":36.955376,"lng":136.891583,"zip":"9291723"},{"town":"尾崎","koaza":"","lat":36.961491,"lng":136.888734,"zip":"9291724"},{"town":"井田","koaza":"","lat":36.957987,"lng":136.915117,"zip":"9291721"},{"town":"最勝講","koaza":"","lat":36.970677,"lng":136.900498,"zip":"9291726"},{"town":"能登部上","koaza":"","lat":36.965945,"lng":136.874039,"zip":"9291602"},{"town":"東馬場","koaza":"","lat":36.966353,"lng":136.892774,"zip":"9291725"},{"town":"良川","koaza":"","lat":36.980078,"lng":136.891151,"zip":"9291717"},{"town":"西馬場","koaza":"","lat":36.973323,"lng":136.87836,"zip":"9291601"}]