[{"town":"大矢野町維和","koaza":"","lat":32.563691,"lng":130.472053,"zip":"8693604"},{"town":"大矢野町上","koaza":"","lat":32.598035,"lng":130.415843,"zip":"8693602"},{"town":"大矢野町中","koaza":"","lat":32.566201,"lng":130.429133,"zip":"8693603"},{"town":"大矢野町登立","koaza":"","lat":32.59903,"lng":130.434999,"zip":"8693601"},{"town":"大矢野町湯島","koaza":"","lat":32.602687,"lng":130.337761,"zip":"8693711"},{"town":"姫戸町姫浦","koaza":"","lat":32.460432,"lng":130.422909,"zip":"8660101"},{"town":"姫戸町二間戸","koaza":"","lat":32.431999,"lng":130.391982,"zip":"8660102"},{"town":"松島町合津","koaza":"","lat":32.508296,"lng":130.422479,"zip":"8616102"},{"town":"松島町阿村","koaza":"","lat":32.534997,"lng":130.43837,"zip":"8616101"},{"town":"松島町今泉","koaza":"","lat":32.490867,"lng":130.413567,"zip":"8616103"},{"town":"松島町内野河内","koaza":"","lat":32.471739,"lng":130.401344,"zip":"8616104"},{"town":"松島町教良木","koaza":"","lat":32.468137,"lng":130.365921,"zip":"8616105"},{"town":"龍ヶ岳町大道","koaza":"","lat":32.397169,"lng":130.364025,"zip":"8693600"},{"town":"龍ヶ岳町高戸","koaza":"","lat":32.399137,"lng":130.389384,"zip":"8693600"},{"town":"龍ヶ岳町樋島","koaza":"","lat":32.383353,"lng":130.416962,"zip":"8693600"}]