[{"town":"大字麻生原","koaza":"","lat":32.675168,"lng":130.796953,"zip":"8614600"},{"town":"大字有安","koaza":"","lat":32.667136,"lng":130.808171,"zip":"8614600"},{"town":"大字糸田","koaza":"","lat":32.686552,"lng":130.799251,"zip":"8614600"},{"town":"大字岩下","koaza":"","lat":32.651824,"lng":130.809261,"zip":"8614600"},{"town":"大字大町","koaza":"","lat":32.659711,"lng":130.807501,"zip":"8614600"},{"town":"大字小鹿","koaza":"","lat":32.658803,"lng":130.846119,"zip":"8614600"},{"town":"大字上揚","koaza":"","lat":32.649519,"lng":130.831009,"zip":"8614600"},{"town":"大字上早川","koaza":"","lat":32.68434,"lng":130.837597,"zip":"8614600"},{"town":"大字坂谷","koaza":"","lat":32.663833,"lng":130.860429,"zip":"8614600"},{"town":"大字芝原","koaza":"","lat":32.713181,"lng":130.774675,"zip":"8614600"},{"town":"大字下横田","koaza":"","lat":32.672185,"lng":130.812969,"zip":"8614600"},{"town":"大字白旗","koaza":"","lat":32.704779,"lng":130.7805,"zip":"8614600"},{"town":"大字早川","koaza":"","lat":32.689346,"lng":130.808689,"zip":"8614600"},{"town":"大字田口","koaza":"","lat":32.697774,"lng":130.770207,"zip":"8614600"},{"town":"大字津志田","koaza":"","lat":32.68719,"lng":130.786461,"zip":"8614600"},{"town":"大字豊内","koaza":"","lat":32.649599,"lng":130.819795,"zip":"8614600"},{"town":"大字中山","koaza":"","lat":32.686901,"lng":130.769222,"zip":"8614600"},{"town":"大字中横田","koaza":"","lat":32.668663,"lng":130.827695,"zip":"8614600"},{"town":"大字西寒野","koaza":"","lat":32.634442,"lng":130.817871,"zip":"8614600"},{"town":"大字西原","koaza":"","lat":32.648478,"lng":130.857507,"zip":"8614600"},{"town":"大字仁田子","koaza":"","lat":32.651512,"lng":130.80467,"zip":"8614600"},{"town":"大字東寒野","koaza":"","lat":32.635085,"lng":130.832495,"zip":"8614600"},{"town":"大字船津","koaza":"","lat":32.667326,"lng":130.791623,"zip":"8614600"},{"town":"大字府領","koaza":"","lat":32.706314,"lng":130.759273,"zip":"8614600"},{"town":"大字緑町","koaza":"","lat":32.646251,"lng":130.808637,"zip":"8614600"},{"town":"大字南三箇","koaza":"","lat":32.676713,"lng":130.780704,"zip":"8614600"},{"town":"大字安平","koaza":"","lat":32.650744,"lng":130.839088,"zip":"8614600"},{"town":"大字横田","koaza":"","lat":32.658148,"lng":130.814412,"zip":"8614600"},{"town":"大字吉田","koaza":"","lat":32.713758,"lng":130.76557,"zip":"8614600"},{"town":"大字世持","koaza":"","lat":32.675598,"lng":130.790232,"zip":"8614600"}]