[{"town":"麻山","koaza":"","lat":32.708193,"lng":131.042301,"zip":"8613781"},{"town":"芦屋田","koaza":"","lat":32.692941,"lng":130.969542,"zip":"8613541"},{"town":"荒谷","koaza":"","lat":32.650546,"lng":130.971089,"zip":"8613521"},{"town":"伊勢","koaza":"","lat":32.786133,"lng":131.159928,"zip":"8613937"},{"town":"市の原","koaza":"","lat":32.67331,"lng":131.103918,"zip":"8613500"},{"town":"市原","koaza":"","lat":32.69096,"lng":130.953316,"zip":"8613542"},{"town":"犬飼","koaza":"","lat":32.665289,"lng":130.986469,"zip":"8613665"},{"town":"今","koaza":"","lat":32.723308,"lng":131.167386,"zip":"8613913"},{"town":"井無田","koaza":"","lat":32.724362,"lng":131.107376,"zip":"8613832"},{"town":"大野","koaza":"","lat":32.685579,"lng":131.132226,"zip":"8613905"},{"town":"大平","koaza":"","lat":32.69431,"lng":131.076206,"zip":"8613811"},{"town":"大見口","koaza":"","lat":32.769173,"lng":131.128372,"zip":"8613926"},{"town":"小笹","koaza":"","lat":32.69635,"lng":131.020569,"zip":"8613788"},{"town":"男成","koaza":"","lat":32.684673,"lng":131.025092,"zip":"8613789"},{"town":"尾野尻","koaza":"","lat":32.662819,"lng":131.084365,"zip":"8613844"},{"town":"小峰","koaza":"","lat":32.671759,"lng":131.071468,"zip":"8613801"},{"town":"柏","koaza":"","lat":32.741084,"lng":131.171702,"zip":"8613923"},{"town":"金内","koaza":"","lat":32.751618,"lng":130.96149,"zip":"8613451"},{"town":"鎌野","koaza":"","lat":32.661758,"lng":131.102353,"zip":"8613843"},{"town":"上川井野","koaza":"","lat":32.686453,"lng":131.048001,"zip":"8613782"},{"town":"上差尾","koaza":"","lat":32.752249,"lng":131.123365,"zip":"8613925"},{"town":"神ノ前","koaza":"","lat":32.671524,"lng":131.127018,"zip":"8613906"},{"town":"仮屋","koaza":"","lat":32.679912,"lng":131.109087,"zip":"8613841"},{"town":"川口","koaza":"","lat":32.748887,"lng":131.089067,"zip":"8613813"},{"town":"川野","koaza":"","lat":32.679439,"lng":131.034347,"zip":"8613784"},{"town":"北中島","koaza":"","lat":32.750068,"lng":130.930458,"zip":"8613455"},{"town":"木原谷","koaza":"","lat":32.654968,"lng":131.05076,"zip":"8613802"},{"town":"葛原","koaza":"","lat":32.677069,"lng":130.896182,"zip":"8613531"},{"town":"黒川","koaza":"","lat":32.713181,"lng":131.022467,"zip":"8613501"},{"town":"下馬尾","koaza":"","lat":32.686664,"lng":130.984333,"zip":"8613512"},{"town":"高月","koaza":"","lat":32.707275,"lng":131.102093,"zip":"8613834"},{"town":"郷野原","koaza":"","lat":32.760726,"lng":131.101741,"zip":"8613831"},{"town":"御所","koaza":"","lat":32.74121,"lng":131.049793,"zip":"8613502"},{"town":"小中竹","koaza":"","lat":32.669329,"lng":131.056403,"zip":"8613803"},{"town":"猿渡","koaza":"","lat":32.683418,"lng":130.933939,"zip":"8613532"},{"town":"三ケ","koaza":"","lat":32.6753,"lng":130.912379,"zip":"8613533"},{"town":"塩出迫","koaza":"","lat":32.726076,"lng":131.137488,"zip":"8613915"},{"town":"塩原","koaza":"","lat":32.708767,"lng":131.130579,"zip":"8613916"},{"town":"島木","koaza":"","lat":32.715699,"lng":130.918956,"zip":"8613454"},{"town":"下市","koaza":"","lat":32.681022,"lng":130.988346,"zip":"8613513"},{"town":"下川井野","koaza":"","lat":32.668315,"lng":131.010617,"zip":"8613786"},{"town":"下名連石","koaza":"","lat":32.739198,"lng":131.007995,"zip":"8613503"},{"town":"下山","koaza":"","lat":32.759672,"lng":131.203843,"zip":"8613932"},{"town":"上寺","koaza":"","lat":32.697432,"lng":130.97943,"zip":"8613543"},{"town":"城平","koaza":"","lat":32.698929,"lng":130.990355,"zip":"8613515"},{"town":"白石","koaza":"","lat":32.674401,"lng":131.136669,"zip":"8613907"},{"town":"白小野","koaza":"","lat":32.661559,"lng":130.964164,"zip":"8613522"},{"town":"白藤","koaza":"","lat":32.65013,"lng":130.993418,"zip":"8613664"},{"town":"新小","koaza":"","lat":32.65949,"lng":131.000942,"zip":"8613663"},{"town":"杉木","koaza":"","lat":32.713345,"lng":130.978849,"zip":"8613544"},{"town":"菅","koaza":"","lat":32.644791,"lng":131.018402,"zip":"8613671"},{"town":"菅尾","koaza":"","lat":32.710499,"lng":131.146475,"zip":"8613911"},{"town":"須原","koaza":"","lat":32.684552,"lng":131.074068,"zip":"8613805"},{"town":"勢井","koaza":"","lat":32.670165,"lng":130.954978,"zip":"8613523"},{"town":"千滝","koaza":"","lat":32.676907,"lng":130.981982,"zip":"8613516"},{"town":"田小野","koaza":"","lat":32.749119,"lng":130.978263,"zip":"8613452"},{"town":"高辻","koaza":"","lat":32.779281,"lng":131.180236,"zip":"8613933"},{"town":"高畑","koaza":"","lat":32.780268,"lng":131.194885,"zip":"8613934"},{"town":"滝上","koaza":"","lat":32.691247,"lng":131.147908,"zip":"8613902"},{"town":"橘","koaza":"","lat":32.74736,"lng":131.213468,"zip":"8613931"},{"town":"田所","koaza":"","lat":32.664148,"lng":131.019112,"zip":"8613785"},{"town":"玉目","koaza":"","lat":32.755235,"lng":131.1604,"zip":"8613927"},{"town":"田吉","koaza":"","lat":32.672424,"lng":131.002155,"zip":"8613662"},{"town":"津留","koaza":"","lat":32.640859,"lng":130.982411,"zip":"8613673"},{"town":"鶴ケ田","koaza":"","lat":32.721052,"lng":131.077895,"zip":"8613812"},{"town":"長崎","koaza":"","lat":32.703213,"lng":131.170144,"zip":"8613908"},{"town":"長田","koaza":"","lat":32.682007,"lng":130.962444,"zip":"8613545"},{"town":"長谷","koaza":"","lat":32.766962,"lng":131.167777,"zip":"8613928"},{"town":"長原","koaza":"","lat":32.675671,"lng":130.990199,"zip":"8613661"},{"town":"成君","koaza":"","lat":32.670739,"lng":131.040607,"zip":"8613783"},{"town":"二瀬本","koaza":"","lat":32.745344,"lng":131.187535,"zip":"8613922"},{"town":"貫原","koaza":"","lat":32.677763,"lng":131.05572,"zip":"8613804"},{"town":"八木","koaza":"","lat":32.7378,"lng":131.157595,"zip":"8613921"},{"town":"花上","koaza":"","lat":32.733757,"lng":131.202246,"zip":"8613914"},{"town":"浜町","koaza":"","lat":32.684099,"lng":130.985602,"zip":"8613518"},{"town":"原","koaza":"","lat":32.712139,"lng":130.956636,"zip":"8613453"},{"town":"東竹原","koaza":"","lat":32.795797,"lng":131.185664,"zip":"8613935"},{"town":"藤木","koaza":"","lat":32.662502,"lng":130.952362,"zip":"8613524"},{"town":"二津留","koaza":"","lat":32.742424,"lng":131.142153,"zip":"8613924"},{"town":"方ケ野","koaza":"","lat":32.689706,"lng":131.11304,"zip":"8613904"},{"town":"仏原","koaza":"","lat":32.69942,"lng":131.111364,"zip":"8613835"},{"town":"牧野","koaza":"","lat":32.662519,"lng":130.978244,"zip":"8613525"},{"town":"馬見原","koaza":"","lat":32.68142,"lng":131.162816,"zip":"8613901"},{"town":"万坂","koaza":"","lat":32.655468,"lng":130.950749,"zip":"8613526"},{"town":"緑川","koaza":"","lat":32.633213,"lng":131.090701,"zip":"8613845"},{"town":"南田","koaza":"","lat":32.677802,"lng":130.973602,"zip":"8613546"},{"town":"目丸","koaza":"","lat":32.629804,"lng":130.980655,"zip":"8613672"},{"town":"安方","koaza":"","lat":32.710743,"lng":131.12187,"zip":"8613833"},{"town":"柳井原","koaza":"","lat":32.69482,"lng":131.129233,"zip":"8613903"},{"town":"柳","koaza":"","lat":32.809237,"lng":131.158225,"zip":"8613903"},{"town":"山田","koaza":"","lat":32.697547,"lng":130.960917,"zip":"8613547"},{"town":"柚木","koaza":"","lat":32.662882,"lng":130.92503,"zip":"8613534"},{"town":"米生","koaza":"","lat":32.683242,"lng":131.090732,"zip":"8613806"},{"town":"米迫","koaza":"","lat":32.713515,"lng":131.161349,"zip":"8613912"},{"town":"野尻","koaza":"","lat":32.680042,"lng":131.013154,"zip":"8613787"},{"town":"入佐","koaza":"","lat":32.699163,"lng":131.002297,"zip":"8613511"},{"town":"畑","koaza":"","lat":32.689825,"lng":131.005382,"zip":"8613517"},{"town":"城原","koaza":"","lat":32.681127,"lng":131.000203,"zip":"8613514"}]