[{"town":"安部","koaza":"","lat":32.613331,"lng":130.880994,"zip":"8614714"},{"town":"石野","koaza":"","lat":32.617723,"lng":130.897108,"zip":"8614716"},{"town":"今","koaza":"","lat":32.622066,"lng":130.833374,"zip":"8614734"},{"town":"岩下","koaza":"","lat":32.644974,"lng":130.805096,"zip":"8614404"},{"town":"岩野","koaza":"","lat":32.608814,"lng":130.823484,"zip":"8614413"},{"town":"畝野","koaza":"","lat":32.642165,"lng":130.912517,"zip":"8614703"},{"town":"大井早","koaza":"","lat":32.644201,"lng":130.956317,"zip":"8614701"},{"town":"大窪","koaza":"","lat":32.612289,"lng":130.848474,"zip":"8614726"},{"town":"大沢水","koaza":"","lat":32.653039,"lng":130.784667,"zip":"8614401"},{"town":"柏川","koaza":"","lat":32.601652,"lng":130.924257,"zip":"8614712"},{"town":"堅志田","koaza":"","lat":32.648137,"lng":130.7888,"zip":"8614402"},{"town":"萱野","koaza":"","lat":32.630243,"lng":130.805722,"zip":"8614405"},{"town":"川越","koaza":"","lat":32.652794,"lng":130.903402,"zip":"8614707"},{"town":"木早川内","koaza":"","lat":32.596484,"lng":130.791067,"zip":"8614425"},{"town":"清水","koaza":"","lat":32.623585,"lng":130.884888,"zip":"8614715"},{"town":"栗崎","koaza":"","lat":32.629576,"lng":130.878904,"zip":"8614731"},{"town":"下草野","koaza":"","lat":32.591853,"lng":130.830542,"zip":"8614700"},{"town":"小市野","koaza":"","lat":32.610352,"lng":130.795157,"zip":"8614424"},{"town":"甲佐平","koaza":"","lat":32.651909,"lng":130.881513,"zip":"8614706"},{"town":"古閑","koaza":"","lat":32.638163,"lng":130.862747,"zip":"8614737"},{"town":"小筵","koaza":"","lat":32.623891,"lng":130.810813,"zip":"8614411"},{"town":"境","koaza":"","lat":32.595432,"lng":130.857473,"zip":"8614723"},{"town":"坂貫","koaza":"","lat":32.595944,"lng":130.838896,"zip":"8614725"},{"town":"坂本","koaza":"","lat":32.574949,"lng":130.829886,"zip":"8614415"},{"town":"佐俣","koaza":"","lat":32.621199,"lng":130.822782,"zip":"8614412"},{"town":"三加","koaza":"","lat":32.62497,"lng":130.844505,"zip":"8614735"},{"town":"白石野","koaza":"","lat":32.604422,"lng":130.783115,"zip":"8614426"},{"town":"土喰","koaza":"","lat":32.61846,"lng":130.871241,"zip":"8614721"},{"town":"椿","koaza":"","lat":32.593966,"lng":130.819992,"zip":"8614414"},{"town":"津留","koaza":"","lat":32.614778,"lng":130.785194,"zip":"8614427"},{"town":"遠野","koaza":"","lat":32.647807,"lng":130.930536,"zip":"8614702"},{"town":"豊富","koaza":"","lat":32.635899,"lng":130.882017,"zip":"8614705"},{"town":"中","koaza":"","lat":32.602008,"lng":130.809307,"zip":"8614417"},{"town":"長尾野","koaza":"","lat":32.614664,"lng":130.808873,"zip":"8614422"},{"town":"中郡","koaza":"","lat":32.640009,"lng":130.799351,"zip":"8614403"},{"town":"中小路","koaza":"","lat":32.635225,"lng":130.783382,"zip":"8614407"},{"town":"永富","koaza":"","lat":32.607076,"lng":130.866597,"zip":"8614722"},{"town":"名越谷","koaza":"","lat":32.633088,"lng":130.849683,"zip":"8614736"},{"town":"二和田","koaza":"","lat":32.623422,"lng":130.861096,"zip":"8614733"},{"town":"馬場","koaza":"","lat":32.638218,"lng":130.791565,"zip":"8614406"},{"town":"早楠","koaza":"","lat":32.592379,"lng":130.902748,"zip":"8614713"},{"town":"払川","koaza":"","lat":32.581259,"lng":130.799376,"zip":"8614416"},{"town":"原田","koaza":"","lat":32.622009,"lng":130.785958,"zip":"8614421"},{"town":"原町","koaza":"","lat":32.619285,"lng":130.86686,"zip":"8614727"},{"town":"洞岳","koaza":"","lat":32.61377,"lng":130.945839,"zip":"8614711"},{"town":"松野原","koaza":"","lat":32.611767,"lng":130.801729,"zip":"8614423"},{"town":"三和","koaza":"","lat":32.626359,"lng":130.869515,"zip":"8614732"},{"town":"涌井","koaza":"","lat":32.635369,"lng":130.895765,"zip":"8614704"}]