[{"town":"赤池原町","koaza":"","lat":32.191538,"lng":130.784096,"zip":"8680825"},{"town":"赤池水無町","koaza":"","lat":32.179066,"lng":130.776172,"zip":"8680824"},{"town":"五日町","koaza":"","lat":32.213915,"lng":130.763617,"zip":"8680035"},{"town":"井ノ口町","koaza":"","lat":32.244787,"lng":130.747373,"zip":"8680027"},{"town":"上原町","koaza":"","lat":32.208577,"lng":130.767848,"zip":"8680047"},{"town":"老神町","koaza":"","lat":32.210673,"lng":130.75773,"zip":"8680053"},{"town":"大野町","koaza":"","lat":32.15084,"lng":130.777937,"zip":"8680812"},{"town":"大畑麓町","koaza":"","lat":32.146435,"lng":130.792016,"zip":"8680811"},{"town":"大畑町","koaza":"","lat":32.14233,"lng":130.810802,"zip":"8680803"},{"town":"鬼木町","koaza":"","lat":32.229298,"lng":130.776316,"zip":"8680021"},{"town":"温泉町","koaza":"","lat":32.214792,"lng":130.727036,"zip":"8680084"},{"town":"鍛冶屋町","koaza":"","lat":32.217065,"lng":130.760929,"zip":"8680001"},{"town":"鹿目町","koaza":"","lat":32.182279,"lng":130.68921,"zip":"8680078"},{"town":"上青井町","koaza":"","lat":32.212909,"lng":130.754003,"zip":"8680005"},{"town":"上漆田町","koaza":"","lat":32.173358,"lng":130.795856,"zip":"8680821"},{"town":"上薩摩瀬町","koaza":"","lat":32.211474,"lng":130.739627,"zip":"8680013"},{"town":"上新町","koaza":"","lat":32.215398,"lng":130.770728,"zip":"8680032"},{"town":"上田代町","koaza":"","lat":32.16431,"lng":130.813092,"zip":"8680801"},{"town":"上戸越町","koaza":"","lat":32.180403,"lng":130.710796,"zip":"8680076"},{"town":"上永野町","koaza":"","lat":32.172721,"lng":130.733266,"zip":"8680073"},{"town":"上林町","koaza":"","lat":32.228517,"lng":130.741774,"zip":"8680081"},{"town":"上原田町","koaza":"","lat":32.259044,"lng":130.73693,"zip":"8680087"},{"town":"瓦屋町","koaza":"","lat":32.226632,"lng":130.754111,"zip":"8680025"},{"town":"願成寺町","koaza":"","lat":32.223155,"lng":130.781172,"zip":"8680022"},{"town":"蟹作町","koaza":"","lat":32.196344,"lng":130.778477,"zip":"8680042"},{"town":"木地屋町","koaza":"","lat":32.144761,"lng":130.749887,"zip":"8680063"},{"town":"北泉田町","koaza":"","lat":32.219813,"lng":130.765228,"zip":"8680023"},{"town":"合ノ原町","koaza":"","lat":32.235818,"lng":130.749735,"zip":"8680026"},{"town":"紺屋町","koaza":"","lat":32.215225,"lng":130.759165,"zip":"8680003"},{"town":"九日町","koaza":"","lat":32.213741,"lng":130.760203,"zip":"8680004"},{"town":"古仏頂町","koaza":"","lat":32.167445,"lng":130.761622,"zip":"8680062"},{"town":"駒井田町","koaza":"","lat":32.216581,"lng":130.757714,"zip":"8680006"},{"town":"相良町","koaza":"","lat":32.20978,"lng":130.743355,"zip":"8680012"},{"town":"七地町","koaza":"","lat":32.206212,"lng":130.77656,"zip":"8680041"},{"town":"下青井町","koaza":"","lat":32.211514,"lng":130.75097,"zip":"8680007"},{"town":"下漆田町","koaza":"","lat":32.17982,"lng":130.79327,"zip":"8680822"},{"town":"下薩摩瀬町","koaza":"","lat":32.212636,"lng":130.734511,"zip":"8680014"},{"town":"下城本町","koaza":"","lat":32.216354,"lng":130.742363,"zip":"8680015"},{"town":"下新町","koaza":"","lat":32.215232,"lng":130.76859,"zip":"8680033"},{"town":"下田代町","koaza":"","lat":32.178469,"lng":130.808581,"zip":"8680802"},{"town":"下戸越町","koaza":"","lat":32.205829,"lng":130.727548,"zip":"8680077"},{"town":"下永野町","koaza":"","lat":32.180761,"lng":130.722506,"zip":"8680074"},{"town":"下林町","koaza":"","lat":32.218044,"lng":130.733699,"zip":"8680083"},{"town":"城本町","koaza":"","lat":32.218705,"lng":130.753422,"zip":"8680016"},{"town":"新町","koaza":"","lat":32.211188,"lng":130.75946,"zip":"8680052"},{"town":"大工町","koaza":"","lat":32.215679,"lng":130.761854,"zip":"8680002"},{"town":"田野町","koaza":"","lat":32.159188,"lng":130.679951,"zip":"8680066"},{"town":"田町","koaza":"","lat":32.206518,"lng":130.764878,"zip":"8680054"},{"town":"段塔町","koaza":"","lat":32.135293,"lng":130.824095,"zip":"8680000"},{"town":"鶴田町","koaza":"","lat":32.224052,"lng":130.762139,"zip":"8680024"},{"town":"寺町","koaza":"","lat":32.208108,"lng":130.761971,"zip":"8680056"},{"town":"土手町","koaza":"","lat":32.208335,"lng":130.758042,"zip":"8680057"},{"town":"富ケ尾町","koaza":"","lat":32.207963,"lng":130.765389,"zip":"8680048"},{"town":"中青井町","koaza":"","lat":32.214983,"lng":130.753707,"zip":"8680008"},{"town":"中神町","koaza":"","lat":32.211186,"lng":130.70709,"zip":"8680085"},{"town":"中城町","koaza":"","lat":32.212048,"lng":130.768683,"zip":"8680000"},{"town":"中林町","koaza":"","lat":32.224197,"lng":130.734669,"zip":"8680082"},{"town":"七日町","koaza":"","lat":32.214787,"lng":130.765911,"zip":"8680034"},{"town":"浪床町","koaza":"","lat":32.204423,"lng":130.7695,"zip":"8680045"},{"town":"西間上町","koaza":"","lat":32.185836,"lng":130.756824,"zip":"8680071"},{"town":"西間下町","koaza":"","lat":32.20013,"lng":130.754474,"zip":"8680072"},{"town":"西大塚町","koaza":"","lat":32.127628,"lng":130.701998,"zip":"8680065"},{"town":"二日町","koaza":"","lat":32.215622,"lng":130.763433,"zip":"8680036"},{"town":"灰久保町","koaza":"","lat":32.209338,"lng":130.756569,"zip":"8680058"},{"town":"原城町","koaza":"","lat":32.211177,"lng":130.771063,"zip":"8680046"},{"town":"東間上町","koaza":"","lat":32.196207,"lng":130.770421,"zip":"8680043"},{"town":"東間下町","koaza":"","lat":32.199904,"lng":130.772087,"zip":"8680044"},{"town":"東漆田町","koaza":"","lat":32.180882,"lng":130.787039,"zip":"8680823"},{"town":"東大塚町","koaza":"","lat":32.12644,"lng":130.721358,"zip":"8680064"},{"town":"麓町","koaza":"","lat":32.210601,"lng":130.763584,"zip":"8680051"},{"town":"宝来町","koaza":"","lat":32.20961,"lng":130.748061,"zip":"8680011"},{"town":"南泉田町","koaza":"","lat":32.217202,"lng":130.765093,"zip":"8680037"},{"town":"南町","koaza":"","lat":32.205637,"lng":130.763207,"zip":"8680055"},{"town":"蓑野町","koaza":"","lat":32.18435,"lng":130.770464,"zip":"8680061"},{"town":"矢黒町","koaza":"","lat":32.201649,"lng":130.745051,"zip":"8680075"},{"town":"矢岳町","koaza":"","lat":32.114313,"lng":130.800672,"zip":"8680813"},{"town":"下原田町","koaza":"瓜生田","lat":32.228714,"lng":130.720019,"zip":"8680086"},{"town":"中神町","koaza":"馬場","lat":32.224205,"lng":130.717442,"zip":"8680085"},{"town":"中神町","koaza":"小柿","lat":32.212958,"lng":130.724876,"zip":"8680085"},{"town":"下原田町","koaza":"西門","lat":32.234004,"lng":130.721382,"zip":"8680086"},{"town":"中神町","koaza":"段","lat":32.224569,"lng":130.722651,"zip":"8680085"},{"town":"下原田町","koaza":"嵯峨里","lat":32.239102,"lng":130.725539,"zip":"8680086"},{"town":"中神町","koaza":"城本","lat":32.221214,"lng":130.725547,"zip":"8680085"},{"town":"下原田町","koaza":"堀","lat":32.234212,"lng":130.72421,"zip":"8680086"},{"town":"下原田町","koaza":"荒毛","lat":32.228936,"lng":130.727872,"zip":"8680086"},{"town":"上原田町","koaza":"尾崎","lat":32.241432,"lng":130.727175,"zip":"8680087"},{"town":"上原田町","koaza":"上原","lat":32.238639,"lng":130.735828,"zip":"8680087"},{"town":"下原田町","koaza":"羽田","lat":32.231973,"lng":130.732192,"zip":"8680086"},{"town":"下林町","koaza":"下川","lat":32.220739,"lng":130.732817,"zip":"8680083"},{"town":"下原田町","koaza":"上野","lat":32.231865,"lng":130.733932,"zip":"8680086"},{"town":"下薩摩瀬町","koaza":"竹原町","lat":32.214923,"lng":130.736326,"zip":"8680014"},{"town":"下林町","koaza":"佐ブ川","lat":32.218727,"lng":130.737216,"zip":"8680083"},{"town":"上原田町","koaza":"牛塚","lat":32.239633,"lng":130.740506,"zip":"8680087"},{"town":"相良町","koaza":"一丁田","lat":32.211503,"lng":130.743584,"zip":"8680012"},{"town":"瓦屋町","koaza":"典子","lat":32.224118,"lng":130.757568,"zip":"8680025"},{"town":"北泉田町","koaza":"木下","lat":32.218785,"lng":130.763906,"zip":"8680023"}]