[{"town":"揚町","koaza":"","lat":32.468671,"lng":130.594538,"zip":"8695152"},{"town":"旭中央通","koaza":"","lat":32.503017,"lng":130.613004,"zip":"8660844"},{"town":"海士江町","koaza":"","lat":32.526859,"lng":130.622262,"zip":"8660893"},{"town":"井揚町","koaza":"","lat":32.535129,"lng":130.587547,"zip":"8660011"},{"town":"泉町柿迫","koaza":"","lat":32.524841,"lng":130.868677,"zip":"8694501"},{"town":"泉町栗木","koaza":"","lat":32.526082,"lng":130.818006,"zip":"8694402"},{"town":"泉町久連子","koaza":"","lat":32.459288,"lng":130.93182,"zip":"8694513"},{"town":"泉町椎原","koaza":"","lat":32.49368,"lng":130.921257,"zip":"8694514"},{"town":"泉町下岳","koaza":"","lat":32.56378,"lng":130.776441,"zip":"8694403"},{"town":"泉町仁田尾","koaza":"","lat":32.537173,"lng":130.909999,"zip":"8694515"},{"town":"泉町葉木","koaza":"","lat":32.547278,"lng":130.963592,"zip":"8694511"},{"town":"泉町樅木","koaza":"","lat":32.5084,"lng":130.973266,"zip":"8694512"},{"town":"井上町","koaza":"","lat":32.515148,"lng":130.629861,"zip":"8660825"},{"town":"植柳上町","koaza":"","lat":32.490974,"lng":130.603256,"zip":"8660081"},{"town":"植柳下町","koaza":"","lat":32.48208,"lng":130.592045,"zip":"8660083"},{"town":"植柳新町一丁目","koaza":"","lat":32.492219,"lng":130.587789,"zip":"8660084"},{"town":"植柳新町二丁目","koaza":"","lat":32.489522,"lng":130.591375,"zip":"8660084"},{"town":"植柳元町","koaza":"","lat":32.490018,"lng":130.598554,"zip":"8660085"},{"town":"大島町","koaza":"","lat":32.53926,"lng":130.55448,"zip":"8660035"},{"town":"大手町一丁目","koaza":"","lat":32.507151,"lng":130.614808,"zip":"8660852"},{"town":"大手町二丁目","koaza":"","lat":32.508732,"lng":130.611546,"zip":"8660852"},{"town":"大村町","koaza":"","lat":32.517361,"lng":130.618793,"zip":"8660895"},{"town":"岡町小路","koaza":"","lat":32.535326,"lng":130.676589,"zip":"8694611"},{"town":"岡町谷川","koaza":"","lat":32.532399,"lng":130.663544,"zip":"8694613"},{"town":"岡町中","koaza":"","lat":32.535928,"lng":130.670057,"zip":"8694612"},{"town":"沖町","koaza":"","lat":32.527867,"lng":130.584476,"zip":"8660013"},{"town":"鏡町有佐","koaza":"","lat":32.557481,"lng":130.662519,"zip":"8694213"},{"town":"鏡町内田","koaza":"","lat":32.563714,"lng":130.647003,"zip":"8694202"},{"town":"鏡町貝洲","koaza":"","lat":32.568425,"lng":130.625966,"zip":"8694223"},{"town":"鏡町鏡","koaza":"","lat":32.576125,"lng":130.644838,"zip":"8694203"},{"town":"鏡町鏡村","koaza":"","lat":32.570561,"lng":130.659677,"zip":"8694201"},{"town":"鏡町上鏡","koaza":"","lat":32.569965,"lng":130.667365,"zip":"8694211"},{"town":"鏡町北新地","koaza":"","lat":32.579533,"lng":130.610276,"zip":"8694225"},{"town":"鏡町塩浜","koaza":"","lat":32.561045,"lng":130.62151,"zip":"8694224"},{"town":"鏡町芝口","koaza":"","lat":32.586057,"lng":130.643295,"zip":"8694204"},{"town":"鏡町下有佐","koaza":"","lat":32.563873,"lng":130.666425,"zip":"8694212"},{"town":"鏡町下村","koaza":"","lat":32.553441,"lng":130.652413,"zip":"8694215"},{"town":"鏡町中島","koaza":"","lat":32.54984,"lng":130.663369,"zip":"8694214"},{"town":"鏡町野崎","koaza":"","lat":32.592955,"lng":130.63093,"zip":"8694205"},{"town":"鏡町宝出","koaza":"","lat":32.572154,"lng":130.637404,"zip":"8694221"},{"town":"鏡町両出","koaza":"","lat":32.554527,"lng":130.633594,"zip":"8694222"},{"town":"上片町","koaza":"","lat":32.507548,"lng":130.654405,"zip":"8660813"},{"town":"上日置町","koaza":"","lat":32.504875,"lng":130.630567,"zip":"8660824"},{"town":"川田町西","koaza":"","lat":32.51661,"lng":130.648536,"zip":"8694616"},{"town":"川田町東","koaza":"","lat":32.517629,"lng":130.661817,"zip":"8694615"},{"town":"北の丸町","koaza":"","lat":32.509819,"lng":130.598412,"zip":"8660865"},{"town":"北原町","koaza":"","lat":32.494075,"lng":130.570312,"zip":"8695162"},{"town":"北平和町","koaza":"","lat":32.494942,"lng":130.55435,"zip":"8695166"},{"town":"郡築十番町","koaza":"","lat":32.546198,"lng":130.579302,"zip":"8660003"},{"town":"郡築十一番町","koaza":"","lat":32.548418,"lng":130.582927,"zip":"8660002"},{"town":"郡築十二番町","koaza":"","lat":32.552172,"lng":130.586631,"zip":"8660001"},{"town":"郡築一番町","koaza":"","lat":32.516672,"lng":130.565638,"zip":"8660024"},{"town":"郡築二番町","koaza":"","lat":32.52073,"lng":130.567615,"zip":"8660023"},{"town":"郡築三番町","koaza":"","lat":32.524618,"lng":130.567594,"zip":"8660022"},{"town":"郡築四番町","koaza":"","lat":32.528621,"lng":130.567537,"zip":"8660021"},{"town":"郡築五番町","koaza":"","lat":32.53213,"lng":130.56795,"zip":"8660008"},{"town":"郡築六番町","koaza":"","lat":32.534644,"lng":130.570774,"zip":"8660007"},{"town":"郡築七番町","koaza":"","lat":32.537648,"lng":130.572896,"zip":"8660006"},{"town":"郡築八番町","koaza":"","lat":32.540871,"lng":130.574301,"zip":"8660005"},{"town":"郡築九番町","koaza":"","lat":32.543203,"lng":130.577554,"zip":"8660004"},{"town":"高下西町","koaza":"","lat":32.487604,"lng":130.607405,"zip":"8660072"},{"town":"高下東町","koaza":"","lat":32.494342,"lng":130.615439,"zip":"8660071"},{"town":"興国町","koaza":"","lat":32.513921,"lng":130.606818,"zip":"8660881"},{"town":"高小原町","koaza":"","lat":32.529743,"lng":130.593432,"zip":"8660012"},{"town":"上野町","koaza":"","lat":32.522158,"lng":130.614985,"zip":"8660894"},{"town":"興善寺町","koaza":"","lat":32.526346,"lng":130.661463,"zip":"8694614"},{"town":"古閑上町","koaza":"","lat":32.515592,"lng":130.6124,"zip":"8660897"},{"town":"古閑下町","koaza":"","lat":32.527962,"lng":130.611822,"zip":"8660892"},{"town":"古閑中町","koaza":"","lat":32.527718,"lng":130.602275,"zip":"8660898"},{"town":"黄金町","koaza":"","lat":32.502584,"lng":130.61209,"zip":"8660845"},{"town":"古閑浜町","koaza":"","lat":32.539893,"lng":130.599884,"zip":"8660891"},{"town":"坂本町鮎帰","koaza":"","lat":32.411316,"lng":130.703336,"zip":"8696104"},{"town":"坂本町荒瀬","koaza":"","lat":32.434713,"lng":130.638659,"zip":"8696115"},{"town":"坂本町市ノ俣","koaza":"","lat":32.35273,"lng":130.681574,"zip":"8696114"},{"town":"坂本町鎌瀬","koaza":"","lat":32.398511,"lng":130.673435,"zip":"8696112"},{"town":"坂本町川嶽","koaza":"","lat":32.393475,"lng":130.643555,"zip":"8695221"},{"town":"坂本町百済来上","koaza":"","lat":32.385676,"lng":130.582233,"zip":"8695225"},{"town":"坂本町百済来下","koaza":"","lat":32.393742,"lng":130.605278,"zip":"8695224"},{"town":"坂本町西部","koaza":"","lat":32.468384,"lng":130.644844,"zip":"8696101"},{"town":"坂本町坂本","koaza":"","lat":32.425409,"lng":130.673789,"zip":"8696105"},{"town":"坂本町田上","koaza":"","lat":32.396578,"lng":130.626237,"zip":"8695223"},{"town":"坂本町鶴喰","koaza":"","lat":32.424618,"lng":130.616142,"zip":"8695222"},{"town":"坂本町中谷","koaza":"","lat":32.454318,"lng":130.697251,"zip":"8696103"},{"town":"坂本町中津道","koaza":"","lat":32.37482,"lng":130.682423,"zip":"8696113"},{"town":"坂本町葉木","koaza":"","lat":32.414557,"lng":130.658843,"zip":"8696111"},{"town":"坂本町深水","koaza":"","lat":32.475032,"lng":130.702179,"zip":"8696102"},{"town":"三楽町","koaza":"","lat":32.509848,"lng":130.586842,"zip":"8660017"},{"town":"塩屋町","koaza":"","lat":32.507423,"lng":130.592944,"zip":"8660864"},{"town":"敷川内町","koaza":"","lat":32.457056,"lng":130.600418,"zip":"8695151"},{"town":"島田町","koaza":"","lat":32.5236,"lng":130.633163,"zip":"8660827"},{"town":"清水町","koaza":"","lat":32.505432,"lng":130.61443,"zip":"8660853"},{"town":"蛇籠町","koaza":"","lat":32.503212,"lng":130.590635,"zip":"8660042"},{"town":"十条町","koaza":"","lat":32.506284,"lng":130.622054,"zip":"8660823"},{"town":"昭和同仁町","koaza":"","lat":32.563158,"lng":130.588837,"zip":"8694723"},{"town":"昭和日進町","koaza":"","lat":32.556076,"lng":130.612688,"zip":"8694721"},{"town":"昭和明徴町","koaza":"","lat":32.557786,"lng":130.600347,"zip":"8694722"},{"town":"新開町","koaza":"","lat":32.507757,"lng":130.579793,"zip":"8660032"},{"town":"新地町","koaza":"","lat":32.508572,"lng":130.59124,"zip":"8660016"},{"town":"新浜町","koaza":"","lat":32.510655,"lng":130.581825,"zip":"8660031"},{"town":"新町","koaza":"","lat":32.506938,"lng":130.609445,"zip":"8660854"},{"town":"新港町一丁目","koaza":"","lat":32.523344,"lng":130.546378,"zip":"8660034"},{"town":"新港町二丁目","koaza":"","lat":32.52788,"lng":130.547511,"zip":"8660034"},{"town":"新港町三丁目","koaza":"","lat":32.532117,"lng":130.549651,"zip":"8660034"},{"town":"新港町四丁目","koaza":"","lat":32.534622,"lng":130.554465,"zip":"8660034"},{"town":"末広町","koaza":"","lat":32.500564,"lng":130.616947,"zip":"8660832"},{"town":"栴檀町","koaza":"","lat":32.494315,"lng":130.597852,"zip":"8660054"},{"town":"千反町一丁目","koaza":"","lat":32.49572,"lng":130.603411,"zip":"8660053"},{"town":"千反町二丁目","koaza":"","lat":32.495366,"lng":130.599787,"zip":"8660053"},{"town":"千丁町太牟田","koaza":"","lat":32.544177,"lng":130.649441,"zip":"8694701"},{"town":"千丁町古閑出","koaza":"","lat":32.54245,"lng":130.621052,"zip":"8694704"},{"town":"千丁町新牟田","koaza":"","lat":32.535089,"lng":130.636907,"zip":"8694703"},{"town":"千丁町吉王丸","koaza":"","lat":32.530839,"lng":130.650748,"zip":"8694702"},{"town":"鼠蔵町","koaza":"","lat":32.484086,"lng":130.562454,"zip":"8695164"},{"town":"大福寺町","koaza":"","lat":32.479178,"lng":130.598707,"zip":"8660082"},{"town":"高植本町","koaza":"","lat":32.475886,"lng":130.582178,"zip":"8695154"},{"town":"高島町","koaza":"","lat":32.521282,"lng":130.581045,"zip":"8660014"},{"town":"鷹辻町","koaza":"","lat":32.510211,"lng":130.604866,"zip":"8660866"},{"town":"竹原町","koaza":"","lat":32.516479,"lng":130.625223,"zip":"8660826"},{"town":"建馬町","koaza":"","lat":32.50587,"lng":130.586197,"zip":"8660045"},{"town":"田中北町","koaza":"","lat":32.523729,"lng":130.602099,"zip":"8660877"},{"town":"田中西町","koaza":"","lat":32.521658,"lng":130.601117,"zip":"8660876"},{"town":"田中東町","koaza":"","lat":32.521111,"lng":130.607434,"zip":"8660871"},{"town":"田中町","koaza":"","lat":32.518233,"lng":130.608416,"zip":"8660872"},{"town":"築添町","koaza":"","lat":32.515145,"lng":130.580477,"zip":"8660015"},{"town":"出町","koaza":"","lat":32.508994,"lng":130.608474,"zip":"8660857"},{"town":"東陽町河俣","koaza":"","lat":32.501945,"lng":130.755797,"zip":"8694303"},{"town":"東陽町北","koaza":"","lat":32.545608,"lng":130.737229,"zip":"8694302"},{"town":"東陽町小浦","koaza":"","lat":32.515999,"lng":130.705481,"zip":"8694304"},{"town":"東陽町南","koaza":"","lat":32.541426,"lng":130.711838,"zip":"8694301"},{"town":"通町","koaza":"","lat":32.508061,"lng":130.60476,"zip":"8660856"},{"town":"永碇町","koaza":"","lat":32.521748,"lng":130.592178,"zip":"8660885"},{"town":"中片町","koaza":"","lat":32.513669,"lng":130.639485,"zip":"8660812"},{"town":"中北町","koaza":"","lat":32.498766,"lng":130.582692,"zip":"8660044"},{"town":"長田町","koaza":"","lat":32.513838,"lng":130.633131,"zip":"8660815"},{"town":"奈良木町","koaza":"","lat":32.478396,"lng":130.620358,"zip":"8660064"},{"town":"西片町","koaza":"","lat":32.517063,"lng":130.640548,"zip":"8660811"},{"town":"錦町","koaza":"","lat":32.501836,"lng":130.610791,"zip":"8660834"},{"town":"西松江城町","koaza":"","lat":32.507311,"lng":130.596569,"zip":"8660863"},{"town":"西宮町","koaza":"","lat":32.501302,"lng":130.632503,"zip":"8660804"},{"town":"萩原町","koaza":"","lat":32.507982,"lng":130.622639,"zip":"8660831"},{"town":"萩原町一丁目","koaza":"","lat":32.501104,"lng":130.623212,"zip":"8660831"},{"town":"萩原町二丁目","koaza":"","lat":32.504206,"lng":130.618312,"zip":"8660831"},{"town":"八幡町","koaza":"","lat":32.505017,"lng":130.592653,"zip":"8660041"},{"town":"花園町","koaza":"","lat":32.503527,"lng":130.613275,"zip":"8660843"},{"town":"日置町","koaza":"","lat":32.51103,"lng":130.619862,"zip":"8660896"},{"town":"東片町","koaza":"","lat":32.512674,"lng":130.644745,"zip":"8660814"},{"town":"東町","koaza":"","lat":32.504515,"lng":130.67573,"zip":"8660801"},{"town":"毘舎丸町","koaza":"","lat":32.509653,"lng":130.615094,"zip":"8660851"},{"town":"日奈久大坪町","koaza":"","lat":32.445129,"lng":130.602402,"zip":"8695146"},{"town":"日奈久上西町","koaza":"","lat":32.429293,"lng":130.576292,"zip":"8695134"},{"town":"日奈久塩北町","koaza":"","lat":32.425745,"lng":130.594055,"zip":"8695142"},{"town":"日奈久塩南町","koaza":"","lat":32.430598,"lng":130.581834,"zip":"8695141"},{"town":"日奈久下西町","koaza":"","lat":32.428595,"lng":130.571341,"zip":"8695132"},{"town":"日奈久新田町","koaza":"","lat":32.435466,"lng":130.593543,"zip":"8695145"},{"town":"日奈久竹之内町","koaza":"","lat":32.436063,"lng":130.586344,"zip":"8695143"},{"town":"日奈久中西町","koaza":"","lat":32.430881,"lng":130.572969,"zip":"8695133"},{"town":"日奈久中町","koaza":"","lat":32.423845,"lng":130.58096,"zip":"8695135"},{"town":"日奈久浜町","koaza":"","lat":32.434577,"lng":130.576709,"zip":"8695137"},{"town":"日奈久東町","koaza":"","lat":32.433342,"lng":130.577684,"zip":"8695136"},{"town":"日奈久平成町","koaza":"","lat":32.43018,"lng":130.566023,"zip":"8695138"},{"town":"日奈久馬越町","koaza":"","lat":32.423411,"lng":130.567506,"zip":"8695131"},{"town":"日奈久山下町","koaza":"","lat":32.440632,"lng":130.587205,"zip":"8695144"},{"town":"平山新町","koaza":"","lat":32.46908,"lng":130.61136,"zip":"8660074"},{"town":"豊原上町","koaza":"","lat":32.482391,"lng":130.628091,"zip":"8660063"},{"town":"豊原下町","koaza":"","lat":32.483376,"lng":130.615498,"zip":"8660065"},{"town":"豊原中町","koaza":"","lat":32.491103,"lng":130.620286,"zip":"8660062"},{"town":"福正町","koaza":"","lat":32.50531,"lng":130.627833,"zip":"8660821"},{"town":"福正元町","koaza":"","lat":32.503415,"lng":130.625958,"zip":"8660822"},{"town":"袋町","koaza":"","lat":32.505344,"lng":130.606298,"zip":"8660855"},{"town":"二見赤松町","koaza":"","lat":32.382323,"lng":130.541198,"zip":"8695173"},{"town":"二見下大野町","koaza":"","lat":32.407006,"lng":130.566996,"zip":"8695174"},{"town":"二見洲口町","koaza":"","lat":32.416095,"lng":130.551537,"zip":"8695171"},{"town":"二見野田崎町","koaza":"","lat":32.406922,"lng":130.589692,"zip":"8695175"},{"town":"二見本町","koaza":"","lat":32.393854,"lng":130.558211,"zip":"8695172"},{"town":"古城町","koaza":"","lat":32.498292,"lng":130.592999,"zip":"8660043"},{"town":"古麓町","koaza":"","lat":32.489706,"lng":130.634942,"zip":"8660803"},{"town":"本野町","koaza":"","lat":32.485717,"lng":130.612558,"zip":"8660073"},{"town":"本町一丁目","koaza":"","lat":32.50385,"lng":130.603758,"zip":"8660861"},{"town":"本町二丁目","koaza":"","lat":32.503462,"lng":130.600335,"zip":"8660861"},{"town":"本町三丁目","koaza":"","lat":32.503358,"lng":130.598005,"zip":"8660861"},{"town":"本町四丁目","koaza":"","lat":32.503422,"lng":130.595159,"zip":"8660861"},{"town":"松江城町","koaza":"","lat":32.507096,"lng":130.600506,"zip":"8660862"},{"town":"松江本町","koaza":"","lat":32.512444,"lng":130.605084,"zip":"8660882"},{"town":"松江町","koaza":"","lat":32.514868,"lng":130.598835,"zip":"8660883"},{"town":"松崎町","koaza":"","lat":32.51527,"lng":130.590368,"zip":"8660884"},{"town":"水島町","koaza":"","lat":32.468939,"lng":130.574521,"zip":"8695155"},{"town":"三江湖町","koaza":"","lat":32.487797,"lng":130.570546,"zip":"8695163"},{"town":"緑町","koaza":"","lat":32.504847,"lng":130.611892,"zip":"8660841"},{"town":"港町","koaza":"","lat":32.51245,"lng":130.549926,"zip":"8660033"},{"town":"南平和町","koaza":"","lat":32.483229,"lng":130.550355,"zip":"8695165"},{"town":"宮地町","koaza":"","lat":32.501238,"lng":130.638393,"zip":"8660805"},{"town":"妙見町","koaza":"","lat":32.490543,"lng":130.65131,"zip":"8660802"},{"town":"迎町","koaza":"","lat":32.499572,"lng":130.607438,"zip":"8660055"},{"town":"迎町一丁目","koaza":"","lat":32.499562,"lng":130.602641,"zip":"8660055"},{"town":"迎町二丁目","koaza":"","lat":32.499562,"lng":130.599368,"zip":"8660055"},{"town":"麦島西町","koaza":"","lat":32.496729,"lng":130.607867,"zip":"8660052"},{"town":"麦島東町","koaza":"","lat":32.497283,"lng":130.61395,"zip":"8660051"},{"town":"催合町","koaza":"","lat":32.461014,"lng":130.585081,"zip":"8695153"},{"town":"弥生町","koaza":"","lat":32.502224,"lng":130.611406,"zip":"8660846"},{"town":"夕葉町","koaza":"","lat":32.501098,"lng":130.609192,"zip":"8660833"},{"town":"横手新町","koaza":"","lat":32.518838,"lng":130.601745,"zip":"8660875"},{"town":"横手本町","koaza":"","lat":32.511973,"lng":130.612138,"zip":"8660874"},{"town":"横手町","koaza":"","lat":32.516335,"lng":130.601987,"zip":"8660873"},{"town":"葭牟田町","koaza":"","lat":32.489214,"lng":130.582268,"zip":"8695161"},{"town":"若草町","koaza":"","lat":32.504062,"lng":130.612904,"zip":"8660842"},{"town":"渡町","koaza":"","lat":32.486738,"lng":130.629276,"zip":"8660061"},{"town":"日奈久栄町","koaza":"","lat":32.436932,"lng":130.573111,"zip":"8695148"},{"town":"日奈久新開町","koaza":"","lat":32.447574,"lng":130.575783,"zip":"8695147"},{"town":"沖町","koaza":"六番割","lat":32.524759,"lng":130.585034,"zip":"8660013"},{"town":"本野町","koaza":"西道善寺","lat":32.481839,"lng":130.609354,"zip":"8660073"},{"town":"渡町","koaza":"松上","lat":32.491592,"lng":130.625291,"zip":"8660061"},{"town":"上日置町","koaza":"女夫木","lat":32.51765,"lng":130.634875,"zip":"8660824"},{"town":"宮地町","koaza":"石原","lat":32.502444,"lng":130.636303,"zip":"8660805"},{"town":"中片町","koaza":"元水町","lat":32.509493,"lng":130.638576,"zip":"8660812"}]