[{"town":"網道","koaza":"","lat":32.60065,"lng":130.657722,"zip":"8694812"},{"town":"有佐","koaza":"","lat":32.555014,"lng":130.669375,"zip":"8694604"},{"town":"今","koaza":"","lat":32.550702,"lng":130.679619,"zip":"8694601"},{"town":"大野","koaza":"","lat":32.566908,"lng":130.70035,"zip":"8694804"},{"town":"栫","koaza":"","lat":32.539369,"lng":130.678278,"zip":"8694607"},{"town":"鹿島","koaza":"","lat":32.582191,"lng":130.665267,"zip":"8694815"},{"town":"鹿野","koaza":"","lat":32.590832,"lng":130.659639,"zip":"8694811"},{"town":"河原","koaza":"","lat":32.557869,"lng":130.684489,"zip":"8694806"},{"town":"島地","koaza":"","lat":32.580479,"lng":130.674045,"zip":"8694814"},{"town":"新田","koaza":"","lat":32.584138,"lng":130.686586,"zip":"8694801"},{"town":"高塚","koaza":"","lat":32.577748,"lng":130.704374,"zip":"8694802"},{"town":"立神","koaza":"","lat":32.553531,"lng":130.701415,"zip":"8694603"},{"town":"中島","koaza":"","lat":32.549299,"lng":130.67026,"zip":"8694605"},{"town":"野津","koaza":"","lat":32.570132,"lng":130.682088,"zip":"8694805"},{"town":"早尾","koaza":"","lat":32.539799,"lng":130.689446,"zip":"8694606"},{"town":"宮原","koaza":"","lat":32.554554,"lng":130.685042,"zip":"8694602"},{"town":"宮原栄久","koaza":"","lat":32.556201,"lng":130.682317,"zip":"8694608"},{"town":"吉本","koaza":"","lat":32.582925,"lng":130.704308,"zip":"8694803"},{"town":"若洲","koaza":"","lat":32.60888,"lng":130.638718,"zip":"8694813"}]