[{"town":"小川町江頭","koaza":"","lat":32.59388,"lng":130.701085,"zip":"8690624"},{"town":"小川町小川","koaza":"","lat":32.584941,"lng":130.707545,"zip":"8690621"},{"town":"小川町川尻","koaza":"","lat":32.601127,"lng":130.692731,"zip":"8690623"},{"town":"小川町北小野","koaza":"","lat":32.61652,"lng":130.718603,"zip":"8690601"},{"town":"小川町北海東","koaza":"","lat":32.596173,"lng":130.744131,"zip":"8690616"},{"town":"小川町北新田","koaza":"","lat":32.604139,"lng":130.699948,"zip":"8690631"},{"town":"小川町北部田","koaza":"","lat":32.599501,"lng":130.719588,"zip":"8690604"},{"town":"小川町河江","koaza":"","lat":32.605404,"lng":130.708589,"zip":"8690606"},{"town":"小川町不知火","koaza":"","lat":32.61647,"lng":130.64386,"zip":"8690635"},{"town":"小川町新田","koaza":"","lat":32.595719,"lng":130.684419,"zip":"8690633"},{"town":"小川町新田出","koaza":"","lat":32.61237,"lng":130.679988,"zip":"8690636"},{"town":"小川町住吉","koaza":"","lat":32.605287,"lng":130.666709,"zip":"8690634"},{"town":"小川町中小野","koaza":"","lat":32.614049,"lng":130.726481,"zip":"8690602"},{"town":"小川町西海東","koaza":"","lat":32.585025,"lng":130.733996,"zip":"8690615"},{"town":"小川町西北小川","koaza":"","lat":32.588859,"lng":130.698575,"zip":"8690622"},{"town":"小川町東小川","koaza":"","lat":32.569845,"lng":130.717502,"zip":"8690613"},{"town":"小川町東海東","koaza":"","lat":32.58891,"lng":130.762173,"zip":"8690611"},{"town":"小川町南小川","koaza":"","lat":32.585743,"lng":130.72059,"zip":"8690614"},{"town":"小川町南小野","koaza":"","lat":32.607221,"lng":130.7202,"zip":"8690603"},{"town":"小川町南海東","koaza":"","lat":32.571673,"lng":130.741129,"zip":"8690612"},{"town":"小川町南新田","koaza":"","lat":32.592335,"lng":130.691399,"zip":"8690632"},{"town":"小川町南部田","koaza":"","lat":32.592811,"lng":130.717397,"zip":"8690605"},{"town":"不知火町浦上","koaza":"","lat":32.661449,"lng":130.64537,"zip":"8690563"},{"town":"不知火町永尾","koaza":"","lat":32.648491,"lng":130.611837,"zip":"8693471"},{"town":"不知火町大見","koaza":"","lat":32.639375,"lng":130.586324,"zip":"8693473"},{"town":"不知火町柏原","koaza":"","lat":32.660166,"lng":130.66967,"zip":"8690554"},{"town":"不知火町亀松","koaza":"","lat":32.639513,"lng":130.659461,"zip":"8690561"},{"town":"不知火町高良","koaza":"","lat":32.649533,"lng":130.662798,"zip":"8690552"},{"town":"不知火町小曽部","koaza":"","lat":32.659593,"lng":130.659527,"zip":"8690553"},{"town":"不知火町御領","koaza":"","lat":32.657179,"lng":130.672537,"zip":"8690551"},{"town":"不知火町長崎","koaza":"","lat":32.652872,"lng":130.635376,"zip":"8690562"},{"town":"不知火町松合","koaza":"","lat":32.635667,"lng":130.600551,"zip":"8693472"},{"town":"豊野町糸石","koaza":"","lat":32.635309,"lng":130.761761,"zip":"8614301"},{"town":"豊野町上郷","koaza":"","lat":32.611234,"lng":130.746226,"zip":"8614303"},{"town":"豊野町下郷","koaza":"","lat":32.630689,"lng":130.738821,"zip":"8614304"},{"town":"豊野町巣林","koaza":"","lat":32.645246,"lng":130.764537,"zip":"8614307"},{"town":"豊野町中間","koaza":"","lat":32.61706,"lng":130.768138,"zip":"8614302"},{"town":"豊野町安見","koaza":"","lat":32.661036,"lng":130.759957,"zip":"8614306"},{"town":"豊野町山崎","koaza":"","lat":32.652114,"lng":130.739842,"zip":"8614305"},{"town":"松橋町浅川","koaza":"","lat":32.618365,"lng":130.67139,"zip":"8690544"},{"town":"松橋町内田","koaza":"","lat":32.630069,"lng":130.720721,"zip":"8690522"},{"town":"松橋町浦川内","koaza":"","lat":32.645194,"lng":130.718138,"zip":"8690521"},{"town":"松橋町大野","koaza":"","lat":32.646711,"lng":130.683897,"zip":"8690531"},{"town":"松橋町きらら一丁目","koaza":"","lat":32.645896,"lng":130.67748,"zip":"8690503"},{"town":"松橋町きらら二丁目","koaza":"","lat":32.646029,"lng":130.681537,"zip":"8690503"},{"town":"松橋町きらら三丁目","koaza":"","lat":32.645239,"lng":130.682936,"zip":"8690503"},{"town":"松橋町久具","koaza":"","lat":32.645997,"lng":130.692723,"zip":"8690532"},{"town":"松橋町古保山","koaza":"","lat":32.668618,"lng":130.708126,"zip":"8690512"},{"town":"松橋町砂川","koaza":"","lat":32.609823,"lng":130.667822,"zip":"8690545"},{"town":"松橋町竹崎","koaza":"","lat":32.622011,"lng":130.715779,"zip":"8690523"},{"town":"松橋町豊崎","koaza":"","lat":32.63696,"lng":130.678757,"zip":"8690542"},{"town":"松橋町豊福","koaza":"","lat":32.637007,"lng":130.703386,"zip":"8690524"},{"town":"松橋町西下郷","koaza":"","lat":32.631056,"lng":130.68909,"zip":"8690534"},{"town":"松橋町萩尾","koaza":"","lat":32.6608,"lng":130.720138,"zip":"8690513"},{"town":"松橋町東松崎","koaza":"","lat":32.639375,"lng":130.67018,"zip":"8690541"},{"town":"松橋町曲野","koaza":"","lat":32.661014,"lng":130.695766,"zip":"8690511"},{"town":"松橋町松橋","koaza":"","lat":32.654159,"lng":130.680237,"zip":"8690502"},{"town":"松橋町松山","koaza":"","lat":32.660147,"lng":130.682042,"zip":"8690501"},{"town":"松橋町南豊崎","koaza":"","lat":32.625155,"lng":130.674952,"zip":"8690543"},{"town":"松橋町御船","koaza":"","lat":32.625964,"lng":130.65942,"zip":"8690546"},{"town":"松橋町両仲間","koaza":"","lat":32.629309,"lng":130.698664,"zip":"8690533"},{"town":"三角町大口","koaza":"","lat":32.629357,"lng":130.578638,"zip":"8693411"},{"town":"三角町郡浦","koaza":"","lat":32.637351,"lng":130.546269,"zip":"8693202"},{"town":"三角町里浦","koaza":"","lat":32.638803,"lng":130.56031,"zip":"8693413"},{"town":"三角町手場","koaza":"","lat":32.637776,"lng":130.570851,"zip":"8693412"},{"town":"三角町戸馳","koaza":"","lat":32.593359,"lng":130.4959,"zip":"8693203"},{"town":"三角町中村","koaza":"","lat":32.633843,"lng":130.520891,"zip":"8693204"},{"town":"三角町波多","koaza":"","lat":32.626102,"lng":130.485626,"zip":"8693205"},{"town":"三角町前越","koaza":"","lat":32.618561,"lng":130.512381,"zip":"8693206"},{"town":"三角町三角浦","koaza":"","lat":32.619886,"lng":130.462532,"zip":"8693207"},{"town":"三角町大田尾","koaza":"","lat":32.635059,"lng":130.478459,"zip":"8693201"},{"town":"不知火町御領","koaza":"東原","lat":32.655719,"lng":130.673203,"zip":"8690551"},{"town":"松橋町松橋","koaza":"浜田","lat":32.649813,"lng":130.674313,"zip":"8690502"},{"town":"小川町江頭","koaza":"正ノ浜","lat":32.597736,"lng":130.701915,"zip":"8690624"}]