[{"town":"赤瀬町","koaza":"","lat":32.653843,"lng":130.514998,"zip":"8693175"},{"town":"旭町","koaza":"","lat":32.685225,"lng":130.665676,"zip":"8690432"},{"town":"網引町","koaza":"","lat":32.668254,"lng":130.597563,"zip":"8690465"},{"town":"網津町","koaza":"","lat":32.696949,"lng":130.604151,"zip":"8690461"},{"town":"石小路町","koaza":"","lat":32.688468,"lng":130.662484,"zip":"8690441"},{"town":"石橋町","koaza":"","lat":32.675509,"lng":130.640292,"zip":"8690456"},{"town":"一里木町","koaza":"","lat":32.680938,"lng":130.659265,"zip":"8690435"},{"town":"伊無田町","koaza":"","lat":32.671594,"lng":130.660267,"zip":"8690423"},{"town":"入地町","koaza":"","lat":32.678289,"lng":130.659169,"zip":"8690422"},{"town":"岩古曽町","koaza":"","lat":32.688117,"lng":130.686674,"zip":"8690412"},{"town":"馬之瀬町","koaza":"","lat":32.698466,"lng":130.660177,"zip":"8690405"},{"town":"浦田町","koaza":"","lat":32.686671,"lng":130.658704,"zip":"8690445"},{"town":"恵塚町","koaza":"","lat":32.686932,"lng":130.63378,"zip":"8690464"},{"town":"上網田町","koaza":"","lat":32.669802,"lng":130.570715,"zip":"8693172"},{"town":"北段原町","koaza":"","lat":32.689427,"lng":130.65662,"zip":"8690451"},{"town":"栗崎町","koaza":"","lat":32.67005,"lng":130.652545,"zip":"8690425"},{"town":"神合町","koaza":"","lat":32.670992,"lng":130.637241,"zip":"8690426"},{"town":"古保里町","koaza":"","lat":32.678137,"lng":130.680855,"zip":"8690415"},{"town":"古城町","koaza":"","lat":32.681253,"lng":130.652886,"zip":"8690454"},{"town":"境目町","koaza":"","lat":32.677338,"lng":130.672403,"zip":"8690417"},{"town":"栄町","koaza":"","lat":32.686058,"lng":130.65507,"zip":"8690453"},{"town":"笹原町","koaza":"","lat":32.704732,"lng":130.616675,"zip":"8690402"},{"town":"三拾町","koaza":"","lat":32.699458,"lng":130.665586,"zip":"8690406"},{"town":"下網田町","koaza":"","lat":32.663007,"lng":130.545405,"zip":"8693173"},{"town":"城塚町","koaza":"","lat":32.689783,"lng":130.617207,"zip":"8690462"},{"town":"城之浦町","koaza":"","lat":32.691335,"lng":130.667578,"zip":"8690442"},{"town":"定府町","koaza":"","lat":32.681896,"lng":130.656179,"zip":"8690436"},{"town":"新開町","koaza":"","lat":32.703653,"lng":130.628176,"zip":"8690403"},{"town":"新小路町","koaza":"","lat":32.684268,"lng":130.662261,"zip":"8690433"},{"town":"新町一丁目","koaza":"","lat":32.683972,"lng":130.656661,"zip":"8690444"},{"town":"新町二丁目","koaza":"","lat":32.684504,"lng":130.658529,"zip":"8690444"},{"town":"新町三丁目","koaza":"","lat":32.68532,"lng":130.659609,"zip":"8690444"},{"town":"新町四丁目","koaza":"","lat":32.686038,"lng":130.660492,"zip":"8690444"},{"town":"新松原町","koaza":"","lat":32.688398,"lng":130.670487,"zip":"8690419"},{"town":"神馬町","koaza":"","lat":32.678999,"lng":130.646927,"zip":"8690424"},{"town":"住吉町","koaza":"","lat":32.703563,"lng":130.594011,"zip":"8690401"},{"town":"善道寺町","koaza":"","lat":32.682892,"lng":130.670707,"zip":"8690418"},{"town":"船場町","koaza":"","lat":32.68701,"lng":130.66173,"zip":"8690443"},{"town":"高柳町","koaza":"","lat":32.687608,"lng":130.652008,"zip":"8690452"},{"town":"立岡町","koaza":"","lat":32.673911,"lng":130.688375,"zip":"8690414"},{"town":"築籠町","koaza":"","lat":32.693186,"lng":130.65546,"zip":"8690408"},{"town":"椿原町","koaza":"","lat":32.68544,"lng":130.645281,"zip":"8690455"},{"town":"戸口町","koaza":"","lat":32.669175,"lng":130.544053,"zip":"8693174"},{"town":"長浜町","koaza":"","lat":32.690433,"lng":130.571262,"zip":"8693171"},{"town":"野鶴町","koaza":"","lat":32.69226,"lng":130.628429,"zip":"8690463"},{"town":"走潟町","koaza":"","lat":32.705019,"lng":130.64591,"zip":"8690404"},{"town":"花園台町","koaza":"","lat":32.680607,"lng":130.689492,"zip":"8690410"},{"town":"花園町","koaza":"","lat":32.679615,"lng":130.704192,"zip":"8690413"},{"town":"本町一丁目","koaza":"","lat":32.682523,"lng":130.657829,"zip":"8690431"},{"town":"本町二丁目","koaza":"","lat":32.683857,"lng":130.659315,"zip":"8690431"},{"town":"本町三丁目","koaza":"","lat":32.684621,"lng":130.660282,"zip":"8690431"},{"town":"本町四丁目","koaza":"","lat":32.685651,"lng":130.661616,"zip":"8690431"},{"town":"本町五丁目","koaza":"","lat":32.686527,"lng":130.662929,"zip":"8690431"},{"town":"本町六丁目","koaza":"","lat":32.687964,"lng":130.663954,"zip":"8690431"},{"town":"松山町","koaza":"","lat":32.668008,"lng":130.673584,"zip":"8690416"},{"town":"松原町","koaza":"","lat":32.694701,"lng":130.66488,"zip":"8690407"},{"town":"水町","koaza":"","lat":32.69034,"lng":130.672819,"zip":"8690411"},{"town":"南段原町","koaza":"","lat":32.680759,"lng":130.662687,"zip":"8690421"},{"town":"宮庄町","koaza":"","lat":32.67684,"lng":130.623053,"zip":"8690457"},{"town":"門内町","koaza":"","lat":32.682311,"lng":130.660164,"zip":"8690434"},{"town":"善道寺町","koaza":"綾織","lat":32.684438,"lng":130.668616,"zip":"8690418"},{"town":"境目町","koaza":"柳町","lat":32.677825,"lng":130.670024,"zip":"8690417"},{"town":"境目町","koaza":"綾織","lat":32.679568,"lng":130.671096,"zip":"8690417"},{"town":"新松原町","koaza":"佐野免","lat":32.685928,"lng":130.672496,"zip":"8690419"}]