[{"town":"麻生野","koaza":"","lat":33.014657,"lng":130.649824,"zip":"8610547"},{"town":"石","koaza":"","lat":33.02512,"lng":130.676158,"zip":"8610553"},{"town":"泉町","koaza":"","lat":33.016144,"lng":130.685829,"zip":"8610512"},{"town":"大橋通","koaza":"","lat":33.012798,"lng":130.684753,"zip":"8610517"},{"town":"小坂","koaza":"","lat":33.077468,"lng":130.714876,"zip":"8610521"},{"town":"小原","koaza":"","lat":33.000693,"lng":130.6626,"zip":"8610543"},{"town":"小群","koaza":"","lat":33.042372,"lng":130.659788,"zip":"8610555"},{"town":"鹿央町合里","koaza":"","lat":32.971838,"lng":130.667471,"zip":"8610565"},{"town":"鹿央町岩原","koaza":"","lat":32.989006,"lng":130.676516,"zip":"8610561"},{"town":"鹿央町梅木谷","koaza":"","lat":32.954355,"lng":130.647021,"zip":"8610574"},{"town":"鹿央町大浦","koaza":"","lat":32.955582,"lng":130.641967,"zip":"8610576"},{"town":"鹿央町北谷","koaza":"","lat":32.953369,"lng":130.657797,"zip":"8610571"},{"town":"鹿央町霜野","koaza":"","lat":32.940376,"lng":130.652463,"zip":"8610573"},{"town":"鹿央町千田","koaza":"","lat":32.975318,"lng":130.697149,"zip":"8610563"},{"town":"鹿央町中浦","koaza":"","lat":32.954794,"lng":130.634384,"zip":"8610575"},{"town":"鹿央町仁王堂","koaza":"","lat":32.947991,"lng":130.658118,"zip":"8610572"},{"town":"鹿央町広","koaza":"","lat":32.963199,"lng":130.6874,"zip":"8610564"},{"town":"鹿央町持松","koaza":"","lat":32.983982,"lng":130.692643,"zip":"8610562"},{"town":"鹿校通一丁目","koaza":"","lat":33.012658,"lng":130.704332,"zip":"8610532"},{"town":"鹿校通二丁目","koaza":"","lat":33.009446,"lng":130.703496,"zip":"8610532"},{"town":"鹿校通三丁目","koaza":"","lat":33.011171,"lng":130.708293,"zip":"8610532"},{"town":"鹿校通四丁目","koaza":"","lat":33.013268,"lng":130.709126,"zip":"8610532"},{"town":"方保田","koaza":"","lat":33.002666,"lng":130.718446,"zip":"8610382"},{"town":"鹿北町芋生","koaza":"","lat":33.085705,"lng":130.675233,"zip":"8610602"},{"town":"鹿北町岩野","koaza":"","lat":33.133436,"lng":130.687289,"zip":"8610603"},{"town":"鹿北町椎持","koaza":"","lat":33.127013,"lng":130.737669,"zip":"8610604"},{"town":"鹿北町四丁","koaza":"","lat":33.097528,"lng":130.708554,"zip":"8610602"},{"town":"鹿北町多久","koaza":"","lat":33.106607,"lng":130.762988,"zip":"8610605"},{"town":"上吉田","koaza":"","lat":33.044263,"lng":130.708022,"zip":"8610524"},{"town":"蒲生","koaza":"","lat":33.02428,"lng":130.740161,"zip":"8610523"},{"town":"鹿本町石渕","koaza":"","lat":32.995776,"lng":130.759921,"zip":"8610311"},{"town":"鹿本町小嶋","koaza":"","lat":32.99437,"lng":130.74555,"zip":"8610315"},{"town":"鹿本町梶屋","koaza":"","lat":32.985297,"lng":130.750212,"zip":"8610312"},{"town":"鹿本町来民","koaza":"","lat":33.004877,"lng":130.7445,"zip":"8610331"},{"town":"鹿本町小柳","koaza":"","lat":32.989083,"lng":130.710785,"zip":"8610324"},{"town":"鹿本町下高橋","koaza":"","lat":32.99702,"lng":130.750444,"zip":"8610316"},{"town":"鹿本町下分田","koaza":"","lat":32.987818,"lng":130.718668,"zip":"8610323"},{"town":"鹿本町庄","koaza":"","lat":33.012362,"lng":130.766238,"zip":"8610301"},{"town":"鹿本町高橋","koaza":"","lat":33.006308,"lng":130.754718,"zip":"8610303"},{"town":"鹿本町津袋","koaza":"","lat":33.015754,"lng":130.756785,"zip":"8610302"},{"town":"鹿本町中川","koaza":"","lat":32.982051,"lng":130.737598,"zip":"8610314"},{"town":"鹿本町中富","koaza":"","lat":32.98437,"lng":130.742405,"zip":"8610313"},{"town":"鹿本町中分田","koaza":"","lat":32.984327,"lng":130.722685,"zip":"8610322"},{"town":"鹿本町分田","koaza":"","lat":32.982182,"lng":130.729118,"zip":"8610321"},{"town":"鹿本町御宇田","koaza":"","lat":33.008506,"lng":130.734125,"zip":"8610304"},{"town":"川端町","koaza":"","lat":33.015832,"lng":130.680061,"zip":"8610519"},{"town":"菊鹿町相良","koaza":"","lat":33.073718,"lng":130.769202,"zip":"8610412"},{"town":"菊鹿町阿佐古","koaza":"","lat":33.04099,"lng":130.800354,"zip":"8610421"},{"town":"菊鹿町池永","koaza":"","lat":33.028729,"lng":130.793481,"zip":"8610423"},{"town":"菊鹿町太田","koaza":"","lat":33.04395,"lng":130.769569,"zip":"8610402"},{"town":"菊鹿町上内田","koaza":"","lat":33.068167,"lng":130.796583,"zip":"8610414"},{"town":"菊鹿町上永野","koaza":"","lat":33.049654,"lng":130.811983,"zip":"8610404"},{"town":"菊鹿町木野","koaza":"","lat":33.007624,"lng":130.776241,"zip":"8610426"},{"town":"菊鹿町五郎丸","koaza":"","lat":33.0537,"lng":130.786656,"zip":"8610403"},{"town":"菊鹿町下内田","koaza":"","lat":33.029213,"lng":130.757364,"zip":"8610406"},{"town":"菊鹿町下永野","koaza":"","lat":33.028977,"lng":130.774758,"zip":"8610405"},{"town":"菊鹿町長","koaza":"","lat":33.047385,"lng":130.751276,"zip":"8610401"},{"town":"菊鹿町松尾","koaza":"","lat":33.017289,"lng":130.793278,"zip":"8610424"},{"town":"菊鹿町宮原","koaza":"","lat":33.033748,"lng":130.781312,"zip":"8610422"},{"town":"菊鹿町矢谷","koaza":"","lat":33.088376,"lng":130.805729,"zip":"8610413"},{"town":"菊鹿町山内","koaza":"","lat":33.070853,"lng":130.7491,"zip":"8610411"},{"town":"菊鹿町米原","koaza":"","lat":33.005677,"lng":130.789128,"zip":"8610425"},{"town":"久原","koaza":"","lat":33.038008,"lng":130.72332,"zip":"8610522"},{"town":"熊入町","koaza":"","lat":33.027765,"lng":130.686895,"zip":"8610511"},{"town":"古閑","koaza":"","lat":33.009394,"lng":130.713476,"zip":"8610533"},{"town":"坂田","koaza":"","lat":32.995354,"lng":130.650055,"zip":"8610546"},{"town":"志々岐","koaza":"","lat":33.006648,"lng":130.677584,"zip":"8610542"},{"town":"下吉田","koaza":"","lat":33.02673,"lng":130.696168,"zip":"8610526"},{"town":"城","koaza":"","lat":33.039834,"lng":130.671177,"zip":"8610554"},{"town":"昭和町","koaza":"","lat":33.013342,"lng":130.686389,"zip":"8610515"},{"town":"新町","koaza":"","lat":33.018529,"lng":130.682381,"zip":"8610514"},{"town":"杉","koaza":"","lat":33.036574,"lng":130.684274,"zip":"8610552"},{"town":"中央通","koaza":"","lat":33.01559,"lng":130.683843,"zip":"8610516"},{"town":"椿井","koaza":"","lat":33.018914,"lng":130.637797,"zip":"8610548"},{"town":"津留","koaza":"","lat":33.058019,"lng":130.680811,"zip":"8610551"},{"town":"寺島","koaza":"","lat":33.051031,"lng":130.695601,"zip":"8610527"},{"town":"中","koaza":"","lat":33.012596,"lng":130.700369,"zip":"8610516"},{"town":"長坂","koaza":"","lat":32.992722,"lng":130.704342,"zip":"8610534"},{"town":"名塚","koaza":"","lat":33.032089,"lng":130.700109,"zip":"8610525"},{"town":"鍋田","koaza":"","lat":33.022839,"lng":130.655835,"zip":"8610541"},{"town":"西牧","koaza":"","lat":33.003179,"lng":130.654253,"zip":"8610545"},{"town":"平山","koaza":"","lat":33.064808,"lng":130.649648,"zip":"8610556"},{"town":"藤井","koaza":"","lat":32.990484,"lng":130.731027,"zip":"8610381"},{"town":"保多田","koaza":"","lat":33.012707,"lng":130.659533,"zip":"8610544"},{"town":"南島","koaza":"","lat":32.999799,"lng":130.695905,"zip":"8610535"},{"town":"宗方","koaza":"","lat":33.011076,"lng":130.684127,"zip":"8610513"},{"town":"宗方通","koaza":"","lat":33.012593,"lng":130.68176,"zip":"8610518"},{"town":"山鹿","koaza":"","lat":33.014351,"lng":130.693863,"zip":"8610501"},{"town":"中","koaza":"伏鍋","lat":33.019529,"lng":130.702996,"zip":"8610516"},{"town":"方保田","koaza":"堤の下","lat":33.006527,"lng":130.719814,"zip":"8610382"},{"town":"方保田","koaza":"鳥越","lat":33.006555,"lng":130.723311,"zip":"8610382"}]