[{"town":"旭町一丁目","koaza":"","lat":32.208249,"lng":130.40107,"zip":"8670044"},{"town":"旭町二丁目","koaza":"","lat":32.208027,"lng":130.402859,"zip":"8670044"},{"town":"洗切町","koaza":"","lat":32.215057,"lng":130.40267,"zip":"8670063"},{"town":"石坂川","koaza":"","lat":32.153139,"lng":130.49201,"zip":"8670174"},{"town":"市渡瀬","koaza":"","lat":32.176135,"lng":130.492072,"zip":"8670172"},{"town":"梅戸町一丁目","koaza":"","lat":32.208108,"lng":130.387063,"zip":"8670056"},{"town":"梅戸町二丁目","koaza":"","lat":32.210649,"lng":130.382598,"zip":"8670056"},{"town":"浦上町","koaza":"","lat":32.196934,"lng":130.386042,"zip":"8670036"},{"town":"江添","koaza":"","lat":32.191588,"lng":130.401404,"zip":"8670032"},{"town":"江南町","koaza":"","lat":32.202358,"lng":130.405337,"zip":"8670022"},{"town":"大川","koaza":"","lat":32.17443,"lng":130.579563,"zip":"8670283"},{"town":"大迫","koaza":"","lat":32.225636,"lng":130.428537,"zip":"8670009"},{"town":"大園町一丁目","koaza":"","lat":32.209358,"lng":130.40289,"zip":"8670042"},{"town":"大園町二丁目","koaza":"","lat":32.20795,"lng":130.404902,"zip":"8670042"},{"town":"大園町三丁目","koaza":"","lat":32.208336,"lng":130.40623,"zip":"8670042"},{"town":"祇園町","koaza":"","lat":32.212613,"lng":130.383148,"zip":"8670057"},{"town":"久木野","koaza":"","lat":32.183431,"lng":130.539894,"zip":"8670281"},{"town":"葛渡","koaza":"","lat":32.156245,"lng":130.467039,"zip":"8670173"},{"town":"古賀町一丁目","koaza":"","lat":32.210813,"lng":130.400128,"zip":"8670066"},{"town":"古賀町二丁目","koaza":"","lat":32.213437,"lng":130.397562,"zip":"8670066"},{"town":"越小場","koaza":"","lat":32.155409,"lng":130.525461,"zip":"8670284"},{"town":"古城一丁目","koaza":"","lat":32.207652,"lng":130.417134,"zip":"8670012"},{"town":"古城二丁目","koaza":"","lat":32.205554,"lng":130.414083,"zip":"8670012"},{"town":"古城三丁目","koaza":"","lat":32.207406,"lng":130.422739,"zip":"8670012"},{"town":"小津奈木","koaza":"","lat":32.210247,"lng":130.443764,"zip":"8670001"},{"town":"幸町","koaza":"","lat":32.21386,"lng":130.404795,"zip":"8670064"},{"town":"栄町一丁目","koaza":"","lat":32.208959,"lng":130.397611,"zip":"8670059"},{"town":"栄町二丁目","koaza":"","lat":32.210772,"lng":130.39756,"zip":"8670059"},{"town":"桜井町一丁目","koaza":"","lat":32.2057,"lng":130.397083,"zip":"8670045"},{"town":"桜井町二丁目","koaza":"","lat":32.204949,"lng":130.394843,"zip":"8670045"},{"town":"桜井町三丁目","koaza":"","lat":32.20715,"lng":130.39804,"zip":"8670045"},{"town":"桜ケ丘","koaza":"","lat":32.221302,"lng":130.410278,"zip":"8670007"},{"town":"塩浜町","koaza":"","lat":32.216214,"lng":130.392056,"zip":"8670067"},{"town":"汐見町一丁目","koaza":"","lat":32.203248,"lng":130.381264,"zip":"8670054"},{"town":"汐見町二丁目","koaza":"","lat":32.205334,"lng":130.387576,"zip":"8670054"},{"town":"昭和町一丁目","koaza":"","lat":32.205602,"lng":130.394906,"zip":"8670051"},{"town":"昭和町二丁目","koaza":"","lat":32.207741,"lng":130.397526,"zip":"8670051"},{"town":"白浜町","koaza":"","lat":32.221214,"lng":130.403102,"zip":"8670006"},{"town":"陣内一丁目","koaza":"","lat":32.211185,"lng":130.408997,"zip":"8670011"},{"town":"陣内二丁目","koaza":"","lat":32.208621,"lng":130.410024,"zip":"8670011"},{"town":"薄原","koaza":"","lat":32.166133,"lng":130.456743,"zip":"8670016"},{"town":"大黒町一丁目","koaza":"","lat":32.209183,"lng":130.401001,"zip":"8670043"},{"town":"大黒町二丁目","koaza":"","lat":32.209607,"lng":130.400582,"zip":"8670043"},{"town":"多々良町","koaza":"","lat":32.201917,"lng":130.395806,"zip":"8670048"},{"town":"中央公園","koaza":"","lat":32.208831,"lng":130.407384,"zip":"8670000"},{"town":"陳内","koaza":"","lat":32.216012,"lng":130.419119,"zip":"8670000"},{"town":"築地","koaza":"","lat":32.21908,"lng":130.399566,"zip":"8670062"},{"town":"月浦","koaza":"","lat":32.192181,"lng":130.386936,"zip":"8670035"},{"town":"天神町一丁目","koaza":"","lat":32.210189,"lng":130.405967,"zip":"8670041"},{"town":"天神町二丁目","koaza":"","lat":32.211368,"lng":130.406348,"zip":"8670041"},{"town":"長崎","koaza":"","lat":32.162467,"lng":130.418626,"zip":"8670033"},{"town":"中鶴","koaza":"","lat":32.194229,"lng":130.435541,"zip":"8670014"},{"town":"長野","koaza":"","lat":32.183401,"lng":130.416623,"zip":"8670024"},{"town":"長野町","koaza":"","lat":32.201485,"lng":130.422859,"zip":"8670013"},{"town":"南福寺","koaza":"","lat":32.194317,"lng":130.418734,"zip":"8670023"},{"town":"野口町","koaza":"","lat":32.207367,"lng":130.392421,"zip":"8670053"},{"town":"八ノ窪町一丁目","koaza":"","lat":32.200284,"lng":130.392269,"zip":"8670031"},{"town":"八ノ窪町二丁目","koaza":"","lat":32.199501,"lng":130.389571,"zip":"8670031"},{"town":"八幡町一丁目","koaza":"","lat":32.214883,"lng":130.400784,"zip":"8670061"},{"town":"八幡町二丁目","koaza":"","lat":32.21542,"lng":130.399694,"zip":"8670061"},{"town":"八幡町三丁目","koaza":"","lat":32.217424,"lng":130.40234,"zip":"8670061"},{"town":"初野","koaza":"","lat":32.205768,"lng":130.432778,"zip":"8670002"},{"town":"浜","koaza":"","lat":32.228802,"lng":130.407227,"zip":"8670008"},{"town":"浜町一丁目","koaza":"","lat":32.211347,"lng":130.40401,"zip":"8670065"},{"town":"浜町二丁目","koaza":"","lat":32.211867,"lng":130.402148,"zip":"8670065"},{"town":"浜町三丁目","koaza":"","lat":32.212667,"lng":130.400692,"zip":"8670065"},{"town":"浜松町","koaza":"","lat":32.218886,"lng":130.394519,"zip":"8670068"},{"town":"ひばりケ丘","koaza":"","lat":32.211736,"lng":130.425,"zip":"8670003"},{"town":"百間町一丁目","koaza":"","lat":32.20214,"lng":130.391043,"zip":"8670049"},{"town":"百間町二丁目","koaza":"","lat":32.200186,"lng":130.388243,"zip":"8670049"},{"town":"平町一丁目","koaza":"","lat":32.205566,"lng":130.403244,"zip":"8670021"},{"town":"平町二丁目","koaza":"","lat":32.206147,"lng":130.40528,"zip":"8670021"},{"town":"深川","koaza":"","lat":32.182125,"lng":130.442204,"zip":"8670015"},{"town":"袋","koaza":"","lat":32.15698,"lng":130.391746,"zip":"8670034"},{"town":"古里","koaza":"","lat":32.165157,"lng":130.550572,"zip":"8670282"},{"town":"宝川内","koaza":"","lat":32.190552,"lng":130.482318,"zip":"8670171"},{"town":"牧ノ内","koaza":"","lat":32.221034,"lng":130.415584,"zip":"8670005"},{"town":"丸島町一丁目","koaza":"","lat":32.212619,"lng":130.392797,"zip":"8670058"},{"town":"丸島町二丁目","koaza":"","lat":32.215061,"lng":130.388462,"zip":"8670058"},{"town":"丸島町三丁目","koaza":"","lat":32.210996,"lng":130.388679,"zip":"8670058"},{"town":"緑ケ丘","koaza":"","lat":32.203575,"lng":130.402438,"zip":"8670047"},{"town":"港町一丁目","koaza":"","lat":32.203232,"lng":130.391517,"zip":"8670052"},{"town":"港町二丁目","koaza":"","lat":32.200696,"lng":130.387591,"zip":"8670052"},{"town":"港町三丁目","koaza":"","lat":32.198879,"lng":130.384789,"zip":"8670052"},{"town":"明神町","koaza":"","lat":32.197409,"lng":130.364811,"zip":"8670055"},{"town":"山手町一丁目","koaza":"","lat":32.20555,"lng":130.398745,"zip":"8670046"},{"town":"山手町二丁目","koaza":"","lat":32.203313,"lng":130.398317,"zip":"8670046"},{"town":"湯出","koaza":"","lat":32.147873,"lng":130.446337,"zip":"8670025"},{"town":"わらび野","koaza":"","lat":32.211285,"lng":130.411211,"zip":"8670004"},{"town":"薄原","koaza":"桜野","lat":32.173215,"lng":130.445264,"zip":"8670016"},{"town":"小津奈木","koaza":"大丸","lat":32.219705,"lng":130.438551,"zip":"8670001"}]