[{"town":"麻生田一丁目","koaza":"","lat":32.846615,"lng":130.74077,"zip":"8618081"},{"town":"麻生田二丁目","koaza":"","lat":32.847033,"lng":130.744272,"zip":"8618081"},{"town":"麻生田三丁目","koaza":"","lat":32.850361,"lng":130.743923,"zip":"8618081"},{"town":"麻生田四丁目","koaza":"","lat":32.851353,"lng":130.74863,"zip":"8618081"},{"town":"麻生田五丁目","koaza":"","lat":32.853508,"lng":130.74847,"zip":"8618081"},{"town":"改寄町","koaza":"","lat":32.891608,"lng":130.708202,"zip":"8615501"},{"town":"池田三丁目","koaza":"","lat":32.833997,"lng":130.704939,"zip":"8600082"},{"town":"和泉町","koaza":"","lat":32.852105,"lng":130.687827,"zip":"8615533"},{"town":"植木町鐙田","koaza":"","lat":32.877352,"lng":130.69019,"zip":"8610142"},{"town":"植木町有泉","koaza":"","lat":32.921694,"lng":130.716537,"zip":"8610123"},{"town":"植木町石川","koaza":"","lat":32.906312,"lng":130.718976,"zip":"8610124"},{"town":"植木町伊知坊","koaza":"","lat":32.950293,"lng":130.721056,"zip":"8610113"},{"town":"植木町今藤","koaza":"","lat":32.942125,"lng":130.697757,"zip":"8610104"},{"town":"植木町岩野","koaza":"","lat":32.913557,"lng":130.699292,"zip":"8610136"},{"town":"植木町植木","koaza":"","lat":32.898541,"lng":130.692207,"zip":"8610132"},{"town":"植木町上古閑","koaza":"","lat":32.876866,"lng":130.65022,"zip":"8610152"},{"town":"植木町後古閑","koaza":"","lat":32.90046,"lng":130.670032,"zip":"8610156"},{"town":"植木町内","koaza":"","lat":32.936216,"lng":130.683887,"zip":"8610102"},{"town":"植木町円台寺","koaza":"","lat":32.88363,"lng":130.654221,"zip":"8610153"},{"town":"植木町大井","koaza":"","lat":32.925187,"lng":130.708446,"zip":"8610126"},{"town":"植木町荻迫","koaza":"","lat":32.881649,"lng":130.677773,"zip":"8610145"},{"town":"植木町小野","koaza":"","lat":32.905895,"lng":130.712934,"zip":"8610125"},{"town":"植木町亀甲","koaza":"","lat":32.930563,"lng":130.704419,"zip":"8610127"},{"town":"植木町木留","koaza":"","lat":32.870802,"lng":130.647426,"zip":"8610151"},{"town":"植木町清水","koaza":"","lat":32.946047,"lng":130.682056,"zip":"8610103"},{"town":"植木町鞍掛","koaza":"","lat":32.906722,"lng":130.678924,"zip":"8610161"},{"town":"植木町古閑","koaza":"","lat":32.922419,"lng":130.724194,"zip":"8610122"},{"town":"植木町色出","koaza":"","lat":32.952832,"lng":130.703147,"zip":"8610116"},{"town":"植木町正清","koaza":"","lat":32.964965,"lng":130.711665,"zip":"8610117"},{"town":"植木町鈴麦","koaza":"","lat":32.923518,"lng":130.645017,"zip":"8610164"},{"town":"植木町大和","koaza":"","lat":32.881513,"lng":130.670713,"zip":"8610143"},{"town":"植木町田底","koaza":"","lat":32.965891,"lng":130.724346,"zip":"8610112"},{"town":"植木町滴水","koaza":"","lat":32.889592,"lng":130.670727,"zip":"8610133"},{"town":"植木町轟","koaza":"","lat":32.897488,"lng":130.663549,"zip":"8610155"},{"town":"植木町富応","koaza":"","lat":32.915501,"lng":130.670891,"zip":"8610162"},{"town":"植木町豊岡","koaza":"","lat":32.912378,"lng":130.651896,"zip":"8610163"},{"town":"植木町豊田","koaza":"","lat":32.9421,"lng":130.710802,"zip":"8610106"},{"town":"植木町投刀塚","koaza":"","lat":32.88665,"lng":130.688555,"zip":"8610141"},{"town":"植木町那知","koaza":"","lat":32.894064,"lng":130.652819,"zip":"8610154"},{"town":"植木町一木","koaza":"","lat":32.907742,"lng":130.688713,"zip":"8610135"},{"town":"植木町平井","koaza":"","lat":32.937499,"lng":130.72341,"zip":"8610121"},{"town":"植木町平野","koaza":"","lat":32.887409,"lng":130.677701,"zip":"8610144"},{"town":"植木町平原","koaza":"","lat":32.92736,"lng":130.656686,"zip":"8610165"},{"town":"植木町広住","koaza":"","lat":32.898853,"lng":130.705183,"zip":"8610131"},{"town":"植木町舟島","koaza":"","lat":32.946391,"lng":130.721867,"zip":"8610114"},{"town":"植木町辺田野","koaza":"","lat":32.871337,"lng":130.665806,"zip":"8610146"},{"town":"植木町味取","koaza":"","lat":32.9241,"lng":130.693106,"zip":"8610105"},{"town":"植木町宮原","koaza":"","lat":32.972523,"lng":130.713797,"zip":"8610111"},{"town":"植木町舞尾","koaza":"","lat":32.900603,"lng":130.684944,"zip":"8610134"},{"town":"植木町山本","koaza":"","lat":32.92326,"lng":130.678737,"zip":"8610101"},{"town":"植木町米塚","koaza":"","lat":32.95521,"lng":130.720127,"zip":"8610115"},{"town":"兎谷一丁目","koaza":"","lat":32.838478,"lng":130.730976,"zip":"8618082"},{"town":"兎谷二丁目","koaza":"","lat":32.839843,"lng":130.739237,"zip":"8618082"},{"town":"兎谷三丁目","koaza":"","lat":32.841319,"lng":130.746108,"zip":"8618082"},{"town":"打越町","koaza":"","lat":32.828099,"lng":130.716809,"zip":"8600086"},{"town":"大窪一丁目","koaza":"","lat":32.844638,"lng":130.711329,"zip":"8600083"},{"town":"大窪二丁目","koaza":"","lat":32.851818,"lng":130.710718,"zip":"8600083"},{"town":"大窪三丁目","koaza":"","lat":32.849132,"lng":130.712014,"zip":"8600083"},{"town":"大窪四丁目","koaza":"","lat":32.847675,"lng":130.716014,"zip":"8600083"},{"town":"大窪五丁目","koaza":"","lat":32.850397,"lng":130.715163,"zip":"8600083"},{"town":"大鳥居町","koaza":"","lat":32.881835,"lng":130.720806,"zip":"8615502"},{"town":"梶尾町","koaza":"","lat":32.872935,"lng":130.723339,"zip":"8615512"},{"town":"鹿子木町","koaza":"","lat":32.871593,"lng":130.69946,"zip":"8615521"},{"town":"釜尾町","koaza":"","lat":32.836968,"lng":130.691396,"zip":"8615534"},{"town":"北迫町","koaza":"","lat":32.869297,"lng":130.684869,"zip":"8615531"},{"town":"楠一丁目","koaza":"","lat":32.845452,"lng":130.756246,"zip":"8618003"},{"town":"楠二丁目","koaza":"","lat":32.845716,"lng":130.759351,"zip":"8618003"},{"town":"楠三丁目","koaza":"","lat":32.848306,"lng":130.756068,"zip":"8618003"},{"town":"楠四丁目","koaza":"","lat":32.848522,"lng":130.75911,"zip":"8618003"},{"town":"楠五丁目","koaza":"","lat":32.850994,"lng":130.757599,"zip":"8618003"},{"town":"楠六丁目","koaza":"","lat":32.851614,"lng":130.761761,"zip":"8618003"},{"town":"楠七丁目","koaza":"","lat":32.847548,"lng":130.761606,"zip":"8618003"},{"town":"楠八丁目","koaza":"","lat":32.848608,"lng":130.765635,"zip":"8618003"},{"town":"楠野町","koaza":"","lat":32.876896,"lng":130.707496,"zip":"8615511"},{"town":"黒髪七丁目","koaza":"","lat":32.82061,"lng":130.747394,"zip":"8600862"},{"town":"黒髪町大字坪井","koaza":"","lat":32.822952,"lng":130.719606,"zip":"8610000"},{"town":"小糸山町","koaza":"","lat":32.889018,"lng":130.693916,"zip":"8615504"},{"town":"清水岩倉一丁目","koaza":"","lat":32.841122,"lng":130.737247,"zip":"8618084"},{"town":"清水岩倉二丁目","koaza":"","lat":32.843192,"lng":130.741269,"zip":"8618084"},{"town":"清水岩倉三丁目","koaza":"","lat":32.844386,"lng":130.744964,"zip":"8618084"},{"town":"清水亀井町","koaza":"","lat":32.838254,"lng":130.723266,"zip":"8618066"},{"town":"清水新地一丁目","koaza":"","lat":32.84878,"lng":130.730908,"zip":"8618075"},{"town":"清水新地二丁目","koaza":"","lat":32.848706,"lng":130.734312,"zip":"8618075"},{"town":"清水新地三丁目","koaza":"","lat":32.848937,"lng":130.738435,"zip":"8618075"},{"town":"清水新地四丁目","koaza":"","lat":32.850884,"lng":130.734935,"zip":"8618075"},{"town":"清水新地五丁目","koaza":"","lat":32.853191,"lng":130.739181,"zip":"8618075"},{"town":"清水新地六丁目","koaza":"","lat":32.851246,"lng":130.74021,"zip":"8618075"},{"town":"清水新地七丁目","koaza":"","lat":32.855484,"lng":130.747832,"zip":"8618075"},{"town":"清水東町","koaza":"","lat":32.838656,"lng":130.727824,"zip":"8618065"},{"town":"清水本町","koaza":"","lat":32.832427,"lng":130.723427,"zip":"8618074"},{"town":"清水町大字打越","koaza":"","lat":32.823135,"lng":130.716716,"zip":"8610000"},{"town":"清水町大字松崎","koaza":"","lat":32.830199,"lng":130.720943,"zip":"8610000"},{"town":"清水町大字室園","koaza":"","lat":32.824911,"lng":130.719759,"zip":"8610000"},{"town":"清水万石一丁目","koaza":"","lat":32.827059,"lng":130.726977,"zip":"8618068"},{"town":"清水万石二丁目","koaza":"","lat":32.830108,"lng":130.728363,"zip":"8618068"},{"town":"清水万石三丁目","koaza":"","lat":32.831413,"lng":130.727044,"zip":"8618068"},{"town":"清水万石四丁目","koaza":"","lat":32.833461,"lng":130.728262,"zip":"8618068"},{"town":"清水万石五丁目","koaza":"","lat":32.835748,"lng":130.729985,"zip":"8618068"},{"town":"下硯川一丁目","koaza":"","lat":32.847758,"lng":130.705305,"zip":"8615526"},{"town":"下硯川二丁目","koaza":"","lat":32.851908,"lng":130.706187,"zip":"8615526"},{"town":"下硯川町","koaza":"","lat":32.856597,"lng":130.69928,"zip":"8615522"},{"town":"硯川町","koaza":"","lat":32.863813,"lng":130.691832,"zip":"8615524"},{"town":"高平一丁目","koaza":"","lat":32.834998,"lng":130.712566,"zip":"8600085"},{"town":"高平二丁目","koaza":"","lat":32.833755,"lng":130.71744,"zip":"8600085"},{"town":"高平三丁目","koaza":"","lat":32.838827,"lng":130.71669,"zip":"8600085"},{"town":"龍田一丁目","koaza":"","lat":32.829501,"lng":130.75826,"zip":"8618006"},{"town":"龍田二丁目","koaza":"","lat":32.83393,"lng":130.751813,"zip":"8618006"},{"town":"龍田三丁目","koaza":"","lat":32.836882,"lng":130.745424,"zip":"8618006"},{"town":"龍田四丁目","koaza":"","lat":32.840633,"lng":130.753189,"zip":"8618006"},{"town":"龍田五丁目","koaza":"","lat":32.841465,"lng":130.756947,"zip":"8618006"},{"town":"龍田六丁目","koaza":"","lat":32.836232,"lng":130.757011,"zip":"8618006"},{"town":"龍田七丁目","koaza":"","lat":32.837683,"lng":130.76316,"zip":"8618006"},{"town":"龍田八丁目","koaza":"","lat":32.84092,"lng":130.760796,"zip":"8618006"},{"town":"龍田九丁目","koaza":"","lat":32.844241,"lng":130.762326,"zip":"8618006"},{"town":"龍田陳内一丁目","koaza":"","lat":32.825144,"lng":130.745344,"zip":"8618005"},{"town":"龍田陳内二丁目","koaza":"","lat":32.829374,"lng":130.742998,"zip":"8618005"},{"town":"龍田陳内三丁目","koaza":"","lat":32.828786,"lng":130.7505,"zip":"8618005"},{"town":"龍田陳内四丁目","koaza":"","lat":32.82534,"lng":130.752654,"zip":"8618005"},{"town":"龍田弓削一丁目","koaza":"","lat":32.844669,"lng":130.768093,"zip":"8618007"},{"town":"龍田弓削二丁目","koaza":"","lat":32.846513,"lng":130.771195,"zip":"8618007"},{"town":"太郎迫町","koaza":"","lat":32.864743,"lng":130.675851,"zip":"8615532"},{"town":"津浦町","koaza":"","lat":32.825904,"lng":130.711436,"zip":"8600088"},{"town":"鶴羽田一丁目","koaza":"","lat":32.855736,"lng":130.724801,"zip":"8615517"},{"town":"鶴羽田二丁目","koaza":"","lat":32.860574,"lng":130.723752,"zip":"8615517"},{"town":"鶴羽田三丁目","koaza":"","lat":32.860278,"lng":130.727702,"zip":"8615517"},{"town":"鶴羽田四丁目","koaza":"","lat":32.865101,"lng":130.727918,"zip":"8615517"},{"town":"鶴羽田五丁目","koaza":"","lat":32.864847,"lng":130.722768,"zip":"8615517"},{"town":"鶴羽田町","koaza":"","lat":32.86635,"lng":130.727121,"zip":"8615513"},{"town":"徳王一丁目","koaza":"","lat":32.838256,"lng":130.706755,"zip":"8615525"},{"town":"徳王二丁目","koaza":"","lat":32.843634,"lng":130.707802,"zip":"8615525"},{"town":"徳王町","koaza":"","lat":32.840211,"lng":130.701983,"zip":"8615523"},{"town":"西梶尾町","koaza":"","lat":32.871072,"lng":130.711169,"zip":"8615516"},{"town":"楡木一丁目","koaza":"","lat":32.843277,"lng":130.750345,"zip":"8618083"},{"town":"楡木二丁目","koaza":"","lat":32.845764,"lng":130.747357,"zip":"8618083"},{"town":"楡木三丁目","koaza":"","lat":32.847237,"lng":130.752026,"zip":"8618083"},{"town":"楡木四丁目","koaza":"","lat":32.851655,"lng":130.753607,"zip":"8618083"},{"town":"楡木五丁目","koaza":"","lat":32.854548,"lng":130.754079,"zip":"8618083"},{"town":"楡木六丁目","koaza":"","lat":32.856157,"lng":130.757704,"zip":"8618083"},{"town":"乗越ケ丘","koaza":"","lat":32.834329,"lng":130.735793,"zip":"8610000"},{"town":"八景水谷一丁目","koaza":"","lat":32.846576,"lng":130.722838,"zip":"8618064"},{"town":"八景水谷二丁目","koaza":"","lat":32.84408,"lng":130.730786,"zip":"8618064"},{"town":"八景水谷三丁目","koaza":"","lat":32.848283,"lng":130.727422,"zip":"8618064"},{"town":"八景水谷四丁目","koaza":"","lat":32.85062,"lng":130.727467,"zip":"8618064"},{"town":"飛田一丁目","koaza":"","lat":32.852924,"lng":130.714564,"zip":"8615514"},{"town":"飛田二丁目","koaza":"","lat":32.855519,"lng":130.713723,"zip":"8615514"},{"town":"飛田三丁目","koaza":"","lat":32.852039,"lng":130.718002,"zip":"8615514"},{"town":"飛田四丁目","koaza":"","lat":32.853064,"lng":130.722659,"zip":"8615514"},{"town":"飛田町","koaza":"","lat":32.855331,"lng":130.719381,"zip":"8610000"},{"town":"万楽寺町","koaza":"","lat":32.865049,"lng":130.663027,"zip":"8615537"},{"town":"貢町","koaza":"","lat":32.83797,"lng":130.672433,"zip":"8615535"},{"town":"武蔵ケ丘一丁目","koaza":"","lat":32.851069,"lng":130.767359,"zip":"8618001"},{"town":"武蔵ケ丘二丁目","koaza":"","lat":32.852811,"lng":130.764472,"zip":"8618001"},{"town":"武蔵ケ丘三丁目","koaza":"","lat":32.854521,"lng":130.767538,"zip":"8618001"},{"town":"武蔵ケ丘四丁目","koaza":"","lat":32.855429,"lng":130.770559,"zip":"8618001"},{"town":"武蔵ケ丘五丁目","koaza":"","lat":32.853735,"lng":130.771683,"zip":"8618001"},{"town":"武蔵ケ丘六丁目","koaza":"","lat":32.852025,"lng":130.771885,"zip":"8618001"},{"town":"武蔵ケ丘七丁目","koaza":"","lat":32.854516,"lng":130.776484,"zip":"8618001"},{"town":"武蔵ケ丘八丁目","koaza":"","lat":32.856734,"lng":130.775992,"zip":"8618001"},{"town":"武蔵ケ丘九丁目","koaza":"","lat":32.855977,"lng":130.779977,"zip":"8618001"},{"town":"室園町","koaza":"","lat":32.826448,"lng":130.730165,"zip":"8618072"},{"town":"明徳町","koaza":"","lat":32.884019,"lng":130.708061,"zip":"8615503"},{"town":"山室一丁目","koaza":"","lat":32.840691,"lng":130.711833,"zip":"8600084"},{"town":"山室二丁目","koaza":"","lat":32.843689,"lng":130.713814,"zip":"8600084"},{"town":"山室三丁目","koaza":"","lat":32.842498,"lng":130.716491,"zip":"8600084"},{"town":"山室四丁目","koaza":"","lat":32.842788,"lng":130.719277,"zip":"8600084"},{"town":"山室五丁目","koaza":"","lat":32.845309,"lng":130.717185,"zip":"8600084"},{"town":"山室六丁目","koaza":"","lat":32.846558,"lng":130.719479,"zip":"8600084"},{"town":"四方寄町","koaza":"","lat":32.861671,"lng":130.711743,"zip":"8615515"},{"town":"立福寺町","koaza":"","lat":32.857361,"lng":130.676966,"zip":"8615536"},{"town":"弓削一丁目","koaza":"","lat":32.850076,"lng":130.773094,"zip":"8618002"},{"town":"弓削二丁目","koaza":"","lat":32.851822,"lng":130.777346,"zip":"8618002"},{"town":"弓削三丁目","koaza":"","lat":32.852656,"lng":130.780593,"zip":"8618002"},{"town":"弓削四丁目","koaza":"","lat":32.855328,"lng":130.783075,"zip":"8618002"},{"town":"弓削五丁目","koaza":"","lat":32.853347,"lng":130.786309,"zip":"8618002"},{"town":"弓削六丁目","koaza":"","lat":32.848553,"lng":130.783508,"zip":"8618002"}]