[{"town":"会富町","koaza":"","lat":32.751735,"lng":130.652302,"zip":"8614121"},{"town":"荒尾一丁目","koaza":"","lat":32.763139,"lng":130.67343,"zip":"8614136"},{"town":"荒尾二丁目","koaza":"","lat":32.763017,"lng":130.668142,"zip":"8614136"},{"town":"荒尾三丁目","koaza":"","lat":32.758952,"lng":130.671048,"zip":"8614136"},{"town":"荒尾町","koaza":"","lat":32.757437,"lng":130.668622,"zip":"8614136"},{"town":"出仲間一丁目","koaza":"","lat":32.773006,"lng":130.712188,"zip":"8620963"},{"town":"出仲間二丁目","koaza":"","lat":32.771095,"lng":130.713534,"zip":"8620963"},{"town":"出仲間三丁目","koaza":"","lat":32.770791,"lng":130.710098,"zip":"8620963"},{"town":"出仲間四丁目","koaza":"","lat":32.768882,"lng":130.711525,"zip":"8620963"},{"town":"出仲間五丁目","koaza":"","lat":32.769472,"lng":130.716138,"zip":"8620963"},{"town":"出仲間六丁目","koaza":"","lat":32.772801,"lng":130.71696,"zip":"8620963"},{"town":"出仲間七丁目","koaza":"","lat":32.770236,"lng":130.719365,"zip":"8620963"},{"town":"出仲間八丁目","koaza":"","lat":32.767972,"lng":130.719832,"zip":"8620963"},{"town":"出仲間九丁目","koaza":"","lat":32.772165,"lng":130.721289,"zip":"8620963"},{"town":"今町","koaza":"","lat":32.767986,"lng":130.65478,"zip":"8615251"},{"town":"海路口町","koaza":"","lat":32.731047,"lng":130.612368,"zip":"8614124"},{"town":"薄場一丁目","koaza":"","lat":32.769071,"lng":130.680324,"zip":"8614131"},{"town":"薄場二丁目","koaza":"","lat":32.770226,"lng":130.676997,"zip":"8614131"},{"town":"薄場三丁目","koaza":"","lat":32.766086,"lng":130.676307,"zip":"8614131"},{"town":"薄場町","koaza":"","lat":32.764055,"lng":130.676059,"zip":"8614131"},{"town":"内田町","koaza":"","lat":32.741121,"lng":130.656068,"zip":"8614127"},{"town":"江越一丁目","koaza":"","lat":32.775747,"lng":130.701244,"zip":"8600834"},{"town":"江越二丁目","koaza":"","lat":32.772895,"lng":130.701562,"zip":"8600834"},{"town":"奥古閑町","koaza":"","lat":32.730871,"lng":130.633531,"zip":"8614125"},{"town":"上ノ郷一丁目","koaza":"","lat":32.766973,"lng":130.687088,"zip":"8614132"},{"town":"上ノ郷二丁目","koaza":"","lat":32.766375,"lng":130.684806,"zip":"8614132"},{"town":"刈草一丁目","koaza":"","lat":32.760862,"lng":130.683629,"zip":"8614134"},{"town":"刈草二丁目","koaza":"","lat":32.759497,"lng":130.681675,"zip":"8614134"},{"town":"刈草三丁目","koaza":"","lat":32.758585,"lng":130.679055,"zip":"8614134"},{"town":"川口町","koaza":"","lat":32.717852,"lng":130.631264,"zip":"8614123"},{"town":"川尻一丁目","koaza":"","lat":32.741748,"lng":130.681975,"zip":"8614115"},{"town":"川尻二丁目","koaza":"","lat":32.742902,"lng":130.680029,"zip":"8614115"},{"town":"川尻三丁目","koaza":"","lat":32.738193,"lng":130.677401,"zip":"8614115"},{"town":"川尻四丁目","koaza":"","lat":32.73724,"lng":130.682564,"zip":"8614115"},{"town":"川尻五丁目","koaza":"","lat":32.736028,"lng":130.686306,"zip":"8614115"},{"town":"川尻六丁目","koaza":"","lat":32.731761,"lng":130.681387,"zip":"8614115"},{"town":"合志一丁目","koaza":"","lat":32.753988,"lng":130.681565,"zip":"8614111"},{"town":"合志二丁目","koaza":"","lat":32.755814,"lng":130.680407,"zip":"8614111"},{"town":"合志三丁目","koaza":"","lat":32.755585,"lng":130.677076,"zip":"8614111"},{"town":"合志四丁目","koaza":"","lat":32.756112,"lng":130.675041,"zip":"8614111"},{"town":"幸田一丁目","koaza":"","lat":32.766973,"lng":130.71642,"zip":"8614108"},{"town":"幸田二丁目","koaza":"","lat":32.766141,"lng":130.712325,"zip":"8614108"},{"town":"護藤町","koaza":"","lat":32.746425,"lng":130.665222,"zip":"8614117"},{"town":"城南町さんさん一丁目","koaza":"","lat":32.711564,"lng":130.737949,"zip":"8614206"},{"town":"城南町さんさん二丁目","koaza":"","lat":32.711404,"lng":130.735512,"zip":"8614206"},{"town":"島町一丁目","koaza":"","lat":32.767842,"lng":130.682252,"zip":"8614133"},{"town":"島町二丁目","koaza":"","lat":32.765985,"lng":130.681194,"zip":"8614133"},{"town":"島町三丁目","koaza":"","lat":32.76485,"lng":130.679844,"zip":"8614133"},{"town":"島町四丁目","koaza":"","lat":32.763242,"lng":130.679642,"zip":"8614133"},{"town":"島町五丁目","koaza":"","lat":32.761288,"lng":130.678528,"zip":"8614133"},{"town":"十禅寺二丁目","koaza":"","lat":32.777183,"lng":130.693835,"zip":"8600824"},{"town":"十禅寺三丁目","koaza":"","lat":32.77732,"lng":130.697466,"zip":"8600824"},{"town":"城南町赤見","koaza":"","lat":32.723959,"lng":130.702923,"zip":"8614231"},{"town":"城南町阿高","koaza":"","lat":32.694445,"lng":130.716617,"zip":"8614224"},{"town":"城南町碇","koaza":"","lat":32.719455,"lng":130.72068,"zip":"8614205"},{"town":"城南町出水","koaza":"","lat":32.713981,"lng":130.756734,"zip":"8614213"},{"town":"城南町今吉野","koaza":"","lat":32.716913,"lng":130.736925,"zip":"8614211"},{"town":"城南町隈庄","koaza":"","lat":32.706666,"lng":130.727722,"zip":"8614203"},{"town":"城南町坂野","koaza":"","lat":32.725096,"lng":130.742683,"zip":"8614201"},{"town":"城南町沈目","koaza":"","lat":32.698428,"lng":130.746221,"zip":"8614215"},{"town":"城南町島田","koaza":"","lat":32.716696,"lng":130.709215,"zip":"8614236"},{"town":"城南町下宮地","koaza":"","lat":32.70356,"lng":130.736267,"zip":"8614204"},{"town":"城南町陳内","koaza":"","lat":32.691871,"lng":130.757523,"zip":"8614221"},{"town":"城南町高","koaza":"","lat":32.728542,"lng":130.712865,"zip":"8614232"},{"town":"城南町千町","koaza":"","lat":32.730883,"lng":130.741045,"zip":"8614235"},{"town":"城南町築地","koaza":"","lat":32.722812,"lng":130.756423,"zip":"8614212"},{"town":"城南町塚原","koaza":"","lat":32.690781,"lng":130.740608,"zip":"8614226"},{"town":"城南町永","koaza":"","lat":32.728106,"lng":130.727974,"zip":"8614234"},{"town":"城南町丹生宮","koaza":"","lat":32.731119,"lng":130.71712,"zip":"8614233"},{"town":"城南町東阿高","koaza":"","lat":32.68806,"lng":130.72652,"zip":"8614225"},{"town":"城南町藤山","koaza":"","lat":32.675594,"lng":130.738152,"zip":"8614223"},{"town":"城南町舞原","koaza":"","lat":32.709793,"lng":130.746997,"zip":"8614214"},{"town":"城南町宮地","koaza":"","lat":32.711751,"lng":130.728449,"zip":"8614202"},{"town":"城南町六田","koaza":"","lat":32.709533,"lng":130.712201,"zip":"8614237"},{"town":"城南町鰐瀬","koaza":"","lat":32.676218,"lng":130.762969,"zip":"8614222"},{"town":"白藤一丁目","koaza":"","lat":32.751663,"lng":130.677888,"zip":"8614112"},{"town":"白藤二丁目","koaza":"","lat":32.750299,"lng":130.681787,"zip":"8614112"},{"town":"白藤三丁目","koaza":"","lat":32.749641,"lng":130.67678,"zip":"8614112"},{"town":"白藤四丁目","koaza":"","lat":32.750834,"lng":130.673117,"zip":"8614112"},{"town":"白藤五丁目","koaza":"","lat":32.754255,"lng":130.673608,"zip":"8614112"},{"town":"白石町","koaza":"","lat":32.750294,"lng":130.63604,"zip":"8615264"},{"town":"砂原町","koaza":"","lat":32.763526,"lng":130.65542,"zip":"8615255"},{"town":"銭塘町","koaza":"","lat":32.735315,"lng":130.644847,"zip":"8614126"},{"town":"田井島一丁目","koaza":"","lat":32.770587,"lng":130.7259,"zip":"8620965"},{"town":"田井島二丁目","koaza":"","lat":32.765126,"lng":130.718981,"zip":"8620965"},{"town":"田井島三丁目","koaza":"","lat":32.763219,"lng":130.725066,"zip":"8620965"},{"town":"田迎一丁目","koaza":"","lat":32.776913,"lng":130.709648,"zip":"8620962"},{"town":"田迎二丁目","koaza":"","lat":32.774261,"lng":130.710597,"zip":"8620962"},{"town":"田迎三丁目","koaza":"","lat":32.777893,"lng":130.713558,"zip":"8620962"},{"town":"田迎四丁目","koaza":"","lat":32.775767,"lng":130.713348,"zip":"8620962"},{"town":"田迎五丁目","koaza":"","lat":32.775338,"lng":130.716213,"zip":"8620962"},{"town":"田迎六丁目","koaza":"","lat":32.776869,"lng":130.718314,"zip":"8620962"},{"town":"田迎町大字田井島","koaza":"","lat":32.766752,"lng":130.726476,"zip":"8610000"},{"town":"田迎町大字良町","koaza":"","lat":32.753529,"lng":130.723544,"zip":"8610000"},{"town":"近見一丁目","koaza":"","lat":32.768398,"lng":130.690409,"zip":"8614101"},{"town":"近見二丁目","koaza":"","lat":32.7641,"lng":130.687829,"zip":"8614101"},{"town":"近見三丁目","koaza":"","lat":32.768664,"lng":130.694628,"zip":"8614101"},{"town":"近見四丁目","koaza":"","lat":32.768502,"lng":130.69927,"zip":"8614101"},{"town":"近見五丁目","koaza":"","lat":32.764516,"lng":130.700049,"zip":"8614101"},{"town":"近見六丁目","koaza":"","lat":32.765459,"lng":130.694013,"zip":"8614101"},{"town":"近見七丁目","koaza":"","lat":32.758358,"lng":130.691863,"zip":"8614101"},{"town":"近見八丁目","koaza":"","lat":32.758458,"lng":130.69516,"zip":"8614101"},{"town":"近見九丁目","koaza":"","lat":32.760045,"lng":130.699298,"zip":"8614101"},{"town":"近見町","koaza":"","lat":32.76174,"lng":130.684981,"zip":"8610000"},{"town":"鳶町一丁目","koaza":"","lat":32.758523,"lng":130.676682,"zip":"8614135"},{"town":"鳶町二丁目","koaza":"","lat":32.758523,"lng":130.67412,"zip":"8614135"},{"town":"富合町榎津","koaza":"","lat":32.713914,"lng":130.693724,"zip":"8614146"},{"town":"富合町大町","koaza":"","lat":32.721716,"lng":130.690065,"zip":"8614145"},{"town":"富合町御船手","koaza":"","lat":32.735985,"lng":130.677502,"zip":"8614141"},{"town":"富合町硴江","koaza":"","lat":32.70824,"lng":130.658907,"zip":"8614165"},{"town":"富合町上杉","koaza":"","lat":32.726735,"lng":130.68489,"zip":"8614143"},{"town":"富合町清藤","koaza":"","lat":32.716127,"lng":130.675639,"zip":"8614151"},{"town":"富合町木原","koaza":"","lat":32.69985,"lng":130.707052,"zip":"8614153"},{"town":"富合町小岩瀬","koaza":"","lat":32.723622,"lng":130.670226,"zip":"8614161"},{"town":"富合町莎崎","koaza":"","lat":32.716596,"lng":130.651713,"zip":"8614166"},{"town":"富合町古閑","koaza":"","lat":32.709227,"lng":130.673038,"zip":"8614157"},{"town":"富合町国町","koaza":"","lat":32.718545,"lng":130.66599,"zip":"8614162"},{"town":"富合町菰江","koaza":"","lat":32.720676,"lng":130.658855,"zip":"8614167"},{"town":"富合町志々水","koaza":"","lat":32.711971,"lng":130.667888,"zip":"8614163"},{"town":"富合町釈迦堂","koaza":"","lat":32.732743,"lng":130.699781,"zip":"8614144"},{"town":"富合町新","koaza":"","lat":32.707828,"lng":130.681488,"zip":"8614152"},{"town":"富合町杉島","koaza":"","lat":32.729699,"lng":130.675563,"zip":"8614142"},{"town":"富合町田尻","koaza":"","lat":32.704116,"lng":130.672069,"zip":"8614156"},{"town":"富合町西田尻","koaza":"","lat":32.708822,"lng":130.662153,"zip":"8614164"},{"town":"富合町平原","koaza":"","lat":32.699824,"lng":130.689411,"zip":"8614154"},{"town":"富合町廻江","koaza":"","lat":32.718367,"lng":130.680233,"zip":"8614147"},{"town":"富合町南田尻","koaza":"","lat":32.698884,"lng":130.676821,"zip":"8614155"},{"town":"中無田町","koaza":"","lat":32.735435,"lng":130.669445,"zip":"8614116"},{"town":"並建町","koaza":"","lat":32.754087,"lng":130.637731,"zip":"8615263"},{"town":"野口一丁目","koaza":"","lat":32.769641,"lng":130.674052,"zip":"8614137"},{"town":"野口二丁目","koaza":"","lat":32.76614,"lng":130.673755,"zip":"8614137"},{"town":"野口三丁目","koaza":"","lat":32.766287,"lng":130.670333,"zip":"8614137"},{"town":"野口四丁目","koaza":"","lat":32.769725,"lng":130.671213,"zip":"8614137"},{"town":"野田一丁目","koaza":"","lat":32.733979,"lng":130.69078,"zip":"8614114"},{"town":"野田二丁目","koaza":"","lat":32.73302,"lng":130.685026,"zip":"8614114"},{"town":"野田三丁目","koaza":"","lat":32.729545,"lng":130.684562,"zip":"8614114"},{"town":"畠口町","koaza":"","lat":32.752647,"lng":130.615829,"zip":"8615265"},{"town":"八王寺町","koaza":"","lat":32.778962,"lng":130.71285,"zip":"8600831"},{"town":"八分字町","koaza":"","lat":32.758841,"lng":130.662476,"zip":"8615253"},{"town":"浜口町","koaza":"","lat":32.75834,"lng":130.642518,"zip":"8615262"},{"town":"日吉一丁目","koaza":"","lat":32.761127,"lng":130.686972,"zip":"8614109"},{"town":"日吉二丁目","koaza":"","lat":32.758788,"lng":130.685643,"zip":"8614109"},{"town":"平田一丁目","koaza":"","lat":32.773343,"lng":130.693014,"zip":"8600826"},{"town":"平田二丁目","koaza":"","lat":32.77307,"lng":130.696709,"zip":"8600826"},{"town":"平成一丁目","koaza":"","lat":32.77856,"lng":130.699349,"zip":"8600833"},{"town":"平成二丁目","koaza":"","lat":32.778374,"lng":130.702392,"zip":"8600833"},{"town":"孫代町","koaza":"","lat":32.761634,"lng":130.649051,"zip":"8615254"},{"town":"馬渡一丁目","koaza":"","lat":32.77611,"lng":130.706013,"zip":"8620968"},{"town":"馬渡二丁目","koaza":"","lat":32.773218,"lng":130.706314,"zip":"8620968"},{"town":"美登里町","koaza":"","lat":32.729567,"lng":130.65734,"zip":"8614122"},{"town":"南高江一丁目","koaza":"","lat":32.755441,"lng":130.684858,"zip":"8614106"},{"town":"南高江二丁目","koaza":"","lat":32.750343,"lng":130.68409,"zip":"8614106"},{"town":"南高江三丁目","koaza":"","lat":32.756088,"lng":130.689348,"zip":"8614106"},{"town":"南高江四丁目","koaza":"","lat":32.751106,"lng":130.693032,"zip":"8614106"},{"town":"南高江五丁目","koaza":"","lat":32.749595,"lng":130.689646,"zip":"8614106"},{"town":"南高江六丁目","koaza":"","lat":32.749173,"lng":130.686158,"zip":"8614106"},{"town":"南高江七丁目","koaza":"","lat":32.744514,"lng":130.689881,"zip":"8614106"},{"town":"南高江町","koaza":"","lat":32.74865,"lng":130.6938,"zip":"8610000"},{"town":"御幸木部一丁目","koaza":"","lat":32.749623,"lng":130.713326,"zip":"8614104"},{"town":"御幸木部二丁目","koaza":"","lat":32.748082,"lng":130.718983,"zip":"8614104"},{"town":"御幸木部三丁目","koaza":"","lat":32.746071,"lng":130.712905,"zip":"8614104"},{"town":"御幸木部町","koaza":"","lat":32.745894,"lng":130.722168,"zip":"8614104"},{"town":"御幸西一丁目","koaza":"","lat":32.759959,"lng":130.703309,"zip":"8614102"},{"town":"御幸西二丁目","koaza":"","lat":32.759343,"lng":130.706626,"zip":"8614102"},{"town":"御幸西三丁目","koaza":"","lat":32.757331,"lng":130.704175,"zip":"8614102"},{"town":"御幸西四丁目","koaza":"","lat":32.756692,"lng":130.699396,"zip":"8614102"},{"town":"御幸西無田町","koaza":"","lat":32.754432,"lng":130.702341,"zip":"8614102"},{"town":"御幸笛田一丁目","koaza":"","lat":32.764142,"lng":130.715957,"zip":"8614103"},{"town":"御幸笛田二丁目","koaza":"","lat":32.763059,"lng":130.709376,"zip":"8614103"},{"town":"御幸笛田三丁目","koaza":"","lat":32.760003,"lng":130.710498,"zip":"8614103"},{"town":"御幸笛田四丁目","koaza":"","lat":32.76102,"lng":130.715622,"zip":"8614103"},{"town":"御幸笛田五丁目","koaza":"","lat":32.759008,"lng":130.716484,"zip":"8614103"},{"town":"御幸笛田六丁目","koaza":"","lat":32.757408,"lng":130.713182,"zip":"8614103"},{"town":"御幸笛田七丁目","koaza":"","lat":32.7556,"lng":130.716091,"zip":"8614103"},{"town":"御幸笛田八丁目","koaza":"","lat":32.753157,"lng":130.713982,"zip":"8614103"},{"town":"御幸笛田町","koaza":"","lat":32.755102,"lng":130.709188,"zip":"8614103"},{"town":"無田口町","koaza":"","lat":32.759173,"lng":130.630331,"zip":"8615261"},{"town":"元三町","koaza":"","lat":32.749309,"lng":130.698612,"zip":"8614105"},{"town":"元三町一丁目","koaza":"","lat":32.744091,"lng":130.692045,"zip":"8614105"},{"town":"元三町二丁目","koaza":"","lat":32.740895,"lng":130.691793,"zip":"8614105"},{"town":"元三町三丁目","koaza":"","lat":32.738359,"lng":130.689776,"zip":"8614105"},{"town":"元三町四丁目","koaza":"","lat":32.738993,"lng":130.694449,"zip":"8614105"},{"town":"元三町五丁目","koaza":"","lat":32.742981,"lng":130.695178,"zip":"8614105"},{"town":"八幡十丁目","koaza":"","lat":32.740187,"lng":130.687024,"zip":"8614113"},{"town":"八幡十一丁目","koaza":"","lat":32.739997,"lng":130.684522,"zip":"8614113"},{"town":"八幡一丁目","koaza":"","lat":32.746543,"lng":130.676516,"zip":"8614113"},{"town":"八幡二丁目","koaza":"","lat":32.743189,"lng":130.675153,"zip":"8614113"},{"town":"八幡三丁目","koaza":"","lat":32.741092,"lng":130.677188,"zip":"8614113"},{"town":"八幡四丁目","koaza":"","lat":32.743514,"lng":130.677791,"zip":"8614113"},{"town":"八幡五丁目","koaza":"","lat":32.746982,"lng":130.682035,"zip":"8614113"},{"town":"八幡六丁目","koaza":"","lat":32.744764,"lng":130.684001,"zip":"8614113"},{"town":"八幡七丁目","koaza":"","lat":32.742825,"lng":130.684585,"zip":"8614113"},{"town":"八幡八丁目","koaza":"","lat":32.743429,"lng":130.687395,"zip":"8614113"},{"town":"八幡九丁目","koaza":"","lat":32.741573,"lng":130.689499,"zip":"8614113"},{"town":"良町一丁目","koaza":"","lat":32.762672,"lng":130.721106,"zip":"8620969"},{"town":"良町二丁目","koaza":"","lat":32.761753,"lng":130.719846,"zip":"8620969"},{"town":"良町三丁目","koaza":"","lat":32.758116,"lng":130.72153,"zip":"8620969"},{"town":"良町四丁目","koaza":"","lat":32.757049,"lng":130.726875,"zip":"8620969"},{"town":"良町五丁目","koaza":"","lat":32.754512,"lng":130.718668,"zip":"8620969"},{"town":"流通団地一丁目","koaza":"","lat":32.767505,"lng":130.707399,"zip":"8620967"},{"town":"流通団地二丁目","koaza":"","lat":32.76714,"lng":130.703345,"zip":"8620967"},{"town":"野口町","koaza":"","lat":32.767863,"lng":130.669248,"zip":"8614137"},{"town":"土河原町","koaza":"","lat":32.769218,"lng":130.665966,"zip":"8615252"}]