[{"town":"安政町","koaza":"","lat":32.801323,"lng":130.711448,"zip":"8600801"},{"town":"井川淵町","koaza":"","lat":32.80832,"lng":130.718766,"zip":"8600841"},{"town":"出水一丁目","koaza":"","lat":32.788933,"lng":130.732314,"zip":"8620941"},{"town":"出水二丁目","koaza":"","lat":32.785288,"lng":130.735154,"zip":"8620941"},{"town":"出水三丁目","koaza":"","lat":32.785174,"lng":130.731256,"zip":"8620941"},{"town":"出水四丁目","koaza":"","lat":32.780906,"lng":130.732348,"zip":"8620941"},{"town":"出水五丁目","koaza":"","lat":32.781559,"lng":130.727379,"zip":"8620941"},{"town":"出水六丁目","koaza":"","lat":32.781784,"lng":130.721441,"zip":"8620941"},{"town":"出水七丁目","koaza":"","lat":32.774416,"lng":130.724262,"zip":"8620941"},{"town":"出水八丁目","koaza":"","lat":32.774675,"lng":130.73012,"zip":"8620941"},{"town":"板屋町","koaza":"","lat":32.796632,"lng":130.695122,"zip":"8600043"},{"town":"魚屋町一丁目","koaza":"","lat":32.795258,"lng":130.699032,"zip":"8600031"},{"town":"魚屋町二丁目","koaza":"","lat":32.795838,"lng":130.697548,"zip":"8600031"},{"town":"魚屋町三丁目","koaza":"","lat":32.796345,"lng":130.696375,"zip":"8600031"},{"town":"内坪井町","koaza":"","lat":32.811011,"lng":130.709255,"zip":"8600077"},{"town":"江津二丁目","koaza":"","lat":32.774954,"lng":130.73136,"zip":"8620942"},{"town":"大江一丁目","koaza":"","lat":32.808913,"lng":130.726683,"zip":"8620971"},{"town":"大江二丁目","koaza":"","lat":32.804317,"lng":130.730262,"zip":"8620971"},{"town":"大江三丁目","koaza":"","lat":32.803051,"lng":130.724148,"zip":"8620971"},{"town":"大江四丁目","koaza":"","lat":32.801296,"lng":130.721027,"zip":"8620971"},{"town":"大江五丁目","koaza":"","lat":32.797101,"lng":130.722599,"zip":"8620971"},{"town":"大江六丁目","koaza":"","lat":32.797601,"lng":130.726247,"zip":"8620971"},{"town":"大江本町","koaza":"","lat":32.795454,"lng":130.722244,"zip":"8620973"},{"town":"岡田町","koaza":"","lat":32.791512,"lng":130.722211,"zip":"8620958"},{"town":"帯山一丁目","koaza":"","lat":32.801014,"lng":130.741371,"zip":"8620924"},{"town":"帯山二丁目","koaza":"","lat":32.803252,"lng":130.744723,"zip":"8620924"},{"town":"帯山三丁目","koaza":"","lat":32.798471,"lng":130.749473,"zip":"8620924"},{"town":"帯山四丁目","koaza":"","lat":32.80353,"lng":130.7494,"zip":"8620924"},{"town":"帯山五丁目","koaza":"","lat":32.803122,"lng":130.754081,"zip":"8620924"},{"town":"帯山六丁目","koaza":"","lat":32.803076,"lng":130.757715,"zip":"8620924"},{"town":"帯山七丁目","koaza":"","lat":32.807083,"lng":130.754988,"zip":"8620924"},{"town":"帯山八丁目","koaza":"","lat":32.806808,"lng":130.760171,"zip":"8620924"},{"town":"帯山九丁目","koaza":"","lat":32.804828,"lng":130.76116,"zip":"8620924"},{"town":"鍛冶屋町","koaza":"","lat":32.796433,"lng":130.699477,"zip":"8600026"},{"town":"上鍛冶屋町","koaza":"","lat":32.79633,"lng":130.700753,"zip":"8600021"},{"town":"上京塚町","koaza":"","lat":32.791668,"lng":130.747607,"zip":"8620953"},{"town":"上水前寺一丁目","koaza":"","lat":32.795175,"lng":130.743507,"zip":"8620951"},{"town":"上水前寺二丁目","koaza":"","lat":32.795544,"lng":130.745585,"zip":"8620951"},{"town":"上通町","koaza":"","lat":32.804721,"lng":130.711297,"zip":"8600845"},{"town":"上林町","koaza":"","lat":32.808143,"lng":130.710854,"zip":"8600847"},{"town":"辛島町","koaza":"","lat":32.799016,"lng":130.702683,"zip":"8600804"},{"town":"川端町","koaza":"","lat":32.792774,"lng":130.695046,"zip":"8600039"},{"town":"河原町","koaza":"","lat":32.794905,"lng":130.701455,"zip":"8600023"},{"town":"北千反畑町","koaza":"","lat":32.809399,"lng":130.716431,"zip":"8600855"},{"town":"京町一丁目","koaza":"","lat":32.811346,"lng":130.705284,"zip":"8600078"},{"town":"京町二丁目","koaza":"","lat":32.814474,"lng":130.705387,"zip":"8600078"},{"town":"京町本丁","koaza":"","lat":32.817609,"lng":130.704152,"zip":"8600081"},{"town":"草葉町","koaza":"","lat":32.805485,"lng":130.714355,"zip":"8600843"},{"town":"九品寺一丁目","koaza":"","lat":32.798748,"lng":130.714734,"zip":"8620976"},{"town":"九品寺二丁目","koaza":"","lat":32.797959,"lng":130.717734,"zip":"8620976"},{"town":"九品寺三丁目","koaza":"","lat":32.794306,"lng":130.717978,"zip":"8620976"},{"town":"九品寺四丁目","koaza":"","lat":32.794057,"lng":130.714594,"zip":"8620976"},{"town":"九品寺五丁目","koaza":"","lat":32.791278,"lng":130.71582,"zip":"8620976"},{"town":"九品寺六丁目","koaza":"","lat":32.788348,"lng":130.716094,"zip":"8620976"},{"town":"黒髪一丁目","koaza":"","lat":32.816672,"lng":130.718478,"zip":"8600862"},{"town":"黒髪二丁目","koaza":"","lat":32.814288,"lng":130.726207,"zip":"8600862"},{"town":"黒髪三丁目","koaza":"","lat":32.82082,"lng":130.72291,"zip":"8600862"},{"town":"黒髪四丁目","koaza":"","lat":32.822958,"lng":130.73054,"zip":"8600862"},{"town":"黒髪五丁目","koaza":"","lat":32.81693,"lng":130.732029,"zip":"8600862"},{"town":"黒髪六丁目","koaza":"","lat":32.81575,"lng":130.737904,"zip":"8600862"},{"town":"黒髪七丁目","koaza":"","lat":32.820481,"lng":130.743872,"zip":"8600862"},{"town":"黒髪八丁目","koaza":"","lat":32.823644,"lng":130.736733,"zip":"8600862"},{"town":"神水一丁目","koaza":"","lat":32.785671,"lng":130.742827,"zip":"8620954"},{"town":"神水二丁目","koaza":"","lat":32.788047,"lng":130.747721,"zip":"8620954"},{"town":"神水本町","koaza":"","lat":32.781806,"lng":130.741687,"zip":"8620955"},{"town":"慶徳堀町","koaza":"","lat":32.794863,"lng":130.702497,"zip":"8600014"},{"town":"紺屋阿弥陀寺町","koaza":"","lat":32.792947,"lng":130.698057,"zip":"8600033"},{"town":"紺屋町一丁目","koaza":"","lat":32.79579,"lng":130.699934,"zip":"8600025"},{"town":"紺屋町二丁目","koaza":"","lat":32.794708,"lng":130.69955,"zip":"8600025"},{"town":"紺屋町三丁目","koaza":"","lat":32.79325,"lng":130.699069,"zip":"8600025"},{"town":"子飼本町","koaza":"","lat":32.813237,"lng":130.721676,"zip":"8600851"},{"town":"国府一丁目","koaza":"","lat":32.791742,"lng":130.727382,"zip":"8620949"},{"town":"国府二丁目","koaza":"","lat":32.788472,"lng":130.728057,"zip":"8620949"},{"town":"国府三丁目","koaza":"","lat":32.789777,"lng":130.723492,"zip":"8620949"},{"town":"国府四丁目","koaza":"","lat":32.785555,"lng":130.726824,"zip":"8620949"},{"town":"国府本町","koaza":"","lat":32.785483,"lng":130.721394,"zip":"8620948"},{"town":"小沢町","koaza":"","lat":32.796326,"lng":130.694423,"zip":"8600042"},{"town":"古城町","koaza":"","lat":32.802163,"lng":130.700524,"zip":"8600003"},{"town":"壺川一丁目","koaza":"","lat":32.814722,"lng":130.70941,"zip":"8600076"},{"town":"壺川二丁目","koaza":"","lat":32.818851,"lng":130.709932,"zip":"8600076"},{"town":"湖東一丁目","koaza":"","lat":32.782711,"lng":130.746125,"zip":"8620909"},{"town":"琴平一丁目","koaza":"","lat":32.788837,"lng":130.708111,"zip":"8600813"},{"town":"琴平二丁目","koaza":"","lat":32.784509,"lng":130.706802,"zip":"8600813"},{"town":"琴平本町","koaza":"","lat":32.787922,"lng":130.705213,"zip":"8600814"},{"town":"呉服町一丁目","koaza":"","lat":32.796613,"lng":130.6972,"zip":"8600035"},{"town":"呉服町二丁目","koaza":"","lat":32.795541,"lng":130.696958,"zip":"8600035"},{"town":"呉服町三丁目","koaza":"","lat":32.794453,"lng":130.696223,"zip":"8600035"},{"town":"米屋町一丁目","koaza":"","lat":32.796251,"lng":130.698539,"zip":"8600029"},{"town":"米屋町二丁目","koaza":"","lat":32.795106,"lng":130.698118,"zip":"8600029"},{"town":"米屋町三丁目","koaza":"","lat":32.79404,"lng":130.697658,"zip":"8600029"},{"town":"細工町一丁目","koaza":"","lat":32.797078,"lng":130.695947,"zip":"8600041"},{"town":"細工町二丁目","koaza":"","lat":32.795888,"lng":130.695495,"zip":"8600041"},{"town":"細工町三丁目","koaza":"","lat":32.794858,"lng":130.694485,"zip":"8600041"},{"town":"細工町四丁目","koaza":"","lat":32.793903,"lng":130.694311,"zip":"8600041"},{"town":"細工町五丁目","koaza":"","lat":32.792563,"lng":130.693988,"zip":"8600041"},{"town":"桜町","koaza":"","lat":32.800913,"lng":130.702823,"zip":"8600805"},{"town":"三郎一丁目","koaza":"","lat":32.80011,"lng":130.756669,"zip":"8620922"},{"town":"島崎一丁目","koaza":"","lat":32.806399,"lng":130.693008,"zip":"8600073"},{"town":"下通一丁目","koaza":"","lat":32.801311,"lng":130.708322,"zip":"8600807"},{"town":"十禅寺一丁目","koaza":"","lat":32.779645,"lng":130.694653,"zip":"8600824"},{"town":"十禅寺町","koaza":"","lat":32.779801,"lng":130.698187,"zip":"8610000"},{"town":"城東町","koaza":"","lat":32.805474,"lng":130.709878,"zip":"8600846"},{"town":"新大江一丁目","koaza":"","lat":32.798868,"lng":130.729817,"zip":"8620972"},{"town":"新大江二丁目","koaza":"","lat":32.801755,"lng":130.732575,"zip":"8620972"},{"town":"新大江三丁目","koaza":"","lat":32.802907,"lng":130.738669,"zip":"8620972"},{"town":"新市街","koaza":"","lat":32.798715,"lng":130.70621,"zip":"8600803"},{"town":"新町一丁目","koaza":"","lat":32.802906,"lng":130.69808,"zip":"8600004"},{"town":"新町二丁目","koaza":"","lat":32.798937,"lng":130.698224,"zip":"8600004"},{"town":"新町三丁目","koaza":"","lat":32.804231,"lng":130.695659,"zip":"8600004"},{"town":"新町四丁目","koaza":"","lat":32.799894,"lng":130.695599,"zip":"8600004"},{"town":"新屋敷一丁目","koaza":"","lat":32.803108,"lng":130.718006,"zip":"8620975"},{"town":"新屋敷二丁目","koaza":"","lat":32.808251,"lng":130.721727,"zip":"8620975"},{"town":"新屋敷三丁目","koaza":"","lat":32.805775,"lng":130.722685,"zip":"8620975"},{"town":"水前寺一丁目","koaza":"","lat":32.79516,"lng":130.729651,"zip":"8620950"},{"town":"水前寺二丁目","koaza":"","lat":32.794468,"lng":130.733899,"zip":"8620950"},{"town":"水前寺三丁目","koaza":"","lat":32.798397,"lng":130.733863,"zip":"8620950"},{"town":"水前寺四丁目","koaza":"","lat":32.798178,"lng":130.740599,"zip":"8620950"},{"town":"水前寺五丁目","koaza":"","lat":32.794993,"lng":130.739183,"zip":"8620950"},{"town":"水前寺六丁目","koaza":"","lat":32.79036,"lng":130.742601,"zip":"8620950"},{"town":"水前寺公園","koaza":"","lat":32.789936,"lng":130.73583,"zip":"8620956"},{"town":"水道町","koaza":"","lat":32.803138,"lng":130.714197,"zip":"8600844"},{"town":"菅原町","koaza":"","lat":32.789835,"lng":130.719996,"zip":"8620957"},{"town":"船場町二丁目","koaza":"","lat":32.79698,"lng":130.700958,"zip":"8600019"},{"town":"船場町三丁目","koaza":"","lat":32.797167,"lng":130.700076,"zip":"8600019"},{"town":"船場町下一丁目","koaza":"","lat":32.798318,"lng":130.700089,"zip":"8600018"},{"town":"段山本町","koaza":"","lat":32.808452,"lng":130.696281,"zip":"8600006"},{"town":"千葉城町","koaza":"","lat":32.807148,"lng":130.707993,"zip":"8600001"},{"town":"中央街","koaza":"","lat":32.799444,"lng":130.711073,"zip":"8600802"},{"town":"坪井一丁目","koaza":"","lat":32.810487,"lng":130.711087,"zip":"8600863"},{"town":"坪井二丁目","koaza":"","lat":32.809775,"lng":130.713504,"zip":"8600863"},{"town":"坪井三丁目","koaza":"","lat":32.811686,"lng":130.714022,"zip":"8600863"},{"town":"坪井四丁目","koaza":"","lat":32.81539,"lng":130.714969,"zip":"8600863"},{"town":"坪井五丁目","koaza":"","lat":32.815317,"lng":130.711982,"zip":"8600863"},{"town":"坪井六丁目","koaza":"","lat":32.820187,"lng":130.716214,"zip":"8600863"},{"town":"手取本町","koaza":"","lat":32.803049,"lng":130.709396,"zip":"8600808"},{"town":"通町","koaza":"","lat":32.795681,"lng":130.70288,"zip":"8600013"},{"town":"渡鹿一丁目","koaza":"","lat":32.806307,"lng":130.733104,"zip":"8620970"},{"town":"渡鹿二丁目","koaza":"","lat":32.804349,"lng":130.736153,"zip":"8620970"},{"town":"渡鹿三丁目","koaza":"","lat":32.806609,"lng":130.738366,"zip":"8620970"},{"town":"渡鹿四丁目","koaza":"","lat":32.808253,"lng":130.731796,"zip":"8620970"},{"town":"渡鹿五丁目","koaza":"","lat":32.811299,"lng":130.731912,"zip":"8620970"},{"town":"渡鹿六丁目","koaza":"","lat":32.812132,"lng":130.735024,"zip":"8620970"},{"town":"渡鹿七丁目","koaza":"","lat":32.809161,"lng":130.737874,"zip":"8620970"},{"town":"中唐人町","koaza":"","lat":32.796913,"lng":130.698307,"zip":"8600028"},{"town":"西阿弥陀寺町","koaza":"","lat":32.794248,"lng":130.695363,"zip":"8600037"},{"town":"西子飼町","koaza":"","lat":32.81148,"lng":130.718163,"zip":"8600853"},{"town":"西唐人町","koaza":"","lat":32.797345,"lng":130.696955,"zip":"8600027"},{"town":"二の丸","koaza":"","lat":32.80584,"lng":130.702291,"zip":"8600008"},{"town":"萩原町","koaza":"","lat":32.781224,"lng":130.709574,"zip":"8600832"},{"town":"白山一丁目","koaza":"","lat":32.792875,"lng":130.720849,"zip":"8620959"},{"town":"白山二丁目","koaza":"","lat":32.793166,"lng":130.724084,"zip":"8620959"},{"town":"白山三丁目","koaza":"","lat":32.795618,"lng":130.727151,"zip":"8620959"},{"town":"八王寺町","koaza":"","lat":32.783121,"lng":130.714786,"zip":"8600831"},{"town":"花畑町","koaza":"","lat":32.801342,"lng":130.705907,"zip":"8600806"},{"town":"春竹町大字春竹","koaza":"","lat":32.785723,"lng":130.703776,"zip":"8610000"},{"town":"東阿弥陀寺町","koaza":"","lat":32.793213,"lng":130.696534,"zip":"8600034"},{"town":"東京塚町","koaza":"","lat":32.799265,"lng":130.755971,"zip":"8620923"},{"town":"東子飼町","koaza":"","lat":32.8109,"lng":130.719655,"zip":"8600854"},{"town":"古桶屋町","koaza":"","lat":32.793489,"lng":130.695404,"zip":"8600038"},{"town":"古川町","koaza":"","lat":32.796015,"lng":130.701671,"zip":"8600015"},{"town":"古京町","koaza":"","lat":32.808321,"lng":130.698652,"zip":"8600007"},{"town":"古大工町","koaza":"","lat":32.795097,"lng":130.695796,"zip":"8600036"},{"town":"平成一丁目","koaza":"","lat":32.779423,"lng":130.699696,"zip":"8600833"},{"town":"平成二丁目","koaza":"","lat":32.780026,"lng":130.702102,"zip":"8600833"},{"town":"平成三丁目","koaza":"","lat":32.780096,"lng":130.704513,"zip":"8600833"},{"town":"保田窪一丁目","koaza":"","lat":32.805702,"lng":130.742166,"zip":"8620926"},{"town":"保田窪二丁目","koaza":"","lat":32.806177,"lng":130.74612,"zip":"8620926"},{"town":"本荘一丁目","koaza":"","lat":32.79676,"lng":130.711586,"zip":"8600811"},{"town":"本荘二丁目","koaza":"","lat":32.793569,"lng":130.712341,"zip":"8600811"},{"town":"本荘三丁目","koaza":"","lat":32.795372,"lng":130.709096,"zip":"8600811"},{"town":"本荘四丁目","koaza":"","lat":32.793193,"lng":130.710524,"zip":"8600811"},{"town":"本荘六丁目","koaza":"","lat":32.792088,"lng":130.707928,"zip":"8600811"},{"town":"本荘町","koaza":"","lat":32.785776,"lng":130.702171,"zip":"8600816"},{"town":"本丸","koaza":"","lat":32.805404,"lng":130.706217,"zip":"8600002"},{"town":"松原町","koaza":"","lat":32.793356,"lng":130.700177,"zip":"8600024"},{"town":"南熊本一丁目","koaza":"","lat":32.790498,"lng":130.711309,"zip":"8600812"},{"town":"南熊本二丁目","koaza":"","lat":32.789374,"lng":130.712509,"zip":"8600812"},{"town":"南熊本三丁目","koaza":"","lat":32.78679,"lng":130.712572,"zip":"8600812"},{"town":"南熊本四丁目","koaza":"","lat":32.789554,"lng":130.709899,"zip":"8600812"},{"town":"南熊本五丁目","koaza":"","lat":32.785875,"lng":130.710211,"zip":"8600812"},{"town":"南千反畑町","koaza":"","lat":32.806734,"lng":130.716255,"zip":"8600842"},{"town":"南坪井町","koaza":"","lat":32.807499,"lng":130.71338,"zip":"8600848"},{"town":"宮内","koaza":"","lat":32.806044,"lng":130.698195,"zip":"8600005"},{"town":"妙体寺町","koaza":"","lat":32.811407,"lng":130.716511,"zip":"8600856"},{"town":"迎町一丁目","koaza":"","lat":32.79225,"lng":130.701954,"zip":"8600817"},{"town":"迎町二丁目","koaza":"","lat":32.790684,"lng":130.70335,"zip":"8600817"},{"town":"室園町","koaza":"","lat":32.822544,"lng":130.723439,"zip":"8618072"},{"town":"本山一丁目","koaza":"","lat":32.791676,"lng":130.699098,"zip":"8600821"},{"town":"本山二丁目","koaza":"","lat":32.791044,"lng":130.695128,"zip":"8600821"},{"town":"本山三丁目","koaza":"","lat":32.788448,"lng":130.694888,"zip":"8600821"},{"town":"本山四丁目","koaza":"","lat":32.789673,"lng":130.699401,"zip":"8600821"},{"town":"本山町","koaza":"","lat":32.784617,"lng":130.700703,"zip":"8600822"},{"town":"薬園町","koaza":"","lat":32.813599,"lng":130.718385,"zip":"8600852"},{"town":"山崎町","koaza":"","lat":32.796678,"lng":130.702918,"zip":"8600016"},{"town":"弥生町","koaza":"","lat":32.790852,"lng":130.705256,"zip":"8600818"},{"town":"横紺屋町","koaza":"","lat":32.794956,"lng":130.700132,"zip":"8600022"},{"town":"横手一丁目","koaza":"","lat":32.800108,"lng":130.692637,"zip":"8600046"},{"town":"横手二丁目","koaza":"","lat":32.796388,"lng":130.689715,"zip":"8600046"},{"town":"横手三丁目","koaza":"","lat":32.798469,"lng":130.689888,"zip":"8600046"},{"town":"世安町","koaza":"","lat":32.783511,"lng":130.697031,"zip":"8600823"},{"town":"万町一丁目","koaza":"","lat":32.794222,"lng":130.698408,"zip":"8600032"},{"town":"万町二丁目","koaza":"","lat":32.794555,"lng":130.697151,"zip":"8600032"},{"town":"練兵町","koaza":"","lat":32.797887,"lng":130.702636,"zip":"8600017"},{"town":"本荘五丁目","koaza":"","lat":32.794097,"lng":130.705557,"zip":"8600811"},{"town":"下通二丁目","koaza":"","lat":32.798086,"lng":130.708805,"zip":"8600807"},{"town":"紺屋今町","koaza":"","lat":32.797208,"lng":130.705473,"zip":"8600012"},{"town":"新鍛冶屋町","koaza":"","lat":32.796303,"lng":130.706266,"zip":"8600011"},{"town":"十禅寺町","koaza":"瀬出","lat":32.779953,"lng":130.698569,"zip":"8610000"},{"town":"十禅寺四丁目","koaza":"","lat":null,"lng":null,"zip":null},{"town":"世安一丁目","koaza":"","lat":null,"lng":null,"zip":null},{"town":"世安二丁目","koaza":"","lat":null,"lng":null,"zip":null},{"town":"世安三丁目","koaza":"","lat":null,"lng":null,"zip":null}]