[{"town":"池亀町","koaza":"","lat":32.824913,"lng":130.695722,"zip":"8600071"},{"town":"池田一丁目","koaza":"","lat":32.822963,"lng":130.704405,"zip":"8600082"},{"town":"池田二丁目","koaza":"","lat":32.828269,"lng":130.70471,"zip":"8600082"},{"town":"池田三丁目","koaza":"","lat":32.831593,"lng":130.701082,"zip":"8600082"},{"town":"池田四丁目","koaza":"","lat":32.832009,"lng":130.696945,"zip":"8600082"},{"town":"池上町","koaza":"","lat":32.792724,"lng":130.670467,"zip":"8600048"},{"town":"沖新町","koaza":"","lat":32.767224,"lng":130.611218,"zip":"8615273"},{"town":"小島一丁目","koaza":"","lat":32.779345,"lng":130.646828,"zip":"8615287"},{"town":"小島二丁目","koaza":"","lat":32.775664,"lng":130.646893,"zip":"8615287"},{"town":"小島三丁目","koaza":"","lat":32.774755,"lng":130.641099,"zip":"8615287"},{"town":"小島四丁目","koaza":"","lat":32.779543,"lng":130.643063,"zip":"8615287"},{"town":"小島五丁目","koaza":"","lat":32.780954,"lng":130.640485,"zip":"8615287"},{"town":"小島六丁目","koaza":"","lat":32.775832,"lng":130.63546,"zip":"8615287"},{"town":"小島七丁目","koaza":"","lat":32.778551,"lng":130.634723,"zip":"8615287"},{"town":"小島八丁目","koaza":"","lat":32.782525,"lng":130.636684,"zip":"8615287"},{"town":"小島九丁目","koaza":"","lat":32.783573,"lng":130.628844,"zip":"8615287"},{"town":"小島上町","koaza":"","lat":32.772103,"lng":130.637145,"zip":"8615285"},{"town":"小島下町","koaza":"","lat":32.783553,"lng":130.611237,"zip":"8615284"},{"town":"春日一丁目","koaza":"","lat":32.792549,"lng":130.692147,"zip":"8600047"},{"town":"春日二丁目","koaza":"","lat":32.787416,"lng":130.689104,"zip":"8600047"},{"town":"春日三丁目","koaza":"","lat":32.789437,"lng":130.68798,"zip":"8600047"},{"town":"春日四丁目","koaza":"","lat":32.794082,"lng":130.687588,"zip":"8600047"},{"town":"春日五丁目","koaza":"","lat":32.791058,"lng":130.68493,"zip":"8600047"},{"town":"春日六丁目","koaza":"","lat":32.790186,"lng":130.682651,"zip":"8600047"},{"town":"春日七丁目","koaza":"","lat":32.7856,"lng":130.678327,"zip":"8600047"},{"town":"春日八丁目","koaza":"","lat":32.78825,"lng":130.677252,"zip":"8600047"},{"town":"上熊本一丁目","koaza":"","lat":32.814049,"lng":130.701647,"zip":"8600079"},{"town":"上熊本二丁目","koaza":"","lat":32.814759,"lng":130.69958,"zip":"8600079"},{"town":"上熊本三丁目","koaza":"","lat":32.822358,"lng":130.700183,"zip":"8600079"},{"town":"上代十丁目","koaza":"","lat":32.779449,"lng":130.660705,"zip":"8600068"},{"town":"上代一丁目","koaza":"","lat":32.783857,"lng":130.669914,"zip":"8600068"},{"town":"上代三丁目","koaza":"","lat":32.780894,"lng":130.669166,"zip":"8600068"},{"town":"上代四丁目","koaza":"","lat":32.77756,"lng":130.668765,"zip":"8600068"},{"town":"上代五丁目","koaza":"","lat":32.774233,"lng":130.668516,"zip":"8600068"},{"town":"上代六丁目","koaza":"","lat":32.775063,"lng":130.662682,"zip":"8600068"},{"town":"上代七丁目","koaza":"","lat":32.779273,"lng":130.664236,"zip":"8600068"},{"town":"上代八丁目","koaza":"","lat":32.78404,"lng":130.664112,"zip":"8600068"},{"town":"上代九丁目","koaza":"","lat":32.784086,"lng":130.659867,"zip":"8600068"},{"town":"上高橋一丁目","koaza":"","lat":32.786134,"lng":130.663853,"zip":"8600061"},{"town":"上高橋二丁目","koaza":"","lat":32.791584,"lng":130.656996,"zip":"8600061"},{"town":"上松尾町","koaza":"","lat":32.801121,"lng":130.638179,"zip":"8615289"},{"town":"河内町大多尾","koaza":"","lat":32.853756,"lng":130.648821,"zip":"8615341"},{"town":"河内町面木","koaza":"","lat":32.821088,"lng":130.630397,"zip":"8615345"},{"town":"河内町河内","koaza":"","lat":32.819368,"lng":130.606459,"zip":"8615346"},{"town":"河内町白浜","koaza":"","lat":32.844747,"lng":130.588386,"zip":"8615348"},{"town":"河内町岳","koaza":"","lat":32.823412,"lng":130.645166,"zip":"8615344"},{"town":"河内町東門寺","koaza":"","lat":32.842231,"lng":130.658788,"zip":"8615342"},{"town":"河内町野出","koaza":"","lat":32.835404,"lng":130.621646,"zip":"8615343"},{"town":"河内町船津","koaza":"","lat":32.832603,"lng":130.595606,"zip":"8615347"},{"town":"京町本丁","koaza":"","lat":32.817348,"lng":130.70182,"zip":"8600081"},{"town":"島崎二丁目","koaza":"","lat":32.808431,"lng":130.689737,"zip":"8600073"},{"town":"島崎三丁目","koaza":"","lat":32.805692,"lng":130.681969,"zip":"8600073"},{"town":"島崎四丁目","koaza":"","lat":32.809152,"lng":130.68266,"zip":"8600073"},{"town":"島崎五丁目","koaza":"","lat":32.812404,"lng":130.681034,"zip":"8600073"},{"town":"島崎六丁目","koaza":"","lat":32.81764,"lng":130.680505,"zip":"8600073"},{"town":"島崎七丁目","koaza":"","lat":32.81684,"lng":130.666625,"zip":"8600073"},{"town":"城山大塘一丁目","koaza":"","lat":32.780378,"lng":130.657898,"zip":"8600067"},{"town":"城山大塘二丁目","koaza":"","lat":32.782488,"lng":130.654886,"zip":"8600067"},{"town":"城山大塘三丁目","koaza":"","lat":32.785075,"lng":130.653195,"zip":"8600067"},{"town":"城山大塘四丁目","koaza":"","lat":32.783313,"lng":130.651869,"zip":"8600067"},{"town":"城山大塘五丁目","koaza":"","lat":32.784121,"lng":130.649891,"zip":"8600067"},{"town":"城山大塘六丁目","koaza":"","lat":32.784146,"lng":130.646728,"zip":"8600067"},{"town":"城山大塘七丁目","koaza":"","lat":32.783477,"lng":130.643533,"zip":"8600067"},{"town":"城山下代一丁目","koaza":"","lat":32.780566,"lng":130.654121,"zip":"8600066"},{"town":"城山下代二丁目","koaza":"","lat":32.778482,"lng":130.654419,"zip":"8600066"},{"town":"城山下代三丁目","koaza":"","lat":32.776546,"lng":130.652882,"zip":"8600066"},{"town":"城山下代四丁目","koaza":"","lat":32.779597,"lng":130.650455,"zip":"8600066"},{"town":"城山下代五丁目","koaza":"","lat":32.781464,"lng":130.645868,"zip":"8600066"},{"town":"城山半田一丁目","koaza":"","lat":32.774836,"lng":130.657962,"zip":"8600064"},{"town":"城山半田二丁目","koaza":"","lat":32.771879,"lng":130.661224,"zip":"8600064"},{"town":"城山半田三丁目","koaza":"","lat":32.770527,"lng":130.655278,"zip":"8600064"},{"town":"城山半田四丁目","koaza":"","lat":32.774215,"lng":130.654168,"zip":"8600064"},{"town":"城山薬師一丁目","koaza":"","lat":32.771674,"lng":130.651286,"zip":"8600065"},{"town":"城山薬師二丁目","koaza":"","lat":32.772033,"lng":130.6457,"zip":"8600065"},{"town":"新土河原一丁目","koaza":"","lat":32.77396,"lng":130.678097,"zip":"8600056"},{"town":"新土河原二丁目","koaza":"","lat":32.774384,"lng":130.673791,"zip":"8600056"},{"town":"新港一丁目","koaza":"","lat":32.763862,"lng":130.590564,"zip":"8615274"},{"town":"新港二丁目","koaza":"","lat":32.765544,"lng":130.581,"zip":"8615274"},{"town":"高橋町一丁目","koaza":"","lat":32.784735,"lng":130.657562,"zip":"8600062"},{"town":"高橋町二丁目","koaza":"","lat":32.786435,"lng":130.654676,"zip":"8600062"},{"town":"田崎一丁目","koaza":"","lat":32.782544,"lng":130.685106,"zip":"8600053"},{"town":"田崎二丁目","koaza":"","lat":32.783472,"lng":130.681628,"zip":"8600053"},{"town":"田崎三丁目","koaza":"","lat":32.781375,"lng":130.681015,"zip":"8600053"},{"town":"田崎本町","koaza":"","lat":32.782882,"lng":130.686871,"zip":"8600052"},{"town":"谷尾崎町","koaza":"","lat":32.802942,"lng":130.664908,"zip":"8600044"},{"town":"津浦町","koaza":"","lat":32.824247,"lng":130.708468,"zip":"8600088"},{"town":"出町","koaza":"","lat":32.823663,"lng":130.707175,"zip":"8600074"},{"town":"戸坂町","koaza":"","lat":32.799586,"lng":130.681574,"zip":"8600045"},{"town":"中島町","koaza":"","lat":32.765842,"lng":130.632739,"zip":"8615272"},{"town":"中原町","koaza":"","lat":32.770504,"lng":130.636562,"zip":"8615271"},{"town":"西松尾町","koaza":"","lat":32.793107,"lng":130.621163,"zip":"8615288"},{"town":"二本木一丁目","koaza":"","lat":32.787898,"lng":130.691924,"zip":"8600051"},{"town":"二本木二丁目","koaza":"","lat":32.785503,"lng":130.691426,"zip":"8600051"},{"town":"二本木三丁目","koaza":"","lat":32.783102,"lng":130.6913,"zip":"8600051"},{"town":"二本木四丁目","koaza":"","lat":32.780411,"lng":130.6908,"zip":"8600051"},{"town":"二本木五丁目","koaza":"","lat":32.781519,"lng":130.688148,"zip":"8600051"},{"town":"野中一丁目","koaza":"","lat":32.777036,"lng":130.679945,"zip":"8600059"},{"town":"野中二丁目","koaza":"","lat":32.777116,"lng":130.676929,"zip":"8600059"},{"town":"野中三丁目","koaza":"","lat":32.777245,"lng":130.67336,"zip":"8600059"},{"town":"花園一丁目","koaza":"","lat":32.814705,"lng":130.697499,"zip":"8600072"},{"town":"花園二丁目","koaza":"","lat":32.814622,"lng":130.694393,"zip":"8600072"},{"town":"花園三丁目","koaza":"","lat":32.813758,"lng":130.69149,"zip":"8600072"},{"town":"花園四丁目","koaza":"","lat":32.817287,"lng":130.689393,"zip":"8600072"},{"town":"花園五丁目","koaza":"","lat":32.819521,"lng":130.693743,"zip":"8600072"},{"town":"花園六丁目","koaza":"","lat":32.822169,"lng":130.683082,"zip":"8600072"},{"town":"花園七丁目","koaza":"","lat":32.830303,"lng":130.680935,"zip":"8600072"},{"town":"稗田町","koaza":"","lat":32.820734,"lng":130.70793,"zip":"8600075"},{"town":"松尾二丁目","koaza":"","lat":32.78726,"lng":130.644264,"zip":"8615280"},{"town":"松尾町近津","koaza":"","lat":32.806475,"lng":130.617169,"zip":"8615281"},{"town":"松尾町平山","koaza":"","lat":32.815036,"lng":130.629007,"zip":"8615282"},{"town":"八島一丁目","koaza":"","lat":32.779252,"lng":130.684735,"zip":"8600054"},{"town":"八島二丁目","koaza":"","lat":32.779449,"lng":130.680186,"zip":"8600054"},{"town":"横手一丁目","koaza":"","lat":32.801199,"lng":130.690422,"zip":"8600046"},{"town":"横手二丁目","koaza":"","lat":32.79665,"lng":130.686945,"zip":"8600046"},{"town":"横手三丁目","koaza":"","lat":32.799214,"lng":130.687644,"zip":"8600046"},{"town":"横手四丁目","koaza":"","lat":32.801924,"lng":130.686084,"zip":"8600046"},{"town":"横手五丁目","koaza":"","lat":32.80452,"lng":130.687397,"zip":"8600046"},{"town":"蓮台寺一丁目","koaza":"","lat":32.776391,"lng":130.68993,"zip":"8600055"},{"town":"蓮台寺二丁目","koaza":"","lat":32.773111,"lng":130.68859,"zip":"8600055"},{"town":"蓮台寺三丁目","koaza":"","lat":32.771024,"lng":130.687955,"zip":"8600055"},{"town":"蓮台寺四丁目","koaza":"","lat":32.777343,"lng":130.684939,"zip":"8600055"},{"town":"蓮台寺五丁目","koaza":"","lat":32.772897,"lng":130.682605,"zip":"8600055"},{"town":"中松尾町","koaza":"","lat":32.791684,"lng":130.64192,"zip":"8615286"},{"town":"松尾一丁目","koaza":"","lat":32.788682,"lng":130.649037,"zip":"8615280"},{"town":"八島町","koaza":"","lat":32.779549,"lng":130.676408,"zip":"8600057"},{"town":"上代二丁目","koaza":"","lat":32.781063,"lng":130.673877,"zip":"8600068"},{"town":"城山上代町","koaza":"","lat":32.7799,"lng":130.674838,"zip":"8600063"},{"town":"田崎町","koaza":"","lat":32.782565,"lng":130.676362,"zip":"8600058"}]