[{"town":"青木","koaza":"","lat":32.965376,"lng":130.577607,"zip":"8650004"},{"town":"青野","koaza":"","lat":32.902073,"lng":130.592828,"zip":"8650035"},{"town":"秋丸","koaza":"","lat":32.931174,"lng":130.566513,"zip":"8650026"},{"town":"安楽寺","koaza":"","lat":32.929082,"lng":130.605861,"zip":"8650014"},{"town":"伊倉北方","koaza":"","lat":32.9144,"lng":130.57864,"zip":"8650041"},{"town":"伊倉南方","koaza":"","lat":32.897861,"lng":130.569764,"zip":"8650045"},{"town":"石貫","koaza":"","lat":32.963231,"lng":130.55611,"zip":"8650008"},{"town":"岩崎","koaza":"","lat":32.93467,"lng":130.559723,"zip":"8650016"},{"town":"永徳寺","koaza":"","lat":32.921884,"lng":130.559281,"zip":"8650024"},{"town":"大倉","koaza":"","lat":32.92131,"lng":130.573465,"zip":"8650023"},{"town":"大浜町","koaza":"","lat":32.879205,"lng":130.534814,"zip":"8650055"},{"town":"小島","koaza":"","lat":32.914099,"lng":130.54692,"zip":"8650054"},{"town":"小野尻","koaza":"","lat":32.911372,"lng":130.555872,"zip":"8650048"},{"town":"片諏訪","koaza":"","lat":32.898065,"lng":130.576106,"zip":"8650044"},{"town":"上小田","koaza":"","lat":32.955382,"lng":130.596689,"zip":"8650011"},{"town":"亀甲","koaza":"","lat":32.928367,"lng":130.553887,"zip":"8650015"},{"town":"河崎","koaza":"","lat":32.932728,"lng":130.578523,"zip":"8650007"},{"town":"川島","koaza":"","lat":32.907257,"lng":130.559146,"zip":"8650047"},{"town":"川部田","koaza":"","lat":32.944503,"lng":130.585789,"zip":"8650017"},{"town":"北坂門田","koaza":"","lat":32.913748,"lng":130.607458,"zip":"8650032"},{"town":"北牟田","koaza":"","lat":32.898554,"lng":130.562402,"zip":"8650046"},{"town":"小浜","koaza":"","lat":32.910028,"lng":130.538755,"zip":"8650057"},{"town":"下","koaza":"","lat":32.940464,"lng":130.606518,"zip":"8650013"},{"town":"下小田","koaza":"","lat":32.945992,"lng":130.593632,"zip":"8650018"},{"town":"千田川原","koaza":"","lat":32.914597,"lng":130.557852,"zip":"8650053"},{"town":"岱明町扇崎","koaza":"","lat":32.916001,"lng":130.489543,"zip":"8690213"},{"town":"岱明町大野下","koaza":"","lat":32.916148,"lng":130.502253,"zip":"8690224"},{"town":"岱明町古閑","koaza":"","lat":32.931892,"lng":130.505419,"zip":"8690235"},{"town":"岱明町西照寺","koaza":"","lat":32.940519,"lng":130.508607,"zip":"8690235"},{"town":"岱明町下沖洲","koaza":"","lat":32.906073,"lng":130.483066,"zip":"8690212"},{"town":"岱明町下前原","koaza":"","lat":32.926848,"lng":130.527551,"zip":"8690221"},{"town":"岱明町上","koaza":"","lat":32.93191,"lng":130.513731,"zip":"8690235"},{"town":"岱明町庄山","koaza":"","lat":32.930694,"lng":130.518279,"zip":"8690231"},{"town":"岱明町高道","koaza":"","lat":32.900202,"lng":130.516388,"zip":"8690202"},{"town":"岱明町中土","koaza":"","lat":32.918473,"lng":130.510578,"zip":"8690223"},{"town":"岱明町鍋","koaza":"","lat":32.904044,"lng":130.495281,"zip":"8690211"},{"town":"岱明町野口","koaza":"","lat":32.92178,"lng":130.528317,"zip":"8690222"},{"town":"岱明町浜田","koaza":"","lat":32.901063,"lng":130.50538,"zip":"8690203"},{"town":"岱明町開田","koaza":"","lat":32.948244,"lng":130.518056,"zip":"8690238"},{"town":"岱明町三崎","koaza":"","lat":32.925843,"lng":130.49908,"zip":"8690234"},{"town":"岱明町山下","koaza":"","lat":32.914044,"lng":130.52094,"zip":"8690201"},{"town":"高瀬","koaza":"","lat":32.928306,"lng":130.562087,"zip":"8650025"},{"town":"田崎","koaza":"","lat":32.917338,"lng":130.598194,"zip":"8650031"},{"town":"玉名","koaza":"","lat":32.950196,"lng":130.57471,"zip":"8650005"},{"town":"築地","koaza":"","lat":32.946109,"lng":130.530342,"zip":"8650065"},{"town":"月田","koaza":"","lat":32.979377,"lng":130.595141,"zip":"8650001"},{"town":"津留","koaza":"","lat":32.930528,"lng":130.589808,"zip":"8650021"},{"town":"寺田","koaza":"","lat":32.925263,"lng":130.586428,"zip":"8650022"},{"town":"天水町小天","koaza":"","lat":32.860344,"lng":130.600929,"zip":"8615401"},{"town":"天水町尾田","koaza":"","lat":32.879939,"lng":130.599122,"zip":"8615406"},{"town":"天水町竹崎","koaza":"","lat":32.88883,"lng":130.575129,"zip":"8615404"},{"town":"天水町立花","koaza":"","lat":32.874503,"lng":130.590802,"zip":"8615402"},{"town":"天水町野部田","koaza":"","lat":32.89062,"lng":130.592587,"zip":"8615405"},{"town":"天水町部田見","koaza":"","lat":32.878987,"lng":130.578704,"zip":"8615403"},{"town":"富尾","koaza":"","lat":32.945415,"lng":130.560281,"zip":"8650062"},{"town":"中","koaza":"","lat":32.926098,"lng":130.546552,"zip":"8650064"},{"town":"中尾","koaza":"","lat":32.934401,"lng":130.545057,"zip":"8650063"},{"town":"中坂門田","koaza":"","lat":32.906063,"lng":130.614022,"zip":"8650033"},{"town":"滑石","koaza":"","lat":32.899675,"lng":130.531356,"zip":"8650056"},{"town":"箱谷","koaza":"","lat":32.981634,"lng":130.579331,"zip":"8650002"},{"town":"繁根木","koaza":"","lat":32.927381,"lng":130.557986,"zip":"8650051"},{"town":"松木","koaza":"","lat":32.923397,"lng":130.554195,"zip":"8650052"},{"town":"溝上","koaza":"","lat":32.970583,"lng":130.588431,"zip":"8650003"},{"town":"三ツ川","koaza":"","lat":32.981389,"lng":130.551018,"zip":"8650009"},{"town":"南坂門田","koaza":"","lat":32.900044,"lng":130.606935,"zip":"8650034"},{"town":"宮原","koaza":"","lat":32.905067,"lng":130.580427,"zip":"8650042"},{"town":"向津留","koaza":"","lat":32.928498,"lng":130.572799,"zip":"8650027"},{"town":"山田","koaza":"","lat":32.95535,"lng":130.53786,"zip":"8650066"},{"town":"山部田","koaza":"","lat":32.948949,"lng":130.601328,"zip":"8650012"},{"town":"横島町大園","koaza":"","lat":32.887869,"lng":130.560697,"zip":"8650071"},{"town":"横島町共栄","koaza":"","lat":32.853824,"lng":130.546213,"zip":"8650073"},{"town":"横島町横島","koaza":"","lat":32.873758,"lng":130.556296,"zip":"8650072"},{"town":"横田","koaza":"","lat":32.898882,"lng":130.581923,"zip":"8650043"},{"town":"立願寺","koaza":"","lat":32.947374,"lng":130.550511,"zip":"8650061"},{"town":"両迫間","koaza":"","lat":32.939863,"lng":130.577383,"zip":"8650006"},{"town":"六田","koaza":"","lat":32.92265,"lng":130.544646,"zip":"8650058"},{"town":"岱明町大野下","koaza":"塔ノ本","lat":32.914289,"lng":130.499285,"zip":"8690224"},{"town":"岱明町開田","koaza":"京塚","lat":32.938303,"lng":130.515126,"zip":"8690238"},{"town":"築地","koaza":"大坪","lat":32.931905,"lng":130.529666,"zip":"8650065"},{"town":"中","koaza":"河原","lat":32.927527,"lng":130.541222,"zip":"8650064"}]