[{"town":"板楠","koaza":"","lat":33.066275,"lng":130.62815,"zip":"8610913"},{"town":"岩","koaza":"","lat":33.037892,"lng":130.643198,"zip":"8610922"},{"town":"岩尻","koaza":"","lat":33.001198,"lng":130.624381,"zip":"8650114"},{"town":"内田","koaza":"","lat":32.993674,"lng":130.592721,"zip":"8650104"},{"town":"江栗","koaza":"","lat":33.020371,"lng":130.604605,"zip":"8650101"},{"town":"江田","koaza":"","lat":32.976262,"lng":130.615563,"zip":"8650136"},{"town":"榎原","koaza":"","lat":32.9868,"lng":130.64484,"zip":"8650121"},{"town":"大田黒","koaza":"","lat":33.039839,"lng":130.609753,"zip":"8610924"},{"town":"大屋","koaza":"","lat":33.01062,"lng":130.63434,"zip":"8650112"},{"town":"竈門","koaza":"","lat":33.00986,"lng":130.606785,"zip":"8650116"},{"town":"上板楠","koaza":"","lat":33.076426,"lng":130.61588,"zip":"8610914"},{"town":"上十町","koaza":"","lat":33.098538,"lng":130.641413,"zip":"8610911"},{"town":"上和仁","koaza":"","lat":33.102914,"lng":130.595917,"zip":"8610901"},{"town":"久米野","koaza":"","lat":33.000005,"lng":130.614677,"zip":"8650115"},{"town":"志口永","koaza":"","lat":33.009544,"lng":130.620121,"zip":"8650117"},{"town":"下津原","koaza":"","lat":33.020341,"lng":130.622923,"zip":"8650111"},{"town":"瀬川","koaza":"","lat":32.965738,"lng":130.606583,"zip":"8650135"},{"town":"高野","koaza":"","lat":32.99297,"lng":130.637291,"zip":"8650122"},{"town":"津田","koaza":"","lat":33.044996,"lng":130.628901,"zip":"8610921"},{"town":"長小田","koaza":"","lat":32.99708,"lng":130.604682,"zip":"8650103"},{"town":"中十町","koaza":"","lat":33.083109,"lng":130.638365,"zip":"8610912"},{"town":"中林","koaza":"","lat":33.060298,"lng":130.605689,"zip":"8610905"},{"town":"中和仁","koaza":"","lat":33.099929,"lng":130.571944,"zip":"8610902"},{"town":"西吉地","koaza":"","lat":33.06605,"lng":130.586775,"zip":"8610906"},{"town":"野田","koaza":"","lat":33.049228,"lng":130.600046,"zip":"8610925"},{"town":"萩原","koaza":"","lat":32.96922,"lng":130.645242,"zip":"8650132"},{"town":"原口","koaza":"","lat":32.986597,"lng":130.610074,"zip":"8650124"},{"town":"東吉地","koaza":"","lat":33.072968,"lng":130.602482,"zip":"8610904"},{"town":"久井原","koaza":"","lat":33.009381,"lng":130.594207,"zip":"8650102"},{"town":"日平","koaza":"","lat":32.957968,"lng":130.616468,"zip":"8650134"},{"town":"平野","koaza":"","lat":33.031086,"lng":130.61957,"zip":"8610923"},{"town":"藤田","koaza":"","lat":32.988454,"lng":130.602263,"zip":"8650125"},{"town":"蜻浦","koaza":"","lat":32.954795,"lng":130.627134,"zip":"8650133"},{"town":"前原","koaza":"","lat":32.99109,"lng":130.605873,"zip":"8650126"},{"town":"米渡尾","koaza":"","lat":32.987671,"lng":130.626647,"zip":"8650123"},{"town":"用木","koaza":"","lat":32.972165,"lng":130.632207,"zip":"8650131"},{"town":"焼米","koaza":"","lat":33.001244,"lng":130.643521,"zip":"8650113"},{"town":"山十町","koaza":"","lat":33.095674,"lng":130.618498,"zip":"8610915"},{"town":"和仁","koaza":"","lat":33.080563,"lng":130.594459,"zip":"8610903"}]