[{"town":"上北","koaza":"","lat":32.223893,"lng":130.901456,"zip":"8680422"},{"town":"上西","koaza":"","lat":32.199578,"lng":130.891902,"zip":"8680424"},{"town":"上東","koaza":"","lat":32.215304,"lng":130.92273,"zip":"8680421"},{"town":"上南","koaza":"","lat":32.208626,"lng":130.908714,"zip":"8680423"},{"town":"岡原北","koaza":"","lat":32.230404,"lng":130.950245,"zip":"8680431"},{"town":"岡原南","koaza":"","lat":32.215735,"lng":130.946033,"zip":"8680432"},{"town":"須恵","koaza":"","lat":32.28699,"lng":130.893638,"zip":"8680451"},{"town":"深田北","koaza":"","lat":32.268743,"lng":130.881004,"zip":"8680441"},{"town":"深田西","koaza":"","lat":32.263468,"lng":130.858755,"zip":"8680444"},{"town":"深田東","koaza":"","lat":32.252635,"lng":130.878011,"zip":"8680442"},{"town":"深田南","koaza":"","lat":32.238577,"lng":130.872997,"zip":"8680443"},{"town":"皆越","koaza":"","lat":32.159299,"lng":130.947442,"zip":"8680425"},{"town":"免田西","koaza":"","lat":32.222331,"lng":130.873909,"zip":"8680415"},{"town":"免田東","koaza":"","lat":32.243008,"lng":130.903417,"zip":"8680408"}]