[{"town":"荒尾","koaza":"","lat":32.983817,"lng":130.462569,"zip":"8640041"},{"town":"一部","koaza":"","lat":32.96737,"lng":130.447095,"zip":"8640021"},{"town":"牛水","koaza":"","lat":32.949786,"lng":130.450929,"zip":"8640026"},{"town":"大島","koaza":"","lat":32.996132,"lng":130.421923,"zip":"8640057"},{"town":"大島町三丁目","koaza":"","lat":32.999102,"lng":130.429294,"zip":"8640051"},{"town":"大島町四丁目","koaza":"","lat":32.997712,"lng":130.427774,"zip":"8640051"},{"town":"大平町一丁目","koaza":"","lat":32.989251,"lng":130.436335,"zip":"8640005"},{"town":"大平町二丁目","koaza":"","lat":32.988398,"lng":130.437596,"zip":"8640005"},{"town":"大平町三丁目","koaza":"","lat":32.990305,"lng":130.438895,"zip":"8640005"},{"town":"金山","koaza":"","lat":32.951271,"lng":130.503424,"zip":"8640162"},{"town":"樺","koaza":"","lat":32.967485,"lng":130.50484,"zip":"8640165"},{"town":"上井手","koaza":"","lat":32.997907,"lng":130.486806,"zip":"8640013"},{"town":"上平山","koaza":"","lat":33.002463,"lng":130.509276,"zip":"8640014"},{"town":"川登","koaza":"","lat":32.972833,"lng":130.477172,"zip":"8640031"},{"town":"宮内","koaza":"","lat":32.988201,"lng":130.446847,"zip":"8640004"},{"town":"宮内出目","koaza":"","lat":32.98936,"lng":130.432532,"zip":"8640003"},{"town":"蔵満","koaza":"","lat":32.960609,"lng":130.438726,"zip":"8640027"},{"town":"菰屋","koaza":"","lat":32.957453,"lng":130.468084,"zip":"8640161"},{"town":"桜山町一丁目","koaza":"","lat":32.965362,"lng":130.453201,"zip":"8640022"},{"town":"桜山町二丁目","koaza":"","lat":32.965864,"lng":130.455643,"zip":"8640022"},{"town":"桜山町三丁目","koaza":"","lat":32.965822,"lng":130.458293,"zip":"8640022"},{"town":"桜山町四丁目","koaza":"","lat":32.965094,"lng":130.461256,"zip":"8640022"},{"town":"下井手","koaza":"","lat":32.99454,"lng":130.464833,"zip":"8640011"},{"town":"昭和町","koaza":"","lat":32.9966,"lng":130.432005,"zip":"8640056"},{"town":"住吉町","koaza":"","lat":32.991444,"lng":130.443902,"zip":"8640006"},{"town":"大正町一丁目","koaza":"","lat":32.996284,"lng":130.433733,"zip":"8640054"},{"town":"大正町二丁目","koaza":"","lat":32.999115,"lng":130.434144,"zip":"8640054"},{"town":"高浜","koaza":"","lat":32.945411,"lng":130.460642,"zip":"8640025"},{"town":"西原町一丁目","koaza":"","lat":33.002821,"lng":130.434728,"zip":"8640053"},{"town":"西原町二丁目","koaza":"","lat":33.003322,"lng":130.432507,"zip":"8640053"},{"town":"西原町三丁目","koaza":"","lat":33.00175,"lng":130.431594,"zip":"8640053"},{"town":"野原","koaza":"","lat":32.956408,"lng":130.488663,"zip":"8640163"},{"town":"八幡台一丁目","koaza":"","lat":32.962886,"lng":130.484599,"zip":"8640164"},{"town":"八幡台二丁目","koaza":"","lat":32.964866,"lng":130.483346,"zip":"8640164"},{"town":"八幡台三丁目","koaza":"","lat":32.967499,"lng":130.481803,"zip":"8640164"},{"town":"八幡台四丁目","koaza":"","lat":32.967703,"lng":130.484074,"zip":"8640164"},{"town":"原万田","koaza":"","lat":33.001077,"lng":130.446413,"zip":"8640001"},{"town":"東屋形一丁目","koaza":"","lat":32.984232,"lng":130.44874,"zip":"8640042"},{"town":"東屋形二丁目","koaza":"","lat":32.984241,"lng":130.451824,"zip":"8640042"},{"town":"東屋形三丁目","koaza":"","lat":32.983658,"lng":130.454842,"zip":"8640042"},{"town":"東屋形四丁目","koaza":"","lat":32.98161,"lng":130.454256,"zip":"8640042"},{"town":"日の出町","koaza":"","lat":32.999388,"lng":130.431728,"zip":"8640055"},{"town":"平山","koaza":"","lat":32.991157,"lng":130.507156,"zip":"8640015"},{"town":"府本","koaza":"","lat":32.978798,"lng":130.505535,"zip":"8640166"},{"town":"本井手","koaza":"","lat":32.994599,"lng":130.475522,"zip":"8640012"},{"town":"増永","koaza":"","lat":32.97261,"lng":130.451246,"zip":"8640032"},{"town":"万田","koaza":"","lat":32.99546,"lng":130.440253,"zip":"8640002"},{"town":"水野","koaza":"","lat":32.956279,"lng":130.451718,"zip":"8640023"},{"town":"緑ケ丘一丁目","koaza":"","lat":32.982769,"lng":130.470473,"zip":"8640033"},{"town":"緑ケ丘二丁目","koaza":"","lat":32.984629,"lng":130.471833,"zip":"8640033"},{"town":"緑ケ丘三丁目","koaza":"","lat":32.985113,"lng":130.473658,"zip":"8640033"},{"town":"緑ケ丘四丁目","koaza":"","lat":32.986024,"lng":130.476162,"zip":"8640033"},{"town":"緑ケ丘五丁目","koaza":"","lat":32.986996,"lng":130.478273,"zip":"8640033"},{"town":"四ツ山町一丁目","koaza":"","lat":33.003577,"lng":130.427643,"zip":"8640052"},{"town":"四ツ山町二丁目","koaza":"","lat":33.003139,"lng":130.429819,"zip":"8640052"},{"town":"四ツ山町三丁目","koaza":"","lat":33.004334,"lng":130.430787,"zip":"8640052"},{"town":"万田","koaza":"水町","lat":32.993754,"lng":130.435919,"zip":"8640002"},{"town":"万田","koaza":"口ノ坪","lat":32.995629,"lng":130.436672,"zip":"8640002"},{"town":"原万田","koaza":"八反田","lat":33.001382,"lng":130.436651,"zip":"8640001"},{"town":"万田","koaza":"平原","lat":32.993725,"lng":130.437484,"zip":"8640002"},{"town":"本井手","koaza":"大谷","lat":32.98724,"lng":130.469904,"zip":"8640012"},{"town":"金山","koaza":"向田","lat":32.94251,"lng":130.50523,"zip":"8640162"}]