[{"town":"大字岩坂","koaza":"","lat":32.849321,"lng":130.882246,"zip":"8691200"},{"town":"大字大津","koaza":"","lat":32.883408,"lng":130.894087,"zip":"8691200"},{"town":"大字大林","koaza":"","lat":32.876527,"lng":130.915126,"zip":"8691200"},{"town":"大字下町","koaza":"","lat":32.862214,"lng":130.854839,"zip":"8691200"},{"town":"大字新","koaza":"","lat":32.868475,"lng":130.865609,"zip":"8691200"},{"town":"大字陣内","koaza":"","lat":32.865372,"lng":130.878828,"zip":"8691200"},{"town":"大字杉水","koaza":"","lat":32.909402,"lng":130.846851,"zip":"8691200"},{"town":"大字瀬田","koaza":"","lat":32.886092,"lng":130.940711,"zip":"8691200"},{"town":"大字高尾野","koaza":"","lat":32.891629,"lng":130.912066,"zip":"8691200"},{"town":"大字中島","koaza":"","lat":32.85705,"lng":130.874556,"zip":"8691200"},{"town":"大字錦野","koaza":"","lat":32.86175,"lng":130.90784,"zip":"8691200"},{"town":"大字灰塚","koaza":"","lat":32.866697,"lng":130.858721,"zip":"8691200"},{"town":"大字引水","koaza":"","lat":32.877444,"lng":130.883229,"zip":"8691200"},{"town":"大字平川","koaza":"","lat":32.900326,"lng":130.886287,"zip":"8691200"},{"town":"大字吹田","koaza":"","lat":32.873985,"lng":130.903537,"zip":"8691200"},{"town":"大字古城","koaza":"","lat":32.910997,"lng":130.948184,"zip":"8691200"},{"town":"大字外牧","koaza":"","lat":32.867619,"lng":130.948929,"zip":"8691200"},{"town":"大字真木","koaza":"","lat":32.931858,"lng":130.938923,"zip":"8691200"},{"town":"大字町","koaza":"","lat":32.85917,"lng":130.863432,"zip":"8691200"},{"town":"大字室","koaza":"","lat":32.882718,"lng":130.860276,"zip":"8691200"},{"town":"大字森","koaza":"","lat":32.871591,"lng":130.894242,"zip":"8691200"},{"town":"大字矢護川","koaza":"","lat":32.921861,"lng":130.887933,"zip":"8691200"},{"town":"美咲野一丁目","koaza":"","lat":32.886218,"lng":130.880683,"zip":"8691237"},{"town":"美咲野二丁目","koaza":"","lat":32.885311,"lng":130.885099,"zip":"8691237"},{"town":"美咲野三丁目","koaza":"","lat":32.887454,"lng":130.887339,"zip":"8691237"},{"town":"美咲野四丁目","koaza":"","lat":32.885215,"lng":130.88879,"zip":"8691237"},{"town":"大字室","koaza":"東迫尻","lat":32.874925,"lng":130.858164,"zip":"8691200"},{"town":"大字大津","koaza":"鍛冶ノ上","lat":32.874782,"lng":130.871824,"zip":"8691200"}]