[{"town":"大字芦北","koaza":"","lat":32.293872,"lng":130.497162,"zip":"8695400"},{"town":"大字天月","koaza":"","lat":32.288588,"lng":130.587486,"zip":"8695400"},{"town":"大字市野瀬","koaza":"","lat":32.27657,"lng":130.566215,"zip":"8695400"},{"town":"大字井牟田","koaza":"","lat":32.395531,"lng":130.528121,"zip":"8695400"},{"town":"大字海浦","koaza":"","lat":32.331444,"lng":130.493935,"zip":"8695400"},{"town":"大字上原","koaza":"","lat":32.370173,"lng":130.609043,"zip":"8695400"},{"town":"大字箙瀬","koaza":"","lat":32.330024,"lng":130.599528,"zip":"8695400"},{"town":"大字大岩","koaza":"","lat":32.349424,"lng":130.572984,"zip":"8695400"},{"town":"大字大川内","koaza":"","lat":32.241696,"lng":130.512477,"zip":"8695400"},{"town":"大字大尼田","koaza":"","lat":32.323979,"lng":130.548539,"zip":"8695400"},{"town":"大字大野","koaza":"","lat":32.255295,"lng":130.554781,"zip":"8695400"},{"town":"大字乙千屋","koaza":"","lat":32.317142,"lng":130.512688,"zip":"8695400"},{"town":"大字海路","koaza":"","lat":32.357337,"lng":130.616982,"zip":"8695400"},{"town":"大字國見","koaza":"","lat":32.218837,"lng":130.567632,"zip":"8695400"},{"town":"大字黒岩","koaza":"","lat":32.368853,"lng":130.576408,"zip":"8695400"},{"town":"大字桑原","koaza":"","lat":32.290428,"lng":130.538902,"zip":"8695400"},{"town":"大字小田浦","koaza":"","lat":32.344264,"lng":130.502004,"zip":"8695400"},{"town":"大字佐敷","koaza":"","lat":32.301121,"lng":130.505716,"zip":"8695400"},{"town":"大字塩浸","koaza":"","lat":32.282497,"lng":130.551871,"zip":"8695400"},{"town":"大字白岩","koaza":"","lat":32.313902,"lng":130.493745,"zip":"8695400"},{"town":"大字白木","koaza":"","lat":32.300053,"lng":130.573449,"zip":"8695400"},{"town":"大字白石","koaza":"","lat":32.30287,"lng":130.598965,"zip":"8695400"},{"town":"大字高岡","koaza":"","lat":32.220749,"lng":130.501266,"zip":"8695400"},{"town":"大字田川","koaza":"","lat":32.273988,"lng":130.532975,"zip":"8695400"},{"town":"大字立川","koaza":"","lat":32.329479,"lng":130.560821,"zip":"8695400"},{"town":"大字田浦","koaza":"","lat":32.359006,"lng":130.522253,"zip":"8695400"},{"town":"大字田浦町","koaza":"","lat":32.367814,"lng":130.501123,"zip":"8695400"},{"town":"大字告","koaza":"","lat":32.263772,"lng":130.581467,"zip":"8695400"},{"town":"大字鶴木山","koaza":"","lat":32.314597,"lng":130.476976,"zip":"8695400"},{"town":"大字豊岡","koaza":"","lat":32.260039,"lng":130.515592,"zip":"8695400"},{"town":"大字計石","koaza":"","lat":32.308727,"lng":130.484814,"zip":"8695400"},{"town":"大字波多島","koaza":"","lat":32.382195,"lng":130.513277,"zip":"8695400"},{"town":"大字花岡","koaza":"","lat":32.292455,"lng":130.510197,"zip":"8695400"},{"town":"大字伏木氏","koaza":"","lat":32.322502,"lng":130.527972,"zip":"8695400"},{"town":"大字古石","koaza":"","lat":32.204209,"lng":130.519367,"zip":"8695400"},{"town":"大字松生","koaza":"","lat":32.306439,"lng":130.542664,"zip":"8695400"},{"town":"大字丸山","koaza":"","lat":32.241245,"lng":130.540842,"zip":"8695400"},{"town":"大字道川内","koaza":"","lat":32.315816,"lng":130.502697,"zip":"8695400"},{"town":"大字宮崎","koaza":"","lat":32.271071,"lng":130.511933,"zip":"8695400"},{"town":"大字宮浦","koaza":"","lat":32.303669,"lng":130.524269,"zip":"8695400"},{"town":"大字八幡","koaza":"","lat":32.296881,"lng":130.529913,"zip":"8695400"},{"town":"大字湯浦","koaza":"","lat":32.269119,"lng":130.498371,"zip":"8695400"},{"town":"大字横居木","koaza":"","lat":32.364713,"lng":130.542569,"zip":"8695400"},{"town":"大字吉尾","koaza":"","lat":32.32937,"lng":130.586433,"zip":"8695400"},{"town":"大字米田","koaza":"","lat":32.230512,"lng":130.532611,"zip":"8695400"},{"town":"大字女島","koaza":"","lat":32.281527,"lng":130.481755,"zip":"8695400"},{"town":"大字芦北","koaza":"北田","lat":32.287988,"lng":130.495137,"zip":"8695400"}]