[{"town":"稲原","koaza":"","lat":35.163889,"lng":133.10199,"zip":"6991821"},{"town":"大谷","koaza":"","lat":35.158558,"lng":133.050933,"zip":"6991812"},{"town":"大馬木","koaza":"","lat":35.104483,"lng":133.062157,"zip":"6991941"},{"town":"大呂","koaza":"","lat":35.176282,"lng":133.130289,"zip":"6991802"},{"town":"上阿井","koaza":"","lat":35.118009,"lng":132.926514,"zip":"6991621"},{"town":"上三所","koaza":"","lat":35.226172,"lng":133.019985,"zip":"6991431"},{"town":"亀嵩","koaza":"","lat":35.225025,"lng":133.081482,"zip":"6991701"},{"town":"鴨倉","koaza":"","lat":35.206079,"lng":132.958197,"zip":"6991515"},{"town":"河内","koaza":"","lat":35.185308,"lng":132.964803,"zip":"6991514"},{"town":"郡","koaza":"","lat":35.215223,"lng":133.044958,"zip":"6991702"},{"town":"小馬木","koaza":"","lat":35.11677,"lng":133.017552,"zip":"6991942"},{"town":"佐白","koaza":"","lat":35.230509,"lng":132.982082,"zip":"6991434"},{"town":"下阿井","koaza":"","lat":35.138286,"lng":132.985024,"zip":"6991517"},{"town":"下横田","koaza":"","lat":35.165046,"lng":133.0811,"zip":"6991822"},{"town":"高尾","koaza":"","lat":35.158296,"lng":133.013579,"zip":"6991512"},{"town":"高田","koaza":"","lat":35.233787,"lng":133.049794,"zip":"6991703"},{"town":"竹崎","koaza":"","lat":35.179031,"lng":133.16388,"zip":"6991801"},{"town":"中村","koaza":"","lat":35.181675,"lng":133.111291,"zip":"6991831"},{"town":"馬馳","koaza":"","lat":35.218341,"lng":132.99564,"zip":"6991432"},{"town":"三沢","koaza":"","lat":35.198342,"lng":132.981861,"zip":"6991513"},{"town":"三所","koaza":"","lat":35.208368,"lng":133.024968,"zip":"6991516"},{"town":"三成","koaza":"","lat":35.188844,"lng":133.022764,"zip":"6991511"},{"town":"八川","koaza":"","lat":35.116014,"lng":133.111283,"zip":"6991811"},{"town":"八代","koaza":"","lat":35.236945,"lng":133.010499,"zip":"6991433"},{"town":"横田","koaza":"","lat":35.187092,"lng":133.067381,"zip":"6991832"}]