[{"town":"朝山町","koaza":"","lat":35.326217,"lng":132.777218,"zip":"6930213"},{"town":"芦渡町","koaza":"","lat":35.323203,"lng":132.726717,"zip":"6930035"},{"town":"荒茅町","koaza":"","lat":35.366285,"lng":132.698188,"zip":"6930044"},{"town":"医大南町一丁目","koaza":"","lat":35.34352,"lng":132.758149,"zip":"6930027"},{"town":"医大南町二丁目","koaza":"","lat":35.343923,"lng":132.756711,"zip":"6930027"},{"town":"医大南町三丁目","koaza":"","lat":35.344269,"lng":132.754503,"zip":"6930027"},{"town":"稲岡町","koaza":"","lat":35.390654,"lng":132.766904,"zip":"6930071"},{"town":"猪目町","koaza":"","lat":35.424257,"lng":132.703817,"zip":"6910024"},{"town":"今市町","koaza":"","lat":35.363438,"lng":132.759663,"zip":"6930001"},{"town":"今市町北本町一丁目","koaza":"","lat":35.369169,"lng":132.755867,"zip":"6930002"},{"town":"今市町北本町二丁目","koaza":"","lat":35.369255,"lng":132.757973,"zip":"6930002"},{"town":"今市町北本町三丁目","koaza":"","lat":35.369362,"lng":132.759952,"zip":"6930002"},{"town":"今市町北本町四丁目","koaza":"","lat":35.36944,"lng":132.76156,"zip":"6930002"},{"town":"今市町北本町五丁目","koaza":"","lat":35.369466,"lng":132.763195,"zip":"6930002"},{"town":"今市町南本町","koaza":"","lat":35.357808,"lng":132.759563,"zip":"6930003"},{"town":"十六島町","koaza":"","lat":35.465675,"lng":132.748088,"zip":"6910042"},{"town":"宇那手町","koaza":"","lat":35.328252,"lng":132.803273,"zip":"6930105"},{"town":"駅北町","koaza":"","lat":35.361048,"lng":132.756568,"zip":"6930007"},{"town":"駅南町一丁目","koaza":"","lat":35.360439,"lng":132.75833,"zip":"6930008"},{"town":"駅南町二丁目","koaza":"","lat":35.359646,"lng":132.758169,"zip":"6930008"},{"town":"駅南町三丁目","koaza":"","lat":35.358682,"lng":132.757567,"zip":"6930008"},{"town":"枝大津町","koaza":"","lat":35.372819,"lng":132.764771,"zip":"6930017"},{"town":"江田町","koaza":"","lat":35.384287,"lng":132.730551,"zip":"6930056"},{"town":"塩冶有原町一丁目","koaza":"","lat":35.361176,"lng":132.743468,"zip":"6930023"},{"town":"塩冶有原町二丁目","koaza":"","lat":35.361598,"lng":132.745347,"zip":"6930023"},{"town":"塩冶有原町三丁目","koaza":"","lat":35.360668,"lng":132.747375,"zip":"6930023"},{"town":"塩冶有原町四丁目","koaza":"","lat":35.358607,"lng":132.74743,"zip":"6930023"},{"town":"塩冶有原町五丁目","koaza":"","lat":35.358063,"lng":132.746245,"zip":"6930023"},{"town":"塩冶有原町六丁目","koaza":"","lat":35.357829,"lng":132.744346,"zip":"6930023"},{"town":"塩冶神前一丁目","koaza":"","lat":35.349812,"lng":132.752469,"zip":"6930024"},{"town":"塩冶神前二丁目","koaza":"","lat":35.350161,"lng":132.754299,"zip":"6930024"},{"town":"塩冶神前三丁目","koaza":"","lat":35.350473,"lng":132.755861,"zip":"6930024"},{"town":"塩冶神前四丁目","koaza":"","lat":35.350646,"lng":132.757331,"zip":"6930024"},{"town":"塩冶神前五丁目","koaza":"","lat":35.347885,"lng":132.758996,"zip":"6930024"},{"town":"塩冶神前六丁目","koaza":"","lat":35.347087,"lng":132.758147,"zip":"6930024"},{"town":"塩冶善行町","koaza":"","lat":35.359303,"lng":132.753853,"zip":"6930028"},{"town":"塩冶町","koaza":"","lat":35.35523,"lng":132.752301,"zip":"6930021"},{"town":"塩冶町南町一丁目","koaza":"","lat":35.347182,"lng":132.745515,"zip":"6930025"},{"town":"塩冶町南町二丁目","koaza":"","lat":35.345737,"lng":132.748878,"zip":"6930025"},{"town":"塩冶町南町三丁目","koaza":"","lat":35.344502,"lng":132.750882,"zip":"6930025"},{"town":"塩冶町南町四丁目","koaza":"","lat":35.343501,"lng":132.75301,"zip":"6930025"},{"town":"塩冶町南町五丁目","koaza":"","lat":35.342504,"lng":132.754833,"zip":"6930025"},{"town":"塩冶原町一丁目","koaza":"","lat":35.349016,"lng":132.745924,"zip":"6930026"},{"town":"塩冶原町二丁目","koaza":"","lat":35.347499,"lng":132.747822,"zip":"6930026"},{"town":"塩冶原町三丁目","koaza":"","lat":35.346878,"lng":132.749545,"zip":"6930026"},{"town":"大島町","koaza":"","lat":35.341466,"lng":132.693879,"zip":"6990821"},{"town":"大津朝倉一丁目","koaza":"","lat":35.372476,"lng":132.761514,"zip":"6930015"},{"town":"大津朝倉二丁目","koaza":"","lat":35.374409,"lng":132.760424,"zip":"6930015"},{"town":"大津朝倉三丁目","koaza":"","lat":35.376203,"lng":132.759858,"zip":"6930015"},{"town":"大塚町","koaza":"","lat":35.378919,"lng":132.751742,"zip":"6930063"},{"town":"大津新崎町一丁目","koaza":"","lat":35.36957,"lng":132.766688,"zip":"6930012"},{"town":"大津新崎町二丁目","koaza":"","lat":35.369434,"lng":132.76753,"zip":"6930012"},{"town":"大津新崎町三丁目","koaza":"","lat":35.369515,"lng":132.768978,"zip":"6930012"},{"town":"大津新崎町四丁目","koaza":"","lat":35.368578,"lng":132.770637,"zip":"6930012"},{"town":"大津新崎町五丁目","koaza":"","lat":35.367798,"lng":132.769671,"zip":"6930012"},{"town":"大津新崎町六丁目","koaza":"","lat":35.367508,"lng":132.768426,"zip":"6930012"},{"town":"大津新崎町七丁目","koaza":"","lat":35.367337,"lng":132.766903,"zip":"6930012"},{"town":"大津町","koaza":"","lat":35.355052,"lng":132.783461,"zip":"6930011"},{"town":"岡田町","koaza":"","lat":35.457971,"lng":132.835877,"zip":"6910063"},{"town":"荻杼町","koaza":"","lat":35.383752,"lng":132.768949,"zip":"6930013"},{"town":"奥宇賀町","koaza":"","lat":35.438889,"lng":132.766378,"zip":"6910021"},{"town":"乙立町","koaza":"","lat":35.282108,"lng":132.720924,"zip":"6930216"},{"town":"小山町","koaza":"","lat":35.374759,"lng":132.74147,"zip":"6930051"},{"town":"釜浦町","koaza":"","lat":35.471545,"lng":132.759768,"zip":"6910043"},{"town":"上塩冶町","koaza":"","lat":35.347151,"lng":132.771698,"zip":"6930022"},{"town":"上岡田町","koaza":"","lat":35.475336,"lng":132.825343,"zip":"6910064"},{"town":"上島町","koaza":"","lat":35.330993,"lng":132.843287,"zip":"6930101"},{"town":"唐川町","koaza":"","lat":35.420497,"lng":132.722783,"zip":"6910023"},{"town":"河下町","koaza":"","lat":35.438488,"lng":132.736453,"zip":"6910025"},{"town":"神門町","koaza":"","lat":35.33839,"lng":132.71163,"zip":"6930034"},{"town":"日下町","koaza":"","lat":35.402051,"lng":132.759721,"zip":"6930072"},{"town":"久多見町","koaza":"","lat":35.464955,"lng":132.8051,"zip":"6910034"},{"town":"口宇賀町","koaza":"","lat":35.432399,"lng":132.779555,"zip":"6910014"},{"town":"国富町","koaza":"","lat":35.424693,"lng":132.795576,"zip":"6910011"},{"town":"小伊津町","koaza":"","lat":35.496116,"lng":132.83877,"zip":"6910052"},{"town":"小境町","koaza":"","lat":35.480186,"lng":132.884902,"zip":"6910074"},{"town":"古志町","koaza":"","lat":35.32698,"lng":132.748879,"zip":"6930031"},{"town":"小津町","koaza":"","lat":35.463718,"lng":132.765331,"zip":"6910041"},{"town":"湖陵町板津","koaza":"","lat":35.322124,"lng":132.662924,"zip":"6990817"},{"town":"湖陵町大池","koaza":"","lat":35.307641,"lng":132.655531,"zip":"6990816"},{"town":"湖陵町差海","koaza":"","lat":35.334591,"lng":132.671958,"zip":"6990811"},{"town":"湖陵町三部","koaza":"","lat":35.308555,"lng":132.683762,"zip":"6990813"},{"town":"湖陵町常楽寺","koaza":"","lat":35.29725,"lng":132.695121,"zip":"6990814"},{"town":"湖陵町二部","koaza":"","lat":35.300226,"lng":132.670497,"zip":"6990812"},{"town":"湖陵町畑村","koaza":"","lat":35.284783,"lng":132.684147,"zip":"6990815"},{"town":"西郷町","koaza":"","lat":35.439191,"lng":132.804322,"zip":"6910015"},{"town":"坂浦町","koaza":"","lat":35.502543,"lng":132.858767,"zip":"6910051"},{"town":"佐田町朝原","koaza":"","lat":35.24834,"lng":132.767317,"zip":"6930501"},{"town":"佐田町大呂","koaza":"","lat":35.199446,"lng":132.713873,"zip":"6930504"},{"town":"佐田町上橋波","koaza":"","lat":35.178241,"lng":132.678807,"zip":"6930526"},{"town":"佐田町毛津","koaza":"","lat":35.265141,"lng":132.671494,"zip":"6930521"},{"town":"佐田町佐津目","koaza":"","lat":35.215125,"lng":132.648324,"zip":"6930523"},{"town":"佐田町下橋波","koaza":"","lat":35.198114,"lng":132.669076,"zip":"6930525"},{"town":"佐田町須佐","koaza":"","lat":35.237676,"lng":132.741442,"zip":"6930503"},{"town":"佐田町高津屋","koaza":"","lat":35.207776,"lng":132.684613,"zip":"6930524"},{"town":"佐田町反辺","koaza":"","lat":35.244701,"lng":132.711635,"zip":"6930506"},{"town":"佐田町原田","koaza":"","lat":35.212843,"lng":132.748345,"zip":"6930502"},{"town":"佐田町東村","koaza":"","lat":35.227788,"lng":132.691707,"zip":"6930512"},{"town":"佐田町一窪田","koaza":"","lat":35.23788,"lng":132.665952,"zip":"6930522"},{"town":"佐田町八幡原","koaza":"","lat":35.256676,"lng":132.700561,"zip":"6930511"},{"town":"佐田町吉野","koaza":"","lat":35.179311,"lng":132.705867,"zip":"6930505"},{"town":"里方町","koaza":"","lat":35.391604,"lng":132.752642,"zip":"6930064"},{"town":"塩津町","koaza":"","lat":35.476595,"lng":132.781918,"zip":"6910044"},{"town":"島村町","koaza":"","lat":35.430786,"lng":132.861641,"zip":"6910004"},{"town":"下古志町","koaza":"","lat":35.337079,"lng":132.735283,"zip":"6930032"},{"town":"下横町","koaza":"","lat":35.353424,"lng":132.711006,"zip":"6930046"},{"town":"白枝町","koaza":"","lat":35.365658,"lng":132.731688,"zip":"6930006"},{"town":"神西沖町","koaza":"","lat":35.335057,"lng":132.693718,"zip":"6990822"},{"town":"神西新町","koaza":"","lat":35.324339,"lng":132.69415,"zip":"6990825"},{"town":"外園町","koaza":"","lat":35.35261,"lng":132.672684,"zip":"6930042"},{"town":"園町","koaza":"","lat":35.468261,"lng":132.864152,"zip":"6910076"},{"town":"大社町鵜峠","koaza":"","lat":35.432733,"lng":132.698633,"zip":"6990762"},{"town":"大社町宇龍","koaza":"","lat":35.427885,"lng":132.639896,"zip":"6990764"},{"town":"大社町北荒木","koaza":"","lat":35.384701,"lng":132.694053,"zip":"6990722"},{"town":"大社町杵築北","koaza":"","lat":35.406798,"lng":132.670261,"zip":"6990702"},{"town":"大社町杵築西","koaza":"","lat":35.385282,"lng":132.676817,"zip":"6990751"},{"town":"大社町杵築東","koaza":"","lat":35.408443,"lng":132.684868,"zip":"6990701"},{"town":"大社町杵築南","koaza":"","lat":35.392626,"lng":132.684181,"zip":"6990711"},{"town":"大社町鷺浦","koaza":"","lat":35.433494,"lng":132.679018,"zip":"6990761"},{"town":"大社町修理免","koaza":"","lat":35.398477,"lng":132.695243,"zip":"6990721"},{"town":"大社町中荒木","koaza":"","lat":35.377698,"lng":132.690814,"zip":"6990741"},{"town":"大社町入南","koaza":"","lat":35.387532,"lng":132.712488,"zip":"6990732"},{"town":"大社町菱根","koaza":"","lat":35.398044,"lng":132.704548,"zip":"6990733"},{"town":"大社町日御碕","koaza":"","lat":35.425092,"lng":132.655852,"zip":"6990763"},{"town":"大社町遙堪","koaza":"","lat":35.398085,"lng":132.724987,"zip":"6990731"},{"town":"高岡町","koaza":"","lat":35.383028,"lng":132.756479,"zip":"6930066"},{"town":"高松町","koaza":"","lat":35.355363,"lng":132.722615,"zip":"6930053"},{"town":"多伎町奥田儀","koaza":"","lat":35.226122,"lng":132.618835,"zip":"6990905"},{"town":"多伎町小田","koaza":"","lat":35.257793,"lng":132.630617,"zip":"6990903"},{"town":"多伎町神原","koaza":"","lat":35.23421,"lng":132.585639,"zip":"6990906"},{"town":"多伎町口田儀","koaza":"","lat":35.259868,"lng":132.596047,"zip":"6990904"},{"town":"多伎町久村","koaza":"","lat":35.288412,"lng":132.651282,"zip":"6990901"},{"town":"多伎町多岐","koaza":"","lat":35.27283,"lng":132.643794,"zip":"6990902"},{"town":"多久谷町","koaza":"","lat":35.473628,"lng":132.837677,"zip":"6910062"},{"town":"多久町","koaza":"","lat":35.471602,"lng":132.851025,"zip":"6910061"},{"town":"武志町","koaza":"","lat":35.387751,"lng":132.777674,"zip":"6930014"},{"town":"知井宮町","koaza":"","lat":35.31987,"lng":132.713237,"zip":"6930033"},{"town":"地合町","koaza":"","lat":35.508821,"lng":132.884145,"zip":"6910071"},{"town":"築山新町","koaza":"","lat":35.348907,"lng":132.762164,"zip":"6930029"},{"town":"常松町","koaza":"","lat":35.388527,"lng":132.729555,"zip":"6930057"},{"town":"出島町","koaza":"","lat":35.441831,"lng":132.875534,"zip":"6930000"},{"town":"天神町","koaza":"","lat":35.362014,"lng":132.740071,"zip":"6930005"},{"town":"東郷町","koaza":"","lat":35.457722,"lng":132.82562,"zip":"6910065"},{"town":"東福町","koaza":"","lat":35.451637,"lng":132.81137,"zip":"6910031"},{"town":"所原町","koaza":"","lat":35.295534,"lng":132.76497,"zip":"6930214"},{"town":"中野町","koaza":"","lat":35.377086,"lng":132.77283,"zip":"6930062"},{"town":"中野美保北一丁目","koaza":"","lat":35.376595,"lng":132.761948,"zip":"6930081"},{"town":"中野美保北二丁目","koaza":"","lat":35.377259,"lng":132.764041,"zip":"6930081"},{"town":"中野美保北三丁目","koaza":"","lat":35.376823,"lng":132.766827,"zip":"6930081"},{"town":"中野美保南一丁目","koaza":"","lat":35.374688,"lng":132.764169,"zip":"6930082"},{"town":"中野美保南二丁目","koaza":"","lat":35.375251,"lng":132.765219,"zip":"6930082"},{"town":"中野美保南三丁目","koaza":"","lat":35.374899,"lng":132.767438,"zip":"6930082"},{"town":"長浜町","koaza":"","lat":35.354688,"lng":132.69629,"zip":"6930043"},{"town":"灘分町","koaza":"","lat":35.433208,"lng":132.841146,"zip":"6910003"},{"town":"西神西町","koaza":"","lat":35.31032,"lng":132.699082,"zip":"6990824"},{"town":"西新町一丁目","koaza":"","lat":35.333707,"lng":132.723026,"zip":"6930037"},{"town":"西新町二丁目","koaza":"","lat":35.331562,"lng":132.725852,"zip":"6930037"},{"town":"西新町三丁目","koaza":"","lat":35.332644,"lng":132.719933,"zip":"6930037"},{"town":"西園町","koaza":"","lat":35.358108,"lng":132.681038,"zip":"6930041"},{"town":"西代町","koaza":"","lat":35.419604,"lng":132.813645,"zip":"6910012"},{"town":"西谷町","koaza":"","lat":35.3218,"lng":132.850715,"zip":"6930102"},{"town":"西林木町","koaza":"","lat":35.408721,"lng":132.766289,"zip":"6930073"},{"town":"西平田町","koaza":"","lat":35.432857,"lng":132.815512,"zip":"6910002"},{"town":"野石谷町","koaza":"","lat":35.470966,"lng":132.810389,"zip":"6910066"},{"town":"野郷町","koaza":"","lat":35.491034,"lng":132.897802,"zip":"6910072"},{"town":"野尻町","koaza":"","lat":35.287037,"lng":132.795843,"zip":"6930103"},{"town":"浜町","koaza":"","lat":35.375123,"lng":132.716717,"zip":"6930054"},{"town":"稗原町","koaza":"","lat":35.311411,"lng":132.808695,"zip":"6930104"},{"town":"東神西町","koaza":"","lat":35.318381,"lng":132.70087,"zip":"6990823"},{"town":"東園町","koaza":"","lat":35.351692,"lng":132.70481,"zip":"6930045"},{"town":"東林木町","koaza":"","lat":35.409044,"lng":132.782029,"zip":"6930074"},{"town":"斐川町併川","koaza":"","lat":35.374873,"lng":132.791311,"zip":"6990615"},{"town":"斐川町阿宮","koaza":"","lat":35.350522,"lng":132.846275,"zip":"6990611"},{"town":"斐川町今在家","koaza":"","lat":35.399122,"lng":132.802958,"zip":"6990644"},{"town":"斐川町沖洲","koaza":"","lat":35.414944,"lng":132.88449,"zip":"6990551"},{"town":"斐川町学頭","koaza":"","lat":35.375906,"lng":132.87281,"zip":"6990501"},{"town":"斐川町上庄原","koaza":"","lat":35.390039,"lng":132.837322,"zip":"6990505"},{"town":"斐川町上直江","koaza":"","lat":35.388816,"lng":132.807319,"zip":"6990624"},{"town":"斐川町神庭","koaza":"","lat":35.375478,"lng":132.855962,"zip":"6990503"},{"town":"斐川町神氷","koaza":"","lat":35.363458,"lng":132.819342,"zip":"6990613"},{"town":"斐川町求院","koaza":"","lat":35.366942,"lng":132.792947,"zip":"6990614"},{"town":"斐川町黒目","koaza":"","lat":35.413814,"lng":132.860029,"zip":"6990553"},{"town":"斐川町坂田","koaza":"","lat":35.425625,"lng":132.863513,"zip":"6990555"},{"town":"斐川町三分市","koaza":"","lat":35.420465,"lng":132.868735,"zip":"6990554"},{"town":"斐川町出西","koaza":"","lat":35.358302,"lng":132.800623,"zip":"6990612"},{"town":"斐川町荘原","koaza":"","lat":35.407627,"lng":132.883582,"zip":"6990502"},{"town":"斐川町富村","koaza":"","lat":35.381414,"lng":132.800241,"zip":"6990621"},{"town":"斐川町鳥井","koaza":"","lat":35.394276,"lng":132.790638,"zip":"6990623"},{"town":"斐川町直江","koaza":"","lat":35.381933,"lng":132.824022,"zip":"6990631"},{"town":"斐川町中洲","koaza":"","lat":35.405985,"lng":132.846505,"zip":"6990552"},{"town":"斐川町名島","koaza":"","lat":35.380434,"lng":132.786883,"zip":"6990622"},{"town":"斐川町原鹿","koaza":"","lat":35.411257,"lng":132.817371,"zip":"6990643"},{"town":"斐川町福富","koaza":"","lat":35.404777,"lng":132.826644,"zip":"6990642"},{"town":"斐川町三絡","koaza":"","lat":35.372823,"lng":132.844694,"zip":"6990504"},{"town":"斐川町美南","koaza":"","lat":35.39841,"lng":132.828849,"zip":"6990641"},{"town":"姫原一丁目","koaza":"","lat":35.372311,"lng":132.754679,"zip":"6930068"},{"town":"姫原二丁目","koaza":"","lat":35.372686,"lng":132.757226,"zip":"6930068"},{"town":"姫原三丁目","koaza":"","lat":35.372751,"lng":132.75901,"zip":"6930068"},{"town":"姫原四丁目","koaza":"","lat":35.374954,"lng":132.755747,"zip":"6930068"},{"town":"姫原町","koaza":"","lat":35.372544,"lng":132.751941,"zip":"6930061"},{"town":"平田町","koaza":"","lat":35.442331,"lng":132.825995,"zip":"6910001"},{"town":"平野町","koaza":"","lat":35.38985,"lng":132.739554,"zip":"6930065"},{"town":"船津町","koaza":"","lat":35.339567,"lng":132.801475,"zip":"6930106"},{"town":"平成町","koaza":"","lat":35.315804,"lng":132.712477,"zip":"6930036"},{"town":"別所町","koaza":"","lat":35.420898,"lng":132.748934,"zip":"6910022"},{"town":"本庄町","koaza":"","lat":35.454917,"lng":132.79523,"zip":"6910032"},{"town":"馬木北町","koaza":"","lat":35.338468,"lng":132.765965,"zip":"6930211"},{"town":"馬木町","koaza":"","lat":35.3327,"lng":132.762533,"zip":"6930212"},{"town":"松寄下町","koaza":"","lat":35.366961,"lng":132.721916,"zip":"6930052"},{"town":"万田町","koaza":"","lat":35.455924,"lng":132.778897,"zip":"6910033"},{"town":"美談町","koaza":"","lat":35.410134,"lng":132.797899,"zip":"6910013"},{"town":"三津町","koaza":"","lat":35.491055,"lng":132.822942,"zip":"6910053"},{"town":"美保町","koaza":"","lat":35.485035,"lng":132.808866,"zip":"6910045"},{"town":"見々久町","koaza":"","lat":35.274764,"lng":132.781742,"zip":"6930215"},{"town":"八島町","koaza":"","lat":35.382792,"lng":132.721394,"zip":"6930055"},{"town":"矢野町","koaza":"","lat":35.37991,"lng":132.738748,"zip":"6930058"},{"town":"矢尾町","koaza":"","lat":35.401807,"lng":132.748215,"zip":"6930067"},{"town":"美野町","koaza":"","lat":35.46664,"lng":132.900707,"zip":"6910073"},{"town":"鹿園寺町","koaza":"","lat":35.478511,"lng":132.872851,"zip":"6910075"},{"town":"渡橋町","koaza":"","lat":35.367615,"lng":132.74558,"zip":"6930004"},{"town":"大島町","koaza":"横浜","lat":35.339274,"lng":132.700834,"zip":"6990821"},{"town":"知井宮町","koaza":"東原","lat":35.345427,"lng":132.72057,"zip":"6930033"},{"town":"白枝町","koaza":"一丁田","lat":35.362017,"lng":132.73334,"zip":"6930006"},{"town":"渡橋町","koaza":"御前","lat":35.366757,"lng":132.751703,"zip":"6930004"}]