[{"town":"朝山町朝倉","koaza":"","lat":35.247624,"lng":132.559911,"zip":"6992213"},{"town":"朝山町仙山","koaza":"","lat":35.25478,"lng":132.576529,"zip":"6992212"},{"town":"五十猛町","koaza":"","lat":35.180971,"lng":132.433506,"zip":"6940035"},{"town":"大代町大家","koaza":"","lat":35.04251,"lng":132.407184,"zip":"6940433"},{"town":"大代町新屋","koaza":"","lat":35.040681,"lng":132.431321,"zip":"6940432"},{"town":"大田町大田","koaza":"","lat":35.187392,"lng":132.5199,"zip":"6940064"},{"town":"大田町野城","koaza":"","lat":35.182002,"lng":132.552827,"zip":"6940062"},{"town":"大田町吉永","koaza":"","lat":35.180137,"lng":132.499252,"zip":"6940063"},{"town":"大森町","koaza":"","lat":35.109284,"lng":132.452959,"zip":"6940305"},{"town":"大屋町大国","koaza":"","lat":35.144868,"lng":132.443227,"zip":"6940033"},{"town":"大屋町大屋","koaza":"","lat":35.156803,"lng":132.442154,"zip":"6940034"},{"town":"大屋町鬼村","koaza":"","lat":35.165393,"lng":132.460653,"zip":"6940032"},{"town":"川合町忍原","koaza":"","lat":35.117551,"lng":132.518426,"zip":"6940012"},{"town":"川合町川合","koaza":"","lat":35.143652,"lng":132.519946,"zip":"6940011"},{"town":"川合町吉永","koaza":"","lat":35.166574,"lng":132.508072,"zip":"6940013"},{"town":"久手町刺鹿","koaza":"","lat":35.21604,"lng":132.537803,"zip":"6940052"},{"town":"久手町波根西","koaza":"","lat":35.228203,"lng":132.5252,"zip":"6940051"},{"town":"久利町市原","koaza":"","lat":35.134624,"lng":132.470811,"zip":"6940022"},{"town":"久利町久利","koaza":"","lat":35.156074,"lng":132.476942,"zip":"6940024"},{"town":"久利町佐摩","koaza":"","lat":35.1419,"lng":132.459612,"zip":"6940023"},{"town":"久利町戸蔵","koaza":"","lat":35.132611,"lng":132.484502,"zip":"6940000"},{"town":"久利町松代","koaza":"","lat":35.163879,"lng":132.486475,"zip":"6940025"},{"town":"久利町行恒","koaza":"","lat":35.172861,"lng":132.495858,"zip":"6940021"},{"town":"三瓶町池田","koaza":"","lat":35.135899,"lng":132.585249,"zip":"6940223"},{"town":"三瓶町上山","koaza":"","lat":35.10547,"lng":132.653631,"zip":"6940221"},{"town":"三瓶町小屋原","koaza":"","lat":35.15446,"lng":132.596289,"zip":"6940224"},{"town":"三瓶町志学","koaza":"","lat":35.115124,"lng":132.627799,"zip":"6940222"},{"town":"三瓶町多根","koaza":"","lat":35.172681,"lng":132.604662,"zip":"6940003"},{"town":"三瓶町野城","koaza":"","lat":35.172113,"lng":132.571881,"zip":"6940004"},{"town":"静間町","koaza":"","lat":35.195296,"lng":132.460528,"zip":"6940031"},{"town":"祖式町","koaza":"","lat":35.057544,"lng":132.458093,"zip":"6940431"},{"town":"富山町神原","koaza":"","lat":35.226626,"lng":132.57122,"zip":"6992214"},{"town":"富山町才坂","koaza":"","lat":35.203421,"lng":132.601786,"zip":"6992215"},{"town":"富山町山中","koaza":"","lat":35.210005,"lng":132.562454,"zip":"6940061"},{"town":"鳥井町鳥井","koaza":"","lat":35.217257,"lng":132.483127,"zip":"6940054"},{"town":"鳥井町鳥越","koaza":"","lat":35.21923,"lng":132.499502,"zip":"6940053"},{"town":"長久町稲用","koaza":"","lat":35.182947,"lng":132.483833,"zip":"6940042"},{"town":"長久町土江","koaza":"","lat":35.192064,"lng":132.481906,"zip":"6940044"},{"town":"長久町長久","koaza":"","lat":35.203772,"lng":132.490077,"zip":"6940041"},{"town":"長久町延里","koaza":"","lat":35.175441,"lng":132.474764,"zip":"6940043"},{"town":"仁摩町天河内","koaza":"","lat":35.132865,"lng":132.403229,"zip":"6992305"},{"town":"仁摩町大国","koaza":"","lat":35.119927,"lng":132.422146,"zip":"6992303"},{"town":"仁摩町宅野","koaza":"","lat":35.162986,"lng":132.414731,"zip":"6992302"},{"town":"仁摩町仁万","koaza":"","lat":35.152228,"lng":132.408176,"zip":"6992301"},{"town":"仁摩町馬路","koaza":"","lat":35.123854,"lng":132.389363,"zip":"6992304"},{"town":"波根町","koaza":"","lat":35.23909,"lng":132.542921,"zip":"6992211"},{"town":"水上町荻原","koaza":"","lat":35.106033,"lng":132.489815,"zip":"6940301"},{"town":"水上町白坏","koaza":"","lat":35.078335,"lng":132.463162,"zip":"6940303"},{"town":"水上町福原","koaza":"","lat":35.092231,"lng":132.469193,"zip":"6940302"},{"town":"水上町三久須","koaza":"","lat":35.083747,"lng":132.44207,"zip":"6940304"},{"town":"山口町佐津目","koaza":"","lat":35.196182,"lng":132.647507,"zip":"6940001"},{"town":"山口町山口","koaza":"","lat":35.165514,"lng":132.640488,"zip":"6940002"},{"town":"温泉津町井田","koaza":"","lat":35.03614,"lng":132.371624,"zip":"6992507"},{"town":"温泉津町今浦","koaza":"","lat":35.071169,"lng":132.322495,"zip":"6992515"},{"town":"温泉津町太田","koaza":"","lat":35.035395,"lng":132.3944,"zip":"6992505"},{"town":"温泉津町荻村","koaza":"","lat":35.05569,"lng":132.394265,"zip":"6992504"},{"town":"温泉津町上村","koaza":"","lat":35.070997,"lng":132.365958,"zip":"6992513"},{"town":"温泉津町小浜","koaza":"","lat":35.089131,"lng":132.354901,"zip":"6992511"},{"town":"温泉津町西田","koaza":"","lat":35.084334,"lng":132.400938,"zip":"6992503"},{"town":"温泉津町飯原","koaza":"","lat":35.080199,"lng":132.378594,"zip":"6992512"},{"town":"温泉津町福田","koaza":"","lat":35.015877,"lng":132.390954,"zip":"6992506"},{"town":"温泉津町福光","koaza":"","lat":35.071943,"lng":132.337436,"zip":"6992514"},{"town":"温泉津町湯里","koaza":"","lat":35.106535,"lng":132.380744,"zip":"6992502"},{"town":"温泉津町温泉津","koaza":"","lat":35.101962,"lng":132.352068,"zip":"6992501"},{"town":"温泉津町吉浦","koaza":"","lat":35.06062,"lng":132.32238,"zip":"6992516"}]