[{"town":"浅利町","koaza":"","lat":35.032003,"lng":132.260821,"zip":"6950002"},{"town":"跡市町","koaza":"","lat":34.94941,"lng":132.231461,"zip":"6950152"},{"town":"有福温泉町","koaza":"","lat":34.943349,"lng":132.199345,"zip":"6950156"},{"town":"有福温泉町本明","koaza":"","lat":34.931264,"lng":132.211674,"zip":"6950155"},{"town":"井沢町","koaza":"","lat":34.945872,"lng":132.276188,"zip":"6950154"},{"town":"後地町","koaza":"","lat":35.03813,"lng":132.292424,"zip":"6992841"},{"town":"敬川町","koaza":"","lat":34.966112,"lng":132.171276,"zip":"6993162"},{"town":"嘉久志町","koaza":"","lat":35.000487,"lng":132.218944,"zip":"6950016"},{"town":"金田町","koaza":"","lat":34.998559,"lng":132.25397,"zip":"6950012"},{"town":"川平町平田","koaza":"","lat":34.975749,"lng":132.273515,"zip":"6950014"},{"town":"川平町南川上","koaza":"","lat":34.993758,"lng":132.281514,"zip":"6950013"},{"town":"黒松町","koaza":"","lat":35.055138,"lng":132.313035,"zip":"6992831"},{"town":"江津町","koaza":"","lat":35.013048,"lng":132.221504,"zip":"6950011"},{"town":"桜江町市山","koaza":"","lat":34.941457,"lng":132.305236,"zip":"6994221"},{"town":"桜江町今田","koaza":"","lat":34.936398,"lng":132.339385,"zip":"6994222"},{"town":"桜江町後山","koaza":"","lat":34.962619,"lng":132.310303,"zip":"6994223"},{"town":"桜江町江尾","koaza":"","lat":34.923961,"lng":132.331062,"zip":"6994224"},{"town":"桜江町大貫","koaza":"","lat":34.965544,"lng":132.393131,"zip":"6994504"},{"town":"桜江町小田","koaza":"","lat":34.949865,"lng":132.325483,"zip":"6994225"},{"town":"桜江町川越","koaza":"","lat":34.943794,"lng":132.423923,"zip":"6994502"},{"town":"桜江町川戸","koaza":"","lat":34.950286,"lng":132.351211,"zip":"6994226"},{"town":"桜江町坂本","koaza":"","lat":34.967158,"lng":132.423578,"zip":"6994505"},{"town":"桜江町鹿賀","koaza":"","lat":34.955837,"lng":132.450309,"zip":"6994501"},{"town":"桜江町田津","koaza":"","lat":34.945612,"lng":132.391379,"zip":"6994503"},{"town":"桜江町谷住郷","koaza":"","lat":34.982188,"lng":132.347819,"zip":"6994111"},{"town":"桜江町長谷","koaza":"","lat":34.92608,"lng":132.27014,"zip":"6994431"},{"town":"桜江町八戸","koaza":"","lat":34.915415,"lng":132.290714,"zip":"6994432"},{"town":"島の星町","koaza":"","lat":34.989944,"lng":132.236207,"zip":"6950015"},{"town":"清見町","koaza":"","lat":34.949882,"lng":132.261826,"zip":"6950153"},{"town":"千田町","koaza":"","lat":34.965186,"lng":132.219741,"zip":"6950151"},{"town":"都治町","koaza":"","lat":35.032207,"lng":132.305691,"zip":"6992842"},{"town":"都野津町","koaza":"","lat":34.988782,"lng":132.194364,"zip":"6950021"},{"town":"二宮町神村","koaza":"","lat":34.97544,"lng":132.209889,"zip":"6950023"},{"town":"二宮町神主","koaza":"","lat":34.974914,"lng":132.191739,"zip":"6950024"},{"town":"二宮町羽代","koaza":"","lat":34.985821,"lng":132.219253,"zip":"6950022"},{"town":"波子町","koaza":"","lat":34.962204,"lng":132.153395,"zip":"6993161"},{"town":"波積町北","koaza":"","lat":35.047256,"lng":132.335391,"zip":"6992832"},{"town":"波積町本郷","koaza":"","lat":35.031125,"lng":132.339754,"zip":"6992833"},{"town":"波積町南","koaza":"","lat":35.015137,"lng":132.34795,"zip":"6992834"},{"town":"松川町市村","koaza":"","lat":35.004171,"lng":132.284067,"zip":"6950004"},{"town":"松川町太田","koaza":"","lat":35.015327,"lng":132.250759,"zip":"6950007"},{"town":"松川町上河戸","koaza":"","lat":35.015679,"lng":132.296799,"zip":"6992837"},{"town":"松川町上津井","koaza":"","lat":34.998044,"lng":132.325263,"zip":"6992835"},{"town":"松川町下河戸","koaza":"","lat":35.017775,"lng":132.282007,"zip":"6950003"},{"town":"松川町長良","koaza":"","lat":34.99142,"lng":132.301622,"zip":"6950005"},{"town":"松川町畑田","koaza":"","lat":35.016806,"lng":132.313133,"zip":"6992836"},{"town":"松川町八神","koaza":"","lat":35.011815,"lng":132.264275,"zip":"6950006"},{"town":"和木町","koaza":"","lat":34.999831,"lng":132.201085,"zip":"6950017"},{"town":"渡津町","koaza":"","lat":35.018608,"lng":132.236466,"zip":"6950001"}]