[{"town":"赤雁町","koaza":"","lat":34.719865,"lng":131.888288,"zip":"6993672"},{"town":"赤城町","koaza":"","lat":34.67483,"lng":131.836138,"zip":"6980034"},{"town":"あけぼの西町","koaza":"","lat":34.68179,"lng":131.837646,"zip":"6980025"},{"town":"あけぼの東町","koaza":"","lat":34.678521,"lng":131.843164,"zip":"6980027"},{"town":"あけぼの本町","koaza":"","lat":34.680171,"lng":131.840662,"zip":"6980026"},{"town":"愛栄町","koaza":"","lat":34.577695,"lng":131.742435,"zip":"6982253"},{"town":"有明町","koaza":"","lat":34.674179,"lng":131.847166,"zip":"6980022"},{"town":"有田町","koaza":"","lat":34.64166,"lng":131.719203,"zip":"6993765"},{"town":"飯田町","koaza":"","lat":34.667904,"lng":131.815452,"zip":"6980037"},{"town":"飯浦町","koaza":"","lat":34.670228,"lng":131.699157,"zip":"6993761"},{"town":"猪木谷町","koaza":"","lat":34.604452,"lng":131.870444,"zip":"6995123"},{"town":"岩倉町","koaza":"","lat":34.637166,"lng":131.894131,"zip":"6980014"},{"town":"馬谷町","koaza":"","lat":34.641789,"lng":131.910581,"zip":"6980413"},{"town":"梅月町","koaza":"","lat":34.639752,"lng":131.831488,"zip":"6995127"},{"town":"駅前町","koaza":"","lat":34.677688,"lng":131.838495,"zip":"6980024"},{"town":"大草町","koaza":"","lat":34.700241,"lng":131.889894,"zip":"6993674"},{"town":"大谷町","koaza":"","lat":34.665984,"lng":131.876031,"zip":"6980012"},{"town":"乙子町","koaza":"","lat":34.683648,"lng":131.892501,"zip":"6993675"},{"town":"乙吉町","koaza":"","lat":34.685084,"lng":131.847676,"zip":"6980003"},{"town":"柏原町","koaza":"","lat":34.593235,"lng":131.754816,"zip":"6982252"},{"town":"桂平町","koaza":"","lat":34.592882,"lng":131.730458,"zip":"6982254"},{"town":"金山町","koaza":"","lat":34.745719,"lng":131.912451,"zip":"6993501"},{"town":"上黒谷町","koaza":"","lat":34.60778,"lng":131.728366,"zip":"6982255"},{"town":"川登町","koaza":"","lat":34.626271,"lng":131.763553,"zip":"6982145"},{"town":"神田町","koaza":"","lat":34.602941,"lng":131.805714,"zip":"6995133"},{"town":"木部町","koaza":"","lat":34.736326,"lng":131.876059,"zip":"6993502"},{"town":"久々茂町","koaza":"","lat":34.666793,"lng":131.898191,"zip":"6980013"},{"town":"久城町","koaza":"","lat":34.699355,"lng":131.844707,"zip":"6980001"},{"town":"黒周町","koaza":"","lat":34.605957,"lng":131.747656,"zip":"6982251"},{"town":"小浜町","koaza":"","lat":34.671781,"lng":131.72434,"zip":"6993762"},{"town":"幸町","koaza":"","lat":34.673252,"lng":131.854159,"zip":"6980021"},{"town":"栄町","koaza":"","lat":34.67791,"lng":131.833258,"zip":"6980035"},{"town":"下波田町","koaza":"","lat":34.645587,"lng":131.930962,"zip":"6980414"},{"town":"下本郷町","koaza":"","lat":34.689476,"lng":131.852243,"zip":"6980002"},{"town":"昭和町","koaza":"","lat":34.677489,"lng":131.850214,"zip":"6980007"},{"town":"白岩町","koaza":"","lat":34.603904,"lng":131.835758,"zip":"6995125"},{"town":"須子町","koaza":"","lat":34.672693,"lng":131.82712,"zip":"6980036"},{"town":"薄原町","koaza":"","lat":34.578609,"lng":131.842645,"zip":"6995124"},{"town":"隅村町","koaza":"","lat":34.61212,"lng":131.817367,"zip":"6995126"},{"town":"染羽町","koaza":"","lat":34.679389,"lng":131.864324,"zip":"6980011"},{"town":"高島","koaza":"","lat":34.835675,"lng":131.836001,"zip":"6980000"},{"town":"高津一丁目","koaza":"","lat":34.684621,"lng":131.82387,"zip":"6980041"},{"town":"高津三丁目","koaza":"","lat":34.683464,"lng":131.815585,"zip":"6980041"},{"town":"高津四丁目","koaza":"","lat":34.686379,"lng":131.807291,"zip":"6980041"},{"town":"高津六丁目","koaza":"","lat":34.688561,"lng":131.810825,"zip":"6980041"},{"town":"高津七丁目","koaza":"","lat":34.690846,"lng":131.819066,"zip":"6980041"},{"town":"高津八丁目","koaza":"","lat":34.69044,"lng":131.80873,"zip":"6980041"},{"town":"高津町","koaza":"","lat":34.683665,"lng":131.801805,"zip":"6980041"},{"town":"多田町","koaza":"","lat":34.663403,"lng":131.852249,"zip":"6980031"},{"town":"種村町","koaza":"","lat":34.719233,"lng":131.935,"zip":"6993504"},{"town":"津田町","koaza":"","lat":34.716175,"lng":131.872039,"zip":"6993671"},{"town":"土田町","koaza":"","lat":34.754928,"lng":131.897155,"zip":"6993505"},{"town":"土井町","koaza":"","lat":34.669383,"lng":131.856179,"zip":"6980016"},{"town":"遠田町","koaza":"","lat":34.70469,"lng":131.861082,"zip":"6993676"},{"town":"常盤町","koaza":"","lat":34.674273,"lng":131.844498,"zip":"6980023"},{"town":"戸田町","koaza":"","lat":34.668242,"lng":131.744597,"zip":"6993763"},{"town":"栃山町","koaza":"","lat":34.637092,"lng":131.878254,"zip":"6980015"},{"town":"中垣内町","koaza":"","lat":34.641152,"lng":131.753067,"zip":"6982146"},{"town":"長沢町","koaza":"","lat":34.610054,"lng":131.916261,"zip":"6980412"},{"town":"中吉田町","koaza":"","lat":34.687197,"lng":131.838077,"zip":"6980042"},{"town":"七尾町","koaza":"","lat":34.675619,"lng":131.860986,"zip":"6980017"},{"town":"西平原町","koaza":"","lat":34.751756,"lng":131.881141,"zip":"6993506"},{"town":"波田町","koaza":"","lat":34.633436,"lng":131.945123,"zip":"6980411"},{"town":"東町","koaza":"","lat":34.682961,"lng":131.859037,"zip":"6980004"},{"town":"匹見町石谷","koaza":"","lat":34.542768,"lng":131.930667,"zip":"6981223"},{"town":"匹見町落合","koaza":"","lat":34.590037,"lng":132.01439,"zip":"6981213"},{"town":"匹見町紙祖","koaza":"","lat":34.515824,"lng":131.988626,"zip":"6981212"},{"town":"匹見町澄川","koaza":"","lat":34.604069,"lng":131.946815,"zip":"6981221"},{"town":"匹見町匹見","koaza":"","lat":34.564733,"lng":132.025394,"zip":"6981211"},{"town":"匹見町広瀬","koaza":"","lat":34.586418,"lng":131.983185,"zip":"6981222"},{"town":"匹見町道川","koaza":"","lat":34.649972,"lng":132.101307,"zip":"6981201"},{"town":"左ヶ山町","koaza":"","lat":34.651407,"lng":131.838711,"zip":"6980000"},{"town":"本俣賀町","koaza":"","lat":34.65033,"lng":131.828549,"zip":"6995122"},{"town":"本町","koaza":"","lat":34.676498,"lng":131.85945,"zip":"6980005"},{"town":"水分町","koaza":"","lat":34.671299,"lng":131.847471,"zip":"6980032"},{"town":"美都町朝倉","koaza":"","lat":34.672531,"lng":131.927257,"zip":"6980213"},{"town":"美都町板井川","koaza":"","lat":34.704255,"lng":132.060363,"zip":"6980201"},{"town":"美都町宇津川","koaza":"","lat":34.688817,"lng":132.030499,"zip":"6980202"},{"town":"美都町久原","koaza":"","lat":34.690574,"lng":131.975584,"zip":"6980206"},{"town":"美都町小原","koaza":"","lat":34.690408,"lng":131.930053,"zip":"6980211"},{"town":"美都町笹倉","koaza":"","lat":34.664063,"lng":131.920851,"zip":"6980214"},{"town":"美都町仙道","koaza":"","lat":34.672812,"lng":131.946156,"zip":"6980212"},{"town":"美都町都茂","koaza":"","lat":34.665194,"lng":131.993557,"zip":"6980203"},{"town":"美都町丸茂","koaza":"","lat":34.688193,"lng":132.001871,"zip":"6980207"},{"town":"美都町三谷","koaza":"","lat":34.692327,"lng":131.950316,"zip":"6980205"},{"town":"美都町山本","koaza":"","lat":34.658665,"lng":131.976732,"zip":"6980204"},{"town":"美濃地町","koaza":"","lat":34.629023,"lng":131.7301,"zip":"6993766"},{"town":"三宅町","koaza":"","lat":34.676739,"lng":131.855422,"zip":"6980006"},{"town":"向横田町","koaza":"","lat":34.611253,"lng":131.791003,"zip":"6995134"},{"town":"元町","koaza":"","lat":34.674175,"lng":131.839253,"zip":"6980033"},{"town":"安富町","koaza":"","lat":34.643027,"lng":131.807407,"zip":"6995131"},{"town":"山折町","koaza":"","lat":34.699851,"lng":131.910474,"zip":"6993673"},{"town":"喜阿弥町","koaza":"","lat":34.669597,"lng":131.755864,"zip":"6993764"},{"town":"白上町","koaza":"","lat":34.650975,"lng":131.777576,"zip":"6982141"},{"town":"市原町","koaza":"","lat":34.668163,"lng":131.783065,"zip":"6982142"},{"town":"虫追町","koaza":"","lat":34.64376,"lng":131.788896,"zip":"6982144"},{"town":"内田町","koaza":"","lat":34.666926,"lng":131.803122,"zip":"6980051"},{"town":"高津五丁目","koaza":"","lat":34.688265,"lng":131.817792,"zip":"6980041"},{"town":"高津二丁目","koaza":"","lat":34.67996,"lng":131.818611,"zip":"6980041"},{"town":"下種町","koaza":"","lat":34.724899,"lng":131.91793,"zip":"6993503"},{"town":"横田町","koaza":"","lat":34.628786,"lng":131.810891,"zip":"6995132"},{"town":"中須町","koaza":"","lat":34.699495,"lng":131.83181,"zip":"6980044"},{"town":"中島町","koaza":"","lat":34.689854,"lng":131.830855,"zip":"6980043"},{"town":"かもしま北町","koaza":"","lat":34.695863,"lng":131.832376,"zip":"6980045"},{"town":"かもしま西町","koaza":"","lat":34.693677,"lng":131.831821,"zip":"6980047"},{"town":"かもしま東町","koaza":"","lat":34.693845,"lng":131.835689,"zip":"6980046"}]