[{"town":"大字因原","koaza":"","lat":34.958211,"lng":132.479044,"zip":"6960000"},{"town":"大字川内","koaza":"","lat":35.042864,"lng":132.488167,"zip":"6960000"},{"town":"大字川下","koaza":"","lat":34.982426,"lng":132.4608,"zip":"6960000"},{"town":"大字川本","koaza":"","lat":34.978982,"lng":132.525163,"zip":"6960000"},{"town":"大字北佐木","koaza":"","lat":35.010409,"lng":132.418668,"zip":"6960000"},{"town":"大字久座仁","koaza":"","lat":35.000068,"lng":132.499652,"zip":"6960000"},{"town":"大字小谷","koaza":"","lat":35.019427,"lng":132.494347,"zip":"6960000"},{"town":"大字田窪","koaza":"","lat":34.993618,"lng":132.40051,"zip":"6960000"},{"town":"大字多田","koaza":"","lat":35.008768,"lng":132.504738,"zip":"6960000"},{"town":"大字谷戸","koaza":"","lat":34.999312,"lng":132.484927,"zip":"6960000"},{"town":"大字都賀行","koaza":"","lat":34.9805,"lng":132.566025,"zip":"6960000"},{"town":"大字馬野原","koaza":"","lat":35.023551,"lng":132.47678,"zip":"6960000"},{"town":"大字南佐木","koaza":"","lat":35.004648,"lng":132.411639,"zip":"6960000"},{"town":"大字三原","koaza":"","lat":34.985367,"lng":132.4244,"zip":"6960000"},{"town":"大字三俣","koaza":"","lat":35.017611,"lng":132.465084,"zip":"6960000"},{"town":"大字湯谷","koaza":"","lat":35.008623,"lng":132.43827,"zip":"6960000"}]