[{"town":"明塚","koaza":"","lat":35.047396,"lng":132.586775,"zip":"6994624"},{"town":"吾郷","koaza":"","lat":35.040342,"lng":132.537931,"zip":"6994627"},{"town":"石原","koaza":"","lat":35.067435,"lng":132.635468,"zip":"6994715"},{"town":"潮村","koaza":"","lat":35.023675,"lng":132.651073,"zip":"6960701"},{"town":"内田","koaza":"","lat":35.073209,"lng":132.493025,"zip":"6961136"},{"town":"奥山","koaza":"","lat":35.058737,"lng":132.561915,"zip":"6994631"},{"town":"乙原","koaza":"","lat":35.012303,"lng":132.544587,"zip":"6994626"},{"town":"粕渕","koaza":"","lat":35.095737,"lng":132.599754,"zip":"6994621"},{"town":"片山","koaza":"","lat":35.044317,"lng":132.657371,"zip":"6994714"},{"town":"枦谷","koaza":"","lat":35.086124,"lng":132.4916,"zip":"6994600"},{"town":"上川戸","koaza":"","lat":35.052202,"lng":132.615305,"zip":"6994702"},{"town":"上野","koaza":"","lat":34.935732,"lng":132.659475,"zip":"6960702"},{"town":"亀村","koaza":"","lat":35.065831,"lng":132.594396,"zip":"6994707"},{"town":"京覧原","koaza":"","lat":35.063681,"lng":132.509722,"zip":"6961141"},{"town":"久喜原","koaza":"","lat":35.047328,"lng":132.512867,"zip":"6961142"},{"town":"久保","koaza":"","lat":35.081551,"lng":132.620492,"zip":"6994622"},{"town":"熊見","koaza":"","lat":35.048659,"lng":132.63842,"zip":"6994703"},{"town":"九日市","koaza":"","lat":35.042375,"lng":132.679441,"zip":"6994712"},{"town":"小谷","koaza":"","lat":35.023879,"lng":132.511242,"zip":"6961144"},{"town":"小林","koaza":"","lat":35.058758,"lng":132.523798,"zip":"6961133"},{"town":"小松地","koaza":"","lat":35.089456,"lng":132.513634,"zip":"6961135"},{"town":"酒谷","koaza":"","lat":35.048038,"lng":132.704718,"zip":"6994713"},{"town":"信喜","koaza":"","lat":35.027261,"lng":132.608931,"zip":"6994704"},{"town":"志君","koaza":"","lat":35.070372,"lng":132.553629,"zip":"6961132"},{"town":"地頭所","koaza":"","lat":35.034421,"lng":132.507691,"zip":"6961143"},{"town":"惣森","koaza":"","lat":35.075523,"lng":132.523988,"zip":"6961134"},{"town":"高畑","koaza":"","lat":35.068382,"lng":132.578155,"zip":"6994632"},{"town":"高山","koaza":"","lat":35.018119,"lng":132.578972,"zip":"6994605"},{"town":"滝原","koaza":"","lat":35.047301,"lng":132.596303,"zip":"6994706"},{"town":"千原","koaza":"","lat":35.072898,"lng":132.661548,"zip":"6994711"},{"town":"都賀西","koaza":"","lat":34.943034,"lng":132.633742,"zip":"6960703"},{"town":"都賀本郷","koaza":"","lat":34.956598,"lng":132.655843,"zip":"6960704"},{"town":"都賀行","koaza":"","lat":34.982047,"lng":132.596212,"zip":"6960705"},{"town":"長藤","koaza":"","lat":34.986161,"lng":132.632746,"zip":"6960706"},{"town":"野井","koaza":"","lat":35.064279,"lng":132.587753,"zip":"6994623"},{"town":"浜原","koaza":"","lat":35.063453,"lng":132.606546,"zip":"6994701"},{"town":"比敷","koaza":"","lat":34.941621,"lng":132.620556,"zip":"6960712"},{"town":"別府","koaza":"","lat":35.103529,"lng":132.537451,"zip":"6961131"},{"town":"港","koaza":"","lat":35.022708,"lng":132.529176,"zip":"6961145"},{"town":"宮内","koaza":"","lat":34.955192,"lng":132.596668,"zip":"6960711"},{"town":"村之郷","koaza":"","lat":34.9404,"lng":132.601994,"zip":"6960713"},{"town":"簗瀬","koaza":"","lat":35.032676,"lng":132.571375,"zip":"6994625"},{"town":"湯抱","koaza":"","lat":35.102104,"lng":132.567347,"zip":"6994633"}]