[{"town":"阿須那","koaza":"","lat":34.87352,"lng":132.628898,"zip":"6960501"},{"town":"出羽","koaza":"","lat":34.857034,"lng":132.546191,"zip":"6960312"},{"town":"市木","koaza":"","lat":34.82162,"lng":132.410965,"zip":"6970631"},{"town":"井原","koaza":"","lat":34.913401,"lng":132.487646,"zip":"6960101"},{"town":"今井","koaza":"","lat":34.906916,"lng":132.622376,"zip":"6960504"},{"town":"岩屋","koaza":"","lat":34.841682,"lng":132.557989,"zip":"6960314"},{"town":"上田","koaza":"","lat":34.863056,"lng":132.686648,"zip":"6960601"},{"town":"宇都井","koaza":"","lat":34.91001,"lng":132.61032,"zip":"6960503"},{"town":"大林","koaza":"","lat":34.839185,"lng":132.591093,"zip":"6960315"},{"town":"上亀谷","koaza":"","lat":34.820455,"lng":132.519902,"zip":"6960224"},{"town":"上口羽","koaza":"","lat":34.876967,"lng":132.648834,"zip":"6960602"},{"town":"上田所","koaza":"","lat":34.826626,"lng":132.466676,"zip":"6960225"},{"town":"上原","koaza":"","lat":34.86796,"lng":132.549019,"zip":"6960405"},{"town":"木須田","koaza":"","lat":34.871934,"lng":132.609744,"zip":"6960502"},{"town":"久喜","koaza":"","lat":34.816646,"lng":132.561277,"zip":"6960316"},{"town":"高水","koaza":"","lat":34.857218,"lng":132.444065,"zip":"6960131"},{"town":"下亀谷","koaza":"","lat":34.838218,"lng":132.530168,"zip":"6960223"},{"town":"下口羽","koaza":"","lat":34.883792,"lng":132.669776,"zip":"6960603"},{"town":"下田所","koaza":"","lat":34.849774,"lng":132.504094,"zip":"6960222"},{"town":"高見","koaza":"","lat":34.916326,"lng":132.533301,"zip":"6960406"},{"town":"戸河内","koaza":"","lat":34.846364,"lng":132.638233,"zip":"6960505"},{"town":"中野","koaza":"","lat":34.910959,"lng":132.448944,"zip":"6960102"},{"town":"原村","koaza":"","lat":34.879824,"lng":132.552882,"zip":"6960404"},{"town":"日貫","koaza":"","lat":34.889178,"lng":132.357215,"zip":"6994311"},{"town":"日和","koaza":"","lat":34.916821,"lng":132.384518,"zip":"6960104"},{"town":"伏谷","koaza":"","lat":34.905999,"lng":132.5795,"zip":"6960402"},{"town":"布施","koaza":"","lat":34.947104,"lng":132.570829,"zip":"6960401"},{"town":"鱒渕","koaza":"","lat":34.878185,"lng":132.519552,"zip":"6960221"},{"town":"三日市","koaza":"","lat":34.867837,"lng":132.539269,"zip":"6960311"},{"town":"八色石","koaza":"","lat":34.942366,"lng":132.547661,"zip":"6960407"},{"town":"矢上","koaza":"","lat":34.886053,"lng":132.431121,"zip":"6960103"},{"town":"山田","koaza":"","lat":34.853126,"lng":132.546308,"zip":"6960313"},{"town":"雪田","koaza":"","lat":34.874367,"lng":132.592711,"zip":"6960506"},{"town":"淀原","koaza":"","lat":34.853815,"lng":132.534343,"zip":"6960317"},{"town":"和田","koaza":"","lat":34.876401,"lng":132.570569,"zip":"6960403"}]