[{"town":"有木","koaza":"","lat":36.235391,"lng":133.320986,"zip":"6850006"},{"town":"飯美","koaza":"","lat":36.301187,"lng":133.334704,"zip":"6850411"},{"town":"池田","koaza":"","lat":36.226403,"lng":133.30834,"zip":"6850007"},{"town":"伊後","koaza":"","lat":36.321549,"lng":133.266268,"zip":"6850431"},{"town":"犬来","koaza":"","lat":36.219012,"lng":133.366251,"zip":"6850003"},{"town":"今津","koaza":"","lat":36.183715,"lng":133.304846,"zip":"6850022"},{"town":"卯敷","koaza":"","lat":36.274847,"lng":133.361173,"zip":"6850413"},{"town":"大久","koaza":"","lat":36.257627,"lng":133.361197,"zip":"6850001"},{"town":"釜","koaza":"","lat":36.233478,"lng":133.370164,"zip":"6850002"},{"town":"上西","koaza":"","lat":36.235742,"lng":133.265782,"zip":"6850026"},{"town":"加茂","koaza":"","lat":36.189315,"lng":133.28268,"zip":"6850024"},{"town":"元屋","koaza":"","lat":36.302602,"lng":133.315184,"zip":"6850435"},{"town":"北方","koaza":"","lat":36.272227,"lng":133.196145,"zip":"6850301"},{"town":"久見","koaza":"","lat":36.31611,"lng":133.242126,"zip":"6850305"},{"town":"蔵田","koaza":"","lat":36.253611,"lng":133.190009,"zip":"6850101"},{"town":"小路","koaza":"","lat":36.265085,"lng":133.257661,"zip":"6850312"},{"town":"郡","koaza":"","lat":36.279462,"lng":133.265182,"zip":"6850311"},{"town":"栄町","koaza":"","lat":36.215099,"lng":133.329847,"zip":"6850011"},{"town":"下西","koaza":"","lat":36.2074,"lng":133.310029,"zip":"6850017"},{"town":"城北町","koaza":"","lat":36.212736,"lng":133.319507,"zip":"6850016"},{"town":"代","koaza":"","lat":36.305413,"lng":133.225098,"zip":"6850304"},{"town":"蛸木","koaza":"","lat":36.177605,"lng":133.262905,"zip":"6850106"},{"town":"津戸","koaza":"","lat":36.180296,"lng":133.246599,"zip":"6850105"},{"town":"都万","koaza":"","lat":36.213151,"lng":133.243236,"zip":"6850104"},{"town":"東郷","koaza":"","lat":36.232244,"lng":133.340843,"zip":"6850005"},{"town":"中町","koaza":"","lat":36.205758,"lng":133.334121,"zip":"6850013"},{"town":"中村","koaza":"","lat":36.294806,"lng":133.289607,"zip":"6850434"},{"town":"那久","koaza":"","lat":36.228154,"lng":133.212801,"zip":"6850103"},{"town":"那久路","koaza":"","lat":36.261997,"lng":133.239435,"zip":"6850313"},{"town":"苗代田","koaza":"","lat":36.268317,"lng":133.230511,"zip":"6850302"},{"town":"西田","koaza":"","lat":36.202648,"lng":133.296214,"zip":"6850023"},{"town":"西町","koaza":"","lat":36.209335,"lng":133.325652,"zip":"6850014"},{"town":"西村","koaza":"","lat":36.328764,"lng":133.288027,"zip":"6850432"},{"town":"原田","koaza":"","lat":36.249011,"lng":133.29653,"zip":"6850027"},{"town":"東町","koaza":"","lat":36.208657,"lng":133.334786,"zip":"6850012"},{"town":"布施","koaza":"","lat":36.2773,"lng":133.332977,"zip":"6850412"},{"town":"平","koaza":"","lat":36.218445,"lng":133.297933,"zip":"6850025"},{"town":"岬町","koaza":"","lat":36.184316,"lng":133.325982,"zip":"6850021"},{"town":"湊","koaza":"","lat":36.319201,"lng":133.294109,"zip":"6850433"},{"town":"港町","koaza":"","lat":36.204478,"lng":133.32692,"zip":"6850015"},{"town":"南方","koaza":"","lat":36.270141,"lng":133.216678,"zip":"6850303"},{"town":"山田","koaza":"","lat":36.295867,"lng":133.261626,"zip":"6850314"},{"town":"油井","koaza":"","lat":36.23927,"lng":133.204009,"zip":"6850102"},{"town":"飯田","koaza":"","lat":36.218857,"lng":133.354455,"zip":"6850004"},{"town":"上西","koaza":"蔵見","lat":36.232033,"lng":133.2924,"zip":"6850026"},{"town":"上西","koaza":"千峯","lat":36.234481,"lng":133.288115,"zip":"6850026"},{"town":"平","koaza":"平ノ前","lat":36.218537,"lng":133.306567,"zip":"6850025"},{"town":"池田","koaza":"風呂前","lat":36.224638,"lng":133.308026,"zip":"6850007"},{"town":"池田","koaza":"横手","lat":36.22318,"lng":133.308748,"zip":"6850007"},{"town":"有木","koaza":"尼寺原","lat":36.219701,"lng":133.311593,"zip":"6850006"},{"town":"池田","koaza":"高城","lat":36.222568,"lng":133.313033,"zip":"6850007"},{"town":"有木","koaza":"前田","lat":36.223596,"lng":133.31816,"zip":"6850006"},{"town":"岬町","koaza":"風の松","lat":36.180252,"lng":133.321284,"zip":"6850021"},{"town":"有木","koaza":"クラミ口","lat":36.218283,"lng":133.316715,"zip":"6850006"},{"town":"有木","koaza":"坂根","lat":36.217024,"lng":133.320382,"zip":"6850006"},{"town":"有木","koaza":"桜田","lat":36.225527,"lng":133.326266,"zip":"6850006"},{"town":"岬町","koaza":"池ケ床","lat":36.187151,"lng":133.321193,"zip":"6850021"},{"town":"有木","koaza":"大光寺前","lat":36.219262,"lng":133.321558,"zip":"6850006"},{"town":"有木","koaza":"山崎","lat":36.217887,"lng":133.321105,"zip":"6850006"},{"town":"有木","koaza":"月無","lat":36.215805,"lng":133.321887,"zip":"6850006"},{"town":"西町","koaza":"吉田の一","lat":36.210706,"lng":133.322903,"zip":"6850014"},{"town":"港町","koaza":"大津の二","lat":36.203456,"lng":133.323509,"zip":"6850015"},{"town":"西町","koaza":"名田の三","lat":36.213907,"lng":133.322195,"zip":"6850014"},{"town":"中町","koaza":"名田の四","lat":36.213073,"lng":133.322302,"zip":"6850013"},{"town":"西町","koaza":"名田の四","lat":36.21244,"lng":133.322808,"zip":"6850014"},{"town":"西町","koaza":"吉田の二","lat":36.207345,"lng":133.325178,"zip":"6850014"},{"town":"西町","koaza":"名田の五","lat":36.211423,"lng":133.323882,"zip":"6850014"},{"town":"中町","koaza":"名田の三","lat":36.213231,"lng":133.323409,"zip":"6850013"},{"town":"西町","koaza":"名田の一","lat":36.212566,"lng":133.324891,"zip":"6850014"},{"town":"岬町","koaza":"平岩の二","lat":36.200494,"lng":133.327447,"zip":"6850021"},{"town":"西町","koaza":"名田の二","lat":36.211242,"lng":133.324804,"zip":"6850014"},{"town":"岬町","koaza":"平岩の三","lat":36.195211,"lng":133.325912,"zip":"6850021"},{"town":"中町","koaza":"名田の一","lat":36.21203,"lng":133.324967,"zip":"6850013"},{"town":"岬町","koaza":"平岩の一","lat":36.200552,"lng":133.326884,"zip":"6850021"},{"town":"岬町","koaza":"石畑","lat":36.175561,"lng":133.326233,"zip":"6850021"},{"town":"西町","koaza":"吉田の三","lat":36.207538,"lng":133.326515,"zip":"6850014"},{"town":"西町","koaza":"八尾の四","lat":36.205969,"lng":133.327124,"zip":"6850014"},{"town":"岬町","koaza":"高井","lat":36.19947,"lng":133.326976,"zip":"6850021"},{"town":"岬町","koaza":"辛山","lat":36.190618,"lng":133.327091,"zip":"6850021"},{"town":"港町","koaza":"塩口","lat":36.202654,"lng":133.328893,"zip":"6850015"},{"town":"岬町","koaza":"中の津の四","lat":36.188375,"lng":133.327556,"zip":"6850021"},{"town":"西町","koaza":"大城の四","lat":36.207395,"lng":133.329047,"zip":"6850014"},{"town":"西町","koaza":"八尾の三","lat":36.205556,"lng":133.329676,"zip":"6850014"},{"town":"港町","koaza":"指向","lat":36.204725,"lng":133.329392,"zip":"6850015"},{"town":"中町","koaza":"出雲結の上","lat":36.209226,"lng":133.330473,"zip":"6850013"},{"town":"中町","koaza":"目貫の一","lat":36.207338,"lng":133.333167,"zip":"6850013"},{"town":"西町","koaza":"八尾の二","lat":36.205074,"lng":133.33186,"zip":"6850014"},{"town":"中町","koaza":"出雲結の一","lat":36.207908,"lng":133.331676,"zip":"6850013"},{"town":"西町","koaza":"大城の一","lat":36.205261,"lng":133.332797,"zip":"6850014"},{"town":"東町","koaza":"出雲結の下","lat":36.208204,"lng":133.332234,"zip":"6850012"},{"town":"西町","koaza":"八尾の一","lat":36.20325,"lng":133.332987,"zip":"6850014"},{"town":"東郷","koaza":"宮田","lat":36.221014,"lng":133.337004,"zip":"6850005"},{"town":"東町","koaza":"宇屋の奥","lat":36.208366,"lng":133.334121,"zip":"6850012"},{"town":"東町","koaza":"宇屋の上","lat":36.207265,"lng":133.334153,"zip":"6850012"},{"town":"中町","koaza":"目貫の二","lat":36.206375,"lng":133.334307,"zip":"6850013"},{"town":"東郷","koaza":"大井","lat":36.212436,"lng":133.333941,"zip":"6850005"},{"town":"中町","koaza":"目貫の三","lat":36.205254,"lng":133.334849,"zip":"6850013"},{"town":"中町","koaza":"目貫の四","lat":36.203602,"lng":133.334411,"zip":"6850013"},{"town":"東郷","koaza":"神米","lat":36.21368,"lng":133.336298,"zip":"6850005"},{"town":"東町","koaza":"宇屋の下","lat":36.205432,"lng":133.335924,"zip":"6850012"},{"town":"東郷","koaza":"砂尾","lat":36.215164,"lng":133.335079,"zip":"6850005"},{"town":"東町","koaza":"風早","lat":36.207718,"lng":133.338174,"zip":"6850012"},{"town":"東町","koaza":"ヘギ","lat":36.209276,"lng":133.336374,"zip":"6850012"},{"town":"東郷","koaza":"宮尾","lat":36.213937,"lng":133.339175,"zip":"6850005"},{"town":"東郷","koaza":"神米鼻","lat":36.213815,"lng":133.337307,"zip":"6850005"},{"town":"東郷","koaza":"吉津","lat":36.221133,"lng":133.339004,"zip":"6850005"},{"town":"東郷","koaza":"榎本","lat":36.221973,"lng":133.340628,"zip":"6850005"},{"town":"東郷","koaza":"惣倉","lat":36.226258,"lng":133.345415,"zip":"6850005"},{"town":"飯田","koaza":"白崎","lat":36.22099,"lng":133.345823,"zip":"6850004"},{"town":"飯田","koaza":"風呂屋ケ谷","lat":36.222578,"lng":133.349133,"zip":"6850004"},{"town":"飯田","koaza":"矢谷","lat":36.219914,"lng":133.347392,"zip":"6850004"},{"town":"飯田","koaza":"前田","lat":36.219213,"lng":133.348043,"zip":"6850004"},{"town":"飯田","koaza":"屋敷余り","lat":36.220446,"lng":133.348591,"zip":"6850004"},{"town":"飯田","koaza":"原","lat":36.210822,"lng":133.349092,"zip":"6850004"},{"town":"飯田","koaza":"立石","lat":36.218789,"lng":133.355632,"zip":"6850004"},{"town":"飯田","koaza":"田の前","lat":36.21013,"lng":133.350207,"zip":"6850004"},{"town":"飯田","koaza":"泙浦","lat":36.218392,"lng":133.349493,"zip":"6850004"},{"town":"飯田","koaza":"倉の前","lat":36.22579,"lng":133.3512,"zip":"6850004"},{"town":"飯田","koaza":"鍛冶屋崎","lat":36.211327,"lng":133.351667,"zip":"6850004"},{"town":"飯田","koaza":"ハケの前","lat":36.21646,"lng":133.352949,"zip":"6850004"},{"town":"飯田","koaza":"津の井","lat":36.212098,"lng":133.352142,"zip":"6850004"},{"town":"飯田","koaza":"熊の腰","lat":36.209908,"lng":133.3517,"zip":"6850004"},{"town":"飯田","koaza":"戸の畑","lat":36.213104,"lng":133.352309,"zip":"6850004"},{"town":"飯田","koaza":"浜","lat":36.219001,"lng":133.347261,"zip":"6850004"},{"town":"飯田","koaza":"有田","lat":36.216534,"lng":133.350036,"zip":"6850004"},{"town":"飯田","koaza":"里","lat":36.202804,"lng":133.346459,"zip":"6850004"},{"town":"原田","koaza":"蔵見","lat":36.234035,"lng":133.292389,"zip":"6850027"}]