[{"town":"掛合町穴見","koaza":"","lat":35.179111,"lng":132.7629,"zip":"6902704"},{"town":"掛合町入間","koaza":"","lat":35.151043,"lng":132.787945,"zip":"6902702"},{"town":"掛合町掛合","koaza":"","lat":35.190224,"lng":132.814092,"zip":"6902701"},{"town":"掛合町多根","koaza":"","lat":35.240143,"lng":132.804493,"zip":"6902706"},{"town":"掛合町波多","koaza":"","lat":35.14296,"lng":132.73798,"zip":"6902703"},{"town":"掛合町松笠","koaza":"","lat":35.204575,"lng":132.785222,"zip":"6902705"},{"town":"加茂町猪尾","koaza":"","lat":35.355993,"lng":132.901892,"zip":"6991114"},{"town":"加茂町岩倉","koaza":"","lat":35.366836,"lng":132.893942,"zip":"6991115"},{"town":"加茂町宇治","koaza":"","lat":35.343083,"lng":132.90428,"zip":"6991105"},{"town":"加茂町大崎","koaza":"","lat":35.355457,"lng":132.894574,"zip":"6991125"},{"town":"加茂町大竹","koaza":"","lat":35.353822,"lng":132.872831,"zip":"6991123"},{"town":"加茂町加茂中","koaza":"","lat":35.348253,"lng":132.910774,"zip":"6991106"},{"town":"加茂町神原","koaza":"","lat":35.341084,"lng":132.882282,"zip":"6991121"},{"town":"加茂町新宮","koaza":"","lat":35.355708,"lng":132.912169,"zip":"6991112"},{"town":"加茂町砂子原","koaza":"","lat":35.361448,"lng":132.927598,"zip":"6991111"},{"town":"加茂町大西","koaza":"","lat":35.334337,"lng":132.916999,"zip":"6991101"},{"town":"加茂町立原","koaza":"","lat":35.328723,"lng":132.929103,"zip":"6991102"},{"town":"加茂町近松","koaza":"","lat":35.326786,"lng":132.921824,"zip":"6991103"},{"town":"加茂町延野","koaza":"","lat":35.351823,"lng":132.88706,"zip":"6991124"},{"town":"加茂町東谷","koaza":"","lat":35.365522,"lng":132.911934,"zip":"6991113"},{"town":"加茂町三代","koaza":"","lat":35.328424,"lng":132.889063,"zip":"6991122"},{"town":"加茂町南加茂","koaza":"","lat":35.330442,"lng":132.908776,"zip":"6991104"},{"town":"木次町宇谷","koaza":"","lat":35.283319,"lng":132.94406,"zip":"6991321"},{"town":"木次町上熊谷","koaza":"","lat":35.270532,"lng":132.894521,"zip":"6991331"},{"town":"木次町木次","koaza":"","lat":35.288688,"lng":132.907959,"zip":"6991332"},{"town":"木次町北原","koaza":"","lat":35.233255,"lng":132.955828,"zip":"6991401"},{"town":"木次町里方","koaza":"","lat":35.306005,"lng":132.90423,"zip":"6991311"},{"town":"木次町下熊谷","koaza":"","lat":35.287824,"lng":132.890576,"zip":"6991333"},{"town":"木次町寺領","koaza":"","lat":35.27358,"lng":132.936543,"zip":"6991322"},{"town":"木次町新市","koaza":"","lat":35.286976,"lng":132.897664,"zip":"6991334"},{"town":"木次町西日登","koaza":"","lat":35.260582,"lng":132.909593,"zip":"6991324"},{"town":"木次町東日登","koaza":"","lat":35.265513,"lng":132.929548,"zip":"6991323"},{"town":"木次町平田","koaza":"","lat":35.215049,"lng":132.936329,"zip":"6991342"},{"town":"木次町山方","koaza":"","lat":35.306152,"lng":132.915604,"zip":"6991312"},{"town":"木次町湯村","koaza":"","lat":35.227679,"lng":132.929696,"zip":"6991343"},{"town":"大東町飯田","koaza":"","lat":35.320495,"lng":132.956774,"zip":"6991221"},{"town":"大東町遠所","koaza":"","lat":35.357414,"lng":132.959748,"zip":"6991231"},{"town":"大東町大ケ谷","koaza":"","lat":35.302715,"lng":132.951407,"zip":"6991213"},{"town":"大東町岡村","koaza":"","lat":35.302561,"lng":132.962695,"zip":"6991221"},{"town":"大東町小河内","koaza":"","lat":35.337932,"lng":133.046938,"zip":"6991201"},{"town":"大東町金成","koaza":"","lat":35.309435,"lng":132.981676,"zip":"6991261"},{"town":"大東町上久野","koaza":"","lat":35.265324,"lng":133.047253,"zip":"6991211"},{"town":"大東町上佐世","koaza":"","lat":35.308169,"lng":132.934721,"zip":"6991214"},{"town":"大東町刈畑","koaza":"","lat":35.315808,"lng":133.045445,"zip":"6991202"},{"town":"大東町川井","koaza":"","lat":35.287859,"lng":132.982467,"zip":"6991222"},{"town":"大東町北村","koaza":"","lat":35.343764,"lng":133.016807,"zip":"6991203"},{"town":"大東町薦澤","koaza":"","lat":35.370011,"lng":133.029445,"zip":"6991204"},{"town":"大東町山王寺","koaza":"","lat":35.362328,"lng":133.008904,"zip":"6991241"},{"town":"大東町塩田","koaza":"","lat":35.291698,"lng":133.041373,"zip":"6991262"},{"town":"大東町篠淵","koaza":"","lat":35.291739,"lng":133.012863,"zip":"6991263"},{"town":"大東町下阿用","koaza":"","lat":35.314016,"lng":132.967476,"zip":"6991223"},{"town":"大東町下久野","koaza":"","lat":35.261728,"lng":132.999227,"zip":"6991212"},{"town":"大東町下佐世","koaza":"","lat":35.317541,"lng":132.943915,"zip":"6991215"},{"town":"大東町新庄","koaza":"","lat":35.337231,"lng":132.995139,"zip":"6991251"},{"town":"大東町須賀","koaza":"","lat":35.358808,"lng":133.03202,"zip":"6991205"},{"town":"大東町清田","koaza":"","lat":35.31094,"lng":132.999505,"zip":"6991264"},{"town":"大東町大東","koaza":"","lat":35.332078,"lng":132.966115,"zip":"6991251"},{"town":"大東町大東下分","koaza":"","lat":35.336514,"lng":132.954977,"zip":"6991242"},{"town":"大東町田中","koaza":"","lat":35.33864,"lng":132.984737,"zip":"6991252"},{"town":"大東町中湯石","koaza":"","lat":35.327699,"lng":133.003808,"zip":"6991253"},{"town":"大東町西阿用","koaza":"","lat":35.281062,"lng":132.962078,"zip":"6991216"},{"town":"大東町仁和寺","koaza":"","lat":35.344491,"lng":132.93641,"zip":"6991232"},{"town":"大東町畑鵯","koaza":"","lat":35.362413,"lng":132.986138,"zip":"6991243"},{"town":"大東町幡屋","koaza":"","lat":35.363089,"lng":132.948147,"zip":"6991233"},{"town":"大東町東阿用","koaza":"","lat":35.299734,"lng":132.975721,"zip":"6991224"},{"town":"大東町前原","koaza":"","lat":35.333401,"lng":132.932456,"zip":"6991234"},{"town":"大東町南村","koaza":"","lat":35.336596,"lng":133.027137,"zip":"6991206"},{"town":"大東町山田","koaza":"","lat":35.347895,"lng":132.973326,"zip":"6991244"},{"town":"大東町養賀","koaza":"","lat":35.329243,"lng":132.944235,"zip":"6991245"},{"town":"三刀屋町粟谷","koaza":"","lat":35.267131,"lng":132.86168,"zip":"6902513"},{"town":"三刀屋町伊萱","koaza":"","lat":35.32073,"lng":132.878222,"zip":"6902401"},{"town":"三刀屋町乙加宮","koaza":"","lat":35.265983,"lng":132.825795,"zip":"6902634"},{"town":"三刀屋町上熊谷","koaza":"","lat":35.252478,"lng":132.890575,"zip":"6902511"},{"town":"三刀屋町給下","koaza":"","lat":35.304864,"lng":132.881555,"zip":"6902402"},{"town":"三刀屋町神代","koaza":"","lat":35.228327,"lng":132.887213,"zip":"6902521"},{"town":"三刀屋町古城","koaza":"","lat":35.291631,"lng":132.857535,"zip":"6902405"},{"town":"三刀屋町坂本","koaza":"","lat":35.241446,"lng":132.834924,"zip":"6902525"},{"town":"三刀屋町里坊","koaza":"","lat":35.290966,"lng":132.828597,"zip":"6902632"},{"town":"三刀屋町下熊谷","koaza":"","lat":35.304557,"lng":132.895826,"zip":"6902403"},{"town":"三刀屋町須所","koaza":"","lat":35.228385,"lng":132.841297,"zip":"6902524"},{"town":"三刀屋町高窪","koaza":"","lat":35.31124,"lng":132.851853,"zip":"6902406"},{"town":"三刀屋町多久和","koaza":"","lat":35.25952,"lng":132.874393,"zip":"6902512"},{"town":"三刀屋町殿河内","koaza":"","lat":35.271645,"lng":132.851298,"zip":"6902633"},{"town":"三刀屋町中野","koaza":"","lat":35.228612,"lng":132.859181,"zip":"6902523"},{"town":"三刀屋町根波別所","koaza":"","lat":35.271624,"lng":132.803429,"zip":"6902631"},{"town":"三刀屋町三刀屋","koaza":"","lat":35.287187,"lng":132.876398,"zip":"6902404"},{"town":"三刀屋町六重","koaza":"","lat":35.218578,"lng":132.877665,"zip":"6902522"},{"town":"吉田町上山","koaza":"","lat":35.184552,"lng":132.931422,"zip":"6902311"},{"town":"吉田町川手","koaza":"","lat":35.229319,"lng":132.900905,"zip":"6902314"},{"town":"吉田町曽木","koaza":"","lat":35.169007,"lng":132.906286,"zip":"6902312"},{"town":"吉田町深野","koaza":"","lat":35.20219,"lng":132.907768,"zip":"6902313"},{"town":"吉田町民谷","koaza":"","lat":35.129307,"lng":132.828363,"zip":"6902802"},{"town":"吉田町吉田","koaza":"","lat":35.154532,"lng":132.854558,"zip":"6902801"}]