[{"town":"赤名","koaza":"","lat":34.99698,"lng":132.716264,"zip":"6903511"},{"town":"井戸谷","koaza":"","lat":34.981404,"lng":132.689252,"zip":"6903514"},{"town":"小田","koaza":"","lat":35.029313,"lng":132.791392,"zip":"6903403"},{"town":"上赤名","koaza":"","lat":34.972902,"lng":132.729212,"zip":"6903512"},{"town":"上来島","koaza":"","lat":35.014239,"lng":132.736239,"zip":"6903405"},{"town":"佐見","koaza":"","lat":35.064566,"lng":132.76427,"zip":"6903204"},{"town":"塩谷","koaza":"","lat":35.00507,"lng":132.690891,"zip":"6903515"},{"town":"獅子","koaza":"","lat":35.107057,"lng":132.733994,"zip":"6903311"},{"town":"志津見","koaza":"","lat":35.1373,"lng":132.694022,"zip":"6903313"},{"town":"下赤名","koaza":"","lat":35.011414,"lng":132.716614,"zip":"6903513"},{"town":"下来島","koaza":"","lat":35.059511,"lng":132.726465,"zip":"6903402"},{"town":"都加賀","koaza":"","lat":35.117513,"lng":132.791259,"zip":"6903203"},{"town":"角井","koaza":"","lat":35.146512,"lng":132.658147,"zip":"6903314"},{"town":"頓原","koaza":"","lat":35.078865,"lng":132.812563,"zip":"6903207"},{"town":"長谷","koaza":"","lat":35.092308,"lng":132.742536,"zip":"6903205"},{"town":"野萱","koaza":"","lat":35.034464,"lng":132.757497,"zip":"6903401"},{"town":"八神","koaza":"","lat":35.096006,"lng":132.69054,"zip":"6903312"},{"town":"畑田","koaza":"","lat":34.976925,"lng":132.666047,"zip":"6903516"},{"town":"花栗","koaza":"","lat":35.098196,"lng":132.778638,"zip":"6903206"},{"town":"真木","koaza":"","lat":34.998016,"lng":132.750301,"zip":"6903404"}]