[{"town":"朝倉","koaza":"","lat":34.375563,"lng":131.894218,"zip":"6995523"},{"town":"有飯","koaza":"","lat":34.356421,"lng":131.950243,"zip":"6995506"},{"town":"柿木村大野原","koaza":"","lat":34.431805,"lng":131.886295,"zip":"6995500"},{"town":"柿木村柿木","koaza":"","lat":34.429094,"lng":131.866251,"zip":"6995500"},{"town":"柿木村椛谷","koaza":"","lat":34.36953,"lng":131.804591,"zip":"6995500"},{"town":"柿木村木部谷","koaza":"","lat":34.448371,"lng":131.909769,"zip":"6995500"},{"town":"柿木村下須","koaza":"","lat":34.468965,"lng":131.869984,"zip":"6995500"},{"town":"柿木村白谷","koaza":"","lat":34.458411,"lng":131.884641,"zip":"6995500"},{"town":"柿木村福川","koaza":"","lat":34.425804,"lng":131.831102,"zip":"6995500"},{"town":"上高尻","koaza":"","lat":34.450998,"lng":131.962712,"zip":"6995501"},{"town":"蔵木","koaza":"","lat":34.369946,"lng":131.976753,"zip":"6995504"},{"town":"九郎原","koaza":"","lat":34.356771,"lng":131.967554,"zip":"6995505"},{"town":"幸地","koaza":"","lat":34.327478,"lng":131.948919,"zip":"6995515"},{"town":"真田","koaza":"","lat":34.403223,"lng":131.892525,"zip":"6995521"},{"town":"沢田","koaza":"","lat":34.35555,"lng":131.915223,"zip":"6995516"},{"town":"注連川","koaza":"","lat":34.359176,"lng":131.8995,"zip":"6995517"},{"town":"下高尻","koaza":"","lat":34.426958,"lng":131.934532,"zip":"6995507"},{"town":"立河内","koaza":"","lat":34.337522,"lng":131.964324,"zip":"6995514"},{"town":"立戸","koaza":"","lat":34.381002,"lng":131.925389,"zip":"6995511"},{"town":"蓼野","koaza":"","lat":34.340666,"lng":131.873051,"zip":"6995524"},{"town":"田野原","koaza":"","lat":34.417914,"lng":131.982142,"zip":"6995502"},{"town":"七日市","koaza":"","lat":34.403097,"lng":131.91943,"zip":"6995522"},{"town":"抜月","koaza":"","lat":34.39161,"lng":131.862494,"zip":"6995525"},{"town":"樋口","koaza":"","lat":34.387432,"lng":131.982206,"zip":"6995503"},{"town":"広石","koaza":"","lat":34.364149,"lng":131.923529,"zip":"6995512"},{"town":"六日市","koaza":"","lat":34.38746,"lng":131.952764,"zip":"6995513"}]