[{"town":"青原","koaza":"","lat":34.576783,"lng":131.790262,"zip":"6995211"},{"town":"商人","koaza":"","lat":34.513969,"lng":131.781151,"zip":"6995201"},{"town":"池村","koaza":"","lat":34.574351,"lng":131.825899,"zip":"6995216"},{"town":"後田","koaza":"","lat":34.467274,"lng":131.770884,"zip":"6995605"},{"town":"河村","koaza":"","lat":34.540492,"lng":131.818113,"zip":"6995212"},{"town":"耕田","koaza":"","lat":34.47849,"lng":131.793592,"zip":"6995607"},{"town":"笹山","koaza":"","lat":34.451447,"lng":131.795726,"zip":"6995603"},{"town":"左鐙","koaza":"","lat":34.497469,"lng":131.9038,"zip":"6995202"},{"town":"須川","koaza":"","lat":34.554191,"lng":131.874632,"zip":"6995204"},{"town":"相撲ヶ原","koaza":"","lat":34.578045,"lng":131.881227,"zip":"6995600"},{"town":"添谷","koaza":"","lat":34.572255,"lng":131.809125,"zip":"6995213"},{"town":"高峯","koaza":"","lat":34.451567,"lng":131.740145,"zip":"6995614"},{"town":"瀧谷","koaza":"","lat":34.57637,"lng":131.906367,"zip":"6995205"},{"town":"瀧元","koaza":"","lat":34.512215,"lng":131.831085,"zip":"6995206"},{"town":"直地","koaza":"","lat":34.48057,"lng":131.819368,"zip":"6995602"},{"town":"田二穂","koaza":"","lat":34.469911,"lng":131.756564,"zip":"6995617"},{"town":"溪村","koaza":"","lat":34.528338,"lng":131.779749,"zip":"6995214"},{"town":"寺田","koaza":"","lat":34.493247,"lng":131.769507,"zip":"6995606"},{"town":"冨田","koaza":"","lat":34.563207,"lng":131.776479,"zip":"6995215"},{"town":"豊稼","koaza":"","lat":34.54221,"lng":131.749506,"zip":"6995632"},{"town":"内美","koaza":"","lat":34.510278,"lng":131.745712,"zip":"6995621"},{"town":"中川","koaza":"","lat":34.526502,"lng":131.724567,"zip":"6995634"},{"town":"中座","koaza":"","lat":34.444995,"lng":131.772985,"zip":"6995612"},{"town":"中曽野","koaza":"","lat":34.509092,"lng":131.70765,"zip":"6995636"},{"town":"長福","koaza":"","lat":34.544861,"lng":131.722903,"zip":"6995633"},{"town":"中山","koaza":"","lat":34.558503,"lng":131.721167,"zip":"6995631"},{"town":"名賀","koaza":"","lat":34.451253,"lng":131.712663,"zip":"6995615"},{"town":"日原","koaza":"","lat":34.548698,"lng":131.841135,"zip":"6995221"},{"town":"吹野","koaza":"","lat":34.499124,"lng":131.6871,"zip":"6995637"},{"town":"部栄","koaza":"","lat":34.47709,"lng":131.724815,"zip":"6995616"},{"town":"枕瀬","koaza":"","lat":34.53397,"lng":131.848164,"zip":"6995207"},{"town":"町田","koaza":"","lat":34.457063,"lng":131.769866,"zip":"6995611"},{"town":"邑輝","koaza":"","lat":34.491461,"lng":131.719565,"zip":"6995622"},{"town":"森村","koaza":"","lat":34.462019,"lng":131.780536,"zip":"6995604"},{"town":"柳村","koaza":"","lat":34.545257,"lng":131.778565,"zip":"6995217"},{"town":"山下","koaza":"","lat":34.513421,"lng":131.724548,"zip":"6995635"},{"town":"鷲原","koaza":"","lat":34.44895,"lng":131.755328,"zip":"6995613"}]