[{"town":"御津町室津","koaza":"","lat":34.770872,"lng":134.484696,"zip":"6711332"},{"town":"揖西町土師四丁目","koaza":"","lat":34.834286,"lng":134.496998,"zip":"6794017"},{"town":"揖西町土師","koaza":"","lat":34.833684,"lng":134.503535,"zip":"6794017"},{"town":"揖西町土師二丁目","koaza":"","lat":34.834627,"lng":134.500004,"zip":"6794017"},{"town":"揖西町南山三丁目","koaza":"","lat":34.836642,"lng":134.502248,"zip":"6794016"},{"town":"揖西町南山","koaza":"","lat":34.838561,"lng":134.507343,"zip":"6794016"},{"town":"揖西町龍子","koaza":"","lat":34.841266,"lng":134.511463,"zip":"6794015"},{"town":"揖保川町二塚","koaza":"","lat":34.835545,"lng":134.518582,"zip":"6711613"},{"town":"揖保川町本條","koaza":"","lat":34.836345,"lng":134.523499,"zip":"6711612"},{"town":"揖保川町養久","koaza":"","lat":34.840064,"lng":134.522935,"zip":"6711603"},{"town":"揖保川町新在家","koaza":"","lat":34.837061,"lng":134.529573,"zip":"6711611"},{"town":"揖保町揖保上","koaza":"","lat":34.836102,"lng":134.53705,"zip":"6794156"},{"town":"揖保町中臣","koaza":"","lat":34.837283,"lng":134.546803,"zip":"6794152"},{"town":"誉田町下沖","koaza":"","lat":34.8366,"lng":134.554695,"zip":"6794138"},{"town":"誉田町井上","koaza":"","lat":34.839783,"lng":134.558856,"zip":"6794136"},{"town":"揖西町土師一丁目","koaza":"","lat":34.838993,"lng":134.500575,"zip":"6794017"},{"town":"新宮町善定","koaza":"","lat":34.914137,"lng":134.498046,"zip":"6794344"},{"town":"揖西町土師三丁目","koaza":"","lat":34.837165,"lng":134.497048,"zip":"6794017"},{"town":"揖西町新宮","koaza":"","lat":34.8672,"lng":134.50223,"zip":"6794001"},{"town":"揖西町小畑","koaza":"","lat":34.842836,"lng":134.496852,"zip":"6794025"},{"town":"揖西町菖蒲谷","koaza":"","lat":34.887892,"lng":134.496281,"zip":"6794100"},{"town":"揖西町竹原","koaza":"","lat":34.839295,"lng":134.487464,"zip":"6794026"},{"town":"揖西町北沢","koaza":"","lat":34.851081,"lng":134.498926,"zip":"6794022"},{"town":"揖西町小犬丸","koaza":"","lat":34.861477,"lng":134.479901,"zip":"6794021"},{"town":"新宮町大屋","koaza":"","lat":34.925195,"lng":134.524404,"zip":"6794343"},{"town":"新宮町芝田","koaza":"","lat":34.918041,"lng":134.539682,"zip":"6794316"},{"town":"新宮町新宮","koaza":"","lat":34.919758,"lng":134.556034,"zip":"6794313"},{"town":"新宮町曽我井","koaza":"","lat":34.911731,"lng":134.561847,"zip":"6794314"},{"town":"新宮町光都三丁目","koaza":"","lat":34.921885,"lng":134.452773,"zip":"6795165"},{"town":"新宮町二柏野","koaza":"","lat":34.918842,"lng":134.468616,"zip":"6795164"},{"town":"新宮町福栖","koaza":"","lat":34.943163,"lng":134.50881,"zip":"6794345"},{"town":"新宮町千本","koaza":"","lat":34.948106,"lng":134.487549,"zip":"6794346"},{"town":"新宮町牧","koaza":"","lat":34.973824,"lng":134.487152,"zip":"6795152"},{"town":"新宮町奥小屋","koaza":"","lat":34.996173,"lng":134.493827,"zip":"6795151"},{"town":"御津町黒崎","koaza":"","lat":34.775766,"lng":134.554272,"zip":"6711301"},{"town":"御津町苅屋","koaza":"","lat":34.774987,"lng":134.568272,"zip":"6711321"},{"town":"御津町釜屋","koaza":"","lat":34.783267,"lng":134.556367,"zip":"6711341"},{"town":"御津町朝臣","koaza":"","lat":34.787789,"lng":134.555433,"zip":"6711342"},{"town":"御津町碇岩","koaza":"","lat":34.794292,"lng":134.546206,"zip":"6711312"},{"town":"御津町岩見","koaza":"","lat":34.780145,"lng":134.540442,"zip":"6711331"},{"town":"御津町中島","koaza":"","lat":34.79573,"lng":134.562003,"zip":"6711311"},{"town":"揖保町真砂","koaza":"","lat":34.811566,"lng":134.554748,"zip":"6794144"},{"town":"揖保町萩原","koaza":"","lat":34.815895,"lng":134.54806,"zip":"6794145"},{"town":"揖保川町市場","koaza":"","lat":34.807942,"lng":134.547106,"zip":"6711662"},{"town":"揖保川町浦部","koaza":"","lat":34.805638,"lng":134.535507,"zip":"6711663"},{"town":"揖保川町袋尻","koaza":"","lat":34.807365,"lng":134.540277,"zip":"6711661"},{"town":"揖保川町金剛山","koaza":"","lat":34.805679,"lng":134.525443,"zip":"6711664"},{"town":"揖保川町馬場","koaza":"","lat":34.792447,"lng":134.518319,"zip":"6711665"},{"town":"誉田町片吹","koaza":"","lat":34.833015,"lng":134.558722,"zip":"6794137"},{"town":"揖保町松原","koaza":"","lat":34.825805,"lng":134.554788,"zip":"6794142"},{"town":"揖保町東用","koaza":"","lat":34.819744,"lng":134.547962,"zip":"6794143"},{"town":"揖保町栄","koaza":"","lat":34.826858,"lng":134.547583,"zip":"6794141"},{"town":"揖保町門前","koaza":"","lat":34.830022,"lng":134.552919,"zip":"6794153"},{"town":"揖保町西構","koaza":"","lat":34.826727,"lng":134.542004,"zip":"6794154"},{"town":"揖保町今市","koaza":"","lat":34.821305,"lng":134.537203,"zip":"6794146"},{"town":"揖保町揖保中","koaza":"","lat":34.830725,"lng":134.535535,"zip":"6794155"},{"town":"揖保川町山津屋","koaza":"","lat":34.819808,"lng":134.524197,"zip":"6711631"},{"town":"揖保川町正條","koaza":"","lat":34.823884,"lng":134.529288,"zip":"6711621"},{"town":"揖保川町黍田","koaza":"","lat":34.817266,"lng":134.516609,"zip":"6711632"},{"town":"揖保川町神戸北山","koaza":"","lat":34.828225,"lng":134.522798,"zip":"6711643"},{"town":"揖保川町原","koaza":"","lat":34.814164,"lng":134.508387,"zip":"6711641"},{"town":"揖保川町片島","koaza":"","lat":34.82955,"lng":134.510224,"zip":"6711651"},{"town":"揖保川町大門","koaza":"","lat":34.825352,"lng":134.502597,"zip":"6711642"},{"town":"揖西町南山一丁目","koaza":"","lat":34.841197,"lng":134.502821,"zip":"6794016"},{"town":"揖西町南山二丁目","koaza":"","lat":34.839292,"lng":134.50228,"zip":"6794016"},{"town":"誉田町高駄","koaza":"","lat":34.846007,"lng":134.556811,"zip":"6794135"},{"town":"誉田町上沖","koaza":"","lat":34.843882,"lng":134.553274,"zip":"6794139"},{"town":"誉田町長真","koaza":"","lat":34.847471,"lng":134.551979,"zip":"6794130"},{"town":"揖保町山下","koaza":"","lat":34.842087,"lng":134.544268,"zip":"6794151"},{"town":"揖保川町野田","koaza":"","lat":34.842605,"lng":134.53125,"zip":"6711602"},{"town":"揖西町尾崎","koaza":"","lat":34.845329,"lng":134.505769,"zip":"6794024"},{"town":"誉田町福田","koaza":"","lat":34.847807,"lng":134.571533,"zip":"6794132"},{"town":"誉田町内山","koaza":"","lat":34.854193,"lng":134.572897,"zip":"6794131"},{"town":"龍野町中井","koaza":"","lat":34.862507,"lng":134.576369,"zip":"6794124"},{"town":"龍野町末政","koaza":"","lat":34.862516,"lng":134.562921,"zip":"6794125"},{"town":"誉田町広山","koaza":"","lat":34.847015,"lng":134.56212,"zip":"6794134"},{"town":"誉田町誉","koaza":"","lat":34.851281,"lng":134.565094,"zip":"6794133"},{"town":"龍野町宮脇","koaza":"","lat":34.854348,"lng":134.561674,"zip":"6794127"},{"town":"龍野町四箇","koaza":"","lat":34.850046,"lng":134.549556,"zip":"6794168"},{"town":"龍野町小宅北","koaza":"","lat":34.853628,"lng":134.557198,"zip":"6794128"},{"town":"龍野町中村","koaza":"","lat":34.860903,"lng":134.558184,"zip":"6794126"},{"town":"龍野町堂本","koaza":"","lat":34.855802,"lng":134.553652,"zip":"6794129"},{"town":"龍野町大道","koaza":"","lat":34.848773,"lng":134.543517,"zip":"6794169"},{"town":"龍野町富永","koaza":"","lat":34.858461,"lng":134.546545,"zip":"6794167"},{"town":"龍野町水神町","koaza":"","lat":34.866307,"lng":134.548242,"zip":"6794176"},{"town":"龍野町川原町","koaza":"","lat":34.863134,"lng":134.545016,"zip":"6794166"},{"town":"龍野町下川原","koaza":"","lat":34.865341,"lng":134.546956,"zip":"6794177"},{"town":"龍野町旭町","koaza":"","lat":34.867502,"lng":134.548565,"zip":"6794175"},{"town":"龍野町上川原","koaza":"","lat":34.867785,"lng":134.546959,"zip":"6794172"},{"town":"龍野町立町","koaza":"","lat":34.865876,"lng":134.544376,"zip":"6794164"},{"town":"龍野町大手","koaza":"","lat":34.866533,"lng":134.545399,"zip":"6794178"},{"town":"龍野町本町","koaza":"","lat":34.864414,"lng":134.544097,"zip":"6794165"},{"town":"龍野町福の神","koaza":"","lat":34.865754,"lng":134.543155,"zip":"6794163"},{"town":"龍野町日山","koaza":"","lat":34.862247,"lng":134.539119,"zip":"6794161"},{"town":"龍野町下霞城","koaza":"","lat":34.866403,"lng":134.540274,"zip":"6794162"},{"town":"揖西町芦原台","koaza":"","lat":34.857824,"lng":134.533861,"zip":"6794008"},{"town":"揖保川町半田","koaza":"","lat":34.850743,"lng":134.534156,"zip":"6711601"},{"town":"揖西町佐江","koaza":"","lat":34.849888,"lng":134.522816,"zip":"6794011"},{"town":"揖西町前地","koaza":"","lat":34.847807,"lng":134.518088,"zip":"6794012"},{"town":"揖西町北山","koaza":"","lat":34.847272,"lng":134.514493,"zip":"6794013"},{"town":"揖西町竹万","koaza":"","lat":34.849778,"lng":134.510709,"zip":"6794014"},{"town":"揖西町清水新","koaza":"","lat":34.858261,"lng":134.524754,"zip":"6794004"},{"town":"揖西町清水","koaza":"","lat":34.853588,"lng":134.52495,"zip":"6794005"},{"town":"揖西町田井","koaza":"","lat":34.855915,"lng":134.514628,"zip":"6794006"},{"town":"揖西町構","koaza":"","lat":34.855947,"lng":134.50429,"zip":"6794007"},{"town":"揖西町住吉","koaza":"","lat":34.852033,"lng":134.505075,"zip":"6794023"},{"town":"神岡町入野","koaza":"","lat":34.872115,"lng":134.57437,"zip":"6794115"},{"town":"神岡町沢田","koaza":"","lat":34.876464,"lng":134.567743,"zip":"6794116"},{"town":"龍野町片山","koaza":"","lat":34.86718,"lng":134.562272,"zip":"6794123"},{"town":"龍野町日飼","koaza":"","lat":34.867392,"lng":134.553982,"zip":"6794122"},{"town":"龍野町柳原","koaza":"","lat":34.869268,"lng":134.549608,"zip":"6794174"},{"town":"龍野町島田","koaza":"","lat":34.874672,"lng":134.556193,"zip":"6794121"},{"town":"龍野町門の外","koaza":"","lat":34.869372,"lng":134.548183,"zip":"6794173"},{"town":"龍野町上霞城","koaza":"","lat":34.867782,"lng":134.544773,"zip":"6794179"},{"town":"龍野町中霞城","koaza":"","lat":34.868473,"lng":134.542327,"zip":"6794170"},{"town":"龍野町北龍野","koaza":"","lat":34.875748,"lng":134.542231,"zip":"6794171"},{"town":"揖西町小神","koaza":"","lat":34.860724,"lng":134.530473,"zip":"6794003"},{"town":"神岡町田中","koaza":"","lat":34.883037,"lng":134.58938,"zip":"6794113"},{"town":"神岡町寄井","koaza":"","lat":34.877651,"lng":134.583041,"zip":"6794114"},{"town":"神岡町追分","koaza":"","lat":34.889552,"lng":134.594733,"zip":"6794112"},{"town":"神岡町野部","koaza":"","lat":34.891728,"lng":134.586043,"zip":"6794111"},{"town":"神岡町西鳥井","koaza":"","lat":34.888514,"lng":134.579086,"zip":"6794105"},{"town":"神岡町筒井","koaza":"","lat":34.894859,"lng":134.580717,"zip":"6794104"},{"town":"神岡町横内","koaza":"","lat":34.886989,"lng":134.574071,"zip":"6794106"},{"town":"神岡町西横内","koaza":"","lat":34.887233,"lng":134.568783,"zip":"6794107"},{"town":"神岡町上横内","koaza":"","lat":34.892066,"lng":134.576491,"zip":"6794103"},{"town":"神岡町北横内","koaza":"","lat":34.893199,"lng":134.571408,"zip":"6794102"},{"town":"神岡町奥村","koaza":"","lat":34.893874,"lng":134.566809,"zip":"6794101"},{"town":"神岡町東觜崎","koaza":"","lat":34.887512,"lng":134.554675,"zip":"6794109"},{"town":"神岡町大住寺","koaza":"","lat":34.892164,"lng":134.5608,"zip":"6794108"},{"town":"新宮町北村","koaza":"","lat":34.899745,"lng":134.552767,"zip":"6794323"},{"town":"新宮町觜崎","koaza":"","lat":34.894912,"lng":134.552983,"zip":"6794324"},{"town":"新宮町佐野","koaza":"","lat":34.886406,"lng":134.544095,"zip":"6794325"},{"town":"新宮町船渡","koaza":"","lat":34.894448,"lng":134.546635,"zip":"6794326"},{"town":"新宮町下野田","koaza":"","lat":34.893353,"lng":134.53569,"zip":"6794333"},{"town":"新宮町仙正","koaza":"","lat":34.901382,"lng":134.546781,"zip":"6794322"},{"town":"新宮町中野庄","koaza":"","lat":34.900618,"lng":134.543122,"zip":"6794327"},{"town":"新宮町井野原","koaza":"","lat":34.908897,"lng":134.549698,"zip":"6794315"},{"town":"新宮町段之上","koaza":"","lat":34.909479,"lng":134.543684,"zip":"6794321"},{"town":"新宮町馬立","koaza":"","lat":34.900063,"lng":134.533577,"zip":"6794332"},{"town":"揖西町中垣内","koaza":"","lat":34.879733,"lng":134.522501,"zip":"6794002"},{"town":"新宮町市野保","koaza":"","lat":34.910673,"lng":134.527412,"zip":"6794331"},{"town":"揖西町長尾","koaza":"","lat":34.84993,"lng":134.487467,"zip":"6794027"},{"town":"新宮町下野","koaza":"","lat":34.92752,"lng":134.558323,"zip":"6794312"},{"town":"新宮町下笹","koaza":"","lat":34.940211,"lng":134.566924,"zip":"6794304"},{"town":"新宮町吉島","koaza":"","lat":34.937644,"lng":134.546915,"zip":"6794305"},{"town":"新宮町宮内","koaza":"","lat":34.931893,"lng":134.542343,"zip":"6794311"},{"town":"新宮町平野","koaza":"","lat":34.933005,"lng":134.529639,"zip":"6794342"},{"town":"新宮町能地","koaza":"","lat":34.937111,"lng":134.515374,"zip":"6794341"},{"town":"新宮町上笹","koaza":"","lat":34.945453,"lng":134.55667,"zip":"6794303"},{"town":"新宮町香山","koaza":"","lat":34.957595,"lng":134.542515,"zip":"6794302"},{"town":"新宮町篠首","koaza":"","lat":34.959488,"lng":134.519621,"zip":"6794301"},{"town":"新宮町光都二丁目","koaza":"","lat":34.939744,"lng":134.448145,"zip":"6795165"},{"town":"新宮町光都一丁目","koaza":"","lat":34.948392,"lng":134.434845,"zip":"6795165"},{"town":"新宮町栗町","koaza":"","lat":34.936724,"lng":134.468516,"zip":"6795155"},{"town":"新宮町角亀","koaza":"","lat":34.933073,"lng":134.457932,"zip":"6795163"},{"town":"新宮町時重","koaza":"","lat":34.962965,"lng":134.467015,"zip":"6795153"},{"town":"新宮町鍛冶屋","koaza":"","lat":34.954344,"lng":134.470459,"zip":"6795154"},{"town":"新宮町上莇原","koaza":"","lat":34.95058,"lng":134.455103,"zip":"6795162"},{"town":"新宮町下莇原","koaza":"","lat":34.961584,"lng":134.44787,"zip":"6795161"},{"town":"揖保川町片島","koaza":"千原","lat":34.825714,"lng":134.516575,"zip":"6711651"},{"town":"龍野町富永","koaza":"田井屋畑","lat":34.855482,"lng":134.543015,"zip":"6794167"},{"town":"龍野町富永","koaza":"才ノ木","lat":34.853298,"lng":134.547074,"zip":"6794167"},{"town":"龍野町富永","koaza":"小川原","lat":34.859187,"lng":134.551348,"zip":"6794167"},{"town":"龍野町堂本","koaza":"五反田","lat":34.857881,"lng":134.553071,"zip":"6794129"},{"town":"龍野町堂本","koaza":"天神","lat":34.853985,"lng":134.555435,"zip":"6794129"}]