[{"town":"加佐一丁目","koaza":"","lat":34.805688,"lng":134.979768,"zip":"6730402"},{"town":"平田二丁目","koaza":"","lat":34.806044,"lng":134.976155,"zip":"6730405"},{"town":"平田一丁目","koaza":"","lat":34.805235,"lng":134.977242,"zip":"6730405"},{"town":"さつき台二丁目","koaza":"","lat":34.785129,"lng":135.001218,"zip":"6730436"},{"town":"福井","koaza":"","lat":34.788519,"lng":134.987509,"zip":"6730433"},{"town":"さつき台一丁目","koaza":"","lat":34.787483,"lng":134.998018,"zip":"6730436"},{"town":"岩宮","koaza":"","lat":34.807502,"lng":134.99569,"zip":"6730412"},{"town":"久留美","koaza":"","lat":34.821967,"lng":134.99821,"zip":"6730411"},{"town":"別所町小林","koaza":"","lat":34.777699,"lng":134.998433,"zip":"6730434"},{"town":"大塚二丁目","koaza":"","lat":34.800721,"lng":134.996931,"zip":"6730413"},{"town":"宿原","koaza":"","lat":34.796798,"lng":135.003988,"zip":"6730423"},{"town":"君が峰町","koaza":"","lat":34.796353,"lng":134.998155,"zip":"6730425"},{"town":"大塚一丁目","koaza":"","lat":34.799989,"lng":134.994287,"zip":"6730413"},{"town":"吉川町水上","koaza":"","lat":34.846535,"lng":135.136368,"zip":"6731244"},{"town":"吉川町冨岡","koaza":"","lat":34.921718,"lng":135.123392,"zip":"6731102"},{"town":"細川町垂穂","koaza":"","lat":34.820663,"lng":135.052465,"zip":"6730703"},{"town":"細川町中里","koaza":"","lat":34.825927,"lng":135.067407,"zip":"6730702"},{"town":"細川町瑞穂","koaza":"","lat":34.83934,"lng":135.091709,"zip":"6730701"},{"town":"吉川町米田","koaza":"","lat":34.868757,"lng":135.1287,"zip":"6731121"},{"town":"吉川町奥谷","koaza":"","lat":34.852954,"lng":135.124431,"zip":"6731242"},{"town":"吉川町西奥","koaza":"","lat":34.865711,"lng":135.115419,"zip":"6731122"},{"town":"吉川町大沢","koaza":"","lat":34.886583,"lng":135.115248,"zip":"6731115"},{"town":"吉川町吉安","koaza":"","lat":34.89539,"lng":135.130221,"zip":"6731114"},{"town":"吉川町古川","koaza":"","lat":34.899115,"lng":135.113062,"zip":"6731105"},{"town":"吉川町福井","koaza":"","lat":34.904531,"lng":135.126923,"zip":"6731113"},{"town":"口吉川町蓮花寺","koaza":"","lat":34.840319,"lng":135.046004,"zip":"6730734"},{"town":"細川町高篠","koaza":"","lat":34.846122,"lng":135.026235,"zip":"6730721"},{"town":"細川町桃津","koaza":"","lat":34.836387,"lng":135.032977,"zip":"6730712"},{"town":"細川町金屋","koaza":"","lat":34.837778,"lng":135.023571,"zip":"6730711"},{"town":"細川町豊地","koaza":"","lat":34.827045,"lng":135.026344,"zip":"6730713"},{"town":"細川町脇川","koaza":"","lat":34.840529,"lng":135.008619,"zip":"6730722"},{"town":"吉川町畑枝","koaza":"","lat":34.920574,"lng":135.143247,"zip":"6731112"},{"town":"吉川町上荒川","koaza":"","lat":34.915742,"lng":135.145408,"zip":"6731111"},{"town":"吉川町前田","koaza":"","lat":34.915437,"lng":135.113336,"zip":"6731103"},{"town":"緑が丘町本町一丁目","koaza":"","lat":34.766374,"lng":135.028426,"zip":"6730534"},{"town":"緑が丘町本町二丁目","koaza":"","lat":34.766812,"lng":135.03399,"zip":"6730534"},{"town":"志染町青山一丁目","koaza":"","lat":34.772761,"lng":135.041725,"zip":"6730521"},{"town":"緑が丘町東三丁目","koaza":"","lat":34.76985,"lng":135.038026,"zip":"6730533"},{"town":"志染町青山二丁目","koaza":"","lat":34.776441,"lng":135.038609,"zip":"6730521"},{"town":"志染町青山三丁目","koaza":"","lat":34.779737,"lng":135.038383,"zip":"6730521"},{"town":"緑が丘町東四丁目","koaza":"","lat":34.773056,"lng":135.036762,"zip":"6730533"},{"town":"緑が丘町中三丁目","koaza":"","lat":34.773505,"lng":135.033263,"zip":"6730532"},{"town":"緑が丘町東一丁目","koaza":"","lat":34.768064,"lng":135.03591,"zip":"6730533"},{"town":"緑が丘町東二丁目","koaza":"","lat":34.770135,"lng":135.0335,"zip":"6730533"},{"town":"緑が丘町中二丁目","koaza":"","lat":34.771699,"lng":135.031234,"zip":"6730532"},{"town":"緑が丘町中一丁目","koaza":"","lat":34.768782,"lng":135.028085,"zip":"6730532"},{"town":"緑が丘町西一丁目","koaza":"","lat":34.771983,"lng":135.026285,"zip":"6730531"},{"town":"志染町広野八丁目","koaza":"","lat":34.769616,"lng":135.024954,"zip":"6730541"},{"town":"緑が丘町西二丁目","koaza":"","lat":34.774273,"lng":135.029356,"zip":"6730531"},{"town":"志染町青山六丁目","koaza":"","lat":34.778172,"lng":135.034154,"zip":"6730521"},{"town":"緑が丘町西五丁目","koaza":"","lat":34.775924,"lng":135.025182,"zip":"6730531"},{"town":"緑が丘町西三丁目","koaza":"","lat":34.773804,"lng":135.023884,"zip":"6730531"},{"town":"緑が丘町西四丁目","koaza":"","lat":34.777445,"lng":135.02807,"zip":"6730531"},{"town":"志染町青山七丁目","koaza":"","lat":34.780263,"lng":135.029989,"zip":"6730521"},{"town":"志染町四合谷","koaza":"","lat":34.780773,"lng":135.025186,"zip":"6730506"},{"town":"志染町東自由が丘一丁目","koaza":"","lat":34.776575,"lng":135.021648,"zip":"6730553"},{"town":"志染町東自由が丘二丁目","koaza":"","lat":34.780065,"lng":135.021209,"zip":"6730553"},{"town":"志染町広野五丁目","koaza":"","lat":34.774019,"lng":135.019925,"zip":"6730541"},{"town":"志染町広野六丁目","koaza":"","lat":34.774041,"lng":135.015632,"zip":"6730541"},{"town":"志染町中自由が丘二丁目","koaza":"","lat":34.779852,"lng":135.016424,"zip":"6730552"},{"town":"志染町中自由が丘一丁目","koaza":"","lat":34.782269,"lng":135.013508,"zip":"6730552"},{"town":"志染町広野七丁目","koaza":"","lat":34.767245,"lng":135.017178,"zip":"6730541"},{"town":"志染町広野四丁目","koaza":"","lat":34.772403,"lng":135.006707,"zip":"6730541"},{"town":"志染町広野三丁目","koaza":"","lat":34.775842,"lng":135.007292,"zip":"6730541"},{"town":"志染町広野二丁目","koaza":"","lat":34.778704,"lng":135.006987,"zip":"6730541"},{"town":"志染町広野一丁目","koaza":"","lat":34.781098,"lng":135.007498,"zip":"6730541"},{"town":"志染町三津田","koaza":"","lat":34.777521,"lng":135.066265,"zip":"6730515"},{"town":"志染町青山四丁目","koaza":"","lat":34.784341,"lng":135.038667,"zip":"6730521"},{"town":"志染町御坂","koaza":"","lat":34.789457,"lng":135.05109,"zip":"6730516"},{"town":"志染町青山五丁目","koaza":"","lat":34.784195,"lng":135.033493,"zip":"6730521"},{"town":"志染町高男寺","koaza":"","lat":34.787717,"lng":135.034657,"zip":"6730504"},{"town":"志染町窟屋","koaza":"","lat":34.783131,"lng":135.044804,"zip":"6730503"},{"town":"志染町東自由が丘三丁目","koaza":"","lat":34.783475,"lng":135.020549,"zip":"6730553"},{"town":"志染町細目","koaza":"","lat":34.789315,"lng":135.023815,"zip":"6730505"},{"town":"志染町中自由が丘三丁目","koaza":"","lat":34.785113,"lng":135.016253,"zip":"6730552"},{"town":"志染町西自由が丘二丁目","koaza":"","lat":34.788469,"lng":135.014157,"zip":"6730551"},{"town":"志染町吉田","koaza":"","lat":34.794407,"lng":135.016272,"zip":"6730501"},{"town":"志染町西自由が丘一丁目","koaza":"","lat":34.78365,"lng":135.010149,"zip":"6730551"},{"town":"自由が丘本町三丁目","koaza":"","lat":34.787209,"lng":135.006951,"zip":"6730424"},{"town":"自由が丘本町二丁目","koaza":"","lat":34.790529,"lng":135.006135,"zip":"6730424"},{"town":"自由が丘本町一丁目","koaza":"","lat":34.792298,"lng":135.005141,"zip":"6730424"},{"town":"志染町戸田","koaza":"","lat":34.793399,"lng":135.072323,"zip":"6730514"},{"town":"志染町大谷","koaza":"","lat":34.806449,"lng":135.05941,"zip":"6730513"},{"town":"志染町井上","koaza":"","lat":34.801331,"lng":135.040036,"zip":"6730512"},{"town":"志染町志染中","koaza":"","lat":34.802463,"lng":135.030562,"zip":"6730511"},{"town":"志染町安福田","koaza":"","lat":34.801512,"lng":135.020526,"zip":"6730502"},{"town":"大塚","koaza":"","lat":34.802269,"lng":134.998991,"zip":"6730413"},{"town":"与呂木","koaza":"","lat":34.806184,"lng":135.005102,"zip":"6730422"},{"town":"平井","koaza":"","lat":34.812523,"lng":135.01183,"zip":"6730421"},{"town":"細川町増田","koaza":"","lat":34.822367,"lng":135.035611,"zip":"6730704"},{"town":"細川町細川中","koaza":"","lat":34.816248,"lng":135.02304,"zip":"6730714"},{"town":"細川町西","koaza":"","lat":34.823469,"lng":135.010689,"zip":"6730715"},{"town":"大村一丁目","koaza":"","lat":34.802408,"lng":134.969203,"zip":"6730404"},{"town":"別所町興治","koaza":"","lat":34.770282,"lng":134.968646,"zip":"6730442"},{"town":"上の丸町","koaza":"","lat":34.797726,"lng":134.9894,"zip":"6730432"},{"town":"本町三丁目","koaza":"","lat":34.794375,"lng":134.983132,"zip":"6730431"},{"town":"本町一丁目","koaza":"","lat":34.800275,"lng":134.990222,"zip":"6730431"},{"town":"本町二丁目","koaza":"","lat":34.797672,"lng":134.984042,"zip":"6730431"},{"town":"福井一丁目","koaza":"","lat":34.796744,"lng":134.979952,"zip":"6730433"},{"town":"別所町朝日ケ丘","koaza":"","lat":34.788905,"lng":134.969476,"zip":"6730441"},{"town":"福井三丁目","koaza":"","lat":34.792997,"lng":134.97751,"zip":"6730433"},{"town":"福井二丁目","koaza":"","lat":34.796138,"lng":134.976508,"zip":"6730433"},{"town":"別所町高木","koaza":"","lat":34.795224,"lng":134.970733,"zip":"6730435"},{"town":"別所町高木三丁目","koaza":"","lat":34.796475,"lng":134.964793,"zip":"6730435"},{"town":"別所町高木一丁目","koaza":"","lat":34.799261,"lng":134.968743,"zip":"6730435"},{"town":"別所町西這田","koaza":"","lat":34.790184,"lng":134.954154,"zip":"6730445"},{"town":"別所町東這田","koaza":"","lat":34.786454,"lng":134.960638,"zip":"6730444"},{"town":"別所町高木二丁目","koaza":"","lat":34.798689,"lng":134.963771,"zip":"6730435"},{"town":"別所町東這田一丁目","koaza":"","lat":34.796107,"lng":134.958981,"zip":"6730444"},{"town":"別所町西這田一丁目","koaza":"","lat":34.795519,"lng":134.953184,"zip":"6730445"},{"town":"別所町巴","koaza":"","lat":34.785433,"lng":134.95597,"zip":"6730443"},{"town":"別所町花尻一丁目","koaza":"","lat":34.79586,"lng":134.94856,"zip":"6730446"},{"town":"別所町花尻","koaza":"","lat":34.78608,"lng":134.947788,"zip":"6730446"},{"town":"別所町石野一丁目","koaza":"","lat":34.79593,"lng":134.943907,"zip":"6730452"},{"town":"別所町石野二丁目","koaza":"","lat":34.795861,"lng":134.939146,"zip":"6730452"},{"town":"別所町和田三丁目","koaza":"","lat":34.800014,"lng":134.945829,"zip":"6730455"},{"town":"別所町正法寺二丁目","koaza":"","lat":34.800021,"lng":134.939354,"zip":"6730454"},{"town":"別所町石野","koaza":"","lat":34.788225,"lng":134.938757,"zip":"6730452"},{"town":"別所町石野三丁目","koaza":"","lat":34.796264,"lng":134.935025,"zip":"6730452"},{"town":"別所町下石野一丁目","koaza":"","lat":34.797017,"lng":134.930449,"zip":"6730453"},{"town":"芝町","koaza":"","lat":34.803341,"lng":134.99268,"zip":"6730414"},{"town":"府内町","koaza":"","lat":34.803708,"lng":134.990614,"zip":"6730416"},{"town":"府内","koaza":"","lat":34.809287,"lng":134.991795,"zip":"6730415"},{"town":"末広一丁目","koaza":"","lat":34.801915,"lng":134.984363,"zip":"6730403"},{"town":"末広二丁目","koaza":"","lat":34.801483,"lng":134.979034,"zip":"6730403"},{"town":"末広三丁目","koaza":"","lat":34.801126,"lng":134.973922,"zip":"6730403"},{"town":"別所町近藤","koaza":"","lat":34.800426,"lng":134.956821,"zip":"6730451"},{"town":"別所町和田一丁目","koaza":"","lat":34.802196,"lng":134.948867,"zip":"6730455"},{"town":"別所町和田二丁目","koaza":"","lat":34.801271,"lng":134.945613,"zip":"6730455"},{"town":"鳥町","koaza":"","lat":34.807885,"lng":134.956777,"zip":"6730456"},{"town":"別所町和田","koaza":"","lat":34.805403,"lng":134.946279,"zip":"6730455"},{"town":"別所町正法寺一丁目","koaza":"","lat":34.801438,"lng":134.934448,"zip":"6730454"},{"town":"別所町下石野二丁目","koaza":"","lat":34.801482,"lng":134.929799,"zip":"6730453"},{"town":"別所町正法寺","koaza":"","lat":34.80462,"lng":134.936701,"zip":"6730454"},{"town":"別所町下石野","koaza":"","lat":34.794122,"lng":134.930121,"zip":"6730453"},{"town":"跡部","koaza":"","lat":34.816117,"lng":134.987746,"zip":"6730401"},{"town":"加佐","koaza":"","lat":34.813151,"lng":134.982025,"zip":"6730402"},{"town":"大村","koaza":"","lat":34.814221,"lng":134.969281,"zip":"6730404"},{"town":"平田","koaza":"","lat":34.813282,"lng":134.976756,"zip":"6730405"},{"town":"吉川町豊岡","koaza":"","lat":34.850682,"lng":135.150663,"zip":"6731243"},{"town":"吉川町東田","koaza":"","lat":34.863484,"lng":135.151608,"zip":"6731236"},{"town":"吉川町楠原","koaza":"","lat":34.865002,"lng":135.139543,"zip":"6731241"},{"town":"吉川町市野瀬","koaza":"","lat":34.875999,"lng":135.146466,"zip":"6731235"},{"town":"吉川町福吉","koaza":"","lat":34.893917,"lng":135.155925,"zip":"6731234"},{"town":"吉川町毘沙門","koaza":"","lat":34.881339,"lng":135.145337,"zip":"6731233"},{"town":"吉川町金会","koaza":"","lat":34.890266,"lng":135.140994,"zip":"6731232"},{"town":"吉川町稲田","koaza":"","lat":34.883723,"lng":135.127986,"zip":"6731231"},{"town":"口吉川町馬場","koaza":"","lat":34.848033,"lng":135.046741,"zip":"6730732"},{"town":"吉川町湯谷","koaza":"","lat":34.857197,"lng":135.103503,"zip":"6731123"},{"town":"口吉川町吉祥寺","koaza":"","lat":34.860167,"lng":135.087079,"zip":"6730752"},{"town":"口吉川町善祥寺","koaza":"","lat":34.851811,"lng":135.081564,"zip":"6730754"},{"town":"口吉川町槇","koaza":"","lat":34.857315,"lng":135.083686,"zip":"6730753"},{"town":"口吉川町南畑","koaza":"","lat":34.852456,"lng":135.064232,"zip":"6730756"},{"town":"口吉川町保木","koaza":"","lat":34.850142,"lng":135.056657,"zip":"6730742"},{"town":"口吉川町東","koaza":"","lat":34.846262,"lng":135.054955,"zip":"6730731"},{"town":"口吉川町殿畑","koaza":"","lat":34.86083,"lng":135.060855,"zip":"6730741"},{"town":"口吉川町桾原","koaza":"","lat":34.856898,"lng":135.052396,"zip":"6730743"},{"town":"口吉川町西中","koaza":"","lat":34.848912,"lng":135.039205,"zip":"6730735"},{"town":"口吉川町東中","koaza":"","lat":34.854489,"lng":135.042576,"zip":"6730731"},{"town":"口吉川町桃坂","koaza":"","lat":34.850589,"lng":135.032546,"zip":"6730736"},{"town":"細川町高畑","koaza":"","lat":34.850782,"lng":135.015084,"zip":"6730724"},{"town":"吉川町みなぎ台二丁目","koaza":"","lat":34.868479,"lng":135.108606,"zip":"6731117"},{"town":"吉川町みなぎ台一丁目","koaza":"","lat":34.874771,"lng":135.108536,"zip":"6731117"},{"town":"吉川町鍛治屋","koaza":"","lat":34.880061,"lng":135.10618,"zip":"6731119"},{"town":"吉川町貸潮","koaza":"","lat":34.876098,"lng":135.102753,"zip":"6731118"},{"town":"吉川町法光寺","koaza":"","lat":34.872239,"lng":135.099158,"zip":"6731124"},{"town":"吉川町田谷","koaza":"","lat":34.870972,"lng":135.092217,"zip":"6731125"},{"town":"吉川町山上","koaza":"","lat":34.880297,"lng":135.092967,"zip":"6731128"},{"town":"吉川町渡瀬","koaza":"","lat":34.879216,"lng":135.097542,"zip":"6731129"},{"town":"口吉川町里脇","koaza":"","lat":34.865984,"lng":135.086191,"zip":"6730751"},{"town":"口吉川町大島","koaza":"","lat":34.855341,"lng":135.074506,"zip":"6730755"},{"town":"口吉川町笹原","koaza":"","lat":34.865432,"lng":135.064528,"zip":"6730757"},{"town":"吉川町大畑","koaza":"","lat":34.882007,"lng":135.1109,"zip":"6731116"},{"town":"吉川町有安","koaza":"","lat":34.885317,"lng":135.098209,"zip":"6731107"},{"town":"吉川町古市","koaza":"","lat":34.88684,"lng":135.090957,"zip":"6731108"},{"town":"吉川町実楽","koaza":"","lat":34.890723,"lng":135.101659,"zip":"6731106"},{"town":"吉川町長谷","koaza":"","lat":34.880534,"lng":135.087603,"zip":"6731127"},{"town":"吉川町上松","koaza":"","lat":34.877294,"lng":135.082017,"zip":"6731126"},{"town":"口吉川町久次","koaza":"","lat":34.877963,"lng":135.070105,"zip":"6730758"},{"town":"吉川町上中","koaza":"","lat":34.901905,"lng":135.101576,"zip":"6731104"},{"town":"吉川町新田","koaza":"","lat":34.931587,"lng":135.137718,"zip":"6731101"},{"town":"大村","koaza":"高柳","lat":34.805082,"lng":134.968945,"zip":"6730404"},{"town":"加佐","koaza":"草荷野","lat":34.845573,"lng":135.002837,"zip":"6730402"},{"town":"大村","koaza":"北山","lat":34.812934,"lng":134.967275,"zip":"6730404"}]