[{"town":"桑原","koaza":"","lat":34.893716,"lng":135.270444,"zip":"6691521"},{"town":"大川瀬","koaza":"","lat":34.943534,"lng":135.112435,"zip":"6691349"},{"town":"志手原","koaza":"","lat":34.921884,"lng":135.243815,"zip":"6691506"},{"town":"高次","koaza":"","lat":34.895138,"lng":135.236614,"zip":"6691512"},{"town":"香下","koaza":"","lat":34.913625,"lng":135.261854,"zip":"6691507"},{"town":"山田","koaza":"","lat":34.891331,"lng":135.254675,"zip":"6691511"},{"town":"木器","koaza":"","lat":34.928607,"lng":135.278796,"zip":"6691412"},{"town":"乙原","koaza":"","lat":34.987583,"lng":135.236692,"zip":"6691503"},{"town":"小野","koaza":"","lat":34.950358,"lng":135.237606,"zip":"6691504"},{"town":"市之瀬","koaza":"","lat":34.940659,"lng":135.24803,"zip":"6691414"},{"town":"小柿","koaza":"","lat":34.989064,"lng":135.264915,"zip":"6691401"},{"town":"上内神","koaza":"","lat":34.914706,"lng":135.15466,"zip":"6691338"},{"town":"学園二丁目","koaza":"","lat":34.91576,"lng":135.165333,"zip":"6691337"},{"town":"中内神","koaza":"","lat":34.926669,"lng":135.173231,"zip":"6691334"},{"town":"ゆりのき台六丁目","koaza":"","lat":34.918558,"lng":135.174998,"zip":"6691324"},{"town":"下内神","koaza":"","lat":34.925883,"lng":135.183924,"zip":"6691333"},{"town":"けやき台六丁目","koaza":"","lat":34.9163,"lng":135.190811,"zip":"6691321"},{"town":"下井沢","koaza":"","lat":34.920538,"lng":135.191923,"zip":"6691315"},{"town":"加茂","koaza":"","lat":34.927482,"lng":135.209245,"zip":"6691311"},{"town":"東野上","koaza":"","lat":34.920392,"lng":135.210004,"zip":"6691312"},{"town":"福島","koaza":"","lat":34.916977,"lng":135.219006,"zip":"6691313"},{"town":"大原","koaza":"","lat":34.909515,"lng":135.225982,"zip":"6691515"},{"town":"尼寺","koaza":"","lat":34.930926,"lng":135.233095,"zip":"6691505"},{"town":"つつじが丘南四丁目","koaza":"","lat":34.943741,"lng":135.12407,"zip":"6691347"},{"town":"母子","koaza":"","lat":35.020378,"lng":135.215455,"zip":"6691501"},{"town":"藍本","koaza":"","lat":34.983997,"lng":135.157726,"zip":"6691358"},{"town":"上本庄","koaza":"","lat":34.998467,"lng":135.190947,"zip":"6691351"},{"town":"上青野","koaza":"","lat":34.990478,"lng":135.212011,"zip":"6691301"},{"town":"永沢寺","koaza":"","lat":35.014587,"lng":135.246551,"zip":"6691502"},{"town":"さくら坂","koaza":"","lat":34.894144,"lng":135.187903,"zip":"6691325"},{"town":"西山一丁目","koaza":"","lat":34.883835,"lng":135.219915,"zip":"6691537"},{"town":"下田中","koaza":"","lat":34.880973,"lng":135.239324,"zip":"6691522"},{"town":"寺村町","koaza":"","lat":34.878001,"lng":135.233394,"zip":"6691523"},{"town":"対中町","koaza":"","lat":34.880042,"lng":135.22698,"zip":"6691525"},{"town":"相生町","koaza":"","lat":34.882719,"lng":135.229126,"zip":"6691526"},{"town":"八景町","koaza":"","lat":34.876192,"lng":135.227472,"zip":"6691524"},{"town":"横山町","koaza":"","lat":34.877444,"lng":135.222325,"zip":"6691534"},{"town":"南が丘二丁目","koaza":"","lat":34.877476,"lng":135.21656,"zip":"6691535"},{"town":"南が丘一丁目","koaza":"","lat":34.880512,"lng":135.220725,"zip":"6691535"},{"town":"武庫が丘一丁目","koaza":"","lat":34.880957,"lng":135.213777,"zip":"6691544"},{"town":"西山二丁目","koaza":"","lat":34.883513,"lng":135.216532,"zip":"6691537"},{"town":"武庫が丘二丁目","koaza":"","lat":34.882852,"lng":135.212266,"zip":"6691544"},{"town":"狭間が丘一丁目","koaza":"","lat":34.87915,"lng":135.211304,"zip":"6691545"},{"town":"武庫が丘三丁目","koaza":"","lat":34.883392,"lng":135.210077,"zip":"6691544"},{"town":"狭間が丘二丁目","koaza":"","lat":34.880526,"lng":135.206575,"zip":"6691545"},{"town":"狭間が丘五丁目","koaza":"","lat":34.882648,"lng":135.202518,"zip":"6691545"},{"town":"狭間が丘三丁目","koaza":"","lat":34.877577,"lng":135.201889,"zip":"6691545"},{"town":"狭間が丘四丁目","koaza":"","lat":34.879762,"lng":135.200842,"zip":"6691545"},{"town":"弥生が丘二丁目","koaza":"","lat":34.881578,"lng":135.196509,"zip":"6691546"},{"town":"弥生が丘三丁目","koaza":"","lat":34.882449,"lng":135.192169,"zip":"6691546"},{"town":"弥生が丘五丁目","koaza":"","lat":34.884477,"lng":135.193789,"zip":"6691546"},{"town":"弥生が丘四丁目","koaza":"","lat":34.884583,"lng":135.190249,"zip":"6691546"},{"town":"中町","koaza":"","lat":34.885138,"lng":135.230565,"zip":"6691527"},{"town":"高次一丁目","koaza":"","lat":34.889355,"lng":135.23176,"zip":"6691512"},{"town":"駅前町","koaza":"","lat":34.887039,"lng":135.231602,"zip":"6691528"},{"town":"中央町","koaza":"","lat":34.887768,"lng":135.226292,"zip":"6691529"},{"town":"高次二丁目","koaza":"","lat":34.890243,"lng":135.233412,"zip":"6691512"},{"town":"三輪一丁目","koaza":"","lat":34.890932,"lng":135.228483,"zip":"6691513"},{"town":"三輪三丁目","koaza":"","lat":34.895223,"lng":135.227129,"zip":"6691513"},{"town":"三田町","koaza":"","lat":34.885252,"lng":135.225616,"zip":"6691533"},{"town":"屋敷町","koaza":"","lat":34.885196,"lng":135.222341,"zip":"6691532"},{"town":"天神一丁目","koaza":"","lat":34.89024,"lng":135.220965,"zip":"6691531"},{"town":"天神三丁目","koaza":"","lat":34.887482,"lng":135.215815,"zip":"6691531"},{"town":"天神二丁目","koaza":"","lat":34.889526,"lng":135.219492,"zip":"6691531"},{"town":"三輪二丁目","koaza":"","lat":34.892084,"lng":135.223939,"zip":"6691513"},{"town":"三輪四丁目","koaza":"","lat":34.896668,"lng":135.223764,"zip":"6691513"},{"town":"友が丘一丁目","koaza":"","lat":34.901579,"lng":135.224664,"zip":"6691516"},{"town":"川除","koaza":"","lat":34.896477,"lng":135.217337,"zip":"6691514"},{"town":"武庫が丘四丁目","koaza":"","lat":34.884177,"lng":135.207135,"zip":"6691544"},{"town":"武庫が丘六丁目","koaza":"","lat":34.886812,"lng":135.207419,"zip":"6691544"},{"town":"武庫が丘八丁目","koaza":"","lat":34.889981,"lng":135.208154,"zip":"6691544"},{"town":"下深田","koaza":"","lat":34.890648,"lng":135.210095,"zip":"6691543"},{"town":"武庫が丘五丁目","koaza":"","lat":34.88497,"lng":135.204717,"zip":"6691544"},{"town":"武庫が丘七丁目","koaza":"","lat":34.887543,"lng":135.203032,"zip":"6691544"},{"town":"弥生が丘一丁目","koaza":"","lat":34.884291,"lng":135.200374,"zip":"6691546"},{"town":"弥生が丘六丁目","koaza":"","lat":34.88585,"lng":135.197957,"zip":"6691546"},{"town":"富士が丘六丁目","koaza":"","lat":34.889274,"lng":135.199933,"zip":"6691547"},{"town":"富士が丘五丁目","koaza":"","lat":34.891622,"lng":135.199393,"zip":"6691547"},{"town":"富士が丘一丁目","koaza":"","lat":34.888184,"lng":135.195909,"zip":"6691547"},{"town":"富士が丘二丁目","koaza":"","lat":34.888039,"lng":135.192226,"zip":"6691547"},{"town":"富士が丘四丁目","koaza":"","lat":34.890208,"lng":135.189377,"zip":"6691547"},{"town":"上深田","koaza":"","lat":34.893925,"lng":135.199682,"zip":"6691542"},{"town":"すずかけ台一丁目","koaza":"","lat":34.899766,"lng":135.197019,"zip":"6691322"},{"town":"富士が丘三丁目","koaza":"","lat":34.88833,"lng":135.18762,"zip":"6691547"},{"town":"あかしあ台一丁目","koaza":"","lat":34.89718,"lng":135.187349,"zip":"6691323"},{"town":"あかしあ台五丁目","koaza":"","lat":34.899986,"lng":135.187253,"zip":"6691323"},{"town":"池尻","koaza":"","lat":34.891494,"lng":135.181296,"zip":"6691548"},{"town":"三輪","koaza":"","lat":34.901056,"lng":135.235209,"zip":"6691513"},{"town":"友が丘三丁目","koaza":"","lat":34.904921,"lng":135.227664,"zip":"6691516"},{"town":"成谷","koaza":"","lat":34.909689,"lng":135.238749,"zip":"6691517"},{"town":"友が丘二丁目","koaza":"","lat":34.904899,"lng":135.224654,"zip":"6691516"},{"town":"貴志","koaza":"","lat":34.901484,"lng":135.205506,"zip":"6691541"},{"town":"すずかけ台四丁目","koaza":"","lat":34.904099,"lng":135.197615,"zip":"6691322"},{"town":"すずかけ台二丁目","koaza":"","lat":34.901968,"lng":135.193067,"zip":"6691322"},{"town":"すずかけ台三丁目","koaza":"","lat":34.904311,"lng":135.192397,"zip":"6691322"},{"town":"けやき台二丁目","koaza":"","lat":34.906512,"lng":135.194864,"zip":"6691321"},{"town":"西野上","koaza":"","lat":34.912623,"lng":135.202836,"zip":"6691314"},{"town":"けやき台三丁目","koaza":"","lat":34.911811,"lng":135.196207,"zip":"6691321"},{"town":"けやき台四丁目","koaza":"","lat":34.9096,"lng":135.19167,"zip":"6691321"},{"town":"あかしあ台四丁目","koaza":"","lat":34.904929,"lng":135.185184,"zip":"6691323"},{"town":"あかしあ台三丁目","koaza":"","lat":34.903466,"lng":135.18205,"zip":"6691323"},{"town":"あかしあ台二丁目","koaza":"","lat":34.899052,"lng":135.180559,"zip":"6691323"},{"town":"けやき台五丁目","koaza":"","lat":34.913187,"lng":135.18703,"zip":"6691321"},{"town":"けやき台一丁目","koaza":"","lat":34.908201,"lng":135.186762,"zip":"6691321"},{"town":"ゆりのき台二丁目","koaza":"","lat":34.906633,"lng":135.17537,"zip":"6691324"},{"town":"ゆりのき台一丁目","koaza":"","lat":34.910262,"lng":135.180717,"zip":"6691324"},{"town":"ゆりのき台四丁目","koaza":"","lat":34.914263,"lng":135.18134,"zip":"6691324"},{"town":"ゆりのき台五丁目","koaza":"","lat":34.915998,"lng":135.183704,"zip":"6691324"},{"town":"学園八丁目","koaza":"","lat":34.902174,"lng":135.161109,"zip":"6691337"},{"town":"学園七丁目","koaza":"","lat":34.902814,"lng":135.163906,"zip":"6691337"},{"town":"学園六丁目","koaza":"","lat":34.906644,"lng":135.164932,"zip":"6691337"},{"town":"ゆりのき台三丁目","koaza":"","lat":34.914059,"lng":135.174269,"zip":"6691324"},{"town":"沢谷","koaza":"","lat":34.9045,"lng":135.169482,"zip":"6691335"},{"town":"学園三丁目","koaza":"","lat":34.911237,"lng":135.165264,"zip":"6691337"},{"town":"学園四丁目","koaza":"","lat":34.909472,"lng":135.163254,"zip":"6691337"},{"town":"馬渡","koaza":"","lat":34.897079,"lng":135.161781,"zip":"6691336"},{"town":"学園一丁目","koaza":"","lat":34.914061,"lng":135.160267,"zip":"6691337"},{"town":"学園五丁目","koaza":"","lat":34.906463,"lng":135.160969,"zip":"6691337"},{"town":"下槻瀬","koaza":"","lat":34.936402,"lng":135.272651,"zip":"6691413"},{"town":"鈴鹿","koaza":"","lat":34.955451,"lng":135.276421,"zip":"6691417"},{"town":"下里","koaza":"","lat":34.955035,"lng":135.265217,"zip":"6691416"},{"town":"上槻瀬","koaza":"","lat":34.945158,"lng":135.264951,"zip":"6691415"},{"town":"波豆川","koaza":"","lat":34.950852,"lng":135.293289,"zip":"6691411"},{"town":"酒井","koaza":"","lat":34.964286,"lng":135.266259,"zip":"6691405"},{"town":"十倉","koaza":"","lat":34.96505,"lng":135.280077,"zip":"6691404"},{"town":"田中","koaza":"","lat":34.974169,"lng":135.268547,"zip":"6691406"},{"town":"布木","koaza":"","lat":34.980929,"lng":135.27295,"zip":"6691407"},{"town":"川原","koaza":"","lat":34.984411,"lng":135.300153,"zip":"6691403"},{"town":"末吉","koaza":"","lat":34.985308,"lng":135.288215,"zip":"6691402"},{"town":"上井沢","koaza":"","lat":34.926388,"lng":135.192062,"zip":"6691316"},{"town":"広沢","koaza":"","lat":34.924206,"lng":135.186987,"zip":"6691332"},{"town":"宮脇","koaza":"","lat":34.934792,"lng":135.195992,"zip":"6691317"},{"town":"広野","koaza":"","lat":34.931274,"lng":135.18904,"zip":"6691331"},{"town":"大畑","koaza":"","lat":34.938771,"lng":135.188923,"zip":"6691354"},{"town":"長坂","koaza":"","lat":34.941877,"lng":135.18164,"zip":"6691355"},{"town":"テクノパーク","koaza":"","lat":34.928064,"lng":135.159625,"zip":"6691339"},{"town":"溝口","koaza":"","lat":34.93696,"lng":135.175348,"zip":"6691344"},{"town":"洞","koaza":"","lat":34.939989,"lng":135.171877,"zip":"6691343"},{"town":"下相野","koaza":"","lat":34.939313,"lng":135.159262,"zip":"6691345"},{"town":"つつじが丘南一丁目","koaza":"","lat":34.947943,"lng":135.136866,"zip":"6691347"},{"town":"つつじが丘南二丁目","koaza":"","lat":34.945648,"lng":135.134373,"zip":"6691347"},{"town":"つつじが丘南三丁目","koaza":"","lat":34.943383,"lng":135.131392,"zip":"6691347"},{"town":"つつじが丘北一丁目","koaza":"","lat":34.94804,"lng":135.13284,"zip":"6691348"},{"town":"つつじが丘北二丁目","koaza":"","lat":34.94395,"lng":135.128147,"zip":"6691348"},{"town":"つつじが丘北三丁目","koaza":"","lat":34.945628,"lng":135.126313,"zip":"6691348"},{"town":"つつじが丘北四丁目","koaza":"","lat":34.948219,"lng":135.129,"zip":"6691348"},{"town":"北浦","koaza":"","lat":34.952731,"lng":135.213497,"zip":"6691304"},{"town":"末","koaza":"","lat":34.947439,"lng":135.220394,"zip":"6691303"},{"town":"東山","koaza":"","lat":34.945513,"lng":135.194404,"zip":"6691353"},{"town":"井ノ草","koaza":"","lat":34.949269,"lng":135.183496,"zip":"6691356"},{"town":"上相野","koaza":"","lat":34.948534,"lng":135.147598,"zip":"6691346"},{"town":"四ツ辻","koaza":"","lat":34.949417,"lng":135.163484,"zip":"6691342"},{"town":"西相野","koaza":"","lat":34.959222,"lng":135.144545,"zip":"6691341"},{"town":"下青野","koaza":"","lat":34.962246,"lng":135.213093,"zip":"6691302"},{"town":"東本庄","koaza":"","lat":34.961862,"lng":135.17946,"zip":"6691357"},{"town":"須磨田","koaza":"","lat":34.96849,"lng":135.196996,"zip":"6691352"},{"town":"貴志","koaza":"瀬戸","lat":34.902416,"lng":135.206244,"zip":"6691541"},{"town":"川除","koaza":"前田","lat":34.896396,"lng":135.219509,"zip":"6691514"}]