[{"town":"山南町阿草","koaza":"","lat":35.066144,"lng":135.105147,"zip":"6693111"},{"town":"山南町上滝","koaza":"","lat":35.09319,"lng":135.108528,"zip":"6693101"},{"town":"春日町国領","koaza":"","lat":35.140807,"lng":135.12518,"zip":"6694273"},{"town":"柏原町上小倉","koaza":"","lat":35.12037,"lng":135.106264,"zip":"6693304"},{"town":"山南町篠場","koaza":"","lat":35.092443,"lng":135.083825,"zip":"6693103"},{"town":"山南町青田","koaza":"","lat":35.084934,"lng":135.087459,"zip":"6693112"},{"town":"山南町下滝","koaza":"","lat":35.092181,"lng":135.09558,"zip":"6693102"},{"town":"山南町北太田","koaza":"","lat":35.093677,"lng":135.067181,"zip":"6693105"},{"town":"山南町大河","koaza":"","lat":35.086993,"lng":135.059446,"zip":"6693123"},{"town":"山南町畑内","koaza":"","lat":35.089125,"lng":135.072406,"zip":"6693104"},{"town":"山南町玉巻","koaza":"","lat":35.093115,"lng":135.04977,"zip":"6693122"},{"town":"山南町池谷","koaza":"","lat":35.085154,"lng":135.055035,"zip":"6693125"},{"town":"山南町金屋","koaza":"","lat":35.09274,"lng":135.033461,"zip":"6693128"},{"town":"山南町岩屋","koaza":"","lat":35.094832,"lng":135.020148,"zip":"6693141"},{"town":"春日町野上野","koaza":"","lat":35.166267,"lng":135.133031,"zip":"6694124"},{"town":"春日町棚原","koaza":"","lat":35.151032,"lng":135.115661,"zip":"6694274"},{"town":"氷上町大谷","koaza":"","lat":35.173549,"lng":134.997829,"zip":"6693621"},{"town":"氷上町油利","koaza":"","lat":35.134806,"lng":134.997397,"zip":"6693573"},{"town":"氷上町朝阪","koaza":"","lat":35.120837,"lng":135.005178,"zip":"6693574"},{"town":"氷上町小野","koaza":"","lat":35.115261,"lng":134.993813,"zip":"6693575"},{"town":"山南町草部","koaza":"","lat":35.103411,"lng":135.004955,"zip":"6693151"},{"town":"山南町前川","koaza":"","lat":35.088933,"lng":134.992334,"zip":"6693153"},{"town":"山南町和田","koaza":"","lat":35.092142,"lng":134.98046,"zip":"6693157"},{"town":"山南町小野尻","koaza":"","lat":35.083168,"lng":134.955767,"zip":"6693166"},{"town":"氷上町長野","koaza":"","lat":35.168214,"lng":135.004604,"zip":"6693612"},{"town":"氷上町新郷","koaza":"","lat":35.152571,"lng":135.003266,"zip":"6693571"},{"town":"春日町柚津","koaza":"","lat":35.158475,"lng":135.143207,"zip":"6694271"},{"town":"春日町鹿場","koaza":"","lat":35.15905,"lng":135.155147,"zip":"6694253"},{"town":"春日町下三井庄","koaza":"","lat":35.158355,"lng":135.166887,"zip":"6694252"},{"town":"市島町多利","koaza":"","lat":35.1774,"lng":135.169128,"zip":"6694313"},{"town":"春日町上三井庄","koaza":"","lat":35.15896,"lng":135.188795,"zip":"6694251"},{"town":"氷上町上成松","koaza":"","lat":35.170243,"lng":135.027323,"zip":"6693606"},{"town":"市島町中竹田","koaza":"","lat":35.24866,"lng":135.122573,"zip":"6694302"},{"town":"市島町上竹田","koaza":"","lat":35.225464,"lng":135.116033,"zip":"6694341"},{"town":"市島町矢代","koaza":"","lat":35.225548,"lng":135.131907,"zip":"6694342"},{"town":"市島町北岡本","koaza":"","lat":35.218422,"lng":135.126787,"zip":"6694325"},{"town":"市島町市島","koaza":"","lat":35.210171,"lng":135.128171,"zip":"6694324"},{"town":"市島町東勅使","koaza":"","lat":35.199488,"lng":135.124297,"zip":"6694331"},{"town":"市島町勅使","koaza":"","lat":35.200039,"lng":135.1173,"zip":"6694332"},{"town":"春日町池尾","koaza":"","lat":35.192277,"lng":135.124784,"zip":"6694121"},{"town":"市島町梶原","koaza":"","lat":35.199501,"lng":135.133206,"zip":"6694323"},{"town":"春日町多田","koaza":"","lat":35.180204,"lng":135.112936,"zip":"6694125"},{"town":"春日町多利","koaza":"","lat":35.178957,"lng":135.141518,"zip":"6694123"},{"town":"春日町七日市","koaza":"","lat":35.169279,"lng":135.114309,"zip":"6694131"},{"town":"春日町黒井","koaza":"","lat":35.173418,"lng":135.099099,"zip":"6694141"},{"town":"春日町朝日","koaza":"","lat":35.16533,"lng":135.085239,"zip":"6693411"},{"town":"春日町石才","koaza":"","lat":35.166447,"lng":135.076654,"zip":"6693413"},{"town":"春日町歌道谷","koaza":"","lat":35.164881,"lng":135.072738,"zip":"6693414"},{"town":"春日町野山","koaza":"","lat":35.168039,"lng":135.063702,"zip":"6693416"},{"town":"氷上町市辺","koaza":"","lat":35.167526,"lng":135.050767,"zip":"6693461"},{"town":"氷上町西中","koaza":"","lat":35.169422,"lng":135.036229,"zip":"6693603"},{"town":"氷上町柿柴","koaza":"","lat":35.171941,"lng":135.017633,"zip":"6693611"},{"town":"青垣町中佐治","koaza":"","lat":35.262256,"lng":135.002466,"zip":"6693834"},{"town":"青垣町市原","koaza":"","lat":35.254521,"lng":134.984622,"zip":"6693831"},{"town":"氷上町三原","koaza":"","lat":35.1639,"lng":134.970552,"zip":"6693622"},{"town":"氷上町上新庄","koaza":"","lat":35.193621,"lng":135.004942,"zip":"6693613"},{"town":"氷上町清住","koaza":"","lat":35.201536,"lng":134.98963,"zip":"6693626"},{"town":"氷上町井中","koaza":"","lat":35.206296,"lng":135.022864,"zip":"6693632"},{"town":"青垣町西芦田","koaza":"","lat":35.227735,"lng":134.988513,"zip":"6693803"},{"town":"青垣町小倉","koaza":"","lat":35.241697,"lng":134.98953,"zip":"6693812"},{"town":"青垣町佐治","koaza":"","lat":35.242744,"lng":135.0025,"zip":"6693811"},{"town":"市島町下竹田","koaza":"","lat":35.245532,"lng":135.153141,"zip":"6694301"},{"town":"青垣町沢野","koaza":"","lat":35.249634,"lng":135.011001,"zip":"6693842"},{"town":"青垣町奥塩久","koaza":"","lat":35.258185,"lng":135.027831,"zip":"6693843"},{"town":"青垣町口塩久","koaza":"","lat":35.243698,"lng":135.024747,"zip":"6693841"},{"town":"青垣町東芦田","koaza":"","lat":35.24523,"lng":135.04873,"zip":"6693801"},{"town":"市島町徳尾","koaza":"","lat":35.242997,"lng":135.094515,"zip":"6694345"},{"town":"青垣町山垣","koaza":"","lat":35.276912,"lng":134.993905,"zip":"6693833"},{"town":"青垣町稲土","koaza":"","lat":35.268179,"lng":134.96188,"zip":"6693827"},{"town":"青垣町文室","koaza":"","lat":35.254657,"lng":134.965153,"zip":"6693826"},{"town":"青垣町惣持","koaza":"","lat":35.255996,"lng":134.953381,"zip":"6693825"},{"town":"青垣町小稗","koaza":"","lat":35.257136,"lng":134.93816,"zip":"6693824"},{"town":"青垣町大稗","koaza":"","lat":35.256535,"lng":134.921251,"zip":"6693823"},{"town":"青垣町大名草","koaza":"","lat":35.234484,"lng":134.935955,"zip":"6693822"},{"town":"山南町太田","koaza":"","lat":35.077926,"lng":135.069542,"zip":"6693113"},{"town":"山南町大谷","koaza":"","lat":35.077011,"lng":135.054923,"zip":"6693124"},{"town":"山南町長野","koaza":"","lat":35.081741,"lng":135.046651,"zip":"6693126"},{"town":"山南町岡本","koaza":"","lat":35.083192,"lng":135.04232,"zip":"6693127"},{"town":"山南町井原","koaza":"","lat":35.076634,"lng":135.009152,"zip":"6693143"},{"town":"山南町村森","koaza":"","lat":35.077256,"lng":135.018428,"zip":"6693142"},{"town":"山南町山崎","koaza":"","lat":35.075855,"lng":135.023846,"zip":"6693132"},{"town":"山南町谷川","koaza":"","lat":35.065541,"lng":135.053222,"zip":"6693131"},{"town":"山南町小新屋","koaza":"","lat":35.077762,"lng":134.977466,"zip":"6693155"},{"town":"春日町栢野","koaza":"","lat":35.140036,"lng":135.193558,"zip":"6694262"},{"town":"春日町広瀬","koaza":"","lat":35.13728,"lng":135.17818,"zip":"6694263"},{"town":"春日町松森","koaza":"","lat":35.136243,"lng":135.1697,"zip":"6694264"},{"town":"春日町中山","koaza":"","lat":35.136886,"lng":135.156267,"zip":"6694265"},{"town":"春日町東中","koaza":"","lat":35.134707,"lng":135.141715,"zip":"6694272"},{"town":"春日町野瀬","koaza":"","lat":35.146541,"lng":135.212736,"zip":"6694261"},{"town":"山南町奥野々","koaza":"","lat":35.105252,"lng":135.064002,"zip":"6693121"},{"town":"柏原町下小倉","koaza":"","lat":35.111182,"lng":135.081672,"zip":"6693305"},{"town":"柏原町見長","koaza":"","lat":35.128064,"lng":135.094921,"zip":"6693303"},{"town":"柏原町北中","koaza":"","lat":35.120825,"lng":135.076282,"zip":"6693306"},{"town":"柏原町小南","koaza":"","lat":35.127531,"lng":135.068569,"zip":"6693308"},{"town":"柏原町東鴨野","koaza":"","lat":35.134976,"lng":135.044857,"zip":"6693300"},{"town":"柏原町石戸","koaza":"","lat":35.111231,"lng":135.044495,"zip":"6693307"},{"town":"氷上町福田","koaza":"","lat":35.114813,"lng":135.019108,"zip":"6693583"},{"town":"柏原町東奥","koaza":"","lat":35.139046,"lng":135.093664,"zip":"6693302"},{"town":"柏原町挙田","koaza":"","lat":35.130084,"lng":135.05456,"zip":"6693314"},{"town":"柏原町柏原","koaza":"","lat":35.126571,"lng":135.081406,"zip":"6693309"},{"town":"柏原町大新屋","koaza":"","lat":35.130213,"lng":135.045239,"zip":"6693315"},{"town":"柏原町南多田","koaza":"","lat":35.141181,"lng":135.070213,"zip":"6693301"},{"town":"柏原町北山","koaza":"","lat":35.137961,"lng":135.043435,"zip":"6693313"},{"town":"柏原町田路","koaza":"","lat":35.142861,"lng":135.049111,"zip":"6693312"},{"town":"柏原町母坪","koaza":"","lat":35.149038,"lng":135.045673,"zip":"6693311"},{"town":"柏原町鴨野","koaza":"","lat":35.13251,"lng":135.037919,"zip":"6693316"},{"town":"氷上町佐野","koaza":"","lat":35.128587,"lng":135.020651,"zip":"6693582"},{"town":"氷上町稲畑","koaza":"","lat":35.139747,"lng":135.03205,"zip":"6693581"},{"town":"氷上町谷村","koaza":"","lat":35.142906,"lng":135.014888,"zip":"6693572"},{"town":"春日町野村","koaza":"","lat":35.156757,"lng":135.102755,"zip":"6694132"},{"town":"春日町平松","koaza":"","lat":35.161632,"lng":135.091133,"zip":"6694133"},{"town":"春日町園部","koaza":"","lat":35.165781,"lng":135.080536,"zip":"6693412"},{"town":"氷上町北野","koaza":"","lat":35.159084,"lng":135.066463,"zip":"6693463"},{"town":"春日町坂","koaza":"","lat":35.163283,"lng":135.068407,"zip":"6693415"},{"town":"氷上町石生","koaza":"","lat":35.150472,"lng":135.069344,"zip":"6693464"},{"town":"氷上町大崎","koaza":"","lat":35.15961,"lng":135.059104,"zip":"6693462"},{"town":"氷上町横田","koaza":"","lat":35.157397,"lng":135.052438,"zip":"6693465"},{"town":"氷上町稲継","koaza":"","lat":35.153684,"lng":135.039328,"zip":"6693466"},{"town":"氷上町本郷","koaza":"","lat":35.15788,"lng":135.042866,"zip":"6693467"},{"town":"氷上町黒田","koaza":"","lat":35.163341,"lng":135.028491,"zip":"6693605"},{"town":"氷上町犬岡","koaza":"","lat":35.16495,"lng":135.03915,"zip":"6693604"},{"town":"山南町坂尻","koaza":"","lat":35.122856,"lng":134.980076,"zip":"6693162"},{"town":"山南町北和田","koaza":"","lat":35.096099,"lng":134.989121,"zip":"6693152"},{"town":"山南町応地","koaza":"","lat":35.107995,"lng":134.984164,"zip":"6693158"},{"town":"山南町山本","koaza":"","lat":35.101347,"lng":134.968039,"zip":"6693163"},{"town":"山南町小畑","koaza":"","lat":35.098963,"lng":134.958333,"zip":"6693167"},{"town":"山南町五ケ野","koaza":"","lat":35.127055,"lng":134.966434,"zip":"6693161"},{"town":"山南町西谷","koaza":"","lat":35.119062,"lng":134.945995,"zip":"6693168"},{"town":"春日町小多利","koaza":"","lat":35.188779,"lng":135.13483,"zip":"6694122"},{"town":"市島町南","koaza":"","lat":35.19408,"lng":135.143421,"zip":"6694314"},{"town":"市島町北奥","koaza":"","lat":35.190989,"lng":135.176001,"zip":"6694312"},{"town":"市島町戸平","koaza":"","lat":35.203788,"lng":135.188433,"zip":"6694311"},{"town":"市島町喜多","koaza":"","lat":35.197382,"lng":135.155077,"zip":"6694315"},{"town":"市島町上田","koaza":"","lat":35.207157,"lng":135.138991,"zip":"6694322"},{"town":"市島町上牧","koaza":"","lat":35.205311,"lng":135.165352,"zip":"6694317"},{"town":"市島町岩戸","koaza":"","lat":35.216042,"lng":135.157913,"zip":"6694316"},{"town":"市島町上垣","koaza":"","lat":35.217774,"lng":135.144067,"zip":"6694321"},{"town":"春日町稲塚","koaza":"","lat":35.179891,"lng":135.092754,"zip":"6694135"},{"town":"春日町古河","koaza":"","lat":35.176687,"lng":135.087727,"zip":"6694134"},{"town":"春日町新才","koaza":"","lat":35.176634,"lng":135.078571,"zip":"6693402"},{"town":"春日町長王","koaza":"","lat":35.176851,"lng":135.064977,"zip":"6693403"},{"town":"氷上町氷上","koaza":"","lat":35.17921,"lng":135.044275,"zip":"6693651"},{"town":"氷上町成松","koaza":"","lat":35.174852,"lng":135.031708,"zip":"6693601"},{"town":"市島町戸坂","koaza":"","lat":35.189115,"lng":135.106381,"zip":"6694333"},{"town":"春日町山田","koaza":"","lat":35.187616,"lng":135.083606,"zip":"6693401"},{"town":"市島町白毫寺","koaza":"","lat":35.194093,"lng":135.089305,"zip":"6694334"},{"town":"春日町牛河内","koaza":"","lat":35.186178,"lng":135.071306,"zip":"6693404"},{"town":"氷上町南油良","koaza":"","lat":35.185278,"lng":135.055105,"zip":"6693654"},{"town":"氷上町桟敷","koaza":"","lat":35.190531,"lng":135.045926,"zip":"6693652"},{"town":"氷上町常楽","koaza":"","lat":35.185392,"lng":135.029367,"zip":"6693602"},{"town":"氷上町下新庄","koaza":"","lat":35.187032,"lng":135.017874,"zip":"6693614"},{"town":"市島町酒梨","koaza":"","lat":35.203126,"lng":135.109829,"zip":"6694337"},{"town":"市島町与戸","koaza":"","lat":35.201427,"lng":135.091644,"zip":"6694335"},{"town":"氷上町北油良","koaza":"","lat":35.198138,"lng":135.065453,"zip":"6693653"},{"town":"氷上町絹山","koaza":"","lat":35.202542,"lng":135.05441,"zip":"6693641"},{"town":"氷上町賀茂","koaza":"","lat":35.193895,"lng":135.034289,"zip":"6693631"},{"town":"氷上町御油","koaza":"","lat":35.214503,"lng":135.027896,"zip":"6693633"},{"town":"市島町下鴨阪","koaza":"","lat":35.223068,"lng":135.103976,"zip":"6694343"},{"town":"市島町乙河内","koaza":"","lat":35.214637,"lng":135.093326,"zip":"6694336"},{"town":"氷上町香良","koaza":"","lat":35.21283,"lng":135.064415,"zip":"6693642"},{"town":"氷上町伊佐口","koaza":"","lat":35.213385,"lng":135.044696,"zip":"6693643"},{"town":"氷上町日比宇","koaza":"","lat":35.217524,"lng":135.042045,"zip":"6693644"},{"town":"氷上町小谷","koaza":"","lat":35.225673,"lng":135.038163,"zip":"6693646"},{"town":"氷上町沼","koaza":"","lat":35.22325,"lng":135.028291,"zip":"6693634"},{"town":"青垣町栗住野","koaza":"","lat":35.225267,"lng":135.016451,"zip":"6693802"},{"town":"市島町上鴨阪","koaza":"","lat":35.233053,"lng":135.083346,"zip":"6694344"},{"town":"氷上町鴨内","koaza":"","lat":35.228551,"lng":135.058066,"zip":"6693645"},{"town":"青垣町田井縄","koaza":"","lat":35.235805,"lng":135.024947,"zip":"6693804"},{"town":"氷上町中野","koaza":"","lat":35.182415,"lng":134.98813,"zip":"6693623"},{"town":"青垣町桧倉","koaza":"","lat":35.24163,"lng":134.970097,"zip":"6693821"},{"town":"氷上町三方","koaza":"","lat":35.185579,"lng":134.968098,"zip":"6693624"},{"town":"氷上町中","koaza":"","lat":35.19775,"lng":134.95828,"zip":"6693625"},{"town":"青垣町遠阪","koaza":"","lat":35.291802,"lng":134.958631,"zip":"6693832"},{"town":"山南町南中","koaza":"","lat":35.095301,"lng":135.004771,"zip":"6693146"},{"town":"山南町奥","koaza":"","lat":35.085095,"lng":135.008279,"zip":"6693144"},{"town":"山南町きらら通","koaza":"","lat":35.082457,"lng":134.999279,"zip":"6693148"},{"town":"山南町梶","koaza":"","lat":35.078847,"lng":134.990627,"zip":"6693154"},{"town":"山南町子茂田","koaza":"","lat":35.077799,"lng":134.997148,"zip":"6693147"},{"town":"山南町野坂","koaza":"","lat":35.084251,"lng":135.001319,"zip":"6693145"}]