[{"town":"西野五丁目","koaza":"","lat":34.789644,"lng":135.373459,"zip":"6640028"},{"town":"西野八丁目","koaza":"","lat":34.79077,"lng":135.370752,"zip":"6640028"},{"town":"西野六丁目","koaza":"","lat":34.791992,"lng":135.372645,"zip":"6640028"},{"town":"西野七丁目","koaza":"","lat":34.78447,"lng":135.372955,"zip":"6640028"},{"town":"寺本東二丁目","koaza":"","lat":34.774733,"lng":135.393039,"zip":"6640020"},{"town":"昆陽南五丁目","koaza":"","lat":34.773357,"lng":135.394345,"zip":"6640888"},{"town":"昆陽泉町六丁目","koaza":"","lat":34.775967,"lng":135.397518,"zip":"6640885"},{"town":"鴻池四丁目","koaza":"","lat":34.799437,"lng":135.390383,"zip":"6640006"},{"town":"昆陽南二丁目","koaza":"","lat":34.774695,"lng":135.396417,"zip":"6640888"},{"town":"南野北三丁目","koaza":"","lat":34.769881,"lng":135.40061,"zip":"6640887"},{"town":"堀池五丁目","koaza":"","lat":34.770293,"lng":135.399125,"zip":"6640871"},{"town":"堀池二丁目","koaza":"","lat":34.773051,"lng":135.397153,"zip":"6640871"},{"town":"口酒井二丁目","koaza":"","lat":34.7736,"lng":135.436813,"zip":"6640844"},{"town":"口酒井三丁目","koaza":"","lat":34.774133,"lng":135.441084,"zip":"6640844"},{"town":"藤ノ木二丁目","koaza":"","lat":34.783811,"lng":135.423048,"zip":"6640847"},{"town":"下河原二丁目","koaza":"","lat":34.798703,"lng":135.427401,"zip":"6640832"},{"town":"荒牧南二丁目","koaza":"","lat":34.805805,"lng":135.381345,"zip":"6640008"},{"town":"荒牧南一丁目","koaza":"","lat":34.805027,"lng":135.378827,"zip":"6640008"},{"town":"荒牧五丁目","koaza":"","lat":34.809955,"lng":135.383811,"zip":"6640001"},{"town":"荒牧一丁目","koaza":"","lat":34.808217,"lng":135.380056,"zip":"6640001"},{"town":"下河原","koaza":"","lat":34.79868,"lng":135.424606,"zip":"6640832"},{"town":"下河原一丁目","koaza":"","lat":34.801368,"lng":135.427308,"zip":"6640832"},{"town":"北伊丹六丁目","koaza":"","lat":34.797447,"lng":135.419008,"zip":"6640831"},{"town":"北伊丹九丁目","koaza":"","lat":34.800239,"lng":135.421607,"zip":"6640831"},{"town":"北伊丹七丁目","koaza":"","lat":34.797129,"lng":135.416415,"zip":"6640831"},{"town":"北園三丁目","koaza":"","lat":34.796232,"lng":135.414021,"zip":"6640891"},{"town":"鋳物師一丁目","koaza":"","lat":34.796082,"lng":135.411511,"zip":"6640011"},{"town":"北伊丹八丁目","koaza":"","lat":34.799543,"lng":135.416507,"zip":"6640831"},{"town":"鋳物師五丁目","koaza":"","lat":34.800138,"lng":135.412752,"zip":"6640011"},{"town":"鋳物師三丁目","koaza":"","lat":34.79766,"lng":135.412689,"zip":"6640011"},{"town":"鋳物師四丁目","koaza":"","lat":34.800246,"lng":135.411228,"zip":"6640011"},{"town":"鋳物師二丁目","koaza":"","lat":34.797177,"lng":135.41,"zip":"6640011"},{"town":"緑ケ丘三丁目","koaza":"","lat":34.795977,"lng":135.408414,"zip":"6640012"},{"town":"緑ケ丘四丁目","koaza":"","lat":34.797063,"lng":135.407451,"zip":"6640012"},{"town":"緑ケ丘五丁目","koaza":"","lat":34.797062,"lng":135.404272,"zip":"6640012"},{"town":"緑ケ丘七丁目","koaza":"","lat":34.799718,"lng":135.407658,"zip":"6640012"},{"town":"緑ケ丘六丁目","koaza":"","lat":34.799235,"lng":135.404152,"zip":"6640012"},{"town":"東野一丁目","koaza":"","lat":34.799262,"lng":135.402763,"zip":"6640004"},{"town":"東野二丁目","koaza":"","lat":34.799129,"lng":135.401812,"zip":"6640004"},{"town":"東野三丁目","koaza":"","lat":34.801225,"lng":135.402093,"zip":"6640004"},{"town":"東野六丁目","koaza":"","lat":34.800063,"lng":135.400649,"zip":"6640004"},{"town":"東野七丁目","koaza":"","lat":34.800236,"lng":135.3995,"zip":"6640004"},{"town":"瑞原四丁目","koaza":"","lat":34.797796,"lng":135.39908,"zip":"6640005"},{"town":"東野八丁目","koaza":"","lat":34.799853,"lng":135.397583,"zip":"6640004"},{"town":"瑞原三丁目","koaza":"","lat":34.79843,"lng":135.395176,"zip":"6640005"},{"town":"荻野一丁目","koaza":"","lat":34.80068,"lng":135.394796,"zip":"6640002"},{"town":"荻野西一丁目","koaza":"","lat":34.802169,"lng":135.390994,"zip":"6640031"},{"town":"鴻池五丁目","koaza":"","lat":34.80072,"lng":135.388931,"zip":"6640006"},{"town":"下河原三丁目","koaza":"","lat":34.797907,"lng":135.429859,"zip":"6640832"},{"town":"東野四丁目","koaza":"","lat":34.802717,"lng":135.401321,"zip":"6640004"},{"town":"東野五丁目","koaza":"","lat":34.802124,"lng":135.398809,"zip":"6640004"},{"town":"大野一丁目","koaza":"","lat":34.805777,"lng":135.400223,"zip":"6640003"},{"town":"大野二丁目","koaza":"","lat":34.803551,"lng":135.397818,"zip":"6640003"},{"town":"荻野二丁目","koaza":"","lat":34.803766,"lng":135.395341,"zip":"6640002"},{"town":"荻野三丁目","koaza":"","lat":34.802996,"lng":135.393442,"zip":"6640002"},{"town":"大野三丁目","koaza":"","lat":34.806344,"lng":135.398029,"zip":"6640003"},{"town":"荻野四丁目","koaza":"","lat":34.806194,"lng":135.393509,"zip":"6640002"},{"town":"荻野六丁目","koaza":"","lat":34.808489,"lng":135.391701,"zip":"6640002"},{"town":"荻野西二丁目","koaza":"","lat":34.803304,"lng":135.390238,"zip":"6640031"},{"town":"北野一丁目","koaza":"","lat":34.802103,"lng":135.386989,"zip":"6640007"},{"town":"北野四丁目","koaza":"","lat":34.802816,"lng":135.388342,"zip":"6640007"},{"town":"荻野五丁目","koaza":"","lat":34.805157,"lng":135.391498,"zip":"6640002"},{"town":"荻野七丁目","koaza":"","lat":34.806753,"lng":135.390165,"zip":"6640002"},{"town":"北野六丁目","koaza":"","lat":34.805362,"lng":135.388322,"zip":"6640007"},{"town":"北野五丁目","koaza":"","lat":34.804739,"lng":135.387277,"zip":"6640007"},{"town":"北野三丁目","koaza":"","lat":34.804141,"lng":135.386429,"zip":"6640007"},{"town":"荻野八丁目","koaza":"","lat":34.808541,"lng":135.388926,"zip":"6640002"},{"town":"荒牧南四丁目","koaza":"","lat":34.807493,"lng":135.386598,"zip":"6640008"},{"town":"北野二丁目","koaza":"","lat":34.803852,"lng":135.38528,"zip":"6640007"},{"town":"荒牧南三丁目","koaza":"","lat":34.806814,"lng":135.384294,"zip":"6640008"},{"town":"鴻池七丁目","koaza":"","lat":34.803454,"lng":135.381969,"zip":"6640006"},{"town":"荒牧二丁目","koaza":"","lat":34.808342,"lng":135.377224,"zip":"6640001"},{"town":"荒牧六丁目","koaza":"","lat":34.811527,"lng":135.388455,"zip":"6640001"},{"town":"荒牧七丁目","koaza":"","lat":34.813975,"lng":135.386862,"zip":"6640001"},{"town":"荒牧四丁目","koaza":"","lat":34.812394,"lng":135.382619,"zip":"6640001"},{"town":"荒牧三丁目","koaza":"","lat":34.810675,"lng":135.378334,"zip":"6640001"},{"town":"北河原五丁目","koaza":"","lat":34.790608,"lng":135.422315,"zip":"6640837"},{"town":"北河原二丁目","koaza":"","lat":34.787735,"lng":135.42033,"zip":"6640837"},{"town":"北河原四丁目","koaza":"","lat":34.788007,"lng":135.422534,"zip":"6640837"},{"town":"北河原六丁目","koaza":"","lat":34.793174,"lng":135.421816,"zip":"6640837"},{"town":"北伊丹五丁目","koaza":"","lat":34.796697,"lng":135.421465,"zip":"6640831"},{"town":"小阪田","koaza":"","lat":34.792366,"lng":135.436091,"zip":"5630801"},{"town":"東桑津","koaza":"","lat":34.786957,"lng":135.435164,"zip":"6640835"},{"town":"中村","koaza":"","lat":34.792021,"lng":135.429389,"zip":"6640838"},{"town":"桑津四丁目","koaza":"","lat":34.787809,"lng":135.427703,"zip":"6640839"},{"town":"藤ノ木三丁目","koaza":"","lat":34.78565,"lng":135.422822,"zip":"6640847"},{"town":"北伊丹四丁目","koaza":"","lat":34.795469,"lng":135.419083,"zip":"6640831"},{"town":"北園二丁目","koaza":"","lat":34.794786,"lng":135.414236,"zip":"6640891"},{"town":"緑ケ丘二丁目","koaza":"","lat":34.794598,"lng":135.406242,"zip":"6640012"},{"town":"高台四丁目","koaza":"","lat":34.793897,"lng":135.411603,"zip":"6640892"},{"town":"北伊丹三丁目","koaza":"","lat":34.7949,"lng":135.416793,"zip":"6640831"},{"town":"北園一丁目","koaza":"","lat":34.793255,"lng":135.415184,"zip":"6640891"},{"town":"高台五丁目","koaza":"","lat":34.792985,"lng":135.414021,"zip":"6640892"},{"town":"高台二丁目","koaza":"","lat":34.791963,"lng":135.410187,"zip":"6640892"},{"town":"高台三丁目","koaza":"","lat":34.792227,"lng":135.412781,"zip":"6640892"},{"town":"高台一丁目","koaza":"","lat":34.790935,"lng":135.411228,"zip":"6640892"},{"town":"緑ケ丘一丁目","koaza":"","lat":34.793625,"lng":135.408634,"zip":"6640012"},{"town":"瑞穂町二丁目","koaza":"","lat":34.791167,"lng":135.405501,"zip":"6640013"},{"town":"大鹿四丁目","koaza":"","lat":34.790218,"lng":135.409696,"zip":"6640899"},{"town":"大鹿五丁目","koaza":"","lat":34.78996,"lng":135.408054,"zip":"6640899"},{"town":"大鹿六丁目","koaza":"","lat":34.789241,"lng":135.407425,"zip":"6640899"},{"town":"瑞穂町一丁目","koaza":"","lat":34.790522,"lng":135.406312,"zip":"6640013"},{"town":"春日丘三丁目","koaza":"","lat":34.790459,"lng":135.413228,"zip":"6640893"},{"town":"大鹿三丁目","koaza":"","lat":34.788837,"lng":135.409817,"zip":"6640899"},{"town":"大鹿二丁目","koaza":"","lat":34.788562,"lng":135.411006,"zip":"6640899"},{"town":"大鹿七丁目","koaza":"","lat":34.788316,"lng":135.406947,"zip":"6640899"},{"town":"桜ケ丘八丁目","koaza":"","lat":34.787125,"lng":135.40874,"zip":"6640897"},{"town":"春日丘二丁目","koaza":"","lat":34.788969,"lng":135.41314,"zip":"6640893"},{"town":"大鹿一丁目","koaza":"","lat":34.787552,"lng":135.411333,"zip":"6640899"},{"town":"春日丘一丁目","koaza":"","lat":34.78766,"lng":135.413487,"zip":"6640893"},{"town":"北河原三丁目","koaza":"","lat":34.791033,"lng":135.420359,"zip":"6640837"},{"town":"北伊丹二丁目","koaza":"","lat":34.792501,"lng":135.41893,"zip":"6640831"},{"town":"清水四丁目","koaza":"","lat":34.786418,"lng":135.413033,"zip":"6640894"},{"town":"清水二丁目","koaza":"","lat":34.785379,"lng":135.414147,"zip":"6640894"},{"town":"清水三丁目","koaza":"","lat":34.785505,"lng":135.413128,"zip":"6640894"},{"town":"北伊丹一丁目","koaza":"","lat":34.792588,"lng":135.417117,"zip":"6640831"},{"town":"春日丘六丁目","koaza":"","lat":34.791483,"lng":135.415408,"zip":"6640893"},{"town":"春日丘五丁目","koaza":"","lat":34.790254,"lng":135.415494,"zip":"6640893"},{"town":"春日丘四丁目","koaza":"","lat":34.788041,"lng":135.415105,"zip":"6640893"},{"town":"北本町三丁目","koaza":"","lat":34.788229,"lng":135.418181,"zip":"6640836"},{"town":"桜ケ丘五丁目","koaza":"","lat":34.785873,"lng":135.409955,"zip":"6640897"},{"town":"桜ケ丘六丁目","koaza":"","lat":34.786352,"lng":135.409661,"zip":"6640897"},{"town":"桜ケ丘七丁目","koaza":"","lat":34.786676,"lng":135.408946,"zip":"6640897"},{"town":"鴻池一丁目","koaza":"","lat":34.797134,"lng":135.391217,"zip":"6640006"},{"town":"鴻池二丁目","koaza":"","lat":34.794703,"lng":135.389579,"zip":"6640006"},{"town":"瑞原二丁目","koaza":"","lat":34.795641,"lng":135.395218,"zip":"6640005"},{"town":"瑞ケ丘五丁目","koaza":"","lat":34.795524,"lng":135.400304,"zip":"6640017"},{"town":"鴻池三丁目","koaza":"","lat":34.796607,"lng":135.385666,"zip":"6640006"},{"town":"瑞原一丁目","koaza":"","lat":34.793985,"lng":135.39424,"zip":"6640005"},{"town":"中野東二丁目","koaza":"","lat":34.793254,"lng":135.390948,"zip":"6640022"},{"town":"瑞穂町三丁目","koaza":"","lat":34.792109,"lng":135.404889,"zip":"6640013"},{"town":"瑞穂町四丁目","koaza":"","lat":34.793144,"lng":135.403945,"zip":"6640013"},{"town":"瑞穂町五丁目","koaza":"","lat":34.793257,"lng":135.402399,"zip":"6640013"},{"town":"中野東一丁目","koaza":"","lat":34.791715,"lng":135.391679,"zip":"6640022"},{"town":"瑞穂町六丁目","koaza":"","lat":34.790911,"lng":135.401611,"zip":"6640013"},{"town":"瑞ケ丘一丁目","koaza":"","lat":34.792894,"lng":135.399491,"zip":"6640017"},{"town":"瑞ケ丘三丁目","koaza":"","lat":34.79351,"lng":135.397643,"zip":"6640017"},{"town":"瑞ケ丘四丁目","koaza":"","lat":34.793791,"lng":135.396327,"zip":"6640017"},{"town":"広畑一丁目","koaza":"","lat":34.789067,"lng":135.402998,"zip":"6640014"},{"town":"広畑三丁目","koaza":"","lat":34.788106,"lng":135.401192,"zip":"6640014"},{"town":"広畑四丁目","koaza":"","lat":34.787139,"lng":135.400793,"zip":"6640014"},{"town":"松ケ丘一丁目","koaza":"","lat":34.788111,"lng":135.389957,"zip":"6640024"},{"town":"広畑五丁目","koaza":"","lat":34.786723,"lng":135.400166,"zip":"6640014"},{"town":"瑞ケ丘二丁目","koaza":"","lat":34.789476,"lng":135.398641,"zip":"6640017"},{"town":"広畑二丁目","koaza":"","lat":34.786287,"lng":135.401575,"zip":"6640014"},{"town":"昆陽池三丁目","koaza":"","lat":34.789017,"lng":135.393924,"zip":"6640015"},{"town":"昆陽池二丁目","koaza":"","lat":34.786411,"lng":135.395227,"zip":"6640015"},{"town":"昆陽北二丁目","koaza":"","lat":34.786997,"lng":135.391655,"zip":"6640016"},{"town":"松ケ丘二丁目","koaza":"","lat":34.78663,"lng":135.389496,"zip":"6640024"},{"town":"松ケ丘三丁目","koaza":"","lat":34.785944,"lng":135.389336,"zip":"6640024"},{"town":"松ケ丘四丁目","koaza":"","lat":34.78509,"lng":135.389244,"zip":"6640024"},{"town":"鴻池六丁目","koaza":"","lat":34.799909,"lng":135.384056,"zip":"6640006"},{"town":"中野北一丁目","koaza":"","lat":34.795426,"lng":135.383523,"zip":"6640029"},{"town":"中野東三丁目","koaza":"","lat":34.792212,"lng":135.387407,"zip":"6640022"},{"town":"中野西二丁目","koaza":"","lat":34.791334,"lng":135.385808,"zip":"6640023"},{"town":"中野北二丁目","koaza":"","lat":34.79379,"lng":135.3834,"zip":"6640029"},{"town":"中野西一丁目","koaza":"","lat":34.788525,"lng":135.386603,"zip":"6640023"},{"town":"中野西三丁目","koaza":"","lat":34.788251,"lng":135.383214,"zip":"6640023"},{"town":"奥畑五丁目","koaza":"","lat":34.786532,"lng":135.385376,"zip":"6640025"},{"town":"西野三丁目","koaza":"","lat":34.789845,"lng":135.37569,"zip":"6640028"},{"town":"西野一丁目","koaza":"","lat":34.787001,"lng":135.379355,"zip":"6640028"},{"town":"中野西四丁目","koaza":"","lat":34.790628,"lng":135.382618,"zip":"6640023"},{"town":"中野北三丁目","koaza":"","lat":34.791604,"lng":135.381427,"zip":"6640029"},{"town":"中野北四丁目","koaza":"","lat":34.793005,"lng":135.380584,"zip":"6640029"},{"town":"西野二丁目","koaza":"","lat":34.789638,"lng":135.378641,"zip":"6640028"},{"town":"岩屋一丁目","koaza":"","lat":34.776629,"lng":135.441981,"zip":"6640843"},{"town":"森本八丁目","koaza":"","lat":34.778616,"lng":135.437584,"zip":"6640842"},{"town":"森本九丁目","koaza":"","lat":34.776626,"lng":135.43752,"zip":"6640842"},{"town":"森本七丁目","koaza":"","lat":34.780969,"lng":135.437091,"zip":"6640842"},{"town":"岩屋","koaza":"","lat":34.778904,"lng":135.443288,"zip":"6640843"},{"town":"西桑津","koaza":"","lat":34.783874,"lng":135.43854,"zip":"6640834"},{"town":"桑津一丁目","koaza":"","lat":34.785022,"lng":135.428318,"zip":"6640839"},{"town":"北河原","koaza":"","lat":34.790129,"lng":135.424464,"zip":"6640837"},{"town":"北河原一丁目","koaza":"","lat":34.785112,"lng":135.420492,"zip":"6640837"},{"town":"北本町一丁目","koaza":"","lat":34.784742,"lng":135.418461,"zip":"6640836"},{"town":"桑津二丁目","koaza":"","lat":34.784908,"lng":135.430643,"zip":"6640839"},{"town":"桑津三丁目","koaza":"","lat":34.784524,"lng":135.43237,"zip":"6640839"},{"town":"藤ノ木一丁目","koaza":"","lat":34.78123,"lng":135.423678,"zip":"6640847"},{"town":"森本二丁目","koaza":"","lat":34.781151,"lng":135.4317,"zip":"6640842"},{"town":"森本三丁目","koaza":"","lat":34.781074,"lng":135.434093,"zip":"6640842"},{"town":"東有岡一丁目","koaza":"","lat":34.780044,"lng":135.423256,"zip":"6640845"},{"town":"伊丹五丁目","koaza":"","lat":34.776631,"lng":135.420721,"zip":"6640846"},{"town":"東有岡二丁目","koaza":"","lat":34.777106,"lng":135.423739,"zip":"6640845"},{"town":"森本五丁目","koaza":"","lat":34.778232,"lng":135.434054,"zip":"6640842"},{"town":"森本四丁目","koaza":"","lat":34.778256,"lng":135.431592,"zip":"6640842"},{"town":"口酒井一丁目","koaza":"","lat":34.77355,"lng":135.433645,"zip":"6640844"},{"town":"森本六丁目","koaza":"","lat":34.776326,"lng":135.432778,"zip":"6640842"},{"town":"森本一丁目","koaza":"","lat":34.77966,"lng":135.42953,"zip":"6640842"},{"town":"天津","koaza":"","lat":34.781177,"lng":135.425528,"zip":"6640000"},{"town":"伊丹","koaza":"","lat":34.776571,"lng":135.428886,"zip":"6640846"},{"town":"森本","koaza":"","lat":34.779043,"lng":135.427911,"zip":"6640842"},{"town":"北本町二丁目","koaza":"","lat":34.787564,"lng":135.416305,"zip":"6640836"},{"town":"桜ケ丘四丁目","koaza":"","lat":34.78527,"lng":135.409915,"zip":"6640897"},{"town":"千僧三丁目","koaza":"","lat":34.786652,"lng":135.405933,"zip":"6640898"},{"town":"昆陽東二丁目","koaza":"","lat":34.777501,"lng":135.405221,"zip":"6640886"},{"town":"清水一丁目","koaza":"","lat":34.784554,"lng":135.413021,"zip":"6640894"},{"town":"宮ノ前三丁目","koaza":"","lat":34.784706,"lng":135.415118,"zip":"6640895"},{"town":"桜ケ丘一丁目","koaza":"","lat":34.783494,"lng":135.410396,"zip":"6640897"},{"town":"桜ケ丘二丁目","koaza":"","lat":34.784374,"lng":135.410682,"zip":"6640897"},{"town":"桜ケ丘三丁目","koaza":"","lat":34.784825,"lng":135.410302,"zip":"6640897"},{"town":"宮ノ前二丁目","koaza":"","lat":34.783189,"lng":135.416615,"zip":"6640895"},{"town":"伊丹一丁目","koaza":"","lat":34.781657,"lng":135.419913,"zip":"6640846"},{"town":"宮ノ前一丁目","koaza":"","lat":34.782564,"lng":135.414841,"zip":"6640895"},{"town":"船原一丁目","koaza":"","lat":34.783012,"lng":135.412669,"zip":"6640896"},{"town":"船原二丁目","koaza":"","lat":34.782047,"lng":135.410744,"zip":"6640896"},{"town":"千僧四丁目","koaza":"","lat":34.783727,"lng":135.407352,"zip":"6640898"},{"town":"行基町一丁目","koaza":"","lat":34.781037,"lng":135.40852,"zip":"6640857"},{"town":"千僧五丁目","koaza":"","lat":34.78242,"lng":135.405384,"zip":"6640898"},{"town":"昆陽東一丁目","koaza":"","lat":34.779064,"lng":135.404978,"zip":"6640886"},{"town":"伊丹二丁目","koaza":"","lat":34.780412,"lng":135.419433,"zip":"6640846"},{"town":"中央二丁目","koaza":"","lat":34.780765,"lng":135.415555,"zip":"6640851"},{"town":"中央一丁目","koaza":"","lat":34.780514,"lng":135.414325,"zip":"6640851"},{"town":"西台一丁目","koaza":"","lat":34.780335,"lng":135.41253,"zip":"6640858"},{"town":"行基町二丁目","koaza":"","lat":34.778896,"lng":135.408152,"zip":"6640857"},{"town":"西台二丁目","koaza":"","lat":34.780135,"lng":135.410878,"zip":"6640858"},{"town":"中央三丁目","koaza":"","lat":34.780899,"lng":135.417093,"zip":"6640851"},{"town":"中央六丁目","koaza":"","lat":34.778873,"lng":135.417431,"zip":"6640851"},{"town":"伊丹三丁目","koaza":"","lat":34.778968,"lng":135.419905,"zip":"6640846"},{"town":"伊丹四丁目","koaza":"","lat":34.776128,"lng":135.419263,"zip":"6640846"},{"town":"南本町一丁目","koaza":"","lat":34.776236,"lng":135.418114,"zip":"6640852"},{"town":"中央五丁目","koaza":"","lat":34.778228,"lng":135.41683,"zip":"6640851"},{"town":"中央四丁目","koaza":"","lat":34.778144,"lng":135.415785,"zip":"6640851"},{"town":"西台三丁目","koaza":"","lat":34.77802,"lng":135.4144,"zip":"6640858"},{"town":"西台四丁目","koaza":"","lat":34.778007,"lng":135.41258,"zip":"6640858"},{"town":"西台五丁目","koaza":"","lat":34.77772,"lng":135.41113,"zip":"6640858"},{"town":"行基町三丁目","koaza":"","lat":34.778183,"lng":135.408692,"zip":"6640857"},{"town":"南本町二丁目","koaza":"","lat":34.775202,"lng":135.418442,"zip":"6640852"},{"town":"平松一丁目","koaza":"","lat":34.776221,"lng":135.416609,"zip":"6640853"},{"town":"平松二丁目","koaza":"","lat":34.775159,"lng":135.416466,"zip":"6640853"},{"town":"梅ノ木一丁目","koaza":"","lat":34.775538,"lng":135.415084,"zip":"6640856"},{"town":"梅ノ木三丁目","koaza":"","lat":34.775394,"lng":135.413668,"zip":"6640856"},{"town":"鈴原町三丁目","koaza":"","lat":34.775295,"lng":135.407734,"zip":"6640882"},{"town":"行基町四丁目","koaza":"","lat":34.776994,"lng":135.408702,"zip":"6640857"},{"town":"鈴原町二丁目","koaza":"","lat":34.775324,"lng":135.408632,"zip":"6640882"},{"town":"鈴原町一丁目","koaza":"","lat":34.775264,"lng":135.409929,"zip":"6640882"},{"town":"広畑六丁目","koaza":"","lat":34.785873,"lng":135.398732,"zip":"6640014"},{"town":"千僧二丁目","koaza":"","lat":34.785049,"lng":135.404166,"zip":"6640898"},{"town":"鈴原町七丁目","koaza":"","lat":34.776425,"lng":135.404804,"zip":"6640882"},{"town":"千僧一丁目","koaza":"","lat":34.784487,"lng":135.401294,"zip":"6640898"},{"town":"千僧六丁目","koaza":"","lat":34.781558,"lng":135.403396,"zip":"6640898"},{"town":"昆陽池一丁目","koaza":"","lat":34.784126,"lng":135.397482,"zip":"6640015"},{"town":"昆陽東三丁目","koaza":"","lat":34.778584,"lng":135.403111,"zip":"6640886"},{"town":"昆陽二丁目","koaza":"","lat":34.780975,"lng":135.401528,"zip":"6640881"},{"town":"昆陽一丁目","koaza":"","lat":34.782626,"lng":135.399867,"zip":"6640881"},{"town":"昆陽四丁目","koaza":"","lat":34.78175,"lng":135.398032,"zip":"6640881"},{"town":"奥畑一丁目","koaza":"","lat":34.78379,"lng":135.388803,"zip":"6640025"},{"town":"昆陽東四丁目","koaza":"","lat":34.777966,"lng":135.401409,"zip":"6640886"},{"town":"昆陽三丁目","koaza":"","lat":34.780143,"lng":135.399669,"zip":"6640881"},{"town":"昆陽五丁目","koaza":"","lat":34.780597,"lng":135.396376,"zip":"6640881"},{"town":"昆陽六丁目","koaza":"","lat":34.779164,"lng":135.397004,"zip":"6640881"},{"town":"昆陽南四丁目","koaza":"","lat":34.77601,"lng":135.3937,"zip":"6640888"},{"town":"昆陽七丁目","koaza":"","lat":34.778887,"lng":135.394092,"zip":"6640881"},{"town":"昆陽北一丁目","koaza":"","lat":34.782393,"lng":135.393046,"zip":"6640016"},{"town":"昆陽八丁目","koaza":"","lat":34.777836,"lng":135.392491,"zip":"6640881"},{"town":"寺本四丁目","koaza":"","lat":34.778715,"lng":135.39091,"zip":"6640026"},{"town":"昆陽南一丁目","koaza":"","lat":34.777332,"lng":135.39731,"zip":"6640888"},{"town":"昆陽東五丁目","koaza":"","lat":34.777335,"lng":135.400433,"zip":"6640886"},{"town":"昆陽泉町四丁目","koaza":"","lat":34.776406,"lng":135.399883,"zip":"6640885"},{"town":"昆陽泉町五丁目","koaza":"","lat":34.776066,"lng":135.399195,"zip":"6640885"},{"town":"昆陽東六丁目","koaza":"","lat":34.775534,"lng":135.402245,"zip":"6640886"},{"town":"昆陽泉町三丁目","koaza":"","lat":34.775519,"lng":135.400192,"zip":"6640885"},{"town":"昆陽泉町二丁目","koaza":"","lat":34.774985,"lng":135.400782,"zip":"6640885"},{"town":"寺本東一丁目","koaza":"","lat":34.775809,"lng":135.390808,"zip":"6640020"},{"town":"西野四丁目","koaza":"","lat":34.784843,"lng":135.375191,"zip":"6640028"},{"town":"奥畑三丁目","koaza":"","lat":34.784743,"lng":135.387696,"zip":"6640025"},{"town":"奥畑二丁目","koaza":"","lat":34.782248,"lng":135.386016,"zip":"6640025"},{"town":"奥畑四丁目","koaza":"","lat":34.784235,"lng":135.38568,"zip":"6640025"},{"town":"池尻四丁目","koaza":"","lat":34.785359,"lng":135.381517,"zip":"6640027"},{"town":"池尻三丁目","koaza":"","lat":34.781828,"lng":135.382573,"zip":"6640027"},{"town":"池尻六丁目","koaza":"","lat":34.781894,"lng":135.378566,"zip":"6640027"},{"town":"寺本五丁目","koaza":"","lat":34.780398,"lng":135.388726,"zip":"6640026"},{"town":"寺本一丁目","koaza":"","lat":34.775383,"lng":135.388533,"zip":"6640026"},{"town":"寺本二丁目","koaza":"","lat":34.776881,"lng":135.388128,"zip":"6640026"},{"town":"寺本六丁目","koaza":"","lat":34.780557,"lng":135.386045,"zip":"6640026"},{"town":"池尻二丁目","koaza":"","lat":34.779774,"lng":135.382328,"zip":"6640027"},{"town":"寺本三丁目","koaza":"","lat":34.776768,"lng":135.385466,"zip":"6640026"},{"town":"池尻七丁目","koaza":"","lat":34.781651,"lng":135.375953,"zip":"6640027"},{"town":"岩屋二丁目","koaza":"","lat":34.771794,"lng":135.444339,"zip":"6640843"},{"town":"東有岡三丁目","koaza":"","lat":34.775252,"lng":135.423817,"zip":"6640845"},{"town":"伊丹七丁目","koaza":"","lat":34.774072,"lng":135.421072,"zip":"6640846"},{"town":"南町三丁目","koaza":"","lat":34.768063,"lng":135.420823,"zip":"6640854"},{"town":"東有岡四丁目","koaza":"","lat":34.776208,"lng":135.427251,"zip":"6640845"},{"town":"東有岡五丁目","koaza":"","lat":34.771933,"lng":135.423932,"zip":"6640845"},{"town":"伊丹八丁目","koaza":"","lat":34.770863,"lng":135.420923,"zip":"6640846"},{"town":"南本町七丁目","koaza":"","lat":34.770183,"lng":135.419423,"zip":"6640852"},{"town":"口酒井","koaza":"","lat":34.772504,"lng":135.429775,"zip":"6640844"},{"town":"南野北二丁目","koaza":"","lat":34.769733,"lng":135.402898,"zip":"6640887"},{"town":"梅ノ木五丁目","koaza":"","lat":34.775269,"lng":135.411773,"zip":"6640856"},{"town":"伊丹六丁目","koaza":"","lat":34.772959,"lng":135.420544,"zip":"6640846"},{"town":"梅ノ木七丁目","koaza":"","lat":34.774422,"lng":135.410392,"zip":"6640856"},{"town":"鈴原町四丁目","koaza":"","lat":34.775789,"lng":135.406668,"zip":"6640882"},{"town":"南野三丁目","koaza":"","lat":34.767858,"lng":135.406488,"zip":"6640865"},{"town":"南鈴原四丁目","koaza":"","lat":34.769221,"lng":135.40805,"zip":"6640883"},{"town":"御願塚三丁目","koaza":"","lat":34.768536,"lng":135.41347,"zip":"6640855"},{"town":"南町一丁目","koaza":"","lat":34.768299,"lng":135.41625,"zip":"6640854"},{"town":"南町二丁目","koaza":"","lat":34.76789,"lng":135.418372,"zip":"6640854"},{"town":"南野一丁目","koaza":"","lat":34.767635,"lng":135.408661,"zip":"6640865"},{"town":"南野二丁目","koaza":"","lat":34.766561,"lng":135.406893,"zip":"6640865"},{"town":"御願塚五丁目","koaza":"","lat":34.767118,"lng":135.412271,"zip":"6640855"},{"town":"御願塚八丁目","koaza":"","lat":34.767056,"lng":135.410488,"zip":"6640855"},{"town":"稲野町八丁目","koaza":"","lat":34.764941,"lng":135.410616,"zip":"6640861"},{"town":"南町四丁目","koaza":"","lat":34.766653,"lng":135.417414,"zip":"6640854"},{"town":"御願塚四丁目","koaza":"","lat":34.766814,"lng":135.414509,"zip":"6640855"},{"town":"稲野町七丁目","koaza":"","lat":34.765447,"lng":135.412818,"zip":"6640861"},{"town":"稲野町一丁目","koaza":"","lat":34.765293,"lng":135.416363,"zip":"6640861"},{"town":"南本町六丁目","koaza":"","lat":34.771095,"lng":135.419255,"zip":"6640852"},{"town":"南鈴原三丁目","koaza":"","lat":34.770297,"lng":135.406925,"zip":"6640883"},{"town":"南本町四丁目","koaza":"","lat":34.773158,"lng":135.41889,"zip":"6640852"},{"town":"南本町三丁目","koaza":"","lat":34.774123,"lng":135.418406,"zip":"6640852"},{"town":"平松三丁目","koaza":"","lat":34.773961,"lng":135.416771,"zip":"6640853"},{"town":"梅ノ木六丁目","koaza":"","lat":34.773993,"lng":135.411832,"zip":"6640856"},{"town":"南鈴原二丁目","koaza":"","lat":34.771411,"lng":135.40607,"zip":"6640883"},{"town":"鈴原町五丁目","koaza":"","lat":34.774697,"lng":135.40569,"zip":"6640882"},{"town":"鈴原町六丁目","koaza":"","lat":34.774787,"lng":135.404338,"zip":"6640882"},{"town":"鈴原町九丁目","koaza":"","lat":34.772973,"lng":135.406258,"zip":"6640882"},{"town":"平松四丁目","koaza":"","lat":34.772967,"lng":135.416839,"zip":"6640853"},{"town":"南本町五丁目","koaza":"","lat":34.772145,"lng":135.419075,"zip":"6640852"},{"town":"平松七丁目","koaza":"","lat":34.769871,"lng":135.417637,"zip":"6640853"},{"town":"平松五丁目","koaza":"","lat":34.772154,"lng":135.416905,"zip":"6640853"},{"town":"御願塚二丁目","koaza":"","lat":34.770281,"lng":135.41343,"zip":"6640855"},{"town":"梅ノ木四丁目","koaza":"","lat":34.772829,"lng":135.413277,"zip":"6640856"},{"town":"御願塚一丁目","koaza":"","lat":34.771939,"lng":135.412177,"zip":"6640855"},{"town":"御願塚六丁目","koaza":"","lat":34.772637,"lng":135.409924,"zip":"6640855"},{"town":"南鈴原一丁目","koaza":"","lat":34.771072,"lng":135.408819,"zip":"6640883"},{"town":"御願塚七丁目","koaza":"","lat":34.769722,"lng":135.410371,"zip":"6640855"},{"town":"梅ノ木二丁目","koaza":"","lat":34.772451,"lng":135.41519,"zip":"6640856"},{"town":"平松六丁目","koaza":"","lat":34.770942,"lng":135.416974,"zip":"6640853"},{"town":"南野四丁目","koaza":"","lat":34.767369,"lng":135.404496,"zip":"6640865"},{"town":"南野北四丁目","koaza":"","lat":34.769157,"lng":135.398996,"zip":"6640887"},{"town":"山田一丁目","koaza":"","lat":34.773972,"lng":135.39069,"zip":"6640874"},{"town":"堀池三丁目","koaza":"","lat":34.771796,"lng":135.397725,"zip":"6640871"},{"town":"野間北一丁目","koaza":"","lat":34.771968,"lng":135.394883,"zip":"6640875"},{"town":"山田二丁目","koaza":"","lat":34.77229,"lng":135.391199,"zip":"6640874"},{"town":"野間北六丁目","koaza":"","lat":34.770698,"lng":135.392218,"zip":"6640875"},{"town":"鈴原町八丁目","koaza":"","lat":34.773546,"lng":135.403485,"zip":"6640882"},{"town":"野間五丁目","koaza":"","lat":34.76625,"lng":135.393173,"zip":"6640873"},{"town":"野間二丁目","koaza":"","lat":34.766808,"lng":135.395258,"zip":"6640873"},{"town":"野間北三丁目","koaza":"","lat":34.768923,"lng":135.395755,"zip":"6640875"},{"town":"野間六丁目","koaza":"","lat":34.763678,"lng":135.394986,"zip":"6640873"},{"town":"野間四丁目","koaza":"","lat":34.766192,"lng":135.390958,"zip":"6640873"},{"town":"南野六丁目","koaza":"","lat":34.767116,"lng":135.39943,"zip":"6640865"},{"town":"野間一丁目","koaza":"","lat":34.766939,"lng":135.397306,"zip":"6640873"},{"town":"野間北二丁目","koaza":"","lat":34.770274,"lng":135.395289,"zip":"6640875"},{"town":"南野北一丁目","koaza":"","lat":34.770271,"lng":135.404564,"zip":"6640887"},{"town":"南野北五丁目","koaza":"","lat":34.769356,"lng":135.3977,"zip":"6640887"},{"town":"堀池四丁目","koaza":"","lat":34.770724,"lng":135.398015,"zip":"6640871"},{"town":"野間北四丁目","koaza":"","lat":34.768895,"lng":135.392906,"zip":"6640875"},{"town":"野間北五丁目","koaza":"","lat":34.7692,"lng":135.390944,"zip":"6640875"},{"town":"野間三丁目","koaza":"","lat":34.767478,"lng":135.392578,"zip":"6640873"},{"town":"安堂寺町七丁目","koaza":"","lat":34.765093,"lng":135.404653,"zip":"6640864"},{"town":"南野五丁目","koaza":"","lat":34.767137,"lng":135.401984,"zip":"6640865"},{"town":"野間八丁目","koaza":"","lat":34.764716,"lng":135.397139,"zip":"6640873"},{"town":"車塚一丁目","koaza":"","lat":34.764937,"lng":135.400613,"zip":"6640872"},{"town":"昆陽南三丁目","koaza":"","lat":34.774002,"lng":135.398814,"zip":"6640888"},{"town":"美鈴町五丁目","koaza":"","lat":34.772768,"lng":135.39957,"zip":"6640884"},{"town":"堀池一丁目","koaza":"","lat":34.7716,"lng":135.399807,"zip":"6640871"},{"town":"美鈴町二丁目","koaza":"","lat":34.772237,"lng":135.40265,"zip":"6640884"},{"town":"美鈴町一丁目","koaza":"","lat":34.77296,"lng":135.402815,"zip":"6640884"},{"town":"昆陽泉町一丁目","koaza":"","lat":34.77428,"lng":135.401304,"zip":"6640885"},{"town":"美鈴町四丁目","koaza":"","lat":34.77277,"lng":135.400467,"zip":"6640884"},{"town":"南野北六丁目","koaza":"","lat":34.771316,"lng":135.400952,"zip":"6640887"},{"town":"美鈴町三丁目","koaza":"","lat":34.772667,"lng":135.401217,"zip":"6640884"},{"town":"山田三丁目","koaza":"","lat":34.771695,"lng":135.388522,"zip":"6640874"},{"town":"山田六丁目","koaza":"","lat":34.773551,"lng":135.387217,"zip":"6640874"},{"town":"池尻五丁目","koaza":"","lat":34.776428,"lng":135.380614,"zip":"6640027"},{"town":"山田五丁目","koaza":"","lat":34.771375,"lng":135.38445,"zip":"6640874"},{"town":"山田四丁目","koaza":"","lat":34.770822,"lng":135.38626,"zip":"6640874"},{"town":"池尻一丁目","koaza":"","lat":34.775345,"lng":135.383434,"zip":"6640027"},{"town":"稲野町四丁目","koaza":"","lat":34.763845,"lng":135.414028,"zip":"6640861"},{"town":"稲野町三丁目","koaza":"","lat":34.763556,"lng":135.414998,"zip":"6640861"},{"town":"稲野町五丁目","koaza":"","lat":34.763493,"lng":135.413068,"zip":"6640861"},{"town":"稲野町六丁目","koaza":"","lat":34.763442,"lng":135.411846,"zip":"6640861"},{"town":"安堂寺町六丁目","koaza":"","lat":34.764104,"lng":135.406543,"zip":"6640864"},{"town":"安堂寺町一丁目","koaza":"","lat":34.764434,"lng":135.409196,"zip":"6640864"},{"town":"安堂寺町五丁目","koaza":"","lat":34.762164,"lng":135.406927,"zip":"6640864"},{"town":"稲野町二丁目","koaza":"","lat":34.763585,"lng":135.417284,"zip":"6640861"},{"town":"若菱町一丁目","koaza":"","lat":34.761767,"lng":135.414813,"zip":"6640862"},{"town":"安堂寺町二丁目","koaza":"","lat":34.762736,"lng":135.410166,"zip":"6640864"},{"town":"安堂寺町四丁目","koaza":"","lat":34.762012,"lng":135.407973,"zip":"6640864"},{"town":"安堂寺町三丁目","koaza":"","lat":34.761141,"lng":135.410581,"zip":"6640864"},{"town":"若菱町六丁目","koaza":"","lat":34.76098,"lng":135.415946,"zip":"6640862"},{"town":"若菱町二丁目","koaza":"","lat":34.761029,"lng":135.414829,"zip":"6640862"},{"town":"若菱町三丁目","koaza":"","lat":34.760063,"lng":135.414868,"zip":"6640862"},{"town":"若菱町四丁目","koaza":"","lat":34.760934,"lng":135.413674,"zip":"6640862"},{"town":"若菱町五丁目","koaza":"","lat":34.760902,"lng":135.412559,"zip":"6640862"},{"town":"柏木町三丁目","koaza":"","lat":34.758069,"lng":135.41626,"zip":"6640863"},{"town":"柏木町一丁目","koaza":"","lat":34.759243,"lng":135.414804,"zip":"6640863"},{"town":"柏木町二丁目","koaza":"","lat":34.758057,"lng":135.41514,"zip":"6640863"},{"town":"車塚三丁目","koaza":"","lat":34.763025,"lng":135.401713,"zip":"6640872"},{"town":"野間七丁目","koaza":"","lat":34.762473,"lng":135.397442,"zip":"6640873"},{"town":"車塚二丁目","koaza":"","lat":34.762419,"lng":135.399745,"zip":"6640872"}]