[{"town":"佐用","koaza":"","lat":35.003541,"lng":134.362894,"zip":"6795301"},{"town":"中島","koaza":"","lat":34.981387,"lng":134.375072,"zip":"6795202"},{"town":"多賀","koaza":"","lat":34.959873,"lng":134.38386,"zip":"6795201"},{"town":"西新宿","koaza":"","lat":34.928696,"lng":134.29553,"zip":"6795645"},{"town":"櫛田","koaza":"","lat":34.959831,"lng":134.361634,"zip":"6795651"},{"town":"下徳久","koaza":"","lat":34.998713,"lng":134.390791,"zip":"6795211"},{"town":"西徳久","koaza":"","lat":35.014992,"lng":134.410727,"zip":"6795214"},{"town":"東徳久","koaza":"","lat":35.003066,"lng":134.416598,"zip":"6795213"},{"town":"春哉","koaza":"","lat":35.003221,"lng":134.435658,"zip":"6795135"},{"town":"下本郷","koaza":"","lat":34.992736,"lng":134.459565,"zip":"6795132"},{"town":"上本郷","koaza":"","lat":35.015355,"lng":134.46632,"zip":"6795131"},{"town":"下石井","koaza":"","lat":35.0794,"lng":134.360363,"zip":"6795321"},{"town":"山田","koaza":"","lat":35.00951,"lng":134.340408,"zip":"6795304"},{"town":"延吉","koaza":"","lat":35.067465,"lng":134.37101,"zip":"6795332"},{"town":"平福","koaza":"","lat":35.048579,"lng":134.367869,"zip":"6795331"},{"town":"口長谷","koaza":"","lat":35.039378,"lng":134.376632,"zip":"6795343"},{"town":"横坂","koaza":"","lat":35.0248,"lng":134.372898,"zip":"6795341"},{"town":"円應寺","koaza":"","lat":35.012089,"lng":134.373197,"zip":"6795300"},{"town":"真盛","koaza":"","lat":34.994387,"lng":134.342336,"zip":"6795303"},{"town":"宇根","koaza":"","lat":34.997655,"lng":134.291079,"zip":"6795531"},{"town":"須安","koaza":"","lat":34.994288,"lng":134.304832,"zip":"6795532"},{"town":"金屋","koaza":"","lat":34.997821,"lng":134.323114,"zip":"6795513"},{"town":"皆田","koaza":"","lat":35.017211,"lng":134.273994,"zip":"6795505"},{"town":"河崎","koaza":"","lat":35.080257,"lng":134.42975,"zip":"6795226"},{"town":"船越","koaza":"","lat":35.103494,"lng":134.42928,"zip":"6795227"},{"town":"桑野","koaza":"","lat":35.080967,"lng":134.390943,"zip":"6795334"},{"town":"海内","koaza":"","lat":35.095193,"lng":134.401609,"zip":"6795335"},{"town":"上三河","koaza":"","lat":35.078636,"lng":134.415386,"zip":"6795225"},{"town":"若州","koaza":"","lat":35.132767,"lng":134.368946,"zip":"6795323"},{"town":"奥海","koaza":"","lat":35.126707,"lng":134.396571,"zip":"6795324"},{"town":"上石井","koaza":"","lat":35.105475,"lng":134.363754,"zip":"6795322"},{"town":"東中山","koaza":"","lat":35.082931,"lng":134.344961,"zip":"6795318"},{"town":"末包","koaza":"","lat":35.077743,"lng":134.330965,"zip":"6795317"},{"town":"小山","koaza":"","lat":34.986357,"lng":134.387583,"zip":"6795204"},{"town":"三ツ尾","koaza":"","lat":34.955498,"lng":134.411588,"zip":"6795144"},{"town":"大下り","koaza":"","lat":34.961533,"lng":134.402777,"zip":"6795146"},{"town":"宝蔵寺","koaza":"","lat":34.973903,"lng":134.398554,"zip":"6795207"},{"town":"弦谷","koaza":"","lat":34.969452,"lng":134.427245,"zip":"6795142"},{"town":"廣山","koaza":"","lat":34.979346,"lng":134.43083,"zip":"6795141"},{"town":"土井","koaza":"","lat":34.979038,"lng":134.400248,"zip":"6795206"},{"town":"安川","koaza":"","lat":34.978347,"lng":134.388621,"zip":"6795205"},{"town":"米田","koaza":"","lat":34.989251,"lng":134.377563,"zip":"6795203"},{"town":"乃井野","koaza":"","lat":34.990097,"lng":134.431291,"zip":"6795134"},{"town":"末廣","koaza":"","lat":34.979726,"lng":134.411888,"zip":"6795147"},{"town":"林崎","koaza":"","lat":34.992472,"lng":134.404659,"zip":"6795212"},{"town":"三原","koaza":"","lat":34.950176,"lng":134.420984,"zip":"6795143"},{"town":"光都一丁目","koaza":"","lat":34.946791,"lng":134.426751,"zip":"6795148"},{"town":"大畑","koaza":"","lat":34.946952,"lng":134.396336,"zip":"6795145"},{"town":"三日月","koaza":"","lat":34.977692,"lng":134.448334,"zip":"6795133"},{"town":"大酒","koaza":"","lat":34.935778,"lng":134.342546,"zip":"6795654"},{"town":"小赤松","koaza":"","lat":34.94554,"lng":134.33563,"zip":"6795653"},{"town":"大釜","koaza":"","lat":34.940347,"lng":134.32187,"zip":"6795300"},{"town":"家内","koaza":"","lat":34.952562,"lng":134.347659,"zip":"6795652"},{"town":"久崎","koaza":"","lat":34.957289,"lng":134.337137,"zip":"6795641"},{"town":"下秋里","koaza":"","lat":34.959392,"lng":134.322105,"zip":"6795643"},{"town":"大日山","koaza":"","lat":34.946113,"lng":134.270307,"zip":"6795646"},{"town":"上秋里","koaza":"","lat":34.95357,"lng":134.301127,"zip":"6795644"},{"town":"円光寺","koaza":"","lat":34.967105,"lng":134.333373,"zip":"6795642"},{"town":"仁位","koaza":"","lat":34.978781,"lng":134.332414,"zip":"6795522"},{"town":"寄延","koaza":"","lat":34.972979,"lng":134.31846,"zip":"6795524"},{"town":"目高","koaza":"","lat":34.970933,"lng":134.309536,"zip":"6795525"},{"town":"小日山","koaza":"","lat":34.964535,"lng":134.281992,"zip":"6795535"},{"town":"山脇","koaza":"","lat":34.985546,"lng":134.355521,"zip":"6795302"},{"town":"早瀬","koaza":"","lat":34.987284,"lng":134.33353,"zip":"6795521"},{"town":"上月","koaza":"","lat":34.982485,"lng":134.321473,"zip":"6795523"},{"town":"力万","koaza":"","lat":34.987274,"lng":134.313107,"zip":"6795533"},{"town":"西大畠","koaza":"","lat":34.976011,"lng":134.300119,"zip":"6795534"},{"town":"志文","koaza":"","lat":35.011405,"lng":134.440072,"zip":"6795136"},{"town":"平松","koaza":"","lat":35.020783,"lng":134.425942,"zip":"6795215"},{"town":"口金近","koaza":"","lat":35.017222,"lng":134.389555,"zip":"6795346"},{"town":"真宗","koaza":"","lat":35.025974,"lng":134.44125,"zip":"6795137"},{"town":"漆野","koaza":"","lat":35.040904,"lng":134.420803,"zip":"6795221"},{"town":"奥金近","koaza":"","lat":35.032284,"lng":134.399402,"zip":"6795345"},{"town":"下三河","koaza":"","lat":35.058734,"lng":134.428911,"zip":"6795223"},{"town":"奥長谷","koaza":"","lat":35.051759,"lng":134.4037,"zip":"6795344"},{"town":"庵","koaza":"","lat":35.062316,"lng":134.386197,"zip":"6795333"},{"town":"西下野","koaza":"","lat":35.046176,"lng":134.433562,"zip":"6795222"},{"town":"中三河","koaza":"","lat":35.064652,"lng":134.42424,"zip":"6795224"},{"town":"本位田","koaza":"","lat":35.02174,"lng":134.362714,"zip":"6795306"},{"town":"宗行","koaza":"","lat":35.036397,"lng":134.36388,"zip":"6795342"},{"town":"福澤","koaza":"","lat":35.029503,"lng":134.349884,"zip":"6795300"},{"town":"西河内","koaza":"","lat":35.032676,"lng":134.339211,"zip":"6795313"},{"town":"仁方","koaza":"","lat":35.04369,"lng":134.352654,"zip":"6795312"},{"town":"大木谷","koaza":"","lat":35.039315,"lng":134.32926,"zip":"6795314"},{"town":"淀","koaza":"","lat":35.052016,"lng":134.325016,"zip":"6795315"},{"town":"大畠","koaza":"","lat":35.066221,"lng":134.342991,"zip":"6795319"},{"town":"豊福","koaza":"","lat":35.057749,"lng":134.328581,"zip":"6795316"},{"town":"長尾","koaza":"","lat":35.016886,"lng":134.352066,"zip":"6795305"},{"town":"南中山","koaza":"","lat":35.00972,"lng":134.328238,"zip":"6795512"},{"town":"福吉","koaza":"","lat":35.011555,"lng":134.314977,"zip":"6795514"},{"town":"本郷","koaza":"","lat":35.011435,"lng":134.304348,"zip":"6795503"},{"town":"福中","koaza":"","lat":35.020026,"lng":134.32836,"zip":"6795511"},{"town":"大垣内","koaza":"","lat":35.013688,"lng":134.290494,"zip":"6795504"},{"town":"桜山","koaza":"","lat":35.038704,"lng":134.314527,"zip":"6795501"},{"town":"才金","koaza":"","lat":35.029251,"lng":134.30202,"zip":"6795502"},{"town":"水根","koaza":"","lat":35.101619,"lng":134.380415,"zip":"6795325"}]