[{"town":"国岡四丁目","koaza":"","lat":34.752444,"lng":134.910826,"zip":"6751115"},{"town":"国岡","koaza":"","lat":34.752655,"lng":134.920001,"zip":"6751115"},{"town":"国岡六丁目","koaza":"","lat":34.752419,"lng":134.914344,"zip":"6751115"},{"town":"野谷","koaza":"","lat":34.756908,"lng":134.955619,"zip":"6751103"},{"town":"野寺","koaza":"","lat":34.759708,"lng":134.940873,"zip":"6751104"},{"town":"北山","koaza":"","lat":34.759191,"lng":134.894877,"zip":"6751121"},{"town":"中一色","koaza":"","lat":34.756597,"lng":134.885697,"zip":"6751127"},{"town":"中村","koaza":"","lat":34.750822,"lng":134.897611,"zip":"6751122"},{"town":"蛸草","koaza":"","lat":34.748726,"lng":134.932547,"zip":"6751116"},{"town":"国岡一丁目","koaza":"","lat":34.747859,"lng":134.913499,"zip":"6751115"},{"town":"国岡五丁目","koaza":"","lat":34.75022,"lng":134.914153,"zip":"6751115"},{"town":"印南","koaza":"","lat":34.739923,"lng":134.947356,"zip":"6751111"},{"town":"岡","koaza":"","lat":34.737829,"lng":134.922101,"zip":"6751113"},{"town":"国北二丁目","koaza":"","lat":34.74532,"lng":134.90584,"zip":"6751123"},{"town":"国北一丁目","koaza":"","lat":34.746374,"lng":134.903299,"zip":"6751123"},{"town":"国岡二丁目","koaza":"","lat":34.747972,"lng":134.909327,"zip":"6751115"},{"town":"国岡三丁目","koaza":"","lat":34.747385,"lng":134.905763,"zip":"6751115"},{"town":"国安","koaza":"","lat":34.741467,"lng":134.91059,"zip":"6751114"},{"town":"六分一","koaza":"","lat":34.730144,"lng":134.903053,"zip":"6751112"},{"town":"森安","koaza":"","lat":34.740372,"lng":134.897026,"zip":"6751124"},{"town":"幸竹","koaza":"","lat":34.742719,"lng":134.890468,"zip":"6751126"},{"town":"和田","koaza":"","lat":34.738278,"lng":134.889609,"zip":"6751125"},{"town":"草谷","koaza":"","lat":34.769384,"lng":134.95096,"zip":"6751102"},{"town":"下草谷","koaza":"","lat":34.773064,"lng":134.937783,"zip":"6751101"},{"town":"加古","koaza":"","lat":34.767174,"lng":134.9135,"zip":"6751105"},{"town":"国安二丁目","koaza":"","lat":34.744062,"lng":134.91166,"zip":"6751114"},{"town":"国安四丁目","koaza":"","lat":34.742954,"lng":134.908001,"zip":"6751114"},{"town":"国安三丁目","koaza":"","lat":34.741755,"lng":134.907686,"zip":"6751114"},{"town":"国安一丁目","koaza":"","lat":34.744464,"lng":134.914333,"zip":"6751114"},{"town":"国安","koaza":"運上林","lat":34.750326,"lng":134.920481,"zip":"6751114"}]