[{"town":"大中三丁目","koaza":"","lat":34.723371,"lng":134.870664,"zip":"6750142"},{"town":"大中二丁目","koaza":"","lat":34.722348,"lng":134.872317,"zip":"6750142"},{"town":"大中一丁目","koaza":"","lat":34.72642,"lng":134.876882,"zip":"6750142"},{"town":"古宮","koaza":"","lat":34.70826,"lng":134.867842,"zip":"6750163"},{"town":"北古田一丁目","koaza":"","lat":34.725904,"lng":134.869281,"zip":"6750148"},{"town":"南野添三丁目","koaza":"","lat":34.716326,"lng":134.869991,"zip":"6750150"},{"town":"南野添一丁目","koaza":"","lat":34.716781,"lng":134.873593,"zip":"6750150"},{"town":"南野添二丁目","koaza":"","lat":34.719004,"lng":134.872479,"zip":"6750150"},{"town":"二子","koaza":"","lat":34.712062,"lng":134.876603,"zip":"6750162"},{"town":"南大中一丁目","koaza":"","lat":34.719859,"lng":134.869227,"zip":"6750147"},{"town":"東野添一丁目","koaza":"","lat":34.714056,"lng":134.882122,"zip":"6750159"},{"town":"上野添一丁目","koaza":"","lat":34.723308,"lng":134.885179,"zip":"6750157"},{"town":"上野添二丁目","koaza":"","lat":34.724151,"lng":134.882691,"zip":"6750157"},{"town":"東野添三丁目","koaza":"","lat":34.715495,"lng":134.879036,"zip":"6750159"},{"town":"北野添一丁目","koaza":"","lat":34.718164,"lng":134.88388,"zip":"6750158"},{"town":"東野添二丁目","koaza":"","lat":34.715327,"lng":134.881566,"zip":"6750159"},{"town":"北野添二丁目","koaza":"","lat":34.720332,"lng":134.885266,"zip":"6750158"},{"town":"西野添一丁目","koaza":"","lat":34.719239,"lng":134.880636,"zip":"6750160"},{"town":"北野添三丁目","koaza":"","lat":34.721575,"lng":134.881797,"zip":"6750158"},{"town":"西野添二丁目","koaza":"","lat":34.718473,"lng":134.878037,"zip":"6750160"},{"town":"西野添三丁目","koaza":"","lat":34.7197,"lng":134.875848,"zip":"6750160"},{"town":"西野添四丁目","koaza":"","lat":34.722003,"lng":134.878375,"zip":"6750160"},{"town":"西野添五丁目","koaza":"","lat":34.72155,"lng":134.874994,"zip":"6750160"},{"town":"上野添三丁目","koaza":"","lat":34.724367,"lng":134.879523,"zip":"6750157"},{"town":"野添","koaza":"","lat":34.72179,"lng":134.88906,"zip":"6750151"},{"town":"野添城一丁目","koaza":"","lat":34.725935,"lng":134.881656,"zip":"6750141"},{"town":"野添城二丁目","koaza":"","lat":34.727707,"lng":134.881319,"zip":"6750141"},{"town":"野添城三丁目","koaza":"","lat":34.729005,"lng":134.879819,"zip":"6750141"},{"town":"新島","koaza":"","lat":34.702989,"lng":134.851525,"zip":"6750155"},{"town":"東新島","koaza":"","lat":34.693598,"lng":134.861789,"zip":"6750164"},{"town":"東本荘三丁目","koaza":"","lat":34.712625,"lng":134.864421,"zip":"6750156"},{"town":"東本荘一丁目","koaza":"","lat":34.715569,"lng":134.866985,"zip":"6750156"},{"town":"宮北二丁目","koaza":"","lat":34.717842,"lng":134.864074,"zip":"6750143"},{"town":"東本荘二丁目","koaza":"","lat":34.71464,"lng":134.863879,"zip":"6750156"},{"town":"本荘一丁目","koaza":"","lat":34.712743,"lng":134.861501,"zip":"6750154"},{"town":"宮北三丁目","koaza":"","lat":34.716716,"lng":134.862564,"zip":"6750143"},{"town":"本荘二丁目","koaza":"","lat":34.714837,"lng":134.860243,"zip":"6750154"},{"town":"本荘三丁目","koaza":"","lat":34.715724,"lng":134.858693,"zip":"6750154"},{"town":"本荘四丁目","koaza":"","lat":34.716699,"lng":134.856823,"zip":"6750154"},{"town":"本荘","koaza":"","lat":34.713618,"lng":134.855581,"zip":"6750154"},{"town":"宮西三丁目","koaza":"","lat":34.718273,"lng":134.855035,"zip":"6750145"},{"town":"南大中二丁目","koaza":"","lat":34.719147,"lng":134.866911,"zip":"6750147"},{"town":"南大中三丁目","koaza":"","lat":34.722106,"lng":134.868257,"zip":"6750147"},{"town":"宮北一丁目","koaza":"","lat":34.718931,"lng":134.865152,"zip":"6750143"},{"town":"古田一丁目","koaza":"","lat":34.723201,"lng":134.865719,"zip":"6750146"},{"town":"北古田二丁目","koaza":"","lat":34.726906,"lng":134.866023,"zip":"6750148"},{"town":"北本荘一丁目","koaza":"","lat":34.720869,"lng":134.861752,"zip":"6750144"},{"town":"北本荘二丁目","koaza":"","lat":34.718285,"lng":134.860397,"zip":"6750144"},{"town":"北本荘三丁目","koaza":"","lat":34.719618,"lng":134.858619,"zip":"6750144"},{"town":"北本荘四丁目","koaza":"","lat":34.722354,"lng":134.860414,"zip":"6750144"},{"town":"古田二丁目","koaza":"","lat":34.72381,"lng":134.862831,"zip":"6750146"},{"town":"北本荘六丁目","koaza":"","lat":34.722065,"lng":134.857167,"zip":"6750144"},{"town":"北本荘五丁目","koaza":"","lat":34.723853,"lng":134.858347,"zip":"6750144"},{"town":"北本荘七丁目","koaza":"","lat":34.719829,"lng":134.856161,"zip":"6750144"},{"town":"宮西一丁目","koaza":"","lat":34.724071,"lng":134.854902,"zip":"6750145"},{"town":"宮西二丁目","koaza":"","lat":34.72111,"lng":134.853483,"zip":"6750145"},{"town":"古田三丁目","koaza":"","lat":34.726387,"lng":134.863101,"zip":"6750146"},{"town":"宮西","koaza":"","lat":34.718015,"lng":134.8514,"zip":"6750145"},{"town":"大中四丁目","koaza":"","lat":34.726118,"lng":134.872545,"zip":"6750142"},{"town":"古宮一丁目","koaza":"","lat":34.713141,"lng":134.868245,"zip":"6750163"},{"town":"古宮五丁目","koaza":"","lat":34.708939,"lng":134.869017,"zip":"6750163"},{"town":"古宮三丁目","koaza":"","lat":34.708599,"lng":134.873103,"zip":"6750163"},{"town":"古宮四丁目","koaza":"","lat":34.706499,"lng":134.872484,"zip":"6750163"},{"town":"古宮七丁目","koaza":"","lat":34.709039,"lng":134.866165,"zip":"6750163"},{"town":"古宮二丁目","koaza":"","lat":34.710577,"lng":134.871089,"zip":"6750163"},{"town":"古宮六丁目","koaza":"","lat":34.710967,"lng":134.86664,"zip":"6750163"}]