[{"town":"野口町坂元北五丁目","koaza":"","lat":34.760633,"lng":134.854839,"zip":"6750010"},{"town":"野口町坂元北四丁目","koaza":"","lat":34.759398,"lng":134.855569,"zip":"6750010"},{"town":"野口町坂元北三丁目","koaza":"","lat":34.75842,"lng":134.854262,"zip":"6750010"},{"town":"野口町坂元北二丁目","koaza":"","lat":34.759719,"lng":134.853155,"zip":"6750010"},{"town":"野口町坂元北一丁目","koaza":"","lat":34.760713,"lng":134.851985,"zip":"6750010"},{"town":"平岡町新在家","koaza":"","lat":34.747826,"lng":134.877074,"zip":"6750101"},{"town":"平岡町つつじ野","koaza":"","lat":34.742691,"lng":134.873804,"zip":"6750105"},{"town":"平岡町高畑","koaza":"","lat":34.736947,"lng":134.878346,"zip":"6750103"},{"town":"平岡町西谷","koaza":"","lat":34.740964,"lng":134.871764,"zip":"6750102"},{"town":"平岡町山之上","koaza":"","lat":34.731544,"lng":134.872323,"zip":"6750112"},{"town":"志方町野尻","koaza":"","lat":34.843167,"lng":134.862877,"zip":"6750302"},{"town":"神野町石守","koaza":"","lat":34.770812,"lng":134.87867,"zip":"6750005"},{"town":"野口町北野","koaza":"","lat":34.756616,"lng":134.86922,"zip":"6750011"},{"town":"野口町水足","koaza":"","lat":34.766142,"lng":134.864783,"zip":"6750019"},{"town":"新神野二丁目","koaza":"","lat":34.792445,"lng":134.873917,"zip":"6750008"},{"town":"平荘町養老","koaza":"","lat":34.798676,"lng":134.869891,"zip":"6751231"},{"town":"平荘町神木","koaza":"","lat":34.807949,"lng":134.86924,"zip":"6751222"},{"town":"神野町西之山","koaza":"","lat":34.781308,"lng":134.868314,"zip":"6750007"},{"town":"新神野八丁目","koaza":"","lat":34.787093,"lng":134.872403,"zip":"6750008"},{"town":"神野町神野","koaza":"","lat":34.778238,"lng":134.87932,"zip":"6750003"},{"town":"加古川町稲屋","koaza":"","lat":34.7562,"lng":134.813053,"zip":"6750034"},{"town":"尾上町養田","koaza":"","lat":34.744531,"lng":134.815891,"zip":"6750025"},{"town":"加古川町南備後","koaza":"","lat":34.755465,"lng":134.82078,"zip":"6750033"},{"town":"尾上町今福","koaza":"","lat":34.750726,"lng":134.825017,"zip":"6750027"},{"town":"加古川町北在家","koaza":"","lat":34.754575,"lng":134.832175,"zip":"6750031"},{"town":"尾上町安田","koaza":"","lat":34.749092,"lng":134.83468,"zip":"6750021"},{"town":"野口町良野","koaza":"","lat":34.755154,"lng":134.844155,"zip":"6750017"},{"town":"野口町野口","koaza":"","lat":34.75449,"lng":134.854572,"zip":"6750012"},{"town":"新神野六丁目","koaza":"","lat":34.788143,"lng":134.870921,"zip":"6750008"},{"town":"新神野一丁目","koaza":"","lat":34.790576,"lng":134.870153,"zip":"6750008"},{"town":"平荘町山角","koaza":"","lat":34.801947,"lng":134.874216,"zip":"6751221"},{"town":"平荘町上原","koaza":"","lat":34.814489,"lng":134.874034,"zip":"6751224"},{"town":"平荘町中山","koaza":"","lat":34.8289,"lng":134.875926,"zip":"6751225"},{"town":"志方町西牧","koaza":"","lat":34.830984,"lng":134.781679,"zip":"6750331"},{"town":"志方町西中","koaza":"","lat":34.829363,"lng":134.817596,"zip":"6750346"},{"town":"志方町西飯坂","koaza":"","lat":34.829481,"lng":134.822805,"zip":"6750345"},{"town":"志方町東飯坂","koaza":"","lat":34.834906,"lng":134.824003,"zip":"6750344"},{"town":"志方町行常","koaza":"","lat":34.841575,"lng":134.82534,"zip":"6750343"},{"town":"志方町大澤","koaza":"","lat":34.845508,"lng":134.833405,"zip":"6750301"},{"town":"志方町細工所","koaza":"","lat":34.838948,"lng":134.843666,"zip":"6750303"},{"town":"志方町廣尾","koaza":"","lat":34.826528,"lng":134.858306,"zip":"6750000"},{"town":"平岡町土山","koaza":"","lat":34.729367,"lng":134.889374,"zip":"6750104"},{"town":"尾上町養田三丁目","koaza":"","lat":34.749805,"lng":134.816727,"zip":"6750025"},{"town":"尾上町養田二丁目","koaza":"","lat":34.748894,"lng":134.81713,"zip":"6750025"},{"town":"平岡町中野","koaza":"","lat":34.73023,"lng":134.862685,"zip":"6750113"},{"town":"平岡町一色東三丁目","koaza":"","lat":34.735382,"lng":134.857549,"zip":"6750116"},{"town":"平岡町八反田","koaza":"","lat":34.729103,"lng":134.85536,"zip":"6750114"},{"town":"別府町西脇","koaza":"","lat":34.721513,"lng":134.850543,"zip":"6750125"},{"town":"別府町西脇二丁目","koaza":"","lat":34.724901,"lng":134.848671,"zip":"6750125"},{"town":"別府町西脇三丁目","koaza":"","lat":34.723233,"lng":134.848221,"zip":"6750125"},{"town":"別府町東町","koaza":"","lat":34.723433,"lng":134.845172,"zip":"6750135"},{"town":"別府町港町","koaza":"","lat":34.718804,"lng":134.847262,"zip":"6750136"},{"town":"別府町緑町","koaza":"","lat":34.727631,"lng":134.849238,"zip":"6750124"},{"town":"別府町石町","koaza":"","lat":34.728588,"lng":134.847289,"zip":"6750127"},{"town":"別府町本町一丁目","koaza":"","lat":34.726297,"lng":134.846951,"zip":"6750126"},{"town":"別府町本町二丁目","koaza":"","lat":34.726336,"lng":134.844594,"zip":"6750126"},{"town":"別府町元町","koaza":"","lat":34.724932,"lng":134.843323,"zip":"6750134"},{"town":"別府町中島町","koaza":"","lat":34.729608,"lng":134.84603,"zip":"6750128"},{"town":"別府町朝日町","koaza":"","lat":34.730729,"lng":134.848958,"zip":"6750123"},{"town":"別府町宮田町","koaza":"","lat":34.729272,"lng":134.844447,"zip":"6750132"},{"town":"別府町西町","koaza":"","lat":34.726187,"lng":134.841764,"zip":"6750133"},{"town":"別府町新野辺北町二丁目","koaza":"","lat":34.73237,"lng":134.843363,"zip":"6750121"},{"town":"別府町新野辺北町一丁目","koaza":"","lat":34.733512,"lng":134.844678,"zip":"6750121"},{"town":"金沢町","koaza":"","lat":34.71901,"lng":134.825763,"zip":"6750137"},{"town":"平岡町新在家一丁目","koaza":"","lat":34.74296,"lng":134.869604,"zip":"6750101"},{"town":"平岡町新在家三丁目","koaza":"","lat":34.745616,"lng":134.865334,"zip":"6750101"},{"town":"平岡町新在家二丁目","koaza":"","lat":34.744772,"lng":134.868303,"zip":"6750101"},{"town":"平岡町二俣","koaza":"","lat":34.737122,"lng":134.865536,"zip":"6750111"},{"town":"平岡町一色東二丁目","koaza":"","lat":34.736714,"lng":134.856904,"zip":"6750116"},{"town":"平岡町一色東一丁目","koaza":"","lat":34.737805,"lng":134.858013,"zip":"6750116"},{"town":"別府町別府","koaza":"","lat":34.73224,"lng":134.852259,"zip":"6750122"},{"town":"平岡町一色西二丁目","koaza":"","lat":34.73795,"lng":134.853505,"zip":"6750117"},{"town":"平岡町一色西一丁目","koaza":"","lat":34.739848,"lng":134.854489,"zip":"6750117"},{"town":"平岡町一色","koaza":"","lat":34.738454,"lng":134.860478,"zip":"6750115"},{"town":"野口町二屋","koaza":"","lat":34.744026,"lng":134.859542,"zip":"6750013"},{"town":"野口町古大内","koaza":"","lat":34.745218,"lng":134.852972,"zip":"6750014"},{"town":"別府町新野辺北町八丁目","koaza":"","lat":34.735385,"lng":134.846365,"zip":"6750121"},{"town":"野口町坂井","koaza":"","lat":34.739038,"lng":134.848887,"zip":"6750015"},{"town":"別府町新野辺北町三丁目","koaza":"","lat":34.736015,"lng":134.839874,"zip":"6750121"},{"town":"別府町新野辺北町六丁目","koaza":"","lat":34.737361,"lng":134.842913,"zip":"6750121"},{"town":"別府町新野辺北町七丁目","koaza":"","lat":34.739284,"lng":134.844081,"zip":"6750121"},{"town":"別府町新野辺北町五丁目","koaza":"","lat":34.73968,"lng":134.840266,"zip":"6750121"},{"town":"別府町新野辺","koaza":"","lat":34.732657,"lng":134.838271,"zip":"6750131"},{"town":"別府町新野辺北町四丁目","koaza":"","lat":34.738862,"lng":134.839491,"zip":"6750121"},{"town":"野口町長砂","koaza":"","lat":34.745662,"lng":134.844728,"zip":"6750016"},{"town":"尾上町口里","koaza":"","lat":34.738964,"lng":134.831045,"zip":"6750022"},{"town":"尾上町池田","koaza":"","lat":34.736082,"lng":134.821405,"zip":"6750023"},{"town":"尾上町長田","koaza":"","lat":34.745035,"lng":134.826547,"zip":"6750024"},{"town":"尾上町旭一丁目","koaza":"","lat":34.749384,"lng":134.821987,"zip":"6750026"},{"town":"尾上町養田一丁目","koaza":"","lat":34.748468,"lng":134.819201,"zip":"6750025"},{"town":"尾上町旭二丁目","koaza":"","lat":34.750396,"lng":134.8204,"zip":"6750026"},{"town":"尾上町旭三丁目","koaza":"","lat":34.751288,"lng":134.818627,"zip":"6750026"},{"town":"神野町石守一丁目","koaza":"","lat":34.7644,"lng":134.880985,"zip":"6750005"},{"town":"神野町福留一丁目","koaza":"","lat":34.767412,"lng":134.88151,"zip":"6750004"},{"town":"神野町石守二丁目","koaza":"","lat":34.770457,"lng":134.874877,"zip":"6750005"},{"town":"神野町石守三丁目","koaza":"","lat":34.771604,"lng":134.873988,"zip":"6750005"},{"town":"山手三丁目","koaza":"","lat":34.780605,"lng":134.892934,"zip":"6750002"},{"town":"山手二丁目","koaza":"","lat":34.782487,"lng":134.887529,"zip":"6750002"},{"town":"神野町福留","koaza":"","lat":34.767471,"lng":134.887591,"zip":"6750004"},{"town":"山手一丁目","koaza":"","lat":34.779349,"lng":134.886422,"zip":"6750002"},{"town":"八幡町野村","koaza":"","lat":34.77825,"lng":134.925006,"zip":"6751202"},{"town":"八幡町下村","koaza":"","lat":34.783945,"lng":134.911513,"zip":"6751203"},{"town":"八幡町船町","koaza":"","lat":34.793378,"lng":134.906633,"zip":"6751206"},{"town":"八幡町上西条","koaza":"","lat":34.783747,"lng":134.90109,"zip":"6751204"},{"town":"八幡町中西条","koaza":"","lat":34.78776,"lng":134.892267,"zip":"6751205"},{"town":"西条山手二丁目","koaza":"","lat":34.785455,"lng":134.885941,"zip":"6750001"},{"town":"西条山手一丁目","koaza":"","lat":34.789167,"lng":134.885298,"zip":"6750001"},{"town":"神野町西条","koaza":"","lat":34.786002,"lng":134.879288,"zip":"6750009"},{"town":"新神野七丁目","koaza":"","lat":34.787633,"lng":134.875777,"zip":"6750008"},{"town":"新神野五丁目","koaza":"","lat":34.789362,"lng":134.87489,"zip":"6750008"},{"town":"新神野四丁目","koaza":"","lat":34.793134,"lng":134.88354,"zip":"6750008"},{"town":"新神野三丁目","koaza":"","lat":34.792803,"lng":134.87818,"zip":"6750008"},{"town":"八幡町宗佐","koaza":"","lat":34.795631,"lng":134.921607,"zip":"6751201"},{"town":"上荘町国包","koaza":"","lat":34.799255,"lng":134.910984,"zip":"6751213"},{"town":"上荘町井ノ口","koaza":"","lat":34.807329,"lng":134.911137,"zip":"6751212"},{"town":"上荘町都染","koaza":"","lat":34.80112,"lng":134.89485,"zip":"6751216"},{"town":"上荘町見土呂","koaza":"","lat":34.8086,"lng":134.897024,"zip":"6751214"},{"town":"上荘町都台二丁目","koaza":"","lat":34.809879,"lng":134.893568,"zip":"6751215"},{"town":"上荘町都台三丁目","koaza":"","lat":34.814119,"lng":134.894011,"zip":"6751215"},{"town":"上荘町都台一丁目","koaza":"","lat":34.811086,"lng":134.890806,"zip":"6751215"},{"town":"上荘町小野","koaza":"","lat":34.806236,"lng":134.884437,"zip":"6751218"},{"town":"上荘町白沢","koaza":"","lat":34.819447,"lng":134.91264,"zip":"6751211"},{"town":"上荘町薬栗","koaza":"","lat":34.807744,"lng":134.889304,"zip":"6751217"},{"town":"平荘町磐","koaza":"","lat":34.824002,"lng":134.890174,"zip":"6751226"},{"town":"野口町坂元","koaza":"","lat":34.757442,"lng":134.850269,"zip":"6750018"},{"town":"加古川町平野","koaza":"","lat":34.761398,"lng":134.844117,"zip":"6750063"},{"town":"加古川町粟津","koaza":"","lat":34.760826,"lng":134.834572,"zip":"6750039"},{"town":"加古川町備後","koaza":"","lat":34.759676,"lng":134.823548,"zip":"6750032"},{"town":"加古川町木村","koaza":"","lat":34.763438,"lng":134.828163,"zip":"6750038"},{"town":"神野町日岡苑","koaza":"","lat":34.778721,"lng":134.866957,"zip":"6750006"},{"town":"加古川町大野","koaza":"","lat":34.776012,"lng":134.85879,"zip":"6750061"},{"town":"加古川町美乃利","koaza":"","lat":34.765216,"lng":134.853552,"zip":"6750062"},{"town":"加古川町溝之口","koaza":"","lat":34.765929,"lng":134.844483,"zip":"6750064"},{"town":"加古川町篠原町","koaza":"","lat":34.768126,"lng":134.839968,"zip":"6750065"},{"town":"加古川町中津","koaza":"","lat":34.775855,"lng":134.847926,"zip":"6750068"},{"town":"加古川町寺家町","koaza":"","lat":34.767435,"lng":134.835324,"zip":"6750066"},{"town":"加古川町河原","koaza":"","lat":34.773279,"lng":134.840776,"zip":"6750067"},{"town":"加古川町本町","koaza":"","lat":34.7703,"lng":134.828555,"zip":"6750037"},{"town":"米田町船頭","koaza":"","lat":34.776647,"lng":134.832109,"zip":"6750053"},{"town":"加古川町西河原","koaza":"","lat":34.768454,"lng":134.82253,"zip":"6750036"},{"town":"加古川町友沢","koaza":"","lat":34.766988,"lng":134.81548,"zip":"6750035"},{"town":"平荘町池尻","koaza":"","lat":34.789298,"lng":134.855918,"zip":"6751233"},{"town":"平荘町里","koaza":"","lat":34.794805,"lng":134.860783,"zip":"6751232"},{"town":"東神吉町升田","koaza":"","lat":34.789139,"lng":134.842519,"zip":"6750051"},{"town":"東神吉町出河原","koaza":"","lat":34.781188,"lng":134.837948,"zip":"6750052"},{"town":"東神吉町砂部","koaza":"","lat":34.78285,"lng":134.828317,"zip":"6750056"},{"town":"東神吉町西井ノ口","koaza":"","lat":34.784541,"lng":134.821274,"zip":"6750055"},{"town":"米田町平津","koaza":"","lat":34.78052,"lng":134.819885,"zip":"6750054"},{"town":"西神吉町中西","koaza":"","lat":34.795585,"lng":134.82248,"zip":"6750043"},{"town":"西神吉町西村","koaza":"","lat":34.798971,"lng":134.819985,"zip":"6750042"},{"town":"西神吉町岸","koaza":"","lat":34.79155,"lng":134.808615,"zip":"6750045"},{"town":"西神吉町大国","koaza":"","lat":34.795786,"lng":134.815691,"zip":"6750044"},{"town":"西神吉町辻","koaza":"","lat":34.797832,"lng":134.806937,"zip":"6750046"},{"town":"平荘町新中山","koaza":"","lat":34.806616,"lng":134.870463,"zip":"6751223"},{"town":"平荘町西山","koaza":"","lat":34.803107,"lng":134.856947,"zip":"6751234"},{"town":"東神吉町天下原","koaza":"","lat":34.798581,"lng":134.839757,"zip":"6750058"},{"town":"東神吉町神吉","koaza":"","lat":34.793698,"lng":134.827551,"zip":"6750057"},{"town":"志方町投松","koaza":"","lat":34.812341,"lng":134.841597,"zip":"6750313"},{"town":"西神吉町宮前","koaza":"","lat":34.804161,"lng":134.828975,"zip":"6750041"},{"town":"志方町上冨木","koaza":"","lat":34.813058,"lng":134.829401,"zip":"6750314"},{"town":"西神吉町鼎","koaza":"","lat":34.80488,"lng":134.81815,"zip":"6750047"},{"town":"志方町横大路","koaza":"","lat":34.806857,"lng":134.810499,"zip":"6750332"},{"town":"志方町西山","koaza":"","lat":34.803934,"lng":134.803317,"zip":"6750333"},{"town":"志方町成井","koaza":"","lat":34.812151,"lng":134.800693,"zip":"6750334"},{"town":"平荘町小畑","koaza":"","lat":34.812536,"lng":134.85956,"zip":"6751235"},{"town":"平荘町一本松","koaza":"","lat":34.811923,"lng":134.850037,"zip":"6751236"},{"town":"志方町岡","koaza":"","lat":34.829386,"lng":134.845637,"zip":"6750311"},{"town":"志方町高畑","koaza":"","lat":34.823806,"lng":134.838399,"zip":"6750304"},{"town":"志方町大宗","koaza":"","lat":34.82639,"lng":134.832346,"zip":"6750305"},{"town":"志方町東中","koaza":"","lat":34.830323,"lng":134.82964,"zip":"6750306"},{"town":"志方町志方町","koaza":"","lat":34.817654,"lng":134.825539,"zip":"6750321"},{"town":"志方町永室","koaza":"","lat":34.827185,"lng":134.810723,"zip":"6750347"},{"town":"志方町山中","koaza":"","lat":34.825504,"lng":134.79508,"zip":"6750336"},{"town":"志方町原","koaza":"","lat":34.821461,"lng":134.785448,"zip":"6750335"},{"town":"志方町雑郷","koaza":"","lat":34.843528,"lng":134.807075,"zip":"6750342"},{"town":"志方町畑","koaza":"","lat":34.852891,"lng":134.808746,"zip":"6750341"}]