[{"town":"藤田","koaza":"","lat":34.916292,"lng":134.990823,"zip":"6731462"},{"town":"山国","koaza":"","lat":34.906025,"lng":134.988346,"zip":"6731421"},{"town":"久米","koaza":"","lat":34.91448,"lng":135.006269,"zip":"6731416"},{"town":"下久米","koaza":"","lat":34.917816,"lng":135.018389,"zip":"6731415"},{"town":"上久米","koaza":"","lat":34.922259,"lng":135.034445,"zip":"6731414"},{"town":"池之内","koaza":"","lat":34.924596,"lng":135.047018,"zip":"6731413"},{"town":"廻渕","koaza":"","lat":34.927606,"lng":135.056425,"zip":"6731412"},{"town":"天神","koaza":"","lat":34.912806,"lng":135.055336,"zip":"6731311"},{"town":"黒谷","koaza":"","lat":34.934437,"lng":135.067315,"zip":"6731301"},{"town":"掎鹿谷","koaza":"","lat":34.913887,"lng":135.06479,"zip":"6731312"},{"town":"長貞","koaza":"","lat":34.915655,"lng":135.085195,"zip":"6731304"},{"town":"永福","koaza":"","lat":34.909572,"lng":135.095747,"zip":"6731313"},{"town":"牧野","koaza":"","lat":34.94309,"lng":134.985556,"zip":"6731474"},{"town":"上三草","koaza":"","lat":34.944915,"lng":135.00606,"zip":"6731472"},{"town":"高岡","koaza":"","lat":34.921815,"lng":134.916178,"zip":"6790222"},{"town":"河高","koaza":"","lat":34.92636,"lng":134.934976,"zip":"6790221"},{"town":"貝原","koaza":"","lat":34.917787,"lng":134.943364,"zip":"6731453"},{"town":"西垂水","koaza":"","lat":34.921379,"lng":134.948495,"zip":"6731455"},{"town":"鳥居","koaza":"","lat":34.917519,"lng":134.953315,"zip":"6731452"},{"town":"家原","koaza":"","lat":34.922103,"lng":134.960823,"zip":"6731451"},{"town":"社","koaza":"","lat":34.917355,"lng":134.967291,"zip":"6731431"},{"town":"木梨","koaza":"","lat":34.924087,"lng":134.976387,"zip":"6731461"},{"town":"上鴨川","koaza":"","lat":34.985955,"lng":135.062093,"zip":"6731401"},{"town":"南山","koaza":"","lat":34.89211,"lng":135.068634,"zip":"6731341"},{"town":"森尾","koaza":"","lat":34.897921,"lng":135.04665,"zip":"6731331"},{"town":"藪","koaza":"","lat":34.879741,"lng":135.031591,"zip":"6731335"},{"town":"吉井","koaza":"","lat":34.889732,"lng":135.033989,"zip":"6731334"},{"town":"東垂水","koaza":"","lat":34.884791,"lng":135.024962,"zip":"6731336"},{"town":"小沢","koaza":"","lat":34.894282,"lng":135.02665,"zip":"6731333"},{"town":"大畑","koaza":"","lat":34.870958,"lng":135.031724,"zip":"6731325"},{"town":"厚利","koaza":"","lat":34.893725,"lng":135.016148,"zip":"6731338"},{"town":"横谷","koaza":"","lat":34.895296,"lng":135.084574,"zip":"6731314"},{"town":"森","koaza":"","lat":34.901584,"lng":135.064819,"zip":"6731322"},{"town":"岡本","koaza":"","lat":34.897883,"lng":135.058593,"zip":"6731323"},{"town":"岩屋","koaza":"","lat":34.90174,"lng":135.051706,"zip":"6731321"},{"town":"新定","koaza":"","lat":34.885214,"lng":135.050515,"zip":"6731324"},{"town":"栄枝","koaza":"","lat":34.900801,"lng":135.026256,"zip":"6731332"},{"town":"松沢","koaza":"","lat":34.893808,"lng":135.008963,"zip":"6731337"},{"town":"屋度","koaza":"","lat":34.890615,"lng":134.962523,"zip":"6731422"},{"town":"東古瀬","koaza":"","lat":34.89008,"lng":134.954914,"zip":"6731423"},{"town":"中古瀬","koaza":"","lat":34.889385,"lng":134.947828,"zip":"6731424"},{"town":"沢部","koaza":"","lat":34.898523,"lng":134.95069,"zip":"6731444"},{"town":"大門","koaza":"","lat":34.897505,"lng":134.942195,"zip":"6731445"},{"town":"西古瀬","koaza":"","lat":34.887557,"lng":134.938626,"zip":"6731425"},{"town":"ひろのが丘","koaza":"","lat":34.912794,"lng":134.971505,"zip":"6731432"},{"town":"東実","koaza":"","lat":34.900483,"lng":134.960771,"zip":"6731434"},{"town":"松尾","koaza":"","lat":34.908807,"lng":134.962429,"zip":"6731433"},{"town":"田中","koaza":"","lat":34.911454,"lng":134.956686,"zip":"6731441"},{"town":"出水","koaza":"","lat":34.905031,"lng":134.955781,"zip":"6731442"},{"town":"福吉","koaza":"","lat":34.904918,"lng":134.942961,"zip":"6731443"},{"town":"佐保","koaza":"","lat":34.90978,"lng":134.949733,"zip":"6731447"},{"town":"上田","koaza":"","lat":34.907514,"lng":134.936635,"zip":"6731446"},{"town":"野村","koaza":"","lat":34.913239,"lng":134.93715,"zip":"6731454"},{"town":"少分谷","koaza":"","lat":34.929103,"lng":135.103818,"zip":"6731303"},{"town":"秋津","koaza":"","lat":34.937822,"lng":135.088996,"zip":"6731302"},{"town":"畑","koaza":"","lat":34.942026,"lng":135.046914,"zip":"6731411"},{"town":"下鴨川","koaza":"","lat":34.955515,"lng":135.06481,"zip":"6731403"},{"town":"山口","koaza":"","lat":34.950128,"lng":135.015768,"zip":"6731471"},{"town":"馬瀬","koaza":"","lat":34.958922,"lng":135.039435,"zip":"6731404"},{"town":"平木","koaza":"","lat":34.966377,"lng":135.079853,"zip":"6731402"},{"town":"下三草","koaza":"","lat":34.929016,"lng":134.98802,"zip":"6731473"},{"town":"梶原","koaza":"","lat":34.925136,"lng":134.968331,"zip":"6731463"},{"town":"喜田二丁目","koaza":"","lat":34.928748,"lng":134.96779,"zip":"6731465"},{"town":"喜田一丁目","koaza":"","lat":34.930523,"lng":134.970142,"zip":"6731465"},{"town":"上中一丁目","koaza":"","lat":34.929527,"lng":134.966276,"zip":"6731464"},{"town":"上中二丁目","koaza":"","lat":34.926176,"lng":134.963348,"zip":"6731464"},{"town":"上中三丁目","koaza":"","lat":34.928635,"lng":134.961409,"zip":"6731464"},{"town":"窪田","koaza":"","lat":34.925712,"lng":134.951369,"zip":"6731456"},{"town":"穂積","koaza":"","lat":34.92983,"lng":134.953718,"zip":"6790206"},{"town":"喜田","koaza":"","lat":34.931337,"lng":134.972728,"zip":"6731465"},{"town":"上中","koaza":"","lat":34.932781,"lng":134.966801,"zip":"6731464"},{"town":"稲尾","koaza":"","lat":34.938145,"lng":134.979127,"zip":"6790203"},{"town":"新町","koaza":"","lat":34.940906,"lng":134.964701,"zip":"6790204"},{"town":"北野","koaza":"","lat":34.936872,"lng":134.961642,"zip":"6790205"},{"town":"下滝野四丁目","koaza":"","lat":34.939442,"lng":134.954453,"zip":"6790212"},{"town":"下滝野三丁目","koaza":"","lat":34.938058,"lng":134.952201,"zip":"6790212"},{"town":"下滝野二丁目","koaza":"","lat":34.940121,"lng":134.951755,"zip":"6790212"},{"town":"下滝野五丁目","koaza":"","lat":34.94107,"lng":134.954001,"zip":"6790212"},{"town":"下滝野一丁目","koaza":"","lat":34.938872,"lng":134.94899,"zip":"6790212"},{"town":"光明寺","koaza":"","lat":34.951335,"lng":134.946484,"zip":"6790213"},{"town":"吉馬","koaza":"","lat":34.951155,"lng":134.987577,"zip":"6731475"},{"town":"曽我","koaza":"","lat":34.953602,"lng":134.977399,"zip":"6790201"},{"town":"多井田","koaza":"","lat":34.948127,"lng":134.967579,"zip":"6790202"},{"town":"上滝野","koaza":"","lat":34.949241,"lng":134.959877,"zip":"6790211"},{"town":"下滝野","koaza":"","lat":34.946322,"lng":134.940428,"zip":"6790212"},{"town":"桜台","koaza":"","lat":34.913957,"lng":134.91894,"zip":"6790223"},{"town":"下滝野","koaza":"下ノ山","lat":34.933732,"lng":134.941326,"zip":"6790212"},{"town":"社","koaza":"西柿","lat":34.915796,"lng":134.958262,"zip":"6731431"},{"town":"社","koaza":"郷之元","lat":34.916579,"lng":134.959277,"zip":"6731431"},{"town":"上滝野","koaza":"芝崎","lat":34.947977,"lng":134.962239,"zip":"6790211"},{"town":"上中","koaza":"溝ノ内","lat":34.93003,"lng":134.962336,"zip":"6731464"},{"town":"社","koaza":"若ヶ谷","lat":34.918472,"lng":134.970232,"zip":"6731431"},{"town":"南山","koaza":"四丁目","lat":34.895185,"lng":135.068901,"zip":"6731341"},{"town":"南山","koaza":"三丁目","lat":34.892278,"lng":135.067781,"zip":"6731341"},{"town":"南山","koaza":"六丁目","lat":34.891838,"lng":135.073962,"zip":"6731341"},{"town":"南山","koaza":"二丁目","lat":34.894524,"lng":135.073192,"zip":"6731341"},{"town":"南山","koaza":"一丁目","lat":34.895081,"lng":135.077611,"zip":"6731341"}]