[{"town":"山枝町","koaza":"","lat":34.922458,"lng":134.870363,"zip":"6790108"},{"town":"中野町","koaza":"","lat":34.879306,"lng":134.877172,"zip":"6752102"},{"town":"下宮木町","koaza":"","lat":34.890325,"lng":134.877464,"zip":"6752105"},{"town":"網引町","koaza":"","lat":34.85506,"lng":134.879715,"zip":"6752113"},{"town":"鶉野町","koaza":"","lat":34.88936,"lng":134.866252,"zip":"6752103"},{"town":"田原町","koaza":"","lat":34.864019,"lng":134.865381,"zip":"6752114"},{"town":"上宮木町","koaza":"","lat":34.897344,"lng":134.875634,"zip":"6752104"},{"town":"豊倉町","koaza":"","lat":34.907603,"lng":134.863891,"zip":"6790106"},{"town":"朝妻町","koaza":"","lat":34.910605,"lng":134.876349,"zip":"6790105"},{"town":"別府町","koaza":"","lat":34.924294,"lng":134.889392,"zip":"6790103"},{"town":"常吉町","koaza":"","lat":34.91339,"lng":134.889621,"zip":"6790104"},{"town":"東横田町","koaza":"","lat":34.915465,"lng":134.826493,"zip":"6752331"},{"town":"北条町西南","koaza":"","lat":34.923478,"lng":134.826152,"zip":"6752323"},{"town":"河内町","koaza":"","lat":34.969698,"lng":134.882705,"zip":"6752421"},{"town":"佐谷町","koaza":"","lat":34.969106,"lng":134.86781,"zip":"6752461"},{"town":"満久町","koaza":"","lat":34.948368,"lng":134.875155,"zip":"6752432"},{"town":"山下町","koaza":"","lat":34.908465,"lng":134.80406,"zip":"6752354"},{"town":"福居町","koaza":"","lat":34.926147,"lng":134.803909,"zip":"6752351"},{"town":"谷口町","koaza":"","lat":34.922247,"lng":134.80314,"zip":"6752352"},{"town":"吉野町","koaza":"","lat":34.921449,"lng":134.811068,"zip":"6752353"},{"town":"坂元町","koaza":"","lat":34.923793,"lng":134.820353,"zip":"6752336"},{"town":"北条町西高室","koaza":"","lat":34.920621,"lng":134.835184,"zip":"6752322"},{"town":"北条町東高室","koaza":"","lat":34.917644,"lng":134.842953,"zip":"6752321"},{"town":"玉丘町","koaza":"","lat":34.919886,"lng":134.852515,"zip":"6790109"},{"town":"玉野町","koaza":"","lat":34.919214,"lng":134.863878,"zip":"6790107"},{"town":"中富町","koaza":"","lat":34.93589,"lng":134.86769,"zip":"6752442"},{"town":"別所町","koaza":"","lat":34.95358,"lng":134.872304,"zip":"6752462"},{"town":"上万願寺町","koaza":"","lat":35.002175,"lng":134.843071,"zip":"6752451"},{"town":"上芥田町","koaza":"","lat":34.989555,"lng":134.856802,"zip":"6752465"},{"town":"栄町","koaza":"","lat":34.873317,"lng":134.896162,"zip":"6752112"},{"town":"桑原田町","koaza":"","lat":34.876984,"lng":134.888353,"zip":"6752111"},{"town":"青野原町","koaza":"","lat":34.917174,"lng":134.905416,"zip":"6790102"},{"town":"繁昌町","koaza":"","lat":34.896356,"lng":134.89372,"zip":"6752101"},{"town":"倉谷町","koaza":"","lat":34.857678,"lng":134.844199,"zip":"6752221"},{"town":"東笠原町","koaza":"","lat":34.876635,"lng":134.856652,"zip":"6752212"},{"town":"西笠原町","koaza":"","lat":34.879014,"lng":134.846839,"zip":"6752213"},{"town":"坂本町","koaza":"","lat":34.862693,"lng":134.824156,"zip":"6752222"},{"town":"三口町","koaza":"","lat":34.867994,"lng":134.840801,"zip":"6752223"},{"town":"新生町","koaza":"","lat":34.888256,"lng":134.854286,"zip":"6752204"},{"town":"野条町","koaza":"","lat":34.891687,"lng":134.8583,"zip":"6752202"},{"town":"野田町","koaza":"","lat":34.883496,"lng":134.846061,"zip":"6752211"},{"town":"王子町","koaza":"","lat":34.884348,"lng":134.840663,"zip":"6752231"},{"town":"牛居町","koaza":"","lat":34.889729,"lng":134.847828,"zip":"6752203"},{"town":"戸田井町","koaza":"","lat":34.88536,"lng":134.83478,"zip":"6752232"},{"town":"両月町","koaza":"","lat":34.886618,"lng":134.831568,"zip":"6752233"},{"town":"大村町","koaza":"","lat":34.896365,"lng":134.833377,"zip":"6752234"},{"town":"東長町","koaza":"","lat":34.893284,"lng":134.83035,"zip":"6752341"},{"town":"西長町","koaza":"","lat":34.889979,"lng":134.822142,"zip":"6752342"},{"town":"東剣坂町","koaza":"","lat":34.888582,"lng":134.81307,"zip":"6752346"},{"town":"中山町","koaza":"","lat":34.884671,"lng":134.804441,"zip":"6752343"},{"town":"大柳町","koaza":"","lat":34.883887,"lng":134.793523,"zip":"6752344"},{"town":"西剣坂町","koaza":"","lat":34.894407,"lng":134.79993,"zip":"6752345"},{"town":"琵琶甲町","koaza":"","lat":34.896291,"lng":134.853116,"zip":"6752201"},{"town":"中西町","koaza":"","lat":34.90079,"lng":134.848314,"zip":"6752243"},{"town":"尾崎町","koaza":"","lat":34.902352,"lng":134.845563,"zip":"6752242"},{"town":"段下町","koaza":"","lat":34.907202,"lng":134.844424,"zip":"6752241"},{"town":"鎮岩町","koaza":"","lat":34.908792,"lng":134.833107,"zip":"6752332"},{"town":"岸呂町","koaza":"","lat":34.901803,"lng":134.827407,"zip":"6752333"},{"town":"福住町","koaza":"","lat":34.903453,"lng":134.81285,"zip":"6752334"},{"town":"西横田町","koaza":"","lat":34.911696,"lng":134.820553,"zip":"6752335"},{"town":"田谷町","koaza":"","lat":34.943545,"lng":134.916801,"zip":"6752402"},{"town":"小印南町","koaza":"","lat":34.93354,"lng":134.918919,"zip":"6752403"},{"town":"都染町","koaza":"","lat":34.932749,"lng":134.889849,"zip":"6790101"},{"town":"青野町","koaza":"","lat":34.938524,"lng":134.899894,"zip":"6752413"},{"town":"野上町","koaza":"","lat":34.939942,"lng":134.890129,"zip":"6752424"},{"town":"池上町","koaza":"","lat":34.940043,"lng":134.883967,"zip":"6752425"},{"town":"西野々町","koaza":"","lat":34.940658,"lng":134.879658,"zip":"6752426"},{"town":"島町","koaza":"","lat":34.942816,"lng":134.876576,"zip":"6752431"},{"town":"国正町","koaza":"","lat":34.946336,"lng":134.927634,"zip":"6752401"},{"town":"油谷町","koaza":"","lat":34.945862,"lng":134.909876,"zip":"6752404"},{"town":"鍛治屋町","koaza":"","lat":34.948081,"lng":134.907047,"zip":"6752412"},{"town":"大工町","koaza":"","lat":34.957539,"lng":134.905494,"zip":"6752411"},{"town":"馬渡谷町","koaza":"","lat":34.950129,"lng":134.898501,"zip":"6752414"},{"town":"山田町","koaza":"","lat":34.958021,"lng":134.894697,"zip":"6752422"},{"town":"和泉町","koaza":"","lat":34.955668,"lng":134.884728,"zip":"6752423"},{"town":"下芥田町","koaza":"","lat":34.966513,"lng":134.855702,"zip":"6752464"},{"town":"北条町古坂六丁目","koaza":"","lat":34.926116,"lng":134.848873,"zip":"6752303"},{"town":"北条町古坂五丁目","koaza":"","lat":34.923304,"lng":134.849375,"zip":"6752303"},{"town":"北条町古坂三丁目","koaza":"","lat":34.923675,"lng":134.846611,"zip":"6752303"},{"town":"北条町古坂二丁目","koaza":"","lat":34.923835,"lng":134.845146,"zip":"6752303"},{"town":"北条町横尾一丁目","koaza":"","lat":34.925405,"lng":134.840554,"zip":"6752311"},{"town":"北条町古坂一丁目","koaza":"","lat":34.924867,"lng":134.84336,"zip":"6752303"},{"town":"北条町東南","koaza":"","lat":34.924482,"lng":134.831585,"zip":"6752324"},{"town":"北条町黒駒","koaza":"","lat":34.930917,"lng":134.822267,"zip":"6752313"},{"town":"市村町","koaza":"","lat":34.929425,"lng":134.816937,"zip":"6752337"},{"town":"越水町","koaza":"","lat":34.944417,"lng":134.865095,"zip":"6752441"},{"town":"北町","koaza":"","lat":34.948884,"lng":134.866534,"zip":"6752433"},{"town":"笹倉町","koaza":"","lat":34.931522,"lng":134.856865,"zip":"6752443"},{"town":"北条町古坂七丁目","koaza":"","lat":34.927618,"lng":134.844942,"zip":"6752303"},{"town":"北条町横尾","koaza":"","lat":34.929792,"lng":134.838084,"zip":"6752311"},{"town":"北条町古坂","koaza":"","lat":34.934078,"lng":134.845018,"zip":"6752303"},{"town":"北条町栗田","koaza":"","lat":34.936812,"lng":134.837208,"zip":"6752302"},{"town":"北条町北条","koaza":"","lat":34.93311,"lng":134.828673,"zip":"6752312"},{"town":"北条町小谷","koaza":"","lat":34.943536,"lng":134.831389,"zip":"6752301"},{"town":"谷町","koaza":"","lat":34.94354,"lng":134.823111,"zip":"6752361"},{"town":"西上野町","koaza":"","lat":34.936939,"lng":134.819423,"zip":"6752362"},{"town":"西谷町","koaza":"","lat":34.94611,"lng":134.817377,"zip":"6752366"},{"town":"窪田町","koaza":"","lat":34.940905,"lng":134.811819,"zip":"6752364"},{"town":"吸谷町","koaza":"","lat":34.936327,"lng":134.806973,"zip":"6752363"},{"town":"畑町","koaza":"","lat":34.955416,"lng":134.810644,"zip":"6752365"},{"town":"上野町","koaza":"","lat":34.951282,"lng":134.858976,"zip":"6752434"},{"town":"殿原町","koaza":"","lat":34.944048,"lng":134.858753,"zip":"6752445"},{"town":"鴨谷町","koaza":"","lat":34.943033,"lng":134.84622,"zip":"6752444"},{"town":"大内町","koaza":"","lat":34.956471,"lng":134.842528,"zip":"6752455"},{"town":"広原町","koaza":"","lat":34.956692,"lng":134.856006,"zip":"6752463"},{"town":"下道山町","koaza":"","lat":34.963043,"lng":134.846877,"zip":"6752454"},{"town":"上道山町","koaza":"","lat":34.973336,"lng":134.841938,"zip":"6752453"},{"town":"下万願寺町","koaza":"","lat":34.989019,"lng":134.836968,"zip":"6752452"},{"town":"若井町","koaza":"","lat":34.971325,"lng":134.821678,"zip":"6752456"},{"town":"尾崎町","koaza":"野田","lat":34.903923,"lng":134.845743,"zip":"6752242"},{"town":"豊倉町","koaza":"飯森","lat":34.90905,"lng":134.861686,"zip":"6790106"}]