[{"town":"沼島","koaza":"","lat":34.167974,"lng":134.825176,"zip":"6560961"},{"town":"北阿万筒井","koaza":"","lat":34.24961,"lng":134.741138,"zip":"6560534"},{"town":"灘仁頃","koaza":"","lat":34.192895,"lng":134.744774,"zip":"6560400"},{"town":"阿万東町","koaza":"","lat":34.206352,"lng":134.745924,"zip":"6560546"},{"town":"阿万上町","koaza":"","lat":34.224637,"lng":134.760857,"zip":"6560541"},{"town":"北阿万伊賀野","koaza":"","lat":34.237191,"lng":134.744932,"zip":"6560531"},{"town":"神代浦壁","koaza":"","lat":34.256199,"lng":134.799725,"zip":"6560452"},{"town":"賀集福井","koaza":"","lat":34.255383,"lng":134.75804,"zip":"6560516"},{"town":"北阿万新田北","koaza":"","lat":34.236266,"lng":134.778341,"zip":"6560400"},{"town":"賀集内ケ原","koaza":"","lat":34.255378,"lng":134.772878,"zip":"6560517"},{"town":"賀集生子","koaza":"","lat":34.244307,"lng":134.777709,"zip":"6560517"},{"town":"賀集長原","koaza":"","lat":34.253713,"lng":134.781018,"zip":"6560517"},{"town":"八木馬回","koaza":"","lat":34.268722,"lng":134.825847,"zip":"6560445"},{"town":"神代社家","koaza":"","lat":34.263068,"lng":134.811601,"zip":"6560451"},{"town":"賀集牛内","koaza":"","lat":34.252073,"lng":134.788256,"zip":"6560518"},{"town":"阿那賀","koaza":"","lat":34.268699,"lng":134.681128,"zip":"6560661"},{"town":"松帆櫟田","koaza":"","lat":34.341142,"lng":134.758597,"zip":"6560400"},{"town":"志知中島","koaza":"","lat":34.286864,"lng":134.743816,"zip":"6560483"},{"town":"志知難波","koaza":"","lat":34.29333,"lng":134.748065,"zip":"6560482"},{"town":"潮美台二丁目","koaza":"","lat":34.254359,"lng":134.733554,"zip":"6560521"},{"town":"潮美台三丁目","koaza":"","lat":34.251891,"lng":134.733752,"zip":"6560521"},{"town":"志知","koaza":"","lat":34.308105,"lng":134.745455,"zip":"6560321"},{"town":"松帆志知川","koaza":"","lat":34.31506,"lng":134.750113,"zip":"6560313"},{"town":"松帆北浜","koaza":"","lat":34.333132,"lng":134.745472,"zip":"6560305"},{"town":"松帆江尻","koaza":"","lat":34.329581,"lng":134.745793,"zip":"6560303"},{"town":"松帆高屋","koaza":"","lat":34.325375,"lng":134.743623,"zip":"6560315"},{"town":"松帆西路","koaza":"","lat":34.313906,"lng":134.73952,"zip":"6560314"},{"town":"賀集立川瀬","koaza":"","lat":34.274156,"lng":134.747167,"zip":"6560512"},{"town":"賀集八幡","koaza":"","lat":34.26836,"lng":134.737003,"zip":"6560511"},{"town":"賀集","koaza":"","lat":34.264921,"lng":134.746792,"zip":"6560518"},{"town":"賀集鍛治屋","koaza":"","lat":34.258979,"lng":134.740652,"zip":"6560515"},{"town":"潮美台一丁目","koaza":"","lat":34.252625,"lng":134.730752,"zip":"6560521"},{"town":"志知松本","koaza":"","lat":34.298287,"lng":134.747351,"zip":"6560481"},{"town":"賀集八幡北","koaza":"","lat":34.282504,"lng":134.742568,"zip":"6560400"},{"town":"倭文庄田","koaza":"","lat":34.33523,"lng":134.789285,"zip":"6560153"},{"town":"倭文神道","koaza":"","lat":34.343335,"lng":134.77829,"zip":"6560154"},{"town":"倭文高","koaza":"","lat":34.337541,"lng":134.770779,"zip":"6560411"},{"town":"倭文土井","koaza":"","lat":34.33797,"lng":134.810895,"zip":"6560161"},{"town":"山添","koaza":"","lat":34.332832,"lng":134.841656,"zip":"6560121"},{"town":"松帆古津路","koaza":"","lat":34.333704,"lng":134.736481,"zip":"6560304"},{"town":"松帆慶野","koaza":"","lat":34.346626,"lng":134.747387,"zip":"6560306"},{"town":"灘油谷","koaza":"","lat":34.207222,"lng":134.803801,"zip":"6560400"},{"town":"灘城方","koaza":"","lat":34.210561,"lng":134.808328,"zip":"6560400"},{"town":"灘円実","koaza":"","lat":34.20528,"lng":134.793066,"zip":"6560400"},{"town":"灘土生","koaza":"","lat":34.206984,"lng":134.781167,"zip":"6560400"},{"town":"灘地野","koaza":"","lat":34.198861,"lng":134.762102,"zip":"6560400"},{"town":"灘惣川","koaza":"","lat":34.218909,"lng":134.824047,"zip":"6560400"},{"town":"灘吉野","koaza":"","lat":34.217236,"lng":134.820173,"zip":"6560400"},{"town":"灘山本","koaza":"","lat":34.216128,"lng":134.811938,"zip":"6560400"},{"town":"灘払川","koaza":"","lat":34.214138,"lng":134.793525,"zip":"6560400"},{"town":"灘黒岩","koaza":"","lat":34.2296,"lng":134.825696,"zip":"6560400"},{"town":"北阿万稲田南","koaza":"","lat":34.237455,"lng":134.762733,"zip":"6560532"},{"town":"北阿万新田中","koaza":"","lat":34.246561,"lng":134.75665,"zip":"6560400"},{"town":"灘白崎","koaza":"","lat":34.238611,"lng":134.84717,"zip":"6560400"},{"town":"灘来川","koaza":"","lat":34.243691,"lng":134.862248,"zip":"6560400"},{"town":"阿万吹上町","koaza":"","lat":34.224858,"lng":134.710598,"zip":"6560542"},{"town":"阿万下町","koaza":"","lat":34.218553,"lng":134.732185,"zip":"6560544"},{"town":"阿万西町","koaza":"","lat":34.211621,"lng":134.728105,"zip":"6560545"},{"town":"阿万塩屋町","koaza":"","lat":34.229143,"lng":134.722331,"zip":"6560543"},{"town":"神代黒道","koaza":"","lat":34.271742,"lng":134.779461,"zip":"6560453"},{"town":"神代喜来","koaza":"","lat":34.274271,"lng":134.771699,"zip":"6560454"},{"town":"市円行寺","koaza":"","lat":34.285582,"lng":134.781443,"zip":"6560461"},{"town":"市善光寺","koaza":"","lat":34.294713,"lng":134.774283,"zip":"6560472"},{"town":"市小井","koaza":"","lat":34.291696,"lng":134.777374,"zip":"6560473"},{"town":"八木立石","koaza":"","lat":34.293033,"lng":134.782924,"zip":"6560435"},{"town":"八木国分","koaza":"","lat":34.296381,"lng":134.784491,"zip":"6560434"},{"town":"八木鳥井","koaza":"","lat":34.296443,"lng":134.791883,"zip":"6560433"},{"town":"八木大久保","koaza":"","lat":34.28836,"lng":134.801319,"zip":"6560444"},{"town":"八木徳野","koaza":"","lat":34.304611,"lng":134.78649,"zip":"6560432"},{"town":"八木養宜中","koaza":"","lat":34.30742,"lng":134.79653,"zip":"6560442"},{"town":"八木野原","koaza":"","lat":34.30233,"lng":134.784078,"zip":"6560431"},{"town":"榎列西川","koaza":"","lat":34.301274,"lng":134.770979,"zip":"6560424"},{"town":"八木新庄","koaza":"","lat":34.303674,"lng":134.776964,"zip":"6560436"},{"town":"榎列下幡多","koaza":"","lat":34.311688,"lng":134.774035,"zip":"6560423"},{"town":"榎列松田","koaza":"","lat":34.3196,"lng":134.766143,"zip":"6560427"},{"town":"市市","koaza":"","lat":34.293619,"lng":134.76695,"zip":"6560474"},{"town":"市新","koaza":"","lat":34.292302,"lng":134.756254,"zip":"6560476"},{"town":"市福永","koaza":"","lat":34.284469,"lng":134.772776,"zip":"6560478"},{"town":"神代富田","koaza":"","lat":34.276562,"lng":134.773491,"zip":"6560457"},{"town":"倭文委文","koaza":"","lat":34.331597,"lng":134.7802,"zip":"6560412"},{"town":"八木養宜上","koaza":"","lat":34.304047,"lng":134.804055,"zip":"6560443"},{"town":"中条徳原","koaza":"","lat":34.299743,"lng":134.814386,"zip":"6560142"},{"town":"広田広田","koaza":"","lat":34.324976,"lng":134.824482,"zip":"6560122"},{"town":"中条広田","koaza":"","lat":34.318126,"lng":134.813223,"zip":"6560141"},{"town":"倭文長田","koaza":"","lat":34.323757,"lng":134.797962,"zip":"6560152"},{"town":"神代國衙","koaza":"","lat":34.268071,"lng":134.770698,"zip":"6560455"},{"town":"賀集野田","koaza":"","lat":34.265353,"lng":134.756037,"zip":"6560513"},{"town":"榎列小榎列","koaza":"","lat":34.305718,"lng":134.756341,"zip":"6560425"},{"town":"松帆戒旦寺","koaza":"","lat":34.320698,"lng":134.762071,"zip":"6560311"},{"town":"松帆脇田","koaza":"","lat":34.320661,"lng":134.754899,"zip":"6560312"},{"town":"松帆塩浜","koaza":"","lat":34.327438,"lng":134.750446,"zip":"6560302"},{"town":"神代地頭方","koaza":"","lat":34.279314,"lng":134.762875,"zip":"6560456"},{"town":"八木寺内","koaza":"","lat":34.28454,"lng":134.789833,"zip":"6560446"},{"town":"市青木","koaza":"","lat":34.281926,"lng":134.777817,"zip":"6560462"},{"town":"市三條","koaza":"","lat":34.286005,"lng":134.765373,"zip":"6560475"},{"town":"中条中筋","koaza":"","lat":34.296434,"lng":134.829457,"zip":"6560143"},{"town":"榎列上幡多","koaza":"","lat":34.315337,"lng":134.777844,"zip":"6560422"},{"town":"八木入田","koaza":"","lat":34.312077,"lng":134.791305,"zip":"6560441"},{"town":"榎列大榎列","koaza":"","lat":34.309363,"lng":134.765509,"zip":"6560426"},{"town":"市十一ケ所","koaza":"","lat":34.297773,"lng":134.769,"zip":"6560471"},{"town":"松帆北方","koaza":"","lat":34.329729,"lng":134.756882,"zip":"6560301"},{"town":"榎列掃守","koaza":"","lat":34.325736,"lng":134.767101,"zip":"6560428"},{"town":"市徳長","koaza":"","lat":34.298949,"lng":134.755941,"zip":"6560477"},{"town":"広田中筋","koaza":"","lat":34.317582,"lng":134.832511,"zip":"6560131"},{"town":"倭文流","koaza":"","lat":34.32782,"lng":134.777091,"zip":"6560413"},{"town":"榎列山所","koaza":"","lat":34.320892,"lng":134.780013,"zip":"6560421"},{"town":"志知佐礼尾","koaza":"","lat":34.294271,"lng":134.740212,"zip":"6560484"},{"town":"賀集八幡南","koaza":"","lat":34.273532,"lng":134.736885,"zip":"6560400"},{"town":"賀集八幡中","koaza":"","lat":34.279288,"lng":134.736019,"zip":"6560400"},{"town":"阿那賀志知川","koaza":"","lat":34.299652,"lng":134.670429,"zip":"6560662"},{"town":"志知鈩","koaza":"","lat":34.300368,"lng":134.742934,"zip":"6560322"},{"town":"志知南","koaza":"","lat":34.302774,"lng":134.738225,"zip":"6560326"},{"town":"志知飯山寺","koaza":"","lat":34.300542,"lng":134.731643,"zip":"6560323"},{"town":"志知北","koaza":"","lat":34.30874,"lng":134.736319,"zip":"6560327"},{"town":"志知口","koaza":"","lat":34.29097,"lng":134.729635,"zip":"6560324"},{"town":"津井","koaza":"","lat":34.313639,"lng":134.691872,"zip":"6560341"},{"town":"阿那賀西路","koaza":"","lat":34.308841,"lng":134.673702,"zip":"6560663"},{"town":"湊里","koaza":"","lat":34.306949,"lng":134.716984,"zip":"6560331"},{"town":"湊","koaza":"","lat":34.321417,"lng":134.715667,"zip":"6560332"},{"town":"倭文安住寺","koaza":"","lat":34.348505,"lng":134.808692,"zip":"6560151"},{"town":"松帆宝明寺","koaza":"","lat":34.349737,"lng":134.772614,"zip":"6560308"},{"town":"福良丙","koaza":"","lat":34.252537,"lng":134.693303,"zip":"6560503"},{"town":"福良甲","koaza":"","lat":34.265087,"lng":134.724295,"zip":"6560501"},{"town":"福良乙","koaza":"","lat":34.2619,"lng":134.708872,"zip":"6560502"},{"town":"志知奥","koaza":"","lat":34.283393,"lng":134.714107,"zip":"6560325"},{"town":"伊加利","koaza":"","lat":34.283139,"lng":134.69366,"zip":"6560651"},{"town":"桜花の郷","koaza":"","lat":34.280176,"lng":134.705737,"zip":"6560328"},{"town":"松帆脇田","koaza":"甲","lat":34.319195,"lng":134.755691,"zip":"6560312"},{"town":"神代國衙","koaza":"天羽田","lat":34.271609,"lng":134.761493,"zip":"6560455"},{"town":"市円行寺","koaza":"笠松の下","lat":34.288878,"lng":134.779902,"zip":"6560461"}]