[{"town":"八千代区大和","koaza":"","lat":35.013995,"lng":134.863021,"zip":"6770132"},{"town":"八千代区下三原","koaza":"","lat":34.999789,"lng":134.891456,"zip":"6770131"},{"town":"八千代区中野間","koaza":"","lat":35.004662,"lng":134.904804,"zip":"6770121"},{"town":"八千代区下野間","koaza":"","lat":34.993921,"lng":134.91795,"zip":"6770122"},{"town":"加美区的場","koaza":"","lat":35.082643,"lng":134.876279,"zip":"6791214"},{"town":"八千代区横屋","koaza":"","lat":35.033679,"lng":134.871225,"zip":"6770104"},{"town":"八千代区中村","koaza":"","lat":35.043348,"lng":134.867493,"zip":"6770103"},{"town":"八千代区大屋","koaza":"","lat":35.062688,"lng":134.858641,"zip":"6770101"},{"town":"加美区寺内","koaza":"","lat":35.080753,"lng":134.854967,"zip":"6791211"},{"town":"八千代区坂本","koaza":"","lat":35.051371,"lng":134.876783,"zip":"6770102"},{"town":"中区牧野","koaza":"","lat":35.089292,"lng":134.928419,"zip":"6791103"},{"town":"中区東山","koaza":"","lat":35.07846,"lng":134.914511,"zip":"6791105"},{"town":"中区門前","koaza":"","lat":35.082319,"lng":134.902484,"zip":"6791101"},{"town":"加美区熊野部","koaza":"","lat":35.094168,"lng":134.898305,"zip":"6791202"},{"town":"加美区奥荒田","koaza":"","lat":35.100422,"lng":134.863105,"zip":"6791215"},{"town":"加美区多田","koaza":"","lat":35.110316,"lng":134.876952,"zip":"6791203"},{"town":"加美区清水","koaza":"","lat":35.169641,"lng":134.924666,"zip":"6791323"},{"town":"中区中安田","koaza":"","lat":35.045738,"lng":134.951579,"zip":"6791122"},{"town":"中区田野口","koaza":"","lat":35.074957,"lng":134.921788,"zip":"6791104"},{"town":"中区天田","koaza":"","lat":35.062604,"lng":134.921324,"zip":"6791115"},{"town":"中区鍛冶屋","koaza":"","lat":35.07025,"lng":134.937996,"zip":"6791111"},{"town":"中区間子","koaza":"","lat":35.056849,"lng":134.932375,"zip":"6791112"},{"town":"中区西安田","koaza":"","lat":35.054394,"lng":134.947326,"zip":"6791123"},{"town":"中区奥中","koaza":"","lat":35.053175,"lng":134.911792,"zip":"6791107"},{"town":"中区中村町","koaza":"","lat":35.048733,"lng":134.924635,"zip":"6791113"},{"town":"中区安坂","koaza":"","lat":35.037625,"lng":134.91774,"zip":"6791135"},{"town":"中区森本","koaza":"","lat":35.046095,"lng":134.934583,"zip":"6791124"},{"town":"中区坂本","koaza":"","lat":35.030372,"lng":134.928418,"zip":"6791132"},{"town":"中区高岸","koaza":"","lat":35.06175,"lng":134.909381,"zip":"6791106"},{"town":"中区岸上","koaza":"","lat":35.057675,"lng":134.922154,"zip":"6791114"},{"town":"中区東安田","koaza":"","lat":35.042534,"lng":134.962213,"zip":"6791121"},{"town":"中区曽我井","koaza":"","lat":35.025001,"lng":134.938333,"zip":"6791131"},{"town":"八千代区仕出原","koaza":"","lat":35.014502,"lng":134.919149,"zip":"6770114"},{"town":"中区糀屋","koaza":"","lat":35.030906,"lng":134.915597,"zip":"6791133"},{"town":"八千代区俵田","koaza":"","lat":35.021754,"lng":134.898359,"zip":"6770113"},{"town":"中区茂利","koaza":"","lat":35.040613,"lng":134.905877,"zip":"6791134"},{"town":"八千代区門田","koaza":"","lat":35.033607,"lng":134.890476,"zip":"6770111"},{"town":"八千代区赤坂","koaza":"","lat":35.017354,"lng":134.883102,"zip":"6770112"},{"town":"八千代区下村","koaza":"","lat":35.030173,"lng":134.880805,"zip":"6770105"},{"town":"中区徳畑","koaza":"","lat":35.046067,"lng":134.89812,"zip":"6791107"},{"town":"中区安楽田","koaza":"","lat":35.071325,"lng":134.90301,"zip":"6791102"},{"town":"加美区山野部","koaza":"","lat":35.062122,"lng":134.892023,"zip":"6791213"},{"town":"加美区西脇","koaza":"","lat":35.074668,"lng":134.890108,"zip":"6791212"},{"town":"加美区観音寺","koaza":"","lat":35.110565,"lng":134.924696,"zip":"6791338"},{"town":"加美区箸荷","koaza":"","lat":35.124344,"lng":134.933784,"zip":"6791334"},{"town":"加美区奥豊部","koaza":"","lat":35.117977,"lng":134.916301,"zip":"6791337"},{"town":"加美区杉原","koaza":"","lat":35.121075,"lng":134.917487,"zip":"6791336"},{"town":"加美区門村","koaza":"","lat":35.125452,"lng":134.914601,"zip":"6791335"},{"town":"加美区豊部","koaza":"","lat":35.108413,"lng":134.906018,"zip":"6791201"},{"town":"加美区棚釜","koaza":"","lat":35.116909,"lng":134.884505,"zip":"6791204"},{"town":"加美区大袋","koaza":"","lat":35.132637,"lng":134.927665,"zip":"6791332"},{"town":"加美区山口","koaza":"","lat":35.147411,"lng":134.929788,"zip":"6791325"},{"town":"加美区西山","koaza":"","lat":35.145844,"lng":134.920639,"zip":"6791326"},{"town":"加美区三谷","koaza":"","lat":35.135098,"lng":134.902646,"zip":"6791333"},{"town":"加美区岩座神","koaza":"","lat":35.133276,"lng":134.882404,"zip":"6791205"},{"town":"加美区丹治","koaza":"","lat":35.14392,"lng":134.942062,"zip":"6791331"},{"town":"加美区轟","koaza":"","lat":35.157651,"lng":134.918111,"zip":"6791324"},{"town":"加美区市原","koaza":"","lat":35.147532,"lng":134.903343,"zip":"6791327"},{"town":"加美区鳥羽","koaza":"","lat":35.18839,"lng":134.931775,"zip":"6791322"},{"town":"加美区山寄上","koaza":"","lat":35.203182,"lng":134.934709,"zip":"6791321"},{"town":"中区安坂","koaza":"きくま","lat":35.04224,"lng":134.925551,"zip":"6791135"},{"town":"中区牧野","koaza":"国木谷","lat":35.074597,"lng":134.93124,"zip":"6791103"}]