[{"town":"夢前町書写","koaza":"","lat":34.895323,"lng":134.667794,"zip":"6700000"},{"town":"天神町","koaza":"","lat":34.833188,"lng":134.704747,"zip":"6700846"},{"town":"家島町真浦","koaza":"","lat":34.675647,"lng":134.531556,"zip":"6720101"},{"town":"家島町宮","koaza":"","lat":34.671591,"lng":134.536653,"zip":"6720102"},{"town":"飾東町北山","koaza":"","lat":34.838243,"lng":134.749422,"zip":"6710212"},{"town":"的形町的形","koaza":"","lat":34.783794,"lng":134.739493,"zip":"6710111"},{"town":"別所町佐土","koaza":"","lat":34.810499,"lng":134.74173,"zip":"6710224"},{"town":"別所町佐土三丁目","koaza":"","lat":34.814901,"lng":134.746408,"zip":"6710224"},{"town":"別所町佐土二丁目","koaza":"","lat":34.813509,"lng":134.748774,"zip":"6710224"},{"town":"別所町佐土一丁目","koaza":"","lat":34.810571,"lng":134.746681,"zip":"6710224"},{"town":"別所町家具町","koaza":"","lat":34.821143,"lng":134.747868,"zip":"6710225"},{"town":"御国野町深志野","koaza":"","lat":34.826896,"lng":134.746404,"zip":"6710231"},{"town":"飾東町志吹","koaza":"","lat":34.836647,"lng":134.758824,"zip":"6710216"},{"town":"別所町別所","koaza":"","lat":34.809584,"lng":134.754687,"zip":"6710221"},{"town":"広畑区富士町","koaza":"","lat":34.780089,"lng":134.61811,"zip":"6711123"},{"town":"広畑区小松町三丁目","koaza":"","lat":34.80306,"lng":134.621473,"zip":"6711152"},{"town":"広畑区早瀬町三丁目","koaza":"","lat":34.805839,"lng":134.622335,"zip":"6711151"},{"town":"広畑区才","koaza":"","lat":34.814422,"lng":134.62808,"zip":"6711104"},{"town":"広畑区大町三丁目","koaza":"","lat":34.794124,"lng":134.621239,"zip":"6711155"},{"town":"広畑区吾妻町三丁目","koaza":"","lat":34.796319,"lng":134.620743,"zip":"6711154"},{"town":"広畑区則直","koaza":"","lat":34.812812,"lng":134.62131,"zip":"6711105"},{"town":"広畑区高浜町三丁目","koaza":"","lat":34.79953,"lng":134.621417,"zip":"6711153"},{"town":"広畑区小坂","koaza":"","lat":34.807101,"lng":134.61918,"zip":"6711156"},{"town":"飾東町唐端新","koaza":"","lat":34.832854,"lng":134.765657,"zip":"6710214"},{"town":"香寺町溝口","koaza":"","lat":34.928768,"lng":134.744183,"zip":"6792161"},{"town":"香寺町岩部","koaza":"","lat":34.919017,"lng":134.740791,"zip":"6792141"},{"town":"高岡新町","koaza":"","lat":34.837228,"lng":134.655145,"zip":"6700062"},{"town":"龍野町三丁目","koaza":"","lat":34.83657,"lng":134.682185,"zip":"6700032"},{"town":"豊富町甲丘二丁目","koaza":"","lat":34.899504,"lng":134.746434,"zip":"6792124"},{"town":"飾東町豊国","koaza":"","lat":34.846711,"lng":134.7433,"zip":"6710219"},{"town":"飾東町佐良和","koaza":"","lat":34.848754,"lng":134.729109,"zip":"6710217"},{"town":"船津町","koaza":"","lat":34.917928,"lng":134.756148,"zip":"6792101"},{"town":"豊富町御蔭","koaza":"","lat":34.870313,"lng":134.743914,"zip":"6792122"},{"town":"豊富町甲丘三丁目","koaza":"","lat":34.897115,"lng":134.747306,"zip":"6792124"},{"town":"豊富町豊富","koaza":"","lat":34.891324,"lng":134.752091,"zip":"6792123"},{"town":"香寺町広瀬","koaza":"","lat":34.911945,"lng":134.742578,"zip":"6792142"},{"town":"広畑区西蒲田","koaza":"","lat":34.830231,"lng":134.633211,"zip":"6711107"},{"town":"広畑区西夢前台四丁目","koaza":"","lat":34.835631,"lng":134.640726,"zip":"6711103"},{"town":"広畑区東夢前台四丁目","koaza":"","lat":34.838396,"lng":134.643193,"zip":"6711101"},{"town":"広畑区蒲田","koaza":"","lat":34.829642,"lng":134.648996,"zip":"6711102"},{"town":"今宿","koaza":"","lat":34.837136,"lng":134.660555,"zip":"6700052"},{"town":"西庄","koaza":"","lat":34.83185,"lng":134.659839,"zip":"6700981"},{"town":"東今宿三丁目","koaza":"","lat":34.838335,"lng":134.665033,"zip":"6700056"},{"town":"土山七丁目","koaza":"","lat":34.835882,"lng":134.667536,"zip":"6700996"},{"town":"東今宿一丁目","koaza":"","lat":34.83766,"lng":134.66802,"zip":"6700056"},{"town":"神子岡前一丁目","koaza":"","lat":34.837096,"lng":134.669989,"zip":"6700055"},{"town":"南今宿","koaza":"","lat":34.836283,"lng":134.672173,"zip":"6700054"},{"town":"南車崎二丁目","koaza":"","lat":34.835923,"lng":134.675038,"zip":"6700053"},{"town":"車崎一丁目","koaza":"","lat":34.83811,"lng":134.675722,"zip":"6700058"},{"town":"龍野町六丁目","koaza":"","lat":34.836417,"lng":134.677974,"zip":"6700032"},{"town":"龍野町五丁目","koaza":"","lat":34.837355,"lng":134.679493,"zip":"6700032"},{"town":"西新町","koaza":"","lat":34.836236,"lng":134.680046,"zip":"6700033"},{"town":"龍野町四丁目","koaza":"","lat":34.836821,"lng":134.680999,"zip":"6700032"},{"town":"龍野町二丁目","koaza":"","lat":34.836331,"lng":134.683476,"zip":"6700032"},{"town":"吉田町","koaza":"","lat":34.836648,"lng":134.684991,"zip":"6700031"},{"town":"本町","koaza":"","lat":34.837911,"lng":134.693807,"zip":"6700012"},{"town":"五軒邸二丁目","koaza":"","lat":34.83731,"lng":134.700838,"zip":"6700854"},{"town":"五軒邸三丁目","koaza":"","lat":34.835893,"lng":134.702559,"zip":"6700854"},{"town":"五軒邸四丁目","koaza":"","lat":34.837771,"lng":134.703562,"zip":"6700854"},{"town":"城東町竹之門","koaza":"","lat":34.837894,"lng":134.705293,"zip":"6700848"},{"town":"城東町中河原","koaza":"","lat":34.836072,"lng":134.706804,"zip":"6700847"},{"town":"城東町毘沙門","koaza":"","lat":34.836735,"lng":134.708969,"zip":"6700842"},{"town":"城東町","koaza":"","lat":34.837985,"lng":134.708311,"zip":"6700841"},{"town":"丸尾町","koaza":"","lat":34.837139,"lng":134.712747,"zip":"6700827"},{"town":"東郷町","koaza":"","lat":34.831555,"lng":134.717604,"zip":"6700821"},{"town":"花田町小川","koaza":"","lat":34.841826,"lng":134.721652,"zip":"6710255"},{"town":"花田町勅旨","koaza":"","lat":34.833188,"lng":134.721991,"zip":"6710254"},{"town":"花田町加納原田","koaza":"","lat":34.831068,"lng":134.72947,"zip":"6710252"},{"town":"花田町上原田","koaza":"","lat":34.835389,"lng":134.736366,"zip":"6710251"},{"town":"豊富町甲丘一丁目","koaza":"","lat":34.898321,"lng":134.748427,"zip":"6792124"},{"town":"香寺町中仁野","koaza":"","lat":34.905353,"lng":134.740342,"zip":"6792143"},{"town":"夢前町菅生澗","koaza":"","lat":34.919354,"lng":134.633194,"zip":"6712134"},{"town":"打越","koaza":"","lat":34.892152,"lng":134.625831,"zip":"6712246"},{"town":"石倉","koaza":"","lat":34.880568,"lng":134.612944,"zip":"6712231"},{"town":"白鳥台一丁目","koaza":"","lat":34.880097,"lng":134.621944,"zip":"6712245"},{"town":"白鳥台三丁目","koaza":"","lat":34.885703,"lng":134.624943,"zip":"6712245"},{"town":"飾西","koaza":"","lat":34.861764,"lng":134.6344,"zip":"6712216"},{"town":"青山","koaza":"","lat":34.849009,"lng":134.627936,"zip":"6712222"},{"town":"太市中","koaza":"","lat":34.855674,"lng":134.614628,"zip":"6712233"},{"town":"相野","koaza":"","lat":34.866025,"lng":134.614921,"zip":"6712232"},{"town":"白鳥台二丁目","koaza":"","lat":34.882506,"lng":134.622277,"zip":"6712245"},{"town":"山田町多田","koaza":"","lat":34.917794,"lng":134.774499,"zip":"6792111"},{"town":"山田町北山田","koaza":"","lat":34.914705,"lng":134.789363,"zip":"6792112"},{"town":"夢前町寺","koaza":"","lat":34.928839,"lng":134.657075,"zip":"6712116"},{"town":"夢前町宮置","koaza":"","lat":34.914424,"lng":134.676274,"zip":"6712121"},{"town":"夢前町又坂","koaza":"","lat":34.926765,"lng":134.669405,"zip":"6712115"},{"town":"夢前町糸田","koaza":"","lat":34.930901,"lng":134.686443,"zip":"6712114"},{"town":"香寺町相坂","koaza":"","lat":34.920278,"lng":134.705934,"zip":"6792154"},{"town":"香寺町矢田部","koaza":"","lat":34.92641,"lng":134.719686,"zip":"6792155"},{"town":"香寺町行重","koaza":"","lat":34.920784,"lng":134.72642,"zip":"6792152"},{"town":"香寺町土師","koaza":"","lat":34.926,"lng":134.736754,"zip":"6792163"},{"town":"夢前町莇野","koaza":"","lat":34.996478,"lng":134.636122,"zip":"6712106"},{"town":"夢前町護持","koaza":"","lat":34.950263,"lng":134.619807,"zip":"6712136"},{"town":"夢前町戸倉","koaza":"","lat":34.966152,"lng":134.638638,"zip":"6712131"},{"town":"夢前町野畑","koaza":"","lat":34.972568,"lng":134.626486,"zip":"6712137"},{"town":"安富町三森","koaza":"","lat":34.989376,"lng":134.61222,"zip":"6712411"},{"town":"林田町大堤","koaza":"","lat":34.937042,"lng":134.613726,"zip":"6794231"},{"town":"林田町六九谷","koaza":"","lat":34.917161,"lng":134.576407,"zip":"6794211"},{"town":"林田町中山下","koaza":"","lat":34.922743,"lng":134.582204,"zip":"6794214"},{"town":"林田町八幡","koaza":"","lat":34.918376,"lng":134.588906,"zip":"6794215"},{"town":"林田町奥佐見","koaza":"","lat":34.928206,"lng":134.598791,"zip":"6794223"},{"town":"林田町上伊勢","koaza":"","lat":34.913189,"lng":134.61191,"zip":"6794232"},{"town":"夢前町神種","koaza":"","lat":34.986772,"lng":134.661061,"zip":"6712105"},{"town":"夢前町新庄","koaza":"","lat":34.995903,"lng":134.680226,"zip":"6712102"},{"town":"安富町皆河","koaza":"","lat":35.049618,"lng":134.6092,"zip":"6712415"},{"town":"安富町杤原","koaza":"","lat":35.033513,"lng":134.62084,"zip":"6712414"},{"town":"安富町関","koaza":"","lat":35.063817,"lng":134.631925,"zip":"6712416"},{"town":"安富町名坂","koaza":"","lat":35.001893,"lng":134.596614,"zip":"6712412"},{"town":"安富町末広","koaza":"","lat":35.016518,"lng":134.614673,"zip":"6712413"},{"town":"夢前町山之内","koaza":"","lat":35.051027,"lng":134.678894,"zip":"6712101"},{"town":"別所町別所三丁目","koaza":"","lat":34.811252,"lng":134.752657,"zip":"6710221"},{"town":"別所町別所五丁目","koaza":"","lat":34.813486,"lng":134.75291,"zip":"6710221"},{"town":"別所町別所二丁目","koaza":"","lat":34.80831,"lng":134.750289,"zip":"6710221"},{"town":"別所町別所四丁目","koaza":"","lat":34.811947,"lng":134.750395,"zip":"6710221"},{"town":"別所町別所一丁目","koaza":"","lat":34.806171,"lng":134.750812,"zip":"6710221"},{"town":"大塩町宮前","koaza":"","lat":34.777729,"lng":134.758659,"zip":"6710103"},{"town":"大塩町汐咲一丁目","koaza":"","lat":34.778385,"lng":134.756718,"zip":"6710102"},{"town":"大塩町汐咲二丁目","koaza":"","lat":34.77888,"lng":134.754389,"zip":"6710102"},{"town":"大塩町汐咲三丁目","koaza":"","lat":34.779155,"lng":134.752155,"zip":"6710102"},{"town":"大塩町","koaza":"","lat":34.77781,"lng":134.763368,"zip":"6710101"},{"town":"別所町小林","koaza":"","lat":34.798877,"lng":134.758858,"zip":"6710222"},{"town":"別所町北宿","koaza":"","lat":34.806734,"lng":134.76566,"zip":"6710223"},{"town":"別所町佐土新","koaza":"","lat":34.820012,"lng":134.759179,"zip":"6710226"},{"town":"飾東町夕陽ケ丘","koaza":"","lat":34.829678,"lng":134.758845,"zip":"6710215"},{"town":"白浜町灘浜","koaza":"","lat":34.765333,"lng":134.695821,"zip":"6728024"},{"town":"的形町福泊","koaza":"","lat":34.772789,"lng":134.734056,"zip":"6710112"},{"town":"飾磨区阿成植木","koaza":"","lat":34.803254,"lng":134.690792,"zip":"6728030"},{"town":"飾磨区上野田六丁目","koaza":"","lat":34.805072,"lng":134.688801,"zip":"6728043"},{"town":"飾磨区三和町","koaza":"","lat":34.799829,"lng":134.683099,"zip":"6728036"},{"town":"飾磨区阿成中垣内","koaza":"","lat":34.793281,"lng":134.689763,"zip":"6728058"},{"town":"飾磨区阿成下垣内","koaza":"","lat":34.790814,"lng":134.689624,"zip":"6728059"},{"town":"飾磨区中島一丁目","koaza":"","lat":34.794627,"lng":134.684757,"zip":"6728035"},{"town":"飾磨区中島三丁目","koaza":"","lat":34.792446,"lng":134.682016,"zip":"6728035"},{"town":"飾磨区中島二丁目","koaza":"","lat":34.794697,"lng":134.681618,"zip":"6728035"},{"town":"飾磨区阿成鹿古","koaza":"","lat":34.799448,"lng":134.686004,"zip":"6728038"},{"town":"飾磨区妻鹿常盤町","koaza":"","lat":34.774313,"lng":134.689986,"zip":"6728034"},{"town":"飾磨区今在家北三丁目","koaza":"","lat":34.811212,"lng":134.655622,"zip":"6728090"},{"town":"玉手二丁目","koaza":"","lat":34.813498,"lng":134.660753,"zip":"6700985"},{"town":"苫編南一丁目","koaza":"","lat":34.814763,"lng":134.652505,"zip":"6700987"},{"town":"飾磨区付城一丁目","koaza":"","lat":34.812633,"lng":134.648426,"zip":"6728082"},{"town":"亀山二丁目","koaza":"","lat":34.810498,"lng":134.673161,"zip":"6700973"},{"town":"飯田二丁目","koaza":"","lat":34.813224,"lng":134.671474,"zip":"6700974"},{"town":"三左衛門堀東の町","koaza":"","lat":34.818986,"lng":134.69076,"zip":"6700949"},{"town":"木場","koaza":"","lat":34.77532,"lng":134.728384,"zip":"6728016"},{"town":"木場十八反町","koaza":"","lat":34.77787,"lng":134.722327,"zip":"6728017"},{"town":"木場前中町","koaza":"","lat":34.779349,"lng":134.719994,"zip":"6728018"},{"town":"白浜町宇佐崎南一丁目","koaza":"","lat":34.776512,"lng":134.719349,"zip":"6728022"},{"town":"木場前七反町","koaza":"","lat":34.779945,"lng":134.71715,"zip":"6728019"},{"town":"白浜町宇佐崎中一丁目","koaza":"","lat":34.782808,"lng":134.719028,"zip":"6728021"},{"town":"白浜町宇佐崎中二丁目","koaza":"","lat":34.781864,"lng":134.714401,"zip":"6728021"},{"town":"白浜町宇佐崎中三丁目","koaza":"","lat":34.782665,"lng":134.709973,"zip":"6728021"},{"town":"白浜町宇佐崎南二丁目","koaza":"","lat":34.780214,"lng":134.713016,"zip":"6728022"},{"town":"飾磨区妻鹿日田町","koaza":"","lat":34.777906,"lng":134.682259,"zip":"6728033"},{"town":"四郷町明田","koaza":"","lat":34.795267,"lng":134.731781,"zip":"6710245"},{"town":"八家","koaza":"","lat":34.781966,"lng":134.726073,"zip":"6728015"},{"town":"白浜町宇佐崎北一丁目","koaza":"","lat":34.786492,"lng":134.719882,"zip":"6728013"},{"town":"白浜町宇佐崎北二丁目","koaza":"","lat":34.788116,"lng":134.71691,"zip":"6728013"},{"town":"白浜町宇佐崎北三丁目","koaza":"","lat":34.789065,"lng":134.713861,"zip":"6728013"},{"town":"継","koaza":"","lat":34.796441,"lng":134.720758,"zip":"6728004"},{"town":"東山","koaza":"","lat":34.789964,"lng":134.723873,"zip":"6728014"},{"town":"白浜町寺家二丁目","koaza":"","lat":34.793042,"lng":134.710956,"zip":"6728012"},{"town":"白浜町寺家一丁目","koaza":"","lat":34.790931,"lng":134.710188,"zip":"6728012"},{"town":"白浜町神田一丁目","koaza":"","lat":34.791518,"lng":134.706612,"zip":"6728011"},{"town":"白浜町神田二丁目","koaza":"","lat":34.79429,"lng":134.708167,"zip":"6728011"},{"town":"白浜町","koaza":"","lat":34.78338,"lng":134.701907,"zip":"6728023"},{"town":"飾磨区妻鹿東海町","koaza":"","lat":34.785115,"lng":134.693988,"zip":"6728032"},{"town":"飾磨区妻鹿","koaza":"","lat":34.790693,"lng":134.695063,"zip":"6728031"},{"town":"飾磨区下野田四丁目","koaza":"","lat":34.802372,"lng":134.684931,"zip":"6728044"},{"town":"飾磨区下野田三丁目","koaza":"","lat":34.801746,"lng":134.682371,"zip":"6728044"},{"town":"飾磨区下野田二丁目","koaza":"","lat":34.798782,"lng":134.680288,"zip":"6728044"},{"town":"飾磨区玉地一丁目","koaza":"","lat":34.800368,"lng":134.677921,"zip":"6728052"},{"town":"飾磨区玉地","koaza":"","lat":34.797325,"lng":134.675115,"zip":"6728052"},{"town":"飾磨区東堀","koaza":"","lat":34.795911,"lng":134.67269,"zip":"6728054"},{"town":"飾磨区御幸","koaza":"","lat":34.796216,"lng":134.671262,"zip":"6728056"},{"town":"飾磨区中島","koaza":"","lat":34.785484,"lng":134.674115,"zip":"6728035"},{"town":"飾磨区宮","koaza":"","lat":34.794961,"lng":134.669944,"zip":"6728055"},{"town":"飾磨区大浜","koaza":"","lat":34.794634,"lng":134.667932,"zip":"6728062"},{"town":"飾磨区栄町","koaza":"","lat":34.79848,"lng":134.673593,"zip":"6728053"},{"town":"飾磨区須加","koaza":"","lat":34.792378,"lng":134.666186,"zip":"6728063"},{"town":"飾磨区天神","koaza":"","lat":34.795698,"lng":134.665706,"zip":"6728061"},{"town":"飾磨区今在家","koaza":"","lat":34.784944,"lng":134.651213,"zip":"6728079"},{"town":"飾磨区入船町","koaza":"","lat":34.791417,"lng":134.655447,"zip":"6728076"},{"town":"飾磨区思案橋","koaza":"","lat":34.797904,"lng":134.660344,"zip":"6728075"},{"town":"飾磨区構","koaza":"","lat":34.796649,"lng":134.657987,"zip":"6728071"},{"town":"飾磨区粕谷新町","koaza":"","lat":34.791936,"lng":134.649427,"zip":"6728077"},{"town":"飾磨区英賀","koaza":"","lat":34.797672,"lng":134.648244,"zip":"6728078"},{"town":"飾磨区西浜町三丁目","koaza":"","lat":34.796416,"lng":134.644878,"zip":"6728086"},{"town":"飾磨区中浜町二丁目","koaza":"","lat":34.801816,"lng":134.646882,"zip":"6728085"},{"town":"飾磨区西浜町一丁目","koaza":"","lat":34.799801,"lng":134.645651,"zip":"6728086"},{"town":"飾磨区西浜町二丁目","koaza":"","lat":34.798431,"lng":134.643561,"zip":"6728086"},{"town":"広畑区夢前町四丁目","koaza":"","lat":34.794123,"lng":134.642774,"zip":"6711122"},{"town":"広畑区夢前町三丁目","koaza":"","lat":34.797119,"lng":134.641096,"zip":"6711122"},{"town":"広畑区夢前町二丁目","koaza":"","lat":34.794315,"lng":134.638291,"zip":"6711122"},{"town":"広畑区夢前町一丁目","koaza":"","lat":34.796795,"lng":134.637569,"zip":"6711122"},{"town":"飾磨区英賀西町三丁目","koaza":"","lat":34.800466,"lng":134.641604,"zip":"6728088"},{"town":"広畑区東新町三丁目","koaza":"","lat":34.799388,"lng":134.638269,"zip":"6711121"},{"town":"広畑区末広町三丁目","koaza":"","lat":34.800807,"lng":134.637103,"zip":"6711115"},{"town":"広畑区本町六丁目","koaza":"","lat":34.801933,"lng":134.636853,"zip":"6711114"},{"town":"広畑区鶴町二丁目","koaza":"","lat":34.794075,"lng":134.63438,"zip":"6711124"},{"town":"広畑区長町二丁目","koaza":"","lat":34.796508,"lng":134.634382,"zip":"6711125"},{"town":"広畑区鶴町一丁目","koaza":"","lat":34.794052,"lng":134.631279,"zip":"6711124"},{"town":"広畑区長町一丁目","koaza":"","lat":34.796623,"lng":134.631284,"zip":"6711125"},{"town":"広畑区正門通四丁目","koaza":"","lat":34.795332,"lng":134.628924,"zip":"6711116"},{"town":"広畑区東新町二丁目","koaza":"","lat":34.798863,"lng":134.634332,"zip":"6711121"},{"town":"広畑区末広町二丁目","koaza":"","lat":34.800719,"lng":134.634064,"zip":"6711115"},{"town":"広畑区本町四丁目","koaza":"","lat":34.801868,"lng":134.634149,"zip":"6711114"},{"town":"広畑区東新町一丁目","koaza":"","lat":34.798818,"lng":134.631308,"zip":"6711121"},{"town":"広畑区末広町一丁目","koaza":"","lat":34.800274,"lng":134.63109,"zip":"6711115"},{"town":"広畑区正門通三丁目","koaza":"","lat":34.799056,"lng":134.628929,"zip":"6711116"},{"town":"広畑区本町二丁目","koaza":"","lat":34.801453,"lng":134.631653,"zip":"6711114"},{"town":"広畑区大町一丁目","koaza":"","lat":34.794059,"lng":134.626652,"zip":"6711155"},{"town":"広畑区吾妻町一丁目","koaza":"","lat":34.796533,"lng":134.626664,"zip":"6711154"},{"town":"広畑区大町二丁目","koaza":"","lat":34.794058,"lng":134.623996,"zip":"6711155"},{"town":"広畑区吾妻町二丁目","koaza":"","lat":34.796538,"lng":134.624001,"zip":"6711154"},{"town":"広畑区高浜町一丁目","koaza":"","lat":34.799207,"lng":134.626645,"zip":"6711153"},{"town":"広畑区高浜町二丁目","koaza":"","lat":34.799226,"lng":134.623996,"zip":"6711153"},{"town":"四郷町本郷","koaza":"","lat":34.808022,"lng":134.733227,"zip":"6710243"},{"town":"四郷町中鈴","koaza":"","lat":34.811323,"lng":134.726967,"zip":"6710242"},{"town":"四郷町上鈴","koaza":"","lat":34.813767,"lng":134.728509,"zip":"6710241"},{"town":"四郷町見野","koaza":"","lat":34.803822,"lng":134.728385,"zip":"6710244"},{"town":"四郷町坂元","koaza":"","lat":34.813251,"lng":134.723027,"zip":"6710246"},{"town":"奥山","koaza":"","lat":34.802531,"lng":134.716246,"zip":"6728003"},{"town":"北原","koaza":"","lat":34.800685,"lng":134.706935,"zip":"6728002"},{"town":"飾磨区堀川町","koaza":"","lat":34.808387,"lng":134.68843,"zip":"6728025"},{"town":"飾磨区阿成渡場","koaza":"","lat":34.795875,"lng":134.690451,"zip":"6728039"},{"town":"兼田","koaza":"","lat":34.804481,"lng":134.698989,"zip":"6728001"},{"town":"飾磨区阿成","koaza":"","lat":34.809516,"lng":134.694517,"zip":"6728037"},{"town":"南条二丁目","koaza":"","lat":34.81127,"lng":134.693056,"zip":"6700952"},{"town":"飾磨区上野田五丁目","koaza":"","lat":34.808115,"lng":134.690614,"zip":"6728043"},{"town":"北条梅原町","koaza":"","lat":34.81393,"lng":134.696482,"zip":"6700945"},{"town":"北条永良町","koaza":"","lat":34.816672,"lng":134.69647,"zip":"6700946"},{"town":"南条一丁目","koaza":"","lat":34.810527,"lng":134.690016,"zip":"6700952"},{"town":"南条三丁目","koaza":"","lat":34.809427,"lng":134.688835,"zip":"6700952"},{"town":"北条宮の町","koaza":"","lat":34.817856,"lng":134.692822,"zip":"6700948"},{"town":"庄田","koaza":"","lat":34.815867,"lng":134.690455,"zip":"6700951"},{"town":"南条","koaza":"","lat":34.813202,"lng":134.689917,"zip":"6700952"},{"town":"三条町一丁目","koaza":"","lat":34.811452,"lng":134.687754,"zip":"6700953"},{"town":"飾磨区上野田四丁目","koaza":"","lat":34.806191,"lng":134.68623,"zip":"6728043"},{"town":"飾磨区中野田四丁目","koaza":"","lat":34.804419,"lng":134.684,"zip":"6728045"},{"town":"三条町二丁目","koaza":"","lat":34.809614,"lng":134.686648,"zip":"6700953"},{"town":"飾磨区中野田三丁目","koaza":"","lat":34.80528,"lng":134.682805,"zip":"6728045"},{"town":"飾磨区上野田三丁目","koaza":"","lat":34.807547,"lng":134.684667,"zip":"6728043"},{"town":"飾磨区下野田一丁目","koaza":"","lat":34.801345,"lng":134.680748,"zip":"6728044"},{"town":"飾磨区清水三丁目","koaza":"","lat":34.802442,"lng":134.679902,"zip":"6728051"},{"town":"飾磨区中野田二丁目","koaza":"","lat":34.80577,"lng":134.681243,"zip":"6728045"},{"town":"飾磨区中野田一丁目","koaza":"","lat":34.806017,"lng":134.679568,"zip":"6728045"},{"town":"飾磨区上野田一丁目","koaza":"","lat":34.808335,"lng":134.680876,"zip":"6728043"},{"town":"飾磨区清水","koaza":"","lat":34.801249,"lng":134.675572,"zip":"6728051"},{"town":"飾磨区清水二丁目","koaza":"","lat":34.802833,"lng":134.678273,"zip":"6728051"},{"town":"飾磨区都倉三丁目","koaza":"","lat":34.804336,"lng":134.677282,"zip":"6728046"},{"town":"飾磨区清水一丁目","koaza":"","lat":34.802871,"lng":134.67659,"zip":"6728051"},{"town":"飾磨区都倉二丁目","koaza":"","lat":34.805613,"lng":134.677471,"zip":"6728046"},{"town":"飾磨区都倉一丁目","koaza":"","lat":34.807581,"lng":134.678531,"zip":"6728046"},{"town":"飾磨区上野田二丁目","koaza":"","lat":34.808581,"lng":134.683609,"zip":"6728043"},{"town":"飾磨区三宅二丁目","koaza":"","lat":34.809996,"lng":134.682451,"zip":"6728048"},{"town":"飾磨区野田町","koaza":"","lat":34.811651,"lng":134.684575,"zip":"6728040"},{"town":"佃町","koaza":"","lat":34.814236,"lng":134.685695,"zip":"6728049"},{"town":"飾磨区亀山","koaza":"","lat":34.809679,"lng":134.679002,"zip":"6728047"},{"town":"飾磨区三宅三丁目","koaza":"","lat":34.810264,"lng":134.68083,"zip":"6728048"},{"town":"飾磨区三宅一丁目","koaza":"","lat":34.813085,"lng":134.68159,"zip":"6728048"},{"town":"栗山町","koaza":"","lat":34.815804,"lng":134.68232,"zip":"6700954"},{"town":"安田三丁目","koaza":"","lat":34.817093,"lng":134.683883,"zip":"6700955"},{"town":"手柄一丁目","koaza":"","lat":34.815346,"lng":134.680118,"zip":"6700972"},{"town":"手柄二丁目","koaza":"","lat":34.812607,"lng":134.677834,"zip":"6700972"},{"town":"亀山","koaza":"","lat":34.810037,"lng":134.676655,"zip":"6700973"},{"town":"飾磨区恵美酒","koaza":"","lat":34.802515,"lng":134.672927,"zip":"6728057"},{"town":"飾磨区細江","koaza":"","lat":34.789364,"lng":134.660929,"zip":"6728064"},{"town":"飾磨区加茂南","koaza":"","lat":34.799359,"lng":134.663429,"zip":"6728069"},{"town":"飾磨区加茂東","koaza":"","lat":34.802464,"lng":134.664348,"zip":"6728070"},{"town":"飾磨区構一丁目","koaza":"","lat":34.805735,"lng":134.665639,"zip":"6728071"},{"town":"飾磨区加茂北","koaza":"","lat":34.804257,"lng":134.661835,"zip":"6728073"},{"town":"亀山一丁目","koaza":"","lat":34.808121,"lng":134.671952,"zip":"6700973"},{"town":"飯田一丁目","koaza":"","lat":34.809423,"lng":134.669552,"zip":"6700974"},{"town":"手柄","koaza":"","lat":34.815812,"lng":134.67742,"zip":"6700972"},{"town":"飯田三丁目","koaza":"","lat":34.81292,"lng":134.67413,"zip":"6700974"},{"town":"飾磨区構三丁目","koaza":"","lat":34.809249,"lng":134.666777,"zip":"6728071"},{"town":"飾磨区構五丁目","koaza":"","lat":34.812796,"lng":134.66798,"zip":"6728071"},{"town":"玉手三丁目","koaza":"","lat":34.815062,"lng":134.66182,"zip":"6700985"},{"town":"飾磨区構四丁目","koaza":"","lat":34.81094,"lng":134.663972,"zip":"6728071"},{"town":"中地南町","koaza":"","lat":34.815285,"lng":134.667059,"zip":"6700975"},{"town":"町坪南町","koaza":"","lat":34.816172,"lng":134.663567,"zip":"6700989"},{"town":"飾磨区加茂","koaza":"","lat":34.801387,"lng":134.660033,"zip":"6728074"},{"town":"飾磨区蓼野町","koaza":"","lat":34.806055,"lng":134.661059,"zip":"6728072"},{"town":"飾磨区今在家六丁目","koaza":"","lat":34.80564,"lng":134.656586,"zip":"6728079"},{"town":"飾磨区今在家七丁目","koaza":"","lat":34.807651,"lng":134.657555,"zip":"6728079"},{"town":"飾磨区今在家三丁目","koaza":"","lat":34.802777,"lng":134.655909,"zip":"6728079"},{"town":"飾磨区今在家二丁目","koaza":"","lat":34.801514,"lng":134.654289,"zip":"6728079"},{"town":"飾磨区今在家五丁目","koaza":"","lat":34.80639,"lng":134.653789,"zip":"6728079"},{"town":"飾磨区今在家四丁目","koaza":"","lat":34.804128,"lng":134.651765,"zip":"6728079"},{"town":"飾磨区中浜町一丁目","koaza":"","lat":34.804389,"lng":134.648227,"zip":"6728085"},{"town":"飾磨区城南町三丁目","koaza":"","lat":34.807204,"lng":134.649753,"zip":"6728083"},{"town":"飾磨区構二丁目","koaza":"","lat":34.808233,"lng":134.662405,"zip":"6728071"},{"town":"玉手一丁目","koaza":"","lat":34.811776,"lng":134.659775,"zip":"6700985"},{"town":"飾磨区今在家北一丁目","koaza":"","lat":34.809631,"lng":134.657434,"zip":"6728090"},{"town":"飾磨区今在家北二丁目","koaza":"","lat":34.80827,"lng":134.654296,"zip":"6728090"},{"town":"玉手四丁目","koaza":"","lat":34.81412,"lng":134.656998,"zip":"6700985"},{"town":"玉手","koaza":"","lat":34.8169,"lng":134.659892,"zip":"6700985"},{"town":"飾磨区高町","koaza":"","lat":34.815966,"lng":134.655461,"zip":"6728081"},{"town":"飾磨区高町二丁目","koaza":"","lat":34.813994,"lng":134.65379,"zip":"6728081"},{"town":"飾磨区高町一丁目","koaza":"","lat":34.811518,"lng":134.653438,"zip":"6728081"},{"town":"飾磨区中浜町三丁目","koaza":"","lat":34.807964,"lng":134.6518,"zip":"6728085"},{"town":"飾磨区英賀東町二丁目","koaza":"","lat":34.801565,"lng":134.643859,"zip":"6728087"},{"town":"飾磨区英賀清水町三丁目","koaza":"","lat":34.806509,"lng":134.647247,"zip":"6728084"},{"town":"飾磨区英賀東町一丁目","koaza":"","lat":34.803828,"lng":134.644701,"zip":"6728087"},{"town":"飾磨区英賀清水町二丁目","koaza":"","lat":34.806099,"lng":134.644517,"zip":"6728084"},{"town":"広畑区本町五丁目","koaza":"","lat":34.802762,"lng":134.636096,"zip":"6711114"},{"town":"飾磨区英賀西町一丁目","koaza":"","lat":34.80348,"lng":134.641663,"zip":"6728088"},{"town":"飾磨区英賀西町二丁目","koaza":"","lat":34.80244,"lng":134.639678,"zip":"6728088"},{"town":"飾磨区英賀宮町一丁目","koaza":"","lat":34.806028,"lng":134.642617,"zip":"6728080"},{"town":"飾磨区英賀宮町二丁目","koaza":"","lat":34.805483,"lng":134.640044,"zip":"6728080"},{"town":"飾磨区矢倉町一丁目","koaza":"","lat":34.808406,"lng":134.641886,"zip":"6728093"},{"town":"広畑区清水町三丁目","koaza":"","lat":34.803796,"lng":134.63573,"zip":"6711113"},{"town":"飾磨区矢倉町二丁目","koaza":"","lat":34.807694,"lng":134.638488,"zip":"6728093"},{"town":"飾磨区英賀宮台","koaza":"","lat":34.805539,"lng":134.636986,"zip":"6728089"},{"town":"飾磨区城南町二丁目","koaza":"","lat":34.809509,"lng":134.64817,"zip":"6728083"},{"town":"飾磨区英賀清水町一丁目","koaza":"","lat":34.808589,"lng":134.645479,"zip":"6728084"},{"town":"苫編南二丁目","koaza":"","lat":34.814893,"lng":134.650305,"zip":"6700987"},{"town":"飾磨区付城二丁目","koaza":"","lat":34.811589,"lng":134.650752,"zip":"6728082"},{"town":"飾磨区付城","koaza":"","lat":34.814416,"lng":134.646639,"zip":"6728082"},{"town":"飾磨区城南町一丁目","koaza":"","lat":34.811837,"lng":134.647243,"zip":"6728083"},{"town":"飾磨区英賀春日町一丁目","koaza":"","lat":34.810508,"lng":134.645003,"zip":"6728092"},{"town":"飾磨区英賀保駅前町","koaza":"","lat":34.812459,"lng":134.644915,"zip":"6728091"},{"town":"飾磨区富士見ケ丘町","koaza":"","lat":34.81647,"lng":134.642654,"zip":"6728098"},{"town":"飾磨区英賀春日町二丁目","koaza":"","lat":34.810917,"lng":134.642366,"zip":"6728092"},{"town":"飾磨区鎌倉町","koaza":"","lat":34.810066,"lng":134.639676,"zip":"6728094"},{"town":"飾磨区若宮町","koaza":"","lat":34.809568,"lng":134.637033,"zip":"6728095"},{"town":"飾磨区山崎台","koaza":"","lat":34.812083,"lng":134.635373,"zip":"6728096"},{"town":"広畑区本町三丁目","koaza":"","lat":34.802793,"lng":134.634051,"zip":"6711114"},{"town":"広畑区本町一丁目","koaza":"","lat":34.802561,"lng":134.631326,"zip":"6711114"},{"town":"広畑区清水町二丁目","koaza":"","lat":34.803929,"lng":134.634045,"zip":"6711113"},{"town":"広畑区北野町二丁目","koaza":"","lat":34.805947,"lng":134.634137,"zip":"6711112"},{"town":"広畑区清水町一丁目","koaza":"","lat":34.804074,"lng":134.631325,"zip":"6711113"},{"town":"広畑区正門通二丁目","koaza":"","lat":34.802735,"lng":134.62893,"zip":"6711116"},{"town":"広畑区北野町一丁目","koaza":"","lat":34.806237,"lng":134.631323,"zip":"6711112"},{"town":"広畑区正門通一丁目","koaza":"","lat":34.806596,"lng":134.628935,"zip":"6711116"},{"town":"広畑区小松町一丁目","koaza":"","lat":34.80282,"lng":134.627027,"zip":"6711152"},{"town":"広畑区早瀬町一丁目","koaza":"","lat":34.806476,"lng":134.627387,"zip":"6711151"},{"town":"広畑区小松町二丁目","koaza":"","lat":34.802342,"lng":134.624385,"zip":"6711152"},{"town":"広畑区早瀬町二丁目","koaza":"","lat":34.806497,"lng":134.624406,"zip":"6711151"},{"town":"広畑区北河原町","koaza":"","lat":34.806642,"lng":134.635326,"zip":"6711111"},{"town":"広畑区西夢前台八丁目","koaza":"","lat":34.81238,"lng":134.633834,"zip":"6711103"},{"town":"広畑区西夢前台七丁目","koaza":"","lat":34.815749,"lng":134.63469,"zip":"6711103"},{"town":"御国野町御着","koaza":"","lat":34.817236,"lng":134.737471,"zip":"6710232"},{"town":"御国野町西御着","koaza":"","lat":34.81699,"lng":134.730756,"zip":"6710233"},{"town":"御国野町国分寺","koaza":"","lat":34.82372,"lng":134.734068,"zip":"6710234"},{"town":"四郷町東阿保","koaza":"","lat":34.813037,"lng":134.709426,"zip":"6710247"},{"town":"四郷町山脇","koaza":"","lat":34.818965,"lng":134.721989,"zip":"6710248"},{"town":"花田町一本松","koaza":"","lat":34.825079,"lng":134.722832,"zip":"6710253"},{"town":"京町一丁目","koaza":"","lat":34.828828,"lng":134.714301,"zip":"6700824"},{"town":"若菜町一丁目","koaza":"","lat":34.827564,"lng":134.713065,"zip":"6700941"},{"town":"市川橋通一丁目","koaza":"","lat":34.828134,"lng":134.712774,"zip":"6700825"},{"town":"市川台一丁目","koaza":"","lat":34.830278,"lng":134.715911,"zip":"6700822"},{"town":"京町二丁目","koaza":"","lat":34.829404,"lng":134.712849,"zip":"6700824"},{"town":"京町三丁目","koaza":"","lat":34.830124,"lng":134.711435,"zip":"6700824"},{"town":"市川台二丁目","koaza":"","lat":34.832465,"lng":134.715546,"zip":"6700822"},{"town":"市川台三丁目","koaza":"","lat":34.833996,"lng":134.715013,"zip":"6700822"},{"town":"宮上町一丁目","koaza":"","lat":34.831331,"lng":134.712831,"zip":"6700823"},{"town":"宮上町二丁目","koaza":"","lat":34.834469,"lng":134.713291,"zip":"6700823"},{"town":"日出町三丁目","koaza":"","lat":34.825084,"lng":134.712546,"zip":"6700942"},{"town":"市之郷町四丁目","koaza":"","lat":34.825876,"lng":134.70766,"zip":"6700943"},{"town":"市之郷","koaza":"","lat":34.824708,"lng":134.707385,"zip":"6700943"},{"town":"阿保","koaza":"","lat":34.819712,"lng":134.706239,"zip":"6700944"},{"town":"日出町二丁目","koaza":"","lat":34.826324,"lng":134.712498,"zip":"6700942"},{"town":"日出町一丁目","koaza":"","lat":34.82717,"lng":134.712483,"zip":"6700942"},{"town":"市之郷町一丁目","koaza":"","lat":34.827882,"lng":134.709476,"zip":"6700943"},{"town":"大善町","koaza":"","lat":34.830207,"lng":134.709542,"zip":"6700833"},{"town":"市之郷町三丁目","koaza":"","lat":34.826108,"lng":134.709667,"zip":"6700943"},{"town":"市之郷町二丁目","koaza":"","lat":34.827125,"lng":134.709512,"zip":"6700943"},{"town":"市川橋通二丁目","koaza":"","lat":34.829033,"lng":134.709117,"zip":"6700825"},{"town":"宮西町一丁目","koaza":"","lat":34.82859,"lng":134.706871,"zip":"6700837"},{"town":"若菜町二丁目","koaza":"","lat":34.828595,"lng":134.70861,"zip":"6700941"},{"town":"宮西町二丁目","koaza":"","lat":34.828371,"lng":134.705554,"zip":"6700837"},{"town":"神和町","koaza":"","lat":34.830992,"lng":134.707666,"zip":"6700834"},{"town":"双葉町","koaza":"","lat":34.832059,"lng":134.710505,"zip":"6700832"},{"town":"楠町","koaza":"","lat":34.834677,"lng":134.711691,"zip":"6700826"},{"town":"城見町","koaza":"","lat":34.833095,"lng":134.708886,"zip":"6700831"},{"town":"城東町清水","koaza":"","lat":34.835336,"lng":134.709284,"zip":"6700843"},{"town":"城東町京口台","koaza":"","lat":34.833295,"lng":134.706411,"zip":"6700845"},{"town":"城東町野田","koaza":"","lat":34.834374,"lng":134.707074,"zip":"6700844"},{"town":"宮西町三丁目","koaza":"","lat":34.827628,"lng":134.705555,"zip":"6700837"},{"town":"宮西町四丁目","koaza":"","lat":34.826583,"lng":134.705211,"zip":"6700837"},{"town":"神屋町三丁目","koaza":"","lat":34.828218,"lng":134.702501,"zip":"6700836"},{"town":"神屋町二丁目","koaza":"","lat":34.829707,"lng":134.704493,"zip":"6700836"},{"town":"幸町","koaza":"","lat":34.831538,"lng":134.705343,"zip":"6700835"},{"town":"神屋町五丁目","koaza":"","lat":34.82997,"lng":134.701897,"zip":"6700836"},{"town":"北条口五丁目","koaza":"","lat":34.830383,"lng":134.700657,"zip":"6700935"},{"town":"平野町","koaza":"","lat":34.831226,"lng":134.699391,"zip":"6700933"},{"town":"神屋町四丁目","koaza":"","lat":34.83223,"lng":134.703432,"zip":"6700836"},{"town":"下寺町","koaza":"","lat":34.832446,"lng":134.7016,"zip":"6700932"},{"town":"国府寺町","koaza":"","lat":34.834667,"lng":134.702027,"zip":"6700852"},{"town":"京口町","koaza":"","lat":34.834584,"lng":134.704284,"zip":"6700851"},{"town":"五軒邸一丁目","koaza":"","lat":34.835581,"lng":134.700026,"zip":"6700854"},{"town":"安田四丁目","koaza":"","lat":34.817757,"lng":134.686298,"zip":"6700955"},{"town":"北条一丁目","koaza":"","lat":34.822358,"lng":134.694234,"zip":"6700947"},{"town":"三左衛門堀西の町","koaza":"","lat":34.818692,"lng":134.688667,"zip":"6700940"},{"town":"豊沢町","koaza":"","lat":34.823498,"lng":134.689979,"zip":"6700964"},{"town":"東延末三丁目","koaza":"","lat":34.821525,"lng":134.688266,"zip":"6700965"},{"town":"南駅前町","koaza":"","lat":34.825315,"lng":134.691992,"zip":"6700962"},{"town":"神屋町","koaza":"","lat":34.826435,"lng":134.700197,"zip":"6700836"},{"town":"神屋町六丁目","koaza":"","lat":34.828165,"lng":134.699776,"zip":"6700836"},{"town":"朝日町","koaza":"","lat":34.827646,"lng":134.696779,"zip":"6700934"},{"town":"北条口四丁目","koaza":"","lat":34.829996,"lng":134.699102,"zip":"6700935"},{"town":"北条口三丁目","koaza":"","lat":34.828921,"lng":134.697969,"zip":"6700935"},{"town":"北条","koaza":"","lat":34.822141,"lng":134.698441,"zip":"6700947"},{"town":"北条口一丁目","koaza":"","lat":34.827896,"lng":134.695192,"zip":"6700935"},{"town":"東駅前町","koaza":"","lat":34.828631,"lng":134.693486,"zip":"6700926"},{"town":"北条口二丁目","koaza":"","lat":34.829459,"lng":134.695653,"zip":"6700935"},{"town":"古二階町","koaza":"","lat":34.830551,"lng":134.69665,"zip":"6700936"},{"town":"元塩町","koaza":"","lat":34.831675,"lng":134.696746,"zip":"6700937"},{"town":"坂田町","koaza":"","lat":34.833034,"lng":134.699327,"zip":"6700931"},{"town":"総社本町","koaza":"","lat":34.832998,"lng":134.696641,"zip":"6700015"},{"town":"大黒壱丁町","koaza":"","lat":34.834487,"lng":134.699505,"zip":"6700853"},{"town":"駅前町","koaza":"","lat":34.828101,"lng":134.691438,"zip":"6700927"},{"town":"亀井町","koaza":"","lat":34.829724,"lng":134.692941,"zip":"6700925"},{"town":"紺屋町","koaza":"","lat":34.830313,"lng":134.69339,"zip":"6700924"},{"town":"呉服町","koaza":"","lat":34.830915,"lng":134.693138,"zip":"6700923"},{"town":"二階町","koaza":"","lat":34.831526,"lng":134.693319,"zip":"6700922"},{"town":"綿町","koaza":"","lat":34.832304,"lng":134.693483,"zip":"6700921"},{"town":"白銀町","koaza":"","lat":34.83068,"lng":134.690687,"zip":"6700902"},{"town":"立町","koaza":"","lat":34.830882,"lng":134.689747,"zip":"6700903"},{"town":"南町","koaza":"","lat":34.829167,"lng":134.689649,"zip":"6700912"},{"town":"西駅前町","koaza":"","lat":34.828722,"lng":134.688132,"zip":"6700913"},{"town":"豆腐町","koaza":"","lat":34.827202,"lng":134.688539,"zip":"6700914"},{"town":"西二階町","koaza":"","lat":34.832297,"lng":134.689772,"zip":"6700901"},{"town":"坂元町","koaza":"","lat":34.833463,"lng":134.687211,"zip":"6700016"},{"town":"上片町","koaza":"","lat":34.834953,"lng":134.685437,"zip":"6700041"},{"town":"安田二丁目","koaza":"","lat":34.819171,"lng":134.684412,"zip":"6700955"},{"town":"安田一丁目","koaza":"","lat":34.820282,"lng":134.684966,"zip":"6700955"},{"town":"東延末五丁目","koaza":"","lat":34.819225,"lng":134.681992,"zip":"6700965"},{"town":"東延末四丁目","koaza":"","lat":34.821339,"lng":134.684148,"zip":"6700965"},{"town":"南畝町二丁目","koaza":"","lat":34.825035,"lng":134.68775,"zip":"6700961"},{"town":"南畝町一丁目","koaza":"","lat":34.826648,"lng":134.686565,"zip":"6700961"},{"town":"東延末二丁目","koaza":"","lat":34.822342,"lng":134.685237,"zip":"6700965"},{"town":"東延末一丁目","koaza":"","lat":34.824165,"lng":134.684411,"zip":"6700965"},{"town":"東延末","koaza":"","lat":34.82031,"lng":134.680584,"zip":"6700965"},{"town":"延末一丁目","koaza":"","lat":34.823514,"lng":134.682105,"zip":"6700966"},{"town":"高尾町","koaza":"","lat":34.828406,"lng":134.684479,"zip":"6700915"},{"town":"南畝町","koaza":"","lat":34.827097,"lng":134.683942,"zip":"6700961"},{"town":"久保町","koaza":"","lat":34.828813,"lng":134.686573,"zip":"6700916"},{"town":"忍町","koaza":"","lat":34.829989,"lng":134.686346,"zip":"6700917"},{"town":"十二所前町","koaza":"","lat":34.830684,"lng":134.687153,"zip":"6700911"},{"town":"塩町","koaza":"","lat":34.831394,"lng":134.687275,"zip":"6700904"},{"town":"延末","koaza":"","lat":34.822754,"lng":134.679081,"zip":"6700966"},{"town":"福沢町","koaza":"","lat":34.830565,"lng":134.683226,"zip":"6700992"},{"town":"花影町一丁目","koaza":"","lat":34.831369,"lng":134.681685,"zip":"6700047"},{"town":"神田町一丁目","koaza":"","lat":34.830488,"lng":134.680997,"zip":"6700991"},{"town":"神田町二丁目","koaza":"","lat":34.830986,"lng":134.680047,"zip":"6700991"},{"town":"花影町二丁目","koaza":"","lat":34.83181,"lng":134.68045,"zip":"6700047"},{"town":"神田町三丁目","koaza":"","lat":34.831217,"lng":134.678935,"zip":"6700991"},{"town":"魚町","koaza":"","lat":34.832148,"lng":134.687246,"zip":"6700905"},{"town":"福中町","koaza":"","lat":34.832974,"lng":134.686603,"zip":"6700017"},{"town":"博労町","koaza":"","lat":34.832821,"lng":134.684464,"zip":"6700906"},{"town":"東雲町一丁目","koaza":"","lat":34.832289,"lng":134.682563,"zip":"6700046"},{"town":"片田町","koaza":"","lat":34.833142,"lng":134.682854,"zip":"6700045"},{"town":"地内町","koaza":"","lat":34.833893,"lng":134.68308,"zip":"6700044"},{"town":"米田町","koaza":"","lat":34.835063,"lng":134.684873,"zip":"6700042"},{"town":"龍野町一丁目","koaza":"","lat":34.836001,"lng":134.684839,"zip":"6700032"},{"town":"小姓町","koaza":"","lat":34.835205,"lng":134.683562,"zip":"6700043"},{"town":"東雲町二丁目","koaza":"","lat":34.832763,"lng":134.680892,"zip":"6700046"},{"town":"船橋町二丁目","koaza":"","lat":34.833663,"lng":134.681276,"zip":"6700048"},{"town":"花影町三丁目","koaza":"","lat":34.832124,"lng":134.679396,"zip":"6700047"},{"town":"東雲町三丁目","koaza":"","lat":34.832976,"lng":134.679864,"zip":"6700046"},{"town":"船橋町三丁目","koaza":"","lat":34.83401,"lng":134.680282,"zip":"6700048"},{"town":"船橋町四丁目","koaza":"","lat":34.834231,"lng":134.679425,"zip":"6700048"},{"town":"元町","koaza":"","lat":34.835122,"lng":134.681948,"zip":"6700049"},{"town":"船丘町","koaza":"","lat":34.835138,"lng":134.680222,"zip":"6700034"},{"town":"千代田町","koaza":"","lat":34.828958,"lng":134.679726,"zip":"6700993"},{"town":"神田町四丁目","koaza":"","lat":34.83154,"lng":134.678044,"zip":"6700991"},{"town":"定元町","koaza":"","lat":34.830652,"lng":134.678632,"zip":"6700994"},{"town":"土山一丁目","koaza":"","lat":34.830328,"lng":134.675432,"zip":"6700996"},{"town":"花影町四丁目","koaza":"","lat":34.832332,"lng":134.67856,"zip":"6700047"},{"town":"東雲町四丁目","koaza":"","lat":34.83336,"lng":134.678916,"zip":"6700046"},{"town":"東雲町五丁目","koaza":"","lat":34.833754,"lng":134.677727,"zip":"6700046"},{"town":"船橋町五丁目","koaza":"","lat":34.834716,"lng":134.678156,"zip":"6700048"},{"town":"土山東の町","koaza":"","lat":34.832514,"lng":134.676581,"zip":"6700995"},{"town":"東雲町六丁目","koaza":"","lat":34.834175,"lng":134.676579,"zip":"6700046"},{"town":"船橋町六丁目","koaza":"","lat":34.835095,"lng":134.677013,"zip":"6700048"},{"town":"琴岡町","koaza":"","lat":34.835612,"lng":134.6782,"zip":"6700035"},{"town":"南車崎一丁目","koaza":"","lat":34.834837,"lng":134.674468,"zip":"6700053"},{"town":"飯田","koaza":"","lat":34.816991,"lng":134.671159,"zip":"6700974"},{"town":"中地","koaza":"","lat":34.819365,"lng":134.668183,"zip":"6700976"},{"town":"西延末","koaza":"","lat":34.82352,"lng":134.674237,"zip":"6700971"},{"town":"土山三丁目","koaza":"","lat":34.833476,"lng":134.67381,"zip":"6700996"},{"town":"土山二丁目","koaza":"","lat":34.831142,"lng":134.672579,"zip":"6700996"},{"town":"土山四丁目","koaza":"","lat":34.83231,"lng":134.669193,"zip":"6700996"},{"town":"土山五丁目","koaza":"","lat":34.83459,"lng":134.670369,"zip":"6700996"},{"town":"土山六丁目","koaza":"","lat":34.833329,"lng":134.666358,"zip":"6700996"},{"town":"町坪","koaza":"","lat":34.821822,"lng":134.658378,"zip":"6700984"},{"town":"岡田","koaza":"","lat":34.825816,"lng":134.667416,"zip":"6700982"},{"town":"井ノ口","koaza":"","lat":34.825518,"lng":134.660922,"zip":"6700983"},{"town":"苫編","koaza":"","lat":34.81947,"lng":134.649705,"zip":"6700986"},{"town":"飾磨区山崎","koaza":"","lat":34.815565,"lng":134.638832,"zip":"6728097"},{"town":"広畑区蒲田一丁目","koaza":"","lat":34.821231,"lng":134.640226,"zip":"6711102"},{"town":"広畑区西夢前台六丁目","koaza":"","lat":34.819642,"lng":134.637614,"zip":"6711103"},{"town":"広畑区蒲田二丁目","koaza":"","lat":34.824126,"lng":134.641232,"zip":"6711102"},{"town":"広畑区蒲田三丁目","koaza":"","lat":34.826728,"lng":134.644222,"zip":"6711102"},{"town":"広畑区蒲田四丁目","koaza":"","lat":34.8274,"lng":134.641086,"zip":"6711102"},{"town":"広畑区蒲田五丁目","koaza":"","lat":34.830061,"lng":134.643018,"zip":"6711102"},{"town":"広畑区城山町","koaza":"","lat":34.82815,"lng":134.63716,"zip":"6711108"},{"town":"広畑区西夢前台五丁目","koaza":"","lat":34.827212,"lng":134.638419,"zip":"6711103"},{"town":"網干区網干浜","koaza":"","lat":34.767918,"lng":134.599688,"zip":"6711236"},{"town":"網干区浜田","koaza":"","lat":34.77284,"lng":134.575295,"zip":"6711242"},{"town":"大津区勘兵衛町五丁目","koaza":"","lat":34.780858,"lng":134.611258,"zip":"6711132"},{"town":"大津区勘兵衛町三丁目","koaza":"","lat":34.786863,"lng":134.614819,"zip":"6711132"},{"town":"大津区勘兵衛町一丁目","koaza":"","lat":34.790618,"lng":134.61801,"zip":"6711132"},{"town":"大津区天神町二丁目","koaza":"","lat":34.794077,"lng":134.616299,"zip":"6711131"},{"town":"大津区天神町一丁目","koaza":"","lat":34.796747,"lng":134.615854,"zip":"6711131"},{"town":"広畑区高浜町四丁目","koaza":"","lat":34.799271,"lng":134.618865,"zip":"6711153"},{"town":"大津区勘兵衛町四丁目","koaza":"","lat":34.785263,"lng":134.609686,"zip":"6711132"},{"town":"大津区勘兵衛町二丁目","koaza":"","lat":34.78942,"lng":134.612024,"zip":"6711132"},{"town":"大津区真砂町","koaza":"","lat":34.788448,"lng":134.606669,"zip":"6711134"},{"town":"大津区恵美酒町二丁目","koaza":"","lat":34.792884,"lng":134.610538,"zip":"6711136"},{"town":"大津区新町二丁目","koaza":"","lat":34.791424,"lng":134.605408,"zip":"6711135"},{"town":"大津区恵美酒町一丁目","koaza":"","lat":34.794638,"lng":134.609579,"zip":"6711136"},{"town":"大津区新町一丁目","koaza":"","lat":34.792964,"lng":134.60498,"zip":"6711135"},{"town":"大津区吉美","koaza":"","lat":34.784356,"lng":134.603725,"zip":"6711133"},{"town":"網干区大江島古川町","koaza":"","lat":34.787979,"lng":134.59619,"zip":"6711233"},{"town":"網干区大江島寺前町","koaza":"","lat":34.790161,"lng":134.59527,"zip":"6711232"},{"town":"網干区新在家","koaza":"","lat":34.779391,"lng":134.594421,"zip":"6711234"},{"town":"網干区北新在家","koaza":"","lat":34.789189,"lng":134.593033,"zip":"6711235"},{"town":"網干区垣内東町","koaza":"","lat":34.789575,"lng":134.590519,"zip":"6711252"},{"town":"大津区平松","koaza":"","lat":34.793335,"lng":134.600693,"zip":"6711145"},{"town":"網干区大江島","koaza":"","lat":34.785705,"lng":134.597191,"zip":"6711231"},{"town":"網干区垣内中町","koaza":"","lat":34.78964,"lng":134.588491,"zip":"6711253"},{"town":"網干区垣内北町","koaza":"","lat":34.793451,"lng":134.590221,"zip":"6711251"},{"town":"網干区垣内南町","koaza":"","lat":34.788643,"lng":134.585518,"zip":"6711255"},{"town":"網干区余子浜","koaza":"","lat":34.785118,"lng":134.585669,"zip":"6711254"},{"town":"網干区垣内西町","koaza":"","lat":34.790205,"lng":134.581183,"zip":"6711256"},{"town":"網干区垣内本町","koaza":"","lat":34.793308,"lng":134.585383,"zip":"6711257"},{"town":"網干区興浜","koaza":"","lat":34.775446,"lng":134.585326,"zip":"6711241"},{"town":"広畑区小松町四丁目","koaza":"","lat":34.803027,"lng":134.6185,"zip":"6711152"},{"town":"広畑区京見町","koaza":"","lat":34.812198,"lng":134.615271,"zip":"6711106"},{"town":"大津区北天満町","koaza":"","lat":34.801783,"lng":134.612648,"zip":"6711142"},{"town":"大津区天満","koaza":"","lat":34.799681,"lng":134.61172,"zip":"6711143"},{"town":"大津区大津町一丁目","koaza":"","lat":34.805517,"lng":134.610016,"zip":"6711146"},{"town":"大津区西土井","koaza":"","lat":34.805051,"lng":134.614334,"zip":"6711141"},{"town":"大津区大津町三丁目","koaza":"","lat":34.804065,"lng":134.606616,"zip":"6711146"},{"town":"大津区大津町四丁目","koaza":"","lat":34.805007,"lng":134.6035,"zip":"6711146"},{"town":"大津区長松","koaza":"","lat":34.798838,"lng":134.60372,"zip":"6711144"},{"town":"大津区大津町二丁目","koaza":"","lat":34.806703,"lng":134.606569,"zip":"6711146"},{"town":"勝原区勝原町","koaza":"","lat":34.805868,"lng":134.601437,"zip":"6711212"},{"town":"勝原区熊見","koaza":"","lat":34.812134,"lng":134.607729,"zip":"6711211"},{"town":"勝原区勝山町","koaza":"","lat":34.817407,"lng":134.605102,"zip":"6711202"},{"town":"網干区田井","koaza":"","lat":34.800839,"lng":134.598535,"zip":"6711221"},{"town":"網干区宮内","koaza":"","lat":34.799023,"lng":134.593533,"zip":"6711222"},{"town":"勝原区山戸","koaza":"","lat":34.811321,"lng":134.601052,"zip":"6711214"},{"town":"勝原区宮田","koaza":"","lat":34.809592,"lng":134.596312,"zip":"6711213"},{"town":"網干区坂上","koaza":"","lat":34.800043,"lng":134.587895,"zip":"6711223"},{"town":"網干区坂出","koaza":"","lat":34.805993,"lng":134.588131,"zip":"6711228"},{"town":"網干区福井","koaza":"","lat":34.806908,"lng":134.582122,"zip":"6711225"},{"town":"網干区津市場","koaza":"","lat":34.799644,"lng":134.581926,"zip":"6711224"},{"town":"網干区和久","koaza":"","lat":34.813309,"lng":134.586586,"zip":"6711227"},{"town":"網干区高田","koaza":"","lat":34.811784,"lng":134.580522,"zip":"6711226"},{"town":"余部区下余部","koaza":"","lat":34.799471,"lng":134.576666,"zip":"6711261"},{"town":"余部区上余部","koaza":"","lat":34.801248,"lng":134.571204,"zip":"6711262"},{"town":"余部区上川原","koaza":"","lat":34.804603,"lng":134.562871,"zip":"6711263"},{"town":"勝原区丁","koaza":"","lat":34.817405,"lng":134.598835,"zip":"6711204"},{"town":"勝原区下太田","koaza":"","lat":34.824182,"lng":134.598313,"zip":"6711201"},{"town":"勝原区朝日谷","koaza":"","lat":34.815526,"lng":134.591435,"zip":"6711204"},{"town":"勝原区大谷","koaza":"","lat":34.822295,"lng":134.586986,"zip":"6711205"},{"town":"飾東町大釜","koaza":"","lat":34.843215,"lng":134.791947,"zip":"6710203"},{"town":"飾東町北野","koaza":"","lat":34.85396,"lng":134.794715,"zip":"6710202"},{"town":"飾東町大釜新","koaza":"","lat":34.851055,"lng":134.783054,"zip":"6710204"},{"town":"飾東町清住","koaza":"","lat":34.847361,"lng":134.776706,"zip":"6710205"},{"town":"飾東町塩崎","koaza":"","lat":34.845323,"lng":134.760971,"zip":"6710211"},{"town":"飾東町山崎","koaza":"","lat":34.856361,"lng":134.759052,"zip":"6710207"},{"town":"飾東町小原新","koaza":"","lat":34.873448,"lng":134.800246,"zip":"6710201"},{"town":"飾東町小原","koaza":"","lat":34.867163,"lng":134.798934,"zip":"6710209"},{"town":"飾東町八重畑","koaza":"","lat":34.862443,"lng":134.774821,"zip":"6710208"},{"town":"豊富町神谷","koaza":"","lat":34.876685,"lng":134.775405,"zip":"6792121"},{"town":"山田町南山田","koaza":"","lat":34.900688,"lng":134.786428,"zip":"6792113"},{"town":"山田町牧野","koaza":"","lat":34.898173,"lng":134.767498,"zip":"6792114"},{"town":"山田町西山田","koaza":"","lat":34.899902,"lng":134.776692,"zip":"6792115"},{"town":"車崎二丁目","koaza":"","lat":34.838463,"lng":134.674504,"zip":"6700058"},{"town":"夢前町置本","koaza":"","lat":34.903017,"lng":134.671381,"zip":"6712122"},{"town":"飾東町庄","koaza":"","lat":34.844153,"lng":134.735594,"zip":"6710218"},{"town":"睦町","koaza":"","lat":34.83979,"lng":134.708344,"zip":"6700812"},{"town":"城東町五軒屋","koaza":"","lat":34.839649,"lng":134.70379,"zip":"6700849"},{"town":"福居町","koaza":"","lat":34.839239,"lng":134.701561,"zip":"6700855"},{"town":"八木町","koaza":"","lat":34.840411,"lng":134.701608,"zip":"6700006"},{"town":"同心町","koaza":"","lat":34.839842,"lng":134.702492,"zip":"6700856"},{"town":"堺町","koaza":"","lat":34.838143,"lng":134.700375,"zip":"6700014"},{"town":"竹田町","koaza":"","lat":34.839092,"lng":134.70071,"zip":"6700013"},{"town":"生野町","koaza":"","lat":34.840395,"lng":134.70098,"zip":"6700007"},{"town":"野里新町","koaza":"","lat":34.841611,"lng":134.705011,"zip":"6700862"},{"town":"野里東町","koaza":"","lat":34.843061,"lng":134.70523,"zip":"6700861"},{"town":"野里上野町二丁目","koaza":"","lat":34.848002,"lng":134.705651,"zip":"6700814"},{"town":"梅ケ枝町","koaza":"","lat":34.85075,"lng":134.705684,"zip":"6700817"},{"town":"野里中町","koaza":"","lat":34.842057,"lng":134.70392,"zip":"6700864"},{"town":"野里月丘町","koaza":"","lat":34.843523,"lng":134.704331,"zip":"6700865"},{"town":"野里東同心町","koaza":"","lat":34.841145,"lng":134.703652,"zip":"6700863"},{"town":"金屋町","koaza":"","lat":34.84118,"lng":134.701627,"zip":"6700005"},{"town":"橋之町","koaza":"","lat":34.8414,"lng":134.700745,"zip":"6700008"},{"town":"五郎右衛門邸","koaza":"","lat":34.842358,"lng":134.701865,"zip":"6700857"},{"town":"野里上野町一丁目","koaza":"","lat":34.846293,"lng":134.704884,"zip":"6700814"},{"town":"野里堀留町","koaza":"","lat":34.843421,"lng":134.702751,"zip":"6700866"},{"town":"野里慶雲寺前町","koaza":"","lat":34.84501,"lng":134.703562,"zip":"6700813"},{"town":"福本町","koaza":"","lat":34.842112,"lng":134.700869,"zip":"6700004"},{"town":"米屋町","koaza":"","lat":34.843,"lng":134.701079,"zip":"6700003"},{"town":"鍛冶町","koaza":"","lat":34.843002,"lng":134.700261,"zip":"6700002"},{"town":"野里寺町","koaza":"","lat":34.844895,"lng":134.701016,"zip":"6700867"},{"town":"河間町","koaza":"","lat":34.844131,"lng":134.69954,"zip":"6700001"},{"town":"野里大和町","koaza":"","lat":34.846999,"lng":134.7031,"zip":"6700815"},{"town":"大野町","koaza":"","lat":34.846855,"lng":134.702192,"zip":"6700868"},{"town":"威徳寺町","koaza":"","lat":34.849263,"lng":134.704044,"zip":"6700816"},{"town":"柳町","koaza":"","lat":34.839849,"lng":134.689429,"zip":"6700023"},{"town":"材木町","koaza":"","lat":34.838097,"lng":134.687377,"zip":"6700025"},{"town":"鷹匠町","koaza":"","lat":34.839534,"lng":134.687924,"zip":"6700024"},{"town":"鍵町","koaza":"","lat":34.841895,"lng":134.699472,"zip":"6700009"},{"town":"八代","koaza":"","lat":34.845767,"lng":134.697444,"zip":"6700872"},{"town":"坊主町","koaza":"","lat":34.843536,"lng":134.696717,"zip":"6700011"},{"town":"小利木町","koaza":"","lat":34.840447,"lng":134.691201,"zip":"6700022"},{"town":"八代東光寺町","koaza":"","lat":34.846928,"lng":134.693692,"zip":"6700873"},{"town":"八代本町一丁目","koaza":"","lat":34.843464,"lng":134.69116,"zip":"6700874"},{"town":"八代本町二丁目","koaza":"","lat":34.845178,"lng":134.692327,"zip":"6700874"},{"town":"南八代町","koaza":"","lat":34.843635,"lng":134.687863,"zip":"6700875"},{"town":"北八代一丁目","koaza":"","lat":34.847577,"lng":134.691201,"zip":"6700877"},{"town":"北八代二丁目","koaza":"","lat":34.849042,"lng":134.694091,"zip":"6700877"},{"town":"西八代町","koaza":"","lat":34.846506,"lng":134.688722,"zip":"6700876"},{"town":"新在家本町一丁目","koaza":"","lat":34.848612,"lng":134.688572,"zip":"6700092"},{"town":"農人町","koaza":"","lat":34.837227,"lng":134.682805,"zip":"6700038"},{"town":"景福寺前","koaza":"","lat":34.838224,"lng":134.684968,"zip":"6700027"},{"town":"岡町","koaza":"","lat":34.839544,"lng":134.685865,"zip":"6700026"},{"town":"柿山伏","koaza":"","lat":34.837898,"lng":134.681345,"zip":"6700037"},{"town":"山畑新田","koaza":"","lat":34.838675,"lng":134.678334,"zip":"6700036"},{"town":"山野井町","koaza":"","lat":34.841183,"lng":134.68752,"zip":"6700021"},{"town":"嵐山町","koaza":"","lat":34.841652,"lng":134.683862,"zip":"6700029"},{"town":"南新在家","koaza":"","lat":34.845003,"lng":134.685907,"zip":"6700093"},{"town":"新在家一丁目","koaza":"","lat":34.84368,"lng":134.683072,"zip":"6700095"},{"town":"新在家三丁目","koaza":"","lat":34.845014,"lng":134.683733,"zip":"6700095"},{"town":"岩端町","koaza":"","lat":34.841057,"lng":134.680595,"zip":"6700028"},{"town":"新在家二丁目","koaza":"","lat":34.844835,"lng":134.680954,"zip":"6700095"},{"town":"新在家中の町","koaza":"","lat":34.846471,"lng":134.684515,"zip":"6700094"},{"town":"新在家四丁目","koaza":"","lat":34.846428,"lng":134.682476,"zip":"6700095"},{"town":"新在家本町三丁目","koaza":"","lat":34.84938,"lng":134.686537,"zip":"6700092"},{"town":"新在家本町五丁目","koaza":"","lat":34.849313,"lng":134.684467,"zip":"6700092"},{"town":"西新在家二丁目","koaza":"","lat":34.849431,"lng":134.682535,"zip":"6700096"},{"town":"西新在家一丁目","koaza":"","lat":34.846758,"lng":134.681157,"zip":"6700096"},{"town":"西新在家三丁目","koaza":"","lat":34.849402,"lng":134.680784,"zip":"6700096"},{"town":"東辻井二丁目","koaza":"","lat":34.845925,"lng":134.679106,"zip":"6700084"},{"town":"東辻井三丁目","koaza":"","lat":34.849223,"lng":134.679132,"zip":"6700084"},{"town":"東辻井四丁目","koaza":"","lat":34.847155,"lng":134.676875,"zip":"6700084"},{"town":"車崎三丁目","koaza":"","lat":34.837909,"lng":134.673138,"zip":"6700058"},{"town":"神子岡前二丁目","koaza":"","lat":34.839081,"lng":134.672745,"zip":"6700055"},{"town":"神子岡前四丁目","koaza":"","lat":34.84115,"lng":134.671834,"zip":"6700055"},{"town":"名古山町","koaza":"","lat":34.843289,"lng":134.674584,"zip":"6700051"},{"town":"東辻井一丁目","koaza":"","lat":34.845391,"lng":134.676482,"zip":"6700084"},{"town":"神子岡前三丁目","koaza":"","lat":34.839803,"lng":134.670631,"zip":"6700055"},{"town":"北今宿一丁目","koaza":"","lat":34.843668,"lng":134.670735,"zip":"6700057"},{"town":"東今宿二丁目","koaza":"","lat":34.839723,"lng":134.668809,"zip":"6700056"},{"town":"東今宿四丁目","koaza":"","lat":34.840439,"lng":134.667275,"zip":"6700056"},{"town":"辻井六丁目","koaza":"","lat":34.849166,"lng":134.674726,"zip":"6700083"},{"town":"北今宿二丁目","koaza":"","lat":34.844394,"lng":134.669455,"zip":"6700057"},{"town":"辻井一丁目","koaza":"","lat":34.848085,"lng":134.671405,"zip":"6700083"},{"town":"辻井五丁目","koaza":"","lat":34.849684,"lng":134.671202,"zip":"6700083"},{"town":"東今宿五丁目","koaza":"","lat":34.841418,"lng":134.664975,"zip":"6700056"},{"town":"東今宿六丁目","koaza":"","lat":34.842725,"lng":134.666793,"zip":"6700056"},{"town":"北今宿三丁目","koaza":"","lat":34.845843,"lng":134.66736,"zip":"6700057"},{"town":"西今宿四丁目","koaza":"","lat":34.844838,"lng":134.663841,"zip":"6700061"},{"town":"西今宿八丁目","koaza":"","lat":34.847994,"lng":134.663682,"zip":"6700061"},{"town":"西今宿五丁目","koaza":"","lat":34.845932,"lng":134.661614,"zip":"6700061"},{"town":"西今宿七丁目","koaza":"","lat":34.849673,"lng":134.661334,"zip":"6700061"},{"town":"西今宿三丁目","koaza":"","lat":34.841872,"lng":134.661119,"zip":"6700061"},{"town":"西今宿一丁目","koaza":"","lat":34.840999,"lng":134.658494,"zip":"6700061"},{"town":"西今宿二丁目","koaza":"","lat":34.843636,"lng":134.658017,"zip":"6700061"},{"town":"西今宿六丁目","koaza":"","lat":34.846501,"lng":134.658005,"zip":"6700061"},{"town":"下手野二丁目","koaza":"","lat":34.846184,"lng":134.653052,"zip":"6700063"},{"town":"下手野一丁目","koaza":"","lat":34.841734,"lng":134.650635,"zip":"6700063"},{"town":"西夢前台三丁目","koaza":"","lat":34.841854,"lng":134.643283,"zip":"6712214"},{"town":"下手野三丁目","koaza":"","lat":34.84692,"lng":134.648979,"zip":"6700063"},{"town":"東夢前台三丁目","koaza":"","lat":34.846043,"lng":134.645861,"zip":"6700064"},{"town":"西夢前台二丁目","koaza":"","lat":34.84814,"lng":134.644931,"zip":"6712214"},{"town":"青山三丁目","koaza":"","lat":34.841961,"lng":134.640878,"zip":"6712222"},{"town":"青山二丁目","koaza":"","lat":34.846381,"lng":134.641106,"zip":"6712222"},{"town":"青山南一丁目","koaza":"","lat":34.841093,"lng":134.639474,"zip":"6712223"},{"town":"青山四丁目","koaza":"","lat":34.843742,"lng":134.637363,"zip":"6712222"},{"town":"青山一丁目","koaza":"","lat":34.847639,"lng":134.642966,"zip":"6712222"},{"town":"青山五丁目","koaza":"","lat":34.846667,"lng":134.639753,"zip":"6712222"},{"town":"青山六丁目","koaza":"","lat":34.848524,"lng":134.638527,"zip":"6712222"},{"town":"青山南四丁目","koaza":"","lat":34.840088,"lng":134.625204,"zip":"6712223"},{"town":"青山南二丁目","koaza":"","lat":34.841686,"lng":134.632341,"zip":"6712223"},{"town":"青山南三丁目","koaza":"","lat":34.841034,"lng":134.628893,"zip":"6712223"},{"town":"青山西二丁目","koaza":"","lat":34.84348,"lng":134.632544,"zip":"6712224"},{"town":"青山西三丁目","koaza":"","lat":34.842586,"lng":134.629509,"zip":"6712224"},{"town":"青山西一丁目","koaza":"","lat":34.84555,"lng":134.63235,"zip":"6712224"},{"town":"青山西四丁目","koaza":"","lat":34.84421,"lng":134.628338,"zip":"6712224"},{"town":"青山西五丁目","koaza":"","lat":34.841648,"lng":134.625317,"zip":"6712224"},{"town":"城見台四丁目","koaza":"","lat":34.857589,"lng":134.733911,"zip":"6700803"},{"town":"城見台一丁目","koaza":"","lat":34.856949,"lng":134.725942,"zip":"6700803"},{"town":"城見台三丁目","koaza":"","lat":34.860267,"lng":134.734655,"zip":"6700803"},{"town":"城見台二丁目","koaza":"","lat":34.85844,"lng":134.730322,"zip":"6700803"},{"town":"花田町高木","koaza":"","lat":34.845993,"lng":134.715642,"zip":"6710256"},{"town":"野里","koaza":"","lat":34.844955,"lng":134.708619,"zip":"6700811"},{"town":"増位新町一丁目","koaza":"","lat":34.855584,"lng":134.708467,"zip":"6700806"},{"town":"西中島","koaza":"","lat":34.854028,"lng":134.710264,"zip":"6700805"},{"town":"増位本町一丁目","koaza":"","lat":34.853931,"lng":134.705206,"zip":"6700807"},{"town":"増位本町二丁目","koaza":"","lat":34.856025,"lng":134.705965,"zip":"6700807"},{"town":"広峰一丁目","koaza":"","lat":34.853573,"lng":134.702012,"zip":"6700882"},{"town":"増位新町二丁目","koaza":"","lat":34.857658,"lng":134.709568,"zip":"6700806"},{"town":"保城","koaza":"","lat":34.856395,"lng":134.719778,"zip":"6700804"},{"town":"白国二丁目","koaza":"","lat":34.859062,"lng":134.707885,"zip":"6700808"},{"town":"白国三丁目","koaza":"","lat":34.862451,"lng":134.709298,"zip":"6700808"},{"town":"白国一丁目","koaza":"","lat":34.858754,"lng":134.705626,"zip":"6700808"},{"town":"白国五丁目","koaza":"","lat":34.863539,"lng":134.703164,"zip":"6700808"},{"town":"伊伝居","koaza":"","lat":34.849491,"lng":134.699996,"zip":"6700871"},{"town":"城北本町","koaza":"","lat":34.851035,"lng":134.695878,"zip":"6700884"},{"town":"広峰二丁目","koaza":"","lat":34.855828,"lng":134.701368,"zip":"6700882"},{"town":"城北新町一丁目","koaza":"","lat":34.853592,"lng":134.697187,"zip":"6700883"},{"town":"城北新町二丁目","koaza":"","lat":34.855808,"lng":134.696625,"zip":"6700883"},{"town":"八代宮前町","koaza":"","lat":34.85085,"lng":134.692865,"zip":"6700885"},{"town":"新在家本町二丁目","koaza":"","lat":34.851383,"lng":134.689446,"zip":"6700092"},{"town":"新在家本町四丁目","koaza":"","lat":34.852081,"lng":134.687385,"zip":"6700092"},{"town":"城北新町三丁目","koaza":"","lat":34.853865,"lng":134.693471,"zip":"6700883"},{"town":"八代緑ケ丘町","koaza":"","lat":34.853267,"lng":134.691184,"zip":"6700886"},{"town":"北新在家一丁目","koaza":"","lat":34.854152,"lng":134.688286,"zip":"6700091"},{"town":"峰南町","koaza":"","lat":34.859269,"lng":134.699536,"zip":"6700881"},{"town":"北平野南の町","koaza":"","lat":34.856911,"lng":134.693458,"zip":"6700887"},{"town":"北平野一丁目","koaza":"","lat":34.861315,"lng":134.697472,"zip":"6700893"},{"town":"北平野四丁目","koaza":"","lat":34.86353,"lng":134.698033,"zip":"6700893"},{"town":"北平野三丁目","koaza":"","lat":34.863861,"lng":134.692949,"zip":"6700893"},{"town":"北平野五丁目","koaza":"","lat":34.864725,"lng":134.694534,"zip":"6700893"},{"town":"上大野一丁目","koaza":"","lat":34.864976,"lng":134.690545,"zip":"6700896"},{"town":"北平野二丁目","koaza":"","lat":34.862032,"lng":134.692826,"zip":"6700893"},{"town":"上大野二丁目","koaza":"","lat":34.866913,"lng":134.688747,"zip":"6700896"},{"town":"北新在家三丁目","koaza":"","lat":34.857035,"lng":134.687157,"zip":"6700091"},{"town":"北新在家二丁目","koaza":"","lat":34.855406,"lng":134.686087,"zip":"6700091"},{"town":"新在家本町六丁目","koaza":"","lat":34.854032,"lng":134.682831,"zip":"6700092"},{"town":"辻井九丁目","koaza":"","lat":34.850647,"lng":134.677173,"zip":"6700083"},{"town":"田寺山手町","koaza":"","lat":34.855132,"lng":134.677766,"zip":"6700082"},{"town":"梅ケ谷町","koaza":"","lat":34.859525,"lng":134.688896,"zip":"6700894"},{"town":"北平野台町","koaza":"","lat":34.864101,"lng":134.686462,"zip":"6700895"},{"town":"田寺東四丁目","koaza":"","lat":34.859406,"lng":134.682906,"zip":"6700081"},{"town":"田寺東一丁目","koaza":"","lat":34.856962,"lng":134.679637,"zip":"6700081"},{"town":"上大野三丁目","koaza":"","lat":34.866569,"lng":134.684359,"zip":"6700896"},{"town":"御立東五丁目","koaza":"","lat":34.864713,"lng":134.681131,"zip":"6700072"},{"town":"御立東一丁目","koaza":"","lat":34.861882,"lng":134.679955,"zip":"6700072"},{"town":"田寺東三丁目","koaza":"","lat":34.860401,"lng":134.675409,"zip":"6700081"},{"town":"御立東四丁目","koaza":"","lat":34.864688,"lng":134.675727,"zip":"6700072"},{"town":"辻井八丁目","koaza":"","lat":34.853184,"lng":134.676349,"zip":"6700083"},{"town":"辻井七丁目","koaza":"","lat":34.851819,"lng":134.673625,"zip":"6700083"},{"town":"辻井四丁目","koaza":"","lat":34.85246,"lng":134.670024,"zip":"6700083"},{"town":"田寺一丁目","koaza":"","lat":34.85464,"lng":134.669775,"zip":"6700086"},{"town":"田寺二丁目","koaza":"","lat":34.856397,"lng":134.669867,"zip":"6700086"},{"town":"辻井二丁目","koaza":"","lat":34.849979,"lng":134.667595,"zip":"6700083"},{"town":"藤ケ台","koaza":"","lat":34.850486,"lng":134.658044,"zip":"6700066"},{"town":"辻井三丁目","koaza":"","lat":34.852869,"lng":134.667969,"zip":"6700083"},{"town":"山吹一丁目","koaza":"","lat":34.852092,"lng":134.664918,"zip":"6700085"},{"town":"田寺三丁目","koaza":"","lat":34.855108,"lng":134.666591,"zip":"6700086"},{"town":"田寺東二丁目","koaza":"","lat":34.857146,"lng":134.674682,"zip":"6700081"},{"town":"田寺七丁目","koaza":"","lat":34.858308,"lng":134.671267,"zip":"6700086"},{"town":"田寺六丁目","koaza":"","lat":34.858369,"lng":134.668565,"zip":"6700086"},{"town":"田寺八丁目","koaza":"","lat":34.860571,"lng":134.669844,"zip":"6700086"},{"town":"御立東二丁目","koaza":"","lat":34.862583,"lng":134.672424,"zip":"6700072"},{"town":"御立中一丁目","koaza":"","lat":34.863065,"lng":134.669479,"zip":"6700073"},{"town":"御立東三丁目","koaza":"","lat":34.866269,"lng":134.673491,"zip":"6700072"},{"town":"御立中二丁目","koaza":"","lat":34.865303,"lng":134.670941,"zip":"6700073"},{"town":"御立中三丁目","koaza":"","lat":34.865203,"lng":134.668643,"zip":"6700073"},{"town":"御立中六丁目","koaza":"","lat":34.867606,"lng":134.670736,"zip":"6700073"},{"town":"田寺五丁目","koaza":"","lat":34.858554,"lng":134.666244,"zip":"6700086"},{"town":"御立西二丁目","koaza":"","lat":34.861621,"lng":134.665862,"zip":"6700074"},{"town":"田寺四丁目","koaza":"","lat":34.85692,"lng":134.664341,"zip":"6700086"},{"town":"山吹二丁目","koaza":"","lat":34.85453,"lng":134.662656,"zip":"6700085"},{"town":"御立西一丁目","koaza":"","lat":34.85978,"lng":134.663241,"zip":"6700074"},{"town":"御立西三丁目","koaza":"","lat":34.861427,"lng":134.662159,"zip":"6700074"},{"town":"御立西五丁目","koaza":"","lat":34.86309,"lng":134.663327,"zip":"6700074"},{"town":"御立中四丁目","koaza":"","lat":34.865188,"lng":134.666313,"zip":"6700073"},{"town":"御立西六丁目","koaza":"","lat":34.865147,"lng":134.663893,"zip":"6700074"},{"town":"北夢前台一丁目","koaza":"","lat":34.866749,"lng":134.662227,"zip":"6712202"},{"town":"下手野五丁目","koaza":"","lat":34.849999,"lng":134.653465,"zip":"6700063"},{"town":"下手野六丁目","koaza":"","lat":34.8521,"lng":134.653351,"zip":"6700063"},{"town":"下手野四丁目","koaza":"","lat":34.849846,"lng":134.649817,"zip":"6700063"},{"town":"東夢前台二丁目","koaza":"","lat":34.852127,"lng":134.648973,"zip":"6700064"},{"town":"川西","koaza":"","lat":34.855652,"lng":134.650779,"zip":"6712213"},{"town":"東夢前台一丁目","koaza":"","lat":34.857371,"lng":134.656579,"zip":"6700064"},{"town":"上手野","koaza":"","lat":34.856634,"lng":134.659128,"zip":"6700065"},{"town":"御立西四丁目","koaza":"","lat":34.863026,"lng":134.659908,"zip":"6700074"},{"town":"北夢前台二丁目","koaza":"","lat":34.862546,"lng":134.65807,"zip":"6712202"},{"town":"田井台","koaza":"","lat":34.862339,"lng":134.656486,"zip":"6712211"},{"town":"川西台","koaza":"","lat":34.855288,"lng":134.652924,"zip":"6712213"},{"town":"西夢前台一丁目","koaza":"","lat":34.853462,"lng":134.646312,"zip":"6712214"},{"town":"飾西台","koaza":"","lat":34.85765,"lng":134.644637,"zip":"6712215"},{"town":"青山北一丁目","koaza":"","lat":34.854167,"lng":134.64431,"zip":"6712221"},{"town":"青山北三丁目","koaza":"","lat":34.85253,"lng":134.640675,"zip":"6712221"},{"town":"青山北二丁目","koaza":"","lat":34.855617,"lng":134.640696,"zip":"6712221"},{"town":"書写台三丁目","koaza":"","lat":34.866873,"lng":134.647941,"zip":"6712203"},{"town":"町田","koaza":"","lat":34.865416,"lng":134.645168,"zip":"6712217"},{"town":"白国四丁目","koaza":"","lat":34.865094,"lng":134.706791,"zip":"6700808"},{"town":"白国","koaza":"","lat":34.868201,"lng":134.712301,"zip":"6700808"},{"town":"北平野六丁目","koaza":"","lat":34.867028,"lng":134.698638,"zip":"6700893"},{"town":"北平野奥垣内","koaza":"","lat":34.87034,"lng":134.696285,"zip":"6700892"},{"town":"上大野六丁目","koaza":"","lat":34.868142,"lng":134.690495,"zip":"6700896"},{"town":"上大野五丁目","koaza":"","lat":34.869994,"lng":134.689198,"zip":"6700896"},{"town":"上大野四丁目","koaza":"","lat":34.871156,"lng":134.687342,"zip":"6700896"},{"town":"広嶺山","koaza":"","lat":34.874773,"lng":134.701429,"zip":"6700891"},{"town":"大寿台一丁目","koaza":"","lat":34.870101,"lng":134.68593,"zip":"6700898"},{"town":"西大寿台","koaza":"","lat":34.869625,"lng":134.683507,"zip":"6700897"},{"town":"大寿台二丁目","koaza":"","lat":34.872235,"lng":134.683757,"zip":"6700898"},{"town":"上大野七丁目","koaza":"","lat":34.874825,"lng":134.689453,"zip":"6700896"},{"town":"御立北四丁目","koaza":"","lat":34.876878,"lng":134.680257,"zip":"6700071"},{"town":"御立東六丁目","koaza":"","lat":34.868075,"lng":134.678167,"zip":"6700072"},{"town":"御立北三丁目","koaza":"","lat":34.87194,"lng":134.679303,"zip":"6700071"},{"town":"御立中七丁目","koaza":"","lat":34.869625,"lng":134.67082,"zip":"6700073"},{"town":"御立北二丁目","koaza":"","lat":34.874881,"lng":134.672047,"zip":"6700071"},{"town":"御立北一丁目","koaza":"","lat":34.872027,"lng":134.669494,"zip":"6700071"},{"town":"御立中五丁目","koaza":"","lat":34.868249,"lng":134.66744,"zip":"6700073"},{"town":"御立中八丁目","koaza":"","lat":34.871151,"lng":134.667702,"zip":"6700073"},{"town":"書写台二丁目","koaza":"","lat":34.869892,"lng":134.649728,"zip":"6712203"},{"town":"書写台一丁目","koaza":"","lat":34.873359,"lng":134.649812,"zip":"6712203"},{"town":"菅生台","koaza":"","lat":34.875806,"lng":134.642506,"zip":"6712243"},{"town":"実法寺","koaza":"","lat":34.870537,"lng":134.639833,"zip":"6712244"},{"town":"豊富町甲丘四丁目","koaza":"","lat":34.897196,"lng":134.745306,"zip":"6792124"},{"town":"仁豊野","koaza":"","lat":34.881968,"lng":134.722633,"zip":"6700801"},{"town":"砥堀","koaza":"","lat":34.876942,"lng":134.71665,"zip":"6700802"},{"town":"六角","koaza":"","lat":34.88108,"lng":134.639117,"zip":"6712242"},{"town":"刀出栄立町","koaza":"","lat":34.89077,"lng":134.640228,"zip":"6700000"},{"town":"夢前町玉田","koaza":"","lat":34.881875,"lng":134.670075,"zip":"6712124"},{"town":"書写","koaza":"","lat":34.884492,"lng":134.655128,"zip":"6712201"},{"town":"刀出","koaza":"","lat":34.893941,"lng":134.636941,"zip":"6712241"},{"town":"香寺町犬飼","koaza":"","lat":34.898468,"lng":134.734534,"zip":"6792131"},{"town":"香寺町中屋","koaza":"","lat":34.908811,"lng":134.736032,"zip":"6792144"},{"town":"香寺町香呂","koaza":"","lat":34.914989,"lng":134.733292,"zip":"6792151"},{"town":"香寺町田野","koaza":"","lat":34.906116,"lng":134.725984,"zip":"6792153"},{"town":"夢前町山冨","koaza":"","lat":34.888992,"lng":134.683136,"zip":"6712123"},{"town":"香寺町須加院","koaza":"","lat":34.901537,"lng":134.709806,"zip":"6792132"},{"town":"緑台二丁目","koaza":"","lat":34.901139,"lng":134.62544,"zip":"6712247"},{"town":"緑台一丁目","koaza":"","lat":34.900621,"lng":134.628073,"zip":"6712247"},{"town":"西脇","koaza":"","lat":34.86722,"lng":134.597811,"zip":"6712234"},{"town":"林田町下伊勢","koaza":"","lat":34.890865,"lng":134.606922,"zip":"6794233"},{"town":"林田町下構","koaza":"","lat":34.89698,"lng":134.578756,"zip":"6794202"},{"town":"林田町中構","koaza":"","lat":34.898934,"lng":134.574054,"zip":"6794203"},{"town":"林田町久保","koaza":"","lat":34.900725,"lng":134.581788,"zip":"6794201"},{"town":"林田町林谷","koaza":"","lat":34.901979,"lng":134.590738,"zip":"6794221"},{"town":"林田町林田","koaza":"","lat":34.903519,"lng":134.580246,"zip":"6794206"},{"town":"林田町新町","koaza":"","lat":34.905664,"lng":134.582218,"zip":"6794205"},{"town":"林田町口佐見","koaza":"","lat":34.910054,"lng":134.58947,"zip":"6794222"},{"town":"林田町上構","koaza":"","lat":34.906763,"lng":134.571162,"zip":"6794204"},{"town":"夢前町塩田","koaza":"","lat":34.945392,"lng":134.689502,"zip":"6712112"},{"town":"夢前町塚本","koaza":"","lat":34.935507,"lng":134.639863,"zip":"6712135"},{"town":"夢前町芦田","koaza":"","lat":34.945021,"lng":134.64423,"zip":"6712133"},{"town":"夢前町杉之内","koaza":"","lat":34.953364,"lng":134.681342,"zip":"6712111"},{"town":"夢前町古瀬畑","koaza":"","lat":34.950863,"lng":134.637787,"zip":"6712132"},{"town":"夢前町高長","koaza":"","lat":34.962046,"lng":134.659616,"zip":"6712117"},{"town":"香寺町野田","koaza":"","lat":34.927239,"lng":134.74072,"zip":"6792162"},{"town":"香寺町中寺","koaza":"","lat":34.932737,"lng":134.730976,"zip":"6792164"},{"town":"香寺町恒屋","koaza":"","lat":34.939413,"lng":134.716262,"zip":"6792165"},{"town":"香寺町中村","koaza":"","lat":34.948613,"lng":134.704337,"zip":"6792166"},{"town":"夢前町古知之庄","koaza":"","lat":34.944522,"lng":134.678368,"zip":"6712113"},{"town":"香寺町久畑","koaza":"","lat":34.964866,"lng":134.709798,"zip":"6792167"},{"town":"夢前町前之庄","koaza":"","lat":34.970454,"lng":134.687613,"zip":"6712103"},{"town":"林田町山田","koaza":"","lat":34.936086,"lng":134.59056,"zip":"6794213"},{"town":"林田町松山","koaza":"","lat":34.938259,"lng":134.579433,"zip":"6794212"},{"town":"安富町瀬川","koaza":"","lat":34.953506,"lng":134.592081,"zip":"6712424"},{"town":"安富町狭戸","koaza":"","lat":34.958015,"lng":134.577925,"zip":"6712423"},{"town":"安富町三坂","koaza":"","lat":34.959277,"lng":134.60483,"zip":"6712425"},{"town":"安富町植木野","koaza":"","lat":34.966832,"lng":134.593082,"zip":"6712426"},{"town":"安富町長野","koaza":"","lat":34.980793,"lng":134.586965,"zip":"6712421"},{"town":"安富町安志","koaza":"","lat":34.985247,"lng":134.595439,"zip":"6712401"},{"town":"安富町塩野","koaza":"","lat":34.977519,"lng":134.575751,"zip":"6712422"},{"town":"家島町坊勢","koaza":"","lat":34.647703,"lng":134.507434,"zip":"6720103"},{"town":"飾西","koaza":"側町","lat":34.860631,"lng":134.635911,"zip":"6712216"},{"town":"書写","koaza":"北向河原","lat":34.867584,"lng":134.664739,"zip":"6712201"},{"town":"中地","koaza":"西久保","lat":34.817023,"lng":134.668035,"zip":"6700976"},{"town":"岩端町","koaza":"御崎山裏","lat":34.843452,"lng":134.679935,"zip":"6700028"},{"town":"延末","koaza":"間","lat":34.825691,"lng":134.682638,"zip":"6700966"},{"town":"北条","koaza":"中道","lat":34.825117,"lng":134.695577,"zip":"6700947"},{"town":"保城","koaza":"野田","lat":34.854371,"lng":134.717494,"zip":"6700804"},{"town":"砥堀","koaza":"楡の木","lat":34.866876,"lng":134.727269,"zip":"6700802"},{"town":"香寺町溝口","koaza":"中嶋","lat":34.922205,"lng":134.742802,"zip":"6792161"}]