[{"town":"山崎町木谷","koaza":"","lat":35.006191,"lng":134.513515,"zip":"6712567"},{"town":"一宮町東市場","koaza":"","lat":35.093442,"lng":134.607986,"zip":"6714132"},{"town":"山崎町中井","koaza":"","lat":34.99964,"lng":134.541254,"zip":"6712545"},{"town":"山崎町春安","koaza":"","lat":35.002933,"lng":134.527676,"zip":"6712551"},{"town":"山崎町門前","koaza":"","lat":35.007153,"lng":134.534814,"zip":"6712579"},{"town":"山崎町鹿沢","koaza":"","lat":35.003225,"lng":134.538534,"zip":"6712576"},{"town":"山崎町山田","koaza":"","lat":35.003438,"lng":134.546261,"zip":"6712575"},{"town":"山崎町中広瀬","koaza":"","lat":35.002902,"lng":134.549669,"zip":"6712574"},{"town":"山崎町須賀沢","koaza":"","lat":34.996774,"lng":134.567823,"zip":"6712533"},{"town":"山崎町高所","koaza":"","lat":35.009642,"lng":134.558718,"zip":"6712532"},{"town":"山崎町上ノ","koaza":"","lat":35.104987,"lng":134.51454,"zip":"6712501"},{"town":"山崎町塩田","koaza":"","lat":35.06865,"lng":134.478174,"zip":"6712563"},{"town":"山崎町上牧谷","koaza":"","lat":35.044235,"lng":134.506953,"zip":"6712508"},{"town":"山崎町青木","koaza":"","lat":35.030819,"lng":134.487355,"zip":"6712564"},{"town":"山崎町高下","koaza":"","lat":35.018502,"lng":134.505862,"zip":"6712565"},{"town":"山崎町中野","koaza":"","lat":35.06865,"lng":134.503839,"zip":"6712502"},{"town":"一宮町東河内","koaza":"","lat":35.11161,"lng":134.637693,"zip":"6714141"},{"town":"一宮町福野","koaza":"","lat":35.171266,"lng":134.636686,"zip":"6714114"},{"town":"一宮町福知","koaza":"","lat":35.151306,"lng":134.640951,"zip":"6714122"},{"town":"一宮町福中","koaza":"","lat":35.166119,"lng":134.61829,"zip":"6714121"},{"town":"山崎町与位","koaza":"","lat":35.076407,"lng":134.561604,"zip":"6712512"},{"town":"一宮町閏賀","koaza":"","lat":35.094901,"lng":134.574528,"zip":"6714137"},{"town":"一宮町須行名","koaza":"","lat":35.088311,"lng":134.5946,"zip":"6714133"},{"town":"一宮町伊和","koaza":"","lat":35.082286,"lng":134.601571,"zip":"6714134"},{"town":"一宮町能倉","koaza":"","lat":35.115872,"lng":134.611782,"zip":"6714142"},{"town":"一宮町生栖","koaza":"","lat":35.135035,"lng":134.61036,"zip":"6714123"},{"town":"千種町岩野辺","koaza":"","lat":35.158057,"lng":134.47607,"zip":"6713211"},{"town":"山崎町大沢","koaza":"","lat":35.099002,"lng":134.460964,"zip":"6712562"},{"town":"山崎町小茅野","koaza":"","lat":35.117279,"lng":134.487125,"zip":"6712561"},{"town":"一宮町草木","koaza":"","lat":35.183645,"lng":134.664088,"zip":"6714107"},{"town":"一宮町千町","koaza":"","lat":35.190596,"lng":134.699304,"zip":"6714108"},{"town":"一宮町倉床","koaza":"","lat":35.251186,"lng":134.646628,"zip":"6714101"},{"town":"波賀町飯見","koaza":"","lat":35.17283,"lng":134.531594,"zip":"6714215"},{"town":"波賀町有賀","koaza":"","lat":35.165335,"lng":134.536657,"zip":"6714231"},{"town":"波賀町斉木","koaza":"","lat":35.157714,"lng":134.519925,"zip":"6714232"},{"town":"一宮町河原田","koaza":"","lat":35.19725,"lng":134.597532,"zip":"6714115"},{"town":"一宮町三方町","koaza":"","lat":35.183118,"lng":134.627326,"zip":"6714113"},{"town":"波賀町上野","koaza":"","lat":35.182283,"lng":134.563405,"zip":"6714221"},{"town":"一宮町公文","koaza":"","lat":35.229898,"lng":134.605393,"zip":"6714111"},{"town":"波賀町音水","koaza":"","lat":35.249556,"lng":134.503947,"zip":"6714211"},{"town":"波賀町日ノ原","koaza":"","lat":35.222948,"lng":134.497334,"zip":"6714212"},{"town":"波賀町原","koaza":"","lat":35.199611,"lng":134.507361,"zip":"6714213"},{"town":"波賀町野尻","koaza":"","lat":35.189151,"lng":134.532784,"zip":"6714214"},{"town":"千種町河呂","koaza":"","lat":35.174185,"lng":134.44794,"zip":"6713231"},{"town":"千種町西山","koaza":"","lat":35.163302,"lng":134.42526,"zip":"6713221"},{"town":"波賀町引原","koaza":"","lat":35.239279,"lng":134.55321,"zip":"6714204"},{"town":"波賀町鹿伏","koaza":"","lat":35.263109,"lng":134.545368,"zip":"6714203"},{"town":"波賀町戸倉","koaza":"","lat":35.305218,"lng":134.531604,"zip":"6714201"},{"town":"山崎町下宇原","koaza":"","lat":34.956991,"lng":134.550997,"zip":"6712536"},{"town":"山崎町宇原","koaza":"","lat":34.963226,"lng":134.561726,"zip":"6712535"},{"town":"山崎町下比地","koaza":"","lat":34.974856,"lng":134.539175,"zip":"6712556"},{"town":"山崎町川戸","koaza":"","lat":34.980685,"lng":134.553277,"zip":"6712534"},{"town":"山崎町御名","koaza":"","lat":34.986523,"lng":134.541683,"zip":"6712554"},{"town":"山崎町野","koaza":"","lat":34.992611,"lng":134.548771,"zip":"6712543"},{"town":"山崎町船元","koaza":"","lat":34.997661,"lng":134.550088,"zip":"6712542"},{"town":"山崎町下広瀬","koaza":"","lat":34.998362,"lng":134.545188,"zip":"6712541"},{"town":"山崎町千本屋","koaza":"","lat":34.991977,"lng":134.541346,"zip":"6712544"},{"town":"山崎町鶴木","koaza":"","lat":34.994306,"lng":134.538473,"zip":"6712553"},{"town":"山崎町中比地","koaza":"","lat":34.98061,"lng":134.534952,"zip":"6712557"},{"town":"山崎町金谷","koaza":"","lat":34.989948,"lng":134.529255,"zip":"6712555"},{"town":"山崎町段","koaza":"","lat":34.997136,"lng":134.528904,"zip":"6712552"},{"town":"山崎町上比地","koaza":"","lat":34.987856,"lng":134.516216,"zip":"6712558"},{"town":"山崎町今宿","koaza":"","lat":35.007821,"lng":134.548037,"zip":"6712573"},{"town":"山崎町山崎","koaza":"","lat":35.005885,"lng":134.540578,"zip":"6712577"},{"town":"山崎町庄能","koaza":"","lat":35.010695,"lng":134.545408,"zip":"6712572"},{"town":"山崎町元山崎","koaza":"","lat":35.008321,"lng":134.538735,"zip":"6712578"},{"town":"山崎町上寺","koaza":"","lat":35.011016,"lng":134.540177,"zip":"6712571"},{"town":"山崎町加生","koaza":"","lat":35.011335,"lng":134.528473,"zip":"6712570"},{"town":"山崎町中","koaza":"","lat":35.014898,"lng":134.560465,"zip":"6712531"},{"town":"山崎町神谷","koaza":"","lat":35.023233,"lng":134.559918,"zip":"6712525"},{"town":"山崎町三津","koaza":"","lat":35.022055,"lng":134.550452,"zip":"6712516"},{"town":"山崎町生谷","koaza":"","lat":35.022582,"lng":134.543853,"zip":"6712517"},{"town":"山崎町横須","koaza":"","lat":35.017642,"lng":134.535471,"zip":"6712518"},{"town":"山崎町下町","koaza":"","lat":35.028947,"lng":134.533449,"zip":"6712519"},{"town":"山崎町市場","koaza":"","lat":35.015145,"lng":134.520371,"zip":"6712566"},{"town":"山崎町三谷","koaza":"","lat":35.024553,"lng":134.57939,"zip":"6712524"},{"town":"山崎町矢原","koaza":"","lat":35.031434,"lng":134.560743,"zip":"6712526"},{"town":"山崎町野々上","koaza":"","lat":35.039421,"lng":134.577324,"zip":"6712528"},{"town":"山崎町岸田","koaza":"","lat":35.040024,"lng":134.562681,"zip":"6712527"},{"town":"山崎町五十波","koaza":"","lat":35.039409,"lng":134.54435,"zip":"6712515"},{"town":"山崎町宇野","koaza":"","lat":35.0324,"lng":134.523806,"zip":"6712506"},{"town":"山崎町下牧谷","koaza":"","lat":35.029769,"lng":134.515264,"zip":"6712507"},{"town":"山崎町片山","koaza":"","lat":35.04002,"lng":134.517911,"zip":"6712505"},{"town":"山崎町母栖","koaza":"","lat":35.057778,"lng":134.592123,"zip":"6712523"},{"town":"山崎町田井","koaza":"","lat":35.049001,"lng":134.566069,"zip":"6712514"},{"town":"山崎町杉ケ瀬","koaza":"","lat":35.052437,"lng":134.584055,"zip":"6712522"},{"town":"山崎町木ノ谷","koaza":"","lat":35.063775,"lng":134.576492,"zip":"6712521"},{"town":"山崎町東下野","koaza":"","lat":35.05821,"lng":134.517151,"zip":"6712504"},{"town":"一宮町嶋田","koaza":"","lat":35.067848,"lng":134.591089,"zip":"6714136"},{"town":"一宮町安黒","koaza":"","lat":35.075656,"lng":134.599343,"zip":"6714135"},{"town":"山崎町清野","koaza":"","lat":35.075553,"lng":134.579534,"zip":"6712511"},{"town":"山崎町梯","koaza":"","lat":35.066943,"lng":134.539459,"zip":"6712513"},{"town":"山崎町大谷","koaza":"","lat":35.059487,"lng":134.529393,"zip":"6712503"},{"town":"山崎町土万","koaza":"","lat":35.056106,"lng":134.444302,"zip":"6712569"},{"town":"山崎町葛根","koaza":"","lat":35.057889,"lng":134.461966,"zip":"6712568"},{"town":"山崎町塩山","koaza":"","lat":35.073302,"lng":134.446128,"zip":"6712560"},{"town":"波賀町今市","koaza":"","lat":35.151626,"lng":134.550275,"zip":"6714242"},{"town":"波賀町安賀","koaza":"","lat":35.152134,"lng":134.540495,"zip":"6714241"},{"town":"一宮町下野田","koaza":"","lat":35.103272,"lng":134.597444,"zip":"6714144"},{"town":"一宮町西安積","koaza":"","lat":35.107764,"lng":134.558568,"zip":"6714138"},{"town":"一宮町上野田","koaza":"","lat":35.112593,"lng":134.602479,"zip":"6714143"},{"town":"一宮町杉田","koaza":"","lat":35.120177,"lng":134.558807,"zip":"6714139"},{"town":"一宮町安積","koaza":"","lat":35.118582,"lng":134.583368,"zip":"6714131"},{"town":"波賀町日見谷","koaza":"","lat":35.12862,"lng":134.558034,"zip":"6714245"},{"town":"波賀町小野","koaza":"","lat":35.130806,"lng":134.536248,"zip":"6714243"},{"town":"一宮町西深","koaza":"","lat":35.155289,"lng":134.604486,"zip":"6714125"},{"town":"波賀町谷","koaza":"","lat":35.144568,"lng":134.56491,"zip":"6714244"},{"town":"一宮町深河谷","koaza":"","lat":35.148675,"lng":134.585069,"zip":"6714124"},{"town":"千種町室","koaza":"","lat":35.145348,"lng":134.426787,"zip":"6713223"},{"town":"千種町千草","koaza":"","lat":35.155083,"lng":134.447335,"zip":"6713201"},{"town":"千種町黒土","koaza":"","lat":35.140563,"lng":134.44931,"zip":"6713202"},{"town":"千種町七野","koaza":"","lat":35.132458,"lng":134.43,"zip":"6713224"},{"town":"千種町下河野","koaza":"","lat":35.116581,"lng":134.443375,"zip":"6713225"},{"town":"千種町鷹巣","koaza":"","lat":35.125258,"lng":134.470391,"zip":"6713212"},{"town":"一宮町森添","koaza":"","lat":35.188655,"lng":134.628785,"zip":"6714112"},{"town":"一宮町井内","koaza":"","lat":35.207358,"lng":134.665498,"zip":"6714104"},{"town":"一宮町上岸田","koaza":"","lat":35.199929,"lng":134.658748,"zip":"6714105"},{"town":"一宮町百千家満","koaza":"","lat":35.190636,"lng":134.644028,"zip":"6714106"},{"town":"一宮町横山","koaza":"","lat":35.216238,"lng":134.654157,"zip":"6714102"},{"town":"一宮町黒原","koaza":"","lat":35.223845,"lng":134.682325,"zip":"6714103"},{"town":"波賀町皆木","koaza":"","lat":35.179332,"lng":134.542613,"zip":"6714216"},{"town":"千種町河内","koaza":"","lat":35.211587,"lng":134.458315,"zip":"6713232"},{"town":"千種町西河内","koaza":"","lat":35.214017,"lng":134.410628,"zip":"6713233"},{"town":"波賀町道谷","koaza":"","lat":35.287589,"lng":134.565148,"zip":"6714202"},{"town":"山崎町中井","koaza":"城下","lat":35.002277,"lng":134.543531,"zip":"6712545"},{"town":"山崎町三津","koaza":"茶ノ木田","lat":35.016785,"lng":134.549623,"zip":"6712516"}]