[{"town":"平左衛門町","koaza":"","lat":34.691088,"lng":135.374908,"zip":"6600087"},{"town":"東園田町六丁目","koaza":"","lat":34.751405,"lng":135.454006,"zip":"6610953"},{"town":"東園田町五丁目","koaza":"","lat":34.753104,"lng":135.449721,"zip":"6610953"},{"town":"瓦宮二丁目","koaza":"","lat":34.752135,"lng":135.439223,"zip":"6610971"},{"town":"東園田町四丁目","koaza":"","lat":34.755187,"lng":135.445104,"zip":"6610953"},{"town":"東園田町九丁目","koaza":"","lat":34.751406,"lng":135.447109,"zip":"6610953"},{"town":"御園三丁目","koaza":"","lat":34.752016,"lng":135.431197,"zip":"6610984"},{"town":"上坂部一丁目","koaza":"","lat":34.751492,"lng":135.427154,"zip":"6610979"},{"town":"東塚口町一丁目","koaza":"","lat":34.751336,"lng":135.423485,"zip":"6610011"},{"town":"塚口本町七丁目","koaza":"","lat":34.754829,"lng":135.422802,"zip":"6610001"},{"town":"塚口本町一丁目","koaza":"","lat":34.753976,"lng":135.418599,"zip":"6610001"},{"town":"口田中二丁目","koaza":"","lat":34.752744,"lng":135.434177,"zip":"6610983"},{"town":"塚口町三丁目","koaza":"","lat":34.754564,"lng":135.409903,"zip":"6610002"},{"town":"塚口町五丁目","koaza":"","lat":34.754445,"lng":135.406614,"zip":"6610002"},{"town":"塚口町一丁目","koaza":"","lat":34.754611,"lng":135.413729,"zip":"6610002"},{"town":"富松町一丁目","koaza":"","lat":34.753731,"lng":135.40195,"zip":"6610003"},{"town":"武庫之荘東二丁目","koaza":"","lat":34.754706,"lng":135.39759,"zip":"6610032"},{"town":"武庫之荘二丁目","koaza":"","lat":34.752902,"lng":135.390218,"zip":"6610035"},{"town":"武庫之荘一丁目","koaza":"","lat":34.753747,"lng":135.392144,"zip":"6610035"},{"town":"武庫之荘東一丁目","koaza":"","lat":34.754411,"lng":135.395148,"zip":"6610032"},{"town":"武庫町二丁目","koaza":"","lat":34.753067,"lng":135.380484,"zip":"6610044"},{"town":"武庫町三丁目","koaza":"","lat":34.753427,"lng":135.376637,"zip":"6610044"},{"town":"武庫町一丁目","koaza":"","lat":34.75245,"lng":135.383847,"zip":"6610044"},{"town":"西海岸町","koaza":"","lat":34.701025,"lng":135.398183,"zip":"6600093"},{"town":"額田","koaza":"","lat":34.745843,"lng":135.451969,"zip":"6610962"},{"town":"東園田町七丁目","koaza":"","lat":34.748376,"lng":135.456904,"zip":"6610953"},{"town":"高田町","koaza":"","lat":34.741428,"lng":135.451888,"zip":"6610963"},{"town":"弥生ケ丘町","koaza":"","lat":34.74638,"lng":135.449223,"zip":"6610970"},{"town":"東園田町八丁目","koaza":"","lat":34.746054,"lng":135.455411,"zip":"6610953"},{"town":"法界寺","koaza":"","lat":34.74914,"lng":135.44868,"zip":"6600000"},{"town":"小中島","koaza":"","lat":34.751163,"lng":135.444188,"zip":"6610972"},{"town":"善法寺","koaza":"","lat":34.748899,"lng":135.44797,"zip":"6610973"},{"town":"小中島一丁目","koaza":"","lat":34.750264,"lng":135.441743,"zip":"6610972"},{"town":"若王寺三丁目","koaza":"","lat":34.745183,"lng":135.438429,"zip":"6610974"},{"town":"小中島二丁目","koaza":"","lat":34.748271,"lng":135.442845,"zip":"6610972"},{"town":"小中島三丁目","koaza":"","lat":34.745761,"lng":135.443335,"zip":"6610972"},{"town":"額田町","koaza":"","lat":34.744131,"lng":135.449376,"zip":"6610962"},{"town":"善法寺町","koaza":"","lat":34.747321,"lng":135.446756,"zip":"6610973"},{"town":"若王寺一丁目","koaza":"","lat":34.751014,"lng":135.435501,"zip":"6610974"},{"town":"下坂部四丁目","koaza":"","lat":34.745615,"lng":135.433832,"zip":"6610975"},{"town":"若王寺二丁目","koaza":"","lat":34.748628,"lng":135.436902,"zip":"6610974"},{"town":"上坂部二丁目","koaza":"","lat":34.747502,"lng":135.427369,"zip":"6610979"},{"town":"上坂部三丁目","koaza":"","lat":34.748561,"lng":135.431272,"zip":"6610979"},{"town":"久々知一丁目","koaza":"","lat":34.745653,"lng":135.431801,"zip":"6610977"},{"town":"久々知二丁目","koaza":"","lat":34.745127,"lng":135.428305,"zip":"6610977"},{"town":"東塚口町二丁目","koaza":"","lat":34.74637,"lng":135.424024,"zip":"6610011"},{"town":"南塚口町四丁目","koaza":"","lat":34.745654,"lng":135.420274,"zip":"6610012"},{"town":"南塚口町三丁目","koaza":"","lat":34.750665,"lng":135.42035,"zip":"6610012"},{"town":"南塚口町一丁目","koaza":"","lat":34.750541,"lng":135.413354,"zip":"6610012"},{"town":"南塚口町八丁目","koaza":"","lat":34.750723,"lng":135.407985,"zip":"6610012"},{"town":"栗山町二丁目","koaza":"","lat":34.746822,"lng":135.405863,"zip":"6610013"},{"town":"南塚口町二丁目","koaza":"","lat":34.750575,"lng":135.416702,"zip":"6610012"},{"town":"南塚口町七丁目","koaza":"","lat":34.746629,"lng":135.411771,"zip":"6610012"},{"town":"南塚口町六丁目","koaza":"","lat":34.74593,"lng":135.414858,"zip":"6610012"},{"town":"南塚口町五丁目","koaza":"","lat":34.745795,"lng":135.417275,"zip":"6610012"},{"town":"栗山町一丁目","koaza":"","lat":34.746135,"lng":135.408856,"zip":"6610013"},{"town":"上ノ島町一丁目","koaza":"","lat":34.750867,"lng":135.401512,"zip":"6610014"},{"town":"上ノ島町二丁目","koaza":"","lat":34.748117,"lng":135.401554,"zip":"6610014"},{"town":"上ノ島町三丁目","koaza":"","lat":34.745802,"lng":135.401598,"zip":"6610014"},{"town":"南武庫之荘一丁目","koaza":"","lat":34.750318,"lng":135.392524,"zip":"6610033"},{"town":"南武庫之荘三丁目","koaza":"","lat":34.746856,"lng":135.393983,"zip":"6610033"},{"town":"南武庫之荘二丁目","koaza":"","lat":34.748295,"lng":135.397629,"zip":"6610033"},{"town":"南武庫之荘四丁目","koaza":"","lat":34.746173,"lng":135.388853,"zip":"6610033"},{"town":"武庫之荘西二丁目","koaza":"","lat":34.75176,"lng":135.387474,"zip":"6610034"},{"town":"南武庫之荘五丁目","koaza":"","lat":34.749094,"lng":135.388182,"zip":"6610033"},{"town":"南武庫之荘八丁目","koaza":"","lat":34.746648,"lng":135.382488,"zip":"6610033"},{"town":"南武庫之荘七丁目","koaza":"","lat":34.746578,"lng":135.385185,"zip":"6610033"},{"town":"武庫町四丁目","koaza":"","lat":34.750272,"lng":135.378675,"zip":"6610044"},{"town":"南武庫之荘九丁目","koaza":"","lat":34.746319,"lng":135.37873,"zip":"6610033"},{"town":"南武庫之荘六丁目","koaza":"","lat":34.749116,"lng":135.380254,"zip":"6610033"},{"town":"戸ノ内町六丁目","koaza":"","lat":34.737833,"lng":135.454556,"zip":"6610961"},{"town":"戸ノ内町四丁目","koaza":"","lat":34.736023,"lng":135.456766,"zip":"6610961"},{"town":"戸ノ内町一丁目","koaza":"","lat":34.744095,"lng":135.458724,"zip":"6610961"},{"town":"戸ノ内町五丁目","koaza":"","lat":34.735596,"lng":135.453673,"zip":"6610961"},{"town":"戸ノ内町二丁目","koaza":"","lat":34.741657,"lng":135.458004,"zip":"6610961"},{"town":"戸ノ内町三丁目","koaza":"","lat":34.738556,"lng":135.457347,"zip":"6610961"},{"town":"戸ノ内","koaza":"","lat":34.742102,"lng":135.456171,"zip":"6610961"},{"town":"次屋三丁目","koaza":"","lat":34.741202,"lng":135.443069,"zip":"6610965"},{"town":"次屋一丁目","koaza":"","lat":34.73666,"lng":135.4389,"zip":"6610965"},{"town":"浜三丁目","koaza":"","lat":34.735527,"lng":135.436364,"zip":"6610967"},{"town":"浜二丁目","koaza":"","lat":34.733697,"lng":135.438341,"zip":"6610967"},{"town":"次屋四丁目","koaza":"","lat":34.736643,"lng":135.44424,"zip":"6610965"},{"town":"西川二丁目","koaza":"","lat":34.734737,"lng":135.44354,"zip":"6610966"},{"town":"高田","koaza":"","lat":34.741639,"lng":135.45446,"zip":"6610963"},{"town":"神崎町","koaza":"","lat":34.739033,"lng":135.447172,"zip":"6610964"},{"town":"下坂部三丁目","koaza":"","lat":34.742071,"lng":135.438322,"zip":"6610975"},{"town":"次屋二丁目","koaza":"","lat":34.738906,"lng":135.437979,"zip":"6610965"},{"town":"下坂部二丁目","koaza":"","lat":34.742156,"lng":135.433281,"zip":"6610975"},{"town":"久々知三丁目","koaza":"","lat":34.741372,"lng":135.429278,"zip":"6610977"},{"town":"下坂部一丁目","koaza":"","lat":34.740314,"lng":135.433816,"zip":"6610975"},{"town":"久々知西町一丁目","koaza":"","lat":34.736155,"lng":135.421709,"zip":"6610978"},{"town":"潮江三丁目","koaza":"","lat":34.738835,"lng":135.431802,"zip":"6600808"},{"town":"潮江四丁目","koaza":"","lat":34.738523,"lng":135.426324,"zip":"6600808"},{"town":"潮江二丁目","koaza":"","lat":34.736795,"lng":135.432612,"zip":"6600808"},{"town":"久々知西町二丁目","koaza":"","lat":34.741036,"lng":135.424021,"zip":"6610978"},{"town":"名神町三丁目","koaza":"","lat":34.741178,"lng":135.420294,"zip":"6610021"},{"town":"尾浜町三丁目","koaza":"","lat":34.736534,"lng":135.420251,"zip":"6610022"},{"town":"大西町一丁目","koaza":"","lat":34.742741,"lng":135.405991,"zip":"6610023"},{"town":"大西町二丁目","koaza":"","lat":34.742583,"lng":135.408156,"zip":"6610023"},{"town":"大西町三丁目","koaza":"","lat":34.742242,"lng":135.410457,"zip":"6610023"},{"town":"名神町一丁目","koaza":"","lat":34.741866,"lng":135.413568,"zip":"6610021"},{"town":"尾浜町二丁目","koaza":"","lat":34.737172,"lng":135.417433,"zip":"6610022"},{"town":"名神町二丁目","koaza":"","lat":34.741536,"lng":135.417241,"zip":"6610021"},{"town":"三反田町一丁目","koaza":"","lat":34.738996,"lng":135.406196,"zip":"6610024"},{"town":"尾浜町一丁目","koaza":"","lat":34.73768,"lng":135.413809,"zip":"6610022"},{"town":"三反田町三丁目","koaza":"","lat":34.738043,"lng":135.411197,"zip":"6610024"},{"town":"三反田町二丁目","koaza":"","lat":34.738449,"lng":135.408803,"zip":"6610024"},{"town":"東七松町二丁目","koaza":"","lat":34.734157,"lng":135.410416,"zip":"6600051"},{"town":"東七松町一丁目","koaza":"","lat":34.734688,"lng":135.407509,"zip":"6600051"},{"town":"七松町三丁目","koaza":"","lat":34.734934,"lng":135.404609,"zip":"6600052"},{"town":"七松町二丁目","koaza":"","lat":34.735367,"lng":135.402034,"zip":"6600052"},{"town":"立花町二丁目","koaza":"","lat":34.740851,"lng":135.40187,"zip":"6610025"},{"town":"水堂町一丁目","koaza":"","lat":34.740858,"lng":135.394535,"zip":"6610026"},{"town":"立花町三丁目","koaza":"","lat":34.742962,"lng":135.401762,"zip":"6610025"},{"town":"立花町一丁目","koaza":"","lat":34.738516,"lng":135.401899,"zip":"6610025"},{"town":"七松町一丁目","koaza":"","lat":34.735647,"lng":135.399486,"zip":"6600052"},{"town":"西立花町一丁目","koaza":"","lat":34.738074,"lng":135.395538,"zip":"6600054"},{"town":"水堂町二丁目","koaza":"","lat":34.741258,"lng":135.390355,"zip":"6610026"},{"town":"西立花町五丁目","koaza":"","lat":34.73802,"lng":135.391172,"zip":"6600054"},{"town":"西立花町二丁目","koaza":"","lat":34.736217,"lng":135.395564,"zip":"6600054"},{"town":"西立花町四丁目","koaza":"","lat":34.735402,"lng":135.391945,"zip":"6600054"},{"town":"西立花町三丁目","koaza":"","lat":34.734056,"lng":135.395815,"zip":"6600054"},{"town":"水堂町三丁目","koaza":"","lat":34.743736,"lng":135.394587,"zip":"6610026"},{"town":"立花町四丁目","koaza":"","lat":34.740499,"lng":135.397658,"zip":"6610025"},{"town":"南武庫之荘十一丁目","koaza":"","lat":34.741721,"lng":135.385726,"zip":"6610033"},{"town":"稲葉元町二丁目","koaza":"","lat":34.736767,"lng":135.388651,"zip":"6600055"},{"town":"稲葉元町三丁目","koaza":"","lat":34.734966,"lng":135.388716,"zip":"6600055"},{"town":"稲葉元町一丁目","koaza":"","lat":34.738452,"lng":135.388015,"zip":"6600055"},{"town":"水堂町四丁目","koaza":"","lat":34.741922,"lng":135.387324,"zip":"6610026"},{"town":"稲葉荘四丁目","koaza":"","lat":34.737843,"lng":135.383606,"zip":"6600064"},{"town":"稲葉荘三丁目","koaza":"","lat":34.736023,"lng":135.383703,"zip":"6600064"},{"town":"稲葉荘二丁目","koaza":"","lat":34.733934,"lng":135.383605,"zip":"6600064"},{"town":"南武庫之荘十二丁目","koaza":"","lat":34.740763,"lng":135.382063,"zip":"6610033"},{"town":"南武庫之荘十丁目","koaza":"","lat":34.74256,"lng":135.381441,"zip":"6610033"},{"town":"常光寺一丁目","koaza":"","lat":34.728487,"lng":135.438915,"zip":"6600811"},{"town":"浜一丁目","koaza":"","lat":34.731523,"lng":135.438095,"zip":"6610967"},{"town":"長洲東通一丁目","koaza":"","lat":34.728798,"lng":135.43631,"zip":"6600801"},{"town":"常光寺三丁目","koaza":"","lat":34.726319,"lng":135.440913,"zip":"6600811"},{"town":"長洲東通二丁目","koaza":"","lat":34.724986,"lng":135.435991,"zip":"6600801"},{"town":"常光寺二丁目","koaza":"","lat":34.724821,"lng":135.438373,"zip":"6600811"},{"town":"杭瀬北新町二丁目","koaza":"","lat":34.72253,"lng":135.438406,"zip":"6600815"},{"town":"西川一丁目","koaza":"","lat":34.731923,"lng":135.443667,"zip":"6610966"},{"town":"今福一丁目","koaza":"","lat":34.72358,"lng":135.441358,"zip":"6600812"},{"town":"常光寺四丁目","koaza":"","lat":34.72656,"lng":135.443739,"zip":"6600811"},{"town":"西長洲町一丁目","koaza":"","lat":34.730694,"lng":135.423024,"zip":"6600805"},{"town":"潮江一丁目","koaza":"","lat":34.733733,"lng":135.432077,"zip":"6600808"},{"town":"金楽寺町一丁目","koaza":"","lat":34.729687,"lng":135.42632,"zip":"6600806"},{"town":"潮江五丁目","koaza":"","lat":34.734522,"lng":135.425265,"zip":"6600808"},{"town":"長洲本通一丁目","koaza":"","lat":34.728915,"lng":135.431707,"zip":"6600803"},{"town":"長洲西通一丁目","koaza":"","lat":34.729511,"lng":135.429045,"zip":"6600807"},{"town":"長洲西通二丁目","koaza":"","lat":34.725327,"lng":135.428634,"zip":"6600807"},{"town":"長洲中通一丁目","koaza":"","lat":34.728582,"lng":135.43415,"zip":"6600802"},{"town":"長洲中通二丁目","koaza":"","lat":34.724512,"lng":135.432762,"zip":"6600802"},{"town":"長洲本通三丁目","koaza":"","lat":34.722986,"lng":135.429012,"zip":"6600803"},{"town":"長洲本通二丁目","koaza":"","lat":34.725203,"lng":135.429944,"zip":"6600803"},{"town":"金楽寺町二丁目","koaza":"","lat":34.724923,"lng":135.426037,"zip":"6600806"},{"town":"東難波町一丁目","koaza":"","lat":34.733823,"lng":135.412804,"zip":"6600892"},{"town":"東難波町二丁目","koaza":"","lat":34.730862,"lng":135.411511,"zip":"6600892"},{"town":"西難波町六丁目","koaza":"","lat":34.730852,"lng":135.407251,"zip":"6600893"},{"town":"扶桑町","koaza":"","lat":34.73127,"lng":135.417666,"zip":"6600891"},{"town":"西難波町五丁目","koaza":"","lat":34.727719,"lng":135.407557,"zip":"6600893"},{"town":"東難波町三丁目","koaza":"","lat":34.727735,"lng":135.412353,"zip":"6600892"},{"town":"西長洲町三丁目","koaza":"","lat":34.725034,"lng":135.419084,"zip":"6600805"},{"town":"東難波町四丁目","koaza":"","lat":34.725194,"lng":135.413585,"zip":"6600892"},{"town":"西難波町四丁目","koaza":"","lat":34.724565,"lng":135.407773,"zip":"6600893"},{"town":"昭和通八丁目","koaza":"","lat":34.723389,"lng":135.406066,"zip":"6600881"},{"town":"昭和通七丁目","koaza":"","lat":34.722832,"lng":135.408333,"zip":"6600881"},{"town":"昭和南通八丁目","koaza":"","lat":34.722987,"lng":135.405769,"zip":"6600882"},{"town":"神田北通八丁目","koaza":"","lat":34.722642,"lng":135.405015,"zip":"6600883"},{"town":"昭和通六丁目","koaza":"","lat":34.722404,"lng":135.410258,"zip":"6600881"},{"town":"西難波町一丁目","koaza":"","lat":34.731075,"lng":135.404301,"zip":"6600893"},{"town":"西難波町二丁目","koaza":"","lat":34.727867,"lng":135.404125,"zip":"6600893"},{"town":"西難波町三丁目","koaza":"","lat":34.724904,"lng":135.404069,"zip":"6600893"},{"town":"蓬川荘園","koaza":"","lat":34.726228,"lng":135.402301,"zip":"6600061"},{"town":"昭和南通九丁目","koaza":"","lat":34.723588,"lng":135.403377,"zip":"6600882"},{"town":"昭和通九丁目","koaza":"","lat":34.724119,"lng":135.403253,"zip":"6600881"},{"town":"神田中通九丁目","koaza":"","lat":34.722553,"lng":135.402879,"zip":"6600884"},{"town":"神田北通九丁目","koaza":"","lat":34.72305,"lng":135.403111,"zip":"6600883"},{"town":"大庄北二丁目","koaza":"","lat":34.73262,"lng":135.391012,"zip":"6600063"},{"town":"大庄北三丁目","koaza":"","lat":34.73252,"lng":135.388498,"zip":"6600063"},{"town":"南七松町二丁目","koaza":"","lat":34.729578,"lng":135.401623,"zip":"6600053"},{"town":"南七松町一丁目","koaza":"","lat":34.732559,"lng":135.400871,"zip":"6600053"},{"town":"浜田町一丁目","koaza":"","lat":34.732314,"lng":135.397519,"zip":"6600062"},{"town":"大庄北一丁目","koaza":"","lat":34.732001,"lng":135.393893,"zip":"6600063"},{"town":"浜田町二丁目","koaza":"","lat":34.73091,"lng":135.398155,"zip":"6600062"},{"town":"浜田町三丁目","koaza":"","lat":34.729097,"lng":135.398253,"zip":"6600062"},{"town":"浜田町五丁目","koaza":"","lat":34.72581,"lng":135.4004,"zip":"6600062"},{"town":"崇徳院一丁目","koaza":"","lat":34.725593,"lng":135.398439,"zip":"6600071"},{"town":"浜田町四丁目","koaza":"","lat":34.727309,"lng":135.398845,"zip":"6600062"},{"town":"大庄北五丁目","koaza":"","lat":34.729108,"lng":135.393794,"zip":"6600063"},{"town":"大庄中通一丁目","koaza":"","lat":34.72777,"lng":135.391875,"zip":"6600075"},{"town":"崇徳院二丁目","koaza":"","lat":34.723746,"lng":135.399451,"zip":"6600071"},{"town":"大庄川田町","koaza":"","lat":34.726312,"lng":135.395349,"zip":"6600072"},{"town":"大庄中通二丁目","koaza":"","lat":34.725458,"lng":135.391883,"zip":"6600075"},{"town":"大庄中通三丁目","koaza":"","lat":34.723546,"lng":135.392003,"zip":"6600075"},{"town":"菜切山町","koaza":"","lat":34.723605,"lng":135.395236,"zip":"6600073"},{"town":"大島三丁目","koaza":"","lat":34.727257,"lng":135.389042,"zip":"6600076"},{"town":"稲葉荘一丁目","koaza":"","lat":34.731666,"lng":135.383859,"zip":"6600064"},{"town":"大庄北四丁目","koaza":"","lat":34.730008,"lng":135.389775,"zip":"6600063"},{"town":"大島一丁目","koaza":"","lat":34.729553,"lng":135.383592,"zip":"6600076"},{"town":"大島二丁目","koaza":"","lat":34.726372,"lng":135.384966,"zip":"6600076"},{"town":"杭瀬南新町一丁目","koaza":"","lat":34.716584,"lng":135.438445,"zip":"6600822"},{"town":"杭瀬北新町一丁目","koaza":"","lat":34.721756,"lng":135.440937,"zip":"6600815"},{"town":"杭瀬寺島二丁目","koaza":"","lat":34.720753,"lng":135.446503,"zip":"6600813"},{"town":"今福二丁目","koaza":"","lat":34.722008,"lng":135.444261,"zip":"6600812"},{"town":"杭瀬寺島一丁目","koaza":"","lat":34.720418,"lng":135.443653,"zip":"6600813"},{"town":"梶ケ島","koaza":"","lat":34.717988,"lng":135.442648,"zip":"6600821"},{"town":"杭瀬本町二丁目","koaza":"","lat":34.721038,"lng":135.438094,"zip":"6600814"},{"town":"杭瀬本町一丁目","koaza":"","lat":34.719528,"lng":135.440453,"zip":"6600814"},{"town":"西長洲町二丁目","koaza":"","lat":34.724562,"lng":135.42194,"zip":"6600805"},{"town":"長洲東通三丁目","koaza":"","lat":34.721826,"lng":135.433517,"zip":"6600801"},{"town":"北大物町","koaza":"","lat":34.721701,"lng":135.42602,"zip":"6600804"},{"town":"杭瀬北新町三丁目","koaza":"","lat":34.721483,"lng":135.435629,"zip":"6600815"},{"town":"杭瀬北新町四丁目","koaza":"","lat":34.720465,"lng":135.433487,"zip":"6600815"},{"town":"杭瀬南新町二丁目","koaza":"","lat":34.717585,"lng":135.435662,"zip":"6600822"},{"town":"杭瀬本町三丁目","koaza":"","lat":34.718938,"lng":135.436332,"zip":"6600814"},{"town":"長洲中通三丁目","koaza":"","lat":34.721638,"lng":135.430721,"zip":"6600802"},{"town":"昭和通一丁目","koaza":"","lat":34.719599,"lng":135.42634,"zip":"6600881"},{"town":"東大物町二丁目","koaza":"","lat":34.717988,"lng":135.424807,"zip":"6600828"},{"town":"杭瀬南新町四丁目","koaza":"","lat":34.718084,"lng":135.431359,"zip":"6600822"},{"town":"東大物町一丁目","koaza":"","lat":34.717989,"lng":135.428088,"zip":"6600828"},{"town":"大物町二丁目","koaza":"","lat":34.71546,"lng":135.42443,"zip":"6600823"},{"town":"杭瀬南新町三丁目","koaza":"","lat":34.715646,"lng":135.432001,"zip":"6600822"},{"town":"大物町一丁目","koaza":"","lat":34.714858,"lng":135.426432,"zip":"6600823"},{"town":"神田北通七丁目","koaza":"","lat":34.722325,"lng":135.406393,"zip":"6600883"},{"town":"昭和南通七丁目","koaza":"","lat":34.722401,"lng":135.408319,"zip":"6600882"},{"town":"神田中通八丁目","koaza":"","lat":34.722146,"lng":135.404836,"zip":"6600884"},{"town":"昭和南通六丁目","koaza":"","lat":34.721984,"lng":135.410123,"zip":"6600882"},{"town":"神田北通六丁目","koaza":"","lat":34.72192,"lng":135.408119,"zip":"6600883"},{"town":"神田中通七丁目","koaza":"","lat":34.721836,"lng":135.406214,"zip":"6600884"},{"town":"東難波町五丁目","koaza":"","lat":34.722821,"lng":135.413957,"zip":"6600892"},{"town":"昭和通五丁目","koaza":"","lat":34.721966,"lng":135.412058,"zip":"6600881"},{"town":"神田中通五丁目","koaza":"","lat":34.72104,"lng":135.409816,"zip":"6600884"},{"town":"神田北通五丁目","koaza":"","lat":34.721502,"lng":135.409965,"zip":"6600883"},{"town":"神田中通六丁目","koaza":"","lat":34.721448,"lng":135.407913,"zip":"6600884"},{"town":"昭和通四丁目","koaza":"","lat":34.721338,"lng":135.41478,"zip":"6600881"},{"town":"昭和南通五丁目","koaza":"","lat":34.721566,"lng":135.411933,"zip":"6600882"},{"town":"神田北通四丁目","koaza":"","lat":34.721035,"lng":135.41178,"zip":"6600883"},{"town":"神田南通四丁目","koaza":"","lat":34.721318,"lng":135.406026,"zip":"6600885"},{"town":"神田南通五丁目","koaza":"","lat":34.721639,"lng":135.404655,"zip":"6600885"},{"town":"昭和通二丁目","koaza":"","lat":34.720279,"lng":135.421755,"zip":"6600881"},{"town":"昭和通三丁目","koaza":"","lat":34.720576,"lng":135.4179,"zip":"6600881"},{"town":"昭和南通四丁目","koaza":"","lat":34.720911,"lng":135.414669,"zip":"6600882"},{"town":"神田北通三丁目","koaza":"","lat":34.72064,"lng":135.413619,"zip":"6600883"},{"town":"神田中通四丁目","koaza":"","lat":34.720574,"lng":135.411569,"zip":"6600884"},{"town":"神田中通二丁目","koaza":"","lat":34.719312,"lng":135.415228,"zip":"6600884"},{"town":"昭和南通三丁目","koaza":"","lat":34.720224,"lng":135.417607,"zip":"6600882"},{"town":"北竹谷町二丁目","koaza":"","lat":34.720599,"lng":135.405122,"zip":"6600878"},{"town":"神田中通三丁目","koaza":"","lat":34.719882,"lng":135.413486,"zip":"6600884"},{"town":"神田南通一丁目","koaza":"","lat":34.720084,"lng":135.411551,"zip":"6600885"},{"town":"神田南通二丁目","koaza":"","lat":34.720527,"lng":135.409686,"zip":"6600885"},{"town":"北竹谷町一丁目","koaza":"","lat":34.720348,"lng":135.40687,"zip":"6600878"},{"town":"神田南通三丁目","koaza":"","lat":34.720825,"lng":135.407831,"zip":"6600885"},{"town":"西本町八丁目","koaza":"","lat":34.719429,"lng":135.407509,"zip":"6600874"},{"town":"神田北通一丁目","koaza":"","lat":34.719714,"lng":135.417484,"zip":"6600883"},{"town":"神田北通二丁目","koaza":"","lat":34.720162,"lng":135.41555,"zip":"6600883"},{"town":"西大物町","koaza":"","lat":34.718431,"lng":135.421163,"zip":"6600827"},{"town":"神田中通一丁目","koaza":"","lat":34.719039,"lng":135.417276,"zip":"6600884"},{"town":"宮内町一丁目","koaza":"","lat":34.719311,"lng":135.406542,"zip":"6600877"},{"town":"宮内町二丁目","koaza":"","lat":34.719621,"lng":135.404887,"zip":"6600877"},{"town":"西御園町","koaza":"","lat":34.718766,"lng":135.413022,"zip":"6600868"},{"town":"建家町","koaza":"","lat":34.719541,"lng":135.410663,"zip":"6600871"},{"town":"玄番北之町","koaza":"","lat":34.719345,"lng":135.408411,"zip":"6600872"},{"town":"竹谷町一丁目","koaza":"","lat":34.718506,"lng":135.406402,"zip":"6600876"},{"town":"南竹谷町一丁目","koaza":"","lat":34.717408,"lng":135.406144,"zip":"6600875"},{"town":"玄番南之町","koaza":"","lat":34.717781,"lng":135.408449,"zip":"6600873"},{"town":"西本町七丁目","koaza":"","lat":34.717347,"lng":135.407475,"zip":"6600874"},{"town":"西桜木町","koaza":"","lat":34.717319,"lng":135.410755,"zip":"6600865"},{"town":"汐町","koaza":"","lat":34.717464,"lng":135.409362,"zip":"6600866"},{"town":"寺町","koaza":"","lat":34.718119,"lng":135.412425,"zip":"6600867"},{"town":"東桜木町","koaza":"","lat":34.716999,"lng":135.412676,"zip":"6600864"},{"town":"西本町六丁目","koaza":"","lat":34.716369,"lng":135.409151,"zip":"6600874"},{"town":"北城内","koaza":"","lat":34.716614,"lng":135.421027,"zip":"6600826"},{"town":"御園町","koaza":"","lat":34.718004,"lng":135.416646,"zip":"6600861"},{"town":"開明町三丁目","koaza":"","lat":34.716861,"lng":135.41445,"zip":"6600862"},{"town":"西本町北通三丁目","koaza":"","lat":34.71616,"lng":135.413215,"zip":"6600863"},{"town":"西本町北通四丁目","koaza":"","lat":34.716142,"lng":135.412301,"zip":"6600863"},{"town":"西本町北通五丁目","koaza":"","lat":34.716418,"lng":135.410843,"zip":"6600863"},{"town":"西本町五丁目","koaza":"","lat":34.71545,"lng":135.410771,"zip":"6600874"},{"town":"開明町一丁目","koaza":"","lat":34.716276,"lng":135.417078,"zip":"6600862"},{"town":"開明町二丁目","koaza":"","lat":34.716598,"lng":135.415472,"zip":"6600862"},{"town":"西本町三丁目","koaza":"","lat":34.714829,"lng":135.413467,"zip":"6600874"},{"town":"西本町四丁目","koaza":"","lat":34.715319,"lng":135.412033,"zip":"6600874"},{"town":"西本町二丁目","koaza":"","lat":34.714597,"lng":135.415188,"zip":"6600874"},{"town":"中在家町三丁目","koaza":"","lat":34.713994,"lng":135.412703,"zip":"6600851"},{"town":"中在家町四丁目","koaza":"","lat":34.714314,"lng":135.411982,"zip":"6600851"},{"town":"西本町一丁目","koaza":"","lat":34.71448,"lng":135.41684,"zip":"6600874"},{"town":"南城内","koaza":"","lat":34.714211,"lng":135.420177,"zip":"6600825"},{"town":"築地三丁目","koaza":"","lat":34.71145,"lng":135.418404,"zip":"6600858"},{"town":"中在家町一丁目","koaza":"","lat":34.713399,"lng":135.416409,"zip":"6600851"},{"town":"中在家町二丁目","koaza":"","lat":34.713378,"lng":135.414765,"zip":"6600851"},{"town":"神田南通六丁目","koaza":"","lat":34.72192,"lng":135.402957,"zip":"6600885"},{"town":"竹谷町二丁目","koaza":"","lat":34.718751,"lng":135.404601,"zip":"6600876"},{"town":"宮内町三丁目","koaza":"","lat":34.720107,"lng":135.402652,"zip":"6600877"},{"town":"北竹谷町三丁目","koaza":"","lat":34.720917,"lng":135.402765,"zip":"6600878"},{"town":"蓬川町","koaza":"","lat":34.719911,"lng":135.399179,"zip":"6600081"},{"town":"大庄中通四丁目","koaza":"","lat":34.721794,"lng":135.392122,"zip":"6600075"},{"town":"大庄中通五丁目","koaza":"","lat":34.720014,"lng":135.391615,"zip":"6600075"},{"town":"南竹谷町二丁目","koaza":"","lat":34.717613,"lng":135.404261,"zip":"6600875"},{"town":"竹谷町三丁目","koaza":"","lat":34.719052,"lng":135.402485,"zip":"6600876"},{"town":"南竹谷町三丁目","koaza":"","lat":34.717757,"lng":135.401894,"zip":"6600875"},{"town":"道意町一丁目","koaza":"","lat":34.71828,"lng":135.398851,"zip":"6600083"},{"town":"道意町四丁目","koaza":"","lat":34.716884,"lng":135.395401,"zip":"6600083"},{"town":"道意町五丁目","koaza":"","lat":34.716149,"lng":135.392895,"zip":"6600083"},{"town":"道意町二丁目","koaza":"","lat":34.717246,"lng":135.399192,"zip":"6600083"},{"town":"道意町三丁目","koaza":"","lat":34.717126,"lng":135.397494,"zip":"6600083"},{"town":"武庫川町一丁目","koaza":"","lat":34.715802,"lng":135.389778,"zip":"6600084"},{"town":"大庄西町四丁目","koaza":"","lat":34.718931,"lng":135.389696,"zip":"6600077"},{"town":"大庄西町三丁目","koaza":"","lat":34.722899,"lng":135.389551,"zip":"6600077"},{"town":"崇徳院三丁目","koaza":"","lat":34.722126,"lng":135.399468,"zip":"6600071"},{"town":"水明町","koaza":"","lat":34.718979,"lng":135.394297,"zip":"6600082"},{"town":"琴浦町","koaza":"","lat":34.721874,"lng":135.395182,"zip":"6600074"},{"town":"武庫川町二丁目","koaza":"","lat":34.715746,"lng":135.387131,"zip":"6600084"},{"town":"武庫川町三丁目","koaza":"","lat":34.715954,"lng":135.38536,"zip":"6600084"},{"town":"大庄西町一丁目","koaza":"","lat":34.719011,"lng":135.385775,"zip":"6600077"},{"town":"元浜町二丁目","koaza":"","lat":34.713051,"lng":135.386139,"zip":"6600085"},{"town":"武庫川町四丁目","koaza":"","lat":34.716336,"lng":135.383432,"zip":"6600084"},{"town":"元浜町三丁目","koaza":"","lat":34.713543,"lng":135.382871,"zip":"6600085"},{"town":"大庄西町二丁目","koaza":"","lat":34.72318,"lng":135.386187,"zip":"6600077"},{"town":"東本町三丁目","koaza":"","lat":34.712558,"lng":135.424441,"zip":"6600824"},{"town":"築地一丁目","koaza":"","lat":34.711253,"lng":135.420327,"zip":"6600858"},{"town":"東本町四丁目","koaza":"","lat":34.712924,"lng":135.423053,"zip":"6600824"},{"town":"西松島町","koaza":"","lat":34.710152,"lng":135.421448,"zip":"6600837"},{"town":"東本町二丁目","koaza":"","lat":34.712356,"lng":135.425948,"zip":"6600824"},{"town":"東本町一丁目","koaza":"","lat":34.712505,"lng":135.429085,"zip":"6600824"},{"town":"東松島町","koaza":"","lat":34.710409,"lng":135.424692,"zip":"6600831"},{"town":"東初島町","koaza":"","lat":34.708449,"lng":135.425376,"zip":"6600832"},{"town":"築地五丁目","koaza":"","lat":34.71174,"lng":135.416698,"zip":"6600858"},{"town":"西向島町","koaza":"","lat":34.714174,"lng":135.406141,"zip":"6600857"},{"town":"築地二丁目","koaza":"","lat":34.710557,"lng":135.418918,"zip":"6600858"},{"town":"築地四丁目","koaza":"","lat":34.711509,"lng":135.417613,"zip":"6600858"},{"town":"北初島町","koaza":"","lat":34.707054,"lng":135.41833,"zip":"6600834"},{"town":"東向島東之町","koaza":"","lat":34.71004,"lng":135.415164,"zip":"6600835"},{"town":"東向島西之町","koaza":"","lat":34.711205,"lng":135.411282,"zip":"6600856"},{"town":"東高洲町","koaza":"","lat":34.706905,"lng":135.41084,"zip":"6600841"},{"town":"南初島町","koaza":"","lat":34.704875,"lng":135.418154,"zip":"6600833"},{"town":"道意町七丁目","koaza":"","lat":34.712853,"lng":135.398329,"zip":"6600083"},{"town":"東浜町","koaza":"","lat":34.704701,"lng":135.401972,"zip":"6600844"},{"town":"西高洲町","koaza":"","lat":34.709074,"lng":135.404014,"zip":"6600845"},{"town":"道意町六丁目","koaza":"","lat":34.712426,"lng":135.393537,"zip":"6600083"},{"town":"中浜町","koaza":"","lat":34.707043,"lng":135.395528,"zip":"6600091"},{"town":"鶴町","koaza":"","lat":34.70344,"lng":135.39525,"zip":"6600092"},{"town":"元浜町一丁目","koaza":"","lat":34.711776,"lng":135.389313,"zip":"6600085"},{"town":"大浜町一丁目","koaza":"","lat":34.70456,"lng":135.389385,"zip":"6600095"},{"town":"元浜町五丁目","koaza":"","lat":34.710565,"lng":135.385878,"zip":"6600085"},{"town":"元浜町四丁目","koaza":"","lat":34.710739,"lng":135.382325,"zip":"6600085"},{"town":"大高洲町","koaza":"","lat":34.702478,"lng":135.407882,"zip":"6600842"},{"town":"東海岸町","koaza":"","lat":34.688594,"lng":135.395998,"zip":"6600843"},{"town":"丸島町","koaza":"","lat":34.704822,"lng":135.380094,"zip":"6600086"},{"town":"大浜町二丁目","koaza":"","lat":34.70446,"lng":135.384683,"zip":"6600095"},{"town":"末広町二丁目","koaza":"","lat":34.694548,"lng":135.389012,"zip":"6600094"},{"town":"末広町一丁目","koaza":"","lat":34.698214,"lng":135.390384,"zip":"6600094"},{"town":"扇町","koaza":"","lat":34.695605,"lng":135.38357,"zip":"6600096"},{"town":"田能二丁目","koaza":"","lat":34.76664,"lng":135.44303,"zip":"6610951"},{"town":"椎堂二丁目","koaza":"","lat":34.766466,"lng":135.447919,"zip":"6610952"},{"town":"田能三丁目","koaza":"","lat":34.767135,"lng":135.437049,"zip":"6610951"},{"town":"猪名寺","koaza":"","lat":34.76601,"lng":135.429955,"zip":"6610981"},{"town":"猪名寺一丁目","koaza":"","lat":34.768917,"lng":135.424934,"zip":"6610981"},{"town":"田能五丁目","koaza":"","lat":34.768795,"lng":135.430479,"zip":"6610951"},{"town":"田能六丁目","koaza":"","lat":34.772129,"lng":135.439898,"zip":"6610951"},{"town":"西昆陽二丁目","koaza":"","lat":34.772359,"lng":135.378148,"zip":"6610047"},{"town":"武庫之荘八丁目","koaza":"","lat":34.765226,"lng":135.387753,"zip":"6610035"},{"town":"武庫之荘九丁目","koaza":"","lat":34.768952,"lng":135.388704,"zip":"6610035"},{"town":"常松二丁目","koaza":"","lat":34.768077,"lng":135.377267,"zip":"6610046"},{"town":"西昆陽四丁目","koaza":"","lat":34.775508,"lng":135.375147,"zip":"6610047"},{"town":"常松一丁目","koaza":"","lat":34.765334,"lng":135.378473,"zip":"6610046"},{"town":"西昆陽一丁目","koaza":"","lat":34.769832,"lng":135.381377,"zip":"6610047"},{"town":"西昆陽三丁目","koaza":"","lat":34.775948,"lng":135.37809,"zip":"6610047"},{"town":"東園田町一丁目","koaza":"","lat":34.757175,"lng":135.453948,"zip":"6610953"},{"town":"田能四丁目","koaza":"","lat":34.764961,"lng":135.437204,"zip":"6610951"},{"town":"食満三丁目","koaza":"","lat":34.761956,"lng":135.435699,"zip":"6610982"},{"town":"上食満","koaza":"","lat":34.762842,"lng":135.438996,"zip":"6600000"},{"town":"椎堂一丁目","koaza":"","lat":34.763884,"lng":135.447209,"zip":"6610952"},{"town":"田能一丁目","koaza":"","lat":34.762987,"lng":135.441783,"zip":"6610951"},{"town":"中食満","koaza":"","lat":34.761131,"lng":135.441378,"zip":"6600000"},{"town":"食満六丁目","koaza":"","lat":34.75618,"lng":135.439124,"zip":"6610982"},{"town":"食満四丁目","koaza":"","lat":34.760895,"lng":135.440254,"zip":"6610982"},{"town":"東園田町二丁目","koaza":"","lat":34.758697,"lng":135.449496,"zip":"6610953"},{"town":"東園田町三丁目","koaza":"","lat":34.759342,"lng":135.445133,"zip":"6610953"},{"town":"下食満","koaza":"","lat":34.757602,"lng":135.441807,"zip":"6600000"},{"town":"瓦宮一丁目","koaza":"","lat":34.754794,"lng":135.440802,"zip":"6610971"},{"town":"猪名寺三丁目","koaza":"","lat":34.765173,"lng":135.420581,"zip":"6610981"},{"town":"猪名寺二丁目","koaza":"","lat":34.764627,"lng":135.427282,"zip":"6610981"},{"town":"食満五丁目","koaza":"","lat":34.759691,"lng":135.43776,"zip":"6610982"},{"town":"塚口本町五丁目","koaza":"","lat":34.761648,"lng":135.421753,"zip":"6610001"},{"town":"南清水","koaza":"","lat":34.762309,"lng":135.426225,"zip":"6610985"},{"town":"食満二丁目","koaza":"","lat":34.762836,"lng":135.430845,"zip":"6610982"},{"town":"食満一丁目","koaza":"","lat":34.760316,"lng":135.431462,"zip":"6610982"},{"town":"食満七丁目","koaza":"","lat":34.756647,"lng":135.435517,"zip":"6610982"},{"town":"塚口本町六丁目","koaza":"","lat":34.758298,"lng":135.422114,"zip":"6610001"},{"town":"御園一丁目","koaza":"","lat":34.758261,"lng":135.430399,"zip":"6610984"},{"town":"塚口本町八丁目","koaza":"","lat":34.757434,"lng":135.42621,"zip":"6610001"},{"town":"口田中一丁目","koaza":"","lat":34.755789,"lng":135.433999,"zip":"6610983"},{"town":"御園二丁目","koaza":"","lat":34.754732,"lng":135.430551,"zip":"6610984"},{"town":"塚口本町四丁目","koaza":"","lat":34.761963,"lng":135.418314,"zip":"6610001"},{"town":"塚口本町三丁目","koaza":"","lat":34.759261,"lng":135.418152,"zip":"6610001"},{"town":"塚口町四丁目","koaza":"","lat":34.758806,"lng":135.40992,"zip":"6610002"},{"town":"塚口本町二丁目","koaza":"","lat":34.75642,"lng":135.418249,"zip":"6610001"},{"town":"塚口町二丁目","koaza":"","lat":34.758296,"lng":135.413142,"zip":"6610002"},{"town":"塚口町六丁目","koaza":"","lat":34.759431,"lng":135.406162,"zip":"6610002"},{"town":"富松町二丁目","koaza":"","lat":34.756435,"lng":135.402235,"zip":"6610003"},{"town":"武庫之荘七丁目","koaza":"","lat":34.763199,"lng":135.392512,"zip":"6610035"},{"town":"富松町四丁目","koaza":"","lat":34.762807,"lng":135.404275,"zip":"6610003"},{"town":"武庫之荘本町二丁目","koaza":"","lat":34.760331,"lng":135.392854,"zip":"6610031"},{"town":"武庫之荘四丁目","koaza":"","lat":34.75647,"lng":135.391197,"zip":"6610035"},{"town":"武庫之荘本町一丁目","koaza":"","lat":34.757891,"lng":135.393408,"zip":"6610031"},{"town":"富松町三丁目","koaza":"","lat":34.759701,"lng":135.401615,"zip":"6610003"},{"town":"武庫之荘本町三丁目","koaza":"","lat":34.759223,"lng":135.397104,"zip":"6610031"},{"town":"武庫の里二丁目","koaza":"","lat":34.764908,"lng":135.384017,"zip":"6610041"},{"town":"武庫之荘六丁目","koaza":"","lat":34.762515,"lng":135.387838,"zip":"6610035"},{"town":"武庫豊町二丁目","koaza":"","lat":34.762336,"lng":135.379004,"zip":"6610045"},{"town":"常吉一丁目","koaza":"","lat":34.76233,"lng":135.382794,"zip":"6610042"},{"town":"常吉二丁目","koaza":"","lat":34.762452,"lng":135.380982,"zip":"6610042"},{"town":"武庫の里一丁目","koaza":"","lat":34.760903,"lng":135.384688,"zip":"6610041"},{"town":"武庫元町一丁目","koaza":"","lat":34.757337,"lng":135.383718,"zip":"6610043"},{"town":"武庫之荘五丁目","koaza":"","lat":34.759463,"lng":135.387914,"zip":"6610035"},{"town":"武庫元町二丁目","koaza":"","lat":34.757574,"lng":135.380371,"zip":"6610043"},{"town":"武庫之荘三丁目","koaza":"","lat":34.756012,"lng":135.38712,"zip":"6610035"},{"town":"武庫豊町三丁目","koaza":"","lat":34.762301,"lng":135.375595,"zip":"6610045"},{"town":"武庫元町三丁目","koaza":"","lat":34.75822,"lng":135.375897,"zip":"6610043"},{"town":"船出","koaza":"","lat":34.681365,"lng":135.386911,"zip":"6600846"}]