[{"town":"荘苑一丁目","koaza":"","lat":34.916675,"lng":135.375762,"zip":"6660238"},{"town":"荘苑二丁目","koaza":"","lat":34.917649,"lng":135.375909,"zip":"6660238"},{"town":"荘苑三丁目","koaza":"","lat":34.918724,"lng":135.376427,"zip":"6660238"},{"town":"紫合","koaza":"","lat":34.912005,"lng":135.378743,"zip":"6660233"},{"town":"若葉一丁目","koaza":"","lat":34.900246,"lng":135.368772,"zip":"6660251"},{"town":"若葉二丁目","koaza":"","lat":34.894999,"lng":135.371935,"zip":"6660251"},{"town":"柏梨田","koaza":"","lat":34.898507,"lng":135.375536,"zip":"6660243"},{"town":"北野","koaza":"","lat":34.908159,"lng":135.371007,"zip":"6660234"},{"town":"肝川","koaza":"","lat":34.874741,"lng":135.354693,"zip":"6660254"},{"town":"広根","koaza":"","lat":34.898252,"lng":135.33687,"zip":"6660252"},{"town":"つつじが丘一丁目","koaza":"","lat":34.88662,"lng":135.371458,"zip":"6660245"},{"town":"差組","koaza":"","lat":34.878964,"lng":135.376077,"zip":"6660253"},{"town":"北田原","koaza":"","lat":34.917851,"lng":135.366003,"zip":"6660236"},{"town":"原","koaza":"","lat":34.908113,"lng":135.38612,"zip":"6660242"},{"town":"内馬場","koaza":"","lat":34.920073,"lng":135.402644,"zip":"6660241"},{"town":"伏見台五丁目","koaza":"","lat":34.91898,"lng":135.395193,"zip":"6660262"},{"town":"伏見台四丁目","koaza":"","lat":34.918528,"lng":135.398331,"zip":"6660262"},{"town":"木津","koaza":"","lat":34.929941,"lng":135.340189,"zip":"6660225"},{"town":"万善","koaza":"","lat":34.920493,"lng":135.348264,"zip":"6660224"},{"town":"槻並","koaza":"","lat":34.942201,"lng":135.359846,"zip":"6660222"},{"town":"下阿古谷","koaza":"","lat":34.931804,"lng":135.374355,"zip":"6660237"},{"town":"上阿古谷","koaza":"","lat":34.943094,"lng":135.381872,"zip":"6660231"},{"town":"柏原","koaza":"","lat":35.003224,"lng":135.304293,"zip":"6660204"},{"town":"杉生","koaza":"","lat":35.003897,"lng":135.3357,"zip":"6660201"},{"town":"猪名川台二丁目","koaza":"","lat":34.883897,"lng":135.374943,"zip":"6660246"},{"town":"猪名川台一丁目","koaza":"","lat":34.882873,"lng":135.375406,"zip":"6660246"},{"town":"松尾台四丁目","koaza":"","lat":34.899325,"lng":135.386363,"zip":"6660261"},{"town":"上野","koaza":"","lat":34.89231,"lng":135.378514,"zip":"6660244"},{"town":"伏見台三丁目","koaza":"","lat":34.915952,"lng":135.402734,"zip":"6660262"},{"town":"松尾台三丁目","koaza":"","lat":34.902977,"lng":135.391873,"zip":"6660261"},{"town":"松尾台一丁目","koaza":"","lat":34.906286,"lng":135.392613,"zip":"6660261"},{"town":"松尾台二丁目","koaza":"","lat":34.904701,"lng":135.388651,"zip":"6660261"},{"town":"伏見台二丁目","koaza":"","lat":34.913127,"lng":135.399566,"zip":"6660262"},{"town":"伏見台一丁目","koaza":"","lat":34.908975,"lng":135.390371,"zip":"6660262"},{"town":"つつじが丘五丁目","koaza":"","lat":34.884637,"lng":135.360561,"zip":"6660245"},{"town":"つつじが丘四丁目","koaza":"","lat":34.88457,"lng":135.362499,"zip":"6660245"},{"town":"つつじが丘三丁目","koaza":"","lat":34.882769,"lng":135.366166,"zip":"6660245"},{"town":"つつじが丘二丁目","koaza":"","lat":34.885517,"lng":135.366167,"zip":"6660245"},{"town":"白金三丁目","koaza":"","lat":34.896756,"lng":135.361108,"zip":"6660257"},{"town":"猪渕","koaza":"","lat":34.884149,"lng":135.348434,"zip":"6660255"},{"town":"白金一丁目","koaza":"","lat":34.90316,"lng":135.360841,"zip":"6660257"},{"town":"白金二丁目","koaza":"","lat":34.898607,"lng":135.356898,"zip":"6660257"},{"town":"銀山","koaza":"","lat":34.902278,"lng":135.347869,"zip":"6660256"},{"town":"南田原","koaza":"","lat":34.906986,"lng":135.359643,"zip":"6660235"},{"town":"民田","koaza":"","lat":34.935385,"lng":135.404513,"zip":"6660232"},{"town":"木間生","koaza":"","lat":34.94551,"lng":135.343867,"zip":"6660223"},{"town":"林田","koaza":"","lat":34.942053,"lng":135.331765,"zip":"6660226"},{"town":"杤原","koaza":"","lat":34.955646,"lng":135.341856,"zip":"6660221"},{"town":"笹尾","koaza":"","lat":34.953227,"lng":135.323899,"zip":"6660227"},{"town":"旭ケ丘","koaza":"","lat":34.969218,"lng":135.334938,"zip":"6660212"},{"town":"清水東","koaza":"","lat":34.969282,"lng":135.324434,"zip":"6660213"},{"town":"仁頂寺","koaza":"","lat":34.970453,"lng":135.342087,"zip":"6660211"},{"town":"島","koaza":"","lat":34.980394,"lng":135.320815,"zip":"6660215"},{"town":"清水","koaza":"","lat":34.971395,"lng":135.311333,"zip":"6660214"},{"town":"鎌倉","koaza":"","lat":34.98686,"lng":135.346048,"zip":"6660202"},{"town":"西畑","koaza":"","lat":34.992664,"lng":135.320834,"zip":"6660203"},{"town":"柏原","koaza":"小北","lat":35.004292,"lng":135.29777,"zip":"6660204"},{"town":"柏原","koaza":"西ノ山","lat":35.007623,"lng":135.295176,"zip":"6660204"},{"town":"柏原","koaza":"尾野ヶ嶽","lat":35.008156,"lng":135.301334,"zip":"6660204"},{"town":"柏原","koaza":"上垣内","lat":35.003975,"lng":135.295399,"zip":"6660204"},{"town":"柏原","koaza":"宮ノ上","lat":35.002836,"lng":135.29521,"zip":"6660204"},{"town":"柏原","koaza":"宮ノ脇","lat":35.0031,"lng":135.296397,"zip":"6660204"},{"town":"柏原","koaza":"竹ノ下","lat":35.001693,"lng":135.297584,"zip":"6660204"},{"town":"柏原","koaza":"下西","lat":35.002905,"lng":135.29703,"zip":"6660204"},{"town":"清水","koaza":"前谷","lat":34.975411,"lng":135.303195,"zip":"6660214"},{"town":"柏原","koaza":"田位","lat":35.001405,"lng":135.299478,"zip":"6660204"},{"town":"柏原","koaza":"石船","lat":35.00326,"lng":135.299704,"zip":"6660204"},{"town":"柏原","koaza":"平井","lat":35.003416,"lng":135.300818,"zip":"6660204"},{"town":"柏原","koaza":"灰所","lat":35.000633,"lng":135.301737,"zip":"6660204"},{"town":"柏原","koaza":"福井","lat":35.002281,"lng":135.301344,"zip":"6660204"},{"town":"柏原","koaza":"石原田","lat":34.999473,"lng":135.302146,"zip":"6660204"},{"town":"柏原","koaza":"樋ノ谷","lat":35.005908,"lng":135.305925,"zip":"6660204"},{"town":"柏原","koaza":"古岩","lat":35.00205,"lng":135.302445,"zip":"6660204"},{"town":"柏原","koaza":"寺ノ下","lat":35.000657,"lng":135.303355,"zip":"6660204"},{"town":"柏原","koaza":"中尾","lat":35.002031,"lng":135.303353,"zip":"6660204"},{"town":"柏原","koaza":"大森谷","lat":35.003321,"lng":135.30462,"zip":"6660204"},{"town":"柏原","koaza":"中林","lat":35.000564,"lng":135.305651,"zip":"6660204"},{"town":"柏原","koaza":"中前","lat":35.00467,"lng":135.309236,"zip":"6660204"},{"town":"柏原","koaza":"栗林","lat":34.994728,"lng":135.310122,"zip":"6660204"},{"town":"柏原","koaza":"木戸口","lat":34.998395,"lng":135.309043,"zip":"6660204"},{"town":"清水","koaza":"中宮","lat":34.9727,"lng":135.311303,"zip":"6660214"},{"town":"柏原","koaza":"倉掛","lat":34.997279,"lng":135.309832,"zip":"6660204"},{"town":"柏原","koaza":"鍜治屋","lat":34.996574,"lng":135.310591,"zip":"6660204"},{"town":"柏原","koaza":"鳥ヶ平","lat":34.994796,"lng":135.313629,"zip":"6660204"},{"town":"柏原","koaza":"小谷","lat":34.995877,"lng":135.310904,"zip":"6660204"},{"town":"清水","koaza":"山添","lat":34.964219,"lng":135.318146,"zip":"6660214"},{"town":"清水","koaza":"北谷","lat":34.969359,"lng":135.314462,"zip":"6660214"},{"town":"島","koaza":"柿瀬","lat":34.986706,"lng":135.319628,"zip":"6660215"},{"town":"西畑","koaza":"松ヶ本","lat":34.992516,"lng":135.313675,"zip":"6660203"},{"town":"笹尾","koaza":"材ノ前","lat":34.953505,"lng":135.322682,"zip":"6660227"},{"town":"杉生","koaza":"奥山","lat":35.010798,"lng":135.329166,"zip":"6660201"},{"town":"清水","koaza":"岡ノ下","lat":34.965171,"lng":135.317244,"zip":"6660214"},{"town":"笹尾","koaza":"大田","lat":34.958841,"lng":135.323167,"zip":"6660227"},{"town":"笹尾","koaza":"宮ノ前","lat":34.957283,"lng":135.323364,"zip":"6660227"},{"town":"西畑","koaza":"堀切","lat":34.989756,"lng":135.317205,"zip":"6660203"},{"town":"杉生","koaza":"大野","lat":35.006499,"lng":135.327606,"zip":"6660201"},{"town":"清水","koaza":"東畑","lat":34.968937,"lng":135.316919,"zip":"6660214"},{"town":"清水","koaza":"寺ノ前","lat":34.967247,"lng":135.318067,"zip":"6660214"},{"town":"清水","koaza":"小平井","lat":34.968938,"lng":135.318253,"zip":"6660214"},{"town":"島","koaza":"石垣内","lat":34.983052,"lng":135.321735,"zip":"6660215"},{"town":"西畑","koaza":"深田","lat":34.989078,"lng":135.322256,"zip":"6660203"},{"town":"清水","koaza":"広瀬","lat":34.968473,"lng":135.32118,"zip":"6660214"},{"town":"清水","koaza":"中久保","lat":34.965234,"lng":135.319609,"zip":"6660214"},{"town":"清水","koaza":"八ノ坪","lat":34.964043,"lng":135.32043,"zip":"6660214"},{"town":"清水","koaza":"馬場","lat":34.963982,"lng":135.325328,"zip":"6660214"},{"town":"島","koaza":"中ノ町","lat":34.979488,"lng":135.324303,"zip":"6660215"},{"town":"笹尾","koaza":"西平井","lat":34.952023,"lng":135.323208,"zip":"6660227"},{"town":"杉生","koaza":"西","lat":35.019001,"lng":135.328879,"zip":"6660201"},{"town":"清水","koaza":"平田","lat":34.967909,"lng":135.323353,"zip":"6660214"},{"town":"清水","koaza":"長田","lat":34.969826,"lng":135.323559,"zip":"6660214"},{"town":"笹尾","koaza":"大薮","lat":34.960216,"lng":135.32279,"zip":"6660227"},{"town":"笹尾","koaza":"掛谷","lat":34.954018,"lng":135.323061,"zip":"6660227"},{"town":"杉生","koaza":"一岩","lat":34.997506,"lng":135.3314,"zip":"6660201"},{"town":"笹尾","koaza":"大作り","lat":34.950888,"lng":135.323603,"zip":"6660227"},{"town":"笹尾","koaza":"笹平井","lat":34.949287,"lng":135.326537,"zip":"6660227"},{"town":"杉生","koaza":"平井","lat":35.016888,"lng":135.33357,"zip":"6660201"},{"town":"笹尾","koaza":"東田","lat":34.958666,"lng":135.327346,"zip":"6660227"},{"town":"島","koaza":"西山","lat":34.977753,"lng":135.319681,"zip":"6660215"},{"town":"島","koaza":"賀島","lat":34.977221,"lng":135.324587,"zip":"6660215"},{"town":"笹尾","koaza":"箱石","lat":34.955968,"lng":135.324943,"zip":"6660227"},{"town":"笹尾","koaza":"高町","lat":34.957971,"lng":135.32486,"zip":"6660227"},{"town":"島","koaza":"柘鳴美","lat":34.974083,"lng":135.324552,"zip":"6660215"},{"town":"西畑","koaza":"畑ヶ田","lat":34.988706,"lng":135.325162,"zip":"6660203"},{"town":"西畑","koaza":"山ノ子","lat":34.98808,"lng":135.325313,"zip":"6660203"},{"town":"島","koaza":"内垣内","lat":34.980737,"lng":135.324548,"zip":"6660215"},{"town":"笹尾","koaza":"加門田","lat":34.954227,"lng":135.325303,"zip":"6660227"},{"town":"笹尾","koaza":"堂谷","lat":34.9511,"lng":135.326178,"zip":"6660227"},{"town":"林田","koaza":"奥谷口","lat":34.944721,"lng":135.330354,"zip":"6660226"},{"town":"杉生","koaza":"北谷","lat":35.009918,"lng":135.329187,"zip":"6660201"},{"town":"島","koaza":"川向","lat":34.973298,"lng":135.325229,"zip":"6660215"},{"town":"島","koaza":"川面","lat":34.981662,"lng":135.325462,"zip":"6660215"},{"town":"島","koaza":"前田","lat":34.978095,"lng":135.326033,"zip":"6660215"},{"town":"島","koaza":"佃","lat":34.979592,"lng":135.326521,"zip":"6660215"},{"town":"島","koaza":"若城","lat":34.983901,"lng":135.326882,"zip":"6660215"},{"town":"笹尾","koaza":"黒添ヱ","lat":34.950352,"lng":135.328561,"zip":"6660227"},{"town":"笹尾","koaza":"ヘイソヘ","lat":34.953249,"lng":135.327495,"zip":"6660227"},{"town":"杉生","koaza":"今西","lat":34.981443,"lng":135.328182,"zip":"6660201"},{"town":"笹尾","koaza":"向山","lat":34.946083,"lng":135.328627,"zip":"6660227"},{"town":"杉生","koaza":"長谷森","lat":34.983488,"lng":135.329247,"zip":"6660201"},{"town":"鎌倉","koaza":"森ノ本","lat":34.978654,"lng":135.329009,"zip":"6660202"},{"town":"杉生","koaza":"宮ノ下","lat":34.9892,"lng":135.328905,"zip":"6660201"},{"town":"鎌倉","koaza":"横大道","lat":34.979929,"lng":135.328892,"zip":"6660202"},{"town":"杉生","koaza":"前田","lat":34.985879,"lng":135.328708,"zip":"6660201"},{"town":"杉生","koaza":"新平井","lat":34.99421,"lng":135.332867,"zip":"6660201"},{"town":"林田","koaza":"下川","lat":34.94271,"lng":135.332622,"zip":"6660226"},{"town":"杉生","koaza":"永正庵","lat":34.984402,"lng":135.3296,"zip":"6660201"},{"town":"杉生","koaza":"小田中","lat":34.981224,"lng":135.329149,"zip":"6660201"},{"town":"笹尾","koaza":"尼岡下","lat":34.949218,"lng":135.330167,"zip":"6660227"},{"town":"杉生","koaza":"丸畑","lat":34.991236,"lng":135.331065,"zip":"6660201"},{"town":"杉生","koaza":"岩神","lat":34.98971,"lng":135.330475,"zip":"6660201"},{"town":"鎌倉","koaza":"杤谷口","lat":34.978992,"lng":135.33763,"zip":"6660202"},{"town":"杉生","koaza":"前フケ","lat":34.987358,"lng":135.330598,"zip":"6660201"},{"town":"杉生","koaza":"靴掛","lat":35.00667,"lng":135.335752,"zip":"6660201"},{"town":"杉生","koaza":"トイ川","lat":34.98444,"lng":135.330512,"zip":"6660201"},{"town":"鎌倉","koaza":"古門","lat":34.981273,"lng":135.331042,"zip":"6660202"},{"town":"杉生","koaza":"風呂ノ本","lat":34.982928,"lng":135.331752,"zip":"6660201"},{"town":"林田","koaza":"家廻","lat":34.946934,"lng":135.330701,"zip":"6660226"},{"town":"鎌倉","koaza":"深田","lat":34.98102,"lng":135.331846,"zip":"6660202"},{"town":"杤原","koaza":"和田","lat":34.947979,"lng":135.33166,"zip":"6660221"},{"town":"杉生","koaza":"森ノ本","lat":34.986036,"lng":135.331283,"zip":"6660201"},{"town":"林田","koaza":"水鳥","lat":34.947078,"lng":135.331317,"zip":"6660226"},{"town":"林田","koaza":"栃ノ木谷","lat":34.9433,"lng":135.331013,"zip":"6660226"},{"town":"杉生","koaza":"峽間","lat":34.988555,"lng":135.331823,"zip":"6660201"},{"town":"杉生","koaza":"栖ノ子","lat":34.985226,"lng":135.333546,"zip":"6660201"},{"town":"杉生","koaza":"山口","lat":35.002805,"lng":135.33156,"zip":"6660201"},{"town":"林田","koaza":"池尻","lat":34.94435,"lng":135.33178,"zip":"6660226"},{"town":"林田","koaza":"乾廻","lat":34.94619,"lng":135.331538,"zip":"6660226"},{"town":"林田","koaza":"宮垣内","lat":34.945035,"lng":135.331775,"zip":"6660226"},{"town":"杉生","koaza":"一ノ谷","lat":35.001503,"lng":135.333816,"zip":"6660201"},{"town":"杉生","koaza":"大北","lat":34.988524,"lng":135.332759,"zip":"6660201"},{"town":"林田","koaza":"南山","lat":34.942301,"lng":135.33334,"zip":"6660226"},{"town":"林田","koaza":"性蓮坊","lat":34.945216,"lng":135.333407,"zip":"6660226"},{"town":"杉生","koaza":"鍋田","lat":34.989431,"lng":135.333273,"zip":"6660201"},{"town":"鎌倉","koaza":"東門","lat":34.98163,"lng":135.334423,"zip":"6660202"},{"town":"鎌倉","koaza":"出口","lat":34.98172,"lng":135.335635,"zip":"6660202"},{"town":"杉生","koaza":"コウトウ","lat":34.994347,"lng":135.335313,"zip":"6660201"},{"town":"木津","koaza":"山添","lat":34.928062,"lng":135.338543,"zip":"6660225"},{"town":"鎌倉","koaza":"栖ノ子","lat":34.983239,"lng":135.336258,"zip":"6660202"},{"town":"杤原","koaza":"入口","lat":34.947464,"lng":135.336505,"zip":"6660221"},{"town":"杤原","koaza":"柿京地","lat":34.945337,"lng":135.335056,"zip":"6660221"},{"town":"木津","koaza":"島向","lat":34.936559,"lng":135.338242,"zip":"6660225"},{"town":"杤原","koaza":"堂ノ下","lat":34.946988,"lng":135.33472,"zip":"6660221"},{"town":"杤原","koaza":"堂ノ廻","lat":34.947274,"lng":135.335154,"zip":"6660221"},{"town":"杤原","koaza":"東良","lat":34.94609,"lng":135.33623,"zip":"6660221"},{"town":"木津","koaza":"茶垣内","lat":34.938889,"lng":135.339242,"zip":"6660225"},{"town":"杤原","koaza":"堂ノ前","lat":34.946432,"lng":135.33607,"zip":"6660221"},{"town":"杤原","koaza":"吉田廻","lat":34.9484,"lng":135.337055,"zip":"6660221"},{"town":"杤原","koaza":"田中廻","lat":34.948819,"lng":135.337942,"zip":"6660221"},{"town":"杤原","koaza":"巻谷","lat":34.953479,"lng":135.338251,"zip":"6660221"},{"town":"木津","koaza":"寺垣内","lat":34.939928,"lng":135.339229,"zip":"6660225"},{"town":"木津","koaza":"福田垣内","lat":34.941872,"lng":135.339716,"zip":"6660225"},{"town":"木津","koaza":"西島","lat":34.935694,"lng":135.338152,"zip":"6660225"},{"town":"杤原","koaza":"宮下","lat":34.94761,"lng":135.338089,"zip":"6660221"},{"town":"杤原","koaza":"柏ノ木","lat":34.949092,"lng":135.340182,"zip":"6660221"},{"town":"木津","koaza":"飛田","lat":34.935124,"lng":135.33914,"zip":"6660225"},{"town":"木津","koaza":"御所垣内","lat":34.93652,"lng":135.339102,"zip":"6660225"},{"town":"杉生","koaza":"東","lat":35.021178,"lng":135.345158,"zip":"6660201"},{"town":"木間生","koaza":"大道下","lat":34.945473,"lng":135.341868,"zip":"6660223"},{"town":"杤原","koaza":"東山","lat":34.948558,"lng":135.340705,"zip":"6660221"},{"town":"木津","koaza":"丸垣内","lat":34.939156,"lng":135.339973,"zip":"6660225"},{"town":"木津","koaza":"谷","lat":34.934453,"lng":135.340442,"zip":"6660225"},{"town":"木津","koaza":"戸塚尻","lat":34.937192,"lng":135.340107,"zip":"6660225"},{"town":"万善","koaza":"十貫","lat":34.925537,"lng":135.342936,"zip":"6660224"},{"town":"木津","koaza":"正ヵ本","lat":34.935615,"lng":135.34156,"zip":"6660225"},{"town":"木津","koaza":"風呂尻","lat":34.935767,"lng":135.34115,"zip":"6660225"},{"town":"木津","koaza":"鳴海","lat":34.934078,"lng":135.342209,"zip":"6660225"},{"town":"木間生","koaza":"雨ヒヤケ田","lat":34.947399,"lng":135.34165,"zip":"6660223"},{"town":"木津","koaza":"有井","lat":34.92951,"lng":135.34442,"zip":"6660225"},{"town":"木津","koaza":"八幡","lat":34.932835,"lng":135.341361,"zip":"6660225"},{"town":"木津","koaza":"八瀬林","lat":34.940842,"lng":135.341952,"zip":"6660225"},{"town":"木津","koaza":"早田","lat":34.933779,"lng":135.342817,"zip":"6660225"},{"town":"木間生","koaza":"北ノ丁","lat":34.947845,"lng":135.342299,"zip":"6660223"},{"town":"木津","koaza":"南垣内","lat":34.932408,"lng":135.342384,"zip":"6660225"},{"town":"木間生","koaza":"弥七郎畑","lat":34.944991,"lng":135.342501,"zip":"6660223"},{"town":"木間生","koaza":"前芝","lat":34.945557,"lng":135.343295,"zip":"6660223"},{"town":"木間生","koaza":"下前","lat":34.944284,"lng":135.343879,"zip":"6660223"},{"town":"木津","koaza":"東山","lat":34.934942,"lng":135.345481,"zip":"6660225"},{"town":"木津","koaza":"久保田","lat":34.930829,"lng":135.34264,"zip":"6660225"},{"town":"木津","koaza":"中島","lat":34.931626,"lng":135.343052,"zip":"6660225"},{"town":"木津","koaza":"座尾","lat":34.933592,"lng":135.343658,"zip":"6660225"},{"town":"木津","koaza":"笠嶺","lat":34.939276,"lng":135.345876,"zip":"6660225"},{"town":"木津","koaza":"山瀬","lat":34.932606,"lng":135.344317,"zip":"6660225"},{"town":"銀山","koaza":"新町","lat":34.905567,"lng":135.346745,"zip":"6660256"},{"town":"木津","koaza":"アミダブ","lat":34.9303,"lng":135.344191,"zip":"6660225"},{"town":"木津","koaza":"川向","lat":34.927322,"lng":135.345707,"zip":"6660225"},{"town":"万善","koaza":"北アジヤリ","lat":34.921446,"lng":135.348467,"zip":"6660224"},{"town":"木津","koaza":"鰻谷","lat":34.930404,"lng":135.345229,"zip":"6660225"},{"town":"銀山","koaza":"三丁目","lat":34.89717,"lng":135.347111,"zip":"6660256"},{"town":"木津","koaza":"井ノ上","lat":34.931357,"lng":135.347241,"zip":"6660225"},{"town":"銀山","koaza":"滝口","lat":34.898272,"lng":135.344198,"zip":"6660256"},{"town":"木津","koaza":"下庵","lat":34.930164,"lng":135.346312,"zip":"6660225"},{"town":"木津","koaza":"有井裏","lat":34.929264,"lng":135.346068,"zip":"6660225"},{"town":"万善","koaza":"寺ノ内","lat":34.924034,"lng":135.34582,"zip":"6660224"},{"town":"万善","koaza":"対津","lat":34.92553,"lng":135.349024,"zip":"6660224"},{"town":"木津","koaza":"細ヵ平井","lat":34.928077,"lng":135.347441,"zip":"6660225"},{"town":"木津","koaza":"上山","lat":34.92982,"lng":135.348683,"zip":"6660225"},{"town":"銀山","koaza":"牢ヶ谷","lat":34.896342,"lng":135.34693,"zip":"6660256"},{"town":"銀山","koaza":"甘露寺山","lat":34.896197,"lng":135.348208,"zip":"6660256"},{"town":"広根","koaza":"田ノ向","lat":34.892812,"lng":135.351399,"zip":"6660252"},{"town":"万善","koaza":"北殿","lat":34.920571,"lng":135.351385,"zip":"6660224"},{"town":"銀山","koaza":"本町","lat":34.897916,"lng":135.348999,"zip":"6660256"},{"town":"万善","koaza":"南アジヤリ","lat":34.92021,"lng":135.350531,"zip":"6660224"},{"town":"万善","koaza":"竹添","lat":34.919852,"lng":135.351506,"zip":"6660224"},{"town":"槻並","koaza":"金ガ谷","lat":34.936919,"lng":135.351904,"zip":"6660222"},{"town":"万善","koaza":"寺ノ下通","lat":34.921492,"lng":135.352749,"zip":"6660224"},{"town":"万善","koaza":"向田","lat":34.917691,"lng":135.351967,"zip":"6660224"},{"town":"槻並","koaza":"福西垣内","lat":34.929397,"lng":135.351857,"zip":"6660222"},{"town":"銀山","koaza":"大口","lat":34.895733,"lng":135.351735,"zip":"6660256"},{"town":"槻並","koaza":"奥西垣内","lat":34.928182,"lng":135.352881,"zip":"6660222"},{"town":"槻並","koaza":"大井戸","lat":34.938176,"lng":135.353079,"zip":"6660222"},{"town":"南田原","koaza":"保垣","lat":34.908226,"lng":135.365217,"zip":"6660235"},{"town":"万善","koaza":"渕ノ上","lat":34.918108,"lng":135.353127,"zip":"6660224"},{"town":"万善","koaza":"佐保姫","lat":34.919521,"lng":135.352888,"zip":"6660224"},{"town":"槻並","koaza":"中道筋","lat":34.937055,"lng":135.353535,"zip":"6660222"},{"town":"万善","koaza":"東山","lat":34.921665,"lng":135.353339,"zip":"6660224"},{"town":"槻並","koaza":"大海","lat":34.950918,"lng":135.355466,"zip":"6660222"},{"town":"万善","koaza":"鬼ヶ門","lat":34.918728,"lng":135.355226,"zip":"6660224"},{"town":"銀山","koaza":"笹原","lat":34.894857,"lng":135.353816,"zip":"6660256"},{"town":"槻並","koaza":"中筋","lat":34.924115,"lng":135.358481,"zip":"6660222"},{"town":"槻並","koaza":"カツコウ","lat":34.93673,"lng":135.35442,"zip":"6660222"},{"town":"銀山","koaza":"長者町","lat":34.894476,"lng":135.354876,"zip":"6660256"},{"town":"槻並","koaza":"加味垣内","lat":34.922615,"lng":135.354357,"zip":"6660222"},{"town":"槻並","koaza":"グミノ木阪","lat":34.938303,"lng":135.355015,"zip":"6660222"},{"town":"槻並","koaza":"西中垣内","lat":34.927841,"lng":135.354792,"zip":"6660222"},{"town":"槻並","koaza":"小田","lat":34.932221,"lng":135.355509,"zip":"6660222"},{"town":"万善","koaza":"岩屋","lat":34.91749,"lng":135.355874,"zip":"6660224"},{"town":"広根","koaza":"三反田","lat":34.893484,"lng":135.356062,"zip":"6660252"},{"town":"槻並","koaza":"宮ノ前","lat":34.929354,"lng":135.356002,"zip":"6660222"},{"town":"槻並","koaza":"田畑","lat":34.931539,"lng":135.356108,"zip":"6660222"},{"town":"槻並","koaza":"大グロ","lat":34.929275,"lng":135.355774,"zip":"6660222"},{"town":"万善","koaza":"烏帽子岩","lat":34.918203,"lng":135.356858,"zip":"6660224"},{"town":"槻並","koaza":"新堂下","lat":34.930247,"lng":135.360918,"zip":"6660222"},{"town":"槻並","koaza":"田中垣内","lat":34.934226,"lng":135.361332,"zip":"6660222"},{"town":"槻並","koaza":"才ヵ鼻","lat":34.938536,"lng":135.356809,"zip":"6660222"},{"town":"広根","koaza":"四軒茶屋","lat":34.893274,"lng":135.357065,"zip":"6660252"},{"town":"槻並","koaza":"森元","lat":34.936309,"lng":135.356959,"zip":"6660222"},{"town":"槻並","koaza":"前久保","lat":34.937436,"lng":135.358123,"zip":"6660222"},{"town":"北田原","koaza":"西畑","lat":34.914433,"lng":135.357889,"zip":"6660236"},{"town":"北田原","koaza":"掛ヶ坂","lat":34.919167,"lng":135.360189,"zip":"6660236"},{"town":"北田原","koaza":"屏風岳","lat":34.916542,"lng":135.358933,"zip":"6660236"},{"town":"広根","koaza":"口ヶ平井","lat":34.892634,"lng":135.358442,"zip":"6660252"},{"town":"北田原","koaza":"屏風浦","lat":34.915719,"lng":135.358688,"zip":"6660236"},{"town":"槻並","koaza":"久保ノ奥","lat":34.938744,"lng":135.363971,"zip":"6660222"},{"town":"北田原","koaza":"寺ノ前","lat":34.915408,"lng":135.359908,"zip":"6660236"},{"town":"槻並","koaza":"北垣内","lat":34.941404,"lng":135.359208,"zip":"6660222"},{"town":"広根","koaza":"飛詰","lat":34.893564,"lng":135.360858,"zip":"6660252"},{"town":"北田原","koaza":"奥岩ヶ谷","lat":34.923964,"lng":135.367171,"zip":"6660236"},{"town":"槻並","koaza":"廣代","lat":34.944633,"lng":135.362724,"zip":"6660222"},{"town":"北田原","koaza":"宮ノ西","lat":34.913782,"lng":135.362499,"zip":"6660236"},{"town":"北田原","koaza":"シトラ","lat":34.913064,"lng":135.362456,"zip":"6660236"},{"town":"北田原","koaza":"上山","lat":34.915883,"lng":135.362398,"zip":"6660236"},{"town":"広根","koaza":"町屋本","lat":34.892769,"lng":135.362817,"zip":"6660252"},{"town":"北田原","koaza":"岩ヶ谷","lat":34.919577,"lng":135.364221,"zip":"6660236"},{"town":"北田原","koaza":"丸山","lat":34.91696,"lng":135.364361,"zip":"6660236"},{"town":"広根","koaza":"宮ノ脇","lat":34.894682,"lng":135.362771,"zip":"6660252"},{"town":"北田原","koaza":"宮ノ前","lat":34.912998,"lng":135.36372,"zip":"6660236"},{"town":"広根","koaza":"町屋東","lat":34.892156,"lng":135.365924,"zip":"6660252"},{"town":"槻並","koaza":"流田","lat":34.947339,"lng":135.364932,"zip":"6660222"},{"town":"北田原","koaza":"ソリ","lat":34.911638,"lng":135.364527,"zip":"6660236"},{"town":"北田原","koaza":"宮ノ東","lat":34.913925,"lng":135.363891,"zip":"6660236"},{"town":"広根","koaza":"上代","lat":34.893619,"lng":135.364374,"zip":"6660252"},{"town":"槻並","koaza":"大仁部","lat":34.950373,"lng":135.366156,"zip":"6660222"},{"town":"広根","koaza":"天尾","lat":34.89562,"lng":135.365492,"zip":"6660252"},{"town":"広根","koaza":"奥ノ谷","lat":34.890891,"lng":135.366925,"zip":"6660252"},{"town":"南田原","koaza":"寺前","lat":34.910083,"lng":135.364897,"zip":"6660235"},{"town":"北田原","koaza":"内田","lat":34.913639,"lng":135.365285,"zip":"6660236"},{"town":"北田原","koaza":"釜谷","lat":34.918781,"lng":135.364943,"zip":"6660236"},{"town":"広根","koaza":"大上","lat":34.889257,"lng":135.365626,"zip":"6660252"},{"town":"北田原","koaza":"山添","lat":34.91503,"lng":135.366095,"zip":"6660236"},{"town":"槻並","koaza":"岩ガ平井","lat":34.945134,"lng":135.369433,"zip":"6660222"},{"town":"北田原","koaza":"カイジリ","lat":34.912315,"lng":135.365528,"zip":"6660236"},{"town":"広根","koaza":"西郷","lat":34.893248,"lng":135.365208,"zip":"6660252"},{"town":"広根","koaza":"上突田","lat":34.888437,"lng":135.365678,"zip":"6660252"},{"town":"北田原","koaza":"下作","lat":34.912893,"lng":135.367974,"zip":"6660236"},{"town":"広根","koaza":"庄司","lat":34.89514,"lng":135.366281,"zip":"6660252"},{"town":"広根","koaza":"東郷","lat":34.894151,"lng":135.365625,"zip":"6660252"},{"town":"南田原","koaza":"上丁","lat":34.908084,"lng":135.366737,"zip":"6660235"},{"town":"広根","koaza":"大水口","lat":34.894287,"lng":135.366175,"zip":"6660252"},{"town":"北田原","koaza":"畑ヶ田","lat":34.914379,"lng":135.366103,"zip":"6660236"},{"town":"北田原","koaza":"長竿","lat":34.913487,"lng":135.366857,"zip":"6660236"},{"town":"北田原","koaza":"畑ヶ谷","lat":34.91671,"lng":135.367515,"zip":"6660236"},{"town":"北田原","koaza":"野手","lat":34.912454,"lng":135.366472,"zip":"6660236"},{"town":"広根","koaza":"南突田","lat":34.889097,"lng":135.366734,"zip":"6660252"},{"town":"広根","koaza":"西久保","lat":34.891821,"lng":135.366762,"zip":"6660252"},{"town":"北田原","koaza":"東畑","lat":34.915106,"lng":135.367259,"zip":"6660236"},{"town":"広根","koaza":"三本木","lat":34.89287,"lng":135.367053,"zip":"6660252"},{"town":"広根","koaza":"清水","lat":34.895034,"lng":135.367075,"zip":"6660252"},{"town":"槻並","koaza":"間明田","lat":34.947069,"lng":135.366808,"zip":"6660222"},{"town":"南田原","koaza":"腰前","lat":34.908349,"lng":135.367988,"zip":"6660235"},{"town":"広根","koaza":"井谷口","lat":34.888461,"lng":135.367333,"zip":"6660252"},{"town":"北田原","koaza":"谷口","lat":34.91344,"lng":135.370829,"zip":"6660236"},{"town":"広根","koaza":"久保東","lat":34.891535,"lng":135.368133,"zip":"6660252"},{"town":"広根","koaza":"白ノ辻","lat":34.89227,"lng":135.368435,"zip":"6660252"},{"town":"南田原","koaza":"泓ノ坪","lat":34.908998,"lng":135.367481,"zip":"6660235"},{"town":"槻並","koaza":"中島垣内","lat":34.949408,"lng":135.369382,"zip":"6660222"},{"town":"下阿古谷","koaza":"井谷垣内","lat":34.927688,"lng":135.370825,"zip":"6660237"},{"town":"広根","koaza":"大谷","lat":34.894327,"lng":135.368437,"zip":"6660252"},{"town":"南田原","koaza":"コブラ田","lat":34.905742,"lng":135.368764,"zip":"6660235"},{"town":"広根","koaza":"上京田","lat":34.89008,"lng":135.369232,"zip":"6660252"},{"town":"広根","koaza":"向垣内","lat":34.888925,"lng":135.368473,"zip":"6660252"},{"town":"北田原","koaza":"東山田","lat":34.913058,"lng":135.368705,"zip":"6660236"},{"town":"南田原","koaza":"幾志","lat":34.908955,"lng":135.36912,"zip":"6660235"},{"town":"槻並","koaza":"清沢","lat":34.951499,"lng":135.371623,"zip":"6660222"},{"town":"広根","koaza":"ハザマ","lat":34.888984,"lng":135.3698,"zip":"6660252"},{"town":"広根","koaza":"西ヲコダ","lat":34.89085,"lng":135.370146,"zip":"6660252"},{"town":"広根","koaza":"南后久","lat":34.891394,"lng":135.370037,"zip":"6660252"},{"town":"槻並","koaza":"惣田","lat":34.95039,"lng":135.369365,"zip":"6660222"},{"town":"広根","koaza":"北后久","lat":34.891958,"lng":135.369642,"zip":"6660252"},{"town":"広根","koaza":"上堀曽","lat":34.89375,"lng":135.37041,"zip":"6660252"},{"town":"下阿古谷","koaza":"上殿垣内","lat":34.924894,"lng":135.373212,"zip":"6660237"},{"town":"広根","koaza":"中堀曽","lat":34.892793,"lng":135.370635,"zip":"6660252"},{"town":"北野","koaza":"北畑","lat":34.909211,"lng":135.370429,"zip":"6660234"},{"town":"北野","koaza":"伊山ノ下","lat":34.907712,"lng":135.370293,"zip":"6660234"},{"town":"紫合","koaza":"北裏","lat":34.906355,"lng":135.370964,"zip":"6660233"},{"town":"北野","koaza":"南垣内","lat":34.907484,"lng":135.371094,"zip":"6660234"},{"town":"紫合","koaza":"釘貫","lat":34.903765,"lng":135.371322,"zip":"6660233"},{"town":"北野","koaza":"上畑","lat":34.909156,"lng":135.371396,"zip":"6660234"},{"town":"北野","koaza":"水カキ","lat":34.906933,"lng":135.370906,"zip":"6660234"},{"town":"広根","koaza":"下京田","lat":34.889857,"lng":135.371326,"zip":"6660252"},{"town":"紫合","koaza":"下釘貫","lat":34.90262,"lng":135.3719,"zip":"6660233"},{"town":"広根","koaza":"東ヲコダ","lat":34.890676,"lng":135.371577,"zip":"6660252"},{"town":"柏梨田","koaza":"イハノ谷","lat":34.900551,"lng":135.373919,"zip":"6660243"},{"town":"広根","koaza":"辛坪","lat":34.891724,"lng":135.371456,"zip":"6660252"},{"town":"広根","koaza":"北下代","lat":34.888925,"lng":135.372142,"zip":"6660252"},{"town":"北野","koaza":"道東","lat":34.90815,"lng":135.371637,"zip":"6660234"},{"town":"北野","koaza":"池尻","lat":34.906688,"lng":135.37229,"zip":"6660234"},{"town":"広根","koaza":"下堀曽","lat":34.892001,"lng":135.371949,"zip":"6660252"},{"town":"紫合","koaza":"北ノ町","lat":34.905315,"lng":135.372492,"zip":"6660233"},{"town":"上阿古谷","koaza":"堂ノ下","lat":34.943976,"lng":135.374856,"zip":"6660231"},{"town":"柏梨田","koaza":"百町","lat":34.898417,"lng":135.374727,"zip":"6660243"},{"town":"紫合","koaza":"辻北","lat":34.904125,"lng":135.37281,"zip":"6660233"},{"town":"広根","koaza":"九十九","lat":34.891128,"lng":135.373036,"zip":"6660252"},{"town":"紫合","koaza":"菜畑","lat":34.902865,"lng":135.372831,"zip":"6660233"},{"town":"紫合","koaza":"坊谷","lat":34.912898,"lng":135.375927,"zip":"6660233"},{"town":"広根","koaza":"南下代","lat":34.888291,"lng":135.374034,"zip":"6660252"},{"town":"柏梨田","koaza":"井ハノ谷","lat":34.899872,"lng":135.373131,"zip":"6660243"},{"town":"紫合","koaza":"芝ノ上","lat":34.915684,"lng":135.375007,"zip":"6660233"},{"town":"広根","koaza":"稲村","lat":34.891092,"lng":135.373361,"zip":"6660252"},{"town":"紫合","koaza":"白山前","lat":34.905086,"lng":135.374074,"zip":"6660233"},{"town":"広根","koaza":"北野尻","lat":34.890547,"lng":135.375481,"zip":"6660252"},{"town":"上阿古谷","koaza":"竃ノ本","lat":34.945798,"lng":135.377496,"zip":"6660231"},{"town":"紫合","koaza":"火燈山","lat":34.908399,"lng":135.375437,"zip":"6660233"},{"town":"紫合","koaza":"宮本","lat":34.904215,"lng":135.374203,"zip":"6660233"},{"town":"紫合","koaza":"街東","lat":34.903126,"lng":135.373599,"zip":"6660233"},{"town":"紫合","koaza":"橋本","lat":34.902746,"lng":135.373965,"zip":"6660233"},{"town":"紫合","koaza":"遠辺","lat":34.902384,"lng":135.375122,"zip":"6660233"},{"town":"紫合","koaza":"堂田","lat":34.906306,"lng":135.374413,"zip":"6660233"},{"town":"柏梨田","koaza":"ハザマ","lat":34.897299,"lng":135.375396,"zip":"6660243"},{"town":"広根","koaza":"野尻","lat":34.890045,"lng":135.375146,"zip":"6660252"},{"town":"柏梨田","koaza":"前ヶ谷","lat":34.896734,"lng":135.376508,"zip":"6660243"},{"town":"上阿古谷","koaza":"奥西","lat":34.941267,"lng":135.376583,"zip":"6660231"},{"town":"広根","koaza":"神子ノ辻","lat":34.888713,"lng":135.37546,"zip":"6660252"},{"town":"柏梨田","koaza":"三ッ原","lat":34.895905,"lng":135.375079,"zip":"6660243"},{"town":"下阿古谷","koaza":"黒末","lat":34.928102,"lng":135.376338,"zip":"6660237"},{"town":"柏梨田","koaza":"塩井","lat":34.899453,"lng":135.375239,"zip":"6660243"},{"town":"柏梨田","koaza":"城見","lat":34.901118,"lng":135.374819,"zip":"6660243"},{"town":"紫合","koaza":"八幡傍","lat":34.90536,"lng":135.375609,"zip":"6660233"},{"town":"紫合","koaza":"鳥兎谷","lat":34.910077,"lng":135.376419,"zip":"6660233"},{"town":"紫合","koaza":"東堂田","lat":34.905863,"lng":135.37534,"zip":"6660233"},{"town":"紫合","koaza":"畔添","lat":34.901913,"lng":135.376591,"zip":"6660233"},{"town":"紫合","koaza":"岸垣内","lat":34.903622,"lng":135.375523,"zip":"6660233"},{"town":"上野","koaza":"北山","lat":34.893387,"lng":135.375438,"zip":"6660244"},{"town":"上野","koaza":"北畑","lat":34.895695,"lng":135.376862,"zip":"6660244"},{"town":"紫合","koaza":"愛宕下","lat":34.907218,"lng":135.376758,"zip":"6660233"},{"town":"上野","koaza":"町廻","lat":34.893788,"lng":135.377048,"zip":"6660244"},{"town":"上阿古谷","koaza":"仁部","lat":34.938401,"lng":135.378486,"zip":"6660231"},{"town":"柏梨田","koaza":"イクシ","lat":34.899171,"lng":135.375594,"zip":"6660243"},{"town":"柏梨田","koaza":"仕坊","lat":34.900095,"lng":135.376381,"zip":"6660243"},{"town":"下阿古谷","koaza":"岡垣内","lat":34.925756,"lng":135.376045,"zip":"6660237"},{"town":"柏梨田","koaza":"下女田","lat":34.899662,"lng":135.376088,"zip":"6660243"},{"town":"紫合","koaza":"嵯峨畑","lat":34.905901,"lng":135.377005,"zip":"6660233"},{"town":"紫合","koaza":"前区","lat":34.906642,"lng":135.376203,"zip":"6660233"},{"town":"下阿古谷","koaza":"明神ヶ谷口","lat":34.923256,"lng":135.376126,"zip":"6660237"},{"town":"上野","koaza":"池尻","lat":34.892276,"lng":135.375542,"zip":"6660244"},{"town":"広根","koaza":"東山","lat":34.889198,"lng":135.375808,"zip":"6660252"},{"town":"紫合","koaza":"越前","lat":34.903542,"lng":135.377129,"zip":"6660233"},{"town":"紫合","koaza":"東垣内","lat":34.904133,"lng":135.377108,"zip":"6660233"},{"town":"柏梨田","koaza":"下ノ子","lat":34.89745,"lng":135.376539,"zip":"6660243"},{"town":"紫合","koaza":"井口","lat":34.920153,"lng":135.376805,"zip":"6660233"},{"town":"紫合","koaza":"大谷口","lat":34.914846,"lng":135.377892,"zip":"6660233"},{"town":"下阿古谷","koaza":"前町","lat":34.925445,"lng":135.377968,"zip":"6660237"},{"town":"紫合","koaza":"際目谷","lat":34.92198,"lng":135.381335,"zip":"6660233"},{"town":"紫合","koaza":"増川平","lat":34.907318,"lng":135.377957,"zip":"6660233"},{"town":"上野","koaza":"西ノ垣内","lat":34.894915,"lng":135.377695,"zip":"6660244"},{"town":"柏梨田","koaza":"樋ノ口","lat":34.898872,"lng":135.377579,"zip":"6660243"},{"town":"紫合","koaza":"間野原","lat":34.91865,"lng":135.377975,"zip":"6660233"},{"town":"紫合","koaza":"大区","lat":34.919716,"lng":135.377547,"zip":"6660233"},{"town":"紫合","koaza":"笹ヶ芝","lat":34.908828,"lng":135.377948,"zip":"6660233"},{"town":"上野","koaza":"小西","lat":34.892989,"lng":135.378043,"zip":"6660244"},{"town":"柏梨田","koaza":"高関","lat":34.899273,"lng":135.37818,"zip":"6660243"},{"town":"柏梨田","koaza":"ヲカンゾ","lat":34.900069,"lng":135.378202,"zip":"6660243"},{"town":"柏梨田","koaza":"扇ヶ瀬","lat":34.897232,"lng":135.378677,"zip":"6660243"},{"town":"紫合","koaza":"古屋","lat":34.908332,"lng":135.37858,"zip":"6660233"},{"town":"下阿古谷","koaza":"下前田","lat":34.927934,"lng":135.37863,"zip":"6660237"},{"town":"紫合","koaza":"古津側山","lat":34.91005,"lng":135.381601,"zip":"6660233"},{"town":"下阿古谷","koaza":"南前田","lat":34.926693,"lng":135.380361,"zip":"6660237"},{"town":"紫合","koaza":"小屋ヶ谷","lat":34.919546,"lng":135.381581,"zip":"6660233"},{"town":"紫合","koaza":"荒堀","lat":34.907985,"lng":135.379247,"zip":"6660233"},{"town":"紫合","koaza":"赤阪","lat":34.909811,"lng":135.378273,"zip":"6660233"},{"town":"上野","koaza":"和田山","lat":34.895639,"lng":135.383157,"zip":"6660244"},{"town":"紫合","koaza":"西赤坂","lat":34.910665,"lng":135.378623,"zip":"6660233"},{"town":"差組","koaza":"向イ","lat":34.881076,"lng":135.378662,"zip":"6660253"},{"town":"紫合","koaza":"神子ヶ谷","lat":34.916805,"lng":135.378435,"zip":"6660233"},{"town":"上阿古谷","koaza":"釜ヶ谷","lat":34.941436,"lng":135.378305,"zip":"6660231"},{"town":"上野","koaza":"釜床","lat":34.894142,"lng":135.378734,"zip":"6660244"},{"town":"紫合","koaza":"脇田","lat":34.911595,"lng":135.378802,"zip":"6660233"},{"town":"上阿古谷","koaza":"西ヶ平","lat":34.940316,"lng":135.378952,"zip":"6660231"},{"town":"差組","koaza":"大野","lat":34.880755,"lng":135.37978,"zip":"6660253"},{"town":"紫合","koaza":"古津ヶ平","lat":34.909761,"lng":135.379315,"zip":"6660233"},{"town":"紫合","koaza":"梅ノ木原","lat":34.91509,"lng":135.381175,"zip":"6660233"},{"town":"紫合","koaza":"氏上","lat":34.908989,"lng":135.380161,"zip":"6660233"},{"town":"上野","koaza":"堂ノ本","lat":34.895885,"lng":135.380519,"zip":"6660244"},{"town":"柏梨田","koaza":"水戸オサ","lat":34.897943,"lng":135.379876,"zip":"6660243"},{"town":"上阿古谷","koaza":"兵ヱ垣内","lat":34.940627,"lng":135.380417,"zip":"6660231"},{"town":"原","koaza":"鍋倉","lat":34.900585,"lng":135.381087,"zip":"6660242"},{"town":"上阿古谷","koaza":"清水垣内","lat":34.939705,"lng":135.380215,"zip":"6660231"},{"town":"紫合","koaza":"池谷","lat":34.914129,"lng":135.383534,"zip":"6660233"},{"town":"原","koaza":"西垣内","lat":34.898859,"lng":135.381474,"zip":"6660242"},{"town":"上野","koaza":"和田","lat":34.894308,"lng":135.38167,"zip":"6660244"},{"town":"上阿古谷","koaza":"柳谷","lat":34.944412,"lng":135.383646,"zip":"6660231"},{"town":"上阿古谷","koaza":"庵ノ下","lat":34.937497,"lng":135.380651,"zip":"6660231"},{"town":"上野","koaza":"宮垣内","lat":34.896761,"lng":135.380823,"zip":"6660244"},{"town":"上阿古谷","koaza":"桶屋畑","lat":34.93826,"lng":135.381161,"zip":"6660231"},{"town":"紫合","koaza":"新林","lat":34.906628,"lng":135.382546,"zip":"6660233"},{"town":"原","koaza":"坊ノ谷","lat":34.89963,"lng":135.381792,"zip":"6660242"},{"town":"原","koaza":"前垣内","lat":34.902254,"lng":135.382909,"zip":"6660242"},{"town":"上阿古谷","koaza":"花ヶ谷","lat":34.937265,"lng":135.38193,"zip":"6660231"},{"town":"上阿古谷","koaza":"宮ノ下","lat":34.938691,"lng":135.382243,"zip":"6660231"},{"town":"上阿古谷","koaza":"畑ヶ芝","lat":34.935378,"lng":135.382057,"zip":"6660231"},{"town":"上野","koaza":"和田ノ下","lat":34.89654,"lng":135.382188,"zip":"6660244"},{"town":"上阿古谷","koaza":"西久保","lat":34.93836,"lng":135.381885,"zip":"6660231"},{"town":"原","koaza":"郷蔵垣内","lat":34.899098,"lng":135.382734,"zip":"6660242"},{"town":"原","koaza":"湯屋向","lat":34.904357,"lng":135.383524,"zip":"6660242"},{"town":"原","koaza":"宮ノ向","lat":34.905957,"lng":135.383844,"zip":"6660242"},{"town":"原","koaza":"尾崎","lat":34.900155,"lng":135.38296,"zip":"6660242"},{"town":"上阿古谷","koaza":"宮ノ脇","lat":34.93724,"lng":135.382614,"zip":"6660231"},{"town":"上阿古谷","koaza":"寺垣内","lat":34.938999,"lng":135.383407,"zip":"6660231"},{"town":"原","koaza":"東垣内","lat":34.900229,"lng":135.384135,"zip":"6660242"},{"town":"上阿古谷","koaza":"垣内","lat":34.937282,"lng":135.383836,"zip":"6660231"},{"town":"原","koaza":"上田尻","lat":34.899218,"lng":135.383875,"zip":"6660242"},{"town":"上阿古谷","koaza":"越中垣内","lat":34.939144,"lng":135.384156,"zip":"6660231"},{"town":"原","koaza":"尾鼻ヶ尾","lat":34.913484,"lng":135.386521,"zip":"6660242"},{"town":"原","koaza":"蔭ノ田","lat":34.901539,"lng":135.384579,"zip":"6660242"},{"town":"原","koaza":"笹ヶ頭","lat":34.90703,"lng":135.384762,"zip":"6660242"},{"town":"上阿古谷","koaza":"能田ヶ谷","lat":34.94047,"lng":135.386181,"zip":"6660231"},{"town":"原","koaza":"岡垣内","lat":34.907251,"lng":135.385062,"zip":"6660242"},{"town":"原","koaza":"鶏ヶ谷","lat":34.909191,"lng":135.385367,"zip":"6660242"},{"town":"原","koaza":"骨川","lat":34.907941,"lng":135.385475,"zip":"6660242"},{"town":"上阿古谷","koaza":"能勢谷","lat":34.938787,"lng":135.38561,"zip":"6660231"},{"town":"原","koaza":"芝脇","lat":34.903005,"lng":135.386908,"zip":"6660242"},{"town":"原","koaza":"桶川","lat":34.909188,"lng":135.387127,"zip":"6660242"},{"town":"原","koaza":"中道","lat":34.908845,"lng":135.38805,"zip":"6660242"},{"town":"原","koaza":"中筋","lat":34.909364,"lng":135.388961,"zip":"6660242"},{"town":"原","koaza":"森脇","lat":34.910387,"lng":135.388932,"zip":"6660242"},{"town":"原","koaza":"滝ヶ本","lat":34.911027,"lng":135.389741,"zip":"6660242"},{"town":"原","koaza":"向畑","lat":34.909828,"lng":135.39085,"zip":"6660242"},{"town":"民田","koaza":"辻垣","lat":34.933159,"lng":135.395931,"zip":"6660232"},{"town":"民田","koaza":"北垣","lat":34.932014,"lng":135.392255,"zip":"6660232"},{"town":"内馬場","koaza":"西垣内","lat":34.913864,"lng":135.393032,"zip":"6660241"},{"town":"民田","koaza":"宮前","lat":34.93283,"lng":135.393418,"zip":"6660232"},{"town":"内馬場","koaza":"北谷","lat":34.915668,"lng":135.39396,"zip":"6660241"},{"town":"民田","koaza":"寺下","lat":34.936488,"lng":135.396612,"zip":"6660232"},{"town":"内馬場","koaza":"東垣内","lat":34.914186,"lng":135.395563,"zip":"6660241"},{"town":"民田","koaza":"免田","lat":34.933618,"lng":135.394048,"zip":"6660232"},{"town":"民田","koaza":"一反田","lat":34.933467,"lng":135.395376,"zip":"6660232"},{"town":"内馬場","koaza":"向田","lat":34.915356,"lng":135.397097,"zip":"6660241"},{"town":"民田","koaza":"中通","lat":34.93349,"lng":135.39654,"zip":"6660232"},{"town":"柏梨田","koaza":"小堂ノ上","lat":34.897643,"lng":135.374373,"zip":"6660243"},{"town":"杤原","koaza":"村上","lat":34.951728,"lng":135.333991,"zip":"6660221"},{"town":"槻並","koaza":"尾崎","lat":34.924974,"lng":135.353285,"zip":"6660222"},{"town":"広根","koaza":"宮前","lat":34.895707,"lng":135.363872,"zip":"6660252"}]