[{"town":"山田","koaza":"","lat":34.835323,"lng":134.623592,"zip":"6711501"},{"town":"原","koaza":"","lat":34.824683,"lng":134.618644,"zip":"6711502"},{"town":"阿曽","koaza":"","lat":34.837222,"lng":134.565056,"zip":"6711557"},{"town":"馬場","koaza":"","lat":34.840369,"lng":134.569786,"zip":"6711551"},{"town":"鵤","koaza":"","lat":34.837145,"lng":134.576707,"zip":"6711561"},{"town":"東保","koaza":"","lat":34.836097,"lng":134.586605,"zip":"6711524"},{"town":"東出","koaza":"","lat":34.832456,"lng":134.594638,"zip":"6711521"},{"town":"太田","koaza":"","lat":34.83635,"lng":134.605872,"zip":"6711511"},{"town":"竹広","koaza":"","lat":34.816618,"lng":134.576882,"zip":"6711533"},{"town":"米田","koaza":"","lat":34.811096,"lng":134.576018,"zip":"6711542"},{"town":"沖代","koaza":"","lat":34.81045,"lng":134.57208,"zip":"6711543"},{"town":"塚森","koaza":"","lat":34.814167,"lng":134.572643,"zip":"6711541"},{"town":"吉福","koaza":"","lat":34.809716,"lng":134.563324,"zip":"6711544"},{"town":"岩見構","koaza":"","lat":34.815685,"lng":134.562321,"zip":"6711545"},{"town":"天満山","koaza":"","lat":34.823101,"lng":134.607868,"zip":"6711503"},{"town":"黒岡","koaza":"","lat":34.830553,"lng":134.608168,"zip":"6711504"},{"town":"糸井","koaza":"","lat":34.817202,"lng":134.580473,"zip":"6711532"},{"town":"矢田部","koaza":"","lat":34.82565,"lng":134.586885,"zip":"6711522"},{"town":"東南","koaza":"","lat":34.830594,"lng":134.586907,"zip":"6711523"},{"town":"蓮常寺","koaza":"","lat":34.822497,"lng":134.574989,"zip":"6711535"},{"town":"福地","koaza":"","lat":34.818746,"lng":134.569808,"zip":"6711534"},{"town":"立岡","koaza":"","lat":34.825869,"lng":134.57949,"zip":"6711531"},{"town":"老原","koaza":"","lat":34.8274,"lng":134.568977,"zip":"6711553"},{"town":"船代","koaza":"","lat":34.820432,"lng":134.560749,"zip":"6711554"},{"town":"宮本","koaza":"","lat":34.823174,"lng":134.561417,"zip":"6711555"},{"town":"下阿曽","koaza":"","lat":34.831392,"lng":134.565289,"zip":"6711552"},{"town":"常全","koaza":"","lat":34.827414,"lng":134.560926,"zip":"6711556"},{"town":"松ケ下","koaza":"","lat":34.842618,"lng":134.592585,"zip":"6711574"},{"town":"王子","koaza":"","lat":34.847645,"lng":134.593938,"zip":"6711572"},{"town":"佐用岡","koaza":"","lat":34.842749,"lng":134.584184,"zip":"6711575"},{"town":"上太田","koaza":"","lat":34.846397,"lng":134.604938,"zip":"6711573"},{"town":"松尾","koaza":"","lat":34.850844,"lng":134.58188,"zip":"6711576"},{"town":"広坂","koaza":"","lat":34.854997,"lng":134.591045,"zip":"6711571"},{"town":"老原","koaza":"市川原","lat":34.825429,"lng":134.572261,"zip":"6711553"},{"town":"糸井","koaza":"糸井池","lat":34.819175,"lng":134.584781,"zip":"6711532"},{"town":"東南","koaza":"後田","lat":34.832878,"lng":134.585539,"zip":"6711523"},{"town":"東南","koaza":"小山","lat":34.832764,"lng":134.591049,"zip":"6711523"},{"town":"東出","koaza":"平岩","lat":34.833824,"lng":134.593295,"zip":"6711521"},{"town":"鵤","koaza":"堂の内","lat":34.833434,"lng":134.580989,"zip":"6711561"}]