[{"town":"大久保町茜三丁目","koaza":"","lat":34.694274,"lng":134.935177,"zip":"6740059"},{"town":"大久保町茜二丁目","koaza":"","lat":34.693433,"lng":134.937658,"zip":"6740059"},{"town":"大久保町茜一丁目","koaza":"","lat":34.69595,"lng":134.938114,"zip":"6740059"},{"town":"朝霧南町四丁目","koaza":"","lat":34.648091,"lng":135.013831,"zip":"6730870"},{"town":"朝霧南町三丁目","koaza":"","lat":34.64681,"lng":135.015179,"zip":"6730870"},{"town":"朝霧南町二丁目","koaza":"","lat":34.646346,"lng":135.017382,"zip":"6730870"},{"town":"朝霧南町一丁目","koaza":"","lat":34.645244,"lng":135.018776,"zip":"6730870"},{"town":"朝霧東町三丁目","koaza":"","lat":34.649091,"lng":135.017258,"zip":"6730860"},{"town":"朝霧東町二丁目","koaza":"","lat":34.65104,"lng":135.016364,"zip":"6730860"},{"town":"朝霧東町一丁目","koaza":"","lat":34.652974,"lng":135.018305,"zip":"6730860"},{"town":"大久保町駅前二丁目","koaza":"","lat":34.685347,"lng":134.940547,"zip":"6740058"},{"town":"大久保町駅前一丁目","koaza":"","lat":34.682526,"lng":134.939623,"zip":"6740058"},{"town":"中崎一丁目","koaza":"","lat":34.643192,"lng":134.998665,"zip":"6730883"},{"town":"相生町二丁目","koaza":"","lat":34.645292,"lng":134.996777,"zip":"6730882"},{"town":"東仲ノ町","koaza":"","lat":34.648098,"lng":134.996364,"zip":"6730886"},{"town":"桜町","koaza":"","lat":34.646747,"lng":134.996152,"zip":"6730885"},{"town":"上ノ丸一丁目","koaza":"","lat":34.652309,"lng":134.998456,"zip":"6730846"},{"town":"上ノ丸三丁目","koaza":"","lat":34.656184,"lng":134.997312,"zip":"6730846"},{"town":"山下町","koaza":"","lat":34.649889,"lng":134.99671,"zip":"6730878"},{"town":"上ノ丸二丁目","koaza":"","lat":34.653126,"lng":134.996239,"zip":"6730846"},{"town":"明石公園","koaza":"","lat":34.654214,"lng":134.991812,"zip":"6730847"},{"town":"大久保町八木","koaza":"","lat":34.67323,"lng":134.931348,"zip":"6740063"},{"town":"大久保町谷八木","koaza":"","lat":34.669062,"lng":134.940737,"zip":"6740062"},{"town":"藤江","koaza":"","lat":34.664623,"lng":134.951127,"zip":"6730044"},{"town":"西明石西町二丁目","koaza":"","lat":34.668864,"lng":134.955281,"zip":"6730049"},{"town":"小久保三丁目","koaza":"","lat":34.671735,"lng":134.959082,"zip":"6730005"},{"town":"小久保一丁目","koaza":"","lat":34.669235,"lng":134.960229,"zip":"6730005"},{"town":"小久保五丁目","koaza":"","lat":34.671874,"lng":134.962193,"zip":"6730005"},{"town":"西明石北町三丁目","koaza":"","lat":34.670027,"lng":134.963812,"zip":"6730018"},{"town":"西明石北町二丁目","koaza":"","lat":34.671033,"lng":134.965046,"zip":"6730018"},{"town":"西明石北町一丁目","koaza":"","lat":34.671104,"lng":134.966776,"zip":"6730018"},{"town":"明南町一丁目","koaza":"","lat":34.671165,"lng":134.968932,"zip":"6730001"},{"town":"二見町南二見","koaza":"","lat":34.69301,"lng":134.873829,"zip":"6740093"},{"town":"二見町西二見","koaza":"","lat":34.708868,"lng":134.883044,"zip":"6740094"},{"town":"大蔵海岸通一丁目","koaza":"","lat":34.642682,"lng":135.01253,"zip":"6730879"},{"town":"大蔵海岸通二丁目","koaza":"","lat":34.643236,"lng":135.009162,"zip":"6730879"},{"town":"松が丘四丁目","koaza":"","lat":34.650201,"lng":135.022828,"zip":"6730862"},{"town":"朝霧町二丁目","koaza":"","lat":34.649133,"lng":135.011762,"zip":"6730866"},{"town":"大蔵八幡町","koaza":"","lat":34.64514,"lng":135.010591,"zip":"6730871"},{"town":"朝霧町一丁目","koaza":"","lat":34.647229,"lng":135.010709,"zip":"6730866"},{"town":"大蔵町","koaza":"","lat":34.645607,"lng":135.006758,"zip":"6730872"},{"town":"大蔵中町","koaza":"","lat":34.645548,"lng":135.004909,"zip":"6730873"},{"town":"大蔵本町","koaza":"","lat":34.645591,"lng":135.003336,"zip":"6730874"},{"town":"東人丸町","koaza":"","lat":34.649067,"lng":135.004511,"zip":"6730876"},{"town":"大蔵天神町","koaza":"","lat":34.64569,"lng":135.002011,"zip":"6730875"},{"town":"相生町一丁目","koaza":"","lat":34.644597,"lng":134.999313,"zip":"6730882"},{"town":"天文町二丁目","koaza":"","lat":34.646178,"lng":135.000109,"zip":"6730881"},{"town":"天文町一丁目","koaza":"","lat":34.647541,"lng":135.000345,"zip":"6730881"},{"town":"人丸町","koaza":"","lat":34.649853,"lng":135.000714,"zip":"6730877"},{"town":"松が丘二丁目","koaza":"","lat":34.654445,"lng":135.026856,"zip":"6730862"},{"town":"松が丘一丁目","koaza":"","lat":34.65708,"lng":135.029025,"zip":"6730862"},{"town":"松が丘北町","koaza":"","lat":34.659787,"lng":135.028627,"zip":"6730861"},{"town":"東山町","koaza":"","lat":34.659231,"lng":135.024695,"zip":"6730868"},{"town":"松が丘三丁目","koaza":"","lat":34.655365,"lng":135.024206,"zip":"6730862"},{"town":"松が丘五丁目","koaza":"","lat":34.65062,"lng":135.020341,"zip":"6730862"},{"town":"大蔵谷奥","koaza":"","lat":34.656718,"lng":135.023816,"zip":"6730867"},{"town":"朝霧北町","koaza":"","lat":34.656967,"lng":135.021777,"zip":"6730851"},{"town":"朝霧町三丁目","koaza":"","lat":34.652675,"lng":135.014729,"zip":"6730866"},{"town":"朝霧台","koaza":"","lat":34.656283,"lng":135.018135,"zip":"6730852"},{"town":"朝霧山手町","koaza":"","lat":34.656356,"lng":135.015283,"zip":"6730853"},{"town":"東朝霧丘","koaza":"","lat":34.654482,"lng":135.011997,"zip":"6730854"},{"town":"北朝霧丘一丁目","koaza":"","lat":34.659093,"lng":135.013497,"zip":"6730857"},{"town":"北朝霧丘二丁目","koaza":"","lat":34.658093,"lng":135.011484,"zip":"6730857"},{"town":"中朝霧丘","koaza":"","lat":34.654,"lng":135.009487,"zip":"6730855"},{"town":"西朝霧丘","koaza":"","lat":34.656784,"lng":135.009684,"zip":"6730856"},{"town":"東野町","koaza":"","lat":34.651311,"lng":135.008716,"zip":"6730844"},{"town":"太寺一丁目","koaza":"","lat":34.651626,"lng":135.003998,"zip":"6730845"},{"town":"太寺大野町","koaza":"","lat":34.653552,"lng":135.005819,"zip":"6730843"},{"town":"荷山町","koaza":"","lat":34.658235,"lng":135.008132,"zip":"6730842"},{"town":"太寺二丁目","koaza":"","lat":34.654905,"lng":135.003214,"zip":"6730845"},{"town":"太寺三丁目","koaza":"","lat":34.652062,"lng":135.000671,"zip":"6730845"},{"town":"太寺天王町","koaza":"","lat":34.657155,"lng":135.002675,"zip":"6730841"},{"town":"太寺四丁目","koaza":"","lat":34.655469,"lng":135.000731,"zip":"6730845"},{"town":"中崎二丁目","koaza":"","lat":34.643799,"lng":134.991856,"zip":"6730883"},{"town":"港町","koaza":"","lat":34.642384,"lng":134.987809,"zip":"6730894"},{"town":"鍛治屋町","koaza":"","lat":34.64562,"lng":134.994181,"zip":"6730884"},{"town":"本町一丁目","koaza":"","lat":34.646359,"lng":134.991909,"zip":"6730892"},{"town":"本町二丁目","koaza":"","lat":34.646541,"lng":134.989269,"zip":"6730892"},{"town":"大明石町一丁目","koaza":"","lat":34.648849,"lng":134.991172,"zip":"6730891"},{"town":"材木町","koaza":"","lat":34.644791,"lng":134.987546,"zip":"6730893"},{"town":"岬町","koaza":"","lat":34.642433,"lng":134.983453,"zip":"6730895"},{"town":"日富美町","koaza":"","lat":34.644967,"lng":134.984339,"zip":"6730896"},{"town":"樽屋町","koaza":"","lat":34.647409,"lng":134.985397,"zip":"6730898"},{"town":"大明石町二丁目","koaza":"","lat":34.649389,"lng":134.98687,"zip":"6730891"},{"town":"西新町三丁目","koaza":"","lat":34.648769,"lng":134.981878,"zip":"6730023"},{"town":"大観町","koaza":"","lat":34.643934,"lng":134.980082,"zip":"6730897"},{"town":"南王子町","koaza":"","lat":34.646563,"lng":134.980154,"zip":"6730024"},{"town":"田町二丁目","koaza":"","lat":34.646718,"lng":134.977563,"zip":"6730025"},{"town":"船上町","koaza":"","lat":34.645306,"lng":134.97514,"zip":"6730026"},{"town":"田町一丁目","koaza":"","lat":34.648313,"lng":134.978248,"zip":"6730025"},{"town":"西新町二丁目","koaza":"","lat":34.651152,"lng":134.981753,"zip":"6730023"},{"town":"硯町二丁目","koaza":"","lat":34.650841,"lng":134.978312,"zip":"6730028"},{"town":"林一丁目","koaza":"","lat":34.645439,"lng":134.972733,"zip":"6730034"},{"town":"林二丁目","koaza":"","lat":34.646357,"lng":134.970984,"zip":"6730034"},{"town":"新明町","koaza":"","lat":34.648671,"lng":134.974159,"zip":"6730027"},{"town":"林崎町一丁目","koaza":"","lat":34.649322,"lng":134.971249,"zip":"6730033"},{"town":"立石二丁目","koaza":"","lat":34.650987,"lng":134.971605,"zip":"6730032"},{"town":"立石一丁目","koaza":"","lat":34.653015,"lng":134.973439,"zip":"6730032"},{"town":"林崎町二丁目","koaza":"","lat":34.649901,"lng":134.968061,"zip":"6730033"},{"town":"南貴崎町","koaza":"","lat":34.651707,"lng":134.965345,"zip":"6730035"},{"town":"林三丁目","koaza":"","lat":34.647717,"lng":134.966873,"zip":"6730034"},{"town":"林崎町三丁目","koaza":"","lat":34.650573,"lng":134.964527,"zip":"6730033"},{"town":"鷹匠町","koaza":"","lat":34.65403,"lng":134.988016,"zip":"6730848"},{"town":"西新町一丁目","koaza":"","lat":34.65304,"lng":134.983738,"zip":"6730023"},{"town":"茶園場町","koaza":"","lat":34.65421,"lng":134.986243,"zip":"6730849"},{"town":"王子一丁目","koaza":"","lat":34.655768,"lng":134.981923,"zip":"6730022"},{"town":"王子二丁目","koaza":"","lat":34.653616,"lng":134.98083,"zip":"6730022"},{"town":"大道町一丁目","koaza":"","lat":34.656866,"lng":134.978425,"zip":"6730029"},{"town":"硯町一丁目","koaza":"","lat":34.65361,"lng":134.977447,"zip":"6730028"},{"town":"大道町二丁目","koaza":"","lat":34.655038,"lng":134.978485,"zip":"6730029"},{"town":"硯町三丁目","koaza":"","lat":34.651935,"lng":134.975606,"zip":"6730028"},{"town":"北王子町","koaza":"","lat":34.658065,"lng":134.983047,"zip":"6730021"},{"town":"宮の上","koaza":"","lat":34.653894,"lng":134.972335,"zip":"6730031"},{"town":"和坂稲荷町","koaza":"","lat":34.655948,"lng":134.974232,"zip":"6730013"},{"town":"貴崎二丁目","koaza":"","lat":34.652184,"lng":134.967157,"zip":"6730037"},{"town":"貴崎一丁目","koaza":"","lat":34.653263,"lng":134.968566,"zip":"6730037"},{"town":"貴崎四丁目","koaza":"","lat":34.65543,"lng":134.965131,"zip":"6730037"},{"town":"貴崎三丁目","koaza":"","lat":34.654153,"lng":134.96403,"zip":"6730037"},{"town":"和坂一丁目","koaza":"","lat":34.659547,"lng":134.974842,"zip":"6730012"},{"town":"西明石町一丁目","koaza":"","lat":34.663385,"lng":134.974263,"zip":"6730011"},{"town":"和坂二丁目","koaza":"","lat":34.660552,"lng":134.972144,"zip":"6730012"},{"town":"西明石町二丁目","koaza":"","lat":34.66339,"lng":134.972059,"zip":"6730011"},{"town":"西明石町三丁目","koaza":"","lat":34.66348,"lng":134.97025,"zip":"6730011"},{"town":"旭が丘","koaza":"","lat":34.667943,"lng":134.971109,"zip":"6730002"},{"town":"西明石町四丁目","koaza":"","lat":34.663702,"lng":134.96875,"zip":"6730011"},{"town":"和坂三丁目","koaza":"","lat":34.661307,"lng":134.969405,"zip":"6730012"},{"town":"野々上一丁目","koaza":"","lat":34.66591,"lng":134.967932,"zip":"6730017"},{"town":"西明石町五丁目","koaza":"","lat":34.663837,"lng":134.967033,"zip":"6730011"},{"town":"花園町","koaza":"","lat":34.66396,"lng":134.964502,"zip":"6730015"},{"town":"松の内一丁目","koaza":"","lat":34.665324,"lng":134.965774,"zip":"6730016"},{"town":"野々上二丁目","koaza":"","lat":34.668947,"lng":134.966932,"zip":"6730017"},{"town":"和坂","koaza":"","lat":34.66199,"lng":134.96627,"zip":"6730012"},{"town":"野々上三丁目","koaza":"","lat":34.667408,"lng":134.966415,"zip":"6730017"},{"town":"松の内二丁目","koaza":"","lat":34.667019,"lng":134.96364,"zip":"6730016"},{"town":"松江","koaza":"","lat":34.653617,"lng":134.959142,"zip":"6730036"},{"town":"川崎町","koaza":"","lat":34.658063,"lng":134.966927,"zip":"6730014"},{"town":"西明石南町一丁目","koaza":"","lat":34.663212,"lng":134.961921,"zip":"6730041"},{"town":"貴崎五丁目","koaza":"","lat":34.657685,"lng":134.9597,"zip":"6730037"},{"town":"別所町","koaza":"","lat":34.661517,"lng":134.957089,"zip":"6730038"},{"town":"西明石南町三丁目","koaza":"","lat":34.663737,"lng":134.958095,"zip":"6730041"},{"town":"西明石南町二丁目","koaza":"","lat":34.665084,"lng":134.959316,"zip":"6730041"},{"town":"小久保","koaza":"","lat":34.668691,"lng":134.9579,"zip":"6730005"},{"town":"小久保二丁目","koaza":"","lat":34.667326,"lng":134.959968,"zip":"6730005"},{"town":"西明石西町一丁目","koaza":"","lat":34.666079,"lng":134.956856,"zip":"6730049"},{"town":"東藤江二丁目","koaza":"","lat":34.660331,"lng":134.954132,"zip":"6730042"},{"town":"東藤江一丁目","koaza":"","lat":34.662802,"lng":134.95532,"zip":"6730042"},{"town":"藤が丘二丁目","koaza":"","lat":34.665273,"lng":134.946576,"zip":"6730046"},{"town":"藤が丘一丁目","koaza":"","lat":34.667854,"lng":134.947278,"zip":"6730046"},{"town":"小久保四丁目","koaza":"","lat":34.673082,"lng":134.9608,"zip":"6730005"},{"town":"二見町西二見駅前三丁目","koaza":"","lat":34.705221,"lng":134.874432,"zip":"6740095"},{"town":"二見町西二見駅前二丁目","koaza":"","lat":34.703791,"lng":134.87697,"zip":"6740095"},{"town":"二見町西二見駅前一丁目","koaza":"","lat":34.705286,"lng":134.878272,"zip":"6740095"},{"town":"二見町西二見駅前四丁目","koaza":"","lat":34.70687,"lng":134.875849,"zip":"6740095"},{"town":"大久保町山手台四丁目","koaza":"","lat":34.701819,"lng":134.93655,"zip":"6740056"},{"town":"大久保町福田二丁目","koaza":"","lat":34.682972,"lng":134.934635,"zip":"6740066"},{"town":"大久保町福田三丁目","koaza":"","lat":34.682138,"lng":134.933833,"zip":"6740066"},{"town":"大久保町福田一丁目","koaza":"","lat":34.684349,"lng":134.933962,"zip":"6740066"},{"town":"大久保町わかば","koaza":"","lat":34.674614,"lng":134.940804,"zip":"6740069"},{"town":"魚住町住吉四丁目","koaza":"","lat":34.696256,"lng":134.896398,"zip":"6740083"},{"town":"魚住町住吉三丁目","koaza":"","lat":34.692955,"lng":134.898709,"zip":"6740083"},{"town":"大久保町ゆりのき通三丁目","koaza":"","lat":34.678043,"lng":134.935735,"zip":"6740068"},{"town":"大久保町ゆりのき通一丁目","koaza":"","lat":34.681105,"lng":134.938415,"zip":"6740068"},{"town":"明南町二丁目","koaza":"","lat":34.674041,"lng":134.970238,"zip":"6730001"},{"town":"小久保六丁目","koaza":"","lat":34.673841,"lng":134.963582,"zip":"6730005"},{"town":"沢野一丁目","koaza":"","lat":34.677877,"lng":134.965195,"zip":"6730008"},{"town":"沢野二丁目","koaza":"","lat":34.679843,"lng":134.963711,"zip":"6730008"},{"town":"明南町三丁目","koaza":"","lat":34.677582,"lng":134.968691,"zip":"6730001"},{"town":"大久保町森田","koaza":"","lat":34.675006,"lng":134.955652,"zip":"6740061"},{"town":"大久保町大久保町","koaza":"","lat":34.678082,"lng":134.945055,"zip":"6740067"},{"town":"鳥羽","koaza":"","lat":34.679232,"lng":134.960098,"zip":"6730003"},{"town":"大久保町松陰新田","koaza":"","lat":34.690716,"lng":134.961005,"zip":"6740052"},{"town":"大久保町高丘四丁目","koaza":"","lat":34.696654,"lng":134.945977,"zip":"6740057"},{"town":"大久保町山手台一丁目","koaza":"","lat":34.698553,"lng":134.93674,"zip":"6740056"},{"town":"大久保町ゆりのき通二丁目","koaza":"","lat":34.68024,"lng":134.93583,"zip":"6740068"},{"town":"大久保町福田","koaza":"","lat":34.684698,"lng":134.936332,"zip":"6740066"},{"town":"大久保町江井島","koaza":"","lat":34.679749,"lng":134.924236,"zip":"6740064"},{"town":"大久保町緑が丘","koaza":"","lat":34.696695,"lng":134.932252,"zip":"6740055"},{"town":"大久保町山手台三丁目","koaza":"","lat":34.701043,"lng":134.934536,"zip":"6740056"},{"town":"大久保町山手台二丁目","koaza":"","lat":34.698695,"lng":134.932853,"zip":"6740056"},{"town":"大久保町西脇","koaza":"","lat":34.692637,"lng":134.932151,"zip":"6740054"},{"town":"魚住町錦が丘二丁目","koaza":"","lat":34.693688,"lng":134.911978,"zip":"6740081"},{"town":"魚住町錦が丘一丁目","koaza":"","lat":34.697032,"lng":134.912412,"zip":"6740081"},{"town":"大久保町西島","koaza":"","lat":34.683133,"lng":134.910407,"zip":"6740065"},{"town":"魚住町錦が丘三丁目","koaza":"","lat":34.694912,"lng":134.909124,"zip":"6740081"},{"town":"魚住町鴨池","koaza":"","lat":34.698286,"lng":134.908334,"zip":"6740073"},{"town":"魚住町錦が丘四丁目","koaza":"","lat":34.698208,"lng":134.905255,"zip":"6740081"},{"town":"魚住町住吉一丁目","koaza":"","lat":34.691681,"lng":134.904673,"zip":"6740083"},{"town":"魚住町住吉二丁目","koaza":"","lat":34.690431,"lng":134.902549,"zip":"6740083"},{"town":"魚住町中尾","koaza":"","lat":34.689166,"lng":134.909489,"zip":"6740082"},{"town":"大久保町高丘二丁目","koaza":"","lat":34.699631,"lng":134.952275,"zip":"6740057"},{"town":"大久保町高丘三丁目","koaza":"","lat":34.699982,"lng":134.94925,"zip":"6740057"},{"town":"大久保町高丘一丁目","koaza":"","lat":34.704715,"lng":134.950498,"zip":"6740057"},{"town":"大久保町高丘五丁目","koaza":"","lat":34.700425,"lng":134.94637,"zip":"6740057"},{"town":"大久保町高丘七丁目","koaza":"","lat":34.703672,"lng":134.940969,"zip":"6740057"},{"town":"大久保町高丘六丁目","koaza":"","lat":34.706078,"lng":134.942335,"zip":"6740057"},{"town":"大久保町大窪","koaza":"","lat":34.696695,"lng":134.941957,"zip":"6740051"},{"town":"魚住町金ケ崎","koaza":"","lat":34.695414,"lng":134.923601,"zip":"6740071"},{"town":"魚住町長坂寺","koaza":"","lat":34.697843,"lng":134.916751,"zip":"6740072"},{"town":"魚住町西岡","koaza":"","lat":34.699167,"lng":134.899784,"zip":"6740084"},{"town":"二見町東二見","koaza":"","lat":34.701289,"lng":134.887663,"zip":"6740092"},{"town":"二見町福里","koaza":"","lat":34.713117,"lng":134.894822,"zip":"6740091"},{"town":"魚住町清水","koaza":"","lat":34.712146,"lng":134.905459,"zip":"6740074"},{"town":"大久保町松陰","koaza":"","lat":34.695561,"lng":134.957193,"zip":"6740053"},{"town":"大久保町松陰山手","koaza":"","lat":34.686015,"lng":134.95426,"zip":"6740050"},{"town":"西明石東町","koaza":"","lat":34.665065,"lng":134.972464,"zip":"6730009"},{"town":"藤江","koaza":"中谷","lat":34.672882,"lng":134.952268,"zip":"6730044"},{"town":"沢野三丁目","koaza":"","lat":null,"lng":null,"zip":null},{"town":"沢野南町一丁目","koaza":"","lat":null,"lng":null,"zip":null},{"town":"沢野南町二丁目","koaza":"","lat":null,"lng":null,"zip":null},{"town":"沢野南町三丁目","koaza":"","lat":null,"lng":null,"zip":null}]