[{"town":"和田山町東谷五丁目","koaza":"","lat":35.340273,"lng":134.848992,"zip":"6695202"},{"town":"和田山町東谷四丁目","koaza":"","lat":35.340854,"lng":134.847462,"zip":"6695202"},{"town":"和田山町東谷三丁目","koaza":"","lat":35.339684,"lng":134.84761,"zip":"6695202"},{"town":"和田山町東谷二丁目","koaza":"","lat":35.340086,"lng":134.845931,"zip":"6695202"},{"town":"和田山町東谷一丁目","koaza":"","lat":35.341378,"lng":134.845794,"zip":"6695202"},{"town":"生野町栃原","koaza":"","lat":35.169243,"lng":134.752997,"zip":"6793331"},{"town":"生野町黒川","koaza":"","lat":35.223183,"lng":134.88093,"zip":"6793341"},{"town":"生野町上生野","koaza":"","lat":35.188695,"lng":134.8494,"zip":"6695200"},{"town":"生野町小野","koaza":"","lat":35.170506,"lng":134.828503,"zip":"6793324"},{"town":"生野町奥銀谷","koaza":"","lat":35.171204,"lng":134.815039,"zip":"6793322"},{"town":"生野町新町","koaza":"","lat":35.168904,"lng":134.811512,"zip":"6793321"},{"town":"生野町口銀谷","koaza":"","lat":35.164824,"lng":134.788959,"zip":"6793301"},{"town":"生野町円山","koaza":"","lat":35.184468,"lng":134.787563,"zip":"6793302"},{"town":"多々良木","koaza":"","lat":35.23534,"lng":134.840816,"zip":"6793423"},{"town":"山内","koaza":"","lat":35.261454,"lng":134.862656,"zip":"6793412"},{"town":"佐嚢","koaza":"","lat":35.250468,"lng":134.736291,"zip":"6793453"},{"town":"田路","koaza":"","lat":35.213699,"lng":134.752846,"zip":"6793442"},{"town":"山東町与布土","koaza":"","lat":35.271643,"lng":134.887952,"zip":"6695136"},{"town":"和田山町玉置","koaza":"","lat":35.333856,"lng":134.864066,"zip":"6695213"},{"town":"和田山町桑原","koaza":"","lat":35.330968,"lng":134.876142,"zip":"6695214"},{"town":"和田山町枚田岡","koaza":"","lat":35.327241,"lng":134.861622,"zip":"6695215"},{"town":"山東町大垣","koaza":"","lat":35.320326,"lng":134.877379,"zip":"6695102"},{"town":"山東町小谷","koaza":"","lat":35.316075,"lng":134.874667,"zip":"6695151"},{"town":"山東町楽音寺","koaza":"","lat":35.312048,"lng":134.874106,"zip":"6695152"},{"town":"山東町大月","koaza":"","lat":35.304978,"lng":134.873749,"zip":"6695153"},{"town":"山東町喜多垣","koaza":"","lat":35.293927,"lng":134.87218,"zip":"6695133"},{"town":"山東町柊木","koaza":"","lat":35.296919,"lng":134.87794,"zip":"6695131"},{"town":"八代","koaza":"","lat":35.242183,"lng":134.78701,"zip":"6793452"},{"town":"上八代","koaza":"","lat":35.264436,"lng":134.78399,"zip":"6793451"},{"town":"立脇","koaza":"","lat":35.25355,"lng":134.797822,"zip":"6793403"},{"town":"石田","koaza":"","lat":35.256131,"lng":134.810845,"zip":"6793422"},{"town":"納座","koaza":"","lat":35.255996,"lng":134.838433,"zip":"6793413"},{"town":"川上","koaza":"","lat":35.259191,"lng":134.852356,"zip":"6793414"},{"town":"山東町金浦","koaza":"","lat":35.3277,"lng":134.918605,"zip":"6695115"},{"town":"和田山町宮","koaza":"","lat":35.346339,"lng":134.902919,"zip":"6695229"},{"town":"和田山町久田和","koaza":"","lat":35.340123,"lng":134.887474,"zip":"6695228"},{"town":"和田山町朝日","koaza":"","lat":35.398159,"lng":134.877216,"zip":"6695238"},{"town":"和田山町和田","koaza":"","lat":35.376909,"lng":134.874538,"zip":"6695235"},{"town":"和田山町高生田","koaza":"","lat":35.367894,"lng":134.862782,"zip":"6695233"},{"town":"和田山町岡田","koaza":"","lat":35.353282,"lng":134.873461,"zip":"6695224"},{"town":"和田山町室尾","koaza":"","lat":35.357138,"lng":134.855274,"zip":"6695223"},{"town":"和田山町和田山","koaza":"","lat":35.337859,"lng":134.853584,"zip":"6695201"},{"town":"和田山町東谷","koaza":"","lat":35.33836,"lng":134.845923,"zip":"6695202"},{"town":"和田山町土田","koaza":"","lat":35.344904,"lng":134.836218,"zip":"6695241"},{"town":"和田山町宮田","koaza":"","lat":35.348283,"lng":134.827703,"zip":"6695242"},{"town":"和田山町岡","koaza":"","lat":35.341309,"lng":134.809174,"zip":"6695246"},{"town":"和田山町竹ノ内","koaza":"","lat":35.401353,"lng":134.913867,"zip":"6695237"},{"town":"生野町猪野々","koaza":"","lat":35.158723,"lng":134.816154,"zip":"6793325"},{"town":"生野町真弓","koaza":"","lat":35.153692,"lng":134.794634,"zip":"6793311"},{"town":"生野町白口","koaza":"","lat":35.15037,"lng":134.832422,"zip":"6793326"},{"town":"生野町川尻","koaza":"","lat":35.14096,"lng":134.776645,"zip":"6793332"},{"town":"生野町竹原野","koaza":"","lat":35.186309,"lng":134.815584,"zip":"6793323"},{"town":"岩津","koaza":"","lat":35.20569,"lng":134.805101,"zip":"6793433"},{"town":"山口","koaza":"","lat":35.222057,"lng":134.810436,"zip":"6793432"},{"town":"羽渕","koaza":"","lat":35.222554,"lng":134.788898,"zip":"6793441"},{"town":"立野","koaza":"","lat":35.236348,"lng":134.803188,"zip":"6793424"},{"town":"新井","koaza":"","lat":35.237983,"lng":134.794418,"zip":"6793431"},{"town":"山東町森","koaza":"","lat":35.287234,"lng":134.87763,"zip":"6695135"},{"town":"山東町三保","koaza":"","lat":35.285612,"lng":134.889542,"zip":"6695141"},{"town":"山東町溝黒","koaza":"","lat":35.291597,"lng":134.878535,"zip":"6695132"},{"town":"山東町柴","koaza":"","lat":35.300428,"lng":134.925504,"zip":"6695124"},{"town":"山東町一品","koaza":"","lat":35.309701,"lng":134.914961,"zip":"6695123"},{"town":"山東町越田","koaza":"","lat":35.296696,"lng":134.890365,"zip":"6695142"},{"town":"山東町粟鹿","koaza":"","lat":35.290395,"lng":134.910974,"zip":"6695125"},{"town":"山東町早田","koaza":"","lat":35.310808,"lng":134.903502,"zip":"6695122"},{"town":"山東町和賀","koaza":"","lat":35.310864,"lng":134.894185,"zip":"6695121"},{"town":"山東町柿坪","koaza":"","lat":35.302741,"lng":134.888598,"zip":"6695143"},{"town":"山東町末歳","koaza":"","lat":35.311754,"lng":134.886715,"zip":"6695104"},{"town":"山東町塩田","koaza":"","lat":35.321547,"lng":134.911714,"zip":"6695113"},{"town":"山東町野間","koaza":"","lat":35.329381,"lng":134.904449,"zip":"6695114"},{"town":"山東町新堂","koaza":"","lat":35.320418,"lng":134.895709,"zip":"6695111"},{"town":"山東町大内","koaza":"","lat":35.323063,"lng":134.901946,"zip":"6695112"},{"town":"山東町矢名瀬町","koaza":"","lat":35.320558,"lng":134.887001,"zip":"6695103"},{"town":"山東町滝田","koaza":"","lat":35.326316,"lng":134.884139,"zip":"6695101"},{"town":"和田山町立ノ原","koaza":"","lat":35.330706,"lng":134.856447,"zip":"6695268"},{"town":"和田山町三波","koaza":"","lat":35.304512,"lng":134.802188,"zip":"6695256"},{"town":"和田山町殿","koaza":"","lat":35.30959,"lng":134.81905,"zip":"6695255"},{"town":"和田山町安井","koaza":"","lat":35.307634,"lng":134.830504,"zip":"6695254"},{"town":"和田山町栄町","koaza":"","lat":35.309062,"lng":134.836588,"zip":"6695251"},{"town":"和田山町加都","koaza":"","lat":35.307269,"lng":134.843567,"zip":"6695264"},{"town":"和田山町久留引","koaza":"","lat":35.319415,"lng":134.823806,"zip":"6695263"},{"town":"和田山町枚田","koaza":"","lat":35.325575,"lng":134.838576,"zip":"6695261"},{"town":"和田山町市御堂","koaza":"","lat":35.319371,"lng":134.847732,"zip":"6695262"},{"town":"和田山町法興寺","koaza":"","lat":35.32447,"lng":134.857694,"zip":"6695267"},{"town":"和田山町比治","koaza":"","lat":35.317736,"lng":134.860482,"zip":"6695266"},{"town":"和田山町筒江","koaza":"","lat":35.306264,"lng":134.855567,"zip":"6695265"},{"town":"和田山町竹田","koaza":"","lat":35.290534,"lng":134.841169,"zip":"6695252"},{"town":"山東町迫間","koaza":"","lat":35.287248,"lng":134.858016,"zip":"6695134"},{"town":"和田山町藤和","koaza":"","lat":35.320074,"lng":134.793154,"zip":"6695257"},{"town":"伊由市場","koaza":"","lat":35.262355,"lng":134.81974,"zip":"6793421"},{"town":"澤","koaza":"","lat":35.271308,"lng":134.82331,"zip":"6695200"},{"town":"桑市","koaza":"","lat":35.262962,"lng":134.801362,"zip":"6793402"},{"town":"物部","koaza":"","lat":35.276412,"lng":134.809572,"zip":"6793401"},{"town":"和田山町久世田","koaza":"","lat":35.287877,"lng":134.815469,"zip":"6695253"},{"town":"和田山町白井","koaza":"","lat":35.352717,"lng":134.91236,"zip":"6695220"},{"town":"和田山町東和田","koaza":"","lat":35.350306,"lng":134.892076,"zip":"6695227"},{"town":"和田山町中","koaza":"","lat":35.354431,"lng":134.889247,"zip":"6695226"},{"town":"和田山町野村","koaza":"","lat":35.351333,"lng":134.880954,"zip":"6695225"},{"town":"和田山町内海","koaza":"","lat":35.375455,"lng":134.903729,"zip":"6695236"},{"town":"和田山町弥生が丘","koaza":"","lat":35.351549,"lng":134.864087,"zip":"6695216"},{"town":"和田山町駅北","koaza":"","lat":35.341395,"lng":134.855808,"zip":"6695204"},{"town":"和田山町市場","koaza":"","lat":35.376296,"lng":134.859207,"zip":"6695234"},{"town":"和田山町高田","koaza":"","lat":35.365591,"lng":134.816735,"zip":"6695243"},{"town":"和田山町寺内","koaza":"","lat":35.36673,"lng":134.844873,"zip":"6695232"},{"town":"和田山町柳原","koaza":"","lat":35.345409,"lng":134.864301,"zip":"6695212"},{"town":"和田山町平野","koaza":"","lat":35.342254,"lng":134.843489,"zip":"6695211"},{"town":"和田山町秋葉台","koaza":"","lat":35.354688,"lng":134.844415,"zip":"6695221"},{"town":"和田山町寺谷","koaza":"","lat":35.347552,"lng":134.850312,"zip":"6695203"},{"town":"和田山町法道寺","koaza":"","lat":35.357328,"lng":134.818005,"zip":"6695245"},{"town":"和田山町宮内","koaza":"","lat":35.358812,"lng":134.810487,"zip":"6695244"},{"town":"和田山町林垣","koaza":"","lat":35.363,"lng":134.833128,"zip":"6695231"},{"town":"和田山町宮内","koaza":"縄手","lat":35.359565,"lng":134.812283,"zip":"6695244"},{"town":"和田山町宮内","koaza":"鈴竹","lat":35.359274,"lng":134.813928,"zip":"6695244"},{"town":"和田山町宮内","koaza":"宮ノ後","lat":35.358503,"lng":134.812262,"zip":"6695244"},{"town":"和田山町宮内","koaza":"サダコ","lat":35.363058,"lng":134.813512,"zip":"6695244"},{"town":"和田山町宮内","koaza":"細田","lat":35.358924,"lng":134.811148,"zip":"6695244"},{"town":"和田山町高田","koaza":"坪ノ内","lat":35.366224,"lng":134.812868,"zip":"6695243"},{"town":"和田山町法道寺","koaza":"上工地","lat":35.355146,"lng":134.815119,"zip":"6695245"},{"town":"和田山町法道寺","koaza":"上川原","lat":35.354423,"lng":134.815199,"zip":"6695245"},{"town":"和田山町宮内","koaza":"奥地","lat":35.360371,"lng":134.813829,"zip":"6695244"},{"town":"和田山町高田","koaza":"寺ノ奥","lat":35.365583,"lng":134.812631,"zip":"6695243"},{"town":"和田山町宮内","koaza":"フケ","lat":35.362,"lng":134.813019,"zip":"6695244"},{"town":"和田山町高田","koaza":"鉄ケ田","lat":35.366911,"lng":134.813515,"zip":"6695243"},{"town":"和田山町宮内","koaza":"赤八ゲ","lat":35.359996,"lng":134.813155,"zip":"6695244"},{"town":"和田山町宮内","koaza":"岡","lat":35.362559,"lng":134.814187,"zip":"6695244"},{"town":"和田山町高田","koaza":"茶臼山","lat":35.364958,"lng":134.814636,"zip":"6695243"},{"town":"和田山町宮内","koaza":"宮ノ谷","lat":35.358512,"lng":134.81472,"zip":"6695244"},{"town":"和田山町高田","koaza":"田辺縄手","lat":35.365572,"lng":134.815268,"zip":"6695243"},{"town":"和田山町法道寺","koaza":"西林","lat":35.356947,"lng":134.814573,"zip":"6695245"},{"town":"和田山町宮内","koaza":"裏門","lat":35.362419,"lng":134.815027,"zip":"6695244"},{"town":"和田山町高田","koaza":"町屋敷","lat":35.366756,"lng":134.815603,"zip":"6695243"},{"town":"和田山町高田","koaza":"垣根","lat":35.367145,"lng":134.814532,"zip":"6695243"},{"town":"和田山町岡","koaza":"下岡","lat":35.352514,"lng":134.81487,"zip":"6695246"},{"town":"和田山町岡","koaza":"新徳田","lat":35.351472,"lng":134.814572,"zip":"6695246"},{"town":"和田山町高田","koaza":"中川原","lat":35.369613,"lng":134.815901,"zip":"6695243"},{"town":"和田山町法道寺","koaza":"吉竹","lat":35.349328,"lng":134.821384,"zip":"6695245"},{"town":"和田山町法道寺","koaza":"中島","lat":35.351345,"lng":134.817021,"zip":"6695245"},{"town":"和田山町宮内","koaza":"五ノ下","lat":35.361404,"lng":134.815225,"zip":"6695244"},{"town":"和田山町宮内","koaza":"公事田","lat":35.363677,"lng":134.81562,"zip":"6695244"},{"town":"和田山町宮内","koaza":"三角田","lat":35.365147,"lng":134.81607,"zip":"6695244"},{"town":"和田山町法道寺","koaza":"下モ地","lat":35.357473,"lng":134.815764,"zip":"6695245"},{"town":"和田山町法道寺","koaza":"狐谷","lat":35.352971,"lng":134.815895,"zip":"6695245"},{"town":"和田山町宮内","koaza":"蔵阪","lat":35.360418,"lng":134.816856,"zip":"6695244"},{"town":"和田山町高田","koaza":"上川原","lat":35.36851,"lng":134.815847,"zip":"6695243"},{"town":"和田山町高田","koaza":"松裏","lat":35.366758,"lng":134.817594,"zip":"6695243"},{"town":"和田山町法道寺","koaza":"向村","lat":35.353625,"lng":134.81626,"zip":"6695245"},{"town":"和田山町法道寺","koaza":"向野","lat":35.355756,"lng":134.817054,"zip":"6695245"},{"town":"和田山町高田","koaza":"井ノ上","lat":35.368447,"lng":134.81769,"zip":"6695243"},{"town":"和田山町宮内","koaza":"丸山","lat":35.361527,"lng":134.816588,"zip":"6695244"},{"town":"和田山町法道寺","koaza":"川原地","lat":35.356128,"lng":134.816556,"zip":"6695245"},{"town":"和田山町法道寺","koaza":"早田","lat":35.358022,"lng":134.817796,"zip":"6695245"},{"town":"和田山町高田","koaza":"町頭","lat":35.36471,"lng":134.816857,"zip":"6695243"},{"town":"和田山町法道寺","koaza":"梨ノ田","lat":35.363276,"lng":134.817328,"zip":"6695245"},{"town":"和田山町法道寺","koaza":"角崎","lat":35.360981,"lng":134.817505,"zip":"6695245"},{"town":"和田山町法道寺","koaza":"丸山","lat":35.36173,"lng":134.817399,"zip":"6695245"},{"town":"和田山町法道寺","koaza":"桶谷","lat":35.356402,"lng":134.817467,"zip":"6695245"},{"town":"和田山町法道寺","koaza":"一里塚","lat":35.363995,"lng":134.817862,"zip":"6695245"},{"town":"和田山町高田","koaza":"下四天","lat":35.364651,"lng":134.817799,"zip":"6695243"},{"town":"和田山町高田","koaza":"三昧","lat":35.367267,"lng":134.818168,"zip":"6695243"},{"town":"和田山町法道寺","koaza":"丸山ノ下タ","lat":35.3621,"lng":134.818028,"zip":"6695245"},{"town":"和田山町法道寺","koaza":"池田","lat":35.359877,"lng":134.818535,"zip":"6695245"},{"town":"和田山町法道寺","koaza":"上松原","lat":35.357351,"lng":134.81942,"zip":"6695245"},{"town":"和田山町法道寺","koaza":"宮分","lat":35.358072,"lng":134.819163,"zip":"6695245"},{"town":"和田山町高田","koaza":"四天","lat":35.364587,"lng":134.818807,"zip":"6695243"},{"town":"和田山町法道寺","koaza":"柳ノ内","lat":35.362401,"lng":134.819058,"zip":"6695245"},{"town":"和田山町高田","koaza":"三昧新田","lat":35.367589,"lng":134.818909,"zip":"6695243"},{"town":"和田山町法道寺","koaza":"姥ケ谷","lat":35.350453,"lng":134.81965,"zip":"6695245"},{"town":"和田山町法道寺","koaza":"砂田","lat":35.361728,"lng":134.819005,"zip":"6695245"},{"town":"和田山町法道寺","koaza":"中野","lat":35.360604,"lng":134.820127,"zip":"6695245"},{"town":"和田山町法道寺","koaza":"上四天","lat":35.363333,"lng":134.819262,"zip":"6695245"},{"town":"和田山町法道寺","koaza":"法事田","lat":35.36458,"lng":134.822554,"zip":"6695245"},{"town":"和田山町法道寺","koaza":"東林","lat":35.357398,"lng":134.819916,"zip":"6695245"},{"town":"和田山町法道寺","koaza":"弓ノ木","lat":35.361059,"lng":134.820884,"zip":"6695245"},{"town":"和田山町高田","koaza":"法事田外","lat":35.366069,"lng":134.821727,"zip":"6695243"},{"town":"和田山町法道寺","koaza":"川原田","lat":35.363385,"lng":134.821249,"zip":"6695245"},{"town":"和田山町宮田","koaza":"家ノ上エ","lat":35.356319,"lng":134.820772,"zip":"6695242"},{"town":"和田山町宮田","koaza":"峠ノ下","lat":35.354605,"lng":134.822193,"zip":"6695242"},{"town":"和田山町宮田","koaza":"家ノ下","lat":35.35718,"lng":134.823533,"zip":"6695242"},{"town":"和田山町宮田","koaza":"河原ケ日","lat":35.358275,"lng":134.822506,"zip":"6695242"},{"town":"和田山町高田","koaza":"佃田","lat":35.366196,"lng":134.823131,"zip":"6695243"},{"town":"和田山町宮田","koaza":"谷地","lat":35.356192,"lng":134.822532,"zip":"6695242"},{"town":"和田山町法道寺","koaza":"新中野","lat":35.359325,"lng":134.822436,"zip":"6695245"},{"town":"和田山町宮田","koaza":"長戸","lat":35.359868,"lng":134.824034,"zip":"6695242"},{"town":"和田山町宮田","koaza":"下河原","lat":35.36114,"lng":134.824443,"zip":"6695242"},{"town":"和田山町法道寺","koaza":"宿野","lat":35.363054,"lng":134.824776,"zip":"6695245"},{"town":"和田山町宮田","koaza":"高上地","lat":35.356553,"lng":134.823562,"zip":"6695242"},{"town":"和田山町宮田","koaza":"東谷","lat":35.353662,"lng":134.823745,"zip":"6695242"},{"town":"和田山町宮田","koaza":"仏徳寺","lat":35.355237,"lng":134.825501,"zip":"6695242"},{"town":"和田山町宮田","koaza":"市場","lat":35.357586,"lng":134.824349,"zip":"6695242"},{"town":"和田山町宮田","koaza":"高下地","lat":35.356222,"lng":134.824091,"zip":"6695242"},{"town":"和田山町林垣","koaza":"下山","lat":35.364204,"lng":134.831356,"zip":"6695231"},{"town":"和田山町宮田","koaza":"向野","lat":35.357137,"lng":134.826518,"zip":"6695242"},{"town":"和田山町宮田","koaza":"町田","lat":35.356323,"lng":134.824724,"zip":"6695242"},{"town":"和田山町宮田","koaza":"三桝寺","lat":35.358703,"lng":134.825888,"zip":"6695242"},{"town":"和田山町宮田","koaza":"寺谷","lat":35.354628,"lng":134.8262,"zip":"6695242"},{"town":"和田山町宮田","koaza":"上河原","lat":35.359727,"lng":134.825873,"zip":"6695242"},{"town":"和田山町宮田","koaza":"山本","lat":35.354951,"lng":134.82589,"zip":"6695242"},{"town":"和田山町宮田","koaza":"深谷","lat":35.350453,"lng":134.827679,"zip":"6695242"},{"town":"和田山町宮田","koaza":"上地","lat":35.354343,"lng":134.827947,"zip":"6695242"},{"town":"和田山町宮田","koaza":"下前田","lat":35.357382,"lng":134.828376,"zip":"6695242"},{"town":"和田山町宮田","koaza":"川原","lat":35.357023,"lng":134.830098,"zip":"6695242"},{"town":"和田山町宮田","koaza":"向田","lat":35.357613,"lng":134.829006,"zip":"6695242"},{"town":"和田山町宮田","koaza":"上野","lat":35.355877,"lng":134.829193,"zip":"6695242"},{"town":"和田山町林垣","koaza":"下川原","lat":35.360815,"lng":134.829022,"zip":"6695231"},{"town":"和田山町宮田","koaza":"批杷ケ谷","lat":35.354467,"lng":134.828512,"zip":"6695242"},{"town":"和田山町宮田","koaza":"下地","lat":35.356221,"lng":134.829334,"zip":"6695242"},{"town":"和田山町宮田","koaza":"上前田","lat":35.356184,"lng":134.83079,"zip":"6695242"},{"town":"和田山町宮田","koaza":"村上","lat":35.354667,"lng":134.832952,"zip":"6695242"},{"town":"和田山町林垣","koaza":"上山","lat":35.363796,"lng":134.841016,"zip":"6695231"},{"town":"和田山町林垣","koaza":"生土","lat":35.360324,"lng":134.832343,"zip":"6695231"},{"town":"和田山町林垣","koaza":"弓ノ木","lat":35.359918,"lng":134.828799,"zip":"6695231"},{"town":"和田山町林垣","koaza":"山玉田","lat":35.356586,"lng":134.83237,"zip":"6695231"},{"town":"和田山町林垣","koaza":"金尻","lat":35.355992,"lng":134.833765,"zip":"6695231"},{"town":"和田山町土田","koaza":"西福寺","lat":35.347984,"lng":134.83379,"zip":"6695241"},{"town":"和田山町土田","koaza":"上ノ山","lat":35.347164,"lng":134.833711,"zip":"6695241"},{"town":"和田山町林垣","koaza":"野田","lat":35.357657,"lng":134.833916,"zip":"6695231"},{"town":"和田山町林垣","koaza":"西ノ岡","lat":35.359898,"lng":134.835607,"zip":"6695231"},{"town":"和田山町土田","koaza":"町尻","lat":35.352863,"lng":134.835357,"zip":"6695241"},{"town":"和田山町土田","koaza":"北山","lat":35.349623,"lng":134.834406,"zip":"6695241"},{"town":"和田山町土田","koaza":"小縄下","lat":35.346549,"lng":134.834857,"zip":"6695241"},{"town":"和田山町土田","koaza":"マ工田","lat":35.349743,"lng":134.83468,"zip":"6695241"},{"town":"和田山町土田","koaza":"下田","lat":35.351377,"lng":134.83488,"zip":"6695241"},{"town":"和田山町土田","koaza":"西木戸","lat":35.348279,"lng":134.834903,"zip":"6695241"},{"town":"和田山町林垣","koaza":"馬場崎","lat":35.357985,"lng":134.837067,"zip":"6695231"},{"town":"和田山町林垣","koaza":"森ノ木","lat":35.359286,"lng":134.83572,"zip":"6695231"},{"town":"和田山町土田","koaza":"古川","lat":35.350776,"lng":134.837873,"zip":"6695241"},{"town":"和田山町土田","koaza":"澤","lat":35.34812,"lng":134.836431,"zip":"6695241"},{"town":"和田山町土田","koaza":"立田","lat":35.350448,"lng":134.836769,"zip":"6695241"},{"town":"和田山町土田","koaza":"彦市","lat":35.349384,"lng":134.835934,"zip":"6695241"},{"town":"和田山町林垣","koaza":"突出","lat":35.355192,"lng":134.836653,"zip":"6695231"},{"town":"和田山町林垣","koaza":"名荒畑","lat":35.360037,"lng":134.837041,"zip":"6695231"},{"town":"和田山町林垣","koaza":"西","lat":35.3609,"lng":134.836755,"zip":"6695231"},{"town":"和田山町土田","koaza":"砂田","lat":35.346907,"lng":134.836861,"zip":"6695241"},{"town":"和田山町林垣","koaza":"落合","lat":35.356272,"lng":134.837784,"zip":"6695231"},{"town":"和田山町土田","koaza":"桃ナシ","lat":35.347833,"lng":134.837841,"zip":"6695241"},{"town":"和田山町林垣","koaza":"随泉寺","lat":35.36171,"lng":134.836751,"zip":"6695231"},{"town":"和田山町土田","koaza":"土井ノ内","lat":35.349588,"lng":134.837619,"zip":"6695241"},{"town":"和田山町林垣","koaza":"上溝","lat":35.361114,"lng":134.837473,"zip":"6695231"},{"town":"和田山町土田","koaza":"関切","lat":35.349665,"lng":134.840196,"zip":"6695241"},{"town":"和田山町林垣","koaza":"馬場","lat":35.359938,"lng":134.838265,"zip":"6695231"},{"town":"和田山町林垣","koaza":"内前","lat":35.36154,"lng":134.83881,"zip":"6695231"},{"town":"和田山町林垣","koaza":"馬背場","lat":35.353021,"lng":134.840113,"zip":"6695231"},{"town":"和田山町土田","koaza":"蓮池","lat":35.34671,"lng":134.838699,"zip":"6695241"},{"town":"和田山町土田","koaza":"善入堂","lat":35.349246,"lng":134.838523,"zip":"6695241"},{"town":"和田山町土田","koaza":"溝越シ","lat":35.34839,"lng":134.838731,"zip":"6695241"},{"town":"和田山町土田","koaza":"山本","lat":35.34573,"lng":134.838535,"zip":"6695241"},{"town":"和田山町林垣","koaza":"森垣","lat":35.358056,"lng":134.840643,"zip":"6695231"},{"town":"和田山町土田","koaza":"塚原","lat":35.345181,"lng":134.839181,"zip":"6695241"},{"town":"和田山町林垣","koaza":"三軒屋","lat":35.361234,"lng":134.839461,"zip":"6695231"},{"town":"和田山町土田","koaza":"崩","lat":35.347838,"lng":134.83941,"zip":"6695241"},{"town":"和田山町土田","koaza":"上川原","lat":35.347525,"lng":134.840931,"zip":"6695241"},{"town":"和田山町林垣","koaza":"樫ケ鼻","lat":35.355295,"lng":134.840173,"zip":"6695231"},{"town":"和田山町林垣","koaza":"寺川","lat":35.360642,"lng":134.840778,"zip":"6695231"},{"town":"和田山町秋葉台","koaza":"若宮","lat":35.356385,"lng":134.840474,"zip":"6695221"},{"town":"和田山町寺内","koaza":"イゾクミ","lat":35.370233,"lng":134.844323,"zip":"6695232"},{"town":"和田山町土田","koaza":"中川原","lat":35.3458,"lng":134.840969,"zip":"6695241"},{"town":"和田山町林垣","koaza":"奈良","lat":35.359292,"lng":134.84112,"zip":"6695231"},{"town":"和田山町寺内","koaza":"中井","lat":35.361612,"lng":134.84253,"zip":"6695232"},{"town":"和田山町寺内","koaza":"宮谷","lat":35.363224,"lng":134.843035,"zip":"6695232"},{"town":"和田山町平野","koaza":"川原","lat":35.34603,"lng":134.84266,"zip":"6695211"},{"town":"和田山町寺谷","koaza":"中嶋","lat":35.347835,"lng":134.843137,"zip":"6695203"},{"town":"和田山町寺内","koaza":"下中井","lat":35.359505,"lng":134.843786,"zip":"6695232"},{"town":"和田山町寺谷","koaza":"上川原","lat":35.350219,"lng":134.843388,"zip":"6695203"},{"town":"和田山町寺内","koaza":"寺内","lat":35.365113,"lng":134.847294,"zip":"6695232"},{"town":"和田山町寺谷","koaza":"下河原","lat":35.351675,"lng":134.843792,"zip":"6695203"},{"town":"和田山町寺内","koaza":"西","lat":35.36366,"lng":134.844804,"zip":"6695232"},{"town":"和田山町寺内","koaza":"古井","lat":35.361817,"lng":134.845113,"zip":"6695232"},{"town":"和田山町寺内","koaza":"荒神井","lat":35.360352,"lng":134.844742,"zip":"6695232"},{"town":"和田山町寺谷","koaza":"宮町","lat":35.348031,"lng":134.845561,"zip":"6695203"},{"town":"和田山町寺谷","koaza":"七十代","lat":35.350437,"lng":134.844269,"zip":"6695203"},{"town":"和田山町寺内","koaza":"稲越","lat":35.360102,"lng":134.846391,"zip":"6695232"},{"town":"和田山町寺谷","koaza":"稲場","lat":35.346309,"lng":134.844331,"zip":"6695203"},{"town":"和田山町寺谷","koaza":"下町","lat":35.352303,"lng":134.845326,"zip":"6695203"},{"town":"和田山町寺内","koaza":"上井","lat":35.362672,"lng":134.846216,"zip":"6695232"},{"town":"和田山町寺内","koaza":"青木口","lat":35.358853,"lng":134.845147,"zip":"6695232"},{"town":"和田山町寺内","koaza":"更杵","lat":35.357016,"lng":134.848833,"zip":"6695232"},{"town":"和田山町寺谷","koaza":"中町","lat":35.346817,"lng":134.846888,"zip":"6695203"},{"town":"和田山町寺内","koaza":"古川","lat":35.36158,"lng":134.846546,"zip":"6695232"},{"town":"和田山町寺谷","koaza":"川クゴ","lat":35.345763,"lng":134.846397,"zip":"6695203"},{"town":"和田山町寺内","koaza":"前谷","lat":35.372605,"lng":134.848984,"zip":"6695232"},{"town":"和田山町寺谷","koaza":"下地","lat":35.34733,"lng":134.847365,"zip":"6695203"},{"town":"和田山町寺内","koaza":"イイゲ","lat":35.35913,"lng":134.847005,"zip":"6695232"},{"town":"和田山町寺内","koaza":"大新田","lat":35.363004,"lng":134.848471,"zip":"6695232"},{"town":"和田山町寺谷","koaza":"上町","lat":35.344794,"lng":134.8486,"zip":"6695203"},{"town":"和田山町寺谷","koaza":"中地","lat":35.346786,"lng":134.848089,"zip":"6695203"},{"town":"和田山町寺内","koaza":"庁刈","lat":35.364481,"lng":134.848481,"zip":"6695232"},{"town":"和田山町寺内","koaza":"六渕","lat":35.355163,"lng":134.848063,"zip":"6695232"},{"town":"和田山町寺谷","koaza":"上地","lat":35.346394,"lng":134.848795,"zip":"6695203"},{"town":"和田山町寺谷","koaza":"柿ケ谷","lat":35.346938,"lng":134.848701,"zip":"6695203"},{"town":"和田山町寺内","koaza":"ユリノ下","lat":35.356471,"lng":134.848956,"zip":"6695232"},{"town":"和田山町高生田","koaza":"高生田","lat":35.366207,"lng":134.849205,"zip":"6695233"},{"town":"和田山町寺谷","koaza":"櫻谷","lat":35.348419,"lng":134.853669,"zip":"6695203"},{"town":"和田山町寺内","koaza":"ウツギ谷口","lat":35.353998,"lng":134.852245,"zip":"6695232"},{"town":"和田山町寺内","koaza":"道分レ","lat":35.356245,"lng":134.853023,"zip":"6695232"},{"town":"和田山町室尾","koaza":"中山","lat":35.356281,"lng":134.855232,"zip":"6695223"},{"town":"和田山町柳原","koaza":"堂ノ下","lat":35.349,"lng":134.864521,"zip":"6695212"},{"town":"和田山町岡田","koaza":"更杵","lat":35.353075,"lng":134.86311,"zip":"6695224"},{"town":"和田山町岡田","koaza":"西","lat":35.353985,"lng":134.868521,"zip":"6695224"},{"town":"和田山町柳原","koaza":"モリザコ","lat":35.350288,"lng":134.865124,"zip":"6695212"},{"town":"和田山町柳原","koaza":"新田","lat":35.345166,"lng":134.86406,"zip":"6695212"},{"town":"和田山町柳原","koaza":"東新田","lat":35.345534,"lng":134.865245,"zip":"6695212"},{"town":"和田山町柳原","koaza":"森ザコ","lat":35.350724,"lng":134.865253,"zip":"6695212"},{"town":"和田山町柳原","koaza":"石畑ケ","lat":35.344661,"lng":134.865422,"zip":"6695212"},{"town":"和田山町柳原","koaza":"大乗","lat":35.346463,"lng":134.866461,"zip":"6695212"},{"town":"和田山町岡田","koaza":"円山","lat":35.349294,"lng":134.865756,"zip":"6695224"},{"town":"和田山町岡田","koaza":"坂","lat":35.356421,"lng":134.870399,"zip":"6695224"},{"town":"和田山町岡田","koaza":"縄手","lat":35.35025,"lng":134.867079,"zip":"6695224"},{"town":"和田山町柳原","koaza":"大乗リ","lat":35.346413,"lng":134.866938,"zip":"6695212"},{"town":"和田山町岡田","koaza":"取垣","lat":35.350494,"lng":134.868217,"zip":"6695224"},{"town":"和田山町岡田","koaza":"兜塚","lat":35.350415,"lng":134.869377,"zip":"6695224"},{"town":"和田山町岡田","koaza":"大道","lat":35.354752,"lng":134.869538,"zip":"6695224"},{"town":"和田山町岡田","koaza":"中道","lat":35.353421,"lng":134.869421,"zip":"6695224"},{"town":"和田山町岡田","koaza":"中麻畑","lat":35.354869,"lng":134.870314,"zip":"6695224"},{"town":"和田山町岡田","koaza":"中島","lat":35.3494,"lng":134.87127,"zip":"6695224"},{"town":"和田山町岡田","koaza":"ハサコ","lat":35.351287,"lng":134.871487,"zip":"6695224"},{"town":"和田山町岡田","koaza":"金畑","lat":35.352812,"lng":134.872012,"zip":"6695224"},{"town":"和田山町岡田","koaza":"清水","lat":35.353691,"lng":134.871267,"zip":"6695224"},{"town":"和田山町岡田","koaza":"稗畑","lat":35.356126,"lng":134.874032,"zip":"6695224"},{"town":"和田山町寺内","koaza":"三谷","lat":35.358856,"lng":134.851151,"zip":"6695232"},{"town":"和田山町林垣","koaza":"櫻","lat":35.354008,"lng":134.840755,"zip":"6695231"},{"town":"和田山町林垣","koaza":"向山","lat":35.353463,"lng":134.840889,"zip":"6695231"},{"town":"和田山町寺谷","koaza":"関切","lat":35.351264,"lng":134.842833,"zip":"6695203"},{"town":"和田山町寺谷","koaza":"宮ノ前","lat":35.351649,"lng":134.848054,"zip":"6695203"},{"town":"和田山町寺谷","koaza":"菖蒲谷","lat":35.347067,"lng":134.849193,"zip":"6695203"},{"town":"和田山町寺谷","koaza":"柳谷","lat":35.347149,"lng":134.849907,"zip":"6695203"},{"town":"和田山町柳原","koaza":"門在","lat":35.347463,"lng":134.867649,"zip":"6695212"},{"town":"和田山町岡田","koaza":"堤","lat":35.354731,"lng":134.863702,"zip":"6695224"},{"town":"和田山町平野","koaza":"中市場","lat":35.344641,"lng":134.84372,"zip":"6695211"},{"town":"和田山町岡","koaza":"石堂","lat":35.332227,"lng":134.819284,"zip":"6695246"},{"town":"和田山町土田","koaza":"オクラベ","lat":35.334219,"lng":134.826995,"zip":"6695241"},{"town":"和田山町土田","koaza":"細谷","lat":35.334838,"lng":134.833671,"zip":"6695241"},{"town":"和田山町枚田","koaza":"ナガヲ","lat":35.331598,"lng":134.831068,"zip":"6695261"},{"town":"和田山町土田","koaza":"平石","lat":35.340248,"lng":134.834488,"zip":"6695241"},{"town":"和田山町枚田","koaza":"堂谷","lat":35.331872,"lng":134.834383,"zip":"6695261"},{"town":"和田山町枚田","koaza":"マツ谷","lat":35.331313,"lng":134.836155,"zip":"6695261"},{"town":"和田山町平野","koaza":"隠谷","lat":35.335262,"lng":134.840545,"zip":"6695211"},{"town":"和田山町枚田","koaza":"ヤマネ","lat":35.3177,"lng":134.839012,"zip":"6695261"},{"town":"和田山町枚田","koaza":"アウ谷","lat":35.327929,"lng":134.840207,"zip":"6695261"},{"town":"和田山町土田","koaza":"サコケ谷","lat":35.341941,"lng":134.840798,"zip":"6695241"},{"town":"和田山町土田","koaza":"工森","lat":35.343845,"lng":134.841067,"zip":"6695241"},{"town":"和田山町枚田","koaza":"中ムク田","lat":35.320102,"lng":134.841375,"zip":"6695261"},{"town":"和田山町平野","koaza":"竹ノ下","lat":35.341394,"lng":134.842153,"zip":"6695211"},{"town":"和田山町平野","koaza":"平野","lat":35.339736,"lng":134.841686,"zip":"6695211"},{"town":"和田山町平野","koaza":"林ケ谷","lat":35.338631,"lng":134.841659,"zip":"6695211"},{"town":"和田山町枚田","koaza":"タン","lat":35.327684,"lng":134.842719,"zip":"6695261"},{"town":"和田山町枚田","koaza":"クゴ谷","lat":35.328555,"lng":134.841473,"zip":"6695261"},{"town":"和田山町平野","koaza":"森ノ元","lat":35.343133,"lng":134.84318,"zip":"6695211"},{"town":"和田山町枚田","koaza":"西ムク田","lat":35.319939,"lng":134.843265,"zip":"6695261"},{"town":"和田山町枚田","koaza":"寺下","lat":35.326137,"lng":134.842592,"zip":"6695261"},{"town":"和田山町平野","koaza":"城ノ下","lat":35.340162,"lng":134.844339,"zip":"6695211"},{"town":"和田山町市御堂","koaza":"東ムク田","lat":35.319973,"lng":134.844043,"zip":"6695262"},{"town":"和田山町枚田","koaza":"イチバ","lat":35.323066,"lng":134.843836,"zip":"6695261"},{"town":"和田山町平野","koaza":"ハサコ","lat":35.342105,"lng":134.844113,"zip":"6695211"},{"town":"和田山町枚田","koaza":"村中","lat":35.325637,"lng":134.8448,"zip":"6695261"},{"town":"和田山町枚田","koaza":"竹ガハナ","lat":35.324421,"lng":134.844044,"zip":"6695261"},{"town":"和田山町平野","koaza":"城ノ山","lat":35.339843,"lng":134.844841,"zip":"6695211"},{"town":"和田山町枚田","koaza":"キタダ","lat":35.32907,"lng":134.846243,"zip":"6695261"},{"town":"和田山町市御堂","koaza":"村中","lat":35.319332,"lng":134.846695,"zip":"6695262"},{"town":"和田山町枚田","koaza":"カドノマエ","lat":35.326098,"lng":134.845946,"zip":"6695261"},{"town":"和田山町市御堂","koaza":"古田","lat":35.318367,"lng":134.845546,"zip":"6695262"},{"town":"和田山町枚田","koaza":"ヌクユ","lat":35.325845,"lng":134.847053,"zip":"6695261"},{"town":"和田山町東谷","koaza":"妙見谷","lat":35.339336,"lng":134.845426,"zip":"6695202"},{"town":"和田山町東谷","koaza":"西地","lat":35.338367,"lng":134.845571,"zip":"6695202"},{"town":"和田山町市御堂","koaza":"村上","lat":35.317424,"lng":134.845349,"zip":"6695262"},{"town":"和田山町東谷","koaza":"家ノ奥","lat":35.337774,"lng":134.845812,"zip":"6695202"},{"town":"和田山町枚田","koaza":"東地","lat":35.326751,"lng":134.845947,"zip":"6695261"},{"town":"和田山町枚田","koaza":"小谷","lat":35.332398,"lng":134.849399,"zip":"6695261"},{"town":"和田山町東谷","koaza":"登リ立","lat":35.339221,"lng":134.846032,"zip":"6695202"},{"town":"和田山町市御堂","koaza":"ヨコマクラ","lat":35.320237,"lng":134.846908,"zip":"6695262"},{"town":"和田山町東谷","koaza":"鳥ノ谷","lat":35.338379,"lng":134.846869,"zip":"6695202"},{"town":"和田山町東谷","koaza":"矢名瀬","lat":35.342104,"lng":134.846668,"zip":"6695202"},{"town":"和田山町東谷","koaza":"岡ノ段","lat":35.339032,"lng":134.846186,"zip":"6695202"},{"town":"和田山町東谷","koaza":"道バタ","lat":35.343563,"lng":134.847068,"zip":"6695202"},{"town":"和田山町市御堂","koaza":"ワタシ","lat":35.318108,"lng":134.847055,"zip":"6695262"},{"town":"和田山町枚田","koaza":"カラ町","lat":35.328431,"lng":134.847996,"zip":"6695261"},{"town":"和田山町枚田","koaza":"スナゴ田","lat":35.32361,"lng":134.848638,"zip":"6695261"},{"town":"和田山町枚田","koaza":"ナナミ","lat":35.329832,"lng":134.848612,"zip":"6695261"},{"town":"和田山町枚田","koaza":"イツキ","lat":35.326044,"lng":134.850419,"zip":"6695261"},{"town":"和田山町東谷","koaza":"カンオン田","lat":35.340776,"lng":134.8486,"zip":"6695202"},{"town":"和田山町東谷","koaza":"申子田","lat":35.341214,"lng":134.849023,"zip":"6695202"},{"town":"和田山町東谷","koaza":"野田","lat":35.341869,"lng":134.849713,"zip":"6695202"},{"town":"和田山町市御堂","koaza":"カンタ","lat":35.318843,"lng":134.849884,"zip":"6695262"},{"town":"和田山町東谷","koaza":"大谷","lat":35.337765,"lng":134.850043,"zip":"6695202"},{"town":"和田山町東谷","koaza":"アジカ田","lat":35.339609,"lng":134.84947,"zip":"6695202"},{"town":"和田山町東谷","koaza":"檎谷","lat":35.339602,"lng":134.850811,"zip":"6695202"},{"town":"和田山町東谷","koaza":"細田","lat":35.339378,"lng":134.850055,"zip":"6695202"},{"town":"和田山町和田山","koaza":"北山","lat":35.333487,"lng":134.851269,"zip":"6695201"},{"town":"和田山町枚田","koaza":"大川除","lat":35.32851,"lng":134.852235,"zip":"6695261"},{"town":"和田山町枚田","koaza":"小谷前","lat":35.3311,"lng":134.851147,"zip":"6695261"},{"town":"和田山町枚田","koaza":"タテ通","lat":35.330513,"lng":134.852363,"zip":"6695261"},{"town":"和田山町枚田","koaza":"庄ノ田","lat":35.329679,"lng":134.854408,"zip":"6695261"},{"town":"和田山町寺谷","koaza":"藤原","lat":35.340905,"lng":134.852263,"zip":"6695203"},{"town":"和田山町枚田","koaza":"池寺","lat":35.326619,"lng":134.853807,"zip":"6695261"},{"town":"和田山町和田山","koaza":"村中","lat":35.337276,"lng":134.85653,"zip":"6695201"},{"town":"和田山町寺谷","koaza":"和田山下","lat":35.340246,"lng":134.854148,"zip":"6695203"},{"town":"和田山町東谷","koaza":"僧運谷","lat":35.339194,"lng":134.85392,"zip":"6695202"},{"town":"和田山町和田山","koaza":"一の谷","lat":35.333173,"lng":134.854579,"zip":"6695201"},{"town":"和田山町比治","koaza":"前田","lat":35.317304,"lng":134.855837,"zip":"6695266"},{"town":"和田山町和田山","koaza":"西裏","lat":35.336187,"lng":134.856573,"zip":"6695201"},{"town":"和田山町和田山","koaza":"西山","lat":35.334729,"lng":134.855396,"zip":"6695201"},{"town":"和田山町和田山","koaza":"村下","lat":35.339166,"lng":134.856163,"zip":"6695201"},{"town":"和田山町和田山","koaza":"カネイバ","lat":35.335126,"lng":134.855548,"zip":"6695201"},{"town":"和田山町寺谷","koaza":"加古嶋","lat":35.340836,"lng":134.854965,"zip":"6695203"},{"town":"和田山町法興寺","koaza":"井ノ口","lat":35.321921,"lng":134.855479,"zip":"6695267"},{"town":"和田山町法興寺","koaza":"藤ノ木","lat":35.325318,"lng":134.856353,"zip":"6695267"},{"town":"和田山町法興寺","koaza":"久古田","lat":35.327364,"lng":134.85637,"zip":"6695267"},{"town":"和田山町和田山","koaza":"村上","lat":35.334853,"lng":134.856768,"zip":"6695201"},{"town":"和田山町法興寺","koaza":"中地","lat":35.323649,"lng":134.857008,"zip":"6695267"},{"town":"和田山町法興寺","koaza":"下地","lat":35.326216,"lng":134.85671,"zip":"6695267"},{"town":"和田山町法興寺","koaza":"立ノ原","lat":35.32898,"lng":134.856486,"zip":"6695267"},{"town":"和田山町法興寺","koaza":"上ミ家ノ下","lat":35.324188,"lng":134.856828,"zip":"6695267"},{"town":"和田山町和田山","koaza":"東裏","lat":35.337902,"lng":134.858016,"zip":"6695201"},{"town":"和田山町比治","koaza":"村中","lat":35.317259,"lng":134.857891,"zip":"6695266"},{"town":"和田山町法興寺","koaza":"四ツ辻","lat":35.327051,"lng":134.858474,"zip":"6695267"},{"town":"和田山町法興寺","koaza":"堂ノ前","lat":35.326178,"lng":134.85965,"zip":"6695267"},{"town":"和田山町枚田岡","koaza":"岸ノ下","lat":35.329531,"lng":134.858752,"zip":"6695215"},{"town":"和田山町玉置","koaza":"村前","lat":35.335817,"lng":134.860005,"zip":"6695213"},{"town":"和田山町枚田岡","koaza":"岡","lat":35.328184,"lng":134.859637,"zip":"6695215"},{"town":"和田山町枚田岡","koaza":"今宮","lat":35.333309,"lng":134.859349,"zip":"6695215"},{"town":"和田山町枚田岡","koaza":"上中野","lat":35.330379,"lng":134.860467,"zip":"6695215"},{"town":"和田山町枚田岡","koaza":"井ノ口","lat":35.326676,"lng":134.859649,"zip":"6695215"},{"town":"和田山町玉置","koaza":"上先道","lat":35.337642,"lng":134.860748,"zip":"6695213"},{"town":"和田山町枚田岡","koaza":"坂ノ下","lat":35.328435,"lng":134.862831,"zip":"6695215"},{"town":"和田山町柳原","koaza":"前川原","lat":35.341785,"lng":134.859732,"zip":"6695212"},{"town":"和田山町玉置","koaza":"下先道","lat":35.338228,"lng":134.860967,"zip":"6695213"},{"town":"和田山町柳原","koaza":"村中","lat":35.343181,"lng":134.861085,"zip":"6695212"},{"town":"和田山町枚田岡","koaza":"上野","lat":35.330622,"lng":134.861544,"zip":"6695215"},{"town":"和田山町玉置","koaza":"前田","lat":35.334902,"lng":134.861542,"zip":"6695213"},{"town":"和田山町柳原","koaza":"前田","lat":35.342283,"lng":134.861952,"zip":"6695212"},{"town":"和田山町玉置","koaza":"南之下","lat":35.339034,"lng":134.861705,"zip":"6695213"},{"town":"和田山町玉置","koaza":"一本柳","lat":35.332688,"lng":134.861825,"zip":"6695213"},{"town":"和田山町玉置","koaza":"境","lat":35.339764,"lng":134.861735,"zip":"6695213"},{"town":"和田山町玉置","koaza":"垣之外","lat":35.33398,"lng":134.86255,"zip":"6695213"},{"town":"和田山町玉置","koaza":"里ノ藪","lat":35.33473,"lng":134.862835,"zip":"6695213"},{"town":"和田山町玉置","koaza":"石佛","lat":35.336721,"lng":134.862439,"zip":"6695213"},{"town":"和田山町玉置","koaza":"鬼之畑","lat":35.336269,"lng":134.863193,"zip":"6695213"},{"town":"和田山町玉置","koaza":"南地","lat":35.338977,"lng":134.86268,"zip":"6695213"},{"town":"和田山町玉置","koaza":"中井田","lat":35.332429,"lng":134.865682,"zip":"6695213"},{"town":"和田山町玉置","koaza":"茶園","lat":35.334371,"lng":134.863313,"zip":"6695213"},{"town":"和田山町玉置","koaza":"中路","lat":35.337583,"lng":134.863167,"zip":"6695213"},{"town":"和田山町柳原","koaza":"向山","lat":35.342231,"lng":134.867946,"zip":"6695212"},{"town":"和田山町玉置","koaza":"里地","lat":35.335001,"lng":134.863568,"zip":"6695213"},{"town":"和田山町玉置","koaza":"昌利坊","lat":35.339073,"lng":134.865777,"zip":"6695213"},{"town":"和田山町玉置","koaza":"上ノ城","lat":35.338596,"lng":134.864485,"zip":"6695213"},{"town":"和田山町枚田岡","koaza":"前田","lat":35.329381,"lng":134.864469,"zip":"6695215"},{"town":"和田山町桑原","koaza":"高原","lat":35.327372,"lng":134.868781,"zip":"6695214"},{"town":"和田山町桑原","koaza":"中井田","lat":35.328897,"lng":134.867611,"zip":"6695214"},{"town":"和田山町桑原","koaza":"東","lat":35.32911,"lng":134.87012,"zip":"6695214"},{"town":"和田山町桑原","koaza":"黒田竹ノ越","lat":35.328595,"lng":134.869286,"zip":"6695214"},{"town":"和田山町桑原","koaza":"砂子田","lat":35.327348,"lng":134.870807,"zip":"6695214"},{"town":"和田山町桑原","koaza":"佐田","lat":35.32944,"lng":134.871938,"zip":"6695214"},{"town":"和田山町桑原","koaza":"中川原","lat":35.326181,"lng":134.874232,"zip":"6695214"},{"town":"和田山町枚田","koaza":"タツガ谷","lat":35.330921,"lng":134.83042,"zip":"6695261"},{"town":"和田山町枚田岡","koaza":"下中野","lat":35.333689,"lng":134.860833,"zip":"6695215"},{"town":"和田山町玉置","koaza":"岸ノ下","lat":35.331854,"lng":134.862896,"zip":"6695213"},{"town":"和田山町玉置","koaza":"四ノ之田","lat":35.337272,"lng":134.862345,"zip":"6695213"},{"town":"和田山町玉置","koaza":"奥地","lat":35.339411,"lng":134.863476,"zip":"6695213"},{"town":"和田山町玉置","koaza":"長谷","lat":35.339924,"lng":134.864435,"zip":"6695213"},{"town":"和田山町玉置","koaza":"谷川","lat":35.33829,"lng":134.863535,"zip":"6695213"},{"town":"和田山町玉置","koaza":"清水","lat":35.332034,"lng":134.866587,"zip":"6695213"},{"town":"和田山町玉置","koaza":"石垣","lat":35.332901,"lng":134.865652,"zip":"6695213"},{"town":"和田山町玉置","koaza":"山田","lat":35.33683,"lng":134.870524,"zip":"6695213"},{"town":"和田山町玉置","koaza":"小林","lat":35.335597,"lng":134.866291,"zip":"6695213"},{"town":"和田山町玉置","koaza":"八坂","lat":35.336406,"lng":134.864282,"zip":"6695213"},{"town":"和田山町玉置","koaza":"落シノ","lat":35.331063,"lng":134.867423,"zip":"6695213"},{"town":"和田山町枚田岡","koaza":"中井田","lat":35.330948,"lng":134.864571,"zip":"6695215"},{"town":"和田山町枚田岡","koaza":"中西","lat":35.330446,"lng":134.866236,"zip":"6695215"},{"town":"和田山町枚田岡","koaza":"御鳥","lat":35.330481,"lng":134.86503,"zip":"6695215"},{"town":"和田山町桑原","koaza":"宮田縄手","lat":35.329597,"lng":134.869692,"zip":"6695214"},{"town":"和田山町桑原","koaza":"中西","lat":35.329598,"lng":134.867517,"zip":"6695214"},{"town":"和田山町桑原","koaza":"ブ口山田","lat":35.330169,"lng":134.874108,"zip":"6695214"},{"town":"和田山町桑原","koaza":"門倉","lat":35.329834,"lng":134.871749,"zip":"6695214"},{"town":"和田山町桑原","koaza":"泉谷","lat":35.333151,"lng":134.872738,"zip":"6695214"},{"town":"和田山町桑原","koaza":"落シ","lat":35.330217,"lng":134.867402,"zip":"6695214"},{"town":"和田山町桑原","koaza":"下川原","lat":35.326482,"lng":134.871169,"zip":"6695214"},{"town":"和田山町枚田岡","koaza":"水井","lat":35.324205,"lng":134.863902,"zip":"6695215"},{"town":"和田山町枚田岡","koaza":"四ツ辻","lat":35.328543,"lng":134.858046,"zip":"6695215"},{"town":"和田山町枚田","koaza":"内高山","lat":35.330888,"lng":134.833473,"zip":"6695261"},{"town":"和田山町枚田","koaza":"イノ谷","lat":35.331144,"lng":134.832463,"zip":"6695261"},{"town":"和田山町枚田","koaza":"足谷","lat":35.330168,"lng":134.837993,"zip":"6695261"},{"town":"和田山町枚田","koaza":"ヲシヤ谷","lat":35.329788,"lng":134.834939,"zip":"6695261"},{"town":"和田山町枚田","koaza":"ヒ谷","lat":35.329634,"lng":134.836061,"zip":"6695261"},{"town":"和田山町枚田","koaza":"上ミ山","lat":35.323207,"lng":134.841645,"zip":"6695261"},{"town":"和田山町枚田","koaza":"ムク田","lat":35.317522,"lng":134.840205,"zip":"6695261"},{"town":"和田山町久留引","koaza":"山根","lat":35.316263,"lng":134.838311,"zip":"6695263"},{"town":"和田山町枚田","koaza":"ヒ工ガ谷","lat":35.331632,"lng":134.840448,"zip":"6695261"},{"town":"和田山町枚田","koaza":"北山","lat":35.333113,"lng":134.838663,"zip":"6695261"},{"town":"和田山町枚田","koaza":"ウスガ谷","lat":35.332891,"lng":134.832773,"zip":"6695261"},{"town":"和田山町枚田","koaza":"タイ谷","lat":35.3331,"lng":134.836139,"zip":"6695261"},{"town":"和田山町枚田","koaza":"上工山","lat":35.325771,"lng":134.839388,"zip":"6695261"},{"town":"和田山町枚田","koaza":"マゴ谷","lat":35.330067,"lng":134.841583,"zip":"6695261"},{"town":"和田山町枚田","koaza":"ヨコ谷","lat":35.330358,"lng":134.839861,"zip":"6695261"},{"town":"和田山町枚田","koaza":"ウ工山","lat":35.327123,"lng":134.842222,"zip":"6695261"},{"town":"和田山町枚田","koaza":"穴淵","lat":35.326772,"lng":134.842139,"zip":"6695261"},{"town":"和田山町枚田","koaza":"ミヤ谷","lat":35.32719,"lng":134.84044,"zip":"6695261"},{"town":"和田山町枚田","koaza":"カメナシ","lat":35.327632,"lng":134.843886,"zip":"6695261"},{"town":"和田山町枚田","koaza":"ウ工ガ谷","lat":35.324902,"lng":134.842152,"zip":"6695261"},{"town":"和田山町市御堂","koaza":"カサガキ","lat":35.317537,"lng":134.843769,"zip":"6695262"},{"town":"和田山町市御堂","koaza":"岩ケ花","lat":35.320301,"lng":134.848016,"zip":"6695262"},{"town":"和田山町枚田","koaza":"大バネ","lat":35.323111,"lng":134.845161,"zip":"6695261"},{"town":"和田山町比治","koaza":"西垣","lat":35.31954,"lng":134.853683,"zip":"6695266"},{"town":"和田山町比治","koaza":"庄ノ前","lat":35.319703,"lng":134.851986,"zip":"6695266"},{"town":"和田山町比治","koaza":"大門","lat":35.31812,"lng":134.852077,"zip":"6695266"},{"town":"和田山町枚田","koaza":"ジョウノコシ","lat":35.324105,"lng":134.852119,"zip":"6695261"},{"town":"和田山町法興寺","koaza":"ハサコ","lat":35.321039,"lng":134.852854,"zip":"6695267"},{"town":"和田山町市御堂","koaza":"清水田","lat":35.322188,"lng":134.849265,"zip":"6695262"},{"town":"和田山町市御堂","koaza":"城山","lat":35.320406,"lng":134.850267,"zip":"6695262"},{"town":"和田山町市御堂","koaza":"キタウラ","lat":35.321099,"lng":134.851362,"zip":"6695262"},{"town":"和田山町法興寺","koaza":"ツキノマへ","lat":35.323511,"lng":134.853318,"zip":"6695267"},{"town":"和田山町柳原","koaza":"境江","lat":35.340996,"lng":134.862525,"zip":"6695212"},{"town":"和田山町安井","koaza":"白屋","lat":35.304149,"lng":134.823628,"zip":"6695254"},{"town":"和田山町久留引","koaza":"梅田","lat":35.311704,"lng":134.828532,"zip":"6695263"},{"town":"和田山町安井","koaza":"向山","lat":35.311716,"lng":134.825497,"zip":"6695254"},{"town":"和田山町殿","koaza":"カシヤ垣","lat":35.310312,"lng":134.824127,"zip":"6695255"},{"town":"和田山町殿","koaza":"長田","lat":35.308219,"lng":134.824126,"zip":"6695255"},{"town":"和田山町殿","koaza":"登リ野","lat":35.309093,"lng":134.824546,"zip":"6695255"},{"town":"和田山町安井","koaza":"大盛","lat":35.310226,"lng":134.824955,"zip":"6695254"},{"town":"和田山町安井","koaza":"井ノ下","lat":35.30959,"lng":134.825569,"zip":"6695254"},{"town":"和田山町安井","koaza":"ヒジリ尾","lat":35.307854,"lng":134.826059,"zip":"6695254"},{"town":"和田山町安井","koaza":"裏田","lat":35.306421,"lng":134.826435,"zip":"6695254"},{"town":"和田山町安井","koaza":"高石","lat":35.308937,"lng":134.826914,"zip":"6695254"},{"town":"和田山町安井","koaza":"福前","lat":35.304766,"lng":134.826433,"zip":"6695254"},{"town":"和田山町安井","koaza":"上有田","lat":35.309833,"lng":134.826591,"zip":"6695254"},{"town":"和田山町安井","koaza":"松本","lat":35.305378,"lng":134.828046,"zip":"6695254"},{"town":"和田山町竹田","koaza":"城山ノ下","lat":35.298562,"lng":134.833747,"zip":"6695252"},{"town":"和田山町安井","koaza":"清水谷","lat":35.305039,"lng":134.827221,"zip":"6695254"},{"town":"和田山町安井","koaza":"ツシ","lat":35.306558,"lng":134.827877,"zip":"6695254"},{"town":"和田山町久留引","koaza":"中梅田","lat":35.31207,"lng":134.828403,"zip":"6695263"},{"town":"和田山町安井","koaza":"前田","lat":35.307399,"lng":134.828439,"zip":"6695254"},{"town":"和田山町安井","koaza":"下有田","lat":35.309772,"lng":134.829573,"zip":"6695254"},{"town":"和田山町安井","koaza":"砂原","lat":35.30872,"lng":134.829185,"zip":"6695254"},{"town":"和田山町久留引","koaza":"廣畑","lat":35.314975,"lng":134.829802,"zip":"6695263"},{"town":"和田山町安井","koaza":"城坂","lat":35.306406,"lng":134.829578,"zip":"6695254"},{"town":"和田山町久留引","koaza":"柳ケ坪","lat":35.31432,"lng":134.82956,"zip":"6695263"},{"town":"和田山町竹田","koaza":"古城山","lat":35.301535,"lng":134.831606,"zip":"6695252"},{"town":"和田山町安井","koaza":"坂口","lat":35.306527,"lng":134.831844,"zip":"6695254"},{"town":"和田山町安井","koaza":"餅屋田","lat":35.308136,"lng":134.831421,"zip":"6695254"},{"town":"和田山町久留引","koaza":"和田","lat":35.315919,"lng":134.830598,"zip":"6695263"},{"town":"和田山町久留引","koaza":"松ノ下","lat":35.313415,"lng":134.831164,"zip":"6695263"},{"town":"和田山町安井","koaza":"枝川","lat":35.309429,"lng":134.83177,"zip":"6695254"},{"town":"和田山町安井","koaza":"五反田","lat":35.308078,"lng":134.832263,"zip":"6695254"},{"town":"和田山町竹田","koaza":"内カイチ","lat":35.295535,"lng":134.83279,"zip":"6695252"},{"town":"和田山町久留引","koaza":"松谷","lat":35.314558,"lng":134.832748,"zip":"6695263"},{"town":"和田山町竹田","koaza":"新町西側","lat":35.295942,"lng":134.834097,"zip":"6695252"},{"town":"和田山町安井","koaza":"庄ノ内田","lat":35.308036,"lng":134.833622,"zip":"6695254"},{"town":"和田山町竹田","koaza":"新町東側","lat":35.295317,"lng":134.834014,"zip":"6695252"},{"town":"和田山町竹田","koaza":"殿町","lat":35.296922,"lng":134.834306,"zip":"6695252"},{"town":"和田山町安井","koaza":"笹見垣","lat":35.3111,"lng":134.832205,"zip":"6695254"},{"town":"和田山町久留引","koaza":"塚ケナル","lat":35.31625,"lng":134.834326,"zip":"6695263"},{"town":"和田山町竹田","koaza":"川原","lat":35.295609,"lng":134.835346,"zip":"6695252"},{"town":"和田山町竹田","koaza":"上町西側","lat":35.296547,"lng":134.834386,"zip":"6695252"},{"town":"和田山町竹田","koaza":"恵眼谷","lat":35.305226,"lng":134.836042,"zip":"6695252"},{"town":"和田山町竹田","koaza":"外川原","lat":35.296054,"lng":134.836668,"zip":"6695252"},{"town":"和田山町久留引","koaza":"屋麦田","lat":35.31378,"lng":134.83504,"zip":"6695263"},{"town":"和田山町安井","koaza":"下畑","lat":35.307214,"lng":134.834672,"zip":"6695254"},{"town":"和田山町竹田","koaza":"上町東側","lat":35.297344,"lng":134.83591,"zip":"6695252"},{"town":"和田山町久留引","koaza":"村中","lat":35.314962,"lng":134.835617,"zip":"6695263"},{"town":"和田山町久留引","koaza":"西村中","lat":35.314784,"lng":134.835103,"zip":"6695263"},{"town":"和田山町加都","koaza":"向山","lat":35.312965,"lng":134.834505,"zip":"6695264"},{"town":"和田山町安井","koaza":"下田","lat":35.308412,"lng":134.835482,"zip":"6695254"},{"town":"和田山町竹田","koaza":"中町西側","lat":35.298588,"lng":134.835566,"zip":"6695252"},{"town":"和田山町竹田","koaza":"川除ノ内","lat":35.298411,"lng":134.837702,"zip":"6695252"},{"town":"和田山町栄町","koaza":"柳之内","lat":35.309691,"lng":134.836788,"zip":"6695251"},{"town":"和田山町久留引","koaza":"鳥坂","lat":35.313982,"lng":134.836106,"zip":"6695263"},{"town":"和田山町竹田","koaza":"中町東側","lat":35.298194,"lng":134.836275,"zip":"6695252"},{"town":"和田山町竹田","koaza":"桧ケ谷","lat":35.294534,"lng":134.837183,"zip":"6695252"},{"town":"和田山町竹田","koaza":"中裹町","lat":35.297968,"lng":134.836741,"zip":"6695252"},{"town":"和田山町安井","koaza":"松ノ下","lat":35.306618,"lng":134.836499,"zip":"6695254"},{"town":"和田山町栄町","koaza":"長田","lat":35.307945,"lng":134.836657,"zip":"6695251"},{"town":"和田山町竹田","koaza":"観音町東側","lat":35.299349,"lng":134.836923,"zip":"6695252"},{"town":"和田山町竹田","koaza":"米屋町西側","lat":35.301246,"lng":134.837234,"zip":"6695252"},{"town":"和田山町久留引","koaza":"岸ノ下","lat":35.314537,"lng":134.83663,"zip":"6695263"},{"town":"和田山町竹田","koaza":"米屋町東側","lat":35.30136,"lng":134.837935,"zip":"6695252"},{"town":"和田山町栄町","koaza":"下川原","lat":35.307375,"lng":134.837751,"zip":"6695251"},{"town":"和田山町竹田","koaza":"中川原","lat":35.299932,"lng":134.83785,"zip":"6695252"},{"town":"和田山町竹田","koaza":"下裹町","lat":35.300484,"lng":134.837807,"zip":"6695252"},{"town":"和田山町加都","koaza":"院ノ馬場","lat":35.30987,"lng":134.838572,"zip":"6695264"},{"town":"和田山町竹田","koaza":"下町西側","lat":35.303185,"lng":134.838049,"zip":"6695252"},{"town":"和田山町竹田","koaza":"川原町","lat":35.300471,"lng":134.838406,"zip":"6695252"},{"town":"和田山町竹田","koaza":"雀田","lat":35.295616,"lng":134.838607,"zip":"6695252"},{"town":"和田山町加都","koaza":"一本木","lat":35.312529,"lng":134.838332,"zip":"6695264"},{"town":"和田山町竹田","koaza":"下町東側","lat":35.303375,"lng":134.838465,"zip":"6695252"},{"town":"和田山町久留引","koaza":"稗田","lat":35.314238,"lng":134.839753,"zip":"6695263"},{"town":"和田山町竹田","koaza":"小森山","lat":35.296013,"lng":134.840215,"zip":"6695252"},{"town":"和田山町加都","koaza":"土ド工","lat":35.310836,"lng":134.838731,"zip":"6695264"},{"town":"和田山町加都","koaza":"極楽寺","lat":35.310184,"lng":134.83988,"zip":"6695264"},{"town":"和田山町加都","koaza":"西屋敷","lat":35.307631,"lng":134.839384,"zip":"6695264"},{"town":"和田山町加都","koaza":"前田","lat":35.306717,"lng":134.839542,"zip":"6695264"},{"town":"和田山町加都","koaza":"井口","lat":35.304112,"lng":134.839695,"zip":"6695264"},{"town":"和田山町加都","koaza":"諏訪ノ段","lat":35.302505,"lng":134.840428,"zip":"6695264"},{"town":"和田山町加都","koaza":"上ケ原","lat":35.305378,"lng":134.840181,"zip":"6695264"},{"town":"和田山町竹田","koaza":"苺谷","lat":35.300263,"lng":134.839975,"zip":"6695252"},{"town":"和田山町加都","koaza":"宮ノ越","lat":35.306334,"lng":134.840479,"zip":"6695264"},{"town":"和田山町加都","koaza":"才ノ木","lat":35.307654,"lng":134.841522,"zip":"6695264"},{"town":"和田山町加都","koaza":"夏梅垣","lat":35.309167,"lng":134.841642,"zip":"6695264"},{"town":"和田山町竹田","koaza":"大谷","lat":35.298198,"lng":134.840086,"zip":"6695252"},{"town":"和田山町加都","koaza":"荒掘","lat":35.313549,"lng":134.840506,"zip":"6695264"},{"town":"和田山町加都","koaza":"宮ノ上","lat":35.306519,"lng":134.842053,"zip":"6695264"},{"town":"和田山町加都","koaza":"茨垣","lat":35.31099,"lng":134.841728,"zip":"6695264"},{"town":"和田山町竹田","koaza":"地蔵ケ尾","lat":35.294884,"lng":134.841159,"zip":"6695252"},{"town":"和田山町加都","koaza":"大垣","lat":35.315843,"lng":134.843816,"zip":"6695264"},{"town":"和田山町加都","koaza":"中野","lat":35.312852,"lng":134.84221,"zip":"6695264"},{"town":"和田山町加都","koaza":"大門","lat":35.308532,"lng":134.843005,"zip":"6695264"},{"town":"和田山町加都","koaza":"上山","lat":35.307491,"lng":134.842583,"zip":"6695264"},{"town":"和田山町加都","koaza":"山内","lat":35.314746,"lng":134.844309,"zip":"6695264"},{"town":"和田山町加都","koaza":"サクラ","lat":35.312966,"lng":134.84462,"zip":"6695264"},{"town":"和田山町加都","koaza":"岡ノ森","lat":35.310705,"lng":134.844075,"zip":"6695264"},{"town":"和田山町加都","koaza":"東","lat":35.308956,"lng":134.844895,"zip":"6695264"},{"town":"和田山町加都","koaza":"谷田","lat":35.308335,"lng":134.845593,"zip":"6695264"},{"town":"和田山町加都","koaza":"宮ケ田","lat":35.316417,"lng":134.846381,"zip":"6695264"},{"town":"和田山町加都","koaza":"モウズ","lat":35.313887,"lng":134.846802,"zip":"6695264"},{"town":"和田山町加都","koaza":"新水","lat":35.315066,"lng":134.847559,"zip":"6695264"},{"town":"和田山町加都","koaza":"東屋敷","lat":35.308813,"lng":134.846094,"zip":"6695264"},{"town":"和田山町加都","koaza":"焼御堂","lat":35.310776,"lng":134.846423,"zip":"6695264"},{"town":"和田山町加都","koaza":"東山田","lat":35.304334,"lng":134.847973,"zip":"6695264"},{"town":"和田山町加都","koaza":"氷リ坂","lat":35.309868,"lng":134.849352,"zip":"6695264"},{"town":"和田山町加都","koaza":"伊豫田","lat":35.314712,"lng":134.850145,"zip":"6695264"},{"town":"和田山町加都","koaza":"矢田ケ鼻","lat":35.311329,"lng":134.849937,"zip":"6695264"},{"town":"和田山町加都","koaza":"柏原","lat":35.312496,"lng":134.848784,"zip":"6695264"},{"town":"和田山町筒江","koaza":"西山","lat":35.31068,"lng":134.851444,"zip":"6695265"},{"town":"和田山町筒江","koaza":"西分","lat":35.307889,"lng":134.850914,"zip":"6695265"},{"town":"和田山町筒江","koaza":"寺ケ前","lat":35.306922,"lng":134.851108,"zip":"6695265"},{"town":"和田山町加都","koaza":"沖田","lat":35.312879,"lng":134.851271,"zip":"6695264"},{"town":"和田山町筒江","koaza":"城ケ鼻","lat":35.309778,"lng":134.851588,"zip":"6695265"},{"town":"和田山町筒江","koaza":"城山","lat":35.30847,"lng":134.85172,"zip":"6695265"},{"town":"和田山町筒江","koaza":"越原","lat":35.306096,"lng":134.853627,"zip":"6695265"},{"town":"和田山町筒江","koaza":"宮ノ下","lat":35.310566,"lng":134.85322,"zip":"6695265"},{"town":"和田山町筒江","koaza":"宿田","lat":35.308085,"lng":134.852517,"zip":"6695265"},{"town":"和田山町筒江","koaza":"中山","lat":35.313272,"lng":134.855694,"zip":"6695265"},{"town":"和田山町筒江","koaza":"仲ノ坪","lat":35.310452,"lng":134.85244,"zip":"6695265"},{"town":"和田山町筒江","koaza":"ヤワシロ","lat":35.311772,"lng":134.852581,"zip":"6695265"},{"town":"和田山町筒江","koaza":"流尾","lat":35.308141,"lng":134.854551,"zip":"6695265"},{"town":"和田山町筒江","koaza":"桜ノ木","lat":35.311304,"lng":134.854371,"zip":"6695265"},{"town":"和田山町筒江","koaza":"塚本","lat":35.308788,"lng":134.853491,"zip":"6695265"},{"town":"和田山町筒江","koaza":"村木","lat":35.304518,"lng":134.856413,"zip":"6695265"},{"town":"和田山町筒江","koaza":"アンノ下","lat":35.308323,"lng":134.855452,"zip":"6695265"},{"town":"和田山町比治","koaza":"イナバ","lat":35.316364,"lng":134.855927,"zip":"6695266"},{"town":"和田山町筒江","koaza":"下岡","lat":35.306515,"lng":134.856536,"zip":"6695265"},{"town":"和田山町筒江","koaza":"浦石","lat":35.310191,"lng":134.857214,"zip":"6695265"},{"town":"和田山町筒江","koaza":"高田","lat":35.308801,"lng":134.856478,"zip":"6695265"},{"town":"和田山町筒江","koaza":"堀池","lat":35.308126,"lng":134.858216,"zip":"6695265"},{"town":"和田山町筒江","koaza":"小山","lat":35.307627,"lng":134.85724,"zip":"6695265"},{"town":"和田山町筒江","koaza":"村木前","lat":35.305254,"lng":134.856676,"zip":"6695265"},{"town":"和田山町筒江","koaza":"大垣","lat":35.309948,"lng":134.859048,"zip":"6695265"},{"town":"和田山町筒江","koaza":"梶原","lat":35.310545,"lng":134.860255,"zip":"6695265"},{"town":"和田山町筒江","koaza":"山鼻","lat":35.308227,"lng":134.860141,"zip":"6695265"},{"town":"和田山町筒江","koaza":"藤ツク","lat":35.304385,"lng":134.861151,"zip":"6695265"},{"town":"和田山町筒江","koaza":"梨ケ谷","lat":35.309357,"lng":134.862058,"zip":"6695265"},{"town":"和田山町筒江","koaza":"伯父ケ前","lat":35.308672,"lng":134.860743,"zip":"6695265"},{"town":"和田山町筒江","koaza":"鎌田","lat":35.307648,"lng":134.860543,"zip":"6695265"},{"town":"和田山町筒江","koaza":"高山","lat":35.306928,"lng":134.862047,"zip":"6695265"},{"town":"和田山町筒江","koaza":"シオレガ谷","lat":35.305296,"lng":134.862238,"zip":"6695265"},{"town":"山東町大月","koaza":"峠","lat":35.3072,"lng":134.861956,"zip":"6695153"},{"town":"山東町大月","koaza":"北山","lat":35.311769,"lng":134.86448,"zip":"6695153"},{"town":"和田山町柳原","koaza":"出垣","lat":35.346147,"lng":134.863145,"zip":"6695212"},{"town":"和田山町柳原","koaza":"上ノ山","lat":35.346395,"lng":134.86066,"zip":"6695212"},{"town":"和田山町平野","koaza":"中市場上","lat":35.345952,"lng":134.843971,"zip":"6695211"},{"town":"和田山町比治","koaza":"日ノ坪","lat":35.317157,"lng":134.852317,"zip":"6695266"},{"town":"和田山町比治","koaza":"村上","lat":35.317055,"lng":134.860558,"zip":"6695266"},{"town":"和田山町比治","koaza":"石ケ谷","lat":35.316456,"lng":134.864543,"zip":"6695266"},{"town":"和田山町比治","koaza":"山ノ神","lat":35.316409,"lng":134.858809,"zip":"6695266"},{"town":"和田山町比治","koaza":"ヒゞロ","lat":35.320663,"lng":134.861709,"zip":"6695266"},{"town":"和田山町比治","koaza":"山田","lat":35.320411,"lng":134.864081,"zip":"6695266"},{"town":"和田山町筒江","koaza":"長尾","lat":35.30705,"lng":134.859706,"zip":"6695265"},{"town":"和田山町筒江","koaza":"西縄手","lat":35.309045,"lng":134.855864,"zip":"6695265"},{"town":"和田山町筒江","koaza":"越原前","lat":35.30722,"lng":134.854533,"zip":"6695265"},{"town":"和田山町筒江","koaza":"越原前田","lat":35.307296,"lng":134.854058,"zip":"6695265"},{"town":"和田山町竹田","koaza":"観音町西側","lat":35.299604,"lng":134.836559,"zip":"6695252"},{"town":"和田山町殿","koaza":"市条寺","lat":35.310886,"lng":134.82338,"zip":"6695255"},{"town":"和田山町安井","koaza":"東ラ","lat":35.306188,"lng":134.833685,"zip":"6695254"},{"town":"和田山町久留引","koaza":"池町","lat":35.320487,"lng":134.826751,"zip":"6695263"},{"town":"和田山町久留引","koaza":"奥ノ向","lat":35.314849,"lng":134.828245,"zip":"6695263"},{"town":"和田山町久留引","koaza":"油田","lat":35.315917,"lng":134.833991,"zip":"6695263"},{"town":"和田山町久留引","koaza":"宮ノ根","lat":35.31517,"lng":134.83434,"zip":"6695263"},{"town":"和田山町久留引","koaza":"森ノ本","lat":35.31345,"lng":134.833553,"zip":"6695263"},{"town":"和田山町久留引","koaza":"荒堀","lat":35.31568,"lng":134.838521,"zip":"6695263"},{"town":"和田山町久留引","koaza":"村上","lat":35.317096,"lng":134.834946,"zip":"6695263"},{"town":"和田山町久留引","koaza":"宮ノ本","lat":35.314358,"lng":134.833216,"zip":"6695263"},{"town":"和田山町枚田","koaza":"椋田","lat":35.316557,"lng":134.839517,"zip":"6695261"},{"town":"和田山町久留引","koaza":"ガンマク","lat":35.315713,"lng":134.841225,"zip":"6695263"},{"town":"和田山町市御堂","koaza":"ク工田","lat":35.320671,"lng":134.846441,"zip":"6695262"},{"town":"和田山町枚田","koaza":"キシノ下","lat":35.329777,"lng":134.855679,"zip":"6695261"},{"town":"和田山町枚田","koaza":"なわて","lat":35.327951,"lng":134.85576,"zip":"6695261"},{"town":"和田山町東谷","koaza":"コヤガ谷","lat":35.338611,"lng":134.844137,"zip":"6695202"},{"town":"和田山町平野","koaza":"池田","lat":35.340875,"lng":134.843563,"zip":"6695211"},{"town":"和田山町平野","koaza":"烏ノ奥","lat":35.340473,"lng":134.837493,"zip":"6695211"},{"town":"和田山町土田","koaza":"向所","lat":35.342594,"lng":134.840676,"zip":"6695241"},{"town":"和田山町土田","koaza":"松バリ","lat":35.343206,"lng":134.834974,"zip":"6695241"},{"town":"和田山町土田","koaza":"ヒヤケ","lat":35.343813,"lng":134.83933,"zip":"6695241"},{"town":"和田山町土田","koaza":"桐谷","lat":35.342347,"lng":134.838036,"zip":"6695241"},{"town":"和田山町土田","koaza":"象ラ","lat":35.345218,"lng":134.837089,"zip":"6695241"},{"town":"和田山町土田","koaza":"向山","lat":35.346656,"lng":134.835728,"zip":"6695241"},{"town":"和田山町平野","koaza":"大土田","lat":35.343139,"lng":134.845229,"zip":"6695211"},{"town":"和田山町平野","koaza":"土井ノ内","lat":35.343404,"lng":134.844494,"zip":"6695211"},{"town":"和田山町平野","koaza":"尾野","lat":35.342604,"lng":134.844466,"zip":"6695211"},{"town":"和田山町寺谷","koaza":"百ケ屋敷","lat":35.344651,"lng":134.847011,"zip":"6695203"},{"town":"和田山町寺谷","koaza":"井料","lat":35.344428,"lng":134.847943,"zip":"6695203"},{"town":"和田山町寺谷","koaza":"上ミ三","lat":35.34562,"lng":134.853596,"zip":"6695203"},{"town":"和田山町東谷","koaza":"カケト","lat":35.343425,"lng":134.849133,"zip":"6695202"},{"town":"和田山町平野","koaza":"チャヒ","lat":35.341492,"lng":134.84075,"zip":"6695211"},{"town":"和田山町宮田","koaza":"大畑ケ","lat":35.351181,"lng":134.830926,"zip":"6695242"},{"town":"和田山町土田","koaza":"東見寺","lat":35.345864,"lng":134.832117,"zip":"6695241"},{"town":"和田山町平野","koaza":"糀室","lat":35.338684,"lng":134.838393,"zip":"6695211"},{"town":"和田山町土田","koaza":"間ケ谷","lat":35.337734,"lng":134.834636,"zip":"6695241"},{"town":"和田山町土田","koaza":"瀧ケ谷","lat":35.344169,"lng":134.831028,"zip":"6695241"},{"town":"和田山町土田","koaza":"長ケ谷","lat":35.33991,"lng":134.8298,"zip":"6695241"},{"town":"和田山町土田","koaza":"城ケ谷","lat":35.340823,"lng":134.831744,"zip":"6695241"},{"town":"和田山町寺谷","koaza":"古川","lat":35.343241,"lng":134.853751,"zip":"6695203"},{"town":"和田山町寺谷","koaza":"上河原","lat":35.344674,"lng":134.849068,"zip":"6695203"},{"town":"和田山町土田","koaza":"サコカ谷","lat":35.341823,"lng":134.840619,"zip":"6695241"},{"town":"和田山町寺谷","koaza":"松ノ本","lat":35.345242,"lng":134.851615,"zip":"6695203"},{"town":"和田山町東谷","koaza":"末谷","lat":35.335628,"lng":134.845617,"zip":"6695202"},{"town":"和田山町平野","koaza":"櫻谷","lat":35.333838,"lng":134.842285,"zip":"6695211"},{"town":"和田山町枚田","koaza":"カラ町外","lat":35.330163,"lng":134.849876,"zip":"6695261"},{"town":"和田山町東谷","koaza":"藤原","lat":35.341274,"lng":134.851216,"zip":"6695202"},{"town":"和田山町東谷","koaza":"宮ノ下","lat":35.341789,"lng":134.848624,"zip":"6695202"},{"town":"和田山町平野","koaza":"花ノ段","lat":35.340488,"lng":134.842644,"zip":"6695211"},{"town":"和田山町平野","koaza":"高尾","lat":35.339456,"lng":134.841496,"zip":"6695211"},{"town":"和田山町比治","koaza":"日向","lat":35.318051,"lng":134.860088,"zip":"6695266"},{"town":"和田山町桑原","koaza":"向山","lat":35.322104,"lng":134.871132,"zip":"6695214"},{"town":"和田山町法興寺","koaza":"ラへ地","lat":35.324598,"lng":134.857603,"zip":"6695267"},{"town":"和田山町法興寺","koaza":"谷","lat":35.324355,"lng":134.8581,"zip":"6695267"},{"town":"和田山町法興寺","koaza":"梨ノ木","lat":35.322982,"lng":134.854304,"zip":"6695267"},{"town":"和田山町法興寺","koaza":"ユリノト","lat":35.323095,"lng":134.854967,"zip":"6695267"},{"town":"和田山町枚田岡","koaza":"縄手","lat":35.331419,"lng":134.858626,"zip":"6695215"},{"town":"和田山町玉置","koaza":"上野","lat":35.332164,"lng":134.861743,"zip":"6695213"},{"town":"和田山町比治","koaza":"長者ケ谷","lat":35.318878,"lng":134.857308,"zip":"6695266"},{"town":"和田山町土田","koaza":"塚ケ谷","lat":35.337302,"lng":134.827528,"zip":"6695241"},{"town":"和田山町枚田","koaza":"キタ谷","lat":35.331235,"lng":134.842459,"zip":"6695261"},{"town":"和田山町枚田","koaza":"曲リ尾","lat":35.332038,"lng":134.856603,"zip":"6695261"},{"town":"和田山町法興寺","koaza":"井ノオク","lat":35.320638,"lng":134.855319,"zip":"6695267"},{"town":"和田山町法興寺","koaza":"イノヲク","lat":35.320508,"lng":134.854312,"zip":"6695267"},{"town":"和田山町枚田","koaza":"辰ノ口","lat":35.331228,"lng":134.846498,"zip":"6695261"},{"town":"和田山町寺谷","koaza":"上山","lat":35.343183,"lng":134.856015,"zip":"6695203"}]