[{"town":"畑田組","koaza":"","lat":34.251316,"lng":134.870581,"zip":"6562533"},{"town":"相川組","koaza":"","lat":34.25942,"lng":134.888341,"zip":"6562531"},{"town":"宇原","koaza":"","lat":34.327092,"lng":134.870816,"zip":"6560054"},{"town":"千草","koaza":"","lat":34.300721,"lng":134.886339,"zip":"6560031"},{"town":"小路谷","koaza":"","lat":34.328598,"lng":134.903669,"zip":"6560023"},{"town":"物部","koaza":"","lat":34.334928,"lng":134.878276,"zip":"6560051"},{"town":"物部一丁目","koaza":"","lat":34.339099,"lng":134.885432,"zip":"6560051"},{"town":"上物部二丁目","koaza":"","lat":34.33487,"lng":134.886698,"zip":"6560053"},{"town":"上物部一丁目","koaza":"","lat":34.336354,"lng":134.889608,"zip":"6560053"},{"town":"津田","koaza":"","lat":34.336079,"lng":134.893359,"zip":"6560052"},{"town":"桑間","koaza":"","lat":34.342197,"lng":134.863434,"zip":"6560014"},{"town":"下加茂二丁目","koaza":"","lat":34.347231,"lng":134.87381,"zip":"6560013"},{"town":"下加茂","koaza":"","lat":34.351237,"lng":134.874406,"zip":"6560013"},{"town":"中川原町中川原","koaza":"","lat":34.371802,"lng":134.871746,"zip":"6560002"},{"town":"上加茂","koaza":"","lat":34.349845,"lng":134.867053,"zip":"6560015"},{"town":"中川原町二ツ石","koaza":"","lat":34.381955,"lng":134.860758,"zip":"6560006"},{"town":"安乎町中田","koaza":"","lat":34.387048,"lng":134.866001,"zip":"6562122"},{"town":"安乎町北谷","koaza":"","lat":34.396549,"lng":134.867627,"zip":"6562124"},{"town":"安乎町宮野原","koaza":"","lat":34.403251,"lng":134.874161,"zip":"6562126"},{"town":"安乎町山田原","koaza":"","lat":34.406368,"lng":134.863153,"zip":"6562125"},{"town":"納","koaza":"","lat":34.340294,"lng":134.835995,"zip":"6560101"},{"town":"大野","koaza":"","lat":34.325395,"lng":134.856406,"zip":"6560055"},{"town":"中川原町三木田","koaza":"","lat":34.360627,"lng":134.871024,"zip":"6560003"},{"town":"五色町鳥飼浦","koaza":"","lat":34.367015,"lng":134.755745,"zip":"6561344"},{"town":"五色町都志","koaza":"","lat":34.416178,"lng":134.789117,"zip":"6561301"},{"town":"五色町都志米山","koaza":"","lat":34.422208,"lng":134.797522,"zip":"6561302"},{"town":"五色町鮎原葛尾","koaza":"","lat":34.41994,"lng":134.815592,"zip":"6561311"},{"town":"五色町鮎原中邑","koaza":"","lat":34.41339,"lng":134.835923,"zip":"6561321"},{"town":"由良四丁目","koaza":"","lat":34.296579,"lng":134.94232,"zip":"6562541"},{"town":"由良一丁目","koaza":"","lat":34.288171,"lng":134.945959,"zip":"6562541"},{"town":"由良二丁目","koaza":"","lat":34.290144,"lng":134.944917,"zip":"6562541"},{"town":"由良三丁目","koaza":"","lat":34.292672,"lng":134.944028,"zip":"6562541"},{"town":"中津川組","koaza":"","lat":34.264467,"lng":134.91543,"zip":"6562532"},{"town":"由良町由良","koaza":"","lat":34.283249,"lng":134.930836,"zip":"6562543"},{"town":"由良町内田","koaza":"","lat":34.304964,"lng":134.917935,"zip":"6562542"},{"town":"上物部","koaza":"","lat":34.329921,"lng":134.882536,"zip":"6560053"},{"town":"池田","koaza":"","lat":34.301351,"lng":134.85457,"zip":"6560043"},{"town":"前平","koaza":"","lat":34.305264,"lng":134.846275,"zip":"6560044"},{"town":"木戸","koaza":"","lat":34.312459,"lng":134.853917,"zip":"6560045"},{"town":"鮎屋","koaza":"","lat":34.275367,"lng":134.848921,"zip":"6560111"},{"town":"池内","koaza":"","lat":34.314846,"lng":134.862573,"zip":"6560042"},{"town":"新村","koaza":"","lat":34.320432,"lng":134.857789,"zip":"6560041"},{"town":"金屋","koaza":"","lat":34.321291,"lng":134.847033,"zip":"6560046"},{"town":"海岸通一丁目","koaza":"","lat":34.343418,"lng":134.900415,"zip":"6560022"},{"town":"海岸通二丁目","koaza":"","lat":34.342659,"lng":134.899619,"zip":"6560022"},{"town":"山手一丁目","koaza":"","lat":34.33944,"lng":134.900641,"zip":"6560024"},{"town":"山手二丁目","koaza":"","lat":34.339905,"lng":134.899183,"zip":"6560024"},{"town":"山手三丁目","koaza":"","lat":34.338683,"lng":134.893427,"zip":"6560024"},{"town":"本町一丁目","koaza":"","lat":34.342561,"lng":134.89812,"zip":"6560025"},{"town":"本町四丁目","koaza":"","lat":34.340812,"lng":134.895937,"zip":"6560025"},{"town":"本町二丁目","koaza":"","lat":34.342032,"lng":134.897393,"zip":"6560025"},{"town":"本町三丁目","koaza":"","lat":34.341454,"lng":134.896817,"zip":"6560025"},{"town":"本町五丁目","koaza":"","lat":34.341352,"lng":134.894368,"zip":"6560025"},{"town":"港","koaza":"","lat":34.345377,"lng":134.896702,"zip":"6560027"},{"town":"栄町一丁目","koaza":"","lat":34.343872,"lng":134.895613,"zip":"6560026"},{"town":"本町六丁目","koaza":"","lat":34.34116,"lng":134.893182,"zip":"6560025"},{"town":"栄町二丁目","koaza":"","lat":34.343032,"lng":134.89312,"zip":"6560026"},{"town":"塩屋三丁目","koaza":"","lat":34.349842,"lng":134.891859,"zip":"6560021"},{"town":"本町七丁目","koaza":"","lat":34.340927,"lng":134.891576,"zip":"6560025"},{"town":"栄町三丁目","koaza":"","lat":34.3429,"lng":134.890692,"zip":"6560026"},{"town":"本町八丁目","koaza":"","lat":34.340586,"lng":134.889443,"zip":"6560025"},{"town":"塩屋一丁目","koaza":"","lat":34.346642,"lng":134.89424,"zip":"6560021"},{"town":"栄町四丁目","koaza":"","lat":34.34302,"lng":134.888044,"zip":"6560026"},{"town":"塩屋二丁目","koaza":"","lat":34.347742,"lng":134.890606,"zip":"6560021"},{"town":"宇山一丁目","koaza":"","lat":34.345755,"lng":134.887099,"zip":"6560012"},{"town":"物部二丁目","koaza":"","lat":34.342048,"lng":134.883994,"zip":"6560051"},{"town":"物部三丁目","koaza":"","lat":34.339828,"lng":134.88007,"zip":"6560051"},{"town":"宇山二丁目","koaza":"","lat":34.348665,"lng":134.887462,"zip":"6560012"},{"town":"宇山三丁目","koaza":"","lat":34.34617,"lng":134.881803,"zip":"6560012"},{"town":"桑間一丁目","koaza":"","lat":34.342472,"lng":134.876564,"zip":"6560014"},{"town":"下加茂一丁目","koaza":"","lat":34.34748,"lng":134.876767,"zip":"6560013"},{"town":"炬口一丁目","koaza":"","lat":34.351305,"lng":134.893556,"zip":"6560011"},{"town":"炬口二丁目","koaza":"","lat":34.351171,"lng":134.891093,"zip":"6560011"},{"town":"炬口","koaza":"","lat":34.357494,"lng":134.893684,"zip":"6560011"},{"town":"宇山","koaza":"","lat":34.356483,"lng":134.8847,"zip":"6560012"},{"town":"中川原町厚浜","koaza":"","lat":34.374548,"lng":134.888093,"zip":"6560001"},{"town":"安乎町平安浦","koaza":"","lat":34.389746,"lng":134.886455,"zip":"6562121"},{"town":"五色町都志万歳","koaza":"","lat":34.409225,"lng":134.781259,"zip":"6561304"},{"town":"五色町鮎原鮎の郷","koaza":"","lat":34.392949,"lng":134.809774,"zip":"6561314"},{"town":"五色町鮎原神陽","koaza":"","lat":34.392203,"lng":134.814605,"zip":"6561318"},{"town":"五色町広石下","koaza":"","lat":34.372505,"lng":134.787684,"zip":"6561335"},{"town":"五色町広石中","koaza":"","lat":34.368985,"lng":134.810173,"zip":"6561334"},{"town":"五色町広石上","koaza":"","lat":34.375965,"lng":134.807182,"zip":"6561333"},{"town":"五色町鮎原三野畑","koaza":"","lat":34.389639,"lng":134.823799,"zip":"6561324"},{"town":"五色町鮎原栢野","koaza":"","lat":34.381546,"lng":134.812529,"zip":"6561316"},{"town":"五色町鮎原宇谷","koaza":"","lat":34.386051,"lng":134.814194,"zip":"6561315"},{"town":"五色町鮎原西","koaza":"","lat":34.397908,"lng":134.809004,"zip":"6561313"},{"town":"五色町鮎原小山田","koaza":"","lat":34.390819,"lng":134.801294,"zip":"6561317"},{"town":"五色町鳥飼中","koaza":"","lat":34.379325,"lng":134.764417,"zip":"6561343"},{"town":"五色町鳥飼上","koaza":"","lat":34.377306,"lng":134.773868,"zip":"6561342"},{"town":"五色町広石北","koaza":"","lat":34.38659,"lng":134.792384,"zip":"6561332"},{"town":"五色町都志角川","koaza":"","lat":34.396411,"lng":134.776171,"zip":"6561341"},{"town":"五色町都志大日","koaza":"","lat":34.400253,"lng":134.789086,"zip":"6561331"},{"town":"五色町鮎原下","koaza":"","lat":34.399819,"lng":134.828294,"zip":"6561326"},{"town":"五色町鮎原南谷","koaza":"","lat":34.401229,"lng":134.818115,"zip":"6561325"},{"town":"五色町鮎原田処","koaza":"","lat":34.411129,"lng":134.825137,"zip":"6561327"},{"town":"五色町鮎原吉田","koaza":"","lat":34.40505,"lng":134.810575,"zip":"6561312"},{"town":"五色町都志大宮","koaza":"","lat":34.407104,"lng":134.797105,"zip":"6561303"},{"town":"五色町上堺","koaza":"","lat":34.356656,"lng":134.799953,"zip":"6561336"},{"town":"五色町下堺","koaza":"","lat":34.365414,"lng":134.78026,"zip":"6561337"},{"town":"下内膳","koaza":"","lat":34.352354,"lng":134.857266,"zip":"6560016"},{"town":"上内膳","koaza":"","lat":34.349486,"lng":134.840574,"zip":"6560017"},{"town":"中川原町安坂","koaza":"","lat":34.361759,"lng":134.8496,"zip":"6560004"},{"town":"中川原町市原","koaza":"","lat":34.374988,"lng":134.856139,"zip":"6560005"},{"town":"五色町鮎原塔下","koaza":"","lat":34.380929,"lng":134.836887,"zip":"6561323"},{"town":"奥畑","koaza":"","lat":34.357373,"lng":134.82347,"zip":"6560018"},{"town":"安乎町古宮","koaza":"","lat":34.391162,"lng":134.85758,"zip":"6562123"},{"town":"五色町鮎原上","koaza":"","lat":34.401129,"lng":134.845361,"zip":"6561322"},{"town":"納","koaza":"横竹","lat":34.333843,"lng":134.84412,"zip":"6560101"},{"town":"桑間","koaza":"カジクボ","lat":34.340583,"lng":134.85781,"zip":"6560014"},{"town":"千草","koaza":"丙","lat":34.309416,"lng":134.869878,"zip":"6560031"},{"town":"千草","koaza":"乙","lat":34.318051,"lng":134.878051,"zip":"6560031"},{"town":"千草","koaza":"丁","lat":34.317678,"lng":134.882638,"zip":"6560031"},{"town":"千草","koaza":"甲","lat":34.327935,"lng":134.886771,"zip":"6560031"},{"town":"千草","koaza":"己","lat":34.31069,"lng":134.898928,"zip":"6560031"},{"town":"千草","koaza":"庚","lat":34.325207,"lng":134.893779,"zip":"6560031"}]