[{"town":"津名の郷","koaza":"","lat":34.474241,"lng":134.923444,"zip":"6562214"},{"town":"大町畑","koaza":"","lat":34.428124,"lng":134.867071,"zip":"6562151"},{"town":"木曽上","koaza":"","lat":34.415852,"lng":134.864176,"zip":"6562152"},{"town":"志筑","koaza":"","lat":34.434187,"lng":134.899988,"zip":"6562131"},{"town":"塩田新島","koaza":"","lat":34.418291,"lng":134.898525,"zip":"6562142"},{"town":"中田","koaza":"","lat":34.431707,"lng":134.880112,"zip":"6562163"},{"town":"尾崎","koaza":"","lat":34.493687,"lng":134.868932,"zip":"6561501"},{"town":"木曽下","koaza":"","lat":34.419263,"lng":134.85132,"zip":"6562154"},{"town":"竹谷","koaza":"","lat":34.442303,"lng":134.866567,"zip":"6561524"},{"town":"上河合","koaza":"","lat":34.449513,"lng":134.871573,"zip":"6561523"},{"town":"池ノ内","koaza":"","lat":34.458817,"lng":134.881525,"zip":"6562161"},{"town":"下河合","koaza":"","lat":34.45967,"lng":134.863156,"zip":"6561522"},{"town":"新村","koaza":"","lat":34.476736,"lng":134.875189,"zip":"6561502"},{"town":"遠田","koaza":"","lat":34.4678,"lng":134.876649,"zip":"6561503"},{"town":"岩屋","koaza":"","lat":34.589564,"lng":135.006206,"zip":"6562401"},{"town":"釜口","koaza":"","lat":34.499417,"lng":134.958895,"zip":"6562334"},{"town":"小田","koaza":"","lat":34.52038,"lng":134.954422,"zip":"6561732"},{"town":"室津","koaza":"","lat":34.509471,"lng":134.880954,"zip":"6561606"},{"town":"生田大坪","koaza":"","lat":34.505349,"lng":134.89527,"zip":"6561603"},{"town":"生田畑","koaza":"","lat":34.497394,"lng":134.907955,"zip":"6561604"},{"town":"黒谷","koaza":"","lat":34.508336,"lng":134.912254,"zip":"6561601"},{"town":"興隆寺","koaza":"","lat":34.493322,"lng":134.930708,"zip":"6562211"},{"town":"仁井","koaza":"","lat":34.519879,"lng":134.941133,"zip":"6561731"},{"town":"浜","koaza":"","lat":34.547364,"lng":134.996764,"zip":"6562304"},{"town":"小磯","koaza":"","lat":34.549909,"lng":134.997463,"zip":"6562303"},{"town":"楠本","koaza":"","lat":34.56289,"lng":134.991409,"zip":"6562301"},{"town":"野島貴船","koaza":"","lat":34.586015,"lng":134.975349,"zip":"6561727"},{"town":"野島平林","koaza":"","lat":34.584424,"lng":134.969561,"zip":"6561724"},{"town":"野島江崎","koaza":"","lat":34.596421,"lng":134.983596,"zip":"6562451"},{"town":"野島常盤","koaza":"","lat":34.56563,"lng":134.969981,"zip":"6561726"},{"town":"塩尾","koaza":"","lat":34.413203,"lng":134.892169,"zip":"6562141"},{"town":"里","koaza":"","lat":34.399843,"lng":134.887648,"zip":"6562143"},{"town":"下司","koaza":"","lat":34.409941,"lng":134.882935,"zip":"6562144"},{"town":"木曽上畑","koaza":"","lat":34.408416,"lng":134.855313,"zip":"6562153"},{"town":"生穂新島","koaza":"","lat":34.440167,"lng":134.916639,"zip":"6562225"},{"town":"佐野新島","koaza":"","lat":34.453452,"lng":134.929469,"zip":"6562213"},{"town":"志筑新島","koaza":"","lat":34.426239,"lng":134.903893,"zip":"6562132"},{"town":"大谷","koaza":"","lat":34.449116,"lng":134.90578,"zip":"6562224"},{"town":"王子","koaza":"","lat":34.454343,"lng":134.891508,"zip":"6562162"},{"town":"生穂","koaza":"","lat":34.460044,"lng":134.91156,"zip":"6562223"},{"town":"佐野","koaza":"","lat":34.476078,"lng":134.936755,"zip":"6562212"},{"town":"野田尾","koaza":"","lat":34.475014,"lng":134.912855,"zip":"6562222"},{"town":"長澤","koaza":"","lat":34.482163,"lng":134.901302,"zip":"6562100"},{"town":"生田田尻","koaza":"","lat":34.49329,"lng":134.888529,"zip":"6561605"},{"town":"明神","koaza":"","lat":34.447191,"lng":134.800296,"zip":"6561557"},{"town":"大町上","koaza":"","lat":34.429418,"lng":134.850557,"zip":"6562155"},{"town":"大町下","koaza":"","lat":34.438641,"lng":134.850722,"zip":"6562156"},{"town":"入野","koaza":"","lat":34.430609,"lng":134.832795,"zip":"6561552"},{"town":"山田","koaza":"","lat":34.431097,"lng":134.820779,"zip":"6561553"},{"town":"高山","koaza":"","lat":34.440813,"lng":134.819491,"zip":"6561551"},{"town":"深草","koaza":"","lat":34.429606,"lng":134.800103,"zip":"6561554"},{"town":"草香","koaza":"","lat":34.439215,"lng":134.805414,"zip":"6561556"},{"town":"南","koaza":"","lat":34.435611,"lng":134.798724,"zip":"6561555"},{"town":"井手","koaza":"","lat":34.446598,"lng":134.856318,"zip":"6561525"},{"town":"中村","koaza":"","lat":34.453844,"lng":134.855694,"zip":"6561526"},{"town":"柳澤","koaza":"","lat":34.450669,"lng":134.83636,"zip":"6562100"},{"town":"草香北","koaza":"","lat":34.449133,"lng":134.808306,"zip":"6561558"},{"town":"北山","koaza":"","lat":34.472803,"lng":134.856608,"zip":"6561512"},{"town":"多賀","koaza":"","lat":34.462381,"lng":134.844361,"zip":"6561521"},{"town":"江井","koaza":"","lat":34.459592,"lng":134.82209,"zip":"6561531"},{"town":"郡家","koaza":"","lat":34.481936,"lng":134.852271,"zip":"6561511"},{"town":"南鵜崎","koaza":"","lat":34.57335,"lng":135.020226,"zip":"6562307"},{"town":"大磯","koaza":"","lat":34.553155,"lng":135.001833,"zip":"6562302"},{"town":"夢舞台","koaza":"","lat":34.565054,"lng":135.013856,"zip":"6562306"},{"town":"下田","koaza":"","lat":34.509856,"lng":134.981559,"zip":"6562333"},{"town":"仮屋","koaza":"","lat":34.514593,"lng":134.985734,"zip":"6562331"},{"town":"小倉","koaza":"","lat":34.548948,"lng":134.937023,"zip":"6561736"},{"town":"谷","koaza":"","lat":34.514507,"lng":134.980572,"zip":"6562332"},{"town":"久留麻","koaza":"","lat":34.524784,"lng":134.982979,"zip":"6562311"},{"town":"河内","koaza":"","lat":34.525107,"lng":134.965383,"zip":"6562323"},{"town":"久野々","koaza":"","lat":34.517353,"lng":134.931469,"zip":"6561735"},{"town":"育波","koaza":"","lat":34.524258,"lng":134.896027,"zip":"6561602"},{"town":"白山","koaza":"","lat":34.537388,"lng":134.975818,"zip":"6562322"},{"town":"浦","koaza":"","lat":34.540918,"lng":134.987099,"zip":"6562305"},{"town":"中持","koaza":"","lat":34.542215,"lng":134.965966,"zip":"6562321"},{"town":"舟木","koaza":"","lat":34.542713,"lng":134.949884,"zip":"6561734"},{"town":"長畠","koaza":"","lat":34.539105,"lng":134.943393,"zip":"6561733"},{"town":"石田","koaza":"","lat":34.536466,"lng":134.932567,"zip":"6561712"},{"town":"浅野神田","koaza":"","lat":34.529455,"lng":134.915954,"zip":"6561742"},{"town":"斗ノ内","koaza":"","lat":34.524118,"lng":134.911984,"zip":"6561743"},{"town":"富島","koaza":"","lat":34.545744,"lng":134.927859,"zip":"6561711"},{"town":"浅野南","koaza":"","lat":34.528466,"lng":134.923225,"zip":"6561741"},{"town":"野島蟇浦","koaza":"","lat":34.558196,"lng":134.950274,"zip":"6561721"},{"town":"野島大川","koaza":"","lat":34.577127,"lng":134.966763,"zip":"6561723"},{"town":"野島轟木","koaza":"","lat":34.568838,"lng":134.958238,"zip":"6561722"},{"town":"中田","koaza":"門田","lat":34.437738,"lng":134.878738,"zip":"6562163"},{"town":"小倉","koaza":"新小倉","lat":34.547091,"lng":134.940327,"zip":"6561736"},{"town":"岩屋","koaza":"大林","lat":34.579289,"lng":135.014267,"zip":"6562401"}]