[{"town":"谷","koaza":"","lat":35.018306,"lng":134.726586,"zip":"6792326"},{"town":"坂戸","koaza":"","lat":34.98286,"lng":134.752225,"zip":"6792324"},{"town":"奥","koaza":"","lat":34.999889,"lng":134.737976,"zip":"6792325"},{"town":"浅野","koaza":"","lat":35.010176,"lng":134.766624,"zip":"6792317"},{"town":"千原","koaza":"","lat":35.001053,"lng":134.762626,"zip":"6792321"},{"town":"小畑","koaza":"","lat":35.022607,"lng":134.788983,"zip":"6792318"},{"town":"上瀬加","koaza":"","lat":34.992884,"lng":134.803368,"zip":"6792303"},{"town":"下牛尾","koaza":"","lat":35.023756,"lng":134.810964,"zip":"6792302"},{"town":"神崎","koaza":"","lat":35.022537,"lng":134.742241,"zip":"6792333"},{"town":"鶴居","koaza":"","lat":35.030742,"lng":134.74584,"zip":"6792334"},{"town":"美佐","koaza":"","lat":35.040272,"lng":134.738951,"zip":"6792335"},{"town":"小谷","koaza":"","lat":34.997192,"lng":134.759218,"zip":"6792322"},{"town":"近平","koaza":"","lat":34.997792,"lng":134.752199,"zip":"6792327"},{"town":"東川辺","koaza":"","lat":34.992726,"lng":134.776388,"zip":"6792316"},{"town":"上田中","koaza":"","lat":34.974363,"lng":134.776024,"zip":"6792311"},{"town":"下瀬加","koaza":"","lat":34.984825,"lng":134.792722,"zip":"6792304"},{"town":"北田中","koaza":"","lat":34.977773,"lng":134.772062,"zip":"6792314"},{"town":"保喜","koaza":"","lat":34.970465,"lng":134.773343,"zip":"6792312"},{"town":"西田中","koaza":"","lat":34.97279,"lng":134.766947,"zip":"6792313"},{"town":"西川辺","koaza":"","lat":34.990267,"lng":134.765647,"zip":"6792315"},{"town":"甘地","koaza":"","lat":34.986648,"lng":134.760897,"zip":"6792323"},{"town":"小室","koaza":"","lat":35.008479,"lng":134.758681,"zip":"6792331"},{"town":"田中","koaza":"","lat":35.01161,"lng":134.753639,"zip":"6792332"},{"town":"屋形","koaza":"","lat":35.026408,"lng":134.767379,"zip":"6792337"},{"town":"澤","koaza":"","lat":35.037322,"lng":134.761202,"zip":"6792300"},{"town":"上牛尾","koaza":"","lat":35.032545,"lng":134.831609,"zip":"6792301"}]