[{"town":"大河","koaza":"","lat":35.089036,"lng":134.742594,"zip":"6793111"},{"town":"鍛治","koaza":"","lat":35.071159,"lng":134.74959,"zip":"6793112"},{"town":"柏尾","koaza":"","lat":35.058993,"lng":134.752798,"zip":"6792424"},{"town":"新野","koaza":"","lat":35.049108,"lng":134.746419,"zip":"6793114"},{"town":"新田","koaza":"","lat":35.175814,"lng":134.883547,"zip":"6792401"},{"town":"作畑","koaza":"","lat":35.164635,"lng":134.861423,"zip":"6792402"},{"town":"大畑","koaza":"","lat":35.130655,"lng":134.857821,"zip":"6792403"},{"town":"根宇野","koaza":"","lat":35.080571,"lng":134.821412,"zip":"6792411"},{"town":"山田","koaza":"","lat":35.076756,"lng":134.799313,"zip":"6792412"},{"town":"吉冨","koaza":"","lat":35.083054,"lng":134.772991,"zip":"6792434"},{"town":"岩屋","koaza":"","lat":35.091954,"lng":134.840138,"zip":"6792405"},{"town":"長谷","koaza":"","lat":35.125142,"lng":134.73088,"zip":"6793103"},{"town":"栗","koaza":"","lat":35.116844,"lng":134.757184,"zip":"6793102"},{"town":"宮野","koaza":"","lat":35.083254,"lng":134.701027,"zip":"6793123"},{"town":"南小田","koaza":"","lat":35.107871,"lng":134.708083,"zip":"6793124"},{"town":"渕","koaza":"","lat":35.136177,"lng":134.7539,"zip":"6793101"},{"town":"川上","koaza":"","lat":35.159948,"lng":134.698002,"zip":"6793104"},{"town":"粟賀町","koaza":"","lat":35.06643,"lng":134.775681,"zip":"6792414"},{"town":"寺野","koaza":"","lat":35.051418,"lng":134.760029,"zip":"6792423"},{"town":"中村","koaza":"","lat":35.067193,"lng":134.792058,"zip":"6792413"},{"town":"東柏尾","koaza":"","lat":35.0666,"lng":134.762099,"zip":"6792425"},{"town":"加納","koaza":"","lat":35.056586,"lng":134.765388,"zip":"6792421"},{"town":"福本","koaza":"","lat":35.051455,"lng":134.788122,"zip":"6792415"},{"town":"貝野","koaza":"","lat":35.042893,"lng":134.765323,"zip":"6792422"},{"town":"野村","koaza":"","lat":35.051035,"lng":134.754811,"zip":"6793113"},{"town":"比延","koaza":"","lat":35.060686,"lng":134.741981,"zip":"6793115"},{"town":"上岩","koaza":"","lat":35.060447,"lng":134.726644,"zip":"6793121"},{"town":"寺前","koaza":"","lat":35.074469,"lng":134.731737,"zip":"6793116"},{"town":"高朝田","koaza":"","lat":35.065573,"lng":134.711429,"zip":"6793122"},{"town":"猪篠","koaza":"","lat":35.127988,"lng":134.800711,"zip":"6792431"},{"town":"大山","koaza":"","lat":35.112022,"lng":134.786552,"zip":"6792432"},{"town":"越知","koaza":"","lat":35.122358,"lng":134.82914,"zip":"6792404"},{"town":"杉","koaza":"","lat":35.101223,"lng":134.770445,"zip":"6792433"},{"town":"上小田","koaza":"","lat":35.118478,"lng":134.676746,"zip":"6793125"}]