[{"town":"八千種","koaza":"","lat":34.929729,"lng":134.781122,"zip":"6792202"},{"town":"山崎","koaza":"","lat":34.969872,"lng":134.75614,"zip":"6792211"},{"town":"南田原","koaza":"","lat":34.945429,"lng":134.760695,"zip":"6792203"},{"town":"高橋","koaza":"","lat":34.940548,"lng":134.738885,"zip":"6792216"},{"town":"西治","koaza":"","lat":34.949414,"lng":134.735817,"zip":"6792215"},{"town":"馬田","koaza":"","lat":34.958812,"lng":134.75573,"zip":"6792213"},{"town":"福田","koaza":"","lat":34.965205,"lng":134.747863,"zip":"6792212"},{"town":"田口","koaza":"","lat":34.999163,"lng":134.718447,"zip":"6792218"},{"town":"大貫","koaza":"","lat":34.9551,"lng":134.790825,"zip":"6792201"},{"town":"西田原","koaza":"","lat":34.957025,"lng":134.764233,"zip":"6792204"},{"town":"福崎新","koaza":"","lat":34.952265,"lng":134.751701,"zip":"6792214"},{"town":"東田原","koaza":"","lat":34.957694,"lng":134.777597,"zip":"6792205"},{"town":"高岡","koaza":"","lat":34.975249,"lng":134.726193,"zip":"6792217"},{"town":"西治","koaza":"東新田","lat":34.944238,"lng":134.745035,"zip":"6792215"},{"town":"南田原","koaza":"東田","lat":34.943048,"lng":134.759857,"zip":"6792203"},{"town":"東田原","koaza":"垣内田","lat":34.952827,"lng":134.774046,"zip":"6792205"}]