[{"town":"鍛冶屋町一丁目","koaza":"","lat":34.669815,"lng":135.176854,"zip":"6520832"},{"town":"本町一丁目","koaza":"","lat":34.669995,"lng":135.174627,"zip":"6520834"},{"town":"西柳原町","koaza":"","lat":34.669608,"lng":135.168687,"zip":"6520806"},{"town":"門口町","koaza":"","lat":34.670512,"lng":135.170186,"zip":"6520814"},{"town":"鍛冶屋町二丁目","koaza":"","lat":34.669866,"lng":135.17557,"zip":"6520832"},{"town":"本町二丁目","koaza":"","lat":34.669835,"lng":135.17377,"zip":"6520834"},{"town":"西仲町","koaza":"","lat":34.669762,"lng":135.172896,"zip":"6520835"},{"town":"西宮内町","koaza":"","lat":34.669705,"lng":135.1717,"zip":"6520891"},{"town":"大開通九丁目","koaza":"","lat":34.669467,"lng":135.160425,"zip":"6520803"},{"town":"水木通十丁目","koaza":"","lat":34.669724,"lng":135.15853,"zip":"6520802"},{"town":"塚本通六丁目","koaza":"","lat":34.670035,"lng":135.163749,"zip":"6520804"},{"town":"羽坂通三丁目","koaza":"","lat":34.670066,"lng":135.166036,"zip":"6520805"},{"town":"三川口町三丁目","koaza":"","lat":34.670969,"lng":135.16841,"zip":"6520815"},{"town":"羽坂通四丁目","koaza":"","lat":34.669355,"lng":135.164973,"zip":"6520805"},{"town":"塚本通七丁目","koaza":"","lat":34.669449,"lng":135.162545,"zip":"6520804"},{"town":"大開通八丁目","koaza":"","lat":34.670188,"lng":135.16153,"zip":"6520803"},{"town":"水木通九丁目","koaza":"","lat":34.670477,"lng":135.159726,"zip":"6520802"},{"town":"出在家町一丁目","koaza":"","lat":34.663402,"lng":135.17656,"zip":"6520846"},{"town":"今出在家町一丁目","koaza":"","lat":34.661578,"lng":135.177245,"zip":"6520853"},{"town":"島上町二丁目","koaza":"","lat":34.668794,"lng":135.175441,"zip":"6520833"},{"town":"島上町一丁目","koaza":"","lat":34.668841,"lng":135.176849,"zip":"6520833"},{"town":"神明町","koaza":"","lat":34.66795,"lng":135.172359,"zip":"6520836"},{"town":"北逆瀬川町","koaza":"","lat":34.668218,"lng":135.171275,"zip":"6520837"},{"town":"南仲町","koaza":"","lat":34.667723,"lng":135.173229,"zip":"6520841"},{"town":"船大工町","koaza":"","lat":34.667554,"lng":135.175282,"zip":"6520843"},{"town":"磯之町","koaza":"","lat":34.667565,"lng":135.174137,"zip":"6520842"},{"town":"南逆瀬川町","koaza":"","lat":34.666753,"lng":135.170923,"zip":"6520893"},{"town":"小河通一丁目","koaza":"","lat":34.665726,"lng":135.17078,"zip":"6520895"},{"town":"築地町","koaza":"","lat":34.664895,"lng":135.182146,"zip":"6520845"},{"town":"中之島一丁目","koaza":"","lat":34.666106,"lng":135.176974,"zip":"6520844"},{"town":"中之島二丁目","koaza":"","lat":34.665313,"lng":135.174149,"zip":"6520844"},{"town":"切戸町","koaza":"","lat":34.665356,"lng":135.171933,"zip":"6520847"},{"town":"今出在家町四丁目","koaza":"","lat":34.661898,"lng":135.171925,"zip":"6520853"},{"town":"出在家町二丁目","koaza":"","lat":34.662989,"lng":135.17409,"zip":"6520846"},{"town":"御崎本町一丁目","koaza":"","lat":34.66164,"lng":135.170327,"zip":"6520852"},{"town":"今出在家町二丁目","koaza":"","lat":34.661286,"lng":135.175943,"zip":"6520853"},{"town":"今出在家町三丁目","koaza":"","lat":34.66149,"lng":135.173995,"zip":"6520853"},{"town":"芦原通一丁目","koaza":"","lat":34.662607,"lng":135.169396,"zip":"6520882"},{"town":"松原通三丁目","koaza":"","lat":34.663999,"lng":135.166894,"zip":"6520881"},{"town":"松原通二丁目","koaza":"","lat":34.66392,"lng":135.168068,"zip":"6520881"},{"town":"小河通二丁目","koaza":"","lat":34.665718,"lng":135.169394,"zip":"6520895"},{"town":"御所通一丁目","koaza":"","lat":34.660873,"lng":135.164633,"zip":"6520885"},{"town":"御崎本町四丁目","koaza":"","lat":34.660615,"lng":135.168835,"zip":"6520852"},{"town":"塚本通八丁目","koaza":"","lat":34.668979,"lng":135.161525,"zip":"6520804"},{"town":"東柳原町","koaza":"","lat":34.668408,"lng":135.169666,"zip":"6520892"},{"town":"駅前通一丁目","koaza":"","lat":34.668305,"lng":135.163598,"zip":"6520898"},{"town":"駅前通二丁目","koaza":"","lat":34.667435,"lng":135.162012,"zip":"6520898"},{"town":"駅前通三丁目","koaza":"","lat":34.668165,"lng":135.161079,"zip":"6520898"},{"town":"入江通一丁目","koaza":"","lat":34.666841,"lng":135.169591,"zip":"6520894"},{"town":"浜崎通","koaza":"","lat":34.668079,"lng":135.167284,"zip":"6520807"},{"town":"小河通五丁目","koaza":"","lat":34.666199,"lng":135.166005,"zip":"6520895"},{"town":"入江通三丁目","koaza":"","lat":34.666952,"lng":135.167127,"zip":"6520894"},{"town":"入江通二丁目","koaza":"","lat":34.666893,"lng":135.16832,"zip":"6520894"},{"town":"小河通三丁目","koaza":"","lat":34.66573,"lng":135.168259,"zip":"6520895"},{"town":"駅南通一丁目","koaza":"","lat":34.666587,"lng":135.164867,"zip":"6520897"},{"town":"小河通四丁目","koaza":"","lat":34.666001,"lng":135.167127,"zip":"6520895"},{"town":"須佐野通一丁目","koaza":"","lat":34.665119,"lng":135.170027,"zip":"6520896"},{"town":"駅南通二丁目","koaza":"","lat":34.665708,"lng":135.163733,"zip":"6520897"},{"town":"須佐野通四丁目","koaza":"","lat":34.66525,"lng":135.165363,"zip":"6520896"},{"town":"須佐野通二丁目","koaza":"","lat":34.664916,"lng":135.168089,"zip":"6520896"},{"town":"須佐野通三丁目","koaza":"","lat":34.665105,"lng":135.166933,"zip":"6520896"},{"town":"松原通四丁目","koaza":"","lat":34.664416,"lng":135.165191,"zip":"6520881"},{"town":"松原通五丁目","koaza":"","lat":34.664282,"lng":135.16331,"zip":"6520881"},{"town":"松原通一丁目","koaza":"","lat":34.664168,"lng":135.169877,"zip":"6520881"},{"town":"駅南通三丁目","koaza":"","lat":34.664451,"lng":135.16194,"zip":"6520897"},{"town":"芦原通五丁目","koaza":"","lat":34.663101,"lng":135.1643,"zip":"6520882"},{"town":"芦原通六丁目","koaza":"","lat":34.663107,"lng":135.162204,"zip":"6520882"},{"town":"芦原通四丁目","koaza":"","lat":34.662982,"lng":135.165596,"zip":"6520882"},{"town":"芦原通三丁目","koaza":"","lat":34.662899,"lng":135.166758,"zip":"6520882"},{"town":"明和通二丁目","koaza":"","lat":34.661525,"lng":135.165919,"zip":"6520883"},{"town":"芦原通二丁目","koaza":"","lat":34.662821,"lng":135.167879,"zip":"6520882"},{"town":"明和通一丁目","koaza":"","lat":34.661278,"lng":135.167755,"zip":"6520883"},{"town":"明和通三丁目","koaza":"","lat":34.66195,"lng":135.163996,"zip":"6520883"},{"town":"御所通二丁目","koaza":"","lat":34.661694,"lng":135.161549,"zip":"6520885"},{"town":"大開通十丁目","koaza":"","lat":34.668714,"lng":135.159598,"zip":"6520803"},{"town":"駅前通五丁目","koaza":"","lat":34.667711,"lng":135.158318,"zip":"6520898"},{"town":"駅前通四丁目","koaza":"","lat":34.666813,"lng":135.159778,"zip":"6520898"},{"town":"駅南通五丁目","koaza":"","lat":34.666522,"lng":135.162642,"zip":"6520897"},{"town":"駅南通四丁目","koaza":"","lat":34.663337,"lng":135.16046,"zip":"6520897"},{"town":"小松通四丁目","koaza":"","lat":34.655194,"lng":135.173199,"zip":"6520865"},{"town":"笠松通六丁目","koaza":"","lat":34.656237,"lng":135.17384,"zip":"6520864"},{"town":"和田宮通四丁目","koaza":"","lat":34.656992,"lng":135.17447,"zip":"6520863"},{"town":"笠松通五丁目","koaza":"","lat":34.657367,"lng":135.173256,"zip":"6520864"},{"town":"三石通二丁目","koaza":"","lat":34.658868,"lng":135.176381,"zip":"6520861"},{"town":"三石通一丁目","koaza":"","lat":34.659775,"lng":135.175913,"zip":"6520861"},{"town":"和田崎町二丁目","koaza":"","lat":34.659791,"lng":135.177171,"zip":"6520854"},{"town":"和田崎町三丁目","koaza":"","lat":34.659464,"lng":135.176768,"zip":"6520854"},{"town":"和田宮通二丁目","koaza":"","lat":34.659689,"lng":135.173231,"zip":"6520863"},{"town":"御崎本町三丁目","koaza":"","lat":34.659462,"lng":135.170184,"zip":"6520852"},{"town":"上庄通一丁目","koaza":"","lat":34.65928,"lng":135.175163,"zip":"6520862"},{"town":"御崎本町二丁目","koaza":"","lat":34.659506,"lng":135.171585,"zip":"6520852"},{"town":"上庄通二丁目","koaza":"","lat":34.657806,"lng":135.17544,"zip":"6520862"},{"town":"小松通二丁目","koaza":"","lat":34.657381,"lng":135.17236,"zip":"6520865"},{"town":"浜山通一丁目","koaza":"","lat":34.658194,"lng":135.171476,"zip":"6520871"},{"town":"三石通三丁目","koaza":"","lat":34.65814,"lng":135.176922,"zip":"6520861"},{"town":"上庄通三丁目","koaza":"","lat":34.657374,"lng":135.1761,"zip":"6520862"},{"town":"和田宮通三丁目","koaza":"","lat":34.657736,"lng":135.174078,"zip":"6520863"},{"town":"小松通三丁目","koaza":"","lat":34.656069,"lng":135.172885,"zip":"6520865"},{"town":"浜山通二丁目","koaza":"","lat":34.656899,"lng":135.171794,"zip":"6520871"},{"town":"浜山通三丁目","koaza":"","lat":34.65577,"lng":135.172261,"zip":"6520871"},{"town":"和田宮通五丁目","koaza":"","lat":34.656093,"lng":135.175029,"zip":"6520863"},{"town":"笠松通七丁目","koaza":"","lat":34.655525,"lng":135.174106,"zip":"6520864"},{"town":"浜山通四丁目","koaza":"","lat":34.654991,"lng":135.17247,"zip":"6520871"},{"town":"和田宮通六丁目","koaza":"","lat":34.654922,"lng":135.175542,"zip":"6520863"},{"town":"笠松通八丁目","koaza":"","lat":34.654595,"lng":135.174514,"zip":"6520864"},{"town":"小松通五丁目","koaza":"","lat":34.654305,"lng":135.173558,"zip":"6520865"},{"town":"和田宮通七丁目","koaza":"","lat":34.65386,"lng":135.175905,"zip":"6520863"},{"town":"浜山通五丁目","koaza":"","lat":34.65399,"lng":135.172587,"zip":"6520871"},{"town":"笠松通九丁目","koaza":"","lat":34.653711,"lng":135.174902,"zip":"6520864"},{"town":"小松通六丁目","koaza":"","lat":34.653221,"lng":135.174002,"zip":"6520865"},{"town":"笠松通十丁目","koaza":"","lat":34.65294,"lng":135.175255,"zip":"6520864"},{"town":"和田宮通八丁目","koaza":"","lat":34.653078,"lng":135.176364,"zip":"6520863"},{"town":"浜山通六丁目","koaza":"","lat":34.652999,"lng":135.172901,"zip":"6520871"},{"town":"遠矢町二丁目","koaza":"","lat":34.652084,"lng":135.174882,"zip":"6520000"},{"town":"和田崎町一丁目","koaza":"","lat":34.654883,"lng":135.180423,"zip":"6520854"},{"town":"遠矢町一丁目","koaza":"","lat":34.652053,"lng":135.177286,"zip":"6520000"},{"town":"材木町","koaza":"","lat":34.658611,"lng":135.166602,"zip":"6520851"},{"town":"御崎町一丁目","koaza":"","lat":34.657302,"lng":135.169394,"zip":"6520855"},{"town":"吉田町一丁目","koaza":"","lat":34.653383,"lng":135.170654,"zip":"6520872"},{"town":"浜中町一丁目","koaza":"","lat":34.656272,"lng":135.164699,"zip":"6520875"},{"town":"和田山通一丁目","koaza":"","lat":34.658759,"lng":135.164348,"zip":"6520884"},{"town":"金平町一丁目","koaza":"","lat":34.654079,"lng":135.165562,"zip":"6520873"},{"town":"御崎町二丁目","koaza":"","lat":34.656313,"lng":135.166809,"zip":"6520855"},{"town":"金平町二丁目","koaza":"","lat":34.653875,"lng":135.163514,"zip":"6520873"},{"town":"遠矢浜町","koaza":"","lat":34.650099,"lng":135.170288,"zip":"6520866"},{"town":"和田山通二丁目","koaza":"","lat":34.657543,"lng":135.161403,"zip":"6520884"},{"town":"浜中町二丁目","koaza":"","lat":34.655533,"lng":135.162475,"zip":"6520875"},{"town":"高松町","koaza":"","lat":34.652566,"lng":135.161132,"zip":"6520874"},{"town":"楠谷町","koaza":"","lat":34.692692,"lng":135.174118,"zip":"6520004"},{"town":"梅元町","koaza":"","lat":34.693078,"lng":135.171806,"zip":"6520003"},{"town":"山王町一丁目","koaza":"","lat":34.692141,"lng":135.163776,"zip":"6520011"},{"town":"五宮町","koaza":"","lat":34.692412,"lng":135.169578,"zip":"6520007"},{"town":"平野町","koaza":"","lat":34.703469,"lng":135.165435,"zip":"6520002"},{"town":"千鳥町一丁目","koaza":"","lat":34.692413,"lng":135.16177,"zip":"6520022"},{"town":"天王町三丁目","koaza":"","lat":34.694437,"lng":135.157553,"zip":"6520021"},{"town":"天王町四丁目","koaza":"","lat":34.694905,"lng":135.160076,"zip":"6520021"},{"town":"天王町一丁目","koaza":"","lat":34.694521,"lng":135.161537,"zip":"6520021"},{"town":"天王町二丁目","koaza":"","lat":34.692725,"lng":135.159711,"zip":"6520021"},{"town":"西上橘通一丁目","koaza":"","lat":34.681287,"lng":135.171389,"zip":"6520033"},{"town":"馬場町","koaza":"","lat":34.687774,"lng":135.171148,"zip":"6520016"},{"town":"矢部町","koaza":"","lat":34.690565,"lng":135.172867,"zip":"6520005"},{"town":"神田町","koaza":"","lat":34.689944,"lng":135.170677,"zip":"6520006"},{"town":"上祇園町","koaza":"","lat":34.691921,"lng":135.167698,"zip":"6520008"},{"town":"山王町二丁目","koaza":"","lat":34.691663,"lng":135.162773,"zip":"6520011"},{"town":"荒田町二丁目","koaza":"","lat":34.682321,"lng":135.167208,"zip":"6520032"},{"town":"熊野町一丁目","koaza":"","lat":34.687137,"lng":135.160241,"zip":"6520064"},{"town":"大同町三丁目","koaza":"","lat":34.687778,"lng":135.161916,"zip":"6520062"},{"town":"千鳥町二丁目","koaza":"","lat":34.691343,"lng":135.161361,"zip":"6520022"},{"town":"荒田町三丁目","koaza":"","lat":34.6854,"lng":135.167557,"zip":"6520032"},{"town":"東山町二丁目","koaza":"","lat":34.682137,"lng":135.16356,"zip":"6520042"},{"town":"荒田町四丁目","koaza":"","lat":34.683292,"lng":135.165878,"zip":"6520032"},{"town":"菊水町一丁目","koaza":"","lat":34.686432,"lng":135.164207,"zip":"6520058"},{"town":"湊川町一丁目","koaza":"","lat":34.685099,"lng":135.163995,"zip":"6520041"},{"town":"東山町一丁目","koaza":"","lat":34.683306,"lng":135.164262,"zip":"6520042"},{"town":"菊水町二丁目","koaza":"","lat":34.686398,"lng":135.163452,"zip":"6520058"},{"town":"湊川町二丁目","koaza":"","lat":34.684641,"lng":135.163062,"zip":"6520041"},{"town":"菊水町三丁目","koaza":"","lat":34.686368,"lng":135.162391,"zip":"6520058"},{"town":"湊川町三丁目","koaza":"","lat":34.684364,"lng":135.162146,"zip":"6520041"},{"town":"大同町四丁目","koaza":"","lat":34.687598,"lng":135.161174,"zip":"6520062"},{"town":"菊水町四丁目","koaza":"","lat":34.686299,"lng":135.161337,"zip":"6520058"},{"town":"湊川町四丁目","koaza":"","lat":34.683977,"lng":135.161387,"zip":"6520041"},{"town":"大同町五丁目","koaza":"","lat":34.687409,"lng":135.160549,"zip":"6520062"},{"town":"石井町四丁目","koaza":"","lat":34.688377,"lng":135.1608,"zip":"6520061"},{"town":"菊水町五丁目","koaza":"","lat":34.685453,"lng":135.160786,"zip":"6520058"},{"town":"湊川町六丁目","koaza":"","lat":34.683204,"lng":135.159991,"zip":"6520041"},{"town":"下祇園町","koaza":"","lat":34.688575,"lng":135.169232,"zip":"6520015"},{"town":"下三条町","koaza":"","lat":34.688838,"lng":135.166976,"zip":"6520014"},{"town":"上三条町","koaza":"","lat":34.691529,"lng":135.166555,"zip":"6520013"},{"town":"雪御所町","koaza":"","lat":34.688321,"lng":135.16509,"zip":"6520031"},{"town":"大同町一丁目","koaza":"","lat":34.688074,"lng":135.163942,"zip":"6520062"},{"town":"湊山町","koaza":"","lat":34.691257,"lng":135.164658,"zip":"6520012"},{"town":"大同町二丁目","koaza":"","lat":34.688079,"lng":135.163039,"zip":"6520062"},{"town":"石井町一丁目","koaza":"","lat":34.689208,"lng":135.163596,"zip":"6520061"},{"town":"石井町五丁目","koaza":"","lat":34.690114,"lng":135.163316,"zip":"6520061"},{"town":"都由乃町一丁目","koaza":"","lat":34.690897,"lng":135.162425,"zip":"6520023"},{"town":"石井町三丁目","koaza":"","lat":34.688795,"lng":135.161723,"zip":"6520061"},{"town":"石井町二丁目","koaza":"","lat":34.68906,"lng":135.16275,"zip":"6520061"},{"town":"石井町六丁目","koaza":"","lat":34.689883,"lng":135.162442,"zip":"6520061"},{"town":"石井町七丁目","koaza":"","lat":34.689417,"lng":135.161538,"zip":"6520061"},{"town":"都由乃町二丁目","koaza":"","lat":34.690288,"lng":135.16143,"zip":"6520023"},{"town":"千鳥町三丁目","koaza":"","lat":34.691206,"lng":135.160174,"zip":"6520022"},{"town":"都由乃町三丁目","koaza":"","lat":34.689551,"lng":135.160728,"zip":"6520023"},{"town":"夢野町一丁目","koaza":"","lat":34.686384,"lng":135.1604,"zip":"6520063"},{"town":"湊川町五丁目","koaza":"","lat":34.683667,"lng":135.160815,"zip":"6520041"},{"town":"東山町四丁目","koaza":"","lat":34.682147,"lng":135.161882,"zip":"6520042"},{"town":"菊水町六丁目","koaza":"","lat":34.684778,"lng":135.159509,"zip":"6520058"},{"town":"熊野町二丁目","koaza":"","lat":34.686788,"lng":135.159219,"zip":"6520064"},{"town":"夢野町二丁目","koaza":"","lat":34.685588,"lng":135.159374,"zip":"6520063"},{"town":"熊野町三丁目","koaza":"","lat":34.685781,"lng":135.157581,"zip":"6520064"},{"town":"湊川町七丁目","koaza":"","lat":34.682698,"lng":135.159298,"zip":"6520041"},{"town":"菊水町七丁目","koaza":"","lat":34.684161,"lng":135.158675,"zip":"6520058"},{"town":"湊川町八丁目","koaza":"","lat":34.682259,"lng":135.158469,"zip":"6520041"},{"town":"菊水町八丁目","koaza":"","lat":34.683607,"lng":135.157754,"zip":"6520058"},{"town":"菊水町九丁目","koaza":"","lat":34.6823,"lng":135.155774,"zip":"6520058"},{"town":"夢野町三丁目","koaza":"","lat":34.684572,"lng":135.157623,"zip":"6520063"},{"town":"湊川町九丁目","koaza":"","lat":34.681698,"lng":135.157417,"zip":"6520041"},{"town":"夢野町四丁目","koaza":"","lat":34.683989,"lng":135.156481,"zip":"6520063"},{"town":"氷室町二丁目","koaza":"","lat":34.687166,"lng":135.157376,"zip":"6520054"},{"town":"熊野町四丁目","koaza":"","lat":34.685509,"lng":135.156133,"zip":"6520064"},{"town":"石井町八丁目","koaza":"","lat":34.688555,"lng":135.160072,"zip":"6520061"},{"town":"千鳥町四丁目","koaza":"","lat":34.689747,"lng":135.159484,"zip":"6520022"},{"town":"氷室町一丁目","koaza":"","lat":34.688288,"lng":135.158795,"zip":"6520054"},{"town":"北山町","koaza":"","lat":34.688583,"lng":135.156878,"zip":"6520053"},{"town":"烏原町","koaza":"","lat":34.696874,"lng":135.151644,"zip":"6520001"},{"town":"里山町","koaza":"","lat":34.693254,"lng":135.140933,"zip":"6520051"},{"town":"鵯越町","koaza":"","lat":34.682236,"lng":135.154014,"zip":"6520057"},{"town":"熊野町五丁目","koaza":"","lat":34.68472,"lng":135.154548,"zip":"6520064"},{"town":"清水町","koaza":"","lat":34.686526,"lng":135.154054,"zip":"6520065"},{"town":"小山町","koaza":"","lat":34.684701,"lng":135.152698,"zip":"6520055"},{"town":"滝山町","koaza":"","lat":34.684315,"lng":135.15141,"zip":"6520056"},{"town":"鵯越筋","koaza":"","lat":34.688387,"lng":135.149113,"zip":"6520052"},{"town":"西出町一丁目","koaza":"","lat":34.671788,"lng":135.178955,"zip":"6520822"},{"town":"七宮町一丁目","koaza":"","lat":34.671231,"lng":135.177319,"zip":"6520831"},{"town":"西多聞通一丁目","koaza":"","lat":34.679174,"lng":135.17365,"zip":"6520035"},{"town":"西橘通一丁目","koaza":"","lat":34.680329,"lng":135.17234,"zip":"6520034"},{"town":"西上橘通二丁目","koaza":"","lat":34.680688,"lng":135.170409,"zip":"6520033"},{"town":"西橘通二丁目","koaza":"","lat":34.679741,"lng":135.171351,"zip":"6520034"},{"town":"新開地二丁目","koaza":"","lat":34.677612,"lng":135.170099,"zip":"6520811"},{"town":"西多聞通二丁目","koaza":"","lat":34.678856,"lng":135.172253,"zip":"6520035"},{"town":"湊町四丁目","koaza":"","lat":34.675731,"lng":135.170663,"zip":"6520812"},{"town":"東出町一丁目","koaza":"","lat":34.671848,"lng":135.182269,"zip":"6520823"},{"town":"東出町二丁目","koaza":"","lat":34.672372,"lng":135.181076,"zip":"6520823"},{"town":"東出町三丁目","koaza":"","lat":34.672735,"lng":135.179921,"zip":"6520823"},{"town":"佐比江町","koaza":"","lat":34.673442,"lng":135.175974,"zip":"6520821"},{"town":"永沢町三丁目","koaza":"","lat":34.673623,"lng":135.171158,"zip":"6520816"},{"town":"永沢町二丁目","koaza":"","lat":34.673379,"lng":135.172634,"zip":"6520816"},{"town":"西出町","koaza":"","lat":34.673285,"lng":135.176913,"zip":"6520822"},{"town":"兵庫町一丁目","koaza":"","lat":34.672553,"lng":135.174255,"zip":"6520813"},{"town":"兵庫町二丁目","koaza":"","lat":34.671693,"lng":135.172883,"zip":"6520813"},{"town":"七宮町二丁目","koaza":"","lat":34.671349,"lng":135.175825,"zip":"6520831"},{"town":"三川口町一丁目","koaza":"","lat":34.671192,"lng":135.171633,"zip":"6520815"},{"town":"西出町二丁目","koaza":"","lat":34.674092,"lng":135.178153,"zip":"6520822"},{"town":"新開地六丁目","koaza":"","lat":34.67598,"lng":135.175057,"zip":"6520811"},{"town":"湊町一丁目","koaza":"","lat":34.674404,"lng":135.17467,"zip":"6520812"},{"town":"湊町二丁目","koaza":"","lat":34.674907,"lng":135.17316,"zip":"6520812"},{"town":"新開地五丁目","koaza":"","lat":34.676613,"lng":135.174298,"zip":"6520811"},{"town":"新開地四丁目","koaza":"","lat":34.677107,"lng":135.173171,"zip":"6520811"},{"town":"湊町三丁目","koaza":"","lat":34.675526,"lng":135.172012,"zip":"6520812"},{"town":"新開地三丁目","koaza":"","lat":34.677436,"lng":135.172008,"zip":"6520811"},{"town":"松本通五丁目","koaza":"","lat":34.676932,"lng":135.160853,"zip":"6520045"},{"town":"上沢通五丁目","koaza":"","lat":34.676012,"lng":135.161437,"zip":"6520046"},{"town":"上沢通八丁目","koaza":"","lat":34.673707,"lng":135.157935,"zip":"6520046"},{"town":"松本通八丁目","koaza":"","lat":34.674409,"lng":135.156952,"zip":"6520045"},{"town":"中道通八丁目","koaza":"","lat":34.672004,"lng":135.160018,"zip":"6520801"},{"town":"上沢通四丁目","koaza":"","lat":34.676743,"lng":135.162508,"zip":"6520046"},{"town":"下沢通六丁目","koaza":"","lat":34.674336,"lng":135.161288,"zip":"6520047"},{"town":"塚本通一丁目","koaza":"","lat":34.673897,"lng":135.168808,"zip":"6520804"},{"town":"水木通八丁目","koaza":"","lat":34.671214,"lng":135.160801,"zip":"6520802"},{"town":"水木通二丁目","koaza":"","lat":34.675571,"lng":135.167336,"zip":"6520802"},{"town":"中道通二丁目","koaza":"","lat":34.676373,"lng":135.166537,"zip":"6520801"},{"town":"大開通一丁目","koaza":"","lat":34.675733,"lng":135.169348,"zip":"6520803"},{"town":"福原町","koaza":"","lat":34.679283,"lng":135.169753,"zip":"6520036"},{"town":"下沢通四丁目","koaza":"","lat":34.6758,"lng":135.163451,"zip":"6520047"},{"town":"中道通五丁目","koaza":"","lat":34.674335,"lng":135.163493,"zip":"6520801"},{"town":"下沢通五丁目","koaza":"","lat":34.674966,"lng":135.162457,"zip":"6520047"},{"town":"水木通三丁目","koaza":"","lat":34.674653,"lng":135.166164,"zip":"6520802"},{"town":"中道通四丁目","koaza":"","lat":34.674906,"lng":135.164342,"zip":"6520801"},{"town":"大開通三丁目","koaza":"","lat":34.67407,"lng":135.167275,"zip":"6520803"},{"town":"水木通四丁目","koaza":"","lat":34.674115,"lng":135.165249,"zip":"6520802"},{"town":"永沢町四丁目","koaza":"","lat":34.674041,"lng":135.169922,"zip":"6520816"},{"town":"大開通五丁目","koaza":"","lat":34.672826,"lng":135.16535,"zip":"6520803"},{"town":"下沢通七丁目","koaza":"","lat":34.673627,"lng":135.160211,"zip":"6520047"},{"town":"大開通四丁目","koaza":"","lat":34.67352,"lng":135.166379,"zip":"6520803"},{"town":"中道通六丁目","koaza":"","lat":34.673625,"lng":135.16244,"zip":"6520801"},{"town":"水木通五丁目","koaza":"","lat":34.673395,"lng":135.164035,"zip":"6520802"},{"town":"塚本通二丁目","koaza":"","lat":34.673065,"lng":135.168149,"zip":"6520804"},{"town":"三川口町二丁目","koaza":"","lat":34.672392,"lng":135.169836,"zip":"6520815"},{"town":"中道通七丁目","koaza":"","lat":34.67272,"lng":135.16109,"zip":"6520801"},{"town":"水木通六丁目","koaza":"","lat":34.672655,"lng":135.162952,"zip":"6520802"},{"town":"塚本通三丁目","koaza":"","lat":34.672493,"lng":135.167388,"zip":"6520804"},{"town":"塚本通四丁目","koaza":"","lat":34.671797,"lng":135.166357,"zip":"6520804"},{"town":"羽坂通一丁目","koaza":"","lat":34.671822,"lng":135.167862,"zip":"6520805"},{"town":"水木通七丁目","koaza":"","lat":34.671933,"lng":135.161873,"zip":"6520802"},{"town":"大開通六丁目","koaza":"","lat":34.67196,"lng":135.164037,"zip":"6520803"},{"town":"大開通七丁目","koaza":"","lat":34.67104,"lng":135.16276,"zip":"6520803"},{"town":"羽坂通二丁目","koaza":"","lat":34.670695,"lng":135.167244,"zip":"6520805"},{"town":"塚本通五丁目","koaza":"","lat":34.670909,"lng":135.165032,"zip":"6520804"},{"town":"松本通七丁目","koaza":"","lat":34.675326,"lng":135.158719,"zip":"6520045"},{"town":"上沢通七丁目","koaza":"","lat":34.674565,"lng":135.159268,"zip":"6520046"},{"town":"下沢通八丁目","koaza":"","lat":34.672851,"lng":135.158897,"zip":"6520047"},{"town":"中道通九丁目","koaza":"","lat":34.671277,"lng":135.158766,"zip":"6520801"},{"town":"大開通二丁目","koaza":"","lat":34.674818,"lng":135.168364,"zip":"6520803"},{"town":"水木通一丁目","koaza":"","lat":34.676467,"lng":135.168911,"zip":"6520802"},{"town":"新開地一丁目","koaza":"","lat":34.678547,"lng":135.168193,"zip":"6520811"},{"town":"荒田町一丁目","koaza":"","lat":34.680953,"lng":135.168136,"zip":"6520032"},{"town":"中道通一丁目","koaza":"","lat":34.677212,"lng":135.167795,"zip":"6520801"},{"town":"下沢通一丁目","koaza":"","lat":34.677991,"lng":135.1667,"zip":"6520047"},{"town":"下沢通二丁目","koaza":"","lat":34.677413,"lng":135.165595,"zip":"6520047"},{"town":"上沢通一丁目","koaza":"","lat":34.678869,"lng":135.165652,"zip":"6520046"},{"town":"中道通三丁目","koaza":"","lat":34.675649,"lng":135.165454,"zip":"6520801"},{"town":"下沢通三丁目","koaza":"","lat":34.676594,"lng":135.164511,"zip":"6520047"},{"town":"上沢通二丁目","koaza":"","lat":34.678128,"lng":135.164576,"zip":"6520046"},{"town":"松本通一丁目","koaza":"","lat":34.679836,"lng":135.164709,"zip":"6520045"},{"town":"松本通二丁目","koaza":"","lat":34.679011,"lng":135.163749,"zip":"6520045"},{"town":"上沢通三丁目","koaza":"","lat":34.677478,"lng":135.163594,"zip":"6520046"},{"town":"松本通三丁目","koaza":"","lat":34.678338,"lng":135.162741,"zip":"6520045"},{"town":"東山町三丁目","koaza":"","lat":34.680763,"lng":135.162785,"zip":"6520042"},{"town":"大井通一丁目","koaza":"","lat":34.679547,"lng":135.163007,"zip":"6520044"},{"town":"会下山町一丁目","koaza":"","lat":34.679905,"lng":135.160308,"zip":"6520043"},{"town":"大井通二丁目","koaza":"","lat":34.67895,"lng":135.16201,"zip":"6520044"},{"town":"大井通三丁目","koaza":"","lat":34.678126,"lng":135.1612,"zip":"6520044"},{"town":"松本通四丁目","koaza":"","lat":34.677611,"lng":135.161656,"zip":"6520045"},{"town":"上沢通六丁目","koaza":"","lat":34.675279,"lng":135.160358,"zip":"6520046"},{"town":"松本通六丁目","koaza":"","lat":34.676095,"lng":135.159729,"zip":"6520045"},{"town":"会下山町二丁目","koaza":"","lat":34.678678,"lng":135.159545,"zip":"6520043"},{"town":"会下山町三丁目","koaza":"","lat":34.676681,"lng":135.157819,"zip":"6520043"},{"town":"湊川町十丁目","koaza":"","lat":34.679104,"lng":135.155618,"zip":"6520041"},{"town":"菊水町十丁目","koaza":"","lat":34.681245,"lng":135.152759,"zip":"6520058"},{"town":"吉田町三丁目","koaza":"","lat":34.652908,"lng":135.164953,"zip":"6520872"},{"town":"吉田町二丁目","koaza":"","lat":34.653326,"lng":135.167987,"zip":"6520872"}]