[{"town":"六甲山町","koaza":"","lat":34.753965,"lng":135.22812,"zip":"6570101"},{"town":"灘浜東町","koaza":"","lat":34.703775,"lng":135.245121,"zip":"6570863"},{"town":"高羽","koaza":"","lat":34.735569,"lng":135.243533,"zip":"6570001"},{"town":"弓木町一丁目","koaza":"","lat":34.719323,"lng":135.247039,"zip":"6570026"},{"town":"大和町一丁目","koaza":"","lat":34.71808,"lng":135.247606,"zip":"6570031"},{"town":"中郷町二丁目","koaza":"","lat":34.716674,"lng":135.246832,"zip":"6570032"},{"town":"徳井町二丁目","koaza":"","lat":34.715538,"lng":135.247393,"zip":"6570033"},{"town":"高徳町一丁目","koaza":"","lat":34.720326,"lng":135.245776,"zip":"6570025"},{"town":"中郷町一丁目","koaza":"","lat":34.717143,"lng":135.247965,"zip":"6570032"},{"town":"記田町二丁目","koaza":"","lat":34.714262,"lng":135.247839,"zip":"6570034"},{"town":"記田町三丁目","koaza":"","lat":34.713869,"lng":135.246782,"zip":"6570034"},{"town":"徳井町一丁目","koaza":"","lat":34.716008,"lng":135.248661,"zip":"6570033"},{"town":"記田町一丁目","koaza":"","lat":34.714642,"lng":135.248935,"zip":"6570034"},{"town":"摩耶埠頭","koaza":"","lat":34.69586,"lng":135.227183,"zip":"6570854"},{"town":"鶴甲五丁目","koaza":"","lat":34.737448,"lng":135.235904,"zip":"6570011"},{"town":"鶴甲四丁目","koaza":"","lat":34.735476,"lng":135.236447,"zip":"6570011"},{"town":"水車新田","koaza":"","lat":34.736252,"lng":135.231685,"zip":"6570018"},{"town":"大月台","koaza":"","lat":34.735506,"lng":135.229462,"zip":"6570017"},{"town":"土山町","koaza":"","lat":34.728272,"lng":135.242122,"zip":"6570022"},{"town":"桜ケ丘町","koaza":"","lat":34.728118,"lng":135.2409,"zip":"6570021"},{"town":"赤松町二丁目","koaza":"","lat":34.723756,"lng":135.234842,"zip":"6570061"},{"town":"赤松町一丁目","koaza":"","lat":34.723666,"lng":135.235957,"zip":"6570061"},{"town":"赤松町三丁目","koaza":"","lat":34.7232,"lng":135.232281,"zip":"6570061"},{"town":"高羽町一丁目","koaza":"","lat":34.723046,"lng":135.243171,"zip":"6570023"},{"town":"高羽町二丁目","koaza":"","lat":34.723168,"lng":135.241324,"zip":"6570023"},{"town":"寺口町","koaza":"","lat":34.724293,"lng":135.23848,"zip":"6570062"},{"town":"曾和町一丁目","koaza":"","lat":34.722781,"lng":135.235525,"zip":"6570063"},{"town":"一王山町","koaza":"","lat":34.727969,"lng":135.239125,"zip":"6570012"},{"town":"鶴甲一丁目","koaza":"","lat":34.731237,"lng":135.237453,"zip":"6570011"},{"town":"鶴甲二丁目","koaza":"","lat":34.732757,"lng":135.236114,"zip":"6570011"},{"town":"鶴甲三丁目","koaza":"","lat":34.73421,"lng":135.233339,"zip":"6570011"},{"town":"長峰台一丁目","koaza":"","lat":34.725898,"lng":135.223468,"zip":"6570811"},{"town":"大土平町二丁目","koaza":"","lat":34.725048,"lng":135.230469,"zip":"6570014"},{"town":"篠原北町三丁目","koaza":"","lat":34.724209,"lng":135.228101,"zip":"6570068"},{"town":"六甲台町","koaza":"","lat":34.727792,"lng":135.234695,"zip":"6570013"},{"town":"大土平町一丁目","koaza":"","lat":34.725384,"lng":135.231709,"zip":"6570014"},{"town":"篠原北町二丁目","koaza":"","lat":34.723249,"lng":135.229466,"zip":"6570068"},{"town":"長峰台二丁目","koaza":"","lat":34.725004,"lng":135.221836,"zip":"6570811"},{"town":"箕岡通一丁目","koaza":"","lat":34.723864,"lng":135.221196,"zip":"6570812"},{"town":"篠原伯母野山町一丁目","koaza":"","lat":34.727157,"lng":135.22996,"zip":"6570015"},{"town":"篠原台","koaza":"","lat":34.731002,"lng":135.229445,"zip":"6570016"},{"town":"篠原伯母野山町三丁目","koaza":"","lat":34.729887,"lng":135.227536,"zip":"6570015"},{"town":"篠原伯母野山町二丁目","koaza":"","lat":34.727362,"lng":135.226863,"zip":"6570015"},{"town":"篠原","koaza":"","lat":34.732946,"lng":135.223179,"zip":"6570015"},{"town":"五毛","koaza":"","lat":34.724913,"lng":135.218465,"zip":"6570801"},{"town":"大石","koaza":"","lat":34.733307,"lng":135.212404,"zip":"6570843"},{"town":"摩耶山町","koaza":"","lat":34.736464,"lng":135.201877,"zip":"6570105"},{"town":"楠丘町三丁目","koaza":"","lat":34.721147,"lng":135.242229,"zip":"6570024"},{"town":"備後町四丁目","koaza":"","lat":34.713436,"lng":135.239291,"zip":"6570037"},{"town":"桜口町四丁目","koaza":"","lat":34.712618,"lng":135.239657,"zip":"6570036"},{"town":"日尾町二丁目","koaza":"","lat":34.717424,"lng":135.237609,"zip":"6570029"},{"town":"日尾町三丁目","koaza":"","lat":34.717208,"lng":135.236466,"zip":"6570029"},{"town":"高羽町五丁目","koaza":"","lat":34.722048,"lng":135.237514,"zip":"6570023"},{"town":"山田町一丁目","koaza":"","lat":34.722034,"lng":135.236022,"zip":"6570064"},{"town":"山田町二丁目","koaza":"","lat":34.721455,"lng":135.234657,"zip":"6570064"},{"town":"曾和町二丁目","koaza":"","lat":34.722288,"lng":135.234205,"zip":"6570063"},{"town":"山田町三丁目","koaza":"","lat":34.721146,"lng":135.233167,"zip":"6570064"},{"town":"徳井町三丁目","koaza":"","lat":34.715173,"lng":135.24625,"zip":"6570033"},{"town":"記田町四丁目","koaza":"","lat":34.713496,"lng":135.245648,"zip":"6570034"},{"town":"記田町五丁目","koaza":"","lat":34.713145,"lng":135.244607,"zip":"6570034"},{"town":"友田町一丁目","koaza":"","lat":34.712782,"lng":135.243509,"zip":"6570035"},{"town":"桜口町一丁目","koaza":"","lat":34.71382,"lng":135.243038,"zip":"6570036"},{"town":"友田町二丁目","koaza":"","lat":34.712335,"lng":135.242417,"zip":"6570035"},{"town":"桜口町二丁目","koaza":"","lat":34.713449,"lng":135.241926,"zip":"6570036"},{"town":"備後町二丁目","koaza":"","lat":34.714365,"lng":135.24135,"zip":"6570037"},{"town":"桜口町三丁目","koaza":"","lat":34.713069,"lng":135.240581,"zip":"6570036"},{"town":"備後町三丁目","koaza":"","lat":34.714059,"lng":135.240364,"zip":"6570037"},{"town":"備後町五丁目","koaza":"","lat":34.71355,"lng":135.237906,"zip":"6570037"},{"town":"稗原町一丁目","koaza":"","lat":34.714021,"lng":135.236465,"zip":"6570054"},{"town":"稗原町二丁目","koaza":"","lat":34.713425,"lng":135.235498,"zip":"6570054"},{"town":"稗原町三丁目","koaza":"","lat":34.71293,"lng":135.234681,"zip":"6570054"},{"town":"稗原町四丁目","koaza":"","lat":34.712559,"lng":135.233915,"zip":"6570054"},{"town":"六甲町三丁目","koaza":"","lat":34.713536,"lng":135.233823,"zip":"6570053"},{"town":"千旦通一丁目","koaza":"","lat":34.713067,"lng":135.232498,"zip":"6570056"},{"town":"大和町二丁目","koaza":"","lat":34.717815,"lng":135.246363,"zip":"6570031"},{"town":"弓木町二丁目","koaza":"","lat":34.719001,"lng":135.245813,"zip":"6570026"},{"town":"中郷町三丁目","koaza":"","lat":34.716287,"lng":135.245715,"zip":"6570032"},{"town":"大和町三丁目","koaza":"","lat":34.717474,"lng":135.245323,"zip":"6570031"},{"town":"楠丘町一丁目","koaza":"","lat":34.721765,"lng":135.244933,"zip":"6570024"},{"town":"徳井町四丁目","koaza":"","lat":34.714766,"lng":135.245089,"zip":"6570033"},{"town":"中郷町四丁目","koaza":"","lat":34.715911,"lng":135.244552,"zip":"6570032"},{"town":"徳井町五丁目","koaza":"","lat":34.714413,"lng":135.243885,"zip":"6570033"},{"town":"弓木町三丁目","koaza":"","lat":34.718683,"lng":135.244648,"zip":"6570026"},{"town":"高徳町二丁目","koaza":"","lat":34.719861,"lng":135.244089,"zip":"6570025"},{"town":"楠丘町二丁目","koaza":"","lat":34.72144,"lng":135.243364,"zip":"6570024"},{"town":"大和町四丁目","koaza":"","lat":34.717128,"lng":135.244001,"zip":"6570031"},{"town":"中郷町五丁目","koaza":"","lat":34.715567,"lng":135.24344,"zip":"6570032"},{"town":"弓木町四丁目","koaza":"","lat":34.718337,"lng":135.243471,"zip":"6570026"},{"town":"高徳町三丁目","koaza":"","lat":34.71952,"lng":135.242951,"zip":"6570025"},{"town":"大和町五丁目","koaza":"","lat":34.716789,"lng":135.242743,"zip":"6570031"},{"town":"弓木町五丁目","koaza":"","lat":34.717914,"lng":135.242457,"zip":"6570026"},{"town":"高徳町四丁目","koaza":"","lat":34.719197,"lng":135.241914,"zip":"6570025"},{"town":"備後町一丁目","koaza":"","lat":34.715005,"lng":135.242454,"zip":"6570037"},{"town":"深田町一丁目","koaza":"","lat":34.716386,"lng":135.241757,"zip":"6570038"},{"town":"高徳町五丁目","koaza":"","lat":34.718834,"lng":135.240851,"zip":"6570025"},{"town":"永手町一丁目","koaza":"","lat":34.717469,"lng":135.241311,"zip":"6570027"},{"town":"深田町二丁目","koaza":"","lat":34.715605,"lng":135.240878,"zip":"6570038"},{"town":"永手町二丁目","koaza":"","lat":34.716786,"lng":135.24032,"zip":"6570027"},{"town":"楠丘町四丁目","koaza":"","lat":34.720841,"lng":135.241086,"zip":"6570024"},{"town":"日尾町一丁目","koaza":"","lat":34.717774,"lng":135.238718,"zip":"6570029"},{"town":"森後町一丁目","koaza":"","lat":34.717324,"lng":135.239318,"zip":"6570028"},{"town":"高徳町六丁目","koaza":"","lat":34.718537,"lng":135.239839,"zip":"6570025"},{"town":"深田町三丁目","koaza":"","lat":34.715025,"lng":135.239926,"zip":"6570038"},{"town":"深田町四丁目","koaza":"","lat":34.71435,"lng":135.238899,"zip":"6570038"},{"town":"永手町三丁目","koaza":"","lat":34.716108,"lng":135.239429,"zip":"6570027"},{"town":"高羽町三丁目","koaza":"","lat":34.722822,"lng":135.239825,"zip":"6570023"},{"town":"楠丘町五丁目","koaza":"","lat":34.720457,"lng":135.240007,"zip":"6570024"},{"town":"高羽町四丁目","koaza":"","lat":34.722397,"lng":135.23854,"zip":"6570023"},{"town":"永手町四丁目","koaza":"","lat":34.715413,"lng":135.238444,"zip":"6570027"},{"town":"楠丘町六丁目","koaza":"","lat":34.720067,"lng":135.238773,"zip":"6570024"},{"town":"森後町二丁目","koaza":"","lat":34.716527,"lng":135.237985,"zip":"6570028"},{"town":"永手町五丁目","koaza":"","lat":34.714681,"lng":135.23741,"zip":"6570027"},{"town":"森後町三丁目","koaza":"","lat":34.715972,"lng":135.236883,"zip":"6570028"},{"town":"八幡町二丁目","koaza":"","lat":34.719081,"lng":135.236581,"zip":"6570051"},{"town":"八幡町一丁目","koaza":"","lat":34.719388,"lng":135.237852,"zip":"6570051"},{"town":"宮山町一丁目","koaza":"","lat":34.721223,"lng":135.23649,"zip":"6570065"},{"town":"宮山町二丁目","koaza":"","lat":34.720601,"lng":135.23483,"zip":"6570065"},{"town":"六甲町一丁目","koaza":"","lat":34.715247,"lng":135.235863,"zip":"6570053"},{"town":"神前町一丁目","koaza":"","lat":34.716761,"lng":135.23524,"zip":"6570052"},{"town":"六甲町四丁目","koaza":"","lat":34.714438,"lng":135.233083,"zip":"6570053"},{"town":"八幡町三丁目","koaza":"","lat":34.71861,"lng":135.235159,"zip":"6570051"},{"town":"六甲町二丁目","koaza":"","lat":34.714879,"lng":135.234856,"zip":"6570053"},{"town":"神前町二丁目","koaza":"","lat":34.716447,"lng":135.234138,"zip":"6570052"},{"town":"八幡町四丁目","koaza":"","lat":34.718047,"lng":135.233631,"zip":"6570051"},{"town":"宮山町三丁目","koaza":"","lat":34.71974,"lng":135.233486,"zip":"6570065"},{"town":"曾和町三丁目","koaza":"","lat":34.722082,"lng":135.232757,"zip":"6570063"},{"town":"神前町三丁目","koaza":"","lat":34.716005,"lng":135.232754,"zip":"6570052"},{"town":"篠原南町一丁目","koaza":"","lat":34.717675,"lng":135.232269,"zip":"6570059"},{"town":"畑原通三丁目","koaza":"","lat":34.71636,"lng":135.222074,"zip":"6570822"},{"town":"福住通七丁目","koaza":"","lat":34.712934,"lng":135.21807,"zip":"6570824"},{"town":"篠原中町一丁目","koaza":"","lat":34.719443,"lng":135.231496,"zip":"6570066"},{"town":"篠原本町一丁目","koaza":"","lat":34.721124,"lng":135.231413,"zip":"6570067"},{"town":"上野通一丁目","koaza":"","lat":34.718716,"lng":135.223749,"zip":"6570817"},{"town":"上野通四丁目","koaza":"","lat":34.717163,"lng":135.219784,"zip":"6570817"},{"town":"国玉通四丁目","koaza":"","lat":34.717312,"lng":135.217596,"zip":"6570816"},{"town":"五毛通一丁目","koaza":"","lat":34.721371,"lng":135.222398,"zip":"6570814"},{"town":"五毛通四丁目","koaza":"","lat":34.718693,"lng":135.216897,"zip":"6570814"},{"town":"畑原","koaza":"","lat":34.72445,"lng":135.215376,"zip":"6570102"},{"town":"六甲町五丁目","koaza":"","lat":34.715153,"lng":135.23273,"zip":"6570053"},{"town":"神ノ木通一丁目","koaza":"","lat":34.714264,"lng":135.231571,"zip":"6570057"},{"town":"千旦通二丁目","koaza":"","lat":34.71286,"lng":135.231608,"zip":"6570056"},{"town":"神ノ木通二丁目","koaza":"","lat":34.714139,"lng":135.23102,"zip":"6570057"},{"town":"千旦通三丁目","koaza":"","lat":34.712555,"lng":135.230764,"zip":"6570056"},{"town":"神ノ木通三丁目","koaza":"","lat":34.713793,"lng":135.230175,"zip":"6570057"},{"town":"将軍通三丁目","koaza":"","lat":34.715058,"lng":135.229612,"zip":"6570058"},{"town":"神ノ木通四丁目","koaza":"","lat":34.713599,"lng":135.22902,"zip":"6570057"},{"town":"将軍通四丁目","koaza":"","lat":34.714614,"lng":135.228514,"zip":"6570058"},{"town":"大内通一丁目","koaza":"","lat":34.712733,"lng":135.228343,"zip":"6570833"},{"town":"大内通二丁目","koaza":"","lat":34.712295,"lng":135.22708,"zip":"6570833"},{"town":"岸地通一丁目","koaza":"","lat":34.713292,"lng":135.227389,"zip":"6570832"},{"town":"水道筋一丁目","koaza":"","lat":34.713983,"lng":135.227193,"zip":"6570831"},{"town":"岸地通二丁目","koaza":"","lat":34.71259,"lng":135.225486,"zip":"6570832"},{"town":"水道筋二丁目","koaza":"","lat":34.713552,"lng":135.225089,"zip":"6570831"},{"town":"倉石通一丁目","koaza":"","lat":34.714237,"lng":135.224814,"zip":"6570826"},{"town":"水道筋三丁目","koaza":"","lat":34.712807,"lng":135.224075,"zip":"6570831"},{"town":"倉石通二丁目","koaza":"","lat":34.713717,"lng":135.223679,"zip":"6570826"},{"town":"中原通二丁目","koaza":"","lat":34.714443,"lng":135.223385,"zip":"6570825"},{"town":"水道筋四丁目","koaza":"","lat":34.712511,"lng":135.223049,"zip":"6570831"},{"town":"倉石通三丁目","koaza":"","lat":34.7133,"lng":135.222768,"zip":"6570826"},{"town":"中原通三丁目","koaza":"","lat":34.713959,"lng":135.222507,"zip":"6570825"},{"town":"倉石通四丁目","koaza":"","lat":34.712927,"lng":135.22196,"zip":"6570826"},{"town":"中原通四丁目","koaza":"","lat":34.713418,"lng":135.221867,"zip":"6570825"},{"town":"倉石通六丁目","koaza":"","lat":34.712106,"lng":135.220519,"zip":"6570826"},{"town":"倉石通五丁目","koaza":"","lat":34.712589,"lng":135.221278,"zip":"6570826"},{"town":"中原通五丁目","koaza":"","lat":34.713289,"lng":135.220921,"zip":"6570825"},{"town":"福住通四丁目","koaza":"","lat":34.714209,"lng":135.221387,"zip":"6570824"},{"town":"福住通五丁目","koaza":"","lat":34.713905,"lng":135.220518,"zip":"6570824"},{"town":"天城通五丁目","koaza":"","lat":34.714613,"lng":135.219966,"zip":"6570823"},{"town":"中原通六丁目","koaza":"","lat":34.712526,"lng":135.219898,"zip":"6570825"},{"town":"福住通六丁目","koaza":"","lat":34.713539,"lng":135.219692,"zip":"6570824"},{"town":"天城通六丁目","koaza":"","lat":34.714315,"lng":135.218665,"zip":"6570823"},{"town":"天城通七丁目","koaza":"","lat":34.713753,"lng":135.217552,"zip":"6570823"},{"town":"神前町四丁目","koaza":"","lat":34.715784,"lng":135.231519,"zip":"6570052"},{"town":"篠原南町二丁目","koaza":"","lat":34.717328,"lng":135.231181,"zip":"6570059"},{"town":"将軍通一丁目","koaza":"","lat":34.715558,"lng":135.230982,"zip":"6570058"},{"town":"将軍通二丁目","koaza":"","lat":34.715365,"lng":135.23048,"zip":"6570058"},{"town":"篠原北町一丁目","koaza":"","lat":34.723015,"lng":135.230894,"zip":"6570068"},{"town":"篠原南町三丁目","koaza":"","lat":34.716867,"lng":135.230129,"zip":"6570059"},{"town":"篠原中町二丁目","koaza":"","lat":34.718652,"lng":135.230328,"zip":"6570066"},{"town":"篠原本町二丁目","koaza":"","lat":34.721138,"lng":135.229804,"zip":"6570067"},{"town":"篠原南町四丁目","koaza":"","lat":34.716379,"lng":135.229231,"zip":"6570059"},{"town":"篠原中町三丁目","koaza":"","lat":34.719524,"lng":135.229318,"zip":"6570066"},{"town":"篠原南町五丁目","koaza":"","lat":34.715867,"lng":135.22795,"zip":"6570059"},{"town":"篠原中町四丁目","koaza":"","lat":34.717747,"lng":135.22819,"zip":"6570066"},{"town":"篠原本町三丁目","koaza":"","lat":34.721144,"lng":135.228116,"zip":"6570067"},{"town":"篠原中町五丁目","koaza":"","lat":34.718546,"lng":135.226818,"zip":"6570066"},{"town":"篠原南町六丁目","koaza":"","lat":34.715201,"lng":135.226596,"zip":"6570059"},{"town":"篠原南町七丁目","koaza":"","lat":34.71498,"lng":135.225667,"zip":"6570059"},{"town":"篠原本町四丁目","koaza":"","lat":34.720777,"lng":135.226033,"zip":"6570067"},{"town":"赤坂通一丁目","koaza":"","lat":34.717973,"lng":135.224145,"zip":"6570821"},{"town":"篠原中町六丁目","koaza":"","lat":34.717558,"lng":135.225912,"zip":"6570066"},{"town":"福住通一丁目","koaza":"","lat":34.715918,"lng":135.224905,"zip":"6570824"},{"town":"中原通一丁目","koaza":"","lat":34.715108,"lng":135.22451,"zip":"6570825"},{"town":"天城通一丁目","koaza":"","lat":34.716598,"lng":135.224785,"zip":"6570823"},{"town":"篠原本町五丁目","koaza":"","lat":34.719725,"lng":135.224896,"zip":"6570067"},{"town":"畑原通一丁目","koaza":"","lat":34.717336,"lng":135.224464,"zip":"6570822"},{"town":"福住通二丁目","koaza":"","lat":34.715503,"lng":135.223915,"zip":"6570824"},{"town":"福住通三丁目","koaza":"","lat":34.71474,"lng":135.22233,"zip":"6570824"},{"town":"天城通二丁目","koaza":"","lat":34.716095,"lng":135.223717,"zip":"6570823"},{"town":"畑原通二丁目","koaza":"","lat":34.716886,"lng":135.223337,"zip":"6570822"},{"town":"赤坂通二丁目","koaza":"","lat":34.717546,"lng":135.223025,"zip":"6570821"},{"town":"上野通二丁目","koaza":"","lat":34.718284,"lng":135.222674,"zip":"6570817"},{"town":"篠原北町四丁目","koaza":"","lat":34.723331,"lng":135.223297,"zip":"6570068"},{"town":"国玉通一丁目","koaza":"","lat":34.719416,"lng":135.222934,"zip":"6570816"},{"town":"国玉通二丁目","koaza":"","lat":34.718803,"lng":135.221051,"zip":"6570816"},{"town":"薬師通一丁目","koaza":"","lat":34.720118,"lng":135.222403,"zip":"6570815"},{"town":"天城通三丁目","koaza":"","lat":34.715585,"lng":135.222323,"zip":"6570823"},{"town":"天城通四丁目","koaza":"","lat":34.714964,"lng":135.220976,"zip":"6570823"},{"town":"畑原通四丁目","koaza":"","lat":34.715697,"lng":135.220615,"zip":"6570822"},{"town":"高尾通一丁目","koaza":"","lat":34.72168,"lng":135.221401,"zip":"6570813"},{"town":"赤坂通三丁目","koaza":"","lat":34.716954,"lng":135.221497,"zip":"6570821"},{"town":"上野通三丁目","koaza":"","lat":34.717765,"lng":135.221213,"zip":"6570817"},{"town":"赤坂通五丁目","koaza":"","lat":34.715973,"lng":135.219048,"zip":"6570821"},{"town":"赤坂通四丁目","koaza":"","lat":34.716317,"lng":135.22016,"zip":"6570821"},{"town":"畑原通五丁目","koaza":"","lat":34.715291,"lng":135.21955,"zip":"6570822"},{"town":"薬師通二丁目","koaza":"","lat":34.719656,"lng":135.220759,"zip":"6570815"},{"town":"国玉通三丁目","koaza":"","lat":34.718215,"lng":135.219537,"zip":"6570816"},{"town":"五毛通二丁目","koaza":"","lat":34.720251,"lng":135.220211,"zip":"6570814"},{"town":"五毛通三丁目","koaza":"","lat":34.719512,"lng":135.21827,"zip":"6570814"},{"town":"高尾通二丁目","koaza":"","lat":34.721025,"lng":135.219984,"zip":"6570813"},{"town":"箕岡通二丁目","koaza":"","lat":34.721982,"lng":135.219735,"zip":"6570812"},{"town":"薬師通三丁目","koaza":"","lat":34.718892,"lng":135.218828,"zip":"6570815"},{"town":"薬師通四丁目","koaza":"","lat":34.718014,"lng":135.217019,"zip":"6570815"},{"town":"上野通五丁目","koaza":"","lat":34.716781,"lng":135.218495,"zip":"6570817"},{"town":"赤坂通六丁目","koaza":"","lat":34.715167,"lng":135.218041,"zip":"6570821"},{"town":"高尾通三丁目","koaza":"","lat":34.720183,"lng":135.218135,"zip":"6570813"},{"town":"箕岡通三丁目","koaza":"","lat":34.72099,"lng":135.217856,"zip":"6570812"},{"town":"上野通六丁目","koaza":"","lat":34.716153,"lng":135.21708,"zip":"6570817"},{"town":"青谷町四丁目","koaza":"","lat":34.715079,"lng":135.210321,"zip":"6570805"},{"town":"城の下通二丁目","koaza":"","lat":34.71731,"lng":135.212864,"zip":"6570804"},{"town":"原田","koaza":"","lat":34.725218,"lng":135.205258,"zip":"6570802"},{"town":"岩屋","koaza":"","lat":34.724342,"lng":135.199831,"zip":"6570803"},{"town":"高尾通四丁目","koaza":"","lat":34.718917,"lng":135.215888,"zip":"6570813"},{"town":"上野","koaza":"","lat":34.722724,"lng":135.211274,"zip":"6570103"},{"town":"城の下通一丁目","koaza":"","lat":34.7181,"lng":135.214154,"zip":"6570804"},{"town":"箕岡通四丁目","koaza":"","lat":34.719716,"lng":135.215007,"zip":"6570812"},{"town":"赤坂通七丁目","koaza":"","lat":34.714651,"lng":135.216685,"zip":"6570821"},{"town":"上野通七丁目","koaza":"","lat":34.715789,"lng":135.215986,"zip":"6570817"},{"town":"赤坂通八丁目","koaza":"","lat":34.714088,"lng":135.215012,"zip":"6570821"},{"town":"青谷町三丁目","koaza":"","lat":34.71409,"lng":135.211945,"zip":"6570805"},{"town":"上野通八丁目","koaza":"","lat":34.71518,"lng":135.213957,"zip":"6570817"},{"town":"天城通八丁目","koaza":"","lat":34.713235,"lng":135.215945,"zip":"6570823"},{"town":"福住通八丁目","koaza":"","lat":34.712409,"lng":135.216827,"zip":"6570824"},{"town":"城の下通三丁目","koaza":"","lat":34.71654,"lng":135.210357,"zip":"6570804"},{"town":"琵琶町一丁目","koaza":"","lat":34.71252,"lng":135.237163,"zip":"6570041"},{"town":"友田町三丁目","koaza":"","lat":34.711889,"lng":135.24149,"zip":"6570035"},{"town":"上河原通一丁目","koaza":"","lat":34.712073,"lng":135.232952,"zip":"6570055"},{"town":"浜田町一丁目","koaza":"","lat":34.709062,"lng":135.243857,"zip":"6570862"},{"town":"浜田町二丁目","koaza":"","lat":34.711036,"lng":135.242946,"zip":"6570862"},{"town":"浜田町四丁目","koaza":"","lat":34.708789,"lng":135.242573,"zip":"6570862"},{"town":"浜田町三丁目","koaza":"","lat":34.71055,"lng":135.241978,"zip":"6570862"},{"town":"新在家北町一丁目","koaza":"","lat":34.71018,"lng":135.240878,"zip":"6570861"},{"town":"友田町四丁目","koaza":"","lat":34.71154,"lng":135.240189,"zip":"6570035"},{"town":"新在家北町二丁目","koaza":"","lat":34.709732,"lng":135.239742,"zip":"6570861"},{"town":"友田町五丁目","koaza":"","lat":34.711178,"lng":135.239181,"zip":"6570035"},{"town":"新在家南町一丁目","koaza":"","lat":34.708057,"lng":135.240479,"zip":"6570864"},{"town":"桜口町五丁目","koaza":"","lat":34.71227,"lng":135.238519,"zip":"6570036"},{"town":"新在家南町二丁目","koaza":"","lat":34.706929,"lng":135.239408,"zip":"6570864"},{"town":"大石東町一丁目","koaza":"","lat":34.709299,"lng":135.238625,"zip":"6570043"},{"town":"大石東町二丁目","koaza":"","lat":34.708883,"lng":135.237549,"zip":"6570043"},{"town":"烏帽子町一丁目","koaza":"","lat":34.710807,"lng":135.23798,"zip":"6570042"},{"town":"烏帽子町三丁目","koaza":"","lat":34.710006,"lng":135.235743,"zip":"6570042"},{"town":"烏帽子町二丁目","koaza":"","lat":34.710303,"lng":135.237026,"zip":"6570042"},{"town":"琵琶町二丁目","koaza":"","lat":34.711774,"lng":135.236361,"zip":"6570041"},{"town":"大石東町三丁目","koaza":"","lat":34.708435,"lng":135.236363,"zip":"6570043"},{"town":"新在家南町三丁目","koaza":"","lat":34.706176,"lng":135.237371,"zip":"6570864"},{"town":"大石東町四丁目","koaza":"","lat":34.708078,"lng":135.235378,"zip":"6570043"},{"town":"大石東町五丁目","koaza":"","lat":34.70761,"lng":135.234366,"zip":"6570043"},{"town":"新在家南町五丁目","koaza":"","lat":34.704244,"lng":135.234383,"zip":"6570864"},{"town":"大石南町一丁目","koaza":"","lat":34.704008,"lng":135.232785,"zip":"6570852"},{"town":"琵琶町三丁目","koaza":"","lat":34.711445,"lng":135.235047,"zip":"6570041"},{"town":"下河原通一丁目","koaza":"","lat":34.711122,"lng":135.23425,"zip":"6570045"},{"town":"鹿ノ下通一丁目","koaza":"","lat":34.709657,"lng":135.234623,"zip":"6570044"},{"town":"新在家南町四丁目","koaza":"","lat":34.704955,"lng":135.236086,"zip":"6570864"},{"town":"下河原通二丁目","koaza":"","lat":34.710906,"lng":135.233758,"zip":"6570045"},{"town":"鹿ノ下通二丁目","koaza":"","lat":34.709293,"lng":135.233529,"zip":"6570044"},{"town":"下河原通三丁目","koaza":"","lat":34.710756,"lng":135.232868,"zip":"6570045"},{"town":"上河原通二丁目","koaza":"","lat":34.711799,"lng":135.232082,"zip":"6570055"},{"town":"大石東町六丁目","koaza":"","lat":34.707199,"lng":135.232923,"zip":"6570043"},{"town":"岩屋北町四丁目","koaza":"","lat":34.704757,"lng":135.218076,"zip":"6570846"},{"town":"水道筋五丁目","koaza":"","lat":34.712088,"lng":135.221738,"zip":"6570831"},{"town":"灘北通六丁目","koaza":"","lat":34.70873,"lng":135.222214,"zip":"6570835"},{"town":"泉通六丁目","koaza":"","lat":34.709456,"lng":135.221851,"zip":"6570834"},{"town":"城内通一丁目","koaza":"","lat":34.709406,"lng":135.220329,"zip":"6570836"},{"town":"岸地通五丁目","koaza":"","lat":34.710729,"lng":135.221361,"zip":"6570832"},{"town":"王子町一丁目","koaza":"","lat":34.710238,"lng":135.218993,"zip":"6570838"},{"town":"下河原通四丁目","koaza":"","lat":34.710229,"lng":135.231982,"zip":"6570045"},{"town":"鹿ノ下通三丁目","koaza":"","lat":34.708979,"lng":135.23198,"zip":"6570044"},{"town":"上河原通三丁目","koaza":"","lat":34.711535,"lng":135.231285,"zip":"6570055"},{"town":"下河原通五丁目","koaza":"","lat":34.709906,"lng":135.231058,"zip":"6570045"},{"town":"大石南町二丁目","koaza":"","lat":34.703944,"lng":135.231624,"zip":"6570852"},{"town":"上河原通四丁目","koaza":"","lat":34.711131,"lng":135.230398,"zip":"6570055"},{"town":"大石南町三丁目","koaza":"","lat":34.703798,"lng":135.230685,"zip":"6570852"},{"town":"船寺通一丁目","koaza":"","lat":34.707931,"lng":135.230501,"zip":"6570842"},{"town":"大石北町","koaza":"","lat":34.706102,"lng":135.230883,"zip":"6570843"},{"town":"千旦通四丁目","koaza":"","lat":34.712238,"lng":135.229799,"zip":"6570056"},{"town":"灘南通一丁目","koaza":"","lat":34.709628,"lng":135.229699,"zip":"6570841"},{"town":"灘北通一丁目","koaza":"","lat":34.710817,"lng":135.229336,"zip":"6570835"},{"town":"船寺通二丁目","koaza":"","lat":34.70755,"lng":135.229264,"zip":"6570842"},{"town":"都通一丁目","koaza":"","lat":34.705702,"lng":135.228717,"zip":"6570844"},{"town":"泉通一丁目","koaza":"","lat":34.711718,"lng":135.228855,"zip":"6570834"},{"town":"灘南通二丁目","koaza":"","lat":34.709092,"lng":135.228426,"zip":"6570841"},{"town":"船寺通三丁目","koaza":"","lat":34.707313,"lng":135.227948,"zip":"6570842"},{"town":"灘北通二丁目","koaza":"","lat":34.710512,"lng":135.227829,"zip":"6570835"},{"town":"都通二丁目","koaza":"","lat":34.705649,"lng":135.227461,"zip":"6570844"},{"town":"泉通二丁目","koaza":"","lat":34.711358,"lng":135.22741,"zip":"6570834"},{"town":"灘南通三丁目","koaza":"","lat":34.708882,"lng":135.227242,"zip":"6570841"},{"town":"灘北通三丁目","koaza":"","lat":34.710237,"lng":135.226672,"zip":"6570835"},{"town":"都通三丁目","koaza":"","lat":34.705336,"lng":135.226345,"zip":"6570844"},{"town":"泉通三丁目","koaza":"","lat":34.711007,"lng":135.226306,"zip":"6570834"},{"town":"灘浜町","koaza":"","lat":34.701287,"lng":135.230303,"zip":"6570853"},{"town":"大内通三丁目","koaza":"","lat":34.711576,"lng":135.226054,"zip":"6570833"},{"town":"灘南通四丁目","koaza":"","lat":34.708486,"lng":135.226068,"zip":"6570841"},{"town":"船寺通四丁目","koaza":"","lat":34.706985,"lng":135.226549,"zip":"6570842"},{"town":"味泥町","koaza":"","lat":34.703789,"lng":135.227438,"zip":"6570851"},{"town":"灘北通五丁目","koaza":"","lat":34.709362,"lng":135.223875,"zip":"6570835"},{"town":"灘北通四丁目","koaza":"","lat":34.70987,"lng":135.225473,"zip":"6570835"},{"town":"泉通四丁目","koaza":"","lat":34.710594,"lng":135.225145,"zip":"6570834"},{"town":"都通四丁目","koaza":"","lat":34.704704,"lng":135.225457,"zip":"6570844"},{"town":"大内通四丁目","koaza":"","lat":34.71123,"lng":135.224838,"zip":"6570833"},{"town":"船寺通五丁目","koaza":"","lat":34.706603,"lng":135.224638,"zip":"6570842"},{"town":"岸地通三丁目","koaza":"","lat":34.711855,"lng":135.224508,"zip":"6570832"},{"town":"都通五丁目","koaza":"","lat":34.705131,"lng":135.224364,"zip":"6570844"},{"town":"船寺通六丁目","koaza":"","lat":34.706105,"lng":135.223565,"zip":"6570842"},{"town":"灘南通五丁目","koaza":"","lat":34.707954,"lng":135.224401,"zip":"6570841"},{"town":"灘南通六丁目","koaza":"","lat":34.707441,"lng":135.222816,"zip":"6570841"},{"town":"泉通五丁目","koaza":"","lat":34.710022,"lng":135.223313,"zip":"6570834"},{"town":"岩屋中町一丁目","koaza":"","lat":34.704461,"lng":135.223267,"zip":"6570845"},{"town":"岩屋北町一丁目","koaza":"","lat":34.706581,"lng":135.221966,"zip":"6570846"},{"town":"大内通六丁目","koaza":"","lat":34.710101,"lng":135.221527,"zip":"6570833"},{"town":"大内通五丁目","koaza":"","lat":34.710654,"lng":135.223153,"zip":"6570833"},{"town":"岸地通四丁目","koaza":"","lat":34.711429,"lng":135.22294,"zip":"6570832"},{"town":"灘北通七丁目","koaza":"","lat":34.708216,"lng":135.221136,"zip":"6570835"},{"town":"岩屋中町二丁目","koaza":"","lat":34.704088,"lng":135.221573,"zip":"6570845"},{"town":"岩屋北町二丁目","koaza":"","lat":34.706108,"lng":135.220676,"zip":"6570846"},{"town":"岩屋中町三丁目","koaza":"","lat":34.703782,"lng":135.220192,"zip":"6570845"},{"town":"水道筋六丁目","koaza":"","lat":34.711367,"lng":135.220436,"zip":"6570831"},{"town":"中原通七丁目","koaza":"","lat":34.711976,"lng":135.218593,"zip":"6570825"},{"town":"岩屋北町三丁目","koaza":"","lat":34.705762,"lng":135.219363,"zip":"6570846"},{"town":"灘北通八丁目","koaza":"","lat":34.70751,"lng":135.219569,"zip":"6570835"},{"town":"城内通三丁目","koaza":"","lat":34.708173,"lng":135.218834,"zip":"6570836"},{"town":"城内通二丁目","koaza":"","lat":34.708828,"lng":135.219109,"zip":"6570836"},{"town":"岩屋中町四丁目","koaza":"","lat":34.703555,"lng":135.218477,"zip":"6570845"},{"town":"岩屋南町","koaza":"","lat":34.702946,"lng":135.222647,"zip":"6570856"},{"town":"灘北通九丁目","koaza":"","lat":34.706927,"lng":135.217808,"zip":"6570835"},{"town":"岩屋北町六丁目","koaza":"","lat":34.705767,"lng":135.217626,"zip":"6570846"},{"town":"城内通四丁目","koaza":"","lat":34.708221,"lng":135.217453,"zip":"6570836"},{"town":"王子町二丁目","koaza":"","lat":34.710902,"lng":135.217309,"zip":"6570838"},{"town":"灘北通十丁目","koaza":"","lat":34.706247,"lng":135.216119,"zip":"6570835"},{"town":"城内通五丁目","koaza":"","lat":34.707155,"lng":135.216261,"zip":"6570836"},{"town":"原田通一丁目","koaza":"","lat":34.708419,"lng":135.21615,"zip":"6570837"},{"town":"王子町三丁目","koaza":"","lat":34.710364,"lng":135.213977,"zip":"6570838"},{"town":"青谷町一丁目","koaza":"","lat":34.711859,"lng":135.21357,"zip":"6570805"},{"town":"青谷町二丁目","koaza":"","lat":34.712818,"lng":135.212201,"zip":"6570805"},{"town":"原田通三丁目","koaza":"","lat":34.708165,"lng":135.214516,"zip":"6570837"},{"town":"原田通二丁目","koaza":"","lat":34.706998,"lng":135.214624,"zip":"6570837"},{"town":"岩屋北町七丁目","koaza":"","lat":34.705238,"lng":135.215799,"zip":"6570846"},{"town":"岩屋北町五丁目","koaza":"","lat":34.704045,"lng":135.216258,"zip":"6570846"},{"town":"岩屋中町五丁目","koaza":"","lat":34.703199,"lng":135.216567,"zip":"6570845"},{"town":"摩耶海岸通一丁目","koaza":"","lat":34.700167,"lng":135.221683,"zip":"6570855"},{"town":"摩耶海岸通二丁目","koaza":"","lat":34.701609,"lng":135.220796,"zip":"6570855"},{"town":"六甲山町","koaza":"中一里山","lat":34.746581,"lng":135.207984,"zip":"6570101"},{"town":"六甲山町","koaza":"北六甲","lat":34.760864,"lng":135.238218,"zip":"6570101"},{"town":"六甲山町","koaza":"南六甲","lat":34.755557,"lng":135.225952,"zip":"6570101"},{"town":"六甲山町","koaza":"一ケ谷","lat":34.758347,"lng":135.241047,"zip":"6570101"},{"town":"六甲山町","koaza":"五介山","lat":34.759551,"lng":135.246173,"zip":"6570101"}]