[{"town":"小束山手二丁目","koaza":"","lat":34.673367,"lng":135.061312,"zip":"6550009"},{"town":"小束山手一丁目","koaza":"","lat":34.674596,"lng":135.06536,"zip":"6550009"},{"town":"舞多聞西八丁目","koaza":"","lat":34.670663,"lng":135.049354,"zip":"6550051"},{"town":"多聞町","koaza":"","lat":34.670004,"lng":135.056639,"zip":"6550001"},{"town":"舞多聞西六丁目","koaza":"","lat":34.668425,"lng":135.052666,"zip":"6550051"},{"town":"舞多聞西七丁目","koaza":"","lat":34.66857,"lng":135.049588,"zip":"6550051"},{"town":"舞多聞西四丁目","koaza":"","lat":34.668382,"lng":135.045791,"zip":"6550051"},{"town":"神陵台九丁目","koaza":"","lat":34.667258,"lng":135.039257,"zip":"6550041"},{"town":"名谷町","koaza":"","lat":34.662028,"lng":135.068106,"zip":"6550852"},{"town":"神和台一丁目","koaza":"","lat":34.670223,"lng":135.072436,"zip":"6550851"},{"town":"小束山三丁目","koaza":"","lat":34.669329,"lng":135.064048,"zip":"6550002"},{"town":"小束山二丁目","koaza":"","lat":34.671775,"lng":135.066469,"zip":"6550002"},{"town":"小束山一丁目","koaza":"","lat":34.669378,"lng":135.067566,"zip":"6550002"},{"town":"小束山六丁目","koaza":"","lat":34.668749,"lng":135.06134,"zip":"6550002"},{"town":"舞多聞東三丁目","koaza":"","lat":34.665349,"lng":135.053653,"zip":"6550052"},{"town":"舞多聞西五丁目","koaza":"","lat":34.665937,"lng":135.048449,"zip":"6550051"},{"town":"舞多聞西一丁目","koaza":"","lat":34.663113,"lng":135.047583,"zip":"6550051"},{"town":"舞多聞西三丁目","koaza":"","lat":34.666722,"lng":135.042034,"zip":"6550051"},{"town":"宮本町","koaza":"","lat":34.628008,"lng":135.052942,"zip":"6550028"},{"town":"平磯三丁目","koaza":"","lat":34.626373,"lng":135.058046,"zip":"6550892"},{"town":"川原四丁目","koaza":"","lat":34.632446,"lng":135.059304,"zip":"6550894"},{"town":"川原三丁目","koaza":"","lat":34.631732,"lng":135.058813,"zip":"6550894"},{"town":"川原一丁目","koaza":"","lat":34.629913,"lng":135.058711,"zip":"6550894"},{"town":"川原二丁目","koaza":"","lat":34.630777,"lng":135.058682,"zip":"6550894"},{"town":"川原五丁目","koaza":"","lat":34.631236,"lng":135.058064,"zip":"6550894"},{"town":"日向一丁目","koaza":"","lat":34.629928,"lng":135.056458,"zip":"6550893"},{"town":"日向二丁目","koaza":"","lat":34.63164,"lng":135.056703,"zip":"6550893"},{"town":"御霊町","koaza":"","lat":34.633009,"lng":135.057972,"zip":"6550024"},{"town":"瑞ケ丘","koaza":"","lat":34.633811,"lng":135.056087,"zip":"6550025"},{"town":"陸ノ町","koaza":"","lat":34.63184,"lng":135.05429,"zip":"6550026"},{"town":"平磯四丁目","koaza":"","lat":34.628851,"lng":135.056174,"zip":"6550892"},{"town":"神田町","koaza":"","lat":34.629904,"lng":135.054232,"zip":"6550027"},{"town":"五色山一丁目","koaza":"","lat":34.630426,"lng":135.050174,"zip":"6550035"},{"town":"天ノ下町","koaza":"","lat":34.630762,"lng":135.052128,"zip":"6550029"},{"town":"五色山二丁目","koaza":"","lat":34.630277,"lng":135.048709,"zip":"6550035"},{"town":"仲田一丁目","koaza":"","lat":34.632821,"lng":135.050075,"zip":"6550034"},{"town":"五色山三丁目","koaza":"","lat":34.630316,"lng":135.047425,"zip":"6550035"},{"town":"霞ケ丘一丁目","koaza":"","lat":34.632891,"lng":135.04796,"zip":"6550039"},{"town":"霞ケ丘二丁目","koaza":"","lat":34.63446,"lng":135.047646,"zip":"6550039"},{"town":"五色山六丁目","koaza":"","lat":34.62954,"lng":135.042268,"zip":"6550035"},{"town":"五色山四丁目","koaza":"","lat":34.630599,"lng":135.045086,"zip":"6550035"},{"town":"五色山五丁目","koaza":"","lat":34.631141,"lng":135.042922,"zip":"6550035"},{"town":"霞ケ丘四丁目","koaza":"","lat":34.633088,"lng":135.044535,"zip":"6550039"},{"town":"霞ケ丘五丁目","koaza":"","lat":34.634494,"lng":135.044688,"zip":"6550039"},{"town":"海岸通","koaza":"","lat":34.627203,"lng":135.04578,"zip":"6550036"},{"town":"五色山七丁目","koaza":"","lat":34.630722,"lng":135.040813,"zip":"6550035"},{"town":"五色山八丁目","koaza":"","lat":34.631856,"lng":135.041398,"zip":"6550035"},{"town":"歌敷山一丁目","koaza":"","lat":34.634232,"lng":135.041185,"zip":"6550037"},{"town":"東舞子町","koaza":"","lat":34.632261,"lng":135.036231,"zip":"6550047"},{"town":"高丸一丁目","koaza":"","lat":34.635145,"lng":135.056238,"zip":"6550016"},{"town":"高丸二丁目","koaza":"","lat":34.635737,"lng":135.055082,"zip":"6550016"},{"town":"高丸五丁目","koaza":"","lat":34.637247,"lng":135.054493,"zip":"6550016"},{"town":"高丸六丁目","koaza":"","lat":34.63909,"lng":135.056763,"zip":"6550016"},{"town":"高丸八丁目","koaza":"","lat":34.641674,"lng":135.057383,"zip":"6550016"},{"town":"旭が丘一丁目","koaza":"","lat":34.63435,"lng":135.052722,"zip":"6550033"},{"town":"旭が丘二丁目","koaza":"","lat":34.634251,"lng":135.050952,"zip":"6550033"},{"town":"高丸七丁目","koaza":"","lat":34.640142,"lng":135.054731,"zip":"6550016"},{"town":"仲田三丁目","koaza":"","lat":34.63497,"lng":135.050015,"zip":"6550034"},{"town":"仲田二丁目","koaza":"","lat":34.635805,"lng":135.049022,"zip":"6550034"},{"town":"旭が丘三丁目","koaza":"","lat":34.637502,"lng":135.051273,"zip":"6550033"},{"town":"上高丸一丁目","koaza":"","lat":34.64042,"lng":135.05203,"zip":"6550017"},{"town":"霞ケ丘三丁目","koaza":"","lat":34.636541,"lng":135.047826,"zip":"6550039"},{"town":"星が丘一丁目","koaza":"","lat":34.638366,"lng":135.047644,"zip":"6550032"},{"town":"星が丘二丁目","koaza":"","lat":34.639339,"lng":135.049302,"zip":"6550032"},{"town":"星陵台三丁目","koaza":"","lat":34.642149,"lng":135.046886,"zip":"6550038"},{"town":"霞ケ丘六丁目","koaza":"","lat":34.636095,"lng":135.044884,"zip":"6550039"},{"town":"霞ケ丘七丁目","koaza":"","lat":34.637703,"lng":135.044976,"zip":"6550039"},{"town":"歌敷山二丁目","koaza":"","lat":34.635747,"lng":135.041377,"zip":"6550037"},{"town":"星陵台一丁目","koaza":"","lat":34.639554,"lng":135.045986,"zip":"6550038"},{"town":"星陵台二丁目","koaza":"","lat":34.640904,"lng":135.046442,"zip":"6550038"},{"town":"星陵台七丁目","koaza":"","lat":34.642739,"lng":135.044414,"zip":"6550038"},{"town":"星陵台六丁目","koaza":"","lat":34.641457,"lng":135.044177,"zip":"6550038"},{"town":"星陵台五丁目","koaza":"","lat":34.639962,"lng":135.043645,"zip":"6550038"},{"town":"北舞子一丁目","koaza":"","lat":34.642108,"lng":135.042222,"zip":"6550045"},{"town":"歌敷山四丁目","koaza":"","lat":34.634958,"lng":135.038984,"zip":"6550037"},{"town":"歌敷山三丁目","koaza":"","lat":34.638035,"lng":135.041654,"zip":"6550037"},{"town":"舞子台一丁目","koaza":"","lat":34.63535,"lng":135.037659,"zip":"6550046"},{"town":"舞子台三丁目","koaza":"","lat":34.637927,"lng":135.038761,"zip":"6550046"},{"town":"舞子台七丁目","koaza":"","lat":34.640125,"lng":135.038649,"zip":"6550046"},{"town":"北舞子二丁目","koaza":"","lat":34.641997,"lng":135.040701,"zip":"6550045"},{"town":"北舞子三丁目","koaza":"","lat":34.642192,"lng":135.038452,"zip":"6550045"},{"town":"舞子台四丁目","koaza":"","lat":34.637554,"lng":135.036109,"zip":"6550046"},{"town":"北舞子四丁目","koaza":"","lat":34.641804,"lng":135.037154,"zip":"6550045"},{"town":"舞子台二丁目","koaza":"","lat":34.635794,"lng":135.034106,"zip":"6550046"},{"town":"舞子台五丁目","koaza":"","lat":34.637592,"lng":135.034041,"zip":"6550046"},{"town":"舞子台六丁目","koaza":"","lat":34.638353,"lng":135.032217,"zip":"6550046"},{"town":"舞子台八丁目","koaza":"","lat":34.641523,"lng":135.033747,"zip":"6550046"},{"town":"西舞子二丁目","koaza":"","lat":34.639706,"lng":135.02935,"zip":"6550048"},{"town":"西舞子三丁目","koaza":"","lat":34.641091,"lng":135.02743,"zip":"6550048"},{"town":"西舞子一丁目","koaza":"","lat":34.63746,"lng":135.028369,"zip":"6550048"},{"town":"西舞子五丁目","koaza":"","lat":34.64205,"lng":135.026168,"zip":"6550048"},{"town":"狩口台七丁目","koaza":"","lat":34.642151,"lng":135.022999,"zip":"6550049"},{"town":"上高丸二丁目","koaza":"","lat":34.642902,"lng":135.054736,"zip":"6550017"},{"town":"千代が丘一丁目","koaza":"","lat":34.643209,"lng":135.052026,"zip":"6550018"},{"town":"上高丸三丁目","koaza":"","lat":34.645651,"lng":135.055359,"zip":"6550017"},{"town":"星が丘三丁目","koaza":"","lat":34.64279,"lng":135.049425,"zip":"6550032"},{"town":"千代が丘二丁目","koaza":"","lat":34.645687,"lng":135.051875,"zip":"6550018"},{"town":"星陵台四丁目","koaza":"","lat":34.645705,"lng":135.048634,"zip":"6550038"},{"town":"星陵台八丁目","koaza":"","lat":34.644369,"lng":135.04494,"zip":"6550038"},{"town":"清水が丘一丁目","koaza":"","lat":34.649261,"lng":135.044957,"zip":"6550031"},{"town":"本多聞六丁目","koaza":"","lat":34.650887,"lng":135.047514,"zip":"6550006"},{"town":"舞子陵","koaza":"","lat":34.646032,"lng":135.042263,"zip":"6550000"},{"town":"清水が丘二丁目","koaza":"","lat":34.649978,"lng":135.041386,"zip":"6550031"},{"town":"舞子坂二丁目","koaza":"","lat":34.645252,"lng":135.03602,"zip":"6550044"},{"town":"清水が丘三丁目","koaza":"","lat":34.650705,"lng":135.037688,"zip":"6550031"},{"town":"舞子坂一丁目","koaza":"","lat":34.644195,"lng":135.03327,"zip":"6550044"},{"town":"西舞子四丁目","koaza":"","lat":34.644006,"lng":135.029437,"zip":"6550048"},{"town":"舞子坂四丁目","koaza":"","lat":34.648922,"lng":135.035915,"zip":"6550044"},{"town":"舞子坂三丁目","koaza":"","lat":34.647499,"lng":135.033831,"zip":"6550044"},{"town":"西舞子九丁目","koaza":"","lat":34.647338,"lng":135.029686,"zip":"6550048"},{"town":"狩口台三丁目","koaza":"","lat":34.649538,"lng":135.030434,"zip":"6550049"},{"town":"南多聞台八丁目","koaza":"","lat":34.651367,"lng":135.030293,"zip":"6550043"},{"town":"西舞子八丁目","koaza":"","lat":34.647419,"lng":135.026411,"zip":"6550048"},{"town":"西舞子七丁目","koaza":"","lat":34.64494,"lng":135.025958,"zip":"6550048"},{"town":"狩口台二丁目","koaza":"","lat":34.650592,"lng":135.027686,"zip":"6550049"},{"town":"狩口台一丁目","koaza":"","lat":34.651647,"lng":135.026161,"zip":"6550049"},{"town":"西舞子六丁目","koaza":"","lat":34.643693,"lng":135.024749,"zip":"6550048"},{"town":"狩口台五丁目","koaza":"","lat":34.647868,"lng":135.023879,"zip":"6550049"},{"town":"狩口台四丁目","koaza":"","lat":34.648729,"lng":135.022764,"zip":"6550049"},{"town":"狩口台六丁目","koaza":"","lat":34.644763,"lng":135.020886,"zip":"6550049"},{"town":"学が丘三丁目","koaza":"","lat":34.655777,"lng":135.05623,"zip":"6550004"},{"town":"学が丘一丁目","koaza":"","lat":34.651611,"lng":135.051277,"zip":"6550004"},{"town":"学が丘二丁目","koaza":"","lat":34.656392,"lng":135.052606,"zip":"6550004"},{"town":"本多聞四丁目","koaza":"","lat":34.657604,"lng":135.049563,"zip":"6550006"},{"town":"本多聞五丁目","koaza":"","lat":34.653848,"lng":135.047373,"zip":"6550006"},{"town":"本多聞七丁目","koaza":"","lat":34.653213,"lng":135.043264,"zip":"6550006"},{"town":"本多聞一丁目","koaza":"","lat":34.653972,"lng":135.040125,"zip":"6550006"},{"town":"本多聞二丁目","koaza":"","lat":34.657997,"lng":135.044732,"zip":"6550006"},{"town":"多聞台二丁目","koaza":"","lat":34.658816,"lng":135.041938,"zip":"6550007"},{"town":"西脇一丁目","koaza":"","lat":34.65481,"lng":135.038602,"zip":"6550042"},{"town":"西脇二丁目","koaza":"","lat":34.657822,"lng":135.039565,"zip":"6550042"},{"town":"神陵台六丁目","koaza":"","lat":34.659267,"lng":135.037427,"zip":"6550041"},{"town":"南多聞台三丁目","koaza":"","lat":34.653249,"lng":135.035797,"zip":"6550043"},{"town":"神陵台五丁目","koaza":"","lat":34.656621,"lng":135.036376,"zip":"6550041"},{"town":"南多聞台四丁目","koaza":"","lat":34.65166,"lng":135.034154,"zip":"6550043"},{"town":"南多聞台五丁目","koaza":"","lat":34.65383,"lng":135.032355,"zip":"6550043"},{"town":"南多聞台二丁目","koaza":"","lat":34.65505,"lng":135.034099,"zip":"6550043"},{"town":"南多聞台六丁目","koaza":"","lat":34.655396,"lng":135.0311,"zip":"6550043"},{"town":"南多聞台七丁目","koaza":"","lat":34.653652,"lng":135.029538,"zip":"6550043"},{"town":"神陵台四丁目","koaza":"","lat":34.658845,"lng":135.034514,"zip":"6550041"},{"town":"南多聞台一丁目","koaza":"","lat":34.657208,"lng":135.032472,"zip":"6550043"},{"town":"神陵台一丁目","koaza":"","lat":34.65945,"lng":135.032323,"zip":"6550041"},{"town":"小束山本町一丁目","koaza":"","lat":34.662346,"lng":135.05787,"zip":"6550003"},{"town":"舞多聞東一丁目","koaza":"","lat":34.663112,"lng":135.056027,"zip":"6550052"},{"town":"学が丘四丁目","koaza":"","lat":34.659954,"lng":135.056103,"zip":"6550004"},{"town":"舞多聞東二丁目","koaza":"","lat":34.663409,"lng":135.0526,"zip":"6550052"},{"town":"本多聞三丁目","koaza":"","lat":34.660741,"lng":135.050908,"zip":"6550006"},{"town":"多聞台一丁目","koaza":"","lat":34.661749,"lng":135.045146,"zip":"6550007"},{"town":"多聞台四丁目","koaza":"","lat":34.662142,"lng":135.042729,"zip":"6550007"},{"town":"舞多聞西二丁目","koaza":"","lat":34.665454,"lng":135.045532,"zip":"6550051"},{"town":"多聞台五丁目","koaza":"","lat":34.665263,"lng":135.044234,"zip":"6550007"},{"town":"多聞台三丁目","koaza":"","lat":34.661994,"lng":135.039516,"zip":"6550007"},{"town":"神陵台三丁目","koaza":"","lat":34.660748,"lng":135.034187,"zip":"6550041"},{"town":"神陵台七丁目","koaza":"","lat":34.66154,"lng":135.036967,"zip":"6550041"},{"town":"神陵台八丁目","koaza":"","lat":34.66422,"lng":135.037557,"zip":"6550041"},{"town":"神陵台二丁目","koaza":"","lat":34.662562,"lng":135.034808,"zip":"6550041"},{"town":"桃山台七丁目","koaza":"","lat":34.660816,"lng":135.080623,"zip":"6550854"},{"town":"桃山台六丁目","koaza":"","lat":34.660652,"lng":135.084833,"zip":"6550854"},{"town":"つつじが丘五丁目","koaza":"","lat":34.661019,"lng":135.075148,"zip":"6550853"},{"town":"つつじが丘六丁目","koaza":"","lat":34.661217,"lng":135.077548,"zip":"6550853"},{"town":"小束山七丁目","koaza":"","lat":34.666651,"lng":135.060018,"zip":"6550002"},{"town":"つつじが丘七丁目","koaza":"","lat":34.663917,"lng":135.078037,"zip":"6550853"},{"town":"小束山本町四丁目","koaza":"","lat":34.665965,"lng":135.066056,"zip":"6550003"},{"town":"小束山四丁目","koaza":"","lat":34.667882,"lng":135.06529,"zip":"6550002"},{"town":"学が丘六丁目","koaza":"","lat":34.661331,"lng":135.060639,"zip":"6550004"},{"town":"小束山本町二丁目","koaza":"","lat":34.664528,"lng":135.059698,"zip":"6550003"},{"town":"小束山五丁目","koaza":"","lat":34.66691,"lng":135.06302,"zip":"6550002"},{"town":"学が丘七丁目","koaza":"","lat":34.662979,"lng":135.061727,"zip":"6550004"},{"town":"小束山本町三丁目","koaza":"","lat":34.664997,"lng":135.063422,"zip":"6550003"},{"town":"朝谷町","koaza":"","lat":34.650548,"lng":135.092523,"zip":"6550862"},{"town":"桃山台一丁目","koaza":"","lat":34.651808,"lng":135.079856,"zip":"6550854"},{"town":"桃山台五丁目","koaza":"","lat":34.658666,"lng":135.084852,"zip":"6550854"},{"town":"桃山台四丁目","koaza":"","lat":34.657966,"lng":135.080231,"zip":"6550854"},{"town":"清玄町","koaza":"","lat":34.653355,"lng":135.0921,"zip":"6550865"},{"town":"桃山台三丁目","koaza":"","lat":34.655023,"lng":135.081439,"zip":"6550854"},{"town":"つつじが丘三丁目","koaza":"","lat":34.65843,"lng":135.078463,"zip":"6550853"},{"town":"つつじが丘二丁目","koaza":"","lat":34.656851,"lng":135.07629,"zip":"6550853"},{"town":"桃山台二丁目","koaza":"","lat":34.652188,"lng":135.077653,"zip":"6550854"},{"town":"つつじが丘四丁目","koaza":"","lat":34.65922,"lng":135.076316,"zip":"6550853"},{"town":"つつじが丘一丁目","koaza":"","lat":34.655947,"lng":135.074284,"zip":"6550853"},{"town":"学が丘五丁目","koaza":"","lat":34.658331,"lng":135.059489,"zip":"6550004"},{"town":"潮見が丘二丁目","koaza":"","lat":34.652708,"lng":135.056205,"zip":"6550005"},{"town":"塩屋台三丁目","koaza":"","lat":34.642072,"lng":135.08723,"zip":"6550864"},{"town":"塩屋北町四丁目","koaza":"","lat":34.646362,"lng":135.090628,"zip":"6550863"},{"town":"塩屋台二丁目","koaza":"","lat":34.6438,"lng":135.086885,"zip":"6550864"},{"town":"塩屋北町三丁目","koaza":"","lat":34.645107,"lng":135.086065,"zip":"6550863"},{"town":"塩屋台一丁目","koaza":"","lat":34.642531,"lng":135.08368,"zip":"6550864"},{"town":"下畑町","koaza":"","lat":34.650689,"lng":135.084777,"zip":"6550861"},{"town":"塩屋町八丁目","koaza":"","lat":34.639674,"lng":135.079681,"zip":"6550872"},{"town":"松風台二丁目","koaza":"","lat":34.645386,"lng":135.077599,"zip":"6550871"},{"town":"塩屋北町二丁目","koaza":"","lat":34.647507,"lng":135.087948,"zip":"6550863"},{"town":"塩屋北町一丁目","koaza":"","lat":34.6474,"lng":135.084505,"zip":"6550863"},{"town":"松風台一丁目","koaza":"","lat":34.648016,"lng":135.080284,"zip":"6550871"},{"town":"千鳥が丘三丁目","koaza":"","lat":34.643643,"lng":135.059028,"zip":"6550011"},{"town":"青山台五丁目","koaza":"","lat":34.644225,"lng":135.074867,"zip":"6550873"},{"town":"青山台六丁目","koaza":"","lat":34.643709,"lng":135.071878,"zip":"6550873"},{"town":"青山台四丁目","koaza":"","lat":34.642088,"lng":135.072812,"zip":"6550873"},{"town":"青山台二丁目","koaza":"","lat":34.641561,"lng":135.075201,"zip":"6550873"},{"town":"青山台三丁目","koaza":"","lat":34.640878,"lng":135.072781,"zip":"6550873"},{"town":"千鳥が丘二丁目","koaza":"","lat":34.644954,"lng":135.061585,"zip":"6550011"},{"town":"潮見が丘一丁目","koaza":"","lat":34.649192,"lng":135.058895,"zip":"6550005"},{"town":"青山台七丁目","koaza":"","lat":34.645588,"lng":135.073019,"zip":"6550873"},{"town":"青山台八丁目","koaza":"","lat":34.647681,"lng":135.077001,"zip":"6550873"},{"town":"美山台二丁目","koaza":"","lat":34.641045,"lng":135.070209,"zip":"6550874"},{"town":"美山台三丁目","koaza":"","lat":34.644613,"lng":135.069392,"zip":"6550874"},{"town":"乙木二丁目","koaza":"","lat":34.640845,"lng":135.067996,"zip":"6550882"},{"town":"福田五丁目","koaza":"","lat":34.646606,"lng":135.067472,"zip":"6550013"},{"town":"東垂水町","koaza":"","lat":34.642796,"lng":135.067117,"zip":"6550881"},{"town":"福田二丁目","koaza":"","lat":34.642454,"lng":135.064538,"zip":"6550013"},{"town":"乙木三丁目","koaza":"","lat":34.640805,"lng":135.066237,"zip":"6550882"},{"town":"福田三丁目","koaza":"","lat":34.643996,"lng":135.065618,"zip":"6550013"},{"town":"福田四丁目","koaza":"","lat":34.645498,"lng":135.067023,"zip":"6550013"},{"town":"向陽三丁目","koaza":"","lat":34.646398,"lng":135.064781,"zip":"6550012"},{"town":"向陽二丁目","koaza":"","lat":34.644652,"lng":135.063698,"zip":"6550012"},{"town":"千鳥が丘一丁目","koaza":"","lat":34.644415,"lng":135.062217,"zip":"6550011"},{"town":"向陽一丁目","koaza":"","lat":34.642925,"lng":135.063059,"zip":"6550012"},{"town":"福田一丁目","koaza":"","lat":34.640472,"lng":135.0634,"zip":"6550013"},{"town":"高丸四丁目","koaza":"","lat":34.640069,"lng":135.060277,"zip":"6550016"},{"town":"塩屋町九丁目","koaza":"","lat":34.640615,"lng":135.082457,"zip":"6550872"},{"town":"塩屋町","koaza":"","lat":34.639764,"lng":135.087986,"zip":"6550872"},{"town":"塩屋町二丁目","koaza":"","lat":34.635473,"lng":135.088635,"zip":"6550872"},{"town":"塩屋町三丁目","koaza":"","lat":34.636389,"lng":135.083478,"zip":"6550872"},{"town":"塩屋町五丁目","koaza":"","lat":34.634139,"lng":135.07846,"zip":"6550872"},{"town":"塩屋町四丁目","koaza":"","lat":34.63539,"lng":135.081304,"zip":"6550872"},{"town":"塩屋町七丁目","koaza":"","lat":34.637125,"lng":135.077947,"zip":"6550872"},{"town":"塩屋町一丁目","koaza":"","lat":34.63286,"lng":135.081489,"zip":"6550872"},{"town":"美山台一丁目","koaza":"","lat":34.638605,"lng":135.070878,"zip":"6550874"},{"town":"東垂水三丁目","koaza":"","lat":34.638546,"lng":135.067047,"zip":"6550886"},{"town":"山手七丁目","koaza":"","lat":34.637845,"lng":135.064802,"zip":"6550891"},{"town":"大町五丁目","koaza":"","lat":34.638776,"lng":135.061287,"zip":"6550014"},{"town":"坂上二丁目","koaza":"","lat":34.630674,"lng":135.060114,"zip":"6550895"},{"town":"坂上一丁目","koaza":"","lat":34.629871,"lng":135.060024,"zip":"6550895"},{"town":"泉が丘二丁目","koaza":"","lat":34.630897,"lng":135.065035,"zip":"6550885"},{"town":"山手八丁目","koaza":"","lat":34.639894,"lng":135.065446,"zip":"6550891"},{"town":"清水通","koaza":"","lat":34.633644,"lng":135.058604,"zip":"6550023"},{"town":"坂上三丁目","koaza":"","lat":34.631599,"lng":135.060215,"zip":"6550895"},{"town":"大町三丁目","koaza":"","lat":34.637763,"lng":135.059627,"zip":"6550014"},{"town":"高丸三丁目","koaza":"","lat":34.637984,"lng":135.058411,"zip":"6550016"},{"town":"塩屋町六丁目","koaza":"","lat":34.634347,"lng":135.074434,"zip":"6550872"},{"town":"王居殿一丁目","koaza":"","lat":34.633613,"lng":135.07173,"zip":"6550883"},{"town":"城が山四丁目","koaza":"","lat":34.63322,"lng":135.068707,"zip":"6550884"},{"town":"城が山一丁目","koaza":"","lat":34.631733,"lng":135.07038,"zip":"6550884"},{"town":"城が山三丁目","koaza":"","lat":34.632058,"lng":135.068412,"zip":"6550884"},{"town":"城が山二丁目","koaza":"","lat":34.630583,"lng":135.068588,"zip":"6550884"},{"town":"泉が丘四丁目","koaza":"","lat":34.632573,"lng":135.066865,"zip":"6550885"},{"town":"平磯二丁目","koaza":"","lat":34.629139,"lng":135.061135,"zip":"6550892"},{"town":"泉が丘一丁目","koaza":"","lat":34.630228,"lng":135.066274,"zip":"6550885"},{"town":"平磯一丁目","koaza":"","lat":34.628261,"lng":135.06599,"zip":"6550892"},{"town":"泉が丘五丁目","koaza":"","lat":34.633762,"lng":135.065401,"zip":"6550885"},{"town":"泉が丘三丁目","koaza":"","lat":34.632431,"lng":135.065118,"zip":"6550885"},{"town":"山手四丁目","koaza":"","lat":34.633561,"lng":135.063466,"zip":"6550891"},{"town":"山手三丁目","koaza":"","lat":34.63211,"lng":135.063085,"zip":"6550891"},{"town":"山手二丁目","koaza":"","lat":34.63078,"lng":135.063047,"zip":"6550891"},{"town":"山手一丁目","koaza":"","lat":34.629766,"lng":135.063263,"zip":"6550891"},{"town":"中道四丁目","koaza":"","lat":34.632433,"lng":135.061455,"zip":"6550896"},{"town":"中道六丁目","koaza":"","lat":34.634587,"lng":135.062659,"zip":"6550896"},{"town":"中道三丁目","koaza":"","lat":34.631475,"lng":135.061463,"zip":"6550896"},{"town":"中道五丁目","koaza":"","lat":34.633357,"lng":135.06176,"zip":"6550896"},{"town":"瑞穂通","koaza":"","lat":34.634415,"lng":135.059456,"zip":"6550022"},{"town":"中道二丁目","koaza":"","lat":34.630485,"lng":135.061575,"zip":"6550896"},{"town":"中道一丁目","koaza":"","lat":34.629742,"lng":135.061028,"zip":"6550896"},{"town":"坂上五丁目","koaza":"","lat":34.633388,"lng":135.060549,"zip":"6550895"},{"town":"坂上四丁目","koaza":"","lat":34.632548,"lng":135.060325,"zip":"6550895"},{"town":"青山台一丁目","koaza":"","lat":34.638925,"lng":135.074264,"zip":"6550873"},{"town":"王居殿二丁目","koaza":"","lat":34.635782,"lng":135.071785,"zip":"6550883"},{"town":"王居殿三丁目","koaza":"","lat":34.635663,"lng":135.06954,"zip":"6550883"},{"town":"乙木一丁目","koaza":"","lat":34.638647,"lng":135.068865,"zip":"6550882"},{"town":"城が山五丁目","koaza":"","lat":34.634781,"lng":135.068243,"zip":"6550884"},{"town":"東垂水一丁目","koaza":"","lat":34.636029,"lng":135.067452,"zip":"6550886"},{"town":"東垂水二丁目","koaza":"","lat":34.636967,"lng":135.066106,"zip":"6550886"},{"town":"山手五丁目","koaza":"","lat":34.634831,"lng":135.064334,"zip":"6550891"},{"town":"馬場通","koaza":"","lat":34.635311,"lng":135.06051,"zip":"6550021"},{"town":"山手六丁目","koaza":"","lat":34.63597,"lng":135.063626,"zip":"6550891"},{"town":"大町一丁目","koaza":"","lat":34.637188,"lng":135.06334,"zip":"6550014"},{"town":"野田通","koaza":"","lat":34.636281,"lng":135.060497,"zip":"6550015"},{"town":"大町四丁目","koaza":"","lat":34.63878,"lng":135.063397,"zip":"6550014"},{"town":"大町二丁目","koaza":"","lat":34.637348,"lng":135.060931,"zip":"6550014"},{"town":"小束山手三丁目","koaza":"","lat":34.671906,"lng":135.062563,"zip":"6550009"},{"town":"小束台","koaza":"","lat":34.673657,"lng":135.050945,"zip":"6550008"},{"town":"神和台二丁目","koaza":"","lat":34.672285,"lng":135.07382,"zip":"6550851"},{"town":"神和台三丁目","koaza":"","lat":34.672943,"lng":135.070893,"zip":"6550851"},{"town":"小束台東","koaza":"","lat":34.672672,"lng":135.056714,"zip":"6550061"},{"town":"多聞町","koaza":"小束山","lat":34.668815,"lng":135.057545,"zip":"6550001"},{"town":"名谷町","koaza":"室山","lat":34.660774,"lng":135.065726,"zip":"6550852"},{"town":"名谷町","koaza":"猿倉","lat":34.648478,"lng":135.066808,"zip":"6550852"},{"town":"名谷町","koaza":"阿弥陀坊","lat":34.665493,"lng":135.070344,"zip":"6550852"},{"town":"名谷町","koaza":"丸屋","lat":34.654169,"lng":135.069543,"zip":"6550852"},{"town":"名谷町","koaza":"入野","lat":34.657191,"lng":135.070549,"zip":"6550852"},{"town":"名谷町","koaza":"寺池","lat":34.658109,"lng":135.070986,"zip":"6550852"},{"town":"名谷町","koaza":"横尾","lat":34.66309,"lng":135.073204,"zip":"6550852"},{"town":"名谷町","koaza":"湯屋谷","lat":34.669569,"lng":135.074274,"zip":"6550852"},{"town":"名谷町","koaza":"柄立原","lat":34.665889,"lng":135.073915,"zip":"6550852"},{"town":"名谷町","koaza":"梨原","lat":34.668418,"lng":135.075408,"zip":"6550852"},{"town":"名谷町","koaza":"春日手","lat":34.670854,"lng":135.076001,"zip":"6550852"},{"town":"名谷町","koaza":"賀市","lat":34.671475,"lng":135.077446,"zip":"6550852"},{"town":"下畑町","koaza":"岩原","lat":34.661742,"lng":135.081538,"zip":"6550861"},{"town":"下畑町","koaza":"嶽ヶ山","lat":34.662633,"lng":135.084033,"zip":"6550861"}]