[{"town":"御影三丁目","koaza":"","lat":34.721931,"lng":135.247407,"zip":"6580047"},{"town":"渦森台四丁目","koaza":"","lat":34.740452,"lng":135.246708,"zip":"6580066"},{"town":"渦森台三丁目","koaza":"","lat":34.738642,"lng":135.247655,"zip":"6580066"},{"town":"御影山手二丁目","koaza":"","lat":34.724623,"lng":135.246466,"zip":"6580065"},{"town":"御影山手三丁目","koaza":"","lat":34.729075,"lng":135.246738,"zip":"6580065"},{"town":"鴨子ケ原三丁目","koaza":"","lat":34.731524,"lng":135.248402,"zip":"6580064"},{"town":"御影山手四丁目","koaza":"","lat":34.727354,"lng":135.245856,"zip":"6580065"},{"town":"御影塚町二丁目","koaza":"","lat":34.71232,"lng":135.248452,"zip":"6580044"},{"town":"御影塚町三丁目","koaza":"","lat":34.709363,"lng":135.245978,"zip":"6580044"},{"town":"御影塚町四丁目","koaza":"","lat":34.71163,"lng":135.245085,"zip":"6580044"},{"town":"御影塚町一丁目","koaza":"","lat":34.709448,"lng":135.249388,"zip":"6580044"},{"town":"本山町森","koaza":"","lat":34.757463,"lng":135.269564,"zip":"6570111"},{"town":"魚崎浜町","koaza":"","lat":34.707036,"lng":135.280371,"zip":"6580024"},{"town":"深江浜町","koaza":"","lat":34.711386,"lng":135.298052,"zip":"6580023"},{"town":"住吉浜町","koaza":"","lat":34.704145,"lng":135.264167,"zip":"6580042"},{"town":"御影浜町","koaza":"","lat":34.704035,"lng":135.257509,"zip":"6580043"},{"town":"森北町五丁目","koaza":"","lat":34.734225,"lng":135.29104,"zip":"6580001"},{"town":"森北町七丁目","koaza":"","lat":34.73812,"lng":135.290246,"zip":"6580001"},{"town":"本山町中野","koaza":"","lat":34.739053,"lng":135.283792,"zip":"6580000"},{"town":"森北町六丁目","koaza":"","lat":34.73383,"lng":135.287703,"zip":"6580001"},{"town":"甲南台","koaza":"","lat":34.734349,"lng":135.285215,"zip":"6580002"},{"town":"本山町田中","koaza":"","lat":34.740741,"lng":135.261804,"zip":"6580061"},{"town":"住吉台","koaza":"","lat":34.739622,"lng":135.256869,"zip":"6580062"},{"town":"住吉山手七丁目","koaza":"","lat":34.734005,"lng":135.253763,"zip":"6580063"},{"town":"住吉山手八丁目","koaza":"","lat":34.737217,"lng":135.253063,"zip":"6580063"},{"town":"住吉山手九丁目","koaza":"","lat":34.741948,"lng":135.253199,"zip":"6580063"},{"town":"渦森台一丁目","koaza":"","lat":34.738867,"lng":135.251322,"zip":"6580066"},{"town":"渦森台二丁目","koaza":"","lat":34.737137,"lng":135.249831,"zip":"6580066"},{"town":"深江本町一丁目","koaza":"","lat":34.725112,"lng":135.299412,"zip":"6580021"},{"town":"深江北町一丁目","koaza":"","lat":34.726842,"lng":135.298543,"zip":"6580013"},{"town":"深江本町二丁目","koaza":"","lat":34.723781,"lng":135.296139,"zip":"6580021"},{"town":"森北町二丁目","koaza":"","lat":34.730501,"lng":135.28993,"zip":"6580001"},{"town":"本庄町一丁目","koaza":"","lat":34.727736,"lng":135.294186,"zip":"6580012"},{"town":"本山南町六丁目","koaza":"","lat":34.725392,"lng":135.287094,"zip":"6580015"},{"town":"本山中町二丁目","koaza":"","lat":34.727154,"lng":135.284896,"zip":"6580016"},{"town":"深江北町二丁目","koaza":"","lat":34.725376,"lng":135.295398,"zip":"6580013"},{"town":"森南町一丁目","koaza":"","lat":34.729839,"lng":135.29352,"zip":"6580011"},{"town":"深江北町四丁目","koaza":"","lat":34.72355,"lng":135.290513,"zip":"6580013"},{"town":"深江本町三丁目","koaza":"","lat":34.722314,"lng":135.2928,"zip":"6580021"},{"town":"深江北町三丁目","koaza":"","lat":34.724367,"lng":135.292696,"zip":"6580013"},{"town":"本庄町二丁目","koaza":"","lat":34.726772,"lng":135.291554,"zip":"6580012"},{"town":"本庄町三丁目","koaza":"","lat":34.726239,"lng":135.289212,"zip":"6580012"},{"town":"本山南町一丁目","koaza":"","lat":34.723493,"lng":135.287953,"zip":"6580015"},{"town":"本山南町七丁目","koaza":"","lat":34.724673,"lng":135.284693,"zip":"6580015"},{"town":"本山中町三丁目","koaza":"","lat":34.726496,"lng":135.282612,"zip":"6580016"},{"town":"本山北町二丁目","koaza":"","lat":34.728658,"lng":135.281903,"zip":"6580003"},{"town":"本山南町八丁目","koaza":"","lat":34.724081,"lng":135.282182,"zip":"6580015"},{"town":"森北町一丁目","koaza":"","lat":34.731477,"lng":135.292728,"zip":"6580001"},{"town":"森南町二丁目","koaza":"","lat":34.729244,"lng":135.29056,"zip":"6580011"},{"town":"森南町三丁目","koaza":"","lat":34.728351,"lng":135.288807,"zip":"6580011"},{"town":"森北町三丁目","koaza":"","lat":34.729816,"lng":135.287599,"zip":"6580001"},{"town":"本山北町四丁目","koaza":"","lat":34.731755,"lng":135.284344,"zip":"6580003"},{"town":"森北町四丁目","koaza":"","lat":34.731854,"lng":135.289467,"zip":"6580001"},{"town":"本山中町一丁目","koaza":"","lat":34.727877,"lng":135.287139,"zip":"6580016"},{"town":"本山北町一丁目","koaza":"","lat":34.729301,"lng":135.284898,"zip":"6580003"},{"town":"本山北町五丁目","koaza":"","lat":34.731311,"lng":135.280964,"zip":"6580003"},{"town":"本山町野寄","koaza":"","lat":34.734688,"lng":135.262066,"zip":"6580000"},{"town":"田中町二丁目","koaza":"","lat":34.724416,"lng":135.274647,"zip":"6580081"},{"town":"岡本二丁目","koaza":"","lat":34.727193,"lng":135.273373,"zip":"6580072"},{"town":"本山町北畑","koaza":"","lat":34.739042,"lng":135.279735,"zip":"6580005"},{"town":"岡本七丁目","koaza":"","lat":34.730794,"lng":135.271278,"zip":"6580072"},{"town":"田中町一丁目","koaza":"","lat":34.724898,"lng":135.27701,"zip":"6580081"},{"town":"本山中町四丁目","koaza":"","lat":34.725736,"lng":135.279826,"zip":"6580016"},{"town":"岡本一丁目","koaza":"","lat":34.727581,"lng":135.275726,"zip":"6580072"},{"town":"岡本三丁目","koaza":"","lat":34.726222,"lng":135.271262,"zip":"6580072"},{"town":"岡本四丁目","koaza":"","lat":34.726625,"lng":135.268526,"zip":"6580072"},{"town":"西岡本一丁目","koaza":"","lat":34.723925,"lng":135.268776,"zip":"6580073"},{"town":"西岡本三丁目","koaza":"","lat":34.72557,"lng":135.265596,"zip":"6580073"},{"town":"本山北町三丁目","koaza":"","lat":34.728188,"lng":135.278782,"zip":"6580003"},{"town":"本山北町六丁目","koaza":"","lat":34.731135,"lng":135.277824,"zip":"6580003"},{"town":"本山町田辺","koaza":"","lat":34.738086,"lng":135.275352,"zip":"6580004"},{"town":"岡本五丁目","koaza":"","lat":34.730646,"lng":135.275198,"zip":"6580072"},{"town":"岡本六丁目","koaza":"","lat":34.732738,"lng":135.273726,"zip":"6580072"},{"town":"岡本八丁目","koaza":"","lat":34.729608,"lng":135.269099,"zip":"6580072"},{"town":"本山町岡本","koaza":"","lat":34.740978,"lng":135.269441,"zip":"6580071"},{"town":"岡本九丁目","koaza":"","lat":34.728861,"lng":135.266537,"zip":"6580072"},{"town":"西岡本六丁目","koaza":"","lat":34.729709,"lng":135.262218,"zip":"6580073"},{"town":"西岡本四丁目","koaza":"","lat":34.727041,"lng":135.264362,"zip":"6580073"},{"town":"住吉山手一丁目","koaza":"","lat":34.726386,"lng":135.259897,"zip":"6580063"},{"town":"住吉山手五丁目","koaza":"","lat":34.731071,"lng":135.254619,"zip":"6580063"},{"town":"鴨子ケ原一丁目","koaza":"","lat":34.728017,"lng":135.250983,"zip":"6580064"},{"town":"西岡本五丁目","koaza":"","lat":34.728277,"lng":135.263312,"zip":"6580073"},{"town":"住吉本町三丁目","koaza":"","lat":34.723946,"lng":135.260089,"zip":"6580051"},{"town":"御影郡家二丁目","koaza":"","lat":34.723397,"lng":135.254885,"zip":"6580048"},{"town":"住吉山手二丁目","koaza":"","lat":34.726111,"lng":135.256331,"zip":"6580063"},{"town":"御影二丁目","koaza":"","lat":34.72288,"lng":135.250769,"zip":"6580047"},{"town":"御影山手一丁目","koaza":"","lat":34.725762,"lng":135.252019,"zip":"6580065"},{"town":"住吉山手六丁目","koaza":"","lat":34.733024,"lng":135.256742,"zip":"6580063"},{"town":"西岡本七丁目","koaza":"","lat":34.732096,"lng":135.26112,"zip":"6580073"},{"town":"住吉山手三丁目","koaza":"","lat":34.72861,"lng":135.259232,"zip":"6580063"},{"town":"住吉山手四丁目","koaza":"","lat":34.728315,"lng":135.255263,"zip":"6580063"},{"town":"鴨子ケ原二丁目","koaza":"","lat":34.732869,"lng":135.251195,"zip":"6580064"},{"town":"深江南町二丁目","koaza":"","lat":34.721889,"lng":135.298828,"zip":"6580022"},{"town":"深江南町三丁目","koaza":"","lat":34.721634,"lng":135.296697,"zip":"6580022"},{"town":"深江南町四丁目","koaza":"","lat":34.720747,"lng":135.293989,"zip":"6580022"},{"town":"深江南町一丁目","koaza":"","lat":34.722097,"lng":135.301182,"zip":"6580022"},{"town":"深江南町五丁目","koaza":"","lat":34.719034,"lng":135.290296,"zip":"6580022"},{"town":"本山南町二丁目","koaza":"","lat":34.722764,"lng":135.285559,"zip":"6580015"},{"town":"北青木二丁目","koaza":"","lat":34.719982,"lng":135.283605,"zip":"6580014"},{"town":"本山南町三丁目","koaza":"","lat":34.72193,"lng":135.282732,"zip":"6580015"},{"town":"青木二丁目","koaza":"","lat":34.715755,"lng":135.28512,"zip":"6580027"},{"town":"深江本町四丁目","koaza":"","lat":34.721261,"lng":135.290163,"zip":"6580021"},{"town":"深江北町五丁目","koaza":"","lat":34.72206,"lng":135.288581,"zip":"6580013"},{"town":"青木四丁目","koaza":"","lat":34.719883,"lng":135.287497,"zip":"6580027"},{"town":"北青木一丁目","koaza":"","lat":34.721206,"lng":135.286248,"zip":"6580014"},{"town":"青木一丁目","koaza":"","lat":34.715814,"lng":135.289415,"zip":"6580027"},{"town":"青木五丁目","koaza":"","lat":34.71813,"lng":135.284292,"zip":"6580027"},{"town":"青木三丁目","koaza":"","lat":34.714681,"lng":135.281745,"zip":"6580027"},{"town":"魚崎南町一丁目","koaza":"","lat":34.712639,"lng":135.279981,"zip":"6580025"},{"town":"北青木三丁目","koaza":"","lat":34.718416,"lng":135.281237,"zip":"6580014"},{"town":"本山南町四丁目","koaza":"","lat":34.721099,"lng":135.279955,"zip":"6580015"},{"town":"青木六丁目","koaza":"","lat":34.71621,"lng":135.281,"zip":"6580027"},{"town":"北青木四丁目","koaza":"","lat":34.717872,"lng":135.278815,"zip":"6580014"},{"town":"本山南町九丁目","koaza":"","lat":34.723147,"lng":135.279056,"zip":"6580015"},{"town":"本山南町五丁目","koaza":"","lat":34.720491,"lng":135.276989,"zip":"6580015"},{"town":"甲南町一丁目","koaza":"","lat":34.722306,"lng":135.277489,"zip":"6580084"},{"town":"甲南町二丁目","koaza":"","lat":34.721946,"lng":135.275601,"zip":"6580084"},{"town":"魚崎南町二丁目","koaza":"","lat":34.711457,"lng":135.277549,"zip":"6580025"},{"town":"魚崎南町三丁目","koaza":"","lat":34.710389,"lng":135.274886,"zip":"6580025"},{"town":"魚崎南町四丁目","koaza":"","lat":34.709809,"lng":135.272379,"zip":"6580025"},{"town":"住吉東町三丁目","koaza":"","lat":34.714923,"lng":135.265896,"zip":"6580052"},{"town":"田中町四丁目","koaza":"","lat":34.722706,"lng":135.270304,"zip":"6580081"},{"town":"田中町三丁目","koaza":"","lat":34.723461,"lng":135.272516,"zip":"6580081"},{"town":"魚崎南町六丁目","koaza":"","lat":34.714795,"lng":135.278807,"zip":"6580025"},{"town":"魚崎南町七丁目","koaza":"","lat":34.713365,"lng":135.274474,"zip":"6580025"},{"town":"魚崎中町一丁目","koaza":"","lat":34.715795,"lng":135.277463,"zip":"6580083"},{"town":"魚崎中町二丁目","koaza":"","lat":34.715219,"lng":135.275029,"zip":"6580083"},{"town":"魚崎中町三丁目","koaza":"","lat":34.714674,"lng":135.273103,"zip":"6580083"},{"town":"魚崎中町四丁目","koaza":"","lat":34.71409,"lng":135.27061,"zip":"6580083"},{"town":"魚崎西町四丁目","koaza":"","lat":34.712814,"lng":135.267031,"zip":"6580026"},{"town":"魚崎北町一丁目","koaza":"","lat":34.717779,"lng":135.276317,"zip":"6580082"},{"town":"魚崎北町二丁目","koaza":"","lat":34.717284,"lng":135.274065,"zip":"6580082"},{"town":"魚崎北町五丁目","koaza":"","lat":34.719793,"lng":135.275373,"zip":"6580082"},{"town":"甲南町三丁目","koaza":"","lat":34.721101,"lng":135.273564,"zip":"6580084"},{"town":"魚崎北町六丁目","koaza":"","lat":34.719242,"lng":135.27315,"zip":"6580082"},{"town":"魚崎北町七丁目","koaza":"","lat":34.718527,"lng":135.271223,"zip":"6580082"},{"town":"魚崎北町三丁目","koaza":"","lat":34.716536,"lng":135.272116,"zip":"6580082"},{"town":"甲南町四丁目","koaza":"","lat":34.720545,"lng":135.270973,"zip":"6580084"},{"town":"魚崎北町四丁目","koaza":"","lat":34.716807,"lng":135.269588,"zip":"6580082"},{"town":"魚崎北町八丁目","koaza":"","lat":34.718815,"lng":135.268739,"zip":"6580082"},{"town":"甲南町五丁目","koaza":"","lat":34.720219,"lng":135.268121,"zip":"6580084"},{"town":"住吉東町一丁目","koaza":"","lat":34.715334,"lng":135.267707,"zip":"6580052"},{"town":"住吉東町二丁目","koaza":"","lat":34.718333,"lng":135.266431,"zip":"6580052"},{"town":"田中町五丁目","koaza":"","lat":34.721597,"lng":135.268237,"zip":"6580081"},{"town":"西岡本二丁目","koaza":"","lat":34.723741,"lng":135.265535,"zip":"6580073"},{"town":"住吉東町四丁目","koaza":"","lat":34.717923,"lng":135.264295,"zip":"6580052"},{"town":"住吉東町五丁目","koaza":"","lat":34.71995,"lng":135.265002,"zip":"6580052"},{"town":"住吉宮町一丁目","koaza":"","lat":34.713037,"lng":135.263537,"zip":"6580053"},{"town":"住吉本町一丁目","koaza":"","lat":34.721512,"lng":135.262963,"zip":"6580051"},{"town":"御影中町四丁目","koaza":"","lat":34.718107,"lng":135.254252,"zip":"6580054"},{"town":"御影一丁目","koaza":"","lat":34.720175,"lng":135.249919,"zip":"6580047"},{"town":"住吉宮町二丁目","koaza":"","lat":34.714634,"lng":135.263176,"zip":"6580053"},{"town":"住吉宮町五丁目","koaza":"","lat":34.713955,"lng":135.260297,"zip":"6580053"},{"town":"御影石町三丁目","koaza":"","lat":34.71485,"lng":135.250817,"zip":"6580045"},{"town":"住吉宮町四丁目","koaza":"","lat":34.718869,"lng":135.261866,"zip":"6580053"},{"town":"住吉宮町三丁目","koaza":"","lat":34.71702,"lng":135.262225,"zip":"6580053"},{"town":"住吉宮町六丁目","koaza":"","lat":34.716384,"lng":135.259327,"zip":"6580053"},{"town":"住吉宮町七丁目","koaza":"","lat":34.71831,"lng":135.258801,"zip":"6580053"},{"town":"御影郡家一丁目","koaza":"","lat":34.720681,"lng":135.254783,"zip":"6580048"},{"town":"住吉本町二丁目","koaza":"","lat":34.720837,"lng":135.258899,"zip":"6580051"},{"town":"御影中町一丁目","koaza":"","lat":34.715724,"lng":135.25715,"zip":"6580054"},{"town":"御影中町二丁目","koaza":"","lat":34.718263,"lng":135.25613,"zip":"6580054"},{"town":"御影中町三丁目","koaza":"","lat":34.716127,"lng":135.255031,"zip":"6580054"},{"town":"御影中町五丁目","koaza":"","lat":34.71574,"lng":135.253616,"zip":"6580054"},{"town":"御影中町六丁目","koaza":"","lat":34.717967,"lng":135.252725,"zip":"6580054"},{"town":"御影中町七丁目","koaza":"","lat":34.715407,"lng":135.252521,"zip":"6580054"},{"town":"御影中町八丁目","koaza":"","lat":34.717825,"lng":135.251473,"zip":"6580054"},{"town":"御影石町四丁目","koaza":"","lat":34.7174,"lng":135.249881,"zip":"6580045"},{"town":"魚崎南町五丁目","koaza":"","lat":34.709016,"lng":135.270079,"zip":"6580025"},{"town":"魚崎南町八丁目","koaza":"","lat":34.712427,"lng":135.270991,"zip":"6580025"},{"town":"魚崎西町三丁目","koaza":"","lat":34.71187,"lng":135.267768,"zip":"6580026"},{"town":"魚崎西町二丁目","koaza":"","lat":34.710405,"lng":135.267347,"zip":"6580026"},{"town":"住吉南町一丁目","koaza":"","lat":34.708412,"lng":135.263951,"zip":"6580041"},{"town":"魚崎西町一丁目","koaza":"","lat":34.708019,"lng":135.266983,"zip":"6580026"},{"town":"御影本町三丁目","koaza":"","lat":34.709434,"lng":135.257226,"zip":"6580046"},{"town":"御影本町五丁目","koaza":"","lat":34.70961,"lng":135.2559,"zip":"6580046"},{"town":"御影本町八丁目","koaza":"","lat":34.712753,"lng":135.253711,"zip":"6580046"},{"town":"御影本町二丁目","koaza":"","lat":34.713066,"lng":135.258072,"zip":"6580046"},{"town":"御影本町六丁目","koaza":"","lat":34.712955,"lng":135.25497,"zip":"6580046"},{"town":"御影石町二丁目","koaza":"","lat":34.712593,"lng":135.251612,"zip":"6580045"},{"town":"住吉南町二丁目","koaza":"","lat":34.710437,"lng":135.264211,"zip":"6580041"},{"town":"住吉南町四丁目","koaza":"","lat":34.709381,"lng":135.261421,"zip":"6580041"},{"town":"住吉南町三丁目","koaza":"","lat":34.711935,"lng":135.263313,"zip":"6580041"},{"town":"住吉南町五丁目","koaza":"","lat":34.712238,"lng":135.260943,"zip":"6580041"},{"town":"御影本町一丁目","koaza":"","lat":34.70943,"lng":135.259158,"zip":"6580046"},{"town":"御影本町四丁目","koaza":"","lat":34.71327,"lng":135.256073,"zip":"6580046"},{"town":"御影本町七丁目","koaza":"","lat":34.709788,"lng":135.254648,"zip":"6580046"},{"town":"御影石町一丁目","koaza":"","lat":34.709601,"lng":135.252659,"zip":"6580045"},{"town":"向洋町東二丁目","koaza":"","lat":34.694738,"lng":135.2818,"zip":"6580031"},{"town":"向洋町東一丁目","koaza":"","lat":34.695777,"lng":135.270832,"zip":"6580031"},{"town":"向洋町西一丁目","koaza":"","lat":34.695517,"lng":135.266244,"zip":"6580033"},{"town":"向洋町中四丁目","koaza":"","lat":34.684448,"lng":135.273306,"zip":"6580032"},{"town":"向洋町中三丁目","koaza":"","lat":34.686637,"lng":135.272952,"zip":"6580032"},{"town":"向洋町中八丁目","koaza":"","lat":34.683717,"lng":135.266986,"zip":"6580032"},{"town":"向洋町中七丁目","koaza":"","lat":34.685828,"lng":135.266003,"zip":"6580032"},{"town":"向洋町東三丁目","koaza":"","lat":34.694079,"lng":135.278714,"zip":"6580031"},{"town":"向洋町中二丁目","koaza":"","lat":34.689498,"lng":135.272694,"zip":"6580032"},{"town":"向洋町中一丁目","koaza":"","lat":34.692053,"lng":135.272054,"zip":"6580032"},{"town":"向洋町中六丁目","koaza":"","lat":34.688439,"lng":135.26621,"zip":"6580032"},{"town":"向洋町中五丁目","koaza":"","lat":34.691815,"lng":135.265543,"zip":"6580032"},{"town":"向洋町西六丁目","koaza":"","lat":34.683338,"lng":135.258839,"zip":"6580033"},{"town":"向洋町西五丁目","koaza":"","lat":34.688985,"lng":135.261889,"zip":"6580033"},{"town":"向洋町西三丁目","koaza":"","lat":34.691309,"lng":135.25371,"zip":"6580033"},{"town":"向洋町西四丁目","koaza":"","lat":34.689451,"lng":135.257426,"zip":"6580033"},{"town":"向洋町西二丁目","koaza":"","lat":34.693759,"lng":135.259536,"zip":"6580033"},{"town":"向洋町中九丁目","koaza":"","lat":34.681163,"lng":135.268459,"zip":"6580032"},{"town":"向洋町東四丁目","koaza":"","lat":34.68502,"lng":135.283205,"zip":"6580031"},{"town":"御影山手五丁目","koaza":"","lat":34.726573,"lng":135.243568,"zip":"6580065"},{"town":"御影山手六丁目","koaza":"","lat":34.730575,"lng":135.244114,"zip":"6580065"}]