[{"town":"桜森町","koaza":"","lat":34.743738,"lng":135.173906,"zip":"6511214"},{"town":"山田町東下","koaza":"","lat":34.7614,"lng":135.119754,"zip":"6511262"},{"town":"ひよどり台南町四丁目","koaza":"","lat":34.691558,"lng":135.122422,"zip":"6511125"},{"town":"ひよどり台南町三丁目","koaza":"","lat":34.689559,"lng":135.12006,"zip":"6511125"},{"town":"ひよどり台南町二丁目","koaza":"","lat":34.688913,"lng":135.122732,"zip":"6511125"},{"town":"ひよどり台一丁目","koaza":"","lat":34.694667,"lng":135.121441,"zip":"6511123"},{"town":"ひよどり台三丁目","koaza":"","lat":34.69812,"lng":135.124268,"zip":"6511123"},{"town":"星和台七丁目","koaza":"","lat":34.724092,"lng":135.121072,"zip":"6511121"},{"town":"星和台六丁目","koaza":"","lat":34.722671,"lng":135.122708,"zip":"6511121"},{"town":"有野町唐櫃","koaza":"","lat":34.781502,"lng":135.225979,"zip":"6511331"},{"town":"有馬町","koaza":"","lat":34.789225,"lng":135.255196,"zip":"6511401"},{"town":"山田町上谷上","koaza":"","lat":34.759717,"lng":135.192908,"zip":"6511242"},{"town":"小倉台三丁目","koaza":"","lat":34.753455,"lng":135.166987,"zip":"6511211"},{"town":"小倉台七丁目","koaza":"","lat":34.752045,"lng":135.17109,"zip":"6511211"},{"town":"小倉台一丁目","koaza":"","lat":34.754044,"lng":135.16386,"zip":"6511211"},{"town":"緑町四丁目","koaza":"","lat":34.752571,"lng":135.149629,"zip":"6511221"},{"town":"桂木四丁目","koaza":"","lat":34.753232,"lng":135.147196,"zip":"6511223"},{"town":"桂木三丁目","koaza":"","lat":34.753004,"lng":135.143966,"zip":"6511223"},{"town":"山田町原野","koaza":"","lat":34.766309,"lng":135.143237,"zip":"6511252"},{"town":"日の峰二丁目","koaza":"","lat":34.754715,"lng":135.141953,"zip":"6511233"},{"town":"山田町中","koaza":"","lat":34.77234,"lng":135.129498,"zip":"6511253"},{"town":"山田町小河","koaza":"","lat":34.749125,"lng":135.100783,"zip":"6511105"},{"town":"山田町西下","koaza":"","lat":34.756688,"lng":135.108599,"zip":"6511263"},{"town":"山田町坂本","koaza":"","lat":34.780511,"lng":135.114776,"zip":"6511261"},{"town":"淡河町野瀬","koaza":"","lat":34.801654,"lng":135.153856,"zip":"6511623"},{"town":"淡河町萩原","koaza":"","lat":34.810432,"lng":135.109188,"zip":"6511615"},{"town":"淡河町木津","koaza":"","lat":34.810559,"lng":135.118847,"zip":"6511614"},{"town":"淡河町行原","koaza":"","lat":34.812832,"lng":135.125174,"zip":"6511613"},{"town":"淡河町北畑","koaza":"","lat":34.826978,"lng":135.122753,"zip":"6511616"},{"town":"淡河町南僧尾","koaza":"","lat":34.829116,"lng":135.109207,"zip":"6511602"},{"town":"淡河町北僧尾","koaza":"","lat":34.836076,"lng":135.116654,"zip":"6511601"},{"town":"京地三丁目","koaza":"","lat":34.83723,"lng":135.211364,"zip":"6511304"},{"town":"道場町塩田","koaza":"","lat":34.865533,"lng":135.237089,"zip":"6511502"},{"town":"道場町生野","koaza":"","lat":34.864133,"lng":135.268285,"zip":"6691161"},{"town":"有野町有野","koaza":"","lat":34.816201,"lng":135.223084,"zip":"6511312"},{"town":"有野町二郎","koaza":"","lat":34.845818,"lng":135.227001,"zip":"6511311"},{"town":"西山一丁目","koaza":"","lat":34.836958,"lng":135.218485,"zip":"6511305"},{"town":"京地二丁目","koaza":"","lat":34.837149,"lng":135.214519,"zip":"6511304"},{"town":"八多町上小名田","koaza":"","lat":34.835567,"lng":135.196431,"zip":"6511354"},{"town":"八多町吉尾","koaza":"","lat":34.827327,"lng":135.209788,"zip":"6511353"},{"town":"大沢町神付","koaza":"","lat":34.837034,"lng":135.181061,"zip":"6511523"},{"town":"大沢町中大沢","koaza":"","lat":34.847893,"lng":135.161989,"zip":"6511524"},{"town":"大沢町上大沢","koaza":"","lat":34.849402,"lng":135.184629,"zip":"6511522"},{"town":"八多町西畑","koaza":"","lat":34.828918,"lng":135.170298,"zip":"6511345"},{"town":"淡河町神影","koaza":"","lat":34.832175,"lng":135.142093,"zip":"6511621"},{"town":"淡河町神田","koaza":"","lat":34.831777,"lng":135.156388,"zip":"6511622"},{"town":"ひよどり台南町一丁目","koaza":"","lat":34.689325,"lng":135.124481,"zip":"6511125"},{"town":"ひよどり台四丁目","koaza":"","lat":34.698438,"lng":135.128764,"zip":"6511123"},{"town":"中里町二丁目","koaza":"","lat":34.714243,"lng":135.154523,"zip":"6511103"},{"town":"鈴蘭台南町九丁目","koaza":"","lat":34.717403,"lng":135.146445,"zip":"6511113"},{"town":"君影町四丁目","koaza":"","lat":34.715532,"lng":135.140535,"zip":"6511122"},{"town":"君影町五丁目","koaza":"","lat":34.717947,"lng":135.140964,"zip":"6511122"},{"town":"君影町二丁目","koaza":"","lat":34.715007,"lng":135.137965,"zip":"6511122"},{"town":"君影町三丁目","koaza":"","lat":34.717482,"lng":135.138084,"zip":"6511122"},{"town":"君影町一丁目","koaza":"","lat":34.716825,"lng":135.13457,"zip":"6511122"},{"town":"星和台二丁目","koaza":"","lat":34.716357,"lng":135.13142,"zip":"6511121"},{"town":"星和台三丁目","koaza":"","lat":34.718073,"lng":135.124866,"zip":"6511121"},{"town":"鈴蘭台北町八丁目","koaza":"","lat":34.72554,"lng":135.157116,"zip":"6511111"},{"town":"中里町一丁目","koaza":"","lat":34.718391,"lng":135.156068,"zip":"6511103"},{"town":"鈴蘭台東町九丁目","koaza":"","lat":34.72212,"lng":135.157059,"zip":"6511112"},{"town":"鈴蘭台東町八丁目","koaza":"","lat":34.7228,"lng":135.153883,"zip":"6511112"},{"town":"鈴蘭台東町七丁目","koaza":"","lat":34.724957,"lng":135.154673,"zip":"6511112"},{"town":"鈴蘭台東町六丁目","koaza":"","lat":34.723698,"lng":135.152511,"zip":"6511112"},{"town":"鈴蘭台東町三丁目","koaza":"","lat":34.722574,"lng":135.150178,"zip":"6511112"},{"town":"鈴蘭台東町四丁目","koaza":"","lat":34.723478,"lng":135.149089,"zip":"6511112"},{"town":"鈴蘭台北町九丁目","koaza":"","lat":34.728499,"lng":135.158819,"zip":"6511111"},{"town":"鈴蘭台北町七丁目","koaza":"","lat":34.727353,"lng":135.156007,"zip":"6511111"},{"town":"惣山町四丁目","koaza":"","lat":34.733357,"lng":135.156715,"zip":"6511145"},{"town":"鈴蘭台東町五丁目","koaza":"","lat":34.725479,"lng":135.150984,"zip":"6511112"},{"town":"鈴蘭台北町五丁目","koaza":"","lat":34.727669,"lng":135.152097,"zip":"6511111"},{"town":"鈴蘭台北町六丁目","koaza":"","lat":34.729596,"lng":135.152431,"zip":"6511111"},{"town":"鈴蘭台北町四丁目","koaza":"","lat":34.726473,"lng":135.14993,"zip":"6511111"},{"town":"鈴蘭台北町三丁目","koaza":"","lat":34.729546,"lng":135.149097,"zip":"6511111"},{"town":"惣山町三丁目","koaza":"","lat":34.735019,"lng":135.153976,"zip":"6511145"},{"town":"鈴蘭台南町八丁目","koaza":"","lat":34.716991,"lng":135.144969,"zip":"6511113"},{"town":"鈴蘭台東町二丁目","koaza":"","lat":34.720506,"lng":135.148887,"zip":"6511112"},{"town":"鈴蘭台東町一丁目","koaza":"","lat":34.721841,"lng":135.147119,"zip":"6511112"},{"town":"鈴蘭台北町一丁目","koaza":"","lat":34.726001,"lng":135.147259,"zip":"6511111"},{"town":"鈴蘭台南町七丁目","koaza":"","lat":34.720191,"lng":135.144879,"zip":"6511113"},{"town":"鈴蘭台南町六丁目","koaza":"","lat":34.721932,"lng":135.144029,"zip":"6511113"},{"town":"鈴蘭台南町一丁目","koaza":"","lat":34.723792,"lng":135.144121,"zip":"6511113"},{"town":"君影町六丁目","koaza":"","lat":34.719308,"lng":135.140998,"zip":"6511122"},{"town":"南五葉六丁目","koaza":"","lat":34.720256,"lng":135.139021,"zip":"6511132"},{"town":"鈴蘭台南町五丁目","koaza":"","lat":34.721416,"lng":135.141824,"zip":"6511113"},{"town":"鈴蘭台南町二丁目","koaza":"","lat":34.724312,"lng":135.140476,"zip":"6511113"},{"town":"南五葉四丁目","koaza":"","lat":34.719215,"lng":135.135479,"zip":"6511132"},{"town":"南五葉五丁目","koaza":"","lat":34.722,"lng":135.136909,"zip":"6511132"},{"town":"鈴蘭台南町四丁目","koaza":"","lat":34.723521,"lng":135.13783,"zip":"6511113"},{"town":"鈴蘭台北町二丁目","koaza":"","lat":34.728042,"lng":135.146111,"zip":"6511111"},{"town":"鈴蘭台南町三丁目","koaza":"","lat":34.725225,"lng":135.138002,"zip":"6511113"},{"town":"鈴蘭台西町一丁目","koaza":"","lat":34.72623,"lng":135.143469,"zip":"6511114"},{"town":"鈴蘭台西町六丁目","koaza":"","lat":34.731738,"lng":135.146042,"zip":"6511114"},{"town":"鈴蘭台西町四丁目","koaza":"","lat":34.728943,"lng":135.14311,"zip":"6511114"},{"town":"鈴蘭台西町五丁目","koaza":"","lat":34.730855,"lng":135.143003,"zip":"6511114"},{"town":"鈴蘭台西町二丁目","koaza":"","lat":34.727143,"lng":135.139092,"zip":"6511114"},{"town":"鈴蘭台西町三丁目","koaza":"","lat":34.729241,"lng":135.139636,"zip":"6511114"},{"town":"北五葉七丁目","koaza":"","lat":34.730401,"lng":135.138744,"zip":"6511131"},{"town":"北五葉六丁目","koaza":"","lat":34.73275,"lng":135.139199,"zip":"6511131"},{"town":"北五葉三丁目","koaza":"","lat":34.730446,"lng":135.136168,"zip":"6511131"},{"town":"南五葉三丁目","koaza":"","lat":34.720771,"lng":135.133236,"zip":"6511132"},{"town":"南五葉一丁目","koaza":"","lat":34.724237,"lng":135.134805,"zip":"6511132"},{"town":"北五葉一丁目","koaza":"","lat":34.727239,"lng":135.135279,"zip":"6511131"},{"town":"鳴子一丁目","koaza":"","lat":34.724081,"lng":135.128978,"zip":"6511133"},{"town":"鳴子二丁目","koaza":"","lat":34.722923,"lng":135.126661,"zip":"6511133"},{"town":"鳴子三丁目","koaza":"","lat":34.725786,"lng":135.127353,"zip":"6511133"},{"town":"南五葉二丁目","koaza":"","lat":34.724199,"lng":135.131665,"zip":"6511132"},{"town":"北五葉二丁目","koaza":"","lat":34.728888,"lng":135.131855,"zip":"6511131"},{"town":"北五葉五丁目","koaza":"","lat":34.734035,"lng":135.136212,"zip":"6511131"},{"town":"北五葉四丁目","koaza":"","lat":34.733451,"lng":135.13305,"zip":"6511131"},{"town":"筑紫が丘六丁目","koaza":"","lat":34.741694,"lng":135.164114,"zip":"6511212"},{"town":"筑紫が丘五丁目","koaza":"","lat":34.741662,"lng":135.161279,"zip":"6511212"},{"town":"筑紫が丘八丁目","koaza":"","lat":34.743879,"lng":135.168314,"zip":"6511212"},{"town":"筑紫が丘九丁目","koaza":"","lat":34.745741,"lng":135.16936,"zip":"6511212"},{"town":"小倉台六丁目","koaza":"","lat":34.748838,"lng":135.17145,"zip":"6511211"},{"town":"小倉台五丁目","koaza":"","lat":34.749345,"lng":135.16892,"zip":"6511211"},{"town":"小倉台四丁目","koaza":"","lat":34.751415,"lng":135.168515,"zip":"6511211"},{"town":"筑紫が丘七丁目","koaza":"","lat":34.742833,"lng":135.165878,"zip":"6511212"},{"town":"筑紫が丘四丁目","koaza":"","lat":34.746037,"lng":135.166254,"zip":"6511212"},{"town":"筑紫が丘三丁目","koaza":"","lat":34.744671,"lng":135.16283,"zip":"6511212"},{"town":"筑紫が丘一丁目","koaza":"","lat":34.746159,"lng":135.161505,"zip":"6511212"},{"town":"筑紫が丘二丁目","koaza":"","lat":34.748339,"lng":135.166062,"zip":"6511212"},{"town":"小倉台二丁目","koaza":"","lat":34.750941,"lng":135.165417,"zip":"6511211"},{"town":"広陵町五丁目","koaza":"","lat":34.749117,"lng":135.163405,"zip":"6511213"},{"town":"広陵町四丁目","koaza":"","lat":34.751399,"lng":135.162759,"zip":"6511213"},{"town":"広陵町三丁目","koaza":"","lat":34.750382,"lng":135.161045,"zip":"6511213"},{"town":"大脇台","koaza":"","lat":34.7387,"lng":135.161621,"zip":"6511144"},{"town":"山田町小部","koaza":"","lat":34.732713,"lng":135.162901,"zip":"6511101"},{"town":"惣山町五丁目","koaza":"","lat":34.736601,"lng":135.157265,"zip":"6511145"},{"town":"若葉台三丁目","koaza":"","lat":34.738394,"lng":135.157752,"zip":"6511143"},{"town":"若葉台二丁目","koaza":"","lat":34.740851,"lng":135.157155,"zip":"6511143"},{"town":"惣山町二丁目","koaza":"","lat":34.736878,"lng":135.153968,"zip":"6511145"},{"town":"惣山町一丁目","koaza":"","lat":34.73391,"lng":135.151279,"zip":"6511145"},{"town":"若葉台四丁目","koaza":"","lat":34.73874,"lng":135.153049,"zip":"6511143"},{"town":"若葉台一丁目","koaza":"","lat":34.740855,"lng":135.153727,"zip":"6511143"},{"town":"甲栄台五丁目","koaza":"","lat":34.737593,"lng":135.149416,"zip":"6511142"},{"town":"甲栄台四丁目","koaza":"","lat":34.739134,"lng":135.149804,"zip":"6511142"},{"town":"松宮台一丁目","koaza":"","lat":34.736223,"lng":135.148455,"zip":"6511147"},{"town":"広陵町六丁目","koaza":"","lat":34.748059,"lng":135.161489,"zip":"6511213"},{"town":"広陵町一丁目","koaza":"","lat":34.749986,"lng":135.157776,"zip":"6511213"},{"town":"広陵町二丁目","koaza":"","lat":34.750174,"lng":135.159459,"zip":"6511213"},{"town":"甲栄台一丁目","koaza":"","lat":34.741852,"lng":135.151412,"zip":"6511142"},{"town":"緑町一丁目","koaza":"","lat":34.746915,"lng":135.153087,"zip":"6511221"},{"town":"甲栄台二丁目","koaza":"","lat":34.741806,"lng":135.149737,"zip":"6511142"},{"town":"緑町七丁目","koaza":"","lat":34.745354,"lng":135.150811,"zip":"6511221"},{"town":"緑町八丁目","koaza":"","lat":34.751249,"lng":135.153304,"zip":"6511221"},{"town":"緑町三丁目","koaza":"","lat":34.75015,"lng":135.150341,"zip":"6511221"},{"town":"緑町二丁目","koaza":"","lat":34.749223,"lng":135.148664,"zip":"6511221"},{"town":"甲栄台三丁目","koaza":"","lat":34.741911,"lng":135.1478,"zip":"6511142"},{"town":"松宮台二丁目","koaza":"","lat":34.736193,"lng":135.144993,"zip":"6511147"},{"town":"泉台二丁目","koaza":"","lat":34.739355,"lng":135.144786,"zip":"6511141"},{"town":"泉台一丁目","koaza":"","lat":34.741026,"lng":135.144758,"zip":"6511141"},{"town":"杉尾台一丁目","koaza":"","lat":34.735788,"lng":135.140679,"zip":"6511146"},{"town":"泉台三丁目","koaza":"","lat":34.739792,"lng":135.140981,"zip":"6511141"},{"town":"泉台四丁目","koaza":"","lat":34.74019,"lng":135.137982,"zip":"6511141"},{"town":"緑町六丁目","koaza":"","lat":34.74563,"lng":135.147304,"zip":"6511221"},{"town":"緑町五丁目","koaza":"","lat":34.748639,"lng":135.146764,"zip":"6511221"},{"town":"桂木一丁目","koaza":"","lat":34.748152,"lng":135.145806,"zip":"6511223"},{"town":"桂木二丁目","koaza":"","lat":34.749308,"lng":135.143562,"zip":"6511223"},{"town":"大原一丁目","koaza":"","lat":34.744531,"lng":135.143858,"zip":"6511222"},{"town":"大原二丁目","koaza":"","lat":34.745212,"lng":135.138198,"zip":"6511222"},{"town":"大原三丁目","koaza":"","lat":34.748411,"lng":135.139116,"zip":"6511222"},{"town":"杉尾台二丁目","koaza":"","lat":34.736161,"lng":135.138065,"zip":"6511146"},{"town":"泉台六丁目","koaza":"","lat":34.736263,"lng":135.134919,"zip":"6511141"},{"town":"泉台五丁目","koaza":"","lat":34.738822,"lng":135.13467,"zip":"6511141"},{"town":"泉台七丁目","koaza":"","lat":34.737097,"lng":135.131324,"zip":"6511141"},{"town":"ひよどり台二丁目","koaza":"","lat":34.697497,"lng":135.118933,"zip":"6511123"},{"town":"谷上西町","koaza":"","lat":34.761782,"lng":135.168577,"zip":"6511246"},{"town":"谷上南町","koaza":"","lat":34.763301,"lng":135.178887,"zip":"6511244"},{"town":"谷上東町","koaza":"","lat":34.763322,"lng":135.175715,"zip":"6511245"},{"town":"有野中町二丁目","koaza":"","lat":34.825463,"lng":135.225371,"zip":"6511313"},{"town":"花山中尾台二丁目","koaza":"","lat":34.766285,"lng":135.195054,"zip":"6511202"},{"town":"幸陽町三丁目","koaza":"","lat":34.765227,"lng":135.191546,"zip":"6511203"},{"town":"幸陽町二丁目","koaza":"","lat":34.767081,"lng":135.19019,"zip":"6511203"},{"town":"花山東町","koaza":"","lat":34.765359,"lng":135.185496,"zip":"6511204"},{"town":"松が枝町一丁目","koaza":"","lat":34.757048,"lng":135.151754,"zip":"6511232"},{"town":"松が枝町二丁目","koaza":"","lat":34.759256,"lng":135.150855,"zip":"6511232"},{"town":"松が枝町三丁目","koaza":"","lat":34.760514,"lng":135.150834,"zip":"6511232"},{"town":"日の峰一丁目","koaza":"","lat":34.758448,"lng":135.147525,"zip":"6511233"},{"town":"日の峰三丁目","koaza":"","lat":34.75829,"lng":135.14443,"zip":"6511233"},{"town":"日の峰四丁目","koaza":"","lat":34.762174,"lng":135.145693,"zip":"6511233"},{"town":"日の峰五丁目","koaza":"","lat":34.760518,"lng":135.141828,"zip":"6511233"},{"town":"唐櫃六甲台","koaza":"","lat":34.782871,"lng":135.207807,"zip":"6511334"},{"town":"東大池三丁目","koaza":"","lat":34.776217,"lng":135.201078,"zip":"6511333"},{"town":"東大池二丁目","koaza":"","lat":34.780799,"lng":135.201657,"zip":"6511333"},{"town":"幸陽町一丁目","koaza":"","lat":34.768442,"lng":135.188143,"zip":"6511203"},{"town":"花山中尾台三丁目","koaza":"","lat":34.76881,"lng":135.196871,"zip":"6511202"},{"town":"花山中尾台一丁目","koaza":"","lat":34.768893,"lng":135.191693,"zip":"6511202"},{"town":"大池見山台","koaza":"","lat":34.774331,"lng":135.191494,"zip":"6511206"},{"town":"西大池二丁目","koaza":"","lat":34.774106,"lng":135.198057,"zip":"6511201"},{"town":"東大池一丁目","koaza":"","lat":34.778002,"lng":135.199429,"zip":"6511333"},{"town":"西大池一丁目","koaza":"","lat":34.777969,"lng":135.1971,"zip":"6511201"},{"town":"花山台","koaza":"","lat":34.769503,"lng":135.184592,"zip":"6511205"},{"town":"青葉台","koaza":"","lat":34.766144,"lng":135.152369,"zip":"6511231"},{"town":"柏尾台","koaza":"","lat":34.77131,"lng":135.148013,"zip":"6511255"},{"town":"山田町福地","koaza":"","lat":34.774554,"lng":135.136551,"zip":"6511254"},{"town":"唐櫃台一丁目","koaza":"","lat":34.792324,"lng":135.216526,"zip":"6511332"},{"town":"唐櫃台二丁目","koaza":"","lat":34.790294,"lng":135.213289,"zip":"6511332"},{"town":"唐櫃台四丁目","koaza":"","lat":34.785376,"lng":135.213823,"zip":"6511332"},{"town":"唐櫃台三丁目","koaza":"","lat":34.787525,"lng":135.213565,"zip":"6511332"},{"town":"山田町与左衛門新田","koaza":"","lat":34.785655,"lng":135.161947,"zip":"6511251"},{"town":"東有野台四丁目","koaza":"","lat":34.807574,"lng":135.237218,"zip":"6511322"},{"town":"東有野台三丁目","koaza":"","lat":34.808117,"lng":135.239985,"zip":"6511322"},{"town":"東有野台五丁目","koaza":"","lat":34.805854,"lng":135.237509,"zip":"6511322"},{"town":"東有野台二丁目","koaza":"","lat":34.810825,"lng":135.23455,"zip":"6511322"},{"town":"東有野台一丁目","koaza":"","lat":34.808734,"lng":135.233839,"zip":"6511322"},{"town":"有野台七丁目","koaza":"","lat":34.809364,"lng":135.228411,"zip":"6511321"},{"town":"有野台六丁目","koaza":"","lat":34.811989,"lng":135.230983,"zip":"6511321"},{"town":"有野台五丁目","koaza":"","lat":34.814441,"lng":135.231314,"zip":"6511321"},{"town":"有野台四丁目","koaza":"","lat":34.816786,"lng":135.230805,"zip":"6511321"},{"town":"有野台三丁目","koaza":"","lat":34.815374,"lng":135.227202,"zip":"6511321"},{"town":"有野台二丁目","koaza":"","lat":34.812452,"lng":135.226059,"zip":"6511321"},{"town":"有野台八丁目","koaza":"","lat":34.807962,"lng":135.227122,"zip":"6511321"},{"town":"有野台一丁目","koaza":"","lat":34.810857,"lng":135.224335,"zip":"6511321"},{"town":"有野台九丁目","koaza":"","lat":34.808177,"lng":135.22052,"zip":"6511321"},{"town":"藤原台中町八丁目","koaza":"","lat":34.816837,"lng":135.220617,"zip":"6511302"},{"town":"藤原台南町一丁目","koaza":"","lat":34.812644,"lng":135.209691,"zip":"6511303"},{"town":"藤原台中町七丁目","koaza":"","lat":34.81435,"lng":135.212507,"zip":"6511302"},{"town":"藤原台中町六丁目","koaza":"","lat":34.816095,"lng":135.215025,"zip":"6511302"},{"town":"藤原台南町四丁目","koaza":"","lat":34.81399,"lng":135.205516,"zip":"6511303"},{"town":"藤原台南町三丁目","koaza":"","lat":34.810775,"lng":135.20774,"zip":"6511303"},{"town":"藤原台南町二丁目","koaza":"","lat":34.80989,"lng":135.211562,"zip":"6511303"},{"town":"藤原台南町五丁目","koaza":"","lat":34.815266,"lng":135.202774,"zip":"6511303"},{"town":"八多町柳谷","koaza":"","lat":34.812183,"lng":135.199086,"zip":"6511342"},{"town":"有野中町三丁目","koaza":"","lat":34.830097,"lng":135.226025,"zip":"6511313"},{"town":"藤原台中町二丁目","koaza":"","lat":34.819572,"lng":135.220175,"zip":"6511302"},{"town":"藤原台中町三丁目","koaza":"","lat":34.819135,"lng":135.217124,"zip":"6511302"},{"town":"藤原台中町四丁目","koaza":"","lat":34.819527,"lng":135.214768,"zip":"6511302"},{"town":"藤原台中町一丁目","koaza":"","lat":34.82226,"lng":135.218861,"zip":"6511302"},{"town":"藤原台中町五丁目","koaza":"","lat":34.819951,"lng":135.21241,"zip":"6511302"},{"town":"有野中町一丁目","koaza":"","lat":34.820326,"lng":135.222714,"zip":"6511313"},{"town":"藤原台北町一丁目","koaza":"","lat":34.825414,"lng":135.222498,"zip":"6511301"},{"town":"藤原台北町二丁目","koaza":"","lat":34.825281,"lng":135.219155,"zip":"6511301"},{"town":"藤原台北町三丁目","koaza":"","lat":34.827975,"lng":135.220458,"zip":"6511301"},{"town":"藤原台北町六丁目","koaza":"","lat":34.831724,"lng":135.223712,"zip":"6511301"},{"town":"藤原台北町五丁目","koaza":"","lat":34.831435,"lng":135.221293,"zip":"6511301"},{"town":"有野中町四丁目","koaza":"","lat":34.834359,"lng":135.227834,"zip":"6511313"},{"town":"藤原台北町四丁目","koaza":"","lat":34.828795,"lng":135.217674,"zip":"6511301"},{"town":"藤原台北町七丁目","koaza":"","lat":34.834615,"lng":135.222026,"zip":"6511301"},{"town":"京地四丁目","koaza":"","lat":34.834581,"lng":135.211514,"zip":"6511304"},{"town":"京地一丁目","koaza":"","lat":34.834217,"lng":135.215778,"zip":"6511304"},{"town":"八多町附物","koaza":"","lat":34.804502,"lng":135.184578,"zip":"6511343"},{"town":"八多町屏風","koaza":"","lat":34.804936,"lng":135.172695,"zip":"6511344"},{"town":"八多町深谷","koaza":"","lat":34.823178,"lng":135.181929,"zip":"6511341"},{"town":"淡河町中山","koaza":"","lat":34.812149,"lng":135.139818,"zip":"6511611"},{"town":"淡河町東畑","koaza":"","lat":34.816293,"lng":135.131193,"zip":"6511612"},{"town":"山田町衝原","koaza":"","lat":34.773259,"lng":135.092761,"zip":"6511264"},{"town":"淡河町勝雄","koaza":"","lat":34.803575,"lng":135.088581,"zip":"6511604"},{"town":"淡河町淡河","koaza":"","lat":34.81002,"lng":135.09751,"zip":"6511603"},{"town":"上津台八丁目","koaza":"","lat":34.859139,"lng":135.194506,"zip":"6511515"},{"town":"上津台五丁目","koaza":"","lat":34.86992,"lng":135.19201,"zip":"6511515"},{"town":"上津台七丁目","koaza":"","lat":34.861548,"lng":135.191465,"zip":"6511515"},{"town":"上津台四丁目","koaza":"","lat":34.868182,"lng":135.197607,"zip":"6511515"},{"town":"上津台六丁目","koaza":"","lat":34.867253,"lng":135.191531,"zip":"6511515"},{"town":"上津台九丁目","koaza":"","lat":34.85995,"lng":135.198213,"zip":"6511515"},{"town":"上津台一丁目","koaza":"","lat":34.864188,"lng":135.201342,"zip":"6511515"},{"town":"鹿の子台南町六丁目","koaza":"","lat":34.857058,"lng":135.207703,"zip":"6511514"},{"town":"上津台二丁目","koaza":"","lat":34.863572,"lng":135.194998,"zip":"6511515"},{"town":"上津台三丁目","koaza":"","lat":34.867196,"lng":135.195893,"zip":"6511515"},{"town":"赤松台一丁目","koaza":"","lat":34.877279,"lng":135.184151,"zip":"6511516"},{"town":"赤松台二丁目","koaza":"","lat":34.877489,"lng":135.177082,"zip":"6511516"},{"town":"西山二丁目","koaza":"","lat":34.838918,"lng":135.221725,"zip":"6511305"},{"town":"菖蒲が丘三丁目","koaza":"","lat":34.841947,"lng":135.224536,"zip":"6511306"},{"town":"菖蒲が丘一丁目","koaza":"","lat":34.840277,"lng":135.218306,"zip":"6511306"},{"town":"菖蒲が丘二丁目","koaza":"","lat":34.842311,"lng":135.221203,"zip":"6511306"},{"town":"八多町下小名田","koaza":"","lat":34.844028,"lng":135.20991,"zip":"6511352"},{"town":"道場町平田","koaza":"","lat":34.852823,"lng":135.237274,"zip":"6511504"},{"town":"道場町道場","koaza":"","lat":34.864108,"lng":135.22932,"zip":"6511501"},{"town":"八多町中","koaza":"","lat":34.850463,"lng":135.218014,"zip":"6511351"},{"town":"鹿の子台南町二丁目","koaza":"","lat":34.849256,"lng":135.209001,"zip":"6511514"},{"town":"鹿の子台南町一丁目","koaza":"","lat":34.852533,"lng":135.215539,"zip":"6511514"},{"town":"鹿の子台南町四丁目","koaza":"","lat":34.853946,"lng":135.213839,"zip":"6511514"},{"town":"道場町日下部","koaza":"","lat":34.860988,"lng":135.227316,"zip":"6511505"},{"town":"鹿の子台北町三丁目","koaza":"","lat":34.859503,"lng":135.221763,"zip":"6511513"},{"town":"鹿の子台北町四丁目","koaza":"","lat":34.860221,"lng":135.21989,"zip":"6511513"},{"town":"鹿の子台北町二丁目","koaza":"","lat":34.864566,"lng":135.224454,"zip":"6511513"},{"town":"鹿の子台北町五丁目","koaza":"","lat":34.86422,"lng":135.221333,"zip":"6511513"},{"town":"鹿の子台北町一丁目","koaza":"","lat":34.867733,"lng":135.223269,"zip":"6511513"},{"town":"鹿の子台北町六丁目","koaza":"","lat":34.862598,"lng":135.217689,"zip":"6511513"},{"town":"鹿の子台北町八丁目","koaza":"","lat":34.860105,"lng":135.216297,"zip":"6511513"},{"town":"鹿の子台南町五丁目","koaza":"","lat":34.859509,"lng":135.21338,"zip":"6511514"},{"town":"鹿の子台南町三丁目","koaza":"","lat":34.853018,"lng":135.210511,"zip":"6511514"},{"town":"大沢町日西原","koaza":"","lat":34.861132,"lng":135.169126,"zip":"6511525"},{"town":"鹿の子台北町七丁目","koaza":"","lat":34.867567,"lng":135.218272,"zip":"6511513"},{"town":"長尾町宅原","koaza":"","lat":34.862575,"lng":135.206702,"zip":"6511511"},{"town":"大沢町市原","koaza":"","lat":34.873953,"lng":135.171835,"zip":"6511521"},{"town":"大沢町簾","koaza":"","lat":34.870787,"lng":135.160841,"zip":"6511526"},{"town":"長尾町上津","koaza":"","lat":34.876491,"lng":135.193979,"zip":"6511512"},{"town":"ひよどり台五丁目","koaza":"","lat":34.701192,"lng":135.120992,"zip":"6511123"},{"town":"ひよどり北町一丁目","koaza":"","lat":34.704457,"lng":135.11981,"zip":"6511124"},{"town":"ひよどり北町二丁目","koaza":"","lat":34.705641,"lng":135.119916,"zip":"6511124"},{"town":"ひよどり北町三丁目","koaza":"","lat":34.708477,"lng":135.120008,"zip":"6511124"},{"town":"山田町下谷上","koaza":"","lat":34.725645,"lng":135.173837,"zip":"6511102"},{"town":"星和台四丁目","koaza":"","lat":34.719199,"lng":135.122739,"zip":"6511121"},{"town":"星和台五丁目","koaza":"","lat":34.719088,"lng":135.119811,"zip":"6511121"},{"town":"しあわせの村","koaza":"","lat":34.711657,"lng":135.114707,"zip":"6511106"},{"town":"山田町藍那","koaza":"","lat":34.731305,"lng":135.11473,"zip":"6511104"},{"town":"星和台一丁目","koaza":"","lat":34.719007,"lng":135.130003,"zip":"6511121"},{"town":"山田町小河","koaza":"辻","lat":34.751679,"lng":135.092813,"zip":"6511105"},{"town":"山田町小河","koaza":"下キトラ","lat":34.752213,"lng":135.099778,"zip":"6511105"},{"town":"山田町小河","koaza":"西ノ山","lat":34.749162,"lng":135.097092,"zip":"6511105"},{"town":"山田町下谷上","koaza":"中一里山","lat":34.714613,"lng":135.145074,"zip":"6511102"},{"town":"山田町衝原","koaza":"道南","lat":34.76953,"lng":135.104162,"zip":"6511264"},{"town":"山田町小河","koaza":"前田","lat":34.747136,"lng":135.096781,"zip":"6511105"},{"town":"山田町小河","koaza":"西ン谷","lat":34.74795,"lng":135.09702,"zip":"6511105"},{"town":"山田町西下","koaza":"押部道","lat":34.7578,"lng":135.105192,"zip":"6511263"},{"town":"山田町小河","koaza":"梅木谷奥","lat":34.756593,"lng":135.097674,"zip":"6511105"},{"town":"山田町小河","koaza":"中ノ溜","lat":34.748837,"lng":135.097951,"zip":"6511105"},{"town":"山田町小河","koaza":"平五郎","lat":34.745297,"lng":135.09908,"zip":"6511105"},{"town":"山田町小河","koaza":"上ノ山","lat":34.745659,"lng":135.100866,"zip":"6511105"},{"town":"山田町小河","koaza":"川長","lat":34.742746,"lng":135.105118,"zip":"6511105"},{"town":"山田町西下","koaza":"狼谷","lat":34.761503,"lng":135.107294,"zip":"6511263"},{"town":"山田町藍那","koaza":"傳庫","lat":34.731093,"lng":135.10644,"zip":"6511104"},{"town":"山田町衝原","koaza":"中ノ瀬","lat":34.768508,"lng":135.105232,"zip":"6511264"},{"town":"山田町西下","koaza":"上灰床","lat":34.7572,"lng":135.107152,"zip":"6511263"},{"town":"山田町西下","koaza":"西谷","lat":34.755542,"lng":135.105794,"zip":"6511263"},{"town":"山田町坂本","koaza":"文垣","lat":34.765598,"lng":135.10884,"zip":"6511261"},{"town":"山田町西下","koaza":"下比良記","lat":34.757798,"lng":135.109934,"zip":"6511263"},{"town":"山田町西下","koaza":"才谷","lat":34.763074,"lng":135.109182,"zip":"6511263"},{"town":"山田町藍那","koaza":"平山","lat":34.734996,"lng":135.109761,"zip":"6511104"},{"town":"山田町坂本","koaza":"原","lat":34.764423,"lng":135.110142,"zip":"6511261"},{"town":"山田町藍那","koaza":"田代","lat":34.718589,"lng":135.111805,"zip":"6511104"},{"town":"山田町西下","koaza":"下津井","lat":34.76301,"lng":135.11079,"zip":"6511263"},{"town":"山田町坂本","koaza":"東","lat":34.768836,"lng":135.113663,"zip":"6511261"},{"town":"山田町藍那","koaza":"下ノ町","lat":34.732148,"lng":135.11377,"zip":"6511104"},{"town":"山田町坂本","koaza":"下津井","lat":34.764411,"lng":135.111203,"zip":"6511261"},{"town":"山田町西下","koaza":"大道下","lat":34.762123,"lng":135.112277,"zip":"6511263"},{"town":"山田町藍那","koaza":"西谷","lat":34.731742,"lng":135.110928,"zip":"6511104"},{"town":"山田町西下","koaza":"廣畑","lat":34.760889,"lng":135.11513,"zip":"6511263"},{"town":"山田町東下","koaza":"下津井","lat":34.764606,"lng":135.111897,"zip":"6511262"},{"town":"山田町坂本","koaza":"中大道","lat":34.765487,"lng":135.113317,"zip":"6511261"},{"town":"山田町坂本","koaza":"清水","lat":34.766202,"lng":135.112109,"zip":"6511261"},{"town":"山田町西下","koaza":"石橋","lat":34.763468,"lng":135.115544,"zip":"6511263"},{"town":"山田町東下","koaza":"岡所西","lat":34.762431,"lng":135.116345,"zip":"6511262"},{"town":"山田町藍那","koaza":"東谷","lat":34.731261,"lng":135.113332,"zip":"6511104"},{"town":"山田町西下","koaza":"比恵畑","lat":34.750971,"lng":135.112907,"zip":"6511263"},{"town":"山田町西下","koaza":"野田","lat":34.762704,"lng":135.114656,"zip":"6511263"},{"town":"山田町東下","koaza":"水口田","lat":34.764384,"lng":135.113587,"zip":"6511262"},{"town":"山田町藍那","koaza":"北ノ町","lat":34.735966,"lng":135.116277,"zip":"6511104"},{"town":"山田町東下","koaza":"野田北","lat":34.763467,"lng":135.117357,"zip":"6511262"},{"town":"山田町東下","koaza":"峠東","lat":34.749749,"lng":135.118759,"zip":"6511262"},{"town":"山田町西下","koaza":"中岳","lat":34.762457,"lng":135.115249,"zip":"6511263"},{"town":"山田町坂本","koaza":"川原","lat":34.767236,"lng":135.116258,"zip":"6511261"},{"town":"山田町東下","koaza":"後ケ市","lat":34.765104,"lng":135.117528,"zip":"6511262"},{"town":"山田町藍那","koaza":"清水","lat":34.734196,"lng":135.120103,"zip":"6511104"},{"town":"山田町西下","koaza":"五反田","lat":34.763634,"lng":135.116296,"zip":"6511263"},{"town":"山田町東下","koaza":"下氷谷","lat":34.765401,"lng":135.121071,"zip":"6511262"},{"town":"山田町藍那","koaza":"下手","lat":34.731066,"lng":135.119851,"zip":"6511104"},{"town":"山田町藍那","koaza":"桑坂","lat":34.74068,"lng":135.122726,"zip":"6511104"},{"town":"山田町坂本","koaza":"下垣内","lat":34.769033,"lng":135.119048,"zip":"6511261"},{"town":"山田町東下","koaza":"東所","lat":34.763227,"lng":135.121218,"zip":"6511262"},{"town":"山田町坂本","koaza":"山花尾崎","lat":34.772596,"lng":135.120482,"zip":"6511261"},{"town":"山田町坂本","koaza":"長谷","lat":34.770288,"lng":135.121309,"zip":"6511261"},{"town":"山田町坂本","koaza":"桾原","lat":34.772463,"lng":135.122806,"zip":"6511261"},{"town":"山田町東下","koaza":"翁ケ谷","lat":34.762749,"lng":135.122053,"zip":"6511262"},{"town":"山田町東下","koaza":"熊谷","lat":34.756578,"lng":135.121046,"zip":"6511262"},{"town":"山田町東下","koaza":"中ノ池下","lat":34.755127,"lng":135.121465,"zip":"6511262"},{"town":"山田町藍那","koaza":"中畑","lat":34.726025,"lng":135.122287,"zip":"6511104"},{"town":"山田町藍那","koaza":"手垣","lat":34.713977,"lng":135.120874,"zip":"6511104"},{"town":"山田町東下","koaza":"山ノ越","lat":34.763802,"lng":135.123351,"zip":"6511262"},{"town":"山田町中","koaza":"城ケ谷","lat":34.761413,"lng":135.123184,"zip":"6511253"},{"town":"山田町坂本","koaza":"氷谷","lat":34.766444,"lng":135.123971,"zip":"6511261"},{"town":"山田町藍那","koaza":"太々谷","lat":34.730289,"lng":135.125827,"zip":"6511104"},{"town":"山田町中","koaza":"大沢","lat":34.765101,"lng":135.126189,"zip":"6511253"},{"town":"山田町中","koaza":"北山","lat":34.791927,"lng":135.129133,"zip":"6511253"},{"town":"山田町中","koaza":"宮ノ片","lat":34.767244,"lng":135.128216,"zip":"6511253"},{"town":"山田町中","koaza":"新五郎","lat":34.770842,"lng":135.128655,"zip":"6511253"},{"town":"山田町中","koaza":"金場","lat":34.771206,"lng":135.129391,"zip":"6511253"},{"town":"山田町東下","koaza":"大畑田","lat":34.763975,"lng":135.125631,"zip":"6511262"},{"town":"山田町藍那","koaza":"瀬戸","lat":34.715605,"lng":135.12692,"zip":"6511104"},{"town":"山田町福地","koaza":"城ケ越","lat":34.763771,"lng":135.126223,"zip":"6511254"},{"town":"山田町中","koaza":"廣戸","lat":34.754795,"lng":135.128248,"zip":"6511253"},{"town":"山田町中","koaza":"林","lat":34.763844,"lng":135.127054,"zip":"6511253"},{"town":"山田町中","koaza":"西岡","lat":34.763511,"lng":135.126739,"zip":"6511253"},{"town":"山田町福地","koaza":"北ノクボ","lat":34.765824,"lng":135.127577,"zip":"6511254"},{"town":"山田町中","koaza":"長尾サ","lat":34.765261,"lng":135.13023,"zip":"6511253"},{"town":"山田町原野","koaza":"シモツイ","lat":34.763513,"lng":135.129017,"zip":"6511252"},{"town":"山田町福地","koaza":"クロモ","lat":34.765169,"lng":135.12883,"zip":"6511254"},{"town":"山田町福地","koaza":"池ノ谷","lat":34.76821,"lng":135.130091,"zip":"6511254"},{"town":"山田町原野","koaza":"合ノ本","lat":34.763994,"lng":135.130349,"zip":"6511252"},{"town":"山田町原野","koaza":"長尾曾","lat":34.765597,"lng":135.129805,"zip":"6511252"},{"town":"山田町福地","koaza":"宮ノ方","lat":34.766579,"lng":135.130368,"zip":"6511254"},{"town":"山田町藍那","koaza":"下ノ切","lat":34.71218,"lng":135.131793,"zip":"6511104"},{"town":"山田町中","koaza":"岡ノ上","lat":34.764386,"lng":135.131652,"zip":"6511253"},{"town":"山田町中","koaza":"森","lat":34.764635,"lng":135.133105,"zip":"6511253"},{"town":"山田町福地","koaza":"ヲチエ","lat":34.768101,"lng":135.132349,"zip":"6511254"},{"town":"山田町福地","koaza":"前田","lat":34.766137,"lng":135.134312,"zip":"6511254"},{"town":"山田町原野","koaza":"前田","lat":34.76657,"lng":135.133261,"zip":"6511252"},{"town":"山田町福地","koaza":"三京","lat":34.770263,"lng":135.134655,"zip":"6511254"},{"town":"山田町福地","koaza":"大畑ケ","lat":34.76685,"lng":135.134812,"zip":"6511254"},{"town":"山田町中","koaza":"東畑","lat":34.764966,"lng":135.134253,"zip":"6511253"},{"town":"山田町原野","koaza":"西脇山","lat":34.763773,"lng":135.137603,"zip":"6511252"},{"town":"山田町福地","koaza":"向イ林","lat":34.764757,"lng":135.135622,"zip":"6511254"},{"town":"山田町福地","koaza":"上ノ山","lat":34.768232,"lng":135.136092,"zip":"6511254"},{"town":"山田町福地","koaza":"新池","lat":34.771604,"lng":135.136148,"zip":"6511254"},{"town":"山田町原野","koaza":"湯廼尾","lat":34.76683,"lng":135.137097,"zip":"6511252"},{"town":"山田町福地","koaza":"室ノ谷","lat":34.768616,"lng":135.137321,"zip":"6511254"},{"town":"山田町原野","koaza":"シンダノ下","lat":34.765568,"lng":135.138966,"zip":"6511252"},{"town":"山田町原野","koaza":"馬場","lat":34.766263,"lng":135.13853,"zip":"6511252"},{"town":"山田町原野","koaza":"谷寺口","lat":34.768266,"lng":135.138848,"zip":"6511252"},{"town":"山田町原野","koaza":"ドンド川","lat":34.77181,"lng":135.138742,"zip":"6511252"},{"town":"山田町原野","koaza":"火打石","lat":34.77033,"lng":135.140002,"zip":"6511252"},{"town":"山田町原野","koaza":"結場","lat":34.764604,"lng":135.140713,"zip":"6511252"},{"town":"山田町原野","koaza":"犬上","lat":34.767476,"lng":135.139159,"zip":"6511252"},{"town":"山田町原野","koaza":"寺前","lat":34.768481,"lng":135.142662,"zip":"6511252"},{"town":"山田町原野","koaza":"芦谷山","lat":34.772069,"lng":135.143573,"zip":"6511252"},{"town":"山田町原野","koaza":"中ノ株","lat":34.765771,"lng":135.140819,"zip":"6511252"},{"town":"山田町原野","koaza":"天神","lat":34.768926,"lng":135.144737,"zip":"6511252"},{"town":"山田町原野","koaza":"蔵ノ本","lat":34.765016,"lng":135.141573,"zip":"6511252"},{"town":"山田町小部","koaza":"大谷","lat":34.733322,"lng":135.141612,"zip":"6511101"},{"town":"山田町小部","koaza":"北ノ谷","lat":34.734586,"lng":135.142692,"zip":"6511101"},{"town":"山田町原野","koaza":"札場","lat":34.765753,"lng":135.142265,"zip":"6511252"},{"town":"山田町原野","koaza":"クノ木","lat":34.766584,"lng":135.142693,"zip":"6511252"},{"town":"山田町原野","koaza":"木戸口","lat":34.763529,"lng":135.143938,"zip":"6511252"},{"town":"山田町原野","koaza":"樋詰","lat":34.767301,"lng":135.144161,"zip":"6511252"},{"town":"山田町原野","koaza":"舟田","lat":34.765278,"lng":135.147606,"zip":"6511252"},{"town":"山田町原野","koaza":"丸岡","lat":34.765465,"lng":135.144746,"zip":"6511252"},{"town":"山田町原野","koaza":"エンド","lat":34.764034,"lng":135.146341,"zip":"6511252"},{"town":"山田町小部","koaza":"東ノ谷","lat":34.73307,"lng":135.144555,"zip":"6511101"},{"town":"山田町原野","koaza":"沢","lat":34.767303,"lng":135.145146,"zip":"6511252"},{"town":"山田町原野","koaza":"中曽根","lat":34.766022,"lng":135.146435,"zip":"6511252"},{"town":"山田町原野","koaza":"元戎","lat":34.768075,"lng":135.146642,"zip":"6511252"},{"town":"山田町原野","koaza":"北子","lat":34.7671,"lng":135.147087,"zip":"6511252"},{"town":"山田町小部","koaza":"西ノ岡谷","lat":34.730176,"lng":135.146787,"zip":"6511101"},{"town":"山田町小部","koaza":"松宮山","lat":34.733008,"lng":135.147204,"zip":"6511101"},{"town":"山田町小部","koaza":"大歳馬場","lat":34.73174,"lng":135.148983,"zip":"6511101"},{"town":"山田町原野","koaza":"八王子","lat":34.768415,"lng":135.148212,"zip":"6511252"},{"town":"山田町原野","koaza":"大滝口","lat":34.764282,"lng":135.148768,"zip":"6511252"},{"town":"山田町小部","koaza":"藤木谷","lat":34.733591,"lng":135.149085,"zip":"6511101"},{"town":"山田町小部","koaza":"宮ノ前","lat":34.731088,"lng":135.15099,"zip":"6511101"},{"town":"山田町原野","koaza":"城ケ岡","lat":34.764646,"lng":135.149404,"zip":"6511252"},{"town":"山田町小部","koaza":"向井","lat":34.7321,"lng":135.151081,"zip":"6511101"},{"town":"山田町下谷上","koaza":"梅木谷","lat":34.753741,"lng":135.153856,"zip":"6511102"},{"town":"山田町小部","koaza":"南山","lat":34.721001,"lng":135.152038,"zip":"6511101"},{"town":"山田町小部","koaza":"向井谷","lat":34.730463,"lng":135.15454,"zip":"6511101"},{"town":"山田町小部","koaza":"茶畑","lat":34.731769,"lng":135.150848,"zip":"6511101"},{"town":"山田町下谷上","koaza":"かんじゃ","lat":34.762422,"lng":135.154094,"zip":"6511102"},{"town":"山田町下谷上","koaza":"奥谷","lat":34.75597,"lng":135.152751,"zip":"6511102"},{"town":"山田町小部","koaza":"大東","lat":34.731771,"lng":135.153668,"zip":"6511101"},{"town":"山田町下谷上","koaza":"門口","lat":34.75117,"lng":135.156002,"zip":"6511102"},{"town":"山田町下谷上","koaza":"西畑","lat":34.759824,"lng":135.153538,"zip":"6511102"},{"town":"山田町下谷上","koaza":"砂川","lat":34.763636,"lng":135.155513,"zip":"6511102"},{"town":"山田町小部","koaza":"一ツ鍬山","lat":34.730753,"lng":135.155244,"zip":"6511101"},{"town":"山田町下谷上","koaza":"猪ころび","lat":34.746876,"lng":135.157174,"zip":"6511102"},{"town":"山田町下谷上","koaza":"西向","lat":34.756256,"lng":135.154528,"zip":"6511102"},{"town":"山田町下谷上","koaza":"鷹之子","lat":34.759178,"lng":135.154813,"zip":"6511102"},{"town":"山田町下谷上","koaza":"箕の谷","lat":34.757804,"lng":135.15583,"zip":"6511102"},{"town":"山田町下谷上","koaza":"小橋","lat":34.760868,"lng":135.155994,"zip":"6511102"},{"town":"山田町下谷上","koaza":"五池谷","lat":34.756016,"lng":135.158654,"zip":"6511102"},{"town":"山田町下谷上","koaza":"宮ノ前","lat":34.762597,"lng":135.156625,"zip":"6511102"},{"town":"山田町下谷上","koaza":"六地蔵","lat":34.759186,"lng":135.156336,"zip":"6511102"},{"town":"山田町下谷上","koaza":"前浦","lat":34.755284,"lng":135.156073,"zip":"6511102"},{"town":"山田町小部","koaza":"惣山","lat":34.738301,"lng":135.156092,"zip":"6511101"},{"town":"山田町下谷上","koaza":"今草口","lat":34.74771,"lng":135.156357,"zip":"6511102"},{"town":"山田町下谷上","koaza":"池之内","lat":34.76028,"lng":135.157807,"zip":"6511102"},{"town":"山田町下谷上","koaza":"久保","lat":34.761247,"lng":135.1581,"zip":"6511102"},{"town":"山田町小部","koaza":"ヲモ谷","lat":34.725772,"lng":135.157817,"zip":"6511101"},{"town":"山田町下谷上","koaza":"下の勝","lat":34.74787,"lng":135.157389,"zip":"6511102"},{"town":"山田町下谷上","koaza":"五朗本","lat":34.762581,"lng":135.157687,"zip":"6511102"},{"town":"山田町小部","koaza":"法殿之下","lat":34.729129,"lng":135.160395,"zip":"6511101"},{"town":"山田町小部","koaza":"惣六畑山","lat":34.736246,"lng":135.160185,"zip":"6511101"},{"town":"山田町下谷上","koaza":"上の勝","lat":34.746118,"lng":135.159602,"zip":"6511102"},{"town":"山田町下谷上","koaza":"沢","lat":34.760283,"lng":135.159723,"zip":"6511102"},{"town":"山田町小部","koaza":"廣刈","lat":34.727342,"lng":135.159582,"zip":"6511101"},{"town":"山田町小部","koaza":"妙賀","lat":34.733808,"lng":135.159203,"zip":"6511101"},{"town":"山田町小部","koaza":"大阪山","lat":34.731933,"lng":135.158198,"zip":"6511101"},{"town":"山田町小部","koaza":"大平","lat":34.726551,"lng":135.160257,"zip":"6511101"},{"town":"山田町下谷上","koaza":"大正坊","lat":34.744284,"lng":135.159851,"zip":"6511102"},{"town":"山田町小部","koaza":"綾ケ谷","lat":34.740328,"lng":135.159398,"zip":"6511101"},{"town":"山田町小部","koaza":"妙賀山","lat":34.735605,"lng":135.164169,"zip":"6511101"},{"town":"山田町小部","koaza":"東山","lat":34.740321,"lng":135.165594,"zip":"6511101"},{"town":"山田町小部","koaza":"戸口谷","lat":34.730379,"lng":135.159936,"zip":"6511101"},{"town":"山田町下谷上","koaza":"芝","lat":34.760562,"lng":135.16136,"zip":"6511102"},{"town":"山田町下谷上","koaza":"二ツ樋","lat":34.761656,"lng":135.161401,"zip":"6511102"},{"town":"山田町小部","koaza":"堂の前","lat":34.729938,"lng":135.161124,"zip":"6511101"},{"town":"山田町小部","koaza":"大平山","lat":34.729114,"lng":135.165781,"zip":"6511101"},{"town":"山田町小部","koaza":"杉ノ木","lat":34.728853,"lng":135.161399,"zip":"6511101"},{"town":"山田町下谷上","koaza":"芝床","lat":34.762701,"lng":135.165577,"zip":"6511102"},{"town":"山田町小部","koaza":"大ツエ","lat":34.729788,"lng":135.164302,"zip":"6511101"},{"town":"山田町下谷上","koaza":"北勝","lat":34.762061,"lng":135.162737,"zip":"6511102"},{"town":"山田町下谷上","koaza":"大橋","lat":34.760439,"lng":135.1625,"zip":"6511102"},{"town":"山田町小部","koaza":"上辰ノ口","lat":34.726666,"lng":135.162903,"zip":"6511101"},{"town":"山田町下谷上","koaza":"中段","lat":34.762224,"lng":135.164066,"zip":"6511102"},{"town":"山田町下谷上","koaza":"東向","lat":34.760584,"lng":135.170991,"zip":"6511102"},{"town":"山田町下谷上","koaza":"小畑","lat":34.7688,"lng":135.171809,"zip":"6511102"},{"town":"山田町下谷上","koaza":"芝床ノ上","lat":34.765184,"lng":135.167318,"zip":"6511102"},{"town":"山田町小部","koaza":"口長谷","lat":34.731202,"lng":135.169399,"zip":"6511101"},{"town":"山田町下谷上","koaza":"天神","lat":34.763618,"lng":135.166531,"zip":"6511102"},{"town":"山田町下谷上","koaza":"芝山","lat":34.763149,"lng":135.167113,"zip":"6511102"},{"town":"山田町下谷上","koaza":"南山","lat":34.742187,"lng":135.170573,"zip":"6511102"},{"town":"山田町下谷上","koaza":"志く志く","lat":34.764529,"lng":135.168315,"zip":"6511102"},{"town":"山田町下谷上","koaza":"中上","lat":34.762781,"lng":135.169291,"zip":"6511102"},{"town":"山田町小部","koaza":"コチ脇山","lat":34.737988,"lng":135.170233,"zip":"6511101"},{"town":"山田町上谷上","koaza":"登り尾","lat":34.765169,"lng":135.172955,"zip":"6511242"},{"town":"山田町上谷上","koaza":"山口谷","lat":34.765649,"lng":135.173604,"zip":"6511242"},{"town":"山田町上谷上","koaza":"福浄寺","lat":34.761098,"lng":135.173656,"zip":"6511242"},{"town":"山田町上谷上","koaza":"鍛冶屋ノ上","lat":34.76457,"lng":135.17474,"zip":"6511242"},{"town":"山田町上谷上","koaza":"坂口","lat":34.76362,"lng":135.17258,"zip":"6511242"},{"town":"山田町上谷上","koaza":"中ノ手","lat":34.764917,"lng":135.17527,"zip":"6511242"},{"town":"山田町下谷上","koaza":"西丸山","lat":34.746566,"lng":135.173814,"zip":"6511102"},{"town":"山田町上谷上","koaza":"上ノ山","lat":34.766284,"lng":135.175234,"zip":"6511242"},{"town":"山田町下谷上","koaza":"小峠","lat":34.754441,"lng":135.176012,"zip":"6511102"},{"town":"山田町上谷上","koaza":"長尾","lat":34.737983,"lng":135.177374,"zip":"6511242"},{"town":"山田町上谷上","koaza":"畑開地","lat":34.766373,"lng":135.178432,"zip":"6511242"},{"town":"山田町上谷上","koaza":"久保","lat":34.765269,"lng":135.17857,"zip":"6511242"},{"town":"山田町上谷上","koaza":"木戸上","lat":34.770313,"lng":135.18005,"zip":"6511242"},{"town":"山田町上谷上","koaza":"宮開地","lat":34.767017,"lng":135.180648,"zip":"6511242"},{"town":"山田町上谷上","koaza":"カジガ谷","lat":34.77234,"lng":135.187969,"zip":"6511242"},{"town":"山田町上谷上","koaza":"森田","lat":34.767025,"lng":135.183688,"zip":"6511242"},{"town":"山田町上谷上","koaza":"古々谷","lat":34.769497,"lng":135.188242,"zip":"6511242"},{"town":"山田町上谷上","koaza":"おつき原","lat":34.777533,"lng":135.189568,"zip":"6511242"},{"town":"山田町上谷上","koaza":"古々山","lat":34.778,"lng":135.195717,"zip":"6511242"},{"town":"山田町上谷上","koaza":"見山口","lat":34.771293,"lng":135.192018,"zip":"6511242"},{"town":"山田町上谷上","koaza":"ヤンゲン","lat":34.777826,"lng":135.194406,"zip":"6511242"},{"town":"山田町上谷上","koaza":"ヒコバ","lat":34.765043,"lng":135.195647,"zip":"6511242"},{"town":"山田町上谷上","koaza":"藤垣","lat":34.764191,"lng":135.196178,"zip":"6511242"},{"town":"山田町上谷上","koaza":"堺山","lat":34.76944,"lng":135.201527,"zip":"6511242"},{"town":"山田町上谷上","koaza":"黒岩","lat":34.770426,"lng":135.201661,"zip":"6511242"},{"town":"有馬町","koaza":"山田山","lat":34.79544,"lng":135.264122,"zip":"6511401"},{"town":"山田町衝原","koaza":"畑阪","lat":34.77458,"lng":135.104634,"zip":"6511264"},{"town":"山田町藍那","koaza":"蛇谷","lat":34.735205,"lng":135.113085,"zip":"6511104"},{"town":"山田町小部","koaza":"大阪","lat":34.731538,"lng":135.15609,"zip":"6511101"},{"town":"山田町小部","koaza":"高橋","lat":34.731452,"lng":135.157666,"zip":"6511101"},{"town":"山田町東下","koaza":"神田","lat":34.762508,"lng":135.1237,"zip":"6511262"},{"town":"山田町福地","koaza":"大蔵","lat":34.764812,"lng":135.125653,"zip":"6511254"}]