[{"town":"井吹台西町七丁目","koaza":"","lat":34.695208,"lng":135.01338,"zip":"6512243"},{"town":"見津が丘六丁目","koaza":"","lat":34.735665,"lng":135.094196,"zip":"6512228"},{"town":"玉津町高津橋","koaza":"","lat":34.672528,"lng":134.995075,"zip":"6512122"},{"town":"玉津町新方","koaza":"","lat":34.662353,"lng":134.989928,"zip":"6512125"},{"town":"伊川谷町潤和","koaza":"","lat":34.663702,"lng":135.000054,"zip":"6512124"},{"town":"伊川谷町長坂","koaza":"","lat":34.675216,"lng":135.039879,"zip":"6512104"},{"town":"白水二丁目","koaza":"","lat":34.671202,"lng":135.001589,"zip":"6512129"},{"town":"白水三丁目","koaza":"","lat":34.66904,"lng":135.004974,"zip":"6512129"},{"town":"大津和二丁目","koaza":"","lat":34.669814,"lng":135.027869,"zip":"6512112"},{"town":"大津和一丁目","koaza":"","lat":34.668395,"lng":135.029072,"zip":"6512112"},{"town":"池上三丁目","koaza":"","lat":34.671922,"lng":135.023474,"zip":"6512111"},{"town":"池上一丁目","koaza":"","lat":34.672023,"lng":135.031542,"zip":"6512111"},{"town":"南別府二丁目","koaza":"","lat":34.67062,"lng":135.017539,"zip":"6512116"},{"town":"南別府一丁目","koaza":"","lat":34.671201,"lng":135.021289,"zip":"6512116"},{"town":"南別府三丁目","koaza":"","lat":34.669591,"lng":135.01537,"zip":"6512116"},{"town":"南別府四丁目","koaza":"","lat":34.668662,"lng":135.010438,"zip":"6512116"},{"town":"神出町東","koaza":"","lat":34.751868,"lng":134.999175,"zip":"6512311"},{"town":"櫨谷町菅野","koaza":"","lat":34.698295,"lng":135.00439,"zip":"6512238"},{"town":"玉津町水谷","koaza":"","lat":34.681256,"lng":135.001636,"zip":"6512121"},{"town":"水谷二丁目","koaza":"","lat":34.677905,"lng":134.996489,"zip":"6512121"},{"town":"水谷三丁目","koaza":"","lat":34.681136,"lng":134.996161,"zip":"6512121"},{"town":"神出町南","koaza":"","lat":34.740094,"lng":134.992526,"zip":"6512312"},{"town":"平野町常本","koaza":"","lat":34.721411,"lng":134.985919,"zip":"6512263"},{"town":"平野町繁田","koaza":"","lat":34.721054,"lng":134.999495,"zip":"6512262"},{"town":"平野町黒田","koaza":"","lat":34.727258,"lng":134.993492,"zip":"6512268"},{"town":"春日台八丁目","koaza":"","lat":34.711613,"lng":134.996296,"zip":"6512276"},{"town":"春日台二丁目","koaza":"","lat":34.710932,"lng":134.999649,"zip":"6512276"},{"town":"春日台三丁目","koaza":"","lat":34.707611,"lng":134.997344,"zip":"6512276"},{"town":"樫野台二丁目","koaza":"","lat":34.70274,"lng":135.000805,"zip":"6512275"},{"town":"春日台九丁目","koaza":"","lat":34.713817,"lng":134.997904,"zip":"6512276"},{"town":"玉津町二ツ屋","koaza":"","lat":34.684741,"lng":134.997241,"zip":"6512142"},{"town":"王塚台二丁目","koaza":"","lat":34.670783,"lng":134.971832,"zip":"6512135"},{"town":"王塚台一丁目","koaza":"","lat":34.671126,"lng":134.973767,"zip":"6512135"},{"town":"曙町","koaza":"","lat":34.67067,"lng":134.977856,"zip":"6512134"},{"town":"持子二丁目","koaza":"","lat":34.669979,"lng":134.981861,"zip":"6512131"},{"town":"持子一丁目","koaza":"","lat":34.669481,"lng":134.984093,"zip":"6512131"},{"town":"玉津町森友","koaza":"","lat":34.661781,"lng":134.982375,"zip":"6500000"},{"town":"玉津町西河原","koaza":"","lat":34.66568,"lng":134.988237,"zip":"6512127"},{"town":"玉津町今津","koaza":"","lat":34.675691,"lng":134.988828,"zip":"6512128"},{"town":"櫨谷町松本","koaza":"","lat":34.692337,"lng":135.000565,"zip":"6512239"},{"town":"樫野台四丁目","koaza":"","lat":34.704431,"lng":134.997733,"zip":"6512275"},{"town":"春日台四丁目","koaza":"","lat":34.70662,"lng":134.995234,"zip":"6512276"},{"town":"平野町堅田","koaza":"","lat":34.727605,"lng":135.004764,"zip":"6512261"},{"town":"押部谷町和田","koaza":"","lat":34.736739,"lng":135.002666,"zip":"6512206"},{"town":"押部谷町細田","koaza":"","lat":34.750937,"lng":135.01953,"zip":"6512207"},{"town":"押部谷町西盛","koaza":"","lat":34.756342,"lng":135.032794,"zip":"6512202"},{"town":"押部谷町福住","koaza":"","lat":34.757987,"lng":135.038229,"zip":"6512213"},{"town":"押部谷町押部","koaza":"","lat":34.749318,"lng":135.046577,"zip":"6512212"},{"town":"押部谷町栄","koaza":"","lat":34.756334,"lng":135.059815,"zip":"6512211"},{"town":"押部谷町木幡","koaza":"","lat":34.75233,"lng":135.069046,"zip":"6512221"},{"town":"押部谷町木津","koaza":"","lat":34.743729,"lng":135.09097,"zip":"6512222"},{"town":"神出町勝成","koaza":"","lat":34.773355,"lng":134.996253,"zip":"6512301"},{"town":"神出町紫合","koaza":"","lat":34.749807,"lng":134.967569,"zip":"6512334"},{"town":"神出町北","koaza":"","lat":34.753083,"lng":134.979026,"zip":"6512332"},{"town":"神出町小束野","koaza":"","lat":34.764804,"lng":134.985831,"zip":"6512304"},{"town":"神出町古神","koaza":"","lat":34.765398,"lng":135.003745,"zip":"6512302"},{"town":"大津和三丁目","koaza":"","lat":34.66792,"lng":135.025706,"zip":"6512112"},{"town":"今寺","koaza":"","lat":34.666922,"lng":135.022394,"zip":"6512114"},{"town":"伊川谷町有瀬","koaza":"","lat":34.663364,"lng":135.020403,"zip":"6512113"},{"town":"南別府五丁目","koaza":"","lat":34.667365,"lng":135.006387,"zip":"6512116"},{"town":"玉津町上池","koaza":"","lat":34.659418,"lng":134.988253,"zip":"6512126"},{"town":"玉津町吉田","koaza":"","lat":34.659054,"lng":134.979963,"zip":"6512138"},{"town":"森友三丁目","koaza":"","lat":34.664114,"lng":134.98313,"zip":"6512132"},{"town":"森友五丁目","koaza":"","lat":34.666658,"lng":134.984641,"zip":"6512132"},{"town":"森友一丁目","koaza":"","lat":34.660825,"lng":134.979042,"zip":"6512132"},{"town":"森友二丁目","koaza":"","lat":34.66451,"lng":134.980524,"zip":"6512132"},{"town":"森友四丁目","koaza":"","lat":34.666984,"lng":134.981434,"zip":"6512132"},{"town":"枝吉一丁目","koaza":"","lat":34.662066,"lng":134.976513,"zip":"6512133"},{"town":"枝吉五丁目","koaza":"","lat":34.667533,"lng":134.978591,"zip":"6512133"},{"town":"枝吉二丁目","koaza":"","lat":34.664943,"lng":134.976923,"zip":"6512133"},{"town":"枝吉四丁目","koaza":"","lat":34.667612,"lng":134.975925,"zip":"6512133"},{"town":"枝吉三丁目","koaza":"","lat":34.667774,"lng":134.973212,"zip":"6512133"},{"town":"井吹台北町五丁目","koaza":"","lat":34.710951,"lng":135.041,"zip":"6512244"},{"town":"井吹台西町八丁目","koaza":"","lat":34.698327,"lng":135.023507,"zip":"6512243"},{"town":"見津が丘七丁目","koaza":"","lat":34.730126,"lng":135.089291,"zip":"6512228"},{"town":"井吹台北町三丁目","koaza":"","lat":34.708092,"lng":135.032317,"zip":"6512244"},{"town":"井吹台北町四丁目","koaza":"","lat":34.707792,"lng":135.036323,"zip":"6512244"},{"town":"井吹台北町二丁目","koaza":"","lat":34.705788,"lng":135.031613,"zip":"6512244"},{"town":"井吹台北町一丁目","koaza":"","lat":34.703455,"lng":135.028397,"zip":"6512244"},{"town":"和井取","koaza":"","lat":34.673336,"lng":134.999986,"zip":"6512120"},{"town":"白水一丁目","koaza":"","lat":34.674243,"lng":135.002955,"zip":"6512129"},{"town":"前開南町一丁目","koaza":"","lat":34.688237,"lng":135.042467,"zip":"6512109"},{"town":"水谷一丁目","koaza":"","lat":34.679863,"lng":135.000662,"zip":"6512121"},{"town":"井吹台西町六丁目","koaza":"","lat":34.69112,"lng":135.018409,"zip":"6512243"},{"town":"井吹台西町五丁目","koaza":"","lat":34.692927,"lng":135.019354,"zip":"6512243"},{"town":"見津が丘五丁目","koaza":"","lat":34.734604,"lng":135.08939,"zip":"6512228"},{"town":"見津が丘一丁目","koaza":"","lat":34.74187,"lng":135.085852,"zip":"6512228"},{"town":"見津が丘二丁目","koaza":"","lat":34.743644,"lng":135.080121,"zip":"6512228"},{"town":"井吹台西町四丁目","koaza":"","lat":34.694243,"lng":135.022686,"zip":"6512243"},{"town":"井吹台西町三丁目","koaza":"","lat":34.693618,"lng":135.026873,"zip":"6512243"},{"town":"学園東町七丁目","koaza":"","lat":34.675731,"lng":135.072876,"zip":"6512102"},{"town":"学園東町六丁目","koaza":"","lat":34.68027,"lng":135.070121,"zip":"6512102"},{"town":"学園東町八丁目","koaza":"","lat":34.678086,"lng":135.066666,"zip":"6512102"},{"town":"学園東町五丁目","koaza":"","lat":34.683479,"lng":135.064989,"zip":"6512102"},{"town":"学園東町九丁目","koaza":"","lat":34.680362,"lng":135.061148,"zip":"6512102"},{"town":"学園東町一丁目","koaza":"","lat":34.682276,"lng":135.061195,"zip":"6512102"},{"town":"学園西町一丁目","koaza":"","lat":34.681976,"lng":135.057492,"zip":"6512103"},{"town":"学園西町八丁目","koaza":"","lat":34.677685,"lng":135.053372,"zip":"6512103"},{"town":"学園西町七丁目","koaza":"","lat":34.680317,"lng":135.05564,"zip":"6512103"},{"town":"学園西町六丁目","koaza":"","lat":34.681522,"lng":135.049807,"zip":"6512103"},{"town":"池上二丁目","koaza":"","lat":34.672936,"lng":135.027074,"zip":"6512111"},{"town":"池上四丁目","koaza":"","lat":34.674942,"lng":135.024407,"zip":"6512111"},{"town":"池上五丁目","koaza":"","lat":34.676527,"lng":135.023856,"zip":"6512111"},{"town":"北別府一丁目","koaza":"","lat":34.673305,"lng":135.01772,"zip":"6512117"},{"town":"北別府三丁目","koaza":"","lat":34.673346,"lng":135.013849,"zip":"6512117"},{"town":"北別府二丁目","koaza":"","lat":34.675717,"lng":135.015812,"zip":"6512117"},{"town":"北別府四丁目","koaza":"","lat":34.672976,"lng":135.010675,"zip":"6512117"},{"town":"北別府五丁目","koaza":"","lat":34.674172,"lng":135.009203,"zip":"6512117"},{"town":"天王山","koaza":"","lat":34.676756,"lng":135.008889,"zip":"6512123"},{"town":"学園東町四丁目","koaza":"","lat":34.685915,"lng":135.065417,"zip":"6512102"},{"town":"学園東町二丁目","koaza":"","lat":34.684481,"lng":135.061299,"zip":"6512102"},{"town":"学園東町三丁目","koaza":"","lat":34.686472,"lng":135.061203,"zip":"6512102"},{"town":"学園西町二丁目","koaza":"","lat":34.684695,"lng":135.056049,"zip":"6512103"},{"town":"学園西町五丁目","koaza":"","lat":34.683702,"lng":135.053272,"zip":"6512103"},{"town":"学園西町三丁目","koaza":"","lat":34.68757,"lng":135.054999,"zip":"6512103"},{"town":"学園西町四丁目","koaza":"","lat":34.685776,"lng":135.049617,"zip":"6512103"},{"town":"前開南町二丁目","koaza":"","lat":34.68652,"lng":135.04541,"zip":"6512109"},{"town":"伊川谷町小寺","koaza":"","lat":34.682653,"lng":135.041961,"zip":"6512107"},{"town":"井吹台東町七丁目","koaza":"","lat":34.708394,"lng":135.045099,"zip":"6512242"},{"town":"伊川谷町上脇","koaza":"","lat":34.684021,"lng":135.03323,"zip":"6512105"},{"town":"井吹台東町二丁目","koaza":"","lat":34.69821,"lng":135.033458,"zip":"6512242"},{"town":"井吹台西町一丁目","koaza":"","lat":34.697328,"lng":135.026486,"zip":"6512243"},{"town":"井吹台西町二丁目","koaza":"","lat":34.696277,"lng":135.03054,"zip":"6512243"},{"town":"伊川谷町井吹","koaza":"","lat":34.68985,"lng":135.028522,"zip":"6512106"},{"town":"伊川谷町別府","koaza":"","lat":34.682917,"lng":135.013895,"zip":"6512115"},{"town":"伊川谷町布施畑","koaza":"","lat":34.703896,"lng":135.084218,"zip":"6512101"},{"town":"伊川谷町前開","koaza":"","lat":34.700185,"lng":135.065316,"zip":"6512108"},{"town":"室谷一丁目","koaza":"","lat":34.700303,"lng":135.05068,"zip":"6512241"},{"town":"室谷二丁目","koaza":"","lat":34.703732,"lng":135.050518,"zip":"6512241"},{"town":"井吹台東町一丁目","koaza":"","lat":34.702136,"lng":135.034074,"zip":"6512242"},{"town":"井吹台東町三丁目","koaza":"","lat":34.699826,"lng":135.037129,"zip":"6512242"},{"town":"井吹台東町四丁目","koaza":"","lat":34.702147,"lng":135.039616,"zip":"6512242"},{"town":"井吹台東町六丁目","koaza":"","lat":34.707012,"lng":135.041746,"zip":"6512242"},{"town":"井吹台東町五丁目","koaza":"","lat":34.706066,"lng":135.03818,"zip":"6512242"},{"town":"櫨谷町池谷","koaza":"","lat":34.710876,"lng":135.028064,"zip":"6512234"},{"town":"糀台一丁目","koaza":"","lat":34.716364,"lng":135.0289,"zip":"6512273"},{"town":"糀台六丁目","koaza":"","lat":34.714063,"lng":135.020205,"zip":"6512273"},{"town":"櫨谷町長谷","koaza":"","lat":34.706439,"lng":135.019674,"zip":"6512235"},{"town":"竹の台一丁目","koaza":"","lat":34.712202,"lng":135.016432,"zip":"6512274"},{"town":"竹の台二丁目","koaza":"","lat":34.713331,"lng":135.012872,"zip":"6512274"},{"town":"竹の台六丁目","koaza":"","lat":34.717499,"lng":135.015191,"zip":"6512274"},{"town":"櫨谷町谷口","koaza":"","lat":34.698596,"lng":135.014769,"zip":"6512237"},{"town":"櫨谷町栃木","koaza":"","lat":34.704606,"lng":135.009017,"zip":"6512236"},{"town":"樫野台三丁目","koaza":"","lat":34.706078,"lng":135.001967,"zip":"6512275"},{"town":"竹の台三丁目","koaza":"","lat":34.710595,"lng":135.011448,"zip":"6512274"},{"town":"樫野台一丁目","koaza":"","lat":34.707464,"lng":135.006729,"zip":"6512275"},{"town":"竹の台五丁目","koaza":"","lat":34.715774,"lng":135.010932,"zip":"6512274"},{"town":"樫野台五丁目","koaza":"","lat":34.70834,"lng":135.001477,"zip":"6512275"},{"town":"樫野台六丁目","koaza":"","lat":34.711127,"lng":135.004839,"zip":"6512275"},{"town":"竹の台四丁目","koaza":"","lat":34.713113,"lng":135.006987,"zip":"6512274"},{"town":"美賀多台三丁目","koaza":"","lat":34.717134,"lng":135.006852,"zip":"6512277"},{"town":"美賀多台四丁目","koaza":"","lat":34.715194,"lng":135.004623,"zip":"6512277"},{"town":"春日台一丁目","koaza":"","lat":34.712979,"lng":135.002508,"zip":"6512276"},{"town":"狩場台二丁目","koaza":"","lat":34.71893,"lng":135.033834,"zip":"6512272"},{"town":"狩場台三丁目","koaza":"","lat":34.721617,"lng":135.031997,"zip":"6512272"},{"town":"糀台三丁目","koaza":"","lat":34.719267,"lng":135.027388,"zip":"6512273"},{"town":"狩場台四丁目","koaza":"","lat":34.722348,"lng":135.028303,"zip":"6512272"},{"town":"櫨谷町福谷","koaza":"","lat":34.71597,"lng":135.039787,"zip":"6512233"},{"town":"狩場台五丁目","koaza":"","lat":34.724872,"lng":135.028739,"zip":"6512272"},{"town":"狩場台一丁目","koaza":"","lat":34.722708,"lng":135.035403,"zip":"6512272"},{"town":"糀台二丁目","koaza":"","lat":34.715621,"lng":135.023258,"zip":"6512273"},{"town":"糀台四丁目","koaza":"","lat":34.722428,"lng":135.024648,"zip":"6512273"},{"town":"糀台五丁目","koaza":"","lat":34.719218,"lng":135.0185,"zip":"6512273"},{"town":"美賀多台一丁目","koaza":"","lat":34.720979,"lng":135.014043,"zip":"6512277"},{"town":"高塚台四丁目","koaza":"","lat":34.72549,"lng":135.023783,"zip":"6512271"},{"town":"高塚台三丁目","koaza":"","lat":34.730663,"lng":135.020196,"zip":"6512271"},{"town":"高塚台五丁目","koaza":"","lat":34.726245,"lng":135.015874,"zip":"6512271"},{"town":"高塚台六丁目","koaza":"","lat":34.731316,"lng":135.014929,"zip":"6512271"},{"town":"美賀多台二丁目","koaza":"","lat":34.719202,"lng":135.010332,"zip":"6512277"},{"town":"美賀多台六丁目","koaza":"","lat":34.718903,"lng":135.005513,"zip":"6512277"},{"town":"美賀多台七丁目","koaza":"","lat":34.720933,"lng":135.008657,"zip":"6512277"},{"town":"美賀多台九丁目","koaza":"","lat":34.724122,"lng":135.011497,"zip":"6512277"},{"town":"美賀多台五丁目","koaza":"","lat":34.718402,"lng":135.002784,"zip":"6512277"},{"town":"美賀多台八丁目","koaza":"","lat":34.722445,"lng":135.007438,"zip":"6512277"},{"town":"押部谷町養田","koaza":"","lat":34.732592,"lng":135.009941,"zip":"6512205"},{"town":"桜が丘中町六丁目","koaza":"","lat":34.739781,"lng":135.062835,"zip":"6512226"},{"town":"桜が丘東町六丁目","koaza":"","lat":34.739922,"lng":135.065138,"zip":"6512225"},{"town":"秋葉台一丁目","koaza":"","lat":34.742994,"lng":135.069559,"zip":"6512224"},{"town":"桜が丘東町五丁目","koaza":"","lat":34.743072,"lng":135.063924,"zip":"6512225"},{"town":"秋葉台三丁目","koaza":"","lat":34.745464,"lng":135.067669,"zip":"6512224"},{"town":"桜が丘東町四丁目","koaza":"","lat":34.745071,"lng":135.062555,"zip":"6512225"},{"town":"秋葉台二丁目","koaza":"","lat":34.745952,"lng":135.065454,"zip":"6512224"},{"town":"桜が丘西町六丁目","koaza":"","lat":34.739417,"lng":135.060427,"zip":"6512227"},{"town":"桜が丘中町五丁目","koaza":"","lat":34.741774,"lng":135.06138,"zip":"6512226"},{"town":"桜が丘西町五丁目","koaza":"","lat":34.740774,"lng":135.058795,"zip":"6512227"},{"town":"櫨谷町寺谷","koaza":"","lat":34.728538,"lng":135.057657,"zip":"6512231"},{"town":"桜が丘中町四丁目","koaza":"","lat":34.743809,"lng":135.059913,"zip":"6512226"},{"town":"桜が丘西町四丁目","koaza":"","lat":34.742304,"lng":135.056501,"zip":"6512227"},{"town":"桜が丘東町三丁目","koaza":"","lat":34.747374,"lng":135.061544,"zip":"6512225"},{"town":"桜が丘中町三丁目","koaza":"","lat":34.746011,"lng":135.058329,"zip":"6512226"},{"town":"桜が丘東町二丁目","koaza":"","lat":34.748942,"lng":135.059903,"zip":"6512225"},{"town":"桜が丘中町二丁目","koaza":"","lat":34.748465,"lng":135.056559,"zip":"6512226"},{"town":"桜が丘東町一丁目","koaza":"","lat":34.750693,"lng":135.05952,"zip":"6512225"},{"town":"桜が丘中町一丁目","koaza":"","lat":34.750408,"lng":135.05663,"zip":"6512226"},{"town":"桜が丘西町三丁目","koaza":"","lat":34.744718,"lng":135.055312,"zip":"6512227"},{"town":"桜が丘西町二丁目","koaza":"","lat":34.746847,"lng":135.054092,"zip":"6512227"},{"town":"桜が丘西町一丁目","koaza":"","lat":34.749944,"lng":135.053462,"zip":"6512227"},{"town":"高塚台二丁目","koaza":"","lat":34.732801,"lng":135.023968,"zip":"6512271"},{"town":"高塚台一丁目","koaza":"","lat":34.733945,"lng":135.027928,"zip":"6512271"},{"town":"押部谷町近江","koaza":"","lat":34.744561,"lng":135.041222,"zip":"6512203"},{"town":"高塚台七丁目","koaza":"","lat":34.7382,"lng":135.020802,"zip":"6512271"},{"town":"押部谷町高和","koaza":"","lat":34.738319,"lng":135.041194,"zip":"6512204"},{"town":"天が岡","koaza":"","lat":34.689713,"lng":134.991759,"zip":"6512141"},{"town":"小山三丁目","koaza":"","lat":34.68171,"lng":134.983477,"zip":"6512144"},{"town":"玉津町小山","koaza":"","lat":34.682752,"lng":134.981733,"zip":"6512144"},{"town":"小山二丁目","koaza":"","lat":34.685224,"lng":134.984309,"zip":"6512144"},{"town":"丸塚二丁目","koaza":"","lat":34.67782,"lng":134.98435,"zip":"6512143"},{"town":"二ツ屋二丁目","koaza":"","lat":34.681183,"lng":134.989633,"zip":"6512142"},{"town":"持子三丁目","koaza":"","lat":34.672388,"lng":134.983015,"zip":"6512131"},{"town":"王塚台七丁目","koaza":"","lat":34.67262,"lng":134.98034,"zip":"6512135"},{"town":"小山一丁目","koaza":"","lat":34.685153,"lng":134.988521,"zip":"6512144"},{"town":"丸塚一丁目","koaza":"","lat":34.680991,"lng":134.986143,"zip":"6512143"},{"town":"王塚台六丁目","koaza":"","lat":34.673266,"lng":134.978126,"zip":"6512135"},{"town":"玉津町出合","koaza":"","lat":34.677258,"lng":134.979716,"zip":"6512137"},{"town":"王塚台三丁目","koaza":"","lat":34.672839,"lng":134.971956,"zip":"6512135"},{"town":"王塚台五丁目","koaza":"","lat":34.674172,"lng":134.975728,"zip":"6512135"},{"town":"王塚台四丁目","koaza":"","lat":34.675211,"lng":134.973057,"zip":"6512135"},{"town":"中野一丁目","koaza":"","lat":34.677635,"lng":134.973886,"zip":"6512136"},{"town":"中野二丁目","koaza":"","lat":34.679338,"lng":134.969167,"zip":"6512136"},{"town":"二ツ屋一丁目","koaza":"","lat":34.6857,"lng":134.990825,"zip":"6512142"},{"town":"長畑町","koaza":"","lat":34.689109,"lng":134.985048,"zip":"6512148"},{"town":"玉津町居住","koaza":"","lat":34.684837,"lng":134.980692,"zip":"6512145"},{"town":"宮下二丁目","koaza":"","lat":34.68993,"lng":134.976475,"zip":"6512146"},{"town":"平野町慶明","koaza":"","lat":34.692291,"lng":134.987039,"zip":"6512255"},{"town":"宮下三丁目","koaza":"","lat":34.691487,"lng":134.977041,"zip":"6512146"},{"town":"平野町向井","koaza":"","lat":34.699224,"lng":134.989775,"zip":"6512253"},{"town":"平野町芝崎","koaza":"","lat":34.695457,"lng":134.981366,"zip":"6512254"},{"town":"平野町福中","koaza":"","lat":34.69885,"lng":134.980289,"zip":"6512252"},{"town":"宮下一丁目","koaza":"","lat":34.688057,"lng":134.976909,"zip":"6512146"},{"town":"玉津町田中","koaza":"","lat":34.685263,"lng":134.978591,"zip":"6512147"},{"town":"平野町大野","koaza":"","lat":34.691353,"lng":134.974488,"zip":"6512256"},{"town":"春日台五丁目","koaza":"","lat":34.702346,"lng":134.991476,"zip":"6512276"},{"town":"春日台六丁目","koaza":"","lat":34.704686,"lng":134.991832,"zip":"6512276"},{"town":"春日台七丁目","koaza":"","lat":34.708596,"lng":134.993087,"zip":"6512276"},{"town":"平野町下村","koaza":"","lat":34.703351,"lng":134.982755,"zip":"6512251"},{"town":"平野町宮前","koaza":"","lat":34.708199,"lng":134.985857,"zip":"6512265"},{"town":"平野町大畑","koaza":"","lat":34.713632,"lng":134.990621,"zip":"6512264"},{"town":"平野町中津","koaza":"","lat":34.691763,"lng":134.970239,"zip":"6512257"},{"town":"上新地一丁目","koaza":"","lat":34.713097,"lng":134.942442,"zip":"6512411"},{"town":"竜が岡一丁目","koaza":"","lat":34.710472,"lng":134.939201,"zip":"6512412"},{"town":"上新地二丁目","koaza":"","lat":34.714329,"lng":134.939797,"zip":"6512411"},{"town":"大沢二丁目","koaza":"","lat":34.707256,"lng":134.935023,"zip":"6512414"},{"town":"竜が岡三丁目","koaza":"","lat":34.712649,"lng":134.935686,"zip":"6512412"},{"town":"大沢一丁目","koaza":"","lat":34.707312,"lng":134.937844,"zip":"6512414"},{"town":"竜が岡二丁目","koaza":"","lat":34.709824,"lng":134.934665,"zip":"6512412"},{"town":"岩岡町西脇","koaza":"","lat":34.703819,"lng":134.929823,"zip":"6512403"},{"town":"竜が岡四丁目","koaza":"","lat":34.713089,"lng":134.932508,"zip":"6512412"},{"town":"竜が岡五丁目","koaza":"","lat":34.712893,"lng":134.930558,"zip":"6512412"},{"town":"上新地三丁目","koaza":"","lat":34.715141,"lng":134.93402,"zip":"6512411"},{"town":"福吉台一丁目","koaza":"","lat":34.717277,"lng":134.920945,"zip":"6512413"},{"town":"平野町西戸田","koaza":"","lat":34.719041,"lng":134.979214,"zip":"6512267"},{"town":"平野町印路","koaza":"","lat":34.713515,"lng":134.968309,"zip":"6512266"},{"town":"岩岡町印路","koaza":"","lat":34.720749,"lng":134.965464,"zip":"6512402"},{"town":"福吉台二丁目","koaza":"","lat":34.718367,"lng":134.925383,"zip":"6512413"},{"town":"岩岡町岩岡","koaza":"","lat":34.723926,"lng":134.953797,"zip":"6512401"},{"town":"岩岡町野中","koaza":"","lat":34.723464,"lng":134.935903,"zip":"6512405"},{"town":"岩岡町古郷","koaza":"","lat":34.716107,"lng":134.941253,"zip":"6512404"},{"town":"神出町田井","koaza":"","lat":34.738901,"lng":134.98651,"zip":"6512313"},{"town":"神出町宝勢","koaza":"","lat":34.735378,"lng":134.973934,"zip":"6512321"},{"town":"神出町池田","koaza":"","lat":34.73916,"lng":134.95877,"zip":"6512333"},{"town":"月が丘二丁目","koaza":"","lat":34.760755,"lng":135.055801,"zip":"6512217"},{"town":"月が丘四丁目","koaza":"","lat":34.761025,"lng":135.053821,"zip":"6512217"},{"town":"月が丘一丁目","koaza":"","lat":34.757564,"lng":135.051869,"zip":"6512217"},{"town":"月が丘三丁目","koaza":"","lat":34.763828,"lng":135.054142,"zip":"6512217"},{"town":"月が丘五丁目","koaza":"","lat":34.761153,"lng":135.051537,"zip":"6512217"},{"town":"月が丘六丁目","koaza":"","lat":34.761938,"lng":135.049435,"zip":"6512217"},{"town":"月が丘七丁目","koaza":"","lat":34.759226,"lng":135.048831,"zip":"6512217"},{"town":"美穂が丘五丁目","koaza":"","lat":34.760668,"lng":135.046497,"zip":"6512216"},{"town":"美穂が丘二丁目","koaza":"","lat":34.758778,"lng":135.045418,"zip":"6512216"},{"town":"美穂が丘一丁目","koaza":"","lat":34.758133,"lng":135.042338,"zip":"6512216"},{"town":"美穂が丘三丁目","koaza":"","lat":34.759539,"lng":135.04333,"zip":"6512216"},{"town":"美穂が丘四丁目","koaza":"","lat":34.760619,"lng":135.042904,"zip":"6512216"},{"town":"富士見が丘四丁目","koaza":"","lat":34.761141,"lng":135.037182,"zip":"6512214"},{"town":"富士見が丘五丁目","koaza":"","lat":34.763385,"lng":135.037819,"zip":"6512214"},{"town":"富士見が丘一丁目","koaza":"","lat":34.759681,"lng":135.035886,"zip":"6512214"},{"town":"富士見が丘三丁目","koaza":"","lat":34.762442,"lng":135.035865,"zip":"6512214"},{"town":"富士見が丘二丁目","koaza":"","lat":34.760303,"lng":135.033603,"zip":"6512214"},{"town":"北山台三丁目","koaza":"","lat":34.763671,"lng":135.033451,"zip":"6512215"},{"town":"北山台二丁目","koaza":"","lat":34.763277,"lng":135.029736,"zip":"6512215"},{"town":"北山台一丁目","koaza":"","lat":34.762585,"lng":135.028212,"zip":"6512215"},{"town":"高雄台","koaza":"","lat":34.760115,"lng":135.027725,"zip":"6512201"},{"town":"神出町五百蔵","koaza":"","lat":34.762851,"lng":135.019072,"zip":"6512303"},{"town":"神出町広谷","koaza":"","lat":34.760257,"lng":134.974087,"zip":"6512331"},{"town":"櫨谷町友清","koaza":"","lat":34.716193,"lng":135.058218,"zip":"6512232"},{"town":"見津が丘四丁目","koaza":"","lat":34.731759,"lng":135.084144,"zip":"6512228"},{"town":"見津が丘三丁目","koaza":"","lat":34.739004,"lng":135.080923,"zip":"6512228"},{"town":"押部谷町木見","koaza":"","lat":34.7312,"lng":135.078428,"zip":"6512223"}]