[{"town":"港島八丁目","koaza":"","lat":34.665691,"lng":135.228664,"zip":"6500045"},{"town":"港島七丁目","koaza":"","lat":34.672655,"lng":135.223518,"zip":"6500045"},{"town":"港島一丁目","koaza":"","lat":34.665331,"lng":135.204586,"zip":"6500045"},{"town":"港島六丁目","koaza":"","lat":34.670968,"lng":135.217411,"zip":"6500045"},{"town":"港島中町二丁目","koaza":"","lat":34.671847,"lng":135.214396,"zip":"6500046"},{"town":"港島中町三丁目","koaza":"","lat":34.670765,"lng":135.211547,"zip":"6500046"},{"town":"港島中町四丁目","koaza":"","lat":34.670202,"lng":135.2083,"zip":"6500046"},{"town":"神戸空港","koaza":"","lat":34.637702,"lng":135.224785,"zip":"6500048"},{"town":"港島中町七丁目","koaza":"","lat":34.667534,"lng":135.21703,"zip":"6500046"},{"town":"港島中町八丁目","koaza":"","lat":34.661571,"lng":135.212025,"zip":"6500046"},{"town":"港島中町六丁目","koaza":"","lat":34.665724,"lng":135.212984,"zip":"6500046"},{"town":"港島中町五丁目","koaza":"","lat":34.66374,"lng":135.208568,"zip":"6500046"},{"town":"港島九丁目","koaza":"","lat":34.653891,"lng":135.234419,"zip":"6500045"},{"town":"港島南町六丁目","koaza":"","lat":34.657299,"lng":135.220303,"zip":"6500047"},{"town":"港島南町五丁目","koaza":"","lat":34.655679,"lng":135.216956,"zip":"6500047"},{"town":"港島南町七丁目","koaza":"","lat":34.653166,"lng":135.221678,"zip":"6500047"},{"town":"港島南町四丁目","koaza":"","lat":34.65469,"lng":135.213271,"zip":"6500047"},{"town":"港島南町三丁目","koaza":"","lat":34.657825,"lng":135.210175,"zip":"6500047"},{"town":"港島南町一丁目","koaza":"","lat":34.660846,"lng":135.218296,"zip":"6500047"},{"town":"港島南町二丁目","koaza":"","lat":34.659412,"lng":135.214831,"zip":"6500047"},{"town":"脇浜海岸通","koaza":"","lat":34.701149,"lng":135.215668,"zip":"6510073"},{"town":"中島通一丁目","koaza":"","lat":34.71342,"lng":135.209769,"zip":"6510052"},{"town":"中島通二丁目","koaza":"","lat":34.713135,"lng":135.209013,"zip":"6510052"},{"town":"中島通三丁目","koaza":"","lat":34.712705,"lng":135.208125,"zip":"6510052"},{"town":"神仙寺通二丁目","koaza":"","lat":34.714242,"lng":135.208615,"zip":"6510051"},{"town":"神仙寺通一丁目","koaza":"","lat":34.715138,"lng":135.208164,"zip":"6510051"},{"town":"神仙寺通三丁目","koaza":"","lat":34.713402,"lng":135.206944,"zip":"6510051"},{"town":"神仙寺通四丁目","koaza":"","lat":34.713108,"lng":135.20569,"zip":"6510051"},{"town":"大日通二丁目","koaza":"","lat":34.706074,"lng":135.212168,"zip":"6510064"},{"town":"大日通三丁目","koaza":"","lat":34.705791,"lng":135.210953,"zip":"6510064"},{"town":"籠池通二丁目","koaza":"","lat":34.711886,"lng":135.209568,"zip":"6510053"},{"town":"坂口通七丁目","koaza":"","lat":34.706637,"lng":135.205361,"zip":"6510062"},{"town":"熊内橋通一丁目","koaza":"","lat":34.706084,"lng":135.204153,"zip":"6510055"},{"town":"神若通四丁目","koaza":"","lat":34.703233,"lng":135.202266,"zip":"6510067"},{"town":"中尾町","koaza":"","lat":34.710262,"lng":135.203139,"zip":"6510057"},{"town":"若菜通三丁目","koaza":"","lat":34.702047,"lng":135.203949,"zip":"6510091"},{"town":"国香通三丁目","koaza":"","lat":34.702557,"lng":135.203626,"zip":"6510066"},{"town":"国香通二丁目","koaza":"","lat":34.703061,"lng":135.204508,"zip":"6510066"},{"town":"若菜通一丁目","koaza":"","lat":34.70332,"lng":135.205732,"zip":"6510091"},{"town":"中島通四丁目","koaza":"","lat":34.711845,"lng":135.206416,"zip":"6510052"},{"town":"籠池通一丁目","koaza":"","lat":34.712047,"lng":135.21049,"zip":"6510053"},{"town":"坂口通一丁目","koaza":"","lat":34.708325,"lng":135.212445,"zip":"6510062"},{"town":"上筒井通一丁目","koaza":"","lat":34.709257,"lng":135.211894,"zip":"6510061"},{"town":"野崎通一丁目","koaza":"","lat":34.710302,"lng":135.210434,"zip":"6510054"},{"town":"野崎通二丁目","koaza":"","lat":34.709823,"lng":135.208465,"zip":"6510054"},{"town":"籠池通三丁目","koaza":"","lat":34.711292,"lng":135.208701,"zip":"6510053"},{"town":"野崎通三丁目","koaza":"","lat":34.709574,"lng":135.207367,"zip":"6510054"},{"town":"籠池通四丁目","koaza":"","lat":34.711039,"lng":135.207177,"zip":"6510053"},{"town":"上筒井通五丁目","koaza":"","lat":34.708179,"lng":135.207602,"zip":"6510061"},{"town":"籠池通五丁目","koaza":"","lat":34.710467,"lng":135.20604,"zip":"6510053"},{"town":"野崎通四丁目","koaza":"","lat":34.709239,"lng":135.206462,"zip":"6510054"},{"town":"籠池通六丁目","koaza":"","lat":34.710064,"lng":135.205339,"zip":"6510053"},{"town":"野崎通五丁目","koaza":"","lat":34.708959,"lng":135.205714,"zip":"6510054"},{"town":"野崎通七丁目","koaza":"","lat":34.708437,"lng":135.20411,"zip":"6510054"},{"town":"野崎通六丁目","koaza":"","lat":34.708725,"lng":135.204962,"zip":"6510054"},{"town":"上筒井通七丁目","koaza":"","lat":34.707554,"lng":135.204864,"zip":"6510061"},{"town":"坂口通五丁目","koaza":"","lat":34.707276,"lng":135.208029,"zip":"6510062"},{"town":"上筒井通六丁目","koaza":"","lat":34.707879,"lng":135.20615,"zip":"6510061"},{"town":"坂口通六丁目","koaza":"","lat":34.706963,"lng":135.206689,"zip":"6510062"},{"town":"宮本通六丁目","koaza":"","lat":34.705949,"lng":135.207125,"zip":"6510063"},{"town":"宮本通五丁目","koaza":"","lat":34.7064,"lng":135.208241,"zip":"6510063"},{"town":"上筒井通四丁目","koaza":"","lat":34.708593,"lng":135.208874,"zip":"6510061"},{"town":"坂口通四丁目","koaza":"","lat":34.707551,"lng":135.209275,"zip":"6510062"},{"town":"宮本通四丁目","koaza":"","lat":34.706535,"lng":135.209612,"zip":"6510063"},{"town":"宮本通三丁目","koaza":"","lat":34.706781,"lng":135.210615,"zip":"6510063"},{"town":"上筒井通二丁目","koaza":"","lat":34.708875,"lng":135.210914,"zip":"6510061"},{"town":"上筒井通三丁目","koaza":"","lat":34.708653,"lng":135.210009,"zip":"6510061"},{"town":"坂口通三丁目","koaza":"","lat":34.707794,"lng":135.210287,"zip":"6510062"},{"town":"宮本通一丁目","koaza":"","lat":34.70733,"lng":135.212958,"zip":"6510063"},{"town":"坂口通二丁目","koaza":"","lat":34.708043,"lng":135.211275,"zip":"6510062"},{"town":"宮本通二丁目","koaza":"","lat":34.707058,"lng":135.21172,"zip":"6510063"},{"town":"大日通一丁目","koaza":"","lat":34.706372,"lng":135.213544,"zip":"6510064"},{"town":"割塚通一丁目","koaza":"","lat":34.705737,"lng":135.21393,"zip":"6510065"},{"town":"割塚通五丁目","koaza":"","lat":34.704612,"lng":135.209106,"zip":"6510065"},{"town":"大日通五丁目","koaza":"","lat":34.705202,"lng":135.208631,"zip":"6510064"},{"town":"割塚通六丁目","koaza":"","lat":34.704352,"lng":135.20792,"zip":"6510065"},{"town":"大日通六丁目","koaza":"","lat":34.704957,"lng":135.207609,"zip":"6510064"},{"town":"割塚通七丁目","koaza":"","lat":34.703943,"lng":135.206993,"zip":"6510065"},{"town":"神若通一丁目","koaza":"","lat":34.704258,"lng":135.205239,"zip":"6510067"},{"town":"国香通一丁目","koaza":"","lat":34.703698,"lng":135.205595,"zip":"6510066"},{"town":"大日通七丁目","koaza":"","lat":34.704652,"lng":135.206433,"zip":"6510064"},{"town":"旗塚通一丁目","koaza":"","lat":34.705045,"lng":135.204694,"zip":"6510068"},{"town":"宮本通七丁目","koaza":"","lat":34.705623,"lng":135.205904,"zip":"6510063"},{"town":"国香通四丁目","koaza":"","lat":34.702299,"lng":135.202609,"zip":"6510066"},{"town":"国香通五丁目","koaza":"","lat":34.701959,"lng":135.201635,"zip":"6510066"},{"town":"割塚通二丁目","koaza":"","lat":34.70536,"lng":135.212502,"zip":"6510065"},{"town":"割塚通三丁目","koaza":"","lat":34.705084,"lng":135.211197,"zip":"6510065"},{"town":"大日通四丁目","koaza":"","lat":34.705554,"lng":135.209953,"zip":"6510064"},{"town":"脇浜町一丁目","koaza":"","lat":34.703584,"lng":135.213039,"zip":"6510072"},{"town":"割塚通四丁目","koaza":"","lat":34.704864,"lng":135.210195,"zip":"6510065"},{"town":"東雲通一丁目","koaza":"","lat":34.702378,"lng":135.20633,"zip":"6510079"},{"town":"東雲通二丁目","koaza":"","lat":34.701831,"lng":135.205236,"zip":"6510079"},{"town":"若菜通二丁目","koaza":"","lat":34.702605,"lng":135.20475,"zip":"6510091"},{"town":"神若通五丁目","koaza":"","lat":34.703013,"lng":135.20135,"zip":"6510067"},{"town":"神若通二丁目","koaza":"","lat":34.703854,"lng":135.204137,"zip":"6510067"},{"town":"神若通三丁目","koaza":"","lat":34.703545,"lng":135.203203,"zip":"6510067"},{"town":"旗塚通三丁目","koaza":"","lat":34.704511,"lng":135.202742,"zip":"6510068"},{"town":"旗塚通四丁目","koaza":"","lat":34.70402,"lng":135.20177,"zip":"6510068"},{"town":"熊内橋通三丁目","koaza":"","lat":34.705506,"lng":135.20229,"zip":"6510055"},{"town":"旗塚通二丁目","koaza":"","lat":34.704822,"lng":135.203465,"zip":"6510068"},{"town":"熊内橋通四丁目","koaza":"","lat":34.705148,"lng":135.201336,"zip":"6510055"},{"town":"熊内橋通二丁目","koaza":"","lat":34.705865,"lng":135.203015,"zip":"6510055"},{"town":"熊内町一丁目","koaza":"","lat":34.70745,"lng":135.203095,"zip":"6510056"},{"town":"中島通五丁目","koaza":"","lat":34.71157,"lng":135.205023,"zip":"6510052"},{"town":"籠池通七丁目","koaza":"","lat":34.709429,"lng":135.204418,"zip":"6510053"},{"town":"神若通六丁目","koaza":"","lat":34.702523,"lng":135.200117,"zip":"6510067"},{"town":"旗塚通五丁目","koaza":"","lat":34.703797,"lng":135.200731,"zip":"6510068"},{"town":"葺合町","koaza":"","lat":34.720759,"lng":135.194373,"zip":"6510058"},{"town":"生田町三丁目","koaza":"","lat":34.701722,"lng":135.197678,"zip":"6510092"},{"town":"旗塚通六丁目","koaza":"","lat":34.70345,"lng":135.199676,"zip":"6510068"},{"town":"熊内橋通六丁目","koaza":"","lat":34.70447,"lng":135.19919,"zip":"6510055"},{"town":"熊内橋通五丁目","koaza":"","lat":34.704827,"lng":135.200232,"zip":"6510055"},{"town":"熊内町二丁目","koaza":"","lat":34.706946,"lng":135.201407,"zip":"6510056"},{"town":"熊内町三丁目","koaza":"","lat":34.706513,"lng":135.199961,"zip":"6510056"},{"town":"布引町一丁目","koaza":"","lat":34.703413,"lng":135.195584,"zip":"6510097"},{"town":"加納町一丁目","koaza":"","lat":34.705242,"lng":135.195102,"zip":"6500001"},{"town":"熊内橋通七丁目","koaza":"","lat":34.704122,"lng":135.198089,"zip":"6510055"},{"town":"熊内町四丁目","koaza":"","lat":34.705879,"lng":135.198345,"zip":"6510056"},{"town":"熊内町七丁目","koaza":"","lat":34.706967,"lng":135.197227,"zip":"6510056"},{"town":"生田町一丁目","koaza":"","lat":34.704328,"lng":135.196625,"zip":"6510092"},{"town":"熊内町五丁目","koaza":"","lat":34.709805,"lng":135.201123,"zip":"6510056"},{"town":"熊内町八丁目","koaza":"","lat":34.710539,"lng":135.198548,"zip":"6510056"},{"town":"熊内町六丁目","koaza":"","lat":34.70862,"lng":135.199601,"zip":"6510056"},{"town":"熊内町九丁目","koaza":"","lat":34.709754,"lng":135.197649,"zip":"6510056"},{"town":"旗塚通七丁目","koaza":"","lat":34.703118,"lng":135.198633,"zip":"6510068"},{"town":"生田町二丁目","koaza":"","lat":34.70226,"lng":135.196677,"zip":"6510092"},{"town":"脇浜海岸通四丁目","koaza":"","lat":34.694454,"lng":135.207922,"zip":"6510073"},{"town":"脇浜海岸通一丁目","koaza":"","lat":34.697438,"lng":135.214328,"zip":"6510073"},{"town":"国香通六丁目","koaza":"","lat":34.70163,"lng":135.200549,"zip":"6510066"},{"town":"脇浜町二丁目","koaza":"","lat":34.701557,"lng":135.213693,"zip":"6510072"},{"town":"脇浜海岸通二丁目","koaza":"","lat":34.699384,"lng":135.21408,"zip":"6510073"},{"town":"吾妻通二丁目","koaza":"","lat":34.699172,"lng":135.206863,"zip":"6510076"},{"town":"八雲通一丁目","koaza":"","lat":34.701308,"lng":135.20699,"zip":"6510078"},{"town":"筒井町一丁目","koaza":"","lat":34.702799,"lng":135.210223,"zip":"6510071"},{"town":"筒井町二丁目","koaza":"","lat":34.702529,"lng":135.209085,"zip":"6510071"},{"town":"東雲通三丁目","koaza":"","lat":34.701353,"lng":135.204343,"zip":"6510079"},{"town":"八雲通三丁目","koaza":"","lat":34.700455,"lng":135.20485,"zip":"6510078"},{"town":"若菜通四丁目","koaza":"","lat":34.701554,"lng":135.203096,"zip":"6510091"},{"town":"八雲通四丁目","koaza":"","lat":34.700087,"lng":135.20391,"zip":"6510078"},{"town":"東雲通四丁目","koaza":"","lat":34.700882,"lng":135.203463,"zip":"6510079"},{"town":"東雲通五丁目","koaza":"","lat":34.700333,"lng":135.202454,"zip":"6510079"},{"town":"若菜通五丁目","koaza":"","lat":34.701048,"lng":135.202084,"zip":"6510091"},{"town":"東雲通六丁目","koaza":"","lat":34.699647,"lng":135.201158,"zip":"6510079"},{"town":"八雲通五丁目","koaza":"","lat":34.699666,"lng":135.202832,"zip":"6510078"},{"town":"八雲通六丁目","koaza":"","lat":34.699118,"lng":135.201494,"zip":"6510078"},{"town":"日暮通六丁目","koaza":"","lat":34.698286,"lng":135.202012,"zip":"6510077"},{"town":"雲井通一丁目","koaza":"","lat":34.696886,"lng":135.201584,"zip":"6510096"},{"town":"日暮通五丁目","koaza":"","lat":34.698835,"lng":135.203316,"zip":"6510077"},{"town":"吾妻通五丁目","koaza":"","lat":34.697861,"lng":135.203887,"zip":"6510076"},{"town":"日暮通三丁目","koaza":"","lat":34.699634,"lng":135.205325,"zip":"6510077"},{"town":"日暮通四丁目","koaza":"","lat":34.699258,"lng":135.204391,"zip":"6510077"},{"town":"八雲通二丁目","koaza":"","lat":34.700841,"lng":135.205825,"zip":"6510078"},{"town":"日暮通二丁目","koaza":"","lat":34.700031,"lng":135.206322,"zip":"6510077"},{"town":"筒井町三丁目","koaza":"","lat":34.702082,"lng":135.20802,"zip":"6510071"},{"town":"日暮通一丁目","koaza":"","lat":34.700499,"lng":135.207494,"zip":"6510077"},{"town":"脇浜町三丁目","koaza":"","lat":34.699931,"lng":135.210661,"zip":"6510072"},{"town":"北本町通二丁目","koaza":"","lat":34.698344,"lng":135.207356,"zip":"6510075"},{"town":"吾妻通一丁目","koaza":"","lat":34.699683,"lng":135.207999,"zip":"6510076"},{"town":"北本町通一丁目","koaza":"","lat":34.69874,"lng":135.208584,"zip":"6510075"},{"town":"南本町通二丁目","koaza":"","lat":34.697259,"lng":135.208061,"zip":"6510074"},{"town":"南本町通一丁目","koaza":"","lat":34.697924,"lng":135.208797,"zip":"6510074"},{"town":"南本町通三丁目","koaza":"","lat":34.696854,"lng":135.206954,"zip":"6510074"},{"town":"北本町通三丁目","koaza":"","lat":34.697702,"lng":135.206335,"zip":"6510075"},{"town":"吾妻通三丁目","koaza":"","lat":34.698726,"lng":135.205846,"zip":"6510076"},{"town":"北本町通四丁目","koaza":"","lat":34.697386,"lng":135.205476,"zip":"6510075"},{"town":"吾妻通四丁目","koaza":"","lat":34.698302,"lng":135.204949,"zip":"6510076"},{"town":"南本町通四丁目","koaza":"","lat":34.696327,"lng":135.206089,"zip":"6510074"},{"town":"脇浜海岸通三丁目","koaza":"","lat":34.6955,"lng":135.207234,"zip":"6510073"},{"town":"北本町通五丁目","koaza":"","lat":34.696997,"lng":135.204416,"zip":"6510075"},{"town":"南本町通五丁目","koaza":"","lat":34.696083,"lng":135.204919,"zip":"6510074"},{"town":"北本町通六丁目","koaza":"","lat":34.696416,"lng":135.203226,"zip":"6510075"},{"town":"吾妻通六丁目","koaza":"","lat":34.697342,"lng":135.20259,"zip":"6510076"},{"town":"真砂通一丁目","koaza":"","lat":34.695282,"lng":135.205167,"zip":"6510081"},{"town":"浜辺通一丁目","koaza":"","lat":34.692714,"lng":135.202839,"zip":"6510083"},{"town":"南本町通六丁目","koaza":"","lat":34.695551,"lng":135.203661,"zip":"6510074"},{"town":"磯上通一丁目","koaza":"","lat":34.694063,"lng":135.203231,"zip":"6510086"},{"town":"真砂通二丁目","koaza":"","lat":34.694282,"lng":135.204158,"zip":"6510081"},{"town":"小野柄通一丁目","koaza":"","lat":34.695971,"lng":135.2021,"zip":"6510088"},{"town":"御幸通一丁目","koaza":"","lat":34.695213,"lng":135.202599,"zip":"6510087"},{"town":"小野柄通二丁目","koaza":"","lat":34.695523,"lng":135.201071,"zip":"6510088"},{"town":"御幸通二丁目","koaza":"","lat":34.694725,"lng":135.201691,"zip":"6510087"},{"town":"磯上通二丁目","koaza":"","lat":34.69366,"lng":135.202331,"zip":"6510086"},{"town":"二宮町二丁目","koaza":"","lat":34.699851,"lng":135.197159,"zip":"6510093"},{"town":"雲井通二丁目","koaza":"","lat":34.696512,"lng":135.200599,"zip":"6510096"},{"town":"雲井通四丁目","koaza":"","lat":34.695457,"lng":135.198538,"zip":"6510096"},{"town":"中山手通二丁目","koaza":"","lat":34.695658,"lng":135.188978,"zip":"6500004"},{"town":"中山手通一丁目","koaza":"","lat":34.696093,"lng":135.19165,"zip":"6500004"},{"town":"北野町一丁目","koaza":"","lat":34.701941,"lng":135.192864,"zip":"6500002"},{"town":"北野町三丁目","koaza":"","lat":34.7006,"lng":135.189257,"zip":"6500002"},{"town":"山本通三丁目","koaza":"","lat":34.697388,"lng":135.186188,"zip":"6500003"},{"town":"雲井通三丁目","koaza":"","lat":34.69599,"lng":135.199696,"zip":"6510096"},{"town":"磯上通三丁目","koaza":"","lat":34.693201,"lng":135.20128,"zip":"6510086"},{"town":"小野柄通三丁目","koaza":"","lat":34.695166,"lng":135.200064,"zip":"6510088"},{"town":"御幸通三丁目","koaza":"","lat":34.694368,"lng":135.200553,"zip":"6510087"},{"town":"神若通七丁目","koaza":"","lat":34.701959,"lng":135.199278,"zip":"6510067"},{"town":"二宮町一丁目","koaza":"","lat":34.700185,"lng":135.198695,"zip":"6510093"},{"town":"布引町二丁目","koaza":"","lat":34.700746,"lng":135.194646,"zip":"6510097"},{"town":"生田町四丁目","koaza":"","lat":34.700903,"lng":135.195683,"zip":"6510092"},{"town":"国香通七丁目","koaza":"","lat":34.701106,"lng":135.199742,"zip":"6510066"},{"town":"若菜通六丁目","koaza":"","lat":34.700492,"lng":135.200651,"zip":"6510091"},{"town":"八幡通一丁目","koaza":"","lat":34.691947,"lng":135.200623,"zip":"6510085"},{"town":"旭通一丁目","koaza":"","lat":34.698259,"lng":135.200631,"zip":"6510095"},{"town":"旭通二丁目","koaza":"","lat":34.697754,"lng":135.199834,"zip":"6510095"},{"town":"琴ノ緒町一丁目","koaza":"","lat":34.698453,"lng":135.198469,"zip":"6510094"},{"town":"二宮町三丁目","koaza":"","lat":34.699352,"lng":135.196028,"zip":"6510093"},{"town":"旭通三丁目","koaza":"","lat":34.697275,"lng":135.19873,"zip":"6510095"},{"town":"琴ノ緒町二丁目","koaza":"","lat":34.697669,"lng":135.197377,"zip":"6510094"},{"town":"旭通四丁目","koaza":"","lat":34.696573,"lng":135.197849,"zip":"6510095"},{"town":"琴ノ緒町四丁目","koaza":"","lat":34.696562,"lng":135.195574,"zip":"6510094"},{"town":"琴ノ緒町三丁目","koaza":"","lat":34.697076,"lng":135.196321,"zip":"6510094"},{"town":"二宮町四丁目","koaza":"","lat":34.698902,"lng":135.195079,"zip":"6510093"},{"town":"御幸通四丁目","koaza":"","lat":34.693824,"lng":135.199512,"zip":"6510087"},{"town":"磯上通四丁目","koaza":"","lat":34.692839,"lng":135.200134,"zip":"6510086"},{"town":"御幸通五丁目","koaza":"","lat":34.693411,"lng":135.198529,"zip":"6510087"},{"town":"小野柄通四丁目","koaza":"","lat":34.694728,"lng":135.199088,"zip":"6510088"},{"town":"雲井通五丁目","koaza":"","lat":34.695163,"lng":135.197485,"zip":"6510096"},{"town":"磯上通五丁目","koaza":"","lat":34.692643,"lng":135.199002,"zip":"6510086"},{"town":"小野柄通五丁目","koaza":"","lat":34.69422,"lng":135.198045,"zip":"6510088"},{"town":"小野柄通六丁目","koaza":"","lat":34.693883,"lng":135.197231,"zip":"6510088"},{"town":"旭通五丁目","koaza":"","lat":34.695878,"lng":135.196956,"zip":"6510095"},{"town":"雲井通六丁目","koaza":"","lat":34.694671,"lng":135.196631,"zip":"6510096"},{"town":"雲井通七丁目","koaza":"","lat":34.694518,"lng":135.195992,"zip":"6510096"},{"town":"琴ノ緒町五丁目","koaza":"","lat":34.696161,"lng":135.194796,"zip":"6510094"},{"town":"御幸通六丁目","koaza":"","lat":34.69307,"lng":135.197717,"zip":"6510087"},{"town":"小野柄通七丁目","koaza":"","lat":34.693547,"lng":135.19629,"zip":"6510088"},{"town":"小野柄通八丁目","koaza":"","lat":34.693085,"lng":135.195211,"zip":"6510088"},{"town":"磯上通六丁目","koaza":"","lat":34.692301,"lng":135.198187,"zip":"6510086"},{"town":"御幸通八丁目","koaza":"","lat":34.692148,"lng":135.195714,"zip":"6510087"},{"town":"磯上通七丁目","koaza":"","lat":34.691923,"lng":135.197283,"zip":"6510086"},{"town":"御幸通七丁目","koaza":"","lat":34.6927,"lng":135.19681,"zip":"6510087"},{"town":"加納町五丁目","koaza":"","lat":34.692526,"lng":135.194659,"zip":"6500001"},{"town":"雲井通八丁目","koaza":"","lat":34.694071,"lng":135.195138,"zip":"6510096"},{"town":"加納町四丁目","koaza":"","lat":34.695075,"lng":135.193287,"zip":"6500001"},{"town":"布引町四丁目","koaza":"","lat":34.695275,"lng":135.194047,"zip":"6510097"},{"town":"布引町三丁目","koaza":"","lat":34.697691,"lng":135.19412,"zip":"6510097"},{"town":"加納町三丁目","koaza":"","lat":34.697736,"lng":135.193053,"zip":"6500001"},{"town":"加納町二丁目","koaza":"","lat":34.701177,"lng":135.193979,"zip":"6500001"},{"town":"北野町二丁目","koaza":"","lat":34.701556,"lng":135.19103,"zip":"6500002"},{"town":"山本通一丁目","koaza":"","lat":34.699199,"lng":135.191881,"zip":"6500003"},{"town":"北野町四丁目","koaza":"","lat":34.69943,"lng":135.187502,"zip":"6500002"},{"town":"山本通二丁目","koaza":"","lat":34.698101,"lng":135.189548,"zip":"6500003"},{"town":"北長狭通一丁目","koaza":"","lat":34.693309,"lng":135.192426,"zip":"6500012"},{"town":"下山手通一丁目","koaza":"","lat":34.694506,"lng":135.19081,"zip":"6500011"},{"town":"下山手通二丁目","koaza":"","lat":34.693408,"lng":135.189925,"zip":"6500011"},{"town":"北長狭通二丁目","koaza":"","lat":34.692139,"lng":135.190537,"zip":"6500012"},{"town":"中山手通三丁目","koaza":"","lat":34.694519,"lng":135.187081,"zip":"6500004"},{"town":"下山手通三丁目","koaza":"","lat":34.692628,"lng":135.188028,"zip":"6500011"},{"town":"山本通四丁目","koaza":"","lat":34.695521,"lng":135.183504,"zip":"6500003"},{"town":"諏訪山町","koaza":"","lat":34.695874,"lng":135.179146,"zip":"6500006"},{"town":"中山手通四丁目","koaza":"","lat":34.693848,"lng":135.184556,"zip":"6500004"},{"town":"再度筋町","koaza":"","lat":34.694445,"lng":135.1773,"zip":"6500005"},{"town":"山本通五丁目","koaza":"","lat":34.693178,"lng":135.17966,"zip":"6500003"},{"town":"神戸港地方","koaza":"","lat":34.709978,"lng":135.177107,"zip":"6500007"},{"town":"浜辺通二丁目","koaza":"","lat":34.691763,"lng":135.201757,"zip":"6510083"},{"town":"磯上通八丁目","koaza":"","lat":34.691302,"lng":135.196238,"zip":"6510086"},{"town":"八幡通四丁目","koaza":"","lat":34.690024,"lng":135.196779,"zip":"6510085"},{"town":"海岸通二丁目","koaza":"","lat":34.686174,"lng":135.187875,"zip":"6500024"},{"town":"元町通一丁目","koaza":"","lat":34.689056,"lng":135.188685,"zip":"6500022"},{"town":"元町通二丁目","koaza":"","lat":34.68871,"lng":135.187122,"zip":"6500022"},{"town":"浜辺通三丁目","koaza":"","lat":34.690186,"lng":135.20107,"zip":"6510083"},{"town":"小野浜町","koaza":"","lat":34.689192,"lng":135.209057,"zip":"6510082"},{"town":"浜辺通六丁目","koaza":"","lat":34.68736,"lng":135.198782,"zip":"6510083"},{"town":"新港町","koaza":"","lat":34.682556,"lng":135.201794,"zip":"6500041"},{"town":"海岸通","koaza":"","lat":34.686574,"lng":135.192926,"zip":"6500024"},{"town":"前町","koaza":"","lat":34.687188,"lng":135.190349,"zip":"6500039"},{"town":"海岸通一丁目","koaza":"","lat":34.686415,"lng":135.189156,"zip":"6500024"},{"town":"栄町通一丁目","koaza":"","lat":34.687583,"lng":135.188912,"zip":"6500023"},{"town":"栄町通二丁目","koaza":"","lat":34.687263,"lng":135.187504,"zip":"6500023"},{"town":"海岸通三丁目","koaza":"","lat":34.685844,"lng":135.186339,"zip":"6500024"},{"town":"磯辺通一丁目","koaza":"","lat":34.690991,"lng":135.200396,"zip":"6510084"},{"town":"浜辺通四丁目","koaza":"","lat":34.688864,"lng":135.200562,"zip":"6510083"},{"town":"磯辺通二丁目","koaza":"","lat":34.689978,"lng":135.199619,"zip":"6510084"},{"town":"八幡通二丁目","koaza":"","lat":34.691581,"lng":135.199301,"zip":"6510085"},{"town":"浜辺通五丁目","koaza":"","lat":34.688244,"lng":135.199761,"zip":"6510083"},{"town":"磯辺通三丁目","koaza":"","lat":34.689451,"lng":135.198677,"zip":"6510084"},{"town":"八幡通三丁目","koaza":"","lat":34.690928,"lng":135.197766,"zip":"6510085"},{"town":"磯辺通四丁目","koaza":"","lat":34.688834,"lng":135.197651,"zip":"6510084"},{"town":"加納町六丁目","koaza":"","lat":34.688801,"lng":135.196121,"zip":"6500001"},{"town":"東町","koaza":"","lat":34.688552,"lng":135.195268,"zip":"6500031"},{"town":"伊藤町","koaza":"","lat":34.687976,"lng":135.194935,"zip":"6500032"},{"town":"江戸町","koaza":"","lat":34.688876,"lng":135.194294,"zip":"6500033"},{"town":"京町","koaza":"","lat":34.688797,"lng":135.193369,"zip":"6500034"},{"town":"三宮町一丁目","koaza":"","lat":34.691756,"lng":135.1933,"zip":"6500021"},{"town":"浪花町","koaza":"","lat":34.688569,"lng":135.19263,"zip":"6500035"},{"town":"播磨町","koaza":"","lat":34.688383,"lng":135.191853,"zip":"6500036"},{"town":"三宮町二丁目","koaza":"","lat":34.690546,"lng":135.191249,"zip":"6500021"},{"town":"明石町","koaza":"","lat":34.688216,"lng":135.190918,"zip":"6500037"},{"town":"西町","koaza":"","lat":34.688218,"lng":135.190028,"zip":"6500038"},{"town":"三宮町三丁目","koaza":"","lat":34.689889,"lng":135.189823,"zip":"6500021"},{"town":"北長狭通三丁目","koaza":"","lat":34.691205,"lng":135.188946,"zip":"6500012"},{"town":"北長狭通四丁目","koaza":"","lat":34.690444,"lng":135.186818,"zip":"6500012"},{"town":"波止場町","koaza":"","lat":34.68268,"lng":135.187021,"zip":"6500042"},{"town":"元町通六丁目","koaza":"","lat":34.683759,"lng":135.180352,"zip":"6500022"},{"town":"中山手通五丁目","koaza":"","lat":34.692088,"lng":135.18215,"zip":"6500004"},{"town":"花隈町","koaza":"","lat":34.688089,"lng":135.181392,"zip":"6500013"},{"town":"多聞通二丁目","koaza":"","lat":34.681612,"lng":135.17715,"zip":"6500015"},{"town":"下山手通四丁目","koaza":"","lat":34.691691,"lng":135.185434,"zip":"6500011"},{"town":"元町通三丁目","koaza":"","lat":34.687904,"lng":135.185225,"zip":"6500022"},{"town":"栄町通三丁目","koaza":"","lat":34.686576,"lng":135.185842,"zip":"6500023"},{"town":"海岸通四丁目","koaza":"","lat":34.685273,"lng":135.18458,"zip":"6500024"},{"town":"栄町通四丁目","koaza":"","lat":34.685829,"lng":135.183871,"zip":"6500023"},{"town":"北長狭通五丁目","koaza":"","lat":34.688981,"lng":135.184075,"zip":"6500012"},{"town":"海岸通五丁目","koaza":"","lat":34.684323,"lng":135.183415,"zip":"6500024"},{"town":"海岸通六丁目","koaza":"","lat":34.683116,"lng":135.182704,"zip":"6500024"},{"town":"元町通四丁目","koaza":"","lat":34.686835,"lng":135.183566,"zip":"6500022"},{"town":"弁天町","koaza":"","lat":34.681889,"lng":135.183446,"zip":"6500043"},{"town":"栄町通五丁目","koaza":"","lat":34.684616,"lng":135.182748,"zip":"6500023"},{"town":"元町通五丁目","koaza":"","lat":34.685318,"lng":135.181901,"zip":"6500022"},{"town":"栄町通七丁目","koaza":"","lat":34.681829,"lng":135.181108,"zip":"6500023"},{"town":"栄町通六丁目","koaza":"","lat":34.683025,"lng":135.181676,"zip":"6500023"},{"town":"北長狭通六丁目","koaza":"","lat":34.68699,"lng":135.181628,"zip":"6500012"},{"town":"相生町一丁目","koaza":"","lat":34.681967,"lng":135.179533,"zip":"6500025"},{"town":"元町通七丁目","koaza":"","lat":34.682858,"lng":135.179074,"zip":"6500022"},{"town":"元町高架通","koaza":"","lat":34.686107,"lng":135.181456,"zip":"6500014"},{"town":"北長狭通七丁目","koaza":"","lat":34.684986,"lng":135.179385,"zip":"6500012"},{"town":"多聞通一丁目","koaza":"","lat":34.682223,"lng":135.177913,"zip":"6500015"},{"town":"北長狭通八丁目","koaza":"","lat":34.683561,"lng":135.178011,"zip":"6500012"},{"town":"下山手通八丁目","koaza":"","lat":34.686097,"lng":135.178809,"zip":"6500011"},{"town":"橘通一丁目","koaza":"","lat":34.683127,"lng":135.177347,"zip":"6500016"},{"town":"橘通二丁目","koaza":"","lat":34.682601,"lng":135.176299,"zip":"6500016"},{"town":"楠町一丁目","koaza":"","lat":34.684593,"lng":135.176723,"zip":"6500017"},{"town":"下山手通九丁目","koaza":"","lat":34.685953,"lng":135.176615,"zip":"6500011"},{"town":"中山手通八丁目","koaza":"","lat":34.687921,"lng":135.174189,"zip":"6500004"},{"town":"楠町二丁目","koaza":"","lat":34.683557,"lng":135.175493,"zip":"6500017"},{"town":"楠町三丁目","koaza":"","lat":34.684455,"lng":135.17479,"zip":"6500017"},{"town":"橘通三丁目","koaza":"","lat":34.681277,"lng":135.174194,"zip":"6500016"},{"town":"橘通四丁目","koaza":"","lat":34.68092,"lng":135.173321,"zip":"6500016"},{"town":"楠町五丁目","koaza":"","lat":34.682299,"lng":135.173449,"zip":"6500017"},{"town":"楠町四丁目","koaza":"","lat":34.683531,"lng":135.17309,"zip":"6500017"},{"town":"楠町六丁目","koaza":"","lat":34.682777,"lng":135.171486,"zip":"6500017"},{"town":"楠町七丁目","koaza":"","lat":34.686148,"lng":135.172114,"zip":"6500017"},{"town":"下山手通五丁目","koaza":"","lat":34.69041,"lng":135.183182,"zip":"6500011"},{"town":"中山手通六丁目","koaza":"","lat":34.691216,"lng":135.180169,"zip":"6500004"},{"town":"下山手通六丁目","koaza":"","lat":34.689906,"lng":135.180661,"zip":"6500011"},{"town":"下山手通七丁目","koaza":"","lat":34.688217,"lng":135.178081,"zip":"6500011"},{"town":"中山手通七丁目","koaza":"","lat":34.690481,"lng":135.176515,"zip":"6500004"},{"town":"楠町八丁目","koaza":"","lat":34.687387,"lng":135.173421,"zip":"6500017"},{"town":"港島五丁目","koaza":"","lat":34.677266,"lng":135.219238,"zip":"6500045"},{"town":"港島中町一丁目","koaza":"","lat":34.674989,"lng":135.210669,"zip":"6500046"},{"town":"港島四丁目","koaza":"","lat":34.680123,"lng":135.216217,"zip":"6500045"},{"town":"港島三丁目","koaza":"","lat":34.677513,"lng":135.210099,"zip":"6500045"},{"town":"港島二丁目","koaza":"","lat":34.674679,"lng":135.204825,"zip":"6500045"},{"town":"東川崎町二丁目","koaza":"","lat":34.673476,"lng":135.186054,"zip":"6500044"},{"town":"多聞通五丁目","koaza":"","lat":34.679988,"lng":135.174261,"zip":"6500015"},{"town":"東川崎町七丁目","koaza":"","lat":34.67569,"lng":135.178976,"zip":"6500044"},{"town":"東川崎町六丁目","koaza":"","lat":34.675364,"lng":135.180067,"zip":"6500044"},{"town":"東川崎町三丁目","koaza":"","lat":34.674814,"lng":135.18258,"zip":"6500044"},{"town":"東川崎町四丁目","koaza":"","lat":34.67506,"lng":135.181617,"zip":"6500044"},{"town":"東川崎町五丁目","koaza":"","lat":34.67528,"lng":135.180921,"zip":"6500044"},{"town":"東川崎町一丁目","koaza":"","lat":34.679078,"lng":135.181963,"zip":"6500044"},{"town":"相生町三丁目","koaza":"","lat":34.67964,"lng":135.177507,"zip":"6500025"},{"town":"相生町二丁目","koaza":"","lat":34.68108,"lng":135.177958,"zip":"6500025"},{"town":"相生町四丁目","koaza":"","lat":34.677719,"lng":135.17712,"zip":"6500025"},{"town":"古湊通一丁目","koaza":"","lat":34.678234,"lng":135.175941,"zip":"6500026"},{"town":"中町通三丁目","koaza":"","lat":34.679027,"lng":135.175192,"zip":"6500027"},{"town":"相生町五丁目","koaza":"","lat":34.676286,"lng":135.177213,"zip":"6500025"},{"town":"多聞通三丁目","koaza":"","lat":34.681112,"lng":135.175881,"zip":"6500015"},{"town":"中町通二丁目","koaza":"","lat":34.679321,"lng":135.176054,"zip":"6500027"},{"town":"多聞通四丁目","koaza":"","lat":34.680307,"lng":135.175135,"zip":"6500015"},{"town":"古湊通二丁目","koaza":"","lat":34.67751,"lng":135.175152,"zip":"6500026"},{"town":"中町通四丁目","koaza":"","lat":34.678376,"lng":135.174312,"zip":"6500027"},{"town":"葺合町","koaza":"寺ヶ谷","lat":34.710231,"lng":135.195123,"zip":"6510058"}]