[{"town":"桜の杜二丁目","koaza":"","lat":34.678697,"lng":135.116586,"zip":"6540114"},{"town":"桜の杜一丁目","koaza":"","lat":34.677924,"lng":135.114514,"zip":"6540114"},{"town":"須磨浦通二丁目","koaza":"","lat":34.64265,"lng":135.120121,"zip":"6540055"},{"town":"妙法寺","koaza":"","lat":34.674998,"lng":135.120555,"zip":"6540121"},{"town":"板宿","koaza":"","lat":34.666646,"lng":135.122164,"zip":"6540009"},{"town":"若木町四丁目","koaza":"","lat":34.654173,"lng":135.122382,"zip":"6540014"},{"town":"月見山本町二丁目","koaza":"","lat":34.649508,"lng":135.122225,"zip":"6540051"},{"town":"大手","koaza":"","lat":34.662436,"lng":135.12203,"zip":"6540017"},{"town":"月見山町二丁目","koaza":"","lat":34.650434,"lng":135.121657,"zip":"6540063"},{"town":"月見山町一丁目","koaza":"","lat":34.651398,"lng":135.122629,"zip":"6540063"},{"town":"奥山畑町","koaza":"","lat":34.655543,"lng":135.121623,"zip":"6540015"},{"town":"上細沢町","koaza":"","lat":34.65735,"lng":135.122555,"zip":"6540016"},{"town":"行幸町三丁目","koaza":"","lat":34.647168,"lng":135.120897,"zip":"6540052"},{"town":"行幸町二丁目","koaza":"","lat":34.645626,"lng":135.122223,"zip":"6540052"},{"town":"月見山本町一丁目","koaza":"","lat":34.64817,"lng":135.122999,"zip":"6540051"},{"town":"行幸町一丁目","koaza":"","lat":34.645055,"lng":135.124474,"zip":"6540052"},{"town":"須磨浦通一丁目","koaza":"","lat":34.643128,"lng":135.124835,"zip":"6540055"},{"town":"禅昌寺町一丁目","koaza":"","lat":34.670042,"lng":135.130477,"zip":"6540001"},{"town":"明神町五丁目","koaza":"","lat":34.668945,"lng":135.126161,"zip":"6540002"},{"town":"禅昌寺町二丁目","koaza":"","lat":34.670107,"lng":135.127987,"zip":"6540001"},{"town":"友が丘九丁目","koaza":"","lat":34.671416,"lng":135.092054,"zip":"6540142"},{"town":"友が丘六丁目","koaza":"","lat":34.668788,"lng":135.087946,"zip":"6540142"},{"town":"菅の台七丁目","koaza":"","lat":34.667103,"lng":135.079485,"zip":"6540143"},{"town":"菅の台五丁目","koaza":"","lat":34.669717,"lng":135.082497,"zip":"6540143"},{"town":"横尾三丁目","koaza":"","lat":34.66974,"lng":135.115402,"zip":"6540131"},{"town":"横尾二丁目","koaza":"","lat":34.671209,"lng":135.116321,"zip":"6540131"},{"town":"横尾五丁目","koaza":"","lat":34.670614,"lng":135.11109,"zip":"6540131"},{"town":"横尾四丁目","koaza":"","lat":34.669299,"lng":135.113035,"zip":"6540131"},{"town":"横尾七丁目","koaza":"","lat":34.670401,"lng":135.107865,"zip":"6540131"},{"town":"横尾九丁目","koaza":"","lat":34.667638,"lng":135.104567,"zip":"6540131"},{"town":"多井畑","koaza":"","lat":34.66259,"lng":135.091625,"zip":"6540133"},{"town":"車","koaza":"","lat":34.687919,"lng":135.108137,"zip":"6540111"},{"town":"友が丘七丁目","koaza":"","lat":34.671502,"lng":135.099319,"zip":"6540142"},{"town":"友が丘八丁目","koaza":"","lat":34.670411,"lng":135.095349,"zip":"6540142"},{"town":"菅の台六丁目","koaza":"","lat":34.667981,"lng":135.083699,"zip":"6540143"},{"town":"飛松町一丁目","koaza":"","lat":34.66186,"lng":135.134572,"zip":"6540012"},{"town":"大黒町一丁目","koaza":"","lat":34.660476,"lng":135.13595,"zip":"6540022"},{"town":"永楽町一丁目","koaza":"","lat":34.666129,"lng":135.131454,"zip":"6540004"},{"town":"平田町一丁目","koaza":"","lat":34.661076,"lng":135.135381,"zip":"6540021"},{"town":"平田町三丁目","koaza":"","lat":34.660016,"lng":135.13357,"zip":"6540021"},{"town":"大手町九丁目","koaza":"","lat":34.660173,"lng":135.12579,"zip":"6540013"},{"town":"大手町七丁目","koaza":"","lat":34.660298,"lng":135.127698,"zip":"6540013"},{"town":"前池町六丁目","koaza":"","lat":34.659753,"lng":135.129483,"zip":"6540011"},{"town":"前池町五丁目","koaza":"","lat":34.660234,"lng":135.130365,"zip":"6540011"},{"town":"飛松町三丁目","koaza":"","lat":34.660663,"lng":135.132867,"zip":"6540012"},{"town":"前池町四丁目","koaza":"","lat":34.661027,"lng":135.131139,"zip":"6540011"},{"town":"平田町二丁目","koaza":"","lat":34.660602,"lng":135.134512,"zip":"6540021"},{"town":"飛松町二丁目","koaza":"","lat":34.661324,"lng":135.133683,"zip":"6540012"},{"town":"川上町二丁目","koaza":"","lat":34.664616,"lng":135.130342,"zip":"6540005"},{"town":"前池町二丁目","koaza":"","lat":34.662167,"lng":135.133301,"zip":"6540011"},{"town":"川上町一丁目","koaza":"","lat":34.665032,"lng":135.131123,"zip":"6540005"},{"town":"前池町一丁目","koaza":"","lat":34.662471,"lng":135.133965,"zip":"6540011"},{"town":"菊池町一丁目","koaza":"","lat":34.663056,"lng":135.133144,"zip":"6540008"},{"town":"宝田町一丁目","koaza":"","lat":34.663895,"lng":135.132774,"zip":"6540007"},{"town":"養老町一丁目","koaza":"","lat":34.665286,"lng":135.131617,"zip":"6540006"},{"town":"神撫町二丁目","koaza":"","lat":34.665897,"lng":135.130756,"zip":"6540003"},{"town":"神撫町一丁目","koaza":"","lat":34.665586,"lng":135.130355,"zip":"6540003"},{"town":"永楽町三丁目","koaza":"","lat":34.66761,"lng":135.131463,"zip":"6540004"},{"town":"永楽町二丁目","koaza":"","lat":34.666875,"lng":135.130787,"zip":"6540004"},{"town":"宝田町二丁目","koaza":"","lat":34.663388,"lng":135.131791,"zip":"6540007"},{"town":"前池町三丁目","koaza":"","lat":34.661724,"lng":135.132167,"zip":"6540011"},{"town":"菊池町二丁目","koaza":"","lat":34.662502,"lng":135.131782,"zip":"6540008"},{"town":"養老町三丁目","koaza":"","lat":34.663531,"lng":135.130063,"zip":"6540006"},{"town":"養老町二丁目","koaza":"","lat":34.664003,"lng":135.13085,"zip":"6540006"},{"town":"神撫町三丁目","koaza":"","lat":34.66655,"lng":135.12991,"zip":"6540003"},{"town":"神撫町四丁目","koaza":"","lat":34.66755,"lng":135.129291,"zip":"6540003"},{"town":"明神町三丁目","koaza":"","lat":34.665239,"lng":135.127229,"zip":"6540002"},{"town":"宝田町三丁目","koaza":"","lat":34.662847,"lng":135.130793,"zip":"6540007"},{"town":"板宿町一丁目","koaza":"","lat":34.662442,"lng":135.130459,"zip":"6540009"},{"town":"川上町三丁目","koaza":"","lat":34.663917,"lng":135.129558,"zip":"6540005"},{"town":"板宿町二丁目","koaza":"","lat":34.662356,"lng":135.129707,"zip":"6540009"},{"town":"板宿町三丁目","koaza":"","lat":34.662825,"lng":135.127534,"zip":"6540009"},{"town":"明神町二丁目","koaza":"","lat":34.665033,"lng":135.128584,"zip":"6540002"},{"town":"明神町一丁目","koaza":"","lat":34.665855,"lng":135.129012,"zip":"6540002"},{"town":"神撫町五丁目","koaza":"","lat":34.665974,"lng":135.129693,"zip":"6540003"},{"town":"明神町四丁目","koaza":"","lat":34.66688,"lng":135.126494,"zip":"6540002"},{"town":"常盤町二丁目","koaza":"","lat":34.655085,"lng":135.139853,"zip":"6540028"},{"town":"千歳町二丁目","koaza":"","lat":34.655936,"lng":135.139128,"zip":"6540027"},{"town":"常盤町一丁目","koaza":"","lat":34.655626,"lng":135.140902,"zip":"6540028"},{"town":"大池町一丁目","koaza":"","lat":34.657283,"lng":135.139202,"zip":"6540026"},{"town":"寺田町一丁目","koaza":"","lat":34.657996,"lng":135.138476,"zip":"6540025"},{"town":"千歳町一丁目","koaza":"","lat":34.65649,"lng":135.140006,"zip":"6540027"},{"town":"常盤町三丁目","koaza":"","lat":34.654383,"lng":135.139003,"zip":"6540028"},{"town":"行平町一丁目","koaza":"","lat":34.650031,"lng":135.134146,"zip":"6540037"},{"town":"常盤町四丁目","koaza":"","lat":34.653787,"lng":135.138072,"zip":"6540028"},{"town":"大田町六丁目","koaza":"","lat":34.655596,"lng":135.13284,"zip":"6540024"},{"town":"戎町一丁目","koaza":"","lat":34.659602,"lng":135.136718,"zip":"6540023"},{"town":"大黒町二丁目","koaza":"","lat":34.659874,"lng":135.13525,"zip":"6540022"},{"town":"大黒町三丁目","koaza":"","lat":34.659275,"lng":135.134334,"zip":"6540022"},{"town":"戎町二丁目","koaza":"","lat":34.65903,"lng":135.136047,"zip":"6540023"},{"town":"戎町三丁目","koaza":"","lat":34.658511,"lng":135.135045,"zip":"6540023"},{"town":"中島町二丁目","koaza":"","lat":34.652196,"lng":135.129329,"zip":"6540035"},{"town":"大池町二丁目","koaza":"","lat":34.656713,"lng":135.13852,"zip":"6540026"},{"town":"千歳町三丁目","koaza":"","lat":34.655279,"lng":135.138149,"zip":"6540027"},{"town":"大池町三丁目","koaza":"","lat":34.656089,"lng":135.13737,"zip":"6540026"},{"town":"千歳町四丁目","koaza":"","lat":34.654667,"lng":135.137202,"zip":"6540027"},{"town":"大田町一丁目","koaza":"","lat":34.658719,"lng":135.137572,"zip":"6540024"},{"town":"寺田町三丁目","koaza":"","lat":34.656815,"lng":135.136665,"zip":"6540025"},{"town":"寺田町二丁目","koaza":"","lat":34.657498,"lng":135.137676,"zip":"6540025"},{"town":"大田町二丁目","koaza":"","lat":34.658214,"lng":135.136791,"zip":"6540024"},{"town":"大田町三丁目","koaza":"","lat":34.657613,"lng":135.135882,"zip":"6540024"},{"town":"戎町四丁目","koaza":"","lat":34.657883,"lng":135.134204,"zip":"6540023"},{"town":"大黒町四丁目","koaza":"","lat":34.658683,"lng":135.133423,"zip":"6540022"},{"town":"大池町四丁目","koaza":"","lat":34.655845,"lng":135.136048,"zip":"6540026"},{"town":"大田町五丁目","koaza":"","lat":34.656357,"lng":135.133882,"zip":"6540024"},{"town":"大田町四丁目","koaza":"","lat":34.65703,"lng":135.134917,"zip":"6540024"},{"town":"戎町五丁目","koaza":"","lat":34.656664,"lng":135.132004,"zip":"6540023"},{"town":"大田町七丁目","koaza":"","lat":34.654961,"lng":135.131876,"zip":"6540024"},{"town":"平田町四丁目","koaza":"","lat":34.659378,"lng":135.132947,"zip":"6540021"},{"town":"大黒町五丁目","koaza":"","lat":34.657728,"lng":135.132812,"zip":"6540022"},{"town":"平田町五丁目","koaza":"","lat":34.658989,"lng":135.131723,"zip":"6540021"},{"town":"飛松町四丁目","koaza":"","lat":34.660168,"lng":135.13165,"zip":"6540012"},{"town":"権現町三丁目","koaza":"","lat":34.656028,"lng":135.129296,"zip":"6540031"},{"town":"戸政町二丁目","koaza":"","lat":34.65273,"lng":135.128367,"zip":"6540034"},{"town":"東町二丁目","koaza":"","lat":34.653503,"lng":135.127592,"zip":"6540033"},{"town":"東町三丁目","koaza":"","lat":34.652917,"lng":135.126609,"zip":"6540033"},{"town":"戸政町一丁目","koaza":"","lat":34.653531,"lng":135.129525,"zip":"6540034"},{"town":"堀池町一丁目","koaza":"","lat":34.654912,"lng":135.12824,"zip":"6540032"},{"town":"行平町二丁目","koaza":"","lat":34.649536,"lng":135.13308,"zip":"6540037"},{"town":"大池町五丁目","koaza":"","lat":34.652685,"lng":135.134098,"zip":"6540026"},{"town":"大田町八丁目","koaza":"","lat":34.654427,"lng":135.130836,"zip":"6540024"},{"town":"東町一丁目","koaza":"","lat":34.654632,"lng":135.129337,"zip":"6540033"},{"town":"権現町二丁目","koaza":"","lat":34.65648,"lng":135.130467,"zip":"6540031"},{"town":"権現町一丁目","koaza":"","lat":34.657445,"lng":135.131364,"zip":"6540031"},{"town":"戎町六丁目","koaza":"","lat":34.655891,"lng":135.131372,"zip":"6540023"},{"town":"東町四丁目","koaza":"","lat":34.652391,"lng":135.125405,"zip":"6540033"},{"town":"戸政町三丁目","koaza":"","lat":34.652142,"lng":135.127377,"zip":"6540034"},{"town":"堀池町二丁目","koaza":"","lat":34.653857,"lng":135.126696,"zip":"6540032"},{"town":"北町二丁目","koaza":"","lat":34.650735,"lng":135.124345,"zip":"6540064"},{"town":"稲葉町二丁目","koaza":"","lat":34.649986,"lng":135.127995,"zip":"6540044"},{"town":"中島町一丁目","koaza":"","lat":34.651595,"lng":135.130113,"zip":"6540035"},{"town":"稲葉町一丁目","koaza":"","lat":34.650256,"lng":135.128773,"zip":"6540044"},{"town":"南町一丁目","koaza":"","lat":34.650248,"lng":135.126458,"zip":"6540036"},{"town":"北町一丁目","koaza":"","lat":34.651152,"lng":135.125505,"zip":"6540064"},{"town":"飛松町五丁目","koaza":"","lat":34.659589,"lng":135.130928,"zip":"6540012"},{"town":"大手町三丁目","koaza":"","lat":34.65659,"lng":135.127487,"zip":"6540013"},{"town":"大手町五丁目","koaza":"","lat":34.658447,"lng":135.127424,"zip":"6540013"},{"town":"大手町四丁目","koaza":"","lat":34.657213,"lng":135.126432,"zip":"6540013"},{"town":"大手町二丁目","koaza":"","lat":34.657288,"lng":135.128968,"zip":"6540013"},{"town":"大手町一丁目","koaza":"","lat":34.658457,"lng":135.130138,"zip":"6540013"},{"town":"大手町六丁目","koaza":"","lat":34.659125,"lng":135.12912,"zip":"6540013"},{"town":"大手町八丁目","koaza":"","lat":34.658934,"lng":135.126153,"zip":"6540013"},{"town":"中島町三丁目","koaza":"","lat":34.651379,"lng":135.128118,"zip":"6540035"},{"town":"戸政町四丁目","koaza":"","lat":34.65162,"lng":135.126322,"zip":"6540034"},{"town":"北町三丁目","koaza":"","lat":34.650349,"lng":135.123198,"zip":"6540064"},{"town":"若木町二丁目","koaza":"","lat":34.653475,"lng":135.124444,"zip":"6540014"},{"town":"若木町一丁目","koaza":"","lat":34.655095,"lng":135.125959,"zip":"6540014"},{"town":"若木町三丁目","koaza":"","lat":34.656653,"lng":135.124766,"zip":"6540014"},{"town":"外浜町四丁目","koaza":"","lat":34.642382,"lng":135.13681,"zip":"6540043"},{"town":"青葉町一丁目","koaza":"","lat":34.649323,"lng":135.134832,"zip":"6540038"},{"town":"外浜町三丁目","koaza":"","lat":34.643648,"lng":135.135784,"zip":"6540043"},{"town":"稲葉町三丁目","koaza":"","lat":34.649276,"lng":135.127,"zip":"6540044"},{"town":"南町三丁目","koaza":"","lat":34.648973,"lng":135.124255,"zip":"6540036"},{"town":"稲葉町五丁目","koaza":"","lat":34.648085,"lng":135.125163,"zip":"6540044"},{"town":"鷹取町三丁目","koaza":"","lat":34.647368,"lng":135.13361,"zip":"6540039"},{"town":"村雨町三丁目","koaza":"","lat":34.647591,"lng":135.128615,"zip":"6540046"},{"town":"青葉町四丁目","koaza":"","lat":34.647613,"lng":135.132114,"zip":"6540038"},{"town":"稲葉町六丁目","koaza":"","lat":34.647382,"lng":135.124169,"zip":"6540044"},{"town":"古川町三丁目","koaza":"","lat":34.646524,"lng":135.134056,"zip":"6540041"},{"town":"衣掛町一丁目","koaza":"","lat":34.647381,"lng":135.131539,"zip":"6540048"},{"town":"村雨町四丁目","koaza":"","lat":34.647047,"lng":135.127651,"zip":"6540046"},{"town":"松風町五丁目","koaza":"","lat":34.647246,"lng":135.125973,"zip":"6540045"},{"town":"磯馴町三丁目","koaza":"","lat":34.647096,"lng":135.129164,"zip":"6540047"},{"town":"古川町二丁目","koaza":"","lat":34.647088,"lng":135.135207,"zip":"6540041"},{"town":"衣掛町二丁目","koaza":"","lat":34.646931,"lng":135.131031,"zip":"6540048"},{"town":"衣掛町三丁目","koaza":"","lat":34.646237,"lng":135.129918,"zip":"6540048"},{"town":"稲葉町七丁目","koaza":"","lat":34.646824,"lng":135.123394,"zip":"6540044"},{"town":"鷹取町四丁目","koaza":"","lat":34.646732,"lng":135.132761,"zip":"6540039"},{"town":"村雨町五丁目","koaza":"","lat":34.646515,"lng":135.126688,"zip":"6540046"},{"town":"松風町六丁目","koaza":"","lat":34.646673,"lng":135.124912,"zip":"6540045"},{"town":"小寺町一丁目","koaza":"","lat":34.646756,"lng":135.137261,"zip":"6540042"},{"town":"衣掛町四丁目","koaza":"","lat":34.645653,"lng":135.129023,"zip":"6540048"},{"town":"磯馴町四丁目","koaza":"","lat":34.646424,"lng":135.128118,"zip":"6540047"},{"town":"外浜町一丁目","koaza":"","lat":34.643906,"lng":135.138008,"zip":"6540043"},{"town":"小寺町二丁目","koaza":"","lat":34.646293,"lng":135.136178,"zip":"6540042"},{"town":"松風町七丁目","koaza":"","lat":34.646081,"lng":135.123997,"zip":"6540045"},{"town":"若宮町二丁目","koaza":"","lat":34.64607,"lng":135.131682,"zip":"6540049"},{"town":"小寺町三丁目","koaza":"","lat":34.645904,"lng":135.135139,"zip":"6540042"},{"town":"村雨町六丁目","koaza":"","lat":34.64598,"lng":135.125657,"zip":"6540046"},{"town":"小寺町四丁目","koaza":"","lat":34.645448,"lng":135.13414,"zip":"6540042"},{"town":"古川町四丁目","koaza":"","lat":34.645711,"lng":135.13312,"zip":"6540041"},{"town":"磯馴町五丁目","koaza":"","lat":34.6459,"lng":135.127292,"zip":"6540047"},{"town":"若宮町三丁目","koaza":"","lat":34.645432,"lng":135.130449,"zip":"6540049"},{"town":"衣掛町五丁目","koaza":"","lat":34.645135,"lng":135.128037,"zip":"6540048"},{"town":"磯馴町六丁目","koaza":"","lat":34.645108,"lng":135.126533,"zip":"6540047"},{"town":"外浜町二丁目","koaza":"","lat":34.644707,"lng":135.135066,"zip":"6540043"},{"town":"若宮町一丁目","koaza":"","lat":34.643595,"lng":135.130138,"zip":"6540049"},{"town":"南町二丁目","koaza":"","lat":34.649495,"lng":135.125223,"zip":"6540036"},{"town":"松風町三丁目","koaza":"","lat":34.648904,"lng":135.129048,"zip":"6540045"},{"town":"古川町一丁目","koaza":"","lat":34.647885,"lng":135.136268,"zip":"6540041"},{"town":"青葉町二丁目","koaza":"","lat":34.648708,"lng":135.133872,"zip":"6540038"},{"town":"青葉町三丁目","koaza":"","lat":34.648095,"lng":135.132912,"zip":"6540038"},{"town":"行平町三丁目","koaza":"","lat":34.648853,"lng":135.132121,"zip":"6540037"},{"town":"鷹取町一丁目","koaza":"","lat":34.648638,"lng":135.135637,"zip":"6540039"},{"town":"鷹取町二丁目","koaza":"","lat":34.647978,"lng":135.134573,"zip":"6540039"},{"town":"松風町四丁目","koaza":"","lat":34.647776,"lng":135.126928,"zip":"6540045"},{"town":"稲葉町四丁目","koaza":"","lat":34.648571,"lng":135.126066,"zip":"6540044"},{"town":"磯馴町一丁目","koaza":"","lat":34.648377,"lng":135.130823,"zip":"6540047"},{"town":"磯馴町二丁目","koaza":"","lat":34.647785,"lng":135.130051,"zip":"6540047"},{"town":"友が丘一丁目","koaza":"","lat":34.668006,"lng":135.100525,"zip":"6540142"},{"town":"多井畑東町","koaza":"","lat":34.665007,"lng":135.100213,"zip":"6540134"},{"town":"友が丘二丁目","koaza":"","lat":34.666859,"lng":135.097402,"zip":"6540142"},{"town":"友が丘三丁目","koaza":"","lat":34.666717,"lng":135.094915,"zip":"6540142"},{"town":"友が丘五丁目","koaza":"","lat":34.66763,"lng":135.089133,"zip":"6540142"},{"town":"友が丘四丁目","koaza":"","lat":34.667639,"lng":135.091586,"zip":"6540142"},{"town":"高尾台三丁目","koaza":"","lat":34.658901,"lng":135.120156,"zip":"6540061"},{"town":"高倉台一丁目","koaza":"","lat":34.65328,"lng":135.108404,"zip":"6540081"},{"town":"離宮西町二丁目","koaza":"","lat":34.652828,"lng":135.115519,"zip":"6540067"},{"town":"離宮西町一丁目","koaza":"","lat":34.650362,"lng":135.115244,"zip":"6540067"},{"town":"離宮前町二丁目","koaza":"","lat":34.650716,"lng":135.118989,"zip":"6540065"},{"town":"月見山町三丁目","koaza":"","lat":34.65203,"lng":135.120895,"zip":"6540063"},{"town":"水野町","koaza":"","lat":34.654624,"lng":135.118689,"zip":"6540062"},{"town":"高尾台一丁目","koaza":"","lat":34.655825,"lng":135.119323,"zip":"6540061"},{"town":"高尾台二丁目","koaza":"","lat":34.657711,"lng":135.119728,"zip":"6540061"},{"town":"東須磨","koaza":"","lat":34.659028,"lng":135.111289,"zip":"6540018"},{"town":"高倉台六丁目","koaza":"","lat":34.65887,"lng":135.101263,"zip":"6540081"},{"town":"高倉台三丁目","koaza":"","lat":34.654734,"lng":135.103944,"zip":"6540081"},{"town":"高倉台八丁目","koaza":"","lat":34.653835,"lng":135.098863,"zip":"6540081"},{"town":"多井畑南町","koaza":"","lat":34.65713,"lng":135.094359,"zip":"6540132"},{"town":"高倉台七丁目","koaza":"","lat":34.656395,"lng":135.100372,"zip":"6540081"},{"town":"高倉台二丁目","koaza":"","lat":34.655864,"lng":135.10725,"zip":"6540081"},{"town":"高倉台五丁目","koaza":"","lat":34.658882,"lng":135.104406,"zip":"6540081"},{"town":"高倉台四丁目","koaza":"","lat":34.656615,"lng":135.103933,"zip":"6540081"},{"town":"離宮前町一丁目","koaza":"","lat":34.649205,"lng":135.119448,"zip":"6540065"},{"town":"桜木町三丁目","koaza":"","lat":34.650224,"lng":135.116578,"zip":"6540066"},{"town":"天神町四丁目","koaza":"","lat":34.646259,"lng":135.117805,"zip":"6540053"},{"town":"桜木町二丁目","koaza":"","lat":34.648647,"lng":135.116757,"zip":"6540066"},{"town":"須磨本町二丁目","koaza":"","lat":34.644481,"lng":135.116274,"zip":"6540054"},{"town":"関守町二丁目","koaza":"","lat":34.644981,"lng":135.112014,"zip":"6540073"},{"town":"須磨浦通三丁目","koaza":"","lat":34.642502,"lng":135.116777,"zip":"6540055"},{"town":"桜木町一丁目","koaza":"","lat":34.647633,"lng":135.117197,"zip":"6540066"},{"town":"天神町五丁目","koaza":"","lat":34.647145,"lng":135.117831,"zip":"6540053"},{"town":"須磨寺町二丁目","koaza":"","lat":34.647804,"lng":135.115363,"zip":"6540071"},{"town":"天神町三丁目","koaza":"","lat":34.646241,"lng":135.119544,"zip":"6540053"},{"town":"天神町一丁目","koaza":"","lat":34.644809,"lng":135.120511,"zip":"6540053"},{"town":"天神町二丁目","koaza":"","lat":34.644851,"lng":135.118974,"zip":"6540053"},{"town":"須磨本町一丁目","koaza":"","lat":34.645118,"lng":135.117416,"zip":"6540054"},{"town":"須磨寺町三丁目","koaza":"","lat":34.64958,"lng":135.113659,"zip":"6540071"},{"town":"須磨寺町一丁目","koaza":"","lat":34.64614,"lng":135.115268,"zip":"6540071"},{"town":"高倉町一丁目","koaza":"","lat":34.647675,"lng":135.109121,"zip":"6540074"},{"town":"関守町三丁目","koaza":"","lat":34.646255,"lng":135.110165,"zip":"6540073"},{"town":"潮見台町三丁目","koaza":"","lat":34.644601,"lng":135.108604,"zip":"6540075"},{"town":"千守町二丁目","koaza":"","lat":34.646335,"lng":135.112204,"zip":"6540072"},{"town":"潮見台町四丁目","koaza":"","lat":34.645498,"lng":135.10839,"zip":"6540075"},{"town":"千守町一丁目","koaza":"","lat":34.645972,"lng":135.113678,"zip":"6540072"},{"town":"須磨浦通四丁目","koaza":"","lat":34.642875,"lng":135.114278,"zip":"6540055"},{"town":"関守町一丁目","koaza":"","lat":34.644258,"lng":135.113456,"zip":"6540073"},{"town":"須磨浦通五丁目","koaza":"","lat":34.642319,"lng":135.111388,"zip":"6540055"},{"town":"潮見台町一丁目","koaza":"","lat":34.64433,"lng":135.111239,"zip":"6540075"},{"town":"潮見台町二丁目","koaza":"","lat":34.643522,"lng":135.109266,"zip":"6540075"},{"town":"行幸町四丁目","koaza":"","lat":34.648467,"lng":135.120636,"zip":"6540052"},{"town":"須磨寺町四丁目","koaza":"","lat":34.648898,"lng":135.111367,"zip":"6540071"},{"town":"須磨寺町五丁目","koaza":"","lat":34.650109,"lng":135.109923,"zip":"6540071"},{"town":"一ノ谷町一丁目","koaza":"","lat":34.644809,"lng":135.105301,"zip":"6540076"},{"town":"高倉町二丁目","koaza":"","lat":34.646921,"lng":135.106071,"zip":"6540074"},{"town":"潮見台町五丁目","koaza":"","lat":34.643799,"lng":135.106529,"zip":"6540075"},{"town":"須磨浦通六丁目","koaza":"","lat":34.641438,"lng":135.108249,"zip":"6540055"},{"town":"一ノ谷町二丁目","koaza":"","lat":34.641954,"lng":135.103866,"zip":"6540076"},{"town":"一ノ谷町五丁目","koaza":"","lat":34.637538,"lng":135.101196,"zip":"6540076"},{"town":"一ノ谷町三丁目","koaza":"","lat":34.640394,"lng":135.10173,"zip":"6540076"},{"town":"一ノ谷町四丁目","koaza":"","lat":34.638852,"lng":135.099954,"zip":"6540076"},{"town":"西須磨","koaza":"","lat":34.644947,"lng":135.099892,"zip":"6540068"},{"town":"緑が丘二丁目","koaza":"","lat":34.681584,"lng":135.119166,"zip":"6540113"},{"town":"緑が丘一丁目","koaza":"","lat":34.680584,"lng":135.114301,"zip":"6540113"},{"town":"横尾八丁目","koaza":"","lat":34.671884,"lng":135.107246,"zip":"6540131"},{"town":"横尾一丁目","koaza":"","lat":34.674477,"lng":135.110865,"zip":"6540131"},{"town":"横尾六丁目","koaza":"","lat":34.672926,"lng":135.109706,"zip":"6540131"},{"town":"道正台一丁目","koaza":"","lat":34.675525,"lng":135.105854,"zip":"6540122"},{"town":"南落合一丁目","koaza":"","lat":34.673063,"lng":135.102602,"zip":"6540153"},{"town":"南落合四丁目","koaza":"","lat":34.677629,"lng":135.105634,"zip":"6540153"},{"town":"南落合三丁目","koaza":"","lat":34.676777,"lng":135.101722,"zip":"6540153"},{"town":"東落合一丁目","koaza":"","lat":34.680172,"lng":135.103387,"zip":"6540152"},{"town":"南落合二丁目","koaza":"","lat":34.675941,"lng":135.09898,"zip":"6540153"},{"town":"中落合一丁目","koaza":"","lat":34.679326,"lng":135.098795,"zip":"6540154"},{"town":"中落合四丁目","koaza":"","lat":34.682928,"lng":135.097432,"zip":"6540154"},{"town":"竜が台七丁目","koaza":"","lat":34.674241,"lng":135.094516,"zip":"6540141"},{"town":"竜が台六丁目","koaza":"","lat":34.673513,"lng":135.091225,"zip":"6540141"},{"town":"竜が台一丁目","koaza":"","lat":34.675337,"lng":135.096085,"zip":"6540141"},{"town":"中落合二丁目","koaza":"","lat":34.678629,"lng":135.09481,"zip":"6540154"},{"town":"竜が台五丁目","koaza":"","lat":34.673263,"lng":135.087883,"zip":"6540141"},{"town":"竜が台二丁目","koaza":"","lat":34.675641,"lng":135.090863,"zip":"6540141"},{"town":"竜が台三丁目","koaza":"","lat":34.676571,"lng":135.08871,"zip":"6540141"},{"town":"竜が台四丁目","koaza":"","lat":34.675662,"lng":135.087586,"zip":"6540141"},{"town":"中落合三丁目","koaza":"","lat":34.682185,"lng":135.093793,"zip":"6540154"},{"town":"西落合六丁目","koaza":"","lat":34.680346,"lng":135.089825,"zip":"6540155"},{"town":"西落合七丁目","koaza":"","lat":34.682722,"lng":135.089061,"zip":"6540155"},{"town":"菅の台三丁目","koaza":"","lat":34.672149,"lng":135.08614,"zip":"6540143"},{"town":"菅の台二丁目","koaza":"","lat":34.674229,"lng":135.085433,"zip":"6540143"},{"town":"菅の台四丁目","koaza":"","lat":34.672032,"lng":135.083334,"zip":"6540143"},{"town":"菅の台一丁目","koaza":"","lat":34.675262,"lng":135.084687,"zip":"6540143"},{"town":"西落合一丁目","koaza":"","lat":34.678424,"lng":135.088744,"zip":"6540155"},{"town":"西落合二丁目","koaza":"","lat":34.678621,"lng":135.081949,"zip":"6540155"},{"town":"西落合五丁目","koaza":"","lat":34.681431,"lng":135.086779,"zip":"6540155"},{"town":"西落合三丁目","koaza":"","lat":34.680751,"lng":135.08437,"zip":"6540155"},{"town":"緑台","koaza":"","lat":34.679953,"lng":135.077771,"zip":"6540163"},{"town":"弥栄台二丁目","koaza":"","lat":34.683473,"lng":135.074409,"zip":"6540161"},{"town":"弥栄台五丁目","koaza":"","lat":34.683858,"lng":135.069212,"zip":"6540161"},{"town":"若草町三丁目","koaza":"","lat":34.690037,"lng":135.114286,"zip":"6540112"},{"town":"清水台","koaza":"","lat":34.682877,"lng":135.10794,"zip":"6540123"},{"town":"若草町一丁目","koaza":"","lat":34.686985,"lng":135.115003,"zip":"6540112"},{"town":"若草町二丁目","koaza":"","lat":34.687927,"lng":135.112547,"zip":"6540112"},{"town":"東落合三丁目","koaza":"","lat":34.684254,"lng":135.104039,"zip":"6540152"},{"town":"白川台四丁目","koaza":"","lat":34.689297,"lng":135.103549,"zip":"6540103"},{"town":"東落合二丁目","koaza":"","lat":34.684149,"lng":135.100261,"zip":"6540152"},{"town":"東白川台五丁目","koaza":"","lat":34.693592,"lng":135.110149,"zip":"6540102"},{"town":"東白川台二丁目","koaza":"","lat":34.692356,"lng":135.105792,"zip":"6540102"},{"town":"東白川台三丁目","koaza":"","lat":34.693289,"lng":135.106761,"zip":"6540102"},{"town":"東白川台四丁目","koaza":"","lat":34.695711,"lng":135.106464,"zip":"6540102"},{"town":"東白川台一丁目","koaza":"","lat":34.694541,"lng":135.104072,"zip":"6540102"},{"town":"白川台三丁目","koaza":"","lat":34.689433,"lng":135.100803,"zip":"6540103"},{"town":"白川台六丁目","koaza":"","lat":34.693569,"lng":135.102157,"zip":"6540103"},{"town":"北落合一丁目","koaza":"","lat":34.686449,"lng":135.09646,"zip":"6540151"},{"town":"北落合二丁目","koaza":"","lat":34.686405,"lng":135.092786,"zip":"6540151"},{"town":"北落合三丁目","koaza":"","lat":34.685886,"lng":135.089724,"zip":"6540151"},{"town":"白川台二丁目","koaza":"","lat":34.689643,"lng":135.098194,"zip":"6540103"},{"town":"白川台七丁目","koaza":"","lat":34.695789,"lng":135.100175,"zip":"6540103"},{"town":"白川台一丁目","koaza":"","lat":34.690594,"lng":135.095888,"zip":"6540103"},{"town":"白川台五丁目","koaza":"","lat":34.6944,"lng":135.097786,"zip":"6540103"},{"town":"北落合六丁目","koaza":"","lat":34.695135,"lng":135.095793,"zip":"6540151"},{"town":"北落合五丁目","koaza":"","lat":34.691327,"lng":135.093009,"zip":"6540151"},{"town":"神の谷一丁目","koaza":"","lat":34.684822,"lng":135.087412,"zip":"6540162"},{"town":"神の谷二丁目","koaza":"","lat":34.68436,"lng":135.085053,"zip":"6540162"},{"town":"西落合四丁目","koaza":"","lat":34.68366,"lng":135.083102,"zip":"6540155"},{"town":"神の谷四丁目","koaza":"","lat":34.68689,"lng":135.086129,"zip":"6540162"},{"town":"神の谷三丁目","koaza":"","lat":34.686349,"lng":135.083654,"zip":"6540162"},{"town":"北落合四丁目","koaza":"","lat":34.690528,"lng":135.087953,"zip":"6540151"},{"town":"神の谷五丁目","koaza":"","lat":34.687844,"lng":135.082497,"zip":"6540162"},{"town":"神の谷七丁目","koaza":"","lat":34.690603,"lng":135.083706,"zip":"6540162"},{"town":"神の谷六丁目","koaza":"","lat":34.688591,"lng":135.081019,"zip":"6540162"},{"town":"弥栄台一丁目","koaza":"","lat":34.68712,"lng":135.078514,"zip":"6540161"},{"town":"弥栄台三丁目","koaza":"","lat":34.686601,"lng":135.074013,"zip":"6540161"},{"town":"弥栄台四丁目","koaza":"","lat":34.690217,"lng":135.070133,"zip":"6540161"},{"town":"白川","koaza":"","lat":34.704293,"lng":135.10131,"zip":"6540101"},{"town":"多井畑","koaza":"西畑","lat":34.660991,"lng":135.090559,"zip":"6540133"},{"town":"多井畑","koaza":"岡ノ辻","lat":34.663243,"lng":135.092815,"zip":"6540133"},{"town":"多井畑","koaza":"小垣内","lat":34.661673,"lng":135.092567,"zip":"6540133"},{"town":"多井畑","koaza":"東所","lat":34.661016,"lng":135.092569,"zip":"6540133"},{"town":"西須磨","koaza":"鉄拐","lat":34.637327,"lng":135.096375,"zip":"6540068"},{"town":"多井畑","koaza":"筋替道","lat":34.660426,"lng":135.094966,"zip":"6540133"},{"town":"白川","koaza":"献上替地","lat":34.702244,"lng":135.096848,"zip":"6540101"},{"town":"多井畑","koaza":"宮ノ脇","lat":34.662445,"lng":135.095432,"zip":"6540133"},{"town":"白川","koaza":"不計","lat":34.696514,"lng":135.095631,"zip":"6540101"},{"town":"多井畑","koaza":"柳ヶ谷","lat":34.660901,"lng":135.096473,"zip":"6540133"},{"town":"多井畑","koaza":"木戸ヶ谷","lat":34.65916,"lng":135.097494,"zip":"6540133"},{"town":"多井畑","koaza":"萩原","lat":34.658822,"lng":135.098191,"zip":"6540133"},{"town":"多井畑","koaza":"小松ヶ内","lat":34.661564,"lng":135.098785,"zip":"6540133"},{"town":"白川","koaza":"上側地","lat":34.696971,"lng":135.099939,"zip":"6540101"},{"town":"白川","koaza":"平丁","lat":34.699594,"lng":135.10066,"zip":"6540101"},{"town":"白川","koaza":"芋","lat":34.69887,"lng":135.10078,"zip":"6540101"},{"town":"西須磨","koaza":"立原谷","lat":34.650892,"lng":135.102096,"zip":"6540068"},{"town":"白川","koaza":"向井坂","lat":34.697381,"lng":135.102438,"zip":"6540101"},{"town":"白川","koaza":"堂ノ西","lat":34.701616,"lng":135.103367,"zip":"6540101"},{"town":"白川","koaza":"堂ノ東","lat":34.702321,"lng":135.105729,"zip":"6540101"},{"town":"妙法寺","koaza":"ぬめり石","lat":34.674037,"lng":135.10784,"zip":"6540121"},{"town":"車","koaza":"口潰ケ谷","lat":34.686228,"lng":135.106778,"zip":"6540111"},{"town":"車","koaza":"仏坂","lat":34.69101,"lng":135.107044,"zip":"6540111"},{"town":"妙法寺","koaza":"道正川","lat":34.678014,"lng":135.106842,"zip":"6540121"},{"town":"妙法寺","koaza":"小崎","lat":34.678261,"lng":135.109283,"zip":"6540121"},{"town":"妙法寺","koaza":"大津江","lat":34.677257,"lng":135.109378,"zip":"6540121"},{"town":"妙法寺","koaza":"トン松","lat":34.679706,"lng":135.109414,"zip":"6540121"},{"town":"車","koaza":"獅堀","lat":34.68541,"lng":135.109521,"zip":"6540111"},{"town":"車","koaza":"古川","lat":34.682649,"lng":135.110594,"zip":"6540111"},{"town":"車","koaza":"奥中ノ尾","lat":34.689947,"lng":135.10969,"zip":"6540111"},{"town":"車","koaza":"口中ノ尾","lat":34.688908,"lng":135.110168,"zip":"6540111"},{"town":"妙法寺","koaza":"菅ノ池","lat":34.680468,"lng":135.110124,"zip":"6540121"},{"town":"妙法寺","koaza":"竹向イ","lat":34.679345,"lng":135.109811,"zip":"6540121"},{"town":"車","koaza":"梨川山","lat":34.691705,"lng":135.115606,"zip":"6540111"},{"town":"車","koaza":"梨川","lat":34.690752,"lng":135.110063,"zip":"6540111"},{"town":"車","koaza":"西ノ鼻","lat":34.684823,"lng":135.110894,"zip":"6540111"},{"town":"車","koaza":"竹ノ下","lat":34.682046,"lng":135.111766,"zip":"6540111"},{"town":"車","koaza":"霜ノ下","lat":34.68388,"lng":135.11174,"zip":"6540111"},{"town":"車","koaza":"尾鼻","lat":34.681462,"lng":135.112365,"zip":"6540111"},{"town":"車","koaza":"前之野","lat":34.682925,"lng":135.112624,"zip":"6540111"},{"town":"車","koaza":"西脇","lat":34.683967,"lng":135.112737,"zip":"6540111"},{"town":"白川","koaza":"井戸小屋ノ奥","lat":34.694237,"lng":135.115053,"zip":"6540101"},{"town":"妙法寺","koaza":"谷野","lat":34.675003,"lng":135.113773,"zip":"6540121"},{"town":"妙法寺","koaza":"筆前","lat":34.676363,"lng":135.112955,"zip":"6540121"},{"town":"車","koaza":"宮ノ下","lat":34.684001,"lng":135.115002,"zip":"6540111"},{"town":"妙法寺","koaza":"寺ノ界地","lat":34.675488,"lng":135.115915,"zip":"6540121"},{"town":"妙法寺","koaza":"界地","lat":34.673029,"lng":135.114378,"zip":"6540121"},{"town":"車","koaza":"西山ノ田","lat":34.686493,"lng":135.120704,"zip":"6540111"},{"town":"車","koaza":"堂田","lat":34.684444,"lng":135.116739,"zip":"6540111"},{"town":"妙法寺","koaza":"池ノ内","lat":34.675773,"lng":135.118906,"zip":"6540121"},{"town":"妙法寺","koaza":"口中ノ山","lat":34.67972,"lng":135.11821,"zip":"6540121"},{"town":"東須磨","koaza":"火ノ谷","lat":34.659146,"lng":135.120944,"zip":"6540018"},{"town":"妙法寺","koaza":"東谷","lat":34.67718,"lng":135.118417,"zip":"6540121"},{"town":"車","koaza":"潰淵","lat":34.684301,"lng":135.11875,"zip":"6540111"},{"town":"妙法寺","koaza":"津江田","lat":34.678065,"lng":135.119909,"zip":"6540121"},{"town":"妙法寺","koaza":"堂ノ下","lat":34.673576,"lng":135.119738,"zip":"6540121"},{"town":"妙法寺","koaza":"大門","lat":34.674155,"lng":135.120114,"zip":"6540121"},{"town":"妙法寺","koaza":"岡","lat":34.673967,"lng":135.120293,"zip":"6540121"},{"town":"妙法寺","koaza":"堂ヶ谷","lat":34.679628,"lng":135.119972,"zip":"6540121"},{"town":"妙法寺","koaza":"円満林","lat":34.671055,"lng":135.120479,"zip":"6540121"},{"town":"妙法寺","koaza":"池ノ谷","lat":34.676521,"lng":135.120853,"zip":"6540121"},{"town":"妙法寺","koaza":"宮ノ下","lat":34.672435,"lng":135.121448,"zip":"6540121"},{"town":"妙法寺","koaza":"牛ノ子","lat":34.677827,"lng":135.121748,"zip":"6540121"},{"town":"妙法寺","koaza":"兀山","lat":34.67419,"lng":135.12332,"zip":"6540121"},{"town":"妙法寺","koaza":"下野路","lat":34.679761,"lng":135.122303,"zip":"6540121"},{"town":"妙法寺","koaza":"岩山","lat":34.68115,"lng":135.122395,"zip":"6540121"},{"town":"妙法寺","koaza":"樫原","lat":34.672065,"lng":135.122587,"zip":"6540121"},{"town":"妙法寺","koaza":"口川","lat":34.67037,"lng":135.122909,"zip":"6540121"},{"town":"妙法寺","koaza":"上野路","lat":34.680455,"lng":135.123096,"zip":"6540121"},{"town":"妙法寺","koaza":"高取山","lat":34.678773,"lng":135.129845,"zip":"6540121"},{"town":"妙法寺","koaza":"アチ口","lat":34.669252,"lng":135.124965,"zip":"6540121"},{"town":"妙法寺","koaza":"上の界","lat":34.681283,"lng":135.126306,"zip":"6540121"},{"town":"妙法寺","koaza":"アチラムキ","lat":34.682239,"lng":135.130552,"zip":"6540121"},{"town":"多井畑","koaza":"山神","lat":34.664329,"lng":135.094735,"zip":"6540133"},{"town":"多井畑","koaza":"出口","lat":34.662584,"lng":135.094533,"zip":"6540133"},{"town":"多井畑","koaza":"西所","lat":34.660799,"lng":135.091769,"zip":"6540133"},{"town":"多井畑","koaza":"前所","lat":34.659935,"lng":135.092534,"zip":"6540133"},{"town":"多井畑","koaza":"中前田","lat":34.659345,"lng":135.092992,"zip":"6540133"},{"town":"多井畑","koaza":"東前田","lat":34.659867,"lng":135.093648,"zip":"6540133"},{"town":"多井畑","koaza":"清水","lat":34.661683,"lng":135.094512,"zip":"6540133"},{"town":"多井畑","koaza":"池ノ奥口","lat":34.662615,"lng":135.101269,"zip":"6540133"},{"town":"多井畑","koaza":"若林","lat":34.661038,"lng":135.101784,"zip":"6540133"},{"town":"多井畑","koaza":"池ノ奥上","lat":34.66234,"lng":135.103336,"zip":"6540133"},{"town":"多井畑","koaza":"黒ヶ谷","lat":34.669133,"lng":135.104049,"zip":"6540133"},{"town":"多井畑","koaza":"渋人谷上","lat":34.669366,"lng":135.103856,"zip":"6540133"},{"town":"妙法寺","koaza":"荒打","lat":34.674897,"lng":135.10753,"zip":"6540121"},{"town":"大手","koaza":"稲荷尾","lat":34.659575,"lng":135.122079,"zip":"6540017"},{"town":"大手","koaza":"大谷","lat":34.659647,"lng":135.121563,"zip":"6540017"},{"town":"大手","koaza":"丸尾山","lat":34.6621,"lng":135.125992,"zip":"6540017"},{"town":"妙法寺","koaza":"三ツ瀧","lat":34.668882,"lng":135.123635,"zip":"6540121"},{"town":"妙法寺","koaza":"薮中ノ中","lat":34.681044,"lng":135.131231,"zip":"6540121"},{"town":"妙法寺","koaza":"石仏谷","lat":34.679678,"lng":135.127449,"zip":"6540121"},{"town":"妙法寺","koaza":"風早","lat":34.680638,"lng":135.127416,"zip":"6540121"},{"town":"妙法寺","koaza":"鶯田","lat":34.681039,"lng":135.124984,"zip":"6540121"},{"town":"妙法寺","koaza":"谷田","lat":34.680415,"lng":135.126313,"zip":"6540121"},{"town":"妙法寺","koaza":"薮中ノ下","lat":34.681477,"lng":135.130455,"zip":"6540121"},{"town":"妙法寺","koaza":"藪中","lat":34.681619,"lng":135.129808,"zip":"6540121"},{"town":"妙法寺","koaza":"池尻","lat":34.683502,"lng":135.126537,"zip":"6540121"},{"town":"妙法寺","koaza":"下池ノ尻","lat":34.682495,"lng":135.126688,"zip":"6540121"},{"town":"妙法寺","koaza":"大坪","lat":34.679999,"lng":135.123716,"zip":"6540121"},{"town":"妙法寺","koaza":"横川","lat":34.679197,"lng":135.122961,"zip":"6540121"},{"town":"妙法寺","koaza":"白坂","lat":34.679043,"lng":135.121241,"zip":"6540121"},{"town":"妙法寺","koaza":"桜ノ界地","lat":34.676446,"lng":135.116687,"zip":"6540121"},{"town":"妙法寺","koaza":"東畑","lat":34.67832,"lng":135.112209,"zip":"6540121"},{"town":"妙法寺","koaza":"万上畑","lat":34.679025,"lng":135.113629,"zip":"6540121"},{"town":"妙法寺","koaza":"乗越","lat":34.677689,"lng":135.11245,"zip":"6540121"},{"town":"妙法寺","koaza":"上ノ池","lat":34.679507,"lng":135.11164,"zip":"6540121"},{"town":"白川","koaza":"休間ヶ谷","lat":34.694473,"lng":135.103171,"zip":"6540101"},{"town":"白川","koaza":"七曲り","lat":34.697949,"lng":135.109603,"zip":"6540101"},{"town":"白川","koaza":"大池尻","lat":34.697856,"lng":135.111508,"zip":"6540101"},{"town":"白川","koaza":"高尾","lat":34.693948,"lng":135.113103,"zip":"6540101"},{"town":"白川","koaza":"井戸小屋口","lat":34.695798,"lng":135.112698,"zip":"6540101"},{"town":"車","koaza":"奥山ノ奥","lat":34.692516,"lng":135.116985,"zip":"6540111"},{"town":"車","koaza":"鼻ヶ崎","lat":34.686612,"lng":135.116137,"zip":"6540111"},{"town":"妙法寺","koaza":"野路山","lat":34.682114,"lng":135.121728,"zip":"6540121"},{"town":"妙法寺","koaza":"地子田","lat":34.680144,"lng":135.120922,"zip":"6540121"},{"town":"妙法寺","koaza":"狐","lat":34.677582,"lng":135.120684,"zip":"6540121"},{"town":"妙法寺","koaza":"前田","lat":34.674916,"lng":135.118401,"zip":"6540121"},{"town":"妙法寺","koaza":"毘沙門山","lat":34.675288,"lng":135.115139,"zip":"6540121"},{"town":"妙法寺","koaza":"池ノ中","lat":34.676771,"lng":135.111382,"zip":"6540121"},{"town":"妙法寺","koaza":"辻","lat":34.675671,"lng":135.109342,"zip":"6540121"},{"town":"東須磨","koaza":"青山","lat":34.658885,"lng":135.109138,"zip":"6540018"},{"town":"妙法寺","koaza":"辻堂","lat":34.677222,"lng":135.114155,"zip":"6540121"},{"town":"妙法寺","koaza":"中田","lat":34.676435,"lng":135.114606,"zip":"6540121"},{"town":"妙法寺","koaza":"廿苅","lat":34.679495,"lng":135.124639,"zip":"6540121"},{"town":"車","koaza":"向坂","lat":34.681736,"lng":135.113294,"zip":"6540111"},{"town":"車","koaza":"宮ノ向","lat":34.68338,"lng":135.114645,"zip":"6540111"},{"town":"車","koaza":"野中","lat":34.683676,"lng":135.115824,"zip":"6540111"},{"town":"妙法寺","koaza":"蓮池","lat":34.678571,"lng":135.109242,"zip":"6540121"},{"town":"白川","koaza":"下側地","lat":34.698215,"lng":135.099886,"zip":"6540101"},{"town":"白川","koaza":"堂ノ前","lat":34.697322,"lng":135.097943,"zip":"6540101"},{"town":"車","koaza":"西梨川山","lat":34.692232,"lng":135.106549,"zip":"6540111"},{"town":"車","koaza":"中尾","lat":34.691572,"lng":135.108224,"zip":"6540111"},{"town":"車","koaza":"道谷山","lat":34.68973,"lng":135.108101,"zip":"6540111"},{"town":"車","koaza":"前ヶ田","lat":34.690754,"lng":135.109252,"zip":"6540111"},{"town":"車","koaza":"奥道谷","lat":34.689626,"lng":135.108682,"zip":"6540111"},{"town":"車","koaza":"長者平","lat":34.688496,"lng":135.108202,"zip":"6540111"},{"town":"車","koaza":"生焼","lat":34.688033,"lng":135.107916,"zip":"6540111"},{"town":"車","koaza":"下仏坂","lat":34.690461,"lng":135.106577,"zip":"6540111"},{"town":"車","koaza":"谷田","lat":34.688979,"lng":135.107086,"zip":"6540111"},{"town":"車","koaza":"潰ノ下","lat":34.686613,"lng":135.11001,"zip":"6540111"},{"town":"車","koaza":"口道谷","lat":34.687869,"lng":135.109674,"zip":"6540111"},{"town":"車","koaza":"西ノ加市","lat":34.685338,"lng":135.111646,"zip":"6540111"},{"town":"車","koaza":"大道","lat":34.68418,"lng":135.111387,"zip":"6540111"},{"town":"車","koaza":"竹坪山","lat":34.688748,"lng":135.110912,"zip":"6540111"},{"town":"車","koaza":"滝ヶ谷","lat":34.685595,"lng":135.114892,"zip":"6540111"},{"town":"車","koaza":"松ヶ原","lat":34.684534,"lng":135.113376,"zip":"6540111"},{"town":"車","koaza":"滝ケ原","lat":34.684493,"lng":135.113828,"zip":"6540111"},{"town":"車","koaza":"下大道","lat":34.684063,"lng":135.109883,"zip":"6540111"},{"town":"車","koaza":"棚田","lat":34.687865,"lng":135.116023,"zip":"6540111"},{"town":"車","koaza":"菅ノ池","lat":34.68214,"lng":135.109646,"zip":"6540111"},{"town":"車","koaza":"奥西山","lat":34.688758,"lng":135.106238,"zip":"6540111"},{"town":"車","koaza":"上仏坂","lat":34.691392,"lng":135.105722,"zip":"6540111"},{"town":"白川","koaza":"樋詰","lat":34.698044,"lng":135.10106,"zip":"6540101"},{"town":"白川","koaza":"西小屋","lat":34.699095,"lng":135.099788,"zip":"6540101"},{"town":"白川","koaza":"竹ノ下","lat":34.700474,"lng":135.102135,"zip":"6540101"},{"town":"車","koaza":"玉子谷","lat":34.690539,"lng":135.112562,"zip":"6540111"},{"town":"白川","koaza":"宮ノ西","lat":34.701833,"lng":135.099205,"zip":"6540101"},{"town":"東須磨","koaza":"東須磨","lat":34.656687,"lng":135.112577,"zip":"6540018"},{"town":"車","koaza":"側ノ下","lat":34.682554,"lng":135.113451,"zip":"6540111"},{"town":"白川","koaza":"池ノ尻","lat":34.697175,"lng":135.096776,"zip":"6540101"},{"town":"多井畑","koaza":"地獄谷","lat":34.669605,"lng":135.103702,"zip":"6540133"}]