[{"town":"三番町一丁目","koaza":"","lat":34.670509,"lng":135.157719,"zip":"6530011"},{"town":"三番町二丁目","koaza":"","lat":34.669777,"lng":135.156568,"zip":"6530011"},{"town":"四番町三丁目","koaza":"","lat":34.670694,"lng":135.155699,"zip":"6530004"},{"town":"四番町四丁目","koaza":"","lat":34.669915,"lng":135.154591,"zip":"6530004"},{"town":"長田町一丁目","koaza":"","lat":34.669539,"lng":135.148923,"zip":"6530812"},{"town":"上池田四丁目","koaza":"","lat":34.670272,"lng":135.141344,"zip":"6530827"},{"town":"上池田三丁目","koaza":"","lat":34.669911,"lng":135.138191,"zip":"6530827"},{"town":"池田谷町二丁目","koaza":"","lat":34.670279,"lng":135.14342,"zip":"6530821"},{"town":"四番町五丁目","koaza":"","lat":34.669324,"lng":135.153491,"zip":"6530004"},{"town":"五番町五丁目","koaza":"","lat":34.670092,"lng":135.152745,"zip":"6530003"},{"town":"六番町七丁目","koaza":"","lat":34.669519,"lng":135.150446,"zip":"6530002"},{"town":"六番町六丁目","koaza":"","lat":34.670091,"lng":135.15121,"zip":"6530002"},{"town":"五番町六丁目","koaza":"","lat":34.669427,"lng":135.151845,"zip":"6530003"},{"town":"大塚町一丁目","koaza":"","lat":34.67043,"lng":135.149838,"zip":"6530811"},{"town":"長田町二丁目","koaza":"","lat":34.670492,"lng":135.147835,"zip":"6530812"},{"town":"池田広町","koaza":"","lat":34.668948,"lng":135.146358,"zip":"6530814"},{"town":"宮川町二丁目","koaza":"","lat":34.669226,"lng":135.147115,"zip":"6530813"},{"town":"宮川町一丁目","koaza":"","lat":34.669189,"lng":135.148057,"zip":"6530813"},{"town":"池田寺町","koaza":"","lat":34.669148,"lng":135.145336,"zip":"6530822"},{"town":"上池田一丁目","koaza":"","lat":34.668886,"lng":135.141362,"zip":"6530827"},{"town":"高取山町二丁目","koaza":"","lat":34.670489,"lng":135.133231,"zip":"6530856"},{"town":"高取山町一丁目","koaza":"","lat":34.670746,"lng":135.136386,"zip":"6530856"},{"town":"長尾町二丁目","koaza":"","lat":34.668148,"lng":135.133636,"zip":"6530855"},{"town":"東尻池町一丁目","koaza":"","lat":34.661767,"lng":135.155172,"zip":"6530022"},{"town":"三番町三丁目","koaza":"","lat":34.668996,"lng":135.155462,"zip":"6530011"},{"town":"一番町一丁目","koaza":"","lat":34.668398,"lng":135.158142,"zip":"6530013"},{"town":"二番町一丁目","koaza":"","lat":34.668739,"lng":135.157291,"zip":"6530012"},{"town":"二番町二丁目","koaza":"","lat":34.668368,"lng":135.156247,"zip":"6530012"},{"town":"三番町四丁目","koaza":"","lat":34.66836,"lng":135.154479,"zip":"6530011"},{"town":"二番町三丁目","koaza":"","lat":34.667657,"lng":135.155252,"zip":"6530012"},{"town":"一番町二丁目","koaza":"","lat":34.667483,"lng":135.156813,"zip":"6530013"},{"town":"一番町三丁目","koaza":"","lat":34.666948,"lng":135.155892,"zip":"6530013"},{"town":"御蔵通一丁目","koaza":"","lat":34.66673,"lng":135.157537,"zip":"6530014"},{"town":"一番町四丁目","koaza":"","lat":34.666324,"lng":135.154949,"zip":"6530013"},{"town":"御蔵通二丁目","koaza":"","lat":34.666159,"lng":135.156661,"zip":"6530014"},{"town":"御蔵通三丁目","koaza":"","lat":34.665559,"lng":135.155698,"zip":"6530014"},{"town":"菅原通一丁目","koaza":"","lat":34.665665,"lng":135.158604,"zip":"6530015"},{"town":"御蔵通四丁目","koaza":"","lat":34.664931,"lng":135.154789,"zip":"6530014"},{"town":"菅原通二丁目","koaza":"","lat":34.665,"lng":135.157981,"zip":"6530015"},{"town":"菅原通三丁目","koaza":"","lat":34.664585,"lng":135.156649,"zip":"6530015"},{"town":"梅ケ香町一丁目","koaza":"","lat":34.663496,"lng":135.158093,"zip":"6530021"},{"town":"菅原通四丁目","koaza":"","lat":34.66396,"lng":135.155722,"zip":"6530015"},{"town":"梅ケ香町二丁目","koaza":"","lat":34.661575,"lng":135.158417,"zip":"6530021"},{"town":"菅原通五丁目","koaza":"","lat":34.663339,"lng":135.154786,"zip":"6530015"},{"town":"神楽町二丁目","koaza":"","lat":34.660887,"lng":135.149529,"zip":"6530836"},{"town":"水笠通二丁目","koaza":"","lat":34.660286,"lng":135.143975,"zip":"6530842"},{"town":"西代通一丁目","koaza":"","lat":34.661111,"lng":135.141482,"zip":"6530844"},{"town":"五位ノ池町四丁目","koaza":"","lat":34.664852,"lng":135.138945,"zip":"6530851"},{"town":"細田町五丁目","koaza":"","lat":34.660584,"lng":135.14659,"zip":"6530835"},{"town":"細田町四丁目","koaza":"","lat":34.661335,"lng":135.147556,"zip":"6530835"},{"town":"細田町三丁目","koaza":"","lat":34.661954,"lng":135.148523,"zip":"6530835"},{"town":"細田町二丁目","koaza":"","lat":34.662596,"lng":135.149452,"zip":"6530835"},{"town":"川西通三丁目","koaza":"","lat":34.663585,"lng":135.148503,"zip":"6530834"},{"town":"川西通四丁目","koaza":"","lat":34.662958,"lng":135.147556,"zip":"6530834"},{"town":"水笠通一丁目","koaza":"","lat":34.661228,"lng":135.145425,"zip":"6530842"},{"town":"川西通五丁目","koaza":"","lat":34.662346,"lng":135.146595,"zip":"6530834"},{"town":"御屋敷通一丁目","koaza":"","lat":34.662409,"lng":135.145022,"zip":"6530843"},{"town":"大道通五丁目","koaza":"","lat":34.663127,"lng":135.145699,"zip":"6530833"},{"town":"御屋敷通二丁目","koaza":"","lat":34.661672,"lng":135.143985,"zip":"6530843"},{"town":"大道通四丁目","koaza":"","lat":34.664041,"lng":135.146884,"zip":"6530833"},{"town":"大道通三丁目","koaza":"","lat":34.664614,"lng":135.147515,"zip":"6530833"},{"town":"蓮宮通四丁目","koaza":"","lat":34.666457,"lng":135.145844,"zip":"6530831"},{"town":"御船通四丁目","koaza":"","lat":34.665455,"lng":135.146708,"zip":"6530832"},{"town":"川西通二丁目","koaza":"","lat":34.664248,"lng":135.149386,"zip":"6530834"},{"town":"川西通一丁目","koaza":"","lat":34.664524,"lng":135.150483,"zip":"6530834"},{"town":"大道通二丁目","koaza":"","lat":34.665322,"lng":135.148412,"zip":"6530833"},{"town":"御船通三丁目","koaza":"","lat":34.665991,"lng":135.147562,"zip":"6530832"},{"town":"御船通二丁目","koaza":"","lat":34.66644,"lng":135.148215,"zip":"6530832"},{"town":"御船通一丁目","koaza":"","lat":34.666862,"lng":135.14882,"zip":"6530832"},{"town":"大道通一丁目","koaza":"","lat":34.665749,"lng":135.149419,"zip":"6530833"},{"town":"御船通五丁目","koaza":"","lat":34.665013,"lng":135.145898,"zip":"6530832"},{"town":"二番町四丁目","koaza":"","lat":34.667181,"lng":135.154133,"zip":"6530012"},{"town":"蓮宮通五丁目","koaza":"","lat":34.665762,"lng":135.145011,"zip":"6530831"},{"town":"蓮宮通一丁目","koaza":"","lat":34.667717,"lng":135.148441,"zip":"6530831"},{"town":"蓮宮通三丁目","koaza":"","lat":34.666976,"lng":135.146533,"zip":"6530831"},{"town":"蓮宮通二丁目","koaza":"","lat":34.667463,"lng":135.147411,"zip":"6530831"},{"town":"五番町八丁目","koaza":"","lat":34.667539,"lng":135.149621,"zip":"6530003"},{"town":"蓮池町","koaza":"","lat":34.664044,"lng":135.14491,"zip":"6530837"},{"town":"蓮宮通六丁目","koaza":"","lat":34.665283,"lng":135.143504,"zip":"6530831"},{"town":"大谷町一丁目","koaza":"","lat":34.662776,"lng":135.142997,"zip":"6530838"},{"town":"御屋敷通三丁目","koaza":"","lat":34.660888,"lng":135.142893,"zip":"6530843"},{"town":"山下町一丁目","koaza":"","lat":34.662287,"lng":135.141474,"zip":"6530852"},{"town":"西代通二丁目","koaza":"","lat":34.660626,"lng":135.140493,"zip":"6530844"},{"town":"戸崎通一丁目","koaza":"","lat":34.661287,"lng":135.139734,"zip":"6530845"},{"town":"西代通三丁目","koaza":"","lat":34.660072,"lng":135.139488,"zip":"6530844"},{"town":"池田塩町","koaza":"","lat":34.667245,"lng":135.140893,"zip":"6530826"},{"town":"上池田二丁目","koaza":"","lat":34.667957,"lng":135.139527,"zip":"6530827"},{"town":"池田上町","koaza":"","lat":34.667216,"lng":135.14224,"zip":"6530824"},{"town":"池田新町","koaza":"","lat":34.668088,"lng":135.142217,"zip":"6530825"},{"town":"神楽町一丁目","koaza":"","lat":34.661494,"lng":135.150498,"zip":"6530836"},{"town":"細田町一丁目","koaza":"","lat":34.663366,"lng":135.150467,"zip":"6530835"},{"town":"六番町八丁目","koaza":"","lat":34.668716,"lng":135.149246,"zip":"6530002"},{"town":"菅原通七丁目","koaza":"","lat":34.661959,"lng":135.152388,"zip":"6530015"},{"town":"菅原通六丁目","koaza":"","lat":34.662736,"lng":135.153791,"zip":"6530015"},{"town":"御蔵通七丁目","koaza":"","lat":34.663571,"lng":135.151899,"zip":"6530014"},{"town":"北町三丁目","koaza":"","lat":34.665622,"lng":135.151049,"zip":"6530016"},{"town":"御蔵通六丁目","koaza":"","lat":34.664114,"lng":135.152703,"zip":"6530014"},{"town":"北町二丁目","koaza":"","lat":34.666346,"lng":135.151939,"zip":"6530016"},{"town":"御蔵通五丁目","koaza":"","lat":34.66472,"lng":135.153503,"zip":"6530014"},{"town":"北町一丁目","koaza":"","lat":34.666754,"lng":135.153026,"zip":"6530016"},{"town":"一番町五丁目","koaza":"","lat":34.665852,"lng":135.153921,"zip":"6530013"},{"town":"四番町八丁目","koaza":"","lat":34.667564,"lng":135.150855,"zip":"6530004"},{"town":"三番町五丁目","koaza":"","lat":34.668097,"lng":135.153387,"zip":"6530011"},{"town":"五番町七丁目","koaza":"","lat":34.668676,"lng":135.150965,"zip":"6530003"},{"town":"四番町七丁目","koaza":"","lat":34.66799,"lng":135.151746,"zip":"6530004"},{"town":"四番町六丁目","koaza":"","lat":34.668624,"lng":135.152624,"zip":"6530004"},{"town":"池田経町","koaza":"","lat":34.668139,"lng":135.143769,"zip":"6530823"},{"town":"山下町二丁目","koaza":"","lat":34.662252,"lng":135.140248,"zip":"6530852"},{"town":"山下町三丁目","koaza":"","lat":34.662248,"lng":135.139263,"zip":"6530852"},{"town":"大谷町三丁目","koaza":"","lat":34.665097,"lng":135.14036,"zip":"6530838"},{"town":"戸崎通二丁目","koaza":"","lat":34.660953,"lng":135.138663,"zip":"6530845"},{"town":"戸崎通三丁目","koaza":"","lat":34.660536,"lng":135.137354,"zip":"6530845"},{"town":"庄山町一丁目","koaza":"","lat":34.661925,"lng":135.136591,"zip":"6530853"},{"town":"山下町四丁目","koaza":"","lat":34.662272,"lng":135.138098,"zip":"6530852"},{"town":"五位ノ池町一丁目","koaza":"","lat":34.663649,"lng":135.13794,"zip":"6530851"},{"town":"五位ノ池町二丁目","koaza":"","lat":34.665341,"lng":135.137112,"zip":"6530851"},{"town":"大谷町二丁目","koaza":"","lat":34.66575,"lng":135.14132,"zip":"6530838"},{"town":"五位ノ池町三丁目","koaza":"","lat":34.663882,"lng":135.135995,"zip":"6530851"},{"town":"平和台町三丁目","koaza":"","lat":34.665044,"lng":135.13474,"zip":"6530854"},{"town":"平和台町一丁目","koaza":"","lat":34.665389,"lng":135.135537,"zip":"6530854"},{"town":"長尾町一丁目","koaza":"","lat":34.667748,"lng":135.136177,"zip":"6530855"},{"town":"庄山町二丁目","koaza":"","lat":34.662406,"lng":135.135475,"zip":"6530853"},{"town":"庄山町三丁目","koaza":"","lat":34.663124,"lng":135.134637,"zip":"6530853"},{"town":"平和台町二丁目","koaza":"","lat":34.665791,"lng":135.133177,"zip":"6530854"},{"town":"庄山町四丁目","koaza":"","lat":34.66389,"lng":135.133566,"zip":"6530853"},{"town":"東尻池町二丁目","koaza":"","lat":34.660465,"lng":135.155368,"zip":"6530022"},{"town":"苅藻島町三丁目","koaza":"","lat":34.648308,"lng":135.162464,"zip":"6530033"},{"town":"東尻池町六丁目","koaza":"","lat":34.656915,"lng":135.157714,"zip":"6530022"},{"town":"東尻池町五丁目","koaza":"","lat":34.657892,"lng":135.157378,"zip":"6530022"},{"town":"真野町","koaza":"","lat":34.660218,"lng":135.15272,"zip":"6530025"},{"town":"東尻池町四丁目","koaza":"","lat":34.658996,"lng":135.15714,"zip":"6530022"},{"town":"東尻池町三丁目","koaza":"","lat":34.65989,"lng":135.157274,"zip":"6530022"},{"town":"浜添通一丁目","koaza":"","lat":34.658355,"lng":135.155045,"zip":"6530024"},{"town":"浜添通三丁目","koaza":"","lat":34.65632,"lng":135.156021,"zip":"6530024"},{"town":"浜添通二丁目","koaza":"","lat":34.657327,"lng":135.155599,"zip":"6530024"},{"town":"東尻池町七丁目","koaza":"","lat":34.655836,"lng":135.15801,"zip":"6530022"},{"town":"浜添通五丁目","koaza":"","lat":34.654281,"lng":135.156891,"zip":"6530024"},{"town":"浜添通四丁目","koaza":"","lat":34.655307,"lng":135.156458,"zip":"6530024"},{"town":"東尻池新町","koaza":"","lat":34.657114,"lng":135.159202,"zip":"6530023"},{"town":"苅藻通五丁目","koaza":"","lat":34.654828,"lng":135.154842,"zip":"6530032"},{"town":"東尻池町八丁目","koaza":"","lat":34.654623,"lng":135.157872,"zip":"6530022"},{"town":"苅藻通六丁目","koaza":"","lat":34.653854,"lng":135.155331,"zip":"6530032"},{"town":"東尻池町九丁目","koaza":"","lat":34.653629,"lng":135.158699,"zip":"6530022"},{"town":"浜添通六丁目","koaza":"","lat":34.653242,"lng":135.157293,"zip":"6530024"},{"town":"東尻池町十丁目","koaza":"","lat":34.652459,"lng":135.15885,"zip":"6530022"},{"town":"浜添通七丁目","koaza":"","lat":34.652304,"lng":135.15764,"zip":"6530024"},{"town":"苅藻島町一丁目","koaza":"","lat":34.650231,"lng":135.162524,"zip":"6530033"},{"town":"浜添通八丁目","koaza":"","lat":34.651179,"lng":135.158362,"zip":"6530024"},{"town":"苅藻島町二丁目","koaza":"","lat":34.648909,"lng":135.156805,"zip":"6530033"},{"town":"苅藻通七丁目","koaza":"","lat":34.651685,"lng":135.156001,"zip":"6530032"},{"town":"西尻池町二丁目","koaza":"","lat":34.65855,"lng":135.15104,"zip":"6530031"},{"town":"二葉町三丁目","koaza":"","lat":34.654029,"lng":135.149996,"zip":"6530042"},{"town":"久保町四丁目","koaza":"","lat":34.654301,"lng":135.148257,"zip":"6530041"},{"town":"久保町三丁目","koaza":"","lat":34.654898,"lng":135.149167,"zip":"6530041"},{"town":"西尻池町一丁目","koaza":"","lat":34.659577,"lng":135.150561,"zip":"6530031"},{"town":"若松町六丁目","koaza":"","lat":34.655426,"lng":135.144227,"zip":"6530038"},{"town":"久保町五丁目","koaza":"","lat":34.653702,"lng":135.147343,"zip":"6530041"},{"town":"二葉町五丁目","koaza":"","lat":34.652827,"lng":135.148173,"zip":"6530042"},{"town":"二葉町六丁目","koaza":"","lat":34.652235,"lng":135.147262,"zip":"6530042"},{"town":"二葉町七丁目","koaza":"","lat":34.651655,"lng":135.14638,"zip":"6530042"},{"town":"久保町七丁目","koaza":"","lat":34.652527,"lng":135.14555,"zip":"6530041"},{"town":"大橋町六丁目","koaza":"","lat":34.654677,"lng":135.144945,"zip":"6530037"},{"town":"大橋町七丁目","koaza":"","lat":34.654094,"lng":135.144047,"zip":"6530037"},{"town":"腕塚町九丁目","koaza":"","lat":34.652025,"lng":135.142796,"zip":"6530036"},{"town":"日吉町四丁目","koaza":"","lat":34.654247,"lng":135.140716,"zip":"6530039"},{"town":"若松町九丁目","koaza":"","lat":34.653562,"lng":135.141356,"zip":"6530038"},{"town":"久保町九丁目","koaza":"","lat":34.651231,"lng":135.143556,"zip":"6530041"},{"town":"若松町十丁目","koaza":"","lat":34.652931,"lng":135.140395,"zip":"6530038"},{"town":"若松町十一丁目","koaza":"","lat":34.652353,"lng":135.139511,"zip":"6530038"},{"town":"水笠通三丁目","koaza":"","lat":34.659647,"lng":135.142972,"zip":"6530842"},{"town":"西代通四丁目","koaza":"","lat":34.659278,"lng":135.138365,"zip":"6530844"},{"town":"庄田町三丁目","koaza":"","lat":34.65317,"lng":135.150811,"zip":"6530035"},{"town":"駒栄町四丁目","koaza":"","lat":34.651882,"lng":135.150327,"zip":"6530034"},{"town":"駒栄町三丁目","koaza":"","lat":34.652623,"lng":135.151317,"zip":"6530034"},{"town":"駒栄町二丁目","koaza":"","lat":34.653217,"lng":135.152433,"zip":"6530034"},{"town":"駒栄町一丁目","koaza":"","lat":34.653775,"lng":135.153485,"zip":"6530034"},{"town":"二葉町四丁目","koaza":"","lat":34.65343,"lng":135.149087,"zip":"6530042"},{"town":"庄田町四丁目","koaza":"","lat":34.652573,"lng":135.149901,"zip":"6530035"},{"town":"駒ケ林町一丁目","koaza":"","lat":34.651167,"lng":135.149594,"zip":"6530043"},{"town":"久保町六丁目","koaza":"","lat":34.653107,"lng":135.146433,"zip":"6530041"},{"town":"腕塚町六丁目","koaza":"","lat":34.653904,"lng":135.145679,"zip":"6530036"},{"town":"腕塚町四丁目","koaza":"","lat":34.655103,"lng":135.147458,"zip":"6530036"},{"town":"苅藻通四丁目","koaza":"","lat":34.655868,"lng":135.154429,"zip":"6530032"},{"town":"西尻池町五丁目","koaza":"","lat":34.655929,"lng":135.152602,"zip":"6530031"},{"town":"腕塚町二丁目","koaza":"","lat":34.656387,"lng":135.149294,"zip":"6530036"},{"town":"腕塚町三丁目","koaza":"","lat":34.655688,"lng":135.148412,"zip":"6530036"},{"town":"大橋町四丁目","koaza":"","lat":34.655841,"lng":135.14674,"zip":"6530037"},{"town":"大橋町三丁目","koaza":"","lat":34.656454,"lng":135.14768,"zip":"6530037"},{"town":"大橋町二丁目","koaza":"","lat":34.657096,"lng":135.148605,"zip":"6530037"},{"town":"大橋町一丁目","koaza":"","lat":34.657631,"lng":135.149581,"zip":"6530037"},{"town":"神楽町三丁目","koaza":"","lat":34.660168,"lng":135.148679,"zip":"6530836"},{"town":"神楽町四丁目","koaza":"","lat":34.659685,"lng":135.147621,"zip":"6530836"},{"town":"若松町一丁目","koaza":"","lat":34.658506,"lng":135.148745,"zip":"6530038"},{"town":"西尻池町四丁目","koaza":"","lat":34.656796,"lng":135.152007,"zip":"6530031"},{"town":"苅藻通三丁目","koaza":"","lat":34.656891,"lng":135.153997,"zip":"6530032"},{"town":"若松町二丁目","koaza":"","lat":34.657981,"lng":135.147766,"zip":"6530038"},{"town":"神楽町五丁目","koaza":"","lat":34.659322,"lng":135.146623,"zip":"6530836"},{"town":"細田町六丁目","koaza":"","lat":34.660018,"lng":135.14563,"zip":"6530835"},{"town":"細田町七丁目","koaza":"","lat":34.659513,"lng":135.144727,"zip":"6530835"},{"town":"若松町三丁目","koaza":"","lat":34.657382,"lng":135.146799,"zip":"6530038"},{"town":"神楽町六丁目","koaza":"","lat":34.658602,"lng":135.145631,"zip":"6530836"},{"town":"南駒栄町","koaza":"","lat":34.649642,"lng":135.152347,"zip":"6530044"},{"town":"駒ケ林町二丁目","koaza":"","lat":34.650631,"lng":135.148723,"zip":"6530043"},{"town":"腕塚町五丁目","koaza":"","lat":34.654505,"lng":135.146589,"zip":"6530036"},{"town":"大橋町五丁目","koaza":"","lat":34.65525,"lng":135.14583,"zip":"6530037"},{"town":"久保町八丁目","koaza":"","lat":34.651906,"lng":135.144601,"zip":"6530041"},{"town":"腕塚町八丁目","koaza":"","lat":34.652701,"lng":135.143837,"zip":"6530036"},{"town":"腕塚町七丁目","koaza":"","lat":34.653321,"lng":135.144788,"zip":"6530036"},{"town":"二葉町八丁目","koaza":"","lat":34.65103,"lng":135.145433,"zip":"6530042"},{"town":"日吉町一丁目","koaza":"","lat":34.655968,"lng":135.143505,"zip":"6530039"},{"town":"若松町八丁目","koaza":"","lat":34.654231,"lng":135.142381,"zip":"6530038"},{"town":"若松町七丁目","koaza":"","lat":34.654973,"lng":135.143333,"zip":"6530038"},{"town":"日吉町二丁目","koaza":"","lat":34.655531,"lng":135.142588,"zip":"6530039"},{"town":"若松町四丁目","koaza":"","lat":34.656803,"lng":135.145759,"zip":"6530038"},{"town":"松野通一丁目","koaza":"","lat":34.658285,"lng":135.144334,"zip":"6530841"},{"town":"松野通三丁目","koaza":"","lat":34.657227,"lng":135.14237,"zip":"6530841"},{"town":"水笠通五丁目","koaza":"","lat":34.658479,"lng":135.141101,"zip":"6530842"},{"town":"若松町五丁目","koaza":"","lat":34.656199,"lng":135.14474,"zip":"6530038"},{"town":"松野通二丁目","koaza":"","lat":34.65777,"lng":135.143557,"zip":"6530841"},{"town":"日吉町三丁目","koaza":"","lat":34.654988,"lng":135.141801,"zip":"6530039"},{"town":"水笠通六丁目","koaza":"","lat":34.65783,"lng":135.140065,"zip":"6530842"},{"town":"水笠通四丁目","koaza":"","lat":34.659056,"lng":135.142027,"zip":"6530842"},{"town":"御屋敷通四丁目","koaza":"","lat":34.659798,"lng":135.141286,"zip":"6530843"},{"town":"大橋町九丁目","koaza":"","lat":34.652799,"lng":135.142066,"zip":"6530037"},{"town":"大橋町八丁目","koaza":"","lat":34.653474,"lng":135.143097,"zip":"6530037"},{"town":"二葉町九丁目","koaza":"","lat":34.650354,"lng":135.144388,"zip":"6530042"},{"town":"二葉町十丁目","koaza":"","lat":34.649735,"lng":135.143436,"zip":"6530042"},{"town":"久保町十丁目","koaza":"","lat":34.65061,"lng":135.142596,"zip":"6530041"},{"town":"大橋町十丁目","koaza":"","lat":34.652172,"lng":135.141105,"zip":"6530037"},{"town":"腕塚町十丁目","koaza":"","lat":34.651401,"lng":135.141836,"zip":"6530036"},{"town":"日吉町六丁目","koaza":"","lat":34.653033,"lng":135.138835,"zip":"6530039"},{"town":"松野通四丁目","koaza":"","lat":34.656617,"lng":135.141318,"zip":"6530841"},{"town":"御屋敷通六丁目","koaza":"","lat":34.65854,"lng":135.139321,"zip":"6530843"},{"town":"御屋敷通五丁目","koaza":"","lat":34.659206,"lng":135.140364,"zip":"6530843"},{"town":"野田町五丁目","koaza":"","lat":34.650841,"lng":135.140975,"zip":"6530051"},{"town":"野田町六丁目","koaza":"","lat":34.650041,"lng":135.141725,"zip":"6530051"},{"town":"野田町四丁目","koaza":"","lat":34.651627,"lng":135.140215,"zip":"6530051"},{"town":"海運町三丁目","koaza":"","lat":34.651706,"lng":135.138411,"zip":"6530052"},{"town":"海運町五丁目","koaza":"","lat":34.650217,"lng":135.140019,"zip":"6530052"},{"town":"海運町四丁目","koaza":"","lat":34.651091,"lng":135.139354,"zip":"6530052"},{"town":"本庄町五丁目","koaza":"","lat":34.649605,"lng":135.139033,"zip":"6530053"},{"town":"久保町二丁目","koaza":"","lat":34.655517,"lng":135.15001,"zip":"6530041"},{"town":"二葉町一丁目","koaza":"","lat":34.655249,"lng":135.151506,"zip":"6530042"},{"town":"久保町一丁目","koaza":"","lat":34.656235,"lng":135.151023,"zip":"6530041"},{"town":"庄田町一丁目","koaza":"","lat":34.654579,"lng":135.152921,"zip":"6530035"},{"town":"二葉町二丁目","koaza":"","lat":34.654649,"lng":135.150897,"zip":"6530042"},{"town":"庄田町二丁目","koaza":"","lat":34.653786,"lng":135.151757,"zip":"6530035"},{"town":"腕塚町一丁目","koaza":"","lat":34.656904,"lng":135.15021,"zip":"6530036"},{"town":"西尻池町三丁目","koaza":"","lat":34.657429,"lng":135.151582,"zip":"6530031"},{"town":"苅藻通一丁目","koaza":"","lat":34.65915,"lng":135.152351,"zip":"6530032"},{"town":"苅藻通二丁目","koaza":"","lat":34.658008,"lng":135.153497,"zip":"6530032"},{"town":"日吉町五丁目","koaza":"","lat":34.653617,"lng":135.139738,"zip":"6530039"},{"town":"海運町二丁目","koaza":"","lat":34.652529,"lng":135.137984,"zip":"6530052"},{"town":"浪松町二丁目","koaza":"","lat":34.650555,"lng":135.135173,"zip":"6530055"},{"town":"本庄町四丁目","koaza":"","lat":34.650243,"lng":135.138314,"zip":"6530053"},{"town":"本庄町三丁目","koaza":"","lat":34.651044,"lng":135.137665,"zip":"6530053"},{"town":"長楽町二丁目","koaza":"","lat":34.651233,"lng":135.136212,"zip":"6530054"},{"town":"本庄町二丁目","koaza":"","lat":34.651806,"lng":135.13709,"zip":"6530053"},{"town":"長楽町三丁目","koaza":"","lat":34.650517,"lng":135.136693,"zip":"6530054"},{"town":"長楽町四丁目","koaza":"","lat":34.649769,"lng":135.137408,"zip":"6530054"},{"town":"浪松町三丁目","koaza":"","lat":34.649945,"lng":135.135802,"zip":"6530055"},{"town":"駒ケ林町五丁目","koaza":"","lat":34.648909,"lng":135.145689,"zip":"6530043"},{"town":"駒ケ林町四丁目","koaza":"","lat":34.649463,"lng":135.146888,"zip":"6530043"},{"town":"駒ケ林町三丁目","koaza":"","lat":34.650007,"lng":135.147872,"zip":"6530043"},{"town":"駒ケ林町六丁目","koaza":"","lat":34.648477,"lng":135.144635,"zip":"6530043"},{"town":"海運町六丁目","koaza":"","lat":34.649415,"lng":135.140766,"zip":"6530052"},{"town":"本庄町六丁目","koaza":"","lat":34.648653,"lng":135.139787,"zip":"6530053"},{"town":"長楽町六丁目","koaza":"","lat":34.648259,"lng":135.138991,"zip":"6530054"},{"town":"野田町九丁目","koaza":"","lat":34.647733,"lng":135.143993,"zip":"6530051"},{"town":"本庄町八丁目","koaza":"","lat":34.646974,"lng":135.141418,"zip":"6530053"},{"town":"長楽町七丁目","koaza":"","lat":34.647577,"lng":135.13993,"zip":"6530054"},{"town":"駒ケ林南町","koaza":"","lat":34.645185,"lng":135.14235,"zip":"6530045"},{"town":"海運町八丁目","koaza":"","lat":34.647556,"lng":135.142529,"zip":"6530052"},{"town":"野田町八丁目","koaza":"","lat":34.648407,"lng":135.143333,"zip":"6530051"},{"town":"野田町七丁目","koaza":"","lat":34.649173,"lng":135.142574,"zip":"6530051"},{"town":"海運町七丁目","koaza":"","lat":34.648547,"lng":135.141605,"zip":"6530052"},{"town":"本庄町七丁目","koaza":"","lat":34.647887,"lng":135.140663,"zip":"6530053"},{"town":"長楽町五丁目","koaza":"","lat":34.64894,"lng":135.137985,"zip":"6530054"},{"town":"浪松町五丁目","koaza":"","lat":34.648448,"lng":135.137352,"zip":"6530055"},{"town":"浪松町六丁目","koaza":"","lat":34.647169,"lng":135.138896,"zip":"6530055"},{"town":"浪松町四丁目","koaza":"","lat":34.649202,"lng":135.136596,"zip":"6530055"},{"town":"雲雀ケ丘三丁目","koaza":"","lat":34.689812,"lng":135.128645,"zip":"6530879"},{"town":"雲雀ケ丘二丁目","koaza":"","lat":34.691614,"lng":135.13097,"zip":"6530879"},{"town":"雲雀ケ丘一丁目","koaza":"","lat":34.692303,"lng":135.134538,"zip":"6530879"},{"town":"萩乃町三丁目","koaza":"","lat":34.689213,"lng":135.130712,"zip":"6530873"},{"town":"萩乃町二丁目","koaza":"","lat":34.688621,"lng":135.132865,"zip":"6530873"},{"town":"大日丘町三丁目","koaza":"","lat":34.689055,"lng":135.134654,"zip":"6530872"},{"town":"鹿松町一丁目","koaza":"","lat":34.685986,"lng":135.133784,"zip":"6530877"},{"town":"花山町二丁目","koaza":"","lat":34.684572,"lng":135.134763,"zip":"6530876"},{"town":"鹿松町二丁目","koaza":"","lat":34.684727,"lng":135.131771,"zip":"6530877"},{"town":"高東町三丁目","koaza":"","lat":34.682881,"lng":135.134108,"zip":"6530867"},{"town":"高東町一丁目","koaza":"","lat":34.681849,"lng":135.137031,"zip":"6530867"},{"town":"高東町二丁目","koaza":"","lat":34.682309,"lng":135.135296,"zip":"6530867"},{"town":"鹿松町三丁目","koaza":"","lat":34.683279,"lng":135.132295,"zip":"6530877"},{"town":"一里山町","koaza":"","lat":34.685673,"lng":135.128552,"zip":"6530878"},{"town":"鶯町四丁目","koaza":"","lat":34.692829,"lng":135.138283,"zip":"6530871"},{"town":"長田天神町五丁目","koaza":"","lat":34.682372,"lng":135.145725,"zip":"6530882"},{"town":"丸山町一丁目","koaza":"","lat":34.682077,"lng":135.139856,"zip":"6530875"},{"town":"丸山町四丁目","koaza":"","lat":34.683513,"lng":135.137191,"zip":"6530875"},{"town":"西丸山町一丁目","koaza":"","lat":34.685277,"lng":135.140766,"zip":"6530874"},{"town":"西丸山町三丁目","koaza":"","lat":34.686198,"lng":135.137603,"zip":"6530874"},{"town":"檜川町三丁目","koaza":"","lat":34.689179,"lng":135.139792,"zip":"6530887"},{"town":"滝谷町一丁目","koaza":"","lat":34.684883,"lng":135.148427,"zip":"6530881"},{"town":"萩乃町一丁目","koaza":"","lat":34.687049,"lng":135.135728,"zip":"6530873"},{"town":"西丸山町二丁目","koaza":"","lat":34.686317,"lng":135.139499,"zip":"6530874"},{"town":"長田天神町二丁目","koaza":"","lat":34.682116,"lng":135.148715,"zip":"6530882"},{"town":"長田天神町一丁目","koaza":"","lat":34.681232,"lng":135.14659,"zip":"6530882"},{"town":"長田天神町七丁目","koaza":"","lat":34.685219,"lng":135.143893,"zip":"6530882"},{"town":"明泉寺町三丁目","koaza":"","lat":34.682742,"lng":135.143171,"zip":"6530884"},{"town":"丸山町二丁目","koaza":"","lat":34.683433,"lng":135.140535,"zip":"6530875"},{"town":"東丸山町","koaza":"","lat":34.684434,"lng":135.142968,"zip":"6530886"},{"town":"花山町一丁目","koaza":"","lat":34.68496,"lng":135.136931,"zip":"6530876"},{"town":"丸山町三丁目","koaza":"","lat":34.68388,"lng":135.139032,"zip":"6530875"},{"town":"檜川町一丁目","koaza":"","lat":34.686618,"lng":135.141248,"zip":"6530887"},{"town":"滝谷町三丁目","koaza":"","lat":34.686212,"lng":135.145697,"zip":"6530881"},{"town":"檜川町二丁目","koaza":"","lat":34.687945,"lng":135.140167,"zip":"6530887"},{"town":"大日丘町一丁目","koaza":"","lat":34.688574,"lng":135.137128,"zip":"6530872"},{"town":"大日丘町二丁目","koaza":"","lat":34.690275,"lng":135.136376,"zip":"6530872"},{"town":"鶯町三丁目","koaza":"","lat":34.691587,"lng":135.139942,"zip":"6530871"},{"town":"鶯町一丁目","koaza":"","lat":34.690134,"lng":135.138791,"zip":"6530871"},{"town":"鶯町二丁目","koaza":"","lat":34.691387,"lng":135.13764,"zip":"6530871"},{"town":"長田天神町四丁目","koaza":"","lat":34.682936,"lng":135.147508,"zip":"6530882"},{"town":"長田天神町六丁目","koaza":"","lat":34.683781,"lng":135.145963,"zip":"6530882"},{"town":"長田天神町三丁目","koaza":"","lat":34.683237,"lng":135.149439,"zip":"6530882"},{"town":"房王寺町六丁目","koaza":"","lat":34.681971,"lng":135.150252,"zip":"6530801"},{"town":"源平町","koaza":"","lat":34.688957,"lng":135.142911,"zip":"6530888"},{"town":"滝谷町二丁目","koaza":"","lat":34.686196,"lng":135.147842,"zip":"6530881"},{"town":"七番町","koaza":"","lat":34.674185,"lng":135.155697,"zip":"6530001"},{"town":"六番町一丁目","koaza":"","lat":34.673632,"lng":135.156239,"zip":"6530002"},{"town":"六番町二丁目","koaza":"","lat":34.673332,"lng":135.155275,"zip":"6530002"},{"town":"五番町一丁目","koaza":"","lat":34.672977,"lng":135.156875,"zip":"6530003"},{"town":"五番町二丁目","koaza":"","lat":34.672404,"lng":135.15606,"zip":"6530003"},{"town":"四番町一丁目","koaza":"","lat":34.672095,"lng":135.157733,"zip":"6530004"},{"town":"五番町三丁目","koaza":"","lat":34.671544,"lng":135.15466,"zip":"6530003"},{"town":"四番町二丁目","koaza":"","lat":34.671494,"lng":135.156951,"zip":"6530004"},{"town":"重池町一丁目","koaza":"","lat":34.675944,"lng":135.155277,"zip":"6530802"},{"town":"寺池町一丁目","koaza":"","lat":34.672861,"lng":135.152175,"zip":"6530804"},{"town":"寺池町二丁目","koaza":"","lat":34.674315,"lng":135.150878,"zip":"6530804"},{"town":"長田町五丁目","koaza":"","lat":34.673315,"lng":135.146588,"zip":"6530812"},{"town":"寺池町三丁目","koaza":"","lat":34.675348,"lng":135.14992,"zip":"6530804"},{"town":"大丸町一丁目","koaza":"","lat":34.676269,"lng":135.150442,"zip":"6530806"},{"town":"片山町三丁目","koaza":"","lat":34.675497,"lng":135.148701,"zip":"6530805"},{"town":"房王寺町四丁目","koaza":"","lat":34.679651,"lng":135.148549,"zip":"6530801"},{"town":"前原町一丁目","koaza":"","lat":34.674165,"lng":135.153599,"zip":"6530803"},{"town":"房王寺町一丁目","koaza":"","lat":34.675719,"lng":135.153359,"zip":"6530801"},{"town":"房王寺町二丁目","koaza":"","lat":34.677401,"lng":135.152105,"zip":"6530801"},{"town":"前原町二丁目","koaza":"","lat":34.675314,"lng":135.151664,"zip":"6530803"},{"town":"六番町三丁目","koaza":"","lat":34.672357,"lng":135.154292,"zip":"6530002"},{"town":"五番町四丁目","koaza":"","lat":34.670751,"lng":135.15376,"zip":"6530003"},{"town":"六番町四丁目","koaza":"","lat":34.671522,"lng":135.153124,"zip":"6530002"},{"town":"六番町五丁目","koaza":"","lat":34.670746,"lng":135.152124,"zip":"6530002"},{"town":"大塚町二丁目","koaza":"","lat":34.671151,"lng":135.14874,"zip":"6530811"},{"town":"片山町二丁目","koaza":"","lat":34.673486,"lng":135.148955,"zip":"6530805"},{"town":"大丸町三丁目","koaza":"","lat":34.679103,"lng":135.147441,"zip":"6530806"},{"town":"大塚町八丁目","koaza":"","lat":34.675369,"lng":135.146513,"zip":"6530811"},{"town":"片山町四丁目","koaza":"","lat":34.675048,"lng":135.147666,"zip":"6530805"},{"town":"大塚町九丁目","koaza":"","lat":34.676386,"lng":135.146091,"zip":"6530811"},{"town":"大塚町七丁目","koaza":"","lat":34.674742,"lng":135.146771,"zip":"6530811"},{"town":"大塚町六丁目","koaza":"","lat":34.674206,"lng":135.147009,"zip":"6530811"},{"town":"片山町一丁目","koaza":"","lat":34.671834,"lng":135.150519,"zip":"6530805"},{"town":"大塚町五丁目","koaza":"","lat":34.673521,"lng":135.147331,"zip":"6530811"},{"town":"大塚町四丁目","koaza":"","lat":34.672628,"lng":135.147839,"zip":"6530811"},{"town":"大塚町三丁目","koaza":"","lat":34.671746,"lng":135.148458,"zip":"6530811"},{"town":"長田町六丁目","koaza":"","lat":34.673998,"lng":135.146288,"zip":"6530812"},{"town":"長田町九丁目","koaza":"","lat":34.675988,"lng":135.145444,"zip":"6530812"},{"town":"長田町八丁目","koaza":"","lat":34.675192,"lng":135.145628,"zip":"6530812"},{"town":"宮川町八丁目","koaza":"","lat":34.67491,"lng":135.144645,"zip":"6530813"},{"town":"宮川町七丁目","koaza":"","lat":34.674272,"lng":135.145232,"zip":"6530813"},{"town":"宮川町六丁目","koaza":"","lat":34.673676,"lng":135.145319,"zip":"6530813"},{"town":"長田町七丁目","koaza":"","lat":34.674516,"lng":135.146023,"zip":"6530812"},{"town":"長田町四丁目","koaza":"","lat":34.672339,"lng":135.146848,"zip":"6530812"},{"town":"長田町三丁目","koaza":"","lat":34.671235,"lng":135.147298,"zip":"6530812"},{"town":"西山町一丁目","koaza":"","lat":34.670713,"lng":135.145192,"zip":"6530862"},{"town":"宮川町四丁目","koaza":"","lat":34.671884,"lng":135.145845,"zip":"6530813"},{"town":"宮川町三丁目","koaza":"","lat":34.67053,"lng":135.146595,"zip":"6530813"},{"town":"西山町二丁目","koaza":"","lat":34.672132,"lng":135.143981,"zip":"6530862"},{"town":"宮川町五丁目","koaza":"","lat":34.673112,"lng":135.145428,"zip":"6530813"},{"town":"上池田六丁目","koaza":"","lat":34.671895,"lng":135.142498,"zip":"6530827"},{"town":"上池田五丁目","koaza":"","lat":34.67172,"lng":135.14081,"zip":"6530827"},{"town":"西山町四丁目","koaza":"","lat":34.67491,"lng":135.141515,"zip":"6530862"},{"town":"西山町三丁目","koaza":"","lat":34.674207,"lng":135.144134,"zip":"6530862"},{"town":"宮川町九丁目","koaza":"","lat":34.675681,"lng":135.144445,"zip":"6530813"},{"town":"名倉町一丁目","koaza":"","lat":34.6768,"lng":135.145468,"zip":"6530883"},{"town":"片山町五丁目","koaza":"","lat":34.677146,"lng":135.147307,"zip":"6530805"},{"town":"名倉町二丁目","koaza":"","lat":34.677834,"lng":135.145401,"zip":"6530883"},{"town":"名倉町四丁目","koaza":"","lat":34.679261,"lng":135.145748,"zip":"6530883"},{"town":"明泉寺町二丁目","koaza":"","lat":34.680566,"lng":135.144007,"zip":"6530884"},{"town":"明泉寺町一丁目","koaza":"","lat":34.67915,"lng":135.144124,"zip":"6530884"},{"town":"名倉町五丁目","koaza":"","lat":34.680556,"lng":135.145334,"zip":"6530883"},{"town":"名倉町三丁目","koaza":"","lat":34.679032,"lng":135.1465,"zip":"6530883"},{"town":"房王寺町五丁目","koaza":"","lat":34.680184,"lng":135.149415,"zip":"6530801"},{"town":"大丸町二丁目","koaza":"","lat":34.677559,"lng":135.149435,"zip":"6530806"},{"town":"重池町二丁目","koaza":"","lat":34.678301,"lng":135.153457,"zip":"6530802"},{"town":"房王寺町三丁目","koaza":"","lat":34.678554,"lng":135.151162,"zip":"6530801"},{"town":"房王寺町七丁目","koaza":"","lat":34.681607,"lng":135.151102,"zip":"6530801"},{"town":"堀切町","koaza":"","lat":34.680596,"lng":135.141815,"zip":"6530885"},{"town":"林山町","koaza":"","lat":34.677682,"lng":135.142406,"zip":"6530861"},{"town":"宮丘町一丁目","koaza":"","lat":34.67282,"lng":135.139727,"zip":"6530863"},{"town":"長者町","koaza":"","lat":34.679282,"lng":135.13586,"zip":"6530866"},{"town":"高取山町","koaza":"","lat":34.674115,"lng":135.132439,"zip":"6530856"},{"town":"池田丘町","koaza":"","lat":34.672416,"lng":135.137913,"zip":"6530000"},{"town":"池田宮町","koaza":"","lat":34.676473,"lng":135.138219,"zip":"6530865"},{"town":"宮丘町二丁目","koaza":"","lat":34.671986,"lng":135.138789,"zip":"6530863"},{"town":"池田惣町","koaza":"","lat":34.672227,"lng":135.137434,"zip":"6530864"}]