[{"town":"中辻","koaza":"","lat":35.50128,"lng":134.488069,"zip":"6696814"},{"town":"切畑","koaza":"","lat":35.509866,"lng":134.505335,"zip":"6696812"},{"town":"金屋","koaza":"","lat":35.576037,"lng":134.496874,"zip":"6696802"},{"town":"湯","koaza":"","lat":35.545432,"lng":134.482694,"zip":"6696821"},{"town":"歌長","koaza":"","lat":35.551793,"lng":134.509205,"zip":"6696808"},{"town":"多子","koaza":"","lat":35.526312,"lng":134.498846,"zip":"6696811"},{"town":"岸田","koaza":"","lat":35.468622,"lng":134.464732,"zip":"6696954"},{"town":"石橋","koaza":"","lat":35.504105,"lng":134.451135,"zip":"6696953"},{"town":"海上","koaza":"","lat":35.485833,"lng":134.444159,"zip":"6696952"},{"town":"熊谷","koaza":"","lat":35.5792,"lng":134.521754,"zip":"6696804"},{"town":"藤尾","koaza":"","lat":35.605746,"lng":134.522138,"zip":"6696725"},{"town":"久斗山","koaza":"","lat":35.586475,"lng":134.560044,"zip":"6696727"},{"town":"三尾","koaza":"","lat":35.657368,"lng":134.515545,"zip":"6696715"},{"town":"用土","koaza":"","lat":35.591291,"lng":134.487567,"zip":"6696744"},{"town":"今岡","koaza":"","lat":35.585452,"lng":134.490583,"zip":"6696803"},{"town":"竹田","koaza":"","lat":35.571064,"lng":134.456687,"zip":"6696761"},{"town":"栃谷","koaza":"","lat":35.598444,"lng":134.460341,"zip":"6696745"},{"town":"諸寄","koaza":"","lat":35.593475,"lng":134.425353,"zip":"6696753"},{"town":"赤崎","koaza":"","lat":35.646591,"lng":134.492799,"zip":"6696714"},{"town":"和田","koaza":"","lat":35.636389,"lng":134.506279,"zip":"6696716"},{"town":"高末","koaza":"","lat":35.616977,"lng":134.504851,"zip":"6696722"},{"town":"二日市","koaza":"","lat":35.616556,"lng":134.486728,"zip":"6696731"},{"town":"七釜","koaza":"","lat":35.603046,"lng":134.490517,"zip":"6696741"},{"town":"正法庵","koaza":"","lat":35.600792,"lng":134.508685,"zip":"6696723"},{"town":"居組","koaza":"","lat":35.608155,"lng":134.392171,"zip":"6696751"},{"town":"春来","koaza":"","lat":35.526294,"lng":134.524876,"zip":"6696807"},{"town":"桧尾","koaza":"","lat":35.544587,"lng":134.534941,"zip":"6696806"},{"town":"伊角","koaza":"","lat":35.563967,"lng":134.539313,"zip":"6696805"},{"town":"井土","koaza":"","lat":35.574474,"lng":134.481712,"zip":"6696801"},{"town":"細田","koaza":"","lat":35.557891,"lng":134.48131,"zip":"6696822"},{"town":"千原","koaza":"","lat":35.553464,"lng":134.457404,"zip":"6696941"},{"town":"桐岡","koaza":"","lat":35.529512,"lng":134.485859,"zip":"6696815"},{"town":"丹土","koaza":"","lat":35.518515,"lng":134.489849,"zip":"6696813"},{"town":"塩山","koaza":"","lat":35.519494,"lng":134.466853,"zip":"6696833"},{"town":"前","koaza":"","lat":35.515517,"lng":134.454931,"zip":"6696951"},{"town":"宮脇","koaza":"","lat":35.525181,"lng":134.445031,"zip":"6696944"},{"town":"飯野","koaza":"","lat":35.537716,"lng":134.466028,"zip":"6696832"},{"town":"越坂","koaza":"","lat":35.511501,"lng":134.435407,"zip":"6696946"},{"town":"千谷","koaza":"","lat":35.525183,"lng":134.42822,"zip":"6696943"},{"town":"内山","koaza":"","lat":35.518236,"lng":134.43954,"zip":"6696945"},{"town":"鐘尾","koaza":"","lat":35.54758,"lng":134.43664,"zip":"6696942"},{"town":"境","koaza":"","lat":35.60762,"lng":134.545772,"zip":"6696726"},{"town":"辺地","koaza":"","lat":35.61771,"lng":134.521982,"zip":"6696724"},{"town":"久谷","koaza":"","lat":35.628081,"lng":134.518966,"zip":"6696721"},{"town":"釜屋","koaza":"","lat":35.613141,"lng":134.411599,"zip":"6696752"},{"town":"芦屋","koaza":"","lat":35.627641,"lng":134.441938,"zip":"6696701"},{"town":"指杭","koaza":"","lat":35.636417,"lng":134.469505,"zip":"6696712"},{"town":"新市","koaza":"","lat":35.601237,"lng":134.478149,"zip":"6696742"},{"town":"古市","koaza":"","lat":35.597194,"lng":134.477134,"zip":"6696743"},{"town":"戸田","koaza":"","lat":35.614384,"lng":134.471486,"zip":"6696746"},{"town":"対田","koaza":"","lat":35.627947,"lng":134.486905,"zip":"6696728"},{"town":"田井","koaza":"","lat":35.636603,"lng":134.4836,"zip":"6696713"},{"town":"福富","koaza":"","lat":35.62173,"lng":134.469976,"zip":"6696732"},{"town":"清富","koaza":"","lat":35.630807,"lng":134.46559,"zip":"6696711"},{"town":"三谷","koaza":"","lat":35.609521,"lng":134.459773,"zip":"6696747"},{"town":"浜坂","koaza":"","lat":35.617782,"lng":134.44829,"zip":"6696702"}]