[{"town":"村岡区作山","koaza":"","lat":35.419444,"lng":134.632937,"zip":"6671331"},{"town":"村岡区八井谷","koaza":"","lat":35.404252,"lng":134.607677,"zip":"6671332"},{"town":"小代区秋岡","koaza":"","lat":35.413015,"lng":134.497266,"zip":"6671533"},{"town":"小代区新屋","koaza":"","lat":35.394001,"lng":134.502775,"zip":"6671532"},{"town":"村岡区村岡","koaza":"","lat":35.484544,"lng":134.616321,"zip":"6671311"},{"town":"村岡区寺河内","koaza":"","lat":35.458459,"lng":134.622305,"zip":"6671322"},{"town":"村岡区耀山","koaza":"","lat":35.4466,"lng":134.616434,"zip":"6671323"},{"town":"村岡区日影","koaza":"","lat":35.432782,"lng":134.620586,"zip":"6671337"},{"town":"村岡区黒田","koaza":"","lat":35.423661,"lng":134.603688,"zip":"6671335"},{"town":"村岡区福岡","koaza":"","lat":35.413353,"lng":134.603667,"zip":"6671334"},{"town":"村岡区森脇","koaza":"","lat":35.419704,"lng":134.595864,"zip":"6671341"},{"town":"村岡区和池","koaza":"","lat":35.42224,"lng":134.581614,"zip":"6671347"},{"town":"村岡区池ヶ平","koaza":"","lat":35.417196,"lng":134.577893,"zip":"6696500"},{"town":"村岡区高坂","koaza":"","lat":35.413669,"lng":134.573615,"zip":"6671345"},{"town":"村岡区板仕野","koaza":"","lat":35.436486,"lng":134.570167,"zip":"6671315"},{"town":"小代区茅野","koaza":"","lat":35.420982,"lng":134.542277,"zip":"6671531"},{"town":"村岡区柤岡","koaza":"","lat":35.481745,"lng":134.506321,"zip":"6671354"},{"town":"小代区久須部","koaza":"","lat":35.445797,"lng":134.508055,"zip":"6671501"},{"town":"小代区佐坊","koaza":"","lat":35.427456,"lng":134.504393,"zip":"6671541"},{"town":"香住区藤","koaza":"","lat":35.579899,"lng":134.622382,"zip":"6696557"},{"town":"村岡区境","koaza":"","lat":35.567503,"lng":134.606715,"zip":"6671301"},{"town":"村岡区山田","koaza":"","lat":35.545294,"lng":134.610383,"zip":"6671302"},{"town":"村岡区和佐父","koaza":"","lat":35.508225,"lng":134.594906,"zip":"6671304"},{"town":"村岡区川会","koaza":"","lat":35.502297,"lng":134.5702,"zip":"6671366"},{"town":"村岡区丸味","koaza":"","lat":35.505623,"lng":134.552402,"zip":"6671351"},{"town":"村岡区熊波","koaza":"","lat":35.488874,"lng":134.537809,"zip":"6671353"},{"town":"香住区土生","koaza":"","lat":35.589908,"lng":134.695766,"zip":"6696422"},{"town":"香住区畑","koaza":"","lat":35.598327,"lng":134.671289,"zip":"6696423"},{"town":"香住区三川","koaza":"","lat":35.569576,"lng":134.647362,"zip":"6696426"},{"town":"香住区大谷","koaza":"","lat":35.595912,"lng":134.640707,"zip":"6696554"},{"town":"香住区七日市","koaza":"","lat":35.637856,"lng":134.620181,"zip":"6696546"},{"town":"香住区八原","koaza":"","lat":35.582569,"lng":134.596284,"zip":"6696558"},{"town":"香住区中野","koaza":"","lat":35.58952,"lng":134.611193,"zip":"6696556"},{"town":"香住区大野","koaza":"","lat":35.600487,"lng":134.621139,"zip":"6696555"},{"town":"香住区香住","koaza":"","lat":35.63513,"lng":134.63903,"zip":"6696544"},{"town":"香住区三谷","koaza":"","lat":35.612116,"lng":134.632117,"zip":"6696553"},{"town":"香住区加鹿野","koaza":"","lat":35.620043,"lng":134.62916,"zip":"6696552"},{"town":"香住区森","koaza":"","lat":35.625993,"lng":134.626533,"zip":"6696545"},{"town":"香住区余部","koaza":"","lat":35.643731,"lng":134.555622,"zip":"6696671"},{"town":"村岡区中大谷","koaza":"","lat":35.400955,"lng":134.570229,"zip":"6671343"},{"town":"村岡区口大谷","koaza":"","lat":35.407327,"lng":134.579801,"zip":"6671342"},{"town":"村岡区大野","koaza":"","lat":35.395105,"lng":134.593085,"zip":"6671333"},{"town":"村岡区大笹","koaza":"","lat":35.404094,"lng":134.553441,"zip":"6671344"},{"town":"小代区東垣","koaza":"","lat":35.42625,"lng":134.521521,"zip":"6671545"},{"town":"村岡区宿","koaza":"","lat":35.434908,"lng":134.589199,"zip":"6671336"},{"town":"村岡区市原","koaza":"","lat":35.443042,"lng":134.597281,"zip":"6671324"},{"town":"小代区平野","koaza":"","lat":35.434562,"lng":134.541405,"zip":"6671523"},{"town":"小代区實山","koaza":"","lat":35.440709,"lng":134.543346,"zip":"6696500"},{"town":"小代区忠宮","koaza":"","lat":35.44502,"lng":134.530211,"zip":"6671543"},{"town":"小代区鍛治屋","koaza":"","lat":35.433052,"lng":134.523276,"zip":"6671542"},{"town":"小代区貫田","koaza":"","lat":35.438837,"lng":134.528833,"zip":"6671544"},{"town":"村岡区大糠","koaza":"","lat":35.462239,"lng":134.60759,"zip":"6671321"},{"town":"村岡区高井","koaza":"","lat":35.451699,"lng":134.593908,"zip":"6671325"},{"town":"村岡区萩山","koaza":"","lat":35.448436,"lng":134.563376,"zip":"6671314"},{"town":"小代区神場","koaza":"","lat":35.456091,"lng":134.55879,"zip":"6671514"},{"town":"小代区野間谷","koaza":"","lat":35.449144,"lng":134.545009,"zip":"6671521"},{"town":"小代区水間","koaza":"","lat":35.454874,"lng":134.549038,"zip":"6671515"},{"town":"村岡区相田","koaza":"","lat":35.462735,"lng":134.592024,"zip":"6671312"},{"town":"村岡区神坂","koaza":"","lat":35.462261,"lng":134.577603,"zip":"6671313"},{"town":"村岡区鹿田","koaza":"","lat":35.47642,"lng":134.577696,"zip":"6671316"},{"town":"小代区廣井","koaza":"","lat":35.470973,"lng":134.559146,"zip":"6696500"},{"town":"小代区神水","koaza":"","lat":35.468608,"lng":134.539084,"zip":"6671511"},{"town":"小代区石寺","koaza":"","lat":35.475408,"lng":134.545453,"zip":"6671512"},{"town":"小代区城山","koaza":"","lat":35.466047,"lng":134.527503,"zip":"6671502"},{"town":"小代区大谷","koaza":"","lat":35.455978,"lng":134.518413,"zip":"6671503"},{"town":"村岡区用野","koaza":"","lat":35.487344,"lng":134.586188,"zip":"6671317"},{"town":"村岡区入江","koaza":"","lat":35.486893,"lng":134.571549,"zip":"6671368"},{"town":"村岡区和田","koaza":"","lat":35.493863,"lng":134.565093,"zip":"6671367"},{"town":"村岡区長板","koaza":"","lat":35.490403,"lng":134.55465,"zip":"6671352"},{"town":"村岡区高津","koaza":"","lat":35.519035,"lng":134.57446,"zip":"6671365"},{"town":"村岡区長須","koaza":"","lat":35.525601,"lng":134.558837,"zip":"6671364"},{"town":"村岡区小城","koaza":"","lat":35.521818,"lng":134.605681,"zip":"6671303"},{"town":"村岡区味取","koaza":"","lat":35.541667,"lng":134.564914,"zip":"6671363"},{"town":"村岡区原","koaza":"","lat":35.554402,"lng":134.559461,"zip":"6671362"},{"town":"村岡区長瀬","koaza":"","lat":35.562014,"lng":134.578117,"zip":"6671361"},{"town":"香住区若松","koaza":"","lat":35.644248,"lng":134.632563,"zip":"6696543"},{"town":"香住区本見塚","koaza":"","lat":35.612836,"lng":134.703731,"zip":"6696421"},{"town":"香住区上岡","koaza":"","lat":35.61379,"lng":134.682825,"zip":"6696414"},{"town":"香住区下岡","koaza":"","lat":35.626179,"lng":134.676885,"zip":"6696413"},{"town":"香住区隼人","koaza":"","lat":35.613788,"lng":134.660803,"zip":"6696424"},{"town":"香住区相谷","koaza":"","lat":35.651216,"lng":134.720782,"zip":"6696404"},{"town":"香住区安木","koaza":"","lat":35.638717,"lng":134.703943,"zip":"6696403"},{"town":"香住区訓谷","koaza":"","lat":35.651449,"lng":134.692762,"zip":"6696402"},{"town":"香住区米地","koaza":"","lat":35.633547,"lng":134.688581,"zip":"6696412"},{"town":"香住区無南垣","koaza":"","lat":35.655886,"lng":134.68266,"zip":"6696401"},{"town":"香住区九斗","koaza":"","lat":35.642887,"lng":134.67994,"zip":"6696411"},{"town":"香住区浦上","koaza":"","lat":35.646948,"lng":134.668782,"zip":"6696431"},{"town":"香住区丹生地","koaza":"","lat":35.631529,"lng":134.671487,"zip":"6696416"},{"town":"香住区境","koaza":"","lat":35.649014,"lng":134.643483,"zip":"6696541"},{"town":"香住区一日市","koaza":"","lat":35.645389,"lng":134.637963,"zip":"6696542"},{"town":"香住区上計","koaza":"","lat":35.638294,"lng":134.654782,"zip":"6696432"},{"town":"香住区沖浦","koaza":"","lat":35.659652,"lng":134.655798,"zip":"6696433"},{"town":"香住区鎧","koaza":"","lat":35.650107,"lng":134.582725,"zip":"6696672"},{"town":"香住区下浜","koaza":"","lat":35.645292,"lng":134.607005,"zip":"6696564"},{"town":"香住区小原","koaza":"","lat":35.604943,"lng":134.596607,"zip":"6696559"},{"town":"香住区守柄","koaza":"","lat":35.616812,"lng":134.599626,"zip":"6696551"},{"town":"香住区油良","koaza":"","lat":35.633485,"lng":134.616442,"zip":"6696562"},{"town":"香住区間室","koaza":"","lat":35.626498,"lng":134.608939,"zip":"6696561"},{"town":"香住区矢田","koaza":"","lat":35.639955,"lng":134.608406,"zip":"6696563"},{"town":"香住区山手","koaza":"","lat":null,"lng":null,"zip":null}]