[{"town":"山口町中野","koaza":"","lat":34.808882,"lng":135.259225,"zip":"6511433"},{"town":"山口町金仙寺三丁目","koaza":"","lat":34.824349,"lng":135.252275,"zip":"6511422"},{"town":"山口町金仙寺二丁目","koaza":"","lat":34.821447,"lng":135.252519,"zip":"6511422"},{"town":"山口町金仙寺一丁目","koaza":"","lat":34.82325,"lng":135.252929,"zip":"6511422"},{"town":"上甲東園六丁目","koaza":"","lat":34.764571,"lng":135.355389,"zip":"6620813"},{"town":"鳴尾浜一丁目","koaza":"","lat":34.699577,"lng":135.363644,"zip":"6638142"},{"town":"日野町","koaza":"","lat":34.750469,"lng":135.372206,"zip":"6638022"},{"town":"松山町","koaza":"","lat":34.747154,"lng":135.372051,"zip":"6638101"},{"town":"上之町","koaza":"","lat":34.753889,"lng":135.37084,"zip":"6638021"},{"town":"二見町","koaza":"","lat":34.740631,"lng":135.372278,"zip":"6638111"},{"town":"甲子園口三丁目","koaza":"","lat":34.736197,"lng":135.372611,"zip":"6638113"},{"town":"熊野町","koaza":"","lat":34.744214,"lng":135.371779,"zip":"6638103"},{"town":"学文殿町二丁目","koaza":"","lat":34.724886,"lng":135.371873,"zip":"6638182"},{"town":"学文殿町一丁目","koaza":"","lat":34.723844,"lng":135.373864,"zip":"6638182"},{"town":"若草町二丁目","koaza":"","lat":34.726839,"lng":135.373458,"zip":"6638181"},{"town":"甲子園三番町","koaza":"","lat":34.729625,"lng":135.37,"zip":"6638173"},{"town":"上甲子園一丁目","koaza":"","lat":34.73238,"lng":135.370369,"zip":"6638114"},{"town":"甲子園二番町","koaza":"","lat":34.731613,"lng":135.372224,"zip":"6638172"},{"town":"若草町一丁目","koaza":"","lat":34.728648,"lng":135.373989,"zip":"6638181"},{"town":"里中町三丁目","koaza":"","lat":34.721228,"lng":135.371226,"zip":"6638183"},{"town":"里中町二丁目","koaza":"","lat":34.720969,"lng":135.372934,"zip":"6638183"},{"town":"鳴尾町二丁目","koaza":"","lat":34.714834,"lng":135.371214,"zip":"6638184"},{"town":"鳴尾町一丁目","koaza":"","lat":34.717337,"lng":135.372427,"zip":"6638184"},{"town":"上田中町","koaza":"","lat":34.708478,"lng":135.373025,"zip":"6638134"},{"town":"上田西町","koaza":"","lat":34.710749,"lng":135.370573,"zip":"6638135"},{"town":"高須町一丁目","koaza":"","lat":34.701722,"lng":135.371981,"zip":"6638141"},{"town":"一里山町","koaza":"","lat":34.772837,"lng":135.371332,"zip":"6638002"},{"town":"田近野町","koaza":"","lat":34.777814,"lng":135.371949,"zip":"6638001"},{"town":"丸橋町","koaza":"","lat":34.752699,"lng":135.353851,"zip":"6620831"},{"town":"甲風園三丁目","koaza":"","lat":34.753819,"lng":135.356469,"zip":"6620832"},{"town":"伏原町","koaza":"","lat":34.753976,"lng":135.35927,"zip":"6638031"},{"town":"薬師町","koaza":"","lat":34.754001,"lng":135.363545,"zip":"6638024"},{"town":"荒木町","koaza":"","lat":34.754386,"lng":135.367003,"zip":"6638025"},{"town":"堤町","koaza":"","lat":34.757113,"lng":135.370918,"zip":"6638012"},{"town":"樋ノ口町二丁目","koaza":"","lat":34.759808,"lng":135.370043,"zip":"6638011"},{"town":"樋ノ口町一丁目","koaza":"","lat":34.762835,"lng":135.371062,"zip":"6638011"},{"town":"上大市五丁目","koaza":"","lat":34.767219,"lng":135.371642,"zip":"6638003"},{"town":"愛宕山","koaza":"","lat":34.755899,"lng":135.349022,"zip":"6620871"},{"town":"能登町","koaza":"","lat":34.752007,"lng":135.351096,"zip":"6620838"},{"town":"高座町","koaza":"","lat":34.754825,"lng":135.344147,"zip":"6620872"},{"town":"奥畑","koaza":"","lat":34.753349,"lng":135.335877,"zip":"6620022"},{"town":"大社町","koaza":"","lat":34.752788,"lng":135.340061,"zip":"6620867"},{"town":"北名次町","koaza":"","lat":34.752691,"lng":135.330633,"zip":"6620025"},{"town":"神原","koaza":"","lat":34.756222,"lng":135.33362,"zip":"6620021"},{"town":"松風町","koaza":"","lat":34.754088,"lng":135.327475,"zip":"6620073"},{"town":"石刎町","koaza":"","lat":34.751439,"lng":135.327674,"zip":"6620074"},{"town":"樋之池町","koaza":"","lat":34.751635,"lng":135.320287,"zip":"6620084"},{"town":"苦楽園五番町","koaza":"","lat":34.754734,"lng":135.314107,"zip":"6620087"},{"town":"苦楽園六番町","koaza":"","lat":34.752535,"lng":135.313648,"zip":"6620086"},{"town":"豊楽町","koaza":"","lat":34.75337,"lng":135.324788,"zip":"6620072"},{"town":"桜町","koaza":"","lat":34.753588,"lng":135.321851,"zip":"6620071"},{"town":"苦楽園一番町","koaza":"","lat":34.755327,"lng":135.317272,"zip":"6620083"},{"town":"北六甲台二丁目","koaza":"","lat":34.834906,"lng":135.248258,"zip":"6511413"},{"town":"山口町香花園","koaza":"","lat":34.805464,"lng":135.245864,"zip":"6511424"},{"town":"山口町上山口三丁目","koaza":"","lat":34.827554,"lng":135.248671,"zip":"6511421"},{"town":"山口町上山口四丁目","koaza":"","lat":34.824318,"lng":135.248246,"zip":"6511421"},{"town":"山口町下山口五丁目","koaza":"","lat":34.830497,"lng":135.242537,"zip":"6511412"},{"town":"北六甲台四丁目","koaza":"","lat":34.831012,"lng":135.250942,"zip":"6511413"},{"town":"北六甲台五丁目","koaza":"","lat":34.832235,"lng":135.245701,"zip":"6511413"},{"town":"名塩赤坂","koaza":"","lat":34.837858,"lng":135.268942,"zip":"6691149"},{"town":"塩瀬町名塩","koaza":"","lat":34.840047,"lng":135.291214,"zip":"6691251"},{"town":"国見台六丁目","koaza":"","lat":34.838393,"lng":135.300663,"zip":"6691135"},{"town":"国見台五丁目","koaza":"","lat":34.836472,"lng":135.304298,"zip":"6691135"},{"town":"国見台四丁目","koaza":"","lat":34.836661,"lng":135.308813,"zip":"6691135"},{"town":"国見台一丁目","koaza":"","lat":34.837132,"lng":135.312415,"zip":"6691135"},{"town":"名塩さくら台四丁目","koaza":"","lat":34.838155,"lng":135.274128,"zip":"6691146"},{"town":"名塩さくら台二丁目","koaza":"","lat":34.836964,"lng":135.278581,"zip":"6691146"},{"town":"名塩さくら台一丁目","koaza":"","lat":34.837227,"lng":135.282426,"zip":"6691146"},{"town":"山口町下山口","koaza":"","lat":34.831315,"lng":135.260458,"zip":"6511412"},{"town":"山口町名来","koaza":"","lat":34.842371,"lng":135.24455,"zip":"6511411"},{"town":"北六甲台三丁目","koaza":"","lat":34.834598,"lng":135.252632,"zip":"6511413"},{"town":"北六甲台一丁目","koaza":"","lat":34.835467,"lng":135.243547,"zip":"6511413"},{"town":"山口町下山口一丁目","koaza":"","lat":34.836455,"lng":135.238265,"zip":"6511412"},{"town":"山口町下山口二丁目","koaza":"","lat":34.83609,"lng":135.236584,"zip":"6511412"},{"town":"松並町","koaza":"","lat":34.74557,"lng":135.374801,"zip":"6638102"},{"town":"甲子園口二丁目","koaza":"","lat":34.736153,"lng":135.37539,"zip":"6638113"},{"town":"甲子園口一丁目","koaza":"","lat":34.736785,"lng":135.378842,"zip":"6638113"},{"town":"甲子園口北町","koaza":"","lat":34.741026,"lng":135.376454,"zip":"6638112"},{"town":"戸崎町","koaza":"","lat":34.733866,"lng":135.377718,"zip":"6638121"},{"town":"甲子園一番町","koaza":"","lat":34.731238,"lng":135.374795,"zip":"6638171"},{"town":"小松北町一丁目","koaza":"","lat":34.725929,"lng":135.377581,"zip":"6638126"},{"town":"小松町一丁目","koaza":"","lat":34.723602,"lng":135.378181,"zip":"6638127"},{"town":"小松北町二丁目","koaza":"","lat":34.724629,"lng":135.3776,"zip":"6638126"},{"town":"小松西町一丁目","koaza":"","lat":34.723083,"lng":135.37615,"zip":"6638125"},{"town":"小曽根町一丁目","koaza":"","lat":34.731474,"lng":135.378021,"zip":"6638122"},{"town":"小曽根町二丁目","koaza":"","lat":34.729702,"lng":135.377927,"zip":"6638122"},{"town":"小曽根町三丁目","koaza":"","lat":34.728452,"lng":135.378122,"zip":"6638122"},{"town":"小曽根町四丁目","koaza":"","lat":34.727317,"lng":135.378511,"zip":"6638122"},{"town":"小松東町一丁目","koaza":"","lat":34.725681,"lng":135.381128,"zip":"6638123"},{"town":"小松東町二丁目","koaza":"","lat":34.723677,"lng":135.381821,"zip":"6638123"},{"town":"里中町一丁目","koaza":"","lat":34.720708,"lng":135.374474,"zip":"6638183"},{"town":"小松西町二丁目","koaza":"","lat":34.720701,"lng":135.375969,"zip":"6638125"},{"town":"池開町","koaza":"","lat":34.717716,"lng":135.376224,"zip":"6638137"},{"town":"小松南町三丁目","koaza":"","lat":34.720573,"lng":135.377585,"zip":"6638124"},{"town":"武庫川町","koaza":"","lat":34.717051,"lng":135.380158,"zip":"6638131"},{"town":"小松南町二丁目","koaza":"","lat":34.72045,"lng":135.379124,"zip":"6638124"},{"town":"小松町二丁目","koaza":"","lat":34.722383,"lng":135.378242,"zip":"6638127"},{"town":"小松南町一丁目","koaza":"","lat":34.719953,"lng":135.381674,"zip":"6638124"},{"town":"小松東町三丁目","koaza":"","lat":34.722269,"lng":135.382077,"zip":"6638123"},{"town":"笠屋町","koaza":"","lat":34.713745,"lng":135.374819,"zip":"6638136"},{"town":"東鳴尾町一丁目","koaza":"","lat":34.713595,"lng":135.378882,"zip":"6638132"},{"town":"東鳴尾町二丁目","koaza":"","lat":34.710218,"lng":135.377689,"zip":"6638132"},{"town":"上田東町","koaza":"","lat":34.705663,"lng":135.376089,"zip":"6638133"},{"town":"西波止町","koaza":"","lat":34.723498,"lng":135.33331,"zip":"6620933"},{"town":"西宮浜二丁目","koaza":"","lat":34.71368,"lng":135.336409,"zip":"6620934"},{"town":"西宮浜四丁目","koaza":"","lat":34.713577,"lng":135.328786,"zip":"6620934"},{"town":"甲子園浜一丁目","koaza":"","lat":34.708958,"lng":135.34884,"zip":"6638167"},{"town":"甲子園浜二丁目","koaza":"","lat":34.709058,"lng":135.344653,"zip":"6638167"},{"town":"大森町","koaza":"","lat":34.749697,"lng":135.367484,"zip":"6638023"},{"town":"高木西町","koaza":"","lat":34.750097,"lng":135.359969,"zip":"6638032"},{"town":"高木東町","koaza":"","lat":34.750295,"lng":135.363215,"zip":"6638033"},{"town":"長田町","koaza":"","lat":34.74729,"lng":135.362335,"zip":"6638034"},{"town":"北口町","koaza":"","lat":34.749143,"lng":135.357848,"zip":"6638035"},{"town":"甲風園二丁目","koaza":"","lat":34.750788,"lng":135.356141,"zip":"6620832"},{"town":"甲風園一丁目","koaza":"","lat":34.747646,"lng":135.356012,"zip":"6620832"},{"town":"南昭和町","koaza":"","lat":34.74643,"lng":135.353655,"zip":"6620834"},{"town":"北昭和町","koaza":"","lat":34.748687,"lng":135.353492,"zip":"6620833"},{"town":"平木町","koaza":"","lat":34.746057,"lng":135.350215,"zip":"6620835"},{"town":"河原町","koaza":"","lat":34.748595,"lng":135.346224,"zip":"6620861"},{"town":"大畑町","koaza":"","lat":34.748661,"lng":135.349903,"zip":"6620836"},{"town":"青木町","koaza":"","lat":34.74595,"lng":135.346539,"zip":"6620862"},{"town":"広田町","koaza":"","lat":34.751059,"lng":135.347058,"zip":"6620837"},{"town":"中屋町","koaza":"","lat":34.750917,"lng":135.343742,"zip":"6620868"},{"town":"室川町","koaza":"","lat":34.745406,"lng":135.342888,"zip":"6620863"},{"town":"柳本町","koaza":"","lat":34.749061,"lng":135.342714,"zip":"6620866"},{"town":"越水町","koaza":"","lat":34.745488,"lng":135.340051,"zip":"6620864"},{"town":"神垣町","koaza":"","lat":34.748922,"lng":135.339537,"zip":"6620865"},{"town":"城山","koaza":"","lat":34.749387,"lng":135.33645,"zip":"6620023"},{"town":"桜谷町","koaza":"","lat":34.745884,"lng":135.337058,"zip":"6620032"},{"town":"南郷町","koaza":"","lat":34.746196,"lng":135.332139,"zip":"6620038"},{"town":"清水町","koaza":"","lat":34.744857,"lng":135.334825,"zip":"6620033"},{"town":"満池谷町","koaza":"","lat":34.748862,"lng":135.334384,"zip":"6620031"},{"town":"名次町","koaza":"","lat":34.74999,"lng":135.331786,"zip":"6620024"},{"town":"結善町","koaza":"","lat":34.747015,"lng":135.330225,"zip":"6620037"},{"town":"松生町","koaza":"","lat":34.74648,"lng":135.328028,"zip":"6620076"},{"town":"菊谷町","koaza":"","lat":34.749587,"lng":135.324419,"zip":"6620078"},{"town":"南越木岩町","koaza":"","lat":34.749165,"lng":135.327616,"zip":"6620075"},{"town":"木津山町","koaza":"","lat":34.747448,"lng":135.320147,"zip":"6620062"},{"town":"深谷町","koaza":"","lat":34.74702,"lng":135.317871,"zip":"6620067"},{"town":"老松町","koaza":"","lat":34.749935,"lng":135.316772,"zip":"6620085"},{"town":"久出ケ谷町","koaza":"","lat":34.746429,"lng":135.325014,"zip":"6620077"},{"town":"松ケ丘町","koaza":"","lat":34.748471,"lng":135.32143,"zip":"6620061"},{"town":"瓦林町","koaza":"","lat":34.745136,"lng":135.368665,"zip":"6638107"},{"town":"中島町","koaza":"","lat":34.740766,"lng":135.365991,"zip":"6638105"},{"town":"大屋町","koaza":"","lat":34.74497,"lng":135.365416,"zip":"6638106"},{"town":"甲子園口四丁目","koaza":"","lat":34.736265,"lng":135.370196,"zip":"6638113"},{"town":"天道町","koaza":"","lat":34.740692,"lng":135.369241,"zip":"6638104"},{"town":"甲子園口五丁目","koaza":"","lat":34.736618,"lng":135.367872,"zip":"6638113"},{"town":"甲子園口六丁目","koaza":"","lat":34.736803,"lng":135.365064,"zip":"6638113"},{"town":"津門飯田町","koaza":"","lat":34.737108,"lng":135.361495,"zip":"6638242"},{"town":"上甲子園五丁目","koaza":"","lat":34.734166,"lng":135.360413,"zip":"6638114"},{"town":"田代町","koaza":"","lat":34.744723,"lng":135.362689,"zip":"6638201"},{"town":"高畑町","koaza":"","lat":34.740738,"lng":135.362126,"zip":"6638202"},{"town":"深津町","koaza":"","lat":34.740668,"lng":135.357839,"zip":"6638203"},{"town":"高松町","koaza":"","lat":34.744483,"lng":135.35826,"zip":"6638204"},{"town":"両度町","koaza":"","lat":34.743977,"lng":135.353442,"zip":"6620841"},{"town":"神祇官町","koaza":"","lat":34.739888,"lng":135.353464,"zip":"6620843"},{"town":"西福町","koaza":"","lat":34.739795,"lng":135.348572,"zip":"6620844"},{"town":"中前田町","koaza":"","lat":34.742634,"lng":135.343197,"zip":"6620857"},{"town":"与古道町","koaza":"","lat":34.734966,"lng":135.342825,"zip":"6620917"},{"town":"津門大箇町","koaza":"","lat":34.735222,"lng":135.356574,"zip":"6638243"},{"town":"津門仁辺町","koaza":"","lat":34.734617,"lng":135.3515,"zip":"6638246"},{"town":"津門綾羽町","koaza":"","lat":34.733682,"lng":135.355531,"zip":"6638244"},{"town":"神明町","koaza":"","lat":34.741981,"lng":135.350344,"zip":"6620845"},{"town":"津門大塚町","koaza":"","lat":34.737486,"lng":135.354735,"zip":"6638241"},{"town":"池田町","koaza":"","lat":34.737584,"lng":135.345691,"zip":"6620911"},{"town":"津門稲荷町","koaza":"","lat":34.736227,"lng":135.351767,"zip":"6638247"},{"town":"松原町","koaza":"","lat":34.736188,"lng":135.346244,"zip":"6620912"},{"town":"中殿町","koaza":"","lat":34.742681,"lng":135.348474,"zip":"6620852"},{"town":"中須佐町","koaza":"","lat":34.742586,"lng":135.346138,"zip":"6620851"},{"town":"津田町","koaza":"","lat":34.740311,"lng":135.345713,"zip":"6620853"},{"town":"櫨塚町","koaza":"","lat":34.740327,"lng":135.343268,"zip":"6620854"},{"town":"芦原町","koaza":"","lat":34.741766,"lng":135.353465,"zip":"6620842"},{"town":"森下町","koaza":"","lat":34.743949,"lng":135.350337,"zip":"6620846"},{"town":"戸田町","koaza":"","lat":34.735384,"lng":135.340688,"zip":"6620916"},{"town":"六湛寺町","koaza":"","lat":34.737603,"lng":135.34189,"zip":"6620918"},{"town":"田中町","koaza":"","lat":34.736492,"lng":135.337229,"zip":"6620973"},{"town":"社家町","koaza":"","lat":34.735184,"lng":135.334656,"zip":"6620974"},{"town":"和上町","koaza":"","lat":34.737858,"lng":135.337799,"zip":"6620971"},{"town":"相生町","koaza":"","lat":34.743538,"lng":135.32744,"zip":"6620063"},{"town":"若松町","koaza":"","lat":34.743123,"lng":135.333127,"zip":"6620035"},{"town":"西田町","koaza":"","lat":34.743427,"lng":135.336879,"zip":"6620034"},{"town":"本町","koaza":"","lat":34.73391,"lng":135.339799,"zip":"6620914"},{"town":"今在家町","koaza":"","lat":34.7361,"lng":135.339509,"zip":"6620972"},{"town":"馬場町","koaza":"","lat":34.735144,"lng":135.337841,"zip":"6620915"},{"town":"産所町","koaza":"","lat":34.737578,"lng":135.334649,"zip":"6620978"},{"town":"平松町","koaza":"","lat":34.73961,"lng":135.336882,"zip":"6620044"},{"town":"安井町","koaza":"","lat":34.739717,"lng":135.331564,"zip":"6620045"},{"town":"常磐町","koaza":"","lat":34.740763,"lng":135.336984,"zip":"6620043"},{"town":"末広町","koaza":"","lat":34.742617,"lng":135.336922,"zip":"6620041"},{"town":"江上町","koaza":"","lat":34.740262,"lng":135.340353,"zip":"6620855"},{"town":"城ケ堀町","koaza":"","lat":34.742569,"lng":135.340415,"zip":"6620856"},{"town":"分銅町","koaza":"","lat":34.741813,"lng":135.336953,"zip":"6620042"},{"town":"寿町","koaza":"","lat":34.741914,"lng":135.331529,"zip":"6620047"},{"town":"千歳町","koaza":"","lat":34.740766,"lng":135.331484,"zip":"6620046"},{"town":"大井手町","koaza":"","lat":34.743904,"lng":135.330103,"zip":"6620036"},{"town":"羽衣町","koaza":"","lat":34.740541,"lng":135.327093,"zip":"6620051"},{"town":"宮西町","koaza":"","lat":34.735727,"lng":135.330865,"zip":"6620976"},{"town":"神楽町","koaza":"","lat":34.738332,"lng":135.330087,"zip":"6620977"},{"town":"松下町","koaza":"","lat":34.735791,"lng":135.327925,"zip":"6620962"},{"town":"市庭町","koaza":"","lat":34.734927,"lng":135.332197,"zip":"6620975"},{"town":"御茶家所町","koaza":"","lat":34.737827,"lng":135.326868,"zip":"6620961"},{"town":"大谷町","koaza":"","lat":34.739382,"lng":135.319509,"zip":"6620054"},{"town":"弓場町","koaza":"","lat":34.73462,"lng":135.322736,"zip":"6620964"},{"town":"霞町","koaza":"","lat":34.74036,"lng":135.324747,"zip":"6620052"},{"town":"雲井町","koaza":"","lat":34.743546,"lng":135.324769,"zip":"6620064"},{"town":"松園町","koaza":"","lat":34.739737,"lng":135.322464,"zip":"6620053"},{"town":"殿山町","koaza":"","lat":34.744017,"lng":135.322115,"zip":"6620065"},{"town":"高塚町","koaza":"","lat":34.743371,"lng":135.318576,"zip":"6620066"},{"town":"郷免町","koaza":"","lat":34.7371,"lng":135.322332,"zip":"6620965"},{"town":"屋敷町","koaza":"","lat":34.735262,"lng":135.325612,"zip":"6620963"},{"town":"花園町","koaza":"","lat":34.725714,"lng":135.369279,"zip":"6638187"},{"town":"上甲子園二丁目","koaza":"","lat":34.732182,"lng":135.367393,"zip":"6638114"},{"town":"甲子園五番町","koaza":"","lat":34.726845,"lng":135.366455,"zip":"6638175"},{"town":"甲子園六番町","koaza":"","lat":34.72437,"lng":135.365219,"zip":"6638176"},{"town":"上甲子園四丁目","koaza":"","lat":34.73395,"lng":135.364022,"zip":"6638114"},{"town":"甲子園高潮町","koaza":"","lat":34.724141,"lng":135.360471,"zip":"6638166"},{"town":"甲子園浦風町","koaza":"","lat":34.726025,"lng":135.361066,"zip":"6638165"},{"town":"甲子園四番町","koaza":"","lat":34.728075,"lng":135.369077,"zip":"6638174"},{"town":"甲子園三保町","koaza":"","lat":34.728523,"lng":135.365256,"zip":"6638163"},{"town":"上甲子園三丁目","koaza":"","lat":34.732245,"lng":135.365486,"zip":"6638114"},{"town":"甲子園砂田町","koaza":"","lat":34.729084,"lng":135.364119,"zip":"6638162"},{"town":"甲子園六石町","koaza":"","lat":34.727521,"lng":135.362972,"zip":"6638164"},{"town":"甲子園春風町","koaza":"","lat":34.730806,"lng":135.362402,"zip":"6638161"},{"town":"今津野田町","koaza":"","lat":34.73176,"lng":135.359518,"zip":"6638212"},{"town":"甲子園浜田町","koaza":"","lat":34.728701,"lng":135.360834,"zip":"6638167"},{"town":"今津上野町","koaza":"","lat":34.729589,"lng":135.358547,"zip":"6638213"},{"town":"津門西口町","koaza":"","lat":34.734483,"lng":135.348288,"zip":"6638231"},{"town":"今津港町","koaza":"","lat":34.723351,"lng":135.349653,"zip":"6638226"},{"town":"今津山中町","koaza":"","lat":34.731148,"lng":135.35645,"zip":"6638211"},{"town":"津門呉羽町","koaza":"","lat":34.731995,"lng":135.354251,"zip":"6638245"},{"town":"今津曙町","koaza":"","lat":34.72913,"lng":135.355262,"zip":"6638214"},{"town":"石在町","koaza":"","lat":34.730723,"lng":135.341618,"zip":"6620928"},{"town":"今津大東町","koaza":"","lat":34.724975,"lng":135.354979,"zip":"6638221"},{"town":"今津社前町","koaza":"","lat":34.725441,"lng":135.352933,"zip":"6638229"},{"town":"東浜町","koaza":"","lat":34.724206,"lng":135.344175,"zip":"6620924"},{"town":"東町一丁目","koaza":"","lat":34.727086,"lng":135.343483,"zip":"6620922"},{"town":"今津水波町","koaza":"","lat":34.728505,"lng":135.353476,"zip":"6638215"},{"town":"津門宝津町","koaza":"","lat":34.732798,"lng":135.350871,"zip":"6638232"},{"town":"津門川町","koaza":"","lat":34.732283,"lng":135.348128,"zip":"6638233"},{"town":"今津二葉町","koaza":"","lat":34.727986,"lng":135.351282,"zip":"6638228"},{"town":"今津出在家町","koaza":"","lat":34.725796,"lng":135.349877,"zip":"6638227"},{"town":"津門住江町","koaza":"","lat":34.728601,"lng":135.348287,"zip":"6638234"},{"town":"染殿町","koaza":"","lat":34.73388,"lng":135.345209,"zip":"6620913"},{"town":"浜松原町","koaza":"","lat":34.727347,"lng":135.346091,"zip":"6620923"},{"town":"用海町","koaza":"","lat":34.731481,"lng":135.344195,"zip":"6620921"},{"town":"東町二丁目","koaza":"","lat":34.726163,"lng":135.340512,"zip":"6620922"},{"town":"鞍掛町","koaza":"","lat":34.72971,"lng":135.338584,"zip":"6620926"},{"town":"荒戎町","koaza":"","lat":34.732438,"lng":135.332415,"zip":"6620946"},{"town":"川東町","koaza":"","lat":34.732571,"lng":135.330115,"zip":"6620945"},{"town":"川添町","koaza":"","lat":34.729107,"lng":135.330366,"zip":"6620944"},{"town":"中浜町","koaza":"","lat":34.731759,"lng":135.325345,"zip":"6620952"},{"town":"久保町","koaza":"","lat":34.729398,"lng":135.339618,"zip":"6620927"},{"town":"泉町","koaza":"","lat":34.725267,"lng":135.332205,"zip":"6620932"},{"town":"大浜町","koaza":"","lat":34.725843,"lng":135.326609,"zip":"6620957"},{"town":"浜脇町","koaza":"","lat":34.732479,"lng":135.336993,"zip":"6620941"},{"town":"浜町","koaza":"","lat":34.727981,"lng":135.336934,"zip":"6620942"},{"town":"前浜町","koaza":"","lat":34.727357,"lng":135.332807,"zip":"6620931"},{"town":"宮前町","koaza":"","lat":34.732407,"lng":135.334417,"zip":"6620947"},{"town":"建石町","koaza":"","lat":34.729401,"lng":135.333812,"zip":"6620943"},{"town":"堀切町","koaza":"","lat":34.730662,"lng":135.325919,"zip":"6620953"},{"town":"下葭原町","koaza":"","lat":34.727347,"lng":135.326756,"zip":"6620956"},{"town":"中葭原町","koaza":"","lat":34.728307,"lng":135.326089,"zip":"6620955"},{"town":"上葭原町","koaza":"","lat":34.728966,"lng":135.326518,"zip":"6620954"},{"town":"川西町","koaza":"","lat":34.73205,"lng":135.328568,"zip":"6620951"},{"town":"鳴尾町三丁目","koaza":"","lat":34.718288,"lng":135.369794,"zip":"6638184"},{"town":"鳴尾町四丁目","koaza":"","lat":34.716078,"lng":135.36847,"zip":"6638184"},{"town":"上鳴尾町","koaza":"","lat":34.722385,"lng":135.368463,"zip":"6638186"},{"town":"甲子園七番町","koaza":"","lat":34.721173,"lng":135.365355,"zip":"6638177"},{"town":"鳴尾町五丁目","koaza":"","lat":34.718072,"lng":135.367204,"zip":"6638184"},{"town":"古川町","koaza":"","lat":34.713192,"lng":135.368006,"zip":"6638185"},{"town":"甲子園九番町","koaza":"","lat":34.71533,"lng":135.362348,"zip":"6638179"},{"town":"甲子園八番町","koaza":"","lat":34.71808,"lng":135.363795,"zip":"6638178"},{"town":"浜甲子園一丁目","koaza":"","lat":34.71327,"lng":135.356993,"zip":"6638154"},{"town":"甲子園洲鳥町","koaza":"","lat":34.723305,"lng":135.358248,"zip":"6638151"},{"town":"南甲子園一丁目","koaza":"","lat":34.717012,"lng":135.357839,"zip":"6638153"},{"town":"浜甲子園二丁目","koaza":"","lat":34.714372,"lng":135.354408,"zip":"6638154"},{"town":"甲子園町","koaza":"","lat":34.720432,"lng":135.359446,"zip":"6638152"},{"town":"朝凪町","koaza":"","lat":34.722522,"lng":135.341319,"zip":"6620925"},{"town":"南甲子園二丁目","koaza":"","lat":34.718384,"lng":135.355141,"zip":"6638153"},{"town":"南甲子園三丁目","koaza":"","lat":34.719389,"lng":135.352665,"zip":"6638153"},{"town":"甲子園網引町","koaza":"","lat":34.721345,"lng":135.354709,"zip":"6638156"},{"town":"浜甲子園三丁目","koaza":"","lat":34.715898,"lng":135.352454,"zip":"6638154"},{"town":"今津久寿川町","koaza":"","lat":34.723126,"lng":135.354928,"zip":"6638222"},{"town":"浜甲子園四丁目","koaza":"","lat":34.717541,"lng":135.350531,"zip":"6638154"},{"town":"今津巽町","koaza":"","lat":34.722761,"lng":135.352041,"zip":"6638223"},{"town":"今津西浜町","koaza":"","lat":34.72241,"lng":135.34689,"zip":"6638225"},{"town":"今津真砂町","koaza":"","lat":34.719356,"lng":135.347984,"zip":"6638224"},{"town":"甲子園浜三丁目","koaza":"","lat":34.717361,"lng":135.346579,"zip":"6638167"},{"town":"西宮浜一丁目","koaza":"","lat":34.717698,"lng":135.337483,"zip":"6620934"},{"town":"西宮浜三丁目","koaza":"","lat":34.719103,"lng":135.331064,"zip":"6620934"},{"town":"高須町二丁目","koaza":"","lat":34.706789,"lng":135.367728,"zip":"6638141"},{"town":"枝川町","koaza":"","lat":34.709555,"lng":135.362293,"zip":"6638143"},{"town":"鳴尾浜二丁目","koaza":"","lat":34.692814,"lng":135.365088,"zip":"6638142"},{"town":"鳴尾浜三丁目","koaza":"","lat":34.695519,"lng":135.358765,"zip":"6638142"},{"town":"名塩茶園町","koaza":"","lat":34.834828,"lng":135.283569,"zip":"6691144"},{"town":"名塩山荘","koaza":"","lat":34.827241,"lng":135.290738,"zip":"6691142"},{"town":"名塩三丁目","koaza":"","lat":34.831619,"lng":135.289978,"zip":"6691147"},{"town":"名塩二丁目","koaza":"","lat":34.830218,"lng":135.294146,"zip":"6691147"},{"town":"名塩一丁目","koaza":"","lat":34.830046,"lng":135.30251,"zip":"6691147"},{"town":"名塩ガーデン","koaza":"","lat":34.82791,"lng":135.287256,"zip":"6691143"},{"town":"名塩東久保","koaza":"","lat":34.833874,"lng":135.276097,"zip":"6691148"},{"town":"名塩平成台","koaza":"","lat":34.83042,"lng":135.282713,"zip":"6691145"},{"town":"生瀬東町","koaza":"","lat":34.815688,"lng":135.335677,"zip":"6691103"},{"town":"宝生ケ丘二丁目","koaza":"","lat":34.813967,"lng":135.328109,"zip":"6691112"},{"town":"宝生ケ丘一丁目","koaza":"","lat":34.813823,"lng":135.331594,"zip":"6691112"},{"town":"生瀬町二丁目","koaza":"","lat":34.818779,"lng":135.327374,"zip":"6691102"},{"town":"生瀬高台","koaza":"","lat":34.814744,"lng":135.32403,"zip":"6691111"},{"town":"生瀬武庫川町","koaza":"","lat":34.817319,"lng":135.331442,"zip":"6691104"},{"town":"生瀬町一丁目","koaza":"","lat":34.820172,"lng":135.327347,"zip":"6691102"},{"town":"花の峯","koaza":"","lat":34.823505,"lng":135.328104,"zip":"6691121"},{"town":"青葉台二丁目","koaza":"","lat":34.823107,"lng":135.321576,"zip":"6691122"},{"town":"青葉台一丁目","koaza":"","lat":34.820164,"lng":135.320008,"zip":"6691122"},{"town":"清瀬台","koaza":"","lat":34.826849,"lng":135.319893,"zip":"6691131"},{"town":"名塩木之元","koaza":"","lat":34.824722,"lng":135.314186,"zip":"6691136"},{"town":"門前町","koaza":"","lat":34.757391,"lng":135.364599,"zip":"6638013"},{"town":"林田町","koaza":"","lat":34.757375,"lng":135.361877,"zip":"6638014"},{"town":"野間町","koaza":"","lat":34.756519,"lng":135.359867,"zip":"6638015"},{"town":"門戸荘","koaza":"","lat":34.756125,"lng":135.356364,"zip":"6620825"},{"town":"門戸岡田町","koaza":"","lat":34.757749,"lng":135.353648,"zip":"6620826"},{"town":"一ケ谷町","koaza":"","lat":34.757861,"lng":135.340783,"zip":"6620873"},{"town":"五月ケ丘","koaza":"","lat":34.75844,"lng":135.337922,"zip":"6620875"},{"town":"六軒町","koaza":"","lat":34.758291,"lng":135.335809,"zip":"6620874"},{"town":"甲陽園若江町","koaza":"","lat":34.759025,"lng":135.330896,"zip":"6620016"},{"town":"西平町","koaza":"","lat":34.756944,"lng":135.324561,"zip":"6620093"},{"town":"獅子ケ口町","koaza":"","lat":34.757789,"lng":135.327339,"zip":"6620026"},{"town":"甑岩町","koaza":"","lat":34.759237,"lng":135.323443,"zip":"6620092"},{"town":"美作町","koaza":"","lat":34.756025,"lng":135.320879,"zip":"6620095"},{"town":"大島町","koaza":"","lat":34.76129,"lng":135.366908,"zip":"6638017"},{"town":"若山町","koaza":"","lat":34.759996,"lng":135.365086,"zip":"6638016"},{"town":"段上町八丁目","koaza":"","lat":34.766763,"lng":135.367468,"zip":"6638006"},{"town":"上大市四丁目","koaza":"","lat":34.763275,"lng":135.366175,"zip":"6638003"},{"town":"下大市東町","koaza":"","lat":34.758913,"lng":135.360929,"zip":"6638004"},{"town":"上大市三丁目","koaza":"","lat":34.765006,"lng":135.364252,"zip":"6638003"},{"town":"段上町一丁目","koaza":"","lat":34.767487,"lng":135.364452,"zip":"6638006"},{"town":"下大市西町","koaza":"","lat":34.760273,"lng":135.359867,"zip":"6638005"},{"town":"上大市二丁目","koaza":"","lat":34.762763,"lng":135.361282,"zip":"6638003"},{"town":"上大市一丁目","koaza":"","lat":34.76517,"lng":135.36113,"zip":"6638003"},{"town":"甲東園一丁目","koaza":"","lat":34.767599,"lng":135.360949,"zip":"6620812"},{"town":"門戸東町","koaza":"","lat":34.760297,"lng":135.356763,"zip":"6620824"},{"town":"神呪町","koaza":"","lat":34.762479,"lng":135.357195,"zip":"6620823"},{"town":"松籟荘","koaza":"","lat":34.765557,"lng":135.358209,"zip":"6620822"},{"town":"上甲東園四丁目","koaza":"","lat":34.764261,"lng":135.353805,"zip":"6620813"},{"town":"岡田山","koaza":"","lat":34.758453,"lng":135.350936,"zip":"6620827"},{"town":"門戸西町","koaza":"","lat":34.762544,"lng":135.352365,"zip":"6620828"},{"town":"上ケ原四番町","koaza":"","lat":34.761343,"lng":135.348893,"zip":"6620894"},{"town":"上甲東園五丁目","koaza":"","lat":34.766007,"lng":135.35087,"zip":"6620813"},{"town":"上ケ原五番町","koaza":"","lat":34.761463,"lng":135.347682,"zip":"6620895"},{"town":"上ケ原二番町","koaza":"","lat":34.765673,"lng":135.349076,"zip":"6620892"},{"town":"上ケ原七番町","koaza":"","lat":34.760415,"lng":135.345702,"zip":"6620881"},{"town":"上ケ原九番町","koaza":"","lat":34.760993,"lng":135.341841,"zip":"6620883"},{"town":"上ケ原八番町","koaza":"","lat":34.761116,"lng":135.343919,"zip":"6620882"},{"town":"上ケ原六番町","koaza":"","lat":34.764837,"lng":135.343832,"zip":"6620896"},{"town":"上ケ原三番町","koaza":"","lat":34.765206,"lng":135.345982,"zip":"6620893"},{"town":"上ケ原山手町","koaza":"","lat":34.766073,"lng":135.341698,"zip":"6620885"},{"town":"上ケ原十番町","koaza":"","lat":34.761773,"lng":135.339342,"zip":"6620884"},{"town":"上ケ原山田町","koaza":"","lat":34.765829,"lng":135.339718,"zip":"6620886"},{"town":"新甲陽町","koaza":"","lat":34.762257,"lng":135.336701,"zip":"6620013"},{"town":"甲陽園東山町","koaza":"","lat":34.766724,"lng":135.336434,"zip":"6620012"},{"town":"神園町","koaza":"","lat":34.757773,"lng":135.330194,"zip":"6620027"},{"town":"甲陽園日之出町","koaza":"","lat":34.761874,"lng":135.334209,"zip":"6620014"},{"town":"甲陽園本庄町","koaza":"","lat":34.760527,"lng":135.332703,"zip":"6620015"},{"town":"甲陽園山王町","koaza":"","lat":34.765473,"lng":135.333568,"zip":"6620018"},{"town":"甲陽園西山町","koaza":"","lat":34.76291,"lng":135.32732,"zip":"6620017"},{"town":"毘沙門町","koaza":"","lat":34.759362,"lng":135.320756,"zip":"6620094"},{"town":"角石町","koaza":"","lat":34.758886,"lng":135.318267,"zip":"6620096"},{"town":"苦楽園二番町","koaza":"","lat":34.7597,"lng":135.313931,"zip":"6620082"},{"town":"柏堂町","koaza":"","lat":34.763836,"lng":135.315095,"zip":"6620097"},{"town":"剣谷町","koaza":"","lat":34.767219,"lng":135.312399,"zip":"6620099"},{"town":"段上町七丁目","koaza":"","lat":34.769507,"lng":135.369115,"zip":"6638006"},{"town":"段上町二丁目","koaza":"","lat":34.769537,"lng":135.365205,"zip":"6638006"},{"town":"段上町六丁目","koaza":"","lat":34.772668,"lng":135.367555,"zip":"6638006"},{"town":"段上町三丁目","koaza":"","lat":34.771757,"lng":135.365155,"zip":"6638006"},{"town":"段上町五丁目","koaza":"","lat":34.774094,"lng":135.364259,"zip":"6638006"},{"town":"仁川町一丁目","koaza":"","lat":34.775638,"lng":135.365807,"zip":"6620811"},{"town":"甲東園三丁目","koaza":"","lat":34.768328,"lng":135.35944,"zip":"6620812"},{"town":"甲東園二丁目","koaza":"","lat":34.769816,"lng":135.361322,"zip":"6620812"},{"town":"段上町四丁目","koaza":"","lat":34.772951,"lng":135.360972,"zip":"6638006"},{"town":"上甲東園一丁目","koaza":"","lat":34.768298,"lng":135.357545,"zip":"6620813"},{"town":"上甲東園二丁目","koaza":"","lat":34.767666,"lng":135.35376,"zip":"6620813"},{"town":"仁川町二丁目","koaza":"","lat":34.774272,"lng":135.359412,"zip":"6620811"},{"town":"仁川町三丁目","koaza":"","lat":34.772569,"lng":135.356407,"zip":"6620811"},{"town":"上甲東園三丁目","koaza":"","lat":34.768505,"lng":135.350601,"zip":"6620813"},{"town":"仁川町四丁目","koaza":"","lat":34.771146,"lng":135.353175,"zip":"6620811"},{"town":"仁川五ケ山町","koaza":"","lat":34.771384,"lng":135.349185,"zip":"6620814"},{"town":"仁川町五丁目","koaza":"","lat":34.77309,"lng":135.350849,"zip":"6620811"},{"town":"上ケ原一番町","koaza":"","lat":34.76855,"lng":135.346629,"zip":"6620891"},{"town":"仁川百合野町","koaza":"","lat":34.771325,"lng":135.343339,"zip":"6620815"},{"town":"甲陽園目神山町","koaza":"","lat":34.770246,"lng":135.325987,"zip":"6620011"},{"town":"北山町","koaza":"","lat":34.767261,"lng":135.3204,"zip":"6620091"},{"town":"甲山町","koaza":"","lat":34.774602,"lng":135.3319,"zip":"6620001"},{"town":"鷲林寺二丁目","koaza":"","lat":34.776186,"lng":135.317905,"zip":"6620004"},{"town":"湯元町","koaza":"","lat":34.778255,"lng":135.313976,"zip":"6620005"},{"town":"仁川町六丁目","koaza":"","lat":34.780177,"lng":135.332513,"zip":"6620811"},{"town":"苦楽園四番町","koaza":"","lat":34.758607,"lng":135.308399,"zip":"6620088"},{"town":"柏堂西町","koaza":"","lat":34.76451,"lng":135.310407,"zip":"6620098"},{"town":"鷲林寺南町","koaza":"","lat":34.769838,"lng":135.313206,"zip":"6620002"},{"town":"苦楽園三番町","koaza":"","lat":34.763422,"lng":135.307715,"zip":"6620081"},{"town":"鷲林寺一丁目","koaza":"","lat":34.77646,"lng":135.311588,"zip":"6620004"},{"town":"鷲林寺町","koaza":"","lat":34.774396,"lng":135.310047,"zip":"6620003"},{"town":"鷲林寺","koaza":"","lat":34.772895,"lng":135.302032,"zip":"6620004"},{"town":"越水字社家郷山","koaza":"","lat":34.784426,"lng":135.295636,"zip":"6620000"},{"town":"塩瀬町生瀬","koaza":"","lat":34.81432,"lng":135.308406,"zip":"6691101"},{"town":"名塩南台四丁目","koaza":"","lat":34.82347,"lng":135.302858,"zip":"6691132"},{"town":"名塩南台一丁目","koaza":"","lat":34.825428,"lng":135.300848,"zip":"6691132"},{"town":"名塩南台三丁目","koaza":"","lat":34.822895,"lng":135.301094,"zip":"6691132"},{"town":"名塩新町","koaza":"","lat":34.826975,"lng":135.311446,"zip":"6691134"},{"town":"東山台一丁目","koaza":"","lat":34.829058,"lng":135.310898,"zip":"6691133"},{"town":"東山台二丁目","koaza":"","lat":34.830342,"lng":135.31429,"zip":"6691133"},{"town":"東山台三丁目","koaza":"","lat":34.833039,"lng":135.313225,"zip":"6691133"},{"town":"東山台四丁目","koaza":"","lat":34.833126,"lng":135.308878,"zip":"6691133"},{"town":"名塩南台二丁目","koaza":"","lat":34.826034,"lng":135.297208,"zip":"6691132"},{"town":"東山台五丁目","koaza":"","lat":34.830808,"lng":135.307529,"zip":"6691133"},{"town":"山口町船坂","koaza":"","lat":34.800531,"lng":135.285864,"zip":"6511423"},{"town":"山口町金仙寺","koaza":"","lat":34.815803,"lng":135.261388,"zip":"6511422"},{"town":"すみれ台三丁目","koaza":"","lat":34.818305,"lng":135.235271,"zip":"6511432"},{"town":"すみれ台二丁目","koaza":"","lat":34.819161,"lng":135.238525,"zip":"6511432"},{"town":"すみれ台一丁目","koaza":"","lat":34.819164,"lng":135.244084,"zip":"6511432"},{"town":"山口町上山口一丁目","koaza":"","lat":34.82422,"lng":135.243097,"zip":"6511421"},{"town":"山口町上山口二丁目","koaza":"","lat":34.826673,"lng":135.244523,"zip":"6511421"},{"town":"山口町下山口四丁目","koaza":"","lat":34.829327,"lng":135.239472,"zip":"6511412"},{"town":"山口町下山口三丁目","koaza":"","lat":34.832889,"lng":135.238789,"zip":"6511412"},{"town":"山口町阪神流通センター一丁目","koaza":"","lat":34.825655,"lng":135.234653,"zip":"6511431"},{"town":"山口町阪神流通センター二丁目","koaza":"","lat":34.824444,"lng":135.230828,"zip":"6511431"},{"town":"山口町阪神流通センター三丁目","koaza":"","lat":34.830502,"lng":135.233477,"zip":"6511431"},{"town":"名塩美山","koaza":"","lat":34.846545,"lng":135.270286,"zip":"6691162"},{"town":"国見台三丁目","koaza":"","lat":34.839684,"lng":135.305886,"zip":"6691135"},{"town":"名塩さくら台三丁目","koaza":"","lat":34.839549,"lng":135.277866,"zip":"6691146"},{"town":"国見台二丁目","koaza":"","lat":34.839009,"lng":135.310839,"zip":"6691135"},{"town":"山口町名来二丁目","koaza":"","lat":34.840412,"lng":135.236342,"zip":"6511411"},{"town":"山口町名来一丁目","koaza":"","lat":34.844325,"lng":135.236009,"zip":"6511411"},{"town":"山口町中野一丁目","koaza":"","lat":34.810972,"lng":135.250406,"zip":"6511433"},{"town":"山口町上山口","koaza":"","lat":34.815953,"lng":135.240184,"zip":"6511421"},{"town":"山口町中野三丁目","koaza":"","lat":34.814706,"lng":135.24994,"zip":"6511433"},{"town":"山口町中野二丁目","koaza":"","lat":34.814423,"lng":135.248432,"zip":"6511433"},{"town":"鷲林寺","koaza":"剣谷","lat":34.779402,"lng":135.311851,"zip":"6620004"}]