[{"town":"上比延町","koaza":"","lat":35.014006,"lng":135.021937,"zip":"6770039"},{"town":"堀町","koaza":"","lat":34.98036,"lng":134.987723,"zip":"6770042"},{"town":"高嶋町","koaza":"","lat":34.980522,"lng":134.996054,"zip":"6770041"},{"town":"鹿野町","koaza":"","lat":34.983808,"lng":135.036245,"zip":"6770033"},{"town":"比延町","koaza":"","lat":34.995455,"lng":135.006128,"zip":"6770037"},{"town":"高松町","koaza":"","lat":34.96221,"lng":134.987249,"zip":"6770055"},{"town":"野村町","koaza":"","lat":34.973146,"lng":134.978081,"zip":"6770054"},{"town":"中畑町","koaza":"","lat":35.018465,"lng":135.044464,"zip":"6770032"},{"town":"黒田庄町福地","koaza":"","lat":35.01378,"lng":135.001434,"zip":"6790314"},{"town":"黒田庄町岡","koaza":"","lat":35.028544,"lng":135.000655,"zip":"6790313"},{"town":"黒田庄町前坂","koaza":"","lat":35.040448,"lng":134.996208,"zip":"6790303"},{"town":"黒田庄町黒田","koaza":"","lat":35.052271,"lng":135.009445,"zip":"6790302"},{"town":"黒田庄町田高","koaza":"","lat":35.062911,"lng":134.992474,"zip":"6790321"},{"town":"黒田庄町船町","koaza":"","lat":35.065585,"lng":135.0037,"zip":"6790304"},{"town":"大垣内","koaza":"","lat":35.003661,"lng":134.995087,"zip":"6770038"},{"town":"合山町","koaza":"","lat":34.988126,"lng":134.929086,"zip":"6770061"},{"town":"出会町","koaza":"","lat":34.995985,"lng":134.944627,"zip":"6770062"},{"town":"市原町","koaza":"","lat":35.011099,"lng":134.947593,"zip":"6770004"},{"town":"西田町","koaza":"","lat":35.008717,"lng":134.955918,"zip":"6770003"},{"town":"郷瀬町","koaza":"","lat":34.99958,"lng":134.969375,"zip":"6770014"},{"town":"日野町","koaza":"","lat":35.007587,"lng":134.968602,"zip":"6770013"},{"town":"坂本","koaza":"","lat":35.004817,"lng":134.980632,"zip":"6770026"},{"town":"寺内","koaza":"","lat":35.005017,"lng":134.990443,"zip":"6770022"},{"town":"塚口町","koaza":"","lat":34.985484,"lng":135.015667,"zip":"6770034"},{"town":"野村町茜が丘","koaza":"","lat":34.972012,"lng":134.955653,"zip":"6770057"},{"town":"板波町","koaza":"","lat":34.961508,"lng":134.96629,"zip":"6770056"},{"town":"和布町","koaza":"","lat":34.977634,"lng":134.975459,"zip":"6770053"},{"town":"和田町","koaza":"","lat":34.981416,"lng":134.964218,"zip":"6770052"},{"town":"平野町","koaza":"","lat":34.966213,"lng":134.952885,"zip":"6770063"},{"town":"八坂町","koaza":"","lat":34.965785,"lng":134.941339,"zip":"6770064"},{"town":"上王子町","koaza":"","lat":34.969379,"lng":134.926341,"zip":"6770069"},{"town":"岡崎町","koaza":"","lat":34.963807,"lng":134.926164,"zip":"6770065"},{"town":"落方町","koaza":"","lat":34.97637,"lng":134.918061,"zip":"6770068"},{"town":"水尾町","koaza":"","lat":34.965635,"lng":134.909704,"zip":"6770066"},{"town":"西嶋","koaza":"","lat":35.001068,"lng":134.989166,"zip":"6770023"},{"town":"上戸田","koaza":"","lat":34.988724,"lng":134.988145,"zip":"6770035"},{"town":"下戸田","koaza":"","lat":34.984817,"lng":134.982911,"zip":"6770043"},{"town":"津万","koaza":"","lat":34.991907,"lng":134.989976,"zip":"6770036"},{"town":"嶋","koaza":"","lat":34.996897,"lng":134.990733,"zip":"6770024"},{"town":"上野","koaza":"","lat":34.99049,"lng":134.979755,"zip":"6770044"},{"town":"大野","koaza":"","lat":34.99731,"lng":134.980516,"zip":"6770025"},{"town":"西脇","koaza":"","lat":34.987933,"lng":134.971728,"zip":"6770015"},{"town":"高田井町","koaza":"","lat":34.988591,"lng":134.960276,"zip":"6770016"},{"town":"谷町","koaza":"","lat":34.985306,"lng":134.950818,"zip":"6770051"},{"town":"小坂町","koaza":"","lat":34.997273,"lng":134.957662,"zip":"6770017"},{"town":"明楽寺町","koaza":"","lat":34.975481,"lng":134.902543,"zip":"6770067"},{"town":"黒田庄町小苗","koaza":"","lat":35.064635,"lng":135.019253,"zip":"6790301"},{"town":"黒田庄町門柳","koaza":"","lat":35.038735,"lng":135.030223,"zip":"6790312"},{"town":"住吉町","koaza":"","lat":35.036857,"lng":135.068827,"zip":"6770031"},{"town":"黒田庄町大門","koaza":"","lat":35.024029,"lng":134.988987,"zip":"6790316"},{"town":"黒田庄町喜多","koaza":"","lat":35.030512,"lng":134.989004,"zip":"6790311"},{"town":"黒田庄町西澤","koaza":"","lat":35.043161,"lng":134.979357,"zip":"6790323"},{"town":"黒田庄町石原","koaza":"","lat":35.059171,"lng":134.979336,"zip":"6790322"},{"town":"富吉南町","koaza":"","lat":35.012095,"lng":134.968463,"zip":"6770012"},{"town":"富田町","koaza":"","lat":35.00684,"lng":134.960454,"zip":"6770018"},{"town":"蒲江","koaza":"","lat":35.013255,"lng":134.985436,"zip":"6770021"},{"town":"黒田庄町津万井","koaza":"","lat":35.019232,"lng":134.984362,"zip":"6790315"},{"town":"富吉上町","koaza":"","lat":35.022194,"lng":134.969124,"zip":"6770011"},{"town":"前島町","koaza":"","lat":35.022308,"lng":134.960707,"zip":"6770002"},{"town":"羽安町","koaza":"","lat":35.034598,"lng":134.951227,"zip":"6770006"},{"town":"野中町","koaza":"","lat":35.025979,"lng":134.950461,"zip":"6770005"},{"town":"黒田庄町大伏","koaza":"","lat":35.030747,"lng":134.978614,"zip":"6790324"},{"town":"大木町","koaza":"","lat":35.024873,"lng":134.958641,"zip":"6770001"},{"town":"野村町","koaza":"横山","lat":34.976661,"lng":134.965597,"zip":"6770054"},{"town":"野村町","koaza":"大日下","lat":34.970085,"lng":134.966111,"zip":"6770054"},{"town":"板波町","koaza":"札之辻","lat":34.965004,"lng":134.969024,"zip":"6770056"},{"town":"野村町","koaza":"長井","lat":34.969682,"lng":134.970956,"zip":"6770054"},{"town":"上野","koaza":"芝添","lat":34.986299,"lng":134.978043,"zip":"6770044"},{"town":"上野","koaza":"西谷","lat":34.986607,"lng":134.978882,"zip":"6770044"}]