[{"town":"但東町佐田","koaza":"","lat":35.426446,"lng":135.003268,"zip":"6680364"},{"town":"但東町久畑","koaza":"","lat":35.414944,"lng":135.018683,"zip":"6680373"},{"town":"但東町東中","koaza":"","lat":35.405558,"lng":135.002053,"zip":"6680375"},{"town":"但東町小坂","koaza":"","lat":35.398141,"lng":134.99486,"zip":"6680376"},{"town":"出石町上村","koaza":"","lat":35.428507,"lng":134.856303,"zip":"6680255"},{"town":"出石町奥山","koaza":"","lat":35.420021,"lng":134.895708,"zip":"6680251"},{"town":"但東町大河内","koaza":"","lat":35.416283,"lng":135.039041,"zip":"6680372"},{"town":"但東町薬王寺","koaza":"","lat":35.433927,"lng":135.033632,"zip":"6680371"},{"town":"但東町中山","koaza":"","lat":35.499187,"lng":134.998549,"zip":"6680345"},{"town":"但東町畑","koaza":"","lat":35.435294,"lng":134.923761,"zip":"6680303"},{"town":"但東町西谷","koaza":"","lat":35.422121,"lng":134.941458,"zip":"6680317"},{"town":"但東町天谷","koaza":"","lat":35.419852,"lng":134.966251,"zip":"6680316"},{"town":"但東町佐々木","koaza":"","lat":35.427609,"lng":134.982446,"zip":"6680325"},{"town":"但東町栗尾","koaza":"","lat":35.444292,"lng":135.009121,"zip":"6680363"},{"town":"但東町平田","koaza":"","lat":35.449408,"lng":134.983517,"zip":"6680362"},{"town":"但東町坂津","koaza":"","lat":35.466481,"lng":135.00294,"zip":"6680354"},{"town":"但東町畑山","koaza":"","lat":35.485069,"lng":134.994465,"zip":"6680351"},{"town":"出石町口小野","koaza":"","lat":35.503157,"lng":134.889055,"zip":"6680202"},{"town":"出石町柳","koaza":"","lat":35.462505,"lng":134.871315,"zip":"6680234"},{"town":"出石町日野辺","koaza":"","lat":35.452037,"lng":134.886252,"zip":"6680246"},{"town":"出石町袴狭","koaza":"","lat":35.48717,"lng":134.889086,"zip":"6680203"},{"town":"出石町宮内","koaza":"","lat":35.480796,"lng":134.872616,"zip":"6680204"},{"town":"出石町町分","koaza":"","lat":35.46968,"lng":134.873932,"zip":"6680221"},{"town":"出石町水上","koaza":"","lat":35.474534,"lng":134.867293,"zip":"6680274"},{"town":"出石町上野","koaza":"","lat":35.437917,"lng":134.878679,"zip":"6680244"},{"town":"出石町小人","koaza":"","lat":35.456037,"lng":134.873493,"zip":"6680256"},{"town":"出石町川原","koaza":"","lat":35.465727,"lng":134.870994,"zip":"6680231"},{"town":"出石町内町","koaza":"","lat":35.460865,"lng":134.874334,"zip":"6680214"},{"town":"出石町田結庄","koaza":"","lat":35.462847,"lng":134.872225,"zip":"6680233"},{"town":"日高町小河江","koaza":"","lat":35.503858,"lng":134.741903,"zip":"6695339"},{"town":"日高町八代","koaza":"","lat":35.492022,"lng":134.745126,"zip":"6695339"},{"town":"日高町祢布","koaza":"","lat":35.470242,"lng":134.767277,"zip":"6695305"},{"town":"日高町夏栗","koaza":"","lat":35.472033,"lng":134.747399,"zip":"6695344"},{"town":"日高町道場","koaza":"","lat":35.45725,"lng":134.745511,"zip":"6695343"},{"town":"日高町佐田","koaza":"","lat":35.449248,"lng":134.740058,"zip":"6695351"},{"town":"日高町知見","koaza":"","lat":35.433724,"lng":134.737523,"zip":"6695352"},{"town":"日高町稲葉","koaza":"","lat":35.515177,"lng":134.635684,"zip":"6695375"},{"town":"但東町虫生","koaza":"","lat":35.514419,"lng":135.002385,"zip":"6680344"},{"town":"但東町奥藤","koaza":"","lat":35.509025,"lng":135.034654,"zip":"6680343"},{"town":"但東町奥矢根","koaza":"","lat":35.490991,"lng":134.922383,"zip":"6680301"},{"town":"但東町唐川","koaza":"","lat":35.498261,"lng":134.9472,"zip":"6680321"},{"town":"但東町木村","koaza":"","lat":35.50012,"lng":134.963011,"zip":"6680331"},{"town":"但東町坂野","koaza":"","lat":35.520894,"lng":134.984853,"zip":"6680334"},{"town":"但東町西野々","koaza":"","lat":35.509444,"lng":134.968349,"zip":"6680332"},{"town":"但東町口藤","koaza":"","lat":35.520177,"lng":135.012078,"zip":"6680341"},{"town":"日高町上石","koaza":"","lat":35.499625,"lng":134.79786,"zip":"6695331"},{"town":"日高町竹貫","koaza":"","lat":35.49997,"lng":134.789728,"zip":"6695332"},{"town":"日高町藤井","koaza":"","lat":35.499063,"lng":134.783739,"zip":"6695333"},{"town":"日高町奈佐路","koaza":"","lat":35.508484,"lng":134.773275,"zip":"6695335"},{"town":"日高町中","koaza":"","lat":35.493695,"lng":134.763095,"zip":"6695337"},{"town":"ひじ渕","koaza":"","lat":35.50026,"lng":134.820684,"zip":"6680000"},{"town":"辻","koaza":"","lat":35.514917,"lng":134.757816,"zip":"6680073"},{"town":"日高町東芝","koaza":"","lat":35.500972,"lng":134.806118,"zip":"6695328"},{"town":"加陽","koaza":"","lat":35.505271,"lng":134.826333,"zip":"6680841"},{"town":"出石町伊豆","koaza":"","lat":35.49787,"lng":134.843626,"zip":"6680207"},{"town":"倉見","koaza":"","lat":35.502307,"lng":134.856628,"zip":"6680832"},{"town":"長谷","koaza":"","lat":35.507772,"lng":134.865023,"zip":"6680834"},{"town":"神美台","koaza":"","lat":35.514466,"lng":134.857438,"zip":"6680831"},{"town":"森尾","koaza":"","lat":35.520525,"lng":134.875787,"zip":"6680824"},{"town":"市場","koaza":"","lat":35.538938,"lng":134.871424,"zip":"6680821"},{"town":"法花寺","koaza":"","lat":35.554462,"lng":134.870793,"zip":"6680816"},{"town":"栄町","koaza":"","lat":35.562618,"lng":134.860376,"zip":"6680812"},{"town":"竹野町森本","koaza":"","lat":35.581712,"lng":134.736221,"zip":"6696332"},{"town":"日高町大岡","koaza":"","lat":35.509521,"lng":134.717072,"zip":"6695339"},{"town":"日高町河江","koaza":"","lat":35.49082,"lng":134.730721,"zip":"6695339"},{"town":"日高町太田","koaza":"","lat":35.507146,"lng":134.690982,"zip":"6695371"},{"town":"日高町栗栖野","koaza":"","lat":35.501595,"lng":134.669799,"zip":"6695372"},{"town":"日高町山田","koaza":"","lat":35.499909,"lng":134.647954,"zip":"6695377"},{"town":"江野","koaza":"","lat":35.573264,"lng":134.759077,"zip":"6680003"},{"town":"船谷","koaza":"","lat":35.513795,"lng":134.748673,"zip":"6680076"},{"town":"福成寺","koaza":"","lat":35.535883,"lng":134.754798,"zip":"6680075"},{"town":"野垣","koaza":"","lat":35.543927,"lng":134.756976,"zip":"6680074"},{"town":"内町","koaza":"","lat":35.522868,"lng":134.756435,"zip":"6680071"},{"town":"宮井","koaza":"","lat":35.552551,"lng":134.759213,"zip":"6680085"},{"town":"赤石","koaza":"","lat":35.592719,"lng":134.805619,"zip":"6680801"},{"town":"伊賀谷","koaza":"","lat":35.584033,"lng":134.778612,"zip":"6680001"},{"town":"城崎町上山","koaza":"","lat":35.589193,"lng":134.793424,"zip":"6696116"},{"town":"下鶴井","koaza":"","lat":35.579966,"lng":134.822606,"zip":"6680803"},{"town":"城崎町飯谷","koaza":"","lat":35.599016,"lng":134.828581,"zip":"6696112"},{"town":"畑上","koaza":"","lat":35.60102,"lng":134.851972,"zip":"6696127"},{"town":"下宮","koaza":"","lat":35.569924,"lng":134.85288,"zip":"6680813"},{"town":"三原","koaza":"","lat":35.623866,"lng":134.864787,"zip":"6696126"},{"town":"竹野町下塚","koaza":"","lat":35.603117,"lng":134.76112,"zip":"6696226"},{"town":"竹野町切濱","koaza":"","lat":35.657308,"lng":134.744676,"zip":"6680000"},{"town":"竹野町御又","koaza":"","lat":35.581089,"lng":134.720211,"zip":"6696333"},{"town":"竹野町河内","koaza":"","lat":35.589213,"lng":134.709677,"zip":"6696334"},{"town":"竹野町門谷","koaza":"","lat":35.5805,"lng":134.6999,"zip":"6696335"},{"town":"竹野町林","koaza":"","lat":35.60339,"lng":134.742066,"zip":"6696227"},{"town":"竹野町東大谷","koaza":"","lat":35.614549,"lng":134.741085,"zip":"6696228"},{"town":"竹野町鬼神谷","koaza":"","lat":35.625735,"lng":134.745965,"zip":"6696224"},{"town":"竹野町須谷","koaza":"","lat":35.635956,"lng":134.74872,"zip":"6696221"},{"town":"竹野町草飼","koaza":"","lat":35.648397,"lng":134.750142,"zip":"6696215"},{"town":"竹野町竹野","koaza":"","lat":35.65647,"lng":134.767125,"zip":"6696201"},{"town":"竹野町田久日","koaza":"","lat":35.661827,"lng":134.803775,"zip":"6696203"},{"town":"但東町後","koaza":"","lat":35.410117,"lng":135.012016,"zip":"6680374"},{"town":"但東町奥赤","koaza":"","lat":35.462706,"lng":135.0335,"zip":"6680353"},{"town":"但東町赤花","koaza":"","lat":35.476612,"lng":135.018959,"zip":"6680352"},{"town":"但東町太田","koaza":"","lat":35.498632,"lng":134.971251,"zip":"6680335"},{"town":"但東町日向","koaza":"","lat":35.495353,"lng":134.979785,"zip":"6680336"},{"town":"但東町三原","koaza":"","lat":35.478904,"lng":134.951592,"zip":"6680322"},{"town":"但東町出合","koaza":"","lat":35.470983,"lng":134.94874,"zip":"6680311"},{"town":"但東町南尾","koaza":"","lat":35.466063,"lng":134.945033,"zip":"6680312"},{"town":"但東町出合市場","koaza":"","lat":35.461512,"lng":134.938661,"zip":"6680313"},{"town":"但東町正法寺","koaza":"","lat":35.464105,"lng":134.979817,"zip":"6680361"},{"town":"但東町相田","koaza":"","lat":35.447297,"lng":134.965585,"zip":"6680324"},{"town":"但東町河本","koaza":"","lat":35.441385,"lng":134.947714,"zip":"6680315"},{"town":"但東町日殿","koaza":"","lat":35.451696,"lng":134.945515,"zip":"6680314"},{"town":"但東町小谷","koaza":"","lat":35.468445,"lng":134.962879,"zip":"6680323"},{"town":"但東町水石","koaza":"","lat":35.44535,"lng":134.917158,"zip":"6680304"},{"town":"出石町桐野","koaza":"","lat":35.443261,"lng":134.902768,"zip":"6680242"},{"town":"出石町寺坂","koaza":"","lat":35.45931,"lng":134.904221,"zip":"6680241"},{"town":"出石町伊木","koaza":"","lat":35.457995,"lng":134.875919,"zip":"6680213"},{"town":"出石町下谷","koaza":"","lat":35.458439,"lng":134.880799,"zip":"6680211"},{"town":"出石町材木","koaza":"","lat":35.460809,"lng":134.877269,"zip":"6680216"},{"town":"出石町入佐","koaza":"","lat":35.462264,"lng":134.87832,"zip":"6680218"},{"town":"出石町魚屋","koaza":"","lat":35.462949,"lng":134.875967,"zip":"6680215"},{"town":"出石町八木","koaza":"","lat":35.462449,"lng":134.873942,"zip":"6680225"},{"town":"出石町本町","koaza":"","lat":35.463166,"lng":134.873746,"zip":"6680224"},{"town":"出石町宵田","koaza":"","lat":35.463933,"lng":134.874029,"zip":"6680232"},{"town":"出石町寺町","koaza":"","lat":35.46931,"lng":134.881306,"zip":"6680222"},{"town":"出石町東條","koaza":"","lat":35.463774,"lng":134.879487,"zip":"6680217"},{"town":"出石町鉄砲","koaza":"","lat":35.46464,"lng":134.87433,"zip":"6680223"},{"town":"但東町東里","koaza":"","lat":35.485554,"lng":134.969897,"zip":"6680337"},{"town":"但東町矢根","koaza":"","lat":35.466991,"lng":134.92213,"zip":"6680302"},{"town":"出石町谷山","koaza":"","lat":35.469008,"lng":134.896456,"zip":"6680212"},{"town":"出石町馬場","koaza":"","lat":35.463821,"lng":134.869015,"zip":"6680237"},{"town":"日高町久斗","koaza":"","lat":35.462908,"lng":134.758332,"zip":"6695342"},{"town":"出石町安良","koaza":"","lat":35.498487,"lng":134.84993,"zip":"6680208"},{"town":"出石町福居","koaza":"","lat":35.49104,"lng":134.84614,"zip":"6680206"},{"town":"出石町坪井","koaza":"","lat":35.487123,"lng":134.867464,"zip":"6680273"},{"town":"出石町鳥居","koaza":"","lat":35.48121,"lng":134.85644,"zip":"6680272"},{"town":"出石町嶋","koaza":"","lat":35.489125,"lng":134.854663,"zip":"6680205"},{"town":"出石町森井","koaza":"","lat":35.478567,"lng":134.848418,"zip":"6680276"},{"town":"出石町丸中","koaza":"","lat":35.481363,"lng":134.844518,"zip":"6680277"},{"town":"出石町大谷","koaza":"","lat":35.480403,"lng":134.839115,"zip":"6680271"},{"town":"出石町三木","koaza":"","lat":35.480611,"lng":134.832092,"zip":"6680278"},{"town":"出石町長砂","koaza":"","lat":35.477272,"lng":134.862494,"zip":"6680275"},{"town":"出石町荒木","koaza":"","lat":35.467121,"lng":134.836164,"zip":"6680261"},{"town":"出石町弘原","koaza":"","lat":35.466078,"lng":134.866806,"zip":"6680238"},{"town":"出石町鍜冶屋","koaza":"","lat":35.456435,"lng":134.868085,"zip":"6680000"},{"town":"出石町松枝","koaza":"","lat":35.462038,"lng":134.869777,"zip":"6680236"},{"town":"出石町福住","koaza":"","lat":35.465485,"lng":134.859281,"zip":"6680263"},{"town":"出石町中村","koaza":"","lat":35.447806,"lng":134.851262,"zip":"6680254"},{"town":"出石町細見","koaza":"","lat":35.460146,"lng":134.844196,"zip":"6680262"},{"town":"出石町福見","koaza":"","lat":35.455038,"lng":134.82388,"zip":"6680265"},{"town":"日高町鶴岡","koaza":"","lat":35.464202,"lng":134.796975,"zip":"6695313"},{"town":"出石町暮坂","koaza":"","lat":35.442092,"lng":134.830026,"zip":"6680264"},{"town":"日高町日置","koaza":"","lat":35.459381,"lng":134.78943,"zip":"6695311"},{"town":"日高町赤崎","koaza":"","lat":35.448981,"lng":134.780966,"zip":"6695314"},{"town":"日高町江原","koaza":"","lat":35.465395,"lng":134.778891,"zip":"6695301"},{"town":"日高町浅倉","koaza":"","lat":35.452351,"lng":134.765269,"zip":"6695315"},{"town":"日高町宵田","koaza":"","lat":35.465311,"lng":134.774236,"zip":"6695304"},{"town":"日高町岩中","koaza":"","lat":35.4606,"lng":134.769373,"zip":"6695302"},{"town":"日高町水上","koaza":"","lat":35.478174,"lng":134.774422,"zip":"6695306"},{"town":"日高町松岡","koaza":"","lat":35.479806,"lng":134.786692,"zip":"6695307"},{"town":"日高町国分寺","koaza":"","lat":35.473452,"lng":134.775389,"zip":"6695341"},{"town":"日高町西芝","koaza":"","lat":35.497242,"lng":134.809856,"zip":"6695328"},{"town":"日高町池上","koaza":"","lat":35.492873,"lng":134.801265,"zip":"6695326"},{"town":"日高町上郷","koaza":"","lat":35.470346,"lng":134.806342,"zip":"6695324"},{"town":"日高町堀","koaza":"","lat":35.488369,"lng":134.802491,"zip":"6695325"},{"town":"日高町府市場","koaza":"","lat":35.483868,"lng":134.801445,"zip":"6695322"},{"town":"日高町土居","koaza":"","lat":35.48133,"lng":134.783595,"zip":"6695321"},{"town":"日高町府中新","koaza":"","lat":35.486671,"lng":134.798057,"zip":"6695323"},{"town":"日高町谷","koaza":"","lat":35.495755,"lng":134.772855,"zip":"6695336"},{"town":"日高町山本","koaza":"","lat":35.484206,"lng":134.777927,"zip":"6695334"},{"town":"日高町猪ノ爪","koaza":"","lat":35.495055,"lng":134.755738,"zip":"6680000"},{"town":"出石町田多地","koaza":"","lat":35.496662,"lng":134.859509,"zip":"6680209"},{"town":"出石町片間","koaza":"","lat":35.493536,"lng":134.833036,"zip":"6680279"},{"town":"引野","koaza":"","lat":35.495466,"lng":134.818085,"zip":"6680843"},{"town":"日高町野々庄","koaza":"","lat":35.490704,"lng":134.801807,"zip":"6695327"},{"town":"中郷","koaza":"","lat":35.476712,"lng":134.821925,"zip":"6680842"},{"town":"日高町森山","koaza":"","lat":35.438816,"lng":134.723246,"zip":"6695353"},{"town":"日高町観音寺","koaza":"","lat":35.436387,"lng":134.692464,"zip":"6695354"},{"town":"日高町篠垣","koaza":"","lat":35.453339,"lng":134.728092,"zip":"6695355"},{"town":"日高町伊府","koaza":"","lat":35.460094,"lng":134.732879,"zip":"6695346"},{"town":"日高町栗山","koaza":"","lat":35.453035,"lng":134.71997,"zip":"6695361"},{"town":"日高町荒川","koaza":"","lat":35.459164,"lng":134.721351,"zip":"6695356"},{"town":"日高町広井","koaza":"","lat":35.458629,"lng":134.709178,"zip":"6695358"},{"town":"日高町猪子垣","koaza":"","lat":35.460655,"lng":134.715745,"zip":"6695357"},{"town":"日高町芝","koaza":"","lat":35.466675,"lng":134.716722,"zip":"6695362"},{"town":"日高町殿","koaza":"","lat":35.453497,"lng":134.705739,"zip":"6695358"},{"town":"日高町野","koaza":"","lat":35.465056,"lng":134.729257,"zip":"6695363"},{"town":"日高町久田谷","koaza":"","lat":35.472104,"lng":134.736825,"zip":"6695345"},{"town":"日高町庄境","koaza":"","lat":35.471641,"lng":134.726259,"zip":"6695364"},{"town":"日高町石井","koaza":"","lat":35.476517,"lng":134.70386,"zip":"6695367"},{"town":"日高町田ノ口","koaza":"","lat":35.471974,"lng":134.69182,"zip":"6695357"},{"town":"日高町羽尻","koaza":"","lat":35.454006,"lng":134.664775,"zip":"6695359"},{"town":"日高町十戸","koaza":"","lat":35.478617,"lng":134.723751,"zip":"6695365"},{"town":"日高町頃垣","koaza":"","lat":35.488302,"lng":134.715538,"zip":"6695366"},{"town":"日高町山宮","koaza":"","lat":35.493485,"lng":134.700018,"zip":"6695368"},{"town":"日高町栃本","koaza":"","lat":35.485935,"lng":134.690877,"zip":"6695369"},{"town":"日高町名色","koaza":"","lat":35.490546,"lng":134.675586,"zip":"6695379"},{"town":"日高町万場","koaza":"","lat":35.488075,"lng":134.649707,"zip":"6695378"},{"town":"但東町中藤","koaza":"","lat":35.528562,"lng":135.025217,"zip":"6680342"},{"town":"但東町高龍寺","koaza":"","lat":35.513101,"lng":134.976976,"zip":"6680333"},{"town":"出石町奥小野","koaza":"","lat":35.518001,"lng":134.904291,"zip":"6680201"},{"town":"奥野","koaza":"","lat":35.544665,"lng":134.896885,"zip":"6680822"},{"town":"立石","koaza":"","lat":35.515533,"lng":134.861337,"zip":"6680833"},{"town":"上鉢山","koaza":"","lat":35.508171,"lng":134.845364,"zip":"6680863"},{"town":"下鉢山","koaza":"","lat":35.512684,"lng":134.844814,"zip":"6680865"},{"town":"清冷寺","koaza":"","lat":35.510115,"lng":134.834351,"zip":"6680853"},{"town":"佐野","koaza":"","lat":35.513319,"lng":134.807617,"zip":"6680062"},{"town":"上佐野","koaza":"","lat":35.50991,"lng":134.7946,"zip":"6680061"},{"town":"香住","koaza":"","lat":35.516339,"lng":134.85399,"zip":"6680862"},{"town":"中谷","koaza":"","lat":35.531112,"lng":134.850143,"zip":"6680874"},{"town":"駄坂","koaza":"","lat":35.518397,"lng":134.843446,"zip":"6680866"},{"town":"八社宮","koaza":"","lat":35.521064,"lng":134.834521,"zip":"6680854"},{"town":"大篠岡","koaza":"","lat":35.526132,"lng":134.851821,"zip":"6680861"},{"town":"木内","koaza":"","lat":35.523709,"lng":134.841603,"zip":"6680864"},{"town":"江本","koaza":"","lat":35.52627,"lng":134.830866,"zip":"6680852"},{"town":"塩津","koaza":"","lat":35.533422,"lng":134.833439,"zip":"6680054"},{"town":"伏","koaza":"","lat":35.517091,"lng":134.834266,"zip":"6680855"},{"town":"今森","koaza":"","lat":35.526289,"lng":134.826621,"zip":"6680851"},{"town":"九日市中町","koaza":"","lat":35.524823,"lng":134.816484,"zip":"6680053"},{"town":"塩津町","koaza":"","lat":35.532295,"lng":134.827955,"zip":"6680054"},{"town":"弥栄町","koaza":"","lat":35.532473,"lng":134.823124,"zip":"6680057"},{"town":"九日市下町","koaza":"","lat":35.527343,"lng":134.819072,"zip":"6680052"},{"town":"昭和町","koaza":"","lat":35.532549,"lng":134.819549,"zip":"6680055"},{"town":"妙楽寺","koaza":"","lat":35.532357,"lng":134.815501,"zip":"6680056"},{"town":"九日市上町","koaza":"","lat":35.518967,"lng":134.814823,"zip":"6680051"},{"town":"三宅","koaza":"","lat":35.528513,"lng":134.863848,"zip":"6680823"},{"town":"河谷","koaza":"","lat":35.539382,"lng":134.857019,"zip":"6680872"},{"town":"大磯","koaza":"","lat":35.535032,"lng":134.833506,"zip":"6680041"},{"town":"大磯町","koaza":"","lat":35.537144,"lng":134.828762,"zip":"6680041"},{"town":"百合地","koaza":"","lat":35.54183,"lng":134.841411,"zip":"6680875"},{"town":"梶原","koaza":"","lat":35.545826,"lng":134.834624,"zip":"6680871"},{"town":"立野","koaza":"","lat":35.541116,"lng":134.832803,"zip":"6680046"},{"town":"立野町","koaza":"","lat":35.543303,"lng":134.827642,"zip":"6680046"},{"town":"城南町","koaza":"","lat":35.537384,"lng":134.823998,"zip":"6680045"},{"town":"京町","koaza":"","lat":35.539765,"lng":134.821238,"zip":"6680042"},{"town":"桜町","koaza":"","lat":35.534918,"lng":134.821659,"zip":"6680043"},{"town":"三坂","koaza":"","lat":35.535657,"lng":134.816324,"zip":"6680047"},{"town":"三坂町","koaza":"","lat":35.537156,"lng":134.818824,"zip":"6680047"},{"town":"山王町","koaza":"","lat":35.540457,"lng":134.817378,"zip":"6680044"},{"town":"元町","koaza":"","lat":35.545919,"lng":134.824814,"zip":"6680026"},{"town":"中央町","koaza":"","lat":35.543142,"lng":134.822079,"zip":"6680033"},{"town":"泉町","koaza":"","lat":35.546563,"lng":134.821391,"zip":"6680021"},{"town":"千代田町","koaza":"","lat":35.543628,"lng":134.817372,"zip":"6680032"},{"town":"寿町","koaza":"","lat":35.546504,"lng":134.817289,"zip":"6680024"},{"town":"大手町","koaza":"","lat":35.543847,"lng":134.814119,"zip":"6680031"},{"town":"加広町","koaza":"","lat":35.549837,"lng":134.817256,"zip":"6680023"},{"town":"若松町","koaza":"","lat":35.549031,"lng":134.813648,"zip":"6680027"},{"town":"正法寺","koaza":"","lat":35.539307,"lng":134.811685,"zip":"6680063"},{"town":"戸牧","koaza":"","lat":35.526214,"lng":134.802371,"zip":"6680065"},{"town":"高屋","koaza":"","lat":35.539702,"lng":134.802004,"zip":"6680064"},{"town":"上陰","koaza":"","lat":35.545417,"lng":134.801448,"zip":"6680011"},{"town":"岩井","koaza":"","lat":35.531463,"lng":134.789601,"zip":"6680081"},{"town":"吉井","koaza":"","lat":35.536812,"lng":134.779164,"zip":"6680078"},{"town":"大谷","koaza":"","lat":35.52697,"lng":134.769627,"zip":"6680072"},{"town":"庄","koaza":"","lat":35.54322,"lng":134.77564,"zip":"6680082"},{"town":"祥雲寺","koaza":"","lat":35.554355,"lng":134.858341,"zip":"6680814"},{"town":"鎌田","koaza":"","lat":35.554279,"lng":134.847122,"zip":"6680811"},{"town":"庄境","koaza":"","lat":35.547423,"lng":134.844623,"zip":"6680873"},{"town":"六地蔵","koaza":"","lat":35.551097,"lng":134.827599,"zip":"6680817"},{"town":"日撫","koaza":"","lat":35.554489,"lng":134.831441,"zip":"6680815"},{"town":"小田井町","koaza":"","lat":35.550942,"lng":134.824201,"zip":"6680022"},{"town":"幸町","koaza":"","lat":35.550515,"lng":134.820545,"zip":"6680025"},{"town":"野田","koaza":"","lat":35.552382,"lng":134.81699,"zip":"6680014"},{"town":"船町","koaza":"","lat":35.55472,"lng":134.81752,"zip":"6680805"},{"town":"宮島","koaza":"","lat":35.556474,"lng":134.816307,"zip":"6680016"},{"town":"山本","koaza":"","lat":35.559134,"lng":134.829543,"zip":"6680807"},{"town":"森","koaza":"","lat":35.559809,"lng":134.82267,"zip":"6680806"},{"town":"中陰","koaza":"","lat":35.551211,"lng":134.808575,"zip":"6680013"},{"town":"下陰","koaza":"","lat":35.558544,"lng":134.806272,"zip":"6680012"},{"town":"福田","koaza":"","lat":35.555685,"lng":134.798128,"zip":"6680084"},{"town":"栃江","koaza":"","lat":35.554154,"lng":134.786627,"zip":"6680083"},{"town":"金剛寺","koaza":"","lat":35.572292,"lng":134.837238,"zip":"6680802"},{"town":"野上","koaza":"","lat":35.567315,"lng":134.819272,"zip":"6680804"},{"town":"一日市","koaza":"","lat":35.566573,"lng":134.807733,"zip":"6680015"},{"town":"滝","koaza":"","lat":35.568165,"lng":134.79104,"zip":"6680005"},{"town":"新堂","koaza":"","lat":35.565957,"lng":134.784397,"zip":"6680004"},{"town":"森津","koaza":"","lat":35.571619,"lng":134.799126,"zip":"6680006"},{"town":"岩熊","koaza":"","lat":35.572419,"lng":134.780581,"zip":"6680002"},{"town":"竹野町桑野本","koaza":"","lat":35.562723,"lng":134.676849,"zip":"6696353"},{"town":"竹野町川南谷","koaza":"","lat":35.556014,"lng":134.663277,"zip":"6696354"},{"town":"日高町東河内","koaza":"","lat":35.515596,"lng":134.668452,"zip":"6695373"},{"town":"竹野町大森","koaza":"","lat":35.562789,"lng":134.688433,"zip":"6696352"},{"town":"竹野町小城","koaza":"","lat":35.569338,"lng":134.728306,"zip":"6696341"},{"town":"竹野町須野谷","koaza":"","lat":35.565303,"lng":134.699587,"zip":"6696351"},{"town":"竹野町椒","koaza":"","lat":35.532483,"lng":134.699419,"zip":"6696344"},{"town":"日高町万劫","koaza":"","lat":35.509438,"lng":134.651818,"zip":"6695376"},{"town":"日高町水口","koaza":"","lat":35.518873,"lng":134.656399,"zip":"6695374"},{"town":"竹野町三原","koaza":"","lat":35.538515,"lng":134.661854,"zip":"6696355"},{"town":"竹野町二連原","koaza":"","lat":35.559982,"lng":134.720757,"zip":"6696342"},{"town":"目坂","koaza":"","lat":35.530456,"lng":134.732251,"zip":"6680077"},{"town":"竹野町段","koaza":"","lat":35.53953,"lng":134.720975,"zip":"6696343"},{"town":"津居山","koaza":"","lat":35.652425,"lng":134.83323,"zip":"6696121"},{"town":"瀬戸","koaza":"","lat":35.653899,"lng":134.81748,"zip":"6696122"},{"town":"竹野町轟","koaza":"","lat":35.614759,"lng":134.767109,"zip":"6696225"},{"town":"竹野町小丸","koaza":"","lat":35.624363,"lng":134.760681,"zip":"6696222"},{"town":"竹野町和田","koaza":"","lat":35.644228,"lng":134.755501,"zip":"6696211"},{"town":"竹野町阿金谷","koaza":"","lat":35.63759,"lng":134.76709,"zip":"6696214"},{"town":"竹野町松本","koaza":"","lat":35.648026,"lng":134.768978,"zip":"6696212"},{"town":"城崎町結","koaza":"","lat":35.597569,"lng":134.81427,"zip":"6696113"},{"town":"城崎町戸島","koaza":"","lat":35.613155,"lng":134.81305,"zip":"6696114"},{"town":"城崎町来日","koaza":"","lat":35.604102,"lng":134.787058,"zip":"6696115"},{"town":"城崎町楽々浦","koaza":"","lat":35.62224,"lng":134.825841,"zip":"6696111"},{"town":"城崎町今津","koaza":"","lat":35.618642,"lng":134.796636,"zip":"6696103"},{"town":"竹野町芦谷","koaza":"","lat":35.625248,"lng":134.771143,"zip":"6696223"},{"town":"気比","koaza":"","lat":35.630508,"lng":134.842737,"zip":"6696124"},{"town":"小島","koaza":"","lat":35.643177,"lng":134.815267,"zip":"6696123"},{"town":"竹野町宇日","koaza":"","lat":35.655501,"lng":134.790215,"zip":"6696202"},{"town":"城崎町桃島","koaza":"","lat":35.637539,"lng":134.80246,"zip":"6696102"},{"town":"竹野町羽入","koaza":"","lat":35.642897,"lng":134.77345,"zip":"6696213"},{"town":"城崎町湯島","koaza":"","lat":35.631104,"lng":134.789773,"zip":"6696101"},{"town":"田結","koaza":"","lat":35.645799,"lng":134.854926,"zip":"6696125"},{"town":"竹野町坊岡","koaza":"","lat":35.597154,"lng":134.728574,"zip":"6696331"},{"town":"竹野町金原","koaza":"","lat":35.612687,"lng":134.722466,"zip":"6696229"},{"town":"竹野町濱須井","koaza":"","lat":35.654864,"lng":134.735453,"zip":"6680000"},{"town":"竹野町奥須井","koaza":"","lat":35.636381,"lng":134.727557,"zip":"6696218"},{"town":"日高町堀","koaza":"桜本","lat":35.489563,"lng":134.799684,"zip":"6695325"},{"town":"中陰","koaza":"足町","lat":35.55388,"lng":134.809702,"zip":"6680013"},{"town":"正法寺","koaza":"上中通","lat":35.538935,"lng":134.809989,"zip":"6680063"},{"town":"中陰","koaza":"大工","lat":35.553913,"lng":134.811734,"zip":"6680013"},{"town":"船町","koaza":"方ケ島","lat":35.553918,"lng":134.814255,"zip":"6680805"},{"town":"九日市下町","koaza":"天神下","lat":35.526869,"lng":134.821011,"zip":"6680052"},{"town":"九日市中町","koaza":"権現","lat":35.525579,"lng":134.821298,"zip":"6680053"},{"town":"出石町弘原","koaza":"イナベ","lat":35.465475,"lng":134.864437,"zip":"6680238"},{"town":"中陰","koaza":"野田","lat":35.552084,"lng":134.813612,"zip":"6680013"}]