[{"town":"西浜町","koaza":"","lat":34.74699,"lng":134.373583,"zip":"6780208"},{"town":"西浜北町","koaza":"","lat":34.755738,"lng":134.368583,"zip":"6780207"},{"town":"坂越","koaza":"","lat":34.76106,"lng":134.426119,"zip":"6780172"},{"town":"加里屋中洲二丁目","koaza":"","lat":34.754069,"lng":134.396094,"zip":"6780233"},{"town":"若草町","koaza":"","lat":34.753443,"lng":134.382478,"zip":"6780243"},{"town":"城西町","koaza":"","lat":34.752031,"lng":134.381133,"zip":"6780244"},{"town":"上仮屋北","koaza":"","lat":34.751707,"lng":134.38634,"zip":"6780237"},{"town":"農神町","koaza":"","lat":34.753462,"lng":134.386095,"zip":"6780238"},{"town":"加里屋","koaza":"","lat":34.762409,"lng":134.393949,"zip":"6780239"},{"town":"加里屋中洲三丁目","koaza":"","lat":34.752465,"lng":134.395204,"zip":"6780233"},{"town":"中広","koaza":"","lat":34.74278,"lng":134.390083,"zip":"6780232"},{"town":"細野町","koaza":"","lat":34.754184,"lng":134.401734,"zip":"6780231"},{"town":"尾崎","koaza":"","lat":34.744138,"lng":134.419165,"zip":"6780221"},{"town":"南野中","koaza":"","lat":34.757067,"lng":134.410687,"zip":"6780176"},{"town":"三樋町","koaza":"","lat":34.753526,"lng":134.376963,"zip":"6780245"},{"town":"有年楢原","koaza":"","lat":34.844752,"lng":134.374727,"zip":"6781181"},{"town":"黒崎町","koaza":"","lat":34.762539,"lng":134.371347,"zip":"6780259"},{"town":"新田","koaza":"","lat":34.762667,"lng":134.363719,"zip":"6780255"},{"town":"西有年","koaza":"","lat":34.815922,"lng":134.322079,"zip":"6780251"},{"town":"磯浜町","koaza":"","lat":34.758684,"lng":134.374325,"zip":"6780250"},{"town":"中山","koaza":"","lat":34.811651,"lng":134.382664,"zip":"6780161"},{"town":"塩屋","koaza":"","lat":34.773248,"lng":134.385906,"zip":"6780201"},{"town":"大津","koaza":"","lat":34.781028,"lng":134.364807,"zip":"6780252"},{"town":"福浦","koaza":"","lat":34.744426,"lng":134.328303,"zip":"6780257"},{"town":"鷏和","koaza":"","lat":34.750511,"lng":134.348181,"zip":"6780200"},{"town":"折方","koaza":"","lat":34.759266,"lng":134.347374,"zip":"6780254"},{"town":"東有年","koaza":"","lat":34.819748,"lng":134.363307,"zip":"6781185"},{"town":"有年原","koaza":"","lat":34.835696,"lng":134.390593,"zip":"6781182"},{"town":"有年牟礼","koaza":"","lat":34.839386,"lng":134.401758,"zip":"6781183"},{"town":"正保橋町","koaza":"","lat":34.735958,"lng":134.408486,"zip":"6780216"},{"town":"元禄橋町","koaza":"","lat":34.736139,"lng":134.405838,"zip":"6780223"},{"town":"元塩町","koaza":"","lat":34.741897,"lng":134.410492,"zip":"6780213"},{"town":"朝日町","koaza":"","lat":34.739407,"lng":134.409059,"zip":"6780214"},{"town":"東浜町","koaza":"","lat":34.738893,"lng":134.405038,"zip":"6780222"},{"town":"元沖町","koaza":"","lat":34.735951,"lng":134.40362,"zip":"6780224"},{"town":"さつき町","koaza":"","lat":34.740654,"lng":134.401424,"zip":"6780226"},{"town":"南宮町","koaza":"","lat":34.746174,"lng":134.41046,"zip":"6780211"},{"town":"本水尾町","koaza":"","lat":34.74252,"lng":134.408243,"zip":"6780217"},{"town":"清水町","koaza":"","lat":34.744425,"lng":134.409782,"zip":"6780212"},{"town":"御崎","koaza":"","lat":34.733041,"lng":134.401028,"zip":"6780215"},{"town":"海浜町","koaza":"","lat":34.737719,"lng":134.399669,"zip":"6780225"},{"town":"中浜町","koaza":"","lat":34.741864,"lng":134.398584,"zip":"6780227"},{"town":"大橋町","koaza":"","lat":34.74519,"lng":134.398248,"zip":"6780229"},{"town":"松原町","koaza":"","lat":34.742974,"lng":134.396504,"zip":"6780228"},{"town":"加里屋中洲四丁目","koaza":"","lat":34.75091,"lng":134.393907,"zip":"6780233"},{"town":"加里屋中洲五丁目","koaza":"","lat":34.749662,"lng":134.39263,"zip":"6780233"},{"town":"加里屋中洲六丁目","koaza":"","lat":34.748373,"lng":134.391483,"zip":"6780233"},{"town":"上仮屋","koaza":"","lat":34.747024,"lng":134.388374,"zip":"6780235"},{"town":"加里屋南","koaza":"","lat":34.749966,"lng":134.390152,"zip":"6780234"},{"town":"上仮屋南","koaza":"","lat":34.749445,"lng":134.385717,"zip":"6780236"},{"town":"片浜町","koaza":"","lat":34.75562,"lng":134.37519,"zip":"6780249"},{"town":"古浜町","koaza":"","lat":34.76124,"lng":134.375848,"zip":"6780258"},{"town":"平成町","koaza":"","lat":34.759516,"lng":134.378239,"zip":"6780247"},{"town":"加里屋中洲一丁目","koaza":"","lat":34.755607,"lng":134.397466,"zip":"6780233"},{"town":"山手町","koaza":"","lat":34.758194,"lng":134.394799,"zip":"6780202"},{"town":"元町","koaza":"","lat":34.758138,"lng":134.392303,"zip":"6780203"},{"town":"寿町","koaza":"","lat":34.758142,"lng":134.389913,"zip":"6780204"},{"town":"長池町","koaza":"","lat":34.754707,"lng":134.383442,"zip":"6780242"},{"town":"惣門町","koaza":"","lat":34.755757,"lng":134.384706,"zip":"6780241"},{"town":"六百目町","koaza":"","lat":34.755012,"lng":134.380408,"zip":"6780246"},{"town":"板屋町","koaza":"","lat":34.756634,"lng":134.379138,"zip":"6780248"},{"town":"大町","koaza":"","lat":34.75747,"lng":134.386204,"zip":"6780205"},{"town":"宮前町","koaza":"","lat":34.759678,"lng":134.386784,"zip":"6780206"},{"town":"浜市","koaza":"","lat":34.771799,"lng":134.420765,"zip":"6780173"},{"town":"砂子","koaza":"","lat":34.767404,"lng":134.412407,"zip":"6780174"},{"town":"北野中","koaza":"","lat":34.763904,"lng":134.407041,"zip":"6780175"},{"town":"高野","koaza":"","lat":34.784064,"lng":134.428707,"zip":"6780171"},{"town":"目坂","koaza":"","lat":34.788622,"lng":134.406825,"zip":"6780164"},{"town":"高雄","koaza":"","lat":34.795241,"lng":134.408656,"zip":"6780163"},{"town":"木津","koaza":"","lat":34.781478,"lng":134.402441,"zip":"6780165"},{"town":"真殿","koaza":"","lat":34.801919,"lng":134.395543,"zip":"6780166"},{"town":"周世","koaza":"","lat":34.808257,"lng":134.411249,"zip":"6780162"},{"town":"有年横尾","koaza":"","lat":34.822671,"lng":134.396487,"zip":"6781184"},{"town":"木生谷","koaza":"","lat":34.769218,"lng":134.356753,"zip":"6780253"},{"town":"塩屋","koaza":"寺田","lat":34.761133,"lng":134.382109,"zip":"6780201"}]