[{"town":"細野","koaza":"","lat":34.920223,"lng":134.372976,"zip":"6781272"},{"town":"與井","koaza":"","lat":34.864568,"lng":134.371438,"zip":"6781225"},{"town":"上郡","koaza":"","lat":34.872959,"lng":134.366529,"zip":"6781231"},{"town":"行頭","koaza":"","lat":34.85394,"lng":134.266777,"zip":"6781255"},{"town":"高山","koaza":"","lat":34.851586,"lng":134.297526,"zip":"6781254"},{"town":"落地","koaza":"","lat":34.842288,"lng":134.308304,"zip":"6781243"},{"town":"梨ケ原","koaza":"","lat":34.828071,"lng":134.304983,"zip":"6781244"},{"town":"與井新","koaza":"","lat":34.853338,"lng":134.378062,"zip":"6781224"},{"town":"尾長谷","koaza":"","lat":34.887036,"lng":134.375332,"zip":"6781203"},{"town":"赤松","koaza":"","lat":34.915006,"lng":134.360536,"zip":"6781273"},{"town":"金出地","koaza":"","lat":34.920292,"lng":134.42994,"zip":"6781201"},{"town":"大冨","koaza":"","lat":34.92514,"lng":134.392342,"zip":"6781204"},{"town":"野桑","koaza":"","lat":34.907962,"lng":134.403873,"zip":"6781202"},{"town":"光都三丁目","koaza":"","lat":34.922905,"lng":134.442481,"zip":"6781205"},{"town":"旭日","koaza":"","lat":34.920487,"lng":134.314756,"zip":"6781261"},{"town":"苔縄","koaza":"","lat":34.910235,"lng":134.342825,"zip":"6781277"},{"town":"河野原","koaza":"","lat":34.916663,"lng":134.348823,"zip":"6781278"},{"town":"楠","koaza":"","lat":34.932178,"lng":134.36038,"zip":"6781271"},{"town":"釜島","koaza":"","lat":34.845632,"lng":134.385513,"zip":"6781223"},{"town":"休治","koaza":"","lat":34.856723,"lng":134.406576,"zip":"6781214"},{"town":"正福寺","koaza":"","lat":34.84812,"lng":134.394306,"zip":"6781215"},{"town":"高田台七丁目","koaza":"","lat":34.861001,"lng":134.387654,"zip":"6781226"},{"town":"中野","koaza":"","lat":34.85827,"lng":134.393359,"zip":"6781216"},{"town":"高田台六丁目","koaza":"","lat":34.863331,"lng":134.386437,"zip":"6781226"},{"town":"西野山","koaza":"","lat":34.855998,"lng":134.384545,"zip":"6781222"},{"town":"高田台五丁目","koaza":"","lat":34.860531,"lng":134.384772,"zip":"6781226"},{"town":"高田台四丁目","koaza":"","lat":34.861451,"lng":134.382482,"zip":"6781226"},{"town":"高田台二丁目","koaza":"","lat":34.865167,"lng":134.383243,"zip":"6781226"},{"town":"高田台三丁目","koaza":"","lat":34.863722,"lng":134.38268,"zip":"6781226"},{"town":"高田台一丁目","koaza":"","lat":34.864838,"lng":134.379658,"zip":"6781226"},{"town":"宇野山","koaza":"","lat":34.864713,"lng":134.408254,"zip":"6781213"},{"town":"佐用谷","koaza":"","lat":34.870723,"lng":134.408799,"zip":"6781212"},{"town":"宿","koaza":"","lat":34.866881,"lng":134.397844,"zip":"6781217"},{"town":"宇治山","koaza":"","lat":34.869976,"lng":134.391051,"zip":"6781218"},{"town":"神明寺","koaza":"","lat":34.868864,"lng":134.382882,"zip":"6781221"},{"town":"小野豆","koaza":"","lat":34.878312,"lng":134.414588,"zip":"6781211"},{"town":"奥甲","koaza":"","lat":34.878832,"lng":134.396272,"zip":"6781200"},{"town":"竹万","koaza":"","lat":34.854032,"lng":134.360021,"zip":"6781232"},{"town":"栗原","koaza":"","lat":34.856665,"lng":134.320506,"zip":"6781242"},{"town":"大持","koaza":"","lat":34.870268,"lng":134.354068,"zip":"6781233"},{"town":"山野里","koaza":"","lat":34.861863,"lng":134.339585,"zip":"6781241"},{"town":"井上","koaza":"","lat":34.878089,"lng":134.350508,"zip":"6781251"},{"town":"別名","koaza":"","lat":34.869026,"lng":134.319522,"zip":"6781253"},{"town":"船坂","koaza":"","lat":34.873413,"lng":134.333334,"zip":"6781252"},{"town":"大枝","koaza":"","lat":34.889886,"lng":134.357564,"zip":"6781275"},{"town":"大枝新","koaza":"","lat":34.886924,"lng":134.349335,"zip":"6781276"},{"town":"柏野","koaza":"","lat":34.902242,"lng":134.362632,"zip":"6781274"},{"town":"岩木","koaza":"","lat":34.898629,"lng":134.326562,"zip":"6781262"},{"town":"八保","koaza":"","lat":34.886496,"lng":134.294057,"zip":"6781256"},{"town":"光都一丁目","koaza":"","lat":34.935231,"lng":134.434552,"zip":"6781205"},{"town":"光都二丁目","koaza":"","lat":34.935958,"lng":134.442849,"zip":"6781205"},{"town":"駅前","koaza":"","lat":34.866979,"lng":134.353584,"zip":"6781234"},{"town":"八保","koaza":"乙","lat":34.87149,"lng":134.304589,"zip":"6781256"},{"town":"八保","koaza":"甲","lat":34.874299,"lng":134.320013,"zip":"6781256"},{"town":"岩木","koaza":"甲","lat":34.885614,"lng":134.344925,"zip":"6781262"},{"town":"山野里","koaza":"南行波","lat":34.867643,"lng":134.349932,"zip":"6781241"},{"town":"竹万","koaza":"稗田","lat":34.859902,"lng":134.361857,"zip":"6781232"},{"town":"竹万","koaza":"京塚","lat":34.864953,"lng":134.356424,"zip":"6781232"},{"town":"山野里","koaza":"下神田","lat":34.867392,"lng":134.351869,"zip":"6781241"}]