[{"town":"三谷","koaza":"","lat":35.333523,"lng":134.734854,"zip":"6670136"},{"town":"長野","koaza":"","lat":35.286451,"lng":134.767844,"zip":"6670145"},{"town":"建屋","koaza":"","lat":35.300609,"lng":134.74641,"zip":"6670142"},{"town":"森","koaza":"","lat":35.312788,"lng":134.724925,"zip":"6670141"},{"town":"大屋町明延","koaza":"","lat":35.264205,"lng":134.671922,"zip":"6670436"},{"town":"大屋町筏","koaza":"","lat":35.313316,"lng":134.625154,"zip":"6670322"},{"town":"船谷","koaza":"","lat":35.337259,"lng":134.757329,"zip":"6670135"},{"town":"畑","koaza":"","lat":35.339097,"lng":134.78348,"zip":"6670133"},{"town":"八鹿町三谷","koaza":"","lat":35.421957,"lng":134.759372,"zip":"6670002"},{"town":"八鹿町九鹿","koaza":"","lat":35.409193,"lng":134.752428,"zip":"6670031"},{"town":"八鹿町高柳","koaza":"","lat":35.391328,"lng":134.737991,"zip":"6670043"},{"town":"八鹿町国木","koaza":"","lat":35.397543,"lng":134.751255,"zip":"6670044"},{"town":"大屋町中","koaza":"","lat":35.345696,"lng":134.705035,"zip":"6670304"},{"town":"大屋町夏梅","koaza":"","lat":35.345293,"lng":134.676131,"zip":"6670305"},{"town":"大屋町加保","koaza":"","lat":35.342763,"lng":134.658175,"zip":"6670315"},{"town":"大屋町大杉","koaza":"","lat":35.329998,"lng":134.650344,"zip":"6670314"},{"town":"大屋町蔵垣","koaza":"","lat":35.321083,"lng":134.64388,"zip":"6670321"},{"town":"大坪","koaza":"","lat":35.350755,"lng":134.756536,"zip":"6670134"},{"town":"伊豆","koaza":"","lat":35.357359,"lng":134.741863,"zip":"6670104"},{"town":"左近山","koaza":"","lat":35.371208,"lng":134.745385,"zip":"6670105"},{"town":"大屋町上山","koaza":"","lat":35.350699,"lng":134.719475,"zip":"6670301"},{"town":"吉井","koaza":"","lat":35.373257,"lng":134.631756,"zip":"6671111"},{"town":"中瀬","koaza":"","lat":35.364906,"lng":134.621628,"zip":"6671116"},{"town":"大屋町中間","koaza":"","lat":35.322226,"lng":134.598276,"zip":"6670325"},{"town":"関宮","koaza":"","lat":35.378905,"lng":134.636796,"zip":"6671105"},{"town":"大屋町横行","koaza":"","lat":35.325054,"lng":134.552239,"zip":"6670324"},{"town":"安井","koaza":"","lat":35.34972,"lng":134.578719,"zip":"6671118"},{"town":"八鹿町上小田","koaza":"","lat":35.422042,"lng":134.785624,"zip":"6670004"},{"town":"八鹿町坂本","koaza":"","lat":35.418502,"lng":134.797524,"zip":"6670013"},{"town":"八鹿町八鹿","koaza":"","lat":35.41152,"lng":134.773144,"zip":"6670021"},{"town":"八鹿町大江","koaza":"","lat":35.416924,"lng":134.821059,"zip":"6670015"},{"town":"八鹿町青山","koaza":"","lat":35.436349,"lng":134.755814,"zip":"6670001"},{"town":"八鹿町小佐","koaza":"","lat":35.415414,"lng":134.731748,"zip":"6670053"},{"town":"八鹿町石原","koaza":"","lat":35.414993,"lng":134.706194,"zip":"6670051"},{"town":"八鹿町日畑","koaza":"","lat":35.418324,"lng":134.670659,"zip":"6670052"},{"town":"大屋町糸原","koaza":"","lat":35.320961,"lng":134.686442,"zip":"6670431"},{"town":"大屋町山路","koaza":"","lat":35.330876,"lng":134.66514,"zip":"6670312"},{"town":"大屋町笠谷","koaza":"","lat":35.32722,"lng":134.661369,"zip":"6670313"},{"town":"大屋町大屋市場","koaza":"","lat":35.332295,"lng":134.670312,"zip":"6670311"},{"town":"大屋町門野","koaza":"","lat":35.307572,"lng":134.681837,"zip":"6670433"},{"town":"大屋町須西","koaza":"","lat":35.303461,"lng":134.667907,"zip":"6670434"},{"town":"大屋町和田","koaza":"","lat":35.291886,"lng":134.657702,"zip":"6670435"},{"town":"餅耕地","koaza":"","lat":35.286705,"lng":134.722547,"zip":"6670144"},{"town":"能座","koaza":"","lat":35.302171,"lng":134.731205,"zip":"6670143"},{"town":"大屋町宮本","koaza":"","lat":35.30472,"lng":134.697789,"zip":"6670432"},{"town":"大屋町若杉","koaza":"","lat":35.287819,"lng":134.59722,"zip":"6670323"},{"town":"八鹿町下網場","koaza":"","lat":35.405141,"lng":134.778155,"zip":"6670022"},{"town":"八鹿町小山","koaza":"","lat":35.398836,"lng":134.759183,"zip":"6670032"},{"town":"八鹿町米里","koaza":"","lat":35.38444,"lng":134.754214,"zip":"6670045"},{"town":"稲津","koaza":"","lat":35.359397,"lng":134.771777,"zip":"6670132"},{"town":"大塚","koaza":"","lat":35.37654,"lng":134.823089,"zip":"6670125"},{"town":"堀畑","koaza":"","lat":35.367871,"lng":134.809827,"zip":"6670126"},{"town":"上野","koaza":"","lat":35.365779,"lng":134.788651,"zip":"6670131"},{"town":"広谷","koaza":"","lat":35.375382,"lng":134.771151,"zip":"6670101"},{"town":"浅野","koaza":"","lat":35.361972,"lng":134.755577,"zip":"6670103"},{"town":"鉄屋米地","koaza":"","lat":35.38499,"lng":134.825082,"zip":"6670123"},{"town":"口米地","koaza":"","lat":35.392166,"lng":134.81987,"zip":"6670124"},{"town":"養父市場","koaza":"","lat":35.386364,"lng":134.807883,"zip":"6670112"},{"town":"小城","koaza":"","lat":35.381721,"lng":134.790562,"zip":"6670114"},{"town":"八鹿町舞狂","koaza":"","lat":35.406626,"lng":134.786854,"zip":"6670016"},{"town":"薮崎","koaza":"","lat":35.390904,"lng":134.787515,"zip":"6670113"},{"town":"八鹿町上網場","koaza":"","lat":35.396573,"lng":134.778229,"zip":"6670023"},{"town":"上箇","koaza":"","lat":35.384783,"lng":134.776265,"zip":"6670115"},{"town":"八鹿町朝倉","koaza":"","lat":35.392846,"lng":134.76539,"zip":"6670024"},{"town":"十二所","koaza":"","lat":35.374223,"lng":134.761398,"zip":"6670102"},{"town":"奥米地","koaza":"","lat":35.396553,"lng":134.849132,"zip":"6670121"},{"town":"中米地","koaza":"","lat":35.397954,"lng":134.829687,"zip":"6670122"},{"town":"大薮","koaza":"","lat":35.400586,"lng":134.806721,"zip":"6670111"},{"town":"大屋町由良","koaza":"","lat":35.343273,"lng":134.692558,"zip":"6670304"},{"town":"八鹿町今滝寺","koaza":"","lat":35.395725,"lng":134.707131,"zip":"6670042"},{"town":"大屋町樽見","koaza":"","lat":35.354702,"lng":134.706571,"zip":"6670302"},{"town":"玉見","koaza":"","lat":35.371554,"lng":134.734419,"zip":"6670106"},{"town":"八鹿町八木","koaza":"","lat":35.385095,"lng":134.7198,"zip":"6670041"},{"town":"新津","koaza":"","lat":35.36535,"lng":134.72663,"zip":"6670107"},{"town":"大屋町宮垣","koaza":"","lat":35.368946,"lng":134.712815,"zip":"6670306"},{"town":"三宅","koaza":"","lat":35.386359,"lng":134.699335,"zip":"6671101"},{"town":"大谷","koaza":"","lat":35.388431,"lng":134.685322,"zip":"6671102"},{"town":"万久里","koaza":"","lat":35.392024,"lng":134.666656,"zip":"6671103"},{"town":"尾崎","koaza":"","lat":35.383635,"lng":134.659801,"zip":"6671104"},{"town":"轟","koaza":"","lat":35.350192,"lng":134.601379,"zip":"6671117"},{"town":"鵜縄","koaza":"","lat":35.350357,"lng":134.547154,"zip":"6671119"},{"town":"出合","koaza":"","lat":35.362704,"lng":134.599172,"zip":"6671112"},{"town":"小路頃","koaza":"","lat":35.368502,"lng":134.583207,"zip":"6671114"},{"town":"川原場","koaza":"","lat":35.370632,"lng":134.579535,"zip":"6671113"},{"town":"梨ケ原","koaza":"","lat":35.37128,"lng":134.550153,"zip":"6671123"},{"town":"外野","koaza":"","lat":35.371771,"lng":134.568482,"zip":"6671121"},{"town":"草出","koaza":"","lat":35.373558,"lng":134.555265,"zip":"6671122"},{"town":"奈良尾","koaza":"","lat":35.368329,"lng":134.540286,"zip":"6671125"},{"town":"大久保","koaza":"","lat":35.377704,"lng":134.520339,"zip":"6671127"},{"town":"福定","koaza":"","lat":35.371114,"lng":134.538233,"zip":"6671126"},{"town":"葛畑","koaza":"","lat":35.382281,"lng":134.59167,"zip":"6671115"},{"town":"別宮","koaza":"","lat":35.386887,"lng":134.563916,"zip":"6671128"},{"town":"丹戸","koaza":"","lat":35.376654,"lng":134.545072,"zip":"6671124"},{"town":"八鹿町下小田","koaza":"","lat":35.426014,"lng":134.788456,"zip":"6670005"},{"town":"八鹿町岩崎","koaza":"","lat":35.428576,"lng":134.822614,"zip":"6670014"},{"town":"八鹿町浅間","koaza":"","lat":35.441206,"lng":134.808864,"zip":"6670011"},{"town":"八鹿町伊佐","koaza":"","lat":35.431791,"lng":134.794225,"zip":"6670012"},{"town":"八鹿町宿南","koaza":"","lat":35.434427,"lng":134.778205,"zip":"6670003"},{"town":"八鹿町国木","koaza":"下タイ","lat":35.395447,"lng":134.755133,"zip":"6670044"},{"town":"堀畑","koaza":"寺ノ奧","lat":35.365945,"lng":134.809904,"zip":"6670126"},{"town":"堀畑","koaza":"小山田","lat":35.367334,"lng":134.810227,"zip":"6670126"},{"town":"堀畑","koaza":"池尻","lat":35.370084,"lng":134.810124,"zip":"6670126"},{"town":"堀畑","koaza":"石据","lat":35.367278,"lng":134.811056,"zip":"6670126"},{"town":"堀畑","koaza":"堀","lat":35.36832,"lng":134.810788,"zip":"6670126"},{"town":"堀畑","koaza":"水田伝","lat":35.370348,"lng":134.811072,"zip":"6670126"},{"town":"堀畑","koaza":"森","lat":35.368367,"lng":134.812078,"zip":"6670126"},{"town":"堀畑","koaza":"加古","lat":35.370024,"lng":134.813632,"zip":"6670126"},{"town":"堀畑","koaza":"町尻","lat":35.368809,"lng":134.813754,"zip":"6670126"},{"town":"堀畑","koaza":"中川原","lat":35.370895,"lng":134.814414,"zip":"6670126"},{"town":"大塚","koaza":"土手外","lat":35.371855,"lng":134.815906,"zip":"6670125"},{"town":"大塚","koaza":"宮ノ上","lat":35.376217,"lng":134.816406,"zip":"6670125"},{"town":"大塚","koaza":"谷川尻","lat":35.377768,"lng":134.816519,"zip":"6670125"},{"town":"大塚","koaza":"宮ノ下","lat":35.37668,"lng":134.817314,"zip":"6670125"},{"town":"大塚","koaza":"三月野","lat":35.377591,"lng":134.818723,"zip":"6670125"},{"town":"八鹿町下網場","koaza":"山本","lat":35.402896,"lng":134.77314,"zip":"6670022"},{"town":"大塚","koaza":"丁田","lat":35.377025,"lng":134.816362,"zip":"6670125"},{"town":"大塚","koaza":"椿山","lat":35.373947,"lng":134.816532,"zip":"6670125"},{"town":"大塚","koaza":"土手ノ内","lat":35.373385,"lng":134.814446,"zip":"6670125"},{"town":"堀畑","koaza":"前田","lat":35.372565,"lng":134.812148,"zip":"6670126"},{"town":"堀畑","koaza":"島垣","lat":35.371382,"lng":134.810191,"zip":"6670126"},{"town":"堀畑","koaza":"八反田","lat":35.371997,"lng":134.81034,"zip":"6670126"},{"town":"堀畑","koaza":"石郡","lat":35.37129,"lng":134.811405,"zip":"6670126"},{"town":"堀畑","koaza":"油伝","lat":35.367529,"lng":134.812528,"zip":"6670126"},{"town":"堀畑","koaza":"宮ノ下","lat":35.370021,"lng":134.812454,"zip":"6670126"},{"town":"堀畑","koaza":"向田","lat":35.373434,"lng":134.811099,"zip":"6670126"},{"town":"養父市場","koaza":"猿岩","lat":35.376676,"lng":134.81129,"zip":"6670112"},{"town":"大塚","koaza":"麻町","lat":35.375551,"lng":134.813527,"zip":"6670125"},{"town":"大塚","koaza":"向島","lat":35.376863,"lng":134.813411,"zip":"6670125"},{"town":"大塚","koaza":"刈又","lat":35.37729,"lng":134.815521,"zip":"6670125"},{"town":"大塚","koaza":"大ノ坪","lat":35.378792,"lng":134.814076,"zip":"6670125"},{"town":"堀畑","koaza":"下川原","lat":35.372683,"lng":134.812638,"zip":"6670126"},{"town":"堀畑","koaza":"大","lat":35.375988,"lng":134.809242,"zip":"6670126"},{"town":"大塚","koaza":"外新田","lat":35.377837,"lng":134.813412,"zip":"6670125"}]