[{"town":"高砂町浜田町","koaza":"","lat":34.750163,"lng":134.802114,"zip":"6760022"},{"town":"伊保町中島","koaza":"","lat":34.773779,"lng":134.809489,"zip":"6760000"},{"town":"伊保町伊保崎","koaza":"","lat":34.772689,"lng":134.778076,"zip":"6760000"},{"town":"伊保町梅井","koaza":"","lat":34.770657,"lng":134.777385,"zip":"6760000"},{"town":"梅井六丁目","koaza":"","lat":34.754191,"lng":134.763443,"zip":"6760074"},{"town":"荒井町新浜二丁目","koaza":"","lat":34.750796,"lng":134.780349,"zip":"6760008"},{"town":"高砂町松波町","koaza":"","lat":34.752824,"lng":134.795994,"zip":"6760023"},{"town":"高砂町浜田町二丁目","koaza":"","lat":34.751719,"lng":134.801137,"zip":"6760022"},{"town":"高砂町浜田町一丁目","koaza":"","lat":34.753183,"lng":134.800444,"zip":"6760022"},{"town":"高砂町朝日町二丁目","koaza":"","lat":34.754282,"lng":134.801783,"zip":"6760021"},{"town":"高砂町朝日町一丁目","koaza":"","lat":34.754927,"lng":134.805718,"zip":"6760021"},{"town":"北浜町西浜","koaza":"","lat":34.789975,"lng":134.749607,"zip":"6710123"},{"town":"北浜町北脇","koaza":"","lat":34.790523,"lng":134.754208,"zip":"6710122"},{"town":"高砂町南材木町","koaza":"","lat":34.736179,"lng":134.801013,"zip":"6760044"},{"town":"高砂町向島町","koaza":"","lat":34.739971,"lng":134.806634,"zip":"6760031"},{"town":"高砂町南浜町","koaza":"","lat":34.743125,"lng":134.804671,"zip":"6760042"},{"town":"高砂町東浜町","koaza":"","lat":34.746663,"lng":134.805354,"zip":"6760032"},{"town":"高砂町高瀬町","koaza":"","lat":34.74758,"lng":134.804651,"zip":"6760036"},{"town":"高砂町藍屋町","koaza":"","lat":34.747627,"lng":134.80792,"zip":"6760037"},{"town":"高砂町東宮町","koaza":"","lat":34.741644,"lng":134.803739,"zip":"6760043"},{"town":"高砂町西宮町","koaza":"","lat":34.743595,"lng":134.802826,"zip":"6760046"},{"town":"高砂町猟師町","koaza":"","lat":34.744185,"lng":134.802423,"zip":"6760048"},{"town":"高砂町田町","koaza":"","lat":34.744631,"lng":134.803288,"zip":"6760049"},{"town":"高砂町今津町","koaza":"","lat":34.744859,"lng":134.804466,"zip":"6760041"},{"town":"高砂町材木町","koaza":"","lat":34.745665,"lng":134.80414,"zip":"6760033"},{"town":"高砂町戎町","koaza":"","lat":34.742339,"lng":134.802117,"zip":"6760045"},{"town":"高砂町南本町","koaza":"","lat":34.744965,"lng":134.802121,"zip":"6760047"},{"town":"高砂町狩網町","koaza":"","lat":34.743996,"lng":134.801013,"zip":"6760054"},{"town":"高砂町南渡海町","koaza":"","lat":34.745787,"lng":134.80102,"zip":"6760052"},{"town":"高砂町釣船町","koaza":"","lat":34.744891,"lng":134.800293,"zip":"6760055"},{"town":"高砂町魚町","koaza":"","lat":34.745728,"lng":134.800369,"zip":"6760053"},{"town":"高砂町船頭町","koaza":"","lat":34.746309,"lng":134.804143,"zip":"6760034"},{"town":"高砂町清水町","koaza":"","lat":34.746959,"lng":134.804216,"zip":"6760035"},{"town":"高砂町北本町","koaza":"","lat":34.747558,"lng":134.803086,"zip":"6760064"},{"town":"高砂町東農人町","koaza":"","lat":34.748639,"lng":134.802618,"zip":"6760067"},{"town":"高砂町北渡海町","koaza":"","lat":34.747287,"lng":134.801597,"zip":"6760062"},{"town":"高砂町細工町","koaza":"","lat":34.746926,"lng":134.800955,"zip":"6760065"},{"town":"高砂町鍛冶屋町","koaza":"","lat":34.747576,"lng":134.801072,"zip":"6760068"},{"town":"高砂町次郎助町","koaza":"","lat":34.748207,"lng":134.801895,"zip":"6760063"},{"town":"高砂町宮前町","koaza":"","lat":34.740577,"lng":134.799933,"zip":"6760027"},{"town":"高砂町横町","koaza":"","lat":34.747447,"lng":134.80002,"zip":"6760051"},{"town":"高砂町朝日町三丁目","koaza":"","lat":34.751414,"lng":134.803991,"zip":"6760021"},{"town":"高砂町鍵町","koaza":"","lat":34.747495,"lng":134.799253,"zip":"6760066"},{"town":"高砂町農人町","koaza":"","lat":34.749259,"lng":134.800383,"zip":"6760061"},{"town":"高砂町栄町","koaza":"","lat":34.750412,"lng":134.805843,"zip":"6760038"},{"town":"高砂町大工町","koaza":"","lat":34.745235,"lng":134.798554,"zip":"6760056"},{"town":"西畑一丁目","koaza":"","lat":34.747141,"lng":134.797803,"zip":"6760025"},{"town":"高砂町相生町","koaza":"","lat":34.738841,"lng":134.793574,"zip":"6760028"},{"town":"西畑二丁目","koaza":"","lat":34.748134,"lng":134.795777,"zip":"6760025"},{"town":"西畑三丁目","koaza":"","lat":34.749195,"lng":134.793885,"zip":"6760025"},{"town":"高砂町木曽町","koaza":"","lat":34.750896,"lng":134.796752,"zip":"6760024"},{"town":"高砂町沖浜町","koaza":"","lat":34.745458,"lng":134.793482,"zip":"6760026"},{"town":"西畑四丁目","koaza":"","lat":34.750278,"lng":134.792633,"zip":"6760025"},{"town":"米田町神爪","koaza":"","lat":34.785796,"lng":134.80879,"zip":"6760000"},{"town":"神爪五丁目","koaza":"","lat":34.789846,"lng":134.803841,"zip":"6760808"},{"town":"神爪二丁目","koaza":"","lat":34.786957,"lng":134.807503,"zip":"6760808"},{"town":"神爪四丁目","koaza":"","lat":34.789068,"lng":134.802834,"zip":"6760808"},{"town":"神爪六丁目","koaza":"","lat":34.79215,"lng":134.80326,"zip":"6760808"},{"town":"荒井町小松原一丁目","koaza":"","lat":34.757804,"lng":134.804804,"zip":"6760011"},{"town":"荒井町小松原二丁目","koaza":"","lat":34.760769,"lng":134.804242,"zip":"6760011"},{"town":"荒井町蓮池二丁目","koaza":"","lat":34.756915,"lng":134.800301,"zip":"6760013"},{"town":"荒井町蓮池一丁目","koaza":"","lat":34.758006,"lng":134.801201,"zip":"6760013"},{"town":"荒井町中新町","koaza":"","lat":34.760223,"lng":134.800505,"zip":"6760012"},{"town":"荒井町小松原三丁目","koaza":"","lat":34.762649,"lng":134.801841,"zip":"6760011"},{"town":"荒井町小松原四丁目","koaza":"","lat":34.764055,"lng":134.805645,"zip":"6760011"},{"town":"緑丘一丁目","koaza":"","lat":34.765415,"lng":134.799473,"zip":"6760019"},{"town":"荒井町蓮池三丁目","koaza":"","lat":34.756328,"lng":134.798399,"zip":"6760013"},{"town":"荒井町日之出町","koaza":"","lat":34.75546,"lng":134.797094,"zip":"6760014"},{"town":"荒井町紙町","koaza":"","lat":34.759041,"lng":134.79799,"zip":"6760015"},{"town":"荒井町東本町","koaza":"","lat":34.761581,"lng":134.796648,"zip":"6760017"},{"town":"荒井町扇町","koaza":"","lat":34.758965,"lng":134.794065,"zip":"6760016"},{"town":"荒井町若宮町","koaza":"","lat":34.763611,"lng":134.798955,"zip":"6760018"},{"town":"末広町","koaza":"","lat":34.766127,"lng":134.797402,"zip":"6760002"},{"town":"荒井町御旅一丁目","koaza":"","lat":34.762843,"lng":134.7943,"zip":"6760005"},{"town":"荒井町御旅二丁目","koaza":"","lat":34.76499,"lng":134.795843,"zip":"6760005"},{"town":"今市二丁目","koaza":"","lat":34.767545,"lng":134.795664,"zip":"6760003"},{"town":"荒井町南栄町","koaza":"","lat":34.760408,"lng":134.792652,"zip":"6760006"},{"town":"荒井町中町","koaza":"","lat":34.762732,"lng":134.79197,"zip":"6760007"},{"town":"荒井町千鳥三丁目","koaza":"","lat":34.766367,"lng":134.793853,"zip":"6760004"},{"town":"荒井町千鳥二丁目","koaza":"","lat":34.763691,"lng":134.790092,"zip":"6760004"},{"town":"荒井町新浜一丁目","koaza":"","lat":34.761969,"lng":134.785958,"zip":"6760008"},{"town":"荒井町千鳥一丁目","koaza":"","lat":34.766278,"lng":134.78996,"zip":"6760004"},{"town":"伊保港町二丁目","koaza":"","lat":34.766222,"lng":134.785412,"zip":"6760072"},{"town":"高須","koaza":"","lat":34.763539,"lng":134.780054,"zip":"6760073"},{"town":"梅井五丁目","koaza":"","lat":34.763322,"lng":134.771675,"zip":"6760074"},{"town":"米田町古新","koaza":"","lat":34.768272,"lng":134.808296,"zip":"6760802"},{"town":"米田町米田新","koaza":"","lat":34.773628,"lng":134.816486,"zip":"6760801"},{"town":"荒井町小松原五丁目","koaza":"","lat":34.766806,"lng":134.803558,"zip":"6760011"},{"town":"緑丘二丁目","koaza":"","lat":34.767741,"lng":134.801907,"zip":"6760019"},{"town":"百合丘","koaza":"","lat":34.770362,"lng":134.804956,"zip":"6760803"},{"town":"美保里","koaza":"","lat":34.773089,"lng":134.806179,"zip":"6760804"},{"town":"中島三丁目","koaza":"","lat":34.772801,"lng":134.801206,"zip":"6760001"},{"town":"米田町米田","koaza":"","lat":34.779149,"lng":134.812573,"zip":"6760805"},{"town":"米田団地","koaza":"","lat":34.782089,"lng":134.807587,"zip":"6760809"},{"town":"中島一丁目","koaza":"","lat":34.768825,"lng":134.798872,"zip":"6760001"},{"town":"中島二丁目","koaza":"","lat":34.771748,"lng":134.797632,"zip":"6760001"},{"town":"今市一丁目","koaza":"","lat":34.769081,"lng":134.794225,"zip":"6760003"},{"town":"伊保港町一丁目","koaza":"","lat":34.767626,"lng":134.788287,"zip":"6760072"},{"town":"伊保東一丁目","koaza":"","lat":34.770284,"lng":134.791639,"zip":"6760071"},{"town":"伊保二丁目","koaza":"","lat":34.770055,"lng":134.788827,"zip":"6760078"},{"town":"伊保三丁目","koaza":"","lat":34.772975,"lng":134.789166,"zip":"6760078"},{"town":"米田町塩市","koaza":"","lat":34.77764,"lng":134.801159,"zip":"6760806"},{"town":"伊保東二丁目","koaza":"","lat":34.774018,"lng":134.79442,"zip":"6760071"},{"town":"竜山一丁目","koaza":"","lat":34.777601,"lng":134.794444,"zip":"6760811"},{"town":"伊保四丁目","koaza":"","lat":34.775822,"lng":134.790906,"zip":"6760078"},{"town":"竜山二丁目","koaza":"","lat":34.781132,"lng":134.791294,"zip":"6760811"},{"town":"松陽四丁目","koaza":"","lat":34.777694,"lng":134.789291,"zip":"6760077"},{"town":"伊保崎南","koaza":"","lat":34.76767,"lng":134.784398,"zip":"6760075"},{"town":"伊保一丁目","koaza":"","lat":34.770976,"lng":134.786292,"zip":"6760078"},{"town":"梅井一丁目","koaza":"","lat":34.769196,"lng":134.781009,"zip":"6760074"},{"town":"伊保崎四丁目","koaza":"","lat":34.773679,"lng":134.784458,"zip":"6760076"},{"town":"伊保崎一丁目","koaza":"","lat":34.771805,"lng":134.783642,"zip":"6760076"},{"town":"梅井二丁目","koaza":"","lat":34.771327,"lng":134.78043,"zip":"6760074"},{"town":"梅井四丁目","koaza":"","lat":34.766853,"lng":134.778881,"zip":"6760074"},{"town":"伊保崎五丁目","koaza":"","lat":34.775159,"lng":134.786347,"zip":"6760076"},{"town":"伊保崎六丁目","koaza":"","lat":34.776617,"lng":134.785529,"zip":"6760076"},{"town":"松陽三丁目","koaza":"","lat":34.779579,"lng":134.786485,"zip":"6760077"},{"town":"伊保崎三丁目","koaza":"","lat":34.775852,"lng":134.78239,"zip":"6760076"},{"town":"伊保崎二丁目","koaza":"","lat":34.774452,"lng":134.780102,"zip":"6760076"},{"town":"松陽一丁目","koaza":"","lat":34.777881,"lng":134.7816,"zip":"6760077"},{"town":"松陽二丁目","koaza":"","lat":34.781678,"lng":134.783366,"zip":"6760077"},{"town":"梅井三丁目","koaza":"","lat":34.768704,"lng":134.774881,"zip":"6760074"},{"town":"米田町島","koaza":"","lat":34.782148,"lng":134.800934,"zip":"6760807"},{"town":"神爪一丁目","koaza":"","lat":34.786179,"lng":134.812002,"zip":"6760808"},{"town":"神爪三丁目","koaza":"","lat":34.788481,"lng":134.802062,"zip":"6760808"},{"town":"阿弥陀町生石","koaza":"","lat":34.783272,"lng":134.795394,"zip":"6760823"},{"town":"阿弥陀町魚橋","koaza":"","lat":34.792667,"lng":134.797958,"zip":"6760822"},{"town":"中筋五丁目","koaza":"","lat":34.783976,"lng":134.787693,"zip":"6760812"},{"town":"阿弥陀町北池","koaza":"","lat":34.796036,"lng":134.789161,"zip":"6760825"},{"town":"阿弥陀町南池","koaza":"","lat":34.788404,"lng":134.785453,"zip":"6760824"},{"town":"中筋四丁目","koaza":"","lat":34.786304,"lng":134.78113,"zip":"6760812"},{"town":"中筋三丁目","koaza":"","lat":34.789381,"lng":134.779581,"zip":"6760812"},{"town":"中筋二丁目","koaza":"","lat":34.787765,"lng":134.777765,"zip":"6760812"},{"town":"伊保町中筋","koaza":"","lat":34.785719,"lng":134.776402,"zip":"6760081"},{"town":"中筋一丁目","koaza":"","lat":34.789719,"lng":134.773739,"zip":"6760812"},{"town":"曽根町","koaza":"","lat":34.776319,"lng":134.772861,"zip":"6760082"},{"town":"時光寺町","koaza":"","lat":34.790841,"lng":134.776186,"zip":"6760813"},{"town":"阿弥陀一丁目","koaza":"","lat":34.79486,"lng":134.769903,"zip":"6760815"},{"town":"春日野町","koaza":"","lat":34.793152,"lng":134.768458,"zip":"6760814"},{"town":"金ケ田町","koaza":"","lat":34.797158,"lng":134.766499,"zip":"6760816"},{"town":"北浜町牛谷","koaza":"","lat":34.790656,"lng":134.763993,"zip":"6710121"},{"town":"阿弥陀町北山","koaza":"","lat":34.802591,"lng":134.792453,"zip":"6760826"},{"town":"阿弥陀町長尾","koaza":"","lat":34.807888,"lng":134.788181,"zip":"6760821"},{"town":"阿弥陀町地徳","koaza":"","lat":34.806854,"lng":134.777441,"zip":"6760828"},{"town":"阿弥陀町阿弥陀","koaza":"","lat":34.803184,"lng":134.783009,"zip":"6760827"}]