[{"town":"愛木町","koaza":"","lat":31.756679,"lng":130.205879,"zip":"8960061"},{"town":"曙町","koaza":"","lat":31.721194,"lng":130.2729,"zip":"8960001"},{"town":"旭町","koaza":"","lat":31.717902,"lng":130.269055,"zip":"8960015"},{"town":"荒川","koaza":"","lat":31.75526,"lng":130.252633,"zip":"8960065"},{"town":"浦和町","koaza":"","lat":31.71456,"lng":130.265085,"zip":"8960036"},{"town":"恵比須町","koaza":"","lat":31.711398,"lng":130.275681,"zip":"8960027"},{"town":"大里","koaza":"","lat":31.678456,"lng":130.308978,"zip":"8992103"},{"town":"大原町","koaza":"","lat":31.716773,"lng":130.272912,"zip":"8960011"},{"town":"御倉町","koaza":"","lat":31.713653,"lng":130.267909,"zip":"8960025"},{"town":"海瀬","koaza":"","lat":31.707836,"lng":130.297402,"zip":"8960057"},{"town":"春日町","koaza":"","lat":31.721063,"lng":130.26935,"zip":"8960002"},{"town":"河内","koaza":"","lat":31.733206,"lng":130.294255,"zip":"8960079"},{"town":"川上","koaza":"","lat":31.714954,"lng":130.352644,"zip":"8992102"},{"town":"上名","koaza":"","lat":31.724974,"lng":130.287086,"zip":"8960052"},{"town":"冠嶽","koaza":"","lat":31.739381,"lng":130.353203,"zip":"8960051"},{"town":"北浜町","koaza":"","lat":31.72116,"lng":130.263656,"zip":"8960041"},{"town":"京町","koaza":"","lat":31.72164,"lng":130.266121,"zip":"8960003"},{"town":"金山","koaza":"","lat":31.74918,"lng":130.297582,"zip":"8960075"},{"town":"金山下","koaza":"","lat":31.74828,"lng":130.28886,"zip":"8960074"},{"town":"口之町","koaza":"","lat":31.757819,"lng":130.204591,"zip":"8960063"},{"town":"小瀬町","koaza":"","lat":31.70844,"lng":130.261035,"zip":"8960034"},{"town":"栄町","koaza":"","lat":31.716673,"lng":130.266288,"zip":"8960013"},{"town":"桜町","koaza":"","lat":31.719321,"lng":130.270329,"zip":"8960016"},{"town":"薩摩山","koaza":"","lat":31.736827,"lng":130.282164,"zip":"8960072"},{"town":"汐見町","koaza":"","lat":31.723646,"lng":130.264454,"zip":"8960004"},{"town":"塩屋町","koaza":"","lat":31.711499,"lng":130.270513,"zip":"8960023"},{"town":"昭和通","koaza":"","lat":31.714263,"lng":130.270703,"zip":"8960026"},{"town":"新生町","koaza":"","lat":31.711731,"lng":130.264715,"zip":"8960035"},{"town":"住吉町","koaza":"","lat":31.714782,"lng":130.275406,"zip":"8960021"},{"town":"西薩町","koaza":"","lat":31.725538,"lng":130.254454,"zip":"8960046"},{"town":"生福","koaza":"","lat":31.726278,"lng":130.312819,"zip":"8960078"},{"town":"芹ケ野","koaza":"","lat":31.75577,"lng":130.308723,"zip":"8960076"},{"town":"高見町","koaza":"","lat":31.718681,"lng":130.272931,"zip":"8960017"},{"town":"照島","koaza":"","lat":31.70898,"lng":130.283171,"zip":"8960055"},{"town":"中尾町","koaza":"","lat":31.715791,"lng":130.269031,"zip":"8960012"},{"town":"長崎町","koaza":"","lat":31.708252,"lng":130.267518,"zip":"8960033"},{"town":"西塩田町","koaza":"","lat":31.72452,"lng":130.266936,"zip":"8960005"},{"town":"西島平町","koaza":"","lat":31.707751,"lng":130.27012,"zip":"8960032"},{"town":"西浜町","koaza":"","lat":31.717777,"lng":130.262008,"zip":"8960044"},{"town":"野下","koaza":"","lat":31.75046,"lng":130.281938,"zip":"8960073"},{"town":"野元","koaza":"","lat":31.732114,"lng":130.257097,"zip":"8960066"},{"town":"袴田","koaza":"","lat":31.717564,"lng":130.285352,"zip":"8960058"},{"town":"羽島","koaza":"","lat":31.764925,"lng":130.221953,"zip":"8960064"},{"town":"浜ケ城","koaza":"","lat":31.723297,"lng":130.277198,"zip":"8960069"},{"town":"浜田町","koaza":"","lat":31.756376,"lng":130.204355,"zip":"8960062"},{"town":"東塩田町","koaza":"","lat":31.724282,"lng":130.271543,"zip":"8960006"},{"town":"東島平町","koaza":"","lat":31.707809,"lng":130.274268,"zip":"8960031"},{"town":"日出町","koaza":"","lat":31.718779,"lng":130.277891,"zip":"8960054"},{"town":"ひばりが丘","koaza":"","lat":31.710639,"lng":130.27824,"zip":"8960028"},{"town":"平江","koaza":"","lat":31.732825,"lng":130.268285,"zip":"8960067"},{"town":"深田上","koaza":"","lat":31.746099,"lng":130.274353,"zip":"8960071"},{"town":"深田下","koaza":"","lat":31.741927,"lng":130.263118,"zip":"8960077"},{"town":"別府","koaza":"","lat":31.699593,"lng":130.283313,"zip":"8960037"},{"town":"まぐろ本町","koaza":"","lat":31.714791,"lng":130.260012,"zip":"8960045"},{"town":"美住町","koaza":"","lat":31.710924,"lng":130.267889,"zip":"8960024"},{"town":"三井","koaza":"","lat":31.730076,"lng":130.275728,"zip":"8960068"},{"town":"緑町","koaza":"","lat":31.712277,"lng":130.272761,"zip":"8960022"},{"town":"港町","koaza":"","lat":31.716762,"lng":130.264229,"zip":"8960043"},{"town":"湊町","koaza":"","lat":31.695383,"lng":130.304412,"zip":"8992101"},{"town":"湊町一丁目","koaza":"","lat":31.693158,"lng":130.289913,"zip":"8992101"},{"town":"湊町二丁目","koaza":"","lat":31.695979,"lng":130.291792,"zip":"8992101"},{"town":"湊町三丁目","koaza":"","lat":31.694033,"lng":130.293967,"zip":"8992101"},{"town":"湊町四丁目","koaza":"","lat":31.692092,"lng":130.294863,"zip":"8992101"},{"town":"本浜町","koaza":"","lat":31.718839,"lng":130.263627,"zip":"8960042"},{"town":"元町","koaza":"","lat":31.719615,"lng":130.266067,"zip":"8960014"},{"town":"八房","koaza":"","lat":31.703054,"lng":130.289665,"zip":"8960056"},{"town":"大里","koaza":"鳥居松","lat":31.676369,"lng":130.316023,"zip":"8992103"}]