[{"town":"大口青木","koaza":"","lat":32.080796,"lng":130.679794,"zip":"8952504"},{"town":"大口牛尾","koaza":"","lat":32.103992,"lng":130.623763,"zip":"8952501"},{"town":"大口大島","koaza":"","lat":32.04619,"lng":130.59774,"zip":"8952522"},{"town":"大口大田","koaza":"","lat":32.075437,"lng":130.604725,"zip":"8952507"},{"town":"大口金波田","koaza":"","lat":32.03568,"lng":130.606776,"zip":"8952523"},{"town":"大口上町","koaza":"","lat":32.061379,"lng":130.606795,"zip":"8952513"},{"town":"大口川岩瀬","koaza":"","lat":32.038742,"lng":130.549958,"zip":"8952528"},{"town":"大口木ノ氏","koaza":"","lat":32.100531,"lng":130.64562,"zip":"8952502"},{"town":"大口小川内","koaza":"","lat":32.120497,"lng":130.513219,"zip":"8952634"},{"town":"大口小木原","koaza":"","lat":32.116794,"lng":130.620284,"zip":"8952631"},{"town":"大口里","koaza":"","lat":32.060611,"lng":130.612974,"zip":"8952511"},{"town":"大口篠原","koaza":"","lat":32.077631,"lng":130.637213,"zip":"8952503"},{"town":"大口下殿","koaza":"","lat":32.031087,"lng":130.589712,"zip":"8952525"},{"town":"大口白木","koaza":"","lat":32.06085,"lng":130.546868,"zip":"8952529"},{"town":"大口曽木","koaza":"","lat":32.001388,"lng":130.59944,"zip":"8952441"},{"town":"大口田代","koaza":"","lat":32.033787,"lng":130.51129,"zip":"8952527"},{"town":"大口堂崎","koaza":"","lat":32.031544,"lng":130.599562,"zip":"8952524"},{"town":"大口鳥巣","koaza":"","lat":32.064776,"lng":130.584642,"zip":"8952521"},{"town":"大口原田","koaza":"","lat":32.04649,"lng":130.620773,"zip":"8952506"},{"town":"大口針持","koaza":"","lat":31.979902,"lng":130.577673,"zip":"8952442"},{"town":"大口平出水","koaza":"","lat":32.085485,"lng":130.539602,"zip":"8952633"},{"town":"大口渕辺","koaza":"","lat":32.080733,"lng":130.584277,"zip":"8952632"},{"town":"大口宮人","koaza":"","lat":32.024592,"lng":130.564227,"zip":"8952526"},{"town":"大口目丸","koaza":"","lat":32.05778,"lng":130.627406,"zip":"8952505"},{"town":"大口元町","koaza":"","lat":32.058157,"lng":130.608633,"zip":"8952512"},{"town":"大口山野","koaza":"","lat":32.134575,"lng":130.584914,"zip":"8952635"},{"town":"菱刈荒田","koaza":"","lat":31.992634,"lng":130.626589,"zip":"8952811"},{"town":"菱刈市山","koaza":"","lat":32.055564,"lng":130.674311,"zip":"8952704"},{"town":"菱刈川北","koaza":"","lat":31.990654,"lng":130.674139,"zip":"8952708"},{"town":"菱刈川南","koaza":"","lat":31.975806,"lng":130.662659,"zip":"8952812"},{"town":"菱刈重留","koaza":"","lat":32.031751,"lng":130.633516,"zip":"8952705"},{"town":"菱刈下手","koaza":"","lat":32.021992,"lng":130.614048,"zip":"8952702"},{"town":"菱刈田中","koaza":"","lat":32.036541,"lng":130.656441,"zip":"8952706"},{"town":"菱刈徳辺","koaza":"","lat":32.023182,"lng":130.661166,"zip":"8952707"},{"town":"菱刈花北","koaza":"","lat":32.034355,"lng":130.623349,"zip":"8952703"},{"town":"菱刈前目","koaza":"","lat":32.015091,"lng":130.685798,"zip":"8952701"},{"town":"菱刈南浦","koaza":"","lat":31.965138,"lng":130.630584,"zip":"8952813"},{"town":"大口鳥巣","koaza":"西中水流","lat":32.053439,"lng":130.59881,"zip":"8952521"}]