[{"town":"今釜町","koaza":"","lat":32.113828,"lng":130.324091,"zip":"8990137"},{"town":"浦田町","koaza":"","lat":32.093082,"lng":130.309538,"zip":"8990134"},{"town":"大野原町","koaza":"","lat":32.072172,"lng":130.329226,"zip":"8990216"},{"town":"上大川内","koaza":"","lat":32.076597,"lng":130.466009,"zip":"8990341"},{"town":"上鯖渕","koaza":"","lat":32.090772,"lng":130.381783,"zip":"8990203"},{"town":"上知識町","koaza":"","lat":32.082622,"lng":130.336858,"zip":"8990212"},{"town":"黄金町","koaza":"","lat":32.099552,"lng":130.348689,"zip":"8990125"},{"town":"五万石町","koaza":"","lat":32.07055,"lng":130.344403,"zip":"8990214"},{"town":"米ノ津町","koaza":"","lat":32.123063,"lng":130.338425,"zip":"8990121"},{"town":"境町","koaza":"","lat":32.146679,"lng":130.368072,"zip":"8990122"},{"town":"汐見町","koaza":"","lat":32.107649,"lng":130.313626,"zip":"8990136"},{"town":"下大川内","koaza":"","lat":32.047996,"lng":130.429408,"zip":"8990342"},{"town":"下鯖町","koaza":"","lat":32.120884,"lng":130.347903,"zip":"8990123"},{"town":"下知識町","koaza":"","lat":32.102286,"lng":130.329134,"zip":"8990132"},{"town":"荘","koaza":"","lat":32.101575,"lng":130.277927,"zip":"8990435"},{"town":"昭和町","koaza":"","lat":32.088696,"lng":130.354186,"zip":"8990202"},{"town":"住吉町","koaza":"","lat":32.121144,"lng":130.328559,"zip":"8990138"},{"town":"高尾野町江内","koaza":"","lat":32.101284,"lng":130.249516,"zip":"8990407"},{"town":"高尾野町大久保","koaza":"","lat":32.050404,"lng":130.319183,"zip":"8990401"},{"town":"高尾野町上水流","koaza":"","lat":32.080453,"lng":130.302702,"zip":"8990406"},{"town":"高尾野町唐笠木","koaza":"","lat":32.074205,"lng":130.291482,"zip":"8990403"},{"town":"高尾野町柴引","koaza":"","lat":32.026955,"lng":130.310162,"zip":"8990402"},{"town":"高尾野町下水流","koaza":"","lat":32.095058,"lng":130.29553,"zip":"8990405"},{"town":"高尾野町下高尾野","koaza":"","lat":32.053006,"lng":130.287391,"zip":"8990404"},{"town":"武本","koaza":"","lat":32.027536,"lng":130.37502,"zip":"8990215"},{"town":"知識町","koaza":"","lat":32.091288,"lng":130.333149,"zip":"8990211"},{"town":"中央町","koaza":"","lat":32.082966,"lng":130.349261,"zip":"8990207"},{"town":"西出水町","koaza":"","lat":32.073149,"lng":130.337715,"zip":"8990213"},{"town":"野田町上名","koaza":"","lat":32.023293,"lng":130.279371,"zip":"8990501"},{"town":"野田町下名","koaza":"","lat":32.069359,"lng":130.264942,"zip":"8990502"},{"town":"福ノ江町","koaza":"","lat":32.101123,"lng":130.317427,"zip":"8990133"},{"town":"麓町","koaza":"","lat":32.074802,"lng":130.360029,"zip":"8990204"},{"town":"文化町","koaza":"","lat":32.095085,"lng":130.340376,"zip":"8990208"},{"town":"平和町","koaza":"","lat":32.088853,"lng":130.322884,"zip":"8990217"},{"town":"本町","koaza":"","lat":32.077399,"lng":130.356226,"zip":"8990205"},{"town":"緑町","koaza":"","lat":32.093337,"lng":130.350455,"zip":"8990201"},{"town":"美原町","koaza":"","lat":32.111863,"lng":130.362045,"zip":"8990124"},{"town":"明神町","koaza":"","lat":32.112689,"lng":130.334614,"zip":"8990131"},{"town":"向江町","koaza":"","lat":32.076672,"lng":130.349872,"zip":"8990206"},{"town":"六月田町","koaza":"","lat":32.109209,"lng":130.34265,"zip":"8990126"}]