[{"town":"大浦町","koaza":"","lat":31.367495,"lng":130.235874,"zip":"8980221"},{"town":"笠沙町赤生木","koaza":"","lat":31.386372,"lng":130.180868,"zip":"8971302"},{"town":"笠沙町片浦","koaza":"","lat":31.416557,"lng":130.158871,"zip":"8971301"},{"town":"加世田内山田","koaza":"","lat":31.36837,"lng":130.319162,"zip":"8970004"},{"town":"加世田川畑","koaza":"","lat":31.404166,"lng":130.341163,"zip":"8970003"},{"town":"加世田小湊","koaza":"","lat":31.40989,"lng":130.264885,"zip":"8971122"},{"town":"加世田地頭所","koaza":"","lat":31.423933,"lng":130.31827,"zip":"8970008"},{"town":"加世田地頭所町","koaza":"","lat":31.424854,"lng":130.323126,"zip":"8970000"},{"town":"加世田白亀","koaza":"","lat":31.414343,"lng":130.312248,"zip":"8970007"},{"town":"加世田高橋","koaza":"","lat":31.437937,"lng":130.290042,"zip":"8971123"},{"town":"加世田武田","koaza":"","lat":31.398332,"lng":130.290432,"zip":"8970002"},{"town":"加世田津貫","koaza":"","lat":31.347491,"lng":130.280172,"zip":"8993611"},{"town":"加世田唐仁原","koaza":"","lat":31.419424,"lng":130.305149,"zip":"8971121"},{"town":"加世田ハーモニー","koaza":"","lat":31.404226,"lng":130.323677,"zip":"8970009"},{"town":"加世田東本町","koaza":"","lat":31.418327,"lng":130.327053,"zip":"8970031"},{"town":"加世田麓町","koaza":"","lat":31.41356,"lng":130.321544,"zip":"8970005"},{"town":"加世田本町","koaza":"","lat":31.41875,"lng":130.32144,"zip":"8970006"},{"town":"加世田益山","koaza":"","lat":31.435922,"lng":130.319684,"zip":"8971125"},{"town":"加世田宮原","koaza":"","lat":31.428589,"lng":130.309368,"zip":"8971124"},{"town":"加世田村原","koaza":"","lat":31.429479,"lng":130.333298,"zip":"8970001"},{"town":"加世田村原一丁目","koaza":"","lat":31.421671,"lng":130.326782,"zip":"8970001"},{"town":"加世田村原二丁目","koaza":"","lat":31.423544,"lng":130.32733,"zip":"8970001"},{"town":"加世田村原三丁目","koaza":"","lat":31.426074,"lng":130.328484,"zip":"8970001"},{"town":"加世田村原四丁目","koaza":"","lat":31.419587,"lng":130.332322,"zip":"8970001"},{"town":"加世田村原五丁目","koaza":"","lat":31.423392,"lng":130.332144,"zip":"8970001"},{"town":"金峰町池辺","koaza":"","lat":31.469437,"lng":130.327374,"zip":"8993405"},{"town":"金峰町浦之名","koaza":"","lat":31.447421,"lng":130.373381,"zip":"8993516"},{"town":"金峰町大野","koaza":"","lat":31.479269,"lng":130.328972,"zip":"8993401"},{"town":"金峰町尾下","koaza":"","lat":31.460281,"lng":130.354349,"zip":"8993403"},{"town":"金峰町白川","koaza":"","lat":31.426631,"lng":130.372474,"zip":"8993513"},{"town":"金峰町大坂","koaza":"","lat":31.465537,"lng":130.401956,"zip":"8993402"},{"town":"金峰町高橋","koaza":"","lat":31.457049,"lng":130.310716,"zip":"8993404"},{"town":"金峰町中津野","koaza":"","lat":31.446327,"lng":130.353445,"zip":"8993515"},{"town":"金峰町新山","koaza":"","lat":31.438512,"lng":130.351084,"zip":"8993514"},{"town":"金峰町花瀬","koaza":"","lat":31.42254,"lng":130.340524,"zip":"8993512"},{"town":"金峰町宮崎","koaza":"","lat":31.440024,"lng":130.329207,"zip":"8993511"},{"town":"坊津町秋目","koaza":"","lat":31.358523,"lng":130.19461,"zip":"8980212"},{"town":"坊津町久志","koaza":"","lat":31.312839,"lng":130.233074,"zip":"8980211"},{"town":"坊津町泊","koaza":"","lat":31.288925,"lng":130.243193,"zip":"8980102"},{"town":"坊津町坊","koaza":"","lat":31.262912,"lng":130.241571,"zip":"8980101"}]