[{"town":"頴娃町上別府","koaza":"","lat":31.30756,"lng":130.465004,"zip":"8910705"},{"town":"頴娃町郡","koaza":"","lat":31.245316,"lng":130.520407,"zip":"8910701"},{"town":"頴娃町御領","koaza":"","lat":31.267154,"lng":130.472178,"zip":"8910703"},{"town":"頴娃町別府","koaza":"","lat":31.273897,"lng":130.430288,"zip":"8910704"},{"town":"頴娃町牧之内","koaza":"","lat":31.276255,"lng":130.5144,"zip":"8910702"},{"town":"川辺町今田","koaza":"","lat":31.387117,"lng":130.409483,"zip":"8970212"},{"town":"川辺町小野","koaza":"","lat":31.379761,"lng":130.407965,"zip":"8970213"},{"town":"川辺町上山田","koaza":"","lat":31.337637,"lng":130.332203,"zip":"8970131"},{"town":"川辺町清水","koaza":"","lat":31.435042,"lng":130.455224,"zip":"8970202"},{"town":"川辺町神殿","koaza":"","lat":31.445966,"lng":130.428121,"zip":"8970201"},{"town":"川辺町下山田","koaza":"","lat":31.389039,"lng":130.353716,"zip":"8970133"},{"town":"川辺町高田","koaza":"","lat":31.360666,"lng":130.379529,"zip":"8970223"},{"town":"川辺町田部田","koaza":"","lat":31.398174,"lng":130.381236,"zip":"8970221"},{"town":"川辺町永田","koaza":"","lat":31.391857,"lng":130.370717,"zip":"8970222"},{"town":"川辺町中山田","koaza":"","lat":31.367636,"lng":130.353503,"zip":"8970132"},{"town":"川辺町野崎","koaza":"","lat":31.422974,"lng":130.467444,"zip":"8970203"},{"town":"川辺町野間","koaza":"","lat":31.413855,"lng":130.39968,"zip":"8970205"},{"town":"川辺町平山","koaza":"","lat":31.401674,"lng":130.391209,"zip":"8970215"},{"town":"川辺町古殿","koaza":"","lat":31.407618,"lng":130.409346,"zip":"8970204"},{"town":"川辺町宮","koaza":"","lat":31.369776,"lng":130.399435,"zip":"8970214"},{"town":"川辺町本別府","koaza":"","lat":31.336662,"lng":130.381965,"zip":"8970224"},{"town":"川辺町両添","koaza":"","lat":31.394983,"lng":130.407487,"zip":"8970211"},{"town":"知覧町厚地","koaza":"","lat":31.393875,"lng":130.44319,"zip":"8970301"},{"town":"知覧町郡","koaza":"","lat":31.388988,"lng":130.473208,"zip":"8970302"},{"town":"知覧町塩屋","koaza":"","lat":31.282543,"lng":130.381569,"zip":"8910911"},{"town":"知覧町瀬世","koaza":"","lat":31.340389,"lng":130.42465,"zip":"8970305"},{"town":"知覧町永里","koaza":"","lat":31.363862,"lng":130.470824,"zip":"8970303"},{"town":"知覧町西元","koaza":"","lat":31.335914,"lng":130.405625,"zip":"8970306"},{"town":"知覧町東別府","koaza":"","lat":31.322085,"lng":130.435805,"zip":"8970304"},{"town":"知覧町南別府","koaza":"","lat":31.268867,"lng":130.400357,"zip":"8910912"},{"town":"知覧町瀬世","koaza":"ちょげさ原","lat":31.35099,"lng":130.428636,"zip":"8970305"}]