[{"town":"旭町","koaza":"","lat":31.48965,"lng":130.698157,"zip":"8912125"},{"town":"市木","koaza":"","lat":31.512755,"lng":130.74216,"zip":"8912103"},{"town":"牛根境","koaza":"","lat":31.617402,"lng":130.802481,"zip":"8994631"},{"town":"牛根麓","koaza":"","lat":31.557646,"lng":130.761555,"zip":"8994632"},{"town":"海潟","koaza":"","lat":31.533897,"lng":130.754483,"zip":"8912101"},{"town":"上町","koaza":"","lat":31.493591,"lng":130.700647,"zip":"8912122"},{"town":"錦江町","koaza":"","lat":31.491056,"lng":130.695216,"zip":"8912124"},{"town":"柊原","koaza":"","lat":31.463406,"lng":130.718826,"zip":"8912116"},{"town":"栄町","koaza":"","lat":31.49183,"lng":130.699358,"zip":"8912121"},{"town":"潮彩町一丁目","koaza":"","lat":31.484166,"lng":130.692825,"zip":"8912117"},{"town":"潮彩町二丁目","koaza":"","lat":31.481609,"lng":130.693887,"zip":"8912117"},{"town":"潮彩町三丁目","koaza":"","lat":31.479446,"lng":130.694185,"zip":"8912117"},{"town":"下宮町","koaza":"","lat":31.487633,"lng":130.696692,"zip":"8912127"},{"town":"新城","koaza":"","lat":31.439987,"lng":130.768114,"zip":"8912114"},{"town":"新御堂","koaza":"","lat":31.485155,"lng":130.770718,"zip":"8912111"},{"town":"高城","koaza":"","lat":31.470968,"lng":130.736853,"zip":"8912113"},{"town":"田神","koaza":"","lat":31.502109,"lng":130.756756,"zip":"8912104"},{"town":"中央町","koaza":"","lat":31.491504,"lng":130.703535,"zip":"8912106"},{"town":"中俣","koaza":"","lat":31.5198,"lng":130.716063,"zip":"8912102"},{"town":"浜平","koaza":"","lat":31.47427,"lng":130.707722,"zip":"8912115"},{"town":"二川","koaza":"","lat":31.575084,"lng":130.800754,"zip":"8994633"},{"town":"本城","koaza":"","lat":31.480882,"lng":130.710768,"zip":"8912112"},{"town":"本町","koaza":"","lat":31.49072,"lng":130.700925,"zip":"8912123"},{"town":"松原町","koaza":"","lat":31.4894,"lng":130.702517,"zip":"8912105"},{"town":"南松原町","koaza":"","lat":31.487774,"lng":130.700958,"zip":"8912126"},{"town":"田神","koaza":"下福町","lat":31.494632,"lng":130.701292,"zip":"8912104"}]