[{"town":"大字赤連","koaza":"","lat":28.321085,"lng":129.946599,"zip":"8916200"},{"town":"大字阿伝","koaza":"","lat":28.307087,"lng":129.983034,"zip":"8916200"},{"town":"大字荒木","koaza":"","lat":28.300114,"lng":129.924445,"zip":"8916200"},{"town":"大字池治","koaza":"","lat":28.325977,"lng":129.95571,"zip":"8916200"},{"town":"大字伊砂","koaza":"","lat":28.344907,"lng":129.978985,"zip":"8916200"},{"town":"大字伊実久","koaza":"","lat":28.352025,"lng":129.991423,"zip":"8916200"},{"town":"大字浦原","koaza":"","lat":28.28509,"lng":129.959159,"zip":"8916200"},{"town":"大字大朝戸","koaza":"","lat":28.326617,"lng":129.974488,"zip":"8916200"},{"town":"大字小野津","koaza":"","lat":28.366592,"lng":130.006976,"zip":"8916200"},{"town":"大字嘉鈍","koaza":"","lat":28.318059,"lng":129.991242,"zip":"8916200"},{"town":"大字上嘉鉄","koaza":"","lat":28.284231,"lng":129.946515,"zip":"8916200"},{"town":"大字川嶺","koaza":"","lat":28.297945,"lng":129.952813,"zip":"8916200"},{"town":"大字城久","koaza":"","lat":28.314767,"lng":129.96148,"zip":"8916200"},{"town":"大字花良治","koaza":"","lat":28.292259,"lng":129.975375,"zip":"8916200"},{"town":"大字坂嶺","koaza":"","lat":28.340749,"lng":129.974778,"zip":"8916200"},{"town":"大字佐手久","koaza":"","lat":28.348966,"lng":130.014464,"zip":"8916200"},{"town":"大字塩道","koaza":"","lat":28.347322,"lng":130.003596,"zip":"8916200"},{"town":"大字志戸桶","koaza":"","lat":28.363465,"lng":130.020827,"zip":"8916200"},{"town":"大字島中","koaza":"","lat":28.324404,"lng":129.963995,"zip":"8916200"},{"town":"大字白水","koaza":"","lat":28.330561,"lng":129.996764,"zip":"8916200"},{"town":"大字早町","koaza":"","lat":28.337856,"lng":129.996031,"zip":"8916200"},{"town":"大字滝川","koaza":"","lat":28.318668,"lng":129.967831,"zip":"8916200"},{"town":"大字手久津久","koaza":"","lat":28.29287,"lng":129.936259,"zip":"8916200"},{"town":"大字中熊","koaza":"","lat":28.336815,"lng":129.967341,"zip":"8916200"},{"town":"大字中里","koaza":"","lat":28.313931,"lng":129.922962,"zip":"8916200"},{"town":"大字中間","koaza":"","lat":28.332441,"lng":129.961683,"zip":"8916200"},{"town":"大字長嶺","koaza":"","lat":28.340688,"lng":129.988521,"zip":"8916200"},{"town":"大字西目","koaza":"","lat":28.333891,"lng":129.979119,"zip":"8916200"},{"town":"大字羽里","koaza":"","lat":28.308838,"lng":129.951114,"zip":"8916200"},{"town":"大字山田","koaza":"","lat":28.306029,"lng":129.962472,"zip":"8916200"},{"town":"大字湾","koaza":"","lat":28.313395,"lng":129.937661,"zip":"8916200"}]