[{"town":"赤尾木","koaza":"","lat":28.412793,"lng":129.629876,"zip":"8940411"},{"town":"秋名","koaza":"","lat":28.447043,"lng":129.558367,"zip":"8940333"},{"town":"芦徳","koaza":"","lat":28.422201,"lng":129.618798,"zip":"8940412"},{"town":"安木屋場","koaza":"","lat":28.475377,"lng":129.610007,"zip":"8940323"},{"town":"幾里","koaza":"","lat":28.446147,"lng":129.562921,"zip":"8940332"},{"town":"浦","koaza":"","lat":28.408747,"lng":129.586799,"zip":"8940104"},{"town":"大勝","koaza":"","lat":28.39506,"lng":129.58222,"zip":"8940105"},{"town":"嘉渡","koaza":"","lat":28.455561,"lng":129.568078,"zip":"8940331"},{"town":"久場","koaza":"","lat":28.43389,"lng":129.595939,"zip":"8940322"},{"town":"瀬留","koaza":"","lat":28.421967,"lng":129.591111,"zip":"8940102"},{"town":"龍郷","koaza":"","lat":28.451049,"lng":129.60435,"zip":"8940321"},{"town":"戸口","koaza":"","lat":28.367895,"lng":129.58202,"zip":"8940107"},{"town":"中勝","koaza":"","lat":28.384666,"lng":129.573245,"zip":"8940106"},{"town":"屋入","koaza":"","lat":28.414673,"lng":129.600858,"zip":"8940101"}]