[{"town":"井之川","koaza":"","lat":27.77352,"lng":129.005143,"zip":"8917114"},{"town":"尾母","koaza":"","lat":27.713773,"lng":128.9872,"zip":"8917104"},{"town":"金見","koaza":"","lat":27.886474,"lng":128.957728,"zip":"8917422"},{"town":"神之嶺","koaza":"","lat":27.768061,"lng":129.024366,"zip":"8917113"},{"town":"亀津","koaza":"","lat":27.741297,"lng":128.991815,"zip":"8917101"},{"town":"亀徳","koaza":"","lat":27.748295,"lng":129.015519,"zip":"8917102"},{"town":"花徳","koaza":"","lat":27.821446,"lng":128.951008,"zip":"8917425"},{"town":"山","koaza":"","lat":27.861892,"lng":128.94281,"zip":"8917423"},{"town":"下久志","koaza":"","lat":27.793083,"lng":129.001037,"zip":"8917115"},{"town":"諸田","koaza":"","lat":27.767062,"lng":129.031289,"zip":"8917112"},{"town":"白井","koaza":"","lat":27.732346,"lng":128.962195,"zip":"8917105"},{"town":"手々","koaza":"","lat":27.880967,"lng":128.925469,"zip":"8917421"},{"town":"徳和瀬","koaza":"","lat":27.754541,"lng":129.024349,"zip":"8917111"},{"town":"轟木","koaza":"","lat":27.834404,"lng":128.932717,"zip":"8917424"},{"town":"母間","koaza":"","lat":27.798324,"lng":128.974747,"zip":"8917426"},{"town":"南原","koaza":"","lat":27.704074,"lng":128.999354,"zip":"8917103"},{"town":"亀津","koaza":"大船町","lat":27.737037,"lng":129.023799,"zip":"8917101"},{"town":"亀徳","koaza":"兼久晴","lat":27.742568,"lng":129.025113,"zip":"8917102"}]