[{"town":"池島町","koaza":"","lat":31.717551,"lng":130.614762,"zip":"8995653"},{"town":"大山","koaza":"","lat":31.765215,"lng":130.626532,"zip":"8995544"},{"town":"加治木町朝日町","koaza":"","lat":31.734945,"lng":130.668879,"zip":"8995213"},{"town":"加治木町仮屋町","koaza":"","lat":31.74117,"lng":130.664827,"zip":"8995214"},{"town":"加治木町木田","koaza":"","lat":31.74001,"lng":130.645416,"zip":"8995241"},{"town":"加治木町錦江町","koaza":"","lat":31.735334,"lng":130.661147,"zip":"8995222"},{"town":"加治木町小山田","koaza":"","lat":31.77697,"lng":130.67756,"zip":"8995203"},{"town":"加治木町新生町","koaza":"","lat":31.739198,"lng":130.655412,"zip":"8995223"},{"town":"加治木町新富町","koaza":"","lat":31.741435,"lng":130.66918,"zip":"8995211"},{"town":"加治木町諏訪町","koaza":"","lat":31.737656,"lng":130.669699,"zip":"8995212"},{"town":"加治木町反土","koaza":"","lat":31.741457,"lng":130.659847,"zip":"8995231"},{"town":"加治木町西別府","koaza":"","lat":31.788185,"lng":130.640065,"zip":"8995201"},{"town":"加治木町日木山","koaza":"","lat":31.745601,"lng":130.677473,"zip":"8995204"},{"town":"加治木町辺川","koaza":"","lat":31.791633,"lng":130.655472,"zip":"8995202"},{"town":"加治木町港町","koaza":"","lat":31.731935,"lng":130.664407,"zip":"8995221"},{"town":"加治木町本町","koaza":"","lat":31.737402,"lng":130.664589,"zip":"8995215"},{"town":"上名","koaza":"","lat":31.808459,"lng":130.624599,"zip":"8995542"},{"town":"蒲生町漆","koaza":"","lat":31.832088,"lng":130.549712,"zip":"8995301"},{"town":"蒲生町上久徳","koaza":"","lat":31.766546,"lng":130.578594,"zip":"8995302"},{"town":"蒲生町北","koaza":"","lat":31.777521,"lng":130.547721,"zip":"8995303"},{"town":"蒲生町下久徳","koaza":"","lat":31.751609,"lng":130.585811,"zip":"8995304"},{"town":"蒲生町白男","koaza":"","lat":31.760454,"lng":130.510485,"zip":"8995305"},{"town":"蒲生町西浦","koaza":"","lat":31.809056,"lng":130.537748,"zip":"8995306"},{"town":"蒲生町久末","koaza":"","lat":31.754698,"lng":130.540992,"zip":"8995307"},{"town":"蒲生町米丸","koaza":"","lat":31.787738,"lng":130.570608,"zip":"8995308"},{"town":"北山","koaza":"","lat":31.838625,"lng":130.603191,"zip":"8995541"},{"town":"木津志","koaza":"","lat":31.822693,"lng":130.582699,"zip":"8995545"},{"town":"三拾町","koaza":"","lat":31.750483,"lng":130.621851,"zip":"8995412"},{"town":"下名","koaza":"","lat":31.768008,"lng":130.613033,"zip":"8995543"},{"town":"住吉","koaza":"","lat":31.765586,"lng":130.592304,"zip":"8995405"},{"town":"寺師","koaza":"","lat":31.779134,"lng":130.594723,"zip":"8995401"},{"town":"豊留","koaza":"","lat":31.75506,"lng":130.613662,"zip":"8995413"},{"town":"永池町","koaza":"","lat":31.716028,"lng":130.61185,"zip":"8995654"},{"town":"永瀬","koaza":"","lat":31.757379,"lng":130.597611,"zip":"8995404"},{"town":"中津野","koaza":"","lat":31.751901,"lng":130.609264,"zip":"8995402"},{"town":"鍋倉","koaza":"","lat":31.748078,"lng":130.632447,"zip":"8995411"},{"town":"西姶良一丁目","koaza":"","lat":31.729201,"lng":130.604102,"zip":"8995656"},{"town":"西姶良二丁目","koaza":"","lat":31.731805,"lng":130.603415,"zip":"8995656"},{"town":"西姶良三丁目","koaza":"","lat":31.731128,"lng":130.598345,"zip":"8995656"},{"town":"西姶良四丁目","koaza":"","lat":31.734223,"lng":130.600329,"zip":"8995656"},{"town":"西宮島町","koaza":"","lat":31.725194,"lng":130.621419,"zip":"8995433"},{"town":"西餅田","koaza":"","lat":31.727597,"lng":130.617151,"zip":"8995400"},{"town":"東餅田","koaza":"","lat":31.726143,"lng":130.635031,"zip":"8995400"},{"town":"平松","koaza":"","lat":31.713483,"lng":130.588212,"zip":"8995652"},{"town":"深水","koaza":"","lat":31.758644,"lng":130.619428,"zip":"8995414"},{"town":"船津","koaza":"","lat":31.743272,"lng":130.602235,"zip":"8995655"},{"town":"増田","koaza":"","lat":31.754602,"lng":130.603037,"zip":"8995403"},{"town":"松原町一丁目","koaza":"","lat":31.719189,"lng":130.63044,"zip":"8995422"},{"town":"松原町二丁目","koaza":"","lat":31.721842,"lng":130.63248,"zip":"8995422"},{"town":"松原町三丁目","koaza":"","lat":31.723883,"lng":130.634011,"zip":"8995422"},{"town":"宮島町","koaza":"","lat":31.726787,"lng":130.62662,"zip":"8995432"},{"town":"脇元","koaza":"","lat":31.693821,"lng":130.610326,"zip":"8995651"},{"town":"脇元","koaza":"橋ノ口","lat":31.706365,"lng":130.615396,"zip":"8995651"},{"town":"西餅田","koaza":"上椨木","lat":31.737789,"lng":130.624225,"zip":"8995400"},{"town":"加治木町木田","koaza":"松原添","lat":31.750607,"lng":130.664082,"zip":"8995241"}]