[{"town":"大隅町荒谷","koaza":"","lat":31.545156,"lng":130.944648,"zip":"8998211"},{"town":"大隅町岩川","koaza":"","lat":31.606077,"lng":130.956554,"zip":"8998102"},{"town":"大隅町大谷","koaza":"","lat":31.597017,"lng":130.937298,"zip":"8998421"},{"town":"大隅町境木町","koaza":"","lat":31.580634,"lng":131.006034,"zip":"8998213"},{"town":"大隅町坂元","koaza":"","lat":31.632066,"lng":130.900914,"zip":"8998422"},{"town":"大隅町下窪町","koaza":"","lat":31.58304,"lng":131.003256,"zip":"8998106"},{"town":"大隅町須田木","koaza":"","lat":31.612212,"lng":130.879124,"zip":"8998423"},{"town":"大隅町段中町","koaza":"","lat":31.586109,"lng":131.002148,"zip":"8998105"},{"town":"大隅町月野","koaza":"","lat":31.560287,"lng":130.990518,"zip":"8998212"},{"town":"大隅町恒吉","koaza":"","lat":31.586111,"lng":130.910725,"zip":"8998424"},{"town":"大隅町中之内","koaza":"","lat":31.632073,"lng":130.968197,"zip":"8998103"},{"town":"大隅町鳴神町","koaza":"","lat":31.586827,"lng":131.005192,"zip":"8998104"},{"town":"末吉町岩崎","koaza":"","lat":31.613321,"lng":131.015568,"zip":"8998101"},{"town":"末吉町上町一丁目","koaza":"","lat":31.653245,"lng":131.024079,"zip":"8998609"},{"town":"末吉町上町二丁目","koaza":"","lat":31.651688,"lng":131.025596,"zip":"8998609"},{"town":"末吉町上町三丁目","koaza":"","lat":31.650196,"lng":131.027113,"zip":"8998609"},{"town":"末吉町上町四丁目","koaza":"","lat":31.651905,"lng":131.021576,"zip":"8998609"},{"town":"末吉町上町五丁目","koaza":"","lat":31.650023,"lng":131.023549,"zip":"8998609"},{"town":"末吉町上町六丁目","koaza":"","lat":31.648725,"lng":131.025015,"zip":"8998609"},{"town":"末吉町上町七丁目","koaza":"","lat":31.649093,"lng":131.020793,"zip":"8998609"},{"town":"末吉町栄町一丁目","koaza":"","lat":31.655001,"lng":131.018228,"zip":"8998602"},{"town":"末吉町栄町二丁目","koaza":"","lat":31.657327,"lng":131.01787,"zip":"8998602"},{"town":"末吉町新町一丁目","koaza":"","lat":31.657009,"lng":131.020877,"zip":"8998603"},{"town":"末吉町新町二丁目","koaza":"","lat":31.659009,"lng":131.020453,"zip":"8998603"},{"town":"末吉町諏訪方","koaza":"","lat":31.660066,"lng":130.992432,"zip":"8998604"},{"town":"末吉町二之方","koaza":"","lat":31.636108,"lng":131.029084,"zip":"8998605"},{"town":"末吉町深川","koaza":"","lat":31.689669,"lng":130.990303,"zip":"8998606"},{"town":"末吉町本町一丁目","koaza":"","lat":31.655226,"lng":131.020113,"zip":"8998607"},{"town":"末吉町本町二丁目","koaza":"","lat":31.656937,"lng":131.019469,"zip":"8998607"},{"town":"末吉町南之郷","koaza":"","lat":31.630007,"lng":131.079916,"zip":"8998608"},{"town":"財部町北俣","koaza":"","lat":31.742102,"lng":130.941201,"zip":"8994102"},{"town":"財部町下財部","koaza":"","lat":31.762017,"lng":130.972123,"zip":"8994103"},{"town":"財部町南俣","koaza":"","lat":31.699345,"lng":130.932867,"zip":"8994101"},{"town":"末吉町岩崎","koaza":"宮原","lat":31.597837,"lng":130.996954,"zip":"8998101"},{"town":"末吉町岩崎","koaza":"岩南","lat":31.594323,"lng":131.004533,"zip":"8998101"}]