[{"town":"安房","koaza":"","lat":30.305076,"lng":130.649554,"zip":"8914311"},{"town":"一湊","koaza":"","lat":30.449195,"lng":130.481755,"zip":"8914203"},{"town":"尾之間","koaza":"","lat":30.243354,"lng":130.554358,"zip":"8914404"},{"town":"楠川","koaza":"","lat":30.405176,"lng":130.60215,"zip":"8914206"},{"town":"口永良部島","koaza":"","lat":30.45614,"lng":130.222914,"zip":"8914208"},{"town":"栗生","koaza":"","lat":30.281144,"lng":130.426852,"zip":"8914409"},{"town":"小島","koaza":"","lat":30.236217,"lng":130.530485,"zip":"8914405"},{"town":"小瀬田","koaza":"","lat":30.384884,"lng":130.645459,"zip":"8914207"},{"town":"志戸子","koaza":"","lat":30.444122,"lng":130.517592,"zip":"8914204"},{"town":"永田","koaza":"","lat":30.364457,"lng":130.384002,"zip":"8914201"},{"town":"中間","koaza":"","lat":30.253063,"lng":130.441105,"zip":"8914408"},{"town":"原","koaza":"","lat":30.247808,"lng":130.577932,"zip":"8914403"},{"town":"平内","koaza":"","lat":30.237902,"lng":130.502274,"zip":"8914406"},{"town":"船行","koaza":"","lat":30.351301,"lng":130.657305,"zip":"8914312"},{"town":"宮之浦","koaza":"","lat":30.42549,"lng":130.565584,"zip":"8914205"},{"town":"麦生","koaza":"","lat":30.26475,"lng":130.601344,"zip":"8914401"},{"town":"湯泊","koaza":"","lat":30.244184,"lng":130.471239,"zip":"8914407"},{"town":"吉田","koaza":"","lat":30.431661,"lng":130.465424,"zip":"8914202"},{"town":"安房","koaza":"新次山","lat":30.319691,"lng":130.65753,"zip":"8914311"}]