[{"town":"青山町","koaza":"","lat":31.777885,"lng":130.272309,"zip":"8950044"},{"town":"天辰町","koaza":"","lat":31.83295,"lng":130.329698,"zip":"8950011"},{"town":"入来町浦之名","koaza":"","lat":31.774495,"lng":130.457911,"zip":"8951402"},{"town":"入来町副田","koaza":"","lat":31.826549,"lng":130.432809,"zip":"8951401"},{"town":"運動公園町","koaza":"","lat":31.850091,"lng":130.301624,"zip":"8950214"},{"town":"網津町","koaza":"","lat":31.87119,"lng":130.224781,"zip":"8991925"},{"town":"大小路町","koaza":"","lat":31.823234,"lng":130.30479,"zip":"8950076"},{"town":"尾白江町","koaza":"","lat":31.781107,"lng":130.303699,"zip":"8950035"},{"town":"鹿島町藺牟田","koaza":"","lat":31.758078,"lng":129.785803,"zip":"8961301"},{"town":"勝目町","koaza":"","lat":31.783851,"lng":130.320106,"zip":"8950031"},{"town":"上甑町江石","koaza":"","lat":31.816575,"lng":129.881804,"zip":"8961203"},{"town":"上甑町小島","koaza":"","lat":31.852206,"lng":129.865967,"zip":"8961204"},{"town":"上甑町桑之浦","koaza":"","lat":31.86017,"lng":129.827954,"zip":"8961206"},{"town":"上甑町瀬上","koaza":"","lat":31.868789,"lng":129.857968,"zip":"8961205"},{"town":"上甑町平良","koaza":"","lat":31.796661,"lng":129.823877,"zip":"8961281"},{"town":"上甑町中甑","koaza":"","lat":31.836952,"lng":129.867476,"zip":"8961201"},{"town":"上甑町中野","koaza":"","lat":31.838615,"lng":129.884348,"zip":"8961202"},{"town":"上川内町","koaza":"","lat":31.841804,"lng":130.280421,"zip":"8950067"},{"town":"川永野町","koaza":"","lat":31.766669,"lng":130.320589,"zip":"8950033"},{"town":"神田町","koaza":"","lat":31.813947,"lng":130.304552,"zip":"8950052"},{"town":"久住町","koaza":"","lat":31.849741,"lng":130.384722,"zip":"8950004"},{"town":"楠元町","koaza":"","lat":31.849378,"lng":130.34121,"zip":"8950002"},{"town":"隈之城町","koaza":"","lat":31.796478,"lng":130.296819,"zip":"8950041"},{"town":"久見崎町","koaza":"","lat":31.825756,"lng":130.206786,"zip":"8950132"},{"town":"祁答院町藺牟田","koaza":"","lat":31.817475,"lng":130.489877,"zip":"8951502"},{"town":"祁答院町上手","koaza":"","lat":31.860188,"lng":130.531516,"zip":"8951503"},{"town":"祁答院町黒木","koaza":"","lat":31.88018,"lng":130.550085,"zip":"8951504"},{"town":"祁答院町下手","koaza":"","lat":31.865267,"lng":130.484585,"zip":"8951501"},{"town":"国分寺町","koaza":"","lat":31.835546,"lng":130.303263,"zip":"8950073"},{"town":"小倉町","koaza":"","lat":31.853939,"lng":130.261679,"zip":"8991922"},{"town":"五代町","koaza":"","lat":31.832672,"lng":130.274762,"zip":"8950066"},{"town":"木場茶屋町","koaza":"","lat":31.769364,"lng":130.306376,"zip":"8950034"},{"town":"御陵下町","koaza":"","lat":31.83241,"lng":130.294451,"zip":"8950061"},{"town":"里町里","koaza":"","lat":31.840537,"lng":129.906495,"zip":"8961101"},{"town":"下甑町青瀬","koaza":"","lat":31.675087,"lng":129.716406,"zip":"8961521"},{"town":"下甑町片野浦","koaza":"","lat":31.658164,"lng":129.682859,"zip":"8961602"},{"town":"下甑町瀬々野浦","koaza":"","lat":31.708027,"lng":129.711103,"zip":"8961412"},{"town":"下甑町手打","koaza":"","lat":31.640238,"lng":129.694398,"zip":"8961601"},{"town":"下甑町長浜","koaza":"","lat":31.711574,"lng":129.733955,"zip":"8961411"},{"town":"城上町","koaza":"","lat":31.912278,"lng":130.288863,"zip":"8950213"},{"town":"白浜町","koaza":"","lat":31.852807,"lng":130.326196,"zip":"8950001"},{"town":"白和町","koaza":"","lat":31.818493,"lng":130.308292,"zip":"8950022"},{"town":"大王町","koaza":"","lat":31.824266,"lng":130.298403,"zip":"8950062"},{"town":"田海町","koaza":"","lat":31.885396,"lng":130.319629,"zip":"8950071"},{"town":"高江町","koaza":"","lat":31.808441,"lng":130.243974,"zip":"8950131"},{"town":"高城町","koaza":"","lat":31.853687,"lng":130.288493,"zip":"8950211"},{"town":"田崎町","koaza":"","lat":31.816681,"lng":130.331302,"zip":"8950006"},{"town":"中郷一丁目","koaza":"","lat":31.831873,"lng":130.312714,"zip":"8950072"},{"town":"中郷二丁目","koaza":"","lat":31.834357,"lng":130.309466,"zip":"8950072"},{"town":"中郷三丁目","koaza":"","lat":31.835876,"lng":130.315474,"zip":"8950072"},{"town":"中郷四丁目","koaza":"","lat":31.838249,"lng":130.3128,"zip":"8950072"},{"town":"中郷五丁目","koaza":"","lat":31.840193,"lng":130.317711,"zip":"8950072"},{"town":"中郷町","koaza":"","lat":31.843642,"lng":130.311995,"zip":"8950072"},{"town":"東郷町斧渕","koaza":"","lat":31.873611,"lng":130.35139,"zip":"8951106"},{"town":"東郷町宍野","koaza":"","lat":31.894003,"lng":130.328602,"zip":"8951101"},{"town":"東郷町鳥丸","koaza":"","lat":31.910993,"lng":130.357441,"zip":"8951103"},{"town":"東郷町南瀬","koaza":"","lat":31.869525,"lng":130.387444,"zip":"8951105"},{"town":"東郷町藤川","koaza":"","lat":31.939077,"lng":130.316836,"zip":"8951102"},{"town":"東郷町山田","koaza":"","lat":31.898883,"lng":130.383472,"zip":"8951104"},{"town":"鳥追町","koaza":"","lat":31.813261,"lng":130.311673,"zip":"8950024"},{"town":"永利町","koaza":"","lat":31.803992,"lng":130.351839,"zip":"8950005"},{"town":"中福良町","koaza":"","lat":31.790943,"lng":130.294503,"zip":"8950042"},{"town":"中村町","koaza":"","lat":31.841091,"lng":130.36477,"zip":"8950003"},{"town":"西開聞町","koaza":"","lat":31.816593,"lng":130.297892,"zip":"8950055"},{"town":"西方町","koaza":"","lat":31.915272,"lng":130.228852,"zip":"8991801"},{"town":"西向田町","koaza":"","lat":31.815006,"lng":130.305732,"zip":"8950027"},{"town":"花木町","koaza":"","lat":31.82144,"lng":130.298408,"zip":"8950064"},{"town":"原田町","koaza":"","lat":31.82849,"lng":130.307542,"zip":"8950074"},{"town":"東大小路町","koaza":"","lat":31.825114,"lng":130.31122,"zip":"8950075"},{"town":"東開聞町","koaza":"","lat":31.817645,"lng":130.302559,"zip":"8950051"},{"town":"東向田町","koaza":"","lat":31.813536,"lng":130.308723,"zip":"8950026"},{"town":"冷水町","koaza":"","lat":31.80878,"lng":130.304765,"zip":"8950053"},{"town":"平佐一丁目","koaza":"","lat":31.815609,"lng":130.312896,"zip":"8950012"},{"town":"平佐町","koaza":"","lat":31.807932,"lng":130.324309,"zip":"8950012"},{"town":"樋脇町市比野","koaza":"","lat":31.757741,"lng":130.386337,"zip":"8951203"},{"town":"樋脇町倉野","koaza":"","lat":31.847338,"lng":130.401914,"zip":"8951201"},{"town":"樋脇町塔之原","koaza":"","lat":31.812354,"lng":130.395214,"zip":"8951202"},{"town":"水引町","koaza":"","lat":31.860391,"lng":130.239066,"zip":"8991921"},{"town":"港町","koaza":"","lat":31.854879,"lng":130.208565,"zip":"8991924"},{"town":"宮内町","koaza":"","lat":31.824596,"lng":130.289968,"zip":"8950065"},{"town":"都町","koaza":"","lat":31.770743,"lng":130.295248,"zip":"8950043"},{"town":"宮崎町","koaza":"","lat":31.800077,"lng":130.318885,"zip":"8950013"},{"town":"宮里町","koaza":"","lat":31.802225,"lng":130.276356,"zip":"8950056"},{"town":"向田町","koaza":"","lat":31.808655,"lng":130.310754,"zip":"8950025"},{"town":"向田本町","koaza":"","lat":31.81736,"lng":130.306742,"zip":"8950021"},{"town":"百次町","koaza":"","lat":31.771646,"lng":130.346023,"zip":"8950007"},{"town":"矢倉町","koaza":"","lat":31.78661,"lng":130.310992,"zip":"8950036"},{"town":"山之口町","koaza":"","lat":31.78162,"lng":130.312563,"zip":"8950032"},{"town":"湯田町","koaza":"","lat":31.905167,"lng":130.243746,"zip":"8991802"},{"town":"湯島町","koaza":"","lat":31.839778,"lng":130.228785,"zip":"8991923"},{"town":"陽成町","koaza":"","lat":31.882899,"lng":130.261276,"zip":"8950212"},{"town":"横馬場町","koaza":"","lat":31.817625,"lng":130.310287,"zip":"8950023"},{"town":"寄田町","koaza":"","lat":31.802434,"lng":130.199132,"zip":"8950133"},{"town":"若葉町","koaza":"","lat":31.821456,"lng":130.300496,"zip":"8950063"},{"town":"若松町","koaza":"","lat":31.813996,"lng":130.301388,"zip":"8950054"},{"town":"湯島町","koaza":"竹島","lat":31.840351,"lng":130.219545,"zip":"8991923"},{"town":"水引町","koaza":"荒瀬","lat":31.852931,"lng":130.236232,"zip":"8991921"},{"town":"御陵下町","koaza":"公佛","lat":31.836292,"lng":130.29187,"zip":"8950061"},{"town":"矢倉町","koaza":"横道","lat":31.789843,"lng":130.312205,"zip":"8950036"},{"town":"矢倉町","koaza":"堅通","lat":31.789271,"lng":130.312396,"zip":"8950036"},{"town":"永利町","koaza":"松元","lat":31.807775,"lng":130.34729,"zip":"8950005"},{"town":"東郷町斧渕","koaza":"笹原","lat":31.859141,"lng":130.36934,"zip":"8951106"},{"town":"樋脇町市比野","koaza":"宮元","lat":31.79765,"lng":130.408838,"zip":"8951203"},{"town":"上川内町","koaza":"岩下","lat":31.838615,"lng":130.287234,"zip":"8950067"}]