[{"town":"旭町","koaza":"","lat":31.909089,"lng":130.454127,"zip":"8951814"},{"town":"柏原","koaza":"","lat":31.945463,"lng":130.455037,"zip":"8952104"},{"town":"柊野","koaza":"","lat":31.990751,"lng":130.43776,"zip":"8952131"},{"town":"久富木","koaza":"","lat":31.845907,"lng":130.446041,"zip":"8951722"},{"town":"求名","koaza":"","lat":31.964229,"lng":130.550718,"zip":"8952201"},{"town":"神子","koaza":"","lat":31.990669,"lng":130.47332,"zip":"8952102"},{"town":"紫尾","koaza":"","lat":31.967989,"lng":130.434681,"zip":"8952103"},{"town":"白男川","koaza":"","lat":31.916495,"lng":130.405395,"zip":"8951805"},{"town":"田原","koaza":"","lat":31.909915,"lng":130.478428,"zip":"8951802"},{"town":"鶴田","koaza":"","lat":31.971965,"lng":130.515654,"zip":"8952101"},{"town":"時吉","koaza":"","lat":31.919588,"lng":130.467343,"zip":"8951816"},{"town":"轟町","koaza":"","lat":31.913659,"lng":130.457973,"zip":"8951813"},{"town":"泊野","koaza":"","lat":31.955347,"lng":130.363946,"zip":"8951806"},{"town":"虎居","koaza":"","lat":31.91212,"lng":130.438841,"zip":"8951811"},{"town":"虎居町","koaza":"","lat":31.907863,"lng":130.451291,"zip":"8951812"},{"town":"中津川","koaza":"","lat":31.902875,"lng":130.548149,"zip":"8952202"},{"town":"永野","koaza":"","lat":31.916619,"lng":130.592433,"zip":"8952203"},{"town":"西新町","koaza":"","lat":31.90669,"lng":130.447701,"zip":"8951815"},{"town":"平川","koaza":"","lat":31.957951,"lng":130.398833,"zip":"8951807"},{"town":"広瀬","koaza":"","lat":31.91443,"lng":130.502368,"zip":"8951801"},{"town":"二渡","koaza":"","lat":31.876304,"lng":130.415831,"zip":"8951723"},{"town":"船木","koaza":"","lat":31.884203,"lng":130.454852,"zip":"8951804"},{"town":"宮之城屋地","koaza":"","lat":31.901126,"lng":130.45759,"zip":"8951803"},{"town":"山崎","koaza":"","lat":31.858699,"lng":130.42521,"zip":"8951721"},{"town":"湯田","koaza":"","lat":31.940462,"lng":130.471062,"zip":"8951817"}]