[{"town":"赤瀬川","koaza":"","lat":32.035026,"lng":130.208909,"zip":"8991611"},{"town":"大川","koaza":"","lat":31.955115,"lng":130.241358,"zip":"8991741"},{"town":"大丸町","koaza":"","lat":32.015805,"lng":130.196911,"zip":"8991624"},{"town":"折口","koaza":"","lat":32.060287,"lng":130.216888,"zip":"8991601"},{"town":"琴平町","koaza":"","lat":32.021213,"lng":130.194896,"zip":"8991615"},{"town":"栄町","koaza":"","lat":32.0211,"lng":130.196807,"zip":"8991616"},{"town":"塩鶴町一丁目","koaza":"","lat":32.009369,"lng":130.196003,"zip":"8991628"},{"town":"塩鶴町二丁目","koaza":"","lat":32.009778,"lng":130.193982,"zip":"8991628"},{"town":"塩浜町一丁目","koaza":"","lat":32.004064,"lng":130.195246,"zip":"8991629"},{"town":"塩浜町二丁目","koaza":"","lat":32.003981,"lng":130.19306,"zip":"8991629"},{"town":"新町","koaza":"","lat":32.024182,"lng":130.195481,"zip":"8991613"},{"town":"高松町","koaza":"","lat":32.018218,"lng":130.19822,"zip":"8991622"},{"town":"多田","koaza":"","lat":32.053927,"lng":130.236771,"zip":"8991602"},{"town":"鶴川内","koaza":"","lat":31.999444,"lng":130.278452,"zip":"8991603"},{"town":"鶴見町","koaza":"","lat":32.013834,"lng":130.195036,"zip":"8991626"},{"town":"西目","koaza":"","lat":31.989157,"lng":130.210809,"zip":"8991627"},{"town":"浜町","koaza":"","lat":32.019132,"lng":130.193606,"zip":"8991617"},{"town":"波留","koaza":"","lat":32.010145,"lng":130.204615,"zip":"8991625"},{"town":"晴海町","koaza":"","lat":32.024797,"lng":130.19366,"zip":"8991614"},{"town":"本町","koaza":"","lat":32.018435,"lng":130.195255,"zip":"8991621"},{"town":"丸尾町","koaza":"","lat":32.024415,"lng":130.196532,"zip":"8991612"},{"town":"港町","koaza":"","lat":32.017194,"lng":130.193683,"zip":"8991623"},{"town":"山下","koaza":"","lat":31.995193,"lng":130.240315,"zip":"8991604"},{"town":"脇本","koaza":"","lat":32.095394,"lng":130.202959,"zip":"8991131"}]