[{"town":"霧島大窪","koaza":"","lat":31.824185,"lng":130.859499,"zip":"8994203"},{"town":"霧島川北","koaza":"","lat":31.826365,"lng":130.823898,"zip":"8994204"},{"town":"霧島田口","koaza":"","lat":31.877493,"lng":130.870356,"zip":"8994201"},{"town":"霧島永水","koaza":"","lat":31.797019,"lng":130.838565,"zip":"8994202"},{"town":"国分上之段","koaza":"","lat":31.692717,"lng":130.833946,"zip":"8994461"},{"town":"国分上野原縄文の森","koaza":"","lat":31.712336,"lng":130.802038,"zip":"8994318"},{"town":"国分上野原テクノパーク","koaza":"","lat":31.713352,"lng":130.796087,"zip":"8994317"},{"town":"国分上井","koaza":"","lat":31.726872,"lng":130.79427,"zip":"8994313"},{"town":"国分上小川","koaza":"","lat":31.737693,"lng":130.786041,"zip":"8994316"},{"town":"国分川内","koaza":"","lat":31.717148,"lng":130.833104,"zip":"8994314"},{"town":"国分川原","koaza":"","lat":31.745281,"lng":130.826462,"zip":"8994303"},{"town":"国分清水","koaza":"","lat":31.75142,"lng":130.787804,"zip":"8994304"},{"town":"国分清水一丁目","koaza":"","lat":31.750712,"lng":130.775933,"zip":"8994304"},{"town":"国分清水二丁目","koaza":"","lat":31.756434,"lng":130.779303,"zip":"8994304"},{"town":"国分清水三丁目","koaza":"","lat":31.752074,"lng":130.779894,"zip":"8994304"},{"town":"国分清水四丁目","koaza":"","lat":31.761236,"lng":130.786109,"zip":"8994304"},{"town":"国分清水五丁目","koaza":"","lat":31.75763,"lng":130.791596,"zip":"8994304"},{"town":"国分剣之宇都町","koaza":"","lat":31.769955,"lng":130.767655,"zip":"8994355"},{"town":"国分郡田","koaza":"","lat":31.770219,"lng":130.852517,"zip":"8994305"},{"town":"国分敷根","koaza":"","lat":31.700973,"lng":130.801995,"zip":"8994462"},{"town":"国分重久","koaza":"","lat":31.779921,"lng":130.798171,"zip":"8994301"},{"town":"国分下井","koaza":"","lat":31.702022,"lng":130.848587,"zip":"8994463"},{"town":"国分城山町","koaza":"","lat":31.744062,"lng":130.776599,"zip":"8994331"},{"town":"国分新町","koaza":"","lat":31.758631,"lng":130.775663,"zip":"8994351"},{"town":"国分新町一丁目","koaza":"","lat":31.752681,"lng":130.760332,"zip":"8994351"},{"town":"国分新町二丁目","koaza":"","lat":31.752739,"lng":130.764714,"zip":"8994351"},{"town":"国分台明寺","koaza":"","lat":31.76987,"lng":130.810753,"zip":"8994302"},{"town":"国分中央一丁目","koaza":"","lat":31.74407,"lng":130.769426,"zip":"8994332"},{"town":"国分中央二丁目","koaza":"","lat":31.739235,"lng":130.774041,"zip":"8994332"},{"town":"国分中央三丁目","koaza":"","lat":31.73948,"lng":130.7647,"zip":"8994332"},{"town":"国分中央四丁目","koaza":"","lat":31.734525,"lng":130.773031,"zip":"8994332"},{"town":"国分中央五丁目","koaza":"","lat":31.735543,"lng":130.763354,"zip":"8994332"},{"town":"国分中央六丁目","koaza":"","lat":31.732863,"lng":130.770405,"zip":"8994332"},{"town":"国分名波町","koaza":"","lat":31.734609,"lng":130.779902,"zip":"8994311"},{"town":"国分野口","koaza":"","lat":31.737026,"lng":130.747416,"zip":"8994344"},{"town":"国分野口北","koaza":"","lat":31.740447,"lng":130.75174,"zip":"8994344"},{"town":"国分野口町","koaza":"","lat":31.735407,"lng":130.749875,"zip":"8994342"},{"town":"国分野口西","koaza":"","lat":31.738469,"lng":130.744896,"zip":"8994343"},{"town":"国分野口東","koaza":"","lat":31.738159,"lng":130.756262,"zip":"8994341"},{"town":"国分姫城","koaza":"","lat":31.76103,"lng":130.768463,"zip":"8994354"},{"town":"国分姫城南","koaza":"","lat":31.756081,"lng":130.767784,"zip":"8994356"},{"town":"国分広瀬","koaza":"","lat":31.712142,"lng":130.753255,"zip":"8994321"},{"town":"国分広瀬一丁目","koaza":"","lat":31.719527,"lng":130.749469,"zip":"8994321"},{"town":"国分広瀬二丁目","koaza":"","lat":31.720833,"lng":130.757434,"zip":"8994321"},{"town":"国分広瀬三丁目","koaza":"","lat":31.715758,"lng":130.757169,"zip":"8994321"},{"town":"国分広瀬四丁目","koaza":"","lat":31.712182,"lng":130.764517,"zip":"8994321"},{"town":"国分福島","koaza":"","lat":31.722414,"lng":130.763155,"zip":"8994322"},{"town":"国分福島一丁目","koaza":"","lat":31.727838,"lng":130.753312,"zip":"8994322"},{"town":"国分福島二丁目","koaza":"","lat":31.724242,"lng":130.75384,"zip":"8994322"},{"town":"国分福島三丁目","koaza":"","lat":31.730368,"lng":130.76265,"zip":"8994322"},{"town":"国分府中","koaza":"","lat":31.745171,"lng":130.751784,"zip":"8994345"},{"town":"国分府中町","koaza":"","lat":31.745612,"lng":130.75916,"zip":"8994346"},{"town":"国分松木","koaza":"","lat":31.733614,"lng":130.757373,"zip":"8994323"},{"town":"国分松木町","koaza":"","lat":31.732319,"lng":130.751961,"zip":"8994325"},{"town":"国分松木東","koaza":"","lat":31.73551,"lng":130.758356,"zip":"8994324"},{"town":"国分湊","koaza":"","lat":31.715607,"lng":130.774643,"zip":"8994315"},{"town":"国分向花","koaza":"","lat":31.76102,"lng":130.776385,"zip":"8994352"},{"town":"国分向花町","koaza":"","lat":31.747625,"lng":130.763949,"zip":"8994353"},{"town":"国分山下町","koaza":"","lat":31.727917,"lng":130.779058,"zip":"8994312"},{"town":"隼人町朝日","koaza":"","lat":31.753254,"lng":130.7205,"zip":"8995118"},{"town":"隼人町内","koaza":"","lat":31.757959,"lng":130.745124,"zip":"8995116"},{"town":"隼人町内山田","koaza":"","lat":31.748004,"lng":130.727457,"zip":"8995106"},{"town":"隼人町内山田一丁目","koaza":"","lat":31.743152,"lng":130.736425,"zip":"8995106"},{"town":"隼人町内山田二丁目","koaza":"","lat":31.746617,"lng":130.741048,"zip":"8995106"},{"town":"隼人町内山田三丁目","koaza":"","lat":31.747488,"lng":130.736632,"zip":"8995106"},{"town":"隼人町内山田四丁目","koaza":"","lat":31.740804,"lng":130.733994,"zip":"8995106"},{"town":"隼人町小田","koaza":"","lat":31.744766,"lng":130.717336,"zip":"8995105"},{"town":"隼人町小浜","koaza":"","lat":31.739895,"lng":130.690827,"zip":"8995103"},{"town":"隼人町嘉例川","koaza":"","lat":31.817535,"lng":130.732746,"zip":"8995113"},{"town":"隼人町西光寺","koaza":"","lat":31.776667,"lng":130.736911,"zip":"8995114"},{"town":"隼人町神宮一丁目","koaza":"","lat":31.749578,"lng":130.740979,"zip":"8995121"},{"town":"隼人町神宮二丁目","koaza":"","lat":31.751119,"lng":130.739072,"zip":"8995121"},{"town":"隼人町神宮三丁目","koaza":"","lat":31.752591,"lng":130.742273,"zip":"8995121"},{"town":"隼人町神宮四丁目","koaza":"","lat":31.755119,"lng":130.743015,"zip":"8995121"},{"town":"隼人町神宮五丁目","koaza":"","lat":31.752726,"lng":130.745175,"zip":"8995121"},{"town":"隼人町神宮六丁目","koaza":"","lat":31.749072,"lng":130.745185,"zip":"8995121"},{"town":"隼人町真孝","koaza":"","lat":31.72692,"lng":130.725669,"zip":"8995102"},{"town":"隼人町住吉","koaza":"","lat":31.720044,"lng":130.739367,"zip":"8995101"},{"town":"隼人町東郷","koaza":"","lat":31.769296,"lng":130.746798,"zip":"8995115"},{"town":"隼人町東郷一丁目","koaza":"","lat":31.771205,"lng":130.755638,"zip":"8995115"},{"town":"隼人町野久美田","koaza":"","lat":31.737648,"lng":130.706112,"zip":"8995104"},{"town":"隼人町姫城","koaza":"","lat":31.761981,"lng":130.761192,"zip":"8995111"},{"town":"隼人町姫城一丁目","koaza":"","lat":31.764297,"lng":130.756058,"zip":"8995111"},{"town":"隼人町姫城二丁目","koaza":"","lat":31.764349,"lng":130.758322,"zip":"8995111"},{"town":"隼人町姫城三丁目","koaza":"","lat":31.770682,"lng":130.757997,"zip":"8995111"},{"town":"隼人町松永","koaza":"","lat":31.79047,"lng":130.764775,"zip":"8995112"},{"town":"隼人町松永一丁目","koaza":"","lat":31.775049,"lng":130.759395,"zip":"8995112"},{"town":"隼人町松永二丁目","koaza":"","lat":31.774192,"lng":130.761663,"zip":"8995112"},{"town":"隼人町見次","koaza":"","lat":31.741079,"lng":130.741094,"zip":"8995117"},{"town":"福山町佳例川","koaza":"","lat":31.698529,"lng":130.880736,"zip":"8994504"},{"town":"福山町福沢","koaza":"","lat":31.639103,"lng":130.87226,"zip":"8994503"},{"town":"福山町福山","koaza":"","lat":31.656927,"lng":130.84406,"zip":"8994501"},{"town":"牧園町上中津川","koaza":"","lat":31.848013,"lng":130.78546,"zip":"8996604"},{"town":"牧園町三体堂","koaza":"","lat":31.894761,"lng":130.79063,"zip":"8996602"},{"town":"牧園町下中津川","koaza":"","lat":31.82335,"lng":130.776631,"zip":"8996506"},{"town":"牧園町宿窪田","koaza":"","lat":31.843349,"lng":130.751471,"zip":"8996507"},{"town":"牧園町高千穂","koaza":"","lat":31.89721,"lng":130.830875,"zip":"8996503"},{"town":"牧園町万膳","koaza":"","lat":31.909125,"lng":130.764847,"zip":"8996601"},{"town":"牧園町持松","koaza":"","lat":31.84212,"lng":130.815825,"zip":"8996505"},{"town":"溝辺町有川","koaza":"","lat":31.822476,"lng":130.663257,"zip":"8996401"},{"town":"溝辺町崎森","koaza":"","lat":31.77703,"lng":130.704297,"zip":"8996405"},{"town":"溝辺町麓","koaza":"","lat":31.806222,"lng":130.701763,"zip":"8996404"},{"town":"溝辺町三縄","koaza":"","lat":31.8503,"lng":130.693647,"zip":"8996403"},{"town":"横川町中ノ","koaza":"","lat":31.898146,"lng":130.709349,"zip":"8996303"},{"town":"横川町上ノ","koaza":"","lat":31.894341,"lng":130.65391,"zip":"8996301"},{"town":"横川町下ノ","koaza":"","lat":31.859797,"lng":130.715132,"zip":"8996302"},{"town":"溝辺町竹子","koaza":"","lat":31.861778,"lng":130.652742,"zip":"8996402"},{"town":"溝辺町麓","koaza":"片馬場","lat":31.818768,"lng":130.703907,"zip":"8996404"},{"town":"溝辺町麓","koaza":"松ケ迫","lat":31.797416,"lng":130.715802,"zip":"8996404"},{"town":"溝辺町麓","koaza":"曲迫","lat":31.79359,"lng":130.718309,"zip":"8996404"},{"town":"隼人町内","koaza":"早迫","lat":31.759292,"lng":130.751228,"zip":"8995116"}]