[{"town":"網代","koaza":"","lat":35.718576,"lng":139.250718,"zip":"1900155"},{"town":"伊奈","koaza":"","lat":35.730497,"lng":139.250936,"zip":"1900142"},{"town":"菅生","koaza":"","lat":35.750994,"lng":139.286829,"zip":"1970801"},{"town":"草花","koaza":"","lat":35.741169,"lng":139.305422,"zip":"1970802"},{"town":"深沢","koaza":"","lat":35.750216,"lng":139.202351,"zip":"1900172"},{"town":"養沢","koaza":"","lat":35.758795,"lng":139.164393,"zip":"1900171"},{"town":"原小宮二丁目","koaza":"","lat":35.734198,"lng":139.301484,"zip":"1970811"},{"town":"平沢西一丁目","koaza":"","lat":35.733848,"lng":139.304033,"zip":"1970816"},{"town":"秋留二丁目","koaza":"","lat":35.723677,"lng":139.296508,"zip":"1970828"},{"town":"秋留三丁目","koaza":"","lat":35.725472,"lng":139.296786,"zip":"1970828"},{"town":"秋留四丁目","koaza":"","lat":35.725486,"lng":139.29958,"zip":"1970828"},{"town":"秋留一丁目","koaza":"","lat":35.72372,"lng":139.299659,"zip":"1970828"},{"town":"秋川一丁目","koaza":"","lat":35.729685,"lng":139.287963,"zip":"1970804"},{"town":"秋川六丁目","koaza":"","lat":35.730054,"lng":139.291305,"zip":"1970804"},{"town":"秋川二丁目","koaza":"","lat":35.729835,"lng":139.285938,"zip":"1970804"},{"town":"秋川五丁目","koaza":"","lat":35.733342,"lng":139.291067,"zip":"1970804"},{"town":"秋川四丁目","koaza":"","lat":35.733151,"lng":139.288091,"zip":"1970804"},{"town":"小川東二丁目","koaza":"","lat":35.718812,"lng":139.321971,"zip":"1970822"},{"town":"小川東一丁目","koaza":"","lat":35.717283,"lng":139.325161,"zip":"1970822"},{"town":"小川東三丁目","koaza":"","lat":35.720434,"lng":139.324548,"zip":"1970822"},{"town":"二宮東一丁目","koaza":"","lat":35.722612,"lng":139.323341,"zip":"1970815"},{"town":"二宮東二丁目","koaza":"","lat":35.725386,"lng":139.322027,"zip":"1970815"},{"town":"二宮東三丁目","koaza":"","lat":35.726975,"lng":139.321798,"zip":"1970815"},{"town":"平沢東一丁目","koaza":"","lat":35.728781,"lng":139.320881,"zip":"1970813"},{"town":"上ノ台","koaza":"","lat":35.728891,"lng":139.2618,"zip":"1900143"},{"town":"秋留五丁目","koaza":"","lat":35.724465,"lng":139.302069,"zip":"1970828"},{"town":"山田","koaza":"","lat":35.723785,"lng":139.258954,"zip":"1900144"},{"town":"引田","koaza":"","lat":35.721582,"lng":139.266493,"zip":"1970834"},{"town":"原小宮","koaza":"","lat":35.736462,"lng":139.29873,"zip":"1970811"},{"town":"二宮","koaza":"","lat":35.728763,"lng":139.308042,"zip":"1970814"},{"town":"小川","koaza":"","lat":35.719123,"lng":139.315221,"zip":"1970821"},{"town":"野辺","koaza":"","lat":35.721211,"lng":139.307987,"zip":"1970823"},{"town":"渕上","koaza":"","lat":35.72381,"lng":139.273616,"zip":"1970833"},{"town":"平沢","koaza":"","lat":35.73224,"lng":139.310094,"zip":"1970812"},{"town":"秋川三丁目","koaza":"","lat":35.733023,"lng":139.285362,"zip":"1970804"},{"town":"原小宮一丁目","koaza":"","lat":35.734974,"lng":139.297693,"zip":"1970811"},{"town":"瀬戸岡","koaza":"","lat":35.73759,"lng":139.289965,"zip":"1970803"},{"town":"下代継","koaza":"","lat":35.724851,"lng":139.2818,"zip":"1970831"},{"town":"切欠","koaza":"","lat":35.714669,"lng":139.303522,"zip":"1970824"},{"town":"雨間","koaza":"","lat":35.720115,"lng":139.297346,"zip":"1970825"},{"town":"上代継","koaza":"","lat":35.723748,"lng":139.278067,"zip":"1970832"},{"town":"牛沼","koaza":"","lat":35.718438,"lng":139.287547,"zip":"1970826"},{"town":"油平","koaza":"","lat":35.725168,"lng":139.286512,"zip":"1970827"},{"town":"小峰台","koaza":"","lat":35.719649,"lng":139.234126,"zip":"1900153"},{"town":"小中野","koaza":"","lat":35.728784,"lng":139.211428,"zip":"1900165"},{"town":"戸倉","koaza":"","lat":35.71362,"lng":139.190182,"zip":"1900173"},{"town":"留原","koaza":"","lat":35.723359,"lng":139.230885,"zip":"1900152"},{"town":"舘谷台","koaza":"","lat":35.73258,"lng":139.228871,"zip":"1900166"},{"town":"舘谷","koaza":"","lat":35.729313,"lng":139.232786,"zip":"1900163"},{"town":"高尾","koaza":"","lat":35.721622,"lng":139.239316,"zip":"1900154"},{"town":"小和田","koaza":"","lat":35.721178,"lng":139.219905,"zip":"1900151"},{"town":"横沢","koaza":"","lat":35.734808,"lng":139.240705,"zip":"1900141"},{"town":"五日市","koaza":"","lat":35.729671,"lng":139.221885,"zip":"1900164"},{"town":"入野","koaza":"","lat":35.736186,"lng":139.219136,"zip":"1900161"},{"town":"乙津","koaza":"","lat":35.727254,"lng":139.177462,"zip":"1900174"},{"town":"三内","koaza":"","lat":35.736984,"lng":139.230651,"zip":"1900162"}]