[{"town":"北野四丁目","koaza":"","lat":35.673275,"lng":139.580228,"zip":"1810003"},{"town":"新川四丁目","koaza":"","lat":35.672447,"lng":139.573481,"zip":"1810004"},{"town":"中原二丁目","koaza":"","lat":35.66768,"lng":139.572816,"zip":"1810005"},{"town":"中原四丁目","koaza":"","lat":35.667317,"lng":139.567714,"zip":"1810005"},{"town":"新川一丁目","koaza":"","lat":35.669211,"lng":139.576208,"zip":"1810004"},{"town":"中原三丁目","koaza":"","lat":35.671746,"lng":139.567324,"zip":"1810005"},{"town":"大沢五丁目","koaza":"","lat":35.670924,"lng":139.534441,"zip":"1810015"},{"town":"大沢四丁目","koaza":"","lat":35.667537,"lng":139.540069,"zip":"1810015"},{"town":"中原一丁目","koaza":"","lat":35.663884,"lng":139.57678,"zip":"1810005"},{"town":"北野三丁目","koaza":"","lat":35.677093,"lng":139.580597,"zip":"1810003"},{"town":"北野一丁目","koaza":"","lat":35.677153,"lng":139.585233,"zip":"1810003"},{"town":"北野二丁目","koaza":"","lat":35.681368,"lng":139.582045,"zip":"1810003"},{"town":"新川五丁目","koaza":"","lat":35.674612,"lng":139.569532,"zip":"1810004"},{"town":"新川三丁目","koaza":"","lat":35.679358,"lng":139.571651,"zip":"1810004"},{"town":"新川二丁目","koaza":"","lat":35.677568,"lng":139.575485,"zip":"1810004"},{"town":"牟礼五丁目","koaza":"","lat":35.684521,"lng":139.579183,"zip":"1810002"},{"town":"牟礼六丁目","koaza":"","lat":35.686916,"lng":139.575403,"zip":"1810002"},{"town":"牟礼七丁目","koaza":"","lat":35.683516,"lng":139.574623,"zip":"1810002"},{"town":"新川六丁目","koaza":"","lat":35.67917,"lng":139.565688,"zip":"1810004"},{"town":"下連雀九丁目","koaza":"","lat":35.685815,"lng":139.561233,"zip":"1810013"},{"town":"上連雀八丁目","koaza":"","lat":35.686129,"lng":139.556881,"zip":"1810012"},{"town":"上連雀九丁目","koaza":"","lat":35.686404,"lng":139.552522,"zip":"1810012"},{"town":"野崎一丁目","koaza":"","lat":35.682787,"lng":139.55313,"zip":"1810014"},{"town":"大沢一丁目","koaza":"","lat":35.674459,"lng":139.540738,"zip":"1810015"},{"town":"上連雀七丁目","koaza":"","lat":35.691759,"lng":139.553011,"zip":"1810012"},{"town":"上連雀六丁目","koaza":"","lat":35.691161,"lng":139.557641,"zip":"1810012"},{"town":"下連雀七丁目","koaza":"","lat":35.690143,"lng":139.561769,"zip":"1810013"},{"town":"下連雀八丁目","koaza":"","lat":35.685364,"lng":139.566137,"zip":"1810013"},{"town":"下連雀五丁目","koaza":"","lat":35.687173,"lng":139.570563,"zip":"1810013"},{"town":"下連雀六丁目","koaza":"","lat":35.689406,"lng":139.566662,"zip":"1810013"},{"town":"深大寺一丁目","koaza":"","lat":35.691887,"lng":139.540256,"zip":"1810016"},{"town":"野崎四丁目","koaza":"","lat":35.680236,"lng":139.540757,"zip":"1810014"},{"town":"野崎二丁目","koaza":"","lat":35.684347,"lng":139.54742,"zip":"1810014"},{"town":"井口二丁目","koaza":"","lat":35.687904,"lng":139.547943,"zip":"1810011"},{"town":"深大寺二丁目","koaza":"","lat":35.687744,"lng":139.540215,"zip":"1810016"},{"town":"深大寺三丁目","koaza":"","lat":35.690668,"lng":139.536399,"zip":"1810016"},{"town":"大沢六丁目","koaza":"","lat":35.677281,"lng":139.528457,"zip":"1810015"},{"town":"大沢二丁目","koaza":"","lat":35.677067,"lng":139.534993,"zip":"1810015"},{"town":"野崎三丁目","koaza":"","lat":35.685124,"lng":139.54361,"zip":"1810014"},{"town":"井口五丁目","koaza":"","lat":35.696879,"lng":139.535292,"zip":"1810011"},{"town":"大沢三丁目","koaza":"","lat":35.685869,"lng":139.532482,"zip":"1810015"},{"town":"井口四丁目","koaza":"","lat":35.691968,"lng":139.532913,"zip":"1810011"},{"town":"牟礼三丁目","koaza":"","lat":35.689381,"lng":139.581327,"zip":"1810002"},{"town":"牟礼四丁目","koaza":"","lat":35.692842,"lng":139.574972,"zip":"1810002"},{"town":"井の頭三丁目","koaza":"","lat":35.69473,"lng":139.58199,"zip":"1810001"},{"town":"井の頭四丁目","koaza":"","lat":35.697738,"lng":139.577678,"zip":"1810001"},{"town":"下連雀一丁目","koaza":"","lat":35.69524,"lng":139.570167,"zip":"1810013"},{"town":"井の頭五丁目","koaza":"","lat":35.695247,"lng":139.576097,"zip":"1810001"},{"town":"下連雀四丁目","koaza":"","lat":35.694896,"lng":139.562244,"zip":"1810013"},{"town":"下連雀二丁目","koaza":"","lat":35.695965,"lng":139.566852,"zip":"1810013"},{"town":"下連雀三丁目","koaza":"","lat":35.699107,"lng":139.562517,"zip":"1810013"},{"town":"上連雀五丁目","koaza":"","lat":35.696918,"lng":139.552479,"zip":"1810012"},{"town":"上連雀四丁目","koaza":"","lat":35.695945,"lng":139.556752,"zip":"1810012"},{"town":"上連雀二丁目","koaza":"","lat":35.700446,"lng":139.55713,"zip":"1810012"},{"town":"上連雀三丁目","koaza":"","lat":35.700775,"lng":139.552857,"zip":"1810012"},{"town":"井口三丁目","koaza":"","lat":35.694223,"lng":139.542927,"zip":"1810011"},{"town":"井口一丁目","koaza":"","lat":35.692409,"lng":139.548075,"zip":"1810011"},{"town":"上連雀一丁目","koaza":"","lat":35.704556,"lng":139.553035,"zip":"1810012"},{"town":"井の頭二丁目","koaza":"","lat":35.692449,"lng":139.584966,"zip":"1810001"},{"town":"牟礼二丁目","koaza":"","lat":35.685464,"lng":139.582448,"zip":"1810002"},{"town":"牟礼一丁目","koaza":"","lat":35.684186,"lng":139.589261,"zip":"1810002"},{"town":"井の頭一丁目","koaza":"","lat":35.689285,"lng":139.589304,"zip":"1810001"}]