[{"town":"上北沢四丁目","koaza":"","lat":35.669726,"lng":139.620901,"zip":"1560057"},{"town":"玉川四丁目","koaza":"","lat":35.617813,"lng":139.623979,"zip":"1580094"},{"town":"玉川三丁目","koaza":"","lat":35.614063,"lng":139.624645,"zip":"1580094"},{"town":"鎌田一丁目","koaza":"","lat":35.615537,"lng":139.617052,"zip":"1570077"},{"town":"上北沢二丁目","koaza":"","lat":35.666277,"lng":139.620002,"zip":"1560057"},{"town":"船橋三丁目","koaza":"","lat":35.652687,"lng":139.62385,"zip":"1560055"},{"town":"岡本二丁目","koaza":"","lat":35.621896,"lng":139.618624,"zip":"1570076"},{"town":"八幡山一丁目","koaza":"","lat":35.661883,"lng":139.621457,"zip":"1560056"},{"town":"砧公園","koaza":"","lat":35.630386,"lng":139.620161,"zip":"1570075"},{"town":"船橋一丁目","koaza":"","lat":35.650034,"lng":139.621781,"zip":"1560055"},{"town":"桜丘五丁目","koaza":"","lat":35.645693,"lng":139.620252,"zip":"1560054"},{"town":"岡本一丁目","koaza":"","lat":35.624982,"lng":139.620582,"zip":"1570076"},{"town":"上用賀六丁目","koaza":"","lat":35.635621,"lng":139.624712,"zip":"1580098"},{"town":"桜丘四丁目","koaza":"","lat":35.640234,"lng":139.622318,"zip":"1560054"},{"town":"大蔵一丁目","koaza":"","lat":35.634197,"lng":139.619541,"zip":"1570074"},{"town":"船橋四丁目","koaza":"","lat":35.654609,"lng":139.619124,"zip":"1560055"},{"town":"船橋六丁目","koaza":"","lat":35.658034,"lng":139.622806,"zip":"1560055"},{"town":"上北沢三丁目","koaza":"","lat":35.667079,"lng":139.624295,"zip":"1560057"},{"town":"船橋七丁目","koaza":"","lat":35.657606,"lng":139.618024,"zip":"1560055"},{"town":"松原二丁目","koaza":"","lat":35.666702,"lng":139.648445,"zip":"1560043"},{"town":"松原一丁目","koaza":"","lat":35.668165,"lng":139.653306,"zip":"1560043"},{"town":"北沢五丁目","koaza":"","lat":35.670421,"lng":139.669265,"zip":"1550031"},{"town":"大原一丁目","koaza":"","lat":35.668848,"lng":139.663756,"zip":"1560041"},{"town":"大原二丁目","koaza":"","lat":35.669805,"lng":139.658982,"zip":"1560041"},{"town":"八幡山三丁目","koaza":"","lat":35.666613,"lng":139.615831,"zip":"1560056"},{"town":"南烏山六丁目","koaza":"","lat":35.66933,"lng":139.597728,"zip":"1570062"},{"town":"給田四丁目","koaza":"","lat":35.670155,"lng":139.591035,"zip":"1570064"},{"town":"北烏山九丁目","koaza":"","lat":35.671955,"lng":139.593098,"zip":"1570061"},{"town":"南烏山一丁目","koaza":"","lat":35.668681,"lng":139.611075,"zip":"1570062"},{"town":"南烏山四丁目","koaza":"","lat":35.670495,"lng":139.60301,"zip":"1570062"},{"town":"上北沢五丁目","koaza":"","lat":35.673599,"lng":139.616587,"zip":"1560057"},{"town":"南烏山二丁目","koaza":"","lat":35.667529,"lng":139.606587,"zip":"1570062"},{"town":"玉堤一丁目","koaza":"","lat":35.59494,"lng":139.651552,"zip":"1580087"},{"town":"東玉川一丁目","koaza":"","lat":35.596493,"lng":139.67825,"zip":"1580084"},{"town":"奥沢一丁目","koaza":"","lat":35.601883,"lng":139.677948,"zip":"1580083"},{"town":"奥沢二丁目","koaza":"","lat":35.606098,"lng":139.675094,"zip":"1580083"},{"town":"奥沢四丁目","koaza":"","lat":35.601659,"lng":139.669726,"zip":"1580083"},{"town":"奥沢三丁目","koaza":"","lat":35.601929,"lng":139.673632,"zip":"1580083"},{"town":"奥沢六丁目","koaza":"","lat":35.603788,"lng":139.663237,"zip":"1580083"},{"town":"奥沢五丁目","koaza":"","lat":35.60441,"lng":139.668702,"zip":"1580083"},{"town":"玉川田園調布二丁目","koaza":"","lat":35.601531,"lng":139.665586,"zip":"1580085"},{"town":"東玉川二丁目","koaza":"","lat":35.595728,"lng":139.674588,"zip":"1580084"},{"town":"玉堤二丁目","koaza":"","lat":35.598293,"lng":139.646789,"zip":"1580087"},{"town":"尾山台一丁目","koaza":"","lat":35.599367,"lng":139.656322,"zip":"1580086"},{"town":"尾山台三丁目","koaza":"","lat":35.604353,"lng":139.654971,"zip":"1580086"},{"town":"尾山台二丁目","koaza":"","lat":35.601199,"lng":139.653438,"zip":"1580086"},{"town":"深沢三丁目","koaza":"","lat":35.617234,"lng":139.65719,"zip":"1580081"},{"town":"等々力二丁目","koaza":"","lat":35.606564,"lng":139.649387,"zip":"1580082"},{"town":"等々力一丁目","koaza":"","lat":35.602624,"lng":139.648643,"zip":"1580082"},{"town":"野毛二丁目","koaza":"","lat":35.602554,"lng":139.640133,"zip":"1580092"},{"town":"野毛一丁目","koaza":"","lat":35.602386,"lng":139.644285,"zip":"1580092"},{"town":"野毛三丁目","koaza":"","lat":35.605583,"lng":139.636717,"zip":"1580092"},{"town":"玉川田園調布一丁目","koaza":"","lat":35.6,"lng":139.663687,"zip":"1580085"},{"town":"奥沢八丁目","koaza":"","lat":35.60371,"lng":139.658978,"zip":"1580083"},{"town":"玉川一丁目","koaza":"","lat":35.609331,"lng":139.630207,"zip":"1580094"},{"town":"野沢三丁目","koaza":"","lat":35.630668,"lng":139.67465,"zip":"1540003"},{"town":"奥沢七丁目","koaza":"","lat":35.60786,"lng":139.66141,"zip":"1580083"},{"town":"深沢二丁目","koaza":"","lat":35.621115,"lng":139.662893,"zip":"1580081"},{"town":"深沢一丁目","koaza":"","lat":35.616959,"lng":139.662444,"zip":"1580081"},{"town":"等々力六丁目","koaza":"","lat":35.611816,"lng":139.658514,"zip":"1580082"},{"town":"等々力四丁目","koaza":"","lat":35.609622,"lng":139.652222,"zip":"1580082"},{"town":"等々力五丁目","koaza":"","lat":35.608822,"lng":139.656175,"zip":"1580082"},{"town":"等々力七丁目","koaza":"","lat":35.614345,"lng":139.656511,"zip":"1580082"},{"town":"等々力三丁目","koaza":"","lat":35.610727,"lng":139.649197,"zip":"1580082"},{"town":"深沢四丁目","koaza":"","lat":35.620303,"lng":139.656711,"zip":"1580081"},{"town":"駒沢五丁目","koaza":"","lat":35.624658,"lng":139.657306,"zip":"1540012"},{"town":"駒沢公園","koaza":"","lat":35.625099,"lng":139.661361,"zip":"1540013"},{"town":"瀬田三丁目","koaza":"","lat":35.6207,"lng":139.634942,"zip":"1580095"},{"town":"深沢六丁目","koaza":"","lat":35.623429,"lng":139.652115,"zip":"1580081"},{"town":"中町一丁目","koaza":"","lat":35.608305,"lng":139.643779,"zip":"1580091"},{"town":"中町三丁目","koaza":"","lat":35.615324,"lng":139.644227,"zip":"1580091"},{"town":"等々力八丁目","koaza":"","lat":35.614832,"lng":139.650836,"zip":"1580082"},{"town":"中町二丁目","koaza":"","lat":35.611576,"lng":139.643877,"zip":"1580091"},{"town":"中町五丁目","koaza":"","lat":35.620961,"lng":139.641842,"zip":"1580091"},{"town":"中町四丁目","koaza":"","lat":35.617618,"lng":139.643369,"zip":"1580091"},{"town":"深沢五丁目","koaza":"","lat":35.618809,"lng":139.649523,"zip":"1580081"},{"town":"深沢七丁目","koaza":"","lat":35.622571,"lng":139.647356,"zip":"1580081"},{"town":"新町一丁目","koaza":"","lat":35.627572,"lng":139.649492,"zip":"1540014"},{"town":"深沢八丁目","koaza":"","lat":35.625681,"lng":139.645003,"zip":"1580081"},{"town":"瀬田五丁目","koaza":"","lat":35.624832,"lng":139.624973,"zip":"1580095"},{"town":"上野毛二丁目","koaza":"","lat":35.60832,"lng":139.636848,"zip":"1580093"},{"town":"上野毛一丁目","koaza":"","lat":35.61121,"lng":139.639622,"zip":"1580093"},{"town":"用賀一丁目","koaza":"","lat":35.623355,"lng":139.63971,"zip":"1580097"},{"town":"上野毛四丁目","koaza":"","lat":35.61785,"lng":139.638173,"zip":"1580093"},{"town":"瀬田一丁目","koaza":"","lat":35.614595,"lng":139.632639,"zip":"1580095"},{"town":"瀬田二丁目","koaza":"","lat":35.618715,"lng":139.632005,"zip":"1580095"},{"town":"上野毛三丁目","koaza":"","lat":35.612077,"lng":139.636184,"zip":"1580093"},{"town":"玉川二丁目","koaza":"","lat":35.61415,"lng":139.628396,"zip":"1580094"},{"town":"用賀三丁目","koaza":"","lat":35.630298,"lng":139.6368,"zip":"1580097"},{"town":"弦巻四丁目","koaza":"","lat":35.636667,"lng":139.642379,"zip":"1540016"},{"town":"玉川台一丁目","koaza":"","lat":35.623226,"lng":139.633844,"zip":"1580096"},{"town":"瀬田四丁目","koaza":"","lat":35.620109,"lng":139.626553,"zip":"1580095"},{"town":"玉川台二丁目","koaza":"","lat":35.624329,"lng":139.629918,"zip":"1580096"},{"town":"下馬五丁目","koaza":"","lat":35.636233,"lng":139.683017,"zip":"1540002"},{"town":"下馬四丁目","koaza":"","lat":35.635805,"lng":139.678447,"zip":"1540002"},{"town":"下馬六丁目","koaza":"","lat":35.629712,"lng":139.679434,"zip":"1540002"},{"town":"野沢一丁目","koaza":"","lat":35.63618,"lng":139.670821,"zip":"1540003"},{"town":"池尻一丁目","koaza":"","lat":35.644032,"lng":139.682106,"zip":"1540001"},{"town":"下馬一丁目","koaza":"","lat":35.639739,"lng":139.682756,"zip":"1540002"},{"town":"下馬二丁目","koaza":"","lat":35.641091,"lng":139.676143,"zip":"1540002"},{"town":"上馬一丁目","koaza":"","lat":35.637149,"lng":139.66806,"zip":"1540011"},{"town":"太子堂一丁目","koaza":"","lat":35.644233,"lng":139.675834,"zip":"1540004"},{"town":"三軒茶屋一丁目","koaza":"","lat":35.641199,"lng":139.671487,"zip":"1540024"},{"town":"下馬三丁目","koaza":"","lat":35.635232,"lng":139.674012,"zip":"1540002"},{"town":"野沢二丁目","koaza":"","lat":35.633927,"lng":139.66808,"zip":"1540003"},{"town":"上馬二丁目","koaza":"","lat":35.637698,"lng":139.664603,"zip":"1540011"},{"town":"野沢四丁目","koaza":"","lat":35.632441,"lng":139.667119,"zip":"1540003"},{"town":"上馬三丁目","koaza":"","lat":35.63354,"lng":139.663339,"zip":"1540011"},{"town":"上馬四丁目","koaza":"","lat":35.636575,"lng":139.661146,"zip":"1540011"},{"town":"太子堂四丁目","koaza":"","lat":35.644951,"lng":139.668227,"zip":"1540004"},{"town":"三軒茶屋二丁目","koaza":"","lat":35.6417,"lng":139.665353,"zip":"1540024"},{"town":"若林三丁目","koaza":"","lat":35.643982,"lng":139.658112,"zip":"1540023"},{"town":"若林一丁目","koaza":"","lat":35.644998,"lng":139.663322,"zip":"1540023"},{"town":"駒沢四丁目","koaza":"","lat":35.628328,"lng":139.654293,"zip":"1540012"},{"town":"駒沢二丁目","koaza":"","lat":35.634776,"lng":139.658269,"zip":"1540012"},{"town":"上馬五丁目","koaza":"","lat":35.63995,"lng":139.657878,"zip":"1540011"},{"town":"新町三丁目","koaza":"","lat":35.632993,"lng":139.647806,"zip":"1540014"},{"town":"駒沢三丁目","koaza":"","lat":35.632148,"lng":139.6531,"zip":"1540012"},{"town":"弦巻二丁目","koaza":"","lat":35.634751,"lng":139.652769,"zip":"1540016"},{"town":"新町二丁目","koaza":"","lat":35.629829,"lng":139.648728,"zip":"1540014"},{"town":"梅丘三丁目","koaza":"","lat":35.651201,"lng":139.656587,"zip":"1540022"},{"town":"若林四丁目","koaza":"","lat":35.646375,"lng":139.657134,"zip":"1540023"},{"town":"世田谷四丁目","koaza":"","lat":35.645638,"lng":139.652139,"zip":"1540017"},{"town":"弦巻三丁目","koaza":"","lat":35.637009,"lng":139.645924,"zip":"1540016"},{"town":"弦巻一丁目","koaza":"","lat":35.638039,"lng":139.651957,"zip":"1540016"},{"town":"用賀二丁目","koaza":"","lat":35.627118,"lng":139.638163,"zip":"1580097"},{"town":"桜新町一丁目","koaza":"","lat":35.628891,"lng":139.642972,"zip":"1540015"},{"town":"世田谷一丁目","koaza":"","lat":35.641435,"lng":139.649233,"zip":"1540017"},{"town":"世田谷三丁目","koaza":"","lat":35.645333,"lng":139.649539,"zip":"1540017"},{"town":"豪徳寺二丁目","koaza":"","lat":35.647717,"lng":139.647812,"zip":"1540021"},{"town":"宮坂一丁目","koaza":"","lat":35.648581,"lng":139.642352,"zip":"1560051"},{"town":"上用賀一丁目","koaza":"","lat":35.633582,"lng":139.63515,"zip":"1580098"},{"town":"上用賀三丁目","koaza":"","lat":35.632089,"lng":139.630695,"zip":"1580098"},{"town":"上用賀二丁目","koaza":"","lat":35.637047,"lng":139.633235,"zip":"1580098"},{"town":"上用賀五丁目","koaza":"","lat":35.62989,"lng":139.627329,"zip":"1580098"},{"town":"用賀四丁目","koaza":"","lat":35.628177,"lng":139.632536,"zip":"1580097"},{"town":"桜新町二丁目","koaza":"","lat":35.632243,"lng":139.642273,"zip":"1540015"},{"town":"弦巻五丁目","koaza":"","lat":35.636914,"lng":139.638228,"zip":"1540016"},{"town":"桜三丁目","koaza":"","lat":35.640435,"lng":139.637264,"zip":"1560053"},{"town":"上用賀四丁目","koaza":"","lat":35.636434,"lng":139.629041,"zip":"1580098"},{"town":"駒沢一丁目","koaza":"","lat":35.630497,"lng":139.659312,"zip":"1540012"},{"town":"桜丘一丁目","koaza":"","lat":35.642736,"lng":139.632385,"zip":"1560054"},{"town":"桜丘三丁目","koaza":"","lat":35.641139,"lng":139.627719,"zip":"1560054"},{"town":"桜一丁目","koaza":"","lat":35.645526,"lng":139.641136,"zip":"1560053"},{"town":"経堂一丁目","koaza":"","lat":35.649463,"lng":139.635487,"zip":"1560052"},{"town":"経堂五丁目","koaza":"","lat":35.647296,"lng":139.632424,"zip":"1560052"},{"town":"桜丘二丁目","koaza":"","lat":35.644928,"lng":139.626447,"zip":"1560054"},{"town":"世田谷二丁目","koaza":"","lat":35.64233,"lng":139.643153,"zip":"1540017"},{"town":"桜二丁目","koaza":"","lat":35.643813,"lng":139.637878,"zip":"1560053"},{"town":"若林五丁目","koaza":"","lat":35.649008,"lng":139.657312,"zip":"1540023"},{"town":"若林二丁目","koaza":"","lat":35.648425,"lng":139.662659,"zip":"1540023"},{"town":"太子堂二丁目","koaza":"","lat":35.646311,"lng":139.672803,"zip":"1540004"},{"town":"太子堂三丁目","koaza":"","lat":35.649631,"lng":139.669765,"zip":"1540004"},{"town":"太子堂五丁目","koaza":"","lat":35.648322,"lng":139.666637,"zip":"1540004"},{"town":"池尻二丁目","koaza":"","lat":35.647786,"lng":139.681649,"zip":"1540001"},{"town":"三宿一丁目","koaza":"","lat":35.648578,"lng":139.675271,"zip":"1540005"},{"town":"池尻三丁目","koaza":"","lat":35.649621,"lng":139.680158,"zip":"1540001"},{"town":"池尻四丁目","koaza":"","lat":35.653642,"lng":139.679955,"zip":"1540001"},{"town":"代沢三丁目","koaza":"","lat":35.655687,"lng":139.671455,"zip":"1550032"},{"town":"代沢五丁目","koaza":"","lat":35.657128,"lng":139.666409,"zip":"1550032"},{"town":"代沢二丁目","koaza":"","lat":35.658547,"lng":139.671757,"zip":"1550032"},{"town":"代沢一丁目","koaza":"","lat":35.65747,"lng":139.67713,"zip":"1550032"},{"town":"三宿二丁目","koaza":"","lat":35.65158,"lng":139.675308,"zip":"1540005"},{"town":"代沢四丁目","koaza":"","lat":35.652585,"lng":139.668483,"zip":"1550032"},{"town":"代田一丁目","koaza":"","lat":35.652706,"lng":139.662806,"zip":"1550033"},{"town":"北沢四丁目","koaza":"","lat":35.667146,"lng":139.669355,"zip":"1550031"},{"town":"代田五丁目","koaza":"","lat":35.660309,"lng":139.662606,"zip":"1550033"},{"town":"北沢二丁目","koaza":"","lat":35.661958,"lng":139.667829,"zip":"1550031"},{"town":"代田六丁目","koaza":"","lat":35.664481,"lng":139.663023,"zip":"1550033"},{"town":"梅丘二丁目","koaza":"","lat":35.650359,"lng":139.651897,"zip":"1540022"},{"town":"宮坂二丁目","koaza":"","lat":35.652307,"lng":139.643624,"zip":"1560051"},{"town":"経堂四丁目","koaza":"","lat":35.648606,"lng":139.626855,"zip":"1560052"},{"town":"代田三丁目","koaza":"","lat":35.654414,"lng":139.657549,"zip":"1550033"},{"town":"代田二丁目","koaza":"","lat":35.656961,"lng":139.662426,"zip":"1550033"},{"town":"梅丘一丁目","koaza":"","lat":35.654621,"lng":139.652583,"zip":"1540022"},{"town":"北沢一丁目","koaza":"","lat":35.662768,"lng":139.672833,"zip":"1550031"},{"town":"北沢三丁目","koaza":"","lat":35.665126,"lng":139.66902,"zip":"1550031"},{"town":"羽根木一丁目","koaza":"","lat":35.665167,"lng":139.658908,"zip":"1560042"},{"town":"代田四丁目","koaza":"","lat":35.659556,"lng":139.657205,"zip":"1550033"},{"town":"松原六丁目","koaza":"","lat":35.658529,"lng":139.651413,"zip":"1560043"},{"town":"羽根木二丁目","koaza":"","lat":35.665938,"lng":139.655875,"zip":"1560042"},{"town":"豪徳寺一丁目","koaza":"","lat":35.653642,"lng":139.648177,"zip":"1540021"},{"town":"赤堤二丁目","koaza":"","lat":35.658003,"lng":139.645777,"zip":"1560044"},{"town":"松原四丁目","koaza":"","lat":35.661586,"lng":139.644882,"zip":"1560043"},{"town":"松原五丁目","koaza":"","lat":35.66271,"lng":139.652324,"zip":"1560043"},{"town":"松原三丁目","koaza":"","lat":35.665409,"lng":139.644312,"zip":"1560043"},{"town":"経堂三丁目","koaza":"","lat":35.652394,"lng":139.629429,"zip":"1560052"},{"town":"宮坂三丁目","koaza":"","lat":35.654361,"lng":139.635256,"zip":"1560051"},{"town":"赤堤一丁目","koaza":"","lat":35.655245,"lng":139.641523,"zip":"1560044"},{"town":"桜上水一丁目","koaza":"","lat":35.658089,"lng":139.631515,"zip":"1560045"},{"town":"赤堤三丁目","koaza":"","lat":35.658392,"lng":139.638827,"zip":"1560044"},{"town":"桜上水二丁目","koaza":"","lat":35.659719,"lng":139.628055,"zip":"1560045"},{"town":"桜上水五丁目","koaza":"","lat":35.665884,"lng":139.629366,"zip":"1560045"},{"town":"上北沢一丁目","koaza":"","lat":35.662248,"lng":139.625856,"zip":"1560057"},{"town":"赤堤四丁目","koaza":"","lat":35.663,"lng":139.64028,"zip":"1560044"},{"town":"桜上水三丁目","koaza":"","lat":35.660753,"lng":139.633478,"zip":"1560045"},{"town":"赤堤五丁目","koaza":"","lat":35.663481,"lng":139.637458,"zip":"1560044"},{"town":"桜上水四丁目","koaza":"","lat":35.665415,"lng":139.633169,"zip":"1560045"},{"town":"船橋五丁目","koaza":"","lat":35.655286,"lng":139.627393,"zip":"1560055"},{"town":"経堂二丁目","koaza":"","lat":35.653119,"lng":139.633147,"zip":"1560052"},{"town":"鎌田二丁目","koaza":"","lat":35.618143,"lng":139.611045,"zip":"1570077"},{"town":"大蔵六丁目","koaza":"","lat":35.625869,"lng":139.609116,"zip":"1570074"},{"town":"岡本三丁目","koaza":"","lat":35.625918,"lng":139.615072,"zip":"1570076"},{"town":"宇奈根一丁目","koaza":"","lat":35.619275,"lng":139.606028,"zip":"1570068"},{"town":"宇奈根三丁目","koaza":"","lat":35.624141,"lng":139.603904,"zip":"1570068"},{"town":"宇奈根二丁目","koaza":"","lat":35.620324,"lng":139.600304,"zip":"1570068"},{"town":"喜多見一丁目","koaza":"","lat":35.621216,"lng":139.595949,"zip":"1570067"},{"town":"喜多見二丁目","koaza":"","lat":35.62159,"lng":139.591809,"zip":"1570067"},{"town":"大蔵二丁目","koaza":"","lat":35.633329,"lng":139.613087,"zip":"1570074"},{"town":"喜多見六丁目","koaza":"","lat":35.630812,"lng":139.604186,"zip":"1570067"},{"town":"喜多見三丁目","koaza":"","lat":35.625751,"lng":139.601062,"zip":"1570067"},{"town":"砧一丁目","koaza":"","lat":35.637611,"lng":139.617808,"zip":"1570073"},{"town":"砧二丁目","koaza":"","lat":35.64309,"lng":139.617167,"zip":"1570073"},{"town":"砧四丁目","koaza":"","lat":35.641125,"lng":139.614213,"zip":"1570073"},{"town":"大蔵四丁目","koaza":"","lat":35.630392,"lng":139.611983,"zip":"1570074"},{"town":"大蔵五丁目","koaza":"","lat":35.629653,"lng":139.607007,"zip":"1570074"},{"town":"大蔵三丁目","koaza":"","lat":35.63268,"lng":139.608807,"zip":"1570074"},{"town":"砧三丁目","koaza":"","lat":35.637174,"lng":139.612826,"zip":"1570073"},{"town":"砧五丁目","koaza":"","lat":35.637258,"lng":139.609018,"zip":"1570073"},{"town":"砧七丁目","koaza":"","lat":35.636148,"lng":139.606197,"zip":"1570073"},{"town":"砧六丁目","koaza":"","lat":35.642245,"lng":139.61083,"zip":"1570073"},{"town":"喜多見五丁目","koaza":"","lat":35.628857,"lng":139.601269,"zip":"1570067"},{"town":"喜多見七丁目","koaza":"","lat":35.631776,"lng":139.596569,"zip":"1570067"},{"town":"成城一丁目","koaza":"","lat":35.63505,"lng":139.602493,"zip":"1570066"},{"town":"祖師谷四丁目","koaza":"","lat":35.648113,"lng":139.605263,"zip":"1570072"},{"town":"祖師谷二丁目","koaza":"","lat":35.648356,"lng":139.611272,"zip":"1570072"},{"town":"祖師谷一丁目","koaza":"","lat":35.645101,"lng":139.611262,"zip":"1570072"},{"town":"祖師谷三丁目","koaza":"","lat":35.643986,"lng":139.60554,"zip":"1570072"},{"town":"砧八丁目","koaza":"","lat":35.64027,"lng":139.604999,"zip":"1570073"},{"town":"千歳台一丁目","koaza":"","lat":35.647258,"lng":139.615669,"zip":"1570071"},{"town":"成城六丁目","koaza":"","lat":35.642907,"lng":139.599471,"zip":"1570066"},{"town":"成城七丁目","koaza":"","lat":35.647658,"lng":139.599324,"zip":"1570066"},{"town":"喜多見四丁目","koaza":"","lat":35.628915,"lng":139.594681,"zip":"1570067"},{"town":"喜多見九丁目","koaza":"","lat":35.640459,"lng":139.587264,"zip":"1570067"},{"town":"喜多見八丁目","koaza":"","lat":35.635722,"lng":139.590318,"zip":"1570067"},{"town":"成城三丁目","koaza":"","lat":35.635625,"lng":139.596319,"zip":"1570066"},{"town":"成城四丁目","koaza":"","lat":35.642116,"lng":139.590893,"zip":"1570066"},{"town":"成城二丁目","koaza":"","lat":35.638245,"lng":139.598959,"zip":"1570066"},{"town":"成城五丁目","koaza":"","lat":35.642029,"lng":139.595099,"zip":"1570066"},{"town":"成城八丁目","koaza":"","lat":35.64739,"lng":139.59432,"zip":"1570066"},{"town":"船橋二丁目","koaza":"","lat":35.651194,"lng":139.618179,"zip":"1560055"},{"town":"千歳台六丁目","koaza":"","lat":35.656818,"lng":139.60731,"zip":"1570071"},{"town":"千歳台五丁目","koaza":"","lat":35.656402,"lng":139.610914,"zip":"1570071"},{"town":"千歳台二丁目","koaza":"","lat":35.651791,"lng":139.610841,"zip":"1570071"},{"town":"千歳台四丁目","koaza":"","lat":35.656649,"lng":139.613739,"zip":"1570071"},{"town":"八幡山二丁目","koaza":"","lat":35.661487,"lng":139.616837,"zip":"1560056"},{"town":"粕谷二丁目","koaza":"","lat":35.664726,"lng":139.610802,"zip":"1570063"},{"town":"祖師谷五丁目","koaza":"","lat":35.65166,"lng":139.604925,"zip":"1570072"},{"town":"祖師谷六丁目","koaza":"","lat":35.655314,"lng":139.605369,"zip":"1570072"},{"town":"上祖師谷三丁目","koaza":"","lat":35.654925,"lng":139.600804,"zip":"1570065"},{"town":"上祖師谷四丁目","koaza":"","lat":35.654643,"lng":139.595912,"zip":"1570065"},{"town":"粕谷一丁目","koaza":"","lat":35.661039,"lng":139.611138,"zip":"1570063"},{"town":"粕谷三丁目","koaza":"","lat":35.660579,"lng":139.605576,"zip":"1570063"},{"town":"千歳台三丁目","koaza":"","lat":35.651838,"lng":139.614792,"zip":"1570071"},{"town":"南烏山五丁目","koaza":"","lat":35.666961,"lng":139.602259,"zip":"1570062"},{"town":"成城九丁目","koaza":"","lat":35.651122,"lng":139.596965,"zip":"1570066"},{"town":"上祖師谷六丁目","koaza":"","lat":35.659981,"lng":139.596428,"zip":"1570065"},{"town":"上祖師谷五丁目","koaza":"","lat":35.657005,"lng":139.593268,"zip":"1570065"},{"town":"上祖師谷一丁目","koaza":"","lat":35.66337,"lng":139.600722,"zip":"1570065"},{"town":"粕谷四丁目","koaza":"","lat":35.664219,"lng":139.604797,"zip":"1570063"},{"town":"上祖師谷七丁目","koaza":"","lat":35.659685,"lng":139.59199,"zip":"1570065"},{"town":"給田一丁目","koaza":"","lat":35.66215,"lng":139.592225,"zip":"1570064"},{"town":"給田二丁目","koaza":"","lat":35.664668,"lng":139.593722,"zip":"1570064"},{"town":"上祖師谷二丁目","koaza":"","lat":35.660922,"lng":139.599705,"zip":"1570065"},{"town":"給田三丁目","koaza":"","lat":35.666,"lng":139.59252,"zip":"1570064"},{"town":"鎌田四丁目","koaza":"","lat":35.622544,"lng":139.610754,"zip":"1570077"},{"town":"鎌田三丁目","koaza":"","lat":35.620834,"lng":139.614744,"zip":"1570077"},{"town":"北烏山六丁目","koaza":"","lat":35.673752,"lng":139.596846,"zip":"1570061"},{"town":"北烏山七丁目","koaza":"","lat":35.678513,"lng":139.591969,"zip":"1570061"},{"town":"給田五丁目","koaza":"","lat":35.672684,"lng":139.586534,"zip":"1570064"},{"town":"北烏山八丁目","koaza":"","lat":35.677271,"lng":139.588947,"zip":"1570061"},{"town":"北烏山二丁目","koaza":"","lat":35.679789,"lng":139.600297,"zip":"1570061"},{"town":"北烏山五丁目","koaza":"","lat":35.678974,"lng":139.594251,"zip":"1570061"},{"town":"北烏山四丁目","koaza":"","lat":35.679384,"lng":139.596658,"zip":"1570061"},{"town":"北烏山一丁目","koaza":"","lat":35.676552,"lng":139.60487,"zip":"1570061"},{"town":"北烏山三丁目","koaza":"","lat":35.675852,"lng":139.600963,"zip":"1570061"},{"town":"南烏山三丁目","koaza":"","lat":35.671545,"lng":139.606515,"zip":"1570062"}]