[{"town":"佃二丁目","koaza":"","lat":35.668796,"lng":139.786583,"zip":"1040051"},{"town":"築地三丁目","koaza":"","lat":35.66777,"lng":139.773545,"zip":"1040045"},{"town":"湊三丁目","koaza":"","lat":35.669843,"lng":139.779681,"zip":"1040043"},{"town":"銀座四丁目","koaza":"","lat":35.67117,"lng":139.766249,"zip":"1040061"},{"town":"佃一丁目","koaza":"","lat":35.668867,"lng":139.78335,"zip":"1040051"},{"town":"銀座三丁目","koaza":"","lat":35.671967,"lng":139.767249,"zip":"1040061"},{"town":"築地二丁目","koaza":"","lat":35.668618,"lng":139.772366,"zip":"1040045"},{"town":"明石町","koaza":"","lat":35.667003,"lng":139.777695,"zip":"1040044"},{"town":"築地一丁目","koaza":"","lat":35.669305,"lng":139.770735,"zip":"1040045"},{"town":"入船三丁目","koaza":"","lat":35.670615,"lng":139.776432,"zip":"1040042"},{"town":"銀座六丁目","koaza":"","lat":35.669261,"lng":139.764429,"zip":"1040061"},{"town":"銀座七丁目","koaza":"","lat":35.668438,"lng":139.763386,"zip":"1040061"},{"town":"銀座五丁目","koaza":"","lat":35.670113,"lng":139.765481,"zip":"1040061"},{"town":"銀座八丁目","koaza":"","lat":35.666698,"lng":139.763463,"zip":"1040061"},{"town":"月島四丁目","koaza":"","lat":35.660441,"lng":139.782678,"zip":"1040052"},{"town":"月島二丁目","koaza":"","lat":35.662422,"lng":139.784769,"zip":"1040052"},{"town":"晴海五丁目","koaza":"","lat":35.649506,"lng":139.775054,"zip":"1040053"},{"town":"晴海四丁目","koaza":"","lat":35.652307,"lng":139.781451,"zip":"1040053"},{"town":"勝どき二丁目","koaza":"","lat":35.658107,"lng":139.779061,"zip":"1040054"},{"town":"晴海三丁目","koaza":"","lat":35.655037,"lng":139.778983,"zip":"1040053"},{"town":"豊海町","koaza":"","lat":35.653599,"lng":139.769159,"zip":"1040055"},{"town":"勝どき四丁目","koaza":"","lat":35.656655,"lng":139.776448,"zip":"1040054"},{"town":"勝どき五丁目","koaza":"","lat":35.657186,"lng":139.771032,"zip":"1040054"},{"town":"勝どき六丁目","koaza":"","lat":35.654772,"lng":139.773673,"zip":"1040054"},{"town":"晴海二丁目","koaza":"","lat":35.655389,"lng":139.785823,"zip":"1040053"},{"town":"月島一丁目","koaza":"","lat":35.665153,"lng":139.781855,"zip":"1040052"},{"town":"浜離宮庭園","koaza":"","lat":35.660629,"lng":139.763623,"zip":"1040046"},{"town":"勝どき三丁目","koaza":"","lat":35.659457,"lng":139.773969,"zip":"1040054"},{"town":"晴海一丁目","koaza":"","lat":35.659523,"lng":139.786164,"zip":"1040053"},{"town":"佃三丁目","koaza":"","lat":35.664659,"lng":139.787106,"zip":"1040051"},{"town":"築地七丁目","koaza":"","lat":35.665022,"lng":139.77561,"zip":"1040045"},{"town":"築地五丁目","koaza":"","lat":35.662878,"lng":139.767886,"zip":"1040045"},{"town":"築地四丁目","koaza":"","lat":35.666291,"lng":139.769449,"zip":"1040045"},{"town":"月島三丁目","koaza":"","lat":35.6629,"lng":139.779212,"zip":"1040052"},{"town":"勝どき一丁目","koaza":"","lat":35.660709,"lng":139.776476,"zip":"1040054"},{"town":"築地六丁目","koaza":"","lat":35.663691,"lng":139.773263,"zip":"1040045"},{"town":"湊二丁目","koaza":"","lat":35.671035,"lng":139.780462,"zip":"1040043"},{"town":"湊一丁目","koaza":"","lat":35.672723,"lng":139.779987,"zip":"1040043"},{"town":"入船一丁目","koaza":"","lat":35.673306,"lng":139.777667,"zip":"1040042"},{"town":"入船二丁目","koaza":"","lat":35.671909,"lng":139.776937,"zip":"1040042"},{"town":"新富一丁目","koaza":"","lat":35.672801,"lng":139.774142,"zip":"1040041"},{"town":"八丁堀二丁目","koaza":"","lat":35.67656,"lng":139.776403,"zip":"1040032"},{"town":"新富二丁目","koaza":"","lat":35.671332,"lng":139.773532,"zip":"1040041"},{"town":"銀座二丁目","koaza":"","lat":35.672914,"lng":139.768126,"zip":"1040061"},{"town":"新川一丁目","koaza":"","lat":35.676561,"lng":139.784686,"zip":"1040033"},{"town":"八丁堀三丁目","koaza":"","lat":35.675598,"lng":139.77503,"zip":"1040032"},{"town":"新川二丁目","koaza":"","lat":35.674363,"lng":139.782664,"zip":"1040033"},{"town":"日本橋茅場町三丁目","koaza":"","lat":35.677832,"lng":139.778567,"zip":"1030025"},{"town":"日本橋茅場町二丁目","koaza":"","lat":35.679003,"lng":139.779308,"zip":"1030025"},{"town":"日本橋人形町二丁目","koaza":"","lat":35.686137,"lng":139.784749,"zip":"1030013"},{"town":"八丁堀一丁目","koaza":"","lat":35.677565,"lng":139.776823,"zip":"1040032"},{"town":"八丁堀四丁目","koaza":"","lat":35.674321,"lng":139.776477,"zip":"1040032"},{"town":"銀座一丁目","koaza":"","lat":35.673632,"lng":139.770301,"zip":"1040061"},{"town":"京橋三丁目","koaza":"","lat":35.675404,"lng":139.769895,"zip":"1040031"},{"town":"京橋二丁目","koaza":"","lat":35.676656,"lng":139.771221,"zip":"1040031"},{"town":"日本橋室町一丁目","koaza":"","lat":35.685403,"lng":139.774413,"zip":"1030022"},{"town":"八重洲二丁目","koaza":"","lat":35.677927,"lng":139.768247,"zip":"1030028"},{"town":"京橋一丁目","koaza":"","lat":35.678152,"lng":139.772166,"zip":"1040031"},{"town":"日本橋二丁目","koaza":"","lat":35.681272,"lng":139.774266,"zip":"1030027"},{"town":"八重洲一丁目","koaza":"","lat":35.682265,"lng":139.770922,"zip":"1030028"},{"town":"日本橋三丁目","koaza":"","lat":35.679541,"lng":139.773747,"zip":"1030027"},{"town":"日本橋浜町二丁目","koaza":"","lat":35.688027,"lng":139.78818,"zip":"1030007"},{"town":"日本橋蛎殻町二丁目","koaza":"","lat":35.683446,"lng":139.7865,"zip":"1030014"},{"town":"日本橋浜町三丁目","koaza":"","lat":35.685222,"lng":139.789481,"zip":"1030007"},{"town":"日本橋蛎殻町一丁目","koaza":"","lat":35.682601,"lng":139.783679,"zip":"1030014"},{"town":"日本橋人形町一丁目","koaza":"","lat":35.684835,"lng":139.782191,"zip":"1030013"},{"town":"日本橋兜町","koaza":"","lat":35.681076,"lng":139.777678,"zip":"1030026"},{"town":"日本橋茅場町一丁目","koaza":"","lat":35.68074,"lng":139.779843,"zip":"1030025"},{"town":"日本橋箱崎町","koaza":"","lat":35.679924,"lng":139.786005,"zip":"1030015"},{"town":"日本橋中洲","koaza":"","lat":35.683661,"lng":139.791163,"zip":"1030008"},{"town":"日本橋浜町一丁目","koaza":"","lat":35.690386,"lng":139.787383,"zip":"1030007"},{"town":"日本橋久松町","koaza":"","lat":35.689545,"lng":139.784211,"zip":"1030005"},{"town":"日本橋堀留町二丁目","koaza":"","lat":35.688584,"lng":139.781188,"zip":"1030012"},{"town":"日本橋人形町三丁目","koaza":"","lat":35.686653,"lng":139.781547,"zip":"1030013"},{"town":"東日本橋一丁目","koaza":"","lat":35.691646,"lng":139.787026,"zip":"1030004"},{"town":"日本橋小舟町","koaza":"","lat":35.686858,"lng":139.778267,"zip":"1030024"},{"town":"日本橋一丁目","koaza":"","lat":35.682904,"lng":139.775351,"zip":"1030027"},{"town":"日本橋本町二丁目","koaza":"","lat":35.687852,"lng":139.775799,"zip":"1030023"},{"town":"日本橋本町一丁目","koaza":"","lat":35.685747,"lng":139.776872,"zip":"1030023"},{"town":"日本橋小網町","koaza":"","lat":35.682679,"lng":139.780719,"zip":"1030016"},{"town":"日本橋本石町一丁目","koaza":"","lat":35.685166,"lng":139.771774,"zip":"1030021"},{"town":"日本橋本石町二丁目","koaza":"","lat":35.686261,"lng":139.771288,"zip":"1030021"},{"town":"日本橋本石町三丁目","koaza":"","lat":35.687534,"lng":139.770761,"zip":"1030021"},{"town":"日本橋本町三丁目","koaza":"","lat":35.688895,"lng":139.77566,"zip":"1030023"},{"town":"日本橋室町三丁目","koaza":"","lat":35.687974,"lng":139.772824,"zip":"1030022"},{"town":"日本橋室町二丁目","koaza":"","lat":35.686841,"lng":139.773767,"zip":"1030022"},{"town":"日本橋本石町四丁目","koaza":"","lat":35.688585,"lng":139.770806,"zip":"1030021"},{"town":"日本橋富沢町","koaza":"","lat":35.688951,"lng":139.782661,"zip":"1030006"},{"town":"東日本橋三丁目","koaza":"","lat":35.69155,"lng":139.783599,"zip":"1030004"},{"town":"東日本橋二丁目","koaza":"","lat":35.693487,"lng":139.786769,"zip":"1030004"},{"town":"日本橋横山町","koaza":"","lat":35.693024,"lng":139.783587,"zip":"1030003"},{"town":"日本橋小伝馬町","koaza":"","lat":35.691464,"lng":139.778699,"zip":"1030001"},{"town":"日本橋室町四丁目","koaza":"","lat":35.689122,"lng":139.77239,"zip":"1030022"},{"town":"日本橋堀留町一丁目","koaza":"","lat":35.687931,"lng":139.779894,"zip":"1030012"},{"town":"日本橋大伝馬町","koaza":"","lat":35.690253,"lng":139.779661,"zip":"1030011"},{"town":"日本橋本町四丁目","koaza":"","lat":35.690183,"lng":139.775106,"zip":"1030023"},{"town":"日本橋馬喰町一丁目","koaza":"","lat":35.693636,"lng":139.782375,"zip":"1030002"},{"town":"日本橋馬喰町二丁目","koaza":"","lat":35.695734,"lng":139.783754,"zip":"1030002"}]