[{"town":"丸山一丁目","koaza":"","lat":35.724688,"lng":139.65612,"zip":"1650021"},{"town":"鷺宮五丁目","koaza":"","lat":35.725472,"lng":139.632621,"zip":"1650032"},{"town":"南台四丁目","koaza":"","lat":35.679818,"lng":139.665745,"zip":"1640014"},{"town":"弥生町六丁目","koaza":"","lat":35.686196,"lng":139.661185,"zip":"1640013"},{"town":"本町二丁目","koaza":"","lat":35.694769,"lng":139.680057,"zip":"1640012"},{"town":"弥生町三丁目","koaza":"","lat":35.688218,"lng":139.674509,"zip":"1640013"},{"town":"南台二丁目","koaza":"","lat":35.683659,"lng":139.671271,"zip":"1640014"},{"town":"弥生町四丁目","koaza":"","lat":35.688131,"lng":139.67084,"zip":"1640013"},{"town":"南台五丁目","koaza":"","lat":35.681907,"lng":139.662141,"zip":"1640014"},{"town":"南台三丁目","koaza":"","lat":35.684085,"lng":139.665797,"zip":"1640014"},{"town":"東中野二丁目","koaza":"","lat":35.703505,"lng":139.680326,"zip":"1640003"},{"town":"本町一丁目","koaza":"","lat":35.694512,"lng":139.684061,"zip":"1640012"},{"town":"中央一丁目","koaza":"","lat":35.698994,"lng":139.685658,"zip":"1640011"},{"town":"本町四丁目","koaza":"","lat":35.695683,"lng":139.670734,"zip":"1640012"},{"town":"本町六丁目","koaza":"","lat":35.695616,"lng":139.66417,"zip":"1640012"},{"town":"弥生町一丁目","koaza":"","lat":35.690115,"lng":139.678716,"zip":"1640013"},{"town":"南台一丁目","koaza":"","lat":35.685539,"lng":139.674173,"zip":"1640014"},{"town":"本町三丁目","koaza":"","lat":35.695283,"lng":139.675963,"zip":"1640012"},{"town":"中央二丁目","koaza":"","lat":35.699481,"lng":139.679336,"zip":"1640011"},{"town":"弥生町五丁目","koaza":"","lat":35.688059,"lng":139.666211,"zip":"1640013"},{"town":"中野二丁目","koaza":"","lat":35.704127,"lng":139.66889,"zip":"1640001"},{"town":"東中野一丁目","koaza":"","lat":35.703674,"lng":139.684965,"zip":"1640003"},{"town":"東中野四丁目","koaza":"","lat":35.708887,"lng":139.685585,"zip":"1640003"},{"town":"東中野五丁目","koaza":"","lat":35.708805,"lng":139.689222,"zip":"1640003"},{"town":"弥生町二丁目","koaza":"","lat":35.691502,"lng":139.673931,"zip":"1640013"},{"town":"本町五丁目","koaza":"","lat":35.692659,"lng":139.670468,"zip":"1640012"},{"town":"中野一丁目","koaza":"","lat":35.703439,"lng":139.675024,"zip":"1640001"},{"town":"中央五丁目","koaza":"","lat":35.700034,"lng":139.6647,"zip":"1640011"},{"town":"中央四丁目","koaza":"","lat":35.700188,"lng":139.669214,"zip":"1640011"},{"town":"中央三丁目","koaza":"","lat":35.699891,"lng":139.673249,"zip":"1640011"},{"town":"上高田一丁目","koaza":"","lat":35.710451,"lng":139.67793,"zip":"1640002"},{"town":"野方二丁目","koaza":"","lat":35.714638,"lng":139.656504,"zip":"1650027"},{"town":"中野三丁目","koaza":"","lat":35.702893,"lng":139.663333,"zip":"1640001"},{"town":"中野六丁目","koaza":"","lat":35.707486,"lng":139.675708,"zip":"1640001"},{"town":"東中野三丁目","koaza":"","lat":35.708357,"lng":139.681389,"zip":"1640003"},{"town":"野方一丁目","koaza":"","lat":35.711153,"lng":139.657167,"zip":"1650027"},{"town":"中野四丁目","koaza":"","lat":35.707746,"lng":139.66175,"zip":"1640001"},{"town":"中野五丁目","koaza":"","lat":35.707858,"lng":139.668924,"zip":"1640001"},{"town":"上高田四丁目","koaza":"","lat":35.713403,"lng":139.67868,"zip":"1640002"},{"town":"上高田五丁目","koaza":"","lat":35.7178,"lng":139.675958,"zip":"1640002"},{"town":"新井五丁目","koaza":"","lat":35.715195,"lng":139.669004,"zip":"1650026"},{"town":"松が丘一丁目","koaza":"","lat":35.719845,"lng":139.67211,"zip":"1650024"},{"town":"新井一丁目","koaza":"","lat":35.712073,"lng":139.667366,"zip":"1650026"},{"town":"新井四丁目","koaza":"","lat":35.716513,"lng":139.666456,"zip":"1650026"},{"town":"新井二丁目","koaza":"","lat":35.712035,"lng":139.662903,"zip":"1650026"},{"town":"新井三丁目","koaza":"","lat":35.715831,"lng":139.66195,"zip":"1650026"},{"town":"上高田二丁目","koaza":"","lat":35.711874,"lng":139.67155,"zip":"1640002"},{"town":"上高田三丁目","koaza":"","lat":35.714,"lng":139.67358,"zip":"1640002"},{"town":"沼袋一丁目","koaza":"","lat":35.719258,"lng":139.666309,"zip":"1650025"},{"town":"野方五丁目","koaza":"","lat":35.718284,"lng":139.65222,"zip":"1650027"},{"town":"野方三丁目","koaza":"","lat":35.717427,"lng":139.655885,"zip":"1650027"},{"town":"沼袋三丁目","koaza":"","lat":35.718301,"lng":139.660389,"zip":"1650025"},{"town":"大和町三丁目","koaza":"","lat":35.71136,"lng":139.646563,"zip":"1650034"},{"town":"大和町一丁目","koaza":"","lat":35.7116,"lng":139.651891,"zip":"1650034"},{"town":"大和町二丁目","koaza":"","lat":35.715226,"lng":139.650843,"zip":"1650034"},{"town":"若宮二丁目","koaza":"","lat":35.71692,"lng":139.643767,"zip":"1650033"},{"town":"白鷺三丁目","koaza":"","lat":35.721801,"lng":139.631994,"zip":"1650035"},{"town":"江古田二丁目","koaza":"","lat":35.725826,"lng":139.666355,"zip":"1650022"},{"town":"江原町三丁目","koaza":"","lat":35.731598,"lng":139.674549,"zip":"1650023"},{"town":"江古田四丁目","koaza":"","lat":35.725353,"lng":139.661584,"zip":"1650022"},{"town":"江古田一丁目","koaza":"","lat":35.725271,"lng":139.672652,"zip":"1650022"},{"town":"沼袋二丁目","koaza":"","lat":35.722235,"lng":139.665759,"zip":"1650025"},{"town":"松が丘二丁目","koaza":"","lat":35.720673,"lng":139.670133,"zip":"1650024"},{"town":"江原町二丁目","koaza":"","lat":35.730041,"lng":139.669825,"zip":"1650023"},{"town":"沼袋四丁目","koaza":"","lat":35.72167,"lng":139.660316,"zip":"1650025"},{"town":"野方六丁目","koaza":"","lat":35.721677,"lng":139.651425,"zip":"1650027"},{"town":"野方四丁目","koaza":"","lat":35.720894,"lng":139.655858,"zip":"1650027"},{"town":"丸山二丁目","koaza":"","lat":35.724871,"lng":139.65173,"zip":"1650021"},{"town":"若宮一丁目","koaza":"","lat":35.718643,"lng":139.648782,"zip":"1650033"},{"town":"鷺宮一丁目","koaza":"","lat":35.722956,"lng":139.646677,"zip":"1650032"},{"town":"鷺宮二丁目","koaza":"","lat":35.72526,"lng":139.646665,"zip":"1650032"},{"town":"若宮三丁目","koaza":"","lat":35.720442,"lng":139.643524,"zip":"1650033"},{"town":"鷺宮三丁目","koaza":"","lat":35.724418,"lng":139.641037,"zip":"1650032"},{"town":"白鷺二丁目","koaza":"","lat":35.719571,"lng":139.634138,"zip":"1650035"},{"town":"白鷺一丁目","koaza":"","lat":35.71885,"lng":139.638115,"zip":"1650035"},{"town":"大和町四丁目","koaza":"","lat":35.714449,"lng":139.645007,"zip":"1650034"},{"town":"鷺宮四丁目","koaza":"","lat":35.72467,"lng":139.635561,"zip":"1650032"},{"town":"上鷺宮二丁目","koaza":"","lat":35.729054,"lng":139.633038,"zip":"1650031"},{"town":"上鷺宮四丁目","koaza":"","lat":35.733101,"lng":139.629149,"zip":"1650031"},{"town":"上鷺宮一丁目","koaza":"","lat":35.729201,"lng":139.636666,"zip":"1650031"},{"town":"鷺宮六丁目","koaza":"","lat":35.725256,"lng":139.628713,"zip":"1650032"},{"town":"上鷺宮五丁目","koaza":"","lat":35.730228,"lng":139.627811,"zip":"1650031"},{"town":"上鷺宮三丁目","koaza":"","lat":35.733385,"lng":139.632821,"zip":"1650031"},{"town":"江原町一丁目","koaza":"","lat":35.729081,"lng":139.674194,"zip":"1650023"},{"town":"江古田三丁目","koaza":"","lat":35.728606,"lng":139.665835,"zip":"1650022"}]