[{"town":"宇津貫町","koaza":"","lat":35.617579,"lng":139.335315,"zip":"1920915"},{"town":"兵衛二丁目","koaza":"","lat":35.623214,"lng":139.334553,"zip":"1920918"},{"town":"上柚木","koaza":"","lat":35.623189,"lng":139.36888,"zip":"1920373"},{"town":"上柚木二丁目","koaza":"","lat":35.61954,"lng":139.370093,"zip":"1920373"},{"town":"南大沢五丁目","koaza":"","lat":35.611379,"lng":139.371016,"zip":"1920364"},{"town":"上柚木三丁目","koaza":"","lat":35.61689,"lng":139.371494,"zip":"1920373"},{"town":"南陽台二丁目","koaza":"","lat":35.63314,"lng":139.37755,"zip":"1920371"},{"town":"下柚木","koaza":"","lat":35.630028,"lng":139.374757,"zip":"1920372"},{"town":"南陽台一丁目","koaza":"","lat":35.633801,"lng":139.37287,"zip":"1920371"},{"town":"長沼町","koaza":"","lat":35.642169,"lng":139.367759,"zip":"1920907"},{"town":"高倉町","koaza":"","lat":35.666115,"lng":139.366721,"zip":"1920033"},{"town":"南大沢四丁目","koaza":"","lat":35.607974,"lng":139.374672,"zip":"1920364"},{"town":"下恩方町","koaza":"","lat":35.665693,"lng":139.251052,"zip":"1920154"},{"town":"元八王子町三丁目","koaza":"","lat":35.652095,"lng":139.265749,"zip":"1930826"},{"town":"裏高尾町","koaza":"","lat":35.642825,"lng":139.242472,"zip":"1930841"},{"town":"南浅川町","koaza":"","lat":35.618761,"lng":139.249251,"zip":"1930846"},{"town":"高尾町","koaza":"","lat":35.633017,"lng":139.257985,"zip":"1930844"},{"town":"大谷町","koaza":"","lat":35.672824,"lng":139.348836,"zip":"1920034"},{"town":"暁町二丁目","koaza":"","lat":35.671856,"lng":139.336478,"zip":"1920043"},{"town":"中野上町四丁目","koaza":"","lat":35.670398,"lng":139.315478,"zip":"1920041"},{"town":"叶谷町","koaza":"","lat":35.670881,"lng":139.303222,"zip":"1930815"},{"town":"横川町","koaza":"","lat":35.665159,"lng":139.302223,"zip":"1930823"},{"town":"石川町","koaza":"","lat":35.675451,"lng":139.36569,"zip":"1920032"},{"town":"清川町","koaza":"","lat":35.671757,"lng":139.310527,"zip":"1930804"},{"town":"楢原町","koaza":"","lat":35.679812,"lng":139.307428,"zip":"1930803"},{"town":"西寺方町","koaza":"","lat":35.680159,"lng":139.272892,"zip":"1920153"},{"town":"川町","koaza":"","lat":35.66833,"lng":139.270574,"zip":"1930821"},{"town":"小宮町","koaza":"","lat":35.688344,"lng":139.371055,"zip":"1920031"},{"town":"暁町一丁目","koaza":"","lat":35.668622,"lng":139.335707,"zip":"1920043"},{"town":"中野山王一丁目","koaza":"","lat":35.671279,"lng":139.328208,"zip":"1920042"},{"town":"大和田町七丁目","koaza":"","lat":35.666963,"lng":139.34237,"zip":"1920045"},{"town":"中野上町二丁目","koaza":"","lat":35.67001,"lng":139.323855,"zip":"1920041"},{"town":"大楽寺町","koaza":"","lat":35.675643,"lng":139.286864,"zip":"1930816"},{"town":"富士見町","koaza":"","lat":35.668506,"lng":139.348456,"zip":"1920044"},{"town":"泉町","koaza":"","lat":35.674282,"lng":139.302061,"zip":"1930814"},{"town":"弐分方町","koaza":"","lat":35.673971,"lng":139.284393,"zip":"1930822"},{"town":"上恩方町","koaza":"","lat":35.66718,"lng":139.201773,"zip":"1920156"},{"town":"小津町","koaza":"","lat":35.685523,"lng":139.219097,"zip":"1920155"},{"town":"美山町","koaza":"","lat":35.694163,"lng":139.24059,"zip":"1920152"},{"town":"上川町","koaza":"","lat":35.704985,"lng":139.248045,"zip":"1920151"},{"town":"堀之内二丁目","koaza":"","lat":35.629711,"lng":139.402195,"zip":"1920355"},{"town":"堀之内三丁目","koaza":"","lat":35.627213,"lng":139.402637,"zip":"1920355"},{"town":"下柚木三丁目","koaza":"","lat":35.620924,"lng":139.379129,"zip":"1920372"},{"town":"別所一丁目","koaza":"","lat":35.615534,"lng":139.389021,"zip":"1920363"},{"town":"南大沢一丁目","koaza":"","lat":35.619096,"lng":139.383851,"zip":"1920364"},{"town":"越野","koaza":"","lat":35.630231,"lng":139.388327,"zip":"1920361"},{"town":"南大沢二丁目","koaza":"","lat":35.61045,"lng":139.385206,"zip":"1920364"},{"town":"松木","koaza":"","lat":35.622375,"lng":139.39283,"zip":"1920362"},{"town":"下柚木二丁目","koaza":"","lat":35.625348,"lng":139.380483,"zip":"1920372"},{"town":"別所二丁目","koaza":"","lat":35.615856,"lng":139.397489,"zip":"1920363"},{"town":"南大沢三丁目","koaza":"","lat":35.604492,"lng":139.382612,"zip":"1920364"},{"town":"鹿島","koaza":"","lat":35.633224,"lng":139.425657,"zip":"1920353"},{"town":"松が谷","koaza":"","lat":35.630088,"lng":139.417244,"zip":"1920354"},{"town":"大塚","koaza":"","lat":35.639524,"lng":139.418698,"zip":"1920352"},{"town":"堀之内","koaza":"","lat":35.634728,"lng":139.390403,"zip":"1920355"},{"town":"南陽台三丁目","koaza":"","lat":35.635304,"lng":139.378006,"zip":"1920371"},{"town":"東中野","koaza":"","lat":35.637016,"lng":139.406284,"zip":"1920351"},{"town":"七国二丁目","koaza":"","lat":35.620413,"lng":139.325219,"zip":"1920919"},{"town":"西片倉一丁目","koaza":"","lat":35.635712,"lng":139.335213,"zip":"1920917"},{"town":"七国一丁目","koaza":"","lat":35.620808,"lng":139.330029,"zip":"1920919"},{"town":"七国四丁目","koaza":"","lat":35.621518,"lng":139.316922,"zip":"1920919"},{"town":"七国五丁目","koaza":"","lat":35.622133,"lng":139.319517,"zip":"1920919"},{"town":"七国六丁目","koaza":"","lat":35.62297,"lng":139.323515,"zip":"1920919"},{"town":"みなみ野四丁目","koaza":"","lat":35.627299,"lng":139.323433,"zip":"1920916"},{"town":"みなみ野五丁目","koaza":"","lat":35.629209,"lng":139.318609,"zip":"1920916"},{"town":"西片倉二丁目","koaza":"","lat":35.63585,"lng":139.332065,"zip":"1920917"},{"town":"西片倉三丁目","koaza":"","lat":35.635984,"lng":139.327769,"zip":"1920917"},{"town":"みなみ野六丁目","koaza":"","lat":35.632893,"lng":139.322529,"zip":"1920916"},{"town":"みなみ野三丁目","koaza":"","lat":35.629582,"lng":139.324875,"zip":"1920916"},{"town":"みなみ野二丁目","koaza":"","lat":35.628121,"lng":139.328323,"zip":"1920916"},{"town":"みなみ野一丁目","koaza":"","lat":35.632271,"lng":139.328061,"zip":"1920916"},{"town":"兵衛一丁目","koaza":"","lat":35.629698,"lng":139.331255,"zip":"1920918"},{"town":"城山手二丁目","koaza":"","lat":35.653702,"lng":139.283996,"zip":"1930825"},{"town":"城山手一丁目","koaza":"","lat":35.654488,"lng":139.287393,"zip":"1930825"},{"town":"鑓水二丁目","koaza":"","lat":35.611221,"lng":139.356372,"zip":"1920375"},{"town":"北野台二丁目","koaza":"","lat":35.626409,"lng":139.355286,"zip":"1920913"},{"town":"北野台五丁目","koaza":"","lat":35.631965,"lng":139.351825,"zip":"1920913"},{"town":"北野台四丁目","koaza":"","lat":35.629686,"lng":139.352318,"zip":"1920913"},{"town":"七国三丁目","koaza":"","lat":35.617137,"lng":139.323201,"zip":"1920919"},{"town":"北野台一丁目","koaza":"","lat":35.632282,"lng":139.356765,"zip":"1920913"},{"town":"大船町","koaza":"","lat":35.622814,"lng":139.313606,"zip":"1930935"},{"town":"台町二丁目","koaza":"","lat":35.651314,"lng":139.321535,"zip":"1930931"},{"town":"狭間町","koaza":"","lat":35.63541,"lng":139.284069,"zip":"1930941"},{"town":"鑓水","koaza":"","lat":35.61891,"lng":139.349939,"zip":"1920375"},{"town":"中山","koaza":"","lat":35.627221,"lng":139.362132,"zip":"1920374"},{"town":"北野台三丁目","koaza":"","lat":35.625847,"lng":139.352103,"zip":"1920913"},{"town":"絹ケ丘三丁目","koaza":"","lat":35.63321,"lng":139.361525,"zip":"1920912"},{"town":"絹ケ丘一丁目","koaza":"","lat":35.637706,"lng":139.362682,"zip":"1920912"},{"town":"絹ケ丘二丁目","koaza":"","lat":35.636538,"lng":139.359386,"zip":"1920912"},{"town":"打越町","koaza":"","lat":35.640548,"lng":139.351751,"zip":"1920911"},{"town":"片倉町","koaza":"","lat":35.634195,"lng":139.341159,"zip":"1920914"},{"town":"緑町","koaza":"","lat":35.647626,"lng":139.325741,"zip":"1930932"},{"town":"小比企町","koaza":"","lat":35.639657,"lng":139.323427,"zip":"1930934"},{"town":"館町","koaza":"","lat":35.624843,"lng":139.288208,"zip":"1930944"},{"town":"山田町","koaza":"","lat":35.644213,"lng":139.315443,"zip":"1930933"},{"town":"椚田町","koaza":"","lat":35.636289,"lng":139.308945,"zip":"1930942"},{"town":"めじろ台二丁目","koaza":"","lat":35.641614,"lng":139.310786,"zip":"1930833"},{"town":"めじろ台三丁目","koaza":"","lat":35.641282,"lng":139.304441,"zip":"1930833"},{"town":"散田町二丁目","koaza":"","lat":35.649957,"lng":139.314886,"zip":"1930832"},{"town":"めじろ台四丁目","koaza":"","lat":35.643721,"lng":139.303384,"zip":"1930833"},{"town":"めじろ台一丁目","koaza":"","lat":35.646098,"lng":139.308985,"zip":"1930833"},{"town":"散田町四丁目","koaza":"","lat":35.650995,"lng":139.307106,"zip":"1930832"},{"town":"寺田町","koaza":"","lat":35.624167,"lng":139.305783,"zip":"1930943"},{"town":"初沢町","koaza":"","lat":35.629477,"lng":139.275167,"zip":"1930845"},{"town":"西浅川町","koaza":"","lat":35.64246,"lng":139.272134,"zip":"1930842"},{"town":"明神町一丁目","koaza":"","lat":35.658368,"lng":139.349333,"zip":"1920046"},{"town":"子安町一丁目","koaza":"","lat":35.652336,"lng":139.343187,"zip":"1920904"},{"town":"明神町二丁目","koaza":"","lat":35.656912,"lng":139.346722,"zip":"1920046"},{"town":"明神町三丁目","koaza":"","lat":35.656119,"lng":139.343511,"zip":"1920046"},{"town":"大和田町五丁目","koaza":"","lat":35.665378,"lng":139.351478,"zip":"1920045"},{"town":"大和田町四丁目","koaza":"","lat":35.665477,"lng":139.3556,"zip":"1920045"},{"town":"大和田町六丁目","koaza":"","lat":35.664803,"lng":139.346534,"zip":"1920045"},{"town":"大和田町三丁目","koaza":"","lat":35.660039,"lng":139.353073,"zip":"1920045"},{"town":"大和田町二丁目","koaza":"","lat":35.663686,"lng":139.358409,"zip":"1920045"},{"town":"大和田町一丁目","koaza":"","lat":35.655395,"lng":139.356566,"zip":"1920045"},{"town":"明神町四丁目","koaza":"","lat":35.659993,"lng":139.344081,"zip":"1920046"},{"town":"子安町三丁目","koaza":"","lat":35.64941,"lng":139.337351,"zip":"1920904"},{"town":"万町","koaza":"","lat":35.652071,"lng":139.332716,"zip":"1920903"},{"town":"子安町四丁目","koaza":"","lat":35.653866,"lng":139.33672,"zip":"1920904"},{"town":"東町","koaza":"","lat":35.658276,"lng":139.339595,"zip":"1920082"},{"town":"田町","koaza":"","lat":35.665704,"lng":139.335742,"zip":"1920064"},{"town":"中町","koaza":"","lat":35.65838,"lng":139.336097,"zip":"1920085"},{"town":"新町","koaza":"","lat":35.661324,"lng":139.340789,"zip":"1920065"},{"town":"元横山町一丁目","koaza":"","lat":35.66403,"lng":139.339439,"zip":"1920063"},{"town":"南新町","koaza":"","lat":35.658767,"lng":139.330012,"zip":"1920075"},{"town":"元横山町二丁目","koaza":"","lat":35.662042,"lng":139.337677,"zip":"1920063"},{"town":"元横山町三丁目","koaza":"","lat":35.665154,"lng":139.333256,"zip":"1920063"},{"town":"北野町","koaza":"","lat":35.650139,"lng":139.354715,"zip":"1920906"},{"town":"子安町二丁目","koaza":"","lat":35.648944,"lng":139.34146,"zip":"1920904"},{"town":"旭町","koaza":"","lat":35.655908,"lng":139.338169,"zip":"1920083"},{"town":"三崎町","koaza":"","lat":35.657133,"lng":139.336208,"zip":"1920084"},{"town":"天神町","koaza":"","lat":35.657417,"lng":139.33013,"zip":"1920074"},{"town":"寺町","koaza":"","lat":35.656331,"lng":139.3329,"zip":"1920073"},{"town":"南町","koaza":"","lat":35.65851,"lng":139.333014,"zip":"1920072"},{"town":"横山町","koaza":"","lat":35.659807,"lng":139.336954,"zip":"1920081"},{"town":"八日町","koaza":"","lat":35.660057,"lng":139.33115,"zip":"1920071"},{"town":"平岡町","koaza":"","lat":35.664392,"lng":139.32517,"zip":"1920061"},{"town":"八幡町","koaza":"","lat":35.660623,"lng":139.32605,"zip":"1920053"},{"town":"本郷町","koaza":"","lat":35.661867,"lng":139.325744,"zip":"1920052"},{"town":"中野上町一丁目","koaza":"","lat":35.667665,"lng":139.327642,"zip":"1920041"},{"town":"元本郷町一丁目","koaza":"","lat":35.664474,"lng":139.321523,"zip":"1920051"},{"town":"本町","koaza":"","lat":35.662726,"lng":139.33181,"zip":"1920066"},{"town":"大横町","koaza":"","lat":35.663749,"lng":139.329526,"zip":"1920062"},{"town":"台町三丁目","koaza":"","lat":35.654659,"lng":139.320466,"zip":"1930931"},{"town":"追分町","koaza":"","lat":35.660687,"lng":139.318146,"zip":"1920056"},{"town":"小門町","koaza":"","lat":35.658809,"lng":139.324898,"zip":"1920054"},{"town":"八木町","koaza":"","lat":35.661071,"lng":139.321762,"zip":"1920055"},{"town":"千人町二丁目","koaza":"","lat":35.659024,"lng":139.311954,"zip":"1930835"},{"town":"千人町一丁目","koaza":"","lat":35.65912,"lng":139.315654,"zip":"1930835"},{"town":"散田町一丁目","koaza":"","lat":35.653867,"lng":139.315653,"zip":"1930832"},{"town":"台町四丁目","koaza":"","lat":35.657563,"lng":139.319599,"zip":"1930931"},{"town":"元本郷町三丁目","koaza":"","lat":35.664808,"lng":139.315964,"zip":"1920051"},{"town":"日吉町","koaza":"","lat":35.661383,"lng":139.313625,"zip":"1930836"},{"town":"元本郷町四丁目","koaza":"","lat":35.665301,"lng":139.313082,"zip":"1920051"},{"town":"元本郷町二丁目","koaza":"","lat":35.664518,"lng":139.318497,"zip":"1920051"},{"town":"台町一丁目","koaza":"","lat":35.650673,"lng":139.32809,"zip":"1930931"},{"town":"上野町","koaza":"","lat":35.655149,"lng":139.327196,"zip":"1920902"},{"town":"並木町","koaza":"","lat":35.65321,"lng":139.303219,"zip":"1930831"},{"town":"千人町四丁目","koaza":"","lat":35.656337,"lng":139.306919,"zip":"1930835"},{"town":"散田町三丁目","koaza":"","lat":35.652892,"lng":139.311124,"zip":"1930832"},{"town":"千人町三丁目","koaza":"","lat":35.657889,"lng":139.309223,"zip":"1930835"},{"town":"東浅川町","koaza":"","lat":35.645253,"lng":139.292331,"zip":"1930834"},{"town":"散田町五丁目","koaza":"","lat":35.647977,"lng":139.301624,"zip":"1930832"},{"town":"元八王子町一丁目","koaza":"","lat":35.664796,"lng":139.287922,"zip":"1930826"},{"town":"廿里町","koaza":"","lat":35.646792,"lng":139.274956,"zip":"1930843"},{"town":"長房町","koaza":"","lat":35.654616,"lng":139.29532,"zip":"1930824"},{"town":"元八王子町二丁目","koaza":"","lat":35.659649,"lng":139.280972,"zip":"1930826"},{"town":"みつい台一丁目","koaza":"","lat":35.681245,"lng":139.32885,"zip":"1920014"},{"town":"久保山町一丁目","koaza":"","lat":35.685766,"lng":139.36078,"zip":"1920023"},{"town":"久保山町二丁目","koaza":"","lat":35.686413,"lng":139.355518,"zip":"1920023"},{"town":"みつい台二丁目","koaza":"","lat":35.682287,"lng":139.325052,"zip":"1920014"},{"town":"滝山町二丁目","koaza":"","lat":35.692245,"lng":139.336148,"zip":"1920011"},{"town":"丹木町一丁目","koaza":"","lat":35.692316,"lng":139.330777,"zip":"1920003"},{"town":"川口町","koaza":"","lat":35.695799,"lng":139.277573,"zip":"1930801"},{"town":"尾崎町","koaza":"","lat":35.679547,"lng":139.34446,"zip":"1920025"},{"town":"宇津木町","koaza":"","lat":35.68172,"lng":139.352609,"zip":"1920024"},{"town":"中野山王二丁目","koaza":"","lat":35.67461,"lng":139.330428,"zip":"1920042"},{"town":"中野上町五丁目","koaza":"","lat":35.674254,"lng":139.316192,"zip":"1920041"},{"town":"四谷町","koaza":"","lat":35.677224,"lng":139.296971,"zip":"1930813"},{"town":"暁町三丁目","koaza":"","lat":35.675318,"lng":139.335553,"zip":"1920043"},{"town":"中野町","koaza":"","lat":35.680598,"lng":139.320487,"zip":"1920015"},{"town":"中野上町三丁目","koaza":"","lat":35.672913,"lng":139.320932,"zip":"1920041"},{"town":"中野山王三丁目","koaza":"","lat":35.675285,"lng":139.321385,"zip":"1920042"},{"town":"諏訪町","koaza":"","lat":35.678929,"lng":139.292294,"zip":"1930812"},{"town":"上壱分方町","koaza":"","lat":35.681592,"lng":139.284711,"zip":"1930811"},{"town":"丸山町","koaza":"","lat":35.690346,"lng":139.350753,"zip":"1920021"},{"town":"加住町二丁目","koaza":"","lat":35.694297,"lng":139.315035,"zip":"1920004"},{"town":"平町","koaza":"","lat":35.691867,"lng":139.35896,"zip":"1920022"},{"town":"谷野町","koaza":"","lat":35.685416,"lng":139.325083,"zip":"1920016"},{"town":"丹木町二丁目","koaza":"","lat":35.694931,"lng":139.32771,"zip":"1920003"},{"town":"犬目町","koaza":"","lat":35.689661,"lng":139.30773,"zip":"1930802"},{"town":"戸吹町","koaza":"","lat":35.707137,"lng":139.289199,"zip":"1920001"},{"town":"丹木町三丁目","koaza":"","lat":35.694854,"lng":139.323643,"zip":"1920003"},{"town":"加住町一丁目","koaza":"","lat":35.701817,"lng":139.320504,"zip":"1920004"},{"town":"宮下町","koaza":"","lat":35.705277,"lng":139.310485,"zip":"1920005"},{"town":"高月町","koaza":"","lat":35.707514,"lng":139.32551,"zip":"1920002"},{"town":"梅坪町","koaza":"","lat":35.686065,"lng":139.335755,"zip":"1920013"},{"town":"左入町","koaza":"","lat":35.683015,"lng":139.344775,"zip":"1920012"},{"town":"滝山町一丁目","koaza":"","lat":35.684899,"lng":139.341468,"zip":"1920011"}]