[{"town":"堀船二丁目","koaza":"","lat":35.754421,"lng":139.745645,"zip":"1140004"},{"town":"上中里一丁目","koaza":"","lat":35.744602,"lng":139.747563,"zip":"1140016"},{"town":"栄町","koaza":"","lat":35.749864,"lng":139.743848,"zip":"1140005"},{"town":"上中里三丁目","koaza":"","lat":35.75003,"lng":139.748232,"zip":"1140016"},{"town":"西ケ原一丁目","koaza":"","lat":35.74177,"lng":139.746037,"zip":"1140024"},{"town":"堀船一丁目","koaza":"","lat":35.752972,"lng":139.743522,"zip":"1140004"},{"town":"上中里二丁目","koaza":"","lat":35.745442,"lng":139.752957,"zip":"1140016"},{"town":"堀船三丁目","koaza":"","lat":35.75482,"lng":139.74924,"zip":"1140004"},{"town":"堀船四丁目","koaza":"","lat":35.754529,"lng":139.754187,"zip":"1140004"},{"town":"豊島三丁目","koaza":"","lat":35.760896,"lng":139.745526,"zip":"1140003"},{"town":"豊島二丁目","koaza":"","lat":35.758124,"lng":139.744286,"zip":"1140003"},{"town":"王子一丁目","koaza":"","lat":35.753074,"lng":139.739198,"zip":"1140002"},{"town":"王子本町一丁目","koaza":"","lat":35.753759,"lng":139.733853,"zip":"1140022"},{"town":"豊島六丁目","koaza":"","lat":35.765171,"lng":139.746497,"zip":"1140003"},{"town":"豊島四丁目","koaza":"","lat":35.762118,"lng":139.749883,"zip":"1140003"},{"town":"王子本町二丁目","koaza":"","lat":35.755323,"lng":139.731097,"zip":"1140022"},{"town":"岸町一丁目","koaza":"","lat":35.755755,"lng":139.734299,"zip":"1140021"},{"town":"王子本町三丁目","koaza":"","lat":35.753506,"lng":139.729092,"zip":"1140022"},{"town":"十条台一丁目","koaza":"","lat":35.754957,"lng":139.725507,"zip":"1140033"},{"town":"田端新町一丁目","koaza":"","lat":35.737645,"lng":139.767806,"zip":"1140012"},{"town":"田端新町二丁目","koaza":"","lat":35.740227,"lng":139.766261,"zip":"1140012"},{"town":"田端一丁目","koaza":"","lat":35.734927,"lng":139.761553,"zip":"1140014"},{"town":"東田端一丁目","koaza":"","lat":35.737567,"lng":139.763162,"zip":"1140013"},{"town":"田端四丁目","koaza":"","lat":35.737532,"lng":139.753879,"zip":"1140014"},{"town":"田端六丁目","koaza":"","lat":35.739651,"lng":139.757606,"zip":"1140014"},{"town":"中里二丁目","koaza":"","lat":35.739093,"lng":139.749978,"zip":"1140015"},{"town":"中里一丁目","koaza":"","lat":35.737961,"lng":139.75148,"zip":"1140015"},{"town":"中里三丁目","koaza":"","lat":35.741393,"lng":139.752462,"zip":"1140015"},{"town":"昭和町一丁目","koaza":"","lat":35.74646,"lng":139.756392,"zip":"1140011"},{"town":"東田端二丁目","koaza":"","lat":35.741641,"lng":139.759404,"zip":"1140013"},{"town":"田端新町三丁目","koaza":"","lat":35.742337,"lng":139.763288,"zip":"1140012"},{"town":"昭和町二丁目","koaza":"","lat":35.747998,"lng":139.753281,"zip":"1140011"},{"town":"昭和町三丁目","koaza":"","lat":35.749103,"lng":139.750555,"zip":"1140011"},{"town":"西ケ原三丁目","koaza":"","lat":35.744546,"lng":139.740296,"zip":"1140024"},{"town":"西ケ原二丁目","koaza":"","lat":35.747574,"lng":139.741413,"zip":"1140024"},{"town":"西ケ原四丁目","koaza":"","lat":35.743289,"lng":139.735101,"zip":"1140024"},{"town":"滝野川一丁目","koaza":"","lat":35.747858,"lng":139.735573,"zip":"1140023"},{"town":"滝野川二丁目","koaza":"","lat":35.749859,"lng":139.733372,"zip":"1140023"},{"town":"滝野川三丁目","koaza":"","lat":35.748593,"lng":139.728979,"zip":"1140023"},{"town":"滝野川四丁目","koaza":"","lat":35.751426,"lng":139.726657,"zip":"1140023"},{"town":"滝野川七丁目","koaza":"","lat":35.743136,"lng":139.721899,"zip":"1140023"},{"town":"滝野川五丁目","koaza":"","lat":35.747692,"lng":139.724976,"zip":"1140023"},{"town":"滝野川六丁目","koaza":"","lat":35.74518,"lng":139.724294,"zip":"1140023"},{"town":"豊島五丁目","koaza":"","lat":35.76628,"lng":139.754694,"zip":"1140003"},{"town":"岸町二丁目","koaza":"","lat":35.760228,"lng":139.729959,"zip":"1140021"},{"town":"王子三丁目","koaza":"","lat":35.76111,"lng":139.737643,"zip":"1140002"},{"town":"王子六丁目","koaza":"","lat":35.761502,"lng":139.740464,"zip":"1140002"},{"town":"豊島七丁目","koaza":"","lat":35.764115,"lng":139.743873,"zip":"1140003"},{"town":"豊島八丁目","koaza":"","lat":35.766025,"lng":139.740187,"zip":"1140003"},{"town":"赤羽台二丁目","koaza":"","lat":35.776291,"lng":139.713525,"zip":"1150053"},{"town":"王子二丁目","koaza":"","lat":35.757787,"lng":139.736163,"zip":"1140002"},{"town":"豊島一丁目","koaza":"","lat":35.75767,"lng":139.740447,"zip":"1140003"},{"town":"中十条一丁目","koaza":"","lat":35.759161,"lng":139.728324,"zip":"1140032"},{"town":"王子五丁目","koaza":"","lat":35.764854,"lng":139.735301,"zip":"1140002"},{"town":"東十条一丁目","koaza":"","lat":35.760928,"lng":139.731147,"zip":"1140001"},{"town":"王子四丁目","koaza":"","lat":35.762242,"lng":139.735405,"zip":"1140002"},{"town":"東十条二丁目","koaza":"","lat":35.763234,"lng":139.730269,"zip":"1140001"},{"town":"東十条三丁目","koaza":"","lat":35.765061,"lng":139.728706,"zip":"1140001"},{"town":"上十条二丁目","koaza":"","lat":35.759205,"lng":139.720255,"zip":"1140034"},{"town":"上十条一丁目","koaza":"","lat":35.759658,"lng":139.724087,"zip":"1140034"},{"town":"中十条二丁目","koaza":"","lat":35.76177,"lng":139.724846,"zip":"1140032"},{"town":"西が丘二丁目","koaza":"","lat":35.766243,"lng":139.713198,"zip":"1150056"},{"town":"十条仲原三丁目","koaza":"","lat":35.766397,"lng":139.720133,"zip":"1140031"},{"town":"上十条四丁目","koaza":"","lat":35.763288,"lng":139.71534,"zip":"1140034"},{"town":"上十条五丁目","koaza":"","lat":35.765801,"lng":139.71665,"zip":"1140034"},{"town":"神谷一丁目","koaza":"","lat":35.768532,"lng":139.73412,"zip":"1150043"},{"town":"東十条六丁目","koaza":"","lat":35.770818,"lng":139.724498,"zip":"1140001"},{"town":"中十条四丁目","koaza":"","lat":35.76903,"lng":139.722741,"zip":"1140032"},{"town":"東十条五丁目","koaza":"","lat":35.7686,"lng":139.726112,"zip":"1140001"},{"town":"十条仲原四丁目","koaza":"","lat":35.768805,"lng":139.72016,"zip":"1140031"},{"town":"赤羽西二丁目","koaza":"","lat":35.773015,"lng":139.719853,"zip":"1150055"},{"town":"赤羽二丁目","koaza":"","lat":35.779865,"lng":139.724481,"zip":"1150045"},{"town":"十条仲原一丁目","koaza":"","lat":35.762853,"lng":139.720513,"zip":"1140031"},{"town":"十条仲原二丁目","koaza":"","lat":35.765031,"lng":139.720381,"zip":"1140031"},{"town":"中十条三丁目","koaza":"","lat":35.764814,"lng":139.724035,"zip":"1140032"},{"town":"東十条四丁目","koaza":"","lat":35.766959,"lng":139.727804,"zip":"1140001"},{"town":"赤羽台一丁目","koaza":"","lat":35.778271,"lng":139.715575,"zip":"1150053"},{"town":"赤羽西三丁目","koaza":"","lat":35.770232,"lng":139.718747,"zip":"1150055"},{"town":"上十条三丁目","koaza":"","lat":35.761045,"lng":139.717947,"zip":"1140034"},{"town":"赤羽西四丁目","koaza":"","lat":35.773497,"lng":139.715755,"zip":"1150055"},{"town":"赤羽南二丁目","koaza":"","lat":35.773556,"lng":139.72391,"zip":"1150044"},{"town":"神谷二丁目","koaza":"","lat":35.772314,"lng":139.727895,"zip":"1150043"},{"town":"西が丘三丁目","koaza":"","lat":35.766983,"lng":139.708957,"zip":"1150056"},{"town":"西が丘一丁目","koaza":"","lat":35.770183,"lng":139.713164,"zip":"1150056"},{"town":"赤羽西五丁目","koaza":"","lat":35.773379,"lng":139.710546,"zip":"1150055"},{"town":"十条台二丁目","koaza":"","lat":35.756513,"lng":139.720923,"zip":"1140033"},{"town":"志茂一丁目","koaza":"","lat":35.776325,"lng":139.729612,"zip":"1150042"},{"town":"志茂四丁目","koaza":"","lat":35.78286,"lng":139.734812,"zip":"1150042"},{"town":"志茂二丁目","koaza":"","lat":35.779468,"lng":139.728773,"zip":"1150042"},{"town":"赤羽一丁目","koaza":"","lat":35.780738,"lng":139.720619,"zip":"1150045"},{"town":"赤羽西一丁目","koaza":"","lat":35.777376,"lng":139.718953,"zip":"1150055"},{"town":"赤羽南一丁目","koaza":"","lat":35.776474,"lng":139.723803,"zip":"1150044"},{"town":"赤羽三丁目","koaza":"","lat":35.786752,"lng":139.718311,"zip":"1150045"},{"town":"岩淵町","koaza":"","lat":35.785446,"lng":139.723336,"zip":"1150041"},{"town":"志茂五丁目","koaza":"","lat":35.785777,"lng":139.730336,"zip":"1150042"},{"town":"赤羽台三丁目","koaza":"","lat":35.780168,"lng":139.713322,"zip":"1150053"},{"town":"桐ケ丘二丁目","koaza":"","lat":35.781231,"lng":139.71055,"zip":"1150054"},{"town":"赤羽北一丁目","koaza":"","lat":35.787935,"lng":139.713575,"zip":"1150052"},{"town":"赤羽台四丁目","koaza":"","lat":35.784275,"lng":139.713267,"zip":"1150053"},{"town":"赤羽西六丁目","koaza":"","lat":35.772514,"lng":139.706779,"zip":"1150055"},{"town":"赤羽北三丁目","koaza":"","lat":35.781243,"lng":139.705129,"zip":"1150052"},{"town":"赤羽北二丁目","koaza":"","lat":35.785221,"lng":139.707288,"zip":"1150052"},{"town":"桐ケ丘一丁目","koaza":"","lat":35.777181,"lng":139.707526,"zip":"1150054"},{"town":"浮間三丁目","koaza":"","lat":35.786239,"lng":139.701579,"zip":"1150051"},{"town":"浮間四丁目","koaza":"","lat":35.788864,"lng":139.694362,"zip":"1150051"},{"town":"浮間五丁目","koaza":"","lat":35.784715,"lng":139.694597,"zip":"1150051"},{"town":"浮間一丁目","koaza":"","lat":35.791017,"lng":139.706326,"zip":"1150051"},{"town":"浮間二丁目","koaza":"","lat":35.794501,"lng":139.698006,"zip":"1150051"},{"town":"神谷三丁目","koaza":"","lat":35.772103,"lng":139.732859,"zip":"1150043"},{"town":"志茂三丁目","koaza":"","lat":35.778244,"lng":139.735197,"zip":"1150042"},{"town":"田端二丁目","koaza":"","lat":35.734679,"lng":139.758225,"zip":"1140014"},{"town":"田端三丁目","koaza":"","lat":35.735838,"lng":139.755457,"zip":"1140014"},{"town":"田端五丁目","koaza":"","lat":35.737828,"lng":139.757109,"zip":"1140014"}]