[{"town":"内幸町二丁目","koaza":"","lat":35.670812,"lng":139.754182,"zip":"1000011"},{"town":"内幸町一丁目","koaza":"","lat":35.670839,"lng":139.758119,"zip":"1000011"},{"town":"霞が関三丁目","koaza":"","lat":35.671825,"lng":139.746988,"zip":"1000013"},{"town":"北の丸公園","koaza":"","lat":35.691555,"lng":139.751639,"zip":"1020091"},{"town":"富士見一丁目","koaza":"","lat":35.697871,"lng":139.746978,"zip":"1020071"},{"town":"永田町一丁目","koaza":"","lat":35.675895,"lng":139.746306,"zip":"1000014"},{"town":"千代田","koaza":"","lat":35.684052,"lng":139.752145,"zip":"1000001"},{"town":"三番町","koaza":"","lat":35.690557,"lng":139.743591,"zip":"1020075"},{"town":"九段南二丁目","koaza":"","lat":35.693143,"lng":139.745694,"zip":"1020074"},{"town":"富士見二丁目","koaza":"","lat":35.698126,"lng":139.743057,"zip":"1020071"},{"town":"飯田橋四丁目","koaza":"","lat":35.700887,"lng":139.746708,"zip":"1020072"},{"town":"九段北二丁目","koaza":"","lat":35.695258,"lng":139.746356,"zip":"1020073"},{"town":"飯田橋三丁目","koaza":"","lat":35.701392,"lng":139.748628,"zip":"1020072"},{"town":"丸の内二丁目","koaza":"","lat":35.680022,"lng":139.763447,"zip":"1000005"},{"town":"神田神保町二丁目","koaza":"","lat":35.696637,"lng":139.756454,"zip":"1010051"},{"town":"日比谷公園","koaza":"","lat":35.673889,"lng":139.756191,"zip":"1000012"},{"town":"霞が関一丁目","koaza":"","lat":35.673944,"lng":139.752558,"zip":"1000013"},{"town":"丸の内三丁目","koaza":"","lat":35.676952,"lng":139.763476,"zip":"1000005"},{"town":"有楽町二丁目","koaza":"","lat":35.673888,"lng":139.76281,"zip":"1000006"},{"town":"有楽町一丁目","koaza":"","lat":35.674483,"lng":139.76055,"zip":"1000006"},{"town":"霞が関二丁目","koaza":"","lat":35.675551,"lng":139.750413,"zip":"1000013"},{"town":"岩本町一丁目","koaza":"","lat":35.692346,"lng":139.777635,"zip":"1010032"},{"town":"神田西福田町","koaza":"","lat":35.691334,"lng":139.774244,"zip":"1010037"},{"town":"神田東紺屋町","koaza":"","lat":35.692833,"lng":139.774711,"zip":"1010034"},{"town":"神田北乗物町","koaza":"","lat":35.692455,"lng":139.773897,"zip":"1010036"},{"town":"神田富山町","koaza":"","lat":35.693673,"lng":139.773588,"zip":"1010043"},{"town":"神田鍛冶町三丁目","koaza":"","lat":35.693613,"lng":139.770976,"zip":"1010045"},{"town":"内神田二丁目","koaza":"","lat":35.690601,"lng":139.768027,"zip":"1010047"},{"town":"神田紺屋町","koaza":"","lat":35.692021,"lng":139.774233,"zip":"1010035"},{"town":"東神田二丁目","koaza":"","lat":35.696189,"lng":139.780146,"zip":"1010031"},{"town":"神田多町二丁目","koaza":"","lat":35.693856,"lng":139.769189,"zip":"1010046"},{"town":"内神田一丁目","koaza":"","lat":35.69058,"lng":139.765604,"zip":"1010047"},{"town":"神田司町二丁目","koaza":"","lat":35.693464,"lng":139.767523,"zip":"1010048"},{"town":"大手町二丁目","koaza":"","lat":35.686301,"lng":139.768087,"zip":"1000004"},{"town":"神田小川町二丁目","koaza":"","lat":35.694696,"lng":139.764452,"zip":"1010052"},{"town":"神田美土代町","koaza":"","lat":35.693283,"lng":139.765581,"zip":"1010053"},{"town":"神田錦町一丁目","koaza":"","lat":35.691744,"lng":139.764155,"zip":"1010054"},{"town":"大手町一丁目","koaza":"","lat":35.688069,"lng":139.763929,"zip":"1000004"},{"town":"一ツ橋一丁目","koaza":"","lat":35.691189,"lng":139.757119,"zip":"1000003"},{"town":"九段南一丁目","koaza":"","lat":35.693972,"lng":139.753265,"zip":"1020074"},{"town":"皇居外苑","koaza":"","lat":35.679944,"lng":139.758466,"zip":"1000002"},{"town":"丸の内一丁目","koaza":"","lat":35.68156,"lng":139.767201,"zip":"1000005"},{"town":"神田佐久間町四丁目","koaza":"","lat":35.697658,"lng":139.779837,"zip":"1010025"},{"town":"東神田三丁目","koaza":"","lat":35.697364,"lng":139.781365,"zip":"1010031"},{"town":"岩本町二丁目","koaza":"","lat":35.693526,"lng":139.776933,"zip":"1010032"},{"town":"東神田一丁目","koaza":"","lat":35.694328,"lng":139.780497,"zip":"1010031"},{"town":"岩本町三丁目","koaza":"","lat":35.695636,"lng":139.776931,"zip":"1010032"},{"town":"神田東松下町","koaza":"","lat":35.694239,"lng":139.773572,"zip":"1010042"},{"town":"神田佐久間町三丁目","koaza":"","lat":35.697983,"lng":139.777936,"zip":"1010025"},{"town":"神田平河町","koaza":"","lat":35.698036,"lng":139.775653,"zip":"1010027"},{"town":"神田岩本町","koaza":"","lat":35.695506,"lng":139.775004,"zip":"1010033"},{"town":"神田佐久間河岸","koaza":"","lat":35.697048,"lng":139.777798,"zip":"1010026"},{"town":"神田花岡町","koaza":"","lat":35.698802,"lng":139.773971,"zip":"1010028"},{"town":"鍛冶町二丁目","koaza":"","lat":35.692583,"lng":139.772023,"zip":"1010044"},{"town":"内神田三丁目","koaza":"","lat":35.691005,"lng":139.769658,"zip":"1010047"},{"town":"外神田五丁目","koaza":"","lat":35.704021,"lng":139.772366,"zip":"1010021"},{"town":"神田佐久間町二丁目","koaza":"","lat":35.698009,"lng":139.776368,"zip":"1010025"},{"town":"神田佐久間町一丁目","koaza":"","lat":35.697979,"lng":139.774222,"zip":"1010025"},{"town":"神田和泉町","koaza":"","lat":35.699704,"lng":139.777907,"zip":"1010024"},{"town":"神田練塀町","koaza":"","lat":35.70071,"lng":139.774037,"zip":"1010022"},{"town":"鍛冶町一丁目","koaza":"","lat":35.690198,"lng":139.77154,"zip":"1010044"},{"town":"外神田四丁目","koaza":"","lat":35.70143,"lng":139.77237,"zip":"1010021"},{"town":"神田相生町","koaza":"","lat":35.699524,"lng":139.773602,"zip":"1010029"},{"town":"神田松永町","koaza":"","lat":35.70031,"lng":139.775293,"zip":"1010023"},{"town":"外神田三丁目","koaza":"","lat":35.701275,"lng":139.770496,"zip":"1010021"},{"town":"神田淡路町一丁目","koaza":"","lat":35.695759,"lng":139.767031,"zip":"1010063"},{"town":"神田淡路町二丁目","koaza":"","lat":35.697519,"lng":139.767838,"zip":"1010063"},{"town":"神田小川町一丁目","koaza":"","lat":35.694724,"lng":139.766412,"zip":"1010052"},{"town":"神田須田町一丁目","koaza":"","lat":35.696223,"lng":139.769841,"zip":"1010041"},{"town":"神田錦町二丁目","koaza":"","lat":35.691985,"lng":139.763046,"zip":"1010054"},{"town":"神田須田町二丁目","koaza":"","lat":35.695815,"lng":139.773059,"zip":"1010041"},{"town":"外神田一丁目","koaza":"","lat":35.698406,"lng":139.770885,"zip":"1010021"},{"town":"外神田二丁目","koaza":"","lat":35.700675,"lng":139.768552,"zip":"1010021"},{"town":"外神田六丁目","koaza":"","lat":35.704066,"lng":139.770971,"zip":"1010021"},{"town":"神田錦町三丁目","koaza":"","lat":35.692324,"lng":139.760722,"zip":"1010054"},{"town":"神田駿河台一丁目","koaza":"","lat":35.698003,"lng":139.762435,"zip":"1010062"},{"town":"神田駿河台三丁目","koaza":"","lat":35.696732,"lng":139.764721,"zip":"1010062"},{"town":"神田小川町三丁目","koaza":"","lat":35.695402,"lng":139.762406,"zip":"1010052"},{"town":"神田猿楽町一丁目","koaza":"","lat":35.698446,"lng":139.760355,"zip":"1010064"},{"town":"西神田二丁目","koaza":"","lat":35.698802,"lng":139.755267,"zip":"1010065"},{"town":"西神田一丁目","koaza":"","lat":35.69941,"lng":139.75715,"zip":"1010065"},{"town":"西神田三丁目","koaza":"","lat":35.698021,"lng":139.753319,"zip":"1010065"},{"town":"神田神保町三丁目","koaza":"","lat":35.695365,"lng":139.754275,"zip":"1010051"},{"town":"一ツ橋二丁目","koaza":"","lat":35.693171,"lng":139.757346,"zip":"1000003"},{"town":"神田三崎町三丁目","koaza":"","lat":35.700542,"lng":139.752263,"zip":"1010061"},{"town":"神田三崎町二丁目","koaza":"","lat":35.70076,"lng":139.754353,"zip":"1010061"},{"town":"飯田橋一丁目","koaza":"","lat":35.69847,"lng":139.749414,"zip":"1020072"},{"town":"九段北一丁目","koaza":"","lat":35.696656,"lng":139.750657,"zip":"1020073"},{"town":"飯田橋二丁目","koaza":"","lat":35.699206,"lng":139.750564,"zip":"1020072"},{"town":"神田神保町一丁目","koaza":"","lat":35.696491,"lng":139.759073,"zip":"1010051"},{"town":"神田美倉町","koaza":"","lat":35.690853,"lng":139.774501,"zip":"1010038"},{"town":"神田三崎町一丁目","koaza":"","lat":35.7006,"lng":139.756431,"zip":"1010061"},{"town":"神田猿楽町二丁目","koaza":"","lat":35.699697,"lng":139.759232,"zip":"1010064"},{"town":"神田駿河台二丁目","koaza":"","lat":35.700068,"lng":139.762011,"zip":"1010062"},{"town":"神田駿河台四丁目","koaza":"","lat":35.698594,"lng":139.765849,"zip":"1010062"},{"town":"隼町","koaza":"","lat":35.681312,"lng":139.743401,"zip":"1020092"},{"town":"永田町二丁目","koaza":"","lat":35.67505,"lng":139.741228,"zip":"1000014"},{"town":"平河町一丁目","koaza":"","lat":35.682577,"lng":139.739983,"zip":"1020093"},{"town":"平河町二丁目","koaza":"","lat":35.680376,"lng":139.740097,"zip":"1020093"},{"town":"麹町四丁目","koaza":"","lat":35.683639,"lng":139.736693,"zip":"1020083"},{"town":"麹町一丁目","koaza":"","lat":35.684447,"lng":139.742919,"zip":"1020083"},{"town":"麹町三丁目","koaza":"","lat":35.684512,"lng":139.738434,"zip":"1020083"},{"town":"麹町二丁目","koaza":"","lat":35.684487,"lng":139.740505,"zip":"1020083"},{"town":"麹町五丁目","koaza":"","lat":35.683677,"lng":139.73419,"zip":"1020083"},{"town":"一番町","koaza":"","lat":35.68735,"lng":139.741509,"zip":"1020082"},{"town":"九段南三丁目","koaza":"","lat":35.692431,"lng":139.742293,"zip":"1020074"},{"town":"九段南四丁目","koaza":"","lat":35.691249,"lng":139.738677,"zip":"1020074"},{"town":"二番町","koaza":"","lat":35.686185,"lng":139.736126,"zip":"1020084"},{"town":"紀尾井町","koaza":"","lat":35.681411,"lng":139.73495,"zip":"1020094"},{"town":"麹町六丁目","koaza":"","lat":35.684911,"lng":139.731936,"zip":"1020083"},{"town":"六番町","koaza":"","lat":35.687493,"lng":139.733399,"zip":"1020085"},{"town":"九段北三丁目","koaza":"","lat":35.694171,"lng":139.742681,"zip":"1020073"},{"town":"九段北四丁目","koaza":"","lat":35.693155,"lng":139.739047,"zip":"1020073"},{"town":"四番町","koaza":"","lat":35.689056,"lng":139.737847,"zip":"1020081"},{"town":"五番町","koaza":"","lat":35.689685,"lng":139.733989,"zip":"1020076"}]