[{"town":"下谷一丁目","koaza":"","lat":35.718801,"lng":139.781518,"zip":"1100004"},{"town":"柳橋一丁目","koaza":"","lat":35.696503,"lng":139.787821,"zip":"1110052"},{"town":"蔵前二丁目","koaza":"","lat":35.703023,"lng":139.792501,"zip":"1110051"},{"town":"柳橋二丁目","koaza":"","lat":35.69872,"lng":139.789389,"zip":"1110052"},{"town":"蔵前一丁目","koaza":"","lat":35.700193,"lng":139.790573,"zip":"1110051"},{"town":"浅草橋二丁目","koaza":"","lat":35.699627,"lng":139.785494,"zip":"1110053"},{"town":"浅草橋三丁目","koaza":"","lat":35.700865,"lng":139.786181,"zip":"1110053"},{"town":"三筋二丁目","koaza":"","lat":35.705498,"lng":139.786367,"zip":"1110055"},{"town":"鳥越二丁目","koaza":"","lat":35.702441,"lng":139.786069,"zip":"1110054"},{"town":"三筋一丁目","koaza":"","lat":35.703663,"lng":139.78578,"zip":"1110055"},{"town":"台東二丁目","koaza":"","lat":35.703252,"lng":139.778437,"zip":"1100016"},{"town":"台東三丁目","koaza":"","lat":35.704838,"lng":139.778737,"zip":"1100016"},{"town":"台東一丁目","koaza":"","lat":35.701458,"lng":139.778197,"zip":"1100016"},{"town":"浅草橋五丁目","koaza":"","lat":35.700562,"lng":139.782102,"zip":"1110053"},{"town":"上野三丁目","koaza":"","lat":35.705408,"lng":139.773096,"zip":"1100005"},{"town":"秋葉原","koaza":"","lat":35.701896,"lng":139.774417,"zip":"1100006"},{"town":"駒形二丁目","koaza":"","lat":35.706588,"lng":139.795458,"zip":"1110043"},{"town":"駒形一丁目","koaza":"","lat":35.70711,"lng":139.794315,"zip":"1110043"},{"town":"寿四丁目","koaza":"","lat":35.708696,"lng":139.792709,"zip":"1110042"},{"town":"蔵前三丁目","koaza":"","lat":35.704404,"lng":139.791063,"zip":"1110051"},{"town":"浅草一丁目","koaza":"","lat":35.71228,"lng":139.794908,"zip":"1110032"},{"town":"寿三丁目","koaza":"","lat":35.706996,"lng":139.79211,"zip":"1110042"},{"town":"蔵前四丁目","koaza":"","lat":35.704377,"lng":139.788885,"zip":"1110051"},{"town":"西浅草一丁目","koaza":"","lat":35.710962,"lng":139.790069,"zip":"1110035"},{"town":"元浅草四丁目","koaza":"","lat":35.709802,"lng":139.78659,"zip":"1110041"},{"town":"寿二丁目","koaza":"","lat":35.709262,"lng":139.789724,"zip":"1110042"},{"town":"松が谷一丁目","koaza":"","lat":35.711572,"lng":139.786711,"zip":"1110036"},{"town":"元浅草三丁目","koaza":"","lat":35.707677,"lng":139.786483,"zip":"1110041"},{"town":"寿一丁目","koaza":"","lat":35.70736,"lng":139.789492,"zip":"1110042"},{"town":"雷門一丁目","koaza":"","lat":35.710324,"lng":139.793112,"zip":"1110034"},{"town":"雷門二丁目","koaza":"","lat":35.709715,"lng":139.796552,"zip":"1110034"},{"town":"鳥越一丁目","koaza":"","lat":35.70292,"lng":139.78296,"zip":"1110054"},{"town":"元浅草一丁目","koaza":"","lat":35.70811,"lng":139.783872,"zip":"1110041"},{"town":"東上野一丁目","koaza":"","lat":35.708013,"lng":139.779146,"zip":"1100015"},{"town":"東上野五丁目","koaza":"","lat":35.713483,"lng":139.782066,"zip":"1100015"},{"town":"上野五丁目","koaza":"","lat":35.705188,"lng":139.775309,"zip":"1100005"},{"town":"台東四丁目","koaza":"","lat":35.706598,"lng":139.779417,"zip":"1100016"},{"town":"上野一丁目","koaza":"","lat":35.706684,"lng":139.771399,"zip":"1100005"},{"town":"東上野二丁目","koaza":"","lat":35.709804,"lng":139.778567,"zip":"1100015"},{"town":"上野四丁目","koaza":"","lat":35.709393,"lng":139.77388,"zip":"1100005"},{"town":"東上野三丁目","koaza":"","lat":35.710778,"lng":139.780186,"zip":"1100015"},{"town":"元浅草二丁目","koaza":"","lat":35.710167,"lng":139.783843,"zip":"1110041"},{"town":"上野六丁目","koaza":"","lat":35.709232,"lng":139.775381,"zip":"1100005"},{"town":"小島一丁目","koaza":"","lat":35.70429,"lng":139.782968,"zip":"1110056"},{"town":"小島二丁目","koaza":"","lat":35.705915,"lng":139.783245,"zip":"1110056"},{"town":"池之端一丁目","koaza":"","lat":35.709765,"lng":139.767847,"zip":"1100008"},{"town":"上野二丁目","koaza":"","lat":35.709057,"lng":139.772099,"zip":"1100005"},{"town":"浅草七丁目","koaza":"","lat":35.716589,"lng":139.803099,"zip":"1110032"},{"town":"西浅草二丁目","koaza":"","lat":35.712972,"lng":139.789959,"zip":"1110035"},{"town":"今戸一丁目","koaza":"","lat":35.718406,"lng":139.804933,"zip":"1110024"},{"town":"花川戸二丁目","koaza":"","lat":35.714385,"lng":139.800559,"zip":"1110033"},{"town":"東浅草一丁目","koaza":"","lat":35.721163,"lng":139.800793,"zip":"1110025"},{"town":"今戸二丁目","koaza":"","lat":35.721179,"lng":139.805182,"zip":"1110024"},{"town":"松が谷三丁目","koaza":"","lat":35.716056,"lng":139.787213,"zip":"1110036"},{"town":"西浅草三丁目","koaza":"","lat":35.716008,"lng":139.790857,"zip":"1110035"},{"town":"浅草六丁目","koaza":"","lat":35.717903,"lng":139.800518,"zip":"1110032"},{"town":"浅草四丁目","koaza":"","lat":35.718816,"lng":139.796032,"zip":"1110032"},{"town":"浅草五丁目","koaza":"","lat":35.7211,"lng":139.797317,"zip":"1110032"},{"town":"東浅草二丁目","koaza":"","lat":35.724597,"lng":139.799329,"zip":"1110025"},{"town":"千束四丁目","koaza":"","lat":35.724096,"lng":139.795558,"zip":"1110031"},{"town":"松が谷四丁目","koaza":"","lat":35.717988,"lng":139.787455,"zip":"1110036"},{"town":"松が谷二丁目","koaza":"","lat":35.713884,"lng":139.78662,"zip":"1110036"},{"town":"千束一丁目","koaza":"","lat":35.718633,"lng":139.791332,"zip":"1110031"},{"town":"浅草三丁目","koaza":"","lat":35.717281,"lng":139.795838,"zip":"1110032"},{"town":"浅草二丁目","koaza":"","lat":35.714944,"lng":139.795462,"zip":"1110032"},{"town":"花川戸一丁目","koaza":"","lat":35.712194,"lng":139.799416,"zip":"1110033"},{"town":"橋場一丁目","koaza":"","lat":35.724272,"lng":139.806997,"zip":"1110023"},{"town":"下谷二丁目","koaza":"","lat":35.722014,"lng":139.783884,"zip":"1100004"},{"town":"千束二丁目","koaza":"","lat":35.721008,"lng":139.790265,"zip":"1110031"},{"town":"入谷一丁目","koaza":"","lat":35.720535,"lng":139.785944,"zip":"1100013"},{"town":"入谷二丁目","koaza":"","lat":35.720395,"lng":139.788425,"zip":"1100013"},{"town":"竜泉一丁目","koaza":"","lat":35.7235,"lng":139.789105,"zip":"1100012"},{"town":"東上野四丁目","koaza":"","lat":35.713973,"lng":139.780441,"zip":"1100015"},{"town":"北上野一丁目","koaza":"","lat":35.717725,"lng":139.782753,"zip":"1100014"},{"town":"東上野六丁目","koaza":"","lat":35.713307,"lng":139.784077,"zip":"1100015"},{"town":"北上野二丁目","koaza":"","lat":35.71759,"lng":139.784324,"zip":"1100014"},{"town":"上野七丁目","koaza":"","lat":35.715876,"lng":139.77926,"zip":"1100005"},{"town":"根岸一丁目","koaza":"","lat":35.721614,"lng":139.779149,"zip":"1100003"},{"town":"根岸二丁目","koaza":"","lat":35.724885,"lng":139.775812,"zip":"1100003"},{"town":"根岸三丁目","koaza":"","lat":35.72274,"lng":139.781199,"zip":"1100003"},{"town":"池之端四丁目","koaza":"","lat":35.718475,"lng":139.768237,"zip":"1100008"},{"town":"上野桜木一丁目","koaza":"","lat":35.721389,"lng":139.774759,"zip":"1100002"},{"town":"上野桜木二丁目","koaza":"","lat":35.722913,"lng":139.773608,"zip":"1100002"},{"town":"谷中一丁目","koaza":"","lat":35.720098,"lng":139.767269,"zip":"1100001"},{"town":"谷中四丁目","koaza":"","lat":35.722645,"lng":139.76711,"zip":"1100001"},{"town":"谷中六丁目","koaza":"","lat":35.722128,"lng":139.769534,"zip":"1100001"},{"town":"池之端二丁目","koaza":"","lat":35.714989,"lng":139.766944,"zip":"1100008"},{"town":"上野公園","koaza":"","lat":35.715329,"lng":139.773549,"zip":"1100007"},{"town":"池之端三丁目","koaza":"","lat":35.715832,"lng":139.769183,"zip":"1100008"},{"town":"谷中二丁目","koaza":"","lat":35.722279,"lng":139.764595,"zip":"1100001"},{"town":"橋場二丁目","koaza":"","lat":35.727027,"lng":139.807175,"zip":"1110023"},{"town":"清川一丁目","koaza":"","lat":35.724539,"lng":139.803022,"zip":"1110022"},{"town":"清川二丁目","koaza":"","lat":35.727712,"lng":139.802622,"zip":"1110022"},{"town":"日本堤一丁目","koaza":"","lat":35.725853,"lng":139.798589,"zip":"1110021"},{"town":"下谷三丁目","koaza":"","lat":35.725685,"lng":139.787644,"zip":"1100004"},{"town":"竜泉二丁目","koaza":"","lat":35.726598,"lng":139.789906,"zip":"1100012"},{"town":"三ノ輪一丁目","koaza":"","lat":35.728042,"lng":139.792673,"zip":"1100011"},{"town":"竜泉三丁目","koaza":"","lat":35.725435,"lng":139.792784,"zip":"1100012"},{"town":"千束三丁目","koaza":"","lat":35.721895,"lng":139.792402,"zip":"1110031"},{"town":"日本堤二丁目","koaza":"","lat":35.727742,"lng":139.796996,"zip":"1110021"},{"town":"三ノ輪二丁目","koaza":"","lat":35.729501,"lng":139.793262,"zip":"1100011"},{"town":"根岸五丁目","koaza":"","lat":35.727547,"lng":139.787538,"zip":"1100003"},{"town":"谷中五丁目","koaza":"","lat":35.725508,"lng":139.767306,"zip":"1100001"},{"town":"谷中七丁目","koaza":"","lat":35.725192,"lng":139.771219,"zip":"1100001"},{"town":"谷中三丁目","koaza":"","lat":35.726912,"lng":139.765413,"zip":"1100001"},{"town":"根岸四丁目","koaza":"","lat":35.725543,"lng":139.784137,"zip":"1100003"},{"town":"浅草橋四丁目","koaza":"","lat":35.698503,"lng":139.781432,"zip":"1110053"},{"town":"浅草橋一丁目","koaza":"","lat":35.697415,"lng":139.784498,"zip":"1110053"}]