[{"town":"八潮三丁目","koaza":"","lat":35.598187,"lng":139.758968,"zip":"1400003"},{"town":"勝島二丁目","koaza":"","lat":35.59219,"lng":139.743629,"zip":"1400012"},{"town":"東品川四丁目","koaza":"","lat":35.609514,"lng":139.748327,"zip":"1400002"},{"town":"東大井一丁目","koaza":"","lat":35.604821,"lng":139.746321,"zip":"1400011"},{"town":"東品川三丁目","koaza":"","lat":35.614948,"lng":139.748747,"zip":"1400002"},{"town":"東品川二丁目","koaza":"","lat":35.621629,"lng":139.749827,"zip":"1400002"},{"town":"勝島一丁目","koaza":"","lat":35.59926,"lng":139.745212,"zip":"1400012"},{"town":"東品川一丁目","koaza":"","lat":35.620349,"lng":139.745247,"zip":"1400002"},{"town":"東八潮","koaza":"","lat":35.622488,"lng":139.769731,"zip":"1350092"},{"town":"八潮二丁目","koaza":"","lat":35.603932,"lng":139.763742,"zip":"1400003"},{"town":"八潮五丁目","koaza":"","lat":35.601099,"lng":139.751639,"zip":"1400003"},{"town":"八潮四丁目","koaza":"","lat":35.592236,"lng":139.751278,"zip":"1400003"},{"town":"八潮一丁目","koaza":"","lat":35.611843,"lng":139.753975,"zip":"1400003"},{"town":"東品川五丁目","koaza":"","lat":35.621306,"lng":139.755558,"zip":"1400002"},{"town":"二葉四丁目","koaza":"","lat":35.602701,"lng":139.715841,"zip":"1420043"},{"town":"上大崎四丁目","koaza":"","lat":35.630982,"lng":139.715364,"zip":"1410021"},{"town":"南大井四丁目","koaza":"","lat":35.59615,"lng":139.736031,"zip":"1400013"},{"town":"南大井一丁目","koaza":"","lat":35.595829,"lng":139.738669,"zip":"1400013"},{"town":"南大井三丁目","koaza":"","lat":35.590127,"lng":139.734573,"zip":"1400013"},{"town":"南大井二丁目","koaza":"","lat":35.590967,"lng":139.736793,"zip":"1400013"},{"town":"南大井六丁目","koaza":"","lat":35.590488,"lng":139.731396,"zip":"1400013"},{"town":"東大井六丁目","koaza":"","lat":35.602507,"lng":139.735566,"zip":"1400011"},{"town":"東大井四丁目","koaza":"","lat":35.605489,"lng":139.740275,"zip":"1400011"},{"town":"南大井五丁目","koaza":"","lat":35.596874,"lng":139.734221,"zip":"1400013"},{"town":"大井六丁目","koaza":"","lat":35.595706,"lng":139.731019,"zip":"1400014"},{"town":"大井二丁目","koaza":"","lat":35.605042,"lng":139.72902,"zip":"1400014"},{"town":"大井七丁目","koaza":"","lat":35.595204,"lng":139.727018,"zip":"1400014"},{"town":"大井五丁目","koaza":"","lat":35.598617,"lng":139.727993,"zip":"1400014"},{"town":"大井四丁目","koaza":"","lat":35.601417,"lng":139.732646,"zip":"1400014"},{"town":"東大井三丁目","koaza":"","lat":35.601691,"lng":139.738094,"zip":"1400011"},{"town":"大井三丁目","koaza":"","lat":35.601974,"lng":139.729195,"zip":"1400014"},{"town":"西大井三丁目","koaza":"","lat":35.596139,"lng":139.723404,"zip":"1400015"},{"town":"二葉三丁目","koaza":"","lat":35.603569,"lng":139.720499,"zip":"1420043"},{"town":"二葉二丁目","koaza":"","lat":35.604493,"lng":139.724663,"zip":"1420043"},{"town":"豊町三丁目","koaza":"","lat":35.608361,"lng":139.722198,"zip":"1420042"},{"town":"東大井五丁目","koaza":"","lat":35.606461,"lng":139.737034,"zip":"1400011"},{"town":"西大井一丁目","koaza":"","lat":35.602215,"lng":139.724579,"zip":"1400015"},{"town":"豊町六丁目","koaza":"","lat":35.604996,"lng":139.71595,"zip":"1420042"},{"town":"西大井二丁目","koaza":"","lat":35.599143,"lng":139.722976,"zip":"1400015"},{"town":"西大井四丁目","koaza":"","lat":35.594988,"lng":139.719527,"zip":"1400015"},{"town":"豊町四丁目","koaza":"","lat":35.606095,"lng":139.721828,"zip":"1420042"},{"town":"戸越六丁目","koaza":"","lat":35.6076,"lng":139.716519,"zip":"1420041"},{"town":"豊町五丁目","koaza":"","lat":35.605624,"lng":139.719322,"zip":"1420042"},{"town":"勝島三丁目","koaza":"","lat":35.592171,"lng":139.738715,"zip":"1400012"},{"town":"東大井二丁目","koaza":"","lat":35.600022,"lng":139.740675,"zip":"1400011"},{"town":"豊町二丁目","koaza":"","lat":35.610302,"lng":139.723464,"zip":"1420042"},{"town":"西大井五丁目","koaza":"","lat":35.597924,"lng":139.717233,"zip":"1400015"},{"town":"西大井六丁目","koaza":"","lat":35.600786,"lng":139.716922,"zip":"1400015"},{"town":"戸越四丁目","koaza":"","lat":35.612018,"lng":139.718391,"zip":"1420041"},{"town":"戸越五丁目","koaza":"","lat":35.60984,"lng":139.717439,"zip":"1420041"},{"town":"中延六丁目","koaza":"","lat":35.602353,"lng":139.71144,"zip":"1420053"},{"town":"中延四丁目","koaza":"","lat":35.605182,"lng":139.711084,"zip":"1420053"},{"town":"西中延三丁目","koaza":"","lat":35.607281,"lng":139.70776,"zip":"1420054"},{"town":"西中延二丁目","koaza":"","lat":35.609825,"lng":139.707295,"zip":"1420054"},{"town":"小山七丁目","koaza":"","lat":35.610483,"lng":139.697112,"zip":"1420062"},{"town":"旗の台三丁目","koaza":"","lat":35.605151,"lng":139.706012,"zip":"1420064"},{"town":"中延二丁目","koaza":"","lat":35.610696,"lng":139.710636,"zip":"1420053"},{"town":"中延一丁目","koaza":"","lat":35.61285,"lng":139.711045,"zip":"1420053"},{"town":"南品川五丁目","koaza":"","lat":35.609799,"lng":139.740638,"zip":"1400004"},{"town":"南品川二丁目","koaza":"","lat":35.612232,"lng":139.743335,"zip":"1400004"},{"town":"南品川三丁目","koaza":"","lat":35.608736,"lng":139.743908,"zip":"1400004"},{"town":"南品川四丁目","koaza":"","lat":35.61408,"lng":139.73863,"zip":"1400004"},{"town":"南品川一丁目","koaza":"","lat":35.615792,"lng":139.743263,"zip":"1400004"},{"town":"西品川一丁目","koaza":"","lat":35.612287,"lng":139.729515,"zip":"1410033"},{"town":"北品川二丁目","koaza":"","lat":35.618206,"lng":139.743093,"zip":"1400001"},{"town":"北品川三丁目","koaza":"","lat":35.619309,"lng":139.738967,"zip":"1400001"},{"town":"広町一丁目","koaza":"","lat":35.613728,"lng":139.734734,"zip":"1400005"},{"town":"北品川五丁目","koaza":"","lat":35.621479,"lng":139.73227,"zip":"1400001"},{"town":"北品川六丁目","koaza":"","lat":35.624908,"lng":139.732708,"zip":"1400001"},{"town":"戸越二丁目","koaza":"","lat":35.613766,"lng":139.71983,"zip":"1420041"},{"town":"豊町一丁目","koaza":"","lat":35.613226,"lng":139.722819,"zip":"1420042"},{"town":"西品川二丁目","koaza":"","lat":35.613056,"lng":139.726069,"zip":"1410033"},{"town":"大崎二丁目","koaza":"","lat":35.617769,"lng":139.726804,"zip":"1410032"},{"town":"北品川四丁目","koaza":"","lat":35.620245,"lng":139.736532,"zip":"1400001"},{"town":"北品川一丁目","koaza":"","lat":35.62234,"lng":139.740021,"zip":"1400001"},{"town":"大井一丁目","koaza":"","lat":35.605854,"lng":139.732558,"zip":"1400014"},{"town":"戸越三丁目","koaza":"","lat":35.613142,"lng":139.71673,"zip":"1420041"},{"town":"西品川三丁目","koaza":"","lat":35.61592,"lng":139.72657,"zip":"1410033"},{"town":"平塚二丁目","koaza":"","lat":35.616742,"lng":139.7138,"zip":"1420051"},{"town":"戸越一丁目","koaza":"","lat":35.616382,"lng":139.719678,"zip":"1420041"},{"town":"南品川六丁目","koaza":"","lat":35.610093,"lng":139.737231,"zip":"1400004"},{"town":"二葉一丁目","koaza":"","lat":35.606804,"lng":139.726718,"zip":"1420043"},{"town":"広町二丁目","koaza":"","lat":35.611901,"lng":139.732853,"zip":"1400005"},{"town":"大崎一丁目","koaza":"","lat":35.620151,"lng":139.729464,"zip":"1410032"},{"town":"西五反田八丁目","koaza":"","lat":35.621038,"lng":139.720431,"zip":"1410031"},{"town":"大崎四丁目","koaza":"","lat":35.620253,"lng":139.722312,"zip":"1410032"},{"town":"大崎三丁目","koaza":"","lat":35.619503,"lng":139.724519,"zip":"1410032"},{"town":"大崎五丁目","koaza":"","lat":35.622652,"lng":139.724801,"zip":"1410032"},{"town":"西五反田六丁目","koaza":"","lat":35.621432,"lng":139.716165,"zip":"1410031"},{"town":"西五反田一丁目","koaza":"","lat":35.624512,"lng":139.72313,"zip":"1410031"},{"town":"中延三丁目","koaza":"","lat":35.608007,"lng":139.710848,"zip":"1420053"},{"town":"東中延二丁目","koaza":"","lat":35.607662,"lng":139.713156,"zip":"1420052"},{"town":"東中延一丁目","koaza":"","lat":35.611023,"lng":139.713849,"zip":"1420052"},{"town":"平塚一丁目","koaza":"","lat":35.614889,"lng":139.71548,"zip":"1420051"},{"town":"西五反田七丁目","koaza":"","lat":35.621641,"lng":139.718916,"zip":"1410031"},{"town":"西五反田五丁目","koaza":"","lat":35.624114,"lng":139.713777,"zip":"1410031"},{"town":"荏原一丁目","koaza":"","lat":35.61999,"lng":139.713784,"zip":"1420063"},{"town":"東五反田二丁目","koaza":"","lat":35.624169,"lng":139.72819,"zip":"1410022"},{"town":"東五反田一丁目","koaza":"","lat":35.62776,"lng":139.726428,"zip":"1410022"},{"town":"西五反田三丁目","koaza":"","lat":35.628101,"lng":139.717331,"zip":"1410031"},{"town":"旗の台二丁目","koaza":"","lat":35.606942,"lng":139.704471,"zip":"1420064"},{"town":"旗の台六丁目","koaza":"","lat":35.606827,"lng":139.698974,"zip":"1420064"},{"town":"旗の台五丁目","koaza":"","lat":35.603298,"lng":139.701091,"zip":"1420064"},{"town":"旗の台四丁目","koaza":"","lat":35.60285,"lng":139.704865,"zip":"1420064"},{"town":"中延五丁目","koaza":"","lat":35.602514,"lng":139.708133,"zip":"1420053"},{"town":"小山一丁目","koaza":"","lat":35.622346,"lng":139.710816,"zip":"1420062"},{"town":"荏原六丁目","koaza":"","lat":35.612196,"lng":139.704088,"zip":"1420063"},{"town":"荏原五丁目","koaza":"","lat":35.61452,"lng":139.703044,"zip":"1420063"},{"town":"小山五丁目","koaza":"","lat":35.616355,"lng":139.701445,"zip":"1420062"},{"town":"小山六丁目","koaza":"","lat":35.614122,"lng":139.698346,"zip":"1420062"},{"town":"荏原七丁目","koaza":"","lat":35.61113,"lng":139.700244,"zip":"1420063"},{"town":"旗の台一丁目","koaza":"","lat":35.608989,"lng":139.703332,"zip":"1420064"},{"town":"小山四丁目","koaza":"","lat":35.618254,"lng":139.703001,"zip":"1420062"},{"town":"荏原三丁目","koaza":"","lat":35.617923,"lng":139.707013,"zip":"1420063"},{"town":"小山二丁目","koaza":"","lat":35.620915,"lng":139.70884,"zip":"1420062"},{"town":"小山台一丁目","koaza":"","lat":35.623517,"lng":139.706986,"zip":"1420061"},{"town":"小山三丁目","koaza":"","lat":35.61992,"lng":139.705368,"zip":"1420062"},{"town":"西五反田四丁目","koaza":"","lat":35.626105,"lng":139.710836,"zip":"1410031"},{"town":"小山台二丁目","koaza":"","lat":35.624294,"lng":139.701195,"zip":"1420061"},{"town":"平塚三丁目","koaza":"","lat":35.614824,"lng":139.711301,"zip":"1420051"},{"town":"荏原二丁目","koaza":"","lat":35.618309,"lng":139.710462,"zip":"1420063"},{"town":"荏原四丁目","koaza":"","lat":35.615709,"lng":139.706832,"zip":"1420063"},{"town":"西中延一丁目","koaza":"","lat":35.613415,"lng":139.708271,"zip":"1420054"},{"town":"東五反田三丁目","koaza":"","lat":35.628009,"lng":139.729323,"zip":"1410022"},{"town":"東五反田四丁目","koaza":"","lat":35.630582,"lng":139.727617,"zip":"1410022"},{"town":"上大崎三丁目","koaza":"","lat":35.631726,"lng":139.718439,"zip":"1410021"},{"town":"上大崎二丁目","koaza":"","lat":35.636363,"lng":139.715675,"zip":"1410021"},{"town":"西五反田二丁目","koaza":"","lat":35.626368,"lng":139.721005,"zip":"1410031"},{"town":"東五反田五丁目","koaza":"","lat":35.629593,"lng":139.722866,"zip":"1410022"},{"town":"上大崎一丁目","koaza":"","lat":35.634066,"lng":139.723264,"zip":"1410021"}]