[{"town":"本町三丁目","koaza":"","lat":35.702823,"lng":139.479679,"zip":"1850012"},{"town":"本町四丁目","koaza":"","lat":35.702634,"lng":139.477401,"zip":"1850012"},{"town":"本町二丁目","koaza":"","lat":35.701689,"lng":139.482406,"zip":"1850012"},{"town":"泉町一丁目","koaza":"","lat":35.698265,"lng":139.474987,"zip":"1850024"},{"town":"本多三丁目","koaza":"","lat":35.710535,"lng":139.480275,"zip":"1850011"},{"town":"西恋ケ窪三丁目","koaza":"","lat":35.704479,"lng":139.464463,"zip":"1850013"},{"town":"東元町三丁目","koaza":"","lat":35.695183,"lng":139.477355,"zip":"1850022"},{"town":"東元町四丁目","koaza":"","lat":35.691298,"lng":139.478027,"zip":"1850022"},{"town":"西元町四丁目","koaza":"","lat":35.69024,"lng":139.466976,"zip":"1850023"},{"town":"西元町三丁目","koaza":"","lat":35.690884,"lng":139.472468,"zip":"1850023"},{"town":"東元町一丁目","koaza":"","lat":35.695072,"lng":139.486271,"zip":"1850022"},{"town":"東元町二丁目","koaza":"","lat":35.694032,"lng":139.482646,"zip":"1850022"},{"town":"南町一丁目","koaza":"","lat":35.698886,"lng":139.488841,"zip":"1850021"},{"town":"本町一丁目","koaza":"","lat":35.701345,"lng":139.485916,"zip":"1850012"},{"town":"南町二丁目","koaza":"","lat":35.698466,"lng":139.48398,"zip":"1850021"},{"town":"南町三丁目","koaza":"","lat":35.698221,"lng":139.478861,"zip":"1850021"},{"town":"西元町一丁目","koaza":"","lat":35.694657,"lng":139.471877,"zip":"1850023"},{"town":"泉町二丁目","koaza":"","lat":35.697849,"lng":139.470163,"zip":"1850024"},{"town":"西元町二丁目","koaza":"","lat":35.693163,"lng":139.469425,"zip":"1850023"},{"town":"西恋ケ窪二丁目","koaza":"","lat":35.700924,"lng":139.46427,"zip":"1850013"},{"town":"内藤一丁目","koaza":"","lat":35.695946,"lng":139.458115,"zip":"1850033"},{"town":"内藤二丁目","koaza":"","lat":35.697068,"lng":139.455045,"zip":"1850033"},{"town":"日吉町一丁目","koaza":"","lat":35.702001,"lng":139.459094,"zip":"1850032"},{"town":"日吉町二丁目","koaza":"","lat":35.701377,"lng":139.452307,"zip":"1850032"},{"town":"日吉町三丁目","koaza":"","lat":35.703967,"lng":139.455457,"zip":"1850032"},{"town":"本多五丁目","koaza":"","lat":35.706672,"lng":139.484739,"zip":"1850011"},{"town":"本多一丁目","koaza":"","lat":35.704334,"lng":139.483396,"zip":"1850011"},{"town":"東恋ケ窪二丁目","koaza":"","lat":35.708043,"lng":139.475589,"zip":"1850014"},{"town":"本多二丁目","koaza":"","lat":35.705929,"lng":139.479678,"zip":"1850011"},{"town":"東恋ケ窪三丁目","koaza":"","lat":35.706672,"lng":139.472625,"zip":"1850014"},{"town":"西恋ケ窪一丁目","koaza":"","lat":35.703145,"lng":139.468379,"zip":"1850013"},{"town":"東恋ケ窪一丁目","koaza":"","lat":35.702743,"lng":139.473555,"zip":"1850014"},{"town":"泉町三丁目","koaza":"","lat":35.697329,"lng":139.465422,"zip":"1850024"},{"town":"日吉町四丁目","koaza":"","lat":35.706639,"lng":139.460709,"zip":"1850032"},{"town":"北町五丁目","koaza":"","lat":35.720434,"lng":139.453653,"zip":"1850001"},{"town":"戸倉四丁目","koaza":"","lat":35.71063,"lng":139.456918,"zip":"1850003"},{"town":"戸倉二丁目","koaza":"","lat":35.707018,"lng":139.457213,"zip":"1850003"},{"town":"東恋ケ窪四丁目","koaza":"","lat":35.708946,"lng":139.469676,"zip":"1850014"},{"town":"東恋ケ窪六丁目","koaza":"","lat":35.713125,"lng":139.470007,"zip":"1850014"},{"town":"富士本一丁目","koaza":"","lat":35.704118,"lng":139.450667,"zip":"1850031"},{"town":"戸倉三丁目","koaza":"","lat":35.708359,"lng":139.452005,"zip":"1850003"},{"town":"新町一丁目","koaza":"","lat":35.712237,"lng":139.452357,"zip":"1850004"},{"town":"東恋ケ窪五丁目","koaza":"","lat":35.709668,"lng":139.466799,"zip":"1850014"},{"town":"光町二丁目","koaza":"","lat":35.703297,"lng":139.441202,"zip":"1850034"},{"town":"西町一丁目","koaza":"","lat":35.702637,"lng":139.434823,"zip":"1850035"},{"town":"西町二丁目","koaza":"","lat":35.706717,"lng":139.437256,"zip":"1850035"},{"town":"光町一丁目","koaza":"","lat":35.703853,"lng":139.446144,"zip":"1850034"},{"town":"西町三丁目","koaza":"","lat":35.710344,"lng":139.434996,"zip":"1850035"},{"town":"富士本三丁目","koaza":"","lat":35.710705,"lng":139.445696,"zip":"1850031"},{"town":"高木町二丁目","koaza":"","lat":35.71077,"lng":139.439203,"zip":"1850036"},{"town":"高木町一丁目","koaza":"","lat":35.711408,"lng":139.442209,"zip":"1850036"},{"town":"西町四丁目","koaza":"","lat":35.71376,"lng":139.43462,"zip":"1850035"},{"town":"高木町三丁目","koaza":"","lat":35.714232,"lng":139.439915,"zip":"1850036"},{"town":"本多四丁目","koaza":"","lat":35.709212,"lng":139.483108,"zip":"1850011"},{"town":"光町三丁目","koaza":"","lat":35.707629,"lng":139.442397,"zip":"1850034"},{"town":"富士本二丁目","koaza":"","lat":35.706901,"lng":139.448358,"zip":"1850031"},{"town":"新町二丁目","koaza":"","lat":35.711671,"lng":139.449589,"zip":"1850004"},{"town":"新町三丁目","koaza":"","lat":35.711952,"lng":139.447251,"zip":"1850004"},{"town":"北町一丁目","koaza":"","lat":35.718839,"lng":139.457311,"zip":"1850001"},{"town":"並木町二丁目","koaza":"","lat":35.715343,"lng":139.452369,"zip":"1850005"},{"town":"並木町三丁目","koaza":"","lat":35.715954,"lng":139.447249,"zip":"1850005"},{"town":"北町三丁目","koaza":"","lat":35.718823,"lng":139.447866,"zip":"1850001"},{"town":"北町四丁目","koaza":"","lat":35.721334,"lng":139.448385,"zip":"1850001"},{"town":"西町五丁目","koaza":"","lat":35.716902,"lng":139.433129,"zip":"1850035"},{"town":"並木町一丁目","koaza":"","lat":35.715013,"lng":139.457501,"zip":"1850005"},{"town":"北町二丁目","koaza":"","lat":35.71818,"lng":139.453238,"zip":"1850001"},{"town":"東戸倉二丁目","koaza":"","lat":35.714141,"lng":139.464027,"zip":"1850002"},{"town":"東戸倉一丁目","koaza":"","lat":35.714569,"lng":139.468338,"zip":"1850002"},{"town":"戸倉一丁目","koaza":"","lat":35.712096,"lng":139.461232,"zip":"1850003"},{"town":"西恋ケ窪四丁目","koaza":"","lat":35.707895,"lng":139.465372,"zip":"1850013"}]