[{"town":"谷保六丁目","koaza":"","lat":35.674105,"lng":139.445242,"zip":"1860011"},{"town":"泉五丁目","koaza":"","lat":35.677736,"lng":139.435406,"zip":"1860012"},{"town":"矢川三丁目","koaza":"","lat":35.681309,"lng":139.428837,"zip":"1860015"},{"town":"泉三丁目","koaza":"","lat":35.677782,"lng":139.426044,"zip":"1860012"},{"town":"青柳一丁目","koaza":"","lat":35.685331,"lng":139.42418,"zip":"1860013"},{"town":"泉四丁目","koaza":"","lat":35.677001,"lng":139.431626,"zip":"1860012"},{"town":"石田","koaza":"","lat":35.684392,"lng":139.430897,"zip":"1860014"},{"town":"泉一丁目","koaza":"","lat":35.673163,"lng":139.436284,"zip":"1860012"},{"town":"泉二丁目","koaza":"","lat":35.673155,"lng":139.430048,"zip":"1860012"},{"town":"青柳三丁目","koaza":"","lat":35.685306,"lng":139.420734,"zip":"1860013"},{"town":"中二丁目","koaza":"","lat":35.693567,"lng":139.443163,"zip":"1860004"},{"town":"東二丁目","koaza":"","lat":35.693477,"lng":139.449586,"zip":"1860002"},{"town":"東一丁目","koaza":"","lat":35.697776,"lng":139.449245,"zip":"1860002"},{"town":"富士見台一丁目","koaza":"","lat":35.684003,"lng":139.449285,"zip":"1860003"},{"town":"富士見台二丁目","koaza":"","lat":35.684824,"lng":139.443473,"zip":"1860003"},{"town":"富士見台三丁目","koaza":"","lat":35.686798,"lng":139.436915,"zip":"1860003"},{"town":"西三丁目","koaza":"","lat":35.689213,"lng":139.436627,"zip":"1860005"},{"town":"富士見台四丁目","koaza":"","lat":35.688156,"lng":139.430141,"zip":"1860003"},{"town":"東三丁目","koaza":"","lat":35.693483,"lng":139.454879,"zip":"1860002"},{"town":"中三丁目","koaza":"","lat":35.688958,"lng":139.442856,"zip":"1860004"},{"town":"東四丁目","koaza":"","lat":35.688683,"lng":139.450428,"zip":"1860002"},{"town":"中一丁目","koaza":"","lat":35.69751,"lng":139.441287,"zip":"1860004"},{"town":"北一丁目","koaza":"","lat":35.699921,"lng":139.446133,"zip":"1860001"},{"town":"北二丁目","koaza":"","lat":35.700087,"lng":139.438355,"zip":"1860001"},{"town":"西二丁目","koaza":"","lat":35.692998,"lng":139.434839,"zip":"1860005"},{"town":"西一丁目","koaza":"","lat":35.697252,"lng":139.433334,"zip":"1860005"},{"town":"北三丁目","koaza":"","lat":35.70153,"lng":139.429603,"zip":"1860001"},{"town":"谷保七丁目","koaza":"","lat":35.674317,"lng":139.448694,"zip":"1860011"},{"town":"谷保","koaza":"","lat":35.680331,"lng":139.439839,"zip":"1860011"},{"town":"青柳二丁目","koaza":"","lat":35.682071,"lng":139.42348,"zip":"1860013"},{"town":"谷保四丁目","koaza":"","lat":null,"lng":null,"zip":null}]