[{"town":"緑三丁目","koaza":"","lat":35.694484,"lng":139.804232,"zip":"1300021"},{"town":"石原三丁目","koaza":"","lat":35.700487,"lng":139.803773,"zip":"1300011"},{"town":"向島四丁目","koaza":"","lat":35.715684,"lng":139.81288,"zip":"1310033"},{"town":"八広二丁目","koaza":"","lat":35.715568,"lng":139.826821,"zip":"1310041"},{"town":"立花二丁目","koaza":"","lat":35.708465,"lng":139.829129,"zip":"1310043"},{"town":"立花一丁目","koaza":"","lat":35.705215,"lng":139.829096,"zip":"1310043"},{"town":"亀沢二丁目","koaza":"","lat":35.697449,"lng":139.801424,"zip":"1300014"},{"town":"菊川三丁目","koaza":"","lat":35.688537,"lng":139.80776,"zip":"1300024"},{"town":"菊川一丁目","koaza":"","lat":35.689285,"lng":139.801596,"zip":"1300024"},{"town":"菊川二丁目","koaza":"","lat":35.688963,"lng":139.805114,"zip":"1300024"},{"town":"緑二丁目","koaza":"","lat":35.694117,"lng":139.801646,"zip":"1300021"},{"town":"緑一丁目","koaza":"","lat":35.694088,"lng":139.798998,"zip":"1300021"},{"town":"立川一丁目","koaza":"","lat":35.690808,"lng":139.799259,"zip":"1300023"},{"town":"千歳三丁目","koaza":"","lat":35.690419,"lng":139.796982,"zip":"1300025"},{"town":"立川四丁目","koaza":"","lat":35.691484,"lng":139.807435,"zip":"1300023"},{"town":"太平四丁目","koaza":"","lat":35.701441,"lng":139.816912,"zip":"1300012"},{"town":"横川三丁目","koaza":"","lat":35.70413,"lng":139.813652,"zip":"1300003"},{"town":"江東橋四丁目","koaza":"","lat":35.695011,"lng":139.817372,"zip":"1300022"},{"town":"江東橋五丁目","koaza":"","lat":35.690723,"lng":139.810394,"zip":"1300022"},{"town":"緑四丁目","koaza":"","lat":35.694486,"lng":139.807187,"zip":"1300021"},{"town":"錦糸三丁目","koaza":"","lat":35.698478,"lng":139.814165,"zip":"1300013"},{"town":"江東橋三丁目","koaza":"","lat":35.694649,"lng":139.81408,"zip":"1300022"},{"town":"江東橋二丁目","koaza":"","lat":35.694833,"lng":139.812102,"zip":"1300022"},{"town":"太平二丁目","koaza":"","lat":35.701079,"lng":139.812415,"zip":"1300012"},{"town":"錦糸二丁目","koaza":"","lat":35.698388,"lng":139.812637,"zip":"1300013"},{"town":"立川二丁目","koaza":"","lat":35.691312,"lng":139.80185,"zip":"1300023"},{"town":"立川三丁目","koaza":"","lat":35.691291,"lng":139.804477,"zip":"1300023"},{"town":"亀沢三丁目","koaza":"","lat":35.697592,"lng":139.803986,"zip":"1300014"},{"town":"江東橋一丁目","koaza":"","lat":35.694575,"lng":139.809992,"zip":"1300022"},{"town":"亀沢一丁目","koaza":"","lat":35.697291,"lng":139.798756,"zip":"1300014"},{"town":"石原四丁目","koaza":"","lat":35.700689,"lng":139.806674,"zip":"1300011"},{"town":"石原二丁目","koaza":"","lat":35.700263,"lng":139.801502,"zip":"1300011"},{"town":"本所三丁目","koaza":"","lat":35.703686,"lng":139.80351,"zip":"1300004"},{"town":"本所四丁目","koaza":"","lat":35.703918,"lng":139.806411,"zip":"1300004"},{"town":"石原一丁目","koaza":"","lat":35.700328,"lng":139.79853,"zip":"1300011"},{"town":"東駒形二丁目","koaza":"","lat":35.706418,"lng":139.800941,"zip":"1300005"},{"town":"吾妻橋一丁目","koaza":"","lat":35.709683,"lng":139.800404,"zip":"1300001"},{"town":"横網二丁目","koaza":"","lat":35.700423,"lng":139.795032,"zip":"1300015"},{"town":"両国三丁目","koaza":"","lat":35.693799,"lng":139.793999,"zip":"1300026"},{"town":"千歳一丁目","koaza":"","lat":35.690902,"lng":139.79121,"zip":"1300025"},{"town":"千歳二丁目","koaza":"","lat":35.690818,"lng":139.794616,"zip":"1300025"},{"town":"両国一丁目","koaza":"","lat":35.694107,"lng":139.789858,"zip":"1300026"},{"town":"立花三丁目","koaza":"","lat":35.705689,"lng":139.833498,"zip":"1310043"},{"town":"立花四丁目","koaza":"","lat":35.709118,"lng":139.833407,"zip":"1310043"},{"town":"亀沢四丁目","koaza":"","lat":35.697742,"lng":139.806907,"zip":"1300014"},{"town":"錦糸一丁目","koaza":"","lat":35.697911,"lng":139.810229,"zip":"1300013"},{"town":"太平一丁目","koaza":"","lat":35.70094,"lng":139.810001,"zip":"1300012"},{"town":"横川四丁目","koaza":"","lat":35.704194,"lng":139.81526,"zip":"1300003"},{"town":"横川五丁目","koaza":"","lat":35.704398,"lng":139.817546,"zip":"1300003"},{"town":"文花二丁目","koaza":"","lat":35.708431,"lng":139.826369,"zip":"1310044"},{"town":"太平三丁目","koaza":"","lat":35.700918,"lng":139.814082,"zip":"1300012"},{"town":"錦糸四丁目","koaza":"","lat":35.698602,"lng":139.817174,"zip":"1300013"},{"town":"京島二丁目","koaza":"","lat":35.713635,"lng":139.820338,"zip":"1310046"},{"town":"横川二丁目","koaza":"","lat":35.704433,"lng":139.812169,"zip":"1300003"},{"town":"業平三丁目","koaza":"","lat":35.707487,"lng":139.813306,"zip":"1300002"},{"town":"業平一丁目","koaza":"","lat":35.707934,"lng":139.809494,"zip":"1300002"},{"town":"業平四丁目","koaza":"","lat":35.707574,"lng":139.814938,"zip":"1300002"},{"town":"業平五丁目","koaza":"","lat":35.7074,"lng":139.817308,"zip":"1300002"},{"town":"横川一丁目","koaza":"","lat":35.704513,"lng":139.809745,"zip":"1300003"},{"town":"業平二丁目","koaza":"","lat":35.707538,"lng":139.811924,"zip":"1300002"},{"town":"文花一丁目","koaza":"","lat":35.709004,"lng":139.821865,"zip":"1310044"},{"town":"押上一丁目","koaza":"","lat":35.710776,"lng":139.813826,"zip":"1310045"},{"town":"東駒形四丁目","koaza":"","lat":35.706926,"lng":139.806156,"zip":"1300005"},{"town":"吾妻橋三丁目","koaza":"","lat":35.709316,"lng":139.805943,"zip":"1300001"},{"town":"東駒形三丁目","koaza":"","lat":35.706669,"lng":139.803091,"zip":"1300005"},{"town":"本所一丁目","koaza":"","lat":35.703738,"lng":139.797267,"zip":"1300004"},{"town":"本所二丁目","koaza":"","lat":35.703619,"lng":139.801104,"zip":"1300004"},{"town":"東駒形一丁目","koaza":"","lat":35.706189,"lng":139.798274,"zip":"1300005"},{"town":"吾妻橋二丁目","koaza":"","lat":35.709577,"lng":139.803174,"zip":"1300001"},{"town":"向島一丁目","koaza":"","lat":35.711774,"lng":139.804612,"zip":"1310033"},{"town":"向島三丁目","koaza":"","lat":35.713316,"lng":139.80932,"zip":"1310033"},{"town":"京島三丁目","koaza":"","lat":35.714639,"lng":139.823446,"zip":"1310046"},{"town":"東墨田三丁目","koaza":"","lat":35.720757,"lng":139.836891,"zip":"1310042"},{"town":"立花六丁目","koaza":"","lat":35.710736,"lng":139.836197,"zip":"1310043"},{"town":"東墨田二丁目","koaza":"","lat":35.722275,"lng":139.83245,"zip":"1310042"},{"town":"文花三丁目","koaza":"","lat":35.711681,"lng":139.826197,"zip":"1310044"},{"town":"押上二丁目","koaza":"","lat":35.713604,"lng":139.814459,"zip":"1310045"},{"town":"八広三丁目","koaza":"","lat":35.719156,"lng":139.82748,"zip":"1310041"},{"town":"東向島一丁目","koaza":"","lat":35.720983,"lng":139.813857,"zip":"1310032"},{"town":"東向島四丁目","koaza":"","lat":35.725348,"lng":139.817604,"zip":"1310032"},{"town":"東向島二丁目","koaza":"","lat":35.718943,"lng":139.816621,"zip":"1310032"},{"town":"押上三丁目","koaza":"","lat":35.711901,"lng":139.819652,"zip":"1310045"},{"town":"京島一丁目","koaza":"","lat":35.717048,"lng":139.819684,"zip":"1310046"},{"town":"両国四丁目","koaza":"","lat":35.693896,"lng":139.796221,"zip":"1300026"},{"town":"向島二丁目","koaza":"","lat":35.715147,"lng":139.80682,"zip":"1310033"},{"town":"八広一丁目","koaza":"","lat":35.720012,"lng":139.82304,"zip":"1310041"},{"town":"向島五丁目","koaza":"","lat":35.718987,"lng":139.810264,"zip":"1310033"},{"town":"両国二丁目","koaza":"","lat":35.693886,"lng":139.792108,"zip":"1300026"},{"town":"横網一丁目","koaza":"","lat":35.697613,"lng":139.794076,"zip":"1300015"},{"town":"立花五丁目","koaza":"","lat":35.713125,"lng":139.831241,"zip":"1310043"},{"town":"東墨田一丁目","koaza":"","lat":35.716359,"lng":139.83123,"zip":"1310042"},{"town":"東向島六丁目","koaza":"","lat":35.72445,"lng":139.822238,"zip":"1310032"},{"town":"八広五丁目","koaza":"","lat":35.724849,"lng":139.825855,"zip":"1310041"},{"town":"八広四丁目","koaza":"","lat":35.723057,"lng":139.828893,"zip":"1310041"},{"town":"東向島三丁目","koaza":"","lat":35.724075,"lng":139.814859,"zip":"1310032"},{"town":"東向島五丁目","koaza":"","lat":35.726834,"lng":139.821553,"zip":"1310032"},{"town":"堤通一丁目","koaza":"","lat":35.724803,"lng":139.811252,"zip":"1310034"},{"town":"墨田四丁目","koaza":"","lat":35.733159,"lng":139.82389,"zip":"1310031"},{"town":"八広六丁目","koaza":"","lat":35.727513,"lng":139.829793,"zip":"1310041"},{"town":"堤通二丁目","koaza":"","lat":35.733962,"lng":139.814668,"zip":"1310034"},{"town":"墨田一丁目","koaza":"","lat":35.728561,"lng":139.816426,"zip":"1310031"},{"town":"墨田二丁目","koaza":"","lat":35.731596,"lng":139.816982,"zip":"1310031"},{"town":"墨田三丁目","koaza":"","lat":35.730128,"lng":139.82101,"zip":"1310031"},{"town":"墨田五丁目","koaza":"","lat":35.738306,"lng":139.82034,"zip":"1310031"}]