[{"town":"東寺方一丁目","koaza":"","lat":35.648156,"lng":139.442913,"zip":"2060003"},{"town":"一ノ宮三丁目","koaza":"","lat":35.649659,"lng":139.444526,"zip":"2060002"},{"town":"一ノ宮二丁目","koaza":"","lat":35.652576,"lng":139.443282,"zip":"2060002"},{"town":"貝取","koaza":"","lat":35.635883,"lng":139.445387,"zip":"2060012"},{"town":"豊ケ丘一丁目","koaza":"","lat":35.628041,"lng":139.433907,"zip":"2060000"},{"town":"山王下二丁目","koaza":"","lat":35.627425,"lng":139.419985,"zip":"2060042"},{"town":"連光寺一丁目","koaza":"","lat":35.646266,"lng":139.457466,"zip":"2060021"},{"town":"連光寺二丁目","koaza":"","lat":35.641534,"lng":139.454066,"zip":"2060021"},{"town":"連光寺四丁目","koaza":"","lat":35.639243,"lng":139.465694,"zip":"2060021"},{"town":"連光寺三丁目","koaza":"","lat":35.642074,"lng":139.45928,"zip":"2060021"},{"town":"関戸一丁目","koaza":"","lat":35.652267,"lng":139.447572,"zip":"2060011"},{"town":"関戸二丁目","koaza":"","lat":35.650896,"lng":139.450944,"zip":"2060011"},{"town":"関戸三丁目","koaza":"","lat":35.64958,"lng":139.458539,"zip":"2060011"},{"town":"中沢二丁目","koaza":"","lat":35.619892,"lng":139.413555,"zip":"2060036"},{"town":"貝取五丁目","koaza":"","lat":35.612304,"lng":139.44039,"zip":"2060012"},{"town":"落合一丁目","koaza":"","lat":35.624877,"lng":139.427097,"zip":"2060033"},{"town":"唐木田三丁目","koaza":"","lat":35.610414,"lng":139.402586,"zip":"2060035"},{"town":"一ノ宮","koaza":"","lat":35.638195,"lng":139.467722,"zip":"2060002"},{"town":"一ノ宮四丁目","koaza":"","lat":35.649948,"lng":139.439855,"zip":"2060002"},{"town":"豊ケ丘六丁目","koaza":"","lat":35.611599,"lng":139.435132,"zip":"2060000"},{"town":"唐木田二丁目","koaza":"","lat":35.61181,"lng":139.405176,"zip":"2060035"},{"town":"連光寺六丁目","koaza":"","lat":35.632366,"lng":139.466163,"zip":"2060021"},{"town":"聖ケ丘五丁目","koaza":"","lat":35.626968,"lng":139.463635,"zip":"2060000"},{"town":"聖ケ丘三丁目","koaza":"","lat":35.630705,"lng":139.460609,"zip":"2060000"},{"town":"連光寺五丁目","koaza":"","lat":35.636759,"lng":139.461455,"zip":"2060021"},{"town":"永山四丁目","koaza":"","lat":35.618919,"lng":139.450636,"zip":"2060025"},{"town":"聖ケ丘四丁目","koaza":"","lat":35.627928,"lng":139.462062,"zip":"2060000"},{"town":"聖ケ丘二丁目","koaza":"","lat":35.633215,"lng":139.456702,"zip":"2060000"},{"town":"馬引沢二丁目","koaza":"","lat":35.630694,"lng":139.455159,"zip":"2060023"},{"town":"諏訪三丁目","koaza":"","lat":35.626393,"lng":139.454002,"zip":"2060024"},{"town":"諏訪四丁目","koaza":"","lat":35.624336,"lng":139.458211,"zip":"2060024"},{"town":"貝取一丁目","koaza":"","lat":35.626706,"lng":139.44015,"zip":"2060012"},{"town":"南野一丁目","koaza":"","lat":35.610167,"lng":139.440559,"zip":"2060032"},{"town":"永山七丁目","koaza":"","lat":35.612516,"lng":139.44867,"zip":"2060025"},{"town":"永山六丁目","koaza":"","lat":35.614642,"lng":139.444538,"zip":"2060025"},{"town":"貝取二丁目","koaza":"","lat":35.620629,"lng":139.439992,"zip":"2060012"},{"town":"貝取四丁目","koaza":"","lat":35.614952,"lng":139.43914,"zip":"2060012"},{"town":"貝取三丁目","koaza":"","lat":35.616718,"lng":139.441297,"zip":"2060012"},{"town":"永山三丁目","koaza":"","lat":35.623403,"lng":139.446126,"zip":"2060025"},{"town":"永山五丁目","koaza":"","lat":35.616953,"lng":139.447062,"zip":"2060025"},{"town":"愛宕四丁目","koaza":"","lat":35.629481,"lng":139.427779,"zip":"2060041"},{"town":"豊ケ丘三丁目","koaza":"","lat":35.618963,"lng":139.436173,"zip":"2060000"},{"town":"落合四丁目","koaza":"","lat":35.612698,"lng":139.430154,"zip":"2060033"},{"town":"落合二丁目","koaza":"","lat":35.619171,"lng":139.424916,"zip":"2060033"},{"town":"落合五丁目","koaza":"","lat":35.614422,"lng":139.425039,"zip":"2060033"},{"town":"永山二丁目","koaza":"","lat":35.627599,"lng":139.445735,"zip":"2060025"},{"town":"落合三丁目","koaza":"","lat":35.619155,"lng":139.430218,"zip":"2060033"},{"town":"豊ケ丘二丁目","koaza":"","lat":35.623927,"lng":139.434678,"zip":"2060000"},{"town":"南野二丁目","koaza":"","lat":35.607807,"lng":139.432998,"zip":"2060032"},{"town":"落合六丁目","koaza":"","lat":35.610932,"lng":139.426866,"zip":"2060033"},{"town":"鶴牧五丁目","koaza":"","lat":35.611689,"lng":139.421212,"zip":"2060034"},{"town":"鶴牧四丁目","koaza":"","lat":35.613409,"lng":139.421135,"zip":"2060034"},{"town":"鶴牧三丁目","koaza":"","lat":35.618176,"lng":139.420274,"zip":"2060034"},{"town":"鶴牧一丁目","koaza":"","lat":35.62401,"lng":139.420167,"zip":"2060034"},{"town":"豊ケ丘五丁目","koaza":"","lat":35.616789,"lng":139.43361,"zip":"2060000"},{"town":"豊ケ丘四丁目","koaza":"","lat":35.614707,"lng":139.436445,"zip":"2060000"},{"town":"唐木田一丁目","koaza":"","lat":35.614737,"lng":139.406348,"zip":"2060035"},{"town":"連光寺","koaza":"","lat":35.646284,"lng":139.466847,"zip":"2060021"},{"town":"馬引沢一丁目","koaza":"","lat":35.635795,"lng":139.450982,"zip":"2060023"},{"town":"聖ケ丘一丁目","koaza":"","lat":35.63803,"lng":139.454076,"zip":"2060000"},{"town":"関戸五丁目","koaza":"","lat":35.644326,"lng":139.451411,"zip":"2060011"},{"town":"永山一丁目","koaza":"","lat":35.631485,"lng":139.445637,"zip":"2060025"},{"town":"諏訪五丁目","koaza":"","lat":35.621467,"lng":139.453821,"zip":"2060024"},{"town":"諏訪二丁目","koaza":"","lat":35.625948,"lng":139.451262,"zip":"2060024"},{"town":"諏訪六丁目","koaza":"","lat":35.620661,"lng":139.457763,"zip":"2060024"},{"town":"桜ケ丘四丁目","koaza":"","lat":35.643792,"lng":139.442887,"zip":"2060000"},{"town":"桜ケ丘一丁目","koaza":"","lat":35.64396,"lng":139.447424,"zip":"2060000"},{"town":"諏訪一丁目","koaza":"","lat":35.632185,"lng":139.450681,"zip":"2060024"},{"town":"東寺方","koaza":"","lat":35.644409,"lng":139.439427,"zip":"2060003"},{"town":"関戸四丁目","koaza":"","lat":35.649282,"lng":139.449025,"zip":"2060011"},{"town":"落川","koaza":"","lat":35.639548,"lng":139.437267,"zip":"2060015"},{"town":"桜ケ丘三丁目","koaza":"","lat":35.639239,"lng":139.440676,"zip":"2060000"},{"town":"乞田","koaza":"","lat":35.632159,"lng":139.44,"zip":"2060014"},{"town":"愛宕三丁目","koaza":"","lat":35.632925,"lng":139.433111,"zip":"2060041"},{"town":"愛宕二丁目","koaza":"","lat":35.634622,"lng":139.439289,"zip":"2060041"},{"town":"東寺方三丁目","koaza":"","lat":35.636249,"lng":139.437016,"zip":"2060003"},{"town":"百草","koaza":"","lat":35.637571,"lng":139.434088,"zip":"2060004"},{"town":"愛宕一丁目","koaza":"","lat":35.633987,"lng":139.433071,"zip":"2060041"},{"town":"和田三丁目","koaza":"","lat":35.635725,"lng":139.433419,"zip":"2060001"},{"town":"関戸六丁目","koaza":"","lat":35.638654,"lng":139.448513,"zip":"2060011"},{"town":"桜ケ丘二丁目","koaza":"","lat":35.637774,"lng":139.443482,"zip":"2060000"},{"town":"和田","koaza":"","lat":35.642935,"lng":139.427921,"zip":"2060001"},{"town":"中沢一丁目","koaza":"","lat":35.619996,"lng":139.408148,"zip":"2060036"},{"town":"山王下一丁目","koaza":"","lat":35.626218,"lng":139.420974,"zip":"2060042"},{"town":"鶴牧二丁目","koaza":"","lat":35.618917,"lng":139.41644,"zip":"2060034"},{"town":"南野三丁目","koaza":"","lat":35.609331,"lng":139.421194,"zip":"2060032"},{"town":"鶴牧六丁目","koaza":"","lat":35.614982,"lng":139.414826,"zip":"2060034"},{"town":"一ノ宮一丁目","koaza":"","lat":35.65347,"lng":139.440664,"zip":"2060002"},{"town":"関戸","koaza":"","lat":35.653095,"lng":139.454916,"zip":"2060011"}]