[{"town":"野増","koaza":"","lat":34.716898,"lng":139.377229,"zip":"1000104"},{"town":"元町","koaza":"","lat":34.760865,"lng":139.372436,"zip":"1000101"},{"town":"泉津","koaza":"","lat":34.757132,"lng":139.420008,"zip":"1000103"},{"town":"元町一丁目","koaza":"","lat":34.75306,"lng":139.354013,"zip":"1000101"},{"town":"元町四丁目","koaza":"","lat":34.753096,"lng":139.357874,"zip":"1000101"},{"town":"岡田","koaza":"","lat":34.778143,"lng":139.387092,"zip":"1000102"},{"town":"波浮港","koaza":"","lat":34.698879,"lng":139.443657,"zip":"1000212"},{"town":"差木地","koaza":"","lat":34.706625,"lng":139.421194,"zip":"1000211"},{"town":"元町二丁目","koaza":"","lat":34.747383,"lng":139.355144,"zip":"1000101"},{"town":"元町三丁目","koaza":"","lat":34.747235,"lng":139.358447,"zip":"1000101"},{"town":"元町","koaza":"水溜","lat":34.762042,"lng":139.351172,"zip":"1000101"},{"town":"野増","koaza":"クヅアラ","lat":34.715285,"lng":139.357789,"zip":"1000104"},{"town":"元町","koaza":"八重の水","lat":34.764486,"lng":139.354861,"zip":"1000101"},{"town":"野増","koaza":"ヲクノクボ","lat":34.732216,"lng":139.358703,"zip":"1000104"},{"town":"元町","koaza":"地の岡","lat":34.772039,"lng":139.361603,"zip":"1000101"},{"town":"岡田","koaza":"新開","lat":34.788061,"lng":139.370875,"zip":"1000102"},{"town":"元町","koaza":"北の山","lat":34.780549,"lng":139.368845,"zip":"1000101"},{"town":"元町","koaza":"馬の背","lat":34.760471,"lng":139.357254,"zip":"1000101"},{"town":"元町","koaza":"佐吾右衛門野地","lat":34.77595,"lng":139.360345,"zip":"1000101"},{"town":"元町","koaza":"大金砂","lat":34.748271,"lng":139.363936,"zip":"1000101"},{"town":"元町","koaza":"風待","lat":34.775036,"lng":139.366162,"zip":"1000101"},{"town":"元町","koaza":"家の上","lat":34.750164,"lng":139.363088,"zip":"1000101"},{"town":"岡田","koaza":"北野","lat":34.793842,"lng":139.370261,"zip":"1000102"},{"town":"岡田","koaza":"小堀","lat":34.789528,"lng":139.374813,"zip":"1000102"},{"town":"岡田","koaza":"沢立","lat":34.776232,"lng":139.381169,"zip":"1000102"},{"town":"岡田","koaza":"笹郷","lat":34.783361,"lng":139.384219,"zip":"1000102"},{"town":"差木地","koaza":"下原","lat":34.681029,"lng":139.433302,"zip":"1000211"},{"town":"泉津","koaza":"福重","lat":34.760107,"lng":139.435455,"zip":"1000103"},{"town":"岡田","koaza":"川の道","lat":34.784789,"lng":139.391888,"zip":"1000102"},{"town":"元町","koaza":"津倍付","lat":34.772935,"lng":139.376765,"zip":"1000101"},{"town":"元町","koaza":"仲中","lat":34.772269,"lng":139.374013,"zip":"1000101"},{"town":"元町","koaza":"オンダシ","lat":34.756977,"lng":139.357201,"zip":"1000101"},{"town":"元町","koaza":"ホチマツ","lat":34.764642,"lng":139.364961,"zip":"1000101"},{"town":"岡田","koaza":"榎戸","lat":34.783746,"lng":139.387198,"zip":"1000102"},{"town":"岡田","koaza":"助田","lat":34.784183,"lng":139.39168,"zip":"1000102"},{"town":"岡田","koaza":"平浜","lat":34.796145,"lng":139.365513,"zip":"1000102"},{"town":"岡田","koaza":"橋の本","lat":34.785494,"lng":139.380498,"zip":"1000102"},{"town":"岡田","koaza":"長坂","lat":34.786469,"lng":139.384181,"zip":"1000102"},{"town":"岡田","koaza":"大久保","lat":34.788186,"lng":139.38775,"zip":"1000102"},{"town":"元町","koaza":"上山","lat":34.769355,"lng":139.385624,"zip":"1000101"}]