[{"town":"羽田空港三丁目","koaza":"","lat":35.549786,"lng":139.786522,"zip":"1440041"},{"town":"平和島二丁目","koaza":"","lat":35.587316,"lng":139.745175,"zip":"1430006"},{"town":"羽田三丁目","koaza":"","lat":35.546379,"lng":139.745061,"zip":"1440043"},{"town":"羽田六丁目","koaza":"","lat":35.546031,"lng":139.74955,"zip":"1440043"},{"town":"平和島五丁目","koaza":"","lat":35.577557,"lng":139.744934,"zip":"1430006"},{"town":"大森南五丁目","koaza":"","lat":35.563815,"lng":139.749477,"zip":"1430013"},{"town":"羽田四丁目","koaza":"","lat":35.549961,"lng":139.746616,"zip":"1440043"},{"town":"大森南四丁目","koaza":"","lat":35.566826,"lng":139.74697,"zip":"1430013"},{"town":"羽田旭町","koaza":"","lat":35.553743,"lng":139.749566,"zip":"1440042"},{"town":"東糀谷四丁目","koaza":"","lat":35.555464,"lng":139.74505,"zip":"1440033"},{"town":"昭和島一丁目","koaza":"","lat":35.571533,"lng":139.746867,"zip":"1430004"},{"town":"平和島三丁目","koaza":"","lat":35.583588,"lng":139.747385,"zip":"1430006"},{"town":"東糀谷五丁目","koaza":"","lat":35.559103,"lng":139.744808,"zip":"1440033"},{"town":"平和島六丁目","koaza":"","lat":35.579188,"lng":139.749429,"zip":"1430006"},{"town":"大森南二丁目","koaza":"","lat":35.562543,"lng":139.743604,"zip":"1430013"},{"town":"東海四丁目","koaza":"","lat":35.589646,"lng":139.765891,"zip":"1430001"},{"town":"東海一丁目","koaza":"","lat":35.586293,"lng":139.75288,"zip":"1430001"},{"town":"久が原一丁目","koaza":"","lat":35.585549,"lng":139.691256,"zip":"1460085"},{"town":"山王二丁目","koaza":"","lat":35.589121,"lng":139.725116,"zip":"1430023"},{"town":"山王三丁目","koaza":"","lat":35.5841,"lng":139.722859,"zip":"1430023"},{"town":"南馬込四丁目","koaza":"","lat":35.585358,"lng":139.712388,"zip":"1430025"},{"town":"南馬込三丁目","koaza":"","lat":35.585528,"lng":139.717802,"zip":"1430025"},{"town":"仲池上二丁目","koaza":"","lat":35.582907,"lng":139.700656,"zip":"1460081"},{"town":"仲池上一丁目","koaza":"","lat":35.587651,"lng":139.697507,"zip":"1460081"},{"town":"田園調布本町","koaza":"","lat":35.585089,"lng":139.674611,"zip":"1450072"},{"town":"大森本町一丁目","koaza":"","lat":35.584746,"lng":139.73736,"zip":"1430011"},{"town":"平和島一丁目","koaza":"","lat":35.585813,"lng":139.740409,"zip":"1430006"},{"town":"大森北二丁目","koaza":"","lat":35.58578,"lng":139.733699,"zip":"1430016"},{"town":"西馬込二丁目","koaza":"","lat":35.586702,"lng":139.703858,"zip":"1430026"},{"town":"南馬込五丁目","koaza":"","lat":35.588506,"lng":139.709303,"zip":"1430025"},{"town":"田園調布一丁目","koaza":"","lat":35.589326,"lng":139.671359,"zip":"1450071"},{"town":"北嶺町","koaza":"","lat":35.586198,"lng":139.682196,"zip":"1450073"},{"town":"山王四丁目","koaza":"","lat":35.587246,"lng":139.721687,"zip":"1430023"},{"town":"大森北一丁目","koaza":"","lat":35.587281,"lng":139.729647,"zip":"1430016"},{"town":"城南島一丁目","koaza":"","lat":35.577702,"lng":139.770275,"zip":"1430002"},{"town":"城南島三丁目","koaza":"","lat":35.57886,"lng":139.779889,"zip":"1430002"},{"town":"城南島四丁目","koaza":"","lat":35.580196,"lng":139.783628,"zip":"1430002"},{"town":"羽田五丁目","koaza":"","lat":35.549095,"lng":139.750394,"zip":"1440043"},{"town":"京浜島一丁目","koaza":"","lat":35.569659,"lng":139.758735,"zip":"1430003"},{"town":"羽田空港二丁目","koaza":"","lat":35.5512,"lng":139.764712,"zip":"1440041"},{"town":"羽田空港一丁目","koaza":"","lat":35.554814,"lng":139.756936,"zip":"1440041"},{"town":"東糀谷六丁目","koaza":"","lat":35.557932,"lng":139.749935,"zip":"1440033"},{"town":"京浜島二丁目","koaza":"","lat":35.568985,"lng":139.764485,"zip":"1430003"},{"town":"京浜島三丁目","koaza":"","lat":35.573815,"lng":139.765573,"zip":"1430003"},{"town":"昭和島二丁目","koaza":"","lat":35.571707,"lng":139.752093,"zip":"1430004"},{"town":"東海二丁目","koaza":"","lat":35.580627,"lng":139.753998,"zip":"1430001"},{"town":"南六郷二丁目","koaza":"","lat":35.544964,"lng":139.7206,"zip":"1440045"},{"town":"南六郷三丁目","koaza":"","lat":35.542185,"lng":139.716026,"zip":"1440045"},{"town":"仲六郷四丁目","koaza":"","lat":35.540839,"lng":139.707751,"zip":"1440055"},{"town":"西六郷四丁目","koaza":"","lat":35.54137,"lng":139.702374,"zip":"1440056"},{"town":"本羽田三丁目","koaza":"","lat":35.545155,"lng":139.737353,"zip":"1440044"},{"town":"羽田二丁目","koaza":"","lat":35.546705,"lng":139.742235,"zip":"1440043"},{"town":"東糀谷二丁目","koaza":"","lat":35.555403,"lng":139.740856,"zip":"1440033"},{"town":"本羽田一丁目","koaza":"","lat":35.546645,"lng":139.728,"zip":"1440044"},{"town":"西糀谷三丁目","koaza":"","lat":35.554648,"lng":139.736543,"zip":"1440034"},{"town":"東糀谷三丁目","koaza":"","lat":35.55304,"lng":139.743082,"zip":"1440033"},{"town":"萩中三丁目","koaza":"","lat":35.551008,"lng":139.737127,"zip":"1440047"},{"town":"羽田一丁目","koaza":"","lat":35.550615,"lng":139.742878,"zip":"1440043"},{"town":"本羽田二丁目","koaza":"","lat":35.545217,"lng":139.731914,"zip":"1440044"},{"town":"西糀谷四丁目","koaza":"","lat":35.554943,"lng":139.730633,"zip":"1440034"},{"town":"西糀谷二丁目","koaza":"","lat":35.558977,"lng":139.735813,"zip":"1440034"},{"town":"東糀谷一丁目","koaza":"","lat":35.559116,"lng":139.740444,"zip":"1440033"},{"town":"萩中二丁目","koaza":"","lat":35.551526,"lng":139.731596,"zip":"1440047"},{"town":"東六郷二丁目","koaza":"","lat":35.548885,"lng":139.717237,"zip":"1440046"},{"town":"西糀谷一丁目","koaza":"","lat":35.558716,"lng":139.730565,"zip":"1440034"},{"town":"萩中一丁目","koaza":"","lat":35.55124,"lng":139.726372,"zip":"1440047"},{"town":"南蒲田一丁目","koaza":"","lat":35.558726,"lng":139.725287,"zip":"1440035"},{"town":"南蒲田三丁目","koaza":"","lat":35.554228,"lng":139.72689,"zip":"1440035"},{"town":"南蒲田二丁目","koaza":"","lat":35.555352,"lng":139.722996,"zip":"1440035"},{"town":"北糀谷二丁目","koaza":"","lat":35.562323,"lng":139.73306,"zip":"1440032"},{"town":"東蒲田二丁目","koaza":"","lat":35.561848,"lng":139.728015,"zip":"1440031"},{"town":"大森中三丁目","koaza":"","lat":35.564592,"lng":139.732378,"zip":"1430014"},{"town":"南六郷一丁目","koaza":"","lat":35.547327,"lng":139.724046,"zip":"1440045"},{"town":"東六郷一丁目","koaza":"","lat":35.55262,"lng":139.720287,"zip":"1440046"},{"town":"蒲田四丁目","koaza":"","lat":35.560144,"lng":139.721394,"zip":"1440052"},{"town":"蒲田本町二丁目","koaza":"","lat":35.557062,"lng":139.719476,"zip":"1440053"},{"town":"東蒲田一丁目","koaza":"","lat":35.564989,"lng":139.729107,"zip":"1440031"},{"town":"大森中二丁目","koaza":"","lat":35.56751,"lng":139.732573,"zip":"1430014"},{"town":"蒲田三丁目","koaza":"","lat":35.563465,"lng":139.723952,"zip":"1440052"},{"town":"西六郷三丁目","koaza":"","lat":35.546431,"lng":139.704474,"zip":"1440056"},{"town":"仲六郷二丁目","koaza":"","lat":35.550591,"lng":139.713807,"zip":"1440055"},{"town":"仲六郷三丁目","koaza":"","lat":35.54735,"lng":139.711908,"zip":"1440055"},{"town":"東六郷三丁目","koaza":"","lat":35.541825,"lng":139.711125,"zip":"1440046"},{"town":"蒲田本町一丁目","koaza":"","lat":35.557417,"lng":139.715744,"zip":"1440053"},{"town":"新蒲田一丁目","koaza":"","lat":35.55758,"lng":139.711433,"zip":"1440054"},{"town":"西六郷二丁目","koaza":"","lat":35.549836,"lng":139.707269,"zip":"1440056"},{"town":"西六郷一丁目","koaza":"","lat":35.553994,"lng":139.708081,"zip":"1440056"},{"town":"仲六郷一丁目","koaza":"","lat":35.553666,"lng":139.715608,"zip":"1440055"},{"town":"西蒲田七丁目","koaza":"","lat":35.563007,"lng":139.712494,"zip":"1440051"},{"town":"蒲田五丁目","koaza":"","lat":35.561768,"lng":139.718337,"zip":"1440052"},{"town":"西蒲田八丁目","koaza":"","lat":35.56048,"lng":139.711986,"zip":"1440051"},{"town":"東矢口三丁目","koaza":"","lat":35.562196,"lng":139.706307,"zip":"1460094"},{"town":"新蒲田三丁目","koaza":"","lat":35.556675,"lng":139.706595,"zip":"1440054"},{"town":"新蒲田二丁目","koaza":"","lat":35.560517,"lng":139.705024,"zip":"1440054"},{"town":"多摩川一丁目","koaza":"","lat":35.563115,"lng":139.699423,"zip":"1460095"},{"town":"多摩川二丁目","koaza":"","lat":35.557006,"lng":139.700288,"zip":"1460095"},{"town":"矢口一丁目","koaza":"","lat":35.567344,"lng":139.692486,"zip":"1460093"},{"town":"矢口三丁目","koaza":"","lat":35.558958,"lng":139.692724,"zip":"1460093"},{"town":"大森東四丁目","koaza":"","lat":35.567425,"lng":139.738306,"zip":"1430012"},{"town":"大森南三丁目","koaza":"","lat":35.565735,"lng":139.742741,"zip":"1430013"},{"town":"ふるさとの浜辺公園","koaza":"","lat":35.573351,"lng":139.741849,"zip":"1430007"},{"town":"平和の森公園","koaza":"","lat":35.579671,"lng":139.740183,"zip":"1430005"},{"town":"大森東五丁目","koaza":"","lat":35.569174,"lng":139.743172,"zip":"1430012"},{"town":"北糀谷一丁目","koaza":"","lat":35.563224,"lng":139.735619,"zip":"1440032"},{"town":"大森南一丁目","koaza":"","lat":35.56361,"lng":139.738624,"zip":"1430013"},{"town":"平和島四丁目","koaza":"","lat":35.581935,"lng":139.742403,"zip":"1430006"},{"town":"大森西五丁目","koaza":"","lat":35.570808,"lng":139.727932,"zip":"1430015"},{"town":"大森中一丁目","koaza":"","lat":35.571149,"lng":139.73339,"zip":"1430014"},{"town":"大森北三丁目","koaza":"","lat":35.582776,"lng":139.73317,"zip":"1430016"},{"town":"大森東三丁目","koaza":"","lat":35.571921,"lng":139.740036,"zip":"1430012"},{"town":"大森東二丁目","koaza":"","lat":35.573302,"lng":139.736365,"zip":"1430012"},{"town":"大森西三丁目","koaza":"","lat":35.573399,"lng":139.72925,"zip":"1430015"},{"town":"蒲田二丁目","koaza":"","lat":35.566513,"lng":139.725574,"zip":"1440052"},{"town":"大森東一丁目","koaza":"","lat":35.576501,"lng":139.738648,"zip":"1430012"},{"town":"大森西六丁目","koaza":"","lat":35.568681,"lng":139.726742,"zip":"1430015"},{"town":"西蒲田五丁目","koaza":"","lat":35.565837,"lng":139.715229,"zip":"1440051"},{"town":"蒲田一丁目","koaza":"","lat":35.565696,"lng":139.719843,"zip":"1440052"},{"town":"大森西四丁目","koaza":"","lat":35.572757,"lng":139.722489,"zip":"1430015"},{"town":"大森本町二丁目","koaza":"","lat":35.579346,"lng":139.737491,"zip":"1430011"},{"town":"大森北六丁目","koaza":"","lat":35.579466,"lng":139.731939,"zip":"1430016"},{"town":"大森西二丁目","koaza":"","lat":35.577212,"lng":139.730913,"zip":"1430015"},{"town":"中央二丁目","koaza":"","lat":35.578647,"lng":139.720973,"zip":"1430024"},{"town":"中央三丁目","koaza":"","lat":35.576362,"lng":139.718961,"zip":"1430024"},{"town":"大森西一丁目","koaza":"","lat":35.577538,"lng":139.724678,"zip":"1430015"},{"town":"大森北五丁目","koaza":"","lat":35.580739,"lng":139.726208,"zip":"1430016"},{"town":"大森北四丁目","koaza":"","lat":35.583287,"lng":139.727434,"zip":"1430016"},{"town":"大森西七丁目","koaza":"","lat":35.569914,"lng":139.721438,"zip":"1430015"},{"town":"西蒲田六丁目","koaza":"","lat":35.566056,"lng":139.710368,"zip":"1440051"},{"town":"西蒲田四丁目","koaza":"","lat":35.568861,"lng":139.715185,"zip":"1440051"},{"town":"中央七丁目","koaza":"","lat":35.575893,"lng":139.715106,"zip":"1430024"},{"town":"西蒲田一丁目","koaza":"","lat":35.571576,"lng":139.713017,"zip":"1440051"},{"town":"中央六丁目","koaza":"","lat":35.577933,"lng":139.712719,"zip":"1430024"},{"town":"中央八丁目","koaza":"","lat":35.572709,"lng":139.716869,"zip":"1430024"},{"town":"中央四丁目","koaza":"","lat":35.580046,"lng":139.716623,"zip":"1430024"},{"town":"中央一丁目","koaza":"","lat":35.581202,"lng":139.71963,"zip":"1430024"},{"town":"中央五丁目","koaza":"","lat":35.581055,"lng":139.711591,"zip":"1430024"},{"town":"西蒲田二丁目","koaza":"","lat":35.570534,"lng":139.708379,"zip":"1440051"},{"town":"池上六丁目","koaza":"","lat":35.569934,"lng":139.704095,"zip":"1460082"},{"town":"池上五丁目","koaza":"","lat":35.572814,"lng":139.70851,"zip":"1460082"},{"town":"東矢口二丁目","koaza":"","lat":35.564813,"lng":139.700696,"zip":"1460094"},{"town":"池上四丁目","koaza":"","lat":35.574461,"lng":139.706629,"zip":"1460082"},{"town":"千鳥二丁目","koaza":"","lat":35.568999,"lng":139.693787,"zip":"1460083"},{"town":"池上八丁目","koaza":"","lat":35.569474,"lng":139.697392,"zip":"1460082"},{"town":"池上二丁目","koaza":"","lat":35.579012,"lng":139.702529,"zip":"1460082"},{"town":"久が原五丁目","koaza":"","lat":35.576689,"lng":139.697185,"zip":"1460085"},{"town":"池上一丁目","koaza":"","lat":35.578435,"lng":139.707141,"zip":"1460082"},{"town":"南馬込六丁目","koaza":"","lat":35.583429,"lng":139.708197,"zip":"1430025"},{"town":"東矢口一丁目","koaza":"","lat":35.565711,"lng":139.705319,"zip":"1460094"},{"town":"西蒲田三丁目","koaza":"","lat":35.56786,"lng":139.708972,"zip":"1440051"},{"town":"池上七丁目","koaza":"","lat":35.569868,"lng":139.700563,"zip":"1460082"},{"town":"池上三丁目","koaza":"","lat":35.575581,"lng":139.701131,"zip":"1460082"},{"town":"千鳥一丁目","koaza":"","lat":35.572995,"lng":139.694237,"zip":"1460083"},{"town":"久が原六丁目","koaza":"","lat":35.575043,"lng":139.692635,"zip":"1460085"},{"town":"下丸子一丁目","koaza":"","lat":35.567905,"lng":139.688589,"zip":"1460092"},{"town":"千鳥三丁目","koaza":"","lat":35.572158,"lng":139.688849,"zip":"1460083"},{"town":"下丸子二丁目","koaza":"","lat":35.563514,"lng":139.684309,"zip":"1460092"},{"town":"矢口二丁目","koaza":"","lat":35.562929,"lng":139.69302,"zip":"1460093"},{"town":"久が原四丁目","koaza":"","lat":35.57986,"lng":139.692239,"zip":"1460085"},{"town":"久が原二丁目","koaza":"","lat":35.582366,"lng":139.696993,"zip":"1460085"},{"town":"南久が原一丁目","koaza":"","lat":35.576376,"lng":139.688259,"zip":"1460084"},{"town":"久が原三丁目","koaza":"","lat":35.581793,"lng":139.689288,"zip":"1460085"},{"town":"鵜の木二丁目","koaza":"","lat":35.574012,"lng":139.677849,"zip":"1460091"},{"town":"鵜の木一丁目","koaza":"","lat":35.575418,"lng":139.682645,"zip":"1460091"},{"town":"南久が原二丁目","koaza":"","lat":35.576697,"lng":139.685377,"zip":"1460084"},{"town":"東嶺町","koaza":"","lat":35.582653,"lng":139.684287,"zip":"1450074"},{"town":"西嶺町","koaza":"","lat":35.581374,"lng":139.679623,"zip":"1450075"},{"town":"鵜の木三丁目","koaza":"","lat":35.577447,"lng":139.677562,"zip":"1460091"},{"town":"田園調布南","koaza":"","lat":35.580197,"lng":139.67385,"zip":"1450076"},{"town":"下丸子四丁目","koaza":"","lat":35.569348,"lng":139.679391,"zip":"1460092"},{"town":"下丸子三丁目","koaza":"","lat":35.567823,"lng":139.684012,"zip":"1460092"},{"town":"東海五丁目","koaza":"","lat":35.592023,"lng":139.771493,"zip":"1430001"},{"town":"西馬込一丁目","koaza":"","lat":35.590541,"lng":139.705525,"zip":"1430026"},{"town":"南雪谷五丁目","koaza":"","lat":35.589094,"lng":139.688511,"zip":"1450066"},{"town":"南雪谷四丁目","koaza":"","lat":35.589109,"lng":139.683551,"zip":"1450066"},{"town":"東雪谷二丁目","koaza":"","lat":35.596687,"lng":139.685928,"zip":"1450065"},{"town":"田園調布五丁目","koaza":"","lat":35.594701,"lng":139.657613,"zip":"1450071"},{"town":"山王一丁目","koaza":"","lat":35.592411,"lng":139.724981,"zip":"1430023"},{"town":"中馬込三丁目","koaza":"","lat":35.592227,"lng":139.704863,"zip":"1430027"},{"town":"南馬込一丁目","koaza":"","lat":35.591809,"lng":139.713871,"zip":"1430025"},{"town":"東馬込一丁目","koaza":"","lat":35.597329,"lng":139.713425,"zip":"1430022"},{"town":"中馬込二丁目","koaza":"","lat":35.595767,"lng":139.709113,"zip":"1430027"},{"town":"北馬込二丁目","koaza":"","lat":35.598405,"lng":139.709912,"zip":"1430021"},{"town":"上池台五丁目","koaza":"","lat":35.593618,"lng":139.701012,"zip":"1450064"},{"town":"中馬込一丁目","koaza":"","lat":35.596698,"lng":139.705288,"zip":"1430027"},{"town":"東雪谷五丁目","koaza":"","lat":35.59073,"lng":139.692373,"zip":"1450065"},{"town":"上池台四丁目","koaza":"","lat":35.597521,"lng":139.70025,"zip":"1450064"},{"town":"北馬込一丁目","koaza":"","lat":35.599788,"lng":139.705352,"zip":"1430021"},{"town":"南雪谷二丁目","koaza":"","lat":35.590694,"lng":139.681226,"zip":"1450066"},{"town":"南雪谷三丁目","koaza":"","lat":35.591679,"lng":139.686336,"zip":"1450066"},{"town":"南雪谷一丁目","koaza":"","lat":35.594621,"lng":139.68326,"zip":"1450066"},{"town":"東雪谷一丁目","koaza":"","lat":35.597691,"lng":139.689909,"zip":"1450065"},{"town":"東雪谷三丁目","koaza":"","lat":35.593932,"lng":139.688877,"zip":"1450065"},{"town":"東雪谷四丁目","koaza":"","lat":35.592817,"lng":139.694539,"zip":"1450065"},{"town":"上池台三丁目","koaza":"","lat":35.59391,"lng":139.697452,"zip":"1450064"},{"town":"上池台二丁目","koaza":"","lat":35.599045,"lng":139.69377,"zip":"1450064"},{"town":"南千束三丁目","koaza":"","lat":35.602,"lng":139.686589,"zip":"1450063"},{"town":"南千束二丁目","koaza":"","lat":35.603089,"lng":139.689396,"zip":"1450063"},{"town":"北千束三丁目","koaza":"","lat":35.606389,"lng":139.687434,"zip":"1450062"},{"town":"田園調布四丁目","koaza":"","lat":35.593802,"lng":139.661824,"zip":"1450071"},{"town":"石川町一丁目","koaza":"","lat":35.602746,"lng":139.68253,"zip":"1450061"},{"town":"石川町二丁目","koaza":"","lat":35.597953,"lng":139.682353,"zip":"1450061"},{"town":"田園調布三丁目","koaza":"","lat":35.594932,"lng":139.665248,"zip":"1450071"},{"town":"田園調布二丁目","koaza":"","lat":35.594972,"lng":139.670322,"zip":"1450071"},{"town":"雪谷大塚町","koaza":"","lat":35.592141,"lng":139.678534,"zip":"1450067"},{"town":"南馬込二丁目","koaza":"","lat":35.589817,"lng":139.716695,"zip":"1430025"},{"town":"東馬込二丁目","koaza":"","lat":35.59357,"lng":139.716787,"zip":"1430022"},{"town":"南千束一丁目","koaza":"","lat":35.603044,"lng":139.694175,"zip":"1450063"},{"town":"上池台一丁目","koaza":"","lat":35.600944,"lng":139.697809,"zip":"1450064"},{"town":"北千束一丁目","koaza":"","lat":35.610185,"lng":139.688469,"zip":"1450062"},{"town":"北千束二丁目","koaza":"","lat":35.60701,"lng":139.692666,"zip":"1450062"},{"town":"東海三丁目","koaza":"","lat":35.581064,"lng":139.761533,"zip":"1430001"},{"town":"城南島二丁目","koaza":"","lat":35.580659,"lng":139.776815,"zip":"1430002"},{"town":"城南島五丁目","koaza":"","lat":35.583213,"lng":139.779804,"zip":"1430002"},{"town":"城南島七丁目","koaza":"","lat":35.580266,"lng":139.77069,"zip":"1430002"},{"town":"城南島六丁目","koaza":"","lat":35.582509,"lng":139.77328,"zip":"1430002"},{"town":"東海六丁目","koaza":"","lat":35.587428,"lng":139.771696,"zip":"1430001"},{"town":"令和島一丁目","koaza":"","lat":null,"lng":null,"zip":null},{"town":"令和島二丁目","koaza":"","lat":null,"lng":null,"zip":null}]