[{"town":"本宿町一丁目","koaza":"","lat":35.670488,"lng":139.45922,"zip":"1830032"},{"town":"西府町一丁目","koaza":"","lat":35.672492,"lng":139.454828,"zip":"1830031"},{"town":"西府町二丁目","koaza":"","lat":35.674804,"lng":139.455484,"zip":"1830031"},{"town":"本宿町二丁目","koaza":"","lat":35.672654,"lng":139.46089,"zip":"1830032"},{"town":"是政一丁目","koaza":"","lat":35.662422,"lng":139.494529,"zip":"1830014"},{"town":"八幡町三丁目","koaza":"","lat":35.668203,"lng":139.491705,"zip":"1830016"},{"town":"是政三丁目","koaza":"","lat":35.659099,"lng":139.485528,"zip":"1830014"},{"town":"矢崎町一丁目","koaza":"","lat":35.662308,"lng":139.478661,"zip":"1830025"},{"town":"日吉町","koaza":"","lat":35.66346,"lng":139.48554,"zip":"1830024"},{"town":"本町一丁目","koaza":"","lat":35.666471,"lng":139.477994,"zip":"1830027"},{"town":"若松町一丁目","koaza":"","lat":35.668805,"lng":139.500292,"zip":"1830005"},{"town":"是政二丁目","koaza":"","lat":35.660061,"lng":139.4946,"zip":"1830014"},{"town":"清水が丘一丁目","koaza":"","lat":35.668078,"lng":139.495611,"zip":"1830015"},{"town":"清水が丘二丁目","koaza":"","lat":35.665408,"lng":139.495674,"zip":"1830015"},{"town":"小柳町五丁目","koaza":"","lat":35.655152,"lng":139.500861,"zip":"1830013"},{"town":"是政四丁目","koaza":"","lat":35.655592,"lng":139.493845,"zip":"1830014"},{"town":"白糸台一丁目","koaza":"","lat":35.668373,"lng":139.50723,"zip":"1830011"},{"town":"白糸台二丁目","koaza":"","lat":35.667886,"lng":139.511898,"zip":"1830011"},{"town":"朝日町三丁目","koaza":"","lat":35.671776,"lng":139.522403,"zip":"1830003"},{"town":"朝日町一丁目","koaza":"","lat":35.671318,"lng":139.516508,"zip":"1830003"},{"town":"新町二丁目","koaza":"","lat":35.687274,"lng":139.493285,"zip":"1830052"},{"town":"宮町二丁目","koaza":"","lat":35.669111,"lng":139.481569,"zip":"1830023"},{"town":"宮西町五丁目","koaza":"","lat":35.669066,"lng":139.475279,"zip":"1830022"},{"town":"日新町三丁目","koaza":"","lat":35.668984,"lng":139.44924,"zip":"1830036"},{"town":"宮西町二丁目","koaza":"","lat":35.669764,"lng":139.477636,"zip":"1830022"},{"town":"日新町五丁目","koaza":"","lat":35.669601,"lng":139.443552,"zip":"1830036"},{"town":"四谷四丁目","koaza":"","lat":35.667684,"lng":139.441433,"zip":"1830035"},{"town":"緑町三丁目","koaza":"","lat":35.671119,"lng":139.492624,"zip":"1830006"},{"town":"浅間町三丁目","koaza":"","lat":35.685841,"lng":139.500447,"zip":"1830001"},{"town":"宮町三丁目","koaza":"","lat":35.667939,"lng":139.481504,"zip":"1830023"},{"town":"八幡町二丁目","koaza":"","lat":35.668777,"lng":139.488131,"zip":"1830016"},{"town":"八幡町一丁目","koaza":"","lat":35.669193,"lng":139.484661,"zip":"1830016"},{"town":"片町二丁目","koaza":"","lat":35.669719,"lng":139.471235,"zip":"1830021"},{"town":"美好町三丁目","koaza":"","lat":35.669944,"lng":139.465231,"zip":"1830045"},{"town":"日新町一丁目","koaza":"","lat":35.668719,"lng":139.455018,"zip":"1830036"},{"town":"日新町二丁目","koaza":"","lat":35.670714,"lng":139.450155,"zip":"1830036"},{"town":"四谷六丁目","koaza":"","lat":35.670644,"lng":139.433815,"zip":"1830035"},{"town":"浅間町一丁目","koaza":"","lat":35.678101,"lng":139.493423,"zip":"1830001"},{"town":"浅間町二丁目","koaza":"","lat":35.683745,"lng":139.497843,"zip":"1830001"},{"town":"若松町二丁目","koaza":"","lat":35.671729,"lng":139.500014,"zip":"1830005"},{"town":"押立町五丁目","koaza":"","lat":35.653197,"lng":139.514829,"zip":"1830012"},{"town":"押立町四丁目","koaza":"","lat":35.655023,"lng":139.515743,"zip":"1830012"},{"town":"押立町二丁目","koaza":"","lat":35.65878,"lng":139.515274,"zip":"1830012"},{"town":"白糸台五丁目","koaza":"","lat":35.662582,"lng":139.514171,"zip":"1830011"},{"town":"白糸台六丁目","koaza":"","lat":35.662523,"lng":139.518559,"zip":"1830011"},{"town":"押立町三丁目","koaza":"","lat":35.656601,"lng":139.509852,"zip":"1830012"},{"town":"小柳町六丁目","koaza":"","lat":35.652061,"lng":139.502884,"zip":"1830013"},{"town":"小柳町四丁目","koaza":"","lat":35.658012,"lng":139.502884,"zip":"1830013"},{"town":"白糸台三丁目","koaza":"","lat":35.666585,"lng":139.516181,"zip":"1830011"},{"town":"押立町一丁目","koaza":"","lat":35.659439,"lng":139.509675,"zip":"1830012"},{"town":"白糸台四丁目","koaza":"","lat":35.663486,"lng":139.509259,"zip":"1830011"},{"town":"小柳町三丁目","koaza":"","lat":35.661123,"lng":139.505187,"zip":"1830013"},{"town":"小柳町二丁目","koaza":"","lat":35.661602,"lng":139.501013,"zip":"1830013"},{"town":"小柳町一丁目","koaza":"","lat":35.66517,"lng":139.504081,"zip":"1830013"},{"town":"清水が丘三丁目","koaza":"","lat":35.665762,"lng":139.500664,"zip":"1830015"},{"town":"住吉町二丁目","koaza":"","lat":35.65621,"lng":139.458766,"zip":"1830034"},{"town":"矢崎町四丁目","koaza":"","lat":35.658215,"lng":139.477652,"zip":"1830025"},{"town":"矢崎町三丁目","koaza":"","lat":35.660032,"lng":139.476627,"zip":"1830025"},{"town":"矢崎町二丁目","koaza":"","lat":35.661956,"lng":139.475154,"zip":"1830025"},{"town":"矢崎町五丁目","koaza":"","lat":35.656518,"lng":139.477581,"zip":"1830025"},{"town":"是政六丁目","koaza":"","lat":35.653995,"lng":139.47823,"zip":"1830014"},{"town":"是政五丁目","koaza":"","lat":35.655329,"lng":139.485397,"zip":"1830014"},{"town":"本町二丁目","koaza":"","lat":35.666128,"lng":139.475222,"zip":"1830027"},{"town":"本町三丁目","koaza":"","lat":35.664621,"lng":139.472216,"zip":"1830027"},{"town":"南町一丁目","koaza":"","lat":35.660003,"lng":139.471507,"zip":"1830026"},{"town":"片町三丁目","koaza":"","lat":35.66759,"lng":139.470921,"zip":"1830021"},{"town":"本町四丁目","koaza":"","lat":35.664619,"lng":139.469172,"zip":"1830027"},{"town":"南町五丁目","koaza":"","lat":35.654044,"lng":139.467417,"zip":"1830026"},{"town":"南町二丁目","koaza":"","lat":35.660386,"lng":139.468733,"zip":"1830026"},{"town":"南町六丁目","koaza":"","lat":35.654429,"lng":139.471498,"zip":"1830026"},{"town":"南町四丁目","koaza":"","lat":35.655826,"lng":139.464137,"zip":"1830026"},{"town":"南町三丁目","koaza":"","lat":35.66066,"lng":139.465804,"zip":"1830026"},{"town":"分梅町二丁目","koaza":"","lat":35.664502,"lng":139.465455,"zip":"1830033"},{"town":"住吉町一丁目","koaza":"","lat":35.660837,"lng":139.459724,"zip":"1830034"},{"town":"分梅町五丁目","koaza":"","lat":35.661901,"lng":139.463288,"zip":"1830033"},{"town":"分梅町一丁目","koaza":"","lat":35.667553,"lng":139.465759,"zip":"1830033"},{"town":"分梅町三丁目","koaza":"","lat":35.666626,"lng":139.46146,"zip":"1830033"},{"town":"分梅町四丁目","koaza":"","lat":35.664446,"lng":139.461177,"zip":"1830033"},{"town":"住吉町五丁目","koaza":"","lat":35.656894,"lng":139.45381,"zip":"1830034"},{"town":"住吉町三丁目","koaza":"","lat":35.663938,"lng":139.454475,"zip":"1830034"},{"town":"住吉町四丁目","koaza":"","lat":35.661294,"lng":139.454723,"zip":"1830034"},{"town":"四谷三丁目","koaza":"","lat":35.661114,"lng":139.444497,"zip":"1830035"},{"town":"四谷二丁目","koaza":"","lat":35.664913,"lng":139.448221,"zip":"1830035"},{"town":"四谷一丁目","koaza":"","lat":35.659321,"lng":139.451181,"zip":"1830035"},{"town":"四谷五丁目","koaza":"","lat":35.665526,"lng":139.438194,"zip":"1830035"},{"town":"紅葉丘一丁目","koaza":"","lat":35.67408,"lng":139.50969,"zip":"1830004"},{"town":"紅葉丘三丁目","koaza":"","lat":35.67396,"lng":139.514168,"zip":"1830004"},{"town":"朝日町二丁目","koaza":"","lat":35.675041,"lng":139.51758,"zip":"1830003"},{"town":"若松町三丁目","koaza":"","lat":35.67391,"lng":139.502099,"zip":"1830005"},{"town":"若松町四丁目","koaza":"","lat":35.676906,"lng":139.50314,"zip":"1830005"},{"town":"若松町五丁目","koaza":"","lat":35.679755,"lng":139.501799,"zip":"1830005"},{"town":"紅葉丘二丁目","koaza":"","lat":35.678865,"lng":139.516057,"zip":"1830004"},{"town":"多磨町一丁目","koaza":"","lat":35.679466,"lng":139.520511,"zip":"1830002"},{"town":"浅間町四丁目","koaza":"","lat":35.680602,"lng":139.498877,"zip":"1830001"},{"town":"多磨町四丁目","koaza":"","lat":35.682978,"lng":139.50951,"zip":"1830002"},{"town":"多磨町三丁目","koaza":"","lat":35.689375,"lng":139.517473,"zip":"1830002"},{"town":"多磨町二丁目","koaza":"","lat":35.684717,"lng":139.519714,"zip":"1830002"},{"town":"栄町二丁目","koaza":"","lat":35.688384,"lng":139.477635,"zip":"1830051"},{"town":"晴見町三丁目","koaza":"","lat":35.683991,"lng":139.478301,"zip":"1830057"},{"town":"府中町一丁目","koaza":"","lat":35.67498,"lng":139.480551,"zip":"1830055"},{"town":"府中町二丁目","koaza":"","lat":35.674631,"lng":139.48315,"zip":"1830055"},{"town":"緑町一丁目","koaza":"","lat":35.673342,"lng":139.486258,"zip":"1830006"},{"town":"宮西町一丁目","koaza":"","lat":35.671891,"lng":139.477574,"zip":"1830022"},{"town":"宮町一丁目","koaza":"","lat":35.67123,"lng":139.481455,"zip":"1830023"},{"town":"宮西町三丁目","koaza":"","lat":35.671936,"lng":139.474861,"zip":"1830022"},{"town":"片町一丁目","koaza":"","lat":35.671424,"lng":139.471409,"zip":"1830021"},{"town":"宮西町四丁目","koaza":"","lat":35.67045,"lng":139.474977,"zip":"1830022"},{"town":"西府町五丁目","koaza":"","lat":35.675754,"lng":139.451693,"zip":"1830031"},{"town":"日新町四丁目","koaza":"","lat":35.671208,"lng":139.444571,"zip":"1830036"},{"town":"緑町二丁目","koaza":"","lat":35.674211,"lng":139.489485,"zip":"1830006"},{"town":"府中町三丁目","koaza":"","lat":35.675748,"lng":139.486033,"zip":"1830055"},{"town":"天神町三丁目","koaza":"","lat":35.683065,"lng":139.488798,"zip":"1830053"},{"town":"天神町一丁目","koaza":"","lat":35.680061,"lng":139.487621,"zip":"1830053"},{"town":"幸町二丁目","koaza":"","lat":35.679917,"lng":139.484172,"zip":"1830054"},{"town":"幸町一丁目","koaza":"","lat":35.680324,"lng":139.481063,"zip":"1830054"},{"town":"天神町二丁目","koaza":"","lat":35.680442,"lng":139.490993,"zip":"1830053"},{"town":"晴見町一丁目","koaza":"","lat":35.680085,"lng":139.477619,"zip":"1830057"},{"town":"寿町一丁目","koaza":"","lat":35.675372,"lng":139.478691,"zip":"1830056"},{"town":"寿町三丁目","koaza":"","lat":35.67563,"lng":139.473793,"zip":"1830056"},{"town":"日鋼町","koaza":"","lat":35.676331,"lng":139.470389,"zip":"1830044"},{"town":"寿町二丁目","koaza":"","lat":35.675555,"lng":139.476189,"zip":"1830056"},{"town":"美好町一丁目","koaza":"","lat":35.672855,"lng":139.470444,"zip":"1830045"},{"town":"本宿町三丁目","koaza":"","lat":35.675603,"lng":139.463026,"zip":"1830032"},{"town":"美好町二丁目","koaza":"","lat":35.675516,"lng":139.466261,"zip":"1830045"},{"town":"本宿町四丁目","koaza":"","lat":35.676822,"lng":139.460259,"zip":"1830032"},{"town":"西原町一丁目","koaza":"","lat":35.683027,"lng":139.460078,"zip":"1830046"},{"town":"西府町四丁目","koaza":"","lat":35.6784,"lng":139.453907,"zip":"1830031"},{"town":"西府町三丁目","koaza":"","lat":35.677607,"lng":139.457111,"zip":"1830031"},{"town":"天神町四丁目","koaza":"","lat":35.683097,"lng":139.492503,"zip":"1830053"},{"town":"新町三丁目","koaza":"","lat":35.692504,"lng":139.487389,"zip":"1830052"},{"town":"幸町三丁目","koaza":"","lat":35.683599,"lng":139.483448,"zip":"1830054"},{"town":"新町一丁目","koaza":"","lat":35.687827,"lng":139.487166,"zip":"1830052"},{"town":"栄町一丁目","koaza":"","lat":35.688883,"lng":139.4821,"zip":"1830051"},{"town":"東芝町","koaza":"","lat":35.681351,"lng":139.466385,"zip":"1830043"},{"town":"晴見町二丁目","koaza":"","lat":35.679939,"lng":139.473542,"zip":"1830057"},{"town":"晴見町四丁目","koaza":"","lat":35.684001,"lng":139.474065,"zip":"1830057"},{"town":"西原町二丁目","koaza":"","lat":35.683266,"lng":139.457999,"zip":"1830046"},{"town":"栄町三丁目","koaza":"","lat":35.687588,"lng":139.472396,"zip":"1830051"},{"town":"西原町三丁目","koaza":"","lat":35.682888,"lng":139.455762,"zip":"1830046"},{"town":"北山町一丁目","koaza":"","lat":35.685653,"lng":139.455199,"zip":"1830041"},{"town":"武蔵台一丁目","koaza":"","lat":35.687318,"lng":139.464396,"zip":"1830042"},{"town":"北山町二丁目","koaza":"","lat":35.687396,"lng":139.456567,"zip":"1830041"},{"town":"西原町四丁目","koaza":"","lat":35.682149,"lng":139.453208,"zip":"1830046"},{"town":"北山町三丁目","koaza":"","lat":35.68935,"lng":139.457257,"zip":"1830041"},{"town":"北山町四丁目","koaza":"","lat":35.691122,"lng":139.458498,"zip":"1830041"},{"town":"武蔵台二丁目","koaza":"","lat":35.691767,"lng":139.462904,"zip":"1830042"},{"town":"武蔵台三丁目","koaza":"","lat":35.696987,"lng":139.46148,"zip":"1830042"}]