[{"town":"白山五丁目","koaza":"","lat":35.72349,"lng":139.749553,"zip":"1130001"},{"town":"小石川四丁目","koaza":"","lat":35.714264,"lng":139.742684,"zip":"1120002"},{"town":"小石川三丁目","koaza":"","lat":35.713136,"lng":139.747864,"zip":"1120002"},{"town":"春日一丁目","koaza":"","lat":35.708048,"lng":139.749428,"zip":"1120003"},{"town":"本駒込二丁目","koaza":"","lat":35.728732,"lng":139.747945,"zip":"1130021"},{"town":"後楽一丁目","koaza":"","lat":35.704569,"lng":139.750556,"zip":"1120004"},{"town":"小石川二丁目","koaza":"","lat":35.710574,"lng":139.749004,"zip":"1120002"},{"town":"白山二丁目","koaza":"","lat":35.717379,"lng":139.748328,"zip":"1130001"},{"town":"白山三丁目","koaza":"","lat":35.720139,"lng":139.742331,"zip":"1130001"},{"town":"白山四丁目","koaza":"","lat":35.721598,"lng":139.74639,"zip":"1130001"},{"town":"本駒込六丁目","koaza":"","lat":35.731783,"lng":139.744898,"zip":"1130021"},{"town":"湯島一丁目","koaza":"","lat":35.701413,"lng":139.764617,"zip":"1130034"},{"town":"湯島三丁目","koaza":"","lat":35.705786,"lng":139.76886,"zip":"1130034"},{"town":"湯島二丁目","koaza":"","lat":35.705198,"lng":139.765922,"zip":"1130034"},{"town":"本郷六丁目","koaza":"","lat":35.71354,"lng":139.758088,"zip":"1130033"},{"town":"湯島四丁目","koaza":"","lat":35.708893,"lng":139.765458,"zip":"1130034"},{"town":"本郷三丁目","koaza":"","lat":35.704428,"lng":139.762937,"zip":"1130033"},{"town":"本郷五丁目","koaza":"","lat":35.710117,"lng":139.758112,"zip":"1130033"},{"town":"弥生二丁目","koaza":"","lat":35.71615,"lng":139.764012,"zip":"1130032"},{"town":"根津一丁目","koaza":"","lat":35.718815,"lng":139.762848,"zip":"1130031"},{"town":"千駄木一丁目","koaza":"","lat":35.722748,"lng":139.75898,"zip":"1130022"},{"town":"向丘一丁目","koaza":"","lat":35.719487,"lng":139.755599,"zip":"1130023"},{"town":"本郷七丁目","koaza":"","lat":35.711585,"lng":139.763725,"zip":"1130033"},{"town":"西片二丁目","koaza":"","lat":35.716236,"lng":139.755774,"zip":"1130024"},{"town":"小石川一丁目","koaza":"","lat":35.711978,"lng":139.752073,"zip":"1120002"},{"town":"本郷一丁目","koaza":"","lat":35.705017,"lng":139.756296,"zip":"1130033"},{"town":"根津二丁目","koaza":"","lat":35.718545,"lng":139.765682,"zip":"1130031"},{"town":"本郷二丁目","koaza":"","lat":35.704502,"lng":139.759763,"zip":"1130033"},{"town":"本郷四丁目","koaza":"","lat":35.709455,"lng":139.755239,"zip":"1130033"},{"town":"西片一丁目","koaza":"","lat":35.713131,"lng":139.754546,"zip":"1130024"},{"town":"白山一丁目","koaza":"","lat":35.718795,"lng":139.752761,"zip":"1130001"},{"town":"千駄木二丁目","koaza":"","lat":35.722905,"lng":139.761869,"zip":"1130022"},{"town":"千駄木三丁目","koaza":"","lat":35.727776,"lng":139.762548,"zip":"1130022"},{"town":"千駄木五丁目","koaza":"","lat":35.727493,"lng":139.758429,"zip":"1130022"},{"town":"本駒込一丁目","koaza":"","lat":35.725503,"lng":139.751478,"zip":"1130021"},{"town":"向丘二丁目","koaza":"","lat":35.7216,"lng":139.75675,"zip":"1130023"},{"town":"弥生一丁目","koaza":"","lat":35.717958,"lng":139.760504,"zip":"1130032"},{"town":"本駒込三丁目","koaza":"","lat":35.727752,"lng":139.754442,"zip":"1130021"},{"town":"千駄木四丁目","koaza":"","lat":35.730951,"lng":139.760009,"zip":"1130022"},{"town":"本駒込五丁目","koaza":"","lat":35.732798,"lng":139.751651,"zip":"1130021"},{"town":"本駒込四丁目","koaza":"","lat":35.732444,"lng":139.756332,"zip":"1130021"},{"town":"大塚四丁目","koaza":"","lat":35.723863,"lng":139.733827,"zip":"1120012"},{"town":"大塚六丁目","koaza":"","lat":35.725015,"lng":139.7255,"zip":"1120012"},{"town":"後楽二丁目","koaza":"","lat":35.70557,"lng":139.745238,"zip":"1120004"},{"town":"小日向三丁目","koaza":"","lat":35.715234,"lng":139.734029,"zip":"1120006"},{"town":"関口三丁目","koaza":"","lat":35.713665,"lng":139.727647,"zip":"1120014"},{"town":"水道一丁目","koaza":"","lat":35.709312,"lng":139.741945,"zip":"1120005"},{"town":"関口一丁目","koaza":"","lat":35.709703,"lng":139.729629,"zip":"1120014"},{"town":"水道二丁目","koaza":"","lat":35.709746,"lng":139.736945,"zip":"1120005"},{"town":"春日二丁目","koaza":"","lat":35.71102,"lng":139.742845,"zip":"1120003"},{"town":"小日向二丁目","koaza":"","lat":35.712576,"lng":139.733626,"zip":"1120006"},{"town":"小日向一丁目","koaza":"","lat":35.712764,"lng":139.738169,"zip":"1120006"},{"town":"大塚一丁目","koaza":"","lat":35.717062,"lng":139.732792,"zip":"1120012"},{"town":"小日向四丁目","koaza":"","lat":35.715514,"lng":139.73841,"zip":"1120006"},{"town":"音羽一丁目","koaza":"","lat":35.71392,"lng":139.730214,"zip":"1120013"},{"town":"大塚三丁目","koaza":"","lat":35.720831,"lng":139.73624,"zip":"1120012"},{"town":"関口二丁目","koaza":"","lat":35.712312,"lng":139.725503,"zip":"1120014"},{"town":"音羽二丁目","koaza":"","lat":35.71854,"lng":139.727673,"zip":"1120013"},{"town":"目白台三丁目","koaza":"","lat":35.717243,"lng":139.725243,"zip":"1120015"},{"town":"大塚二丁目","koaza":"","lat":35.71958,"lng":139.731389,"zip":"1120012"},{"town":"目白台一丁目","koaza":"","lat":35.713928,"lng":139.72228,"zip":"1120015"},{"town":"目白台二丁目","koaza":"","lat":35.717683,"lng":139.721121,"zip":"1120015"},{"town":"小石川五丁目","koaza":"","lat":35.718056,"lng":139.739927,"zip":"1120002"},{"town":"千石一丁目","koaza":"","lat":35.725835,"lng":139.743616,"zip":"1120011"},{"town":"千石二丁目","koaza":"","lat":35.723697,"lng":139.740519,"zip":"1120011"},{"town":"千石三丁目","koaza":"","lat":35.726201,"lng":139.738203,"zip":"1120011"},{"town":"大塚五丁目","koaza":"","lat":35.722789,"lng":139.727301,"zip":"1120012"},{"town":"千石四丁目","koaza":"","lat":35.729052,"lng":139.740683,"zip":"1120011"}]