[{"town":"北町","koaza":"","lat":35.69995,"lng":139.735037,"zip":"1620834"},{"town":"早稲田南町","koaza":"","lat":35.704367,"lng":139.723244,"zip":"1620043"},{"town":"中井一丁目","koaza":"","lat":35.714969,"lng":139.684236,"zip":"1610035"},{"town":"若葉三丁目","koaza":"","lat":35.682624,"lng":139.724309,"zip":"1600011"},{"town":"南元町","koaza":"","lat":35.68065,"lng":139.724021,"zip":"1600012"},{"town":"横寺町","koaza":"","lat":35.701911,"lng":139.73523,"zip":"1620831"},{"town":"市谷砂土原町一丁目","koaza":"","lat":35.694693,"lng":139.735376,"zip":"1620842"},{"town":"市谷田町一丁目","koaza":"","lat":35.692921,"lng":139.73631,"zip":"1620843"},{"town":"市谷鷹匠町","koaza":"","lat":35.695949,"lng":139.733482,"zip":"1620848"},{"town":"若葉二丁目","koaza":"","lat":35.684961,"lng":139.72478,"zip":"1600011"},{"town":"四谷二丁目","koaza":"","lat":35.687101,"lng":139.725681,"zip":"1600004"},{"town":"信濃町","koaza":"","lat":35.682271,"lng":139.719788,"zip":"1600016"},{"town":"須賀町","koaza":"","lat":35.68524,"lng":139.722118,"zip":"1600018"},{"town":"舟町","koaza":"","lat":35.69007,"lng":139.721116,"zip":"1600006"},{"town":"愛住町","koaza":"","lat":35.690028,"lng":139.719198,"zip":"1600005"},{"town":"左門町","koaza":"","lat":35.685902,"lng":139.720502,"zip":"1600017"},{"town":"四谷三丁目","koaza":"","lat":35.688019,"lng":139.720751,"zip":"1600004"},{"town":"市谷台町","koaza":"","lat":35.693596,"lng":139.718343,"zip":"1620066"},{"town":"余丁町","koaza":"","lat":35.696362,"lng":139.71569,"zip":"1620055"},{"town":"大京町","koaza":"","lat":35.683849,"lng":139.717044,"zip":"1600015"},{"town":"四谷四丁目","koaza":"","lat":35.688582,"lng":139.716267,"zip":"1600004"},{"town":"富久町","koaza":"","lat":35.693492,"lng":139.714956,"zip":"1620067"},{"town":"新宿二丁目","koaza":"","lat":35.690064,"lng":139.708387,"zip":"1600022"},{"town":"新宿一丁目","koaza":"","lat":35.689556,"lng":139.712248,"zip":"1600022"},{"town":"新宿四丁目","koaza":"","lat":35.688834,"lng":139.703724,"zip":"1600022"},{"town":"内藤町","koaza":"","lat":35.685704,"lng":139.711617,"zip":"1600014"},{"town":"歌舞伎町二丁目","koaza":"","lat":35.696556,"lng":139.703825,"zip":"1600021"},{"town":"新宿三丁目","koaza":"","lat":35.691227,"lng":139.703563,"zip":"1600022"},{"town":"新宿五丁目","koaza":"","lat":35.693168,"lng":139.707875,"zip":"1600022"},{"town":"西新宿四丁目","koaza":"","lat":35.68754,"lng":139.68762,"zip":"1600023"},{"town":"西新宿二丁目","koaza":"","lat":35.68945,"lng":139.691774,"zip":"1600023"},{"town":"西新宿三丁目","koaza":"","lat":35.684529,"lng":139.689179,"zip":"1600023"},{"town":"市谷田町二丁目","koaza":"","lat":35.694703,"lng":139.737466,"zip":"1620843"},{"town":"市谷左内町","koaza":"","lat":35.694183,"lng":139.733332,"zip":"1620846"},{"town":"市谷長延寺町","koaza":"","lat":35.694317,"lng":139.73457,"zip":"1620847"},{"town":"神楽坂二丁目","koaza":"","lat":35.700667,"lng":139.741673,"zip":"1620825"},{"town":"揚場町","koaza":"","lat":35.70214,"lng":139.742855,"zip":"1620824"},{"town":"下宮比町","koaza":"","lat":35.703242,"lng":139.743644,"zip":"1620822"},{"town":"市谷砂土原町二丁目","koaza":"","lat":35.695627,"lng":139.735483,"zip":"1620842"},{"town":"市谷田町三丁目","koaza":"","lat":35.696372,"lng":139.738875,"zip":"1620843"},{"town":"市谷砂土原町三丁目","koaza":"","lat":35.696844,"lng":139.736692,"zip":"1620842"},{"town":"神楽河岸","koaza":"","lat":35.700818,"lng":139.743435,"zip":"1620823"},{"town":"神楽坂一丁目","koaza":"","lat":35.699633,"lng":139.741932,"zip":"1620825"},{"town":"神楽坂四丁目","koaza":"","lat":35.702219,"lng":139.739927,"zip":"1620825"},{"town":"神楽坂三丁目","koaza":"","lat":35.701456,"lng":139.740523,"zip":"1620825"},{"town":"袋町","koaza":"","lat":35.700537,"lng":139.738001,"zip":"1620828"},{"town":"南町","koaza":"","lat":35.698695,"lng":139.736525,"zip":"1620836"},{"town":"白銀町","koaza":"","lat":35.703842,"lng":139.738197,"zip":"1620816"},{"town":"筑土八幡町","koaza":"","lat":35.704248,"lng":139.740147,"zip":"1620815"},{"town":"神楽坂六丁目","koaza":"","lat":35.703039,"lng":139.737006,"zip":"1620825"},{"town":"岩戸町","koaza":"","lat":35.701453,"lng":139.737424,"zip":"1620832"},{"town":"神楽坂五丁目","koaza":"","lat":35.702155,"lng":139.738616,"zip":"1620825"},{"town":"住吉町","koaza":"","lat":35.693058,"lng":139.721362,"zip":"1620065"},{"town":"払方町","koaza":"","lat":35.697266,"lng":139.734844,"zip":"1620841"},{"town":"若宮町","koaza":"","lat":35.699535,"lng":139.739381,"zip":"1620827"},{"town":"市谷船河原町","koaza":"","lat":35.697993,"lng":139.74006,"zip":"1620826"},{"town":"市谷八幡町","koaza":"","lat":35.692142,"lng":139.734458,"zip":"1620844"},{"town":"中町","koaza":"","lat":35.699231,"lng":139.735864,"zip":"1620835"},{"town":"細工町","koaza":"","lat":35.698992,"lng":139.732996,"zip":"1620838"},{"town":"南山伏町","koaza":"","lat":35.699136,"lng":139.731255,"zip":"1620854"},{"town":"市谷加賀町一丁目","koaza":"","lat":35.696438,"lng":139.730974,"zip":"1620062"},{"town":"納戸町","koaza":"","lat":35.69752,"lng":139.733051,"zip":"1620837"},{"town":"箪笥町","koaza":"","lat":35.700527,"lng":139.734843,"zip":"1620833"},{"town":"市谷加賀町二丁目","koaza":"","lat":35.696825,"lng":139.728614,"zip":"1620062"},{"town":"東榎町","koaza":"","lat":35.705069,"lng":139.729478,"zip":"1620807"},{"town":"二十騎町","koaza":"","lat":35.698331,"lng":139.730641,"zip":"1620855"},{"town":"市谷甲良町","koaza":"","lat":35.698878,"lng":139.728113,"zip":"1620856"},{"town":"原町一丁目","koaza":"","lat":35.700392,"lng":139.725522,"zip":"1620053"},{"town":"北山伏町","koaza":"","lat":35.700081,"lng":139.730101,"zip":"1620853"},{"town":"市谷山伏町","koaza":"","lat":35.700056,"lng":139.728198,"zip":"1620857"},{"town":"市谷柳町","koaza":"","lat":35.699274,"lng":139.726406,"zip":"1620061"},{"town":"市谷仲之町","koaza":"","lat":35.694719,"lng":139.723009,"zip":"1620064"},{"town":"河田町","koaza":"","lat":35.696752,"lng":139.719557,"zip":"1620054"},{"town":"原町三丁目","koaza":"","lat":35.69977,"lng":139.722755,"zip":"1620053"},{"town":"百人町四丁目","koaza":"","lat":35.708209,"lng":139.698092,"zip":"1690073"},{"town":"市谷薬王寺町","koaza":"","lat":35.696809,"lng":139.725201,"zip":"1620063"},{"town":"原町二丁目","koaza":"","lat":35.700576,"lng":139.723995,"zip":"1620053"},{"town":"新宿六丁目","koaza":"","lat":35.695364,"lng":139.709795,"zip":"1600022"},{"town":"戸山二丁目","koaza":"","lat":35.702734,"lng":139.712125,"zip":"1690052"},{"town":"高田馬場四丁目","koaza":"","lat":35.710764,"lng":139.699185,"zip":"1690075"},{"town":"西新宿一丁目","koaza":"","lat":35.690383,"lng":139.697501,"zip":"1600023"},{"town":"大久保一丁目","koaza":"","lat":35.699644,"lng":139.70496,"zip":"1690072"},{"town":"新宿七丁目","koaza":"","lat":35.699527,"lng":139.710776,"zip":"1600022"},{"town":"西新宿八丁目","koaza":"","lat":35.695779,"lng":139.692462,"zip":"1600023"},{"town":"北新宿三丁目","koaza":"","lat":35.703853,"lng":139.69098,"zip":"1690074"},{"town":"西新宿五丁目","koaza":"","lat":35.692885,"lng":139.685558,"zip":"1600023"},{"town":"西新宿六丁目","koaza":"","lat":35.693426,"lng":139.690969,"zip":"1600023"},{"town":"北新宿二丁目","koaza":"","lat":35.698586,"lng":139.689632,"zip":"1690074"},{"town":"百人町三丁目","koaza":"","lat":35.706008,"lng":139.697743,"zip":"1690073"},{"town":"津久戸町","koaza":"","lat":35.703229,"lng":139.741231,"zip":"1620821"},{"town":"東五軒町","koaza":"","lat":35.706614,"lng":139.739298,"zip":"1620813"},{"town":"天神町","koaza":"","lat":35.705445,"lng":139.730652,"zip":"1620808"},{"town":"赤城元町","koaza":"","lat":35.704664,"lng":139.736364,"zip":"1620817"},{"town":"改代町","koaza":"","lat":35.707262,"lng":139.734464,"zip":"1620802"},{"town":"赤城下町","koaza":"","lat":35.705625,"lng":139.733786,"zip":"1620803"},{"town":"水道町","koaza":"","lat":35.708049,"lng":139.736088,"zip":"1620811"},{"town":"新小川町","koaza":"","lat":35.706239,"lng":139.742185,"zip":"1620814"},{"town":"築地町","koaza":"","lat":35.705976,"lng":139.735788,"zip":"1620818"},{"town":"西五軒町","koaza":"","lat":35.706956,"lng":139.737522,"zip":"1620812"},{"town":"中里町","koaza":"","lat":35.705958,"lng":139.731867,"zip":"1620804"},{"town":"矢来町","koaza":"","lat":35.702518,"lng":139.732339,"zip":"1620805"},{"town":"山吹町","koaza":"","lat":35.707939,"lng":139.729794,"zip":"1620801"},{"town":"若松町","koaza":"","lat":35.700183,"lng":139.717368,"zip":"1620056"},{"town":"早稲田町","koaza":"","lat":35.706063,"lng":139.722353,"zip":"1620042"},{"town":"早稲田鶴巻町","koaza":"","lat":35.708002,"lng":139.724433,"zip":"1620041"},{"town":"戸山一丁目","koaza":"","lat":35.703747,"lng":139.718015,"zip":"1690052"},{"town":"馬場下町","koaza":"","lat":35.706118,"lng":139.719654,"zip":"1620045"},{"town":"喜久井町","koaza":"","lat":35.703728,"lng":139.722061,"zip":"1620044"},{"town":"弁天町","koaza":"","lat":35.7032,"lng":139.726729,"zip":"1620851"},{"town":"戸塚町一丁目","koaza":"","lat":35.709843,"lng":139.722149,"zip":"1690071"},{"town":"大久保二丁目","koaza":"","lat":35.702675,"lng":139.705706,"zip":"1690072"},{"town":"戸山三丁目","koaza":"","lat":35.706289,"lng":139.712518,"zip":"1690052"},{"town":"西早稲田二丁目","koaza":"","lat":35.708898,"lng":139.713041,"zip":"1620051"},{"town":"西早稲田三丁目","koaza":"","lat":35.712085,"lng":139.713796,"zip":"1620051"},{"town":"西早稲田一丁目","koaza":"","lat":35.709821,"lng":139.719032,"zip":"1620051"},{"town":"高田馬場一丁目","koaza":"","lat":35.710978,"lng":139.706426,"zip":"1690075"},{"town":"歌舞伎町一丁目","koaza":"","lat":35.695393,"lng":139.701297,"zip":"1600021"},{"town":"百人町一丁目","koaza":"","lat":35.699919,"lng":139.699238,"zip":"1690073"},{"town":"百人町二丁目","koaza":"","lat":35.702991,"lng":139.698729,"zip":"1690073"},{"town":"大久保三丁目","koaza":"","lat":35.706817,"lng":139.70517,"zip":"1690072"},{"town":"北新宿四丁目","koaza":"","lat":35.706768,"lng":139.691302,"zip":"1690074"},{"town":"中落合四丁目","koaza":"","lat":35.71887,"lng":139.683508,"zip":"1610032"},{"town":"高田馬場三丁目","koaza":"","lat":35.713475,"lng":139.697204,"zip":"1690075"},{"town":"南榎町","koaza":"","lat":35.702102,"lng":139.728968,"zip":"1620852"},{"town":"榎町","koaza":"","lat":35.705152,"lng":139.727718,"zip":"1620806"},{"town":"高田馬場二丁目","koaza":"","lat":35.712982,"lng":139.707511,"zip":"1690075"},{"town":"上落合一丁目","koaza":"","lat":35.713484,"lng":139.692431,"zip":"1610034"},{"town":"下落合一丁目","koaza":"","lat":35.715741,"lng":139.699591,"zip":"1610033"},{"town":"西新宿七丁目","koaza":"","lat":35.695578,"lng":139.697241,"zip":"1600023"},{"town":"北新宿一丁目","koaza":"","lat":35.699484,"lng":139.693877,"zip":"1690074"},{"town":"中落合二丁目","koaza":"","lat":35.719492,"lng":139.692223,"zip":"1610032"},{"town":"上落合三丁目","koaza":"","lat":35.712522,"lng":139.68372,"zip":"1610034"},{"town":"上落合二丁目","koaza":"","lat":35.713504,"lng":139.688107,"zip":"1610034"},{"town":"中井二丁目","koaza":"","lat":35.716427,"lng":139.683826,"zip":"1610035"},{"town":"中落合一丁目","koaza":"","lat":35.717139,"lng":139.69024,"zip":"1610032"},{"town":"下落合二丁目","koaza":"","lat":35.718128,"lng":139.702509,"zip":"1610033"},{"town":"下落合四丁目","koaza":"","lat":35.719392,"lng":139.696567,"zip":"1610033"},{"town":"下落合三丁目","koaza":"","lat":35.721176,"lng":139.701739,"zip":"1610033"},{"town":"中落合三丁目","koaza":"","lat":35.720805,"lng":139.688752,"zip":"1610032"},{"town":"西落合二丁目","koaza":"","lat":35.720912,"lng":139.676389,"zip":"1610031"},{"town":"西落合一丁目","koaza":"","lat":35.721082,"lng":139.681274,"zip":"1610031"},{"town":"西落合四丁目","koaza":"","lat":35.726893,"lng":139.678379,"zip":"1610031"},{"town":"西落合三丁目","koaza":"","lat":35.724182,"lng":139.678924,"zip":"1610031"},{"town":"荒木町","koaza":"","lat":35.690421,"lng":139.723123,"zip":"1600007"},{"town":"片町","koaza":"","lat":35.692289,"lng":139.724476,"zip":"1600001"},{"town":"市谷本村町","koaza":"","lat":35.692544,"lng":139.729326,"zip":"1620845"},{"town":"四谷坂町","koaza":"","lat":35.690599,"lng":139.727178,"zip":"1600002"},{"town":"四谷三栄町","koaza":"","lat":35.688757,"lng":139.725668,"zip":"1600008"},{"town":"四谷本塩町","koaza":"","lat":35.689053,"lng":139.729776,"zip":"1600003"},{"town":"四谷一丁目","koaza":"","lat":35.685906,"lng":139.728799,"zip":"1600004"},{"town":"若葉一丁目","koaza":"","lat":35.684268,"lng":139.726541,"zip":"1600011"},{"town":"霞ヶ丘町","koaza":"","lat":35.677073,"lng":139.716292,"zip":"1600000"}]