[{"town":"永福一丁目","koaza":"","lat":35.671529,"lng":139.646176,"zip":"1680064"},{"town":"下高井戸三丁目","koaza":"","lat":35.672743,"lng":139.633353,"zip":"1680073"},{"town":"下高井戸一丁目","koaza":"","lat":35.668107,"lng":139.634493,"zip":"1680073"},{"town":"下高井戸四丁目","koaza":"","lat":35.672753,"lng":139.628271,"zip":"1680073"},{"town":"下高井戸二丁目","koaza":"","lat":35.670024,"lng":139.638524,"zip":"1680073"},{"town":"高井戸東一丁目","koaza":"","lat":35.679407,"lng":139.621946,"zip":"1680072"},{"town":"上高井戸一丁目","koaza":"","lat":35.67345,"lng":139.611224,"zip":"1680074"},{"town":"成田西三丁目","koaza":"","lat":35.691685,"lng":139.629218,"zip":"1660016"},{"town":"高井戸東三丁目","koaza":"","lat":35.685354,"lng":139.620115,"zip":"1680072"},{"town":"成田西二丁目","koaza":"","lat":35.688573,"lng":139.627313,"zip":"1660016"},{"town":"高井戸東四丁目","koaza":"","lat":35.689283,"lng":139.61947,"zip":"1680072"},{"town":"荻窪四丁目","koaza":"","lat":35.701628,"lng":139.622105,"zip":"1670051"},{"town":"荻窪二丁目","koaza":"","lat":35.69733,"lng":139.620568,"zip":"1670051"},{"town":"上荻一丁目","koaza":"","lat":35.706021,"lng":139.617121,"zip":"1670043"},{"town":"荻窪一丁目","koaza":"","lat":35.69296,"lng":139.621781,"zip":"1670051"},{"town":"荻窪五丁目","koaza":"","lat":35.70221,"lng":139.618682,"zip":"1670051"},{"town":"下高井戸五丁目","koaza":"","lat":35.673872,"lng":139.62286,"zip":"1680073"},{"town":"天沼三丁目","koaza":"","lat":35.708053,"lng":139.61938,"zip":"1670032"},{"town":"下井草三丁目","koaza":"","lat":35.720368,"lng":139.62378,"zip":"1670022"},{"town":"井草二丁目","koaza":"","lat":35.727341,"lng":139.619417,"zip":"1670021"},{"town":"下井草四丁目","koaza":"","lat":35.72127,"lng":139.619286,"zip":"1670022"},{"town":"本天沼三丁目","koaza":"","lat":35.71448,"lng":139.622408,"zip":"1670031"},{"town":"井草一丁目","koaza":"","lat":35.727043,"lng":139.623609,"zip":"1670021"},{"town":"高円寺南五丁目","koaza":"","lat":35.703516,"lng":139.657941,"zip":"1660003"},{"town":"方南一丁目","koaza":"","lat":35.676313,"lng":139.661301,"zip":"1680062"},{"town":"和泉二丁目","koaza":"","lat":35.674144,"lng":139.651093,"zip":"1680063"},{"town":"和泉一丁目","koaza":"","lat":35.675258,"lng":139.656947,"zip":"1680063"},{"town":"浜田山一丁目","koaza":"","lat":35.678023,"lng":139.631019,"zip":"1680065"},{"town":"永福三丁目","koaza":"","lat":35.676408,"lng":139.637058,"zip":"1680064"},{"town":"永福四丁目","koaza":"","lat":35.678675,"lng":139.641611,"zip":"1680064"},{"town":"永福二丁目","koaza":"","lat":35.673863,"lng":139.640291,"zip":"1680064"},{"town":"浜田山二丁目","koaza":"","lat":35.678702,"lng":139.626728,"zip":"1680065"},{"town":"浜田山三丁目","koaza":"","lat":35.682426,"lng":139.628629,"zip":"1680065"},{"town":"和田三丁目","koaza":"","lat":35.695787,"lng":139.657127,"zip":"1660012"},{"town":"堀ノ内二丁目","koaza":"","lat":35.688278,"lng":139.652352,"zip":"1660013"},{"town":"和泉四丁目","koaza":"","lat":35.680041,"lng":139.65335,"zip":"1680063"},{"town":"方南二丁目","koaza":"","lat":35.683402,"lng":139.658255,"zip":"1680062"},{"town":"松ノ木一丁目","koaza":"","lat":35.687418,"lng":139.642305,"zip":"1660014"},{"town":"大宮一丁目","koaza":"","lat":35.685535,"lng":139.645278,"zip":"1680061"},{"town":"和泉三丁目","koaza":"","lat":35.67836,"lng":139.646443,"zip":"1680063"},{"town":"堀ノ内一丁目","koaza":"","lat":35.685562,"lng":139.648667,"zip":"1660013"},{"town":"成田東二丁目","koaza":"","lat":35.688943,"lng":139.634655,"zip":"1660015"},{"town":"成田西一丁目","koaza":"","lat":35.687306,"lng":139.631545,"zip":"1660016"},{"town":"成田西四丁目","koaza":"","lat":35.694396,"lng":139.629526,"zip":"1660016"},{"town":"梅里二丁目","koaza":"","lat":35.696379,"lng":139.643724,"zip":"1660011"},{"town":"堀ノ内三丁目","koaza":"","lat":35.692618,"lng":139.650518,"zip":"1660013"},{"town":"和田二丁目","koaza":"","lat":35.689893,"lng":139.657414,"zip":"1660012"},{"town":"和田一丁目","koaza":"","lat":35.691411,"lng":139.663336,"zip":"1660012"},{"town":"梅里一丁目","koaza":"","lat":35.696162,"lng":139.651275,"zip":"1660011"},{"town":"松ノ木三丁目","koaza":"","lat":35.694528,"lng":139.644304,"zip":"1660014"},{"town":"成田東一丁目","koaza":"","lat":35.690241,"lng":139.63865,"zip":"1660015"},{"town":"松ノ木二丁目","koaza":"","lat":35.69081,"lng":139.643548,"zip":"1660014"},{"town":"大宮二丁目","koaza":"","lat":35.683429,"lng":139.639934,"zip":"1680061"},{"town":"浜田山四丁目","koaza":"","lat":35.684468,"lng":139.630965,"zip":"1680065"},{"town":"阿佐谷北二丁目","koaza":"","lat":35.706489,"lng":139.633194,"zip":"1660001"},{"town":"阿佐谷南二丁目","koaza":"","lat":35.703409,"lng":139.641499,"zip":"1660004"},{"town":"成田東四丁目","koaza":"","lat":35.696784,"lng":139.636109,"zip":"1660015"},{"town":"成田東三丁目","koaza":"","lat":35.693929,"lng":139.637227,"zip":"1660015"},{"town":"阿佐谷南一丁目","koaza":"","lat":35.70112,"lng":139.639847,"zip":"1660004"},{"town":"高円寺南一丁目","koaza":"","lat":35.699724,"lng":139.658421,"zip":"1660003"},{"town":"高円寺南四丁目","koaza":"","lat":35.704122,"lng":139.652005,"zip":"1660003"},{"town":"高円寺南三丁目","koaza":"","lat":35.701509,"lng":139.645697,"zip":"1660003"},{"town":"高円寺南二丁目","koaza":"","lat":35.7002,"lng":139.651335,"zip":"1660003"},{"town":"高円寺北二丁目","koaza":"","lat":35.70753,"lng":139.652095,"zip":"1660002"},{"town":"高円寺北一丁目","koaza":"","lat":35.707394,"lng":139.656412,"zip":"1660002"},{"town":"成田東五丁目","koaza":"","lat":35.699251,"lng":139.631916,"zip":"1660015"},{"town":"荻窪三丁目","koaza":"","lat":35.699537,"lng":139.626068,"zip":"1670051"},{"town":"阿佐谷北一丁目","koaza":"","lat":35.707654,"lng":139.637362,"zip":"1660001"},{"town":"阿佐谷南三丁目","koaza":"","lat":35.70218,"lng":139.63283,"zip":"1660004"},{"town":"阿佐谷北五丁目","koaza":"","lat":35.709509,"lng":139.640787,"zip":"1660001"},{"town":"阿佐谷北六丁目","koaza":"","lat":35.714152,"lng":139.638341,"zip":"1660001"},{"town":"阿佐谷北三丁目","koaza":"","lat":35.710025,"lng":139.632064,"zip":"1660001"},{"town":"天沼二丁目","koaza":"","lat":35.708048,"lng":139.624953,"zip":"1670032"},{"town":"高円寺北四丁目","koaza":"","lat":35.708217,"lng":139.644179,"zip":"1660002"},{"town":"高円寺北三丁目","koaza":"","lat":35.707906,"lng":139.647784,"zip":"1660002"},{"town":"下井草一丁目","koaza":"","lat":35.716073,"lng":139.632014,"zip":"1670022"},{"town":"下井草二丁目","koaza":"","lat":35.72037,"lng":139.627802,"zip":"1670022"},{"town":"天沼一丁目","koaza":"","lat":35.708198,"lng":139.628814,"zip":"1670032"},{"town":"阿佐谷北四丁目","koaza":"","lat":35.711917,"lng":139.636465,"zip":"1660001"},{"town":"本天沼一丁目","koaza":"","lat":35.713724,"lng":139.631649,"zip":"1670031"},{"town":"本天沼二丁目","koaza":"","lat":35.714064,"lng":139.626424,"zip":"1670031"},{"town":"高井戸東二丁目","koaza":"","lat":35.679677,"lng":139.616644,"zip":"1680072"},{"town":"高井戸西一丁目","koaza":"","lat":35.68092,"lng":139.61064,"zip":"1680071"},{"town":"高井戸西二丁目","koaza":"","lat":35.685625,"lng":139.611885,"zip":"1680071"},{"town":"高井戸西三丁目","koaza":"","lat":35.688028,"lng":139.61224,"zip":"1680071"},{"town":"宮前一丁目","koaza":"","lat":35.690477,"lng":139.611455,"zip":"1680081"},{"town":"宮前二丁目","koaza":"","lat":35.692961,"lng":139.613152,"zip":"1680081"},{"town":"久我山一丁目","koaza":"","lat":35.683052,"lng":139.596517,"zip":"1680082"},{"town":"久我山二丁目","koaza":"","lat":35.684012,"lng":139.602721,"zip":"1680082"},{"town":"南荻窪一丁目","koaza":"","lat":35.695883,"lng":139.61471,"zip":"1670052"},{"town":"南荻窪四丁目","koaza":"","lat":35.70117,"lng":139.614911,"zip":"1670052"},{"town":"上高井戸三丁目","koaza":"","lat":35.674985,"lng":139.617267,"zip":"1680074"},{"town":"上高井戸二丁目","koaza":"","lat":35.677992,"lng":139.60968,"zip":"1680074"},{"town":"宮前三丁目","koaza":"","lat":35.695655,"lng":139.607625,"zip":"1680081"},{"town":"南荻窪二丁目","koaza":"","lat":35.698781,"lng":139.610005,"zip":"1670052"},{"town":"南荻窪三丁目","koaza":"","lat":35.702228,"lng":139.610335,"zip":"1670052"},{"town":"西荻北一丁目","koaza":"","lat":35.706287,"lng":139.606745,"zip":"1670042"},{"town":"西荻南四丁目","koaza":"","lat":35.701182,"lng":139.605386,"zip":"1670053"},{"town":"西荻北二丁目","koaza":"","lat":35.70624,"lng":139.603454,"zip":"1670042"},{"town":"西荻南三丁目","koaza":"","lat":35.702151,"lng":139.602325,"zip":"1670053"},{"town":"松庵三丁目","koaza":"","lat":35.701044,"lng":139.595851,"zip":"1670054"},{"town":"西荻北三丁目","koaza":"","lat":35.705884,"lng":139.59897,"zip":"1670042"},{"town":"西荻北四丁目","koaza":"","lat":35.707523,"lng":139.595363,"zip":"1670042"},{"town":"西荻北五丁目","koaza":"","lat":35.709055,"lng":139.599966,"zip":"1670042"},{"town":"上荻二丁目","koaza":"","lat":35.706997,"lng":139.612819,"zip":"1670043"},{"town":"上荻三丁目","koaza":"","lat":35.708126,"lng":139.609237,"zip":"1670043"},{"town":"桃井四丁目","koaza":"","lat":35.713118,"lng":139.602213,"zip":"1670034"},{"town":"上荻四丁目","koaza":"","lat":35.71009,"lng":139.604576,"zip":"1670043"},{"town":"桃井二丁目","koaza":"","lat":35.712423,"lng":139.609602,"zip":"1670034"},{"town":"桃井三丁目","koaza":"","lat":35.712925,"lng":139.606291,"zip":"1670034"},{"town":"善福寺一丁目","koaza":"","lat":35.71313,"lng":139.597176,"zip":"1670041"},{"town":"善福寺二丁目","koaza":"","lat":35.712677,"lng":139.590866,"zip":"1670041"},{"town":"善福寺四丁目","koaza":"","lat":35.7186,"lng":139.588638,"zip":"1670041"},{"town":"善福寺三丁目","koaza":"","lat":35.716049,"lng":139.589681,"zip":"1670041"},{"town":"上井草四丁目","koaza":"","lat":35.72016,"lng":139.597088,"zip":"1670023"},{"town":"今川四丁目","koaza":"","lat":35.716401,"lng":139.59963,"zip":"1670035"},{"town":"今川三丁目","koaza":"","lat":35.716842,"lng":139.604522,"zip":"1670035"},{"town":"今川一丁目","koaza":"","lat":35.716803,"lng":139.612582,"zip":"1670035"},{"town":"下井草五丁目","koaza":"","lat":35.721894,"lng":139.615589,"zip":"1670022"},{"town":"上井草三丁目","koaza":"","lat":35.721573,"lng":139.601962,"zip":"1670023"},{"town":"今川二丁目","koaza":"","lat":35.716959,"lng":139.608901,"zip":"1670035"},{"town":"上井草二丁目","koaza":"","lat":35.722173,"lng":139.607716,"zip":"1670023"},{"town":"清水三丁目","koaza":"","lat":35.717614,"lng":139.617308,"zip":"1670033"},{"town":"清水二丁目","koaza":"","lat":35.71391,"lng":139.617281,"zip":"1670033"},{"town":"桃井一丁目","koaza":"","lat":35.711568,"lng":139.612943,"zip":"1670034"},{"town":"清水一丁目","koaza":"","lat":35.710158,"lng":139.617404,"zip":"1670033"},{"town":"井草五丁目","koaza":"","lat":35.726611,"lng":139.606362,"zip":"1670021"},{"town":"上井草一丁目","koaza":"","lat":35.722039,"lng":139.612331,"zip":"1670023"},{"town":"井草四丁目","koaza":"","lat":35.727343,"lng":139.611336,"zip":"1670021"},{"town":"井草三丁目","koaza":"","lat":35.727406,"lng":139.615491,"zip":"1670021"},{"town":"宮前四丁目","koaza":"","lat":35.691969,"lng":139.605718,"zip":"1680081"},{"town":"西荻南一丁目","koaza":"","lat":35.69807,"lng":139.602775,"zip":"1670053"},{"town":"西荻南二丁目","koaza":"","lat":35.699753,"lng":139.599893,"zip":"1670053"},{"town":"松庵二丁目","koaza":"","lat":35.698233,"lng":139.59465,"zip":"1670054"},{"town":"久我山五丁目","koaza":"","lat":35.688068,"lng":139.604163,"zip":"1680082"},{"town":"宮前五丁目","koaza":"","lat":35.694478,"lng":139.600075,"zip":"1680081"},{"town":"松庵一丁目","koaza":"","lat":35.695193,"lng":139.593812,"zip":"1670054"},{"town":"久我山三丁目","koaza":"","lat":35.687563,"lng":139.595663,"zip":"1680082"},{"town":"久我山四丁目","koaza":"","lat":35.691704,"lng":139.595886,"zip":"1680082"}]