[{"town":"下里四丁目","koaza":"","lat":35.753699,"lng":139.496259,"zip":"2030043"},{"town":"柳窪一丁目","koaza":"","lat":35.749106,"lng":139.495943,"zip":"2030044"},{"town":"柳窪二丁目","koaza":"","lat":35.745484,"lng":139.494244,"zip":"2030044"},{"town":"中央町六丁目","koaza":"","lat":35.754427,"lng":139.517589,"zip":"2030054"},{"town":"南沢三丁目","koaza":"","lat":35.751618,"lng":139.527602,"zip":"2030023"},{"town":"八幡町二丁目","koaza":"","lat":35.754174,"lng":139.513206,"zip":"2030042"},{"town":"下里二丁目","koaza":"","lat":35.753192,"lng":139.505876,"zip":"2030043"},{"town":"下里三丁目","koaza":"","lat":35.751362,"lng":139.500066,"zip":"2030043"},{"town":"浅間町三丁目","koaza":"","lat":35.755741,"lng":139.543144,"zip":"2030012"},{"town":"南沢一丁目","koaza":"","lat":35.754559,"lng":139.533331,"zip":"2030023"},{"town":"南沢二丁目","koaza":"","lat":35.750794,"lng":139.533,"zip":"2030023"},{"town":"中央町三丁目","koaza":"","lat":35.751192,"lng":139.522259,"zip":"2030054"},{"town":"学園町一丁目","koaza":"","lat":35.753826,"lng":139.538142,"zip":"2030021"},{"town":"下里一丁目","koaza":"","lat":35.756402,"lng":139.508156,"zip":"2030043"},{"town":"中央町二丁目","koaza":"","lat":35.755136,"lng":139.521502,"zip":"2030054"},{"town":"下里六丁目","koaza":"","lat":35.758005,"lng":139.497571,"zip":"2030043"},{"town":"弥生二丁目","koaza":"","lat":35.734179,"lng":139.505189,"zip":"2030034"},{"town":"南町二丁目","koaza":"","lat":35.736373,"lng":139.522678,"zip":"2030031"},{"town":"ひばりが丘団地","koaza":"","lat":35.746828,"lng":139.533533,"zip":"2030022"},{"town":"学園町二丁目","koaza":"","lat":35.749543,"lng":139.536201,"zip":"2030021"},{"town":"南沢四丁目","koaza":"","lat":35.747885,"lng":139.528101,"zip":"2030023"},{"town":"南町三丁目","koaza":"","lat":35.740575,"lng":139.521896,"zip":"2030031"},{"town":"南町一丁目","koaza":"","lat":35.7405,"lng":139.527983,"zip":"2030031"},{"town":"南沢五丁目","koaza":"","lat":35.74465,"lng":139.526031,"zip":"2030023"},{"town":"前沢五丁目","koaza":"","lat":35.740651,"lng":139.510453,"zip":"2030032"},{"town":"前沢三丁目","koaza":"","lat":35.741177,"lng":139.516755,"zip":"2030032"},{"town":"前沢二丁目","koaza":"","lat":35.744218,"lng":139.516936,"zip":"2030032"},{"town":"南町四丁目","koaza":"","lat":35.744789,"lng":139.521748,"zip":"2030031"},{"town":"中央町四丁目","koaza":"","lat":35.74744,"lng":139.522147,"zip":"2030054"},{"town":"前沢一丁目","koaza":"","lat":35.746595,"lng":139.517294,"zip":"2030032"},{"town":"中央町五丁目","koaza":"","lat":35.750374,"lng":139.517501,"zip":"2030054"},{"town":"前沢四丁目","koaza":"","lat":35.744745,"lng":139.512264,"zip":"2030032"},{"town":"滝山二丁目","koaza":"","lat":35.745491,"lng":139.509039,"zip":"2030033"},{"town":"滝山一丁目","koaza":"","lat":35.748103,"lng":139.510278,"zip":"2030033"},{"town":"八幡町三丁目","koaza":"","lat":35.74997,"lng":139.511781,"zip":"2030042"},{"town":"滝山七丁目","koaza":"","lat":35.749948,"lng":139.505144,"zip":"2030033"},{"town":"滝山六丁目","koaza":"","lat":35.747731,"lng":139.503683,"zip":"2030033"},{"town":"滝山五丁目","koaza":"","lat":35.745938,"lng":139.500997,"zip":"2030033"},{"town":"弥生一丁目","koaza":"","lat":35.738211,"lng":139.50538,"zip":"2030034"},{"town":"滝山三丁目","koaza":"","lat":35.742461,"lng":139.507275,"zip":"2030033"},{"town":"滝山四丁目","koaza":"","lat":35.743474,"lng":139.504299,"zip":"2030033"},{"town":"柳窪四丁目","koaza":"","lat":35.748104,"lng":139.488676,"zip":"2030044"},{"town":"柳窪五丁目","koaza":"","lat":35.749798,"lng":139.492197,"zip":"2030044"},{"town":"柳窪三丁目","koaza":"","lat":35.744096,"lng":139.490602,"zip":"2030044"},{"town":"上の原二丁目","koaza":"","lat":35.771809,"lng":139.545799,"zip":"2030001"},{"town":"神宝町二丁目","koaza":"","lat":35.767364,"lng":139.546263,"zip":"2030002"},{"town":"幸町一丁目","koaza":"","lat":35.760505,"lng":139.524723,"zip":"2030052"},{"town":"本町三丁目","koaza":"","lat":35.759374,"lng":139.529346,"zip":"2030053"},{"town":"本町四丁目","koaza":"","lat":35.756091,"lng":139.530358,"zip":"2030053"},{"town":"本町二丁目","koaza":"","lat":35.761625,"lng":139.529104,"zip":"2030053"},{"town":"氷川台一丁目","koaza":"","lat":35.765714,"lng":139.532,"zip":"2030004"},{"town":"新川町一丁目","koaza":"","lat":35.76014,"lng":139.53723,"zip":"2030013"},{"town":"本町一丁目","koaza":"","lat":35.759085,"lng":139.533352,"zip":"2030053"},{"town":"浅間町一丁目","koaza":"","lat":35.757081,"lng":139.539048,"zip":"2030012"},{"town":"上の原一丁目","koaza":"","lat":35.770782,"lng":139.542373,"zip":"2030001"},{"town":"小山一丁目","koaza":"","lat":35.764888,"lng":139.528188,"zip":"2030051"},{"town":"小山二丁目","koaza":"","lat":35.762996,"lng":139.525629,"zip":"2030051"},{"town":"小山四丁目","koaza":"","lat":35.764816,"lng":139.521433,"zip":"2030051"},{"town":"幸町二丁目","koaza":"","lat":35.760817,"lng":139.521096,"zip":"2030052"},{"town":"幸町五丁目","koaza":"","lat":35.760754,"lng":139.517798,"zip":"2030052"},{"town":"野火止一丁目","koaza":"","lat":35.760555,"lng":139.513544,"zip":"2030041"},{"town":"八幡町一丁目","koaza":"","lat":35.757794,"lng":139.512078,"zip":"2030042"},{"town":"幸町四丁目","koaza":"","lat":35.757441,"lng":139.516541,"zip":"2030052"},{"town":"下里五丁目","koaza":"","lat":35.756464,"lng":139.501408,"zip":"2030043"},{"town":"下里七丁目","koaza":"","lat":35.758742,"lng":139.504462,"zip":"2030043"},{"town":"野火止三丁目","koaza":"","lat":35.760855,"lng":139.507576,"zip":"2030041"},{"town":"野火止二丁目","koaza":"","lat":35.762862,"lng":139.513529,"zip":"2030041"},{"town":"中央町一丁目","koaza":"","lat":35.756555,"lng":139.525884,"zip":"2030054"},{"town":"幸町三丁目","koaza":"","lat":35.757975,"lng":139.520938,"zip":"2030052"},{"town":"小山五丁目","koaza":"","lat":35.765004,"lng":139.518285,"zip":"2030051"},{"town":"小山三丁目","koaza":"","lat":35.76617,"lng":139.524284,"zip":"2030051"},{"town":"氷川台二丁目","koaza":"","lat":35.767973,"lng":139.531724,"zip":"2030004"},{"town":"神宝町一丁目","koaza":"","lat":35.765342,"lng":139.543878,"zip":"2030002"},{"town":"金山町二丁目","koaza":"","lat":35.767186,"lng":139.540591,"zip":"2030003"},{"town":"金山町一丁目","koaza":"","lat":35.767767,"lng":139.537328,"zip":"2030003"},{"town":"東本町","koaza":"","lat":35.762263,"lng":139.534126,"zip":"2030014"},{"town":"大門町一丁目","koaza":"","lat":35.763632,"lng":139.537567,"zip":"2030011"},{"town":"新川町二丁目","koaza":"","lat":35.760941,"lng":139.541204,"zip":"2030013"},{"town":"大門町二丁目","koaza":"","lat":35.763921,"lng":139.541236,"zip":"2030011"},{"town":"浅間町二丁目","koaza":"","lat":35.759358,"lng":139.542706,"zip":"2030012"}]