[{"town":"高木二丁目","koaza":"","lat":35.751978,"lng":139.435417,"zip":"2070005"},{"town":"芋窪四丁目","koaza":"","lat":35.75405,"lng":139.4105,"zip":"2070033"},{"town":"清水二丁目","koaza":"","lat":35.753718,"lng":139.445591,"zip":"2070004"},{"town":"芋窪三丁目","koaza":"","lat":35.753566,"lng":139.414607,"zip":"2070033"},{"town":"清水三丁目","koaza":"","lat":35.752809,"lng":139.442966,"zip":"2070004"},{"town":"高木一丁目","koaza":"","lat":35.753912,"lng":139.435409,"zip":"2070005"},{"town":"奈良橋二丁目","koaza":"","lat":35.754079,"lng":139.427861,"zip":"2070031"},{"town":"狭山四丁目","koaza":"","lat":35.752525,"lng":139.4402,"zip":"2070003"},{"town":"奈良橋四丁目","koaza":"","lat":35.751925,"lng":139.424616,"zip":"2070031"},{"town":"奈良橋一丁目","koaza":"","lat":35.756325,"lng":139.423437,"zip":"2070031"},{"town":"蔵敷二丁目","koaza":"","lat":35.752497,"lng":139.419184,"zip":"2070032"},{"town":"南街四丁目","koaza":"","lat":35.736628,"lng":139.434073,"zip":"2070014"},{"town":"向原五丁目","koaza":"","lat":35.73708,"lng":139.439542,"zip":"2070013"},{"town":"新堀一丁目","koaza":"","lat":35.73903,"lng":139.449656,"zip":"2070012"},{"town":"新堀二丁目","koaza":"","lat":35.737887,"lng":139.448283,"zip":"2070012"},{"town":"向原四丁目","koaza":"","lat":35.737681,"lng":139.442697,"zip":"2070013"},{"town":"新堀三丁目","koaza":"","lat":35.736979,"lng":139.44624,"zip":"2070012"},{"town":"南街五丁目","koaza":"","lat":35.736205,"lng":139.432353,"zip":"2070014"},{"town":"桜が丘一丁目","koaza":"","lat":35.732685,"lng":139.431737,"zip":"2070022"},{"town":"向原六丁目","koaza":"","lat":35.736151,"lng":139.437024,"zip":"2070013"},{"town":"南街二丁目","koaza":"","lat":35.740146,"lng":139.42986,"zip":"2070014"},{"town":"向原三丁目","koaza":"","lat":35.740654,"lng":139.436522,"zip":"2070013"},{"town":"南街一丁目","koaza":"","lat":35.740507,"lng":139.432594,"zip":"2070014"},{"town":"桜が丘二丁目","koaza":"","lat":35.735874,"lng":139.421768,"zip":"2070022"},{"town":"桜が丘四丁目","koaza":"","lat":35.73589,"lng":139.41541,"zip":"2070022"},{"town":"桜が丘三丁目","koaza":"","lat":35.732323,"lng":139.42344,"zip":"2070022"},{"town":"上北台二丁目","koaza":"","lat":35.743776,"lng":139.412696,"zip":"2070023"},{"town":"清原四丁目","koaza":"","lat":35.740463,"lng":139.44629,"zip":"2070011"},{"town":"清原二丁目","koaza":"","lat":35.744157,"lng":139.445592,"zip":"2070011"},{"town":"清原三丁目","koaza":"","lat":35.741246,"lng":139.449065,"zip":"2070011"},{"town":"清原一丁目","koaza":"","lat":35.744021,"lng":139.448948,"zip":"2070011"},{"town":"仲原一丁目","koaza":"","lat":35.744253,"lng":139.443413,"zip":"2070016"},{"town":"仲原三丁目","koaza":"","lat":35.744673,"lng":139.43898,"zip":"2070016"},{"town":"清水四丁目","koaza":"","lat":35.750131,"lng":139.446097,"zip":"2070004"},{"town":"清水五丁目","koaza":"","lat":35.749136,"lng":139.443462,"zip":"2070004"},{"town":"仲原二丁目","koaza":"","lat":35.744511,"lng":139.441324,"zip":"2070016"},{"town":"清水六丁目","koaza":"","lat":35.746909,"lng":139.446816,"zip":"2070004"},{"town":"向原二丁目","koaza":"","lat":35.740893,"lng":139.438999,"zip":"2070013"},{"town":"向原一丁目","koaza":"","lat":35.740895,"lng":139.442334,"zip":"2070013"},{"town":"狭山五丁目","koaza":"","lat":35.748249,"lng":139.439773,"zip":"2070003"},{"town":"奈良橋三丁目","koaza":"","lat":35.751475,"lng":139.429959,"zip":"2070031"},{"town":"仲原四丁目","koaza":"","lat":35.744853,"lng":139.436423,"zip":"2070016"},{"town":"中央一丁目","koaza":"","lat":35.744763,"lng":139.433406,"zip":"2070015"},{"town":"奈良橋五丁目","koaza":"","lat":35.749013,"lng":139.428799,"zip":"2070031"},{"town":"高木三丁目","koaza":"","lat":35.749171,"lng":139.434293,"zip":"2070005"},{"town":"中央二丁目","koaza":"","lat":35.744822,"lng":139.430429,"zip":"2070015"},{"town":"中央三丁目","koaza":"","lat":35.745553,"lng":139.42615,"zip":"2070015"},{"town":"中央四丁目","koaza":"","lat":35.743505,"lng":139.426959,"zip":"2070015"},{"town":"南街六丁目","koaza":"","lat":35.736167,"lng":139.428088,"zip":"2070014"},{"town":"南街三丁目","koaza":"","lat":35.73933,"lng":139.427143,"zip":"2070014"},{"town":"奈良橋六丁目","koaza":"","lat":35.748514,"lng":139.424604,"zip":"2070031"},{"town":"立野二丁目","koaza":"","lat":35.744814,"lng":139.417613,"zip":"2070021"},{"town":"立野四丁目","koaza":"","lat":35.739784,"lng":139.418912,"zip":"2070021"},{"town":"立野三丁目","koaza":"","lat":35.739465,"lng":139.423327,"zip":"2070021"},{"town":"立野一丁目","koaza":"","lat":35.74454,"lng":139.421624,"zip":"2070021"},{"town":"蔵敷三丁目","koaza":"","lat":35.74872,"lng":139.420163,"zip":"2070032"},{"town":"上北台一丁目","koaza":"","lat":35.746322,"lng":139.413412,"zip":"2070023"},{"town":"上北台三丁目","koaza":"","lat":35.740662,"lng":139.413745,"zip":"2070023"},{"town":"芋窪五丁目","koaza":"","lat":35.749087,"lng":139.414275,"zip":"2070033"},{"town":"芋窪六丁目","koaza":"","lat":35.750076,"lng":139.410106,"zip":"2070033"},{"town":"清水一丁目","koaza":"","lat":35.756245,"lng":139.441191,"zip":"2070004"},{"town":"多摩湖四丁目","koaza":"","lat":35.760577,"lng":139.433175,"zip":"2070001"},{"town":"狭山三丁目","koaza":"","lat":35.755839,"lng":139.435595,"zip":"2070003"},{"town":"狭山二丁目","koaza":"","lat":35.756623,"lng":139.43824,"zip":"2070003"},{"town":"狭山一丁目","koaza":"","lat":35.759355,"lng":139.436978,"zip":"2070003"},{"town":"湖畔二丁目","koaza":"","lat":35.757764,"lng":139.428434,"zip":"2070002"},{"town":"多摩湖五丁目","koaza":"","lat":35.759928,"lng":139.421403,"zip":"2070001"},{"town":"芋窪一丁目","koaza":"","lat":35.757785,"lng":139.414533,"zip":"2070033"},{"town":"蔵敷一丁目","koaza":"","lat":35.755863,"lng":139.418883,"zip":"2070032"},{"town":"芋窪二丁目","koaza":"","lat":35.759206,"lng":139.410764,"zip":"2070033"},{"town":"湖畔三丁目","koaza":"","lat":35.756481,"lng":139.431251,"zip":"2070002"},{"town":"湖畔一丁目","koaza":"","lat":35.759394,"lng":139.433107,"zip":"2070002"},{"town":"多摩湖一丁目","koaza":"","lat":35.766944,"lng":139.434509,"zip":"2070001"},{"town":"多摩湖六丁目","koaza":"","lat":35.76345,"lng":139.406006,"zip":"2070001"},{"town":"多摩湖二丁目","koaza":"","lat":35.766714,"lng":139.42421,"zip":"2070001"},{"town":"多摩湖三丁目","koaza":"","lat":35.76686,"lng":139.407679,"zip":"2070001"}]