[{"town":"恩多町二丁目","koaza":"","lat":35.749897,"lng":139.482747,"zip":"1890011"},{"town":"青葉町四丁目","koaza":"","lat":35.766145,"lng":139.496835,"zip":"1890002"},{"town":"青葉町一丁目","koaza":"","lat":35.760665,"lng":139.496419,"zip":"1890002"},{"town":"青葉町三丁目","koaza":"","lat":35.768995,"lng":139.493485,"zip":"1890002"},{"town":"本町四丁目","koaza":"","lat":35.753692,"lng":139.472126,"zip":"1890014"},{"town":"廻田町二丁目","koaza":"","lat":35.754622,"lng":139.448739,"zip":"1890025"},{"town":"栄町一丁目","koaza":"","lat":35.751641,"lng":139.475473,"zip":"1890013"},{"town":"恩多町三丁目","koaza":"","lat":35.753567,"lng":139.481549,"zip":"1890011"},{"town":"本町一丁目","koaza":"","lat":35.75492,"lng":139.467196,"zip":"1890014"},{"town":"恩多町一丁目","koaza":"","lat":35.75371,"lng":139.48939,"zip":"1890011"},{"town":"美住町二丁目","koaza":"","lat":35.754335,"lng":139.459899,"zip":"1890023"},{"town":"秋津町一丁目","koaza":"","lat":35.773057,"lng":139.493687,"zip":"1890001"},{"town":"秋津町五丁目","koaza":"","lat":35.777994,"lng":139.492943,"zip":"1890001"},{"town":"萩山町五丁目","koaza":"","lat":35.74486,"lng":139.481445,"zip":"1890012"},{"town":"萩山町二丁目","koaza":"","lat":35.741381,"lng":139.478492,"zip":"1890012"},{"town":"富士見町二丁目","koaza":"","lat":35.741102,"lng":139.453181,"zip":"1890024"},{"town":"萩山町一丁目","koaza":"","lat":35.737708,"lng":139.481844,"zip":"1890012"},{"town":"美住町一丁目","koaza":"","lat":35.749156,"lng":139.461426,"zip":"1890023"},{"town":"萩山町四丁目","koaza":"","lat":35.745261,"lng":139.47614,"zip":"1890012"},{"town":"萩山町三丁目","koaza":"","lat":35.744228,"lng":139.471069,"zip":"1890012"},{"town":"栄町三丁目","koaza":"","lat":35.747826,"lng":139.466777,"zip":"1890013"},{"town":"栄町二丁目","koaza":"","lat":35.74883,"lng":139.470588,"zip":"1890013"},{"town":"富士見町一丁目","koaza":"","lat":35.74186,"lng":139.458321,"zip":"1890024"},{"town":"富士見町五丁目","koaza":"","lat":35.747363,"lng":139.459086,"zip":"1890024"},{"town":"富士見町三丁目","koaza":"","lat":35.747606,"lng":139.453087,"zip":"1890024"},{"town":"富士見町四丁目","koaza":"","lat":35.750976,"lng":139.450299,"zip":"1890024"},{"town":"多摩湖町二丁目","koaza":"","lat":35.76098,"lng":139.444743,"zip":"1890026"},{"town":"秋津町二丁目","koaza":"","lat":35.771124,"lng":139.487274,"zip":"1890001"},{"town":"青葉町二丁目","koaza":"","lat":35.763457,"lng":139.488949,"zip":"1890002"},{"town":"恩多町五丁目","koaza":"","lat":35.758066,"lng":139.486438,"zip":"1890011"},{"town":"恩多町四丁目","koaza":"","lat":35.757544,"lng":139.477659,"zip":"1890011"},{"town":"久米川町四丁目","koaza":"","lat":35.764251,"lng":139.470419,"zip":"1890003"},{"town":"野口町二丁目","koaza":"","lat":35.758903,"lng":139.458831,"zip":"1890022"},{"town":"久米川町三丁目","koaza":"","lat":35.763904,"lng":139.475685,"zip":"1890003"},{"town":"久米川町二丁目","koaza":"","lat":35.765838,"lng":139.480225,"zip":"1890003"},{"town":"諏訪町二丁目","koaza":"","lat":35.77102,"lng":139.465412,"zip":"1890021"},{"town":"本町三丁目","koaza":"","lat":35.757338,"lng":139.47142,"zip":"1890014"},{"town":"本町二丁目","koaza":"","lat":35.761434,"lng":139.467336,"zip":"1890014"},{"town":"野口町一丁目","koaza":"","lat":35.761309,"lng":139.463874,"zip":"1890022"},{"town":"廻田町三丁目","koaza":"","lat":35.758191,"lng":139.446056,"zip":"1890025"},{"town":"廻田町一丁目","koaza":"","lat":35.755832,"lng":139.45383,"zip":"1890025"},{"town":"廻田町四丁目","koaza":"","lat":35.759483,"lng":139.451928,"zip":"1890025"},{"town":"多摩湖町一丁目","koaza":"","lat":35.763123,"lng":139.450053,"zip":"1890026"},{"town":"野口町三丁目","koaza":"","lat":35.763525,"lng":139.455538,"zip":"1890022"},{"town":"野口町四丁目","koaza":"","lat":35.764934,"lng":139.461215,"zip":"1890022"},{"town":"多摩湖町三丁目","koaza":"","lat":35.763822,"lng":139.443035,"zip":"1890026"},{"town":"久米川町一丁目","koaza":"","lat":35.768356,"lng":139.482512,"zip":"1890003"},{"town":"秋津町三丁目","koaza":"","lat":35.775655,"lng":139.47971,"zip":"1890001"},{"town":"諏訪町一丁目","koaza":"","lat":35.768257,"lng":139.467353,"zip":"1890021"},{"town":"久米川町五丁目","koaza":"","lat":35.771986,"lng":139.47451,"zip":"1890003"},{"town":"秋津町四丁目","koaza":"","lat":35.777419,"lng":139.485225,"zip":"1890001"},{"town":"諏訪町三丁目","koaza":"","lat":35.768785,"lng":139.458748,"zip":"1890021"},{"town":"多摩湖町四丁目","koaza":"","lat":35.766737,"lng":139.448683,"zip":"1890026"}]