[{"town":"小茂根五丁目","koaza":"","lat":35.752364,"lng":139.676337,"zip":"1730037"},{"town":"加賀一丁目","koaza":"","lat":35.755237,"lng":139.718094,"zip":"1730003"},{"town":"板橋三丁目","koaza":"","lat":35.751817,"lng":139.713809,"zip":"1730004"},{"town":"東山町","koaza":"","lat":35.75433,"lng":139.687013,"zip":"1740073"},{"town":"氷川町","koaza":"","lat":35.753991,"lng":139.706456,"zip":"1730013"},{"town":"栄町","koaza":"","lat":35.753072,"lng":139.702148,"zip":"1730015"},{"town":"仲宿","koaza":"","lat":35.755382,"lng":139.709847,"zip":"1730005"},{"town":"弥生町","koaza":"","lat":35.753536,"lng":139.692759,"zip":"1730021"},{"town":"大谷口北町","koaza":"","lat":35.750816,"lng":139.68896,"zip":"1730031"},{"town":"仲町","koaza":"","lat":35.753009,"lng":139.697561,"zip":"1730022"},{"town":"東新町二丁目","koaza":"","lat":35.754778,"lng":139.681427,"zip":"1740074"},{"town":"南町","koaza":"","lat":35.739824,"lng":139.701918,"zip":"1730027"},{"town":"向原一丁目","koaza":"","lat":35.741953,"lng":139.685286,"zip":"1730036"},{"town":"向原二丁目","koaza":"","lat":35.740519,"lng":139.68181,"zip":"1730036"},{"town":"板橋四丁目","koaza":"","lat":35.75075,"lng":139.718986,"zip":"1730004"},{"town":"中丸町","koaza":"","lat":35.741459,"lng":139.70406,"zip":"1730026"},{"town":"板橋一丁目","koaza":"","lat":35.747128,"lng":139.718085,"zip":"1730004"},{"town":"大山東町","koaza":"","lat":35.749059,"lng":139.705155,"zip":"1730014"},{"town":"幸町","koaza":"","lat":35.744553,"lng":139.697121,"zip":"1730034"},{"town":"大山金井町","koaza":"","lat":35.746218,"lng":139.705106,"zip":"1730024"},{"town":"板橋二丁目","koaza":"","lat":35.748165,"lng":139.711087,"zip":"1730004"},{"town":"熊野町","koaza":"","lat":35.742792,"lng":139.7067,"zip":"1730025"},{"town":"大谷口一丁目","koaza":"","lat":35.743776,"lng":139.690855,"zip":"1730035"},{"town":"大山西町","koaza":"","lat":35.746647,"lng":139.695736,"zip":"1730033"},{"town":"大山町","koaza":"","lat":35.748612,"lng":139.699742,"zip":"1730023"},{"town":"大谷口二丁目","koaza":"","lat":35.744673,"lng":139.687933,"zip":"1730035"},{"town":"小茂根三丁目","koaza":"","lat":35.750786,"lng":139.680061,"zip":"1730037"},{"town":"小茂根二丁目","koaza":"","lat":35.749886,"lng":139.683201,"zip":"1730037"},{"town":"大谷口上町","koaza":"","lat":35.749053,"lng":139.691976,"zip":"1730032"},{"town":"小茂根一丁目","koaza":"","lat":35.746066,"lng":139.679839,"zip":"1730037"},{"town":"小茂根四丁目","koaza":"","lat":35.747865,"lng":139.675344,"zip":"1730037"},{"town":"向原三丁目","koaza":"","lat":35.745492,"lng":139.684426,"zip":"1730036"},{"town":"坂下二丁目","koaza":"","lat":35.782942,"lng":139.68188,"zip":"1740043"},{"town":"加賀二丁目","koaza":"","lat":35.757734,"lng":139.715068,"zip":"1730003"},{"town":"中板橋","koaza":"","lat":35.75595,"lng":139.69805,"zip":"1730016"},{"town":"桜川一丁目","koaza":"","lat":35.756061,"lng":139.675693,"zip":"1740075"},{"town":"三園二丁目","koaza":"","lat":35.794868,"lng":139.641964,"zip":"1750091"},{"town":"泉町","koaza":"","lat":35.766851,"lng":139.700757,"zip":"1740055"},{"town":"稲荷台","koaza":"","lat":35.761048,"lng":139.712166,"zip":"1730002"},{"town":"大和町","koaza":"","lat":35.758799,"lng":139.70469,"zip":"1730012"},{"town":"宮本町","koaza":"","lat":35.76402,"lng":139.700596,"zip":"1740054"},{"town":"大原町","koaza":"","lat":35.768891,"lng":139.698461,"zip":"1740061"},{"town":"前野町二丁目","koaza":"","lat":35.765848,"lng":139.689612,"zip":"1740063"},{"town":"本町","koaza":"","lat":35.759847,"lng":139.708546,"zip":"1730001"},{"town":"清水町","koaza":"","lat":35.764848,"lng":139.706841,"zip":"1740053"},{"town":"前野町三丁目","koaza":"","lat":35.768912,"lng":139.692453,"zip":"1740063"},{"town":"常盤台三丁目","koaza":"","lat":35.762048,"lng":139.683995,"zip":"1740071"},{"town":"常盤台二丁目","koaza":"","lat":35.761011,"lng":139.688084,"zip":"1740071"},{"town":"常盤台一丁目","koaza":"","lat":35.76025,"lng":139.692341,"zip":"1740071"},{"town":"双葉町","koaza":"","lat":35.757975,"lng":139.698913,"zip":"1730011"},{"town":"富士見町","koaza":"","lat":35.76083,"lng":139.698679,"zip":"1740062"},{"town":"前野町一丁目","koaza":"","lat":35.76515,"lng":139.695544,"zip":"1740063"},{"town":"前野町六丁目","koaza":"","lat":35.766882,"lng":139.684666,"zip":"1740063"},{"town":"前野町四丁目","koaza":"","lat":35.771445,"lng":139.690426,"zip":"1740063"},{"town":"中台二丁目","koaza":"","lat":35.771937,"lng":139.682019,"zip":"1740064"},{"town":"志村二丁目","koaza":"","lat":35.776639,"lng":139.689122,"zip":"1740056"},{"town":"桜川二丁目","koaza":"","lat":35.758465,"lng":139.677622,"zip":"1740075"},{"town":"東新町一丁目","koaza":"","lat":35.758986,"lng":139.681318,"zip":"1740074"},{"town":"南常盤台一丁目","koaza":"","lat":35.756394,"lng":139.689234,"zip":"1740072"},{"town":"南常盤台二丁目","koaza":"","lat":35.758371,"lng":139.685462,"zip":"1740072"},{"town":"常盤台四丁目","koaza":"","lat":35.763645,"lng":139.679446,"zip":"1740071"},{"town":"中台一丁目","koaza":"","lat":35.767045,"lng":139.679012,"zip":"1740064"},{"town":"桜川三丁目","koaza":"","lat":35.760125,"lng":139.67417,"zip":"1740075"},{"town":"若木二丁目","koaza":"","lat":35.770726,"lng":139.67246,"zip":"1740065"},{"town":"若木一丁目","koaza":"","lat":35.767851,"lng":139.67257,"zip":"1740065"},{"town":"徳丸一丁目","koaza":"","lat":35.771674,"lng":139.665518,"zip":"1750083"},{"town":"上板橋二丁目","koaza":"","lat":35.763992,"lng":139.672861,"zip":"1740076"},{"town":"上板橋一丁目","koaza":"","lat":35.761584,"lng":139.677282,"zip":"1740076"},{"town":"上板橋三丁目","koaza":"","lat":35.765505,"lng":139.673963,"zip":"1740076"},{"town":"徳丸二丁目","koaza":"","lat":35.772017,"lng":139.660952,"zip":"1750083"},{"town":"赤塚二丁目","koaza":"","lat":35.773922,"lng":139.640522,"zip":"1750092"},{"town":"赤塚新町二丁目","koaza":"","lat":35.772718,"lng":139.638587,"zip":"1750093"},{"town":"赤塚一丁目","koaza":"","lat":35.771661,"lng":139.648681,"zip":"1750092"},{"town":"赤塚新町三丁目","koaza":"","lat":35.770802,"lng":139.636944,"zip":"1750093"},{"town":"小豆沢一丁目","koaza":"","lat":35.773939,"lng":139.700268,"zip":"1740051"},{"town":"蓮沼町","koaza":"","lat":35.770657,"lng":139.703162,"zip":"1740052"},{"town":"前野町五丁目","koaza":"","lat":35.771645,"lng":139.685979,"zip":"1740063"},{"town":"東坂下一丁目","koaza":"","lat":35.782021,"lng":139.692653,"zip":"1740042"},{"town":"志村一丁目","koaza":"","lat":35.773393,"lng":139.696299,"zip":"1740056"},{"town":"小豆沢二丁目","koaza":"","lat":35.776827,"lng":139.699941,"zip":"1740051"},{"town":"東坂下二丁目","koaza":"","lat":35.786689,"lng":139.687478,"zip":"1740042"},{"town":"舟渡一丁目","koaza":"","lat":35.790219,"lng":139.688602,"zip":"1740041"},{"town":"若木三丁目","koaza":"","lat":35.774248,"lng":139.675693,"zip":"1740065"},{"town":"中台三丁目","koaza":"","lat":35.772579,"lng":139.678966,"zip":"1740064"},{"town":"坂下一丁目","koaza":"","lat":35.78029,"lng":139.685377,"zip":"1740043"},{"town":"相生町","koaza":"","lat":35.777076,"lng":139.678961,"zip":"1740044"},{"town":"志村三丁目","koaza":"","lat":35.777263,"lng":139.684903,"zip":"1740056"},{"town":"小豆沢三丁目","koaza":"","lat":35.778658,"lng":139.695487,"zip":"1740051"},{"town":"蓮根一丁目","koaza":"","lat":35.778765,"lng":139.676151,"zip":"1740046"},{"town":"新河岸一丁目","koaza":"","lat":35.796088,"lng":139.667484,"zip":"1750081"},{"town":"高島平九丁目","koaza":"","lat":35.789817,"lng":139.669258,"zip":"1750082"},{"town":"坂下三丁目","koaza":"","lat":35.788344,"lng":139.682289,"zip":"1740043"},{"town":"西台二丁目","koaza":"","lat":35.778844,"lng":139.669985,"zip":"1740045"},{"town":"蓮根二丁目","koaza":"","lat":35.783005,"lng":139.676336,"zip":"1740046"},{"town":"高島平一丁目","koaza":"","lat":35.783634,"lng":139.66999,"zip":"1750082"},{"town":"蓮根三丁目","koaza":"","lat":35.788566,"lng":139.677147,"zip":"1740046"},{"town":"舟渡四丁目","koaza":"","lat":35.795499,"lng":139.675922,"zip":"1740041"},{"town":"赤塚六丁目","koaza":"","lat":35.7765,"lng":139.644247,"zip":"1750092"},{"town":"赤塚七丁目","koaza":"","lat":35.776769,"lng":139.648723,"zip":"1750092"},{"town":"徳丸七丁目","koaza":"","lat":35.781039,"lng":139.66286,"zip":"1750083"},{"town":"四葉一丁目","koaza":"","lat":35.777401,"lng":139.65253,"zip":"1750084"},{"town":"徳丸五丁目","koaza":"","lat":35.777744,"lng":139.656553,"zip":"1750083"},{"town":"四葉二丁目","koaza":"","lat":35.782198,"lng":139.652299,"zip":"1750084"},{"town":"大門","koaza":"","lat":35.783645,"lng":139.64883,"zip":"1750085"},{"town":"赤塚新町一丁目","koaza":"","lat":35.769412,"lng":139.646948,"zip":"1750093"},{"town":"徳丸八丁目","koaza":"","lat":35.781506,"lng":139.656851,"zip":"1750083"},{"town":"高島平三丁目","koaza":"","lat":35.786609,"lng":139.655603,"zip":"1750082"},{"town":"高島平二丁目","koaza":"","lat":35.78517,"lng":139.6627,"zip":"1750082"},{"town":"高島平四丁目","koaza":"","lat":35.787794,"lng":139.650273,"zip":"1750082"},{"town":"高島平六丁目","koaza":"","lat":35.793464,"lng":139.649021,"zip":"1750082"},{"town":"赤塚三丁目","koaza":"","lat":35.778714,"lng":139.63858,"zip":"1750092"},{"town":"赤塚五丁目","koaza":"","lat":35.781144,"lng":139.643143,"zip":"1750092"},{"town":"赤塚八丁目","koaza":"","lat":35.782578,"lng":139.646493,"zip":"1750092"},{"town":"三園一丁目","koaza":"","lat":35.789262,"lng":139.640108,"zip":"1750091"},{"town":"高島平五丁目","koaza":"","lat":35.78897,"lng":139.645958,"zip":"1750082"},{"town":"赤塚四丁目","koaza":"","lat":35.784443,"lng":139.639891,"zip":"1750092"},{"town":"成増三丁目","koaza":"","lat":35.779984,"lng":139.632085,"zip":"1750094"},{"town":"成増四丁目","koaza":"","lat":35.784256,"lng":139.635379,"zip":"1750094"},{"town":"成増五丁目","koaza":"","lat":35.786456,"lng":139.632942,"zip":"1750094"},{"town":"成増一丁目","koaza":"","lat":35.774215,"lng":139.631332,"zip":"1750094"},{"town":"成増二丁目","koaza":"","lat":35.778058,"lng":139.630423,"zip":"1750094"},{"town":"新河岸三丁目","koaza":"","lat":35.796797,"lng":139.652548,"zip":"1750081"},{"town":"新河岸二丁目","koaza":"","lat":35.796614,"lng":139.66189,"zip":"1750081"},{"town":"小豆沢四丁目","koaza":"","lat":35.781141,"lng":139.699359,"zip":"1740051"},{"town":"舟渡三丁目","koaza":"","lat":35.79564,"lng":139.683143,"zip":"1740041"},{"town":"舟渡二丁目","koaza":"","lat":35.796407,"lng":139.690405,"zip":"1740041"},{"town":"徳丸六丁目","koaza":"","lat":35.778059,"lng":139.661609,"zip":"1750083"},{"town":"西台三丁目","koaza":"","lat":35.775508,"lng":139.667877,"zip":"1740045"},{"town":"西台一丁目","koaza":"","lat":35.775048,"lng":139.67257,"zip":"1740045"},{"town":"徳丸四丁目","koaza":"","lat":35.772709,"lng":139.653106,"zip":"1750083"},{"town":"徳丸三丁目","koaza":"","lat":35.772403,"lng":139.657039,"zip":"1750083"},{"town":"高島平七丁目","koaza":"","lat":35.791434,"lng":139.656735,"zip":"1750082"},{"town":"高島平八丁目","koaza":"","lat":35.790589,"lng":139.662653,"zip":"1750082"},{"town":"西台四丁目","koaza":"","lat":35.769957,"lng":139.667866,"zip":"1740045"}]