[{"town":"吉祥寺南町四丁目","koaza":"","lat":35.700419,"lng":139.589688,"zip":"1800003"},{"town":"吉祥寺南町二丁目","koaza":"","lat":35.701612,"lng":139.584105,"zip":"1800003"},{"town":"吉祥寺本町一丁目","koaza":"","lat":35.705221,"lng":139.580989,"zip":"1800004"},{"town":"吉祥寺東町三丁目","koaza":"","lat":35.706154,"lng":139.589232,"zip":"1800002"},{"town":"吉祥寺南町五丁目","koaza":"","lat":35.702216,"lng":139.591672,"zip":"1800003"},{"town":"吉祥寺東町四丁目","koaza":"","lat":35.705662,"lng":139.593357,"zip":"1800002"},{"town":"吉祥寺南町一丁目","koaza":"","lat":35.70057,"lng":139.580758,"zip":"1800003"},{"town":"御殿山一丁目","koaza":"","lat":35.700145,"lng":139.571834,"zip":"1800005"},{"town":"御殿山二丁目","koaza":"","lat":35.701348,"lng":139.566859,"zip":"1800005"},{"town":"吉祥寺本町三丁目","koaza":"","lat":35.704761,"lng":139.570683,"zip":"1800004"},{"town":"境南町五丁目","koaza":"","lat":35.696582,"lng":139.539104,"zip":"1800023"},{"town":"中町一丁目","koaza":"","lat":35.704285,"lng":139.56224,"zip":"1800006"},{"town":"中町二丁目","koaza":"","lat":35.706481,"lng":139.564517,"zip":"1800006"},{"town":"西久保一丁目","koaza":"","lat":35.706089,"lng":139.556356,"zip":"1800013"},{"town":"境南町一丁目","koaza":"","lat":35.698655,"lng":139.548598,"zip":"1800023"},{"town":"境南町三丁目","koaza":"","lat":35.699516,"lng":139.539843,"zip":"1800023"},{"town":"境南町二丁目","koaza":"","lat":35.69884,"lng":139.543992,"zip":"1800023"},{"town":"境一丁目","koaza":"","lat":35.704043,"lng":139.547159,"zip":"1800023"},{"town":"境三丁目","koaza":"","lat":35.707504,"lng":139.546547,"zip":"1800023"},{"town":"境南町四丁目","koaza":"","lat":35.699954,"lng":139.536063,"zip":"1800023"},{"town":"境二丁目","koaza":"","lat":35.704432,"lng":139.541196,"zip":"1800023"},{"town":"境五丁目","koaza":"","lat":35.704574,"lng":139.535299,"zip":"1800023"},{"town":"吉祥寺本町二丁目","koaza":"","lat":35.705791,"lng":139.576621,"zip":"1800004"},{"town":"吉祥寺東町一丁目","koaza":"","lat":35.706591,"lng":139.584011,"zip":"1800002"},{"town":"吉祥寺本町四丁目","koaza":"","lat":35.707592,"lng":139.572358,"zip":"1800004"},{"town":"吉祥寺北町一丁目","koaza":"","lat":35.710296,"lng":139.577665,"zip":"1800001"},{"town":"吉祥寺北町二丁目","koaza":"","lat":35.713864,"lng":139.579336,"zip":"1800001"},{"town":"吉祥寺東町二丁目","koaza":"","lat":35.711039,"lng":139.584684,"zip":"1800002"},{"town":"中町三丁目","koaza":"","lat":35.709666,"lng":139.566384,"zip":"1800006"},{"town":"西久保二丁目","koaza":"","lat":35.709555,"lng":139.558315,"zip":"1800013"},{"town":"西久保三丁目","koaza":"","lat":35.711625,"lng":139.560069,"zip":"1800013"},{"town":"緑町一丁目","koaza":"","lat":35.714621,"lng":139.560975,"zip":"1800012"},{"town":"八幡町一丁目","koaza":"","lat":35.715909,"lng":139.556529,"zip":"1800011"},{"town":"桜堤二丁目","koaza":"","lat":35.710078,"lng":139.530294,"zip":"1800021"},{"town":"緑町三丁目","koaza":"","lat":35.720029,"lng":139.564632,"zip":"1800012"},{"town":"緑町二丁目","koaza":"","lat":35.716771,"lng":139.562741,"zip":"1800012"},{"town":"吉祥寺北町四丁目","koaza":"","lat":35.7139,"lng":139.567254,"zip":"1800001"},{"town":"吉祥寺北町三丁目","koaza":"","lat":35.714416,"lng":139.573505,"zip":"1800001"},{"town":"吉祥寺北町五丁目","koaza":"","lat":35.718139,"lng":139.569681,"zip":"1800001"},{"town":"八幡町二丁目","koaza":"","lat":35.719421,"lng":139.558584,"zip":"1800011"},{"town":"関前二丁目","koaza":"","lat":35.711043,"lng":139.551143,"zip":"1800014"},{"town":"関前三丁目","koaza":"","lat":35.713553,"lng":139.552872,"zip":"1800014"},{"town":"桜堤一丁目","koaza":"","lat":35.709568,"lng":139.535408,"zip":"1800021"},{"town":"境四丁目","koaza":"","lat":35.708519,"lng":139.540735,"zip":"1800023"},{"town":"関前一丁目","koaza":"","lat":35.709122,"lng":139.548725,"zip":"1800014"},{"town":"関前五丁目","koaza":"","lat":35.71193,"lng":139.541226,"zip":"1800014"},{"town":"関前四丁目","koaza":"","lat":35.71412,"lng":139.546268,"zip":"1800014"},{"town":"八幡町三丁目","koaza":"","lat":35.717175,"lng":139.552378,"zip":"1800011"},{"town":"八幡町四丁目","koaza":"","lat":35.71982,"lng":139.554912,"zip":"1800011"},{"town":"桜堤三丁目","koaza":"","lat":35.715788,"lng":139.527893,"zip":"1800021"},{"town":"吉祥寺南町三丁目","koaza":"","lat":35.697311,"lng":139.588006,"zip":"1800003"}]