[{"town":"有明三丁目","koaza":"","lat":35.629417,"lng":139.796671,"zip":"1350063"},{"town":"若洲三丁目","koaza":"","lat":35.622388,"lng":139.83617,"zip":"1360083"},{"town":"若洲二丁目","koaza":"","lat":35.624033,"lng":139.833357,"zip":"1360083"},{"town":"若洲一丁目","koaza":"","lat":35.626769,"lng":139.828714,"zip":"1360083"},{"town":"夢の島三丁目","koaza":"","lat":35.651447,"lng":139.833841,"zip":"1360081"},{"town":"夢の島二丁目","koaza":"","lat":35.651588,"lng":139.827802,"zip":"1360081"},{"town":"夢の島一丁目","koaza":"","lat":35.651132,"lng":139.822368,"zip":"1360081"},{"town":"青海四丁目","koaza":"","lat":35.615344,"lng":139.785832,"zip":"1350064"},{"town":"青海三丁目","koaza":"","lat":35.608994,"lng":139.784844,"zip":"1350064"},{"town":"南砂六丁目","koaza":"","lat":35.671933,"lng":139.83502,"zip":"1360076"},{"town":"富岡二丁目","koaza":"","lat":35.671002,"lng":139.801459,"zip":"1350047"},{"town":"牡丹三丁目","koaza":"","lat":35.668816,"lng":139.799479,"zip":"1350046"},{"town":"南砂二丁目","koaza":"","lat":35.672862,"lng":139.822903,"zip":"1360076"},{"town":"南砂七丁目","koaza":"","lat":35.668823,"lng":139.835551,"zip":"1360076"},{"town":"東砂七丁目","koaza":"","lat":35.67265,"lng":139.838844,"zip":"1360074"},{"town":"東砂六丁目","koaza":"","lat":35.672298,"lng":139.843767,"zip":"1360074"},{"town":"南砂三丁目","koaza":"","lat":35.670909,"lng":139.830018,"zip":"1360076"},{"town":"東陽四丁目","koaza":"","lat":35.671936,"lng":139.817849,"zip":"1350016"},{"town":"木場五丁目","koaza":"","lat":35.670671,"lng":139.807544,"zip":"1350042"},{"town":"東陽三丁目","koaza":"","lat":35.669582,"lng":139.812579,"zip":"1350016"},{"town":"木場二丁目","koaza":"","lat":35.67058,"lng":139.804051,"zip":"1350042"},{"town":"牡丹二丁目","koaza":"","lat":35.670123,"lng":139.796002,"zip":"1350046"},{"town":"牡丹一丁目","koaza":"","lat":35.670547,"lng":139.793901,"zip":"1350046"},{"town":"富岡一丁目","koaza":"","lat":35.671463,"lng":139.798098,"zip":"1350047"},{"town":"越中島一丁目","koaza":"","lat":35.670718,"lng":139.790286,"zip":"1350044"},{"town":"古石場一丁目","koaza":"","lat":35.668858,"lng":139.795062,"zip":"1350045"},{"town":"新木場二丁目","koaza":"","lat":35.638361,"lng":139.826659,"zip":"1360082"},{"town":"有明四丁目","koaza":"","lat":35.620798,"lng":139.792118,"zip":"1350063"},{"town":"青海二丁目","koaza":"","lat":35.618849,"lng":139.777172,"zip":"1350064"},{"town":"青海一丁目","koaza":"","lat":35.625058,"lng":139.778725,"zip":"1350064"},{"town":"有明二丁目","koaza":"","lat":35.636322,"lng":139.789974,"zip":"1350063"},{"town":"新木場三丁目","koaza":"","lat":35.635637,"lng":139.835057,"zip":"1360082"},{"town":"新木場四丁目","koaza":"","lat":35.640845,"lng":139.838904,"zip":"1360082"},{"town":"豊洲六丁目","koaza":"","lat":35.646684,"lng":139.786093,"zip":"1350061"},{"town":"辰巳三丁目","koaza":"","lat":35.64359,"lng":139.81579,"zip":"1350053"},{"town":"新木場一丁目","koaza":"","lat":35.643729,"lng":139.826503,"zip":"1360082"},{"town":"辰巳一丁目","koaza":"","lat":35.648179,"lng":139.809024,"zip":"1350053"},{"town":"東雲一丁目","koaza":"","lat":35.648418,"lng":139.801826,"zip":"1350062"},{"town":"枝川二丁目","koaza":"","lat":35.657715,"lng":139.807178,"zip":"1350051"},{"town":"豊洲五丁目","koaza":"","lat":35.6511,"lng":139.796476,"zip":"1350061"},{"town":"東雲二丁目","koaza":"","lat":35.640503,"lng":139.802348,"zip":"1350062"},{"town":"有明一丁目","koaza":"","lat":35.640906,"lng":139.789578,"zip":"1350063"},{"town":"豊洲二丁目","koaza":"","lat":35.655271,"lng":139.792777,"zip":"1350061"},{"town":"新砂三丁目","koaza":"","lat":35.658814,"lng":139.837095,"zip":"1360075"},{"town":"東砂八丁目","koaza":"","lat":35.667763,"lng":139.84213,"zip":"1360074"},{"town":"辰巳二丁目","koaza":"","lat":35.650034,"lng":139.816497,"zip":"1350053"},{"town":"潮見一丁目","koaza":"","lat":35.65574,"lng":139.811361,"zip":"1350052"},{"town":"枝川三丁目","koaza":"","lat":35.658999,"lng":139.810602,"zip":"1350051"},{"town":"潮見二丁目","koaza":"","lat":35.658076,"lng":139.817748,"zip":"1350052"},{"town":"新砂一丁目","koaza":"","lat":35.662142,"lng":139.822203,"zip":"1360075"},{"town":"塩浜二丁目","koaza":"","lat":35.662879,"lng":139.811664,"zip":"1350043"},{"town":"東陽二丁目","koaza":"","lat":35.66714,"lng":139.816591,"zip":"1350016"},{"town":"東陽一丁目","koaza":"","lat":35.666833,"lng":139.81094,"zip":"1350016"},{"town":"木場六丁目","koaza":"","lat":35.667252,"lng":139.806803,"zip":"1350042"},{"town":"新砂二丁目","koaza":"","lat":35.662567,"lng":139.826169,"zip":"1360075"},{"town":"枝川一丁目","koaza":"","lat":35.656617,"lng":139.803432,"zip":"1350051"},{"town":"木場一丁目","koaza":"","lat":35.666717,"lng":139.803659,"zip":"1350042"},{"town":"古石場二丁目","koaza":"","lat":35.66704,"lng":139.798908,"zip":"1350045"},{"town":"古石場三丁目","koaza":"","lat":35.666227,"lng":139.801354,"zip":"1350045"},{"town":"塩浜一丁目","koaza":"","lat":35.661278,"lng":139.800011,"zip":"1350043"},{"town":"越中島三丁目","koaza":"","lat":35.664328,"lng":139.798384,"zip":"1350044"},{"town":"越中島二丁目","koaza":"","lat":35.666465,"lng":139.792464,"zip":"1350044"},{"town":"豊洲一丁目","koaza":"","lat":35.661813,"lng":139.792044,"zip":"1350061"},{"town":"豊洲四丁目","koaza":"","lat":35.653798,"lng":139.800664,"zip":"1350061"},{"town":"豊洲三丁目","koaza":"","lat":35.658936,"lng":139.79692,"zip":"1350061"},{"town":"南砂五丁目","koaza":"","lat":35.675323,"lng":139.831974,"zip":"1360076"},{"town":"平野一丁目","koaza":"","lat":35.678264,"lng":139.799487,"zip":"1350023"},{"town":"永代二丁目","koaza":"","lat":35.673549,"lng":139.791586,"zip":"1350034"},{"town":"深川二丁目","koaza":"","lat":35.675651,"lng":139.797915,"zip":"1350033"},{"town":"永代一丁目","koaza":"","lat":35.674691,"lng":139.789097,"zip":"1350034"},{"town":"東砂五丁目","koaza":"","lat":35.676048,"lng":139.843688,"zip":"1360074"},{"town":"東砂四丁目","koaza":"","lat":35.677662,"lng":139.839452,"zip":"1360074"},{"town":"南砂四丁目","koaza":"","lat":35.673631,"lng":139.82968,"zip":"1360076"},{"town":"北砂七丁目","koaza":"","lat":35.678181,"lng":139.836018,"zip":"1360073"},{"town":"北砂四丁目","koaza":"","lat":35.678143,"lng":139.830705,"zip":"1360073"},{"town":"北砂六丁目","koaza":"","lat":35.683105,"lng":139.837393,"zip":"1360073"},{"town":"海辺","koaza":"","lat":35.681075,"lng":139.818882,"zip":"1350012"},{"town":"東陽七丁目","koaza":"","lat":35.675312,"lng":139.818041,"zip":"1350016"},{"town":"千石二丁目","koaza":"","lat":35.677999,"lng":139.815824,"zip":"1350015"},{"town":"千石三丁目","koaza":"","lat":35.678053,"lng":139.818725,"zip":"1350015"},{"town":"南砂一丁目","koaza":"","lat":35.678826,"lng":139.822231,"zip":"1360076"},{"town":"千田","koaza":"","lat":35.681155,"lng":139.815615,"zip":"1350013"},{"town":"石島","koaza":"","lat":35.681133,"lng":139.812106,"zip":"1350014"},{"town":"平野四丁目","koaza":"","lat":35.677817,"lng":139.808738,"zip":"1350023"},{"town":"千石一丁目","koaza":"","lat":35.678286,"lng":139.81247,"zip":"1350015"},{"town":"三好四丁目","koaza":"","lat":35.68033,"lng":139.808486,"zip":"1350022"},{"town":"扇橋二丁目","koaza":"","lat":35.683603,"lng":139.815501,"zip":"1350011"},{"town":"平野三丁目","koaza":"","lat":35.677645,"lng":139.805666,"zip":"1350023"},{"town":"木場四丁目","koaza":"","lat":35.674272,"lng":139.808492,"zip":"1350042"},{"town":"扇橋一丁目","koaza":"","lat":35.683189,"lng":139.811869,"zip":"1350011"},{"town":"木場三丁目","koaza":"","lat":35.673999,"lng":139.804936,"zip":"1350042"},{"town":"平野二丁目","koaza":"","lat":35.67761,"lng":139.802589,"zip":"1350023"},{"town":"三好三丁目","koaza":"","lat":35.680087,"lng":139.805166,"zip":"1350022"},{"town":"高橋","koaza":"","lat":35.684902,"lng":139.799545,"zip":"1350005"},{"town":"冬木","koaza":"","lat":35.674788,"lng":139.801416,"zip":"1350041"},{"town":"東陽五丁目","koaza":"","lat":35.672329,"lng":139.812885,"zip":"1350016"},{"town":"東陽六丁目","koaza":"","lat":35.674814,"lng":139.813219,"zip":"1350016"},{"town":"門前仲町二丁目","koaza":"","lat":35.672524,"lng":139.795782,"zip":"1350048"},{"town":"三好二丁目","koaza":"","lat":35.679983,"lng":139.80239,"zip":"1350022"},{"town":"福住二丁目","koaza":"","lat":35.67823,"lng":139.794005,"zip":"1350032"},{"town":"深川一丁目","koaza":"","lat":35.676523,"lng":139.795626,"zip":"1350033"},{"town":"常盤二丁目","koaza":"","lat":35.684826,"lng":139.797281,"zip":"1350006"},{"town":"清澄三丁目","koaza":"","lat":35.680971,"lng":139.79797,"zip":"1350024"},{"town":"三好一丁目","koaza":"","lat":35.679836,"lng":139.800106,"zip":"1350022"},{"town":"門前仲町一丁目","koaza":"","lat":35.673228,"lng":139.794229,"zip":"1350048"},{"town":"福住一丁目","koaza":"","lat":35.675971,"lng":139.793388,"zip":"1350032"},{"town":"佐賀一丁目","koaza":"","lat":35.677077,"lng":139.790208,"zip":"1350031"},{"town":"佐賀二丁目","koaza":"","lat":35.679283,"lng":139.791541,"zip":"1350031"},{"town":"東砂三丁目","koaza":"","lat":35.679897,"lng":139.843954,"zip":"1360074"},{"town":"東砂一丁目","koaza":"","lat":35.683395,"lng":139.840181,"zip":"1360074"},{"town":"大島五丁目","koaza":"","lat":35.687986,"lng":139.835355,"zip":"1360072"},{"town":"東砂二丁目","koaza":"","lat":35.6841,"lng":139.843893,"zip":"1360074"},{"town":"大島四丁目","koaza":"","lat":35.687624,"lng":139.829499,"zip":"1360072"},{"town":"大島七丁目","koaza":"","lat":35.692334,"lng":139.840606,"zip":"1360072"},{"town":"大島三丁目","koaza":"","lat":35.691658,"lng":139.828897,"zip":"1360072"},{"town":"亀戸一丁目","koaza":"","lat":35.695595,"lng":139.822688,"zip":"1360071"},{"town":"大島二丁目","koaza":"","lat":35.691697,"lng":139.822377,"zip":"1360072"},{"town":"毛利二丁目","koaza":"","lat":35.690896,"lng":139.817713,"zip":"1350001"},{"town":"北砂一丁目","koaza":"","lat":35.681445,"lng":139.823313,"zip":"1360073"},{"town":"森下五丁目","koaza":"","lat":35.685656,"lng":139.807929,"zip":"1350004"},{"town":"猿江一丁目","koaza":"","lat":35.685939,"lng":139.811695,"zip":"1350003"},{"town":"白河四丁目","koaza":"","lat":35.682886,"lng":139.808205,"zip":"1350021"},{"town":"白河一丁目","koaza":"","lat":35.682347,"lng":139.799841,"zip":"1350021"},{"town":"森下四丁目","koaza":"","lat":35.686267,"lng":139.804854,"zip":"1350004"},{"town":"白河二丁目","koaza":"","lat":35.682553,"lng":139.802297,"zip":"1350021"},{"town":"白河三丁目","koaza":"","lat":35.682633,"lng":139.805071,"zip":"1350021"},{"town":"森下三丁目","koaza":"","lat":35.686279,"lng":139.801949,"zip":"1350004"},{"town":"森下二丁目","koaza":"","lat":35.688004,"lng":139.799196,"zip":"1350004"},{"town":"森下一丁目","koaza":"","lat":35.687516,"lng":139.797427,"zip":"1350004"},{"town":"常盤一丁目","koaza":"","lat":35.684872,"lng":139.794419,"zip":"1350006"},{"town":"清澄一丁目","koaza":"","lat":35.681633,"lng":139.792861,"zip":"1350024"},{"town":"清澄二丁目","koaza":"","lat":35.681383,"lng":139.795877,"zip":"1350024"},{"town":"新大橋一丁目","koaza":"","lat":35.68845,"lng":139.792593,"zip":"1350007"},{"town":"亀戸九丁目","koaza":"","lat":35.698131,"lng":139.842157,"zip":"1360071"},{"town":"亀戸四丁目","koaza":"","lat":35.702829,"lng":139.829153,"zip":"1360071"},{"town":"亀戸七丁目","koaza":"","lat":35.696879,"lng":139.836644,"zip":"1360071"},{"town":"大島六丁目","koaza":"","lat":35.691935,"lng":139.834633,"zip":"1360072"},{"town":"亀戸六丁目","koaza":"","lat":35.695719,"lng":139.829343,"zip":"1360071"},{"town":"北砂二丁目","koaza":"","lat":35.681245,"lng":139.826232,"zip":"1360073"},{"town":"大島一丁目","koaza":"","lat":35.687179,"lng":139.823428,"zip":"1360072"},{"town":"北砂三丁目","koaza":"","lat":35.682435,"lng":139.828917,"zip":"1360073"},{"town":"北砂五丁目","koaza":"","lat":35.682879,"lng":139.833083,"zip":"1360073"},{"town":"住吉一丁目","koaza":"","lat":35.688767,"lng":139.812698,"zip":"1350002"},{"town":"住吉二丁目","koaza":"","lat":35.688971,"lng":139.816873,"zip":"1350002"},{"town":"毛利一丁目","koaza":"","lat":35.691507,"lng":139.813446,"zip":"1350001"},{"town":"亀戸二丁目","koaza":"","lat":35.69942,"lng":139.822419,"zip":"1360071"},{"town":"新大橋二丁目","koaza":"","lat":35.688374,"lng":139.794576,"zip":"1350007"},{"town":"新大橋三丁目","koaza":"","lat":35.687895,"lng":139.795945,"zip":"1350007"},{"town":"扇橋三丁目","koaza":"","lat":35.683345,"lng":139.81897,"zip":"1350011"},{"town":"猿江二丁目","koaza":"","lat":35.686117,"lng":139.817189,"zip":"1350003"},{"town":"大島八丁目","koaza":"","lat":35.688353,"lng":139.841542,"zip":"1360072"},{"town":"大島九丁目","koaza":"","lat":35.690635,"lng":139.846063,"zip":"1360072"},{"town":"亀戸五丁目","koaza":"","lat":35.699212,"lng":139.829033,"zip":"1360071"},{"town":"亀戸八丁目","koaza":"","lat":35.700503,"lng":139.834839,"zip":"1360071"},{"town":"亀戸三丁目","koaza":"","lat":35.704637,"lng":139.822325,"zip":"1360071"},{"town":"青海二丁目地先","koaza":"","lat":35.594021,"lng":139.812206,"zip":"1350000"},{"town":"海の森一丁目","koaza":"","lat":null,"lng":null,"zip":null},{"town":"海の森二丁目","koaza":"","lat":null,"lng":null,"zip":null},{"town":"海の森三丁目","koaza":"","lat":null,"lng":null,"zip":null}]