[{"town":"野塩五丁目","koaza":"","lat":35.776137,"lng":139.499524,"zip":"2040004"},{"town":"竹丘二丁目","koaza":"","lat":35.76425,"lng":139.508309,"zip":"2040023"},{"town":"竹丘一丁目","koaza":"","lat":35.767176,"lng":139.510771,"zip":"2040023"},{"town":"松山三丁目","koaza":"","lat":35.768824,"lng":139.513544,"zip":"2040022"},{"town":"松山一丁目","koaza":"","lat":35.768974,"lng":139.517981,"zip":"2040022"},{"town":"中清戸五丁目","koaza":"","lat":35.778672,"lng":139.533887,"zip":"2040012"},{"town":"中清戸四丁目","koaza":"","lat":35.784468,"lng":139.530643,"zip":"2040012"},{"town":"竹丘三丁目","koaza":"","lat":35.765609,"lng":139.50407,"zip":"2040023"},{"town":"梅園二丁目","koaza":"","lat":35.772046,"lng":139.504188,"zip":"2040024"},{"town":"梅園三丁目","koaza":"","lat":35.771314,"lng":139.501131,"zip":"2040024"},{"town":"中清戸三丁目","koaza":"","lat":35.777223,"lng":139.531115,"zip":"2040012"},{"town":"中清戸一丁目","koaza":"","lat":35.776628,"lng":139.527721,"zip":"2040012"},{"town":"中清戸二丁目","koaza":"","lat":35.78206,"lng":139.527152,"zip":"2040012"},{"town":"梅園一丁目","koaza":"","lat":35.772186,"lng":139.508594,"zip":"2040024"},{"town":"松山二丁目","koaza":"","lat":35.772525,"lng":139.515203,"zip":"2040022"},{"town":"元町一丁目","koaza":"","lat":35.77368,"lng":139.518728,"zip":"2040021"},{"town":"上清戸一丁目","koaza":"","lat":35.775157,"lng":139.523365,"zip":"2040013"},{"town":"上清戸二丁目","koaza":"","lat":35.780036,"lng":139.521781,"zip":"2040013"},{"town":"中里一丁目","koaza":"","lat":35.779214,"lng":139.512835,"zip":"2040003"},{"town":"野塩一丁目","koaza":"","lat":35.778537,"lng":139.501533,"zip":"2040004"},{"town":"野塩四丁目","koaza":"","lat":35.775167,"lng":139.504269,"zip":"2040004"},{"town":"野塩三丁目","koaza":"","lat":35.777174,"lng":139.507767,"zip":"2040004"},{"town":"元町二丁目","koaza":"","lat":35.776578,"lng":139.515973,"zip":"2040021"},{"town":"中里五丁目","koaza":"","lat":35.787646,"lng":139.526276,"zip":"2040003"},{"town":"下清戸二丁目","koaza":"","lat":35.786108,"lng":139.533568,"zip":"2040011"},{"town":"下清戸一丁目","koaza":"","lat":35.780471,"lng":139.537326,"zip":"2040011"},{"town":"下清戸三丁目","koaza":"","lat":35.78333,"lng":139.541419,"zip":"2040011"},{"town":"中里三丁目","koaza":"","lat":35.783065,"lng":139.519374,"zip":"2040003"},{"town":"中里六丁目","koaza":"","lat":35.790833,"lng":139.527076,"zip":"2040003"},{"town":"下宿一丁目","koaza":"","lat":35.794503,"lng":139.532577,"zip":"2040001"},{"town":"野塩二丁目","koaza":"","lat":35.781239,"lng":139.502754,"zip":"2040004"},{"town":"中里二丁目","koaza":"","lat":35.782341,"lng":139.510749,"zip":"2040003"},{"town":"中里四丁目","koaza":"","lat":35.786186,"lng":139.516665,"zip":"2040003"},{"town":"旭が丘四丁目","koaza":"","lat":35.799105,"lng":139.541937,"zip":"2040002"},{"town":"旭が丘六丁目","koaza":"","lat":35.801532,"lng":139.544636,"zip":"2040002"},{"town":"下宿三丁目","koaza":"","lat":35.803319,"lng":139.540357,"zip":"2040001"},{"town":"下清戸五丁目","koaza":"","lat":35.788177,"lng":139.541317,"zip":"2040011"},{"town":"旭が丘五丁目","koaza":"","lat":35.797732,"lng":139.543129,"zip":"2040002"},{"town":"旭が丘三丁目","koaza":"","lat":35.796907,"lng":139.538466,"zip":"2040002"},{"town":"下宿二丁目","koaza":"","lat":35.798656,"lng":139.536135,"zip":"2040001"},{"town":"旭が丘一丁目","koaza":"","lat":35.791832,"lng":139.534894,"zip":"2040002"},{"town":"下清戸四丁目","koaza":"","lat":35.788011,"lng":139.536677,"zip":"2040011"},{"town":"旭が丘二丁目","koaza":"","lat":35.794911,"lng":139.539624,"zip":"2040002"}]