[{"town":"虎ノ門二丁目","koaza":"","lat":35.66849,"lng":139.746192,"zip":"1050001"},{"town":"虎ノ門三丁目","koaza":"","lat":35.664316,"lng":139.747076,"zip":"1050001"},{"town":"芝公園四丁目","koaza":"","lat":35.656459,"lng":139.74764,"zip":"1050011"},{"town":"芝三丁目","koaza":"","lat":35.65233,"lng":139.747302,"zip":"1050014"},{"town":"港南一丁目","koaza":"","lat":35.634002,"lng":139.745217,"zip":"1080075"},{"town":"芝五丁目","koaza":"","lat":35.647133,"lng":139.746672,"zip":"1050014"},{"town":"港南三丁目","koaza":"","lat":35.633695,"lng":139.750679,"zip":"1080075"},{"town":"港南四丁目","koaza":"","lat":35.627402,"lng":139.749308,"zip":"1080075"},{"town":"芝浦四丁目","koaza":"","lat":35.639747,"lng":139.747114,"zip":"1050023"},{"town":"芝公園三丁目","koaza":"","lat":35.659943,"lng":139.747207,"zip":"1050011"},{"town":"西新橋一丁目","koaza":"","lat":35.668733,"lng":139.753194,"zip":"1050003"},{"town":"虎ノ門一丁目","koaza":"","lat":35.668358,"lng":139.74967,"zip":"1050001"},{"town":"南青山一丁目","koaza":"","lat":35.669694,"lng":139.725231,"zip":"1070062"},{"town":"赤坂一丁目","koaza":"","lat":35.668589,"lng":139.742334,"zip":"1070052"},{"town":"赤坂二丁目","koaza":"","lat":35.671044,"lng":139.74023,"zip":"1070052"},{"town":"赤坂六丁目","koaza":"","lat":35.669375,"lng":139.73546,"zip":"1070052"},{"town":"赤坂七丁目","koaza":"","lat":35.671874,"lng":139.73082,"zip":"1070052"},{"town":"赤坂八丁目","koaza":"","lat":35.670737,"lng":139.72819,"zip":"1070052"},{"town":"北青山二丁目","koaza":"","lat":35.671934,"lng":139.717754,"zip":"1070061"},{"town":"南青山二丁目","koaza":"","lat":35.667311,"lng":139.721885,"zip":"1070062"},{"town":"台場一丁目","koaza":"","lat":35.630728,"lng":139.777935,"zip":"1350091"},{"town":"港南五丁目","koaza":"","lat":35.62903,"lng":139.756164,"zip":"1080075"},{"town":"台場二丁目","koaza":"","lat":35.62722,"lng":139.775903,"zip":"1350091"},{"town":"芝大門二丁目","koaza":"","lat":35.655059,"lng":139.75345,"zip":"1050012"},{"town":"浜松町二丁目","koaza":"","lat":35.654862,"lng":139.755988,"zip":"1050013"},{"town":"海岸三丁目","koaza":"","lat":35.640807,"lng":139.756877,"zip":"1050022"},{"town":"芝二丁目","koaza":"","lat":35.651338,"lng":139.751694,"zip":"1050014"},{"town":"芝大門一丁目","koaza":"","lat":35.658587,"lng":139.753717,"zip":"1050012"},{"town":"芝浦二丁目","koaza":"","lat":35.644311,"lng":139.753836,"zip":"1050023"},{"town":"浜松町一丁目","koaza":"","lat":35.65857,"lng":139.756545,"zip":"1050013"},{"town":"芝四丁目","koaza":"","lat":35.648289,"lng":139.750856,"zip":"1050014"},{"town":"芝一丁目","koaza":"","lat":35.650981,"lng":139.754769,"zip":"1050014"},{"town":"海岸二丁目","koaza":"","lat":35.64912,"lng":139.758877,"zip":"1050022"},{"town":"芝公園一丁目","koaza":"","lat":35.65893,"lng":139.751417,"zip":"1050011"},{"town":"芝公園二丁目","koaza":"","lat":35.655131,"lng":139.751235,"zip":"1050011"},{"town":"海岸一丁目","koaza":"","lat":35.655382,"lng":139.761674,"zip":"1050022"},{"town":"愛宕二丁目","koaza":"","lat":35.66285,"lng":139.748214,"zip":"1050002"},{"town":"愛宕一丁目","koaza":"","lat":35.665137,"lng":139.748954,"zip":"1050002"},{"town":"西新橋二丁目","koaza":"","lat":35.66623,"lng":139.752068,"zip":"1050003"},{"town":"新橋三丁目","koaza":"","lat":35.665577,"lng":139.75602,"zip":"1050004"},{"town":"新橋五丁目","koaza":"","lat":35.663089,"lng":139.755002,"zip":"1050004"},{"town":"新橋六丁目","koaza":"","lat":35.661557,"lng":139.754002,"zip":"1050004"},{"town":"西新橋三丁目","koaza":"","lat":35.663308,"lng":139.751064,"zip":"1050003"},{"town":"東新橋二丁目","koaza":"","lat":35.661959,"lng":139.757566,"zip":"1050021"},{"town":"新橋四丁目","koaza":"","lat":35.664373,"lng":139.755933,"zip":"1050004"},{"town":"東新橋一丁目","koaza":"","lat":35.663118,"lng":139.760581,"zip":"1050021"},{"town":"新橋一丁目","koaza":"","lat":35.667928,"lng":139.758186,"zip":"1050004"},{"town":"新橋二丁目","koaza":"","lat":35.666859,"lng":139.757097,"zip":"1050004"},{"town":"高輪四丁目","koaza":"","lat":35.626603,"lng":139.734492,"zip":"1080074"},{"town":"港南二丁目","koaza":"","lat":35.630932,"lng":139.739703,"zip":"1080075"},{"town":"高輪三丁目","koaza":"","lat":35.631804,"lng":139.734338,"zip":"1080074"},{"town":"白金台二丁目","koaza":"","lat":35.633709,"lng":139.728821,"zip":"1080071"},{"town":"三田五丁目","koaza":"","lat":35.646225,"lng":139.737808,"zip":"1080073"},{"town":"白金台一丁目","koaza":"","lat":35.638635,"lng":139.729889,"zip":"1080071"},{"town":"高輪二丁目","koaza":"","lat":35.637421,"lng":139.736881,"zip":"1080074"},{"town":"三田三丁目","koaza":"","lat":35.644006,"lng":139.742887,"zip":"1080073"},{"town":"白金台四丁目","koaza":"","lat":35.639386,"lng":139.725425,"zip":"1080071"},{"town":"白金二丁目","koaza":"","lat":35.64143,"lng":139.731075,"zip":"1080072"},{"town":"南麻布一丁目","koaza":"","lat":35.650887,"lng":139.734381,"zip":"1060047"},{"town":"白金三丁目","koaza":"","lat":35.64546,"lng":139.729791,"zip":"1080072"},{"town":"白金五丁目","koaza":"","lat":35.645681,"lng":139.725504,"zip":"1080072"},{"town":"白金六丁目","koaza":"","lat":35.642922,"lng":139.723219,"zip":"1080072"},{"town":"白金四丁目","koaza":"","lat":35.642283,"lng":139.727212,"zip":"1080072"},{"town":"白金台五丁目","koaza":"","lat":35.639007,"lng":139.719776,"zip":"1080071"},{"town":"白金台三丁目","koaza":"","lat":35.636067,"lng":139.725289,"zip":"1080071"},{"town":"高輪一丁目","koaza":"","lat":35.640556,"lng":139.735173,"zip":"1080074"},{"town":"三田四丁目","koaza":"","lat":35.643982,"lng":139.739059,"zip":"1080073"},{"town":"虎ノ門四丁目","koaza":"","lat":35.664891,"lng":139.744312,"zip":"1050001"},{"town":"虎ノ門五丁目","koaza":"","lat":35.662526,"lng":139.743383,"zip":"1050001"},{"town":"三田二丁目","koaza":"","lat":35.64989,"lng":139.741212,"zip":"1080073"},{"town":"三田一丁目","koaza":"","lat":35.653812,"lng":139.741333,"zip":"1080073"},{"town":"麻布永坂町","koaza":"","lat":35.658675,"lng":139.737656,"zip":"1060043"},{"town":"東麻布一丁目","koaza":"","lat":35.656698,"lng":139.743777,"zip":"1060044"},{"town":"麻布台三丁目","koaza":"","lat":35.6603,"lng":139.738665,"zip":"1060041"},{"town":"麻布十番三丁目","koaza":"","lat":35.653226,"lng":139.735398,"zip":"1060045"},{"town":"元麻布一丁目","koaza":"","lat":35.654041,"lng":139.732684,"zip":"1060046"},{"town":"麻布十番一丁目","koaza":"","lat":35.656675,"lng":139.735092,"zip":"1060045"},{"town":"東麻布二丁目","koaza":"","lat":35.65677,"lng":139.740858,"zip":"1060044"},{"town":"東麻布三丁目","koaza":"","lat":35.656688,"lng":139.738027,"zip":"1060044"},{"town":"麻布台二丁目","koaza":"","lat":35.65881,"lng":139.741804,"zip":"1060041"},{"town":"麻布狸穴町","koaza":"","lat":35.658991,"lng":139.739569,"zip":"1060042"},{"town":"麻布台一丁目","koaza":"","lat":35.661402,"lng":139.740223,"zip":"1060041"},{"town":"六本木五丁目","koaza":"","lat":35.660125,"lng":139.73479,"zip":"1060032"},{"town":"六本木一丁目","koaza":"","lat":35.665061,"lng":139.740792,"zip":"1060032"},{"town":"六本木二丁目","koaza":"","lat":35.667062,"lng":139.737154,"zip":"1060032"},{"town":"六本木三丁目","koaza":"","lat":35.664291,"lng":139.736423,"zip":"1060032"},{"town":"元麻布二丁目","koaza":"","lat":35.653847,"lng":139.728961,"zip":"1060046"},{"town":"南麻布二丁目","koaza":"","lat":35.648408,"lng":139.735246,"zip":"1060047"},{"town":"西麻布四丁目","koaza":"","lat":35.657685,"lng":139.721105,"zip":"1060031"},{"town":"白金一丁目","koaza":"","lat":35.64508,"lng":139.733413,"zip":"1080072"},{"town":"南麻布三丁目","koaza":"","lat":35.649553,"lng":139.730211,"zip":"1060047"},{"town":"麻布十番二丁目","koaza":"","lat":35.655129,"lng":139.735594,"zip":"1060045"},{"town":"麻布十番四丁目","koaza":"","lat":35.654007,"lng":139.737236,"zip":"1060045"},{"town":"西麻布三丁目","koaza":"","lat":35.657912,"lng":139.725535,"zip":"1060031"},{"town":"元麻布三丁目","koaza":"","lat":35.656839,"lng":139.729908,"zip":"1060046"},{"town":"南麻布五丁目","koaza":"","lat":35.653403,"lng":139.72453,"zip":"1060047"},{"town":"南麻布四丁目","koaza":"","lat":35.648895,"lng":139.725718,"zip":"1060047"},{"town":"六本木六丁目","koaza":"","lat":35.660329,"lng":139.730276,"zip":"1060032"},{"town":"西麻布一丁目","koaza":"","lat":35.661226,"lng":139.725358,"zip":"1060031"},{"town":"六本木四丁目","koaza":"","lat":35.665258,"lng":139.734204,"zip":"1060032"},{"town":"赤坂九丁目","koaza":"","lat":35.666781,"lng":139.730545,"zip":"1070052"},{"town":"六本木七丁目","koaza":"","lat":35.664226,"lng":139.727698,"zip":"1060032"},{"town":"南青山五丁目","koaza":"","lat":35.662407,"lng":139.713257,"zip":"1070062"},{"town":"西麻布二丁目","koaza":"","lat":35.661899,"lng":139.720294,"zip":"1060031"},{"town":"南青山七丁目","koaza":"","lat":35.657935,"lng":139.716144,"zip":"1070062"},{"town":"北青山三丁目","koaza":"","lat":35.66618,"lng":139.712093,"zip":"1070061"},{"town":"南青山三丁目","koaza":"","lat":35.666489,"lng":139.715334,"zip":"1070062"},{"town":"南青山六丁目","koaza":"","lat":35.660852,"lng":139.716026,"zip":"1070062"},{"town":"南青山四丁目","koaza":"","lat":35.664851,"lng":139.718008,"zip":"1070062"},{"town":"北青山一丁目","koaza":"","lat":35.675375,"lng":139.720943,"zip":"1070061"},{"town":"赤坂五丁目","koaza":"","lat":35.672213,"lng":139.734274,"zip":"1070052"},{"town":"赤坂三丁目","koaza":"","lat":35.675639,"lng":139.737141,"zip":"1070052"},{"town":"元赤坂一丁目","koaza":"","lat":35.677407,"lng":139.733863,"zip":"1070051"},{"town":"赤坂四丁目","koaza":"","lat":35.674826,"lng":139.733574,"zip":"1070052"},{"town":"元赤坂二丁目","koaza":"","lat":35.676738,"lng":139.726932,"zip":"1070051"},{"town":"芝浦三丁目","koaza":"","lat":35.643973,"lng":139.747836,"zip":"1050023"},{"town":"芝浦一丁目","koaza":"","lat":35.648744,"lng":139.755448,"zip":"1050023"}]