[{"town":"東和泉三丁目","koaza":"","lat":35.626625,"lng":139.574252,"zip":"2010014"},{"town":"岩戸南四丁目","koaza":"","lat":35.625973,"lng":139.590772,"zip":"2010005"},{"town":"駒井町二丁目","koaza":"","lat":35.625403,"lng":139.588119,"zip":"2010016"},{"town":"駒井町一丁目","koaza":"","lat":35.625464,"lng":139.585294,"zip":"2010016"},{"town":"駒井町三丁目","koaza":"","lat":35.621322,"lng":139.586591,"zip":"2010016"},{"town":"岩戸南二丁目","koaza":"","lat":35.630425,"lng":139.587231,"zip":"2010005"},{"town":"猪方三丁目","koaza":"","lat":35.626122,"lng":139.577757,"zip":"2010015"},{"town":"猪方四丁目","koaza":"","lat":35.623469,"lng":139.577235,"zip":"2010015"},{"town":"東和泉一丁目","koaza":"","lat":35.63154,"lng":139.579451,"zip":"2010014"},{"town":"岩戸南三丁目","koaza":"","lat":35.629845,"lng":139.590956,"zip":"2010005"},{"town":"東和泉二丁目","koaza":"","lat":35.629987,"lng":139.580037,"zip":"2010014"},{"town":"岩戸南一丁目","koaza":"","lat":35.630734,"lng":139.583864,"zip":"2010005"},{"town":"岩戸北三丁目","koaza":"","lat":35.633903,"lng":139.583282,"zip":"2010004"},{"town":"岩戸北四丁目","koaza":"","lat":35.63459,"lng":139.587318,"zip":"2010004"},{"town":"和泉本町二丁目","koaza":"","lat":35.641279,"lng":139.578457,"zip":"2010003"},{"town":"猪方二丁目","koaza":"","lat":35.625998,"lng":139.58238,"zip":"2010015"},{"town":"猪方一丁目","koaza":"","lat":35.628491,"lng":139.581765,"zip":"2010015"},{"town":"中和泉一丁目","koaza":"","lat":35.635404,"lng":139.575222,"zip":"2010012"},{"town":"東和泉四丁目","koaza":"","lat":35.626277,"lng":139.571682,"zip":"2010014"},{"town":"元和泉一丁目","koaza":"","lat":35.631305,"lng":139.574846,"zip":"2010013"},{"town":"中和泉四丁目","koaza":"","lat":35.636386,"lng":139.565899,"zip":"2010012"},{"town":"岩戸北一丁目","koaza":"","lat":35.636555,"lng":139.581908,"zip":"2010004"},{"town":"東野川一丁目","koaza":"","lat":35.641907,"lng":139.582346,"zip":"2010002"},{"town":"岩戸北二丁目","koaza":"","lat":35.637904,"lng":139.583691,"zip":"2010004"},{"town":"中和泉三丁目","koaza":"","lat":35.635612,"lng":139.570293,"zip":"2010012"},{"town":"中和泉二丁目","koaza":"","lat":35.638219,"lng":139.571158,"zip":"2010012"},{"town":"東野川四丁目","koaza":"","lat":35.64382,"lng":139.585193,"zip":"2010002"},{"town":"和泉本町一丁目","koaza":"","lat":35.637363,"lng":139.577442,"zip":"2010003"},{"town":"東野川三丁目","koaza":"","lat":35.646447,"lng":139.581371,"zip":"2010002"},{"town":"和泉本町三丁目","koaza":"","lat":35.640935,"lng":139.573463,"zip":"2010003"},{"town":"西野川三丁目","koaza":"","lat":35.645023,"lng":139.570931,"zip":"2010001"},{"town":"西野川一丁目","koaza":"","lat":35.647235,"lng":139.576908,"zip":"2010001"},{"town":"東野川二丁目","koaza":"","lat":35.644491,"lng":139.578929,"zip":"2010002"},{"town":"元和泉二丁目","koaza":"","lat":35.632286,"lng":139.569784,"zip":"2010013"},{"town":"西和泉二丁目","koaza":"","lat":35.636873,"lng":139.563945,"zip":"2010011"},{"town":"西和泉一丁目","koaza":"","lat":35.639977,"lng":139.564302,"zip":"2010011"},{"town":"和泉本町四丁目","koaza":"","lat":35.644011,"lng":139.568405,"zip":"2010003"},{"town":"中和泉五丁目","koaza":"","lat":35.641508,"lng":139.566248,"zip":"2010012"},{"town":"元和泉三丁目","koaza":"","lat":35.630411,"lng":139.567674,"zip":"2010013"},{"town":"西野川四丁目","koaza":"","lat":35.648323,"lng":139.572016,"zip":"2010001"},{"town":"西野川二丁目","koaza":"","lat":35.647138,"lng":139.57438,"zip":"2010001"}]