[{"town":"成瀬八丁目","koaza":"","lat":35.542217,"lng":139.467602,"zip":"1940044"},{"town":"成瀬七丁目","koaza":"","lat":35.541468,"lng":139.475185,"zip":"1940044"},{"town":"成瀬六丁目","koaza":"","lat":35.537245,"lng":139.481393,"zip":"1940044"},{"town":"成瀬五丁目","koaza":"","lat":35.539084,"lng":139.481393,"zip":"1940044"},{"town":"成瀬四丁目","koaza":"","lat":35.543112,"lng":139.478976,"zip":"1940044"},{"town":"西成瀬三丁目","koaza":"","lat":35.550798,"lng":139.468935,"zip":"1940046"},{"town":"西成瀬二丁目","koaza":"","lat":35.546031,"lng":139.471352,"zip":"1940046"},{"town":"西成瀬一丁目","koaza":"","lat":35.545388,"lng":139.467181,"zip":"1940046"},{"town":"高ヶ坂七丁目","koaza":"","lat":35.538413,"lng":139.461101,"zip":"1940014"},{"town":"高ヶ坂六丁目","koaza":"","lat":35.541341,"lng":139.462726,"zip":"1940014"},{"town":"高ヶ坂五丁目","koaza":"","lat":35.543487,"lng":139.461518,"zip":"1940014"},{"town":"高ヶ坂四丁目","koaza":"","lat":35.54696,"lng":139.464684,"zip":"1940014"},{"town":"高ヶ坂三丁目","koaza":"","lat":35.546517,"lng":139.460143,"zip":"1940014"},{"town":"高ヶ坂二丁目","koaza":"","lat":35.542772,"lng":139.457434,"zip":"1940014"},{"town":"高ヶ坂一丁目","koaza":"","lat":35.546997,"lng":139.454584,"zip":"1940014"},{"town":"原町田二丁目","koaza":"","lat":35.539387,"lng":139.453094,"zip":"1940013"},{"town":"成瀬一丁目","koaza":"","lat":35.546667,"lng":139.474462,"zip":"1940044"},{"town":"南大谷","koaza":"","lat":35.552943,"lng":139.459474,"zip":"1940031"},{"town":"森野六丁目","koaza":"","lat":35.552002,"lng":139.43072,"zip":"1940022"},{"town":"矢部町","koaza":"","lat":35.57939,"lng":139.403899,"zip":"1940214"},{"town":"図師町","koaza":"","lat":35.587612,"lng":139.422778,"zip":"1940203"},{"town":"忠生二丁目","koaza":"","lat":35.576861,"lng":139.424458,"zip":"1940035"},{"town":"金森東三丁目","koaza":"","lat":35.531263,"lng":139.465354,"zip":"1940015"},{"town":"金森東二丁目","koaza":"","lat":35.533223,"lng":139.462876,"zip":"1940015"},{"town":"金森東一丁目","koaza":"","lat":35.535881,"lng":139.460884,"zip":"1940015"},{"town":"金森七丁目","koaza":"","lat":35.530877,"lng":139.455985,"zip":"1940012"},{"town":"金森六丁目","koaza":"","lat":35.523635,"lng":139.458463,"zip":"1940012"},{"town":"金森三丁目","koaza":"","lat":35.527289,"lng":139.461511,"zip":"1940012"},{"town":"金森二丁目","koaza":"","lat":35.532836,"lng":139.458626,"zip":"1940012"},{"town":"小川二丁目","koaza":"","lat":35.530206,"lng":139.472463,"zip":"1940003"},{"town":"成瀬が丘三丁目","koaza":"","lat":35.535083,"lng":139.467947,"zip":"1940011"},{"town":"金森一丁目","koaza":"","lat":35.535848,"lng":139.451678,"zip":"1940012"},{"town":"木曽西三丁目","koaza":"","lat":35.571267,"lng":139.418005,"zip":"1940037"},{"town":"木曽西二丁目","koaza":"","lat":35.569133,"lng":139.414225,"zip":"1940037"},{"town":"根岸二丁目","koaza":"","lat":35.574945,"lng":139.413538,"zip":"1940038"},{"town":"根岸一丁目","koaza":"","lat":35.573204,"lng":139.411476,"zip":"1940038"},{"town":"常盤町","koaza":"","lat":35.58658,"lng":139.397736,"zip":"1940213"},{"town":"忠生三丁目","koaza":"","lat":35.57746,"lng":139.416817,"zip":"1940035"},{"town":"木曽町","koaza":"","lat":35.561334,"lng":139.429777,"zip":"1940033"},{"town":"忠生一丁目","koaza":"","lat":35.574315,"lng":139.421864,"zip":"1940035"},{"town":"根岸町","koaza":"","lat":35.577481,"lng":139.407883,"zip":"1940034"},{"town":"木曽西一丁目","koaza":"","lat":35.565213,"lng":139.41731,"zip":"1940037"},{"town":"三輪町","koaza":"","lat":35.573175,"lng":139.500198,"zip":"1950054"},{"town":"大蔵町","koaza":"","lat":35.589,"lng":139.464543,"zip":"1950062"},{"town":"下小山田町","koaza":"","lat":35.597074,"lng":139.414532,"zip":"1940202"},{"town":"小山田桜台一丁目","koaza":"","lat":35.589562,"lng":139.404497,"zip":"1940204"},{"town":"野津田町","koaza":"","lat":35.585111,"lng":139.445333,"zip":"1950063"},{"town":"鶴川二丁目","koaza":"","lat":35.588185,"lng":139.473485,"zip":"1950061"},{"town":"小山ヶ丘三丁目","koaza":"","lat":35.601541,"lng":139.373482,"zip":"1940215"},{"town":"小山ヶ丘二丁目","koaza":"","lat":35.602936,"lng":139.37338,"zip":"1940215"},{"town":"山崎一丁目","koaza":"","lat":35.569417,"lng":139.428595,"zip":"1950075"},{"town":"木曽東四丁目","koaza":"","lat":35.564817,"lng":139.429661,"zip":"1940036"},{"town":"木曽東三丁目","koaza":"","lat":35.562507,"lng":139.424539,"zip":"1940036"},{"town":"木曽西四丁目","koaza":"","lat":35.567231,"lng":139.420816,"zip":"1940037"},{"town":"木曽西五丁目","koaza":"","lat":35.569657,"lng":139.424777,"zip":"1940037"},{"town":"金井七丁目","koaza":"","lat":35.573551,"lng":139.463901,"zip":"1950072"},{"town":"金井八丁目","koaza":"","lat":35.577226,"lng":139.468397,"zip":"1950072"},{"town":"金井六丁目","koaza":"","lat":35.578003,"lng":139.465493,"zip":"1950072"},{"town":"金井五丁目","koaza":"","lat":35.577945,"lng":139.461548,"zip":"1950072"},{"town":"金井二丁目","koaza":"","lat":35.574276,"lng":139.457951,"zip":"1950072"},{"town":"三輪緑山四丁目","koaza":"","lat":35.576817,"lng":139.490569,"zip":"1950055"},{"town":"三輪緑山三丁目","koaza":"","lat":35.574458,"lng":139.486834,"zip":"1950055"},{"town":"三輪緑山一丁目","koaza":"","lat":35.57199,"lng":139.491032,"zip":"1950055"},{"town":"金井一丁目","koaza":"","lat":35.574473,"lng":139.452917,"zip":"1950072"},{"town":"薬師台三丁目","koaza":"","lat":35.5818,"lng":139.45476,"zip":"1950073"},{"town":"金井四丁目","koaza":"","lat":35.581624,"lng":139.465348,"zip":"1950072"},{"town":"成瀬が丘二丁目","koaza":"","lat":35.534478,"lng":139.472009,"zip":"1940011"},{"town":"鶴間二丁目","koaza":"","lat":35.508493,"lng":139.467527,"zip":"1940004"},{"town":"つくし野三丁目","koaza":"","lat":35.521085,"lng":139.481124,"zip":"1940001"},{"town":"つくし野四丁目","koaza":"","lat":35.525049,"lng":139.485922,"zip":"1940001"},{"town":"つくし野二丁目","koaza":"","lat":35.524274,"lng":139.481173,"zip":"1940001"},{"town":"つくし野一丁目","koaza":"","lat":35.529349,"lng":139.482146,"zip":"1940001"},{"town":"小川一丁目","koaza":"","lat":35.528811,"lng":139.476489,"zip":"1940003"},{"town":"成瀬が丘一丁目","koaza":"","lat":35.532466,"lng":139.474566,"zip":"1940011"},{"town":"南成瀬六丁目","koaza":"","lat":35.533285,"lng":139.477977,"zip":"1940045"},{"town":"南成瀬七丁目","koaza":"","lat":35.533801,"lng":139.481427,"zip":"1940045"},{"town":"成瀬三丁目","koaza":"","lat":35.547608,"lng":139.480826,"zip":"1940044"},{"town":"南成瀬五丁目","koaza":"","lat":35.535657,"lng":139.477365,"zip":"1940045"},{"town":"南成瀬四丁目","koaza":"","lat":35.538655,"lng":139.475959,"zip":"1940045"},{"town":"南成瀬八丁目","koaza":"","lat":35.533588,"lng":139.484427,"zip":"1940045"},{"town":"南成瀬三丁目","koaza":"","lat":35.540743,"lng":139.471875,"zip":"1940045"},{"town":"原町田三丁目","koaza":"","lat":35.541565,"lng":139.452709,"zip":"1940013"},{"town":"原町田一丁目","koaza":"","lat":35.539174,"lng":139.449007,"zip":"1940013"},{"town":"原町田六丁目","koaza":"","lat":35.544021,"lng":139.447457,"zip":"1940013"},{"town":"南成瀬二丁目","koaza":"","lat":35.539662,"lng":139.467147,"zip":"1940045"},{"town":"南成瀬一丁目","koaza":"","lat":35.537155,"lng":139.471306,"zip":"1940045"},{"town":"成瀬二丁目","koaza":"","lat":35.5466,"lng":139.477292,"zip":"1940044"},{"town":"成瀬台二丁目","koaza":"","lat":35.551982,"lng":139.478973,"zip":"1940043"},{"town":"成瀬台三丁目","koaza":"","lat":35.555708,"lng":139.47803,"zip":"1940043"},{"town":"東玉川学園二丁目","koaza":"","lat":35.555097,"lng":139.472716,"zip":"1940042"},{"town":"成瀬台一丁目","koaza":"","lat":35.551765,"lng":139.474156,"zip":"1940043"},{"town":"東玉川学園三丁目","koaza":"","lat":35.553962,"lng":139.469971,"zip":"1940042"},{"town":"成瀬台四丁目","koaza":"","lat":35.559892,"lng":139.476887,"zip":"1940043"},{"town":"東玉川学園一丁目","koaza":"","lat":35.558501,"lng":139.471739,"zip":"1940042"},{"town":"東玉川学園四丁目","koaza":"","lat":35.557714,"lng":139.467822,"zip":"1940042"},{"town":"玉川学園八丁目","koaza":"","lat":35.557892,"lng":139.463837,"zip":"1940041"},{"town":"中町三丁目","koaza":"","lat":35.550827,"lng":139.449682,"zip":"1940021"},{"town":"森野一丁目","koaza":"","lat":35.545071,"lng":139.442744,"zip":"1940022"},{"town":"中町一丁目","koaza":"","lat":35.548268,"lng":139.446242,"zip":"1940021"},{"town":"原町田五丁目","koaza":"","lat":35.546276,"lng":139.450603,"zip":"1940013"},{"town":"原町田四丁目","koaza":"","lat":35.543541,"lng":139.45251,"zip":"1940013"},{"town":"玉川学園二丁目","koaza":"","lat":35.562555,"lng":139.461159,"zip":"1940041"},{"town":"中町二丁目","koaza":"","lat":35.551819,"lng":139.443142,"zip":"1940021"},{"town":"旭町一丁目","koaza":"","lat":35.554672,"lng":139.440247,"zip":"1940023"},{"town":"森野二丁目","koaza":"","lat":35.548247,"lng":139.440264,"zip":"1940022"},{"town":"森野三丁目","koaza":"","lat":35.552803,"lng":139.436791,"zip":"1940022"},{"town":"中町四丁目","koaza":"","lat":35.554622,"lng":139.447059,"zip":"1940021"},{"town":"森野五丁目","koaza":"","lat":35.549288,"lng":139.434905,"zip":"1940022"},{"town":"旭町三丁目","koaza":"","lat":35.55716,"lng":139.444053,"zip":"1940023"},{"town":"木曽東二丁目","koaza":"","lat":35.558604,"lng":139.423989,"zip":"1940036"},{"town":"木曽東一丁目","koaza":"","lat":35.557976,"lng":139.429059,"zip":"1940036"},{"town":"旭町二丁目","koaza":"","lat":35.556957,"lng":139.436739,"zip":"1940023"},{"town":"森野四丁目","koaza":"","lat":35.554528,"lng":139.43203,"zip":"1940022"},{"town":"玉川学園三丁目","koaza":"","lat":35.562199,"lng":139.455938,"zip":"1940041"},{"town":"三輪緑山二丁目","koaza":"","lat":35.569942,"lng":139.486572,"zip":"1950055"},{"town":"玉川学園七丁目","koaza":"","lat":35.562837,"lng":139.465933,"zip":"1940041"},{"town":"薬師台二丁目","koaza":"","lat":35.579637,"lng":139.453009,"zip":"1950073"},{"town":"玉川学園四丁目","koaza":"","lat":35.565649,"lng":139.456937,"zip":"1940041"},{"town":"玉川学園六丁目","koaza":"","lat":35.568922,"lng":139.466451,"zip":"1940041"},{"town":"薬師台一丁目","koaza":"","lat":35.57798,"lng":139.452851,"zip":"1950073"},{"town":"金井三丁目","koaza":"","lat":35.579942,"lng":139.459956,"zip":"1950072"},{"town":"玉川学園五丁目","koaza":"","lat":35.567887,"lng":139.459449,"zip":"1940041"},{"town":"金井町","koaza":"","lat":35.571801,"lng":139.461963,"zip":"1950071"},{"town":"本町田","koaza":"","lat":35.565707,"lng":139.443165,"zip":"1940032"},{"town":"玉川学園一丁目","koaza":"","lat":35.55819,"lng":139.459247,"zip":"1940041"},{"town":"山崎町","koaza":"","lat":35.576189,"lng":139.435444,"zip":"1950074"},{"town":"忠生四丁目","koaza":"","lat":35.581486,"lng":139.408907,"zip":"1940035"},{"town":"広袴四丁目","koaza":"","lat":35.597403,"lng":139.476642,"zip":"1950056"},{"town":"真光寺一丁目","koaza":"","lat":35.603851,"lng":139.465373,"zip":"1950057"},{"town":"広袴一丁目","koaza":"","lat":35.59479,"lng":139.46539,"zip":"1950056"},{"town":"広袴町","koaza":"","lat":35.594521,"lng":139.476757,"zip":"1950052"},{"town":"小山ヶ丘一丁目","koaza":"","lat":35.597061,"lng":139.38482,"zip":"1940215"},{"town":"広袴三丁目","koaza":"","lat":35.598007,"lng":139.473214,"zip":"1950056"},{"town":"広袴二丁目","koaza":"","lat":35.596272,"lng":139.469726,"zip":"1950056"},{"town":"真光寺三丁目","koaza":"","lat":35.598469,"lng":139.467239,"zip":"1950057"},{"town":"真光寺二丁目","koaza":"","lat":35.604044,"lng":139.468495,"zip":"1950057"},{"town":"鶴川四丁目","koaza":"","lat":35.594918,"lng":139.460924,"zip":"1950061"},{"town":"鶴川五丁目","koaza":"","lat":35.592872,"lng":139.468027,"zip":"1950061"},{"town":"鶴川六丁目","koaza":"","lat":35.591305,"lng":139.473141,"zip":"1950061"},{"town":"真光寺町","koaza":"","lat":35.602663,"lng":139.458156,"zip":"1950051"},{"town":"小野路町","koaza":"","lat":35.602138,"lng":139.43965,"zip":"1950064"},{"town":"鶴川三丁目","koaza":"","lat":35.591614,"lng":139.463607,"zip":"1950061"},{"town":"小山田桜台二丁目","koaza":"","lat":35.590851,"lng":139.401146,"zip":"1940204"},{"town":"上小山田町","koaza":"","lat":35.600225,"lng":139.396855,"zip":"1940201"},{"town":"小山ヶ丘五丁目","koaza":"","lat":35.604075,"lng":139.358457,"zip":"1940215"},{"town":"小山ヶ丘六丁目","koaza":"","lat":35.608342,"lng":139.347321,"zip":"1940215"},{"town":"小山ヶ丘四丁目","koaza":"","lat":35.60592,"lng":139.365703,"zip":"1940215"},{"town":"相原町","koaza":"","lat":35.612931,"lng":139.300727,"zip":"1940211"},{"town":"能ヶ谷七丁目","koaza":"","lat":35.592385,"lng":139.48067,"zip":"1950053"},{"town":"能ヶ谷一丁目","koaza":"","lat":35.582765,"lng":139.480775,"zip":"1950053"},{"town":"能ヶ谷二丁目","koaza":"","lat":35.585199,"lng":139.479817,"zip":"1950053"},{"town":"鶴川一丁目","koaza":"","lat":35.587194,"lng":139.477163,"zip":"1950061"},{"town":"能ヶ谷六丁目","koaza":"","lat":35.589483,"lng":139.484458,"zip":"1950053"},{"town":"能ヶ谷三丁目","koaza":"","lat":35.58489,"lng":139.489774,"zip":"1950053"},{"town":"能ヶ谷四丁目","koaza":"","lat":35.586518,"lng":139.485645,"zip":"1950053"},{"town":"能ヶ谷五丁目","koaza":"","lat":35.58777,"lng":139.490851,"zip":"1950053"},{"town":"鶴間四丁目","koaza":"","lat":35.504872,"lng":139.469588,"zip":"1940004"},{"town":"鶴間五丁目","koaza":"","lat":35.505985,"lng":139.473087,"zip":"1940004"},{"town":"南町田七丁目","koaza":"","lat":35.505548,"lng":139.478735,"zip":"1940005"},{"town":"南町田六丁目","koaza":"","lat":35.503559,"lng":139.475076,"zip":"1940005"},{"town":"小山町","koaza":"","lat":35.595652,"lng":139.377046,"zip":"1940212"},{"town":"小川四丁目","koaza":"","lat":35.525021,"lng":139.473373,"zip":"1940003"},{"town":"南つくし野四丁目","koaza":"","lat":35.522281,"lng":139.476982,"zip":"1940002"},{"town":"南つくし野三丁目","koaza":"","lat":35.518124,"lng":139.479661,"zip":"1940002"},{"town":"南つくし野二丁目","koaza":"","lat":35.515706,"lng":139.478007,"zip":"1940002"},{"town":"南つくし野一丁目","koaza":"","lat":35.520917,"lng":139.474801,"zip":"1940002"},{"town":"小川六丁目","koaza":"","lat":35.519268,"lng":139.473205,"zip":"1940003"},{"town":"鶴間一丁目","koaza":"","lat":35.512283,"lng":139.467773,"zip":"1940004"},{"town":"南町田四丁目","koaza":"","lat":35.514418,"lng":139.467386,"zip":"1940005"},{"town":"南町田三丁目","koaza":"","lat":35.517074,"lng":139.468818,"zip":"1940005"},{"town":"南町田二丁目","koaza":"","lat":35.519636,"lng":139.469486,"zip":"1940005"},{"town":"南町田五丁目","koaza":"","lat":35.513564,"lng":139.472343,"zip":"1940005"},{"town":"小川七丁目","koaza":"","lat":35.51552,"lng":139.4746,"zip":"1940003"},{"town":"鶴間三丁目","koaza":"","lat":35.509139,"lng":139.470781,"zip":"1940004"},{"town":"鶴間八丁目","koaza":"","lat":35.510758,"lng":139.475752,"zip":"1940004"},{"town":"小川五丁目","koaza":"","lat":35.524013,"lng":139.469662,"zip":"1940003"},{"town":"金森東四丁目","koaza":"","lat":35.528208,"lng":139.467427,"zip":"1940015"},{"town":"小川三丁目","koaza":"","lat":35.526662,"lng":139.470736,"zip":"1940003"},{"town":"金森四丁目","koaza":"","lat":35.5242,"lng":139.464437,"zip":"1940012"},{"town":"南町田一丁目","koaza":"","lat":35.520927,"lng":139.465207,"zip":"1940005"},{"town":"金森五丁目","koaza":"","lat":35.520845,"lng":139.46082,"zip":"1940012"},{"town":"鶴間六丁目","koaza":"","lat":35.503722,"lng":139.475444,"zip":"1940004"},{"town":"鶴間七丁目","koaza":"","lat":35.504993,"lng":139.480391,"zip":"1940004"}]