[{"town":"青葉台三丁目","koaza":"","lat":35.651328,"lng":139.691599,"zip":"1530042"},{"town":"緑が丘三丁目","koaza":"","lat":35.603956,"lng":139.679963,"zip":"1520034"},{"town":"目黒本町一丁目","koaza":"","lat":35.62674,"lng":139.69588,"zip":"1520002"},{"town":"下目黒二丁目","koaza":"","lat":35.631037,"lng":139.711269,"zip":"1530064"},{"town":"原町一丁目","koaza":"","lat":35.616487,"lng":139.696124,"zip":"1520011"},{"town":"洗足一丁目","koaza":"","lat":35.614511,"lng":139.694861,"zip":"1520012"},{"town":"下目黒四丁目","koaza":"","lat":35.629413,"lng":139.706178,"zip":"1530064"},{"town":"目黒本町三丁目","koaza":"","lat":35.622478,"lng":139.700998,"zip":"1520002"},{"town":"下目黒三丁目","koaza":"","lat":35.62935,"lng":139.709067,"zip":"1530064"},{"town":"下目黒六丁目","koaza":"","lat":35.628061,"lng":139.698687,"zip":"1530064"},{"town":"下目黒一丁目","koaza":"","lat":35.63197,"lng":139.713393,"zip":"1530064"},{"town":"中町一丁目","koaza":"","lat":35.631231,"lng":139.697342,"zip":"1530065"},{"town":"南一丁目","koaza":"","lat":35.614501,"lng":139.689037,"zip":"1520013"},{"town":"原町二丁目","koaza":"","lat":35.615536,"lng":139.691538,"zip":"1520011"},{"town":"洗足二丁目","koaza":"","lat":35.610703,"lng":139.693728,"zip":"1520012"},{"town":"南二丁目","koaza":"","lat":35.61552,"lng":139.686005,"zip":"1520013"},{"town":"南三丁目","koaza":"","lat":35.612845,"lng":139.685997,"zip":"1520013"},{"town":"碑文谷三丁目","koaza":"","lat":35.617849,"lng":139.685434,"zip":"1520003"},{"town":"碑文谷四丁目","koaza":"","lat":35.620316,"lng":139.683401,"zip":"1520003"},{"town":"碑文谷二丁目","koaza":"","lat":35.62275,"lng":139.687168,"zip":"1520003"},{"town":"碑文谷一丁目","koaza":"","lat":35.620583,"lng":139.690092,"zip":"1520003"},{"town":"大岡山一丁目","koaza":"","lat":35.611092,"lng":139.681938,"zip":"1520033"},{"town":"碑文谷五丁目","koaza":"","lat":35.623044,"lng":139.682069,"zip":"1520003"},{"town":"中根二丁目","koaza":"","lat":35.614551,"lng":139.675877,"zip":"1520031"},{"town":"平町二丁目","koaza":"","lat":35.615008,"lng":139.680839,"zip":"1520032"},{"town":"大岡山二丁目","koaza":"","lat":35.606735,"lng":139.682526,"zip":"1520033"},{"town":"緑が丘二丁目","koaza":"","lat":35.610261,"lng":139.673653,"zip":"1520034"},{"town":"緑が丘一丁目","koaza":"","lat":35.609318,"lng":139.677707,"zip":"1520034"},{"town":"柿の木坂一丁目","koaza":"","lat":35.621011,"lng":139.677173,"zip":"1520022"},{"town":"鷹番二丁目","koaza":"","lat":35.628924,"lng":139.687875,"zip":"1520004"},{"town":"碑文谷六丁目","koaza":"","lat":35.626831,"lng":139.682714,"zip":"1520003"},{"town":"平町一丁目","koaza":"","lat":35.61802,"lng":139.679272,"zip":"1520032"},{"town":"柿の木坂二丁目","koaza":"","lat":35.624884,"lng":139.675597,"zip":"1520022"},{"town":"八雲四丁目","koaza":"","lat":35.623987,"lng":139.671223,"zip":"1520023"},{"town":"八雲一丁目","koaza":"","lat":35.619449,"lng":139.67294,"zip":"1520023"},{"town":"八雲二丁目","koaza":"","lat":35.618287,"lng":139.670026,"zip":"1520023"},{"town":"自由が丘二丁目","koaza":"","lat":35.610267,"lng":139.667041,"zip":"1520035"},{"town":"柿の木坂三丁目","koaza":"","lat":35.627969,"lng":139.673454,"zip":"1520022"},{"town":"自由が丘一丁目","koaza":"","lat":35.610138,"lng":139.66995,"zip":"1520035"},{"town":"中根一丁目","koaza":"","lat":35.616015,"lng":139.673269,"zip":"1520031"},{"town":"自由が丘三丁目","koaza":"","lat":35.610635,"lng":139.664463,"zip":"1520035"},{"town":"八雲三丁目","koaza":"","lat":35.617153,"lng":139.666667,"zip":"1520023"},{"town":"東が丘一丁目","koaza":"","lat":35.62866,"lng":139.669127,"zip":"1520021"},{"town":"八雲五丁目","koaza":"","lat":35.622805,"lng":139.667338,"zip":"1520023"},{"town":"目黒本町二丁目","koaza":"","lat":35.624841,"lng":139.692463,"zip":"1520002"},{"town":"目黒一丁目","koaza":"","lat":35.636092,"lng":139.710938,"zip":"1530063"},{"town":"目黒二丁目","koaza":"","lat":35.635434,"lng":139.70777,"zip":"1530063"},{"town":"三田二丁目","koaza":"","lat":35.639391,"lng":139.710155,"zip":"1530062"},{"town":"下目黒五丁目","koaza":"","lat":35.627957,"lng":139.703237,"zip":"1530064"},{"town":"目黒四丁目","koaza":"","lat":35.632853,"lng":139.701517,"zip":"1530063"},{"town":"三田一丁目","koaza":"","lat":35.640391,"lng":139.71378,"zip":"1530062"},{"town":"中央町一丁目","koaza":"","lat":35.628838,"lng":139.692733,"zip":"1520001"},{"town":"鷹番一丁目","koaza":"","lat":35.625719,"lng":139.687414,"zip":"1520004"},{"town":"祐天寺二丁目","koaza":"","lat":35.636776,"lng":139.692932,"zip":"1530052"},{"town":"中目黒三丁目","koaza":"","lat":35.639772,"lng":139.700745,"zip":"1530061"},{"town":"中目黒四丁目","koaza":"","lat":35.637258,"lng":139.702698,"zip":"1530061"},{"town":"中目黒二丁目","koaza":"","lat":35.640829,"lng":139.705866,"zip":"1530061"},{"town":"大橋一丁目","koaza":"","lat":35.651345,"lng":139.6878,"zip":"1530044"},{"town":"中目黒一丁目","koaza":"","lat":35.643726,"lng":139.702789,"zip":"1530061"},{"town":"目黒三丁目","koaza":"","lat":35.633804,"lng":139.705352,"zip":"1530063"},{"town":"中目黒五丁目","koaza":"","lat":35.635895,"lng":139.697989,"zip":"1530061"},{"town":"五本木一丁目","koaza":"","lat":35.638109,"lng":139.688822,"zip":"1530053"},{"town":"中町二丁目","koaza":"","lat":35.633256,"lng":139.694075,"zip":"1530065"},{"town":"上目黒二丁目","koaza":"","lat":35.641189,"lng":139.696903,"zip":"1530051"},{"town":"上目黒三丁目","koaza":"","lat":35.644145,"lng":139.694942,"zip":"1530051"},{"town":"祐天寺一丁目","koaza":"","lat":35.638997,"lng":139.694087,"zip":"1530052"},{"town":"上目黒四丁目","koaza":"","lat":35.640842,"lng":139.690658,"zip":"1530051"},{"town":"中央町二丁目","koaza":"","lat":35.631626,"lng":139.689354,"zip":"1520001"},{"town":"五本木二丁目","koaza":"","lat":35.634356,"lng":139.687424,"zip":"1530053"},{"town":"五本木三丁目","koaza":"","lat":35.631408,"lng":139.683711,"zip":"1530053"},{"town":"鷹番三丁目","koaza":"","lat":35.629039,"lng":139.683529,"zip":"1520004"},{"town":"東山二丁目","koaza":"","lat":35.646397,"lng":139.687225,"zip":"1530043"},{"town":"上目黒五丁目","koaza":"","lat":35.642905,"lng":139.688076,"zip":"1530051"},{"town":"東が丘二丁目","koaza":"","lat":35.628086,"lng":139.664591,"zip":"1520021"},{"town":"青葉台一丁目","koaza":"","lat":35.648126,"lng":139.6969,"zip":"1530042"},{"town":"東山一丁目","koaza":"","lat":35.646509,"lng":139.692993,"zip":"1530043"},{"town":"青葉台二丁目","koaza":"","lat":35.650528,"lng":139.694645,"zip":"1530042"},{"town":"東山三丁目","koaza":"","lat":35.649055,"lng":139.686508,"zip":"1530043"},{"town":"目黒本町五丁目","koaza":"","lat":35.619277,"lng":139.699513,"zip":"1520002"},{"town":"目黒本町四丁目","koaza":"","lat":35.622811,"lng":139.695689,"zip":"1520002"},{"town":"目黒本町六丁目","koaza":"","lat":35.620172,"lng":139.695182,"zip":"1520002"},{"town":"駒場三丁目","koaza":"","lat":35.660103,"lng":139.684672,"zip":"1530041"},{"town":"大橋二丁目","koaza":"","lat":35.653326,"lng":139.686537,"zip":"1530044"},{"town":"駒場一丁目","koaza":"","lat":35.657033,"lng":139.686825,"zip":"1530041"},{"town":"青葉台四丁目","koaza":"","lat":35.654794,"lng":139.69112,"zip":"1530042"},{"town":"駒場二丁目","koaza":"","lat":35.657634,"lng":139.681135,"zip":"1530041"},{"town":"駒場四丁目","koaza":"","lat":35.661669,"lng":139.678889,"zip":"1530041"},{"town":"上目黒一丁目","koaza":"","lat":35.645033,"lng":139.699835,"zip":"1530051"}]