[{"town":"武蔵野台二丁目","koaza":"","lat":35.748842,"lng":139.329707,"zip":"1970013"},{"town":"加美平一丁目","koaza":"","lat":35.750044,"lng":139.326164,"zip":"1970012"},{"town":"加美平四丁目","koaza":"","lat":35.753332,"lng":139.324919,"zip":"1970012"},{"town":"南田園三丁目","koaza":"","lat":35.729867,"lng":139.328743,"zip":"1970004"},{"town":"志茂","koaza":"","lat":35.736677,"lng":139.330154,"zip":"1970023"},{"town":"大字熊川二宮","koaza":"","lat":35.733278,"lng":139.338984,"zip":"1970000"},{"town":"大字福生二宮","koaza":"","lat":35.735069,"lng":139.339759,"zip":"1970000"},{"town":"東町","koaza":"","lat":35.743817,"lng":139.327514,"zip":"1970021"},{"town":"南田園一丁目","koaza":"","lat":35.721288,"lng":139.330774,"zip":"1970004"},{"town":"南田園二丁目","koaza":"","lat":35.726257,"lng":139.330874,"zip":"1970004"},{"town":"牛浜","koaza":"","lat":35.734676,"lng":139.333521,"zip":"1970024"},{"town":"横田基地内","koaza":"","lat":35.73661,"lng":139.346526,"zip":"1970001"},{"town":"武蔵野台一丁目","koaza":"","lat":35.748623,"lng":139.332891,"zip":"1970013"},{"town":"本町","koaza":"","lat":35.739898,"lng":139.328326,"zip":"1970022"},{"town":"加美平二丁目","koaza":"","lat":35.749089,"lng":139.323956,"zip":"1970012"},{"town":"加美平三丁目","koaza":"","lat":35.747698,"lng":139.321881,"zip":"1970012"},{"town":"北田園一丁目","koaza":"","lat":35.732951,"lng":139.324709,"zip":"1970005"},{"town":"北田園二丁目","koaza":"","lat":35.736149,"lng":139.321438,"zip":"1970005"},{"town":"大字福生","koaza":"","lat":35.741079,"lng":139.321477,"zip":"1970000"},{"town":"大字熊川","koaza":"","lat":35.723492,"lng":139.343049,"zip":"1970000"}]