[{"town":"西砂町一丁目","koaza":"","lat":35.727354,"lng":139.36986,"zip":"1900034"},{"town":"一番町六丁目","koaza":"","lat":35.734397,"lng":139.375039,"zip":"1900033"},{"town":"西砂町六丁目","koaza":"","lat":35.732466,"lng":139.369131,"zip":"1900034"},{"town":"高松町二丁目","koaza":"","lat":35.705826,"lng":139.420836,"zip":"1900011"},{"town":"柴崎町五丁目","koaza":"","lat":35.688978,"lng":139.401311,"zip":"1900023"},{"town":"錦町六丁目","koaza":"","lat":35.68667,"lng":139.417545,"zip":"1900022"},{"town":"錦町二丁目","koaza":"","lat":35.693605,"lng":139.415406,"zip":"1900022"},{"town":"柴崎町六丁目","koaza":"","lat":35.687296,"lng":139.407931,"zip":"1900023"},{"town":"富士見町五丁目","koaza":"","lat":35.694797,"lng":139.401,"zip":"1900013"},{"town":"錦町三丁目","koaza":"","lat":35.692585,"lng":139.418446,"zip":"1900022"},{"town":"錦町四丁目","koaza":"","lat":35.69135,"lng":139.421259,"zip":"1900022"},{"town":"羽衣町三丁目","koaza":"","lat":35.68978,"lng":139.424786,"zip":"1900021"},{"town":"錦町一丁目","koaza":"","lat":35.695592,"lng":139.420093,"zip":"1900022"},{"town":"柴崎町三丁目","koaza":"","lat":35.694558,"lng":139.412302,"zip":"1900023"},{"town":"曙町二丁目","koaza":"","lat":35.700542,"lng":139.415657,"zip":"1900012"},{"town":"柴崎町二丁目","koaza":"","lat":35.694938,"lng":139.40869,"zip":"1900023"},{"town":"柴崎町一丁目","koaza":"","lat":35.694067,"lng":139.40459,"zip":"1900023"},{"town":"錦町五丁目","koaza":"","lat":35.687619,"lng":139.413092,"zip":"1900022"},{"town":"柴崎町四丁目","koaza":"","lat":35.690369,"lng":139.406224,"zip":"1900023"},{"town":"富士見町七丁目","koaza":"","lat":35.691665,"lng":139.398096,"zip":"1900013"},{"town":"富士見町六丁目","koaza":"","lat":35.69227,"lng":139.391489,"zip":"1900013"},{"town":"富士見町三丁目","koaza":"","lat":35.697389,"lng":139.392793,"zip":"1900013"},{"town":"富士見町四丁目","koaza":"","lat":35.696305,"lng":139.398293,"zip":"1900013"},{"town":"富士見町一丁目","koaza":"","lat":35.700787,"lng":139.396754,"zip":"1900013"},{"town":"泉町","koaza":"","lat":35.715894,"lng":139.404342,"zip":"1900015"},{"town":"羽衣町一丁目","koaza":"","lat":35.695772,"lng":139.424837,"zip":"1900021"},{"town":"羽衣町二丁目","koaza":"","lat":35.694115,"lng":139.427515,"zip":"1900021"},{"town":"栄町二丁目","koaza":"","lat":35.711271,"lng":139.429642,"zip":"1900003"},{"town":"高松町一丁目","koaza":"","lat":35.708478,"lng":139.417087,"zip":"1900011"},{"town":"栄町三丁目","koaza":"","lat":35.709421,"lng":139.425799,"zip":"1900003"},{"town":"栄町一丁目","koaza":"","lat":35.705792,"lng":139.429781,"zip":"1900003"},{"town":"曙町三丁目","koaza":"","lat":35.702905,"lng":139.424174,"zip":"1900012"},{"town":"栄町四丁目","koaza":"","lat":35.711684,"lng":139.424557,"zip":"1900003"},{"town":"栄町五丁目","koaza":"","lat":35.715814,"lng":139.42825,"zip":"1900003"},{"town":"高松町三丁目","koaza":"","lat":35.703226,"lng":139.416996,"zip":"1900011"},{"town":"若葉町二丁目","koaza":"","lat":35.715625,"lng":139.44323,"zip":"1900001"},{"town":"若葉町四丁目","koaza":"","lat":35.723833,"lng":139.436885,"zip":"1900001"},{"town":"栄町六丁目","koaza":"","lat":35.715859,"lng":139.422898,"zip":"1900003"},{"town":"幸町一丁目","koaza":"","lat":35.720257,"lng":139.420826,"zip":"1900002"},{"town":"幸町三丁目","koaza":"","lat":35.72023,"lng":139.430465,"zip":"1900002"},{"town":"若葉町一丁目","koaza":"","lat":35.718201,"lng":139.436346,"zip":"1900001"},{"town":"幸町二丁目","koaza":"","lat":35.720623,"lng":139.425676,"zip":"1900002"},{"town":"柏町一丁目","koaza":"","lat":35.719672,"lng":139.41381,"zip":"1900004"},{"town":"砂川町五丁目","koaza":"","lat":35.725257,"lng":139.407189,"zip":"1900031"},{"town":"緑町","koaza":"","lat":35.707447,"lng":139.40441,"zip":"1900014"},{"town":"上砂町一丁目","koaza":"","lat":35.719746,"lng":139.391744,"zip":"1900032"},{"town":"上砂町五丁目","koaza":"","lat":35.730959,"lng":139.391077,"zip":"1900032"},{"town":"富士見町二丁目","koaza":"","lat":35.699804,"lng":139.402692,"zip":"1900013"},{"town":"曙町一丁目","koaza":"","lat":35.69944,"lng":139.409026,"zip":"1900012"},{"town":"幸町四丁目","koaza":"","lat":35.725207,"lng":139.42965,"zip":"1900002"},{"town":"若葉町三丁目","koaza":"","lat":35.720505,"lng":139.441049,"zip":"1900001"},{"town":"幸町六丁目","koaza":"","lat":35.729601,"lng":139.422007,"zip":"1900002"},{"town":"幸町五丁目","koaza":"","lat":35.726485,"lng":139.422299,"zip":"1900002"},{"town":"柏町三丁目","koaza":"","lat":35.72418,"lng":139.41408,"zip":"1900004"},{"town":"柏町五丁目","koaza":"","lat":35.731973,"lng":139.413719,"zip":"1900004"},{"town":"柏町四丁目","koaza":"","lat":35.728415,"lng":139.414158,"zip":"1900004"},{"town":"砂川町四丁目","koaza":"","lat":35.726906,"lng":139.402478,"zip":"1900031"},{"town":"上砂町二丁目","koaza":"","lat":35.723342,"lng":139.393419,"zip":"1900032"},{"town":"砂川町六丁目","koaza":"","lat":35.728509,"lng":139.407592,"zip":"1900031"},{"town":"砂川町二丁目","koaza":"","lat":35.722839,"lng":139.398093,"zip":"1900031"},{"town":"砂川町一丁目","koaza":"","lat":35.72196,"lng":139.406158,"zip":"1900031"},{"town":"柏町二丁目","koaza":"","lat":35.721954,"lng":139.414113,"zip":"1900004"},{"town":"上砂町六丁目","koaza":"","lat":35.739337,"lng":139.386069,"zip":"1900032"},{"town":"一番町二丁目","koaza":"","lat":35.726493,"lng":139.378388,"zip":"1900033"},{"town":"一番町一丁目","koaza":"","lat":35.72342,"lng":139.38355,"zip":"1900033"},{"town":"砂川町三丁目","koaza":"","lat":35.727318,"lng":139.397638,"zip":"1900031"},{"town":"上砂町四丁目","koaza":"","lat":35.727175,"lng":139.391443,"zip":"1900032"},{"town":"上砂町三丁目","koaza":"","lat":35.723058,"lng":139.387978,"zip":"1900032"},{"town":"一番町三丁目","koaza":"","lat":35.728772,"lng":139.378327,"zip":"1900033"},{"town":"砂川町七丁目","koaza":"","lat":35.732073,"lng":139.406096,"zip":"1900031"},{"town":"砂川町八丁目","koaza":"","lat":35.732058,"lng":139.398278,"zip":"1900031"},{"town":"上砂町七丁目","koaza":"","lat":35.732782,"lng":139.385135,"zip":"1900032"},{"town":"一番町五丁目","koaza":"","lat":35.73201,"lng":139.374533,"zip":"1900033"},{"town":"一番町四丁目","koaza":"","lat":35.730529,"lng":139.382258,"zip":"1900033"},{"town":"西砂町四丁目","koaza":"","lat":35.734433,"lng":139.356986,"zip":"1900034"},{"town":"西砂町三丁目","koaza":"","lat":35.728642,"lng":139.356196,"zip":"1900034"},{"town":"西砂町二丁目","koaza":"","lat":35.727635,"lng":139.362234,"zip":"1900034"},{"town":"西砂町五丁目","koaza":"","lat":35.734221,"lng":139.363847,"zip":"1900034"},{"town":"西砂町七丁目","koaza":"","lat":35.737443,"lng":139.365145,"zip":"1900034"}]