[{"town":"高松五丁目","koaza":"","lat":35.757756,"lng":139.620976,"zip":"1790075"},{"town":"富士見台一丁目","koaza":"","lat":35.732442,"lng":139.623791,"zip":"1770034"},{"town":"富士見台二丁目","koaza":"","lat":35.735679,"lng":139.622691,"zip":"1770034"},{"town":"南田中一丁目","koaza":"","lat":35.731373,"lng":139.618318,"zip":"1770035"},{"town":"富士見台四丁目","koaza":"","lat":35.743412,"lng":139.622536,"zip":"1770034"},{"town":"富士見台三丁目","koaza":"","lat":35.738617,"lng":139.623179,"zip":"1770034"},{"town":"高野台二丁目","koaza":"","lat":35.746837,"lng":139.621437,"zip":"1770033"},{"town":"谷原一丁目","koaza":"","lat":35.75025,"lng":139.621484,"zip":"1770032"},{"town":"氷川台三丁目","koaza":"","lat":35.751486,"lng":139.669017,"zip":"1790084"},{"town":"早宮二丁目","koaza":"","lat":35.755182,"lng":139.653767,"zip":"1790085"},{"town":"春日町一丁目","koaza":"","lat":35.748723,"lng":139.646217,"zip":"1790074"},{"town":"春日町四丁目","koaza":"","lat":35.754991,"lng":139.640494,"zip":"1790074"},{"town":"高松四丁目","koaza":"","lat":35.752181,"lng":139.627806,"zip":"1790075"},{"town":"羽沢三丁目","koaza":"","lat":35.751416,"lng":139.673332,"zip":"1760003"},{"town":"春日町三丁目","koaza":"","lat":35.749895,"lng":139.64241,"zip":"1790074"},{"town":"氷川台一丁目","koaza":"","lat":35.755676,"lng":139.671793,"zip":"1790084"},{"town":"氷川台四丁目","koaza":"","lat":35.752838,"lng":139.665042,"zip":"1790084"},{"town":"早宮一丁目","koaza":"","lat":35.751559,"lng":139.658859,"zip":"1790085"},{"town":"平和台三丁目","koaza":"","lat":35.755631,"lng":139.660772,"zip":"1790083"},{"town":"春日町六丁目","koaza":"","lat":35.753071,"lng":139.635199,"zip":"1790074"},{"town":"早宮四丁目","koaza":"","lat":35.749499,"lng":139.649487,"zip":"1790085"},{"town":"谷原四丁目","koaza":"","lat":35.755446,"lng":139.614394,"zip":"1770032"},{"town":"谷原五丁目","koaza":"","lat":35.752042,"lng":139.610622,"zip":"1770032"},{"town":"南大泉六丁目","koaza":"","lat":35.753148,"lng":139.573302,"zip":"1780064"},{"town":"光が丘七丁目","koaza":"","lat":35.75601,"lng":139.623931,"zip":"1790072"},{"town":"光が丘六丁目","koaza":"","lat":35.759632,"lng":139.623206,"zip":"1790072"},{"town":"三原台一丁目","koaza":"","lat":35.752814,"lng":139.604616,"zip":"1770031"},{"town":"東大泉四丁目","koaza":"","lat":35.753052,"lng":139.584041,"zip":"1780063"},{"town":"谷原三丁目","koaza":"","lat":35.753603,"lng":139.618119,"zip":"1770032"},{"town":"旭町一丁目","koaza":"","lat":35.764385,"lng":139.622435,"zip":"1790071"},{"town":"西大泉一丁目","koaza":"","lat":35.753873,"lng":139.577608,"zip":"1780065"},{"town":"三原台三丁目","koaza":"","lat":35.753523,"lng":139.600606,"zip":"1770031"},{"town":"東大泉三丁目","koaza":"","lat":35.753944,"lng":139.589308,"zip":"1780063"},{"town":"東大泉二丁目","koaza":"","lat":35.752709,"lng":139.595154,"zip":"1780063"},{"town":"豊玉南二丁目","koaza":"","lat":35.728068,"lng":139.656193,"zip":"1760014"},{"town":"豊玉南一丁目","koaza":"","lat":35.727584,"lng":139.660577,"zip":"1760014"},{"town":"豊玉南三丁目","koaza":"","lat":35.728555,"lng":139.651607,"zip":"1760014"},{"town":"豊玉北五丁目","koaza":"","lat":35.735275,"lng":139.655116,"zip":"1760012"},{"town":"中村南一丁目","koaza":"","lat":35.72828,"lng":139.646799,"zip":"1760025"},{"town":"豊玉中三丁目","koaza":"","lat":35.731712,"lng":139.654659,"zip":"1760013"},{"town":"中村南二丁目","koaza":"","lat":35.727981,"lng":139.64295,"zip":"1760025"},{"town":"中村南三丁目","koaza":"","lat":35.728269,"lng":139.639824,"zip":"1760025"},{"town":"旭丘一丁目","koaza":"","lat":35.734074,"lng":139.675112,"zip":"1760005"},{"town":"旭丘二丁目","koaza":"","lat":35.735807,"lng":139.677563,"zip":"1760005"},{"town":"豊玉上一丁目","koaza":"","lat":35.73611,"lng":139.668919,"zip":"1760011"},{"town":"豊玉北二丁目","koaza":"","lat":35.734072,"lng":139.665529,"zip":"1760012"},{"town":"豊玉北一丁目","koaza":"","lat":35.733141,"lng":139.668913,"zip":"1760012"},{"town":"栄町","koaza":"","lat":35.738519,"lng":139.669502,"zip":"1760006"},{"town":"豊玉中一丁目","koaza":"","lat":35.730205,"lng":139.662667,"zip":"1760013"},{"town":"豊玉北三丁目","koaza":"","lat":35.734354,"lng":139.662232,"zip":"1760012"},{"town":"豊玉中二丁目","koaza":"","lat":35.731217,"lng":139.658939,"zip":"1760013"},{"town":"桜台一丁目","koaza":"","lat":35.740005,"lng":139.664527,"zip":"1760002"},{"town":"豊玉北四丁目","koaza":"","lat":35.735084,"lng":139.658768,"zip":"1760012"},{"town":"豊玉上二丁目","koaza":"","lat":35.737191,"lng":139.661438,"zip":"1760011"},{"town":"中村二丁目","koaza":"","lat":35.732305,"lng":139.643578,"zip":"1760024"},{"town":"豊玉北六丁目","koaza":"","lat":35.735257,"lng":139.651352,"zip":"1760012"},{"town":"向山一丁目","koaza":"","lat":35.738158,"lng":139.641115,"zip":"1760022"},{"town":"中村北二丁目","koaza":"","lat":35.735806,"lng":139.643324,"zip":"1760023"},{"town":"中村北一丁目","koaza":"","lat":35.735835,"lng":139.647242,"zip":"1760023"},{"town":"中村一丁目","koaza":"","lat":35.732712,"lng":139.647523,"zip":"1760024"},{"town":"豊玉中四丁目","koaza":"","lat":35.731876,"lng":139.650678,"zip":"1760013"},{"town":"練馬二丁目","koaza":"","lat":35.744373,"lng":139.653803,"zip":"1760001"},{"town":"中村北三丁目","koaza":"","lat":35.735735,"lng":139.639708,"zip":"1760023"},{"town":"向山二丁目","koaza":"","lat":35.740186,"lng":139.642816,"zip":"1760022"},{"town":"中村三丁目","koaza":"","lat":35.732129,"lng":139.639022,"zip":"1760024"},{"town":"小竹町一丁目","koaza":"","lat":35.739772,"lng":139.676081,"zip":"1760004"},{"town":"小竹町二丁目","koaza":"","lat":35.743158,"lng":139.676614,"zip":"1760004"},{"town":"桜台二丁目","koaza":"","lat":35.743419,"lng":139.664963,"zip":"1760002"},{"town":"桜台三丁目","koaza":"","lat":35.746992,"lng":139.665977,"zip":"1760002"},{"town":"羽沢一丁目","koaza":"","lat":35.741689,"lng":139.671219,"zip":"1760003"},{"town":"羽沢二丁目","koaza":"","lat":35.744993,"lng":139.670851,"zip":"1760003"},{"town":"桜台六丁目","koaza":"","lat":35.747171,"lng":139.659135,"zip":"1760002"},{"town":"練馬三丁目","koaza":"","lat":35.738478,"lng":139.64763,"zip":"1760001"},{"town":"練馬一丁目","koaza":"","lat":35.738954,"lng":139.653758,"zip":"1760001"},{"town":"桜台四丁目","koaza":"","lat":35.739857,"lng":139.658958,"zip":"1760002"},{"town":"桜台五丁目","koaza":"","lat":35.743339,"lng":139.658411,"zip":"1760002"},{"town":"貫井三丁目","koaza":"","lat":35.73847,"lng":139.628336,"zip":"1760021"},{"town":"貫井四丁目","koaza":"","lat":35.742316,"lng":139.629557,"zip":"1760021"},{"town":"練馬四丁目","koaza":"","lat":35.742586,"lng":139.649367,"zip":"1760001"},{"town":"早宮三丁目","koaza":"","lat":35.748396,"lng":139.652598,"zip":"1790085"},{"town":"春日町五丁目","koaza":"","lat":35.748211,"lng":139.638421,"zip":"1790074"},{"town":"中村北四丁目","koaza":"","lat":35.734815,"lng":139.636164,"zip":"1760023"},{"town":"貫井一丁目","koaza":"","lat":35.73741,"lng":139.634282,"zip":"1760021"},{"town":"向山三丁目","koaza":"","lat":35.742833,"lng":139.643902,"zip":"1760022"},{"town":"向山四丁目","koaza":"","lat":35.742662,"lng":139.638083,"zip":"1760022"},{"town":"貫井二丁目","koaza":"","lat":35.740012,"lng":139.63594,"zip":"1760021"},{"town":"貫井五丁目","koaza":"","lat":35.742745,"lng":139.634213,"zip":"1760021"},{"town":"高松二丁目","koaza":"","lat":35.748052,"lng":139.631035,"zip":"1790075"},{"town":"高松三丁目","koaza":"","lat":35.748116,"lng":139.627419,"zip":"1790075"},{"town":"高松一丁目","koaza":"","lat":35.747862,"lng":139.63474,"zip":"1790075"},{"town":"関町南一丁目","koaza":"","lat":35.720731,"lng":139.592582,"zip":"1770053"},{"town":"上石神井南町","koaza":"","lat":35.723344,"lng":139.594973,"zip":"1770043"},{"town":"下石神井四丁目","koaza":"","lat":35.727752,"lng":139.60165,"zip":"1770042"},{"town":"上石神井二丁目","koaza":"","lat":35.727873,"lng":139.595439,"zip":"1770044"},{"town":"下石神井五丁目","koaza":"","lat":35.730975,"lng":139.602112,"zip":"1770042"},{"town":"立野町","koaza":"","lat":35.71615,"lng":139.580916,"zip":"1770054"},{"town":"関町南二丁目","koaza":"","lat":35.71755,"lng":139.583934,"zip":"1770053"},{"town":"上石神井一丁目","koaza":"","lat":35.724378,"lng":139.59053,"zip":"1770044"},{"town":"関町南三丁目","koaza":"","lat":35.721323,"lng":139.580983,"zip":"1770053"},{"town":"関町東一丁目","koaza":"","lat":35.724792,"lng":139.583399,"zip":"1770052"},{"town":"関町北一丁目","koaza":"","lat":35.72535,"lng":139.578945,"zip":"1770051"},{"town":"関町南四丁目","koaza":"","lat":35.7209,"lng":139.572887,"zip":"1770053"},{"town":"関町北二丁目","koaza":"","lat":35.725374,"lng":139.575155,"zip":"1770051"},{"town":"上石神井四丁目","koaza":"","lat":35.728755,"lng":139.586753,"zip":"1770044"},{"town":"関町北三丁目","koaza":"","lat":35.725677,"lng":139.569367,"zip":"1770051"},{"town":"南田中二丁目","koaza":"","lat":35.733851,"lng":139.617129,"zip":"1770035"},{"town":"下石神井二丁目","koaza":"","lat":35.73067,"lng":139.606867,"zip":"1770042"},{"town":"下石神井一丁目","koaza":"","lat":35.731047,"lng":139.611689,"zip":"1770042"},{"town":"南田中四丁目","koaza":"","lat":35.733556,"lng":139.61258,"zip":"1770035"},{"town":"下石神井六丁目","koaza":"","lat":35.734458,"lng":139.603277,"zip":"1770042"},{"town":"下石神井三丁目","koaza":"","lat":35.736233,"lng":139.607675,"zip":"1770042"},{"town":"上石神井三丁目","koaza":"","lat":35.732412,"lng":139.595187,"zip":"1770044"},{"town":"関町東二丁目","koaza":"","lat":35.728629,"lng":139.580088,"zip":"1770052"},{"town":"関町北四丁目","koaza":"","lat":35.729552,"lng":139.572401,"zip":"1770051"},{"town":"石神井台七丁目","koaza":"","lat":35.731144,"lng":139.579716,"zip":"1770045"},{"town":"石神井台四丁目","koaza":"","lat":35.732433,"lng":139.586174,"zip":"1770045"},{"town":"南田中三丁目","koaza":"","lat":35.737678,"lng":139.617338,"zip":"1770035"},{"town":"南田中五丁目","koaza":"","lat":35.737892,"lng":139.611931,"zip":"1770035"},{"town":"高野台一丁目","koaza":"","lat":35.742445,"lng":139.617282,"zip":"1770033"},{"town":"石神井町五丁目","koaza":"","lat":35.737943,"lng":139.602766,"zip":"1770041"},{"town":"高野台四丁目","koaza":"","lat":35.747232,"lng":139.616669,"zip":"1770033"},{"town":"石神井町一丁目","koaza":"","lat":35.741249,"lng":139.611557,"zip":"1770041"},{"town":"高野台三丁目","koaza":"","lat":35.744465,"lng":139.613951,"zip":"1770033"},{"town":"石神井町六丁目","koaza":"","lat":35.740746,"lng":139.600766,"zip":"1770041"},{"town":"石神井町三丁目","koaza":"","lat":35.741935,"lng":139.605534,"zip":"1770041"},{"town":"東大泉五丁目","koaza":"","lat":35.746026,"lng":139.590281,"zip":"1780063"},{"town":"石神井台二丁目","koaza":"","lat":35.736454,"lng":139.591745,"zip":"1770045"},{"town":"石神井台一丁目","koaza":"","lat":35.736965,"lng":139.595885,"zip":"1770045"},{"town":"高野台五丁目","koaza":"","lat":35.748005,"lng":139.611605,"zip":"1770033"},{"town":"石神井町二丁目","koaza":"","lat":35.746382,"lng":139.607523,"zip":"1770041"},{"town":"石神井町七丁目","koaza":"","lat":35.743913,"lng":139.599167,"zip":"1770041"},{"town":"石神井町八丁目","koaza":"","lat":35.747406,"lng":139.599248,"zip":"1770041"},{"town":"石神井町四丁目","koaza":"","lat":35.747042,"lng":139.604167,"zip":"1770041"},{"town":"関町北五丁目","koaza":"","lat":35.733602,"lng":139.572939,"zip":"1770051"},{"town":"東大泉一丁目","koaza":"","lat":35.748681,"lng":139.591891,"zip":"1780063"},{"town":"石神井台八丁目","koaza":"","lat":35.735813,"lng":139.579728,"zip":"1770045"},{"town":"石神井台五丁目","koaza":"","lat":35.736545,"lng":139.585978,"zip":"1770045"},{"town":"石神井台三丁目","koaza":"","lat":35.742075,"lng":139.591433,"zip":"1770045"},{"town":"石神井台六丁目","koaza":"","lat":35.739785,"lng":139.584932,"zip":"1770045"},{"town":"東大泉六丁目","koaza":"","lat":35.744786,"lng":139.583449,"zip":"1780063"},{"town":"谷原二丁目","koaza":"","lat":35.750914,"lng":139.616252,"zip":"1770032"},{"town":"東大泉七丁目","koaza":"","lat":35.744046,"lng":139.578755,"zip":"1780063"},{"town":"南大泉五丁目","koaza":"","lat":35.750395,"lng":139.574416,"zip":"1780064"},{"town":"南大泉二丁目","koaza":"","lat":35.73728,"lng":139.570242,"zip":"1780064"},{"town":"南大泉一丁目","koaza":"","lat":35.73929,"lng":139.575765,"zip":"1780064"},{"town":"南大泉四丁目","koaza":"","lat":35.746435,"lng":139.573999,"zip":"1780064"},{"town":"南大泉三丁目","koaza":"","lat":35.743701,"lng":139.570439,"zip":"1780064"},{"town":"氷川台二丁目","koaza":"","lat":35.756541,"lng":139.668292,"zip":"1790084"},{"town":"春日町二丁目","koaza":"","lat":35.756487,"lng":139.647027,"zip":"1790074"},{"town":"田柄五丁目","koaza":"","lat":35.757791,"lng":139.634068,"zip":"1790073"},{"town":"光が丘三丁目","koaza":"","lat":35.756237,"lng":139.629267,"zip":"1790072"},{"town":"錦一丁目","koaza":"","lat":35.760076,"lng":139.670156,"zip":"1790082"},{"town":"平和台一丁目","koaza":"","lat":35.758591,"lng":139.664587,"zip":"1790083"},{"town":"北町六丁目","koaza":"","lat":35.759034,"lng":139.651915,"zip":"1790081"},{"town":"平和台二丁目","koaza":"","lat":35.760576,"lng":139.66127,"zip":"1790083"},{"town":"平和台四丁目","koaza":"","lat":35.758412,"lng":139.656626,"zip":"1790083"},{"town":"錦二丁目","koaza":"","lat":35.762076,"lng":139.665551,"zip":"1790082"},{"town":"北町四丁目","koaza":"","lat":35.763251,"lng":139.659845,"zip":"1790081"},{"town":"北町七丁目","koaza":"","lat":35.76191,"lng":139.652612,"zip":"1790081"},{"town":"北町五丁目","koaza":"","lat":35.764607,"lng":139.654607,"zip":"1790081"},{"town":"光が丘二丁目","koaza":"","lat":35.761559,"lng":139.632214,"zip":"1790072"},{"town":"田柄一丁目","koaza":"","lat":35.760456,"lng":139.645896,"zip":"1790073"},{"town":"田柄三丁目","koaza":"","lat":35.759439,"lng":139.638917,"zip":"1790073"},{"town":"田柄四丁目","koaza":"","lat":35.764643,"lng":139.637294,"zip":"1790073"},{"town":"田柄二丁目","koaza":"","lat":35.766462,"lng":139.644787,"zip":"1790073"},{"town":"北町三丁目","koaza":"","lat":35.768066,"lng":139.653385,"zip":"1790081"},{"town":"北町二丁目","koaza":"","lat":35.766732,"lng":139.660792,"zip":"1790081"},{"town":"光が丘一丁目","koaza":"","lat":35.768379,"lng":139.638223,"zip":"1790072"},{"town":"光が丘四丁目","koaza":"","lat":35.766246,"lng":139.629409,"zip":"1790072"},{"town":"光が丘五丁目","koaza":"","lat":35.761495,"lng":139.627156,"zip":"1790072"},{"town":"旭町二丁目","koaza":"","lat":35.771221,"lng":139.627184,"zip":"1790071"},{"town":"北町八丁目","koaza":"","lat":35.766349,"lng":139.649797,"zip":"1790081"},{"town":"旭町三丁目","koaza":"","lat":35.775668,"lng":139.626642,"zip":"1790071"},{"town":"北町一丁目","koaza":"","lat":35.765116,"lng":139.666652,"zip":"1790081"},{"town":"谷原六丁目","koaza":"","lat":35.755666,"lng":139.610037,"zip":"1770032"},{"town":"高松六丁目","koaza":"","lat":35.758913,"lng":139.617597,"zip":"1790075"},{"town":"土支田三丁目","koaza":"","lat":35.760551,"lng":139.609176,"zip":"1790076"},{"town":"三原台二丁目","koaza":"","lat":35.756226,"lng":139.605125,"zip":"1770031"},{"town":"西大泉二丁目","koaza":"","lat":35.757246,"lng":139.574498,"zip":"1780065"},{"town":"西大泉六丁目","koaza":"","lat":35.761938,"lng":139.569923,"zip":"1780065"},{"town":"大泉町四丁目","koaza":"","lat":35.762658,"lng":139.596894,"zip":"1780062"},{"town":"西大泉四丁目","koaza":"","lat":35.763656,"lng":139.575049,"zip":"1780065"},{"town":"西大泉五丁目","koaza":"","lat":35.758213,"lng":139.568597,"zip":"1780065"},{"town":"大泉学園町五丁目","koaza":"","lat":35.765974,"lng":139.581715,"zip":"1780061"},{"town":"大泉学園町七丁目","koaza":"","lat":35.772928,"lng":139.588904,"zip":"1780061"},{"town":"大泉学園町六丁目","koaza":"","lat":35.770954,"lng":139.582784,"zip":"1780061"},{"town":"大泉学園町八丁目","koaza":"","lat":35.772656,"lng":139.595485,"zip":"1780061"},{"town":"大泉町三丁目","koaza":"","lat":35.766994,"lng":139.59842,"zip":"1780062"},{"town":"土支田二丁目","koaza":"","lat":35.761538,"lng":139.61422,"zip":"1790076"},{"town":"大泉町一丁目","koaza":"","lat":35.767347,"lng":139.606743,"zip":"1780062"},{"town":"大泉町二丁目","koaza":"","lat":35.761171,"lng":139.604121,"zip":"1780062"},{"town":"大泉町六丁目","koaza":"","lat":35.756373,"lng":139.593674,"zip":"1780062"},{"town":"大泉町五丁目","koaza":"","lat":35.7598,"lng":139.595234,"zip":"1780062"},{"town":"大泉学園町四丁目","koaza":"","lat":35.765984,"lng":139.590857,"zip":"1780061"},{"town":"大泉学園町三丁目","koaza":"","lat":35.761385,"lng":139.583415,"zip":"1780061"},{"town":"西大泉三丁目","koaza":"","lat":35.758083,"lng":139.579253,"zip":"1780065"},{"town":"大泉学園町二丁目","koaza":"","lat":35.7579,"lng":139.584602,"zip":"1780061"},{"town":"大泉学園町一丁目","koaza":"","lat":35.760154,"lng":139.590668,"zip":"1780061"},{"town":"大泉学園町九丁目","koaza":"","lat":35.776056,"lng":139.595117,"zip":"1780061"},{"town":"土支田四丁目","koaza":"","lat":35.767566,"lng":139.61424,"zip":"1790076"},{"town":"土支田一丁目","koaza":"","lat":35.763017,"lng":139.617875,"zip":"1790076"},{"town":"西大泉町","koaza":"","lat":35.763411,"lng":139.56699,"zip":"1780066"}]