[{"town":"横田基地内","koaza":"","lat":35.75369,"lng":139.338544,"zip":"2050000"},{"town":"双葉町三丁目","koaza":"","lat":35.756531,"lng":139.334517,"zip":"2050022"},{"town":"川崎一丁目","koaza":"","lat":35.754934,"lng":139.317146,"zip":"2050021"},{"town":"神明台四丁目","koaza":"","lat":35.755493,"lng":139.330557,"zip":"2050023"},{"town":"神明台二丁目","koaza":"","lat":35.757031,"lng":139.324218,"zip":"2050023"},{"town":"神明台一丁目","koaza":"","lat":35.75521,"lng":139.320829,"zip":"2050023"},{"town":"川崎二丁目","koaza":"","lat":35.752033,"lng":139.319224,"zip":"2050021"},{"town":"川崎四丁目","koaza":"","lat":35.753197,"lng":139.31495,"zip":"2050021"},{"town":"羽","koaza":"","lat":35.758253,"lng":139.298892,"zip":"2050012"},{"town":"玉川一丁目","koaza":"","lat":35.753813,"lng":139.311416,"zip":"2050024"},{"town":"川崎三丁目","koaza":"","lat":35.750768,"lng":139.316694,"zip":"2050021"},{"town":"玉川二丁目","koaza":"","lat":35.750152,"lng":139.31434,"zip":"2050024"},{"town":"小作台五丁目","koaza":"","lat":35.773855,"lng":139.302013,"zip":"2050001"},{"town":"小作台三丁目","koaza":"","lat":35.776961,"lng":139.299143,"zip":"2050001"},{"town":"双葉町二丁目","koaza":"","lat":35.758476,"lng":139.334117,"zip":"2050022"},{"town":"五ノ神二丁目","koaza":"","lat":35.760918,"lng":139.321163,"zip":"2050011"},{"town":"双葉町一丁目","koaza":"","lat":35.762332,"lng":139.331391,"zip":"2050022"},{"town":"小作台一丁目","koaza":"","lat":35.777364,"lng":139.303389,"zip":"2050001"},{"town":"川崎","koaza":"","lat":35.749231,"lng":139.313264,"zip":"2050021"},{"town":"富士見平二丁目","koaza":"","lat":35.763536,"lng":139.326242,"zip":"2050013"},{"town":"神明台三丁目","koaza":"","lat":35.76111,"lng":139.327606,"zip":"2050023"},{"town":"五ノ神","koaza":"","lat":35.770324,"lng":139.331755,"zip":"2050011"},{"town":"五ノ神三丁目","koaza":"","lat":35.762718,"lng":139.319465,"zip":"2050011"},{"town":"富士見平一丁目","koaza":"","lat":35.765556,"lng":139.32446,"zip":"2050013"},{"town":"富士見平三丁目","koaza":"","lat":35.765395,"lng":139.329402,"zip":"2050013"},{"town":"羽東一丁目","koaza":"","lat":35.759541,"lng":139.313402,"zip":"2050014"},{"town":"五ノ神四丁目","koaza":"","lat":35.760716,"lng":139.316291,"zip":"2050011"},{"town":"緑ヶ丘二丁目","koaza":"","lat":35.765583,"lng":139.317743,"zip":"2050000"},{"town":"羽東二丁目","koaza":"","lat":35.757725,"lng":139.312423,"zip":"2050014"},{"town":"五ノ神一丁目","koaza":"","lat":35.758443,"lng":139.318057,"zip":"2050011"},{"town":"羽東三丁目","koaza":"","lat":35.756745,"lng":139.310199,"zip":"2050014"},{"town":"羽中二丁目","koaza":"","lat":35.764222,"lng":139.306887,"zip":"2050015"},{"town":"羽中一丁目","koaza":"","lat":35.764784,"lng":139.310058,"zip":"2050015"},{"town":"羽西一丁目","koaza":"","lat":35.770239,"lng":139.300517,"zip":"2050017"},{"town":"栄町三丁目","koaza":"","lat":35.774489,"lng":139.313843,"zip":"2050002"},{"town":"羽中四丁目","koaza":"","lat":35.759087,"lng":139.304417,"zip":"2050015"},{"town":"羽中三丁目","koaza":"","lat":35.76143,"lng":139.306689,"zip":"2050015"},{"town":"緑ヶ丘四丁目","koaza":"","lat":35.768896,"lng":139.315211,"zip":"2050000"},{"town":"羽加美三丁目","koaza":"","lat":35.766066,"lng":139.301089,"zip":"2050016"},{"town":"羽加美二丁目","koaza":"","lat":35.767143,"lng":139.30348,"zip":"2050016"},{"town":"栄町一丁目","koaza":"","lat":35.775005,"lng":139.307309,"zip":"2050002"},{"town":"羽加美一丁目","koaza":"","lat":35.769523,"lng":139.305561,"zip":"2050016"},{"town":"栄町二丁目","koaza":"","lat":35.771187,"lng":139.309923,"zip":"2050002"},{"town":"小作台四丁目","koaza":"","lat":35.774851,"lng":139.297672,"zip":"2050001"},{"town":"羽西二丁目","koaza":"","lat":35.769678,"lng":139.297835,"zip":"2050017"},{"town":"羽西三丁目","koaza":"","lat":35.774287,"lng":139.29429,"zip":"2050017"},{"town":"緑ヶ丘一丁目","koaza":"","lat":35.763648,"lng":139.31443,"zip":"2050000"},{"town":"緑ヶ丘五丁目","koaza":"","lat":35.766664,"lng":139.312177,"zip":"2050000"},{"town":"緑ヶ丘三丁目","koaza":"","lat":35.771198,"lng":139.322389,"zip":"2050000"},{"town":"小作台二丁目","koaza":"","lat":35.779217,"lng":139.299031,"zip":"2050001"},{"town":"羽加美四丁目","koaza":"","lat":35.762156,"lng":139.300017,"zip":"2050016"}]