[{"town":"柴又一丁目","koaza":"","lat":35.755326,"lng":139.871866,"zip":"1250052"},{"town":"細田四丁目","koaza":"","lat":35.743153,"lng":139.872295,"zip":"1240021"},{"town":"柴又四丁目","koaza":"","lat":35.753565,"lng":139.875244,"zip":"1250052"},{"town":"奥戸九丁目","koaza":"","lat":35.736316,"lng":139.86993,"zip":"1240022"},{"town":"奥戸六丁目","koaza":"","lat":35.731258,"lng":139.870203,"zip":"1240022"},{"town":"細田一丁目","koaza":"","lat":35.738463,"lng":139.871829,"zip":"1240021"},{"town":"高砂四丁目","koaza":"","lat":35.747793,"lng":139.872473,"zip":"1250054"},{"town":"高砂五丁目","koaza":"","lat":35.751786,"lng":139.868698,"zip":"1250054"},{"town":"柴又五丁目","koaza":"","lat":35.75232,"lng":139.883492,"zip":"1250052"},{"town":"柴又六丁目","koaza":"","lat":35.755729,"lng":139.881178,"zip":"1250052"},{"town":"柴又三丁目","koaza":"","lat":35.760223,"lng":139.872372,"zip":"1250052"},{"town":"金町二丁目","koaza":"","lat":35.764145,"lng":139.870315,"zip":"1250042"},{"town":"水元公園","koaza":"","lat":35.788549,"lng":139.869416,"zip":"1250034"},{"town":"東金町三丁目","koaza":"","lat":35.772455,"lng":139.87357,"zip":"1250041"},{"town":"東金町一丁目","koaza":"","lat":35.770763,"lng":139.869077,"zip":"1250041"},{"town":"小菅一丁目","koaza":"","lat":35.754231,"lng":139.817107,"zip":"1240001"},{"town":"青戸六丁目","koaza":"","lat":35.750206,"lng":139.858226,"zip":"1250062"},{"town":"青戸四丁目","koaza":"","lat":35.750419,"lng":139.850461,"zip":"1250062"},{"town":"東堀切三丁目","koaza":"","lat":35.754662,"lng":139.837253,"zip":"1240004"},{"town":"東金町二丁目","koaza":"","lat":35.773381,"lng":139.867904,"zip":"1250041"},{"town":"東水元二丁目","koaza":"","lat":35.779838,"lng":139.870653,"zip":"1250033"},{"town":"白鳥四丁目","koaza":"","lat":35.752888,"lng":139.848292,"zip":"1250063"},{"town":"お花茶屋三丁目","koaza":"","lat":35.754478,"lng":139.841775,"zip":"1240003"},{"town":"金町六丁目","koaza":"","lat":35.768392,"lng":139.872398,"zip":"1250042"},{"town":"高砂六丁目","koaza":"","lat":35.753571,"lng":139.860788,"zip":"1250054"},{"town":"青戸七丁目","koaza":"","lat":35.755176,"lng":139.855608,"zip":"1250062"},{"town":"白鳥三丁目","koaza":"","lat":35.753358,"lng":139.844415,"zip":"1250063"},{"town":"東堀切二丁目","koaza":"","lat":35.752216,"lng":139.835916,"zip":"1240004"},{"town":"堀切六丁目","koaza":"","lat":35.752254,"lng":139.830391,"zip":"1240006"},{"town":"小菅二丁目","koaza":"","lat":35.751779,"lng":139.824296,"zip":"1240001"},{"town":"小菅三丁目","koaza":"","lat":35.754285,"lng":139.823994,"zip":"1240001"},{"town":"金町三丁目","koaza":"","lat":35.766807,"lng":139.875451,"zip":"1250042"},{"town":"高砂七丁目","koaza":"","lat":35.754486,"lng":139.864309,"zip":"1250054"},{"town":"高砂八丁目","koaza":"","lat":35.754601,"lng":139.868069,"zip":"1250054"},{"town":"細田五丁目","koaza":"","lat":35.73909,"lng":139.875227,"zip":"1240021"},{"town":"鎌倉一丁目","koaza":"","lat":35.742729,"lng":139.878158,"zip":"1250053"},{"town":"鎌倉四丁目","koaza":"","lat":35.746657,"lng":139.882303,"zip":"1250053"},{"town":"鎌倉二丁目","koaza":"","lat":35.746065,"lng":139.876164,"zip":"1250053"},{"town":"鎌倉三丁目","koaza":"","lat":35.747857,"lng":139.877628,"zip":"1250053"},{"town":"東新小岩三丁目","koaza":"","lat":35.722981,"lng":139.860992,"zip":"1240023"},{"town":"東新小岩四丁目","koaza":"","lat":35.725835,"lng":139.863005,"zip":"1240023"},{"town":"四つ木二丁目","koaza":"","lat":35.736744,"lng":139.837762,"zip":"1240011"},{"town":"新小岩一丁目","koaza":"","lat":35.714252,"lng":139.854932,"zip":"1240024"},{"town":"西新小岩二丁目","koaza":"","lat":35.717189,"lng":139.851141,"zip":"1240025"},{"town":"新小岩三丁目","koaza":"","lat":35.715116,"lng":139.866016,"zip":"1240024"},{"town":"新小岩二丁目","koaza":"","lat":35.715976,"lng":139.862179,"zip":"1240024"},{"town":"東新小岩一丁目","koaza":"","lat":35.72061,"lng":139.861353,"zip":"1240023"},{"town":"新小岩四丁目","koaza":"","lat":35.721574,"lng":139.866331,"zip":"1240024"},{"town":"西新小岩一丁目","koaza":"","lat":35.715641,"lng":139.853795,"zip":"1240025"},{"town":"東四つ木一丁目","koaza":"","lat":35.725927,"lng":139.839893,"zip":"1240014"},{"town":"西新小岩四丁目","koaza":"","lat":35.72053,"lng":139.852763,"zip":"1240025"},{"town":"西新小岩三丁目","koaza":"","lat":35.720481,"lng":139.847128,"zip":"1240025"},{"town":"東新小岩五丁目","koaza":"","lat":35.721609,"lng":139.856235,"zip":"1240023"},{"town":"東新小岩二丁目","koaza":"","lat":35.725094,"lng":139.867598,"zip":"1240023"},{"town":"奥戸五丁目","koaza":"","lat":35.73217,"lng":139.865921,"zip":"1240022"},{"town":"東新小岩七丁目","koaza":"","lat":35.724929,"lng":139.854294,"zip":"1240023"},{"town":"西新小岩五丁目","koaza":"","lat":35.725416,"lng":139.846836,"zip":"1240025"},{"town":"東四つ木三丁目","koaza":"","lat":35.729164,"lng":139.837075,"zip":"1240014"},{"town":"東新小岩六丁目","koaza":"","lat":35.72641,"lng":139.858922,"zip":"1240023"},{"town":"東新小岩八丁目","koaza":"","lat":35.727192,"lng":139.853289,"zip":"1240023"},{"town":"奥戸七丁目","koaza":"","lat":35.737018,"lng":139.86236,"zip":"1240022"},{"town":"立石七丁目","koaza":"","lat":35.740423,"lng":139.850412,"zip":"1240012"},{"town":"東立石四丁目","koaza":"","lat":35.733744,"lng":139.852052,"zip":"1240013"},{"town":"奥戸一丁目","koaza":"","lat":35.730969,"lng":139.857311,"zip":"1240022"},{"town":"奥戸三丁目","koaza":"","lat":35.731765,"lng":139.861664,"zip":"1240022"},{"town":"奥戸四丁目","koaza":"","lat":35.728258,"lng":139.865868,"zip":"1240022"},{"town":"立石四丁目","koaza":"","lat":35.740094,"lng":139.847259,"zip":"1240012"},{"town":"奥戸二丁目","koaza":"","lat":35.734848,"lng":139.857812,"zip":"1240022"},{"town":"四つ木一丁目","koaza":"","lat":35.732958,"lng":139.833459,"zip":"1240011"},{"town":"東四つ木二丁目","koaza":"","lat":35.729732,"lng":139.844405,"zip":"1240014"},{"town":"東立石三丁目","koaza":"","lat":35.73537,"lng":139.844999,"zip":"1240013"},{"town":"東立石一丁目","koaza":"","lat":35.730983,"lng":139.848195,"zip":"1240013"},{"town":"立石一丁目","koaza":"","lat":35.737208,"lng":139.846839,"zip":"1240012"},{"town":"立石三丁目","koaza":"","lat":35.739613,"lng":139.844151,"zip":"1240012"},{"town":"四つ木四丁目","koaza":"","lat":35.738241,"lng":139.834751,"zip":"1240011"},{"town":"四つ木三丁目","koaza":"","lat":35.735706,"lng":139.830579,"zip":"1240011"},{"town":"東四つ木四丁目","koaza":"","lat":35.733497,"lng":139.840198,"zip":"1240014"},{"town":"東立石二丁目","koaza":"","lat":35.733363,"lng":139.846833,"zip":"1240013"},{"town":"青戸二丁目","koaza":"","lat":35.746719,"lng":139.85928,"zip":"1250062"},{"town":"高砂三丁目","koaza":"","lat":35.748119,"lng":139.868939,"zip":"1250054"},{"town":"高砂二丁目","koaza":"","lat":35.747889,"lng":139.865177,"zip":"1250054"},{"town":"細田二丁目","koaza":"","lat":35.740508,"lng":139.865173,"zip":"1240021"},{"town":"細田三丁目","koaza":"","lat":35.742496,"lng":139.867607,"zip":"1240021"},{"town":"奥戸八丁目","koaza":"","lat":35.737307,"lng":139.86634,"zip":"1240022"},{"town":"立石八丁目","koaza":"","lat":35.73959,"lng":139.855887,"zip":"1240012"},{"town":"立石二丁目","koaza":"","lat":35.738666,"lng":139.840327,"zip":"1240012"},{"town":"青戸一丁目","koaza":"","lat":35.743247,"lng":139.85604,"zip":"1250062"},{"town":"高砂一丁目","koaza":"","lat":35.743501,"lng":139.861109,"zip":"1250054"},{"town":"立石六丁目","koaza":"","lat":35.744073,"lng":139.851199,"zip":"1240012"},{"town":"青戸五丁目","koaza":"","lat":35.749436,"lng":139.854304,"zip":"1250062"},{"town":"青戸三丁目","koaza":"","lat":35.746276,"lng":139.852136,"zip":"1250062"},{"town":"宝町一丁目","koaza":"","lat":35.741857,"lng":139.836518,"zip":"1240005"},{"town":"白鳥二丁目","koaza":"","lat":35.748647,"lng":139.844696,"zip":"1250063"},{"town":"四つ木五丁目","koaza":"","lat":35.742017,"lng":139.840078,"zip":"1240011"},{"town":"立石五丁目","koaza":"","lat":35.743997,"lng":139.845409,"zip":"1240012"},{"town":"白鳥一丁目","koaza":"","lat":35.745795,"lng":139.842664,"zip":"1250063"},{"town":"お花茶屋一丁目","koaza":"","lat":35.7489,"lng":139.839137,"zip":"1240003"},{"town":"お花茶屋二丁目","koaza":"","lat":35.751455,"lng":139.840245,"zip":"1240003"},{"town":"堀切五丁目","koaza":"","lat":35.749398,"lng":139.830124,"zip":"1240006"},{"town":"宝町二丁目","koaza":"","lat":35.745974,"lng":139.836842,"zip":"1240005"},{"town":"東堀切一丁目","koaza":"","lat":35.749255,"lng":139.83471,"zip":"1240004"},{"town":"堀切二丁目","koaza":"","lat":35.74295,"lng":139.825995,"zip":"1240006"},{"town":"堀切一丁目","koaza":"","lat":35.739525,"lng":139.827353,"zip":"1240006"},{"town":"堀切三丁目","koaza":"","lat":35.745146,"lng":139.83261,"zip":"1240006"},{"town":"堀切四丁目","koaza":"","lat":35.747278,"lng":139.822722,"zip":"1240006"},{"town":"東金町七丁目","koaza":"","lat":35.776462,"lng":139.884729,"zip":"1250041"},{"town":"東金町六丁目","koaza":"","lat":35.772059,"lng":139.878852,"zip":"1250041"},{"town":"柴又七丁目","koaza":"","lat":35.759287,"lng":139.879658,"zip":"1250052"},{"town":"金町浄水場","koaza":"","lat":35.762653,"lng":139.877996,"zip":"1250043"},{"town":"東金町四丁目","koaza":"","lat":35.774498,"lng":139.87549,"zip":"1250041"},{"town":"東金町五丁目","koaza":"","lat":35.778745,"lng":139.878248,"zip":"1250041"},{"town":"東金町八丁目","koaza":"","lat":35.780215,"lng":139.888478,"zip":"1250041"},{"town":"南水元三丁目","koaza":"","lat":35.775004,"lng":139.864156,"zip":"1250035"},{"town":"柴又二丁目","koaza":"","lat":35.758391,"lng":139.869244,"zip":"1250052"},{"town":"青戸八丁目","koaza":"","lat":35.756936,"lng":139.85193,"zip":"1250062"},{"town":"西亀有二丁目","koaza":"","lat":35.761217,"lng":139.833733,"zip":"1240002"},{"town":"西亀有一丁目","koaza":"","lat":35.757894,"lng":139.83973,"zip":"1240002"},{"town":"堀切七丁目","koaza":"","lat":35.755142,"lng":139.831128,"zip":"1240006"},{"town":"金町一丁目","koaza":"","lat":35.76259,"lng":139.866168,"zip":"1250042"},{"town":"金町五丁目","koaza":"","lat":35.766586,"lng":139.8682,"zip":"1250042"},{"town":"新宿三丁目","koaza":"","lat":35.759725,"lng":139.863964,"zip":"1250051"},{"town":"新宿四丁目","koaza":"","lat":35.763125,"lng":139.861384,"zip":"1250051"},{"town":"新宿一丁目","koaza":"","lat":35.75819,"lng":139.859419,"zip":"1250051"},{"town":"金町四丁目","koaza":"","lat":35.765864,"lng":139.864299,"zip":"1250042"},{"town":"新宿二丁目","koaza":"","lat":35.762133,"lng":139.856806,"zip":"1250051"},{"town":"新宿五丁目","koaza":"","lat":35.765699,"lng":139.860171,"zip":"1250051"},{"town":"新宿六丁目","koaza":"","lat":35.771838,"lng":139.861148,"zip":"1250051"},{"town":"南水元一丁目","koaza":"","lat":35.775069,"lng":139.858032,"zip":"1250035"},{"town":"亀有一丁目","koaza":"","lat":35.758422,"lng":139.846323,"zip":"1250061"},{"town":"亀有四丁目","koaza":"","lat":35.761531,"lng":139.844073,"zip":"1250061"},{"town":"西亀有三丁目","koaza":"","lat":35.761562,"lng":139.839342,"zip":"1240002"},{"town":"亀有二丁目","koaza":"","lat":35.759915,"lng":139.849936,"zip":"1250061"},{"town":"亀有三丁目","koaza":"","lat":35.765188,"lng":139.850309,"zip":"1250061"},{"town":"西亀有四丁目","koaza":"","lat":35.765137,"lng":139.840946,"zip":"1240002"},{"town":"亀有五丁目","koaza":"","lat":35.76764,"lng":139.847139,"zip":"1250061"},{"town":"小菅四丁目","koaza":"","lat":35.758888,"lng":139.824712,"zip":"1240001"},{"town":"堀切八丁目","koaza":"","lat":35.757426,"lng":139.832027,"zip":"1240006"},{"town":"東水元三丁目","koaza":"","lat":35.784086,"lng":139.86703,"zip":"1250033"},{"town":"東水元四丁目","koaza":"","lat":35.788285,"lng":139.866406,"zip":"1250033"},{"town":"水元三丁目","koaza":"","lat":35.782495,"lng":139.863222,"zip":"1250032"},{"town":"南水元四丁目","koaza":"","lat":35.77857,"lng":139.863479,"zip":"1250035"},{"town":"東水元一丁目","koaza":"","lat":35.777122,"lng":139.868832,"zip":"1250033"},{"town":"東水元五丁目","koaza":"","lat":35.791762,"lng":139.865104,"zip":"1250033"},{"town":"東水元六丁目","koaza":"","lat":35.792454,"lng":139.86114,"zip":"1250033"},{"town":"水元二丁目","koaza":"","lat":35.785637,"lng":139.857117,"zip":"1250032"},{"town":"西水元六丁目","koaza":"","lat":35.789795,"lng":139.855981,"zip":"1250031"},{"town":"南水元二丁目","koaza":"","lat":35.777659,"lng":139.856057,"zip":"1250035"},{"town":"水元四丁目","koaza":"","lat":35.786591,"lng":139.862399,"zip":"1250032"},{"town":"水元五丁目","koaza":"","lat":35.790214,"lng":139.860256,"zip":"1250032"},{"town":"西水元五丁目","koaza":"","lat":35.786321,"lng":139.854239,"zip":"1250031"},{"town":"西水元二丁目","koaza":"","lat":35.785738,"lng":139.849615,"zip":"1250031"},{"town":"西水元一丁目","koaza":"","lat":35.78154,"lng":139.850646,"zip":"1250031"},{"town":"水元一丁目","koaza":"","lat":35.781891,"lng":139.856849,"zip":"1250032"},{"town":"西水元三丁目","koaza":"","lat":35.789719,"lng":139.848574,"zip":"1250031"},{"town":"西水元四丁目","koaza":"","lat":35.794152,"lng":139.847194,"zip":"1250031"}]