[{"town":"大字殿ケ谷","koaza":"","lat":35.761085,"lng":139.358706,"zip":"1901200"},{"town":"大字高根","koaza":"","lat":35.782904,"lng":139.362482,"zip":"1901200"},{"town":"大字石畑","koaza":"","lat":35.777275,"lng":139.366331,"zip":"1901200"},{"town":"むさし野三丁目","koaza":"","lat":35.760039,"lng":139.342198,"zip":"1901214"},{"town":"大字長岡下師岡","koaza":"","lat":35.783594,"lng":139.323393,"zip":"1901200"},{"town":"南平一丁目","koaza":"","lat":35.76753,"lng":139.341023,"zip":"1901224"},{"town":"南平二丁目","koaza":"","lat":35.765738,"lng":139.338636,"zip":"1901224"},{"town":"箱根ケ崎東松原","koaza":"","lat":35.772606,"lng":139.339468,"zip":"1901222"},{"town":"長岡四丁目","koaza":"","lat":35.778472,"lng":139.327378,"zip":"1901232"},{"town":"むさし野二丁目","koaza":"","lat":35.759134,"lng":139.33892,"zip":"1901214"},{"town":"むさし野一丁目","koaza":"","lat":35.762084,"lng":139.338576,"zip":"1901214"},{"town":"長岡二丁目","koaza":"","lat":35.773803,"lng":139.330073,"zip":"1901232"},{"town":"箱根ケ崎西松原","koaza":"","lat":35.770392,"lng":139.335787,"zip":"1901223"},{"town":"大字武蔵","koaza":"","lat":35.762783,"lng":139.352408,"zip":"1901200"},{"town":"長岡一丁目","koaza":"","lat":35.77597,"lng":139.333329,"zip":"1901232"},{"town":"長岡三丁目","koaza":"","lat":35.775754,"lng":139.325507,"zip":"1901232"},{"town":"大字駒形富士山","koaza":"","lat":35.783316,"lng":139.353281,"zip":"1901200"},{"town":"大字二本木","koaza":"","lat":35.791095,"lng":139.353454,"zip":"1901200"},{"town":"大字長岡藤橋","koaza":"","lat":35.787575,"lng":139.3215,"zip":"1901200"},{"town":"大字長岡長谷部","koaza":"","lat":35.784296,"lng":139.327179,"zip":"1901200"},{"town":"大字箱根ケ崎","koaza":"","lat":35.778725,"lng":139.341994,"zip":"1901200"},{"town":"大字富士山栗原新田","koaza":"","lat":35.788841,"lng":139.343792,"zip":"1901200"}]