[{"town":"北町一丁目","koaza":"","lat":35.75307,"lng":139.55756,"zip":"2020003"},{"town":"下保谷三丁目","koaza":"","lat":35.753456,"lng":139.565354,"zip":"2020004"},{"town":"下保谷二丁目","koaza":"","lat":35.751828,"lng":139.55885,"zip":"2020004"},{"town":"栄町二丁目","koaza":"","lat":35.751638,"lng":139.553248,"zip":"2020006"},{"town":"ひばりが丘北一丁目","koaza":"","lat":35.751416,"lng":139.549778,"zip":"2020002"},{"town":"ひばりが丘北四丁目","koaza":"","lat":35.753444,"lng":139.54453,"zip":"2020002"},{"town":"ひばりが丘北二丁目","koaza":"","lat":35.754495,"lng":139.551317,"zip":"2020002"},{"town":"ひばりが丘北三丁目","koaza":"","lat":35.752274,"lng":139.546589,"zip":"2020002"},{"town":"北町六丁目","koaza":"","lat":35.755087,"lng":139.560511,"zip":"2020003"},{"town":"栄町三丁目","koaza":"","lat":35.753479,"lng":139.554233,"zip":"2020006"},{"town":"新町五丁目","koaza":"","lat":35.713915,"lng":139.534602,"zip":"2020023"},{"town":"新町二丁目","koaza":"","lat":35.715618,"lng":139.542849,"zip":"2020023"},{"town":"新町三丁目","koaza":"","lat":35.715041,"lng":139.539368,"zip":"2020023"},{"town":"新町四丁目","koaza":"","lat":35.7131,"lng":139.538741,"zip":"2020023"},{"town":"東伏見六丁目","koaza":"","lat":35.725152,"lng":139.559943,"zip":"2020021"},{"town":"東伏見四丁目","koaza":"","lat":35.72286,"lng":139.563042,"zip":"2020021"},{"town":"東伏見五丁目","koaza":"","lat":35.723277,"lng":139.559065,"zip":"2020021"},{"town":"柳沢二丁目","koaza":"","lat":35.724081,"lng":139.554659,"zip":"2020022"},{"town":"柳沢三丁目","koaza":"","lat":35.720999,"lng":139.553259,"zip":"2020022"},{"town":"柳沢五丁目","koaza":"","lat":35.724281,"lng":139.55046,"zip":"2020022"},{"town":"新町一丁目","koaza":"","lat":35.716816,"lng":139.54638,"zip":"2020023"},{"town":"柳沢四丁目","koaza":"","lat":35.719307,"lng":139.550853,"zip":"2020022"},{"town":"柳沢一丁目","koaza":"","lat":35.726799,"lng":139.554559,"zip":"2020022"},{"town":"向台町二丁目","koaza":"","lat":35.719286,"lng":139.541201,"zip":"1880013"},{"town":"向台町一丁目","koaza":"","lat":35.720467,"lng":139.546143,"zip":"1880013"},{"town":"南町二丁目","koaza":"","lat":35.724364,"lng":139.54708,"zip":"1880012"},{"town":"南町一丁目","koaza":"","lat":35.726283,"lng":139.547073,"zip":"1880012"},{"town":"南町三丁目","koaza":"","lat":35.724839,"lng":139.543303,"zip":"1880012"},{"town":"南町四丁目","koaza":"","lat":35.72473,"lng":139.540304,"zip":"1880012"},{"town":"新町六丁目","koaza":"","lat":35.715124,"lng":139.531096,"zip":"2020023"},{"town":"向台町三丁目","koaza":"","lat":35.719435,"lng":139.537756,"zip":"1880013"},{"town":"向台町四丁目","koaza":"","lat":35.719704,"lng":139.533619,"zip":"1880013"},{"town":"南町五丁目","koaza":"","lat":35.724613,"lng":139.536892,"zip":"1880012"},{"town":"田無町二丁目","koaza":"","lat":35.728348,"lng":139.543477,"zip":"1880011"},{"town":"南町六丁目","koaza":"","lat":35.724513,"lng":139.532442,"zip":"1880012"},{"town":"向台町五丁目","koaza":"","lat":35.720249,"lng":139.529557,"zip":"1880013"},{"town":"向台町六丁目","koaza":"","lat":35.720073,"lng":139.526209,"zip":"1880013"},{"town":"芝久保町一丁目","koaza":"","lat":35.724193,"lng":139.525995,"zip":"1880014"},{"town":"東伏見二丁目","koaza":"","lat":35.727299,"lng":139.561143,"zip":"2020021"},{"town":"東伏見三丁目","koaza":"","lat":35.72581,"lng":139.564202,"zip":"2020021"},{"town":"富士町四丁目","koaza":"","lat":35.730239,"lng":139.564855,"zip":"2020014"},{"town":"富士町五丁目","koaza":"","lat":35.73041,"lng":139.561104,"zip":"2020014"},{"town":"東伏見一丁目","koaza":"","lat":35.727147,"lng":139.557429,"zip":"2020021"},{"town":"富士町六丁目","koaza":"","lat":35.730421,"lng":139.55818,"zip":"2020014"},{"town":"富士町三丁目","koaza":"","lat":35.732766,"lng":139.5667,"zip":"2020014"},{"town":"富士町二丁目","koaza":"","lat":35.734167,"lng":139.565942,"zip":"2020014"},{"town":"中町五丁目","koaza":"","lat":35.737137,"lng":139.561206,"zip":"2020013"},{"town":"柳沢六丁目","koaza":"","lat":35.727265,"lng":139.551117,"zip":"2020022"},{"town":"保谷町四丁目","koaza":"","lat":35.730001,"lng":139.548776,"zip":"2020015"},{"town":"保谷町二丁目","koaza":"","lat":35.7304,"lng":139.555478,"zip":"2020015"},{"town":"富士町一丁目","koaza":"","lat":35.733653,"lng":139.560241,"zip":"2020014"},{"town":"中町六丁目","koaza":"","lat":35.737089,"lng":139.557555,"zip":"2020013"},{"town":"保谷町五丁目","koaza":"","lat":35.734197,"lng":139.54876,"zip":"2020015"},{"town":"保谷町三丁目","koaza":"","lat":35.730196,"lng":139.552544,"zip":"2020015"},{"town":"保谷町一丁目","koaza":"","lat":35.735203,"lng":139.555401,"zip":"2020015"},{"town":"田無町一丁目","koaza":"","lat":35.72998,"lng":139.54579,"zip":"1880011"},{"town":"北原町三丁目","koaza":"","lat":35.735178,"lng":139.542454,"zip":"1880003"},{"town":"西原町三丁目","koaza":"","lat":35.736359,"lng":139.532687,"zip":"1880004"},{"town":"田無町四丁目","koaza":"","lat":35.728484,"lng":139.537153,"zip":"1880011"},{"town":"田無町三丁目","koaza":"","lat":35.730275,"lng":139.542123,"zip":"1880011"},{"town":"西原町一丁目","koaza":"","lat":35.733574,"lng":139.537462,"zip":"1880004"},{"town":"西原町二丁目","koaza":"","lat":35.734595,"lng":139.534599,"zip":"1880004"},{"town":"芝久保町四丁目","koaza":"","lat":35.731392,"lng":139.522055,"zip":"1880014"},{"town":"田無町六丁目","koaza":"","lat":35.728848,"lng":139.532733,"zip":"1880011"},{"town":"田無町七丁目","koaza":"","lat":35.731965,"lng":139.532957,"zip":"1880011"},{"town":"田無町五丁目","koaza":"","lat":35.730988,"lng":139.53807,"zip":"1880011"},{"town":"芝久保町二丁目","koaza":"","lat":35.72731,"lng":139.527935,"zip":"1880014"},{"town":"芝久保町三丁目","koaza":"","lat":35.728289,"lng":139.522534,"zip":"1880014"},{"town":"中町四丁目","koaza":"","lat":35.736909,"lng":139.56493,"zip":"2020013"},{"town":"東町五丁目","koaza":"","lat":35.738222,"lng":139.56703,"zip":"2020012"},{"town":"東町四丁目","koaza":"","lat":35.743898,"lng":139.566795,"zip":"2020012"},{"town":"中町一丁目","koaza":"","lat":35.740231,"lng":139.558222,"zip":"2020013"},{"town":"中町三丁目","koaza":"","lat":35.739915,"lng":139.561957,"zip":"2020013"},{"town":"東町六丁目","koaza":"","lat":35.740603,"lng":139.5648,"zip":"2020012"},{"town":"東町一丁目","koaza":"","lat":35.744255,"lng":139.562799,"zip":"2020012"},{"town":"中町二丁目","koaza":"","lat":35.742772,"lng":139.560594,"zip":"2020013"},{"town":"東町三丁目","koaza":"","lat":35.74618,"lng":139.564966,"zip":"2020012"},{"town":"下保谷四丁目","koaza":"","lat":35.750024,"lng":139.566125,"zip":"2020004"},{"town":"緑町二丁目","koaza":"","lat":35.739412,"lng":139.535255,"zip":"1880002"},{"town":"下保谷五丁目","koaza":"","lat":35.750062,"lng":139.562417,"zip":"2020004"},{"town":"泉町五丁目","koaza":"","lat":35.743165,"lng":139.556893,"zip":"2020011"},{"town":"泉町一丁目","koaza":"","lat":35.737914,"lng":139.548538,"zip":"2020011"},{"town":"保谷町六丁目","koaza":"","lat":35.734526,"lng":139.552594,"zip":"2020015"},{"town":"泉町三丁目","koaza":"","lat":35.739803,"lng":139.554274,"zip":"2020011"},{"town":"泉町二丁目","koaza":"","lat":35.739911,"lng":139.550566,"zip":"2020011"},{"town":"泉町四丁目","koaza":"","lat":35.743042,"lng":139.553005,"zip":"2020011"},{"town":"住吉町六丁目","koaza":"","lat":35.74507,"lng":139.551767,"zip":"2020005"},{"town":"泉町六丁目","koaza":"","lat":35.745469,"lng":139.557577,"zip":"2020011"},{"town":"東町二丁目","koaza":"","lat":35.746121,"lng":139.561289,"zip":"2020012"},{"town":"住吉町五丁目","koaza":"","lat":35.746309,"lng":139.555119,"zip":"2020005"},{"town":"下保谷一丁目","koaza":"","lat":35.74916,"lng":139.55924,"zip":"2020004"},{"town":"緑町三丁目","koaza":"","lat":35.741017,"lng":139.540832,"zip":"1880002"},{"town":"緑町一丁目","koaza":"","lat":35.736792,"lng":139.539345,"zip":"1880002"},{"town":"北原町二丁目","koaza":"","lat":35.735963,"lng":139.544371,"zip":"1880003"},{"town":"北原町一丁目","koaza":"","lat":35.735164,"lng":139.545967,"zip":"1880003"},{"town":"住吉町一丁目","koaza":"","lat":35.741854,"lng":139.548891,"zip":"2020005"},{"town":"谷戸町一丁目","koaza":"","lat":35.741477,"lng":139.545413,"zip":"1880001"},{"town":"谷戸町三丁目","koaza":"","lat":35.746786,"lng":139.544765,"zip":"1880001"},{"town":"住吉町二丁目","koaza":"","lat":35.746784,"lng":139.548081,"zip":"2020005"},{"town":"住吉町四丁目","koaza":"","lat":35.747582,"lng":139.551819,"zip":"2020005"},{"town":"栄町一丁目","koaza":"","lat":35.749419,"lng":139.55404,"zip":"2020006"},{"town":"ひばりが丘二丁目","koaza":"","lat":35.747571,"lng":139.538924,"zip":"2020001"},{"town":"谷戸町二丁目","koaza":"","lat":35.746005,"lng":139.541284,"zip":"1880001"},{"town":"住吉町三丁目","koaza":"","lat":35.74952,"lng":139.547868,"zip":"2020005"},{"town":"ひばりが丘一丁目","koaza":"","lat":35.750959,"lng":139.542175,"zip":"2020001"},{"town":"ひばりが丘三丁目","koaza":"","lat":35.744534,"lng":139.535246,"zip":"2020001"},{"town":"西原町四丁目","koaza":"","lat":35.737178,"lng":139.528568,"zip":"1880004"},{"town":"西原町五丁目","koaza":"","lat":35.739212,"lng":139.533303,"zip":"1880004"},{"town":"ひばりが丘四丁目","koaza":"","lat":35.742651,"lng":139.530645,"zip":"2020001"},{"town":"芝久保町五丁目","koaza":"","lat":35.732881,"lng":139.525281,"zip":"1880014"},{"town":"北町四丁目","koaza":"","lat":35.759361,"lng":139.563096,"zip":"2020003"},{"town":"北町三丁目","koaza":"","lat":35.75753,"lng":139.559525,"zip":"2020003"},{"town":"北町五丁目","koaza":"","lat":35.756077,"lng":139.563839,"zip":"2020003"},{"town":"北町二丁目","koaza":"","lat":35.756685,"lng":139.556982,"zip":"2020003"}]