[{"town":"国領町","koaza":"","lat":35.636327,"lng":139.556512,"zip":"1820022"},{"town":"下布田町","koaza":"","lat":35.636501,"lng":139.549646,"zip":"1820000"},{"town":"上布田町","koaza":"","lat":35.639302,"lng":139.545331,"zip":"1820000"},{"town":"小島町","koaza":"","lat":35.640634,"lng":139.538103,"zip":"1820026"},{"town":"下石原","koaza":"","lat":35.643106,"lng":139.529039,"zip":"1820034"},{"town":"上石原","koaza":"","lat":35.648754,"lng":139.522076,"zip":"1820035"},{"town":"深大寺東町一丁目","koaza":"","lat":35.670206,"lng":139.55756,"zip":"1820012"},{"town":"深大寺東町三丁目","koaza":"","lat":35.668076,"lng":139.563466,"zip":"1820012"},{"town":"深大寺東町四丁目","koaza":"","lat":35.671677,"lng":139.561514,"zip":"1820012"},{"town":"深大寺元町四丁目","koaza":"","lat":35.669769,"lng":139.542996,"zip":"1820017"},{"town":"深大寺元町五丁目","koaza":"","lat":35.669219,"lng":139.549653,"zip":"1820017"},{"town":"緑ケ丘二丁目","koaza":"","lat":35.668229,"lng":139.585631,"zip":"1820001"},{"town":"緑ケ丘一丁目","koaza":"","lat":35.668376,"lng":139.580444,"zip":"1820001"},{"town":"西町","koaza":"","lat":35.666945,"lng":139.528461,"zip":"1820032"},{"town":"佐須町二丁目","koaza":"","lat":35.660076,"lng":139.554033,"zip":"1820016"},{"town":"佐須町四丁目","koaza":"","lat":35.657648,"lng":139.557957,"zip":"1820016"},{"town":"佐須町三丁目","koaza":"","lat":35.657349,"lng":139.553585,"zip":"1820016"},{"town":"柴崎一丁目","koaza":"","lat":35.657009,"lng":139.562968,"zip":"1820014"},{"town":"八雲台二丁目","koaza":"","lat":35.654022,"lng":139.559258,"zip":"1820015"},{"town":"入間町三丁目","koaza":"","lat":35.647766,"lng":139.589933,"zip":"1820004"},{"town":"染地二丁目","koaza":"","lat":35.640622,"lng":139.552062,"zip":"1820023"},{"town":"染地三丁目","koaza":"","lat":35.639561,"lng":139.558768,"zip":"1820023"},{"town":"国領町六丁目","koaza":"","lat":35.644818,"lng":139.553653,"zip":"1820022"},{"town":"国領町三丁目","koaza":"","lat":35.649614,"lng":139.560117,"zip":"1820022"},{"town":"国領町七丁目","koaza":"","lat":35.643892,"lng":139.56028,"zip":"1820022"},{"town":"国領町五丁目","koaza":"","lat":35.647717,"lng":139.553352,"zip":"1820022"},{"town":"国領町四丁目","koaza":"","lat":35.647558,"lng":139.558156,"zip":"1820022"},{"town":"国領町八丁目","koaza":"","lat":35.647732,"lng":139.564078,"zip":"1820022"},{"town":"多摩川六丁目","koaza":"","lat":35.643509,"lng":139.541763,"zip":"1820025"},{"town":"布田六丁目","koaza":"","lat":35.645436,"lng":139.548007,"zip":"1820024"},{"town":"布田五丁目","koaza":"","lat":35.645693,"lng":139.543306,"zip":"1820024"},{"town":"染地一丁目","koaza":"","lat":35.64208,"lng":139.547221,"zip":"1820023"},{"town":"多摩川五丁目","koaza":"","lat":35.642587,"lng":139.536897,"zip":"1820025"},{"town":"多摩川七丁目","koaza":"","lat":35.640693,"lng":139.542439,"zip":"1820025"},{"town":"多摩川三丁目","koaza":"","lat":35.645686,"lng":139.530905,"zip":"1820025"},{"town":"多摩川四丁目","koaza":"","lat":35.64329,"lng":139.533126,"zip":"1820025"},{"town":"入間町二丁目","koaza":"","lat":35.649082,"lng":139.58496,"zip":"1820004"},{"town":"若葉町三丁目","koaza":"","lat":35.653794,"lng":139.584076,"zip":"1820003"},{"town":"入間町一丁目","koaza":"","lat":35.652493,"lng":139.588664,"zip":"1820004"},{"town":"若葉町二丁目","koaza":"","lat":35.65734,"lng":139.588136,"zip":"1820003"},{"town":"若葉町一丁目","koaza":"","lat":35.65803,"lng":139.582881,"zip":"1820003"},{"town":"東つつじケ丘三丁目","koaza":"","lat":35.652653,"lng":139.580525,"zip":"1820005"},{"town":"仙川町一丁目","koaza":"","lat":35.66088,"lng":139.585596,"zip":"1820002"},{"town":"東つつじケ丘二丁目","koaza":"","lat":35.657279,"lng":139.577725,"zip":"1820005"},{"town":"東つつじケ丘一丁目","koaza":"","lat":35.659826,"lng":139.57739,"zip":"1820005"},{"town":"菊野台三丁目","koaza":"","lat":35.652595,"lng":139.571144,"zip":"1820007"},{"town":"布田二丁目","koaza":"","lat":35.652152,"lng":139.549112,"zip":"1820024"},{"town":"西つつじケ丘四丁目","koaza":"","lat":35.653368,"lng":139.575433,"zip":"1820006"},{"town":"西つつじケ丘三丁目","koaza":"","lat":35.657496,"lng":139.571871,"zip":"1820006"},{"town":"西つつじケ丘二丁目","koaza":"","lat":35.661675,"lng":139.57238,"zip":"1820006"},{"town":"菊野台二丁目","koaza":"","lat":35.651546,"lng":139.566406,"zip":"1820007"},{"town":"国領町二丁目","koaza":"","lat":35.651682,"lng":139.559226,"zip":"1820022"},{"town":"菊野台一丁目","koaza":"","lat":35.655546,"lng":139.566985,"zip":"1820007"},{"town":"仙川町二丁目","koaza":"","lat":35.662948,"lng":139.581477,"zip":"1820002"},{"town":"仙川町三丁目","koaza":"","lat":35.664106,"lng":139.585102,"zip":"1820002"},{"town":"佐須町五丁目","koaza":"","lat":35.661457,"lng":139.560668,"zip":"1820016"},{"town":"深大寺南町三丁目","koaza":"","lat":35.664587,"lng":139.560283,"zip":"1820013"},{"town":"深大寺南町二丁目","koaza":"","lat":35.662214,"lng":139.557921,"zip":"1820013"},{"town":"柴崎二丁目","koaza":"","lat":35.662181,"lng":139.564909,"zip":"1820014"},{"town":"西つつじケ丘一丁目","koaza":"","lat":35.660936,"lng":139.569348,"zip":"1820006"},{"town":"国領町一丁目","koaza":"","lat":35.651385,"lng":139.553983,"zip":"1820022"},{"town":"八雲台一丁目","koaza":"","lat":35.654717,"lng":139.554447,"zip":"1820015"},{"town":"布田三丁目","koaza":"","lat":35.648897,"lng":139.548616,"zip":"1820024"},{"town":"布田四丁目","koaza":"","lat":35.649755,"lng":139.544838,"zip":"1820024"},{"town":"小島町三丁目","koaza":"","lat":35.647834,"lng":139.539103,"zip":"1820026"},{"town":"小島町二丁目","koaza":"","lat":35.651039,"lng":139.540241,"zip":"1820026"},{"town":"布田一丁目","koaza":"","lat":35.653183,"lng":139.545652,"zip":"1820024"},{"town":"佐須町一丁目","koaza":"","lat":35.661539,"lng":139.551382,"zip":"1820016"},{"town":"深大寺南町一丁目","koaza":"","lat":35.662214,"lng":139.55512,"zip":"1820013"},{"town":"深大寺南町五丁目","koaza":"","lat":35.667619,"lng":139.556343,"zip":"1820013"},{"town":"深大寺南町四丁目","koaza":"","lat":35.665005,"lng":139.555604,"zip":"1820013"},{"town":"深大寺東町二丁目","koaza":"","lat":35.667702,"lng":139.560501,"zip":"1820012"},{"town":"調布ケ丘二丁目","koaza":"","lat":35.655227,"lng":139.5499,"zip":"1820021"},{"town":"深大寺元町一丁目","koaza":"","lat":35.66384,"lng":139.544853,"zip":"1820017"},{"town":"小島町一丁目","koaza":"","lat":35.654304,"lng":139.541507,"zip":"1820026"},{"town":"下石原二丁目","koaza":"","lat":35.653638,"lng":139.534998,"zip":"1820034"},{"town":"富士見町一丁目","koaza":"","lat":35.6602,"lng":139.53539,"zip":"1820033"},{"town":"富士見町二丁目","koaza":"","lat":35.658915,"lng":139.540462,"zip":"1820033"},{"town":"下石原一丁目","koaza":"","lat":35.656656,"lng":139.536065,"zip":"1820034"},{"town":"上石原一丁目","koaza":"","lat":35.658982,"lng":139.530182,"zip":"1820035"},{"town":"深大寺元町三丁目","koaza":"","lat":35.665704,"lng":139.545719,"zip":"1820017"},{"town":"富士見町三丁目","koaza":"","lat":35.662883,"lng":139.540672,"zip":"1820033"},{"town":"調布ケ丘三丁目","koaza":"","lat":35.658935,"lng":139.549209,"zip":"1820021"},{"town":"深大寺元町二丁目","koaza":"","lat":35.663887,"lng":139.550292,"zip":"1820017"},{"town":"上石原三丁目","koaza":"","lat":35.651703,"lng":139.523937,"zip":"1820035"},{"town":"上石原二丁目","koaza":"","lat":35.655678,"lng":139.528221,"zip":"1820035"},{"town":"下石原三丁目","koaza":"","lat":35.65073,"lng":139.533894,"zip":"1820034"},{"town":"調布ケ丘一丁目","koaza":"","lat":35.657327,"lng":139.545124,"zip":"1820021"},{"town":"調布ケ丘四丁目","koaza":"","lat":35.66128,"lng":139.54497,"zip":"1820021"},{"town":"富士見町四丁目","koaza":"","lat":35.665296,"lng":139.535988,"zip":"1820033"},{"town":"多摩川二丁目","koaza":"","lat":35.646466,"lng":139.525504,"zip":"1820025"},{"town":"多摩川一丁目","koaza":"","lat":35.650181,"lng":139.528523,"zip":"1820025"},{"town":"飛田給二丁目","koaza":"","lat":35.658766,"lng":139.522836,"zip":"1820036"},{"town":"飛田給一丁目","koaza":"","lat":35.661605,"lng":139.52404,"zip":"1820036"},{"town":"飛田給三丁目","koaza":"","lat":35.656037,"lng":139.520725,"zip":"1820036"},{"town":"深大寺東町五丁目","koaza":"","lat":35.673366,"lng":139.556247,"zip":"1820012"},{"town":"深大寺東町六丁目","koaza":"","lat":35.675433,"lng":139.557548,"zip":"1820012"},{"town":"深大寺北町一丁目","koaza":"","lat":35.674399,"lng":139.547756,"zip":"1820011"},{"town":"深大寺北町二丁目","koaza":"","lat":35.673482,"lng":139.552025,"zip":"1820011"},{"town":"深大寺北町七丁目","koaza":"","lat":35.674819,"lng":139.543846,"zip":"1820011"},{"town":"深大寺東町八丁目","koaza":"","lat":35.679729,"lng":139.555711,"zip":"1820012"},{"town":"深大寺東町七丁目","koaza":"","lat":35.678258,"lng":139.559338,"zip":"1820012"},{"town":"深大寺北町六丁目","koaza":"","lat":35.679205,"lng":139.545105,"zip":"1820011"},{"town":"深大寺北町三丁目","koaza":"","lat":35.676637,"lng":139.550064,"zip":"1820011"},{"town":"深大寺北町四丁目","koaza":"","lat":35.678958,"lng":139.553013,"zip":"1820011"},{"town":"深大寺北町五丁目","koaza":"","lat":35.679062,"lng":139.549601,"zip":"1820011"},{"town":"野水一丁目","koaza":"","lat":35.681836,"lng":139.524426,"zip":"1820031"},{"town":"野水二丁目","koaza":"","lat":35.685314,"lng":139.524597,"zip":"1820031"}]