[{"town":"千住橋戸町","koaza":"","lat":35.740193,"lng":139.797811,"zip":"1200038"},{"town":"千住緑町一丁目","koaza":"","lat":35.742577,"lng":139.792502,"zip":"1200044"},{"town":"千住河原町","koaza":"","lat":35.743103,"lng":139.798787,"zip":"1200037"},{"town":"千住五丁目","koaza":"","lat":35.756268,"lng":139.804677,"zip":"1200034"},{"town":"千住桜木一丁目","koaza":"","lat":35.751393,"lng":139.792051,"zip":"1200045"},{"town":"千住旭町","koaza":"","lat":35.748874,"lng":139.80716,"zip":"1200026"},{"town":"日ノ出町","koaza":"","lat":35.753521,"lng":139.810519,"zip":"1200021"},{"town":"千住柳町","koaza":"","lat":35.753791,"lng":139.796347,"zip":"1200032"},{"town":"千住寿町","koaza":"","lat":35.753088,"lng":139.799171,"zip":"1200033"},{"town":"千住四丁目","koaza":"","lat":35.753395,"lng":139.803278,"zip":"1200034"},{"town":"千住元町","koaza":"","lat":35.756114,"lng":139.791734,"zip":"1200041"},{"town":"千住桜木二丁目","koaza":"","lat":35.755361,"lng":139.786461,"zip":"1200045"},{"town":"鹿浜一丁目","koaza":"","lat":35.776167,"lng":139.748476,"zip":"1230864"},{"town":"新田三丁目","koaza":"","lat":35.771394,"lng":139.748646,"zip":"1230865"},{"town":"鹿浜二丁目","koaza":"","lat":35.781856,"lng":139.747084,"zip":"1230864"},{"town":"柳原二丁目","koaza":"","lat":35.748855,"lng":139.813804,"zip":"1200022"},{"town":"千住仲町","koaza":"","lat":35.744983,"lng":139.800544,"zip":"1200036"},{"town":"柳原一丁目","koaza":"","lat":35.745585,"lng":139.815065,"zip":"1200022"},{"town":"千住関屋町","koaza":"","lat":35.741334,"lng":139.806568,"zip":"1200024"},{"town":"千住曙町","koaza":"","lat":35.741828,"lng":139.814018,"zip":"1200023"},{"town":"千住東一丁目","koaza":"","lat":35.745027,"lng":139.804524,"zip":"1200025"},{"town":"千住東二丁目","koaza":"","lat":35.745471,"lng":139.808241,"zip":"1200025"},{"town":"千住宮元町","koaza":"","lat":35.746798,"lng":139.796199,"zip":"1200043"},{"town":"千住一丁目","koaza":"","lat":35.747835,"lng":139.801407,"zip":"1200034"},{"town":"千住三丁目","koaza":"","lat":35.751635,"lng":139.802709,"zip":"1200034"},{"town":"千住二丁目","koaza":"","lat":35.74958,"lng":139.801967,"zip":"1200034"},{"town":"千住中居町","koaza":"","lat":35.749437,"lng":139.79773,"zip":"1200035"},{"town":"千住緑町二丁目","koaza":"","lat":35.744936,"lng":139.792197,"zip":"1200044"},{"town":"千住緑町三丁目","koaza":"","lat":35.747166,"lng":139.79246,"zip":"1200044"},{"town":"千住龍田町","koaza":"","lat":35.75121,"lng":139.795375,"zip":"1200042"},{"town":"入谷町","koaza":"","lat":35.799708,"lng":139.770524,"zip":"1210834"},{"town":"舎人町","koaza":"","lat":35.800709,"lng":139.770703,"zip":"1210835"},{"town":"西竹の塚二丁目","koaza":"","lat":35.796069,"lng":139.789875,"zip":"1210822"},{"town":"大谷田三丁目","koaza":"","lat":35.778755,"lng":139.841164,"zip":"1200001"},{"town":"伊興本町二丁目","koaza":"","lat":35.801178,"lng":139.788121,"zip":"1210807"},{"town":"江北一丁目","koaza":"","lat":35.769804,"lng":139.768329,"zip":"1230872"},{"town":"中川三丁目","koaza":"","lat":35.771376,"lng":139.854087,"zip":"1200002"},{"town":"中川一丁目","koaza":"","lat":35.76621,"lng":139.855077,"zip":"1200002"},{"town":"大谷田四丁目","koaza":"","lat":35.778912,"lng":139.838128,"zip":"1200001"},{"town":"谷中三丁目","koaza":"","lat":35.779211,"lng":139.834924,"zip":"1200006"},{"town":"中川二丁目","koaza":"","lat":35.769147,"lng":139.855327,"zip":"1200002"},{"town":"東和三丁目","koaza":"","lat":35.771717,"lng":139.837921,"zip":"1200003"},{"town":"東和五丁目","koaza":"","lat":35.775235,"lng":139.838226,"zip":"1200003"},{"town":"綾瀬二丁目","koaza":"","lat":35.759926,"lng":139.828332,"zip":"1200005"},{"town":"綾瀬三丁目","koaza":"","lat":35.764004,"lng":139.826444,"zip":"1200005"},{"town":"東綾瀬一丁目","koaza":"","lat":35.764485,"lng":139.832352,"zip":"1200004"},{"town":"綾瀬五丁目","koaza":"","lat":35.767511,"lng":139.826795,"zip":"1200005"},{"town":"東綾瀬二丁目","koaza":"","lat":35.767486,"lng":139.831897,"zip":"1200004"},{"town":"東和四丁目","koaza":"","lat":35.773291,"lng":139.841935,"zip":"1200003"},{"town":"東和一丁目","koaza":"","lat":35.766668,"lng":139.837754,"zip":"1200003"},{"town":"東綾瀬三丁目","koaza":"","lat":35.770916,"lng":139.833559,"zip":"1200004"},{"town":"東和二丁目","koaza":"","lat":35.768813,"lng":139.841969,"zip":"1200003"},{"town":"中川四丁目","koaza":"","lat":35.771442,"lng":139.846681,"zip":"1200002"},{"town":"谷中一丁目","koaza":"","lat":35.77249,"lng":139.832129,"zip":"1200006"},{"town":"谷中二丁目","koaza":"","lat":35.775863,"lng":139.832888,"zip":"1200006"},{"town":"加平二丁目","koaza":"","lat":35.780366,"lng":139.826296,"zip":"1210055"},{"town":"西綾瀬三丁目","koaza":"","lat":35.764148,"lng":139.816971,"zip":"1200014"},{"town":"綾瀬一丁目","koaza":"","lat":35.758847,"lng":139.822005,"zip":"1200005"},{"town":"綾瀬四丁目","koaza":"","lat":35.765351,"lng":139.822318,"zip":"1200005"},{"town":"西綾瀬一丁目","koaza":"","lat":35.76061,"lng":139.815179,"zip":"1200014"},{"town":"青井三丁目","koaza":"","lat":35.771768,"lng":139.819242,"zip":"1200012"},{"town":"千住大川町","koaza":"","lat":35.757149,"lng":139.79809,"zip":"1200031"},{"town":"弘道二丁目","koaza":"","lat":35.768347,"lng":139.818147,"zip":"1200013"},{"town":"西綾瀬四丁目","koaza":"","lat":35.764887,"lng":139.819617,"zip":"1200014"},{"town":"青井四丁目","koaza":"","lat":35.774982,"lng":139.819686,"zip":"1200012"},{"town":"加平一丁目","koaza":"","lat":35.775903,"lng":139.826866,"zip":"1210055"},{"town":"西加平一丁目","koaza":"","lat":35.779153,"lng":139.822588,"zip":"1210074"},{"town":"青井一丁目","koaza":"","lat":35.774083,"lng":139.812714,"zip":"1200012"},{"town":"足立二丁目","koaza":"","lat":35.758779,"lng":139.81049,"zip":"1200015"},{"town":"梅田三丁目","koaza":"","lat":35.763036,"lng":139.79696,"zip":"1230851"},{"town":"梅田一丁目","koaza":"","lat":35.762166,"lng":139.801593,"zip":"1230851"},{"town":"足立一丁目","koaza":"","lat":35.761522,"lng":139.805576,"zip":"1200015"},{"town":"中央本町二丁目","koaza":"","lat":35.769019,"lng":139.807742,"zip":"1200011"},{"town":"足立三丁目","koaza":"","lat":35.763981,"lng":139.810429,"zip":"1200015"},{"town":"西綾瀬二丁目","koaza":"","lat":35.763724,"lng":139.814163,"zip":"1200014"},{"town":"弘道一丁目","koaza":"","lat":35.768519,"lng":139.812339,"zip":"1200013"},{"town":"青井二丁目","koaza":"","lat":35.772297,"lng":139.814732,"zip":"1200012"},{"town":"梅田七丁目","koaza":"","lat":35.769553,"lng":139.800673,"zip":"1230851"},{"town":"足立四丁目","koaza":"","lat":35.766192,"lng":139.805789,"zip":"1200015"},{"town":"梅島一丁目","koaza":"","lat":35.772496,"lng":139.800703,"zip":"1210816"},{"town":"中央本町三丁目","koaza":"","lat":35.772271,"lng":139.808058,"zip":"1200011"},{"town":"梅田二丁目","koaza":"","lat":35.765632,"lng":139.801509,"zip":"1230851"},{"town":"梅田四丁目","koaza":"","lat":35.762929,"lng":139.793216,"zip":"1230851"},{"town":"梅田五丁目","koaza":"","lat":35.769298,"lng":139.794037,"zip":"1230851"},{"town":"梅田六丁目","koaza":"","lat":35.768341,"lng":139.79706,"zip":"1230851"},{"town":"梅田八丁目","koaza":"","lat":35.772921,"lng":139.795128,"zip":"1230851"},{"town":"関原二丁目","koaza":"","lat":35.766962,"lng":139.789046,"zip":"1230852"},{"town":"西新井栄町一丁目","koaza":"","lat":35.774025,"lng":139.788795,"zip":"1230843"},{"town":"本木東町","koaza":"","lat":35.766115,"lng":139.782345,"zip":"1230854"},{"town":"本木北町","koaza":"","lat":35.765318,"lng":139.779252,"zip":"1230857"},{"town":"興野一丁目","koaza":"","lat":35.769563,"lng":139.782365,"zip":"1230844"},{"town":"本木二丁目","koaza":"","lat":35.767596,"lng":139.785349,"zip":"1230853"},{"town":"関原三丁目","koaza":"","lat":35.771742,"lng":139.788709,"zip":"1230852"},{"town":"西新井栄町二丁目","koaza":"","lat":35.7766,"lng":139.788031,"zip":"1230843"},{"town":"西新井栄町三丁目","koaza":"","lat":35.776365,"lng":139.783343,"zip":"1230843"},{"town":"西新井本町四丁目","koaza":"","lat":35.772781,"lng":139.777998,"zip":"1230845"},{"town":"関原一丁目","koaza":"","lat":35.761855,"lng":139.789455,"zip":"1230852"},{"town":"本木西町","koaza":"","lat":35.760305,"lng":139.779444,"zip":"1230856"},{"town":"扇一丁目","koaza":"","lat":35.762366,"lng":139.774261,"zip":"1230873"},{"town":"小台一丁目","koaza":"","lat":35.755444,"lng":139.771557,"zip":"1200046"},{"town":"本木南町","koaza":"","lat":35.760899,"lng":139.781737,"zip":"1230855"},{"town":"本木一丁目","koaza":"","lat":35.761206,"lng":139.785729,"zip":"1230853"},{"town":"江北四丁目","koaza":"","lat":35.773847,"lng":139.766786,"zip":"1230872"},{"town":"興野二丁目","koaza":"","lat":35.768833,"lng":139.777366,"zip":"1230844"},{"town":"宮城二丁目","koaza":"","lat":35.761241,"lng":139.753108,"zip":"1200047"},{"town":"江北二丁目","koaza":"","lat":35.768191,"lng":139.763191,"zip":"1230872"},{"town":"堀之内一丁目","koaza":"","lat":35.774037,"lng":139.753907,"zip":"1230874"},{"town":"江北三丁目","koaza":"","lat":35.774461,"lng":139.761223,"zip":"1230872"},{"town":"扇二丁目","koaza":"","lat":35.763224,"lng":139.765885,"zip":"1230873"},{"town":"小台二丁目","koaza":"","lat":35.758417,"lng":139.759615,"zip":"1200046"},{"town":"中川五丁目","koaza":"","lat":35.774962,"lng":139.849435,"zip":"1200002"},{"town":"大谷田一丁目","koaza":"","lat":35.77854,"lng":139.846903,"zip":"1200001"},{"town":"大谷田二丁目","koaza":"","lat":35.782465,"lng":139.845017,"zip":"1200001"},{"town":"佐野一丁目","koaza":"","lat":35.787173,"lng":139.843499,"zip":"1210053"},{"town":"大谷田五丁目","koaza":"","lat":35.78373,"lng":139.839345,"zip":"1200001"},{"town":"加平三丁目","koaza":"","lat":35.780082,"lng":139.82902,"zip":"1210055"},{"town":"谷中五丁目","koaza":"","lat":35.783196,"lng":139.834949,"zip":"1200006"},{"town":"六木二丁目","koaza":"","lat":35.792553,"lng":139.842313,"zip":"1210052"},{"town":"辰沼一丁目","koaza":"","lat":35.785467,"lng":139.835066,"zip":"1210054"},{"town":"佐野二丁目","koaza":"","lat":35.787565,"lng":139.838744,"zip":"1210053"},{"town":"六木一丁目","koaza":"","lat":35.791125,"lng":139.837839,"zip":"1210052"},{"town":"谷中四丁目","koaza":"","lat":35.782042,"lng":139.832019,"zip":"1200006"},{"town":"辰沼二丁目","koaza":"","lat":35.789713,"lng":139.834325,"zip":"1210054"},{"town":"綾瀬六丁目","koaza":"","lat":35.77093,"lng":139.826063,"zip":"1200005"},{"town":"綾瀬七丁目","koaza":"","lat":35.773905,"lng":139.826534,"zip":"1200005"},{"town":"一ツ家四丁目","koaza":"","lat":35.780235,"lng":139.817408,"zip":"1210075"},{"town":"六町四丁目","koaza":"","lat":35.785655,"lng":139.822972,"zip":"1210073"},{"town":"西加平二丁目","koaza":"","lat":35.780116,"lng":139.820017,"zip":"1210074"},{"town":"神明南二丁目","koaza":"","lat":35.789237,"lng":139.832085,"zip":"1210057"},{"town":"北加平町","koaza":"","lat":35.784064,"lng":139.828437,"zip":"1210056"},{"town":"神明南一丁目","koaza":"","lat":35.788641,"lng":139.828751,"zip":"1210057"},{"town":"神明一丁目","koaza":"","lat":35.792802,"lng":139.829402,"zip":"1210051"},{"town":"南花畑三丁目","koaza":"","lat":35.792441,"lng":139.824996,"zip":"1210062"},{"town":"南花畑二丁目","koaza":"","lat":35.790927,"lng":139.819521,"zip":"1210062"},{"town":"青井五丁目","koaza":"","lat":35.776999,"lng":139.819844,"zip":"1200012"},{"town":"青井六丁目","koaza":"","lat":35.77687,"lng":139.81343,"zip":"1200012"},{"town":"中央本町四丁目","koaza":"","lat":35.775434,"lng":139.808267,"zip":"1200011"},{"town":"一ツ家三丁目","koaza":"","lat":35.780196,"lng":139.813414,"zip":"1210075"},{"town":"六町二丁目","koaza":"","lat":35.783237,"lng":139.81832,"zip":"1210073"},{"town":"六町一丁目","koaza":"","lat":35.782186,"lng":139.822913,"zip":"1210073"},{"town":"六町三丁目","koaza":"","lat":35.785898,"lng":139.818488,"zip":"1210073"},{"town":"南花畑一丁目","koaza":"","lat":35.787716,"lng":139.82441,"zip":"1210062"},{"town":"平野三丁目","koaza":"","lat":35.78446,"lng":139.807231,"zip":"1210076"},{"town":"中央本町一丁目","koaza":"","lat":35.772771,"lng":139.804417,"zip":"1200011"},{"town":"保塚町","koaza":"","lat":35.786674,"lng":139.812942,"zip":"1210072"},{"town":"一ツ家一丁目","koaza":"","lat":35.781838,"lng":139.809753,"zip":"1210075"},{"town":"一ツ家二丁目","koaza":"","lat":35.783317,"lng":139.813445,"zip":"1210075"},{"town":"平野二丁目","koaza":"","lat":35.783739,"lng":139.804188,"zip":"1210076"},{"town":"梅島三丁目","koaza":"","lat":35.775806,"lng":139.794888,"zip":"1210816"},{"town":"梅島二丁目","koaza":"","lat":35.77665,"lng":139.800335,"zip":"1210816"},{"town":"中央本町五丁目","koaza":"","lat":35.77781,"lng":139.807122,"zip":"1200011"},{"town":"平野一丁目","koaza":"","lat":35.779852,"lng":139.805621,"zip":"1210076"},{"town":"島根一丁目","koaza":"","lat":35.77926,"lng":139.799926,"zip":"1210815"},{"town":"島根二丁目","koaza":"","lat":35.782287,"lng":139.800268,"zip":"1210815"},{"town":"六月一丁目","koaza":"","lat":35.78691,"lng":139.800232,"zip":"1210814"},{"town":"東六月町","koaza":"","lat":35.787524,"lng":139.806009,"zip":"1210071"},{"town":"竹の塚三丁目","koaza":"","lat":35.790758,"lng":139.800143,"zip":"1210813"},{"town":"保木間一丁目","koaza":"","lat":35.790538,"lng":139.806494,"zip":"1210064"},{"town":"竹の塚四丁目","koaza":"","lat":35.793974,"lng":139.800052,"zip":"1210813"},{"town":"保木間二丁目","koaza":"","lat":35.793455,"lng":139.806234,"zip":"1210064"},{"town":"竹の塚二丁目","koaza":"","lat":35.791029,"lng":139.795441,"zip":"1210813"},{"town":"島根三丁目","koaza":"","lat":35.779603,"lng":139.794499,"zip":"1210815"},{"town":"栗原一丁目","koaza":"","lat":35.780414,"lng":139.789422,"zip":"1230842"},{"town":"島根四丁目","koaza":"","lat":35.782985,"lng":139.79454,"zip":"1210815"},{"town":"六月二丁目","koaza":"","lat":35.786418,"lng":139.795161,"zip":"1210814"},{"town":"西新井一丁目","koaza":"","lat":35.78031,"lng":139.781021,"zip":"1230841"},{"town":"栗原二丁目","koaza":"","lat":35.783516,"lng":139.789158,"zip":"1230842"},{"town":"竹の塚一丁目","koaza":"","lat":35.790869,"lng":139.791713,"zip":"1210813"},{"town":"六月三丁目","koaza":"","lat":35.786986,"lng":139.790347,"zip":"1210814"},{"town":"西新井三丁目","koaza":"","lat":35.788332,"lng":139.781409,"zip":"1230841"},{"town":"西竹の塚一丁目","koaza":"","lat":35.792027,"lng":139.788406,"zip":"1210822"},{"town":"伊興本町一丁目","koaza":"","lat":35.797815,"lng":139.78794,"zip":"1210807"},{"town":"栗原三丁目","koaza":"","lat":35.780269,"lng":139.785368,"zip":"1230842"},{"town":"栗原四丁目","koaza":"","lat":35.785392,"lng":139.785461,"zip":"1230842"},{"town":"西新井本町五丁目","koaza":"","lat":35.773892,"lng":139.783153,"zip":"1230845"},{"town":"西新井本町一丁目","koaza":"","lat":35.77579,"lng":139.779365,"zip":"1230845"},{"town":"扇三丁目","koaza":"","lat":35.770022,"lng":139.772176,"zip":"1230873"},{"town":"西新井六丁目","koaza":"","lat":35.780529,"lng":139.776124,"zip":"1230841"},{"town":"西新井二丁目","koaza":"","lat":35.784381,"lng":139.781432,"zip":"1230841"},{"town":"伊興三丁目","koaza":"","lat":35.793973,"lng":139.785411,"zip":"1210823"},{"town":"伊興二丁目","koaza":"","lat":35.792936,"lng":139.781086,"zip":"1210823"},{"town":"伊興一丁目","koaza":"","lat":35.790038,"lng":139.784815,"zip":"1210823"},{"town":"西新井五丁目","koaza":"","lat":35.784404,"lng":139.775653,"zip":"1230841"},{"town":"西新井本町三丁目","koaza":"","lat":35.77528,"lng":139.775725,"zip":"1230845"},{"town":"江北六丁目","koaza":"","lat":35.780864,"lng":139.767539,"zip":"1230872"},{"town":"谷在家二丁目","koaza":"","lat":35.784598,"lng":139.767771,"zip":"1230863"},{"town":"谷在家三丁目","koaza":"","lat":35.788807,"lng":139.768057,"zip":"1230863"},{"town":"古千谷二丁目","koaza":"","lat":35.800053,"lng":139.773796,"zip":"1210833"},{"town":"西新井七丁目","koaza":"","lat":35.780571,"lng":139.771587,"zip":"1230841"},{"town":"江北五丁目","koaza":"","lat":35.776848,"lng":139.767205,"zip":"1230872"},{"town":"西新井本町二丁目","koaza":"","lat":35.775826,"lng":139.772349,"zip":"1230845"},{"town":"椿二丁目","koaza":"","lat":35.779492,"lng":139.759813,"zip":"1230871"},{"town":"江北七丁目","koaza":"","lat":35.780768,"lng":139.763566,"zip":"1230872"},{"town":"谷在家一丁目","koaza":"","lat":35.786648,"lng":139.771071,"zip":"1230863"},{"town":"西新井四丁目","koaza":"","lat":35.787855,"lng":139.775443,"zip":"1230841"},{"town":"舎人公園","koaza":"","lat":35.798953,"lng":139.76909,"zip":"1210837"},{"town":"皿沼二丁目","koaza":"","lat":35.791652,"lng":139.767304,"zip":"1230862"},{"town":"鹿浜四丁目","koaza":"","lat":35.781259,"lng":139.758237,"zip":"1230864"},{"town":"鹿浜三丁目","koaza":"","lat":35.781121,"lng":139.753482,"zip":"1230864"},{"town":"鹿浜五丁目","koaza":"","lat":35.785595,"lng":139.754383,"zip":"1230864"},{"town":"鹿浜六丁目","koaza":"","lat":35.786345,"lng":139.759033,"zip":"1230864"},{"town":"鹿浜七丁目","koaza":"","lat":35.785268,"lng":139.763499,"zip":"1230864"},{"town":"西伊興二丁目","koaza":"","lat":35.794578,"lng":139.7766,"zip":"1210824"},{"town":"皿沼一丁目","koaza":"","lat":35.793395,"lng":139.762847,"zip":"1230862"},{"town":"加賀一丁目","koaza":"","lat":35.788745,"lng":139.758953,"zip":"1230861"},{"town":"鹿浜八丁目","koaza":"","lat":35.788198,"lng":139.763594,"zip":"1230864"},{"town":"堀之内二丁目","koaza":"","lat":35.775663,"lng":139.758039,"zip":"1230874"},{"town":"椿一丁目","koaza":"","lat":35.777762,"lng":139.759,"zip":"1230871"},{"town":"加賀二丁目","koaza":"","lat":35.792695,"lng":139.760153,"zip":"1230861"},{"town":"六木四丁目","koaza":"","lat":35.795981,"lng":139.838221,"zip":"1210052"},{"town":"六木三丁目","koaza":"","lat":35.797245,"lng":139.842774,"zip":"1210052"},{"town":"神明三丁目","koaza":"","lat":35.797064,"lng":139.835222,"zip":"1210051"},{"town":"神明二丁目","koaza":"","lat":35.79429,"lng":139.835124,"zip":"1210051"},{"town":"花畑八丁目","koaza":"","lat":35.811659,"lng":139.822854,"zip":"1210061"},{"town":"東保木間一丁目","koaza":"","lat":35.789408,"lng":139.813648,"zip":"1210063"},{"town":"南花畑四丁目","koaza":"","lat":35.796992,"lng":139.819152,"zip":"1210062"},{"town":"東保木間二丁目","koaza":"","lat":35.792872,"lng":139.813541,"zip":"1210063"},{"town":"南花畑五丁目","koaza":"","lat":35.796305,"lng":139.813981,"zip":"1210062"},{"town":"保木間三丁目","koaza":"","lat":35.796447,"lng":139.806375,"zip":"1210064"},{"town":"保木間四丁目","koaza":"","lat":35.798723,"lng":139.805974,"zip":"1210064"},{"town":"西保木間二丁目","koaza":"","lat":35.800512,"lng":139.79963,"zip":"1210812"},{"town":"西保木間一丁目","koaza":"","lat":35.796496,"lng":139.799955,"zip":"1210812"},{"town":"花畑四丁目","koaza":"","lat":35.803625,"lng":139.807797,"zip":"1210061"},{"town":"花畑三丁目","koaza":"","lat":35.803676,"lng":139.81266,"zip":"1210061"},{"town":"花畑五丁目","koaza":"","lat":35.807241,"lng":139.808763,"zip":"1210061"},{"town":"保木間五丁目","koaza":"","lat":35.80436,"lng":139.803197,"zip":"1210064"},{"town":"竹の塚六丁目","koaza":"","lat":35.795695,"lng":139.792763,"zip":"1210813"},{"town":"東伊興二丁目","koaza":"","lat":35.80521,"lng":139.7882,"zip":"1210801"},{"town":"竹の塚五丁目","koaza":"","lat":35.795687,"lng":139.796115,"zip":"1210813"},{"town":"竹の塚七丁目","koaza":"","lat":35.799834,"lng":139.79521,"zip":"1210813"},{"town":"伊興四丁目","koaza":"","lat":35.797136,"lng":139.784136,"zip":"1210823"},{"town":"東伊興四丁目","koaza":"","lat":35.803253,"lng":139.788626,"zip":"1210801"},{"town":"東伊興三丁目","koaza":"","lat":35.801544,"lng":139.791922,"zip":"1210801"},{"town":"西保木間三丁目","koaza":"","lat":35.804266,"lng":139.799906,"zip":"1210812"},{"town":"西保木間四丁目","koaza":"","lat":35.803186,"lng":139.795318,"zip":"1210812"},{"town":"伊興五丁目","koaza":"","lat":35.798861,"lng":139.782432,"zip":"1210823"},{"town":"西伊興三丁目","koaza":"","lat":35.798353,"lng":139.777356,"zip":"1210824"},{"town":"東伊興一丁目","koaza":"","lat":35.803208,"lng":139.784031,"zip":"1210801"},{"town":"西伊興町","koaza":"","lat":35.793752,"lng":139.772758,"zip":"1210825"},{"town":"古千谷一丁目","koaza":"","lat":35.79637,"lng":139.772709,"zip":"1210833"},{"town":"古千谷本町一丁目","koaza":"","lat":35.802527,"lng":139.775001,"zip":"1210832"},{"town":"西伊興四丁目","koaza":"","lat":35.802893,"lng":139.780417,"zip":"1210824"},{"town":"古千谷本町四丁目","koaza":"","lat":35.80647,"lng":139.780199,"zip":"1210832"},{"town":"古千谷本町三丁目","koaza":"","lat":35.808648,"lng":139.776726,"zip":"1210832"},{"town":"舎人二丁目","koaza":"","lat":35.811296,"lng":139.771662,"zip":"1210831"},{"town":"皿沼三丁目","koaza":"","lat":35.794327,"lng":139.766861,"zip":"1230862"},{"town":"西伊興一丁目","koaza":"","lat":35.792396,"lng":139.77469,"zip":"1210824"},{"town":"入谷一丁目","koaza":"","lat":35.803769,"lng":139.768468,"zip":"1210836"},{"town":"入谷六丁目","koaza":"","lat":35.799367,"lng":139.765288,"zip":"1210836"},{"town":"入谷五丁目","koaza":"","lat":35.803842,"lng":139.762302,"zip":"1210836"},{"town":"舎人一丁目","koaza":"","lat":35.807249,"lng":139.770704,"zip":"1210831"},{"town":"古千谷本町二丁目","koaza":"","lat":35.805545,"lng":139.77599,"zip":"1210832"},{"town":"舎人五丁目","koaza":"","lat":35.811593,"lng":139.767983,"zip":"1210831"},{"town":"入谷二丁目","koaza":"","lat":35.808771,"lng":139.764252,"zip":"1210836"},{"town":"入谷四丁目","koaza":"","lat":35.806246,"lng":139.761221,"zip":"1210836"},{"town":"宮城一丁目","koaza":"","lat":35.75933,"lng":139.755095,"zip":"1200047"},{"town":"入谷七丁目","koaza":"","lat":35.799945,"lng":139.760376,"zip":"1210836"},{"town":"入谷三丁目","koaza":"","lat":35.81061,"lng":139.76091,"zip":"1210836"},{"town":"舎人六丁目","koaza":"","lat":35.813485,"lng":139.764215,"zip":"1210831"},{"town":"入谷九丁目","koaza":"","lat":35.809011,"lng":139.754661,"zip":"1210836"},{"town":"入谷八丁目","koaza":"","lat":35.805268,"lng":139.755999,"zip":"1210836"},{"town":"舎人四丁目","koaza":"","lat":35.816555,"lng":139.767733,"zip":"1210831"},{"town":"舎人三丁目","koaza":"","lat":35.813186,"lng":139.773673,"zip":"1210831"},{"town":"新田二丁目","koaza":"","lat":35.772706,"lng":139.741102,"zip":"1230865"},{"town":"新田一丁目","koaza":"","lat":35.777123,"lng":139.740471,"zip":"1230865"},{"town":"花畑一丁目","koaza":"","lat":35.799723,"lng":139.812801,"zip":"1210061"},{"town":"花畑二丁目","koaza":"","lat":35.801817,"lng":139.817021,"zip":"1210061"},{"town":"花畑六丁目","koaza":"","lat":35.805748,"lng":139.817971,"zip":"1210061"},{"town":"花畑七丁目","koaza":"","lat":35.809662,"lng":139.819232,"zip":"1210061"}]