[{"town":"伊万里町乙","koaza":"","lat":33.275762,"lng":129.876992,"zip":"8480046"},{"town":"伊万里町甲","koaza":"","lat":33.274097,"lng":129.877106,"zip":"8480047"},{"town":"大川内町乙","koaza":"","lat":33.241106,"lng":129.895304,"zip":"8480025"},{"town":"大川内町甲","koaza":"","lat":33.244407,"lng":129.911871,"zip":"8480024"},{"town":"大川内町丙","koaza":"","lat":33.240582,"lng":129.881915,"zip":"8480026"},{"town":"大川町大川野","koaza":"","lat":33.292953,"lng":129.97828,"zip":"8495251"},{"town":"大川町川西","koaza":"","lat":33.304434,"lng":129.95893,"zip":"8495252"},{"town":"大川町川原","koaza":"","lat":33.283659,"lng":129.97281,"zip":"8495257"},{"town":"大川町駒鳴","koaza":"","lat":33.324968,"lng":129.968575,"zip":"8495253"},{"town":"大川町立川","koaza":"","lat":33.310437,"lng":129.991806,"zip":"8495254"},{"town":"大川町東田代","koaza":"","lat":33.286382,"lng":130.005597,"zip":"8495256"},{"town":"大川町山口","koaza":"","lat":33.298135,"lng":129.992286,"zip":"8495255"},{"town":"大坪町乙","koaza":"","lat":33.275618,"lng":129.90487,"zip":"8480022"},{"town":"大坪町甲","koaza":"","lat":33.291599,"lng":129.899944,"zip":"8480021"},{"town":"大坪町丙","koaza":"","lat":33.262307,"lng":129.906319,"zip":"8480023"},{"town":"木須町","koaza":"","lat":33.297991,"lng":129.867104,"zip":"8480044"},{"town":"黒川町大黒川","koaza":"","lat":33.334362,"lng":129.868977,"zip":"8480123"},{"town":"黒川町黒塩","koaza":"","lat":33.318032,"lng":129.850743,"zip":"8480146"},{"town":"黒川町小黒川","koaza":"","lat":33.324302,"lng":129.860801,"zip":"8480125"},{"town":"黒川町塩屋","koaza":"","lat":33.334541,"lng":129.844149,"zip":"8480121"},{"town":"黒川町清水","koaza":"","lat":33.321692,"lng":129.883004,"zip":"8480141"},{"town":"黒川町立目","koaza":"","lat":33.321695,"lng":129.890032,"zip":"8480142"},{"town":"黒川町椿原","koaza":"","lat":33.317658,"lng":129.870535,"zip":"8480145"},{"town":"黒川町長尾","koaza":"","lat":33.336475,"lng":129.908364,"zip":"8480132"},{"town":"黒川町畑川内","koaza":"","lat":33.333596,"lng":129.892465,"zip":"8480131"},{"town":"黒川町花房","koaza":"","lat":33.332079,"lng":129.902872,"zip":"8480134"},{"town":"黒川町福田","koaza":"","lat":33.346225,"lng":129.850543,"zip":"8480122"},{"town":"黒川町真手野","koaza":"","lat":33.340871,"lng":129.913124,"zip":"8480133"},{"town":"黒川町牟田","koaza":"","lat":33.310021,"lng":129.901927,"zip":"8480143"},{"town":"黒川町横野","koaza":"","lat":33.314292,"lng":129.886841,"zip":"8480144"},{"town":"新天町","koaza":"","lat":33.269858,"lng":129.874621,"zip":"8480041"},{"town":"瀬戸町","koaza":"","lat":33.30894,"lng":129.844787,"zip":"8480043"},{"town":"立花町","koaza":"","lat":33.261199,"lng":129.881801,"zip":"8480027"},{"town":"二里町大里乙","koaza":"","lat":33.260948,"lng":129.845581,"zip":"8480035"},{"town":"二里町大里甲","koaza":"","lat":33.260896,"lng":129.865064,"zip":"8480032"},{"town":"二里町中里乙","koaza":"","lat":33.246617,"lng":129.861575,"zip":"8480033"},{"town":"二里町中里甲","koaza":"","lat":33.24463,"lng":129.831896,"zip":"8480034"},{"town":"二里町八谷搦","koaza":"","lat":33.276356,"lng":129.864605,"zip":"8480031"},{"town":"蓮池町","koaza":"","lat":33.272686,"lng":129.874195,"zip":"8480042"},{"town":"波多津町板木","koaza":"","lat":33.375614,"lng":129.912281,"zip":"8480113"},{"town":"波多津町井野尾","koaza":"","lat":33.377832,"lng":129.895748,"zip":"8480116"},{"town":"波多津町内野","koaza":"","lat":33.353102,"lng":129.875673,"zip":"8480103"},{"town":"波多津町木場","koaza":"","lat":33.39883,"lng":129.897825,"zip":"8480111"},{"town":"波多津町煤屋","koaza":"","lat":33.355325,"lng":129.859829,"zip":"8480104"},{"town":"波多津町田代","koaza":"","lat":33.381262,"lng":129.907478,"zip":"8480112"},{"town":"波多津町辻","koaza":"","lat":33.379727,"lng":129.874262,"zip":"8480101"},{"town":"波多津町筒井","koaza":"","lat":33.385079,"lng":129.893558,"zip":"8480117"},{"town":"波多津町津留","koaza":"","lat":33.364996,"lng":129.914405,"zip":"8480114"},{"town":"波多津町中山","koaza":"","lat":33.356804,"lng":129.901981,"zip":"8480115"},{"town":"波多津町主屋","koaza":"","lat":33.361861,"lng":129.90846,"zip":"8480000"},{"town":"波多津町畑津","koaza":"","lat":33.361799,"lng":129.887204,"zip":"8480102"},{"town":"波多津町馬蛤潟","koaza":"","lat":33.365253,"lng":129.860815,"zip":"8480105"},{"town":"東山代町浦川内","koaza":"","lat":33.277264,"lng":129.834497,"zip":"8494284"},{"town":"東山代町大久保","koaza":"","lat":33.269937,"lng":129.822801,"zip":"8494281"},{"town":"東山代町川内野","koaza":"","lat":33.293656,"lng":129.777719,"zip":"8494286"},{"town":"東山代町里","koaza":"","lat":33.286172,"lng":129.831157,"zip":"8494282"},{"town":"東山代町滝川内","koaza":"","lat":33.266353,"lng":129.798851,"zip":"8494285"},{"town":"東山代町天神","koaza":"","lat":33.279099,"lng":129.842041,"zip":"8494273"},{"town":"東山代町長浜","koaza":"","lat":33.278812,"lng":129.84851,"zip":"8494271"},{"town":"東山代町日尾","koaza":"","lat":33.280175,"lng":129.852788,"zip":"8494272"},{"town":"東山代町東大久保","koaza":"","lat":33.277904,"lng":129.830526,"zip":"8494283"},{"town":"東山代町脇野","koaza":"","lat":33.2714,"lng":129.836811,"zip":"8494274"},{"town":"松浦町提川","koaza":"","lat":33.281586,"lng":129.951193,"zip":"8495264"},{"town":"松浦町中野原","koaza":"","lat":33.251616,"lng":129.933828,"zip":"8495262"},{"town":"松浦町桃川","koaza":"","lat":33.268475,"lng":129.95903,"zip":"8495261"},{"town":"松浦町山形","koaza":"","lat":33.27247,"lng":129.931485,"zip":"8495263"},{"town":"松島町","koaza":"","lat":33.280119,"lng":129.875311,"zip":"8480045"},{"town":"南波多町井手野","koaza":"","lat":33.316689,"lng":129.923783,"zip":"8480007"},{"town":"南波多町大川原","koaza":"","lat":33.310167,"lng":129.939201,"zip":"8480011"},{"town":"南波多町大曲","koaza":"","lat":33.333789,"lng":129.932471,"zip":"8480005"},{"town":"南波多町笠椎","koaza":"","lat":33.294875,"lng":129.93561,"zip":"8480013"},{"town":"南波多町小麦原","koaza":"","lat":33.306482,"lng":129.928119,"zip":"8480014"},{"town":"南波多町重橋","koaza":"","lat":33.350645,"lng":129.9186,"zip":"8480001"},{"town":"南波多町高瀬","koaza":"","lat":33.325543,"lng":129.932765,"zip":"8480006"},{"town":"南波多町谷口","koaza":"","lat":33.345319,"lng":129.923564,"zip":"8480002"},{"town":"南波多町水留","koaza":"","lat":33.340171,"lng":129.937073,"zip":"8480004"},{"town":"南波多町原屋敷","koaza":"","lat":33.316236,"lng":129.906939,"zip":"8480016"},{"town":"南波多町府招","koaza":"","lat":33.293337,"lng":129.91497,"zip":"8480015"},{"town":"南波多町古川","koaza":"","lat":33.296182,"lng":129.95226,"zip":"8480012"},{"town":"南波多町古里","koaza":"","lat":33.339871,"lng":129.922473,"zip":"8480003"},{"town":"山代町楠久","koaza":"","lat":33.292912,"lng":129.823895,"zip":"8494251"},{"town":"山代町楠久津","koaza":"","lat":33.294527,"lng":129.828029,"zip":"8494252"},{"town":"山代町久原","koaza":"","lat":33.314745,"lng":129.80482,"zip":"8494256"},{"town":"山代町城","koaza":"","lat":33.287956,"lng":129.805791,"zip":"8494254"},{"town":"山代町立岩","koaza":"","lat":33.328916,"lng":129.793825,"zip":"8494261"},{"town":"山代町西大久保","koaza":"","lat":33.317707,"lng":129.774695,"zip":"8494263"},{"town":"山代町西分","koaza":"","lat":33.323796,"lng":129.779167,"zip":"8494262"},{"town":"山代町東分","koaza":"","lat":33.311623,"lng":129.781386,"zip":"8494264"},{"town":"山代町福川内","koaza":"","lat":33.289185,"lng":129.815349,"zip":"8494255"},{"town":"山代町峰","koaza":"","lat":33.298783,"lng":129.807378,"zip":"8494253"},{"town":"脇田町","koaza":"","lat":33.295428,"lng":129.884987,"zip":"8480028"},{"town":"立花町","koaza":"通谷","lat":33.265361,"lng":129.881807,"zip":"8480027"}]