[{"town":"旭が丘","koaza":"","lat":33.436433,"lng":129.96308,"zip":"8470823"},{"town":"朝日町","koaza":"","lat":33.45341,"lng":129.961668,"zip":"8470841"},{"town":"石志","koaza":"","lat":33.389133,"lng":129.965227,"zip":"8470832"},{"town":"魚屋町","koaza":"","lat":33.447371,"lng":129.972461,"zip":"8470042"},{"town":"宇木","koaza":"","lat":33.39572,"lng":130.017125,"zip":"8470025"},{"town":"後川内","koaza":"","lat":33.451557,"lng":129.91748,"zip":"8470804"},{"town":"浦","koaza":"","lat":33.486836,"lng":129.930513,"zip":"8470124"},{"town":"江川町","koaza":"","lat":33.453353,"lng":129.963929,"zip":"8470853"},{"town":"枝去木","koaza":"","lat":33.4798,"lng":129.912267,"zip":"8470123"},{"town":"相賀","koaza":"","lat":33.510846,"lng":129.959955,"zip":"8470132"},{"town":"相知町伊岐佐","koaza":"","lat":33.363339,"lng":130.038408,"zip":"8493223"},{"town":"相知町相知","koaza":"","lat":33.340357,"lng":130.01171,"zip":"8493201"},{"town":"相知町大野","koaza":"","lat":33.384427,"lng":130.004537,"zip":"8493221"},{"town":"相知町楠","koaza":"","lat":33.334975,"lng":130.057044,"zip":"8493215"},{"town":"相知町久保","koaza":"","lat":33.357375,"lng":129.997244,"zip":"8493232"},{"town":"相知町黒岩","koaza":"","lat":33.371497,"lng":130.00738,"zip":"8493222"},{"town":"相知町佐里","koaza":"","lat":33.342964,"lng":129.982496,"zip":"8493233"},{"town":"相知町千束","koaza":"","lat":33.351519,"lng":130.035819,"zip":"8493211"},{"town":"相知町田頭","koaza":"","lat":33.3402,"lng":130.045899,"zip":"8493214"},{"town":"相知町鷹取","koaza":"","lat":33.344819,"lng":130.025467,"zip":"8493219"},{"town":"相知町町切","koaza":"","lat":33.32711,"lng":130.04542,"zip":"8493216"},{"town":"相知町長部田","koaza":"","lat":33.339025,"lng":130.028999,"zip":"8493217"},{"town":"相知町中山","koaza":"","lat":33.353311,"lng":130.016868,"zip":"8493218"},{"town":"相知町平山上","koaza":"","lat":33.300964,"lng":130.026881,"zip":"8493203"},{"town":"相知町平山下","koaza":"","lat":33.327371,"lng":130.005878,"zip":"8493202"},{"town":"相知町牟田部","koaza":"","lat":33.37113,"lng":129.988733,"zip":"8493231"},{"town":"相知町山崎","koaza":"","lat":33.356256,"lng":130.007,"zip":"8493224"},{"town":"相知町湯屋","koaza":"","lat":33.343952,"lng":130.035215,"zip":"8493213"},{"town":"相知町横枕","koaza":"","lat":33.348078,"lng":130.026756,"zip":"8493212"},{"town":"大石町","koaza":"","lat":33.446129,"lng":129.975091,"zip":"8470066"},{"town":"海岸通","koaza":"","lat":33.469057,"lng":129.957176,"zip":"8470873"},{"town":"鏡","koaza":"","lat":33.431817,"lng":130.007471,"zip":"8470022"},{"town":"鏡新開","koaza":"","lat":33.435788,"lng":129.99918,"zip":"8470028"},{"town":"水主町","koaza":"","lat":33.444628,"lng":129.978209,"zip":"8470065"},{"town":"柏崎","koaza":"","lat":33.40954,"lng":130.004084,"zip":"8470026"},{"town":"神集島","koaza":"","lat":33.535256,"lng":129.973745,"zip":"8470131"},{"town":"刀町","koaza":"","lat":33.448945,"lng":129.968108,"zip":"8470055"},{"town":"北城内","koaza":"","lat":33.453958,"lng":129.970551,"zip":"8470015"},{"town":"北波多大杉","koaza":"","lat":33.383759,"lng":129.95598,"zip":"8471212"},{"town":"北波多上平野","koaza":"","lat":33.388095,"lng":129.933985,"zip":"8471221"},{"town":"北波多岸山","koaza":"","lat":33.371425,"lng":129.966259,"zip":"8471211"},{"town":"北波多志気","koaza":"","lat":33.340232,"lng":129.951182,"zip":"8471225"},{"town":"北波多下平野","koaza":"","lat":33.382047,"lng":129.926744,"zip":"8471223"},{"town":"北波多竹有","koaza":"","lat":33.383869,"lng":129.941985,"zip":"8471213"},{"town":"北波多田中","koaza":"","lat":33.377593,"lng":129.944934,"zip":"8471202"},{"town":"北波多徳須恵","koaza":"","lat":33.375837,"lng":129.949362,"zip":"8471201"},{"town":"北波多成渕","koaza":"","lat":33.39746,"lng":129.929473,"zip":"8471222"},{"town":"北波多稗田","koaza":"","lat":33.360925,"lng":129.95595,"zip":"8471214"},{"town":"北波多山彦","koaza":"","lat":33.378353,"lng":129.937707,"zip":"8471203"},{"town":"北波多行合野","koaza":"","lat":33.368791,"lng":129.931069,"zip":"8471224"},{"town":"厳木町天川","koaza":"","lat":33.355271,"lng":130.127316,"zip":"8493101"},{"town":"厳木町岩屋","koaza":"","lat":33.318314,"lng":130.039743,"zip":"8493123"},{"town":"厳木町箞木","koaza":"","lat":33.322593,"lng":130.050573,"zip":"8470000"},{"town":"厳木町浦川内","koaza":"","lat":33.326608,"lng":130.076251,"zip":"8493114"},{"town":"厳木町厳木","koaza":"","lat":33.322381,"lng":130.062711,"zip":"8493131"},{"town":"厳木町瀬戸木場","koaza":"","lat":33.295241,"lng":130.05305,"zip":"8493121"},{"town":"厳木町鳥越","koaza":"","lat":33.353529,"lng":130.100252,"zip":"8493102"},{"town":"厳木町中島","koaza":"","lat":33.30979,"lng":130.07826,"zip":"8493112"},{"town":"厳木町浪瀬","koaza":"","lat":33.310276,"lng":130.048857,"zip":"8493122"},{"town":"厳木町平之","koaza":"","lat":33.349898,"lng":130.080002,"zip":"8493115"},{"town":"厳木町広川","koaza":"","lat":33.372529,"lng":130.093864,"zip":"8493103"},{"town":"厳木町広瀬","koaza":"","lat":33.3292,"lng":130.095986,"zip":"8493111"},{"town":"厳木町星領","koaza":"","lat":33.388469,"lng":130.092342,"zip":"8493104"},{"town":"厳木町牧瀬","koaza":"","lat":33.30822,"lng":130.065604,"zip":"8493113"},{"town":"厳木町本山","koaza":"","lat":33.328683,"lng":130.032585,"zip":"8493133"},{"town":"京町","koaza":"","lat":33.447028,"lng":129.96978,"zip":"8470045"},{"town":"木綿町","koaza":"","lat":33.44786,"lng":129.971706,"zip":"8470044"},{"town":"熊原町","koaza":"","lat":33.446481,"lng":129.962521,"zip":"8470817"},{"town":"熊ノ峰","koaza":"","lat":33.407639,"lng":129.912691,"zip":"8470884"},{"town":"久里","koaza":"","lat":33.406348,"lng":129.98618,"zip":"8470033"},{"town":"神田","koaza":"","lat":33.433301,"lng":129.949822,"zip":"8470824"},{"town":"呉服町","koaza":"","lat":33.478455,"lng":129.965218,"zip":"8470052"},{"town":"米屋町","koaza":"","lat":33.447947,"lng":129.968072,"zip":"8470054"},{"town":"紺屋町","koaza":"","lat":33.446652,"lng":129.968249,"zip":"8470053"},{"town":"材木町","koaza":"","lat":33.447441,"lng":129.974134,"zip":"8470061"},{"town":"栄町","koaza":"","lat":33.447804,"lng":129.97805,"zip":"8470011"},{"town":"桜馬場","koaza":"","lat":33.448998,"lng":129.962881,"zip":"8470843"},{"town":"桜町","koaza":"","lat":33.470559,"lng":129.938932,"zip":"8470104"},{"town":"佐志","koaza":"","lat":33.466576,"lng":129.926383,"zip":"8470111"},{"town":"佐志中里","koaza":"","lat":33.473051,"lng":129.93534,"zip":"8470113"},{"town":"佐志中通","koaza":"","lat":33.474411,"lng":129.935764,"zip":"8470114"},{"town":"佐志浜町","koaza":"","lat":33.478956,"lng":129.936052,"zip":"8470115"},{"town":"佐志南","koaza":"","lat":33.468937,"lng":129.935473,"zip":"8470112"},{"town":"重河内","koaza":"","lat":33.410615,"lng":129.925706,"zip":"8470883"},{"town":"十人町","koaza":"","lat":33.444569,"lng":129.976446,"zip":"8470067"},{"town":"松南町","koaza":"","lat":33.439897,"lng":129.996757,"zip":"8470021"},{"town":"新興町","koaza":"","lat":33.445613,"lng":129.968324,"zip":"8470043"},{"town":"新町","koaza":"","lat":33.448073,"lng":129.966649,"zip":"8470813"},{"town":"菅牟田","koaza":"","lat":33.416099,"lng":129.934046,"zip":"8470882"},{"town":"双水","koaza":"","lat":33.3908,"lng":129.993008,"zip":"8470001"},{"town":"大名小路","koaza":"","lat":33.450793,"lng":129.972101,"zip":"8470012"},{"town":"大良","koaza":"","lat":33.456237,"lng":129.903057,"zip":"8470803"},{"town":"高砂町","koaza":"","lat":33.446542,"lng":129.97031,"zip":"8470046"},{"town":"高島","koaza":"","lat":33.476421,"lng":129.989915,"zip":"8470027"},{"town":"竹木場","koaza":"","lat":33.426243,"lng":129.922368,"zip":"8470881"},{"town":"千々賀","koaza":"","lat":33.406902,"lng":129.962696,"zip":"8470831"},{"town":"町田","koaza":"","lat":33.436131,"lng":129.969346,"zip":"8470821"},{"town":"町田一丁目","koaza":"","lat":33.44173,"lng":129.963895,"zip":"8470821"},{"town":"町田二丁目","koaza":"","lat":33.440964,"lng":129.966878,"zip":"8470821"},{"town":"町田三丁目","koaza":"","lat":33.441721,"lng":129.970073,"zip":"8470821"},{"town":"町田四丁目","koaza":"","lat":33.440332,"lng":129.97286,"zip":"8470821"},{"town":"町田五丁目","koaza":"","lat":33.443148,"lng":129.971924,"zip":"8470821"},{"town":"千代田町","koaza":"","lat":33.449589,"lng":129.97468,"zip":"8470041"},{"town":"鎮西町赤木","koaza":"","lat":33.526498,"lng":129.914165,"zip":"8470312"},{"town":"鎮西町石室","koaza":"","lat":33.506185,"lng":129.88892,"zip":"8470327"},{"town":"鎮西町岩野","koaza":"","lat":33.496427,"lng":129.921337,"zip":"8470323"},{"town":"鎮西町打上","koaza":"","lat":33.511185,"lng":129.90434,"zip":"8470322"},{"town":"鎮西町加唐島","koaza":"","lat":33.603027,"lng":129.855384,"zip":"8470317"},{"town":"鎮西町加倉","koaza":"","lat":33.492952,"lng":129.909768,"zip":"8470325"},{"town":"鎮西町串","koaza":"","lat":33.517165,"lng":129.854067,"zip":"8470403"},{"town":"鎮西町高野","koaza":"","lat":33.492734,"lng":129.922293,"zip":"8470324"},{"town":"鎮西町塩鶴","koaza":"","lat":33.521136,"lng":129.910539,"zip":"8470313"},{"town":"鎮西町菖蒲","koaza":"","lat":33.507068,"lng":129.921026,"zip":"8470314"},{"town":"鎮西町中野","koaza":"","lat":33.531479,"lng":129.90327,"zip":"8470316"},{"town":"鎮西町名護屋","koaza":"","lat":33.530168,"lng":129.867632,"zip":"8470401"},{"town":"鎮西町野元","koaza":"","lat":33.512062,"lng":129.872689,"zip":"8470402"},{"town":"鎮西町波戸","koaza":"","lat":33.549143,"lng":129.853818,"zip":"8470404"},{"town":"鎮西町早田","koaza":"","lat":33.50047,"lng":129.908592,"zip":"8470326"},{"town":"鎮西町馬渡島","koaza":"","lat":33.572847,"lng":129.757008,"zip":"8470405"},{"town":"鎮西町松島","koaza":"","lat":33.587908,"lng":129.841104,"zip":"8470406"},{"town":"鎮西町丸田","koaza":"","lat":33.538886,"lng":129.906226,"zip":"8470311"},{"town":"鎮西町八床","koaza":"","lat":33.502442,"lng":129.932164,"zip":"8470315"},{"town":"鎮西町横竹","koaza":"","lat":33.524689,"lng":129.894042,"zip":"8470321"},{"town":"唐川","koaza":"","lat":33.418013,"lng":129.908344,"zip":"8470885"},{"town":"唐房一丁目","koaza":"","lat":33.482531,"lng":129.936251,"zip":"8470122"},{"town":"唐房二丁目","koaza":"","lat":33.483437,"lng":129.937266,"zip":"8470122"},{"town":"唐房三丁目","koaza":"","lat":33.4839,"lng":129.937564,"zip":"8470122"},{"town":"唐房四丁目","koaza":"","lat":33.48378,"lng":129.938569,"zip":"8470122"},{"town":"唐房五丁目","koaza":"","lat":33.484106,"lng":129.939012,"zip":"8470122"},{"town":"唐房六丁目","koaza":"","lat":33.485398,"lng":129.939695,"zip":"8470122"},{"town":"唐房七丁目","koaza":"","lat":33.484989,"lng":129.938156,"zip":"8470122"},{"town":"中里","koaza":"","lat":33.523665,"lng":129.921942,"zip":"8470134"},{"town":"長谷","koaza":"","lat":33.435485,"lng":129.975039,"zip":"8470822"},{"town":"中瀬通","koaza":"","lat":33.473698,"lng":129.949988,"zip":"8470101"},{"town":"中原","koaza":"","lat":33.413898,"lng":129.990923,"zip":"8470034"},{"town":"中町","koaza":"","lat":33.448181,"lng":129.970129,"zip":"8470051"},{"town":"梨川内","koaza":"","lat":33.441909,"lng":129.912696,"zip":"8470802"},{"town":"七山荒川","koaza":"","lat":33.457771,"lng":130.150013,"zip":"8471101"},{"town":"七山池原","koaza":"","lat":33.403678,"lng":130.140198,"zip":"8471103"},{"town":"七山木浦","koaza":"","lat":33.422501,"lng":130.121027,"zip":"8471104"},{"town":"七山白木","koaza":"","lat":33.459063,"lng":130.088695,"zip":"8471108"},{"town":"七山滝川","koaza":"","lat":33.435997,"lng":130.130975,"zip":"8471106"},{"town":"七山仁部","koaza":"","lat":33.426042,"lng":130.106737,"zip":"8471105"},{"town":"七山藤川","koaza":"","lat":33.459547,"lng":130.121052,"zip":"8471107"},{"town":"七山馬川","koaza":"","lat":33.434821,"lng":130.153604,"zip":"8471102"},{"town":"菜畑","koaza":"","lat":33.450728,"lng":129.954586,"zip":"8470844"},{"town":"西大島町","koaza":"","lat":33.476859,"lng":129.960067,"zip":"8470872"},{"town":"西唐津一丁目","koaza":"","lat":33.463779,"lng":129.950347,"zip":"8470875"},{"town":"西唐津二丁目","koaza":"","lat":33.465235,"lng":129.954367,"zip":"8470875"},{"town":"西唐津三丁目","koaza":"","lat":33.467031,"lng":129.950783,"zip":"8470875"},{"town":"西城内","koaza":"","lat":33.451387,"lng":129.967892,"zip":"8470014"},{"town":"西寺町","koaza":"","lat":33.449475,"lng":129.965852,"zip":"8470815"},{"town":"西浜町","koaza":"","lat":33.457723,"lng":129.963096,"zip":"8470855"},{"town":"西旗町","koaza":"","lat":33.455895,"lng":129.961232,"zip":"8470854"},{"town":"橋本","koaza":"","lat":33.402264,"lng":129.972717,"zip":"8470003"},{"town":"橋本町","koaza":"","lat":33.467997,"lng":129.939222,"zip":"8470103"},{"town":"半田","koaza":"","lat":33.403495,"lng":130.038996,"zip":"8470023"},{"town":"畑島","koaza":"","lat":33.395116,"lng":129.951831,"zip":"8470833"},{"town":"鳩川","koaza":"","lat":33.497993,"lng":129.944518,"zip":"8470121"},{"town":"浜玉町大江","koaza":"","lat":33.444587,"lng":130.049612,"zip":"8495103"},{"town":"浜玉町岡口","koaza":"","lat":33.452909,"lng":130.065386,"zip":"8495101"},{"town":"浜玉町五反田","koaza":"","lat":33.446771,"lng":130.074764,"zip":"8495102"},{"town":"浜玉町谷口","koaza":"","lat":33.459129,"lng":130.05787,"zip":"8495105"},{"town":"浜玉町鳥巣","koaza":"","lat":33.399151,"lng":130.111764,"zip":"8495113"},{"town":"浜玉町浜崎","koaza":"","lat":33.443206,"lng":130.026346,"zip":"8495131"},{"town":"浜玉町東山田","koaza":"","lat":33.415951,"lng":130.049173,"zip":"8495123"},{"town":"浜玉町平原","koaza":"","lat":33.413818,"lng":130.08518,"zip":"8495112"},{"town":"浜玉町渕上","koaza":"","lat":33.460091,"lng":130.044642,"zip":"8495104"},{"town":"浜玉町南山","koaza":"","lat":33.437116,"lng":130.065839,"zip":"8495111"},{"town":"浜玉町山瀬","koaza":"","lat":33.380008,"lng":130.065519,"zip":"8495124"},{"town":"浜玉町横田上","koaza":"","lat":33.438094,"lng":130.046056,"zip":"8495121"},{"town":"浜玉町横田下","koaza":"","lat":33.435491,"lng":130.034544,"zip":"8495122"},{"town":"原","koaza":"","lat":33.422071,"lng":129.997106,"zip":"8470031"},{"town":"東大島町","koaza":"","lat":33.472651,"lng":129.96572,"zip":"8470871"},{"town":"東唐津一丁目","koaza":"","lat":33.450884,"lng":129.98092,"zip":"8470017"},{"town":"東唐津二丁目","koaza":"","lat":33.449869,"lng":129.983107,"zip":"8470017"},{"town":"東唐津三丁目","koaza":"","lat":33.448914,"lng":129.984672,"zip":"8470017"},{"town":"東唐津四丁目","koaza":"","lat":33.446551,"lng":129.987134,"zip":"8470017"},{"town":"東城内","koaza":"","lat":33.452841,"lng":129.976979,"zip":"8470016"},{"town":"東町","koaza":"","lat":33.44419,"lng":129.982895,"zip":"8470063"},{"town":"東山","koaza":"","lat":33.430123,"lng":129.9066,"zip":"8470801"},{"town":"肥前町赤坂","koaza":"","lat":33.412698,"lng":129.895191,"zip":"8471502"},{"town":"肥前町上ケ倉","koaza":"","lat":33.417855,"lng":129.839683,"zip":"8471517"},{"town":"肥前町犬頭","koaza":"","lat":33.43808,"lng":129.804279,"zip":"8471522"},{"town":"肥前町入野","koaza":"","lat":33.444567,"lng":129.821018,"zip":"8471526"},{"town":"肥前町梅崎","koaza":"","lat":33.442058,"lng":129.839469,"zip":"8471512"},{"town":"肥前町瓜ケ坂","koaza":"","lat":33.413496,"lng":129.841639,"zip":"8471516"},{"town":"肥前町大浦","koaza":"","lat":33.41344,"lng":129.864973,"zip":"8471506"},{"town":"肥前町切木","koaza":"","lat":33.426956,"lng":129.888995,"zip":"8471501"},{"town":"肥前町杉野浦","koaza":"","lat":33.401011,"lng":129.874643,"zip":"8471505"},{"town":"肥前町田野","koaza":"","lat":33.424578,"lng":129.826406,"zip":"8471521"},{"town":"肥前町鶴牧","koaza":"","lat":33.456369,"lng":129.830687,"zip":"8471527"},{"town":"肥前町寺浦","koaza":"","lat":33.440234,"lng":129.854718,"zip":"8471513"},{"town":"肥前町中浦","koaza":"","lat":33.40936,"lng":129.874061,"zip":"8471504"},{"town":"肥前町新木場","koaza":"","lat":33.429348,"lng":129.845201,"zip":"8471511"},{"town":"肥前町仁田野尾","koaza":"","lat":33.43119,"lng":129.865314,"zip":"8471514"},{"town":"肥前町納所","koaza":"","lat":33.470459,"lng":129.810308,"zip":"8471525"},{"town":"肥前町星賀","koaza":"","lat":33.449626,"lng":129.798624,"zip":"8471523"},{"town":"肥前町万賀里川","koaza":"","lat":33.423114,"lng":129.867726,"zip":"8471515"},{"town":"肥前町満越","koaza":"","lat":33.411552,"lng":129.854512,"zip":"8471507"},{"town":"肥前町向島","koaza":"","lat":33.491441,"lng":129.777271,"zip":"8471524"},{"town":"肥前町湯野浦","koaza":"","lat":33.392412,"lng":129.876365,"zip":"8471503"},{"town":"平野町","koaza":"","lat":33.446886,"lng":129.966726,"zip":"8470812"},{"town":"藤崎通","koaza":"","lat":33.469531,"lng":129.952653,"zip":"8470874"},{"town":"富士見町","koaza":"","lat":33.455868,"lng":129.965926,"zip":"8470851"},{"town":"二タ子","koaza":"","lat":33.458119,"lng":129.950521,"zip":"8470861"},{"town":"二タ子一丁目","koaza":"","lat":33.457396,"lng":129.957362,"zip":"8470861"},{"town":"二タ子二丁目","koaza":"","lat":33.460605,"lng":129.955244,"zip":"8470861"},{"town":"二タ子三丁目","koaza":"","lat":33.463867,"lng":129.961851,"zip":"8470861"},{"town":"船宮町","koaza":"","lat":33.444848,"lng":129.979629,"zip":"8470062"},{"town":"坊主町","koaza":"","lat":33.452067,"lng":129.966062,"zip":"8470056"},{"town":"本町","koaza":"","lat":33.447876,"lng":129.970741,"zip":"8470047"},{"town":"湊町","koaza":"","lat":33.518889,"lng":129.942198,"zip":"8470133"},{"town":"南城内","koaza":"","lat":33.451121,"lng":129.969984,"zip":"8470013"},{"town":"南富士見町","koaza":"","lat":33.456124,"lng":129.962825,"zip":"8470876"},{"town":"妙見町","koaza":"","lat":33.467064,"lng":129.955097,"zip":"8470863"},{"town":"見借","koaza":"","lat":33.445333,"lng":129.935898,"zip":"8470825"},{"town":"元石町","koaza":"","lat":33.442128,"lng":129.976939,"zip":"8470064"},{"town":"元旗町","koaza":"","lat":33.453966,"lng":129.964944,"zip":"8470852"},{"town":"八百屋町","koaza":"","lat":33.448158,"lng":129.967348,"zip":"8470811"},{"town":"屋形石","koaza":"","lat":33.535987,"lng":129.927463,"zip":"8470135"},{"town":"八幡町","koaza":"","lat":33.468239,"lng":129.943854,"zip":"8470102"},{"town":"養母田","koaza":"","lat":33.411332,"lng":129.978069,"zip":"8470004"},{"town":"養母田鬼塚","koaza":"","lat":33.418186,"lng":129.984927,"zip":"8470005"},{"town":"山下町","koaza":"","lat":33.451198,"lng":129.962636,"zip":"8470842"},{"town":"山田","koaza":"","lat":33.413664,"lng":129.947018,"zip":"8470834"},{"town":"山本","koaza":"","lat":33.39251,"lng":129.979055,"zip":"8470002"},{"town":"夕日","koaza":"","lat":33.399918,"lng":129.998731,"zip":"8470032"},{"town":"弓鷹町","koaza":"","lat":33.448082,"lng":129.965846,"zip":"8470814"},{"town":"横野","koaza":"","lat":33.540823,"lng":129.922107,"zip":"8470136"},{"town":"呼子町大友","koaza":"","lat":33.539261,"lng":129.914142,"zip":"8470301"},{"town":"呼子町小川島","koaza":"","lat":33.598476,"lng":129.897259,"zip":"8470306"},{"town":"呼子町加部島","koaza":"","lat":33.555741,"lng":129.881488,"zip":"8470305"},{"town":"呼子町小友","koaza":"","lat":33.545758,"lng":129.908253,"zip":"8470302"},{"town":"呼子町殿ノ浦","koaza":"","lat":33.533765,"lng":129.887949,"zip":"8470304"},{"town":"呼子町呼子","koaza":"","lat":33.540642,"lng":129.89792,"zip":"8470303"},{"town":"和多田海士町","koaza":"","lat":33.441692,"lng":129.984821,"zip":"8470071"},{"town":"和多田大土井","koaza":"","lat":33.429202,"lng":129.989088,"zip":"8470083"},{"town":"和多田先石","koaza":"","lat":33.436102,"lng":129.98967,"zip":"8470074"},{"town":"和多田天満町一丁目","koaza":"","lat":33.431334,"lng":129.987696,"zip":"8470082"},{"town":"和多田天満町二丁目","koaza":"","lat":33.4313,"lng":129.98575,"zip":"8470082"},{"town":"和多田西山","koaza":"","lat":33.425294,"lng":129.978398,"zip":"8470084"},{"town":"和多田東百人町","koaza":"","lat":33.439891,"lng":129.989065,"zip":"8470073"},{"town":"和多田百人町","koaza":"","lat":33.440786,"lng":129.986209,"zip":"8470072"},{"town":"和多田本村","koaza":"","lat":33.432908,"lng":129.976653,"zip":"8470085"},{"town":"和多田南先石","koaza":"","lat":33.43432,"lng":129.985644,"zip":"8470081"},{"town":"和多田用尺","koaza":"","lat":33.438982,"lng":129.981145,"zip":"8470075"},{"town":"神田","koaza":"堤","lat":33.443472,"lng":129.955105,"zip":"8470824"},{"town":"千々賀","koaza":"古園","lat":33.4012,"lng":129.963747,"zip":"8470831"},{"town":"新興町","koaza":"西新興町","lat":33.446412,"lng":129.968107,"zip":"8470043"},{"town":"石志","koaza":"中ノ尾","lat":33.392283,"lng":129.971393,"zip":"8470832"},{"town":"山本","koaza":"神田","lat":33.395422,"lng":129.975067,"zip":"8470002"},{"town":"双水","koaza":"山ノ下","lat":33.39693,"lng":129.984387,"zip":"8470001"},{"town":"鏡","koaza":"川原田","lat":33.425557,"lng":130.00398,"zip":"8470022"},{"town":"鏡","koaza":"立神","lat":33.436889,"lng":130.012628,"zip":"8470022"},{"town":"相知町長部田","koaza":"三十六","lat":33.338691,"lng":130.033024,"zip":"8493217"}]