[{"town":"嬉野町大字岩屋川内","koaza":"","lat":33.057929,"lng":129.99467,"zip":"8430300"},{"town":"嬉野町大字下宿","koaza":"","lat":33.104412,"lng":129.977478,"zip":"8430300"},{"town":"嬉野町大字下野","koaza":"","lat":33.101532,"lng":130.008882,"zip":"8430300"},{"town":"嬉野町大字不動山","koaza":"","lat":33.087532,"lng":129.947564,"zip":"8430300"},{"town":"嬉野町大字吉田","koaza":"","lat":33.056262,"lng":130.027948,"zip":"8430300"},{"town":"塩田町大字大草野","koaza":"","lat":33.128695,"lng":130.006386,"zip":"8430300"},{"town":"塩田町大字久間","koaza":"","lat":33.151592,"lng":130.059209,"zip":"8430300"},{"town":"塩田町大字五町田","koaza":"","lat":33.121944,"lng":130.029285,"zip":"8430300"},{"town":"塩田町大字谷所","koaza":"","lat":33.099723,"lng":130.04935,"zip":"8430300"},{"town":"塩田町大字馬場下","koaza":"","lat":33.128672,"lng":130.047784,"zip":"8430300"},{"town":"塩田町大字真崎","koaza":"","lat":33.124279,"lng":130.078474,"zip":"8430300"},{"town":"嬉野町大字不動山","koaza":"丙","lat":33.071648,"lng":129.96111,"zip":"8430300"},{"town":"嬉野町大字不動山","koaza":"甲","lat":33.080978,"lng":129.960183,"zip":"8430300"},{"town":"嬉野町大字下宿","koaza":"丙","lat":33.095065,"lng":129.972076,"zip":"8430300"},{"town":"嬉野町大字下宿","koaza":"丁","lat":33.10735,"lng":129.972227,"zip":"8430300"},{"town":"嬉野町大字岩屋川内","koaza":"乙","lat":33.072073,"lng":129.981391,"zip":"8430300"},{"town":"嬉野町大字下宿","koaza":"乙","lat":33.099522,"lng":129.983805,"zip":"8430300"},{"town":"嬉野町大字岩屋川内","koaza":"甲","lat":33.087944,"lng":129.983288,"zip":"8430300"},{"town":"嬉野町大字下宿","koaza":"甲","lat":33.110719,"lng":129.994535,"zip":"8430300"},{"town":"嬉野町大字下野","koaza":"甲","lat":33.100331,"lng":130.00119,"zip":"8430300"},{"town":"嬉野町大字下野","koaza":"丙","lat":33.120404,"lng":130.002501,"zip":"8430300"},{"town":"嬉野町大字吉田","koaza":"丁","lat":33.070978,"lng":130.011197,"zip":"8430300"},{"town":"嬉野町大字下野","koaza":"乙","lat":33.102035,"lng":130.022364,"zip":"8430300"},{"town":"嬉野町大字吉田","koaza":"丙","lat":33.078207,"lng":130.021605,"zip":"8430300"},{"town":"嬉野町大字吉田","koaza":"甲","lat":33.087258,"lng":130.028329,"zip":"8430300"}]