[{"town":"芦刈町芦溝","koaza":"","lat":33.237635,"lng":130.214574,"zip":"8490311"},{"town":"芦刈町下古賀","koaza":"","lat":33.215906,"lng":130.224856,"zip":"8490312"},{"town":"芦刈町道免","koaza":"","lat":33.216445,"lng":130.216743,"zip":"8490316"},{"town":"芦刈町永田","koaza":"","lat":33.206449,"lng":130.208149,"zip":"8490313"},{"town":"芦刈町浜枝川","koaza":"","lat":33.235227,"lng":130.198628,"zip":"8490315"},{"town":"芦刈町三王崎","koaza":"","lat":33.221975,"lng":130.203448,"zip":"8490314"},{"town":"牛津町牛津","koaza":"","lat":33.244583,"lng":130.203352,"zip":"8490303"},{"town":"牛津町乙柳","koaza":"","lat":33.264711,"lng":130.207714,"zip":"8490301"},{"town":"牛津町柿樋瀬","koaza":"","lat":33.252019,"lng":130.210881,"zip":"8490302"},{"town":"牛津町勝","koaza":"","lat":33.258149,"lng":130.198495,"zip":"8490306"},{"town":"牛津町上砥川","koaza":"","lat":33.240752,"lng":130.179268,"zip":"8490305"},{"town":"牛津町下砥川","koaza":"","lat":33.227488,"lng":130.183147,"zip":"8490304"},{"town":"小城町","koaza":"","lat":33.293299,"lng":130.19726,"zip":"8450001"},{"town":"小城町池上","koaza":"","lat":33.266586,"lng":130.181704,"zip":"8450012"},{"town":"小城町岩蔵","koaza":"","lat":33.322681,"lng":130.184576,"zip":"8450003"},{"town":"小城町栗原","koaza":"","lat":33.28161,"lng":130.17723,"zip":"8450013"},{"town":"小城町畑田","koaza":"","lat":33.307016,"lng":130.178809,"zip":"8450002"},{"town":"小城町晴気","koaza":"","lat":33.300819,"lng":130.169746,"zip":"8450014"},{"town":"小城町船田","koaza":"","lat":33.278736,"lng":130.186014,"zip":"8450011"},{"town":"小城町松尾","koaza":"","lat":33.318272,"lng":130.20946,"zip":"8450004"},{"town":"三日月町石木","koaza":"","lat":33.272613,"lng":130.202231,"zip":"8450035"},{"town":"三日月町織島","koaza":"","lat":33.312379,"lng":130.220977,"zip":"8450023"},{"town":"三日月町金田","koaza":"","lat":33.258178,"lng":130.233807,"zip":"8450032"},{"town":"三日月町久米","koaza":"","lat":33.285747,"lng":130.205711,"zip":"8450022"},{"town":"三日月町甲柳原","koaza":"","lat":33.273921,"lng":130.209129,"zip":"8450034"},{"town":"三日月町長神田","koaza":"","lat":33.281684,"lng":130.214408,"zip":"8450021"},{"town":"三日月町樋口","koaza":"","lat":33.26126,"lng":130.222213,"zip":"8450033"},{"town":"三日月町堀江","koaza":"","lat":33.270069,"lng":130.236178,"zip":"8450031"},{"town":"三日月町三ヶ島","koaza":"","lat":33.280773,"lng":130.22893,"zip":"8450000"},{"town":"三日月町道辺","koaza":"","lat":33.285007,"lng":130.235884,"zip":"8450024"},{"town":"三日月町長神田","koaza":"大寺","lat":33.278264,"lng":130.215471,"zip":"8450021"}]