[{"town":"大字有浦上","koaza":"","lat":33.477367,"lng":129.890986,"zip":"8471400"},{"town":"大字有浦下","koaza":"","lat":33.484509,"lng":129.883069,"zip":"8471400"},{"town":"大字石田","koaza":"","lat":33.479133,"lng":129.861665,"zip":"8471400"},{"town":"大字今村","koaza":"","lat":33.503382,"lng":129.852354,"zip":"8471400"},{"town":"大字大串新田","koaza":"","lat":33.451131,"lng":129.85324,"zip":"8471400"},{"town":"大字大薗","koaza":"","lat":33.485544,"lng":129.844733,"zip":"8471400"},{"town":"大字仮屋","koaza":"","lat":33.474964,"lng":129.839478,"zip":"8471400"},{"town":"大字小加倉","koaza":"","lat":33.492883,"lng":129.878695,"zip":"8471400"},{"town":"大字新田","koaza":"","lat":33.466789,"lng":129.857026,"zip":"8471400"},{"town":"大字座川内","koaza":"","lat":33.442512,"lng":129.86544,"zip":"8471400"},{"town":"大字田代","koaza":"","lat":33.45173,"lng":129.883155,"zip":"8471400"},{"town":"大字値賀川内","koaza":"","lat":33.501833,"lng":129.868125,"zip":"8471400"},{"town":"大字轟木","koaza":"","lat":33.459218,"lng":129.881098,"zip":"8471400"},{"town":"大字長倉","koaza":"","lat":33.466561,"lng":129.882687,"zip":"8471400"},{"town":"大字浜野浦","koaza":"","lat":33.489004,"lng":129.846413,"zip":"8471400"},{"town":"大字平尾","koaza":"","lat":33.494178,"lng":129.847815,"zip":"8471400"},{"town":"大字普恩寺","koaza":"","lat":33.503382,"lng":129.838533,"zip":"8471400"},{"town":"大字藤平","koaza":"","lat":33.459435,"lng":129.891479,"zip":"8471400"},{"town":"大字牟形","koaza":"","lat":33.454514,"lng":129.868804,"zip":"8471400"},{"town":"大字諸浦","koaza":"","lat":33.469825,"lng":129.872094,"zip":"8471400"},{"town":"大字湯野尾","koaza":"","lat":33.437949,"lng":129.873533,"zip":"8471400"}]