[{"town":"神埼町姉川","koaza":"","lat":33.290315,"lng":130.347052,"zip":"8420014"},{"town":"神埼町的","koaza":"","lat":33.351948,"lng":130.368271,"zip":"8420123"},{"town":"神埼町枝ヶ里","koaza":"","lat":33.307086,"lng":130.37008,"zip":"8420000"},{"town":"神埼町尾崎","koaza":"","lat":33.327617,"lng":130.346456,"zip":"8420015"},{"town":"神埼町神埼","koaza":"","lat":33.307245,"lng":130.373727,"zip":"8420001"},{"town":"神埼町城原","koaza":"","lat":33.341104,"lng":130.353702,"zip":"8420122"},{"town":"神埼町志波屋","koaza":"","lat":33.354016,"lng":130.376313,"zip":"8420121"},{"town":"神埼町竹","koaza":"","lat":33.316792,"lng":130.359651,"zip":"8420011"},{"town":"神埼町田道ヶ里","koaza":"","lat":33.312515,"lng":130.380607,"zip":"8420000"},{"town":"神埼町鶴","koaza":"","lat":33.324794,"lng":130.373241,"zip":"8420107"},{"town":"神埼町永歌","koaza":"","lat":33.294562,"lng":130.374669,"zip":"8420004"},{"town":"神埼町西小津ヶ里","koaza":"","lat":33.30198,"lng":130.371105,"zip":"8420000"},{"town":"神埼町本告牟田","koaza":"","lat":33.29892,"lng":130.36391,"zip":"8420013"},{"town":"神埼町本堀","koaza":"","lat":33.2986,"lng":130.385237,"zip":"8420003"},{"town":"神埼町横武","koaza":"","lat":33.299857,"lng":130.353735,"zip":"8420012"},{"town":"脊振町服巻","koaza":"","lat":33.414714,"lng":130.346291,"zip":"8420203"},{"town":"脊振町広滝","koaza":"","lat":33.376843,"lng":130.342023,"zip":"8420201"},{"town":"脊振町鹿路","koaza":"","lat":33.375556,"lng":130.30427,"zip":"8420202"},{"town":"千代田町姉","koaza":"","lat":33.284116,"lng":130.36572,"zip":"8420052"},{"town":"千代田町餘江","koaza":"","lat":33.260302,"lng":130.359947,"zip":"8420054"},{"town":"千代田町嘉納","koaza":"","lat":33.279655,"lng":130.37711,"zip":"8420067"},{"town":"千代田町黒井","koaza":"","lat":33.280245,"lng":130.359102,"zip":"8420051"},{"town":"千代田町境原","koaza":"","lat":33.272048,"lng":130.346045,"zip":"8420056"},{"town":"千代田町崎村","koaza":"","lat":33.252833,"lng":130.387023,"zip":"8420065"},{"town":"千代田町下板","koaza":"","lat":33.282862,"lng":130.389382,"zip":"8420068"},{"town":"千代田町下西","koaza":"","lat":33.259217,"lng":130.346558,"zip":"8420055"},{"town":"千代田町詫田","koaza":"","lat":33.274262,"lng":130.387659,"zip":"8420061"},{"town":"千代田町直鳥","koaza":"","lat":33.270495,"lng":130.370478,"zip":"8420053"},{"town":"千代田町迎島","koaza":"","lat":33.256902,"lng":130.409312,"zip":"8420063"},{"town":"千代田町柳島","koaza":"","lat":33.27269,"lng":130.402699,"zip":"8420062"},{"town":"千代田町用作","koaza":"","lat":33.258602,"lng":130.373625,"zip":"8420066"},{"town":"千代田町渡瀬","koaza":"","lat":33.26812,"lng":130.39568,"zip":"8420064"},{"town":"神埼町本告牟田","koaza":"八本松","lat":33.299836,"lng":130.365254,"zip":"8420013"}]