[{"town":"赤絵町一丁目","koaza":"","lat":33.187835,"lng":129.895783,"zip":"8440006"},{"town":"赤絵町二丁目","koaza":"","lat":33.187399,"lng":129.896354,"zip":"8440006"},{"town":"赤坂","koaza":"","lat":33.19353,"lng":129.873526,"zip":"8440024"},{"town":"泉山一丁目","koaza":"","lat":33.19423,"lng":129.908657,"zip":"8440001"},{"town":"泉山二丁目","koaza":"","lat":33.191256,"lng":129.908632,"zip":"8440001"},{"town":"岩谷川内一丁目","koaza":"","lat":33.183431,"lng":129.887756,"zip":"8440011"},{"town":"岩谷川内二丁目","koaza":"","lat":33.184308,"lng":129.892354,"zip":"8440011"},{"town":"岩谷川内三丁目","koaza":"","lat":33.182819,"lng":129.891161,"zip":"8440011"},{"town":"応法","koaza":"","lat":33.203922,"lng":129.878063,"zip":"8440021"},{"town":"大木宿","koaza":"","lat":33.220158,"lng":129.853288,"zip":"8494154"},{"town":"大樽一丁目","koaza":"","lat":33.190635,"lng":129.899093,"zip":"8440004"},{"town":"大樽二丁目","koaza":"","lat":33.189031,"lng":129.899958,"zip":"8440004"},{"town":"大野","koaza":"","lat":33.173526,"lng":129.892604,"zip":"8440013"},{"town":"上内野","koaza":"","lat":33.206879,"lng":129.831112,"zip":"8494162"},{"town":"上幸平一丁目","koaza":"","lat":33.191867,"lng":129.901436,"zip":"8440003"},{"town":"上幸平二丁目","koaza":"","lat":33.190962,"lng":129.901703,"zip":"8440003"},{"town":"上本","koaza":"","lat":33.188019,"lng":129.834717,"zip":"8494174"},{"town":"上山谷","koaza":"","lat":33.229166,"lng":129.826127,"zip":"8494144"},{"town":"北ノ川内","koaza":"","lat":33.196159,"lng":129.833467,"zip":"8494166"},{"town":"楠木原","koaza":"","lat":33.18161,"lng":129.835569,"zip":"8494175"},{"town":"黒川","koaza":"","lat":33.193214,"lng":129.85514,"zip":"8494165"},{"town":"黒牟田","koaza":"","lat":33.199993,"lng":129.871468,"zip":"8440022"},{"town":"桑古場","koaza":"","lat":33.178098,"lng":129.885335,"zip":"8440012"},{"town":"桑木原","koaza":"","lat":33.220067,"lng":129.833223,"zip":"8494156"},{"town":"幸平一丁目","koaza":"","lat":33.189628,"lng":129.89747,"zip":"8440005"},{"town":"幸平二丁目","koaza":"","lat":33.188618,"lng":129.897979,"zip":"8440005"},{"town":"境野","koaza":"","lat":33.167884,"lng":129.92799,"zip":"8440016"},{"town":"下内野","koaza":"","lat":33.202856,"lng":129.841025,"zip":"8494163"},{"town":"下本","koaza":"","lat":33.190783,"lng":129.849074,"zip":"8494172"},{"town":"下山谷","koaza":"","lat":33.230616,"lng":129.856251,"zip":"8494143"},{"town":"白川一丁目","koaza":"","lat":33.193326,"lng":129.893974,"zip":"8440007"},{"town":"白川二丁目","koaza":"","lat":33.192743,"lng":129.893691,"zip":"8440007"},{"town":"蔵宿","koaza":"","lat":33.202856,"lng":129.854137,"zip":"8494161"},{"town":"岳","koaza":"","lat":33.23114,"lng":129.824211,"zip":"8494146"},{"town":"立部","koaza":"","lat":33.209628,"lng":129.829841,"zip":"8494153"},{"town":"戸杓","koaza":"","lat":33.172513,"lng":129.880932,"zip":"8440017"},{"town":"戸矢","koaza":"","lat":33.164956,"lng":129.898091,"zip":"8440014"},{"town":"中樽一丁目","koaza":"","lat":33.190038,"lng":129.903999,"zip":"8440002"},{"town":"中樽二丁目","koaza":"","lat":33.187529,"lng":129.909767,"zip":"8440002"},{"town":"中樽三丁目","koaza":"","lat":33.186993,"lng":129.907162,"zip":"8440002"},{"town":"中の原一丁目","koaza":"","lat":33.185895,"lng":129.891422,"zip":"8440009"},{"town":"中の原二丁目","koaza":"","lat":33.185934,"lng":129.893169,"zip":"8440009"},{"town":"南山","koaza":"","lat":33.175389,"lng":129.867624,"zip":"8440028"},{"town":"南原","koaza":"","lat":33.18828,"lng":129.864756,"zip":"8440027"},{"town":"二ノ瀬","koaza":"","lat":33.235958,"lng":129.859589,"zip":"8494141"},{"town":"原明","koaza":"","lat":33.181316,"lng":129.854016,"zip":"8494176"},{"town":"稗古場一丁目","koaza":"","lat":33.189169,"lng":129.895809,"zip":"8440008"},{"town":"稗古場二丁目","koaza":"","lat":33.188749,"lng":129.894252,"zip":"8440008"},{"town":"広瀬","koaza":"","lat":33.215203,"lng":129.861977,"zip":"8494152"},{"town":"広瀬山","koaza":"","lat":33.216539,"lng":129.883564,"zip":"8494151"},{"town":"古木場","koaza":"","lat":33.168817,"lng":129.912971,"zip":"8440015"},{"town":"外尾町","koaza":"","lat":33.185798,"lng":129.882342,"zip":"8440026"},{"town":"外尾山","koaza":"","lat":33.187511,"lng":129.87762,"zip":"8440025"},{"town":"仏ノ原","koaza":"","lat":33.200061,"lng":129.855662,"zip":"8494164"},{"town":"本町","koaza":"","lat":33.183868,"lng":129.879127,"zip":"8440018"},{"town":"舞原","koaza":"","lat":33.187083,"lng":129.849818,"zip":"8494173"},{"town":"丸尾","koaza":"","lat":33.193276,"lng":129.880594,"zip":"8440023"},{"town":"山谷切口","koaza":"","lat":33.233232,"lng":129.839005,"zip":"8494145"},{"town":"山谷牧","koaza":"","lat":33.228334,"lng":129.866327,"zip":"8494142"},{"town":"山本","koaza":"","lat":33.216178,"lng":129.826263,"zip":"8494155"},{"town":"代々木","koaza":"","lat":33.187631,"lng":129.853634,"zip":"8494171"},{"town":"原明","koaza":"乙","lat":33.182115,"lng":129.850306,"zip":"8494176"},{"town":"立部","koaza":"乙","lat":33.213161,"lng":129.848844,"zip":"8494153"},{"town":"大木宿","koaza":"乙","lat":33.221573,"lng":129.848358,"zip":"8494154"},{"town":"北ノ川内","koaza":"丙","lat":33.196725,"lng":129.849215,"zip":"8494166"},{"town":"蔵宿","koaza":"丙","lat":33.207871,"lng":129.85064,"zip":"8494161"},{"town":"二ノ瀬","koaza":"甲","lat":33.239286,"lng":129.852355,"zip":"8494141"},{"town":"立部","koaza":"甲","lat":33.208564,"lng":129.85319,"zip":"8494153"},{"town":"黒川","koaza":"甲","lat":33.19344,"lng":129.85401,"zip":"8494165"},{"town":"広瀬","koaza":"甲","lat":33.215635,"lng":129.861646,"zip":"8494152"},{"town":"南原","koaza":"上迎原甲","lat":33.192387,"lng":129.866746,"zip":"8440027"},{"town":"南原","koaza":"甲","lat":33.189252,"lng":129.868284,"zip":"8440027"},{"town":"南山","koaza":"丁","lat":33.181335,"lng":129.868535,"zip":"8440028"},{"town":"南原","koaza":"丁","lat":33.184918,"lng":129.867879,"zip":"8440027"},{"town":"広瀬山","koaza":"甲","lat":33.221405,"lng":129.8846,"zip":"8494151"},{"town":"黒牟田","koaza":"丙","lat":33.199006,"lng":129.876291,"zip":"8440022"},{"town":"戸杓","koaza":"丙","lat":33.181633,"lng":129.877525,"zip":"8440017"},{"town":"本町","koaza":"丙","lat":33.183518,"lng":129.880407,"zip":"8440018"},{"town":"丸尾","koaza":"丙","lat":33.194696,"lng":129.88259,"zip":"8440023"},{"town":"赤坂","koaza":"丙","lat":33.194513,"lng":129.875138,"zip":"8440024"},{"town":"戸杓","koaza":"乙","lat":33.179153,"lng":129.880799,"zip":"8440017"},{"town":"桑古場","koaza":"乙","lat":33.179585,"lng":129.886827,"zip":"8440012"},{"town":"本町","koaza":"乙","lat":33.180673,"lng":129.883045,"zip":"8440018"},{"town":"戸矢","koaza":"乙","lat":33.163825,"lng":129.90288,"zip":"8440014"},{"town":"大野","koaza":"乙","lat":33.176375,"lng":129.889575,"zip":"8440013"},{"town":"代々木","koaza":"井出平甲","lat":33.187327,"lng":129.854784,"zip":"8494171"}]