[{"town":"秋葉町一丁目","koaza":"","lat":33.371616,"lng":130.513972,"zip":"8410036"},{"town":"秋葉町二丁目","koaza":"","lat":33.370438,"lng":130.512601,"zip":"8410036"},{"town":"秋葉町三丁目","koaza":"","lat":33.372513,"lng":130.512162,"zip":"8410036"},{"town":"浅井町","koaza":"","lat":33.387197,"lng":130.505746,"zip":"8410082"},{"town":"あさひ新町","koaza":"","lat":33.349067,"lng":130.498625,"zip":"8410068"},{"town":"安楽寺町","koaza":"","lat":33.346662,"lng":130.517828,"zip":"8410045"},{"town":"飯田町","koaza":"","lat":33.380388,"lng":130.538449,"zip":"8410022"},{"town":"今泉町","koaza":"","lat":33.361688,"lng":130.515765,"zip":"8410047"},{"town":"今町","koaza":"","lat":33.407747,"lng":130.525941,"zip":"8410001"},{"town":"牛原町","koaza":"","lat":33.399516,"lng":130.4525,"zip":"8410086"},{"town":"江島町","koaza":"","lat":33.34851,"lng":130.478171,"zip":"8410073"},{"town":"加藤田町一丁目","koaza":"","lat":33.391342,"lng":130.515536,"zip":"8410003"},{"town":"加藤田町二丁目","koaza":"","lat":33.391665,"lng":130.51344,"zip":"8410003"},{"town":"加藤田町三丁目","koaza":"","lat":33.393072,"lng":130.512626,"zip":"8410003"},{"town":"萱方町","koaza":"","lat":33.386673,"lng":130.504179,"zip":"8410081"},{"town":"河内町","koaza":"","lat":33.415693,"lng":130.464669,"zip":"8410087"},{"town":"河内町貝方","koaza":"","lat":33.403907,"lng":130.468667,"zip":"8410000"},{"town":"河内町転石","koaza":"","lat":33.403564,"lng":130.481394,"zip":"8410000"},{"town":"河内町横井","koaza":"","lat":33.398772,"lng":130.490809,"zip":"8410000"},{"town":"儀徳町","koaza":"","lat":33.352054,"lng":130.495056,"zip":"8410066"},{"town":"京町","koaza":"","lat":33.372988,"lng":130.518929,"zip":"8410034"},{"town":"蔵上一丁目","koaza":"","lat":33.378835,"lng":130.494297,"zip":"8410056"},{"town":"蔵上二丁目","koaza":"","lat":33.375669,"lng":130.493612,"zip":"8410056"},{"town":"蔵上三丁目","koaza":"","lat":33.375817,"lng":130.49198,"zip":"8410056"},{"town":"蔵上四丁目","koaza":"","lat":33.37187,"lng":130.497349,"zip":"8410056"},{"town":"蔵上町","koaza":"","lat":33.367929,"lng":130.494561,"zip":"8410054"},{"town":"神辺町","koaza":"","lat":33.395867,"lng":130.5046,"zip":"8410004"},{"town":"古賀町","koaza":"","lat":33.387752,"lng":130.499457,"zip":"8410083"},{"town":"幸津町","koaza":"","lat":33.357035,"lng":130.494329,"zip":"8410062"},{"town":"酒井西町","koaza":"","lat":33.365472,"lng":130.530697,"zip":"8410042"},{"town":"酒井東町","koaza":"","lat":33.35819,"lng":130.536714,"zip":"8410041"},{"town":"桜ケ丘町","koaza":"","lat":33.374988,"lng":130.486689,"zip":"8410088"},{"town":"桜町","koaza":"","lat":33.38629,"lng":130.523889,"zip":"8410014"},{"town":"下野町","koaza":"","lat":33.337258,"lng":130.501232,"zip":"8410063"},{"town":"宿町","koaza":"","lat":33.37509,"lng":130.504015,"zip":"8410052"},{"town":"曽根崎町","koaza":"","lat":33.376405,"lng":130.527441,"zip":"8410025"},{"town":"大正町","koaza":"","lat":33.376848,"lng":130.514938,"zip":"8410032"},{"town":"高田町","koaza":"","lat":33.348145,"lng":130.523646,"zip":"8410044"},{"town":"田代上町","koaza":"","lat":33.390152,"lng":130.522299,"zip":"8410015"},{"town":"田代昌町","koaza":"","lat":33.392709,"lng":130.52668,"zip":"8410012"},{"town":"田代新町","koaza":"","lat":33.39114,"lng":130.524497,"zip":"8410013"},{"town":"田代大官町","koaza":"","lat":33.389562,"lng":130.518252,"zip":"8410017"},{"town":"田代外町","koaza":"","lat":33.385668,"lng":130.517325,"zip":"8410016"},{"town":"田代本町","koaza":"","lat":33.395606,"lng":130.519947,"zip":"8410018"},{"town":"立石町","koaza":"","lat":33.372788,"lng":130.457881,"zip":"8410075"},{"town":"土井町","koaza":"","lat":33.381417,"lng":130.510303,"zip":"8410039"},{"town":"轟木町","koaza":"","lat":33.360857,"lng":130.502006,"zip":"8410061"},{"town":"永吉町","koaza":"","lat":33.398117,"lng":130.528815,"zip":"8410011"},{"town":"西新町","koaza":"","lat":33.3576,"lng":130.470645,"zip":"8410074"},{"town":"西田町","koaza":"","lat":33.350539,"lng":130.491271,"zip":"8410067"},{"town":"幡崎町","koaza":"","lat":33.392121,"lng":130.535608,"zip":"8410021"},{"town":"原古賀町","koaza":"","lat":33.370828,"lng":130.487564,"zip":"8410071"},{"town":"原町","koaza":"","lat":33.382015,"lng":130.528381,"zip":"8410024"},{"town":"東町一丁目","koaza":"","lat":33.370958,"lng":130.517464,"zip":"8410035"},{"town":"東町二丁目","koaza":"","lat":33.37112,"lng":130.51513,"zip":"8410035"},{"town":"東町三丁目","koaza":"","lat":33.36884,"lng":130.514139,"zip":"8410035"},{"town":"姫方町","koaza":"","lat":33.387251,"lng":130.533919,"zip":"8410023"},{"town":"平田町","koaza":"","lat":33.375921,"lng":130.463663,"zip":"8410076"},{"town":"藤木町","koaza":"","lat":33.364967,"lng":130.523739,"zip":"8410048"},{"town":"布津原町","koaza":"","lat":33.37647,"lng":130.500123,"zip":"8410053"},{"town":"古野町","koaza":"","lat":33.380655,"lng":130.515076,"zip":"8410038"},{"town":"本通町一丁目","koaza":"","lat":33.373653,"lng":130.515926,"zip":"8410033"},{"town":"本通町二丁目","koaza":"","lat":33.3726,"lng":130.515777,"zip":"8410033"},{"town":"本鳥栖町","koaza":"","lat":33.377241,"lng":130.519361,"zip":"8410026"},{"town":"本町一丁目","koaza":"","lat":33.37586,"lng":130.513526,"zip":"8410037"},{"town":"本町二丁目","koaza":"","lat":33.375576,"lng":130.510648,"zip":"8410037"},{"town":"本町三丁目","koaza":"","lat":33.378858,"lng":130.508774,"zip":"8410037"},{"town":"前田町","koaza":"","lat":33.34887,"lng":130.495102,"zip":"8410065"},{"town":"真木町","koaza":"","lat":33.354182,"lng":130.513424,"zip":"8410046"},{"town":"松原町","koaza":"","lat":33.381094,"lng":130.522135,"zip":"8410027"},{"town":"三島町","koaza":"","lat":33.332993,"lng":130.483037,"zip":"8410064"},{"town":"三島町於保里","koaza":"","lat":33.337793,"lng":130.482251,"zip":"8410000"},{"town":"三島町田出島","koaza":"","lat":33.333299,"lng":130.494544,"zip":"8410000"},{"town":"三島町不動島","koaza":"","lat":33.337009,"lng":130.495192,"zip":"8410000"},{"town":"水屋町","koaza":"","lat":33.348448,"lng":130.529927,"zip":"8410043"},{"town":"村田町","koaza":"","lat":33.359182,"lng":130.483472,"zip":"8410072"},{"town":"村田町五反三歩","koaza":"","lat":33.352295,"lng":130.461352,"zip":"8410000"},{"town":"元町","koaza":"","lat":33.371412,"lng":130.509194,"zip":"8410051"},{"town":"養父町","koaza":"","lat":33.382645,"lng":130.493999,"zip":"8410055"},{"town":"山浦町","koaza":"","lat":33.38082,"lng":130.478412,"zip":"8410084"},{"town":"山都町","koaza":"","lat":33.373999,"lng":130.474353,"zip":"8410085"},{"town":"弥生が丘一丁目","koaza":"","lat":33.402964,"lng":130.526388,"zip":"8410005"},{"town":"弥生が丘二丁目","koaza":"","lat":33.406409,"lng":130.52318,"zip":"8410005"},{"town":"弥生が丘三丁目","koaza":"","lat":33.410777,"lng":130.52034,"zip":"8410005"},{"town":"弥生が丘四丁目","koaza":"","lat":33.407958,"lng":130.518991,"zip":"8410005"},{"town":"弥生が丘五丁目","koaza":"","lat":33.403872,"lng":130.518665,"zip":"8410005"},{"town":"弥生が丘六丁目","koaza":"","lat":33.400932,"lng":130.517195,"zip":"8410005"},{"town":"弥生が丘七丁目","koaza":"","lat":33.406383,"lng":130.514473,"zip":"8410005"},{"town":"弥生が丘八丁目","koaza":"","lat":33.405439,"lng":130.511474,"zip":"8410005"},{"town":"鎗田町","koaza":"","lat":33.383179,"lng":130.512614,"zip":"8410031"},{"town":"柚比町","koaza":"","lat":33.402098,"lng":130.506352,"zip":"8410002"},{"town":"江島町","koaza":"熊本","lat":33.356153,"lng":130.478532,"zip":"8410073"},{"town":"古賀町","koaza":"花ノ木","lat":33.38527,"lng":130.499774,"zip":"8410083"},{"town":"轟木町","koaza":"二本黒木","lat":33.364818,"lng":130.501167,"zip":"8410061"},{"town":"元町","koaza":"川原","lat":33.372164,"lng":130.505838,"zip":"8410051"},{"town":"真木町","koaza":"赤井出","lat":33.359773,"lng":130.507334,"zip":"8410046"},{"town":"神辺町","koaza":"中川原","lat":33.389628,"lng":130.51385,"zip":"8410004"},{"town":"本鳥栖町","koaza":"下鳥栖","lat":33.375635,"lng":130.517334,"zip":"8410026"}]