[{"town":"八手庭","koaza":"","lat":37.994795,"lng":140.85954,"zip":"9892207"},{"town":"大平","koaza":"","lat":37.989326,"lng":140.865464,"zip":"9892206"},{"town":"小平","koaza":"","lat":37.98142,"lng":140.861343,"zip":"9892205"},{"town":"鷲足","koaza":"","lat":37.974719,"lng":140.860486,"zip":"9892204"},{"town":"真庭","koaza":"","lat":37.933703,"lng":140.878146,"zip":"9892112"},{"town":"高瀬","koaza":"","lat":37.948069,"lng":140.897579,"zip":"9892202"},{"town":"坂元","koaza":"","lat":37.917407,"lng":140.888219,"zip":"9892111"},{"town":"つばめの杜二丁目","koaza":"","lat":37.964005,"lng":140.889357,"zip":"9892208"},{"town":"つばめの杜三丁目","koaza":"","lat":37.963813,"lng":140.886423,"zip":"9892208"},{"town":"つばめの杜四丁目","koaza":"","lat":37.963332,"lng":140.883225,"zip":"9892208"},{"town":"浅生原","koaza":"","lat":37.955162,"lng":140.876304,"zip":"9892203"},{"town":"つばめの杜五丁目","koaza":"","lat":37.965343,"lng":140.881935,"zip":"9892208"},{"town":"山寺","koaza":"","lat":37.972827,"lng":140.891797,"zip":"9892201"},{"town":"つばめの杜一丁目","koaza":"","lat":37.965674,"lng":140.886934,"zip":"9892208"},{"town":"八手庭","koaza":"大沢","lat":37.993103,"lng":140.857351,"zip":"9892207"},{"town":"小平","koaza":"北柳沢","lat":37.984821,"lng":140.853291,"zip":"9892205"},{"town":"山寺","koaza":"入山","lat":37.95555,"lng":140.858245,"zip":"9892201"},{"town":"大平","koaza":"舘ノ内","lat":37.989984,"lng":140.860192,"zip":"9892206"},{"town":"鷲足","koaza":"南","lat":37.971131,"lng":140.857777,"zip":"9892204"},{"town":"高瀬","koaza":"西石山原","lat":37.939301,"lng":140.857474,"zip":"9892202"},{"town":"八手庭","koaza":"北ノ入","lat":37.994699,"lng":140.857679,"zip":"9892207"},{"town":"山寺","koaza":"新山","lat":37.962696,"lng":140.861551,"zip":"9892201"},{"town":"鷲足","koaza":"中","lat":37.974941,"lng":140.861559,"zip":"9892204"},{"town":"坂元","koaza":"影倉三","lat":37.928268,"lng":140.861923,"zip":"9892111"},{"town":"鷲足","koaza":"北","lat":37.976181,"lng":140.861046,"zip":"9892204"},{"town":"小平","koaza":"北ノ入","lat":37.983469,"lng":140.860527,"zip":"9892205"},{"town":"八手庭","koaza":"石田","lat":37.996483,"lng":140.860913,"zip":"9892207"},{"town":"大平","koaza":"宮前","lat":37.989195,"lng":140.860573,"zip":"9892206"},{"town":"八手庭","koaza":"北向","lat":37.995149,"lng":140.859924,"zip":"9892207"},{"town":"小平","koaza":"馬場","lat":37.979499,"lng":140.860506,"zip":"9892205"},{"town":"大平","koaza":"握","lat":37.991125,"lng":140.862988,"zip":"9892206"},{"town":"大平","koaza":"樋下","lat":37.986658,"lng":140.860745,"zip":"9892206"},{"town":"大平","koaza":"原","lat":37.985375,"lng":140.861547,"zip":"9892206"},{"town":"八手庭","koaza":"屋敷","lat":38.000264,"lng":140.863791,"zip":"9892207"},{"town":"小平","koaza":"舘","lat":37.98361,"lng":140.861513,"zip":"9892205"},{"town":"大平","koaza":"馬場","lat":37.989215,"lng":140.862469,"zip":"9892206"},{"town":"小平","koaza":"舘前","lat":37.980793,"lng":140.862898,"zip":"9892205"},{"town":"八手庭","koaza":"前田","lat":37.998041,"lng":140.863565,"zip":"9892207"},{"town":"大平","koaza":"清水","lat":37.987664,"lng":140.865548,"zip":"9892206"},{"town":"山寺","koaza":"石堂","lat":37.966843,"lng":140.860276,"zip":"9892201"},{"town":"山寺","koaza":"谷原","lat":37.967892,"lng":140.865918,"zip":"9892201"},{"town":"鷲足","koaza":"山崎","lat":37.978528,"lng":140.866642,"zip":"9892204"},{"town":"大平","koaza":"畑中","lat":37.988456,"lng":140.864983,"zip":"9892206"},{"town":"大平","koaza":"舘山","lat":37.989931,"lng":140.865698,"zip":"9892206"},{"town":"鷲足","koaza":"中道","lat":37.976289,"lng":140.865425,"zip":"9892204"},{"town":"高瀬","koaza":"北山神","lat":37.939431,"lng":140.867069,"zip":"9892202"},{"town":"小平","koaza":"北","lat":37.984972,"lng":140.866629,"zip":"9892205"},{"town":"浅生原","koaza":"原","lat":37.948732,"lng":140.866876,"zip":"9892203"},{"town":"鷲足","koaza":"中島","lat":37.974404,"lng":140.867048,"zip":"9892204"},{"town":"鷲足","koaza":"栩田","lat":37.973418,"lng":140.867173,"zip":"9892204"},{"town":"山寺","koaza":"的場","lat":37.960825,"lng":140.866639,"zip":"9892201"},{"town":"山寺","koaza":"日向","lat":37.970771,"lng":140.869438,"zip":"9892201"},{"town":"坂元","koaza":"影倉四","lat":37.922458,"lng":140.866035,"zip":"9892111"},{"town":"八手庭","koaza":"大夫","lat":37.995128,"lng":140.865806,"zip":"9892207"},{"town":"山寺","koaza":"石垣","lat":37.96438,"lng":140.868999,"zip":"9892201"},{"town":"八手庭","koaza":"北田","lat":38.000115,"lng":140.86533,"zip":"9892207"},{"town":"八手庭","koaza":"中坪","lat":37.999134,"lng":140.866974,"zip":"9892207"},{"town":"八手庭","koaza":"南田","lat":37.997564,"lng":140.86614,"zip":"9892207"},{"town":"小平","koaza":"南","lat":37.982442,"lng":140.869033,"zip":"9892205"},{"town":"浅生原","koaza":"山王","lat":37.956256,"lng":140.868752,"zip":"9892203"},{"town":"大平","koaza":"横山","lat":37.994275,"lng":140.868372,"zip":"9892206"},{"town":"山寺","koaza":"南原","lat":37.959833,"lng":140.86838,"zip":"9892201"},{"town":"真庭","koaza":"北鹿野","lat":37.933795,"lng":140.869626,"zip":"9892112"},{"town":"高瀬","koaza":"南山神","lat":37.93842,"lng":140.868045,"zip":"9892202"},{"town":"八手庭","koaza":"横山","lat":37.99656,"lng":140.867804,"zip":"9892207"},{"town":"真庭","koaza":"新田","lat":37.928243,"lng":140.867716,"zip":"9892112"},{"town":"八手庭","koaza":"境田","lat":37.99855,"lng":140.867232,"zip":"9892207"},{"town":"八手庭","koaza":"新道北","lat":37.99779,"lng":140.867612,"zip":"9892207"},{"town":"大平","koaza":"石田","lat":37.988957,"lng":140.867979,"zip":"9892206"},{"town":"坂元","koaza":"影倉二","lat":37.925615,"lng":140.868438,"zip":"9892111"},{"town":"浅生原","koaza":"上宮前","lat":37.946376,"lng":140.861441,"zip":"9892203"},{"town":"大平","koaza":"小屋前","lat":37.991968,"lng":140.867808,"zip":"9892206"},{"town":"鷲足","koaza":"中筋","lat":37.976043,"lng":140.869687,"zip":"9892204"},{"town":"浅生原","koaza":"上大沢","lat":37.952061,"lng":140.868233,"zip":"9892203"},{"town":"鷲足","koaza":"南中江","lat":37.976348,"lng":140.868159,"zip":"9892204"},{"town":"大平","koaza":"六角","lat":37.990775,"lng":140.868794,"zip":"9892206"},{"town":"坂元","koaza":"影倉五","lat":37.922767,"lng":140.870198,"zip":"9892111"},{"town":"山寺","koaza":"涌沢","lat":37.964464,"lng":140.869656,"zip":"9892201"},{"town":"真庭","koaza":"鹿野","lat":37.931657,"lng":140.868969,"zip":"9892112"},{"town":"大平","koaza":"日吉","lat":37.991627,"lng":140.870144,"zip":"9892206"},{"town":"大平","koaza":"藤崎","lat":37.990248,"lng":140.869243,"zip":"9892206"},{"town":"高瀬","koaza":"東石山原","lat":37.944164,"lng":140.871753,"zip":"9892202"},{"town":"真庭","koaza":"北台","lat":37.931317,"lng":140.872333,"zip":"9892112"},{"town":"大平","koaza":"藤田","lat":37.99032,"lng":140.870653,"zip":"9892206"},{"town":"真庭","koaza":"袋坂","lat":37.929091,"lng":140.86887,"zip":"9892112"},{"town":"真庭","koaza":"南新田","lat":37.927965,"lng":140.871087,"zip":"9892112"},{"town":"大平","koaza":"牧田","lat":37.988822,"lng":140.870074,"zip":"9892206"},{"town":"山寺","koaza":"畑中","lat":37.969708,"lng":140.870361,"zip":"9892201"},{"town":"浅生原","koaza":"内手","lat":37.957497,"lng":140.871084,"zip":"9892203"},{"town":"大平","koaza":"新平","lat":37.986762,"lng":140.870111,"zip":"9892206"},{"town":"浅生原","koaza":"下大沢","lat":37.951255,"lng":140.873709,"zip":"9892203"},{"town":"山寺","koaza":"赤坂","lat":37.972755,"lng":140.871773,"zip":"9892201"},{"town":"小平","koaza":"境柳","lat":37.986695,"lng":140.869652,"zip":"9892205"},{"town":"浅生原","koaza":"畑","lat":37.948031,"lng":140.873308,"zip":"9892203"},{"town":"高瀬","koaza":"宿原","lat":37.939635,"lng":140.876042,"zip":"9892202"},{"town":"大平","koaza":"五反田","lat":37.991178,"lng":140.870301,"zip":"9892206"},{"town":"山寺","koaza":"堤山","lat":37.965423,"lng":140.871383,"zip":"9892201"},{"town":"坂元","koaza":"上原","lat":37.921587,"lng":140.871612,"zip":"9892111"},{"town":"小平","koaza":"須崎","lat":37.983635,"lng":140.871867,"zip":"9892205"},{"town":"高瀬","koaza":"北ノ原","lat":37.942624,"lng":140.875831,"zip":"9892202"},{"town":"小平","koaza":"谷地","lat":37.982972,"lng":140.872096,"zip":"9892205"},{"town":"大平","koaza":"前田","lat":37.987721,"lng":140.871485,"zip":"9892206"},{"town":"小平","koaza":"山崎","lat":37.981435,"lng":140.871204,"zip":"9892205"},{"town":"坂元","koaza":"上新田","lat":37.919877,"lng":140.873305,"zip":"9892111"},{"town":"鷲足","koaza":"眞魚板橋","lat":37.980703,"lng":140.872566,"zip":"9892204"},{"town":"真庭","koaza":"南権現","lat":37.926776,"lng":140.877821,"zip":"9892112"},{"town":"真庭","koaza":"北権現","lat":37.92924,"lng":140.87529,"zip":"9892112"},{"town":"大平","koaza":"堤下","lat":37.988196,"lng":140.871691,"zip":"9892206"},{"town":"山寺","koaza":"新物見前","lat":37.97336,"lng":140.873365,"zip":"9892201"},{"town":"山寺","koaza":"上西田","lat":37.966597,"lng":140.874521,"zip":"9892201"},{"town":"鷲足","koaza":"竹ノ花","lat":37.9773,"lng":140.873467,"zip":"9892204"},{"town":"坂元","koaza":"杉内","lat":37.902377,"lng":140.87652,"zip":"9892111"},{"town":"坂元","koaza":"原一","lat":37.922128,"lng":140.873582,"zip":"9892111"},{"town":"山寺","koaza":"新清水","lat":37.972534,"lng":140.873212,"zip":"9892201"},{"town":"坂元","koaza":"舘野甲","lat":37.898918,"lng":140.874133,"zip":"9892111"},{"town":"山寺","koaza":"石田","lat":37.971904,"lng":140.874721,"zip":"9892201"},{"town":"山寺","koaza":"古屋敷","lat":37.976404,"lng":140.874601,"zip":"9892201"},{"town":"坂元","koaza":"原二","lat":37.923462,"lng":140.875814,"zip":"9892111"},{"town":"高瀬","koaza":"宮後","lat":37.944931,"lng":140.874993,"zip":"9892202"},{"town":"山寺","koaza":"大堤下","lat":37.962629,"lng":140.874132,"zip":"9892201"},{"town":"山寺","koaza":"物見前","lat":37.974305,"lng":140.873667,"zip":"9892201"},{"town":"浅生原","koaza":"東田","lat":37.959133,"lng":140.874393,"zip":"9892203"},{"town":"浅生原","koaza":"作田山","lat":37.963117,"lng":140.876974,"zip":"9892203"},{"town":"浅生原","koaza":"下宮前","lat":37.955557,"lng":140.881314,"zip":"9892203"},{"town":"山寺","koaza":"沼田","lat":37.975185,"lng":140.874902,"zip":"9892201"},{"town":"山寺","koaza":"樋前","lat":37.969604,"lng":140.87441,"zip":"9892201"},{"town":"山寺","koaza":"中清水","lat":37.97303,"lng":140.874168,"zip":"9892201"},{"town":"山寺","koaza":"作田山","lat":37.965859,"lng":140.875951,"zip":"9892201"},{"town":"浅生原","koaza":"箱根","lat":37.952188,"lng":140.874453,"zip":"9892203"},{"town":"坂元","koaza":"上山神","lat":37.920737,"lng":140.879804,"zip":"9892111"},{"town":"鷲足","koaza":"横田","lat":37.978023,"lng":140.87559,"zip":"9892204"},{"town":"山寺","koaza":"清水","lat":37.973024,"lng":140.874809,"zip":"9892201"},{"town":"山寺","koaza":"堂目木","lat":37.976301,"lng":140.876698,"zip":"9892201"},{"town":"山寺","koaza":"北堤","lat":37.972443,"lng":140.875801,"zip":"9892201"},{"town":"山寺","koaza":"物見橋","lat":37.976985,"lng":140.875017,"zip":"9892201"},{"town":"坂元","koaza":"北原一","lat":37.922964,"lng":140.878084,"zip":"9892111"},{"town":"浅生原","koaza":"日向","lat":37.962184,"lng":140.880979,"zip":"9892203"},{"town":"山寺","koaza":"山下","lat":37.968913,"lng":140.877794,"zip":"9892201"},{"town":"坂元","koaza":"舘野乙","lat":37.900486,"lng":140.878135,"zip":"9892111"},{"town":"真庭","koaza":"舘下","lat":37.935919,"lng":140.878552,"zip":"9892112"},{"town":"山寺","koaza":"中筋","lat":37.972083,"lng":140.877322,"zip":"9892201"},{"town":"坂元","koaza":"熊野堂","lat":37.904772,"lng":140.879226,"zip":"9892111"},{"town":"坂元","koaza":"上作田","lat":37.919309,"lng":140.878034,"zip":"9892111"},{"town":"高瀬","koaza":"竹ノ内原","lat":37.945138,"lng":140.880509,"zip":"9892202"},{"town":"浅生原","koaza":"南山下","lat":37.96485,"lng":140.878818,"zip":"9892203"},{"town":"坂元","koaza":"狸","lat":37.9222,"lng":140.881035,"zip":"9892111"},{"town":"山寺","koaza":"大道","lat":37.971953,"lng":140.880667,"zip":"9892201"},{"town":"山寺","koaza":"上篭田","lat":37.96927,"lng":140.878579,"zip":"9892201"},{"town":"真庭","koaza":"浅生","lat":37.927896,"lng":140.881663,"zip":"9892112"},{"town":"浅生原","koaza":"山下町東","lat":37.966783,"lng":140.879766,"zip":"9892203"},{"town":"山寺","koaza":"篭田","lat":37.969477,"lng":140.879757,"zip":"9892201"},{"town":"高瀬","koaza":"柳町","lat":37.947912,"lng":140.883082,"zip":"9892202"},{"town":"山寺","koaza":"南篭田","lat":37.967958,"lng":140.879385,"zip":"9892201"},{"town":"山寺","koaza":"町東","lat":37.967871,"lng":140.880398,"zip":"9892201"},{"town":"山寺","koaza":"道北","lat":37.970858,"lng":140.879679,"zip":"9892201"},{"town":"真庭","koaza":"北名生東","lat":37.938981,"lng":140.882442,"zip":"9892112"},{"town":"浅生原","koaza":"田中","lat":37.959092,"lng":140.881412,"zip":"9892203"},{"town":"山寺","koaza":"北篭田","lat":37.970547,"lng":140.880813,"zip":"9892201"},{"town":"高瀬","koaza":"室原","lat":37.943166,"lng":140.883195,"zip":"9892202"},{"town":"山寺","koaza":"町下","lat":37.970361,"lng":140.883127,"zip":"9892201"},{"town":"坂元","koaza":"北原二","lat":37.924456,"lng":140.883402,"zip":"9892111"},{"town":"浅生原","koaza":"舘東","lat":37.966335,"lng":140.881944,"zip":"9892203"},{"town":"坂元","koaza":"日向","lat":37.92122,"lng":140.88152,"zip":"9892111"},{"town":"真庭","koaza":"原","lat":37.930635,"lng":140.884072,"zip":"9892112"},{"town":"浅生原","koaza":"新館前","lat":37.962253,"lng":140.882151,"zip":"9892203"},{"town":"高瀬","koaza":"加茂川","lat":37.950663,"lng":140.884449,"zip":"9892202"},{"town":"浅生原","koaza":"道路下","lat":37.960967,"lng":140.884097,"zip":"9892203"},{"town":"山寺","koaza":"小平","lat":37.98613,"lng":140.885039,"zip":"9892201"},{"town":"浅生原","koaza":"道下","lat":37.959582,"lng":140.883672,"zip":"9892203"},{"town":"高瀬","koaza":"大久保","lat":37.947105,"lng":140.884522,"zip":"9892202"},{"town":"坂元","koaza":"井戸沢","lat":37.927392,"lng":140.885341,"zip":"9892111"},{"town":"浅生原","koaza":"上新井田","lat":37.959095,"lng":140.88504,"zip":"9892203"},{"town":"坂元","koaza":"渋沢","lat":37.905445,"lng":140.889238,"zip":"9892111"},{"town":"坂元","koaza":"狸堤下","lat":37.923209,"lng":140.884141,"zip":"9892111"},{"town":"真庭","koaza":"新山神","lat":37.929891,"lng":140.888222,"zip":"9892112"},{"town":"高瀬","koaza":"北","lat":37.958579,"lng":140.886348,"zip":"9892202"},{"town":"高瀬","koaza":"西山下","lat":37.95597,"lng":140.885083,"zip":"9892202"},{"town":"山寺","koaza":"谷地","lat":37.991308,"lng":140.886983,"zip":"9892201"},{"town":"真庭","koaza":"上台","lat":37.934914,"lng":140.886386,"zip":"9892112"},{"town":"真庭","koaza":"名生東","lat":37.939291,"lng":140.888644,"zip":"9892112"},{"town":"山寺","koaza":"大平","lat":37.988642,"lng":140.88825,"zip":"9892201"},{"town":"高瀬","koaza":"北下高瀬","lat":37.952637,"lng":140.887281,"zip":"9892202"},{"town":"高瀬","koaza":"中島","lat":37.948637,"lng":140.887773,"zip":"9892202"},{"town":"高瀬","koaza":"合戦原","lat":37.943689,"lng":140.894553,"zip":"9892202"},{"town":"山寺","koaza":"稲実","lat":37.975635,"lng":140.888144,"zip":"9892201"},{"town":"高瀬","koaza":"南","lat":37.955294,"lng":140.887914,"zip":"9892202"},{"town":"坂元","koaza":"八軒","lat":37.920542,"lng":140.888603,"zip":"9892111"},{"town":"高瀬","koaza":"南下高瀬","lat":37.951296,"lng":140.888862,"zip":"9892202"},{"town":"山寺","koaza":"平沼","lat":37.990964,"lng":140.890129,"zip":"9892201"},{"town":"真庭","koaza":"卯月崎二","lat":37.935208,"lng":140.889643,"zip":"9892112"},{"town":"坂元","koaza":"古寺","lat":37.922183,"lng":140.888526,"zip":"9892111"},{"town":"山寺","koaza":"西牛橋","lat":37.991708,"lng":140.8939,"zip":"9892201"},{"town":"坂元","koaza":"上北越","lat":37.926883,"lng":140.891641,"zip":"9892111"},{"town":"山寺","koaza":"小谷地","lat":37.977176,"lng":140.893643,"zip":"9892201"},{"town":"坂元","koaza":"二本杉","lat":37.922475,"lng":140.890135,"zip":"9892111"},{"town":"山寺","koaza":"雁小屋","lat":37.973039,"lng":140.891765,"zip":"9892201"},{"town":"高瀬","koaza":"舘下","lat":37.951419,"lng":140.891378,"zip":"9892202"},{"town":"山寺","koaza":"雁田","lat":37.969427,"lng":140.891298,"zip":"9892201"},{"town":"坂元","koaza":"舘下","lat":37.92032,"lng":140.893656,"zip":"9892111"},{"town":"高瀬","koaza":"紅葉","lat":37.953793,"lng":140.89253,"zip":"9892202"},{"town":"山寺","koaza":"新田","lat":37.968213,"lng":140.891098,"zip":"9892201"},{"town":"坂元","koaza":"大山","lat":37.923375,"lng":140.891947,"zip":"9892111"},{"town":"山寺","koaza":"高地","lat":37.965195,"lng":140.894693,"zip":"9892201"},{"town":"山寺","koaza":"北泥沼","lat":37.984212,"lng":140.89537,"zip":"9892201"},{"town":"山寺","koaza":"北坪路","lat":37.972462,"lng":140.894552,"zip":"9892201"},{"town":"真庭","koaza":"千保田","lat":37.938961,"lng":140.892848,"zip":"9892112"},{"town":"高瀬","koaza":"梅田","lat":37.957511,"lng":140.893347,"zip":"9892202"},{"town":"山寺","koaza":"東坪路","lat":37.966551,"lng":140.895463,"zip":"9892201"},{"town":"坂元","koaza":"北越","lat":37.928801,"lng":140.894877,"zip":"9892111"},{"town":"高瀬","koaza":"南耕土","lat":37.953544,"lng":140.893337,"zip":"9892202"},{"town":"坂元","koaza":"大畑","lat":37.923717,"lng":140.89376,"zip":"9892111"},{"town":"坂元","koaza":"屋敷南","lat":37.931978,"lng":140.894639,"zip":"9892111"},{"town":"山寺","koaza":"道下","lat":37.974416,"lng":140.894122,"zip":"9892201"},{"town":"坂元","koaza":"原ノ町","lat":37.939582,"lng":140.894394,"zip":"9892111"},{"town":"高瀬","koaza":"赤坂","lat":37.950804,"lng":140.896425,"zip":"9892202"},{"town":"坂元","koaza":"追越","lat":37.92716,"lng":140.894494,"zip":"9892111"},{"town":"坂元","koaza":"屋敷裏","lat":37.93445,"lng":140.895647,"zip":"9892111"},{"town":"坂元","koaza":"寄曽","lat":37.924487,"lng":140.894675,"zip":"9892111"},{"town":"山寺","koaza":"泥沼","lat":37.976861,"lng":140.897239,"zip":"9892201"},{"town":"坂元","koaza":"町","lat":37.921653,"lng":140.897288,"zip":"9892111"},{"town":"坂元","koaza":"寄所","lat":37.926342,"lng":140.896283,"zip":"9892111"},{"town":"坂元","koaza":"北田","lat":37.938934,"lng":140.895501,"zip":"9892111"},{"town":"坂元","koaza":"道合","lat":37.924878,"lng":140.89846,"zip":"9892111"},{"town":"山寺","koaza":"西頭無","lat":37.968074,"lng":140.897276,"zip":"9892201"},{"town":"高瀬","koaza":"上土取場","lat":37.948034,"lng":140.896652,"zip":"9892202"},{"town":"坂元","koaza":"永作","lat":37.918042,"lng":140.900335,"zip":"9892111"},{"town":"坂元","koaza":"戸花山","lat":37.939057,"lng":140.897603,"zip":"9892111"},{"town":"坂元","koaza":"白山坂","lat":37.929275,"lng":140.897391,"zip":"9892111"},{"town":"坂元","koaza":"砂留内","lat":37.935122,"lng":140.89748,"zip":"9892111"},{"town":"高瀬","koaza":"下津土","lat":37.963479,"lng":140.897483,"zip":"9892202"},{"town":"坂元","koaza":"白山","lat":37.928442,"lng":140.89845,"zip":"9892111"},{"town":"山寺","koaza":"頭無","lat":37.966859,"lng":140.900839,"zip":"9892201"},{"town":"山寺","koaza":"北頭無","lat":37.971428,"lng":140.900524,"zip":"9892201"},{"town":"坂元","koaza":"町東","lat":37.92349,"lng":140.899379,"zip":"9892111"},{"town":"坂元","koaza":"向山","lat":37.91936,"lng":140.903211,"zip":"9892111"},{"town":"坂元","koaza":"並松","lat":37.919819,"lng":140.900787,"zip":"9892111"},{"town":"山寺","koaza":"牛橋","lat":37.991045,"lng":140.899872,"zip":"9892201"},{"town":"高瀬","koaza":"諏訪原","lat":37.943564,"lng":140.901284,"zip":"9892202"},{"town":"山寺","koaza":"畑合","lat":37.977702,"lng":140.90207,"zip":"9892201"},{"town":"坂元","koaza":"大森","lat":37.90201,"lng":140.902008,"zip":"9892111"},{"town":"坂元","koaza":"大谷地","lat":37.927751,"lng":140.905175,"zip":"9892111"},{"town":"山寺","koaza":"東泥沼","lat":37.986902,"lng":140.90371,"zip":"9892201"},{"town":"坂元","koaza":"上南原","lat":37.903908,"lng":140.901329,"zip":"9892111"},{"town":"高瀬","koaza":"西北谷地","lat":37.963977,"lng":140.904713,"zip":"9892202"},{"town":"坂元","koaza":"上平北","lat":37.90975,"lng":140.902674,"zip":"9892111"},{"town":"坂元","koaza":"茨田","lat":37.931252,"lng":140.908812,"zip":"9892111"},{"town":"高瀬","koaza":"川津戸","lat":37.950119,"lng":140.905381,"zip":"9892202"},{"town":"坂元","koaza":"大作","lat":37.937202,"lng":140.903901,"zip":"9892111"},{"town":"浅生原","koaza":"砂押","lat":37.965619,"lng":140.904473,"zip":"9892203"},{"town":"坂元","koaza":"山作","lat":37.921742,"lng":140.903921,"zip":"9892111"},{"town":"高瀬","koaza":"天王川","lat":37.960485,"lng":140.906596,"zip":"9892202"},{"town":"高瀬","koaza":"西須賀","lat":37.958269,"lng":140.905596,"zip":"9892202"},{"town":"山寺","koaza":"東畑合","lat":37.977627,"lng":140.90377,"zip":"9892201"},{"town":"高瀬","koaza":"新浜三","lat":37.9434,"lng":140.905643,"zip":"9892202"},{"town":"山寺","koaza":"白川","lat":37.966611,"lng":140.906676,"zip":"9892201"},{"town":"坂元","koaza":"坂下","lat":37.923238,"lng":140.904616,"zip":"9892111"},{"town":"高瀬","koaza":"杉田","lat":37.956301,"lng":140.902017,"zip":"9892202"},{"town":"坂元","koaza":"一ツ橋","lat":37.90326,"lng":140.909021,"zip":"9892111"},{"town":"坂元","koaza":"大作堤下","lat":37.940699,"lng":140.906525,"zip":"9892111"},{"town":"坂元","koaza":"狐塚","lat":37.920902,"lng":140.906496,"zip":"9892111"},{"town":"山寺","koaza":"浜","lat":37.971402,"lng":140.908963,"zip":"9892201"},{"town":"坂元","koaza":"鎌沼","lat":37.93882,"lng":140.907225,"zip":"9892111"},{"town":"山寺","koaza":"川東畑合","lat":37.976598,"lng":140.907923,"zip":"9892201"},{"town":"山寺","koaza":"川東","lat":37.970407,"lng":140.906235,"zip":"9892201"},{"town":"山寺","koaza":"矢来山","lat":37.983499,"lng":140.906988,"zip":"9892201"},{"town":"高瀬","koaza":"北中須賀","lat":37.956424,"lng":140.909543,"zip":"9892202"},{"town":"高瀬","koaza":"狐須賀","lat":37.950481,"lng":140.908348,"zip":"9892202"},{"town":"山寺","koaza":"浜野","lat":37.992606,"lng":140.910606,"zip":"9892201"},{"town":"高瀬","koaza":"新浜一","lat":37.947441,"lng":140.908932,"zip":"9892202"},{"town":"高瀬","koaza":"南中須賀","lat":37.95299,"lng":140.907583,"zip":"9892202"},{"town":"坂元","koaza":"蛭渕","lat":37.929054,"lng":140.908546,"zip":"9892111"},{"town":"高瀬","koaza":"古谷地","lat":37.962614,"lng":140.909822,"zip":"9892202"},{"town":"高瀬","koaza":"笠野","lat":37.956254,"lng":140.911514,"zip":"9892202"},{"town":"坂元","koaza":"根岸","lat":37.92096,"lng":140.910498,"zip":"9892111"},{"town":"高瀬","koaza":"新浜二","lat":37.939398,"lng":140.912516,"zip":"9892202"},{"town":"坂元","koaza":"北山神","lat":37.937793,"lng":140.910282,"zip":"9892111"},{"town":"坂元","koaza":"天神","lat":37.922108,"lng":140.910307,"zip":"9892111"},{"town":"山寺","koaza":"須賀","lat":37.992576,"lng":140.911708,"zip":"9892201"},{"town":"坂元","koaza":"新代","lat":37.938335,"lng":140.911071,"zip":"9892111"},{"town":"坂元","koaza":"堀下","lat":37.922572,"lng":140.91266,"zip":"9892111"},{"town":"坂元","koaza":"長沼下","lat":37.929927,"lng":140.912555,"zip":"9892111"},{"town":"坂元","koaza":"中島","lat":37.928114,"lng":140.911477,"zip":"9892111"},{"town":"坂元","koaza":"切立","lat":37.935299,"lng":140.912458,"zip":"9892111"},{"town":"坂元","koaza":"芦合","lat":37.942366,"lng":140.914728,"zip":"9892111"},{"town":"坂元","koaza":"赤戸","lat":37.933533,"lng":140.912208,"zip":"9892111"},{"town":"坂元","koaza":"二又","lat":37.927295,"lng":140.913715,"zip":"9892111"},{"town":"坂元","koaza":"柳橋","lat":37.932036,"lng":140.912558,"zip":"9892111"},{"town":"高瀬","koaza":"浜砂","lat":37.958058,"lng":140.91425,"zip":"9892202"},{"town":"坂元","koaza":"芦田","lat":37.93476,"lng":140.913217,"zip":"9892111"},{"town":"坂元","koaza":"後谷地","lat":37.923407,"lng":140.914533,"zip":"9892111"},{"town":"坂元","koaza":"下谷","lat":37.932659,"lng":140.91403,"zip":"9892111"},{"town":"坂元","koaza":"北谷地","lat":37.924896,"lng":140.916474,"zip":"9892111"},{"town":"坂元","koaza":"後藤渕","lat":37.935948,"lng":140.91641,"zip":"9892111"},{"town":"坂元","koaza":"浜","lat":37.919971,"lng":140.921153,"zip":"9892111"},{"town":"坂元","koaza":"習川","lat":37.922866,"lng":140.916921,"zip":"9892111"},{"town":"坂元","koaza":"花立","lat":37.920586,"lng":140.915982,"zip":"9892111"},{"town":"坂元","koaza":"久根","lat":37.920443,"lng":140.917156,"zip":"9892111"},{"town":"坂元","koaza":"赤川","lat":37.899326,"lng":140.920057,"zip":"9892111"},{"town":"坂元","koaza":"中浜","lat":37.920344,"lng":140.919401,"zip":"9892111"},{"town":"坂元","koaza":"木ノ岡","lat":37.896695,"lng":140.920564,"zip":"9892111"},{"town":"坂元","koaza":"塩釜場","lat":37.921986,"lng":140.919566,"zip":"9892111"},{"town":"坂元","koaza":"下木ノ岡","lat":37.89779,"lng":140.922387,"zip":"9892111"},{"town":"坂元","koaza":"磯浜","lat":37.900851,"lng":140.923331,"zip":"9892111"},{"town":"坂元","koaza":"磯作","lat":37.898649,"lng":140.92456,"zip":"9892111"},{"town":"坂元","koaza":"磯北谷地","lat":37.901077,"lng":140.926844,"zip":"9892111"},{"town":"坂元","koaza":"浜谷地","lat":37.898684,"lng":140.929947,"zip":"9892111"},{"town":"坂元","koaza":"蓮","lat":37.93494,"lng":140.911389,"zip":"9892111"},{"town":"大平","koaza":"味噌野","lat":37.987092,"lng":140.852524,"zip":"9892206"},{"town":"小平","koaza":"南柳沢","lat":37.980759,"lng":140.852718,"zip":"9892205"},{"town":"山寺","koaza":"桜木","lat":37.967402,"lng":140.887214,"zip":"9892201"},{"town":"浅生原","koaza":"館新田","lat":37.966645,"lng":140.890724,"zip":"9892203"}]