[{"town":"川内明神横丁","koaza":"","lat":38.26529,"lng":140.85976,"zip":"9800851"},{"town":"臨済院","koaza":"","lat":38.285195,"lng":140.827876,"zip":"9800000"},{"town":"大町一丁目","koaza":"","lat":38.259866,"lng":140.869594,"zip":"9800804"},{"town":"川内亀岡北裏丁","koaza":"","lat":38.26221,"lng":140.84713,"zip":"9800867"},{"town":"川内大工町","koaza":"","lat":38.263408,"lng":140.858841,"zip":"9800853"},{"town":"東照宮二丁目","koaza":"","lat":38.278591,"lng":140.886066,"zip":"9810908"},{"town":"川内山屋敷","koaza":"","lat":38.25829,"lng":140.84674,"zip":"9800864"},{"town":"川内中ノ瀬町","koaza":"","lat":38.26027,"lng":140.858424,"zip":"9800854"},{"town":"国分町一丁目","koaza":"","lat":38.261326,"lng":140.869508,"zip":"9800803"},{"town":"菊田町","koaza":"","lat":38.284796,"lng":140.847481,"zip":"9810941"},{"town":"吉成台一丁目","koaza":"","lat":38.293163,"lng":140.823723,"zip":"9893206"},{"town":"貝ケ森二丁目","koaza":"","lat":38.280318,"lng":140.838382,"zip":"9810942"},{"town":"中山吉成三丁目","koaza":"","lat":38.29743,"lng":140.81795,"zip":"9893203"},{"town":"愛子東二丁目","koaza":"","lat":38.273126,"lng":140.774543,"zip":"9893127"},{"town":"小松島一丁目","koaza":"","lat":38.278128,"lng":140.888015,"zip":"9810905"},{"town":"宮町二丁目","koaza":"","lat":38.270121,"lng":140.883944,"zip":"9800004"},{"town":"小田原七丁目","koaza":"","lat":38.271294,"lng":140.889386,"zip":"9800003"},{"town":"花京院二丁目","koaza":"","lat":38.266876,"lng":140.880931,"zip":"9800013"},{"town":"北目町","koaza":"","lat":38.254352,"lng":140.877087,"zip":"9800023"},{"town":"台原七丁目","koaza":"","lat":38.283983,"lng":140.882246,"zip":"9810911"},{"town":"川内澱橋通","koaza":"","lat":38.265046,"lng":140.857395,"zip":"9800855"},{"town":"貝ケ森五丁目","koaza":"","lat":38.286703,"lng":140.840488,"zip":"9810942"},{"town":"東勝山一丁目","koaza":"","lat":38.298264,"lng":140.87223,"zip":"9810923"},{"town":"愛子中央六丁目","koaza":"","lat":38.271861,"lng":140.759145,"zip":"9893128"},{"town":"中山台一丁目","koaza":"","lat":38.298829,"lng":140.813233,"zip":"9893202"},{"town":"南吉成七丁目","koaza":"","lat":38.282717,"lng":140.816534,"zip":"9893204"},{"town":"小田原六丁目","koaza":"","lat":38.271782,"lng":140.886691,"zip":"9800003"},{"town":"春日町","koaza":"","lat":38.266406,"lng":140.864705,"zip":"9800821"},{"town":"通町一丁目","koaza":"","lat":38.27757,"lng":140.865283,"zip":"9810915"},{"town":"南吉成四丁目","koaza":"","lat":38.288538,"lng":140.814926,"zip":"9893204"},{"town":"川平五丁目","koaza":"","lat":38.306626,"lng":140.832613,"zip":"9810954"},{"town":"花京院一丁目","koaza":"","lat":38.264514,"lng":140.88214,"zip":"9800013"},{"town":"米ケ袋二丁目","koaza":"","lat":38.250254,"lng":140.872897,"zip":"9800813"},{"town":"愛子東六丁目","koaza":"","lat":38.272085,"lng":140.767706,"zip":"9893127"},{"town":"川内川前丁","koaza":"","lat":38.264225,"lng":140.861052,"zip":"9800852"},{"town":"荒巻本沢一丁目","koaza":"","lat":38.288586,"lng":140.848758,"zip":"9810966"},{"town":"折立二丁目","koaza":"","lat":38.267741,"lng":140.806135,"zip":"9820261"},{"town":"宮町三丁目","koaza":"","lat":38.272811,"lng":140.883305,"zip":"9800004"},{"town":"小田原五丁目","koaza":"","lat":38.268042,"lng":140.886935,"zip":"9800003"},{"town":"中山台四丁目","koaza":"","lat":38.297452,"lng":140.809144,"zip":"9893202"},{"town":"宮町五丁目","koaza":"","lat":38.277196,"lng":140.884681,"zip":"9800004"},{"town":"中山台西","koaza":"","lat":38.303958,"lng":140.811106,"zip":"9893207"},{"town":"一番町四丁目","koaza":"","lat":38.264221,"lng":140.871389,"zip":"9800811"},{"town":"川平一丁目","koaza":"","lat":38.295174,"lng":140.847624,"zip":"9810954"},{"town":"中央三丁目","koaza":"","lat":38.259482,"lng":140.877777,"zip":"9800021"},{"town":"あけぼの町","koaza":"","lat":38.288158,"lng":140.864318,"zip":"9810963"},{"town":"愛子中央一丁目","koaza":"","lat":38.272525,"lng":140.76186,"zip":"9893128"},{"town":"国分町二丁目","koaza":"","lat":38.263797,"lng":140.868737,"zip":"9800803"},{"town":"錦町二丁目","koaza":"","lat":38.269587,"lng":140.880795,"zip":"9800012"},{"town":"中央四丁目","koaza":"","lat":38.257384,"lng":140.87901,"zip":"9800021"},{"town":"梅田町","koaza":"","lat":38.277923,"lng":140.880593,"zip":"9800005"},{"town":"川内亀岡町","koaza":"","lat":38.260741,"lng":140.846342,"zip":"9800865"},{"town":"一番町三丁目","koaza":"","lat":38.261112,"lng":140.872777,"zip":"9800811"},{"town":"中山台三丁目","koaza":"","lat":38.301794,"lng":140.81171,"zip":"9893202"},{"town":"北根二丁目","koaza":"","lat":38.296749,"lng":140.876106,"zip":"9810902"},{"town":"双葉ケ丘二丁目","koaza":"","lat":38.300874,"lng":140.871467,"zip":"9810924"},{"town":"荒巻中央","koaza":"","lat":38.29076,"lng":140.858587,"zip":"9810964"},{"town":"上杉四丁目","koaza":"","lat":38.272474,"lng":140.880091,"zip":"9800011"},{"town":"錦町一丁目","koaza":"","lat":38.268802,"lng":140.876977,"zip":"9800012"},{"town":"中央二丁目","koaza":"","lat":38.261586,"lng":140.876535,"zip":"9800021"},{"town":"片平一丁目","koaza":"","lat":38.257246,"lng":140.867312,"zip":"9800812"},{"town":"支倉町","koaza":"","lat":38.268243,"lng":140.861423,"zip":"9800824"},{"town":"国見ケ丘四丁目","koaza":"","lat":38.287398,"lng":140.826057,"zip":"9893201"},{"town":"国分町三丁目","koaza":"","lat":38.267008,"lng":140.868587,"zip":"9800803"},{"town":"北根四丁目","koaza":"","lat":38.299387,"lng":140.871285,"zip":"9810902"},{"town":"藤松","koaza":"","lat":38.297161,"lng":140.873473,"zip":"9810921"},{"town":"北根一丁目","koaza":"","lat":38.293287,"lng":140.874451,"zip":"9810902"},{"town":"愛子中央五丁目","koaza":"","lat":38.273114,"lng":140.756386,"zip":"9893128"},{"town":"栗生二丁目","koaza":"","lat":38.267501,"lng":140.79694,"zip":"9893122"},{"town":"南吉成一丁目","koaza":"","lat":38.286871,"lng":140.821062,"zip":"9893204"},{"town":"南吉成二丁目","koaza":"","lat":38.284675,"lng":140.820024,"zip":"9893204"},{"town":"中山吉成二丁目","koaza":"","lat":38.298217,"lng":140.818978,"zip":"9893203"},{"town":"貝ケ森六丁目","koaza":"","lat":38.283358,"lng":140.844787,"zip":"9810942"},{"town":"台原二丁目","koaza":"","lat":38.286551,"lng":140.873028,"zip":"9810911"},{"town":"福沢町","koaza":"","lat":38.27421,"lng":140.887282,"zip":"9800002"},{"town":"栗生四丁目","koaza":"","lat":38.267532,"lng":140.791876,"zip":"9893122"},{"town":"五橋一丁目","koaza":"","lat":38.254768,"lng":140.880031,"zip":"9800022"},{"town":"中江一丁目","koaza":"","lat":38.274755,"lng":140.891044,"zip":"9800001"},{"town":"折立五丁目","koaza":"","lat":38.260253,"lng":140.805391,"zip":"9820261"},{"town":"大手町","koaza":"","lat":38.256608,"lng":140.861528,"zip":"9800805"},{"town":"中山九丁目","koaza":"","lat":38.301022,"lng":140.83261,"zip":"9810952"},{"town":"愛子東一丁目","koaza":"","lat":38.271351,"lng":140.778964,"zip":"9893127"},{"town":"米ケ袋一丁目","koaza":"","lat":38.252379,"lng":140.870799,"zip":"9800813"},{"town":"青葉山","koaza":"","lat":38.260134,"lng":140.856713,"zip":"9800856"},{"town":"通町二丁目","koaza":"","lat":38.280226,"lng":140.865647,"zip":"9810915"},{"town":"角五郎一丁目","koaza":"","lat":38.265871,"lng":140.853112,"zip":"9800874"},{"town":"堤町一丁目","koaza":"","lat":38.282989,"lng":140.870117,"zip":"9810912"},{"town":"昭和町","koaza":"","lat":38.28072,"lng":140.869957,"zip":"9810913"},{"town":"荒巻本沢二丁目","koaza":"","lat":38.290058,"lng":140.85297,"zip":"9810966"},{"town":"折立六丁目","koaza":"","lat":38.261595,"lng":140.802303,"zip":"9820261"},{"town":"大町二丁目","koaza":"","lat":38.260229,"lng":140.865875,"zip":"9800804"},{"town":"吉成三丁目","koaza":"","lat":38.29083,"lng":140.818125,"zip":"9893205"},{"town":"小松島三丁目","koaza":"","lat":38.282955,"lng":140.885022,"zip":"9810905"},{"town":"みやぎ台五丁目","koaza":"","lat":38.312815,"lng":140.762939,"zip":"9893214"},{"town":"五橋二丁目","koaza":"","lat":38.251316,"lng":140.879517,"zip":"9800022"},{"town":"愛子中央二丁目","koaza":"","lat":38.276314,"lng":140.762894,"zip":"9893128"},{"town":"貝ケ森四丁目","koaza":"","lat":38.284341,"lng":140.837342,"zip":"9810942"},{"town":"一番町二丁目","koaza":"","lat":38.258723,"lng":140.872272,"zip":"9800811"},{"town":"木町通一丁目","koaza":"","lat":38.269372,"lng":140.863819,"zip":"9800801"},{"town":"本町三丁目","koaza":"","lat":38.267944,"lng":140.872751,"zip":"9800014"},{"town":"錦ケ丘二丁目","koaza":"","lat":38.25538,"lng":140.766913,"zip":"9893123"},{"town":"上杉二丁目","koaza":"","lat":38.273854,"lng":140.871178,"zip":"9800011"},{"town":"中山吉成一丁目","koaza":"","lat":38.299606,"lng":140.820041,"zip":"9893203"},{"town":"荒巻本沢三丁目","koaza":"","lat":38.291283,"lng":140.854981,"zip":"9810966"},{"town":"千代田町","koaza":"","lat":38.282231,"lng":140.847682,"zip":"9810936"},{"town":"宮町一丁目","koaza":"","lat":38.267044,"lng":140.884216,"zip":"9800004"},{"town":"水の森一丁目","koaza":"","lat":38.29118,"lng":140.864052,"zip":"9810962"},{"town":"桜ケ丘二丁目","koaza":"","lat":38.297389,"lng":140.85273,"zip":"9810961"},{"town":"向田","koaza":"","lat":38.280041,"lng":140.792732,"zip":"9893215"},{"town":"栗生五丁目","koaza":"","lat":38.267376,"lng":140.788751,"zip":"9893122"},{"town":"中山台二丁目","koaza":"","lat":38.301709,"lng":140.815551,"zip":"9893202"},{"town":"国見二丁目","koaza":"","lat":38.275117,"lng":140.845515,"zip":"9810943"},{"town":"高野原四丁目","koaza":"","lat":38.289981,"lng":140.755936,"zip":"9893216"},{"town":"台原六丁目","koaza":"","lat":38.280632,"lng":140.87947,"zip":"9810911"},{"town":"栗生三丁目","koaza":"","lat":38.267373,"lng":140.794588,"zip":"9893122"},{"town":"小田原八丁目","koaza":"","lat":38.270719,"lng":140.892504,"zip":"9800003"},{"town":"中山三丁目","koaza":"","lat":38.291689,"lng":140.836492,"zip":"9810952"},{"town":"葉山町","koaza":"","lat":38.285024,"lng":140.864642,"zip":"9810917"},{"town":"中江二丁目","koaza":"","lat":38.271847,"lng":140.894877,"zip":"9800001"},{"town":"高松二丁目","koaza":"","lat":38.280094,"lng":140.893523,"zip":"9810907"},{"town":"鷺ケ森二丁目","koaza":"","lat":38.296237,"lng":140.869021,"zip":"9810922"},{"town":"高松三丁目","koaza":"","lat":38.282192,"lng":140.894374,"zip":"9810907"},{"town":"本町一丁目","koaza":"","lat":38.265434,"lng":140.87821,"zip":"9800014"},{"town":"落合一丁目","koaza":"","lat":38.270886,"lng":140.794164,"zip":"9893126"},{"town":"水の森二丁目","koaza":"","lat":38.292541,"lng":140.86077,"zip":"9810962"},{"town":"国見三丁目","koaza":"","lat":38.273362,"lng":140.842525,"zip":"9810943"},{"town":"落合三丁目","koaza":"","lat":38.276059,"lng":140.780599,"zip":"9893126"},{"town":"高松一丁目","koaza":"","lat":38.277174,"lng":140.89086,"zip":"9810907"},{"town":"堤町二丁目","koaza":"","lat":38.286106,"lng":140.867628,"zip":"9810912"},{"town":"八幡五丁目","koaza":"","lat":38.270307,"lng":140.841778,"zip":"9800871"},{"town":"青葉町","koaza":"","lat":38.282909,"lng":140.864572,"zip":"9810916"},{"town":"宮町四丁目","koaza":"","lat":38.275267,"lng":140.882975,"zip":"9800004"},{"town":"貝ケ森三丁目","koaza":"","lat":38.28332,"lng":140.838339,"zip":"9810942"},{"town":"上杉五丁目","koaza":"","lat":38.274635,"lng":140.876595,"zip":"9800011"},{"town":"桜ケ丘四丁目","koaza":"","lat":38.301561,"lng":140.851968,"zip":"9810961"},{"town":"米ケ袋三丁目","koaza":"","lat":38.248859,"lng":140.870214,"zip":"9800813"},{"town":"台原四丁目","koaza":"","lat":38.285094,"lng":140.876653,"zip":"9810911"},{"town":"錦ケ丘六丁目","koaza":"","lat":38.252405,"lng":140.761659,"zip":"9893123"},{"town":"北山三丁目","koaza":"","lat":38.282503,"lng":140.851423,"zip":"9810931"},{"town":"台原一丁目","koaza":"","lat":38.282258,"lng":140.874497,"zip":"9810911"},{"town":"上杉三丁目","koaza":"","lat":38.271767,"lng":140.87639,"zip":"9800011"},{"town":"小田原四丁目","koaza":"","lat":38.268229,"lng":140.890355,"zip":"9800003"},{"town":"中山一丁目","koaza":"","lat":38.290513,"lng":140.846837,"zip":"9810952"},{"town":"柏木三丁目","koaza":"","lat":38.276037,"lng":140.855533,"zip":"9810933"},{"town":"西花苑二丁目","koaza":"","lat":38.262352,"lng":140.799884,"zip":"9820262"},{"town":"高野原三丁目","koaza":"","lat":38.28974,"lng":140.760969,"zip":"9893216"},{"town":"貝ケ森一丁目","koaza":"","lat":38.282275,"lng":140.840797,"zip":"9810942"},{"town":"桜ケ丘五丁目","koaza":"","lat":38.299909,"lng":140.847467,"zip":"9810961"},{"town":"栗生六丁目","koaza":"","lat":38.267735,"lng":140.784247,"zip":"9893122"},{"town":"みやぎ台四丁目","koaza":"","lat":38.311256,"lng":140.765232,"zip":"9893214"},{"town":"桜ケ丘六丁目","koaza":"","lat":38.303282,"lng":140.84631,"zip":"9810961"},{"town":"八幡一丁目","koaza":"","lat":38.268747,"lng":140.853119,"zip":"9800871"},{"town":"南吉成三丁目","koaza":"","lat":38.287049,"lng":140.817361,"zip":"9893204"},{"town":"落合六丁目","koaza":"","lat":38.270458,"lng":140.783808,"zip":"9893126"},{"town":"みやぎ台一丁目","koaza":"","lat":38.305324,"lng":140.774418,"zip":"9893214"},{"town":"上杉一丁目","koaza":"","lat":38.270908,"lng":140.871884,"zip":"9800011"},{"town":"桜ケ丘三丁目","koaza":"","lat":38.300664,"lng":140.855103,"zip":"9810961"},{"town":"二日町","koaza":"","lat":38.270094,"lng":140.867449,"zip":"9800802"},{"town":"立町","koaza":"","lat":38.263029,"lng":140.864467,"zip":"9800822"},{"town":"赤坂三丁目","koaza":"","lat":38.291691,"lng":140.745644,"zip":"9893211"},{"town":"中山七丁目","koaza":"","lat":38.296068,"lng":140.835249,"zip":"9810952"},{"town":"高野原二丁目","koaza":"","lat":38.289101,"lng":140.768387,"zip":"9893216"},{"town":"愛子東三丁目","koaza":"","lat":38.274561,"lng":140.776077,"zip":"9893127"},{"town":"栗生七丁目","koaza":"","lat":38.268325,"lng":140.778802,"zip":"9893122"},{"town":"八幡三丁目","koaza":"","lat":38.268425,"lng":140.847279,"zip":"9800871"},{"town":"中山五丁目","koaza":"","lat":38.293087,"lng":140.843025,"zip":"9810952"},{"town":"錦ケ丘三丁目","koaza":"","lat":38.252446,"lng":140.766981,"zip":"9893123"},{"town":"国見ケ丘二丁目","koaza":"","lat":38.292163,"lng":140.8273,"zip":"9893201"},{"town":"木町","koaza":"","lat":38.278277,"lng":140.86152,"zip":"9810932"},{"town":"中山八丁目","koaza":"","lat":38.29702,"lng":140.831431,"zip":"9810952"},{"town":"木町通二丁目","koaza":"","lat":38.272964,"lng":140.865503,"zip":"9800801"},{"town":"本町二丁目","koaza":"","lat":38.264919,"lng":140.874595,"zip":"9800014"},{"town":"土樋一丁目","koaza":"","lat":38.248632,"lng":140.876909,"zip":"9800065"},{"town":"子平町","koaza":"","lat":38.276395,"lng":140.849481,"zip":"9810944"},{"town":"高野原一丁目","koaza":"","lat":38.28596,"lng":140.771986,"zip":"9893216"},{"town":"八幡二丁目","koaza":"","lat":38.272252,"lng":140.851829,"zip":"9800871"},{"town":"角五郎二丁目","koaza":"","lat":38.265872,"lng":140.847507,"zip":"9800874"},{"town":"三条町","koaza":"","lat":38.279991,"lng":140.852879,"zip":"9810935"},{"town":"東照宮一丁目","koaza":"","lat":38.279989,"lng":140.885264,"zip":"9810908"},{"town":"折立四丁目","koaza":"","lat":38.261765,"lng":140.807294,"zip":"9820261"},{"town":"ニッカ","koaza":"","lat":38.309684,"lng":140.650243,"zip":"9800000"},{"town":"北山二丁目","koaza":"","lat":38.283205,"lng":140.855383,"zip":"9810931"},{"town":"北根三丁目","koaza":"","lat":38.300225,"lng":140.87777,"zip":"9810902"},{"town":"桜ケ丘一丁目","koaza":"","lat":38.297244,"lng":140.848066,"zip":"9810961"},{"town":"北根黒松","koaza":"","lat":38.305139,"lng":140.879772,"zip":"9810901"},{"town":"国見ケ丘三丁目","koaza":"","lat":38.288193,"lng":140.829837,"zip":"9893201"},{"town":"吉成二丁目","koaza":"","lat":38.292981,"lng":140.817377,"zip":"9893205"},{"town":"錦ケ丘八丁目","koaza":"","lat":38.259087,"lng":140.758272,"zip":"9893123"},{"town":"赤坂一丁目","koaza":"","lat":38.292573,"lng":140.75152,"zip":"9893211"},{"town":"桜ケ丘八丁目","koaza":"","lat":38.3055,"lng":140.850359,"zip":"9810961"},{"town":"小松島新堤","koaza":"","lat":38.28528,"lng":140.894172,"zip":"9810906"},{"town":"柏木二丁目","koaza":"","lat":38.273063,"lng":140.854863,"zip":"9810933"},{"town":"新坂町","koaza":"","lat":38.278913,"lng":140.856256,"zip":"9810934"},{"town":"中山六丁目","koaza":"","lat":38.295844,"lng":140.840301,"zip":"9810952"},{"town":"滝道","koaza":"","lat":38.293688,"lng":140.849805,"zip":"9810951"},{"town":"中央一丁目","koaza":"","lat":38.25926,"lng":140.882032,"zip":"9800021"},{"town":"柏木一丁目","koaza":"","lat":38.275466,"lng":140.863242,"zip":"9810933"},{"town":"愛子中央三丁目","koaza":"","lat":38.275626,"lng":140.758743,"zip":"9893128"},{"town":"桜ケ丘九丁目","koaza":"","lat":38.306979,"lng":140.853777,"zip":"9810961"},{"town":"国見ケ丘六丁目","koaza":"","lat":38.285498,"lng":140.834519,"zip":"9893201"},{"town":"一番町一丁目","koaza":"","lat":38.256832,"lng":140.873123,"zip":"9800811"},{"town":"広瀬町","koaza":"","lat":38.268316,"lng":140.858048,"zip":"9800873"},{"town":"国見ケ丘一丁目","koaza":"","lat":38.293988,"lng":140.829629,"zip":"9893201"},{"town":"荒巻神明町","koaza":"","lat":38.287388,"lng":140.859515,"zip":"9810965"},{"town":"旭ケ丘三丁目","koaza":"","lat":38.29557,"lng":140.886606,"zip":"9810904"},{"town":"桜ケ岡公園","koaza":"","lat":38.261049,"lng":140.861426,"zip":"9800823"},{"town":"愛子東四丁目","koaza":"","lat":38.275956,"lng":140.770746,"zip":"9893127"},{"town":"星陵町","koaza":"","lat":38.272896,"lng":140.859437,"zip":"9800872"},{"town":"中山四丁目","koaza":"","lat":38.292066,"lng":140.839872,"zip":"9810952"},{"town":"落合五丁目","koaza":"","lat":38.271562,"lng":140.787746,"zip":"9893126"},{"town":"小松島二丁目","koaza":"","lat":38.282438,"lng":140.889947,"zip":"9810905"},{"town":"川内追廻","koaza":"","lat":38.255145,"lng":140.860057,"zip":"9800863"},{"town":"愛子中央四丁目","koaza":"","lat":38.275778,"lng":140.752982,"zip":"9893128"},{"town":"吉成台二丁目","koaza":"","lat":38.295635,"lng":140.822843,"zip":"9893206"},{"town":"堤通雨宮町","koaza":"","lat":38.277125,"lng":140.870427,"zip":"9810914"},{"town":"台原三丁目","koaza":"","lat":38.28886,"lng":140.875047,"zip":"9810911"},{"town":"国見四丁目","koaza":"","lat":38.277219,"lng":140.841453,"zip":"9810943"},{"town":"台原五丁目","koaza":"","lat":38.284954,"lng":140.880035,"zip":"9810911"},{"town":"錦ケ丘七丁目","koaza":"","lat":38.256385,"lng":140.761396,"zip":"9893123"},{"town":"みやぎ台二丁目","koaza":"","lat":38.307578,"lng":140.772508,"zip":"9893214"},{"town":"南吉成五丁目","koaza":"","lat":38.290276,"lng":140.81235,"zip":"9893204"},{"town":"折立一丁目","koaza":"","lat":38.264807,"lng":140.811667,"zip":"9820261"},{"town":"吉成一丁目","koaza":"","lat":38.290104,"lng":140.823504,"zip":"9893205"},{"town":"八幡四丁目","koaza":"","lat":38.27183,"lng":140.84713,"zip":"9800871"},{"town":"鷺ケ森一丁目","koaza":"","lat":38.292314,"lng":140.869607,"zip":"9810922"},{"town":"東勝山二丁目","koaza":"","lat":38.294577,"lng":140.863385,"zip":"9810923"},{"town":"花壇","koaza":"","lat":38.253912,"lng":140.863312,"zip":"9800815"},{"town":"みやぎ台三丁目","koaza":"","lat":38.310673,"lng":140.769119,"zip":"9893214"},{"town":"川平二丁目","koaza":"","lat":38.299621,"lng":140.843185,"zip":"9810954"},{"town":"山手町","koaza":"","lat":38.287169,"lng":140.852315,"zip":"9810967"},{"town":"旭ケ丘四丁目","koaza":"","lat":38.299679,"lng":140.886382,"zip":"9810904"},{"town":"折立三丁目","koaza":"","lat":38.265261,"lng":140.806362,"zip":"9820261"},{"town":"赤坂二丁目","koaza":"","lat":38.293149,"lng":140.742747,"zip":"9893211"},{"town":"双葉ケ丘一丁目","koaza":"","lat":38.303638,"lng":140.875779,"zip":"9810924"},{"town":"桜ケ丘七丁目","koaza":"","lat":38.307573,"lng":140.846901,"zip":"9810961"},{"town":"国見一丁目","koaza":"","lat":38.27904,"lng":140.846343,"zip":"9810943"},{"town":"旭ケ丘一丁目","koaza":"","lat":38.288328,"lng":140.883157,"zip":"9810904"},{"town":"片平二丁目","koaza":"","lat":38.253115,"lng":140.874344,"zip":"9800812"},{"town":"上杉六丁目","koaza":"","lat":38.278003,"lng":140.875914,"zip":"9800011"},{"town":"愛子東五丁目","koaza":"","lat":38.275594,"lng":140.7665,"zip":"9893127"},{"town":"南吉成六丁目","koaza":"","lat":38.285046,"lng":140.81283,"zip":"9893204"},{"town":"川内元支倉","koaza":"","lat":38.262988,"lng":140.853101,"zip":"9800861"},{"town":"錦ケ丘五丁目","koaza":"","lat":38.253116,"lng":140.758147,"zip":"9893123"},{"town":"東勝山三丁目","koaza":"","lat":38.29865,"lng":140.864598,"zip":"9810923"},{"town":"川内三十人町","koaza":"","lat":38.263189,"lng":140.844592,"zip":"9800866"},{"town":"中山二丁目","koaza":"","lat":38.288647,"lng":140.842629,"zip":"9810952"},{"town":"国見五丁目","koaza":"","lat":38.274692,"lng":140.837299,"zip":"9810943"},{"town":"水の森三丁目","koaza":"","lat":38.295847,"lng":140.856714,"zip":"9810962"},{"town":"落合二丁目","koaza":"","lat":38.272598,"lng":140.793572,"zip":"9893126"},{"town":"西花苑一丁目","koaza":"","lat":38.267053,"lng":140.800358,"zip":"9820262"},{"town":"錦ケ丘四丁目","koaza":"","lat":38.252262,"lng":140.771996,"zip":"9893123"},{"town":"国見ケ丘五丁目","koaza":"","lat":38.284136,"lng":140.829028,"zip":"9893201"},{"town":"川平四丁目","koaza":"","lat":38.303462,"lng":140.835811,"zip":"9810954"},{"town":"堤町三丁目","koaza":"","lat":38.288475,"lng":140.869593,"zip":"9810912"},{"town":"落合四丁目","koaza":"","lat":38.274735,"lng":140.785295,"zip":"9893126"},{"town":"霊屋下","koaza":"","lat":38.252388,"lng":140.866569,"zip":"9800814"},{"town":"国見ケ丘七丁目","koaza":"","lat":38.289982,"lng":140.834903,"zip":"9893201"},{"town":"北山一丁目","koaza":"","lat":38.282724,"lng":140.859658,"zip":"9810931"},{"town":"旭ケ丘二丁目","koaza":"","lat":38.291787,"lng":140.886357,"zip":"9810904"},{"town":"西勝山","koaza":"","lat":38.300642,"lng":140.839,"zip":"9810953"},{"town":"栗生一丁目","koaza":"","lat":38.260969,"lng":140.795574,"zip":"9893122"},{"town":"小松島四丁目","koaza":"","lat":38.286741,"lng":140.887189,"zip":"9810905"},{"town":"錦ケ丘九丁目","koaza":"","lat":38.260533,"lng":140.761752,"zip":"9893123"},{"town":"八幡六丁目","koaza":"","lat":38.26883,"lng":140.833866,"zip":"9800871"},{"town":"川平三丁目","koaza":"","lat":38.30555,"lng":140.839364,"zip":"9810954"},{"town":"水の森四丁目","koaza":"","lat":38.301745,"lng":140.860121,"zip":"9810962"},{"town":"八幡七丁目","koaza":"","lat":38.267798,"lng":140.825638,"zip":"9800871"},{"town":"錦ケ丘一丁目","koaza":"","lat":38.258108,"lng":140.766548,"zip":"9893123"},{"town":"台原森林公園","koaza":"","lat":38.293983,"lng":140.879465,"zip":"9810903"},{"town":"国見六丁目","koaza":"","lat":38.278916,"lng":140.832052,"zip":"9810943"},{"town":"川内","koaza":"","lat":38.256956,"lng":140.852342,"zip":"9800862"},{"town":"熊ケ根","koaza":"","lat":38.30032,"lng":140.682696,"zip":"9893432"},{"town":"郷六","koaza":"","lat":38.264668,"lng":140.819427,"zip":"9893121"},{"town":"茂庭","koaza":"","lat":38.248923,"lng":140.794941,"zip":"9820263"},{"town":"下愛子","koaza":"","lat":38.260991,"lng":140.780899,"zip":"9893125"},{"town":"荒巻","koaza":"","lat":38.257624,"lng":140.834028,"zip":"9810945"},{"town":"新川","koaza":"","lat":38.310761,"lng":140.604742,"zip":"9893434"},{"town":"上愛子","koaza":"","lat":38.265357,"lng":140.722533,"zip":"9893124"},{"town":"作並","koaza":"","lat":38.349778,"lng":140.607472,"zip":"9893431"},{"town":"芋沢","koaza":"","lat":38.296405,"lng":140.777744,"zip":"9893212"},{"town":"大倉","koaza":"","lat":38.371907,"lng":140.658771,"zip":"9893213"},{"town":"大倉","koaza":"上下","lat":38.362351,"lng":140.669587,"zip":"9893213"},{"town":"大倉","koaza":"下道","lat":38.363587,"lng":140.669838,"zip":"9893213"},{"town":"上愛子","koaza":"折葉","lat":38.285932,"lng":140.679785,"zip":"9893124"},{"town":"大倉","koaza":"若林","lat":38.338191,"lng":140.686534,"zip":"9893213"},{"town":"熊ケ根","koaza":"檀の原二番","lat":38.297899,"lng":140.682743,"zip":"9893432"},{"town":"熊ケ根","koaza":"石積","lat":38.299006,"lng":140.683303,"zip":"9893432"},{"town":"上愛子","koaza":"白沢","lat":38.286335,"lng":140.693909,"zip":"9893124"},{"town":"熊ケ根","koaza":"大原道","lat":38.29753,"lng":140.694192,"zip":"9893432"},{"town":"大倉","koaza":"墓前","lat":38.334134,"lng":140.696202,"zip":"9893213"},{"town":"芋沢","koaza":"畑前","lat":38.298771,"lng":140.717403,"zip":"9893212"},{"town":"芋沢","koaza":"青野木","lat":38.288463,"lng":140.729629,"zip":"9893212"},{"town":"上愛子","koaza":"坂下","lat":38.269266,"lng":140.716949,"zip":"9893124"},{"town":"上愛子","koaza":"寺","lat":38.273723,"lng":140.715953,"zip":"9893124"},{"town":"上愛子","koaza":"遠野原","lat":38.275271,"lng":140.717226,"zip":"9893124"},{"town":"上愛子","koaza":"下十三枚田","lat":38.274563,"lng":140.715514,"zip":"9893124"},{"town":"上愛子","koaza":"三本木","lat":38.270597,"lng":140.715802,"zip":"9893124"},{"town":"芋沢","koaza":"柿崎中","lat":38.278855,"lng":140.717214,"zip":"9893212"},{"town":"上愛子","koaza":"上沢口","lat":38.266822,"lng":140.717252,"zip":"9893124"},{"town":"芋沢","koaza":"柿崎下","lat":38.278077,"lng":140.721449,"zip":"9893212"},{"town":"上愛子","koaza":"上北","lat":38.272642,"lng":140.718116,"zip":"9893124"},{"town":"芋沢","koaza":"廻沢","lat":38.297699,"lng":140.730468,"zip":"9893212"},{"town":"芋沢","koaza":"柿崎南","lat":38.275938,"lng":140.721527,"zip":"9893212"},{"town":"上愛子","koaza":"中遠野原","lat":38.271619,"lng":140.721064,"zip":"9893124"},{"town":"上愛子","koaza":"下沢口","lat":38.267918,"lng":140.720052,"zip":"9893124"},{"town":"上愛子","koaza":"下北","lat":38.270299,"lng":140.720961,"zip":"9893124"},{"town":"上愛子","koaza":"板颪","lat":38.269194,"lng":140.723902,"zip":"9893124"},{"town":"芋沢","koaza":"奥武士北","lat":38.322823,"lng":140.730736,"zip":"9893212"},{"town":"芋沢","koaza":"畑前南","lat":38.294731,"lng":140.722996,"zip":"9893212"},{"town":"芋沢","koaza":"柿崎東","lat":38.278536,"lng":140.723613,"zip":"9893212"},{"town":"芋沢","koaza":"八幡","lat":38.277279,"lng":140.722636,"zip":"9893212"},{"town":"上愛子","koaza":"上遠野原","lat":38.273425,"lng":140.7271,"zip":"9893124"},{"town":"上愛子","koaza":"下遠野原","lat":38.268383,"lng":140.729889,"zip":"9893124"},{"town":"芋沢","koaza":"沢田下","lat":38.292029,"lng":140.732259,"zip":"9893212"},{"town":"芋沢","koaza":"沢田","lat":38.30042,"lng":140.725148,"zip":"9893212"},{"town":"芋沢","koaza":"下野","lat":38.284641,"lng":140.734158,"zip":"9893212"},{"town":"芋沢","koaza":"白坂","lat":38.317043,"lng":140.739114,"zip":"9893212"},{"town":"上愛子","koaza":"松原","lat":38.272978,"lng":140.734655,"zip":"9893124"},{"town":"芋沢","koaza":"下野下","lat":38.282876,"lng":140.736346,"zip":"9893212"},{"town":"上愛子","koaza":"大岩","lat":38.269001,"lng":140.73652,"zip":"9893124"},{"town":"芋沢","koaza":"新田","lat":38.277247,"lng":140.739355,"zip":"9893212"},{"town":"芋沢","koaza":"銅谷原","lat":38.299431,"lng":140.751529,"zip":"9893212"},{"town":"上愛子","koaza":"芦見","lat":38.254714,"lng":140.753815,"zip":"9893124"},{"town":"芋沢","koaza":"奥武士東","lat":38.318129,"lng":140.746338,"zip":"9893212"},{"town":"芋沢","koaza":"末坂","lat":38.324506,"lng":140.746937,"zip":"9893212"},{"town":"芋沢","koaza":"奥武士","lat":38.322826,"lng":140.740687,"zip":"9893212"},{"town":"上愛子","koaza":"岩元","lat":38.268035,"lng":140.740075,"zip":"9893124"},{"town":"上愛子","koaza":"平治","lat":38.270311,"lng":140.739818,"zip":"9893124"},{"town":"芋沢","koaza":"中山","lat":38.284306,"lng":140.739224,"zip":"9893212"},{"town":"芋沢","koaza":"赤坂","lat":38.287604,"lng":140.749222,"zip":"9893212"},{"town":"芋沢","koaza":"奥武士西","lat":38.319028,"lng":140.741913,"zip":"9893212"},{"town":"芋沢","koaza":"中山中","lat":38.285231,"lng":140.741561,"zip":"9893212"},{"town":"上愛子","koaza":"堀切","lat":38.272737,"lng":140.740746,"zip":"9893124"},{"town":"上愛子","koaza":"車","lat":38.271552,"lng":140.743033,"zip":"9893124"},{"town":"芋沢","koaza":"中山下","lat":38.283919,"lng":140.742442,"zip":"9893212"},{"town":"上愛子","koaza":"橋本","lat":38.269303,"lng":140.743978,"zip":"9893124"},{"town":"上愛子","koaza":"街道","lat":38.274148,"lng":140.747565,"zip":"9893124"},{"town":"芋沢","koaza":"大堀","lat":38.277632,"lng":140.745616,"zip":"9893212"},{"town":"上愛子","koaza":"岩元前","lat":38.267656,"lng":140.742696,"zip":"9893124"},{"town":"芋沢","koaza":"甲野田中","lat":38.283896,"lng":140.744647,"zip":"9893212"},{"town":"芋沢","koaza":"甲野田","lat":38.284371,"lng":140.746819,"zip":"9893212"},{"town":"上愛子","koaza":"前堀","lat":38.27059,"lng":140.745833,"zip":"9893124"},{"town":"上愛子","koaza":"雷神","lat":38.271399,"lng":140.746911,"zip":"9893124"},{"town":"上愛子","koaza":"二岩","lat":38.270112,"lng":140.746012,"zip":"9893124"},{"town":"上愛子","koaza":"中斉","lat":38.268363,"lng":140.7483,"zip":"9893124"},{"town":"芋沢","koaza":"甲野田南","lat":38.282266,"lng":140.749454,"zip":"9893212"},{"town":"上愛子","koaza":"北原道上","lat":38.276285,"lng":140.75011,"zip":"9893124"},{"town":"芋沢","koaza":"川坂","lat":38.315401,"lng":140.748919,"zip":"9893212"},{"town":"上愛子","koaza":"小塩前","lat":38.268204,"lng":140.748657,"zip":"9893124"},{"town":"上愛子","koaza":"舘ノ内","lat":38.269976,"lng":140.74962,"zip":"9893124"},{"town":"芋沢","koaza":"白坂西","lat":38.312658,"lng":140.749922,"zip":"9893212"},{"town":"芋沢","koaza":"谷津","lat":38.285661,"lng":140.751064,"zip":"9893212"},{"town":"上愛子","koaza":"芋郷","lat":38.266486,"lng":140.749615,"zip":"9893124"},{"town":"芋沢","koaza":"赤坂中","lat":38.287532,"lng":140.752141,"zip":"9893212"},{"town":"上愛子","koaza":"北内","lat":38.271212,"lng":140.750591,"zip":"9893124"},{"town":"芋沢","koaza":"堰ケ袋","lat":38.305598,"lng":140.762224,"zip":"9893212"},{"town":"上愛子","koaza":"宝前","lat":38.269789,"lng":140.750234,"zip":"9893124"},{"town":"芋沢","koaza":"横向山","lat":38.305019,"lng":140.776627,"zip":"9893212"},{"town":"芋沢","koaza":"蒲沢山","lat":38.312263,"lng":140.737702,"zip":"9893212"},{"town":"上愛子","koaza":"北原","lat":38.277231,"lng":140.750864,"zip":"9893124"},{"town":"芋沢","koaza":"中原","lat":38.282908,"lng":140.75562,"zip":"9893212"},{"town":"上愛子","koaza":"樋田","lat":38.269161,"lng":140.756036,"zip":"9893124"},{"town":"芋沢","koaza":"花坂","lat":38.280023,"lng":140.756646,"zip":"9893212"},{"town":"芋沢","koaza":"汁垂沢道上","lat":38.31347,"lng":140.752743,"zip":"9893212"},{"town":"芋沢","koaza":"汁垂沢道下","lat":38.311747,"lng":140.753338,"zip":"9893212"},{"town":"芋沢","koaza":"甲野田下","lat":38.282107,"lng":140.754853,"zip":"9893212"},{"town":"上愛子","koaza":"蛇台原","lat":38.270459,"lng":140.757698,"zip":"9893124"},{"town":"芋沢","koaza":"花坂上野原","lat":38.281432,"lng":140.75661,"zip":"9893212"},{"town":"芋沢","koaza":"上野原東","lat":38.302159,"lng":140.764462,"zip":"9893212"},{"town":"芋沢","koaza":"上新田","lat":38.312824,"lng":140.756615,"zip":"9893212"},{"town":"芋沢","koaza":"大竹原","lat":38.28272,"lng":140.768109,"zip":"9893212"},{"town":"上愛子","koaza":"沼田","lat":38.263487,"lng":140.75676,"zip":"9893124"},{"town":"芋沢","koaza":"銅谷原道下東","lat":38.293371,"lng":140.757588,"zip":"9893212"},{"town":"芋沢","koaza":"横前","lat":38.293661,"lng":140.76136,"zip":"9893212"},{"town":"芋沢","koaza":"駒込","lat":38.308341,"lng":140.757176,"zip":"9893212"},{"town":"芋沢","koaza":"洞ノ口","lat":38.307644,"lng":140.759521,"zip":"9893212"},{"town":"芋沢","koaza":"荒屋敷","lat":38.312108,"lng":140.759546,"zip":"9893212"},{"town":"上愛子","koaza":"屋敷前","lat":38.269552,"lng":140.758013,"zip":"9893124"},{"town":"上愛子","koaza":"新宮前","lat":38.268266,"lng":140.759549,"zip":"9893124"},{"town":"芋沢","koaza":"花坂下","lat":38.280195,"lng":140.761408,"zip":"9893212"},{"town":"芋沢","koaza":"高野原","lat":38.28767,"lng":140.761457,"zip":"9893212"},{"town":"芋沢","koaza":"蒲沢","lat":38.296632,"lng":140.760203,"zip":"9893212"},{"town":"芋沢","koaza":"本郷","lat":38.278757,"lng":140.76535,"zip":"9893212"},{"town":"上愛子","koaza":"榎","lat":38.269659,"lng":140.760451,"zip":"9893124"},{"town":"芋沢","koaza":"松葉沢下","lat":38.303692,"lng":140.763875,"zip":"9893212"},{"town":"下愛子","koaza":"峯岸前","lat":38.265287,"lng":140.765275,"zip":"9893125"},{"town":"上愛子","koaza":"上町","lat":38.270781,"lng":140.761319,"zip":"9893124"},{"town":"芋沢","koaza":"横手","lat":38.309537,"lng":140.76319,"zip":"9893212"},{"town":"下愛子","koaza":"観音堂","lat":38.267375,"lng":140.764252,"zip":"9893125"},{"town":"下愛子","koaza":"田中","lat":38.262046,"lng":140.764773,"zip":"9893125"},{"town":"芋沢","koaza":"横手堀合","lat":38.30744,"lng":140.764017,"zip":"9893212"},{"town":"芋沢","koaza":"寺下","lat":38.299535,"lng":140.766665,"zip":"9893212"},{"town":"下愛子","koaza":"観音","lat":38.26973,"lng":140.764398,"zip":"9893125"},{"town":"下愛子","koaza":"町","lat":38.271059,"lng":140.76625,"zip":"9893125"},{"town":"芋沢","koaza":"蒲沢下","lat":38.295526,"lng":140.763272,"zip":"9893212"},{"town":"芋沢","koaza":"蒲沢原","lat":38.295285,"lng":140.764278,"zip":"9893212"},{"town":"芋沢","koaza":"松葉沢上","lat":38.302984,"lng":140.763699,"zip":"9893212"},{"town":"芋沢","koaza":"上辺田","lat":38.297165,"lng":140.76695,"zip":"9893212"},{"town":"芋沢","koaza":"向寺","lat":38.291754,"lng":140.769376,"zip":"9893212"},{"town":"芋沢","koaza":"河窪","lat":38.295125,"lng":140.765365,"zip":"9893212"},{"town":"芋沢","koaza":"荒神","lat":38.30678,"lng":140.768838,"zip":"9893212"},{"town":"下愛子","koaza":"白山","lat":38.262218,"lng":140.768489,"zip":"9893125"},{"town":"芋沢","koaza":"栗生沢中","lat":38.286047,"lng":140.766882,"zip":"9893212"},{"town":"芋沢","koaza":"中居","lat":38.303599,"lng":140.766931,"zip":"9893212"},{"town":"芋沢","koaza":"原田","lat":38.293635,"lng":140.770191,"zip":"9893212"},{"town":"下愛子","koaza":"横町前","lat":38.270362,"lng":140.767939,"zip":"9893125"},{"town":"芋沢","koaza":"寺下北","lat":38.300559,"lng":140.768264,"zip":"9893212"},{"town":"芋沢","koaza":"原田浦","lat":38.29573,"lng":140.767512,"zip":"9893212"},{"town":"下愛子","koaza":"葉前場","lat":38.264821,"lng":140.768044,"zip":"9893125"},{"town":"芋沢","koaza":"寺下東","lat":38.298881,"lng":140.769208,"zip":"9893212"},{"town":"芋沢","koaza":"宿","lat":38.297818,"lng":140.768927,"zip":"9893212"},{"town":"芋沢","koaza":"林下","lat":38.296919,"lng":140.771072,"zip":"9893212"},{"town":"下愛子","koaza":"青木","lat":38.26567,"lng":140.769675,"zip":"9893125"},{"town":"下愛子","koaza":"明神前","lat":38.264236,"lng":140.769913,"zip":"9893125"},{"town":"芋沢","koaza":"要害","lat":38.304543,"lng":140.770824,"zip":"9893212"},{"town":"芋沢","koaza":"大勝草畑","lat":38.277904,"lng":140.773927,"zip":"9893212"},{"town":"芋沢","koaza":"明神","lat":38.300668,"lng":140.772761,"zip":"9893212"},{"town":"芋沢","koaza":"水門南","lat":38.298592,"lng":140.770858,"zip":"9893212"},{"town":"芋沢","koaza":"大勝草上野原","lat":38.279746,"lng":140.7778,"zip":"9893212"},{"town":"芋沢","koaza":"小坂","lat":38.287763,"lng":140.772254,"zip":"9893212"},{"town":"芋沢","koaza":"平","lat":38.30279,"lng":140.770691,"zip":"9893212"},{"town":"芋沢","koaza":"向寺西","lat":38.28912,"lng":140.772054,"zip":"9893212"},{"town":"下愛子","koaza":"月橋","lat":38.270752,"lng":140.771884,"zip":"9893125"},{"town":"下愛子","koaza":"立車","lat":38.269397,"lng":140.771304,"zip":"9893125"},{"town":"芋沢","koaza":"氷取場","lat":38.299257,"lng":140.772364,"zip":"9893212"},{"town":"下愛子","koaza":"二本松","lat":38.271073,"lng":140.7748,"zip":"9893125"},{"town":"下愛子","koaza":"清水端","lat":38.270507,"lng":140.773914,"zip":"9893125"},{"town":"芋沢","koaza":"小坂南","lat":38.287832,"lng":140.775739,"zip":"9893212"},{"town":"芋沢","koaza":"長坂","lat":38.300103,"lng":140.772384,"zip":"9893212"},{"town":"芋沢","koaza":"向寺南","lat":38.290689,"lng":140.772993,"zip":"9893212"},{"town":"芋沢","koaza":"大勝草","lat":38.278835,"lng":140.773756,"zip":"9893212"},{"town":"芋沢","koaza":"原田下","lat":38.294038,"lng":140.773286,"zip":"9893212"},{"town":"芋沢","koaza":"堀合","lat":38.298635,"lng":140.772885,"zip":"9893212"},{"town":"芋沢","koaza":"板橋","lat":38.298989,"lng":140.774619,"zip":"9893212"},{"town":"下愛子","koaza":"畑合","lat":38.270136,"lng":140.775501,"zip":"9893125"},{"town":"芋沢","koaza":"唄坂","lat":38.300424,"lng":140.777766,"zip":"9893212"},{"town":"芋沢","koaza":"大勝草中","lat":38.278637,"lng":140.77667,"zip":"9893212"},{"town":"芋沢","koaza":"向原","lat":38.29056,"lng":140.776355,"zip":"9893212"},{"town":"芋沢","koaza":"大勝草下","lat":38.276899,"lng":140.77687,"zip":"9893212"},{"town":"下愛子","koaza":"本木前","lat":38.268118,"lng":140.776733,"zip":"9893125"},{"town":"芋沢","koaza":"鍛冶屋","lat":38.29505,"lng":140.776903,"zip":"9893212"},{"town":"下愛子","koaza":"本木裏","lat":38.270679,"lng":140.776772,"zip":"9893125"},{"town":"芋沢","koaza":"田中","lat":38.29225,"lng":140.779039,"zip":"9893212"},{"town":"下愛子","koaza":"舘","lat":38.265908,"lng":140.77884,"zip":"9893125"},{"town":"芋沢","koaza":"七子田","lat":38.292005,"lng":140.778146,"zip":"9893212"},{"town":"芋沢","koaza":"鍛冶屋前","lat":38.293777,"lng":140.77822,"zip":"9893212"},{"town":"芋沢","koaza":"谷津沢","lat":38.29648,"lng":140.780486,"zip":"9893212"},{"town":"芋沢","koaza":"稗袋","lat":38.290461,"lng":140.779835,"zip":"9893212"},{"town":"芋沢","koaza":"栗生沢東","lat":38.283211,"lng":140.78071,"zip":"9893212"},{"town":"芋沢","koaza":"不動堂","lat":38.319573,"lng":140.783137,"zip":"9893212"},{"town":"芋沢","koaza":"辺田","lat":38.293283,"lng":140.780309,"zip":"9893212"},{"town":"芋沢","koaza":"下原","lat":38.284586,"lng":140.781198,"zip":"9893212"},{"town":"下愛子","koaza":"山岸","lat":38.265657,"lng":140.780734,"zip":"9893125"},{"town":"芋沢","koaza":"綱木","lat":38.288797,"lng":140.782054,"zip":"9893212"},{"town":"芋沢","koaza":"鹿野","lat":38.291984,"lng":140.781057,"zip":"9893212"},{"town":"茂庭","koaza":"湯ノ沢","lat":38.250762,"lng":140.805287,"zip":"9820263"},{"town":"芋沢","koaza":"滝ノ瀬","lat":38.278691,"lng":140.782937,"zip":"9893212"},{"town":"芋沢","koaza":"四反田","lat":38.287306,"lng":140.783376,"zip":"9893212"},{"town":"芋沢","koaza":"釜前","lat":38.280616,"lng":140.785165,"zip":"9893212"},{"town":"芋沢","koaza":"大竹南","lat":38.27905,"lng":140.787255,"zip":"9893212"},{"town":"芋沢","koaza":"小倉","lat":38.283422,"lng":140.786371,"zip":"9893212"},{"town":"芋沢","koaza":"的場","lat":38.286166,"lng":140.786904,"zip":"9893212"},{"town":"下愛子","koaza":"窪","lat":38.26576,"lng":140.786515,"zip":"9893125"},{"town":"芋沢","koaza":"平沢","lat":38.320904,"lng":140.788321,"zip":"9893212"},{"town":"芋沢","koaza":"四反田前","lat":38.286803,"lng":140.786429,"zip":"9893212"},{"town":"芋沢","koaza":"小倉東","lat":38.28422,"lng":140.787571,"zip":"9893212"},{"town":"茂庭","koaza":"松倉","lat":38.24679,"lng":140.795828,"zip":"9820263"},{"town":"芋沢","koaza":"綱木坂","lat":38.287195,"lng":140.787246,"zip":"9893212"},{"town":"芋沢","koaza":"大竹中","lat":38.280439,"lng":140.789236,"zip":"9893212"},{"town":"芋沢","koaza":"大竹","lat":38.283242,"lng":140.790634,"zip":"9893212"},{"town":"下愛子","koaza":"西風蕃山","lat":38.264546,"lng":140.790981,"zip":"9893125"},{"town":"芋沢","koaza":"鳥屋場前","lat":38.28064,"lng":140.790163,"zip":"9893212"},{"town":"芋沢","koaza":"大竹新田","lat":38.277242,"lng":140.790958,"zip":"9893212"},{"town":"芋沢","koaza":"大竹新田下","lat":38.275904,"lng":140.792161,"zip":"9893212"},{"town":"芋沢","koaza":"平形","lat":38.273522,"lng":140.797269,"zip":"9893212"},{"town":"郷六","koaza":"岩下","lat":38.270707,"lng":140.800845,"zip":"9893121"},{"town":"茂庭","koaza":"綱木西","lat":38.247864,"lng":140.801069,"zip":"9820263"},{"town":"茂庭","koaza":"杉ノ沢","lat":38.250518,"lng":140.801932,"zip":"9820263"},{"town":"郷六","koaza":"葛岡","lat":38.273941,"lng":140.812372,"zip":"9893121"},{"town":"郷六","koaza":"龍沢","lat":38.26928,"lng":140.811222,"zip":"9893121"},{"town":"郷六","koaza":"葛岡下","lat":38.267516,"lng":140.814323,"zip":"9893121"},{"town":"茂庭","koaza":"綱木東","lat":38.255096,"lng":140.809606,"zip":"9820263"},{"town":"茂庭","koaza":"綱木前山","lat":38.25354,"lng":140.808669,"zip":"9820263"},{"town":"茂庭","koaza":"綱木裏山","lat":38.2555,"lng":140.810068,"zip":"9820263"},{"town":"茂庭","koaza":"蕃山","lat":38.261256,"lng":140.810748,"zip":"9820263"},{"town":"郷六","koaza":"大森","lat":38.254808,"lng":140.813303,"zip":"9893121"},{"town":"郷六","koaza":"出戸","lat":38.260795,"lng":140.812143,"zip":"9893121"},{"town":"郷六","koaza":"宮","lat":38.262483,"lng":140.812325,"zip":"9893121"},{"town":"郷六","koaza":"郷六上","lat":38.257362,"lng":140.812495,"zip":"9893121"},{"town":"郷六","koaza":"庄子","lat":38.2598,"lng":140.813343,"zip":"9893121"},{"town":"芋沢","koaza":"権現森山","lat":38.282694,"lng":140.813584,"zip":"9893212"},{"town":"郷六","koaza":"久保","lat":38.255135,"lng":140.818208,"zip":"9893121"},{"town":"郷六","koaza":"沼田","lat":38.26294,"lng":140.815451,"zip":"9893121"},{"town":"郷六","koaza":"舘","lat":38.264536,"lng":140.817098,"zip":"9893121"},{"town":"郷六","koaza":"笹ノ上","lat":38.259174,"lng":140.815419,"zip":"9893121"},{"town":"郷六","koaza":"郷六山","lat":38.251596,"lng":140.818158,"zip":"9893121"},{"town":"郷六","koaza":"屋敷","lat":38.260903,"lng":140.817292,"zip":"9893121"},{"town":"郷六","koaza":"石山","lat":38.265119,"lng":140.817587,"zip":"9893121"},{"town":"郷六","koaza":"大霜","lat":38.259899,"lng":140.821716,"zip":"9893121"},{"town":"郷六","koaza":"四ツ谷堀敷","lat":38.262579,"lng":140.819039,"zip":"9893121"},{"town":"郷六","koaza":"針金","lat":38.26399,"lng":140.820752,"zip":"9893121"},{"town":"荒巻","koaza":"青葉","lat":38.25785,"lng":140.837592,"zip":"9810945"},{"town":"荒巻","koaza":"坊主門","lat":38.273766,"lng":140.833098,"zip":"9810945"},{"town":"荒巻","koaza":"西雷神","lat":38.27388,"lng":140.833853,"zip":"9810945"},{"town":"荒巻","koaza":"三居沢","lat":38.266209,"lng":140.839673,"zip":"9810945"},{"town":"荒巻","koaza":"荒葉","lat":38.260579,"lng":140.842039,"zip":"9810945"},{"town":"大倉","koaza":"薬師","lat":38.342916,"lng":140.697639,"zip":"9893213"},{"town":"大倉","koaza":"下倉","lat":38.314765,"lng":140.692637,"zip":"9893213"},{"town":"上愛子","koaza":"五ツ森","lat":38.264965,"lng":140.713768,"zip":"9893124"},{"town":"上愛子","koaza":"塩柄","lat":38.265155,"lng":140.758953,"zip":"9893124"},{"town":"上愛子","koaza":"宮下","lat":38.265547,"lng":140.758702,"zip":"9893124"}]