[{"town":"八木山南二丁目","koaza":"","lat":38.234756,"lng":140.83817,"zip":"9820807"},{"town":"柳生三丁目","koaza":"","lat":38.191501,"lng":140.872747,"zip":"9811106"},{"town":"八木山南五丁目","koaza":"","lat":38.234194,"lng":140.833075,"zip":"9820807"},{"town":"八木山南四丁目","koaza":"","lat":38.233596,"lng":140.836212,"zip":"9820807"},{"town":"八木山南六丁目","koaza":"","lat":38.232186,"lng":140.834887,"zip":"9820807"},{"town":"柳生一丁目","koaza":"","lat":38.197493,"lng":140.872292,"zip":"9811106"},{"town":"郡山一丁目","koaza":"","lat":38.227098,"lng":140.890466,"zip":"9820003"},{"town":"砂押南町","koaza":"","lat":38.226192,"lng":140.867776,"zip":"9820024"},{"town":"土手内二丁目","koaza":"","lat":38.229396,"lng":140.862586,"zip":"9820026"},{"town":"柳生五丁目","koaza":"","lat":38.194537,"lng":140.864091,"zip":"9811106"},{"town":"大野田一丁目","koaza":"","lat":38.217775,"lng":140.879034,"zip":"9820014"},{"town":"長町三丁目","koaza":"","lat":38.230553,"lng":140.885103,"zip":"9820011"},{"town":"袋原五丁目","koaza":"","lat":38.196855,"lng":140.916391,"zip":"9811102"},{"town":"八木山東一丁目","koaza":"","lat":38.235555,"lng":140.848865,"zip":"9820802"},{"town":"柳生六丁目","koaza":"","lat":38.197747,"lng":140.863184,"zip":"9811106"},{"town":"土手内三丁目","koaza":"","lat":38.230081,"lng":140.858754,"zip":"9820026"},{"town":"茂ケ崎四丁目","koaza":"","lat":38.239273,"lng":140.879227,"zip":"9820843"},{"town":"西中田四丁目","koaza":"","lat":38.19578,"lng":140.881665,"zip":"9811105"},{"town":"茂ケ崎二丁目","koaza":"","lat":38.239558,"lng":140.872904,"zip":"9820843"},{"town":"上野山三丁目","koaza":"","lat":38.231586,"lng":140.826283,"zip":"9820812"},{"town":"中田三丁目","koaza":"","lat":38.198782,"lng":140.8853,"zip":"9811104"},{"town":"あすと長町二丁目","koaza":"","lat":38.224013,"lng":140.885902,"zip":"9820007"},{"town":"若葉町","koaza":"","lat":38.237469,"lng":140.851632,"zip":"9820822"},{"town":"八木山松波町","koaza":"","lat":38.243768,"lng":140.857461,"zip":"9820836"},{"town":"大谷地","koaza":"","lat":38.225977,"lng":140.846411,"zip":"9820035"},{"town":"緑ケ丘二丁目","koaza":"","lat":38.231736,"lng":140.862051,"zip":"9820021"},{"town":"山田新町","koaza":"","lat":38.217109,"lng":140.835175,"zip":"9820818"},{"town":"郡山二丁目","koaza":"","lat":38.223415,"lng":140.889384,"zip":"9820003"},{"town":"あすと長町四丁目","koaza":"","lat":38.224582,"lng":140.888079,"zip":"9820007"},{"town":"芦の口","koaza":"","lat":38.232053,"lng":140.855851,"zip":"9820824"},{"town":"長嶺","koaza":"","lat":38.237818,"lng":140.867347,"zip":"9820847"},{"town":"袋原三丁目","koaza":"","lat":38.20196,"lng":140.910237,"zip":"9811102"},{"town":"太白三丁目","koaza":"","lat":38.230189,"lng":140.815485,"zip":"9820212"},{"town":"長町南二丁目","koaza":"","lat":38.218702,"lng":140.88138,"zip":"9820012"},{"town":"鹿野一丁目","koaza":"","lat":38.231417,"lng":140.874988,"zip":"9820023"},{"town":"八木山南三丁目","koaza":"","lat":38.235739,"lng":140.833906,"zip":"9820807"},{"town":"長町四丁目","koaza":"","lat":38.230423,"lng":140.882319,"zip":"9820011"},{"town":"柳生二丁目","koaza":"","lat":38.195519,"lng":140.871987,"zip":"9811106"},{"town":"西中田一丁目","koaza":"","lat":38.201864,"lng":140.882543,"zip":"9811105"},{"town":"人来田三丁目","koaza":"","lat":38.219822,"lng":140.803826,"zip":"9820222"},{"town":"富沢一丁目","koaza":"","lat":38.217786,"lng":140.868166,"zip":"9820032"},{"town":"郡山七丁目","koaza":"","lat":38.215022,"lng":140.888822,"zip":"9820003"},{"town":"向山一丁目","koaza":"","lat":38.248177,"lng":140.866089,"zip":"9820841"},{"town":"東中田六丁目","koaza":"","lat":38.198993,"lng":140.894069,"zip":"9811107"},{"town":"茂ケ崎三丁目","koaza":"","lat":38.237068,"lng":140.876016,"zip":"9820843"},{"town":"金剛沢二丁目","koaza":"","lat":38.230957,"lng":140.842673,"zip":"9820803"},{"town":"八木山南一丁目","koaza":"","lat":38.237525,"lng":140.835328,"zip":"9820807"},{"town":"柳生四丁目","koaza":"","lat":38.194887,"lng":140.86739,"zip":"9811106"},{"town":"鈎取一丁目","koaza":"","lat":38.222147,"lng":140.845645,"zip":"9820804"},{"town":"あすと長町三丁目","koaza":"","lat":38.219027,"lng":140.88492,"zip":"9820007"},{"town":"郡山四丁目","koaza":"","lat":38.222784,"lng":140.897005,"zip":"9820003"},{"town":"袋原六丁目","koaza":"","lat":38.196115,"lng":140.911792,"zip":"9811102"},{"town":"諏訪町","koaza":"","lat":38.213782,"lng":140.884456,"zip":"9820005"},{"town":"長町南一丁目","koaza":"","lat":38.223159,"lng":140.880132,"zip":"9820012"},{"town":"鹿野二丁目","koaza":"","lat":38.229477,"lng":140.872626,"zip":"9820023"},{"town":"八木山東二丁目","koaza":"","lat":38.235203,"lng":140.845247,"zip":"9820802"},{"town":"向山二丁目","koaza":"","lat":38.246526,"lng":140.868572,"zip":"9820841"},{"town":"東中田四丁目","koaza":"","lat":38.198255,"lng":140.904844,"zip":"9811107"},{"town":"柳生七丁目","koaza":"","lat":38.198141,"lng":140.867423,"zip":"9811106"},{"town":"東中田五丁目","koaza":"","lat":38.199066,"lng":140.898967,"zip":"9811107"},{"town":"東中田三丁目","koaza":"","lat":38.201544,"lng":140.903566,"zip":"9811107"},{"town":"緑ケ丘四丁目","koaza":"","lat":38.235906,"lng":140.863598,"zip":"9820021"},{"town":"旗立三丁目","koaza":"","lat":38.22672,"lng":140.810132,"zip":"9820215"},{"town":"門前町","koaza":"","lat":38.235316,"lng":140.878288,"zip":"9820845"},{"town":"鹿野本町","koaza":"","lat":38.231577,"lng":140.871381,"zip":"9820022"},{"town":"長町五丁目","koaza":"","lat":38.22737,"lng":140.883286,"zip":"9820011"},{"town":"青山一丁目","koaza":"","lat":38.240266,"lng":140.856149,"zip":"9820834"},{"town":"砂押町","koaza":"","lat":38.22747,"lng":140.865831,"zip":"9820025"},{"town":"萩ケ丘","koaza":"","lat":38.240696,"lng":140.871345,"zip":"9820848"},{"town":"人来田二丁目","koaza":"","lat":38.221756,"lng":140.805841,"zip":"9820222"},{"town":"三神峯二丁目","koaza":"","lat":38.227679,"lng":140.848796,"zip":"9820826"},{"town":"金剛沢三丁目","koaza":"","lat":38.233273,"lng":140.842317,"zip":"9820803"},{"town":"中田四丁目","koaza":"","lat":38.199065,"lng":140.889384,"zip":"9811104"},{"town":"土手内一丁目","koaza":"","lat":38.227661,"lng":140.860775,"zip":"9820026"},{"town":"長町六丁目","koaza":"","lat":38.222619,"lng":140.883154,"zip":"9820011"},{"town":"太子堂","koaza":"","lat":38.214645,"lng":140.88174,"zip":"9820013"},{"town":"泉崎二丁目","koaza":"","lat":38.221927,"lng":140.865029,"zip":"9820031"},{"town":"八木山緑町","koaza":"","lat":38.242781,"lng":140.864388,"zip":"9820832"},{"town":"佐保山","koaza":"","lat":38.235098,"lng":140.822191,"zip":"9820211"},{"town":"富沢二丁目","koaza":"","lat":38.220024,"lng":140.862535,"zip":"9820032"},{"town":"御堂平","koaza":"","lat":38.229423,"lng":140.833486,"zip":"9820806"},{"town":"八本松二丁目","koaza":"","lat":38.227736,"lng":140.892989,"zip":"9820001"},{"town":"鈎取三丁目","koaza":"","lat":38.230677,"lng":140.837736,"zip":"9820804"},{"town":"旗立一丁目","koaza":"","lat":38.224108,"lng":140.820539,"zip":"9820215"},{"town":"長町二丁目","koaza":"","lat":38.234327,"lng":140.882473,"zip":"9820011"},{"town":"富沢南二丁目","koaza":"","lat":38.210398,"lng":140.86647,"zip":"9820036"},{"town":"袋原一丁目","koaza":"","lat":38.202628,"lng":140.906847,"zip":"9811102"},{"town":"鈎取二丁目","koaza":"","lat":38.228016,"lng":140.84157,"zip":"9820804"},{"town":"恵和町","koaza":"","lat":38.236054,"lng":140.853998,"zip":"9820823"},{"town":"越路","koaza":"","lat":38.244543,"lng":140.880793,"zip":"9820842"},{"town":"大野田三丁目","koaza":"","lat":38.210444,"lng":140.880242,"zip":"9820014"},{"town":"緑ケ丘三丁目","koaza":"","lat":38.234023,"lng":140.865791,"zip":"9820021"},{"town":"郡山三丁目","koaza":"","lat":38.223625,"lng":140.893364,"zip":"9820003"},{"town":"西多賀三丁目","koaza":"","lat":38.223794,"lng":140.853487,"zip":"9820034"},{"town":"緑ケ丘一丁目","koaza":"","lat":38.230511,"lng":140.866802,"zip":"9820021"},{"town":"長町一丁目","koaza":"","lat":38.234409,"lng":140.887627,"zip":"9820011"},{"town":"西多賀二丁目","koaza":"","lat":38.219494,"lng":140.858372,"zip":"9820034"},{"town":"富沢三丁目","koaza":"","lat":38.21704,"lng":140.860867,"zip":"9820032"},{"town":"西中田二丁目","koaza":"","lat":38.201827,"lng":140.87966,"zip":"9811105"},{"town":"長町八丁目","koaza":"","lat":38.231209,"lng":140.878561,"zip":"9820011"},{"town":"西の平二丁目","koaza":"","lat":38.231769,"lng":140.851567,"zip":"9820825"},{"town":"中田五丁目","koaza":"","lat":38.195922,"lng":140.887449,"zip":"9811104"},{"town":"あすと長町一丁目","koaza":"","lat":38.229416,"lng":140.887766,"zip":"9820007"},{"town":"南大野田","koaza":"","lat":38.210655,"lng":140.871348,"zip":"9820015"},{"town":"西中田五丁目","koaza":"","lat":38.195657,"lng":140.876943,"zip":"9811105"},{"town":"茂ケ崎一丁目","koaza":"","lat":38.240094,"lng":140.876788,"zip":"9820843"},{"town":"西中田三丁目","koaza":"","lat":38.199444,"lng":140.878423,"zip":"9811105"},{"town":"西の平一丁目","koaza":"","lat":38.229143,"lng":140.853595,"zip":"9820825"},{"town":"桜木町","koaza":"","lat":38.244187,"lng":140.853071,"zip":"9820835"},{"town":"袋原四丁目","koaza":"","lat":38.198524,"lng":140.912173,"zip":"9811102"},{"town":"泉崎一丁目","koaza":"","lat":38.221444,"lng":140.869239,"zip":"9820031"},{"town":"鹿野三丁目","koaza":"","lat":38.22555,"lng":140.870836,"zip":"9820023"},{"town":"西多賀四丁目","koaza":"","lat":38.223454,"lng":140.84985,"zip":"9820034"},{"town":"富沢南一丁目","koaza":"","lat":38.213949,"lng":140.866441,"zip":"9820036"},{"town":"太白一丁目","koaza":"","lat":38.232009,"lng":140.819351,"zip":"9820212"},{"town":"大塒町","koaza":"","lat":38.23455,"lng":140.858017,"zip":"9820027"},{"town":"上野山二丁目","koaza":"","lat":38.226163,"lng":140.82368,"zip":"9820812"},{"town":"青山二丁目","koaza":"","lat":38.238536,"lng":140.860263,"zip":"9820834"},{"town":"西中田六丁目","koaza":"","lat":38.191666,"lng":140.880891,"zip":"9811105"},{"town":"秋保町湯向","koaza":"","lat":38.22919,"lng":140.723426,"zip":"9820245"},{"town":"郡山八丁目","koaza":"","lat":38.212222,"lng":140.889196,"zip":"9820003"},{"town":"松が丘","koaza":"","lat":38.240741,"lng":140.850914,"zip":"9820821"},{"town":"鈎取四丁目","koaza":"","lat":38.225389,"lng":140.839601,"zip":"9820804"},{"town":"中田七丁目","koaza":"","lat":38.19014,"lng":140.887661,"zip":"9811104"},{"town":"長町南三丁目","koaza":"","lat":38.221786,"lng":140.876468,"zip":"9820012"},{"town":"金剛沢一丁目","koaza":"","lat":38.230045,"lng":140.847093,"zip":"9820803"},{"town":"中田二丁目","koaza":"","lat":38.203072,"lng":140.88956,"zip":"9811104"},{"town":"二ツ沢","koaza":"","lat":38.235552,"lng":140.872844,"zip":"9820846"},{"town":"山田上ノ台町","koaza":"","lat":38.218391,"lng":140.832234,"zip":"9820815"},{"town":"茂庭台二丁目","koaza":"","lat":38.232395,"lng":140.785181,"zip":"9820252"},{"town":"西多賀一丁目","koaza":"","lat":38.223627,"lng":140.860146,"zip":"9820034"},{"town":"東中田二丁目","koaza":"","lat":38.20162,"lng":140.896665,"zip":"9811107"},{"town":"八木山弥生町","koaza":"","lat":38.24113,"lng":140.861875,"zip":"9820833"},{"town":"人来田一丁目","koaza":"","lat":38.225909,"lng":140.80558,"zip":"9820222"},{"town":"三神峯一丁目","koaza":"","lat":38.226116,"lng":140.856286,"zip":"9820826"},{"town":"鈎取本町二丁目","koaza":"","lat":38.225585,"lng":140.835714,"zip":"9820805"},{"town":"長町南四丁目","koaza":"","lat":38.220192,"lng":140.872778,"zip":"9820012"},{"town":"向山三丁目","koaza":"","lat":38.242869,"lng":140.868039,"zip":"9820841"},{"town":"郡山六丁目","koaza":"","lat":38.218678,"lng":140.888108,"zip":"9820003"},{"town":"東郡山一丁目","koaza":"","lat":38.221265,"lng":140.906304,"zip":"9820006"},{"town":"茂庭台五丁目","koaza":"","lat":38.237499,"lng":140.780744,"zip":"9820252"},{"town":"旗立二丁目","koaza":"","lat":38.224883,"lng":140.814845,"zip":"9820215"},{"town":"郡山五丁目","koaza":"","lat":38.218874,"lng":140.892532,"zip":"9820003"},{"town":"鈎取本町一丁目","koaza":"","lat":38.22118,"lng":140.838626,"zip":"9820805"},{"town":"太白二丁目","koaza":"","lat":38.234412,"lng":140.816682,"zip":"9820212"},{"town":"茂庭台三丁目","koaza":"","lat":38.236399,"lng":140.787159,"zip":"9820252"},{"town":"中田六丁目","koaza":"","lat":38.193576,"lng":140.887382,"zip":"9811104"},{"town":"長町七丁目","koaza":"","lat":38.226589,"lng":140.877576,"zip":"9820011"},{"town":"上野山一丁目","koaza":"","lat":38.225953,"lng":140.830721,"zip":"9820812"},{"town":"東郡山二丁目","koaza":"","lat":38.220217,"lng":140.901345,"zip":"9820006"},{"town":"日本平","koaza":"","lat":38.221277,"lng":140.81086,"zip":"9820221"},{"town":"西中田七丁目","koaza":"","lat":38.191561,"lng":140.876029,"zip":"9811105"},{"town":"中田一丁目","koaza":"","lat":38.203029,"lng":140.885245,"zip":"9811104"},{"town":"西多賀五丁目","koaza":"","lat":38.218297,"lng":140.854146,"zip":"9820034"},{"town":"茂庭台四丁目","koaza":"","lat":38.237734,"lng":140.783902,"zip":"9820252"},{"town":"八本松一丁目","koaza":"","lat":38.229417,"lng":140.894643,"zip":"9820001"},{"town":"根岸町","koaza":"","lat":38.239873,"lng":140.883655,"zip":"9820844"},{"town":"向山四丁目","koaza":"","lat":38.2443,"lng":140.876144,"zip":"9820841"},{"town":"山田自由ケ丘","koaza":"","lat":38.228688,"lng":140.813954,"zip":"9820213"},{"town":"山田本町","koaza":"","lat":38.216676,"lng":140.828635,"zip":"9820816"},{"town":"茂庭台一丁目","koaza":"","lat":38.231329,"lng":140.780476,"zip":"9820252"},{"town":"ひより台","koaza":"","lat":38.229433,"lng":140.824217,"zip":"9820811"},{"town":"八木山香澄町","koaza":"","lat":38.246402,"lng":140.859146,"zip":"9820831"},{"town":"羽黒台","koaza":"","lat":38.2206,"lng":140.818914,"zip":"9820817"},{"town":"袋原","koaza":"","lat":38.193877,"lng":140.904772,"zip":"9811102"},{"town":"東大野田","koaza":"","lat":38.20869,"lng":140.887832,"zip":"9820004"},{"town":"東中田一丁目","koaza":"","lat":38.20507,"lng":140.898008,"zip":"9811107"},{"town":"山田北前町","koaza":"","lat":38.22158,"lng":140.828961,"zip":"9820813"},{"town":"八木山本町一丁目","koaza":"","lat":38.24196,"lng":140.844543,"zip":"9820801"},{"town":"袋原二丁目","koaza":"","lat":38.203022,"lng":140.912962,"zip":"9811102"},{"town":"八木山本町二丁目","koaza":"","lat":38.237942,"lng":140.841485,"zip":"9820801"},{"town":"山田","koaza":"","lat":38.214614,"lng":140.838213,"zip":"9820214"},{"town":"富沢","koaza":"","lat":38.209958,"lng":140.860147,"zip":"9820032"},{"town":"中田町","koaza":"","lat":38.191058,"lng":140.897366,"zip":"9811103"},{"town":"長町","koaza":"","lat":38.248167,"lng":140.848216,"zip":"9820011"},{"town":"柳生","koaza":"","lat":38.201937,"lng":140.869764,"zip":"9811106"},{"town":"鈎取","koaza":"","lat":38.239264,"lng":140.823192,"zip":"9820804"},{"town":"富田","koaza":"","lat":38.211431,"lng":140.849164,"zip":"9820033"},{"town":"郡山","koaza":"","lat":38.213717,"lng":140.900744,"zip":"9820003"},{"town":"四郎丸","koaza":"","lat":38.191336,"lng":140.917729,"zip":"9811101"},{"town":"秋保町境野","koaza":"","lat":38.254691,"lng":140.698593,"zip":"9820242"},{"town":"秋保町湯元","koaza":"","lat":38.230322,"lng":140.696146,"zip":"9820241"},{"town":"坪沼","koaza":"","lat":38.194921,"lng":140.769135,"zip":"9820231"},{"town":"秋保町長袋","koaza":"","lat":38.267187,"lng":140.668428,"zip":"9820243"},{"town":"茂庭","koaza":"","lat":38.232738,"lng":140.800668,"zip":"9820251"},{"town":"秋保町馬場","koaza":"","lat":38.314266,"lng":140.564579,"zip":"9820244"},{"town":"大野田二丁目","koaza":"","lat":38.21423,"lng":140.878776,"zip":"9820014"},{"town":"富沢四丁目","koaza":"","lat":38.215433,"lng":140.868892,"zip":"9820032"},{"town":"大野田五丁目","koaza":"","lat":38.216757,"lng":140.875198,"zip":"9820014"},{"town":"大野田四丁目","koaza":"","lat":38.212322,"lng":140.875089,"zip":"9820014"},{"town":"大野田","koaza":"","lat":38.207876,"lng":140.877726,"zip":"9820014"},{"town":"秋保町境野","koaza":"羽山","lat":38.240408,"lng":140.700443,"zip":"9820242"},{"town":"秋保町境野","koaza":"山田","lat":38.251371,"lng":140.698088,"zip":"9820242"},{"town":"秋保町湯元","koaza":"細野原","lat":38.237235,"lng":140.699321,"zip":"9820241"},{"town":"秋保町境野","koaza":"七森","lat":38.24285,"lng":140.702101,"zip":"9820242"},{"town":"秋保町境野","koaza":"濱井場","lat":38.241293,"lng":140.707008,"zip":"9820242"},{"town":"秋保町境野","koaza":"峠下","lat":38.247572,"lng":140.704669,"zip":"9820242"},{"town":"秋保町湯元","koaza":"橋本","lat":38.239154,"lng":140.709769,"zip":"9820241"},{"town":"秋保町湯元","koaza":"太夫","lat":38.235663,"lng":140.71286,"zip":"9820241"},{"town":"秋保町湯元","koaza":"上原","lat":38.216247,"lng":140.73511,"zip":"9820241"},{"town":"秋保町湯元","koaza":"行澤","lat":38.232586,"lng":140.714568,"zip":"9820241"},{"town":"秋保町湯元","koaza":"湯向西","lat":38.230625,"lng":140.717276,"zip":"9820241"},{"town":"秋保町湯元","koaza":"青木","lat":38.233951,"lng":140.720807,"zip":"9820241"},{"town":"秋保町湯元","koaza":"釜土南","lat":38.223969,"lng":140.722571,"zip":"9820241"},{"town":"秋保町湯元","koaza":"釜土","lat":38.224753,"lng":140.719636,"zip":"9820241"},{"town":"秋保町湯元","koaza":"薬師","lat":38.227493,"lng":140.722192,"zip":"9820241"},{"town":"秋保町湯元","koaza":"釜土東","lat":38.224841,"lng":140.722197,"zip":"9820241"},{"town":"秋保町湯元","koaza":"寺田","lat":38.22335,"lng":140.722935,"zip":"9820241"},{"town":"秋保町湯元","koaza":"寺田原","lat":38.225258,"lng":140.726941,"zip":"9820241"},{"town":"秋保町湯元","koaza":"木戸保","lat":38.223322,"lng":140.728191,"zip":"9820241"},{"town":"秋保町湯元","koaza":"枇杷原西","lat":38.225439,"lng":140.728502,"zip":"9820241"},{"town":"秋保町湯元","koaza":"枇杷原","lat":38.225551,"lng":140.729927,"zip":"9820241"},{"town":"秋保町湯元","koaza":"石名坂","lat":38.221985,"lng":140.733308,"zip":"9820241"},{"town":"秋保町湯元","koaza":"除","lat":38.22074,"lng":140.736208,"zip":"9820241"},{"town":"秋保町湯元","koaza":"畑","lat":38.219299,"lng":140.736634,"zip":"9820241"},{"town":"茂庭","koaza":"松場","lat":38.221471,"lng":140.74176,"zip":"9820251"},{"town":"坪沼","koaza":"赤石山","lat":38.208507,"lng":140.749872,"zip":"9820231"},{"town":"坪沼","koaza":"砂田","lat":38.211482,"lng":140.745969,"zip":"9820231"},{"town":"茂庭","koaza":"中谷地南","lat":38.21897,"lng":140.743021,"zip":"9820251"},{"town":"茂庭","koaza":"中谷地山","lat":38.22498,"lng":140.74337,"zip":"9820251"},{"town":"坪沼","koaza":"硯石","lat":38.193384,"lng":140.743697,"zip":"9820231"},{"town":"茂庭","koaza":"中谷地北","lat":38.219669,"lng":140.745065,"zip":"9820251"},{"town":"茂庭","koaza":"鹿ノ上","lat":38.226293,"lng":140.746945,"zip":"9820251"},{"town":"坪沼","koaza":"大苗","lat":38.212784,"lng":140.753629,"zip":"9820231"},{"town":"茂庭","koaza":"舟木南","lat":38.216833,"lng":140.751631,"zip":"9820251"},{"town":"茂庭","koaza":"舟木北","lat":38.22133,"lng":140.75298,"zip":"9820251"},{"town":"坪沼","koaza":"舘前西","lat":38.19186,"lng":140.755849,"zip":"9820231"},{"town":"坪沼","koaza":"根添中","lat":38.188986,"lng":140.757457,"zip":"9820231"},{"town":"坪沼","koaza":"青木沢","lat":38.210556,"lng":140.755603,"zip":"9820231"},{"town":"茂庭","koaza":"合ノ沢北","lat":38.218477,"lng":140.756026,"zip":"9820251"},{"town":"茂庭","koaza":"合ノ沢南","lat":38.215831,"lng":140.755853,"zip":"9820251"},{"town":"坪沼","koaza":"相ノ原","lat":38.212651,"lng":140.755791,"zip":"9820231"},{"town":"茂庭","koaza":"川添西","lat":38.21474,"lng":140.762542,"zip":"9820251"},{"town":"茂庭","koaza":"小塚西","lat":38.21663,"lng":140.759839,"zip":"9820251"},{"town":"坪沼","koaza":"北ノ下","lat":38.197292,"lng":140.767868,"zip":"9820231"},{"town":"坪沼","koaza":"大貝中","lat":38.210575,"lng":140.760151,"zip":"9820231"},{"town":"坪沼","koaza":"舘前中","lat":38.194459,"lng":140.763009,"zip":"9820231"},{"town":"坪沼","koaza":"中沖南","lat":38.184705,"lng":140.763319,"zip":"9820231"},{"town":"茂庭","koaza":"亀ケ森","lat":38.217159,"lng":140.768359,"zip":"9820251"},{"town":"坪沼","koaza":"中沖北","lat":38.187772,"lng":140.764202,"zip":"9820231"},{"town":"茂庭","koaza":"小塚東","lat":38.213082,"lng":140.765433,"zip":"9820251"},{"town":"茂庭","koaza":"川添東","lat":38.212669,"lng":140.766245,"zip":"9820251"},{"town":"坪沼","koaza":"稲塚山","lat":38.181655,"lng":140.77229,"zip":"9820231"},{"town":"坪沼","koaza":"舘前東","lat":38.190406,"lng":140.766036,"zip":"9820231"},{"town":"坪沼","koaza":"稲塚中","lat":38.18566,"lng":140.768674,"zip":"9820231"},{"town":"坪沼","koaza":"長田西","lat":38.192746,"lng":140.768188,"zip":"9820231"},{"town":"坪沼","koaza":"沼尻","lat":38.189318,"lng":140.771216,"zip":"9820231"},{"town":"坪沼","koaza":"稲塚西","lat":38.187709,"lng":140.771614,"zip":"9820231"},{"town":"坪沼","koaza":"北ノ中","lat":38.195781,"lng":140.772667,"zip":"9820231"},{"town":"坪沼","koaza":"長田北","lat":38.193158,"lng":140.772108,"zip":"9820231"},{"town":"茂庭","koaza":"高田東","lat":38.232019,"lng":140.77664,"zip":"9820251"},{"town":"坪沼","koaza":"長田中","lat":38.189035,"lng":140.77289,"zip":"9820231"},{"town":"茂庭","koaza":"嶺山","lat":38.228816,"lng":140.779594,"zip":"9820251"},{"town":"茂庭","koaza":"高田山","lat":38.233271,"lng":140.773958,"zip":"9820251"},{"town":"坪沼","koaza":"長田南","lat":38.186891,"lng":140.774204,"zip":"9820231"},{"town":"茂庭","koaza":"馬尾坂北","lat":38.213112,"lng":140.774713,"zip":"9820251"},{"town":"茂庭","koaza":"馬尾坂南","lat":38.213252,"lng":140.776311,"zip":"9820251"},{"town":"茂庭","koaza":"原山","lat":38.216473,"lng":140.778092,"zip":"9820251"},{"town":"茂庭","koaza":"高田西","lat":38.233571,"lng":140.769105,"zip":"9820251"},{"town":"茂庭","koaza":"梨野西","lat":38.23725,"lng":140.777916,"zip":"9820251"},{"town":"坪沼","koaza":"長田東","lat":38.191123,"lng":140.777245,"zip":"9820231"},{"town":"茂庭","koaza":"梨野中","lat":38.243878,"lng":140.78054,"zip":"9820251"},{"town":"坪沼","koaza":"寺山","lat":38.189965,"lng":140.783326,"zip":"9820231"},{"town":"坪沼","koaza":"寺前","lat":38.194383,"lng":140.779616,"zip":"9820231"},{"town":"坪沼","koaza":"上前","lat":38.182143,"lng":140.78502,"zip":"9820231"},{"town":"茂庭","koaza":"嶺岸","lat":38.227405,"lng":140.783416,"zip":"9820251"},{"town":"坪沼","koaza":"坪毛入","lat":38.183401,"lng":140.787539,"zip":"9820231"},{"town":"坪沼","koaza":"板橋","lat":38.186427,"lng":140.78339,"zip":"9820231"},{"town":"茂庭","koaza":"町北","lat":38.222835,"lng":140.785557,"zip":"9820251"},{"town":"茂庭","koaza":"矢倉木","lat":38.243926,"lng":140.785164,"zip":"9820251"},{"town":"茂庭","koaza":"原","lat":38.21597,"lng":140.783097,"zip":"9820251"},{"town":"茂庭","koaza":"立石","lat":38.242219,"lng":140.784082,"zip":"9820251"},{"town":"茂庭","koaza":"新組","lat":38.217692,"lng":140.784447,"zip":"9820251"},{"town":"茂庭","koaza":"門野","lat":38.22153,"lng":140.784162,"zip":"9820251"},{"town":"坪沼","koaza":"郷田","lat":38.193004,"lng":140.78987,"zip":"9820231"},{"town":"茂庭","koaza":"大沢","lat":38.218299,"lng":140.785685,"zip":"9820251"},{"town":"坪沼","koaza":"針山","lat":38.195718,"lng":140.785003,"zip":"9820231"},{"town":"茂庭","koaza":"本郷","lat":38.223132,"lng":140.786638,"zip":"9820251"},{"town":"坪沼","koaza":"沼山","lat":38.198164,"lng":140.789628,"zip":"9820231"},{"town":"坪沼","koaza":"滝ノ原","lat":38.189981,"lng":140.788524,"zip":"9820231"},{"town":"茂庭","koaza":"西前","lat":38.224446,"lng":140.786185,"zip":"9820251"},{"town":"茂庭","koaza":"町田","lat":38.227626,"lng":140.789615,"zip":"9820251"},{"town":"茂庭","koaza":"西","lat":38.224421,"lng":140.787735,"zip":"9820251"},{"town":"茂庭","koaza":"梨野東","lat":38.240706,"lng":140.788614,"zip":"9820251"},{"town":"茂庭","koaza":"中ノ瀬西","lat":38.219652,"lng":140.788772,"zip":"9820251"},{"town":"坪沼","koaza":"咨戸沢","lat":38.187405,"lng":140.792158,"zip":"9820231"},{"town":"茂庭","koaza":"向根","lat":38.227256,"lng":140.793314,"zip":"9820251"},{"town":"坪沼","koaza":"原前","lat":38.182811,"lng":140.790842,"zip":"9820231"},{"town":"茂庭","koaza":"新熊野","lat":38.221384,"lng":140.79041,"zip":"9820251"},{"town":"茂庭","koaza":"熊野","lat":38.223476,"lng":140.789894,"zip":"9820251"},{"town":"茂庭","koaza":"町尻","lat":38.221102,"lng":140.789631,"zip":"9820251"},{"town":"茂庭","koaza":"大堤","lat":38.239943,"lng":140.790432,"zip":"9820251"},{"town":"茂庭","koaza":"中ノ瀬中","lat":38.220102,"lng":140.793779,"zip":"9820251"},{"town":"茂庭","koaza":"馬越石","lat":38.239061,"lng":140.792383,"zip":"9820251"},{"town":"茂庭","koaza":"生出前","lat":38.230185,"lng":140.803,"zip":"9820251"},{"town":"坪沼","koaza":"北原","lat":38.192997,"lng":140.796454,"zip":"9820231"},{"town":"茂庭","koaza":"新御所川","lat":38.221467,"lng":140.794359,"zip":"9820251"},{"town":"茂庭","koaza":"中ノ瀬東","lat":38.220234,"lng":140.796994,"zip":"9820251"},{"town":"坪沼","koaza":"大浪","lat":38.190742,"lng":140.796983,"zip":"9820231"},{"town":"茂庭","koaza":"坂ノ下","lat":38.223063,"lng":140.797414,"zip":"9820251"},{"town":"茂庭","koaza":"東","lat":38.222336,"lng":140.79706,"zip":"9820251"},{"town":"茂庭","koaza":"上ノ原山","lat":38.219177,"lng":140.800571,"zip":"9820251"},{"town":"茂庭","koaza":"人来田西","lat":38.215206,"lng":140.801588,"zip":"9820251"},{"town":"坪沼","koaza":"一貫地","lat":38.191834,"lng":140.803084,"zip":"9820231"},{"town":"茂庭","koaza":"人来田中","lat":38.216529,"lng":140.804516,"zip":"9820251"},{"town":"茂庭","koaza":"人来田東","lat":38.216653,"lng":140.809855,"zip":"9820251"},{"town":"茂庭","koaza":"生出森東","lat":38.239281,"lng":140.814133,"zip":"9820251"},{"town":"山田","koaza":"清太原","lat":38.213933,"lng":140.832467,"zip":"9820214"},{"town":"山田","koaza":"欠ノ上前","lat":38.214719,"lng":140.832411,"zip":"9820214"},{"town":"山田","koaza":"竹ノ内前","lat":38.214256,"lng":140.834641,"zip":"9820214"},{"town":"山田","koaza":"汚田通","lat":38.214974,"lng":140.832833,"zip":"9820214"},{"town":"長町","koaza":"越路","lat":38.248044,"lng":140.852297,"zip":"9820011"},{"town":"山田","koaza":"田中前","lat":38.216024,"lng":140.836723,"zip":"9820214"},{"town":"山田","koaza":"船渡前","lat":38.211532,"lng":140.83898,"zip":"9820214"},{"town":"鈎取","koaza":"谷地田","lat":38.218244,"lng":140.839412,"zip":"9820804"},{"town":"山田","koaza":"大石","lat":38.213154,"lng":140.841036,"zip":"9820214"},{"town":"山田","koaza":"新田堀下南","lat":38.212791,"lng":140.843288,"zip":"9820214"},{"town":"鈎取","koaza":"一本杉","lat":38.219014,"lng":140.842955,"zip":"9820804"},{"town":"鈎取","koaza":"向原前","lat":38.218945,"lng":140.844675,"zip":"9820804"},{"town":"鈎取","koaza":"新田町","lat":38.217215,"lng":140.845504,"zip":"9820804"},{"town":"富田","koaza":"上野西","lat":38.213218,"lng":140.846626,"zip":"9820033"},{"town":"富田","koaza":"南ノ西","lat":38.207787,"lng":140.848128,"zip":"9820033"},{"town":"富田","koaza":"八幡西","lat":38.2104,"lng":140.846261,"zip":"9820033"},{"town":"富田","koaza":"南ノ中","lat":38.20997,"lng":140.849292,"zip":"9820033"},{"town":"富田","koaza":"上野中","lat":38.214923,"lng":140.849474,"zip":"9820033"},{"town":"富田","koaza":"八幡中","lat":38.212682,"lng":140.849921,"zip":"9820033"},{"town":"富田","koaza":"上野東","lat":38.217103,"lng":140.851144,"zip":"9820033"},{"town":"富田","koaza":"南ノ東","lat":38.211851,"lng":140.852551,"zip":"9820033"},{"town":"富田","koaza":"八幡東","lat":38.217145,"lng":140.852427,"zip":"9820033"},{"town":"富田","koaza":"京ノ南","lat":38.207925,"lng":140.854897,"zip":"9820033"},{"town":"富沢","koaza":"宮崎","lat":38.214737,"lng":140.854207,"zip":"9820032"},{"town":"富田","koaza":"京ノ中","lat":38.210166,"lng":140.855425,"zip":"9820033"},{"town":"富沢","koaza":"鍛冶屋敷","lat":38.211991,"lng":140.856172,"zip":"9820032"},{"town":"富沢","koaza":"六本松","lat":38.208285,"lng":140.858622,"zip":"9820032"},{"town":"富沢","koaza":"舞台","lat":38.209666,"lng":140.859248,"zip":"9820032"},{"town":"富沢","koaza":"鍛冶屋敷前","lat":38.211742,"lng":140.859159,"zip":"9820032"},{"town":"富沢","koaza":"熊ノ前","lat":38.213375,"lng":140.859937,"zip":"9820032"},{"town":"富沢","koaza":"舘","lat":38.213704,"lng":140.861835,"zip":"9820032"},{"town":"富沢","koaza":"寺城","lat":38.210879,"lng":140.861211,"zip":"9820032"},{"town":"富沢","koaza":"川前浦","lat":38.212161,"lng":140.86261,"zip":"9820032"},{"town":"富沢","koaza":"中河原","lat":38.209496,"lng":140.862789,"zip":"9820032"},{"town":"柳生","koaza":"土手外","lat":38.203246,"lng":140.869502,"zip":"9811106"},{"town":"富沢","koaza":"山口","lat":38.215616,"lng":140.861835,"zip":"9820032"},{"town":"柳生","koaza":"稲荷","lat":38.202179,"lng":140.864363,"zip":"9811106"},{"town":"富沢","koaza":"川前","lat":38.211317,"lng":140.863389,"zip":"9820032"},{"town":"富沢","koaza":"舘東","lat":38.215205,"lng":140.863402,"zip":"9820032"},{"town":"柳生","koaza":"松木","lat":38.200435,"lng":140.864005,"zip":"9811106"},{"town":"大野田","koaza":"下古川","lat":38.20896,"lng":140.876357,"zip":"9820014"},{"town":"富沢","koaza":"松山","lat":38.209158,"lng":140.864672,"zip":"9820032"},{"town":"柳生","koaza":"北","lat":38.200272,"lng":140.867483,"zip":"9811106"},{"town":"柳生","koaza":"上河原","lat":38.203168,"lng":140.867522,"zip":"9811106"},{"town":"柳生","koaza":"川西","lat":38.192996,"lng":140.865943,"zip":"9811106"},{"town":"柳生","koaza":"関場","lat":38.192272,"lng":140.868164,"zip":"9811106"},{"town":"柳生","koaza":"田中","lat":38.192962,"lng":140.869474,"zip":"9811106"},{"town":"柳生","koaza":"台畑","lat":38.19851,"lng":140.870631,"zip":"9811106"},{"town":"柳生","koaza":"北原","lat":38.201113,"lng":140.871255,"zip":"9811106"},{"town":"柳生","koaza":"沢目","lat":38.202541,"lng":140.872031,"zip":"9811106"},{"town":"柳生","koaza":"前原北","lat":38.190808,"lng":140.870438,"zip":"9811106"},{"town":"大野田","koaza":"皿屋敷","lat":38.212597,"lng":140.874586,"zip":"9820014"},{"town":"柳生","koaza":"荒田","lat":38.193315,"lng":140.872043,"zip":"9811106"},{"town":"大野田","koaza":"塚田","lat":38.214611,"lng":140.870878,"zip":"9820014"},{"town":"大野田","koaza":"千刈田","lat":38.214526,"lng":140.872419,"zip":"9820014"},{"town":"富沢","koaza":"下ノ内","lat":38.215796,"lng":140.871309,"zip":"9820032"},{"town":"大野田","koaza":"五反田","lat":38.215454,"lng":140.872123,"zip":"9820014"},{"town":"大野田","koaza":"六反田","lat":38.216165,"lng":140.873374,"zip":"9820014"},{"town":"大野田","koaza":"竹松","lat":38.215635,"lng":140.874589,"zip":"9820014"},{"town":"大野田","koaza":"宮脇","lat":38.214564,"lng":140.874668,"zip":"9820014"},{"town":"大野田","koaza":"宮","lat":38.214077,"lng":140.873855,"zip":"9820014"},{"town":"大野田","koaza":"観音堂","lat":38.210431,"lng":140.875927,"zip":"9820014"},{"town":"大野田","koaza":"元袋","lat":38.218702,"lng":140.877343,"zip":"9820014"},{"town":"柳生","koaza":"台","lat":38.201294,"lng":140.875111,"zip":"9811106"},{"town":"大野田","koaza":"袋前","lat":38.217172,"lng":140.875862,"zip":"9820014"},{"town":"柳生","koaza":"野添","lat":38.20265,"lng":140.875993,"zip":"9811106"},{"town":"大野田","koaza":"王ノ檀","lat":38.213738,"lng":140.87656,"zip":"9820014"},{"town":"大野田","koaza":"北屋敷","lat":38.215626,"lng":140.877458,"zip":"9820014"},{"town":"中田町","koaza":"北","lat":38.190931,"lng":140.891686,"zip":"9811103"},{"town":"中田町","koaza":"後河原","lat":38.192667,"lng":140.893685,"zip":"9811103"},{"town":"中田町","koaza":"清水","lat":38.194329,"lng":140.894691,"zip":"9811103"},{"town":"中田町","koaza":"杉ノ下","lat":38.196123,"lng":140.893021,"zip":"9811103"},{"town":"中田町","koaza":"神明東","lat":38.196675,"lng":140.8922,"zip":"9811103"},{"town":"中田町","koaza":"鎌ケ淵","lat":38.197209,"lng":140.892555,"zip":"9811103"},{"town":"中田町","koaza":"前沖","lat":38.191256,"lng":140.897535,"zip":"9811103"},{"town":"郡山","koaza":"小原","lat":38.210817,"lng":140.893635,"zip":"9820003"},{"town":"郡山","koaza":"原田","lat":38.212124,"lng":140.895017,"zip":"9820003"},{"town":"郡山","koaza":"籠ノ瀬","lat":38.214414,"lng":140.89324,"zip":"9820003"},{"town":"郡山","koaza":"谷地田西","lat":38.213818,"lng":140.895558,"zip":"9820003"},{"town":"中田町","koaza":"二軒橋","lat":38.19522,"lng":140.896009,"zip":"9811103"},{"town":"中田町","koaza":"千刈田","lat":38.196599,"lng":140.896692,"zip":"9811103"},{"town":"郡山","koaza":"新橋南","lat":38.216923,"lng":140.894921,"zip":"9820003"},{"town":"郡山","koaza":"上野","lat":38.215173,"lng":140.895653,"zip":"9820003"},{"town":"中田町","koaza":"前沖北","lat":38.193403,"lng":140.898484,"zip":"9811103"},{"town":"郡山","koaza":"石塚","lat":38.218974,"lng":140.895347,"zip":"9820003"},{"town":"中田町","koaza":"前沖中","lat":38.192052,"lng":140.895349,"zip":"9811103"},{"town":"郡山","koaza":"新橋北","lat":38.21766,"lng":140.896602,"zip":"9820003"},{"town":"郡山","koaza":"欠ノ上","lat":38.21395,"lng":140.897892,"zip":"9820003"},{"town":"郡山","koaza":"北目宅地","lat":38.21974,"lng":140.898358,"zip":"9820003"},{"town":"郡山","koaza":"穴田西","lat":38.217566,"lng":140.897433,"zip":"9820003"},{"town":"郡山","koaza":"谷地田東","lat":38.212336,"lng":140.897039,"zip":"9820003"},{"town":"中田町","koaza":"荒屋敷","lat":38.197093,"lng":140.899263,"zip":"9811103"},{"town":"郡山","koaza":"南上河原","lat":38.211992,"lng":140.899929,"zip":"9820003"},{"town":"郡山","koaza":"穴田東","lat":38.216379,"lng":140.898134,"zip":"9820003"},{"town":"郡山","koaza":"蓬田","lat":38.215249,"lng":140.899535,"zip":"9820003"},{"town":"中田町","koaza":"寺浦","lat":38.194255,"lng":140.900021,"zip":"9811103"},{"town":"中田町","koaza":"境","lat":38.189564,"lng":140.904761,"zip":"9811103"},{"town":"郡山","koaza":"行新田","lat":38.217073,"lng":140.89967,"zip":"9820003"},{"town":"中田町","koaza":"法地北","lat":38.196781,"lng":140.901021,"zip":"9811103"},{"town":"中田町","koaza":"法地南","lat":38.19596,"lng":140.901868,"zip":"9811103"},{"town":"袋原","koaza":"内手","lat":38.193648,"lng":140.903206,"zip":"9811102"},{"town":"中田町","koaza":"東","lat":38.190822,"lng":140.903457,"zip":"9811103"},{"town":"郡山","koaza":"矢口田","lat":38.218527,"lng":140.90407,"zip":"9820003"},{"town":"袋原","koaza":"小原","lat":38.196117,"lng":140.904917,"zip":"9811102"},{"town":"袋原","koaza":"堰場","lat":38.19157,"lng":140.905445,"zip":"9811102"},{"town":"郡山","koaza":"吹上西","lat":38.215376,"lng":140.904769,"zip":"9820003"},{"town":"袋原","koaza":"台","lat":38.196404,"lng":140.906613,"zip":"9811102"},{"town":"袋原","koaza":"平淵","lat":38.193206,"lng":140.906972,"zip":"9811102"},{"town":"四郎丸","koaza":"前","lat":38.188,"lng":140.909871,"zip":"9811101"},{"town":"四郎丸","koaza":"渡道","lat":38.191732,"lng":140.909483,"zip":"9811101"},{"town":"四郎丸","koaza":"吹上","lat":38.193365,"lng":140.913145,"zip":"9811101"},{"town":"四郎丸","koaza":"神明","lat":38.189811,"lng":140.912582,"zip":"9811101"},{"town":"四郎丸","koaza":"昭和上","lat":38.187654,"lng":140.912955,"zip":"9811101"},{"town":"四郎丸","koaza":"田中","lat":38.188272,"lng":140.914135,"zip":"9811101"},{"town":"四郎丸","koaza":"昭和裏","lat":38.189153,"lng":140.914675,"zip":"9811101"},{"town":"四郎丸","koaza":"桜木","lat":38.18804,"lng":140.915204,"zip":"9811101"},{"town":"四郎丸","koaza":"昭和前","lat":38.185284,"lng":140.91741,"zip":"9811101"},{"town":"四郎丸","koaza":"弁天","lat":38.188876,"lng":140.916091,"zip":"9811101"},{"town":"四郎丸","koaza":"戸ノ内","lat":38.190924,"lng":140.916955,"zip":"9811101"},{"town":"四郎丸","koaza":"大宮","lat":38.193756,"lng":140.918792,"zip":"9811101"},{"town":"四郎丸","koaza":"地蔵前","lat":38.187806,"lng":140.917118,"zip":"9811101"},{"town":"四郎丸","koaza":"落合","lat":38.196461,"lng":140.921032,"zip":"9811101"},{"town":"四郎丸","koaza":"昭和中","lat":38.190692,"lng":140.92023,"zip":"9811101"},{"town":"四郎丸","koaza":"浜堀","lat":38.190581,"lng":140.92104,"zip":"9811101"},{"town":"四郎丸","koaza":"新田","lat":38.193405,"lng":140.921572,"zip":"9811101"},{"town":"四郎丸","koaza":"昭和北","lat":38.191655,"lng":140.925573,"zip":"9811101"},{"town":"四郎丸","koaza":"原東","lat":38.189217,"lng":140.925454,"zip":"9811101"},{"town":"四郎丸","koaza":"岡谷地","lat":38.195687,"lng":140.924892,"zip":"9811101"},{"town":"四郎丸","koaza":"昭和東","lat":38.189953,"lng":140.92685,"zip":"9811101"},{"town":"四郎丸","koaza":"昭和南","lat":38.183494,"lng":140.928078,"zip":"9811101"},{"town":"四郎丸","koaza":"芳塚","lat":38.19266,"lng":140.927793,"zip":"9811101"},{"town":"四郎丸","koaza":"昭和境","lat":38.184367,"lng":140.932794,"zip":"9811101"},{"town":"四郎丸","koaza":"尺丈島北","lat":38.187255,"lng":140.931756,"zip":"9811101"},{"town":"四郎丸","koaza":"松原","lat":38.187073,"lng":140.928827,"zip":"9811101"},{"town":"郡山","koaza":"北目前","lat":38.218534,"lng":140.90008,"zip":"9820003"},{"town":"秋保町長袋","koaza":"水上北","lat":38.274666,"lng":140.651775,"zip":"9820243"},{"town":"茂庭","koaza":"鍋田","lat":38.242875,"lng":140.773926,"zip":"9820251"},{"town":"茂庭","koaza":"中ノ森","lat":38.222212,"lng":140.758757,"zip":"9820251"},{"town":"坪沼","koaza":"大八上","lat":38.201906,"lng":140.777104,"zip":"9820231"},{"town":"秋保町湯元","koaza":"釜土西","lat":38.224121,"lng":140.717488,"zip":"9820241"},{"town":"秋保町湯元","koaza":"鹿乙","lat":38.229781,"lng":140.71487,"zip":"9820241"},{"town":"秋保町湯元","koaza":"平倉","lat":38.236605,"lng":140.702883,"zip":"9820241"},{"town":"秋保町湯元","koaza":"源兵衛原","lat":38.229353,"lng":140.70844,"zip":"9820241"},{"town":"秋保町湯元","koaza":"馬乙","lat":38.233144,"lng":140.706,"zip":"9820241"},{"town":"秋保町湯元","koaza":"白木澤","lat":38.221387,"lng":140.71188,"zip":"9820241"},{"town":"秋保町湯元","koaza":"大日向","lat":38.233677,"lng":140.691388,"zip":"9820241"}]