[{"town":"泉中央南","koaza":"","lat":38.320467,"lng":140.870928,"zip":"9813126"},{"town":"将監殿二丁目","koaza":"","lat":38.345091,"lng":140.876018,"zip":"9813136"},{"town":"友愛町","koaza":"","lat":38.314207,"lng":140.893686,"zip":"9813114"},{"town":"八乙女二丁目","koaza":"","lat":38.309492,"lng":140.891786,"zip":"9813112"},{"town":"上谷刈六丁目","koaza":"","lat":38.313961,"lng":140.879632,"zip":"9813121"},{"town":"上谷刈二丁目","koaza":"","lat":38.317585,"lng":140.872208,"zip":"9813121"},{"town":"八乙女一丁目","koaza":"","lat":38.311295,"lng":140.891968,"zip":"9813112"},{"town":"八乙女中央四丁目","koaza":"","lat":38.312677,"lng":140.888597,"zip":"9813135"},{"town":"住吉台東二丁目","koaza":"","lat":38.328943,"lng":140.785613,"zip":"9813222"},{"town":"高森八丁目","koaza":"","lat":38.336366,"lng":140.854365,"zip":"9813203"},{"town":"将監殿一丁目","koaza":"","lat":38.339831,"lng":140.88188,"zip":"9813136"},{"town":"将監六丁目","koaza":"","lat":38.33759,"lng":140.87787,"zip":"9813132"},{"town":"虹の丘三丁目","koaza":"","lat":38.302069,"lng":140.868279,"zip":"9818007"},{"town":"将監十二丁目","koaza":"","lat":38.340137,"lng":140.872625,"zip":"9813132"},{"town":"南光台東三丁目","koaza":"","lat":38.302067,"lng":140.916062,"zip":"9818001"},{"town":"将監十一丁目","koaza":"","lat":38.338541,"lng":140.872337,"zip":"9813132"},{"town":"明石南四丁目","koaza":"","lat":38.345801,"lng":140.886624,"zip":"9813101"},{"town":"将監殿三丁目","koaza":"","lat":38.341935,"lng":140.87845,"zip":"9813136"},{"town":"八乙女中央一丁目","koaza":"","lat":38.3119,"lng":140.883608,"zip":"9813135"},{"town":"将監殿四丁目","koaza":"","lat":38.341685,"lng":140.873116,"zip":"9813136"},{"town":"八乙女中央二丁目","koaza":"","lat":38.316252,"lng":140.882062,"zip":"9813135"},{"town":"住吉台西二丁目","koaza":"","lat":38.329224,"lng":140.777775,"zip":"9813223"},{"town":"明石南三丁目","koaza":"","lat":38.340706,"lng":140.886715,"zip":"9813101"},{"town":"南中山六丁目","koaza":"","lat":38.310189,"lng":140.82156,"zip":"9813213"},{"town":"八乙女三丁目","koaza":"","lat":38.308679,"lng":140.896035,"zip":"9813112"},{"town":"泉ケ丘一丁目","koaza":"","lat":38.351655,"lng":140.870773,"zip":"9813201"},{"town":"明石南六丁目","koaza":"","lat":38.346061,"lng":140.882914,"zip":"9813101"},{"town":"寺岡五丁目","koaza":"","lat":38.34292,"lng":140.829057,"zip":"9813204"},{"town":"泉ケ丘二丁目","koaza":"","lat":38.354154,"lng":140.868863,"zip":"9813201"},{"town":"館五丁目","koaza":"","lat":38.31937,"lng":140.802548,"zip":"9813214"},{"town":"東黒松","koaza":"","lat":38.306889,"lng":140.890077,"zip":"9818005"},{"town":"上谷刈五丁目","koaza":"","lat":38.313339,"lng":140.872954,"zip":"9813121"},{"town":"旭丘堤一丁目","koaza":"","lat":38.299093,"lng":140.890141,"zip":"9818004"},{"town":"向陽台一丁目","koaza":"","lat":38.335427,"lng":140.891286,"zip":"9813102"},{"town":"将監十三丁目","koaza":"","lat":38.33831,"lng":140.86793,"zip":"9813132"},{"town":"上谷刈一丁目","koaza":"","lat":38.316113,"lng":140.876455,"zip":"9813121"},{"town":"将監五丁目","koaza":"","lat":38.339362,"lng":140.878227,"zip":"9813132"},{"town":"向陽台二丁目","koaza":"","lat":38.339588,"lng":140.892889,"zip":"9813102"},{"town":"将監七丁目","koaza":"","lat":38.335707,"lng":140.877472,"zip":"9813132"},{"town":"泉ケ丘三丁目","koaza":"","lat":38.357999,"lng":140.870458,"zip":"9813201"},{"town":"住吉台東五丁目","koaza":"","lat":38.328642,"lng":140.791188,"zip":"9813222"},{"town":"上谷刈三丁目","koaza":"","lat":38.31801,"lng":140.868924,"zip":"9813121"},{"town":"八乙女中央五丁目","koaza":"","lat":38.31056,"lng":140.886679,"zip":"9813135"},{"town":"永和台","koaza":"","lat":38.329175,"lng":140.905481,"zip":"9813104"},{"town":"住吉台東三丁目","koaza":"","lat":38.332103,"lng":140.786107,"zip":"9813222"},{"town":"上谷刈四丁目","koaza":"","lat":38.314927,"lng":140.872368,"zip":"9813121"},{"town":"明石南一丁目","koaza":"","lat":38.33931,"lng":140.889459,"zip":"9813101"},{"town":"長命ケ丘東","koaza":"","lat":38.313619,"lng":140.84394,"zip":"9813211"},{"town":"南光台南一丁目","koaza":"","lat":38.295971,"lng":140.900186,"zip":"9818002"},{"town":"住吉台西三丁目","koaza":"","lat":38.331095,"lng":140.772821,"zip":"9813223"},{"town":"山の寺三丁目","koaza":"","lat":38.334493,"lng":140.903402,"zip":"9813103"},{"town":"明石南五丁目","koaza":"","lat":38.342606,"lng":140.883821,"zip":"9813101"},{"town":"向陽台五丁目","koaza":"","lat":38.335173,"lng":140.899525,"zip":"9813102"},{"town":"向陽台四丁目","koaza":"","lat":38.337776,"lng":140.898454,"zip":"9813102"},{"town":"虹の丘二丁目","koaza":"","lat":38.306234,"lng":140.868302,"zip":"9818007"},{"town":"泉ケ丘五丁目","koaza":"","lat":38.359025,"lng":140.863483,"zip":"9813201"},{"town":"住吉台西一丁目","koaza":"","lat":38.32694,"lng":140.782148,"zip":"9813223"},{"town":"向陽台三丁目","koaza":"","lat":38.340023,"lng":140.897777,"zip":"9813102"},{"town":"黒松三丁目","koaza":"","lat":38.306678,"lng":140.886561,"zip":"9818006"},{"town":"泉中央四丁目","koaza":"","lat":38.321437,"lng":140.885203,"zip":"9813133"},{"town":"南光台南二丁目","koaza":"","lat":38.294792,"lng":140.902185,"zip":"9818002"},{"town":"将監二丁目","koaza":"","lat":38.330415,"lng":140.881893,"zip":"9813132"},{"town":"北高森","koaza":"","lat":38.345017,"lng":140.857732,"zip":"9813202"},{"town":"将監三丁目","koaza":"","lat":38.333175,"lng":140.884161,"zip":"9813132"},{"town":"泉ケ丘四丁目","koaza":"","lat":38.358662,"lng":140.866924,"zip":"9813201"},{"town":"黒松一丁目","koaza":"","lat":38.30391,"lng":140.883633,"zip":"9818006"},{"town":"館六丁目","koaza":"","lat":38.317102,"lng":140.800416,"zip":"9813214"},{"town":"八乙女四丁目","koaza":"","lat":38.311335,"lng":140.897466,"zip":"9813112"},{"town":"黒松二丁目","koaza":"","lat":38.30836,"lng":140.881821,"zip":"9818006"},{"town":"虹の丘四丁目","koaza":"","lat":38.304644,"lng":140.865139,"zip":"9818007"},{"town":"将監九丁目","koaza":"","lat":38.33191,"lng":140.872322,"zip":"9813132"},{"town":"住吉台東一丁目","koaza":"","lat":38.326149,"lng":140.786748,"zip":"9813222"},{"town":"紫山三丁目","koaza":"","lat":38.346128,"lng":140.823937,"zip":"9813205"},{"town":"将監一丁目","koaza":"","lat":38.329404,"lng":140.886984,"zip":"9813132"},{"town":"松陵一丁目","koaza":"","lat":38.32212,"lng":140.912484,"zip":"9813108"},{"town":"寺岡三丁目","koaza":"","lat":38.339405,"lng":140.824838,"zip":"9813204"},{"town":"長命ケ丘二丁目","koaza":"","lat":38.313101,"lng":140.841325,"zip":"9813212"},{"town":"南光台三丁目","koaza":"","lat":38.295295,"lng":140.891797,"zip":"9818003"},{"town":"高森五丁目","koaza":"","lat":38.336043,"lng":140.851534,"zip":"9813203"},{"town":"南中山四丁目","koaza":"","lat":38.313235,"lng":140.819486,"zip":"9813213"},{"town":"明石南二丁目","koaza":"","lat":38.342856,"lng":140.890693,"zip":"9813101"},{"town":"館二丁目","koaza":"","lat":38.314442,"lng":140.7951,"zip":"9813214"},{"town":"高森一丁目","koaza":"","lat":38.337037,"lng":140.841929,"zip":"9813203"},{"town":"松陵五丁目","koaza":"","lat":38.328006,"lng":140.915145,"zip":"9813108"},{"town":"将監四丁目","koaza":"","lat":38.336603,"lng":140.883773,"zip":"9813132"},{"town":"将監殿五丁目","koaza":"","lat":38.343755,"lng":140.873105,"zip":"9813136"},{"town":"南光台南三丁目","koaza":"","lat":38.294155,"lng":140.905575,"zip":"9818002"},{"town":"八乙女中央三丁目","koaza":"","lat":38.314724,"lng":140.886342,"zip":"9813135"},{"town":"高玉町","koaza":"","lat":38.317045,"lng":140.894135,"zip":"9813116"},{"town":"南光台四丁目","koaza":"","lat":38.298977,"lng":140.894549,"zip":"9818003"},{"town":"南光台東二丁目","koaza":"","lat":38.298541,"lng":140.912844,"zip":"9818001"},{"town":"南光台東一丁目","koaza":"","lat":38.298659,"lng":140.907138,"zip":"9818001"},{"town":"北中山三丁目","koaza":"","lat":38.316783,"lng":140.810633,"zip":"9813215"},{"town":"南光台五丁目","koaza":"","lat":38.303727,"lng":140.893989,"zip":"9818003"},{"town":"南中山五丁目","koaza":"","lat":38.309686,"lng":140.811532,"zip":"9813213"},{"town":"南光台一丁目","koaza":"","lat":38.290901,"lng":140.895051,"zip":"9818003"},{"town":"旭丘堤二丁目","koaza":"","lat":38.303522,"lng":140.889532,"zip":"9818004"},{"town":"寺岡四丁目","koaza":"","lat":38.343042,"lng":140.823073,"zip":"9813204"},{"town":"加茂五丁目","koaza":"","lat":38.316171,"lng":140.8462,"zip":"9813122"},{"town":"紫山四丁目","koaza":"","lat":38.348841,"lng":140.821026,"zip":"9813205"},{"town":"桂四丁目","koaza":"","lat":38.341932,"lng":140.867881,"zip":"9813134"},{"town":"住吉台東四丁目","koaza":"","lat":38.332251,"lng":140.790493,"zip":"9813222"},{"town":"長命ケ丘一丁目","koaza":"","lat":38.317539,"lng":140.84123,"zip":"9813212"},{"town":"南光台六丁目","koaza":"","lat":38.304107,"lng":140.898239,"zip":"9818003"},{"town":"長命ケ丘五丁目","koaza":"","lat":38.3145,"lng":140.834476,"zip":"9813212"},{"town":"泉中央三丁目","koaza":"","lat":38.32531,"lng":140.886074,"zip":"9813133"},{"town":"長命ケ丘四丁目","koaza":"","lat":38.312655,"lng":140.837684,"zip":"9813212"},{"town":"将監八丁目","koaza":"","lat":38.332943,"lng":140.876829,"zip":"9813132"},{"town":"加茂四丁目","koaza":"","lat":38.312961,"lng":140.851747,"zip":"9813122"},{"town":"松陵二丁目","koaza":"","lat":38.327874,"lng":140.90993,"zip":"9813108"},{"town":"寺岡六丁目","koaza":"","lat":38.342648,"lng":140.835157,"zip":"9813204"},{"town":"加茂三丁目","koaza":"","lat":38.316965,"lng":140.850341,"zip":"9813122"},{"town":"館一丁目","koaza":"","lat":38.310084,"lng":140.794774,"zip":"9813214"},{"town":"長命ケ丘六丁目","koaza":"","lat":38.313164,"lng":140.830177,"zip":"9813212"},{"town":"高森三丁目","koaza":"","lat":38.341736,"lng":140.846965,"zip":"9813203"},{"town":"大沢一丁目","koaza":"","lat":38.348454,"lng":140.878443,"zip":"9813137"},{"town":"みずほ台","koaza":"","lat":38.311837,"lng":140.87419,"zip":"9813125"},{"town":"鶴が丘四丁目","koaza":"","lat":38.326757,"lng":140.921951,"zip":"9813109"},{"town":"南光台二丁目","koaza":"","lat":38.292993,"lng":140.893161,"zip":"9818003"},{"town":"寺岡一丁目","koaza":"","lat":38.33784,"lng":140.836876,"zip":"9813204"},{"town":"大沢三丁目","koaza":"","lat":38.356076,"lng":140.875058,"zip":"9813137"},{"town":"高森二丁目","koaza":"","lat":38.341169,"lng":140.841606,"zip":"9813203"},{"town":"泉中央二丁目","koaza":"","lat":38.32771,"lng":140.880027,"zip":"9813133"},{"town":"北中山一丁目","koaza":"","lat":38.317804,"lng":140.823017,"zip":"9813215"},{"town":"館七丁目","koaza":"","lat":38.312015,"lng":140.799629,"zip":"9813214"},{"town":"桂三丁目","koaza":"","lat":38.341156,"lng":140.863256,"zip":"9813134"},{"town":"松陵四丁目","koaza":"","lat":38.333071,"lng":140.916046,"zip":"9813108"},{"town":"山の寺一丁目","koaza":"","lat":38.329678,"lng":140.896979,"zip":"9813103"},{"town":"北中山四丁目","koaza":"","lat":38.312823,"lng":140.809206,"zip":"9813215"},{"town":"住吉台西四丁目","koaza":"","lat":38.331373,"lng":140.779839,"zip":"9813223"},{"town":"高森四丁目","koaza":"","lat":38.335294,"lng":140.847156,"zip":"9813203"},{"town":"高森七丁目","koaza":"","lat":38.341958,"lng":140.856971,"zip":"9813203"},{"town":"本田町","koaza":"","lat":38.322116,"lng":140.904135,"zip":"9813107"},{"town":"館三丁目","koaza":"","lat":38.319768,"lng":140.797697,"zip":"9813214"},{"town":"紫山二丁目","koaza":"","lat":38.346572,"lng":140.829828,"zip":"9813205"},{"town":"南中山三丁目","koaza":"","lat":38.312916,"lng":140.826141,"zip":"9813213"},{"town":"天神沢一丁目","koaza":"","lat":38.32405,"lng":140.898363,"zip":"9813105"},{"town":"明通四丁目","koaza":"","lat":38.354345,"lng":140.862597,"zip":"9813206"},{"town":"大沢二丁目","koaza":"","lat":38.351283,"lng":140.876676,"zip":"9813137"},{"town":"高森六丁目","koaza":"","lat":38.341897,"lng":140.851754,"zip":"9813203"},{"town":"南中山二丁目","koaza":"","lat":38.307839,"lng":140.828886,"zip":"9813213"},{"town":"北中山二丁目","koaza":"","lat":38.317178,"lng":140.8164,"zip":"9813215"},{"town":"桂二丁目","koaza":"","lat":38.337102,"lng":140.858806,"zip":"9813134"},{"town":"松陵三丁目","koaza":"","lat":38.333346,"lng":140.91046,"zip":"9813108"},{"town":"歩坂町","koaza":"","lat":38.323142,"lng":140.908451,"zip":"9813106"},{"town":"長命ケ丘三丁目","koaza":"","lat":38.309473,"lng":140.839038,"zip":"9813212"},{"town":"天神沢二丁目","koaza":"","lat":38.328026,"lng":140.901556,"zip":"9813105"},{"town":"加茂一丁目","koaza":"","lat":38.313009,"lng":140.863485,"zip":"9813122"},{"town":"南光台七丁目","koaza":"","lat":38.301359,"lng":140.9021,"zip":"9818003"},{"town":"桂一丁目","koaza":"","lat":38.334735,"lng":140.863824,"zip":"9813134"},{"town":"鶴が丘三丁目","koaza":"","lat":38.322541,"lng":140.920535,"zip":"9813109"},{"town":"虹の丘一丁目","koaza":"","lat":38.305588,"lng":140.873351,"zip":"9818007"},{"town":"山の寺二丁目","koaza":"","lat":38.332937,"lng":140.895061,"zip":"9813103"},{"town":"鶴が丘二丁目","koaza":"","lat":38.321595,"lng":140.915082,"zip":"9813109"},{"town":"将監十丁目","koaza":"","lat":38.333906,"lng":140.868959,"zip":"9813132"},{"town":"館四丁目","koaza":"","lat":38.323011,"lng":140.80047,"zip":"9813214"},{"town":"泉中央一丁目","koaza":"","lat":38.322909,"lng":140.878395,"zip":"9813133"},{"town":"紫山五丁目","koaza":"","lat":38.352147,"lng":140.823571,"zip":"9813205"},{"town":"南中山一丁目","koaza":"","lat":38.301207,"lng":140.828782,"zip":"9813213"},{"town":"加茂二丁目","koaza":"","lat":38.315741,"lng":140.858912,"zip":"9813122"},{"town":"明通二丁目","koaza":"","lat":38.355266,"lng":140.845676,"zip":"9813206"},{"town":"紫山一丁目","koaza":"","lat":38.348626,"lng":140.8317,"zip":"9813205"},{"town":"鶴が丘一丁目","koaza":"","lat":38.319299,"lng":140.925947,"zip":"9813109"},{"town":"寺岡二丁目","koaza":"","lat":38.337175,"lng":140.830352,"zip":"9813204"},{"town":"明通三丁目","koaza":"","lat":38.356839,"lng":140.855018,"zip":"9813206"},{"town":"古内","koaza":"","lat":38.321675,"lng":140.84526,"zip":"9813123"},{"town":"上谷刈","koaza":"","lat":38.307891,"lng":140.861564,"zip":"9813121"},{"town":"明通一丁目","koaza":"","lat":38.348134,"lng":140.851592,"zip":"9813206"},{"town":"小角","koaza":"","lat":38.329477,"lng":140.808085,"zip":"9813216"},{"town":"市名坂","koaza":"","lat":38.321917,"lng":140.889669,"zip":"9813117"},{"town":"七北田","koaza":"","lat":38.340435,"lng":140.883268,"zip":"9813131"},{"town":"野村","koaza":"","lat":38.328211,"lng":140.858489,"zip":"9813124"},{"town":"松森","koaza":"","lat":38.308972,"lng":140.913339,"zip":"9813111"},{"town":"実沢","koaza":"","lat":38.325438,"lng":140.81962,"zip":"9813217"},{"town":"根白石","koaza":"","lat":38.355474,"lng":140.811877,"zip":"9813221"},{"town":"西田中","koaza":"","lat":38.334369,"lng":140.759954,"zip":"9813224"},{"town":"朴沢","koaza":"","lat":38.391838,"lng":140.785614,"zip":"9813226"},{"town":"福岡","koaza":"","lat":38.388372,"lng":140.733106,"zip":"9813225"},{"town":"西中山一丁目","koaza":"","lat":38.30887,"lng":140.806013,"zip":"9813218"},{"town":"西中山二丁目","koaza":"","lat":38.30489,"lng":140.806491,"zip":"9813218"},{"town":"西田中","koaza":"上山下","lat":38.333751,"lng":140.779745,"zip":"9813224"},{"town":"西田中","koaza":"根添","lat":38.324792,"lng":140.7886,"zip":"9813224"},{"town":"西田中","koaza":"並木南","lat":38.324608,"lng":140.790109,"zip":"9813224"},{"town":"西田中","koaza":"並木","lat":38.325663,"lng":140.789408,"zip":"9813224"},{"town":"西田中","koaza":"加賀屋敷","lat":38.322881,"lng":140.789937,"zip":"9813224"},{"town":"西田中","koaza":"萩坂前上","lat":38.334827,"lng":140.789163,"zip":"9813224"},{"town":"西田中","koaza":"北屋敷","lat":38.32607,"lng":140.790689,"zip":"9813224"},{"town":"西田中","koaza":"萱場東","lat":38.3248,"lng":140.79223,"zip":"9813224"},{"town":"西田中","koaza":"萱場","lat":38.3248,"lng":140.791769,"zip":"9813224"},{"town":"西田中","koaza":"松下","lat":38.326745,"lng":140.792838,"zip":"9813224"},{"town":"実沢","koaza":"細椚天皇","lat":38.325946,"lng":140.795083,"zip":"9813217"},{"town":"西田中","koaza":"露払屋敷","lat":38.332301,"lng":140.793759,"zip":"9813224"},{"town":"小角","koaza":"大満寺","lat":38.329414,"lng":140.798049,"zip":"9813216"},{"town":"西田中","koaza":"露払南","lat":38.331924,"lng":140.795955,"zip":"9813224"},{"town":"小角","koaza":"日陰","lat":38.330727,"lng":140.797614,"zip":"9813216"},{"town":"実沢","koaza":"細椚中谷地下","lat":38.326906,"lng":140.796998,"zip":"9813217"},{"town":"実沢","koaza":"細椚西","lat":38.327317,"lng":140.798094,"zip":"9813217"},{"town":"小角","koaza":"杉下","lat":38.328881,"lng":140.79877,"zip":"9813216"},{"town":"実沢","koaza":"細椚前屋敷","lat":38.325776,"lng":140.799065,"zip":"9813217"},{"town":"実沢","koaza":"細椚後屋敷","lat":38.326413,"lng":140.79923,"zip":"9813217"},{"town":"実沢","koaza":"細椚前","lat":38.326231,"lng":140.799855,"zip":"9813217"},{"town":"小角","koaza":"白山","lat":38.328822,"lng":140.800468,"zip":"9813216"},{"town":"実沢","koaza":"八乙女出戸","lat":38.309762,"lng":140.803408,"zip":"9813217"},{"town":"実沢","koaza":"細椚向芦沢","lat":38.325511,"lng":140.801521,"zip":"9813217"},{"town":"実沢","koaza":"釜ケ沢山","lat":38.312414,"lng":140.80213,"zip":"9813217"},{"town":"実沢","koaza":"関場屋敷","lat":38.314986,"lng":140.803337,"zip":"9813217"},{"town":"実沢","koaza":"入八乙女滝下","lat":38.308068,"lng":140.803844,"zip":"9813217"},{"town":"実沢","koaza":"釜ケ沢前沢","lat":38.313483,"lng":140.802244,"zip":"9813217"},{"town":"小角","koaza":"原前","lat":38.327356,"lng":140.802981,"zip":"9813216"},{"town":"小角","koaza":"芦沢","lat":38.325733,"lng":140.802548,"zip":"9813216"},{"town":"実沢","koaza":"八乙女屋敷","lat":38.308553,"lng":140.802634,"zip":"9813217"},{"town":"根白石","koaza":"年川屋敷","lat":38.339461,"lng":140.803622,"zip":"9813221"},{"town":"実沢","koaza":"居久根山","lat":38.313257,"lng":140.803038,"zip":"9813217"},{"town":"根白石","koaza":"東鹿野","lat":38.347643,"lng":140.805645,"zip":"9813221"},{"town":"小角","koaza":"窪西","lat":38.328626,"lng":140.804298,"zip":"9813216"},{"town":"根白石","koaza":"姥懐前","lat":38.343985,"lng":140.803918,"zip":"9813221"},{"town":"実沢","koaza":"八乙女下屋敷一番","lat":38.312391,"lng":140.804237,"zip":"9813217"},{"town":"実沢","koaza":"新松山","lat":38.316715,"lng":140.804186,"zip":"9813217"},{"town":"実沢","koaza":"橘川屋敷","lat":38.318085,"lng":140.805856,"zip":"9813217"},{"town":"小角","koaza":"窪上","lat":38.327554,"lng":140.804923,"zip":"9813216"},{"town":"根白石","koaza":"姥懐前下","lat":38.34091,"lng":140.805899,"zip":"9813221"},{"town":"実沢","koaza":"小豆嶋屋敷","lat":38.326926,"lng":140.807217,"zip":"9813217"},{"town":"根白石","koaza":"福沢館下","lat":38.329381,"lng":140.805407,"zip":"9813221"},{"town":"小角","koaza":"窪東","lat":38.329005,"lng":140.806536,"zip":"9813216"},{"town":"根白石","koaza":"養賢堂","lat":38.339372,"lng":140.806388,"zip":"9813221"},{"town":"実沢","koaza":"館西谷地","lat":38.318998,"lng":140.808265,"zip":"9813217"},{"town":"根白石","koaza":"判在家向河原","lat":38.334621,"lng":140.80584,"zip":"9813221"},{"town":"実沢","koaza":"番堂山","lat":38.323471,"lng":140.80646,"zip":"9813217"},{"town":"小角","koaza":"白藤","lat":38.33503,"lng":140.806481,"zip":"9813216"},{"town":"実沢","koaza":"小川淵","lat":38.324326,"lng":140.806811,"zip":"9813217"},{"town":"実沢","koaza":"搦目","lat":38.322247,"lng":140.809551,"zip":"9813217"},{"town":"実沢","koaza":"段ノ原","lat":38.316727,"lng":140.8061,"zip":"9813217"},{"town":"根白石","koaza":"上田","lat":38.338681,"lng":140.806506,"zip":"9813221"},{"town":"小角","koaza":"館前","lat":38.327966,"lng":140.806557,"zip":"9813216"},{"town":"実沢","koaza":"館後","lat":38.319436,"lng":140.807157,"zip":"9813217"},{"town":"小角","koaza":"蓬田","lat":38.331334,"lng":140.808324,"zip":"9813216"},{"town":"根白石","koaza":"八反田東","lat":38.340949,"lng":140.808223,"zip":"9813221"},{"town":"実沢","koaza":"広畑","lat":38.327642,"lng":140.809011,"zip":"9813217"},{"town":"小角","koaza":"明神下","lat":38.333706,"lng":140.807434,"zip":"9813216"},{"town":"小角","koaza":"館","lat":38.329196,"lng":140.808478,"zip":"9813216"},{"town":"根白石","koaza":"八反田西","lat":38.338869,"lng":140.807638,"zip":"9813221"},{"town":"実沢","koaza":"館沢","lat":38.317536,"lng":140.807898,"zip":"9813217"},{"town":"実沢","koaza":"館屋敷","lat":38.319553,"lng":140.808205,"zip":"9813217"},{"town":"小角","koaza":"明神","lat":38.332187,"lng":140.808669,"zip":"9813216"},{"town":"根白石","koaza":"六軒小路","lat":38.337209,"lng":140.808723,"zip":"9813221"},{"town":"小角","koaza":"上在家","lat":38.334167,"lng":140.808715,"zip":"9813216"},{"town":"根白石","koaza":"新田南","lat":38.337919,"lng":140.808056,"zip":"9813221"},{"town":"実沢","koaza":"小豆嶋五百刈","lat":38.324456,"lng":140.808288,"zip":"9813217"},{"town":"実沢","koaza":"小豆嶋岩下","lat":38.32485,"lng":140.809355,"zip":"9813217"},{"town":"実沢","koaza":"畑中","lat":38.326443,"lng":140.808573,"zip":"9813217"},{"town":"実沢","koaza":"男生山","lat":38.309697,"lng":140.808427,"zip":"9813217"},{"town":"小角","koaza":"上在家前","lat":38.332994,"lng":140.810562,"zip":"9813216"},{"town":"根白石","koaza":"新田","lat":38.34004,"lng":140.810528,"zip":"9813221"},{"town":"実沢","koaza":"小豆嶋前","lat":38.325839,"lng":140.808345,"zip":"9813217"},{"town":"実沢","koaza":"飛観音","lat":38.321226,"lng":140.809676,"zip":"9813217"},{"town":"根白石","koaza":"行木沢","lat":38.338512,"lng":140.811957,"zip":"9813221"},{"town":"根白石","koaza":"銅谷屋敷","lat":38.355191,"lng":140.812205,"zip":"9813221"},{"town":"実沢","koaza":"餅田","lat":38.318489,"lng":140.810036,"zip":"9813217"},{"town":"根白石","koaza":"蒲沢","lat":38.338656,"lng":140.809799,"zip":"9813221"},{"town":"実沢","koaza":"道祖神","lat":38.320905,"lng":140.811607,"zip":"9813217"},{"town":"小角","koaza":"明神前","lat":38.330611,"lng":140.810114,"zip":"9813216"},{"town":"根白石","koaza":"蒲沢東","lat":38.338131,"lng":140.810164,"zip":"9813221"},{"town":"小角","koaza":"小丸山","lat":38.336198,"lng":140.813656,"zip":"9813216"},{"town":"小角","koaza":"上ノ山","lat":38.336866,"lng":140.811258,"zip":"9813216"},{"town":"実沢","koaza":"鼻毛","lat":38.327517,"lng":140.810658,"zip":"9813217"},{"town":"実沢","koaza":"樋渡","lat":38.323885,"lng":140.810561,"zip":"9813217"},{"town":"根白石","koaza":"青笹山","lat":38.348608,"lng":140.813217,"zip":"9813221"},{"town":"実沢","koaza":"二ノ関屋敷","lat":38.324633,"lng":140.811943,"zip":"9813217"},{"town":"実沢","koaza":"釜淵","lat":38.325832,"lng":140.812614,"zip":"9813217"},{"town":"小角","koaza":"鹿","lat":38.332915,"lng":140.812597,"zip":"9813216"},{"town":"小角","koaza":"今宮","lat":38.332207,"lng":140.811236,"zip":"9813216"},{"town":"実沢","koaza":"新坂沢","lat":38.328208,"lng":140.813815,"zip":"9813217"},{"town":"実沢","koaza":"早坂下","lat":38.320725,"lng":140.813284,"zip":"9813217"},{"town":"小角","koaza":"地蔵坂","lat":38.334814,"lng":140.814113,"zip":"9813216"},{"town":"実沢","koaza":"六堂屋敷","lat":38.320988,"lng":140.824551,"zip":"9813217"},{"town":"根白石","koaza":"行木沢東","lat":38.341233,"lng":140.818439,"zip":"9813221"},{"town":"実沢","koaza":"中山北","lat":38.304002,"lng":140.815238,"zip":"9813217"},{"town":"小角","koaza":"中崎","lat":38.329931,"lng":140.81708,"zip":"9813216"},{"town":"実沢","koaza":"赤竹下","lat":38.327776,"lng":140.815391,"zip":"9813217"},{"town":"実沢","koaza":"林泉寺下","lat":38.324086,"lng":140.814804,"zip":"9813217"},{"town":"小角","koaza":"山田","lat":38.332295,"lng":140.814283,"zip":"9813216"},{"town":"実沢","koaza":"広瀬","lat":38.32293,"lng":140.814245,"zip":"9813217"},{"town":"実沢","koaza":"新坂沢下","lat":38.326458,"lng":140.814445,"zip":"9813217"},{"town":"実沢","koaza":"広瀬川橋向","lat":38.322532,"lng":140.814781,"zip":"9813217"},{"town":"小角","koaza":"中原","lat":38.332628,"lng":140.815366,"zip":"9813216"},{"town":"実沢","koaza":"二ノ関橋本","lat":38.320037,"lng":140.814798,"zip":"9813217"},{"town":"小角","koaza":"東屋敷","lat":38.333889,"lng":140.817215,"zip":"9813216"},{"town":"小角","koaza":"惣膳原","lat":38.336521,"lng":140.815105,"zip":"9813216"},{"town":"実沢","koaza":"寺内","lat":38.325192,"lng":140.815692,"zip":"9813217"},{"town":"小角","koaza":"寅堤","lat":38.335303,"lng":140.816214,"zip":"9813216"},{"town":"実沢","koaza":"山旧下河原","lat":38.322018,"lng":140.815823,"zip":"9813217"},{"town":"実沢","koaza":"上","lat":38.32518,"lng":140.817121,"zip":"9813217"},{"town":"小角","koaza":"松ノ木田","lat":38.331347,"lng":140.816591,"zip":"9813216"},{"town":"小角","koaza":"東原","lat":38.334103,"lng":140.817716,"zip":"9813216"},{"town":"小角","koaza":"上原","lat":38.334882,"lng":140.816497,"zip":"9813216"},{"town":"実沢","koaza":"十文字","lat":38.32845,"lng":140.81853,"zip":"9813217"},{"town":"実沢","koaza":"丸子淵","lat":38.322577,"lng":140.817428,"zip":"9813217"},{"town":"実沢","koaza":"清水田中","lat":38.336097,"lng":140.818962,"zip":"9813217"},{"town":"小角","koaza":"前原","lat":38.332568,"lng":140.817819,"zip":"9813216"},{"town":"実沢","koaza":"宮西","lat":38.322896,"lng":140.818365,"zip":"9813217"},{"town":"実沢","koaza":"門前古屋敷","lat":38.324023,"lng":140.819087,"zip":"9813217"},{"town":"実沢","koaza":"桜田前","lat":38.336875,"lng":140.822943,"zip":"9813217"},{"town":"実沢","koaza":"飛鳥原","lat":38.330394,"lng":140.821568,"zip":"9813217"},{"town":"実沢","koaza":"清水田松原","lat":38.333151,"lng":140.819301,"zip":"9813217"},{"town":"実沢","koaza":"後山上","lat":38.326644,"lng":140.819387,"zip":"9813217"},{"town":"実沢","koaza":"西後山","lat":38.325756,"lng":140.819452,"zip":"9813217"},{"town":"実沢","koaza":"後山屋敷","lat":38.324888,"lng":140.819652,"zip":"9813217"},{"town":"実沢","koaza":"清水田屋敷","lat":38.335396,"lng":140.819902,"zip":"9813217"},{"town":"実沢","koaza":"清水田前下","lat":38.335277,"lng":140.821216,"zip":"9813217"},{"town":"実沢","koaza":"宮下屋敷","lat":38.324035,"lng":140.820097,"zip":"9813217"},{"town":"実沢","koaza":"一本橋","lat":38.327851,"lng":140.822009,"zip":"9813217"},{"town":"実沢","koaza":"清水田","lat":38.336105,"lng":140.819785,"zip":"9813217"},{"town":"根白石","koaza":"堂所屋敷","lat":38.366169,"lng":140.820989,"zip":"9813221"},{"town":"実沢","koaza":"中谷地前","lat":38.32895,"lng":140.820082,"zip":"9813217"},{"town":"実沢","koaza":"松原南","lat":38.332225,"lng":140.821024,"zip":"9813217"},{"town":"実沢","koaza":"沢目下","lat":38.3314,"lng":140.821838,"zip":"9813217"},{"town":"実沢","koaza":"桐ケ崎屋敷","lat":38.337365,"lng":140.821838,"zip":"9813217"},{"town":"実沢","koaza":"清吾","lat":38.329503,"lng":140.821614,"zip":"9813217"},{"town":"実沢","koaza":"熊野山上","lat":38.327122,"lng":140.82098,"zip":"9813217"},{"town":"実沢","koaza":"熊野山","lat":38.324507,"lng":140.821659,"zip":"9813217"},{"town":"実沢","koaza":"丸子淵下","lat":38.321876,"lng":140.8224,"zip":"9813217"},{"town":"実沢","koaza":"上林","lat":38.325933,"lng":140.822847,"zip":"9813217"},{"town":"実沢","koaza":"蒜屋敷前","lat":38.323224,"lng":140.823164,"zip":"9813217"},{"town":"実沢","koaza":"中山南","lat":38.301134,"lng":140.824842,"zip":"9813217"},{"town":"実沢","koaza":"山旧淵下","lat":38.32243,"lng":140.823207,"zip":"9813217"},{"town":"実沢","koaza":"馬場屋敷","lat":38.332466,"lng":140.82284,"zip":"9813217"},{"town":"実沢","koaza":"蒜屋敷","lat":38.324312,"lng":140.823296,"zip":"9813217"},{"town":"実沢","koaza":"行屋","lat":38.330064,"lng":140.824321,"zip":"9813217"},{"town":"実沢","koaza":"中","lat":38.327907,"lng":140.823514,"zip":"9813217"},{"town":"実沢","koaza":"涌上り道合","lat":38.335365,"lng":140.824888,"zip":"9813217"},{"town":"実沢","koaza":"涌上り上","lat":38.334868,"lng":140.824979,"zip":"9813217"},{"town":"実沢","koaza":"涌上り前南","lat":38.333713,"lng":140.825663,"zip":"9813217"},{"town":"実沢","koaza":"涌上り向田","lat":38.332099,"lng":140.824894,"zip":"9813217"},{"town":"実沢","koaza":"上ノ台","lat":38.331391,"lng":140.827953,"zip":"9813217"},{"town":"実沢","koaza":"畑田","lat":38.326057,"lng":140.824924,"zip":"9813217"},{"town":"実沢","koaza":"宮東","lat":38.323564,"lng":140.824494,"zip":"9813217"},{"town":"実沢","koaza":"猪沢鹿","lat":38.324615,"lng":140.825498,"zip":"9813217"},{"town":"実沢","koaza":"金屋敷","lat":38.325613,"lng":140.826725,"zip":"9813217"},{"town":"実沢","koaza":"曽利子下河原","lat":38.322979,"lng":140.827673,"zip":"9813217"},{"town":"実沢","koaza":"原田下","lat":38.326695,"lng":140.826599,"zip":"9813217"},{"town":"実沢","koaza":"去田孫八","lat":38.325187,"lng":140.828992,"zip":"9813217"},{"town":"実沢","koaza":"涌上り屋敷","lat":38.334181,"lng":140.828529,"zip":"9813217"},{"town":"実沢","koaza":"八沢","lat":38.328332,"lng":140.827311,"zip":"9813217"},{"town":"実沢","koaza":"曽利子下","lat":38.321805,"lng":140.829075,"zip":"9813217"},{"town":"実沢","koaza":"下原東屋敷","lat":38.326653,"lng":140.829046,"zip":"9813217"},{"town":"実沢","koaza":"細野","lat":38.328575,"lng":140.829372,"zip":"9813217"},{"town":"実沢","koaza":"半田原西","lat":38.33205,"lng":140.830933,"zip":"9813217"},{"town":"実沢","koaza":"向田","lat":38.333147,"lng":140.828903,"zip":"9813217"},{"town":"実沢","koaza":"玉手","lat":38.332914,"lng":140.829611,"zip":"9813217"},{"town":"実沢","koaza":"細野下","lat":38.32944,"lng":140.831281,"zip":"9813217"},{"town":"実沢","koaza":"半田原東","lat":38.331436,"lng":140.83249,"zip":"9813217"},{"town":"実沢","koaza":"細野東","lat":38.328477,"lng":140.83139,"zip":"9813217"},{"town":"実沢","koaza":"去田沢目山","lat":38.327796,"lng":140.832408,"zip":"9813217"},{"town":"実沢","koaza":"本屋敷","lat":38.326377,"lng":140.833693,"zip":"9813217"},{"town":"実沢","koaza":"立田新屋敷","lat":38.333488,"lng":140.832838,"zip":"9813217"},{"town":"実沢","koaza":"去田屋敷","lat":38.324636,"lng":140.832525,"zip":"9813217"},{"town":"実沢","koaza":"森子田","lat":38.32949,"lng":140.834284,"zip":"9813217"},{"town":"実沢","koaza":"高城","lat":38.33231,"lng":140.834724,"zip":"9813217"},{"town":"実沢","koaza":"去田下無串","lat":38.324416,"lng":140.834823,"zip":"9813217"},{"town":"実沢","koaza":"伝城下","lat":38.334146,"lng":140.834525,"zip":"9813217"},{"town":"実沢","koaza":"無串後","lat":38.327245,"lng":140.834594,"zip":"9813217"},{"town":"上谷刈","koaza":"去田前","lat":38.322758,"lng":140.836664,"zip":"9813121"},{"town":"実沢","koaza":"明神","lat":38.327486,"lng":140.83541,"zip":"9813217"},{"town":"実沢","koaza":"八沢橋本","lat":38.328509,"lng":140.835731,"zip":"9813217"},{"town":"実沢","koaza":"荒神","lat":38.32664,"lng":140.842124,"zip":"9813217"},{"town":"実沢","koaza":"立田","lat":38.32843,"lng":140.835224,"zip":"9813217"},{"town":"実沢","koaza":"伝城上","lat":38.334212,"lng":140.836611,"zip":"9813217"},{"town":"上谷刈","koaza":"館","lat":38.320628,"lng":140.836982,"zip":"9813121"},{"town":"実沢","koaza":"立田銘","lat":38.332184,"lng":140.836745,"zip":"9813217"},{"town":"実沢","koaza":"無串河原","lat":38.324265,"lng":140.83666,"zip":"9813217"},{"town":"上谷刈","koaza":"宮林前","lat":38.32987,"lng":140.837719,"zip":"9813121"},{"town":"上谷刈","koaza":"八木沢","lat":38.325738,"lng":140.83835,"zip":"9813121"},{"town":"実沢","koaza":"立田屋敷","lat":38.333349,"lng":140.839473,"zip":"9813217"},{"town":"古内","koaza":"入山田","lat":38.320331,"lng":140.840647,"zip":"9813123"},{"town":"実沢","koaza":"勘太山","lat":38.334676,"lng":140.838388,"zip":"9813217"},{"town":"上谷刈","koaza":"上ノ山","lat":38.320995,"lng":140.839292,"zip":"9813121"},{"town":"上谷刈","koaza":"宮林後","lat":38.329043,"lng":140.83911,"zip":"9813121"},{"town":"上谷刈","koaza":"舞台","lat":38.329723,"lng":140.841726,"zip":"9813121"},{"town":"上谷刈","koaza":"大立目屋敷","lat":38.331365,"lng":140.840122,"zip":"9813121"},{"town":"実沢","koaza":"石保","lat":38.333784,"lng":140.841313,"zip":"9813217"},{"town":"上谷刈","koaza":"関ノ上","lat":38.322562,"lng":140.841812,"zip":"9813121"},{"town":"実沢","koaza":"菅野屋敷","lat":38.334733,"lng":140.841649,"zip":"9813217"},{"town":"古内","koaza":"南","lat":38.32359,"lng":140.841975,"zip":"9813123"},{"town":"古内","koaza":"北","lat":38.324935,"lng":140.844469,"zip":"9813123"},{"town":"古内","koaza":"矢崎","lat":38.327494,"lng":140.844303,"zip":"9813123"},{"town":"上谷刈","koaza":"下鶴巻","lat":38.330548,"lng":140.841992,"zip":"9813121"},{"town":"古内","koaza":"新坂の上","lat":38.319988,"lng":140.843977,"zip":"9813123"},{"town":"古内","koaza":"坂ノ上","lat":38.319389,"lng":140.8427,"zip":"9813123"},{"town":"上谷刈","koaza":"下入山田","lat":38.321778,"lng":140.842448,"zip":"9813121"},{"town":"上谷刈","koaza":"松林","lat":38.332405,"lng":140.843795,"zip":"9813121"},{"town":"古内","koaza":"古内","lat":38.324733,"lng":140.845723,"zip":"9813123"},{"town":"古内","koaza":"坂下","lat":38.320258,"lng":140.844899,"zip":"9813123"},{"town":"古内","koaza":"高森","lat":38.31832,"lng":140.844192,"zip":"9813123"},{"town":"古内","koaza":"野合","lat":38.322699,"lng":140.84583,"zip":"9813123"},{"town":"古内","koaza":"畑沢","lat":38.32013,"lng":140.845454,"zip":"9813123"},{"town":"古内","koaza":"仁渡","lat":38.326045,"lng":140.846533,"zip":"9813123"},{"town":"野村","koaza":"大涛","lat":38.328298,"lng":140.847001,"zip":"9813124"},{"town":"古内","koaza":"新仁渡","lat":38.325529,"lng":140.845234,"zip":"9813123"},{"town":"古内","koaza":"堀田上","lat":38.323429,"lng":140.847644,"zip":"9813123"},{"town":"古内","koaza":"宮下","lat":38.322454,"lng":140.846599,"zip":"9813123"},{"town":"野村","koaza":"内林","lat":38.329604,"lng":140.848647,"zip":"9813124"},{"town":"上谷刈","koaza":"山添","lat":38.311661,"lng":140.849994,"zip":"9813121"},{"town":"上谷刈","koaza":"中沢","lat":38.31109,"lng":140.848991,"zip":"9813121"},{"town":"上谷刈","koaza":"赤坂","lat":38.310949,"lng":140.856114,"zip":"9813121"},{"town":"野村","koaza":"山寺","lat":38.332434,"lng":140.84967,"zip":"9813124"},{"town":"古内","koaza":"糺","lat":38.318779,"lng":140.850139,"zip":"9813123"},{"town":"野村","koaza":"上野前","lat":38.326641,"lng":140.850239,"zip":"9813124"},{"town":"野村","koaza":"源吉","lat":38.331479,"lng":140.851412,"zip":"9813124"},{"town":"野村","koaza":"上野","lat":38.32772,"lng":140.850785,"zip":"9813124"},{"town":"野村","koaza":"上野下","lat":38.326879,"lng":140.851465,"zip":"9813124"},{"town":"野村","koaza":"才兵衛","lat":38.329885,"lng":140.852677,"zip":"9813124"},{"town":"上谷刈","koaza":"羽黒山","lat":38.317993,"lng":140.855597,"zip":"9813121"},{"town":"上谷刈","koaza":"長命","lat":38.319343,"lng":140.854739,"zip":"9813121"},{"town":"野村","koaza":"松林下","lat":38.326558,"lng":140.852788,"zip":"9813124"},{"town":"野村","koaza":"上野前中","lat":38.324761,"lng":140.853022,"zip":"9813124"},{"town":"野村","koaza":"上台","lat":38.330944,"lng":140.853783,"zip":"9813124"},{"town":"野村","koaza":"沢ノ口","lat":38.326368,"lng":140.854583,"zip":"9813124"},{"town":"野村","koaza":"作蔵","lat":38.329975,"lng":140.855531,"zip":"9813124"},{"town":"上谷刈","koaza":"北河原","lat":38.322388,"lng":140.857298,"zip":"9813121"},{"town":"上谷刈","koaza":"三平東","lat":38.319067,"lng":140.856413,"zip":"9813121"},{"town":"野村","koaza":"新林田","lat":38.328161,"lng":140.857097,"zip":"9813124"},{"town":"野村","koaza":"愛宕","lat":38.331169,"lng":140.860876,"zip":"9813124"},{"town":"野村","koaza":"仁平","lat":38.3307,"lng":140.858651,"zip":"9813124"},{"town":"野村","koaza":"小菅西","lat":38.332236,"lng":140.859426,"zip":"9813124"},{"town":"上谷刈","koaza":"熊ノ林","lat":38.322834,"lng":140.862836,"zip":"9813121"},{"town":"野村","koaza":"新桂島前","lat":38.328804,"lng":140.861524,"zip":"9813124"},{"town":"野村","koaza":"丸山","lat":38.328872,"lng":140.859591,"zip":"9813124"},{"town":"野村","koaza":"東原前","lat":38.325492,"lng":140.860601,"zip":"9813124"},{"town":"野村","koaza":"下西河原","lat":38.31901,"lng":140.860687,"zip":"9813124"},{"town":"上谷刈","koaza":"堤下","lat":38.309454,"lng":140.861349,"zip":"9813121"},{"town":"野村","koaza":"小菅東","lat":38.331017,"lng":140.862215,"zip":"9813124"},{"town":"七北田","koaza":"大沢明通","lat":38.358443,"lng":140.86222,"zip":"9813131"},{"town":"野村","koaza":"守","lat":38.326784,"lng":140.862369,"zip":"9813124"},{"town":"野村","koaza":"新堤下","lat":38.330726,"lng":140.863246,"zip":"9813124"},{"town":"野村","koaza":"東原東","lat":38.325916,"lng":140.862263,"zip":"9813124"},{"town":"上谷刈","koaza":"古堤","lat":38.309984,"lng":140.863839,"zip":"9813121"},{"town":"上谷刈","koaza":"丸太","lat":38.309645,"lng":140.866955,"zip":"9813121"},{"town":"野村","koaza":"太斉山","lat":38.326503,"lng":140.864274,"zip":"9813124"},{"town":"野村","koaza":"新平山","lat":38.326078,"lng":140.863078,"zip":"9813124"},{"town":"野村","koaza":"川ノ上","lat":38.319808,"lng":140.863701,"zip":"9813124"},{"town":"野村","koaza":"東河原","lat":38.320758,"lng":140.866599,"zip":"9813124"},{"town":"七北田","koaza":"大沢上前","lat":38.346997,"lng":140.865503,"zip":"9813131"},{"town":"野村","koaza":"桂島","lat":38.330417,"lng":140.863852,"zip":"9813124"},{"town":"野村","koaza":"石保","lat":38.323156,"lng":140.865499,"zip":"9813124"},{"town":"野村","koaza":"新桂島","lat":38.331032,"lng":140.864255,"zip":"9813124"},{"town":"野村","koaza":"新馬場屋敷","lat":38.328023,"lng":140.865324,"zip":"9813124"},{"town":"七北田","koaza":"大沢鳥谷ケ沢","lat":38.350286,"lng":140.866472,"zip":"9813131"},{"town":"野村","koaza":"馬場屋敷","lat":38.325969,"lng":140.865587,"zip":"9813124"},{"town":"七北田","koaza":"大沢小松","lat":38.35334,"lng":140.866382,"zip":"9813131"},{"town":"七北田","koaza":"菅間","lat":38.328629,"lng":140.868311,"zip":"9813131"},{"town":"野村","koaza":"桂島東","lat":38.328422,"lng":140.866914,"zip":"9813124"},{"town":"野村","koaza":"菅間前","lat":38.327235,"lng":140.868359,"zip":"9813124"},{"town":"七北田","koaza":"大沢相ノ沢","lat":38.350935,"lng":140.869128,"zip":"9813131"},{"town":"上谷刈","koaza":"治郎兵衛下","lat":38.311225,"lng":140.868306,"zip":"9813121"},{"town":"野村","koaza":"本七北田","lat":38.3246,"lng":140.867679,"zip":"9813124"},{"town":"七北田","koaza":"大沢中才","lat":38.349043,"lng":140.868973,"zip":"9813131"},{"town":"野村","koaza":"一本杉","lat":38.325153,"lng":140.869677,"zip":"9813124"},{"town":"七北田","koaza":"大沢向原","lat":38.34782,"lng":140.872416,"zip":"9813131"},{"town":"七北田","koaza":"古内","lat":38.325033,"lng":140.873202,"zip":"9813131"},{"town":"上谷刈","koaza":"沼","lat":38.319115,"lng":140.873088,"zip":"9813121"},{"town":"野村","koaza":"東村境","lat":38.326648,"lng":140.869371,"zip":"9813124"},{"town":"上谷刈","koaza":"橋元","lat":38.308812,"lng":140.870456,"zip":"9813121"},{"town":"七北田","koaza":"道","lat":38.328092,"lng":140.87149,"zip":"9813131"},{"town":"七北田","koaza":"駕籠沢","lat":38.329377,"lng":140.874043,"zip":"9813131"},{"town":"上谷刈","koaza":"小堤","lat":38.309065,"lng":140.874874,"zip":"9813121"},{"town":"七北田","koaza":"大沢木戸","lat":38.347822,"lng":140.875691,"zip":"9813131"},{"town":"上谷刈","koaza":"沼下","lat":38.318815,"lng":140.874316,"zip":"9813121"},{"town":"七北田","koaza":"日野","lat":38.328538,"lng":140.87464,"zip":"9813131"},{"town":"七北田","koaza":"朴木沢","lat":38.324909,"lng":140.876463,"zip":"9813131"},{"town":"上谷刈","koaza":"向原","lat":38.310117,"lng":140.878391,"zip":"9813121"},{"town":"七北田","koaza":"赤生津","lat":38.319071,"lng":140.878347,"zip":"9813131"},{"town":"七北田","koaza":"杉ノ田","lat":38.311339,"lng":140.88119,"zip":"9813131"},{"town":"七北田","koaza":"大沢境","lat":38.342218,"lng":140.881813,"zip":"9813131"},{"town":"七北田","koaza":"柳","lat":38.319133,"lng":140.881713,"zip":"9813131"},{"town":"七北田","koaza":"笹","lat":38.341253,"lng":140.883128,"zip":"9813131"},{"town":"七北田","koaza":"新田","lat":38.339743,"lng":140.884046,"zip":"9813131"},{"town":"市名坂","koaza":"善正寺","lat":38.317888,"lng":140.885209,"zip":"9813117"},{"town":"市名坂","koaza":"西裏","lat":38.318804,"lng":140.886058,"zip":"9813117"},{"town":"市名坂","koaza":"町","lat":38.319886,"lng":140.888666,"zip":"9813117"},{"town":"七北田","koaza":"新道","lat":38.334764,"lng":140.888044,"zip":"9813131"},{"town":"市名坂","koaza":"石止","lat":38.317191,"lng":140.888596,"zip":"9813117"},{"town":"七北田","koaza":"白水沢","lat":38.329746,"lng":140.890184,"zip":"9813131"},{"town":"七北田","koaza":"町","lat":38.32613,"lng":140.88957,"zip":"9813131"},{"town":"市名坂","koaza":"東裏","lat":38.320399,"lng":140.890631,"zip":"9813117"},{"town":"七北田","koaza":"山ノ寺","lat":38.332877,"lng":140.890317,"zip":"9813131"},{"town":"七北田","koaza":"東裏","lat":38.324731,"lng":140.892364,"zip":"9813131"},{"town":"市名坂","koaza":"高玉","lat":38.31789,"lng":140.890894,"zip":"9813117"},{"town":"市名坂","koaza":"明神","lat":38.317041,"lng":140.89092,"zip":"9813117"},{"town":"市名坂","koaza":"万吉前","lat":38.319873,"lng":140.892296,"zip":"9813117"},{"town":"市名坂","koaza":"新門前","lat":38.331201,"lng":140.891153,"zip":"9813117"},{"town":"市名坂","koaza":"高玉川原","lat":38.314625,"lng":140.891038,"zip":"9813117"},{"town":"七北田","koaza":"八乙女","lat":38.308251,"lng":140.892307,"zip":"9813131"},{"town":"市名坂","koaza":"新道","lat":38.327535,"lng":140.892391,"zip":"9813117"},{"town":"市名坂","koaza":"鳥井原","lat":38.325208,"lng":140.893672,"zip":"9813117"},{"town":"市名坂","koaza":"堂林","lat":38.320233,"lng":140.893917,"zip":"9813117"},{"town":"松森","koaza":"不動","lat":38.307358,"lng":140.894836,"zip":"9813111"},{"town":"七北田","koaza":"田中","lat":38.308208,"lng":140.89423,"zip":"9813131"},{"town":"市名坂","koaza":"実相寺","lat":38.322943,"lng":140.893783,"zip":"9813117"},{"town":"市名坂","koaza":"本屋敷","lat":38.321778,"lng":140.894061,"zip":"9813117"},{"town":"市名坂","koaza":"寺下","lat":38.322646,"lng":140.895494,"zip":"9813117"},{"town":"市名坂","koaza":"小柳","lat":38.319348,"lng":140.896178,"zip":"9813117"},{"town":"市名坂","koaza":"南前","lat":38.31874,"lng":140.897612,"zip":"9813117"},{"town":"市名坂","koaza":"黒木川原","lat":38.316113,"lng":140.899119,"zip":"9813117"},{"town":"市名坂","koaza":"野蔵","lat":38.313702,"lng":140.899455,"zip":"9813117"},{"town":"市名坂","koaza":"御釜田","lat":38.31933,"lng":140.899192,"zip":"9813117"},{"town":"市名坂","koaza":"楢町","lat":38.317303,"lng":140.900041,"zip":"9813117"},{"town":"市名坂","koaza":"山岸","lat":38.320064,"lng":140.898944,"zip":"9813117"},{"town":"松森","koaza":"明神","lat":38.304959,"lng":140.902214,"zip":"9813111"},{"town":"松森","koaza":"後田","lat":38.309847,"lng":140.901554,"zip":"9813111"},{"town":"松森","koaza":"中道","lat":38.30796,"lng":140.902978,"zip":"9813111"},{"town":"市名坂","koaza":"原田","lat":38.315227,"lng":140.903488,"zip":"9813117"},{"town":"松森","koaza":"前田","lat":38.306258,"lng":140.903381,"zip":"9813111"},{"town":"松森","koaza":"上河原","lat":38.311013,"lng":140.902844,"zip":"9813111"},{"town":"市名坂","koaza":"高倉","lat":38.313069,"lng":140.906126,"zip":"9813117"},{"town":"松森","koaza":"浦田","lat":38.309723,"lng":140.903455,"zip":"9813111"},{"town":"市名坂","koaza":"鹿島","lat":38.313499,"lng":140.907253,"zip":"9813117"},{"town":"松森","koaza":"中河原","lat":38.310206,"lng":140.903752,"zip":"9813111"},{"town":"市名坂","koaza":"萩清水","lat":38.318024,"lng":140.904008,"zip":"9813117"},{"town":"市名坂","koaza":"柳清水","lat":38.317598,"lng":140.904854,"zip":"9813117"},{"town":"市名坂","koaza":"中道","lat":38.315636,"lng":140.905822,"zip":"9813117"},{"town":"松森","koaza":"新田","lat":38.30314,"lng":140.906671,"zip":"9813111"},{"town":"松森","koaza":"坂下","lat":38.305348,"lng":140.905688,"zip":"9813111"},{"town":"松森","koaza":"刺松","lat":38.307073,"lng":140.905316,"zip":"9813111"},{"town":"松森","koaza":"沢目","lat":38.306041,"lng":140.906759,"zip":"9813111"},{"town":"市名坂","koaza":"清水端","lat":38.317308,"lng":140.907859,"zip":"9813117"},{"town":"市名坂","koaza":"天神沢","lat":38.332955,"lng":140.905875,"zip":"9813117"},{"town":"松森","koaza":"八沢","lat":38.302397,"lng":140.907611,"zip":"9813111"},{"town":"松森","koaza":"館","lat":38.30835,"lng":140.911174,"zip":"9813111"},{"town":"松森","koaza":"陣ケ原","lat":38.30187,"lng":140.910265,"zip":"9813111"},{"town":"松森","koaza":"斉兵衛","lat":38.30432,"lng":140.90957,"zip":"9813111"},{"town":"松森","koaza":"新庄","lat":38.307293,"lng":140.907801,"zip":"9813111"},{"town":"市名坂","koaza":"竹内","lat":38.312444,"lng":140.909224,"zip":"9813117"},{"town":"松森","koaza":"鹿島","lat":38.315681,"lng":140.911237,"zip":"9813111"},{"town":"市名坂","koaza":"高島","lat":38.31424,"lng":140.913085,"zip":"9813117"},{"town":"市名坂","koaza":"本町","lat":38.315904,"lng":140.913346,"zip":"9813117"},{"town":"松森","koaza":"太子堂","lat":38.305522,"lng":140.914222,"zip":"9813111"},{"town":"松森","koaza":"関場","lat":38.303982,"lng":140.9138,"zip":"9813111"},{"town":"松森","koaza":"岡本前","lat":38.313313,"lng":140.912963,"zip":"9813111"},{"town":"松森","koaza":"後沢","lat":38.304753,"lng":140.916862,"zip":"9813111"},{"town":"市名坂","koaza":"砂押","lat":38.314977,"lng":140.914887,"zip":"9813117"},{"town":"松森","koaza":"内町","lat":38.315964,"lng":140.919634,"zip":"9813111"},{"town":"松森","koaza":"前沼","lat":38.31474,"lng":140.91973,"zip":"9813111"},{"town":"松森","koaza":"城前","lat":38.310206,"lng":140.920322,"zip":"9813111"},{"town":"市名坂","koaza":"油田","lat":38.314845,"lng":140.916626,"zip":"9813117"},{"town":"松森","koaza":"阿比古","lat":38.306445,"lng":140.919845,"zip":"9813111"},{"town":"松森","koaza":"長岫","lat":38.304266,"lng":140.918097,"zip":"9813111"},{"town":"松森","koaza":"住吉","lat":38.303797,"lng":140.919885,"zip":"9813111"},{"town":"松森","koaza":"陣ケ前","lat":38.308984,"lng":140.927799,"zip":"9813111"},{"town":"松森","koaza":"鼠堂","lat":38.313905,"lng":140.922416,"zip":"9813111"},{"town":"松森","koaza":"松木沢","lat":38.314398,"lng":140.925418,"zip":"9813111"},{"town":"松森","koaza":"台","lat":38.313598,"lng":140.928103,"zip":"9813111"},{"town":"松森","koaza":"台谷地","lat":38.310643,"lng":140.928296,"zip":"9813111"}]