[{"town":"松岡町","koaza":"","lat":38.274396,"lng":140.914852,"zip":"9830834"},{"town":"西宮城野","koaza":"","lat":38.255533,"lng":140.898074,"zip":"9830046"},{"town":"鶴巻二丁目","koaza":"","lat":38.260171,"lng":140.965332,"zip":"9830024"},{"town":"福田町三丁目","koaza":"","lat":38.263081,"lng":140.962871,"zip":"9830023"},{"town":"福田町南二丁目","koaza":"","lat":38.258348,"lng":140.96416,"zip":"9830025"},{"town":"小鶴三丁目","koaza":"","lat":38.281486,"lng":140.926732,"zip":"9830031"},{"town":"栄一丁目","koaza":"","lat":38.278761,"lng":140.979049,"zip":"9830011"},{"town":"田子西三丁目","koaza":"","lat":38.280517,"lng":140.955838,"zip":"9830026"},{"town":"出花三丁目","koaza":"","lat":38.279489,"lng":140.989461,"zip":"9830012"},{"town":"小鶴二丁目","koaza":"","lat":38.283283,"lng":140.929658,"zip":"9830031"},{"town":"原町六丁目","koaza":"","lat":38.27035,"lng":140.911398,"zip":"9830841"},{"town":"蒲生一丁目","koaza":"","lat":38.26209,"lng":140.993911,"zip":"9830002"},{"town":"清水沼三丁目","koaza":"","lat":38.267427,"lng":140.901812,"zip":"9830845"},{"town":"栄三丁目","koaza":"","lat":38.283014,"lng":140.980018,"zip":"9830011"},{"town":"宮千代三丁目","koaza":"","lat":38.253635,"lng":140.916816,"zip":"9830044"},{"town":"新田東五丁目","koaza":"","lat":38.280499,"lng":140.933538,"zip":"9830039"},{"town":"栄五丁目","koaza":"","lat":38.282715,"lng":140.986902,"zip":"9830011"},{"town":"清水沼二丁目","koaza":"","lat":38.267599,"lng":140.898712,"zip":"9830845"},{"town":"萩野町四丁目","koaza":"","lat":38.259367,"lng":140.914274,"zip":"9830043"},{"town":"燕沢東二丁目","koaza":"","lat":38.287723,"lng":140.93288,"zip":"9830822"},{"town":"鶴ケ谷東一丁目","koaza":"","lat":38.288887,"lng":140.925945,"zip":"9830826"},{"town":"燕沢東一丁目","koaza":"","lat":38.286785,"lng":140.933883,"zip":"9830822"},{"town":"岩切分台一丁目","koaza":"","lat":38.304999,"lng":140.957229,"zip":"9830828"},{"town":"出花二丁目","koaza":"","lat":38.278582,"lng":140.987161,"zip":"9830012"},{"town":"鶴ケ谷北一丁目","koaza":"","lat":38.296863,"lng":140.913304,"zip":"9830825"},{"town":"福田町四丁目","koaza":"","lat":38.263431,"lng":140.961049,"zip":"9830023"},{"town":"原町三丁目","koaza":"","lat":38.267075,"lng":140.908205,"zip":"9830841"},{"town":"小田原三丁目","koaza":"","lat":38.268149,"lng":140.895226,"zip":"9830803"},{"town":"宮千代二丁目","koaza":"","lat":38.253196,"lng":140.913337,"zip":"9830044"},{"town":"幸町一丁目","koaza":"","lat":38.277691,"lng":140.895312,"zip":"9830836"},{"town":"苦竹一丁目","koaza":"","lat":38.268492,"lng":140.916469,"zip":"9830036"},{"town":"原町四丁目","koaza":"","lat":38.268642,"lng":140.904497,"zip":"9830841"},{"town":"鶴ケ谷北二丁目","koaza":"","lat":38.298295,"lng":140.916695,"zip":"9830825"},{"town":"鶴ケ谷東三丁目","koaza":"","lat":38.294038,"lng":140.928243,"zip":"9830826"},{"town":"岩切分台二丁目","koaza":"","lat":38.307517,"lng":140.959595,"zip":"9830828"},{"town":"栄四丁目","koaza":"","lat":38.281632,"lng":140.98373,"zip":"9830011"},{"town":"岩切分台三丁目","koaza":"","lat":38.307807,"lng":140.956651,"zip":"9830828"},{"town":"東宮城野","koaza":"","lat":38.260008,"lng":140.917992,"zip":"9830042"},{"town":"新田東一丁目","koaza":"","lat":38.278696,"lng":140.932959,"zip":"9830039"},{"town":"東仙台三丁目","koaza":"","lat":38.27272,"lng":140.910754,"zip":"9830833"},{"town":"福室七丁目","koaza":"","lat":38.283233,"lng":140.972942,"zip":"9830005"},{"town":"岩切二丁目","koaza":"","lat":38.294275,"lng":140.934478,"zip":"9830821"},{"town":"萩野町二丁目","koaza":"","lat":38.256237,"lng":140.913615,"zip":"9830043"},{"town":"幸町四丁目","koaza":"","lat":38.276549,"lng":140.906081,"zip":"9830836"},{"town":"東仙台七丁目","koaza":"","lat":38.281654,"lng":140.914496,"zip":"9830833"},{"town":"萩野町一丁目","koaza":"","lat":38.25897,"lng":140.911588,"zip":"9830043"},{"town":"東仙台二丁目","koaza":"","lat":38.276591,"lng":140.917338,"zip":"9830833"},{"town":"鶴ケ谷八丁目","koaza":"","lat":38.287957,"lng":140.916889,"zip":"9830824"},{"town":"仙台港北一丁目","koaza":"","lat":38.280715,"lng":140.995833,"zip":"9830007"},{"town":"原町二丁目","koaza":"","lat":38.266318,"lng":140.904192,"zip":"9830841"},{"town":"萩野町三丁目","koaza":"","lat":38.257056,"lng":140.917969,"zip":"9830043"},{"town":"新田五丁目","koaza":"","lat":38.271624,"lng":140.924802,"zip":"9830038"},{"town":"平成一丁目","koaza":"","lat":38.270563,"lng":140.914425,"zip":"9830037"},{"town":"岡田西町","koaza":"","lat":38.254624,"lng":140.959617,"zip":"9830004"},{"town":"自由ケ丘","koaza":"","lat":38.29061,"lng":140.901654,"zip":"9830831"},{"town":"原町五丁目","koaza":"","lat":38.2693,"lng":140.908447,"zip":"9830841"},{"town":"新田東四丁目","koaza":"","lat":38.279695,"lng":140.936517,"zip":"9830039"},{"town":"栄二丁目","koaza":"","lat":38.280906,"lng":140.979011,"zip":"9830011"},{"town":"平成二丁目","koaza":"","lat":38.272053,"lng":140.916864,"zip":"9830037"},{"town":"東仙台五丁目","koaza":"","lat":38.276262,"lng":140.913643,"zip":"9830833"},{"town":"福室二丁目","koaza":"","lat":38.273105,"lng":140.967496,"zip":"9830005"},{"town":"岩切三丁目","koaza":"","lat":38.295751,"lng":140.931929,"zip":"9830821"},{"town":"幸町五丁目","koaza":"","lat":38.273905,"lng":140.903376,"zip":"9830836"},{"town":"新田東二丁目","koaza":"","lat":38.275033,"lng":140.932991,"zip":"9830039"},{"town":"燕沢三丁目","koaza":"","lat":38.285883,"lng":140.923001,"zip":"9830823"},{"town":"出花一丁目","koaza":"","lat":38.277414,"lng":140.984274,"zip":"9830012"},{"town":"鶴ケ谷東四丁目","koaza":"","lat":38.294984,"lng":140.923706,"zip":"9830826"},{"town":"小鶴一丁目","koaza":"","lat":38.284999,"lng":140.928215,"zip":"9830031"},{"town":"五輪二丁目","koaza":"","lat":38.264857,"lng":140.905964,"zip":"9830842"},{"town":"福室四丁目","koaza":"","lat":38.276621,"lng":140.973793,"zip":"9830005"},{"town":"苦竹四丁目","koaza":"","lat":38.263102,"lng":140.92771,"zip":"9830036"},{"town":"燕沢一丁目","koaza":"","lat":38.281227,"lng":140.920485,"zip":"9830823"},{"town":"幸町三丁目","koaza":"","lat":38.276482,"lng":140.901715,"zip":"9830836"},{"town":"枡江","koaza":"","lat":38.280597,"lng":140.905442,"zip":"9830837"},{"town":"宮千代一丁目","koaza":"","lat":38.254645,"lng":140.909246,"zip":"9830044"},{"town":"中野二丁目","koaza":"","lat":38.274795,"lng":140.981503,"zip":"9830013"},{"town":"福田町南一丁目","koaza":"","lat":38.258992,"lng":140.961546,"zip":"9830025"},{"town":"鶴ケ谷三丁目","koaza":"","lat":38.289764,"lng":140.909232,"zip":"9830824"},{"town":"東仙台一丁目","koaza":"","lat":38.278942,"lng":140.921254,"zip":"9830833"},{"town":"苦竹二丁目","koaza":"","lat":38.270441,"lng":140.925349,"zip":"9830036"},{"town":"新田二丁目","koaza":"","lat":38.276031,"lng":140.923127,"zip":"9830038"},{"town":"二の森","koaza":"","lat":38.279671,"lng":140.90029,"zip":"9830838"},{"town":"鶴ケ谷東二丁目","koaza":"","lat":38.291575,"lng":140.928975,"zip":"9830826"},{"town":"福住町","koaza":"","lat":38.273262,"lng":140.953743,"zip":"9830033"},{"town":"鶴ケ谷七丁目","koaza":"","lat":38.287645,"lng":140.920105,"zip":"9830824"},{"town":"福田町一丁目","koaza":"","lat":38.272835,"lng":140.959465,"zip":"9830023"},{"town":"高砂二丁目","koaza":"","lat":38.267997,"lng":140.970369,"zip":"9830014"},{"town":"新田一丁目","koaza":"","lat":38.273841,"lng":140.920334,"zip":"9830038"},{"town":"新田東三丁目","koaza":"","lat":38.274472,"lng":140.936911,"zip":"9830039"},{"town":"扇町六丁目","koaza":"","lat":38.268324,"lng":140.956091,"zip":"9830034"},{"town":"鶴ケ谷二丁目","koaza":"","lat":38.288671,"lng":140.913271,"zip":"9830824"},{"town":"幸町二丁目","koaza":"","lat":38.275411,"lng":140.896035,"zip":"9830836"},{"town":"燕沢東三丁目","koaza":"","lat":38.289353,"lng":140.931439,"zip":"9830822"},{"town":"新田三丁目","koaza":"","lat":38.279128,"lng":140.927747,"zip":"9830038"},{"town":"安養寺一丁目","koaza":"","lat":38.288762,"lng":140.8964,"zip":"9830832"},{"town":"岩切一丁目","koaza":"","lat":38.292783,"lng":140.936555,"zip":"9830821"},{"town":"苦竹三丁目","koaza":"","lat":38.267299,"lng":140.927721,"zip":"9830036"},{"town":"福室一丁目","koaza":"","lat":38.269912,"lng":140.964806,"zip":"9830005"},{"town":"福室六丁目","koaza":"","lat":38.283069,"lng":140.969436,"zip":"9830005"},{"town":"安養寺三丁目","koaza":"","lat":38.283091,"lng":140.908184,"zip":"9830832"},{"town":"東仙台四丁目","koaza":"","lat":38.275861,"lng":140.909893,"zip":"9830833"},{"town":"鶴ケ谷四丁目","koaza":"","lat":38.292787,"lng":140.90844,"zip":"9830824"},{"town":"福室五丁目","koaza":"","lat":38.280267,"lng":140.97242,"zip":"9830005"},{"town":"仙石","koaza":"","lat":38.273123,"lng":140.944765,"zip":"9830032"},{"town":"白鳥二丁目","koaza":"","lat":38.262261,"lng":140.986348,"zip":"9830006"},{"town":"白鳥一丁目","koaza":"","lat":38.264474,"lng":140.977973,"zip":"9830006"},{"town":"宮城野三丁目","koaza":"","lat":38.257619,"lng":140.907462,"zip":"9830045"},{"town":"東仙台六丁目","koaza":"","lat":38.28019,"lng":140.912788,"zip":"9830833"},{"town":"燕沢","koaza":"","lat":38.284775,"lng":140.935519,"zip":"9830823"},{"town":"扇町二丁目","koaza":"","lat":38.267529,"lng":140.942837,"zip":"9830034"},{"town":"銀杏町","koaza":"","lat":38.263998,"lng":140.910328,"zip":"9830047"},{"town":"新田四丁目","koaza":"","lat":38.274659,"lng":140.927626,"zip":"9830038"},{"town":"鶴ケ谷一丁目","koaza":"","lat":38.287411,"lng":140.907048,"zip":"9830824"},{"town":"燕沢二丁目","koaza":"","lat":38.283709,"lng":140.918198,"zip":"9830823"},{"town":"鶴ケ谷五丁目","koaza":"","lat":38.293266,"lng":140.91435,"zip":"9830824"},{"town":"安養寺二丁目","koaza":"","lat":38.286275,"lng":140.902996,"zip":"9830832"},{"town":"中野一丁目","koaza":"","lat":38.272797,"lng":140.97711,"zip":"9830013"},{"town":"日の出町一丁目","koaza":"","lat":38.270593,"lng":140.934671,"zip":"9830035"},{"town":"蟹沢","koaza":"","lat":38.283597,"lng":140.900266,"zip":"9830839"},{"town":"田子三丁目","koaza":"","lat":38.283185,"lng":140.964281,"zip":"9830021"},{"town":"日の出町二丁目","koaza":"","lat":38.267548,"lng":140.934454,"zip":"9830035"},{"town":"扇町五丁目","koaza":"","lat":38.268044,"lng":140.950543,"zip":"9830034"},{"town":"高砂一丁目","koaza":"","lat":38.270858,"lng":140.971362,"zip":"9830014"},{"town":"田子二丁目","koaza":"","lat":38.280497,"lng":140.959731,"zip":"9830021"},{"town":"鶴巻一丁目","koaza":"","lat":38.263714,"lng":140.96765,"zip":"9830024"},{"town":"大梶","koaza":"","lat":38.271403,"lng":140.903265,"zip":"9830835"},{"town":"田子一丁目","koaza":"","lat":38.277503,"lng":140.962803,"zip":"9830021"},{"town":"日の出町三丁目","koaza":"","lat":38.26352,"lng":140.934283,"zip":"9830035"},{"town":"福室三丁目","koaza":"","lat":38.277237,"lng":140.96874,"zip":"9830005"},{"town":"鶴ケ谷六丁目","koaza":"","lat":38.292286,"lng":140.921331,"zip":"9830824"},{"town":"福田町二丁目","koaza":"","lat":38.267972,"lng":140.961839,"zip":"9830023"},{"town":"扇町七丁目","koaza":"","lat":38.262261,"lng":140.956847,"zip":"9830034"},{"town":"扇町一丁目","koaza":"","lat":38.270604,"lng":140.947234,"zip":"9830034"},{"town":"扇町四丁目","koaza":"","lat":38.26265,"lng":140.950197,"zip":"9830034"},{"town":"中野三丁目","koaza":"","lat":38.272797,"lng":140.98789,"zip":"9830013"},{"town":"扇町三丁目","koaza":"","lat":38.262841,"lng":140.94251,"zip":"9830034"},{"town":"仙台港北二丁目","koaza":"","lat":38.279276,"lng":141.000632,"zip":"9830007"},{"town":"中野","koaza":"","lat":38.282292,"lng":140.991304,"zip":"9830013"},{"town":"蒲生二丁目","koaza":"","lat":38.259385,"lng":141.002489,"zip":"9830002"},{"town":"中野五丁目","koaza":"","lat":38.266509,"lng":140.987789,"zip":"9830013"},{"town":"宮城野二丁目","koaza":"","lat":38.258395,"lng":140.904552,"zip":"9830045"},{"town":"中野四丁目","koaza":"","lat":38.269387,"lng":140.981064,"zip":"9830013"},{"town":"福室","koaza":"","lat":38.259531,"lng":140.969254,"zip":"9830005"},{"town":"港三丁目","koaza":"","lat":38.274884,"lng":141.001025,"zip":"9830001"},{"town":"南目館","koaza":"","lat":38.265361,"lng":140.919395,"zip":"9830041"},{"town":"港二丁目","koaza":"","lat":38.268336,"lng":140.99611,"zip":"9830001"},{"town":"小鶴","koaza":"","lat":38.27743,"lng":140.944447,"zip":"9830031"},{"town":"港五丁目","koaza":"","lat":38.277315,"lng":141.036443,"zip":"9830001"},{"town":"鶴ケ谷","koaza":"","lat":38.299424,"lng":140.926585,"zip":"9830824"},{"town":"港四丁目","koaza":"","lat":38.277178,"lng":141.020021,"zip":"9830001"},{"town":"港一丁目","koaza":"","lat":38.265322,"lng":141.010436,"zip":"9830001"},{"town":"蒲生","koaza":"","lat":38.250699,"lng":140.998713,"zip":"9830002"},{"town":"岡田","koaza":"","lat":38.244497,"lng":140.980847,"zip":"9830003"},{"town":"鉄砲町東","koaza":"","lat":38.2635,"lng":140.893998,"zip":"9830867"},{"town":"二十人町通","koaza":"","lat":38.262613,"lng":140.896686,"zip":"9830843"},{"town":"清水沼一丁目","koaza":"","lat":38.265391,"lng":140.897767,"zip":"9830845"},{"town":"原町南目","koaza":"","lat":38.262921,"lng":140.897324,"zip":"9830844"},{"town":"原町一丁目","koaza":"","lat":38.264312,"lng":140.8996,"zip":"9830841"},{"town":"宮城野一丁目","koaza":"","lat":38.257611,"lng":140.898622,"zip":"9830045"},{"town":"五輪一丁目","koaza":"","lat":38.261553,"lng":140.899193,"zip":"9830842"},{"town":"鉄砲町中","koaza":"","lat":38.263728,"lng":140.890056,"zip":"9830868"},{"town":"小田原弓ノ町","koaza":"","lat":38.264286,"lng":140.891887,"zip":"9830812"},{"town":"榴ケ岡","koaza":"","lat":38.261347,"lng":140.891949,"zip":"9830851"},{"town":"榴岡五丁目","koaza":"","lat":38.258314,"lng":140.893167,"zip":"9830852"},{"town":"榴岡四丁目","koaza":"","lat":38.258367,"lng":140.888702,"zip":"9830852"},{"town":"榴岡三丁目","koaza":"","lat":38.260503,"lng":140.889114,"zip":"9830852"},{"town":"小田原山本丁","koaza":"","lat":38.264767,"lng":140.88678,"zip":"9830817"},{"town":"二十人町","koaza":"","lat":38.262355,"lng":140.890931,"zip":"9830862"},{"town":"鉄砲町西","koaza":"","lat":38.263819,"lng":140.886216,"zip":"9830869"},{"town":"車町","koaza":"","lat":38.264673,"lng":140.884809,"zip":"9830863"},{"town":"榴岡一丁目","koaza":"","lat":38.259017,"lng":140.884867,"zip":"9830852"},{"town":"榴岡二丁目","koaza":"","lat":38.261058,"lng":140.885096,"zip":"9830852"},{"town":"名掛丁","koaza":"","lat":38.262533,"lng":140.885582,"zip":"9830864"},{"town":"鉄砲町","koaza":"","lat":38.262782,"lng":140.896052,"zip":"9830861"},{"town":"小田原二丁目","koaza":"","lat":38.265031,"lng":140.894207,"zip":"9830803"},{"town":"小田原一丁目","koaza":"","lat":38.266305,"lng":140.890459,"zip":"9830803"},{"town":"東六番丁","koaza":"","lat":38.263334,"lng":140.883089,"zip":"9830853"},{"town":"元寺小路","koaza":"","lat":38.26396,"lng":140.885449,"zip":"9830865"},{"town":"田子西二丁目","koaza":"","lat":38.284926,"lng":140.958426,"zip":"9830026"},{"town":"田子","koaza":"","lat":38.281142,"lng":140.952711,"zip":"9830021"},{"town":"田子西一丁目","koaza":"","lat":38.287886,"lng":140.956852,"zip":"9830026"},{"town":"岩切","koaza":"","lat":38.311662,"lng":140.936961,"zip":"9830821"},{"town":"鶴ケ谷","koaza":"舘下","lat":38.297557,"lng":140.920321,"zip":"9830824"},{"town":"鶴ケ谷","koaza":"北畑","lat":38.301863,"lng":140.920186,"zip":"9830824"},{"town":"鶴ケ谷","koaza":"坂下","lat":38.296479,"lng":140.921323,"zip":"9830824"},{"town":"鶴ケ谷","koaza":"新田","lat":38.303292,"lng":140.920008,"zip":"9830824"},{"town":"鶴ケ谷","koaza":"京原","lat":38.298178,"lng":140.924365,"zip":"9830824"},{"town":"鶴ケ谷","koaza":"筒下","lat":38.30051,"lng":140.921309,"zip":"9830824"},{"town":"鶴ケ谷","koaza":"大谷","lat":38.300571,"lng":140.923826,"zip":"9830824"},{"town":"鶴ケ谷","koaza":"金堀","lat":38.299225,"lng":140.9308,"zip":"9830824"},{"town":"岩切","koaza":"千刈田","lat":38.305809,"lng":140.939122,"zip":"9830821"},{"town":"岩切","koaza":"大正","lat":38.305451,"lng":140.929419,"zip":"9830821"},{"town":"岩切","koaza":"新宿前","lat":38.305666,"lng":140.931044,"zip":"9830821"},{"town":"岩切","koaza":"昭和西","lat":38.308657,"lng":140.932448,"zip":"9830821"},{"town":"岩切","koaza":"谷地","lat":38.310453,"lng":140.931176,"zip":"9830821"},{"town":"小鶴","koaza":"羽山","lat":38.28201,"lng":140.93141,"zip":"9830031"},{"town":"岩切","koaza":"稲荷","lat":38.29865,"lng":140.936408,"zip":"9830821"},{"town":"岩切","koaza":"昭和北","lat":38.309893,"lng":140.932293,"zip":"9830821"},{"town":"岩切","koaza":"昭和南","lat":38.306167,"lng":140.93361,"zip":"9830821"},{"town":"岩切","koaza":"入生沢","lat":38.31262,"lng":140.935134,"zip":"9830821"},{"town":"岩切","koaza":"稲荷西","lat":38.298893,"lng":140.933605,"zip":"9830821"},{"town":"岩切","koaza":"水分","lat":38.301123,"lng":140.937623,"zip":"9830821"},{"town":"岩切","koaza":"昭和東","lat":38.308418,"lng":140.936395,"zip":"9830821"},{"town":"岩切","koaza":"台屋敷","lat":38.309233,"lng":140.936699,"zip":"9830821"},{"town":"岩切","koaza":"畑中","lat":38.303255,"lng":140.938386,"zip":"9830821"},{"town":"燕沢","koaza":"前塚","lat":38.287117,"lng":140.937079,"zip":"9830823"},{"town":"岩切","koaza":"入山","lat":38.308352,"lng":140.945888,"zip":"9830821"},{"town":"岩切","koaza":"今市","lat":38.300056,"lng":140.939435,"zip":"9830821"},{"town":"岩切","koaza":"山崎","lat":38.290467,"lng":140.937445,"zip":"9830821"},{"town":"岩切","koaza":"今市東","lat":38.297414,"lng":140.941601,"zip":"9830821"},{"town":"小鶴","koaza":"新境","lat":38.275009,"lng":140.946555,"zip":"9830031"},{"town":"岩切","koaza":"土手外西","lat":38.304615,"lng":140.942216,"zip":"9830821"},{"town":"岩切","koaza":"三所南","lat":38.301089,"lng":140.944882,"zip":"9830821"},{"town":"岩切","koaza":"山神北","lat":38.300334,"lng":140.943749,"zip":"9830821"},{"town":"小鶴","koaza":"高野","lat":38.275991,"lng":140.944262,"zip":"9830031"},{"town":"岩切","koaza":"三所北","lat":38.302223,"lng":140.947024,"zip":"9830821"},{"town":"岩切","koaza":"高江","lat":38.296623,"lng":140.948313,"zip":"9830821"},{"town":"岩切","koaza":"若宮前","lat":38.305009,"lng":140.948329,"zip":"9830821"},{"town":"岩切","koaza":"東河原","lat":38.30123,"lng":140.951932,"zip":"9830821"},{"town":"岩切","koaza":"羽黒前","lat":38.307776,"lng":140.949467,"zip":"9830821"},{"town":"岩切","koaza":"鴻巣","lat":38.296929,"lng":140.950864,"zip":"9830821"},{"town":"岩切","koaza":"高原","lat":38.297328,"lng":140.948229,"zip":"9830821"},{"town":"岩切","koaza":"土手外東","lat":38.301013,"lng":140.949872,"zip":"9830821"},{"town":"岩切","koaza":"洞ノ口","lat":38.302419,"lng":140.952724,"zip":"9830821"},{"town":"岩切","koaza":"余目西","lat":38.29386,"lng":140.953621,"zip":"9830821"},{"town":"岩切","koaza":"青津目","lat":38.305066,"lng":140.952934,"zip":"9830821"},{"town":"岩切","koaza":"余目南","lat":38.292734,"lng":140.95431,"zip":"9830821"},{"town":"岩切","koaza":"観音前","lat":38.30755,"lng":140.95347,"zip":"9830821"},{"town":"田子","koaza":"富里","lat":38.275584,"lng":140.952924,"zip":"9830021"},{"town":"岩切","koaza":"鴻巣南","lat":38.295368,"lng":140.954625,"zip":"9830821"},{"town":"岩切","koaza":"余目","lat":38.291917,"lng":140.955796,"zip":"9830821"},{"town":"岩切","koaza":"堰下","lat":38.295541,"lng":140.954909,"zip":"9830821"},{"town":"岩切","koaza":"洞ノ口東","lat":38.301887,"lng":140.956815,"zip":"9830821"},{"town":"岩切","koaza":"大前","lat":38.311382,"lng":140.956828,"zip":"9830821"},{"town":"岩切","koaza":"小児","lat":38.303233,"lng":140.957314,"zip":"9830821"},{"town":"田子","koaza":"鳥井","lat":38.293254,"lng":140.957333,"zip":"9830021"},{"town":"田子","koaza":"田子西","lat":38.287874,"lng":140.95856,"zip":"9830021"},{"town":"田子","koaza":"権八","lat":38.289549,"lng":140.958623,"zip":"9830021"},{"town":"田子","koaza":"袋河原","lat":38.291032,"lng":140.958067,"zip":"9830021"},{"town":"田子","koaza":"五平淵","lat":38.289618,"lng":140.959869,"zip":"9830021"},{"town":"岡田","koaza":"八間谷地","lat":38.252266,"lng":140.960073,"zip":"9830003"},{"town":"岩切","koaza":"分台","lat":38.30412,"lng":140.960134,"zip":"9830821"},{"town":"田子","koaza":"中坪","lat":38.287444,"lng":140.959392,"zip":"9830021"},{"town":"田子","koaza":"入","lat":38.285872,"lng":140.96012,"zip":"9830021"},{"town":"田子","koaza":"新入","lat":38.285456,"lng":140.95987,"zip":"9830021"},{"town":"田子","koaza":"上","lat":38.286755,"lng":140.961027,"zip":"9830021"},{"town":"岡田","koaza":"上岡田","lat":38.252706,"lng":140.967113,"zip":"9830003"},{"town":"岡田","koaza":"北高屋敷","lat":38.254297,"lng":140.961343,"zip":"9830003"},{"town":"福室","koaza":"弁当三番","lat":38.256475,"lng":140.963842,"zip":"9830005"},{"town":"岡田","koaza":"明神東","lat":38.25439,"lng":140.9699,"zip":"9830003"},{"town":"福室","koaza":"弁当二番","lat":38.256686,"lng":140.965727,"zip":"9830005"},{"town":"岡田","koaza":"岡田中","lat":38.245503,"lng":140.966101,"zip":"9830003"},{"town":"岡田","koaza":"久兵エ前","lat":38.253316,"lng":140.966795,"zip":"9830003"},{"town":"福室","koaza":"小原一番","lat":38.258112,"lng":140.966423,"zip":"9830005"},{"town":"福室","koaza":"平柳","lat":38.255886,"lng":140.968898,"zip":"9830005"},{"town":"福室","koaza":"小原二番","lat":38.259546,"lng":140.967331,"zip":"9830005"},{"town":"福室","koaza":"久保野一番","lat":38.254896,"lng":140.968986,"zip":"9830005"},{"town":"福室","koaza":"原田二番","lat":38.257387,"lng":140.967889,"zip":"9830005"},{"town":"福室","koaza":"田中前一番","lat":38.260224,"lng":140.969154,"zip":"9830005"},{"town":"福室","koaza":"原田一番","lat":38.258602,"lng":140.967966,"zip":"9830005"},{"town":"福室","koaza":"新原田","lat":38.256861,"lng":140.971719,"zip":"9830005"},{"town":"福室","koaza":"御蔵前二番","lat":38.262177,"lng":140.970645,"zip":"9830005"},{"town":"岡田","koaza":"久太郎東","lat":38.25421,"lng":140.971167,"zip":"9830003"},{"town":"福室","koaza":"田中東一番","lat":38.261771,"lng":140.971423,"zip":"9830005"},{"town":"福室","koaza":"御蔵前三番","lat":38.262429,"lng":140.97049,"zip":"9830005"},{"town":"福室","koaza":"田中前二番","lat":38.260639,"lng":140.970743,"zip":"9830005"},{"town":"福室","koaza":"田中","lat":38.26116,"lng":140.971656,"zip":"9830005"},{"town":"蒲生","koaza":"沼沢","lat":38.258795,"lng":140.973277,"zip":"9830002"},{"town":"福室","koaza":"久保野二番","lat":38.256022,"lng":140.972803,"zip":"9830005"},{"town":"岡田","koaza":"岡田前","lat":38.2533,"lng":140.980588,"zip":"9830003"},{"town":"岡田","koaza":"南在家","lat":38.255371,"lng":140.976722,"zip":"9830003"},{"town":"蒲生","koaza":"榎","lat":38.259152,"lng":140.976691,"zip":"9830002"},{"town":"福室","koaza":"県道前","lat":38.274786,"lng":140.974482,"zip":"9830005"},{"town":"岡田","koaza":"北在家","lat":38.257339,"lng":140.977198,"zip":"9830003"},{"town":"福室","koaza":"田中東二番","lat":38.26182,"lng":140.973593,"zip":"9830005"},{"town":"蒲生","koaza":"荻袋","lat":38.257865,"lng":140.975782,"zip":"9830002"},{"town":"中野","koaza":"北上","lat":38.28337,"lng":140.976029,"zip":"9830013"},{"town":"中野","koaza":"阿弥陀堂","lat":38.279917,"lng":140.975914,"zip":"9830013"},{"town":"福室","koaza":"境四番","lat":38.27551,"lng":140.976356,"zip":"9830005"},{"town":"中野","koaza":"寺前","lat":38.277869,"lng":140.976915,"zip":"9830013"},{"town":"岡田","koaza":"新浜西通","lat":38.24193,"lng":140.980972,"zip":"9830003"},{"town":"中野","koaza":"神明","lat":38.277694,"lng":140.980925,"zip":"9830013"},{"town":"蒲生","koaza":"中袋","lat":38.257811,"lng":140.980896,"zip":"9830002"},{"town":"岡田","koaza":"寺袋浦","lat":38.256863,"lng":140.982087,"zip":"9830003"},{"town":"岡田","koaza":"堀切南","lat":38.247427,"lng":140.980372,"zip":"9830003"},{"town":"岡田","koaza":"堀切前","lat":38.249064,"lng":140.981236,"zip":"9830003"},{"town":"蒲生","koaza":"袋西ノ内第二","lat":38.248038,"lng":140.982679,"zip":"9830002"},{"town":"岡田","koaza":"西畑","lat":38.245074,"lng":140.981877,"zip":"9830003"},{"town":"蒲生","koaza":"南屋ケ城","lat":38.257836,"lng":140.983613,"zip":"9830002"},{"town":"蒲生","koaza":"雑子袋","lat":38.25583,"lng":140.983718,"zip":"9830002"},{"town":"蒲生","koaza":"袋西第一","lat":38.249749,"lng":140.983062,"zip":"9830002"},{"town":"中野","koaza":"只屋敷","lat":38.279192,"lng":140.982584,"zip":"9830013"},{"town":"岡田","koaza":"新浜浦通西","lat":38.246787,"lng":140.988027,"zip":"9830003"},{"town":"中野","koaza":"出花西","lat":38.280677,"lng":140.985933,"zip":"9830013"},{"town":"蒲生","koaza":"北屋ケ城","lat":38.258616,"lng":140.984227,"zip":"9830002"},{"town":"蒲生","koaza":"上屋倉","lat":38.25602,"lng":140.986086,"zip":"9830002"},{"town":"蒲生","koaza":"南城道田","lat":38.257304,"lng":140.985351,"zip":"9830002"},{"town":"岡田","koaza":"浜通","lat":38.244068,"lng":140.98543,"zip":"9830003"},{"town":"蒲生","koaza":"屋倉","lat":38.254454,"lng":140.987,"zip":"9830002"},{"town":"蒲生","koaza":"中屋倉","lat":38.255554,"lng":140.98484,"zip":"9830002"},{"town":"岡田","koaza":"新浜東通","lat":38.238178,"lng":140.991044,"zip":"9830003"},{"town":"蒲生","koaza":"鍋沼","lat":38.252632,"lng":140.987845,"zip":"9830002"},{"town":"岡田","koaza":"樋前","lat":38.240616,"lng":140.986178,"zip":"9830003"},{"town":"中野","koaza":"葦畔","lat":38.275335,"lng":140.98583,"zip":"9830013"},{"town":"蒲生","koaza":"北城道田","lat":38.257872,"lng":140.98699,"zip":"9830002"},{"town":"蒲生","koaza":"前通","lat":38.24986,"lng":140.986996,"zip":"9830002"},{"town":"岡田","koaza":"新浜中通","lat":38.240473,"lng":140.987935,"zip":"9830003"},{"town":"中野","koaza":"出花","lat":38.276783,"lng":140.988637,"zip":"9830013"},{"town":"蒲生","koaza":"東城道田","lat":38.256727,"lng":140.98906,"zip":"9830002"},{"town":"蒲生","koaza":"中通","lat":38.252361,"lng":140.990046,"zip":"9830002"},{"town":"中野","koaza":"大貝沼","lat":38.282317,"lng":140.989481,"zip":"9830013"},{"town":"蒲生","koaza":"原屋敷","lat":38.255057,"lng":140.990517,"zip":"9830002"},{"town":"中野","koaza":"柳原","lat":38.28193,"lng":140.990252,"zip":"9830013"},{"town":"岡田","koaza":"砂山","lat":38.236845,"lng":140.990539,"zip":"9830003"},{"town":"岡田","koaza":"砂原","lat":38.235889,"lng":140.992404,"zip":"9830003"},{"town":"蒲生","koaza":"小田切","lat":38.247456,"lng":140.993103,"zip":"9830002"},{"town":"蒲生","koaza":"東通","lat":38.256167,"lng":140.996549,"zip":"9830002"},{"town":"蒲生","koaza":"二本木","lat":38.261397,"lng":140.991161,"zip":"9830002"},{"town":"岡田","koaza":"新浜浦通東","lat":38.244288,"lng":140.991822,"zip":"9830003"},{"town":"中野","koaza":"上小袋田","lat":38.283365,"lng":140.992236,"zip":"9830013"},{"town":"蒲生","koaza":"西屋敷添","lat":38.25908,"lng":140.993737,"zip":"9830002"},{"town":"中野","koaza":"四反田","lat":38.282643,"lng":140.993246,"zip":"9830013"},{"town":"蒲生","koaza":"屋敷","lat":38.261038,"lng":140.993735,"zip":"9830002"},{"town":"蒲生","koaza":"八郎兵エ谷地第二","lat":38.246637,"lng":141.000485,"zip":"9830002"},{"town":"蒲生","koaza":"山神","lat":38.261551,"lng":140.994917,"zip":"9830002"},{"town":"蒲生","koaza":"東屋敷添","lat":38.260674,"lng":140.99529,"zip":"9830002"},{"town":"蒲生","koaza":"細川","lat":38.250478,"lng":140.996001,"zip":"9830002"},{"town":"中野","koaza":"牛小舎","lat":38.260836,"lng":140.996881,"zip":"9830013"},{"town":"蒲生","koaza":"八郎兵エ谷地第一","lat":38.2461,"lng":140.997011,"zip":"9830002"},{"town":"中野","koaza":"西原","lat":38.258989,"lng":140.997748,"zip":"9830013"},{"town":"蒲生","koaza":"元切","lat":38.253233,"lng":140.999681,"zip":"9830002"},{"town":"蒲生","koaza":"鍛治谷地","lat":38.253873,"lng":141.001124,"zip":"9830002"},{"town":"蒲生","koaza":"井戸谷地","lat":38.246516,"lng":140.998702,"zip":"9830002"},{"town":"蒲生","koaza":"南中河原","lat":38.252632,"lng":141.00371,"zip":"9830002"},{"town":"蒲生","koaza":"町","lat":38.256571,"lng":141.008604,"zip":"9830002"},{"town":"蒲生","koaza":"荒田","lat":38.257221,"lng":141.00669,"zip":"9830002"},{"town":"中野","koaza":"資田","lat":38.282053,"lng":141.00645,"zip":"9830013"},{"town":"中野","koaza":"高松","lat":38.259327,"lng":141.010627,"zip":"9830013"},{"town":"蒲生","koaza":"北荒田","lat":38.259672,"lng":141.00766,"zip":"9830002"},{"town":"中野","koaza":"掃沼","lat":38.279119,"lng":141.009638,"zip":"9830013"},{"town":"中野","koaza":"船入","lat":38.259625,"lng":141.009092,"zip":"9830013"},{"town":"中野","koaza":"新田","lat":38.277177,"lng":141.009711,"zip":"9830013"},{"town":"岩切","koaza":"青麻沢","lat":38.337787,"lng":140.932691,"zip":"9830821"},{"town":"蒲生三丁目","koaza":"","lat":null,"lng":null,"zip":null},{"town":"蒲生四丁目","koaza":"","lat":null,"lng":null,"zip":null},{"town":"蒲生五丁目","koaza":"","lat":null,"lng":null,"zip":null}]