[{"town":"字鳥屋一","koaza":"","lat":37.913637,"lng":140.764278,"zip":"9812100"},{"town":"字笹ノ田","koaza":"","lat":37.905683,"lng":140.77486,"zip":"9812100"},{"town":"字北前","koaza":"","lat":37.89252,"lng":140.776994,"zip":"9812100"},{"town":"字上滝","koaza":"","lat":37.871882,"lng":140.786698,"zip":"9812100"},{"town":"字除南","koaza":"","lat":37.914874,"lng":140.76591,"zip":"9812100"},{"town":"字沼ノ下","koaza":"","lat":37.909572,"lng":140.772158,"zip":"9812100"},{"town":"字除","koaza":"","lat":37.916045,"lng":140.76341,"zip":"9812100"},{"town":"字稲場東","koaza":"","lat":37.890816,"lng":140.774733,"zip":"9812100"},{"town":"字船場","koaza":"","lat":37.922539,"lng":140.760475,"zip":"9812100"},{"town":"字高見北","koaza":"","lat":37.91706,"lng":140.694049,"zip":"9812100"},{"town":"字中平西","koaza":"","lat":37.904579,"lng":140.774498,"zip":"9812100"},{"town":"字畑中","koaza":"","lat":37.900046,"lng":140.773219,"zip":"9812100"},{"town":"字石渕","koaza":"","lat":37.912752,"lng":140.777293,"zip":"9812100"},{"town":"字銀杏","koaza":"","lat":37.8999,"lng":140.76951,"zip":"9812100"},{"town":"字大豆栗","koaza":"","lat":37.913722,"lng":140.78574,"zip":"9812100"},{"town":"字新町","koaza":"","lat":37.911236,"lng":140.775412,"zip":"9812100"},{"town":"字虚空蔵下","koaza":"","lat":37.906068,"lng":140.758279,"zip":"9812100"},{"town":"字菱川内","koaza":"","lat":37.916442,"lng":140.758648,"zip":"9812100"},{"town":"字後屋敷","koaza":"","lat":37.898109,"lng":140.771044,"zip":"9812100"},{"town":"字柿木田","koaza":"","lat":37.902429,"lng":140.772597,"zip":"9812100"},{"town":"字千刈場","koaza":"","lat":37.914658,"lng":140.768643,"zip":"9812100"},{"town":"字塚田","koaza":"","lat":37.896098,"lng":140.769623,"zip":"9812100"},{"town":"字和田東","koaza":"","lat":37.891655,"lng":140.770936,"zip":"9812100"},{"town":"字泉下","koaza":"","lat":37.896173,"lng":140.7762,"zip":"9812100"},{"town":"字峠境","koaza":"","lat":37.878383,"lng":140.684968,"zip":"9812100"},{"town":"字飯泉","koaza":"","lat":37.906445,"lng":140.761699,"zip":"9812100"},{"town":"字新田東","koaza":"","lat":37.876102,"lng":140.786042,"zip":"9812100"},{"town":"字川端","koaza":"","lat":37.89943,"lng":140.718443,"zip":"9812100"},{"town":"字山崎前","koaza":"","lat":37.912413,"lng":140.76009,"zip":"9812100"},{"town":"字峠小屋下","koaza":"","lat":37.876415,"lng":140.70712,"zip":"9812100"},{"town":"字上矢田","koaza":"","lat":37.883941,"lng":140.7801,"zip":"9812100"},{"town":"字沼ノ上","koaza":"","lat":37.906624,"lng":140.772887,"zip":"9812100"},{"town":"字上林南","koaza":"","lat":37.892444,"lng":140.772001,"zip":"9812100"},{"town":"字小屋根","koaza":"","lat":37.901074,"lng":140.679514,"zip":"9812100"},{"town":"字町西","koaza":"","lat":37.914668,"lng":140.760574,"zip":"9812100"},{"town":"字中道","koaza":"","lat":37.888544,"lng":140.713135,"zip":"9812100"},{"town":"字越釜","koaza":"","lat":37.8962,"lng":140.674048,"zip":"9812100"},{"town":"字虚空蔵上","koaza":"","lat":37.906785,"lng":140.75386,"zip":"9812100"},{"town":"字新田西","koaza":"","lat":37.876096,"lng":140.784818,"zip":"9812100"},{"town":"字立沢南","koaza":"","lat":37.899709,"lng":140.665202,"zip":"9812100"},{"town":"字高畑","koaza":"","lat":37.91704,"lng":140.760388,"zip":"9812100"},{"town":"字西窪","koaza":"","lat":37.89778,"lng":140.66998,"zip":"9812100"},{"town":"字金成","koaza":"","lat":37.896846,"lng":140.67873,"zip":"9812100"},{"town":"字大畑前","koaza":"","lat":37.899829,"lng":140.742485,"zip":"9812100"},{"town":"字深田","koaza":"","lat":37.902091,"lng":140.676441,"zip":"9812100"},{"town":"字田ノ入","koaza":"","lat":37.903332,"lng":140.680432,"zip":"9812100"},{"town":"字大川口","koaza":"","lat":37.910333,"lng":140.757998,"zip":"9812100"},{"town":"字町東","koaza":"","lat":37.914955,"lng":140.762022,"zip":"9812100"},{"town":"字山崎","koaza":"","lat":37.913098,"lng":140.758622,"zip":"9812100"},{"town":"字神明南","koaza":"","lat":37.914279,"lng":140.771904,"zip":"9812100"},{"town":"字沼田","koaza":"","lat":37.904841,"lng":140.772064,"zip":"9812100"},{"town":"字赤堀","koaza":"","lat":37.8935,"lng":140.775796,"zip":"9812100"},{"town":"字稲場","koaza":"","lat":37.891803,"lng":140.773844,"zip":"9812100"},{"town":"字福沢前","koaza":"","lat":37.892933,"lng":140.764116,"zip":"9812100"},{"town":"字羽入","koaza":"","lat":37.90158,"lng":140.779022,"zip":"9812100"},{"town":"字大目","koaza":"","lat":37.898725,"lng":140.774562,"zip":"9812100"},{"town":"字荒屋敷","koaza":"","lat":37.904478,"lng":140.664247,"zip":"9812100"},{"town":"字深田下","koaza":"","lat":37.892796,"lng":140.748604,"zip":"9812100"},{"town":"字虚空蔵中","koaza":"","lat":37.906239,"lng":140.756538,"zip":"9812100"},{"town":"字片岸","koaza":"","lat":37.910764,"lng":140.759991,"zip":"9812100"},{"town":"字蛭田","koaza":"","lat":37.909804,"lng":140.778064,"zip":"9812100"},{"town":"字下滝","koaza":"","lat":37.923911,"lng":140.75717,"zip":"9812100"},{"town":"字田町南","koaza":"","lat":37.918044,"lng":140.762279,"zip":"9812100"},{"town":"字屋敷前","koaza":"","lat":37.902103,"lng":140.684589,"zip":"9812100"},{"town":"字福沢","koaza":"","lat":37.893936,"lng":140.763321,"zip":"9812100"},{"town":"字雁歌","koaza":"","lat":37.908331,"lng":140.761718,"zip":"9812100"},{"town":"字小保田","koaza":"","lat":37.909406,"lng":140.754723,"zip":"9812100"},{"town":"字火打石","koaza":"","lat":37.904311,"lng":140.673678,"zip":"9812100"},{"town":"字沢田","koaza":"","lat":37.912109,"lng":140.753367,"zip":"9812100"},{"town":"字松葉","koaza":"","lat":37.899411,"lng":140.682678,"zip":"9812100"},{"town":"字越田","koaza":"","lat":37.903278,"lng":140.77899,"zip":"9812100"},{"town":"字上地","koaza":"","lat":37.900236,"lng":140.771359,"zip":"9812100"},{"town":"字北原東","koaza":"","lat":37.907001,"lng":140.663448,"zip":"9812100"},{"town":"字塩ノ貝","koaza":"","lat":37.893661,"lng":140.678275,"zip":"9812100"},{"town":"字上林東","koaza":"","lat":37.895259,"lng":140.774354,"zip":"9812100"},{"town":"字塩ノ貝後","koaza":"","lat":37.895428,"lng":140.677457,"zip":"9812100"},{"town":"字前河原","koaza":"","lat":37.889146,"lng":140.774565,"zip":"9812100"},{"town":"字森","koaza":"","lat":37.903124,"lng":140.678529,"zip":"9812100"},{"town":"字大川口前","koaza":"","lat":37.908744,"lng":140.757805,"zip":"9812100"},{"town":"字五福谷","koaza":"","lat":37.891877,"lng":140.765238,"zip":"9812100"},{"town":"字広町","koaza":"","lat":37.886166,"lng":140.716103,"zip":"9812100"},{"town":"字袖五郎","koaza":"","lat":37.908987,"lng":140.667692,"zip":"9812100"},{"town":"字渕ノ上","koaza":"","lat":37.910189,"lng":140.774627,"zip":"9812100"},{"town":"字吉田","koaza":"","lat":37.898932,"lng":140.766401,"zip":"9812100"},{"town":"字熊野","koaza":"","lat":37.886798,"lng":140.779188,"zip":"9812100"},{"town":"字桜渕","koaza":"","lat":37.882003,"lng":140.782289,"zip":"9812100"},{"town":"字作田","koaza":"","lat":37.906934,"lng":140.781543,"zip":"9812100"},{"town":"字中島","koaza":"","lat":37.893867,"lng":140.769662,"zip":"9812100"},{"town":"字馬渕","koaza":"","lat":37.885658,"lng":140.760333,"zip":"9812100"},{"town":"字川前","koaza":"","lat":37.911132,"lng":140.663919,"zip":"9812100"},{"town":"字物見","koaza":"","lat":37.910377,"lng":140.680577,"zip":"9812100"},{"town":"字上林西","koaza":"","lat":37.896345,"lng":140.772365,"zip":"9812100"},{"town":"字上野町","koaza":"","lat":37.900765,"lng":140.717822,"zip":"9812100"},{"town":"字高松","koaza":"","lat":37.879718,"lng":140.7839,"zip":"9812100"},{"town":"字大古町北","koaza":"","lat":37.91271,"lng":140.780538,"zip":"9812100"},{"town":"字下矢田","koaza":"","lat":37.886717,"lng":140.77723,"zip":"9812100"},{"town":"字城東","koaza":"","lat":37.910817,"lng":140.780514,"zip":"9812100"},{"town":"字大舘二丁目","koaza":"","lat":37.92701,"lng":140.76484,"zip":"9812100"},{"town":"字山田下","koaza":"","lat":37.927503,"lng":140.7372,"zip":"9812100"},{"town":"字柳東","koaza":"","lat":37.905083,"lng":140.770423,"zip":"9812100"},{"town":"字菖蒲","koaza":"","lat":37.898146,"lng":140.757532,"zip":"9812100"},{"town":"字日向","koaza":"","lat":37.902173,"lng":140.767301,"zip":"9812100"},{"town":"字小坊木南","koaza":"","lat":37.897348,"lng":140.673396,"zip":"9812100"},{"town":"字鍜治屋","koaza":"","lat":37.899319,"lng":140.679875,"zip":"9812100"},{"town":"字七反町","koaza":"","lat":37.907979,"lng":140.770744,"zip":"9812100"},{"town":"字峠廻戸","koaza":"","lat":37.876906,"lng":140.705371,"zip":"9812100"},{"town":"字垂松","koaza":"","lat":37.903024,"lng":140.762431,"zip":"9812100"},{"town":"字平","koaza":"","lat":37.910548,"lng":140.788141,"zip":"9812100"},{"town":"字日向上","koaza":"","lat":37.901859,"lng":140.764244,"zip":"9812100"},{"town":"字神明","koaza":"","lat":37.914902,"lng":140.774202,"zip":"9812100"},{"town":"字梅木坂","koaza":"","lat":37.896045,"lng":140.754701,"zip":"9812100"},{"town":"字荒田","koaza":"","lat":37.893635,"lng":140.758919,"zip":"9812100"},{"town":"字大舘一丁目","koaza":"","lat":37.929268,"lng":140.762032,"zip":"9812100"},{"town":"字中平南","koaza":"","lat":37.902796,"lng":140.776138,"zip":"9812100"},{"town":"字中沢","koaza":"","lat":37.913753,"lng":140.692599,"zip":"9812100"},{"town":"字大鹿野","koaza":"","lat":37.906021,"lng":140.696951,"zip":"9812100"},{"town":"字宮ノ脇","koaza":"","lat":37.905414,"lng":140.778893,"zip":"9812100"},{"town":"字矢洗","koaza":"","lat":37.912546,"lng":140.773464,"zip":"9812100"},{"town":"字大舘三丁目","koaza":"","lat":37.923724,"lng":140.763408,"zip":"9812100"},{"town":"字大巻北","koaza":"","lat":37.904002,"lng":140.668228,"zip":"9812100"},{"town":"字椚林","koaza":"","lat":37.902272,"lng":140.673805,"zip":"9812100"},{"town":"字笠松","koaza":"","lat":37.905184,"lng":140.689291,"zip":"9812100"},{"town":"字新田向","koaza":"","lat":37.878634,"lng":140.787209,"zip":"9812100"},{"town":"字袖山","koaza":"","lat":37.911108,"lng":140.667309,"zip":"9812100"},{"town":"字白金","koaza":"","lat":37.91164,"lng":140.78471,"zip":"9812100"},{"town":"字日照田","koaza":"","lat":37.908233,"lng":140.665301,"zip":"9812100"},{"town":"字石倉前","koaza":"","lat":37.882195,"lng":140.779125,"zip":"9812100"},{"town":"字松の平","koaza":"","lat":37.904468,"lng":140.694763,"zip":"9812100"},{"town":"字大高森","koaza":"","lat":37.896645,"lng":140.68291,"zip":"9812100"},{"town":"字四反田","koaza":"","lat":37.897717,"lng":140.76719,"zip":"9812100"},{"town":"字神明東","koaza":"","lat":37.914886,"lng":140.777614,"zip":"9812100"},{"town":"字北沢","koaza":"","lat":37.908934,"lng":140.751568,"zip":"9812100"},{"town":"字堂ノ入","koaza":"","lat":37.890974,"lng":140.760031,"zip":"9812100"},{"town":"字狐石","koaza":"","lat":37.896744,"lng":140.757852,"zip":"9812100"},{"town":"字峠滝沢","koaza":"","lat":37.874231,"lng":140.691402,"zip":"9812100"},{"town":"字広平","koaza":"","lat":37.89891,"lng":140.67581,"zip":"9812100"},{"town":"字敷文西","koaza":"","lat":37.923885,"lng":140.747372,"zip":"9812100"},{"town":"字柏木","koaza":"","lat":37.906763,"lng":140.683005,"zip":"9812100"},{"town":"字手掛橋中","koaza":"","lat":37.894677,"lng":140.723595,"zip":"9812100"},{"town":"字滝原","koaza":"","lat":37.875454,"lng":140.781536,"zip":"9812100"},{"town":"字板山","koaza":"","lat":37.911234,"lng":140.749919,"zip":"9812100"},{"town":"字小坊木北","koaza":"","lat":37.900357,"lng":140.671766,"zip":"9812100"},{"town":"字手掛橋西","koaza":"","lat":37.895759,"lng":140.720805,"zip":"9812100"},{"town":"字四重麦四","koaza":"","lat":37.877596,"lng":140.732383,"zip":"9812100"},{"town":"字屋敷","koaza":"","lat":37.903043,"lng":140.685808,"zip":"9812100"},{"town":"字砂田","koaza":"","lat":37.891794,"lng":140.684717,"zip":"9812100"},{"town":"字羽入前","koaza":"","lat":37.900793,"lng":140.778257,"zip":"9812100"},{"town":"字空焼","koaza":"","lat":37.893507,"lng":140.683018,"zip":"9812100"},{"town":"字愛宕田","koaza":"","lat":37.910326,"lng":140.767703,"zip":"9812100"},{"town":"字高見南","koaza":"","lat":37.915698,"lng":140.694638,"zip":"9812100"},{"town":"字立沢北","koaza":"","lat":37.90179,"lng":140.668354,"zip":"9812100"},{"town":"字土ケ森","koaza":"","lat":37.902607,"lng":140.753309,"zip":"9812100"},{"town":"字峠前","koaza":"","lat":37.878177,"lng":140.703033,"zip":"9812100"},{"town":"字向原","koaza":"","lat":37.889322,"lng":140.765949,"zip":"9812100"},{"town":"字水沢","koaza":"","lat":37.910148,"lng":140.671896,"zip":"9812100"},{"town":"字花田","koaza":"","lat":37.910692,"lng":140.763739,"zip":"9812100"},{"town":"字北原南","koaza":"","lat":37.90548,"lng":140.667987,"zip":"9812100"},{"town":"字竹谷","koaza":"","lat":37.906308,"lng":140.764447,"zip":"9812100"},{"town":"字羽山","koaza":"","lat":37.904034,"lng":140.784504,"zip":"9812100"},{"town":"字大巻南","koaza":"","lat":37.902521,"lng":140.664809,"zip":"9812100"},{"town":"字峠坂下","koaza":"","lat":37.874056,"lng":140.696619,"zip":"9812100"},{"town":"字中屋敷","koaza":"","lat":37.917131,"lng":140.75076,"zip":"9812100"},{"town":"字寺内前","koaza":"","lat":37.906954,"lng":140.787078,"zip":"9812100"},{"town":"字子安","koaza":"","lat":37.909955,"lng":140.694092,"zip":"9812100"},{"town":"字五本松","koaza":"","lat":37.898231,"lng":140.72259,"zip":"9812100"},{"town":"字坂上","koaza":"","lat":37.895968,"lng":140.763841,"zip":"9812100"},{"town":"字石釜","koaza":"","lat":37.895818,"lng":140.690514,"zip":"9812100"},{"town":"字中平北","koaza":"","lat":37.906852,"lng":140.775862,"zip":"9812100"},{"town":"字秋柴","koaza":"","lat":37.896522,"lng":140.730368,"zip":"9812100"},{"town":"木沼","koaza":"","lat":37.941641,"lng":140.772271,"zip":"9812106"},{"town":"字由縄坂","koaza":"","lat":37.904645,"lng":140.752298,"zip":"9812100"},{"town":"字除北","koaza":"","lat":37.916671,"lng":140.76766,"zip":"9812100"},{"town":"字欠入前山","koaza":"","lat":37.885207,"lng":140.713412,"zip":"9812100"},{"town":"字玉貫","koaza":"","lat":37.916343,"lng":140.753831,"zip":"9812100"},{"town":"字田町北","koaza":"","lat":37.920563,"lng":140.761385,"zip":"9812100"},{"town":"字四重麦六","koaza":"","lat":37.883515,"lng":140.733364,"zip":"9812100"},{"town":"字中ノ内","koaza":"","lat":37.89941,"lng":140.762669,"zip":"9812100"},{"town":"字羽出庭","koaza":"","lat":37.906605,"lng":140.679495,"zip":"9812100"},{"town":"字覆盆子原","koaza":"","lat":37.904605,"lng":140.692399,"zip":"9812100"},{"town":"字萓森","koaza":"","lat":37.89383,"lng":140.688897,"zip":"9812100"},{"town":"字寺内","koaza":"","lat":37.907311,"lng":140.783625,"zip":"9812100"},{"town":"舘矢間松掛","koaza":"","lat":37.941523,"lng":140.755075,"zip":"9812105"},{"town":"字早坂","koaza":"","lat":37.897237,"lng":140.667175,"zip":"9812100"},{"town":"字角切","koaza":"","lat":37.894315,"lng":140.672597,"zip":"9812100"},{"town":"字四重麦三","koaza":"","lat":37.874641,"lng":140.729107,"zip":"9812100"},{"town":"字鳥屋","koaza":"","lat":37.913411,"lng":140.767068,"zip":"9812100"},{"town":"字平場","koaza":"","lat":37.907383,"lng":140.67221,"zip":"9812100"},{"town":"字山古谷","koaza":"","lat":37.886882,"lng":140.782055,"zip":"9812100"},{"town":"字柳","koaza":"","lat":37.90521,"lng":140.768001,"zip":"9812100"},{"town":"字廻倉","koaza":"","lat":37.912766,"lng":140.694512,"zip":"9812100"},{"town":"字峠横向","koaza":"","lat":37.880161,"lng":140.70565,"zip":"9812100"},{"town":"字船越","koaza":"","lat":37.924971,"lng":140.725001,"zip":"9812100"},{"town":"字欠入上","koaza":"","lat":37.88523,"lng":140.707923,"zip":"9812100"},{"town":"字敷文東","koaza":"","lat":37.922627,"lng":140.752282,"zip":"9812100"},{"town":"字うるし原","koaza":"","lat":37.914436,"lng":140.756365,"zip":"9812100"},{"town":"字峠向","koaza":"","lat":37.872607,"lng":140.702372,"zip":"9812100"},{"town":"字天王","koaza":"","lat":37.892534,"lng":140.781586,"zip":"9812100"},{"town":"字峠下","koaza":"","lat":37.88126,"lng":140.70969,"zip":"9812100"},{"town":"字飯塚","koaza":"","lat":37.903311,"lng":140.759027,"zip":"9812100"},{"town":"字二本木","koaza":"","lat":37.913064,"lng":140.789006,"zip":"9812100"},{"town":"字沼","koaza":"","lat":37.881804,"lng":140.786027,"zip":"9812100"},{"town":"字三瓶内","koaza":"","lat":37.890012,"lng":140.780885,"zip":"9812100"},{"town":"字切立","koaza":"","lat":37.890075,"lng":140.748318,"zip":"9812100"},{"town":"字原場","koaza":"","lat":37.889823,"lng":140.755698,"zip":"9812100"},{"town":"字椚塚","koaza":"","lat":37.894069,"lng":140.752592,"zip":"9812100"},{"town":"字根子入","koaza":"","lat":37.907489,"lng":140.748424,"zip":"9812100"},{"town":"山田","koaza":"","lat":37.933055,"lng":140.760517,"zip":"9812173"},{"town":"字小倉","koaza":"","lat":37.930671,"lng":140.70564,"zip":"9812100"},{"town":"字滝ノ上","koaza":"","lat":37.911542,"lng":140.685254,"zip":"9812100"},{"town":"字不動","koaza":"","lat":37.871266,"lng":140.783282,"zip":"9812100"},{"town":"字四重麦七","koaza":"","lat":37.887531,"lng":140.731348,"zip":"9812100"},{"town":"字川原田","koaza":"","lat":37.909172,"lng":140.676844,"zip":"9812100"},{"town":"字黒松","koaza":"","lat":37.89908,"lng":140.784374,"zip":"9812100"},{"town":"字金ケ作前","koaza":"","lat":37.898523,"lng":140.752243,"zip":"9812100"},{"town":"字摺臼","koaza":"","lat":37.883576,"lng":140.717985,"zip":"9812100"},{"town":"字牛子","koaza":"","lat":37.887312,"lng":140.761708,"zip":"9812100"},{"town":"字欠入菅","koaza":"","lat":37.892114,"lng":140.710561,"zip":"9812100"},{"town":"字四重麦一","koaza":"","lat":37.882771,"lng":140.726991,"zip":"9812100"},{"town":"字四重麦二","koaza":"","lat":37.87572,"lng":140.72548,"zip":"9812100"},{"town":"字金ケ作","koaza":"","lat":37.897224,"lng":140.745594,"zip":"9812100"},{"town":"字天炉","koaza":"","lat":37.925609,"lng":140.738149,"zip":"9812100"},{"town":"字坂下","koaza":"","lat":37.907522,"lng":140.687717,"zip":"9812100"},{"town":"字武士沢","koaza":"","lat":37.902015,"lng":140.747141,"zip":"9812100"},{"town":"字泉","koaza":"","lat":37.896172,"lng":140.780833,"zip":"9812100"},{"town":"字岡巻","koaza":"","lat":37.932852,"lng":140.701635,"zip":"9812100"},{"town":"字和田西","koaza":"","lat":37.887439,"lng":140.770776,"zip":"9812100"},{"town":"字手掛橋東","koaza":"","lat":37.894814,"lng":140.726466,"zip":"9812100"},{"town":"字下滝南","koaza":"","lat":37.920687,"lng":140.755769,"zip":"9812100"},{"town":"字百合沢","koaza":"","lat":37.922299,"lng":140.743411,"zip":"9812100"},{"town":"字山田上","koaza":"","lat":37.927735,"lng":140.72326,"zip":"9812100"},{"town":"字砂ノ入","koaza":"","lat":37.927027,"lng":140.698072,"zip":"9812100"},{"town":"字四重麦五","koaza":"","lat":37.880466,"lng":140.736646,"zip":"9812100"},{"town":"字上滝西","koaza":"","lat":37.869189,"lng":140.786429,"zip":"9812100"},{"town":"字深田上","koaza":"","lat":37.892025,"lng":140.740742,"zip":"9812100"},{"town":"字峠革踏石","koaza":"","lat":37.876984,"lng":140.722513,"zip":"9812100"},{"town":"字鳥木","koaza":"","lat":37.889362,"lng":140.692913,"zip":"9812100"},{"town":"字峠橋元","koaza":"","lat":37.875977,"lng":140.718105,"zip":"9812100"},{"town":"字木落","koaza":"","lat":37.930108,"lng":140.712645,"zip":"9812100"},{"town":"字関場","koaza":"","lat":37.890558,"lng":140.70581,"zip":"9812100"},{"town":"字柳田","koaza":"","lat":37.8866,"lng":140.743003,"zip":"9812100"},{"town":"字大畑","koaza":"","lat":37.903457,"lng":140.736307,"zip":"9812100"},{"town":"字川田島菅","koaza":"","lat":37.897098,"lng":140.712532,"zip":"9812100"},{"town":"字欠入下","koaza":"","lat":37.889803,"lng":140.722157,"zip":"9812100"},{"town":"字曲木","koaza":"","lat":37.90566,"lng":140.712779,"zip":"9812100"},{"town":"字蕨平","koaza":"","lat":37.878323,"lng":140.761566,"zip":"9812100"},{"town":"字峠野上","koaza":"","lat":37.872631,"lng":140.71145,"zip":"9812100"},{"town":"字上滝東","koaza":"","lat":37.862365,"lng":140.787802,"zip":"9812100"},{"town":"字川田島","koaza":"","lat":37.905619,"lng":140.723117,"zip":"9812100"},{"town":"字峠上","koaza":"","lat":37.880934,"lng":140.696768,"zip":"9812100"},{"town":"松掛","koaza":"","lat":37.941422,"lng":140.764406,"zip":"9812100"},{"town":"字石倉","koaza":"","lat":37.877793,"lng":140.770934,"zip":"9812100"},{"town":"字石羽","koaza":"","lat":37.873275,"lng":140.77605,"zip":"9812100"},{"town":"字薄平","koaza":"","lat":37.878247,"lng":140.751772,"zip":"9812100"},{"town":"字梅木平","koaza":"","lat":37.910643,"lng":140.734934,"zip":"9812100"},{"town":"舘矢間木沼","koaza":"","lat":37.945897,"lng":140.783616,"zip":"9812101"},{"town":"字松","koaza":"","lat":37.905167,"lng":140.703285,"zip":"9812100"},{"town":"字小塚","koaza":"","lat":37.92011,"lng":140.723576,"zip":"9812100"},{"town":"舘矢間山田","koaza":"","lat":37.935373,"lng":140.739914,"zip":"9812103"},{"town":"舘矢間舘山","koaza":"","lat":37.924161,"lng":140.784461,"zip":"9812102"},{"town":"大張大蔵","koaza":"","lat":37.951404,"lng":140.692286,"zip":"9812301"},{"town":"金山","koaza":"","lat":37.896632,"lng":140.797901,"zip":"9812402"},{"town":"小斎","koaza":"","lat":37.918723,"lng":140.821661,"zip":"9812401"},{"town":"大張川張","koaza":"","lat":37.930758,"lng":140.678886,"zip":"9812302"},{"town":"耕野","koaza":"","lat":37.922109,"lng":140.650925,"zip":"9812303"},{"town":"大内","koaza":"","lat":37.854105,"lng":140.821528,"zip":"9812501"},{"town":"筆甫","koaza":"","lat":37.826695,"lng":140.73084,"zip":"9812201"},{"town":"舘矢間山田","koaza":"小原瀬西","lat":37.929144,"lng":140.751549,"zip":"9812103"},{"town":"舘矢間山田","koaza":"永作","lat":37.934089,"lng":140.755487,"zip":"9812103"},{"town":"舘矢間山田","koaza":"土手添","lat":37.931441,"lng":140.754799,"zip":"9812103"},{"town":"舘矢間山田","koaza":"牛田","lat":37.929551,"lng":140.756123,"zip":"9812103"},{"town":"舘矢間山田","koaza":"小原瀬東","lat":37.92731,"lng":140.757659,"zip":"9812103"},{"town":"舘矢間松掛","koaza":"上","lat":37.941151,"lng":140.756866,"zip":"9812105"},{"town":"舘矢間山田","koaza":"市子沢","lat":37.938,"lng":140.756678,"zip":"9812103"},{"town":"舘矢間松掛","koaza":"土手","lat":37.942458,"lng":140.75911,"zip":"9812105"},{"town":"舘矢間松掛","koaza":"宮田","lat":37.938617,"lng":140.76126,"zip":"9812105"},{"town":"舘矢間松掛","koaza":"中西","lat":37.944685,"lng":140.759633,"zip":"9812105"},{"town":"舘矢間山田","koaza":"土手下","lat":37.930405,"lng":140.759434,"zip":"9812103"},{"town":"舘矢間舘山","koaza":"大門","lat":37.92576,"lng":140.761183,"zip":"9812102"},{"town":"舘矢間松掛","koaza":"石間舘","lat":37.944288,"lng":140.762777,"zip":"9812105"},{"town":"舘矢間松掛","koaza":"舘","lat":37.941543,"lng":140.761949,"zip":"9812105"},{"town":"舘矢間舘山","koaza":"坪石","lat":37.923547,"lng":140.768212,"zip":"9812102"},{"town":"舘矢間舘山","koaza":"後田","lat":37.930631,"lng":140.766458,"zip":"9812102"},{"town":"舘矢間山田","koaza":"洞場","lat":37.93215,"lng":140.764516,"zip":"9812103"},{"town":"舘矢間松掛","koaza":"新宮田","lat":37.938062,"lng":140.764339,"zip":"9812105"},{"town":"舘矢間松掛","koaza":"窪田","lat":37.940988,"lng":140.766234,"zip":"9812105"},{"town":"舘矢間松掛","koaza":"鶴巻","lat":37.939434,"lng":140.767766,"zip":"9812105"},{"town":"舘矢間舘山","koaza":"岩前","lat":37.928668,"lng":140.766591,"zip":"9812102"},{"town":"舘矢間舘山","koaza":"鳥内","lat":37.935041,"lng":140.768286,"zip":"9812102"},{"town":"舘矢間木沼","koaza":"入谷地","lat":37.945436,"lng":140.76794,"zip":"9812101"},{"town":"舘矢間松掛","koaza":"山ノ田","lat":37.945382,"lng":140.766292,"zip":"9812105"},{"town":"舘矢間舘山","koaza":"玉川","lat":37.923578,"lng":140.770589,"zip":"9812102"},{"town":"舘矢間舘山","koaza":"長内","lat":37.921766,"lng":140.768881,"zip":"9812102"},{"town":"舘矢間木沼","koaza":"入屋敷","lat":37.946975,"lng":140.769493,"zip":"9812101"},{"town":"舘矢間舘山","koaza":"北妻","lat":37.926139,"lng":140.770421,"zip":"9812102"},{"town":"舘矢間舘山","koaza":"根崎","lat":37.934449,"lng":140.768229,"zip":"9812102"},{"town":"舘矢間舘山","koaza":"天王","lat":37.929092,"lng":140.770811,"zip":"9812102"},{"town":"舘矢間舘山","koaza":"東玉川","lat":37.925084,"lng":140.773626,"zip":"9812102"},{"town":"舘矢間木沼","koaza":"寺前","lat":37.945648,"lng":140.771138,"zip":"9812101"},{"town":"木沼","koaza":"堀内","lat":37.941028,"lng":140.772496,"zip":"9812106"},{"town":"舘矢間舘山","koaza":"薬師堂","lat":37.924975,"lng":140.772917,"zip":"9812102"},{"town":"舘矢間木沼","koaza":"田ノ入","lat":37.947694,"lng":140.774976,"zip":"9812101"},{"town":"舘矢間舘山","koaza":"町西","lat":37.921909,"lng":140.774143,"zip":"9812102"},{"town":"舘矢間舘山","koaza":"塚合","lat":37.93029,"lng":140.773313,"zip":"9812102"},{"town":"舘矢間木沼","koaza":"根崎","lat":37.939797,"lng":140.77312,"zip":"9812101"},{"town":"舘矢間舘山","koaza":"直洲","lat":37.930043,"lng":140.775287,"zip":"9812102"},{"town":"舘矢間木沼","koaza":"竹ノ花","lat":37.944358,"lng":140.773578,"zip":"9812101"},{"town":"舘矢間舘山","koaza":"西原","lat":37.923075,"lng":140.776087,"zip":"9812102"},{"town":"舘矢間木沼","koaza":"田中","lat":37.939935,"lng":140.775481,"zip":"9812101"},{"town":"舘矢間木沼","koaza":"木沼町","lat":37.936291,"lng":140.77796,"zip":"9812101"},{"town":"舘矢間木沼","koaza":"宮後","lat":37.942849,"lng":140.77621,"zip":"9812101"},{"town":"舘矢間舘山","koaza":"賢中","lat":37.928507,"lng":140.777426,"zip":"9812102"},{"town":"舘矢間舘山","koaza":"新賢中","lat":37.932224,"lng":140.777334,"zip":"9812102"},{"town":"舘矢間舘山","koaza":"西","lat":37.924855,"lng":140.781862,"zip":"9812102"},{"town":"舘矢間舘山","koaza":"坪沼","lat":37.927001,"lng":140.77855,"zip":"9812102"},{"town":"舘矢間木沼","koaza":"関場","lat":37.946894,"lng":140.776833,"zip":"9812101"},{"town":"舘矢間舘山","koaza":"中道","lat":37.923065,"lng":140.781259,"zip":"9812102"},{"town":"舘矢間木沼","koaza":"檀山","lat":37.942527,"lng":140.777881,"zip":"9812101"},{"town":"舘矢間木沼","koaza":"町東","lat":37.936645,"lng":140.779281,"zip":"9812101"},{"town":"舘矢間舘山","koaza":"油田","lat":37.925159,"lng":140.778604,"zip":"9812102"},{"town":"舘矢間木沼","koaza":"新高妻","lat":37.936352,"lng":140.780681,"zip":"9812101"},{"town":"舘矢間木沼","koaza":"高妻","lat":37.934841,"lng":140.778744,"zip":"9812101"},{"town":"舘矢間木沼","koaza":"水門","lat":37.943381,"lng":140.779224,"zip":"9812101"},{"town":"舘矢間木沼","koaza":"伴沢","lat":37.939269,"lng":140.78098,"zip":"9812101"},{"town":"舘矢間舘山","koaza":"東原","lat":37.920811,"lng":140.783915,"zip":"9812102"},{"town":"舘矢間木沼","koaza":"道斎","lat":37.936698,"lng":140.782071,"zip":"9812101"},{"town":"舘矢間舘山","koaza":"東","lat":37.923539,"lng":140.787393,"zip":"9812102"},{"town":"舘矢間舘山","koaza":"沖南","lat":37.920117,"lng":140.789002,"zip":"9812102"},{"town":"舘矢間舘山","koaza":"長町","lat":37.926791,"lng":140.790741,"zip":"9812102"},{"town":"舘矢間舘山","koaza":"沖北","lat":37.928786,"lng":140.791835,"zip":"9812102"},{"town":"舘矢間舘山","koaza":"沖","lat":37.923792,"lng":140.790827,"zip":"9812102"},{"town":"舘矢間舘山","koaza":"沖東","lat":37.924844,"lng":140.794921,"zip":"9812102"},{"town":"舘矢間舘山","koaza":"町裏","lat":37.932339,"lng":140.773645,"zip":"9812102"},{"town":"舘矢間舘山","koaza":"木沼","lat":37.931913,"lng":140.77582,"zip":"9812102"}]