[{"town":"字下八合","koaza":"","lat":37.990074,"lng":140.446908,"zip":"9890500"},{"town":"字宮中","koaza":"","lat":38.013823,"lng":140.408052,"zip":"9890500"},{"town":"字掛ケ下","koaza":"","lat":38.011954,"lng":140.408892,"zip":"9890500"},{"town":"字道下","koaza":"","lat":38.008414,"lng":140.366772,"zip":"9890500"},{"town":"字町尻","koaza":"","lat":38.005907,"lng":140.362609,"zip":"9890500"},{"town":"字中山根","koaza":"","lat":38.005105,"lng":140.420162,"zip":"9890500"},{"town":"字道ノ上","koaza":"","lat":38.01616,"lng":140.404783,"zip":"9890500"},{"town":"字峠田町頭","koaza":"","lat":38.004957,"lng":140.358965,"zip":"9890500"},{"town":"字高平","koaza":"","lat":37.966917,"lng":140.325794,"zip":"9890500"},{"town":"字熊沢","koaza":"","lat":38.015556,"lng":140.460885,"zip":"9890500"},{"town":"字三百刈道上","koaza":"","lat":38.005676,"lng":140.328716,"zip":"9890500"},{"town":"字源兵衛刈野","koaza":"","lat":38.038445,"lng":140.298528,"zip":"9890500"},{"town":"字下町尻","koaza":"","lat":37.990195,"lng":140.44818,"zip":"9890500"},{"town":"字水上口","koaza":"","lat":38.015162,"lng":140.407367,"zip":"9890500"},{"town":"字上川原","koaza":"","lat":38.006996,"lng":140.36293,"zip":"9890500"},{"town":"字柏木平","koaza":"","lat":37.966947,"lng":140.322143,"zip":"9890500"},{"town":"字薄沢口","koaza":"","lat":38.007892,"lng":140.366704,"zip":"9890500"},{"town":"字前坂下","koaza":"","lat":37.966382,"lng":140.321606,"zip":"9890500"},{"town":"字侭ノ上地蔵前","koaza":"","lat":38.042387,"lng":140.297231,"zip":"9890500"},{"town":"字宮ノ上","koaza":"","lat":37.991699,"lng":140.448031,"zip":"9890500"},{"town":"字内川","koaza":"","lat":37.991596,"lng":140.447051,"zip":"9890500"},{"town":"字下島田原","koaza":"","lat":37.989225,"lng":140.448499,"zip":"9890500"},{"town":"字割付","koaza":"","lat":37.966647,"lng":140.322884,"zip":"9890500"},{"town":"字山伏坂","koaza":"","lat":38.00952,"lng":140.368834,"zip":"9890500"},{"town":"字杉沢口","koaza":"","lat":37.964543,"lng":140.311476,"zip":"9890500"},{"town":"字地蔵前","koaza":"","lat":38.006375,"lng":140.364331,"zip":"9890500"},{"town":"字侭ノ下","koaza":"","lat":38.043538,"lng":140.296743,"zip":"9890500"},{"town":"字滝下","koaza":"","lat":38.006216,"lng":140.363418,"zip":"9890500"},{"town":"字熊沢道","koaza":"","lat":37.993203,"lng":140.450859,"zip":"9890500"},{"town":"字町尻直道上","koaza":"","lat":38.014613,"lng":140.406751,"zip":"9890500"},{"town":"字舘下","koaza":"","lat":37.993117,"lng":140.440913,"zip":"9890500"},{"town":"字町頭","koaza":"","lat":37.981767,"lng":140.464901,"zip":"9890500"},{"town":"字八幡下","koaza":"","lat":38.016151,"lng":140.40598,"zip":"9890500"},{"town":"字名沢道下","koaza":"","lat":38.00675,"lng":140.337553,"zip":"9890500"},{"town":"字山神向","koaza":"","lat":37.965396,"lng":140.316775,"zip":"9890500"},{"town":"字中川原","koaza":"","lat":38.007548,"lng":140.364572,"zip":"9890500"},{"town":"字大清水","koaza":"","lat":38.005993,"lng":140.336002,"zip":"9890500"},{"town":"字一里塚土手下","koaza":"","lat":38.035802,"lng":140.301148,"zip":"9890500"},{"town":"字坂ノ下","koaza":"","lat":38.005563,"lng":140.349254,"zip":"9890500"},{"town":"字月光口","koaza":"","lat":37.964654,"lng":140.314063,"zip":"9890500"},{"town":"字壇ノ下","koaza":"","lat":38.004,"lng":140.360143,"zip":"9890500"},{"town":"字山際","koaza":"","lat":37.995914,"lng":140.437026,"zip":"9890500"},{"town":"字峠田愛宕下","koaza":"","lat":38.004548,"lng":140.355081,"zip":"9890500"},{"town":"字愛宕下","koaza":"","lat":38.016638,"lng":140.403663,"zip":"9890500"},{"town":"字一里塚川向","koaza":"","lat":38.032355,"lng":140.300988,"zip":"9890500"},{"town":"字十郎右エ門屋敷","koaza":"","lat":37.966538,"lng":140.319865,"zip":"9890500"},{"town":"字大豆柿道上","koaza":"","lat":38.047912,"lng":140.294386,"zip":"9890500"},{"town":"字新八ツ森","koaza":"","lat":38.011606,"lng":140.412214,"zip":"9890500"},{"town":"字豊後沢","koaza":"","lat":38.008405,"lng":140.368131,"zip":"9890500"},{"town":"字水下道上","koaza":"","lat":38.04709,"lng":140.296408,"zip":"9890500"},{"town":"字三百刈道下","koaza":"","lat":38.005739,"lng":140.329509,"zip":"9890500"},{"town":"字二渡前","koaza":"","lat":38.014136,"lng":140.406422,"zip":"9890500"},{"town":"字利津保","koaza":"","lat":37.990532,"lng":140.441768,"zip":"9890500"},{"town":"字上野","koaza":"","lat":37.98264,"lng":140.46783,"zip":"9890500"},{"town":"字沼田","koaza":"","lat":38.007009,"lng":140.365735,"zip":"9890500"},{"town":"字下川原","koaza":"","lat":38.016117,"lng":140.311772,"zip":"9890500"},{"town":"字田堀川向","koaza":"","lat":38.001967,"lng":140.321233,"zip":"9890500"},{"town":"字大谷地向","koaza":"","lat":38.044581,"lng":140.294121,"zip":"9890500"},{"town":"字嵯峨畑","koaza":"","lat":38.0352,"lng":140.300205,"zip":"9890500"},{"town":"字宮前","koaza":"","lat":38.014059,"lng":140.408896,"zip":"9890500"},{"town":"字境ノ原","koaza":"","lat":38.005414,"lng":140.347502,"zip":"9890500"},{"town":"字西町裏","koaza":"","lat":38.017873,"lng":140.46377,"zip":"9890500"},{"town":"字八ツ森","koaza":"","lat":38.013149,"lng":140.410297,"zip":"9890500"},{"town":"字西ノ入","koaza":"","lat":38.036746,"lng":140.298718,"zip":"9890500"},{"town":"字東島田原","koaza":"","lat":37.989048,"lng":140.447305,"zip":"9890500"},{"town":"字追分川根","koaza":"","lat":38.018542,"lng":140.308298,"zip":"9890500"},{"town":"字水下道下","koaza":"","lat":38.045621,"lng":140.295248,"zip":"9890500"},{"town":"字漆保","koaza":"","lat":38.013525,"lng":140.459635,"zip":"9890500"},{"town":"字向山下","koaza":"","lat":38.006861,"lng":140.361367,"zip":"9890500"},{"town":"字上町尻","koaza":"","lat":37.991115,"lng":140.446267,"zip":"9890500"},{"town":"字明神下","koaza":"","lat":38.004402,"lng":140.356808,"zip":"9890500"},{"town":"字名沢土手下","koaza":"","lat":38.007919,"lng":140.338025,"zip":"9890500"},{"town":"字新愛宕","koaza":"","lat":37.995212,"lng":140.435609,"zip":"9890500"},{"town":"字田堀口川向","koaza":"","lat":38.002894,"lng":140.326905,"zip":"9890500"},{"town":"字新利津保","koaza":"","lat":37.989662,"lng":140.442731,"zip":"9890500"},{"town":"字行人原道下","koaza":"","lat":38.041296,"lng":140.297487,"zip":"9890500"},{"town":"字角石","koaza":"","lat":38.014549,"lng":140.385412,"zip":"9890500"},{"town":"字追分下","koaza":"","lat":38.017137,"lng":140.310868,"zip":"9890500"},{"town":"字中平","koaza":"","lat":37.986786,"lng":140.432747,"zip":"9890500"},{"town":"字孫沢","koaza":"","lat":37.999095,"lng":140.431525,"zip":"9890500"},{"town":"字上足沢","koaza":"","lat":37.985853,"lng":140.432657,"zip":"9890500"},{"town":"字三十刈道下","koaza":"","lat":38.038297,"lng":140.299236,"zip":"9890500"},{"town":"字寺前","koaza":"","lat":38.014331,"lng":140.317052,"zip":"9890500"},{"town":"字長久保","koaza":"","lat":38.016987,"lng":140.312745,"zip":"9890500"},{"town":"字牧ノ山","koaza":"","lat":38.006012,"lng":140.432141,"zip":"9890500"},{"town":"字一里塚道下","koaza":"","lat":38.033869,"lng":140.300991,"zip":"9890500"},{"town":"字松原","koaza":"","lat":37.997945,"lng":140.436318,"zip":"9890500"},{"town":"字赤地道下","koaza":"","lat":38.023106,"lng":140.308005,"zip":"9890500"},{"town":"字大杉","koaza":"","lat":37.99273,"lng":140.440434,"zip":"9890500"},{"town":"字峠田","koaza":"","lat":38.005565,"lng":140.361248,"zip":"9890500"},{"town":"字矢立","koaza":"","lat":37.983192,"lng":140.463198,"zip":"9890500"},{"town":"字道ノ下","koaza":"","lat":38.013869,"lng":140.405348,"zip":"9890500"},{"town":"字大石川原","koaza":"","lat":38.006871,"lng":140.339784,"zip":"9890500"},{"town":"字程ケ沢","koaza":"","lat":37.968268,"lng":140.317578,"zip":"9890500"},{"town":"字油畑","koaza":"","lat":38.018126,"lng":140.461592,"zip":"9890500"},{"town":"字猯","koaza":"","lat":37.982703,"lng":140.465699,"zip":"9890500"},{"town":"字田堀口","koaza":"","lat":38.004094,"lng":140.328374,"zip":"9890500"},{"town":"字大豆柿道下","koaza":"","lat":38.047013,"lng":140.293938,"zip":"9890500"},{"town":"字明神前","koaza":"","lat":37.991726,"lng":140.443292,"zip":"9890500"},{"town":"字新宮田","koaza":"","lat":37.992003,"lng":140.45066,"zip":"9890500"},{"town":"字寺跡尻","koaza":"","lat":38.0115,"lng":140.379637,"zip":"9890500"},{"town":"字柳沢山国有林","koaza":"","lat":38.017603,"lng":140.321603,"zip":"9890500"},{"town":"字干蒲","koaza":"","lat":38.044279,"lng":140.297452,"zip":"9890500"},{"town":"字新八合","koaza":"","lat":37.990244,"lng":140.44587,"zip":"9890500"},{"town":"字堤西森","koaza":"","lat":38.012452,"lng":140.416412,"zip":"9890500"},{"town":"字新高瀬","koaza":"","lat":37.98449,"lng":140.44319,"zip":"9890500"},{"town":"字西島田原","koaza":"","lat":37.989214,"lng":140.444877,"zip":"9890500"},{"town":"字境ノ沢","koaza":"","lat":38.004243,"lng":140.350779,"zip":"9890500"},{"town":"字一枚田","koaza":"","lat":37.995589,"lng":140.439332,"zip":"9890500"},{"town":"字大臼張","koaza":"","lat":38.002805,"lng":140.332643,"zip":"9890500"},{"town":"字実沢上","koaza":"","lat":38.001535,"lng":140.428033,"zip":"9890500"},{"town":"字追見根添","koaza":"","lat":37.983229,"lng":140.471585,"zip":"9890500"},{"town":"字上ノ台","koaza":"","lat":38.002209,"lng":140.358801,"zip":"9890500"},{"town":"字ラントウ前","koaza":"","lat":38.015009,"lng":140.46403,"zip":"9890500"},{"town":"字長下","koaza":"","lat":37.997127,"lng":140.444556,"zip":"9890500"},{"town":"字新坂ノ下","koaza":"","lat":38.004953,"lng":140.350915,"zip":"9890500"},{"town":"字上堀","koaza":"","lat":38.013442,"lng":140.463471,"zip":"9890500"},{"town":"字新雷神","koaza":"","lat":37.99709,"lng":140.435934,"zip":"9890500"},{"town":"字行人原道上","koaza":"","lat":38.041252,"lng":140.298978,"zip":"9890500"},{"town":"字下長下","koaza":"","lat":37.993854,"lng":140.444581,"zip":"9890500"},{"town":"字西干蒲","koaza":"","lat":38.041388,"lng":140.295937,"zip":"9890500"},{"town":"字大柳坂下","koaza":"","lat":38.015448,"lng":140.314634,"zip":"9890500"},{"town":"字下高瀬","koaza":"","lat":37.986692,"lng":140.446688,"zip":"9890500"},{"town":"字壇前","koaza":"","lat":38.015609,"lng":140.318374,"zip":"9890500"},{"town":"字下宮田","koaza":"","lat":37.990639,"lng":140.449504,"zip":"9890500"},{"town":"字小穴沢","koaza":"","lat":37.999437,"lng":140.435608,"zip":"9890500"},{"town":"字滑津","koaza":"","lat":38.015306,"lng":140.403556,"zip":"9890500"},{"town":"字諏訪原","koaza":"","lat":37.997504,"lng":140.438829,"zip":"9890500"},{"town":"字町下","koaza":"","lat":38.01607,"lng":140.462546,"zip":"9890500"},{"town":"字中ノ沢原道下","koaza":"","lat":38.010226,"lng":140.411155,"zip":"9890500"},{"town":"字中高瀬","koaza":"","lat":37.986454,"lng":140.44428,"zip":"9890500"},{"town":"字大橋端","koaza":"","lat":38.007356,"lng":140.345227,"zip":"9890500"},{"town":"字中ノ橋","koaza":"","lat":38.025996,"lng":140.306808,"zip":"9890500"},{"town":"字寺跡","koaza":"","lat":38.011601,"lng":140.377136,"zip":"9890500"},{"town":"字六本杉","koaza":"","lat":38.00707,"lng":140.329338,"zip":"9890500"},{"town":"字雷神上","koaza":"","lat":37.997131,"lng":140.433163,"zip":"9890500"},{"town":"字寺山","koaza":"","lat":37.991534,"lng":140.437648,"zip":"9890500"},{"town":"字東口道下","koaza":"","lat":38.010486,"lng":140.325414,"zip":"9890500"},{"town":"字山之神前","koaza":"","lat":38.005238,"lng":140.33837,"zip":"9890500"},{"town":"字田中道下","koaza":"","lat":38.004125,"lng":140.333973,"zip":"9890500"},{"town":"字獅子向","koaza":"","lat":38.028494,"lng":140.304936,"zip":"9890500"},{"town":"字新西原","koaza":"","lat":37.99476,"lng":140.437388,"zip":"9890500"},{"town":"字八ツ分","koaza":"","lat":38.011772,"lng":140.410363,"zip":"9890500"},{"town":"字大谷地山下","koaza":"","lat":38.046307,"lng":140.292506,"zip":"9890500"},{"town":"字滝ノ上","koaza":"","lat":38.014924,"lng":140.397843,"zip":"9890500"},{"town":"字夏梨平","koaza":"","lat":37.983402,"lng":140.460374,"zip":"9890500"},{"town":"字白子岩","koaza":"","lat":38.009405,"lng":140.461738,"zip":"9890500"},{"town":"字堤沢","koaza":"","lat":38.01408,"lng":140.420378,"zip":"9890500"},{"town":"字茂庭道","koaza":"","lat":38.001096,"lng":140.353311,"zip":"9890500"},{"town":"字大沢前","koaza":"","lat":38.006555,"lng":140.343319,"zip":"9890500"},{"town":"字東谷地","koaza":"","lat":37.984769,"lng":140.44697,"zip":"9890500"},{"town":"字山根通","koaza":"","lat":38.014123,"lng":140.373487,"zip":"9890500"},{"town":"字窪","koaza":"","lat":38.010826,"lng":140.461404,"zip":"9890500"},{"town":"字行人原道上山","koaza":"","lat":38.041317,"lng":140.301793,"zip":"9890500"},{"town":"字大谷地道下","koaza":"","lat":38.049766,"lng":140.290149,"zip":"9890500"},{"town":"字下ノ平","koaza":"","lat":38.013152,"lng":140.4612,"zip":"9890500"},{"town":"字東口道上","koaza":"","lat":38.011363,"lng":140.326887,"zip":"9890500"},{"town":"字三百刈山下","koaza":"","lat":38.006193,"lng":140.327411,"zip":"9890500"},{"town":"字土佐屋敷","koaza":"","lat":38.010254,"lng":140.378846,"zip":"9890500"},{"town":"字下烏川","koaza":"","lat":37.977232,"lng":140.441854,"zip":"9890500"},{"town":"字蒲木","koaza":"","lat":37.999897,"lng":140.432476,"zip":"9890500"},{"town":"字東沢","koaza":"","lat":38.020754,"lng":140.311689,"zip":"9890500"},{"town":"字矢崎","koaza":"","lat":38.020205,"lng":140.308929,"zip":"9890500"},{"town":"字仙王沢","koaza":"","lat":38.01456,"lng":140.288792,"zip":"9890500"},{"town":"字神原","koaza":"","lat":38.011489,"lng":140.374209,"zip":"9890500"},{"town":"字田中道上","koaza":"","lat":38.007155,"lng":140.333518,"zip":"9890500"},{"town":"字田堀道上","koaza":"","lat":38.003027,"lng":140.32159,"zip":"9890500"},{"town":"字湯原","koaza":"","lat":38.012708,"lng":140.321198,"zip":"9890500"},{"town":"字深渡戸峯","koaza":"","lat":38.027898,"lng":140.390434,"zip":"9890500"},{"town":"字高倉口","koaza":"","lat":38.012853,"lng":140.30819,"zip":"9890500"},{"town":"字原道上","koaza":"","lat":38.009948,"lng":140.414932,"zip":"9890500"},{"town":"字原道下","koaza":"","lat":38.007913,"lng":140.416375,"zip":"9890500"},{"town":"字渡瀬根添","koaza":"","lat":37.981918,"lng":140.477502,"zip":"9890500"},{"town":"字上橋道上","koaza":"","lat":38.030384,"lng":140.304681,"zip":"9890500"},{"town":"字柳沢","koaza":"","lat":38.010419,"lng":140.340049,"zip":"9890500"},{"town":"字中山","koaza":"","lat":38.00372,"lng":140.420851,"zip":"9890500"},{"town":"字一里塚道上","koaza":"","lat":38.035393,"lng":140.303381,"zip":"9890500"},{"town":"字坂上","koaza":"","lat":38.018032,"lng":140.314478,"zip":"9890500"},{"town":"字天神平","koaza":"","lat":38.009422,"lng":140.329812,"zip":"9890500"},{"town":"字林子沢","koaza":"","lat":38.002899,"lng":140.347319,"zip":"9890500"},{"town":"字赤地道上","koaza":"","lat":38.026257,"lng":140.31031,"zip":"9890500"},{"town":"字関","koaza":"","lat":37.994302,"lng":140.442437,"zip":"9890500"},{"town":"字原谷地際","koaza":"","lat":38.006563,"lng":140.420907,"zip":"9890500"},{"town":"字大貫平","koaza":"","lat":37.974959,"lng":140.453573,"zip":"9890500"},{"town":"字小崎","koaza":"","lat":38.01283,"lng":140.383898,"zip":"9890500"},{"town":"字三十刈道上","koaza":"","lat":38.038291,"lng":140.301492,"zip":"9890500"},{"town":"字柳沢山","koaza":"","lat":38.02236,"lng":140.340099,"zip":"9890500"},{"town":"字熊野","koaza":"","lat":38.006722,"lng":140.357185,"zip":"9890500"},{"town":"字名沢道上","koaza":"","lat":38.009094,"lng":140.336347,"zip":"9890500"},{"town":"字上烏川","koaza":"","lat":37.980283,"lng":140.432015,"zip":"9890500"},{"town":"字稲子","koaza":"","lat":37.964069,"lng":140.330126,"zip":"9890500"},{"town":"字田堀道下","koaza":"","lat":38.000368,"lng":140.317078,"zip":"9890500"},{"town":"字大石ケ沢","koaza":"","lat":38.002028,"lng":140.341406,"zip":"9890500"},{"town":"字浦山","koaza":"","lat":38.018565,"lng":140.404599,"zip":"9890500"},{"town":"字町裏","koaza":"","lat":38.014623,"lng":140.322563,"zip":"9890500"},{"town":"字横川","koaza":"","lat":38.017343,"lng":140.466251,"zip":"9890500"},{"town":"字茂ケ沢","koaza":"","lat":38.019152,"lng":140.368156,"zip":"9890500"},{"town":"字坂ノ上","koaza":"","lat":37.999072,"lng":140.448645,"zip":"9890500"},{"town":"字沢上山","koaza":"","lat":37.98868,"lng":140.436908,"zip":"9890500"},{"town":"字瀬見原","koaza":"","lat":37.994312,"lng":140.447627,"zip":"9890500"},{"town":"字八幡館山","koaza":"","lat":37.991672,"lng":140.433723,"zip":"9890500"},{"town":"字水上峯","koaza":"","lat":38.034086,"lng":140.402447,"zip":"9890500"},{"town":"字小駕籠沢","koaza":"","lat":38.010036,"lng":140.331918,"zip":"9890500"},{"town":"字西森下","koaza":"","lat":38.014096,"lng":140.418714,"zip":"9890500"},{"town":"字沼ノ内","koaza":"","lat":38.0061,"lng":140.456053,"zip":"9890500"},{"town":"字曲松","koaza":"","lat":38.007312,"lng":140.407235,"zip":"9890500"},{"town":"字横目山","koaza":"","lat":37.987453,"lng":140.441294,"zip":"9890500"},{"town":"字矢立平","koaza":"","lat":37.984945,"lng":140.463275,"zip":"9890500"},{"town":"字板木","koaza":"","lat":37.997588,"lng":140.332476,"zip":"9890500"},{"town":"字無黒山","koaza":"","lat":38.035039,"lng":140.403809,"zip":"9890500"},{"town":"字若林山","koaza":"","lat":37.979748,"lng":140.491072,"zip":"9890500"},{"town":"字峠前","koaza":"","lat":38.048874,"lng":140.297306,"zip":"9890500"},{"town":"字館ケ沢","koaza":"","lat":38.004935,"lng":140.413773,"zip":"9890500"},{"town":"字立平","koaza":"","lat":38.014706,"lng":140.424136,"zip":"9890500"},{"town":"字蟹沢","koaza":"","lat":38.009983,"lng":140.36484,"zip":"9890500"},{"town":"字稗ノ作","koaza":"","lat":38.000902,"lng":140.452523,"zip":"9890500"},{"town":"字堤東森","koaza":"","lat":38.011411,"lng":140.420647,"zip":"9890500"},{"town":"字蟹川","koaza":"","lat":38.01926,"lng":140.304009,"zip":"9890500"},{"town":"字苗代端","koaza":"","lat":38.017298,"lng":140.389477,"zip":"9890500"},{"town":"字桧木沢","koaza":"","lat":37.993869,"lng":140.319498,"zip":"9890500"},{"town":"字上ノ平","koaza":"","lat":38.025743,"lng":140.472911,"zip":"9890500"},{"town":"字茂ケ立間","koaza":"","lat":38.015444,"lng":140.307737,"zip":"9890500"},{"town":"字稲子山","koaza":"","lat":37.962139,"lng":140.384834,"zip":"9890500"},{"town":"字島木野浦ノ沢","koaza":"","lat":38.011599,"lng":140.431836,"zip":"9890500"},{"town":"字陳ノ窪","koaza":"","lat":38.019993,"lng":140.394988,"zip":"9890500"},{"town":"字水上","koaza":"","lat":38.02087,"lng":140.408177,"zip":"9890500"},{"town":"字大迎","koaza":"","lat":38.01241,"lng":140.3913,"zip":"9890500"},{"town":"字大野沢","koaza":"","lat":38.021792,"lng":140.376848,"zip":"9890500"},{"town":"字小崎山","koaza":"","lat":38.015534,"lng":140.380032,"zip":"9890500"},{"town":"字大穴沢","koaza":"","lat":38.003712,"lng":140.448423,"zip":"9890500"},{"town":"字仕切目","koaza":"","lat":38.024564,"lng":140.42567,"zip":"9890500"},{"town":"字野沢倉山","koaza":"","lat":37.973324,"lng":140.50792,"zip":"9890500"},{"town":"字赤地","koaza":"","lat":38.034017,"lng":140.318814,"zip":"9890500"},{"town":"字竹ノ沢","koaza":"","lat":38.007335,"lng":140.380037,"zip":"9890500"},{"town":"字河向","koaza":"","lat":38.009259,"lng":140.401933,"zip":"9890500"},{"town":"字小提灯","koaza":"","lat":38.048992,"lng":140.287876,"zip":"9890500"},{"town":"字萩崎","koaza":"","lat":37.994912,"lng":140.45466,"zip":"9890500"},{"town":"字古道","koaza":"","lat":38.028804,"lng":140.286229,"zip":"9890500"},{"town":"字侭ノ上","koaza":"","lat":38.003319,"lng":140.363633,"zip":"9890500"},{"town":"字大谷地道上","koaza":"","lat":38.054299,"lng":140.289801,"zip":"9890500"},{"town":"字島木野","koaza":"","lat":38.011047,"lng":140.427757,"zip":"9890500"},{"town":"字栗原","koaza":"","lat":38.010892,"lng":140.434901,"zip":"9890500"},{"town":"字鶴ケ沢","koaza":"","lat":38.014261,"lng":140.359497,"zip":"9890500"},{"town":"字西ノ入山","koaza":"","lat":38.036833,"lng":140.29378,"zip":"9890500"},{"town":"字熊ノ前","koaza":"","lat":38.047923,"lng":140.304984,"zip":"9890500"},{"town":"字古道山","koaza":"","lat":38.028967,"lng":140.292685,"zip":"9890500"},{"town":"字玉ノ木","koaza":"","lat":38.012052,"lng":140.298375,"zip":"9890500"},{"town":"字愛宕山","koaza":"","lat":37.992266,"lng":140.432142,"zip":"9890500"},{"town":"字小松沢","koaza":"","lat":38.024382,"lng":140.399416,"zip":"9890500"},{"town":"字中之沢","koaza":"","lat":38.022271,"lng":140.41427,"zip":"9890500"},{"town":"字神林山","koaza":"","lat":38.007873,"lng":140.442797,"zip":"9890500"},{"town":"字大萱","koaza":"","lat":38.017267,"lng":140.452205,"zip":"9890500"},{"town":"字上ノ平山","koaza":"","lat":38.029595,"lng":140.467439,"zip":"9890500"},{"town":"字長老","koaza":"","lat":38.037147,"lng":140.482879,"zip":"9890500"},{"town":"字侭ノ台","koaza":"","lat":37.997302,"lng":140.356258,"zip":"9890500"},{"town":"字東谷地山","koaza":"","lat":37.983826,"lng":140.430394,"zip":"9890500"},{"town":"字柏木山","koaza":"","lat":38.016306,"lng":140.472205,"zip":"9890500"}]