[{"town":"遠刈田温泉栄町","koaza":"","lat":38.123418,"lng":140.574411,"zip":"9890911"},{"town":"遠刈田温泉本町","koaza":"","lat":38.123865,"lng":140.578209,"zip":"9890913"},{"town":"遠刈田温泉寿町","koaza":"","lat":38.122551,"lng":140.577482,"zip":"9890915"},{"town":"遠刈田温泉旭町","koaza":"","lat":38.122817,"lng":140.578981,"zip":"9890914"},{"town":"遠刈田温泉仲町","koaza":"","lat":38.123283,"lng":140.575951,"zip":"9890912"},{"town":"大字塩沢","koaza":"","lat":38.093582,"lng":140.682416,"zip":"9890800"},{"town":"大字矢附","koaza":"","lat":38.082548,"lng":140.675461,"zip":"9890800"},{"town":"大字小村崎","koaza":"","lat":38.127764,"lng":140.693206,"zip":"9890800"},{"town":"大字曲竹","koaza":"","lat":38.086905,"lng":140.638684,"zip":"9890800"},{"town":"大字平沢","koaza":"","lat":38.118015,"lng":140.670182,"zip":"9890800"},{"town":"宮","koaza":"","lat":38.060613,"lng":140.649819,"zip":"9890701"},{"town":"大字円田","koaza":"","lat":38.118916,"lng":140.630146,"zip":"9890800"},{"town":"遠刈田温泉","koaza":"","lat":38.113246,"lng":140.53776,"zip":"9890916"},{"town":"遠刈田温泉","koaza":"上ノ原","lat":38.122907,"lng":140.54949,"zip":"9890916"},{"town":"遠刈田温泉","koaza":"鬼石原","lat":38.134615,"lng":140.558346,"zip":"9890916"},{"town":"遠刈田温泉","koaza":"遠刈田北山","lat":38.124886,"lng":140.570025,"zip":"9890916"},{"town":"遠刈田温泉","koaza":"逆川","lat":38.131271,"lng":140.563324,"zip":"9890916"},{"town":"遠刈田温泉","koaza":"西集団","lat":38.134923,"lng":140.56797,"zip":"9890916"},{"town":"遠刈田温泉","koaza":"七日原","lat":38.118202,"lng":140.566615,"zip":"9890916"},{"town":"遠刈田温泉","koaza":"新地東裏山","lat":38.117142,"lng":140.580413,"zip":"9890916"},{"town":"遠刈田温泉","koaza":"黒沢","lat":38.13747,"lng":140.56825,"zip":"9890916"},{"town":"遠刈田温泉","koaza":"新地","lat":38.117411,"lng":140.57048,"zip":"9890916"},{"town":"遠刈田温泉","koaza":"遠刈田西裏","lat":38.123952,"lng":140.573536,"zip":"9890916"},{"town":"遠刈田温泉","koaza":"新地西裏山","lat":38.120804,"lng":140.575548,"zip":"9890916"},{"town":"遠刈田温泉","koaza":"東裏","lat":38.121996,"lng":140.579961,"zip":"9890916"},{"town":"遠刈田温泉","koaza":"東集団","lat":38.127522,"lng":140.582719,"zip":"9890916"},{"town":"遠刈田温泉","koaza":"遠刈田","lat":38.123404,"lng":140.579682,"zip":"9890916"},{"town":"遠刈田温泉","koaza":"開発","lat":38.120342,"lng":140.584359,"zip":"9890916"},{"town":"遠刈田温泉","koaza":"小妻坂山","lat":38.122813,"lng":140.58701,"zip":"9890916"},{"town":"遠刈田温泉","koaza":"千間","lat":38.119936,"lng":140.589262,"zip":"9890916"},{"town":"遠刈田温泉","koaza":"下ノ原","lat":38.11821,"lng":140.590008,"zip":"9890916"},{"town":"大字円田","koaza":"土浮山","lat":38.12699,"lng":140.590198,"zip":"9890800"},{"town":"遠刈田温泉","koaza":"下田","lat":38.124078,"lng":140.593973,"zip":"9890916"},{"town":"遠刈田温泉","koaza":"小妻坂","lat":38.118529,"lng":140.60512,"zip":"9890916"},{"town":"宮","koaza":"森合","lat":38.057242,"lng":140.639743,"zip":"9890701"},{"town":"宮","koaza":"沢北","lat":38.060876,"lng":140.64221,"zip":"9890701"},{"town":"宮","koaza":"沢南上","lat":38.061413,"lng":140.638408,"zip":"9890701"},{"town":"宮","koaza":"内方","lat":38.050034,"lng":140.644457,"zip":"9890701"},{"town":"大字曲竹","koaza":"淡島","lat":38.079247,"lng":140.645518,"zip":"9890800"},{"town":"宮","koaza":"鹿野","lat":38.052479,"lng":140.651091,"zip":"9890701"},{"town":"大字曲竹","koaza":"山口","lat":38.074163,"lng":140.645194,"zip":"9890800"},{"town":"大字曲竹","koaza":"祢宜ノ沢","lat":38.077588,"lng":140.646924,"zip":"9890800"},{"town":"大字曲竹","koaza":"若神子山","lat":38.075646,"lng":140.645326,"zip":"9890800"},{"town":"宮","koaza":"舘山北","lat":38.068006,"lng":140.648975,"zip":"9890701"},{"town":"宮","koaza":"台","lat":38.045226,"lng":140.648674,"zip":"9890701"},{"town":"大字曲竹","koaza":"岩蔵寺","lat":38.082311,"lng":140.648617,"zip":"9890800"},{"town":"大字曲竹","koaza":"神子屋敷","lat":38.075193,"lng":140.648193,"zip":"9890800"},{"town":"大字曲竹","koaza":"明神河原","lat":38.088856,"lng":140.654375,"zip":"9890800"},{"town":"宮","koaza":"小山田","lat":38.060295,"lng":140.651375,"zip":"9890701"},{"town":"大字曲竹","koaza":"天神","lat":38.087005,"lng":140.649347,"zip":"9890800"},{"town":"宮","koaza":"西宮","lat":38.049737,"lng":140.649038,"zip":"9890701"},{"town":"宮","koaza":"沢田","lat":38.072274,"lng":140.653699,"zip":"9890701"},{"town":"宮","koaza":"井戸井","lat":38.043455,"lng":140.650157,"zip":"9890701"},{"town":"大字曲竹","koaza":"後安寺","lat":38.072941,"lng":140.650485,"zip":"9890800"},{"town":"宮","koaza":"青竹","lat":38.072468,"lng":140.651172,"zip":"9890701"},{"town":"大字曲竹","koaza":"清水","lat":38.082874,"lng":140.650854,"zip":"9890800"},{"town":"宮","koaza":"荒子","lat":38.054021,"lng":140.651614,"zip":"9890701"},{"town":"宮","koaza":"舘山","lat":38.063052,"lng":140.651041,"zip":"9890701"},{"town":"宮","koaza":"西裏","lat":38.047119,"lng":140.651284,"zip":"9890701"},{"town":"大字円田","koaza":"谷地","lat":38.099416,"lng":140.651369,"zip":"9890800"},{"town":"大字円田","koaza":"西浦北","lat":38.098916,"lng":140.65693,"zip":"9890800"},{"town":"大字円田","koaza":"寺門前","lat":38.102188,"lng":140.652971,"zip":"9890800"},{"town":"大字曲竹","koaza":"田中","lat":38.079403,"lng":140.652675,"zip":"9890800"},{"town":"大字曲竹","koaza":"妙見","lat":38.086761,"lng":140.654344,"zip":"9890800"},{"town":"宮","koaza":"押田","lat":38.065075,"lng":140.651775,"zip":"9890701"},{"town":"宮","koaza":"町","lat":38.046221,"lng":140.653093,"zip":"9890701"},{"town":"宮","koaza":"馬場","lat":38.051598,"lng":140.653441,"zip":"9890701"},{"town":"宮","koaza":"根方","lat":38.065909,"lng":140.651834,"zip":"9890701"},{"town":"大字円田","koaza":"河原道上","lat":38.092573,"lng":140.655171,"zip":"9890800"},{"town":"宮","koaza":"沢中","lat":38.054484,"lng":140.652542,"zip":"9890701"},{"town":"大字曲竹","koaza":"薬師前","lat":38.083394,"lng":140.652527,"zip":"9890800"},{"town":"宮","koaza":"鳥井先","lat":38.047881,"lng":140.652417,"zip":"9890701"},{"town":"宮","koaza":"明神脇","lat":38.049484,"lng":140.652274,"zip":"9890701"},{"town":"宮","koaza":"乙当地","lat":38.054443,"lng":140.653551,"zip":"9890701"},{"town":"大字円田","koaza":"西浦上","lat":38.098037,"lng":140.65561,"zip":"9890800"},{"town":"宮","koaza":"小浜川原","lat":38.044758,"lng":140.65473,"zip":"9890701"},{"town":"宮","koaza":"持長地","lat":38.058955,"lng":140.654114,"zip":"9890701"},{"town":"宮","koaza":"欠","lat":38.056231,"lng":140.656272,"zip":"9890701"},{"town":"宮","koaza":"篤司","lat":38.045488,"lng":140.658846,"zip":"9890701"},{"town":"宮","koaza":"馬飼","lat":38.053519,"lng":140.654591,"zip":"9890701"},{"town":"大字円田","koaza":"高木","lat":38.102209,"lng":140.658861,"zip":"9890800"},{"town":"宮","koaza":"二屋敷","lat":38.064555,"lng":140.655028,"zip":"9890701"},{"town":"宮","koaza":"大除","lat":38.054797,"lng":140.655256,"zip":"9890701"},{"town":"大字円田","koaza":"高山","lat":38.104094,"lng":140.662033,"zip":"9890800"},{"town":"宮","koaza":"西原田","lat":38.067409,"lng":140.655577,"zip":"9890701"},{"town":"大字曲竹","koaza":"道路西","lat":38.079359,"lng":140.656285,"zip":"9890800"},{"town":"宮","koaza":"中野","lat":38.066545,"lng":140.65701,"zip":"9890701"},{"town":"大字曲竹","koaza":"桜所","lat":38.083345,"lng":140.655998,"zip":"9890800"},{"town":"大字円田","koaza":"西浦","lat":38.097102,"lng":140.657679,"zip":"9890800"},{"town":"大字円田","koaza":"杉ヤラ","lat":38.092194,"lng":140.658557,"zip":"9890800"},{"town":"大字曲竹","koaza":"河原前","lat":38.080978,"lng":140.662148,"zip":"9890800"},{"town":"宮","koaza":"川原田中野","lat":38.059862,"lng":140.657037,"zip":"9890701"},{"town":"大字曲竹","koaza":"河原口","lat":38.084445,"lng":140.65691,"zip":"9890800"},{"town":"宮","koaza":"川原田上","lat":38.065415,"lng":140.657632,"zip":"9890701"},{"town":"宮","koaza":"川原田東","lat":38.056891,"lng":140.65727,"zip":"9890701"},{"town":"大字曲竹","koaza":"小原","lat":38.076673,"lng":140.654282,"zip":"9890800"},{"town":"大字曲竹","koaza":"川原田","lat":38.079151,"lng":140.658113,"zip":"9890800"},{"town":"宮","koaza":"坂下","lat":38.066666,"lng":140.659322,"zip":"9890701"},{"town":"宮","koaza":"新大除","lat":38.053193,"lng":140.661994,"zip":"9890701"},{"town":"大字曲竹","koaza":"濁川添赤岩","lat":38.086615,"lng":140.659679,"zip":"9890800"},{"town":"宮","koaza":"東又","lat":38.062994,"lng":140.65924,"zip":"9890701"},{"town":"宮","koaza":"下原田","lat":38.068266,"lng":140.659006,"zip":"9890701"},{"town":"大字円田","koaza":"沼田南","lat":38.096479,"lng":140.658862,"zip":"9890800"},{"town":"宮","koaza":"上原田","lat":38.07269,"lng":140.658881,"zip":"9890701"},{"town":"大字円田","koaza":"川原畑","lat":38.091023,"lng":140.659311,"zip":"9890800"},{"town":"宮","koaza":"東原田","lat":38.070153,"lng":140.659202,"zip":"9890701"},{"town":"大字円田","koaza":"駅内","lat":38.094833,"lng":140.659455,"zip":"9890800"},{"town":"宮","koaza":"上原田東","lat":38.072594,"lng":140.659658,"zip":"9890701"},{"town":"宮","koaza":"坂山","lat":38.068993,"lng":140.663685,"zip":"9890701"},{"town":"宮","koaza":"下原田東","lat":38.068863,"lng":140.661129,"zip":"9890701"},{"town":"大字円田","koaza":"中田","lat":38.092305,"lng":140.65966,"zip":"9890800"},{"town":"大字円田","koaza":"山神北","lat":38.091158,"lng":140.660713,"zip":"9890800"},{"town":"大字円田","koaza":"道上山","lat":38.097371,"lng":140.662409,"zip":"9890800"},{"town":"宮","koaza":"松手","lat":38.054016,"lng":140.665061,"zip":"9890701"},{"town":"大字円田","koaza":"北浦","lat":38.096167,"lng":140.661481,"zip":"9890800"},{"town":"大字円田","koaza":"下永向山","lat":38.090203,"lng":140.665459,"zip":"9890800"},{"town":"大字円田","koaza":"東上","lat":38.09398,"lng":140.661432,"zip":"9890800"},{"town":"大字円田","koaza":"東浦","lat":38.094879,"lng":140.661656,"zip":"9890800"},{"town":"大字円田","koaza":"前川原","lat":38.089662,"lng":140.663027,"zip":"9890800"},{"town":"大字円田","koaza":"猫松沢","lat":38.107504,"lng":140.665412,"zip":"9890800"},{"town":"大字円田","koaza":"御渡","lat":38.094387,"lng":140.663345,"zip":"9890800"},{"town":"大字矢附","koaza":"舘","lat":38.087111,"lng":140.665525,"zip":"9890800"},{"town":"大字矢附","koaza":"谷地","lat":38.081661,"lng":140.668824,"zip":"9890800"},{"town":"大字円田","koaza":"下永","lat":38.091137,"lng":140.663818,"zip":"9890800"},{"town":"大字円田","koaza":"東山","lat":38.094548,"lng":140.665516,"zip":"9890800"},{"town":"宮","koaza":"新松手","lat":38.049883,"lng":140.663764,"zip":"9890701"},{"town":"宮","koaza":"海道東堀添","lat":38.045762,"lng":140.664586,"zip":"9890701"},{"town":"宮","koaza":"西堀添大縄場","lat":38.053543,"lng":140.663788,"zip":"9890701"},{"town":"大字円田","koaza":"広畑","lat":38.101533,"lng":140.66837,"zip":"9890800"},{"town":"大字矢附","koaza":"川原","lat":38.083602,"lng":140.670496,"zip":"9890800"},{"town":"大字塩沢","koaza":"上野","lat":38.098143,"lng":140.665099,"zip":"9890800"},{"town":"大字円田","koaza":"鳥山","lat":38.109284,"lng":140.667805,"zip":"9890800"},{"town":"大字円田","koaza":"阿弥陀前","lat":38.09335,"lng":140.665053,"zip":"9890800"},{"town":"宮","koaza":"東堀添大縄場","lat":38.061459,"lng":140.66663,"zip":"9890701"},{"town":"宮","koaza":"南川添","lat":38.041184,"lng":140.669093,"zip":"9890701"},{"town":"宮","koaza":"沖","lat":38.053642,"lng":140.665254,"zip":"9890701"},{"town":"宮","koaza":"宮道下","lat":38.046109,"lng":140.667186,"zip":"9890701"},{"town":"大字塩沢","koaza":"天王","lat":38.096035,"lng":140.668642,"zip":"9890800"},{"town":"宮","koaza":"中丸前","lat":38.055909,"lng":140.666315,"zip":"9890701"},{"town":"大字円田","koaza":"森山","lat":38.11015,"lng":140.674311,"zip":"9890800"},{"town":"宮","koaza":"戸井下","lat":38.058814,"lng":140.667213,"zip":"9890701"},{"town":"宮","koaza":"古川","lat":38.04261,"lng":140.669427,"zip":"9890701"},{"town":"宮","koaza":"供養前","lat":38.046897,"lng":140.669662,"zip":"9890701"},{"town":"宮","koaza":"原前","lat":38.05598,"lng":140.667952,"zip":"9890701"},{"town":"宮","koaza":"松原入","lat":38.048987,"lng":140.668466,"zip":"9890701"},{"town":"宮","koaza":"臼久保屋敷","lat":38.0514,"lng":140.674541,"zip":"9890701"},{"town":"大字矢附","koaza":"西山","lat":38.089745,"lng":140.668713,"zip":"9890800"},{"town":"大字矢附","koaza":"新松川添","lat":38.077694,"lng":140.668348,"zip":"9890800"},{"town":"宮","koaza":"原入","lat":38.064252,"lng":140.674157,"zip":"9890701"},{"town":"宮","koaza":"定谷口","lat":38.064735,"lng":140.6679,"zip":"9890701"},{"town":"宮","koaza":"新相ノ沢","lat":38.07483,"lng":140.669683,"zip":"9890701"},{"town":"大字円田","koaza":"大鳥下","lat":38.107511,"lng":140.670224,"zip":"9890800"},{"town":"大字矢附","koaza":"川原畑","lat":38.086342,"lng":140.670429,"zip":"9890800"},{"town":"大字円田","koaza":"堤","lat":38.107026,"lng":140.674583,"zip":"9890800"},{"town":"大字塩沢","koaza":"山口","lat":38.098748,"lng":140.672599,"zip":"9890800"},{"town":"大字矢附","koaza":"鉾附","lat":38.089352,"lng":140.671149,"zip":"9890800"},{"town":"宮","koaza":"猿田","lat":38.070011,"lng":140.671521,"zip":"9890701"},{"town":"大字円田","koaza":"八幡山","lat":38.103022,"lng":140.674905,"zip":"9890800"},{"town":"大字平沢","koaza":"八卦","lat":38.129538,"lng":140.675967,"zip":"9890800"},{"town":"大字円田","koaza":"屋敷","lat":38.11326,"lng":140.678493,"zip":"9890800"},{"town":"大字矢附","koaza":"川原脇","lat":38.08057,"lng":140.671824,"zip":"9890800"},{"town":"大字円田","koaza":"見継","lat":38.09973,"lng":140.673703,"zip":"9890800"},{"town":"大字平沢","koaza":"長窪","lat":38.120633,"lng":140.674752,"zip":"9890800"},{"town":"大字平沢","koaza":"丈六","lat":38.127502,"lng":140.678459,"zip":"9890800"},{"town":"大字塩沢","koaza":"戸ノ内脇","lat":38.097483,"lng":140.675459,"zip":"9890800"},{"town":"大字塩沢","koaza":"土ケ市","lat":38.098575,"lng":140.674234,"zip":"9890800"},{"town":"大字円田","koaza":"泉屋敷","lat":38.112145,"lng":140.675271,"zip":"9890800"},{"town":"大字円田","koaza":"寺坂前","lat":38.102962,"lng":140.677738,"zip":"9890800"},{"town":"宮","koaza":"臼久保山","lat":38.044696,"lng":140.679852,"zip":"9890701"},{"town":"大字塩沢","koaza":"宮ケ内脇","lat":38.098797,"lng":140.676417,"zip":"9890800"},{"town":"大字円田","koaza":"五生内","lat":38.102072,"lng":140.676807,"zip":"9890800"},{"town":"大字矢附","koaza":"向山","lat":38.08372,"lng":140.678664,"zip":"9890800"},{"town":"大字円田","koaza":"助六檀","lat":38.112714,"lng":140.676392,"zip":"9890800"},{"town":"大字平沢","koaza":"諏訪舘","lat":38.121265,"lng":140.679844,"zip":"9890800"},{"town":"大字円田","koaza":"南境","lat":38.099911,"lng":140.67676,"zip":"9890800"},{"town":"大字円田","koaza":"寺西","lat":38.116364,"lng":140.676208,"zip":"9890800"},{"town":"大字矢附","koaza":"豊向","lat":38.086929,"lng":140.679412,"zip":"9890800"},{"town":"大字平沢","koaza":"山ノ入","lat":38.125219,"lng":140.676998,"zip":"9890800"},{"town":"大字円田","koaza":"清水上","lat":38.108397,"lng":140.677545,"zip":"9890800"},{"town":"大字円田","koaza":"沢","lat":38.111498,"lng":140.679588,"zip":"9890800"},{"town":"大字円田","koaza":"新町","lat":38.115833,"lng":140.680605,"zip":"9890800"},{"town":"大字平沢","koaza":"上ノ台","lat":38.123175,"lng":140.678657,"zip":"9890800"},{"town":"大字円田","koaza":"白山","lat":38.109677,"lng":140.678165,"zip":"9890800"},{"town":"大字平沢","koaza":"新屋敷","lat":38.125318,"lng":140.678853,"zip":"9890800"},{"town":"大字塩沢","koaza":"北","lat":38.098867,"lng":140.684104,"zip":"9890800"},{"town":"大字塩沢","koaza":"天神前","lat":38.094483,"lng":140.68048,"zip":"9890800"},{"town":"大字円田","koaza":"大柿内前","lat":38.113277,"lng":140.67956,"zip":"9890800"},{"town":"大字円田","koaza":"和田","lat":38.102247,"lng":140.679129,"zip":"9890800"},{"town":"大字円田","koaza":"本宿前","lat":38.110323,"lng":140.679469,"zip":"9890800"},{"town":"大字円田","koaza":"白山前","lat":38.106051,"lng":140.679372,"zip":"9890800"},{"town":"大字平沢","koaza":"内屋敷","lat":38.126291,"lng":140.679943,"zip":"9890800"},{"town":"大字円田","koaza":"堀ノ内","lat":38.105003,"lng":140.678725,"zip":"9890800"},{"town":"大字円田","koaza":"糀川","lat":38.103384,"lng":140.679409,"zip":"9890800"},{"town":"大字円田","koaza":"千刈田","lat":38.104956,"lng":140.679623,"zip":"9890800"},{"town":"大字平沢","koaza":"台屋敷","lat":38.123261,"lng":140.682245,"zip":"9890800"},{"town":"大字平沢","koaza":"二本木","lat":38.128838,"lng":140.680561,"zip":"9890800"},{"town":"大字円田","koaza":"川原田","lat":38.104014,"lng":140.680375,"zip":"9890800"},{"town":"大字小村崎","koaza":"磯ケ坂","lat":38.13697,"lng":140.686278,"zip":"9890800"},{"town":"大字円田","koaza":"新千刈","lat":38.10568,"lng":140.681143,"zip":"9890800"},{"town":"大字円田","koaza":"石橋","lat":38.110976,"lng":140.680907,"zip":"9890800"},{"town":"大字円田","koaza":"新畑","lat":38.11681,"lng":140.681535,"zip":"9890800"},{"town":"大字塩沢","koaza":"大山","lat":38.091933,"lng":140.683278,"zip":"9890800"},{"town":"大字小村崎","koaza":"鹿野","lat":38.133929,"lng":140.68342,"zip":"9890800"},{"town":"大字円田","koaza":"新石橋","lat":38.114074,"lng":140.68143,"zip":"9890800"},{"town":"大字円田","koaza":"田町前","lat":38.113703,"lng":140.681206,"zip":"9890800"},{"town":"大字塩沢","koaza":"鳥屋場","lat":38.090222,"lng":140.68197,"zip":"9890800"},{"town":"大字平沢","koaza":"小高屋敷","lat":38.118357,"lng":140.681777,"zip":"9890800"},{"town":"大字小村崎","koaza":"大久保","lat":38.129713,"lng":140.682846,"zip":"9890800"},{"town":"大字円田","koaza":"曲木","lat":38.108727,"lng":140.682363,"zip":"9890800"},{"town":"大字塩沢","koaza":"中屋敷","lat":38.095791,"lng":140.682672,"zip":"9890800"},{"town":"大字平沢","koaza":"寺前","lat":38.120675,"lng":140.682142,"zip":"9890800"},{"town":"大字平沢","koaza":"東長伏内","lat":38.120018,"lng":140.683427,"zip":"9890800"},{"town":"大字塩沢","koaza":"清水沢","lat":38.097384,"lng":140.683819,"zip":"9890800"},{"town":"大字小村崎","koaza":"稲荷林","lat":38.129288,"lng":140.687499,"zip":"9890800"},{"town":"宮","koaza":"竹の花","lat":38.038437,"lng":140.684697,"zip":"9890701"},{"town":"大字平沢","koaza":"田中","lat":38.123675,"lng":140.685262,"zip":"9890800"},{"town":"大字矢附","koaza":"南光脇","lat":38.074638,"lng":140.686305,"zip":"9890800"},{"town":"大字小村崎","koaza":"西原","lat":38.130753,"lng":140.684755,"zip":"9890800"},{"town":"大字塩沢","koaza":"入前","lat":38.089995,"lng":140.687126,"zip":"9890800"},{"town":"大字小村崎","koaza":"宮前","lat":38.124817,"lng":140.685075,"zip":"9890800"},{"town":"大字平沢","koaza":"伊原沢下","lat":38.100714,"lng":140.685742,"zip":"9890800"},{"town":"大字小村崎","koaza":"中ノ内","lat":38.125192,"lng":140.684982,"zip":"9890800"},{"town":"大字平沢","koaza":"伊原沢中","lat":38.099193,"lng":140.686079,"zip":"9890800"},{"town":"大字平沢","koaza":"宮ケ内下","lat":38.103261,"lng":140.6881,"zip":"9890800"},{"town":"大字小村崎","koaza":"西屋敷","lat":38.127983,"lng":140.687166,"zip":"9890800"},{"town":"大字矢附","koaza":"東光","lat":38.081684,"lng":140.685688,"zip":"9890800"},{"town":"大字平沢","koaza":"伊原沢上","lat":38.096441,"lng":140.690077,"zip":"9890800"},{"town":"大字小村崎","koaza":"四方屋敷","lat":38.133722,"lng":140.686866,"zip":"9890800"},{"town":"大字矢附","koaza":"東山","lat":38.077841,"lng":140.687596,"zip":"9890800"},{"town":"大字平沢","koaza":"宮ケ内上","lat":38.099392,"lng":140.688679,"zip":"9890800"},{"town":"宮","koaza":"小金田","lat":38.041092,"lng":140.692024,"zip":"9890701"},{"town":"大字小村崎","koaza":"後原","lat":38.130769,"lng":140.688578,"zip":"9890800"},{"town":"大字平沢","koaza":"中沢","lat":38.104737,"lng":140.689747,"zip":"9890800"},{"town":"大字小村崎","koaza":"向原","lat":38.131798,"lng":140.689445,"zip":"9890800"},{"town":"宮","koaza":"本屋敷","lat":38.038463,"lng":140.689407,"zip":"9890701"},{"town":"大字平沢","koaza":"吹張","lat":38.106271,"lng":140.692363,"zip":"9890800"},{"town":"宮","koaza":"二坂","lat":38.037964,"lng":140.693362,"zip":"9890701"},{"town":"大字小村崎","koaza":"狐塚","lat":38.135134,"lng":140.692225,"zip":"9890800"},{"town":"大字平沢","koaza":"立目場","lat":38.104078,"lng":140.691613,"zip":"9890800"},{"town":"大字小村崎","koaza":"戸ノ内中","lat":38.128914,"lng":140.691753,"zip":"9890800"},{"town":"大字小村崎","koaza":"戸ノ内","lat":38.12732,"lng":140.691767,"zip":"9890800"},{"town":"大字平沢","koaza":"谷地田","lat":38.106738,"lng":140.691672,"zip":"9890800"},{"town":"大字小村崎","koaza":"原東","lat":38.128815,"lng":140.693703,"zip":"9890800"},{"town":"大字平沢","koaza":"越戸","lat":38.109223,"lng":140.692344,"zip":"9890800"},{"town":"大字小村崎","koaza":"上野","lat":38.126754,"lng":140.693311,"zip":"9890800"},{"town":"大字小村崎","koaza":"青木屋敷","lat":38.135036,"lng":140.696078,"zip":"9890800"},{"town":"大字小村崎","koaza":"葉前場","lat":38.130989,"lng":140.694427,"zip":"9890800"},{"town":"大字小村崎","koaza":"六角地蔵","lat":38.124313,"lng":140.694846,"zip":"9890800"},{"town":"大字平沢","koaza":"屋木戸内","lat":38.109497,"lng":140.694018,"zip":"9890800"},{"town":"大字平沢","koaza":"大橋","lat":38.111729,"lng":140.69529,"zip":"9890800"},{"town":"大字小村崎","koaza":"雁柄橋","lat":38.126863,"lng":140.695514,"zip":"9890800"},{"town":"大字小村崎","koaza":"青木東入","lat":38.132354,"lng":140.695129,"zip":"9890800"},{"town":"大字小村崎","koaza":"清上","lat":38.132128,"lng":140.696981,"zip":"9890800"},{"town":"大字平沢","koaza":"赤鬼中","lat":38.113755,"lng":140.695577,"zip":"9890800"},{"town":"大字平沢","koaza":"赤鬼上","lat":38.111373,"lng":140.699205,"zip":"9890800"},{"town":"大字小村崎","koaza":"中葉ノ木沢","lat":38.120745,"lng":140.697152,"zip":"9890800"},{"town":"大字小村崎","koaza":"三ノ輪","lat":38.128563,"lng":140.698316,"zip":"9890800"},{"town":"大字小村崎","koaza":"桜町","lat":38.130842,"lng":140.698858,"zip":"9890800"},{"town":"大字小村崎","koaza":"鍜治屋敷","lat":38.126061,"lng":140.700989,"zip":"9890800"},{"town":"大字小村崎","koaza":"清水","lat":38.127282,"lng":140.698423,"zip":"9890800"},{"town":"大字小村崎","koaza":"長根道下","lat":38.124024,"lng":140.698811,"zip":"9890800"},{"town":"大字小村崎","koaza":"山崎","lat":38.120222,"lng":140.702041,"zip":"9890800"},{"town":"大字小村崎","koaza":"上葉ノ木沢","lat":38.123257,"lng":140.7024,"zip":"9890800"},{"town":"大字小村崎","koaza":"一ツ橋","lat":38.121597,"lng":140.699686,"zip":"9890800"},{"town":"宮","koaza":"一本松東","lat":38.040164,"lng":140.649522,"zip":"9890701"},{"town":"大字円田","koaza":"峯山","lat":38.101613,"lng":140.670834,"zip":"9890800"},{"town":"大字平沢","koaza":"下町後","lat":38.12293,"lng":140.683304,"zip":"9890800"},{"town":"大字小村崎","koaza":"前戸内","lat":38.128155,"lng":140.684841,"zip":"9890800"},{"town":"大字小村崎","koaza":"二本木","lat":38.125815,"lng":140.684064,"zip":"9890800"},{"town":"大字小村崎","koaza":"三ノ輪屋敷","lat":38.129595,"lng":140.700781,"zip":"9890800"},{"town":"大字平沢","koaza":"南道場","lat":38.124192,"lng":140.683104,"zip":"9890800"},{"town":"大字円田","koaza":"善蔵橋道上","lat":38.100018,"lng":140.660232,"zip":"9890800"},{"town":"大字矢附","koaza":"外谷地","lat":38.093062,"lng":140.670883,"zip":"9890800"},{"town":"宮","koaza":"高畑","lat":38.064411,"lng":140.655756,"zip":"9890701"},{"town":"宮","koaza":"鴨田","lat":38.039159,"lng":140.685995,"zip":"9890701"},{"town":"宮","koaza":"籠石山","lat":38.039541,"lng":140.68789,"zip":"9890701"},{"town":"大字円田","koaza":"河原山","lat":38.095835,"lng":140.652229,"zip":"9890800"},{"town":"宮","koaza":"明神前","lat":38.047199,"lng":140.65021,"zip":"9890701"},{"town":"宮","koaza":"井戸井前","lat":38.042988,"lng":140.652346,"zip":"9890701"},{"town":"大字円田","koaza":"釜沢","lat":38.11541,"lng":140.616955,"zip":"9890800"},{"town":"遠刈田温泉","koaza":"清水原","lat":38.129137,"lng":140.554254,"zip":"9890916"},{"town":"大字矢附","koaza":"南光","lat":38.07342,"lng":140.682817,"zip":"9890800"},{"town":"大字塩沢","koaza":"神前","lat":38.091077,"lng":140.675769,"zip":"9890800"}]