[{"town":"字大門四番","koaza":"","lat":38.574983,"lng":140.850804,"zip":"9814200"},{"town":"字町浦十番","koaza":"","lat":38.571512,"lng":140.862555,"zip":"9814200"},{"town":"字芋沢家ノ下","koaza":"","lat":38.591533,"lng":140.713895,"zip":"9814200"},{"town":"字味ケ袋弥助前","koaza":"","lat":38.587633,"lng":140.733998,"zip":"9814200"},{"town":"字北町一番","koaza":"","lat":38.572369,"lng":140.863697,"zip":"9814200"},{"town":"字下野目東田南","koaza":"","lat":38.576892,"lng":140.832199,"zip":"9814200"},{"town":"字大門一番","koaza":"","lat":38.575924,"lng":140.850475,"zip":"9814200"},{"town":"字赤塚一番","koaza":"","lat":38.565147,"lng":140.858248,"zip":"9814200"},{"town":"字下野目蓬田西","koaza":"","lat":38.577628,"lng":140.827782,"zip":"9814200"},{"town":"字下野目堰端","koaza":"","lat":38.577683,"lng":140.812367,"zip":"9814200"},{"town":"字焼橋","koaza":"","lat":38.574898,"lng":140.848592,"zip":"9814200"},{"town":"字原檀原西","koaza":"","lat":38.60155,"lng":140.754491,"zip":"9814200"},{"town":"字上野目堰下","koaza":"","lat":38.594298,"lng":140.720151,"zip":"9814200"},{"town":"字城下","koaza":"","lat":38.568405,"lng":140.779371,"zip":"9814200"},{"town":"字味ケ袋蟹沢浦","koaza":"","lat":38.585667,"lng":140.733799,"zip":"9814200"},{"town":"字芋沢西柏原","koaza":"","lat":38.594042,"lng":140.705057,"zip":"9814200"},{"town":"字長清水二ツ塚","koaza":"","lat":38.596208,"lng":140.745507,"zip":"9814200"},{"town":"字原宮崎道下","koaza":"","lat":38.598718,"lng":140.75205,"zip":"9814200"},{"town":"字鹿原東向","koaza":"","lat":38.57322,"lng":140.755245,"zip":"9814200"},{"town":"字原東","koaza":"","lat":38.602947,"lng":140.729356,"zip":"9814200"},{"town":"字原南江端","koaza":"","lat":38.582694,"lng":140.77107,"zip":"9814200"},{"town":"字原表芳谷地","koaza":"","lat":38.583525,"lng":140.773713,"zip":"9814200"},{"town":"字上野目新堀","koaza":"","lat":38.592322,"lng":140.725492,"zip":"9814200"},{"town":"字原台崎西北","koaza":"","lat":38.606967,"lng":140.744807,"zip":"9814200"},{"town":"字上野目水沼","koaza":"","lat":38.581938,"lng":140.741931,"zip":"9814200"},{"town":"字上野目舟橋","koaza":"","lat":38.590633,"lng":140.721342,"zip":"9814200"},{"town":"字原空沼前","koaza":"","lat":38.600405,"lng":140.754147,"zip":"9814200"},{"town":"字長清水土手ノ内一番","koaza":"","lat":38.597889,"lng":140.735333,"zip":"9814200"},{"town":"字芋沢関場","koaza":"","lat":38.598459,"lng":140.702339,"zip":"9814200"},{"town":"字上川原二番","koaza":"","lat":38.574801,"lng":140.844752,"zip":"9814200"},{"town":"字原赤堀","koaza":"","lat":38.603937,"lng":140.752035,"zip":"9814200"},{"town":"字長清水大西","koaza":"","lat":38.596249,"lng":140.730167,"zip":"9814200"},{"town":"字五百刈","koaza":"","lat":38.580434,"lng":140.797501,"zip":"9814200"},{"town":"字原台崎西中","koaza":"","lat":38.606325,"lng":140.742949,"zip":"9814200"},{"town":"字原仁平屋敷","koaza":"","lat":38.601557,"lng":140.72802,"zip":"9814200"},{"town":"字上野目梶賀沢","koaza":"","lat":38.591045,"lng":140.724594,"zip":"9814200"},{"town":"字赤塚八番","koaza":"","lat":38.555469,"lng":140.866562,"zip":"9814200"},{"town":"字上野目皆伝寺一番","koaza":"","lat":38.58497,"lng":140.741894,"zip":"9814200"},{"town":"字新明膳","koaza":"","lat":38.570054,"lng":140.819351,"zip":"9814200"},{"town":"字味ケ袋蟹沢","koaza":"","lat":38.584813,"lng":140.73455,"zip":"9814200"},{"town":"字原街道端","koaza":"","lat":38.595162,"lng":140.719051,"zip":"9814200"},{"town":"字中嶋内田","koaza":"","lat":38.567697,"lng":140.824003,"zip":"9814200"},{"town":"字中嶋川原田","koaza":"","lat":38.569223,"lng":140.825061,"zip":"9814200"},{"town":"字中嶋南田一番","koaza":"","lat":38.567639,"lng":140.823353,"zip":"9814200"},{"town":"字中嶋大下一番","koaza":"","lat":38.569605,"lng":140.831192,"zip":"9814200"},{"town":"字下野目品沢","koaza":"","lat":38.575903,"lng":140.806666,"zip":"9814200"},{"town":"字百目木二番","koaza":"","lat":38.567741,"lng":140.855179,"zip":"9814200"},{"town":"字上野目大宮下","koaza":"","lat":38.579813,"lng":140.753837,"zip":"9814200"},{"town":"字原木舟","koaza":"","lat":38.594702,"lng":140.780212,"zip":"9814200"},{"town":"字町裏九番","koaza":"","lat":38.570826,"lng":140.858551,"zip":"9814200"},{"town":"字南川原","koaza":"","lat":38.553438,"lng":140.857687,"zip":"9814200"},{"town":"字鹿原小田","koaza":"","lat":38.570126,"lng":140.755205,"zip":"9814200"},{"town":"字上野目宮ノ前","koaza":"","lat":38.590495,"lng":140.717038,"zip":"9814200"},{"town":"字芋沢柳沢浦","koaza":"","lat":38.600123,"lng":140.698262,"zip":"9814200"},{"town":"字上野目下新堀","koaza":"","lat":38.593054,"lng":140.727632,"zip":"9814200"},{"town":"字新原木舟","koaza":"","lat":38.594217,"lng":140.780725,"zip":"9814200"},{"town":"字芋沢伊上","koaza":"","lat":38.597502,"lng":140.704321,"zip":"9814200"},{"town":"字味ケ袋田中前","koaza":"","lat":38.588084,"lng":140.732692,"zip":"9814200"},{"town":"字下北浦一番","koaza":"","lat":38.580149,"lng":140.767109,"zip":"9814200"},{"town":"字原町御伊勢前","koaza":"","lat":38.58779,"lng":140.748029,"zip":"9814200"},{"town":"字上野目上野々","koaza":"","lat":38.586228,"lng":140.725572,"zip":"9814200"},{"town":"字芋沢岩城","koaza":"","lat":38.59171,"lng":140.71633,"zip":"9814200"},{"town":"字漆沢野岸","koaza":"","lat":38.575128,"lng":140.6469,"zip":"9814200"},{"town":"字小瀬岩城下","koaza":"","lat":38.593998,"lng":140.714389,"zip":"9814200"},{"town":"字鹿原熊野堂","koaza":"","lat":38.577257,"lng":140.753879,"zip":"9814200"},{"town":"字門沢宿一番","koaza":"","lat":38.60448,"lng":140.681329,"zip":"9814200"},{"town":"字西田六番","koaza":"","lat":38.573451,"lng":140.851557,"zip":"9814200"},{"town":"字北ノ口","koaza":"","lat":38.580142,"lng":140.799042,"zip":"9814200"},{"town":"字漆沢岳山","koaza":"","lat":38.587956,"lng":140.634849,"zip":"9814200"},{"town":"字鹿原山岸","koaza":"","lat":38.548774,"lng":140.724823,"zip":"9814200"},{"town":"字原八幡堂","koaza":"","lat":38.605136,"lng":140.723074,"zip":"9814200"},{"town":"字長清水浦田","koaza":"","lat":38.594429,"lng":140.76398,"zip":"9814200"},{"town":"字原鶯沢","koaza":"","lat":38.59429,"lng":140.781528,"zip":"9814200"},{"town":"字南野口","koaza":"","lat":38.573721,"lng":140.792767,"zip":"9814200"},{"town":"字門沢二ツ檀一番","koaza":"","lat":38.604965,"lng":140.689044,"zip":"9814200"},{"town":"字鹿原家北","koaza":"","lat":38.575766,"lng":140.741012,"zip":"9814200"},{"town":"字下野目穴田","koaza":"","lat":38.581258,"lng":140.825819,"zip":"9814200"},{"town":"字上野目穴沢","koaza":"","lat":38.586601,"lng":140.719186,"zip":"9814200"},{"town":"字鹿島越","koaza":"","lat":38.553963,"lng":140.86699,"zip":"9814200"},{"town":"字下川原一番","koaza":"","lat":38.570749,"lng":140.85316,"zip":"9814200"},{"town":"字上野目保室","koaza":"","lat":38.582792,"lng":140.73844,"zip":"9814200"},{"town":"字西田二番","koaza":"","lat":38.574257,"lng":140.852998,"zip":"9814200"},{"town":"字鹿原御伊勢宮","koaza":"","lat":38.571651,"lng":140.746707,"zip":"9814200"},{"town":"字内谷地","koaza":"","lat":38.579001,"lng":140.781498,"zip":"9814200"},{"town":"字小瀬下田","koaza":"","lat":38.594881,"lng":140.713402,"zip":"9814200"},{"town":"字下北浦","koaza":"","lat":38.579787,"lng":140.771987,"zip":"9814200"},{"town":"字新南田一番","koaza":"","lat":38.567649,"lng":140.822484,"zip":"9814200"},{"town":"字下野目清水田北","koaza":"","lat":38.575442,"lng":140.812133,"zip":"9814200"},{"town":"字原八幡堂西","koaza":"","lat":38.605056,"lng":140.718975,"zip":"9814200"},{"town":"字長清水上内田","koaza":"","lat":38.597634,"lng":140.733729,"zip":"9814200"},{"town":"字赤塚五番","koaza":"","lat":38.558092,"lng":140.86103,"zip":"9814200"},{"town":"字芋沢谷地田","koaza":"","lat":38.589185,"lng":140.714085,"zip":"9814200"},{"town":"字上野目皆伝寺東","koaza":"","lat":38.586292,"lng":140.742456,"zip":"9814200"},{"town":"字鹿原新堰ノ沢","koaza":"","lat":38.566819,"lng":140.754819,"zip":"9814200"},{"town":"字小瀬新坂","koaza":"","lat":38.595367,"lng":140.7119,"zip":"9814200"},{"town":"字原町大橋","koaza":"","lat":38.584557,"lng":140.754844,"zip":"9814200"},{"town":"字原大橋","koaza":"","lat":38.599715,"lng":140.706571,"zip":"9814200"},{"town":"字上野目宮ノ上","koaza":"","lat":38.592163,"lng":140.717701,"zip":"9814200"},{"town":"字二ノ坪","koaza":"","lat":38.580442,"lng":140.800026,"zip":"9814200"},{"town":"字上野目長清水南","koaza":"","lat":38.594885,"lng":140.734254,"zip":"9814200"},{"town":"字原矢倉東","koaza":"","lat":38.606292,"lng":140.732086,"zip":"9814200"},{"town":"字下野目前川原北","koaza":"","lat":38.576808,"lng":140.821074,"zip":"9814200"},{"town":"字原台崎屋敷","koaza":"","lat":38.606056,"lng":140.747085,"zip":"9814200"},{"town":"字芋沢向田","koaza":"","lat":38.589362,"lng":140.71826,"zip":"9814200"},{"town":"字町西","koaza":"","lat":38.5705,"lng":140.85561,"zip":"9814200"},{"town":"字町裏七番","koaza":"","lat":38.57118,"lng":140.861616,"zip":"9814200"},{"town":"字西田四番","koaza":"","lat":38.570274,"lng":140.854874,"zip":"9814200"},{"town":"字旧舘二番","koaza":"","lat":38.560563,"lng":140.857172,"zip":"9814200"},{"town":"字漆沢渡戸","koaza":"","lat":38.594601,"lng":140.667298,"zip":"9814200"},{"town":"字中嶋堂屋敷一番","koaza":"","lat":38.569485,"lng":140.823811,"zip":"9814200"},{"town":"字原反目南","koaza":"","lat":38.599223,"lng":140.707742,"zip":"9814200"},{"town":"字千刈田","koaza":"","lat":38.577831,"lng":140.813452,"zip":"9814200"},{"town":"字下川原向","koaza":"","lat":38.571307,"lng":140.85388,"zip":"9814200"},{"town":"字一本柳","koaza":"","lat":38.572907,"lng":140.850908,"zip":"9814200"},{"town":"字神山西","koaza":"","lat":38.571821,"lng":140.787157,"zip":"9814200"},{"town":"字西田三番","koaza":"","lat":38.571751,"lng":140.854869,"zip":"9814200"},{"town":"字外谷地","koaza":"","lat":38.58203,"lng":140.778507,"zip":"9814200"},{"town":"字長清水小泉谷地田","koaza":"","lat":38.593293,"lng":140.767314,"zip":"9814200"},{"town":"字中嶋中里南","koaza":"","lat":38.56939,"lng":140.827998,"zip":"9814200"},{"town":"字原矢倉前","koaza":"","lat":38.605712,"lng":140.73037,"zip":"9814200"},{"town":"字薬師堂三番","koaza":"","lat":38.555502,"lng":140.865172,"zip":"9814200"},{"town":"字中ノ内","koaza":"","lat":38.594163,"lng":140.729913,"zip":"9814200"},{"town":"字下野目久保田","koaza":"","lat":38.575209,"lng":140.813844,"zip":"9814200"},{"town":"字鹿原首戸","koaza":"","lat":38.566641,"lng":140.70872,"zip":"9814200"},{"town":"字原堤田","koaza":"","lat":38.596453,"lng":140.729564,"zip":"9814200"},{"town":"字下野目東田北","koaza":"","lat":38.578219,"lng":140.831526,"zip":"9814200"},{"town":"字味ケ袋新坂","koaza":"","lat":38.580299,"lng":140.73466,"zip":"9814200"},{"town":"字上野目指橋一番","koaza":"","lat":38.592777,"lng":140.720822,"zip":"9814200"},{"town":"字鹿原一ノ沢","koaza":"","lat":38.545864,"lng":140.704827,"zip":"9814200"},{"town":"字上野目指橋","koaza":"","lat":38.592901,"lng":140.722475,"zip":"9814200"},{"town":"字城下西","koaza":"","lat":38.568909,"lng":140.778593,"zip":"9814200"},{"town":"字下タ川原","koaza":"","lat":38.575443,"lng":140.776626,"zip":"9814200"},{"town":"字原大曲浦","koaza":"","lat":38.601053,"lng":140.729184,"zip":"9814200"},{"town":"字上野目中ノ内","koaza":"","lat":38.593758,"lng":140.72942,"zip":"9814200"},{"town":"字下野目久保田南","koaza":"","lat":38.575357,"lng":140.817038,"zip":"9814200"},{"town":"字下野目川端下","koaza":"","lat":38.577119,"lng":140.827463,"zip":"9814200"},{"town":"字原三本松","koaza":"","lat":38.599746,"lng":140.701007,"zip":"9814200"},{"town":"字小瀬川坂","koaza":"","lat":38.594643,"lng":140.71199,"zip":"9814200"},{"town":"字田中","koaza":"","lat":38.570947,"lng":140.787494,"zip":"9814200"},{"town":"字味ケ袋堰ノ内","koaza":"","lat":38.588566,"lng":140.733264,"zip":"9814200"},{"town":"字鹿原大切","koaza":"","lat":38.565322,"lng":140.730701,"zip":"9814200"},{"town":"字上野目薬師堂","koaza":"","lat":38.589523,"lng":140.730545,"zip":"9814200"},{"town":"字小瀬清水田","koaza":"","lat":38.596016,"lng":140.710755,"zip":"9814200"},{"town":"字鹿原新田","koaza":"","lat":38.56688,"lng":140.739764,"zip":"9814200"},{"town":"字門沢裏一番","koaza":"","lat":38.605112,"lng":140.681363,"zip":"9814200"},{"town":"字上野目大道端","koaza":"","lat":38.591714,"lng":140.724456,"zip":"9814200"},{"town":"字下野目前川原中","koaza":"","lat":38.574489,"lng":140.817659,"zip":"9814200"},{"town":"字西八石","koaza":"","lat":38.576636,"lng":140.767168,"zip":"9814200"},{"town":"字八石下一番","koaza":"","lat":38.575309,"lng":140.768289,"zip":"9814200"},{"town":"字片貝川原二番","koaza":"","lat":38.552954,"lng":140.856406,"zip":"9814200"},{"town":"字芋沢遅沢","koaza":"","lat":38.587499,"lng":140.718407,"zip":"9814200"},{"town":"字原高谷地屋敷","koaza":"","lat":38.581692,"lng":140.76693,"zip":"9814200"},{"town":"字下野目雷北","koaza":"","lat":38.577954,"lng":140.814559,"zip":"9814200"},{"town":"字小瀬中野","koaza":"","lat":38.597593,"lng":140.706678,"zip":"9814200"},{"town":"字上野目谷地田","koaza":"","lat":38.589644,"lng":140.727005,"zip":"9814200"},{"town":"字北原","koaza":"","lat":38.579408,"lng":140.788499,"zip":"9814200"},{"town":"字門沢渡ノ沢","koaza":"","lat":38.605898,"lng":140.69206,"zip":"9814200"},{"town":"字小瀬上河原","koaza":"","lat":38.596944,"lng":140.707028,"zip":"9814200"},{"town":"字一本柳南","koaza":"","lat":38.569439,"lng":140.853569,"zip":"9814200"},{"town":"字鹿原向田","koaza":"","lat":38.564405,"lng":140.731674,"zip":"9814200"},{"town":"字前欠下川原","koaza":"","lat":38.572731,"lng":140.771057,"zip":"9814200"},{"town":"字漆沢沢口","koaza":"","lat":38.576018,"lng":140.647112,"zip":"9814200"},{"town":"字原庄右衛門","koaza":"","lat":38.604009,"lng":140.716461,"zip":"9814200"},{"town":"字下野目雷南","koaza":"","lat":38.576876,"lng":140.814732,"zip":"9814200"},{"town":"字水芋山岸","koaza":"","lat":38.600073,"lng":140.684951,"zip":"9814200"},{"town":"字八王子","koaza":"","lat":38.57103,"lng":140.782717,"zip":"9814200"},{"town":"字上野目桑畑一番","koaza":"","lat":38.58943,"lng":140.720568,"zip":"9814200"},{"town":"字味ケ袋大善檀","koaza":"","lat":38.586893,"lng":140.735754,"zip":"9814200"},{"town":"字原町北東屋敷","koaza":"","lat":38.586459,"lng":140.749751,"zip":"9814200"},{"town":"字長清水北二番","koaza":"","lat":38.596336,"lng":140.743355,"zip":"9814200"},{"town":"字原町南東屋敷","koaza":"","lat":38.585282,"lng":140.749587,"zip":"9814200"},{"town":"字片貝川原外","koaza":"","lat":38.552116,"lng":140.860502,"zip":"9814200"},{"town":"字小瀬下原東","koaza":"","lat":38.594082,"lng":140.719062,"zip":"9814200"},{"town":"字下野目久保田北","koaza":"","lat":38.576582,"lng":140.815959,"zip":"9814200"},{"town":"字上野目大宮","koaza":"","lat":38.580043,"lng":140.745686,"zip":"9814200"},{"town":"字上野目高畑","koaza":"","lat":38.588614,"lng":140.730781,"zip":"9814200"},{"town":"字原上野屋敷","koaza":"","lat":38.599707,"lng":140.703303,"zip":"9814200"},{"town":"字原長谷地","koaza":"","lat":38.608277,"lng":140.716576,"zip":"9814200"},{"town":"字鹿原新小田","koaza":"","lat":38.56953,"lng":140.755917,"zip":"9814200"},{"town":"字原町南百ケ清水","koaza":"","lat":38.585596,"lng":140.751556,"zip":"9814200"},{"town":"字上野目河原","koaza":"","lat":38.579966,"lng":140.74295,"zip":"9814200"},{"town":"字下野目下久保中","koaza":"","lat":38.577572,"lng":140.82007,"zip":"9814200"},{"town":"字門沢浦","koaza":"","lat":38.604436,"lng":140.679862,"zip":"9814200"},{"town":"字鹿原松下","koaza":"","lat":38.568159,"lng":140.742005,"zip":"9814200"},{"town":"字鹿原源治郎","koaza":"","lat":38.570936,"lng":140.741243,"zip":"9814200"},{"town":"字鹿島西","koaza":"","lat":38.556385,"lng":140.863883,"zip":"9814200"},{"town":"字鹿原広見","koaza":"","lat":38.567489,"lng":140.737757,"zip":"9814200"},{"town":"字上野目久保","koaza":"","lat":38.586239,"lng":140.729557,"zip":"9814200"},{"town":"字味ケ袋栗木檀","koaza":"","lat":38.587257,"lng":140.736216,"zip":"9814200"},{"town":"字原道端屋敷","koaza":"","lat":38.579111,"lng":140.775112,"zip":"9814200"},{"town":"字木伏川原三番","koaza":"","lat":38.56032,"lng":140.850964,"zip":"9814200"},{"town":"字水芋山岸一番","koaza":"","lat":38.600417,"lng":140.68958,"zip":"9814200"},{"town":"字町裏八番","koaza":"","lat":38.567731,"lng":140.858454,"zip":"9814200"},{"town":"字中川原","koaza":"","lat":38.572039,"lng":140.778418,"zip":"9814200"},{"town":"字下野目北田南","koaza":"","lat":38.578172,"lng":140.810947,"zip":"9814200"},{"town":"字芋沢楜畑","koaza":"","lat":38.588545,"lng":140.698511,"zip":"9814200"},{"town":"字上野目皆伝寺","koaza":"","lat":38.586698,"lng":140.740021,"zip":"9814200"},{"town":"字味ケ袋神明下一番","koaza":"","lat":38.58264,"lng":140.732989,"zip":"9814200"},{"town":"字原瀞清水","koaza":"","lat":38.597057,"lng":140.728487,"zip":"9814200"},{"town":"字門沢谷地田","koaza":"","lat":38.60545,"lng":140.687628,"zip":"9814200"},{"town":"字小瀬川原","koaza":"","lat":38.59695,"lng":140.705996,"zip":"9814200"},{"town":"字原町町頭","koaza":"","lat":38.583888,"lng":140.741482,"zip":"9814200"},{"town":"字芋沢久保田","koaza":"","lat":38.591946,"lng":140.706116,"zip":"9814200"},{"town":"字鹿原堰端","koaza":"","lat":38.564907,"lng":140.731209,"zip":"9814200"},{"town":"字上野目小林","koaza":"","lat":38.58737,"lng":140.744278,"zip":"9814200"},{"town":"字小瀬下原前","koaza":"","lat":38.595051,"lng":140.716042,"zip":"9814200"},{"town":"字大門三番","koaza":"","lat":38.574401,"lng":140.854282,"zip":"9814200"},{"town":"字下野目下久保南","koaza":"","lat":38.576586,"lng":140.823812,"zip":"9814200"},{"town":"字穴畑","koaza":"","lat":38.574053,"lng":140.850181,"zip":"9814200"},{"town":"字芋沢北平一番","koaza":"","lat":38.593184,"lng":140.700883,"zip":"9814200"},{"town":"字門沢梨子沢","koaza":"","lat":38.605347,"lng":140.674626,"zip":"9814200"},{"town":"字鹿原北村","koaza":"","lat":38.567189,"lng":140.737909,"zip":"9814200"},{"town":"字漆沢浦","koaza":"","lat":38.577417,"lng":140.645916,"zip":"9814200"},{"town":"字中嶋大柳","koaza":"","lat":38.570155,"lng":140.815305,"zip":"9814200"},{"town":"字鹿原峰崎","koaza":"","lat":38.565043,"lng":140.735586,"zip":"9814200"},{"town":"字原北谷地","koaza":"","lat":38.610568,"lng":140.700095,"zip":"9814200"},{"town":"字北町三番","koaza":"","lat":38.573706,"lng":140.860323,"zip":"9814200"},{"town":"字鹿原四枚田","koaza":"","lat":38.565893,"lng":140.734813,"zip":"9814200"},{"town":"字藤兵衛前","koaza":"","lat":38.603375,"lng":140.71151,"zip":"9814200"},{"town":"字北寺宿","koaza":"","lat":38.579391,"lng":140.783818,"zip":"9814200"},{"town":"字岡町","koaza":"","lat":38.571646,"lng":140.859593,"zip":"9814200"},{"town":"字上野目石名坂","koaza":"","lat":38.585546,"lng":140.726713,"zip":"9814200"},{"town":"字北田","koaza":"","lat":38.578435,"lng":140.814705,"zip":"9814200"},{"town":"字小瀬坂下","koaza":"","lat":38.597628,"lng":140.708754,"zip":"9814200"},{"town":"字百目木一番","koaza":"","lat":38.563424,"lng":140.857368,"zip":"9814200"},{"town":"字芋沢羽場田","koaza":"","lat":38.594896,"lng":140.707248,"zip":"9814200"},{"town":"字原町北西屋敷","koaza":"","lat":38.586976,"lng":140.746989,"zip":"9814200"},{"town":"字芋沢川原","koaza":"","lat":38.593795,"lng":140.710835,"zip":"9814200"},{"town":"字上野目畑中","koaza":"","lat":38.592754,"lng":140.731405,"zip":"9814200"},{"town":"字鹿原前田","koaza":"","lat":38.571227,"lng":140.738275,"zip":"9814200"},{"town":"字味ケ袋志田","koaza":"","lat":38.579186,"lng":140.7308,"zip":"9814200"},{"town":"字上野目西野々","koaza":"","lat":38.592892,"lng":140.717127,"zip":"9814200"},{"town":"字町屋敷二番","koaza":"","lat":38.575313,"lng":140.779177,"zip":"9814200"},{"town":"字門沢羽場","koaza":"","lat":38.605587,"lng":140.684605,"zip":"9814200"},{"town":"字鹿原久保田","koaza":"","lat":38.571144,"lng":140.753635,"zip":"9814200"},{"town":"字鹿原森合","koaza":"","lat":38.566025,"lng":140.740689,"zip":"9814200"},{"town":"字原町六角","koaza":"","lat":38.585298,"lng":140.74023,"zip":"9814200"},{"town":"字長清水南一番","koaza":"","lat":38.595306,"lng":140.737459,"zip":"9814200"},{"town":"字味ケ袋坂下","koaza":"","lat":38.584189,"lng":140.733559,"zip":"9814200"},{"town":"字漆沢宿","koaza":"","lat":38.57696,"lng":140.64752,"zip":"9814200"},{"town":"字原町桜檀","koaza":"","lat":38.584542,"lng":140.752364,"zip":"9814200"},{"town":"字藤兵衛","koaza":"","lat":38.603814,"lng":140.708325,"zip":"9814200"},{"town":"字中嶋大柳一番","koaza":"","lat":38.572236,"lng":140.826183,"zip":"9814200"},{"town":"字町屋敷一番","koaza":"","lat":38.573546,"lng":140.781513,"zip":"9814200"},{"town":"字門沢下窪","koaza":"","lat":38.604077,"lng":140.683094,"zip":"9814200"},{"town":"字下野目藤沢","koaza":"","lat":38.577651,"lng":140.833167,"zip":"9814200"},{"town":"字門沢二ツ檀","koaza":"","lat":38.603181,"lng":140.690196,"zip":"9814200"},{"town":"字鹿原新東向","koaza":"","lat":38.572616,"lng":140.755906,"zip":"9814200"},{"town":"字芋沢矢坪","koaza":"","lat":38.591958,"lng":140.708545,"zip":"9814200"},{"town":"字下野目清水田東","koaza":"","lat":38.57399,"lng":140.813149,"zip":"9814200"},{"town":"字鹿原照井","koaza":"","lat":38.578915,"lng":140.751091,"zip":"9814200"},{"town":"字原沢目田一番","koaza":"","lat":38.608011,"lng":140.729264,"zip":"9814200"},{"town":"字原大谷地","koaza":"","lat":38.608176,"lng":140.691334,"zip":"9814200"},{"town":"字一里塚","koaza":"","lat":38.572541,"lng":140.789806,"zip":"9814200"},{"town":"字上野目桑畑二番","koaza":"","lat":38.588091,"lng":140.721424,"zip":"9814200"},{"town":"字片貝川原別","koaza":"","lat":38.553169,"lng":140.860093,"zip":"9814200"},{"town":"字照井","koaza":"","lat":38.579802,"lng":140.757249,"zip":"9814200"},{"town":"字南町","koaza":"","lat":38.568618,"lng":140.857817,"zip":"9814200"},{"town":"字小瀬蟹沢","koaza":"","lat":38.599285,"lng":140.700852,"zip":"9814200"},{"town":"字中原","koaza":"","lat":38.582969,"lng":140.779743,"zip":"9814200"},{"town":"字北下原","koaza":"","lat":38.576713,"lng":140.786764,"zip":"9814200"},{"town":"字芋沢上清水川","koaza":"","lat":38.592941,"lng":140.71383,"zip":"9814200"},{"town":"字田中一番","koaza":"","lat":38.570626,"lng":140.791454,"zip":"9814200"},{"town":"字木伏川原外","koaza":"","lat":38.559522,"lng":140.854063,"zip":"9814200"},{"town":"字鹿原西野","koaza":"","lat":38.574285,"lng":140.751498,"zip":"9814200"},{"town":"字八石下","koaza":"","lat":38.575462,"lng":140.770831,"zip":"9814200"},{"town":"字鹿原川底下","koaza":"","lat":38.552645,"lng":140.739493,"zip":"9814200"},{"town":"字芋沢柳沢","koaza":"","lat":38.598539,"lng":140.695746,"zip":"9814200"},{"town":"字法昌寺前","koaza":"","lat":38.595608,"lng":140.731449,"zip":"9814200"},{"town":"字鹿原中村","koaza":"","lat":38.566476,"lng":140.731843,"zip":"9814200"},{"town":"字味ケ袋孫屋敷","koaza":"","lat":38.571117,"lng":140.721541,"zip":"9814200"},{"town":"字味ケ袋荒立","koaza":"","lat":38.58246,"lng":140.727222,"zip":"9814200"},{"town":"字薬師堂一番","koaza":"","lat":38.559558,"lng":140.858959,"zip":"9814200"},{"town":"字味ケ袋川原","koaza":"","lat":38.584421,"lng":140.73077,"zip":"9814200"},{"town":"字深草","koaza":"","lat":38.59435,"lng":140.732892,"zip":"9814200"},{"town":"字樋田","koaza":"","lat":38.57982,"lng":140.829614,"zip":"9814200"},{"town":"字芋沢楜畑一番","koaza":"","lat":38.587765,"lng":140.691398,"zip":"9814200"},{"town":"字味ケ袋新水沢","koaza":"","lat":38.581686,"lng":140.730986,"zip":"9814200"},{"town":"字中嶋堂屋敷","koaza":"","lat":38.570167,"lng":140.82532,"zip":"9814200"},{"town":"字鹿原東田","koaza":"","lat":38.568207,"lng":140.704334,"zip":"9814200"},{"town":"字長清水北","koaza":"","lat":38.596771,"lng":140.73342,"zip":"9814200"},{"town":"字芋沢下馬坂","koaza":"","lat":38.588471,"lng":140.69061,"zip":"9814200"},{"town":"字水芋西野","koaza":"","lat":38.599852,"lng":140.680552,"zip":"9814200"},{"town":"字鹿原家ノ下","koaza":"","lat":38.557603,"lng":140.722095,"zip":"9814200"},{"town":"字鹿原林際","koaza":"","lat":38.551425,"lng":140.728531,"zip":"9814200"},{"town":"字鹿原川袋","koaza":"","lat":38.568989,"lng":140.741205,"zip":"9814200"},{"town":"字町屋敷","koaza":"","lat":38.571684,"lng":140.783938,"zip":"9814200"},{"town":"字味ケ袋新志田","koaza":"","lat":38.580402,"lng":140.73259,"zip":"9814200"},{"town":"字鹿原下北村","koaza":"","lat":38.574266,"lng":140.753917,"zip":"9814200"},{"town":"字中嶋南原畑","koaza":"","lat":38.566183,"lng":140.823717,"zip":"9814200"},{"town":"字矢倉","koaza":"","lat":38.605076,"lng":140.728883,"zip":"9814200"},{"town":"字原鯨橋","koaza":"","lat":38.609909,"lng":140.697431,"zip":"9814200"},{"town":"字小瀬岩城上","koaza":"","lat":38.595192,"lng":140.714451,"zip":"9814200"},{"town":"字久保田","koaza":"","lat":38.575394,"lng":140.815397,"zip":"9814200"},{"town":"字下野目前川原南","koaza":"","lat":38.572696,"lng":140.817587,"zip":"9814200"},{"town":"字鹿原小田刈","koaza":"","lat":38.560497,"lng":140.734273,"zip":"9814200"},{"town":"字鹿原柏木林","koaza":"","lat":38.565067,"lng":140.721733,"zip":"9814200"},{"town":"字芋沢植村","koaza":"","lat":38.592193,"lng":140.711458,"zip":"9814200"},{"town":"字西田一番","koaza":"","lat":38.572967,"lng":140.854096,"zip":"9814200"},{"town":"字長町","koaza":"","lat":38.578808,"lng":140.817749,"zip":"9814200"},{"town":"字上野目向","koaza":"","lat":38.581492,"lng":140.73763,"zip":"9814200"},{"town":"字蓬田","koaza":"","lat":38.578712,"lng":140.829092,"zip":"9814200"},{"town":"字新木伏","koaza":"","lat":38.55569,"lng":140.852916,"zip":"9814200"},{"town":"字南寺宿","koaza":"","lat":38.576161,"lng":140.782788,"zip":"9814200"},{"town":"字寺西","koaza":"","lat":38.570544,"lng":140.779862,"zip":"9814200"},{"town":"字鹿原中畑","koaza":"","lat":38.558859,"lng":140.739329,"zip":"9814200"},{"town":"字芋沢馬ケ峰","koaza":"","lat":38.587984,"lng":140.716586,"zip":"9814200"},{"town":"字門沢宿","koaza":"","lat":38.603459,"lng":140.678741,"zip":"9814200"},{"town":"字新木ノ下","koaza":"","lat":38.569401,"lng":140.833663,"zip":"9814200"},{"town":"字原町南西屋敷","koaza":"","lat":38.585852,"lng":140.74569,"zip":"9814200"},{"town":"字漆沢野中","koaza":"","lat":38.573834,"lng":140.647406,"zip":"9814200"},{"town":"字鹿原互原","koaza":"","lat":38.57032,"lng":140.746026,"zip":"9814200"},{"town":"字鹿原中小田刈","koaza":"","lat":38.560117,"lng":140.73124,"zip":"9814200"},{"town":"字鹿原堰ノ沢","koaza":"","lat":38.564913,"lng":140.753791,"zip":"9814200"},{"town":"字長清水北雷屋敷","koaza":"","lat":38.594199,"lng":140.757796,"zip":"9814200"},{"town":"字掃留","koaza":"","lat":38.574262,"lng":140.767763,"zip":"9814200"},{"town":"字北町二番","koaza":"","lat":38.572975,"lng":140.862045,"zip":"9814200"},{"town":"字鹿原三五屋敷","koaza":"","lat":38.57895,"lng":140.748218,"zip":"9814200"},{"town":"字味ケ袋水沢","koaza":"","lat":38.581603,"lng":140.728647,"zip":"9814200"},{"town":"字鹿原川端","koaza":"","lat":38.567514,"lng":140.698867,"zip":"9814200"},{"town":"字上野原","koaza":"","lat":38.573129,"lng":140.786303,"zip":"9814200"},{"town":"字天王","koaza":"","lat":38.579264,"lng":140.820417,"zip":"9814200"},{"town":"字蟹沢","koaza":"","lat":38.585467,"lng":140.735422,"zip":"9814200"},{"town":"字鹿原坂下","koaza":"","lat":38.573553,"lng":140.737645,"zip":"9814200"},{"town":"字原南原","koaza":"","lat":38.598226,"lng":140.713513,"zip":"9814200"},{"town":"字八王子前","koaza":"","lat":38.569894,"lng":140.788099,"zip":"9814200"},{"town":"字久保","koaza":"","lat":38.578943,"lng":140.826023,"zip":"9814200"},{"town":"字味ケ袋上清水","koaza":"","lat":38.584164,"lng":140.727621,"zip":"9814200"},{"town":"字鹿原永沢一番","koaza":"","lat":38.56793,"lng":140.734584,"zip":"9814200"},{"town":"字上中川原","koaza":"","lat":38.573625,"lng":140.773339,"zip":"9814200"},{"town":"字鹿原山下","koaza":"","lat":38.568462,"lng":140.693244,"zip":"9814200"},{"town":"字水芋下窪","koaza":"","lat":38.602705,"lng":140.689014,"zip":"9814200"},{"town":"字鹿原西野西","koaza":"","lat":38.574279,"lng":140.747691,"zip":"9814200"},{"town":"字石原","koaza":"","lat":38.575333,"lng":140.790182,"zip":"9814200"},{"town":"字西町","koaza":"","lat":38.573358,"lng":140.856942,"zip":"9814200"},{"town":"字権現","koaza":"","lat":38.59472,"lng":140.722174,"zip":"9814200"},{"town":"字長清水北一番","koaza":"","lat":38.59701,"lng":140.737832,"zip":"9814200"},{"town":"字鹿原西原","koaza":"","lat":38.572198,"lng":140.744272,"zip":"9814200"},{"town":"字桑畑西","koaza":"","lat":38.590865,"lng":140.71913,"zip":"9814200"},{"town":"字上野目水沼向","koaza":"","lat":38.578792,"lng":140.743648,"zip":"9814200"},{"town":"字漆沢宇津野","koaza":"","lat":38.587088,"lng":140.652762,"zip":"9814200"},{"town":"字北ノ口東","koaza":"","lat":38.579595,"lng":140.80221,"zip":"9814200"},{"town":"字中畑","koaza":"","lat":38.575644,"lng":140.784319,"zip":"9814200"},{"town":"字上川原一番","koaza":"","lat":38.576796,"lng":140.843867,"zip":"9814200"},{"town":"字品沢","koaza":"","lat":38.576861,"lng":140.809863,"zip":"9814200"},{"town":"字芋沢二番","koaza":"","lat":38.590377,"lng":140.714849,"zip":"9814200"},{"town":"字鹿原中村西田","koaza":"","lat":38.573104,"lng":140.749637,"zip":"9814200"},{"town":"字原芳谷地","koaza":"","lat":38.588307,"lng":140.76927,"zip":"9814200"},{"town":"字新堂屋敷","koaza":"","lat":38.567975,"lng":140.826988,"zip":"9814200"},{"town":"字原諸畑","koaza":"","lat":38.596409,"lng":140.776524,"zip":"9814200"},{"town":"字鹿原長畑","koaza":"","lat":38.566683,"lng":140.687984,"zip":"9814200"},{"town":"字城内","koaza":"","lat":38.578845,"lng":140.769271,"zip":"9814200"},{"town":"字味ケ袋志田前","koaza":"","lat":38.579295,"lng":140.727181,"zip":"9814200"},{"town":"字百目木三番","koaza":"","lat":38.567006,"lng":140.855934,"zip":"9814200"},{"town":"字芋沢松阪","koaza":"","lat":38.595119,"lng":140.699281,"zip":"9814200"},{"town":"字漆沢森下","koaza":"","lat":38.573218,"lng":140.644895,"zip":"9814200"},{"town":"字漆沢宿尻","koaza":"","lat":38.580992,"lng":140.649633,"zip":"9814200"},{"town":"字芋沢勝山","koaza":"","lat":38.589904,"lng":140.711327,"zip":"9814200"},{"town":"字漆沢柏木","koaza":"","lat":38.590632,"lng":140.659542,"zip":"9814200"},{"town":"字鹿原水堀","koaza":"","lat":38.567705,"lng":140.744238,"zip":"9814200"},{"town":"字鹿原大畑","koaza":"","lat":38.560012,"lng":140.741852,"zip":"9814200"},{"town":"字鹿原鹿原","koaza":"","lat":38.571213,"lng":140.750633,"zip":"9814200"},{"town":"字南小路一番","koaza":"","lat":38.577979,"lng":140.766513,"zip":"9814200"},{"town":"字鹿原西畑","koaza":"","lat":38.559629,"lng":140.737055,"zip":"9814200"},{"town":"字押登目","koaza":"","lat":38.554081,"lng":140.852647,"zip":"9814200"},{"town":"字味ケ袋輪野","koaza":"","lat":38.578689,"lng":140.737426,"zip":"9814200"},{"town":"字前欠","koaza":"","lat":38.571188,"lng":140.772027,"zip":"9814200"},{"town":"字板橋北","koaza":"","lat":38.598855,"lng":140.727767,"zip":"9814200"},{"town":"字板橋南","koaza":"","lat":38.595824,"lng":140.726534,"zip":"9814200"},{"town":"字新諸畑一番","koaza":"","lat":38.596554,"lng":140.772186,"zip":"9814200"},{"town":"字宮田","koaza":"","lat":38.579357,"lng":140.823235,"zip":"9814200"},{"town":"字川原田","koaza":"","lat":38.574562,"lng":140.819638,"zip":"9814200"},{"town":"字原反目北","koaza":"","lat":38.602164,"lng":140.709519,"zip":"9814200"},{"town":"字漆沢休ヶ原","koaza":"","lat":38.570588,"lng":140.641909,"zip":"9814200"},{"town":"字新照井下","koaza":"","lat":38.578509,"lng":140.756201,"zip":"9814200"},{"town":"字鹿原坂下一番","koaza":"","lat":38.576582,"lng":140.739014,"zip":"9814200"},{"town":"字原反目","koaza":"","lat":38.601162,"lng":140.703643,"zip":"9814200"},{"town":"字田中前","koaza":"","lat":38.587591,"lng":140.730027,"zip":"9814200"},{"town":"字雷南","koaza":"","lat":38.590165,"lng":140.759415,"zip":"9814200"},{"town":"字鹿原掃出","koaza":"","lat":38.575207,"lng":140.760043,"zip":"9814200"},{"town":"字鹿原岩下","koaza":"","lat":38.566455,"lng":140.70371,"zip":"9814200"},{"town":"字漆沢宇ト沢","koaza":"","lat":38.594286,"lng":140.665774,"zip":"9814200"},{"town":"字小瀬屋敷","koaza":"","lat":38.597199,"lng":140.712328,"zip":"9814200"},{"town":"字鹿原南田","koaza":"","lat":38.568241,"lng":140.753472,"zip":"9814200"},{"town":"字味ケ袋打越","koaza":"","lat":38.581017,"lng":140.735223,"zip":"9814200"},{"town":"字仁平屋敷","koaza":"","lat":38.601352,"lng":140.724675,"zip":"9814200"},{"town":"字中嶋明神下","koaza":"","lat":38.571771,"lng":140.821376,"zip":"9814200"},{"town":"字鹿原向畑","koaza":"","lat":38.563337,"lng":140.747761,"zip":"9814200"},{"town":"字中嶋明膳","koaza":"","lat":38.568659,"lng":140.821842,"zip":"9814200"},{"town":"字上野目穴沢二番","koaza":"","lat":38.586027,"lng":140.720431,"zip":"9814200"},{"town":"字水芋薬師","koaza":"","lat":38.601485,"lng":140.685321,"zip":"9814200"},{"town":"字長清水南雷屋敷","koaza":"","lat":38.590493,"lng":140.763911,"zip":"9814200"},{"town":"字芋沢南平","koaza":"","lat":38.590912,"lng":140.701159,"zip":"9814200"},{"town":"字水芋屋敷","koaza":"","lat":38.602442,"lng":140.681943,"zip":"9814200"},{"town":"字鹿原小山","koaza":"","lat":38.572515,"lng":140.758578,"zip":"9814200"},{"town":"字旧舘一番","koaza":"","lat":38.564912,"lng":140.854991,"zip":"9814200"},{"town":"字鹿原北浦","koaza":"","lat":38.576752,"lng":140.752763,"zip":"9814200"},{"town":"字長檀","koaza":"","lat":38.576933,"lng":140.779476,"zip":"9814200"},{"town":"字田中二番","koaza":"","lat":38.569639,"lng":140.782974,"zip":"9814200"},{"town":"字板橋","koaza":"","lat":38.577026,"lng":140.803557,"zip":"9814200"},{"town":"字鹿原三杉川原","koaza":"","lat":38.558156,"lng":140.716744,"zip":"9814200"},{"town":"字田中浦","koaza":"","lat":38.591008,"lng":140.730602,"zip":"9814200"},{"town":"字下原","koaza":"","lat":38.57583,"lng":140.787832,"zip":"9814200"},{"town":"字矢倉西","koaza":"","lat":38.607634,"lng":140.724912,"zip":"9814200"},{"town":"字鹿原長畑一番","koaza":"","lat":38.565625,"lng":140.690374,"zip":"9814200"},{"town":"字町下","koaza":"","lat":38.573657,"lng":140.778458,"zip":"9814200"},{"town":"字鹿原下原","koaza":"","lat":38.575455,"lng":140.746902,"zip":"9814200"},{"town":"字上野目穴沢一番","koaza":"","lat":38.585046,"lng":140.723978,"zip":"9814200"},{"town":"字南小路","koaza":"","lat":38.577472,"lng":140.763457,"zip":"9814200"},{"town":"字鹿原南原","koaza":"","lat":38.564032,"lng":140.740667,"zip":"9814200"},{"town":"字滝下","koaza":"","lat":38.602942,"lng":140.702243,"zip":"9814200"},{"town":"字鹿原堰下","koaza":"","lat":38.563552,"lng":140.736724,"zip":"9814200"},{"town":"字中嶋大下","koaza":"","lat":38.571421,"lng":140.833413,"zip":"9814200"},{"town":"字原小長坂","koaza":"","lat":38.606025,"lng":140.698251,"zip":"9814200"},{"town":"字清水田","koaza":"","lat":38.573912,"lng":140.809286,"zip":"9814200"},{"town":"字台崎東","koaza":"","lat":38.603126,"lng":140.751217,"zip":"9814200"},{"town":"字新堀","koaza":"","lat":38.59253,"lng":140.727832,"zip":"9814200"},{"town":"字舘下","koaza":"","lat":38.571099,"lng":140.77525,"zip":"9814200"},{"town":"字芋沢小土山","koaza":"","lat":38.589656,"lng":140.704561,"zip":"9814200"},{"town":"字味ケ袋田野沢","koaza":"","lat":38.576602,"lng":140.732857,"zip":"9814200"},{"town":"字中原北","koaza":"","lat":38.58719,"lng":140.775097,"zip":"9814200"},{"town":"字鹿原札場","koaza":"","lat":38.57303,"lng":140.754655,"zip":"9814200"},{"town":"字鹿原川底","koaza":"","lat":38.550545,"lng":140.731822,"zip":"9814200"},{"town":"字伯治","koaza":"","lat":38.604411,"lng":140.694273,"zip":"9814200"},{"town":"字新小路","koaza":"","lat":38.57775,"lng":140.773584,"zip":"9814200"},{"town":"字松田","koaza":"","lat":38.602188,"lng":140.695756,"zip":"9814200"},{"town":"字鹿原日陰","koaza":"","lat":38.564627,"lng":140.713893,"zip":"9814200"},{"town":"字中嶋中里","koaza":"","lat":38.570816,"lng":140.829331,"zip":"9814200"},{"town":"字桑畑東","koaza":"","lat":38.58959,"lng":140.723928,"zip":"9814200"},{"town":"字木伏","koaza":"","lat":38.558276,"lng":140.853568,"zip":"9814200"},{"town":"字大曲","koaza":"","lat":38.602308,"lng":140.729054,"zip":"9814200"},{"town":"字鹿原田羅目記","koaza":"","lat":38.570626,"lng":140.694695,"zip":"9814200"},{"town":"字矢倉東","koaza":"","lat":38.604932,"lng":140.735713,"zip":"9814200"},{"town":"字薬師堂","koaza":"","lat":38.555263,"lng":140.86371,"zip":"9814200"},{"town":"字新空沼","koaza":"","lat":38.599628,"lng":140.751052,"zip":"9814200"},{"town":"字小瀬裏東","koaza":"","lat":38.597567,"lng":140.722004,"zip":"9814200"},{"town":"字鹿原川前一番","koaza":"","lat":38.560572,"lng":140.710065,"zip":"9814200"},{"town":"字長清水東","koaza":"","lat":38.595583,"lng":140.7486,"zip":"9814200"},{"town":"字門沢間坂","koaza":"","lat":38.599128,"lng":140.675799,"zip":"9814200"},{"town":"字鹿原滝ノ原","koaza":"","lat":38.560248,"lng":140.691693,"zip":"9814200"},{"town":"字鹿原川前","koaza":"","lat":38.561533,"lng":140.712965,"zip":"9814200"},{"town":"字皆伝寺","koaza":"","lat":38.588529,"lng":140.741137,"zip":"9814200"},{"town":"字鹿原赤坂原","koaza":"","lat":38.560286,"lng":140.723319,"zip":"9814200"},{"town":"字味ケ袋浦","koaza":"","lat":38.590065,"lng":140.735884,"zip":"9814200"},{"town":"字鹿原谷地袋","koaza":"","lat":38.563618,"lng":140.743574,"zip":"9814200"},{"town":"字八幡堂","koaza":"","lat":38.605543,"lng":140.725422,"zip":"9814200"},{"town":"字雷東","koaza":"","lat":38.591498,"lng":140.76962,"zip":"9814200"},{"town":"字原大谷地北浦","koaza":"","lat":38.609447,"lng":140.703601,"zip":"9814200"},{"town":"字鹿原北向","koaza":"","lat":38.566793,"lng":140.725765,"zip":"9814200"},{"town":"字保室","koaza":"","lat":38.583031,"lng":140.740748,"zip":"9814200"},{"town":"字漆沢蕨野","koaza":"","lat":38.58736,"lng":140.648218,"zip":"9814200"},{"town":"字水芋小石沢","koaza":"","lat":38.59695,"lng":140.679633,"zip":"9814200"},{"town":"字鹿原永沢","koaza":"","lat":38.570388,"lng":140.734922,"zip":"9814200"},{"town":"字鹿原鹿原一番","koaza":"","lat":38.567614,"lng":140.748607,"zip":"9814200"},{"town":"字大門","koaza":"","lat":38.576668,"lng":140.853225,"zip":"9814200"},{"town":"字台崎西","koaza":"","lat":38.604496,"lng":140.741598,"zip":"9814200"},{"town":"字原焼橋浦","koaza":"","lat":38.598151,"lng":140.765861,"zip":"9814200"},{"town":"字新雷北","koaza":"","lat":38.598796,"lng":140.756407,"zip":"9814200"},{"town":"字前田上","koaza":"","lat":38.571368,"lng":140.811821,"zip":"9814200"},{"town":"字鹿原新源城","koaza":"","lat":38.572898,"lng":140.740983,"zip":"9814200"},{"town":"字原焼橋東","koaza":"","lat":38.595995,"lng":140.764606,"zip":"9814200"},{"town":"字鹿原栗木平","koaza":"","lat":38.540806,"lng":140.672499,"zip":"9814200"},{"town":"字長清水中","koaza":"","lat":38.599321,"lng":140.739618,"zip":"9814200"},{"town":"字鹿原茨谷地","koaza":"","lat":38.558307,"lng":140.691421,"zip":"9814200"},{"town":"字水芋焼野","koaza":"","lat":38.597297,"lng":140.684489,"zip":"9814200"},{"town":"字長清水裏","koaza":"","lat":38.598033,"lng":140.744797,"zip":"9814200"},{"town":"字鹿原下川底山","koaza":"","lat":38.556818,"lng":140.749171,"zip":"9814200"},{"town":"字漆沢平","koaza":"","lat":38.586224,"lng":140.655731,"zip":"9814200"},{"town":"字鹿原南向","koaza":"","lat":38.563439,"lng":140.725865,"zip":"9814200"},{"town":"字新川原","koaza":"","lat":38.555933,"lng":140.858214,"zip":"9814200"},{"town":"字鹿原堰山","koaza":"","lat":38.564295,"lng":140.755597,"zip":"9814200"},{"town":"字原中谷地","koaza":"","lat":38.607276,"lng":140.697843,"zip":"9814200"},{"town":"字台崎","koaza":"","lat":38.603727,"lng":140.747011,"zip":"9814200"},{"town":"字照井浦","koaza":"","lat":38.581526,"lng":140.756735,"zip":"9814200"},{"town":"字鹿原昼ケ坂","koaza":"","lat":38.5663,"lng":140.715764,"zip":"9814200"},{"town":"字門沢大堤","koaza":"","lat":38.598579,"lng":140.66162,"zip":"9814200"},{"town":"字門沢山岸","koaza":"","lat":38.607495,"lng":140.688819,"zip":"9814200"},{"town":"字北ノ口前","koaza":"","lat":38.577527,"lng":140.797386,"zip":"9814200"},{"town":"字漆沢赤坂","koaza":"","lat":38.580485,"lng":140.652962,"zip":"9814200"},{"town":"字町東","koaza":"","lat":38.573102,"lng":140.79624,"zip":"9814200"},{"town":"字庄右衛門","koaza":"","lat":38.60216,"lng":140.71857,"zip":"9814200"},{"town":"字長清水西","koaza":"","lat":38.600785,"lng":140.734128,"zip":"9814200"},{"town":"字矢越","koaza":"","lat":38.574897,"lng":140.862311,"zip":"9814200"},{"town":"字小瀬裏","koaza":"","lat":38.599574,"lng":140.71519,"zip":"9814200"},{"town":"字西佳原","koaza":"","lat":38.572042,"lng":140.84887,"zip":"9814200"},{"town":"字鹿原岳山","koaza":"","lat":38.544972,"lng":140.62438,"zip":"9814200"},{"town":"字芋沢柳沢山","koaza":"","lat":38.598123,"lng":140.691645,"zip":"9814200"},{"town":"字町裏","koaza":"","lat":38.567823,"lng":140.861638,"zip":"9814200"},{"town":"字鹿原下台野","koaza":"","lat":38.559488,"lng":140.675342,"zip":"9814200"},{"town":"字鹿原峰山","koaza":"","lat":38.562966,"lng":140.714121,"zip":"9814200"},{"town":"字芋沢一番","koaza":"","lat":38.596429,"lng":140.703757,"zip":"9814200"},{"town":"字門沢安寺沢","koaza":"","lat":38.608181,"lng":140.668763,"zip":"9814200"},{"town":"沼ケ袋","koaza":"","lat":38.583227,"lng":140.823143,"zip":"9814416"},{"town":"字鹿原立板の原","koaza":"","lat":38.569894,"lng":140.72744,"zip":"9814200"},{"town":"字大宮","koaza":"","lat":38.582787,"lng":140.747983,"zip":"9814200"},{"town":"木舟","koaza":"","lat":38.593319,"lng":140.780401,"zip":"9814419"},{"town":"字前田下","koaza":"","lat":38.574979,"lng":140.828777,"zip":"9814200"},{"town":"字漆沢長坂","koaza":"","lat":38.592634,"lng":140.651731,"zip":"9814200"},{"town":"字長清水前","koaza":"","lat":38.593216,"lng":140.739922,"zip":"9814200"},{"town":"字漆沢筒砂子","koaza":"","lat":38.585628,"lng":140.640466,"zip":"9814200"},{"town":"字中原南","koaza":"","lat":38.581774,"lng":140.783057,"zip":"9814200"},{"town":"字鶴羽美","koaza":"","lat":38.578022,"lng":140.79356,"zip":"9814200"},{"town":"君ケ袋","koaza":"","lat":38.583008,"lng":140.810647,"zip":"9814417"},{"town":"字鹿原田手沼山","koaza":"","lat":38.533588,"lng":140.704379,"zip":"9814200"},{"town":"字鹿原上台","koaza":"","lat":38.556176,"lng":140.699907,"zip":"9814200"},{"town":"字鹿原田手沼","koaza":"","lat":38.53201,"lng":140.698448,"zip":"9814200"},{"town":"字鹿原下台","koaza":"","lat":38.559805,"lng":140.70372,"zip":"9814200"},{"town":"字門沢沼頭平","koaza":"","lat":38.600496,"lng":140.670914,"zip":"9814200"},{"town":"字鹿原田谷地","koaza":"","lat":38.551611,"lng":140.677624,"zip":"9814200"},{"town":"雑式目","koaza":"","lat":38.555521,"lng":140.893483,"zip":"9814200"},{"town":"字住吉","koaza":"","lat":38.563655,"lng":140.851587,"zip":"9814200"},{"town":"字芋沢森合","koaza":"","lat":38.579023,"lng":140.70454,"zip":"9814200"},{"town":"字雁原","koaza":"","lat":38.56983,"lng":140.873091,"zip":"9814200"},{"town":"字漆沢曲坂","koaza":"","lat":38.585484,"lng":140.662698,"zip":"9814200"},{"town":"字鹿原田谷地二ノ","koaza":"","lat":38.556898,"lng":140.682484,"zip":"9814200"},{"town":"字芋沢寺山","koaza":"","lat":38.594387,"lng":140.693746,"zip":"9814200"},{"town":"字赤塚","koaza":"","lat":38.561603,"lng":140.86162,"zip":"9814200"},{"town":"字鹿原上台野","koaza":"","lat":38.554389,"lng":140.668608,"zip":"9814200"},{"town":"字新南雷屋敷","koaza":"","lat":38.593969,"lng":140.753909,"zip":"9814200"},{"town":"字原八幡堂西一番","koaza":"","lat":38.607279,"lng":140.713282,"zip":"9814200"},{"town":"字漆沢石坂山","koaza":"","lat":38.594608,"lng":140.659692,"zip":"9814200"},{"town":"字漆沢楢実野","koaza":"","lat":38.588601,"lng":140.668053,"zip":"9814200"},{"town":"字鹿原薬莱山","koaza":"","lat":38.571033,"lng":140.703561,"zip":"9814200"},{"town":"字門沢内郷","koaza":"","lat":38.603212,"lng":140.6637,"zip":"9814200"},{"town":"字味ケ袋用水御林","koaza":"","lat":38.578834,"lng":140.722964,"zip":"9814200"},{"town":"字一本杉","koaza":"","lat":38.566631,"lng":140.869369,"zip":"9814200"},{"town":"字原町北","koaza":"","lat":38.589957,"lng":140.750157,"zip":"9814200"},{"town":"字水芋楢実野","koaza":"","lat":38.592431,"lng":140.67698,"zip":"9814200"},{"town":"字鹿原水花山","koaza":"","lat":38.550609,"lng":140.701606,"zip":"9814200"},{"town":"字高谷地","koaza":"","lat":38.583572,"lng":140.767695,"zip":"9814200"},{"town":"字原町東","koaza":"","lat":38.585776,"lng":140.760111,"zip":"9814200"},{"town":"字鹿原南滝庭","koaza":"","lat":38.562838,"lng":140.69634,"zip":"9814200"},{"town":"字鹿原長畑二ノ","koaza":"","lat":38.562785,"lng":140.676182,"zip":"9814200"},{"town":"下狼塚","koaza":"","lat":38.569461,"lng":140.881485,"zip":"9814212"},{"town":"字門沢狢株","koaza":"","lat":38.609357,"lng":140.678113,"zip":"9814200"},{"town":"字鹿原糸〆","koaza":"","lat":38.569064,"lng":140.683434,"zip":"9814200"},{"town":"城生","koaza":"","lat":38.58281,"lng":140.852661,"zip":"9814272"},{"town":"字原長谷地一番","koaza":"","lat":38.609319,"lng":140.718293,"zip":"9814200"},{"town":"字鹿原網ノ沢","koaza":"","lat":38.551192,"lng":140.693545,"zip":"9814200"},{"town":"字芋沢大又","koaza":"","lat":38.580566,"lng":140.676547,"zip":"9814200"},{"town":"字芋沢山口山","koaza":"","lat":38.58526,"lng":140.70997,"zip":"9814200"},{"town":"字芋沢峠","koaza":"","lat":38.587678,"lng":140.680273,"zip":"9814200"},{"town":"字鹿原実沢西向","koaza":"","lat":38.536577,"lng":140.71465,"zip":"9814200"},{"town":"字鹿原荒沢","koaza":"","lat":38.548749,"lng":140.664605,"zip":"9814200"},{"town":"羽場","koaza":"","lat":38.588113,"lng":140.846188,"zip":"9814271"},{"town":"字漆沢宮ケ森","koaza":"","lat":38.576108,"lng":140.640746,"zip":"9814200"},{"town":"字鹿原蜂森","koaza":"","lat":38.525474,"lng":140.708077,"zip":"9814200"},{"town":"字芋沢横欠","koaza":"","lat":38.576561,"lng":140.664086,"zip":"9814200"},{"town":"字鹿原滝西風山","koaza":"","lat":38.543329,"lng":140.681379,"zip":"9814200"},{"town":"字鹿原大日向","koaza":"","lat":38.536343,"lng":140.682404,"zip":"9814200"},{"town":"平柳","koaza":"","lat":38.567728,"lng":140.896572,"zip":"9814213"},{"town":"字麓山","koaza":"","lat":38.567603,"lng":140.77241,"zip":"9814200"},{"town":"字芋沢柏木平","koaza":"","lat":38.575449,"lng":140.682807,"zip":"9814200"},{"town":"字芋沢薬莱原","koaza":"","lat":38.580695,"lng":140.692422,"zip":"9814200"},{"town":"孫沢","koaza":"","lat":38.602163,"lng":140.817585,"zip":"9814414"},{"town":"字味ケ袋薬莱原","koaza":"","lat":38.576054,"lng":140.712007,"zip":"9814200"},{"town":"小泉","koaza":"","lat":38.585997,"lng":140.789474,"zip":"9814418"},{"town":"上狼塚","koaza":"","lat":38.584891,"lng":140.870107,"zip":"9814211"},{"town":"字漆沢大野","koaza":"","lat":38.565425,"lng":140.642122,"zip":"9814200"},{"town":"字鹿原川底上ノ原","koaza":"","lat":38.553717,"lng":140.751401,"zip":"9814200"},{"town":"月崎","koaza":"","lat":38.56738,"lng":140.796028,"zip":"9814312"},{"town":"鳥嶋","koaza":"","lat":38.605584,"lng":140.802204,"zip":"9814412"},{"town":"柳沢","koaza":"","lat":38.62138,"lng":140.777349,"zip":"9814403"},{"town":"字鹿原実沢","koaza":"","lat":38.533463,"lng":140.730941,"zip":"9814200"},{"town":"四日市場","koaza":"","lat":38.559875,"lng":140.875983,"zip":"9814221"},{"town":"下新田","koaza":"","lat":38.543842,"lng":140.88626,"zip":"9814222"},{"town":"鳥屋ケ崎","koaza":"","lat":38.602611,"lng":140.810144,"zip":"9814413"},{"town":"字鹿原上荒沢","koaza":"","lat":38.536292,"lng":140.650176,"zip":"9814200"},{"town":"米泉","koaza":"","lat":38.592598,"lng":140.831949,"zip":"9814415"},{"town":"字漆沢高畑","koaza":"","lat":38.566914,"lng":140.626131,"zip":"9814200"},{"town":"谷地森","koaza":"","lat":38.616931,"lng":140.786647,"zip":"9814411"},{"town":"字鹿原葡萄沢","koaza":"","lat":38.553137,"lng":140.647367,"zip":"9814200"},{"town":"菜切谷","koaza":"","lat":38.603669,"lng":140.845437,"zip":"9814203"},{"town":"下多田川","koaza":"","lat":38.636769,"lng":140.796243,"zip":"9814202"},{"town":"上多田川","koaza":"","lat":38.652432,"lng":140.802761,"zip":"9814201"},{"town":"北川内","koaza":"","lat":38.670363,"lng":140.733303,"zip":"9814402"},{"town":"宮崎","koaza":"","lat":38.644799,"lng":140.685069,"zip":"9814401"},{"town":"字鹿原水花","koaza":"","lat":38.552488,"lng":140.721158,"zip":"9814200"},{"town":"字鹿原欠ノ上","koaza":"","lat":38.553427,"lng":140.738435,"zip":"9814200"},{"town":"字鹿原下川底","koaza":"","lat":38.556435,"lng":140.746267,"zip":"9814200"},{"town":"字鹿原中野原","koaza":"","lat":38.558815,"lng":140.744588,"zip":"9814200"},{"town":"字鹿原新中野","koaza":"","lat":38.55727,"lng":140.742652,"zip":"9814200"},{"town":"字鹿原三杉北","koaza":"","lat":38.557775,"lng":140.732212,"zip":"9814200"},{"town":"字鹿原塚ノ沢山","koaza":"","lat":38.538421,"lng":140.694975,"zip":"9814200"},{"town":"字鹿原宇和野中峰","koaza":"","lat":38.54776,"lng":140.7054,"zip":"9814200"},{"town":"字鹿原塚ノ沢","koaza":"","lat":38.540165,"lng":140.702505,"zip":"9814200"},{"town":"字鹿原屋敷","koaza":"","lat":38.54279,"lng":140.707262,"zip":"9814200"},{"town":"字鹿原青野原中","koaza":"","lat":38.546298,"lng":140.718237,"zip":"9814200"},{"town":"字鹿原百刈田","koaza":"","lat":38.540849,"lng":140.711516,"zip":"9814200"},{"town":"字鹿原向山","koaza":"","lat":38.547306,"lng":140.72914,"zip":"9814200"},{"town":"字鹿原川ノ上","koaza":"","lat":38.54961,"lng":140.724172,"zip":"9814200"},{"town":"字鹿原青野原南","koaza":"","lat":38.545317,"lng":140.718436,"zip":"9814200"},{"town":"字鹿原青野欠ノ上","koaza":"","lat":38.544506,"lng":140.715806,"zip":"9814200"},{"town":"字鹿原内坪","koaza":"","lat":38.552971,"lng":140.733714,"zip":"9814200"},{"town":"字鹿原東原","koaza":"","lat":38.55366,"lng":140.736486,"zip":"9814200"},{"town":"字鹿原三杉","koaza":"","lat":38.555974,"lng":140.720445,"zip":"9814200"},{"town":"字鹿原三杉南","koaza":"","lat":38.554723,"lng":140.727535,"zip":"9814200"},{"town":"字鹿原三杉中","koaza":"","lat":38.556004,"lng":140.731162,"zip":"9814200"},{"town":"字鹿原浦山","koaza":"","lat":38.545727,"lng":140.709561,"zip":"9814200"},{"town":"字鹿原大松","koaza":"","lat":38.545709,"lng":140.715689,"zip":"9814200"},{"town":"字鹿原青野東田","koaza":"","lat":38.544514,"lng":140.712087,"zip":"9814200"},{"town":"羽場","koaza":"山鳥","lat":38.578273,"lng":140.846495,"zip":"9814271"},{"town":"米泉","koaza":"杷の木田","lat":38.580703,"lng":140.844188,"zip":"9814415"},{"town":"羽場","koaza":"屋敷前壱番","lat":38.582552,"lng":140.847367,"zip":"9814271"},{"town":"羽場","koaza":"屋敷","lat":38.583508,"lng":140.847343,"zip":"9814271"},{"town":"羽場","koaza":"屋敷前二番","lat":38.580935,"lng":140.847944,"zip":"9814271"},{"town":"羽場","koaza":"山鳥川原八番","lat":38.575274,"lng":140.847657,"zip":"9814271"},{"town":"羽場","koaza":"谷地奴加利","lat":38.584048,"lng":140.848351,"zip":"9814271"},{"town":"城生","koaza":"本道","lat":38.584392,"lng":140.849154,"zip":"9814272"},{"town":"羽場","koaza":"屋敷前三番","lat":38.580487,"lng":140.85046,"zip":"9814271"},{"town":"羽場","koaza":"山鳥川原六番","lat":38.577898,"lng":140.848746,"zip":"9814271"},{"town":"城生","koaza":"羽場境","lat":38.582299,"lng":140.849243,"zip":"9814272"},{"town":"羽場","koaza":"山鳥川原九番","lat":38.575043,"lng":140.849979,"zip":"9814271"},{"town":"城生","koaza":"羽場東三番","lat":38.585466,"lng":140.850016,"zip":"9814272"},{"town":"城生","koaza":"舘ノ内一番","lat":38.582297,"lng":140.851059,"zip":"9814272"},{"town":"城生","koaza":"後谷地","lat":38.583098,"lng":140.849677,"zip":"9814272"},{"town":"城生","koaza":"羽場東一番","lat":38.583445,"lng":140.850088,"zip":"9814272"},{"town":"城生","koaza":"羽場東二番","lat":38.584463,"lng":140.850061,"zip":"9814272"},{"town":"城生","koaza":"羽場東四番","lat":38.58622,"lng":140.85019,"zip":"9814272"},{"town":"城生","koaza":"舘ノ内","lat":38.581352,"lng":140.852393,"zip":"9814272"},{"town":"城生","koaza":"裏","lat":38.583077,"lng":140.852118,"zip":"9814272"},{"town":"城生","koaza":"前田","lat":38.579612,"lng":140.854609,"zip":"9814272"},{"town":"城生","koaza":"城生裏一番","lat":38.583375,"lng":140.853472,"zip":"9814272"},{"town":"城生","koaza":"城生裏二番","lat":38.584306,"lng":140.85445,"zip":"9814272"},{"town":"城生","koaza":"城生裏三番","lat":38.585566,"lng":140.854485,"zip":"9814272"},{"town":"城生","koaza":"奴加利","lat":38.581078,"lng":140.852302,"zip":"9814272"},{"town":"城生","koaza":"城生裏四番","lat":38.586026,"lng":140.854515,"zip":"9814272"},{"town":"城生","koaza":"寺作","lat":38.581647,"lng":140.853657,"zip":"9814272"},{"town":"城生","koaza":"裏二番","lat":38.583547,"lng":140.855695,"zip":"9814272"},{"town":"城生","koaza":"屋敷","lat":38.582094,"lng":140.855299,"zip":"9814272"},{"town":"城生","koaza":"苗代","lat":38.58133,"lng":140.856258,"zip":"9814272"},{"town":"菜切谷","koaza":"鍛治田","lat":38.586876,"lng":140.856587,"zip":"9814203"},{"town":"菜切谷","koaza":"山道一番","lat":38.587202,"lng":140.858356,"zip":"9814203"},{"town":"菜切谷","koaza":"山下","lat":38.583266,"lng":140.856341,"zip":"9814203"},{"town":"菜切谷","koaza":"四ツ谷","lat":38.585649,"lng":140.857503,"zip":"9814203"},{"town":"城生","koaza":"城生東","lat":38.581727,"lng":140.857688,"zip":"9814272"},{"town":"菜切谷","koaza":"西二番","lat":38.583202,"lng":140.85752,"zip":"9814203"},{"town":"菜切谷","koaza":"屋敷","lat":38.584979,"lng":140.85921,"zip":"9814203"},{"town":"菜切谷","koaza":"山道三番","lat":38.588134,"lng":140.859005,"zip":"9814203"},{"town":"城生","koaza":"金成","lat":38.577404,"lng":140.86373,"zip":"9814272"},{"town":"菜切谷","koaza":"山道二番","lat":38.589148,"lng":140.859148,"zip":"9814203"},{"town":"菜切谷","koaza":"出羽道二番","lat":38.590104,"lng":140.858619,"zip":"9814203"},{"town":"菜切谷","koaza":"正源","lat":38.579018,"lng":140.861185,"zip":"9814203"},{"town":"菜切谷","koaza":"菜切谷前","lat":38.579484,"lng":140.863805,"zip":"9814203"},{"town":"菜切谷","koaza":"前田","lat":38.580458,"lng":140.859184,"zip":"9814203"},{"town":"菜切谷","koaza":"大二番","lat":38.583088,"lng":140.859727,"zip":"9814203"},{"town":"菜切谷","koaza":"山道","lat":38.589774,"lng":140.859817,"zip":"9814203"},{"town":"菜切谷","koaza":"橋","lat":38.584551,"lng":140.860704,"zip":"9814203"},{"town":"字薬師堂","koaza":"二番","lat":38.556794,"lng":140.862907,"zip":"9814200"},{"town":"菜切谷","koaza":"清水","lat":38.586976,"lng":140.861362,"zip":"9814203"},{"town":"菜切谷","koaza":"清水一番","lat":38.586267,"lng":140.861695,"zip":"9814203"},{"town":"菜切谷","koaza":"西田","lat":38.582195,"lng":140.860249,"zip":"9814203"},{"town":"菜切谷","koaza":"大一番","lat":38.58114,"lng":140.862091,"zip":"9814203"},{"town":"菜切谷","koaza":"白畑","lat":38.58277,"lng":140.862678,"zip":"9814203"},{"town":"菜切谷","koaza":"土手","lat":38.582227,"lng":140.861727,"zip":"9814203"},{"town":"菜切谷","koaza":"下鎌","lat":38.580255,"lng":140.863839,"zip":"9814203"},{"town":"菜切谷","koaza":"苗代","lat":38.580546,"lng":140.861624,"zip":"9814203"},{"town":"菜切谷","koaza":"原","lat":38.594094,"lng":140.862554,"zip":"9814203"},{"town":"菜切谷","koaza":"滝川","lat":38.583802,"lng":140.862759,"zip":"9814203"},{"town":"菜切谷","koaza":"堤下","lat":38.591993,"lng":140.862437,"zip":"9814203"},{"town":"字町裏","koaza":"十番","lat":38.571395,"lng":140.86203,"zip":"9814200"},{"town":"上狼塚","koaza":"南北原","lat":38.588571,"lng":140.864722,"zip":"9814211"},{"town":"上狼塚","koaza":"東北原","lat":38.593197,"lng":140.865879,"zip":"9814211"},{"town":"菜切谷","koaza":"五俵","lat":38.584341,"lng":140.864032,"zip":"9814203"},{"town":"上狼塚","koaza":"中北原","lat":38.589656,"lng":140.866035,"zip":"9814211"},{"town":"菜切谷","koaza":"大堤西","lat":38.586195,"lng":140.86322,"zip":"9814203"},{"town":"上狼塚","koaza":"大堤東","lat":38.586384,"lng":140.863927,"zip":"9814211"},{"town":"菜切谷","koaza":"寺東","lat":38.582687,"lng":140.864479,"zip":"9814203"},{"town":"上狼塚","koaza":"大堤下","lat":38.585044,"lng":140.86472,"zip":"9814211"},{"town":"菜切谷","koaza":"東","lat":38.581929,"lng":140.86419,"zip":"9814203"},{"town":"上狼塚","koaza":"西","lat":38.582699,"lng":140.865483,"zip":"9814211"},{"town":"上狼塚","koaza":"西岡三番","lat":38.586048,"lng":140.865908,"zip":"9814211"},{"town":"上狼塚","koaza":"西畑","lat":38.58399,"lng":140.865772,"zip":"9814211"},{"town":"上狼塚","koaza":"烏田","lat":38.576011,"lng":140.868363,"zip":"9814211"},{"town":"上狼塚","koaza":"西岡一番","lat":38.584027,"lng":140.866899,"zip":"9814211"},{"town":"四日市場","koaza":"屋敷","lat":38.55503,"lng":140.866788,"zip":"9814221"},{"town":"上狼塚","koaza":"見渡","lat":38.581842,"lng":140.866781,"zip":"9814211"},{"town":"上狼塚","koaza":"新田前","lat":38.580407,"lng":140.870424,"zip":"9814211"},{"town":"四日市場","koaza":"御山浦","lat":38.559562,"lng":140.866951,"zip":"9814221"},{"town":"上狼塚","koaza":"西岡二番","lat":38.584995,"lng":140.867569,"zip":"9814211"},{"town":"上狼塚","koaza":"西岡","lat":38.581806,"lng":140.867723,"zip":"9814211"},{"town":"上狼塚","koaza":"舘裏","lat":38.586693,"lng":140.868801,"zip":"9814211"},{"town":"上狼塚","koaza":"新田裏一番","lat":38.584141,"lng":140.868912,"zip":"9814211"},{"town":"上狼塚","koaza":"舘西","lat":38.579432,"lng":140.868455,"zip":"9814211"},{"town":"上狼塚","koaza":"新田西","lat":38.582035,"lng":140.868737,"zip":"9814211"},{"town":"上狼塚","koaza":"苗代二番","lat":38.5815,"lng":140.870118,"zip":"9814211"},{"town":"上狼塚","koaza":"寺前","lat":38.577902,"lng":140.868852,"zip":"9814211"},{"town":"上狼塚","koaza":"前田","lat":38.576377,"lng":140.869625,"zip":"9814211"},{"town":"上狼塚","koaza":"苗代一番","lat":38.578918,"lng":140.871188,"zip":"9814211"},{"town":"上狼塚","koaza":"西宅地","lat":38.57919,"lng":140.86945,"zip":"9814211"},{"town":"上狼塚","koaza":"畑辺","lat":38.58201,"lng":140.870741,"zip":"9814211"},{"town":"上狼塚","koaza":"鹿嶋腰","lat":38.58371,"lng":140.869402,"zip":"9814211"},{"town":"上狼塚","koaza":"北舘","lat":38.5854,"lng":140.870355,"zip":"9814211"},{"town":"上狼塚","koaza":"新田裏","lat":38.583301,"lng":140.871369,"zip":"9814211"},{"town":"上狼塚","koaza":"仲ノ町","lat":38.575957,"lng":140.877561,"zip":"9814211"},{"town":"上狼塚","koaza":"東宅地辺","lat":38.57779,"lng":140.870785,"zip":"9814211"},{"town":"上狼塚","koaza":"永代地","lat":38.573519,"lng":140.875557,"zip":"9814211"},{"town":"上狼塚","koaza":"小関","lat":38.575081,"lng":140.875535,"zip":"9814211"},{"town":"上狼塚","koaza":"舘前","lat":38.58464,"lng":140.872479,"zip":"9814211"},{"town":"上狼塚","koaza":"嶋畑","lat":38.579183,"lng":140.871917,"zip":"9814211"},{"town":"四日市場","koaza":"柧木江","lat":38.563567,"lng":140.87413,"zip":"9814221"},{"town":"上狼塚","koaza":"東田","lat":38.577913,"lng":140.87553,"zip":"9814211"},{"town":"上狼塚","koaza":"道行檀","lat":38.582978,"lng":140.872351,"zip":"9814211"},{"town":"上狼塚","koaza":"新田東二番","lat":38.583401,"lng":140.872643,"zip":"9814211"},{"town":"上狼塚","koaza":"新田東","lat":38.581897,"lng":140.87301,"zip":"9814211"},{"town":"上狼塚","koaza":"熊野堂西前","lat":38.584382,"lng":140.872959,"zip":"9814211"},{"town":"上狼塚","koaza":"熊野堂前一番","lat":38.584368,"lng":140.873165,"zip":"9814211"},{"town":"上狼塚","koaza":"田中裏","lat":38.579371,"lng":140.873611,"zip":"9814211"},{"town":"上狼塚","koaza":"中島","lat":38.580916,"lng":140.87511,"zip":"9814211"},{"town":"四日市場","koaza":"鼓田","lat":38.566619,"lng":140.876608,"zip":"9814221"},{"town":"下狼塚","koaza":"観音堂","lat":38.567389,"lng":140.882122,"zip":"9814212"},{"town":"上狼塚","koaza":"八幡","lat":38.578885,"lng":140.87838,"zip":"9814211"},{"town":"上狼塚","koaza":"内八幡","lat":38.579461,"lng":140.877023,"zip":"9814211"},{"town":"上狼塚","koaza":"塩田","lat":38.574896,"lng":140.87705,"zip":"9814211"},{"town":"下狼塚","koaza":"西田","lat":38.574939,"lng":140.880746,"zip":"9814212"},{"town":"下狼塚","koaza":"田中","lat":38.569658,"lng":140.882952,"zip":"9814212"},{"town":"上狼塚","koaza":"水上","lat":38.573282,"lng":140.878541,"zip":"9814211"},{"town":"下狼塚","koaza":"宝田","lat":38.57605,"lng":140.881244,"zip":"9814212"},{"town":"下狼塚","koaza":"高川","lat":38.574653,"lng":140.882968,"zip":"9814212"},{"town":"下狼塚","koaza":"竹ノ花","lat":38.572529,"lng":140.882288,"zip":"9814212"},{"town":"下狼塚","koaza":"要害","lat":38.571547,"lng":140.883776,"zip":"9814212"},{"town":"下狼塚","koaza":"東中村","lat":38.572334,"lng":140.882939,"zip":"9814212"},{"town":"下狼塚","koaza":"平田","lat":38.566023,"lng":140.887773,"zip":"9814212"},{"town":"下狼塚","koaza":"渡戸","lat":38.569228,"lng":140.884964,"zip":"9814212"},{"town":"平柳","koaza":"鹿島","lat":38.573093,"lng":140.888951,"zip":"9814213"},{"town":"平柳","koaza":"城野","lat":38.569138,"lng":140.889183,"zip":"9814213"},{"town":"平柳","koaza":"上柳","lat":38.5703,"lng":140.885573,"zip":"9814213"},{"town":"平柳","koaza":"遠浦","lat":38.57108,"lng":140.885397,"zip":"9814213"},{"town":"平柳","koaza":"上柳東","lat":38.56794,"lng":140.887945,"zip":"9814213"},{"town":"下狼塚","koaza":"松原","lat":38.566377,"lng":140.889304,"zip":"9814212"},{"town":"平柳","koaza":"本屋敷","lat":38.566934,"lng":140.890601,"zip":"9814213"},{"town":"下狼塚","koaza":"籠田","lat":38.565607,"lng":140.890858,"zip":"9814212"},{"town":"平柳","koaza":"新堀前","lat":38.573329,"lng":140.891934,"zip":"9814213"},{"town":"平柳","koaza":"川南","lat":38.562237,"lng":140.897758,"zip":"9814213"},{"town":"平柳","koaza":"釜田","lat":38.564645,"lng":140.892875,"zip":"9814213"},{"town":"平柳","koaza":"谷地","lat":38.565537,"lng":140.897695,"zip":"9814213"},{"town":"平柳","koaza":"新田","lat":38.569872,"lng":140.899443,"zip":"9814213"},{"town":"平柳","koaza":"上新田","lat":38.57104,"lng":140.895543,"zip":"9814213"},{"town":"平柳","koaza":"行人","lat":38.562324,"lng":140.89554,"zip":"9814213"},{"town":"平柳","koaza":"横前浦","lat":38.564336,"lng":140.896537,"zip":"9814213"},{"town":"平柳","koaza":"上切替","lat":38.569457,"lng":140.89692,"zip":"9814213"},{"town":"平柳","koaza":"石堰","lat":38.565837,"lng":140.897764,"zip":"9814213"},{"town":"平柳","koaza":"六兵衛","lat":38.562877,"lng":140.899471,"zip":"9814213"},{"town":"平柳","koaza":"久根添","lat":38.562771,"lng":140.901246,"zip":"9814213"},{"town":"平柳","koaza":"矢ノ目浦","lat":38.562033,"lng":140.901474,"zip":"9814213"},{"town":"平柳","koaza":"下谷地","lat":38.565971,"lng":140.90445,"zip":"9814213"},{"town":"平柳","koaza":"馬場","lat":38.56936,"lng":140.901891,"zip":"9814213"},{"town":"平柳","koaza":"払樋","lat":38.56331,"lng":140.90437,"zip":"9814213"}]