[{"town":"小山三丁目","koaza":"","lat":38.16315,"lng":140.877432,"zip":"9811233"},{"town":"大手町六丁目","koaza":"","lat":38.171295,"lng":140.877185,"zip":"9811232"},{"town":"増田八丁目","koaza":"","lat":38.180771,"lng":140.883991,"zip":"9811224"},{"town":"閖上三丁目","koaza":"","lat":38.175015,"lng":140.953873,"zip":"9811213"},{"town":"小山二丁目","koaza":"","lat":38.164509,"lng":140.879452,"zip":"9811233"},{"town":"美田園一丁目","koaza":"","lat":38.161524,"lng":140.912914,"zip":"9811217"},{"town":"大手町二丁目","koaza":"","lat":38.167647,"lng":140.881781,"zip":"9811232"},{"town":"大手町一丁目","koaza":"","lat":38.169296,"lng":140.882081,"zip":"9811232"},{"town":"大手町三丁目","koaza":"","lat":38.165234,"lng":140.877523,"zip":"9811232"},{"town":"大手町五丁目","koaza":"","lat":38.169418,"lng":140.878302,"zip":"9811232"},{"town":"飯野坂七丁目","koaza":"","lat":38.154879,"lng":140.879657,"zip":"9811225"},{"town":"名取が丘六丁目","koaza":"","lat":38.153697,"lng":140.874263,"zip":"9811235"},{"town":"小山一丁目","koaza":"","lat":38.163456,"lng":140.881545,"zip":"9811233"},{"town":"増田六丁目","koaza":"","lat":38.178404,"lng":140.884158,"zip":"9811224"},{"town":"植松二丁目","koaza":"","lat":38.152842,"lng":140.879105,"zip":"9811226"},{"town":"増田九丁目","koaza":"","lat":38.180812,"lng":140.88814,"zip":"9811224"},{"town":"美田園四丁目","koaza":"","lat":38.156063,"lng":140.923455,"zip":"9811217"},{"town":"箱塚二丁目","koaza":"","lat":38.157953,"lng":140.870516,"zip":"9811234"},{"town":"相互台二丁目","koaza":"","lat":38.202239,"lng":140.807915,"zip":"9811246"},{"town":"大手町四丁目","koaza":"","lat":38.167477,"lng":140.878603,"zip":"9811232"},{"town":"相互台東二丁目","koaza":"","lat":38.212431,"lng":140.816615,"zip":"9811248"},{"town":"飯野坂四丁目","koaza":"","lat":38.16195,"lng":140.883709,"zip":"9811225"},{"town":"名取が丘二丁目","koaza":"","lat":38.15672,"lng":140.880619,"zip":"9811235"},{"town":"飯野坂二丁目","koaza":"","lat":38.161792,"lng":140.887196,"zip":"9811225"},{"town":"飯野坂六丁目","koaza":"","lat":38.157179,"lng":140.884735,"zip":"9811225"},{"town":"飯野坂三丁目","koaza":"","lat":38.157813,"lng":140.887067,"zip":"9811225"},{"town":"飯野坂五丁目","koaza":"","lat":38.160133,"lng":140.881756,"zip":"9811225"},{"town":"名取が丘五丁目","koaza":"","lat":38.155773,"lng":140.8702,"zip":"9811235"},{"town":"那智が丘五丁目","koaza":"","lat":38.197235,"lng":140.837753,"zip":"9811244"},{"town":"みどり台三丁目","koaza":"","lat":38.200409,"lng":140.839352,"zip":"9811247"},{"town":"増田四丁目","koaza":"","lat":38.175214,"lng":140.884373,"zip":"9811224"},{"town":"那智が丘三丁目","koaza":"","lat":38.192887,"lng":140.836581,"zip":"9811244"},{"town":"閖上六丁目","koaza":"","lat":38.17019,"lng":140.950583,"zip":"9811213"},{"town":"相互台四丁目","koaza":"","lat":38.207357,"lng":140.807231,"zip":"9811246"},{"town":"閖上七丁目","koaza":"","lat":38.173387,"lng":140.949566,"zip":"9811213"},{"town":"名取が丘三丁目","koaza":"","lat":38.154183,"lng":140.876424,"zip":"9811235"},{"town":"みどり台一丁目","koaza":"","lat":38.197199,"lng":140.833686,"zip":"9811247"},{"town":"那智が丘四丁目","koaza":"","lat":38.195276,"lng":140.83885,"zip":"9811244"},{"town":"飯野坂一丁目","koaza":"","lat":38.164603,"lng":140.885633,"zip":"9811225"},{"town":"増田七丁目","koaza":"","lat":38.178315,"lng":140.888156,"zip":"9811224"},{"town":"植松一丁目","koaza":"","lat":38.152688,"lng":140.883436,"zip":"9811226"},{"town":"名取が丘四丁目","koaza":"","lat":38.158302,"lng":140.875446,"zip":"9811235"},{"town":"名取が丘一丁目","koaza":"","lat":38.15972,"lng":140.879199,"zip":"9811235"},{"town":"植松三丁目","koaza":"","lat":38.147954,"lng":140.881067,"zip":"9811226"},{"town":"美田園七丁目","koaza":"","lat":38.160016,"lng":140.909159,"zip":"9811217"},{"town":"愛島台五丁目","koaza":"","lat":38.148116,"lng":140.811092,"zip":"9811251"},{"town":"増田三丁目","koaza":"","lat":38.171083,"lng":140.888194,"zip":"9811224"},{"town":"愛島台三丁目","koaza":"","lat":38.14524,"lng":140.81258,"zip":"9811251"},{"town":"増田二丁目","koaza":"","lat":38.170136,"lng":140.884578,"zip":"9811224"},{"town":"増田五丁目","koaza":"","lat":38.175397,"lng":140.888168,"zip":"9811224"},{"town":"那智が丘二丁目","koaza":"","lat":38.193098,"lng":140.840715,"zip":"9811244"},{"town":"みどり台二丁目","koaza":"","lat":38.198862,"lng":140.835384,"zip":"9811247"},{"town":"箱塚一丁目","koaza":"","lat":38.160372,"lng":140.87401,"zip":"9811234"},{"town":"相互台三丁目","koaza":"","lat":38.204033,"lng":140.805774,"zip":"9811246"},{"town":"美田園六丁目","koaza":"","lat":38.159132,"lng":140.913177,"zip":"9811217"},{"town":"閖上五丁目","koaza":"","lat":38.169393,"lng":140.953159,"zip":"9811213"},{"town":"ゆりが丘一丁目","koaza":"","lat":38.206962,"lng":140.830541,"zip":"9811245"},{"town":"ゆりが丘二丁目","koaza":"","lat":38.205001,"lng":140.832807,"zip":"9811245"},{"town":"相互台東一丁目","koaza":"","lat":38.208189,"lng":140.816233,"zip":"9811248"},{"town":"美田園三丁目","koaza":"","lat":38.157831,"lng":140.925893,"zip":"9811217"},{"town":"増田一丁目","koaza":"","lat":38.165934,"lng":140.887786,"zip":"9811224"},{"town":"閖上四丁目","koaza":"","lat":38.174544,"lng":140.956578,"zip":"9811213"},{"town":"閖上二丁目","koaza":"","lat":38.176941,"lng":140.951957,"zip":"9811213"},{"town":"美田園五丁目","koaza":"","lat":38.157675,"lng":140.918514,"zip":"9811217"},{"town":"愛島台六丁目","koaza":"","lat":38.147175,"lng":140.817294,"zip":"9811251"},{"town":"ゆりが丘三丁目","koaza":"","lat":38.203005,"lng":140.834087,"zip":"9811245"},{"town":"愛島台四丁目","koaza":"","lat":38.144331,"lng":140.807094,"zip":"9811251"},{"town":"相互台一丁目","koaza":"","lat":38.208115,"lng":140.810727,"zip":"9811246"},{"town":"閖上一丁目","koaza":"","lat":38.179902,"lng":140.947553,"zip":"9811213"},{"town":"植松四丁目","koaza":"","lat":38.144439,"lng":140.877881,"zip":"9811226"},{"town":"愛島台七丁目","koaza":"","lat":38.148687,"lng":140.821403,"zip":"9811251"},{"town":"ゆりが丘五丁目","koaza":"","lat":38.203,"lng":140.826033,"zip":"9811245"},{"town":"那智が丘一丁目","koaza":"","lat":38.197225,"lng":140.842452,"zip":"9811244"},{"town":"愛島台八丁目","koaza":"","lat":38.1501,"lng":140.831766,"zip":"9811251"},{"town":"愛島台一丁目","koaza":"","lat":38.142175,"lng":140.821845,"zip":"9811251"},{"town":"愛島台二丁目","koaza":"","lat":38.142973,"lng":140.816661,"zip":"9811251"},{"town":"ゆりが丘四丁目","koaza":"","lat":38.197679,"lng":140.827743,"zip":"9811245"},{"town":"大曲","koaza":"","lat":38.171307,"lng":140.917036,"zip":"9811216"},{"town":"高柳","koaza":"","lat":38.180761,"lng":140.920423,"zip":"9811211"},{"town":"田高","koaza":"","lat":38.182365,"lng":140.876961,"zip":"9811221"},{"town":"牛野","koaza":"","lat":38.16852,"lng":140.923944,"zip":"9811215"},{"town":"上余田","koaza":"","lat":38.184384,"lng":140.888481,"zip":"9811222"},{"town":"手倉田","koaza":"","lat":38.167688,"lng":140.87179,"zip":"9811231"},{"town":"愛島小豆島","koaza":"","lat":38.149851,"lng":140.869762,"zip":"9811236"},{"town":"閖上","koaza":"","lat":38.185152,"lng":140.938119,"zip":"9811213"},{"town":"堀内","koaza":"","lat":38.118688,"lng":140.881382,"zip":"9892412"},{"town":"杉ケ袋","koaza":"","lat":38.151118,"lng":140.917057,"zip":"9811214"},{"town":"下余田","koaza":"","lat":38.17873,"lng":140.903858,"zip":"9811223"},{"town":"小塚原","koaza":"","lat":38.172074,"lng":140.935321,"zip":"9811212"},{"town":"愛島北目","koaza":"","lat":38.139705,"lng":140.8438,"zip":"9811237"},{"town":"植松","koaza":"","lat":38.145232,"lng":140.893332,"zip":"9811226"},{"town":"本郷","koaza":"","lat":38.132599,"lng":140.883666,"zip":"9892411"},{"town":"高舘吉田","koaza":"","lat":38.186485,"lng":140.832655,"zip":"9811242"},{"town":"高舘川上","koaza":"","lat":38.171306,"lng":140.8019,"zip":"9811243"},{"town":"高舘熊野堂","koaza":"","lat":38.203351,"lng":140.850202,"zip":"9811241"},{"town":"美田園二丁目","koaza":"","lat":38.160328,"lng":140.919568,"zip":"9811217"},{"town":"美田園北","koaza":"","lat":38.16173,"lng":140.91817,"zip":"9811218"},{"town":"愛の杜一丁目","koaza":"","lat":38.15856,"lng":140.863748,"zip":"9811230"},{"town":"愛島塩手","koaza":"","lat":38.167314,"lng":140.839067,"zip":"9811239"},{"town":"愛島郷一丁目","koaza":"","lat":38.161518,"lng":140.856814,"zip":"9811240"},{"town":"愛の杜二丁目","koaza":"","lat":38.155733,"lng":140.862034,"zip":"9811230"},{"town":"愛島郷二丁目","koaza":"","lat":38.158011,"lng":140.856981,"zip":"9811240"},{"town":"愛島笠島","koaza":"","lat":38.153511,"lng":140.819695,"zip":"9811238"},{"town":"飯野坂","koaza":"","lat":38.154747,"lng":140.892847,"zip":"9811225"},{"town":"増田","koaza":"","lat":38.169684,"lng":140.896578,"zip":"9811224"},{"town":"下増田","koaza":"","lat":38.150697,"lng":140.93742,"zip":"9892401"},{"town":"美田園八丁目","koaza":"","lat":38.160536,"lng":140.905667,"zip":"9811217"},{"town":"杜せきのした五丁目","koaza":"","lat":38.163337,"lng":140.898277,"zip":"9811227"},{"town":"杜せきのした二丁目","koaza":"","lat":38.166077,"lng":140.896265,"zip":"9811227"},{"town":"杜せきのした一丁目","koaza":"","lat":38.167369,"lng":140.896576,"zip":"9811227"},{"town":"杜せきのした三丁目","koaza":"","lat":38.164847,"lng":140.900929,"zip":"9811227"},{"town":"杜せきのした四丁目","koaza":"","lat":38.163397,"lng":140.905145,"zip":"9811227"},{"town":"高舘熊野堂","koaza":"今成西","lat":38.213251,"lng":140.785392,"zip":"9811241"},{"town":"高舘熊野堂","koaza":"今成東","lat":38.217626,"lng":140.792122,"zip":"9811241"},{"town":"高舘熊野堂","koaza":"堀ノ瀬","lat":38.212587,"lng":140.795508,"zip":"9811241"},{"town":"高舘熊野堂","koaza":"中沢南山","lat":38.202681,"lng":140.797131,"zip":"9811241"},{"town":"高舘熊野堂","koaza":"今成北","lat":38.216994,"lng":140.796284,"zip":"9811241"},{"town":"高舘熊野堂","koaza":"中沢前","lat":38.200804,"lng":140.800767,"zip":"9811241"},{"town":"高舘川上","koaza":"薬師","lat":38.178605,"lng":140.819239,"zip":"9811243"},{"town":"高舘熊野堂","koaza":"太夫","lat":38.21204,"lng":140.801838,"zip":"9811241"},{"town":"高舘熊野堂","koaza":"中沢後","lat":38.204762,"lng":140.801757,"zip":"9811241"},{"town":"高舘熊野堂","koaza":"大沢","lat":38.200586,"lng":140.808402,"zip":"9811241"},{"town":"高舘熊野堂","koaza":"余方上西","lat":38.213462,"lng":140.813313,"zip":"9811241"},{"town":"高舘熊野堂","koaza":"棟沢","lat":38.198791,"lng":140.820047,"zip":"9811241"},{"town":"高舘熊野堂","koaza":"大沢中","lat":38.204411,"lng":140.811128,"zip":"9811241"},{"town":"愛島笠島","koaza":"東中峯","lat":38.155461,"lng":140.813423,"zip":"9811238"},{"town":"愛島笠島","koaza":"南中峯","lat":38.161809,"lng":140.815327,"zip":"9811238"},{"town":"高舘川上","koaza":"中薬師","lat":38.177297,"lng":140.813807,"zip":"9811243"},{"town":"高舘熊野堂","koaza":"余方川端","lat":38.217342,"lng":140.815725,"zip":"9811241"},{"town":"高舘熊野堂","koaza":"余方上","lat":38.214769,"lng":140.814811,"zip":"9811241"},{"town":"愛島笠島","koaza":"鈴ケ森","lat":38.1608,"lng":140.826076,"zip":"9811238"},{"town":"高舘熊野堂","koaza":"余方上東","lat":38.215358,"lng":140.818699,"zip":"9811241"},{"town":"高舘熊野堂","koaza":"余方中東","lat":38.213781,"lng":140.822865,"zip":"9811241"},{"town":"高舘熊野堂","koaza":"余方中","lat":38.215685,"lng":140.821219,"zip":"9811241"},{"town":"高舘熊野堂","koaza":"余方中西","lat":38.21528,"lng":140.819696,"zip":"9811241"},{"town":"高舘川上","koaza":"西樽水","lat":38.182041,"lng":140.825613,"zip":"9811243"},{"town":"高舘熊野堂","koaza":"余方下","lat":38.213834,"lng":140.826698,"zip":"9811241"},{"town":"愛島北目","koaza":"上柳沢","lat":38.13763,"lng":140.837794,"zip":"9811237"},{"town":"高舘熊野堂","koaza":"余方下東","lat":38.211944,"lng":140.831095,"zip":"9811241"},{"town":"愛島笠島","koaza":"中ノ沢","lat":38.157563,"lng":140.824617,"zip":"9811238"},{"town":"愛島笠島","koaza":"北南沢","lat":38.161345,"lng":140.834512,"zip":"9811238"},{"town":"高舘熊野堂","koaza":"五反田山","lat":38.210871,"lng":140.835314,"zip":"9811241"},{"town":"高舘川上","koaza":"長畑","lat":38.181895,"lng":140.837317,"zip":"9811243"},{"town":"愛島笠島","koaza":"南北沢","lat":38.149396,"lng":140.841282,"zip":"9811238"},{"town":"愛島塩手","koaza":"岩沢","lat":38.167401,"lng":140.838831,"zip":"9811239"},{"town":"高舘吉田","koaza":"舘山","lat":38.185123,"lng":140.836928,"zip":"9811242"},{"town":"愛島笠島","koaza":"西南沢","lat":38.157395,"lng":140.834866,"zip":"9811238"},{"town":"高舘熊野堂","koaza":"五反田","lat":38.206479,"lng":140.842067,"zip":"9811241"},{"town":"愛島笠島","koaza":"中南沢","lat":38.154379,"lng":140.835959,"zip":"9811238"},{"town":"愛島北目","koaza":"窪穴","lat":38.135344,"lng":140.838922,"zip":"9811237"},{"town":"高舘川上","koaza":"来光","lat":38.181775,"lng":140.850506,"zip":"9811243"},{"town":"愛島北目","koaza":"冷畑","lat":38.138919,"lng":140.838868,"zip":"9811237"},{"town":"高舘熊野堂","koaza":"岩口上","lat":38.204005,"lng":140.842547,"zip":"9811241"},{"town":"高舘吉田","koaza":"西真坂","lat":38.186703,"lng":140.842259,"zip":"9811242"},{"town":"愛島笠島","koaza":"上南沢","lat":38.156838,"lng":140.840261,"zip":"9811238"},{"town":"愛島笠島","koaza":"西北沢","lat":38.151728,"lng":140.841114,"zip":"9811238"},{"town":"高舘吉田","koaza":"上鹿野東","lat":38.193096,"lng":140.847185,"zip":"9811242"},{"town":"愛島北目","koaza":"柳沢","lat":38.139388,"lng":140.841555,"zip":"9811237"},{"town":"愛島笠島","koaza":"北小袋石","lat":38.148536,"lng":140.843463,"zip":"9811238"},{"town":"愛島笠島","koaza":"東南沢","lat":38.16157,"lng":140.842941,"zip":"9811238"},{"town":"愛島笠島","koaza":"北沢","lat":38.149027,"lng":140.842227,"zip":"9811238"},{"town":"愛島北目","koaza":"石沢","lat":38.137341,"lng":140.842157,"zip":"9811237"},{"town":"愛島笠島","koaza":"東北沢","lat":38.153332,"lng":140.842087,"zip":"9811238"},{"town":"愛島塩手","koaza":"西滝沢","lat":38.167908,"lng":140.84258,"zip":"9811239"},{"town":"愛島笠島","koaza":"北岩下","lat":38.158944,"lng":140.841049,"zip":"9811238"},{"town":"愛島笠島","koaza":"東高森","lat":38.145122,"lng":140.843318,"zip":"9811238"},{"town":"愛島塩手","koaza":"仮宿","lat":38.166224,"lng":140.846096,"zip":"9811239"},{"town":"愛島北目","koaza":"柚木","lat":38.135701,"lng":140.842588,"zip":"9811237"},{"town":"高舘川上","koaza":"五性寺","lat":38.184135,"lng":140.847806,"zip":"9811243"},{"town":"愛島笠島","koaza":"上北沢","lat":38.155441,"lng":140.843003,"zip":"9811238"},{"town":"愛島笠島","koaza":"東国見","lat":38.146512,"lng":140.842816,"zip":"9811238"},{"town":"愛島北目","koaza":"神子ノ入","lat":38.14085,"lng":140.843937,"zip":"9811237"},{"town":"愛島北目","koaza":"神明裏","lat":38.136654,"lng":140.842201,"zip":"9811237"},{"town":"愛島北目","koaza":"柚木前","lat":38.134464,"lng":140.844734,"zip":"9811237"},{"town":"高舘川上","koaza":"東金剛寺","lat":38.174631,"lng":140.849304,"zip":"9811243"},{"town":"愛島笠島","koaza":"南小袋石","lat":38.149884,"lng":140.846369,"zip":"9811238"},{"town":"愛島北目","koaza":"諏訪前","lat":38.13788,"lng":140.843943,"zip":"9811237"},{"town":"愛島北目","koaza":"竹ノ内","lat":38.139515,"lng":140.846401,"zip":"9811237"},{"town":"愛島笠島","koaza":"西蔵神","lat":38.150105,"lng":140.843948,"zip":"9811238"},{"town":"愛島北目","koaza":"山口","lat":38.139773,"lng":140.844825,"zip":"9811237"},{"town":"愛島北目","koaza":"向山","lat":38.142351,"lng":140.845163,"zip":"9811237"},{"town":"愛島笠島","koaza":"下ノ妻","lat":38.155747,"lng":140.844242,"zip":"9811238"},{"town":"愛島笠島","koaza":"蔵神","lat":38.151484,"lng":140.84454,"zip":"9811238"},{"town":"高舘川上","koaza":"朝町","lat":38.183229,"lng":140.846173,"zip":"9811243"},{"town":"高舘熊野堂","koaza":"岩口下","lat":38.198402,"lng":140.849443,"zip":"9811241"},{"town":"愛島北目","koaza":"清水","lat":38.143549,"lng":140.845999,"zip":"9811237"},{"town":"愛島北目","koaza":"切通","lat":38.136858,"lng":140.845507,"zip":"9811237"},{"town":"愛島北目","koaza":"八幡前","lat":38.13551,"lng":140.845243,"zip":"9811237"},{"town":"高舘熊野堂","koaza":"大門山","lat":38.199708,"lng":140.845739,"zip":"9811241"},{"town":"愛島笠島","koaza":"西小袋石","lat":38.151413,"lng":140.846111,"zip":"9811238"},{"town":"愛島塩手","koaza":"北野","lat":38.171573,"lng":140.853871,"zip":"9811239"},{"town":"愛島北目","koaza":"入","lat":38.140324,"lng":140.845769,"zip":"9811237"},{"town":"愛島北目","koaza":"宿前","lat":38.141161,"lng":140.846328,"zip":"9811237"},{"town":"愛島笠島","koaza":"西上平","lat":38.146638,"lng":140.846385,"zip":"9811238"},{"town":"高舘吉田","koaza":"東真坂","lat":38.186868,"lng":140.849246,"zip":"9811242"},{"town":"愛島北目","koaza":"財蔵前","lat":38.134143,"lng":140.845791,"zip":"9811237"},{"town":"愛島笠島","koaza":"西台","lat":38.159283,"lng":140.8478,"zip":"9811238"},{"town":"高舘熊野堂","koaza":"岩口南","lat":38.195365,"lng":140.848761,"zip":"9811241"},{"town":"愛島笠島","koaza":"表","lat":38.147133,"lng":140.846546,"zip":"9811238"},{"town":"高舘吉田","koaza":"鹿東","lat":38.18897,"lng":140.848785,"zip":"9811242"},{"town":"愛島北目","koaza":"切通前","lat":38.135993,"lng":140.846594,"zip":"9811237"},{"town":"愛島笠島","koaza":"鳥井崎","lat":38.156279,"lng":140.847711,"zip":"9811238"},{"town":"愛島北目","koaza":"内堀子","lat":38.142561,"lng":140.84675,"zip":"9811237"},{"town":"高舘熊野堂","koaza":"岩口中","lat":38.20183,"lng":140.847079,"zip":"9811241"},{"town":"愛島笠島","koaza":"桜町","lat":38.152593,"lng":140.847814,"zip":"9811238"},{"town":"愛島笠島","koaza":"北上平","lat":38.148992,"lng":140.84785,"zip":"9811238"},{"town":"愛島笠島","koaza":"上平","lat":38.148615,"lng":140.848718,"zip":"9811238"},{"town":"愛島北目","koaza":"山崎","lat":38.142507,"lng":140.8483,"zip":"9811237"},{"town":"愛島塩手","koaza":"十石上","lat":38.16454,"lng":140.850743,"zip":"9811239"},{"town":"愛島塩手","koaza":"東滝沢","lat":38.167222,"lng":140.848486,"zip":"9811239"},{"town":"愛島笠島","koaza":"東蔵神","lat":38.150402,"lng":140.84839,"zip":"9811238"},{"town":"愛島笠島","koaza":"北台","lat":38.161498,"lng":140.849529,"zip":"9811238"},{"town":"愛島笠島","koaza":"西鳥井崎","lat":38.155535,"lng":140.848617,"zip":"9811238"},{"town":"愛島北目","koaza":"南田","lat":38.134278,"lng":140.852337,"zip":"9811237"},{"town":"愛島笠島","koaza":"西表前","lat":38.145355,"lng":140.84904,"zip":"9811238"},{"town":"愛島笠島","koaza":"東上平","lat":38.146809,"lng":140.849041,"zip":"9811238"},{"town":"愛島笠島","koaza":"南弁天","lat":38.150317,"lng":140.848836,"zip":"9811238"},{"town":"愛島北目","koaza":"稔田","lat":38.141609,"lng":140.849083,"zip":"9811237"},{"town":"愛島笠島","koaza":"弁天","lat":38.150894,"lng":140.849136,"zip":"9811238"},{"town":"愛島笠島","koaza":"学市","lat":38.150931,"lng":140.85031,"zip":"9811238"},{"town":"高舘熊野堂","koaza":"飛鳥","lat":38.200663,"lng":140.851934,"zip":"9811241"},{"town":"愛島笠島","koaza":"南台","lat":38.157568,"lng":140.850721,"zip":"9811238"},{"town":"高舘熊野堂","koaza":"飛鳥西","lat":38.200752,"lng":140.849825,"zip":"9811241"},{"town":"高舘川上","koaza":"西北畑","lat":38.185767,"lng":140.850446,"zip":"9811243"},{"town":"愛島笠島","koaza":"向田","lat":38.145078,"lng":140.850008,"zip":"9811238"},{"town":"愛島笠島","koaza":"北鳥井崎","lat":38.155885,"lng":140.850919,"zip":"9811238"},{"town":"高舘川上","koaza":"八反","lat":38.182759,"lng":140.853347,"zip":"9811243"},{"town":"高舘川上","koaza":"北台","lat":38.176591,"lng":140.853071,"zip":"9811243"},{"town":"愛島笠島","koaza":"野田","lat":38.163074,"lng":140.850843,"zip":"9811238"},{"town":"高舘熊野堂","koaza":"谷地前下","lat":38.194524,"lng":140.851163,"zip":"9811241"},{"town":"愛島笠島","koaza":"一本木","lat":38.14872,"lng":140.85151,"zip":"9811238"},{"town":"高舘吉田","koaza":"下鹿野東","lat":38.188487,"lng":140.852885,"zip":"9811242"},{"town":"高舘川上","koaza":"東北畑","lat":38.185213,"lng":140.852367,"zip":"9811243"},{"town":"愛島塩手","koaza":"十石中","lat":38.166193,"lng":140.851423,"zip":"9811239"},{"town":"高舘熊野堂","koaza":"土手下","lat":38.195968,"lng":140.852322,"zip":"9811241"},{"town":"愛島塩手","koaza":"西野田","lat":38.164489,"lng":140.854538,"zip":"9811239"},{"town":"高舘熊野堂","koaza":"舞台中","lat":38.197891,"lng":140.854087,"zip":"9811241"},{"town":"愛島笠島","koaza":"泉","lat":38.154984,"lng":140.852653,"zip":"9811238"},{"town":"高舘熊野堂","koaza":"飛鳥上","lat":38.200434,"lng":140.854901,"zip":"9811241"},{"town":"高舘熊野堂","koaza":"舞台上","lat":38.196692,"lng":140.853299,"zip":"9811241"},{"town":"高舘川上","koaza":"南台","lat":38.173302,"lng":140.854838,"zip":"9811243"},{"town":"愛島笠島","koaza":"西小泉","lat":38.158275,"lng":140.853027,"zip":"9811238"},{"town":"高舘吉田","koaza":"長六反","lat":38.188916,"lng":140.855559,"zip":"9811242"},{"town":"高舘熊野堂","koaza":"八ツ口","lat":38.201117,"lng":140.857074,"zip":"9811241"},{"town":"愛島塩手","koaza":"野田","lat":38.164665,"lng":140.855889,"zip":"9811239"},{"town":"高舘吉田","koaza":"真坂","lat":38.185741,"lng":140.854776,"zip":"9811242"},{"town":"高舘熊野堂","koaza":"飛鳥中","lat":38.199278,"lng":140.856668,"zip":"9811241"},{"town":"愛島塩手","koaza":"十石下","lat":38.166688,"lng":140.855144,"zip":"9811239"},{"town":"高舘吉田","koaza":"南土手下","lat":38.188223,"lng":140.854957,"zip":"9811242"},{"town":"高舘熊野堂","koaza":"八ツ口前","lat":38.202013,"lng":140.861107,"zip":"9811241"},{"town":"高舘川上","koaza":"小佐治","lat":38.183232,"lng":140.855205,"zip":"9811243"},{"town":"高舘吉田","koaza":"内舘","lat":38.185683,"lng":140.85616,"zip":"9811242"},{"town":"高舘川上","koaza":"鴻ノ巣","lat":38.17624,"lng":140.858045,"zip":"9811243"},{"town":"高舘川上","koaza":"台","lat":38.173023,"lng":140.857748,"zip":"9811243"},{"town":"高舘吉田","koaza":"二丁町","lat":38.190253,"lng":140.857388,"zip":"9811242"},{"town":"高舘吉田","koaza":"乗馬","lat":38.193896,"lng":140.859275,"zip":"9811242"},{"town":"愛島北目","koaza":"吉田","lat":38.134287,"lng":140.856648,"zip":"9811237"},{"town":"愛島北目","koaza":"高野目","lat":38.133239,"lng":140.857031,"zip":"9811237"},{"town":"愛島塩手","koaza":"野田山","lat":38.167492,"lng":140.859673,"zip":"9811239"},{"town":"高舘川上","koaza":"青木田","lat":38.178277,"lng":140.85788,"zip":"9811243"},{"town":"愛島塩手","koaza":"東野田","lat":38.16388,"lng":140.858835,"zip":"9811239"},{"town":"愛島笠島","koaza":"宮下","lat":38.14998,"lng":140.857921,"zip":"9811238"},{"town":"愛島笠島","koaza":"東宮下","lat":38.150427,"lng":140.857851,"zip":"9811238"},{"town":"愛島北目","koaza":"上原","lat":38.133772,"lng":140.858448,"zip":"9811237"},{"town":"高舘吉田","koaza":"深町","lat":38.179855,"lng":140.85809,"zip":"9811242"},{"town":"高舘吉田","koaza":"西内舘","lat":38.185952,"lng":140.859533,"zip":"9811242"},{"town":"高舘吉田","koaza":"南二丁町","lat":38.187791,"lng":140.860045,"zip":"9811242"},{"town":"愛島笠島","koaza":"南東宮下","lat":38.151528,"lng":140.85869,"zip":"9811238"},{"town":"愛島塩手","koaza":"上田","lat":38.168686,"lng":140.860625,"zip":"9811239"},{"town":"愛島北目","koaza":"北樋","lat":38.135076,"lng":140.859209,"zip":"9811237"},{"town":"高舘吉田","koaza":"西二丁町","lat":38.189172,"lng":140.86124,"zip":"9811242"},{"town":"高舘吉田","koaza":"前内舘","lat":38.185981,"lng":140.859082,"zip":"9811242"},{"town":"高舘川上","koaza":"西荒井","lat":38.172594,"lng":140.86036,"zip":"9811243"},{"town":"愛島北目","koaza":"下原","lat":38.134391,"lng":140.860174,"zip":"9811237"},{"town":"高舘吉田","koaza":"東二丁町","lat":38.186689,"lng":140.86081,"zip":"9811242"},{"town":"高舘川上","koaza":"西本木","lat":38.174147,"lng":140.861223,"zip":"9811243"},{"town":"愛島小豆島","koaza":"宇賀崎","lat":38.151523,"lng":140.863989,"zip":"9811236"},{"town":"愛島小豆島","koaza":"五郎市","lat":38.153425,"lng":140.861914,"zip":"9811236"},{"town":"高舘吉田","koaza":"西窪田","lat":38.191805,"lng":140.862269,"zip":"9811242"},{"town":"愛島北目","koaza":"東田","lat":38.133968,"lng":140.862237,"zip":"9811237"},{"town":"高舘川上","koaza":"中本木","lat":38.174862,"lng":140.861334,"zip":"9811243"},{"town":"高舘川上","koaza":"本木","lat":38.173788,"lng":140.862642,"zip":"9811243"},{"town":"愛島小豆島","koaza":"松崎","lat":38.151987,"lng":140.863105,"zip":"9811236"},{"town":"高舘吉田","koaza":"東内舘","lat":38.185671,"lng":140.865042,"zip":"9811242"},{"town":"愛島塩手","koaza":"中田","lat":38.168229,"lng":140.864153,"zip":"9811239"},{"town":"高舘吉田","koaza":"窪田","lat":38.192088,"lng":140.86404,"zip":"9811242"},{"town":"高舘吉田","koaza":"吉合","lat":38.179824,"lng":140.865798,"zip":"9811242"},{"town":"高舘吉田","koaza":"松木下","lat":38.18327,"lng":140.864784,"zip":"9811242"},{"town":"高舘吉田","koaza":"宮神明","lat":38.185239,"lng":140.868891,"zip":"9811242"},{"town":"手倉田","koaza":"志村","lat":38.166152,"lng":140.866357,"zip":"9811231"},{"town":"高舘吉田","koaza":"北宮神明","lat":38.189028,"lng":140.866192,"zip":"9811242"},{"town":"高舘吉田","koaza":"中在家","lat":38.181905,"lng":140.867904,"zip":"9811242"},{"town":"愛島小豆島","koaza":"山ノ前","lat":38.153479,"lng":140.867727,"zip":"9811236"},{"town":"手倉田","koaza":"山","lat":38.160553,"lng":140.871271,"zip":"9811231"},{"town":"愛島塩手","koaza":"下田","lat":38.168513,"lng":140.867395,"zip":"9811239"},{"town":"愛島小豆島","koaza":"島","lat":38.152457,"lng":140.868434,"zip":"9811236"},{"town":"愛島小豆島","koaza":"末無窪","lat":38.158005,"lng":140.867668,"zip":"9811236"},{"town":"高舘吉田","koaza":"南吉合","lat":38.179053,"lng":140.868095,"zip":"9811242"},{"town":"高舘吉田","koaza":"前沖","lat":38.178108,"lng":140.871418,"zip":"9811242"},{"town":"手倉田","koaza":"諏訪","lat":38.167954,"lng":140.873208,"zip":"9811231"},{"town":"高舘吉田","koaza":"東中在家","lat":38.181696,"lng":140.870423,"zip":"9811242"},{"town":"愛島小豆島","koaza":"島東","lat":38.150989,"lng":140.872552,"zip":"9811236"},{"town":"手倉田","koaza":"堰根","lat":38.173707,"lng":140.873179,"zip":"9811231"},{"town":"本郷","koaza":"西六軒","lat":38.136186,"lng":140.872317,"zip":"9892411"},{"town":"愛島小豆島","koaza":"清水坂","lat":38.152322,"lng":140.873055,"zip":"9811236"},{"town":"田高","koaza":"原","lat":38.180137,"lng":140.876064,"zip":"9811221"},{"town":"植松","koaza":"西向","lat":38.142923,"lng":140.872602,"zip":"9811226"},{"town":"田高","koaza":"清水","lat":38.185598,"lng":140.875537,"zip":"9811221"},{"town":"手倉田","koaza":"箱塚屋敷","lat":38.163813,"lng":140.873602,"zip":"9811231"},{"town":"高舘吉田","koaza":"野来","lat":38.179296,"lng":140.872952,"zip":"9811242"},{"town":"田高","koaza":"神明","lat":38.188413,"lng":140.875704,"zip":"9811221"},{"town":"本郷","koaza":"東六軒","lat":38.137125,"lng":140.874948,"zip":"9892411"},{"town":"本郷","koaza":"二間橋","lat":38.127193,"lng":140.873329,"zip":"9892411"},{"town":"本郷","koaza":"観音","lat":38.129181,"lng":140.874386,"zip":"9892411"},{"town":"手倉田","koaza":"八幡","lat":38.173405,"lng":140.878128,"zip":"9811231"},{"town":"堀内","koaza":"北竹","lat":38.123806,"lng":140.874192,"zip":"9892412"},{"town":"堀内","koaza":"南竹","lat":38.117635,"lng":140.877484,"zip":"9892412"},{"town":"本郷","koaza":"町田","lat":38.127998,"lng":140.875859,"zip":"9892411"},{"town":"本郷","koaza":"大門","lat":38.129763,"lng":140.876884,"zip":"9892411"},{"town":"植松","koaza":"中向","lat":38.141581,"lng":140.876431,"zip":"9811226"},{"town":"田高","koaza":"南","lat":38.181221,"lng":140.880116,"zip":"9811221"},{"town":"本郷","koaza":"焼野","lat":38.13431,"lng":140.877599,"zip":"9892411"},{"town":"植松","koaza":"山","lat":38.149084,"lng":140.879101,"zip":"9811226"},{"town":"愛島小豆島","koaza":"片平山","lat":38.150797,"lng":140.877176,"zip":"9811236"},{"town":"堀内","koaza":"南","lat":38.112842,"lng":140.881202,"zip":"9892412"},{"town":"堀内","koaza":"梅","lat":38.11605,"lng":140.880489,"zip":"9892412"},{"town":"本郷","koaza":"三合田","lat":38.134522,"lng":140.881798,"zip":"9892411"},{"town":"植松","koaza":"新橋","lat":38.139224,"lng":140.87886,"zip":"9811226"},{"town":"上余田","koaza":"西田","lat":38.186403,"lng":140.881469,"zip":"9811222"},{"town":"本郷","koaza":"矢口","lat":38.128777,"lng":140.880472,"zip":"9892411"},{"town":"堀内","koaza":"鶴","lat":38.121684,"lng":140.882014,"zip":"9892412"},{"town":"堀内","koaza":"亀","lat":38.125815,"lng":140.882667,"zip":"9892412"},{"town":"植松","koaza":"錦田","lat":38.142161,"lng":140.881363,"zip":"9811226"},{"town":"植松","koaza":"宮島","lat":38.145315,"lng":140.882856,"zip":"9811226"},{"town":"上余田","koaza":"市坪","lat":38.186176,"lng":140.884695,"zip":"9811222"},{"town":"植松","koaza":"田野部","lat":38.147965,"lng":140.884236,"zip":"9811226"},{"town":"植松","koaza":"入生","lat":38.151749,"lng":140.886792,"zip":"9811226"},{"town":"上余田","koaza":"仰見","lat":38.189829,"lng":140.88413,"zip":"9811222"},{"town":"植松","koaza":"宿前","lat":38.139675,"lng":140.886538,"zip":"9811226"},{"town":"上余田","koaza":"千刈田","lat":38.185701,"lng":140.889492,"zip":"9811222"},{"town":"飯野坂","koaza":"土城堀","lat":38.155336,"lng":140.888444,"zip":"9811225"},{"town":"飯野坂","koaza":"土府","lat":38.158312,"lng":140.888609,"zip":"9811225"},{"town":"飯野坂","koaza":"南沖","lat":38.159229,"lng":140.890301,"zip":"9811225"},{"town":"植松","koaza":"南","lat":38.136941,"lng":140.889512,"zip":"9811226"},{"town":"飯野坂","koaza":"小揚場","lat":38.157264,"lng":140.889988,"zip":"9811225"},{"town":"本郷","koaza":"道清","lat":38.136032,"lng":140.889558,"zip":"9892411"},{"town":"飯野坂","koaza":"北沖","lat":38.161495,"lng":140.890697,"zip":"9811225"},{"town":"増田","koaza":"関下","lat":38.165565,"lng":140.891757,"zip":"9811224"},{"town":"増田","koaza":"柳田","lat":38.169428,"lng":140.89317,"zip":"9811224"},{"town":"増田","koaza":"北谷","lat":38.17368,"lng":140.892133,"zip":"9811224"},{"town":"田高","koaza":"沢目","lat":38.178503,"lng":140.892266,"zip":"9811221"},{"town":"上余田","koaza":"土合","lat":38.180573,"lng":140.893716,"zip":"9811222"},{"town":"植松","koaza":"豊田","lat":38.143123,"lng":140.895169,"zip":"9811226"},{"town":"上余田","koaza":"大徳","lat":38.180726,"lng":140.895551,"zip":"9811222"},{"town":"本郷","koaza":"北善願","lat":38.131634,"lng":140.893995,"zip":"9892411"},{"town":"上余田","koaza":"吉原","lat":38.18826,"lng":140.896401,"zip":"9811222"},{"town":"増田","koaza":"猫塚","lat":38.158998,"lng":140.89768,"zip":"9811224"},{"town":"下余田","koaza":"中荷","lat":38.176647,"lng":140.898206,"zip":"9811223"},{"town":"下余田","koaza":"鹿島","lat":38.173338,"lng":140.900163,"zip":"9811223"},{"town":"下余田","koaza":"草倉田","lat":38.18053,"lng":140.901613,"zip":"9811223"},{"town":"下余田","koaza":"飯塚","lat":38.178048,"lng":140.902199,"zip":"9811223"},{"town":"増田","koaza":"後島","lat":38.167927,"lng":140.900241,"zip":"9811224"},{"town":"下増田","koaza":"耕谷","lat":38.153772,"lng":140.90285,"zip":"9892401"},{"town":"植松","koaza":"東","lat":38.145039,"lng":140.902562,"zip":"9811226"},{"town":"下増田","koaza":"土手西","lat":38.156027,"lng":140.901265,"zip":"9892401"},{"town":"下増田","koaza":"中江西","lat":38.156151,"lng":140.900393,"zip":"9892401"},{"town":"下増田","koaza":"中江東","lat":38.155634,"lng":140.900809,"zip":"9892401"},{"town":"下増田","koaza":"長前西","lat":38.155049,"lng":140.90186,"zip":"9892401"},{"town":"下増田","koaza":"長前南","lat":38.152895,"lng":140.901518,"zip":"9892401"},{"town":"下増田","koaza":"丁地前","lat":38.164264,"lng":140.905811,"zip":"9892401"},{"town":"下余田","koaza":"原田","lat":38.188306,"lng":140.904573,"zip":"9811223"},{"town":"下増田","koaza":"丁地","lat":38.166697,"lng":140.905672,"zip":"9892401"},{"town":"下増田","koaza":"土手東","lat":38.153774,"lng":140.904181,"zip":"9892401"},{"town":"下増田","koaza":"六角","lat":38.162636,"lng":140.907776,"zip":"9892401"},{"town":"下増田","koaza":"田子作","lat":38.158816,"lng":140.910278,"zip":"9892401"},{"town":"下余田","koaza":"木戸","lat":38.174313,"lng":140.906454,"zip":"9811223"},{"town":"下増田","koaza":"袋","lat":38.165306,"lng":140.906877,"zip":"9892401"},{"town":"杉ケ袋","koaza":"堀切","lat":38.146017,"lng":140.907885,"zip":"9811214"},{"town":"下余田","koaza":"成田","lat":38.182056,"lng":140.907761,"zip":"9811223"},{"town":"下増田","koaza":"鶴巻前","lat":38.163696,"lng":140.910198,"zip":"9892401"},{"town":"下増田","koaza":"耕谷後","lat":38.153682,"lng":140.907753,"zip":"9892401"},{"town":"杉ケ袋","koaza":"築道","lat":38.148133,"lng":140.910897,"zip":"9811214"},{"town":"下増田","koaza":"茶畑前","lat":38.162928,"lng":140.907936,"zip":"9892401"},{"town":"下増田","koaza":"六角前","lat":38.163037,"lng":140.908451,"zip":"9892401"},{"town":"下増田","koaza":"鶴巻西","lat":38.165362,"lng":140.908765,"zip":"9892401"},{"town":"杉ケ袋","koaza":"高原","lat":38.144215,"lng":140.910443,"zip":"9811214"},{"town":"下増田","koaza":"鶴巻","lat":38.164858,"lng":140.912952,"zip":"9892401"},{"town":"杉ケ袋","koaza":"新田南裏","lat":38.148235,"lng":140.910177,"zip":"9811214"},{"town":"大曲","koaza":"八幡","lat":38.174265,"lng":140.913375,"zip":"9811216"},{"town":"高柳","koaza":"皇檀ケ原","lat":38.180531,"lng":140.912294,"zip":"9811211"},{"town":"杉ケ袋","koaza":"新田北裏","lat":38.148162,"lng":140.912557,"zip":"9811214"},{"town":"下増田","koaza":"下五反目","lat":38.162475,"lng":140.913017,"zip":"9892401"},{"town":"高柳","koaza":"上西","lat":38.182601,"lng":140.911992,"zip":"9811211"},{"town":"下増田","koaza":"土手北","lat":38.157962,"lng":140.910906,"zip":"9892401"},{"town":"下増田","koaza":"大橋本","lat":38.158596,"lng":140.911361,"zip":"9892401"},{"town":"下増田","koaza":"上五反目","lat":38.162247,"lng":140.912079,"zip":"9892401"},{"town":"下増田","koaza":"前田","lat":38.161804,"lng":140.913012,"zip":"9892401"},{"town":"大曲","koaza":"中小路","lat":38.172244,"lng":140.915908,"zip":"9811216"},{"town":"杉ケ袋","koaza":"横手","lat":38.149783,"lng":140.915465,"zip":"9811214"},{"town":"大曲","koaza":"古舘","lat":38.168741,"lng":140.9147,"zip":"9811216"},{"town":"高柳","koaza":"下西","lat":38.178195,"lng":140.913659,"zip":"9811211"},{"town":"杉ケ袋","koaza":"川前","lat":38.1455,"lng":140.913832,"zip":"9811214"},{"town":"高柳","koaza":"上北田","lat":38.183033,"lng":140.914052,"zip":"9811211"},{"town":"大曲","koaza":"藤木","lat":38.174971,"lng":140.91511,"zip":"9811216"},{"town":"高柳","koaza":"中西","lat":38.180168,"lng":140.914991,"zip":"9811211"},{"town":"杉ケ袋","koaza":"杉前","lat":38.1464,"lng":140.918917,"zip":"9811214"},{"town":"高柳","koaza":"圭田","lat":38.18052,"lng":140.916578,"zip":"9811211"},{"town":"高柳","koaza":"中北田","lat":38.182928,"lng":140.918289,"zip":"9811211"},{"town":"大曲","koaza":"天神","lat":38.170636,"lng":140.916375,"zip":"9811216"},{"town":"杉ケ袋","koaza":"尻田村","lat":38.149134,"lng":140.917223,"zip":"9811214"},{"town":"杉ケ袋","koaza":"前沖","lat":38.153987,"lng":140.9188,"zip":"9811214"},{"town":"杉ケ袋","koaza":"杉中","lat":38.148605,"lng":140.919148,"zip":"9811214"},{"town":"下増田","koaza":"西経塚","lat":38.147224,"lng":140.921291,"zip":"9892401"},{"town":"下増田","koaza":"南原","lat":38.145373,"lng":140.922185,"zip":"9892401"},{"town":"高柳","koaza":"梶","lat":38.178364,"lng":140.918682,"zip":"9811211"},{"town":"牛野","koaza":"柿沼","lat":38.164646,"lng":140.923084,"zip":"9811215"},{"town":"高柳","koaza":"樋口上","lat":38.180324,"lng":140.918615,"zip":"9811211"},{"town":"高柳","koaza":"北原上","lat":38.180916,"lng":140.918898,"zip":"9811211"},{"town":"牛野","koaza":"戸ノ内","lat":38.168399,"lng":140.922893,"zip":"9811215"},{"town":"大曲","koaza":"布田","lat":38.177178,"lng":140.920194,"zip":"9811216"},{"town":"牛野","koaza":"一本杉","lat":38.165471,"lng":140.920542,"zip":"9811215"},{"town":"牛野","koaza":"内海","lat":38.167682,"lng":140.923344,"zip":"9811215"},{"town":"下増田","koaza":"下庚田","lat":38.156213,"lng":140.920625,"zip":"9892401"},{"town":"下増田","koaza":"小沼","lat":38.135947,"lng":140.931044,"zip":"9892401"},{"town":"高柳","koaza":"山神","lat":38.178953,"lng":140.923584,"zip":"9811211"},{"town":"杉ケ袋","koaza":"杉北","lat":38.15129,"lng":140.921008,"zip":"9811214"},{"town":"牛野","koaza":"八幡","lat":38.167104,"lng":140.921463,"zip":"9811215"},{"town":"杉ケ袋","koaza":"大野","lat":38.153172,"lng":140.922507,"zip":"9811214"},{"town":"下増田","koaza":"飯塚","lat":38.159215,"lng":140.922004,"zip":"9892401"},{"town":"牛野","koaza":"苗代下","lat":38.171319,"lng":140.921587,"zip":"9811215"},{"town":"下増田","koaza":"熊野","lat":38.160136,"lng":140.921857,"zip":"9892401"},{"town":"高柳","koaza":"中北原","lat":38.179362,"lng":140.921657,"zip":"9811211"},{"town":"牛野","koaza":"北","lat":38.170013,"lng":140.9237,"zip":"9811215"},{"town":"下増田","koaza":"南田","lat":38.157167,"lng":140.921528,"zip":"9892401"},{"town":"牛野","koaza":"伊藤","lat":38.171491,"lng":140.922579,"zip":"9811215"},{"town":"牛野","koaza":"境堀","lat":38.163734,"lng":140.922827,"zip":"9811215"},{"town":"牛野","koaza":"法性寺","lat":38.172002,"lng":140.922549,"zip":"9811215"},{"town":"杉ケ袋","koaza":"懸向","lat":38.151595,"lng":140.924358,"zip":"9811214"},{"town":"牛野","koaza":"松浦","lat":38.172893,"lng":140.925432,"zip":"9811215"},{"town":"下増田","koaza":"東","lat":38.148482,"lng":140.923515,"zip":"9892401"},{"town":"大曲","koaza":"高田","lat":38.175652,"lng":140.92377,"zip":"9811216"},{"town":"高柳","koaza":"下北原","lat":38.176798,"lng":140.924018,"zip":"9811211"},{"town":"下増田","koaza":"女ケ池","lat":38.162729,"lng":140.933596,"zip":"9892401"},{"town":"下増田","koaza":"藤原西","lat":38.159439,"lng":140.922967,"zip":"9892401"},{"town":"杉ケ袋","koaza":"藤原","lat":38.15591,"lng":140.924844,"zip":"9811214"},{"town":"高柳","koaza":"辻","lat":38.180116,"lng":140.925651,"zip":"9811211"},{"town":"牛野","koaza":"天王","lat":38.163255,"lng":140.924407,"zip":"9811215"},{"town":"杉ケ袋","koaza":"懸","lat":38.156248,"lng":140.927229,"zip":"9811214"},{"town":"高柳","koaza":"下合畑","lat":38.180624,"lng":140.925118,"zip":"9811211"},{"town":"杉ケ袋","koaza":"小古田","lat":38.153842,"lng":140.926489,"zip":"9811214"},{"town":"高柳","koaza":"南辻","lat":38.17738,"lng":140.925552,"zip":"9811211"},{"town":"牛野","koaza":"深渡戸","lat":38.175172,"lng":140.92876,"zip":"9811215"},{"town":"小塚原","koaza":"汐入","lat":38.167813,"lng":140.932082,"zip":"9811212"},{"town":"杉ケ袋","koaza":"今新田","lat":38.155348,"lng":140.928699,"zip":"9811214"},{"town":"小塚原","koaza":"西中塚","lat":38.175536,"lng":140.931624,"zip":"9811212"},{"town":"杉ケ袋","koaza":"寺野","lat":38.158849,"lng":140.929409,"zip":"9811214"},{"town":"下増田","koaza":"北原西","lat":38.153591,"lng":140.928933,"zip":"9892401"},{"town":"閖上","koaza":"上殿谷地","lat":38.192956,"lng":140.929073,"zip":"9811213"},{"town":"閖上","koaza":"太子堂","lat":38.190039,"lng":140.930875,"zip":"9811213"},{"town":"下増田","koaza":"広浦","lat":38.153559,"lng":140.936696,"zip":"9892401"},{"town":"小塚原","koaza":"蟹穴","lat":38.164098,"lng":140.945307,"zip":"9811212"},{"town":"小塚原","koaza":"小原","lat":38.167445,"lng":140.930801,"zip":"9811212"},{"town":"小塚原","koaza":"堰場","lat":38.171242,"lng":140.931218,"zip":"9811212"},{"town":"小塚原","koaza":"田中","lat":38.177755,"lng":140.931619,"zip":"9811212"},{"town":"小塚原","koaza":"北中塚","lat":38.179388,"lng":140.930861,"zip":"9811212"},{"town":"下増田","koaza":"前干揚","lat":38.159863,"lng":140.936196,"zip":"9892401"},{"town":"小塚原","koaza":"東中塚","lat":38.17169,"lng":140.934092,"zip":"9811212"},{"town":"小塚原","koaza":"西遠泉","lat":38.174115,"lng":140.931057,"zip":"9811212"},{"town":"下増田","koaza":"北原東","lat":38.147105,"lng":140.933861,"zip":"9892401"},{"town":"小塚原","koaza":"蟹喰","lat":38.170757,"lng":140.933207,"zip":"9811212"},{"town":"小塚原","koaza":"沢目","lat":38.180044,"lng":140.935719,"zip":"9811212"},{"town":"下増田","koaza":"相野谷地","lat":38.138305,"lng":140.932045,"zip":"9892401"},{"town":"下増田","koaza":"屋敷","lat":38.138744,"lng":140.93661,"zip":"9892401"},{"town":"小塚原","koaza":"寺田","lat":38.177959,"lng":140.934758,"zip":"9811212"},{"town":"小塚原","koaza":"辻野","lat":38.175449,"lng":140.93425,"zip":"9811212"},{"town":"閖上","koaza":"境","lat":38.187634,"lng":140.933235,"zip":"9811213"},{"town":"閖上","koaza":"新猿猴","lat":38.188179,"lng":140.934799,"zip":"9811213"},{"town":"小塚原","koaza":"東遠泉","lat":38.172448,"lng":140.934546,"zip":"9811212"},{"town":"下増田","koaza":"台林","lat":38.146698,"lng":140.939176,"zip":"9892401"},{"town":"小塚原","koaza":"新鍋島","lat":38.165711,"lng":140.937986,"zip":"9811212"},{"town":"小塚原","koaza":"汐押","lat":38.173708,"lng":140.938872,"zip":"9811212"},{"town":"閖上","koaza":"新鶴塚","lat":38.177882,"lng":140.939255,"zip":"9811213"},{"town":"閖上","koaza":"新大塚","lat":38.183204,"lng":140.939446,"zip":"9811213"},{"town":"閖上","koaza":"平田橋","lat":38.176152,"lng":140.936989,"zip":"9811213"},{"town":"閖上","koaza":"新狐島","lat":38.176752,"lng":140.94148,"zip":"9811213"},{"town":"小塚原","koaza":"上中","lat":38.167054,"lng":140.939068,"zip":"9811212"},{"town":"閖上","koaza":"猿猴","lat":38.185585,"lng":140.938189,"zip":"9811213"},{"town":"閖上","koaza":"鍋沼","lat":38.180329,"lng":140.938807,"zip":"9811213"},{"town":"小塚原","koaza":"鍋島","lat":38.171506,"lng":140.942077,"zip":"9811212"},{"town":"閖上","koaza":"佛文寺","lat":38.180238,"lng":140.94235,"zip":"9811213"},{"town":"閖上","koaza":"鶴塚","lat":38.178261,"lng":140.940528,"zip":"9811213"},{"town":"閖上","koaza":"東須賀","lat":38.168558,"lng":140.955976,"zip":"9811213"},{"town":"小塚原","koaza":"下田","lat":38.167321,"lng":140.942491,"zip":"9811212"},{"town":"閖上","koaza":"清海","lat":38.178208,"lng":140.94127,"zip":"9811213"},{"town":"閖上","koaza":"昭和","lat":38.178871,"lng":140.942619,"zip":"9811213"},{"town":"小塚原","koaza":"東土手外","lat":38.173041,"lng":140.943139,"zip":"9811212"},{"town":"閖上","koaza":"新町頭","lat":38.180424,"lng":140.943194,"zip":"9811213"},{"town":"小塚原","koaza":"汐朽","lat":38.170741,"lng":140.94518,"zip":"9811212"},{"town":"閖上","koaza":"庚申塚","lat":38.176927,"lng":140.946556,"zip":"9811213"},{"town":"閖上","koaza":"東場","lat":38.173295,"lng":140.94613,"zip":"9811213"},{"town":"閖上","koaza":"五十刈","lat":38.177406,"lng":140.945332,"zip":"9811213"},{"town":"小塚原","koaza":"遠東","lat":38.165572,"lng":140.947144,"zip":"9811212"},{"town":"閖上","koaza":"胡桃","lat":38.177015,"lng":140.94606,"zip":"9811213"},{"town":"小塚原","koaza":"赤渋","lat":38.166357,"lng":140.947398,"zip":"9811212"},{"town":"高舘川上","koaza":"東薬師","lat":38.178471,"lng":140.820785,"zip":"9811243"},{"town":"愛島塩手","koaza":"前野田","lat":38.16335,"lng":140.856772,"zip":"9811239"},{"town":"愛島笠島","koaza":"北東宮下","lat":38.153272,"lng":140.858416,"zip":"9811238"}]