[{"town":"字長沢","koaza":"","lat":38.329819,"lng":141.01314,"zip":"9850000"},{"town":"楓町一丁目","koaza":"","lat":38.329333,"lng":141.030541,"zip":"9850084"},{"town":"白萩町","koaza":"","lat":38.310417,"lng":141.012713,"zip":"9850032"},{"town":"西町","koaza":"","lat":38.317291,"lng":141.010696,"zip":"9850057"},{"town":"佐浦町","koaza":"","lat":38.311249,"lng":141.016844,"zip":"9850025"},{"town":"越の浦二丁目","koaza":"","lat":38.335323,"lng":141.031141,"zip":"9850000"},{"town":"楓町三丁目","koaza":"","lat":38.332163,"lng":141.031614,"zip":"9850084"},{"town":"千賀の台三丁目","koaza":"","lat":38.339032,"lng":141.02164,"zip":"9850086"},{"town":"楓町二丁目","koaza":"","lat":38.331766,"lng":141.02969,"zip":"9850084"},{"town":"香津町","koaza":"","lat":38.311767,"lng":141.014873,"zip":"9850054"},{"town":"杉の入四丁目","koaza":"","lat":38.334005,"lng":141.038628,"zip":"9850005"},{"town":"桜ケ丘","koaza":"","lat":38.308791,"lng":141.014949,"zip":"9850033"},{"town":"千賀の台二丁目","koaza":"","lat":38.338057,"lng":141.019911,"zip":"9850086"},{"town":"栄町","koaza":"","lat":38.322192,"lng":141.006068,"zip":"9850063"},{"town":"本町","koaza":"","lat":38.316625,"lng":141.01739,"zip":"9850052"},{"town":"越の浦一丁目","koaza":"","lat":38.335435,"lng":141.03274,"zip":"9850000"},{"town":"東玉川町","koaza":"","lat":38.309904,"lng":141.010436,"zip":"9850036"},{"town":"北浜二丁目","koaza":"","lat":38.321184,"lng":141.020921,"zip":"9850003"},{"town":"千賀の台一丁目","koaza":"","lat":38.336684,"lng":141.021016,"zip":"9850086"},{"town":"西玉川町","koaza":"","lat":38.312282,"lng":141.001553,"zip":"9850045"},{"town":"母子沢町","koaza":"","lat":38.311126,"lng":140.999684,"zip":"9850044"},{"town":"南錦町","koaza":"","lat":38.305715,"lng":141.011456,"zip":"9850034"},{"town":"松陽台二丁目","koaza":"","lat":38.331521,"lng":141.022003,"zip":"9850071"},{"town":"南町","koaza":"","lat":38.314036,"lng":141.01728,"zip":"9850053"},{"town":"白菊町","koaza":"","lat":38.314169,"lng":141.003775,"zip":"9850041"},{"town":"玉川二丁目","koaza":"","lat":38.31023,"lng":141.006929,"zip":"9850042"},{"town":"杉の入二丁目","koaza":"","lat":38.332563,"lng":141.034232,"zip":"9850005"},{"town":"石堂","koaza":"","lat":38.312636,"lng":141.011588,"zip":"9850031"},{"town":"野田","koaza":"","lat":38.307133,"lng":141.010652,"zip":"9850035"},{"town":"北浜一丁目","koaza":"","lat":38.320845,"lng":141.023867,"zip":"9850003"},{"town":"宮町","koaza":"","lat":38.318494,"lng":141.018474,"zip":"9850051"},{"town":"北浜三丁目","koaza":"","lat":38.323809,"lng":141.022918,"zip":"9850003"},{"town":"今宮町","koaza":"","lat":38.326384,"lng":141.012464,"zip":"9850075"},{"town":"みのが丘","koaza":"","lat":38.321315,"lng":141.015616,"zip":"9850073"},{"town":"字越ノ浦","koaza":"","lat":38.337123,"lng":141.038187,"zip":"9850000"},{"town":"字石田","koaza":"","lat":38.338151,"lng":141.028675,"zip":"9850000"},{"town":"杉の入三丁目","koaza":"","lat":38.333645,"lng":141.036137,"zip":"9850005"},{"town":"港町二丁目","koaza":"","lat":38.316905,"lng":141.03074,"zip":"9850016"},{"town":"玉川一丁目","koaza":"","lat":38.308306,"lng":141.005863,"zip":"9850042"},{"town":"海岸通","koaza":"","lat":38.317871,"lng":141.022932,"zip":"9850002"},{"town":"月見ケ丘","koaza":"","lat":38.320455,"lng":141.002568,"zip":"9850066"},{"town":"藤倉二丁目","koaza":"","lat":38.32725,"lng":141.027753,"zip":"9850004"},{"town":"泉ケ岡","koaza":"","lat":38.315213,"lng":141.013646,"zip":"9850056"},{"town":"松陽台三丁目","koaza":"","lat":38.329306,"lng":141.021807,"zip":"9850071"},{"town":"旭町","koaza":"","lat":38.313801,"lng":141.021169,"zip":"9850026"},{"town":"藤倉一丁目","koaza":"","lat":38.326995,"lng":141.02359,"zip":"9850004"},{"town":"港町一丁目","koaza":"","lat":38.318833,"lng":141.030523,"zip":"9850016"},{"town":"舟入一丁目","koaza":"","lat":38.312178,"lng":141.030816,"zip":"9850014"},{"town":"舟入二丁目","koaza":"","lat":38.310028,"lng":141.031398,"zip":"9850014"},{"town":"長沢町","koaza":"","lat":38.326294,"lng":141.014541,"zip":"9850076"},{"town":"向ケ丘","koaza":"","lat":38.317263,"lng":141.001884,"zip":"9850065"},{"town":"清水沢三丁目","koaza":"","lat":38.331159,"lng":141.008212,"zip":"9850061"},{"town":"赤坂","koaza":"","lat":38.316013,"lng":141.008508,"zip":"9850055"},{"town":"清水沢四丁目","koaza":"","lat":38.335127,"lng":141.00875,"zip":"9850061"},{"town":"玉川三丁目","koaza":"","lat":38.312153,"lng":141.005968,"zip":"9850042"},{"town":"清水沢二丁目","koaza":"","lat":38.327774,"lng":141.005095,"zip":"9850061"},{"town":"錦町","koaza":"","lat":38.309847,"lng":141.018663,"zip":"9850024"},{"town":"中の島","koaza":"","lat":38.315142,"lng":141.030683,"zip":"9850015"},{"town":"杉の入一丁目","koaza":"","lat":38.330155,"lng":141.034304,"zip":"9850005"},{"town":"泉沢町","koaza":"","lat":38.323485,"lng":141.007261,"zip":"9850062"},{"town":"尾島町","koaza":"","lat":38.315758,"lng":141.024573,"zip":"9850021"},{"town":"花立町","koaza":"","lat":38.309021,"lng":141.021759,"zip":"9850023"},{"town":"芦畔町","koaza":"","lat":38.304476,"lng":141.032163,"zip":"9850012"},{"town":"松陽台一丁目","koaza":"","lat":38.330535,"lng":141.02683,"zip":"9850071"},{"town":"後楽町","koaza":"","lat":38.327582,"lng":141.000989,"zip":"9850067"},{"town":"藤倉三丁目","koaza":"","lat":38.327037,"lng":141.032687,"zip":"9850004"},{"town":"清水沢一丁目","koaza":"","lat":38.327676,"lng":141.008977,"zip":"9850061"},{"town":"小松崎","koaza":"","lat":38.323037,"lng":141.018476,"zip":"9850072"},{"town":"牛生町","koaza":"","lat":38.307604,"lng":141.031932,"zip":"9850013"},{"town":"字杉ノ入裏","koaza":"","lat":38.336634,"lng":141.046204,"zip":"9850000"},{"town":"青葉ケ丘","koaza":"","lat":38.33689,"lng":141.030061,"zip":"9850082"},{"town":"袖野田町","koaza":"","lat":38.306723,"lng":141.004042,"zip":"9850043"},{"town":"貞山通二丁目","koaza":"","lat":38.31475,"lng":141.039305,"zip":"9850011"},{"town":"梅の宮","koaza":"","lat":38.326535,"lng":141.018211,"zip":"9850077"},{"town":"新富町","koaza":"","lat":38.312222,"lng":141.025334,"zip":"9850022"},{"town":"権現堂","koaza":"","lat":38.318676,"lng":141.006734,"zip":"9850064"},{"town":"北浜四丁目","koaza":"","lat":38.323675,"lng":141.028516,"zip":"9850003"},{"town":"貞山通一丁目","koaza":"","lat":38.316877,"lng":141.042092,"zip":"9850011"},{"town":"新浜町二丁目","koaza":"","lat":38.33078,"lng":141.041104,"zip":"9850001"},{"town":"浦戸石浜","koaza":"","lat":38.331076,"lng":141.102616,"zip":"9850191"},{"town":"大日向町","koaza":"","lat":38.314503,"lng":140.997696,"zip":"9850046"},{"town":"一森山","koaza":"","lat":38.321443,"lng":141.010691,"zip":"9850074"},{"town":"貞山通三丁目","koaza":"","lat":38.311435,"lng":141.03816,"zip":"9850011"},{"town":"浦戸桂島","koaza":"","lat":38.333954,"lng":141.091222,"zip":"9850192"},{"town":"新浜町三丁目","koaza":"","lat":38.331685,"lng":141.048392,"zip":"9850001"},{"town":"新浜町一丁目","koaza":"","lat":38.32581,"lng":141.040378,"zip":"9850001"},{"town":"浦戸野々島","koaza":"","lat":38.337967,"lng":141.110782,"zip":"9850193"},{"town":"字庚塚","koaza":"","lat":38.333079,"lng":141.017713,"zip":"9850000"},{"town":"浦戸寒風沢","koaza":"","lat":38.337109,"lng":141.126865,"zip":"9850194"},{"town":"字伊保石","koaza":"","lat":38.341775,"lng":141.018031,"zip":"9850000"},{"town":"浦戸桂島","koaza":"菖蒲","lat":38.333197,"lng":141.087394,"zip":"9850192"},{"town":"浦戸桂島","koaza":"神手洗","lat":38.334705,"lng":141.088779,"zip":"9850192"},{"town":"浦戸桂島","koaza":"鬼ケ浜","lat":38.333887,"lng":141.093483,"zip":"9850192"},{"town":"浦戸桂島","koaza":"前田二","lat":38.332335,"lng":141.089141,"zip":"9850192"},{"town":"浦戸桂島","koaza":"庵寺","lat":38.334354,"lng":141.090209,"zip":"9850192"},{"town":"浦戸桂島","koaza":"飛地","lat":38.333291,"lng":141.091672,"zip":"9850192"},{"town":"浦戸桂島","koaza":"台","lat":38.334852,"lng":141.094277,"zip":"9850192"},{"town":"浦戸石浜","koaza":"金ケ浜","lat":38.333144,"lng":141.096274,"zip":"9850191"},{"town":"浦戸石浜","koaza":"梅ケ浜","lat":38.334208,"lng":141.096741,"zip":"9850191"},{"town":"浦戸石浜","koaza":"平森","lat":38.33186,"lng":141.101814,"zip":"9850191"},{"town":"浦戸石浜","koaza":"山神","lat":38.333947,"lng":141.098508,"zip":"9850191"},{"town":"浦戸石浜","koaza":"河岸","lat":38.333019,"lng":141.10109,"zip":"9850191"},{"town":"浦戸石浜","koaza":"本石浜","lat":38.33083,"lng":141.103835,"zip":"9850191"},{"town":"浦戸野々島","koaza":"平和田","lat":38.338445,"lng":141.109123,"zip":"9850193"},{"town":"浦戸野々島","koaza":"毛無崎","lat":38.338367,"lng":141.105252,"zip":"9850193"},{"town":"浦戸野々島","koaza":"河岸","lat":38.33746,"lng":141.107202,"zip":"9850193"},{"town":"浦戸野々島","koaza":"吹越","lat":38.336987,"lng":141.109193,"zip":"9850193"},{"town":"浦戸野々島","koaza":"柳浜","lat":38.336453,"lng":141.111412,"zip":"9850193"},{"town":"浦戸野々島","koaza":"馬越","lat":38.342401,"lng":141.119568,"zip":"9850193"},{"town":"浦戸野々島","koaza":"馬ノ背","lat":38.346231,"lng":141.111031,"zip":"9850193"},{"town":"浦戸野々島","koaza":"楳島","lat":38.341809,"lng":141.114349,"zip":"9850193"},{"town":"浦戸寒風沢","koaza":"日和山","lat":38.333475,"lng":141.117945,"zip":"9850194"},{"town":"浦戸寒風沢","koaza":"湊","lat":38.337095,"lng":141.118354,"zip":"9850194"},{"town":"浦戸寒風沢","koaza":"中月","lat":38.333996,"lng":141.119034,"zip":"9850194"},{"town":"浦戸寒風沢","koaza":"寒沢","lat":38.335263,"lng":141.117478,"zip":"9850194"},{"town":"浦戸寒風沢","koaza":"愛宕","lat":38.336154,"lng":141.118392,"zip":"9850194"},{"town":"浦戸野々島","koaza":"鷺島","lat":38.350048,"lng":141.119969,"zip":"9850193"},{"town":"浦戸寒風沢","koaza":"彦和田","lat":38.336437,"lng":141.121382,"zip":"9850194"},{"town":"浦戸寒風沢","koaza":"沢","lat":38.335321,"lng":141.119548,"zip":"9850194"},{"town":"浦戸寒風沢","koaza":"前浜","lat":38.330406,"lng":141.121197,"zip":"9850194"},{"town":"浦戸寒風沢","koaza":"桃和田上","lat":38.333387,"lng":141.120662,"zip":"9850194"},{"town":"浦戸寒風沢","koaza":"西三百浦","lat":38.340028,"lng":141.126682,"zip":"9850194"},{"town":"浦戸野々島","koaza":"鱈","lat":38.351515,"lng":141.122451,"zip":"9850193"},{"town":"浦戸寒風沢","koaza":"桃和田下","lat":38.332294,"lng":141.123241,"zip":"9850194"},{"town":"浦戸寒風沢","koaza":"東三百浦","lat":38.341454,"lng":141.123004,"zip":"9850194"},{"town":"浦戸野々島","koaza":"朴島宅地","lat":38.349269,"lng":141.12461,"zip":"9850193"},{"town":"浦戸野々島","koaza":"家上一","lat":38.351446,"lng":141.125788,"zip":"9850193"},{"town":"浦戸桂島","koaza":"前田一","lat":38.333529,"lng":141.089583,"zip":"9850192"}]