[{"town":"大代二丁目","koaza":"","lat":38.294393,"lng":141.032195,"zip":"9850832"},{"town":"岩切","koaza":"","lat":38.30417,"lng":140.961389,"zip":"9850000"},{"town":"下馬二丁目","koaza":"","lat":38.304809,"lng":141.015848,"zip":"9850835"},{"town":"町前四丁目","koaza":"","lat":38.283042,"lng":141.00504,"zip":"9850845"},{"town":"伝上山四丁目","koaza":"","lat":38.303456,"lng":141.010517,"zip":"9850872"},{"town":"下馬五丁目","koaza":"","lat":38.300827,"lng":141.016297,"zip":"9850835"},{"town":"桜木一丁目","koaza":"","lat":38.289593,"lng":141.012374,"zip":"9850842"},{"town":"浮島一丁目","koaza":"","lat":38.302833,"lng":140.99551,"zip":"9850861"},{"town":"下馬一丁目","koaza":"","lat":38.30487,"lng":141.013714,"zip":"9850835"},{"town":"大代四丁目","koaza":"","lat":38.296839,"lng":141.036292,"zip":"9850832"},{"town":"留ケ谷三丁目","koaza":"","lat":38.301182,"lng":141.008127,"zip":"9850871"},{"town":"高橋三丁目","koaza":"","lat":38.286108,"lng":140.979153,"zip":"9850853"},{"town":"町前三丁目","koaza":"","lat":38.286842,"lng":141.008789,"zip":"9850845"},{"town":"笠神四丁目","koaza":"","lat":38.302818,"lng":141.0318,"zip":"9850831"},{"town":"下馬四丁目","koaza":"","lat":38.302145,"lng":141.018088,"zip":"9850835"},{"town":"大代三丁目","koaza":"","lat":38.295441,"lng":141.03406,"zip":"9850832"},{"town":"伝上山二丁目","koaza":"","lat":38.300289,"lng":141.010589,"zip":"9850872"},{"town":"笠神三丁目","koaza":"","lat":38.300144,"lng":141.029444,"zip":"9850831"},{"town":"町前二丁目","koaza":"","lat":38.284972,"lng":141.00419,"zip":"9850845"},{"town":"高橋二丁目","koaza":"","lat":38.285138,"lng":140.975522,"zip":"9850853"},{"town":"留ケ谷二丁目","koaza":"","lat":38.304481,"lng":141.005143,"zip":"9850871"},{"town":"八幡四丁目","koaza":"","lat":38.290774,"lng":141.011946,"zip":"9850874"},{"town":"鶴ケ谷三丁目","koaza":"","lat":38.293754,"lng":141.01873,"zip":"9850841"},{"town":"鶴ケ谷二丁目","koaza":"","lat":38.296561,"lng":141.016858,"zip":"9850841"},{"town":"伝上山一丁目","koaza":"","lat":38.296022,"lng":141.010793,"zip":"9850872"},{"town":"東田中一丁目","koaza":"","lat":38.292102,"lng":140.995152,"zip":"9850863"},{"town":"八幡一丁目","koaza":"","lat":38.285485,"lng":140.996397,"zip":"9850874"},{"town":"高橋一丁目","koaza":"","lat":38.286999,"lng":140.97473,"zip":"9850853"},{"town":"明月二丁目","koaza":"","lat":38.284862,"lng":141.015193,"zip":"9850843"},{"town":"八幡三丁目","koaza":"","lat":38.28979,"lng":141.006791,"zip":"9850874"},{"town":"高橋","koaza":"","lat":38.29172,"lng":140.980512,"zip":"9850853"},{"town":"中央三丁目","koaza":"","lat":38.294759,"lng":141.008007,"zip":"9850873"},{"town":"伝上山三丁目","koaza":"","lat":38.300425,"lng":141.013433,"zip":"9850872"},{"town":"城南一丁目","koaza":"","lat":38.299545,"lng":140.989564,"zip":"9850865"},{"town":"高崎","koaza":"","lat":38.293246,"lng":140.986721,"zip":"9850862"},{"town":"下馬三丁目","koaza":"","lat":38.305298,"lng":141.019639,"zip":"9850835"},{"town":"栄一丁目","koaza":"","lat":38.290167,"lng":141.022054,"zip":"9850833"},{"town":"明月一丁目","koaza":"","lat":38.284868,"lng":141.009845,"zip":"9850843"},{"town":"栄三丁目","koaza":"","lat":38.281707,"lng":141.020304,"zip":"9850833"},{"town":"丸山一丁目","koaza":"","lat":38.299298,"lng":141.020137,"zip":"9850834"},{"town":"東田中","koaza":"","lat":38.291808,"lng":140.988825,"zip":"9850863"},{"town":"桜木二丁目","koaza":"","lat":38.291305,"lng":141.017387,"zip":"9850842"},{"town":"浮島二丁目","koaza":"","lat":38.304436,"lng":140.998202,"zip":"9850861"},{"town":"鶴ケ谷一丁目","koaza":"","lat":38.296025,"lng":141.014027,"zip":"9850841"},{"town":"高崎二丁目","koaza":"","lat":38.295874,"lng":140.994725,"zip":"9850862"},{"town":"中央一丁目","koaza":"","lat":38.295841,"lng":141.002936,"zip":"9850873"},{"town":"町前一丁目","koaza":"","lat":38.283011,"lng":140.998262,"zip":"9850845"},{"town":"城南二丁目","koaza":"","lat":38.295426,"lng":140.990808,"zip":"9850865"},{"town":"中央二丁目","koaza":"","lat":38.29458,"lng":141.005512,"zip":"9850873"},{"town":"宮内二丁目","koaza":"","lat":38.280146,"lng":141.015865,"zip":"9850844"},{"town":"高橋四丁目","koaza":"","lat":38.289367,"lng":140.981149,"zip":"9850853"},{"town":"笠神二丁目","koaza":"","lat":38.30329,"lng":141.024966,"zip":"9850831"},{"town":"高崎三丁目","koaza":"","lat":38.296397,"lng":140.999088,"zip":"9850862"},{"town":"笠神五丁目","koaza":"","lat":38.299487,"lng":141.03331,"zip":"9850831"},{"town":"笠神一丁目","koaza":"","lat":38.307735,"lng":141.02561,"zip":"9850831"},{"town":"桜木三丁目","koaza":"","lat":38.288301,"lng":141.015815,"zip":"9850842"},{"town":"留ケ谷一丁目","koaza":"","lat":38.300548,"lng":141.004835,"zip":"9850871"},{"town":"高橋五丁目","koaza":"","lat":38.285793,"lng":140.983215,"zip":"9850853"},{"town":"東田中二丁目","koaza":"","lat":38.290864,"lng":141.000448,"zip":"9850863"},{"town":"高崎一丁目","koaza":"","lat":38.300354,"lng":140.997934,"zip":"9850862"},{"town":"大代六丁目","koaza":"","lat":38.289345,"lng":141.038275,"zip":"9850832"},{"town":"大代五丁目","koaza":"","lat":38.292818,"lng":141.039529,"zip":"9850832"},{"town":"栄二丁目","koaza":"","lat":38.286343,"lng":141.020791,"zip":"9850833"},{"town":"八幡二丁目","koaza":"","lat":38.28761,"lng":141.001831,"zip":"9850874"},{"town":"宮内一丁目","koaza":"","lat":38.27977,"lng":141.009969,"zip":"9850844"},{"town":"浮島","koaza":"","lat":38.305157,"lng":140.994032,"zip":"9850861"},{"town":"大代一丁目","koaza":"","lat":38.286775,"lng":141.033504,"zip":"9850832"},{"town":"栄四丁目","koaza":"","lat":38.286653,"lng":141.027916,"zip":"9850833"},{"town":"八幡","koaza":"","lat":38.287163,"lng":140.991268,"zip":"9850874"},{"town":"丸山二丁目","koaza":"","lat":38.296874,"lng":141.025656,"zip":"9850834"},{"town":"山王","koaza":"","lat":38.29654,"lng":140.977018,"zip":"9850852"},{"town":"南宮","koaza":"","lat":38.304984,"lng":140.969546,"zip":"9850851"},{"town":"新田","koaza":"","lat":38.292393,"lng":140.967148,"zip":"9850854"},{"town":"市川","koaza":"","lat":38.304235,"lng":140.985538,"zip":"9850864"},{"town":"新田","koaza":"西後","lat":38.297144,"lng":140.958673,"zip":"9850854"},{"town":"新田","koaza":"後","lat":38.298169,"lng":140.960306,"zip":"9850854"},{"town":"南宮","koaza":"一里塚","lat":38.300942,"lng":140.961509,"zip":"9850851"},{"town":"新田","koaza":"六歳","lat":38.296855,"lng":140.960845,"zip":"9850854"},{"town":"新田","koaza":"西","lat":38.294901,"lng":140.962291,"zip":"9850854"},{"town":"新田","koaza":"北","lat":38.296128,"lng":140.965193,"zip":"9850854"},{"town":"新田","koaza":"新後","lat":38.298099,"lng":140.96194,"zip":"9850854"},{"town":"新田","koaza":"南関合","lat":38.289427,"lng":140.963253,"zip":"9850854"},{"town":"南宮","koaza":"上新田","lat":38.30919,"lng":140.963306,"zip":"9850851"},{"town":"南宮","koaza":"日向前","lat":38.309094,"lng":140.962904,"zip":"9850851"},{"town":"山王","koaza":"北寿福寺","lat":38.299928,"lng":140.965519,"zip":"9850852"},{"town":"山王","koaza":"南寿福寺","lat":38.298844,"lng":140.964433,"zip":"9850852"},{"town":"新田","koaza":"北関合","lat":38.289187,"lng":140.964561,"zip":"9850854"},{"town":"南宮","koaza":"庚申","lat":38.301872,"lng":140.964617,"zip":"9850851"},{"town":"新田","koaza":"中","lat":38.290017,"lng":140.969036,"zip":"9850854"},{"town":"山王","koaza":"三千刈","lat":38.299167,"lng":140.968668,"zip":"9850852"},{"town":"山王","koaza":"西町浦","lat":38.299793,"lng":140.969655,"zip":"9850852"},{"town":"南宮","koaza":"色の地","lat":38.305924,"lng":140.971468,"zip":"9850851"},{"town":"山王","koaza":"掃下し","lat":38.299327,"lng":140.972415,"zip":"9850852"},{"town":"山王","koaza":"山王二区","lat":38.296282,"lng":140.972289,"zip":"9850852"},{"town":"南宮","koaza":"伊勢","lat":38.301983,"lng":140.972214,"zip":"9850851"},{"town":"山王","koaza":"東町浦","lat":38.29959,"lng":140.976358,"zip":"9850852"},{"town":"新田","koaza":"下","lat":38.291251,"lng":140.975286,"zip":"9850854"},{"town":"山王","koaza":"中山王","lat":38.297349,"lng":140.975844,"zip":"9850852"},{"town":"山王","koaza":"千刈田","lat":38.299748,"lng":140.978662,"zip":"9850852"},{"town":"山王","koaza":"山王四区","lat":38.297092,"lng":140.978969,"zip":"9850852"},{"town":"市川","koaza":"新西久保","lat":38.307962,"lng":140.981142,"zip":"9850864"},{"town":"市川","koaza":"五万崎","lat":38.304402,"lng":140.98443,"zip":"9850864"},{"town":"市川","koaza":"館前","lat":38.30088,"lng":140.987188,"zip":"9850864"},{"town":"市川","koaza":"坂下","lat":38.304554,"lng":140.986597,"zip":"9850864"},{"town":"市川","koaza":"六月坂","lat":38.309901,"lng":140.989391,"zip":"9850864"},{"town":"市川","koaza":"大畑","lat":38.308589,"lng":140.990779,"zip":"9850864"},{"town":"市川","koaza":"立石","lat":38.303541,"lng":140.990406,"zip":"9850864"},{"town":"市川","koaza":"田屋場","lat":38.302959,"lng":140.988756,"zip":"9850864"},{"town":"浮島","koaza":"後山","lat":38.302646,"lng":140.991195,"zip":"9850861"},{"town":"浮島","koaza":"矢中","lat":38.301943,"lng":140.992432,"zip":"9850861"},{"town":"東田中","koaza":"志引","lat":38.292346,"lng":140.992749,"zip":"9850863"},{"town":"八幡","koaza":"六貫田","lat":38.28876,"lng":140.994024,"zip":"9850874"},{"town":"八幡","koaza":"一本柳","lat":38.286122,"lng":140.993134,"zip":"9850874"},{"town":"浮島","koaza":"宮前","lat":38.304592,"lng":140.994259,"zip":"9850861"},{"town":"八幡","koaza":"庚田","lat":38.289327,"lng":140.99554,"zip":"9850874"},{"town":"浮島","koaza":"西沢","lat":38.307262,"lng":140.994778,"zip":"9850861"},{"town":"浮島","koaza":"高原","lat":38.308533,"lng":140.998171,"zip":"9850861"},{"town":"南宮","koaza":"二津井","lat":38.3064,"lng":140.96085,"zip":"9850851"},{"town":"岩切","koaza":"分台","lat":38.306147,"lng":140.960781,"zip":"9850000"},{"town":"新田","koaza":"上河原","lat":38.29538,"lng":140.95939,"zip":"9850854"},{"town":"新田","koaza":"北安楽寺","lat":38.293533,"lng":140.962364,"zip":"9850854"},{"town":"新田","koaza":"堀西","lat":38.290188,"lng":140.96472,"zip":"9850854"},{"town":"新田","koaza":"南安楽寺","lat":38.292037,"lng":140.96157,"zip":"9850854"},{"town":"新田","koaza":"下河原","lat":38.287589,"lng":140.962922,"zip":"9850854"},{"town":"新田","koaza":"北熊ノ田","lat":38.291821,"lng":140.966886,"zip":"9850854"},{"town":"新田","koaza":"袋","lat":38.291478,"lng":140.969064,"zip":"9850854"},{"town":"南宮","koaza":"町","lat":38.301382,"lng":140.971915,"zip":"9850851"},{"town":"山王","koaza":"東谷地中","lat":38.298351,"lng":140.974458,"zip":"9850852"},{"town":"山王","koaza":"西山王","lat":38.296684,"lng":140.97473,"zip":"9850852"},{"town":"新田","koaza":"初向","lat":38.286445,"lng":140.969605,"zip":"9850854"},{"town":"高橋","koaza":"耳取北","lat":38.291088,"lng":140.982532,"zip":"9850853"},{"town":"市川","koaza":"伊保石","lat":38.308927,"lng":140.993181,"zip":"9850864"},{"town":"浮島","koaza":"赤坂","lat":38.305872,"lng":140.995857,"zip":"9850861"},{"town":"浮島","koaza":"館前","lat":38.301076,"lng":140.992329,"zip":"9850861"},{"town":"浮島","koaza":"沢前","lat":38.30542,"lng":140.992894,"zip":"9850861"},{"town":"八幡","koaza":"西脇","lat":38.288875,"lng":140.997617,"zip":"9850874"},{"town":"八幡","koaza":"砂山","lat":38.288316,"lng":140.997386,"zip":"9850874"},{"town":"市川","koaza":"奏社","lat":38.309992,"lng":140.993121,"zip":"9850864"},{"town":"市川","koaza":"作貫","lat":38.305314,"lng":140.991463,"zip":"9850864"},{"town":"市川","koaza":"城前","lat":38.305619,"lng":140.988547,"zip":"9850864"},{"town":"市川","koaza":"後谷地","lat":38.310907,"lng":140.984507,"zip":"9850864"},{"town":"市川","koaza":"金堀","lat":38.306818,"lng":140.985465,"zip":"9850864"},{"town":"高橋","koaza":"大日北","lat":38.292386,"lng":140.978308,"zip":"9850853"},{"town":"高崎","koaza":"花の木","lat":38.292842,"lng":140.983666,"zip":"9850862"},{"town":"山王","koaza":"前田","lat":38.297422,"lng":140.977418,"zip":"9850852"},{"town":"山王","koaza":"毛上","lat":38.300118,"lng":140.98058,"zip":"9850852"},{"town":"山王","koaza":"山王一区","lat":38.299976,"lng":140.981514,"zip":"9850852"},{"town":"南宮","koaza":"毛上","lat":38.300518,"lng":140.979192,"zip":"9850851"},{"town":"南宮","koaza":"八幡","lat":38.301477,"lng":140.977858,"zip":"9850851"},{"town":"南宮","koaza":"山王谷地","lat":38.301451,"lng":140.976203,"zip":"9850851"},{"town":"南宮","koaza":"上南宮","lat":38.301876,"lng":140.970525,"zip":"9850851"},{"town":"山王","koaza":"山王五区","lat":38.293004,"lng":140.975225,"zip":"9850852"},{"town":"新田","koaza":"上","lat":38.292115,"lng":140.965665,"zip":"9850854"},{"town":"山王","koaza":"山王三区","lat":38.299272,"lng":140.980124,"zip":"9850852"},{"town":"市川","koaza":"丸山","lat":38.309425,"lng":140.984792,"zip":"9850864"}]