[{"town":"湊浜一丁目","koaza":"","lat":38.286797,"lng":141.047009,"zip":"9850813"},{"town":"汐見台四丁目","koaza":"","lat":38.300684,"lng":141.049137,"zip":"9850821"},{"town":"湊浜二丁目","koaza":"","lat":38.288563,"lng":141.046945,"zip":"9850813"},{"town":"遠山二丁目","koaza":"","lat":38.295882,"lng":141.040685,"zip":"9850823"},{"town":"汐見台二丁目","koaza":"","lat":38.299358,"lng":141.053101,"zip":"9850821"},{"town":"汐見台六丁目","koaza":"","lat":38.299251,"lng":141.056567,"zip":"9850821"},{"town":"汐見台七丁目","koaza":"","lat":38.300183,"lng":141.059268,"zip":"9850821"},{"town":"遠山四丁目","koaza":"","lat":38.301595,"lng":141.03828,"zip":"9850823"},{"town":"汐見台一丁目","koaza":"","lat":38.296726,"lng":141.054156,"zip":"9850821"},{"town":"汐見台五丁目","koaza":"","lat":38.300869,"lng":141.052301,"zip":"9850821"},{"town":"笹山","koaza":"","lat":38.296039,"lng":141.068842,"zip":"9850805"},{"town":"汐見台三丁目","koaza":"","lat":38.298562,"lng":141.048605,"zip":"9850821"},{"town":"遠山三丁目","koaza":"","lat":38.298752,"lng":141.038502,"zip":"9850823"},{"town":"汐見台南二丁目","koaza":"","lat":38.291332,"lng":141.060659,"zip":"9850822"},{"town":"汐見台南一丁目","koaza":"","lat":38.29468,"lng":141.057408,"zip":"9850822"},{"town":"境山一丁目","koaza":"","lat":38.29958,"lng":141.044673,"zip":"9850824"},{"town":"境山二丁目","koaza":"","lat":38.30176,"lng":141.042591,"zip":"9850824"},{"town":"遠山一丁目","koaza":"","lat":38.294609,"lng":141.04357,"zip":"9850823"},{"town":"遠山五丁目","koaza":"","lat":38.305663,"lng":141.038262,"zip":"9850823"},{"town":"松ヶ浜","koaza":"","lat":38.283757,"lng":141.05268,"zip":"9850812"},{"town":"湊浜","koaza":"","lat":38.28294,"lng":141.043474,"zip":"9850813"},{"town":"代ヶ崎浜","koaza":"","lat":38.313441,"lng":141.066221,"zip":"9850801"},{"town":"菖蒲田浜","koaza":"","lat":38.289968,"lng":141.054621,"zip":"9850811"},{"town":"吉田浜","koaza":"","lat":38.305906,"lng":141.068922,"zip":"9850802"},{"town":"東宮浜","koaza":"","lat":38.307555,"lng":141.05147,"zip":"9850804"},{"town":"花渕浜","koaza":"","lat":38.298491,"lng":141.076779,"zip":"9850803"},{"town":"湊浜","koaza":"砂山","lat":38.285817,"lng":141.045383,"zip":"9850813"},{"town":"東宮浜","koaza":"北下方","lat":38.307226,"lng":141.042964,"zip":"9850804"},{"town":"湊浜","koaza":"正監","lat":38.286735,"lng":141.04301,"zip":"9850813"},{"town":"湊浜","koaza":"砂場","lat":38.279448,"lng":141.044232,"zip":"9850813"},{"town":"湊浜","koaza":"沼前","lat":38.281481,"lng":141.044336,"zip":"9850813"},{"town":"東宮浜","koaza":"御林","lat":38.307005,"lng":141.04707,"zip":"9850804"},{"town":"東宮浜","koaza":"西大木","lat":38.303829,"lng":141.043511,"zip":"9850804"},{"town":"湊浜","koaza":"弁天","lat":38.280829,"lng":141.046899,"zip":"9850813"},{"town":"湊浜","koaza":"入生田","lat":38.2915,"lng":141.046277,"zip":"9850813"},{"town":"松ヶ浜","koaza":"謡","lat":38.288341,"lng":141.049171,"zip":"9850812"},{"town":"東宮浜","koaza":"左道","lat":38.309845,"lng":141.047727,"zip":"9850804"},{"town":"東宮浜","koaza":"小田","lat":38.30322,"lng":141.047897,"zip":"9850804"},{"town":"東宮浜","koaza":"荒敷","lat":38.305087,"lng":141.047395,"zip":"9850804"},{"town":"湊浜","koaza":"熊野","lat":38.283768,"lng":141.04789,"zip":"9850813"},{"town":"松ヶ浜","koaza":"新林崎","lat":38.29124,"lng":141.047477,"zip":"9850812"},{"town":"松ヶ浜","koaza":"西原","lat":38.284072,"lng":141.048326,"zip":"9850812"},{"town":"松ヶ浜","koaza":"丸山","lat":38.281697,"lng":141.049635,"zip":"9850812"},{"town":"東宮浜","koaza":"小畑","lat":38.307514,"lng":141.049013,"zip":"9850804"},{"town":"松ヶ浜","koaza":"洞坂","lat":38.280411,"lng":141.048489,"zip":"9850812"},{"town":"湊浜","koaza":"新左衛門","lat":38.280935,"lng":141.048458,"zip":"9850813"},{"town":"東宮浜","koaza":"要害","lat":38.306863,"lng":141.049855,"zip":"9850804"},{"town":"松ヶ浜","koaza":"西沢田","lat":38.282477,"lng":141.050823,"zip":"9850812"},{"town":"東宮浜","koaza":"鶴ヶ湊","lat":38.312513,"lng":141.052642,"zip":"9850804"},{"town":"松ヶ浜","koaza":"浜屋敷","lat":38.280213,"lng":141.052603,"zip":"9850812"},{"town":"東宮浜","koaza":"吉子","lat":38.304591,"lng":141.051241,"zip":"9850804"},{"town":"松ヶ浜","koaza":"待井","lat":38.283882,"lng":141.05119,"zip":"9850812"},{"town":"東宮浜","koaza":"笠岩","lat":38.309638,"lng":141.051825,"zip":"9850804"},{"town":"松ヶ浜","koaza":"祝口","lat":38.285291,"lng":141.050814,"zip":"9850812"},{"town":"松ヶ浜","koaza":"坂口","lat":38.286064,"lng":141.051061,"zip":"9850812"},{"town":"松ヶ浜","koaza":"笹山","lat":38.285905,"lng":141.052764,"zip":"9850812"},{"town":"松ヶ浜","koaza":"東沢田","lat":38.283307,"lng":141.052586,"zip":"9850812"},{"town":"松ヶ浜","koaza":"後田","lat":38.282231,"lng":141.053063,"zip":"9850812"},{"town":"東宮浜","koaza":"寺島","lat":38.311118,"lng":141.05289,"zip":"9850804"},{"town":"東宮浜","koaza":"西兼田","lat":38.303428,"lng":141.053861,"zip":"9850804"},{"town":"菖蒲田浜","koaza":"作田","lat":38.290986,"lng":141.053824,"zip":"9850811"},{"town":"菖蒲田浜","koaza":"新小塚","lat":38.2922,"lng":141.053637,"zip":"9850811"},{"town":"菖蒲田浜","koaza":"大谷地","lat":38.293395,"lng":141.053931,"zip":"9850811"},{"town":"松ヶ浜","koaza":"神明裏","lat":38.282552,"lng":141.05496,"zip":"9850812"},{"town":"松ヶ浜","koaza":"折越","lat":38.283795,"lng":141.054565,"zip":"9850812"},{"town":"東宮浜","koaza":"東兼田","lat":38.303945,"lng":141.055112,"zip":"9850804"},{"town":"菖蒲田浜","koaza":"一本松","lat":38.284377,"lng":141.054346,"zip":"9850811"},{"town":"菖蒲田浜","koaza":"獅子前","lat":38.292659,"lng":141.055789,"zip":"9850811"},{"town":"東宮浜","koaza":"上ノ台","lat":38.310444,"lng":141.055258,"zip":"9850804"},{"town":"松ヶ浜","koaza":"神明前","lat":38.282015,"lng":141.056113,"zip":"9850812"},{"town":"東宮浜","koaza":"西浦田","lat":38.307313,"lng":141.055647,"zip":"9850804"},{"town":"東宮浜","koaza":"前畑","lat":38.310475,"lng":141.056251,"zip":"9850804"},{"town":"東宮浜","koaza":"神明","lat":38.31188,"lng":141.055285,"zip":"9850804"},{"town":"菖蒲田浜","koaza":"和田","lat":38.287694,"lng":141.057616,"zip":"9850811"},{"town":"東宮浜","koaza":"浜辺","lat":38.309068,"lng":141.057206,"zip":"9850804"},{"town":"松ヶ浜","koaza":"長根","lat":38.281259,"lng":141.056469,"zip":"9850812"},{"town":"東宮浜","koaza":"石堂","lat":38.301347,"lng":141.056841,"zip":"9850804"},{"town":"東宮浜","koaza":"東浦田","lat":38.307479,"lng":141.056722,"zip":"9850804"},{"town":"菖蒲田浜","koaza":"久保","lat":38.285142,"lng":141.05693,"zip":"9850811"},{"town":"東宮浜","koaza":"丑谷辺","lat":38.305085,"lng":141.05793,"zip":"9850804"},{"town":"菖蒲田浜","koaza":"向山","lat":38.284686,"lng":141.057584,"zip":"9850811"},{"town":"東宮浜","koaza":"丑山","lat":38.313362,"lng":141.056154,"zip":"9850804"},{"town":"東宮浜","koaza":"穴切","lat":38.302947,"lng":141.057631,"zip":"9850804"},{"town":"菖蒲田浜","koaza":"新糠塚","lat":38.296416,"lng":141.059932,"zip":"9850811"},{"town":"菖蒲田浜","koaza":"西峠下","lat":38.289265,"lng":141.059551,"zip":"9850811"},{"town":"菖蒲田浜","koaza":"堤渕","lat":38.283481,"lng":141.057471,"zip":"9850811"},{"town":"東宮浜","koaza":"中山","lat":38.30998,"lng":141.059319,"zip":"9850804"},{"town":"東宮浜","koaza":"小友","lat":38.312294,"lng":141.05718,"zip":"9850804"},{"town":"菖蒲田浜","koaza":"林合","lat":38.285684,"lng":141.058674,"zip":"9850811"},{"town":"菖蒲田浜","koaza":"宅地","lat":38.283161,"lng":141.060687,"zip":"9850811"},{"town":"菖蒲田浜","koaza":"後田","lat":38.284166,"lng":141.059122,"zip":"9850811"},{"town":"菖蒲田浜","koaza":"化粧石","lat":38.290833,"lng":141.058692,"zip":"9850811"},{"town":"東宮浜","koaza":"下田堤頭","lat":38.302516,"lng":141.059087,"zip":"9850804"},{"town":"東宮浜","koaza":"水浜","lat":38.312883,"lng":141.060438,"zip":"9850804"},{"town":"菖蒲田浜","koaza":"橋元","lat":38.287088,"lng":141.059667,"zip":"9850811"},{"town":"東宮浜","koaza":"一本松","lat":38.311048,"lng":141.060241,"zip":"9850804"},{"town":"吉田浜","koaza":"野山","lat":38.302333,"lng":141.061716,"zip":"9850802"},{"town":"菖蒲田浜","koaza":"諏訪前","lat":38.286219,"lng":141.059989,"zip":"9850811"},{"town":"菖蒲田浜","koaza":"浜伊場","lat":38.285761,"lng":141.060038,"zip":"9850811"},{"town":"菖蒲田浜","koaza":"韮ヶ森","lat":38.290352,"lng":141.063398,"zip":"9850811"},{"town":"代ヶ崎浜","koaza":"土浜","lat":38.315818,"lng":141.061654,"zip":"9850801"},{"town":"代ヶ崎浜","koaza":"細田","lat":38.306909,"lng":141.06294,"zip":"9850801"},{"town":"菖蒲田浜","koaza":"石畑","lat":38.286547,"lng":141.061399,"zip":"9850811"},{"town":"菖蒲田浜","koaza":"招又","lat":38.284869,"lng":141.060956,"zip":"9850811"},{"town":"代ヶ崎浜","koaza":"一本松","lat":38.31138,"lng":141.061225,"zip":"9850801"},{"town":"菖蒲田浜","koaza":"切通","lat":38.293348,"lng":141.062772,"zip":"9850811"},{"town":"菖蒲田浜","koaza":"長砂","lat":38.288614,"lng":141.064152,"zip":"9850811"},{"town":"東宮浜","koaza":"崩","lat":38.308761,"lng":141.061773,"zip":"9850804"},{"town":"代ヶ崎浜","koaza":"蓮沼","lat":38.309981,"lng":141.064821,"zip":"9850801"},{"town":"菖蒲田浜","koaza":"牛ノ鼻木","lat":38.285028,"lng":141.062373,"zip":"9850811"},{"town":"菖蒲田浜","koaza":"東峠下","lat":38.288226,"lng":141.062192,"zip":"9850811"},{"town":"代ヶ崎浜","koaza":"沢上","lat":38.312399,"lng":141.063905,"zip":"9850801"},{"town":"代ヶ崎浜","koaza":"清水","lat":38.316735,"lng":141.063956,"zip":"9850801"},{"town":"菖蒲田浜","koaza":"東原","lat":38.295106,"lng":141.062656,"zip":"9850811"},{"town":"吉田浜","koaza":"細田","lat":38.306622,"lng":141.064704,"zip":"9850802"},{"town":"代ヶ崎浜","koaza":"峯","lat":38.314736,"lng":141.066042,"zip":"9850801"},{"town":"菖蒲田浜","koaza":"新東原","lat":38.293451,"lng":141.063855,"zip":"9850811"},{"town":"吉田浜","koaza":"小浜","lat":38.304699,"lng":141.062802,"zip":"9850802"},{"town":"花渕浜","koaza":"長須賀","lat":38.292734,"lng":141.066313,"zip":"9850803"},{"town":"代ヶ崎浜","koaza":"八ヶ森","lat":38.318755,"lng":141.067952,"zip":"9850801"},{"town":"東宮浜","koaza":"渡戸","lat":38.292573,"lng":141.06516,"zip":"9850804"},{"town":"花渕浜","koaza":"大山","lat":38.300157,"lng":141.068499,"zip":"9850803"},{"town":"代ヶ崎浜","koaza":"西","lat":38.320546,"lng":141.066231,"zip":"9850801"},{"town":"花渕浜","koaza":"大日堂","lat":38.302908,"lng":141.06618,"zip":"9850803"},{"town":"吉田浜","koaza":"上屋神","lat":38.304987,"lng":141.068646,"zip":"9850802"},{"town":"代ヶ崎浜","koaza":"新千刈田","lat":38.313515,"lng":141.066156,"zip":"9850801"},{"town":"代ヶ崎浜","koaza":"立花","lat":38.316382,"lng":141.069085,"zip":"9850801"},{"town":"代ヶ崎浜","koaza":"影田","lat":38.317702,"lng":141.069188,"zip":"9850801"},{"town":"吉田浜","koaza":"東君ヶ岡","lat":38.30611,"lng":141.071173,"zip":"9850802"},{"town":"花渕浜","koaza":"大石廻","lat":38.301862,"lng":141.071667,"zip":"9850803"},{"town":"花渕浜","koaza":"金色","lat":38.295968,"lng":141.071623,"zip":"9850803"},{"town":"花渕浜","koaza":"笹山","lat":38.298404,"lng":141.071186,"zip":"9850803"},{"town":"花渕浜","koaza":"高山","lat":38.299114,"lng":141.072709,"zip":"9850803"},{"town":"吉田浜","koaza":"神明","lat":38.31521,"lng":141.073999,"zip":"9850802"},{"town":"代ヶ崎浜","koaza":"前島","lat":38.318968,"lng":141.072358,"zip":"9850801"},{"town":"吉田浜","koaza":"大豆沢","lat":38.307978,"lng":141.07376,"zip":"9850802"},{"town":"代ヶ崎浜","koaza":"新南待田","lat":38.314922,"lng":141.07161,"zip":"9850801"},{"town":"花渕浜","koaza":"字五月田","lat":38.30185,"lng":141.075201,"zip":"9850803"},{"town":"花渕浜","koaza":"白坂","lat":38.30045,"lng":141.074327,"zip":"9850803"},{"town":"吉田浜","koaza":"西君ヶ岡","lat":38.304758,"lng":141.072257,"zip":"9850802"},{"town":"代ヶ崎浜","koaza":"向田","lat":38.315226,"lng":141.071553,"zip":"9850801"},{"town":"吉田浜","koaza":"居久保","lat":38.309457,"lng":141.07464,"zip":"9850802"},{"town":"花渕浜","koaza":"五月田","lat":38.303631,"lng":141.073987,"zip":"9850803"},{"town":"吉田浜","koaza":"新北谷地","lat":38.314271,"lng":141.073637,"zip":"9850802"},{"town":"吉田浜","koaza":"二月田","lat":38.311127,"lng":141.075446,"zip":"9850802"},{"town":"花渕浜","koaza":"浜沼","lat":38.297129,"lng":141.076591,"zip":"9850803"},{"town":"吉田浜","koaza":"宮前","lat":38.309761,"lng":141.076175,"zip":"9850802"},{"town":"花渕浜","koaza":"藤ヶ沢","lat":38.304349,"lng":141.075592,"zip":"9850803"},{"town":"花渕浜","koaza":"鹿野","lat":38.30586,"lng":141.076762,"zip":"9850803"},{"town":"吉田浜","koaza":"沢尻","lat":38.314181,"lng":141.076901,"zip":"9850802"},{"town":"花渕浜","koaza":"新五月田","lat":38.299088,"lng":141.076197,"zip":"9850803"},{"town":"花渕浜","koaza":"小塚","lat":38.299425,"lng":141.076064,"zip":"9850803"},{"town":"吉田浜","koaza":"上ノ台","lat":38.307385,"lng":141.077846,"zip":"9850802"},{"town":"花渕浜","koaza":"上ノ山","lat":38.30574,"lng":141.079291,"zip":"9850803"},{"town":"花渕浜","koaza":"観音堂","lat":38.302847,"lng":141.078593,"zip":"9850803"},{"town":"花渕浜","koaza":"安場","lat":38.30225,"lng":141.07776,"zip":"9850803"},{"town":"吉田浜","koaza":"台","lat":38.312246,"lng":141.078179,"zip":"9850802"},{"town":"吉田浜","koaza":"前塚","lat":38.310194,"lng":141.078901,"zip":"9850802"},{"town":"花渕浜","koaza":"三月田","lat":38.304236,"lng":141.077671,"zip":"9850803"},{"town":"花渕浜","koaza":"表浜一","lat":38.297318,"lng":141.078373,"zip":"9850803"},{"town":"花渕浜","koaza":"新三月田","lat":38.303684,"lng":141.07988,"zip":"9850803"},{"town":"花渕浜","koaza":"四月田","lat":38.300372,"lng":141.078269,"zip":"9850803"},{"town":"花渕浜","koaza":"新清水沢","lat":38.301067,"lng":141.082565,"zip":"9850803"},{"town":"吉田浜","koaza":"寺山","lat":38.309115,"lng":141.079387,"zip":"9850802"},{"town":"吉田浜","koaza":"浜屋敷","lat":38.308036,"lng":141.08005,"zip":"9850802"},{"town":"花渕浜","koaza":"天神堂","lat":38.299124,"lng":141.079976,"zip":"9850803"},{"town":"花渕浜","koaza":"表浜二","lat":38.296176,"lng":141.080938,"zip":"9850803"},{"town":"花渕浜","koaza":"塚田","lat":38.301991,"lng":141.080525,"zip":"9850803"},{"town":"花渕浜","koaza":"舘下","lat":38.303373,"lng":141.083521,"zip":"9850803"},{"town":"花渕浜","koaza":"山ノ神","lat":38.297237,"lng":141.08275,"zip":"9850803"},{"town":"花渕浜","koaza":"戸谷場","lat":38.294908,"lng":141.082359,"zip":"9850803"},{"town":"花渕浜","koaza":"保ヶ崎","lat":38.293768,"lng":141.083494,"zip":"9850803"},{"town":"花渕浜","koaza":"谷地","lat":38.30258,"lng":141.08228,"zip":"9850803"},{"town":"花渕浜","koaza":"祭田","lat":38.30045,"lng":141.081937,"zip":"9850803"},{"town":"花渕浜","koaza":"後田","lat":38.299778,"lng":141.081699,"zip":"9850803"},{"town":"花渕浜","koaza":"洗崎","lat":38.302176,"lng":141.083262,"zip":"9850803"},{"town":"花渕浜","koaza":"古舘","lat":38.303386,"lng":141.086039,"zip":"9850803"},{"town":"花渕浜","koaza":"寺坂","lat":38.302056,"lng":141.087438,"zip":"9850803"},{"town":"花渕浜","koaza":"堤谷","lat":38.300443,"lng":141.086442,"zip":"9850803"},{"town":"代ヶ崎浜","koaza":"南待田","lat":38.315378,"lng":141.070951,"zip":"9850801"},{"town":"吉田浜","koaza":"新南谷地","lat":38.313115,"lng":141.073958,"zip":"9850802"},{"town":"湊浜","koaza":"升形","lat":38.288559,"lng":141.044772,"zip":"9850813"},{"town":"代ヶ崎浜","koaza":"北待田","lat":38.315837,"lng":141.070323,"zip":"9850801"},{"town":"花渕浜","koaza":"誰道","lat":38.296435,"lng":141.085076,"zip":"9850803"},{"town":"花渕浜","koaza":"上清水沢","lat":38.300779,"lng":141.083821,"zip":"9850803"}]