[{"town":"沢乙東","koaza":"","lat":38.33259,"lng":140.97026,"zip":"9810124"},{"town":"中央二丁目","koaza":"","lat":38.330016,"lng":140.980927,"zip":"9810104"},{"town":"中央一丁目","koaza":"","lat":38.330367,"lng":140.984469,"zip":"9810104"},{"town":"皆の丘","koaza":"","lat":38.337273,"lng":140.975333,"zip":"9810136"},{"town":"しらかし台四丁目","koaza":"","lat":38.352652,"lng":140.96462,"zip":"9810134"},{"town":"菅谷台二丁目","koaza":"","lat":38.328233,"lng":140.950572,"zip":"9810135"},{"town":"花園二丁目","koaza":"","lat":38.340976,"lng":140.97091,"zip":"9810132"},{"town":"花園三丁目","koaza":"","lat":38.340281,"lng":140.975674,"zip":"9810132"},{"town":"中央三丁目","koaza":"","lat":38.328453,"lng":140.979888,"zip":"9810104"},{"town":"しらかし台三丁目","koaza":"","lat":38.35192,"lng":140.960759,"zip":"9810134"},{"town":"しらかし台一丁目","koaza":"","lat":38.348534,"lng":140.962968,"zip":"9810134"},{"town":"菅谷台三丁目","koaza":"","lat":38.331789,"lng":140.952828,"zip":"9810135"},{"town":"葉山一丁目","koaza":"","lat":38.364458,"lng":141.022884,"zip":"9810105"},{"town":"菅谷台一丁目","koaza":"","lat":38.327516,"lng":140.953371,"zip":"9810135"},{"town":"青山四丁目","koaza":"","lat":38.350507,"lng":140.971114,"zip":"9810131"},{"town":"青山三丁目","koaza":"","lat":38.346509,"lng":140.971053,"zip":"9810131"},{"town":"青葉台二丁目","koaza":"","lat":38.337644,"lng":140.96298,"zip":"9810133"},{"town":"青葉台三丁目","koaza":"","lat":38.341095,"lng":140.960014,"zip":"9810133"},{"town":"花園一丁目","koaza":"","lat":38.336148,"lng":140.972359,"zip":"9810132"},{"town":"青山一丁目","koaza":"","lat":38.337634,"lng":140.967853,"zip":"9810131"},{"town":"しらかし台二丁目","koaza":"","lat":38.345847,"lng":140.958054,"zip":"9810134"},{"town":"菅谷台四丁目","koaza":"","lat":38.331221,"lng":140.957838,"zip":"9810135"},{"town":"青山二丁目","koaza":"","lat":38.341997,"lng":140.968137,"zip":"9810131"},{"town":"しらかし台五丁目","koaza":"","lat":38.350177,"lng":140.966879,"zip":"9810134"},{"town":"葉山二丁目","koaza":"","lat":38.368372,"lng":141.02508,"zip":"9810105"},{"town":"青葉台一丁目","koaza":"","lat":38.334541,"lng":140.964624,"zip":"9810133"},{"town":"しらかし台六丁目","koaza":"","lat":38.344205,"lng":140.962478,"zip":"9810134"},{"town":"飯土井","koaza":"","lat":38.316847,"lng":140.966908,"zip":"9810113"},{"town":"利府","koaza":"","lat":38.326551,"lng":140.971678,"zip":"9810112"},{"town":"神谷沢","koaza":"","lat":38.317725,"lng":140.946908,"zip":"9810121"},{"town":"沢乙","koaza":"","lat":38.342371,"lng":140.954716,"zip":"9810123"},{"town":"加瀬","koaza":"","lat":38.318458,"lng":140.986574,"zip":"9810111"},{"town":"菅谷","koaza":"","lat":38.336619,"lng":140.9476,"zip":"9810122"},{"town":"春日","koaza":"","lat":38.351798,"lng":141.002709,"zip":"9810102"},{"town":"森郷","koaza":"","lat":38.349822,"lng":140.980373,"zip":"9810103"},{"town":"赤沼","koaza":"","lat":38.35565,"lng":141.033154,"zip":"9810101"},{"town":"神谷沢","koaza":"広畑","lat":38.314589,"lng":140.944384,"zip":"9810121"},{"town":"神谷沢","koaza":"菅野沢","lat":38.3215,"lng":140.936535,"zip":"9810121"},{"town":"菅谷","koaza":"桟敷","lat":38.340496,"lng":140.946038,"zip":"9810122"},{"town":"菅谷","koaza":"孝行松下","lat":38.347086,"lng":140.942226,"zip":"9810122"},{"town":"菅谷","koaza":"明神沢","lat":38.35073,"lng":140.944954,"zip":"9810122"},{"town":"神谷沢","koaza":"南沢","lat":38.312395,"lng":140.948068,"zip":"9810121"},{"town":"神谷沢","koaza":"北沢","lat":38.317735,"lng":140.947652,"zip":"9810121"},{"town":"神谷沢","koaza":"金沢","lat":38.311413,"lng":140.948433,"zip":"9810121"},{"town":"菅谷","koaza":"石場","lat":38.335234,"lng":140.947133,"zip":"9810122"},{"town":"菅谷","koaza":"榎","lat":38.340895,"lng":140.949221,"zip":"9810122"},{"town":"菅谷","koaza":"西笠菅沢","lat":38.320612,"lng":140.953679,"zip":"9810122"},{"town":"菅谷","koaza":"女ケ沢","lat":38.340352,"lng":140.94814,"zip":"9810122"},{"town":"菅谷","koaza":"穴ケ沢","lat":38.324119,"lng":140.952285,"zip":"9810122"},{"town":"菅谷","koaza":"孝行松","lat":38.343621,"lng":140.950216,"zip":"9810122"},{"town":"菅谷","koaza":"赤萱","lat":38.318778,"lng":140.953508,"zip":"9810122"},{"town":"神谷沢","koaza":"長田","lat":38.314756,"lng":140.952111,"zip":"9810121"},{"town":"神谷沢","koaza":"後沢","lat":38.316778,"lng":140.954798,"zip":"9810121"},{"town":"沢乙","koaza":"欠下北","lat":38.343698,"lng":140.955361,"zip":"9810123"},{"town":"神谷沢","koaza":"館ノ内","lat":38.311659,"lng":140.954611,"zip":"9810121"},{"town":"沢乙","koaza":"西沢北","lat":38.339293,"lng":140.955584,"zip":"9810123"},{"town":"沢乙","koaza":"白石沢","lat":38.355185,"lng":140.957096,"zip":"9810123"},{"town":"神谷沢","koaza":"化粧坂","lat":38.31196,"lng":140.956245,"zip":"9810121"},{"town":"神谷沢","koaza":"塚元","lat":38.314797,"lng":140.956143,"zip":"9810121"},{"town":"菅谷","koaza":"南熊ノ前","lat":38.325068,"lng":140.957069,"zip":"9810122"},{"town":"菅谷","koaza":"南馬場崎","lat":38.321835,"lng":140.955817,"zip":"9810122"},{"town":"菅谷","koaza":"山苗代","lat":38.327082,"lng":140.956402,"zip":"9810122"},{"town":"沢乙","koaza":"唄沢","lat":38.346359,"lng":140.954963,"zip":"9810123"},{"town":"菅谷","koaza":"笠菅沢","lat":38.320722,"lng":140.956169,"zip":"9810122"},{"town":"神谷沢","koaza":"赤坂","lat":38.317081,"lng":140.956923,"zip":"9810121"},{"town":"菅谷","koaza":"廻","lat":38.322321,"lng":140.956282,"zip":"9810122"},{"town":"菅谷","koaza":"西天神","lat":38.31862,"lng":140.957345,"zip":"9810122"},{"town":"菅谷","koaza":"馬場崎","lat":38.32218,"lng":140.958282,"zip":"9810122"},{"town":"沢乙","koaza":"大沢西","lat":38.335177,"lng":140.958295,"zip":"9810123"},{"town":"菅谷","koaza":"新笠菅沢","lat":38.320067,"lng":140.957807,"zip":"9810122"},{"town":"沢乙","koaza":"欠下南","lat":38.340686,"lng":140.957866,"zip":"9810123"},{"town":"沢乙","koaza":"欠下東","lat":38.34094,"lng":140.957848,"zip":"9810123"},{"town":"菅谷","koaza":"新馬場崎前","lat":38.321467,"lng":140.957817,"zip":"9810122"},{"town":"菅谷","koaza":"赤坂","lat":38.319269,"lng":140.959423,"zip":"9810122"},{"town":"神谷沢","koaza":"新宮本","lat":38.311618,"lng":140.960698,"zip":"9810121"},{"town":"神谷沢","koaza":"新宮ケ崎","lat":38.314736,"lng":140.959882,"zip":"9810121"},{"town":"菅谷","koaza":"滝ノ沢","lat":38.325369,"lng":140.958758,"zip":"9810122"},{"town":"神谷沢","koaza":"宮ケ崎","lat":38.316261,"lng":140.958361,"zip":"9810121"},{"town":"沢乙","koaza":"大沢東","lat":38.335051,"lng":140.958627,"zip":"9810123"},{"town":"菅谷","koaza":"新産野原","lat":38.316677,"lng":140.960558,"zip":"9810122"},{"town":"菅谷","koaza":"産野原","lat":38.318397,"lng":140.960322,"zip":"9810122"},{"town":"菅谷","koaza":"寺沢","lat":38.323859,"lng":140.959765,"zip":"9810122"},{"town":"沢乙","koaza":"西沢南","lat":38.33269,"lng":140.959208,"zip":"9810123"},{"town":"沢乙","koaza":"山岸","lat":38.329274,"lng":140.961092,"zip":"9810123"},{"town":"菅谷","koaza":"新洞風","lat":38.321377,"lng":140.960259,"zip":"9810122"},{"town":"菅谷","koaza":"西浦","lat":38.320356,"lng":140.961984,"zip":"9810122"},{"town":"沢乙","koaza":"山岸前","lat":38.328417,"lng":140.962255,"zip":"9810123"},{"town":"神谷沢","koaza":"新江渕","lat":38.310527,"lng":140.964097,"zip":"9810121"},{"town":"沢乙","koaza":"石橋","lat":38.329104,"lng":140.962217,"zip":"9810123"},{"town":"菅谷","koaza":"東浦","lat":38.318935,"lng":140.96316,"zip":"9810122"},{"town":"沢乙","koaza":"高嶋","lat":38.329026,"lng":140.963017,"zip":"9810123"},{"town":"沢乙","koaza":"高島前","lat":38.327896,"lng":140.963576,"zip":"9810123"},{"town":"飯土井","koaza":"長者前","lat":38.319611,"lng":140.964328,"zip":"9810113"},{"town":"飯土井","koaza":"長者","lat":38.322843,"lng":140.964076,"zip":"9810113"},{"town":"飯土井","koaza":"新長者","lat":38.322747,"lng":140.965591,"zip":"9810113"},{"town":"飯土井","koaza":"中堀","lat":38.320585,"lng":140.96356,"zip":"9810113"},{"town":"沢乙","koaza":"深山","lat":38.330609,"lng":140.966494,"zip":"9810123"},{"town":"沢乙","koaza":"前田","lat":38.329187,"lng":140.96464,"zip":"9810123"},{"town":"沢乙","koaza":"深山前","lat":38.32946,"lng":140.966577,"zip":"9810123"},{"town":"菅谷","koaza":"西谷地","lat":38.313209,"lng":140.97049,"zip":"9810122"},{"town":"森郷","koaza":"内ノ目北","lat":38.35358,"lng":140.973726,"zip":"9810103"},{"town":"飯土井","koaza":"新砂押迎","lat":38.321274,"lng":140.96734,"zip":"9810113"},{"town":"菅谷","koaza":"新川崎","lat":38.314793,"lng":140.968566,"zip":"9810122"},{"town":"利府","koaza":"八幡崎","lat":38.328959,"lng":140.970644,"zip":"9810112"},{"town":"沢乙","koaza":"熊野堂","lat":38.331967,"lng":140.968223,"zip":"9810123"},{"town":"利府","koaza":"八幡崎前","lat":38.325488,"lng":140.969964,"zip":"9810112"},{"town":"飯土井","koaza":"新下砂押","lat":38.317698,"lng":140.969481,"zip":"9810113"},{"town":"沢乙","koaza":"向山","lat":38.329932,"lng":140.970587,"zip":"9810123"},{"town":"沢乙","koaza":"新北橋","lat":38.331535,"lng":140.969594,"zip":"9810123"},{"town":"利府","koaza":"新谷地脇","lat":38.315809,"lng":140.971158,"zip":"9810112"},{"town":"利府","koaza":"新中道","lat":38.323114,"lng":140.972514,"zip":"9810112"},{"town":"利府","koaza":"堀切前","lat":38.329324,"lng":140.972657,"zip":"9810112"},{"town":"利府","koaza":"新大谷地","lat":38.328699,"lng":140.973773,"zip":"9810112"},{"town":"利府","koaza":"新油田","lat":38.320151,"lng":140.973854,"zip":"9810112"},{"town":"沢乙","koaza":"北橋","lat":38.332072,"lng":140.97167,"zip":"9810123"},{"town":"利府","koaza":"大曲","lat":38.316971,"lng":140.972406,"zip":"9810112"},{"town":"加瀬","koaza":"新大友","lat":38.316349,"lng":140.972802,"zip":"9810111"},{"town":"利府","koaza":"新屋田前","lat":38.32611,"lng":140.972548,"zip":"9810112"},{"town":"沢乙","koaza":"寺下","lat":38.332358,"lng":140.973403,"zip":"9810123"},{"town":"森郷","koaza":"内ノ目南","lat":38.341314,"lng":140.980125,"zip":"9810103"},{"town":"加瀬","koaza":"赤糯田","lat":38.318381,"lng":140.974748,"zip":"9810111"},{"town":"利府","koaza":"谷地脇","lat":38.317661,"lng":140.973219,"zip":"9810112"},{"town":"沢乙","koaza":"館ケ沢","lat":38.334354,"lng":140.97516,"zip":"9810123"},{"town":"利府","koaza":"新揺橋","lat":38.323304,"lng":140.973452,"zip":"9810112"},{"town":"利府","koaza":"館","lat":38.332005,"lng":140.976697,"zip":"9810112"},{"town":"利府","koaza":"新並松","lat":38.331071,"lng":140.976821,"zip":"9810112"},{"town":"加瀬","koaza":"新前谷地","lat":38.328509,"lng":140.975764,"zip":"9810111"},{"town":"利府","koaza":"城内","lat":38.335859,"lng":140.980496,"zip":"9810112"},{"town":"加瀬","koaza":"新町頭","lat":38.32466,"lng":140.977626,"zip":"9810111"},{"town":"加瀬","koaza":"新赤堰","lat":38.322432,"lng":140.978635,"zip":"9810111"},{"town":"利府","koaza":"新館","lat":38.331848,"lng":140.976986,"zip":"9810112"},{"town":"加瀬","koaza":"新一本杉","lat":38.310551,"lng":140.977802,"zip":"9810111"},{"town":"加瀬","koaza":"新南浦","lat":38.325003,"lng":140.978096,"zip":"9810111"},{"town":"加瀬","koaza":"町頭","lat":38.327012,"lng":140.977624,"zip":"9810111"},{"town":"利府","koaza":"新神明前","lat":38.331511,"lng":140.979697,"zip":"9810112"},{"town":"加瀬","koaza":"稲葉崎","lat":38.312575,"lng":140.977988,"zip":"9810111"},{"town":"加瀬","koaza":"町","lat":38.327199,"lng":140.978821,"zip":"9810111"},{"town":"加瀬","koaza":"船岡","lat":38.311395,"lng":140.978363,"zip":"9810111"},{"town":"利府","koaza":"神明前","lat":38.331212,"lng":140.979112,"zip":"9810112"},{"town":"加瀬","koaza":"南浦","lat":38.326869,"lng":140.979077,"zip":"9810111"},{"town":"加瀬","koaza":"新藤倉","lat":38.325248,"lng":140.981232,"zip":"9810111"},{"town":"利府","koaza":"大町","lat":38.331049,"lng":140.980913,"zip":"9810112"},{"town":"加瀬","koaza":"台城","lat":38.316665,"lng":140.98261,"zip":"9810111"},{"town":"加瀬","koaza":"北窪","lat":38.321768,"lng":140.983,"zip":"9810111"},{"town":"加瀬","koaza":"新船岡","lat":38.309099,"lng":140.980079,"zip":"9810111"},{"town":"加瀬","koaza":"河原","lat":38.327608,"lng":140.981728,"zip":"9810111"},{"town":"加瀬","koaza":"新河原","lat":38.326026,"lng":140.980205,"zip":"9810111"},{"town":"利府","koaza":"館前","lat":38.332296,"lng":140.979995,"zip":"9810112"},{"town":"加瀬","koaza":"松崎","lat":38.312896,"lng":140.981658,"zip":"9810111"},{"town":"加瀬","koaza":"川迎","lat":38.320906,"lng":140.98118,"zip":"9810111"},{"town":"利府","koaza":"城前","lat":38.332947,"lng":140.98167,"zip":"9810112"},{"town":"森郷","koaza":"円福寺","lat":38.33699,"lng":140.986077,"zip":"9810103"},{"town":"加瀬","koaza":"窪","lat":38.3154,"lng":140.981519,"zip":"9810111"},{"town":"森郷","koaza":"間々合","lat":38.327449,"lng":140.982386,"zip":"9810103"},{"town":"森郷","koaza":"古戸","lat":38.336794,"lng":140.98335,"zip":"9810103"},{"town":"加瀬","koaza":"元川迎","lat":38.326615,"lng":140.982555,"zip":"9810111"},{"town":"加瀬","koaza":"新男鹿島","lat":38.324607,"lng":140.984675,"zip":"9810111"},{"town":"森郷","koaza":"新椎ノ木前","lat":38.333463,"lng":140.983847,"zip":"9810103"},{"town":"加瀬","koaza":"永松沢","lat":38.320031,"lng":140.983091,"zip":"9810111"},{"town":"森郷","koaza":"仲町浦","lat":38.332468,"lng":140.983841,"zip":"9810103"},{"town":"利府","koaza":"椎ノ木","lat":38.334815,"lng":140.983111,"zip":"9810112"},{"town":"加瀬","koaza":"天形","lat":38.318665,"lng":140.98471,"zip":"9810111"},{"town":"加瀬","koaza":"新堤下","lat":38.313345,"lng":140.98535,"zip":"9810111"},{"town":"加瀬","koaza":"男鹿島","lat":38.324091,"lng":140.983943,"zip":"9810111"},{"town":"森郷","koaza":"町","lat":38.331497,"lng":140.987114,"zip":"9810103"},{"town":"加瀬","koaza":"稲荷山","lat":38.322426,"lng":140.986547,"zip":"9810111"},{"town":"森郷","koaza":"柱田","lat":38.330091,"lng":140.986909,"zip":"9810103"},{"town":"森郷","koaza":"名古曽","lat":38.344869,"lng":140.989527,"zip":"9810103"},{"town":"加瀬","koaza":"男鹿島台","lat":38.323583,"lng":140.98626,"zip":"9810111"},{"town":"加瀬","koaza":"瓦崎","lat":38.316845,"lng":140.986493,"zip":"9810111"},{"town":"加瀬","koaza":"二本木","lat":38.315161,"lng":140.98682,"zip":"9810111"},{"town":"森郷","koaza":"惣ノ関北","lat":38.340582,"lng":140.988787,"zip":"9810103"},{"town":"加瀬","koaza":"女ケ島","lat":38.32552,"lng":140.986268,"zip":"9810111"},{"town":"加瀬","koaza":"新柚の木","lat":38.327369,"lng":140.986505,"zip":"9810111"},{"town":"森郷","koaza":"新太子堂","lat":38.334264,"lng":140.986211,"zip":"9810103"},{"town":"森郷","koaza":"新柱田","lat":38.328995,"lng":140.986307,"zip":"9810103"},{"town":"加瀬","koaza":"後山","lat":38.326712,"lng":140.987121,"zip":"9810111"},{"town":"森郷","koaza":"新町浦","lat":38.333109,"lng":140.986554,"zip":"9810103"},{"town":"加瀬","koaza":"東ケ窪","lat":38.317022,"lng":140.987437,"zip":"9810111"},{"town":"加瀬","koaza":"山屋敷","lat":38.319288,"lng":140.987948,"zip":"9810111"},{"town":"森郷","koaza":"蓮沼","lat":38.329146,"lng":140.98825,"zip":"9810103"},{"town":"春日","koaza":"芦ノ口","lat":38.348018,"lng":141.002776,"zip":"9810102"},{"town":"森郷","koaza":"町浦","lat":38.332941,"lng":140.987385,"zip":"9810103"},{"town":"森郷","koaza":"塚崎","lat":38.337451,"lng":140.988805,"zip":"9810103"},{"town":"森郷","koaza":"柚ノ木","lat":38.328282,"lng":140.988609,"zip":"9810103"},{"town":"森郷","koaza":"町頭","lat":38.332927,"lng":140.988611,"zip":"9810103"},{"town":"森郷","koaza":"一里塚","lat":38.334299,"lng":140.989521,"zip":"9810103"},{"town":"加瀬","koaza":"油ノ木","lat":38.327241,"lng":140.989161,"zip":"9810111"},{"town":"加瀬","koaza":"東後山","lat":38.324958,"lng":140.991991,"zip":"9810111"},{"town":"森郷","koaza":"関根","lat":38.331624,"lng":140.991562,"zip":"9810103"},{"town":"加瀬","koaza":"十三本塚","lat":38.319039,"lng":140.993711,"zip":"9810111"},{"town":"森郷","koaza":"後山","lat":38.326575,"lng":140.99414,"zip":"9810103"},{"town":"森郷","koaza":"後楽西","lat":38.329019,"lng":140.990874,"zip":"9810103"},{"town":"森郷","koaza":"石田","lat":38.335331,"lng":140.991428,"zip":"9810103"},{"town":"加瀬","koaza":"岩井堂","lat":38.316028,"lng":140.991828,"zip":"9810111"},{"town":"春日","koaza":"黒森","lat":38.358979,"lng":141.002167,"zip":"9810102"},{"town":"加瀬","koaza":"洞メキ","lat":38.321691,"lng":140.991226,"zip":"9810111"},{"town":"加瀬","koaza":"天神台","lat":38.322924,"lng":140.991219,"zip":"9810111"},{"town":"森郷","koaza":"諏訪前","lat":38.334556,"lng":140.991685,"zip":"9810103"},{"town":"春日","koaza":"寒風沢","lat":38.346444,"lng":140.996631,"zip":"9810102"},{"town":"春日","koaza":"金突堂","lat":38.34421,"lng":140.994821,"zip":"9810102"},{"town":"森郷","koaza":"堀川","lat":38.335576,"lng":140.993205,"zip":"9810103"},{"town":"春日","koaza":"宮ノ前","lat":38.34296,"lng":140.994477,"zip":"9810102"},{"town":"森郷","koaza":"山中","lat":38.33372,"lng":140.993763,"zip":"9810103"},{"town":"加瀬","koaza":"十三塚","lat":38.323163,"lng":140.994655,"zip":"9810111"},{"town":"森郷","koaza":"後楽東","lat":38.330547,"lng":140.995459,"zip":"9810103"},{"town":"春日","koaza":"穴切","lat":38.336611,"lng":140.993097,"zip":"9810102"},{"town":"森郷","koaza":"川袋","lat":38.334743,"lng":140.994576,"zip":"9810103"},{"town":"森郷","koaza":"藤田","lat":38.336983,"lng":140.996448,"zip":"9810103"},{"town":"加瀬","koaza":"郷楽","lat":38.327168,"lng":140.996284,"zip":"9810111"},{"town":"森郷","koaza":"土橋","lat":38.335203,"lng":140.998391,"zip":"9810103"},{"town":"加瀬","koaza":"野中沢","lat":38.325378,"lng":140.999675,"zip":"9810111"},{"town":"春日","koaza":"小橋元","lat":38.353361,"lng":141.014862,"zip":"9810102"},{"town":"春日","koaza":"山崎","lat":38.338729,"lng":140.996471,"zip":"9810102"},{"town":"春日","koaza":"深田","lat":38.342398,"lng":140.996216,"zip":"9810102"},{"town":"春日","koaza":"新堀","lat":38.34484,"lng":140.99709,"zip":"9810102"},{"town":"加瀬","koaza":"南野中沢","lat":38.322924,"lng":141.000084,"zip":"9810111"},{"town":"加瀬","koaza":"石切場","lat":38.320168,"lng":140.998917,"zip":"9810111"},{"town":"春日","koaza":"山際","lat":38.342635,"lng":140.997607,"zip":"9810102"},{"town":"春日","koaza":"金生","lat":38.346026,"lng":141.000016,"zip":"9810102"},{"town":"森郷","koaza":"東沢","lat":38.332092,"lng":140.997489,"zip":"9810103"},{"town":"春日","koaza":"畑合","lat":38.339894,"lng":140.996595,"zip":"9810102"},{"town":"春日","koaza":"神楽崎","lat":38.339812,"lng":140.997973,"zip":"9810102"},{"town":"春日","koaza":"泉田","lat":38.341695,"lng":140.996075,"zip":"9810102"},{"town":"春日","koaza":"岩沢","lat":38.338043,"lng":140.998144,"zip":"9810102"},{"town":"春日","koaza":"金鋳神","lat":38.34377,"lng":140.99886,"zip":"9810102"},{"town":"森郷","koaza":"大窪南","lat":38.332559,"lng":141.003547,"zip":"9810103"},{"town":"森郷","koaza":"大窪北","lat":38.338154,"lng":141.003942,"zip":"9810103"},{"town":"春日","koaza":"山岸","lat":38.339098,"lng":140.999683,"zip":"9810102"},{"town":"春日","koaza":"塚田","lat":38.341877,"lng":140.999237,"zip":"9810102"},{"town":"春日","koaza":"山下","lat":38.345297,"lng":141.00173,"zip":"9810102"},{"town":"春日","koaza":"勝負沢","lat":38.340482,"lng":141.005519,"zip":"9810102"},{"town":"春日","koaza":"袖沢","lat":38.344083,"lng":141.007421,"zip":"9810102"},{"town":"春日","koaza":"愛宕下","lat":38.349061,"lng":141.004649,"zip":"9810102"},{"town":"春日","koaza":"柳沢","lat":38.34959,"lng":141.007787,"zip":"9810102"},{"town":"春日","koaza":"二ツ石","lat":38.351182,"lng":141.011753,"zip":"9810102"},{"town":"春日","koaza":"黄金井","lat":38.347621,"lng":141.007993,"zip":"9810102"},{"town":"春日","koaza":"筆沢","lat":38.347031,"lng":141.009172,"zip":"9810102"},{"town":"春日","koaza":"硯沢","lat":38.344408,"lng":141.012706,"zip":"9810102"},{"town":"赤沼","koaza":"大日向","lat":38.358927,"lng":141.020342,"zip":"9810101"},{"town":"赤沼","koaza":"番ケ森","lat":38.361864,"lng":141.017675,"zip":"9810101"},{"town":"春日","koaza":"大沢","lat":38.353581,"lng":141.016716,"zip":"9810102"},{"town":"赤沼","koaza":"谷地","lat":38.355989,"lng":141.021307,"zip":"9810101"},{"town":"赤沼","koaza":"細谷","lat":38.354372,"lng":141.023212,"zip":"9810101"},{"town":"赤沼","koaza":"宮下","lat":38.357679,"lng":141.023674,"zip":"9810101"},{"town":"赤沼","koaza":"坂ノ下","lat":38.360623,"lng":141.024079,"zip":"9810101"},{"town":"赤沼","koaza":"須賀","lat":38.339148,"lng":141.027012,"zip":"9810101"},{"town":"赤沼","koaza":"仁又","lat":38.354732,"lng":141.029315,"zip":"9810101"},{"town":"赤沼","koaza":"横海道","lat":38.36157,"lng":141.02492,"zip":"9810101"},{"town":"赤沼","koaza":"中ノ岫","lat":38.362909,"lng":141.026506,"zip":"9810101"},{"town":"赤沼","koaza":"樽田","lat":38.358382,"lng":141.033548,"zip":"9810101"},{"town":"赤沼","koaza":"中倉","lat":38.343978,"lng":141.037593,"zip":"9810101"},{"town":"赤沼","koaza":"放森","lat":38.367297,"lng":141.029794,"zip":"9810101"},{"town":"赤沼","koaza":"向田","lat":38.36053,"lng":141.027417,"zip":"9810101"},{"town":"赤沼","koaza":"砂押","lat":38.364031,"lng":141.030065,"zip":"9810101"},{"town":"赤沼","koaza":"浜田","lat":38.347797,"lng":141.039942,"zip":"9810101"},{"town":"赤沼","koaza":"丹波沢","lat":38.353722,"lng":141.036376,"zip":"9810101"},{"town":"赤沼","koaza":"明ケ沢","lat":38.364904,"lng":141.034362,"zip":"9810101"},{"town":"赤沼","koaza":"越戸","lat":38.361549,"lng":141.035539,"zip":"9810101"},{"town":"赤沼","koaza":"行屋下","lat":38.368341,"lng":141.036058,"zip":"9810101"},{"town":"赤沼","koaza":"井戸尻","lat":38.351559,"lng":141.04365,"zip":"9810101"},{"town":"赤沼","koaza":"二本椚","lat":38.369495,"lng":141.040613,"zip":"9810101"},{"town":"赤沼","koaza":"櫃ケ沢","lat":38.34806,"lng":141.054168,"zip":"9810101"},{"town":"飯土井","koaza":"新中堀","lat":38.317384,"lng":140.966529,"zip":"9810113"},{"town":"菅谷","koaza":"新山苗代","lat":38.327081,"lng":140.958948,"zip":"9810122"},{"town":"赤沼","koaza":"脇ノ田","lat":38.361998,"lng":141.031873,"zip":"9810101"},{"town":"春日","koaza":"琵琶ケ崎","lat":38.339915,"lng":140.995235,"zip":"9810102"}]