[{"town":"磯崎","koaza":"","lat":38.38788,"lng":141.079564,"zip":"9810212"},{"town":"初原","koaza":"","lat":38.401452,"lng":141.048355,"zip":"9810204"},{"town":"高城","koaza":"","lat":38.388278,"lng":141.060342,"zip":"9810215"},{"town":"根廻","koaza":"","lat":38.407674,"lng":141.071379,"zip":"9810203"},{"town":"北小泉","koaza":"","lat":38.42161,"lng":141.102808,"zip":"9810202"},{"town":"桜渡戸","koaza":"","lat":38.383293,"lng":141.034999,"zip":"9810214"},{"town":"松島","koaza":"","lat":38.366157,"lng":141.053869,"zip":"9810213"},{"town":"竹谷","koaza":"","lat":38.434182,"lng":141.109104,"zip":"9810201"},{"town":"手樽","koaza":"","lat":38.387791,"lng":141.10534,"zip":"9810211"},{"town":"幡谷","koaza":"","lat":38.427557,"lng":141.072075,"zip":"9810205"},{"town":"桜渡戸","koaza":"館ケ沢","lat":38.371413,"lng":141.02716,"zip":"9810214"},{"town":"桜渡戸","koaza":"紫原","lat":38.379157,"lng":141.02755,"zip":"9810214"},{"town":"桜渡戸","koaza":"浜井場","lat":38.383292,"lng":141.029725,"zip":"9810214"},{"town":"桜渡戸","koaza":"上境田","lat":38.386521,"lng":141.03105,"zip":"9810214"},{"town":"桜渡戸","koaza":"附子ケ沢","lat":38.375841,"lng":141.031547,"zip":"9810214"},{"town":"桜渡戸","koaza":"雁ケ沢","lat":38.378356,"lng":141.031657,"zip":"9810214"},{"town":"桜渡戸","koaza":"高清水","lat":38.373306,"lng":141.030721,"zip":"9810214"},{"town":"桜渡戸","koaza":"三反田","lat":38.385797,"lng":141.032999,"zip":"9810214"},{"town":"桜渡戸","koaza":"檀山","lat":38.379833,"lng":141.032756,"zip":"9810214"},{"town":"桜渡戸","koaza":"向田","lat":38.38159,"lng":141.034004,"zip":"9810214"},{"town":"桜渡戸","koaza":"麦田","lat":38.386516,"lng":141.035162,"zip":"9810214"},{"town":"桜渡戸","koaza":"中島","lat":38.384697,"lng":141.036291,"zip":"9810214"},{"town":"初原","koaza":"山下","lat":38.402655,"lng":141.041463,"zip":"9810204"},{"town":"桜渡戸","koaza":"鶴巻","lat":38.390378,"lng":141.037997,"zip":"9810214"},{"town":"桜渡戸","koaza":"土井下","lat":38.384539,"lng":141.040089,"zip":"9810214"},{"town":"桜渡戸","koaza":"真言","lat":38.392968,"lng":141.040356,"zip":"9810214"},{"town":"初原","koaza":"原","lat":38.405151,"lng":141.044307,"zip":"9810204"},{"town":"桜渡戸","koaza":"欠ノ下","lat":38.392344,"lng":141.042439,"zip":"9810214"},{"town":"桜渡戸","koaza":"芦ケ沢","lat":38.382566,"lng":141.040865,"zip":"9810214"},{"town":"桜渡戸","koaza":"蒲ケ沢","lat":38.378626,"lng":141.043379,"zip":"9810214"},{"town":"初原","koaza":"中田","lat":38.400139,"lng":141.041073,"zip":"9810204"},{"town":"初原","koaza":"焼林","lat":38.401638,"lng":141.044753,"zip":"9810204"},{"town":"初原","koaza":"欠田","lat":38.39957,"lng":141.045872,"zip":"9810204"},{"town":"初原","koaza":"樋渡","lat":38.396633,"lng":141.043159,"zip":"9810204"},{"town":"高城","koaza":"石田沢一","lat":38.380955,"lng":141.048459,"zip":"9810215"},{"town":"初原","koaza":"日当","lat":38.403566,"lng":141.045625,"zip":"9810204"},{"town":"松島","koaza":"猪ノ原","lat":38.372625,"lng":141.046883,"zip":"9810213"},{"town":"初原","koaza":"砂押","lat":38.401307,"lng":141.047919,"zip":"9810204"},{"town":"高城","koaza":"居網二","lat":38.385633,"lng":141.048356,"zip":"9810215"},{"town":"松島","koaza":"大沢平","lat":38.363743,"lng":141.049277,"zip":"9810213"},{"town":"初原","koaza":"樋ノ沢","lat":38.395253,"lng":141.055176,"zip":"9810204"},{"town":"初原","koaza":"志戸内","lat":38.400811,"lng":141.05282,"zip":"9810204"},{"town":"初原","koaza":"金井神","lat":38.404076,"lng":141.048919,"zip":"9810204"},{"town":"松島","koaza":"犬田","lat":38.367097,"lng":141.057204,"zip":"9810213"},{"town":"初原","koaza":"黒ケ沢","lat":38.404138,"lng":141.047711,"zip":"9810204"},{"town":"松島","koaza":"湯ノ原","lat":38.376353,"lng":141.050016,"zip":"9810213"},{"town":"初原","koaza":"的場","lat":38.403748,"lng":141.051174,"zip":"9810204"},{"town":"松島","koaza":"桜岡入","lat":38.356571,"lng":141.054392,"zip":"9810213"},{"town":"高城","koaza":"白坂","lat":38.38704,"lng":141.053316,"zip":"9810215"},{"town":"松島","koaza":"石田沢","lat":38.37216,"lng":141.050905,"zip":"9810213"},{"town":"松島","koaza":"鬼ノ膝付","lat":38.377764,"lng":141.051118,"zip":"9810213"},{"town":"高城","koaza":"馬場二","lat":38.381938,"lng":141.057091,"zip":"9810215"},{"town":"松島","koaza":"三十刈","lat":38.372168,"lng":141.05205,"zip":"9810213"},{"town":"初原","koaza":"向田","lat":38.401368,"lng":141.05325,"zip":"9810204"},{"town":"初原","koaza":"宮下","lat":38.403086,"lng":141.053445,"zip":"9810204"},{"town":"松島","koaza":"町頭","lat":38.369922,"lng":141.05671,"zip":"9810213"},{"town":"松島","koaza":"小石浜","lat":38.358307,"lng":141.058925,"zip":"9810213"},{"town":"高城","koaza":"馬場一","lat":38.383344,"lng":141.05524,"zip":"9810215"},{"town":"初原","koaza":"馬場","lat":38.401629,"lng":141.053881,"zip":"9810204"},{"town":"松島","koaza":"小梨屋","lat":38.381058,"lng":141.064112,"zip":"9810213"},{"town":"高城","koaza":"居網一","lat":38.386456,"lng":141.05537,"zip":"9810215"},{"town":"幡谷","koaza":"後沢","lat":38.429376,"lng":141.056705,"zip":"9810205"},{"town":"初原","koaza":"松本","lat":38.405182,"lng":141.057793,"zip":"9810204"},{"town":"初原","koaza":"岩清水","lat":38.398951,"lng":141.056358,"zip":"9810204"},{"town":"松島","koaza":"葉山沢","lat":38.374342,"lng":141.056919,"zip":"9810213"},{"town":"高城","koaza":"石田沢二","lat":38.384425,"lng":141.056347,"zip":"9810215"},{"town":"幡谷","koaza":"地蔵","lat":38.42284,"lng":141.061038,"zip":"9810205"},{"town":"高城","koaza":"柿ノ木","lat":38.388293,"lng":141.057792,"zip":"9810215"},{"town":"幡谷","koaza":"原ケ沢","lat":38.417305,"lng":141.062307,"zip":"9810205"},{"town":"幡谷","koaza":"泉ケ原","lat":38.418264,"lng":141.058218,"zip":"9810205"},{"town":"高城","koaza":"反町二","lat":38.399378,"lng":141.059128,"zip":"9810215"},{"town":"松島","koaza":"霞ケ浦","lat":38.365265,"lng":141.057666,"zip":"9810213"},{"town":"初原","koaza":"樋田","lat":38.398035,"lng":141.057324,"zip":"9810204"},{"town":"根廻","koaza":"清水","lat":38.413647,"lng":141.061843,"zip":"9810203"},{"town":"松島","koaza":"町内","lat":38.370642,"lng":141.061304,"zip":"9810213"},{"town":"高城","koaza":"反町一","lat":38.397377,"lng":141.058734,"zip":"9810215"},{"town":"松島","koaza":"浪打浜","lat":38.367282,"lng":141.059257,"zip":"9810213"},{"town":"松島","koaza":"寺裏","lat":38.374569,"lng":141.060293,"zip":"9810213"},{"town":"高城","koaza":"反町四","lat":38.396156,"lng":141.059022,"zip":"9810215"},{"town":"松島","koaza":"半官","lat":38.364548,"lng":141.059272,"zip":"9810213"},{"town":"幡谷","koaza":"沼田","lat":38.432039,"lng":141.060093,"zip":"9810205"},{"town":"高城","koaza":"夏井","lat":38.382137,"lng":141.061036,"zip":"9810215"},{"town":"高城","koaza":"反町三","lat":38.396759,"lng":141.06083,"zip":"9810215"},{"town":"幡谷","koaza":"八幡","lat":38.424993,"lng":141.059765,"zip":"9810205"},{"town":"高城","koaza":"明神二","lat":38.387476,"lng":141.061725,"zip":"9810215"},{"town":"幡谷","koaza":"曲田","lat":38.428244,"lng":141.059929,"zip":"9810205"},{"town":"幡谷","koaza":"千刈田","lat":38.427272,"lng":141.060092,"zip":"9810205"},{"town":"根廻","koaza":"上山王","lat":38.411509,"lng":141.06145,"zip":"9810203"},{"town":"高城","koaza":"小森一","lat":38.393467,"lng":141.061894,"zip":"9810215"},{"town":"高城","koaza":"前田沢","lat":38.391296,"lng":141.06476,"zip":"9810215"},{"town":"幡谷","koaza":"出石","lat":38.435733,"lng":141.063049,"zip":"9810205"},{"town":"松島","koaza":"間坂","lat":38.377329,"lng":141.06296,"zip":"9810213"},{"town":"高城","koaza":"三居山一","lat":38.397308,"lng":141.065223,"zip":"9810215"},{"town":"高城","koaza":"反町五","lat":38.39557,"lng":141.061809,"zip":"9810215"},{"town":"高城","koaza":"小森二","lat":38.39184,"lng":141.062257,"zip":"9810215"},{"town":"幡谷","koaza":"小深田","lat":38.427119,"lng":141.063939,"zip":"9810205"},{"town":"松島","koaza":"愛宕裏","lat":38.375756,"lng":141.063162,"zip":"9810213"},{"town":"松島","koaza":"寺下","lat":38.373764,"lng":141.061426,"zip":"9810213"},{"town":"幡谷","koaza":"岩下向","lat":38.437705,"lng":141.063045,"zip":"9810205"},{"town":"幡谷","koaza":"岩下","lat":38.43751,"lng":141.064001,"zip":"9810205"},{"town":"幡谷","koaza":"丸竹前","lat":38.431338,"lng":141.063382,"zip":"9810205"},{"town":"幡谷","koaza":"中谷地","lat":38.436438,"lng":141.063482,"zip":"9810205"},{"town":"松島","koaza":"島","lat":38.365307,"lng":141.062623,"zip":"9810213"},{"town":"高城","koaza":"田中裏","lat":38.39448,"lng":141.064958,"zip":"9810215"},{"town":"高城","koaza":"高山下","lat":38.38382,"lng":141.064184,"zip":"9810215"},{"town":"幡谷","koaza":"片蓋","lat":38.433063,"lng":141.065209,"zip":"9810205"},{"town":"松島","koaza":"普賢堂","lat":38.372276,"lng":141.06624,"zip":"9810213"},{"town":"松島","koaza":"垣ノ内","lat":38.374382,"lng":141.06531,"zip":"9810213"},{"town":"根廻","koaza":"板ケ沢","lat":38.412977,"lng":141.065628,"zip":"9810203"},{"town":"高城","koaza":"三居山二","lat":38.395355,"lng":141.064974,"zip":"9810215"},{"town":"松島","koaza":"松本崎","lat":38.373174,"lng":141.06405,"zip":"9810213"},{"town":"松島","koaza":"蛇ケ崎右","lat":38.377219,"lng":141.067137,"zip":"9810213"},{"town":"松島","koaza":"狐ケ岩屋","lat":38.379983,"lng":141.064798,"zip":"9810213"},{"town":"松島","koaza":"碇田","lat":38.378365,"lng":141.065105,"zip":"9810213"},{"town":"高城","koaza":"帰命院下一","lat":38.382226,"lng":141.066346,"zip":"9810215"},{"town":"幡谷","koaza":"富田","lat":38.435549,"lng":141.068243,"zip":"9810205"},{"town":"高城","koaza":"田中二","lat":38.391227,"lng":141.066344,"zip":"9810215"},{"town":"根廻","koaza":"丸田","lat":38.408721,"lng":141.066437,"zip":"9810203"},{"town":"高城","koaza":"城内一","lat":38.384947,"lng":141.0656,"zip":"9810215"},{"town":"幡谷","koaza":"行下","lat":38.429328,"lng":141.068627,"zip":"9810205"},{"town":"松島","koaza":"道珍浜","lat":38.375739,"lng":141.067309,"zip":"9810213"},{"town":"高城","koaza":"明神三","lat":38.387301,"lng":141.06664,"zip":"9810215"},{"town":"松島","koaza":"仙随","lat":38.371201,"lng":141.067083,"zip":"9810213"},{"town":"幡谷","koaza":"明神","lat":38.42481,"lng":141.072547,"zip":"9810205"},{"town":"高城","koaza":"城内二","lat":38.386574,"lng":141.065844,"zip":"9810215"},{"town":"根廻","koaza":"山王前","lat":38.404029,"lng":141.066014,"zip":"9810203"},{"town":"高城","koaza":"根崎","lat":38.397893,"lng":141.066459,"zip":"9810215"},{"town":"根廻","koaza":"根崎山神","lat":38.399959,"lng":141.066716,"zip":"9810203"},{"town":"根廻","koaza":"猫迫","lat":38.405186,"lng":141.066624,"zip":"9810203"},{"town":"高城","koaza":"明神四","lat":38.388022,"lng":141.06786,"zip":"9810215"},{"town":"松島","koaza":"陰ノ浜","lat":38.374854,"lng":141.067352,"zip":"9810213"},{"town":"根廻","koaza":"高寺","lat":38.415908,"lng":141.068825,"zip":"9810203"},{"town":"高城","koaza":"井戸下","lat":38.384454,"lng":141.067216,"zip":"9810215"},{"town":"高城","koaza":"田中一","lat":38.391317,"lng":141.066892,"zip":"9810215"},{"town":"根廻","koaza":"桐田","lat":38.402066,"lng":141.070174,"zip":"9810203"},{"town":"高城","koaza":"動伝三","lat":38.396087,"lng":141.067239,"zip":"9810215"},{"town":"幡谷","koaza":"検行","lat":38.436444,"lng":141.072749,"zip":"9810205"},{"town":"根廻","koaza":"音無","lat":38.399695,"lng":141.069171,"zip":"9810203"},{"town":"根廻","koaza":"堂ノ前","lat":38.410516,"lng":141.068326,"zip":"9810203"},{"town":"松島","koaza":"香徳ケ浦","lat":38.372664,"lng":141.068816,"zip":"9810213"},{"town":"高城","koaza":"井戸江一","lat":38.39565,"lng":141.069512,"zip":"9810215"},{"town":"高城","koaza":"動伝一","lat":38.396772,"lng":141.072222,"zip":"9810215"},{"town":"高城","koaza":"愛宕三","lat":38.391247,"lng":141.06843,"zip":"9810215"},{"town":"幡谷","koaza":"瓜原","lat":38.432002,"lng":141.069077,"zip":"9810205"},{"town":"高城","koaza":"町","lat":38.383694,"lng":141.070321,"zip":"9810215"},{"town":"幡谷","koaza":"蝦穴","lat":38.433544,"lng":141.072835,"zip":"9810205"},{"town":"高城","koaza":"愛宕一","lat":38.390504,"lng":141.069013,"zip":"9810215"},{"town":"高城","koaza":"西柳","lat":38.387405,"lng":141.069781,"zip":"9810215"},{"town":"根廻","koaza":"蒜沢","lat":38.414298,"lng":141.071383,"zip":"9810203"},{"town":"松島","koaza":"東浜","lat":38.372245,"lng":141.069088,"zip":"9810213"},{"town":"磯崎","koaza":"浜","lat":38.379185,"lng":141.071511,"zip":"9810212"},{"town":"高城","koaza":"浜","lat":38.376691,"lng":141.072106,"zip":"9810215"},{"town":"根廻","koaza":"自田沢","lat":38.4046,"lng":141.071771,"zip":"9810203"},{"town":"高城","koaza":"愛宕二","lat":38.388709,"lng":141.070348,"zip":"9810215"},{"town":"高城","koaza":"水溜下","lat":38.391173,"lng":141.06979,"zip":"9810215"},{"town":"高城","koaza":"動伝二","lat":38.397544,"lng":141.069858,"zip":"9810215"},{"town":"幡谷","koaza":"検行裏","lat":38.440341,"lng":141.073481,"zip":"9810205"},{"town":"磯崎","koaza":"磯崎","lat":38.379473,"lng":141.076828,"zip":"9810212"},{"town":"根廻","koaza":"鶴ケ沢","lat":38.411008,"lng":141.072619,"zip":"9810203"},{"town":"松島","koaza":"福浦島","lat":38.365944,"lng":141.070365,"zip":"9810213"},{"town":"高城","koaza":"町東一","lat":38.385515,"lng":141.071232,"zip":"9810215"},{"town":"根廻","koaza":"人筈","lat":38.39862,"lng":141.072726,"zip":"9810203"},{"town":"高城","koaza":"町東二","lat":38.381951,"lng":141.071295,"zip":"9810215"},{"town":"高城","koaza":"迎山一","lat":38.386685,"lng":141.07224,"zip":"9810215"},{"town":"高城","koaza":"迎山二","lat":38.388315,"lng":141.07168,"zip":"9810215"},{"town":"高城","koaza":"迎山三","lat":38.390619,"lng":141.072769,"zip":"9810215"},{"town":"磯崎","koaza":"割波二","lat":38.387905,"lng":141.073283,"zip":"9810212"},{"town":"根廻","koaza":"泥","lat":38.402161,"lng":141.073079,"zip":"9810203"},{"town":"磯崎","koaza":"光陽台","lat":38.38714,"lng":141.072383,"zip":"9810212"},{"town":"高城","koaza":"元釜家","lat":38.381706,"lng":141.072439,"zip":"9810215"},{"town":"磯崎","koaza":"蟹松","lat":38.382719,"lng":141.074564,"zip":"9810212"},{"town":"根廻","koaza":"後沢","lat":38.409619,"lng":141.076538,"zip":"9810203"},{"town":"高城","koaza":"松の杜","lat":38.392666,"lng":141.072721,"zip":"9810215"},{"town":"磯崎","koaza":"割波一","lat":38.385812,"lng":141.074048,"zip":"9810212"},{"town":"幡谷","koaza":"小性ケ入","lat":38.427424,"lng":141.074961,"zip":"9810205"},{"town":"磯崎","koaza":"華園","lat":38.387228,"lng":141.075627,"zip":"9810212"},{"town":"根廻","koaza":"長山","lat":38.403914,"lng":141.074614,"zip":"9810203"},{"town":"磯崎","koaza":"割波三","lat":38.392168,"lng":141.074456,"zip":"9810212"},{"town":"根廻","koaza":"矢倉場","lat":38.415304,"lng":141.07723,"zip":"9810203"},{"town":"根廻","koaza":"萱刈","lat":38.403057,"lng":141.075683,"zip":"9810203"},{"town":"幡谷","koaza":"吉崎","lat":38.430273,"lng":141.075363,"zip":"9810205"},{"town":"磯崎","koaza":"土樋合","lat":38.384298,"lng":141.075915,"zip":"9810212"},{"town":"磯崎","koaza":"馬籠一","lat":38.39407,"lng":141.075304,"zip":"9810212"},{"town":"磯崎","koaza":"待井","lat":38.381947,"lng":141.075357,"zip":"9810212"},{"town":"磯崎","koaza":"白萩","lat":38.385732,"lng":141.077173,"zip":"9810212"},{"town":"根廻","koaza":"長佐野","lat":38.39956,"lng":141.07673,"zip":"9810203"},{"town":"磯崎","koaza":"馬籠二","lat":38.394721,"lng":141.078391,"zip":"9810212"},{"town":"磯崎","koaza":"白坂","lat":38.385866,"lng":141.076341,"zip":"9810212"},{"town":"磯崎","koaza":"美映の丘","lat":38.386592,"lng":141.080882,"zip":"9810212"},{"town":"根廻","koaza":"前沢上","lat":38.40715,"lng":141.0811,"zip":"9810203"},{"town":"幡谷","koaza":"前沖","lat":38.433011,"lng":141.078174,"zip":"9810205"},{"town":"幡谷","koaza":"新田","lat":38.42991,"lng":141.078123,"zip":"9810205"},{"town":"幡谷","koaza":"西富田","lat":38.437747,"lng":141.077226,"zip":"9810205"},{"town":"磯崎","koaza":"溜","lat":38.383025,"lng":141.079783,"zip":"9810212"},{"town":"磯崎","koaza":"夕陽が丘","lat":38.382879,"lng":141.078384,"zip":"9810212"},{"town":"磯崎","koaza":"菱又","lat":38.381167,"lng":141.077448,"zip":"9810212"},{"town":"幡谷","koaza":"観音","lat":38.42758,"lng":141.078506,"zip":"9810205"},{"town":"根廻","koaza":"平山","lat":38.403336,"lng":141.080254,"zip":"9810203"},{"town":"根廻","koaza":"前沢","lat":38.404595,"lng":141.08227,"zip":"9810203"},{"town":"磯崎","koaza":"長田","lat":38.38088,"lng":141.079489,"zip":"9810212"},{"town":"根廻","koaza":"一ノ渡","lat":38.400464,"lng":141.082228,"zip":"9810203"},{"town":"磯崎","koaza":"鷺島","lat":38.378272,"lng":141.078072,"zip":"9810212"},{"town":"幡谷","koaza":"鹿渡","lat":38.431041,"lng":141.080831,"zip":"9810205"},{"town":"磯崎","koaza":"洞","lat":38.388849,"lng":141.080703,"zip":"9810212"},{"town":"幡谷","koaza":"浦ノ沢","lat":38.431562,"lng":141.079096,"zip":"9810205"},{"town":"松島","koaza":"九ノ島","lat":38.364286,"lng":141.083105,"zip":"9810213"},{"town":"磯崎","koaza":"木戸","lat":38.38389,"lng":141.082678,"zip":"9810212"},{"town":"幡谷","koaza":"沢乙","lat":38.418211,"lng":141.088132,"zip":"9810205"},{"town":"幡谷","koaza":"矢筈森","lat":38.433468,"lng":141.080777,"zip":"9810205"},{"town":"竹谷","koaza":"川頭","lat":38.44872,"lng":141.081172,"zip":"9810201"},{"town":"手樽","koaza":"宮田","lat":38.394982,"lng":141.084803,"zip":"9810211"},{"town":"幡谷","koaza":"三反田","lat":38.428814,"lng":141.082745,"zip":"9810205"},{"town":"磯崎","koaza":"西ノ浜","lat":38.382098,"lng":141.086772,"zip":"9810212"},{"town":"磯崎","koaza":"釜","lat":38.38655,"lng":141.083014,"zip":"9810212"},{"town":"幡谷","koaza":"長方","lat":38.434869,"lng":141.083848,"zip":"9810205"},{"town":"磯崎","koaza":"北ノ窪","lat":38.38271,"lng":141.083954,"zip":"9810212"},{"town":"幡谷","koaza":"大沢","lat":38.423832,"lng":141.084309,"zip":"9810205"},{"town":"幡谷","koaza":"三本杉","lat":38.426153,"lng":141.084475,"zip":"9810205"},{"town":"手樽","koaza":"元手樽","lat":38.391213,"lng":141.087224,"zip":"9810211"},{"town":"幡谷","koaza":"大山崎下","lat":38.434072,"lng":141.085886,"zip":"9810205"},{"town":"手樽","koaza":"釜沢","lat":38.39259,"lng":141.094485,"zip":"9810211"},{"town":"手樽","koaza":"左坂","lat":38.40507,"lng":141.088218,"zip":"9810211"},{"town":"手樽","koaza":"狐入","lat":38.403669,"lng":141.089032,"zip":"9810211"},{"town":"竹谷","koaza":"萱野","lat":38.436122,"lng":141.086967,"zip":"9810201"},{"town":"幡谷","koaza":"鷹觜","lat":38.423959,"lng":141.087519,"zip":"9810205"},{"town":"幡谷","koaza":"細山崎","lat":38.430316,"lng":141.088579,"zip":"9810205"},{"town":"幡谷","koaza":"聖人田","lat":38.427495,"lng":141.088344,"zip":"9810205"},{"town":"竹谷","koaza":"梅木留","lat":38.437218,"lng":141.088725,"zip":"9810201"},{"town":"竹谷","koaza":"沼前","lat":38.438923,"lng":141.088826,"zip":"9810201"},{"town":"北小泉","koaza":"十文字","lat":38.413259,"lng":141.095312,"zip":"9810202"},{"town":"北小泉","koaza":"台山","lat":38.428804,"lng":141.092439,"zip":"9810202"},{"town":"北小泉","koaza":"朴沢","lat":38.419119,"lng":141.092178,"zip":"9810202"},{"town":"竹谷","koaza":"鰯沼","lat":38.432166,"lng":141.089492,"zip":"9810201"},{"town":"竹谷","koaza":"新弥勒堂","lat":38.440361,"lng":141.089727,"zip":"9810201"},{"town":"手樽","koaza":"鳴神","lat":38.401496,"lng":141.092933,"zip":"9810211"},{"town":"竹谷","koaza":"町裏","lat":38.439025,"lng":141.090695,"zip":"9810201"},{"town":"竹谷","koaza":"片平","lat":38.43452,"lng":141.09097,"zip":"9810201"},{"town":"手樽","koaza":"三沢","lat":38.391683,"lng":141.090694,"zip":"9810211"},{"town":"手樽","koaza":"茨崎","lat":38.387275,"lng":141.091471,"zip":"9810211"},{"town":"北小泉","koaza":"歌ノ入","lat":38.429512,"lng":141.091099,"zip":"9810202"},{"town":"竹谷","koaza":"丈倉部","lat":38.440677,"lng":141.092312,"zip":"9810201"},{"town":"竹谷","koaza":"弥勒堂","lat":38.441082,"lng":141.093165,"zip":"9810201"},{"town":"手樽","koaza":"脇沢","lat":38.388244,"lng":141.092002,"zip":"9810211"},{"town":"竹谷","koaza":"猪里沢","lat":38.435678,"lng":141.095091,"zip":"9810201"},{"town":"北小泉","koaza":"宮田前","lat":38.431223,"lng":141.097631,"zip":"9810202"},{"town":"手樽","koaza":"中沢","lat":38.406371,"lng":141.095852,"zip":"9810211"},{"town":"手樽","koaza":"馬立","lat":38.403385,"lng":141.096179,"zip":"9810211"},{"town":"竹谷","koaza":"小川添","lat":38.443286,"lng":141.097943,"zip":"9810201"},{"town":"手樽","koaza":"三浦","lat":38.398564,"lng":141.104393,"zip":"9810211"},{"town":"手樽","koaza":"空田","lat":38.392864,"lng":141.099243,"zip":"9810211"},{"town":"竹谷","koaza":"蓑輪沢","lat":38.442119,"lng":141.09701,"zip":"9810201"},{"town":"竹谷","koaza":"黒森沢","lat":38.440281,"lng":141.101568,"zip":"9810201"},{"town":"手樽","koaza":"才ノ神","lat":38.401996,"lng":141.101451,"zip":"9810211"},{"town":"手樽","koaza":"大町","lat":38.396339,"lng":141.098608,"zip":"9810211"},{"town":"北小泉","koaza":"滝ノ入","lat":38.417846,"lng":141.10142,"zip":"9810202"},{"town":"手樽","koaza":"釜地前","lat":38.390443,"lng":141.099164,"zip":"9810211"},{"town":"竹谷","koaza":"貝殻塚","lat":38.435865,"lng":141.102566,"zip":"9810201"},{"town":"手樽","koaza":"大蓬沢","lat":38.380741,"lng":141.101538,"zip":"9810211"},{"town":"竹谷","koaza":"清水","lat":38.430535,"lng":141.1084,"zip":"9810201"},{"town":"手樽","koaza":"蛇島","lat":38.39445,"lng":141.102607,"zip":"9810211"},{"town":"手樽","koaza":"六合沢","lat":38.381799,"lng":141.102947,"zip":"9810211"},{"town":"手樽","koaza":"銭神","lat":38.378996,"lng":141.101403,"zip":"9810211"},{"town":"手樽","koaza":"新田","lat":38.381637,"lng":141.106439,"zip":"9810211"},{"town":"手樽","koaza":"早川東","lat":38.388498,"lng":141.104989,"zip":"9810211"},{"town":"手樽","koaza":"中町","lat":38.377645,"lng":141.101792,"zip":"9810211"},{"town":"手樽","koaza":"牛木","lat":38.391907,"lng":141.106621,"zip":"9810211"},{"town":"北小泉","koaza":"鴻ノ巣","lat":38.414101,"lng":141.104518,"zip":"9810202"},{"town":"竹谷","koaza":"萱倉","lat":38.438893,"lng":141.105956,"zip":"9810201"},{"town":"竹谷","koaza":"鴻ノ谷地","lat":38.441447,"lng":141.103896,"zip":"9810201"},{"town":"北小泉","koaza":"芋沢","lat":38.423712,"lng":141.114025,"zip":"9810202"},{"town":"手樽","koaza":"柿ノ浦","lat":38.389737,"lng":141.105172,"zip":"9810211"},{"town":"手樽","koaza":"早川西","lat":38.387079,"lng":141.104177,"zip":"9810211"},{"town":"竹谷","koaza":"二子屋","lat":38.441687,"lng":141.110748,"zip":"9810201"},{"town":"手樽","koaza":"大浜","lat":38.37509,"lng":141.106945,"zip":"9810211"},{"town":"竹谷","koaza":"大日向","lat":38.429109,"lng":141.109548,"zip":"9810201"},{"town":"手樽","koaza":"釜沢東","lat":38.378023,"lng":141.108045,"zip":"9810211"},{"town":"竹谷","koaza":"大黒沢","lat":38.438517,"lng":141.110708,"zip":"9810201"},{"town":"竹谷","koaza":"清水前","lat":38.434883,"lng":141.109629,"zip":"9810201"},{"town":"手樽","koaza":"駒形","lat":38.379517,"lng":141.107866,"zip":"9810211"},{"town":"竹谷","koaza":"鳶ケ沢","lat":38.426456,"lng":141.112688,"zip":"9810201"},{"town":"北小泉","koaza":"蛇穴","lat":38.417351,"lng":141.109526,"zip":"9810202"},{"town":"北小泉","koaza":"境","lat":38.418478,"lng":141.112121,"zip":"9810202"},{"town":"手樽","koaza":"早坂","lat":38.394288,"lng":141.11578,"zip":"9810211"},{"town":"手樽","koaza":"荒田","lat":38.388715,"lng":141.109925,"zip":"9810211"},{"town":"竹谷","koaza":"藤ノ巻","lat":38.435181,"lng":141.112653,"zip":"9810201"},{"town":"竹谷","koaza":"丸森","lat":38.426323,"lng":141.110965,"zip":"9810201"},{"town":"竹谷","koaza":"釜ケ沢","lat":38.431003,"lng":141.109903,"zip":"9810201"},{"town":"手樽","koaza":"古浦","lat":38.386433,"lng":141.115142,"zip":"9810211"},{"town":"竹谷","koaza":"山崎","lat":38.430051,"lng":141.110959,"zip":"9810201"},{"town":"竹谷","koaza":"川欠","lat":38.436415,"lng":141.111688,"zip":"9810201"},{"town":"手樽","koaza":"大日向","lat":38.385454,"lng":141.114738,"zip":"9810211"},{"town":"竹谷","koaza":"中才","lat":38.429492,"lng":141.118407,"zip":"9810201"},{"town":"北小泉","koaza":"山崎","lat":38.417897,"lng":141.118327,"zip":"9810202"},{"town":"北小泉","koaza":"渡戸","lat":38.416782,"lng":141.113611,"zip":"9810202"},{"town":"手樽","koaza":"名籠","lat":38.375097,"lng":141.114053,"zip":"9810211"},{"town":"竹谷","koaza":"後蒲","lat":38.425386,"lng":141.117271,"zip":"9810201"},{"town":"北小泉","koaza":"愛宕","lat":38.419808,"lng":141.115618,"zip":"9810202"},{"town":"竹谷","koaza":"保手崎","lat":38.429024,"lng":141.116599,"zip":"9810201"},{"town":"手樽","koaza":"七十里","lat":38.382381,"lng":141.119602,"zip":"9810211"},{"town":"竹谷","koaza":"下内原","lat":38.429961,"lng":141.118431,"zip":"9810201"},{"town":"竹谷","koaza":"巻ノ上","lat":38.424313,"lng":141.120232,"zip":"9810201"},{"town":"手樽","koaza":"石ケ浦","lat":38.385455,"lng":141.119901,"zip":"9810211"},{"town":"竹谷","koaza":"八反田","lat":38.421346,"lng":141.122789,"zip":"9810201"},{"town":"北小泉","koaza":"山神","lat":38.418947,"lng":141.104006,"zip":"9810202"},{"town":"竹谷","koaza":"前蒲","lat":38.423079,"lng":141.118174,"zip":"9810201"},{"town":"高城","koaza":"水溜上","lat":38.391097,"lng":141.072593,"zip":"9810215"},{"town":"桜渡戸","koaza":"下境田","lat":38.396495,"lng":141.037484,"zip":"9810214"},{"town":"手樽","koaza":"梅ケ沢","lat":38.376902,"lng":141.112524,"zip":"9810211"},{"town":"手樽","koaza":"小屋崎","lat":38.38274,"lng":141.114796,"zip":"9810211"},{"town":"手樽","koaza":"餅田","lat":38.383474,"lng":141.104341,"zip":"9810211"},{"town":"手樽","koaza":"長根沢","lat":38.388272,"lng":141.101261,"zip":"9810211"},{"town":"手樽","koaza":"蔵田","lat":38.385719,"lng":141.100943,"zip":"9810211"},{"town":"幡谷","koaza":"鳥矢ケ沢","lat":38.435784,"lng":141.078088,"zip":"9810205"},{"town":"北小泉","koaza":"要害","lat":38.424726,"lng":141.095039,"zip":"9810202"},{"town":"高城","koaza":"明神一","lat":38.385656,"lng":141.067584,"zip":"9810215"},{"town":"初原","koaza":"宮ノ入","lat":38.406929,"lng":141.051929,"zip":"9810204"}]