[{"town":"字西六角","koaza":"","lat":38.099098,"lng":140.854674,"zip":"9892400"},{"town":"平等一丁目","koaza":"","lat":38.112895,"lng":140.844316,"zip":"9892457"},{"town":"平等四丁目","koaza":"","lat":38.111935,"lng":140.84396,"zip":"9892457"},{"town":"竹の里三丁目","koaza":"","lat":38.118598,"lng":140.848536,"zip":"9892458"},{"town":"桑原西一丁目","koaza":"","lat":38.100014,"lng":140.85469,"zip":"9892447"},{"town":"松ケ丘四丁目","koaza":"","lat":38.113003,"lng":140.851019,"zip":"9892456"},{"town":"玉浦西一丁目","koaza":"","lat":38.108673,"lng":140.894648,"zip":"9892428"},{"town":"平等二丁目","koaza":"","lat":38.114707,"lng":140.842551,"zip":"9892457"},{"town":"平等三丁目","koaza":"","lat":38.113389,"lng":140.841991,"zip":"9892457"},{"town":"館下二丁目","koaza":"","lat":38.11079,"lng":140.866178,"zip":"9892441"},{"town":"竹の里二丁目","koaza":"","lat":38.116776,"lng":140.84435,"zip":"9892458"},{"town":"稲荷町","koaza":"","lat":38.104867,"lng":140.862488,"zip":"9892443"},{"town":"玉浦西二丁目","koaza":"","lat":38.107615,"lng":140.897267,"zip":"9892428"},{"town":"竹の里一丁目","koaza":"","lat":38.117155,"lng":140.846818,"zip":"9892458"},{"town":"土ケ崎一丁目","koaza":"","lat":38.115607,"lng":140.861099,"zip":"9892451"},{"town":"たけくま三丁目","koaza":"","lat":38.109042,"lng":140.852813,"zip":"9892459"},{"town":"玉浦西三丁目","koaza":"","lat":38.108777,"lng":140.897678,"zip":"9892428"},{"town":"松ケ丘三丁目","koaza":"","lat":38.114344,"lng":140.846469,"zip":"9892456"},{"town":"館下三丁目","koaza":"","lat":38.113389,"lng":140.865833,"zip":"9892441"},{"town":"玉浦西四丁目","koaza":"","lat":38.107803,"lng":140.901102,"zip":"9892428"},{"town":"中央二丁目","koaza":"","lat":38.109154,"lng":140.867105,"zip":"9892432"},{"town":"大手町","koaza":"","lat":38.106848,"lng":140.865157,"zip":"9892442"},{"town":"中央一丁目","koaza":"","lat":38.106199,"lng":140.866902,"zip":"9892432"},{"town":"土ケ崎三丁目","koaza":"","lat":38.113062,"lng":140.858585,"zip":"9892451"},{"town":"栄町一丁目","koaza":"","lat":38.114575,"lng":140.863857,"zip":"9892473"},{"town":"末広二丁目","koaza":"","lat":38.111944,"lng":140.876656,"zip":"9892426"},{"town":"梶橋","koaza":"","lat":38.124392,"lng":140.872358,"zip":"9892472"},{"town":"栄町三丁目","koaza":"","lat":38.118536,"lng":140.867604,"zip":"9892473"},{"town":"字亀塚","koaza":"","lat":38.121196,"lng":140.868485,"zip":"9892400"},{"town":"藤浪二丁目","koaza":"","lat":38.101644,"lng":140.872054,"zip":"9892434"},{"town":"本町","koaza":"","lat":38.103723,"lng":140.864058,"zip":"9892444"},{"town":"相の原三丁目","koaza":"","lat":38.121495,"lng":140.872643,"zip":"9892431"},{"town":"桑原三丁目","koaza":"","lat":38.098961,"lng":140.857458,"zip":"9892445"},{"town":"桜四丁目","koaza":"","lat":38.112058,"lng":140.870822,"zip":"9892433"},{"town":"中央三丁目","koaza":"","lat":38.11253,"lng":140.868466,"zip":"9892432"},{"town":"二木二丁目","koaza":"","lat":38.107654,"lng":140.863507,"zip":"9892448"},{"town":"松ケ丘二丁目","koaza":"","lat":38.111086,"lng":140.847741,"zip":"9892456"},{"town":"空港南五丁目","koaza":"","lat":38.127539,"lng":140.923661,"zip":"9892422"},{"town":"土ケ崎二丁目","koaza":"","lat":38.113033,"lng":140.861846,"zip":"9892451"},{"town":"字吹上西","koaza":"","lat":38.095655,"lng":140.853843,"zip":"9892400"},{"town":"桜一丁目","koaza":"","lat":38.104273,"lng":140.869641,"zip":"9892433"},{"town":"里の杜二丁目","koaza":"","lat":38.103758,"lng":140.876994,"zip":"9892427"},{"town":"館下一丁目","koaza":"","lat":38.110527,"lng":140.863667,"zip":"9892441"},{"town":"桜二丁目","koaza":"","lat":38.106452,"lng":140.870498,"zip":"9892433"},{"town":"桑原二丁目","koaza":"","lat":38.101506,"lng":140.857719,"zip":"9892445"},{"town":"土ケ崎四丁目","koaza":"","lat":38.112753,"lng":140.855457,"zip":"9892451"},{"town":"桜五丁目","koaza":"","lat":38.111942,"lng":140.873721,"zip":"9892433"},{"town":"松ケ丘一丁目","koaza":"","lat":38.110541,"lng":140.850982,"zip":"9892456"},{"town":"末広一丁目","koaza":"","lat":38.106432,"lng":140.873996,"zip":"9892426"},{"town":"藤浪一丁目","koaza":"","lat":38.101688,"lng":140.867841,"zip":"9892434"},{"town":"桑原一丁目","koaza":"","lat":38.101737,"lng":140.862551,"zip":"9892445"},{"town":"相の原一丁目","koaza":"","lat":38.11479,"lng":140.872947,"zip":"9892431"},{"town":"里の杜一丁目","koaza":"","lat":38.107441,"lng":140.876678,"zip":"9892427"},{"town":"空港南四丁目","koaza":"","lat":38.122997,"lng":140.919899,"zip":"9892422"},{"town":"桜三丁目","koaza":"","lat":38.108782,"lng":140.871422,"zip":"9892433"},{"town":"吹上二丁目","koaza":"","lat":38.093842,"lng":140.859558,"zip":"9892436"},{"town":"二木一丁目","koaza":"","lat":38.10602,"lng":140.860131,"zip":"9892448"},{"town":"空港南一丁目","koaza":"","lat":38.123646,"lng":140.915421,"zip":"9892422"},{"town":"たけくま二丁目","koaza":"","lat":38.109138,"lng":140.855562,"zip":"9892459"},{"town":"桑原四丁目","koaza":"","lat":38.099521,"lng":140.863748,"zip":"9892445"},{"town":"相の原二丁目","koaza":"","lat":38.118085,"lng":140.872939,"zip":"9892431"},{"town":"空港南二丁目","koaza":"","lat":38.121992,"lng":140.912188,"zip":"9892422"},{"town":"吹上一丁目","koaza":"","lat":38.09703,"lng":140.861939,"zip":"9892436"},{"town":"たけくま一丁目","koaza":"","lat":38.107946,"lng":140.859093,"zip":"9892459"},{"town":"中央四丁目","koaza":"","lat":38.117954,"lng":140.869599,"zip":"9892432"},{"town":"里の杜三丁目","koaza":"","lat":38.107019,"lng":140.87985,"zip":"9892427"},{"town":"空港南三丁目","koaza":"","lat":38.119941,"lng":140.917329,"zip":"9892422"},{"town":"字荒井","koaza":"","lat":38.115166,"lng":140.850209,"zip":"9892400"},{"town":"阿武隈二丁目","koaza":"","lat":38.096217,"lng":140.867706,"zip":"9892435"},{"town":"字武隈","koaza":"","lat":38.10516,"lng":140.854353,"zip":"9892400"},{"town":"阿武隈一丁目","koaza":"","lat":38.097956,"lng":140.872199,"zip":"9892435"},{"town":"吹上三丁目","koaza":"","lat":38.094317,"lng":140.856102,"zip":"9892436"},{"town":"大昭和","koaza":"","lat":38.088816,"lng":140.860273,"zip":"9892453"},{"town":"長岡","koaza":"","lat":38.125814,"lng":140.856914,"zip":"9892461"},{"town":"小川","koaza":"","lat":38.134043,"lng":140.86677,"zip":"9892471"},{"town":"北長谷","koaza":"","lat":38.105858,"lng":140.838778,"zip":"9892455"},{"town":"南長谷","koaza":"","lat":38.091686,"lng":140.841101,"zip":"9892454"},{"town":"寺島","koaza":"","lat":38.06862,"lng":140.917064,"zip":"9892425"},{"town":"志賀","koaza":"","lat":38.134676,"lng":140.809731,"zip":"9892465"},{"town":"押分","koaza":"","lat":38.106389,"lng":140.917088,"zip":"9892423"},{"town":"恵み野二丁目","koaza":"","lat":38.107502,"lng":140.905969,"zip":"9892429"},{"town":"恵み野三丁目","koaza":"","lat":38.106747,"lng":140.909208,"zip":"9892429"},{"town":"恵み野一丁目","koaza":"","lat":38.108625,"lng":140.903943,"zip":"9892429"},{"town":"早股","koaza":"","lat":38.097119,"lng":140.906517,"zip":"9892424"},{"town":"字東谷地","koaza":"","lat":38.119547,"lng":140.865272,"zip":"9892400"},{"town":"字山桜","koaza":"","lat":38.120616,"lng":140.854851,"zip":"9892400"},{"town":"三色吉","koaza":"","lat":38.119012,"lng":140.838982,"zip":"9892464"},{"town":"あさひ野二丁目","koaza":"","lat":38.118484,"lng":140.855788,"zip":"9892478"},{"town":"字朝日","koaza":"","lat":38.115574,"lng":140.854603,"zip":"9892400"},{"town":"朝日二丁目","koaza":"","lat":38.116407,"lng":140.85642,"zip":"9892474"},{"town":"字敷島","koaza":"","lat":38.120978,"lng":140.862278,"zip":"9892400"},{"town":"字大和","koaza":"","lat":38.119788,"lng":140.859176,"zip":"9892400"},{"town":"あさひ野一丁目","koaza":"","lat":38.118103,"lng":140.859816,"zip":"9892478"},{"town":"朝日一丁目","koaza":"","lat":38.116061,"lng":140.858715,"zip":"9892474"},{"town":"栄町二丁目","koaza":"","lat":38.116382,"lng":140.864635,"zip":"9892473"},{"town":"空港西一丁目","koaza":"","lat":38.136111,"lng":140.90437,"zip":"9892420"},{"town":"下野郷","koaza":"","lat":38.131505,"lng":140.914601,"zip":"9892421"},{"town":"空港南六丁目","koaza":"","lat":38.126772,"lng":140.926683,"zip":"9892422"},{"town":"志賀","koaza":"大畑","lat":38.127876,"lng":140.789123,"zip":"9892465"},{"town":"志賀","koaza":"一の坂","lat":38.133501,"lng":140.786356,"zip":"9892465"},{"town":"志賀","koaza":"大日向","lat":38.134813,"lng":140.788672,"zip":"9892465"},{"town":"志賀","koaza":"大師","lat":38.138875,"lng":140.791853,"zip":"9892465"},{"town":"志賀","koaza":"深山","lat":38.142927,"lng":140.798077,"zip":"9892465"},{"town":"志賀","koaza":"新深田","lat":38.132086,"lng":140.79171,"zip":"9892465"},{"town":"志賀","koaza":"上芦ケ沢","lat":38.131266,"lng":140.79324,"zip":"9892465"},{"town":"志賀","koaza":"薬師","lat":38.138182,"lng":140.797294,"zip":"9892465"},{"town":"志賀","koaza":"下芦ケ沢","lat":38.128736,"lng":140.800391,"zip":"9892465"},{"town":"志賀","koaza":"三本木","lat":38.134622,"lng":140.796254,"zip":"9892465"},{"town":"志賀","koaza":"鳥居原","lat":38.131393,"lng":140.796817,"zip":"9892465"},{"town":"志賀","koaza":"大石","lat":38.128397,"lng":140.812438,"zip":"9892465"},{"town":"志賀","koaza":"上原","lat":38.131874,"lng":140.797563,"zip":"9892465"},{"town":"志賀","koaza":"下原","lat":38.133592,"lng":140.799541,"zip":"9892465"},{"town":"志賀","koaza":"其木原","lat":38.13225,"lng":140.802442,"zip":"9892465"},{"town":"志賀","koaza":"雨堤","lat":38.136305,"lng":140.803304,"zip":"9892465"},{"town":"志賀","koaza":"銅谷","lat":38.137951,"lng":140.807564,"zip":"9892465"},{"town":"志賀","koaza":"中井","lat":38.132279,"lng":140.806995,"zip":"9892465"},{"town":"志賀","koaza":"祢宜内","lat":38.141129,"lng":140.808228,"zip":"9892465"},{"town":"志賀","koaza":"窪沢","lat":38.13352,"lng":140.809677,"zip":"9892465"},{"town":"志賀","koaza":"大日","lat":38.132702,"lng":140.811753,"zip":"9892465"},{"town":"志賀","koaza":"八森","lat":38.137541,"lng":140.813807,"zip":"9892465"},{"town":"志賀","koaza":"新大日","lat":38.133447,"lng":140.813069,"zip":"9892465"},{"town":"志賀","koaza":"猪ノ倉","lat":38.132675,"lng":140.816084,"zip":"9892465"},{"town":"志賀","koaza":"長坂","lat":38.135495,"lng":140.818847,"zip":"9892465"},{"town":"志賀","koaza":"萩の沢","lat":38.12776,"lng":140.827598,"zip":"9892465"},{"town":"志賀","koaza":"古沢元","lat":38.134628,"lng":140.821777,"zip":"9892465"},{"town":"志賀","koaza":"雷神","lat":38.135358,"lng":140.823251,"zip":"9892465"},{"town":"志賀","koaza":"宮下","lat":38.131934,"lng":140.823737,"zip":"9892465"},{"town":"志賀","koaza":"八幡","lat":38.135585,"lng":140.825959,"zip":"9892465"},{"town":"長岡","koaza":"栗木平東","lat":38.126671,"lng":140.835011,"zip":"9892461"},{"town":"北長谷","koaza":"新明寺","lat":38.100715,"lng":140.83014,"zip":"9892455"},{"town":"南長谷","koaza":"泉","lat":38.099476,"lng":140.840773,"zip":"9892454"},{"town":"志賀","koaza":"熊野","lat":38.132193,"lng":140.827704,"zip":"9892465"},{"town":"北長谷","koaza":"畑堤上西","lat":38.10609,"lng":140.833477,"zip":"9892455"},{"town":"北長谷","koaza":"畑堤上南","lat":38.103388,"lng":140.832931,"zip":"9892455"},{"town":"志賀","koaza":"上塩ノ入","lat":38.136234,"lng":140.829896,"zip":"9892465"},{"town":"南長谷","koaza":"鍜冶","lat":38.092152,"lng":140.834005,"zip":"9892454"},{"town":"三色吉","koaza":"竹倉部","lat":38.115017,"lng":140.835807,"zip":"9892464"},{"town":"志賀","koaza":"新四十刈","lat":38.132875,"lng":140.829139,"zip":"9892465"},{"town":"志賀","koaza":"下塩ノ入","lat":38.134087,"lng":140.833081,"zip":"9892465"},{"town":"南長谷","koaza":"山小屋","lat":38.095341,"lng":140.833319,"zip":"9892454"},{"town":"北長谷","koaza":"畑向山南","lat":38.109869,"lng":140.839573,"zip":"9892455"},{"town":"南長谷","koaza":"中谷地","lat":38.087657,"lng":140.837076,"zip":"9892454"},{"town":"三色吉","koaza":"四本木","lat":38.12149,"lng":140.836604,"zip":"9892464"},{"town":"長岡","koaza":"西坪ノ内","lat":38.129405,"lng":140.837944,"zip":"9892461"},{"town":"長岡","koaza":"北原山","lat":38.125905,"lng":140.839043,"zip":"9892461"},{"town":"南長谷","koaza":"西宝坂","lat":38.085792,"lng":140.83669,"zip":"9892454"},{"town":"三色吉","koaza":"山神","lat":38.124335,"lng":140.842296,"zip":"9892464"},{"town":"小川","koaza":"上河原","lat":38.133074,"lng":140.838114,"zip":"9892471"},{"town":"南長谷","koaza":"岩下","lat":38.089779,"lng":140.836697,"zip":"9892454"},{"town":"北長谷","koaza":"畑堤上","lat":38.101926,"lng":140.841369,"zip":"9892455"},{"town":"南長谷","koaza":"諏訪","lat":38.093343,"lng":140.843424,"zip":"9892454"},{"town":"南長谷","koaza":"鳥井木","lat":38.086824,"lng":140.838896,"zip":"9892454"},{"town":"南長谷","koaza":"海道南","lat":38.084901,"lng":140.841111,"zip":"9892454"},{"town":"南長谷","koaza":"柳","lat":38.093971,"lng":140.843095,"zip":"9892454"},{"town":"北長谷","koaza":"古閑山","lat":38.106249,"lng":140.839499,"zip":"9892455"},{"town":"南長谷","koaza":"西川前","lat":38.084197,"lng":140.83978,"zip":"9892454"},{"town":"三色吉","koaza":"水神","lat":38.120218,"lng":140.84226,"zip":"9892464"},{"town":"北長谷","koaza":"堤上","lat":38.103113,"lng":140.840001,"zip":"9892455"},{"town":"南長谷","koaza":"宝坂","lat":38.086626,"lng":140.840889,"zip":"9892454"},{"town":"三色吉","koaza":"懐","lat":38.117897,"lng":140.844241,"zip":"9892464"},{"town":"北長谷","koaza":"畑向山","lat":38.111689,"lng":140.841541,"zip":"9892455"},{"town":"北長谷","koaza":"向山","lat":38.110195,"lng":140.84149,"zip":"9892455"},{"town":"三色吉","koaza":"大窪","lat":38.126145,"lng":140.843485,"zip":"9892464"},{"town":"北長谷","koaza":"畑中道","lat":38.106337,"lng":140.842511,"zip":"9892455"},{"town":"三色吉","koaza":"中ノ原","lat":38.122856,"lng":140.84274,"zip":"9892464"},{"town":"南長谷","koaza":"宿","lat":38.083842,"lng":140.84363,"zip":"9892454"},{"town":"小川","koaza":"山畑南","lat":38.131605,"lng":140.843154,"zip":"9892471"},{"town":"北長谷","koaza":"土合","lat":38.107335,"lng":140.841206,"zip":"9892455"},{"town":"小川","koaza":"南畑","lat":38.132155,"lng":140.841854,"zip":"9892471"},{"town":"長岡","koaza":"北原","lat":38.127664,"lng":140.842953,"zip":"9892461"},{"town":"長岡","koaza":"坪ノ内","lat":38.128614,"lng":140.841818,"zip":"9892461"},{"town":"長岡","koaza":"坪入","lat":38.129385,"lng":140.842136,"zip":"9892461"},{"town":"小川","koaza":"下河原","lat":38.130369,"lng":140.842135,"zip":"9892471"},{"town":"北長谷","koaza":"豊田","lat":38.110384,"lng":140.842013,"zip":"9892455"},{"town":"小川","koaza":"山畑北上","lat":38.133801,"lng":140.842395,"zip":"9892471"},{"town":"南長谷","koaza":"堤下","lat":38.099622,"lng":140.841822,"zip":"9892454"},{"town":"南長谷","koaza":"田中","lat":38.099386,"lng":140.843062,"zip":"9892454"},{"town":"三色吉","koaza":"平等","lat":38.113964,"lng":140.844039,"zip":"9892464"},{"town":"小川","koaza":"荘司","lat":38.130738,"lng":140.846303,"zip":"9892471"},{"town":"南長谷","koaza":"台","lat":38.097197,"lng":140.842934,"zip":"9892454"},{"town":"小川","koaza":"山畑北下","lat":38.132998,"lng":140.843854,"zip":"9892471"},{"town":"南長谷","koaza":"玉崎","lat":38.087107,"lng":140.844954,"zip":"9892454"},{"town":"北長谷","koaza":"中道","lat":38.105832,"lng":140.842828,"zip":"9892455"},{"town":"三色吉","koaza":"竹","lat":38.115678,"lng":140.843563,"zip":"9892464"},{"town":"北長谷","koaza":"樋下","lat":38.104684,"lng":140.843863,"zip":"9892455"},{"town":"小川","koaza":"新河原","lat":38.129843,"lng":140.843631,"zip":"9892471"},{"town":"三色吉","koaza":"雷神","lat":38.122084,"lng":140.845003,"zip":"9892464"},{"town":"三色吉","koaza":"熊野","lat":38.120533,"lng":140.84396,"zip":"9892464"},{"town":"北長谷","koaza":"畑新田","lat":38.110698,"lng":140.845462,"zip":"9892455"},{"town":"南長谷","koaza":"蛭","lat":38.092798,"lng":140.845194,"zip":"9892454"},{"town":"南長谷","koaza":"京","lat":38.094988,"lng":140.847835,"zip":"9892454"},{"town":"南長谷","koaza":"石原","lat":38.094545,"lng":140.843901,"zip":"9892454"},{"town":"南長谷","koaza":"中ノ崎","lat":38.102368,"lng":140.845771,"zip":"9892454"},{"town":"北長谷","koaza":"畑松崎","lat":38.110782,"lng":140.845837,"zip":"9892455"},{"town":"三色吉","koaza":"前輪","lat":38.123392,"lng":140.844922,"zip":"9892464"},{"town":"南長谷","koaza":"南玉崎","lat":38.083498,"lng":140.847483,"zip":"9892454"},{"town":"長岡","koaza":"八橋","lat":38.128846,"lng":140.84822,"zip":"9892461"},{"town":"三色吉","koaza":"杉ノ内","lat":38.126013,"lng":140.848717,"zip":"9892464"},{"town":"南長谷","koaza":"樋","lat":38.08778,"lng":140.845864,"zip":"9892454"},{"town":"南長谷","koaza":"海南","lat":38.084398,"lng":140.845902,"zip":"9892454"},{"town":"三色吉","koaza":"鶴","lat":38.118271,"lng":140.846116,"zip":"9892464"},{"town":"三色吉","koaza":"梅","lat":38.11969,"lng":140.847428,"zip":"9892464"},{"town":"三色吉","koaza":"松","lat":38.124714,"lng":140.847904,"zip":"9892464"},{"town":"南長谷","koaza":"北上","lat":38.083716,"lng":140.850632,"zip":"9892454"},{"town":"南長谷","koaza":"砂押","lat":38.082899,"lng":140.84741,"zip":"9892454"},{"town":"三色吉","koaza":"北ノ崎","lat":38.11688,"lng":140.84834,"zip":"9892464"},{"town":"南長谷","koaza":"橇","lat":38.093864,"lng":140.847178,"zip":"9892454"},{"town":"長岡","koaza":"上小渕","lat":38.127343,"lng":140.848388,"zip":"9892461"},{"town":"小川","koaza":"冠木","lat":38.129268,"lng":140.851723,"zip":"9892471"},{"town":"南長谷","koaza":"上原","lat":38.083889,"lng":140.851583,"zip":"9892454"},{"town":"南長谷","koaza":"錦","lat":38.0931,"lng":140.849383,"zip":"9892454"},{"town":"小川","koaza":"鐘撞堂","lat":38.13138,"lng":140.85068,"zip":"9892471"},{"town":"小川","koaza":"上町","lat":38.129619,"lng":140.850187,"zip":"9892471"},{"town":"南長谷","koaza":"北町","lat":38.095498,"lng":140.850536,"zip":"9892454"},{"town":"三色吉","koaza":"荒井前","lat":38.117489,"lng":140.84945,"zip":"9892464"},{"town":"三色吉","koaza":"亀","lat":38.118408,"lng":140.851177,"zip":"9892464"},{"town":"長岡","koaza":"台","lat":38.125192,"lng":140.851439,"zip":"9892461"},{"town":"長岡","koaza":"八反田","lat":38.128028,"lng":140.850737,"zip":"9892461"},{"town":"長岡","koaza":"雲井","lat":38.127337,"lng":140.853423,"zip":"9892461"},{"town":"長岡","koaza":"上根崎","lat":38.12501,"lng":140.855516,"zip":"9892461"},{"town":"南長谷","koaza":"原西","lat":38.089548,"lng":140.851076,"zip":"9892454"},{"town":"南長谷","koaza":"西田","lat":38.092875,"lng":140.850774,"zip":"9892454"},{"town":"長岡","koaza":"西富得","lat":38.123142,"lng":140.855372,"zip":"9892461"},{"town":"南長谷","koaza":"本町","lat":38.094743,"lng":140.851977,"zip":"9892454"},{"town":"南長谷","koaza":"角方","lat":38.087757,"lng":140.853286,"zip":"9892454"},{"town":"南長谷","koaza":"吹上南","lat":38.091916,"lng":140.852221,"zip":"9892454"},{"town":"南長谷","koaza":"原","lat":38.086595,"lng":140.854687,"zip":"9892454"},{"town":"長岡","koaza":"塚腰","lat":38.124724,"lng":140.852813,"zip":"9892461"},{"town":"南長谷","koaza":"中原","lat":38.086291,"lng":140.854077,"zip":"9892454"},{"town":"長岡","koaza":"六反田","lat":38.127551,"lng":140.852925,"zip":"9892461"},{"town":"小川","koaza":"深町","lat":38.131206,"lng":140.854994,"zip":"9892471"},{"town":"小川","koaza":"神田町","lat":38.129908,"lng":140.85539,"zip":"9892471"},{"town":"南長谷","koaza":"沖","lat":38.088081,"lng":140.855881,"zip":"9892454"},{"town":"小川","koaza":"中井","lat":38.129906,"lng":140.856904,"zip":"9892471"},{"town":"小川","koaza":"中町","lat":38.128711,"lng":140.85882,"zip":"9892471"},{"town":"小川","koaza":"昭和","lat":38.130744,"lng":140.860037,"zip":"9892471"},{"town":"小川","koaza":"大町","lat":38.12765,"lng":140.865476,"zip":"9892471"},{"town":"押分","koaza":"御伊勢南原","lat":38.098897,"lng":140.87595,"zip":"9892423"},{"town":"押分","koaza":"志引","lat":38.102099,"lng":140.876442,"zip":"9892423"},{"town":"押分","koaza":"御伊勢浦","lat":38.100528,"lng":140.875028,"zip":"9892423"},{"town":"押分","koaza":"御伊勢原","lat":38.101096,"lng":140.877737,"zip":"9892423"},{"town":"押分","koaza":"与奈","lat":38.105112,"lng":140.881432,"zip":"9892423"},{"town":"押分","koaza":"間畑","lat":38.103967,"lng":140.882106,"zip":"9892423"},{"town":"早股","koaza":"西砂押","lat":38.099748,"lng":140.886942,"zip":"9892424"},{"town":"押分","koaza":"水先","lat":38.102221,"lng":140.884449,"zip":"9892423"},{"town":"下野郷","koaza":"上中筋","lat":38.110128,"lng":140.885812,"zip":"9892421"},{"town":"押分","koaza":"孫助原","lat":38.108781,"lng":140.885363,"zip":"9892423"},{"town":"押分","koaza":"新光谷","lat":38.10813,"lng":140.885474,"zip":"9892423"},{"town":"早股","koaza":"高原","lat":38.100666,"lng":140.88719,"zip":"9892424"},{"town":"下野郷","koaza":"糀内","lat":38.113111,"lng":140.887421,"zip":"9892421"},{"town":"押分","koaza":"北光谷","lat":38.107031,"lng":140.886893,"zip":"9892423"},{"town":"下野郷","koaza":"中條前","lat":38.109158,"lng":140.886606,"zip":"9892421"},{"town":"押分","koaza":"南光谷","lat":38.104171,"lng":140.88765,"zip":"9892423"},{"town":"下野郷","koaza":"江口","lat":38.11543,"lng":140.891525,"zip":"9892421"},{"town":"下野郷","koaza":"前條","lat":38.116716,"lng":140.898475,"zip":"9892421"},{"town":"早股","koaza":"東砂押","lat":38.096026,"lng":140.896313,"zip":"9892424"},{"town":"早股","koaza":"猫原","lat":38.098987,"lng":140.891421,"zip":"9892424"},{"town":"押分","koaza":"中光谷","lat":38.10708,"lng":140.892663,"zip":"9892423"},{"town":"下野郷","koaza":"中境","lat":38.115389,"lng":140.894255,"zip":"9892421"},{"town":"下野郷","koaza":"上筒天","lat":38.119343,"lng":140.891436,"zip":"9892421"},{"town":"下野郷","koaza":"杉ノ下前","lat":38.1119,"lng":140.892535,"zip":"9892421"},{"town":"下野郷","koaza":"長塚","lat":38.119326,"lng":140.898513,"zip":"9892421"},{"town":"早股","koaza":"西須賀原","lat":38.089403,"lng":140.90041,"zip":"9892424"},{"town":"下野郷","koaza":"中筒天","lat":38.120318,"lng":140.895453,"zip":"9892421"},{"town":"下野郷","koaza":"舘内","lat":38.123571,"lng":140.899517,"zip":"9892421"},{"town":"早股","koaza":"土手添","lat":38.093939,"lng":140.899697,"zip":"9892424"},{"town":"下野郷","koaza":"北筒天","lat":38.121388,"lng":140.896814,"zip":"9892421"},{"town":"早股","koaza":"谷地中","lat":38.09804,"lng":140.89919,"zip":"9892424"},{"town":"早股","koaza":"新板橋","lat":38.094877,"lng":140.899596,"zip":"9892424"},{"town":"下野郷","koaza":"竹ノ内","lat":38.118588,"lng":140.90174,"zip":"9892421"},{"town":"早股","koaza":"板橋","lat":38.094043,"lng":140.901914,"zip":"9892424"},{"town":"早股","koaza":"新田","lat":38.10359,"lng":140.904038,"zip":"9892424"},{"town":"下野郷","koaza":"相野谷地","lat":38.124077,"lng":140.900293,"zip":"9892421"},{"town":"早股","koaza":"新小林","lat":38.105963,"lng":140.901315,"zip":"9892424"},{"town":"押分","koaza":"中そね","lat":38.109615,"lng":140.901563,"zip":"9892423"},{"town":"押分","koaza":"新筒下","lat":38.110683,"lng":140.901594,"zip":"9892423"},{"town":"押分","koaza":"鼠喰","lat":38.111384,"lng":140.901917,"zip":"9892423"},{"town":"下野郷","koaza":"舘外","lat":38.124594,"lng":140.904515,"zip":"9892421"},{"town":"押分","koaza":"沼前","lat":38.115051,"lng":140.903034,"zip":"9892423"},{"town":"押分","koaza":"新田東","lat":38.106274,"lng":140.905213,"zip":"9892423"},{"town":"早股","koaza":"刈原","lat":38.091423,"lng":140.903023,"zip":"9892424"},{"town":"下野郷","koaza":"間堀","lat":38.121332,"lng":140.905772,"zip":"9892421"},{"town":"早股","koaza":"小林","lat":38.102062,"lng":140.90738,"zip":"9892424"},{"town":"押分","koaza":"奥山","lat":38.107157,"lng":140.908399,"zip":"9892423"},{"town":"下野郷","koaza":"新間堀","lat":38.119494,"lng":140.906213,"zip":"9892421"},{"town":"下野郷","koaza":"西北谷地","lat":38.129074,"lng":140.904634,"zip":"9892421"},{"town":"下野郷","koaza":"出雲屋敷","lat":38.132069,"lng":140.905086,"zip":"9892421"},{"town":"押分","koaza":"西土手","lat":38.114529,"lng":140.907386,"zip":"9892423"},{"town":"押分","koaza":"南谷地","lat":38.110272,"lng":140.906666,"zip":"9892423"},{"town":"下野郷","koaza":"北谷地","lat":38.128678,"lng":140.907668,"zip":"9892421"},{"town":"早股","koaza":"五福田","lat":38.094959,"lng":140.905295,"zip":"9892424"},{"town":"早股","koaza":"孫目","lat":38.096199,"lng":140.906179,"zip":"9892424"},{"town":"寺島","koaza":"高原","lat":38.083763,"lng":140.90864,"zip":"9892425"},{"town":"下野郷","koaza":"中北谷地","lat":38.126931,"lng":140.905684,"zip":"9892421"},{"town":"下野郷","koaza":"東北谷地","lat":38.12597,"lng":140.907916,"zip":"9892421"},{"town":"下野郷","koaza":"新田","lat":38.13209,"lng":140.909071,"zip":"9892421"},{"town":"下野郷","koaza":"新拓","lat":38.132249,"lng":140.925844,"zip":"9892421"},{"town":"下野郷","koaza":"小谷地","lat":38.141479,"lng":140.908937,"zip":"9892421"},{"town":"早股","koaza":"松原","lat":38.100882,"lng":140.911946,"zip":"9892424"},{"town":"押分","koaza":"北土手","lat":38.111424,"lng":140.910666,"zip":"9892423"},{"town":"下野郷","koaza":"新関迎","lat":38.128574,"lng":140.911576,"zip":"9892421"},{"town":"寺島","koaza":"押切","lat":38.080901,"lng":140.910871,"zip":"9892425"},{"town":"寺島","koaza":"瀬崎","lat":38.071221,"lng":140.913659,"zip":"9892425"},{"town":"寺島","koaza":"南瀬崎","lat":38.057609,"lng":140.912645,"zip":"9892425"},{"town":"押分","koaza":"中新田","lat":38.110031,"lng":140.912458,"zip":"9892423"},{"town":"下野郷","koaza":"大松原","lat":38.126594,"lng":140.913502,"zip":"9892421"},{"town":"下野郷","koaza":"浜","lat":38.121605,"lng":140.928832,"zip":"9892421"},{"town":"寺島","koaza":"毛下","lat":38.078007,"lng":140.913866,"zip":"9892425"},{"town":"寺島","koaza":"野中","lat":38.082076,"lng":140.913709,"zip":"9892425"},{"town":"早股","koaza":"道北","lat":38.097212,"lng":140.914261,"zip":"9892424"},{"town":"早股","koaza":"長者森","lat":38.099043,"lng":140.914717,"zip":"9892424"},{"town":"寺島","koaza":"蒲崎","lat":38.062181,"lng":140.914738,"zip":"9892425"},{"town":"押分","koaza":"北新田","lat":38.114306,"lng":140.915283,"zip":"9892423"},{"town":"早股","koaza":"新長者森","lat":38.101025,"lng":140.915233,"zip":"9892424"},{"town":"寺島","koaza":"西川","lat":38.070678,"lng":140.915861,"zip":"9892425"},{"town":"押分","koaza":"新大同","lat":38.105199,"lng":140.914195,"zip":"9892423"},{"town":"下野郷","koaza":"新南長沼","lat":38.129836,"lng":140.915976,"zip":"9892421"},{"town":"下野郷","koaza":"北猿子谷地","lat":38.131445,"lng":140.915221,"zip":"9892421"},{"town":"下野郷","koaza":"北長沼","lat":38.133634,"lng":140.915367,"zip":"9892421"},{"town":"下野郷","koaza":"北鳥屋場","lat":38.131858,"lng":140.915064,"zip":"9892421"},{"town":"下野郷","koaza":"菱沼","lat":38.125658,"lng":140.918292,"zip":"9892421"},{"town":"寺島","koaza":"浜里","lat":38.072416,"lng":140.918328,"zip":"9892425"},{"town":"下野郷","koaza":"東長沼","lat":38.129837,"lng":140.918017,"zip":"9892421"},{"town":"寺島","koaza":"東川","lat":38.07207,"lng":140.918739,"zip":"9892425"},{"town":"下野郷","koaza":"新花立","lat":38.12472,"lng":140.917563,"zip":"9892421"},{"town":"下野郷","koaza":"中野馬場","lat":38.128627,"lng":140.918863,"zip":"9892421"},{"town":"寺島","koaza":"北新田","lat":38.0796,"lng":140.921792,"zip":"9892425"},{"town":"寺島","koaza":"川向","lat":38.078394,"lng":140.923721,"zip":"9892425"},{"town":"早股","koaza":"前川","lat":38.090484,"lng":140.92643,"zip":"9892424"},{"town":"下野郷","koaza":"三人谷地","lat":38.118653,"lng":140.923694,"zip":"9892421"},{"town":"下野郷","koaza":"新畑","lat":38.131104,"lng":140.920059,"zip":"9892421"},{"town":"押分","koaza":"須加原","lat":38.101969,"lng":140.926848,"zip":"9892423"},{"town":"寺島","koaza":"古川","lat":38.078574,"lng":140.920523,"zip":"9892425"},{"town":"下野郷","koaza":"新相野谷地","lat":38.129705,"lng":140.923637,"zip":"9892421"},{"town":"下野郷","koaza":"藤曽根","lat":38.112385,"lng":140.925974,"zip":"9892421"},{"town":"下野郷","koaza":"高大瀬","lat":38.123317,"lng":140.926143,"zip":"9892421"},{"town":"下野郷","koaza":"西原","lat":38.12919,"lng":140.926877,"zip":"9892421"},{"town":"下野郷","koaza":"赤江川","lat":38.1132,"lng":140.928801,"zip":"9892421"},{"town":"下野郷","koaza":"指ノ下","lat":38.12834,"lng":140.903571,"zip":"9892421"},{"town":"早股","koaza":"五福檀","lat":38.091782,"lng":140.913544,"zip":"9892424"},{"town":"早股","koaza":"須賀原","lat":38.089883,"lng":140.913322,"zip":"9892424"},{"town":"早股","koaza":"寺北","lat":38.093674,"lng":140.913787,"zip":"9892424"},{"town":"長岡","koaza":"栗木平西","lat":38.124064,"lng":140.829263,"zip":"9892461"},{"town":"下野郷","koaza":"中谷地","lat":38.13459,"lng":140.907086,"zip":"9892421"},{"town":"下野郷","koaza":"汐入一","lat":38.125609,"lng":140.927268,"zip":"9892421"}]