[{"town":"新東名三丁目","koaza":"","lat":38.370763,"lng":141.146055,"zip":"9810413"},{"town":"新東名二丁目","koaza":"","lat":38.371957,"lng":141.145898,"zip":"9810413"},{"town":"新東名四丁目","koaza":"","lat":38.371274,"lng":141.140281,"zip":"9810413"},{"town":"新東名一丁目","koaza":"","lat":38.373064,"lng":141.143358,"zip":"9810413"},{"town":"高松","koaza":"","lat":38.421753,"lng":141.155935,"zip":"9810308"},{"town":"大塚","koaza":"","lat":38.380615,"lng":141.135208,"zip":"9810414"},{"town":"小野","koaza":"","lat":38.404253,"lng":141.162182,"zip":"9810303"},{"town":"新田","koaza":"","lat":38.426347,"lng":141.14805,"zip":"9810307"},{"town":"浜市","koaza":"","lat":38.384485,"lng":141.177151,"zip":"9810302"},{"town":"根古","koaza":"","lat":38.416005,"lng":141.165032,"zip":"9810309"},{"town":"川下","koaza":"","lat":38.411671,"lng":141.138481,"zip":"9810304"},{"town":"浅井","koaza":"","lat":38.395215,"lng":141.14253,"zip":"9810415"},{"town":"牛網","koaza":"","lat":38.398035,"lng":141.182166,"zip":"9810301"},{"town":"西福田","koaza":"","lat":38.43246,"lng":141.130344,"zip":"9810306"},{"town":"上下堤","koaza":"","lat":38.404237,"lng":141.115387,"zip":"9810305"},{"town":"宮戸","koaza":"","lat":38.33812,"lng":141.15014,"zip":"9810412"},{"town":"野蒜","koaza":"","lat":38.374479,"lng":141.160005,"zip":"9810411"},{"town":"赤井","koaza":"","lat":38.449277,"lng":141.218629,"zip":"9810501"},{"town":"大塩","koaza":"","lat":38.441067,"lng":141.165605,"zip":"9810505"},{"town":"あおい二丁目","koaza":"","lat":38.429319,"lng":141.22152,"zip":"9810506"},{"town":"矢本","koaza":"","lat":38.411566,"lng":141.208337,"zip":"9810503"},{"town":"あおい一丁目","koaza":"","lat":38.428403,"lng":141.218819,"zip":"9810506"},{"town":"小松","koaza":"","lat":38.432015,"lng":141.204349,"zip":"9810504"},{"town":"あおい三丁目","koaza":"","lat":38.430182,"lng":141.224251,"zip":"9810506"},{"town":"大曲","koaza":"","lat":38.422363,"lng":141.237085,"zip":"9810502"},{"town":"野蒜ケ丘一丁目","koaza":"","lat":38.379408,"lng":141.155618,"zip":"9810416"},{"town":"野蒜ケ丘二丁目","koaza":"","lat":38.376355,"lng":141.148884,"zip":"9810416"},{"town":"野蒜ケ丘三丁目","koaza":"","lat":38.376283,"lng":141.143103,"zip":"9810416"},{"town":"上下堤","koaza":"南","lat":38.409145,"lng":141.108809,"zip":"9810305"},{"town":"上下堤","koaza":"冠木","lat":38.412328,"lng":141.106666,"zip":"9810305"},{"town":"上下堤","koaza":"平崎前","lat":38.409804,"lng":141.109382,"zip":"9810305"},{"town":"上下堤","koaza":"萩窪","lat":38.411851,"lng":141.113276,"zip":"9810305"},{"town":"西福田","koaza":"筒の山","lat":38.439439,"lng":141.121991,"zip":"9810306"},{"town":"西福田","koaza":"白山","lat":38.435204,"lng":141.121547,"zip":"9810306"},{"town":"上下堤","koaza":"上北谷地","lat":38.411573,"lng":141.120457,"zip":"9810305"},{"town":"上下堤","koaza":"北","lat":38.409759,"lng":141.119697,"zip":"9810305"},{"town":"川下","koaza":"品金沢","lat":38.413102,"lng":141.120209,"zip":"9810304"},{"town":"上下堤","koaza":"上南谷地","lat":38.407489,"lng":141.124016,"zip":"9810305"},{"town":"川下","koaza":"長根","lat":38.417422,"lng":141.122798,"zip":"9810304"},{"town":"大塚","koaza":"大塚","lat":38.380589,"lng":141.12965,"zip":"9810414"},{"town":"西福田","koaza":"古堂","lat":38.428627,"lng":141.126546,"zip":"9810306"},{"town":"川下","koaza":"茗荷沢","lat":38.404491,"lng":141.13356,"zip":"9810304"},{"town":"宮戸","koaza":"北鰐渕","lat":38.325857,"lng":141.141007,"zip":"9810412"},{"town":"大塚","koaza":"東","lat":38.379275,"lng":141.131178,"zip":"9810414"},{"town":"西福田","koaza":"中窪上","lat":38.425559,"lng":141.132861,"zip":"9810306"},{"town":"西福田","koaza":"大沢","lat":38.422962,"lng":141.137392,"zip":"9810306"},{"town":"西福田","koaza":"舞台塚","lat":38.44279,"lng":141.137302,"zip":"9810306"},{"town":"宮戸","koaza":"宮田","lat":38.333907,"lng":141.139568,"zip":"9810412"},{"town":"西福田","koaza":"下十階松","lat":38.421745,"lng":141.137307,"zip":"9810306"},{"town":"川下","koaza":"内響","lat":38.412182,"lng":141.139059,"zip":"9810304"},{"town":"大塚","koaza":"東名","lat":38.364335,"lng":141.14028,"zip":"9810414"},{"town":"大塚","koaza":"南林下","lat":38.367126,"lng":141.142262,"zip":"9810414"},{"town":"大塩","koaza":"小分木","lat":38.44057,"lng":141.146474,"zip":"9810505"},{"town":"宮戸","koaza":"牛山崎","lat":38.341258,"lng":141.143158,"zip":"9810412"},{"town":"大塚","koaza":"北林下","lat":38.370099,"lng":141.142601,"zip":"9810414"},{"town":"新田","koaza":"風張","lat":38.418853,"lng":141.145257,"zip":"9810307"},{"town":"宮戸","koaza":"里","lat":38.338381,"lng":141.144482,"zip":"9810412"},{"town":"浅井","koaza":"下館","lat":38.397408,"lng":141.146574,"zip":"9810415"},{"town":"高松","koaza":"新猪鼻","lat":38.415751,"lng":141.146614,"zip":"9810308"},{"town":"浅井","koaza":"高田","lat":38.402364,"lng":141.14779,"zip":"9810415"},{"town":"野蒜","koaza":"北赤崎","lat":38.371927,"lng":141.151443,"zip":"9810411"},{"town":"大塩","koaza":"大島","lat":38.449018,"lng":141.151952,"zip":"9810505"},{"town":"浅井","koaza":"大栗窪","lat":38.39573,"lng":141.151259,"zip":"9810415"},{"town":"野蒜","koaza":"南赤崎","lat":38.369388,"lng":141.153517,"zip":"9810411"},{"town":"小野","koaza":"下田","lat":38.412088,"lng":141.150499,"zip":"9810303"},{"town":"根古","koaza":"下","lat":38.414101,"lng":141.151487,"zip":"9810309"},{"town":"小野","koaza":"裏丁","lat":38.407252,"lng":141.152864,"zip":"9810303"},{"town":"野蒜","koaza":"山岸","lat":38.388526,"lng":141.151893,"zip":"9810411"},{"town":"高松","koaza":"川子沢","lat":38.422477,"lng":141.155389,"zip":"9810308"},{"town":"大塩","koaza":"小泉","lat":38.445361,"lng":141.156774,"zip":"9810505"},{"town":"野蒜","koaza":"亀岡","lat":38.374674,"lng":141.153945,"zip":"9810411"},{"town":"宮戸","koaza":"松ケ島","lat":38.351872,"lng":141.15693,"zip":"9810412"},{"town":"宮戸","koaza":"二ツ橋","lat":38.335356,"lng":141.1543,"zip":"9810412"},{"town":"浅井","koaza":"丸塚","lat":38.392661,"lng":141.1543,"zip":"9810415"},{"town":"野蒜","koaza":"山崎","lat":38.392884,"lng":141.155161,"zip":"9810411"},{"town":"野蒜","koaza":"西余景","lat":38.372363,"lng":141.157226,"zip":"9810411"},{"town":"小野","koaza":"町裏","lat":38.403909,"lng":141.158028,"zip":"9810303"},{"town":"野蒜","koaza":"北余景","lat":38.375563,"lng":141.158452,"zip":"9810411"},{"town":"野蒜","koaza":"下沼","lat":38.37322,"lng":141.165918,"zip":"9810411"},{"town":"野蒜","koaza":"中下","lat":38.388969,"lng":141.159478,"zip":"9810411"},{"town":"野蒜","koaza":"小原","lat":38.387111,"lng":141.158375,"zip":"9810411"},{"town":"小野","koaza":"町尻","lat":38.407506,"lng":141.158239,"zip":"9810303"},{"town":"野蒜","koaza":"谷地中","lat":38.386446,"lng":141.160548,"zip":"9810411"},{"town":"小野","koaza":"中央","lat":38.4002,"lng":141.162535,"zip":"9810303"},{"town":"野蒜","koaza":"南余景","lat":38.373031,"lng":141.163985,"zip":"9810411"},{"town":"大塩","koaza":"裏谷地","lat":38.452855,"lng":141.16612,"zip":"9810505"},{"town":"野蒜","koaza":"宇津","lat":38.385691,"lng":141.163698,"zip":"9810411"},{"town":"大塩","koaza":"逆川","lat":38.424851,"lng":141.168967,"zip":"9810505"},{"town":"野蒜","koaza":"北針生","lat":38.376858,"lng":141.165549,"zip":"9810411"},{"town":"宮戸","koaza":"室浜","lat":38.333952,"lng":141.166108,"zip":"9810412"},{"town":"宮戸","koaza":"新道町","lat":38.336656,"lng":141.163605,"zip":"9810412"},{"town":"野蒜","koaza":"立石","lat":38.38171,"lng":141.168243,"zip":"9810411"},{"town":"大塩","koaza":"引沢","lat":38.432547,"lng":141.16315,"zip":"9810505"},{"town":"大塩","koaza":"角柄","lat":38.451041,"lng":141.16539,"zip":"9810505"},{"town":"根古","koaza":"熊野前","lat":38.416629,"lng":141.165397,"zip":"9810309"},{"town":"小野","koaza":"新宮前","lat":38.399994,"lng":141.164749,"zip":"9810303"},{"town":"浜市","koaza":"樋場","lat":38.380837,"lng":141.175248,"zip":"9810302"},{"town":"野蒜","koaza":"長沼","lat":38.379731,"lng":141.167438,"zip":"9810411"},{"town":"大塩","koaza":"緑ケ丘四丁目","lat":38.435091,"lng":141.172203,"zip":"9810505"},{"town":"牛網","koaza":"駅前三丁目","lat":38.39752,"lng":141.16958,"zip":"9810301"},{"town":"大塩","koaza":"餅田","lat":38.449359,"lng":141.174778,"zip":"9810505"},{"town":"根古","koaza":"湯舟","lat":38.421545,"lng":141.172283,"zip":"9810309"},{"town":"大塩","koaza":"中沢","lat":38.442206,"lng":141.170568,"zip":"9810505"},{"town":"牛網","koaza":"上西","lat":38.397534,"lng":141.170525,"zip":"9810301"},{"town":"大塩","koaza":"中沢上","lat":38.441132,"lng":141.1721,"zip":"9810505"},{"town":"牛網","koaza":"牛坂","lat":38.399119,"lng":141.176004,"zip":"9810301"},{"town":"大塩","koaza":"緑ケ丘一丁目","lat":38.443231,"lng":141.171984,"zip":"9810505"},{"town":"浜市","koaza":"白萩","lat":38.386903,"lng":141.173411,"zip":"9810302"},{"town":"浜市","koaza":"新蜆抓場","lat":38.390319,"lng":141.172852,"zip":"9810302"},{"town":"牛網","koaza":"駅前一丁目","lat":38.397788,"lng":141.174319,"zip":"9810301"},{"town":"浜市","koaza":"城内","lat":38.388818,"lng":141.173651,"zip":"9810302"},{"town":"牛網","koaza":"駅前二丁目","lat":38.395777,"lng":141.172604,"zip":"9810301"},{"town":"大塩","koaza":"緑ケ丘三丁目","lat":38.440022,"lng":141.174128,"zip":"9810505"},{"town":"大塩","koaza":"緑ケ丘二丁目","lat":38.444007,"lng":141.173426,"zip":"9810505"},{"town":"牛網","koaza":"新上江戸原","lat":38.395299,"lng":141.174876,"zip":"9810301"},{"town":"大塩","koaza":"旗沢","lat":38.430731,"lng":141.179886,"zip":"9810505"},{"town":"浜市","koaza":"新田","lat":38.39036,"lng":141.174371,"zip":"9810302"},{"town":"牛網","koaza":"下江戸原","lat":38.392746,"lng":141.17513,"zip":"9810301"},{"town":"浜市","koaza":"東浮足","lat":38.385482,"lng":141.176017,"zip":"9810302"},{"town":"大塩","koaza":"裏沢","lat":38.452774,"lng":141.175421,"zip":"9810505"},{"town":"牛網","koaza":"上四十八","lat":38.396238,"lng":141.177352,"zip":"9810301"},{"town":"牛網","koaza":"別当","lat":38.399749,"lng":141.176925,"zip":"9810301"},{"town":"牛網","koaza":"字駅前東","lat":38.399849,"lng":141.177222,"zip":"9810301"},{"town":"牛網","koaza":"関下","lat":38.401545,"lng":141.176502,"zip":"9810301"},{"town":"牛網","koaza":"新上四十八","lat":38.397835,"lng":141.179216,"zip":"9810301"},{"town":"牛網","koaza":"下四十八","lat":38.393812,"lng":141.178581,"zip":"9810301"},{"town":"大塩","koaza":"岩崎","lat":38.441089,"lng":141.17838,"zip":"9810505"},{"town":"大塩","koaza":"中沢下","lat":38.440954,"lng":141.177622,"zip":"9810505"},{"town":"浜市","koaza":"西浮足","lat":38.389568,"lng":141.18074,"zip":"9810302"},{"town":"矢本","koaza":"上舘下","lat":38.41436,"lng":141.181169,"zip":"9810503"},{"town":"小松","koaza":"上二間堀","lat":38.423904,"lng":141.183516,"zip":"9810504"},{"town":"牛網","koaza":"南大浮足","lat":38.391788,"lng":141.181781,"zip":"9810301"},{"town":"牛網","koaza":"新上村松","lat":38.398284,"lng":141.180942,"zip":"9810301"},{"town":"牛網","koaza":"西大浮足","lat":38.393749,"lng":141.184648,"zip":"9810301"},{"town":"矢本","koaza":"新町","lat":38.404415,"lng":141.183579,"zip":"9810503"},{"town":"矢本","koaza":"上沢目","lat":38.40524,"lng":141.182706,"zip":"9810503"},{"town":"矢本","koaza":"蛭坪","lat":38.408111,"lng":141.187181,"zip":"9810503"},{"town":"矢本","koaza":"寺前","lat":38.411396,"lng":141.188074,"zip":"9810503"},{"town":"大塩","koaza":"山崎","lat":38.434439,"lng":141.185411,"zip":"9810505"},{"town":"小松","koaza":"明神下","lat":38.422576,"lng":141.188791,"zip":"9810504"},{"town":"大塩","koaza":"寺前","lat":38.446856,"lng":141.187098,"zip":"9810505"},{"town":"大塩","koaza":"清水沢","lat":38.444436,"lng":141.191123,"zip":"9810505"},{"town":"大塩","koaza":"南","lat":38.448378,"lng":141.189734,"zip":"9810505"},{"town":"大塩","koaza":"五台下","lat":38.449724,"lng":141.188819,"zip":"9810505"},{"town":"小松","koaza":"上前柳","lat":38.433047,"lng":141.189925,"zip":"9810504"},{"town":"矢本","koaza":"穴尻","lat":38.403827,"lng":141.186077,"zip":"9810503"},{"town":"小松","koaza":"沢田前","lat":38.429515,"lng":141.19307,"zip":"9810504"},{"town":"大塩","koaza":"平田原","lat":38.457556,"lng":141.187326,"zip":"9810505"},{"town":"矢本","koaza":"中谷地","lat":38.405887,"lng":141.194409,"zip":"9810503"},{"town":"矢本","koaza":"鹿石前","lat":38.402628,"lng":141.186495,"zip":"9810503"},{"town":"小松","koaza":"小松台","lat":38.442028,"lng":141.194446,"zip":"9810504"},{"town":"矢本","koaza":"鳥子","lat":38.41106,"lng":141.192029,"zip":"9810503"},{"town":"小松","koaza":"舘下","lat":38.443646,"lng":141.197589,"zip":"9810504"},{"town":"小松","koaza":"鷹の池","lat":38.438104,"lng":141.194332,"zip":"9810504"},{"town":"小松","koaza":"池の内","lat":38.434929,"lng":141.19551,"zip":"9810504"},{"town":"矢本","koaza":"三間堀","lat":38.416852,"lng":141.200967,"zip":"9810503"},{"town":"矢本","koaza":"二反走","lat":38.420282,"lng":141.199402,"zip":"9810503"},{"town":"小松","koaza":"沖砂利前","lat":38.436424,"lng":141.202078,"zip":"9810504"},{"town":"小松","koaza":"梅堀","lat":38.428887,"lng":141.19847,"zip":"9810504"},{"town":"矢本","koaza":"立沼浦","lat":38.406058,"lng":141.198928,"zip":"9810503"},{"town":"小松","koaza":"塚田","lat":38.437971,"lng":141.200616,"zip":"9810504"},{"town":"矢本","koaza":"笠松","lat":38.412343,"lng":141.197448,"zip":"9810503"},{"town":"小松","koaza":"前田","lat":38.441316,"lng":141.200003,"zip":"9810504"},{"town":"矢本","koaza":"西新町","lat":38.423053,"lng":141.202278,"zip":"9810503"},{"town":"小松","koaza":"谷地","lat":38.430923,"lng":141.205921,"zip":"9810504"},{"town":"矢本","koaza":"沼南","lat":38.405462,"lng":141.202123,"zip":"9810503"},{"town":"矢本","koaza":"四反走","lat":38.420684,"lng":141.203621,"zip":"9810503"},{"town":"赤井","koaza":"照井中","lat":38.448219,"lng":141.203001,"zip":"9810501"},{"town":"小松","koaza":"柴","lat":38.439526,"lng":141.205998,"zip":"9810504"},{"town":"矢本","koaza":"中田","lat":38.412221,"lng":141.205876,"zip":"9810503"},{"town":"矢本","koaza":"上河戸","lat":38.423156,"lng":141.20774,"zip":"9810503"},{"town":"矢本","koaza":"一本杉","lat":38.414991,"lng":141.204166,"zip":"9810503"},{"town":"小松","koaza":"上浮足","lat":38.42669,"lng":141.206474,"zip":"9810504"},{"town":"矢本","koaza":"立沼","lat":38.409566,"lng":141.208392,"zip":"9810503"},{"town":"小松","koaza":"上砂利田","lat":38.439134,"lng":141.210323,"zip":"9810504"},{"town":"小松","koaza":"柳田","lat":38.431386,"lng":141.204788,"zip":"9810504"},{"town":"矢本","koaza":"河戸","lat":38.421254,"lng":141.21022,"zip":"9810503"},{"town":"赤井","koaza":"星場","lat":38.449886,"lng":141.211423,"zip":"9810501"},{"town":"矢本","koaza":"野中","lat":38.418243,"lng":141.208207,"zip":"9810503"},{"town":"小松","koaza":"伊勢前","lat":38.433348,"lng":141.213282,"zip":"9810504"},{"town":"矢本","koaza":"上新沼","lat":38.419007,"lng":141.211211,"zip":"9810503"},{"town":"小松","koaza":"養閑","lat":38.442856,"lng":141.206514,"zip":"9810504"},{"town":"小松","koaza":"神前","lat":38.431359,"lng":141.21105,"zip":"9810504"},{"town":"赤井","koaza":"関下","lat":38.446554,"lng":141.212002,"zip":"9810501"},{"town":"矢本","koaza":"栄町","lat":38.420944,"lng":141.210789,"zip":"9810503"},{"town":"小松","koaza":"中浮足","lat":38.430392,"lng":141.211495,"zip":"9810504"},{"town":"小松","koaza":"伊勢浦","lat":38.435537,"lng":141.212243,"zip":"9810504"},{"town":"矢本","koaza":"寿町","lat":38.420822,"lng":141.212327,"zip":"9810503"},{"town":"矢本","koaza":"大溜","lat":38.426766,"lng":141.214673,"zip":"9810503"},{"town":"矢本","koaza":"町浦","lat":38.423919,"lng":141.216555,"zip":"9810503"},{"town":"矢本","koaza":"北浦","lat":38.423215,"lng":141.216247,"zip":"9810503"},{"town":"赤井","koaza":"本谷","lat":38.447298,"lng":141.214975,"zip":"9810501"},{"town":"矢本","koaza":"新沼","lat":38.417722,"lng":141.212347,"zip":"9810503"},{"town":"小松","koaza":"稔田","lat":38.434022,"lng":141.218574,"zip":"9810504"},{"town":"赤井","koaza":"西田","lat":38.457577,"lng":141.215603,"zip":"9810501"},{"town":"赤井","koaza":"川前四","lat":38.445905,"lng":141.222587,"zip":"9810501"},{"town":"大曲","koaza":"小脇浦","lat":38.441159,"lng":141.220229,"zip":"9810502"},{"town":"大曲","koaza":"宮前","lat":38.438839,"lng":141.220225,"zip":"9810502"},{"town":"大曲","koaza":"浦田","lat":38.442985,"lng":141.22402,"zip":"9810502"},{"town":"赤井","koaza":"中新丁","lat":38.452749,"lng":141.218782,"zip":"9810501"},{"town":"赤井","koaza":"寺","lat":38.448522,"lng":141.222289,"zip":"9810501"},{"town":"赤井","koaza":"臂曲","lat":38.452913,"lng":141.221001,"zip":"9810501"},{"town":"矢本","koaza":"大林","lat":38.421181,"lng":141.217801,"zip":"9810503"},{"town":"矢本","koaza":"南浦","lat":38.420745,"lng":141.218321,"zip":"9810503"},{"town":"矢本","koaza":"下浦","lat":38.426708,"lng":141.221587,"zip":"9810503"},{"town":"小松","koaza":"念仏壇","lat":38.435237,"lng":141.219775,"zip":"9810504"},{"town":"矢本","koaza":"関の内","lat":38.421932,"lng":141.223967,"zip":"9810503"},{"town":"大曲","koaza":"前畑","lat":38.436541,"lng":141.223505,"zip":"9810502"},{"town":"大曲","koaza":"宮田","lat":38.440952,"lng":141.221763,"zip":"9810502"},{"town":"矢本","koaza":"蜂谷浦","lat":38.420158,"lng":141.223804,"zip":"9810503"},{"town":"矢本","koaza":"作田浦","lat":38.424469,"lng":141.223623,"zip":"9810503"},{"town":"赤井","koaza":"西沼前","lat":38.452284,"lng":141.223756,"zip":"9810501"},{"town":"矢本","koaza":"蜂谷前","lat":38.416724,"lng":141.227004,"zip":"9810503"},{"town":"大曲","koaza":"堰の内南","lat":38.427322,"lng":141.227733,"zip":"9810502"},{"town":"赤井","koaza":"中浦","lat":38.448934,"lng":141.226765,"zip":"9810501"},{"town":"赤井","koaza":"中二号","lat":38.450394,"lng":141.228751,"zip":"9810501"},{"town":"矢本","koaza":"下立沼前","lat":38.413727,"lng":141.225245,"zip":"9810503"},{"town":"大曲","koaza":"権右エ門下","lat":38.435303,"lng":141.225817,"zip":"9810502"},{"town":"大曲","koaza":"堺堀","lat":38.424909,"lng":141.231075,"zip":"9810502"},{"town":"大曲","koaza":"堰南","lat":38.430465,"lng":141.22694,"zip":"9810502"},{"town":"赤井","koaza":"北田","lat":38.470789,"lng":141.226165,"zip":"9810501"},{"town":"大曲","koaza":"横沼","lat":38.42234,"lng":141.22978,"zip":"9810502"},{"town":"大曲","koaza":"倉田","lat":38.439065,"lng":141.228194,"zip":"9810502"},{"town":"矢本","koaza":"下前","lat":38.411611,"lng":141.227914,"zip":"9810503"},{"town":"赤井","koaza":"下新丁","lat":38.45442,"lng":141.230007,"zip":"9810501"},{"town":"大曲","koaza":"筒場","lat":38.428082,"lng":141.23284,"zip":"9810502"},{"town":"大曲","koaza":"下台","lat":38.409436,"lng":141.239267,"zip":"9810502"},{"town":"赤井","koaza":"川南","lat":38.434748,"lng":141.2308,"zip":"9810501"},{"town":"赤井","koaza":"舘前","lat":38.449849,"lng":141.23296,"zip":"9810501"},{"town":"赤井","koaza":"川前三","lat":38.444723,"lng":141.233397,"zip":"9810501"},{"town":"大曲","koaza":"貝田","lat":38.428767,"lng":141.23385,"zip":"9810502"},{"town":"赤井","koaza":"南新町","lat":38.433069,"lng":141.232717,"zip":"9810501"},{"town":"大曲","koaza":"新沼","lat":38.421962,"lng":141.232137,"zip":"9810502"},{"town":"大曲","koaza":"上台","lat":38.409665,"lng":141.232996,"zip":"9810502"},{"town":"赤井","koaza":"川前二","lat":38.431402,"lng":141.235527,"zip":"9810501"},{"town":"赤井","koaza":"川前五番","lat":38.441076,"lng":141.233093,"zip":"9810501"},{"town":"大曲","koaza":"西田","lat":38.422288,"lng":141.233266,"zip":"9810502"},{"town":"赤井","koaza":"川前四番","lat":38.436467,"lng":141.234272,"zip":"9810501"},{"town":"赤井","koaza":"関の内一号","lat":38.452326,"lng":141.235402,"zip":"9810501"},{"town":"大曲","koaza":"寺沼","lat":38.423232,"lng":141.235395,"zip":"9810502"},{"town":"赤井","koaza":"南四","lat":38.445579,"lng":141.235993,"zip":"9810501"},{"town":"大曲","koaza":"寺前","lat":38.425471,"lng":141.236503,"zip":"9810502"},{"town":"赤井","koaza":"関の内四号","lat":38.440033,"lng":141.238793,"zip":"9810501"},{"town":"赤井","koaza":"横関","lat":38.452527,"lng":141.237671,"zip":"9810501"},{"town":"赤井","koaza":"相野佐野","lat":38.45503,"lng":141.237945,"zip":"9810501"},{"town":"大曲","koaza":"道下","lat":38.421306,"lng":141.244932,"zip":"9810502"},{"town":"大曲","koaza":"上納南","lat":38.42552,"lng":141.237896,"zip":"9810502"},{"town":"赤井","koaza":"川前三番","lat":38.434369,"lng":141.23743,"zip":"9810501"},{"town":"赤井","koaza":"川前二番","lat":38.435035,"lng":141.238833,"zip":"9810501"},{"town":"赤井","koaza":"川前一","lat":38.432233,"lng":141.239452,"zip":"9810501"},{"town":"赤井","koaza":"新川前","lat":38.431654,"lng":141.242072,"zip":"9810501"},{"town":"赤井","koaza":"南栄町","lat":38.435333,"lng":141.240092,"zip":"9810501"},{"town":"赤井","koaza":"横関二号","lat":38.447128,"lng":141.240462,"zip":"9810501"},{"town":"大曲","koaza":"上納","lat":38.426519,"lng":141.240095,"zip":"9810502"},{"town":"赤井","koaza":"七反谷地","lat":38.437655,"lng":141.247507,"zip":"9810501"},{"town":"大曲","koaza":"土手下南","lat":38.412562,"lng":141.242452,"zip":"9810502"},{"town":"大曲","koaza":"土手下","lat":38.418869,"lng":141.243559,"zip":"9810502"},{"town":"赤井","koaza":"有明","lat":38.434886,"lng":141.244063,"zip":"9810501"},{"town":"赤井","koaza":"南三","lat":38.439552,"lng":141.243343,"zip":"9810501"},{"town":"大曲","koaza":"道下南","lat":38.413122,"lng":141.244548,"zip":"9810502"},{"town":"赤井","koaza":"南一","lat":38.433816,"lng":141.252559,"zip":"9810501"},{"town":"赤井","koaza":"八反谷地","lat":38.431885,"lng":141.253612,"zip":"9810501"},{"town":"赤井","koaza":"鷲塚","lat":38.427269,"lng":141.252527,"zip":"9810501"},{"town":"赤井","koaza":"一本杉","lat":38.438205,"lng":141.255689,"zip":"9810501"},{"town":"赤井","koaza":"台","lat":38.432106,"lng":141.257096,"zip":"9810501"},{"town":"牛網","koaza":"新中村松","lat":38.399284,"lng":141.18381,"zip":"9810301"},{"town":"大塩","koaza":"後三郷二番","lat":38.460443,"lng":141.172568,"zip":"9810505"},{"town":"大塩","koaza":"後三郷一番","lat":38.458467,"lng":141.176748,"zip":"9810505"},{"town":"大塩","koaza":"三ツ谷","lat":38.452573,"lng":141.180103,"zip":"9810505"},{"town":"大塩","koaza":"五台","lat":38.450624,"lng":141.186745,"zip":"9810505"},{"town":"大塩","koaza":"国見","lat":38.452919,"lng":141.185123,"zip":"9810505"},{"town":"大塩","koaza":"平田原下","lat":38.457225,"lng":141.19196,"zip":"9810505"},{"town":"大塩","koaza":"前三郷","lat":38.456017,"lng":141.180819,"zip":"9810505"},{"town":"大塩","koaza":"松木沢下","lat":38.447415,"lng":141.158777,"zip":"9810505"},{"town":"大塩","koaza":"尻貝","lat":38.437404,"lng":141.152881,"zip":"9810505"},{"town":"大塩","koaza":"新田道","lat":38.440511,"lng":141.148696,"zip":"9810505"},{"town":"大塩","koaza":"大島沖下","lat":38.443805,"lng":141.148668,"zip":"9810505"},{"town":"大塩","koaza":"天神堂","lat":38.44256,"lng":141.163736,"zip":"9810505"},{"town":"大塩","koaza":"樋口","lat":38.443458,"lng":141.180871,"zip":"9810505"},{"town":"大塩","koaza":"鳥の巣","lat":38.450836,"lng":141.176036,"zip":"9810505"},{"town":"大塩","koaza":"荻窪","lat":38.447813,"lng":141.184688,"zip":"9810505"},{"town":"大塩","koaza":"竹の内","lat":38.450895,"lng":141.190161,"zip":"9810505"},{"town":"大塩","koaza":"畑中北","lat":38.450055,"lng":141.192586,"zip":"9810505"},{"town":"赤井","koaza":"中沼前","lat":38.455461,"lng":141.226251,"zip":"9810501"},{"town":"赤井","koaza":"新舘前","lat":38.451648,"lng":141.2321,"zip":"9810501"},{"town":"赤井","koaza":"関の内二号","lat":38.447675,"lng":141.237226,"zip":"9810501"},{"town":"赤井","koaza":"上二番","lat":38.446275,"lng":141.204847,"zip":"9810501"},{"town":"赤井","koaza":"照井前東","lat":38.446896,"lng":141.205923,"zip":"9810501"},{"town":"赤井","koaza":"照井前西","lat":38.447708,"lng":141.200016,"zip":"9810501"},{"town":"大塩","koaza":"本地一番","lat":38.443796,"lng":141.147573,"zip":"9810505"},{"town":"大塩","koaza":"本地二番","lat":38.441448,"lng":141.145667,"zip":"9810505"},{"town":"西福田","koaza":"御浦","lat":38.441002,"lng":141.13701,"zip":"9810306"},{"town":"新田","koaza":"落合","lat":38.423118,"lng":141.141345,"zip":"9810307"},{"town":"西福田","koaza":"長沢","lat":38.434727,"lng":141.137612,"zip":"9810306"},{"town":"西福田","koaza":"坂ノ入","lat":38.427101,"lng":141.135892,"zip":"9810306"},{"town":"西福田","koaza":"流地","lat":38.432078,"lng":141.127606,"zip":"9810306"},{"town":"西福田","koaza":"丸山","lat":38.428154,"lng":141.133138,"zip":"9810306"},{"town":"西福田","koaza":"二の関","lat":38.434237,"lng":141.129781,"zip":"9810306"},{"town":"大塩","koaza":"寺沢","lat":38.434019,"lng":141.166465,"zip":"9810505"},{"town":"小松","koaza":"舘前","lat":38.443327,"lng":141.196467,"zip":"9810504"},{"town":"小松","koaza":"堰の内","lat":38.439548,"lng":141.193325,"zip":"9810504"},{"town":"大塩","koaza":"笹原田","lat":38.440188,"lng":141.184635,"zip":"9810505"},{"town":"大塩","koaza":"松木沢上","lat":38.446141,"lng":141.165075,"zip":"9810505"},{"town":"大塩","koaza":"朴倉","lat":38.43686,"lng":141.185847,"zip":"9810505"},{"town":"小松","koaza":"堰下","lat":38.435831,"lng":141.196218,"zip":"9810504"},{"town":"小松","koaza":"庚申","lat":38.436552,"lng":141.211064,"zip":"9810504"},{"town":"小松","koaza":"下砂利田","lat":38.437734,"lng":141.211946,"zip":"9810504"},{"town":"大曲","koaza":"家の下","lat":38.438866,"lng":141.225724,"zip":"9810502"},{"town":"大曲","koaza":"弥治右エ門","lat":38.43855,"lng":141.222568,"zip":"9810502"},{"town":"赤井","koaza":"川前一番","lat":38.433802,"lng":141.243049,"zip":"9810501"},{"town":"赤井","koaza":"芳原","lat":38.437934,"lng":141.243424,"zip":"9810501"},{"town":"小松","koaza":"里前","lat":38.434132,"lng":141.200398,"zip":"9810504"},{"town":"小松","koaza":"下前柳","lat":38.43364,"lng":141.195893,"zip":"9810504"},{"town":"根古","koaza":"朴木沢","lat":38.419119,"lng":141.167735,"zip":"9810309"},{"town":"根古","koaza":"五反田","lat":38.417561,"lng":141.164144,"zip":"9810309"},{"town":"大曲","koaza":"川前","lat":38.427998,"lng":141.240909,"zip":"9810502"},{"town":"大曲","koaza":"関の内","lat":38.427957,"lng":141.242485,"zip":"9810502"},{"town":"矢本","koaza":"裏町","lat":38.421282,"lng":141.209988,"zip":"9810503"},{"town":"小松","koaza":"中砂利田","lat":38.438158,"lng":141.214023,"zip":"9810504"},{"town":"小松","koaza":"下田","lat":38.442224,"lng":141.199578,"zip":"9810504"},{"town":"小松","koaza":"下二間堀","lat":38.428575,"lng":141.188791,"zip":"9810504"},{"town":"根古","koaza":"清水","lat":38.412977,"lng":141.171924,"zip":"9810309"},{"town":"小野","koaza":"宮前","lat":38.397663,"lng":141.168053,"zip":"9810303"},{"town":"牛網","koaza":"鷹ノ巣山","lat":38.404934,"lng":141.174906,"zip":"9810301"},{"town":"牛網","koaza":"新下西","lat":38.396537,"lng":141.170027,"zip":"9810301"},{"town":"小野","koaza":"新欠下","lat":38.401426,"lng":141.162553,"zip":"9810303"},{"town":"小野","koaza":"新町裏","lat":38.403092,"lng":141.159276,"zip":"9810303"},{"town":"小野","koaza":"新町尻","lat":38.405404,"lng":141.158298,"zip":"9810303"},{"town":"大塩","koaza":"前峯","lat":38.454356,"lng":141.189138,"zip":"9810505"},{"town":"高松","koaza":"猪鼻","lat":38.417219,"lng":141.146372,"zip":"9810308"},{"town":"高松","koaza":"日照沢","lat":38.416229,"lng":141.144789,"zip":"9810308"},{"town":"新田","koaza":"殿沢","lat":38.419898,"lng":141.149476,"zip":"9810307"},{"town":"新田","koaza":"新田前","lat":38.423275,"lng":141.129336,"zip":"9810307"},{"town":"川下","koaza":"関田","lat":38.417288,"lng":141.118759,"zip":"9810304"},{"town":"川下","koaza":"突道","lat":38.41883,"lng":141.123112,"zip":"9810304"},{"town":"牛網","koaza":"上江戸原","lat":38.396556,"lng":141.17526,"zip":"9810301"},{"town":"牛網","koaza":"下西","lat":38.396144,"lng":141.174455,"zip":"9810301"},{"town":"牛網","koaza":"新中四十八","lat":38.395605,"lng":141.176745,"zip":"9810301"},{"town":"牛網","koaza":"新下四十八","lat":38.39493,"lng":141.180169,"zip":"9810301"},{"town":"牛網","koaza":"中四十八","lat":38.3945,"lng":141.180563,"zip":"9810301"},{"town":"牛網","koaza":"平岡","lat":38.392883,"lng":141.179999,"zip":"9810301"},{"town":"牛網","koaza":"西中浮足","lat":38.394633,"lng":141.18229,"zip":"9810301"},{"town":"浜市","koaza":"新西浮足","lat":38.388373,"lng":141.178617,"zip":"9810302"},{"town":"野蒜","koaza":"神吉","lat":38.387757,"lng":141.160019,"zip":"9810411"},{"town":"野蒜","koaza":"原","lat":38.391188,"lng":141.157815,"zip":"9810411"},{"town":"野蒜","koaza":"細田","lat":38.389172,"lng":141.159593,"zip":"9810411"},{"town":"浜市","koaza":"新廻樋","lat":38.387933,"lng":141.171472,"zip":"9810302"},{"town":"浜市","koaza":"中谷地","lat":38.38646,"lng":141.172121,"zip":"9810302"},{"town":"浜市","koaza":"須賀松","lat":38.386838,"lng":141.191422,"zip":"9810302"},{"town":"牛網","koaza":"海辺","lat":38.39959,"lng":141.200166,"zip":"9810301"},{"town":"矢本","koaza":"板取","lat":38.405537,"lng":141.226275,"zip":"9810503"},{"town":"矢本","koaza":"五反田","lat":38.402719,"lng":141.1919,"zip":"9810503"},{"town":"牛網","koaza":"東中浮足","lat":38.400135,"lng":141.189335,"zip":"9810301"},{"town":"牛網","koaza":"新下村松","lat":38.400433,"lng":141.190512,"zip":"9810301"},{"town":"牛網","koaza":"下村松","lat":38.400596,"lng":141.188552,"zip":"9810301"},{"town":"矢本","koaza":"弘法","lat":38.40277,"lng":141.195524,"zip":"9810503"},{"town":"大曲","koaza":"沼尻","lat":38.40966,"lng":141.244515,"zip":"9810502"},{"town":"大曲","koaza":"上七丁","lat":38.412041,"lng":141.237421,"zip":"9810502"},{"town":"根古","koaza":"鰹前","lat":38.415128,"lng":141.159923,"zip":"9810309"},{"town":"根古","koaza":"檀森","lat":38.413086,"lng":141.162629,"zip":"9810309"},{"town":"高松","koaza":"寺前","lat":38.420618,"lng":141.151886,"zip":"9810308"},{"town":"上下堤","koaza":"八幡前","lat":38.407109,"lng":141.107285,"zip":"9810305"},{"town":"上下堤","koaza":"中田","lat":38.407992,"lng":141.109037,"zip":"9810305"},{"town":"小野","koaza":"町","lat":38.406057,"lng":141.154476,"zip":"9810303"},{"town":"浜市","koaza":"川面","lat":38.401972,"lng":141.159628,"zip":"9810302"},{"town":"小野","koaza":"出来沼","lat":38.401387,"lng":141.161503,"zip":"9810303"},{"town":"牛網","koaza":"中村松","lat":38.401441,"lng":141.187131,"zip":"9810301"},{"town":"矢本","koaza":"太子前","lat":38.410434,"lng":141.191592,"zip":"9810503"},{"town":"矢本","koaza":"不動前","lat":38.415135,"lng":141.191189,"zip":"9810503"},{"town":"矢本","koaza":"舘下","lat":38.412904,"lng":141.185983,"zip":"9810503"},{"town":"矢本","koaza":"沢目","lat":38.409782,"lng":141.18621,"zip":"9810503"},{"town":"牛網","koaza":"新中江戸原","lat":38.392714,"lng":141.173825,"zip":"9810301"},{"town":"野蒜","koaza":"南針生","lat":38.375658,"lng":141.166688,"zip":"9810411"},{"town":"矢本","koaza":"赤松","lat":38.401391,"lng":141.19678,"zip":"9810503"},{"town":"牛網","koaza":"上村松","lat":38.398808,"lng":141.181435,"zip":"9810301"},{"town":"小野","koaza":"飛返","lat":38.402747,"lng":141.161377,"zip":"9810303"},{"town":"小野","koaza":"鍛治沢","lat":38.403243,"lng":141.162445,"zip":"9810303"},{"town":"小野","koaza":"中之関","lat":38.404409,"lng":141.166074,"zip":"9810303"},{"town":"小野","koaza":"門前","lat":38.409341,"lng":141.159792,"zip":"9810303"},{"town":"小野","koaza":"笹森","lat":38.411358,"lng":141.153397,"zip":"9810303"},{"town":"小野","koaza":"二之手","lat":38.412407,"lng":141.158146,"zip":"9810303"},{"town":"小野","koaza":"大谷地","lat":38.400559,"lng":141.161263,"zip":"9810303"},{"town":"川下","koaza":"台前","lat":38.403453,"lng":141.148877,"zip":"9810304"},{"town":"浅井","koaza":"下宿","lat":38.399021,"lng":141.152792,"zip":"9810415"},{"town":"浅井","koaza":"上宿","lat":38.402517,"lng":141.145398,"zip":"9810415"},{"town":"浅井","koaza":"小池","lat":38.392397,"lng":141.151983,"zip":"9810415"},{"town":"浅井","koaza":"池塚","lat":38.391073,"lng":141.153919,"zip":"9810415"},{"town":"野蒜","koaza":"神田","lat":38.3851,"lng":141.153527,"zip":"9810411"},{"town":"野蒜","koaza":"羽黒","lat":38.388164,"lng":141.152685,"zip":"9810411"},{"town":"野蒜","koaza":"上山ノ坊","lat":38.380405,"lng":141.162099,"zip":"9810411"},{"town":"野蒜","koaza":"北大仏","lat":38.372062,"lng":141.148355,"zip":"9810411"},{"town":"矢本","koaza":"滝前","lat":38.416515,"lng":141.19305,"zip":"9810503"},{"town":"浅井","koaza":"石田","lat":38.398822,"lng":141.14582,"zip":"9810415"},{"town":"浅井","koaza":"板宮","lat":38.402798,"lng":141.135984,"zip":"9810415"},{"town":"浅井","koaza":"平貝","lat":38.399553,"lng":141.135319,"zip":"9810415"},{"town":"上下堤","koaza":"岩沢","lat":38.409021,"lng":141.099743,"zip":"9810305"},{"town":"上下堤","koaza":"中谷地","lat":38.408027,"lng":141.1176,"zip":"9810305"},{"town":"上下堤","koaza":"長沢","lat":38.404632,"lng":141.12778,"zip":"9810305"},{"town":"上下堤","koaza":"袖長沢","lat":38.406509,"lng":141.125986,"zip":"9810305"},{"town":"川下","koaza":"山田","lat":38.409504,"lng":141.14099,"zip":"9810304"},{"town":"川下","koaza":"岩ケ沢","lat":38.405223,"lng":141.146323,"zip":"9810304"},{"town":"浅井","koaza":"関田","lat":38.403884,"lng":141.142021,"zip":"9810415"},{"town":"川下","koaza":"唐桶","lat":38.406975,"lng":141.142795,"zip":"9810304"},{"town":"上下堤","koaza":"入沢","lat":38.411995,"lng":141.102623,"zip":"9810305"},{"town":"上下堤","koaza":"桜坪","lat":38.40926,"lng":141.105863,"zip":"9810305"},{"town":"上下堤","koaza":"洞前","lat":38.410634,"lng":141.11557,"zip":"9810305"},{"town":"上下堤","koaza":"仮又沢","lat":38.41103,"lng":141.117295,"zip":"9810305"},{"town":"上下堤","koaza":"下北谷地","lat":38.413015,"lng":141.124701,"zip":"9810305"},{"town":"川下","koaza":"袖谷地","lat":38.415908,"lng":141.133712,"zip":"9810304"},{"town":"川下","koaza":"原田","lat":38.417461,"lng":141.128727,"zip":"9810304"},{"town":"川下","koaza":"姥ケ沢","lat":38.417548,"lng":141.127232,"zip":"9810304"},{"town":"川下","koaza":"西沢","lat":38.415081,"lng":141.126706,"zip":"9810304"},{"town":"川下","koaza":"有田沢","lat":38.416695,"lng":141.125982,"zip":"9810304"},{"town":"川下","koaza":"南","lat":38.415679,"lng":141.13511,"zip":"9810304"},{"town":"川下","koaza":"二ノ沢","lat":38.41598,"lng":141.136029,"zip":"9810304"},{"town":"上下堤","koaza":"沼田","lat":38.406238,"lng":141.10961,"zip":"9810305"},{"town":"上下堤","koaza":"富沢","lat":38.406058,"lng":141.111103,"zip":"9810305"},{"town":"上下堤","koaza":"内谷地","lat":38.405247,"lng":141.115969,"zip":"9810305"},{"town":"上下堤","koaza":"磯田沢","lat":38.401284,"lng":141.118559,"zip":"9810305"},{"town":"小野","koaza":"欠下","lat":38.401912,"lng":141.162609,"zip":"9810303"},{"town":"小野","koaza":"新関下","lat":38.401649,"lng":141.163847,"zip":"9810303"},{"town":"浅井","koaza":"大手","lat":38.397613,"lng":141.140706,"zip":"9810415"},{"town":"浅井","koaza":"大栗","lat":38.393912,"lng":141.149619,"zip":"9810415"},{"town":"大塚","koaza":"長石","lat":38.370678,"lng":141.137966,"zip":"9810414"},{"town":"大塚","koaza":"屋敷浦","lat":38.366325,"lng":141.14044,"zip":"9810414"},{"town":"野蒜","koaza":"南大仏","lat":38.368581,"lng":141.146048,"zip":"9810411"},{"town":"野蒜","koaza":"洲崎","lat":38.365644,"lng":141.152086,"zip":"9810411"},{"town":"大塚","koaza":"長浜","lat":38.368717,"lng":141.138618,"zip":"9810414"},{"town":"大塚","koaza":"松崎","lat":38.362401,"lng":141.139866,"zip":"9810414"},{"town":"宮戸","koaza":"椿","lat":38.355022,"lng":141.153794,"zip":"9810412"},{"town":"宮戸","koaza":"細浦","lat":38.352116,"lng":141.153661,"zip":"9810412"},{"town":"宮戸","koaza":"大平山","lat":38.349947,"lng":141.150515,"zip":"9810412"},{"town":"宮戸","koaza":"川原","lat":38.343324,"lng":141.149299,"zip":"9810412"},{"town":"宮戸","koaza":"茗荷","lat":38.352137,"lng":141.145189,"zip":"9810412"},{"town":"宮戸","koaza":"大竹和田","lat":38.345006,"lng":141.147379,"zip":"9810412"},{"town":"宮戸","koaza":"観音山","lat":38.34735,"lng":141.163124,"zip":"9810412"},{"town":"宮戸","koaza":"大鮫","lat":38.342636,"lng":141.163884,"zip":"9810412"},{"town":"宮戸","koaza":"岩井作","lat":38.340659,"lng":141.164693,"zip":"9810412"},{"town":"宮戸","koaza":"小室","lat":38.337684,"lng":141.166423,"zip":"9810412"},{"town":"宮戸","koaza":"住出","lat":38.339343,"lng":141.16636,"zip":"9810412"},{"town":"宮戸","koaza":"深田","lat":38.337409,"lng":141.163257,"zip":"9810412"},{"town":"宮戸","koaza":"小室田","lat":38.33629,"lng":141.161534,"zip":"9810412"},{"town":"宮戸","koaza":"大浜菅田","lat":38.337005,"lng":141.155239,"zip":"9810412"},{"town":"宮戸","koaza":"柳ノ浜","lat":38.338841,"lng":141.14921,"zip":"9810412"},{"town":"宮戸","koaza":"西大振場","lat":38.340731,"lng":141.149964,"zip":"9810412"},{"town":"宮戸","koaza":"西畑","lat":38.338966,"lng":141.142621,"zip":"9810412"},{"town":"宮戸","koaza":"寺下","lat":38.338034,"lng":141.144907,"zip":"9810412"},{"town":"宮戸","koaza":"菅田","lat":38.336212,"lng":141.149952,"zip":"9810412"},{"town":"宮戸","koaza":"袖窪","lat":38.3365,"lng":141.145409,"zip":"9810412"},{"town":"宮戸","koaza":"中小舟渡","lat":38.336783,"lng":141.148187,"zip":"9810412"},{"town":"宮戸","koaza":"小舟渡","lat":38.337187,"lng":141.14647,"zip":"9810412"},{"town":"大塚","koaza":"大東","lat":38.380382,"lng":141.136597,"zip":"9810414"},{"town":"大塚","koaza":"上塚","lat":38.384069,"lng":141.138054,"zip":"9810414"},{"town":"矢本","koaza":"道地浦","lat":38.417954,"lng":141.199939,"zip":"9810503"},{"town":"大曲","koaza":"櫓前","lat":38.419983,"lng":141.235985,"zip":"9810502"},{"town":"小松","koaza":"若葉","lat":38.428505,"lng":141.207979,"zip":"9810504"},{"town":"小松","koaza":"後埣","lat":38.436175,"lng":141.217507,"zip":"9810504"},{"town":"大曲","koaza":"新溜","lat":38.440353,"lng":141.224524,"zip":"9810502"},{"town":"赤井","koaza":"西谷地","lat":38.451364,"lng":141.216145,"zip":"9810501"},{"town":"新田","koaza":"隠沢","lat":38.430991,"lng":141.145782,"zip":"9810307"},{"town":"西福田","koaza":"仮又沢","lat":38.433599,"lng":141.132355,"zip":"9810306"},{"town":"西福田","koaza":"鱗","lat":38.441332,"lng":141.132723,"zip":"9810306"},{"town":"根古","koaza":"佐野下","lat":38.417084,"lng":141.151679,"zip":"9810309"},{"town":"根古","koaza":"今泉","lat":38.418124,"lng":141.15694,"zip":"9810309"},{"town":"根古","koaza":"後田","lat":38.421822,"lng":141.164724,"zip":"9810309"},{"town":"浅井","koaza":"矢上","lat":38.393294,"lng":141.132724,"zip":"9810415"},{"town":"大塩","koaza":"新道","lat":38.446759,"lng":141.197749,"zip":"9810505"},{"town":"西福田","koaza":"流蒲","lat":38.430235,"lng":141.124363,"zip":"9810306"},{"town":"野蒜","koaza":"寺沢","lat":38.381236,"lng":141.150876,"zip":"9810411"},{"town":"野蒜","koaza":"大茂倉","lat":38.380992,"lng":141.144987,"zip":"9810411"},{"town":"大塚","koaza":"三反田","lat":38.381558,"lng":141.141623,"zip":"9810414"},{"town":"小松","koaza":"上塚田","lat":38.438367,"lng":141.199582,"zip":"9810504"}]