[{"town":"青根温泉","koaza":"","lat":38.145949,"lng":140.533676,"zip":"9890908"},{"town":"支倉台一丁目","koaza":"","lat":38.200224,"lng":140.737544,"zip":"9891506"},{"town":"大字小野","koaza":"","lat":38.196027,"lng":140.683619,"zip":"9891500"},{"town":"大字川内","koaza":"","lat":38.210422,"lng":140.638485,"zip":"9891500"},{"town":"大字支倉","koaza":"","lat":38.18337,"lng":140.713769,"zip":"9891500"},{"town":"大字前川","koaza":"","lat":38.155858,"lng":140.573844,"zip":"9891500"},{"town":"大字本砂金","koaza":"","lat":38.240426,"lng":140.573301,"zip":"9891500"},{"town":"大字今宿","koaza":"","lat":38.204194,"lng":140.53572,"zip":"9891500"},{"town":"大字前川","koaza":"沼ノ平山","lat":38.144988,"lng":140.531813,"zip":"9891500"},{"town":"大字前川","koaza":"青根","lat":38.146867,"lng":140.53223,"zip":"9891500"},{"town":"大字前川","koaza":"名号下山","lat":38.149594,"lng":140.536177,"zip":"9891500"},{"town":"大字前川","koaza":"手代塚山","lat":38.153153,"lng":140.541979,"zip":"9891500"},{"town":"大字今宿","koaza":"シシナゴ","lat":38.201623,"lng":140.58738,"zip":"9891500"},{"town":"大字今宿","koaza":"丸丹","lat":38.198795,"lng":140.591272,"zip":"9891500"},{"town":"大字前川","koaza":"浪形","lat":38.169356,"lng":140.606662,"zip":"9891500"},{"town":"大字今宿","koaza":"青根道上","lat":38.183586,"lng":140.595254,"zip":"9891500"},{"town":"大字今宿","koaza":"西林山","lat":38.198016,"lng":140.592395,"zip":"9891500"},{"town":"大字今宿","koaza":"野上町","lat":38.194104,"lng":140.598086,"zip":"9891500"},{"town":"大字今宿","koaza":"下辺","lat":38.196745,"lng":140.598775,"zip":"9891500"},{"town":"大字今宿","koaza":"町尻","lat":38.190839,"lng":140.603029,"zip":"9891500"},{"town":"大字今宿","koaza":"関堀下","lat":38.195315,"lng":140.602268,"zip":"9891500"},{"town":"大字川内","koaza":"西山","lat":38.204101,"lng":140.609763,"zip":"9891500"},{"town":"大字今宿","koaza":"沢田","lat":38.185772,"lng":140.601127,"zip":"9891500"},{"town":"大字今宿","koaza":"清水林山","lat":38.197651,"lng":140.603765,"zip":"9891500"},{"town":"大字今宿","koaza":"清水前畑","lat":38.19478,"lng":140.605556,"zip":"9891500"},{"town":"大字今宿","koaza":"反身","lat":38.190445,"lng":140.605504,"zip":"9891500"},{"town":"大字今宿","koaza":"銀杏木","lat":38.190332,"lng":140.608693,"zip":"9891500"},{"town":"大字今宿","koaza":"ソウゼン畑","lat":38.192103,"lng":140.611202,"zip":"9891500"},{"town":"大字川内","koaza":"腰田","lat":38.208941,"lng":140.632634,"zip":"9891500"},{"town":"大字前川","koaza":"後沢山","lat":38.166593,"lng":140.608155,"zip":"9891500"},{"town":"大字今宿","koaza":"立野北原","lat":38.186213,"lng":140.61433,"zip":"9891500"},{"town":"大字川内","koaza":"四ケ銘山","lat":38.196334,"lng":140.621319,"zip":"9891500"},{"town":"大字今宿","koaza":"立野屋敷","lat":38.183352,"lng":140.613505,"zip":"9891500"},{"town":"大字前川","koaza":"大手原山","lat":38.16627,"lng":140.61359,"zip":"9891500"},{"town":"大字前川","koaza":"大森南山","lat":38.164628,"lng":140.615074,"zip":"9891500"},{"town":"大字今宿","koaza":"西田","lat":38.182924,"lng":140.611872,"zip":"9891500"},{"town":"大字今宿","koaza":"川崎原","lat":38.185773,"lng":140.618236,"zip":"9891500"},{"town":"大字前川","koaza":"羽根坂山","lat":38.168976,"lng":140.616099,"zip":"9891500"},{"town":"大字今宿","koaza":"南立野","lat":38.179434,"lng":140.61642,"zip":"9891500"},{"town":"大字今宿","koaza":"小山岸","lat":38.179113,"lng":140.61434,"zip":"9891500"},{"town":"大字今宿","koaza":"前田","lat":38.176865,"lng":140.616302,"zip":"9891500"},{"town":"大字今宿","koaza":"前畑","lat":38.178049,"lng":140.615747,"zip":"9891500"},{"town":"大字今宿","koaza":"堂抜","lat":38.181318,"lng":140.618818,"zip":"9891500"},{"town":"大字前川","koaza":"大森","lat":38.164833,"lng":140.619318,"zip":"9891500"},{"town":"大字川内","koaza":"内木戸","lat":38.192749,"lng":140.622416,"zip":"9891500"},{"town":"大字今宿","koaza":"浦畑","lat":38.177559,"lng":140.616899,"zip":"9891500"},{"town":"大字今宿","koaza":"立野東原","lat":38.182172,"lng":140.621667,"zip":"9891500"},{"town":"大字前川","koaza":"柏崎","lat":38.166825,"lng":140.619667,"zip":"9891500"},{"town":"大字今宿","koaza":"垣ノ内","lat":38.177712,"lng":140.619533,"zip":"9891500"},{"town":"大字前川","koaza":"中西","lat":38.164096,"lng":140.629965,"zip":"9891500"},{"town":"大字今宿","koaza":"蟹沢","lat":38.192311,"lng":140.614802,"zip":"9891500"},{"town":"大字前川","koaza":"垣ノ内","lat":38.176897,"lng":140.621091,"zip":"9891500"},{"town":"大字今宿","koaza":"沼田","lat":38.179234,"lng":140.622471,"zip":"9891500"},{"town":"大字前川","koaza":"中ノ内","lat":38.177034,"lng":140.622883,"zip":"9891500"},{"town":"大字川内","koaza":"荒羽賀","lat":38.194902,"lng":140.63575,"zip":"9891500"},{"town":"大字前川","koaza":"大向","lat":38.165644,"lng":140.626615,"zip":"9891500"},{"town":"大字前川","koaza":"松下","lat":38.179071,"lng":140.62447,"zip":"9891500"},{"town":"大字前川","koaza":"北原","lat":38.181028,"lng":140.631411,"zip":"9891500"},{"town":"大字川内","koaza":"天神前","lat":38.206221,"lng":140.637962,"zip":"9891500"},{"town":"大字川内","koaza":"荒羽賀山","lat":38.197893,"lng":140.637466,"zip":"9891500"},{"town":"大字前川","koaza":"本城","lat":38.17172,"lng":140.631367,"zip":"9891500"},{"town":"大字川内","koaza":"北川原山","lat":38.186708,"lng":140.634905,"zip":"9891500"},{"town":"大字前川","koaza":"堀切","lat":38.178744,"lng":140.634757,"zip":"9891500"},{"town":"大字前川","koaza":"槻木","lat":38.164893,"lng":140.634887,"zip":"9891500"},{"town":"大字前川","koaza":"下原","lat":38.168733,"lng":140.636213,"zip":"9891500"},{"town":"大字前川","koaza":"本屋敷","lat":38.173181,"lng":140.635802,"zip":"9891500"},{"town":"大字前川","koaza":"中原","lat":38.1763,"lng":140.637369,"zip":"9891500"},{"town":"大字川内","koaza":"天神原山","lat":38.208267,"lng":140.642739,"zip":"9891500"},{"town":"大字前川","koaza":"荒町","lat":38.176425,"lng":140.638731,"zip":"9891500"},{"town":"大字前川","koaza":"下本屋敷","lat":38.172305,"lng":140.637222,"zip":"9891500"},{"town":"大字川内","koaza":"河原前","lat":38.184211,"lng":140.645056,"zip":"9891500"},{"town":"大字前川","koaza":"伊勢原","lat":38.180791,"lng":140.643706,"zip":"9891500"},{"town":"大字前川","koaza":"裏丁","lat":38.177352,"lng":140.644683,"zip":"9891500"},{"town":"大字前川","koaza":"裏尻","lat":38.174299,"lng":140.641745,"zip":"9891500"},{"town":"大字川内","koaza":"小原山","lat":38.201432,"lng":140.63884,"zip":"9891500"},{"town":"大字前川","koaza":"山長","lat":38.170752,"lng":140.643884,"zip":"9891500"},{"town":"大字前川","koaza":"本町","lat":38.176176,"lng":140.641975,"zip":"9891500"},{"town":"大字川内","koaza":"中沢","lat":38.200329,"lng":140.656328,"zip":"9891500"},{"town":"大字川内","koaza":"七曲山","lat":38.187836,"lng":140.649982,"zip":"9891500"},{"town":"大字川内","koaza":"大原前","lat":38.193406,"lng":140.654896,"zip":"9891500"},{"town":"大字前川","koaza":"荒田","lat":38.166919,"lng":140.642703,"zip":"9891500"},{"town":"大字川内","koaza":"糀谷山","lat":38.194622,"lng":140.644448,"zip":"9891500"},{"town":"大字川内","koaza":"溜水","lat":38.200671,"lng":140.648594,"zip":"9891500"},{"town":"大字前川","koaza":"中町","lat":38.175098,"lng":140.645784,"zip":"9891500"},{"town":"大字前川","koaza":"舘山西","lat":38.179273,"lng":140.646705,"zip":"9891500"},{"town":"大字川内","koaza":"丸森","lat":38.198992,"lng":140.647875,"zip":"9891500"},{"town":"大字前川","koaza":"新町","lat":38.17355,"lng":140.646946,"zip":"9891500"},{"town":"大字前川","koaza":"舘山","lat":38.179365,"lng":140.650222,"zip":"9891500"},{"town":"大字前川","koaza":"町尻","lat":38.174505,"lng":140.64824,"zip":"9891500"},{"town":"大字前川","koaza":"中道北","lat":38.17873,"lng":140.649551,"zip":"9891500"},{"town":"大字川内","koaza":"向原","lat":38.199162,"lng":140.661535,"zip":"9891500"},{"town":"大字川内","koaza":"佐山","lat":38.197879,"lng":140.653647,"zip":"9891500"},{"town":"大字川内","koaza":"上石丸","lat":38.210033,"lng":140.658987,"zip":"9891500"},{"town":"大字小野","koaza":"赤萩屋敷","lat":38.181777,"lng":140.655457,"zip":"9891500"},{"town":"大字前川","koaza":"龍雲寺","lat":38.174432,"lng":140.655471,"zip":"9891500"},{"town":"大字支倉","koaza":"上針","lat":38.171591,"lng":140.665436,"zip":"9891500"},{"town":"大字小野","koaza":"赤萩山","lat":38.182319,"lng":140.661252,"zip":"9891500"},{"town":"大字小野","koaza":"大久保","lat":38.183745,"lng":140.660759,"zip":"9891500"},{"town":"大字川内","koaza":"東原","lat":38.20618,"lng":140.662731,"zip":"9891500"},{"town":"大字小野","koaza":"二本松","lat":38.17929,"lng":140.665154,"zip":"9891500"},{"town":"大字小野","koaza":"弁天","lat":38.185062,"lng":140.666331,"zip":"9891500"},{"town":"大字支倉","koaza":"鳥屋沢山","lat":38.169054,"lng":140.66734,"zip":"9891500"},{"town":"大字小野","koaza":"茂領","lat":38.180426,"lng":140.665426,"zip":"9891500"},{"town":"大字小野","koaza":"町","lat":38.186144,"lng":140.667679,"zip":"9891500"},{"town":"大字小野","koaza":"上宿","lat":38.184717,"lng":140.666716,"zip":"9891500"},{"town":"大字支倉","koaza":"西原","lat":38.17308,"lng":140.668122,"zip":"9891500"},{"town":"大字小野","koaza":"町裏","lat":38.185776,"lng":140.668636,"zip":"9891500"},{"town":"大字支倉","koaza":"大針","lat":38.176268,"lng":140.673152,"zip":"9891500"},{"town":"大字川内","koaza":"大鳥谷山","lat":38.205839,"lng":140.674571,"zip":"9891500"},{"town":"大字小野","koaza":"湯田","lat":38.18676,"lng":140.670698,"zip":"9891500"},{"town":"大字支倉","koaza":"下音無","lat":38.168008,"lng":140.682783,"zip":"9891500"},{"town":"大字小野","koaza":"根岸","lat":38.187879,"lng":140.674104,"zip":"9891500"},{"town":"大字支倉","koaza":"五石造","lat":38.17924,"lng":140.677104,"zip":"9891500"},{"town":"大字支倉","koaza":"中峯山","lat":38.172702,"lng":140.684263,"zip":"9891500"},{"town":"大字小野","koaza":"西田","lat":38.204197,"lng":140.694165,"zip":"9891500"},{"town":"大字支倉","koaza":"金田","lat":38.159802,"lng":140.697853,"zip":"9891500"},{"town":"大字小野","koaza":"大平山","lat":38.204281,"lng":140.703557,"zip":"9891500"},{"town":"大字支倉","koaza":"滝ノ原","lat":38.202933,"lng":140.704181,"zip":"9891500"},{"town":"大字支倉","koaza":"山口","lat":38.171319,"lng":140.704964,"zip":"9891500"},{"town":"大字支倉","koaza":"宿","lat":38.169628,"lng":140.71428,"zip":"9891500"},{"town":"大字支倉","koaza":"堀ノ内","lat":38.199106,"lng":140.719244,"zip":"9891500"},{"town":"大字支倉","koaza":"川向","lat":38.199321,"lng":140.72355,"zip":"9891500"},{"town":"大字支倉","koaza":"薄木","lat":38.200481,"lng":140.714397,"zip":"9891500"},{"town":"大字支倉","koaza":"塩沢","lat":38.177476,"lng":140.719239,"zip":"9891500"},{"town":"大字支倉","koaza":"宮脇上","lat":38.182057,"lng":140.718492,"zip":"9891500"},{"town":"大字支倉","koaza":"碁石","lat":38.197387,"lng":140.720855,"zip":"9891500"},{"town":"大字支倉","koaza":"和合","lat":38.194034,"lng":140.725069,"zip":"9891500"},{"town":"大字支倉","koaza":"落田郷山","lat":38.189372,"lng":140.726051,"zip":"9891500"},{"town":"大字支倉","koaza":"川窪前","lat":38.199015,"lng":140.730486,"zip":"9891500"},{"town":"大字支倉","koaza":"中原裏山","lat":38.203751,"lng":140.733879,"zip":"9891500"},{"town":"大字支倉","koaza":"東湯沢山","lat":38.177997,"lng":140.745432,"zip":"9891500"},{"town":"大字小野","koaza":"龍雲寺前","lat":38.176879,"lng":140.655559,"zip":"9891500"},{"town":"大字今宿","koaza":"下原","lat":38.197658,"lng":140.599175,"zip":"9891500"},{"town":"大字小野","koaza":"金山","lat":38.2124,"lng":140.686475,"zip":"9891500"},{"town":"大字小野","koaza":"笹平山","lat":38.188163,"lng":140.665245,"zip":"9891500"},{"town":"大字今宿","koaza":"黒岩山","lat":38.19869,"lng":140.605625,"zip":"9891500"}]