[{"town":"字関ノ内","koaza":"","lat":38.06153,"lng":140.724664,"zip":"9891200"},{"town":"字嶋脇","koaza":"","lat":38.063271,"lng":140.736254,"zip":"9891200"},{"town":"字南関ノ内","koaza":"","lat":38.058947,"lng":140.717713,"zip":"9891200"},{"town":"字町西","koaza":"","lat":38.055904,"lng":140.737085,"zip":"9891200"},{"town":"字北嶋脇","koaza":"","lat":38.067378,"lng":140.738806,"zip":"9891200"},{"town":"字東青川","koaza":"","lat":38.061515,"lng":140.738687,"zip":"9891200"},{"town":"字荒町","koaza":"","lat":38.045195,"lng":140.728854,"zip":"9891200"},{"town":"字大竜","koaza":"","lat":38.034487,"lng":140.734503,"zip":"9891200"},{"town":"字八乙女","koaza":"","lat":38.062779,"lng":140.724232,"zip":"9891200"},{"town":"字土手崎","koaza":"","lat":38.062531,"lng":140.741424,"zip":"9891200"},{"town":"字川瀬町","koaza":"","lat":38.039333,"lng":140.734087,"zip":"9891200"},{"town":"字旭町","koaza":"","lat":38.050063,"lng":140.743652,"zip":"9891200"},{"town":"字大谷地","koaza":"","lat":38.066218,"lng":140.739614,"zip":"9891200"},{"town":"字大巻","koaza":"","lat":38.064675,"lng":140.740997,"zip":"9891200"},{"town":"字大芝","koaza":"","lat":38.031076,"lng":140.729785,"zip":"9891200"},{"town":"字上の倉","koaza":"","lat":38.036985,"lng":140.731042,"zip":"9891200"},{"town":"字南海道下","koaza":"","lat":38.046141,"lng":140.730746,"zip":"9891200"},{"town":"字西町","koaza":"","lat":38.052442,"lng":140.734968,"zip":"9891200"},{"town":"字海道東","koaza":"","lat":38.055782,"lng":140.739655,"zip":"9891200"},{"town":"字西浦","koaza":"","lat":38.04792,"lng":140.732835,"zip":"9891200"},{"town":"字海道西","koaza":"","lat":38.061615,"lng":140.744552,"zip":"9891200"},{"town":"字千塚前","koaza":"","lat":38.066322,"lng":140.734683,"zip":"9891200"},{"town":"字下川原","koaza":"","lat":38.042034,"lng":140.72935,"zip":"9891200"},{"town":"字甲子町","koaza":"","lat":38.044701,"lng":140.736883,"zip":"9891200"},{"town":"字上川原","koaza":"","lat":38.045069,"lng":140.730662,"zip":"9891200"},{"town":"字新上谷前","koaza":"","lat":38.034698,"lng":140.730106,"zip":"9891200"},{"town":"字沼","koaza":"","lat":38.063848,"lng":140.721366,"zip":"9891200"},{"town":"字袖谷地","koaza":"","lat":38.061891,"lng":140.7224,"zip":"9891200"},{"town":"字沖端","koaza":"","lat":38.037045,"lng":140.711815,"zip":"9891200"},{"town":"字新青川","koaza":"","lat":38.062394,"lng":140.738769,"zip":"9891200"},{"town":"字広瀬町","koaza":"","lat":38.0447,"lng":140.74634,"zip":"9891200"},{"town":"字中ノ水門","koaza":"","lat":38.064935,"lng":140.734419,"zip":"9891200"},{"town":"字南","koaza":"","lat":38.049629,"lng":140.732482,"zip":"9891200"},{"town":"字中島町","koaza":"","lat":38.045133,"lng":140.740301,"zip":"9891200"},{"town":"字火崎","koaza":"","lat":38.063635,"lng":140.730111,"zip":"9891200"},{"town":"字新桜町","koaza":"","lat":38.060529,"lng":140.739776,"zip":"9891200"},{"town":"字住吉町","koaza":"","lat":38.043161,"lng":140.739746,"zip":"9891200"},{"town":"字南原町","koaza":"","lat":38.04407,"lng":140.724247,"zip":"9891200"},{"town":"字山崎町","koaza":"","lat":38.041214,"lng":140.74177,"zip":"9891200"},{"town":"字東原町","koaza":"","lat":38.044531,"lng":140.727145,"zip":"9891200"},{"town":"字錦町","koaza":"","lat":38.046211,"lng":140.74472,"zip":"9891200"},{"town":"字幸町","koaza":"","lat":38.047371,"lng":140.742132,"zip":"9891200"},{"town":"字南桜町","koaza":"","lat":38.05806,"lng":140.74354,"zip":"9891200"},{"town":"字東","koaza":"","lat":38.059513,"lng":140.733241,"zip":"9891200"},{"town":"字上舘前","koaza":"","lat":38.033055,"lng":140.711229,"zip":"9891200"},{"town":"字高砂町","koaza":"","lat":38.052931,"lng":140.750161,"zip":"9891200"},{"town":"字中川原","koaza":"","lat":38.043748,"lng":140.732249,"zip":"9891200"},{"town":"字緑町","koaza":"","lat":38.043688,"lng":140.720308,"zip":"9891200"},{"town":"字南平","koaza":"","lat":38.041407,"lng":140.719785,"zip":"9891200"},{"town":"字新古川","koaza":"","lat":38.041335,"lng":140.725992,"zip":"9891200"},{"town":"字西桜町","koaza":"","lat":38.058877,"lng":140.741133,"zip":"9891200"},{"town":"字橋本","koaza":"","lat":38.06394,"lng":140.726003,"zip":"9891200"},{"town":"字新川前","koaza":"","lat":38.037891,"lng":140.720029,"zip":"9891200"},{"town":"字小島","koaza":"","lat":38.066266,"lng":140.737743,"zip":"9891200"},{"town":"字東桜町","koaza":"","lat":38.058837,"lng":140.748895,"zip":"9891200"},{"town":"字中の倉","koaza":"","lat":38.039581,"lng":140.730318,"zip":"9891200"},{"town":"字町","koaza":"","lat":38.05103,"lng":140.736536,"zip":"9891200"},{"town":"字新東","koaza":"","lat":38.058404,"lng":140.735474,"zip":"9891200"},{"town":"字西","koaza":"","lat":38.059543,"lng":140.725278,"zip":"9891200"},{"town":"福田","koaza":"","lat":38.070135,"lng":140.716303,"zip":"9891259"},{"town":"新寺","koaza":"","lat":38.065286,"lng":140.699604,"zip":"9891257"},{"town":"小山田","koaza":"","lat":38.067018,"lng":140.709927,"zip":"9891258"},{"town":"堤","koaza":"","lat":38.059384,"lng":140.688554,"zip":"9891256"},{"town":"大谷","koaza":"","lat":38.037645,"lng":140.733782,"zip":"9891201"},{"town":"字新南","koaza":"","lat":38.050429,"lng":140.729163,"zip":"9891200"},{"town":"字東新町","koaza":"","lat":38.043745,"lng":140.715645,"zip":"9891200"},{"town":"金ケ瀬","koaza":"","lat":38.048912,"lng":140.70903,"zip":"9891224"},{"town":"字広表","koaza":"","lat":38.046449,"lng":140.716068,"zip":"9891200"},{"town":"堤","koaza":"角","lat":38.054917,"lng":140.685439,"zip":"9891256"},{"town":"堤","koaza":"南","lat":38.058048,"lng":140.684965,"zip":"9891256"},{"town":"堤","koaza":"南角","lat":38.053936,"lng":140.6885,"zip":"9891256"},{"town":"堤","koaza":"北石","lat":38.050063,"lng":140.687538,"zip":"9891256"},{"town":"堤","koaza":"南石","lat":38.047721,"lng":140.689149,"zip":"9891256"},{"town":"新寺","koaza":"洞秀山","lat":38.069915,"lng":140.693239,"zip":"9891257"},{"town":"堤","koaza":"中","lat":38.057889,"lng":140.68986,"zip":"9891256"},{"town":"堤","koaza":"南岸","lat":38.053259,"lng":140.693472,"zip":"9891256"},{"town":"堤","koaza":"島","lat":38.048069,"lng":140.694002,"zip":"9891256"},{"town":"堤","koaza":"上","lat":38.057125,"lng":140.689775,"zip":"9891256"},{"town":"堤","koaza":"耳取","lat":38.054922,"lng":140.691585,"zip":"9891256"},{"town":"堤","koaza":"北岸","lat":38.056218,"lng":140.698049,"zip":"9891256"},{"town":"堤","koaza":"大井戸","lat":38.061026,"lng":140.692219,"zip":"9891256"},{"town":"金ケ瀬","koaza":"神山","lat":38.039763,"lng":140.699156,"zip":"9891224"},{"town":"新寺","koaza":"新屋敷","lat":38.062913,"lng":140.699068,"zip":"9891257"},{"town":"堤","koaza":"ドブ","lat":38.049948,"lng":140.695357,"zip":"9891256"},{"town":"金ケ瀬","koaza":"台部","lat":38.040812,"lng":140.699945,"zip":"9891224"},{"town":"金ケ瀬","koaza":"上川原","lat":38.038652,"lng":140.701404,"zip":"9891224"},{"town":"堤","koaza":"芝前","lat":38.050093,"lng":140.697075,"zip":"9891256"},{"town":"小山田","koaza":"上山","lat":38.07482,"lng":140.698867,"zip":"9891258"},{"town":"堤","koaza":"五瀬","lat":38.055887,"lng":140.701739,"zip":"9891256"},{"town":"金ケ瀬","koaza":"湯尻前","lat":38.047986,"lng":140.699957,"zip":"9891224"},{"town":"金ケ瀬","koaza":"湯尻","lat":38.046848,"lng":140.701215,"zip":"9891224"},{"town":"小山田","koaza":"五輪","lat":38.069305,"lng":140.703474,"zip":"9891258"},{"town":"金ケ瀬","koaza":"青木","lat":38.051631,"lng":140.703019,"zip":"9891224"},{"town":"金ケ瀬","koaza":"町","lat":38.042308,"lng":140.70591,"zip":"9891224"},{"town":"金ケ瀬","koaza":"白坂畑","lat":38.045174,"lng":140.702266,"zip":"9891224"},{"town":"新寺","koaza":"北","lat":38.058811,"lng":140.703716,"zip":"9891257"},{"town":"新寺","koaza":"本屋敷","lat":38.063868,"lng":140.703633,"zip":"9891257"},{"town":"金ケ瀬","koaza":"新居掛","lat":38.043741,"lng":140.704686,"zip":"9891224"},{"town":"大谷","koaza":"後田","lat":38.036307,"lng":140.710154,"zip":"9891201"},{"town":"金ケ瀬","koaza":"白坂","lat":38.045056,"lng":140.702909,"zip":"9891224"},{"town":"小山田","koaza":"中宿","lat":38.067247,"lng":140.705445,"zip":"9891258"},{"town":"金ケ瀬","koaza":"居掛","lat":38.043034,"lng":140.704942,"zip":"9891224"},{"town":"小山田","koaza":"鴻ノ巣","lat":38.071849,"lng":140.703736,"zip":"9891258"},{"town":"新寺","koaza":"薬師","lat":38.062212,"lng":140.705617,"zip":"9891257"},{"town":"金ケ瀬","koaza":"中川原","lat":38.040678,"lng":140.707485,"zip":"9891224"},{"town":"小山田","koaza":"宮下","lat":38.065521,"lng":140.706,"zip":"9891258"},{"town":"大谷","koaza":"迫入","lat":38.030356,"lng":140.706912,"zip":"9891201"},{"town":"金ケ瀬","koaza":"新開","lat":38.055081,"lng":140.707073,"zip":"9891224"},{"town":"金ケ瀬","koaza":"小沼","lat":38.052813,"lng":140.705939,"zip":"9891224"},{"town":"金ケ瀬","koaza":"沼西","lat":38.052974,"lng":140.705122,"zip":"9891224"},{"town":"小山田","koaza":"日向","lat":38.070447,"lng":140.706651,"zip":"9891258"},{"town":"金ケ瀬","koaza":"原","lat":38.04695,"lng":140.705368,"zip":"9891224"},{"town":"小山田","koaza":"清水","lat":38.064604,"lng":140.707209,"zip":"9891258"},{"town":"金ケ瀬","koaza":"土手下","lat":38.042057,"lng":140.70791,"zip":"9891224"},{"town":"小山田","koaza":"中居山","lat":38.068987,"lng":140.705876,"zip":"9891258"},{"town":"小山田","koaza":"橋本","lat":38.063773,"lng":140.707912,"zip":"9891258"},{"town":"小山田","koaza":"矢作","lat":38.069624,"lng":140.707894,"zip":"9891258"},{"town":"金ケ瀬","koaza":"新町裏","lat":38.044968,"lng":140.708815,"zip":"9891224"},{"town":"小山田","koaza":"竹ノ内","lat":38.066434,"lng":140.707576,"zip":"9891258"},{"town":"金ケ瀬","koaza":"川根","lat":38.041094,"lng":140.709222,"zip":"9891224"},{"town":"金ケ瀬","koaza":"町裏","lat":38.045702,"lng":140.710682,"zip":"9891224"},{"town":"新寺","koaza":"和久","lat":38.05896,"lng":140.709415,"zip":"9891257"},{"town":"小山田","koaza":"二ツ堂","lat":38.067418,"lng":140.709415,"zip":"9891258"},{"town":"小山田","koaza":"姥窪","lat":38.061987,"lng":140.709806,"zip":"9891258"},{"town":"小山田","koaza":"新竹ノ内","lat":38.066031,"lng":140.708795,"zip":"9891258"},{"town":"金ケ瀬","koaza":"新開東","lat":38.055523,"lng":140.710161,"zip":"9891224"},{"town":"福田","koaza":"松山","lat":38.070971,"lng":140.713737,"zip":"9891259"},{"town":"小山田","koaza":"木戸","lat":38.060595,"lng":140.710863,"zip":"9891258"},{"town":"新寺","koaza":"東","lat":38.057514,"lng":140.71075,"zip":"9891257"},{"town":"小山田","koaza":"新舘前","lat":38.065286,"lng":140.711793,"zip":"9891258"},{"town":"小山田","koaza":"二ツ山","lat":38.066792,"lng":140.710543,"zip":"9891258"},{"town":"小山田","koaza":"大森","lat":38.068368,"lng":140.710979,"zip":"9891258"},{"town":"小山田","koaza":"南","lat":38.06298,"lng":140.711427,"zip":"9891258"},{"town":"小山田","koaza":"大内道上","lat":38.066719,"lng":140.712425,"zip":"9891258"},{"town":"金ケ瀬","koaza":"和久","lat":38.057216,"lng":140.712836,"zip":"9891224"},{"town":"小山田","koaza":"馬取","lat":38.059848,"lng":140.71532,"zip":"9891258"},{"town":"大谷","koaza":"舘前","lat":38.034687,"lng":140.714879,"zip":"9891201"},{"town":"大谷","koaza":"上原","lat":38.035798,"lng":140.715221,"zip":"9891201"},{"town":"福田","koaza":"米蔵","lat":38.072944,"lng":140.714507,"zip":"9891259"},{"town":"小山田","koaza":"舘前","lat":38.062198,"lng":140.714116,"zip":"9891258"},{"town":"福田","koaza":"中添","lat":38.064787,"lng":140.720069,"zip":"9891259"},{"town":"福田","koaza":"荒屋敷","lat":38.068469,"lng":140.716015,"zip":"9891259"},{"town":"小山田","koaza":"中山","lat":38.062923,"lng":140.715176,"zip":"9891258"},{"town":"福田","koaza":"山崎","lat":38.069638,"lng":140.716601,"zip":"9891259"},{"town":"小山田","koaza":"馬取山","lat":38.058182,"lng":140.715513,"zip":"9891258"},{"town":"福田","koaza":"福田上","lat":38.071199,"lng":140.716041,"zip":"9891259"},{"town":"小山田","koaza":"天神堂","lat":38.059801,"lng":140.716974,"zip":"9891258"},{"town":"小山田","koaza":"寿崎","lat":38.061911,"lng":140.716385,"zip":"9891258"},{"town":"大谷","koaza":"下欠","lat":38.035758,"lng":140.718437,"zip":"9891201"},{"town":"福田","koaza":"宮下","lat":38.071947,"lng":140.719371,"zip":"9891259"},{"town":"小山田","koaza":"丑墓","lat":38.063027,"lng":140.719138,"zip":"9891258"},{"town":"大谷","koaza":"後戸場","lat":38.032652,"lng":140.723563,"zip":"9891201"},{"town":"福田","koaza":"大在家","lat":38.068268,"lng":140.726511,"zip":"9891259"},{"town":"福田","koaza":"愛宕沢","lat":38.073707,"lng":140.716577,"zip":"9891259"},{"town":"金ケ瀬","koaza":"富田","lat":38.044646,"lng":140.720249,"zip":"9891224"},{"town":"金ケ瀬","koaza":"丑越","lat":38.045196,"lng":140.721439,"zip":"9891224"},{"town":"福田","koaza":"堀内","lat":38.069511,"lng":140.721794,"zip":"9891259"},{"town":"大谷","koaza":"上谷前","lat":38.033898,"lng":140.729366,"zip":"9891201"},{"town":"金ケ瀬","koaza":"大橋","lat":38.058702,"lng":140.722484,"zip":"9891224"},{"town":"福田","koaza":"打越","lat":38.066771,"lng":140.726224,"zip":"9891259"},{"town":"大谷","koaza":"一軒地","lat":38.04006,"lng":140.735601,"zip":"9891201"},{"town":"大谷","koaza":"見城前","lat":38.035109,"lng":140.735354,"zip":"9891201"},{"town":"大谷","koaza":"中下川原","lat":38.041804,"lng":140.734356,"zip":"9891201"},{"town":"大谷","koaza":"荒屋敷後","lat":38.04292,"lng":140.735719,"zip":"9891201"},{"town":"大谷","koaza":"原前","lat":38.039091,"lng":140.738106,"zip":"9891201"},{"town":"大谷","koaza":"盛","lat":38.04617,"lng":140.737215,"zip":"9891201"},{"town":"大谷","koaza":"町向","lat":38.047991,"lng":140.740303,"zip":"9891201"},{"town":"大谷","koaza":"末広","lat":38.051765,"lng":140.741321,"zip":"9891201"},{"town":"大谷","koaza":"鷺沼入","lat":38.037775,"lng":140.741409,"zip":"9891201"},{"town":"大谷","koaza":"荒屋敷前","lat":38.041527,"lng":140.739824,"zip":"9891201"},{"town":"大谷","koaza":"下川原","lat":38.054575,"lng":140.742609,"zip":"9891201"},{"town":"大谷","koaza":"五百地丁","lat":38.050281,"lng":140.743036,"zip":"9891201"},{"town":"大谷","koaza":"保料前","lat":38.053502,"lng":140.74458,"zip":"9891201"},{"town":"大谷","koaza":"山崎","lat":38.041285,"lng":140.743671,"zip":"9891201"},{"town":"大谷","koaza":"戸ノ内前","lat":38.051511,"lng":140.745554,"zip":"9891201"},{"town":"大谷","koaza":"稗田前","lat":38.040796,"lng":140.745629,"zip":"9891201"},{"town":"大谷","koaza":"中屋敷前","lat":38.043575,"lng":140.74417,"zip":"9891201"},{"town":"大谷","koaza":"西原前","lat":38.052845,"lng":140.747265,"zip":"9891201"},{"town":"大谷","koaza":"山下","lat":38.042067,"lng":140.749324,"zip":"9891201"},{"town":"福田","koaza":"九蔵","lat":38.071634,"lng":140.717523,"zip":"9891259"},{"town":"小山田","koaza":"小林","lat":38.073508,"lng":140.695205,"zip":"9891258"},{"town":"小山田","koaza":"大志田","lat":38.074126,"lng":140.702893,"zip":"9891258"},{"town":"金ケ瀬","koaza":"新開前","lat":38.05625,"lng":140.706713,"zip":"9891224"},{"town":"新寺","koaza":"山鳥","lat":38.056613,"lng":140.706324,"zip":"9891257"},{"town":"堤","koaza":"小不沢","lat":38.068384,"lng":140.68529,"zip":"9891256"},{"town":"堤","koaza":"入","lat":38.067809,"lng":140.691076,"zip":"9891256"},{"town":"堤","koaza":"北","lat":38.0611,"lng":140.687161,"zip":"9891256"},{"town":"小山田","koaza":"六角","lat":38.064069,"lng":140.713309,"zip":"9891258"}]