[{"town":"金成四ツ屋敷","koaza":"","lat":38.806727,"lng":141.072858,"zip":"9895152"},{"town":"築館字新田東","koaza":"","lat":38.730978,"lng":141.009542,"zip":"9872200"},{"town":"金成入生田","koaza":"","lat":38.810225,"lng":141.078216,"zip":"9895142"},{"town":"志波姫下里","koaza":"","lat":38.759619,"lng":141.040969,"zip":"9895621"},{"town":"金成奉公田","koaza":"","lat":38.809639,"lng":141.077244,"zip":"9895143"},{"town":"金成上町東裏","koaza":"","lat":38.807793,"lng":141.074818,"zip":"9895153"},{"town":"築館字館下","koaza":"","lat":38.727491,"lng":141.011445,"zip":"9872200"},{"town":"築館字境田","koaza":"","lat":38.735667,"lng":141.000251,"zip":"9872200"},{"town":"築館字左野原","koaza":"","lat":38.732374,"lng":140.99676,"zip":"9872200"},{"town":"金成桜町","koaza":"","lat":38.807146,"lng":141.07516,"zip":"9895151"},{"town":"金成新町裏","koaza":"","lat":38.81502,"lng":141.074902,"zip":"9895134"},{"town":"金成翁留","koaza":"","lat":38.811614,"lng":141.077792,"zip":"9895141"},{"town":"金成上町","koaza":"","lat":38.808274,"lng":141.073573,"zip":"9895154"},{"town":"金成新町","koaza":"","lat":38.814279,"lng":141.075898,"zip":"9895133"},{"town":"志波姫新日向","koaza":"","lat":38.751424,"lng":141.095942,"zip":"9872200"},{"town":"築館字内南沢","koaza":"","lat":38.724287,"lng":141.027116,"zip":"9872200"},{"town":"築館字堰下","koaza":"","lat":38.739138,"lng":141.018474,"zip":"9872200"},{"town":"金成中町西裏","koaza":"","lat":38.81229,"lng":141.072626,"zip":"9895145"},{"town":"金成上町西裏","koaza":"","lat":38.809093,"lng":141.072127,"zip":"9895155"},{"town":"築館宮野中央三丁目","koaza":"","lat":38.747419,"lng":141.020056,"zip":"9872205"},{"town":"金成金生","koaza":"","lat":38.797422,"lng":141.088499,"zip":"9895164"},{"town":"築館字外南沢","koaza":"","lat":38.724539,"lng":141.029809,"zip":"9872200"},{"town":"築館伊豆三丁目","koaza":"","lat":38.729975,"lng":141.028569,"zip":"9872216"},{"town":"金成台畑","koaza":"","lat":38.814539,"lng":141.072377,"zip":"9895135"},{"town":"金成中町","koaza":"","lat":38.811211,"lng":141.075483,"zip":"9895144"},{"town":"築館高田三丁目","koaza":"","lat":38.726942,"lng":141.028416,"zip":"9872215"},{"town":"築館薬師三丁目","koaza":"","lat":38.73475,"lng":141.017766,"zip":"9872252"},{"town":"築館藤木","koaza":"","lat":38.737266,"lng":141.017728,"zip":"9872251"},{"town":"築館伊豆四丁目","koaza":"","lat":38.730399,"lng":141.024334,"zip":"9872216"},{"town":"築館字唐竹林","koaza":"","lat":38.732797,"lng":141.00211,"zip":"9872200"},{"town":"築館字西小山","koaza":"","lat":38.727692,"lng":141.016407,"zip":"9872200"},{"town":"築館宮野中央二丁目","koaza":"","lat":38.748426,"lng":141.017625,"zip":"9872205"},{"town":"築館薬師一丁目","koaza":"","lat":38.730558,"lng":141.020711,"zip":"9872252"},{"town":"志波姫新糠塚","koaza":"","lat":38.772496,"lng":141.094472,"zip":"9872200"},{"town":"築館宮野中央一丁目","koaza":"","lat":38.747537,"lng":141.015608,"zip":"9872205"},{"town":"築館字館沢","koaza":"","lat":38.725068,"lng":141.017747,"zip":"9872200"},{"town":"築館伊豆二丁目","koaza":"","lat":38.733419,"lng":141.02757,"zip":"9872216"},{"town":"築館薬師台","koaza":"","lat":38.729614,"lng":141.016364,"zip":"9872264"},{"town":"築館薬師四丁目","koaza":"","lat":38.734189,"lng":141.020767,"zip":"9872252"},{"town":"築館薬師二丁目","koaza":"","lat":38.731822,"lng":141.015639,"zip":"9872252"},{"town":"築館高田一丁目","koaza":"","lat":38.724845,"lng":141.020308,"zip":"9872215"},{"town":"志波姫新八樟","koaza":"","lat":38.752697,"lng":141.055904,"zip":"9895618"},{"town":"築館伊豆一丁目","koaza":"","lat":38.733934,"lng":141.024309,"zip":"9872216"},{"town":"志波姫間内東","koaza":"","lat":38.749439,"lng":141.085564,"zip":"9872200"},{"town":"志波姫芝の脇南","koaza":"","lat":38.770127,"lng":141.111349,"zip":"9872200"},{"town":"築館字小淵西","koaza":"","lat":38.733467,"lng":140.999455,"zip":"9872200"},{"town":"築館青野","koaza":"","lat":38.735753,"lng":141.01408,"zip":"9872253"},{"town":"築館新田","koaza":"","lat":38.731929,"lng":141.009604,"zip":"9872263"},{"town":"金成沢辺町","koaza":"","lat":38.79824,"lng":141.06003,"zip":"9872200"},{"town":"志波姫中沖","koaza":"","lat":38.759402,"lng":141.044382,"zip":"9895626"},{"town":"志波姫下沖","koaza":"","lat":38.760456,"lng":141.049165,"zip":"9872200"},{"town":"志波姫台東","koaza":"","lat":38.740122,"lng":141.06903,"zip":"9872200"},{"town":"築館字久伝","koaza":"","lat":38.73764,"lng":141.010773,"zip":"9872200"},{"town":"志波姫城内南","koaza":"","lat":38.775413,"lng":141.097327,"zip":"9895602"},{"town":"築館字薬師ヶ丘","koaza":"","lat":38.729151,"lng":141.007907,"zip":"9872200"},{"town":"志波姫南堀口","koaza":"","lat":38.74103,"lng":141.042784,"zip":"9895624"},{"town":"志波姫新上戸","koaza":"","lat":38.744562,"lng":141.075964,"zip":"9895616"},{"town":"志波姫上戸南","koaza":"","lat":38.740127,"lng":141.075383,"zip":"9872200"},{"town":"志波姫高畑浦","koaza":"","lat":38.765557,"lng":141.064273,"zip":"9872200"},{"town":"築館木戸","koaza":"","lat":38.732693,"lng":141.03872,"zip":"9872212"},{"town":"築館高田二丁目","koaza":"","lat":38.726214,"lng":141.023868,"zip":"9872215"},{"town":"志波姫花崎東","koaza":"","lat":38.770241,"lng":141.080985,"zip":"9872200"},{"town":"築館字沢入","koaza":"","lat":38.717623,"lng":141.020529,"zip":"9872200"},{"town":"志波姫戸崎北","koaza":"","lat":38.764152,"lng":141.099799,"zip":"9872200"},{"town":"志波姫北伊豆野","koaza":"","lat":38.773008,"lng":141.103879,"zip":"9872200"},{"town":"築館字蟹沢","koaza":"","lat":38.697927,"lng":140.997251,"zip":"9872200"},{"town":"志波姫城内北","koaza":"","lat":38.778472,"lng":141.106689,"zip":"9872200"},{"town":"志波姫新原","koaza":"","lat":38.752698,"lng":141.071008,"zip":"9895614"},{"town":"志波姫南伊豆野","koaza":"","lat":38.768545,"lng":141.102652,"zip":"9872200"},{"town":"志波姫新刈敷","koaza":"","lat":38.768437,"lng":141.053664,"zip":"9872200"},{"town":"志波姫要害東","koaza":"","lat":38.771987,"lng":141.072726,"zip":"9895610"},{"town":"築館源光","koaza":"","lat":38.734151,"lng":141.031399,"zip":"9872211"},{"town":"志波姫大門南","koaza":"","lat":38.757852,"lng":141.077527,"zip":"9895604"},{"town":"志波姫館浦","koaza":"","lat":38.763091,"lng":141.056287,"zip":"9872200"},{"town":"築館字下待井","koaza":"","lat":38.719909,"lng":141.027116,"zip":"9872200"},{"town":"志波姫新間海","koaza":"","lat":38.762581,"lng":141.106455,"zip":"9872200"},{"town":"志波姫横峰浦","koaza":"","lat":38.739183,"lng":141.062396,"zip":"9895619"},{"town":"築館字新田","koaza":"","lat":38.730376,"lng":141.001556,"zip":"9872200"},{"town":"志波姫蔵場南","koaza":"","lat":38.769363,"lng":141.064553,"zip":"9895607"},{"town":"志波姫新沼崎","koaza":"","lat":38.750928,"lng":141.061441,"zip":"9895613"},{"town":"栗駒嶺崎","koaza":"","lat":38.77452,"lng":140.993684,"zip":"9895334"},{"town":"志波姫戸崎南","koaza":"","lat":38.757209,"lng":141.093685,"zip":"9872200"},{"town":"志波姫荒町南","koaza":"","lat":38.764568,"lng":141.091739,"zip":"9895606"},{"town":"築館字留場","koaza":"","lat":38.743026,"lng":141.019049,"zip":"9872200"},{"town":"築館字赤坂","koaza":"","lat":38.721108,"lng":141.016216,"zip":"9872200"},{"town":"志波姫新橋本","koaza":"","lat":38.755974,"lng":141.083188,"zip":"9895617"},{"town":"志波姫花崎西","koaza":"","lat":38.765828,"lng":141.073573,"zip":"9895609"},{"town":"志波姫新大谷地","koaza":"","lat":38.744531,"lng":141.060966,"zip":"9872200"},{"town":"志波姫新熊谷","koaza":"","lat":38.746513,"lng":141.069835,"zip":"9895612"},{"town":"志波姫荒町北","koaza":"","lat":38.771086,"lng":141.089618,"zip":"9895608"},{"town":"金成新桜町","koaza":"","lat":38.801802,"lng":141.076598,"zip":"9872200"},{"town":"金成梨崎","koaza":"","lat":38.789743,"lng":141.068452,"zip":"9895173"},{"town":"志波姫北郷","koaza":"","lat":38.766603,"lng":141.088801,"zip":"9895605"},{"town":"志波姫南八樟","koaza":"","lat":38.744418,"lng":141.048482,"zip":"9895623"},{"town":"栗駒渡丸","koaza":"","lat":38.774627,"lng":141.007167,"zip":"9895335"},{"town":"栗駒泉沢","koaza":"","lat":38.780712,"lng":141.012087,"zip":"9895331"},{"town":"築館字城生野","koaza":"","lat":38.762234,"lng":141.034388,"zip":"9872200"},{"town":"栗駒芋埣","koaza":"","lat":38.772225,"lng":140.98425,"zip":"9895332"},{"town":"金成新金生","koaza":"","lat":38.802943,"lng":141.084515,"zip":"9872200"},{"town":"築館字築館新八ツ沢","koaza":"","lat":38.6976,"lng":141.004404,"zip":"9872200"},{"town":"築館字荒田沢","koaza":"","lat":38.722851,"lng":141.010506,"zip":"9872200"},{"town":"志波姫伊豆野","koaza":"","lat":38.779805,"lng":141.096737,"zip":"9895603"},{"town":"築館字上高森","koaza":"","lat":38.710178,"lng":140.970798,"zip":"9872200"},{"town":"築館字下高森","koaza":"","lat":38.71635,"lng":140.983862,"zip":"9872200"},{"town":"金成小堤","koaza":"","lat":38.804847,"lng":141.038011,"zip":"9895183"},{"town":"志波姫北堀口","koaza":"","lat":38.742095,"lng":141.031837,"zip":"9895627"},{"town":"築館字築館蟹沢","koaza":"","lat":38.691694,"lng":140.992819,"zip":"9872200"},{"town":"志波姫沼崎","koaza":"","lat":38.757749,"lng":141.065238,"zip":"9895615"},{"town":"志波姫堀口","koaza":"","lat":38.752049,"lng":141.03182,"zip":"9895625"},{"town":"志波姫八樟","koaza":"","lat":38.753064,"lng":141.047049,"zip":"9895622"},{"town":"栗駒里谷","koaza":"","lat":38.833731,"lng":141.016849,"zip":"9895311"},{"town":"栗駒菱沼","koaza":"","lat":38.796192,"lng":141.016655,"zip":"9895323"},{"town":"築館字下宮野","koaza":"","lat":38.753229,"lng":141.018849,"zip":"9872200"},{"town":"金成大原木","koaza":"","lat":38.812656,"lng":141.035941,"zip":"9895185"},{"town":"築館字八沢","koaza":"","lat":38.696877,"lng":141.021522,"zip":"9872200"},{"town":"志波姫刈敷","koaza":"","lat":38.774217,"lng":141.07911,"zip":"9895601"},{"town":"栗駒八幡","koaza":"","lat":38.804739,"lng":140.9989,"zip":"9895324"},{"town":"金成小迫","koaza":"","lat":38.812633,"lng":141.061093,"zip":"9895184"},{"town":"栗駒桜田","koaza":"","lat":38.793006,"lng":140.997843,"zip":"9895322"},{"town":"金成姉歯","koaza":"","lat":38.782699,"lng":141.063539,"zip":"9895172"},{"town":"金成藤渡戸","koaza":"","lat":38.854681,"lng":141.093899,"zip":"9894803"},{"town":"栗駒岩ケ崎","koaza":"","lat":38.834153,"lng":140.990965,"zip":"9895301"},{"town":"栗駒深谷","koaza":"","lat":38.845413,"lng":141.033584,"zip":"9895382"},{"town":"金成津久毛","koaza":"","lat":38.822887,"lng":141.039383,"zip":"9895181"},{"town":"志波姫南郷","koaza":"","lat":38.748804,"lng":141.099872,"zip":"9895611"},{"town":"金成沢辺","koaza":"","lat":38.796203,"lng":141.058876,"zip":"9895171"},{"town":"栗駒猿飛来","koaza":"","lat":38.816405,"lng":141.010385,"zip":"9895312"},{"town":"栗駒中野","koaza":"","lat":38.836341,"lng":140.954785,"zip":"9895351"},{"town":"金成末野","koaza":"","lat":38.846169,"lng":141.116525,"zip":"9894802"},{"town":"金成赤児","koaza":"","lat":38.861398,"lng":141.063537,"zip":"9894807"},{"town":"栗駒片子沢","koaza":"","lat":38.785892,"lng":140.970494,"zip":"9895333"},{"town":"金成普賢堂","koaza":"","lat":38.868554,"lng":141.040482,"zip":"9894808"},{"town":"若柳有賀","koaza":"","lat":38.815813,"lng":141.099728,"zip":"9895507"},{"town":"金成有壁","koaza":"","lat":38.865902,"lng":141.129419,"zip":"9894806"},{"town":"栗駒稲屋敷","koaza":"","lat":38.826067,"lng":140.960127,"zip":"9895341"},{"town":"若柳武鎗","koaza":"","lat":38.801668,"lng":141.12593,"zip":"9895508"},{"town":"金成片馬合","koaza":"","lat":38.872234,"lng":141.089176,"zip":"9894805"},{"town":"一迫真坂","koaza":"","lat":38.744145,"lng":140.942198,"zip":"9872308"},{"town":"栗駒松倉","koaza":"","lat":38.85401,"lng":140.957363,"zip":"9895372"},{"town":"金成","koaza":"","lat":38.824202,"lng":141.070064,"zip":"9894807"},{"town":"一迫柳目","koaza":"","lat":38.716698,"lng":140.968822,"zip":"9872309"},{"town":"栗駒鳥沢","koaza":"","lat":38.85751,"lng":141.004826,"zip":"9895381"},{"town":"高清水","koaza":"","lat":38.660339,"lng":141.00364,"zip":"9872033"},{"town":"若柳","koaza":"","lat":38.760503,"lng":141.131081,"zip":"9895507"},{"town":"鶯沢","koaza":"","lat":38.813086,"lng":140.932316,"zip":"9895403"},{"town":"瀬峰","koaza":"","lat":38.661356,"lng":141.052324,"zip":"9894533"},{"town":"一迫","koaza":"","lat":38.75239,"lng":140.872469,"zip":"9872372"},{"town":"栗駒文字","koaza":"","lat":38.856781,"lng":140.867317,"zip":"9895361"},{"town":"栗駒沼倉","koaza":"","lat":38.914641,"lng":140.851516,"zip":"9895371"},{"town":"花山","koaza":"","lat":38.855095,"lng":140.779739,"zip":"9872512"},{"town":"栗駒栗原","koaza":"","lat":38.789393,"lng":141.029682,"zip":"9895321"},{"town":"築館","koaza":"","lat":38.76446,"lng":141.009003,"zip":"9872253"},{"town":"築館字照越","koaza":"","lat":38.708658,"lng":141.013073,"zip":"9872200"},{"town":"築館字萩沢","koaza":"","lat":38.733808,"lng":141.051198,"zip":"9872200"},{"town":"築館","koaza":"上高森","lat":38.709997,"lng":140.970657,"zip":"9872253"},{"town":"栗駒稲屋敷","koaza":"上ノ山","lat":38.82041,"lng":140.974689,"zip":"9895341"},{"town":"築館","koaza":"上高森下","lat":38.713049,"lng":140.976181,"zip":"9872253"},{"town":"栗駒中野","koaza":"愛宕下","lat":38.82022,"lng":140.983496,"zip":"9895351"},{"town":"栗駒岩ケ崎","koaza":"桐木沢","lat":38.839342,"lng":140.982898,"zip":"9895301"},{"town":"栗駒岩ケ崎","koaza":"岩倉","lat":38.834435,"lng":140.979198,"zip":"9895301"},{"town":"栗駒稲屋敷","koaza":"小関","lat":38.810107,"lng":140.978085,"zip":"9895341"},{"town":"栗駒稲屋敷","koaza":"愛宕","lat":38.81762,"lng":140.979892,"zip":"9895341"},{"town":"栗駒稲屋敷","koaza":"大鳥西側","lat":38.812706,"lng":140.984395,"zip":"9895341"},{"town":"栗駒稲屋敷","koaza":"笊屋敷前","lat":38.809786,"lng":140.978251,"zip":"9895341"},{"town":"栗駒稲屋敷","koaza":"笊屋敷下","lat":38.809667,"lng":140.978636,"zip":"9895341"},{"town":"栗駒中野","koaza":"稲荷前","lat":38.822797,"lng":140.981129,"zip":"9895351"},{"town":"栗駒稲屋敷","koaza":"笊屋敷","lat":38.811202,"lng":140.98097,"zip":"9895341"},{"town":"栗駒中野","koaza":"要害前","lat":38.829169,"lng":140.97912,"zip":"9895351"},{"town":"栗駒中野","koaza":"要害下","lat":38.829243,"lng":140.982756,"zip":"9895351"},{"town":"築館","koaza":"照越盲壇","lat":38.705233,"lng":140.992072,"zip":"9872253"},{"town":"築館","koaza":"下高森","lat":38.71647,"lng":140.986856,"zip":"9872253"},{"town":"栗駒中野","koaza":"田町西","lat":38.824662,"lng":140.982472,"zip":"9895351"},{"town":"栗駒中野","koaza":"上野原西","lat":38.818768,"lng":140.983031,"zip":"9895351"},{"town":"栗駒稲屋敷","koaza":"下大鳥","lat":38.809124,"lng":140.982453,"zip":"9895341"},{"town":"栗駒中野","koaza":"阿弥陀堂","lat":38.82751,"lng":140.983111,"zip":"9895351"},{"town":"栗駒稲屋敷","koaza":"大鳥","lat":38.808885,"lng":140.983271,"zip":"9895341"},{"town":"栗駒稲屋敷","koaza":"半才毛","lat":38.810147,"lng":140.982096,"zip":"9895341"},{"town":"栗駒中野","koaza":"西上野","lat":38.817196,"lng":140.984777,"zip":"9895351"},{"town":"栗駒中野","koaza":"高崎","lat":38.825532,"lng":140.982792,"zip":"9895351"},{"town":"栗駒岩ケ崎","koaza":"土川","lat":38.832187,"lng":140.983309,"zip":"9895301"},{"town":"栗駒岩ケ崎","koaza":"上小路","lat":38.833214,"lng":140.987158,"zip":"9895301"},{"town":"築館","koaza":"下高森下","lat":38.71533,"lng":140.991205,"zip":"9872253"},{"town":"栗駒中野","koaza":"沼尻前","lat":38.828454,"lng":140.984502,"zip":"9895351"},{"town":"栗駒稲屋敷","koaza":"九ノ戸","lat":38.815703,"lng":140.984583,"zip":"9895341"},{"town":"栗駒中野","koaza":"北畑中","lat":38.826352,"lng":140.984706,"zip":"9895351"},{"town":"栗駒稲屋敷","koaza":"大鳥西","lat":38.814619,"lng":140.984039,"zip":"9895341"},{"town":"栗駒岩ケ崎","koaza":"茂庭町","lat":38.828882,"lng":140.986695,"zip":"9895301"},{"town":"栗駒稲屋敷","koaza":"坂下","lat":38.808853,"lng":140.983971,"zip":"9895341"},{"town":"栗駒稲屋敷","koaza":"大鳥東側","lat":38.811563,"lng":140.984764,"zip":"9895341"},{"town":"栗駒岩ケ崎","koaza":"新地ケ沢","lat":38.834901,"lng":140.985374,"zip":"9895301"},{"town":"栗駒岩ケ崎","koaza":"大水門","lat":38.830992,"lng":140.98457,"zip":"9895301"},{"town":"栗駒中野","koaza":"八幡田","lat":38.823474,"lng":140.984431,"zip":"9895351"},{"town":"栗駒稲屋敷","koaza":"坂下前","lat":38.809154,"lng":140.984506,"zip":"9895341"},{"town":"栗駒岩ケ崎","koaza":"新土川","lat":38.8327,"lng":140.984817,"zip":"9895301"},{"town":"栗駒岩ケ崎","koaza":"六日町","lat":38.830541,"lng":140.987363,"zip":"9895301"},{"town":"築館","koaza":"築館蟹沢","lat":38.691636,"lng":140.993074,"zip":"9872253"},{"town":"栗駒中野","koaza":"畑中","lat":38.825084,"lng":140.985343,"zip":"9895351"},{"town":"栗駒稲屋敷","koaza":"桜屋敷","lat":38.809612,"lng":140.986566,"zip":"9895341"},{"town":"栗駒稲屋敷","koaza":"後原","lat":38.81448,"lng":140.988459,"zip":"9895341"},{"town":"栗駒中野","koaza":"瓦焼場","lat":38.82196,"lng":140.986773,"zip":"9895351"},{"town":"栗駒中野","koaza":"田町裏","lat":38.824415,"lng":140.986242,"zip":"9895351"},{"town":"栗駒中野","koaza":"田町河原","lat":38.825442,"lng":140.985969,"zip":"9895351"},{"town":"栗駒中野","koaza":"田町","lat":38.825164,"lng":140.987161,"zip":"9895351"},{"town":"築館","koaza":"下高森南","lat":38.713928,"lng":140.987038,"zip":"9872253"},{"town":"栗駒中野","koaza":"大柳","lat":38.817959,"lng":140.986076,"zip":"9895351"},{"town":"栗駒中野","koaza":"田町東","lat":38.823677,"lng":140.987379,"zip":"9895351"},{"town":"栗駒岩ケ崎","koaza":"裏山","lat":38.835086,"lng":140.992272,"zip":"9895301"},{"town":"栗駒中野","koaza":"上野原北","lat":38.819927,"lng":140.990081,"zip":"9895351"},{"town":"栗駒中野","koaza":"上野原南","lat":38.818218,"lng":140.989498,"zip":"9895351"},{"town":"栗駒岩ケ崎","koaza":"円鏡寺後","lat":38.827877,"lng":140.989764,"zip":"9895301"},{"town":"栗駒稲屋敷","koaza":"後原前","lat":38.812452,"lng":140.987694,"zip":"9895341"},{"town":"栗駒岩ケ崎","koaza":"町後","lat":38.829382,"lng":140.987851,"zip":"9895301"},{"town":"栗駒岩ケ崎","koaza":"上町裏","lat":38.829147,"lng":140.991115,"zip":"9895301"},{"town":"栗駒中野","koaza":"菖蒲沢","lat":38.82128,"lng":140.989952,"zip":"9895351"},{"town":"栗駒中野","koaza":"上野","lat":38.822008,"lng":140.988822,"zip":"9895351"},{"town":"栗駒稲屋敷","koaza":"下大鳥前","lat":38.80913,"lng":140.989329,"zip":"9895341"},{"town":"栗駒岩ケ崎","koaza":"松木田","lat":38.826947,"lng":140.990958,"zip":"9895301"},{"town":"栗駒八幡","koaza":"西沢","lat":38.811564,"lng":140.990721,"zip":"9895324"},{"town":"栗駒岩ケ崎","koaza":"下小路","lat":38.832402,"lng":140.992524,"zip":"9895301"},{"town":"築館","koaza":"蟹沢西之郷","lat":38.697535,"lng":140.995162,"zip":"9872253"},{"town":"栗駒岩ケ崎","koaza":"三島","lat":38.8378,"lng":140.999777,"zip":"9895301"},{"town":"築館","koaza":"萩沢","lat":38.726817,"lng":140.995442,"zip":"9872253"},{"town":"栗駒岩ケ崎","koaza":"八日町","lat":38.830833,"lng":140.994902,"zip":"9895301"},{"town":"築館","koaza":"萩沢東","lat":38.724343,"lng":141.00388,"zip":"9872253"},{"town":"栗駒猿飛来","koaza":"上野原東","lat":38.818534,"lng":140.994882,"zip":"9895312"},{"town":"築館","koaza":"左野原","lat":38.732264,"lng":140.999567,"zip":"9872253"},{"town":"栗駒猿飛来","koaza":"北上野","lat":38.819948,"lng":140.995,"zip":"9895312"},{"town":"築館","koaza":"蟹沢中之郷","lat":38.698127,"lng":140.997147,"zip":"9872253"},{"town":"築館","koaza":"照越伊勢沢","lat":38.71208,"lng":141.001747,"zip":"9872253"},{"town":"築館","koaza":"照越上ノ沢","lat":38.714488,"lng":140.997988,"zip":"9872253"},{"town":"築館","koaza":"照越午房森","lat":38.709152,"lng":141.000784,"zip":"9872253"},{"town":"栗駒岩ケ崎","koaza":"四日町","lat":38.832389,"lng":140.997296,"zip":"9895301"},{"town":"栗駒岩ケ崎","koaza":"下町裏","lat":38.829124,"lng":140.998121,"zip":"9895301"},{"town":"栗駒岩ケ崎","koaza":"中江","lat":38.825833,"lng":140.997733,"zip":"9895301"},{"town":"栗駒岩ケ崎","koaza":"神南","lat":38.831159,"lng":140.998795,"zip":"9895301"},{"town":"栗駒岩ケ崎","koaza":"成田","lat":38.827147,"lng":141.001596,"zip":"9895301"},{"town":"築館","koaza":"小淵西","lat":38.731654,"lng":141.00051,"zip":"9872253"},{"town":"築館","koaza":"萩沢南","lat":38.725428,"lng":140.998444,"zip":"9872253"},{"town":"栗駒岩ケ崎","koaza":"末町沖","lat":38.832099,"lng":140.99976,"zip":"9895301"},{"town":"栗駒岩ケ崎","koaza":"名城前","lat":38.833123,"lng":140.999759,"zip":"9895301"},{"town":"築館","koaza":"照越山ノ神前","lat":38.714838,"lng":141.004079,"zip":"9872253"},{"town":"築館","koaza":"蟹沢表","lat":38.697987,"lng":141.00145,"zip":"9872253"},{"town":"築館","koaza":"荒田沢","lat":38.722254,"lng":141.009799,"zip":"9872253"},{"town":"築館","koaza":"唐竹林","lat":38.732647,"lng":141.005613,"zip":"9872253"},{"town":"築館","koaza":"築館新八ツ沢","lat":38.695467,"lng":141.001235,"zip":"9872253"},{"town":"栗駒岩ケ崎","koaza":"神明","lat":38.832404,"lng":141.001728,"zip":"9895301"},{"town":"築館","koaza":"小淵東","lat":38.734863,"lng":141.005087,"zip":"9872253"},{"town":"築館","koaza":"薬師ケ丘","lat":38.728634,"lng":141.007116,"zip":"9872253"},{"town":"築館","koaza":"蟹沢三峰","lat":38.694645,"lng":141.004828,"zip":"9872253"},{"town":"栗駒岩ケ崎","koaza":"樋ノ口窪","lat":38.828612,"lng":141.004032,"zip":"9895301"},{"town":"築館","koaza":"照越大樟","lat":38.712705,"lng":141.008187,"zip":"9872253"},{"town":"高清水","koaza":"蟹沢尻","lat":38.689063,"lng":141.004322,"zip":"9872033"},{"town":"築館","koaza":"下宮野山畑","lat":38.759367,"lng":141.007366,"zip":"9872253"},{"town":"築館","koaza":"下宮野八ツ又沢","lat":38.758163,"lng":141.004547,"zip":"9872253"},{"town":"栗駒鳥沢","koaza":"山王下","lat":38.836024,"lng":141.006773,"zip":"9895381"},{"town":"栗駒岩ケ崎","koaza":"中島","lat":38.829019,"lng":141.006236,"zip":"9895301"},{"town":"築館","koaza":"蟹沢東郷","lat":38.696859,"lng":141.006837,"zip":"9872253"},{"town":"築館","koaza":"下宮野宮当","lat":38.754633,"lng":141.007686,"zip":"9872253"},{"town":"築館","koaza":"久伝","lat":38.736764,"lng":141.010059,"zip":"9872253"},{"town":"築館","koaza":"赤坂","lat":38.720849,"lng":141.018147,"zip":"9872253"},{"town":"築館","koaza":"照越狼ノ穴沢","lat":38.708279,"lng":141.008986,"zip":"9872253"},{"town":"築館","koaza":"下宮野砂田","lat":38.748932,"lng":141.012541,"zip":"9872253"},{"town":"栗駒岩ケ崎","koaza":"砂押","lat":38.831086,"lng":141.007362,"zip":"9895301"},{"town":"栗駒里谷","koaza":"白山","lat":38.828997,"lng":141.009799,"zip":"9895311"},{"town":"栗駒里谷","koaza":"森前","lat":38.831621,"lng":141.009324,"zip":"9895311"},{"town":"栗駒里谷","koaza":"峰","lat":38.834853,"lng":141.009169,"zip":"9895311"},{"town":"築館","koaza":"照越松長根","lat":38.712624,"lng":141.017022,"zip":"9872253"},{"town":"築館","koaza":"館沢","lat":38.726835,"lng":141.010372,"zip":"9872253"},{"town":"築館","koaza":"館下","lat":38.727879,"lng":141.01209,"zip":"9872253"},{"town":"築館","koaza":"蟹沢力石","lat":38.690754,"lng":141.011513,"zip":"9872253"},{"town":"築館","koaza":"照越道源","lat":38.711901,"lng":141.010071,"zip":"9872253"},{"town":"栗駒里谷","koaza":"峰前","lat":38.834333,"lng":141.011463,"zip":"9895311"},{"town":"築館","koaza":"下宮野八幡下","lat":38.751829,"lng":141.012462,"zip":"9872253"},{"town":"栗駒里谷","koaza":"中沖","lat":38.829424,"lng":141.011897,"zip":"9895311"},{"town":"栗駒里谷","koaza":"砂地屋","lat":38.82797,"lng":141.011129,"zip":"9895311"},{"town":"築館","koaza":"留場雇田","lat":38.740749,"lng":141.015974,"zip":"9872253"},{"town":"築館","koaza":"下宮野岡田","lat":38.754311,"lng":141.013316,"zip":"9872253"},{"town":"築館","koaza":"八沢大深沢","lat":38.701107,"lng":141.027393,"zip":"9872253"},{"town":"築館","koaza":"留場中田","lat":38.744301,"lng":141.013756,"zip":"9872253"},{"town":"築館","koaza":"下宮野町","lat":38.751441,"lng":141.016643,"zip":"9872253"},{"town":"築館","koaza":"留場久伝","lat":38.741697,"lng":141.014085,"zip":"9872253"},{"town":"築館","koaza":"照越八ツ沢","lat":38.709642,"lng":141.014195,"zip":"9872253"},{"town":"築館","koaza":"下宮野館","lat":38.753242,"lng":141.015199,"zip":"9872253"},{"town":"築館","koaza":"下宮野町浦","lat":38.751523,"lng":141.02003,"zip":"9872253"},{"town":"築館","koaza":"下宮野中田","lat":38.749967,"lng":141.019915,"zip":"9872253"},{"town":"築館","koaza":"西小山","lat":38.727898,"lng":141.01896,"zip":"9872253"},{"town":"築館","koaza":"下宮野大日向","lat":38.759906,"lng":141.017324,"zip":"9872253"},{"town":"築館","koaza":"照越永平","lat":38.707504,"lng":141.018165,"zip":"9872253"},{"town":"築館","koaza":"留場桜","lat":38.744043,"lng":141.016202,"zip":"9872253"},{"town":"築館","koaza":"留場中川原","lat":38.743363,"lng":141.017918,"zip":"9872253"},{"town":"築館","koaza":"留場桜下","lat":38.743922,"lng":141.018333,"zip":"9872253"},{"town":"築館","koaza":"留場桜町","lat":38.745452,"lng":141.021182,"zip":"9872253"},{"town":"築館","koaza":"下宮野浦ノ沢","lat":38.756963,"lng":141.020864,"zip":"9872253"},{"town":"築館","koaza":"八沢忽滑沢","lat":38.695166,"lng":141.024789,"zip":"9872253"},{"town":"築館","koaza":"照越神田","lat":38.713908,"lng":141.021454,"zip":"9872253"},{"town":"築館","koaza":"南小山","lat":38.725522,"lng":141.018565,"zip":"9872253"},{"town":"築館","koaza":"沢入","lat":38.717112,"lng":141.022085,"zip":"9872253"},{"town":"築館","koaza":"下宮野町尻","lat":38.755154,"lng":141.020788,"zip":"9872253"},{"town":"築館","koaza":"下宮野町下","lat":38.756177,"lng":141.024499,"zip":"9872253"},{"town":"志波姫堀口","koaza":"宮中","lat":38.74051,"lng":141.024024,"zip":"9895625"},{"town":"築館","koaza":"下宮野川北","lat":38.754433,"lng":141.023592,"zip":"9872253"},{"town":"築館","koaza":"留場遠の木","lat":38.744279,"lng":141.022222,"zip":"9872253"},{"town":"築館","koaza":"赤沢","lat":38.72291,"lng":141.020864,"zip":"9872253"},{"town":"志波姫堀口","koaza":"見渡","lat":38.737759,"lng":141.025286,"zip":"9895625"},{"town":"築館","koaza":"照越月山林","lat":38.715393,"lng":141.026799,"zip":"9872253"},{"town":"築館","koaza":"下宮野萩沢田","lat":38.751116,"lng":141.023144,"zip":"9872253"},{"town":"築館","koaza":"下宮野砂子田","lat":38.759498,"lng":141.02302,"zip":"9872253"},{"town":"築館","koaza":"下待井","lat":38.719417,"lng":141.027146,"zip":"9872253"},{"town":"築館","koaza":"外南沢","lat":38.71724,"lng":141.023444,"zip":"9872253"},{"town":"志波姫堀口","koaza":"十文字","lat":38.73594,"lng":141.02715,"zip":"9895625"},{"town":"志波姫堀口","koaza":"川原","lat":38.745145,"lng":141.025329,"zip":"9895625"},{"town":"築館","koaza":"下宮野大仏","lat":38.757567,"lng":141.025628,"zip":"9872253"},{"town":"築館","koaza":"照越間渡戸","lat":38.711796,"lng":141.027994,"zip":"9872253"},{"town":"築館","koaza":"八沢大沢","lat":38.701304,"lng":141.034529,"zip":"9872253"},{"town":"築館","koaza":"城生野越田","lat":38.759269,"lng":141.029926,"zip":"9872253"},{"town":"志波姫堀口","koaza":"川羽前","lat":38.751814,"lng":141.030922,"zip":"9895625"},{"town":"志波姫堀口","koaza":"沖","lat":38.751642,"lng":141.030465,"zip":"9895625"},{"town":"志波姫堀口","koaza":"上野","lat":38.738056,"lng":141.028952,"zip":"9895625"},{"town":"志波姫堀口","koaza":"要害前","lat":38.743917,"lng":141.030981,"zip":"9895625"},{"town":"志波姫堀口","koaza":"要害浦","lat":38.742875,"lng":141.028378,"zip":"9895625"},{"town":"築館","koaza":"照越大ケ原","lat":38.71627,"lng":141.034945,"zip":"9872253"},{"town":"築館","koaza":"城生野入の沢","lat":38.761815,"lng":141.031927,"zip":"9872253"},{"town":"志波姫堀口","koaza":"館輪","lat":38.753624,"lng":141.031055,"zip":"9895625"},{"town":"築館","koaza":"内沢","lat":38.726744,"lng":141.031743,"zip":"9872253"},{"town":"志波姫堀口","koaza":"源光","lat":38.738075,"lng":141.033796,"zip":"9895625"},{"town":"築館字萩沢","koaza":"土橋","lat":38.722027,"lng":141.040289,"zip":"9872200"},{"town":"築館","koaza":"八沢北沢","lat":38.705327,"lng":141.035816,"zip":"9872253"},{"town":"築館","koaza":"城生野要害","lat":38.767808,"lng":141.033977,"zip":"9872253"},{"town":"築館","koaza":"照越浅松沢","lat":38.713122,"lng":141.036965,"zip":"9872253"},{"town":"築館","koaza":"萩沢新田前","lat":38.729342,"lng":141.034118,"zip":"9872253"},{"town":"築館","koaza":"萩沢佐内屋敷","lat":38.728851,"lng":141.038988,"zip":"9872253"},{"town":"築館","koaza":"城生野唐崎","lat":38.766119,"lng":141.037701,"zip":"9872253"},{"town":"築館","koaza":"城生野古苗代","lat":38.770337,"lng":141.035342,"zip":"9872253"},{"town":"築館","koaza":"城生野大堀","lat":38.767872,"lng":141.03698,"zip":"9872253"},{"town":"志波姫堀口","koaza":"御駒堂","lat":38.744407,"lng":141.042406,"zip":"9895625"},{"town":"志波姫堀口","koaza":"高田","lat":38.755204,"lng":141.036646,"zip":"9895625"},{"town":"志波姫堀口","koaza":"堂の沢","lat":38.745017,"lng":141.034965,"zip":"9895625"},{"town":"志波姫堀口","koaza":"大天馬","lat":38.73888,"lng":141.037988,"zip":"9895625"},{"town":"志波姫堀口","koaza":"堂の沢東","lat":38.747827,"lng":141.040032,"zip":"9895625"},{"town":"築館字照越","koaza":"町田","lat":38.718355,"lng":141.037566,"zip":"9872200"},{"town":"築館","koaza":"城生野地蔵堂","lat":38.763257,"lng":141.038755,"zip":"9872253"},{"town":"築館","koaza":"八沢新北向前","lat":38.703925,"lng":141.040632,"zip":"9872253"},{"town":"築館","koaza":"八沢北向前","lat":38.706707,"lng":141.039268,"zip":"9872253"},{"town":"築館","koaza":"照越八反田","lat":38.714378,"lng":141.041115,"zip":"9872253"},{"town":"築館","koaza":"城生野北田沖","lat":38.770398,"lng":141.038812,"zip":"9872253"},{"town":"志波姫堀口","koaza":"西風前","lat":38.74259,"lng":141.041735,"zip":"9895625"},{"town":"志波姫八樟","koaza":"里","lat":38.760984,"lng":141.042912,"zip":"9895622"},{"town":"志波姫堀口","koaza":"藤清水","lat":38.74769,"lng":141.041712,"zip":"9895625"},{"town":"築館","koaza":"萩沢後沢道南","lat":38.737066,"lng":141.042104,"zip":"9872253"},{"town":"築館","koaza":"萩沢木戸南","lat":38.731163,"lng":141.042415,"zip":"9872253"},{"town":"築館字照越","koaza":"宮田","lat":38.720577,"lng":141.041868,"zip":"9872200"},{"town":"志波姫八樟","koaza":"沖","lat":38.752525,"lng":141.043251,"zip":"9895622"},{"town":"築館","koaza":"城生野志田海","lat":38.771089,"lng":141.043225,"zip":"9872253"},{"town":"築館","koaza":"八沢竹ノ下前","lat":38.708034,"lng":141.04365,"zip":"9872253"},{"town":"築館","koaza":"萩沢木戸","lat":38.733277,"lng":141.046378,"zip":"9872253"},{"town":"築館","koaza":"八沢桜沢","lat":38.705108,"lng":141.043793,"zip":"9872253"},{"town":"築館","koaza":"照越堀ノ内","lat":38.719365,"lng":141.045048,"zip":"9872253"},{"town":"志波姫堀口","koaza":"山の上","lat":38.744722,"lng":141.045549,"zip":"9895625"},{"town":"築館","koaza":"富大袋道","lat":38.777031,"lng":141.04695,"zip":"9872253"},{"town":"築館","koaza":"萩沢平沢","lat":38.729481,"lng":141.045879,"zip":"9872253"},{"town":"金成","koaza":"沢辺西大寺","lat":38.795704,"lng":141.049759,"zip":"9894807"},{"town":"築館","koaza":"萩沢寺前","lat":38.7321,"lng":141.044524,"zip":"9872253"},{"town":"築館","koaza":"萩沢後沢道北","lat":38.738082,"lng":141.046405,"zip":"9872253"},{"town":"築館","koaza":"照越堀ノ内南沢","lat":38.717113,"lng":141.045748,"zip":"9872253"},{"town":"築館","koaza":"富下熊川","lat":38.780716,"lng":141.045257,"zip":"9872253"},{"town":"志波姫刈敷","koaza":"三丁目","lat":38.769418,"lng":141.048471,"zip":"9895601"},{"town":"築館","koaza":"萩沢忽滑沢","lat":38.7372,"lng":141.052648,"zip":"9872253"},{"town":"金成","koaza":"姉歯小沢田","lat":38.781851,"lng":141.04847,"zip":"9894807"},{"town":"志波姫八樟","koaza":"宇南","lat":38.750583,"lng":141.048115,"zip":"9895622"},{"town":"金成","koaza":"姉歯根岸","lat":38.780982,"lng":141.061735,"zip":"9894807"},{"town":"築館","koaza":"照越寺沢","lat":38.725389,"lng":141.04945,"zip":"9872253"},{"town":"築館字照越","koaza":"古屋敷","lat":38.722757,"lng":141.045254,"zip":"9872200"},{"town":"築館","koaza":"萩沢整理","lat":38.731815,"lng":141.047823,"zip":"9872253"},{"town":"築館","koaza":"萩沢小倉","lat":38.730026,"lng":141.047461,"zip":"9872253"},{"town":"志波姫刈敷","koaza":"上袋","lat":38.773197,"lng":141.057822,"zip":"9895601"},{"town":"志波姫八樟","koaza":"原","lat":38.749544,"lng":141.052156,"zip":"9895622"},{"town":"金成","koaza":"沢辺川前","lat":38.789968,"lng":141.049516,"zip":"9894807"},{"town":"志波姫八樟","koaza":"北","lat":38.750705,"lng":141.049906,"zip":"9895622"},{"town":"金成","koaza":"姉歯道才沢","lat":38.782264,"lng":141.054164,"zip":"9894807"},{"town":"築館字萩沢","koaza":"田子屋","lat":38.733772,"lng":141.049369,"zip":"9872200"},{"town":"志波姫八樟","koaza":"新田","lat":38.742869,"lng":141.051386,"zip":"9895622"},{"town":"志波姫刈敷","koaza":"袋","lat":38.772354,"lng":141.053156,"zip":"9895601"},{"town":"築館","koaza":"照越長根","lat":38.727897,"lng":141.052787,"zip":"9872253"},{"town":"志波姫八樟","koaza":"水押","lat":38.756013,"lng":141.050552,"zip":"9895622"},{"town":"志波姫八樟","koaza":"道崎","lat":38.755517,"lng":141.054189,"zip":"9895622"},{"town":"志波姫八樟","koaza":"吹付","lat":38.752016,"lng":141.052579,"zip":"9895622"},{"town":"金成","koaza":"沢辺前門沢","lat":38.794359,"lng":141.052699,"zip":"9894807"},{"town":"築館","koaza":"照越台","lat":38.724602,"lng":141.05279,"zip":"9872253"},{"town":"志波姫刈敷","koaza":"上刈敷","lat":38.770961,"lng":141.052209,"zip":"9895601"},{"town":"金成","koaza":"沢辺神林","lat":38.800637,"lng":141.054337,"zip":"9894807"},{"town":"志波姫八樟","koaza":"東原","lat":38.750904,"lng":141.054265,"zip":"9895622"},{"town":"築館","koaza":"萩沢鬼ケ崎","lat":38.734312,"lng":141.057024,"zip":"9872253"},{"town":"志波姫八樟","koaza":"貝の堀","lat":38.749751,"lng":141.055222,"zip":"9895622"},{"town":"志波姫八樟","koaza":"笹ケ森","lat":38.739737,"lng":141.054788,"zip":"9895622"},{"town":"築館","koaza":"照越二号","lat":38.724304,"lng":141.056174,"zip":"9872253"},{"town":"志波姫沼崎","koaza":"淀","lat":38.757828,"lng":141.059031,"zip":"9895615"},{"town":"志波姫八樟","koaza":"大谷地","lat":38.745501,"lng":141.058419,"zip":"9895622"},{"town":"築館","koaza":"照越新田","lat":38.725946,"lng":141.057612,"zip":"9872253"},{"town":"金成","koaza":"沢辺寺沢","lat":38.793504,"lng":141.059756,"zip":"9894807"},{"town":"志波姫沼崎","koaza":"南沖","lat":38.755731,"lng":141.067247,"zip":"9895615"},{"town":"志波姫八樟","koaza":"横峰","lat":38.7392,"lng":141.057619,"zip":"9895622"},{"town":"志波姫刈敷","koaza":"蔵場","lat":38.773336,"lng":141.066358,"zip":"9895601"},{"town":"金成","koaza":"沢辺新町裏","lat":38.798781,"lng":141.059931,"zip":"9894807"},{"town":"金成","koaza":"姉歯田子谷前","lat":38.779835,"lng":141.064292,"zip":"9894807"},{"town":"志波姫沼崎","koaza":"高原","lat":38.752861,"lng":141.05898,"zip":"9895615"},{"town":"志波姫沼崎","koaza":"新田","lat":38.75288,"lng":141.061969,"zip":"9895615"},{"town":"金成","koaza":"梨崎道ノ上","lat":38.788443,"lng":141.065465,"zip":"9894807"},{"town":"志波姫沼崎","koaza":"大谷地","lat":38.750517,"lng":141.058809,"zip":"9895615"},{"town":"志波姫沼崎","koaza":"北曽根","lat":38.76047,"lng":141.062466,"zip":"9895615"},{"town":"志波姫沼崎","koaza":"曽根","lat":38.756198,"lng":141.06275,"zip":"9895615"},{"town":"築館","koaza":"萩沢加倉","lat":38.730962,"lng":141.066386,"zip":"9872253"},{"town":"志波姫沼崎","koaza":"南原","lat":38.747977,"lng":141.061506,"zip":"9895615"},{"town":"金成","koaza":"姉歯巻ノ上","lat":38.775926,"lng":141.062236,"zip":"9894807"},{"town":"志波姫沼崎","koaza":"堰畑","lat":38.756303,"lng":141.066476,"zip":"9895615"},{"town":"志波姫八樟","koaza":"台","lat":38.737318,"lng":141.063245,"zip":"9895622"},{"town":"金成","koaza":"小迫花館","lat":38.811517,"lng":141.065128,"zip":"9894807"},{"town":"金成","koaza":"沢辺町沖","lat":38.801122,"lng":141.067229,"zip":"9894807"},{"town":"志波姫八樟","koaza":"浦山","lat":38.73682,"lng":141.069372,"zip":"9895622"},{"town":"金成","koaza":"沢辺木戸口","lat":38.797971,"lng":141.0675,"zip":"9894807"},{"town":"志波姫沼崎","koaza":"待江","lat":38.761676,"lng":141.069356,"zip":"9895615"},{"town":"金成","koaza":"沢辺往還下","lat":38.79931,"lng":141.06575,"zip":"9894807"},{"town":"金成","koaza":"小迫宿","lat":38.809807,"lng":141.06873,"zip":"9894807"},{"town":"志波姫沼崎","koaza":"東原","lat":38.754068,"lng":141.066049,"zip":"9895615"},{"town":"金成","koaza":"姉歯松浦","lat":38.782713,"lng":141.068541,"zip":"9894807"},{"town":"金成","koaza":"小迫荒崎","lat":38.804568,"lng":141.068695,"zip":"9894807"},{"town":"金成","koaza":"小迫三嶋","lat":38.813957,"lng":141.068933,"zip":"9894807"},{"town":"志波姫刈敷","koaza":"覚性","lat":38.772555,"lng":141.067689,"zip":"9895601"},{"town":"志波姫南郷","koaza":"遠根","lat":38.745248,"lng":141.067952,"zip":"9895611"},{"town":"金成","koaza":"姉歯中沢前","lat":38.784488,"lng":141.070144,"zip":"9894807"},{"town":"金成","koaza":"沢辺新往還下","lat":38.799804,"lng":141.06701,"zip":"9894807"},{"town":"金成","koaza":"梨崎仲道","lat":38.792225,"lng":141.070442,"zip":"9894807"},{"town":"金成","koaza":"姉歯水押","lat":38.782917,"lng":141.071456,"zip":"9894807"},{"town":"金成","koaza":"沢辺外袋","lat":38.795723,"lng":141.07061,"zip":"9894807"},{"town":"金成","koaza":"小迫金沼","lat":38.803337,"lng":141.070334,"zip":"9894807"},{"town":"志波姫南郷","koaza":"五反待井","lat":38.745367,"lng":141.070648,"zip":"9895611"},{"town":"金成","koaza":"小迫高見山","lat":38.806708,"lng":141.070603,"zip":"9894807"},{"town":"志波姫南郷","koaza":"熊谷","lat":38.744509,"lng":141.070581,"zip":"9895611"},{"town":"志波姫沼崎","koaza":"原","lat":38.758578,"lng":141.071841,"zip":"9895615"},{"town":"金成","koaza":"姉歯谷地","lat":38.785526,"lng":141.073266,"zip":"9894807"},{"town":"志波姫刈敷","koaza":"治郎","lat":38.775902,"lng":141.074809,"zip":"9895601"},{"town":"志波姫南郷","koaza":"上戸","lat":38.742782,"lng":141.073048,"zip":"9895611"},{"town":"金成","koaza":"沢辺内畑","lat":38.793449,"lng":141.076057,"zip":"9894807"},{"town":"志波姫北郷","koaza":"蟹沢","lat":38.757966,"lng":141.075001,"zip":"9895605"},{"town":"志波姫南郷","koaza":"吉四郎","lat":38.746451,"lng":141.075143,"zip":"9895611"},{"town":"若柳","koaza":"上畑岡獅子ケ鼻","lat":38.727788,"lng":141.072218,"zip":"9895507"},{"town":"金成","koaza":"小迫四海崎","lat":38.806326,"lng":141.072505,"zip":"9894807"},{"town":"志波姫南郷","koaza":"久保","lat":38.747056,"lng":141.077462,"zip":"9895611"},{"town":"志波姫南郷","koaza":"清水坂","lat":38.748714,"lng":141.073521,"zip":"9895611"},{"town":"志波姫北郷","koaza":"古戸","lat":38.754269,"lng":141.075433,"zip":"9895605"},{"town":"志波姫北郷","koaza":"竹の内","lat":38.764174,"lng":141.079092,"zip":"9895605"},{"town":"金成","koaza":"干谷沢","lat":38.816436,"lng":141.076929,"zip":"9894807"},{"town":"志波姫北郷","koaza":"大門","lat":38.760365,"lng":141.077798,"zip":"9895605"},{"town":"金成","koaza":"姉歯谷地尻","lat":38.78803,"lng":141.075649,"zip":"9894807"},{"town":"志波姫刈敷","koaza":"花輪","lat":38.776038,"lng":141.075703,"zip":"9895601"},{"town":"志波姫北郷","koaza":"川の口前","lat":38.748796,"lng":141.079276,"zip":"9895605"},{"town":"志波姫北郷","koaza":"白山","lat":38.752063,"lng":141.079288,"zip":"9895605"},{"town":"志波姫北郷","koaza":"狐塚","lat":38.753912,"lng":141.079552,"zip":"9895605"},{"town":"志波姫南郷","koaza":"上戸前","lat":38.743294,"lng":141.078763,"zip":"9895611"},{"town":"志波姫南郷","koaza":"新田畑","lat":38.747274,"lng":141.083832,"zip":"9895611"},{"town":"志波姫北郷","koaza":"南柧","lat":38.765553,"lng":141.079358,"zip":"9895605"},{"town":"志波姫北郷","koaza":"新坂","lat":38.750391,"lng":141.080621,"zip":"9895605"},{"town":"志波姫南郷","koaza":"蓬田西","lat":38.743479,"lng":141.085164,"zip":"9895611"},{"town":"志波姫北郷","koaza":"十文字","lat":38.762936,"lng":141.08328,"zip":"9895605"},{"town":"若柳","koaza":"上畑岡大森","lat":38.73867,"lng":141.081656,"zip":"9895507"},{"town":"志波姫北郷","koaza":"川の口","lat":38.751739,"lng":141.083982,"zip":"9895605"},{"town":"若柳","koaza":"大林町裏","lat":38.788659,"lng":141.0873,"zip":"9895507"},{"town":"志波姫刈敷","koaza":"田中","lat":38.78372,"lng":141.08968,"zip":"9895601"},{"town":"志波姫南郷","koaza":"蓬田","lat":38.744428,"lng":141.085835,"zip":"9895611"},{"town":"志波姫北郷","koaza":"桃崎","lat":38.755847,"lng":141.085325,"zip":"9895605"},{"town":"金成","koaza":"沢辺新西待井","lat":38.795288,"lng":141.083801,"zip":"9894807"},{"town":"志波姫北郷","koaza":"荒町前","lat":38.763575,"lng":141.086466,"zip":"9895605"},{"town":"志波姫北郷","koaza":"桧","lat":38.757027,"lng":141.085422,"zip":"9895605"},{"town":"志波姫北郷","koaza":"荒町","lat":38.767295,"lng":141.08832,"zip":"9895605"},{"town":"志波姫刈敷","koaza":"三軒地","lat":38.782201,"lng":141.086955,"zip":"9895601"},{"town":"若柳","koaza":"大林堰合","lat":38.786575,"lng":141.099451,"zip":"9895507"},{"town":"志波姫北郷","koaza":"橋本","lat":38.759403,"lng":141.086831,"zip":"9895605"},{"town":"志波姫北郷","koaza":"橋本東","lat":38.76028,"lng":141.087945,"zip":"9895605"},{"town":"若柳","koaza":"大林新堰合","lat":38.789002,"lng":141.088985,"zip":"9895507"},{"town":"若柳","koaza":"大林下原田","lat":38.789703,"lng":141.089321,"zip":"9895507"},{"town":"志波姫北郷","koaza":"糠塚前","lat":38.769013,"lng":141.092092,"zip":"9895605"},{"town":"志波姫北郷","koaza":"小糠塚","lat":38.774028,"lng":141.09123,"zip":"9895605"},{"town":"志波姫北郷","koaza":"杉屋敷前","lat":38.76645,"lng":141.090624,"zip":"9895605"},{"town":"志波姫伊豆野","koaza":"徳富","lat":38.784038,"lng":141.092338,"zip":"9895603"},{"town":"志波姫伊豆野","koaza":"袋","lat":38.778148,"lng":141.104914,"zip":"9895603"},{"town":"志波姫北郷","koaza":"屋敷前","lat":38.767977,"lng":141.094698,"zip":"9895605"},{"town":"志波姫伊豆野","koaza":"前谷地","lat":38.775781,"lng":141.093319,"zip":"9895603"},{"town":"志波姫北郷","koaza":"糠塚","lat":38.773987,"lng":141.09392,"zip":"9895605"},{"town":"若柳","koaza":"大林中斉","lat":38.785861,"lng":141.098026,"zip":"9895507"},{"town":"志波姫伊豆野","koaza":"南浦","lat":38.769739,"lng":141.100695,"zip":"9895603"},{"town":"志波姫伊豆野","koaza":"町北側","lat":38.771507,"lng":141.100598,"zip":"9895603"},{"town":"志波姫伊豆野","koaza":"町南側","lat":38.770788,"lng":141.098128,"zip":"9895603"},{"town":"若柳","koaza":"大林森子","lat":38.787287,"lng":141.097562,"zip":"9895507"},{"town":"志波姫伊豆野","koaza":"加藤前","lat":38.768714,"lng":141.097952,"zip":"9895603"},{"town":"志波姫伊豆野","koaza":"大西前","lat":38.776731,"lng":141.099916,"zip":"9895603"},{"town":"志波姫伊豆野","koaza":"城内前","lat":38.773935,"lng":141.102728,"zip":"9895603"},{"town":"志波姫伊豆野","koaza":"中町浦","lat":38.772045,"lng":141.10061,"zip":"9895603"},{"town":"若柳","koaza":"大林要害","lat":38.783331,"lng":141.104467,"zip":"9895507"},{"town":"若柳","koaza":"大林千刈田","lat":38.785691,"lng":141.101048,"zip":"9895507"},{"town":"志波姫伊豆野","koaza":"城内","lat":38.776405,"lng":141.104216,"zip":"9895603"},{"town":"若柳","koaza":"大林西千刈","lat":38.786846,"lng":141.103705,"zip":"9895507"},{"town":"若柳","koaza":"大林東千刈","lat":38.785066,"lng":141.104683,"zip":"9895507"},{"town":"志波姫伊豆野","koaza":"南町尻","lat":38.770752,"lng":141.106452,"zip":"9895603"},{"town":"志波姫伊豆野","koaza":"北町尻","lat":38.771589,"lng":141.105135,"zip":"9895603"},{"town":"若柳","koaza":"大林境前","lat":38.781866,"lng":141.108579,"zip":"9895507"},{"town":"志波姫伊豆野","koaza":"蓮沼前","lat":38.772584,"lng":141.11178,"zip":"9895603"},{"town":"若柳","koaza":"福岡小谷町","lat":38.780735,"lng":141.1152,"zip":"9895507"},{"town":"若柳","koaza":"川南上堤","lat":38.774709,"lng":141.118658,"zip":"9895507"},{"town":"志波姫伊豆野","koaza":"新山前","lat":38.774457,"lng":141.112283,"zip":"9895603"},{"town":"志波姫伊豆野","koaza":"沼の上","lat":38.77298,"lng":141.115937,"zip":"9895603"},{"town":"若柳","koaza":"福岡谷地畑","lat":38.78191,"lng":141.117461,"zip":"9895507"},{"town":"志波姫伊豆野","koaza":"芝の脇前","lat":38.770466,"lng":141.115045,"zip":"9895603"},{"town":"若柳","koaza":"福岡小谷町浦","lat":38.785968,"lng":141.116828,"zip":"9895507"},{"town":"志波姫伊豆野","koaza":"颯壁","lat":38.77056,"lng":141.116402,"zip":"9895603"},{"town":"若柳","koaza":"福岡谷地畑浦","lat":38.783651,"lng":141.116921,"zip":"9895507"},{"town":"若柳","koaza":"川南戸ノ西","lat":38.767727,"lng":141.120849,"zip":"9895507"},{"town":"若柳","koaza":"川南堤通","lat":38.771572,"lng":141.122214,"zip":"9895507"},{"town":"若柳","koaza":"福岡四ツ谷","lat":38.777448,"lng":141.123436,"zip":"9895507"},{"town":"若柳","koaza":"福岡原畑","lat":38.78062,"lng":141.120838,"zip":"9895507"},{"town":"若柳","koaza":"川南袋","lat":38.766602,"lng":141.123917,"zip":"9895507"},{"town":"若柳","koaza":"川南新堤下","lat":38.773049,"lng":141.12486,"zip":"9895507"},{"town":"若柳","koaza":"川南南大通","lat":38.769176,"lng":141.125719,"zip":"9895507"},{"town":"若柳","koaza":"福岡中曽根","lat":38.778241,"lng":141.123805,"zip":"9895507"},{"town":"若柳","koaza":"川南町浦","lat":38.77038,"lng":141.127503,"zip":"9895507"},{"town":"若柳","koaza":"川南南町","lat":38.770634,"lng":141.128194,"zip":"9895507"},{"town":"若柳","koaza":"川南堤下","lat":38.773051,"lng":141.12574,"zip":"9895507"},{"town":"若柳","koaza":"川北堤下","lat":38.775098,"lng":141.127137,"zip":"9895507"},{"town":"若柳","koaza":"福岡","lat":38.776511,"lng":141.125847,"zip":"9895507"},{"town":"若柳","koaza":"川南子々松","lat":38.763474,"lng":141.129767,"zip":"9895507"},{"town":"若柳","koaza":"川北境田","lat":38.775913,"lng":141.127935,"zip":"9895507"},{"town":"若柳","koaza":"川北新町","lat":38.773549,"lng":141.129425,"zip":"9895507"},{"town":"若柳","koaza":"川南道伝前","lat":38.765256,"lng":141.130461,"zip":"9895507"},{"town":"若柳","koaza":"川北新町裏","lat":38.776614,"lng":141.130589,"zip":"9895507"},{"town":"若柳","koaza":"川北塚ノ根","lat":38.774869,"lng":141.131239,"zip":"9895507"},{"town":"若柳","koaza":"川北中町","lat":38.772238,"lng":141.131909,"zip":"9895507"},{"town":"若柳","koaza":"川南川原","lat":38.759419,"lng":141.133231,"zip":"9895507"},{"town":"若柳","koaza":"川北元町裏","lat":38.776027,"lng":141.13462,"zip":"9895507"},{"town":"若柳","koaza":"川北六畝","lat":38.770063,"lng":141.13303,"zip":"9895507"},{"town":"若柳","koaza":"川北元町","lat":38.772376,"lng":141.133119,"zip":"9895507"},{"town":"若柳","koaza":"川北砂押","lat":38.776629,"lng":141.145847,"zip":"9895507"},{"town":"若柳","koaza":"川北塚ノ越","lat":38.774165,"lng":141.133637,"zip":"9895507"},{"town":"若柳","koaza":"川北古川","lat":38.771858,"lng":141.136872,"zip":"9895507"},{"town":"若柳","koaza":"川北原畑","lat":38.770044,"lng":141.135928,"zip":"9895507"},{"town":"若柳","koaza":"川北片町","lat":38.773028,"lng":141.137803,"zip":"9895507"},{"town":"若柳","koaza":"川北塚原","lat":38.766245,"lng":141.136648,"zip":"9895507"},{"town":"若柳","koaza":"川北我門","lat":38.766155,"lng":141.138715,"zip":"9895507"},{"town":"若柳","koaza":"川北落江","lat":38.759137,"lng":141.139124,"zip":"9895507"},{"town":"若柳","koaza":"川北片町裏","lat":38.775359,"lng":141.14082,"zip":"9895507"},{"town":"若柳","koaza":"川北橋元","lat":38.775055,"lng":141.139986,"zip":"9895507"},{"town":"若柳","koaza":"川北畑中","lat":38.760611,"lng":141.140727,"zip":"9895507"},{"town":"若柳","koaza":"川北欠","lat":38.770769,"lng":141.141775,"zip":"9895507"},{"town":"若柳","koaza":"川北十文字","lat":38.76692,"lng":141.143628,"zip":"9895507"},{"town":"若柳","koaza":"川北下袋","lat":38.774042,"lng":141.142053,"zip":"9895507"},{"town":"若柳武鎗","koaza":"上土手ノ内","lat":38.781096,"lng":141.144615,"zip":"9895508"},{"town":"若柳武鎗","koaza":"西待井","lat":38.780518,"lng":141.141101,"zip":"9895508"},{"town":"若柳","koaza":"川北田中","lat":38.75781,"lng":141.142879,"zip":"9895507"},{"town":"若柳","koaza":"川北中文字","lat":38.76815,"lng":141.143211,"zip":"9895507"},{"town":"若柳","koaza":"川北大袋前","lat":38.780378,"lng":141.142269,"zip":"9895507"},{"town":"若柳","koaza":"川北並柳","lat":38.771102,"lng":141.145878,"zip":"9895507"},{"town":"若柳","koaza":"川北摺鉢","lat":38.779315,"lng":141.143874,"zip":"9895507"},{"town":"若柳","koaza":"川北高谷","lat":38.762854,"lng":141.146284,"zip":"9895507"},{"town":"若柳","koaza":"川北中谷地","lat":38.76786,"lng":141.147799,"zip":"9895507"},{"town":"若柳","koaza":"川北東若柳","lat":38.771184,"lng":141.150335,"zip":"9895507"},{"town":"若柳","koaza":"川北南砂押","lat":38.776317,"lng":141.145914,"zip":"9895507"},{"town":"若柳","koaza":"川北下袋東","lat":38.774164,"lng":141.145013,"zip":"9895507"},{"town":"若柳","koaza":"川北","lat":38.754196,"lng":141.145364,"zip":"9895507"},{"town":"若柳","koaza":"川北二股","lat":38.753469,"lng":141.147149,"zip":"9895507"},{"town":"若柳","koaza":"川北川原","lat":38.755893,"lng":141.147301,"zip":"9895507"},{"town":"若柳武鎗","koaza":"西上土手","lat":38.780677,"lng":141.146279,"zip":"9895508"},{"town":"若柳","koaza":"川北荒町前","lat":38.773913,"lng":141.148056,"zip":"9895507"},{"town":"若柳","koaza":"川北原田","lat":38.770292,"lng":141.149713,"zip":"9895507"},{"town":"若柳","koaza":"川北荒町","lat":38.776358,"lng":141.150264,"zip":"9895507"},{"town":"若柳","koaza":"川北埣柳","lat":38.769832,"lng":141.151585,"zip":"9895507"},{"town":"若柳武鎗","koaza":"下土手ノ内","lat":38.778995,"lng":141.150872,"zip":"9895508"},{"town":"若柳","koaza":"川北一本柳","lat":38.769182,"lng":141.149952,"zip":"9895507"},{"town":"若柳","koaza":"川北鉄砲畔","lat":38.775024,"lng":141.151072,"zip":"9895507"},{"town":"若柳","koaza":"川北荒町東","lat":38.77611,"lng":141.153647,"zip":"9895507"},{"town":"若柳","koaza":"川北仲沖","lat":38.768607,"lng":141.153243,"zip":"9895507"},{"town":"若柳武鎗","koaza":"南下土手","lat":38.777694,"lng":141.152851,"zip":"9895508"},{"town":"若柳武鎗","koaza":"北下土手","lat":38.780556,"lng":141.154441,"zip":"9895508"},{"town":"金成","koaza":"姉歯滝ノ沢","lat":38.784445,"lng":141.05165,"zip":"9894807"},{"town":"志波姫伊豆野","koaza":"芝の脇東","lat":38.771217,"lng":141.111643,"zip":"9895603"},{"town":"志波姫南郷","koaza":"西風","lat":38.738493,"lng":141.072358,"zip":"9895611"},{"town":"志波姫南郷","koaza":"山中","lat":38.742302,"lng":141.069729,"zip":"9895611"},{"town":"志波姫八樟","koaza":"渋","lat":38.740876,"lng":141.057606,"zip":"9895622"},{"town":"志波姫沼崎","koaza":"境原","lat":38.752084,"lng":141.072478,"zip":"9895615"},{"town":"栗駒稲屋敷","koaza":"牡丹","lat":38.816918,"lng":140.978093,"zip":"9895341"},{"town":"若柳","koaza":"大林西干刈","lat":38.788976,"lng":141.09686,"zip":"9895507"},{"town":"若柳","koaza":"大林西寺浦","lat":38.789961,"lng":141.094732,"zip":"9895507"}]