[{"town":"寿町","koaza":"","lat":38.441009,"lng":141.442969,"zip":"9862200"},{"town":"黄金町","koaza":"","lat":38.441906,"lng":141.44482,"zip":"9862200"},{"town":"笠貝島","koaza":"","lat":38.423259,"lng":141.594015,"zip":"9862200"},{"town":"桜ケ丘","koaza":"","lat":38.439085,"lng":141.443406,"zip":"9862244"},{"town":"二股島","koaza":"","lat":38.404361,"lng":141.552868,"zip":"9862200"},{"town":"旭が丘二丁目","koaza":"","lat":38.434218,"lng":141.430687,"zip":"9862251"},{"town":"旭が丘一丁目","koaza":"","lat":38.436124,"lng":141.431749,"zip":"9862251"},{"town":"平島","koaza":"","lat":38.402195,"lng":141.581559,"zip":"9862200"},{"town":"清水町","koaza":"","lat":38.453311,"lng":141.443946,"zip":"9862200"},{"town":"足島","koaza":"","lat":38.388691,"lng":141.603485,"zip":"9862200"},{"town":"江島","koaza":"","lat":38.399273,"lng":141.593873,"zip":"9862212"},{"town":"竹浦","koaza":"","lat":38.442768,"lng":141.485506,"zip":"9862203"},{"town":"宮ケ崎","koaza":"","lat":38.451361,"lng":141.452412,"zip":"9862282"},{"town":"飯子浜","koaza":"","lat":38.398472,"lng":141.483811,"zip":"9862222"},{"town":"桐ケ崎","koaza":"","lat":38.444808,"lng":141.475815,"zip":"9862204"},{"town":"鷲神浜","koaza":"","lat":38.437692,"lng":141.441898,"zip":"9862243"},{"town":"大石原浜","koaza":"","lat":38.39861,"lng":141.458726,"zip":"9862224"},{"town":"小乗浜","koaza":"","lat":38.430702,"lng":141.449023,"zip":"9862242"},{"town":"野々浜","koaza":"","lat":38.391917,"lng":141.468566,"zip":"9862223"},{"town":"石浜","koaza":"","lat":38.448173,"lng":141.463317,"zip":"9862281"},{"town":"指ケ浜","koaza":"","lat":38.475618,"lng":141.484359,"zip":"9862201"},{"town":"塚浜","koaza":"","lat":38.402437,"lng":141.497301,"zip":"9862221"},{"town":"尾浦","koaza":"","lat":38.45307,"lng":141.486708,"zip":"9862202"},{"town":"出島","koaza":"","lat":38.450909,"lng":141.523646,"zip":"9862211"},{"town":"横浦","koaza":"","lat":38.412626,"lng":141.463872,"zip":"9862225"},{"town":"高白浜","koaza":"","lat":38.423478,"lng":141.462197,"zip":"9862226"},{"town":"針浜","koaza":"","lat":38.422396,"lng":141.423583,"zip":"9862232"},{"town":"御前浜","koaza":"","lat":38.472498,"lng":141.465177,"zip":"9862205"},{"town":"浦宿浜","koaza":"","lat":38.449321,"lng":141.41433,"zip":"9862231"},{"town":"女川浜","koaza":"","lat":38.462597,"lng":141.429435,"zip":"9862261"},{"town":"浦宿浜","koaza":"大沢","lat":38.439178,"lng":141.410664,"zip":"9862231"},{"town":"浦宿浜","koaza":"折下","lat":38.437309,"lng":141.41089,"zip":"9862231"},{"town":"浦宿浜","koaza":"寄木","lat":38.434202,"lng":141.412982,"zip":"9862231"},{"town":"浦宿浜","koaza":"浦宿","lat":38.436088,"lng":141.422601,"zip":"9862231"},{"town":"針浜","koaza":"針浜","lat":38.429206,"lng":141.426453,"zip":"9862232"},{"town":"針浜","koaza":"浜中","lat":38.425331,"lng":141.425872,"zip":"9862232"},{"town":"浦宿浜","koaza":"原","lat":38.438775,"lng":141.426747,"zip":"9862231"},{"town":"浦宿浜","koaza":"浜田","lat":38.4371,"lng":141.425703,"zip":"9862231"},{"town":"浦宿浜","koaza":"蓬田","lat":38.436211,"lng":141.426491,"zip":"9862231"},{"town":"浦宿浜","koaza":"小屋ノ口","lat":38.437716,"lng":141.428746,"zip":"9862231"},{"town":"浦宿浜","koaza":"石ノ田","lat":38.44274,"lng":141.432218,"zip":"9862231"},{"town":"浦宿浜","koaza":"門前","lat":38.440524,"lng":141.433829,"zip":"9862231"},{"town":"鷲神浜","koaza":"堀切","lat":38.440271,"lng":141.435611,"zip":"9862243"},{"town":"鷲神浜","koaza":"荒立","lat":38.438903,"lng":141.438173,"zip":"9862243"},{"town":"女川浜","koaza":"日蕨","lat":38.454849,"lng":141.439836,"zip":"9862261"},{"town":"女川浜","koaza":"大原","lat":38.449326,"lng":141.439712,"zip":"9862261"},{"town":"女川浜","koaza":"新田","lat":38.458999,"lng":141.442981,"zip":"9862261"},{"town":"女川浜","koaza":"女川","lat":38.445233,"lng":141.444523,"zip":"9862261"},{"town":"鷲神浜","koaza":"鷲神","lat":38.440384,"lng":141.447168,"zip":"9862243"},{"town":"女川浜","koaza":"北伊勢","lat":38.449904,"lng":141.447657,"zip":"9862261"},{"town":"女川浜","koaza":"伊勢","lat":38.448792,"lng":141.447976,"zip":"9862261"},{"town":"宮ケ崎","koaza":"宮ケ崎","lat":38.447147,"lng":141.453309,"zip":"9862282"},{"town":"石浜","koaza":"高森","lat":38.448853,"lng":141.457755,"zip":"9862281"},{"town":"高白浜","koaza":"高白","lat":38.424015,"lng":141.461694,"zip":"9862226"},{"town":"石浜","koaza":"石浜","lat":38.452053,"lng":141.467344,"zip":"9862281"},{"town":"桐ケ崎","koaza":"桐ケ崎","lat":38.440818,"lng":141.478204,"zip":"9862204"},{"town":"鷲神浜","koaza":"堀切山","lat":38.441921,"lng":141.444052,"zip":"9862243"},{"town":"鷲神浜","koaza":"向山","lat":38.437233,"lng":141.446668,"zip":"9862243"},{"town":"鷲神浜","koaza":"内山","lat":38.437835,"lng":141.444236,"zip":"9862243"},{"town":"鷲神浜","koaza":"丸山","lat":38.439974,"lng":141.43904,"zip":"9862243"},{"town":"鷲神浜","koaza":"大道","lat":38.441307,"lng":141.43857,"zip":"9862243"},{"town":"鷲神浜","koaza":"洗","lat":38.440356,"lng":141.442347,"zip":"9862243"},{"town":"浦宿浜","koaza":"安住","lat":38.438331,"lng":141.404636,"zip":"9862231"},{"town":"浦宿浜","koaza":"篠浜山","lat":38.445664,"lng":141.408334,"zip":"9862231"},{"town":"浦宿浜","koaza":"供養","lat":38.433899,"lng":141.412134,"zip":"9862231"},{"town":"浦宿浜","koaza":"天王","lat":38.435847,"lng":141.409729,"zip":"9862231"},{"town":"浦宿浜","koaza":"三郎浜","lat":38.43597,"lng":141.415163,"zip":"9862231"},{"town":"浦宿浜","koaza":"袖山","lat":38.434301,"lng":141.424985,"zip":"9862231"},{"town":"浦宿浜","koaza":"外山","lat":38.434618,"lng":141.426674,"zip":"9862231"},{"town":"針浜","koaza":"猪落","lat":38.415247,"lng":141.419089,"zip":"9862232"},{"town":"針浜","koaza":"向山","lat":38.424396,"lng":141.4281,"zip":"9862232"},{"town":"針浜","koaza":"唐松","lat":38.422808,"lng":141.410461,"zip":"9862232"},{"town":"浦宿浜","koaza":"尾田峯","lat":38.443535,"lng":141.419475,"zip":"9862231"},{"town":"浦宿浜","koaza":"十二神","lat":38.438194,"lng":141.430069,"zip":"9862231"},{"town":"女川浜","koaza":"川尻","lat":38.453168,"lng":141.447538,"zip":"9862261"},{"town":"宮ケ崎","koaza":"川尻","lat":38.446959,"lng":141.449195,"zip":"9862282"},{"town":"石浜","koaza":"七曲","lat":38.447915,"lng":141.463212,"zip":"9862281"},{"town":"石浜","koaza":"崎山","lat":38.446587,"lng":141.468815,"zip":"9862281"},{"town":"女川浜","koaza":"東伊勢","lat":38.448698,"lng":141.449357,"zip":"9862261"},{"town":"鷲神浜","koaza":"向","lat":38.440708,"lng":141.443214,"zip":"9862243"},{"town":"鷲神浜","koaza":"斉ノ神","lat":38.440092,"lng":141.441269,"zip":"9862243"},{"town":"小乗浜","koaza":"小乗","lat":38.436517,"lng":141.452773,"zip":"9862242"},{"town":"高白浜","koaza":"尾畑","lat":38.423084,"lng":141.460973,"zip":"9862226"},{"town":"小乗浜","koaza":"向","lat":38.436357,"lng":141.454612,"zip":"9862242"},{"town":"高白浜","koaza":"崎山","lat":38.431454,"lng":141.462452,"zip":"9862226"},{"town":"高白浜","koaza":"向山","lat":38.422891,"lng":141.461996,"zip":"9862226"},{"town":"高白浜","koaza":"根浜","lat":38.422978,"lng":141.465973,"zip":"9862226"}]