[{"town":"南方町二ツ橋","koaza":"","lat":38.675532,"lng":141.189104,"zip":"9870403"},{"town":"南方町鶴江","koaza":"","lat":38.683045,"lng":141.178638,"zip":"9870403"},{"town":"南方町茶臼森","koaza":"","lat":38.661149,"lng":141.150823,"zip":"9870442"},{"town":"南方町風張","koaza":"","lat":38.656215,"lng":141.180123,"zip":"9870424"},{"town":"南方町砥落","koaza":"","lat":38.647858,"lng":141.170631,"zip":"9870425"},{"town":"南方町上ケ戸","koaza":"","lat":38.67181,"lng":141.193417,"zip":"9870412"},{"town":"南方町沢田待井","koaza":"","lat":38.672405,"lng":141.16397,"zip":"9870402"},{"town":"南方町内鰐丸","koaza":"","lat":38.659365,"lng":141.173981,"zip":"9870414"},{"town":"南方町堂地前","koaza":"","lat":38.661483,"lng":141.192784,"zip":"9870423"},{"town":"南方町一網","koaza":"","lat":38.672928,"lng":141.14647,"zip":"9870443"},{"town":"南方町鶴代","koaza":"","lat":38.673669,"lng":141.172273,"zip":"9870402"},{"town":"南方町梨木待井","koaza":"","lat":38.674054,"lng":141.165109,"zip":"9870500"},{"town":"南方町大涌戸","koaza":"","lat":38.667742,"lng":141.199047,"zip":"9870412"},{"town":"南方町仕込","koaza":"","lat":38.661832,"lng":141.193794,"zip":"9870421"},{"town":"南方町原浦","koaza":"","lat":38.663846,"lng":141.172457,"zip":"9870413"},{"town":"豊里町元上谷地","koaza":"","lat":38.5767,"lng":141.200488,"zip":"9870500"},{"town":"南方町下原前","koaza":"","lat":38.664888,"lng":141.182279,"zip":"9870413"},{"town":"南方町山成浦","koaza":"","lat":38.660668,"lng":141.167501,"zip":"9870414"},{"town":"豊里町十丁田","koaza":"","lat":38.593816,"lng":141.22758,"zip":"9870371"},{"town":"豊里町内町浦","koaza":"","lat":38.575598,"lng":141.236313,"zip":"9870373"},{"town":"南方町大村","koaza":"","lat":38.660223,"lng":141.16827,"zip":"9870414"},{"town":"南方町中沼崎","koaza":"","lat":38.648537,"lng":141.096508,"zip":"9870500"},{"town":"南方町上砥落","koaza":"","lat":38.648084,"lng":141.176786,"zip":"9870425"},{"town":"南方町成田","koaza":"","lat":38.642438,"lng":141.149173,"zip":"9870426"},{"town":"南方町天沼","koaza":"","lat":38.671335,"lng":141.196763,"zip":"9870411"},{"town":"南方町下砥落","koaza":"","lat":38.646541,"lng":141.169205,"zip":"9870425"},{"town":"豊里町南町浦","koaza":"","lat":38.576812,"lng":141.239096,"zip":"9870368"},{"town":"南方町原屋敷","koaza":"","lat":38.665567,"lng":141.17668,"zip":"9870413"},{"town":"南方町真ケ沼","koaza":"","lat":38.664265,"lng":141.193035,"zip":"9870415"},{"town":"豊里町福沢","koaza":"","lat":38.610028,"lng":141.286479,"zip":"9870345"},{"town":"石越町","koaza":"","lat":38.730047,"lng":141.200318,"zip":"9894701"},{"town":"南方町新尼池下","koaza":"","lat":38.658725,"lng":141.122387,"zip":"9870500"},{"town":"南方町大嶽山","koaza":"","lat":38.658346,"lng":141.18729,"zip":"9870423"},{"town":"南方町畑岡下","koaza":"","lat":38.653776,"lng":141.117944,"zip":"9870432"},{"town":"南方町樟土手外","koaza":"","lat":38.648883,"lng":141.143698,"zip":"9870426"},{"town":"南方町原","koaza":"","lat":38.665771,"lng":141.180696,"zip":"9870413"},{"town":"南方町新二網","koaza":"","lat":38.670299,"lng":141.146363,"zip":"9870500"},{"town":"南方町高石前","koaza":"","lat":38.657564,"lng":141.146488,"zip":"9870500"},{"town":"南方町中原","koaza":"","lat":38.664789,"lng":141.176757,"zip":"9870413"},{"town":"南方町室田","koaza":"","lat":38.648157,"lng":141.195648,"zip":"9870422"},{"town":"南方町茶臼森前","koaza":"","lat":38.660094,"lng":141.152561,"zip":"9870442"},{"town":"南方町間内下","koaza":"","lat":38.656512,"lng":141.101614,"zip":"9870500"},{"town":"南方町柳沢前","koaza":"","lat":38.652461,"lng":141.098728,"zip":"9870444"},{"town":"南方町瀬ノ淵","koaza":"","lat":38.67336,"lng":141.193243,"zip":"9870411"},{"town":"南方町ぜん荷前","koaza":"","lat":38.654048,"lng":141.187911,"zip":"9870423"},{"town":"南方町松葉","koaza":"","lat":38.656822,"lng":141.17498,"zip":"9870414"},{"town":"南方町上原","koaza":"","lat":38.662971,"lng":141.17202,"zip":"9870413"},{"town":"豊里町新剣先","koaza":"","lat":38.562174,"lng":141.225986,"zip":"9870500"},{"town":"南方町大嶽","koaza":"","lat":38.654902,"lng":141.185936,"zip":"9870423"},{"town":"南方町小山","koaza":"","lat":38.676789,"lng":141.184849,"zip":"9870403"},{"town":"南方町横代","koaza":"","lat":38.665417,"lng":141.107973,"zip":"9870444"},{"town":"南方町本郷大嶽","koaza":"","lat":38.655445,"lng":141.188239,"zip":"9870423"},{"town":"南方町瀬川","koaza":"","lat":38.651627,"lng":141.205602,"zip":"9870422"},{"town":"豊里町葭立","koaza":"","lat":38.581831,"lng":141.236467,"zip":"9870500"},{"town":"南方町大門","koaza":"","lat":38.663946,"lng":141.187221,"zip":"9870412"},{"town":"南方町十二山","koaza":"","lat":38.643274,"lng":141.189114,"zip":"9870425"},{"town":"南方町堀切","koaza":"","lat":38.661073,"lng":141.188327,"zip":"9870423"},{"town":"南方町中高石浦","koaza":"","lat":38.661641,"lng":141.150281,"zip":"9870442"},{"town":"豊里町内一番江","koaza":"","lat":38.571992,"lng":141.218457,"zip":"9870377"},{"town":"南方町柳沢","koaza":"","lat":38.65427,"lng":141.096702,"zip":"9870444"},{"town":"南方町上堤","koaza":"","lat":38.663652,"lng":141.118211,"zip":"9870500"},{"town":"南方町新寺袋","koaza":"","lat":38.672704,"lng":141.201862,"zip":"9870500"},{"town":"南方町沼崎下","koaza":"","lat":38.648515,"lng":141.09877,"zip":"9870500"},{"town":"南方町大村前","koaza":"","lat":38.661881,"lng":141.171386,"zip":"9870414"},{"town":"南方町館","koaza":"","lat":38.658582,"lng":141.188806,"zip":"9870423"},{"town":"南方町中高石","koaza":"","lat":38.660141,"lng":141.146842,"zip":"9870442"},{"town":"南方町米袋浦","koaza":"","lat":38.6466,"lng":141.16649,"zip":"9870425"},{"town":"南方町室田浦","koaza":"","lat":38.650475,"lng":141.196066,"zip":"9870500"},{"town":"豊里町沼田","koaza":"","lat":38.599879,"lng":141.235204,"zip":"9870354"},{"town":"南方町大西","koaza":"","lat":38.659409,"lng":141.137718,"zip":"9870443"},{"town":"豊里町横町","koaza":"","lat":38.583499,"lng":141.248431,"zip":"9870363"},{"town":"豊里町東二番江","koaza":"","lat":38.574588,"lng":141.219985,"zip":"9870500"},{"town":"豊里町新町","koaza":"","lat":38.584481,"lng":141.252097,"zip":"9870365"},{"town":"南方町外浦","koaza":"","lat":38.661188,"lng":141.139986,"zip":"9870443"},{"town":"南方町松葉前","koaza":"","lat":38.659058,"lng":141.175514,"zip":"9870414"},{"town":"豊里町下古屋","koaza":"","lat":38.584479,"lng":141.25869,"zip":"9870364"},{"town":"南方町上沼崎","koaza":"","lat":38.649354,"lng":141.091074,"zip":"9870500"},{"town":"中田町宝江森","koaza":"","lat":38.679937,"lng":141.235627,"zip":"9870623"},{"town":"南方町堤田","koaza":"","lat":38.655941,"lng":141.119631,"zip":"9870432"},{"town":"南方町松葉表","koaza":"","lat":38.653144,"lng":141.169718,"zip":"9870414"},{"town":"南方町大平前","koaza":"","lat":38.650741,"lng":141.10675,"zip":"9870433"},{"town":"南方町長根","koaza":"","lat":38.661211,"lng":141.131751,"zip":"9870443"},{"town":"南方町間内前","koaza":"","lat":38.659833,"lng":141.099969,"zip":"9870444"},{"town":"南方町樟","koaza":"","lat":38.650469,"lng":141.144953,"zip":"9870426"},{"town":"南方町西山成","koaza":"","lat":38.661094,"lng":141.155035,"zip":"9870401"},{"town":"豊里町北谷地","koaza":"","lat":38.588599,"lng":141.234023,"zip":"9870500"},{"town":"南方町新大村前","koaza":"","lat":38.659684,"lng":141.170227,"zip":"9870500"},{"town":"南方町板倉","koaza":"","lat":38.67568,"lng":141.167583,"zip":"9870402"},{"town":"南方町田中浦","koaza":"","lat":38.646599,"lng":141.172936,"zip":"9870425"},{"town":"南方町八の森","koaza":"","lat":38.658581,"lng":141.157313,"zip":"9870401"},{"town":"豊里町加々巻","koaza":"","lat":38.590755,"lng":141.263504,"zip":"9870358"},{"town":"南方町中山","koaza":"","lat":38.674974,"lng":141.177521,"zip":"9870402"},{"town":"豊里町小巻","koaza":"","lat":38.593211,"lng":141.264228,"zip":"9870358"},{"town":"南方町新中山","koaza":"","lat":38.67826,"lng":141.179831,"zip":"9870405"},{"town":"南方町米袋","koaza":"","lat":38.646207,"lng":141.162391,"zip":"9870425"},{"town":"豊里町浦軒","koaza":"","lat":38.582105,"lng":141.245713,"zip":"9870366"},{"town":"南方町鰐丸","koaza":"","lat":38.658129,"lng":141.171982,"zip":"9870414"},{"town":"南方町高石","koaza":"","lat":38.659611,"lng":141.149672,"zip":"9870401"},{"town":"豊里町土手下","koaza":"","lat":38.586477,"lng":141.256007,"zip":"9870364"},{"town":"南方町山成前","koaza":"","lat":38.656903,"lng":141.15131,"zip":"9870401"},{"town":"南方町松島屋敷","koaza":"","lat":38.669626,"lng":141.166152,"zip":"9870402"},{"town":"南方町内ノ目","koaza":"","lat":38.6773,"lng":141.190486,"zip":"9870403"},{"town":"南方町一ノ曲","koaza":"","lat":38.644029,"lng":141.128687,"zip":"9870431"},{"town":"南方町新田","koaza":"","lat":38.649165,"lng":141.198826,"zip":"9870422"},{"town":"豊里町下屋浦","koaza":"","lat":38.5799,"lng":141.23908,"zip":"9870366"},{"town":"南方町寺袋","koaza":"","lat":38.674895,"lng":141.200487,"zip":"9870411"},{"town":"豊里町下九","koaza":"","lat":38.593669,"lng":141.210835,"zip":"9870385"},{"town":"豊里町八反","koaza":"","lat":38.588254,"lng":141.258182,"zip":"9870359"},{"town":"南方町川前","koaza":"","lat":38.650733,"lng":141.210853,"zip":"9870422"},{"town":"南方町新須崎","koaza":"","lat":38.674911,"lng":141.130062,"zip":"9870500"},{"town":"南方町尼池下","koaza":"","lat":38.661013,"lng":141.120496,"zip":"9870500"},{"town":"豊里町東細沼","koaza":"","lat":38.56576,"lng":141.229518,"zip":"9870500"},{"town":"豊里町上町裏","koaza":"","lat":38.584422,"lng":141.249503,"zip":"9870362"},{"town":"南方町河面","koaza":"","lat":38.67798,"lng":141.187642,"zip":"9870403"},{"town":"南方町大袋浦","koaza":"","lat":38.648856,"lng":141.146687,"zip":"9870426"},{"town":"南方町新田前","koaza":"","lat":38.643655,"lng":141.19748,"zip":"9870500"},{"town":"豊里町芝崎","koaza":"","lat":38.590833,"lng":141.260419,"zip":"9870500"},{"town":"豊里町久寿田前","koaza":"","lat":38.606981,"lng":141.231477,"zip":"9870351"},{"town":"南方町戸根屋敷","koaza":"","lat":38.669254,"lng":141.160048,"zip":"9870402"},{"town":"豊里町北細沼","koaza":"","lat":38.57074,"lng":141.230122,"zip":"9870500"},{"town":"豊里町新長前","koaza":"","lat":38.5733,"lng":141.207662,"zip":"9870381"},{"town":"南方町大袋","koaza":"","lat":38.646036,"lng":141.147363,"zip":"9870426"},{"town":"豊里町大沢沼田","koaza":"","lat":38.607272,"lng":141.263867,"zip":"9870341"},{"town":"豊里町南待井下","koaza":"","lat":38.587388,"lng":141.240995,"zip":"9870500"},{"town":"南方町山崎","koaza":"","lat":38.648694,"lng":141.204378,"zip":"9870422"},{"town":"豊里町下葭立","koaza":"","lat":38.581088,"lng":141.232612,"zip":"9870500"},{"town":"南方町南大畑前","koaza":"","lat":38.646059,"lng":141.197731,"zip":"9870421"},{"town":"豊里町新加々巻","koaza":"","lat":38.588494,"lng":141.261864,"zip":"9870358"},{"town":"豊里町五反田","koaza":"","lat":38.585323,"lng":141.242163,"zip":"9870363"},{"town":"豊里町中沼田","koaza":"","lat":38.600371,"lng":141.244259,"zip":"9870354"},{"town":"南方町新十二山","koaza":"","lat":38.642564,"lng":141.192502,"zip":"9870500"},{"town":"豊里町切津","koaza":"","lat":38.57972,"lng":141.226689,"zip":"9870373"},{"town":"豊里町町浦","koaza":"","lat":38.578869,"lng":141.23246,"zip":"9870368"},{"town":"豊里町上下沼","koaza":"","lat":38.621801,"lng":141.284586,"zip":"9870500"},{"town":"豊里町内畑","koaza":"","lat":38.598997,"lng":141.209998,"zip":"9870385"},{"town":"南方町狼欠裏","koaza":"","lat":38.657694,"lng":141.126467,"zip":"9870500"},{"town":"南方町若狭前","koaza":"","lat":38.64395,"lng":141.162803,"zip":"9870426"},{"town":"南方町山成","koaza":"","lat":38.659683,"lng":141.16313,"zip":"9870401"},{"town":"豊里町上沼田","koaza":"","lat":38.603882,"lng":141.240769,"zip":"9870354"},{"town":"豊里町沢尻","koaza":"","lat":38.618838,"lng":141.279902,"zip":"9870343"},{"town":"豊里町外四番江","koaza":"","lat":38.579251,"lng":141.207497,"zip":"9870383"},{"town":"南方町細川浦","koaza":"","lat":38.653297,"lng":141.178059,"zip":"9870424"},{"town":"豊里町南細沼","koaza":"","lat":38.55846,"lng":141.231187,"zip":"9870500"},{"town":"南方町新板倉後","koaza":"","lat":38.67752,"lng":141.165972,"zip":"9870500"},{"town":"南方町狼掛","koaza":"","lat":38.655884,"lng":141.124579,"zip":"9870432"},{"town":"豊里町西細沼","koaza":"","lat":38.563947,"lng":141.226595,"zip":"9870500"},{"town":"豊里町西七番江","koaza":"","lat":38.588282,"lng":141.214764,"zip":"9870500"},{"town":"豊里町芝下","koaza":"","lat":38.601906,"lng":141.262708,"zip":"9870356"},{"town":"南方町新堂地前","koaza":"","lat":38.658475,"lng":141.193294,"zip":"9870500"},{"town":"南方町細川","koaza":"","lat":38.658756,"lng":141.180166,"zip":"9870424"},{"town":"豊里町西六番江","koaza":"","lat":38.585506,"lng":141.214723,"zip":"9870500"},{"town":"豊里町東三番江","koaza":"","lat":38.576835,"lng":141.219812,"zip":"9870500"},{"town":"南方町南沢","koaza":"","lat":38.655604,"lng":141.183374,"zip":"9870424"},{"town":"南方町米袋前","koaza":"","lat":38.642506,"lng":141.165761,"zip":"9870425"},{"town":"南方町苔野谷地","koaza":"","lat":38.662012,"lng":141.134584,"zip":"9870443"},{"town":"豊里町外三番江","koaza":"","lat":38.57969,"lng":141.214614,"zip":"9870383"},{"town":"豊里町山根前","koaza":"","lat":38.614127,"lng":141.279088,"zip":"9870342"},{"town":"南方町新待井","koaza":"","lat":38.678152,"lng":141.175309,"zip":"9870500"},{"town":"南方町蛇沼","koaza":"","lat":38.648641,"lng":141.200848,"zip":"9870422"},{"town":"南方町新成田","koaza":"","lat":38.6432,"lng":141.152272,"zip":"9870500"},{"town":"南方町大畑","koaza":"","lat":38.659861,"lng":141.203964,"zip":"9870421"},{"town":"豊里町西八番江","koaza":"","lat":38.591109,"lng":141.214809,"zip":"9870500"},{"town":"豊里町南前田","koaza":"","lat":38.59491,"lng":141.224776,"zip":"9870500"},{"town":"南方町大阪前","koaza":"","lat":38.655905,"lng":141.137236,"zip":"9870500"},{"town":"豊里町南切津","koaza":"","lat":38.577347,"lng":141.226108,"zip":"9870373"},{"town":"南方町青島屋敷","koaza":"","lat":38.670854,"lng":141.151107,"zip":"9870441"},{"town":"南方町間内","koaza":"","lat":38.660264,"lng":141.09805,"zip":"9870444"},{"town":"豊里町白鳥浦","koaza":"","lat":38.61064,"lng":141.277726,"zip":"9870500"},{"town":"豊里町境沢","koaza":"","lat":38.627562,"lng":141.285274,"zip":"9870344"},{"town":"南方町大上","koaza":"","lat":38.664264,"lng":141.121873,"zip":"9870444"},{"town":"南方町新真ケ沼","koaza":"","lat":38.66404,"lng":141.19071,"zip":"9870500"},{"town":"南方町宿畑","koaza":"","lat":38.664064,"lng":141.185351,"zip":"9870413"},{"town":"南方町後高石","koaza":"","lat":38.660862,"lng":141.143983,"zip":"9870442"},{"town":"豊里町東二ツ屋","koaza":"","lat":38.572704,"lng":141.22642,"zip":"9870374"},{"town":"豊里町北待井下","koaza":"","lat":38.570235,"lng":141.233054,"zip":"9870500"},{"town":"豊里町長根前","koaza":"","lat":38.591196,"lng":141.256398,"zip":"9870500"},{"town":"豊里町鏡形","koaza":"","lat":38.568654,"lng":141.219823,"zip":"9870378"},{"town":"南方町畑岡","koaza":"","lat":38.656176,"lng":141.116124,"zip":"9870432"},{"town":"南方町鴻ノ木","koaza":"","lat":38.672765,"lng":141.18874,"zip":"9870403"},{"town":"南方町新作田","koaza":"","lat":38.680677,"lng":141.16358,"zip":"9870500"},{"town":"豊里町田待","koaza":"","lat":38.618308,"lng":141.283414,"zip":"9870500"},{"town":"南方町館浦","koaza":"","lat":38.659983,"lng":141.178307,"zip":"9870424"},{"town":"南方町青笹","koaza":"","lat":38.656393,"lng":141.112942,"zip":"9870432"},{"town":"豊里町東待井下","koaza":"","lat":38.587595,"lng":141.246087,"zip":"9870362"},{"town":"豊里町内田","koaza":"","lat":38.593762,"lng":141.204681,"zip":"9870385"},{"town":"豊里町上屋浦","koaza":"","lat":38.582422,"lng":141.240413,"zip":"9870366"},{"town":"南方町新角欠前","koaza":"","lat":38.657125,"lng":141.110685,"zip":"9870500"},{"town":"南方町新平貝","koaza":"","lat":38.666994,"lng":141.130895,"zip":"9870500"},{"town":"南方町新内袋","koaza":"","lat":38.664819,"lng":141.202097,"zip":"9870500"},{"town":"南方町新沢田","koaza":"","lat":38.671813,"lng":141.165841,"zip":"9870402"},{"town":"南方町梶沼","koaza":"","lat":38.644289,"lng":141.18395,"zip":"9870425"},{"town":"豊里町東四番江","koaza":"","lat":38.579637,"lng":141.221029,"zip":"9870500"},{"town":"南方町梶沼川前","koaza":"","lat":38.643886,"lng":141.178415,"zip":"9870425"},{"town":"豊里町寿崎前","koaza":"","lat":38.590678,"lng":141.237835,"zip":"9870500"},{"town":"南方町王塚","koaza":"","lat":38.674616,"lng":141.181003,"zip":"9870403"},{"town":"豊里町保手","koaza":"","lat":38.599957,"lng":141.251801,"zip":"9870355"},{"town":"豊里町新細沼","koaza":"","lat":38.56407,"lng":141.231614,"zip":"9870376"},{"town":"南方町峯前","koaza":"","lat":38.669054,"lng":141.18313,"zip":"9870412"},{"town":"南方町東川前","koaza":"","lat":38.647583,"lng":141.206425,"zip":"9870422"},{"town":"南方町原前","koaza":"","lat":38.662944,"lng":141.177238,"zip":"9870413"},{"town":"南方町沢田屋敷","koaza":"","lat":38.670974,"lng":141.159211,"zip":"9870402"},{"town":"南方町新沼崎下","koaza":"","lat":38.65032,"lng":141.102209,"zip":"9870500"},{"town":"豊里町白鳥前","koaza":"","lat":38.606504,"lng":141.274005,"zip":"9870346"},{"town":"南方町後屋敷待井","koaza":"","lat":38.675071,"lng":141.17422,"zip":"9870402"},{"town":"豊里町外五番江","koaza":"","lat":38.582571,"lng":141.208061,"zip":"9870383"},{"town":"南方町南細川","koaza":"","lat":38.660006,"lng":141.18429,"zip":"9870424"},{"town":"豊里町外七番江","koaza":"","lat":38.588234,"lng":141.207462,"zip":"9870383"},{"town":"南方町新大袋浦","koaza":"","lat":38.649356,"lng":141.150008,"zip":"9870500"},{"town":"豊里町鳥越","koaza":"","lat":38.59766,"lng":141.254038,"zip":"9870357"},{"town":"南方町新島前","koaza":"","lat":38.682703,"lng":141.182638,"zip":"9870404"},{"town":"豊里町外一番江","koaza":"","lat":38.572141,"lng":141.215148,"zip":"9870377"},{"town":"豊里町大沢谷岐","koaza":"","lat":38.603853,"lng":141.266447,"zip":"9870341"},{"town":"豊里町十五貫谷地","koaza":"","lat":38.593674,"lng":141.201555,"zip":"9870384"},{"town":"豊里町迫","koaza":"","lat":38.619812,"lng":141.291295,"zip":"9870344"},{"town":"豊里町唐崎","koaza":"","lat":38.599175,"lng":141.231942,"zip":"9870371"},{"town":"南方町新川前","koaza":"","lat":38.643474,"lng":141.202073,"zip":"9870500"},{"town":"豊里町十二沢","koaza":"","lat":38.610171,"lng":141.271655,"zip":"9870341"},{"town":"南方町西山成前","koaza":"","lat":38.662419,"lng":141.158645,"zip":"9870401"},{"town":"豊里町長前","koaza":"","lat":38.571175,"lng":141.211264,"zip":"9870381"},{"town":"南方町沢田前","koaza":"","lat":38.667318,"lng":141.164072,"zip":"9870402"},{"town":"豊里町外六番江","koaza":"","lat":38.585596,"lng":141.207743,"zip":"9870383"},{"town":"豊里町小口前","koaza":"","lat":38.588158,"lng":141.249858,"zip":"9870362"},{"town":"南方町新養賢堂","koaza":"","lat":38.646497,"lng":141.192572,"zip":"9870500"},{"town":"南方町堂地","koaza":"","lat":38.659006,"lng":141.197256,"zip":"9870423"},{"town":"南方町板ケ沢","koaza":"","lat":38.665146,"lng":141.125469,"zip":"9870443"},{"town":"南方町下新山","koaza":"","lat":38.661716,"lng":141.102615,"zip":"9870444"},{"town":"南方町新若狭前","koaza":"","lat":38.645208,"lng":141.158463,"zip":"9870500"},{"town":"南方町新松葉表","koaza":"","lat":38.653704,"lng":141.173873,"zip":"9870500"},{"town":"豊里町土府","koaza":"","lat":38.612539,"lng":141.282631,"zip":"9870500"},{"town":"豊里町前田","koaza":"","lat":38.59909,"lng":141.224929,"zip":"9870372"},{"town":"南方町尼池","koaza":"","lat":38.661311,"lng":141.116572,"zip":"9870444"},{"town":"南方町新高石前","koaza":"","lat":38.654555,"lng":141.14935,"zip":"9870401"},{"town":"南方町下平貝","koaza":"","lat":38.672075,"lng":141.124796,"zip":"9870445"},{"town":"豊里町外八番江","koaza":"","lat":38.591065,"lng":141.207204,"zip":"9870383"},{"town":"豊里町下沼田","koaza":"","lat":38.592073,"lng":141.242691,"zip":"9870354"},{"town":"南方町大森前","koaza":"","lat":38.659539,"lng":141.106668,"zip":"9870444"},{"town":"豊里町西前田","koaza":"","lat":38.594822,"lng":141.218748,"zip":"9870372"},{"town":"豊里町愛宕下","koaza":"","lat":38.602065,"lng":141.235018,"zip":"9870500"},{"town":"豊里町下大崎","koaza":"","lat":38.582794,"lng":141.221349,"zip":"9870500"},{"town":"南方町沼崎前","koaza":"","lat":38.644199,"lng":141.10034,"zip":"9870433"},{"town":"豊里町佐野","koaza":"","lat":38.616316,"lng":141.293711,"zip":"9870344"},{"town":"豊里町十五貫","koaza":"","lat":38.597902,"lng":141.205857,"zip":"9870384"},{"town":"南方町新鶴代","koaza":"","lat":38.672101,"lng":141.174182,"zip":"9870500"},{"town":"南方町銭金壇","koaza":"","lat":38.664112,"lng":141.112467,"zip":"9870445"},{"town":"南方町新大嶽前","koaza":"","lat":38.652302,"lng":141.182923,"zip":"9870500"},{"town":"豊里町白鳥","koaza":"","lat":38.608046,"lng":141.279269,"zip":"9870346"},{"town":"南方町大平","koaza":"","lat":38.655027,"lng":141.106208,"zip":"9870433"},{"town":"南方町新高石浦","koaza":"","lat":38.663697,"lng":141.152384,"zip":"9870446"},{"town":"南方町南大畑浦","koaza":"","lat":38.653204,"lng":141.196868,"zip":"9870500"},{"town":"豊里町七ツ塚","koaza":"","lat":38.574495,"lng":141.237831,"zip":"9870368"},{"town":"南方町新大埣","koaza":"","lat":38.63644,"lng":141.124759,"zip":"9870500"},{"town":"豊里町剣先","koaza":"","lat":38.554487,"lng":141.2302,"zip":"9870379"},{"town":"南方町長者原","koaza":"","lat":38.644579,"lng":141.094223,"zip":"9870433"},{"town":"南方町峯","koaza":"","lat":38.672521,"lng":141.184486,"zip":"9870403"},{"town":"豊里町外二番江","koaza":"","lat":38.577882,"lng":141.213283,"zip":"9870383"},{"town":"豊里町長根浦","koaza":"","lat":38.595826,"lng":141.262124,"zip":"9870358"},{"town":"豊里町丸木","koaza":"","lat":38.57554,"lng":141.205462,"zip":"9870500"},{"town":"南方町新表前","koaza":"","lat":38.65509,"lng":141.131533,"zip":"9870500"},{"town":"南方町新須崎前","koaza":"","lat":38.666018,"lng":141.141667,"zip":"9870500"},{"town":"南方町新畑岡下","koaza":"","lat":38.650253,"lng":141.118361,"zip":"9870432"},{"town":"南方町角欠前","koaza":"","lat":38.650151,"lng":141.112186,"zip":"9870444"},{"town":"南方町上平貝","koaza":"","lat":38.671755,"lng":141.120185,"zip":"9870445"},{"town":"豊里町細沼田","koaza":"","lat":38.569106,"lng":141.225396,"zip":"9870376"},{"town":"南方町烏田","koaza":"","lat":38.650887,"lng":141.190632,"zip":"9870423"},{"town":"南方町新亀代","koaza":"","lat":38.668805,"lng":141.17475,"zip":"9870500"},{"town":"南方町新青島前","koaza":"","lat":38.666709,"lng":141.152098,"zip":"9870441"},{"town":"南方町雷","koaza":"","lat":38.668986,"lng":141.190314,"zip":"9870412"},{"town":"豊里町大沢","koaza":"","lat":38.620588,"lng":141.249024,"zip":"9870341"},{"town":"豊里町大曲","koaza":"","lat":38.598989,"lng":141.229124,"zip":"9870371"},{"town":"南方町新井宿","koaza":"","lat":38.655818,"lng":141.207901,"zip":"9870421"},{"town":"豊里町蕪木","koaza":"","lat":38.592889,"lng":141.253654,"zip":"9870357"},{"town":"南方町新千間","koaza":"","lat":38.665016,"lng":141.131467,"zip":"9870500"},{"town":"豊里町二ツ屋","koaza":"","lat":38.574194,"lng":141.232487,"zip":"9870375"},{"town":"豊里町小谷地","koaza":"","lat":38.615607,"lng":141.288027,"zip":"9870343"},{"town":"豊里町昭和","koaza":"","lat":38.594353,"lng":141.247564,"zip":"9870354"},{"town":"南方町新仕込","koaza":"","lat":38.662677,"lng":141.197387,"zip":"9870500"},{"town":"南方町新川西","koaza":"","lat":38.675051,"lng":141.142139,"zip":"9870500"},{"town":"南方町新沢浦","koaza":"","lat":38.673438,"lng":141.158277,"zip":"9870500"},{"town":"南方町新長根下","koaza":"","lat":38.660563,"lng":141.126991,"zip":"9870447"},{"town":"南方町三代前","koaza":"","lat":38.667002,"lng":141.104423,"zip":"9870444"},{"town":"南方町横前","koaza":"","lat":38.653931,"lng":141.136916,"zip":"9870431"},{"town":"南方町新砥落","koaza":"","lat":38.649438,"lng":141.171436,"zip":"9870425"},{"town":"南方町新狼掛前","koaza":"","lat":38.651906,"lng":141.125108,"zip":"9870500"},{"town":"豊里町白鳥山","koaza":"","lat":38.610749,"lng":141.292235,"zip":"9870346"},{"town":"南方町実沢","koaza":"","lat":38.669105,"lng":141.112043,"zip":"9870444"},{"town":"豊里町寿崎","koaza":"","lat":38.598003,"lng":141.237934,"zip":"9870352"},{"town":"南方町新梶沼","koaza":"","lat":38.647566,"lng":141.183906,"zip":"9870500"},{"town":"豊里町後沢田","koaza":"","lat":38.601855,"lng":141.246862,"zip":"9870355"},{"town":"南方町翌沢","koaza":"","lat":38.669984,"lng":141.141593,"zip":"9870445"},{"town":"南方町新大畑前","koaza":"","lat":38.6545,"lng":141.201698,"zip":"9870422"},{"town":"南方町新山成浦","koaza":"","lat":38.663586,"lng":141.165539,"zip":"9870414"},{"town":"南方町新米袋浦","koaza":"","lat":38.648776,"lng":141.155689,"zip":"9870500"},{"town":"豊里町新田町","koaza":"","lat":38.579369,"lng":141.244237,"zip":"9870361"},{"town":"豊里町久寿田","koaza":"","lat":38.606963,"lng":141.23771,"zip":"9870351"},{"town":"南方町沼崎","koaza":"","lat":38.64599,"lng":141.105949,"zip":"9870433"},{"town":"豊里町杢沢","koaza":"","lat":38.603019,"lng":141.259656,"zip":"9870356"},{"town":"豊里町大椚","koaza":"","lat":38.612869,"lng":141.243992,"zip":"9870353"},{"town":"南方町中ノ口","koaza":"","lat":38.657888,"lng":141.09486,"zip":"9870433"},{"town":"豊里町川前","koaza":"","lat":38.584221,"lng":141.262469,"zip":"9870367"},{"town":"南方町大埣","koaza":"","lat":38.636849,"lng":141.116676,"zip":"9870431"},{"town":"南方町中須崎","koaza":"","lat":38.670426,"lng":141.132206,"zip":"9870445"},{"town":"豊里町中谷岐","koaza":"","lat":38.605314,"lng":141.287421,"zip":"9870345"},{"town":"南方町新鳩峯","koaza":"","lat":38.674681,"lng":141.151777,"zip":"9870441"},{"town":"南方町照井","koaza":"","lat":38.669674,"lng":141.196652,"zip":"9870412"},{"town":"南方町新一ノ曲","koaza":"","lat":38.648501,"lng":141.130845,"zip":"9870431"},{"town":"豊里町上谷地","koaza":"","lat":38.583041,"lng":141.199832,"zip":"9870382"},{"town":"南方町太田","koaza":"","lat":38.643497,"lng":141.117234,"zip":"9870431"},{"town":"南方町新山成前","koaza":"","lat":38.655244,"lng":141.162088,"zip":"9870500"},{"town":"豊里町平林","koaza":"","lat":38.609351,"lng":141.252283,"zip":"9870353"},{"town":"南方町薬師島屋敷","koaza":"","lat":38.685477,"lng":141.176543,"zip":"9870403"},{"town":"豊里町笑沢","koaza":"","lat":38.618974,"lng":141.257188,"zip":"9870353"},{"town":"南方町新野谷地","koaza":"","lat":38.62782,"lng":141.120873,"zip":"9870443"},{"town":"豊里町竹ノ沢","koaza":"","lat":38.618535,"lng":141.267498,"zip":"9870341"},{"town":"豊里町山根","koaza":"","lat":38.622106,"lng":141.275768,"zip":"9870342"},{"town":"登米町日野渡","koaza":"","lat":38.668584,"lng":141.271014,"zip":"9870704"},{"town":"中田町宝江黒沼","koaza":"","lat":38.703383,"lng":141.242053,"zip":"9870621"},{"town":"登米町寺池","koaza":"","lat":38.648041,"lng":141.275986,"zip":"9870702"},{"town":"迫町佐沼","koaza":"","lat":38.691871,"lng":141.201558,"zip":"9870511"},{"town":"迫町森","koaza":"","lat":38.67275,"lng":141.218859,"zip":"9870512"},{"town":"石越町北郷","koaza":"","lat":38.768335,"lng":141.185083,"zip":"9894701"},{"town":"石越町東郷","koaza":"","lat":38.742699,"lng":141.196614,"zip":"9894702"},{"town":"登米町小島","koaza":"","lat":38.647674,"lng":141.256862,"zip":"9870701"},{"town":"中田町宝江新井田","koaza":"","lat":38.677493,"lng":141.24543,"zip":"9870622"},{"town":"石越町南郷","koaza":"","lat":38.750092,"lng":141.170666,"zip":"9894703"},{"town":"米山町西野","koaza":"","lat":38.621392,"lng":141.196355,"zip":"9870321"},{"town":"中田町浅水","koaza":"","lat":38.697331,"lng":141.272448,"zip":"9870611"},{"town":"中田町石森","koaza":"","lat":38.722937,"lng":141.214705,"zip":"9870601"},{"town":"東和町錦織","koaza":"","lat":38.751618,"lng":141.292416,"zip":"9870903"},{"town":"米山町","koaza":"","lat":38.628018,"lng":141.230534,"zip":"9870307"},{"town":"中田町上沼","koaza":"","lat":38.743092,"lng":141.256932,"zip":"9870602"},{"town":"米山町中津山","koaza":"","lat":38.626731,"lng":141.155046,"zip":"9870331"},{"town":"迫町北方","koaza":"","lat":38.703506,"lng":141.166427,"zip":"9870513"},{"town":"登米町大字日根牛","koaza":"","lat":38.657901,"lng":141.318273,"zip":"9870500"},{"town":"津山町柳津","koaza":"","lat":38.610457,"lng":141.316554,"zip":"9860401"},{"town":"迫町新田","koaza":"","lat":38.686923,"lng":141.095211,"zip":"9894601"},{"town":"津山町横山","koaza":"","lat":38.633154,"lng":141.366265,"zip":"9860402"},{"town":"東和町米谷","koaza":"","lat":38.714369,"lng":141.316638,"zip":"9870902"},{"town":"東和町米川","koaza":"","lat":38.775192,"lng":141.344006,"zip":"9870901"},{"town":"石越町南郷","koaza":"仲江","lat":38.764932,"lng":141.157813,"zip":"9894703"},{"town":"石越町南郷","koaza":"西門沖","lat":38.76844,"lng":141.157415,"zip":"9894703"},{"town":"石越町南郷","koaza":"小谷地前","lat":38.772211,"lng":141.156105,"zip":"9894703"},{"town":"石越町北郷","koaza":"小谷地","lat":38.777509,"lng":141.158564,"zip":"9894701"},{"town":"石越町南郷","koaza":"舘前","lat":38.767823,"lng":141.160736,"zip":"9894703"},{"town":"迫町北方","koaza":"金ケ森","lat":38.695394,"lng":141.163873,"zip":"9870513"},{"town":"迫町北方","koaza":"三ツ目沢","lat":38.698994,"lng":141.164551,"zip":"9870513"},{"town":"迫町北方","koaza":"二分屋敷","lat":38.693713,"lng":141.166028,"zip":"9870513"},{"town":"迫町北方","koaza":"大洞","lat":38.694563,"lng":141.173314,"zip":"9870513"},{"town":"迫町北方","koaza":"川戸沼","lat":38.698864,"lng":141.175312,"zip":"9870513"},{"town":"迫町北方","koaza":"新八ノ森前","lat":38.688848,"lng":141.173421,"zip":"9870513"},{"town":"迫町北方","koaza":"日向前","lat":38.691719,"lng":141.175518,"zip":"9870513"},{"town":"南方町新鶴江","koaza":"","lat":38.68657,"lng":141.177129,"zip":"9870500"},{"town":"迫町北方","koaza":"大洞前","lat":38.694573,"lng":141.179581,"zip":"9870513"},{"town":"迫町北方","koaza":"石打坂","lat":38.69249,"lng":141.179958,"zip":"9870513"},{"town":"迫町北方","koaza":"下北浦","lat":38.703233,"lng":141.172906,"zip":"9870513"},{"town":"迫町佐沼","koaza":"萩洗一丁目","lat":38.688492,"lng":141.181349,"zip":"9870511"},{"town":"迫町佐沼","koaza":"中江五丁目","lat":38.689729,"lng":141.183687,"zip":"9870511"},{"town":"迫町北方","koaza":"高見前","lat":38.695748,"lng":141.182083,"zip":"9870513"},{"town":"迫町佐沼","koaza":"新大瀬","lat":38.707329,"lng":141.183026,"zip":"9870511"},{"town":"迫町佐沼","koaza":"萩洗二丁目","lat":38.687375,"lng":141.185303,"zip":"9870511"},{"town":"迫町北方","koaza":"舟橋前","lat":38.705683,"lng":141.184076,"zip":"9870513"},{"town":"迫町佐沼","koaza":"新飯島西","lat":38.680104,"lng":141.184597,"zip":"9870511"},{"town":"迫町北方","koaza":"相ケ沢前","lat":38.698204,"lng":141.184566,"zip":"9870513"},{"town":"迫町佐沼","koaza":"江合三丁目","lat":38.680828,"lng":141.186375,"zip":"9870511"},{"town":"迫町北方","koaza":"船橋","lat":38.705717,"lng":141.185391,"zip":"9870513"},{"town":"迫町佐沼","koaza":"中江四丁目","lat":38.689092,"lng":141.188115,"zip":"9870511"},{"town":"迫町佐沼","koaza":"中江二丁目","lat":38.691612,"lng":141.188849,"zip":"9870511"},{"town":"迫町佐沼","koaza":"江合一丁目","lat":38.684583,"lng":141.1871,"zip":"9870511"},{"town":"迫町佐沼","koaza":"江合二丁目","lat":38.684079,"lng":141.189025,"zip":"9870511"},{"town":"迫町北方","koaza":"新市島","lat":38.704009,"lng":141.189895,"zip":"9870513"},{"town":"迫町佐沼","koaza":"中江一丁目","lat":38.692861,"lng":141.190294,"zip":"9870511"},{"town":"迫町佐沼","koaza":"西舘下","lat":38.697234,"lng":141.189796,"zip":"9870511"},{"town":"迫町佐沼","koaza":"中江三丁目","lat":38.687468,"lng":141.191361,"zip":"9870511"},{"town":"迫町佐沼","koaza":"南元丁","lat":38.683062,"lng":141.192016,"zip":"9870511"},{"town":"迫町佐沼","koaza":"沼向","lat":38.694585,"lng":141.188782,"zip":"9870511"},{"town":"迫町佐沼","koaza":"南佐沼三丁目","lat":38.681338,"lng":141.191949,"zip":"9870511"},{"town":"迫町佐沼","koaza":"天神前","lat":38.691558,"lng":141.19284,"zip":"9870511"},{"town":"迫町佐沼","koaza":"西舘","lat":38.699584,"lng":141.191697,"zip":"9870511"},{"town":"迫町佐沼","koaza":"南佐沼二丁目","lat":38.682232,"lng":141.193319,"zip":"9870511"},{"town":"迫町佐沼","koaza":"大網","lat":38.678886,"lng":141.197857,"zip":"9870511"},{"town":"迫町佐沼","koaza":"下田中","lat":38.68867,"lng":141.193183,"zip":"9870511"},{"town":"迫町佐沼","koaza":"内町","lat":38.694821,"lng":141.194751,"zip":"9870511"},{"town":"中田町石森","koaza":"新菜園","lat":38.700104,"lng":141.195621,"zip":"9870601"},{"town":"迫町佐沼","koaza":"巻ノ上","lat":38.704616,"lng":141.192228,"zip":"9870511"},{"town":"迫町佐沼","koaza":"新中島","lat":38.697139,"lng":141.19466,"zip":"9870511"},{"town":"迫町佐沼","koaza":"南佐沼一丁目","lat":38.68335,"lng":141.194757,"zip":"9870511"},{"town":"迫町佐沼","koaza":"上舟丁","lat":38.690654,"lng":141.195701,"zip":"9870511"},{"town":"迫町佐沼","koaza":"小金丁","lat":38.68734,"lng":141.194461,"zip":"9870511"},{"town":"中田町石森","koaza":"西細谷","lat":38.708097,"lng":141.197226,"zip":"9870601"},{"town":"迫町佐沼","koaza":"西佐沼","lat":38.686102,"lng":141.197655,"zip":"9870511"},{"town":"迫町佐沼","koaza":"大東","lat":38.682505,"lng":141.199241,"zip":"9870511"},{"town":"迫町佐沼","koaza":"大網下","lat":38.67619,"lng":141.198371,"zip":"9870511"},{"town":"迫町佐沼","koaza":"菜園","lat":38.697156,"lng":141.199323,"zip":"9870511"},{"town":"迫町佐沼","koaza":"錦","lat":38.688343,"lng":141.202032,"zip":"9870511"},{"town":"迫町佐沼","koaza":"鉄砲丁","lat":38.692338,"lng":141.202562,"zip":"9870511"},{"town":"迫町佐沼","koaza":"東佐沼","lat":38.690568,"lng":141.199141,"zip":"9870511"},{"town":"迫町佐沼","koaza":"八幡一丁目","lat":38.695051,"lng":141.19954,"zip":"9870511"},{"town":"迫町佐沼","koaza":"的場","lat":38.692084,"lng":141.203625,"zip":"9870511"},{"town":"迫町佐沼","koaza":"八幡三丁目","lat":38.693155,"lng":141.201282,"zip":"9870511"},{"town":"中田町石森","koaza":"新細谷","lat":38.704211,"lng":141.200986,"zip":"9870601"},{"town":"迫町佐沼","koaza":"光ケ丘","lat":38.686261,"lng":141.204085,"zip":"9870511"},{"town":"迫町佐沼","koaza":"八幡二丁目","lat":38.695692,"lng":141.202554,"zip":"9870511"},{"town":"中田町石森","koaza":"蟹甲","lat":38.699264,"lng":141.200129,"zip":"9870601"},{"town":"中田町石森","koaza":"新境堀","lat":38.702213,"lng":141.205352,"zip":"9870601"},{"town":"中田町石森","koaza":"牡丹埣","lat":38.7085,"lng":141.202561,"zip":"9870601"},{"town":"迫町佐沼","koaza":"梅ノ木三丁目","lat":38.694022,"lng":141.204113,"zip":"9870511"},{"town":"中田町石森","koaza":"川前","lat":38.723392,"lng":141.204599,"zip":"9870601"},{"town":"中田町石森","koaza":"真内","lat":38.712333,"lng":141.204702,"zip":"9870601"},{"town":"迫町佐沼","koaza":"梅ノ木一丁目","lat":38.695749,"lng":141.204314,"zip":"9870511"},{"town":"中田町石森","koaza":"境堀","lat":38.7046,"lng":141.20724,"zip":"9870601"},{"town":"迫町佐沼","koaza":"末広","lat":38.690445,"lng":141.205569,"zip":"9870511"},{"town":"迫町佐沼","koaza":"梅ノ木二丁目","lat":38.696786,"lng":141.207211,"zip":"9870511"},{"town":"迫町森","koaza":"越戸","lat":38.675758,"lng":141.206373,"zip":"9870512"},{"town":"迫町森","koaza":"平柳","lat":38.680126,"lng":141.211218,"zip":"9870512"},{"town":"迫町佐沼","koaza":"北散田","lat":38.690128,"lng":141.207703,"zip":"9870511"},{"town":"迫町森","koaza":"内ケ袋","lat":38.670086,"lng":141.207746,"zip":"9870512"},{"town":"迫町佐沼","koaza":"梅ノ木四丁目","lat":38.695415,"lng":141.208421,"zip":"9870511"},{"town":"中田町石森","koaza":"新塚崎","lat":38.702029,"lng":141.208769,"zip":"9870601"},{"town":"迫町佐沼","koaza":"寺浦","lat":38.690849,"lng":141.206924,"zip":"9870511"},{"town":"迫町佐沼","koaza":"梅ノ木五丁目","lat":38.693935,"lng":141.209453,"zip":"9870511"},{"town":"迫町佐沼","koaza":"駒木袋","lat":38.684759,"lng":141.208952,"zip":"9870511"},{"town":"迫町森","koaza":"西表","lat":38.671434,"lng":141.213963,"zip":"9870512"},{"town":"迫町佐沼","koaza":"南散田","lat":38.690249,"lng":141.212311,"zip":"9870511"},{"town":"迫町森","koaza":"新金堀","lat":38.671246,"lng":141.211359,"zip":"9870512"},{"town":"中田町石森","koaza":"西川原毛","lat":38.709969,"lng":141.209885,"zip":"9870601"},{"town":"中田町石森","koaza":"西田","lat":38.721425,"lng":141.207499,"zip":"9870601"},{"town":"中田町石森","koaza":"中川原毛","lat":38.705226,"lng":141.211132,"zip":"9870601"},{"town":"中田町石森","koaza":"町","lat":38.719265,"lng":141.211157,"zip":"9870601"},{"town":"中田町石森","koaza":"加賀野二丁目","lat":38.701085,"lng":141.213357,"zip":"9870601"},{"town":"中田町石森","koaza":"上川原毛","lat":38.709663,"lng":141.211884,"zip":"9870601"},{"town":"中田町石森","koaza":"加賀野三丁目","lat":38.697741,"lng":141.211368,"zip":"9870601"},{"town":"迫町佐沼","koaza":"新駒木袋","lat":38.684481,"lng":141.211477,"zip":"9870511"},{"town":"中田町石森","koaza":"茶畑","lat":38.712817,"lng":141.213027,"zip":"9870601"},{"town":"中田町石森","koaza":"塚崎","lat":38.698983,"lng":141.213834,"zip":"9870601"},{"town":"中田町石森","koaza":"加賀野田中","lat":38.709912,"lng":141.212461,"zip":"9870601"},{"town":"中田町石森","koaza":"加賀野一丁目","lat":38.702636,"lng":141.214611,"zip":"9870601"},{"town":"迫町森","koaza":"西表前","lat":38.669275,"lng":141.214234,"zip":"9870512"},{"town":"迫町森","koaza":"新道","lat":38.669795,"lng":141.216373,"zip":"9870512"},{"town":"中田町石森","koaza":"新田","lat":38.716995,"lng":141.214404,"zip":"9870601"},{"town":"中田町石森","koaza":"駒牽","lat":38.707868,"lng":141.220109,"zip":"9870601"},{"town":"迫町森","koaza":"表前","lat":38.668249,"lng":141.2136,"zip":"9870512"},{"town":"中田町石森","koaza":"表","lat":38.697802,"lng":141.215243,"zip":"9870601"},{"town":"中田町石森","koaza":"川原毛","lat":38.707863,"lng":141.213835,"zip":"9870601"},{"town":"迫町佐沼","koaza":"新二本杉","lat":38.694205,"lng":141.214737,"zip":"9870511"},{"town":"中田町石森","koaza":"前田","lat":38.723469,"lng":141.212754,"zip":"9870601"},{"town":"中田町石森","koaza":"下川原毛","lat":38.70635,"lng":141.215868,"zip":"9870601"},{"town":"中田町石森","koaza":"古舘","lat":38.705666,"lng":141.217565,"zip":"9870601"},{"town":"中田町石森","koaza":"舘","lat":38.697658,"lng":141.217406,"zip":"9870601"},{"town":"迫町森","koaza":"赤沼","lat":38.683511,"lng":141.219211,"zip":"9870512"},{"town":"迫町森","koaza":"中江","lat":38.681245,"lng":141.221329,"zip":"9870512"},{"town":"中田町石森","koaza":"本町","lat":38.700515,"lng":141.220949,"zip":"9870601"},{"town":"迫町森","koaza":"芝前","lat":38.668697,"lng":141.221454,"zip":"9870512"},{"town":"中田町石森","koaza":"新中田","lat":38.697317,"lng":141.220149,"zip":"9870601"},{"town":"迫町森","koaza":"新田","lat":38.679167,"lng":141.223231,"zip":"9870512"},{"town":"迫町森","koaza":"上野","lat":38.684661,"lng":141.223865,"zip":"9870512"},{"town":"迫町森","koaza":"花島","lat":38.66703,"lng":141.223823,"zip":"9870512"},{"town":"迫町森","koaza":"柳待井","lat":38.671082,"lng":141.223733,"zip":"9870512"},{"town":"中田町石森","koaza":"野元","lat":38.703867,"lng":141.227093,"zip":"9870601"},{"town":"中田町石森","koaza":"蓬田","lat":38.706495,"lng":141.227881,"zip":"9870601"},{"town":"中田町上沼","koaza":"大柳","lat":38.715586,"lng":141.237462,"zip":"9870602"},{"town":"中田町宝江新井田","koaza":"加賀野境","lat":38.697063,"lng":141.233135,"zip":"9870622"},{"town":"中田町宝江新井田","koaza":"南新田","lat":38.69164,"lng":141.234266,"zip":"9870622"},{"town":"中田町宝江黒沼","koaza":"蓬原","lat":38.70581,"lng":141.236223,"zip":"9870621"},{"town":"中田町宝江森","koaza":"六丁目","lat":38.680785,"lng":141.234614,"zip":"9870623"},{"town":"中田町宝江新井田","koaza":"荒谷","lat":38.68411,"lng":141.233623,"zip":"9870622"},{"town":"中田町宝江黒沼","koaza":"大海崎","lat":38.708157,"lng":141.237598,"zip":"9870621"},{"town":"中田町宝江黒沼","koaza":"桶下","lat":38.704496,"lng":141.232182,"zip":"9870621"},{"town":"中田町宝江新井田","koaza":"神畑","lat":38.694074,"lng":141.238365,"zip":"9870622"},{"town":"中田町上沼","koaza":"新田","lat":38.711822,"lng":141.236107,"zip":"9870602"},{"town":"中田町宝江黒沼","koaza":"葉ノ木立","lat":38.703173,"lng":141.237277,"zip":"9870621"},{"town":"中田町宝江黒沼","koaza":"十文字","lat":38.710627,"lng":141.237798,"zip":"9870621"},{"town":"中田町宝江黒沼","koaza":"西野","lat":38.70067,"lng":141.236609,"zip":"9870621"},{"town":"中田町宝江新井田","koaza":"紺谷","lat":38.677532,"lng":141.240684,"zip":"9870622"},{"town":"中田町宝江黒沼","koaza":"町","lat":38.695744,"lng":141.240844,"zip":"9870621"},{"town":"中田町宝江黒沼","koaza":"畑中","lat":38.703113,"lng":141.241295,"zip":"9870621"},{"town":"中田町宝江黒沼","koaza":"下道","lat":38.711814,"lng":141.239425,"zip":"9870621"},{"town":"中田町宝江黒沼","koaza":"浦","lat":38.697191,"lng":141.24448,"zip":"9870621"},{"town":"中田町宝江黒沼","koaza":"鶴ケ埣","lat":38.712224,"lng":141.244704,"zip":"9870621"},{"town":"中田町宝江新井田","koaza":"後田","lat":38.692223,"lng":141.244455,"zip":"9870622"},{"town":"中田町宝江黒沼","koaza":"兵庫","lat":38.695231,"lng":141.243876,"zip":"9870621"},{"town":"中田町上沼","koaza":"籠壇","lat":38.715118,"lng":141.245656,"zip":"9870602"},{"town":"中田町上沼","koaza":"舘浦","lat":38.72266,"lng":141.24458,"zip":"9870602"},{"town":"中田町宝江新井田","koaza":"要害","lat":38.678155,"lng":141.246283,"zip":"9870622"},{"town":"中田町上沼","koaza":"舘","lat":38.717583,"lng":141.244496,"zip":"9870602"},{"town":"中田町宝江新井田","koaza":"舘","lat":38.689328,"lng":141.245861,"zip":"9870622"},{"town":"中田町宝江黒沼","koaza":"東","lat":38.70207,"lng":141.250009,"zip":"9870621"},{"town":"中田町上沼","koaza":"要害","lat":38.722179,"lng":141.251085,"zip":"9870602"},{"town":"中田町宝江新井田","koaza":"上待井","lat":38.677865,"lng":141.251095,"zip":"9870622"},{"town":"中田町上沼","koaza":"金谷","lat":38.736458,"lng":141.252448,"zip":"9870602"},{"town":"中田町宝江黒沼","koaza":"亀ケ岡","lat":38.707815,"lng":141.250477,"zip":"9870621"},{"town":"中田町宝江新井田","koaza":"弥平構","lat":38.674105,"lng":141.254642,"zip":"9870622"},{"town":"中田町上沼","koaza":"谷地前","lat":38.720775,"lng":141.254739,"zip":"9870602"},{"town":"中田町宝江黒沼","koaza":"新荒神堂","lat":38.704745,"lng":141.252741,"zip":"9870621"},{"town":"登米町小島","koaza":"上大谷地","lat":38.664654,"lng":141.251478,"zip":"9870701"},{"town":"登米町小島","koaza":"木戸崎","lat":38.651563,"lng":141.255223,"zip":"9870701"},{"town":"中田町上沼","koaza":"境後","lat":38.728879,"lng":141.254758,"zip":"9870602"},{"town":"中田町宝江新井田","koaza":"並柳","lat":38.675195,"lng":141.255866,"zip":"9870622"},{"town":"中田町宝江新井田","koaza":"新沼崎","lat":38.671849,"lng":141.256439,"zip":"9870622"},{"town":"中田町浅水","koaza":"中川面","lat":38.715527,"lng":141.257394,"zip":"9870611"},{"town":"中田町上沼","koaza":"堀米","lat":38.725273,"lng":141.260827,"zip":"9870602"},{"town":"登米町小島","koaza":"西岡谷地","lat":38.663468,"lng":141.25675,"zip":"9870701"},{"town":"中田町浅水","koaza":"西川面","lat":38.711819,"lng":141.256993,"zip":"9870611"},{"town":"中田町上沼","koaza":"弥勒寺大下","lat":38.72869,"lng":141.259114,"zip":"9870602"},{"town":"中田町浅水","koaza":"上川面","lat":38.718396,"lng":141.262581,"zip":"9870611"},{"town":"中田町浅水","koaza":"下川面","lat":38.71043,"lng":141.261541,"zip":"9870611"},{"town":"中田町浅水","koaza":"田向","lat":38.707256,"lng":141.259439,"zip":"9870611"},{"town":"登米町日野渡","koaza":"雑田原","lat":38.665081,"lng":141.260164,"zip":"9870704"},{"town":"中田町浅水","koaza":"荒神堂","lat":38.706975,"lng":141.264666,"zip":"9870611"},{"town":"中田町浅水","koaza":"小島","lat":38.692804,"lng":141.266082,"zip":"9870611"},{"town":"登米町小島","koaza":"大野前","lat":38.649964,"lng":141.261763,"zip":"9870701"},{"town":"登米町日野渡","koaza":"布目","lat":38.668734,"lng":141.264686,"zip":"9870704"},{"town":"中田町浅水","koaza":"新田","lat":38.701941,"lng":141.269791,"zip":"9870611"},{"town":"登米町寺池","koaza":"鶴ケ埣","lat":38.659993,"lng":141.267439,"zip":"9870702"},{"town":"登米町日野渡","koaza":"薬師崎","lat":38.66478,"lng":141.268422,"zip":"9870704"},{"town":"登米町日野渡","koaza":"南田","lat":38.664194,"lng":141.267279,"zip":"9870704"},{"town":"登米町寺池","koaza":"八丁田待井","lat":38.649454,"lng":141.268691,"zip":"9870702"},{"town":"中田町浅水","koaza":"窪田","lat":38.6764,"lng":141.269938,"zip":"9870611"},{"town":"登米町寺池","koaza":"鉄砲町","lat":38.651499,"lng":141.270127,"zip":"9870702"},{"town":"登米町寺池","koaza":"馬場埣","lat":38.654108,"lng":141.2711,"zip":"9870702"},{"town":"登米町日野渡","koaza":"内の目","lat":38.663636,"lng":141.272681,"zip":"9870704"},{"town":"中田町浅水","koaza":"鮎川田","lat":38.701233,"lng":141.27391,"zip":"9870611"},{"town":"中田町浅水","koaza":"浅部玉山","lat":38.679248,"lng":141.27742,"zip":"9870611"},{"town":"登米町寺池","koaza":"前舟橋","lat":38.654972,"lng":141.274739,"zip":"9870702"},{"town":"中田町浅水","koaza":"長谷山","lat":38.70176,"lng":141.283105,"zip":"9870611"},{"town":"登米町寺池","koaza":"道場","lat":38.644953,"lng":141.27753,"zip":"9870702"},{"town":"登米町日野渡","koaza":"蛭沢","lat":38.66568,"lng":141.278644,"zip":"9870704"},{"town":"登米町寺池","koaza":"上町","lat":38.659857,"lng":141.280486,"zip":"9870702"},{"town":"登米町寺池","koaza":"目子待井","lat":38.657826,"lng":141.276018,"zip":"9870702"},{"town":"中田町浅水","koaza":"駒形","lat":38.688157,"lng":141.281029,"zip":"9870611"},{"town":"登米町寺池","koaza":"桜小路","lat":38.653993,"lng":141.280159,"zip":"9870702"},{"town":"登米町大字日根牛","koaza":"谷木前","lat":38.653611,"lng":141.287354,"zip":"9870500"},{"town":"登米町大字日根牛","koaza":"五郎峯前","lat":38.642506,"lng":141.287216,"zip":"9870500"},{"town":"登米町大字日根牛","koaza":"小川向","lat":38.655999,"lng":141.287815,"zip":"9870500"},{"town":"東和町米谷","koaza":"元町","lat":38.70551,"lng":141.289119,"zip":"9870902"},{"town":"登米町大字日根牛","koaza":"小池前","lat":38.649632,"lng":141.290924,"zip":"9870500"},{"town":"登米町大字日根牛","koaza":"阿羅田","lat":38.654191,"lng":141.290218,"zip":"9870500"},{"town":"東和町米谷","koaza":"日面","lat":38.705566,"lng":141.291952,"zip":"9870902"},{"town":"東和町米谷","koaza":"新細待井","lat":38.702498,"lng":141.291033,"zip":"9870902"},{"town":"登米町大字日根牛","koaza":"小池","lat":38.64962,"lng":141.292037,"zip":"9870500"},{"town":"東和町米谷","koaza":"根郭","lat":38.712411,"lng":141.291281,"zip":"9870902"},{"town":"東和町米谷","koaza":"大嶺","lat":38.713756,"lng":141.297184,"zip":"9870902"},{"town":"東和町米谷","koaza":"来京","lat":38.698064,"lng":141.300711,"zip":"9870902"},{"town":"津山町柳津","koaza":"黄牛比良","lat":38.621423,"lng":141.298039,"zip":"9860401"},{"town":"東和町米谷","koaza":"岩の沢","lat":38.706741,"lng":141.300678,"zip":"9870902"},{"town":"津山町柳津","koaza":"本町","lat":38.613029,"lng":141.301093,"zip":"9860401"},{"town":"津山町柳津","koaza":"形沼","lat":38.609496,"lng":141.301756,"zip":"9860401"},{"town":"津山町柳津","koaza":"宮下","lat":38.602255,"lng":141.30549,"zip":"9860401"},{"town":"津山町柳津","koaza":"黄牛宇名","lat":38.625023,"lng":141.308539,"zip":"9860401"},{"town":"津山町柳津","koaza":"黄牛石生","lat":38.625991,"lng":141.314396,"zip":"9860401"},{"town":"石越町北郷","koaza":"西門","lat":38.769004,"lng":141.16215,"zip":"9894701"},{"town":"石越町南郷","koaza":"新田","lat":38.767719,"lng":141.163544,"zip":"9894703"},{"town":"津山町柳津","koaza":"谷木","lat":38.61215,"lng":141.306085,"zip":"9860401"},{"town":"津山町柳津","koaza":"町","lat":38.606337,"lng":141.300531,"zip":"9860401"},{"town":"津山町柳津","koaza":"平形","lat":38.606138,"lng":141.302867,"zip":"9860401"},{"town":"津山町柳津","koaza":"新形沼","lat":38.610169,"lng":141.30574,"zip":"9860401"},{"town":"津山町柳津","koaza":"黄牛田高畑","lat":38.612878,"lng":141.306377,"zip":"9860401"},{"town":"津山町柳津","koaza":"幣崎","lat":38.608673,"lng":141.315556,"zip":"9860401"},{"town":"津山町柳津","koaza":"舘石","lat":38.615279,"lng":141.32285,"zip":"9860401"},{"town":"登米町小島","koaza":"長橋","lat":38.645724,"lng":141.268276,"zip":"9870701"},{"town":"登米町小島","koaza":"弁慶山","lat":38.644859,"lng":141.268146,"zip":"9870701"},{"town":"登米町寺池","koaza":"金沢山","lat":38.650101,"lng":141.275013,"zip":"9870702"},{"town":"登米町寺池","koaza":"亀ケ下","lat":38.650532,"lng":141.267408,"zip":"9870702"},{"town":"登米町寺池","koaza":"渋江","lat":38.659118,"lng":141.270982,"zip":"9870702"},{"town":"登米町寺池","koaza":"金谷","lat":38.650585,"lng":141.279948,"zip":"9870702"},{"town":"登米町寺池","koaza":"九日町","lat":38.653006,"lng":141.282227,"zip":"9870702"},{"town":"登米町寺池","koaza":"荒町","lat":38.655856,"lng":141.284804,"zip":"9870702"},{"town":"登米町寺池","koaza":"三日町","lat":38.654571,"lng":141.283291,"zip":"9870702"},{"town":"登米町小島","koaza":"大谷地","lat":38.665381,"lng":141.251021,"zip":"9870701"},{"town":"登米町小島","koaza":"東岡谷地","lat":38.664827,"lng":141.257568,"zip":"9870701"},{"town":"石越町北郷","koaza":"西","lat":38.774826,"lng":141.157726,"zip":"9894701"},{"town":"登米町小島","koaza":"銀山","lat":38.640358,"lng":141.28025,"zip":"9870701"},{"town":"登米町寺池","koaza":"中町","lat":38.650722,"lng":141.281688,"zip":"9870702"},{"town":"登米町大字日根牛","koaza":"中山","lat":38.648281,"lng":141.295889,"zip":"9870500"},{"town":"登米町大字日根牛","koaza":"五郎峯","lat":38.647117,"lng":141.290642,"zip":"9870500"},{"town":"登米町大字日根牛","koaza":"一本杉","lat":38.650068,"lng":141.290165,"zip":"9870500"},{"town":"登米町大字日根牛","koaza":"宿","lat":38.652112,"lng":141.287521,"zip":"9870500"},{"town":"登米町大字日根牛","koaza":"浦小路","lat":38.652132,"lng":141.289502,"zip":"9870500"},{"town":"登米町大字日根牛","koaza":"八反","lat":38.652825,"lng":141.290835,"zip":"9870500"},{"town":"登米町大字日根牛","koaza":"古館","lat":38.651965,"lng":141.292492,"zip":"9870500"},{"town":"登米町大字日根牛","koaza":"山田","lat":38.664915,"lng":141.287655,"zip":"9870500"},{"town":"登米町寺池","koaza":"辺室山","lat":38.659417,"lng":141.274368,"zip":"9870702"},{"town":"登米町日野渡","koaza":"銅谷","lat":38.665117,"lng":141.282824,"zip":"9870704"},{"town":"中田町宝江新井田","koaza":"囃喉待井","lat":38.675649,"lng":141.252928,"zip":"9870622"},{"town":"迫町森","koaza":"西前","lat":38.678551,"lng":141.213797,"zip":"9870512"},{"town":"迫町森","koaza":"平柳前","lat":38.677772,"lng":141.212687,"zip":"9870512"},{"town":"迫町森","koaza":"新西前","lat":38.675226,"lng":141.212272,"zip":"9870512"},{"town":"迫町森","koaza":"東表","lat":38.671221,"lng":141.221417,"zip":"9870512"},{"town":"迫町森","koaza":"木戸脇","lat":38.671469,"lng":141.218783,"zip":"9870512"},{"town":"迫町佐沼","koaza":"飯島","lat":38.679212,"lng":141.185792,"zip":"9870511"},{"town":"迫町佐沼","koaza":"大網上","lat":38.678947,"lng":141.190807,"zip":"9870511"},{"town":"迫町佐沼","koaza":"新大東","lat":38.683812,"lng":141.196492,"zip":"9870511"},{"town":"迫町佐沼","koaza":"南駒木袋","lat":38.682425,"lng":141.21041,"zip":"9870511"},{"town":"迫町佐沼","koaza":"袋向","lat":38.683938,"lng":141.206195,"zip":"9870511"},{"town":"迫町佐沼","koaza":"北駒木袋","lat":38.685134,"lng":141.207468,"zip":"9870511"},{"town":"迫町佐沼","koaza":"天渕","lat":38.688888,"lng":141.213768,"zip":"9870511"},{"town":"迫町佐沼","koaza":"十五畴","lat":38.687949,"lng":141.211833,"zip":"9870511"},{"town":"迫町佐沼","koaza":"散田","lat":38.689448,"lng":141.206631,"zip":"9870511"},{"town":"迫町佐沼","koaza":"八幡堂","lat":38.69333,"lng":141.199077,"zip":"9870511"},{"town":"迫町北方","koaza":"鼠田","lat":38.691791,"lng":141.169371,"zip":"9870513"},{"town":"迫町北方","koaza":"山ノ上","lat":38.692536,"lng":141.184463,"zip":"9870513"},{"town":"迫町北方","koaza":"上北浦","lat":38.700658,"lng":141.166241,"zip":"9870513"},{"town":"迫町北方","koaza":"新三ツ目沢","lat":38.697106,"lng":141.163258,"zip":"9870513"},{"town":"迫町北方","koaza":"鼠田前","lat":38.690746,"lng":141.171219,"zip":"9870513"},{"town":"迫町佐沼","koaza":"三沼","lat":38.6937,"lng":141.184455,"zip":"9870511"},{"town":"迫町佐沼","koaza":"西舘上","lat":38.695415,"lng":141.186158,"zip":"9870511"},{"town":"迫町佐沼","koaza":"石仏","lat":38.693372,"lng":141.203492,"zip":"9870511"},{"town":"迫町佐沼","koaza":"万蔵壇","lat":38.693881,"lng":141.212631,"zip":"9870511"},{"town":"東和町米谷","koaza":"金谷","lat":38.685471,"lng":141.289016,"zip":"9870902"},{"town":"東和町米谷","koaza":"新山","lat":38.689578,"lng":141.290948,"zip":"9870902"},{"town":"中田町宝江黒沼","koaza":"新兵庫","lat":38.695685,"lng":141.244764,"zip":"9870621"},{"town":"中田町宝江黒沼","koaza":"新西野","lat":38.705022,"lng":141.237089,"zip":"9870621"},{"town":"中田町浅水","koaza":"西新田","lat":38.707807,"lng":141.264076,"zip":"9870611"},{"town":"中田町石森","koaza":"入道坂","lat":38.699683,"lng":141.225592,"zip":"9870601"},{"town":"中田町石森","koaza":"八反目","lat":38.697153,"lng":141.223587,"zip":"9870601"},{"town":"中田町石森","koaza":"加賀野中田","lat":38.696139,"lng":141.223823,"zip":"9870601"},{"town":"迫町佐沼","koaza":"一本杉","lat":38.695882,"lng":141.210479,"zip":"9870511"},{"town":"中田町石森","koaza":"水神木","lat":38.697688,"lng":141.204974,"zip":"9870601"},{"town":"迫町北方","koaza":"相ケ沢","lat":38.697676,"lng":141.182437,"zip":"9870513"},{"town":"迫町北方","koaza":"高見","lat":38.697528,"lng":141.180518,"zip":"9870513"},{"town":"迫町北方","koaza":"川戸沼前","lat":38.700456,"lng":141.177362,"zip":"9870513"},{"town":"迫町北方","koaza":"太田河","lat":38.70114,"lng":141.167561,"zip":"9870513"},{"town":"迫町北方","koaza":"深田","lat":38.702173,"lng":141.171237,"zip":"9870513"},{"town":"迫町佐沼","koaza":"舘ケ袋","lat":38.707931,"lng":141.190073,"zip":"9870511"},{"town":"迫町北方","koaza":"市島","lat":38.706744,"lng":141.18811,"zip":"9870513"},{"town":"迫町佐沼","koaza":"大瀬","lat":38.706918,"lng":141.182585,"zip":"9870511"},{"town":"中田町石森","koaza":"東細谷","lat":38.704548,"lng":141.201513,"zip":"9870601"},{"town":"中田町石森","koaza":"久保","lat":38.700613,"lng":141.208688,"zip":"9870601"},{"town":"中田町石森","koaza":"沼の葉","lat":38.706878,"lng":141.207727,"zip":"9870601"},{"town":"中田町石森","koaza":"下谷地","lat":38.706943,"lng":141.208458,"zip":"9870601"},{"town":"中田町上沼","koaza":"西桜場","lat":38.710895,"lng":141.232558,"zip":"9870602"},{"town":"中田町浅水","koaza":"嶺鍛冶屋","lat":38.708037,"lng":141.281958,"zip":"9870611"},{"town":"東和町米谷","koaza":"杣荷","lat":38.70787,"lng":141.289833,"zip":"9870902"},{"town":"東和町米谷","koaza":"古舘","lat":38.71028,"lng":141.294525,"zip":"9870902"},{"town":"中田町浅水","koaza":"東川面","lat":38.7221,"lng":141.261093,"zip":"9870611"},{"town":"中田町上沼","koaza":"境前","lat":38.725904,"lng":141.255881,"zip":"9870602"},{"town":"中田町石森","koaza":"霜降舘","lat":38.722876,"lng":141.207274,"zip":"9870601"},{"town":"中田町石森","koaza":"越戸","lat":38.710118,"lng":141.209317,"zip":"9870601"},{"town":"中田町石森","koaza":"高鼻","lat":38.703713,"lng":141.203146,"zip":"9870601"},{"town":"中田町石森","koaza":"新蟹甲","lat":38.701377,"lng":141.197724,"zip":"9870601"},{"town":"迫町北方","koaza":"宮崎","lat":38.703975,"lng":141.177224,"zip":"9870513"},{"town":"迫町北方","koaza":"深田前","lat":38.703602,"lng":141.172187,"zip":"9870513"},{"town":"迫町北方","koaza":"田ノ尻","lat":38.703021,"lng":141.183566,"zip":"9870513"},{"town":"迫町北方","koaza":"紫雲山裏","lat":38.701481,"lng":141.188114,"zip":"9870513"},{"town":"迫町北方","koaza":"紫雲山","lat":38.70017,"lng":141.187773,"zip":"9870513"},{"town":"迫町佐沼","koaza":"西舘北","lat":38.700309,"lng":141.190978,"zip":"9870511"},{"town":"迫町佐沼","koaza":"丸子","lat":38.695512,"lng":141.213017,"zip":"9870511"},{"town":"迫町佐沼","koaza":"二本杉","lat":38.691113,"lng":141.217686,"zip":"9870511"},{"town":"登米町日野渡","koaza":"荒田待井","lat":38.66889,"lng":141.272675,"zip":"9870704"},{"town":"登米町日野渡","koaza":"軍場山","lat":38.670707,"lng":141.270314,"zip":"9870704"},{"town":"登米町日野渡","koaza":"鼬沢","lat":38.669163,"lng":141.27778,"zip":"9870704"},{"town":"登米町大字日根牛","koaza":"銀杏木前","lat":38.636994,"lng":141.288707,"zip":"9870500"},{"town":"登米町大字日根牛","koaza":"峯畑前","lat":38.634738,"lng":141.289351,"zip":"9870500"},{"town":"登米町大字日根牛","koaza":"熊野前","lat":38.639151,"lng":141.288202,"zip":"9870500"},{"town":"登米町大字日根牛","koaza":"並柳","lat":38.641454,"lng":141.286726,"zip":"9870500"},{"town":"迫町北方","koaza":"宮崎前","lat":38.704533,"lng":141.180509,"zip":"9870513"},{"town":"迫町北方","koaza":"中沢","lat":38.703456,"lng":141.180309,"zip":"9870513"},{"town":"中田町石森","koaza":"菜園","lat":38.701489,"lng":141.194034,"zip":"9870601"},{"town":"中田町石森","koaza":"新堀","lat":38.711894,"lng":141.208367,"zip":"9870601"},{"town":"中田町石森","koaza":"室木","lat":38.710927,"lng":141.208906,"zip":"9870601"},{"town":"東和町米谷","koaza":"越路","lat":38.709983,"lng":141.304652,"zip":"9870902"},{"town":"東和町米谷","koaza":"石橋","lat":38.708567,"lng":141.298721,"zip":"9870902"},{"town":"中田町上沼","koaza":"弥勒寺寺山","lat":38.734725,"lng":141.255844,"zip":"9870602"},{"town":"南方町新丸ノ内","koaza":"","lat":38.685022,"lng":141.182435,"zip":"9870404"},{"town":"迫町佐沼","koaza":"中島","lat":38.69619,"lng":141.196988,"zip":"9870511"},{"town":"迫町北方","koaza":"紫雲山下","lat":38.699493,"lng":141.187259,"zip":"9870513"},{"town":"迫町北方","koaza":"中沢前","lat":38.702709,"lng":141.181407,"zip":"9870513"}]