[{"town":"字沢端","koaza":"","lat":38.00475,"lng":140.621345,"zip":"9890200"},{"town":"字半沢屋敷西","koaza":"","lat":38.01067,"lng":140.620246,"zip":"9890200"},{"town":"字本鍛冶小路","koaza":"","lat":38.005739,"lng":140.621083,"zip":"9890200"},{"town":"字幸","koaza":"","lat":38.012751,"lng":140.623676,"zip":"9890200"},{"town":"緑が丘一丁目","koaza":"","lat":38.000783,"lng":140.644071,"zip":"9890221"},{"town":"緑が丘二丁目","koaza":"","lat":38.001322,"lng":140.643166,"zip":"9890221"},{"town":"字大畑二番","koaza":"","lat":38.009899,"lng":140.627415,"zip":"9890200"},{"town":"字北川原","koaza":"","lat":38.011971,"lng":140.625052,"zip":"9890200"},{"town":"字上堰","koaza":"","lat":38.015048,"lng":140.630171,"zip":"9890200"},{"town":"字兎作","koaza":"","lat":38.001273,"lng":140.625369,"zip":"9890200"},{"town":"字清水小路","koaza":"","lat":38.005711,"lng":140.62418,"zip":"9890200"},{"town":"字亘理町","koaza":"","lat":38.00797,"lng":140.621278,"zip":"9890200"},{"town":"松ケ丘一丁目","koaza":"","lat":38.005023,"lng":140.645114,"zip":"9890204"},{"town":"字十王堂前","koaza":"","lat":38.012583,"lng":140.628542,"zip":"9890200"},{"town":"字柳川原","koaza":"","lat":38.013943,"lng":140.627225,"zip":"9890200"},{"town":"字東小路","koaza":"","lat":38.002596,"lng":140.62142,"zip":"9890200"},{"town":"字中町","koaza":"","lat":38.004264,"lng":140.622623,"zip":"9890200"},{"town":"字十王堂北","koaza":"","lat":38.013821,"lng":140.628834,"zip":"9890200"},{"town":"鷹巣西三丁目","koaza":"","lat":37.997449,"lng":140.632584,"zip":"9890220"},{"town":"鷹巣東二丁目","koaza":"","lat":37.996463,"lng":140.637764,"zip":"9890218"},{"town":"字長町","koaza":"","lat":38.006203,"lng":140.622477,"zip":"9890200"},{"town":"字北無双作","koaza":"","lat":37.998734,"lng":140.630284,"zip":"9890200"},{"town":"旭町四丁目","koaza":"","lat":37.993082,"lng":140.634935,"zip":"9890223"},{"town":"白鳥二丁目","koaza":"","lat":38.036999,"lng":140.643647,"zip":"9890734"},{"town":"字延命寺北","koaza":"","lat":38.009274,"lng":140.624207,"zip":"9890200"},{"town":"字白石沖","koaza":"","lat":37.998538,"lng":140.623915,"zip":"9890200"},{"town":"字寺屋敷前","koaza":"","lat":38.005536,"lng":140.627369,"zip":"9890200"},{"town":"字柳町","koaza":"","lat":38.001498,"lng":140.624205,"zip":"9890200"},{"town":"旭町二丁目","koaza":"","lat":37.993908,"lng":140.633393,"zip":"9890223"},{"town":"鷹巣東四丁目","koaza":"","lat":37.997365,"lng":140.644894,"zip":"9890218"},{"town":"東町六丁目","koaza":"","lat":37.990523,"lng":140.627333,"zip":"9890225"},{"town":"松ケ丘二丁目","koaza":"","lat":38.006786,"lng":140.645165,"zip":"9890204"},{"town":"白鳥一丁目","koaza":"","lat":38.035714,"lng":140.641359,"zip":"9890734"},{"town":"旭町五丁目","koaza":"","lat":37.990463,"lng":140.63272,"zip":"9890223"},{"town":"鷹巣西二丁目","koaza":"","lat":37.998512,"lng":140.633786,"zip":"9890220"},{"town":"字沢目","koaza":"","lat":38.003086,"lng":140.626367,"zip":"9890200"},{"town":"旭町三丁目","koaza":"","lat":37.991482,"lng":140.631318,"zip":"9890223"},{"town":"大手町","koaza":"","lat":38.002275,"lng":140.61988,"zip":"9890276"},{"town":"字祢宜内","koaza":"","lat":38.010899,"lng":140.626122,"zip":"9890200"},{"town":"字銚子ケ森","koaza":"","lat":38.00109,"lng":140.627599,"zip":"9890200"},{"town":"字大畑一番","koaza":"","lat":38.00679,"lng":140.629398,"zip":"9890200"},{"town":"字本町","koaza":"","lat":38.001871,"lng":140.62279,"zip":"9890200"},{"town":"鷹巣西一丁目","koaza":"","lat":38.000387,"lng":140.631244,"zip":"9890220"},{"town":"上久保","koaza":"","lat":37.991931,"lng":140.616227,"zip":"9890244"},{"town":"字不澄ケ池","koaza":"","lat":38.007738,"lng":140.625288,"zip":"9890200"},{"town":"旭町六丁目","koaza":"","lat":37.989619,"lng":140.634303,"zip":"9890223"},{"town":"東町二丁目","koaza":"","lat":37.997303,"lng":140.629124,"zip":"9890225"},{"town":"鷹巣東一丁目","koaza":"","lat":37.996559,"lng":140.635726,"zip":"9890218"},{"town":"東町一丁目","koaza":"","lat":37.99776,"lng":140.626527,"zip":"9890225"},{"town":"城北町","koaza":"","lat":38.006766,"lng":140.618045,"zip":"9890255"},{"town":"鷹巣東三丁目","koaza":"","lat":37.996971,"lng":140.641,"zip":"9890218"},{"town":"東町四丁目","koaza":"","lat":37.994132,"lng":140.625762,"zip":"9890225"},{"town":"東町五丁目","koaza":"","lat":37.990645,"lng":140.625064,"zip":"9890225"},{"town":"旭町一丁目","koaza":"","lat":37.994627,"lng":140.631323,"zip":"9890223"},{"town":"白鳥三丁目","koaza":"","lat":38.035447,"lng":140.645026,"zip":"9890734"},{"town":"新館町","koaza":"","lat":37.99415,"lng":140.620273,"zip":"9890246"},{"town":"田町三丁目","koaza":"","lat":37.990119,"lng":140.620701,"zip":"9890227"},{"town":"字半沢屋敷前","koaza":"","lat":38.009927,"lng":140.621801,"zip":"9890200"},{"town":"旭町七丁目","koaza":"","lat":37.987975,"lng":140.635975,"zip":"9890223"},{"town":"城南一丁目","koaza":"","lat":37.99448,"lng":140.613199,"zip":"9890245"},{"town":"緑が丘","koaza":"","lat":38.000408,"lng":140.640225,"zip":"9890221"},{"town":"東町三丁目","koaza":"","lat":37.993674,"lng":140.628565,"zip":"9890225"},{"town":"字堂場前","koaza":"","lat":38.005703,"lng":140.63038,"zip":"9890200"},{"town":"大川町","koaza":"","lat":38.008735,"lng":140.61858,"zip":"9890254"},{"town":"城南二丁目","koaza":"","lat":37.995009,"lng":140.614886,"zip":"9890245"},{"town":"沢端町","koaza":"","lat":38.00462,"lng":140.617981,"zip":"9890277"},{"town":"南町一丁目","koaza":"","lat":37.999523,"lng":140.619279,"zip":"9890248"},{"town":"田町一丁目","koaza":"","lat":37.997302,"lng":140.623312,"zip":"9890227"},{"town":"字外川原","koaza":"","lat":38.013522,"lng":140.624152,"zip":"9890200"},{"town":"西益岡町","koaza":"","lat":38.004279,"lng":140.613181,"zip":"9890252"},{"town":"字東大畑","koaza":"","lat":38.009187,"lng":140.629628,"zip":"9890200"},{"town":"益岡町","koaza":"","lat":38.002187,"lng":140.616113,"zip":"9890251"},{"town":"寿山","koaza":"","lat":38.002335,"lng":140.633253,"zip":"9890241"},{"town":"田町二丁目","koaza":"","lat":37.992864,"lng":140.622101,"zip":"9890227"},{"town":"南町二丁目","koaza":"","lat":37.996024,"lng":140.618212,"zip":"9890248"},{"town":"字中河原","koaza":"","lat":38.008162,"lng":140.614183,"zip":"9890200"},{"town":"八幡町","koaza":"","lat":37.999582,"lng":140.614432,"zip":"9890247"},{"town":"鷹巣","koaza":"","lat":37.996683,"lng":140.648814,"zip":"9890222"},{"town":"白川小奥","koaza":"","lat":38.030841,"lng":140.701864,"zip":"9891101"},{"town":"大平坂谷","koaza":"","lat":37.976374,"lng":140.630475,"zip":"9890214"},{"town":"大鷹沢鷹巣","koaza":"","lat":38.003772,"lng":140.656999,"zip":"9890211"},{"town":"小下倉","koaza":"","lat":38.025095,"lng":140.642264,"zip":"9890201"},{"town":"大平中目","koaza":"","lat":37.978421,"lng":140.607449,"zip":"9890216"},{"town":"大平森合","koaza":"","lat":37.990447,"lng":140.604265,"zip":"9890217"},{"town":"越河五賀","koaza":"","lat":37.939785,"lng":140.591939,"zip":"9890111"},{"town":"白川内親","koaza":"","lat":38.032194,"lng":140.662576,"zip":"9891104"},{"town":"郡山","koaza":"","lat":38.012608,"lng":140.641202,"zip":"9890203"},{"town":"福岡長袋","koaza":"","lat":38.019433,"lng":140.60766,"zip":"9890732"},{"town":"越河平","koaza":"","lat":37.929076,"lng":140.615819,"zip":"9890112"},{"town":"白川犬卒都婆","koaza":"","lat":37.999536,"lng":140.676289,"zip":"9891103"},{"town":"越河","koaza":"","lat":37.92325,"lng":140.583904,"zip":"9890113"},{"town":"大鷹沢大町","koaza":"","lat":37.981552,"lng":140.671243,"zip":"9890212"},{"town":"白川津田","koaza":"","lat":38.021586,"lng":140.681038,"zip":"9891102"},{"town":"斎川","koaza":"","lat":37.957183,"lng":140.61094,"zip":"9890215"},{"town":"大鷹沢三沢","koaza":"","lat":37.968002,"lng":140.658232,"zip":"9890213"},{"town":"福岡蔵本","koaza":"","lat":38.008595,"lng":140.56301,"zip":"9890231"},{"town":"福岡八宮","koaza":"","lat":38.052368,"lng":140.527508,"zip":"9890733"},{"town":"福岡深谷","koaza":"","lat":38.061996,"lng":140.587255,"zip":"9890731"},{"town":"小原","koaza":"","lat":37.952136,"lng":140.545888,"zip":"9890233"},{"town":"小原","koaza":"明戸","lat":37.984779,"lng":140.560353,"zip":"9890233"},{"town":"小原","koaza":"小日向","lat":37.975721,"lng":140.558979,"zip":"9890233"},{"town":"小原","koaza":"西川久保","lat":37.978283,"lng":140.560288,"zip":"9890233"},{"town":"小原","koaza":"湯元","lat":37.982853,"lng":140.561776,"zip":"9890233"},{"town":"小原","koaza":"赤坂","lat":37.976655,"lng":140.563926,"zip":"9890233"},{"town":"福岡蔵本","koaza":"鎌先一番","lat":38.025089,"lng":140.576359,"zip":"9890231"},{"town":"福岡蔵本","koaza":"横町","lat":38.012506,"lng":140.58043,"zip":"9890231"},{"town":"福岡蔵本","koaza":"狐峯一番","lat":38.018221,"lng":140.580008,"zip":"9890231"},{"town":"福岡蔵本","koaza":"作屋","lat":38.01455,"lng":140.584475,"zip":"9890231"},{"town":"福岡蔵本","koaza":"中原","lat":38.008206,"lng":140.586634,"zip":"9890231"},{"town":"福岡蔵本","koaza":"石神二番","lat":38.00457,"lng":140.587715,"zip":"9890231"},{"town":"福岡蔵本","koaza":"尾箆","lat":38.006434,"lng":140.59106,"zip":"9890231"},{"town":"福岡蔵本","koaza":"南部屋敷","lat":38.014351,"lng":140.592898,"zip":"9890231"},{"town":"福岡蔵本","koaza":"原屋敷","lat":38.003244,"lng":140.594183,"zip":"9890231"},{"town":"福岡蔵本","koaza":"岩ノ上","lat":38.00505,"lng":140.596853,"zip":"9890231"},{"town":"斎川","koaza":"荒屋敷北","lat":37.95146,"lng":140.598938,"zip":"9890215"},{"town":"斎川","koaza":"中屋敷前","lat":37.94858,"lng":140.59953,"zip":"9890215"},{"town":"福岡蔵本","koaza":"下原","lat":38.014235,"lng":140.605565,"zip":"9890231"},{"town":"斎川","koaza":"関口","lat":37.972326,"lng":140.605368,"zip":"9890215"},{"town":"福岡蔵本","koaza":"薬師堂","lat":38.006492,"lng":140.603589,"zip":"9890231"},{"town":"福岡八宮","koaza":"川原","lat":38.027613,"lng":140.601452,"zip":"9890733"},{"town":"斎川","koaza":"上ノ南","lat":37.960413,"lng":140.605095,"zip":"9890215"},{"town":"福岡八宮","koaza":"梨木沢","lat":38.031225,"lng":140.607465,"zip":"9890733"},{"town":"大平中目","koaza":"拾枚田","lat":37.978372,"lng":140.604486,"zip":"9890216"},{"town":"斎川","koaza":"上ノ原屋敷","lat":37.958282,"lng":140.605534,"zip":"9890215"},{"town":"大平森合","koaza":"上御所之内","lat":37.988955,"lng":140.604435,"zip":"9890217"},{"town":"福岡蔵本","koaza":"新菅生田","lat":38.008113,"lng":140.606845,"zip":"9890231"},{"town":"大平森合","koaza":"坂下前","lat":37.991046,"lng":140.603968,"zip":"9890217"},{"town":"大平森合","koaza":"下森合","lat":37.992423,"lng":140.60832,"zip":"9890217"},{"town":"斎川","koaza":"保科","lat":37.968365,"lng":140.606078,"zip":"9890215"},{"town":"斎川","koaza":"西明堂山","lat":37.946879,"lng":140.607756,"zip":"9890215"},{"town":"斎川","koaza":"御案内屋敷","lat":37.957611,"lng":140.607383,"zip":"9890215"},{"town":"斎川","koaza":"前原脇","lat":37.965987,"lng":140.607328,"zip":"9890215"},{"town":"大平森合","koaza":"上神明前","lat":37.995912,"lng":140.606104,"zip":"9890217"},{"town":"大平森合","koaza":"白川前畑","lat":37.987063,"lng":140.606187,"zip":"9890217"},{"town":"斎川","koaza":"用明","lat":37.972461,"lng":140.607428,"zip":"9890215"},{"town":"大平森合","koaza":"寺前","lat":37.999179,"lng":140.606521,"zip":"9890217"},{"town":"大平森合","koaza":"山口","lat":37.996422,"lng":140.603129,"zip":"9890217"},{"town":"大平森合","koaza":"森合沖","lat":37.996504,"lng":140.609544,"zip":"9890217"},{"town":"大平森合","koaza":"原町","lat":37.985179,"lng":140.607878,"zip":"9890217"},{"town":"福岡蔵本","koaza":"一本木","lat":38.000618,"lng":140.604701,"zip":"9890231"},{"town":"斎川","koaza":"前原屋敷","lat":37.967215,"lng":140.607173,"zip":"9890215"},{"town":"大平森合","koaza":"上森合","lat":37.986999,"lng":140.607758,"zip":"9890217"},{"town":"福岡蔵本","koaza":"下原沖","lat":38.011738,"lng":140.607794,"zip":"9890231"},{"town":"斎川","koaza":"宮内敷","lat":37.969916,"lng":140.608129,"zip":"9890215"},{"town":"大平中目","koaza":"北城前","lat":37.981894,"lng":140.606564,"zip":"9890216"},{"town":"斎川","koaza":"中斎川西","lat":37.970662,"lng":140.608042,"zip":"9890215"},{"town":"大平森合","koaza":"北中屋敷","lat":37.99829,"lng":140.608189,"zip":"9890217"},{"town":"斎川","koaza":"上ノ田","lat":37.972318,"lng":140.608404,"zip":"9890215"},{"town":"大平森合","koaza":"中屋敷","lat":37.997116,"lng":140.607623,"zip":"9890217"},{"town":"斎川","koaza":"舘山","lat":37.954843,"lng":140.608981,"zip":"9890215"},{"town":"福岡八宮","koaza":"下屋敷","lat":38.031135,"lng":140.609091,"zip":"9890733"},{"town":"大平中目","koaza":"銭坂","lat":37.976968,"lng":140.609073,"zip":"9890216"},{"town":"大平中目","koaza":"太平北","lat":37.984113,"lng":140.611075,"zip":"9890216"},{"town":"大平中目","koaza":"舘前","lat":37.979316,"lng":140.609475,"zip":"9890216"},{"town":"大平中目","koaza":"古屋敷","lat":37.978322,"lng":140.609612,"zip":"9890216"},{"town":"斎川","koaza":"町屋敷","lat":37.959898,"lng":140.61171,"zip":"9890215"},{"town":"福岡蔵本","koaza":"西町","lat":38.001065,"lng":140.611107,"zip":"9890231"},{"town":"斎川","koaza":"滝尻屋敷","lat":37.949198,"lng":140.611782,"zip":"9890215"},{"town":"福岡八宮","koaza":"杉ノ下北","lat":38.035118,"lng":140.610875,"zip":"9890733"},{"town":"大平森合","koaza":"沖ノ沢","lat":37.992353,"lng":140.610717,"zip":"9890217"},{"town":"斎川","koaza":"道満","lat":37.971931,"lng":140.610796,"zip":"9890215"},{"town":"福岡八宮","koaza":"舘前","lat":38.030806,"lng":140.609987,"zip":"9890733"},{"town":"大平森合","koaza":"権現","lat":37.990459,"lng":140.610708,"zip":"9890217"},{"town":"大平中目","koaza":"太平前","lat":37.982538,"lng":140.612421,"zip":"9890216"},{"town":"福岡長袋","koaza":"天津沢南","lat":38.015258,"lng":140.610906,"zip":"9890732"},{"town":"斎川","koaza":"鳥居坂南","lat":37.964868,"lng":140.613451,"zip":"9890215"},{"town":"大平中目","koaza":"中田","lat":37.980042,"lng":140.614118,"zip":"9890216"},{"town":"斎川","koaza":"地蔵院前","lat":37.96808,"lng":140.61278,"zip":"9890215"},{"town":"斎川","koaza":"田神山","lat":37.945634,"lng":140.617393,"zip":"9890215"},{"town":"大平中目","koaza":"威徳寺前","lat":37.985686,"lng":140.614105,"zip":"9890216"},{"town":"福岡長袋","koaza":"田子屋敷","lat":38.023834,"lng":140.613672,"zip":"9890732"},{"town":"大平森合","koaza":"鹿ノ前","lat":37.990262,"lng":140.61391,"zip":"9890217"},{"town":"福岡長袋","koaza":"沖","lat":38.026944,"lng":140.620184,"zip":"9890732"},{"town":"斎川","koaza":"大寄","lat":37.96369,"lng":140.61518,"zip":"9890215"},{"town":"福岡長袋","koaza":"箱堰","lat":38.02566,"lng":140.616414,"zip":"9890732"},{"town":"福岡深谷","koaza":"上高野","lat":38.037635,"lng":140.615621,"zip":"9890731"},{"town":"福岡蔵本","koaza":"馬頭","lat":38.013813,"lng":140.616211,"zip":"9890231"},{"town":"福岡長袋","koaza":"陣場が丘","lat":38.013457,"lng":140.617587,"zip":"9890732"},{"town":"福岡深谷","koaza":"下舘","lat":38.031509,"lng":140.618368,"zip":"9890731"},{"town":"斎川","koaza":"中島","lat":37.965639,"lng":140.618895,"zip":"9890215"},{"town":"斎川","koaza":"横町","lat":37.968851,"lng":140.617558,"zip":"9890215"},{"town":"福岡蔵本","koaza":"陣場","lat":38.01217,"lng":140.616464,"zip":"9890231"},{"town":"斎川","koaza":"栃久保","lat":37.95712,"lng":140.616545,"zip":"9890215"},{"town":"大平中目","koaza":"八ツ森脇","lat":37.985609,"lng":140.617943,"zip":"9890216"},{"town":"福岡深谷","koaza":"高野","lat":38.035891,"lng":140.618243,"zip":"9890731"},{"town":"斎川","koaza":"下川原","lat":37.970422,"lng":140.61933,"zip":"9890215"},{"town":"福岡深谷","koaza":"上屋敷","lat":38.038516,"lng":140.618979,"zip":"9890731"},{"town":"福岡長袋","koaza":"山ノ下","lat":38.014231,"lng":140.621023,"zip":"9890732"},{"town":"大平中目","koaza":"西田","lat":37.982765,"lng":140.616892,"zip":"9890216"},{"town":"福岡深谷","koaza":"荒井脇","lat":38.03237,"lng":140.621528,"zip":"9890731"},{"town":"大平中目","koaza":"斎原","lat":37.97899,"lng":140.622443,"zip":"9890216"},{"town":"福岡長袋","koaza":"中ノ在家","lat":38.026246,"lng":140.622618,"zip":"9890732"},{"town":"福岡長袋","koaza":"鹿ノ前","lat":38.023733,"lng":140.621499,"zip":"9890732"},{"town":"福岡深谷","koaza":"湯ノ口","lat":38.036725,"lng":140.623983,"zip":"9890731"},{"town":"斎川","koaza":"塚田","lat":37.978416,"lng":140.624019,"zip":"9890215"},{"town":"大平森合","koaza":"八ツ森前","lat":37.986262,"lng":140.621544,"zip":"9890217"},{"town":"福岡深谷","koaza":"六角","lat":38.038352,"lng":140.627571,"zip":"9890731"},{"town":"福岡深谷","koaza":"中丸","lat":38.041791,"lng":140.626083,"zip":"9890731"},{"town":"大平中目","koaza":"東田","lat":37.984603,"lng":140.625634,"zip":"9890216"},{"town":"斎川","koaza":"峯前","lat":37.969166,"lng":140.623485,"zip":"9890215"},{"town":"福岡長袋","koaza":"岩崎","lat":38.017472,"lng":140.62544,"zip":"9890732"},{"town":"福岡深谷","koaza":"前原","lat":38.035802,"lng":140.62654,"zip":"9890731"},{"town":"大平坂谷","koaza":"坂谷沖","lat":37.982957,"lng":140.62785,"zip":"9890214"},{"town":"福岡深谷","koaza":"南上","lat":38.037011,"lng":140.626626,"zip":"9890731"},{"town":"福岡深谷","koaza":"青木","lat":38.033062,"lng":140.62962,"zip":"9890731"},{"town":"斎川","koaza":"中沢田","lat":37.955647,"lng":140.626267,"zip":"9890215"},{"town":"大平坂谷","koaza":"石高前","lat":37.977236,"lng":140.62741,"zip":"9890214"},{"town":"福岡深谷","koaza":"関下","lat":38.047807,"lng":140.628869,"zip":"9890731"},{"town":"大鷹沢三沢","koaza":"田中","lat":37.989015,"lng":140.628112,"zip":"9890213"},{"town":"福岡深谷","koaza":"荒井","lat":38.035737,"lng":140.621956,"zip":"9890731"},{"town":"福岡深谷","koaza":"松田","lat":38.035918,"lng":140.628113,"zip":"9890731"},{"town":"郡山","koaza":"西堀","lat":38.019181,"lng":140.631021,"zip":"9890203"},{"town":"郡山","koaza":"七屋敷","lat":38.005092,"lng":140.633005,"zip":"9890203"},{"town":"福岡深谷","koaza":"地蔵堂","lat":38.029595,"lng":140.630367,"zip":"9890731"},{"town":"福岡深谷","koaza":"別当内","lat":38.046631,"lng":140.629528,"zip":"9890731"},{"town":"福岡深谷","koaza":"南沖","lat":38.03464,"lng":140.629807,"zip":"9890731"},{"town":"大鷹沢三沢","koaza":"田中前","lat":37.988101,"lng":140.631633,"zip":"9890213"},{"town":"福岡深谷","koaza":"植田","lat":38.041842,"lng":140.631653,"zip":"9890731"},{"town":"大平坂谷","koaza":"山王下","lat":37.978661,"lng":140.631305,"zip":"9890214"},{"town":"郡山","koaza":"平成","lat":38.016148,"lng":140.63318,"zip":"9890203"},{"town":"福岡深谷","koaza":"川原","lat":38.034737,"lng":140.631609,"zip":"9890731"},{"town":"大鷹沢三沢","koaza":"前輪沖","lat":37.982976,"lng":140.633008,"zip":"9890213"},{"town":"大平坂谷","koaza":"山王下沖","lat":37.979824,"lng":140.633149,"zip":"9890214"},{"town":"福岡深谷","koaza":"三本松","lat":38.034006,"lng":140.635548,"zip":"9890731"},{"town":"福岡深谷","koaza":"鴫内","lat":38.044947,"lng":140.633661,"zip":"9890731"},{"town":"福岡深谷","koaza":"佐久来","lat":38.03568,"lng":140.635903,"zip":"9890731"},{"town":"郡山","koaza":"荒屋敷","lat":38.006497,"lng":140.632808,"zip":"9890203"},{"town":"郡山","koaza":"観音崎","lat":38.009656,"lng":140.633693,"zip":"9890203"},{"town":"福岡深谷","koaza":"辰ノ口","lat":38.049356,"lng":140.635051,"zip":"9890731"},{"town":"小下倉","koaza":"関前","lat":38.025772,"lng":140.633912,"zip":"9890201"},{"town":"福岡深谷","koaza":"桜丘前","lat":38.039544,"lng":140.634116,"zip":"9890731"},{"town":"郡山","koaza":"具路","lat":38.012413,"lng":140.632895,"zip":"9890203"},{"town":"郡山","koaza":"下関下","lat":38.013829,"lng":140.635076,"zip":"9890203"},{"town":"福岡深谷","koaza":"沢","lat":38.04015,"lng":140.635767,"zip":"9890731"},{"town":"小下倉","koaza":"河原田","lat":38.027399,"lng":140.63611,"zip":"9890201"},{"town":"福岡深谷","koaza":"酒生内","lat":38.049653,"lng":140.639714,"zip":"9890731"},{"town":"郡山","koaza":"寿山","lat":38.00429,"lng":140.635007,"zip":"9890203"},{"town":"小下倉","koaza":"六角元","lat":38.026244,"lng":140.636191,"zip":"9890201"},{"town":"大鷹沢三沢","koaza":"三沢沖","lat":37.988866,"lng":140.639921,"zip":"9890213"},{"town":"福岡深谷","koaza":"土手下","lat":38.038099,"lng":140.636995,"zip":"9890731"},{"town":"小下倉","koaza":"石田","lat":38.028166,"lng":140.63777,"zip":"9890201"},{"town":"福岡深谷","koaza":"家老内","lat":38.044222,"lng":140.636523,"zip":"9890731"},{"town":"郡山","koaza":"江坪","lat":38.021012,"lng":140.636632,"zip":"9890203"},{"town":"福岡深谷","koaza":"勝負沢","lat":38.047766,"lng":140.63719,"zip":"9890731"},{"town":"福岡深谷","koaza":"明神","lat":38.041886,"lng":140.638229,"zip":"9890731"},{"town":"福岡深谷","koaza":"大黒天","lat":38.046041,"lng":140.6357,"zip":"9890731"},{"town":"郡山","koaza":"穴ノ前","lat":38.018305,"lng":140.639592,"zip":"9890203"},{"town":"小下倉","koaza":"下新田","lat":38.030394,"lng":140.639371,"zip":"9890201"},{"town":"福岡深谷","koaza":"家老内前","lat":38.043073,"lng":140.639618,"zip":"9890731"},{"town":"郡山","koaza":"新宮田","lat":38.016703,"lng":140.638575,"zip":"9890203"},{"town":"福岡深谷","koaza":"白山堂","lat":38.041372,"lng":140.640338,"zip":"9890731"},{"town":"郡山","koaza":"鹿野","lat":38.006401,"lng":140.638613,"zip":"9890203"},{"town":"郡山","koaza":"丹波柿","lat":38.004385,"lng":140.639828,"zip":"9890203"},{"town":"福岡深谷","koaza":"鳥越","lat":38.043911,"lng":140.641518,"zip":"9890731"},{"town":"大鷹沢大町","koaza":"大町沖","lat":37.98974,"lng":140.642729,"zip":"9890212"},{"town":"郡山","koaza":"鍋石山","lat":38.006264,"lng":140.643065,"zip":"9890203"},{"town":"鷹巣","koaza":"城内屋敷","lat":37.99889,"lng":140.642805,"zip":"9890222"},{"town":"大鷹沢大町","koaza":"稲荷山","lat":37.993345,"lng":140.646506,"zip":"9890212"},{"town":"郡山","koaza":"虎子沢山","lat":38.003264,"lng":140.645278,"zip":"9890203"},{"town":"鷹巣","koaza":"寺入屋敷","lat":37.999398,"lng":140.648748,"zip":"9890222"},{"town":"大鷹沢鷹巣","koaza":"釜前","lat":38.002812,"lng":140.64948,"zip":"9890211"},{"town":"大鷹沢鷹巣","koaza":"寺入屋敷東","lat":38.001075,"lng":140.648835,"zip":"9890211"},{"town":"福岡深谷","koaza":"三本木","lat":38.036601,"lng":140.613746,"zip":"9890731"},{"town":"福岡深谷","koaza":"岩見柴","lat":38.037208,"lng":140.611516,"zip":"9890731"},{"town":"福岡深谷","koaza":"松場","lat":38.035217,"lng":140.615281,"zip":"9890731"},{"town":"福岡八宮","koaza":"岩倉北","lat":38.03073,"lng":140.613426,"zip":"9890733"},{"town":"福岡八宮","koaza":"杉ノ下南","lat":38.033208,"lng":140.610716,"zip":"9890733"},{"town":"福岡八宮","koaza":"上ノ山","lat":38.03227,"lng":140.608545,"zip":"9890733"},{"town":"福岡八宮","koaza":"上ノ山北","lat":38.033495,"lng":140.610137,"zip":"9890733"},{"town":"福岡八宮","koaza":"小平","lat":38.033984,"lng":140.609154,"zip":"9890733"},{"town":"福岡八宮","koaza":"平","lat":38.030028,"lng":140.606953,"zip":"9890733"},{"town":"福岡八宮","koaza":"上ノ原","lat":38.028927,"lng":140.607993,"zip":"9890733"},{"town":"福岡八宮","koaza":"上屋敷","lat":38.028702,"lng":140.604514,"zip":"9890733"},{"town":"福岡八宮","koaza":"吹上","lat":38.027501,"lng":140.606624,"zip":"9890733"},{"town":"福岡八宮","koaza":"吹上下上","lat":38.02776,"lng":140.603517,"zip":"9890733"},{"town":"福岡八宮","koaza":"川内前南","lat":38.028838,"lng":140.601152,"zip":"9890733"},{"town":"福岡八宮","koaza":"原","lat":38.027746,"lng":140.609977,"zip":"9890733"},{"town":"福岡八宮","koaza":"下屋敷前","lat":38.028794,"lng":140.609684,"zip":"9890733"},{"town":"福岡八宮","koaza":"中ノ川","lat":38.026934,"lng":140.61105,"zip":"9890733"},{"town":"福岡八宮","koaza":"吹上下","lat":38.026342,"lng":140.607812,"zip":"9890733"},{"town":"福岡八宮","koaza":"南","lat":38.027514,"lng":140.61538,"zip":"9890733"},{"town":"福岡長袋","koaza":"楢原下","lat":38.026457,"lng":140.613968,"zip":"9890732"},{"town":"福岡長袋","koaza":"上ノ神明裏","lat":38.024067,"lng":140.615787,"zip":"9890732"},{"town":"福岡長袋","koaza":"坪家沢裏","lat":38.024461,"lng":140.619555,"zip":"9890732"},{"town":"福岡長袋","koaza":"久保","lat":38.025014,"lng":140.612712,"zip":"9890732"},{"town":"福岡長袋","koaza":"河原沢","lat":38.017622,"lng":140.609984,"zip":"9890732"},{"town":"福岡長袋","koaza":"湯殿山裏","lat":38.016743,"lng":140.612962,"zip":"9890732"},{"town":"福岡長袋","koaza":"新田堀北","lat":38.016148,"lng":140.61073,"zip":"9890732"},{"town":"福岡長袋","koaza":"山根上","lat":38.016432,"lng":140.610061,"zip":"9890732"},{"town":"福岡長袋","koaza":"鍛冶屋敷北","lat":38.014698,"lng":140.608828,"zip":"9890732"},{"town":"福岡蔵本","koaza":"鍋石二番","lat":38.014978,"lng":140.606073,"zip":"9890231"},{"town":"福岡蔵本","koaza":"秋野沢","lat":38.010068,"lng":140.608371,"zip":"9890231"},{"town":"福岡蔵本","koaza":"狐壇","lat":38.011172,"lng":140.613251,"zip":"9890231"},{"town":"福岡長袋","koaza":"将棋石","lat":38.011328,"lng":140.613685,"zip":"9890732"},{"town":"福岡蔵本","koaza":"愛宕山","lat":37.999869,"lng":140.599511,"zip":"9890231"},{"town":"大平森合","koaza":"金山","lat":37.997719,"lng":140.604188,"zip":"9890217"},{"town":"大平森合","koaza":"鵞山","lat":37.994077,"lng":140.601828,"zip":"9890217"},{"town":"大平森合","koaza":"北畑前","lat":37.991074,"lng":140.605017,"zip":"9890217"},{"town":"大平森合","koaza":"上堀畑後","lat":37.989994,"lng":140.60661,"zip":"9890217"},{"town":"大平森合","koaza":"御所之内","lat":37.988955,"lng":140.606504,"zip":"9890217"},{"town":"大平森合","koaza":"下観音前","lat":37.98755,"lng":140.604649,"zip":"9890217"},{"town":"大平森合","koaza":"上原町","lat":37.985969,"lng":140.603925,"zip":"9890217"},{"town":"大平森合","koaza":"中原","lat":37.984351,"lng":140.605017,"zip":"9890217"},{"town":"大平森合","koaza":"幕ノ内前","lat":37.984135,"lng":140.607047,"zip":"9890217"},{"town":"大平中目","koaza":"下中畑前","lat":37.98089,"lng":140.607056,"zip":"9890216"},{"town":"大平中目","koaza":"中畑前","lat":37.980507,"lng":140.605332,"zip":"9890216"},{"town":"大平森合","koaza":"清水田","lat":37.988391,"lng":140.61677,"zip":"9890217"},{"town":"大平森合","koaza":"権現山","lat":37.990391,"lng":140.609366,"zip":"9890217"},{"town":"大平中目","koaza":"池ノ尻","lat":37.986707,"lng":140.610778,"zip":"9890216"},{"town":"大平中目","koaza":"日影","lat":37.983888,"lng":140.613838,"zip":"9890216"},{"town":"大平中目","koaza":"北屋敷前","lat":37.985584,"lng":140.612477,"zip":"9890216"},{"town":"大平森合","koaza":"八ツ森山","lat":37.987686,"lng":140.618273,"zip":"9890217"},{"town":"大平中目","koaza":"壱丁田","lat":37.984284,"lng":140.618522,"zip":"9890216"},{"town":"福岡蔵本","koaza":"菅堀","lat":38.008873,"lng":140.61275,"zip":"9890231"},{"town":"大平森合","koaza":"沖ノ前","lat":37.994674,"lng":140.607886,"zip":"9890217"},{"town":"大平森合","koaza":"下神明前","lat":37.996079,"lng":140.608309,"zip":"9890217"},{"town":"大平森合","koaza":"内田前","lat":37.993923,"lng":140.604641,"zip":"9890217"},{"town":"大平森合","koaza":"北六角","lat":37.993837,"lng":140.607624,"zip":"9890217"},{"town":"大平森合","koaza":"南六角","lat":37.993337,"lng":140.60873,"zip":"9890217"},{"town":"大平中目","koaza":"北ノ脇","lat":37.986039,"lng":140.610736,"zip":"9890216"},{"town":"大平森合","koaza":"幕ノ内","lat":37.984894,"lng":140.608325,"zip":"9890217"},{"town":"大平中目","koaza":"北堂原","lat":37.982817,"lng":140.606224,"zip":"9890216"},{"town":"大平中目","koaza":"唐沢前","lat":37.981239,"lng":140.607959,"zip":"9890216"},{"town":"斎川","koaza":"入道前","lat":37.94808,"lng":140.606088,"zip":"9890215"},{"town":"斎川","koaza":"坊ノ入","lat":37.954767,"lng":140.610267,"zip":"9890215"},{"town":"斎川","koaza":"上山入前","lat":37.952211,"lng":140.612576,"zip":"9890215"},{"town":"斎川","koaza":"下山ノ入前","lat":37.9543,"lng":140.613905,"zip":"9890215"},{"town":"斎川","koaza":"向山","lat":37.958897,"lng":140.61333,"zip":"9890215"},{"town":"斎川","koaza":"上向山","lat":37.958282,"lng":140.614906,"zip":"9890215"},{"town":"斎川","koaza":"笠松","lat":37.960187,"lng":140.61681,"zip":"9890215"},{"town":"斎川","koaza":"同宗脇","lat":37.959063,"lng":140.606931,"zip":"9890215"},{"town":"斎川","koaza":"町西浦","lat":37.960534,"lng":140.607993,"zip":"9890215"},{"town":"斎川","koaza":"休ノ宮","lat":37.965683,"lng":140.611387,"zip":"9890215"},{"town":"斎川","koaza":"地蔵院舘","lat":37.967444,"lng":140.611211,"zip":"9890215"},{"town":"斎川","koaza":"梶川","lat":37.969378,"lng":140.610052,"zip":"9890215"},{"town":"斎川","koaza":"須ノ小路","lat":37.97067,"lng":140.613428,"zip":"9890215"},{"town":"斎川","koaza":"安如","lat":37.97059,"lng":140.611364,"zip":"9890215"},{"town":"斎川","koaza":"大師","lat":37.971349,"lng":140.612276,"zip":"9890215"},{"town":"斎川","koaza":"別当","lat":37.97089,"lng":140.609585,"zip":"9890215"},{"town":"斎川","koaza":"楚利田","lat":37.973913,"lng":140.612164,"zip":"9890215"},{"town":"斎川","koaza":"八幡前","lat":37.973026,"lng":140.612257,"zip":"9890215"},{"town":"斎川","koaza":"塞ノ上","lat":37.973187,"lng":140.61062,"zip":"9890215"},{"town":"斎川","koaza":"大蔵内","lat":37.973081,"lng":140.609431,"zip":"9890215"},{"town":"大平中目","koaza":"南田","lat":37.979578,"lng":140.614739,"zip":"9890216"},{"town":"斎川","koaza":"下久保","lat":37.975249,"lng":140.609833,"zip":"9890215"},{"town":"斎川","koaza":"深沢","lat":37.974312,"lng":140.609812,"zip":"9890215"},{"town":"斎川","koaza":"鍛冶屋敷","lat":37.973852,"lng":140.605207,"zip":"9890215"},{"town":"斎川","koaza":"中森","lat":37.973377,"lng":140.605579,"zip":"9890215"},{"town":"斎川","koaza":"方光坊","lat":37.971403,"lng":140.60565,"zip":"9890215"},{"town":"斎川","koaza":"日下","lat":37.971122,"lng":140.60709,"zip":"9890215"},{"town":"斎川","koaza":"上ノ松","lat":37.963744,"lng":140.597802,"zip":"9890215"},{"town":"斎川","koaza":"真名板倉","lat":37.963893,"lng":140.604111,"zip":"9890215"},{"town":"斎川","koaza":"強清水","lat":37.961611,"lng":140.60202,"zip":"9890215"},{"town":"斎川","koaza":"鳥居坂北","lat":37.967984,"lng":140.613572,"zip":"9890215"},{"town":"斎川","koaza":"新町尻","lat":37.967405,"lng":140.614634,"zip":"9890215"},{"town":"斎川","koaza":"梶川前","lat":37.969372,"lng":140.613837,"zip":"9890215"},{"town":"斎川","koaza":"町尻北","lat":37.962375,"lng":140.612444,"zip":"9890215"},{"town":"斎川","koaza":"町尻南","lat":37.96171,"lng":140.612477,"zip":"9890215"},{"town":"斎川","koaza":"鹿ノ子沖","lat":37.9629,"lng":140.615282,"zip":"9890215"},{"town":"斎川","koaza":"上駒板南","lat":37.960985,"lng":140.614913,"zip":"9890215"},{"town":"斎川","koaza":"高畑前","lat":37.955992,"lng":140.604316,"zip":"9890215"},{"town":"斎川","koaza":"峠森前","lat":37.954855,"lng":140.603591,"zip":"9890215"},{"town":"斎川","koaza":"原前","lat":37.948882,"lng":140.602404,"zip":"9890215"},{"town":"斎川","koaza":"原屋敷","lat":37.949465,"lng":140.599465,"zip":"9890215"},{"town":"斎川","koaza":"荒井","lat":37.947598,"lng":140.601975,"zip":"9890215"},{"town":"斎川","koaza":"亀井","lat":37.950273,"lng":140.600792,"zip":"9890215"},{"town":"斎川","koaza":"荒屋敷","lat":37.950492,"lng":140.596686,"zip":"9890215"},{"town":"斎川","koaza":"中森屋敷","lat":37.953195,"lng":140.599343,"zip":"9890215"},{"town":"斎川","koaza":"高畠","lat":37.958054,"lng":140.602527,"zip":"9890215"},{"town":"大平中目","koaza":"中屋敷前","lat":37.977206,"lng":140.6028,"zip":"9890216"},{"town":"大平中目","koaza":"立道","lat":37.97665,"lng":140.603274,"zip":"9890216"},{"town":"大平中目","koaza":"道下前","lat":37.977667,"lng":140.609579,"zip":"9890216"},{"town":"大平中目","koaza":"桂坂","lat":37.974114,"lng":140.598972,"zip":"9890216"},{"town":"大平中目","koaza":"毘沙門堂前","lat":37.979604,"lng":140.595489,"zip":"9890216"},{"town":"大平中目","koaza":"帰原","lat":37.980789,"lng":140.601716,"zip":"9890216"},{"town":"大平中目","koaza":"糂坂","lat":37.976083,"lng":140.596865,"zip":"9890216"},{"town":"斎川","koaza":"方角","lat":37.971849,"lng":140.599501,"zip":"9890215"},{"town":"斎川","koaza":"上久保向","lat":37.974671,"lng":140.604833,"zip":"9890215"},{"town":"大平森合","koaza":"北山田","lat":37.986567,"lng":140.60057,"zip":"9890217"},{"town":"大平森合","koaza":"上観音前","lat":37.987494,"lng":140.601795,"zip":"9890217"},{"town":"小原","koaza":"沢畑","lat":37.975511,"lng":140.562977,"zip":"9890233"},{"town":"小原","koaza":"西","lat":37.977967,"lng":140.563038,"zip":"9890233"},{"town":"福岡深谷","koaza":"北沢田","lat":38.045562,"lng":140.636862,"zip":"9890731"},{"town":"福岡深谷","koaza":"笊内","lat":38.048642,"lng":140.630917,"zip":"9890731"},{"town":"福岡深谷","koaza":"太子堂","lat":38.042541,"lng":140.641042,"zip":"9890731"},{"town":"福岡深谷","koaza":"東北","lat":38.041821,"lng":140.642153,"zip":"9890731"},{"town":"福岡深谷","koaza":"一本松","lat":38.039056,"lng":140.64392,"zip":"9890731"},{"town":"福岡深谷","koaza":"古田中","lat":38.040169,"lng":140.639052,"zip":"9890731"},{"town":"福岡深谷","koaza":"東沖","lat":38.039418,"lng":140.640638,"zip":"9890731"},{"town":"福岡深谷","koaza":"荒屋敷前","lat":38.039035,"lng":140.638275,"zip":"9890731"},{"town":"福岡深谷","koaza":"妙見堂","lat":38.03378,"lng":140.629754,"zip":"9890731"},{"town":"福岡深谷","koaza":"街道外三番","lat":38.034283,"lng":140.639196,"zip":"9890731"},{"town":"福岡深谷","koaza":"街道外沖","lat":38.03371,"lng":140.64352,"zip":"9890731"},{"town":"小下倉","koaza":"岩崎山","lat":38.023433,"lng":140.636026,"zip":"9890201"},{"town":"小下倉","koaza":"以保石","lat":38.025237,"lng":140.638392,"zip":"9890201"},{"town":"小下倉","koaza":"天王","lat":38.026102,"lng":140.642166,"zip":"9890201"},{"town":"小下倉","koaza":"岩下","lat":38.026369,"lng":140.642743,"zip":"9890201"},{"town":"郡山","koaza":"弥陀内","lat":38.011613,"lng":140.630476,"zip":"9890203"},{"town":"郡山","koaza":"台田","lat":38.012699,"lng":140.630128,"zip":"9890203"},{"town":"郡山","koaza":"芳ケ沢","lat":38.012541,"lng":140.630543,"zip":"9890203"},{"town":"郡山","koaza":"五昇路","lat":38.009681,"lng":140.631554,"zip":"9890203"},{"town":"斎川","koaza":"峠森屋敷","lat":37.953851,"lng":140.602435,"zip":"9890215"},{"town":"斎川","koaza":"山神前","lat":37.953705,"lng":140.604001,"zip":"9890215"},{"town":"斎川","koaza":"小萱","lat":37.950623,"lng":140.602989,"zip":"9890215"},{"town":"大平中目","koaza":"穴田前","lat":37.978924,"lng":140.61189,"zip":"9890216"},{"town":"大平中目","koaza":"兼田","lat":37.981052,"lng":140.614274,"zip":"9890216"},{"town":"大平中目","koaza":"六反町","lat":37.981877,"lng":140.616321,"zip":"9890216"},{"town":"大平森合","koaza":"丸山","lat":37.984665,"lng":140.595521,"zip":"9890217"},{"town":"斎川","koaza":"高森","lat":37.952342,"lng":140.61831,"zip":"9890215"},{"town":"斎川","koaza":"間松","lat":37.951789,"lng":140.625439,"zip":"9890215"},{"town":"斎川","koaza":"板木","lat":37.952672,"lng":140.622436,"zip":"9890215"},{"town":"斎川","koaza":"下沢田","lat":37.957913,"lng":140.622271,"zip":"9890215"},{"town":"斎川","koaza":"塩田","lat":37.955661,"lng":140.620495,"zip":"9890215"},{"town":"斎川","koaza":"沼前","lat":37.961858,"lng":140.623482,"zip":"9890215"},{"town":"斎川","koaza":"森内","lat":37.960388,"lng":140.621507,"zip":"9890215"},{"town":"斎川","koaza":"池ノ入山","lat":37.958801,"lng":140.626518,"zip":"9890215"},{"town":"斎川","koaza":"上沢田","lat":37.954001,"lng":140.630886,"zip":"9890215"},{"town":"斎川","koaza":"荒屋敷下","lat":37.965479,"lng":140.627126,"zip":"9890215"},{"town":"斎川","koaza":"竹原","lat":37.962424,"lng":140.628356,"zip":"9890215"},{"town":"斎川","koaza":"御嶽前","lat":37.965604,"lng":140.620254,"zip":"9890215"},{"town":"斎川","koaza":"鶴巻","lat":37.972366,"lng":140.62094,"zip":"9890215"},{"town":"斎川","koaza":"弥平田","lat":37.970619,"lng":140.620141,"zip":"9890215"},{"town":"斎川","koaza":"亀田","lat":37.970419,"lng":140.622473,"zip":"9890215"},{"town":"斎川","koaza":"谷地","lat":37.971381,"lng":140.625766,"zip":"9890215"},{"town":"大平坂谷","koaza":"塚田","lat":37.97531,"lng":140.625235,"zip":"9890214"},{"town":"斎川","koaza":"小山田","lat":37.973784,"lng":140.625892,"zip":"9890215"},{"town":"大平坂谷","koaza":"堂伝前","lat":37.979881,"lng":140.628794,"zip":"9890214"},{"town":"大平坂谷","koaza":"樋ノ口","lat":37.980947,"lng":140.624531,"zip":"9890214"},{"town":"大平中目","koaza":"火打田","lat":37.981698,"lng":140.622955,"zip":"9890216"},{"town":"大平坂谷","koaza":"大柳前","lat":37.983589,"lng":140.625708,"zip":"9890214"},{"town":"大平中目","koaza":"大柳前","lat":37.983398,"lng":140.624816,"zip":"9890216"},{"town":"大平坂谷","koaza":"志在家","lat":37.979377,"lng":140.635074,"zip":"9890214"},{"town":"大平坂谷","koaza":"久保沢","lat":37.979773,"lng":140.630466,"zip":"9890214"},{"town":"大平坂谷","koaza":"原ノ下","lat":37.97927,"lng":140.636864,"zip":"9890214"},{"town":"大平坂谷","koaza":"小萄石","lat":37.979935,"lng":140.638199,"zip":"9890214"},{"town":"大鷹沢三沢","koaza":"前輪","lat":37.981805,"lng":140.637188,"zip":"9890213"},{"town":"大鷹沢三沢","koaza":"桜田","lat":37.995411,"lng":140.633013,"zip":"9890213"},{"town":"鷹巣","koaza":"鳥喰","lat":37.997914,"lng":140.635321,"zip":"9890222"},{"town":"大平森合","koaza":"瀞田","lat":37.989026,"lng":140.620743,"zip":"9890217"},{"town":"上金坪","koaza":"","lat":37.988085,"lng":140.622113,"zip":"9890200"},{"town":"大平森合","koaza":"上八ツ森","lat":37.987605,"lng":140.620547,"zip":"9890217"},{"town":"小原","koaza":"湯倉","lat":37.980744,"lng":140.562279,"zip":"9890233"},{"town":"小原","koaza":"坂上","lat":37.984374,"lng":140.563778,"zip":"9890233"},{"town":"福岡蔵本","koaza":"箕輪田一番","lat":38.004408,"lng":140.583345,"zip":"9890231"},{"town":"福岡蔵本","koaza":"箕輪田二番","lat":38.005995,"lng":140.578217,"zip":"9890231"},{"town":"福岡蔵本","koaza":"上川原","lat":38.005557,"lng":140.585635,"zip":"9890231"},{"town":"福岡蔵本","koaza":"上田切","lat":38.009146,"lng":140.581122,"zip":"9890231"},{"town":"福岡蔵本","koaza":"田切","lat":38.008398,"lng":140.583996,"zip":"9890231"},{"town":"福岡蔵本","koaza":"良口","lat":38.010249,"lng":140.582057,"zip":"9890231"},{"town":"福岡蔵本","koaza":"上原","lat":38.009796,"lng":140.578924,"zip":"9890231"},{"town":"福岡蔵本","koaza":"源田","lat":38.01341,"lng":140.576847,"zip":"9890231"},{"town":"福岡蔵本","koaza":"念仏","lat":38.011003,"lng":140.579232,"zip":"9890231"},{"town":"福岡長袋","koaza":"石淵","lat":38.020243,"lng":140.581262,"zip":"9890732"},{"town":"福岡蔵本","koaza":"鎌先二番","lat":38.021812,"lng":140.576901,"zip":"9890231"},{"town":"福岡八宮","koaza":"弥治郎南","lat":38.027629,"lng":140.575329,"zip":"9890733"},{"town":"福岡蔵本","koaza":"番小屋","lat":38.01662,"lng":140.59573,"zip":"9890231"},{"town":"福岡蔵本","koaza":"供養坂","lat":38.012577,"lng":140.592503,"zip":"9890231"},{"town":"福岡八宮","koaza":"芹沢","lat":38.027773,"lng":140.597818,"zip":"9890733"},{"town":"福岡八宮","koaza":"腰巡","lat":38.026605,"lng":140.600598,"zip":"9890733"},{"town":"福岡蔵本","koaza":"西坂","lat":38.006713,"lng":140.586502,"zip":"9890231"},{"town":"福岡蔵本","koaza":"西ノ原一番","lat":38.002726,"lng":140.591076,"zip":"9890231"},{"town":"福岡蔵本","koaza":"西田","lat":38.003653,"lng":140.590053,"zip":"9890231"},{"town":"福岡蔵本","koaza":"箱森","lat":37.999448,"lng":140.588178,"zip":"9890231"},{"town":"大平森合","koaza":"南山田","lat":37.984608,"lng":140.600772,"zip":"9890217"},{"town":"大平森合","koaza":"原","lat":37.982937,"lng":140.596533,"zip":"9890217"},{"town":"大平森合","koaza":"新原","lat":37.983534,"lng":140.602815,"zip":"9890217"},{"town":"斎川","koaza":"駒板脇","lat":37.963563,"lng":140.61822,"zip":"9890215"},{"town":"斎川","koaza":"鬼別当","lat":37.96288,"lng":140.617581,"zip":"9890215"},{"town":"大平中目","koaza":"太平脇","lat":37.982824,"lng":140.611794,"zip":"9890216"},{"town":"大平中目","koaza":"北城山","lat":37.983063,"lng":140.60462,"zip":"9890216"},{"town":"大平森合","koaza":"下鹿ノ前","lat":37.990316,"lng":140.617007,"zip":"9890217"},{"town":"大平中目","koaza":"八ツ森山","lat":37.986016,"lng":140.617225,"zip":"9890216"},{"town":"大平森合","koaza":"沢ノ前","lat":37.993836,"lng":140.609285,"zip":"9890217"},{"town":"福岡長袋","koaza":"山根入","lat":38.015667,"lng":140.60706,"zip":"9890732"},{"town":"福岡長袋","koaza":"山田","lat":38.015955,"lng":140.604212,"zip":"9890732"},{"town":"福岡深谷","koaza":"鹿野","lat":38.043531,"lng":140.625301,"zip":"9890731"},{"town":"福岡深谷","koaza":"北畑","lat":38.039975,"lng":140.619581,"zip":"9890731"},{"town":"福岡深谷","koaza":"一本木","lat":38.040507,"lng":140.622838,"zip":"9890731"},{"town":"福岡深谷","koaza":"高野原","lat":38.039751,"lng":140.622315,"zip":"9890731"},{"town":"福岡深谷","koaza":"上屋敷前","lat":38.03733,"lng":140.620202,"zip":"9890731"},{"town":"福岡深谷","koaza":"松田前","lat":38.038458,"lng":140.629401,"zip":"9890731"},{"town":"福岡深谷","koaza":"南町","lat":38.037664,"lng":140.629795,"zip":"9890731"},{"town":"福岡深谷","koaza":"荒井前","lat":38.034171,"lng":140.625098,"zip":"9890731"},{"town":"福岡深谷","koaza":"御所内","lat":38.033194,"lng":140.62822,"zip":"9890731"},{"town":"福岡深谷","koaza":"青木脇","lat":38.032691,"lng":140.628391,"zip":"9890731"},{"town":"福岡深谷","koaza":"青木上","lat":38.032593,"lng":140.627484,"zip":"9890731"},{"town":"福岡深谷","koaza":"青木後","lat":38.030809,"lng":140.624787,"zip":"9890731"},{"town":"福岡深谷","koaza":"原野町","lat":38.034229,"lng":140.617539,"zip":"9890731"},{"town":"福岡深谷","koaza":"道内原","lat":38.031421,"lng":140.620758,"zip":"9890731"},{"town":"福岡長袋","koaza":"天王","lat":38.026544,"lng":140.627576,"zip":"9890732"},{"town":"福岡長袋","koaza":"坂下","lat":38.022751,"lng":140.624202,"zip":"9890732"},{"town":"福岡長袋","koaza":"八斗蒔","lat":38.02432,"lng":140.625767,"zip":"9890732"},{"town":"福岡長袋","koaza":"高畑","lat":38.022385,"lng":140.625303,"zip":"9890732"},{"town":"福岡長袋","koaza":"壱里檀","lat":38.025683,"lng":140.628522,"zip":"9890732"},{"town":"福岡長袋","koaza":"下河原","lat":38.023363,"lng":140.627293,"zip":"9890732"},{"town":"福岡長袋","koaza":"中ノ狐沢北","lat":38.015183,"lng":140.620291,"zip":"9890732"},{"town":"福岡長袋","koaza":"中ノ狐沢南","lat":38.013034,"lng":140.618447,"zip":"9890732"},{"town":"郡山","koaza":"上堰","lat":38.016239,"lng":140.631533,"zip":"9890203"},{"town":"郡山","koaza":"馬場堀東","lat":38.018853,"lng":140.634405,"zip":"9890203"},{"town":"郡山","koaza":"下堰","lat":38.016481,"lng":140.632499,"zip":"9890203"},{"town":"大鷹沢三沢","koaza":"曲田","lat":37.984593,"lng":140.627638,"zip":"9890213"},{"town":"大平坂谷","koaza":"曲田","lat":37.983867,"lng":140.627279,"zip":"9890214"},{"town":"大平中目","koaza":"大黒松","lat":37.98528,"lng":140.620762,"zip":"9890216"},{"town":"大平坂谷","koaza":"西在家前","lat":37.981382,"lng":140.631361,"zip":"9890214"},{"town":"大平坂谷","koaza":"西在家山","lat":37.980051,"lng":140.631031,"zip":"9890214"},{"town":"大平坂谷","koaza":"藤内","lat":37.979819,"lng":140.632081,"zip":"9890214"},{"town":"大鷹沢三沢","koaza":"下峯崎","lat":37.984257,"lng":140.63345,"zip":"9890213"},{"town":"大鷹沢三沢","koaza":"達平","lat":37.991748,"lng":140.639167,"zip":"9890213"},{"town":"大鷹沢三沢","koaza":"坂端","lat":37.991903,"lng":140.639861,"zip":"9890213"},{"town":"大鷹沢三沢","koaza":"熊野堂","lat":37.991942,"lng":140.642438,"zip":"9890213"},{"town":"鷹巣","koaza":"三島","lat":37.995199,"lng":140.637546,"zip":"9890222"},{"town":"鷹巣","koaza":"芳賀屋敷後山","lat":37.993763,"lng":140.64023,"zip":"9890222"},{"town":"鷹巣","koaza":"芳賀屋敷","lat":37.995042,"lng":140.639517,"zip":"9890222"},{"town":"鷹巣","koaza":"柴ノ下","lat":37.995432,"lng":140.641977,"zip":"9890222"},{"town":"大鷹沢三沢","koaza":"宮下","lat":37.993687,"lng":140.636344,"zip":"9890213"},{"town":"鷹巣","koaza":"石神","lat":37.996876,"lng":140.648669,"zip":"9890222"},{"town":"鷹巣","koaza":"高木坂","lat":37.995431,"lng":140.645141,"zip":"9890222"},{"town":"鷹巣","koaza":"伊崎","lat":37.996886,"lng":140.64639,"zip":"9890222"},{"town":"鷹巣","koaza":"石神後山","lat":37.997856,"lng":140.649286,"zip":"9890222"},{"town":"郡山","koaza":"下蟹沢","lat":38.004405,"lng":140.642967,"zip":"9890203"},{"town":"郡山","koaza":"上蟹沢","lat":38.004158,"lng":140.643992,"zip":"9890203"},{"town":"郡山","koaza":"卯当","lat":38.004777,"lng":140.651409,"zip":"9890203"},{"town":"郡山","koaza":"黒岩","lat":38.005141,"lng":140.650701,"zip":"9890203"},{"town":"郡山","koaza":"井戸","lat":38.008424,"lng":140.64585,"zip":"9890203"},{"town":"郡山","koaza":"堤下山","lat":38.010376,"lng":140.648422,"zip":"9890203"},{"town":"鷹巣","koaza":"田手","lat":37.998548,"lng":140.640979,"zip":"9890222"},{"town":"鷹巣","koaza":"蛭賀屋敷後","lat":38.000374,"lng":140.637758,"zip":"9890222"},{"town":"鷹巣","koaza":"本木山","lat":38.00038,"lng":140.635845,"zip":"9890222"},{"town":"鷹巣","koaza":"和貢前","lat":37.998397,"lng":140.635537,"zip":"9890222"},{"town":"鷹巣","koaza":"平地山","lat":37.99971,"lng":140.636181,"zip":"9890222"},{"town":"鷹巣","koaza":"向田","lat":37.996148,"lng":140.633597,"zip":"9890222"},{"town":"鷹巣","koaza":"桜田","lat":37.996856,"lng":140.634214,"zip":"9890222"},{"town":"鷹巣","koaza":"雁カラ橋東","lat":37.997734,"lng":140.631323,"zip":"9890222"},{"town":"鷹巣","koaza":"川崎前","lat":38.001447,"lng":140.630404,"zip":"9890222"},{"town":"鷹巣","koaza":"梅田","lat":37.998739,"lng":140.631292,"zip":"9890222"},{"town":"鷹巣","koaza":"和貢","lat":38.000073,"lng":140.634953,"zip":"9890222"},{"town":"鷹巣","koaza":"川崎本木","lat":38.001168,"lng":140.632042,"zip":"9890222"},{"town":"福岡蔵本","koaza":"笠松","lat":38.013817,"lng":140.595811,"zip":"9890231"},{"town":"鷹巣","koaza":"坂下","lat":38.000542,"lng":140.633769,"zip":"9890222"},{"town":"福岡深谷","koaza":"鴫内前","lat":38.044243,"lng":140.635015,"zip":"9890731"},{"town":"郡山","koaza":"東中堀","lat":38.019275,"lng":140.633389,"zip":"9890203"},{"town":"郡山","koaza":"合体沢","lat":38.021113,"lng":140.642052,"zip":"9890203"},{"town":"郡山","koaza":"樋口","lat":38.012704,"lng":140.636896,"zip":"9890203"},{"town":"郡山","koaza":"山田沢","lat":38.012355,"lng":140.638626,"zip":"9890203"},{"town":"郡山","koaza":"寺入山","lat":38.018851,"lng":140.641733,"zip":"9890203"},{"town":"郡山","koaza":"穴口山","lat":38.019623,"lng":140.642659,"zip":"9890203"},{"town":"郡山","koaza":"金倉","lat":38.016244,"lng":140.639025,"zip":"9890203"},{"town":"郡山","koaza":"上関下","lat":38.012779,"lng":140.634742,"zip":"9890203"},{"town":"鷹巣","koaza":"久保山","lat":37.993833,"lng":140.642773,"zip":"9890222"},{"town":"鷹巣","koaza":"荒屋敷前","lat":37.998757,"lng":140.637713,"zip":"9890222"},{"town":"鷹巣","koaza":"ヒル賀屋敷","lat":37.998736,"lng":140.639163,"zip":"9890222"},{"town":"郡山","koaza":"雨ケ作","lat":38.005034,"lng":140.637345,"zip":"9890203"},{"town":"郡山","koaza":"花見平","lat":38.004309,"lng":140.637513,"zip":"9890203"},{"town":"郡山","koaza":"飯塚","lat":38.005944,"lng":140.641142,"zip":"9890203"},{"town":"郡山","koaza":"館山","lat":38.012551,"lng":140.64052,"zip":"9890203"},{"town":"郡山","koaza":"日向山","lat":38.014831,"lng":140.643065,"zip":"9890203"},{"town":"郡山","koaza":"中沢山","lat":38.009575,"lng":140.639286,"zip":"9890203"},{"town":"郡山","koaza":"西中堀","lat":38.021875,"lng":140.632173,"zip":"9890203"},{"town":"郡山","koaza":"向山田","lat":38.011075,"lng":140.640546,"zip":"9890203"},{"town":"郡山","koaza":"横道山","lat":38.010122,"lng":140.641699,"zip":"9890203"},{"town":"郡山","koaza":"小森下","lat":38.008028,"lng":140.65089,"zip":"9890203"},{"town":"郡山","koaza":"北鹿野","lat":38.011141,"lng":140.637543,"zip":"9890203"},{"town":"鷹巣","koaza":"堂ノ入山","lat":38.000151,"lng":140.645267,"zip":"9890222"},{"town":"大鷹沢三沢","koaza":"田中北","lat":37.987908,"lng":140.629229,"zip":"9890213"},{"town":"福岡八宮","koaza":"坂町","lat":38.029902,"lng":140.610148,"zip":"9890733"},{"town":"福岡深谷","koaza":"北沢","lat":38.0407,"lng":140.618735,"zip":"9890731"},{"town":"小下倉","koaza":"山岸","lat":38.023709,"lng":140.644495,"zip":"9890201"},{"town":"小下倉","koaza":"山口","lat":38.030085,"lng":140.649353,"zip":"9890201"},{"town":"郡山","koaza":"金山","lat":38.018591,"lng":140.646984,"zip":"9890203"},{"town":"福岡蔵本","koaza":"亀ケ坂","lat":38.017742,"lng":140.573082,"zip":"9890231"},{"town":"福岡蔵本","koaza":"逆川","lat":38.010907,"lng":140.574381,"zip":"9890231"},{"town":"福岡蔵本","koaza":"石神一番","lat":38.002603,"lng":140.58794,"zip":"9890231"},{"town":"小原","koaza":"新湯","lat":37.991651,"lng":140.565504,"zip":"9890233"},{"town":"福岡長袋","koaza":"楢原山","lat":38.02436,"lng":140.61143,"zip":"9890732"}]