[{"town":"雄勝町伊勢畑一丁目","koaza":"","lat":38.521624,"lng":141.469946,"zip":"9861334"},{"town":"鹿妻本町","koaza":"","lat":38.425222,"lng":141.342484,"zip":"9860013"},{"town":"鮎川大町","koaza":"","lat":38.298143,"lng":141.50872,"zip":"9862522"},{"town":"雄勝町下雄勝二丁目","koaza":"","lat":38.520002,"lng":141.468018,"zip":"9861335"},{"town":"字深淵","koaza":"","lat":38.441593,"lng":141.287778,"zip":"9860000"},{"town":"字南谷地","koaza":"","lat":38.437731,"lng":141.281801,"zip":"9860000"},{"town":"雄勝町下雄勝三丁目","koaza":"","lat":38.518451,"lng":141.466514,"zip":"9861335"},{"town":"雄勝町上雄勝一丁目","koaza":"","lat":38.515672,"lng":141.464319,"zip":"9861336"},{"town":"垂水町一丁目","koaza":"","lat":38.425957,"lng":141.36825,"zip":"9862104"},{"town":"雄勝町上雄勝三丁目","koaza":"","lat":38.513293,"lng":141.461853,"zip":"9861336"},{"town":"新境町一丁目","koaza":"","lat":38.445644,"lng":141.287483,"zip":"9860864"},{"town":"新境町二丁目","koaza":"","lat":38.446115,"lng":141.288366,"zip":"9860864"},{"town":"茜平三丁目","koaza":"","lat":38.449325,"lng":141.264204,"zip":"9860866"},{"town":"垂水町二丁目","koaza":"","lat":38.427803,"lng":141.368818,"zip":"9862104"},{"town":"雄勝町下雄勝一丁目","koaza":"","lat":38.520187,"lng":141.465204,"zip":"9861335"},{"town":"元倉二丁目","koaza":"","lat":38.441999,"lng":141.30998,"zip":"9860811"},{"town":"茜平一丁目","koaza":"","lat":38.450003,"lng":141.268762,"zip":"9860866"},{"town":"駅前北通り四丁目","koaza":"","lat":38.437118,"lng":141.299228,"zip":"9860813"},{"town":"貞山二丁目","koaza":"","lat":38.436368,"lng":141.286802,"zip":"9860851"},{"town":"吉野町三丁目","koaza":"","lat":38.422804,"lng":141.321201,"zip":"9860015"},{"town":"水押一丁目","koaza":"","lat":38.444889,"lng":141.301576,"zip":"9860803"},{"town":"東中里三丁目","koaza":"","lat":38.442187,"lng":141.306509,"zip":"9860812"},{"town":"立町一丁目","koaza":"","lat":38.432144,"lng":141.307457,"zip":"9860824"},{"town":"駅前北通り三丁目","koaza":"","lat":38.436994,"lng":141.301273,"zip":"9860813"},{"town":"湊町三丁目","koaza":"","lat":38.422664,"lng":141.31818,"zip":"9860025"},{"town":"南中里四丁目","koaza":"","lat":38.43928,"lng":141.295789,"zip":"9860814"},{"town":"緑町二丁目","koaza":"","lat":38.417267,"lng":141.341791,"zip":"9860021"},{"town":"築山四丁目","koaza":"","lat":38.424174,"lng":141.274602,"zip":"9860857"},{"town":"吉野町二丁目","koaza":"","lat":38.424109,"lng":141.320067,"zip":"9860015"},{"town":"南中里一丁目","koaza":"","lat":38.439835,"lng":141.303732,"zip":"9860814"},{"town":"後生橋","koaza":"","lat":38.421846,"lng":141.367166,"zip":"9862112"},{"town":"美園一丁目","koaza":"","lat":38.453476,"lng":141.300202,"zip":"9860033"},{"town":"東中里二丁目","koaza":"","lat":38.440727,"lng":141.306816,"zip":"9860812"},{"town":"田道町一丁目","koaza":"","lat":38.436141,"lng":141.295672,"zip":"9860872"},{"town":"雄勝町上雄勝二丁目","koaza":"","lat":38.515399,"lng":141.465286,"zip":"9861336"},{"town":"立町二丁目","koaza":"","lat":38.432106,"lng":141.305862,"zip":"9860824"},{"town":"茜平二丁目","koaza":"","lat":38.450978,"lng":141.26533,"zip":"9860866"},{"town":"鹿妻南四丁目","koaza":"","lat":38.418514,"lng":141.34583,"zip":"9860042"},{"town":"旭町","koaza":"","lat":38.437501,"lng":141.309143,"zip":"9860828"},{"town":"中央三丁目","koaza":"","lat":38.432626,"lng":141.310078,"zip":"9860822"},{"town":"鹿妻北一丁目","koaza":"","lat":38.422803,"lng":141.343213,"zip":"9860043"},{"town":"中浦二丁目","koaza":"","lat":38.423963,"lng":141.268828,"zip":"9860847"},{"town":"湊町四丁目","koaza":"","lat":38.421406,"lng":141.319737,"zip":"9860025"},{"town":"大門町四丁目","koaza":"","lat":38.418335,"lng":141.322949,"zip":"9860026"},{"town":"中里一丁目","koaza":"","lat":38.44231,"lng":141.303767,"zip":"9860815"},{"town":"築山二丁目","koaza":"","lat":38.426913,"lng":141.276187,"zip":"9860857"},{"town":"丸井戸一丁目","koaza":"","lat":38.444573,"lng":141.284364,"zip":"9860865"},{"town":"鹿妻南五丁目","koaza":"","lat":38.42113,"lng":141.346004,"zip":"9860042"},{"town":"駅前北通り二丁目","koaza":"","lat":38.437182,"lng":141.303222,"zip":"9860813"},{"town":"丸井戸二丁目","koaza":"","lat":38.44605,"lng":141.281292,"zip":"9860865"},{"town":"貞山四丁目","koaza":"","lat":38.436469,"lng":141.283128,"zip":"9860851"},{"town":"日和が丘三丁目","koaza":"","lat":38.424149,"lng":141.302656,"zip":"9860833"},{"town":"鹿妻北三丁目","koaza":"","lat":38.425631,"lng":141.344003,"zip":"9860043"},{"town":"湊町二丁目","koaza":"","lat":38.424358,"lng":141.316678,"zip":"9860025"},{"town":"三和町","koaza":"","lat":38.419633,"lng":141.367945,"zip":"9862111"},{"town":"三ツ股一丁目","koaza":"","lat":38.429174,"lng":141.271589,"zip":"9860858"},{"town":"三ツ股四丁目","koaza":"","lat":38.423589,"lng":141.270183,"zip":"9860858"},{"town":"大門町三丁目","koaza":"","lat":38.420087,"lng":141.323043,"zip":"9860026"},{"town":"茜平五丁目","koaza":"","lat":38.445409,"lng":141.264554,"zip":"9860866"},{"town":"鹿妻南三丁目","koaza":"","lat":38.418774,"lng":141.343008,"zip":"9860042"},{"town":"わかば三丁目","koaza":"","lat":38.455049,"lng":141.279244,"zip":"9860867"},{"town":"垂水町三丁目","koaza":"","lat":38.42861,"lng":141.370946,"zip":"9862104"},{"town":"緑町一丁目","koaza":"","lat":38.417268,"lng":141.337223,"zip":"9860021"},{"town":"大門町二丁目","koaza":"","lat":38.418959,"lng":141.319994,"zip":"9860026"},{"town":"宇田川町","koaza":"","lat":38.421807,"lng":141.36905,"zip":"9862113"},{"town":"わかば一丁目","koaza":"","lat":38.453521,"lng":141.282159,"zip":"9860867"},{"town":"東中里一丁目","koaza":"","lat":38.439358,"lng":141.307233,"zip":"9860812"},{"town":"浜松町","koaza":"","lat":38.417116,"lng":141.358693,"zip":"9862131"},{"town":"日和が丘四丁目","koaza":"","lat":38.422163,"lng":141.301719,"zip":"9860833"},{"town":"新館一丁目","koaza":"","lat":38.427745,"lng":141.266961,"zip":"9860848"},{"town":"伊勢町","koaza":"","lat":38.418443,"lng":141.360135,"zip":"9862123"},{"town":"中浦一丁目","koaza":"","lat":38.428489,"lng":141.268592,"zip":"9860847"},{"town":"幸町","koaza":"","lat":38.413943,"lng":141.367003,"zip":"9862122"},{"town":"あけぼの一丁目","koaza":"","lat":38.451275,"lng":141.274512,"zip":"9860862"},{"town":"明神町二丁目","koaza":"","lat":38.416859,"lng":141.324009,"zip":"9860027"},{"town":"明神町一丁目","koaza":"","lat":38.416449,"lng":141.318921,"zip":"9860027"},{"town":"南中里二丁目","koaza":"","lat":38.439636,"lng":141.301419,"zip":"9860814"},{"town":"末広町","koaza":"","lat":38.431813,"lng":141.290173,"zip":"9860875"},{"town":"水明北二丁目","koaza":"","lat":38.444561,"lng":141.317315,"zip":"9860801"},{"town":"南浜町三丁目","koaza":"","lat":38.417775,"lng":141.301119,"zip":"9860835"},{"town":"中里二丁目","koaza":"","lat":38.442396,"lng":141.301064,"zip":"9860815"},{"town":"中央一丁目","koaza":"","lat":38.429242,"lng":141.307746,"zip":"9860822"},{"town":"中央二丁目","koaza":"","lat":38.430805,"lng":141.308919,"zip":"9860822"},{"town":"鋳銭場","koaza":"","lat":38.434909,"lng":141.305368,"zip":"9860826"},{"town":"大街道東四丁目","koaza":"","lat":38.428311,"lng":141.284479,"zip":"9860855"},{"town":"渡波町三丁目","koaza":"","lat":38.416186,"lng":141.368773,"zip":"9862121"},{"town":"鹿妻南一丁目","koaza":"","lat":38.420683,"lng":141.340335,"zip":"9860042"},{"town":"大門町一丁目","koaza":"","lat":38.418936,"lng":141.317893,"zip":"9860026"},{"town":"大街道西三丁目","koaza":"","lat":38.431699,"lng":141.27183,"zip":"9860859"},{"town":"鹿妻南二丁目","koaza":"","lat":38.421147,"lng":141.343382,"zip":"9860042"},{"town":"門脇町二丁目","koaza":"","lat":38.422976,"lng":141.309945,"zip":"9860834"},{"town":"築山三丁目","koaza":"","lat":38.424266,"lng":141.276263,"zip":"9860857"},{"town":"田道町二丁目","koaza":"","lat":38.437243,"lng":141.292802,"zip":"9860872"},{"town":"開北三丁目","koaza":"","lat":38.447548,"lng":141.303793,"zip":"9860806"},{"town":"中里四丁目","koaza":"","lat":38.441905,"lng":141.294211,"zip":"9860815"},{"town":"中屋敷一丁目","koaza":"","lat":38.426544,"lng":141.263166,"zip":"9860849"},{"town":"千石町","koaza":"","lat":38.434968,"lng":141.308559,"zip":"9860827"},{"town":"大街道北一丁目","koaza":"","lat":38.431066,"lng":141.287303,"zip":"9860854"},{"town":"美園二丁目","koaza":"","lat":38.454928,"lng":141.299602,"zip":"9860033"},{"town":"渡波町一丁目","koaza":"","lat":38.41872,"lng":141.364078,"zip":"9862121"},{"town":"湊町一丁目","koaza":"","lat":38.426228,"lng":141.314312,"zip":"9860025"},{"town":"泉町二丁目","koaza":"","lat":38.42918,"lng":141.301761,"zip":"9860832"},{"town":"水明北一丁目","koaza":"","lat":38.443256,"lng":141.318073,"zip":"9860801"},{"town":"大街道南三丁目","koaza":"","lat":38.423683,"lng":141.281668,"zip":"9860856"},{"town":"大街道南二丁目","koaza":"","lat":38.425678,"lng":141.281403,"zip":"9860856"},{"town":"清水町一丁目","koaza":"","lat":38.437041,"lng":141.296914,"zip":"9860871"},{"town":"大街道南四丁目","koaza":"","lat":38.424641,"lng":141.278531,"zip":"9860856"},{"town":"水明北三丁目","koaza":"","lat":38.44467,"lng":141.322376,"zip":"9860801"},{"town":"新館三丁目","koaza":"","lat":38.427285,"lng":141.265125,"zip":"9860848"},{"town":"吉野町一丁目","koaza":"","lat":38.426111,"lng":141.317701,"zip":"9860015"},{"town":"大街道南一丁目","koaza":"","lat":38.42849,"lng":141.281538,"zip":"9860856"},{"town":"元倉一丁目","koaza":"","lat":38.440296,"lng":141.311172,"zip":"9860811"},{"town":"大街道北二丁目","koaza":"","lat":38.431709,"lng":141.284198,"zip":"9860854"},{"town":"中里七丁目","koaza":"","lat":38.445062,"lng":141.292294,"zip":"9860815"},{"town":"中屋敷二丁目","koaza":"","lat":38.422718,"lng":141.264681,"zip":"9860849"},{"town":"川口町二丁目","koaza":"","lat":38.420109,"lng":141.316274,"zip":"9860024"},{"town":"開北一丁目","koaza":"","lat":38.444712,"lng":141.306796,"zip":"9860806"},{"town":"南浜町二丁目","koaza":"","lat":38.417569,"lng":141.303733,"zip":"9860835"},{"town":"大街道北四丁目","koaza":"","lat":38.434087,"lng":141.279893,"zip":"9860854"},{"town":"大橋三丁目","koaza":"","lat":38.442766,"lng":141.310668,"zip":"9860805"},{"town":"南中里三丁目","koaza":"","lat":38.439403,"lng":141.298401,"zip":"9860814"},{"town":"伊原津一丁目","koaza":"","lat":38.421764,"lng":141.336169,"zip":"9860041"},{"town":"塩富町一丁目","koaza":"","lat":38.419748,"lng":141.372363,"zip":"9862114"},{"town":"中里三丁目","koaza":"","lat":38.442513,"lng":141.29838,"zip":"9860815"},{"town":"中里六丁目","koaza":"","lat":38.443014,"lng":141.290939,"zip":"9860815"},{"town":"宜山町","koaza":"","lat":38.424835,"lng":141.295238,"zip":"9860837"},{"town":"中里五丁目","koaza":"","lat":38.443695,"lng":141.295721,"zip":"9860815"},{"town":"渡波町二丁目","koaza":"","lat":38.417368,"lng":141.365917,"zip":"9862121"},{"town":"八幡町一丁目","koaza":"","lat":38.429075,"lng":141.313548,"zip":"9860016"},{"town":"大宮町","koaza":"","lat":38.415526,"lng":141.363891,"zip":"9862132"},{"town":"鹿妻北二丁目","koaza":"","lat":38.424831,"lng":141.346133,"zip":"9860043"},{"town":"門脇町四丁目","koaza":"","lat":38.420501,"lng":141.305751,"zip":"9860834"},{"town":"駅前北通り一丁目","koaza":"","lat":38.437184,"lng":141.306066,"zip":"9860813"},{"town":"塩富町二丁目","koaza":"","lat":38.422717,"lng":141.371886,"zip":"9862114"},{"town":"大街道南五丁目","koaza":"","lat":38.4284,"lng":141.278541,"zip":"9860856"},{"town":"向陽町一丁目","koaza":"","lat":38.447474,"lng":141.282258,"zip":"9860863"},{"town":"万石町","koaza":"","lat":38.418226,"lng":141.370853,"zip":"9862115"},{"town":"住吉町一丁目","koaza":"","lat":38.434672,"lng":141.311699,"zip":"9860821"},{"town":"向陽町三丁目","koaza":"","lat":38.449293,"lng":141.278424,"zip":"9860863"},{"town":"長浜町","koaza":"","lat":38.412415,"lng":141.363282,"zip":"9862133"},{"town":"川口町三丁目","koaza":"","lat":38.417233,"lng":141.314689,"zip":"9860024"},{"town":"丸井戸三丁目","koaza":"","lat":38.447483,"lng":141.277085,"zip":"9860865"},{"town":"泉町一丁目","koaza":"","lat":38.427393,"lng":141.30202,"zip":"9860832"},{"town":"南浜町四丁目","koaza":"","lat":38.418094,"lng":141.298331,"zip":"9860835"},{"town":"錦町","koaza":"","lat":38.435936,"lng":141.29017,"zip":"9860877"},{"town":"向陽町四丁目","koaza":"","lat":38.452242,"lng":141.27876,"zip":"9860863"},{"town":"松並二丁目","koaza":"","lat":38.417395,"lng":141.332989,"zip":"9860028"},{"town":"山下町二丁目","koaza":"","lat":38.430976,"lng":141.292716,"zip":"9860873"},{"town":"美園三丁目","koaza":"","lat":38.457687,"lng":141.30274,"zip":"9860033"},{"town":"新館二丁目","koaza":"","lat":38.42329,"lng":141.267201,"zip":"9860848"},{"town":"三ツ股二丁目","koaza":"","lat":38.427575,"lng":141.271251,"zip":"9860858"},{"town":"清水町二丁目","koaza":"","lat":38.440725,"lng":141.291193,"zip":"9860871"},{"town":"八幡町二丁目","koaza":"","lat":38.432322,"lng":141.314031,"zip":"9860016"},{"town":"松原町","koaza":"","lat":38.414423,"lng":141.359976,"zip":"9862134"},{"town":"向陽町五丁目","koaza":"","lat":38.452229,"lng":141.276297,"zip":"9860863"},{"town":"日和が丘二丁目","koaza":"","lat":38.423233,"lng":141.306666,"zip":"9860833"},{"town":"三ツ股三丁目","koaza":"","lat":38.423541,"lng":141.272552,"zip":"9860858"},{"town":"大街道東一丁目","koaza":"","lat":38.428185,"lng":141.287783,"zip":"9860855"},{"town":"大街道西二丁目","koaza":"","lat":38.432309,"lng":141.274678,"zip":"9860859"},{"town":"伊原津二丁目","koaza":"","lat":38.419705,"lng":141.337285,"zip":"9860041"},{"town":"大街道北三丁目","koaza":"","lat":38.431286,"lng":141.280746,"zip":"9860854"},{"town":"水押二丁目","koaza":"","lat":38.446771,"lng":141.299807,"zip":"9860803"},{"town":"貞山一丁目","koaza":"","lat":38.433535,"lng":141.286912,"zip":"9860851"},{"town":"開北二丁目","koaza":"","lat":38.44507,"lng":141.303914,"zip":"9860806"},{"town":"西山町","koaza":"","lat":38.434453,"lng":141.292179,"zip":"9860876"},{"town":"不動町一丁目","koaza":"","lat":38.434861,"lng":141.315446,"zip":"9860017"},{"town":"築山一丁目","koaza":"","lat":38.427999,"lng":141.275153,"zip":"9860857"},{"town":"門脇町五丁目","koaza":"","lat":38.420246,"lng":141.300304,"zip":"9860834"},{"town":"川口町一丁目","koaza":"","lat":38.422072,"lng":141.314737,"zip":"9860024"},{"town":"新栄二丁目","koaza":"","lat":38.448317,"lng":141.336896,"zip":"9860004"},{"town":"南浜町一丁目","koaza":"","lat":38.417171,"lng":141.307158,"zip":"9860835"},{"town":"大街道西一丁目","koaza":"","lat":38.432908,"lng":141.277313,"zip":"9860859"},{"town":"茜平四丁目","koaza":"","lat":38.447889,"lng":141.265755,"zip":"9860866"},{"town":"大手町","koaza":"","lat":38.424509,"lng":141.299382,"zip":"9860838"},{"town":"泉町三丁目","koaza":"","lat":38.429679,"lng":141.296779,"zip":"9860832"},{"town":"松並一丁目","koaza":"","lat":38.417493,"lng":141.328569,"zip":"9860028"},{"town":"貞山五丁目","koaza":"","lat":38.438419,"lng":141.285551,"zip":"9860851"},{"town":"穀町","koaza":"","lat":38.434257,"lng":141.301374,"zip":"9860825"},{"town":"あけぼの二丁目","koaza":"","lat":38.450619,"lng":141.272243,"zip":"9860862"},{"town":"貞山三丁目","koaza":"","lat":38.434774,"lng":141.282834,"zip":"9860851"},{"town":"大街道東三丁目","koaza":"","lat":38.425091,"lng":141.284866,"zip":"9860855"},{"town":"大橋二丁目","koaza":"","lat":38.439547,"lng":141.315461,"zip":"9860805"},{"town":"新橋","koaza":"","lat":38.439537,"lng":141.289342,"zip":"9860878"},{"town":"門脇町三丁目","koaza":"","lat":38.420021,"lng":141.309097,"zip":"9860834"},{"town":"羽黒町一丁目","koaza":"","lat":38.430825,"lng":141.303383,"zip":"9860831"},{"town":"南光町一丁目","koaza":"","lat":38.42188,"lng":141.29751,"zip":"9860836"},{"town":"大街道東二丁目","koaza":"","lat":38.424971,"lng":141.288275,"zip":"9860855"},{"town":"水押三丁目","koaza":"","lat":38.445721,"lng":141.296015,"zip":"9860803"},{"town":"日和が丘一丁目","koaza":"","lat":38.425865,"lng":141.304977,"zip":"9860833"},{"town":"中瀬","koaza":"","lat":38.428148,"lng":141.310815,"zip":"9860823"},{"town":"向陽町二丁目","koaza":"","lat":38.450733,"lng":141.281895,"zip":"9860863"},{"town":"新栄一丁目","koaza":"","lat":38.44638,"lng":141.332434,"zip":"9860004"},{"town":"羽黒町二丁目","koaza":"","lat":38.431881,"lng":141.298678,"zip":"9860831"},{"town":"住吉町二丁目","koaza":"","lat":38.437857,"lng":141.312577,"zip":"9860821"},{"town":"山下町一丁目","koaza":"","lat":38.433299,"lng":141.295482,"zip":"9860873"},{"town":"水明南一丁目","koaza":"","lat":38.441109,"lng":141.319084,"zip":"9860802"},{"town":"大橋一丁目","koaza":"","lat":38.444358,"lng":141.311542,"zip":"9860805"},{"town":"双葉町","koaza":"","lat":38.426547,"lng":141.29138,"zip":"9860874"},{"town":"開北四丁目","koaza":"","lat":38.44835,"lng":141.306937,"zip":"9860806"},{"town":"不動町二丁目","koaza":"","lat":38.436856,"lng":141.318145,"zip":"9860017"},{"town":"泉町四丁目","koaza":"","lat":38.42695,"lng":141.296363,"zip":"9860832"},{"town":"水明南二丁目","koaza":"","lat":38.442557,"lng":141.324586,"zip":"9860802"},{"town":"石巻","koaza":"","lat":38.446315,"lng":141.317367,"zip":"9860000"},{"town":"雲雀野町一丁目","koaza":"","lat":38.414913,"lng":141.303944,"zip":"9860841"},{"town":"中島町","koaza":"","lat":38.418492,"lng":141.274028,"zip":"9860845"},{"town":"開成","koaza":"","lat":38.462027,"lng":141.307466,"zip":"9860032"},{"town":"魚町二丁目","koaza":"","lat":38.411492,"lng":141.326919,"zip":"9860022"},{"town":"魚町三丁目","koaza":"","lat":38.414965,"lng":141.340945,"zip":"9860022"},{"town":"三河町","koaza":"","lat":38.419636,"lng":141.280187,"zip":"9860846"},{"town":"雄勝町明神","koaza":"","lat":38.521584,"lng":141.48147,"zip":"9861331"},{"town":"雄勝町小島","koaza":"","lat":38.515467,"lng":141.488875,"zip":"9861332"},{"town":"根岸","koaza":"","lat":38.443117,"lng":141.351654,"zip":"9862136"},{"town":"魚町一丁目","koaza":"","lat":38.411726,"lng":141.317839,"zip":"9860022"},{"town":"雲雀野町二丁目","koaza":"","lat":38.40997,"lng":141.290594,"zip":"9860841"},{"town":"月浦","koaza":"","lat":38.385712,"lng":141.427408,"zip":"9862352"},{"town":"南光町二丁目","koaza":"","lat":38.420358,"lng":141.29115,"zip":"9860836"},{"town":"潮見町","koaza":"","lat":38.414275,"lng":141.280849,"zip":"9860842"},{"town":"雄勝町熊沢","koaza":"","lat":38.505853,"lng":141.536362,"zip":"9861312"},{"town":"西浜町","koaza":"","lat":38.408963,"lng":141.257172,"zip":"9860843"},{"town":"雄勝町大浜","koaza":"","lat":38.518127,"lng":141.515117,"zip":"9861302"},{"town":"雄勝町桑浜","koaza":"","lat":38.493995,"lng":141.532216,"zip":"9861313"},{"town":"桃生町脇谷","koaza":"","lat":38.598436,"lng":141.285663,"zip":"9860301"},{"town":"雄勝町立浜","koaza":"","lat":38.504858,"lng":141.520078,"zip":"9861303"},{"town":"竹浜","koaza":"","lat":38.359479,"lng":141.431446,"zip":"9862346"},{"town":"重吉町","koaza":"","lat":38.417323,"lng":141.257619,"zip":"9860844"},{"town":"侍浜","koaza":"","lat":38.385626,"lng":141.436977,"zip":"9862351"},{"town":"牧浜","koaza":"","lat":38.364129,"lng":141.441033,"zip":"9862347"},{"town":"桃生町牛田","koaza":"","lat":38.581176,"lng":141.264898,"zip":"9860305"},{"town":"大谷川浜","koaza":"","lat":38.370491,"lng":141.478127,"zip":"9862405"},{"town":"清水田浜","koaza":"","lat":38.345884,"lng":141.46677,"zip":"9862413"},{"town":"前網浜","koaza":"","lat":38.391584,"lng":141.508593,"zip":"9862406"},{"town":"新山浜","koaza":"","lat":38.331412,"lng":141.525532,"zip":"9862521"},{"town":"井内","koaza":"","lat":38.445783,"lng":141.341121,"zip":"9860003"},{"town":"流留","koaza":"","lat":38.428287,"lng":141.379412,"zip":"9862103"},{"town":"小網倉浜","koaza":"","lat":38.351528,"lng":141.456232,"zip":"9862414"},{"town":"雄勝町大須","koaza":"","lat":38.52238,"lng":141.53883,"zip":"9861311"},{"town":"福貴浦","koaza":"","lat":38.352243,"lng":141.450228,"zip":"9862343"},{"town":"北境","koaza":"","lat":38.474166,"lng":141.30882,"zip":"9860123"},{"town":"小竹浜","koaza":"","lat":38.392951,"lng":141.385282,"zip":"9862116"},{"town":"桃生町城内","koaza":"","lat":38.560883,"lng":141.25906,"zip":"9860312"},{"town":"門脇","koaza":"","lat":38.428009,"lng":141.260131,"zip":"9860853"},{"town":"寄磯浜","koaza":"","lat":38.391825,"lng":141.527923,"zip":"9862404"},{"town":"雄勝町分浜","koaza":"","lat":38.494537,"lng":141.488031,"zip":"9861322"},{"town":"桃生町中津山","koaza":"","lat":38.561138,"lng":141.241543,"zip":"9860313"},{"town":"泊浜","koaza":"","lat":38.353573,"lng":141.517558,"zip":"9862401"},{"town":"桃生町新田","koaza":"","lat":38.548289,"lng":141.242429,"zip":"9860321"},{"town":"桃生町倉埣","koaza":"","lat":38.595859,"lng":141.274322,"zip":"9860302"},{"town":"鮫浦","koaza":"","lat":38.385541,"lng":141.488156,"zip":"9862403"},{"town":"谷川浜","koaza":"","lat":38.362791,"lng":141.48881,"zip":"9862402"},{"town":"桃生町寺崎","koaza":"","lat":38.572038,"lng":141.25257,"zip":"9860314"},{"town":"北上町長尾","koaza":"","lat":38.558058,"lng":141.394561,"zip":"9860203"},{"town":"桃生町給人町","koaza":"","lat":38.535526,"lng":141.253856,"zip":"9860322"},{"town":"荻浜","koaza":"","lat":38.382295,"lng":141.449925,"zip":"9862341"},{"town":"雄勝町水浜","koaza":"","lat":38.500995,"lng":141.4777,"zip":"9861321"},{"town":"田代浜","koaza":"","lat":38.298565,"lng":141.417588,"zip":"9860023"},{"town":"網地浜","koaza":"","lat":38.273056,"lng":141.471298,"zip":"9862526"},{"town":"沼津","koaza":"","lat":38.451887,"lng":141.383503,"zip":"9862101"},{"town":"相野谷","koaza":"","lat":38.525949,"lng":141.320102,"zip":"9860101"},{"town":"折浜","koaza":"","lat":38.401011,"lng":141.397115,"zip":"9862355"},{"town":"桃生町永井","koaza":"","lat":38.579848,"lng":141.278188,"zip":"9860303"},{"town":"十八成浜","koaza":"","lat":38.310532,"lng":141.49379,"zip":"9862527"},{"town":"長渡浜","koaza":"","lat":38.259218,"lng":141.481513,"zip":"9862525"},{"town":"大原浜","koaza":"","lat":38.34007,"lng":141.481746,"zip":"9862412"},{"town":"桃生町神取","koaza":"","lat":38.53022,"lng":141.240429,"zip":"9860323"},{"town":"雄勝町船越","koaza":"","lat":38.537126,"lng":141.519868,"zip":"9861301"},{"town":"小積浜","koaza":"","lat":38.374138,"lng":141.465914,"zip":"9862342"},{"town":"雄勝町名振","koaza":"","lat":38.531271,"lng":141.491685,"zip":"9861304"},{"town":"桃生町高須賀","koaza":"","lat":38.514148,"lng":141.244008,"zip":"9860324"},{"town":"中野","koaza":"","lat":38.53382,"lng":141.358796,"zip":"9860105"},{"town":"飯野","koaza":"","lat":38.534062,"lng":141.287262,"zip":"9860131"},{"town":"東福田","koaza":"","lat":38.483004,"lng":141.321688,"zip":"9860122"},{"town":"湊","koaza":"","lat":38.43056,"lng":141.330647,"zip":"9860011"},{"town":"高木","koaza":"","lat":38.476481,"lng":141.349749,"zip":"9860006"},{"town":"南境","koaza":"","lat":38.463492,"lng":141.313069,"zip":"9860031"},{"town":"中島","koaza":"","lat":38.53287,"lng":141.329732,"zip":"9860103"},{"town":"馬鞍","koaza":"","lat":38.556118,"lng":141.368453,"zip":"9860106"},{"town":"釜谷","koaza":"","lat":38.543698,"lng":141.436819,"zip":"9860111"},{"town":"桃浦","koaza":"","lat":38.401945,"lng":141.435182,"zip":"9862353"},{"town":"大森","koaza":"","lat":38.498883,"lng":141.314888,"zip":"9860121"},{"town":"桃生町樫崎","koaza":"","lat":38.569094,"lng":141.290074,"zip":"9860304"},{"town":"大瓜","koaza":"","lat":38.458745,"lng":141.332047,"zip":"9860005"},{"town":"北上町橋浦","koaza":"","lat":38.550803,"lng":141.386313,"zip":"9860202"},{"town":"沢田","koaza":"","lat":38.442688,"lng":141.380291,"zip":"9862102"},{"town":"成田","koaza":"","lat":38.538044,"lng":141.306495,"zip":"9860102"},{"town":"須江","koaza":"","lat":38.470968,"lng":141.243436,"zip":"9871221"},{"town":"桃生町太田","koaza":"","lat":38.547043,"lng":141.274559,"zip":"9860311"},{"town":"長面","koaza":"","lat":38.551157,"lng":141.456181,"zip":"9860112"},{"town":"皿貝","koaza":"","lat":38.560692,"lng":141.344761,"zip":"9860104"},{"town":"渡波","koaza":"","lat":38.407631,"lng":141.386859,"zip":"9862135"},{"town":"和渕","koaza":"","lat":38.518164,"lng":141.220892,"zip":"9871102"},{"town":"前谷地","koaza":"","lat":38.52169,"lng":141.191042,"zip":"9871101"},{"town":"水沼","koaza":"","lat":38.483993,"lng":141.376465,"zip":"9860001"},{"town":"雄勝町雄勝","koaza":"","lat":38.50544,"lng":141.43922,"zip":"9861333"},{"town":"三輪田","koaza":"","lat":38.511875,"lng":141.341216,"zip":"9860124"},{"town":"広渕","koaza":"","lat":38.475787,"lng":141.216446,"zip":"9871222"},{"town":"福地","koaza":"","lat":38.520797,"lng":141.379208,"zip":"9860115"},{"town":"真野","koaza":"","lat":38.468592,"lng":141.389997,"zip":"9860002"},{"town":"鹿又","koaza":"","lat":38.481515,"lng":141.27546,"zip":"9861111"},{"town":"針岡","koaza":"","lat":38.514815,"lng":141.414809,"zip":"9860114"},{"town":"北上町女川","koaza":"","lat":38.579635,"lng":141.382342,"zip":"9860204"},{"town":"北村","koaza":"","lat":38.48341,"lng":141.186186,"zip":"9871103"},{"town":"北上町十三浜","koaza":"","lat":38.597574,"lng":141.470205,"zip":"9860201"},{"town":"あけぼの北一丁目","koaza":"","lat":38.456775,"lng":141.277043,"zip":"9860869"},{"town":"あけぼの三丁目","koaza":"","lat":38.454468,"lng":141.274634,"zip":"9860862"},{"town":"わかば二丁目","koaza":"","lat":38.456183,"lng":141.280942,"zip":"9860867"},{"town":"あけぼの北二丁目","koaza":"","lat":38.457415,"lng":141.278659,"zip":"9860869"},{"town":"尾崎","koaza":"","lat":38.547695,"lng":141.474357,"zip":"9860000"},{"town":"門脇町一丁目","koaza":"","lat":38.42619,"lng":141.308466,"zip":"9860834"},{"town":"恵み野二丁目","koaza":"","lat":38.443342,"lng":141.271628,"zip":"9860868"},{"town":"恵み野三丁目","koaza":"","lat":38.445319,"lng":141.269514,"zip":"9860868"},{"town":"恵み野四丁目","koaza":"","lat":38.442055,"lng":141.266958,"zip":"9860868"},{"town":"恵み野五丁目","koaza":"","lat":38.442706,"lng":141.264947,"zip":"9860868"},{"town":"恵み野六丁目","koaza":"","lat":38.440446,"lng":141.268085,"zip":"9860868"},{"town":"鮎川浜丁","koaza":"","lat":38.297393,"lng":141.508661,"zip":"9862523"},{"town":"蛇田","koaza":"","lat":38.454244,"lng":141.267604,"zip":"9860861"},{"town":"恵み野一丁目","koaza":"","lat":38.447414,"lng":141.272,"zip":"9860868"},{"town":"狐崎浜","koaza":"","lat":38.350312,"lng":141.43096,"zip":"9862345"},{"town":"小渕浜","koaza":"","lat":38.315619,"lng":141.45889,"zip":"9862415"},{"town":"給分浜","koaza":"","lat":38.32277,"lng":141.478492,"zip":"9862411"},{"town":"小船越","koaza":"","lat":38.509848,"lng":141.280871,"zip":"9860132"},{"town":"二子三丁目","koaza":"","lat":38.499051,"lng":141.2975,"zip":"9860133"},{"town":"二子二丁目","koaza":"","lat":38.498024,"lng":141.293976,"zip":"9860133"},{"town":"二子一丁目","koaza":"","lat":38.496813,"lng":141.295251,"zip":"9860133"},{"town":"のぞみ野二丁目","koaza":"","lat":38.447232,"lng":141.261003,"zip":"9860860"},{"town":"のぞみ野三丁目","koaza":"","lat":38.448611,"lng":141.258348,"zip":"9860860"},{"town":"のぞみ野四丁目","koaza":"","lat":38.446532,"lng":141.25834,"zip":"9860860"},{"town":"のぞみ野五丁目","koaza":"","lat":38.443565,"lng":141.257687,"zip":"9860860"},{"town":"のぞみ野一丁目","koaza":"","lat":38.444076,"lng":141.261673,"zip":"9860860"},{"town":"広渕","koaza":"牛頭","lat":38.469534,"lng":141.190935,"zip":"9871222"},{"town":"広渕","koaza":"山陰一","lat":38.463073,"lng":141.19473,"zip":"9871222"},{"town":"広渕","koaza":"荒神前","lat":38.458852,"lng":141.193148,"zip":"9871222"},{"town":"広渕","koaza":"雁北","lat":38.470438,"lng":141.193196,"zip":"9871222"},{"town":"広渕","koaza":"中道","lat":38.459141,"lng":141.19469,"zip":"9871222"},{"town":"広渕","koaza":"新田","lat":38.460688,"lng":141.196093,"zip":"9871222"},{"town":"広渕","koaza":"物見沢","lat":38.469338,"lng":141.19978,"zip":"9871222"},{"town":"広渕","koaza":"小島浦","lat":38.464931,"lng":141.199255,"zip":"9871222"},{"town":"広渕","koaza":"須藤屋敷","lat":38.467223,"lng":141.203175,"zip":"9871222"},{"town":"広渕","koaza":"藤ケ崎","lat":38.470335,"lng":141.202611,"zip":"9871222"},{"town":"広渕","koaza":"町北","lat":38.471723,"lng":141.207568,"zip":"9871222"},{"town":"広渕","koaza":"川羽沼一","lat":38.482613,"lng":141.204557,"zip":"9871222"},{"town":"広渕","koaza":"新泉沢","lat":38.4743,"lng":141.213369,"zip":"9871222"},{"town":"広渕","koaza":"米ケ崎","lat":38.477885,"lng":141.216387,"zip":"9871222"},{"town":"広渕","koaza":"町","lat":38.471015,"lng":141.208875,"zip":"9871222"},{"town":"広渕","koaza":"町浦一","lat":38.471248,"lng":141.207766,"zip":"9871222"},{"town":"広渕","koaza":"町南一","lat":38.469212,"lng":141.21078,"zip":"9871222"},{"town":"広渕","koaza":"泉沢","lat":38.477113,"lng":141.211888,"zip":"9871222"},{"town":"広渕","koaza":"町浦二","lat":38.472873,"lng":141.211245,"zip":"9871222"},{"town":"広渕","koaza":"町南二","lat":38.468449,"lng":141.21376,"zip":"9871222"},{"town":"広渕","koaza":"舘前","lat":38.476291,"lng":141.214938,"zip":"9871222"},{"town":"広渕","koaza":"馬場屋敷","lat":38.474024,"lng":141.217612,"zip":"9871222"},{"town":"広渕","koaza":"女形一","lat":38.479276,"lng":141.216869,"zip":"9871222"},{"town":"広渕","koaza":"柏木","lat":38.475516,"lng":141.22134,"zip":"9871222"},{"town":"広渕","koaza":"女形二","lat":38.477012,"lng":141.222574,"zip":"9871222"},{"town":"広渕","koaza":"女形四","lat":38.47828,"lng":141.220911,"zip":"9871222"},{"town":"広渕","koaza":"窪田","lat":38.47177,"lng":141.223536,"zip":"9871222"},{"town":"広渕","koaza":"柏木前","lat":38.47401,"lng":141.22295,"zip":"9871222"},{"town":"広渕","koaza":"五工区南","lat":38.47828,"lng":141.222977,"zip":"9871222"},{"town":"広渕","koaza":"砂四","lat":38.476193,"lng":141.225027,"zip":"9871222"},{"town":"広渕","koaza":"二工区南","lat":38.478872,"lng":141.225507,"zip":"9871222"},{"town":"広渕","koaza":"砂三","lat":38.474316,"lng":141.226693,"zip":"9871222"},{"town":"須江","koaza":"瓦山前","lat":38.476912,"lng":141.235813,"zip":"9871221"},{"town":"須江","koaza":"瓦山上","lat":38.47747,"lng":141.231926,"zip":"9871221"},{"town":"須江","koaza":"瓦山","lat":38.478154,"lng":141.233732,"zip":"9871221"},{"town":"須江","koaza":"相野佐野","lat":38.456215,"lng":141.239097,"zip":"9871221"},{"town":"須江","koaza":"沢田","lat":38.475671,"lng":141.238932,"zip":"9871221"},{"town":"須江","koaza":"山崎前","lat":38.466867,"lng":141.238513,"zip":"9871221"},{"town":"須江","koaza":"しらさぎ台三丁目","lat":38.464674,"lng":141.244017,"zip":"9871221"},{"town":"須江","koaza":"横手","lat":38.454496,"lng":141.24394,"zip":"9871221"},{"town":"須江","koaza":"山崎","lat":38.465697,"lng":141.240763,"zip":"9871221"},{"town":"須江","koaza":"しらさぎ台一丁目","lat":38.468883,"lng":141.242634,"zip":"9871221"},{"town":"須江","koaza":"大刈場","lat":38.449871,"lng":141.242747,"zip":"9871221"},{"town":"須江","koaza":"しらさぎ台二丁目","lat":38.466928,"lng":141.24333,"zip":"9871221"},{"town":"須江","koaza":"畳石","lat":38.4628,"lng":141.242683,"zip":"9871221"},{"town":"須江","koaza":"杉屋敷","lat":38.450207,"lng":141.242373,"zip":"9871221"},{"town":"須江","koaza":"池袋","lat":38.473932,"lng":141.242854,"zip":"9871221"},{"town":"須江","koaza":"沢尻","lat":38.457186,"lng":141.24894,"zip":"9871221"},{"town":"須江","koaza":"大谷地","lat":38.455976,"lng":141.249292,"zip":"9871221"},{"town":"須江","koaza":"寺前","lat":38.460126,"lng":141.246201,"zip":"9871221"},{"town":"須江","koaza":"茄子川","lat":38.467818,"lng":141.250964,"zip":"9871221"},{"town":"門脇","koaza":"元明神","lat":38.423694,"lng":141.250991,"zip":"9860853"},{"town":"須江","koaza":"中埣","lat":38.450862,"lng":141.251404,"zip":"9871221"},{"town":"須江","koaza":"内ノ目","lat":38.457457,"lng":141.251238,"zip":"9871221"},{"town":"門脇","koaza":"鷲塚","lat":38.419228,"lng":141.257423,"zip":"9860853"},{"town":"門脇","koaza":"明神","lat":38.422383,"lng":141.25283,"zip":"9860853"},{"town":"須江","koaza":"正太郎","lat":38.469097,"lng":141.250304,"zip":"9871221"},{"town":"須江","koaza":"関ノ入","lat":38.460847,"lng":141.252396,"zip":"9871221"},{"town":"須江","koaza":"長谷地","lat":38.447763,"lng":141.250431,"zip":"9871221"},{"town":"須江","koaza":"小国","lat":38.449596,"lng":141.253373,"zip":"9871221"},{"town":"須江","koaza":"茄子川前","lat":38.467214,"lng":141.254118,"zip":"9871221"},{"town":"門脇","koaza":"捨喰","lat":38.422309,"lng":141.256534,"zip":"9860853"},{"town":"蛇田","koaza":"小齋","lat":38.454097,"lng":141.257545,"zip":"9860861"},{"town":"蛇田","koaza":"境塚","lat":38.455544,"lng":141.256979,"zip":"9860861"},{"town":"蛇田","koaza":"土和田山","lat":38.46051,"lng":141.25656,"zip":"9860861"},{"town":"蛇田","koaza":"土和田","lat":38.45769,"lng":141.2564,"zip":"9860861"},{"town":"蛇田","koaza":"新山崎","lat":38.464667,"lng":141.258197,"zip":"9860861"},{"town":"門脇","koaza":"元浦屋敷","lat":38.428538,"lng":141.260885,"zip":"9860853"},{"town":"門脇","koaza":"浦屋敷","lat":38.423591,"lng":141.261047,"zip":"9860853"},{"town":"門脇","koaza":"青葉西","lat":38.434757,"lng":141.262073,"zip":"9860853"},{"town":"蛇田","koaza":"雷神","lat":38.449892,"lng":141.257741,"zip":"9860861"},{"town":"蛇田","koaza":"上待井","lat":38.459781,"lng":141.262009,"zip":"9860861"},{"town":"門脇","koaza":"一番谷地","lat":38.432923,"lng":141.260244,"zip":"9860853"},{"town":"蛇田","koaza":"南久林","lat":38.456128,"lng":141.261286,"zip":"9860861"},{"town":"蛇田","koaza":"沖","lat":38.451036,"lng":141.261184,"zip":"9860861"},{"town":"蛇田","koaza":"新沼田","lat":38.441397,"lng":141.261345,"zip":"9860861"},{"town":"蛇田","koaza":"菰継","lat":38.452477,"lng":141.261926,"zip":"9860861"},{"town":"蛇田","koaza":"新西前沼","lat":38.438566,"lng":141.261955,"zip":"9860861"},{"town":"門脇","koaza":"二番谷地","lat":38.433849,"lng":141.271041,"zip":"9860853"},{"town":"蛇田","koaza":"新大埣","lat":38.441805,"lng":141.26871,"zip":"9860861"},{"town":"蛇田","koaza":"大埣","lat":38.442909,"lng":141.26754,"zip":"9860861"},{"town":"蛇田","koaza":"新東前沼","lat":38.438952,"lng":141.268511,"zip":"9860861"},{"town":"蛇田","koaza":"新下前沼","lat":38.437241,"lng":141.269746,"zip":"9860861"},{"town":"蛇田","koaza":"北経塚","lat":38.454668,"lng":141.266952,"zip":"9860861"},{"town":"蛇田","koaza":"南経塚","lat":38.452356,"lng":141.266467,"zip":"9860861"},{"town":"門脇","koaza":"青葉東","lat":38.436204,"lng":141.270713,"zip":"9860853"},{"town":"蛇田","koaza":"新金沼","lat":38.445501,"lng":141.270311,"zip":"9860861"},{"town":"蛇田","koaza":"福村北","lat":38.453676,"lng":141.271552,"zip":"9860861"},{"town":"蛇田","koaza":"福村南","lat":38.449748,"lng":141.27087,"zip":"9860861"},{"town":"蛇田","koaza":"太田切","lat":38.44608,"lng":141.270701,"zip":"9860861"},{"town":"蛇田","koaza":"新埣寺","lat":38.44251,"lng":141.276078,"zip":"9860861"},{"town":"蛇田","koaza":"埣寺","lat":38.440937,"lng":141.274055,"zip":"9860861"},{"town":"蛇田","koaza":"西道下","lat":38.458827,"lng":141.279185,"zip":"9860861"},{"town":"小船越","koaza":"堤下","lat":38.493807,"lng":141.279365,"zip":"9860132"},{"town":"蛇田","koaza":"新谷地前","lat":38.438696,"lng":141.280814,"zip":"9860861"},{"town":"蛇田","koaza":"上谷地","lat":38.439442,"lng":141.27498,"zip":"9860861"},{"town":"蛇田","koaza":"下谷地","lat":38.440431,"lng":141.278965,"zip":"9860861"},{"town":"蛇田","koaza":"上中埣","lat":38.445512,"lng":141.276545,"zip":"9860861"},{"town":"蛇田","koaza":"中埣","lat":38.444191,"lng":141.280917,"zip":"9860861"},{"town":"蛇田","koaza":"沼向","lat":38.467394,"lng":141.281987,"zip":"9860861"},{"town":"蛇田","koaza":"東道下","lat":38.455056,"lng":141.282868,"zip":"9860861"},{"town":"蛇田","koaza":"金津町","lat":38.440361,"lng":141.281933,"zip":"9860861"},{"town":"小船越","koaza":"下谷地","lat":38.49471,"lng":141.284909,"zip":"9860132"},{"town":"小船越","koaza":"内田","lat":38.499711,"lng":141.282007,"zip":"9860132"},{"town":"蛇田","koaza":"下中埣","lat":38.441893,"lng":141.285211,"zip":"9860861"},{"town":"小船越","koaza":"角田","lat":38.510537,"lng":141.283814,"zip":"9860132"},{"town":"蛇田","koaza":"新刈場","lat":38.459372,"lng":141.28548,"zip":"9860861"},{"town":"小船越","koaza":"新待井","lat":38.509632,"lng":141.285414,"zip":"9860132"},{"town":"蛇田","koaza":"新沼向前","lat":38.463389,"lng":141.284453,"zip":"9860861"},{"town":"蛇田","koaza":"新下沼","lat":38.445882,"lng":141.285825,"zip":"9860861"},{"town":"蛇田","koaza":"刈場","lat":38.455041,"lng":141.285182,"zip":"9860861"},{"town":"蛇田","koaza":"新〆切","lat":38.462695,"lng":141.286225,"zip":"9860861"},{"town":"蛇田","koaza":"新上沼","lat":38.451821,"lng":141.28666,"zip":"9860861"},{"town":"小船越","koaza":"六枚走","lat":38.505945,"lng":141.286583,"zip":"9860132"},{"town":"蛇田","koaza":"新西境谷地","lat":38.446727,"lng":141.288736,"zip":"9860861"},{"town":"小船越","koaza":"二子南中","lat":38.495371,"lng":141.290029,"zip":"9860132"},{"town":"小船越","koaza":"二子北下","lat":38.499318,"lng":141.2924,"zip":"9860132"},{"town":"小船越","koaza":"六丁","lat":38.514523,"lng":141.291038,"zip":"9860132"},{"town":"小船越","koaza":"二子北上","lat":38.49821,"lng":141.2897,"zip":"9860132"},{"town":"小船越","koaza":"下川前","lat":38.494583,"lng":141.290117,"zip":"9860132"},{"town":"小船越","koaza":"中門","lat":38.514516,"lng":141.292967,"zip":"9860132"},{"town":"成田","koaza":"岩崎前","lat":38.523759,"lng":141.291182,"zip":"9860102"},{"town":"南境","koaza":"新水戸","lat":38.45226,"lng":141.292722,"zip":"9860031"},{"town":"飯野","koaza":"岩崎","lat":38.524252,"lng":141.291156,"zip":"9860131"},{"town":"小船越","koaza":"屋浦","lat":38.515925,"lng":141.298908,"zip":"9860132"},{"town":"小船越","koaza":"舟形","lat":38.515061,"lng":141.297642,"zip":"9860132"},{"town":"南境","koaza":"新堤外","lat":38.449744,"lng":141.295232,"zip":"9860031"},{"town":"小船越","koaza":"宝領前","lat":38.512426,"lng":141.296268,"zip":"9860132"},{"town":"飯野","koaza":"外吉野","lat":38.526505,"lng":141.299507,"zip":"9860131"},{"town":"大森","koaza":"青ケ崎土手外","lat":38.494223,"lng":141.298891,"zip":"9860121"},{"town":"小船越","koaza":"下稲荷","lat":38.516865,"lng":141.299997,"zip":"9860132"},{"town":"飯野","koaza":"袖吉野","lat":38.525985,"lng":141.298889,"zip":"9860131"},{"town":"南境","koaza":"新稲干","lat":38.454711,"lng":141.300412,"zip":"9860031"},{"town":"小船越","koaza":"山畑","lat":38.50524,"lng":141.303147,"zip":"9860132"},{"town":"南境","koaza":"後谷","lat":38.451399,"lng":141.299244,"zip":"9860031"},{"town":"南境","koaza":"堤外","lat":38.451133,"lng":141.299919,"zip":"9860031"},{"town":"小船越","koaza":"本屋敷","lat":38.512901,"lng":141.302928,"zip":"9860132"},{"town":"小船越","koaza":"小待井","lat":38.510466,"lng":141.302139,"zip":"9860132"},{"town":"成田","koaza":"境前","lat":38.526322,"lng":141.301409,"zip":"9860102"},{"town":"南境","koaza":"新小堤","lat":38.457385,"lng":141.303816,"zip":"9860031"},{"town":"成田","koaza":"境山畑","lat":38.526951,"lng":141.304376,"zip":"9860102"},{"town":"小船越","koaza":"矢倉","lat":38.51225,"lng":141.304331,"zip":"9860132"},{"town":"南境","koaza":"待井","lat":38.463076,"lng":141.305875,"zip":"9860031"},{"town":"小船越","koaza":"川前","lat":38.510651,"lng":141.307882,"zip":"9860132"},{"town":"南境","koaza":"沼下","lat":38.464195,"lng":141.30697,"zip":"9860031"},{"town":"南境","koaza":"台","lat":38.467499,"lng":141.309389,"zip":"9860031"},{"town":"南境","koaza":"金沢前","lat":38.46614,"lng":141.309996,"zip":"9860031"},{"town":"成田","koaza":"小塚裏畑","lat":38.51626,"lng":141.310959,"zip":"9860102"},{"town":"大瓜","koaza":"上大塚前","lat":38.451661,"lng":141.31081,"zip":"9860005"},{"town":"成田","koaza":"小塚","lat":38.521297,"lng":141.310508,"zip":"9860102"},{"town":"南境","koaza":"妙見","lat":38.46807,"lng":141.310745,"zip":"9860031"},{"town":"成田","koaza":"一本杉","lat":38.525981,"lng":141.311169,"zip":"9860102"},{"town":"成田","koaza":"小塚宅地","lat":38.51661,"lng":141.311319,"zip":"9860102"},{"town":"大瓜","koaza":"下大塚前","lat":38.451206,"lng":141.312471,"zip":"9860005"},{"town":"南境","koaza":"金沢","lat":38.469225,"lng":141.321773,"zip":"9860031"},{"town":"相野谷","koaza":"六本木","lat":38.524525,"lng":141.313053,"zip":"9860101"},{"town":"大瓜","koaza":"鐘","lat":38.456398,"lng":141.31155,"zip":"9860005"},{"town":"大森","koaza":"町","lat":38.508063,"lng":141.31435,"zip":"9860121"},{"town":"相野谷","koaza":"飯野川町","lat":38.514953,"lng":141.315116,"zip":"9860101"},{"town":"大瓜","koaza":"山崎","lat":38.449765,"lng":141.313662,"zip":"9860005"},{"town":"大瓜","koaza":"棚橋上待井","lat":38.454641,"lng":141.313247,"zip":"9860005"},{"town":"相野谷","koaza":"旧会所前","lat":38.515523,"lng":141.314319,"zip":"9860101"},{"town":"大瓜","koaza":"棚橋","lat":38.455974,"lng":141.314029,"zip":"9860005"},{"town":"大瓜","koaza":"棚橋下待井","lat":38.453524,"lng":141.314209,"zip":"9860005"},{"town":"相野谷","koaza":"本屋敷","lat":38.514103,"lng":141.312918,"zip":"9860101"},{"town":"大瓜","koaza":"箕輪","lat":38.45207,"lng":141.316129,"zip":"9860005"},{"town":"大瓜","koaza":"夷木","lat":38.45098,"lng":141.316047,"zip":"9860005"},{"town":"相野谷","koaza":"旧屋敷","lat":38.51571,"lng":141.317216,"zip":"9860101"},{"town":"相野谷","koaza":"川前","lat":38.516091,"lng":141.320611,"zip":"9860101"},{"town":"相野谷","koaza":"柿木前","lat":38.525861,"lng":141.32429,"zip":"9860101"},{"town":"大瓜","koaza":"亀山待井","lat":38.452349,"lng":141.321421,"zip":"9860005"},{"town":"相野谷","koaza":"五味前上","lat":38.518534,"lng":141.322045,"zip":"9860101"},{"town":"湊","koaza":"御所入","lat":38.424277,"lng":141.322954,"zip":"9860011"},{"town":"大瓜","koaza":"上宿","lat":38.448904,"lng":141.32383,"zip":"9860005"},{"town":"湊","koaza":"葛和田山","lat":38.435743,"lng":141.327535,"zip":"9860011"},{"town":"大瓜","koaza":"井内原","lat":38.448199,"lng":141.332238,"zip":"9860005"},{"town":"大瓜","koaza":"井内","lat":38.443514,"lng":141.329751,"zip":"9860005"},{"town":"大瓜","koaza":"八津","lat":38.45877,"lng":141.328712,"zip":"9860005"},{"town":"大瓜","koaza":"内八津","lat":38.457593,"lng":141.330039,"zip":"9860005"},{"town":"大瓜","koaza":"沢尻","lat":38.456417,"lng":141.329477,"zip":"9860005"},{"town":"井内","koaza":"井内","lat":38.440698,"lng":141.329879,"zip":"9860003"},{"town":"大瓜","koaza":"新小福地","lat":38.457595,"lng":141.334219,"zip":"9860005"},{"town":"中島","koaza":"川前畑二番","lat":38.521546,"lng":141.330965,"zip":"9860103"},{"town":"井内","koaza":"一番","lat":38.444253,"lng":141.332821,"zip":"9860003"},{"town":"大瓜","koaza":"辰脇","lat":38.456161,"lng":141.335992,"zip":"9860005"},{"town":"大瓜","koaza":"小福地","lat":38.458654,"lng":141.334337,"zip":"9860005"},{"town":"湊","koaza":"牧山","lat":38.437668,"lng":141.339822,"zip":"9860011"},{"town":"井内","koaza":"三番","lat":38.445891,"lng":141.337171,"zip":"9860003"},{"town":"中野","koaza":"岩沢","lat":38.529975,"lng":141.3369,"zip":"9860105"},{"town":"大瓜","koaza":"入待井","lat":38.456303,"lng":141.337901,"zip":"9860005"},{"town":"中野","koaza":"台下","lat":38.530036,"lng":141.337568,"zip":"9860105"},{"town":"湊","koaza":"筒場","lat":38.418177,"lng":141.338932,"zip":"9860011"},{"town":"井内","koaza":"四番","lat":38.447093,"lng":141.341554,"zip":"9860003"},{"town":"大瓜","koaza":"瀬戸","lat":38.457407,"lng":141.340532,"zip":"9860005"},{"town":"湊","koaza":"立石","lat":38.424023,"lng":141.342705,"zip":"9860011"},{"town":"大瓜","koaza":"前田","lat":38.46121,"lng":141.347227,"zip":"9860005"},{"town":"大瓜","koaza":"千刈","lat":38.455231,"lng":141.34261,"zip":"9860005"},{"town":"大瓜","koaza":"鷲ノ巣","lat":38.456002,"lng":141.345764,"zip":"9860005"},{"town":"大瓜","koaza":"舘下","lat":38.458464,"lng":141.34387,"zip":"9860005"},{"town":"湊","koaza":"鹿妻","lat":38.427407,"lng":141.344527,"zip":"9860011"},{"town":"井内","koaza":"五番","lat":38.448394,"lng":141.346047,"zip":"9860003"},{"town":"中野","koaza":"相野田","lat":38.53064,"lng":141.345469,"zip":"9860105"},{"town":"渡波","koaza":"栄田","lat":38.41908,"lng":141.349365,"zip":"9862135"},{"town":"渡波","koaza":"根岸前","lat":38.425096,"lng":141.350509,"zip":"9862135"},{"town":"渡波","koaza":"山崎","lat":38.431893,"lng":141.347754,"zip":"9862135"},{"town":"渡波","koaza":"卯津木花","lat":38.428746,"lng":141.351162,"zip":"9862135"},{"town":"渡波","koaza":"新千刈","lat":38.424593,"lng":141.355072,"zip":"9862135"},{"town":"渡波","koaza":"黄金浜","lat":38.418388,"lng":141.355276,"zip":"9862135"},{"town":"高木","koaza":"内田","lat":38.470811,"lng":141.353358,"zip":"9860006"},{"town":"高木","koaza":"清水","lat":38.471559,"lng":141.354134,"zip":"9860006"},{"town":"渡波","koaza":"千刈田","lat":38.425188,"lng":141.355471,"zip":"9862135"},{"town":"渡波","koaza":"浜曽根の壱","lat":38.417225,"lng":141.354292,"zip":"9862135"},{"town":"渡波","koaza":"際","lat":38.435111,"lng":141.35549,"zip":"9862135"},{"town":"真野","koaza":"丸森山","lat":38.449371,"lng":141.358563,"zip":"9860002"},{"town":"渡波","koaza":"新沼","lat":38.423814,"lng":141.361528,"zip":"9862135"},{"town":"高木","koaza":"中才","lat":38.47577,"lng":141.355569,"zip":"9860006"},{"town":"高木","koaza":"寺前","lat":38.474671,"lng":141.359493,"zip":"9860006"},{"town":"渡波","koaza":"鹿松","lat":38.428268,"lng":141.358992,"zip":"9862135"},{"town":"高木","koaza":"大沢","lat":38.476112,"lng":141.360743,"zip":"9860006"},{"town":"高木","koaza":"若宮","lat":38.474469,"lng":141.360665,"zip":"9860006"},{"town":"新成一丁目","koaza":"","lat":38.426341,"lng":141.362695,"zip":"9862105"},{"town":"渡波","koaza":"下榎壇","lat":38.420281,"lng":141.361867,"zip":"9862135"},{"town":"渡波","koaza":"旭ケ浦","lat":38.42271,"lng":141.363885,"zip":"9862135"},{"town":"新成二丁目","koaza":"","lat":38.424601,"lng":141.364353,"zip":"9862105"},{"town":"新成三丁目","koaza":"","lat":38.426686,"lng":141.365728,"zip":"9862105"},{"town":"真野","koaza":"小島","lat":38.460183,"lng":141.364707,"zip":"9860002"},{"town":"沢田","koaza":"平形山根","lat":38.439872,"lng":141.366974,"zip":"9862102"},{"town":"水沼","koaza":"日影","lat":38.4768,"lng":141.367137,"zip":"9860001"},{"town":"流留","koaza":"三番囲","lat":38.425527,"lng":141.367601,"zip":"9862103"},{"town":"渡波","koaza":"大森","lat":38.409638,"lng":141.369059,"zip":"9862135"},{"town":"流留","koaza":"五性橋","lat":38.42438,"lng":141.370112,"zip":"9862103"},{"town":"渡波","koaza":"佐須","lat":38.4041,"lng":141.369772,"zip":"9862135"},{"town":"沼津","koaza":"出外","lat":38.446536,"lng":141.37453,"zip":"9862101"},{"town":"流留","koaza":"二番囲","lat":38.426595,"lng":141.370522,"zip":"9862103"},{"town":"流留","koaza":"取揚坂","lat":38.430507,"lng":141.370283,"zip":"9862103"},{"town":"流留","koaza":"七勺","lat":38.427618,"lng":141.375783,"zip":"9862103"},{"town":"流留","koaza":"一番囲","lat":38.426942,"lng":141.372159,"zip":"9862103"},{"town":"流留","koaza":"中","lat":38.425083,"lng":141.374947,"zip":"9862103"},{"town":"水沼","koaza":"平畑","lat":38.481133,"lng":141.373543,"zip":"9860001"},{"town":"流留","koaza":"内田","lat":38.429488,"lng":141.373496,"zip":"9862103"},{"town":"渡波","koaza":"祝田","lat":38.414043,"lng":141.372156,"zip":"9862135"},{"town":"渡波","koaza":"境釜","lat":38.423549,"lng":141.374658,"zip":"9862135"},{"town":"渡波","koaza":"神明","lat":38.414053,"lng":141.375298,"zip":"9862135"},{"town":"水沼","koaza":"横路","lat":38.482055,"lng":141.374491,"zip":"9860001"},{"town":"渡波","koaza":"沖六勺","lat":38.420864,"lng":141.376656,"zip":"9862135"},{"town":"水沼","koaza":"寺内","lat":38.484247,"lng":141.374278,"zip":"9860001"},{"town":"渡波","koaza":"新釜","lat":38.419409,"lng":141.375242,"zip":"9862135"},{"town":"水沼","koaza":"天似","lat":38.48082,"lng":141.37641,"zip":"9860001"},{"town":"流留","koaza":"赤坂前","lat":38.42979,"lng":141.375391,"zip":"9862103"},{"town":"渡波","koaza":"梨木畑","lat":38.413672,"lng":141.380402,"zip":"9862135"},{"town":"流留","koaza":"沖","lat":38.425403,"lng":141.377065,"zip":"9862103"},{"town":"沢田","koaza":"台","lat":38.442663,"lng":141.379553,"zip":"9862102"},{"town":"真野","koaza":"小山","lat":38.469024,"lng":141.378508,"zip":"9860002"},{"town":"流留","koaza":"町","lat":38.430789,"lng":141.377389,"zip":"9862103"},{"town":"沼津","koaza":"沢口","lat":38.450153,"lng":141.380144,"zip":"9862101"},{"town":"渡波","koaza":"中三勺","lat":38.422587,"lng":141.377745,"zip":"9862135"},{"town":"流留","koaza":"家の前","lat":38.42866,"lng":141.378574,"zip":"9862103"},{"town":"渡波","koaza":"鳥ノ巣","lat":38.424072,"lng":141.378679,"zip":"9862135"},{"town":"真野","koaza":"内原","lat":38.474028,"lng":141.385438,"zip":"9860002"},{"town":"水沼","koaza":"亀山畑","lat":38.482329,"lng":141.379804,"zip":"9860001"},{"town":"水沼","koaza":"寺中畑","lat":38.483958,"lng":141.379139,"zip":"9860001"},{"town":"沼津","koaza":"山中","lat":38.448195,"lng":141.381481,"zip":"9862101"},{"town":"水沼","koaza":"亀山向","lat":38.480404,"lng":141.379268,"zip":"9860001"},{"town":"沼津","koaza":"新林山","lat":38.450185,"lng":141.381203,"zip":"9862101"},{"town":"真野","koaza":"舘坂下","lat":38.464565,"lng":141.38125,"zip":"9860002"},{"town":"沢田","koaza":"沢田","lat":38.433984,"lng":141.382923,"zip":"9862102"},{"town":"真野","koaza":"日影","lat":38.461752,"lng":141.384078,"zip":"9860002"},{"town":"沢田","koaza":"日影山","lat":38.435657,"lng":141.382844,"zip":"9862102"},{"town":"真野","koaza":"日向","lat":38.465908,"lng":141.384178,"zip":"9860002"},{"town":"沢田","koaza":"折立入","lat":38.43731,"lng":141.386348,"zip":"9862102"},{"town":"沢田","koaza":"志の畑","lat":38.438234,"lng":141.397674,"zip":"9862102"},{"town":"折浜","koaza":"折浜","lat":38.400261,"lng":141.401404,"zip":"9862355"},{"town":"小船越","koaza":"的場","lat":38.493948,"lng":141.283417,"zip":"9860132"},{"town":"小船越","koaza":"二子南上","lat":38.497477,"lng":141.290282,"zip":"9860132"},{"town":"小船越","koaza":"沢田山","lat":38.502826,"lng":141.287209,"zip":"9860132"},{"town":"小船越","koaza":"崎山","lat":38.501927,"lng":141.286871,"zip":"9860132"},{"town":"小船越","koaza":"雷神","lat":38.506063,"lng":141.287698,"zip":"9860132"},{"town":"大森","koaza":"町頭","lat":38.506511,"lng":141.311791,"zip":"9860121"},{"town":"大森","koaza":"新町頭","lat":38.506252,"lng":141.311635,"zip":"9860121"},{"town":"大森","koaza":"本町","lat":38.50772,"lng":141.313451,"zip":"9860121"},{"town":"小船越","koaza":"志戸","lat":38.511076,"lng":141.305839,"zip":"9860132"},{"town":"中野","koaza":"相野田入","lat":38.532215,"lng":141.346068,"zip":"9860105"},{"town":"中野","koaza":"熊野木前","lat":38.530415,"lng":141.339953,"zip":"9860105"},{"town":"中島","koaza":"川前畑四番","lat":38.526289,"lng":141.340428,"zip":"9860103"},{"town":"中野","koaza":"的場","lat":38.528646,"lng":141.342203,"zip":"9860105"},{"town":"中島","koaza":"女子沢内畑","lat":38.526678,"lng":141.331417,"zip":"9860103"},{"town":"相野谷","koaza":"五味前二番","lat":38.517138,"lng":141.321785,"zip":"9860101"},{"town":"相野谷","koaza":"手摺窪","lat":38.522996,"lng":141.31981,"zip":"9860101"},{"town":"相野谷","koaza":"沢田","lat":38.520257,"lng":141.318972,"zip":"9860101"},{"town":"相野谷","koaza":"今泉前","lat":38.516836,"lng":141.319549,"zip":"9860101"},{"town":"相野谷","koaza":"上川前","lat":38.513416,"lng":141.315354,"zip":"9860101"},{"town":"相野谷","koaza":"杉ケ崎","lat":38.521317,"lng":141.311698,"zip":"9860101"},{"town":"成田","koaza":"土手畑","lat":38.521841,"lng":141.311646,"zip":"9860102"},{"town":"相野谷","koaza":"舘平","lat":38.530376,"lng":141.309544,"zip":"9860101"},{"town":"相野谷","koaza":"中村前","lat":38.529139,"lng":141.310448,"zip":"9860101"},{"town":"相野谷","koaza":"六本木畑","lat":38.522566,"lng":141.318361,"zip":"9860101"},{"town":"相野谷","koaza":"旧会所脇","lat":38.518198,"lng":141.313272,"zip":"9860101"},{"town":"成田","koaza":"大曲土手外","lat":38.51735,"lng":141.298995,"zip":"9860102"},{"town":"小船越","koaza":"谷地","lat":38.516481,"lng":141.301833,"zip":"9860132"},{"town":"成田","koaza":"岩崎土手前","lat":38.523984,"lng":141.291218,"zip":"9860102"},{"town":"広渕","koaza":"物見沢一","lat":38.469807,"lng":141.196562,"zip":"9871222"},{"town":"広渕","koaza":"長山","lat":38.472778,"lng":141.197234,"zip":"9871222"},{"town":"広渕","koaza":"鹿添","lat":38.474537,"lng":141.203845,"zip":"9871222"},{"town":"広渕","koaza":"古川","lat":38.47049,"lng":141.211234,"zip":"9871222"},{"town":"広渕","koaza":"焼巻","lat":38.470792,"lng":141.216552,"zip":"9871222"},{"town":"広渕","koaza":"寺前一","lat":38.472534,"lng":141.213204,"zip":"9871222"},{"town":"広渕","koaza":"柏一","lat":38.47357,"lng":141.224992,"zip":"9871222"},{"town":"須江","koaza":"皮剥","lat":38.456089,"lng":141.251986,"zip":"9871221"},{"town":"須江","koaza":"大剥","lat":38.455422,"lng":141.253203,"zip":"9871221"},{"town":"須江","koaza":"座頭前","lat":38.450626,"lng":141.246405,"zip":"9871221"},{"town":"蛇田","koaza":"新立野","lat":38.451468,"lng":141.258632,"zip":"9860861"},{"town":"蛇田","koaza":"芋殻町","lat":38.44764,"lng":141.271904,"zip":"9860861"},{"town":"蛇田","koaza":"久七前","lat":38.444714,"lng":141.269124,"zip":"9860861"},{"town":"蛇田","koaza":"新丸井戸","lat":38.44572,"lng":141.278192,"zip":"9860861"},{"town":"蛇田","koaza":"新下浦","lat":38.449534,"lng":141.283989,"zip":"9860861"},{"town":"蛇田","koaza":"西境谷地","lat":38.447756,"lng":141.287317,"zip":"9860861"},{"town":"蛇田","koaza":"閘門","lat":38.446122,"lng":141.290102,"zip":"9860861"},{"town":"蛇田","koaza":"金津町前","lat":38.439933,"lng":141.284649,"zip":"9860861"},{"town":"蛇田","koaza":"下前沼","lat":38.439605,"lng":141.269152,"zip":"9860861"},{"town":"門脇","koaza":"元捨喰","lat":38.425947,"lng":141.255489,"zip":"9860853"},{"town":"門脇","koaza":"下鷲塚","lat":38.419376,"lng":141.257239,"zip":"9860853"},{"town":"広渕","koaza":"寺添","lat":38.473519,"lng":141.213042,"zip":"9871222"},{"town":"広渕","koaza":"砂一","lat":38.476277,"lng":141.229031,"zip":"9871222"},{"town":"須江","koaza":"沢田前","lat":38.475733,"lng":141.24097,"zip":"9871221"},{"town":"須江","koaza":"小竹","lat":38.473633,"lng":141.241331,"zip":"9871221"},{"town":"須江","koaza":"代官","lat":38.471577,"lng":141.240783,"zip":"9871221"},{"town":"蛇田","koaza":"丸沼","lat":38.464193,"lng":141.256998,"zip":"9860861"},{"town":"蛇田","koaza":"三ツ口","lat":38.464157,"lng":141.260916,"zip":"9860861"},{"town":"蛇田","koaza":"三ツ口南","lat":38.461131,"lng":141.25812,"zip":"9860861"},{"town":"中島","koaza":"川前畑一番","lat":38.518299,"lng":141.326478,"zip":"9860103"},{"town":"井内","koaza":"滝ノ口","lat":38.444966,"lng":141.337551,"zip":"9860003"},{"town":"井内","koaza":"磯田","lat":38.446073,"lng":141.344799,"zip":"9860003"},{"town":"根岸","koaza":"中","lat":38.4449,"lng":141.349638,"zip":"9862136"},{"town":"根岸","koaza":"新大和田","lat":38.446585,"lng":141.348196,"zip":"9862136"},{"town":"根岸","koaza":"大和田","lat":38.444335,"lng":141.347836,"zip":"9862136"},{"town":"根岸","koaza":"坂上山","lat":38.446695,"lng":141.347253,"zip":"9862136"},{"town":"渡波","koaza":"浜曽根山","lat":38.415744,"lng":141.352275,"zip":"9862135"},{"town":"湊","koaza":"瀧尻","lat":38.419634,"lng":141.330745,"zip":"9860011"},{"town":"湊","koaza":"大門崎","lat":38.419548,"lng":141.329103,"zip":"9860011"},{"town":"渡波","koaza":"上榎壇","lat":38.421175,"lng":141.354981,"zip":"9862135"},{"town":"渡波","koaza":"沖の松井","lat":38.421387,"lng":141.353633,"zip":"9862135"},{"town":"渡波","koaza":"渋井","lat":38.422414,"lng":141.362799,"zip":"9862135"},{"town":"渡波","koaza":"念仏壇","lat":38.420918,"lng":141.365106,"zip":"9862135"},{"town":"流留","koaza":"原","lat":38.423884,"lng":141.366806,"zip":"9862103"},{"town":"流留","koaza":"堤下","lat":38.424937,"lng":141.36853,"zip":"9862103"},{"town":"渡波","koaza":"四勺","lat":38.422434,"lng":141.376823,"zip":"9862135"},{"town":"流留","koaza":"宰ノ神","lat":38.431213,"lng":141.380479,"zip":"9862103"},{"town":"流留","koaza":"赤坂","lat":38.432369,"lng":141.375409,"zip":"9862103"},{"town":"水沼","koaza":"与市","lat":38.488129,"lng":141.374595,"zip":"9860001"},{"town":"水沼","koaza":"江合","lat":38.478661,"lng":141.372366,"zip":"9860001"},{"town":"水沼","koaza":"舘下","lat":38.483619,"lng":141.373642,"zip":"9860001"},{"town":"水沼","koaza":"日向畑","lat":38.488835,"lng":141.361582,"zip":"9860001"},{"town":"高木","koaza":"岡田","lat":38.472791,"lng":141.359891,"zip":"9860006"},{"town":"高木","koaza":"小沢","lat":38.471447,"lng":141.360629,"zip":"9860006"},{"town":"高木","koaza":"大草","lat":38.46731,"lng":141.352166,"zip":"9860006"},{"town":"高木","koaza":"小西","lat":38.470304,"lng":141.350321,"zip":"9860006"},{"town":"真野","koaza":"萱原","lat":38.467934,"lng":141.383443,"zip":"9860002"},{"town":"高木","koaza":"石崎","lat":38.462578,"lng":141.351924,"zip":"9860006"},{"town":"大瓜","koaza":"瀬戸山","lat":38.462893,"lng":141.340601,"zip":"9860005"},{"town":"大瓜","koaza":"八津山","lat":38.468493,"lng":141.333512,"zip":"9860005"},{"town":"大瓜","koaza":"新内亀山","lat":38.452672,"lng":141.321518,"zip":"9860005"},{"town":"大瓜","koaza":"下台","lat":38.450268,"lng":141.318512,"zip":"9860005"},{"town":"大瓜","koaza":"上台","lat":38.45098,"lng":141.319841,"zip":"9860005"},{"town":"大瓜","koaza":"内亀山","lat":38.454467,"lng":141.321153,"zip":"9860005"},{"town":"大瓜","koaza":"剣崎","lat":38.453161,"lng":141.31625,"zip":"9860005"},{"town":"南境","koaza":"才神","lat":38.459669,"lng":141.310826,"zip":"9860031"},{"town":"南境","koaza":"新金沢","lat":38.465832,"lng":141.312234,"zip":"9860031"},{"town":"南境","koaza":"舘下","lat":38.465419,"lng":141.311822,"zip":"9860031"},{"town":"南境","koaza":"館山","lat":38.464757,"lng":141.311624,"zip":"9860031"},{"town":"南境","koaza":"新舘下","lat":38.463629,"lng":141.310271,"zip":"9860031"},{"town":"沢田","koaza":"行兼山","lat":38.436877,"lng":141.393662,"zip":"9862102"},{"town":"沢田","koaza":"折立入山","lat":38.43707,"lng":141.391697,"zip":"9862102"},{"town":"沢田","koaza":"折立山","lat":38.438067,"lng":141.386285,"zip":"9862102"},{"town":"沢田","koaza":"折立","lat":38.442169,"lng":141.392224,"zip":"9862102"},{"town":"沢田","koaza":"上の台","lat":38.43551,"lng":141.386288,"zip":"9862102"},{"town":"沢田","koaza":"金山","lat":38.441524,"lng":141.382497,"zip":"9862102"},{"town":"沼津","koaza":"拾枚山","lat":38.444533,"lng":141.384443,"zip":"9862101"},{"town":"沼津","koaza":"越田","lat":38.451792,"lng":141.374748,"zip":"9862101"},{"town":"沼津","koaza":"三の輪","lat":38.449504,"lng":141.375801,"zip":"9862101"},{"town":"沼津","koaza":"竹森","lat":38.44926,"lng":141.380696,"zip":"9862101"},{"town":"沼津","koaza":"川端","lat":38.452721,"lng":141.381547,"zip":"9862101"},{"town":"沼津","koaza":"入","lat":38.454027,"lng":141.38004,"zip":"9862101"},{"town":"沼津","koaza":"明法寺","lat":38.452805,"lng":141.3809,"zip":"9862101"},{"town":"沼津","koaza":"大林山","lat":38.453167,"lng":141.374791,"zip":"9862101"},{"town":"沢田","koaza":"小友","lat":38.449499,"lng":141.371323,"zip":"9862102"},{"town":"真野","koaza":"半堂崎","lat":38.449218,"lng":141.36499,"zip":"9860002"},{"town":"真野","koaza":"小島山","lat":38.451179,"lng":141.362956,"zip":"9860002"},{"town":"真野","koaza":"舟渡","lat":38.464481,"lng":141.375536,"zip":"9860002"},{"town":"真野","koaza":"舘坂山","lat":38.462467,"lng":141.379611,"zip":"9860002"},{"town":"沢田","koaza":"沢田入","lat":38.434817,"lng":141.381166,"zip":"9862102"},{"town":"沢田","koaza":"流留境畑","lat":38.433104,"lng":141.381047,"zip":"9862102"},{"town":"沢田","koaza":"大畑","lat":38.434672,"lng":141.378287,"zip":"9862102"},{"town":"沢田","koaza":"平形日影山","lat":38.439906,"lng":141.372044,"zip":"9862102"},{"town":"渡波","koaza":"小法師","lat":38.42879,"lng":141.360099,"zip":"9862135"},{"town":"渡波","koaza":"転石山","lat":38.433666,"lng":141.356536,"zip":"9862135"},{"town":"渡波","koaza":"早坂山","lat":38.436278,"lng":141.351646,"zip":"9862135"},{"town":"渡波","koaza":"鹿松山","lat":38.428535,"lng":141.362472,"zip":"9862135"},{"town":"流留","koaza":"前峯","lat":38.431934,"lng":141.372254,"zip":"9862103"},{"town":"流留","koaza":"善性寺","lat":38.429738,"lng":141.366632,"zip":"9862103"},{"town":"沢田","koaza":"平形","lat":38.435061,"lng":141.368847,"zip":"9862102"},{"town":"沢田","koaza":"取揚","lat":38.436423,"lng":141.368231,"zip":"9862102"},{"town":"沢田","koaza":"広見山","lat":38.435896,"lng":141.367684,"zip":"9862102"},{"town":"流留","koaza":"上待","lat":38.430016,"lng":141.371634,"zip":"9862103"},{"town":"渡波","koaza":"大林下","lat":38.427644,"lng":141.358535,"zip":"9862135"},{"town":"渡波","koaza":"谷地頭","lat":38.429747,"lng":141.357531,"zip":"9862135"},{"town":"渡波","koaza":"橋下","lat":38.428868,"lng":141.353163,"zip":"9862135"},{"town":"渡波","koaza":"沖曽根","lat":38.423812,"lng":141.356217,"zip":"9862135"},{"town":"渡波","koaza":"栗林","lat":38.425417,"lng":141.352647,"zip":"9862135"},{"town":"渡波","koaza":"西ケ崎","lat":38.427447,"lng":141.350258,"zip":"9862135"},{"town":"渡波","koaza":"際前","lat":38.4285,"lng":141.354327,"zip":"9862135"},{"town":"湊","koaza":"根上り松","lat":38.421846,"lng":141.329624,"zip":"9860011"},{"town":"桃浦","koaza":"蛤浜","lat":38.405343,"lng":141.41045,"zip":"9862353"},{"town":"折浜","koaza":"蛤浜","lat":38.404735,"lng":141.407286,"zip":"9862355"},{"town":"折浜","koaza":"風越","lat":38.403691,"lng":141.403271,"zip":"9862355"},{"town":"折浜","koaza":"竹沢","lat":38.402911,"lng":141.399908,"zip":"9862355"},{"town":"小竹浜","koaza":"小竹","lat":38.38735,"lng":141.38325,"zip":"9862116"},{"town":"小竹浜","koaza":"洲土歩山","lat":38.385875,"lng":141.38071,"zip":"9862116"},{"town":"渡波","koaza":"袖の浜","lat":38.402394,"lng":141.368672,"zip":"9862135"},{"town":"渡波","koaza":"仁田山","lat":38.410457,"lng":141.371098,"zip":"9862135"},{"town":"渡波","koaza":"犬谷","lat":38.411474,"lng":141.371486,"zip":"9862135"},{"town":"渡波","koaza":"祝田の壱","lat":38.412945,"lng":141.369664,"zip":"9862135"},{"town":"渡波","koaza":"上伊勢谷地","lat":38.419166,"lng":141.36037,"zip":"9862135"},{"town":"渡波","koaza":"下伊勢谷地","lat":38.418933,"lng":141.361897,"zip":"9862135"},{"town":"沢田","koaza":"平形山","lat":38.44053,"lng":141.361357,"zip":"9862102"},{"town":"井内","koaza":"井内山","lat":38.438096,"lng":141.325634,"zip":"9860003"},{"town":"井内","koaza":"八幡山","lat":38.44367,"lng":141.332487,"zip":"9860003"},{"town":"井内","koaza":"二番","lat":38.445218,"lng":141.334816,"zip":"9860003"},{"town":"沢田","koaza":"小友山","lat":38.44991,"lng":141.369109,"zip":"9862102"},{"town":"高木","koaza":"古戸","lat":38.473347,"lng":141.356867,"zip":"9860006"},{"town":"大瓜","koaza":"寺崎","lat":38.456487,"lng":141.325558,"zip":"9860005"},{"town":"南境","koaza":"水貫前","lat":38.458396,"lng":141.310802,"zip":"9860031"},{"town":"小竹浜","koaza":"梅木","lat":38.387831,"lng":141.376611,"zip":"9862116"},{"town":"井内","koaza":"古屋敷前","lat":38.444324,"lng":141.334069,"zip":"9860003"},{"town":"大瓜","koaza":"上小塚","lat":38.450446,"lng":141.30903,"zip":"9860005"},{"town":"大瓜","koaza":"下小塚","lat":38.449648,"lng":141.309426,"zip":"9860005"},{"town":"門脇","koaza":"中島","lat":38.421031,"lng":141.264848,"zip":"9860853"},{"town":"南境","koaza":"埣","lat":38.453055,"lng":141.300999,"zip":"9860031"},{"town":"南境","koaza":"大樋","lat":38.453147,"lng":141.306418,"zip":"9860031"},{"town":"南境","koaza":"大埣","lat":38.453522,"lng":141.302964,"zip":"9860031"},{"town":"南境","koaza":"水戸","lat":38.451724,"lng":141.297597,"zip":"9860031"},{"town":"南境","koaza":"中斉","lat":38.464419,"lng":141.304319,"zip":"9860031"},{"town":"南境","koaza":"鶴巻","lat":38.460145,"lng":141.302984,"zip":"9860031"},{"town":"南境","koaza":"竹下","lat":38.462996,"lng":141.299734,"zip":"9860031"},{"town":"南境","koaza":"上金山","lat":38.472412,"lng":141.300412,"zip":"9860031"},{"town":"蛇田","koaza":"丸井戸","lat":38.443162,"lng":141.285993,"zip":"9860861"},{"town":"蛇田","koaza":"西沼田","lat":38.441936,"lng":141.259047,"zip":"9860861"},{"town":"蛇田","koaza":"細田","lat":38.441759,"lng":141.257338,"zip":"9860861"},{"town":"蛇田","koaza":"上前沼","lat":38.438826,"lng":141.26122,"zip":"9860861"},{"town":"南境","koaza":"山崎","lat":38.454877,"lng":141.291224,"zip":"9860031"},{"town":"南境","koaza":"水貫山","lat":38.457795,"lng":141.312181,"zip":"9860031"},{"town":"南境","koaza":"松木沢山","lat":38.462235,"lng":141.313232,"zip":"9860031"},{"town":"広渕","koaza":"舟入","lat":38.460315,"lng":141.199983,"zip":"9871222"},{"town":"小竹浜","koaza":"山居山","lat":38.394024,"lng":141.385284,"zip":"9862116"},{"town":"渡波","koaza":"佐須藤ケ崎","lat":38.405108,"lng":141.377636,"zip":"9862135"},{"town":"中野","koaza":"大屋敷","lat":38.532057,"lng":141.34371,"zip":"9860105"},{"town":"小船越","koaza":"二子南下","lat":38.498339,"lng":141.291251,"zip":"9860132"},{"town":"小船越","koaza":"二子畑","lat":38.495926,"lng":141.292134,"zip":"9860132"},{"town":"真野","koaza":"八の坪","lat":38.448715,"lng":141.356701,"zip":"9860002"},{"town":"真野","koaza":"十の坪","lat":38.450488,"lng":141.351174,"zip":"9860002"},{"town":"真野","koaza":"六の坪","lat":38.450155,"lng":141.350861,"zip":"9860002"},{"town":"真野","koaza":"七の坪","lat":38.449815,"lng":141.351268,"zip":"9860002"},{"town":"湊西一丁目","koaza":"","lat":null,"lng":null,"zip":null},{"town":"湊西二丁目","koaza":"","lat":null,"lng":null,"zip":null},{"town":"湊西三丁目","koaza":"","lat":null,"lng":null,"zip":null}]