[{"town":"字学田","koaza":"","lat":38.538414,"lng":141.068609,"zip":"9870000"},{"town":"字内役田","koaza":"","lat":38.531539,"lng":141.078904,"zip":"9870000"},{"town":"字中役田","koaza":"","lat":38.534904,"lng":141.077943,"zip":"9870000"},{"town":"字新藤ケ崎","koaza":"","lat":38.538933,"lng":141.06601,"zip":"9870000"},{"town":"字一本柳","koaza":"","lat":38.525779,"lng":141.093072,"zip":"9870000"},{"town":"字妻の神","koaza":"","lat":38.532954,"lng":141.075203,"zip":"9870000"},{"town":"字狐山","koaza":"","lat":38.527158,"lng":141.097452,"zip":"9870000"},{"town":"字砂子田","koaza":"","lat":38.532132,"lng":141.078633,"zip":"9870000"},{"town":"字下境","koaza":"","lat":38.526663,"lng":141.098374,"zip":"9870000"},{"town":"字小沼","koaza":"","lat":38.530314,"lng":141.092255,"zip":"9870000"},{"town":"字待井","koaza":"","lat":38.527274,"lng":141.09246,"zip":"9870000"},{"town":"字峯山浦","koaza":"","lat":38.534771,"lng":141.076494,"zip":"9870000"},{"town":"字小桜","koaza":"","lat":38.544749,"lng":141.06471,"zip":"9870000"},{"town":"字北原","koaza":"","lat":38.530931,"lng":141.078733,"zip":"9870000"},{"town":"字志賀殿","koaza":"","lat":38.5333,"lng":141.069494,"zip":"9870000"},{"town":"字上意江","koaza":"","lat":38.531554,"lng":141.076606,"zip":"9870000"},{"town":"字新大所","koaza":"","lat":38.52974,"lng":141.08336,"zip":"9870000"},{"town":"字塩釜添","koaza":"","lat":38.526195,"lng":141.098672,"zip":"9870000"},{"town":"字上新田","koaza":"","lat":38.546318,"lng":141.067088,"zip":"9870000"},{"town":"字下境沖","koaza":"","lat":38.533567,"lng":141.1016,"zip":"9870000"},{"town":"字二ツ檀","koaza":"","lat":38.529844,"lng":141.085988,"zip":"9870000"},{"town":"字籠田","koaza":"","lat":38.531548,"lng":141.102722,"zip":"9870000"},{"town":"字小町井","koaza":"","lat":38.53685,"lng":141.068943,"zip":"9870000"},{"town":"北浦一丁目","koaza":"","lat":38.541888,"lng":141.060047,"zip":"9870005"},{"town":"藤ケ崎一丁目","koaza":"","lat":38.543146,"lng":141.061917,"zip":"9870001"},{"town":"字塩釜","koaza":"","lat":38.526077,"lng":141.096021,"zip":"9870000"},{"town":"字勘堂","koaza":"","lat":38.529845,"lng":141.089917,"zip":"9870000"},{"town":"字素山","koaza":"","lat":38.539626,"lng":141.064572,"zip":"9870000"},{"town":"駅東三丁目","koaza":"","lat":38.537499,"lng":141.067495,"zip":"9870038"},{"town":"字新妻の神","koaza":"","lat":38.532722,"lng":141.0726,"zip":"9870000"},{"town":"字志賀町二丁目","koaza":"","lat":38.531432,"lng":141.069244,"zip":"9870000"},{"town":"字藤ケ崎","koaza":"","lat":38.541446,"lng":141.064276,"zip":"9870000"},{"town":"字小沼添","koaza":"","lat":38.530384,"lng":141.094479,"zip":"9870000"},{"town":"字日光江","koaza":"","lat":38.528814,"lng":141.100779,"zip":"9870000"},{"town":"字役田","koaza":"","lat":38.53244,"lng":141.076755,"zip":"9870000"},{"town":"字塔ノ越","koaza":"","lat":38.527876,"lng":141.084354,"zip":"9870000"},{"town":"字志賀町一丁目","koaza":"","lat":38.531931,"lng":141.066356,"zip":"9870000"},{"town":"字藤ケ崎町","koaza":"","lat":38.540364,"lng":141.061195,"zip":"9870000"},{"town":"字新田","koaza":"","lat":38.532097,"lng":141.09963,"zip":"9870000"},{"town":"字原田","koaza":"","lat":38.529747,"lng":141.097618,"zip":"9870000"},{"town":"字叔廼前","koaza":"","lat":38.526631,"lng":141.081595,"zip":"9870000"},{"town":"字素山町","koaza":"","lat":38.53676,"lng":141.062914,"zip":"9870000"},{"town":"駅東一丁目","koaza":"","lat":38.543628,"lng":141.066522,"zip":"9870038"},{"town":"字新小沼","koaza":"","lat":38.528327,"lng":141.091394,"zip":"9870000"},{"town":"字化粧坂","koaza":"","lat":38.534734,"lng":141.068185,"zip":"9870000"},{"town":"南牧の目","koaza":"","lat":38.590834,"lng":141.015463,"zip":"9870000"},{"town":"駅東二丁目","koaza":"","lat":38.54077,"lng":141.068226,"zip":"9870038"},{"town":"字志賀町三丁目","koaza":"","lat":38.529256,"lng":141.069219,"zip":"9870000"},{"town":"字桜木町","koaza":"","lat":38.537367,"lng":141.058921,"zip":"9870000"},{"town":"字西舘","koaza":"","lat":38.529059,"lng":141.079421,"zip":"9870000"},{"town":"字新一本柳","koaza":"","lat":38.526508,"lng":141.089697,"zip":"9870000"},{"town":"字峯山","koaza":"","lat":38.536165,"lng":141.072665,"zip":"9870000"},{"town":"南高城","koaza":"","lat":38.584125,"lng":141.046517,"zip":"9870026"},{"town":"字大所","koaza":"","lat":38.532994,"lng":141.083169,"zip":"9870000"},{"town":"成田","koaza":"","lat":38.586429,"lng":141.006817,"zip":"9870024"},{"town":"中高城","koaza":"","lat":38.588554,"lng":141.043899,"zip":"9870025"},{"town":"字新峯山","koaza":"","lat":38.539667,"lng":141.076548,"zip":"9870000"},{"town":"字後藤江","koaza":"","lat":38.535555,"lng":141.088165,"zip":"9870000"},{"town":"福ケ袋","koaza":"","lat":38.514539,"lng":141.111762,"zip":"9894202"},{"town":"関根","koaza":"","lat":38.568814,"lng":141.0021,"zip":"9870006"},{"town":"牛飼","koaza":"","lat":38.555319,"lng":141.052927,"zip":"9870004"},{"town":"荻埣","koaza":"","lat":38.575905,"lng":141.022529,"zip":"9870022"},{"town":"平針","koaza":"","lat":38.569221,"lng":141.033569,"zip":"9870021"},{"town":"南小牛田","koaza":"","lat":38.555852,"lng":141.075914,"zip":"9870003"},{"town":"中埣","koaza":"","lat":38.580341,"lng":141.037232,"zip":"9870024"},{"town":"木間塚","koaza":"","lat":38.486142,"lng":141.142681,"zip":"9894205"},{"town":"青生","koaza":"","lat":38.537046,"lng":141.038722,"zip":"9870015"},{"town":"大柳","koaza":"","lat":38.495969,"lng":141.141208,"zip":"9894204"},{"town":"練牛","koaza":"","lat":38.506293,"lng":141.146258,"zip":"9894203"},{"town":"和多田沼","koaza":"","lat":38.524282,"lng":141.114434,"zip":"9894201"},{"town":"北浦","koaza":"","lat":38.55286,"lng":141.030437,"zip":"9870005"},{"town":"二郷","koaza":"","lat":38.461406,"lng":141.14155,"zip":"9894206"},{"town":"関根","koaza":"亀田","lat":38.567723,"lng":140.994135,"zip":"9870006"},{"town":"関根","koaza":"堤筒","lat":38.568201,"lng":140.996536,"zip":"9870006"},{"town":"関根","koaza":"新苗代江","lat":38.570301,"lng":140.999901,"zip":"9870006"},{"town":"関根","koaza":"西原","lat":38.573477,"lng":141.001088,"zip":"9870006"},{"town":"関根","koaza":"鹿嶋","lat":38.567907,"lng":141.00414,"zip":"9870006"},{"town":"北浦","koaza":"谷地","lat":38.563887,"lng":141.000687,"zip":"9870005"},{"town":"北浦","koaza":"明神","lat":38.558542,"lng":141.005779,"zip":"9870005"},{"town":"関根","koaza":"道明","lat":38.567046,"lng":141.007056,"zip":"9870006"},{"town":"関根","koaza":"舘野","lat":38.566737,"lng":141.006792,"zip":"9870006"},{"town":"北浦","koaza":"二又","lat":38.565311,"lng":141.012024,"zip":"9870005"},{"town":"北浦","koaza":"高橋","lat":38.564027,"lng":141.013473,"zip":"9870005"},{"town":"北浦","koaza":"浦田上","lat":38.563025,"lng":141.021959,"zip":"9870005"},{"town":"北浦","koaza":"道祖神前","lat":38.560833,"lng":141.021894,"zip":"9870005"},{"town":"北浦","koaza":"道祖神","lat":38.560459,"lng":141.025139,"zip":"9870005"},{"town":"北浦","koaza":"権兵衛江南","lat":38.554447,"lng":141.027569,"zip":"9870005"},{"town":"北浦","koaza":"浦田中","lat":38.561794,"lng":141.02794,"zip":"9870005"},{"town":"北浦","koaza":"中組","lat":38.561242,"lng":141.025458,"zip":"9870005"},{"town":"北浦","koaza":"蛇沼","lat":38.561378,"lng":141.030324,"zip":"9870005"},{"town":"北浦","koaza":"天神南","lat":38.559057,"lng":141.028878,"zip":"9870005"},{"town":"北浦","koaza":"神明","lat":38.551509,"lng":141.029659,"zip":"9870005"},{"town":"北浦","koaza":"新組","lat":38.555607,"lng":141.027863,"zip":"9870005"},{"town":"北浦","koaza":"浅野栄治前","lat":38.55582,"lng":141.030679,"zip":"9870005"},{"town":"北浦","koaza":"神明浦","lat":38.553099,"lng":141.029119,"zip":"9870005"},{"town":"北浦","koaza":"新田東","lat":38.553966,"lng":141.029534,"zip":"9870005"},{"town":"北浦","koaza":"新大曲","lat":38.556797,"lng":141.031414,"zip":"9870005"},{"town":"北浦","koaza":"新神明","lat":38.553737,"lng":141.031675,"zip":"9870005"},{"town":"北浦","koaza":"浦田下","lat":38.562283,"lng":141.030866,"zip":"9870005"},{"town":"北浦","koaza":"横埣","lat":38.561243,"lng":141.035794,"zip":"9870005"},{"town":"北浦","koaza":"天神前","lat":38.560033,"lng":141.03268,"zip":"9870005"},{"town":"北浦","koaza":"大曲","lat":38.554547,"lng":141.034566,"zip":"9870005"},{"town":"北浦","koaza":"新二丁谷地","lat":38.552574,"lng":141.035769,"zip":"9870005"},{"town":"北浦","koaza":"新田","lat":38.549962,"lng":141.033263,"zip":"9870005"},{"town":"北浦","koaza":"門間清四郎西","lat":38.552072,"lng":141.036767,"zip":"9870005"},{"town":"北浦","koaza":"横埣表","lat":38.559267,"lng":141.037229,"zip":"9870005"},{"town":"北浦","koaza":"横埣下","lat":38.561763,"lng":141.03894,"zip":"9870005"},{"town":"北浦","koaza":"南又","lat":38.553407,"lng":141.0381,"zip":"9870005"},{"town":"北浦","koaza":"蓮沼浦","lat":38.549945,"lng":141.03821,"zip":"9870005"},{"town":"北浦","koaza":"念仏橋","lat":38.545336,"lng":141.041246,"zip":"9870005"},{"town":"青生","koaza":"町東","lat":38.531776,"lng":141.040459,"zip":"9870015"},{"town":"北浦","koaza":"蓮沼","lat":38.547888,"lng":141.040379,"zip":"9870005"},{"town":"青生","koaza":"新鳴瀬","lat":38.532759,"lng":141.044389,"zip":"9870015"},{"town":"北浦","koaza":"新高原","lat":38.561262,"lng":141.043226,"zip":"9870005"},{"town":"青生","koaza":"中の橋","lat":38.535931,"lng":141.043079,"zip":"9870015"},{"town":"北浦","koaza":"中新田","lat":38.559275,"lng":141.044943,"zip":"9870005"},{"town":"北浦","koaza":"前田","lat":38.544674,"lng":141.045881,"zip":"9870005"},{"town":"青生","koaza":"沼下","lat":38.53779,"lng":141.04621,"zip":"9870015"},{"town":"牛飼","koaza":"牛飼","lat":38.554213,"lng":141.049777,"zip":"9870004"},{"town":"牛飼","koaza":"阿弥陀","lat":38.554305,"lng":141.04839,"zip":"9870004"},{"town":"北浦","koaza":"原前","lat":38.559392,"lng":141.050486,"zip":"9870005"},{"town":"北浦","koaza":"新原","lat":38.560247,"lng":141.047977,"zip":"9870005"},{"town":"北浦","koaza":"原","lat":38.56129,"lng":141.046245,"zip":"9870005"},{"town":"北浦","koaza":"彫堂","lat":38.544785,"lng":141.049794,"zip":"9870005"},{"town":"北浦","koaza":"山前","lat":38.53847,"lng":141.049241,"zip":"9870005"},{"town":"北浦","koaza":"埣沼","lat":38.546523,"lng":141.050848,"zip":"9870005"},{"town":"牛飼","koaza":"新西原","lat":38.557108,"lng":141.050576,"zip":"9870004"},{"town":"牛飼","koaza":"八反","lat":38.552866,"lng":141.050272,"zip":"9870004"},{"town":"北浦","koaza":"蜂谷森","lat":38.541204,"lng":141.050289,"zip":"9870005"},{"town":"北浦","koaza":"遠門","lat":38.541911,"lng":141.051449,"zip":"9870005"},{"town":"青生","koaza":"水越浦","lat":38.535763,"lng":141.050958,"zip":"9870015"},{"town":"北浦","koaza":"待江","lat":38.543439,"lng":141.05372,"zip":"9870005"},{"town":"牛飼","koaza":"御蔵場","lat":38.558964,"lng":141.052916,"zip":"9870004"},{"town":"北浦","koaza":"姥ケ沢","lat":38.538462,"lng":141.05277,"zip":"9870005"},{"town":"牛飼","koaza":"伊勢堂裏","lat":38.556532,"lng":141.053824,"zip":"9870004"},{"town":"北浦","koaza":"大口","lat":38.54525,"lng":141.055478,"zip":"9870005"},{"town":"北浦","koaza":"船入","lat":38.541198,"lng":141.056631,"zip":"9870005"},{"town":"青生","koaza":"柳原","lat":38.533171,"lng":141.05524,"zip":"9870015"},{"town":"牛飼","koaza":"新町","lat":38.558527,"lng":141.055738,"zip":"9870004"},{"town":"南小牛田","koaza":"町屋敷","lat":38.559874,"lng":141.057859,"zip":"9870003"},{"town":"牛飼","koaza":"薬師","lat":38.557071,"lng":141.055936,"zip":"9870004"},{"town":"南小牛田","koaza":"中墫","lat":38.559335,"lng":141.059111,"zip":"9870003"},{"town":"牛飼","koaza":"清水江","lat":38.553703,"lng":141.059243,"zip":"9870004"},{"town":"南小牛田","koaza":"町浦","lat":38.559021,"lng":141.058673,"zip":"9870003"},{"town":"北浦","koaza":"駒米","lat":38.545203,"lng":141.057658,"zip":"9870005"},{"town":"青生","koaza":"上山沢","lat":38.536071,"lng":141.05704,"zip":"9870015"},{"town":"青生","koaza":"梅の木","lat":38.530004,"lng":141.059316,"zip":"9870015"},{"town":"青生","koaza":"的場","lat":38.533607,"lng":141.058006,"zip":"9870015"},{"town":"北浦","koaza":"北田","lat":38.543885,"lng":141.059275,"zip":"9870005"},{"town":"青生","koaza":"下山沢","lat":38.535477,"lng":141.059926,"zip":"9870015"},{"town":"南小牛田","koaza":"山の神","lat":38.554111,"lng":141.061031,"zip":"9870003"},{"town":"牛飼","koaza":"義見塚","lat":38.554293,"lng":141.06032,"zip":"9870004"},{"town":"北浦","koaza":"川戸浦","lat":38.544891,"lng":141.062599,"zip":"9870005"},{"town":"北浦","koaza":"天王筒","lat":38.549222,"lng":141.061724,"zip":"9870005"},{"town":"青生","koaza":"惣四郎","lat":38.532324,"lng":141.064352,"zip":"9870015"},{"town":"南小牛田","koaza":"本屋敷","lat":38.560558,"lng":141.06401,"zip":"9870003"},{"town":"南小牛田","koaza":"仁","lat":38.559017,"lng":141.064188,"zip":"9870003"},{"town":"南小牛田","koaza":"石神","lat":38.559903,"lng":141.071226,"zip":"9870003"},{"town":"南小牛田","koaza":"礼","lat":38.557772,"lng":141.07248,"zip":"9870003"},{"town":"南小牛田","koaza":"中江の内","lat":38.558205,"lng":141.084317,"zip":"9870003"},{"town":"南小牛田","koaza":"下小牛田屋敷","lat":38.556799,"lng":141.088067,"zip":"9870003"},{"town":"南小牛田","koaza":"谷地中東","lat":38.551795,"lng":141.090372,"zip":"9870003"},{"town":"南小牛田","koaza":"埣下","lat":38.5541,"lng":141.088002,"zip":"9870003"},{"town":"南小牛田","koaza":"江の内","lat":38.558631,"lng":141.084101,"zip":"9870003"},{"town":"南小牛田","koaza":"下江の内","lat":38.554205,"lng":141.090285,"zip":"9870003"},{"town":"北浦","koaza":"新大崎","lat":38.562144,"lng":141.016965,"zip":"9870005"},{"town":"北浦","koaza":"二又下","lat":38.562735,"lng":141.019397,"zip":"9870005"},{"town":"北浦","koaza":"苗代下","lat":38.560013,"lng":141.039076,"zip":"9870005"},{"town":"北浦","koaza":"新苗代下","lat":38.560199,"lng":141.043197,"zip":"9870005"},{"town":"関根","koaza":"新西原","lat":38.573814,"lng":140.997762,"zip":"9870006"},{"town":"関根","koaza":"苗代江","lat":38.570643,"lng":141.000396,"zip":"9870006"},{"town":"北浦","koaza":"新高橋","lat":38.563899,"lng":141.012326,"zip":"9870005"},{"town":"北浦","koaza":"樋場","lat":38.562921,"lng":141.016608,"zip":"9870005"},{"town":"北浦","koaza":"権兵衛江下","lat":38.556015,"lng":141.027592,"zip":"9870005"},{"town":"北浦","koaza":"半兵衛","lat":38.556613,"lng":141.02881,"zip":"9870005"},{"town":"北浦","koaza":"小屋敷前","lat":38.551099,"lng":141.031106,"zip":"9870005"},{"town":"北浦","koaza":"二丁谷地","lat":38.550767,"lng":141.03706,"zip":"9870005"},{"town":"北浦","koaza":"新起谷","lat":38.554519,"lng":141.03708,"zip":"9870005"},{"town":"北浦","koaza":"北田江","lat":38.554928,"lng":141.036683,"zip":"9870005"},{"town":"北浦","koaza":"米谷","lat":38.558178,"lng":141.040708,"zip":"9870005"},{"town":"北浦","koaza":"横埣前田","lat":38.560036,"lng":141.036866,"zip":"9870005"},{"town":"北浦","koaza":"高原","lat":38.561764,"lng":141.044985,"zip":"9870005"},{"town":"牛飼","koaza":"八幡","lat":38.554881,"lng":141.05162,"zip":"9870004"},{"town":"牛飼","koaza":"伊勢堂前","lat":38.554482,"lng":141.053154,"zip":"9870004"},{"town":"北浦","koaza":"下新田","lat":38.55925,"lng":141.048004,"zip":"9870005"},{"town":"関根","koaza":"船窪","lat":38.565381,"lng":141.005792,"zip":"9870006"},{"town":"北浦","koaza":"横堀","lat":38.561744,"lng":141.005912,"zip":"9870005"},{"town":"北浦","koaza":"中組前","lat":38.561168,"lng":141.022138,"zip":"9870005"},{"town":"南小牛田","koaza":"菖蒲江","lat":38.557171,"lng":141.063287,"zip":"9870003"},{"town":"南小牛田","koaza":"上江の内","lat":38.561897,"lng":141.076465,"zip":"9870003"},{"town":"北浦","koaza":"大曲浦","lat":38.556864,"lng":141.030923,"zip":"9870005"},{"town":"北浦","koaza":"米谷浦","lat":38.557177,"lng":141.040908,"zip":"9870005"},{"town":"牛飼","koaza":"斉ノ台","lat":38.555477,"lng":141.059728,"zip":"9870004"},{"town":"南小牛田","koaza":"原江","lat":38.559743,"lng":141.07894,"zip":"9870003"},{"town":"北浦","koaza":"東又","lat":38.551472,"lng":141.038659,"zip":"9870005"},{"town":"北浦","koaza":"丁名塚","lat":38.546338,"lng":141.045703,"zip":"9870005"},{"town":"北浦","koaza":"東谷地","lat":38.546229,"lng":141.054265,"zip":"9870005"},{"town":"北浦","koaza":"大田","lat":38.542328,"lng":141.058572,"zip":"9870005"},{"town":"青生","koaza":"水越","lat":38.533212,"lng":141.053328,"zip":"9870015"},{"town":"青生","koaza":"北太郎川原","lat":38.533373,"lng":141.047307,"zip":"9870015"},{"town":"青生","koaza":"水越苗代","lat":38.534781,"lng":141.051791,"zip":"9870015"},{"town":"北浦","koaza":"新橋本","lat":38.548018,"lng":141.06315,"zip":"9870005"},{"town":"北浦","koaza":"北新田","lat":38.546867,"lng":141.042177,"zip":"9870005"},{"town":"南小牛田","koaza":"谷地中前","lat":38.550729,"lng":141.081844,"zip":"9870003"},{"town":"牛飼","koaza":"御蔵新田","lat":38.549942,"lng":141.062976,"zip":"9870004"},{"town":"牛飼","koaza":"伊勢堂","lat":38.557345,"lng":141.053477,"zip":"9870004"},{"town":"北浦","koaza":"清水谷地","lat":38.541974,"lng":141.046641,"zip":"9870005"},{"town":"北浦","koaza":"笹舘","lat":38.538072,"lng":141.051819,"zip":"9870005"},{"town":"青生","koaza":"小谷地","lat":38.530487,"lng":141.039534,"zip":"9870015"},{"town":"南小牛田","koaza":"山王","lat":38.55866,"lng":141.075105,"zip":"9870003"},{"town":"関根","koaza":"谷地浦","lat":38.566037,"lng":141.003635,"zip":"9870006"},{"town":"青生","koaza":"太田切","lat":38.529748,"lng":141.061304,"zip":"9870015"}]