[{"town":"字下道砂押二号","koaza":"","lat":38.535518,"lng":141.138611,"zip":"9870100"},{"town":"字今左ェ門沖名一号","koaza":"","lat":38.551907,"lng":141.092128,"zip":"9870100"},{"town":"字源右エ門沖名二号","koaza":"","lat":38.541953,"lng":141.121929,"zip":"9870100"},{"town":"字地不足道南","koaza":"","lat":38.547856,"lng":141.077461,"zip":"9870100"},{"town":"字中下道一号","koaza":"","lat":38.536518,"lng":141.13141,"zip":"9870100"},{"town":"字地不足道東三号","koaza":"","lat":38.551203,"lng":141.080749,"zip":"9870100"},{"town":"字川原町上","koaza":"","lat":38.537862,"lng":141.130459,"zip":"9870100"},{"town":"字下道砂押一号","koaza":"","lat":38.533825,"lng":141.140102,"zip":"9870100"},{"town":"字北五反田","koaza":"","lat":38.549788,"lng":141.081746,"zip":"9870100"},{"town":"字砂田","koaza":"","lat":38.528654,"lng":141.145373,"zip":"9870100"},{"town":"字佐山木","koaza":"","lat":38.541513,"lng":141.083794,"zip":"9870100"},{"town":"字古道下二本杉","koaza":"","lat":38.541052,"lng":141.123989,"zip":"9870100"},{"town":"字桜町裏三号","koaza":"","lat":38.552903,"lng":141.11886,"zip":"9870100"},{"town":"字北田中谷地三号","koaza":"","lat":38.552296,"lng":141.111544,"zip":"9870100"},{"town":"字鞍掛","koaza":"","lat":38.524029,"lng":141.144008,"zip":"9870100"},{"town":"字三軒屋敷一号","koaza":"","lat":38.525431,"lng":141.176798,"zip":"9870100"},{"town":"字新切替","koaza":"","lat":38.534926,"lng":141.099759,"zip":"9870100"},{"town":"字蘭場谷地","koaza":"","lat":38.548083,"lng":141.07905,"zip":"9870100"},{"town":"字川原町下","koaza":"","lat":38.538663,"lng":141.132516,"zip":"9870100"},{"town":"字新田境堀下一号","koaza":"","lat":38.542708,"lng":141.104658,"zip":"9870100"},{"town":"字新田境堀下二号","koaza":"","lat":38.543103,"lng":141.098703,"zip":"9870100"},{"town":"字市道一号","koaza":"","lat":38.525525,"lng":141.15634,"zip":"9870100"},{"town":"字九軒前","koaza":"","lat":38.545132,"lng":141.081322,"zip":"9870100"},{"town":"字練丑町","koaza":"","lat":38.544343,"lng":141.126443,"zip":"9870100"},{"town":"字花勝山石坂道東二号","koaza":"","lat":38.522651,"lng":141.153788,"zip":"9870100"},{"town":"字新町","koaza":"","lat":38.541369,"lng":141.127164,"zip":"9870100"},{"town":"字台所橋道下","koaza":"","lat":38.541621,"lng":141.092334,"zip":"9870100"},{"town":"字弥治内袋","koaza":"","lat":38.528717,"lng":141.149941,"zip":"9870100"},{"town":"字柳町","koaza":"","lat":38.538642,"lng":141.129766,"zip":"9870100"},{"town":"字六軒町","koaza":"","lat":38.544807,"lng":141.124908,"zip":"9870100"},{"town":"字立町","koaza":"","lat":38.542618,"lng":141.127081,"zip":"9870100"},{"town":"字後藤江","koaza":"","lat":38.53959,"lng":141.111814,"zip":"9870100"},{"town":"字九軒","koaza":"","lat":38.547887,"lng":141.083326,"zip":"9870100"},{"town":"字砂田土手外","koaza":"","lat":38.528583,"lng":141.148059,"zip":"9870100"},{"town":"字三軒屋敷二号","koaza":"","lat":38.521586,"lng":141.175281,"zip":"9870100"},{"town":"字烏鴉","koaza":"","lat":38.52828,"lng":141.152989,"zip":"9870100"},{"town":"字本町","koaza":"","lat":38.539997,"lng":141.130602,"zip":"9870100"},{"town":"字長柄町","koaza":"","lat":38.537627,"lng":141.13427,"zip":"9870100"},{"town":"字中島","koaza":"","lat":38.550886,"lng":141.102207,"zip":"9870100"},{"town":"字北田甲","koaza":"","lat":38.553084,"lng":141.115606,"zip":"9870100"},{"town":"字追廻町","koaza":"","lat":38.541716,"lng":141.131624,"zip":"9870100"},{"town":"字刈萱町","koaza":"","lat":38.544686,"lng":141.128041,"zip":"9870100"},{"town":"字沖新田","koaza":"","lat":38.535373,"lng":141.097877,"zip":"9870100"},{"town":"字田沼町","koaza":"","lat":38.547627,"lng":141.126008,"zip":"9870100"},{"town":"字九軒添","koaza":"","lat":38.549871,"lng":141.083953,"zip":"9870100"},{"town":"字三軒屋敷三号","koaza":"","lat":38.524464,"lng":141.175876,"zip":"9870100"},{"town":"字浦町","koaza":"","lat":38.536462,"lng":141.133695,"zip":"9870100"},{"town":"字花勝山市道添","koaza":"","lat":38.525544,"lng":141.158471,"zip":"9870100"},{"town":"字三十軒屋敷添","koaza":"","lat":38.548009,"lng":141.072064,"zip":"9870100"},{"town":"字中島甲","koaza":"","lat":38.553842,"lng":141.095989,"zip":"9870100"},{"town":"字新中島乙","koaza":"","lat":38.552955,"lng":141.108825,"zip":"9870100"},{"town":"字三十軒屋敷","koaza":"","lat":38.548801,"lng":141.068637,"zip":"9870100"},{"town":"字花勝山一号","koaza":"","lat":38.525445,"lng":141.147285,"zip":"9870100"},{"town":"字表桜町","koaza":"","lat":38.550995,"lng":141.12204,"zip":"9870100"},{"town":"字花勝山石坂道東一号","koaza":"","lat":38.520883,"lng":141.15278,"zip":"9870100"},{"town":"字裏桜町","koaza":"","lat":38.551919,"lng":141.12393,"zip":"9870100"},{"town":"字花勝山金山","koaza":"","lat":38.523388,"lng":141.154867,"zip":"9870100"},{"town":"字下道","koaza":"","lat":38.532821,"lng":141.132052,"zip":"9870100"},{"town":"字市道二号","koaza":"","lat":38.523048,"lng":141.160169,"zip":"9870100"},{"town":"字新尾切","koaza":"","lat":38.512521,"lng":141.150564,"zip":"9870100"},{"town":"字今左ェ門沖名","koaza":"","lat":38.551835,"lng":141.09564,"zip":"9870100"},{"town":"字小山下","koaza":"","lat":38.521604,"lng":141.141537,"zip":"9870100"},{"town":"字九軒西","koaza":"","lat":38.549936,"lng":141.078556,"zip":"9870100"},{"town":"字花勝山二号","koaza":"","lat":38.522194,"lng":141.14615,"zip":"9870100"},{"town":"字新町裏","koaza":"","lat":38.538381,"lng":141.126547,"zip":"9870100"},{"town":"字花勝山追舘","koaza":"","lat":38.519509,"lng":141.149697,"zip":"9870100"},{"town":"字薔薇島","koaza":"","lat":38.530453,"lng":141.14374,"zip":"9870100"},{"town":"字中島乙","koaza":"","lat":38.552498,"lng":141.102618,"zip":"9870100"},{"town":"字名鰭一号","koaza":"","lat":38.520478,"lng":141.156531,"zip":"9870100"},{"town":"字八百刈","koaza":"","lat":38.527185,"lng":141.144022,"zip":"9870100"},{"town":"字田町裏","koaza":"","lat":38.534181,"lng":141.128848,"zip":"9870100"},{"town":"字三軒屋敷","koaza":"","lat":38.521773,"lng":141.169589,"zip":"9870100"},{"town":"字六軒町裏","koaza":"","lat":38.544032,"lng":141.12161,"zip":"9870100"},{"town":"字新九軒前","koaza":"","lat":38.544022,"lng":141.079291,"zip":"9870100"},{"town":"字桜町裏","koaza":"","lat":38.549275,"lng":141.118732,"zip":"9870100"},{"town":"字五反田","koaza":"","lat":38.545102,"lng":141.084509,"zip":"9870100"},{"town":"字一本柳","koaza":"","lat":38.548876,"lng":141.106446,"zip":"9870100"},{"town":"字砂田前","koaza":"","lat":38.533088,"lng":141.138351,"zip":"9870100"},{"town":"字中下道","koaza":"","lat":38.531615,"lng":141.134529,"zip":"9870100"},{"town":"字小蓋谷地","koaza":"","lat":38.545315,"lng":141.074068,"zip":"9870100"},{"town":"字下新田","koaza":"","lat":38.527167,"lng":141.138769,"zip":"9870100"},{"town":"字西谷地","koaza":"","lat":38.549203,"lng":141.088632,"zip":"9870100"},{"town":"字市道川前","koaza":"","lat":38.526174,"lng":141.159675,"zip":"9870100"},{"town":"字桑木荒","koaza":"","lat":38.533264,"lng":141.124532,"zip":"9870100"},{"town":"字赤間屋敷","koaza":"","lat":38.548425,"lng":141.09536,"zip":"9870100"},{"town":"字花勝山一本柳","koaza":"","lat":38.517882,"lng":141.147039,"zip":"9870100"},{"town":"字北田","koaza":"","lat":38.550655,"lng":141.112283,"zip":"9870100"},{"town":"字新名鰭","koaza":"","lat":38.514507,"lng":141.158306,"zip":"9870100"},{"town":"字新台所橋","koaza":"","lat":38.539606,"lng":141.092087,"zip":"9870100"},{"town":"字蔵人沖名","koaza":"","lat":38.546239,"lng":141.115162,"zip":"9870100"},{"town":"字名鰭二号","koaza":"","lat":38.519489,"lng":141.168021,"zip":"9870100"},{"town":"字新境堀下","koaza":"","lat":38.539833,"lng":141.100168,"zip":"9870100"},{"town":"字関谷沖名","koaza":"","lat":38.543483,"lng":141.094054,"zip":"9870100"},{"town":"字渋江","koaza":"","lat":38.537814,"lng":141.120342,"zip":"9870100"},{"town":"字名鰭","koaza":"","lat":38.518422,"lng":141.160163,"zip":"9870100"},{"town":"字新後藤江","koaza":"","lat":38.539451,"lng":141.107167,"zip":"9870100"},{"town":"字小谷地","koaza":"","lat":38.541809,"lng":141.113582,"zip":"9870100"},{"town":"字掃部沖名","koaza":"","lat":38.545747,"lng":141.103479,"zip":"9870100"},{"town":"字尾切","koaza":"","lat":38.520366,"lng":141.139257,"zip":"9870100"},{"town":"箟岳","koaza":"","lat":38.563658,"lng":141.179563,"zip":"9870285"},{"town":"吉住","koaza":"","lat":38.565777,"lng":141.202999,"zip":"9870283"},{"town":"成沢","koaza":"","lat":38.563676,"lng":141.158876,"zip":"9870286"},{"town":"太田","koaza":"","lat":38.580302,"lng":141.178249,"zip":"9870282"},{"town":"小塚","koaza":"","lat":38.539642,"lng":141.171966,"zip":"9870151"},{"town":"下郡","koaza":"","lat":38.573755,"lng":141.123188,"zip":"9870172"},{"town":"上郡","koaza":"","lat":38.57418,"lng":141.097488,"zip":"9870171"},{"town":"涌谷","koaza":"","lat":38.547646,"lng":141.139536,"zip":"9870121"},{"town":"猪岡短台","koaza":"","lat":38.54643,"lng":141.205365,"zip":"9870284"},{"town":"小里","koaza":"","lat":38.580641,"lng":141.150264,"zip":"9870281"},{"town":"涌谷","koaza":"上町","lat":38.551461,"lng":141.127469,"zip":"9870121"},{"town":"涌谷","koaza":"下町","lat":38.541558,"lng":141.133964,"zip":"9870121"},{"town":"涌谷","koaza":"日向町","lat":38.545369,"lng":141.133755,"zip":"9870121"},{"town":"涌谷","koaza":"小人町","lat":38.542438,"lng":141.135488,"zip":"9870121"},{"town":"涌谷","koaza":"福沢","lat":38.546801,"lng":141.137468,"zip":"9870121"},{"town":"涌谷","koaza":"新下町浦","lat":38.538798,"lng":141.140528,"zip":"9870121"},{"town":"涌谷","koaza":"龍渕寺","lat":38.542309,"lng":141.141571,"zip":"9870121"},{"town":"涌谷","koaza":"新見龍寺前","lat":38.540234,"lng":141.142158,"zip":"9870121"},{"town":"涌谷","koaza":"黄金迫前南","lat":38.544756,"lng":141.141685,"zip":"9870121"},{"town":"涌谷","koaza":"千間江","lat":38.535142,"lng":141.144451,"zip":"9870121"},{"town":"涌谷","koaza":"中江南","lat":38.542156,"lng":141.146886,"zip":"9870121"},{"town":"涌谷","koaza":"大崩五","lat":38.551406,"lng":141.144268,"zip":"9870121"},{"town":"涌谷","koaza":"鮫川","lat":38.536283,"lng":141.146739,"zip":"9870121"},{"town":"涌谷","koaza":"洞ヶ崎一","lat":38.538509,"lng":141.14802,"zip":"9870121"},{"town":"涌谷","koaza":"内林","lat":38.548208,"lng":141.131206,"zip":"9870121"},{"town":"涌谷","koaza":"田下","lat":38.553352,"lng":141.128851,"zip":"9870121"},{"town":"涌谷","koaza":"黄金迫北","lat":38.549608,"lng":141.140739,"zip":"9870121"},{"town":"涌谷","koaza":"大崩前一","lat":38.549394,"lng":141.141737,"zip":"9870121"},{"town":"涌谷","koaza":"入茂田","lat":38.547526,"lng":141.141742,"zip":"9870121"},{"town":"涌谷","koaza":"八方谷三","lat":38.547223,"lng":141.143694,"zip":"9870121"},{"town":"涌谷","koaza":"大崩前二","lat":38.550367,"lng":141.145267,"zip":"9870121"},{"town":"涌谷","koaza":"八方谷二","lat":38.547025,"lng":141.142577,"zip":"9870121"},{"town":"涌谷","koaza":"雉子林","lat":38.548331,"lng":141.146388,"zip":"9870121"},{"town":"涌谷","koaza":"大崩前三","lat":38.551046,"lng":141.146667,"zip":"9870121"},{"town":"涌谷","koaza":"内作田二","lat":38.546688,"lng":141.147832,"zip":"9870121"},{"town":"涌谷","koaza":"内作田一","lat":38.547152,"lng":141.145704,"zip":"9870121"},{"town":"涌谷","koaza":"中江北","lat":38.544839,"lng":141.144138,"zip":"9870121"},{"town":"涌谷","koaza":"八方谷一","lat":38.544228,"lng":141.144006,"zip":"9870121"},{"town":"涌谷","koaza":"龍渕寺浦","lat":38.543469,"lng":141.142359,"zip":"9870121"},{"town":"涌谷","koaza":"見龍寺浦","lat":38.543534,"lng":141.14079,"zip":"9870121"},{"town":"涌谷","koaza":"洞ヶ崎二","lat":38.539081,"lng":141.148627,"zip":"9870121"},{"town":"涌谷","koaza":"洞ヶ崎","lat":38.536822,"lng":141.147513,"zip":"9870121"},{"town":"涌谷","koaza":"浦町前西","lat":38.542984,"lng":141.138025,"zip":"9870121"},{"town":"涌谷","koaza":"浦町前東","lat":38.542651,"lng":141.137505,"zip":"9870121"},{"town":"涌谷","koaza":"黄金迫山","lat":38.547575,"lng":141.138581,"zip":"9870121"},{"town":"涌谷","koaza":"神明社東","lat":38.547196,"lng":141.139176,"zip":"9870121"},{"town":"涌谷","koaza":"黄金迫","lat":38.548408,"lng":141.139905,"zip":"9870121"},{"town":"涌谷","koaza":"坂下浦","lat":38.551527,"lng":141.141871,"zip":"9870121"},{"town":"涌谷","koaza":"大崩山","lat":38.55211,"lng":141.144026,"zip":"9870121"},{"town":"涌谷","koaza":"挟杉","lat":38.54976,"lng":141.147159,"zip":"9870121"},{"town":"涌谷","koaza":"八幡山","lat":38.549651,"lng":141.130676,"zip":"9870121"},{"town":"涌谷","koaza":"築道西","lat":38.541059,"lng":141.136854,"zip":"9870121"},{"town":"涌谷","koaza":"下町浦","lat":38.538911,"lng":141.138991,"zip":"9870121"},{"town":"涌谷","koaza":"鳥帽子田","lat":38.546559,"lng":141.1506,"zip":"9870121"},{"town":"涌谷","koaza":"外作田","lat":38.54458,"lng":141.14928,"zip":"9870121"},{"town":"涌谷","koaza":"見龍寺前","lat":38.538077,"lng":141.144705,"zip":"9870121"},{"town":"涌谷","koaza":"白畠","lat":38.540454,"lng":141.144617,"zip":"9870121"}]