[{"town":"松の平一丁目","koaza":"","lat":38.46937,"lng":140.901068,"zip":"9813608"},{"town":"沖の平","koaza":"","lat":38.498564,"lng":140.901322,"zip":"9813603"},{"town":"桔梗平","koaza":"","lat":38.46639,"lng":140.916537,"zip":"9813606"},{"town":"松の平三丁目","koaza":"","lat":38.470477,"lng":140.908298,"zip":"9813608"},{"town":"松の平二丁目","koaza":"","lat":38.475841,"lng":140.896034,"zip":"9813608"},{"town":"奥田","koaza":"","lat":38.460388,"lng":140.904402,"zip":"9813607"},{"town":"大森","koaza":"","lat":38.475581,"lng":140.93445,"zip":"9813605"},{"town":"駒場","koaza":"","lat":38.493451,"lng":140.902227,"zip":"9813604"},{"town":"大瓜","koaza":"","lat":38.481279,"lng":140.829663,"zip":"9813601"},{"town":"中央平","koaza":"","lat":38.466579,"lng":140.891079,"zip":"9813609"},{"town":"ときわ台","koaza":"","lat":38.465619,"lng":140.884453,"zip":"9813611"},{"town":"大衡","koaza":"","lat":38.475207,"lng":140.875456,"zip":"9813602"},{"town":"ときわ台南","koaza":"","lat":38.462846,"lng":140.883571,"zip":"9813612"},{"town":"大瓜","koaza":"中山","lat":38.465437,"lng":140.85535,"zip":"9813601"},{"town":"大瓜","koaza":"北入","lat":38.464938,"lng":140.849479,"zip":"9813601"},{"town":"大瓜","koaza":"蒲切沢","lat":38.468072,"lng":140.852114,"zip":"9813601"},{"town":"大瓜","koaza":"権現","lat":38.469076,"lng":140.853882,"zip":"9813601"},{"town":"大瓜","koaza":"大福","lat":38.462978,"lng":140.859081,"zip":"9813601"},{"town":"大瓜","koaza":"東沢","lat":38.474587,"lng":140.857012,"zip":"9813601"},{"town":"大瓜","koaza":"天王","lat":38.460431,"lng":140.855817,"zip":"9813601"},{"town":"大瓜","koaza":"木通","lat":38.461149,"lng":140.859517,"zip":"9813601"},{"town":"大瓜","koaza":"鹿前","lat":38.472605,"lng":140.8577,"zip":"9813601"},{"town":"大瓜","koaza":"京塚","lat":38.470531,"lng":140.859472,"zip":"9813601"},{"town":"大瓜","koaza":"平場","lat":38.474324,"lng":140.863001,"zip":"9813601"},{"town":"大瓜","koaza":"土橋","lat":38.477397,"lng":140.859819,"zip":"9813601"},{"town":"大瓜","koaza":"宝","lat":38.465323,"lng":140.859123,"zip":"9813601"},{"town":"大瓜","koaza":"岩下","lat":38.464811,"lng":140.86172,"zip":"9813601"},{"town":"大瓜","koaza":"四反田","lat":38.465747,"lng":140.866349,"zip":"9813601"},{"town":"大瓜","koaza":"沓掛","lat":38.483971,"lng":140.864657,"zip":"9813601"},{"town":"大衡","koaza":"北原","lat":38.477132,"lng":140.864999,"zip":"9813602"},{"town":"大衡","koaza":"尾西","lat":38.486476,"lng":140.868636,"zip":"9813602"},{"town":"大瓜","koaza":"八幡","lat":38.457736,"lng":140.86618,"zip":"9813601"},{"town":"大衡","koaza":"五反田","lat":38.466452,"lng":140.868396,"zip":"9813602"},{"town":"大瓜","koaza":"尾無","lat":38.48411,"lng":140.866583,"zip":"9813601"},{"town":"大衡","koaza":"稲荷坂","lat":38.45559,"lng":140.867686,"zip":"9813602"},{"town":"大衡","koaza":"小沓","lat":38.473753,"lng":140.86862,"zip":"9813602"},{"town":"大衡","koaza":"小沓掛","lat":38.469422,"lng":140.868469,"zip":"9813602"},{"town":"大衡","koaza":"大童","lat":38.463224,"lng":140.872351,"zip":"9813602"},{"town":"大衡","koaza":"尾無","lat":38.487048,"lng":140.871812,"zip":"9813602"},{"town":"大衡","koaza":"天姓院","lat":38.454317,"lng":140.870349,"zip":"9813602"},{"town":"大衡","koaza":"芋沢","lat":38.455941,"lng":140.871129,"zip":"9813602"},{"town":"大衡","koaza":"道下","lat":38.454812,"lng":140.871008,"zip":"9813602"},{"town":"大衡","koaza":"亀岡","lat":38.460584,"lng":140.872257,"zip":"9813602"},{"town":"大衡","koaza":"川原田","lat":38.457616,"lng":140.871832,"zip":"9813602"},{"town":"大衡","koaza":"堀向","lat":38.456765,"lng":140.872564,"zip":"9813602"},{"town":"大衡","koaza":"中山","lat":38.490242,"lng":140.873271,"zip":"9813602"},{"town":"大衡","koaza":"山下","lat":38.455535,"lng":140.874586,"zip":"9813602"},{"town":"大衡","koaza":"柧木","lat":38.474248,"lng":140.877847,"zip":"9813602"},{"town":"大衡","koaza":"一本木","lat":38.469899,"lng":140.873165,"zip":"9813602"},{"town":"大衡","koaza":"金谷","lat":38.453922,"lng":140.874083,"zip":"9813602"},{"town":"大衡","koaza":"石名坂前","lat":38.45861,"lng":140.873981,"zip":"9813602"},{"town":"大衡","koaza":"西ノ谷","lat":38.458088,"lng":140.875897,"zip":"9813602"},{"town":"大衡","koaza":"座府","lat":38.484543,"lng":140.878261,"zip":"9813602"},{"town":"大衡","koaza":"沢目","lat":38.456165,"lng":140.876293,"zip":"9813602"},{"town":"大衡","koaza":"行志","lat":38.45905,"lng":140.876073,"zip":"9813602"},{"town":"大衡","koaza":"杢師","lat":38.461707,"lng":140.875989,"zip":"9813602"},{"town":"大衡","koaza":"薬師浦","lat":38.458064,"lng":140.876744,"zip":"9813602"},{"town":"大衡","koaza":"塩浪前","lat":38.460598,"lng":140.877148,"zip":"9813602"},{"town":"大衡","koaza":"平林","lat":38.466816,"lng":140.88222,"zip":"9813602"},{"town":"大衡","koaza":"野畑","lat":38.457677,"lng":140.879126,"zip":"9813602"},{"town":"大衡","koaza":"中名屋敷前","lat":38.455556,"lng":140.878297,"zip":"9813602"},{"town":"大衡","koaza":"大柳","lat":38.453081,"lng":140.880444,"zip":"9813602"},{"town":"大衡","koaza":"河原","lat":38.491786,"lng":140.88092,"zip":"9813602"},{"town":"大衡","koaza":"八幡","lat":38.463363,"lng":140.878519,"zip":"9813602"},{"town":"大衡","koaza":"松ノ下","lat":38.458794,"lng":140.878281,"zip":"9813602"},{"town":"大衡","koaza":"新松本","lat":38.458576,"lng":140.883151,"zip":"9813602"},{"town":"大衡","koaza":"長原","lat":38.473912,"lng":140.881489,"zip":"9813602"},{"town":"大衡","koaza":"吉原","lat":38.460783,"lng":140.878831,"zip":"9813602"},{"town":"大衡","koaza":"塩浪","lat":38.461932,"lng":140.881105,"zip":"9813602"},{"town":"大衡","koaza":"雁又","lat":38.459387,"lng":140.880213,"zip":"9813602"},{"town":"大衡","koaza":"大屋敷前","lat":38.457683,"lng":140.880609,"zip":"9813602"},{"town":"大衡","koaza":"道地","lat":38.454566,"lng":140.881309,"zip":"9813602"},{"town":"大衡","koaza":"赤坂","lat":38.487401,"lng":140.889915,"zip":"9813602"},{"town":"大衡","koaza":"柳合","lat":38.452768,"lng":140.883968,"zip":"9813602"},{"town":"大衡","koaza":"石神沢","lat":38.451991,"lng":140.88197,"zip":"9813602"},{"town":"大衡","koaza":"萱刈場","lat":38.496979,"lng":140.887259,"zip":"9813602"},{"town":"大衡","koaza":"楳田","lat":38.478787,"lng":140.88685,"zip":"9813602"},{"town":"大衡","koaza":"観音下","lat":38.450923,"lng":140.886577,"zip":"9813602"},{"town":"大衡","koaza":"鍜冶屋沢","lat":38.451115,"lng":140.884232,"zip":"9813602"},{"town":"大衡","koaza":"沢田前","lat":38.455563,"lng":140.886395,"zip":"9813602"},{"town":"大衡","koaza":"待井沢","lat":38.490226,"lng":140.887129,"zip":"9813602"},{"town":"大衡","koaza":"観音堂","lat":38.450239,"lng":140.885804,"zip":"9813602"},{"town":"大衡","koaza":"沢田","lat":38.457844,"lng":140.885246,"zip":"9813602"},{"town":"大衡","koaza":"山岸前","lat":38.4535,"lng":140.888969,"zip":"9813602"},{"town":"大衡","koaza":"寺沢","lat":38.458871,"lng":140.8874,"zip":"9813602"},{"town":"大衡","koaza":"要害","lat":38.455949,"lng":140.888626,"zip":"9813602"},{"town":"大衡","koaza":"古舘前","lat":38.448807,"lng":140.887824,"zip":"9813602"},{"town":"大衡","koaza":"古舘下","lat":38.448256,"lng":140.890431,"zip":"9813602"},{"town":"大衡","koaza":"鐙沢","lat":38.471533,"lng":140.890596,"zip":"9813602"},{"town":"大衡","koaza":"竹ノ内前","lat":38.451981,"lng":140.890972,"zip":"9813602"},{"town":"奥田","koaza":"原","lat":38.467718,"lng":140.894714,"zip":"9813607"},{"town":"大衡","koaza":"稲荷前","lat":38.450021,"lng":140.893291,"zip":"9813602"},{"town":"大衡","koaza":"竹ノ内","lat":38.453524,"lng":140.891147,"zip":"9813602"},{"town":"大衡","koaza":"団子沢","lat":38.457128,"lng":140.892313,"zip":"9813602"},{"town":"大衡","koaza":"大日向","lat":38.474616,"lng":140.890599,"zip":"9813602"},{"town":"大衡","koaza":"海老沢","lat":38.445001,"lng":140.89269,"zip":"9813602"},{"town":"奥田","koaza":"熊野沢","lat":38.464254,"lng":140.893263,"zip":"9813607"},{"town":"大衡","koaza":"竹ノ内沢","lat":38.453242,"lng":140.893496,"zip":"9813602"},{"town":"大衡","koaza":"新海老沢","lat":38.445999,"lng":140.893578,"zip":"9813602"},{"town":"大衡","koaza":"大樋","lat":38.451632,"lng":140.895286,"zip":"9813602"},{"town":"奥田","koaza":"苗代沢","lat":38.459146,"lng":140.894699,"zip":"9813607"},{"town":"駒場","koaza":"彦右衛門橋","lat":38.495014,"lng":140.894055,"zip":"9813604"},{"town":"大衡","koaza":"古井待","lat":38.480767,"lng":140.89659,"zip":"9813602"},{"town":"駒場","koaza":"上五仏","lat":38.485796,"lng":140.898713,"zip":"9813604"},{"town":"奥田","koaza":"石田","lat":38.462448,"lng":140.894584,"zip":"9813607"},{"town":"奥田","koaza":"前沢","lat":38.460754,"lng":140.894872,"zip":"9813607"},{"town":"大衡","koaza":"蛇ケ崎前","lat":38.447797,"lng":140.896841,"zip":"9813602"},{"town":"奥田","koaza":"遠向","lat":38.461681,"lng":140.894927,"zip":"9813607"},{"town":"大衡","koaza":"糸繰","lat":38.444427,"lng":140.895765,"zip":"9813602"},{"town":"奥田","koaza":"五十沢","lat":38.462465,"lng":140.897612,"zip":"9813607"},{"town":"奥田","koaza":"奥田西","lat":38.458326,"lng":140.897522,"zip":"9813607"},{"town":"奥田","koaza":"谷地","lat":38.455968,"lng":140.897312,"zip":"9813607"},{"town":"奥田","koaza":"上ノ沢","lat":38.453389,"lng":140.898782,"zip":"9813607"},{"town":"大衡","koaza":"持足","lat":38.450636,"lng":140.898703,"zip":"9813602"},{"town":"大衡","koaza":"舞台","lat":38.446173,"lng":140.900629,"zip":"9813602"},{"town":"奥田","koaza":"蕪ケ沢","lat":38.462223,"lng":140.900419,"zip":"9813607"},{"town":"奥田","koaza":"羽前場","lat":38.45302,"lng":140.899685,"zip":"9813607"},{"town":"奥田","koaza":"杉ケ崎","lat":38.456524,"lng":140.899979,"zip":"9813607"},{"town":"大衡","koaza":"鍛冶屋敷前","lat":38.447966,"lng":140.90145,"zip":"9813602"},{"town":"奥田","koaza":"奥田中","lat":38.45352,"lng":140.902201,"zip":"9813607"},{"town":"奥田","koaza":"山下","lat":38.451881,"lng":140.901438,"zip":"9813607"},{"town":"駒場","koaza":"小板橋","lat":38.479763,"lng":140.906834,"zip":"9813604"},{"town":"奥田","koaza":"台","lat":38.458207,"lng":140.901966,"zip":"9813607"},{"town":"奥田","koaza":"熊野前","lat":38.455754,"lng":140.901675,"zip":"9813607"},{"town":"奥田","koaza":"中沢","lat":38.461194,"lng":140.9037,"zip":"9813607"},{"town":"大衡","koaza":"鍜冶屋敷","lat":38.449677,"lng":140.903746,"zip":"9813602"},{"town":"奥田","koaza":"新道","lat":38.467033,"lng":140.902873,"zip":"9813607"},{"town":"奥田","koaza":"下屋敷","lat":38.454078,"lng":140.905305,"zip":"9813607"},{"town":"奥田","koaza":"蔵","lat":38.466187,"lng":140.90459,"zip":"9813607"},{"town":"奥田","koaza":"奥田東","lat":38.458499,"lng":140.904015,"zip":"9813607"},{"town":"奥田","koaza":"在家","lat":38.463273,"lng":140.903735,"zip":"9813607"},{"town":"大衡","koaza":"境","lat":38.445466,"lng":140.905463,"zip":"9813602"},{"town":"奥田","koaza":"高橋","lat":38.45597,"lng":140.904946,"zip":"9813607"},{"town":"駒場","koaza":"戸口","lat":38.483347,"lng":140.908841,"zip":"9813604"},{"town":"奥田","koaza":"大鮹","lat":38.45783,"lng":140.906557,"zip":"9813607"},{"town":"奥田","koaza":"五ケ沢","lat":38.459067,"lng":140.911348,"zip":"9813607"},{"town":"奥田","koaza":"岩下","lat":38.449895,"lng":140.906298,"zip":"9813607"},{"town":"奥田","koaza":"二反田","lat":38.456902,"lng":140.909328,"zip":"9813607"},{"town":"奥田","koaza":"荒屋敷","lat":38.461378,"lng":140.907094,"zip":"9813607"},{"town":"駒場","koaza":"小田","lat":38.47898,"lng":140.912772,"zip":"9813604"},{"town":"大森","koaza":"脇繰","lat":38.472024,"lng":140.920468,"zip":"9813605"},{"town":"駒場","koaza":"中里","lat":38.479721,"lng":140.921907,"zip":"9813604"},{"town":"大森","koaza":"大杉下","lat":38.477221,"lng":140.924087,"zip":"9813605"},{"town":"駒場","koaza":"上深沢","lat":38.480422,"lng":140.925106,"zip":"9813604"},{"town":"大森","koaza":"鎌砥裏","lat":38.478739,"lng":140.926558,"zip":"9813605"},{"town":"大森","koaza":"猫ノ森","lat":38.474716,"lng":140.932095,"zip":"9813605"},{"town":"大森","koaza":"寺前","lat":38.47803,"lng":140.92893,"zip":"9813605"},{"town":"大森","koaza":"明神","lat":38.475183,"lng":140.938783,"zip":"9813605"},{"town":"大森","koaza":"西股","lat":38.472378,"lng":140.937254,"zip":"9813605"},{"town":"大森","koaza":"堤下","lat":38.46773,"lng":140.943727,"zip":"9813605"},{"town":"大森","koaza":"田尻","lat":38.477272,"lng":140.939269,"zip":"9813605"},{"town":"大森","koaza":"上畑","lat":38.471157,"lng":140.942946,"zip":"9813605"},{"town":"大森","koaza":"幕ノ沢","lat":38.473275,"lng":140.942367,"zip":"9813605"},{"town":"大森","koaza":"瀧ノ沢","lat":38.473304,"lng":140.943536,"zip":"9813605"},{"town":"大衡","koaza":"松本","lat":38.459971,"lng":140.884947,"zip":"9813602"}]