[{"town":"まいの三丁目","koaza":"","lat":38.434658,"lng":140.915172,"zip":"9813419"},{"town":"吉岡東一丁目","koaza":"","lat":38.437007,"lng":140.892439,"zip":"9813627"},{"town":"まいの一丁目","koaza":"","lat":38.439861,"lng":140.906402,"zip":"9813419"},{"town":"まいの四丁目","koaza":"","lat":38.435217,"lng":140.918555,"zip":"9813419"},{"town":"松坂平三丁目","koaza":"","lat":38.466685,"lng":140.923403,"zip":"9813408"},{"town":"杜の丘二丁目","koaza":"","lat":38.387658,"lng":140.868218,"zip":"9813628"},{"town":"吉岡南三丁目","koaza":"","lat":38.440318,"lng":140.880911,"zip":"9813626"},{"town":"松坂平四丁目","koaza":"","lat":38.465115,"lng":140.928894,"zip":"9813408"},{"town":"松坂平七丁目","koaza":"","lat":38.46046,"lng":140.936623,"zip":"9813408"},{"town":"まいの二丁目","koaza":"","lat":38.437437,"lng":140.910604,"zip":"9813419"},{"town":"吉岡南一丁目","koaza":"","lat":38.444585,"lng":140.879228,"zip":"9813626"},{"town":"吉岡東二丁目","koaza":"","lat":38.438134,"lng":140.895979,"zip":"9813627"},{"town":"杜の丘三丁目","koaza":"","lat":38.388874,"lng":140.864974,"zip":"9813628"},{"town":"杜の丘一丁目","koaza":"","lat":38.385207,"lng":140.8665,"zip":"9813628"},{"town":"吉岡東三丁目","koaza":"","lat":38.439396,"lng":140.902285,"zip":"9813627"},{"town":"もみじケ丘一丁目","koaza":"","lat":38.376246,"lng":140.859817,"zip":"9813622"},{"town":"吉岡南二丁目","koaza":"","lat":38.443139,"lng":140.876613,"zip":"9813626"},{"town":"松坂平八丁目","koaza":"","lat":38.453507,"lng":140.93499,"zip":"9813408"},{"town":"もみじケ丘三丁目","koaza":"","lat":38.3837,"lng":140.862241,"zip":"9813622"},{"town":"もみじケ丘二丁目","koaza":"","lat":38.380502,"lng":140.859965,"zip":"9813622"},{"town":"松坂平五丁目","koaza":"","lat":38.461754,"lng":140.925836,"zip":"9813408"},{"town":"松坂平二丁目","koaza":"","lat":38.462762,"lng":140.919617,"zip":"9813408"},{"town":"松坂平一丁目","koaza":"","lat":38.45965,"lng":140.917729,"zip":"9813408"},{"town":"松坂平六丁目","koaza":"","lat":38.458981,"lng":140.932089,"zip":"9813408"},{"town":"流通平","koaza":"","lat":38.443183,"lng":140.935136,"zip":"9813409"},{"town":"テクノヒルズ","koaza":"","lat":38.365038,"lng":140.855847,"zip":"9813629"},{"town":"学苑","koaza":"","lat":38.352748,"lng":140.837551,"zip":"9813271"},{"town":"落合蒜袋","koaza":"","lat":38.448483,"lng":140.910686,"zip":"9813406"},{"town":"鶴巣下草","koaza":"","lat":38.421685,"lng":140.90742,"zip":"9813418"},{"town":"鶴巣鳥屋","koaza":"","lat":38.410733,"lng":140.936468,"zip":"9813412"},{"town":"落合三ケ内","koaza":"","lat":38.441887,"lng":140.969897,"zip":"9813401"},{"town":"落合舞野","koaza":"","lat":38.432577,"lng":140.909312,"zip":"9813405"},{"town":"落合相川","koaza":"","lat":38.442109,"lng":140.921086,"zip":"9813404"},{"town":"落合報恩寺","koaza":"","lat":38.443497,"lng":140.953906,"zip":"9813402"},{"town":"落合桧和田","koaza":"","lat":38.430514,"lng":140.947568,"zip":"9813600"},{"town":"鶴巣山田","koaza":"","lat":38.369342,"lng":140.944674,"zip":"9813416"},{"town":"鶴巣太田","koaza":"","lat":38.387252,"lng":140.952633,"zip":"9813414"},{"town":"吉岡","koaza":"","lat":38.443228,"lng":140.888458,"zip":"9813621"},{"town":"鶴巣幕柳","koaza":"","lat":38.400134,"lng":140.949275,"zip":"9813413"},{"town":"鶴巣大平","koaza":"","lat":38.413763,"lng":140.959876,"zip":"9813411"},{"town":"鶴巣北目大崎","koaza":"","lat":38.416204,"lng":140.923949,"zip":"9813417"},{"town":"鶴巣小鶴沢","koaza":"","lat":38.36934,"lng":140.963591,"zip":"9813415"},{"town":"落合松坂","koaza":"","lat":38.454963,"lng":140.94993,"zip":"9813407"},{"town":"小野","koaza":"","lat":38.38123,"lng":140.845344,"zip":"9813623"},{"town":"宮床","koaza":"","lat":38.406212,"lng":140.812207,"zip":"9813624"},{"town":"吉田","koaza":"","lat":38.457472,"lng":140.747723,"zip":"9813625"},{"town":"吉岡天皇寺東","koaza":"","lat":38.439531,"lng":140.888145,"zip":"9813631"},{"town":"吉岡まほろば二丁目","koaza":"","lat":38.438717,"lng":140.875936,"zip":"9813632"},{"town":"吉岡まほろば一丁目","koaza":"","lat":38.437559,"lng":140.884626,"zip":"9813632"},{"town":"小野","koaza":"石倉一番","lat":38.361167,"lng":140.835634,"zip":"9813623"},{"town":"小野","koaza":"長岫","lat":38.370699,"lng":140.844962,"zip":"9813623"},{"town":"小野","koaza":"芳ノ沢","lat":38.383202,"lng":140.841315,"zip":"9813623"},{"town":"小野","koaza":"新畑","lat":38.356403,"lng":140.834369,"zip":"9813623"},{"town":"小野","koaza":"八幡一番","lat":38.357747,"lng":140.837932,"zip":"9813623"},{"town":"小野","koaza":"松沢","lat":38.362658,"lng":140.838959,"zip":"9813623"},{"town":"小野","koaza":"八幡二番","lat":38.355724,"lng":140.838774,"zip":"9813623"},{"town":"小野","koaza":"山岸","lat":38.364142,"lng":140.844349,"zip":"9813623"},{"town":"小野","koaza":"石倉二番","lat":38.358592,"lng":140.843905,"zip":"9813623"},{"town":"小野","koaza":"中沢","lat":38.38154,"lng":140.846707,"zip":"9813623"},{"town":"小野","koaza":"御仮屋","lat":38.360277,"lng":140.845249,"zip":"9813623"},{"town":"小野","koaza":"長原","lat":38.372033,"lng":140.849129,"zip":"9813623"},{"town":"小野","koaza":"赤坂","lat":38.385898,"lng":140.850613,"zip":"9813623"},{"town":"小野","koaza":"菅谷地","lat":38.363465,"lng":140.849296,"zip":"9813623"},{"town":"小野","koaza":"蛇石原","lat":38.359726,"lng":140.847577,"zip":"9813623"},{"town":"吉田","koaza":"下童子沢","lat":38.452906,"lng":140.84894,"zip":"9813625"},{"town":"吉田","koaza":"上童子沢","lat":38.451424,"lng":140.84963,"zip":"9813625"},{"town":"吉田","koaza":"童子沢","lat":38.455526,"lng":140.849435,"zip":"9813625"},{"town":"小野","koaza":"石倉向山一番","lat":38.360422,"lng":140.848879,"zip":"9813623"},{"town":"小野","koaza":"後藤","lat":38.378851,"lng":140.854977,"zip":"9813623"},{"town":"小野","koaza":"蛇石","lat":38.369315,"lng":140.850503,"zip":"9813623"},{"town":"小野","koaza":"黒木","lat":38.374002,"lng":140.854773,"zip":"9813623"},{"town":"小野","koaza":"蛇石山","lat":38.368241,"lng":140.852344,"zip":"9813623"},{"town":"小野","koaza":"石倉向山二番","lat":38.361621,"lng":140.850656,"zip":"9813623"},{"town":"吉田","koaza":"上峯","lat":38.451967,"lng":140.852389,"zip":"9813625"},{"town":"吉田","koaza":"中峯","lat":38.452213,"lng":140.858739,"zip":"9813625"},{"town":"小野","koaza":"釜ケ入","lat":38.390854,"lng":140.855442,"zip":"9813623"},{"town":"小野","koaza":"頼政","lat":38.386848,"lng":140.85428,"zip":"9813623"},{"town":"吉田","koaza":"中峯前","lat":38.44775,"lng":140.85479,"zip":"9813625"},{"town":"小野","koaza":"一ノ渡戸","lat":38.369054,"lng":140.85818,"zip":"9813623"},{"town":"吉田","koaza":"三峯","lat":38.451,"lng":140.856667,"zip":"9813625"},{"town":"小野","koaza":"白久保","lat":38.386764,"lng":140.857716,"zip":"9813623"},{"town":"吉田","koaza":"西沢目","lat":38.446574,"lng":140.855773,"zip":"9813625"},{"town":"小野","koaza":"向田","lat":38.389837,"lng":140.858278,"zip":"9813623"},{"town":"小野","koaza":"馬場","lat":38.388886,"lng":140.857827,"zip":"9813623"},{"town":"吉田","koaza":"行沢","lat":38.447337,"lng":140.857171,"zip":"9813625"},{"town":"吉田","koaza":"籠釣","lat":38.445464,"lng":140.857129,"zip":"9813625"},{"town":"宮床","koaza":"山崎","lat":38.417121,"lng":140.85839,"zip":"9813624"},{"town":"小野","koaza":"岩倉","lat":38.380981,"lng":140.857555,"zip":"9813623"},{"town":"宮床","koaza":"上綱木","lat":38.430174,"lng":140.860409,"zip":"9813624"},{"town":"宮床","koaza":"赤坂","lat":38.418591,"lng":140.85818,"zip":"9813624"},{"town":"宮床","koaza":"鹿の沢","lat":38.419944,"lng":140.859673,"zip":"9813624"},{"town":"吉田","koaza":"上入生田裏","lat":38.444305,"lng":140.859165,"zip":"9813625"},{"town":"小野","koaza":"堂ノ前","lat":38.391794,"lng":140.859346,"zip":"9813623"},{"town":"吉田","koaza":"中島","lat":38.445889,"lng":140.860799,"zip":"9813625"},{"town":"吉田","koaza":"中田","lat":38.447555,"lng":140.859816,"zip":"9813625"},{"town":"小野","koaza":"荒井","lat":38.39698,"lng":140.86535,"zip":"9813623"},{"town":"小野","koaza":"前沢","lat":38.365624,"lng":140.862848,"zip":"9813623"},{"town":"吉田","koaza":"川端","lat":38.437152,"lng":140.862963,"zip":"9813625"},{"town":"小野","koaza":"明通","lat":38.365965,"lng":140.860864,"zip":"9813623"},{"town":"小野","koaza":"新道","lat":38.388171,"lng":140.861025,"zip":"9813623"},{"town":"宮床","koaza":"山田中","lat":38.416597,"lng":140.86508,"zip":"9813624"},{"town":"小野","koaza":"小野川南","lat":38.388966,"lng":140.859884,"zip":"9813623"},{"town":"宮床","koaza":"中原","lat":38.418605,"lng":140.86532,"zip":"9813624"},{"town":"吉田","koaza":"瘤屋敷","lat":38.441964,"lng":140.864181,"zip":"9813625"},{"town":"小野","koaza":"上田","lat":38.393211,"lng":140.860884,"zip":"9813623"},{"town":"小野","koaza":"竹林","lat":38.391778,"lng":140.860902,"zip":"9813623"},{"town":"吉田","koaza":"山ノ神","lat":38.449179,"lng":140.863494,"zip":"9813625"},{"town":"吉田","koaza":"入生田上","lat":38.443866,"lng":140.86248,"zip":"9813625"},{"town":"吉田","koaza":"一ノ坂","lat":38.452418,"lng":140.866372,"zip":"9813625"},{"town":"小野","koaza":"新坊","lat":38.389087,"lng":140.862616,"zip":"9813623"},{"town":"吉田","koaza":"清水","lat":38.434846,"lng":140.862977,"zip":"9813625"},{"town":"吉田","koaza":"入生田下","lat":38.440456,"lng":140.863458,"zip":"9813625"},{"town":"吉田","koaza":"新田","lat":38.449008,"lng":140.864923,"zip":"9813625"},{"town":"宮床","koaza":"松倉","lat":38.425444,"lng":140.863404,"zip":"9813624"},{"town":"吉岡","koaza":"土保田","lat":38.444439,"lng":140.867224,"zip":"9813621"},{"town":"宮床","koaza":"綱木","lat":38.434098,"lng":140.867588,"zip":"9813624"},{"town":"吉田","koaza":"新瘤屋敷","lat":38.441968,"lng":140.864702,"zip":"9813625"},{"town":"小野","koaza":"下小野","lat":38.404793,"lng":140.865664,"zip":"9813623"},{"town":"小野","koaza":"山下","lat":38.400606,"lng":140.867181,"zip":"9813623"},{"town":"宮床","koaza":"山田下","lat":38.413077,"lng":140.865278,"zip":"9813624"},{"town":"吉田","koaza":"畑中","lat":38.440449,"lng":140.865865,"zip":"9813625"},{"town":"吉田","koaza":"宮口","lat":38.435627,"lng":140.865494,"zip":"9813625"},{"town":"吉岡","koaza":"金谷上","lat":38.447719,"lng":140.865843,"zip":"9813621"},{"town":"吉田","koaza":"八反田","lat":38.437884,"lng":140.865855,"zip":"9813625"},{"town":"宮床","koaza":"山田","lat":38.419809,"lng":140.867627,"zip":"9813624"},{"town":"小野","koaza":"樋田","lat":38.406725,"lng":140.868989,"zip":"9813623"},{"town":"吉田","koaza":"新五福院上","lat":38.435903,"lng":140.873023,"zip":"9813625"},{"town":"吉岡","koaza":"熊野堂中","lat":38.440111,"lng":140.868206,"zip":"9813621"},{"town":"小野","koaza":"金山","lat":38.400424,"lng":140.868393,"zip":"9813623"},{"town":"小野","koaza":"向原","lat":38.403305,"lng":140.868649,"zip":"9813623"},{"town":"宮床","koaza":"中野","lat":38.41865,"lng":140.871128,"zip":"9813624"},{"town":"吉岡","koaza":"西原","lat":38.447695,"lng":140.873655,"zip":"9813621"},{"town":"吉岡","koaza":"石川裏","lat":38.443253,"lng":140.870947,"zip":"9813621"},{"town":"吉岡","koaza":"南金谷下","lat":38.446539,"lng":140.874881,"zip":"9813621"},{"town":"吉岡","koaza":"北六角","lat":38.439722,"lng":140.871569,"zip":"9813621"},{"town":"吉岡","koaza":"南金谷中","lat":38.446837,"lng":140.871866,"zip":"9813621"},{"town":"宮床","koaza":"綱木向","lat":38.434534,"lng":140.873379,"zip":"9813624"},{"town":"吉田","koaza":"南五福院","lat":38.434604,"lng":140.876144,"zip":"9813625"},{"town":"吉田","koaza":"新五福院下","lat":38.4359,"lng":140.874309,"zip":"9813625"},{"town":"吉岡","koaza":"石神沢","lat":38.451609,"lng":140.877917,"zip":"9813621"},{"town":"吉岡","koaza":"古館","lat":38.44877,"lng":140.876951,"zip":"9813621"},{"town":"吉田","koaza":"綱木","lat":38.433381,"lng":140.878729,"zip":"9813625"},{"town":"吉田","koaza":"西風","lat":38.429593,"lng":140.879728,"zip":"9813625"},{"town":"吉田","koaza":"要害川原","lat":38.433859,"lng":140.880702,"zip":"9813625"},{"town":"吉田","koaza":"新西風","lat":38.432466,"lng":140.878659,"zip":"9813625"},{"town":"吉岡","koaza":"館下","lat":38.447652,"lng":140.882555,"zip":"9813621"},{"town":"吉田","koaza":"新要害","lat":38.433444,"lng":140.881645,"zip":"9813625"},{"town":"吉岡","koaza":"下町","lat":38.450226,"lng":140.882619,"zip":"9813621"},{"town":"吉岡","koaza":"蔵下","lat":38.451009,"lng":140.882972,"zip":"9813621"},{"town":"吉田","koaza":"下原","lat":38.430092,"lng":140.883611,"zip":"9813625"},{"town":"吉岡","koaza":"車東","lat":38.443074,"lng":140.884048,"zip":"9813621"},{"town":"吉岡","koaza":"西下蔵","lat":38.443691,"lng":140.884768,"zip":"9813621"},{"town":"吉岡","koaza":"中町","lat":38.448394,"lng":140.885485,"zip":"9813621"},{"town":"吉岡","koaza":"天皇寺","lat":38.441248,"lng":140.887458,"zip":"9813621"},{"town":"吉岡","koaza":"上町","lat":38.445217,"lng":140.886146,"zip":"9813621"},{"town":"吉田","koaza":"南要害","lat":38.432542,"lng":140.88915,"zip":"9813625"},{"town":"吉岡","koaza":"町裏","lat":38.447052,"lng":140.887511,"zip":"9813621"},{"town":"吉岡","koaza":"東下蔵","lat":38.441982,"lng":140.889403,"zip":"9813621"},{"town":"吉岡","koaza":"志田町","lat":38.444063,"lng":140.890725,"zip":"9813621"},{"town":"吉田","koaza":"南谷地","lat":38.433805,"lng":140.88988,"zip":"9813625"},{"town":"吉岡","koaza":"権現堂","lat":38.445214,"lng":140.889376,"zip":"9813621"},{"town":"吉田","koaza":"〆切","lat":38.431254,"lng":140.889123,"zip":"9813625"},{"town":"吉田","koaza":"北谷地","lat":38.436405,"lng":140.890601,"zip":"9813625"},{"town":"吉岡","koaza":"西桧木","lat":38.437413,"lng":140.890742,"zip":"9813621"},{"town":"吉岡","koaza":"車堰","lat":38.440073,"lng":140.890906,"zip":"9813621"},{"town":"吉岡","koaza":"東車堰","lat":38.439997,"lng":140.891388,"zip":"9813621"},{"town":"吉田","koaza":"上桧木","lat":38.43557,"lng":140.894188,"zip":"9813625"},{"town":"吉田","koaza":"桧木川原","lat":38.432645,"lng":140.891682,"zip":"9813625"},{"town":"落合舞野","koaza":"上舞野西","lat":38.434839,"lng":140.897214,"zip":"9813405"},{"town":"吉岡","koaza":"上道下","lat":38.438811,"lng":140.892164,"zip":"9813621"},{"town":"吉岡","koaza":"雷神","lat":38.440665,"lng":140.89657,"zip":"9813621"},{"town":"吉岡","koaza":"道下","lat":38.44179,"lng":140.893312,"zip":"9813621"},{"town":"吉岡","koaza":"道下一番","lat":38.44233,"lng":140.893145,"zip":"9813621"},{"town":"吉岡","koaza":"糸繰","lat":38.444074,"lng":140.892547,"zip":"9813621"},{"town":"吉岡","koaza":"上柴崎","lat":38.442062,"lng":140.896197,"zip":"9813621"},{"town":"吉岡","koaza":"西柴崎","lat":38.442752,"lng":140.896525,"zip":"9813621"},{"town":"吉岡","koaza":"北原西","lat":38.442906,"lng":140.898674,"zip":"9813621"},{"town":"吉田","koaza":"下桧木","lat":38.435987,"lng":140.897452,"zip":"9813625"},{"town":"落合舞野","koaza":"一ノ坪","lat":38.432589,"lng":140.897199,"zip":"9813405"},{"town":"吉田","koaza":"腰廻下","lat":38.43636,"lng":140.898781,"zip":"9813625"},{"town":"落合舞野","koaza":"新舞野","lat":38.43406,"lng":140.906228,"zip":"9813405"},{"town":"鶴巣下草","koaza":"十文字","lat":38.421059,"lng":140.902243,"zip":"9813418"},{"town":"落合舞野","koaza":"仲千刈","lat":38.432924,"lng":140.89978,"zip":"9813405"},{"town":"吉岡","koaza":"北原東","lat":38.441669,"lng":140.903141,"zip":"9813621"},{"town":"吉岡","koaza":"下柴崎","lat":38.441635,"lng":140.901117,"zip":"9813621"},{"town":"鶴巣下草","koaza":"迫","lat":38.419231,"lng":140.90895,"zip":"9813418"},{"town":"落合舞野","koaza":"上舞野東","lat":38.433324,"lng":140.90136,"zip":"9813405"},{"town":"吉岡","koaza":"東柴崎","lat":38.441729,"lng":140.902412,"zip":"9813621"},{"town":"吉岡","koaza":"涌田","lat":38.443117,"lng":140.90285,"zip":"9813621"},{"town":"吉岡","koaza":"南白鳥","lat":38.438218,"lng":140.904902,"zip":"9813621"},{"town":"吉岡","koaza":"白鳥","lat":38.441293,"lng":140.905255,"zip":"9813621"},{"town":"落合舞野","koaza":"北川原","lat":38.437917,"lng":140.906716,"zip":"9813405"},{"town":"落合蒜袋","koaza":"作田","lat":38.443686,"lng":140.905151,"zip":"9813406"},{"town":"落合舞野","koaza":"舞台","lat":38.434099,"lng":140.906542,"zip":"9813405"},{"town":"落合蒜袋","koaza":"岩下","lat":38.453017,"lng":140.90711,"zip":"9813406"},{"town":"落合蒜袋","koaza":"古川一番","lat":38.442089,"lng":140.907909,"zip":"9813406"},{"town":"落合蒜袋","koaza":"北橋","lat":38.442519,"lng":140.90584,"zip":"9813406"},{"town":"落合舞野","koaza":"大横手西","lat":38.441474,"lng":140.907383,"zip":"9813405"},{"town":"落合舞野","koaza":"仁和多利","lat":38.435089,"lng":140.906115,"zip":"9813405"},{"town":"落合舞野","koaza":"河原田","lat":38.434657,"lng":140.906491,"zip":"9813405"},{"town":"落合舞野","koaza":"中坪","lat":38.435291,"lng":140.907666,"zip":"9813405"},{"town":"落合蒜袋","koaza":"新古川","lat":38.441539,"lng":140.906614,"zip":"9813406"},{"town":"落合蒜袋","koaza":"長町","lat":38.449781,"lng":140.908786,"zip":"9813406"},{"town":"鶴巣北目大崎","koaza":"具足沢","lat":38.412195,"lng":140.915187,"zip":"9813417"},{"town":"落合舞野","koaza":"下舞野","lat":38.440791,"lng":140.908599,"zip":"9813405"},{"town":"落合蒜袋","koaza":"沢目","lat":38.454223,"lng":140.909361,"zip":"9813406"},{"town":"落合舞野","koaza":"渉戸東","lat":38.437027,"lng":140.909181,"zip":"9813405"},{"town":"鶴巣下草","koaza":"観音堂","lat":38.419518,"lng":140.910692,"zip":"9813418"},{"town":"落合蒜袋","koaza":"行屋下","lat":38.449988,"lng":140.909907,"zip":"9813406"},{"town":"鶴巣下草","koaza":"南","lat":38.421831,"lng":140.910702,"zip":"9813418"},{"town":"落合蒜袋","koaza":"菱柄","lat":38.447649,"lng":140.911786,"zip":"9813406"},{"town":"鶴巣北目大崎","koaza":"勝負沢","lat":38.409329,"lng":140.913861,"zip":"9813417"},{"town":"落合蒜袋","koaza":"宮下","lat":38.446702,"lng":140.911644,"zip":"9813406"},{"town":"鶴巣下草","koaza":"八幡","lat":38.426106,"lng":140.913865,"zip":"9813418"},{"town":"鶴巣北目大崎","koaza":"宮ノ沢一番","lat":38.417908,"lng":140.915042,"zip":"9813417"},{"town":"落合蒜袋","koaza":"新田","lat":38.442685,"lng":140.914146,"zip":"9813406"},{"town":"鶴巣北目大崎","koaza":"鼡谷","lat":38.428945,"lng":140.918599,"zip":"9813417"},{"town":"鶴巣下草","koaza":"作内田","lat":38.4264,"lng":140.917122,"zip":"9813418"},{"town":"鶴巣北目大崎","koaza":"三角田南","lat":38.410744,"lng":140.924032,"zip":"9813417"},{"town":"落合相川","koaza":"大沢","lat":38.439564,"lng":140.923959,"zip":"9813404"},{"town":"鶴巣北目大崎","koaza":"日光山","lat":38.415468,"lng":140.92041,"zip":"9813417"},{"town":"落合舞野","koaza":"石田東","lat":38.433324,"lng":140.917288,"zip":"9813405"},{"town":"鶴巣北目大崎","koaza":"宮ノ沢三番","lat":38.41948,"lng":140.919676,"zip":"9813417"},{"town":"鶴巣北目大崎","koaza":"宮ノ沢二番","lat":38.418802,"lng":140.917548,"zip":"9813417"},{"town":"落合舞野","koaza":"庚申","lat":38.433446,"lng":140.918165,"zip":"9813405"},{"town":"落合松坂","koaza":"屋敷前","lat":38.452946,"lng":140.924751,"zip":"9813407"},{"town":"鶴巣北目大崎","koaza":"町頭","lat":38.429279,"lng":140.921403,"zip":"9813417"},{"town":"鶴巣北目大崎","koaza":"長在家畑","lat":38.419002,"lng":140.921549,"zip":"9813417"},{"town":"鶴巣北目大崎","koaza":"照節沢","lat":38.416715,"lng":140.92369,"zip":"9813417"},{"town":"鶴巣北目大崎","koaza":"一本柳","lat":38.428527,"lng":140.921992,"zip":"9813417"},{"town":"落合舞野","koaza":"一本杉","lat":38.431815,"lng":140.921549,"zip":"9813405"},{"town":"鶴巣北目大崎","koaza":"新山下","lat":38.415822,"lng":140.930132,"zip":"9813417"},{"town":"鶴巣北目大崎","koaza":"寺東","lat":38.420019,"lng":140.925103,"zip":"9813417"},{"town":"落合松坂","koaza":"和光","lat":38.456985,"lng":140.924886,"zip":"9813407"},{"town":"落合相川","koaza":"熊野","lat":38.440257,"lng":140.926386,"zip":"9813404"},{"town":"落合相川","koaza":"賀美山","lat":38.44134,"lng":140.923865,"zip":"9813404"},{"town":"落合桧和田","koaza":"遠浦","lat":38.431684,"lng":140.925735,"zip":"9813600"},{"town":"落合松坂","koaza":"滝ノ沢","lat":38.446089,"lng":140.931571,"zip":"9813407"},{"town":"鶴巣北目大崎","koaza":"的場","lat":38.427823,"lng":140.927237,"zip":"9813417"},{"town":"落合相川","koaza":"熊野前","lat":38.434869,"lng":140.924849,"zip":"9813404"},{"town":"落合相川","koaza":"長者原","lat":38.43955,"lng":140.926805,"zip":"9813404"},{"town":"鶴巣鳥屋","koaza":"井戸田","lat":38.406935,"lng":140.928723,"zip":"9813412"},{"town":"落合松坂","koaza":"除キ","lat":38.454644,"lng":140.92755,"zip":"9813407"},{"town":"鶴巣北目大崎","koaza":"前屋敷","lat":38.427935,"lng":140.926833,"zip":"9813417"},{"town":"鶴巣北目大崎","koaza":"屋敷下","lat":38.41697,"lng":140.932985,"zip":"9813417"},{"town":"鶴巣鳥屋","koaza":"天ケ沢山","lat":38.409664,"lng":140.92913,"zip":"9813412"},{"town":"落合相川","koaza":"若木","lat":38.436926,"lng":140.929072,"zip":"9813404"},{"town":"鶴巣北目大崎","koaza":"塚","lat":38.420347,"lng":140.929574,"zip":"9813417"},{"town":"落合相川","koaza":"塚越","lat":38.438884,"lng":140.930493,"zip":"9813404"},{"town":"鶴巣北目大崎","koaza":"天神堂一番","lat":38.420169,"lng":140.927352,"zip":"9813417"},{"town":"鶴巣鳥屋","koaza":"天ケ沢","lat":38.404656,"lng":140.929409,"zip":"9813412"},{"town":"落合桧和田","koaza":"中道","lat":38.430873,"lng":140.92928,"zip":"9813600"},{"town":"鶴巣北目大崎","koaza":"岸","lat":38.420061,"lng":140.933251,"zip":"9813417"},{"town":"落合松坂","koaza":"粟津沢","lat":38.45216,"lng":140.929312,"zip":"9813407"},{"town":"落合桧和田","koaza":"新高原","lat":38.432263,"lng":140.930077,"zip":"9813600"},{"town":"鶴巣鳥屋","koaza":"宇頭","lat":38.410961,"lng":140.932095,"zip":"9813412"},{"town":"落合桧和田","koaza":"高原","lat":38.430335,"lng":140.93046,"zip":"9813600"},{"town":"鶴巣北目大崎","koaza":"北目","lat":38.421105,"lng":140.930239,"zip":"9813417"},{"town":"鶴巣北目大崎","koaza":"山下","lat":38.415875,"lng":140.933682,"zip":"9813417"},{"town":"落合松坂","koaza":"川合","lat":38.448703,"lng":140.930691,"zip":"9813407"},{"town":"落合松坂","koaza":"蛭川","lat":38.448047,"lng":140.931856,"zip":"9813407"},{"town":"鶴巣鳥屋","koaza":"宇頭山","lat":38.414301,"lng":140.932931,"zip":"9813412"},{"town":"落合桧和田","koaza":"千刈田","lat":38.430733,"lng":140.932626,"zip":"9813600"},{"town":"鶴巣鳥屋","koaza":"檀ノ輿","lat":38.408887,"lng":140.932627,"zip":"9813412"},{"town":"鶴巣鳥屋","koaza":"町場","lat":38.412703,"lng":140.932125,"zip":"9813412"},{"town":"鶴巣北目大崎","koaza":"三角田北","lat":38.421106,"lng":140.932925,"zip":"9813417"},{"town":"落合相川","koaza":"若木前","lat":38.436648,"lng":140.93274,"zip":"9813404"},{"town":"落合桧和田","koaza":"糯田","lat":38.429822,"lng":140.932751,"zip":"9813600"},{"town":"鶴巣鳥屋","koaza":"新上原","lat":38.407161,"lng":140.932908,"zip":"9813412"},{"town":"落合相川","koaza":"塚越三番","lat":38.439941,"lng":140.935737,"zip":"9813404"},{"town":"鶴巣北目大崎","koaza":"新千刈田","lat":38.417177,"lng":140.934246,"zip":"9813417"},{"town":"鶴巣幕柳","koaza":"十王沢三番","lat":38.401103,"lng":140.937898,"zip":"9813413"},{"town":"鶴巣北目大崎","koaza":"色黒","lat":38.420311,"lng":140.934632,"zip":"9813417"},{"town":"鶴巣北目大崎","koaza":"千刈田","lat":38.41616,"lng":140.934915,"zip":"9813417"},{"town":"落合相川","koaza":"馬場","lat":38.437004,"lng":140.936915,"zip":"9813404"},{"town":"落合松坂","koaza":"宮地","lat":38.450476,"lng":140.937257,"zip":"9813407"},{"town":"落合桧和田","koaza":"八幡堂","lat":38.427406,"lng":140.938836,"zip":"9813600"},{"town":"鶴巣北目大崎","koaza":"南大崎","lat":38.421412,"lng":140.935301,"zip":"9813417"},{"town":"鶴巣幕柳","koaza":"十王沢一番","lat":38.39909,"lng":140.938335,"zip":"9813413"},{"town":"鶴巣山田","koaza":"水吸","lat":38.372647,"lng":140.940011,"zip":"9813416"},{"town":"鶴巣山田","koaza":"樋場","lat":38.365953,"lng":140.941981,"zip":"9813416"},{"town":"鶴巣幕柳","koaza":"小関前二番","lat":38.396418,"lng":140.941841,"zip":"9813413"},{"town":"鶴巣山田","koaza":"宮ノ沢","lat":38.374738,"lng":140.940492,"zip":"9813416"},{"town":"鶴巣太田","koaza":"屋敷下","lat":38.390224,"lng":140.94164,"zip":"9813414"},{"town":"落合松坂","koaza":"堂ノ前","lat":38.451891,"lng":140.94052,"zip":"9813407"},{"town":"鶴巣山田","koaza":"西沢","lat":38.368985,"lng":140.940195,"zip":"9813416"},{"town":"鶴巣山田","koaza":"土井下","lat":38.377498,"lng":140.942112,"zip":"9813416"},{"town":"鶴巣太田","koaza":"遠仙道","lat":38.395561,"lng":140.942547,"zip":"9813414"},{"town":"鶴巣幕柳","koaza":"広畑","lat":38.399537,"lng":140.940307,"zip":"9813413"},{"town":"落合報恩寺","koaza":"銅ノ沢","lat":38.441245,"lng":140.943242,"zip":"9813402"},{"town":"鶴巣山田","koaza":"中田","lat":38.3708,"lng":140.941581,"zip":"9813416"},{"town":"鶴巣山田","koaza":"櫓下","lat":38.362818,"lng":140.946327,"zip":"9813416"},{"town":"落合報恩寺","koaza":"竹沢下","lat":38.438117,"lng":140.944617,"zip":"9813402"},{"town":"鶴巣太田","koaza":"榴沢東","lat":38.38426,"lng":140.942459,"zip":"9813414"},{"town":"鶴巣太田","koaza":"中ノ町","lat":38.387533,"lng":140.944373,"zip":"9813414"},{"town":"鶴巣山田","koaza":"中窪","lat":38.370342,"lng":140.944587,"zip":"9813416"},{"town":"落合松坂","koaza":"赤坂","lat":38.449168,"lng":140.942539,"zip":"9813407"},{"town":"鶴巣山田","koaza":"樟平","lat":38.36739,"lng":140.946297,"zip":"9813416"},{"town":"落合報恩寺","koaza":"大久保","lat":38.44271,"lng":140.944656,"zip":"9813402"},{"town":"鶴巣山田","koaza":"宮中","lat":38.373879,"lng":140.944565,"zip":"9813416"},{"town":"鶴巣山田","koaza":"堰場","lat":38.379447,"lng":140.949132,"zip":"9813416"},{"town":"鶴巣山田","koaza":"宮田","lat":38.374012,"lng":140.945646,"zip":"9813416"},{"town":"鶴巣山田","koaza":"広口","lat":38.372786,"lng":140.945668,"zip":"9813416"},{"town":"鶴巣山田","koaza":"漆甫","lat":38.374832,"lng":140.947853,"zip":"9813416"},{"town":"落合松坂","koaza":"北沢","lat":38.465356,"lng":140.947737,"zip":"9813407"},{"town":"落合松坂","koaza":"柿ノ木","lat":38.462979,"lng":140.947987,"zip":"9813407"},{"town":"鶴巣太田","koaza":"志出","lat":38.384716,"lng":140.953895,"zip":"9813414"},{"town":"鶴巣小鶴沢","koaza":"入ノ沢","lat":38.377293,"lng":140.952585,"zip":"9813415"},{"town":"鶴巣小鶴沢","koaza":"井戸神沢","lat":38.381063,"lng":140.954113,"zip":"9813415"},{"town":"鶴巣小鶴沢","koaza":"宮田","lat":38.368556,"lng":140.957665,"zip":"9813415"},{"town":"鶴巣小鶴沢","koaza":"関場","lat":38.373967,"lng":140.960653,"zip":"9813415"},{"town":"鶴巣小鶴沢","koaza":"上ノ沢","lat":38.36863,"lng":140.964039,"zip":"9813415"},{"town":"鶴巣小鶴沢","koaza":"鹿野前","lat":38.369661,"lng":140.963261,"zip":"9813415"},{"town":"鶴巣小鶴沢","koaza":"三田","lat":38.372726,"lng":140.962293,"zip":"9813415"},{"town":"鶴巣小鶴沢","koaza":"田町沢","lat":38.371868,"lng":140.965691,"zip":"9813415"},{"town":"鶴巣小鶴沢","koaza":"金堰","lat":38.372307,"lng":140.966175,"zip":"9813415"},{"town":"小野","koaza":"栖原","lat":38.387526,"lng":140.84332,"zip":"9813623"},{"town":"小野","koaza":"砂生田","lat":38.389942,"lng":140.850759,"zip":"9813623"},{"town":"落合舞野","koaza":"岡江東","lat":38.432169,"lng":140.919037,"zip":"9813405"},{"town":"吉岡","koaza":"西涌ノ田","lat":38.444047,"lng":140.898367,"zip":"9813621"},{"town":"落合松坂","koaza":"新坂","lat":38.446328,"lng":140.933668,"zip":"9813407"}]