[{"town":"鶉崎","koaza":"","lat":38.426324,"lng":140.982149,"zip":"9813524"},{"town":"土橋","koaza":"","lat":38.416645,"lng":140.976265,"zip":"9813523"},{"town":"味明","koaza":"","lat":38.417386,"lng":141.026463,"zip":"9813513"},{"town":"山崎","koaza":"","lat":38.435866,"lng":141.035022,"zip":"9813511"},{"town":"不来内","koaza":"","lat":38.423482,"lng":141.049609,"zip":"9813512"},{"town":"石原","koaza":"","lat":38.449863,"lng":140.979107,"zip":"9813503"},{"town":"羽生","koaza":"","lat":38.431327,"lng":141.017656,"zip":"9813515"},{"town":"中村","koaza":"","lat":38.422394,"lng":140.995212,"zip":"9813521"},{"town":"粕川","koaza":"","lat":38.439716,"lng":141.002251,"zip":"9813502"},{"town":"川内","koaza":"","lat":38.389617,"lng":141.013265,"zip":"9813514"},{"town":"東成田","koaza":"","lat":38.389831,"lng":140.982261,"zip":"9813522"},{"town":"大松沢","koaza":"","lat":38.478227,"lng":140.975326,"zip":"9813501"},{"town":"土橋","koaza":"明ケ沢","lat":38.410541,"lng":140.973116,"zip":"9813523"},{"town":"東成田","koaza":"三嶽","lat":38.396643,"lng":140.976142,"zip":"9813522"},{"town":"東成田","koaza":"新田","lat":38.387891,"lng":140.974465,"zip":"9813522"},{"town":"土橋","koaza":"境久根","lat":38.419256,"lng":140.975665,"zip":"9813523"},{"town":"土橋","koaza":"上野","lat":38.422353,"lng":140.97564,"zip":"9813523"},{"town":"土橋","koaza":"勘兵衛","lat":38.424731,"lng":140.975643,"zip":"9813523"},{"town":"東成田","koaza":"上板谷","lat":38.386941,"lng":140.982012,"zip":"9813522"},{"town":"土橋","koaza":"細田","lat":38.426268,"lng":140.975959,"zip":"9813523"},{"town":"土橋","koaza":"上畑","lat":38.423182,"lng":140.974769,"zip":"9813523"},{"town":"土橋","koaza":"台畑","lat":38.427055,"lng":140.979329,"zip":"9813523"},{"town":"土橋","koaza":"宮林","lat":38.429465,"lng":140.977241,"zip":"9813523"},{"town":"土橋","koaza":"宮林畑","lat":38.428645,"lng":140.977147,"zip":"9813523"},{"town":"鶉崎","koaza":"里部","lat":38.4212,"lng":140.979666,"zip":"9813524"},{"town":"土橋","koaza":"南沢","lat":38.424676,"lng":140.978395,"zip":"9813523"},{"town":"鶉崎","koaza":"向畑","lat":38.423453,"lng":140.978841,"zip":"9813524"},{"town":"鶉崎","koaza":"原","lat":38.420601,"lng":140.980849,"zip":"9813524"},{"town":"土橋","koaza":"北町","lat":38.416769,"lng":140.978789,"zip":"9813523"},{"town":"東成田","koaza":"北沢山","lat":38.398987,"lng":140.979258,"zip":"9813522"},{"town":"鶉崎","koaza":"袋前","lat":38.437856,"lng":140.980579,"zip":"9813524"},{"town":"鶉崎","koaza":"諏訪前","lat":38.419896,"lng":140.982494,"zip":"9813524"},{"town":"鶉崎","koaza":"大小寺","lat":38.423627,"lng":140.982335,"zip":"9813524"},{"town":"東成田","koaza":"内屋敷","lat":38.407792,"lng":140.981776,"zip":"9813522"},{"town":"東成田","koaza":"内直","lat":38.398248,"lng":140.981235,"zip":"9813522"},{"town":"東成田","koaza":"薬師堂","lat":38.405283,"lng":140.986107,"zip":"9813522"},{"town":"鶉崎","koaza":"袋","lat":38.438956,"lng":140.981917,"zip":"9813524"},{"town":"東成田","koaza":"小林","lat":38.410509,"lng":140.983547,"zip":"9813522"},{"town":"鶉崎","koaza":"屋敷前","lat":38.438281,"lng":140.981988,"zip":"9813524"},{"town":"東成田","koaza":"稲葉","lat":38.40637,"lng":140.983953,"zip":"9813522"},{"town":"東成田","koaza":"板谷西山","lat":38.39123,"lng":140.986407,"zip":"9813522"},{"town":"鶉崎","koaza":"住吉","lat":38.416369,"lng":140.988946,"zip":"9813524"},{"town":"東成田","koaza":"行屋下","lat":38.402092,"lng":140.985135,"zip":"9813522"},{"town":"鶉崎","koaza":"狐塚","lat":38.420219,"lng":140.985896,"zip":"9813524"},{"town":"東成田","koaza":"浦木戸","lat":38.413894,"lng":140.989252,"zip":"9813522"},{"town":"中村","koaza":"山崎","lat":38.423696,"lng":140.987586,"zip":"9813521"},{"town":"中村","koaza":"並木畑","lat":38.425518,"lng":140.987278,"zip":"9813521"},{"town":"中村","koaza":"西浦","lat":38.419606,"lng":140.988833,"zip":"9813521"},{"town":"東成田","koaza":"大日向","lat":38.414543,"lng":140.987785,"zip":"9813522"},{"town":"中村","koaza":"西原","lat":38.422198,"lng":140.989471,"zip":"9813521"},{"town":"東成田","koaza":"清水","lat":38.398737,"lng":140.989006,"zip":"9813522"},{"town":"東成田","koaza":"山神沢","lat":38.409641,"lng":140.991391,"zip":"9813522"},{"town":"中村","koaza":"台","lat":38.42361,"lng":140.989625,"zip":"9813521"},{"town":"中村","koaza":"原","lat":38.422598,"lng":140.989867,"zip":"9813521"},{"town":"中村","koaza":"久保","lat":38.425938,"lng":140.989933,"zip":"9813521"},{"town":"中村","koaza":"寺浦","lat":38.417581,"lng":140.990673,"zip":"9813521"},{"town":"東成田","koaza":"板谷山","lat":38.397006,"lng":140.989724,"zip":"9813522"},{"town":"中村","koaza":"西要害","lat":38.427444,"lng":140.990781,"zip":"9813521"},{"town":"中村","koaza":"鍋釣","lat":38.415787,"lng":140.992759,"zip":"9813521"},{"town":"中村","koaza":"原町","lat":38.419727,"lng":140.991894,"zip":"9813521"},{"town":"中村","koaza":"馬場沢","lat":38.424394,"lng":140.992291,"zip":"9813521"},{"town":"中村","koaza":"北浦","lat":38.423361,"lng":140.99271,"zip":"9813521"},{"town":"東成田","koaza":"苗代","lat":38.412687,"lng":140.991979,"zip":"9813522"},{"town":"東成田","koaza":"長松沢山","lat":38.401209,"lng":140.997801,"zip":"9813522"},{"town":"東成田","koaza":"前田","lat":38.412008,"lng":140.99248,"zip":"9813522"},{"town":"東成田","koaza":"鳶ケ沢","lat":38.414046,"lng":140.993882,"zip":"9813522"},{"town":"中村","koaza":"東要害","lat":38.42722,"lng":140.992833,"zip":"9813521"},{"town":"中村","koaza":"町浦","lat":38.42209,"lng":140.993071,"zip":"9813521"},{"town":"中村","koaza":"東浦","lat":38.420506,"lng":140.99423,"zip":"9813521"},{"town":"中村","koaza":"屋鋪","lat":38.421575,"lng":140.995763,"zip":"9813521"},{"town":"粕川","koaza":"西畑","lat":38.429312,"lng":140.994698,"zip":"9813502"},{"town":"川内","koaza":"長福寺山","lat":38.400865,"lng":141.009551,"zip":"9813514"},{"town":"中村","koaza":"山沢","lat":38.423913,"lng":140.994563,"zip":"9813521"},{"town":"中村","koaza":"鹿ノ畑","lat":38.419564,"lng":140.995201,"zip":"9813521"},{"town":"中村","koaza":"旦原","lat":38.424874,"lng":140.995245,"zip":"9813521"},{"town":"中村","koaza":"屋敷前","lat":38.414072,"lng":141.00136,"zip":"9813521"},{"town":"中村","koaza":"山中","lat":38.424056,"lng":140.996472,"zip":"9813521"},{"town":"東成田","koaza":"苗代目","lat":38.408543,"lng":140.99635,"zip":"9813522"},{"town":"粕川","koaza":"沢田","lat":38.429707,"lng":140.99652,"zip":"9813502"},{"town":"粕川","koaza":"後沢田","lat":38.43114,"lng":140.996373,"zip":"9813502"},{"town":"川内","koaza":"上実成","lat":38.386913,"lng":140.998196,"zip":"9813514"},{"town":"粕川","koaza":"後沢田畑","lat":38.431524,"lng":140.997709,"zip":"9813502"},{"town":"東成田","koaza":"横沢","lat":38.407202,"lng":140.99829,"zip":"9813522"},{"town":"粕川","koaza":"熊野脇","lat":38.430217,"lng":140.998379,"zip":"9813502"},{"town":"東成田","koaza":"廻道","lat":38.406905,"lng":140.997089,"zip":"9813522"},{"town":"粕川","koaza":"稲荷堂","lat":38.432721,"lng":140.999701,"zip":"9813502"},{"town":"中村","koaza":"柳沢畑","lat":38.42509,"lng":140.999693,"zip":"9813521"},{"town":"東成田","koaza":"蛙坂","lat":38.405006,"lng":140.998692,"zip":"9813522"},{"town":"中村","koaza":"遠多田","lat":38.422056,"lng":141.003036,"zip":"9813521"},{"town":"東成田","koaza":"蛙坂入","lat":38.40223,"lng":140.999768,"zip":"9813522"},{"town":"東成田","koaza":"葉木沢","lat":38.406377,"lng":141.002962,"zip":"9813522"},{"town":"粕川","koaza":"藪下","lat":38.434285,"lng":140.999865,"zip":"9813502"},{"town":"川内","koaza":"中実成","lat":38.388579,"lng":141.001122,"zip":"9813514"},{"town":"粕川","koaza":"西長崎","lat":38.425349,"lng":141.002765,"zip":"9813502"},{"town":"粕川","koaza":"山中","lat":38.429292,"lng":141.0007,"zip":"9813502"},{"town":"粕川","koaza":"南丸山","lat":38.431592,"lng":141.000701,"zip":"9813502"},{"town":"粕川","koaza":"丸山","lat":38.43323,"lng":141.000661,"zip":"9813502"},{"town":"川内","koaza":"下実成","lat":38.390332,"lng":141.002318,"zip":"9813514"},{"town":"粕川","koaza":"大檀原","lat":38.431528,"lng":141.002021,"zip":"9813502"},{"town":"粕川","koaza":"東山中","lat":38.428036,"lng":141.002435,"zip":"9813502"},{"town":"粕川","koaza":"李崎","lat":38.434456,"lng":141.003054,"zip":"9813502"},{"town":"粕川","koaza":"東長崎","lat":38.426221,"lng":141.003751,"zip":"9813502"},{"town":"粕川","koaza":"海老沢北","lat":38.432719,"lng":141.004907,"zip":"9813502"},{"town":"粕川","koaza":"海老沢中","lat":38.429839,"lng":141.004815,"zip":"9813502"},{"town":"粕川","koaza":"新田前","lat":38.431369,"lng":141.002998,"zip":"9813502"},{"town":"粕川","koaza":"海老沢南","lat":38.426441,"lng":141.005046,"zip":"9813502"},{"town":"川内","koaza":"姥ケ沢畑","lat":38.393281,"lng":141.005454,"zip":"9813514"},{"town":"中村","koaza":"山下","lat":38.418762,"lng":141.005805,"zip":"9813521"},{"town":"中村","koaza":"愛宕下","lat":38.421158,"lng":141.004775,"zip":"9813521"},{"town":"中村","koaza":"谷地際山","lat":38.418338,"lng":141.009565,"zip":"9813521"},{"town":"中村","koaza":"谷地際","lat":38.420321,"lng":141.005322,"zip":"9813521"},{"town":"羽生","koaza":"原畑","lat":38.427098,"lng":141.007046,"zip":"9813515"},{"town":"川内","koaza":"上落合","lat":38.404822,"lng":141.007242,"zip":"9813514"},{"town":"粕川","koaza":"山口","lat":38.423409,"lng":141.007527,"zip":"9813502"},{"town":"羽生","koaza":"天王前","lat":38.432271,"lng":141.008659,"zip":"9813515"},{"town":"羽生","koaza":"新畑","lat":38.428012,"lng":141.007609,"zip":"9813515"},{"town":"川内","koaza":"上堰場","lat":38.395546,"lng":141.007793,"zip":"9813514"},{"town":"羽生","koaza":"南原","lat":38.426316,"lng":141.011848,"zip":"9813515"},{"town":"川内","koaza":"下落合","lat":38.407088,"lng":141.010008,"zip":"9813514"},{"town":"中村","koaza":"蛇塚","lat":38.416833,"lng":141.008314,"zip":"9813521"},{"town":"川内","koaza":"下中鈴","lat":38.379378,"lng":141.008724,"zip":"9813514"},{"town":"中村","koaza":"姥ケ沢","lat":38.41374,"lng":141.010019,"zip":"9813521"},{"town":"羽生","koaza":"中斎","lat":38.428793,"lng":141.009262,"zip":"9813515"},{"town":"羽生","koaza":"垣ノ内","lat":38.430641,"lng":141.009528,"zip":"9813515"},{"town":"羽生","koaza":"穴前","lat":38.426765,"lng":141.009253,"zip":"9813515"},{"town":"川内","koaza":"下堰場","lat":38.397172,"lng":141.010502,"zip":"9813514"},{"town":"川内","koaza":"中埣山","lat":38.392582,"lng":141.021685,"zip":"9813514"},{"town":"羽生","koaza":"高屋敷","lat":38.430995,"lng":141.011283,"zip":"9813515"},{"town":"川内","koaza":"上中鈴","lat":38.376587,"lng":141.010447,"zip":"9813514"},{"town":"川内","koaza":"後沢","lat":38.379162,"lng":141.011152,"zip":"9813514"},{"town":"中村","koaza":"東沢","lat":38.418123,"lng":141.012227,"zip":"9813521"},{"town":"川内","koaza":"上大沢","lat":38.398206,"lng":141.012967,"zip":"9813514"},{"town":"中村","koaza":"川手前","lat":38.413022,"lng":141.011964,"zip":"9813521"},{"town":"川内","koaza":"長福寺","lat":38.406407,"lng":141.01185,"zip":"9813514"},{"town":"羽生","koaza":"金井川","lat":38.425884,"lng":141.020502,"zip":"9813515"},{"town":"川内","koaza":"下大沢","lat":38.399685,"lng":141.016118,"zip":"9813514"},{"town":"川内","koaza":"下西ノ入","lat":38.411302,"lng":141.014129,"zip":"9813514"},{"town":"川内","koaza":"上西ノ入","lat":38.408459,"lng":141.014239,"zip":"9813514"},{"town":"羽生","koaza":"中ノ町","lat":38.426269,"lng":141.014638,"zip":"9813515"},{"town":"川内","koaza":"北沢","lat":38.413988,"lng":141.018503,"zip":"9813514"},{"town":"味明","koaza":"後谷地南山","lat":38.417715,"lng":141.016565,"zip":"9813513"},{"town":"味明","koaza":"大豆坂","lat":38.419192,"lng":141.020242,"zip":"9813513"},{"town":"川内","koaza":"木橋沢","lat":38.410226,"lng":141.015434,"zip":"9813514"},{"town":"川内","koaza":"上砂子沢","lat":38.380856,"lng":141.020699,"zip":"9813514"},{"town":"川内","koaza":"穴田","lat":38.401046,"lng":141.017066,"zip":"9813514"},{"town":"羽生","koaza":"岩川","lat":38.429653,"lng":141.018552,"zip":"9813515"},{"town":"川内","koaza":"権現沢","lat":38.40368,"lng":141.018398,"zip":"9813514"},{"town":"川内","koaza":"沢田","lat":38.397241,"lng":141.019,"zip":"9813514"},{"town":"川内","koaza":"大勢面","lat":38.413831,"lng":141.021049,"zip":"9813514"},{"town":"羽生","koaza":"舘畑","lat":38.432379,"lng":141.019929,"zip":"9813515"},{"town":"川内","koaza":"下砂子沢","lat":38.382934,"lng":141.022165,"zip":"9813514"},{"town":"川内","koaza":"西沢","lat":38.395275,"lng":141.019224,"zip":"9813514"},{"town":"羽生","koaza":"稲荷下","lat":38.430107,"lng":141.019514,"zip":"9813515"},{"town":"川内","koaza":"川淵","lat":38.408541,"lng":141.019934,"zip":"9813514"},{"town":"川内","koaza":"中砂子沢","lat":38.381916,"lng":141.020274,"zip":"9813514"},{"town":"川内","koaza":"下結田","lat":38.405843,"lng":141.020907,"zip":"9813514"},{"town":"川内","koaza":"上ノ前","lat":38.389146,"lng":141.022004,"zip":"9813514"},{"town":"川内","koaza":"上安戸畑","lat":38.390252,"lng":141.021426,"zip":"9813514"},{"town":"川内","koaza":"上新関","lat":38.411124,"lng":141.021698,"zip":"9813514"},{"town":"味明","koaza":"後谷地山","lat":38.416049,"lng":141.02578,"zip":"9813513"},{"town":"羽生","koaza":"長根","lat":38.431092,"lng":141.024366,"zip":"9813515"},{"town":"味明","koaza":"平明","lat":38.420991,"lng":141.024803,"zip":"9813513"},{"town":"川内","koaza":"上ノ原","lat":38.409147,"lng":141.022835,"zip":"9813514"},{"town":"川内","koaza":"下安戸畑","lat":38.392864,"lng":141.022797,"zip":"9813514"},{"town":"川内","koaza":"荒田","lat":38.38562,"lng":141.0219,"zip":"9813514"},{"town":"川内","koaza":"猿田","lat":38.387876,"lng":141.022754,"zip":"9813514"},{"town":"川内","koaza":"細田山","lat":38.394033,"lng":141.031484,"zip":"9813514"},{"town":"羽生","koaza":"里畑","lat":38.432189,"lng":141.024202,"zip":"9813515"},{"town":"羽生","koaza":"天神","lat":38.432703,"lng":141.022057,"zip":"9813515"},{"town":"川内","koaza":"池上","lat":38.407771,"lng":141.026919,"zip":"9813514"},{"town":"羽生","koaza":"打越","lat":38.428628,"lng":141.024647,"zip":"9813515"},{"town":"川内","koaza":"西清水前","lat":38.409263,"lng":141.023517,"zip":"9813514"},{"town":"川内","koaza":"上別所","lat":38.400275,"lng":141.024105,"zip":"9813514"},{"town":"川内","koaza":"捨リ沢","lat":38.412949,"lng":141.023429,"zip":"9813514"},{"town":"味明","koaza":"後谷地","lat":38.422311,"lng":141.026019,"zip":"9813513"},{"town":"川内","koaza":"下新関","lat":38.410806,"lng":141.024785,"zip":"9813514"},{"town":"川内","koaza":"上中才","lat":38.392754,"lng":141.024182,"zip":"9813514"},{"town":"川内","koaza":"黒内沢","lat":38.388959,"lng":141.024513,"zip":"9813514"},{"town":"川内","koaza":"清水畑","lat":38.409658,"lng":141.023954,"zip":"9813514"},{"town":"川内","koaza":"不動","lat":38.395263,"lng":141.025727,"zip":"9813514"},{"town":"味明","koaza":"小桑沢","lat":38.418302,"lng":141.0251,"zip":"9813513"},{"town":"川内","koaza":"細田","lat":38.393157,"lng":141.02446,"zip":"9813514"},{"town":"羽生","koaza":"天神畑","lat":38.433834,"lng":141.025025,"zip":"9813515"},{"town":"川内","koaza":"東中才","lat":38.393476,"lng":141.024815,"zip":"9813514"},{"town":"川内","koaza":"南清水前","lat":38.408478,"lng":141.025912,"zip":"9813514"},{"town":"川内","koaza":"中別所","lat":38.401844,"lng":141.027069,"zip":"9813514"},{"town":"味明","koaza":"大沢","lat":38.42733,"lng":141.027241,"zip":"9813513"},{"town":"味明","koaza":"力田山","lat":38.412845,"lng":141.029436,"zip":"9813513"},{"town":"川内","koaza":"下中才","lat":38.393927,"lng":141.026138,"zip":"9813514"},{"town":"味明","koaza":"樽川","lat":38.425435,"lng":141.027207,"zip":"9813513"},{"town":"山崎","koaza":"堂ノ前","lat":38.433413,"lng":141.029284,"zip":"9813511"},{"town":"川内","koaza":"上安戸","lat":38.393896,"lng":141.027056,"zip":"9813514"},{"town":"味明","koaza":"後谷地北山","lat":38.424148,"lng":141.027318,"zip":"9813513"},{"town":"不来内","koaza":"沢田山","lat":38.415008,"lng":141.029854,"zip":"9813512"},{"town":"味明","koaza":"力田","lat":38.41162,"lng":141.027745,"zip":"9813513"},{"town":"味明","koaza":"防ケ沢","lat":38.417845,"lng":141.029714,"zip":"9813513"},{"town":"川内","koaza":"北中別所","lat":38.403794,"lng":141.029214,"zip":"9813514"},{"town":"味明","koaza":"文化","lat":38.412034,"lng":141.031973,"zip":"9813513"},{"town":"川内","koaza":"中安戸","lat":38.395984,"lng":141.029191,"zip":"9813514"},{"town":"川内","koaza":"熊ノ原","lat":38.392605,"lng":141.028855,"zip":"9813514"},{"town":"山崎","koaza":"堰場","lat":38.435511,"lng":141.028562,"zip":"9813511"},{"town":"味明","koaza":"雉子喰","lat":38.424662,"lng":141.0287,"zip":"9813513"},{"town":"川内","koaza":"田沢畑","lat":38.397885,"lng":141.030654,"zip":"9813514"},{"town":"川内","koaza":"下宇成沢","lat":38.395605,"lng":141.02946,"zip":"9813514"},{"town":"味明","koaza":"原下","lat":38.42518,"lng":141.02999,"zip":"9813513"},{"town":"川内","koaza":"南別所","lat":38.403697,"lng":141.029654,"zip":"9813514"},{"town":"山崎","koaza":"鳴子","lat":38.43041,"lng":141.031097,"zip":"9813511"},{"town":"味明","koaza":"樋場下","lat":38.426953,"lng":141.030777,"zip":"9813513"},{"town":"山崎","koaza":"畑中","lat":38.436371,"lng":141.031374,"zip":"9813511"},{"town":"山崎","koaza":"阿弥陀堂","lat":38.434539,"lng":141.029675,"zip":"9813511"},{"town":"味明","koaza":"熊野堂","lat":38.428469,"lng":141.031043,"zip":"9813513"},{"town":"味明","koaza":"防ケ沢畑","lat":38.419585,"lng":141.033058,"zip":"9813513"},{"town":"山崎","koaza":"舘","lat":38.438238,"lng":141.031609,"zip":"9813511"},{"town":"川内","koaza":"上宇成沢","lat":38.395032,"lng":141.030623,"zip":"9813514"},{"town":"味明","koaza":"森屋敷","lat":38.422211,"lng":141.031389,"zip":"9813513"},{"town":"川内","koaza":"大窪","lat":38.400583,"lng":141.03165,"zip":"9813514"},{"town":"山崎","koaza":"日月堂","lat":38.434056,"lng":141.031204,"zip":"9813511"},{"town":"山崎","koaza":"藤九郎","lat":38.432252,"lng":141.030751,"zip":"9813511"},{"town":"山崎","koaza":"竹ノ内","lat":38.43761,"lng":141.031232,"zip":"9813511"},{"town":"川内","koaza":"杉ノ崎","lat":38.40654,"lng":141.031385,"zip":"9813514"},{"town":"味明","koaza":"神田","lat":38.417786,"lng":141.032886,"zip":"9813513"},{"town":"山崎","koaza":"蛭田","lat":38.435671,"lng":141.031283,"zip":"9813511"},{"town":"川内","koaza":"上田布施畑","lat":38.408566,"lng":141.032276,"zip":"9813514"},{"town":"味明","koaza":"樋場上","lat":38.424935,"lng":141.031853,"zip":"9813513"},{"town":"川内","koaza":"下安戸","lat":38.397352,"lng":141.031531,"zip":"9813514"},{"town":"川内","koaza":"上作田","lat":38.397163,"lng":141.031898,"zip":"9813514"},{"town":"味明","koaza":"烏宮","lat":38.412779,"lng":141.03216,"zip":"9813513"},{"town":"山崎","koaza":"打越","lat":38.43305,"lng":141.032965,"zip":"9813511"},{"town":"不来内","koaza":"沢田","lat":38.41521,"lng":141.032132,"zip":"9813512"},{"town":"川内","koaza":"関谷","lat":38.40809,"lng":141.032394,"zip":"9813514"},{"town":"味明","koaza":"蘭当","lat":38.424805,"lng":141.033128,"zip":"9813513"},{"town":"山崎","koaza":"山居沢","lat":38.42916,"lng":141.032849,"zip":"9813511"},{"town":"味明","koaza":"中屋敷","lat":38.421069,"lng":141.03405,"zip":"9813513"},{"town":"不来内","koaza":"湯殿下","lat":38.415543,"lng":141.033051,"zip":"9813512"},{"town":"山崎","koaza":"本木","lat":38.434294,"lng":141.033048,"zip":"9813511"},{"town":"川内","koaza":"岩下","lat":38.40049,"lng":141.032743,"zip":"9813514"},{"town":"山崎","koaza":"八幡沢","lat":38.435924,"lng":141.034442,"zip":"9813511"},{"town":"川内","koaza":"下作田","lat":38.399014,"lng":141.033857,"zip":"9813514"},{"town":"川内","koaza":"田沢下","lat":38.401934,"lng":141.033573,"zip":"9813514"},{"town":"山崎","koaza":"堤下","lat":38.428368,"lng":141.035451,"zip":"9813511"},{"town":"味明","koaza":"田布施","lat":38.410489,"lng":141.034399,"zip":"9813513"},{"town":"山崎","koaza":"道山作","lat":38.431201,"lng":141.036181,"zip":"9813511"},{"town":"味明","koaza":"坂下","lat":38.425994,"lng":141.036357,"zip":"9813513"},{"town":"川内","koaza":"下田布施前","lat":38.408292,"lng":141.034832,"zip":"9813514"},{"town":"味明","koaza":"向田","lat":38.419435,"lng":141.034025,"zip":"9813513"},{"town":"味明","koaza":"広畑","lat":38.412644,"lng":141.034459,"zip":"9813513"},{"town":"山崎","koaza":"中長坂","lat":38.433843,"lng":141.036215,"zip":"9813511"},{"town":"味明","koaza":"前田","lat":38.409246,"lng":141.034832,"zip":"9813513"},{"town":"味明","koaza":"鹿ノ畑","lat":38.41757,"lng":141.035766,"zip":"9813513"},{"town":"味明","koaza":"地蔵川","lat":38.421331,"lng":141.035673,"zip":"9813513"},{"town":"川内","koaza":"内田","lat":38.403043,"lng":141.035214,"zip":"9813514"},{"town":"不来内","koaza":"泉田","lat":38.415012,"lng":141.035511,"zip":"9813512"},{"town":"味明","koaza":"待ケ沢","lat":38.410506,"lng":141.035811,"zip":"9813513"},{"town":"不来内","koaza":"沖ノ前","lat":38.412672,"lng":141.035619,"zip":"9813512"},{"town":"川内","koaza":"上田布施前","lat":38.406045,"lng":141.035488,"zip":"9813514"},{"town":"山崎","koaza":"東沢","lat":38.437791,"lng":141.036508,"zip":"9813511"},{"town":"味明","koaza":"天神原","lat":38.407895,"lng":141.036781,"zip":"9813513"},{"town":"山崎","koaza":"百目木","lat":38.436403,"lng":141.037412,"zip":"9813511"},{"town":"味明","koaza":"松木田","lat":38.407182,"lng":141.035764,"zip":"9813513"},{"town":"味明","koaza":"一本杉","lat":38.419954,"lng":141.035786,"zip":"9813513"},{"town":"不来内","koaza":"天神下","lat":38.413378,"lng":141.036412,"zip":"9813512"},{"town":"味明","koaza":"青木沢山","lat":38.419969,"lng":141.03875,"zip":"9813513"},{"town":"味明","koaza":"桑田","lat":38.406283,"lng":141.035981,"zip":"9813513"},{"town":"不来内","koaza":"天神原","lat":38.411782,"lng":141.037514,"zip":"9813512"},{"town":"不来内","koaza":"北一本木山","lat":38.417968,"lng":141.039279,"zip":"9813512"},{"town":"味明","koaza":"大日向","lat":38.404505,"lng":141.037498,"zip":"9813513"},{"town":"不来内","koaza":"新泉田","lat":38.416346,"lng":141.039581,"zip":"9813512"},{"town":"不来内","koaza":"内畑","lat":38.413606,"lng":141.037636,"zip":"9813512"},{"town":"味明","koaza":"蓮沼","lat":38.423442,"lng":141.043004,"zip":"9813513"},{"town":"不来内","koaza":"間振沢","lat":38.416835,"lng":141.037807,"zip":"9813512"},{"town":"不来内","koaza":"東沢","lat":38.411861,"lng":141.041176,"zip":"9813512"},{"town":"山崎","koaza":"長坂畑","lat":38.430168,"lng":141.038395,"zip":"9813511"},{"town":"不来内","koaza":"堂屋ケ沢","lat":38.416317,"lng":141.038345,"zip":"9813512"},{"town":"山崎","koaza":"鳥屋場山","lat":38.431927,"lng":141.042958,"zip":"9813511"},{"town":"不来内","koaza":"小待井","lat":38.414965,"lng":141.039347,"zip":"9813512"},{"town":"不来内","koaza":"一本木山","lat":38.410418,"lng":141.044576,"zip":"9813512"},{"town":"山崎","koaza":"上長坂","lat":38.432121,"lng":141.039106,"zip":"9813511"},{"town":"不来内","koaza":"行沢","lat":38.412781,"lng":141.038974,"zip":"9813512"},{"town":"不来内","koaza":"大沢","lat":38.41227,"lng":141.040872,"zip":"9813512"},{"town":"不来内","koaza":"行沢迎","lat":38.410661,"lng":141.040439,"zip":"9813512"},{"town":"不来内","koaza":"東一本木山","lat":38.417037,"lng":141.045957,"zip":"9813512"},{"town":"不来内","koaza":"藤方","lat":38.416819,"lng":141.040799,"zip":"9813512"},{"town":"不来内","koaza":"石保呂","lat":38.409413,"lng":141.041205,"zip":"9813512"},{"town":"不来内","koaza":"山下","lat":38.41139,"lng":141.042595,"zip":"9813512"},{"town":"不来内","koaza":"藤方沢","lat":38.416604,"lng":141.042,"zip":"9813512"},{"town":"山崎","koaza":"大森沢","lat":38.436909,"lng":141.042518,"zip":"9813511"},{"town":"山崎","koaza":"松木沢","lat":38.430098,"lng":141.043279,"zip":"9813511"},{"town":"不来内","koaza":"堤下","lat":38.418875,"lng":141.044577,"zip":"9813512"},{"town":"不来内","koaza":"新田前","lat":38.437121,"lng":141.054266,"zip":"9813512"},{"town":"不来内","koaza":"南一本松山","lat":38.433953,"lng":141.055199,"zip":"9813512"},{"town":"不来内","koaza":"宮下","lat":38.437109,"lng":141.055992,"zip":"9813512"},{"town":"川内","koaza":"北清水前","lat":38.409246,"lng":141.027622,"zip":"9813514"},{"town":"川内","koaza":"作田畑","lat":38.409279,"lng":141.030237,"zip":"9813514"},{"town":"味明","koaza":"大勢面","lat":38.41064,"lng":141.029733,"zip":"9813513"},{"town":"川内","koaza":"北山陰","lat":38.410155,"lng":141.020681,"zip":"9813514"},{"town":"川内","koaza":"上結田","lat":38.402818,"lng":141.019142,"zip":"9813514"},{"town":"川内","koaza":"中結田","lat":38.404969,"lng":141.021402,"zip":"9813514"},{"town":"川内","koaza":"南山陰","lat":38.408086,"lng":141.020513,"zip":"9813514"}]