[{"town":"山崎三丁目","koaza":"","lat":34.890252,"lng":135.673914,"zip":"6180001"},{"town":"桜井一丁目","koaza":"","lat":34.881092,"lng":135.664538,"zip":"6180022"},{"town":"高浜三丁目","koaza":"","lat":34.874881,"lng":135.665757,"zip":"6180012"},{"town":"東大寺一丁目","koaza":"","lat":34.888458,"lng":135.671711,"zip":"6180002"},{"town":"山崎一丁目","koaza":"","lat":34.890829,"lng":135.677264,"zip":"6180001"},{"town":"青葉一丁目","koaza":"","lat":34.878675,"lng":135.664217,"zip":"6180015"},{"town":"青葉二丁目","koaza":"","lat":34.875306,"lng":135.662108,"zip":"6180015"},{"town":"桜井四丁目","koaza":"","lat":34.876661,"lng":135.657366,"zip":"6180022"},{"town":"水無瀬一丁目","koaza":"","lat":34.879428,"lng":135.667284,"zip":"6180014"},{"town":"広瀬五丁目","koaza":"","lat":34.882252,"lng":135.667499,"zip":"6180011"},{"town":"青葉三丁目","koaza":"","lat":34.876954,"lng":135.66123,"zip":"6180015"},{"town":"山崎四丁目","koaza":"","lat":34.891245,"lng":135.671041,"zip":"6180001"},{"town":"桜井五丁目","koaza":"","lat":34.874427,"lng":135.65846,"zip":"6180022"},{"town":"広瀬三丁目","koaza":"","lat":34.884704,"lng":135.671726,"zip":"6180011"},{"town":"広瀬四丁目","koaza":"","lat":34.881155,"lng":135.670524,"zip":"6180011"},{"town":"東大寺二丁目","koaza":"","lat":34.890704,"lng":135.66772,"zip":"6180002"},{"town":"高浜一丁目","koaza":"","lat":34.873707,"lng":135.669863,"zip":"6180012"},{"town":"桜井三丁目","koaza":"","lat":34.88202,"lng":135.660237,"zip":"6180022"},{"town":"高浜二丁目","koaza":"","lat":34.874841,"lng":135.667195,"zip":"6180012"},{"town":"水無瀬二丁目","koaza":"","lat":34.876219,"lng":135.665089,"zip":"6180014"},{"town":"桜井台","koaza":"","lat":34.881521,"lng":135.657252,"zip":"6180023"},{"town":"広瀬二丁目","koaza":"","lat":34.885363,"lng":135.674903,"zip":"6180011"},{"town":"江川一丁目","koaza":"","lat":34.883546,"lng":135.675281,"zip":"6180013"},{"town":"山崎二丁目","koaza":"","lat":34.888433,"lng":135.676406,"zip":"6180001"},{"town":"広瀬一丁目","koaza":"","lat":34.885323,"lng":135.668543,"zip":"6180011"},{"town":"東大寺四丁目","koaza":"","lat":34.890376,"lng":135.663326,"zip":"6180002"},{"town":"東大寺三丁目","koaza":"","lat":34.888636,"lng":135.66598,"zip":"6180002"},{"town":"桜井二丁目","koaza":"","lat":34.880365,"lng":135.661711,"zip":"6180022"},{"town":"若山台一丁目","koaza":"","lat":34.888335,"lng":135.658955,"zip":"6180024"},{"town":"若山台二丁目","koaza":"","lat":34.891556,"lng":135.657755,"zip":"6180024"},{"town":"江川二丁目","koaza":"","lat":34.877877,"lng":135.670725,"zip":"6180013"},{"town":"百山","koaza":"","lat":34.885599,"lng":135.664411,"zip":"6180021"},{"town":"山崎五丁目","koaza":"","lat":34.893032,"lng":135.67477,"zip":"6180001"},{"town":"高浜","koaza":"","lat":34.874521,"lng":135.674056,"zip":"6180012"},{"town":"大字東大寺","koaza":"","lat":34.897511,"lng":135.663057,"zip":"6180000"},{"town":"大字山崎","koaza":"","lat":34.898685,"lng":135.671861,"zip":"6180000"},{"town":"大字広瀬","koaza":"","lat":34.887656,"lng":135.65193,"zip":"6180000"},{"town":"大字桜井","koaza":"","lat":34.880935,"lng":135.652891,"zip":"6180000"},{"town":"大字尺代","koaza":"","lat":34.898867,"lng":135.646822,"zip":"6180000"},{"town":"大字大沢","koaza":"","lat":34.919896,"lng":135.640286,"zip":"6180000"}]