[{"town":"妙見坂四丁目","koaza":"","lat":34.76458,"lng":135.678169,"zip":"5760021"},{"town":"私市山手二丁目","koaza":"","lat":34.770594,"lng":135.690456,"zip":"5760032"},{"town":"妙見坂五丁目","koaza":"","lat":34.765021,"lng":135.677019,"zip":"5760021"},{"town":"天野が原町三丁目","koaza":"","lat":34.779981,"lng":135.674935,"zip":"5760034"},{"town":"妙見東五丁目","koaza":"","lat":34.756206,"lng":135.682119,"zip":"5760012"},{"town":"星田山手二丁目","koaza":"","lat":34.757055,"lng":135.666983,"zip":"5760014"},{"town":"青山一丁目","koaza":"","lat":34.787605,"lng":135.688115,"zip":"5760066"},{"town":"私市山手五丁目","koaza":"","lat":34.766419,"lng":135.690093,"zip":"5760032"},{"town":"藤が尾三丁目","koaza":"","lat":34.768199,"lng":135.676292,"zip":"5760022"},{"town":"妙見東一丁目","koaza":"","lat":34.76102,"lng":135.679573,"zip":"5760012"},{"town":"妙見坂二丁目","koaza":"","lat":34.767553,"lng":135.678477,"zip":"5760021"},{"town":"妙見坂六丁目","koaza":"","lat":34.764901,"lng":135.67531,"zip":"5760021"},{"town":"星田山手五丁目","koaza":"","lat":34.75448,"lng":135.666656,"zip":"5760014"},{"town":"妙見坂三丁目","koaza":"","lat":34.766961,"lng":135.676426,"zip":"5760021"},{"town":"私市山手一丁目","koaza":"","lat":34.770424,"lng":135.688752,"zip":"5760032"},{"town":"星田山手一丁目","koaza":"","lat":34.758342,"lng":135.667374,"zip":"5760014"},{"town":"私市山手三丁目","koaza":"","lat":34.768129,"lng":135.687492,"zip":"5760032"},{"town":"私市七丁目","koaza":"","lat":34.767638,"lng":135.682146,"zip":"5760033"},{"town":"藤が尾六丁目","koaza":"","lat":34.770447,"lng":135.672718,"zip":"5760022"},{"town":"森北二丁目","koaza":"","lat":34.779014,"lng":135.687561,"zip":"5760036"},{"town":"藤が尾四丁目","koaza":"","lat":34.770348,"lng":135.675386,"zip":"5760022"},{"town":"私市山手四丁目","koaza":"","lat":34.767587,"lng":135.689882,"zip":"5760032"},{"town":"星田山手四丁目","koaza":"","lat":34.754395,"lng":135.664815,"zip":"5760014"},{"town":"妙見東二丁目","koaza":"","lat":34.759115,"lng":135.680595,"zip":"5760012"},{"town":"星田山手三丁目","koaza":"","lat":34.756365,"lng":135.665273,"zip":"5760014"},{"town":"藤が尾一丁目","koaza":"","lat":34.772093,"lng":135.676412,"zip":"5760022"},{"town":"藤が尾五丁目","koaza":"","lat":34.768406,"lng":135.673508,"zip":"5760022"},{"town":"妙見坂一丁目","koaza":"","lat":34.765729,"lng":135.679233,"zip":"5760021"},{"town":"南星台二丁目","koaza":"","lat":34.758101,"lng":135.670974,"zip":"5760013"},{"town":"寺南野","koaza":"","lat":34.781016,"lng":135.688697,"zip":"5760064"},{"town":"私部西四丁目","koaza":"","lat":34.783587,"lng":135.67142,"zip":"5760041"},{"town":"私部三丁目","koaza":"","lat":34.788124,"lng":135.677511,"zip":"5760052"},{"town":"東倉治一丁目","koaza":"","lat":34.792661,"lng":135.698933,"zip":"5760061"},{"town":"青山五丁目","koaza":"","lat":34.78726,"lng":135.693447,"zip":"5760066"},{"town":"妙見東四丁目","koaza":"","lat":34.757261,"lng":135.683175,"zip":"5760012"},{"town":"南星台四丁目","koaza":"","lat":34.755873,"lng":135.674433,"zip":"5760013"},{"town":"東倉治五丁目","koaza":"","lat":34.797208,"lng":135.704872,"zip":"5760061"},{"town":"幾野五丁目","koaza":"","lat":34.798561,"lng":135.680978,"zip":"5760054"},{"town":"星田北九丁目","koaza":"","lat":34.774701,"lng":135.663298,"zip":"5760017"},{"town":"私部八丁目","koaza":"","lat":34.790934,"lng":135.687215,"zip":"5760052"},{"town":"南星台一丁目","koaza":"","lat":34.760537,"lng":135.671445,"zip":"5760013"},{"town":"幾野三丁目","koaza":"","lat":34.796207,"lng":135.680613,"zip":"5760054"},{"town":"森南二丁目","koaza":"","lat":34.775218,"lng":135.688351,"zip":"5760031"},{"town":"私部南一丁目","koaza":"","lat":34.782236,"lng":135.679879,"zip":"5760035"},{"town":"星田北三丁目","koaza":"","lat":34.771294,"lng":135.669642,"zip":"5760017"},{"town":"倉治九丁目","koaza":"","lat":34.799152,"lng":135.686434,"zip":"5760051"},{"town":"私市五丁目","koaza":"","lat":34.771812,"lng":135.679227,"zip":"5760033"},{"town":"南星台五丁目","koaza":"","lat":34.755361,"lng":135.675872,"zip":"5760013"},{"town":"妙見坂七丁目","koaza":"","lat":34.762706,"lng":135.676486,"zip":"5760021"},{"town":"藤が尾二丁目","koaza":"","lat":34.770217,"lng":135.677917,"zip":"5760022"},{"town":"妙見東三丁目","koaza":"","lat":34.758051,"lng":135.681313,"zip":"5760012"},{"town":"寺四丁目","koaza":"","lat":34.784951,"lng":135.694924,"zip":"5760063"},{"town":"天野が原町四丁目","koaza":"","lat":34.776238,"lng":135.676886,"zip":"5760034"},{"town":"幾野一丁目","koaza":"","lat":34.792303,"lng":135.681482,"zip":"5760054"},{"town":"南星台三丁目","koaza":"","lat":34.757619,"lng":135.672779,"zip":"5760013"},{"town":"幾野四丁目","koaza":"","lat":34.796615,"lng":135.683268,"zip":"5760054"},{"town":"星田西五丁目","koaza":"","lat":34.750626,"lng":135.660726,"zip":"5760015"},{"town":"森南一丁目","koaza":"","lat":34.776123,"lng":135.686417,"zip":"5760031"},{"town":"私市三丁目","koaza":"","lat":34.772951,"lng":135.682336,"zip":"5760033"},{"town":"星田西三丁目","koaza":"","lat":34.754657,"lng":135.662736,"zip":"5760015"},{"town":"幾野二丁目","koaza":"","lat":34.794167,"lng":135.68191,"zip":"5760054"},{"town":"私部南三丁目","koaza":"","lat":34.781585,"lng":135.686006,"zip":"5760035"},{"town":"星田西四丁目","koaza":"","lat":34.754503,"lng":135.659995,"zip":"5760015"},{"town":"私部南四丁目","koaza":"","lat":34.780132,"lng":135.683113,"zip":"5760035"},{"town":"倉治五丁目","koaza":"","lat":34.797557,"lng":135.687896,"zip":"5760051"},{"town":"私部南二丁目","koaza":"","lat":34.78277,"lng":135.682014,"zip":"5760035"},{"town":"私部七丁目","koaza":"","lat":34.789047,"lng":135.686506,"zip":"5760052"},{"town":"星田六丁目","koaza":"","lat":34.762644,"lng":135.662235,"zip":"5760016"},{"town":"私部西三丁目","koaza":"","lat":34.784092,"lng":135.673289,"zip":"5760041"},{"town":"森南三丁目","koaza":"","lat":34.778494,"lng":135.689583,"zip":"5760031"},{"town":"倉治四丁目","koaza":"","lat":34.796672,"lng":135.686087,"zip":"5760051"},{"town":"寺一丁目","koaza":"","lat":34.782745,"lng":135.692696,"zip":"5760063"},{"town":"青山三丁目","koaza":"","lat":34.790148,"lng":135.690997,"zip":"5760066"},{"town":"郡津四丁目","koaza":"","lat":34.792494,"lng":135.672825,"zip":"5760053"},{"town":"私部五丁目","koaza":"","lat":34.789639,"lng":135.682682,"zip":"5760052"},{"town":"青山二丁目","koaza":"","lat":34.787339,"lng":135.690801,"zip":"5760066"},{"town":"天野が原町一丁目","koaza":"","lat":34.780211,"lng":135.679435,"zip":"5760034"},{"town":"私市二丁目","koaza":"","lat":34.774421,"lng":135.682702,"zip":"5760033"},{"town":"私部西五丁目","koaza":"","lat":34.780997,"lng":135.672585,"zip":"5760041"},{"town":"私部六丁目","koaza":"","lat":34.790749,"lng":135.681492,"zip":"5760052"},{"town":"星田四丁目","koaza":"","lat":34.764336,"lng":135.664722,"zip":"5760016"},{"town":"青山四丁目","koaza":"","lat":34.79046,"lng":135.694601,"zip":"5760066"},{"town":"星田三丁目","koaza":"","lat":34.76552,"lng":135.669955,"zip":"5760016"},{"town":"星田北八丁目","koaza":"","lat":34.773354,"lng":135.661354,"zip":"5760017"},{"town":"森北一丁目","koaza":"","lat":34.778089,"lng":135.68461,"zip":"5760036"},{"town":"星田二丁目","koaza":"","lat":34.765837,"lng":135.67307,"zip":"5760016"},{"town":"私市八丁目","koaza":"","lat":34.765013,"lng":135.690588,"zip":"5760033"},{"town":"私部西二丁目","koaza":"","lat":34.783811,"lng":135.675989,"zip":"5760041"},{"town":"倉治三丁目","koaza":"","lat":34.793878,"lng":135.686069,"zip":"5760051"},{"town":"星田北七丁目","koaza":"","lat":34.769773,"lng":135.663098,"zip":"5760017"},{"town":"向井田一丁目","koaza":"","lat":34.784647,"lng":135.684601,"zip":"5760065"},{"town":"私部西一丁目","koaza":"","lat":34.787304,"lng":135.673675,"zip":"5760041"},{"town":"私市一丁目","koaza":"","lat":34.772531,"lng":135.688483,"zip":"5760033"},{"town":"星田五丁目","koaza":"","lat":34.765855,"lng":135.663066,"zip":"5760016"},{"town":"星田西二丁目","koaza":"","lat":34.758474,"lng":135.664466,"zip":"5760015"},{"town":"向井田二丁目","koaza":"","lat":34.784397,"lng":135.688139,"zip":"5760065"},{"town":"星田北一丁目","koaza":"","lat":34.776186,"lng":135.674324,"zip":"5760017"},{"town":"倉治八丁目","koaza":"","lat":34.799241,"lng":135.693376,"zip":"5760051"},{"town":"梅が枝","koaza":"","lat":34.789686,"lng":135.670918,"zip":"5760042"},{"town":"神宮寺二丁目","koaza":"","lat":34.789679,"lng":135.699489,"zip":"5760062"},{"town":"向井田三丁目","koaza":"","lat":34.783935,"lng":135.690799,"zip":"5760065"},{"town":"天野が原町五丁目","koaza":"","lat":34.776318,"lng":135.680584,"zip":"5760034"},{"town":"私部二丁目","koaza":"","lat":34.786078,"lng":135.67834,"zip":"5760052"},{"town":"私部四丁目","koaza":"","lat":34.789799,"lng":135.675766,"zip":"5760052"},{"town":"寺三丁目","koaza":"","lat":34.784614,"lng":135.697455,"zip":"5760063"},{"town":"倉治七丁目","koaza":"","lat":34.797341,"lng":135.69602,"zip":"5760051"},{"town":"寺二丁目","koaza":"","lat":34.780996,"lng":135.694165,"zip":"5760063"},{"town":"私市四丁目","koaza":"","lat":34.771409,"lng":135.6835,"zip":"5760033"},{"town":"天野が原町二丁目","koaza":"","lat":34.779276,"lng":135.677398,"zip":"5760034"},{"town":"東倉治三丁目","koaza":"","lat":34.795138,"lng":135.702688,"zip":"5760061"},{"town":"神宮寺一丁目","koaza":"","lat":34.789655,"lng":135.6972,"zip":"5760062"},{"town":"倉治六丁目","koaza":"","lat":34.797102,"lng":135.692159,"zip":"5760051"},{"town":"郡津三丁目","koaza":"","lat":34.796485,"lng":135.674358,"zip":"5760053"},{"town":"星田一丁目","koaza":"","lat":34.768608,"lng":135.669653,"zip":"5760016"},{"town":"倉治二丁目","koaza":"","lat":34.793084,"lng":135.688753,"zip":"5760051"},{"town":"私市六丁目","koaza":"","lat":34.768699,"lng":135.68449,"zip":"5760033"},{"town":"星田北四丁目","koaza":"","lat":34.775453,"lng":135.671008,"zip":"5760017"},{"town":"星田七丁目","koaza":"","lat":34.760899,"lng":135.666851,"zip":"5760016"},{"town":"東倉治四丁目","koaza":"","lat":34.798018,"lng":135.700427,"zip":"5760061"},{"town":"星田北二丁目","koaza":"","lat":34.773135,"lng":135.674092,"zip":"5760017"},{"town":"星田八丁目","koaza":"","lat":34.763,"lng":135.669436,"zip":"5760016"},{"town":"倉治一丁目","koaza":"","lat":34.793363,"lng":135.69422,"zip":"5760051"},{"town":"東倉治二丁目","koaza":"","lat":34.793777,"lng":135.699635,"zip":"5760061"},{"town":"幾野六丁目","koaza":"","lat":34.800872,"lng":135.677283,"zip":"5760054"},{"town":"郡津一丁目","koaza":"","lat":34.792821,"lng":135.676639,"zip":"5760053"},{"town":"私部一丁目","koaza":"","lat":34.786475,"lng":135.682888,"zip":"5760052"},{"town":"星田北五丁目","koaza":"","lat":34.775061,"lng":135.66733,"zip":"5760017"},{"town":"星田北六丁目","koaza":"","lat":34.771754,"lng":135.6654,"zip":"5760017"},{"town":"松塚","koaza":"","lat":34.793832,"lng":135.668093,"zip":"5760043"},{"town":"郡津二丁目","koaza":"","lat":34.797806,"lng":135.677336,"zip":"5760053"},{"town":"郡津五丁目","koaza":"","lat":34.796602,"lng":135.670336,"zip":"5760053"},{"town":"星田西一丁目","koaza":"","lat":34.758949,"lng":135.660989,"zip":"5760015"},{"town":"星田九丁目","koaza":"","lat":34.758238,"lng":135.677725,"zip":"5760016"},{"town":"私市九丁目","koaza":"","lat":34.754523,"lng":135.689786,"zip":"5760033"},{"town":"大字傍示","koaza":"","lat":34.774262,"lng":135.705121,"zip":"5760000"},{"town":"大字森","koaza":"","lat":34.774751,"lng":135.694858,"zip":"5760000"},{"town":"大字寺","koaza":"","lat":34.780826,"lng":135.699766,"zip":"5760000"},{"town":"大字私部","koaza":"","lat":34.764948,"lng":135.704602,"zip":"5760000"},{"town":"大字倉治","koaza":"","lat":34.790619,"lng":135.709849,"zip":"5760000"},{"town":"大字星田","koaza":"","lat":34.750327,"lng":135.676331,"zip":"5760000"},{"town":"大字私市","koaza":"","lat":34.758638,"lng":135.694318,"zip":"5760000"}]