[{"town":"大字千塚","koaza":"","lat":34.631139,"lng":135.638721,"zip":"5810000"},{"town":"都塚三丁目","koaza":"","lat":34.604877,"lng":135.623758,"zip":"5810023"},{"town":"垣内六丁目","koaza":"","lat":34.615446,"lng":135.639302,"zip":"5810881"},{"town":"曙川東二丁目","koaza":"","lat":34.608705,"lng":135.625025,"zip":"5810020"},{"town":"高安町北七丁目","koaza":"","lat":34.619131,"lng":135.629171,"zip":"5810871"},{"town":"志紀町三丁目","koaza":"","lat":34.600629,"lng":135.615386,"zip":"5810031"},{"town":"植松町一丁目","koaza":"","lat":34.615504,"lng":135.599713,"zip":"5810084"},{"town":"曙川東七丁目","koaza":"","lat":34.602773,"lng":135.622663,"zip":"5810020"},{"town":"桜ヶ丘四丁目","koaza":"","lat":34.63248,"lng":135.608557,"zip":"5810000"},{"town":"曙川東一丁目","koaza":"","lat":34.609545,"lng":135.625614,"zip":"5810020"},{"town":"高安町南六丁目","koaza":"","lat":34.615275,"lng":135.628895,"zip":"5810875"},{"town":"旭ヶ丘四丁目","koaza":"","lat":34.632847,"lng":135.608665,"zip":"5810000"},{"town":"幸町一丁目","koaza":"","lat":34.647118,"lng":135.606865,"zip":"5810821"},{"town":"南小阪合町四丁目","koaza":"","lat":34.622743,"lng":135.614897,"zip":"5810019"},{"town":"跡部本町二丁目","koaza":"","lat":34.616453,"lng":135.583189,"zip":"5810064"},{"town":"安中町七丁目","koaza":"","lat":34.617772,"lng":135.603965,"zip":"5810085"},{"town":"南小阪合町一丁目","koaza":"","lat":34.624789,"lng":135.613019,"zip":"5810019"},{"town":"末広町五丁目","koaza":"","lat":34.635691,"lng":135.587751,"zip":"5810001"},{"town":"曙川東五丁目","koaza":"","lat":34.603766,"lng":135.625173,"zip":"5810020"},{"town":"曙町四丁目","koaza":"","lat":34.60638,"lng":135.611783,"zip":"5810026"},{"town":"天王寺屋五丁目","koaza":"","lat":34.603684,"lng":135.614943,"zip":"5810025"},{"town":"木の本三丁目","koaza":"","lat":34.597598,"lng":135.587453,"zip":"5810044"},{"town":"志紀町西四丁目","koaza":"","lat":34.603948,"lng":135.610793,"zip":"5810094"},{"town":"青山町一丁目","koaza":"","lat":34.625329,"lng":135.610889,"zip":"5810018"},{"town":"幸町五丁目","koaza":"","lat":34.649512,"lng":135.608929,"zip":"5810821"},{"town":"春日町二丁目","koaza":"","lat":34.61733,"lng":135.593091,"zip":"5810061"},{"town":"幸町二丁目","koaza":"","lat":34.64761,"lng":135.608791,"zip":"5810821"},{"town":"都塚一丁目","koaza":"","lat":34.607848,"lng":135.624121,"zip":"5810023"},{"town":"桂町三丁目","koaza":"","lat":34.646039,"lng":135.609892,"zip":"5810823"},{"town":"植松町三丁目","koaza":"","lat":34.616673,"lng":135.597121,"zip":"5810084"},{"town":"山本町二丁目","koaza":"","lat":34.629738,"lng":135.620306,"zip":"5810867"},{"town":"幸町六丁目","koaza":"","lat":34.650029,"lng":135.606676,"zip":"5810821"},{"town":"旭ヶ丘三丁目","koaza":"","lat":34.632172,"lng":135.611945,"zip":"5810000"},{"town":"高安町北六丁目","koaza":"","lat":34.620168,"lng":135.629203,"zip":"5810871"},{"town":"弓削町南三丁目","koaza":"","lat":34.595527,"lng":135.614029,"zip":"5810034"},{"town":"跡部北の町三丁目","koaza":"","lat":34.61988,"lng":135.583267,"zip":"5810068"},{"town":"高安町南七丁目","koaza":"","lat":34.617741,"lng":135.628999,"zip":"5810875"},{"town":"志紀町南一丁目","koaza":"","lat":34.596747,"lng":135.617982,"zip":"5810033"},{"town":"曙川東四丁目","koaza":"","lat":34.606516,"lng":135.626281,"zip":"5810020"},{"town":"天王寺屋三丁目","koaza":"","lat":34.603959,"lng":135.613659,"zip":"5810025"},{"town":"天王寺屋四丁目","koaza":"","lat":34.605271,"lng":135.613945,"zip":"5810025"},{"town":"都塚二丁目","koaza":"","lat":34.606238,"lng":135.623484,"zip":"5810023"},{"town":"高安町北五丁目","koaza":"","lat":34.621126,"lng":135.629235,"zip":"5810871"},{"town":"天王寺屋七丁目","koaza":"","lat":34.600862,"lng":135.615947,"zip":"5810025"},{"town":"上之島町南二丁目","koaza":"","lat":34.63504,"lng":135.622085,"zip":"5810846"},{"town":"西木の本一丁目","koaza":"","lat":34.602652,"lng":135.583992,"zip":"5810045"},{"town":"新家町四丁目","koaza":"","lat":34.64598,"lng":135.595233,"zip":"5810811"},{"town":"山本町四丁目","koaza":"","lat":34.63205,"lng":135.620412,"zip":"5810867"},{"town":"天王寺屋六丁目","koaza":"","lat":34.601353,"lng":135.616631,"zip":"5810025"},{"town":"南亀井町五丁目","koaza":"","lat":34.612923,"lng":135.577059,"zip":"5810054"},{"town":"幸町四丁目","koaza":"","lat":34.649079,"lng":135.606862,"zip":"5810821"},{"town":"植松町八丁目","koaza":"","lat":34.613509,"lng":135.591385,"zip":"5810084"},{"town":"小阪合町四丁目","koaza":"","lat":34.626887,"lng":135.617166,"zip":"5810012"},{"town":"幸町三丁目","koaza":"","lat":34.648128,"lng":135.606806,"zip":"5810821"},{"town":"曙川東六丁目","koaza":"","lat":34.604479,"lng":135.624501,"zip":"5810020"},{"town":"山城町二丁目","koaza":"","lat":34.633357,"lng":135.600367,"zip":"5810801"},{"town":"西高安町五丁目","koaza":"","lat":34.643964,"lng":135.633833,"zip":"5810852"},{"town":"水越五丁目","koaza":"","lat":34.633633,"lng":135.642857,"zip":"5810856"},{"town":"荘内町二丁目","koaza":"","lat":34.627061,"lng":135.608859,"zip":"5810005"},{"town":"春日町三丁目","koaza":"","lat":34.617351,"lng":135.591774,"zip":"5810061"},{"town":"大字二俣","koaza":"","lat":34.601077,"lng":135.620255,"zip":"5810000"},{"town":"新家町八丁目","koaza":"","lat":34.649125,"lng":135.595055,"zip":"5810811"},{"town":"植松町四丁目","koaza":"","lat":34.61732,"lng":135.594692,"zip":"5810084"},{"town":"高安町南五丁目","koaza":"","lat":34.614179,"lng":135.627028,"zip":"5810875"},{"town":"相生町三丁目","koaza":"","lat":34.611275,"lng":135.602983,"zip":"5810082"},{"town":"亀井町三丁目","koaza":"","lat":34.618011,"lng":135.577204,"zip":"5810065"},{"town":"佐堂町二丁目","koaza":"","lat":34.635785,"lng":135.592392,"zip":"5810816"},{"town":"曙川東三丁目","koaza":"","lat":34.606671,"lng":135.625288,"zip":"5810020"},{"town":"竹渕西五丁目","koaza":"","lat":34.621723,"lng":135.562868,"zip":"5810051"},{"town":"西木の本二丁目","koaza":"","lat":34.600842,"lng":135.584211,"zip":"5810045"},{"town":"東山本町二丁目","koaza":"","lat":34.629203,"lng":135.62407,"zip":"5810847"},{"town":"南植松町一丁目","koaza":"","lat":34.610444,"lng":135.597719,"zip":"5810091"},{"town":"桂町五丁目","koaza":"","lat":34.644332,"lng":135.613768,"zip":"5810823"},{"town":"山本町三丁目","koaza":"","lat":34.630843,"lng":135.620485,"zip":"5810867"},{"town":"亀井町二丁目","koaza":"","lat":34.617733,"lng":135.578319,"zip":"5810065"},{"town":"高安町南三丁目","koaza":"","lat":34.616288,"lng":135.626746,"zip":"5810875"},{"town":"長池町五丁目","koaza":"","lat":34.640378,"lng":135.614765,"zip":"5810836"},{"town":"上之島町南五丁目","koaza":"","lat":34.635018,"lng":135.625793,"zip":"5810846"},{"town":"佐堂町三丁目","koaza":"","lat":34.635241,"lng":135.590556,"zip":"5810816"},{"town":"東山本町四丁目","koaza":"","lat":34.630991,"lng":135.623496,"zip":"5810847"},{"town":"緑ヶ丘二丁目","koaza":"","lat":34.635235,"lng":135.60952,"zip":"5810000"},{"town":"亀井町四丁目","koaza":"","lat":34.618339,"lng":135.575814,"zip":"5810065"},{"town":"高安町北三丁目","koaza":"","lat":34.621217,"lng":135.626107,"zip":"5810871"},{"town":"上之島町南一丁目","koaza":"","lat":34.63503,"lng":135.621075,"zip":"5810846"},{"town":"南亀井町三丁目","koaza":"","lat":34.616139,"lng":135.574589,"zip":"5810054"},{"town":"東町五丁目","koaza":"","lat":34.630416,"lng":135.632661,"zip":"5810861"},{"town":"渋川町七丁目","koaza":"","lat":34.620959,"lng":135.589427,"zip":"5810075"},{"town":"教興寺六丁目","koaza":"","lat":34.617412,"lng":135.635229,"zip":"5810874"},{"town":"高安町北一丁目","koaza":"","lat":34.619243,"lng":135.626483,"zip":"5810871"},{"town":"上之島町北六丁目","koaza":"","lat":34.637921,"lng":135.628195,"zip":"5810845"},{"town":"永畑町三丁目","koaza":"","lat":34.612931,"lng":135.593604,"zip":"5810083"},{"town":"東本町一丁目","koaza":"","lat":34.626545,"lng":135.603438,"zip":"5810004"},{"town":"上之島町北四丁目","koaza":"","lat":34.637971,"lng":135.625863,"zip":"5810845"},{"town":"東山本新町六丁目","koaza":"","lat":34.622186,"lng":135.625785,"zip":"5810866"},{"town":"山本町南二丁目","koaza":"","lat":34.624208,"lng":135.618434,"zip":"5810013"},{"town":"八尾木六丁目","koaza":"","lat":34.60631,"lng":135.614757,"zip":"5810027"},{"town":"竹渕三丁目","koaza":"","lat":34.616316,"lng":135.568513,"zip":"5810052"},{"town":"高安町南四丁目","koaza":"","lat":34.615285,"lng":135.62691,"zip":"5810875"},{"town":"末広町三丁目","koaza":"","lat":34.632092,"lng":135.59279,"zip":"5810001"},{"town":"荘内町一丁目","koaza":"","lat":34.627173,"lng":135.607666,"zip":"5810005"},{"town":"東山本新町七丁目","koaza":"","lat":34.623205,"lng":135.627921,"zip":"5810866"},{"town":"高安町北二丁目","koaza":"","lat":34.620163,"lng":135.626354,"zip":"5810871"},{"town":"福万寺町四丁目","koaza":"","lat":34.646002,"lng":135.619864,"zip":"5810842"},{"town":"北本町一丁目","koaza":"","lat":34.631622,"lng":135.600289,"zip":"5810802"},{"town":"末広町一丁目","koaza":"","lat":34.630563,"lng":135.594042,"zip":"5810001"},{"town":"安中町一丁目","koaza":"","lat":34.62021,"lng":135.597677,"zip":"5810085"},{"town":"安中町四丁目","koaza":"","lat":34.617682,"lng":135.598216,"zip":"5810085"},{"town":"山賀町一丁目","koaza":"","lat":34.645111,"lng":135.60232,"zip":"5810812"},{"town":"緑ヶ丘三丁目","koaza":"","lat":34.635173,"lng":135.610645,"zip":"5810000"},{"town":"太子堂五丁目","koaza":"","lat":34.61485,"lng":135.583647,"zip":"5810063"},{"town":"末広町四丁目","koaza":"","lat":34.633831,"lng":135.590659,"zip":"5810001"},{"town":"清水町二丁目","koaza":"","lat":34.623055,"lng":135.601606,"zip":"5810006"},{"town":"高美町二丁目","koaza":"","lat":34.622452,"lng":135.608864,"zip":"5810017"},{"town":"上之島町南六丁目","koaza":"","lat":34.634943,"lng":135.62697,"zip":"5810846"},{"town":"渋川町六丁目","koaza":"","lat":34.622216,"lng":135.589343,"zip":"5810075"},{"town":"福万寺町南二丁目","koaza":"","lat":34.641017,"lng":135.619891,"zip":"5810843"},{"town":"福万寺町北四丁目","koaza":"","lat":34.648929,"lng":135.622456,"zip":"5810841"},{"town":"東山本新町五丁目","koaza":"","lat":34.623138,"lng":135.625601,"zip":"5810866"},{"town":"東本町五丁目","koaza":"","lat":34.627287,"lng":135.606459,"zip":"5810004"},{"town":"東山本新町四丁目","koaza":"","lat":34.624152,"lng":135.625322,"zip":"5810866"},{"town":"楠根町一丁目","koaza":"","lat":34.640096,"lng":135.602266,"zip":"5810814"},{"town":"南木の本一丁目","koaza":"","lat":34.604089,"lng":135.593946,"zip":"5810042"},{"town":"竹渕東二丁目","koaza":"","lat":34.615741,"lng":135.573282,"zip":"5810053"},{"town":"福万寺町北三丁目","koaza":"","lat":34.649933,"lng":135.620013,"zip":"5810841"},{"town":"上之島町南七丁目","koaza":"","lat":34.634861,"lng":135.628112,"zip":"5810846"},{"town":"福万寺町南五丁目","koaza":"","lat":34.641054,"lng":135.623481,"zip":"5810843"},{"town":"上尾町二丁目","koaza":"","lat":34.634754,"lng":135.630589,"zip":"5810851"},{"town":"佐堂町一丁目","koaza":"","lat":34.633929,"lng":135.592922,"zip":"5810816"},{"town":"曙町二丁目","koaza":"","lat":34.6087,"lng":135.609671,"zip":"5810026"},{"town":"渋川町二丁目","koaza":"","lat":34.622557,"lng":135.592816,"zip":"5810075"},{"town":"南小阪合町三丁目","koaza":"","lat":34.62468,"lng":135.616984,"zip":"5810019"},{"town":"山賀町二丁目","koaza":"","lat":34.644906,"lng":135.601165,"zip":"5810812"},{"town":"上尾町三丁目","koaza":"","lat":34.634835,"lng":135.631781,"zip":"5810851"},{"town":"東山本町六丁目","koaza":"","lat":34.628005,"lng":135.627346,"zip":"5810847"},{"town":"教興寺三丁目","koaza":"","lat":34.618203,"lng":135.63171,"zip":"5810874"},{"town":"新家町六丁目","koaza":"","lat":34.64915,"lng":135.597452,"zip":"5810811"},{"town":"上尾町五丁目","koaza":"","lat":34.638074,"lng":135.630501,"zip":"5810851"},{"town":"福万寺町一丁目","koaza":"","lat":34.643412,"lng":135.61845,"zip":"5810842"},{"town":"竹渕西一丁目","koaza":"","lat":34.620101,"lng":135.565634,"zip":"5810051"},{"town":"南太子堂二丁目","koaza":"","lat":34.611398,"lng":135.589368,"zip":"5810056"},{"town":"太子堂三丁目","koaza":"","lat":34.614052,"lng":135.587955,"zip":"5810063"},{"town":"春日町四丁目","koaza":"","lat":34.61738,"lng":135.590178,"zip":"5810061"},{"town":"南植松町五丁目","koaza":"","lat":34.610953,"lng":135.59175,"zip":"5810091"},{"town":"上之島町北五丁目","koaza":"","lat":34.637639,"lng":135.626882,"zip":"5810845"},{"town":"上尾町七丁目","koaza":"","lat":34.639953,"lng":135.630607,"zip":"5810851"},{"town":"旭ヶ丘二丁目","koaza":"","lat":34.630159,"lng":135.612484,"zip":"5810000"},{"town":"恩智南町一丁目","koaza":"","lat":34.604514,"lng":135.626633,"zip":"5810884"},{"town":"福万寺町南三丁目","koaza":"","lat":34.640976,"lng":135.621071,"zip":"5810843"},{"town":"高安町南二丁目","koaza":"","lat":34.617319,"lng":135.626611,"zip":"5810875"},{"town":"福万寺町北六丁目","koaza":"","lat":34.648882,"lng":135.624852,"zip":"5810841"},{"town":"渋川町三丁目","koaza":"","lat":34.621783,"lng":135.592506,"zip":"5810075"},{"town":"東弓削二丁目","koaza":"","lat":34.604717,"lng":135.618111,"zip":"5810029"},{"town":"竹渕五丁目","koaza":"","lat":34.619897,"lng":135.567197,"zip":"5810052"},{"town":"萱振町六丁目","koaza":"","lat":34.640855,"lng":135.604364,"zip":"5810834"},{"town":"上尾町一丁目","koaza":"","lat":34.635182,"lng":135.629336,"zip":"5810851"},{"town":"上尾町六丁目","koaza":"","lat":34.637839,"lng":135.632056,"zip":"5810851"},{"town":"福万寺町南四丁目","koaza":"","lat":34.640968,"lng":135.622295,"zip":"5810843"},{"town":"福万寺町北二丁目","koaza":"","lat":34.648924,"lng":135.620057,"zip":"5810841"},{"town":"山城町一丁目","koaza":"","lat":34.632461,"lng":135.598695,"zip":"5810801"},{"town":"福万寺町北五丁目","koaza":"","lat":34.648599,"lng":135.623657,"zip":"5810841"},{"town":"垣内五丁目","koaza":"","lat":34.615908,"lng":135.637124,"zip":"5810881"},{"town":"栄町一丁目","koaza":"","lat":34.624506,"lng":135.597143,"zip":"5810074"},{"town":"桜ヶ丘三丁目","koaza":"","lat":34.632352,"lng":135.607773,"zip":"5810000"},{"town":"南植松町三丁目","koaza":"","lat":34.610754,"lng":135.594123,"zip":"5810091"},{"town":"南亀井町一丁目","koaza":"","lat":34.615623,"lng":135.578847,"zip":"5810054"},{"town":"福万寺町北一丁目","koaza":"","lat":34.647964,"lng":135.619952,"zip":"5810841"},{"town":"南久宝寺三丁目","koaza":"","lat":34.622372,"lng":135.586325,"zip":"5810076"},{"town":"跡部南の町一丁目","koaza":"","lat":34.614561,"lng":135.58113,"zip":"5810055"},{"town":"曙町一丁目","koaza":"","lat":34.609624,"lng":135.609989,"zip":"5810026"},{"town":"末広町二丁目","koaza":"","lat":34.632138,"lng":135.594616,"zip":"5810001"},{"town":"東山本新町二丁目","koaza":"","lat":34.625147,"lng":135.625138,"zip":"5810866"},{"town":"恩智南町五丁目","koaza":"","lat":34.603904,"lng":135.6331,"zip":"5810884"},{"town":"上尾町四丁目","koaza":"","lat":34.637825,"lng":135.629401,"zip":"5810851"},{"town":"福栄町三丁目","koaza":"","lat":34.641197,"lng":135.628238,"zip":"5810844"},{"town":"亀井町一丁目","koaza":"","lat":34.617426,"lng":135.579563,"zip":"5810065"},{"town":"南植松町四丁目","koaza":"","lat":34.610871,"lng":135.592902,"zip":"5810091"},{"town":"新家町七丁目","koaza":"","lat":34.649136,"lng":135.59626,"zip":"5810811"},{"town":"小阪合町二丁目","koaza":"","lat":34.626217,"lng":135.613634,"zip":"5810012"},{"town":"新家町一丁目","koaza":"","lat":34.645082,"lng":135.59863,"zip":"5810811"},{"town":"宮町二丁目","koaza":"","lat":34.633973,"lng":135.595104,"zip":"5810815"},{"town":"上之島町南四丁目","koaza":"","lat":34.635025,"lng":135.624568,"zip":"5810846"},{"town":"楽音寺三丁目","koaza":"","lat":34.642549,"lng":135.639101,"zip":"5810853"},{"town":"南太子堂一丁目","koaza":"","lat":34.611394,"lng":135.59059,"zip":"5810056"},{"town":"曙川東八丁目","koaza":"","lat":34.601545,"lng":135.622221,"zip":"5810020"},{"town":"山賀町三丁目","koaza":"","lat":34.645074,"lng":135.599913,"zip":"5810812"},{"town":"西高安町一丁目","koaza":"","lat":34.634834,"lng":135.633067,"zip":"5810852"},{"town":"高安町南一丁目","koaza":"","lat":34.618209,"lng":135.626282,"zip":"5810875"},{"town":"光南町二丁目","koaza":"","lat":34.622969,"lng":135.59933,"zip":"5810007"},{"town":"跡部南の町二丁目","koaza":"","lat":34.612889,"lng":135.581165,"zip":"5810055"},{"town":"高砂町二丁目","koaza":"","lat":34.647454,"lng":135.612736,"zip":"5810822"},{"town":"松山町一丁目","koaza":"","lat":34.621366,"lng":135.603761,"zip":"5810088"},{"town":"中田三丁目","koaza":"","lat":34.617781,"lng":135.611489,"zip":"5810014"},{"town":"竹渕西二丁目","koaza":"","lat":34.617525,"lng":135.565187,"zip":"5810051"},{"town":"山本町北四丁目","koaza":"","lat":34.639104,"lng":135.617786,"zip":"5810831"},{"town":"小阪合町三丁目","koaza":"","lat":34.626936,"lng":135.615633,"zip":"5810012"},{"town":"山本町北八丁目","koaza":"","lat":34.64731,"lng":135.617041,"zip":"5810831"},{"town":"北木の本三丁目","koaza":"","lat":34.607692,"lng":135.591802,"zip":"5810041"},{"town":"清水町一丁目","koaza":"","lat":34.624804,"lng":135.601512,"zip":"5810006"},{"town":"東山本町三丁目","koaza":"","lat":34.629631,"lng":135.622133,"zip":"5810847"},{"town":"渋川町五丁目","koaza":"","lat":34.619418,"lng":135.592493,"zip":"5810075"},{"town":"植松町六丁目","koaza":"","lat":34.614703,"lng":135.59671,"zip":"5810084"},{"town":"桂町一丁目","koaza":"","lat":34.644769,"lng":135.607261,"zip":"5810823"},{"town":"八尾木北一丁目","koaza":"","lat":34.615527,"lng":135.611191,"zip":"5810016"},{"town":"南太子堂五丁目","koaza":"","lat":34.61081,"lng":135.583824,"zip":"5810056"},{"town":"小畑町一丁目","koaza":"","lat":34.642248,"lng":135.607801,"zip":"5810835"},{"town":"福万寺町南六丁目","koaza":"","lat":34.640948,"lng":135.624703,"zip":"5810843"},{"town":"植松町七丁目","koaza":"","lat":34.614327,"lng":135.594003,"zip":"5810084"},{"town":"教興寺五丁目","koaza":"","lat":34.616183,"lng":135.631533,"zip":"5810874"},{"town":"跡部本町四丁目","koaza":"","lat":34.617064,"lng":135.580699,"zip":"5810064"},{"town":"西木の本三丁目","koaza":"","lat":34.601149,"lng":135.582297,"zip":"5810045"},{"town":"西山本町二丁目","koaza":"","lat":34.629062,"lng":135.617859,"zip":"5810868"},{"town":"曙町三丁目","koaza":"","lat":34.607192,"lng":135.612541,"zip":"5810026"},{"town":"山本町北五丁目","koaza":"","lat":34.641168,"lng":135.61659,"zip":"5810831"},{"town":"西木の本四丁目","koaza":"","lat":34.600006,"lng":135.581656,"zip":"5810045"},{"town":"教興寺二丁目","koaza":"","lat":34.619293,"lng":135.632025,"zip":"5810874"},{"town":"弓削町三丁目","koaza":"","lat":34.598017,"lng":135.614844,"zip":"5810032"},{"town":"南本町三丁目","koaza":"","lat":34.623078,"lng":135.605784,"zip":"5810081"},{"town":"西高安町三丁目","koaza":"","lat":34.640308,"lng":135.633463,"zip":"5810852"},{"town":"栄町二丁目","koaza":"","lat":34.622687,"lng":135.596721,"zip":"5810074"},{"town":"西山本町七丁目","koaza":"","lat":34.631916,"lng":135.618531,"zip":"5810868"},{"town":"相生町二丁目","koaza":"","lat":34.612009,"lng":135.60096,"zip":"5810082"},{"town":"水越四丁目","koaza":"","lat":34.635765,"lng":135.639013,"zip":"5810856"},{"town":"東本町四丁目","koaza":"","lat":34.627234,"lng":135.605245,"zip":"5810004"},{"town":"水越七丁目","koaza":"","lat":34.633286,"lng":135.645764,"zip":"5810856"},{"town":"東弓削三丁目","koaza":"","lat":34.602613,"lng":135.618485,"zip":"5810029"},{"town":"山本町五丁目","koaza":"","lat":34.633537,"lng":135.619896,"zip":"5810867"},{"town":"垣内二丁目","koaza":"","lat":34.614762,"lng":135.632626,"zip":"5810881"},{"town":"上之島町南三丁目","koaza":"","lat":34.635013,"lng":135.623252,"zip":"5810846"},{"town":"八尾木東二丁目","koaza":"","lat":34.608785,"lng":135.617568,"zip":"5810028"},{"town":"明美町一丁目","koaza":"","lat":34.621315,"lng":135.601689,"zip":"5810087"},{"town":"跡部北の町一丁目","koaza":"","lat":34.619328,"lng":135.587363,"zip":"5810068"},{"town":"中田五丁目","koaza":"","lat":34.617707,"lng":135.616583,"zip":"5810014"},{"town":"山本町北一丁目","koaza":"","lat":34.634554,"lng":135.619167,"zip":"5810831"},{"town":"垣内四丁目","koaza":"","lat":34.614432,"lng":135.636209,"zip":"5810881"},{"town":"南木の本八丁目","koaza":"","lat":34.59787,"lng":135.589952,"zip":"5810042"},{"town":"松山町二丁目","koaza":"","lat":34.61935,"lng":135.60387,"zip":"5810088"},{"town":"東老原一丁目","koaza":"","lat":34.606819,"lng":135.606145,"zip":"5810093"},{"town":"楽音寺四丁目","koaza":"","lat":34.643656,"lng":135.639506,"zip":"5810853"},{"town":"福万寺町五丁目","koaza":"","lat":34.646881,"lng":135.619885,"zip":"5810842"},{"town":"安中町五丁目","koaza":"","lat":34.616118,"lng":135.600543,"zip":"5810085"},{"town":"大字八尾木","koaza":"","lat":34.609775,"lng":135.619216,"zip":"5810000"},{"town":"太子堂一丁目","koaza":"","lat":34.616875,"lng":135.588014,"zip":"5810063"},{"town":"福万寺町三丁目","koaza":"","lat":34.64494,"lng":135.61968,"zip":"5810842"},{"town":"東山本新町三丁目","koaza":"","lat":34.625936,"lng":135.627584,"zip":"5810866"},{"town":"東本町二丁目","koaza":"","lat":34.627775,"lng":135.603031,"zip":"5810004"},{"town":"福栄町四丁目","koaza":"","lat":34.643493,"lng":135.627977,"zip":"5810844"},{"town":"北木の本一丁目","koaza":"","lat":34.607504,"lng":135.594292,"zip":"5810041"},{"town":"高美町七丁目","koaza":"","lat":34.61135,"lng":135.60863,"zip":"5810017"},{"town":"田井中一丁目","koaza":"","lat":34.601962,"lng":135.60179,"zip":"5810095"},{"town":"春日町一丁目","koaza":"","lat":34.618937,"lng":135.590517,"zip":"5810061"},{"town":"旭ヶ丘一丁目","koaza":"","lat":34.630263,"lng":135.611155,"zip":"5810000"},{"town":"光南町一丁目","koaza":"","lat":34.624713,"lng":135.59924,"zip":"5810007"},{"town":"桂町二丁目","koaza":"","lat":34.646191,"lng":135.607237,"zip":"5810823"},{"town":"東山本新町九丁目","koaza":"","lat":34.626708,"lng":135.630419,"zip":"5810866"},{"town":"桂町六丁目","koaza":"","lat":34.645611,"lng":135.612671,"zip":"5810823"},{"town":"竹渕西三丁目","koaza":"","lat":34.617626,"lng":135.563153,"zip":"5810051"},{"town":"西山本町六丁目","koaza":"","lat":34.631702,"lng":135.617373,"zip":"5810868"},{"town":"東山本町七丁目","koaza":"","lat":34.629551,"lng":135.626459,"zip":"5810847"},{"town":"長池町一丁目","koaza":"","lat":34.639096,"lng":135.608302,"zip":"5810836"},{"town":"堤町一丁目","koaza":"","lat":34.634637,"lng":135.61553,"zip":"5810832"},{"town":"老原二丁目","koaza":"","lat":34.609885,"lng":135.601895,"zip":"5810092"},{"town":"水越八丁目","koaza":"","lat":34.635018,"lng":135.6455,"zip":"5810856"},{"town":"永畑町二丁目","koaza":"","lat":34.612761,"lng":135.595984,"zip":"5810083"},{"town":"南木の本五丁目","koaza":"","lat":34.601884,"lng":135.591862,"zip":"5810042"},{"town":"新家町三丁目","koaza":"","lat":34.645551,"lng":135.59627,"zip":"5810811"},{"town":"明美町二丁目","koaza":"","lat":34.619274,"lng":135.601798,"zip":"5810087"},{"town":"竹渕一丁目","koaza":"","lat":34.619115,"lng":135.568929,"zip":"5810052"},{"town":"上之島町北二丁目","koaza":"","lat":34.637991,"lng":135.62239,"zip":"5810845"},{"town":"美園町一丁目","koaza":"","lat":34.636424,"lng":135.593077,"zip":"5810818"},{"town":"八尾木東一丁目","koaza":"","lat":34.610807,"lng":135.61754,"zip":"5810028"},{"town":"北木の本二丁目","koaza":"","lat":34.608989,"lng":135.591768,"zip":"5810041"},{"town":"福栄町二丁目","koaza":"","lat":34.64163,"lng":135.627084,"zip":"5810844"},{"town":"黒谷三丁目","koaza":"","lat":34.618521,"lng":135.638911,"zip":"5810873"},{"town":"黒谷四丁目","koaza":"","lat":34.617148,"lng":135.638458,"zip":"5810873"},{"town":"萱振町四丁目","koaza":"","lat":34.639576,"lng":135.60432,"zip":"5810834"},{"town":"中田一丁目","koaza":"","lat":34.618945,"lng":135.612819,"zip":"5810014"},{"town":"恩智南町四丁目","koaza":"","lat":34.605187,"lng":135.633406,"zip":"5810884"},{"town":"東本町三丁目","koaza":"","lat":34.62942,"lng":135.602806,"zip":"5810004"},{"town":"南小阪合町二丁目","koaza":"","lat":34.62467,"lng":135.614964,"zip":"5810019"},{"town":"青山町二丁目","koaza":"","lat":34.623976,"lng":135.610716,"zip":"5810018"},{"town":"南本町五丁目","koaza":"","lat":34.6199,"lng":135.606481,"zip":"5810081"},{"town":"桜ヶ丘二丁目","koaza":"","lat":34.629774,"lng":135.609848,"zip":"5810000"},{"town":"桜ヶ丘一丁目","koaza":"","lat":34.629581,"lng":135.608102,"zip":"5810000"},{"town":"上尾町八丁目","koaza":"","lat":34.641468,"lng":135.629756,"zip":"5810851"},{"town":"教興寺四丁目","koaza":"","lat":34.617324,"lng":135.631616,"zip":"5810874"},{"town":"山賀町四丁目","koaza":"","lat":34.648586,"lng":135.602265,"zip":"5810812"},{"town":"北久宝寺三丁目","koaza":"","lat":34.631377,"lng":135.583812,"zip":"5810071"},{"town":"八尾木二丁目","koaza":"","lat":34.610626,"lng":135.613352,"zip":"5810027"},{"town":"安中町六丁目","koaza":"","lat":34.617164,"lng":135.601542,"zip":"5810085"},{"town":"千塚一丁目","koaza":"","lat":34.632385,"lng":135.63472,"zip":"5810862"},{"town":"東久宝寺一丁目","koaza":"","lat":34.626655,"lng":135.594525,"zip":"5810002"},{"town":"東町三丁目","koaza":"","lat":34.630527,"lng":135.630357,"zip":"5810861"},{"town":"陽光園一丁目","koaza":"","lat":34.62121,"lng":135.599421,"zip":"5810086"},{"town":"田井中二丁目","koaza":"","lat":34.601967,"lng":135.60422,"zip":"5810095"},{"town":"竹渕東三丁目","koaza":"","lat":34.615791,"lng":135.572143,"zip":"5810053"},{"town":"南小阪合町五丁目","koaza":"","lat":34.622701,"lng":135.616559,"zip":"5810019"},{"town":"山城町三丁目","koaza":"","lat":34.636315,"lng":135.601015,"zip":"5810801"},{"town":"西高安町四丁目","koaza":"","lat":34.642275,"lng":135.633613,"zip":"5810852"},{"town":"久宝園一丁目","koaza":"","lat":34.636357,"lng":135.589428,"zip":"5810817"},{"town":"福万寺町南一丁目","koaza":"","lat":34.641031,"lng":135.618473,"zip":"5810843"},{"town":"青山町五丁目","koaza":"","lat":34.620557,"lng":135.614063,"zip":"5810018"},{"town":"跡部北の町二丁目","koaza":"","lat":34.619625,"lng":135.58488,"zip":"5810068"},{"town":"西山本町五丁目","koaza":"","lat":34.631648,"lng":135.616203,"zip":"5810868"},{"town":"太田新町二丁目","koaza":"","lat":34.594545,"lng":135.591184,"zip":"5810039"},{"town":"長池町四丁目","koaza":"","lat":34.639369,"lng":135.614959,"zip":"5810836"},{"town":"泉町二丁目","koaza":"","lat":34.647553,"lng":135.604153,"zip":"5810813"},{"town":"福万寺町二丁目","koaza":"","lat":34.6435,"lng":135.620552,"zip":"5810842"},{"town":"竹渕二丁目","koaza":"","lat":34.615797,"lng":135.569762,"zip":"5810052"},{"town":"楠根町三丁目","koaza":"","lat":34.640055,"lng":135.598863,"zip":"5810814"},{"town":"西山本町三丁目","koaza":"","lat":34.631675,"lng":135.61374,"zip":"5810868"},{"town":"楠根町四丁目","koaza":"","lat":34.642564,"lng":135.601732,"zip":"5810814"},{"town":"大竹四丁目","koaza":"","lat":34.638453,"lng":135.638889,"zip":"5810854"},{"town":"東久宝寺二丁目","koaza":"","lat":34.629495,"lng":135.592876,"zip":"5810002"},{"town":"東町六丁目","koaza":"","lat":34.632923,"lng":135.63107,"zip":"5810861"},{"town":"渋川町四丁目","koaza":"","lat":34.620474,"lng":135.592358,"zip":"5810075"},{"town":"東町四丁目","koaza":"","lat":34.630433,"lng":135.631566,"zip":"5810861"},{"town":"志紀町南三丁目","koaza":"","lat":34.594393,"lng":135.617856,"zip":"5810033"},{"town":"高美町五丁目","koaza":"","lat":34.615866,"lng":135.609241,"zip":"5810017"},{"town":"山賀町五丁目","koaza":"","lat":34.648612,"lng":135.601093,"zip":"5810812"},{"town":"小阪合町一丁目","koaza":"","lat":34.627501,"lng":135.613033,"zip":"5810012"},{"town":"北久宝寺二丁目","koaza":"","lat":34.631371,"lng":135.586198,"zip":"5810071"},{"town":"西山本町四丁目","koaza":"","lat":34.631654,"lng":135.614968,"zip":"5810868"},{"town":"八尾木東三丁目","koaza":"","lat":34.606672,"lng":135.617912,"zip":"5810028"},{"town":"柏村町一丁目","koaza":"","lat":34.614534,"lng":135.622576,"zip":"5810022"},{"town":"高砂町四丁目","koaza":"","lat":34.648104,"lng":135.614257,"zip":"5810822"},{"town":"志紀町二丁目","koaza":"","lat":34.600501,"lng":135.612752,"zip":"5810031"},{"town":"八尾木北三丁目","koaza":"","lat":34.615738,"lng":135.616481,"zip":"5810016"},{"town":"旭ヶ丘五丁目","koaza":"","lat":34.633253,"lng":135.61082,"zip":"5810000"},{"town":"本町一丁目","koaza":"","lat":34.627277,"lng":135.600854,"zip":"5810003"},{"town":"新家町二丁目","koaza":"","lat":34.645554,"lng":135.597395,"zip":"5810811"},{"town":"本町四丁目","koaza":"","lat":34.628842,"lng":135.595578,"zip":"5810003"},{"town":"天王寺屋一丁目","koaza":"","lat":34.608097,"lng":135.608099,"zip":"5810025"},{"town":"東町二丁目","koaza":"","lat":34.630429,"lng":135.629092,"zip":"5810861"},{"town":"八尾木三丁目","koaza":"","lat":34.608735,"lng":135.613303,"zip":"5810027"},{"town":"跡部本町三丁目","koaza":"","lat":34.616803,"lng":135.581904,"zip":"5810064"},{"town":"大竹八丁目","koaza":"","lat":34.637347,"lng":135.645482,"zip":"5810854"},{"town":"西高安町二丁目","koaza":"","lat":34.637846,"lng":135.633341,"zip":"5810852"},{"town":"高美町三丁目","koaza":"","lat":34.620206,"lng":135.60905,"zip":"5810017"},{"town":"緑ヶ丘四丁目","koaza":"","lat":34.637152,"lng":135.610671,"zip":"5810000"},{"town":"本町六丁目","koaza":"","lat":34.631109,"lng":135.596552,"zip":"5810003"},{"town":"服部川九丁目","koaza":"","lat":34.622625,"lng":135.644207,"zip":"5810865"},{"town":"東弓削一丁目","koaza":"","lat":34.602844,"lng":135.616785,"zip":"5810029"},{"town":"山本町南六丁目","koaza":"","lat":34.622634,"lng":135.620693,"zip":"5810013"},{"town":"東町一丁目","koaza":"","lat":34.627817,"lng":135.630607,"zip":"5810861"},{"town":"北本町四丁目","koaza":"","lat":34.636327,"lng":135.602059,"zip":"5810802"},{"town":"八尾木一丁目","koaza":"","lat":34.610399,"lng":135.611106,"zip":"5810027"},{"town":"竹渕東四丁目","koaza":"","lat":34.615828,"lng":135.570963,"zip":"5810053"},{"town":"服部川二丁目","koaza":"","lat":34.625221,"lng":135.637055,"zip":"5810865"},{"town":"高美町四丁目","koaza":"","lat":34.618089,"lng":135.60924,"zip":"5810017"},{"town":"山賀町六丁目","koaza":"","lat":34.648662,"lng":135.599875,"zip":"5810812"},{"town":"高安町北四丁目","koaza":"","lat":34.622515,"lng":135.630032,"zip":"5810871"},{"town":"郡川三丁目","koaza":"","lat":34.62251,"lng":135.636122,"zip":"5810872"},{"town":"柏村町四丁目","koaza":"","lat":34.611813,"lng":135.624791,"zip":"5810022"},{"town":"安中町二丁目","koaza":"","lat":34.620061,"lng":135.596388,"zip":"5810085"},{"town":"都塚四丁目","koaza":"","lat":34.60413,"lng":135.622238,"zip":"5810023"},{"town":"山本町北三丁目","koaza":"","lat":34.637405,"lng":135.618339,"zip":"5810831"},{"town":"山城町四丁目","koaza":"","lat":34.636287,"lng":135.599911,"zip":"5810801"},{"town":"山本町北二丁目","koaza":"","lat":34.635617,"lng":135.618472,"zip":"5810831"},{"town":"宮町一丁目","koaza":"","lat":34.632927,"lng":135.596825,"zip":"5810815"},{"town":"東山本町九丁目","koaza":"","lat":34.630987,"lng":135.627987,"zip":"5810847"},{"town":"堤町三丁目","koaza":"","lat":34.637621,"lng":135.615218,"zip":"5810832"},{"town":"山本町北七丁目","koaza":"","lat":34.645565,"lng":135.616216,"zip":"5810831"},{"town":"山本町北六丁目","koaza":"","lat":34.64348,"lng":135.616483,"zip":"5810831"},{"town":"相生町一丁目","koaza":"","lat":34.613136,"lng":135.601872,"zip":"5810082"},{"town":"長池町三丁目","koaza":"","lat":34.639976,"lng":135.610894,"zip":"5810836"},{"town":"太子堂四丁目","koaza":"","lat":34.614066,"lng":135.586075,"zip":"5810063"},{"town":"神立三丁目","koaza":"","lat":34.634825,"lng":135.648404,"zip":"5810855"},{"town":"垣内一丁目","koaza":"","lat":34.614687,"lng":135.630211,"zip":"5810881"},{"town":"垣内三丁目","koaza":"","lat":34.615178,"lng":135.634156,"zip":"5810881"},{"town":"中田四丁目","koaza":"","lat":34.617719,"lng":135.614058,"zip":"5810014"},{"town":"大竹二丁目","koaza":"","lat":34.640271,"lng":135.635835,"zip":"5810854"},{"town":"田井中三丁目","koaza":"","lat":34.602942,"lng":135.606222,"zip":"5810095"},{"town":"恩智中町一丁目","koaza":"","lat":34.608676,"lng":135.626894,"zip":"5810883"},{"town":"楽音寺五丁目","koaza":"","lat":34.643201,"lng":135.642269,"zip":"5810853"},{"town":"水越三丁目","koaza":"","lat":34.634868,"lng":135.638903,"zip":"5810856"},{"town":"北木の本四丁目","koaza":"","lat":34.606469,"lng":135.591768,"zip":"5810041"},{"town":"久宝寺五丁目","koaza":"","lat":34.626503,"lng":135.585376,"zip":"5810072"},{"town":"南本町二丁目","koaza":"","lat":34.623876,"lng":135.604812,"zip":"5810081"},{"town":"新家町五丁目","koaza":"","lat":34.648695,"lng":135.598613,"zip":"5810811"},{"town":"弓削町南一丁目","koaza":"","lat":34.595138,"lng":135.610252,"zip":"5810034"},{"town":"北亀井町二丁目","koaza":"","lat":34.619947,"lng":135.576731,"zip":"5810066"},{"town":"柏村町三丁目","koaza":"","lat":34.610793,"lng":135.623365,"zip":"5810022"},{"town":"福栄町一丁目","koaza":"","lat":34.642003,"lng":135.625941,"zip":"5810844"},{"town":"楠根町五丁目","koaza":"","lat":34.64258,"lng":135.599255,"zip":"5810814"},{"town":"山本町一丁目","koaza":"","lat":34.628088,"lng":135.619661,"zip":"5810867"},{"town":"大字東弓削","koaza":"","lat":34.602483,"lng":135.620269,"zip":"5810000"},{"town":"小畑町四丁目","koaza":"","lat":34.642419,"lng":135.614308,"zip":"5810835"},{"town":"太田八丁目","koaza":"","lat":34.586622,"lng":135.596677,"zip":"5810037"},{"town":"渋川町一丁目","koaza":"","lat":34.624362,"lng":135.592568,"zip":"5810075"},{"town":"田井中四丁目","koaza":"","lat":34.600091,"lng":135.604719,"zip":"5810095"},{"town":"老原六丁目","koaza":"","lat":34.606888,"lng":135.599321,"zip":"5810092"},{"town":"竹渕西四丁目","koaza":"","lat":34.619774,"lng":135.563494,"zip":"5810051"},{"town":"高砂町五丁目","koaza":"","lat":34.648119,"lng":135.615473,"zip":"5810822"},{"town":"楽音寺二丁目","koaza":"","lat":34.64111,"lng":135.640389,"zip":"5810853"},{"town":"八尾木北四丁目","koaza":"","lat":34.61336,"lng":135.61135,"zip":"5810016"},{"town":"堤町二丁目","koaza":"","lat":34.63651,"lng":135.615057,"zip":"5810832"},{"town":"郡川四丁目","koaza":"","lat":34.621158,"lng":135.640286,"zip":"5810872"},{"town":"泉町三丁目","koaza":"","lat":34.649322,"lng":135.604102,"zip":"5810813"},{"town":"八尾木五丁目","koaza":"","lat":34.606872,"lng":135.615832,"zip":"5810027"},{"town":"高美町一丁目","koaza":"","lat":34.624459,"lng":135.608284,"zip":"5810017"},{"town":"東久宝寺三丁目","koaza":"","lat":34.631965,"lng":135.590763,"zip":"5810002"},{"town":"跡部本町一丁目","koaza":"","lat":34.617446,"lng":135.584425,"zip":"5810064"},{"town":"本町二丁目","koaza":"","lat":34.626795,"lng":135.599161,"zip":"5810003"},{"town":"宮町六丁目","koaza":"","lat":34.641059,"lng":135.596345,"zip":"5810815"},{"town":"陽光園二丁目","koaza":"","lat":34.618972,"lng":135.59947,"zip":"5810086"},{"town":"郡川五丁目","koaza":"","lat":34.622872,"lng":135.640248,"zip":"5810872"},{"town":"山城町五丁目","koaza":"","lat":34.636342,"lng":135.598712,"zip":"5810801"},{"town":"神宮寺五丁目","koaza":"","lat":34.601869,"lng":135.633095,"zip":"5810885"},{"town":"竹渕四丁目","koaza":"","lat":34.617313,"lng":135.567002,"zip":"5810052"},{"town":"服部川七丁目","koaza":"","lat":34.624424,"lng":135.642748,"zip":"5810865"},{"town":"南木の本六丁目","koaza":"","lat":34.600122,"lng":135.590981,"zip":"5810042"},{"town":"宮町四丁目","koaza":"","lat":34.636397,"lng":135.59628,"zip":"5810815"},{"town":"山本町南一丁目","koaza":"","lat":34.626866,"lng":135.619119,"zip":"5810013"},{"town":"宮町三丁目","koaza":"","lat":34.636355,"lng":135.597492,"zip":"5810815"},{"town":"東太子二丁目","koaza":"","lat":34.614089,"lng":135.589906,"zip":"5810062"},{"town":"植松町二丁目","koaza":"","lat":34.614689,"lng":135.59901,"zip":"5810084"},{"town":"山本町南四丁目","koaza":"","lat":34.625995,"lng":135.621777,"zip":"5810013"},{"town":"萱振町三丁目","koaza":"","lat":34.637369,"lng":135.604397,"zip":"5810834"},{"town":"東太子一丁目","koaza":"","lat":34.616324,"lng":135.589378,"zip":"5810062"},{"town":"八尾木北二丁目","koaza":"","lat":34.615826,"lng":135.613894,"zip":"5810016"},{"town":"八尾木四丁目","koaza":"","lat":34.61015,"lng":135.615508,"zip":"5810027"},{"town":"恩智南町二丁目","koaza":"","lat":34.605735,"lng":135.629729,"zip":"5810884"},{"town":"本町七丁目","koaza":"","lat":34.630179,"lng":135.600285,"zip":"5810003"},{"town":"弓削町一丁目","koaza":"","lat":34.599503,"lng":135.61317,"zip":"5810032"},{"town":"水越六丁目","koaza":"","lat":34.63517,"lng":135.643031,"zip":"5810856"},{"town":"北久宝寺一丁目","koaza":"","lat":34.6314,"lng":135.588737,"zip":"5810071"},{"town":"南本町一丁目","koaza":"","lat":34.624875,"lng":135.604791,"zip":"5810081"},{"town":"神立二丁目","koaza":"","lat":34.63291,"lng":135.650821,"zip":"5810855"},{"town":"南本町七丁目","koaza":"","lat":34.616109,"lng":135.606692,"zip":"5810081"},{"town":"萱振町二丁目","koaza":"","lat":34.637947,"lng":135.606814,"zip":"5810834"},{"town":"本町五丁目","koaza":"","lat":34.629456,"lng":135.598179,"zip":"5810003"},{"town":"宮町五丁目","koaza":"","lat":34.641041,"lng":135.597436,"zip":"5810815"},{"town":"中田二丁目","koaza":"","lat":34.619187,"lng":135.618262,"zip":"5810014"},{"town":"教興寺七丁目","koaza":"","lat":34.618738,"lng":135.634966,"zip":"5810874"},{"town":"若草町","koaza":"","lat":34.627031,"lng":135.610487,"zip":"5810011"},{"town":"青山町三丁目","koaza":"","lat":34.622974,"lng":135.613085,"zip":"5810018"},{"town":"山本町南五丁目","koaza":"","lat":34.622662,"lng":135.62223,"zip":"5810013"},{"town":"南本町四丁目","koaza":"","lat":34.621937,"lng":135.606351,"zip":"5810081"},{"town":"山本高安町二丁目","koaza":"","lat":34.617608,"lng":135.62331,"zip":"5810021"},{"town":"福万寺町六丁目","koaza":"","lat":34.644984,"lng":135.622389,"zip":"5810842"},{"town":"萱振町一丁目","koaza":"","lat":34.635181,"lng":135.605931,"zip":"5810834"},{"town":"刑部三丁目","koaza":"","lat":34.613293,"lng":135.618515,"zip":"5810015"},{"town":"上尾町九丁目","koaza":"","lat":34.642946,"lng":135.630106,"zip":"5810851"},{"town":"南植松町二丁目","koaza":"","lat":34.610655,"lng":135.595934,"zip":"5810091"},{"town":"安中町九丁目","koaza":"","lat":34.614324,"lng":135.603402,"zip":"5810085"},{"town":"光町一丁目","koaza":"","lat":34.631809,"lng":135.603985,"zip":"5810803"},{"town":"大竹六丁目","koaza":"","lat":34.637123,"lng":135.643033,"zip":"5810854"},{"town":"東山本新町一丁目","koaza":"","lat":34.626476,"lng":135.624479,"zip":"5810866"},{"town":"緑ヶ丘一丁目","koaza":"","lat":34.63574,"lng":135.608104,"zip":"5810000"},{"town":"北本町三丁目","koaza":"","lat":34.635797,"lng":135.603382,"zip":"5810802"},{"town":"神立六丁目","koaza":"","lat":34.638208,"lng":135.64798,"zip":"5810855"},{"town":"福万寺町七丁目","koaza":"","lat":34.645023,"lng":135.623593,"zip":"5810842"},{"town":"高町","koaza":"","lat":34.623616,"lng":135.594964,"zip":"5810073"},{"town":"萱振町七丁目","koaza":"","lat":34.642405,"lng":135.604439,"zip":"5810834"},{"town":"山本町南三丁目","koaza":"","lat":34.624289,"lng":135.620132,"zip":"5810013"},{"town":"北亀井町一丁目","koaza":"","lat":34.619684,"lng":135.580116,"zip":"5810066"},{"town":"神立四丁目","koaza":"","lat":34.636151,"lng":135.647756,"zip":"5810855"},{"town":"天王寺屋二丁目","koaza":"","lat":34.604599,"lng":135.61213,"zip":"5810025"},{"town":"竹渕東一丁目","koaza":"","lat":34.618669,"lng":135.571688,"zip":"5810053"},{"town":"萱振町五丁目","koaza":"","lat":34.641752,"lng":135.606595,"zip":"5810834"},{"town":"南本町八丁目","koaza":"","lat":34.613726,"lng":135.606795,"zip":"5810081"},{"town":"二俣三丁目","koaza":"","lat":34.597146,"lng":135.618648,"zip":"5810024"},{"town":"神立五丁目","koaza":"","lat":34.635666,"lng":135.651009,"zip":"5810855"},{"town":"西山本町一丁目","koaza":"","lat":34.628936,"lng":135.61487,"zip":"5810868"},{"town":"山本町南八丁目","koaza":"","lat":34.620728,"lng":135.616405,"zip":"5810013"},{"town":"南亀井町二丁目","koaza":"","lat":34.616499,"lng":135.576359,"zip":"5810054"},{"town":"木の本一丁目","koaza":"","lat":34.600331,"lng":135.587908,"zip":"5810044"},{"town":"黒谷二丁目","koaza":"","lat":34.619918,"lng":135.639502,"zip":"5810873"},{"town":"植松町五丁目","koaza":"","lat":34.615487,"lng":135.593968,"zip":"5810084"},{"town":"太田四丁目","koaza":"","lat":34.589715,"lng":135.589415,"zip":"5810037"},{"town":"太子堂二丁目","koaza":"","lat":34.616885,"lng":135.586608,"zip":"5810063"},{"town":"神立一丁目","koaza":"","lat":34.632822,"lng":135.648316,"zip":"5810855"},{"town":"楠根町二丁目","koaza":"","lat":34.640046,"lng":135.600683,"zip":"5810814"},{"town":"水越二丁目","koaza":"","lat":34.633704,"lng":135.638766,"zip":"5810856"},{"town":"福万寺町八丁目","koaza":"","lat":34.645064,"lng":135.62481,"zip":"5810842"},{"town":"高砂町三丁目","koaza":"","lat":34.649299,"lng":135.612339,"zip":"5810822"},{"town":"楽音寺七丁目","koaza":"","lat":34.643077,"lng":135.645054,"zip":"5810853"},{"town":"郡川二丁目","koaza":"","lat":34.623261,"lng":135.637693,"zip":"5810872"},{"town":"東山本町一丁目","koaza":"","lat":34.627955,"lng":135.623917,"zip":"5810847"},{"town":"本町三丁目","koaza":"","lat":34.626788,"lng":135.59668,"zip":"5810003"},{"town":"南太子堂三丁目","koaza":"","lat":34.611153,"lng":135.58775,"zip":"5810056"},{"town":"志紀町一丁目","koaza":"","lat":34.60284,"lng":135.61225,"zip":"5810031"},{"town":"南木の本七丁目","koaza":"","lat":34.600518,"lng":135.589131,"zip":"5810042"},{"town":"上之島町北三丁目","koaza":"","lat":34.638,"lng":135.62423,"zip":"5810845"},{"town":"安中町八丁目","koaza":"","lat":34.615807,"lng":135.6039,"zip":"5810085"},{"town":"久宝園三丁目","koaza":"","lat":34.63836,"lng":135.587465,"zip":"5810817"},{"town":"南木の本三丁目","koaza":"","lat":34.605368,"lng":135.588381,"zip":"5810042"},{"town":"柏村町二丁目","koaza":"","lat":34.615286,"lng":135.624244,"zip":"5810022"},{"town":"小畑町三丁目","koaza":"","lat":34.642172,"lng":135.612094,"zip":"5810835"},{"town":"上之島町北一丁目","koaza":"","lat":34.638007,"lng":135.620522,"zip":"5810845"},{"town":"南太子堂六丁目","koaza":"","lat":34.6135,"lng":135.583852,"zip":"5810056"},{"town":"二俣一丁目","koaza":"","lat":34.598642,"lng":135.618972,"zip":"5810024"},{"town":"南亀井町四丁目","koaza":"","lat":34.613342,"lng":135.578905,"zip":"5810054"},{"town":"高砂町一丁目","koaza":"","lat":34.648081,"lng":135.610777,"zip":"5810822"},{"town":"西弓削一丁目","koaza":"","lat":34.595905,"lng":135.608285,"zip":"5810035"},{"town":"久宝寺四丁目","koaza":"","lat":34.626242,"lng":135.5887,"zip":"5810072"},{"town":"永畑町一丁目","koaza":"","lat":34.612485,"lng":135.598528,"zip":"5810083"},{"town":"南本町九丁目","koaza":"","lat":34.611894,"lng":135.605809,"zip":"5810081"},{"town":"服部川三丁目","koaza":"","lat":34.626519,"lng":135.637172,"zip":"5810865"},{"town":"太田新町四丁目","koaza":"","lat":34.594216,"lng":135.595518,"zip":"5810039"},{"town":"南本町六丁目","koaza":"","lat":34.618222,"lng":135.606565,"zip":"5810081"},{"town":"志紀町南二丁目","koaza":"","lat":34.59721,"lng":135.61652,"zip":"5810033"},{"town":"太田二丁目","koaza":"","lat":34.591528,"lng":135.592142,"zip":"5810037"},{"town":"高美町六丁目","koaza":"","lat":34.61342,"lng":135.609183,"zip":"5810017"},{"town":"東山本町八丁目","koaza":"","lat":34.632071,"lng":135.626253,"zip":"5810847"},{"town":"神宮寺二丁目","koaza":"","lat":34.601,"lng":135.625122,"zip":"5810885"},{"town":"沼二丁目","koaza":"","lat":34.586318,"lng":135.602585,"zip":"5810036"},{"town":"千塚三丁目","koaza":"","lat":34.632137,"lng":135.643511,"zip":"5810862"},{"town":"南久宝寺二丁目","koaza":"","lat":34.623449,"lng":135.587639,"zip":"5810076"},{"town":"弓削町二丁目","koaza":"","lat":34.598027,"lng":135.611983,"zip":"5810032"},{"town":"桂町四丁目","koaza":"","lat":34.644423,"lng":135.610368,"zip":"5810823"},{"town":"南木の本四丁目","koaza":"","lat":34.603104,"lng":135.58676,"zip":"5810042"},{"town":"久宝園二丁目","koaza":"","lat":34.638854,"lng":135.589797,"zip":"5810817"},{"town":"南久宝寺一丁目","koaza":"","lat":34.624397,"lng":135.588199,"zip":"5810076"},{"town":"恩智北町三丁目","koaza":"","lat":34.611826,"lng":135.631755,"zip":"5810882"},{"town":"老原三丁目","koaza":"","lat":34.60737,"lng":135.601827,"zip":"5810092"},{"town":"教興寺一丁目","koaza":"","lat":34.620684,"lng":135.632397,"zip":"5810874"},{"town":"服部川八丁目","koaza":"","lat":34.624958,"lng":135.64521,"zip":"5810865"},{"town":"美園町二丁目","koaza":"","lat":34.638677,"lng":135.595029,"zip":"5810818"},{"town":"美園町三丁目","koaza":"","lat":34.639162,"lng":135.593746,"zip":"5810818"},{"town":"二俣二丁目","koaza":"","lat":34.597722,"lng":135.620412,"zip":"5810024"},{"town":"太田五丁目","koaza":"","lat":34.588675,"lng":135.593105,"zip":"5810037"},{"town":"楽音寺六丁目","koaza":"","lat":34.640869,"lng":135.644462,"zip":"5810853"},{"town":"東山本新町八丁目","koaza":"","lat":34.624893,"lng":135.630148,"zip":"5810866"},{"town":"山本高安町一丁目","koaza":"","lat":34.620932,"lng":135.623836,"zip":"5810021"},{"town":"東山本町五丁目","koaza":"","lat":34.632507,"lng":135.623393,"zip":"5810847"},{"town":"久宝寺一丁目","koaza":"","lat":34.626579,"lng":135.591813,"zip":"5810072"},{"town":"南太子堂四丁目","koaza":"","lat":34.61091,"lng":135.585743,"zip":"5810056"},{"town":"服部川五丁目","koaza":"","lat":34.62794,"lng":135.636042,"zip":"5810865"},{"town":"太田新町五丁目","koaza":"","lat":34.592242,"lng":135.596386,"zip":"5810039"},{"town":"志紀町西三丁目","koaza":"","lat":34.602981,"lng":135.609524,"zip":"5810094"},{"town":"長池町二丁目","koaza":"","lat":34.638629,"lng":135.611349,"zip":"5810836"},{"town":"八尾木北六丁目","koaza":"","lat":34.613251,"lng":135.616374,"zip":"5810016"},{"town":"安中町三丁目","koaza":"","lat":34.619152,"lng":135.595258,"zip":"5810085"},{"town":"水越一丁目","koaza":"","lat":34.634636,"lng":135.635036,"zip":"5810856"},{"town":"久宝寺六丁目","koaza":"","lat":34.628614,"lng":135.585668,"zip":"5810072"},{"town":"神宮寺一丁目","koaza":"","lat":34.600362,"lng":135.622797,"zip":"5810885"},{"town":"老原五丁目","koaza":"","lat":34.609548,"lng":135.599382,"zip":"5810092"},{"town":"久宝寺三丁目","koaza":"","lat":34.62875,"lng":135.588197,"zip":"5810072"},{"town":"相生町四丁目","koaza":"","lat":34.610386,"lng":135.605463,"zip":"5810082"},{"town":"楽音寺一丁目","koaza":"","lat":34.642716,"lng":135.636219,"zip":"5810853"},{"town":"老原七丁目","koaza":"","lat":34.60423,"lng":135.599283,"zip":"5810092"},{"town":"北本町二丁目","koaza":"","lat":34.631712,"lng":135.602375,"zip":"5810802"},{"town":"黒谷六丁目","koaza":"","lat":34.61833,"lng":135.643344,"zip":"5810873"},{"town":"久宝寺二丁目","koaza":"","lat":34.628875,"lng":135.591248,"zip":"5810072"},{"town":"志紀町西二丁目","koaza":"","lat":34.599857,"lng":135.608353,"zip":"5810094"},{"town":"黒谷一丁目","koaza":"","lat":34.620543,"lng":135.636096,"zip":"5810873"},{"town":"龍華町一丁目","koaza":"","lat":34.620945,"lng":135.586193,"zip":"5810069"},{"town":"太田一丁目","koaza":"","lat":34.591496,"lng":135.594751,"zip":"5810037"},{"town":"太田新町三丁目","koaza":"","lat":34.593407,"lng":135.589604,"zip":"5810039"},{"town":"恩智中町三丁目","koaza":"","lat":34.607204,"lng":135.629853,"zip":"5810883"},{"town":"小畑町二丁目","koaza":"","lat":34.642116,"lng":135.609567,"zip":"5810835"},{"town":"服部川四丁目","koaza":"","lat":34.625204,"lng":135.640506,"zip":"5810865"},{"town":"刑部一丁目","koaza":"","lat":34.61779,"lng":135.619738,"zip":"5810015"},{"town":"大竹一丁目","koaza":"","lat":34.637823,"lng":135.635496,"zip":"5810854"},{"town":"木の本二丁目","koaza":"","lat":34.600001,"lng":135.586302,"zip":"5810044"},{"town":"東老原二丁目","koaza":"","lat":34.606435,"lng":135.608193,"zip":"5810093"},{"town":"服部川一丁目","koaza":"","lat":34.625922,"lng":135.633573,"zip":"5810865"},{"town":"八尾木北五丁目","koaza":"","lat":34.61331,"lng":135.61371,"zip":"5810016"},{"town":"志紀町南四丁目","koaza":"","lat":34.593947,"lng":135.615722,"zip":"5810033"},{"town":"刑部二丁目","koaza":"","lat":34.615819,"lng":135.619754,"zip":"5810015"},{"town":"恩智北町二丁目","koaza":"","lat":34.612008,"lng":135.629414,"zip":"5810882"},{"town":"大竹三丁目","koaza":"","lat":34.637072,"lng":135.63916,"zip":"5810854"},{"town":"神宮寺四丁目","koaza":"","lat":34.60145,"lng":135.630409,"zip":"5810885"},{"town":"緑ヶ丘五丁目","koaza":"","lat":34.635154,"lng":135.612794,"zip":"5810000"},{"town":"太田新町六丁目","koaza":"","lat":34.593977,"lng":135.599197,"zip":"5810039"},{"town":"美園町四丁目","koaza":"","lat":34.639617,"lng":135.59203,"zip":"5810818"},{"town":"大竹五丁目","koaza":"","lat":34.639655,"lng":135.639346,"zip":"5810854"},{"town":"恩智北町一丁目","koaza":"","lat":34.612248,"lng":135.626818,"zip":"5810882"},{"town":"青山町四丁目","koaza":"","lat":34.621138,"lng":135.61143,"zip":"5810018"},{"town":"大字垣内","koaza":"","lat":34.611375,"lng":135.643262,"zip":"5810000"},{"town":"志紀町西一丁目","koaza":"","lat":34.602912,"lng":135.608007,"zip":"5810094"},{"town":"神宮寺三丁目","koaza":"","lat":34.601423,"lng":135.627707,"zip":"5810885"},{"town":"泉町一丁目","koaza":"","lat":34.645035,"lng":135.604388,"zip":"5810813"},{"town":"北木の本五丁目","koaza":"","lat":34.608093,"lng":135.588623,"zip":"5810041"},{"town":"太田新町一丁目","koaza":"","lat":34.595704,"lng":135.586936,"zip":"5810039"},{"town":"西弓削二丁目","koaza":"","lat":34.594437,"lng":135.608163,"zip":"5810035"},{"town":"黒谷五丁目","koaza":"","lat":34.617079,"lng":135.642263,"zip":"5810873"},{"town":"恩智中町五丁目","koaza":"","lat":34.606518,"lng":135.635016,"zip":"5810883"},{"town":"刑部四丁目","koaza":"","lat":34.613156,"lng":135.620768,"zip":"5810015"},{"town":"弓削町南二丁目","koaza":"","lat":34.594989,"lng":135.612358,"zip":"5810034"},{"town":"恩智中町四丁目","koaza":"","lat":34.608366,"lng":135.634504,"zip":"5810883"},{"town":"太田七丁目","koaza":"","lat":34.589565,"lng":135.600592,"zip":"5810037"},{"town":"西弓削三丁目","koaza":"","lat":34.591521,"lng":135.606876,"zip":"5810035"},{"town":"沼四丁目","koaza":"","lat":34.58812,"lng":135.60682,"zip":"5810036"},{"town":"服部川六丁目","koaza":"","lat":34.627481,"lng":135.641843,"zip":"5810865"},{"town":"大字木本","koaza":"","lat":34.598399,"lng":135.582603,"zip":"5810000"},{"town":"太田新町七丁目","koaza":"","lat":34.591561,"lng":135.599591,"zip":"5810039"},{"town":"山本町南七丁目","koaza":"","lat":34.620329,"lng":135.620316,"zip":"5810013"},{"town":"南木の本九丁目","koaza":"","lat":34.600667,"lng":135.593439,"zip":"5810042"},{"town":"千塚二丁目","koaza":"","lat":34.632198,"lng":135.638585,"zip":"5810862"},{"town":"太田六丁目","koaza":"","lat":34.588554,"lng":135.595963,"zip":"5810037"},{"town":"郡川六丁目","koaza":"","lat":34.621001,"lng":135.644721,"zip":"5810872"},{"town":"太田新町九丁目","koaza":"","lat":34.591525,"lng":135.603303,"zip":"5810039"},{"town":"恩智南町三丁目","koaza":"","lat":34.604024,"lng":135.629477,"zip":"5810884"},{"town":"太田新町八丁目","koaza":"","lat":34.594097,"lng":135.602875,"zip":"5810039"},{"town":"郡川一丁目","koaza":"","lat":34.623097,"lng":135.632971,"zip":"5810872"},{"town":"大竹七丁目","koaza":"","lat":34.639362,"lng":135.644181,"zip":"5810854"},{"town":"老原八丁目","koaza":"","lat":34.607522,"lng":135.596486,"zip":"5810092"},{"town":"沼三丁目","koaza":"","lat":34.585121,"lng":135.603159,"zip":"5810036"},{"town":"若林町一丁目","koaza":"","lat":34.596524,"lng":135.581659,"zip":"5810038"},{"town":"恩智中町二丁目","koaza":"","lat":34.609231,"lng":135.630029,"zip":"5810883"},{"town":"若林町二丁目","koaza":"","lat":34.594729,"lng":135.583616,"zip":"5810038"},{"town":"老原九丁目","koaza":"","lat":34.604123,"lng":135.596243,"zip":"5810092"},{"town":"老原四丁目","koaza":"","lat":34.604411,"lng":135.602994,"zip":"5810092"},{"town":"老原一丁目","koaza":"","lat":34.607603,"lng":135.604286,"zip":"5810092"},{"town":"南木の本二丁目","koaza":"","lat":34.604319,"lng":135.591508,"zip":"5810042"},{"town":"光町二丁目","koaza":"","lat":34.631276,"lng":135.605835,"zip":"5810803"},{"town":"大字都塚","koaza":"","lat":34.606099,"lng":135.620706,"zip":"5810000"},{"town":"太田三丁目","koaza":"","lat":34.591225,"lng":135.58866,"zip":"5810037"},{"town":"龍華町二丁目","koaza":"","lat":34.622609,"lng":135.581545,"zip":"5810069"},{"town":"大字山畑","koaza":"","lat":34.627418,"lng":135.647736,"zip":"5810000"},{"town":"大字刑部","koaza":"","lat":34.609666,"lng":135.621801,"zip":"5810000"},{"town":"沼一丁目","koaza":"","lat":34.588105,"lng":135.602263,"zip":"5810036"},{"town":"恩智北町四丁目","koaza":"","lat":34.611593,"lng":135.634452,"zip":"5810882"},{"town":"北亀井町三丁目","koaza":"","lat":34.621728,"lng":135.578408,"zip":"5810066"},{"town":"若林町三丁目","koaza":"","lat":34.593162,"lng":135.580176,"zip":"5810038"},{"town":"太田九丁目","koaza":"","lat":34.587816,"lng":135.588997,"zip":"5810037"},{"town":"大字郡川","koaza":"","lat":34.615792,"lng":135.649554,"zip":"5810000"},{"town":"大字黒谷","koaza":"","lat":34.611465,"lng":135.647658,"zip":"5810000"},{"town":"神武町","koaza":"","lat":34.624391,"lng":135.580483,"zip":"5810067"},{"town":"大字神宮寺","koaza":"","lat":34.601822,"lng":135.637956,"zip":"5810000"},{"town":"空港一丁目","koaza":"","lat":34.599673,"lng":135.601429,"zip":"5810043"},{"town":"西久宝寺","koaza":"","lat":34.629331,"lng":135.580189,"zip":"5810077"},{"town":"大字教興寺","koaza":"","lat":34.613174,"lng":135.655632,"zip":"5810000"},{"town":"空港二丁目","koaza":"","lat":34.597394,"lng":135.596518,"zip":"5810043"},{"town":"大字神立","koaza":"","lat":34.63563,"lng":135.657398,"zip":"5810000"},{"town":"大字楽音寺","koaza":"","lat":34.640919,"lng":135.654921,"zip":"5810000"},{"town":"大字服部川","koaza":"","lat":34.619447,"lng":135.653,"zip":"5810000"},{"town":"大字恩智","koaza":"","lat":34.605667,"lng":135.643328,"zip":"5810000"},{"town":"大字大窪","koaza":"","lat":34.628514,"lng":135.652113,"zip":"5810000"}]