[{"town":"鈴美台三丁目","koaza":"","lat":34.484205,"lng":135.641397,"zip":"5850026"},{"town":"鈴美台二丁目","koaza":"","lat":34.4838,"lng":135.644127,"zip":"5850026"},{"town":"さくら坂南","koaza":"","lat":34.474036,"lng":135.644081,"zip":"5850027"},{"town":"鈴美台一丁目","koaza":"","lat":34.48478,"lng":135.645888,"zip":"5850026"},{"town":"大宝五丁目","koaza":"","lat":34.49871,"lng":135.639442,"zip":"5850005"},{"town":"さくら坂三丁目","koaza":"","lat":34.479078,"lng":135.644864,"zip":"5850025"},{"town":"さくら坂二丁目","koaza":"","lat":34.476232,"lng":135.644569,"zip":"5850025"},{"town":"さくら坂四丁目","koaza":"","lat":34.479104,"lng":135.64797,"zip":"5850025"},{"town":"大字大ヶ塚","koaza":"","lat":34.504738,"lng":135.626952,"zip":"5850000"},{"town":"さくら坂一丁目","koaza":"","lat":34.476163,"lng":135.648207,"zip":"5850025"},{"town":"大宝三丁目","koaza":"","lat":34.505079,"lng":135.638047,"zip":"5850005"},{"town":"大字馬谷","koaza":"","lat":34.472939,"lng":135.636282,"zip":"5850000"},{"town":"大宝一丁目","koaza":"","lat":34.50386,"lng":135.633182,"zip":"5850005"},{"town":"大宝二丁目","koaza":"","lat":34.505953,"lng":135.634545,"zip":"5850005"},{"town":"大宝四丁目","koaza":"","lat":34.500631,"lng":135.637254,"zip":"5850005"},{"town":"さくら坂五丁目","koaza":"","lat":34.481757,"lng":135.645696,"zip":"5850025"},{"town":"大字山城","koaza":"","lat":34.50278,"lng":135.623663,"zip":"5850000"},{"town":"大字芹生谷","koaza":"","lat":34.465407,"lng":135.638714,"zip":"5850000"},{"town":"大字東山","koaza":"","lat":34.5104,"lng":135.63061,"zip":"5850000"},{"town":"大字寺田","koaza":"","lat":34.49732,"lng":135.633553,"zip":"5850000"},{"town":"大字神山","koaza":"","lat":34.478428,"lng":135.621838,"zip":"5850000"},{"town":"大字一須賀","koaza":"","lat":34.509872,"lng":135.621873,"zip":"5850000"},{"town":"大字下河内","koaza":"","lat":34.471771,"lng":135.650173,"zip":"5850000"},{"town":"大字中","koaza":"","lat":34.474469,"lng":135.63067,"zip":"5850000"},{"town":"大字弘川","koaza":"","lat":34.472,"lng":135.658534,"zip":"5850000"},{"town":"大字寛弘寺","koaza":"","lat":34.487762,"lng":135.619116,"zip":"5850000"},{"town":"大字加納","koaza":"","lat":34.490404,"lng":135.641892,"zip":"5850000"},{"town":"大字持尾","koaza":"","lat":34.484326,"lng":135.659456,"zip":"5850000"},{"town":"大字白木","koaza":"","lat":34.484362,"lng":135.632637,"zip":"5850000"},{"town":"大字上河内","koaza":"","lat":34.456881,"lng":135.652314,"zip":"5850000"},{"town":"大字平石","koaza":"","lat":34.485874,"lng":135.676642,"zip":"5850000"}]