[{"town":"南正雀五丁目","koaza":"","lat":34.769232,"lng":135.550052,"zip":"5640012"},{"town":"千里山霧が丘","koaza":"","lat":34.779815,"lng":135.505972,"zip":"5650844"},{"town":"千里山星が丘","koaza":"","lat":34.780293,"lng":135.507531,"zip":"5650845"},{"town":"千里山虹が丘","koaza":"","lat":34.781324,"lng":135.50825,"zip":"5650846"},{"town":"清和園町","koaza":"","lat":34.757005,"lng":135.518031,"zip":"5640039"},{"town":"千里山竹園二丁目","koaza":"","lat":34.786192,"lng":135.501761,"zip":"5650852"},{"town":"寿町一丁目","koaza":"","lat":34.756447,"lng":135.520114,"zip":"5640036"},{"town":"泉町三丁目","koaza":"","lat":34.758594,"lng":135.511298,"zip":"5640041"},{"town":"朝日町","koaza":"","lat":34.761989,"lng":135.52577,"zip":"5640027"},{"town":"上山田","koaza":"","lat":34.825713,"lng":135.518151,"zip":"5650872"},{"town":"岸部北一丁目","koaza":"","lat":34.780143,"lng":135.527602,"zip":"5640001"},{"town":"五月が丘西","koaza":"","lat":34.786912,"lng":135.522062,"zip":"5650833"},{"town":"高浜町","koaza":"","lat":34.759818,"lng":135.527286,"zip":"5640026"},{"town":"金田町","koaza":"","lat":34.758716,"lng":135.507952,"zip":"5640045"},{"town":"佐竹台二丁目","koaza":"","lat":34.791681,"lng":135.513291,"zip":"5650855"},{"town":"内本町二丁目","koaza":"","lat":34.757426,"lng":135.524553,"zip":"5640032"},{"town":"末広町","koaza":"","lat":34.765257,"lng":135.531485,"zip":"5640022"},{"town":"南正雀一丁目","koaza":"","lat":34.772706,"lng":135.545022,"zip":"5640012"},{"town":"佐竹台六丁目","koaza":"","lat":34.789068,"lng":135.521738,"zip":"5650855"},{"town":"高城町","koaza":"","lat":34.761646,"lng":135.529747,"zip":"5640024"},{"town":"津雲台四丁目","koaza":"","lat":34.80178,"lng":135.508154,"zip":"5650862"},{"town":"佐井寺南が丘","koaza":"","lat":34.780181,"lng":135.517684,"zip":"5650837"},{"town":"内本町一丁目","koaza":"","lat":34.758091,"lng":135.521935,"zip":"5640032"},{"town":"岸部中四丁目","koaza":"","lat":34.781113,"lng":135.536732,"zip":"5640002"},{"town":"山田市場","koaza":"","lat":34.79082,"lng":135.538769,"zip":"5650822"},{"town":"泉町五丁目","koaza":"","lat":34.762904,"lng":135.511589,"zip":"5640041"},{"town":"竹見台三丁目","koaza":"","lat":34.794703,"lng":135.503217,"zip":"5650863"},{"town":"南正雀三丁目","koaza":"","lat":34.769851,"lng":135.544006,"zip":"5640012"},{"town":"南清和園町","koaza":"","lat":34.753702,"lng":135.51547,"zip":"5640038"},{"town":"岸部中二丁目","koaza":"","lat":34.776448,"lng":135.534065,"zip":"5640002"},{"town":"尺谷","koaza":"","lat":34.795154,"lng":135.539226,"zip":"5650818"},{"town":"千里山西二丁目","koaza":"","lat":34.771882,"lng":135.501273,"zip":"5650851"},{"town":"片山町三丁目","koaza":"","lat":34.767126,"lng":135.522193,"zip":"5640082"},{"town":"山手町一丁目","koaza":"","lat":34.767225,"lng":135.513474,"zip":"5640073"},{"town":"佐井寺二丁目","koaza":"","lat":34.783125,"lng":135.516919,"zip":"5650836"},{"town":"泉町一丁目","koaza":"","lat":34.758055,"lng":135.516425,"zip":"5640041"},{"town":"南正雀四丁目","koaza":"","lat":34.76716,"lng":135.540961,"zip":"5640012"},{"town":"泉町四丁目","koaza":"","lat":34.760759,"lng":135.510722,"zip":"5640041"},{"town":"樫切山","koaza":"","lat":34.795697,"lng":135.536867,"zip":"5650806"},{"town":"長野西","koaza":"","lat":34.790998,"lng":135.540839,"zip":"5650817"},{"town":"元町","koaza":"","lat":34.760596,"lng":135.523008,"zip":"5640031"},{"town":"平松町","koaza":"","lat":34.770423,"lng":135.534391,"zip":"5640016"},{"town":"岸部中五丁目","koaza":"","lat":34.781939,"lng":135.539094,"zip":"5640002"},{"town":"岸部北二丁目","koaza":"","lat":34.779231,"lng":135.531474,"zip":"5640001"},{"town":"竹見台一丁目","koaza":"","lat":34.795222,"lng":135.505313,"zip":"5650863"},{"town":"千里山東一丁目","koaza":"","lat":34.773722,"lng":135.507338,"zip":"5650842"},{"town":"山手町二丁目","koaza":"","lat":34.766161,"lng":135.509818,"zip":"5640073"},{"town":"佐井寺三丁目","koaza":"","lat":34.785727,"lng":135.516976,"zip":"5650836"},{"town":"千里山東二丁目","koaza":"","lat":34.777194,"lng":135.507783,"zip":"5650842"},{"town":"佐竹台五丁目","koaza":"","lat":34.790571,"lng":135.517756,"zip":"5650855"},{"town":"南吹田一丁目","koaza":"","lat":34.751626,"lng":135.512127,"zip":"5640043"},{"town":"目俵町","koaza":"","lat":34.767333,"lng":135.531265,"zip":"5640021"},{"town":"春日四丁目","koaza":"","lat":34.784828,"lng":135.499325,"zip":"5650853"},{"town":"春日三丁目","koaza":"","lat":34.785887,"lng":135.495642,"zip":"5650853"},{"town":"幸町","koaza":"","lat":34.76874,"lng":135.536475,"zip":"5640015"},{"town":"江坂町五丁目","koaza":"","lat":34.76926,"lng":135.498366,"zip":"5640063"},{"town":"古江台二丁目","koaza":"","lat":34.814774,"lng":135.507179,"zip":"5650874"},{"town":"新芦屋下","koaza":"","lat":34.800288,"lng":135.553994,"zip":"5650803"},{"town":"岸部北三丁目","koaza":"","lat":34.781981,"lng":135.533299,"zip":"5640001"},{"town":"佐竹台三丁目","koaza":"","lat":34.788721,"lng":135.512502,"zip":"5650855"},{"town":"昭和町","koaza":"","lat":34.764063,"lng":135.527322,"zip":"5640028"},{"town":"千里山高塚","koaza":"","lat":34.781984,"lng":135.512038,"zip":"5650848"},{"town":"寿町二丁目","koaza":"","lat":34.754006,"lng":135.520691,"zip":"5640036"},{"town":"泉町二丁目","koaza":"","lat":34.759665,"lng":135.514451,"zip":"5640041"},{"town":"津雲台七丁目","koaza":"","lat":34.805275,"lng":135.505865,"zip":"5650862"},{"town":"南金田一丁目","koaza":"","lat":34.755105,"lng":135.507898,"zip":"5640044"},{"town":"岸部中三丁目","koaza":"","lat":34.778942,"lng":135.536002,"zip":"5640002"},{"town":"桃山台四丁目","koaza":"","lat":34.788491,"lng":135.498972,"zip":"5650854"},{"town":"岸部南一丁目","koaza":"","lat":34.775644,"lng":135.543571,"zip":"5640011"},{"town":"青山台一丁目","koaza":"","lat":34.819598,"lng":135.504801,"zip":"5650875"},{"town":"佐井寺一丁目","koaza":"","lat":34.784182,"lng":135.519708,"zip":"5650836"},{"town":"古江台四丁目","koaza":"","lat":34.81839,"lng":135.51085,"zip":"5650874"},{"town":"千里山松が丘","koaza":"","lat":34.779722,"lng":135.510669,"zip":"5650843"},{"town":"藤が丘町","koaza":"","lat":34.771073,"lng":135.523421,"zip":"5640081"},{"town":"五月が丘東","koaza":"","lat":34.786635,"lng":135.528228,"zip":"5650831"},{"town":"春日一丁目","koaza":"","lat":34.781798,"lng":135.496282,"zip":"5650853"},{"town":"岸部中一丁目","koaza":"","lat":34.774057,"lng":135.53229,"zip":"5640002"},{"town":"竹見台二丁目","koaza":"","lat":34.797863,"lng":135.503777,"zip":"5650863"},{"town":"千里山月が丘","koaza":"","lat":34.783908,"lng":135.509234,"zip":"5650847"},{"town":"佐竹台四丁目","koaza":"","lat":34.788466,"lng":135.517248,"zip":"5650855"},{"town":"日の出町","koaza":"","lat":34.763414,"lng":135.533331,"zip":"5640023"},{"town":"原町一丁目","koaza":"","lat":34.77441,"lng":135.526953,"zip":"5640004"},{"town":"山手町四丁目","koaza":"","lat":34.772228,"lng":135.51607,"zip":"5640073"},{"town":"山田北","koaza":"","lat":34.808138,"lng":135.519289,"zip":"5650825"},{"town":"千里丘下","koaza":"","lat":34.793761,"lng":135.548475,"zip":"5650813"},{"town":"竹谷町","koaza":"","lat":34.779576,"lng":135.521794,"zip":"5650835"},{"town":"桃山台一丁目","koaza":"","lat":34.791456,"lng":135.505404,"zip":"5650854"},{"town":"春日二丁目","koaza":"","lat":34.783788,"lng":135.493124,"zip":"5650853"},{"town":"吹東町","koaza":"","lat":34.766589,"lng":135.537477,"zip":"5640014"},{"town":"片山町一丁目","koaza":"","lat":34.766665,"lng":135.526095,"zip":"5640082"},{"town":"高野台一丁目","koaza":"","lat":34.793488,"lng":135.514414,"zip":"5650861"},{"town":"津雲台三丁目","koaza":"","lat":34.799769,"lng":135.510334,"zip":"5650862"},{"town":"古江台三丁目","koaza":"","lat":34.817988,"lng":135.507177,"zip":"5650874"},{"town":"高野台四丁目","koaza":"","lat":34.79339,"lng":135.519643,"zip":"5650861"},{"town":"岸部北五丁目","koaza":"","lat":34.785229,"lng":135.534788,"zip":"5640001"},{"town":"川岸町","koaza":"","lat":34.75154,"lng":135.516016,"zip":"5640037"},{"town":"南正雀二丁目","koaza":"","lat":34.770812,"lng":135.547574,"zip":"5640012"},{"town":"竹見台四丁目","koaza":"","lat":34.794979,"lng":135.498156,"zip":"5650863"},{"town":"原町四丁目","koaza":"","lat":34.776193,"lng":135.530214,"zip":"5640004"},{"town":"千里丘西","koaza":"","lat":34.796742,"lng":135.542579,"zip":"5650814"},{"town":"佐井寺四丁目","koaza":"","lat":34.785811,"lng":135.512229,"zip":"5650836"},{"town":"佐竹台一丁目","koaza":"","lat":34.790596,"lng":135.50984,"zip":"5650855"},{"town":"五月が丘北","koaza":"","lat":34.788401,"lng":135.525472,"zip":"5650834"},{"town":"高野台五丁目","koaza":"","lat":34.792659,"lng":135.524295,"zip":"5650861"},{"town":"津雲台五丁目","koaza":"","lat":34.802691,"lng":135.513419,"zip":"5650862"},{"town":"中の島町","koaza":"","lat":34.751956,"lng":135.521944,"zip":"5640035"},{"town":"千里山東四丁目","koaza":"","lat":34.778497,"lng":135.513976,"zip":"5650842"},{"town":"片山町四丁目","koaza":"","lat":34.770306,"lng":135.526413,"zip":"5640082"},{"town":"桃山台三丁目","koaza":"","lat":34.789593,"lng":135.502887,"zip":"5650854"},{"town":"原町三丁目","koaza":"","lat":34.778072,"lng":135.524406,"zip":"5640004"},{"town":"東御旅町","koaza":"","lat":34.751443,"lng":135.528289,"zip":"5640033"},{"town":"藤白台一丁目","koaza":"","lat":34.81412,"lng":135.516502,"zip":"5650873"},{"town":"桃山台二丁目","koaza":"","lat":34.791544,"lng":135.500269,"zip":"5650854"},{"town":"原町二丁目","koaza":"","lat":34.77555,"lng":135.522506,"zip":"5640004"},{"town":"青山台二丁目","koaza":"","lat":34.822203,"lng":135.503069,"zip":"5650875"},{"town":"内本町三丁目","koaza":"","lat":34.75526,"lng":135.525337,"zip":"5640032"},{"town":"垂水町二丁目","koaza":"","lat":34.760845,"lng":135.506765,"zip":"5640062"},{"town":"五月が丘南","koaza":"","lat":34.783429,"lng":135.523447,"zip":"5650832"},{"town":"岸部南二丁目","koaza":"","lat":34.773166,"lng":135.541253,"zip":"5640011"},{"town":"津雲台二丁目","koaza":"","lat":34.800648,"lng":135.506198,"zip":"5650862"},{"town":"岸部南三丁目","koaza":"","lat":34.771344,"lng":135.538398,"zip":"5640011"},{"town":"高野台三丁目","koaza":"","lat":34.795814,"lng":135.519823,"zip":"5650861"},{"town":"千里山西一丁目","koaza":"","lat":34.775114,"lng":135.504453,"zip":"5650851"},{"town":"千里山西五丁目","koaza":"","lat":34.780712,"lng":135.503432,"zip":"5650851"},{"town":"千里山竹園一丁目","koaza":"","lat":34.78182,"lng":135.499471,"zip":"5650852"},{"town":"津雲台六丁目","koaza":"","lat":34.804615,"lng":135.509684,"zip":"5650862"},{"town":"藤白台二丁目","koaza":"","lat":34.817823,"lng":135.518015,"zip":"5650873"},{"town":"江坂町四丁目","koaza":"","lat":34.769385,"lng":135.494568,"zip":"5640063"},{"town":"山田西四丁目","koaza":"","lat":34.804139,"lng":135.517664,"zip":"5650824"},{"town":"西御旅町","koaza":"","lat":34.75,"lng":135.523657,"zip":"5640034"},{"town":"千里山西三丁目","koaza":"","lat":34.774017,"lng":135.499757,"zip":"5650851"},{"town":"南吹田三丁目","koaza":"","lat":34.750383,"lng":135.507825,"zip":"5640043"},{"town":"千里丘上","koaza":"","lat":34.796779,"lng":135.550966,"zip":"5650811"},{"town":"千里山西四丁目","koaza":"","lat":34.778319,"lng":135.500324,"zip":"5650851"},{"town":"南吹田二丁目","koaza":"","lat":34.747251,"lng":135.509843,"zip":"5640043"},{"town":"藤白台四丁目","koaza":"","lat":34.822609,"lng":135.513068,"zip":"5650873"},{"town":"津雲台一丁目","koaza":"","lat":34.795394,"lng":135.509144,"zip":"5650862"},{"town":"広芝町","koaza":"","lat":34.754953,"lng":135.498888,"zip":"5640052"},{"town":"川園町","koaza":"","lat":34.763316,"lng":135.538691,"zip":"5640013"},{"town":"新芦屋上","koaza":"","lat":34.801305,"lng":135.550256,"zip":"5650804"},{"town":"江坂町一丁目","koaza":"","lat":34.760905,"lng":135.499026,"zip":"5640063"},{"town":"南金田二丁目","koaza":"","lat":34.75523,"lng":135.503812,"zip":"5640044"},{"town":"清水","koaza":"","lat":34.803328,"lng":135.543054,"zip":"5650805"},{"town":"桃山台五丁目","koaza":"","lat":34.789711,"lng":135.494824,"zip":"5650854"},{"town":"千里丘北","koaza":"","lat":34.80153,"lng":135.54531,"zip":"5650815"},{"town":"千里丘中","koaza":"","lat":34.797165,"lng":135.546082,"zip":"5650812"},{"town":"上山手町","koaza":"","lat":34.776527,"lng":135.518366,"zip":"5650841"},{"town":"穂波町","koaza":"","lat":34.754789,"lng":135.511977,"zip":"5640042"},{"town":"南高浜町","koaza":"","lat":34.757585,"lng":135.529116,"zip":"5640025"},{"town":"藤白台三丁目","koaza":"","lat":34.819024,"lng":135.514189,"zip":"5650873"},{"town":"江坂町二丁目","koaza":"","lat":34.763181,"lng":135.493011,"zip":"5640063"},{"town":"出口町","koaza":"","lat":34.764404,"lng":135.514904,"zip":"5640072"},{"town":"千里山西六丁目","koaza":"","lat":34.785575,"lng":135.505522,"zip":"5650851"},{"town":"朝日が丘町","koaza":"","lat":34.772247,"lng":135.519482,"zip":"5640083"},{"town":"長野東","koaza":"","lat":34.793418,"lng":135.542477,"zip":"5650816"},{"town":"青葉丘北","koaza":"","lat":34.808016,"lng":135.549084,"zip":"5650801"},{"town":"古江台六丁目","koaza":"","lat":34.808484,"lng":135.512686,"zip":"5650874"},{"town":"高野台二丁目","koaza":"","lat":34.798156,"lng":135.514222,"zip":"5650861"},{"town":"山手町三丁目","koaza":"","lat":34.770436,"lng":135.509812,"zip":"5640073"},{"town":"片山町二丁目","koaza":"","lat":34.767732,"lng":135.517194,"zip":"5640082"},{"town":"山田東三丁目","koaza":"","lat":34.800609,"lng":135.532061,"zip":"5650821"},{"town":"西の庄町","koaza":"","lat":34.76191,"lng":135.519933,"zip":"5640071"},{"town":"古江台一丁目","koaza":"","lat":34.810214,"lng":135.509688,"zip":"5650874"},{"town":"山田東一丁目","koaza":"","lat":34.79595,"lng":135.532996,"zip":"5650821"},{"town":"千里山東三丁目","koaza":"","lat":34.774962,"lng":135.511904,"zip":"5650842"},{"town":"山田東二丁目","koaza":"","lat":34.798536,"lng":135.52862,"zip":"5650821"},{"town":"岸部北四丁目","koaza":"","lat":34.783504,"lng":135.529377,"zip":"5640001"},{"town":"古江台五丁目","koaza":"","lat":34.812901,"lng":135.513037,"zip":"5650874"},{"town":"青山台四丁目","koaza":"","lat":34.824111,"lng":135.506302,"zip":"5650875"},{"town":"青山台三丁目","koaza":"","lat":34.825557,"lng":135.500674,"zip":"5650875"},{"town":"山田西二丁目","koaza":"","lat":34.794672,"lng":135.527755,"zip":"5650824"},{"town":"南吹田五丁目","koaza":"","lat":34.751867,"lng":135.501042,"zip":"5640043"},{"town":"山田南","koaza":"","lat":34.789433,"lng":135.536489,"zip":"5650823"},{"town":"垂水町三丁目","koaza":"","lat":34.760767,"lng":135.502832,"zip":"5640062"},{"town":"南吹田四丁目","koaza":"","lat":34.747867,"lng":135.503446,"zip":"5640043"},{"town":"青葉丘南","koaza":"","lat":34.805019,"lng":135.552169,"zip":"5650802"},{"town":"円山町","koaza":"","lat":34.768852,"lng":135.504437,"zip":"5640061"},{"town":"江の木町","koaza":"","lat":34.754129,"lng":135.494427,"zip":"5640053"},{"town":"芳野町","koaza":"","lat":34.753721,"lng":135.4894,"zip":"5640054"},{"town":"垂水町一丁目","koaza":"","lat":34.76663,"lng":135.501073,"zip":"5640062"},{"town":"江坂町三丁目","koaza":"","lat":34.766857,"lng":135.492918,"zip":"5640063"},{"town":"山田西三丁目","koaza":"","lat":34.800452,"lng":135.519931,"zip":"5650824"},{"town":"山田西一丁目","koaza":"","lat":34.791246,"lng":135.530652,"zip":"5650824"},{"town":"豊津町","koaza":"","lat":34.759768,"lng":135.492771,"zip":"5640051"},{"town":"山田東四丁目","koaza":"","lat":34.8038,"lng":135.525113,"zip":"5650821"},{"town":"藤白台五丁目","koaza":"","lat":34.825429,"lng":135.512693,"zip":"5650873"},{"town":"山田丘","koaza":"","lat":34.820917,"lng":135.524003,"zip":"5650871"},{"town":"千里万博公園","koaza":"","lat":34.807748,"lng":135.533154,"zip":"5650826"},{"town":"天道町","koaza":"","lat":34.770323,"lng":135.529539,"zip":"5640003"},{"town":"岸部新町","koaza":"","lat":34.77626,"lng":135.537356,"zip":"5640018"},{"town":"芝田町","koaza":"","lat":34.775063,"lng":135.537744,"zip":"5640017"}]