[{"town":"葛の葉町","koaza":"","lat":34.50429,"lng":135.444826,"zip":"5940081"},{"town":"寺門町","koaza":"","lat":34.476962,"lng":135.432624,"zip":"5940064"},{"town":"舞町","koaza":"","lat":34.512802,"lng":135.450061,"zip":"5940001"},{"town":"唐国町","koaza":"","lat":34.440843,"lng":135.44344,"zip":"5941151"},{"town":"内田町","koaza":"","lat":34.442349,"lng":135.442879,"zip":"5941156"},{"town":"府中町八丁目","koaza":"","lat":34.489455,"lng":135.423347,"zip":"5940071"},{"town":"富秋町三丁目","koaza":"","lat":34.510931,"lng":135.430716,"zip":"5940082"},{"town":"王子町一丁目","koaza":"","lat":34.505215,"lng":135.438277,"zip":"5940004"},{"town":"尾井町二丁目","koaza":"","lat":34.505708,"lng":135.443908,"zip":"5940006"},{"town":"伏屋町","koaza":"","lat":34.471992,"lng":135.471544,"zip":"5940031"},{"town":"幸一丁目","koaza":"","lat":34.50321,"lng":135.436441,"zip":"5940005"},{"town":"今福町二丁目","koaza":"","lat":34.473382,"lng":135.427723,"zip":"5940063"},{"town":"池上町","koaza":"","lat":34.502749,"lng":135.431433,"zip":"5940083"},{"town":"弥生町四丁目","koaza":"","lat":34.471753,"lng":135.442708,"zip":"5940061"},{"town":"肥子町一丁目","koaza":"","lat":34.488038,"lng":135.422038,"zip":"5940076"},{"town":"寺田町三丁目","koaza":"","lat":34.468264,"lng":135.435319,"zip":"5940062"},{"town":"寺田町一丁目","koaza":"","lat":34.47026,"lng":135.435807,"zip":"5940062"},{"town":"弥生町三丁目","koaza":"","lat":34.470305,"lng":135.444609,"zip":"5940061"},{"town":"池上町一丁目","koaza":"","lat":34.498999,"lng":135.43284,"zip":"5940083"},{"town":"府中町七丁目","koaza":"","lat":34.489759,"lng":135.426774,"zip":"5940071"},{"town":"府中町三丁目","koaza":"","lat":34.485562,"lng":135.426609,"zip":"5940071"},{"town":"繁和町","koaza":"","lat":34.481078,"lng":135.417192,"zip":"5940075"},{"town":"箕形町六丁目","koaza":"","lat":34.460417,"lng":135.443378,"zip":"5940042"},{"town":"王子町二丁目","koaza":"","lat":34.504322,"lng":135.439999,"zip":"5940004"},{"town":"緑ケ丘三丁目","koaza":"","lat":34.445319,"lng":135.458987,"zip":"5941155"},{"town":"緑ケ丘一丁目","koaza":"","lat":34.448709,"lng":135.457029,"zip":"5941155"},{"town":"弥生町一丁目","koaza":"","lat":34.474128,"lng":135.436406,"zip":"5940061"},{"town":"箕形町四丁目","koaza":"","lat":34.463193,"lng":135.444645,"zip":"5940042"},{"town":"尾井町一丁目","koaza":"","lat":34.5072,"lng":135.440454,"zip":"5940006"},{"town":"箕形町一丁目","koaza":"","lat":34.467825,"lng":135.440148,"zip":"5940042"},{"town":"池上町二丁目","koaza":"","lat":34.497111,"lng":135.429042,"zip":"5940083"},{"town":"府中町二丁目","koaza":"","lat":34.484191,"lng":135.423453,"zip":"5940071"},{"town":"府中町一丁目","koaza":"","lat":34.486937,"lng":135.424626,"zip":"5940071"},{"town":"伯太町六丁目","koaza":"","lat":34.498164,"lng":135.434521,"zip":"5940023"},{"town":"のぞみ野二丁目","koaza":"","lat":34.454953,"lng":135.457517,"zip":"5941105"},{"town":"箕形町二丁目","koaza":"","lat":34.466721,"lng":135.437768,"zip":"5940042"},{"town":"寺門町二丁目","koaza":"","lat":34.472594,"lng":135.435613,"zip":"5940064"},{"town":"今福町一丁目","koaza":"","lat":34.471581,"lng":135.430446,"zip":"5940063"},{"town":"寺門町一丁目","koaza":"","lat":34.474652,"lng":135.432807,"zip":"5940064"},{"town":"井ノ口町","koaza":"","lat":34.482523,"lng":135.421842,"zip":"5940072"},{"town":"のぞみ野三丁目","koaza":"","lat":34.451971,"lng":135.458264,"zip":"5941105"},{"town":"青葉台一丁目","koaza":"","lat":34.445787,"lng":135.468126,"zip":"5941153"},{"town":"寺田町二丁目","koaza":"","lat":34.469949,"lng":135.432867,"zip":"5940062"},{"town":"内田町四丁目","koaza":"","lat":34.444266,"lng":135.452954,"zip":"5941156"},{"town":"小田町一丁目","koaza":"","lat":34.475601,"lng":135.417673,"zip":"5940074"},{"town":"箕形町三丁目","koaza":"","lat":34.465306,"lng":135.44384,"zip":"5940042"},{"town":"のぞみ野一丁目","koaza":"","lat":34.453853,"lng":135.461446,"zip":"5941105"},{"town":"葛の葉町三丁目","koaza":"","lat":34.512561,"lng":135.434269,"zip":"5940081"},{"town":"葛の葉町二丁目","koaza":"","lat":34.511362,"lng":135.439618,"zip":"5940081"},{"town":"みずき台一丁目","koaza":"","lat":34.447334,"lng":135.492815,"zip":"5941118"},{"town":"はつが野五丁目","koaza":"","lat":34.438487,"lng":135.465061,"zip":"5941106"},{"town":"内田町一丁目","koaza":"","lat":34.452865,"lng":135.451233,"zip":"5941156"},{"town":"黒鳥町二丁目","koaza":"","lat":34.485294,"lng":135.437831,"zip":"5940022"},{"town":"小田町三丁目","koaza":"","lat":34.472036,"lng":135.421654,"zip":"5940074"},{"town":"箕形町五丁目","koaza":"","lat":34.464556,"lng":135.439511,"zip":"5940042"},{"town":"和気町三丁目","koaza":"","lat":34.478639,"lng":135.426211,"zip":"5940073"},{"town":"みずき台二丁目","koaza":"","lat":34.44484,"lng":135.492327,"zip":"5941118"},{"town":"伯太町五丁目","koaza":"","lat":34.496067,"lng":135.436994,"zip":"5940023"},{"town":"いぶき野一丁目","koaza":"","lat":34.467209,"lng":135.449623,"zip":"5940041"},{"town":"伏屋町二丁目","koaza":"","lat":34.476583,"lng":135.465096,"zip":"5940031"},{"town":"伏屋町四丁目","koaza":"","lat":34.473569,"lng":135.465305,"zip":"5940031"},{"town":"富秋町一丁目","koaza":"","lat":34.50399,"lng":135.433758,"zip":"5940082"},{"town":"幸二丁目","koaza":"","lat":34.501175,"lng":135.437387,"zip":"5940005"},{"town":"富秋町二丁目","koaza":"","lat":34.506718,"lng":135.43482,"zip":"5940082"},{"town":"一条院町","koaza":"","lat":34.482389,"lng":135.4409,"zip":"5940054"},{"town":"黒鳥町三丁目","koaza":"","lat":34.486192,"lng":135.441007,"zip":"5940022"},{"town":"黒鳥町四丁目","koaza":"","lat":34.485918,"lng":135.444845,"zip":"5940022"},{"town":"緑ケ丘二丁目","koaza":"","lat":34.444788,"lng":135.456793,"zip":"5941155"},{"town":"和気町四丁目","koaza":"","lat":34.476438,"lng":135.42975,"zip":"5940073"},{"town":"池上町四丁目","koaza":"","lat":34.501403,"lng":135.42646,"zip":"5940083"},{"town":"和気町二丁目","koaza":"","lat":34.47975,"lng":135.420315,"zip":"5940073"},{"town":"府中町","koaza":"","lat":34.434522,"lng":135.472651,"zip":"5940071"},{"town":"葛の葉町一丁目","koaza":"","lat":34.510319,"lng":135.43725,"zip":"5940081"},{"town":"いぶき野二丁目","koaza":"","lat":34.464557,"lng":135.449421,"zip":"5940041"},{"town":"池上町三丁目","koaza":"","lat":34.500582,"lng":135.430719,"zip":"5940083"},{"town":"伯太町一丁目","koaza":"","lat":34.494742,"lng":135.43105,"zip":"5940023"},{"town":"青葉台三丁目","koaza":"","lat":34.442823,"lng":135.469173,"zip":"5941153"},{"town":"府中町六丁目","koaza":"","lat":34.488832,"lng":135.430167,"zip":"5940071"},{"town":"青葉台二丁目","koaza":"","lat":34.442794,"lng":135.465265,"zip":"5941153"},{"town":"内田町二丁目","koaza":"","lat":34.451856,"lng":135.44917,"zip":"5941156"},{"town":"黒鳥町一丁目","koaza":"","lat":34.488196,"lng":135.436893,"zip":"5940022"},{"town":"鶴山台四丁目","koaza":"","lat":34.498901,"lng":135.450669,"zip":"5940013"},{"town":"鶴山台三丁目","koaza":"","lat":34.502692,"lng":135.447478,"zip":"5940013"},{"town":"伏屋町五丁目","koaza":"","lat":34.473342,"lng":135.470125,"zip":"5940031"},{"town":"伯太町","koaza":"","lat":34.490902,"lng":135.440895,"zip":"5940023"},{"town":"はつが野六丁目","koaza":"","lat":34.436999,"lng":135.466771,"zip":"5941106"},{"town":"府中町五丁目","koaza":"","lat":34.4862,"lng":135.431766,"zip":"5940071"},{"town":"いぶき野四丁目","koaza":"","lat":34.462298,"lng":135.453947,"zip":"5940041"},{"town":"内田町三丁目","koaza":"","lat":34.446825,"lng":135.451749,"zip":"5941156"},{"town":"鶴山台一丁目","koaza":"","lat":34.507489,"lng":135.452476,"zip":"5940013"},{"town":"鶴山台二丁目","koaza":"","lat":34.502701,"lng":135.451989,"zip":"5940013"},{"town":"まなび野","koaza":"","lat":34.451188,"lng":135.455108,"zip":"5941152"},{"town":"弥生町二丁目","koaza":"","lat":34.469127,"lng":135.441836,"zip":"5940061"},{"town":"小田町二丁目","koaza":"","lat":34.474185,"lng":135.419643,"zip":"5940074"},{"town":"唐国町一丁目","koaza":"","lat":34.45994,"lng":135.449334,"zip":"5941151"},{"town":"はつが野三丁目","koaza":"","lat":34.440847,"lng":135.459744,"zip":"5941106"},{"town":"伏屋町一丁目","koaza":"","lat":34.484963,"lng":135.465639,"zip":"5940031"},{"town":"あゆみ野四丁目","koaza":"","lat":34.436157,"lng":135.448165,"zip":"5941157"},{"town":"あゆみ野一丁目","koaza":"","lat":34.447408,"lng":135.44915,"zip":"5941157"},{"town":"伯太町三丁目","koaza":"","lat":34.493575,"lng":135.441918,"zip":"5940023"},{"town":"唐国町二丁目","koaza":"","lat":34.456757,"lng":135.45122,"zip":"5941151"},{"town":"肥子町二丁目","koaza":"","lat":34.485334,"lng":135.419465,"zip":"5940076"},{"town":"テクノステージ一丁目","koaza":"","lat":34.426765,"lng":135.45348,"zip":"5941144"},{"town":"和気町一丁目","koaza":"","lat":34.476248,"lng":135.424632,"zip":"5940073"},{"town":"あゆみ野三丁目","koaza":"","lat":34.443922,"lng":135.446783,"zip":"5941157"},{"town":"はつが野二丁目","koaza":"","lat":34.448225,"lng":135.460755,"zip":"5941106"},{"town":"王子町","koaza":"","lat":34.499533,"lng":135.445077,"zip":"5940004"},{"town":"伯太町四丁目","koaza":"","lat":34.496318,"lng":135.442707,"zip":"5940023"},{"town":"府中町四丁目","koaza":"","lat":34.482331,"lng":135.426559,"zip":"5940071"},{"town":"唐国町四丁目","koaza":"","lat":34.447816,"lng":135.443419,"zip":"5941151"},{"town":"桑原町","koaza":"","lat":34.481393,"lng":135.435095,"zip":"5940066"},{"town":"唐国町三丁目","koaza":"","lat":34.457265,"lng":135.444599,"zip":"5941151"},{"town":"太町","koaza":"","lat":34.50831,"lng":135.443354,"zip":"5940003"},{"town":"伯太町二丁目","koaza":"","lat":34.492304,"lng":135.433897,"zip":"5940023"},{"town":"黒鳥町","koaza":"","lat":34.48964,"lng":135.447388,"zip":"5940022"},{"town":"はつが野一丁目","koaza":"","lat":34.446763,"lng":135.464238,"zip":"5941106"},{"town":"山荘町","koaza":"","lat":34.485004,"lng":135.450693,"zip":"5940021"},{"town":"いぶき野三丁目","koaza":"","lat":34.465161,"lng":135.456737,"zip":"5940041"},{"town":"伏屋町三丁目","koaza":"","lat":34.478869,"lng":135.469489,"zip":"5940031"},{"town":"芦部町","koaza":"","lat":34.478567,"lng":135.442958,"zip":"5940053"},{"town":"小田町","koaza":"","lat":34.469874,"lng":135.424702,"zip":"5940074"},{"town":"上町","koaza":"","lat":34.510744,"lng":135.449484,"zip":"5940002"},{"town":"下宮町","koaza":"","lat":34.432357,"lng":135.492198,"zip":"5941121"},{"town":"テクノステージ二丁目","koaza":"","lat":34.421107,"lng":135.452364,"zip":"5941144"},{"town":"いぶき野五丁目","koaza":"","lat":34.461065,"lng":135.457468,"zip":"5940041"},{"town":"あゆみ野二丁目","koaza":"","lat":34.446754,"lng":135.445542,"zip":"5941157"},{"town":"光明台三丁目","koaza":"","lat":34.453526,"lng":135.488116,"zip":"5941111"},{"town":"東阪本町","koaza":"","lat":34.480997,"lng":135.454051,"zip":"5940051"},{"town":"光明台二丁目","koaza":"","lat":34.452886,"lng":135.494218,"zip":"5941111"},{"town":"テクノステージ三丁目","koaza":"","lat":34.418906,"lng":135.455464,"zip":"5941144"},{"town":"尾井町","koaza":"","lat":34.494529,"lng":135.457121,"zip":"5940006"},{"town":"北田中町","koaza":"","lat":34.430635,"lng":135.496662,"zip":"5941122"},{"town":"光明台一丁目","koaza":"","lat":34.458457,"lng":135.488231,"zip":"5941111"},{"town":"浦田町","koaza":"","lat":34.454567,"lng":135.468331,"zip":"5941103"},{"town":"納花町","koaza":"","lat":34.442794,"lng":135.475234,"zip":"5941116"},{"town":"小野田町","koaza":"","lat":34.421094,"lng":135.493814,"zip":"5941127"},{"town":"観音寺町","koaza":"","lat":34.474625,"lng":135.440781,"zip":"5940065"},{"town":"万町","koaza":"","lat":34.459675,"lng":135.464202,"zip":"5941104"},{"town":"上代町","koaza":"","lat":34.508137,"lng":135.458347,"zip":"5940011"},{"town":"鍛治屋町","koaza":"","lat":34.442537,"lng":135.472482,"zip":"5941117"},{"town":"和田町","koaza":"","lat":34.459654,"lng":135.476018,"zip":"5941102"},{"town":"阪本町","koaza":"","lat":34.476757,"lng":135.448918,"zip":"5940052"},{"town":"黒石町","koaza":"","lat":34.44413,"lng":135.484804,"zip":"5941113"},{"town":"岡町","koaza":"","lat":34.418386,"lng":135.506032,"zip":"5941128"},{"town":"南面利町","koaza":"","lat":34.41987,"lng":135.522705,"zip":"5941124"},{"town":"春木町","koaza":"","lat":34.433346,"lng":135.452503,"zip":"5941141"},{"town":"三林町","koaza":"","lat":34.451722,"lng":135.478746,"zip":"5941112"},{"town":"室堂町","koaza":"","lat":34.464778,"lng":135.4711,"zip":"5941101"},{"town":"九鬼町","koaza":"","lat":34.415769,"lng":135.498811,"zip":"5941126"},{"town":"久井町","koaza":"","lat":34.420749,"lng":135.463241,"zip":"5941142"},{"town":"善正町","koaza":"","lat":34.418144,"lng":135.515776,"zip":"5941125"},{"town":"小野町","koaza":"","lat":34.490653,"lng":135.460316,"zip":"5940012"},{"town":"平井町","koaza":"","lat":34.434965,"lng":135.478115,"zip":"5941115"},{"town":"池田下町","koaza":"","lat":34.473148,"lng":135.457467,"zip":"5940032"},{"town":"春木川町","koaza":"","lat":34.397929,"lng":135.458983,"zip":"5941133"},{"town":"福瀬町","koaza":"","lat":34.429509,"lng":135.506014,"zip":"5941123"},{"town":"若樫町","koaza":"","lat":34.408427,"lng":135.465459,"zip":"5941143"},{"town":"坪井町","koaza":"","lat":34.406025,"lng":135.49139,"zip":"5941135"},{"town":"国分町","koaza":"","lat":34.427823,"lng":135.483077,"zip":"5941114"},{"town":"仏並町","koaza":"","lat":34.409468,"lng":135.480921,"zip":"5941136"},{"town":"大野町","koaza":"","lat":34.393295,"lng":135.474626,"zip":"5941134"},{"town":"槇尾山町","koaza":"","lat":34.392638,"lng":135.505227,"zip":"5941131"},{"town":"父鬼町","koaza":"","lat":34.373727,"lng":135.47516,"zip":"5941132"},{"town":"はつが野四丁目","koaza":"","lat":34.437682,"lng":135.461365,"zip":"5941106"},{"town":"松尾寺町","koaza":"","lat":34.427613,"lng":135.466364,"zip":"5941154"},{"town":"幸三丁目","koaza":"","lat":34.500013,"lng":135.439731,"zip":"5940005"},{"town":"富秋町","koaza":"","lat":34.500576,"lng":135.442179,"zip":"5940082"},{"town":"王子町三丁目","koaza":"","lat":34.502687,"lng":135.441323,"zip":"5940004"}]