[{"town":"雁屋西町","koaza":"","lat":34.73411,"lng":135.63104,"zip":"5750045"},{"town":"緑風台","koaza":"","lat":34.719247,"lng":135.68073,"zip":"5750016"},{"town":"中野一丁目","koaza":"","lat":34.73817,"lng":135.642612,"zip":"5750053"},{"town":"中野二丁目","koaza":"","lat":34.738238,"lng":135.645593,"zip":"5750053"},{"town":"南野三丁目","koaza":"","lat":34.735204,"lng":135.648294,"zip":"5750022"},{"town":"岡山三丁目","koaza":"","lat":34.747837,"lng":135.646545,"zip":"5750004"},{"town":"塚脇町","koaza":"","lat":34.736162,"lng":135.641613,"zip":"5750024"},{"town":"岡山東二丁目","koaza":"","lat":34.746176,"lng":135.647184,"zip":"5750003"},{"town":"楠公二丁目","koaza":"","lat":34.733226,"lng":135.640669,"zip":"5750023"},{"town":"岡山東一丁目","koaza":"","lat":34.744853,"lng":135.645945,"zip":"5750003"},{"town":"清滝新町","koaza":"","lat":34.740879,"lng":135.657325,"zip":"5750062"},{"town":"中野三丁目","koaza":"","lat":34.740856,"lng":135.643524,"zip":"5750053"},{"town":"南野四丁目","koaza":"","lat":34.735398,"lng":135.644371,"zip":"5750022"},{"town":"楠公一丁目","koaza":"","lat":34.733355,"lng":135.638307,"zip":"5750023"},{"town":"岡山五丁目","koaza":"","lat":34.748691,"lng":135.639234,"zip":"5750004"},{"town":"砂二丁目","koaza":"","lat":34.746383,"lng":135.635069,"zip":"5750001"},{"town":"南野一丁目","koaza":"","lat":34.733217,"lng":135.643281,"zip":"5750022"},{"town":"南野五丁目","koaza":"","lat":34.73677,"lng":135.645563,"zip":"5750022"},{"town":"岡山東四丁目","koaza":"","lat":34.746391,"lng":135.650843,"zip":"5750003"},{"town":"中野新町","koaza":"","lat":34.738675,"lng":135.639488,"zip":"5750054"},{"town":"砂一丁目","koaza":"","lat":34.744734,"lng":135.634809,"zip":"5750001"},{"town":"田原台一丁目","koaza":"","lat":34.731687,"lng":135.692397,"zip":"5750013"},{"town":"田原台七丁目","koaza":"","lat":34.719853,"lng":135.691564,"zip":"5750013"},{"town":"さつきヶ丘","koaza":"","lat":34.716713,"lng":135.68215,"zip":"5750000"},{"town":"岡山東三丁目","koaza":"","lat":34.748063,"lng":135.65,"zip":"5750003"},{"town":"雁屋北町","koaza":"","lat":34.734976,"lng":135.634325,"zip":"5750035"},{"town":"雁屋南町","koaza":"","lat":34.733024,"lng":135.634211,"zip":"5750036"},{"town":"北出町","koaza":"","lat":34.737096,"lng":135.62893,"zip":"5750043"},{"town":"米崎町","koaza":"","lat":34.736177,"lng":135.639038,"zip":"5750032"},{"town":"江瀬美町","koaza":"","lat":34.73686,"lng":135.634427,"zip":"5750034"},{"town":"美田町","koaza":"","lat":34.738867,"lng":135.63453,"zip":"5750033"},{"town":"岡山四丁目","koaza":"","lat":34.747997,"lng":135.643211,"zip":"5750004"},{"town":"岡山一丁目","koaza":"","lat":34.744521,"lng":135.640745,"zip":"5750004"},{"town":"田原台二丁目","koaza":"","lat":34.73029,"lng":135.695013,"zip":"5750013"},{"town":"砂三丁目","koaza":"","lat":34.748368,"lng":135.634874,"zip":"5750001"},{"town":"蔀屋本町","koaza":"","lat":34.739222,"lng":135.62888,"zip":"5750042"},{"town":"二丁通町","koaza":"","lat":34.735262,"lng":135.627736,"zip":"5750044"},{"town":"田原台三丁目","koaza":"","lat":34.725394,"lng":135.696106,"zip":"5750013"},{"town":"田原台九丁目","koaza":"","lat":34.718117,"lng":135.68504,"zip":"5750013"},{"town":"蔀屋新町","koaza":"","lat":34.741514,"lng":135.629347,"zip":"5750041"},{"town":"田原台五丁目","koaza":"","lat":34.725942,"lng":135.691365,"zip":"5750013"},{"town":"岡山二丁目","koaza":"","lat":34.746396,"lng":135.641612,"zip":"5750004"},{"town":"南野六丁目","koaza":"","lat":34.735912,"lng":135.650716,"zip":"5750022"},{"town":"田原台四丁目","koaza":"","lat":34.725828,"lng":135.693892,"zip":"5750013"},{"town":"田原台八丁目","koaza":"","lat":34.71716,"lng":135.689927,"zip":"5750013"},{"town":"南野二丁目","koaza":"","lat":34.733191,"lng":135.647854,"zip":"5750022"},{"town":"田原台六丁目","koaza":"","lat":34.721318,"lng":135.690005,"zip":"5750013"},{"town":"砂四丁目","koaza":"","lat":34.745699,"lng":135.630293,"zip":"5750001"},{"town":"清滝中町","koaza":"","lat":34.74042,"lng":135.653368,"zip":"5750061"},{"town":"中野本町","koaza":"","lat":34.741675,"lng":135.640064,"zip":"5750051"},{"town":"岡山東五丁目","koaza":"","lat":34.744437,"lng":135.654943,"zip":"5750003"},{"town":"大字岡山","koaza":"","lat":34.745657,"lng":135.663011,"zip":"5750000"},{"town":"大字逢阪","koaza":"","lat":34.735039,"lng":135.673391,"zip":"5750000"},{"town":"大字清瀧","koaza":"","lat":34.736874,"lng":135.661527,"zip":"5750000"},{"town":"大字南野","koaza":"","lat":34.726011,"lng":135.660517,"zip":"5750000"},{"town":"大字上田原","koaza":"","lat":34.714915,"lng":135.682322,"zip":"5750000"},{"town":"大字下田原","koaza":"","lat":34.734326,"lng":135.683267,"zip":"5750000"},{"town":"西中野一丁目","koaza":"","lat":34.740962,"lng":135.634326,"zip":"5750055"},{"town":"西中野二丁目","koaza":"","lat":34.742203,"lng":135.634433,"zip":"5750055"},{"town":"西中野三丁目","koaza":"","lat":34.743205,"lng":135.63423,"zip":"5750055"},{"town":"大字中野","koaza":"","lat":34.741174,"lng":135.645229,"zip":"5750000"}]