[{"town":"南長尾町四丁","koaza":"","lat":34.571974,"lng":135.500414,"zip":"5918045"},{"town":"南長尾町五丁","koaza":"","lat":34.57202,"lng":135.501349,"zip":"5918045"},{"town":"南長尾町二丁","koaza":"","lat":34.571978,"lng":135.497667,"zip":"5918045"},{"town":"南長尾町一丁","koaza":"","lat":34.572007,"lng":135.496264,"zip":"5918045"},{"town":"東三国ヶ丘町一丁","koaza":"","lat":34.570397,"lng":135.49639,"zip":"5910000"},{"town":"北長尾町八丁","koaza":"","lat":34.575745,"lng":135.507392,"zip":"5918043"},{"town":"北長尾町五丁","koaza":"","lat":34.575759,"lng":135.503713,"zip":"5918043"},{"town":"東三国ヶ丘町四丁","koaza":"","lat":34.56972,"lng":135.500338,"zip":"5910000"},{"town":"東雲東町四丁","koaza":"","lat":34.58274,"lng":135.502092,"zip":"5918041"},{"town":"北長尾町四丁","koaza":"","lat":34.575874,"lng":135.502564,"zip":"5918043"},{"town":"中長尾町二丁","koaza":"","lat":34.573815,"lng":135.498804,"zip":"5918044"},{"town":"中長尾町三丁","koaza":"","lat":34.573862,"lng":135.500063,"zip":"5918044"},{"town":"南長尾町三丁","koaza":"","lat":34.571894,"lng":135.499088,"zip":"5918045"},{"town":"北長尾町二丁","koaza":"","lat":34.575949,"lng":135.499942,"zip":"5918043"},{"town":"中長尾町四丁","koaza":"","lat":34.573924,"lng":135.501336,"zip":"5918044"},{"town":"北長尾町六丁","koaza":"","lat":34.575771,"lng":135.504871,"zip":"5918043"},{"town":"北長尾町三丁","koaza":"","lat":34.575978,"lng":135.501278,"zip":"5918043"},{"town":"東三国ヶ丘町二丁","koaza":"","lat":34.570137,"lng":135.497713,"zip":"5910000"},{"town":"北長尾町七丁","koaza":"","lat":34.575825,"lng":135.506271,"zip":"5918043"},{"town":"中長尾町一丁","koaza":"","lat":34.573783,"lng":135.497333,"zip":"5918044"},{"town":"北長尾町一丁","koaza":"","lat":34.575827,"lng":135.498477,"zip":"5918043"},{"town":"東雲東町一丁","koaza":"","lat":34.577626,"lng":135.500358,"zip":"5918041"},{"town":"東雲東町二丁","koaza":"","lat":34.579052,"lng":135.500813,"zip":"5918041"},{"town":"東雲東町三丁","koaza":"","lat":34.580489,"lng":135.501287,"zip":"5918041"},{"town":"百舌鳥梅北町一丁","koaza":"","lat":34.563913,"lng":135.493512,"zip":"5918031"},{"town":"百舌鳥赤畑町一丁","koaza":"","lat":34.563251,"lng":135.492226,"zip":"5918037"},{"town":"東三国ヶ丘町五丁","koaza":"","lat":34.569416,"lng":135.501292,"zip":"5910000"},{"town":"宮本町","koaza":"","lat":34.580797,"lng":135.514486,"zip":"5918006"},{"town":"北花田町一丁","koaza":"","lat":34.580829,"lng":135.515748,"zip":"5918002"},{"town":"百舌鳥梅北町二丁","koaza":"","lat":34.561737,"lng":135.495398,"zip":"5918031"},{"town":"東三国ヶ丘町三丁","koaza":"","lat":34.56923,"lng":135.499201,"zip":"5910000"},{"town":"百舌鳥赤畑町二丁","koaza":"","lat":34.561113,"lng":135.492153,"zip":"5918037"},{"town":"船堂町二丁","koaza":"","lat":34.578431,"lng":135.521255,"zip":"5918003"},{"town":"百舌鳥梅町二丁","koaza":"","lat":34.551073,"lng":135.495143,"zip":"5918032"},{"town":"百舌鳥陵南町二丁","koaza":"","lat":34.546876,"lng":135.491998,"zip":"5918034"},{"town":"奥本町二丁","koaza":"","lat":34.580714,"lng":135.513088,"zip":"5918007"},{"town":"百舌鳥本町二丁","koaza":"","lat":34.552746,"lng":135.491031,"zip":"5918036"},{"town":"蔵前町三丁","koaza":"","lat":34.575872,"lng":135.518706,"zip":"5918004"},{"town":"新堀町二丁","koaza":"","lat":34.578051,"lng":135.514104,"zip":"5918005"},{"town":"中百舌鳥町二丁","koaza":"","lat":34.556688,"lng":135.505296,"zip":"5918023"},{"town":"蔵前町二丁","koaza":"","lat":34.575777,"lng":135.514226,"zip":"5918004"},{"town":"百舌鳥梅北町四丁","koaza":"","lat":34.559504,"lng":135.498981,"zip":"5918031"},{"town":"百舌鳥陵南町一丁","koaza":"","lat":34.547471,"lng":135.489175,"zip":"5918034"},{"town":"百舌鳥梅北町三丁","koaza":"","lat":34.559177,"lng":135.496241,"zip":"5918031"},{"town":"百舌鳥赤畑町三丁","koaza":"","lat":34.559339,"lng":135.492003,"zip":"5918037"},{"town":"百舌鳥赤畑町四丁","koaza":"","lat":34.557753,"lng":135.491752,"zip":"5918037"},{"town":"蔵前町一丁","koaza":"","lat":34.575432,"lng":135.509867,"zip":"5918004"},{"town":"大豆塚町二丁","koaza":"","lat":34.578561,"lng":135.506415,"zip":"5918042"},{"town":"船堂町一丁","koaza":"","lat":34.578457,"lng":135.519339,"zip":"5918003"},{"town":"中百舌鳥町五丁","koaza":"","lat":34.554771,"lng":135.504007,"zip":"5918023"},{"town":"百舌鳥西之町二丁","koaza":"","lat":34.548816,"lng":135.493576,"zip":"5918033"},{"town":"常磐町一丁","koaza":"","lat":34.586331,"lng":135.5067,"zip":"5918001"},{"town":"中百舌鳥町一丁","koaza":"","lat":34.559491,"lng":135.502171,"zip":"5918023"},{"town":"中百舌鳥町三丁","koaza":"","lat":34.554514,"lng":135.508764,"zip":"5918023"},{"town":"常磐町二丁","koaza":"","lat":34.588623,"lng":135.511971,"zip":"5918001"},{"town":"百舌鳥梅北町五丁","koaza":"","lat":34.556739,"lng":135.497468,"zip":"5918031"},{"town":"新堀町一丁","koaza":"","lat":34.578015,"lng":135.510151,"zip":"5918005"},{"town":"中百舌鳥町四丁","koaza":"","lat":34.556413,"lng":135.501195,"zip":"5918023"},{"town":"八下北","koaza":"","lat":34.559079,"lng":135.542225,"zip":"5918014"},{"town":"奥本町一丁","koaza":"","lat":34.581061,"lng":135.510333,"zip":"5918007"},{"town":"東浅香山町二丁","koaza":"","lat":34.584302,"lng":135.505513,"zip":"5918008"},{"town":"東浅香山町一丁","koaza":"","lat":34.581314,"lng":135.505989,"zip":"5918008"},{"town":"大豆塚町一丁","koaza":"","lat":34.579191,"lng":135.503866,"zip":"5918042"},{"town":"百舌鳥本町一丁","koaza":"","lat":34.555685,"lng":135.489254,"zip":"5918036"},{"town":"東浅香山町四丁","koaza":"","lat":34.585914,"lng":135.514181,"zip":"5918008"},{"town":"東上野芝町二丁","koaza":"","lat":34.551567,"lng":135.484386,"zip":"5918035"},{"town":"百舌鳥本町三丁","koaza":"","lat":34.552533,"lng":135.487843,"zip":"5918036"},{"town":"百舌鳥陵南町三丁","koaza":"","lat":34.544518,"lng":135.49218,"zip":"5918034"},{"town":"北花田町四丁","koaza":"","lat":34.585193,"lng":135.52064,"zip":"5918002"},{"town":"百舌鳥赤畑町五丁","koaza":"","lat":34.555051,"lng":135.494319,"zip":"5918037"},{"town":"北花田町二丁","koaza":"","lat":34.580784,"lng":135.51938,"zip":"5918002"},{"town":"北花田町三丁","koaza":"","lat":34.585646,"lng":135.517241,"zip":"5918002"},{"town":"百舌鳥西之町一丁","koaza":"","lat":34.550121,"lng":135.491165,"zip":"5918033"},{"town":"百舌鳥梅町一丁","koaza":"","lat":34.552691,"lng":135.497842,"zip":"5918032"},{"town":"東浅香山町三丁","koaza":"","lat":34.585548,"lng":135.510415,"zip":"5918008"},{"town":"百舌鳥西之町三丁","koaza":"","lat":34.546837,"lng":135.497426,"zip":"5918033"},{"town":"黒土町","koaza":"","lat":34.564053,"lng":135.502032,"zip":"5918024"},{"town":"新金岡町二丁","koaza":"","lat":34.572472,"lng":135.512954,"zip":"5918021"},{"town":"中百舌鳥町六丁","koaza":"","lat":34.551417,"lng":135.507913,"zip":"5918023"},{"town":"新金岡町五丁","koaza":"","lat":34.563241,"lng":135.521213,"zip":"5918021"},{"town":"新金岡町一丁","koaza":"","lat":34.568258,"lng":135.512771,"zip":"5918021"},{"town":"百舌鳥梅町三丁","koaza":"","lat":34.550041,"lng":135.501735,"zip":"5918032"},{"town":"常磐町三丁","koaza":"","lat":34.590949,"lng":135.519091,"zip":"5918001"},{"town":"新金岡町四丁","koaza":"","lat":34.568184,"lng":135.519409,"zip":"5918021"},{"town":"新金岡町三丁","koaza":"","lat":34.572515,"lng":135.519085,"zip":"5918021"},{"town":"野遠町","koaza":"","lat":34.562726,"lng":135.543062,"zip":"5918013"},{"town":"南花田町","koaza":"","lat":34.570868,"lng":135.528685,"zip":"5918011"},{"town":"中村町","koaza":"","lat":34.56341,"lng":135.532426,"zip":"5918012"},{"town":"長曽根町","koaza":"","lat":34.565019,"lng":135.508596,"zip":"5918025"},{"town":"金岡町","koaza":"","lat":34.556915,"lng":135.518898,"zip":"5918022"}]