[{"town":"菅原通五丁","koaza":"","lat":34.561947,"lng":135.4615,"zip":"5900826"},{"town":"八幡通一丁","koaza":"","lat":34.564086,"lng":135.462206,"zip":"5900828"},{"town":"八幡通二丁","koaza":"","lat":34.563165,"lng":135.461463,"zip":"5900828"},{"town":"菅原通二丁","koaza":"","lat":34.564617,"lng":135.463284,"zip":"5900826"},{"town":"八幡通三丁","koaza":"","lat":34.562198,"lng":135.460682,"zip":"5900828"},{"town":"春日通四丁","koaza":"","lat":34.562107,"lng":135.461079,"zip":"5900827"},{"town":"綾之町西三丁","koaza":"","lat":34.589366,"lng":135.480805,"zip":"5900926"},{"town":"春日通二丁","koaza":"","lat":34.563916,"lng":135.46253,"zip":"5900827"},{"town":"春日通一丁","koaza":"","lat":34.564751,"lng":135.4628,"zip":"5900827"},{"town":"春日通三丁","koaza":"","lat":34.56299,"lng":135.461778,"zip":"5900827"},{"town":"綾之町西二丁","koaza":"","lat":34.588931,"lng":135.481507,"zip":"5900926"},{"town":"昭和通六丁","koaza":"","lat":34.561705,"lng":135.46204,"zip":"5900825"},{"town":"菅原通四丁","koaza":"","lat":34.562791,"lng":135.462171,"zip":"5900826"},{"town":"菅原通三丁","koaza":"","lat":34.563713,"lng":135.462916,"zip":"5900826"},{"town":"北旅籠町東二丁","koaza":"","lat":34.590166,"lng":135.485419,"zip":"5900923"},{"town":"南安井町六丁","koaza":"","lat":34.570194,"lng":135.480058,"zip":"5900064"},{"town":"菅原通一丁","koaza":"","lat":34.56544,"lng":135.463463,"zip":"5900826"},{"town":"南半町西四丁","koaza":"","lat":34.572378,"lng":135.462674,"zip":"5900967"},{"town":"昭和通二丁","koaza":"","lat":34.565355,"lng":135.464284,"zip":"5900825"},{"town":"桜之町東二丁","koaza":"","lat":34.589057,"lng":135.485028,"zip":"5900924"},{"town":"賑町一丁","koaza":"","lat":34.568567,"lng":135.474693,"zip":"5900066"},{"town":"宿院町西一丁","koaza":"","lat":34.575747,"lng":135.470857,"zip":"5900958"},{"town":"桜之町西二丁","koaza":"","lat":34.589838,"lng":135.481851,"zip":"5900927"},{"town":"昭和通一丁","koaza":"","lat":34.565989,"lng":135.464477,"zip":"5900825"},{"town":"昭和通三丁","koaza":"","lat":34.56436,"lng":135.463999,"zip":"5900825"},{"town":"北旅籠町西二丁","koaza":"","lat":34.590929,"lng":135.482266,"zip":"5900928"},{"town":"南半町東二丁","koaza":"","lat":34.569278,"lng":135.467425,"zip":"5900966"},{"town":"熊野町西三丁","koaza":"","lat":34.580721,"lng":135.471564,"zip":"5900947"},{"town":"昭和通五丁","koaza":"","lat":34.56248,"lng":135.462699,"zip":"5900825"},{"town":"北半町東","koaza":"","lat":34.591018,"lng":135.485203,"zip":"5900922"},{"town":"南安井町五丁","koaza":"","lat":34.570238,"lng":135.479171,"zip":"5900064"},{"town":"南半町西一丁","koaza":"","lat":34.570455,"lng":135.465688,"zip":"5900967"},{"town":"九間町東二丁","koaza":"","lat":34.584835,"lng":135.481787,"zip":"5900934"},{"town":"宿屋町西三丁","koaza":"","lat":34.585135,"lng":135.476539,"zip":"5900937"},{"town":"昭和通四丁","koaza":"","lat":34.563603,"lng":135.46345,"zip":"5900825"},{"town":"宿院町西四丁","koaza":"","lat":34.577618,"lng":135.467903,"zip":"5900958"},{"town":"南半町西二丁","koaza":"","lat":34.571049,"lng":135.464691,"zip":"5900967"},{"town":"永代町六丁","koaza":"","lat":34.569259,"lng":135.47916,"zip":"5900065"},{"town":"櫛屋町東一丁","koaza":"","lat":34.580729,"lng":135.476693,"zip":"5900944"},{"town":"熊野町東二丁","koaza":"","lat":34.57837,"lng":135.475768,"zip":"5900946"},{"town":"車之町西三丁","koaza":"","lat":34.583374,"lng":135.474897,"zip":"5900940"},{"town":"永代町五丁","koaza":"","lat":34.569347,"lng":135.478095,"zip":"5900065"},{"town":"柳之町東一丁","koaza":"","lat":34.586298,"lng":135.481869,"zip":"5900933"},{"town":"錦之町東一丁","koaza":"","lat":34.587166,"lng":135.482673,"zip":"5900932"},{"town":"宿屋町東一丁","koaza":"","lat":34.583511,"lng":135.479261,"zip":"5900936"},{"town":"櫛屋町東二丁","koaza":"","lat":34.580155,"lng":135.477547,"zip":"5900944"},{"town":"南安井町四丁","koaza":"","lat":34.570323,"lng":135.478164,"zip":"5900064"},{"town":"綾之町東二丁","koaza":"","lat":34.587668,"lng":135.484592,"zip":"5900925"},{"town":"南半町東一丁","koaza":"","lat":34.569892,"lng":135.466407,"zip":"5900966"},{"town":"甲斐町東五丁","koaza":"","lat":34.575083,"lng":135.476998,"zip":"5900953"},{"town":"九間町東一丁","koaza":"","lat":34.585374,"lng":135.480992,"zip":"5900934"},{"town":"少林寺町東二丁","koaza":"","lat":34.571934,"lng":135.469949,"zip":"5900963"},{"town":"市之町東二丁","koaza":"","lat":34.577535,"lng":135.47513,"zip":"5900952"},{"town":"神明町東一丁","koaza":"","lat":34.58459,"lng":135.480104,"zip":"5900935"},{"town":"戎之町西二丁","koaza":"","lat":34.580953,"lng":135.473695,"zip":"5900948"},{"town":"材木町東一丁","koaza":"","lat":34.582739,"lng":135.478398,"zip":"5900942"},{"town":"住吉橋町二丁","koaza":"","lat":34.579687,"lng":135.465197,"zip":"5900973"},{"town":"南旅篭町西四丁","koaza":"","lat":34.573331,"lng":135.46344,"zip":"5900968"},{"town":"永代町三丁","koaza":"","lat":34.569472,"lng":135.475735,"zip":"5900065"},{"town":"楠町二丁","koaza":"","lat":34.564983,"lng":135.460342,"zip":"5900836"},{"town":"戎之町東二丁","koaza":"","lat":34.579281,"lng":135.476733,"zip":"5900945"},{"town":"霞ヶ丘町二丁","koaza":"","lat":34.553652,"lng":135.468088,"zip":"5900000"},{"town":"神明町西一丁","koaza":"","lat":34.58491,"lng":135.479336,"zip":"5900938"},{"town":"熊野町西一丁","koaza":"","lat":34.579554,"lng":135.474131,"zip":"5900947"},{"town":"宿院町東二丁","koaza":"","lat":34.574699,"lng":135.472503,"zip":"5900955"},{"town":"大町東二丁","koaza":"","lat":34.57562,"lng":135.473364,"zip":"5900954"},{"town":"新在家町東二丁","koaza":"","lat":34.57101,"lng":135.469096,"zip":"5900964"},{"town":"寺地町東二丁","koaza":"","lat":34.572843,"lng":135.470791,"zip":"5900962"},{"town":"市之町東五丁","koaza":"","lat":34.575902,"lng":135.477891,"zip":"5900952"},{"town":"市之町西一丁","koaza":"","lat":34.578705,"lng":135.47335,"zip":"5900951"},{"town":"宿屋町西二丁","koaza":"","lat":34.584784,"lng":135.477434,"zip":"5900937"},{"town":"材木町東二丁","koaza":"","lat":34.582022,"lng":135.479277,"zip":"5900942"},{"town":"少林寺町西一丁","koaza":"","lat":34.573091,"lng":135.468145,"zip":"5900960"},{"town":"南安井町二丁","koaza":"","lat":34.570577,"lng":135.475936,"zip":"5900064"},{"town":"中之町東二丁","koaza":"","lat":34.573779,"lng":135.471654,"zip":"5900956"},{"town":"高須町二丁","koaza":"","lat":34.589509,"lng":135.488565,"zip":"5900003"},{"town":"柳之町西二丁","koaza":"","lat":34.587451,"lng":135.479851,"zip":"5900930"},{"town":"熊野町東三丁","koaza":"","lat":34.577868,"lng":135.47678,"zip":"5900946"},{"town":"南陵町二丁","koaza":"","lat":34.553511,"lng":135.470383,"zip":"5900811"},{"town":"中三国ヶ丘町二丁","koaza":"","lat":34.574414,"lng":135.487745,"zip":"5900000"},{"town":"永代町四丁","koaza":"","lat":34.569392,"lng":135.476937,"zip":"5900065"},{"town":"車之町東一丁","koaza":"","lat":34.581645,"lng":135.477543,"zip":"5900943"},{"town":"緑ヶ丘南町三丁","koaza":"","lat":34.553851,"lng":135.472087,"zip":"5900804"},{"town":"中瓦町二丁","koaza":"","lat":34.574825,"lng":135.483178,"zip":"5900077"},{"town":"市之町西二丁","koaza":"","lat":34.579245,"lng":135.472451,"zip":"5900951"},{"town":"綾之町西一丁","koaza":"","lat":34.588472,"lng":135.482537,"zip":"5900926"},{"town":"竜神橋町二丁","koaza":"","lat":34.580405,"lng":135.465817,"zip":"5900972"},{"town":"少林寺町西二丁","koaza":"","lat":34.57365,"lng":135.467254,"zip":"5900960"},{"town":"緑ヶ丘南町四丁","koaza":"","lat":34.553235,"lng":135.47306,"zip":"5900804"},{"town":"高砂町三丁","koaza":"","lat":34.561771,"lng":135.466463,"zip":"5900820"},{"town":"少林寺町東三丁","koaza":"","lat":34.571393,"lng":135.470797,"zip":"5900963"},{"town":"宿屋町東二丁","koaza":"","lat":34.582781,"lng":135.480159,"zip":"5900936"},{"town":"霞ヶ丘町一丁","koaza":"","lat":34.553934,"lng":135.467365,"zip":"5900000"},{"town":"車之町東二丁","koaza":"","lat":34.581076,"lng":135.478405,"zip":"5900943"},{"town":"緑ヶ丘南町二丁","koaza":"","lat":34.554342,"lng":135.471029,"zip":"5900804"},{"town":"甲斐町東二丁","koaza":"","lat":34.576584,"lng":135.474256,"zip":"5900953"},{"town":"南安井町三丁","koaza":"","lat":34.570396,"lng":135.477016,"zip":"5900064"},{"town":"南旅篭町西一丁","koaza":"","lat":34.571276,"lng":135.466464,"zip":"5900968"},{"town":"市之町東三丁","koaza":"","lat":34.577001,"lng":135.475983,"zip":"5900952"},{"town":"新在家町西一丁","koaza":"","lat":34.572195,"lng":135.467317,"zip":"5900969"},{"town":"材木町西三丁","koaza":"","lat":34.584261,"lng":135.475612,"zip":"5900941"},{"town":"中之町西一丁","koaza":"","lat":34.574952,"lng":135.469871,"zip":"5900957"},{"town":"中安井町二丁","koaza":"","lat":34.571328,"lng":135.476958,"zip":"5900063"},{"town":"寺地町東三丁","koaza":"","lat":34.572297,"lng":135.471629,"zip":"5900962"},{"town":"大町西一丁","koaza":"","lat":34.576697,"lng":135.47145,"zip":"5900959"},{"town":"寺地町西一丁","koaza":"","lat":34.574002,"lng":135.468992,"zip":"5900961"},{"town":"大町東三丁","koaza":"","lat":34.575081,"lng":135.474206,"zip":"5900954"},{"town":"材木町西二丁","koaza":"","lat":34.583749,"lng":135.476614,"zip":"5900941"},{"town":"中之町西二丁","koaza":"","lat":34.575504,"lng":135.468972,"zip":"5900957"},{"town":"神明町東二丁","koaza":"","lat":34.583919,"lng":135.481178,"zip":"5900935"},{"town":"宿院町東三丁","koaza":"","lat":34.574169,"lng":135.473354,"zip":"5900955"},{"town":"大町西二丁","koaza":"","lat":34.577337,"lng":135.47068,"zip":"5900959"},{"town":"新在家町西二丁","koaza":"","lat":34.57276,"lng":135.466427,"zip":"5900969"},{"town":"熊野町東一丁","koaza":"","lat":34.578985,"lng":135.475073,"zip":"5900946"},{"town":"新在家町東三丁","koaza":"","lat":34.570437,"lng":135.469936,"zip":"5900964"},{"town":"南旅篭町西二丁","koaza":"","lat":34.571842,"lng":135.465572,"zip":"5900968"},{"town":"戎之町東三丁","koaza":"","lat":34.578746,"lng":135.477586,"zip":"5900945"},{"town":"車之町西二丁","koaza":"","lat":34.582806,"lng":135.475748,"zip":"5900940"},{"town":"少林寺町東一丁","koaza":"","lat":34.572501,"lng":135.469068,"zip":"5900963"},{"town":"寺地町西二丁","koaza":"","lat":34.574568,"lng":135.468103,"zip":"5900961"},{"town":"北半町西","koaza":"","lat":34.591711,"lng":135.482532,"zip":"5900921"},{"town":"南田出井町二丁","koaza":"","lat":34.57816,"lng":135.487467,"zip":"5900015"},{"town":"九間町西三丁","koaza":"","lat":34.587041,"lng":135.478291,"zip":"5900939"},{"town":"北花田口町三丁","koaza":"","lat":34.577737,"lng":135.484848,"zip":"5900074"},{"town":"熊野町西二丁","koaza":"","lat":34.580187,"lng":135.47332,"zip":"5900947"},{"town":"永代町一丁","koaza":"","lat":34.569778,"lng":135.473077,"zip":"5900065"},{"town":"南花田口町一丁","koaza":"","lat":34.577061,"lng":135.481938,"zip":"5900075"},{"town":"錦之町西二丁","koaza":"","lat":34.588343,"lng":135.480872,"zip":"5900931"},{"town":"中之町東三丁","koaza":"","lat":34.573237,"lng":135.472498,"zip":"5900956"},{"town":"中之町西四丁","koaza":"","lat":34.576771,"lng":135.466751,"zip":"5900957"},{"town":"北花田口町二丁","koaza":"","lat":34.577963,"lng":135.4836,"zip":"5900074"},{"town":"九間町西二丁","koaza":"","lat":34.586509,"lng":135.479202,"zip":"5900939"},{"town":"甲斐町東四丁","koaza":"","lat":34.575531,"lng":135.476185,"zip":"5900953"},{"town":"市之町東一丁","koaza":"","lat":34.578121,"lng":135.474425,"zip":"5900952"},{"town":"材木町東三丁","koaza":"","lat":34.581611,"lng":135.480158,"zip":"5900942"},{"town":"南旅篭町東二丁","koaza":"","lat":34.570012,"lng":135.46825,"zip":"5900965"},{"town":"永代町二丁","koaza":"","lat":34.569595,"lng":135.474495,"zip":"5900065"},{"town":"甲斐町西一丁","koaza":"","lat":34.577745,"lng":135.472456,"zip":"5900950"},{"town":"神明町西三丁","koaza":"","lat":34.586018,"lng":135.477361,"zip":"5900938"},{"town":"宿院町東一丁","koaza":"","lat":34.575257,"lng":135.471622,"zip":"5900955"},{"town":"中向陽町二丁","koaza":"","lat":34.579628,"lng":135.485485,"zip":"5900072"},{"town":"高砂町二丁","koaza":"","lat":34.562309,"lng":135.465552,"zip":"5900820"},{"town":"南花田口町二丁","koaza":"","lat":34.576936,"lng":135.483624,"zip":"5900075"},{"town":"戎之町西一丁","koaza":"","lat":34.58053,"lng":135.47504,"zip":"5900948"},{"town":"甲斐町西二丁","koaza":"","lat":34.578307,"lng":135.471576,"zip":"5900950"},{"town":"旭ヶ丘南町三丁","koaza":"","lat":34.55713,"lng":135.474837,"zip":"5900000"},{"town":"南旅篭町東一丁","koaza":"","lat":34.57069,"lng":135.467393,"zip":"5900965"},{"town":"新在家町東一丁","koaza":"","lat":34.571608,"lng":135.468242,"zip":"5900964"},{"town":"戎之町東一丁","koaza":"","lat":34.57983,"lng":135.475856,"zip":"5900945"},{"town":"中之町東一丁","koaza":"","lat":34.574343,"lng":135.47078,"zip":"5900956"},{"town":"寺地町東一丁","koaza":"","lat":34.573408,"lng":135.469915,"zip":"5900962"},{"town":"大町東一丁","koaza":"","lat":34.576212,"lng":135.472509,"zip":"5900954"},{"town":"桜之町西一丁","koaza":"","lat":34.589599,"lng":135.482831,"zip":"5900927"},{"town":"市之町東四丁","koaza":"","lat":34.57638,"lng":135.476973,"zip":"5900952"},{"town":"北旅籠町西一丁","koaza":"","lat":34.590712,"lng":135.483245,"zip":"5900928"},{"town":"甲斐町東三丁","koaza":"","lat":34.576043,"lng":135.475101,"zip":"5900953"},{"town":"賑町二丁","koaza":"","lat":34.568176,"lng":135.475721,"zip":"5900066"},{"town":"北田出井町二丁","koaza":"","lat":34.580839,"lng":135.488516,"zip":"5900017"},{"town":"中三国ヶ丘町五丁","koaza":"","lat":34.573919,"lng":135.492663,"zip":"5900000"},{"town":"北旅籠町東一丁","koaza":"","lat":34.590382,"lng":135.484464,"zip":"5900923"},{"town":"少林寺町西三丁","koaza":"","lat":34.57429,"lng":135.466241,"zip":"5900960"},{"town":"戎之町東四丁","koaza":"","lat":34.578056,"lng":135.478683,"zip":"5900945"},{"town":"旭ヶ丘南町二丁","koaza":"","lat":34.55773,"lng":135.473801,"zip":"5900000"},{"town":"宿屋町西一丁","koaza":"","lat":34.584068,"lng":135.478308,"zip":"5900937"},{"town":"北花田口町一丁","koaza":"","lat":34.577997,"lng":135.482208,"zip":"5900074"},{"town":"老松町二丁","koaza":"","lat":34.561288,"lng":135.464695,"zip":"5900824"},{"town":"高須町三丁","koaza":"","lat":34.589385,"lng":135.490079,"zip":"5900003"},{"town":"甲斐町東一丁","koaza":"","lat":34.577031,"lng":135.473313,"zip":"5900953"},{"town":"南半町西三丁","koaza":"","lat":34.57176,"lng":135.46365,"zip":"5900967"},{"town":"桜之町東一丁","koaza":"","lat":34.589092,"lng":135.484001,"zip":"5900924"},{"town":"錦之町西一丁","koaza":"","lat":34.587751,"lng":135.481812,"zip":"5900931"},{"town":"高砂町四丁","koaza":"","lat":34.561252,"lng":135.467486,"zip":"5900820"},{"town":"九間町西一丁","koaza":"","lat":34.585943,"lng":135.480049,"zip":"5900939"},{"town":"北清水町二丁","koaza":"","lat":34.588401,"lng":135.488213,"zip":"5900004"},{"town":"桜之町西三丁","koaza":"","lat":34.590088,"lng":135.480775,"zip":"5900927"},{"town":"宿院町西三丁","koaza":"","lat":34.577047,"lng":135.46883,"zip":"5900958"},{"town":"北旅籠町西三丁","koaza":"","lat":34.591333,"lng":135.481164,"zip":"5900928"},{"town":"西湊町二丁","koaza":"","lat":34.568563,"lng":135.464718,"zip":"5900835"},{"town":"南田出井町三丁","koaza":"","lat":34.577925,"lng":135.488747,"zip":"5900015"},{"town":"甲斐町東六丁","koaza":"","lat":34.57447,"lng":135.477558,"zip":"5900953"},{"town":"中之町西三丁","koaza":"","lat":34.576142,"lng":135.46796,"zip":"5900957"},{"town":"材木町西一丁","koaza":"","lat":34.583201,"lng":135.4775,"zip":"5900941"},{"town":"新在家町西三丁","koaza":"","lat":34.573402,"lng":135.465412,"zip":"5900969"},{"town":"寺地町西三丁","koaza":"","lat":34.575208,"lng":135.467094,"zip":"5900961"},{"town":"車之町西一丁","koaza":"","lat":34.582234,"lng":135.476614,"zip":"5900940"},{"town":"柳之町西一丁","koaza":"","lat":34.586948,"lng":135.481021,"zip":"5900930"},{"town":"宿院町西二丁","koaza":"","lat":34.5763,"lng":135.469962,"zip":"5900958"},{"town":"神明町西二丁","koaza":"","lat":34.585519,"lng":135.478504,"zip":"5900938"},{"town":"市之町東六丁","koaza":"","lat":34.575043,"lng":135.479306,"zip":"5900952"},{"town":"緑ヶ丘北町三丁","koaza":"","lat":34.556063,"lng":135.473951,"zip":"5900806"},{"town":"中田出井町一丁","koaza":"","lat":34.579361,"lng":135.487228,"zip":"5900016"},{"town":"高砂町一丁","koaza":"","lat":34.563019,"lng":135.464525,"zip":"5900820"},{"town":"緑ヶ丘中町三丁","koaza":"","lat":34.554881,"lng":135.472957,"zip":"5900805"},{"town":"北安井町","koaza":"","lat":34.57261,"lng":135.476298,"zip":"5900062"},{"town":"南向陽町二丁","koaza":"","lat":34.578743,"lng":135.485028,"zip":"5900073"},{"town":"南田出井町一丁","koaza":"","lat":34.578211,"lng":135.486255,"zip":"5900015"},{"town":"柳之町西三丁","koaza":"","lat":34.588146,"lng":135.479025,"zip":"5900930"},{"town":"錦之町東二丁","koaza":"","lat":34.586477,"lng":135.483651,"zip":"5900932"},{"town":"北瓦町二丁","koaza":"","lat":34.575992,"lng":135.483398,"zip":"5900076"},{"town":"熊野町東四丁","koaza":"","lat":34.57714,"lng":135.477936,"zip":"5900946"},{"town":"中田出井町二丁","koaza":"","lat":34.579479,"lng":135.488685,"zip":"5900016"},{"town":"旭ヶ丘南町四丁","koaza":"","lat":34.556489,"lng":135.476182,"zip":"5900000"},{"town":"東湊町六丁","koaza":"","lat":34.563835,"lng":135.466435,"zip":"5900829"},{"town":"陵西通","koaza":"","lat":34.567633,"lng":135.483392,"zip":"5900041"},{"town":"楠町一丁","koaza":"","lat":34.564141,"lng":135.46133,"zip":"5900836"},{"town":"大浜中町一丁","koaza":"","lat":34.57557,"lng":135.46361,"zip":"5900975"},{"town":"綾之町東一丁","koaza":"","lat":34.587962,"lng":135.48362,"zip":"5900925"},{"town":"北田出井町一丁","koaza":"","lat":34.580867,"lng":135.487514,"zip":"5900017"},{"town":"南陵町一丁","koaza":"","lat":34.554128,"lng":135.469331,"zip":"5900811"},{"town":"緑ヶ丘中町二丁","koaza":"","lat":34.555508,"lng":135.471992,"zip":"5900805"},{"town":"緑ヶ丘北町二丁","koaza":"","lat":34.55666,"lng":135.472906,"zip":"5900806"},{"town":"大仙西町五丁","koaza":"","lat":34.564363,"lng":135.473269,"zip":"5900821"},{"town":"櫛屋町東四丁","koaza":"","lat":34.578257,"lng":135.480621,"zip":"5900944"},{"town":"新在家町西四丁","koaza":"","lat":34.574199,"lng":135.464295,"zip":"5900969"},{"town":"楠町四丁","koaza":"","lat":34.565649,"lng":135.457757,"zip":"5900836"},{"town":"栄橋町二丁","koaza":"","lat":34.58125,"lng":135.466742,"zip":"5900971"},{"town":"九間町東三丁","koaza":"","lat":34.583876,"lng":135.482797,"zip":"5900934"},{"town":"少林寺町西四丁","koaza":"","lat":34.575263,"lng":135.464851,"zip":"5900960"},{"town":"中瓦町一丁","koaza":"","lat":34.575005,"lng":135.481433,"zip":"5900077"},{"town":"錦之町西三丁","koaza":"","lat":34.588989,"lng":135.479667,"zip":"5900931"},{"town":"旭ヶ丘北町三丁","koaza":"","lat":34.559865,"lng":135.477185,"zip":"5900000"},{"town":"南旅篭町西三丁","koaza":"","lat":34.57276,"lng":135.464313,"zip":"5900968"},{"town":"緑ヶ丘南町一丁","koaza":"","lat":34.554947,"lng":135.469861,"zip":"5900804"},{"town":"中永山園","koaza":"","lat":34.568784,"lng":135.485863,"zip":"5900033"},{"town":"北向陽町二丁","koaza":"","lat":34.580606,"lng":135.485937,"zip":"5900071"},{"town":"柏木町四丁","koaza":"","lat":34.564174,"lng":135.456853,"zip":"5900837"},{"town":"南清水町二丁","koaza":"","lat":34.586928,"lng":135.487746,"zip":"5900005"},{"town":"中三国ヶ丘町三丁","koaza":"","lat":34.574265,"lng":135.489453,"zip":"5900000"},{"town":"南陵町四丁","koaza":"","lat":34.552279,"lng":135.472606,"zip":"5900811"},{"town":"中三国ヶ丘町七丁","koaza":"","lat":34.573952,"lng":135.495953,"zip":"5900000"},{"town":"旭ヶ丘南町一丁","koaza":"","lat":34.558474,"lng":135.472526,"zip":"5900000"},{"town":"北庄町三丁","koaza":"","lat":34.583049,"lng":135.487646,"zip":"5900007"},{"town":"柏木町三丁","koaza":"","lat":34.563729,"lng":135.457921,"zip":"5900837"},{"town":"楠町三丁","koaza":"","lat":34.565201,"lng":135.459147,"zip":"5900836"},{"town":"柏木町一丁","koaza":"","lat":34.562695,"lng":135.460128,"zip":"5900837"},{"town":"北三国ヶ丘町六丁","koaza":"","lat":34.575925,"lng":135.493986,"zip":"5900000"},{"town":"少林寺町東四丁","koaza":"","lat":34.570585,"lng":135.472093,"zip":"5900963"},{"town":"北三国ヶ丘町七丁","koaza":"","lat":34.575745,"lng":135.495021,"zip":"5900000"},{"town":"新町","koaza":"","lat":34.572952,"lng":135.481303,"zip":"5900079"},{"town":"西永山園","koaza":"","lat":34.569709,"lng":135.484876,"zip":"5900032"},{"town":"北庄町二丁","koaza":"","lat":34.58301,"lng":135.486436,"zip":"5900007"},{"town":"南庄町二丁","koaza":"","lat":34.581713,"lng":135.486437,"zip":"5900008"},{"town":"北三国ヶ丘町三丁","koaza":"","lat":34.576108,"lng":135.490498,"zip":"5900000"},{"town":"賑町四丁","koaza":"","lat":34.567828,"lng":135.477988,"zip":"5900066"},{"town":"霞ヶ丘町三丁","koaza":"","lat":34.552825,"lng":135.467647,"zip":"5900000"},{"town":"旭ヶ丘北町二丁","koaza":"","lat":34.560464,"lng":135.476237,"zip":"5900000"},{"town":"新在家町東四丁","koaza":"","lat":34.569698,"lng":135.47124,"zip":"5900964"},{"town":"南陵町三丁","koaza":"","lat":34.55269,"lng":135.471224,"zip":"5900811"},{"town":"賑町三丁","koaza":"","lat":34.567795,"lng":135.476808,"zip":"5900066"},{"town":"寺地町西四丁","koaza":"","lat":34.57611,"lng":135.465921,"zip":"5900961"},{"town":"中安井町一丁","koaza":"","lat":34.571863,"lng":135.475488,"zip":"5900063"},{"town":"旭ヶ丘中町三丁","koaza":"","lat":34.558377,"lng":135.475898,"zip":"5900000"},{"town":"神明町東三丁","koaza":"","lat":34.583053,"lng":135.482193,"zip":"5900935"},{"town":"材木町東四丁","koaza":"","lat":34.580528,"lng":135.481446,"zip":"5900942"},{"town":"寺地町東四丁","koaza":"","lat":34.57149,"lng":135.472881,"zip":"5900962"},{"town":"宿院町東四丁","koaza":"","lat":34.573374,"lng":135.474631,"zip":"5900955"},{"town":"砂道町二丁","koaza":"","lat":34.590339,"lng":135.489795,"zip":"5900002"},{"town":"並松町","koaza":"","lat":34.593879,"lng":135.48462,"zip":"5900912"},{"town":"旭通","koaza":"","lat":34.566562,"lng":135.473552,"zip":"5900055"},{"town":"柳之町東二丁","koaza":"","lat":34.585255,"lng":135.483146,"zip":"5900933"},{"town":"熊野町東五丁","koaza":"","lat":34.576083,"lng":135.479605,"zip":"5900946"},{"town":"南向陽町一丁","koaza":"","lat":34.578937,"lng":135.483034,"zip":"5900073"},{"town":"中之町東四丁","koaza":"","lat":34.57244,"lng":135.473713,"zip":"5900956"},{"town":"神南辺町三丁","koaza":"","lat":34.586897,"lng":135.470423,"zip":"5900984"},{"town":"旭ヶ丘北町四丁","koaza":"","lat":34.559125,"lng":135.478016,"zip":"5900000"},{"town":"西湊町三丁","koaza":"","lat":34.568163,"lng":135.463569,"zip":"5900835"},{"town":"南安井町一丁","koaza":"","lat":34.570879,"lng":135.474437,"zip":"5900064"},{"town":"大町西三丁","koaza":"","lat":34.578178,"lng":135.469409,"zip":"5900959"},{"town":"六条通","koaza":"","lat":34.567333,"lng":135.482001,"zip":"5900043"},{"town":"高須町一丁","koaza":"","lat":34.589725,"lng":135.486726,"zip":"5900003"},{"town":"神保通","koaza":"","lat":34.565817,"lng":135.473687,"zip":"5900056"},{"town":"北田出井町三丁","koaza":"","lat":34.580983,"lng":135.489854,"zip":"5900017"},{"town":"南庄町一丁","koaza":"","lat":34.582032,"lng":135.484262,"zip":"5900008"},{"town":"旭ヶ丘中町二丁","koaza":"","lat":34.559035,"lng":135.474765,"zip":"5900000"},{"town":"南旅篭町東四丁","koaza":"","lat":34.568328,"lng":135.470473,"zip":"5900965"},{"town":"大町東四丁","koaza":"","lat":34.574309,"lng":135.475417,"zip":"5900954"},{"town":"錦綾町二丁","koaza":"","lat":34.585098,"lng":135.487124,"zip":"5900006"},{"town":"南三国ヶ丘町一丁","koaza":"","lat":34.573338,"lng":135.485399,"zip":"5900000"},{"town":"七条通","koaza":"","lat":34.567153,"lng":135.482481,"zip":"5900042"},{"town":"大仙西町四丁","koaza":"","lat":34.564882,"lng":135.472316,"zip":"5900821"},{"town":"出島町四丁","koaza":"","lat":34.567873,"lng":135.459497,"zip":"5900834"},{"town":"東永山園","koaza":"","lat":34.568187,"lng":135.487391,"zip":"5900034"},{"town":"市之町西三丁","koaza":"","lat":34.580169,"lng":135.470964,"zip":"5900951"},{"town":"北瓦町一丁","koaza":"","lat":34.576111,"lng":135.481729,"zip":"5900076"},{"town":"中三国ヶ丘町四丁","koaza":"","lat":34.574263,"lng":135.491302,"zip":"5900000"},{"town":"中田出井町三丁","koaza":"","lat":34.579528,"lng":135.490018,"zip":"5900016"},{"town":"北清水町三丁","koaza":"","lat":34.588132,"lng":135.489607,"zip":"5900004"},{"town":"戎之町東五丁","koaza":"","lat":34.577154,"lng":135.480068,"zip":"5900945"},{"town":"緑ヶ丘北町一丁","koaza":"","lat":34.557421,"lng":135.471646,"zip":"5900806"},{"town":"緑ヶ丘中町四丁","koaza":"","lat":34.554072,"lng":135.474066,"zip":"5900805"},{"town":"南田出井町四丁","koaza":"","lat":34.578031,"lng":135.490189,"zip":"5900015"},{"town":"櫛屋町東三丁","koaza":"","lat":34.579288,"lng":135.478913,"zip":"5900944"},{"town":"北三国ヶ丘町五丁","koaza":"","lat":34.575548,"lng":135.492863,"zip":"5900000"},{"town":"御陵通","koaza":"","lat":34.566071,"lng":135.472137,"zip":"5900057"},{"town":"東湊町五丁","koaza":"","lat":34.564149,"lng":135.465206,"zip":"5900829"},{"town":"榎元町六丁","koaza":"","lat":34.568788,"lng":135.489647,"zip":"5900027"},{"town":"東湊町四丁","koaza":"","lat":34.565434,"lng":135.466208,"zip":"5900829"},{"town":"八千代通","koaza":"","lat":34.567598,"lng":135.47449,"zip":"5900052"},{"town":"甲斐町西三丁","koaza":"","lat":34.579318,"lng":135.470227,"zip":"5900950"},{"town":"南丸保園","koaza":"","lat":34.566439,"lng":135.484273,"zip":"5900036"},{"town":"大仙西町二丁","koaza":"","lat":34.566106,"lng":135.469763,"zip":"5900821"},{"town":"大仙西町三丁","koaza":"","lat":34.565513,"lng":135.471047,"zip":"5900821"},{"town":"榎元町三丁","koaza":"","lat":34.570995,"lng":135.487253,"zip":"5900027"},{"town":"遠里小野町二丁","koaza":"","lat":34.591944,"lng":135.490916,"zip":"5900001"},{"town":"中向陽町一丁","koaza":"","lat":34.580032,"lng":135.483528,"zip":"5900072"},{"town":"南三国ヶ丘町四丁","koaza":"","lat":34.572626,"lng":135.491062,"zip":"5900000"},{"town":"南清水町三丁","koaza":"","lat":34.586574,"lng":135.48903,"zip":"5900005"},{"town":"幸通","koaza":"","lat":34.567974,"lng":135.474736,"zip":"5900051"},{"town":"北清水町一丁","koaza":"","lat":34.58875,"lng":135.486499,"zip":"5900004"},{"town":"南三国ヶ丘町五丁","koaza":"","lat":34.572568,"lng":135.49271,"zip":"5900000"},{"town":"東湊町一丁","koaza":"","lat":34.568852,"lng":135.466409,"zip":"5900829"},{"town":"榎元町二丁","koaza":"","lat":34.570958,"lng":135.485561,"zip":"5900027"},{"town":"西湊町一丁","koaza":"","lat":34.569813,"lng":135.464597,"zip":"5900835"},{"town":"東湊町三丁","koaza":"","lat":34.566532,"lng":135.465613,"zip":"5900829"},{"town":"文珠橋通","koaza":"","lat":34.567294,"lng":135.474145,"zip":"5900053"},{"town":"櫛屋町西一丁","koaza":"","lat":34.581809,"lng":135.475171,"zip":"5900949"},{"town":"遠里小野町三丁","koaza":"","lat":34.592835,"lng":135.491367,"zip":"5900001"},{"town":"緑ヶ丘中町一丁","koaza":"","lat":34.55618,"lng":135.470608,"zip":"5900805"},{"town":"砂道町三丁","koaza":"","lat":34.590777,"lng":135.491016,"zip":"5900002"},{"town":"宿屋町東三丁","koaza":"","lat":34.581983,"lng":135.481649,"zip":"5900936"},{"town":"緑ヶ丘北町四丁","koaza":"","lat":34.555391,"lng":135.475126,"zip":"5900806"},{"town":"錦綾町三丁","koaza":"","lat":34.584848,"lng":135.488359,"zip":"5900006"},{"town":"竜神橋町一丁","koaza":"","lat":34.579343,"lng":135.467617,"zip":"5900972"},{"town":"榎元町一丁","koaza":"","lat":34.572129,"lng":135.485593,"zip":"5900027"},{"town":"北三国ヶ丘町四丁","koaza":"","lat":34.576064,"lng":135.491679,"zip":"5900000"},{"town":"中三国ヶ丘町一丁","koaza":"","lat":34.574936,"lng":135.486039,"zip":"5900000"},{"town":"緑町一丁","koaza":"","lat":34.597112,"lng":135.469312,"zip":"5900907"},{"town":"北向陽町一丁","koaza":"","lat":34.581192,"lng":135.483904,"zip":"5900071"},{"town":"出島町五丁","koaza":"","lat":34.566578,"lng":135.458971,"zip":"5900834"},{"town":"老松町三丁","koaza":"","lat":34.56045,"lng":135.466155,"zip":"5900824"},{"town":"住吉橋町一丁","koaza":"","lat":34.578552,"lng":135.466517,"zip":"5900973"},{"town":"向陵中町二丁","koaza":"","lat":34.566079,"lng":135.493561,"zip":"5900024"},{"town":"中安井町三丁","koaza":"","lat":34.571373,"lng":135.478605,"zip":"5900063"},{"town":"西湊町四丁","koaza":"","lat":34.56754,"lng":135.462316,"zip":"5900835"},{"town":"二条通","koaza":"","lat":34.567085,"lng":135.479461,"zip":"5900047"},{"town":"柏木町二丁","koaza":"","lat":34.563526,"lng":135.459455,"zip":"5900837"},{"town":"翁橋町二丁","koaza":"","lat":34.571722,"lng":135.480052,"zip":"5900061"},{"town":"大浜南町一丁","koaza":"","lat":34.573493,"lng":135.462319,"zip":"5900976"},{"town":"大浜南町三丁","koaza":"","lat":34.574776,"lng":135.459641,"zip":"5900976"},{"town":"老松町一丁","koaza":"","lat":34.561545,"lng":135.463317,"zip":"5900824"},{"town":"西湊町六丁","koaza":"","lat":34.565708,"lng":135.460929,"zip":"5900835"},{"town":"三宝町一丁","koaza":"","lat":34.591142,"lng":135.479839,"zip":"5900906"},{"town":"東湊町二丁","koaza":"","lat":34.567693,"lng":135.466245,"zip":"5900829"},{"town":"三条通","koaza":"","lat":34.566914,"lng":135.479867,"zip":"5900046"},{"town":"西湊町五丁","koaza":"","lat":34.566352,"lng":135.462685,"zip":"5900835"},{"town":"南島町二丁","koaza":"","lat":34.595311,"lng":135.476616,"zip":"5900904"},{"town":"中三国ヶ丘町六丁","koaza":"","lat":34.574042,"lng":135.494284,"zip":"5900000"},{"town":"南三国ヶ丘町三丁","koaza":"","lat":34.572897,"lng":135.489294,"zip":"5900000"},{"town":"京町通","koaza":"","lat":34.566687,"lng":135.474324,"zip":"5900054"},{"town":"出島海岸通二丁","koaza":"","lat":34.569707,"lng":135.458398,"zip":"5900833"},{"town":"旭ヶ丘北町一丁","koaza":"","lat":34.561212,"lng":135.474905,"zip":"5900000"},{"town":"南旅篭町東三丁","koaza":"","lat":34.569037,"lng":135.469046,"zip":"5900965"},{"town":"旭ヶ丘中町一丁","koaza":"","lat":34.559738,"lng":135.473613,"zip":"5900000"},{"town":"神南辺町六丁","koaza":"","lat":34.588038,"lng":135.464663,"zip":"5900984"},{"town":"四条通","koaza":"","lat":34.566706,"lng":135.480267,"zip":"5900045"},{"town":"出島町一丁","koaza":"","lat":34.571312,"lng":135.462339,"zip":"5900834"},{"town":"向陵中町五丁","koaza":"","lat":34.567716,"lng":135.497359,"zip":"5900024"},{"town":"五条通","koaza":"","lat":34.565842,"lng":135.480156,"zip":"5900044"},{"town":"栄橋町一丁","koaza":"","lat":34.580298,"lng":135.46835,"zip":"5900971"},{"town":"北三国ヶ丘町一丁","koaza":"","lat":34.576488,"lng":135.486953,"zip":"5900000"},{"town":"東雲西町二丁","koaza":"","lat":34.581623,"lng":135.496916,"zip":"5900013"},{"town":"北丸保園","koaza":"","lat":34.567723,"lng":135.484995,"zip":"5900037"},{"town":"出島海岸通三丁","koaza":"","lat":34.567942,"lng":135.457438,"zip":"5900833"},{"town":"神南辺町五丁","koaza":"","lat":34.58777,"lng":135.466397,"zip":"5900984"},{"town":"東雲西町三丁","koaza":"","lat":34.58144,"lng":135.498375,"zip":"5900013"},{"town":"三宝町二丁","koaza":"","lat":34.591653,"lng":135.478796,"zip":"5900906"},{"town":"山本町三丁","koaza":"","lat":34.588334,"lng":135.471334,"zip":"5900983"},{"town":"石津町四丁","koaza":"","lat":34.553763,"lng":135.461126,"zip":"5900814"},{"town":"大浜中町二丁","koaza":"","lat":34.576342,"lng":135.462267,"zip":"5900975"},{"town":"東雲西町四丁","koaza":"","lat":34.581293,"lng":135.499906,"zip":"5900013"},{"town":"榎元町四丁","koaza":"","lat":34.56942,"lng":135.487579,"zip":"5900027"},{"town":"出島町三丁","koaza":"","lat":34.568774,"lng":135.460407,"zip":"5900834"},{"town":"南三国ヶ丘町二丁","koaza":"","lat":34.573001,"lng":135.487327,"zip":"5900000"},{"town":"山本町四丁","koaza":"","lat":34.58908,"lng":135.469883,"zip":"5900983"},{"town":"南清水町一丁","koaza":"","lat":34.587224,"lng":135.486119,"zip":"5900005"},{"town":"大浜北町一丁","koaza":"","lat":34.57736,"lng":135.465568,"zip":"5900974"},{"town":"戎島町一丁","koaza":"","lat":34.583085,"lng":135.473206,"zip":"5900985"},{"town":"大浜中町三丁","koaza":"","lat":34.577084,"lng":135.460449,"zip":"5900975"},{"town":"三宝町七丁","koaza":"","lat":34.594857,"lng":135.468364,"zip":"5900906"},{"town":"向陵中町四丁","koaza":"","lat":34.565357,"lng":135.494652,"zip":"5900024"},{"town":"南三国ヶ丘町六丁","koaza":"","lat":34.572154,"lng":135.494496,"zip":"5900000"},{"town":"山本町六丁","koaza":"","lat":34.590363,"lng":135.464532,"zip":"5900983"},{"town":"大浜北町二丁","koaza":"","lat":34.578259,"lng":135.463866,"zip":"5900974"},{"town":"協和町一丁","koaza":"","lat":34.563896,"lng":135.467632,"zip":"5900822"},{"town":"向陵中町六丁","koaza":"","lat":34.564725,"lng":135.495815,"zip":"5900024"},{"town":"榎元町五丁","koaza":"","lat":34.570677,"lng":135.488991,"zip":"5900027"},{"town":"松屋大和川通一丁","koaza":"","lat":34.59963,"lng":135.470359,"zip":"5900902"},{"town":"向陵中町三丁","koaza":"","lat":34.568167,"lng":135.496145,"zip":"5900024"},{"town":"大仙西町六丁","koaza":"","lat":34.563685,"lng":135.474555,"zip":"5900821"},{"town":"向陵西町一丁","koaza":"","lat":34.570419,"lng":135.490796,"zip":"5900026"},{"town":"緑町三丁","koaza":"","lat":34.598356,"lng":135.465131,"zip":"5900907"},{"town":"協和町二丁","koaza":"","lat":34.563345,"lng":135.468673,"zip":"5900822"},{"town":"緑町四丁","koaza":"","lat":34.599051,"lng":135.463003,"zip":"5900907"},{"town":"今池町一丁","koaza":"","lat":34.582706,"lng":135.489423,"zip":"5900018"},{"town":"香ヶ丘町三丁","koaza":"","lat":34.589264,"lng":135.49417,"zip":"5900000"},{"town":"北三国ヶ丘町八丁","koaza":"","lat":34.575781,"lng":135.496581,"zip":"5900000"},{"town":"車之町東三丁","koaza":"","lat":34.579954,"lng":135.480162,"zip":"5900943"},{"town":"三宝町三丁","koaza":"","lat":34.592015,"lng":135.476954,"zip":"5900906"},{"town":"出島海岸通一丁","koaza":"","lat":34.571631,"lng":135.459496,"zip":"5900833"},{"town":"今池町三丁","koaza":"","lat":34.58502,"lng":135.49136,"zip":"5900018"},{"town":"五月町","koaza":"","lat":34.570688,"lng":135.483328,"zip":"5900031"},{"town":"神南辺町二丁","koaza":"","lat":34.585998,"lng":135.471672,"zip":"5900984"},{"town":"向陵西町二丁","koaza":"","lat":34.569704,"lng":135.492005,"zip":"5900026"},{"town":"今池町五丁","koaza":"","lat":34.584733,"lng":135.494432,"zip":"5900018"},{"town":"百舌鳥夕雲町一丁","koaza":"","lat":34.561515,"lng":135.490144,"zip":"5900802"},{"town":"香ヶ丘町二丁","koaza":"","lat":34.587289,"lng":135.494935,"zip":"5900000"},{"town":"南島町三丁","koaza":"","lat":34.596516,"lng":135.475847,"zip":"5900904"},{"town":"錦綾町一丁","koaza":"","lat":34.58547,"lng":135.485386,"zip":"5900006"},{"town":"今池町二丁","koaza":"","lat":34.585156,"lng":135.489907,"zip":"5900018"},{"town":"緑町二丁","koaza":"","lat":34.5977,"lng":135.467408,"zip":"5900907"},{"town":"北庄町一丁","koaza":"","lat":34.583552,"lng":135.484703,"zip":"5900007"},{"town":"今池町六丁","koaza":"","lat":34.583998,"lng":135.495854,"zip":"5900018"},{"town":"今池町四丁","koaza":"","lat":34.585199,"lng":135.492803,"zip":"5900018"},{"town":"大仙西町一丁","koaza":"","lat":34.566846,"lng":135.468341,"zip":"5900821"},{"town":"出島海岸通四丁","koaza":"","lat":34.565556,"lng":135.456058,"zip":"5900833"},{"town":"協和町三丁","koaza":"","lat":34.56284,"lng":135.469809,"zip":"5900822"},{"town":"山本町二丁","koaza":"","lat":34.587594,"lng":135.473341,"zip":"5900983"},{"town":"旭ヶ丘中町四丁","koaza":"","lat":34.557602,"lng":135.477482,"zip":"5900000"},{"town":"南島町五丁","koaza":"","lat":34.597248,"lng":135.47377,"zip":"5900904"},{"town":"海山町七丁","koaza":"","lat":34.593049,"lng":135.464385,"zip":"5900982"},{"town":"向陵中町一丁","koaza":"","lat":34.569186,"lng":135.495007,"zip":"5900024"},{"town":"翁橋町一丁","koaza":"","lat":34.573124,"lng":135.477853,"zip":"5900061"},{"town":"海山町三丁","koaza":"","lat":34.590321,"lng":135.473245,"zip":"5900982"},{"town":"浅香山町一丁","koaza":"","lat":34.584859,"lng":135.497523,"zip":"5900012"},{"town":"南島町四丁","koaza":"","lat":34.596874,"lng":135.474833,"zip":"5900904"},{"town":"海山町一丁","koaza":"","lat":34.588596,"lng":135.477209,"zip":"5900982"},{"town":"神南辺町一丁","koaza":"","lat":34.585016,"lng":135.473873,"zip":"5900984"},{"town":"向陵東町三丁","koaza":"","lat":34.561527,"lng":135.500593,"zip":"5900025"},{"town":"神南辺町四丁","koaza":"","lat":34.586928,"lng":135.468306,"zip":"5900984"},{"town":"海山町四丁","koaza":"","lat":34.590959,"lng":135.471465,"zip":"5900982"},{"town":"北三国ヶ丘町二丁","koaza":"","lat":34.575942,"lng":135.488828,"zip":"5900000"},{"town":"砂道町一丁","koaza":"","lat":34.591405,"lng":135.487344,"zip":"5900002"},{"town":"香ヶ丘町四丁","koaza":"","lat":34.591755,"lng":135.493338,"zip":"5900000"},{"town":"出島浜通","koaza":"","lat":34.568979,"lng":135.456631,"zip":"5900832"},{"town":"三宝町八丁","koaza":"","lat":34.595447,"lng":135.466578,"zip":"5900906"},{"town":"戎島町二丁","koaza":"","lat":34.581815,"lng":135.472279,"zip":"5900985"},{"town":"霞ヶ丘町四丁","koaza":"","lat":34.552393,"lng":135.469236,"zip":"5900000"},{"town":"協和町四丁","koaza":"","lat":34.562319,"lng":135.471224,"zip":"5900822"},{"town":"三宝町五丁","koaza":"","lat":34.593962,"lng":135.472647,"zip":"5900906"},{"town":"海山町五丁","koaza":"","lat":34.591618,"lng":135.468904,"zip":"5900982"},{"town":"三国ヶ丘御幸通","koaza":"","lat":34.574887,"lng":135.484535,"zip":"5900000"},{"town":"三宝町九丁","koaza":"","lat":34.596091,"lng":135.46445,"zip":"5900906"},{"town":"戎島町三丁","koaza":"","lat":34.582562,"lng":135.470033,"zip":"5900985"},{"town":"南瓦町","koaza":"","lat":34.573938,"lng":135.481507,"zip":"5900078"},{"town":"山本町一丁","koaza":"","lat":34.586599,"lng":135.475497,"zip":"5900983"},{"town":"大浜南町二丁","koaza":"","lat":34.574173,"lng":135.46098,"zip":"5900976"},{"town":"出島町二丁","koaza":"","lat":34.570025,"lng":135.461473,"zip":"5900834"},{"town":"向陵西町三丁","koaza":"","lat":34.569472,"lng":135.493386,"zip":"5900026"},{"town":"山本町五丁","koaza":"","lat":34.589632,"lng":135.467025,"zip":"5900983"},{"town":"大浜北町五丁","koaza":"","lat":34.581687,"lng":135.459375,"zip":"5900974"},{"town":"百舌鳥夕雲町三丁","koaza":"","lat":34.557775,"lng":135.48254,"zip":"5900802"},{"town":"松屋町一丁","koaza":"","lat":34.597787,"lng":135.472725,"zip":"5900903"},{"town":"七道東町","koaza":"","lat":34.593707,"lng":135.485548,"zip":"5900913"},{"town":"遠里小野町四丁","koaza":"","lat":34.594066,"lng":135.491972,"zip":"5900001"},{"town":"石津町二丁","koaza":"","lat":34.555474,"lng":135.465739,"zip":"5900814"},{"town":"向陵東町二丁","koaza":"","lat":34.562403,"lng":135.498765,"zip":"5900025"},{"town":"戎島町四丁","koaza":"","lat":34.583376,"lng":135.468979,"zip":"5900985"},{"town":"浅香山町二丁","koaza":"","lat":34.584946,"lng":135.499028,"zip":"5900012"},{"town":"協和町五丁","koaza":"","lat":34.561341,"lng":135.47262,"zip":"5900822"},{"town":"東雲西町一丁","koaza":"","lat":34.578712,"lng":135.498242,"zip":"5900013"},{"town":"三宝町六丁","koaza":"","lat":34.594312,"lng":135.470427,"zip":"5900906"},{"town":"海山町二丁","koaza":"","lat":34.589649,"lng":135.475569,"zip":"5900982"},{"town":"三宝町四丁","koaza":"","lat":34.592834,"lng":135.475194,"zip":"5900906"},{"town":"松屋大和川通三丁","koaza":"","lat":34.600833,"lng":135.466231,"zip":"5900902"},{"town":"旭ヶ丘北町五丁","koaza":"","lat":34.558056,"lng":135.479998,"zip":"5900000"},{"town":"石津町一丁","koaza":"","lat":34.555988,"lng":135.462974,"zip":"5900814"},{"town":"松屋町二丁","koaza":"","lat":34.598202,"lng":135.471363,"zip":"5900903"},{"town":"向陵西町四丁","koaza":"","lat":34.565978,"lng":135.49211,"zip":"5900026"},{"town":"松屋大和川通二丁","koaza":"","lat":34.600298,"lng":135.468565,"zip":"5900902"},{"town":"海山町六丁","koaza":"","lat":34.592347,"lng":135.466825,"zip":"5900982"},{"town":"大浜北町三丁","koaza":"","lat":34.579923,"lng":135.4634,"zip":"5900974"},{"town":"浅香山町三丁","koaza":"","lat":34.584511,"lng":135.501012,"zip":"5900012"},{"town":"石津町三丁","koaza":"","lat":34.552987,"lng":135.463592,"zip":"5900814"},{"town":"香ヶ丘町一丁","koaza":"","lat":34.588382,"lng":135.492001,"zip":"5900000"},{"town":"向陵東町一丁","koaza":"","lat":34.564428,"lng":135.497613,"zip":"5900025"},{"town":"南島町一丁","koaza":"","lat":34.596024,"lng":135.478377,"zip":"5900904"},{"town":"七道西町","koaza":"","lat":34.594114,"lng":135.483497,"zip":"5900911"},{"town":"松屋大和川通四丁","koaza":"","lat":34.601709,"lng":135.463741,"zip":"5900902"},{"town":"東上野芝町一丁","koaza":"","lat":34.554349,"lng":135.482964,"zip":"5900803"},{"town":"一条通","koaza":"","lat":34.568338,"lng":135.479588,"zip":"5900048"},{"town":"遠里小野町一丁","koaza":"","lat":34.593885,"lng":135.488207,"zip":"5900001"},{"town":"北波止町","koaza":"","lat":34.585431,"lng":135.462025,"zip":"5900986"},{"town":"塩浜町","koaza":"","lat":34.591143,"lng":135.463154,"zip":"5900981"},{"town":"大浜北町四丁","koaza":"","lat":34.58061,"lng":135.461577,"zip":"5900974"},{"town":"戎島町五丁","koaza":"","lat":34.584786,"lng":135.467424,"zip":"5900985"},{"town":"鉄砲町","koaza":"","lat":34.594768,"lng":135.480723,"zip":"5900905"},{"town":"神石市之町","koaza":"","lat":34.548893,"lng":135.465118,"zip":"5900813"},{"town":"百舌鳥夕雲町二丁","koaza":"","lat":34.558335,"lng":135.485903,"zip":"5900802"},{"town":"大仙中町","koaza":"","lat":34.561755,"lng":135.479325,"zip":"5900801"},{"town":"香ヶ丘町五丁","koaza":"","lat":34.590569,"lng":135.496492,"zip":"5900000"},{"town":"石津北町","koaza":"","lat":34.558248,"lng":135.466916,"zip":"5900823"},{"town":"田出井町","koaza":"","lat":34.580157,"lng":135.493459,"zip":"5900014"},{"town":"築港南町","koaza":"","lat":34.58715,"lng":135.455042,"zip":"5900987"},{"town":"出島西町","koaza":"","lat":34.570869,"lng":135.453684,"zip":"5900831"},{"town":"大浜西町","koaza":"","lat":34.577953,"lng":135.455373,"zip":"5900977"},{"town":"大仙町","koaza":"","lat":34.563545,"lng":135.485114,"zip":"5900035"},{"town":"匠町","koaza":"","lat":34.596887,"lng":135.4336,"zip":"5900908"},{"town":"築港八幡町","koaza":"","lat":34.598793,"lng":135.453778,"zip":"5900901"}]