[{"town":"八田寺町","koaza":"","lat":34.530967,"lng":135.480805,"zip":"5938306"},{"town":"鳳中町六丁","koaza":"","lat":34.536265,"lng":135.457237,"zip":"5938327"},{"town":"鳳中町三丁","koaza":"","lat":34.533008,"lng":135.458602,"zip":"5938327"},{"town":"鳳中町一丁","koaza":"","lat":34.534642,"lng":135.460259,"zip":"5938327"},{"town":"鳳東町三丁","koaza":"","lat":34.530325,"lng":135.461804,"zip":"5938324"},{"town":"浜寺元町二丁","koaza":"","lat":34.542769,"lng":135.455054,"zip":"5928343"},{"town":"鳳北町二丁","koaza":"","lat":34.537386,"lng":135.457653,"zip":"5938328"},{"town":"鳳南町四丁","koaza":"","lat":34.528114,"lng":135.461898,"zip":"5938325"},{"town":"鳳北町五丁","koaza":"","lat":34.538736,"lng":135.46145,"zip":"5938328"},{"town":"浜寺諏訪森町中二丁","koaza":"","lat":34.549806,"lng":135.449415,"zip":"5928348"},{"town":"鳳南町一丁","koaza":"","lat":34.528626,"lng":135.457797,"zip":"5938325"},{"town":"浜寺石津町西一丁","koaza":"","lat":34.563264,"lng":135.45453,"zip":"5928333"},{"town":"鳳東町二丁","koaza":"","lat":34.530175,"lng":135.459079,"zip":"5938324"},{"town":"鳳北町三丁","koaza":"","lat":34.537776,"lng":135.461248,"zip":"5938328"},{"town":"鳳中町五丁","koaza":"","lat":34.534218,"lng":135.456872,"zip":"5938327"},{"town":"浜寺諏訪森町中三丁","koaza":"","lat":34.547234,"lng":135.447843,"zip":"5928348"},{"town":"鳳東町一丁","koaza":"","lat":34.532034,"lng":135.459444,"zip":"5938324"},{"town":"鳳中町二丁","koaza":"","lat":34.535273,"lng":135.458521,"zip":"5938327"},{"town":"鳳中町四丁","koaza":"","lat":34.531958,"lng":135.456931,"zip":"5938327"},{"town":"鳳北町七丁","koaza":"","lat":34.540146,"lng":135.461644,"zip":"5938328"},{"town":"浜寺石津町西三丁","koaza":"","lat":34.559493,"lng":135.451612,"zip":"5928333"},{"town":"鳳北町四丁","koaza":"","lat":34.538698,"lng":135.457696,"zip":"5938328"},{"town":"鳳北町六丁","koaza":"","lat":34.539961,"lng":135.458304,"zip":"5938328"},{"town":"浜寺元町四丁","koaza":"","lat":34.541008,"lng":135.454831,"zip":"5928343"},{"town":"上野芝町六丁","koaza":"","lat":34.550855,"lng":135.472001,"zip":"5938301"},{"town":"浜寺石津町西二丁","koaza":"","lat":34.561356,"lng":135.452982,"zip":"5928333"},{"town":"浜寺諏訪森町東一丁","koaza":"","lat":34.550751,"lng":135.452756,"zip":"5928349"},{"town":"鳳東町四丁","koaza":"","lat":34.531899,"lng":135.461745,"zip":"5938324"},{"town":"鳳北町一丁","koaza":"","lat":34.536527,"lng":135.460763,"zip":"5938328"},{"town":"鳳北町八丁","koaza":"","lat":34.541823,"lng":135.458063,"zip":"5938328"},{"town":"浜寺南町三丁","koaza":"","lat":34.536219,"lng":135.452144,"zip":"5928344"},{"town":"浜寺昭和町四丁","koaza":"","lat":34.540152,"lng":135.446085,"zip":"5928345"},{"town":"鳳南町二丁","koaza":"","lat":34.528415,"lng":135.459905,"zip":"5938325"},{"town":"鳳中町七丁","koaza":"","lat":34.536611,"lng":135.45486,"zip":"5938327"},{"town":"鳳中町八丁","koaza":"","lat":34.5348,"lng":135.454549,"zip":"5938327"},{"town":"浜寺昭和町三丁","koaza":"","lat":34.541308,"lng":135.447418,"zip":"5928345"},{"town":"神野町一丁","koaza":"","lat":34.545911,"lng":135.474885,"zip":"5938308"},{"town":"上野芝町五丁","koaza":"","lat":34.548219,"lng":135.474503,"zip":"5938301"},{"town":"浜寺元町一丁","koaza":"","lat":34.543739,"lng":135.452712,"zip":"5928343"},{"town":"浜寺船尾町西一丁","koaza":"","lat":34.550938,"lng":135.456007,"zip":"5928342"},{"town":"鳳北町十丁","koaza":"","lat":34.543455,"lng":135.460529,"zip":"5938328"},{"town":"鳳中町九丁","koaza":"","lat":34.532398,"lng":135.454115,"zip":"5938327"},{"town":"浜寺船尾町東三丁","koaza":"","lat":34.547901,"lng":135.461172,"zip":"5928341"},{"town":"浜寺船尾町東四丁","koaza":"","lat":34.54634,"lng":135.460045,"zip":"5928341"},{"town":"浜寺船尾町東二丁","koaza":"","lat":34.550308,"lng":135.461506,"zip":"5928341"},{"town":"浜寺石津町中五丁","koaza":"","lat":34.554344,"lng":135.452167,"zip":"5928334"},{"town":"神野町三丁","koaza":"","lat":34.539925,"lng":135.475265,"zip":"5938308"},{"town":"浜寺諏訪森町東三丁","koaza":"","lat":34.546865,"lng":135.449723,"zip":"5928349"},{"town":"浜寺公園町三丁","koaza":"","lat":34.539864,"lng":135.441478,"zip":"5928346"},{"town":"上野芝向ヶ丘町三丁","koaza":"","lat":34.545235,"lng":135.481389,"zip":"5930000"},{"town":"上野芝町七丁","koaza":"","lat":34.548497,"lng":135.47112,"zip":"5938301"},{"town":"浜寺船尾町西三丁","koaza":"","lat":34.547287,"lng":135.456727,"zip":"5928342"},{"town":"浜寺元町三丁","koaza":"","lat":34.542019,"lng":135.451868,"zip":"5928343"},{"town":"浜寺諏訪森町東二丁","koaza":"","lat":34.548568,"lng":135.451366,"zip":"5928349"},{"town":"浜寺昭和町一丁","koaza":"","lat":34.545094,"lng":135.44897,"zip":"5928345"},{"town":"上野芝町二丁","koaza":"","lat":34.550571,"lng":135.481063,"zip":"5938301"},{"town":"浜寺昭和町五丁","koaza":"","lat":34.537928,"lng":135.44599,"zip":"5928345"},{"town":"上野芝向ヶ丘町二丁","koaza":"","lat":34.546518,"lng":135.478279,"zip":"5930000"},{"town":"浜寺石津町東一丁","koaza":"","lat":34.559986,"lng":135.461171,"zip":"5928335"},{"town":"浜寺元町六丁","koaza":"","lat":34.538881,"lng":135.454272,"zip":"5928343"},{"town":"鳳東町五丁","koaza":"","lat":34.535043,"lng":135.462346,"zip":"5938324"},{"town":"浜寺石津町中三丁","koaza":"","lat":34.558159,"lng":135.455397,"zip":"5928334"},{"town":"浜寺石津町東四丁","koaza":"","lat":34.55462,"lng":135.457551,"zip":"5928335"},{"town":"堀上緑町一丁","koaza":"","lat":34.534127,"lng":135.478001,"zip":"5938305"},{"town":"浜寺諏訪森町中一丁","koaza":"","lat":34.5522,"lng":135.450864,"zip":"5928348"},{"town":"浜寺南町一丁","koaza":"","lat":34.536358,"lng":135.447359,"zip":"5928344"},{"town":"上野芝町三丁","koaza":"","lat":34.548451,"lng":135.478818,"zip":"5938301"},{"town":"浜寺諏訪森町西四丁","koaza":"","lat":34.547232,"lng":135.445557,"zip":"5928347"},{"town":"浜寺石津町中四丁","koaza":"","lat":34.556761,"lng":135.452906,"zip":"5928334"},{"town":"上野芝向ヶ丘町四丁","koaza":"","lat":34.543448,"lng":135.477747,"zip":"5930000"},{"town":"宮下町","koaza":"","lat":34.545886,"lng":135.467863,"zip":"5938321"},{"town":"浜寺石津町中二丁","koaza":"","lat":34.560084,"lng":135.456217,"zip":"5928334"},{"town":"浜寺船尾町東一丁","koaza":"","lat":34.551498,"lng":135.459389,"zip":"5928341"},{"town":"浜寺石津町中一丁","koaza":"","lat":34.561988,"lng":135.457141,"zip":"5928334"},{"town":"上野芝町八丁","koaza":"","lat":34.550251,"lng":135.468653,"zip":"5938301"},{"town":"鳳北町九丁","koaza":"","lat":34.543482,"lng":135.462256,"zip":"5938328"},{"town":"浜寺昭和町二丁","koaza":"","lat":34.543149,"lng":135.44802,"zip":"5928345"},{"town":"浜寺石津町東三丁","koaza":"","lat":34.556598,"lng":135.458334,"zip":"5928335"},{"town":"浜寺石津町東二丁","koaza":"","lat":34.558156,"lng":135.460123,"zip":"5928335"},{"town":"浜寺諏訪森町西二丁","koaza":"","lat":34.551649,"lng":135.44592,"zip":"5928347"},{"town":"浜寺諏訪森町西三丁","koaza":"","lat":34.549179,"lng":135.446433,"zip":"5928347"},{"town":"上野芝向ヶ丘町一丁","koaza":"","lat":34.547501,"lng":135.481843,"zip":"5930000"},{"town":"鳳中町十丁","koaza":"","lat":34.533562,"lng":135.451141,"zip":"5938327"},{"town":"浜寺船尾町西四丁","koaza":"","lat":34.545619,"lng":135.45359,"zip":"5928342"},{"town":"浜寺元町五丁","koaza":"","lat":34.539683,"lng":135.450842,"zip":"5928343"},{"town":"堀上緑町三丁","koaza":"","lat":34.531434,"lng":135.479193,"zip":"5938305"},{"town":"北条町二丁","koaza":"","lat":34.544308,"lng":135.484253,"zip":"5938302"},{"town":"浜寺諏訪森町西一丁","koaza":"","lat":34.553013,"lng":135.447163,"zip":"5928347"},{"town":"浜寺南町二丁","koaza":"","lat":34.535937,"lng":135.449877,"zip":"5928344"},{"town":"浜寺公園町四丁","koaza":"","lat":34.544992,"lng":135.441085,"zip":"5928346"},{"town":"鳳西町三丁","koaza":"","lat":34.531322,"lng":135.449385,"zip":"5938326"},{"town":"浜寺石津町西五丁","koaza":"","lat":34.555271,"lng":135.447644,"zip":"5928333"},{"town":"上野芝向ヶ丘町五丁","koaza":"","lat":34.542382,"lng":135.481508,"zip":"5930000"},{"town":"浜寺船尾町西二丁","koaza":"","lat":34.548742,"lng":135.456209,"zip":"5928342"},{"town":"上野芝町一丁","koaza":"","lat":34.553325,"lng":135.480313,"zip":"5938301"},{"town":"浜寺公園町一丁","koaza":"","lat":34.544963,"lng":135.443851,"zip":"5928346"},{"town":"家原寺町二丁","koaza":"","lat":34.537248,"lng":135.479013,"zip":"5938304"},{"town":"津久野町二丁","koaza":"","lat":34.543427,"lng":135.471352,"zip":"5938322"},{"town":"堀上緑町二丁","koaza":"","lat":34.53278,"lng":135.481461,"zip":"5938305"},{"town":"上野芝向ヶ丘町六丁","koaza":"","lat":34.540578,"lng":135.482052,"zip":"5930000"},{"town":"浜寺石津町東五丁","koaza":"","lat":34.553091,"lng":135.455906,"zip":"5928335"},{"town":"浜寺石津町西四丁","koaza":"","lat":34.557686,"lng":135.449698,"zip":"5928333"},{"town":"神野町二丁","koaza":"","lat":34.543054,"lng":135.474955,"zip":"5938308"},{"town":"浜寺船尾町西五丁","koaza":"","lat":34.54431,"lng":135.457945,"zip":"5928342"},{"town":"上野芝町四丁","koaza":"","lat":34.550883,"lng":135.475657,"zip":"5938301"},{"town":"鳳東町六丁","koaza":"","lat":34.536434,"lng":135.464875,"zip":"5938324"},{"town":"鳳東町七丁","koaza":"","lat":34.531861,"lng":135.465523,"zip":"5938324"},{"town":"浜寺公園町二丁","koaza":"","lat":34.542432,"lng":135.442114,"zip":"5928346"},{"town":"石津ヶ丘","koaza":"","lat":34.553886,"lng":135.477219,"zip":"5930000"},{"town":"津久野町一丁","koaza":"","lat":34.540084,"lng":135.47051,"zip":"5938322"},{"town":"津久野町三丁","koaza":"","lat":34.544953,"lng":135.470113,"zip":"5938322"},{"town":"菱木一丁","koaza":"","lat":34.514041,"lng":135.475403,"zip":"5938315"},{"town":"山田一丁","koaza":"","lat":34.513047,"lng":135.466443,"zip":"5938316"},{"town":"家原寺町一丁","koaza":"","lat":34.537155,"lng":135.47362,"zip":"5938304"},{"town":"鶴田町","koaza":"","lat":34.537657,"lng":135.467891,"zip":"5938323"},{"town":"鳳西町二丁","koaza":"","lat":34.52787,"lng":135.449198,"zip":"5938326"},{"town":"鳳南町五丁","koaza":"","lat":34.528928,"lng":135.465843,"zip":"5938325"},{"town":"北条町一丁","koaza":"","lat":34.545415,"lng":135.48681,"zip":"5938302"},{"town":"菱木三丁","koaza":"","lat":34.509581,"lng":135.474366,"zip":"5938315"},{"town":"菱木二丁","koaza":"","lat":34.513555,"lng":135.471423,"zip":"5938315"},{"town":"鳳南町三丁","koaza":"","lat":34.525884,"lng":135.457282,"zip":"5938325"},{"town":"鳳西町一丁","koaza":"","lat":34.528209,"lng":135.453936,"zip":"5938326"},{"town":"菱木四丁","koaza":"","lat":34.50553,"lng":135.47581,"zip":"5938315"},{"town":"山田三丁","koaza":"","lat":34.506237,"lng":135.467516,"zip":"5938316"},{"town":"下田町","koaza":"","lat":34.542582,"lng":135.464805,"zip":"5938329"},{"town":"平岡町","koaza":"","lat":34.534172,"lng":135.472979,"zip":"5938307"},{"town":"山田二丁","koaza":"","lat":34.503829,"lng":135.465985,"zip":"5938316"},{"town":"原田","koaza":"","lat":34.514581,"lng":135.460331,"zip":"5938317"},{"town":"山田四丁","koaza":"","lat":34.506856,"lng":135.470522,"zip":"5938316"},{"town":"上","koaza":"","lat":34.524151,"lng":135.464232,"zip":"5938301"},{"town":"築港浜寺西町","koaza":"","lat":34.549036,"lng":135.410766,"zip":"5928352"},{"town":"太平寺","koaza":"","lat":34.5085,"lng":135.481802,"zip":"5938314"},{"town":"石津西町","koaza":"","lat":34.562388,"lng":135.445256,"zip":"5928332"},{"town":"築港新町二丁","koaza":"","lat":34.562019,"lng":135.42403,"zip":"5928331"},{"town":"築港浜寺町","koaza":"","lat":34.54867,"lng":135.434376,"zip":"5928351"},{"town":"築港新町一丁","koaza":"","lat":34.573102,"lng":135.439747,"zip":"5928331"},{"town":"草部","koaza":"","lat":34.518545,"lng":135.471946,"zip":"5938312"},{"town":"築港新町四丁","koaza":"","lat":34.586501,"lng":135.411026,"zip":"5928331"},{"town":"築港新町三丁","koaza":"","lat":34.576612,"lng":135.4317,"zip":"5928331"},{"town":"小代","koaza":"","lat":34.511865,"lng":135.48597,"zip":"5938313"}]