[{"town":"深阪","koaza":"","lat":34.514668,"lng":135.505126,"zip":"5998253"},{"town":"小阪西町","koaza":"","lat":34.517578,"lng":135.485576,"zip":"5998264"},{"town":"八田西町三丁","koaza":"","lat":34.519875,"lng":135.483767,"zip":"5998265"},{"town":"深阪三丁","koaza":"","lat":34.509528,"lng":135.503328,"zip":"5998253"},{"town":"深阪六丁","koaza":"","lat":34.507226,"lng":135.504126,"zip":"5998253"},{"town":"土師町四丁","koaza":"","lat":34.536739,"lng":135.500686,"zip":"5998238"},{"town":"深阪二丁","koaza":"","lat":34.509392,"lng":135.50022,"zip":"5998253"},{"town":"深阪五丁","koaza":"","lat":34.50792,"lng":135.507807,"zip":"5998253"},{"town":"深阪一丁","koaza":"","lat":34.512778,"lng":135.49932,"zip":"5998253"},{"town":"深阪四丁","koaza":"","lat":34.51139,"lng":135.505251,"zip":"5998253"},{"town":"八田南之町","koaza":"","lat":34.521284,"lng":135.485936,"zip":"5998263"},{"town":"土師町五丁","koaza":"","lat":34.539333,"lng":135.503735,"zip":"5998238"},{"town":"土師町一丁","koaza":"","lat":34.543663,"lng":135.497497,"zip":"5998238"},{"town":"土師町二丁","koaza":"","lat":34.542769,"lng":135.50258,"zip":"5998238"},{"town":"八田寺町","koaza":"","lat":34.528958,"lng":135.478666,"zip":"5998267"},{"town":"深井東町","koaza":"","lat":34.530212,"lng":135.506244,"zip":"5998235"},{"town":"八田西町一丁","koaza":"","lat":34.521927,"lng":135.476376,"zip":"5998265"},{"town":"土師町三丁","koaza":"","lat":34.539526,"lng":135.498495,"zip":"5998238"},{"town":"東八田","koaza":"","lat":34.524719,"lng":135.496352,"zip":"5998275"},{"town":"八田西町二丁","koaza":"","lat":34.519615,"lng":135.479938,"zip":"5998265"},{"town":"見野山","koaza":"","lat":34.505519,"lng":135.531464,"zip":"5998243"},{"town":"楢葉","koaza":"","lat":34.514569,"lng":135.50173,"zip":"5998252"},{"town":"宮園町","koaza":"","lat":34.52733,"lng":135.491964,"zip":"5998274"},{"town":"伏尾","koaza":"","lat":34.513944,"lng":135.49353,"zip":"5998254"},{"town":"小阪","koaza":"","lat":34.520624,"lng":135.490502,"zip":"5998276"},{"town":"深井沢町","koaza":"","lat":34.529407,"lng":135.499084,"zip":"5998236"},{"town":"深井水池町","koaza":"","lat":34.533305,"lng":135.50099,"zip":"5998237"},{"town":"堀上町","koaza":"","lat":34.529955,"lng":135.484756,"zip":"5998261"},{"town":"新家町","koaza":"","lat":34.542483,"lng":135.512304,"zip":"5998232"},{"town":"大野芝町","koaza":"","lat":34.534424,"lng":135.517595,"zip":"5998233"},{"town":"八田北町","koaza":"","lat":34.524836,"lng":135.481338,"zip":"5998262"},{"town":"毛穴町","koaza":"","lat":34.5291,"lng":135.472468,"zip":"5998266"},{"town":"深井清水町","koaza":"","lat":34.531805,"lng":135.491806,"zip":"5998273"},{"town":"深井北町","koaza":"","lat":34.540271,"lng":135.489864,"zip":"5998271"},{"town":"田園","koaza":"","lat":34.511956,"lng":135.510178,"zip":"5998246"},{"town":"学園町","koaza":"","lat":34.545247,"lng":135.506457,"zip":"5998231"},{"town":"深井中町","koaza":"","lat":34.536148,"lng":135.48867,"zip":"5998272"},{"town":"深井畑山町","koaza":"","lat":34.526795,"lng":135.509633,"zip":"5998248"},{"town":"上之","koaza":"","lat":34.507282,"lng":135.523848,"zip":"5998244"},{"town":"辻之","koaza":"","lat":34.510688,"lng":135.516944,"zip":"5998245"},{"town":"土塔町","koaza":"","lat":34.534594,"lng":135.508773,"zip":"5998234"},{"town":"平井","koaza":"","lat":34.517941,"lng":135.497383,"zip":"5998251"},{"town":"東山","koaza":"","lat":34.521585,"lng":135.507408,"zip":"5998247"},{"town":"陶器北","koaza":"","lat":34.513095,"lng":135.525056,"zip":"5998242"},{"town":"福田","koaza":"","lat":34.524,"lng":135.523654,"zip":"5998241"}]