[{"town":"日置荘北町","koaza":"","lat":34.539384,"lng":135.537547,"zip":"5998111"},{"town":"日置荘西町八丁","koaza":"","lat":34.531336,"lng":135.527081,"zip":"5998114"},{"town":"関茶屋","koaza":"","lat":34.538181,"lng":135.518774,"zip":"5998115"},{"town":"中茶屋","koaza":"","lat":34.526077,"lng":135.527755,"zip":"5998128"},{"town":"八下町三丁","koaza":"","lat":34.556693,"lng":135.545504,"zip":"5998101"},{"town":"八下町二丁","koaza":"","lat":34.556652,"lng":135.543073,"zip":"5998101"},{"town":"日置荘北町二丁","koaza":"","lat":34.543952,"lng":135.539959,"zip":"5998111"},{"town":"日置荘西町四丁","koaza":"","lat":34.541714,"lng":135.52549,"zip":"5998114"},{"town":"菩提町五丁","koaza":"","lat":34.546566,"lng":135.537111,"zip":"5998103"},{"town":"八下町一丁","koaza":"","lat":34.556448,"lng":135.540134,"zip":"5998101"},{"town":"菩提町四丁","koaza":"","lat":34.546471,"lng":135.531807,"zip":"5998103"},{"town":"菩提町二丁","koaza":"","lat":34.549268,"lng":135.532889,"zip":"5998103"},{"town":"引野町三丁","koaza":"","lat":34.546356,"lng":135.526486,"zip":"5998104"},{"town":"菩提町一丁","koaza":"","lat":34.549798,"lng":135.529356,"zip":"5998103"},{"town":"日置荘北町一丁","koaza":"","lat":34.544224,"lng":135.536261,"zip":"5998111"},{"town":"白鷺町三丁","koaza":"","lat":34.548094,"lng":135.52114,"zip":"5998107"},{"town":"引野町一丁","koaza":"","lat":34.549364,"lng":135.523575,"zip":"5998104"},{"town":"引野町二丁","koaza":"","lat":34.54988,"lng":135.526233,"zip":"5998104"},{"town":"日置荘西町三丁","koaza":"","lat":34.540176,"lng":135.532291,"zip":"5998114"},{"town":"白鷺町二丁","koaza":"","lat":34.546012,"lng":135.516874,"zip":"5998107"},{"town":"日置荘西町七丁","koaza":"","lat":34.536355,"lng":135.523199,"zip":"5998114"},{"town":"日置荘西町五丁","koaza":"","lat":34.538991,"lng":135.529666,"zip":"5998114"},{"town":"菩提町三丁","koaza":"","lat":34.550004,"lng":135.53634,"zip":"5998103"},{"town":"日置荘西町一丁","koaza":"","lat":34.544251,"lng":135.526998,"zip":"5998114"},{"town":"日置荘北町三丁","koaza":"","lat":34.541152,"lng":135.537978,"zip":"5998111"},{"town":"石原町一丁","koaza":"","lat":34.556457,"lng":135.530277,"zip":"5998102"},{"town":"日置荘西町六丁","koaza":"","lat":34.536953,"lng":135.526039,"zip":"5998114"},{"town":"日置荘西町二丁","koaza":"","lat":34.542617,"lng":135.530092,"zip":"5998114"},{"town":"石原町四丁","koaza":"","lat":34.552278,"lng":135.539294,"zip":"5998102"},{"town":"石原町三丁","koaza":"","lat":34.55212,"lng":135.531254,"zip":"5998102"},{"town":"白鷺町一丁","koaza":"","lat":34.547452,"lng":135.513295,"zip":"5998107"},{"town":"日置荘田中町","koaza":"","lat":34.533818,"lng":135.529384,"zip":"5998113"},{"town":"石原町二丁","koaza":"","lat":34.555594,"lng":135.535381,"zip":"5998102"},{"town":"丈六","koaza":"","lat":34.527674,"lng":135.540358,"zip":"5998122"},{"town":"高松","koaza":"","lat":34.529855,"lng":135.535244,"zip":"5998121"},{"town":"西野","koaza":"","lat":34.516288,"lng":135.541248,"zip":"5998125"},{"town":"野尻町","koaza":"","lat":34.542756,"lng":135.518671,"zip":"5998116"},{"town":"南野田","koaza":"","lat":34.520133,"lng":135.54787,"zip":"5998124"},{"town":"草尾","koaza":"","lat":34.519555,"lng":135.533099,"zip":"5998127"},{"town":"日置荘原寺町","koaza":"","lat":34.535063,"lng":135.536565,"zip":"5998112"},{"town":"大美野","koaza":"","lat":34.528613,"lng":135.52931,"zip":"5998126"},{"town":"北野田","koaza":"","lat":34.527371,"lng":135.548834,"zip":"5998123"}]