[{"town":"大森","koaza":"","lat":34.488017,"lng":135.483429,"zip":"5900145"},{"town":"土佐屋台","koaza":"","lat":34.503812,"lng":135.508942,"zip":"5900104"},{"town":"高尾三丁","koaza":"","lat":34.495937,"lng":135.466736,"zip":"5900157"},{"town":"深阪南","koaza":"","lat":34.503857,"lng":135.506467,"zip":"5900103"},{"town":"和田東","koaza":"","lat":34.503002,"lng":135.504365,"zip":"5900102"},{"town":"稲葉一丁","koaza":"","lat":34.500733,"lng":135.479078,"zip":"5900156"},{"town":"宮山台三丁","koaza":"","lat":34.506752,"lng":135.496282,"zip":"5900101"},{"town":"原山台三丁","koaza":"","lat":34.47824,"lng":135.492094,"zip":"5900132"},{"town":"御池台四丁","koaza":"","lat":34.461471,"lng":135.506874,"zip":"5900134"},{"town":"城山台二丁","koaza":"","lat":34.468941,"lng":135.484056,"zip":"5900137"},{"town":"赤坂台二丁","koaza":"","lat":34.486508,"lng":135.476435,"zip":"5900144"},{"town":"御池台五丁","koaza":"","lat":34.456673,"lng":135.50528,"zip":"5900134"},{"town":"赤坂台四丁","koaza":"","lat":34.485376,"lng":135.470644,"zip":"5900144"},{"town":"三木閉","koaza":"","lat":34.49572,"lng":135.488589,"zip":"5900154"},{"town":"赤坂台三丁","koaza":"","lat":34.485486,"lng":135.473899,"zip":"5900144"},{"town":"稲葉二丁","koaza":"","lat":34.49939,"lng":135.477092,"zip":"5900156"},{"town":"竹城台四丁","koaza":"","lat":34.498107,"lng":135.500217,"zip":"5900105"},{"town":"鴨谷台二丁","koaza":"","lat":34.474628,"lng":135.477791,"zip":"5900138"},{"town":"新檜尾台三丁","koaza":"","lat":34.478504,"lng":135.473971,"zip":"5900143"},{"town":"高倉台一丁","koaza":"","lat":34.492466,"lng":135.519954,"zip":"5900117"},{"town":"栂","koaza":"","lat":34.485826,"lng":135.499054,"zip":"5900131"},{"town":"赤坂台六丁","koaza":"","lat":34.490932,"lng":135.475414,"zip":"5900144"},{"town":"高尾一丁","koaza":"","lat":34.498615,"lng":135.472043,"zip":"5900157"},{"town":"原山台二丁","koaza":"","lat":34.48207,"lng":135.491164,"zip":"5900132"},{"town":"槇塚台一丁","koaza":"","lat":34.485067,"lng":135.522893,"zip":"5900114"},{"town":"高倉台三丁","koaza":"","lat":34.493941,"lng":135.526012,"zip":"5900117"},{"town":"新檜尾台一丁","koaza":"","lat":34.480742,"lng":135.480774,"zip":"5900143"},{"town":"原山台四丁","koaza":"","lat":34.480143,"lng":135.494755,"zip":"5900132"},{"town":"宮山台一丁","koaza":"","lat":34.502585,"lng":135.501763,"zip":"5900101"},{"town":"赤坂台一丁","koaza":"","lat":34.487007,"lng":135.479335,"zip":"5900144"},{"town":"城山台四丁","koaza":"","lat":34.463009,"lng":135.489042,"zip":"5900137"},{"town":"晴美台四丁","koaza":"","lat":34.490011,"lng":135.532981,"zip":"5900113"},{"town":"宮山台四丁","koaza":"","lat":34.50859,"lng":135.497496,"zip":"5900101"},{"town":"稲葉三丁","koaza":"","lat":34.498667,"lng":135.474756,"zip":"5900156"},{"town":"竹城台二丁","koaza":"","lat":34.498169,"lng":135.505486,"zip":"5900105"},{"town":"若松台一丁","koaza":"","lat":34.493072,"lng":135.506717,"zip":"5900116"},{"town":"桃山台四丁","koaza":"","lat":34.495427,"lng":135.484889,"zip":"5900141"},{"town":"原山台一丁","koaza":"","lat":34.486061,"lng":135.494466,"zip":"5900132"},{"town":"新檜尾台二丁","koaza":"","lat":34.476905,"lng":135.476737,"zip":"5900143"},{"town":"庭代台三丁","koaza":"","lat":34.474563,"lng":135.499883,"zip":"5900133"},{"town":"鴨谷台三丁","koaza":"","lat":34.471255,"lng":135.48072,"zip":"5900138"},{"town":"城山台三丁","koaza":"","lat":34.466854,"lng":135.488531,"zip":"5900137"},{"town":"槇塚台四丁","koaza":"","lat":34.482118,"lng":135.533901,"zip":"5900114"},{"town":"茶山台一丁","koaza":"","lat":34.495333,"lng":135.513761,"zip":"5900115"},{"town":"新檜尾台四丁","koaza":"","lat":34.480934,"lng":135.47398,"zip":"5900143"},{"town":"赤坂台五丁","koaza":"","lat":34.49135,"lng":135.470901,"zip":"5900144"},{"town":"岩室","koaza":"","lat":34.501794,"lng":135.53735,"zip":"5900112"},{"town":"晴美台二丁","koaza":"","lat":34.49004,"lng":135.528302,"zip":"5900113"},{"town":"城山台一丁","koaza":"","lat":34.471017,"lng":135.48645,"zip":"5900137"},{"town":"御池台三丁","koaza":"","lat":34.461635,"lng":135.503655,"zip":"5900134"},{"town":"御池台一丁","koaza":"","lat":34.464068,"lng":135.499501,"zip":"5900134"},{"town":"桃山台二丁","koaza":"","lat":34.48745,"lng":135.487746,"zip":"5900141"},{"town":"高倉台四丁","koaza":"","lat":34.495516,"lng":135.528501,"zip":"5900117"},{"town":"庭代台二丁","koaza":"","lat":34.472073,"lng":135.498063,"zip":"5900133"},{"town":"若松台二丁","koaza":"","lat":34.490872,"lng":135.509509,"zip":"5900116"},{"town":"晴美台三丁","koaza":"","lat":34.489235,"lng":135.530309,"zip":"5900113"},{"town":"槇塚台三丁","koaza":"","lat":34.482595,"lng":135.529345,"zip":"5900114"},{"town":"三原台二丁","koaza":"","lat":34.502381,"lng":135.514751,"zip":"5900111"},{"town":"庭代台四丁","koaza":"","lat":34.473867,"lng":135.502728,"zip":"5900133"},{"town":"茶山台二丁","koaza":"","lat":34.491793,"lng":135.515885,"zip":"5900115"},{"town":"三原台三丁","koaza":"","lat":34.503099,"lng":135.520625,"zip":"5900111"},{"town":"三原台四丁","koaza":"","lat":34.501113,"lng":135.528384,"zip":"5900111"},{"town":"和田","koaza":"","lat":34.506956,"lng":135.492531,"zip":"5900152"},{"town":"宮山台二丁","koaza":"","lat":34.501703,"lng":135.498063,"zip":"5900101"},{"town":"桃山台三丁","koaza":"","lat":34.493596,"lng":135.482034,"zip":"5900141"},{"town":"高尾二丁","koaza":"","lat":34.498184,"lng":135.468828,"zip":"5900157"},{"town":"鴨谷台一丁","koaza":"","lat":34.475649,"lng":135.483082,"zip":"5900138"},{"town":"茶山台三丁","koaza":"","lat":34.488374,"lng":135.518651,"zip":"5900115"},{"town":"高倉台二丁","koaza":"","lat":34.493415,"lng":135.522694,"zip":"5900117"},{"town":"三原台一丁","koaza":"","lat":34.498813,"lng":135.520871,"zip":"5900111"},{"town":"槇塚台二丁","koaza":"","lat":34.482453,"lng":135.522166,"zip":"5900114"},{"town":"庭代台一丁","koaza":"","lat":34.471049,"lng":135.495433,"zip":"5900133"},{"town":"野々井","koaza":"","lat":34.494459,"lng":135.47704,"zip":"5900155"},{"town":"竹城台三丁","koaza":"","lat":34.49379,"lng":135.503225,"zip":"5900105"},{"town":"竹城台一丁","koaza":"","lat":34.500963,"lng":135.510525,"zip":"5900105"},{"town":"若松台三丁","koaza":"","lat":34.48817,"lng":135.506252,"zip":"5900116"},{"town":"小代","koaza":"","lat":34.507977,"lng":135.487691,"zip":"5900151"},{"town":"原山台五丁","koaza":"","lat":34.481721,"lng":135.499371,"zip":"5900132"},{"town":"桃山台一丁","koaza":"","lat":34.489846,"lng":135.491334,"zip":"5900141"},{"town":"城山台五丁","koaza":"","lat":34.46546,"lng":135.481685,"zip":"5900137"},{"town":"御池台二丁","koaza":"","lat":34.469672,"lng":135.505252,"zip":"5900134"},{"town":"晴美台一丁","koaza":"","lat":34.496956,"lng":135.534127,"zip":"5900113"},{"town":"釜室","koaza":"","lat":34.480341,"lng":135.519227,"zip":"5900122"},{"town":"富蔵","koaza":"","lat":34.474458,"lng":135.516652,"zip":"5900127"},{"town":"檜尾","koaza":"","lat":34.482877,"lng":135.485045,"zip":"5900142"},{"town":"逆瀬川","koaza":"","lat":34.474899,"lng":135.530628,"zip":"5900123"},{"town":"片蔵","koaza":"","lat":34.48412,"lng":135.507927,"zip":"5900121"},{"town":"大庭寺","koaza":"","lat":34.49993,"lng":135.486614,"zip":"5900153"},{"town":"泉田中","koaza":"","lat":34.473617,"lng":135.509091,"zip":"5900126"},{"town":"畑","koaza":"","lat":34.467498,"lng":135.533995,"zip":"5900124"},{"town":"美木多上","koaza":"","lat":34.465727,"lng":135.494553,"zip":"5900136"},{"town":"鉢ヶ峯寺","koaza":"","lat":34.463436,"lng":135.517699,"zip":"5900100"},{"town":"豊田","koaza":"","lat":34.45265,"lng":135.526724,"zip":"5900106"},{"town":"別所","koaza":"","lat":34.444016,"lng":135.507229,"zip":"5900135"},{"town":"太平寺","koaza":"","lat":34.513288,"lng":135.485855,"zip":"5900158"}]