[{"town":"住道一丁目","koaza":"","lat":34.706958,"lng":135.624851,"zip":"5740026"},{"town":"住道二丁目","koaza":"","lat":34.706581,"lng":135.620847,"zip":"5740026"},{"town":"御供田五丁目","koaza":"","lat":34.705279,"lng":135.63168,"zip":"5740025"},{"town":"寺川二丁目","koaza":"","lat":34.709178,"lng":135.645862,"zip":"5740014"},{"town":"御供田四丁目","koaza":"","lat":34.702148,"lng":135.630809,"zip":"5740025"},{"town":"南新田二丁目","koaza":"","lat":34.701248,"lng":135.638137,"zip":"5740023"},{"town":"灰塚六丁目","koaza":"","lat":34.700017,"lng":135.607858,"zip":"5740043"},{"town":"諸福四丁目","koaza":"","lat":34.70608,"lng":135.601544,"zip":"5740044"},{"town":"大野二丁目","koaza":"","lat":34.702922,"lng":135.616849,"zip":"5740042"},{"town":"新田東本町","koaza":"","lat":34.707571,"lng":135.607686,"zip":"5740054"},{"town":"諸福六丁目","koaza":"","lat":34.702073,"lng":135.597358,"zip":"5740044"},{"town":"平野屋新町","koaza":"","lat":34.711115,"lng":135.6367,"zip":"5740021"},{"town":"学園町","koaza":"","lat":34.730362,"lng":135.640581,"zip":"5740001"},{"town":"中楠の里町","koaza":"","lat":34.728935,"lng":135.635272,"zip":"5740006"},{"town":"御供田一丁目","koaza":"","lat":34.70784,"lng":135.630544,"zip":"5740025"},{"town":"浜町","koaza":"","lat":34.708683,"lng":135.622281,"zip":"5740041"},{"town":"深野北五丁目","koaza":"","lat":34.728221,"lng":135.627863,"zip":"5740071"},{"town":"深野南町","koaza":"","lat":34.709353,"lng":135.631426,"zip":"5740075"},{"town":"中垣内六丁目","koaza":"","lat":34.702677,"lng":135.641976,"zip":"5740013"},{"town":"北新町","koaza":"","lat":34.730448,"lng":135.638023,"zip":"5740008"},{"town":"深野二丁目","koaza":"","lat":34.717796,"lng":135.627788,"zip":"5740072"},{"town":"西楠の里町","koaza":"","lat":34.726842,"lng":135.63227,"zip":"5740005"},{"town":"錦町","koaza":"","lat":34.727766,"lng":135.640028,"zip":"5740002"},{"town":"灰塚二丁目","koaza":"","lat":34.703861,"lng":135.612756,"zip":"5740043"},{"town":"御領四丁目","koaza":"","lat":34.720995,"lng":135.610097,"zip":"5740064"},{"town":"栄和町","koaza":"","lat":34.702091,"lng":135.624942,"zip":"5740032"},{"town":"南楠の里町","koaza":"","lat":34.727195,"lng":135.635097,"zip":"5740004"},{"town":"灰塚三丁目","koaza":"","lat":34.701685,"lng":135.608255,"zip":"5740043"},{"town":"御領二丁目","koaza":"","lat":34.715499,"lng":135.611228,"zip":"5740064"},{"town":"諸福二丁目","koaza":"","lat":34.702678,"lng":135.606805,"zip":"5740044"},{"town":"泉町一丁目","koaza":"","lat":34.708299,"lng":135.633586,"zip":"5740024"},{"town":"太子田三丁目","koaza":"","lat":34.710916,"lng":135.609697,"zip":"5740045"},{"town":"谷川一丁目","koaza":"","lat":34.712638,"lng":135.625323,"zip":"5740074"},{"town":"曙町","koaza":"","lat":34.71124,"lng":135.624989,"zip":"5740076"},{"town":"中垣内七丁目","koaza":"","lat":34.705193,"lng":135.638162,"zip":"5740013"},{"town":"三箇二丁目","koaza":"","lat":34.718115,"lng":135.620628,"zip":"5740077"},{"town":"深野北三丁目","koaza":"","lat":34.723044,"lng":135.631542,"zip":"5740071"},{"town":"諸福八丁目","koaza":"","lat":34.706762,"lng":135.59481,"zip":"5740044"},{"town":"御供田三丁目","koaza":"","lat":34.703663,"lng":135.629702,"zip":"5740025"},{"town":"扇町","koaza":"","lat":34.702372,"lng":135.620739,"zip":"5740033"},{"town":"灰塚四丁目","koaza":"","lat":34.700452,"lng":135.612487,"zip":"5740043"},{"town":"南郷町","koaza":"","lat":34.711119,"lng":135.612197,"zip":"5740063"},{"town":"三住町","koaza":"","lat":34.708843,"lng":135.624417,"zip":"5740027"},{"town":"灰塚一丁目","koaza":"","lat":34.704207,"lng":135.610047,"zip":"5740043"},{"town":"御供田二丁目","koaza":"","lat":34.70576,"lng":135.628851,"zip":"5740025"},{"town":"泉町二丁目","koaza":"","lat":34.704815,"lng":135.633603,"zip":"5740024"},{"town":"新町","koaza":"","lat":34.704346,"lng":135.623345,"zip":"5740037"},{"town":"平野屋二丁目","koaza":"","lat":34.704844,"lng":135.636137,"zip":"5740022"},{"town":"朋来二丁目","koaza":"","lat":34.697508,"lng":135.616296,"zip":"5740034"},{"town":"深野一丁目","koaza":"","lat":34.714389,"lng":135.625938,"zip":"5740072"},{"town":"川中新町","koaza":"","lat":34.704678,"lng":135.625988,"zip":"5740031"},{"town":"緑が丘一丁目","koaza":"","lat":34.714394,"lng":135.62975,"zip":"5740073"},{"town":"三洋町","koaza":"","lat":34.70135,"lng":135.615802,"zip":"5740035"},{"town":"中垣内二丁目","koaza":"","lat":34.705512,"lng":135.647137,"zip":"5740013"},{"town":"赤井二丁目","koaza":"","lat":34.708045,"lng":135.617265,"zip":"5740046"},{"town":"朋来一丁目","koaza":"","lat":34.699526,"lng":135.615812,"zip":"5740034"},{"town":"赤井三丁目","koaza":"","lat":34.708193,"lng":135.614826,"zip":"5740046"},{"town":"末広町","koaza":"","lat":34.704673,"lng":135.620531,"zip":"5740036"},{"town":"三箇五丁目","koaza":"","lat":34.722737,"lng":135.626743,"zip":"5740077"},{"town":"津の辺町","koaza":"","lat":34.724532,"lng":135.634408,"zip":"5740017"},{"town":"三箇三丁目","koaza":"","lat":34.718952,"lng":135.625612,"zip":"5740077"},{"town":"中垣内三丁目","koaza":"","lat":34.707166,"lng":135.646944,"zip":"5740013"},{"town":"明美の里町","koaza":"","lat":34.726746,"lng":135.637981,"zip":"5740003"},{"town":"北楠の里町","koaza":"","lat":34.731057,"lng":135.634439,"zip":"5740007"},{"town":"太子田二丁目","koaza":"","lat":34.706997,"lng":135.609822,"zip":"5740045"},{"town":"太子田一丁目","koaza":"","lat":34.707849,"lng":135.612086,"zip":"5740045"},{"town":"赤井一丁目","koaza":"","lat":34.708576,"lng":135.61982,"zip":"5740046"},{"town":"大野一丁目","koaza":"","lat":34.705061,"lng":135.616633,"zip":"5740042"},{"town":"新田旭町","koaza":"","lat":34.710096,"lng":135.607293,"zip":"5740053"},{"town":"北条四丁目","koaza":"","lat":34.728713,"lng":135.645386,"zip":"5740011"},{"town":"灰塚五丁目","koaza":"","lat":34.700124,"lng":135.610387,"zip":"5740043"},{"town":"幸町","koaza":"","lat":34.70891,"lng":135.627687,"zip":"5740028"},{"town":"氷野二丁目","koaza":"","lat":34.711189,"lng":135.616005,"zip":"5740062"},{"town":"寺川一丁目","koaza":"","lat":34.709206,"lng":135.641638,"zip":"5740014"},{"town":"諸福一丁目","koaza":"","lat":34.704454,"lng":135.606029,"zip":"5740044"},{"town":"大東町","koaza":"","lat":34.715563,"lng":135.619951,"zip":"5740061"},{"town":"中垣内四丁目","koaza":"","lat":34.707255,"lng":135.641887,"zip":"5740013"},{"town":"氷野四丁目","koaza":"","lat":34.713671,"lng":135.611214,"zip":"5740062"},{"town":"氷野一丁目","koaza":"","lat":34.711851,"lng":135.620482,"zip":"5740062"},{"town":"寺川三丁目","koaza":"","lat":34.711658,"lng":135.640632,"zip":"5740014"},{"town":"深野五丁目","koaza":"","lat":34.714536,"lng":135.636967,"zip":"5740072"},{"town":"諸福七丁目","koaza":"","lat":34.704462,"lng":135.596184,"zip":"5740044"},{"town":"野崎一丁目","koaza":"","lat":34.717812,"lng":135.639081,"zip":"5740015"},{"town":"諸福三丁目","koaza":"","lat":34.703367,"lng":135.602844,"zip":"5740044"},{"town":"北条五丁目","koaza":"","lat":34.72661,"lng":135.645558,"zip":"5740011"},{"town":"深野北一丁目","koaza":"","lat":34.721034,"lng":135.631435,"zip":"5740071"},{"town":"深野三丁目","koaza":"","lat":34.719262,"lng":135.63297,"zip":"5740072"},{"town":"深野北四丁目","koaza":"","lat":34.726638,"lng":135.628192,"zip":"5740071"},{"town":"深野北二丁目","koaza":"","lat":34.723598,"lng":135.628701,"zip":"5740071"},{"town":"野崎二丁目","koaza":"","lat":34.718371,"lng":135.643915,"zip":"5740015"},{"town":"北条三丁目","koaza":"","lat":34.730386,"lng":135.64539,"zip":"5740011"},{"town":"北条二丁目","koaza":"","lat":34.726028,"lng":135.640931,"zip":"5740011"},{"town":"野崎四丁目","koaza":"","lat":34.715089,"lng":135.639955,"zip":"5740015"},{"town":"平野屋一丁目","koaza":"","lat":34.708347,"lng":135.636589,"zip":"5740022"},{"town":"三箇四丁目","koaza":"","lat":34.722462,"lng":135.624935,"zip":"5740077"},{"town":"三箇六丁目","koaza":"","lat":34.726768,"lng":135.623282,"zip":"5740077"},{"town":"新田西町","koaza":"","lat":34.710519,"lng":135.599811,"zip":"5740057"},{"town":"北条七丁目","koaza":"","lat":34.721163,"lng":135.644568,"zip":"5740011"},{"town":"新田本町","koaza":"","lat":34.707412,"lng":135.601743,"zip":"5740055"},{"town":"深野四丁目","koaza":"","lat":34.716951,"lng":135.632351,"zip":"5740072"},{"town":"諸福五丁目","koaza":"","lat":34.703076,"lng":135.599899,"zip":"5740044"},{"town":"緑が丘二丁目","koaza":"","lat":34.713893,"lng":135.633507,"zip":"5740073"},{"town":"中垣内五丁目","koaza":"","lat":34.704862,"lng":135.64196,"zip":"5740013"},{"town":"南新田一丁目","koaza":"","lat":34.70091,"lng":135.635709,"zip":"5740023"},{"town":"谷川二丁目","koaza":"","lat":34.712026,"lng":135.629652,"zip":"5740074"},{"town":"中垣内一丁目","koaza":"","lat":34.703105,"lng":135.648664,"zip":"5740013"},{"town":"寺川四丁目","koaza":"","lat":34.712687,"lng":135.646409,"zip":"5740014"},{"town":"新田中町","koaza":"","lat":34.710201,"lng":135.603726,"zip":"5740056"},{"town":"北条一丁目","koaza":"","lat":34.721377,"lng":135.639815,"zip":"5740011"},{"town":"三箇一丁目","koaza":"","lat":34.716307,"lng":135.623347,"zip":"5740077"},{"town":"御領一丁目","koaza":"","lat":34.718455,"lng":135.616733,"zip":"5740064"},{"town":"氷野三丁目","koaza":"","lat":34.714357,"lng":135.616288,"zip":"5740062"},{"town":"北条六丁目","koaza":"","lat":34.724063,"lng":135.645376,"zip":"5740011"},{"town":"野崎三丁目","koaza":"","lat":34.715264,"lng":135.644569,"zip":"5740015"},{"town":"新田境町","koaza":"","lat":34.716125,"lng":135.604173,"zip":"5740051"},{"town":"南津の辺町","koaza":"","lat":34.721602,"lng":135.635925,"zip":"5740016"},{"town":"寺川五丁目","koaza":"","lat":34.709706,"lng":135.649063,"zip":"5740014"},{"town":"御領三丁目","koaza":"","lat":34.718256,"lng":135.611385,"zip":"5740064"},{"town":"新田北町","koaza":"","lat":34.714077,"lng":135.605281,"zip":"5740052"},{"town":"大字寺川","koaza":"","lat":34.713385,"lng":135.650806,"zip":"5740000"},{"town":"大字中垣内","koaza":"","lat":34.706803,"lng":135.652421,"zip":"5740000"},{"town":"大字野崎","koaza":"","lat":34.717708,"lng":135.649827,"zip":"5740000"},{"town":"大字北条","koaza":"","lat":34.724414,"lng":135.652591,"zip":"5740000"},{"town":"大字龍間","koaza":"","lat":34.711358,"lng":135.660421,"zip":"5740000"}]