[{"town":"阿波座二丁目","koaza":"","lat":34.680784,"lng":135.491823,"zip":"5500011"},{"town":"立売堀二丁目","koaza":"","lat":34.679341,"lng":135.491931,"zip":"5500012"},{"town":"西本町三丁目","koaza":"","lat":34.68173,"lng":135.487621,"zip":"5500005"},{"town":"京町堀三丁目","koaza":"","lat":34.684414,"lng":135.487522,"zip":"5500003"},{"town":"土佐堀二丁目","koaza":"","lat":34.68832,"lng":135.489675,"zip":"5500001"},{"town":"江之子島一丁目","koaza":"","lat":34.683746,"lng":135.484426,"zip":"5500006"},{"town":"立売堀三丁目","koaza":"","lat":34.679952,"lng":135.489766,"zip":"5500012"},{"town":"立売堀五丁目","koaza":"","lat":34.679572,"lng":135.485955,"zip":"5500012"},{"town":"土佐堀三丁目","koaza":"","lat":34.686185,"lng":135.48543,"zip":"5500001"},{"town":"本田四丁目","koaza":"","lat":34.678664,"lng":135.472603,"zip":"5500022"},{"town":"靱本町三丁目","koaza":"","lat":34.68336,"lng":135.487773,"zip":"5500004"},{"town":"江戸堀三丁目","koaza":"","lat":34.685593,"lng":135.486914,"zip":"5500002"},{"town":"京町堀二丁目","koaza":"","lat":34.685707,"lng":135.49089,"zip":"5500003"},{"town":"江戸堀二丁目","koaza":"","lat":34.687053,"lng":135.49004,"zip":"5500002"},{"town":"安治川一丁目","koaza":"","lat":34.679415,"lng":135.469474,"zip":"5500026"},{"town":"立売堀六丁目","koaza":"","lat":34.679474,"lng":135.483656,"zip":"5500012"},{"town":"立売堀四丁目","koaza":"","lat":34.679734,"lng":135.487868,"zip":"5500012"},{"town":"阿波座一丁目","koaza":"","lat":34.681024,"lng":135.495331,"zip":"5500011"},{"town":"境川一丁目","koaza":"","lat":34.669897,"lng":135.471482,"zip":"5500024"},{"town":"西本町二丁目","koaza":"","lat":34.682394,"lng":135.491015,"zip":"5500005"},{"town":"本田二丁目","koaza":"","lat":34.678013,"lng":135.478248,"zip":"5500022"},{"town":"本田三丁目","koaza":"","lat":34.677985,"lng":135.475402,"zip":"5500022"},{"town":"立売堀一丁目","koaza":"","lat":34.679678,"lng":135.49537,"zip":"5500012"},{"town":"安治川二丁目","koaza":"","lat":34.677757,"lng":135.464548,"zip":"5500026"},{"town":"江之子島二丁目","koaza":"","lat":34.681708,"lng":135.484576,"zip":"5500006"},{"town":"境川二丁目","koaza":"","lat":34.674273,"lng":135.465809,"zip":"5500024"},{"town":"南堀江二丁目","koaza":"","lat":34.671091,"lng":135.491363,"zip":"5500015"},{"town":"九条三丁目","koaza":"","lat":34.677446,"lng":135.469987,"zip":"5500027"},{"town":"北堀江二丁目","koaza":"","lat":34.673963,"lng":135.491833,"zip":"5500014"},{"town":"川口一丁目","koaza":"","lat":34.682537,"lng":135.482474,"zip":"5500021"},{"town":"靱本町二丁目","koaza":"","lat":34.684085,"lng":135.491102,"zip":"5500004"},{"town":"土佐堀一丁目","koaza":"","lat":34.690697,"lng":135.493271,"zip":"5500001"},{"town":"川口四丁目","koaza":"","lat":34.680095,"lng":135.474557,"zip":"5500021"},{"town":"本田一丁目","koaza":"","lat":34.678205,"lng":135.480996,"zip":"5500022"},{"town":"新町二丁目","koaza":"","lat":34.677118,"lng":135.492005,"zip":"5500013"},{"town":"千代崎二丁目","koaza":"","lat":34.672614,"lng":135.47859,"zip":"5500023"},{"town":"北堀江三丁目","koaza":"","lat":34.674055,"lng":135.488735,"zip":"5500014"},{"town":"京町堀一丁目","koaza":"","lat":34.687308,"lng":135.495002,"zip":"5500003"},{"town":"九条南一丁目","koaza":"","lat":34.670475,"lng":135.475128,"zip":"5500025"},{"town":"川口二丁目","koaza":"","lat":34.682512,"lng":135.480077,"zip":"5500021"},{"town":"九条二丁目","koaza":"","lat":34.676522,"lng":135.473127,"zip":"5500027"},{"town":"新町三丁目","koaza":"","lat":34.67697,"lng":135.489009,"zip":"5500013"},{"town":"新町四丁目","koaza":"","lat":34.676901,"lng":135.484948,"zip":"5500013"},{"town":"西本町一丁目","koaza":"","lat":34.682734,"lng":135.495293,"zip":"5500005"},{"town":"川口三丁目","koaza":"","lat":34.680486,"lng":135.478147,"zip":"5500021"},{"town":"南堀江三丁目","koaza":"","lat":34.671244,"lng":135.488426,"zip":"5500015"},{"town":"千代崎一丁目","koaza":"","lat":34.675471,"lng":135.480231,"zip":"5500023"},{"town":"北堀江一丁目","koaza":"","lat":34.673824,"lng":135.495182,"zip":"5500014"},{"town":"九条南四丁目","koaza":"","lat":34.676284,"lng":135.466483,"zip":"5500025"},{"town":"九条一丁目","koaza":"","lat":34.67482,"lng":135.475696,"zip":"5500027"},{"town":"九条南三丁目","koaza":"","lat":34.674769,"lng":135.469735,"zip":"5500025"},{"town":"北堀江四丁目","koaza":"","lat":34.674553,"lng":135.484345,"zip":"5500014"},{"town":"九条南二丁目","koaza":"","lat":34.672244,"lng":135.4724,"zip":"5500025"},{"town":"靱本町一丁目","koaza":"","lat":34.685278,"lng":135.495181,"zip":"5500004"},{"town":"南堀江一丁目","koaza":"","lat":34.670792,"lng":135.49464,"zip":"5500015"},{"town":"江戸堀一丁目","koaza":"","lat":34.689904,"lng":135.495285,"zip":"5500002"},{"town":"新町一丁目","koaza":"","lat":34.677187,"lng":135.495363,"zip":"5500013"},{"town":"千代崎三丁目","koaza":"","lat":34.669488,"lng":135.477336,"zip":"5500023"},{"town":"南堀江四丁目","koaza":"","lat":34.670653,"lng":135.483252,"zip":"5500015"}]