[{"town":"海老江五丁目","koaza":"","lat":34.696053,"lng":135.4731,"zip":"5530001"},{"town":"鷺洲六丁目","koaza":"","lat":34.701992,"lng":135.477555,"zip":"5530002"},{"town":"玉川三丁目","koaza":"","lat":34.687385,"lng":135.480307,"zip":"5530004"},{"town":"鷺洲四丁目","koaza":"","lat":34.699796,"lng":135.481189,"zip":"5530002"},{"town":"海老江二丁目","koaza":"","lat":34.696575,"lng":135.474005,"zip":"5530001"},{"town":"福島二丁目","koaza":"","lat":34.693725,"lng":135.486886,"zip":"5530003"},{"town":"吉野二丁目","koaza":"","lat":34.691793,"lng":135.476051,"zip":"5530006"},{"town":"野田三丁目","koaza":"","lat":34.688383,"lng":135.475825,"zip":"5530005"},{"town":"鷺洲一丁目","koaza":"","lat":34.695039,"lng":135.479289,"zip":"5530002"},{"town":"福島八丁目","koaza":"","lat":34.696732,"lng":135.483364,"zip":"5530003"},{"town":"玉川四丁目","koaza":"","lat":34.689356,"lng":135.477914,"zip":"5530004"},{"town":"海老江六丁目","koaza":"","lat":34.700052,"lng":135.468963,"zip":"5530001"},{"town":"鷺洲二丁目","koaza":"","lat":34.698001,"lng":135.481653,"zip":"5530002"},{"town":"野田五丁目","koaza":"","lat":34.685619,"lng":135.47293,"zip":"5530005"},{"town":"鷺洲三丁目","koaza":"","lat":34.69683,"lng":135.478744,"zip":"5530002"},{"town":"海老江四丁目","koaza":"","lat":34.700508,"lng":135.46999,"zip":"5530001"},{"town":"玉川一丁目","koaza":"","lat":34.688522,"lng":135.482185,"zip":"5530004"},{"town":"玉川二丁目","koaza":"","lat":34.691136,"lng":135.47984,"zip":"5530004"},{"town":"福島一丁目","koaza":"","lat":34.694657,"lng":135.489037,"zip":"5530003"},{"town":"海老江七丁目","koaza":"","lat":34.695829,"lng":135.470793,"zip":"5530001"},{"town":"大開一丁目","koaza":"","lat":34.693213,"lng":135.472621,"zip":"5530007"},{"town":"野田六丁目","koaza":"","lat":34.683865,"lng":135.471571,"zip":"5530005"},{"town":"野田四丁目","koaza":"","lat":34.682718,"lng":135.474749,"zip":"5530005"},{"town":"福島三丁目","koaza":"","lat":34.69235,"lng":135.485333,"zip":"5530003"},{"town":"鷺洲五丁目","koaza":"","lat":34.699617,"lng":135.477857,"zip":"5530002"},{"town":"吉野一丁目","koaza":"","lat":34.69266,"lng":135.478184,"zip":"5530006"},{"town":"吉野五丁目","koaza":"","lat":34.687204,"lng":135.467717,"zip":"5530006"},{"town":"野田二丁目","koaza":"","lat":34.685982,"lng":135.477107,"zip":"5530005"},{"town":"福島五丁目","koaza":"","lat":34.696472,"lng":135.487622,"zip":"5530003"},{"town":"福島七丁目","koaza":"","lat":34.698529,"lng":135.485791,"zip":"5530003"},{"town":"大開二丁目","koaza":"","lat":34.692318,"lng":135.469993,"zip":"5530007"},{"town":"大開三丁目","koaza":"","lat":34.691942,"lng":135.467746,"zip":"5530007"},{"town":"吉野三丁目","koaza":"","lat":34.690193,"lng":135.474189,"zip":"5530006"},{"town":"福島六丁目","koaza":"","lat":34.699921,"lng":135.488451,"zip":"5530003"},{"town":"福島四丁目","koaza":"","lat":34.692819,"lng":135.48251,"zip":"5530003"},{"town":"海老江一丁目","koaza":"","lat":34.698254,"lng":135.475745,"zip":"5530001"},{"town":"吉野四丁目","koaza":"","lat":34.68857,"lng":135.470963,"zip":"5530006"},{"town":"野田一丁目","koaza":"","lat":34.684189,"lng":135.478525,"zip":"5530005"},{"town":"大開四丁目","koaza":"","lat":34.691705,"lng":135.465501,"zip":"5530007"},{"town":"海老江八丁目","koaza":"","lat":34.698565,"lng":135.466188,"zip":"5530001"},{"town":"海老江三丁目","koaza":"","lat":34.702651,"lng":135.472731,"zip":"5530001"}]