[{"town":"美章園三丁目","koaza":"","lat":34.63765,"lng":135.522732,"zip":"5450003"},{"town":"旭町二丁目","koaza":"","lat":34.644884,"lng":135.509276,"zip":"5450051"},{"town":"万代一丁目","koaza":"","lat":34.623533,"lng":135.506223,"zip":"5450036"},{"town":"松虫通一丁目","koaza":"","lat":34.63504,"lng":135.508792,"zip":"5450043"},{"town":"丸山通二丁目","koaza":"","lat":34.637216,"lng":135.50498,"zip":"5450042"},{"town":"共立通一丁目","koaza":"","lat":34.639155,"lng":135.508327,"zip":"5450041"},{"town":"天王寺町南一丁目","koaza":"","lat":34.643407,"lng":135.521006,"zip":"5450002"},{"town":"天王寺町北一丁目","koaza":"","lat":34.645448,"lng":135.521088,"zip":"5450001"},{"town":"王子町一丁目","koaza":"","lat":34.635242,"lng":135.511031,"zip":"5450023"},{"town":"阿倍野筋二丁目","koaza":"","lat":34.643354,"lng":135.512713,"zip":"5450052"},{"town":"文の里二丁目","koaza":"","lat":34.635954,"lng":135.519468,"zip":"5450004"},{"town":"松虫通二丁目","koaza":"","lat":34.635456,"lng":135.506589,"zip":"5450043"},{"town":"文の里一丁目","koaza":"","lat":34.638216,"lng":135.519539,"zip":"5450004"},{"town":"桃ケ池町二丁目","koaza":"","lat":34.627543,"lng":135.520404,"zip":"5450012"},{"town":"昭和町五丁目","koaza":"","lat":34.622968,"lng":135.516328,"zip":"5450011"},{"town":"昭和町四丁目","koaza":"","lat":34.62549,"lng":135.517,"zip":"5450011"},{"town":"三明町一丁目","koaza":"","lat":34.642162,"lng":135.520598,"zip":"5450005"},{"town":"王子町二丁目","koaza":"","lat":34.632466,"lng":135.510723,"zip":"5450023"},{"town":"阪南町六丁目","koaza":"","lat":34.620338,"lng":135.512357,"zip":"5450021"},{"town":"美章園一丁目","koaza":"","lat":34.639652,"lng":135.522761,"zip":"5450003"},{"town":"播磨町二丁目","koaza":"","lat":34.620587,"lng":135.509931,"zip":"5450022"},{"town":"松崎町四丁目","koaza":"","lat":34.638546,"lng":135.516904,"zip":"5450053"},{"town":"王子町四丁目","koaza":"","lat":34.626386,"lng":135.510488,"zip":"5450023"},{"town":"共立通二丁目","koaza":"","lat":34.63916,"lng":135.505868,"zip":"5450041"},{"town":"天王寺町南三丁目","koaza":"","lat":34.640738,"lng":135.526152,"zip":"5450002"},{"town":"松崎町一丁目","koaza":"","lat":34.645007,"lng":135.517672,"zip":"5450053"},{"town":"王子町三丁目","koaza":"","lat":34.629058,"lng":135.510268,"zip":"5450023"},{"town":"松虫通三丁目","koaza":"","lat":34.635478,"lng":135.50395,"zip":"5450043"},{"town":"阿倍野筋五丁目","koaza":"","lat":34.637847,"lng":135.511049,"zip":"5450052"},{"town":"播磨町三丁目","koaza":"","lat":34.618055,"lng":135.509761,"zip":"5450022"},{"town":"丸山通一丁目","koaza":"","lat":34.637053,"lng":135.508321,"zip":"5450042"},{"town":"阪南町七丁目","koaza":"","lat":34.617837,"lng":135.512037,"zip":"5450021"},{"town":"西田辺町二丁目","koaza":"","lat":34.617397,"lng":135.515103,"zip":"5450014"},{"town":"旭町三丁目","koaza":"","lat":34.642948,"lng":135.507991,"zip":"5450051"},{"town":"美章園二丁目","koaza":"","lat":34.639484,"lng":135.524864,"zip":"5450003"},{"town":"文の里三丁目","koaza":"","lat":34.636411,"lng":135.522394,"zip":"5450004"},{"town":"旭町一丁目","koaza":"","lat":34.646284,"lng":135.509179,"zip":"5450051"},{"town":"阿倍野筋三丁目","koaza":"","lat":34.64198,"lng":135.510937,"zip":"5450052"},{"town":"相生通二丁目","koaza":"","lat":34.630668,"lng":135.502393,"zip":"5450033"},{"town":"天王寺町南二丁目","koaza":"","lat":34.642781,"lng":135.524089,"zip":"5450002"},{"town":"阪南町四丁目","koaza":"","lat":34.625787,"lng":135.513793,"zip":"5450021"},{"town":"三明町二丁目","koaza":"","lat":34.640213,"lng":135.520186,"zip":"5450005"},{"town":"文の里四丁目","koaza":"","lat":34.632756,"lng":135.522665,"zip":"5450004"},{"town":"橋本町","koaza":"","lat":34.633093,"lng":135.502769,"zip":"5450031"},{"town":"昭和町二丁目","koaza":"","lat":34.631289,"lng":135.518395,"zip":"5450011"},{"town":"昭和町三丁目","koaza":"","lat":34.628272,"lng":135.517404,"zip":"5450011"},{"town":"相生通一丁目","koaza":"","lat":34.629479,"lng":135.504985,"zip":"5450033"},{"town":"北畠二丁目","koaza":"","lat":34.62751,"lng":135.503535,"zip":"5450035"},{"town":"阿倍野筋一丁目","koaza":"","lat":34.645732,"lng":135.51332,"zip":"5450052"},{"town":"昭和町一丁目","koaza":"","lat":34.63435,"lng":135.518441,"zip":"5450011"},{"town":"天王寺町北二丁目","koaza":"","lat":34.646061,"lng":135.524442,"zip":"5450001"},{"town":"天王寺町北三丁目","koaza":"","lat":34.644366,"lng":135.527152,"zip":"5450001"},{"town":"晴明通","koaza":"","lat":34.63268,"lng":135.506453,"zip":"5450032"},{"town":"阿倍野元町","koaza":"","lat":34.632328,"lng":135.509101,"zip":"5450034"},{"town":"松崎町三丁目","koaza":"","lat":34.641021,"lng":135.516111,"zip":"5450053"},{"town":"松崎町二丁目","koaza":"","lat":34.643655,"lng":135.516666,"zip":"5450053"},{"town":"長池町","koaza":"","lat":34.623819,"lng":135.518951,"zip":"5450013"},{"town":"播磨町一丁目","koaza":"","lat":34.623487,"lng":135.509699,"zip":"5450022"},{"town":"阪南町五丁目","koaza":"","lat":34.623045,"lng":135.5134,"zip":"5450021"},{"town":"桃ケ池町一丁目","koaza":"","lat":34.630428,"lng":135.521567,"zip":"5450012"},{"town":"西田辺町一丁目","koaza":"","lat":34.619937,"lng":135.515977,"zip":"5450014"},{"town":"阪南町二丁目","koaza":"","lat":34.631812,"lng":135.514052,"zip":"5450021"},{"town":"北畠三丁目","koaza":"","lat":34.628077,"lng":135.500032,"zip":"5450035"},{"town":"阿倍野筋四丁目","koaza":"","lat":34.640314,"lng":135.510449,"zip":"5450052"},{"town":"帝塚山一丁目","koaza":"","lat":34.625183,"lng":135.499971,"zip":"5450037"},{"town":"北畠一丁目","koaza":"","lat":34.626015,"lng":135.506747,"zip":"5450035"},{"town":"阪南町三丁目","koaza":"","lat":34.628712,"lng":135.513613,"zip":"5450021"},{"town":"阪南町一丁目","koaza":"","lat":34.636529,"lng":135.514886,"zip":"5450021"}]