[{"town":"大領一丁目","koaza":"","lat":34.619985,"lng":135.508079,"zip":"5580001"},{"town":"帝塚山中五丁目","koaza":"","lat":34.617166,"lng":135.498103,"zip":"5580053"},{"town":"帝塚山中四丁目","koaza":"","lat":34.61889,"lng":135.498743,"zip":"5580053"},{"town":"殿辻二丁目","koaza":"","lat":34.606365,"lng":135.497676,"zip":"5580042"},{"town":"万代東四丁目","koaza":"","lat":34.613084,"lng":135.502683,"zip":"5580056"},{"town":"帝塚山東二丁目","koaza":"","lat":34.62064,"lng":135.501943,"zip":"5580054"},{"town":"帝塚山東三丁目","koaza":"","lat":34.618447,"lng":135.500464,"zip":"5580054"},{"town":"帝塚山東四丁目","koaza":"","lat":34.616675,"lng":135.499482,"zip":"5580054"},{"town":"万代東二丁目","koaza":"","lat":34.618637,"lng":135.505851,"zip":"5580056"},{"town":"大領二丁目","koaza":"","lat":34.617805,"lng":135.507486,"zip":"5580001"},{"town":"帝塚山中二丁目","koaza":"","lat":34.622652,"lng":135.500283,"zip":"5580053"},{"town":"帝塚山東一丁目","koaza":"","lat":34.622544,"lng":135.503057,"zip":"5580054"},{"town":"帝塚山西三丁目","koaza":"","lat":34.619245,"lng":135.496238,"zip":"5580052"},{"town":"千躰一丁目","koaza":"","lat":34.608092,"lng":135.500391,"zip":"5580047"},{"town":"長峡町","koaza":"","lat":34.612171,"lng":135.490499,"zip":"5580044"},{"town":"帝塚山中一丁目","koaza":"","lat":34.623763,"lng":135.500729,"zip":"5580053"},{"town":"万代東一丁目","koaza":"","lat":34.621033,"lng":135.507273,"zip":"5580056"},{"town":"山之内元町","koaza":"","lat":34.597062,"lng":135.504515,"zip":"5580024"},{"town":"長居西三丁目","koaza":"","lat":34.607802,"lng":135.507688,"zip":"5580002"},{"town":"長居三丁目","koaza":"","lat":34.610643,"lng":135.511322,"zip":"5580003"},{"town":"千躰二丁目","koaza":"","lat":34.608201,"lng":135.498243,"zip":"5580047"},{"town":"遠里小野四丁目","koaza":"","lat":34.602314,"lng":135.495963,"zip":"5580032"},{"town":"東粉浜一丁目","koaza":"","lat":34.622294,"lng":135.493983,"zip":"5580051"},{"town":"万代二丁目","koaza":"","lat":34.62201,"lng":135.505388,"zip":"5580055"},{"town":"殿辻一丁目","koaza":"","lat":34.606102,"lng":135.49986,"zip":"5580042"},{"town":"帝塚山西二丁目","koaza":"","lat":34.620776,"lng":135.49657,"zip":"5580052"},{"town":"墨江一丁目","koaza":"","lat":34.6099,"lng":135.493381,"zip":"5580043"},{"town":"万代五丁目","koaza":"","lat":34.615707,"lng":135.501574,"zip":"5580055"},{"town":"我孫子一丁目","koaza":"","lat":34.605147,"lng":135.510159,"zip":"5580014"},{"town":"沢之町一丁目","koaza":"","lat":34.604466,"lng":135.498434,"zip":"5580031"},{"town":"帝塚山中三丁目","koaza":"","lat":34.62093,"lng":135.499568,"zip":"5580053"},{"town":"帝塚山東五丁目","koaza":"","lat":34.613824,"lng":135.498238,"zip":"5580054"},{"town":"苅田八丁目","koaza":"","lat":34.597365,"lng":135.519695,"zip":"5580011"},{"town":"万代東三丁目","koaza":"","lat":34.615775,"lng":135.504147,"zip":"5580056"},{"town":"我孫子西二丁目","koaza":"","lat":34.602433,"lng":135.505753,"zip":"5580015"},{"town":"沢之町二丁目","koaza":"","lat":34.602247,"lng":135.498445,"zip":"5580031"},{"town":"万代四丁目","koaza":"","lat":34.617447,"lng":135.502607,"zip":"5580055"},{"town":"我孫子二丁目","koaza":"","lat":34.602865,"lng":135.509289,"zip":"5580014"},{"town":"帝塚山西一丁目","koaza":"","lat":34.62295,"lng":135.49719,"zip":"5580052"},{"town":"苅田七丁目","koaza":"","lat":34.598862,"lng":135.515034,"zip":"5580011"},{"town":"長居西二丁目","koaza":"","lat":34.610696,"lng":135.509054,"zip":"5580002"},{"town":"長居二丁目","koaza":"","lat":34.612825,"lng":135.512005,"zip":"5580003"},{"town":"杉本一丁目","koaza":"","lat":34.595393,"lng":135.509069,"zip":"5580022"},{"town":"上住吉二丁目","koaza":"","lat":34.610886,"lng":135.495844,"zip":"5580046"},{"town":"長居四丁目","koaza":"","lat":34.607572,"lng":135.509589,"zip":"5580003"},{"town":"遠里小野七丁目","koaza":"","lat":34.596886,"lng":135.492092,"zip":"5580032"},{"town":"我孫子東二丁目","koaza":"","lat":34.599879,"lng":135.511752,"zip":"5580013"},{"town":"墨江二丁目","koaza":"","lat":34.608109,"lng":135.495217,"zip":"5580043"},{"town":"我孫子三丁目","koaza":"","lat":34.60159,"lng":135.508664,"zip":"5580014"},{"town":"大領三丁目","koaza":"","lat":34.615894,"lng":135.506781,"zip":"5580001"},{"town":"遠里小野一丁目","koaza":"","lat":34.599821,"lng":135.498404,"zip":"5580032"},{"town":"墨江三丁目","koaza":"","lat":34.607767,"lng":135.492003,"zip":"5580043"},{"town":"大領五丁目","koaza":"","lat":34.612256,"lng":135.505297,"zip":"5580001"},{"town":"苅田六丁目","koaza":"","lat":34.598885,"lng":135.52011,"zip":"5580011"},{"town":"上住吉一丁目","koaza":"","lat":34.610578,"lng":135.499012,"zip":"5580046"},{"town":"大領四丁目","koaza":"","lat":34.613787,"lng":135.506187,"zip":"5580001"},{"town":"我孫子五丁目","koaza":"","lat":34.599041,"lng":135.506146,"zip":"5580014"},{"town":"庭井一丁目","koaza":"","lat":34.595487,"lng":135.521247,"zip":"5580012"},{"town":"我孫子西一丁目","koaza":"","lat":34.604995,"lng":135.507329,"zip":"5580015"},{"town":"長居西一丁目","koaza":"","lat":34.614307,"lng":135.509256,"zip":"5580002"},{"town":"我孫子東三丁目","koaza":"","lat":34.595878,"lng":135.511368,"zip":"5580013"},{"town":"東粉浜二丁目","koaza":"","lat":34.61985,"lng":135.493403,"zip":"5580051"},{"town":"万代六丁目","koaza":"","lat":34.613607,"lng":135.500469,"zip":"5580055"},{"town":"山之内四丁目","koaza":"","lat":34.590076,"lng":135.5017,"zip":"5580023"},{"town":"南住吉四丁目","koaza":"","lat":34.602249,"lng":135.502182,"zip":"5580041"},{"town":"帝塚山西四丁目","koaza":"","lat":34.617474,"lng":135.49575,"zip":"5580052"},{"town":"山之内三丁目","koaza":"","lat":34.593749,"lng":135.501415,"zip":"5580023"},{"town":"墨江四丁目","koaza":"","lat":34.604875,"lng":135.495935,"zip":"5580043"},{"town":"万代三丁目","koaza":"","lat":34.619915,"lng":135.503301,"zip":"5580055"},{"town":"遠里小野六丁目","koaza":"","lat":34.596727,"lng":135.494347,"zip":"5580032"},{"town":"苅田二丁目","koaza":"","lat":34.604203,"lng":135.515939,"zip":"5580011"},{"town":"住吉一丁目","koaza":"","lat":34.613916,"lng":135.496317,"zip":"5580045"},{"town":"我孫子四丁目","koaza":"","lat":34.598524,"lng":135.509128,"zip":"5580014"},{"town":"我孫子東一丁目","koaza":"","lat":34.604002,"lng":135.512125,"zip":"5580013"},{"town":"東粉浜三丁目","koaza":"","lat":34.61602,"lng":135.492302,"zip":"5580051"},{"town":"遠里小野五丁目","koaza":"","lat":34.599929,"lng":135.49456,"zip":"5580032"},{"town":"苅田三丁目","koaza":"","lat":34.602423,"lng":135.515833,"zip":"5580011"},{"town":"浅香二丁目","koaza":"","lat":34.589403,"lng":135.507713,"zip":"5580021"},{"town":"苅田五丁目","koaza":"","lat":34.600505,"lng":135.515746,"zip":"5580011"},{"town":"長居東二丁目","koaza":"","lat":34.607279,"lng":135.518678,"zip":"5580004"},{"town":"苅田四丁目","koaza":"","lat":34.600892,"lng":135.520788,"zip":"5580011"},{"town":"杉本二丁目","koaza":"","lat":34.595743,"lng":135.505744,"zip":"5580022"},{"town":"苅田十丁目","koaza":"","lat":34.592731,"lng":135.514572,"zip":"5580011"},{"town":"長居東一丁目","koaza":"","lat":34.607302,"lng":135.521513,"zip":"5580004"},{"town":"苅田一丁目","koaza":"","lat":34.603915,"lng":135.520717,"zip":"5580011"},{"town":"山之内二丁目","koaza":"","lat":34.596847,"lng":135.50163,"zip":"5580023"},{"town":"苅田九丁目","koaza":"","lat":34.596443,"lng":135.514337,"zip":"5580011"},{"town":"長居東四丁目","koaza":"","lat":34.609816,"lng":135.512999,"zip":"5580004"},{"town":"遠里小野二丁目","koaza":"","lat":34.596727,"lng":135.497702,"zip":"5580032"},{"town":"山之内五丁目","koaza":"","lat":34.589266,"lng":135.499606,"zip":"5580023"},{"town":"遠里小野三丁目","koaza":"","lat":34.59375,"lng":135.498088,"zip":"5580032"},{"town":"南住吉二丁目","koaza":"","lat":34.608027,"lng":135.504084,"zip":"5580041"},{"town":"長居一丁目","koaza":"","lat":34.615044,"lng":135.512933,"zip":"5580003"},{"town":"山之内一丁目","koaza":"","lat":34.599943,"lng":135.502555,"zip":"5580023"},{"town":"清水丘一丁目","koaza":"","lat":34.604828,"lng":135.492362,"zip":"5580033"},{"town":"清水丘三丁目","koaza":"","lat":34.598081,"lng":135.489702,"zip":"5580033"},{"town":"清水丘二丁目","koaza":"","lat":34.601608,"lng":135.491565,"zip":"5580033"},{"town":"南住吉一丁目","koaza":"","lat":34.61061,"lng":135.504125,"zip":"5580041"},{"town":"住吉二丁目","koaza":"","lat":34.613129,"lng":135.493078,"zip":"5580045"},{"town":"長居東三丁目","koaza":"","lat":34.607293,"lng":135.515487,"zip":"5580004"},{"town":"南住吉三丁目","koaza":"","lat":34.605065,"lng":135.502776,"zip":"5580041"},{"town":"庭井二丁目","koaza":"","lat":34.594355,"lng":135.517582,"zip":"5580012"},{"town":"浅香一丁目","koaza":"","lat":34.591243,"lng":135.510936,"zip":"5580021"},{"town":"杉本三丁目","koaza":"","lat":34.590242,"lng":135.504515,"zip":"5580022"}]