[{"town":"内代町四丁目","koaza":"","lat":34.716232,"lng":135.536105,"zip":"5340013"},{"town":"都島本通五丁目","koaza":"","lat":34.70712,"lng":135.535322,"zip":"5340021"},{"town":"東野田町三丁目","koaza":"","lat":34.698023,"lng":135.534629,"zip":"5340024"},{"town":"東野田町二丁目","koaza":"","lat":34.697365,"lng":135.531784,"zip":"5340024"},{"town":"都島本通二丁目","koaza":"","lat":34.707159,"lng":135.525261,"zip":"5340021"},{"town":"高倉町二丁目","koaza":"","lat":34.716218,"lng":135.531685,"zip":"5340011"},{"town":"内代町三丁目","koaza":"","lat":34.713587,"lng":135.536915,"zip":"5340013"},{"town":"友渕町二丁目","koaza":"","lat":34.715068,"lng":135.530005,"zip":"5340016"},{"town":"御幸町一丁目","koaza":"","lat":34.713199,"lng":135.534003,"zip":"5340012"},{"town":"都島中通一丁目","koaza":"","lat":34.704726,"lng":135.529031,"zip":"5340022"},{"town":"友渕町三丁目","koaza":"","lat":34.719704,"lng":135.529804,"zip":"5340016"},{"town":"御幸町二丁目","koaza":"","lat":34.716785,"lng":135.534102,"zip":"5340012"},{"town":"高倉町一丁目","koaza":"","lat":34.712973,"lng":135.530521,"zip":"5340011"},{"town":"中野町二丁目","koaza":"","lat":34.699792,"lng":135.526424,"zip":"5340027"},{"town":"大東町一丁目","koaza":"","lat":34.72323,"lng":135.529485,"zip":"5340002"},{"town":"都島中通三丁目","koaza":"","lat":34.704006,"lng":135.535335,"zip":"5340022"},{"town":"中野町三丁目","koaza":"","lat":34.703028,"lng":135.525401,"zip":"5340027"},{"town":"善源寺町一丁目","koaza":"","lat":34.710871,"lng":135.52432,"zip":"5340015"},{"town":"内代町一丁目","koaza":"","lat":34.709578,"lng":135.536833,"zip":"5340013"},{"town":"東野田町五丁目","koaza":"","lat":34.700515,"lng":135.535492,"zip":"5340024"},{"town":"片町一丁目","koaza":"","lat":34.69268,"lng":135.525309,"zip":"5340025"},{"town":"東野田町一丁目","koaza":"","lat":34.695993,"lng":135.528614,"zip":"5340024"},{"town":"大東町二丁目","koaza":"","lat":34.72441,"lng":135.52765,"zip":"5340002"},{"town":"高倉町三丁目","koaza":"","lat":34.719535,"lng":135.532552,"zip":"5340011"},{"town":"都島本通四丁目","koaza":"","lat":34.707287,"lng":135.532405,"zip":"5340021"},{"town":"内代町二丁目","koaza":"","lat":34.712054,"lng":135.537617,"zip":"5340013"},{"town":"都島中通二丁目","koaza":"","lat":34.704282,"lng":135.532163,"zip":"5340022"},{"town":"都島南通二丁目","koaza":"","lat":34.701631,"lng":135.532179,"zip":"5340023"},{"town":"都島南通一丁目","koaza":"","lat":34.703946,"lng":135.527156,"zip":"5340023"},{"town":"片町二丁目","koaza":"","lat":34.695155,"lng":135.531456,"zip":"5340025"},{"town":"都島北通一丁目","koaza":"","lat":34.710651,"lng":135.52897,"zip":"5340014"},{"town":"都島本通三丁目","koaza":"","lat":34.707477,"lng":135.528238,"zip":"5340021"},{"town":"善源寺町二丁目","koaza":"","lat":34.712166,"lng":135.525992,"zip":"5340015"},{"town":"都島本通一丁目","koaza":"","lat":34.709801,"lng":135.522106,"zip":"5340021"},{"town":"都島北通二丁目","koaza":"","lat":34.710688,"lng":135.532235,"zip":"5340014"},{"town":"中野町一丁目","koaza":"","lat":34.699626,"lng":135.523588,"zip":"5340027"},{"town":"毛馬町一丁目","koaza":"","lat":34.718564,"lng":135.521369,"zip":"5340001"},{"town":"中野町四丁目","koaza":"","lat":34.703068,"lng":135.521559,"zip":"5340027"},{"town":"東野田町四丁目","koaza":"","lat":34.699529,"lng":135.53001,"zip":"5340024"},{"town":"毛馬町二丁目","koaza":"","lat":34.722091,"lng":135.525062,"zip":"5340001"},{"town":"網島町","koaza":"","lat":34.694523,"lng":135.524711,"zip":"5340026"},{"town":"中野町五丁目","koaza":"","lat":34.706397,"lng":135.521329,"zip":"5340027"},{"town":"毛馬町三丁目","koaza":"","lat":34.721059,"lng":135.518492,"zip":"5340001"},{"town":"大東町三丁目","koaza":"","lat":34.729625,"lng":135.526221,"zip":"5340002"},{"town":"毛馬町四丁目","koaza":"","lat":34.724668,"lng":135.519618,"zip":"5340001"},{"town":"毛馬町五丁目","koaza":"","lat":34.728067,"lng":135.522367,"zip":"5340001"},{"town":"友渕町一丁目","koaza":"","lat":34.717516,"lng":135.526018,"zip":"5340016"}]