[{"town":"千林一丁目","koaza":"","lat":34.72319,"lng":135.553015,"zip":"5350012"},{"town":"高殿一丁目","koaza":"","lat":34.719733,"lng":135.53484,"zip":"5350031"},{"town":"新森三丁目","koaza":"","lat":34.720042,"lng":135.55339,"zip":"5350022"},{"town":"赤川一丁目","koaza":"","lat":34.722616,"lng":135.533157,"zip":"5350005"},{"town":"清水一丁目","koaza":"","lat":34.722161,"lng":135.554874,"zip":"5350021"},{"town":"千林二丁目","koaza":"","lat":34.724872,"lng":135.552273,"zip":"5350012"},{"town":"生江二丁目","koaza":"","lat":34.724827,"lng":135.536687,"zip":"5350004"},{"town":"新森一丁目","koaza":"","lat":34.716611,"lng":135.551604,"zip":"5350022"},{"town":"赤川三丁目","koaza":"","lat":34.726932,"lng":135.530975,"zip":"5350005"},{"town":"新森五丁目","koaza":"","lat":34.719469,"lng":135.558384,"zip":"5350022"},{"town":"中宮三丁目","koaza":"","lat":34.726054,"lng":135.541602,"zip":"5350003"},{"town":"森小路一丁目","koaza":"","lat":34.720028,"lng":135.549531,"zip":"5350013"},{"town":"今市一丁目","koaza":"","lat":34.727629,"lng":135.551786,"zip":"5350011"},{"town":"生江一丁目","koaza":"","lat":34.722293,"lng":135.536557,"zip":"5350004"},{"town":"中宮四丁目","koaza":"","lat":34.727595,"lng":135.541495,"zip":"5350003"},{"town":"清水四丁目","koaza":"","lat":34.721478,"lng":135.563171,"zip":"5350021"},{"town":"清水五丁目","koaza":"","lat":34.723809,"lng":135.562701,"zip":"5350021"},{"town":"今市二丁目","koaza":"","lat":34.728241,"lng":135.553924,"zip":"5350011"},{"town":"清水二丁目","koaza":"","lat":34.722162,"lng":135.557902,"zip":"5350021"},{"town":"高殿七丁目","koaza":"","lat":34.717387,"lng":135.548713,"zip":"5350031"},{"town":"大宮二丁目","koaza":"","lat":34.723456,"lng":135.546387,"zip":"5350002"},{"town":"大宮三丁目","koaza":"","lat":34.725463,"lng":135.547125,"zip":"5350002"},{"town":"大宮一丁目","koaza":"","lat":34.721028,"lng":135.545766,"zip":"5350002"},{"town":"森小路二丁目","koaza":"","lat":34.721857,"lng":135.551348,"zip":"5350013"},{"town":"中宮一丁目","koaza":"","lat":34.721916,"lng":135.541096,"zip":"5350003"},{"town":"赤川二丁目","koaza":"","lat":34.725433,"lng":135.532817,"zip":"5350005"},{"town":"新森七丁目","koaza":"","lat":34.719427,"lng":135.563574,"zip":"5350022"},{"town":"高殿三丁目","koaza":"","lat":34.71426,"lng":135.539786,"zip":"5350031"},{"town":"新森二丁目","koaza":"","lat":34.717331,"lng":135.554054,"zip":"5350022"},{"town":"高殿四丁目","koaza":"","lat":34.714201,"lng":135.542476,"zip":"5350031"},{"town":"中宮二丁目","koaza":"","lat":34.724086,"lng":135.541267,"zip":"5350003"},{"town":"新森六丁目","koaza":"","lat":34.717022,"lng":135.561727,"zip":"5350022"},{"town":"高殿二丁目","koaza":"","lat":34.718012,"lng":135.536869,"zip":"5350031"},{"town":"清水三丁目","koaza":"","lat":34.723875,"lng":135.558441,"zip":"5350021"},{"town":"新森四丁目","koaza":"","lat":34.716879,"lng":135.558271,"zip":"5350022"},{"town":"大宮四丁目","koaza":"","lat":34.727942,"lng":135.547528,"zip":"5350002"},{"town":"高殿六丁目","koaza":"","lat":34.718144,"lng":135.545112,"zip":"5350031"},{"town":"太子橋二丁目","koaza":"","lat":34.736295,"lng":135.554392,"zip":"5350001"},{"town":"高殿五丁目","koaza":"","lat":34.718585,"lng":135.5406,"zip":"5350031"},{"town":"太子橋一丁目","koaza":"","lat":34.733072,"lng":135.551631,"zip":"5350001"},{"town":"中宮五丁目","koaza":"","lat":34.731304,"lng":135.542574,"zip":"5350003"},{"town":"大宮五丁目","koaza":"","lat":34.732278,"lng":135.547588,"zip":"5350002"},{"town":"生江三丁目","koaza":"","lat":34.730291,"lng":135.537441,"zip":"5350004"},{"town":"太子橋三丁目","koaza":"","lat":34.740904,"lng":135.557712,"zip":"5350001"},{"town":"赤川四丁目","koaza":"","lat":34.730036,"lng":135.530818,"zip":"5350005"}]