[{"town":"平野南四丁目","koaza":"","lat":34.617357,"lng":135.560387,"zip":"5470031"},{"town":"平野東三丁目","koaza":"","lat":34.621206,"lng":135.558297,"zip":"5470043"},{"town":"平野上町二丁目","koaza":"","lat":34.626113,"lng":135.55345,"zip":"5470045"},{"town":"長吉長原西一丁目","koaza":"","lat":34.607631,"lng":135.565972,"zip":"5470015"},{"town":"平野西六丁目","koaza":"","lat":34.617555,"lng":135.547801,"zip":"5470033"},{"town":"平野市町二丁目","koaza":"","lat":34.626968,"lng":135.558979,"zip":"5470042"},{"town":"西脇三丁目","koaza":"","lat":34.629741,"lng":135.547738,"zip":"5470035"},{"town":"背戸口五丁目","koaza":"","lat":34.621949,"lng":135.547783,"zip":"5470034"},{"town":"背戸口三丁目","koaza":"","lat":34.621825,"lng":135.545137,"zip":"5470034"},{"town":"平野本町三丁目","koaza":"","lat":34.624407,"lng":135.55415,"zip":"5470044"},{"town":"平野宮町二丁目","koaza":"","lat":34.627449,"lng":135.555587,"zip":"5470046"},{"town":"平野西五丁目","koaza":"","lat":34.619714,"lng":135.547801,"zip":"5470033"},{"town":"平野南二丁目","koaza":"","lat":34.617412,"lng":135.557331,"zip":"5470031"},{"town":"喜連六丁目","koaza":"","lat":34.613005,"lng":135.556545,"zip":"5470027"},{"town":"喜連七丁目","koaza":"","lat":34.610973,"lng":135.556532,"zip":"5470027"},{"town":"平野市町一丁目","koaza":"","lat":34.628294,"lng":135.556956,"zip":"5470042"},{"town":"瓜破五丁目","koaza":"","lat":34.602736,"lng":135.553752,"zip":"5470024"},{"town":"加美南三丁目","koaza":"","lat":34.621677,"lng":135.570687,"zip":"5470003"},{"town":"平野市町三丁目","koaza":"","lat":34.625988,"lng":135.557758,"zip":"5470042"},{"town":"平野西二丁目","koaza":"","lat":34.61763,"lng":135.542214,"zip":"5470033"},{"town":"背戸口四丁目","koaza":"","lat":34.62413,"lng":135.547768,"zip":"5470034"},{"town":"平野本町二丁目","koaza":"","lat":34.622104,"lng":135.55021,"zip":"5470044"},{"town":"平野西四丁目","koaza":"","lat":34.617596,"lng":135.545152,"zip":"5470033"},{"town":"流町二丁目","koaza":"","lat":34.617515,"lng":135.550593,"zip":"5470032"},{"town":"平野東四丁目","koaza":"","lat":34.622119,"lng":135.561175,"zip":"5470043"},{"town":"瓜破東五丁目","koaza":"","lat":34.600769,"lng":135.555821,"zip":"5470022"},{"town":"喜連東四丁目","koaza":"","lat":34.613494,"lng":135.563456,"zip":"5470021"},{"town":"平野本町五丁目","koaza":"","lat":34.621535,"lng":135.553733,"zip":"5470044"},{"town":"加美東七丁目","koaza":"","lat":34.625372,"lng":135.57429,"zip":"5470002"},{"town":"平野東一丁目","koaza":"","lat":34.624117,"lng":135.558867,"zip":"5470043"},{"town":"瓜破四丁目","koaza":"","lat":34.602786,"lng":135.550559,"zip":"5470024"},{"town":"西脇四丁目","koaza":"","lat":34.626869,"lng":135.547743,"zip":"5470035"},{"town":"平野本町一丁目","koaza":"","lat":34.624294,"lng":135.550464,"zip":"5470044"},{"town":"平野南一丁目","koaza":"","lat":34.619533,"lng":135.557377,"zip":"5470031"},{"town":"平野西一丁目","koaza":"","lat":34.619773,"lng":135.542222,"zip":"5470033"},{"town":"平野本町四丁目","koaza":"","lat":34.622941,"lng":135.553991,"zip":"5470044"},{"town":"平野西三丁目","koaza":"","lat":34.619722,"lng":135.545148,"zip":"5470033"},{"town":"流町四丁目","koaza":"","lat":34.617463,"lng":135.554073,"zip":"5470032"},{"town":"喜連三丁目","koaza":"","lat":34.614645,"lng":135.553469,"zip":"5470027"},{"town":"加美南四丁目","koaza":"","lat":34.621613,"lng":135.573896,"zip":"5470003"},{"town":"加美正覚寺二丁目","koaza":"","lat":34.631774,"lng":135.56051,"zip":"5470006"},{"town":"平野東二丁目","koaza":"","lat":34.622386,"lng":135.558085,"zip":"5470043"},{"town":"流町一丁目","koaza":"","lat":34.619642,"lng":135.550612,"zip":"5470032"},{"town":"加美南二丁目","koaza":"","lat":34.624134,"lng":135.573913,"zip":"5470003"},{"town":"長吉出戸五丁目","koaza":"","lat":34.609985,"lng":135.570278,"zip":"5470011"},{"town":"長吉出戸四丁目","koaza":"","lat":34.610234,"lng":135.567958,"zip":"5470011"},{"town":"瓜破七丁目","koaza":"","lat":34.600061,"lng":135.553357,"zip":"5470024"},{"town":"瓜破東一丁目","koaza":"","lat":34.607519,"lng":135.55715,"zip":"5470022"},{"town":"瓜破東三丁目","koaza":"","lat":34.603887,"lng":135.556636,"zip":"5470022"},{"town":"加美正覚寺四丁目","koaza":"","lat":34.62892,"lng":135.561632,"zip":"5470006"},{"town":"流町三丁目","koaza":"","lat":34.619575,"lng":135.554108,"zip":"5470032"},{"town":"瓜破東七丁目","koaza":"","lat":34.598331,"lng":135.557195,"zip":"5470022"},{"town":"平野南三丁目","koaza":"","lat":34.619184,"lng":135.560443,"zip":"5470031"},{"town":"加美鞍作三丁目","koaza":"","lat":34.622104,"lng":135.566973,"zip":"5470004"},{"town":"西脇二丁目","koaza":"","lat":34.626779,"lng":135.545171,"zip":"5470035"},{"town":"加美鞍作二丁目","koaza":"","lat":34.623691,"lng":135.566783,"zip":"5470004"},{"town":"喜連東二丁目","koaza":"","lat":34.612793,"lng":135.560355,"zip":"5470021"},{"town":"平野元町","koaza":"","lat":34.629859,"lng":135.550259,"zip":"5470047"},{"town":"瓜破三丁目","koaza":"","lat":34.605192,"lng":135.554003,"zip":"5470024"},{"town":"平野北二丁目","koaza":"","lat":34.631115,"lng":135.554409,"zip":"5470041"},{"town":"平野馬場二丁目","koaza":"","lat":34.631907,"lng":135.547174,"zip":"5470048"},{"town":"背戸口二丁目","koaza":"","lat":34.623935,"lng":135.545122,"zip":"5470034"},{"town":"長吉長原西二丁目","koaza":"","lat":34.604522,"lng":135.566114,"zip":"5470015"},{"town":"喜連西五丁目","koaza":"","lat":34.614712,"lng":135.547832,"zip":"5470026"},{"town":"喜連西六丁目","koaza":"","lat":34.611022,"lng":135.547847,"zip":"5470026"},{"town":"長吉出戸六丁目","koaza":"","lat":34.609719,"lng":135.572306,"zip":"5470011"},{"town":"長吉出戸三丁目","koaza":"","lat":34.61279,"lng":135.571557,"zip":"5470011"},{"town":"喜連西四丁目","koaza":"","lat":34.610067,"lng":135.543765,"zip":"5470026"},{"town":"加美西二丁目","koaza":"","lat":34.623664,"lng":135.562689,"zip":"5470005"},{"town":"加美南一丁目","koaza":"","lat":34.62455,"lng":135.570597,"zip":"5470003"},{"town":"加美南五丁目","koaza":"","lat":34.61965,"lng":135.572669,"zip":"5470003"},{"town":"加美東二丁目","koaza":"","lat":34.632074,"lng":135.570274,"zip":"5470002"},{"town":"平野上町一丁目","koaza":"","lat":34.627514,"lng":135.550467,"zip":"5470045"},{"town":"長吉長原三丁目","koaza":"","lat":34.603,"lng":135.570383,"zip":"5470016"},{"town":"長吉出戸一丁目","koaza":"","lat":34.614723,"lng":135.564489,"zip":"5470011"},{"town":"喜連西二丁目","koaza":"","lat":34.613647,"lng":135.543868,"zip":"5470026"},{"town":"平野宮町一丁目","koaza":"","lat":34.628242,"lng":135.553114,"zip":"5470046"},{"town":"加美東三丁目","koaza":"","lat":34.632187,"lng":135.573207,"zip":"5470002"},{"town":"平野北一丁目","koaza":"","lat":34.632832,"lng":135.551122,"zip":"5470041"},{"town":"喜連四丁目","koaza":"","lat":34.611018,"lng":135.554048,"zip":"5470027"},{"town":"喜連五丁目","koaza":"","lat":34.615132,"lng":135.556442,"zip":"5470027"},{"town":"喜連東一丁目","koaza":"","lat":34.615416,"lng":135.560612,"zip":"5470021"},{"town":"加美北九丁目","koaza":"","lat":34.635899,"lng":135.567465,"zip":"5470001"},{"town":"加美鞍作一丁目","koaza":"","lat":34.626167,"lng":135.566609,"zip":"5470004"},{"town":"加美東五丁目","koaza":"","lat":34.628297,"lng":135.570491,"zip":"5470002"},{"town":"長吉長原一丁目","koaza":"","lat":34.607579,"lng":135.569928,"zip":"5470016"},{"town":"喜連西三丁目","koaza":"","lat":34.611807,"lng":135.543803,"zip":"5470026"},{"town":"長吉六反五丁目","koaza":"","lat":34.605504,"lng":135.585176,"zip":"5470012"},{"town":"瓜破六丁目","koaza":"","lat":34.600128,"lng":135.55046,"zip":"5470024"},{"town":"喜連東五丁目","koaza":"","lat":34.610825,"lng":135.564288,"zip":"5470021"},{"town":"長吉川辺一丁目","koaza":"","lat":34.596691,"lng":135.569923,"zip":"5470014"},{"town":"平野馬場一丁目","koaza":"","lat":34.63409,"lng":135.547356,"zip":"5470048"},{"town":"西脇一丁目","koaza":"","lat":34.630614,"lng":135.545179,"zip":"5470035"},{"town":"加美北七丁目","koaza":"","lat":34.635012,"lng":135.559441,"zip":"5470001"},{"town":"長吉六反二丁目","koaza":"","lat":34.606728,"lng":135.580333,"zip":"5470012"},{"town":"長吉長原東二丁目","koaza":"","lat":34.602922,"lng":135.576397,"zip":"5470013"},{"town":"喜連西一丁目","koaza":"","lat":34.615624,"lng":135.543739,"zip":"5470026"},{"town":"加美北二丁目","koaza":"","lat":34.641917,"lng":135.55927,"zip":"5470001"},{"town":"喜連二丁目","koaza":"","lat":34.611041,"lng":135.550862,"zip":"5470027"},{"town":"長吉長原東一丁目","koaza":"","lat":34.605182,"lng":135.574233,"zip":"5470013"},{"town":"喜連一丁目","koaza":"","lat":34.614675,"lng":135.550857,"zip":"5470027"},{"town":"喜連東三丁目","koaza":"","lat":34.610663,"lng":135.55985,"zip":"5470021"},{"town":"加美東一丁目","koaza":"","lat":34.631899,"lng":135.567077,"zip":"5470002"},{"town":"長吉出戸二丁目","koaza":"","lat":34.613958,"lng":135.567482,"zip":"5470011"},{"town":"加美正覚寺三丁目","koaza":"","lat":34.631831,"lng":135.563421,"zip":"5470006"},{"town":"長吉六反四丁目","koaza":"","lat":34.608255,"lng":135.58423,"zip":"5470012"},{"town":"加美北六丁目","koaza":"","lat":34.635095,"lng":135.555266,"zip":"5470001"},{"town":"加美北一丁目","koaza":"","lat":34.64213,"lng":135.555728,"zip":"5470001"},{"town":"瓜破一丁目","koaza":"","lat":34.606507,"lng":135.550344,"zip":"5470024"},{"town":"加美西一丁目","koaza":"","lat":34.62673,"lng":135.561988,"zip":"5470005"},{"town":"背戸口一丁目","koaza":"","lat":34.623101,"lng":135.54218,"zip":"5470034"},{"town":"長吉長原二丁目","koaza":"","lat":34.605028,"lng":135.570132,"zip":"5470016"},{"town":"加美正覚寺一丁目","koaza":"","lat":34.631782,"lng":135.55716,"zip":"5470006"},{"town":"瓜破東八丁目","koaza":"","lat":34.599111,"lng":135.561892,"zip":"5470022"},{"town":"加美北四丁目","koaza":"","lat":34.638428,"lng":135.559248,"zip":"5470001"},{"town":"瓜破西二丁目","koaza":"","lat":34.603312,"lng":135.546271,"zip":"5470025"},{"town":"長吉出戸八丁目","koaza":"","lat":34.607838,"lng":135.574916,"zip":"5470011"},{"town":"加美北三丁目","koaza":"","lat":34.638288,"lng":135.555192,"zip":"5470001"},{"town":"長吉長原西四丁目","koaza":"","lat":34.59752,"lng":135.565775,"zip":"5470015"},{"town":"瓜破二丁目","koaza":"","lat":34.607385,"lng":135.553494,"zip":"5470024"},{"town":"長吉六反三丁目","koaza":"","lat":34.604376,"lng":135.580813,"zip":"5470012"},{"town":"加美北八丁目","koaza":"","lat":34.635152,"lng":135.56377,"zip":"5470001"},{"town":"長吉長原四丁目","koaza":"","lat":34.600456,"lng":135.570842,"zip":"5470016"},{"town":"加美東四丁目","koaza":"","lat":34.62822,"lng":135.566556,"zip":"5470002"},{"town":"瓜破東六丁目","koaza":"","lat":34.601015,"lng":135.560197,"zip":"5470022"},{"town":"長吉長原西三丁目","koaza":"","lat":34.600317,"lng":135.566315,"zip":"5470015"},{"town":"瓜破西三丁目","koaza":"","lat":34.600049,"lng":135.546145,"zip":"5470025"},{"town":"長吉六反一丁目","koaza":"","lat":34.609715,"lng":135.580159,"zip":"5470012"},{"town":"加美東六丁目","koaza":"","lat":34.628369,"lng":135.573938,"zip":"5470002"},{"town":"長吉川辺二丁目","koaza":"","lat":34.596149,"lng":135.573079,"zip":"5470014"},{"town":"瓜破東二丁目","koaza":"","lat":34.607758,"lng":135.561728,"zip":"5470022"},{"town":"長吉出戸七丁目","koaza":"","lat":34.612007,"lng":135.575395,"zip":"5470011"},{"town":"加美北五丁目","koaza":"","lat":34.638775,"lng":135.563225,"zip":"5470001"},{"town":"長吉長原東三丁目","koaza":"","lat":34.60051,"lng":135.576786,"zip":"5470013"},{"town":"長吉川辺四丁目","koaza":"","lat":34.591233,"lng":135.569838,"zip":"5470014"},{"town":"瓜破西一丁目","koaza":"","lat":34.60708,"lng":135.546408,"zip":"5470025"},{"town":"瓜破南一丁目","koaza":"","lat":34.596604,"lng":135.547981,"zip":"5470023"},{"town":"瓜破南二丁目","koaza":"","lat":34.596417,"lng":135.557248,"zip":"5470023"},{"town":"長吉川辺三丁目","koaza":"","lat":34.596245,"lng":135.577264,"zip":"5470014"},{"town":"瓜破東四丁目","koaza":"","lat":34.604413,"lng":135.561194,"zip":"5470022"}]