[{"town":"上本町二丁目","koaza":"","lat":34.673741,"lng":135.520751,"zip":"5430001"},{"town":"上本町一丁目","koaza":"","lat":34.674975,"lng":135.520869,"zip":"5430001"},{"town":"下味原町","koaza":"","lat":34.665443,"lng":135.529638,"zip":"5430025"},{"town":"上本町四丁目","koaza":"","lat":34.670349,"lng":135.520292,"zip":"5430001"},{"town":"四天王寺二丁目","koaza":"","lat":34.655833,"lng":135.519247,"zip":"5430051"},{"town":"上汐六丁目","koaza":"","lat":34.658269,"lng":135.516028,"zip":"5430002"},{"town":"上本町三丁目","koaza":"","lat":34.672368,"lng":135.521033,"zip":"5430001"},{"town":"大道五丁目","koaza":"","lat":34.647604,"lng":135.522442,"zip":"5430052"},{"town":"細工谷二丁目","koaza":"","lat":34.66113,"lng":135.524519,"zip":"5430032"},{"town":"上本町七丁目","koaza":"","lat":34.662553,"lng":135.51834,"zip":"5430001"},{"town":"寺田町二丁目","koaza":"","lat":34.649839,"lng":135.524005,"zip":"5430045"},{"town":"上汐五丁目","koaza":"","lat":34.66022,"lng":135.516134,"zip":"5430002"},{"town":"上本町五丁目","koaza":"","lat":34.668007,"lng":135.520331,"zip":"5430001"},{"town":"味原本町","koaza":"","lat":34.66823,"lng":135.525269,"zip":"5430022"},{"town":"上汐四丁目","koaza":"","lat":34.662467,"lng":135.516525,"zip":"5430002"},{"town":"勝山三丁目","koaza":"","lat":34.654179,"lng":135.523976,"zip":"5430043"},{"town":"烏ケ辻一丁目","koaza":"","lat":34.65691,"lng":135.526826,"zip":"5430042"},{"town":"上本町九丁目","koaza":"","lat":34.657961,"lng":135.517587,"zip":"5430001"},{"town":"細工谷一丁目","koaza":"","lat":34.662539,"lng":135.524588,"zip":"5430032"},{"town":"上汐三丁目","koaza":"","lat":34.664859,"lng":135.516975,"zip":"5430002"},{"town":"松ケ鼻町","koaza":"","lat":34.659549,"lng":135.52405,"zip":"5430034"},{"town":"逢阪一丁目","koaza":"","lat":34.654334,"lng":135.511643,"zip":"5430062"},{"town":"勝山四丁目","koaza":"","lat":34.654427,"lng":135.526047,"zip":"5430043"},{"town":"空清町","koaza":"","lat":34.672587,"lng":135.523466,"zip":"5430018"},{"town":"大道四丁目","koaza":"","lat":34.649044,"lng":135.521843,"zip":"5430052"},{"town":"大道三丁目","koaza":"","lat":34.64977,"lng":135.520034,"zip":"5430052"},{"town":"六万体町","koaza":"","lat":34.65944,"lng":135.514742,"zip":"5430074"},{"town":"生玉前町","koaza":"","lat":34.66395,"lng":135.515509,"zip":"5430072"},{"town":"東上町","koaza":"","lat":34.663687,"lng":135.529001,"zip":"5430026"},{"town":"勝山一丁目","koaza":"","lat":34.655429,"lng":135.520924,"zip":"5430043"},{"town":"下寺町二丁目","koaza":"","lat":34.657557,"lng":135.510846,"zip":"5430076"},{"town":"寺田町一丁目","koaza":"","lat":34.651845,"lng":135.522203,"zip":"5430045"},{"town":"伶人町","koaza":"","lat":34.655798,"lng":135.512438,"zip":"5430061"},{"town":"空堀町","koaza":"","lat":34.674163,"lng":135.527632,"zip":"5430012"},{"town":"舟橋町","koaza":"","lat":34.667628,"lng":135.53035,"zip":"5430024"},{"town":"小宮町","koaza":"","lat":34.659441,"lng":135.519909,"zip":"5430036"},{"town":"逢阪二丁目","koaza":"","lat":34.652733,"lng":135.511612,"zip":"5430062"},{"town":"北河堀町","koaza":"","lat":34.649935,"lng":135.51776,"zip":"5430053"},{"town":"堀越町","koaza":"","lat":34.649512,"lng":135.513902,"zip":"5430056"},{"town":"上之宮町","koaza":"","lat":34.661842,"lng":135.520424,"zip":"5430037"},{"town":"味原町","koaza":"","lat":34.667172,"lng":135.528111,"zip":"5430023"},{"town":"下寺町一丁目","koaza":"","lat":34.66304,"lng":135.5114,"zip":"5430076"},{"town":"夕陽丘町","koaza":"","lat":34.658356,"lng":135.512892,"zip":"5430075"},{"town":"上本町八丁目","koaza":"","lat":34.660612,"lng":135.518032,"zip":"5430001"},{"town":"大道二丁目","koaza":"","lat":34.651816,"lng":135.519431,"zip":"5430052"},{"town":"石ケ辻町","koaza":"","lat":34.664008,"lng":135.521765,"zip":"5430031"},{"town":"堂ケ芝二丁目","koaza":"","lat":34.660405,"lng":135.526154,"zip":"5430033"},{"town":"堂ケ芝一丁目","koaza":"","lat":34.659972,"lng":135.527852,"zip":"5430033"},{"town":"大道一丁目","koaza":"","lat":34.652291,"lng":135.515313,"zip":"5430052"},{"town":"東高津町","koaza":"","lat":34.667464,"lng":135.522369,"zip":"5430021"},{"town":"真田山町","koaza":"","lat":34.669926,"lng":135.52876,"zip":"5430015"},{"town":"北山町","koaza":"","lat":34.660503,"lng":135.522354,"zip":"5430035"},{"town":"勝山二丁目","koaza":"","lat":34.653441,"lng":135.520391,"zip":"5430043"},{"town":"烏ケ辻二丁目","koaza":"","lat":34.656518,"lng":135.524365,"zip":"5430042"},{"town":"悲田院町","koaza":"","lat":34.648282,"lng":135.515445,"zip":"5430055"},{"town":"国分町","koaza":"","lat":34.65176,"lng":135.524596,"zip":"5430044"},{"town":"小橋町","koaza":"","lat":34.666472,"lng":135.5254,"zip":"5430028"},{"town":"城南寺町","koaza":"","lat":34.670313,"lng":135.522452,"zip":"5430017"},{"town":"真法院町","koaza":"","lat":34.656831,"lng":135.520796,"zip":"5430041"},{"town":"玉造本町","koaza":"","lat":34.673058,"lng":135.529385,"zip":"5430013"},{"town":"玉造元町","koaza":"","lat":34.671986,"lng":135.531877,"zip":"5430014"},{"town":"生玉寺町","koaza":"","lat":34.661543,"lng":135.513297,"zip":"5430073"},{"town":"上本町六丁目","koaza":"","lat":34.665016,"lng":135.51906,"zip":"5430001"},{"town":"清水谷町","koaza":"","lat":34.674476,"lng":135.523545,"zip":"5430011"},{"town":"生玉町","koaza":"","lat":34.664901,"lng":135.513686,"zip":"5430071"},{"town":"筆ケ崎町","koaza":"","lat":34.663807,"lng":135.525695,"zip":"5430027"},{"town":"餌差町","koaza":"","lat":34.671028,"lng":135.525944,"zip":"5430016"},{"town":"南河堀町","koaza":"","lat":34.647219,"lng":135.518989,"zip":"5430054"},{"town":"四天王寺一丁目","koaza":"","lat":34.654892,"lng":135.515972,"zip":"5430051"},{"town":"茶臼山町","koaza":"","lat":34.650412,"lng":135.510474,"zip":"5430063"}]