[{"town":"中崎三丁目","koaza":"","lat":34.708582,"lng":135.505174,"zip":"5300016"},{"town":"浮田一丁目","koaza":"","lat":34.709092,"lng":135.508816,"zip":"5300021"},{"town":"山崎町","koaza":"","lat":34.706082,"lng":135.508907,"zip":"5300024"},{"town":"中崎西三丁目","koaza":"","lat":34.707828,"lng":135.502471,"zip":"5300015"},{"town":"天神西町","koaza":"","lat":34.694848,"lng":135.51018,"zip":"5300045"},{"town":"小松原町","koaza":"","lat":34.70299,"lng":135.501002,"zip":"5300018"},{"town":"中崎西四丁目","koaza":"","lat":34.709176,"lng":135.503319,"zip":"5300015"},{"town":"曾根崎新地二丁目","koaza":"","lat":34.697427,"lng":135.493487,"zip":"5300000"},{"town":"紅梅町","koaza":"","lat":34.699134,"lng":135.513632,"zip":"5300038"},{"town":"万歳町","koaza":"","lat":34.705472,"lng":135.504522,"zip":"5300028"},{"town":"長柄中一丁目","koaza":"","lat":34.711324,"lng":135.514724,"zip":"5310062"},{"town":"南森町一丁目","koaza":"","lat":34.696589,"lng":135.510137,"zip":"5300054"},{"town":"国分寺二丁目","koaza":"","lat":34.711563,"lng":135.512734,"zip":"5310064"},{"town":"太融寺町","koaza":"","lat":34.701677,"lng":135.50385,"zip":"5300051"},{"town":"天神橋五丁目","koaza":"","lat":34.707657,"lng":135.51155,"zip":"5300041"},{"town":"浮田二丁目","koaza":"","lat":34.709644,"lng":135.507957,"zip":"5300021"},{"town":"曾根崎一丁目","koaza":"","lat":34.698852,"lng":135.50308,"zip":"5300000"},{"town":"西天満六丁目","koaza":"","lat":34.698863,"lng":135.505136,"zip":"5300047"},{"town":"南扇町","koaza":"","lat":34.701231,"lng":135.508693,"zip":"5300052"},{"town":"中崎二丁目","koaza":"","lat":34.708874,"lng":135.506367,"zip":"5300016"},{"town":"黒崎町","koaza":"","lat":34.707333,"lng":135.508453,"zip":"5300023"},{"town":"天神橋六丁目","koaza":"","lat":34.709845,"lng":135.511862,"zip":"5300041"},{"town":"天満橋三丁目","koaza":"","lat":34.704817,"lng":135.515656,"zip":"5300042"},{"town":"堂島浜二丁目","koaza":"","lat":34.694893,"lng":135.494076,"zip":"5300004"},{"town":"中崎一丁目","koaza":"","lat":34.706897,"lng":135.506328,"zip":"5300016"},{"town":"鶴野町","koaza":"","lat":34.707634,"lng":135.501109,"zip":"5300014"},{"town":"南森町二丁目","koaza":"","lat":34.698709,"lng":135.510081,"zip":"5300054"},{"town":"末広町","koaza":"","lat":34.701242,"lng":135.509987,"zip":"5300053"},{"town":"豊崎五丁目","koaza":"","lat":34.712333,"lng":135.499025,"zip":"5310072"},{"town":"菅栄町","koaza":"","lat":34.709209,"lng":135.514223,"zip":"5300031"},{"town":"野崎町","koaza":"","lat":34.701142,"lng":135.507085,"zip":"5300055"},{"town":"与力町","koaza":"","lat":34.700977,"lng":135.513905,"zip":"5300036"},{"town":"菅原町","koaza":"","lat":34.69301,"lng":135.510373,"zip":"5300046"},{"town":"東天満一丁目","koaza":"","lat":34.696594,"lng":135.515865,"zip":"5300044"},{"town":"中崎西一丁目","koaza":"","lat":34.70718,"lng":135.504428,"zip":"5300015"},{"town":"天満三丁目","koaza":"","lat":34.693626,"lng":135.515371,"zip":"5300043"},{"town":"中崎西二丁目","koaza":"","lat":34.705968,"lng":135.50233,"zip":"5300015"},{"town":"松ケ枝町","koaza":"","lat":34.698973,"lng":135.516411,"zip":"5300037"},{"town":"豊崎二丁目","koaza":"","lat":34.710603,"lng":135.501354,"zip":"5310072"},{"town":"堂島三丁目","koaza":"","lat":34.69545,"lng":135.491253,"zip":"5300003"},{"town":"樋之口町","koaza":"","lat":34.707728,"lng":135.516655,"zip":"5300032"},{"town":"豊崎一丁目","koaza":"","lat":34.711107,"lng":135.503145,"zip":"5310072"},{"town":"本庄西一丁目","koaza":"","lat":34.71099,"lng":135.505472,"zip":"5310073"},{"town":"大淀南二丁目","koaza":"","lat":34.701909,"lng":135.486012,"zip":"5310075"},{"town":"天神橋七丁目","koaza":"","lat":34.712967,"lng":135.51114,"zip":"5300041"},{"town":"浪花町","koaza":"","lat":34.708405,"lng":135.510176,"zip":"5300022"},{"town":"堂島二丁目","koaza":"","lat":34.696391,"lng":135.493729,"zip":"5300003"},{"town":"大淀中四丁目","koaza":"","lat":34.703779,"lng":135.482644,"zip":"5310076"},{"town":"神山町","koaza":"","lat":34.703469,"lng":135.506127,"zip":"5300026"},{"town":"長柄中三丁目","koaza":"","lat":34.718052,"lng":135.514762,"zip":"5310062"},{"town":"堂島一丁目","koaza":"","lat":34.696593,"lng":135.497659,"zip":"5300003"},{"town":"中津五丁目","koaza":"","lat":34.706843,"lng":135.491603,"zip":"5310071"},{"town":"大淀南一丁目","koaza":"","lat":34.702979,"lng":135.488941,"zip":"5310075"},{"town":"錦町","koaza":"","lat":34.705195,"lng":135.51341,"zip":"5300034"},{"town":"長柄中二丁目","koaza":"","lat":34.713947,"lng":135.515234,"zip":"5310062"},{"town":"東天満二丁目","koaza":"","lat":34.69784,"lng":135.514538,"zip":"5300044"},{"town":"芝田二丁目","koaza":"","lat":34.706976,"lng":135.495791,"zip":"5300012"},{"town":"西天満一丁目","koaza":"","lat":34.694216,"lng":135.507002,"zip":"5300047"},{"town":"豊崎四丁目","koaza":"","lat":34.712826,"lng":135.501399,"zip":"5310072"},{"town":"扇町二丁目","koaza":"","lat":34.704932,"lng":135.508165,"zip":"5300025"},{"town":"天神橋四丁目","koaza":"","lat":34.70461,"lng":135.511669,"zip":"5300041"},{"town":"扇町一丁目","koaza":"","lat":34.703566,"lng":135.509203,"zip":"5300025"},{"town":"堂島浜一丁目","koaza":"","lat":34.695272,"lng":135.498431,"zip":"5300004"},{"town":"天満四丁目","koaza":"","lat":34.693702,"lng":135.514174,"zip":"5300043"},{"town":"兎我野町","koaza":"","lat":34.700562,"lng":135.50396,"zip":"5300056"},{"town":"曾根崎新地一丁目","koaza":"","lat":34.697324,"lng":135.49866,"zip":"5300000"},{"town":"天神橋二丁目","koaza":"","lat":34.696499,"lng":135.512382,"zip":"5300041"},{"town":"大淀中二丁目","koaza":"","lat":34.704697,"lng":135.486577,"zip":"5310076"},{"town":"西天満五丁目","koaza":"","lat":34.698791,"lng":135.507656,"zip":"5300047"},{"town":"国分寺一丁目","koaza":"","lat":34.709604,"lng":135.517258,"zip":"5310064"},{"town":"本庄東一丁目","koaza":"","lat":34.711518,"lng":135.508714,"zip":"5310074"},{"town":"同心一丁目","koaza":"","lat":34.700909,"lng":135.51656,"zip":"5300035"},{"town":"長柄西一丁目","koaza":"","lat":34.713932,"lng":135.513068,"zip":"5310061"},{"town":"池田町","koaza":"","lat":34.707319,"lng":135.51405,"zip":"5300033"},{"town":"天満二丁目","koaza":"","lat":34.693617,"lng":135.516756,"zip":"5300043"},{"town":"天満橋二丁目","koaza":"","lat":34.705623,"lng":135.517045,"zip":"5300042"},{"town":"角田町","koaza":"","lat":34.703749,"lng":135.499277,"zip":"5300017"},{"town":"天神橋一丁目","koaza":"","lat":34.693518,"lng":135.512542,"zip":"5300041"},{"town":"本庄西二丁目","koaza":"","lat":34.713382,"lng":135.504735,"zip":"5310073"},{"town":"西天満四丁目","koaza":"","lat":34.696982,"lng":135.503863,"zip":"5300047"},{"town":"同心二丁目","koaza":"","lat":34.70268,"lng":135.51532,"zip":"5300035"},{"town":"梅田二丁目","koaza":"","lat":34.698571,"lng":135.49385,"zip":"5300001"},{"town":"堂山町","koaza":"","lat":34.703705,"lng":135.503204,"zip":"5300027"},{"town":"大淀南三丁目","koaza":"","lat":34.701012,"lng":135.482658,"zip":"5310075"},{"town":"天神橋三丁目","koaza":"","lat":34.700779,"lng":135.511911,"zip":"5300041"},{"town":"西天満二丁目","koaza":"","lat":34.695696,"lng":135.503439,"zip":"5300047"},{"town":"豊崎三丁目","koaza":"","lat":34.710215,"lng":135.498345,"zip":"5310072"},{"town":"曾根崎二丁目","koaza":"","lat":34.700105,"lng":135.500845,"zip":"5300000"},{"town":"大淀中三丁目","koaza":"","lat":34.704604,"lng":135.484366,"zip":"5310076"},{"town":"芝田一丁目","koaza":"","lat":34.706437,"lng":135.49771,"zip":"5300012"},{"town":"中之島二丁目","koaza":"","lat":34.693728,"lng":135.498496,"zip":"5300005"},{"town":"天神橋八丁目","koaza":"","lat":34.717447,"lng":135.511549,"zip":"5300041"},{"town":"中之島三丁目","koaza":"","lat":34.69276,"lng":135.493961,"zip":"5300005"},{"town":"西天満三丁目","koaza":"","lat":34.696006,"lng":135.507571,"zip":"5300047"},{"town":"中津一丁目","koaza":"","lat":34.711123,"lng":135.49576,"zip":"5310071"},{"town":"茶屋町","koaza":"","lat":34.706799,"lng":135.499545,"zip":"5300013"},{"town":"中之島四丁目","koaza":"","lat":34.691617,"lng":135.490988,"zip":"5300005"},{"town":"大淀中五丁目","koaza":"","lat":34.703537,"lng":135.479885,"zip":"5310076"},{"town":"本庄東二丁目","koaza":"","lat":34.713626,"lng":135.508591,"zip":"5310074"},{"town":"豊崎七丁目","koaza":"","lat":34.716173,"lng":135.499266,"zip":"5310072"},{"town":"中津六丁目","koaza":"","lat":34.709029,"lng":135.490083,"zip":"5310071"},{"town":"長柄東一丁目","koaza":"","lat":34.711419,"lng":135.518461,"zip":"5310063"},{"town":"中之島六丁目","koaza":"","lat":34.68709,"lng":135.484386,"zip":"5300005"},{"town":"長柄東三丁目","koaza":"","lat":34.718206,"lng":135.517552,"zip":"5310063"},{"town":"梅田一丁目","koaza":"","lat":34.700013,"lng":135.497728,"zip":"5300001"},{"town":"大淀中一丁目","koaza":"","lat":34.706045,"lng":135.489321,"zip":"5310076"},{"town":"長柄西二丁目","koaza":"","lat":34.717736,"lng":135.513174,"zip":"5310061"},{"town":"中津四丁目","koaza":"","lat":34.712887,"lng":135.489495,"zip":"5310071"},{"town":"中之島五丁目","koaza":"","lat":34.690282,"lng":135.487948,"zip":"5300005"},{"town":"本庄西三丁目","koaza":"","lat":34.716905,"lng":135.505006,"zip":"5310073"},{"town":"中之島一丁目","koaza":"","lat":34.692845,"lng":135.505432,"zip":"5300005"},{"town":"天満橋一丁目","koaza":"","lat":34.70007,"lng":135.519955,"zip":"5300042"},{"town":"梅田三丁目","koaza":"","lat":34.700837,"lng":135.493878,"zip":"5300001"},{"town":"中津七丁目","koaza":"","lat":34.711453,"lng":135.486073,"zip":"5310071"},{"town":"本庄東三丁目","koaza":"","lat":34.717381,"lng":135.508636,"zip":"5310074"},{"town":"長柄東二丁目","koaza":"","lat":34.714968,"lng":135.518686,"zip":"5310063"},{"town":"豊崎六丁目","koaza":"","lat":34.716488,"lng":135.501749,"zip":"5310072"},{"town":"天満一丁目","koaza":"","lat":34.69441,"lng":135.520073,"zip":"5300043"},{"town":"中津二丁目","koaza":"","lat":34.715565,"lng":135.496288,"zip":"5310071"},{"town":"大深町","koaza":"","lat":34.704761,"lng":135.494368,"zip":"5300011"},{"town":"大淀北一丁目","koaza":"","lat":34.708788,"lng":135.482656,"zip":"5310077"},{"town":"中津三丁目","koaza":"","lat":34.713599,"lng":135.492823,"zip":"5310071"},{"town":"大淀北二丁目","koaza":"","lat":34.706566,"lng":135.4784,"zip":"5310077"}]