[{"town":"蒲生三丁目","koaza":"","lat":34.698898,"lng":135.542642,"zip":"5360016"},{"town":"今福南一丁目","koaza":"","lat":34.69684,"lng":135.548216,"zip":"5360003"},{"town":"東中浜四丁目","koaza":"","lat":34.687205,"lng":135.55007,"zip":"5360023"},{"town":"東中浜七丁目","koaza":"","lat":34.687006,"lng":135.552705,"zip":"5360023"},{"town":"成育一丁目","koaza":"","lat":34.705373,"lng":135.5418,"zip":"5360007"},{"town":"新喜多二丁目","koaza":"","lat":34.697085,"lng":135.543509,"zip":"5360015"},{"town":"今福西五丁目","koaza":"","lat":34.704005,"lng":135.547984,"zip":"5360004"},{"town":"東中浜五丁目","koaza":"","lat":34.684968,"lng":135.549894,"zip":"5360023"},{"town":"東中浜八丁目","koaza":"","lat":34.684448,"lng":135.552725,"zip":"5360023"},{"town":"野江四丁目","koaza":"","lat":34.709863,"lng":135.540423,"zip":"5360006"},{"town":"東中浜六丁目","koaza":"","lat":34.682422,"lng":135.549551,"zip":"5360023"},{"town":"今福西四丁目","koaza":"","lat":34.701609,"lng":135.55196,"zip":"5360004"},{"town":"蒲生二丁目","koaza":"","lat":34.699891,"lng":135.540078,"zip":"5360016"},{"town":"蒲生一丁目","koaza":"","lat":34.698432,"lng":135.537448,"zip":"5360016"},{"town":"東中浜九丁目","koaza":"","lat":34.682163,"lng":135.552348,"zip":"5360023"},{"town":"永田一丁目","koaza":"","lat":34.688945,"lng":135.555892,"zip":"5360022"},{"town":"東中浜一丁目","koaza":"","lat":34.687311,"lng":135.5471,"zip":"5360023"},{"town":"東中浜三丁目","koaza":"","lat":34.68266,"lng":135.546491,"zip":"5360023"},{"town":"蒲生四丁目","koaza":"","lat":34.698697,"lng":135.545054,"zip":"5360016"},{"town":"永田四丁目","koaza":"","lat":34.680288,"lng":135.556527,"zip":"5360022"},{"town":"中央一丁目","koaza":"","lat":34.701038,"lng":135.543686,"zip":"5360005"},{"town":"中浜二丁目","koaza":"","lat":34.685196,"lng":135.543002,"zip":"5360024"},{"town":"成育二丁目","koaza":"","lat":34.709007,"lng":135.54557,"zip":"5360007"},{"town":"成育三丁目","koaza":"","lat":34.708248,"lng":135.542904,"zip":"5360007"},{"town":"東中浜二丁目","koaza":"","lat":34.685027,"lng":135.546859,"zip":"5360023"},{"town":"放出西一丁目","koaza":"","lat":34.693423,"lng":135.55361,"zip":"5360011"},{"town":"鴫野東一丁目","koaza":"","lat":34.694521,"lng":135.545027,"zip":"5360013"},{"town":"今福西三丁目","koaza":"","lat":34.701634,"lng":135.548109,"zip":"5360004"},{"town":"成育五丁目","koaza":"","lat":34.713594,"lng":135.54471,"zip":"5360007"},{"town":"中央三丁目","koaza":"","lat":34.703515,"lng":135.54519,"zip":"5360005"},{"town":"新喜多一丁目","koaza":"","lat":34.696734,"lng":135.537457,"zip":"5360015"},{"town":"中浜三丁目","koaza":"","lat":34.683827,"lng":135.542167,"zip":"5360024"},{"town":"今福西一丁目","koaza":"","lat":34.69896,"lng":135.547961,"zip":"5360004"},{"town":"中央二丁目","koaza":"","lat":34.703562,"lng":135.542652,"zip":"5360005"},{"town":"今福南三丁目","koaza":"","lat":34.69657,"lng":135.556691,"zip":"5360003"},{"town":"鴫野東二丁目","koaza":"","lat":34.693455,"lng":135.547647,"zip":"5360013"},{"town":"今福西二丁目","koaza":"","lat":34.699699,"lng":135.551786,"zip":"5360004"},{"town":"新喜多東二丁目","koaza":"","lat":34.692333,"lng":135.551734,"zip":"5360017"},{"town":"関目三丁目","koaza":"","lat":34.710742,"lng":135.548237,"zip":"5360008"},{"town":"諏訪一丁目","koaza":"","lat":34.686094,"lng":135.561839,"zip":"5360021"},{"town":"新喜多東一丁目","koaza":"","lat":34.694879,"lng":135.549431,"zip":"5360017"},{"town":"鴫野西一丁目","koaza":"","lat":34.694548,"lng":135.537136,"zip":"5360014"},{"town":"鴫野西四丁目","koaza":"","lat":34.691291,"lng":135.540828,"zip":"5360014"},{"town":"諏訪二丁目","koaza":"","lat":34.684723,"lng":135.561372,"zip":"5360021"},{"town":"今福東三丁目","koaza":"","lat":34.704377,"lng":135.557022,"zip":"5360002"},{"town":"永田三丁目","koaza":"","lat":34.68281,"lng":135.556125,"zip":"5360022"},{"town":"今福東二丁目","koaza":"","lat":34.702384,"lng":135.556955,"zip":"5360002"},{"town":"今福南二丁目","koaza":"","lat":34.697244,"lng":135.551892,"zip":"5360003"},{"town":"野江二丁目","koaza":"","lat":34.704156,"lng":135.538894,"zip":"5360006"},{"town":"今福東一丁目","koaza":"","lat":34.700536,"lng":135.557464,"zip":"5360002"},{"town":"関目四丁目","koaza":"","lat":34.710579,"lng":135.552183,"zip":"5360008"},{"town":"天王田","koaza":"","lat":34.689765,"lng":135.552272,"zip":"5360012"},{"town":"中浜一丁目","koaza":"","lat":34.687492,"lng":135.543379,"zip":"5360024"},{"town":"関目五丁目","koaza":"","lat":34.713668,"lng":135.548315,"zip":"5360008"},{"town":"成育四丁目","koaza":"","lat":34.711213,"lng":135.543521,"zip":"5360007"},{"town":"今福南四丁目","koaza":"","lat":34.698595,"lng":135.556768,"zip":"5360003"},{"town":"今福西六丁目","koaza":"","lat":34.703988,"lng":135.551862,"zip":"5360004"},{"town":"野江一丁目","koaza":"","lat":34.702031,"lng":135.53894,"zip":"5360006"},{"town":"鴫野西三丁目","koaza":"","lat":34.694804,"lng":135.541379,"zip":"5360014"},{"town":"放出西三丁目","koaza":"","lat":34.690462,"lng":135.556725,"zip":"5360011"},{"town":"諏訪四丁目","koaza":"","lat":34.679781,"lng":135.560758,"zip":"5360021"},{"town":"諏訪三丁目","koaza":"","lat":34.682508,"lng":135.561293,"zip":"5360021"},{"town":"関目六丁目","koaza":"","lat":34.713474,"lng":135.552269,"zip":"5360008"},{"town":"野江三丁目","koaza":"","lat":34.706928,"lng":135.53888,"zip":"5360006"},{"town":"鴫野西二丁目","koaza":"","lat":34.691337,"lng":135.537673,"zip":"5360014"},{"town":"鴫野東三丁目","koaza":"","lat":34.690243,"lng":135.548041,"zip":"5360013"},{"town":"関目一丁目","koaza":"","lat":34.707058,"lng":135.548151,"zip":"5360008"},{"town":"関目二丁目","koaza":"","lat":34.707311,"lng":135.552067,"zip":"5360008"},{"town":"鴫野西五丁目","koaza":"","lat":34.691181,"lng":135.544055,"zip":"5360014"},{"town":"古市二丁目","koaza":"","lat":34.710444,"lng":135.557271,"zip":"5360001"},{"town":"永田二丁目","koaza":"","lat":34.685978,"lng":135.556444,"zip":"5360022"},{"town":"放出西二丁目","koaza":"","lat":34.693839,"lng":135.556983,"zip":"5360011"},{"town":"古市三丁目","koaza":"","lat":34.713803,"lng":135.557087,"zip":"5360001"},{"town":"森之宮二丁目","koaza":"","lat":34.685442,"lng":135.539253,"zip":"5360025"},{"town":"古市一丁目","koaza":"","lat":34.70716,"lng":135.557133,"zip":"5360001"},{"town":"森之宮一丁目","koaza":"","lat":34.685682,"lng":135.536209,"zip":"5360025"}]