[{"town":"東中島六丁目","koaza":"","lat":34.733444,"lng":135.511339,"zip":"5330033"},{"town":"下新庄一丁目","koaza":"","lat":34.743554,"lng":135.518693,"zip":"5330021"},{"town":"菅原五丁目","koaza":"","lat":34.740364,"lng":135.51914,"zip":"5330022"},{"town":"北江口三丁目","koaza":"","lat":34.760369,"lng":135.545978,"zip":"5330002"},{"town":"大隅二丁目","koaza":"","lat":34.750391,"lng":135.545326,"zip":"5330015"},{"town":"東淡路三丁目","koaza":"","lat":34.735753,"lng":135.520111,"zip":"5330023"},{"town":"下新庄二丁目","koaza":"","lat":34.743397,"lng":135.520694,"zip":"5330021"},{"town":"小松五丁目","koaza":"","lat":34.753901,"lng":135.547212,"zip":"5330004"},{"town":"大道南三丁目","koaza":"","lat":34.743507,"lng":135.54693,"zip":"5330012"},{"town":"瑞光三丁目","koaza":"","lat":34.751217,"lng":135.542592,"zip":"5330005"},{"town":"東淡路五丁目","koaza":"","lat":34.737545,"lng":135.521332,"zip":"5330023"},{"town":"瑞光五丁目","koaza":"","lat":34.752953,"lng":135.551733,"zip":"5330005"},{"town":"大隅一丁目","koaza":"","lat":34.748378,"lng":135.540204,"zip":"5330015"},{"town":"豊里四丁目","koaza":"","lat":34.739431,"lng":135.540707,"zip":"5330013"},{"town":"菅原七丁目","koaza":"","lat":34.741375,"lng":135.523627,"zip":"5330022"},{"town":"淡路一丁目","koaza":"","lat":34.736508,"lng":135.509095,"zip":"5330032"},{"town":"菅原四丁目","koaza":"","lat":34.740493,"lng":135.528641,"zip":"5330022"},{"town":"淡路二丁目","koaza":"","lat":34.736565,"lng":135.512116,"zip":"5330032"},{"town":"豊新三丁目","koaza":"","lat":34.744842,"lng":135.532102,"zip":"5330014"},{"town":"西淡路二丁目","koaza":"","lat":34.736895,"lng":135.50699,"zip":"5330031"},{"town":"下新庄六丁目","koaza":"","lat":34.747282,"lng":135.525725,"zip":"5330021"},{"town":"菅原六丁目","koaza":"","lat":34.739816,"lng":135.521899,"zip":"5330022"},{"town":"瑞光一丁目","koaza":"","lat":34.748686,"lng":135.535405,"zip":"5330005"},{"town":"瑞光二丁目","koaza":"","lat":34.750041,"lng":135.539173,"zip":"5330005"},{"town":"瑞光四丁目","koaza":"","lat":34.752449,"lng":135.547018,"zip":"5330005"},{"town":"大桐一丁目","koaza":"","lat":34.745098,"lng":135.54545,"zip":"5330011"},{"town":"菅原三丁目","koaza":"","lat":34.739438,"lng":135.525761,"zip":"5330022"},{"town":"東中島四丁目","koaza":"","lat":34.732862,"lng":135.505922,"zip":"5330033"},{"town":"上新庄一丁目","koaza":"","lat":34.745156,"lng":135.52897,"zip":"5330006"},{"town":"北江口二丁目","koaza":"","lat":34.759077,"lng":135.545163,"zip":"5330002"},{"town":"東中島五丁目","koaza":"","lat":34.733226,"lng":135.508977,"zip":"5330033"},{"town":"東中島三丁目","koaza":"","lat":34.730424,"lng":135.506527,"zip":"5330033"},{"town":"東淡路四丁目","koaza":"","lat":34.738462,"lng":135.518584,"zip":"5330023"},{"town":"東中島二丁目","koaza":"","lat":34.727926,"lng":135.505166,"zip":"5330033"},{"town":"東淡路二丁目","koaza":"","lat":34.736098,"lng":135.515869,"zip":"5330023"},{"town":"豊新一丁目","koaza":"","lat":34.742015,"lng":135.532822,"zip":"5330014"},{"town":"淡路五丁目","koaza":"","lat":34.742651,"lng":135.516225,"zip":"5330032"},{"town":"小松一丁目","koaza":"","lat":34.752086,"lng":135.534622,"zip":"5330004"},{"town":"北江口四丁目","koaza":"","lat":34.759031,"lng":135.548779,"zip":"5330002"},{"town":"南江口二丁目","koaza":"","lat":34.755732,"lng":135.548412,"zip":"5330003"},{"town":"大桐二丁目","koaza":"","lat":34.747137,"lng":135.543223,"zip":"5330011"},{"town":"豊新五丁目","koaza":"","lat":34.746663,"lng":135.53648,"zip":"5330014"},{"town":"豊新四丁目","koaza":"","lat":34.744611,"lng":135.535675,"zip":"5330014"},{"town":"淡路四丁目","koaza":"","lat":34.739946,"lng":135.515571,"zip":"5330032"},{"town":"下新庄三丁目","koaza":"","lat":34.744248,"lng":135.523985,"zip":"5330021"},{"town":"西淡路四丁目","koaza":"","lat":34.742088,"lng":135.507907,"zip":"5330031"},{"town":"西淡路五丁目","koaza":"","lat":34.742622,"lng":135.512139,"zip":"5330031"},{"town":"淡路三丁目","koaza":"","lat":34.738582,"lng":135.512087,"zip":"5330032"},{"town":"大桐三丁目","koaza":"","lat":34.748213,"lng":135.546113,"zip":"5330011"},{"town":"東中島一丁目","koaza":"","lat":34.730218,"lng":135.502842,"zip":"5330033"},{"town":"相川二丁目","koaza":"","lat":34.757938,"lng":135.535437,"zip":"5330007"},{"town":"豊新二丁目","koaza":"","lat":34.742652,"lng":135.528669,"zip":"5330014"},{"town":"小松四丁目","koaza":"","lat":34.753512,"lng":135.542639,"zip":"5330004"},{"town":"北江口一丁目","koaza":"","lat":34.758993,"lng":135.541483,"zip":"5330002"},{"town":"小松二丁目","koaza":"","lat":34.753285,"lng":135.536704,"zip":"5330004"},{"town":"井高野二丁目","koaza":"","lat":34.763201,"lng":135.549063,"zip":"5330001"},{"town":"西淡路三丁目","koaza":"","lat":34.739619,"lng":135.508805,"zip":"5330031"},{"town":"西淡路一丁目","koaza":"","lat":34.73711,"lng":135.504558,"zip":"5330031"},{"town":"南江口一丁目","koaza":"","lat":34.755768,"lng":135.543111,"zip":"5330003"},{"town":"小松三丁目","koaza":"","lat":34.753777,"lng":135.539064,"zip":"5330004"},{"town":"相川三丁目","koaza":"","lat":34.758983,"lng":135.538245,"zip":"5330007"},{"town":"井高野一丁目","koaza":"","lat":34.76255,"lng":135.543099,"zip":"5330001"},{"town":"井高野四丁目","koaza":"","lat":34.766098,"lng":135.549839,"zip":"5330001"},{"town":"上新庄三丁目","koaza":"","lat":34.751875,"lng":135.532283,"zip":"5330006"},{"town":"下新庄五丁目","koaza":"","lat":34.747621,"lng":135.521621,"zip":"5330021"},{"town":"相川一丁目","koaza":"","lat":34.756896,"lng":135.532179,"zip":"5330007"},{"town":"豊里六丁目","koaza":"","lat":34.741628,"lng":135.538829,"zip":"5330013"},{"town":"上新庄二丁目","koaza":"","lat":34.748114,"lng":135.530648,"zip":"5330006"},{"town":"豊里五丁目","koaza":"","lat":34.740389,"lng":135.544349,"zip":"5330013"},{"town":"豊里七丁目","koaza":"","lat":34.744061,"lng":135.541564,"zip":"5330013"},{"town":"東淡路一丁目","koaza":"","lat":34.734585,"lng":135.521291,"zip":"5330023"},{"town":"下新庄四丁目","koaza":"","lat":34.74741,"lng":135.517554,"zip":"5330021"},{"town":"大桐五丁目","koaza":"","lat":34.750369,"lng":135.552434,"zip":"5330011"},{"town":"菅原一丁目","koaza":"","lat":34.735809,"lng":135.527162,"zip":"5330022"},{"town":"井高野三丁目","koaza":"","lat":34.765192,"lng":135.544732,"zip":"5330001"},{"town":"豊里一丁目","koaza":"","lat":34.736921,"lng":135.535973,"zip":"5330013"},{"town":"西淡路六丁目","koaza":"","lat":34.746388,"lng":135.51345,"zip":"5330031"},{"town":"大桐四丁目","koaza":"","lat":34.74791,"lng":135.552092,"zip":"5330011"},{"town":"大道南二丁目","koaza":"","lat":34.743848,"lng":135.552117,"zip":"5330012"},{"town":"柴島三丁目","koaza":"","lat":34.731437,"lng":135.516964,"zip":"5330024"},{"town":"豊里三丁目","koaza":"","lat":34.737605,"lng":135.548232,"zip":"5330013"},{"town":"大道南一丁目","koaza":"","lat":34.740405,"lng":135.551308,"zip":"5330012"},{"town":"菅原二丁目","koaza":"","lat":34.736365,"lng":135.532098,"zip":"5330022"},{"town":"豊里二丁目","koaza":"","lat":34.737832,"lng":135.538482,"zip":"5330013"},{"town":"南江口三丁目","koaza":"","lat":34.754137,"lng":135.555275,"zip":"5330003"},{"town":"柴島二丁目","koaza":"","lat":34.725172,"lng":135.513471,"zip":"5330024"},{"town":"柴島一丁目","koaza":"","lat":34.727286,"lng":135.50807,"zip":"5330024"}]