[{"town":"駒川二丁目","koaza":"","lat":34.629301,"lng":135.530623,"zip":"5460043"},{"town":"田辺六丁目","koaza":"","lat":34.62533,"lng":135.529158,"zip":"5460031"},{"town":"照ケ丘矢田四丁目","koaza":"","lat":34.604775,"lng":135.538078,"zip":"5460021"},{"town":"杭全三丁目","koaza":"","lat":34.635789,"lng":135.536339,"zip":"5460002"},{"town":"針中野二丁目","koaza":"","lat":34.620005,"lng":135.535894,"zip":"5460011"},{"town":"針中野三丁目","koaza":"","lat":34.617626,"lng":135.534326,"zip":"5460011"},{"town":"中野二丁目","koaza":"","lat":34.622879,"lng":135.539565,"zip":"5460012"},{"town":"針中野四丁目","koaza":"","lat":34.617707,"lng":135.536748,"zip":"5460011"},{"town":"北田辺五丁目","koaza":"","lat":34.629982,"lng":135.524783,"zip":"5460044"},{"town":"南田辺二丁目","koaza":"","lat":34.619626,"lng":135.521521,"zip":"5460033"},{"town":"田辺五丁目","koaza":"","lat":34.627576,"lng":135.528324,"zip":"5460031"},{"town":"今川二丁目","koaza":"","lat":34.630424,"lng":135.539572,"zip":"5460003"},{"town":"湯里三丁目","koaza":"","lat":34.615121,"lng":135.539492,"zip":"5460013"},{"town":"北田辺一丁目","koaza":"","lat":34.636234,"lng":135.524917,"zip":"5460044"},{"town":"駒川四丁目","koaza":"","lat":34.620268,"lng":135.531494,"zip":"5460043"},{"town":"中野三丁目","koaza":"","lat":34.619282,"lng":135.537747,"zip":"5460012"},{"town":"杭全六丁目","koaza":"","lat":34.63548,"lng":135.539679,"zip":"5460002"},{"town":"山坂三丁目","koaza":"","lat":34.621976,"lng":135.520824,"zip":"5460035"},{"town":"北田辺二丁目","koaza":"","lat":34.636867,"lng":135.526465,"zip":"5460044"},{"town":"田辺四丁目","koaza":"","lat":34.623826,"lng":135.527808,"zip":"5460031"},{"town":"南田辺四丁目","koaza":"","lat":34.616718,"lng":135.521859,"zip":"5460033"},{"town":"今川一丁目","koaza":"","lat":34.630809,"lng":135.536138,"zip":"5460003"},{"town":"田辺一丁目","koaza":"","lat":34.627662,"lng":135.524594,"zip":"5460031"},{"town":"杭全二丁目","koaza":"","lat":34.637267,"lng":135.536097,"zip":"5460002"},{"town":"東田辺一丁目","koaza":"","lat":34.622207,"lng":135.528081,"zip":"5460032"},{"town":"住道矢田二丁目","koaza":"","lat":34.603041,"lng":135.538237,"zip":"5460022"},{"town":"田辺二丁目","koaza":"","lat":34.626091,"lng":135.526638,"zip":"5460031"},{"town":"駒川五丁目","koaza":"","lat":34.617749,"lng":135.531869,"zip":"5460043"},{"town":"今川三丁目","koaza":"","lat":34.630361,"lng":135.542236,"zip":"5460003"},{"town":"北田辺三丁目","koaza":"","lat":34.633203,"lng":135.524872,"zip":"5460044"},{"town":"今川五丁目","koaza":"","lat":34.627956,"lng":135.53949,"zip":"5460003"},{"town":"中野一丁目","koaza":"","lat":34.622717,"lng":135.536936,"zip":"5460012"},{"town":"針中野一丁目","koaza":"","lat":34.620014,"lng":135.533839,"zip":"5460011"},{"town":"杭全五丁目","koaza":"","lat":34.632572,"lng":135.536514,"zip":"5460002"},{"town":"杭全四丁目","koaza":"","lat":34.634474,"lng":135.536314,"zip":"5460002"},{"town":"山坂二丁目","koaza":"","lat":34.6244,"lng":135.521746,"zip":"5460035"},{"town":"桑津四丁目","koaza":"","lat":34.638114,"lng":135.533544,"zip":"5460041"},{"town":"南田辺一丁目","koaza":"","lat":34.622091,"lng":135.524172,"zip":"5460033"},{"town":"山坂四丁目","koaza":"","lat":34.619635,"lng":135.519366,"zip":"5460035"},{"town":"杭全七丁目","koaza":"","lat":34.63361,"lng":135.539844,"zip":"5460002"},{"town":"住道矢田三丁目","koaza":"","lat":34.599782,"lng":135.534625,"zip":"5460022"},{"town":"湯里四丁目","koaza":"","lat":34.611119,"lng":135.534717,"zip":"5460013"},{"town":"桑津二丁目","koaza":"","lat":34.63926,"lng":135.52781,"zip":"5460041"},{"town":"住道矢田七丁目","koaza":"","lat":34.604878,"lng":135.541502,"zip":"5460022"},{"town":"今川八丁目","koaza":"","lat":34.625202,"lng":135.539543,"zip":"5460003"},{"town":"住道矢田四丁目","koaza":"","lat":34.60059,"lng":135.538435,"zip":"5460022"},{"town":"住道矢田八丁目","koaza":"","lat":34.603093,"lng":135.541675,"zip":"5460022"},{"town":"矢田四丁目","koaza":"","lat":34.60403,"lng":135.531127,"zip":"5460023"},{"town":"湯里一丁目","koaza":"","lat":34.614708,"lng":135.534563,"zip":"5460013"},{"town":"照ケ丘矢田三丁目","koaza":"","lat":34.604703,"lng":135.534787,"zip":"5460021"},{"town":"今川七丁目","koaza":"","lat":34.62503,"lng":135.536709,"zip":"5460003"},{"town":"今川六丁目","koaza":"","lat":34.627889,"lng":135.542147,"zip":"5460003"},{"town":"照ケ丘矢田一丁目","koaza":"","lat":34.607521,"lng":135.534415,"zip":"5460021"},{"town":"今林四丁目","koaza":"","lat":34.636227,"lng":135.545747,"zip":"5460001"},{"town":"杭全八丁目","koaza":"","lat":34.633249,"lng":135.542621,"zip":"5460002"},{"town":"矢田三丁目","koaza":"","lat":34.603965,"lng":135.528323,"zip":"5460023"},{"town":"田辺三丁目","koaza":"","lat":34.624374,"lng":135.524309,"zip":"5460031"},{"town":"山坂一丁目","koaza":"","lat":34.62814,"lng":135.523012,"zip":"5460035"},{"town":"西今川四丁目","koaza":"","lat":34.622794,"lng":135.533882,"zip":"5460042"},{"town":"住道矢田六丁目","koaza":"","lat":34.606612,"lng":135.541334,"zip":"5460022"},{"town":"湯里五丁目","koaza":"","lat":34.611061,"lng":135.53718,"zip":"5460013"},{"town":"西今川二丁目","koaza":"","lat":34.628857,"lng":135.532482,"zip":"5460042"},{"town":"西今川三丁目","koaza":"","lat":34.625455,"lng":135.533139,"zip":"5460042"},{"town":"杭全一丁目","koaza":"","lat":34.639018,"lng":135.536894,"zip":"5460002"},{"town":"湯里六丁目","koaza":"","lat":34.611433,"lng":135.539718,"zip":"5460013"},{"town":"住道矢田五丁目","koaza":"","lat":34.608479,"lng":135.541188,"zip":"5460022"},{"town":"南田辺三丁目","koaza":"","lat":34.61979,"lng":135.524423,"zip":"5460033"},{"town":"東田辺三丁目","koaza":"","lat":34.61753,"lng":135.528658,"zip":"5460032"},{"town":"桑津五丁目","koaza":"","lat":34.635963,"lng":135.530932,"zip":"5460041"},{"town":"今林一丁目","koaza":"","lat":34.640327,"lng":135.541033,"zip":"5460001"},{"town":"湯里二丁目","koaza":"","lat":34.614671,"lng":135.537115,"zip":"5460013"},{"town":"東田辺二丁目","koaza":"","lat":34.620074,"lng":135.528348,"zip":"5460032"},{"town":"住道矢田九丁目","koaza":"","lat":34.600774,"lng":135.54188,"zip":"5460022"},{"town":"矢田六丁目","koaza":"","lat":34.600823,"lng":135.531118,"zip":"5460023"},{"town":"鷹合二丁目","koaza":"","lat":34.614713,"lng":135.531912,"zip":"5460014"},{"town":"駒川一丁目","koaza":"","lat":34.632794,"lng":135.530067,"zip":"5460043"},{"town":"照ケ丘矢田二丁目","koaza":"","lat":34.607528,"lng":135.537288,"zip":"5460021"},{"town":"山坂五丁目","koaza":"","lat":34.616842,"lng":135.518697,"zip":"5460035"},{"town":"鷹合四丁目","koaza":"","lat":34.611114,"lng":135.532055,"zip":"5460014"},{"town":"矢田一丁目","koaza":"","lat":34.607427,"lng":135.528512,"zip":"5460023"},{"town":"駒川三丁目","koaza":"","lat":34.624515,"lng":135.530865,"zip":"5460043"},{"town":"北田辺四丁目","koaza":"","lat":34.63302,"lng":135.52711,"zip":"5460044"},{"town":"今林二丁目","koaza":"","lat":34.638315,"lng":135.542863,"zip":"5460001"},{"town":"住道矢田一丁目","koaza":"","lat":34.602235,"lng":135.534625,"zip":"5460022"},{"town":"南田辺五丁目","koaza":"","lat":34.616938,"lng":135.524787,"zip":"5460033"},{"town":"矢田二丁目","koaza":"","lat":34.607245,"lng":135.531557,"zip":"5460023"},{"town":"矢田七丁目","koaza":"","lat":34.595515,"lng":135.529095,"zip":"5460023"},{"town":"公園南矢田三丁目","koaza":"","lat":34.600788,"lng":135.525061,"zip":"5460024"},{"town":"鷹合一丁目","koaza":"","lat":34.614591,"lng":135.528651,"zip":"5460014"},{"town":"北田辺六丁目","koaza":"","lat":34.629747,"lng":135.527777,"zip":"5460044"},{"town":"西今川一丁目","koaza":"","lat":34.63261,"lng":135.532995,"zip":"5460042"},{"town":"鷹合三丁目","koaza":"","lat":34.611096,"lng":135.528737,"zip":"5460014"},{"town":"中野四丁目","koaza":"","lat":34.61848,"lng":135.539616,"zip":"5460012"},{"town":"公園南矢田二丁目","koaza":"","lat":34.603909,"lng":135.524938,"zip":"5460024"},{"town":"桑津三丁目","koaza":"","lat":34.638612,"lng":135.530491,"zip":"5460041"},{"town":"今林三丁目","koaza":"","lat":34.636198,"lng":135.542177,"zip":"5460001"},{"town":"桑津一丁目","koaza":"","lat":34.641849,"lng":135.530458,"zip":"5460041"},{"town":"公園南矢田一丁目","koaza":"","lat":34.607467,"lng":135.525027,"zip":"5460024"},{"town":"矢田五丁目","koaza":"","lat":34.59957,"lng":135.528923,"zip":"5460023"},{"town":"今川四丁目","koaza":"","lat":34.628377,"lng":135.536135,"zip":"5460003"},{"town":"公園南矢田四丁目","koaza":"","lat":34.59723,"lng":135.524965,"zip":"5460024"},{"town":"長居公園","koaza":"","lat":34.612822,"lng":135.520611,"zip":"5460034"}]