[{"town":"大字池尻","koaza":"","lat":34.498523,"lng":135.551463,"zip":"5890000"},{"town":"東野中一丁目","koaza":"","lat":34.517575,"lng":135.55843,"zip":"5890002"},{"town":"池尻自由丘三丁目","koaza":"","lat":34.511681,"lng":135.547011,"zip":"5890008"},{"town":"狭山四丁目","koaza":"","lat":34.505931,"lng":135.556176,"zip":"5890005"},{"town":"東野中五丁目","koaza":"","lat":34.524361,"lng":135.560798,"zip":"5890002"},{"town":"狭山三丁目","koaza":"","lat":34.506563,"lng":135.55407,"zip":"5890005"},{"town":"東野西三丁目","koaza":"","lat":34.524132,"lng":135.556714,"zip":"5890001"},{"town":"池尻中二丁目","koaza":"","lat":34.51036,"lng":135.551896,"zip":"5890007"},{"town":"東野中二丁目","koaza":"","lat":34.519303,"lng":135.558277,"zip":"5890002"},{"town":"東野西二丁目","koaza":"","lat":34.523867,"lng":135.554982,"zip":"5890001"},{"town":"茱萸木二丁目","koaza":"","lat":34.491878,"lng":135.550673,"zip":"5890013"},{"town":"岩室一丁目","koaza":"","lat":34.499565,"lng":135.541787,"zip":"5890032"},{"town":"池尻自由丘一丁目","koaza":"","lat":34.51659,"lng":135.546499,"zip":"5890008"},{"town":"東野西四丁目","koaza":"","lat":34.527722,"lng":135.556844,"zip":"5890001"},{"town":"半田四丁目","koaza":"","lat":34.496388,"lng":135.55114,"zip":"5890011"},{"town":"茱萸木五丁目","koaza":"","lat":34.488008,"lng":135.550541,"zip":"5890013"},{"town":"東池尻四丁目","koaza":"","lat":34.514914,"lng":135.5552,"zip":"5890004"},{"town":"池尻自由丘二丁目","koaza":"","lat":34.513759,"lng":135.545486,"zip":"5890008"},{"town":"東野中四丁目","koaza":"","lat":34.524748,"lng":135.558898,"zip":"5890002"},{"town":"狭山五丁目","koaza":"","lat":34.504592,"lng":135.558501,"zip":"5890005"},{"town":"今熊四丁目","koaza":"","lat":34.488335,"lng":135.534713,"zip":"5890021"},{"town":"今熊三丁目","koaza":"","lat":34.491051,"lng":135.539047,"zip":"5890021"},{"town":"東野西一丁目","koaza":"","lat":34.51997,"lng":135.554888,"zip":"5890001"},{"town":"狭山一丁目","koaza":"","lat":34.502448,"lng":135.556563,"zip":"5890005"},{"town":"西山台六丁目","koaza":"","lat":34.488527,"lng":135.536742,"zip":"5890022"},{"town":"半田六丁目","koaza":"","lat":34.499579,"lng":135.556178,"zip":"5890011"},{"town":"東野東一丁目","koaza":"","lat":34.521658,"lng":135.561107,"zip":"5890003"},{"town":"東野中三丁目","koaza":"","lat":34.521414,"lng":135.558807,"zip":"5890002"},{"town":"金剛一丁目","koaza":"","lat":34.492819,"lng":135.561943,"zip":"5890006"},{"town":"西山台五丁目","koaza":"","lat":34.486976,"lng":135.537514,"zip":"5890022"},{"town":"東池尻三丁目","koaza":"","lat":34.509375,"lng":135.553627,"zip":"5890004"},{"town":"大野台五丁目","koaza":"","lat":34.480194,"lng":135.54002,"zip":"5890023"},{"town":"池之原二丁目","koaza":"","lat":34.502701,"lng":135.546934,"zip":"5890031"},{"town":"池尻北二丁目","koaza":"","lat":34.513411,"lng":135.552999,"zip":"5890009"},{"town":"東野東二丁目","koaza":"","lat":34.519098,"lng":135.562529,"zip":"5890003"},{"town":"岩室二丁目","koaza":"","lat":34.503381,"lng":135.538989,"zip":"5890032"},{"town":"岩室三丁目","koaza":"","lat":34.501576,"lng":135.541975,"zip":"5890032"},{"town":"山本中","koaza":"","lat":34.50999,"lng":135.535838,"zip":"5890034"},{"town":"今熊一丁目","koaza":"","lat":34.497091,"lng":135.543461,"zip":"5890021"},{"town":"半田三丁目","koaza":"","lat":34.493301,"lng":135.553316,"zip":"5890011"},{"town":"茱萸木三丁目","koaza":"","lat":34.496063,"lng":135.546477,"zip":"5890013"},{"town":"東池尻一丁目","koaza":"","lat":34.508963,"lng":135.559314,"zip":"5890004"},{"town":"今熊七丁目","koaza":"","lat":34.496184,"lng":135.54067,"zip":"5890021"},{"town":"今熊五丁目","koaza":"","lat":34.492274,"lng":135.536816,"zip":"5890021"},{"town":"茱萸木一丁目","koaza":"","lat":34.496758,"lng":135.54874,"zip":"5890013"},{"town":"山本北","koaza":"","lat":34.512862,"lng":135.535048,"zip":"5890035"},{"town":"東茱萸木三丁目","koaza":"","lat":34.485204,"lng":135.556857,"zip":"5890012"},{"town":"狭山二丁目","koaza":"","lat":34.502647,"lng":135.553604,"zip":"5890005"},{"town":"金剛二丁目","koaza":"","lat":34.498707,"lng":135.559589,"zip":"5890006"},{"town":"今熊六丁目","koaza":"","lat":34.493489,"lng":135.541027,"zip":"5890021"},{"town":"大野台七丁目","koaza":"","lat":34.48069,"lng":135.535956,"zip":"5890023"},{"town":"半田二丁目","koaza":"","lat":34.491868,"lng":135.558153,"zip":"5890011"},{"town":"大野台六丁目","koaza":"","lat":34.481212,"lng":135.538053,"zip":"5890023"},{"town":"東茱萸木四丁目","koaza":"","lat":34.481551,"lng":135.558129,"zip":"5890012"},{"town":"西山台四丁目","koaza":"","lat":34.485818,"lng":135.539537,"zip":"5890022"},{"town":"東茱萸木二丁目","koaza":"","lat":34.486356,"lng":135.555036,"zip":"5890012"},{"town":"池尻中三丁目","koaza":"","lat":34.508682,"lng":135.549486,"zip":"5890007"},{"town":"今熊二丁目","koaza":"","lat":34.492019,"lng":135.544868,"zip":"5890021"},{"town":"山本南","koaza":"","lat":34.506787,"lng":135.537093,"zip":"5890033"},{"town":"西山台三丁目","koaza":"","lat":34.486672,"lng":135.542129,"zip":"5890022"},{"town":"西山台一丁目","koaza":"","lat":34.488512,"lng":135.544433,"zip":"5890022"},{"town":"東池尻二丁目","koaza":"","lat":34.509411,"lng":135.556722,"zip":"5890004"},{"town":"池尻中一丁目","koaza":"","lat":34.513778,"lng":135.548689,"zip":"5890007"},{"town":"半田一丁目","koaza":"","lat":34.495982,"lng":135.557657,"zip":"5890011"},{"town":"池之原四丁目","koaza":"","lat":34.506541,"lng":135.542496,"zip":"5890031"},{"town":"茱萸木四丁目","koaza":"","lat":34.490724,"lng":135.548863,"zip":"5890013"},{"town":"西山台二丁目","koaza":"","lat":34.486389,"lng":135.548146,"zip":"5890022"},{"town":"池尻北一丁目","koaza":"","lat":34.515966,"lng":135.5499,"zip":"5890009"},{"town":"池之原三丁目","koaza":"","lat":34.501762,"lng":135.545101,"zip":"5890031"},{"town":"茱萸木八丁目","koaza":"","lat":34.476597,"lng":135.553122,"zip":"5890013"},{"town":"茱萸木六丁目","koaza":"","lat":34.483746,"lng":135.552683,"zip":"5890013"},{"town":"大野台二丁目","koaza":"","lat":34.48173,"lng":135.543852,"zip":"5890023"},{"town":"山本東","koaza":"","lat":34.510079,"lng":135.540331,"zip":"5890036"},{"town":"茱萸木七丁目","koaza":"","lat":34.480363,"lng":135.554555,"zip":"5890013"},{"town":"東池尻五丁目","koaza":"","lat":34.514581,"lng":135.556432,"zip":"5890004"},{"town":"大野台四丁目","koaza":"","lat":34.476168,"lng":135.543814,"zip":"5890023"},{"town":"半田五丁目","koaza":"","lat":34.495639,"lng":135.554469,"zip":"5890011"},{"town":"東茱萸木一丁目","koaza":"","lat":34.489384,"lng":135.554249,"zip":"5890012"},{"town":"池之原一丁目","koaza":"","lat":34.508796,"lng":135.545242,"zip":"5890031"},{"town":"大野台三丁目","koaza":"","lat":34.478615,"lng":135.544394,"zip":"5890023"},{"town":"大野台一丁目","koaza":"","lat":34.481598,"lng":135.548256,"zip":"5890023"},{"town":"東池尻六丁目","koaza":"","lat":34.515148,"lng":135.562542,"zip":"5890004"},{"town":"大野東","koaza":"","lat":34.474227,"lng":135.549397,"zip":"5890014"},{"town":"大野西","koaza":"","lat":34.471484,"lng":135.539904,"zip":"5890016"},{"town":"大野中","koaza":"","lat":34.471295,"lng":135.544791,"zip":"5890015"},{"town":"大字岩室","koaza":"","lat":34.502697,"lng":135.550228,"zip":"5890000"}]