[{"town":"北開一丁目","koaza":"","lat":34.653268,"lng":135.491262,"zip":"5570021"},{"town":"太子二丁目","koaza":"","lat":34.645926,"lng":135.503337,"zip":"5570002"},{"town":"中開一丁目","koaza":"","lat":34.651457,"lng":135.494233,"zip":"5570022"},{"town":"天下茶屋北一丁目","koaza":"","lat":34.643844,"lng":135.502534,"zip":"5570003"},{"town":"出城二丁目","koaza":"","lat":34.65015,"lng":135.491723,"zip":"5570024"},{"town":"北開二丁目","koaza":"","lat":34.65308,"lng":135.488995,"zip":"5570021"},{"town":"中開二丁目","koaza":"","lat":34.652282,"lng":135.49192,"zip":"5570022"},{"town":"南開一丁目","koaza":"","lat":34.651191,"lng":135.491789,"zip":"5570023"},{"town":"天神ノ森二丁目","koaza":"","lat":34.62879,"lng":135.497847,"zip":"5570013"},{"town":"天下茶屋北二丁目","koaza":"","lat":34.643842,"lng":135.500985,"zip":"5570003"},{"town":"梅南二丁目","koaza":"","lat":34.642812,"lng":135.491386,"zip":"5570033"},{"town":"中開三丁目","koaza":"","lat":34.652345,"lng":135.488062,"zip":"5570022"},{"town":"旭二丁目","koaza":"","lat":34.644389,"lng":135.491496,"zip":"5570032"},{"town":"聖天下二丁目","koaza":"","lat":34.635558,"lng":135.50124,"zip":"5570012"},{"town":"出城三丁目","koaza":"","lat":34.650069,"lng":135.487938,"zip":"5570024"},{"town":"南開二丁目","koaza":"","lat":34.65104,"lng":135.488,"zip":"5570023"},{"town":"花園南二丁目","koaza":"","lat":34.638691,"lng":135.496226,"zip":"5570015"},{"town":"松二丁目","koaza":"","lat":34.640996,"lng":135.491353,"zip":"5570034"},{"town":"橘二丁目","koaza":"","lat":34.638941,"lng":135.491324,"zip":"5570051"},{"town":"橘一丁目","koaza":"","lat":34.63891,"lng":135.493845,"zip":"5570051"},{"town":"潮路二丁目","koaza":"","lat":34.636187,"lng":135.491747,"zip":"5570052"},{"town":"萩之茶屋三丁目","koaza":"","lat":34.644329,"lng":135.499653,"zip":"5570004"},{"town":"旭一丁目","koaza":"","lat":34.644366,"lng":135.49468,"zip":"5570032"},{"town":"梅南一丁目","koaza":"","lat":34.642777,"lng":135.494442,"zip":"5570033"},{"town":"萩之茶屋二丁目","koaza":"","lat":34.646286,"lng":135.500705,"zip":"5570004"},{"town":"山王二丁目","koaza":"","lat":34.645422,"lng":135.505741,"zip":"5570001"},{"town":"岸里東二丁目","koaza":"","lat":34.629749,"lng":135.496845,"zip":"5570042"},{"town":"潮路一丁目","koaza":"","lat":34.636097,"lng":135.493424,"zip":"5570052"},{"town":"岸里二丁目","koaza":"","lat":34.632412,"lng":135.494614,"zip":"5570041"},{"town":"出城一丁目","koaza":"","lat":34.650443,"lng":135.495438,"zip":"5570024"},{"town":"長橋二丁目","koaza":"","lat":34.648349,"lng":135.491662,"zip":"5570025"},{"town":"松一丁目","koaza":"","lat":34.64094,"lng":135.494156,"zip":"5570034"},{"town":"鶴見橋二丁目","koaza":"","lat":34.646315,"lng":135.491635,"zip":"5570031"},{"town":"太子一丁目","koaza":"","lat":34.647813,"lng":135.503995,"zip":"5570002"},{"town":"花園南一丁目","koaza":"","lat":34.641699,"lng":135.496888,"zip":"5570015"},{"town":"岸里三丁目","koaza":"","lat":34.630962,"lng":135.493668,"zip":"5570041"},{"town":"聖天下一丁目","koaza":"","lat":34.637538,"lng":135.502132,"zip":"5570012"},{"town":"千本北一丁目","koaza":"","lat":34.636082,"lng":135.490085,"zip":"5570053"},{"town":"旭三丁目","koaza":"","lat":34.644476,"lng":135.487975,"zip":"5570032"},{"town":"玉出東一丁目","koaza":"","lat":34.628496,"lng":135.495379,"zip":"5570043"},{"town":"天下茶屋東一丁目","koaza":"","lat":34.641318,"lng":135.503603,"zip":"5570011"},{"town":"天神ノ森一丁目","koaza":"","lat":34.632545,"lng":135.49996,"zip":"5570013"},{"town":"天下茶屋二丁目","koaza":"","lat":34.638116,"lng":135.498897,"zip":"5570014"},{"town":"梅南三丁目","koaza":"","lat":34.64301,"lng":135.487699,"zip":"5570033"},{"town":"花園北一丁目","koaza":"","lat":34.648942,"lng":135.498511,"zip":"5570016"},{"town":"南津守三丁目","koaza":"","lat":34.632086,"lng":135.484676,"zip":"5570063"},{"town":"玉出東二丁目","koaza":"","lat":34.624907,"lng":135.494701,"zip":"5570043"},{"town":"山王一丁目","koaza":"","lat":34.647291,"lng":135.506627,"zip":"5570001"},{"town":"花園北二丁目","koaza":"","lat":34.64528,"lng":135.497745,"zip":"5570016"},{"town":"千本南二丁目","koaza":"","lat":34.629919,"lng":135.487963,"zip":"5570055"},{"town":"鶴見橋三丁目","koaza":"","lat":34.646519,"lng":135.488251,"zip":"5570031"},{"town":"玉出中一丁目","koaza":"","lat":34.627736,"lng":135.492801,"zip":"5570044"},{"town":"岸里一丁目","koaza":"","lat":34.635959,"lng":135.495395,"zip":"5570041"},{"town":"長橋一丁目","koaza":"","lat":34.648441,"lng":135.495151,"zip":"5570025"},{"town":"鶴見橋一丁目","koaza":"","lat":34.64627,"lng":135.494975,"zip":"5570031"},{"town":"天下茶屋東二丁目","koaza":"","lat":34.640003,"lng":135.503031,"zip":"5570011"},{"town":"玉出中二丁目","koaza":"","lat":34.624813,"lng":135.492087,"zip":"5570044"},{"town":"千本中二丁目","koaza":"","lat":34.63256,"lng":135.487684,"zip":"5570054"},{"town":"橘三丁目","koaza":"","lat":34.638977,"lng":135.487833,"zip":"5570051"},{"town":"山王三丁目","koaza":"","lat":34.643628,"lng":135.50494,"zip":"5570001"},{"town":"萩之茶屋一丁目","koaza":"","lat":34.648486,"lng":135.501249,"zip":"5570004"},{"town":"北津守一丁目","koaza":"","lat":34.655259,"lng":135.483392,"zip":"5570061"},{"town":"松三丁目","koaza":"","lat":34.64103,"lng":135.487823,"zip":"5570034"},{"town":"南津守四丁目","koaza":"","lat":34.62993,"lng":135.48429,"zip":"5570063"},{"town":"長橋三丁目","koaza":"","lat":34.648423,"lng":135.488032,"zip":"5570025"},{"town":"千本南一丁目","koaza":"","lat":34.630529,"lng":135.490927,"zip":"5570055"},{"town":"千本中一丁目","koaza":"","lat":34.632994,"lng":135.491272,"zip":"5570054"},{"town":"天下茶屋三丁目","koaza":"","lat":34.635808,"lng":135.498251,"zip":"5570014"},{"town":"北津守二丁目","koaza":"","lat":34.652986,"lng":135.482685,"zip":"5570061"},{"town":"玉出西一丁目","koaza":"","lat":34.627427,"lng":135.488904,"zip":"5570045"},{"town":"岸里東一丁目","koaza":"","lat":34.632511,"lng":135.497367,"zip":"5570042"},{"town":"北津守三丁目","koaza":"","lat":34.651087,"lng":135.482481,"zip":"5570061"},{"town":"天下茶屋一丁目","koaza":"","lat":34.641171,"lng":135.499467,"zip":"5570014"},{"town":"千本北二丁目","koaza":"","lat":34.636072,"lng":135.487496,"zip":"5570053"},{"town":"南津守一丁目","koaza":"","lat":34.635789,"lng":135.484447,"zip":"5570063"},{"town":"玉出西二丁目","koaza":"","lat":34.624385,"lng":135.488712,"zip":"5570045"},{"town":"北津守四丁目","koaza":"","lat":34.648791,"lng":135.482178,"zip":"5570061"},{"town":"南津守七丁目","koaza":"","lat":34.623882,"lng":135.484269,"zip":"5570063"},{"town":"南津守六丁目","koaza":"","lat":34.627022,"lng":135.48331,"zip":"5570063"},{"town":"津守二丁目","koaza":"","lat":34.642766,"lng":135.482194,"zip":"5570062"},{"town":"津守一丁目","koaza":"","lat":34.64593,"lng":135.482531,"zip":"5570062"},{"town":"南津守二丁目","koaza":"","lat":34.634667,"lng":135.480082,"zip":"5570063"},{"town":"津守三丁目","koaza":"","lat":34.638471,"lng":135.482046,"zip":"5570062"},{"town":"南津守五丁目","koaza":"","lat":34.62908,"lng":135.477789,"zip":"5570063"}]