[{"town":"浜五丁目","koaza":"","lat":34.71437,"lng":135.582075,"zip":"5380035"},{"town":"今津中四丁目","koaza":"","lat":34.691927,"lng":135.57757,"zip":"5380042"},{"town":"今津南三丁目","koaza":"","lat":34.689382,"lng":135.574355,"zip":"5380043"},{"town":"徳庵二丁目","koaza":"","lat":34.698531,"lng":135.583109,"zip":"5380034"},{"town":"徳庵一丁目","koaza":"","lat":34.698873,"lng":135.581669,"zip":"5380034"},{"town":"緑四丁目","koaza":"","lat":34.716229,"lng":135.5645,"zip":"5380054"},{"town":"今津中五丁目","koaza":"","lat":34.691988,"lng":135.579644,"zip":"5380042"},{"town":"安田四丁目","koaza":"","lat":34.707441,"lng":135.589667,"zip":"5380032"},{"town":"中茶屋二丁目","koaza":"","lat":34.701048,"lng":135.588365,"zip":"5380033"},{"town":"今津南四丁目","koaza":"","lat":34.689584,"lng":135.577754,"zip":"5380043"},{"town":"今津北五丁目","koaza":"","lat":34.694772,"lng":135.581152,"zip":"5380041"},{"town":"今津南二丁目","koaza":"","lat":34.689086,"lng":135.57112,"zip":"5380043"},{"town":"諸口五丁目","koaza":"","lat":34.70344,"lng":135.583694,"zip":"5380051"},{"town":"諸口三丁目","koaza":"","lat":34.702786,"lng":135.576516,"zip":"5380051"},{"town":"浜二丁目","koaza":"","lat":34.708396,"lng":135.582358,"zip":"5380035"},{"town":"安田三丁目","koaza":"","lat":34.707502,"lng":135.587754,"zip":"5380032"},{"town":"今津中一丁目","koaza":"","lat":34.691812,"lng":135.567809,"zip":"5380042"},{"town":"今津中三丁目","koaza":"","lat":34.691922,"lng":135.574874,"zip":"5380042"},{"town":"今津南一丁目","koaza":"","lat":34.689036,"lng":135.567842,"zip":"5380043"},{"town":"今津北二丁目","koaza":"","lat":34.694962,"lng":135.571283,"zip":"5380041"},{"town":"緑二丁目","koaza":"","lat":34.709732,"lng":135.56543,"zip":"5380054"},{"town":"鶴見六丁目","koaza":"","lat":34.708114,"lng":135.564177,"zip":"5380053"},{"town":"今津北一丁目","koaza":"","lat":34.694813,"lng":135.567775,"zip":"5380041"},{"town":"浜四丁目","koaza":"","lat":34.711945,"lng":135.584157,"zip":"5380035"},{"town":"諸口四丁目","koaza":"","lat":34.703173,"lng":135.580303,"zip":"5380051"},{"town":"今津中二丁目","koaza":"","lat":34.692109,"lng":135.571325,"zip":"5380042"},{"town":"焼野三丁目","koaza":"","lat":34.72086,"lng":135.584982,"zip":"5380037"},{"town":"今津北四丁目","koaza":"","lat":34.695036,"lng":135.578361,"zip":"5380041"},{"town":"今津北三丁目","koaza":"","lat":34.694931,"lng":135.574835,"zip":"5380041"},{"town":"茨田大宮三丁目","koaza":"","lat":34.708459,"lng":135.595445,"zip":"5380031"},{"town":"焼野一丁目","koaza":"","lat":34.715405,"lng":135.583828,"zip":"5380037"},{"town":"安田一丁目","koaza":"","lat":34.70369,"lng":135.587402,"zip":"5380032"},{"town":"横堤三丁目","koaza":"","lat":34.700911,"lng":135.573488,"zip":"5380052"},{"town":"中茶屋一丁目","koaza":"","lat":34.700754,"lng":135.584971,"zip":"5380033"},{"town":"諸口二丁目","koaza":"","lat":34.699876,"lng":135.580168,"zip":"5380051"},{"town":"鶴見三丁目","koaza":"","lat":34.701426,"lng":135.563207,"zip":"5380053"},{"town":"浜一丁目","koaza":"","lat":34.706602,"lng":135.580401,"zip":"5380035"},{"town":"鶴見五丁目","koaza":"","lat":34.706852,"lng":135.564114,"zip":"5380053"},{"town":"鶴見二丁目","koaza":"","lat":34.699558,"lng":135.563432,"zip":"5380053"},{"town":"焼野二丁目","koaza":"","lat":34.716589,"lng":135.586454,"zip":"5380037"},{"town":"放出東二丁目","koaza":"","lat":34.691586,"lng":135.562656,"zip":"5380044"},{"town":"緑一丁目","koaza":"","lat":34.711977,"lng":135.561553,"zip":"5380054"},{"town":"横堤五丁目","koaza":"","lat":34.706363,"lng":135.573067,"zip":"5380052"},{"town":"安田二丁目","koaza":"","lat":34.703958,"lng":135.591977,"zip":"5380032"},{"town":"横堤一丁目","koaza":"","lat":34.70064,"lng":135.568606,"zip":"5380052"},{"town":"茨田大宮四丁目","koaza":"","lat":34.71228,"lng":135.596639,"zip":"5380031"},{"town":"浜三丁目","koaza":"","lat":34.707936,"lng":135.584858,"zip":"5380035"},{"town":"茨田大宮一丁目","koaza":"","lat":34.710879,"lng":135.589496,"zip":"5380031"},{"town":"茨田大宮二丁目","koaza":"","lat":34.71062,"lng":135.592895,"zip":"5380031"},{"town":"諸口一丁目","koaza":"","lat":34.699124,"lng":135.576614,"zip":"5380051"},{"town":"放出東一丁目","koaza":"","lat":34.694468,"lng":135.562719,"zip":"5380044"},{"town":"諸口六丁目","koaza":"","lat":34.706398,"lng":135.57672,"zip":"5380051"},{"town":"横堤二丁目","koaza":"","lat":34.699902,"lng":135.571188,"zip":"5380052"},{"town":"鶴見一丁目","koaza":"","lat":34.697479,"lng":135.56427,"zip":"5380053"},{"town":"放出東三丁目","koaza":"","lat":34.689199,"lng":135.562517,"zip":"5380044"},{"town":"横堤四丁目","koaza":"","lat":34.706857,"lng":135.569918,"zip":"5380052"},{"town":"鶴見四丁目","koaza":"","lat":34.704078,"lng":135.563898,"zip":"5380053"},{"town":"緑三丁目","koaza":"","lat":34.714087,"lng":135.566023,"zip":"5380054"},{"town":"緑地公園","koaza":"","lat":34.713146,"lng":135.579597,"zip":"5380036"}]