[{"town":"池島一丁目","koaza":"","lat":34.65792,"lng":135.449062,"zip":"5520015"},{"town":"港晴一丁目","koaza":"","lat":34.656408,"lng":135.44371,"zip":"5520023"},{"town":"港晴四丁目","koaza":"","lat":34.657698,"lng":135.440672,"zip":"5520023"},{"town":"八幡屋一丁目","koaza":"","lat":34.657707,"lng":135.446259,"zip":"5520014"},{"town":"波除四丁目","koaza":"","lat":34.673986,"lng":135.462884,"zip":"5520001"},{"town":"八幡屋二丁目","koaza":"","lat":34.656033,"lng":135.446859,"zip":"5520014"},{"town":"築港二丁目","koaza":"","lat":34.652129,"lng":135.432424,"zip":"5520021"},{"town":"磯路一丁目","koaza":"","lat":34.666815,"lng":135.462093,"zip":"5520003"},{"town":"築港四丁目","koaza":"","lat":34.65418,"lng":135.431456,"zip":"5520021"},{"town":"港晴三丁目","koaza":"","lat":34.658598,"lng":135.442697,"zip":"5520023"},{"town":"波除六丁目","koaza":"","lat":34.675999,"lng":135.459946,"zip":"5520001"},{"town":"弁天四丁目","koaza":"","lat":34.671294,"lng":135.458301,"zip":"5520007"},{"town":"市岡元町三丁目","koaza":"","lat":34.667492,"lng":135.464354,"zip":"5520002"},{"town":"田中一丁目","koaza":"","lat":34.665669,"lng":135.44975,"zip":"5520005"},{"town":"夕凪一丁目","koaza":"","lat":34.663369,"lng":135.453572,"zip":"5520004"},{"town":"波除一丁目","koaza":"","lat":34.673715,"lng":135.464851,"zip":"5520001"},{"town":"市岡元町一丁目","koaza":"","lat":34.669647,"lng":135.469614,"zip":"5520002"},{"town":"南市岡一丁目","koaza":"","lat":34.667157,"lng":135.471795,"zip":"5520011"},{"town":"池島三丁目","koaza":"","lat":34.654381,"lng":135.449586,"zip":"5520015"},{"town":"市岡四丁目","koaza":"","lat":34.659821,"lng":135.462433,"zip":"5520012"},{"town":"波除三丁目","koaza":"","lat":34.670458,"lng":135.462628,"zip":"5520001"},{"town":"波除五丁目","koaza":"","lat":34.673452,"lng":135.460861,"zip":"5520001"},{"town":"市岡三丁目","koaza":"","lat":34.661882,"lng":135.464488,"zip":"5520012"},{"town":"田中二丁目","koaza":"","lat":34.663581,"lng":135.448521,"zip":"5520005"},{"town":"池島二丁目","koaza":"","lat":34.656199,"lng":135.451115,"zip":"5520015"},{"town":"八幡屋四丁目","koaza":"","lat":34.651647,"lng":135.44729,"zip":"5520014"},{"town":"波除二丁目","koaza":"","lat":34.671247,"lng":135.465446,"zip":"5520001"},{"town":"南市岡二丁目","koaza":"","lat":34.665435,"lng":135.468878,"zip":"5520011"},{"town":"弁天一丁目","koaza":"","lat":34.669501,"lng":135.459489,"zip":"5520007"},{"town":"南市岡三丁目","koaza":"","lat":34.663945,"lng":135.466445,"zip":"5520011"},{"town":"石田三丁目","koaza":"","lat":34.662347,"lng":135.443732,"zip":"5520006"},{"town":"弁天二丁目","koaza":"","lat":34.668171,"lng":135.456418,"zip":"5520007"},{"town":"市岡元町二丁目","koaza":"","lat":34.668782,"lng":135.466901,"zip":"5520002"},{"town":"弁天三丁目","koaza":"","lat":34.666808,"lng":135.453207,"zip":"5520007"},{"town":"夕凪二丁目","koaza":"","lat":34.66161,"lng":135.451459,"zip":"5520004"},{"town":"三先一丁目","koaza":"","lat":34.660412,"lng":135.455339,"zip":"5520016"},{"town":"市岡一丁目","koaza":"","lat":34.663089,"lng":135.461691,"zip":"5520012"},{"town":"八幡屋三丁目","koaza":"","lat":34.653495,"lng":135.44567,"zip":"5520014"},{"town":"市岡二丁目","koaza":"","lat":34.661386,"lng":135.459083,"zip":"5520012"},{"town":"磯路二丁目","koaza":"","lat":34.666017,"lng":135.459719,"zip":"5520003"},{"town":"三先二丁目","koaza":"","lat":34.658822,"lng":135.451883,"zip":"5520016"},{"town":"海岸通一丁目","koaza":"","lat":34.653754,"lng":135.429178,"zip":"5520022"},{"town":"磯路三丁目","koaza":"","lat":34.66442,"lng":135.456163,"zip":"5520003"},{"town":"港晴二丁目","koaza":"","lat":34.654607,"lng":135.441553,"zip":"5520023"},{"town":"弁天五丁目","koaza":"","lat":34.67237,"lng":135.456747,"zip":"5520007"},{"town":"築港一丁目","koaza":"","lat":34.653246,"lng":135.436702,"zip":"5520021"},{"town":"田中三丁目","koaza":"","lat":34.660781,"lng":135.446577,"zip":"5520005"},{"town":"海岸通二丁目","koaza":"","lat":34.650799,"lng":135.435775,"zip":"5520022"},{"town":"石田一丁目","koaza":"","lat":34.668928,"lng":135.452886,"zip":"5520006"},{"town":"福崎一丁目","koaza":"","lat":34.657786,"lng":135.459471,"zip":"5520013"},{"town":"弁天六丁目","koaza":"","lat":34.673934,"lng":135.45555,"zip":"5520007"},{"town":"築港三丁目","koaza":"","lat":34.656411,"lng":135.433528,"zip":"5520021"},{"town":"海岸通四丁目","koaza":"","lat":34.647177,"lng":135.448537,"zip":"5520022"},{"town":"石田二丁目","koaza":"","lat":34.667197,"lng":135.447561,"zip":"5520006"},{"town":"福崎二丁目","koaza":"","lat":34.653478,"lng":135.45309,"zip":"5520013"},{"town":"港晴五丁目","koaza":"","lat":34.659023,"lng":135.439181,"zip":"5520023"},{"town":"福崎三丁目","koaza":"","lat":34.652161,"lng":135.456157,"zip":"5520013"},{"town":"海岸通三丁目","koaza":"","lat":34.6499,"lng":135.442995,"zip":"5520022"}]