[{"town":"東今里一丁目","koaza":"","lat":34.680418,"lng":135.55148,"zip":"5370011"},{"town":"中本二丁目","koaza":"","lat":34.679818,"lng":135.541696,"zip":"5370022"},{"town":"大今里南五丁目","koaza":"","lat":34.666376,"lng":135.554008,"zip":"5370013"},{"town":"中本三丁目","koaza":"","lat":34.679109,"lng":135.543178,"zip":"5370022"},{"town":"東中本一丁目","koaza":"","lat":34.680973,"lng":135.547074,"zip":"5370021"},{"town":"中本一丁目","koaza":"","lat":34.682001,"lng":135.541683,"zip":"5370022"},{"town":"神路四丁目","koaza":"","lat":34.669151,"lng":135.55319,"zip":"5370003"},{"town":"大今里南四丁目","koaza":"","lat":34.666368,"lng":135.552104,"zip":"5370013"},{"town":"大今里南三丁目","koaza":"","lat":34.666446,"lng":135.5499,"zip":"5370013"},{"town":"玉津三丁目","koaza":"","lat":34.666724,"lng":135.537442,"zip":"5370023"},{"town":"神路二丁目","koaza":"","lat":34.674724,"lng":135.554,"zip":"5370003"},{"town":"大今里南二丁目","koaza":"","lat":34.666622,"lng":135.547179,"zip":"5370013"},{"town":"中本四丁目","koaza":"","lat":34.676618,"lng":135.539625,"zip":"5370022"},{"town":"中道四丁目","koaza":"","lat":34.675779,"lng":135.537526,"zip":"5370025"},{"town":"大今里西二丁目","koaza":"","lat":34.670001,"lng":135.540377,"zip":"5370014"},{"town":"大今里南六丁目","koaza":"","lat":34.666336,"lng":135.556091,"zip":"5370013"},{"town":"東小橋二丁目","koaza":"","lat":34.669507,"lng":135.533674,"zip":"5370024"},{"town":"中道三丁目","koaza":"","lat":34.676191,"lng":135.535134,"zip":"5370025"},{"town":"大今里西三丁目","koaza":"","lat":34.667287,"lng":135.540953,"zip":"5370014"},{"town":"神路三丁目","koaza":"","lat":34.671854,"lng":135.553513,"zip":"5370003"},{"town":"東小橋三丁目","koaza":"","lat":34.666902,"lng":135.532887,"zip":"5370024"},{"town":"大今里南一丁目","koaza":"","lat":34.6672,"lng":135.544318,"zip":"5370013"},{"town":"神路一丁目","koaza":"","lat":34.678471,"lng":135.55456,"zip":"5370003"},{"town":"中本五丁目","koaza":"","lat":34.676242,"lng":135.542352,"zip":"5370022"},{"town":"中道一丁目","koaza":"","lat":34.679666,"lng":135.535672,"zip":"5370025"},{"town":"東今里二丁目","koaza":"","lat":34.678331,"lng":135.55115,"zip":"5370011"},{"town":"玉津一丁目","koaza":"","lat":34.672361,"lng":135.537752,"zip":"5370023"},{"town":"大今里四丁目","koaza":"","lat":34.669166,"lng":135.549539,"zip":"5370012"},{"town":"深江南一丁目","koaza":"","lat":34.670875,"lng":135.555998,"zip":"5370002"},{"town":"東小橋一丁目","koaza":"","lat":34.672645,"lng":135.53473,"zip":"5370024"},{"town":"中道二丁目","koaza":"","lat":34.679483,"lng":135.538719,"zip":"5370025"},{"town":"大今里三丁目","koaza":"","lat":34.669663,"lng":135.545268,"zip":"5370012"},{"town":"東今里三丁目","koaza":"","lat":34.675626,"lng":135.550658,"zip":"5370011"},{"town":"深江北一丁目","koaza":"","lat":34.676495,"lng":135.556687,"zip":"5370001"},{"town":"深江南三丁目","koaza":"","lat":34.670575,"lng":135.560831,"zip":"5370002"},{"town":"深江南二丁目","koaza":"","lat":34.670594,"lng":135.558389,"zip":"5370002"},{"town":"東中本二丁目","koaza":"","lat":34.678958,"lng":135.546753,"zip":"5370021"},{"town":"深江北二丁目","koaza":"","lat":34.675883,"lng":135.558817,"zip":"5370001"},{"town":"玉津二丁目","koaza":"","lat":34.668495,"lng":135.537109,"zip":"5370023"},{"town":"大今里二丁目","koaza":"","lat":34.672313,"lng":135.550075,"zip":"5370012"},{"town":"東中本三丁目","koaza":"","lat":34.676095,"lng":135.546303,"zip":"5370021"},{"town":"大今里西一丁目","koaza":"","lat":34.671709,"lng":135.541497,"zip":"5370014"},{"town":"大今里一丁目","koaza":"","lat":34.67274,"lng":135.545765,"zip":"5370012"},{"town":"深江北三丁目","koaza":"","lat":34.675735,"lng":135.561473,"zip":"5370001"}]