[{"town":"十三東四丁目","koaza":"","lat":34.723323,"lng":135.485147,"zip":"5320023"},{"town":"木川西三丁目","koaza":"","lat":34.726044,"lng":135.487872,"zip":"5320013"},{"town":"三津屋中一丁目","koaza":"","lat":34.728223,"lng":135.472648,"zip":"5320036"},{"town":"田川一丁目","koaza":"","lat":34.718449,"lng":135.472533,"zip":"5320027"},{"town":"宮原三丁目","koaza":"","lat":34.73345,"lng":135.496386,"zip":"5320003"},{"town":"十三東五丁目","koaza":"","lat":34.723738,"lng":135.483804,"zip":"5320023"},{"town":"塚本五丁目","koaza":"","lat":34.71791,"lng":135.469536,"zip":"5320026"},{"town":"野中南一丁目","koaza":"","lat":34.727038,"lng":135.484672,"zip":"5320022"},{"town":"西中島六丁目","koaza":"","lat":34.72869,"lng":135.496349,"zip":"5320011"},{"town":"十三東二丁目","koaza":"","lat":34.720442,"lng":135.484008,"zip":"5320023"},{"town":"木川東三丁目","koaza":"","lat":34.726618,"lng":135.492026,"zip":"5320012"},{"town":"東三国五丁目","koaza":"","lat":34.742388,"lng":135.495703,"zip":"5320002"},{"town":"十三本町三丁目","koaza":"","lat":34.723032,"lng":135.481659,"zip":"5320024"},{"town":"田川北二丁目","koaza":"","lat":34.72274,"lng":135.471165,"zip":"5320021"},{"town":"塚本六丁目","koaza":"","lat":34.71702,"lng":135.466623,"zip":"5320026"},{"town":"塚本三丁目","koaza":"","lat":34.716734,"lng":135.473391,"zip":"5320026"},{"town":"西中島四丁目","koaza":"","lat":34.726809,"lng":135.496465,"zip":"5320011"},{"town":"西三国三丁目","koaza":"","lat":34.740242,"lng":135.486,"zip":"5320006"},{"town":"三津屋中二丁目","koaza":"","lat":34.727283,"lng":135.468672,"zip":"5320036"},{"town":"塚本四丁目","koaza":"","lat":34.71558,"lng":135.469482,"zip":"5320026"},{"town":"新高三丁目","koaza":"","lat":34.736375,"lng":135.482512,"zip":"5320033"},{"town":"三津屋北三丁目","koaza":"","lat":34.729472,"lng":135.465208,"zip":"5320032"},{"town":"三津屋南一丁目","koaza":"","lat":34.727053,"lng":135.475552,"zip":"5320035"},{"town":"十三元今里二丁目","koaza":"","lat":34.720458,"lng":135.476441,"zip":"5320028"},{"town":"木川西二丁目","koaza":"","lat":34.723831,"lng":135.488739,"zip":"5320013"},{"town":"木川東二丁目","koaza":"","lat":34.724431,"lng":135.492165,"zip":"5320012"},{"town":"宮原五丁目","koaza":"","lat":34.738547,"lng":135.496138,"zip":"5320003"},{"town":"東三国四丁目","koaza":"","lat":34.740539,"lng":135.495829,"zip":"5320002"},{"town":"西宮原三丁目","koaza":"","lat":34.738023,"lng":135.49168,"zip":"5320004"},{"town":"十三元今里一丁目","koaza":"","lat":34.717622,"lng":135.476332,"zip":"5320028"},{"town":"野中北二丁目","koaza":"","lat":34.728282,"lng":135.478485,"zip":"5320034"},{"town":"十三東三丁目","koaza":"","lat":34.721998,"lng":135.485966,"zip":"5320023"},{"town":"十三元今里三丁目","koaza":"","lat":34.722874,"lng":135.476471,"zip":"5320028"},{"town":"新高二丁目","koaza":"","lat":34.730684,"lng":135.476428,"zip":"5320033"},{"town":"三津屋中三丁目","koaza":"","lat":34.726248,"lng":135.465375,"zip":"5320036"},{"town":"西中島三丁目","koaza":"","lat":34.726951,"lng":135.500826,"zip":"5320011"},{"town":"十三本町二丁目","koaza":"","lat":34.722134,"lng":135.47978,"zip":"5320024"},{"town":"木川西四丁目","koaza":"","lat":34.727993,"lng":135.487282,"zip":"5320013"},{"town":"西三国二丁目","koaza":"","lat":34.740939,"lng":135.488299,"zip":"5320006"},{"town":"十三本町一丁目","koaza":"","lat":34.719196,"lng":135.480314,"zip":"5320024"},{"town":"新高六丁目","koaza":"","lat":34.73297,"lng":135.47398,"zip":"5320033"},{"town":"宮原二丁目","koaza":"","lat":34.739097,"lng":135.50135,"zip":"5320003"},{"town":"三津屋南二丁目","koaza":"","lat":34.726029,"lng":135.471325,"zip":"5320035"},{"town":"三津屋北二丁目","koaza":"","lat":34.729528,"lng":135.46885,"zip":"5320032"},{"town":"木川東一丁目","koaza":"","lat":34.721589,"lng":135.493403,"zip":"5320012"},{"town":"西宮原一丁目","koaza":"","lat":34.73243,"lng":135.492405,"zip":"5320004"},{"town":"田川北三丁目","koaza":"","lat":34.722058,"lng":135.466554,"zip":"5320021"},{"town":"宮原四丁目","koaza":"","lat":34.736041,"lng":135.496362,"zip":"5320003"},{"town":"塚本二丁目","koaza":"","lat":34.713567,"lng":135.470124,"zip":"5320026"},{"town":"三津屋北一丁目","koaza":"","lat":34.730944,"lng":135.472541,"zip":"5320032"},{"town":"三国本町三丁目","koaza":"","lat":34.737352,"lng":135.486216,"zip":"5320005"},{"town":"野中北一丁目","koaza":"","lat":34.729589,"lng":135.48256,"zip":"5320034"},{"town":"野中南二丁目","koaza":"","lat":34.726509,"lng":135.480813,"zip":"5320022"},{"town":"東三国六丁目","koaza":"","lat":34.744315,"lng":135.495273,"zip":"5320002"},{"town":"東三国一丁目","koaza":"","lat":34.741236,"lng":135.501683,"zip":"5320002"},{"town":"西中島七丁目","koaza":"","lat":34.731154,"lng":135.495719,"zip":"5320011"},{"town":"田川北一丁目","koaza":"","lat":34.724565,"lng":135.475092,"zip":"5320021"},{"town":"新高四丁目","koaza":"","lat":34.735241,"lng":135.480091,"zip":"5320033"},{"town":"新高五丁目","koaza":"","lat":34.734238,"lng":135.477401,"zip":"5320033"},{"town":"田川二丁目","koaza":"","lat":34.720823,"lng":135.471771,"zip":"5320027"},{"town":"新高一丁目","koaza":"","lat":34.731695,"lng":135.481363,"zip":"5320033"},{"town":"三津屋南三丁目","koaza":"","lat":34.724022,"lng":135.467013,"zip":"5320035"},{"town":"三国本町二丁目","koaza":"","lat":34.73468,"lng":135.486267,"zip":"5320005"},{"town":"西宮原二丁目","koaza":"","lat":34.735464,"lng":135.491464,"zip":"5320004"},{"town":"田川三丁目","koaza":"","lat":34.719668,"lng":135.465841,"zip":"5320027"},{"town":"木川西一丁目","koaza":"","lat":34.719914,"lng":135.491172,"zip":"5320013"},{"town":"三国本町一丁目","koaza":"","lat":34.731242,"lng":135.48736,"zip":"5320005"},{"town":"木川東四丁目","koaza":"","lat":34.729318,"lng":135.491291,"zip":"5320012"},{"town":"十八条三丁目","koaza":"","lat":34.746223,"lng":135.48734,"zip":"5320001"},{"town":"西三国一丁目","koaza":"","lat":34.742174,"lng":135.49114,"zip":"5320006"},{"town":"宮原一丁目","koaza":"","lat":34.735837,"lng":135.500624,"zip":"5320003"},{"town":"東三国二丁目","koaza":"","lat":34.743403,"lng":135.50214,"zip":"5320002"},{"town":"新北野三丁目","koaza":"","lat":34.712423,"lng":135.475512,"zip":"5320025"},{"town":"西三国四丁目","koaza":"","lat":34.741963,"lng":135.484777,"zip":"5320006"},{"town":"塚本一丁目","koaza":"","lat":34.710031,"lng":135.473343,"zip":"5320026"},{"town":"新北野一丁目","koaza":"","lat":34.715752,"lng":135.4829,"zip":"5320025"},{"town":"西中島五丁目","koaza":"","lat":34.731317,"lng":135.500128,"zip":"5320011"},{"town":"加島二丁目","koaza":"","lat":34.731092,"lng":135.461113,"zip":"5320031"},{"town":"十八条一丁目","koaza":"","lat":34.748496,"lng":135.494821,"zip":"5320001"},{"town":"十八条二丁目","koaza":"","lat":34.747945,"lng":135.490405,"zip":"5320001"},{"town":"西中島二丁目","koaza":"","lat":34.722245,"lng":135.496945,"zip":"5320011"},{"town":"東三国三丁目","koaza":"","lat":34.747292,"lng":135.499145,"zip":"5320002"},{"town":"西中島一丁目","koaza":"","lat":34.722511,"lng":135.501436,"zip":"5320011"},{"town":"新北野二丁目","koaza":"","lat":34.713577,"lng":135.479384,"zip":"5320025"},{"town":"十三東一丁目","koaza":"","lat":34.717995,"lng":135.48699,"zip":"5320023"},{"town":"加島四丁目","koaza":"","lat":34.732059,"lng":135.453391,"zip":"5320031"},{"town":"加島三丁目","koaza":"","lat":34.729163,"lng":135.451454,"zip":"5320031"},{"town":"加島一丁目","koaza":"","lat":34.725844,"lng":135.459801,"zip":"5320031"}]