[{"town":"北村一丁目","koaza":"","lat":34.651833,"lng":135.46883,"zip":"5510032"},{"town":"平尾五丁目","koaza":"","lat":34.639714,"lng":135.471083,"zip":"5510012"},{"town":"平尾三丁目","koaza":"","lat":34.639274,"lng":135.474241,"zip":"5510012"},{"town":"三軒家東六丁目","koaza":"","lat":34.657015,"lng":135.475352,"zip":"5510002"},{"town":"北村二丁目","koaza":"","lat":34.652453,"lng":135.466904,"zip":"5510032"},{"town":"南恩加島二丁目","koaza":"","lat":34.637704,"lng":135.470699,"zip":"5510021"},{"town":"三軒家東五丁目","koaza":"","lat":34.659509,"lng":135.476651,"zip":"5510002"},{"town":"三軒家西二丁目","koaza":"","lat":34.665043,"lng":135.47488,"zip":"5510001"},{"town":"南恩加島三丁目","koaza":"","lat":34.635258,"lng":135.470194,"zip":"5510021"},{"town":"平尾四丁目","koaza":"","lat":34.641975,"lng":135.471234,"zip":"5510012"},{"town":"平尾二丁目","koaza":"","lat":34.641464,"lng":135.474649,"zip":"5510012"},{"town":"三軒家東四丁目","koaza":"","lat":34.661665,"lng":135.477567,"zip":"5510002"},{"town":"泉尾二丁目","koaza":"","lat":34.659969,"lng":135.472762,"zip":"5510031"},{"town":"三軒家西三丁目","koaza":"","lat":34.664975,"lng":135.472249,"zip":"5510001"},{"town":"三軒家西一丁目","koaza":"","lat":34.665574,"lng":135.477231,"zip":"5510001"},{"town":"千島三丁目","koaza":"","lat":34.650306,"lng":135.470625,"zip":"5510003"},{"town":"小林東一丁目","koaza":"","lat":34.645738,"lng":135.477854,"zip":"5510011"},{"town":"泉尾五丁目","koaza":"","lat":34.65423,"lng":135.469649,"zip":"5510031"},{"town":"泉尾六丁目","koaza":"","lat":34.661419,"lng":135.46802,"zip":"5510031"},{"town":"泉尾四丁目","koaza":"","lat":34.656443,"lng":135.470572,"zip":"5510031"},{"town":"泉尾三丁目","koaza":"","lat":34.65824,"lng":135.471524,"zip":"5510031"},{"town":"小林東三丁目","koaza":"","lat":34.645389,"lng":135.472097,"zip":"5510011"},{"town":"三軒家東一丁目","koaza":"","lat":34.665744,"lng":135.480051,"zip":"5510002"},{"town":"三軒家東二丁目","koaza":"","lat":34.660753,"lng":135.480421,"zip":"5510002"},{"town":"小林東二丁目","koaza":"","lat":34.64509,"lng":135.47509,"zip":"5510011"},{"town":"泉尾一丁目","koaza":"","lat":34.661987,"lng":135.473082,"zip":"5510031"},{"town":"南恩加島七丁目","koaza":"","lat":34.633401,"lng":135.465789,"zip":"5510021"},{"town":"平尾一丁目","koaza":"","lat":34.640287,"lng":135.477473,"zip":"5510012"},{"town":"鶴町五丁目","koaza":"","lat":34.640317,"lng":135.459507,"zip":"5510023"},{"town":"北恩加島一丁目","koaza":"","lat":34.65353,"lng":135.464701,"zip":"5510033"},{"town":"泉尾七丁目","koaza":"","lat":34.657745,"lng":135.465715,"zip":"5510031"},{"town":"南恩加島四丁目","koaza":"","lat":34.63241,"lng":135.472069,"zip":"5510021"},{"town":"小林西二丁目","koaza":"","lat":34.643862,"lng":135.468418,"zip":"5510013"},{"town":"千島二丁目","koaza":"","lat":34.650528,"lng":135.473653,"zip":"5510003"},{"town":"北村三丁目","koaza":"","lat":34.649694,"lng":135.466292,"zip":"5510032"},{"town":"三軒家東三丁目","koaza":"","lat":34.654904,"lng":135.479654,"zip":"5510002"},{"town":"南恩加島六丁目","koaza":"","lat":34.636808,"lng":135.46508,"zip":"5510021"},{"town":"南恩加島一丁目","koaza":"","lat":34.635513,"lng":135.474672,"zip":"5510021"},{"town":"千島一丁目","koaza":"","lat":34.652171,"lng":135.476207,"zip":"5510003"},{"town":"小林西一丁目","koaza":"","lat":34.645688,"lng":135.466169,"zip":"5510013"},{"town":"鶴町一丁目","koaza":"","lat":34.634543,"lng":135.458621,"zip":"5510023"},{"town":"鶴町四丁目","koaza":"","lat":34.644432,"lng":135.454599,"zip":"5510023"},{"town":"南恩加島五丁目","koaza":"","lat":34.640619,"lng":135.467607,"zip":"5510021"},{"town":"北恩加島二丁目","koaza":"","lat":34.649586,"lng":135.461519,"zip":"5510033"},{"town":"鶴町三丁目","koaza":"","lat":34.641536,"lng":135.452567,"zip":"5510023"},{"town":"鶴町二丁目","koaza":"","lat":34.636684,"lng":135.452541,"zip":"5510023"},{"town":"船町一丁目","koaza":"","lat":34.629233,"lng":135.468323,"zip":"5510022"},{"town":"船町二丁目","koaza":"","lat":34.629157,"lng":135.455767,"zip":"5510022"}]