[{"town":"大門町","koaza":"","lat":34.726986,"lng":135.559967,"zip":"5700063"},{"town":"来迎町","koaza":"","lat":34.738112,"lng":135.566713,"zip":"5700029"},{"town":"滝井西町一丁目","koaza":"","lat":34.725415,"lng":135.555461,"zip":"5700076"},{"town":"寿町","koaza":"","lat":34.728584,"lng":135.555254,"zip":"5700077"},{"town":"新橋寺町","koaza":"","lat":34.742168,"lng":135.560251,"zip":"5700098"},{"town":"滝井西町二丁目","koaza":"","lat":34.726593,"lng":135.555805,"zip":"5700076"},{"town":"橋波東之町一丁目","koaza":"","lat":34.736807,"lng":135.575099,"zip":"5700031"},{"town":"滝井元町二丁目","koaza":"","lat":34.727109,"lng":135.55759,"zip":"5700065"},{"town":"竜田通二丁目","koaza":"","lat":34.738402,"lng":135.568837,"zip":"5700025"},{"town":"滝井元町三丁目","koaza":"","lat":34.72657,"lng":135.558842,"zip":"5700065"},{"town":"滝井西町三丁目","koaza":"","lat":34.727407,"lng":135.555676,"zip":"5700076"},{"town":"松町","koaza":"","lat":34.738035,"lng":135.562703,"zip":"5700085"},{"town":"竜田通一丁目","koaza":"","lat":34.739246,"lng":135.56617,"zip":"5700025"},{"town":"暁町","koaza":"","lat":34.740449,"lng":135.569644,"zip":"5700022"},{"town":"日光町","koaza":"","lat":34.742185,"lng":135.565195,"zip":"5700092"},{"town":"滝井元町一丁目","koaza":"","lat":34.725655,"lng":135.557072,"zip":"5700065"},{"town":"浜町二丁目","koaza":"","lat":34.74142,"lng":135.56704,"zip":"5700093"},{"town":"長池町","koaza":"","lat":34.727345,"lng":135.55929,"zip":"5700064"},{"town":"豊秀町一丁目","koaza":"","lat":34.731929,"lng":135.556663,"zip":"5700082"},{"town":"日吉町一丁目","koaza":"","lat":34.731549,"lng":135.556849,"zip":"5700081"},{"town":"本町一丁目","koaza":"","lat":34.735156,"lng":135.56378,"zip":"5700028"},{"town":"京阪北本通","koaza":"","lat":34.741646,"lng":135.566131,"zip":"5700094"},{"town":"松月町","koaza":"","lat":34.737873,"lng":135.568156,"zip":"5700026"},{"town":"土居町","koaza":"","lat":34.731844,"lng":135.559613,"zip":"5700073"},{"town":"桜町","koaza":"","lat":34.736727,"lng":135.566029,"zip":"5700027"},{"town":"金下町一丁目","koaza":"","lat":34.731197,"lng":135.557055,"zip":"5700079"},{"town":"南寺方北通一丁目","koaza":"","lat":34.723711,"lng":135.565556,"zip":"5700046"},{"town":"高瀬町二丁目","koaza":"","lat":34.728109,"lng":135.564316,"zip":"5700053"},{"town":"浜町一丁目","koaza":"","lat":34.739915,"lng":135.567137,"zip":"5700093"},{"town":"桃町","koaza":"","lat":34.740629,"lng":135.561495,"zip":"5700097"},{"town":"北斗町","koaza":"","lat":34.743591,"lng":135.564705,"zip":"5700091"},{"town":"紅屋町","koaza":"","lat":34.72811,"lng":135.556995,"zip":"5700075"},{"town":"梅町","koaza":"","lat":34.739312,"lng":135.562095,"zip":"5700087"},{"town":"祝町","koaza":"","lat":34.733561,"lng":135.561237,"zip":"5700071"},{"town":"本町二丁目","koaza":"","lat":34.737397,"lng":135.565309,"zip":"5700028"},{"town":"神木町","koaza":"","lat":34.738882,"lng":135.56938,"zip":"5700024"},{"town":"早苗町","koaza":"","lat":34.733259,"lng":135.562054,"zip":"5700072"},{"town":"橋波東之町三丁目","koaza":"","lat":34.736866,"lng":135.573436,"zip":"5700031"},{"town":"日吉町二丁目","koaza":"","lat":34.735287,"lng":135.561791,"zip":"5700081"},{"town":"寺方本通四丁目","koaza":"","lat":34.723824,"lng":135.580947,"zip":"5700048"},{"town":"橋波西之町三丁目","koaza":"","lat":34.735844,"lng":135.569711,"zip":"5700039"},{"town":"竹町","koaza":"","lat":34.738347,"lng":135.562082,"zip":"5700086"},{"town":"寺方本通三丁目","koaza":"","lat":34.724886,"lng":135.577701,"zip":"5700048"},{"town":"馬場町二丁目","koaza":"","lat":34.727366,"lng":135.56169,"zip":"5700062"},{"town":"小春町","koaza":"","lat":34.728994,"lng":135.56034,"zip":"5700061"},{"town":"高瀬町一丁目","koaza":"","lat":34.729357,"lng":135.564147,"zip":"5700053"},{"town":"西郷通四丁目","koaza":"","lat":34.726476,"lng":135.573363,"zip":"5700034"},{"town":"寺方本通一丁目","koaza":"","lat":34.725076,"lng":135.57367,"zip":"5700048"},{"town":"高瀬町五丁目","koaza":"","lat":34.72496,"lng":135.564739,"zip":"5700053"},{"town":"寺方元町二丁目","koaza":"","lat":34.726255,"lng":135.569725,"zip":"5700047"},{"town":"高瀬町三丁目","koaza":"","lat":34.7271,"lng":135.564251,"zip":"5700053"},{"town":"橋波西之町二丁目","koaza":"","lat":34.734815,"lng":135.571617,"zip":"5700039"},{"town":"金下町二丁目","koaza":"","lat":34.734887,"lng":135.562019,"zip":"5700079"},{"town":"馬場町三丁目","koaza":"","lat":34.72576,"lng":135.561471,"zip":"5700062"},{"town":"寺方元町三丁目","koaza":"","lat":34.724903,"lng":135.571011,"zip":"5700047"},{"town":"橋波東之町二丁目","koaza":"","lat":34.735119,"lng":135.575946,"zip":"5700031"},{"town":"高瀬町四丁目","koaza":"","lat":34.726146,"lng":135.564212,"zip":"5700053"},{"town":"大枝北町","koaza":"","lat":34.733312,"lng":135.566589,"zip":"5700037"},{"town":"日向町","koaza":"","lat":34.739376,"lng":135.570536,"zip":"5700023"},{"town":"寺内町二丁目","koaza":"","lat":34.73444,"lng":135.564803,"zip":"5700056"},{"town":"平代町","koaza":"","lat":34.730422,"lng":135.557006,"zip":"5700078"},{"town":"馬場町一丁目","koaza":"","lat":34.728888,"lng":135.561936,"zip":"5700062"},{"town":"豊秀町二丁目","koaza":"","lat":34.735933,"lng":135.561951,"zip":"5700082"},{"town":"菊水通一丁目","koaza":"","lat":34.732969,"lng":135.577134,"zip":"5700032"},{"town":"寺方元町四丁目","koaza":"","lat":34.723977,"lng":135.571053,"zip":"5700047"},{"town":"南寺方中通二丁目","koaza":"","lat":34.722492,"lng":135.568743,"zip":"5700045"},{"town":"寺内町一丁目","koaza":"","lat":34.732887,"lng":135.563604,"zip":"5700056"},{"town":"金田町四丁目","koaza":"","lat":34.761113,"lng":135.592143,"zip":"5700011"},{"town":"南寺方南通一丁目","koaza":"","lat":34.720282,"lng":135.567438,"zip":"5700044"},{"town":"八島町","koaza":"","lat":34.740172,"lng":135.564711,"zip":"5700095"},{"town":"東郷通一丁目","koaza":"","lat":34.729001,"lng":135.580266,"zip":"5700041"},{"town":"寺方錦通三丁目","koaza":"","lat":34.722592,"lng":135.579222,"zip":"5700042"},{"town":"南寺方南通二丁目","koaza":"","lat":34.720583,"lng":135.57007,"zip":"5700044"},{"town":"八雲西町三丁目","koaza":"","lat":34.74843,"lng":135.563937,"zip":"5700006"},{"town":"橋波東之町四丁目","koaza":"","lat":34.735141,"lng":135.573924,"zip":"5700031"},{"town":"寺方錦通一丁目","koaza":"","lat":34.723276,"lng":135.574283,"zip":"5700042"},{"town":"橋波西之町一丁目","koaza":"","lat":34.736466,"lng":135.571504,"zip":"5700039"},{"town":"東町二丁目","koaza":"","lat":34.748886,"lng":135.605655,"zip":"5700013"},{"town":"大枝南町","koaza":"","lat":34.731139,"lng":135.566278,"zip":"5700051"},{"town":"寺方錦通四丁目","koaza":"","lat":34.722518,"lng":135.58096,"zip":"5700042"},{"town":"東光町一丁目","koaza":"","lat":34.732529,"lng":135.570324,"zip":"5700035"},{"town":"梅園町","koaza":"","lat":34.729068,"lng":135.559031,"zip":"5700066"},{"town":"大枝西町","koaza":"","lat":34.731304,"lng":135.564371,"zip":"5700054"},{"town":"寺方本通二丁目","koaza":"","lat":34.724932,"lng":135.575697,"zip":"5700048"},{"town":"東町一丁目","koaza":"","lat":34.74944,"lng":135.603519,"zip":"5700013"},{"town":"佐太中町三丁目","koaza":"","lat":34.754603,"lng":135.583681,"zip":"5700002"},{"town":"南寺方中通三丁目","koaza":"","lat":34.722437,"lng":135.571306,"zip":"5700045"},{"town":"南寺方中通一丁目","koaza":"","lat":34.722124,"lng":135.56665,"zip":"5700045"},{"town":"春日町","koaza":"","lat":34.731317,"lng":135.561947,"zip":"5700055"},{"town":"大宮通四丁目","koaza":"","lat":34.726563,"lng":135.575609,"zip":"5700033"},{"town":"佐太中町五丁目","koaza":"","lat":34.761046,"lng":135.586468,"zip":"5700002"},{"town":"南寺方北通二丁目","koaza":"","lat":34.724151,"lng":135.5677,"zip":"5700046"},{"town":"大宮通二丁目","koaza":"","lat":34.730543,"lng":135.57549,"zip":"5700033"},{"town":"菊水通三丁目","koaza":"","lat":34.728823,"lng":135.577992,"zip":"5700032"},{"town":"西郷通二丁目","koaza":"","lat":34.730522,"lng":135.572258,"zip":"5700034"},{"town":"寺方錦通二丁目","koaza":"","lat":34.722784,"lng":135.577267,"zip":"5700042"},{"town":"文園町","koaza":"","lat":34.729744,"lng":135.557814,"zip":"5700074"},{"town":"大宮通三丁目","koaza":"","lat":34.728732,"lng":135.575407,"zip":"5700033"},{"town":"南寺方東通三丁目","koaza":"","lat":34.721483,"lng":135.573581,"zip":"5700043"},{"town":"西郷通三丁目","koaza":"","lat":34.728541,"lng":135.572718,"zip":"5700034"},{"town":"菊水通二丁目","koaza":"","lat":34.730901,"lng":135.577934,"zip":"5700032"},{"town":"京阪本通一丁目","koaza":"","lat":34.732943,"lng":135.556892,"zip":"5700083"},{"town":"寺方元町一丁目","koaza":"","lat":34.727063,"lng":135.570576,"zip":"5700047"},{"town":"大庭町一丁目","koaza":"","lat":34.75164,"lng":135.570786,"zip":"5700009"},{"town":"大枝東町","koaza":"","lat":34.733679,"lng":135.568627,"zip":"5700036"},{"town":"東光町二丁目","koaza":"","lat":34.731498,"lng":135.568613,"zip":"5700035"},{"town":"緑町","koaza":"","lat":34.733717,"lng":135.555792,"zip":"5700084"},{"town":"南寺方南通三丁目","koaza":"","lat":34.718883,"lng":135.568412,"zip":"5700044"},{"town":"大宮通一丁目","koaza":"","lat":34.732828,"lng":135.575021,"zip":"5700033"},{"town":"東郷通二丁目","koaza":"","lat":34.72703,"lng":135.581019,"zip":"5700041"},{"town":"八雲西町二丁目","koaza":"","lat":34.745315,"lng":135.565985,"zip":"5700006"},{"town":"金田町五丁目","koaza":"","lat":34.761634,"lng":135.594018,"zip":"5700011"},{"town":"藤田町二丁目","koaza":"","lat":34.748881,"lng":135.597605,"zip":"5700014"},{"town":"佐太中町一丁目","koaza":"","lat":34.756749,"lng":135.580992,"zip":"5700002"},{"town":"東郷通三丁目","koaza":"","lat":34.724775,"lng":135.581755,"zip":"5700041"},{"town":"金田町六丁目","koaza":"","lat":34.761535,"lng":135.596113,"zip":"5700011"},{"town":"八雲中町一丁目","koaza":"","lat":34.742988,"lng":135.567937,"zip":"5700005"},{"town":"菊水通四丁目","koaza":"","lat":34.726256,"lng":135.578235,"zip":"5700032"},{"town":"東光町三丁目","koaza":"","lat":34.729023,"lng":135.569696,"zip":"5700035"},{"town":"西郷通一丁目","koaza":"","lat":34.733009,"lng":135.572496,"zip":"5700034"},{"town":"藤田町六丁目","koaza":"","lat":34.746707,"lng":135.603983,"zip":"5700014"},{"town":"南寺方東通二丁目","koaza":"","lat":34.719581,"lng":135.572286,"zip":"5700043"},{"town":"梶町二丁目","koaza":"","lat":34.750298,"lng":135.587737,"zip":"5700015"},{"town":"藤田町四丁目","koaza":"","lat":34.748938,"lng":135.600787,"zip":"5700014"},{"town":"八雲西町四丁目","koaza":"","lat":34.748509,"lng":135.56632,"zip":"5700006"},{"town":"下島町","koaza":"","lat":34.745932,"lng":135.559547,"zip":"5700007"},{"town":"八雲中町二丁目","koaza":"","lat":34.745819,"lng":135.568313,"zip":"5700005"},{"town":"佐太東町二丁目","koaza":"","lat":34.757574,"lng":135.589371,"zip":"5700017"},{"town":"藤田町三丁目","koaza":"","lat":34.746208,"lng":135.597301,"zip":"5700014"},{"town":"藤田町五丁目","koaza":"","lat":34.746566,"lng":135.600938,"zip":"5700014"},{"town":"佐太中町四丁目","koaza":"","lat":34.757779,"lng":135.586869,"zip":"5700002"},{"town":"梶町三丁目","koaza":"","lat":34.747879,"lng":135.589861,"zip":"5700015"},{"town":"大久保町三丁目","koaza":"","lat":34.75406,"lng":135.595179,"zip":"5700012"},{"town":"京阪本通二丁目","koaza":"","lat":34.736372,"lng":135.560738,"zip":"5700083"},{"town":"佐太中町七丁目","koaza":"","lat":34.763571,"lng":135.591279,"zip":"5700002"},{"town":"河原町","koaza":"","lat":34.735618,"lng":135.567038,"zip":"5700038"},{"town":"大日町三丁目","koaza":"","lat":34.753285,"lng":135.58155,"zip":"5700003"},{"town":"大久保町一丁目","koaza":"","lat":34.751241,"lng":135.59515,"zip":"5700012"},{"town":"八雲西町一丁目","koaza":"","lat":34.745586,"lng":135.563406,"zip":"5700006"},{"town":"南寺方東通五丁目","koaza":"","lat":34.719419,"lng":135.578946,"zip":"5700043"},{"town":"藤田町一丁目","koaza":"","lat":34.747823,"lng":135.594543,"zip":"5700014"},{"town":"南寺方東通六丁目","koaza":"","lat":34.719091,"lng":135.58149,"zip":"5700043"},{"town":"大久保町二丁目","koaza":"","lat":34.751307,"lng":135.599045,"zip":"5700012"},{"town":"梶町一丁目","koaza":"","lat":34.749709,"lng":135.585377,"zip":"5700015"},{"town":"南寺方東通一丁目","koaza":"","lat":34.717464,"lng":135.570625,"zip":"5700043"},{"town":"佐太中町二丁目","koaza":"","lat":34.758343,"lng":135.583785,"zip":"5700002"},{"town":"大日町二丁目","koaza":"","lat":34.75213,"lng":135.578155,"zip":"5700003"},{"town":"大日町一丁目","koaza":"","lat":34.751184,"lng":135.575924,"zip":"5700003"},{"town":"佐太東町一丁目","koaza":"","lat":34.753814,"lng":135.585888,"zip":"5700017"},{"town":"八雲中町三丁目","koaza":"","lat":34.745083,"lng":135.571119,"zip":"5700005"},{"town":"松下町","koaza":"","lat":34.727508,"lng":135.567336,"zip":"5700052"},{"town":"大久保町四丁目","koaza":"","lat":34.754333,"lng":135.598647,"zip":"5700012"},{"town":"金田町二丁目","koaza":"","lat":34.757823,"lng":135.592236,"zip":"5700011"},{"town":"佐太中町六丁目","koaza":"","lat":34.761419,"lng":135.589229,"zip":"5700002"},{"town":"金田町三丁目","koaza":"","lat":34.757644,"lng":135.595186,"zip":"5700011"},{"town":"南寺方東通四丁目","koaza":"","lat":34.719234,"lng":135.575841,"zip":"5700043"},{"town":"八雲北町二丁目","koaza":"","lat":34.751745,"lng":135.562601,"zip":"5700008"},{"town":"金田町一丁目","koaza":"","lat":34.753808,"lng":135.59071,"zip":"5700011"},{"town":"梶町四丁目","koaza":"","lat":34.750699,"lng":135.591305,"zip":"5700015"},{"town":"八雲東町二丁目","koaza":"","lat":34.745569,"lng":135.578081,"zip":"5700021"},{"town":"大久保町五丁目","koaza":"","lat":34.753218,"lng":135.60215,"zip":"5700012"},{"town":"大庭町二丁目","koaza":"","lat":34.75482,"lng":135.573467,"zip":"5700009"},{"town":"外島町","koaza":"","lat":34.74315,"lng":135.5614,"zip":"5700096"},{"town":"佐太西町二丁目","koaza":"","lat":34.764278,"lng":135.587286,"zip":"5700001"},{"town":"大日町四丁目","koaza":"","lat":34.756435,"lng":135.577087,"zip":"5700003"},{"town":"佐太西町一丁目","koaza":"","lat":34.761389,"lng":135.582639,"zip":"5700001"},{"town":"大日東町","koaza":"","lat":34.749621,"lng":135.581337,"zip":"5700016"},{"town":"淀江町","koaza":"","lat":34.750058,"lng":135.571485,"zip":"5700004"},{"town":"八雲北町一丁目","koaza":"","lat":34.750267,"lng":135.559099,"zip":"5700008"},{"town":"八雲東町一丁目","koaza":"","lat":34.743574,"lng":135.573624,"zip":"5700021"},{"town":"八雲北町三丁目","koaza":"","lat":34.753368,"lng":135.566706,"zip":"5700008"},{"town":"高瀬錯雑地","koaza":"","lat":34.713082,"lng":135.573356,"zip":"5700000"}]