[{"town":"大字須賀","koaza":"","lat":34.476926,"lng":135.575378,"zip":"5840000"},{"town":"大字西板持","koaza":"","lat":34.489038,"lng":135.595533,"zip":"5840000"},{"town":"甲田四丁目","koaza":"","lat":34.491072,"lng":135.589429,"zip":"5840036"},{"town":"大字毛人谷","koaza":"","lat":34.504649,"lng":135.59098,"zip":"5840000"},{"town":"甲田五丁目","koaza":"","lat":34.493795,"lng":135.590822,"zip":"5840036"},{"town":"津々山台五丁目","koaza":"","lat":34.493611,"lng":135.576264,"zip":"5840086"},{"town":"加太三丁目","koaza":"","lat":34.50686,"lng":135.563927,"zip":"5840078"},{"town":"緑ケ丘町","koaza":"","lat":34.510159,"lng":135.600225,"zip":"5840026"},{"town":"楠風台一丁目","koaza":"","lat":34.483886,"lng":135.597641,"zip":"5840051"},{"town":"寿町一丁目","koaza":"","lat":34.499011,"lng":135.594604,"zip":"5840031"},{"town":"大字北大伴","koaza":"","lat":34.505623,"lng":135.616204,"zip":"5840000"},{"town":"楠風台二丁目","koaza":"","lat":34.484618,"lng":135.600389,"zip":"5840051"},{"town":"甲田六丁目","koaza":"","lat":34.496067,"lng":135.591737,"zip":"5840036"},{"town":"西板持町六丁目","koaza":"","lat":34.488738,"lng":135.605619,"zip":"5840048"},{"town":"新青葉丘町","koaza":"","lat":34.505858,"lng":135.565955,"zip":"5840077"},{"town":"向陽台五丁目","koaza":"","lat":34.507902,"lng":135.58141,"zip":"5840082"},{"town":"若松町西三丁目","koaza":"","lat":34.509932,"lng":135.602763,"zip":"5840025"},{"town":"藤沢台四丁目","koaza":"","lat":34.505886,"lng":135.567712,"zip":"5840071"},{"town":"若松町三丁目","koaza":"","lat":34.50537,"lng":135.608238,"zip":"5840024"},{"town":"楠風台三丁目","koaza":"","lat":34.484973,"lng":135.603162,"zip":"5840051"},{"town":"津々山台二丁目","koaza":"","lat":34.495404,"lng":135.577934,"zip":"5840086"},{"town":"若松町西二丁目","koaza":"","lat":34.507962,"lng":135.602104,"zip":"5840025"},{"town":"中野町西一丁目","koaza":"","lat":34.511883,"lng":135.602731,"zip":"5840028"},{"town":"若松町東二丁目","koaza":"","lat":34.508586,"lng":135.611538,"zip":"5840023"},{"town":"津々山台四丁目","koaza":"","lat":34.491418,"lng":135.581494,"zip":"5840086"},{"town":"不動ケ丘町","koaza":"","lat":34.474255,"lng":135.587861,"zip":"5840064"},{"town":"錦織中二丁目","koaza":"","lat":34.478886,"lng":135.583873,"zip":"5840068"},{"town":"西板持町五丁目","koaza":"","lat":34.486997,"lng":135.602726,"zip":"5840048"},{"town":"金剛錦織台","koaza":"","lat":34.486479,"lng":135.567973,"zip":"5840070"},{"town":"山中田町三丁目","koaza":"","lat":34.492942,"lng":135.612902,"zip":"5840045"},{"town":"南大伴町二丁目","koaza":"","lat":34.498052,"lng":135.619692,"zip":"5840043"},{"town":"通法寺町","koaza":"","lat":34.524331,"lng":135.625637,"zip":"5840016"},{"town":"甲田","koaza":"","lat":34.493364,"lng":135.597259,"zip":"5840036"},{"town":"昭和町二丁目","koaza":"","lat":34.507547,"lng":135.598239,"zip":"5840092"},{"town":"谷川町","koaza":"","lat":34.497181,"lng":135.599869,"zip":"5840035"},{"town":"錦ケ丘町","koaza":"","lat":34.498392,"lng":135.589868,"zip":"5840038"},{"town":"平町一丁目","koaza":"","lat":34.525455,"lng":135.60202,"zip":"5840002"},{"town":"喜志町四丁目","koaza":"","lat":34.527814,"lng":135.609352,"zip":"5840005"},{"town":"昭和町一丁目","koaza":"","lat":34.504488,"lng":135.597598,"zip":"5840092"},{"town":"川面町二丁目","koaza":"","lat":34.516819,"lng":135.615585,"zip":"5840014"},{"town":"喜志新家町一丁目","koaza":"","lat":34.526945,"lng":135.605714,"zip":"5840003"},{"town":"小金台二丁目","koaza":"","lat":34.498607,"lng":135.581659,"zip":"5840083"},{"town":"喜志町五丁目","koaza":"","lat":34.524918,"lng":135.605533,"zip":"5840005"},{"town":"錦織中一丁目","koaza":"","lat":34.482949,"lng":135.586248,"zip":"5840068"},{"town":"別井二丁目","koaza":"","lat":34.496076,"lng":135.626661,"zip":"5840044"},{"town":"中野町西二丁目","koaza":"","lat":34.514072,"lng":135.60318,"zip":"5840028"},{"town":"中野町東一丁目","koaza":"","lat":34.512708,"lng":135.612383,"zip":"5840022"},{"town":"加太二丁目","koaza":"","lat":34.506887,"lng":135.562593,"zip":"5840078"},{"town":"北大伴町二丁目","koaza":"","lat":34.50288,"lng":135.619071,"zip":"5840042"},{"town":"津々山台三丁目","koaza":"","lat":34.493225,"lng":135.579326,"zip":"5840086"},{"town":"寿町三丁目","koaza":"","lat":34.503048,"lng":135.593857,"zip":"5840031"},{"town":"藤沢台五丁目","koaza":"","lat":34.507123,"lng":135.570111,"zip":"5840071"},{"town":"東板持町一丁目","koaza":"","lat":34.492009,"lng":135.61079,"zip":"5840046"},{"town":"若松町二丁目","koaza":"","lat":34.505421,"lng":135.604644,"zip":"5840024"},{"town":"山手町","koaza":"","lat":34.483593,"lng":135.608636,"zip":"5840047"},{"town":"別井三丁目","koaza":"","lat":34.492218,"lng":135.626582,"zip":"5840044"},{"town":"川面町一丁目","koaza":"","lat":34.518869,"lng":135.615421,"zip":"5840014"},{"town":"須賀三丁目","koaza":"","lat":34.478968,"lng":135.561355,"zip":"5840062"},{"town":"西板持町三丁目","koaza":"","lat":34.49208,"lng":135.603068,"zip":"5840048"},{"town":"南大伴町一丁目","koaza":"","lat":34.495884,"lng":135.61899,"zip":"5840043"},{"town":"青葉丘","koaza":"","lat":34.50342,"lng":135.562607,"zip":"5840076"},{"town":"小金台一丁目","koaza":"","lat":34.498777,"lng":135.583552,"zip":"5840083"},{"town":"富美ケ丘町","koaza":"","lat":34.502634,"lng":135.590333,"zip":"5840094"},{"town":"北大伴町四丁目","koaza":"","lat":34.498943,"lng":135.615637,"zip":"5840042"},{"town":"木戸山町","koaza":"","lat":34.52518,"lng":135.612747,"zip":"5840004"},{"town":"粟ケ池町","koaza":"","lat":34.516735,"lng":135.607127,"zip":"5840012"},{"town":"西板持町七丁目","koaza":"","lat":34.49209,"lng":135.605497,"zip":"5840048"},{"town":"喜志町二丁目","koaza":"","lat":34.522175,"lng":135.612206,"zip":"5840005"},{"town":"川向町","koaza":"","lat":34.498433,"lng":135.607467,"zip":"5840049"},{"town":"寿町二丁目","koaza":"","lat":34.502569,"lng":135.596043,"zip":"5840031"},{"town":"西板持町九丁目","koaza":"","lat":34.494347,"lng":135.609129,"zip":"5840048"},{"town":"廿山一丁目","koaza":"","lat":34.492021,"lng":135.576224,"zip":"5840081"},{"town":"若松町西一丁目","koaza":"","lat":34.5061,"lng":135.600542,"zip":"5840025"},{"town":"南大伴町三丁目","koaza":"","lat":34.494306,"lng":135.621396,"zip":"5840043"},{"town":"藤沢台七丁目","koaza":"","lat":34.509139,"lng":135.567641,"zip":"5840071"},{"town":"喜志新家町二丁目","koaza":"","lat":34.528389,"lng":135.605871,"zip":"5840003"},{"town":"楠町","koaza":"","lat":34.504344,"lng":135.617599,"zip":"5840041"},{"town":"かがり台","koaza":"","lat":34.492773,"lng":135.615627,"zip":"5840040"},{"town":"別井四丁目","koaza":"","lat":34.488131,"lng":135.626208,"zip":"5840044"},{"town":"旭ケ丘町","koaza":"","lat":34.522226,"lng":135.605206,"zip":"5840006"},{"town":"新家一丁目","koaza":"","lat":34.492929,"lng":135.587165,"zip":"5840085"},{"town":"西板持町八丁目","koaza":"","lat":34.493666,"lng":135.607485,"zip":"5840048"},{"town":"東板持町二丁目","koaza":"","lat":34.489764,"lng":135.609668,"zip":"5840046"},{"town":"藤沢台三丁目","koaza":"","lat":34.503072,"lng":135.568693,"zip":"5840071"},{"town":"寿町四丁目","koaza":"","lat":34.499088,"lng":135.593172,"zip":"5840031"},{"town":"東板持町三丁目","koaza":"","lat":34.487619,"lng":135.609186,"zip":"5840046"},{"town":"五軒家二丁目","koaza":"","lat":34.511445,"lng":135.562355,"zip":"5840079"},{"town":"桜井町二丁目","koaza":"","lat":34.520081,"lng":135.608268,"zip":"5840013"},{"town":"中野町二丁目","koaza":"","lat":34.512514,"lng":135.610023,"zip":"5840021"},{"town":"常盤町","koaza":"","lat":34.500731,"lng":135.598184,"zip":"5840032"},{"town":"南大伴町四丁目","koaza":"","lat":34.493047,"lng":135.618008,"zip":"5840043"},{"town":"本町","koaza":"","lat":34.503123,"lng":135.600585,"zip":"5840093"},{"town":"小金台三丁目","koaza":"","lat":34.498024,"lng":135.579813,"zip":"5840083"},{"town":"別井五丁目","koaza":"","lat":34.492143,"lng":135.623846,"zip":"5840044"},{"town":"北大伴町一丁目","koaza":"","lat":34.501691,"lng":135.615275,"zip":"5840042"},{"town":"若松町一丁目","koaza":"","lat":34.503115,"lng":135.604581,"zip":"5840024"},{"town":"桜ケ丘町","koaza":"","lat":34.494349,"lng":135.585179,"zip":"5840084"},{"town":"山中田町二丁目","koaza":"","lat":34.495074,"lng":135.612634,"zip":"5840045"},{"town":"向陽台二丁目","koaza":"","lat":34.503564,"lng":135.581339,"zip":"5840082"},{"town":"宮町二丁目","koaza":"","lat":34.519792,"lng":135.604332,"zip":"5840011"},{"town":"小金台四丁目","koaza":"","lat":34.494689,"lng":135.581782,"zip":"5840083"},{"town":"甲田三丁目","koaza":"","lat":34.490422,"lng":135.59254,"zip":"5840036"},{"town":"梅の里二丁目","koaza":"","lat":34.527998,"lng":135.596608,"zip":"5840001"},{"town":"若松町東一丁目","koaza":"","lat":34.505171,"lng":135.611573,"zip":"5840023"},{"town":"清水町","koaza":"","lat":34.502814,"lng":135.608561,"zip":"5840034"},{"town":"伏山二丁目","koaza":"","lat":34.486232,"lng":135.561935,"zip":"5840061"},{"town":"北大伴町三丁目","koaza":"","lat":34.500729,"lng":135.619792,"zip":"5840042"},{"town":"喜志町三丁目","koaza":"","lat":34.523997,"lng":135.609118,"zip":"5840005"},{"town":"若松町五丁目","koaza":"","lat":34.50883,"lng":135.605752,"zip":"5840024"},{"town":"金剛伏山台","koaza":"","lat":34.486961,"lng":135.565479,"zip":"5840065"},{"town":"美山台","koaza":"","lat":34.499288,"lng":135.58686,"zip":"5840039"},{"town":"寺池台五丁目","koaza":"","lat":34.490073,"lng":135.563263,"zip":"5840073"},{"town":"若松町四丁目","koaza":"","lat":34.508542,"lng":135.60887,"zip":"5840024"},{"town":"津々山台一丁目","koaza":"","lat":34.498896,"lng":135.577101,"zip":"5840086"},{"town":"五軒家一丁目","koaza":"","lat":34.511038,"lng":135.566022,"zip":"5840079"},{"town":"向陽台四丁目","koaza":"","lat":34.507915,"lng":135.577357,"zip":"5840082"},{"town":"平町二丁目","koaza":"","lat":34.528303,"lng":135.60068,"zip":"5840002"},{"town":"中野町一丁目","koaza":"","lat":34.512802,"lng":135.606757,"zip":"5840021"},{"town":"加太一丁目","koaza":"","lat":34.506413,"lng":135.560854,"zip":"5840078"},{"town":"錦織東二丁目","koaza":"","lat":34.482592,"lng":135.588372,"zip":"5840069"},{"town":"宮町一丁目","koaza":"","lat":34.516576,"lng":135.604079,"zip":"5840011"},{"town":"向陽台一丁目","koaza":"","lat":34.505014,"lng":135.582729,"zip":"5840082"},{"town":"中野町三丁目","koaza":"","lat":34.515509,"lng":135.610637,"zip":"5840021"},{"town":"宮甲田町","koaza":"","lat":34.495702,"lng":135.588706,"zip":"5840037"},{"town":"喜志町一丁目","koaza":"","lat":34.523129,"lng":135.615302,"zip":"5840005"},{"town":"梅の里一丁目","koaza":"","lat":34.525015,"lng":135.595731,"zip":"5840001"},{"town":"藤沢台一丁目","koaza":"","lat":34.503527,"lng":135.575996,"zip":"5840071"},{"town":"藤沢台六丁目","koaza":"","lat":34.508418,"lng":135.571844,"zip":"5840071"},{"town":"大字横山","koaza":"","lat":34.466661,"lng":135.584395,"zip":"5840000"},{"town":"西板持町二丁目","koaza":"","lat":34.496384,"lng":135.604286,"zip":"5840048"},{"town":"南旭ケ丘町","koaza":"","lat":34.51581,"lng":135.59988,"zip":"5840007"},{"town":"新家二丁目","koaza":"","lat":34.490713,"lng":135.585886,"zip":"5840085"},{"town":"甲田二丁目","koaza":"","lat":34.493234,"lng":135.594804,"zip":"5840036"},{"town":"寺池台二丁目","koaza":"","lat":34.491955,"lng":135.571344,"zip":"5840073"},{"town":"久野喜台一丁目","koaza":"","lat":34.501216,"lng":135.563124,"zip":"5840074"},{"town":"西板持町四丁目","koaza":"","lat":34.489283,"lng":135.600336,"zip":"5840048"},{"town":"藤沢台二丁目","koaza":"","lat":34.504274,"lng":135.572424,"zip":"5840071"},{"town":"向陽台三丁目","koaza":"","lat":34.503547,"lng":135.578716,"zip":"5840082"},{"town":"伏山一丁目","koaza":"","lat":34.486104,"lng":135.559454,"zip":"5840061"},{"town":"若松町東三丁目","koaza":"","lat":34.509057,"lng":135.614915,"zip":"5840023"},{"town":"伏山三丁目","koaza":"","lat":34.483122,"lng":135.563678,"zip":"5840061"},{"town":"寺池台三丁目","koaza":"","lat":34.487854,"lng":135.570693,"zip":"5840073"},{"town":"桜井町一丁目","koaza":"","lat":34.519491,"lng":135.612032,"zip":"5840013"},{"town":"錦織南二丁目","koaza":"","lat":34.474876,"lng":135.578321,"zip":"5840067"},{"town":"錦織北二丁目","koaza":"","lat":34.484373,"lng":135.584521,"zip":"5840066"},{"town":"別井一丁目","koaza":"","lat":34.497119,"lng":135.623848,"zip":"5840044"},{"town":"甲田一丁目","koaza":"","lat":34.496341,"lng":135.59631,"zip":"5840036"},{"town":"高辺台一丁目","koaza":"","lat":34.501526,"lng":135.570057,"zip":"5840072"},{"town":"中野町東二丁目","koaza":"","lat":34.513478,"lng":135.615059,"zip":"5840022"},{"town":"錦織北一丁目","koaza":"","lat":34.486997,"lng":135.586496,"zip":"5840066"},{"town":"錦織北三丁目","koaza":"","lat":34.484007,"lng":135.581023,"zip":"5840066"},{"town":"廿山二丁目","koaza":"","lat":34.491356,"lng":135.574878,"zip":"5840081"},{"town":"宮町三丁目","koaza":"","lat":34.520439,"lng":135.600596,"zip":"5840011"},{"town":"梅の里四丁目","koaza":"","lat":34.527238,"lng":135.590572,"zip":"5840001"},{"town":"錦織東三丁目","koaza":"","lat":34.475799,"lng":135.58309,"zip":"5840069"},{"town":"山中田町一丁目","koaza":"","lat":34.499226,"lng":135.611181,"zip":"5840045"},{"town":"富田林町","koaza":"","lat":34.499719,"lng":135.601991,"zip":"5840033"},{"town":"寺池台一丁目","koaza":"","lat":34.494781,"lng":135.565397,"zip":"5840073"},{"town":"須賀二丁目","koaza":"","lat":34.478689,"lng":135.565281,"zip":"5840062"},{"town":"西条町一丁目","koaza":"","lat":34.514277,"lng":135.618218,"zip":"5840015"},{"town":"高辺台二丁目","koaza":"","lat":34.497495,"lng":135.573559,"zip":"5840072"},{"town":"高辺台三丁目","koaza":"","lat":34.497037,"lng":135.569718,"zip":"5840072"},{"town":"寺池台四丁目","koaza":"","lat":34.491477,"lng":135.566881,"zip":"5840073"},{"town":"梅の里三丁目","koaza":"","lat":34.529643,"lng":135.591309,"zip":"5840001"},{"town":"錦織東一丁目","koaza":"","lat":34.48639,"lng":135.590058,"zip":"5840069"},{"town":"須賀一丁目","koaza":"","lat":34.479073,"lng":135.569524,"zip":"5840062"},{"town":"西板持町一丁目","koaza":"","lat":34.493621,"lng":135.600264,"zip":"5840048"},{"town":"錦織南一丁目","koaza":"","lat":34.479353,"lng":135.579714,"zip":"5840067"},{"town":"久野喜台二丁目","koaza":"","lat":34.497658,"lng":135.564171,"zip":"5840074"},{"town":"大字中野","koaza":"","lat":34.512425,"lng":135.596672,"zip":"5840000"},{"town":"大字廿山","koaza":"","lat":34.510892,"lng":135.572329,"zip":"5840000"},{"town":"西条町二丁目","koaza":"","lat":34.522644,"lng":135.618989,"zip":"5840015"},{"town":"大字嬉","koaza":"","lat":34.460653,"lng":135.581086,"zip":"5840000"},{"town":"大字東板持","koaza":"","lat":34.482243,"lng":135.611972,"zip":"5840000"},{"town":"大字錦織","koaza":"","lat":34.48218,"lng":135.574441,"zip":"5840000"},{"town":"大字喜志","koaza":"","lat":34.521835,"lng":135.593499,"zip":"5840000"},{"town":"大字龍泉","koaza":"","lat":34.46245,"lng":135.601502,"zip":"5840000"},{"town":"大字伏見堂","koaza":"","lat":34.462801,"lng":135.588607,"zip":"5840000"},{"town":"大字新堂","koaza":"","lat":34.51234,"lng":135.587385,"zip":"5840000"},{"town":"大字彼方","koaza":"","lat":34.477348,"lng":135.593545,"zip":"5840000"},{"town":"大字佐備","koaza":"","lat":34.469948,"lng":135.605283,"zip":"5840000"},{"town":"大字甘南備","koaza":"","lat":34.450569,"lng":135.598318,"zip":"5840000"}]