[{"town":"点野四丁目","koaza":"","lat":34.773622,"lng":135.603872,"zip":"5720077"},{"town":"北大利町","koaza":"","lat":34.768053,"lng":135.619215,"zip":"5720032"},{"town":"堀溝北町","koaza":"","lat":34.753377,"lng":135.628242,"zip":"5720810"},{"town":"池田東町","koaza":"","lat":34.768943,"lng":135.617923,"zip":"5720033"},{"town":"萱島桜園町","koaza":"","lat":34.748994,"lng":135.614246,"zip":"5720828"},{"town":"高柳栄町","koaza":"","lat":34.766599,"lng":135.610685,"zip":"5720062"},{"town":"音羽町","koaza":"","lat":34.77479,"lng":135.625121,"zip":"5720023"},{"town":"池田南町","koaza":"","lat":34.767744,"lng":135.615465,"zip":"5720034"},{"town":"御幸西町","koaza":"","lat":34.751993,"lng":135.60496,"zip":"5720056"},{"town":"郡元町","koaza":"","lat":34.782624,"lng":135.633155,"zip":"5720083"},{"town":"萱島東一丁目","koaza":"","lat":34.748823,"lng":135.615805,"zip":"5720824"},{"town":"日之出町","koaza":"","lat":34.761194,"lng":135.623706,"zip":"5720835"},{"town":"長栄寺町","koaza":"","lat":34.766527,"lng":135.613242,"zip":"5720061"},{"town":"高柳七丁目","koaza":"","lat":34.761782,"lng":135.601838,"zip":"5720051"},{"town":"萱島東二丁目","koaza":"","lat":34.748364,"lng":135.61792,"zip":"5720824"},{"town":"寝屋新町","koaza":"","lat":34.772175,"lng":135.653717,"zip":"5720852"},{"town":"池田旭町","koaza":"","lat":34.768656,"lng":135.613137,"zip":"5720035"},{"town":"河北東町","koaza":"","lat":34.730217,"lng":135.63193,"zip":"5720815"},{"town":"高倉二丁目","koaza":"","lat":34.751825,"lng":135.648591,"zip":"5720864"},{"town":"対馬江東町","koaza":"","lat":34.764595,"lng":135.605067,"zip":"5720064"},{"town":"三井が丘五丁目","koaza":"","lat":34.771273,"lng":135.639604,"zip":"5720013"},{"town":"高柳三丁目","koaza":"","lat":34.763812,"lng":135.609292,"zip":"5720051"},{"town":"菅相塚町","koaza":"","lat":34.784982,"lng":135.641542,"zip":"5720008"},{"town":"高柳一丁目","koaza":"","lat":34.76365,"lng":135.611099,"zip":"5720051"},{"town":"東大利町","koaza":"","lat":34.763454,"lng":135.618492,"zip":"5720042"},{"town":"八幡台","koaza":"","lat":34.768965,"lng":135.63857,"zip":"5720014"},{"town":"堀溝二丁目","koaza":"","lat":34.739849,"lng":135.62397,"zip":"5720814"},{"town":"香里北之町","koaza":"","lat":34.788791,"lng":135.630215,"zip":"5720080"},{"town":"三井が丘二丁目","koaza":"","lat":34.770212,"lng":135.645418,"zip":"5720013"},{"town":"境橋町","koaza":"","lat":34.776152,"lng":135.633986,"zip":"5720018"},{"town":"対馬江西町","koaza":"","lat":34.764117,"lng":135.601916,"zip":"5720065"},{"town":"高柳四丁目","koaza":"","lat":34.762203,"lng":135.607045,"zip":"5720051"},{"town":"美井町","koaza":"","lat":34.780673,"lng":135.634725,"zip":"5720007"},{"town":"出雲町","koaza":"","lat":34.757688,"lng":135.623183,"zip":"5720821"},{"town":"萱島南町","koaza":"","lat":34.745522,"lng":135.617179,"zip":"5720825"},{"town":"若葉町","koaza":"","lat":34.77056,"lng":135.61886,"zip":"5720031"},{"town":"高柳六丁目","koaza":"","lat":34.760861,"lng":135.60464,"zip":"5720051"},{"town":"川勝町","koaza":"","lat":34.767732,"lng":135.633408,"zip":"5720015"},{"town":"堀溝三丁目","koaza":"","lat":34.737884,"lng":135.624503,"zip":"5720814"},{"town":"打上高塚町","koaza":"","lat":34.755499,"lng":135.650484,"zip":"5720850"},{"town":"太間東町","koaza":"","lat":34.783903,"lng":135.615401,"zip":"5720072"},{"town":"成美町","koaza":"","lat":34.761757,"lng":135.612905,"zip":"5720046"},{"town":"明和二丁目","koaza":"","lat":34.753693,"lng":135.644946,"zip":"5720863"},{"town":"黒原旭町","koaza":"","lat":34.759174,"lng":135.601823,"zip":"5720057"},{"town":"三井が丘一丁目","koaza":"","lat":34.774032,"lng":135.644336,"zip":"5720013"},{"town":"南水苑町","koaza":"","lat":34.745262,"lng":135.613046,"zip":"5720826"},{"town":"早子町","koaza":"","lat":34.763843,"lng":135.622634,"zip":"5720837"},{"town":"萱島本町","koaza":"","lat":34.747286,"lng":135.612212,"zip":"5720827"},{"town":"新家一丁目","koaza":"","lat":34.751049,"lng":135.62812,"zip":"5720812"},{"town":"葛原新町","koaza":"","lat":34.769673,"lng":135.606542,"zip":"5720037"},{"town":"打上宮前町","koaza":"","lat":34.753812,"lng":135.652115,"zip":"5720862"},{"town":"三井が丘三丁目","koaza":"","lat":34.773575,"lng":135.641559,"zip":"5720013"},{"town":"太秦元町","koaza":"","lat":34.763145,"lng":135.635443,"zip":"5720849"},{"town":"石津東町","koaza":"","lat":34.778557,"lng":135.623313,"zip":"5720027"},{"town":"黒原新町","koaza":"","lat":34.757956,"lng":135.59852,"zip":"5720059"},{"town":"打上中町","koaza":"","lat":34.75861,"lng":135.654708,"zip":"5720857"},{"town":"黒原城内町","koaza":"","lat":34.761185,"lng":135.598702,"zip":"5720050"},{"town":"錦町","koaza":"","lat":34.761164,"lng":135.616162,"zip":"5720043"},{"town":"御幸東町","koaza":"","lat":34.751939,"lng":135.607407,"zip":"5720055"},{"town":"楠根北町","koaza":"","lat":34.755743,"lng":135.629043,"zip":"5720845"},{"town":"黒原橘町","koaza":"","lat":34.757118,"lng":135.60249,"zip":"5720058"},{"town":"香里本通町","koaza":"","lat":34.785625,"lng":135.631568,"zip":"5720082"},{"town":"香里新町","koaza":"","lat":34.785933,"lng":135.629239,"zip":"5720085"},{"town":"下神田町","koaza":"","lat":34.748494,"lng":135.609382,"zip":"5720054"},{"town":"豊野町","koaza":"","lat":34.767871,"lng":135.627703,"zip":"5720831"},{"town":"石津南町","koaza":"","lat":34.774457,"lng":135.622773,"zip":"5720024"},{"town":"池田二丁目","koaza":"","lat":34.774979,"lng":135.617323,"zip":"5720039"},{"town":"萱島信和町","koaza":"","lat":34.750128,"lng":135.612808,"zip":"5720829"},{"town":"仁和寺町","koaza":"","lat":34.76455,"lng":135.598929,"zip":"5720066"},{"town":"大利元町","koaza":"","lat":34.763266,"lng":135.615479,"zip":"5720047"},{"town":"打上南町","koaza":"","lat":34.754464,"lng":135.647393,"zip":"5720861"},{"town":"讃良西町","koaza":"","lat":34.744632,"lng":135.621917,"zip":"5720818"},{"town":"大利町","koaza":"","lat":34.766136,"lng":135.617566,"zip":"5720048"},{"town":"仁和寺本町五丁目","koaza":"","lat":34.766783,"lng":135.593153,"zip":"5720076"},{"town":"太秦東が丘","koaza":"","lat":34.763541,"lng":135.641865,"zip":"5720841"},{"town":"末広町","koaza":"","lat":34.783102,"lng":135.642471,"zip":"5720009"},{"town":"三井が丘四丁目","koaza":"","lat":34.769846,"lng":135.642408,"zip":"5720013"},{"town":"八坂町","koaza":"","lat":34.766031,"lng":135.623116,"zip":"5720838"},{"town":"春日町","koaza":"","lat":34.765742,"lng":135.607675,"zip":"5720063"},{"town":"池田三丁目","koaza":"","lat":34.775277,"lng":135.614431,"zip":"5720039"},{"town":"明徳二丁目","koaza":"","lat":34.774089,"lng":135.647914,"zip":"5720011"},{"town":"池田西町","koaza":"","lat":34.769326,"lng":135.609977,"zip":"5720036"},{"town":"田井西町","koaza":"","lat":34.778196,"lng":135.626184,"zip":"5720020"},{"town":"池田新町","koaza":"","lat":34.773341,"lng":135.611561,"zip":"5720038"},{"town":"松屋町","koaza":"","lat":34.785725,"lng":135.625011,"zip":"5720086"},{"town":"池田一丁目","koaza":"","lat":34.773425,"lng":135.619273,"zip":"5720039"},{"town":"桜木町","koaza":"","lat":34.768676,"lng":135.620698,"zip":"5720041"},{"town":"高宮新町","koaza":"","lat":34.760565,"lng":135.631626,"zip":"5720847"},{"town":"仁和寺本町四丁目","koaza":"","lat":34.766115,"lng":135.595711,"zip":"5720076"},{"town":"石津元町","koaza":"","lat":34.777013,"lng":135.6191,"zip":"5720025"},{"town":"堀溝一丁目","koaza":"","lat":34.741874,"lng":135.624041,"zip":"5720814"},{"town":"石津中町","koaza":"","lat":34.778686,"lng":135.6208,"zip":"5720026"},{"town":"葛原二丁目","koaza":"","lat":34.770527,"lng":135.602942,"zip":"5720075"},{"town":"明徳一丁目","koaza":"","lat":34.774657,"lng":135.650379,"zip":"5720011"},{"town":"昭栄町","koaza":"","lat":34.75747,"lng":135.625429,"zip":"5720834"},{"town":"池の瀬町","koaza":"","lat":34.771462,"lng":135.646986,"zip":"5720012"},{"town":"上神田二丁目","koaza":"","lat":34.755888,"lng":135.608185,"zip":"5720052"},{"town":"点野二丁目","koaza":"","lat":34.778837,"lng":135.608887,"zip":"5720077"},{"town":"高倉一丁目","koaza":"","lat":34.750846,"lng":135.647245,"zip":"5720864"},{"town":"小路南町","koaza":"","lat":34.750596,"lng":135.637027,"zip":"5720866"},{"town":"小路北町","koaza":"","lat":34.752434,"lng":135.638882,"zip":"5720865"},{"town":"明和一丁目","koaza":"","lat":34.752871,"lng":135.642805,"zip":"5720863"},{"town":"大成町","koaza":"","lat":34.751253,"lng":135.625222,"zip":"5720819"},{"town":"萱島東三丁目","koaza":"","lat":34.746044,"lng":135.620591,"zip":"5720824"},{"town":"成田南町","koaza":"","lat":34.776868,"lng":135.643831,"zip":"5720003"},{"town":"中神田町","koaza":"","lat":34.752116,"lng":135.610929,"zip":"5720053"},{"town":"池田北町","koaza":"","lat":34.780564,"lng":135.61552,"zip":"5720073"},{"town":"点野六丁目","koaza":"","lat":34.775631,"lng":135.599118,"zip":"5720077"},{"town":"香里西之町","koaza":"","lat":34.788895,"lng":135.626557,"zip":"5720089"},{"town":"平池町","koaza":"","lat":34.769935,"lng":135.623743,"zip":"5720839"},{"town":"高柳二丁目","koaza":"","lat":34.760173,"lng":135.609659,"zip":"5720051"},{"town":"本町","koaza":"","lat":34.765445,"lng":135.627405,"zip":"5720832"},{"town":"美井元町","koaza":"","lat":34.778413,"lng":135.634234,"zip":"5720006"},{"town":"清水町","koaza":"","lat":34.75811,"lng":135.614479,"zip":"5720044"},{"town":"成田西町","koaza":"","lat":34.778575,"lng":135.638196,"zip":"5720005"},{"town":"高柳五丁目","koaza":"","lat":34.75824,"lng":135.606548,"zip":"5720051"},{"town":"仁和寺本町二丁目","koaza":"","lat":34.769928,"lng":135.597381,"zip":"5720076"},{"town":"太秦緑が丘","koaza":"","lat":34.760667,"lng":135.636107,"zip":"5720844"},{"town":"宝町","koaza":"","lat":34.767227,"lng":135.60393,"zip":"5720067"},{"town":"初町","koaza":"","lat":34.76175,"lng":135.62669,"zip":"5720833"},{"town":"寝屋二丁目","koaza":"","lat":34.768925,"lng":135.659827,"zip":"5720801"},{"town":"太秦中町","koaza":"","lat":34.762576,"lng":135.638594,"zip":"5720843"},{"town":"香里南之町","koaza":"","lat":34.783031,"lng":135.630098,"zip":"5720084"},{"town":"梅が丘一丁目","koaza":"","lat":34.75255,"lng":135.654472,"zip":"5720803"},{"town":"新家二丁目","koaza":"","lat":34.747577,"lng":135.628515,"zip":"5720812"},{"town":"打上新町","koaza":"","lat":34.756867,"lng":135.64678,"zip":"5720859"},{"town":"中木田町","koaza":"","lat":34.757146,"lng":135.619562,"zip":"5720820"},{"town":"大谷町","koaza":"","lat":34.763423,"lng":135.659369,"zip":"5720853"},{"town":"楠根南町","koaza":"","lat":34.752271,"lng":135.631607,"zip":"5720811"},{"town":"宇谷町","koaza":"","lat":34.767077,"lng":135.647051,"zip":"5720856"},{"town":"高宮栄町","koaza":"","lat":34.759633,"lng":135.629047,"zip":"5720846"},{"town":"木屋町","koaza":"","lat":34.788197,"lng":135.622062,"zip":"5720087"},{"town":"緑町","koaza":"","lat":34.774152,"lng":135.628463,"zip":"5720022"},{"town":"上神田一丁目","koaza":"","lat":34.756537,"lng":135.610922,"zip":"5720052"},{"town":"池田本町","koaza":"","lat":34.771277,"lng":135.614245,"zip":"5720030"},{"town":"東神田町","koaza":"","lat":34.754521,"lng":135.614996,"zip":"5720045"},{"town":"讃良東町","koaza":"","lat":34.746199,"lng":135.625493,"zip":"5720813"},{"town":"木田町","koaza":"","lat":34.76056,"lng":135.620738,"zip":"5720836"},{"town":"東香里園町","koaza":"","lat":34.783278,"lng":135.637351,"zip":"5720081"},{"town":"日新町","koaza":"","lat":34.783038,"lng":135.622854,"zip":"5720028"},{"town":"点野三丁目","koaza":"","lat":34.777045,"lng":135.605031,"zip":"5720077"},{"town":"仁和寺本町三丁目","koaza":"","lat":34.76761,"lng":135.599164,"zip":"5720076"},{"town":"成田東町","koaza":"","lat":34.782121,"lng":135.646532,"zip":"5720001"},{"town":"葛原一丁目","koaza":"","lat":34.77341,"lng":135.607123,"zip":"5720075"},{"town":"成田東が丘","koaza":"","lat":34.778536,"lng":135.648067,"zip":"5720002"},{"town":"木田元宮二丁目","koaza":"","lat":34.754217,"lng":135.618724,"zip":"5720822"},{"town":"点野五丁目","koaza":"","lat":34.773612,"lng":135.601119,"zip":"5720077"},{"town":"木田元宮一丁目","koaza":"","lat":34.753549,"lng":135.623211,"zip":"5720822"},{"town":"寝屋南一丁目","koaza":"","lat":34.763603,"lng":135.649337,"zip":"5720855"},{"town":"田井町","koaza":"","lat":34.777995,"lng":135.629732,"zip":"5720021"},{"town":"寿町","koaza":"","lat":34.78227,"lng":135.626962,"zip":"5720029"},{"town":"高宮二丁目","koaza":"","lat":34.755761,"lng":135.636988,"zip":"5720806"},{"town":"成田町","koaza":"","lat":34.779182,"lng":135.641692,"zip":"5720004"},{"town":"仁和寺本町一丁目","koaza":"","lat":34.772379,"lng":135.595444,"zip":"5720076"},{"town":"寝屋北町","koaza":"","lat":34.773515,"lng":135.656814,"zip":"5720851"},{"town":"仁和寺本町六丁目","koaza":"","lat":34.768214,"lng":135.590525,"zip":"5720076"},{"town":"下木田町","koaza":"","lat":34.749694,"lng":135.621598,"zip":"5720823"},{"town":"豊里町","koaza":"","lat":34.782802,"lng":135.618636,"zip":"5720071"},{"town":"高宮一丁目","koaza":"","lat":34.754462,"lng":135.633841,"zip":"5720806"},{"town":"幸町","koaza":"","lat":34.77083,"lng":135.628198,"zip":"5720017"},{"town":"高宮あさひ丘","koaza":"","lat":34.757041,"lng":135.639415,"zip":"5720867"},{"town":"秦町","koaza":"","lat":34.764474,"lng":135.631974,"zip":"5720848"},{"town":"河北西町","koaza":"","lat":34.732662,"lng":135.623176,"zip":"5720817"},{"town":"寝屋一丁目","koaza":"","lat":34.770409,"lng":135.654101,"zip":"5720801"},{"town":"池田中町","koaza":"","lat":34.777215,"lng":135.612764,"zip":"5720074"},{"town":"三井南町","koaza":"","lat":34.774267,"lng":135.635936,"zip":"5720019"},{"town":"寝屋南二丁目","koaza":"","lat":34.767223,"lng":135.651817,"zip":"5720855"},{"town":"太間町","koaza":"","lat":34.786502,"lng":135.613555,"zip":"5720078"},{"town":"梅が丘二丁目","koaza":"","lat":34.749161,"lng":135.655388,"zip":"5720803"},{"town":"打上元町","koaza":"","lat":34.755363,"lng":135.655921,"zip":"5720858"},{"town":"点野一丁目","koaza":"","lat":34.780231,"lng":135.605127,"zip":"5720077"},{"town":"太秦桜が丘","koaza":"","lat":34.766394,"lng":135.642794,"zip":"5720840"},{"town":"国松町","koaza":"","lat":34.770797,"lng":135.634971,"zip":"5720016"},{"town":"木屋元町","koaza":"","lat":34.788573,"lng":135.617539,"zip":"5720088"},{"town":"河北中町","koaza":"","lat":34.731412,"lng":135.628032,"zip":"5720816"},{"town":"太秦高塚町","koaza":"","lat":34.75999,"lng":135.644973,"zip":"5720842"},{"town":"寝屋川公園","koaza":"","lat":34.762309,"lng":135.653646,"zip":"5720854"}]