[{"town":"下池田町","koaza":"","lat":34.46597,"lng":135.404787,"zip":"5960811"},{"town":"門前町三丁目","koaza":"","lat":34.440595,"lng":135.404228,"zip":"5960828"},{"town":"魚屋町","koaza":"","lat":34.463581,"lng":135.371375,"zip":"5960071"},{"town":"春木元町","koaza":"","lat":34.479903,"lng":135.385085,"zip":"5960032"},{"town":"中町","koaza":"","lat":34.460455,"lng":135.368033,"zip":"5960075"},{"town":"下野町四丁目","koaza":"","lat":34.469924,"lng":135.378465,"zip":"5960041"},{"town":"春木宮本町","koaza":"","lat":34.481512,"lng":135.385587,"zip":"5960025"},{"town":"大町一丁目","koaza":"","lat":34.468017,"lng":135.408389,"zip":"5960812"},{"town":"春木中町","koaza":"","lat":34.478422,"lng":135.385683,"zip":"5960033"},{"town":"極楽寺町一丁目","koaza":"","lat":34.437549,"lng":135.385263,"zip":"5960832"},{"town":"春木大国町","koaza":"","lat":34.482578,"lng":135.383258,"zip":"5960026"},{"town":"中之浜町","koaza":"","lat":34.461637,"lng":135.366447,"zip":"5960065"},{"town":"春木北浜町","koaza":"","lat":34.480016,"lng":135.381394,"zip":"5960037"},{"town":"大手町","koaza":"","lat":34.463312,"lng":135.367572,"zip":"5960063"},{"town":"紙屋町","koaza":"","lat":34.462486,"lng":135.367075,"zip":"5960064"},{"town":"中北町","koaza":"","lat":34.46397,"lng":135.368146,"zip":"5960062"},{"town":"下野町五丁目","koaza":"","lat":34.468057,"lng":135.378271,"zip":"5960041"},{"town":"堺町","koaza":"","lat":34.462303,"lng":135.371457,"zip":"5960072"},{"town":"岸野町","koaza":"","lat":34.470472,"lng":135.376284,"zip":"5960051"},{"town":"五軒屋町","koaza":"","lat":34.463003,"lng":135.374798,"zip":"5960055"},{"town":"筋海町","koaza":"","lat":34.46336,"lng":135.3765,"zip":"5960057"},{"town":"畑町四丁目","koaza":"","lat":34.440721,"lng":135.390599,"zip":"5960831"},{"town":"上白原町","koaza":"","lat":34.408891,"lng":135.425957,"zip":"5960111"},{"town":"門前町一丁目","koaza":"","lat":34.442593,"lng":135.399568,"zip":"5960828"},{"town":"大工町","koaza":"","lat":34.460628,"lng":135.365744,"zip":"5960066"},{"town":"下野町三丁目","koaza":"","lat":34.471243,"lng":135.378777,"zip":"5960041"},{"town":"春木南浜町","koaza":"","lat":34.47849,"lng":135.380738,"zip":"5960036"},{"town":"本町","koaza":"","lat":34.460246,"lng":135.368827,"zip":"5960074"},{"town":"土生町一丁目","koaza":"","lat":34.453069,"lng":135.381861,"zip":"5960825"},{"town":"作才町一丁目","koaza":"","lat":34.454388,"lng":135.384164,"zip":"5960826"},{"town":"野田町三丁目","koaza":"","lat":34.455501,"lng":135.382033,"zip":"5960076"},{"town":"尾生町七丁目","koaza":"","lat":34.444639,"lng":135.414446,"zip":"5960816"},{"town":"極楽寺町二丁目","koaza":"","lat":34.438891,"lng":135.387442,"zip":"5960832"},{"town":"行遇町","koaza":"","lat":34.43815,"lng":135.392022,"zip":"5960836"},{"town":"吉井町四丁目","koaza":"","lat":34.482357,"lng":135.401595,"zip":"5960002"},{"town":"春木宮川町","koaza":"","lat":34.479857,"lng":135.387644,"zip":"5960024"},{"town":"門前町二丁目","koaza":"","lat":34.440126,"lng":135.403316,"zip":"5960828"},{"town":"土生町九丁目","koaza":"","lat":34.447207,"lng":135.388069,"zip":"5960825"},{"town":"春木大小路町","koaza":"","lat":34.481229,"lng":135.38238,"zip":"5960031"},{"town":"天神山町三丁目","koaza":"","lat":34.427362,"lng":135.400508,"zip":"5960834"},{"town":"戎町","koaza":"","lat":34.484237,"lng":135.387234,"zip":"5960022"},{"town":"春木本町","koaza":"","lat":34.477505,"lng":135.38528,"zip":"5960034"},{"town":"大町","koaza":"","lat":34.464635,"lng":135.407765,"zip":"5960812"},{"town":"八阪町二丁目","koaza":"","lat":34.45696,"lng":135.389853,"zip":"5960049"},{"town":"別所町一丁目","koaza":"","lat":34.461039,"lng":135.381475,"zip":"5960045"},{"town":"天神山町二丁目","koaza":"","lat":34.42916,"lng":135.398418,"zip":"5960834"},{"town":"加守町三丁目","koaza":"","lat":34.474419,"lng":135.38794,"zip":"5960042"},{"town":"大町三丁目","koaza":"","lat":34.467049,"lng":135.409576,"zip":"5960812"},{"town":"宮前町","koaza":"","lat":34.469279,"lng":135.388415,"zip":"5960043"},{"town":"吉井町二丁目","koaza":"","lat":34.481864,"lng":135.397802,"zip":"5960002"},{"town":"北町","koaza":"","lat":34.465025,"lng":135.373659,"zip":"5960056"},{"town":"加守町二丁目","koaza":"","lat":34.471508,"lng":135.385794,"zip":"5960042"},{"town":"八阪町一丁目","koaza":"","lat":34.458498,"lng":135.389338,"zip":"5960049"},{"town":"畑町三丁目","koaza":"","lat":34.441408,"lng":135.386997,"zip":"5960831"},{"town":"土生町八丁目","koaza":"","lat":34.444883,"lng":135.389301,"zip":"5960825"},{"town":"大北町","koaza":"","lat":34.465679,"lng":135.367914,"zip":"5960061"},{"town":"野田町一丁目","koaza":"","lat":34.458643,"lng":135.377928,"zip":"5960076"},{"town":"下松町二丁目","koaza":"","lat":34.456937,"lng":135.394278,"zip":"5960823"},{"town":"加守町一丁目","koaza":"","lat":34.47414,"lng":135.383811,"zip":"5960042"},{"town":"磯上町二丁目","koaza":"","lat":34.4867,"lng":135.388681,"zip":"5960001"},{"town":"下池田町二丁目","koaza":"","lat":34.47124,"lng":135.403986,"zip":"5960811"},{"town":"藤井町一丁目","koaza":"","lat":34.465665,"lng":135.38422,"zip":"5960046"},{"town":"別所町二丁目","koaza":"","lat":34.459366,"lng":135.383492,"zip":"5960045"},{"town":"吉井町一丁目","koaza":"","lat":34.480092,"lng":135.397319,"zip":"5960002"},{"town":"尾生町六丁目","koaza":"","lat":34.447678,"lng":135.415675,"zip":"5960816"},{"town":"土生町十三丁目","koaza":"","lat":34.443802,"lng":135.393979,"zip":"5960825"},{"town":"吉井町三丁目","koaza":"","lat":34.484414,"lng":135.398169,"zip":"5960002"},{"town":"野田町二丁目","koaza":"","lat":34.456767,"lng":135.380159,"zip":"5960076"},{"town":"葛城町","koaza":"","lat":34.435875,"lng":135.406648,"zip":"5960824"},{"town":"藤井町三丁目","koaza":"","lat":34.462498,"lng":135.387626,"zip":"5960046"},{"town":"中井町一丁目","koaza":"","lat":34.477011,"lng":135.401779,"zip":"5960003"},{"town":"尾生町四丁目","koaza":"","lat":34.448222,"lng":135.41226,"zip":"5960816"},{"town":"箕土路町二丁目","koaza":"","lat":34.47391,"lng":135.40907,"zip":"5960801"},{"town":"中井町二丁目","koaza":"","lat":34.47996,"lng":135.403383,"zip":"5960003"},{"town":"中井町三丁目","koaza":"","lat":34.477922,"lng":135.40634,"zip":"5960003"},{"town":"宮本町","koaza":"","lat":34.460242,"lng":135.376112,"zip":"5960054"},{"town":"磯上町五丁目","koaza":"","lat":34.489966,"lng":135.390257,"zip":"5960001"},{"town":"大町四丁目","koaza":"","lat":34.46555,"lng":135.412014,"zip":"5960812"},{"town":"藤井町二丁目","koaza":"","lat":34.463843,"lng":135.385049,"zip":"5960046"},{"town":"磯上町四丁目","koaza":"","lat":34.486898,"lng":135.394445,"zip":"5960001"},{"town":"尾生町三丁目","koaza":"","lat":34.450417,"lng":135.410667,"zip":"5960816"},{"town":"下松町一丁目","koaza":"","lat":34.459451,"lng":135.394041,"zip":"5960823"},{"town":"下池田町一丁目","koaza":"","lat":34.468518,"lng":135.402003,"zip":"5960811"},{"town":"下池田町三丁目","koaza":"","lat":34.469342,"lng":135.406198,"zip":"5960811"},{"town":"箕土路町三丁目","koaza":"","lat":34.472742,"lng":135.410948,"zip":"5960801"},{"town":"天神山町一丁目","koaza":"","lat":34.429986,"lng":135.395584,"zip":"5960834"},{"town":"尾生町五丁目","koaza":"","lat":34.452035,"lng":135.412761,"zip":"5960816"},{"town":"松風町","koaza":"","lat":34.485261,"lng":135.383442,"zip":"5960021"},{"town":"磯上町六丁目","koaza":"","lat":34.492167,"lng":135.385752,"zip":"5960001"},{"town":"箕土路町一丁目","koaza":"","lat":34.474883,"lng":135.406832,"zip":"5960801"},{"town":"八田町","koaza":"","lat":34.431166,"lng":135.401562,"zip":"5960841"},{"town":"沼町","koaza":"","lat":34.463532,"lng":135.379506,"zip":"5960053"},{"town":"磯上町一丁目","koaza":"","lat":34.484871,"lng":135.392373,"zip":"5960001"},{"town":"上野町東","koaza":"","lat":34.467834,"lng":135.383062,"zip":"5960047"},{"town":"並松町","koaza":"","lat":34.467652,"lng":135.375191,"zip":"5960052"},{"town":"真上町","koaza":"","lat":34.429288,"lng":135.404376,"zip":"5960842"},{"town":"春木泉町","koaza":"","lat":34.476405,"lng":135.381357,"zip":"5960035"},{"town":"港緑町","koaza":"","lat":34.468514,"lng":135.371813,"zip":"5960014"},{"town":"磯上町三丁目","koaza":"","lat":34.488622,"lng":135.385408,"zip":"5960001"},{"town":"上野町西","koaza":"","lat":34.469448,"lng":135.381046,"zip":"5960048"},{"town":"東大路町","koaza":"","lat":34.469127,"lng":135.416538,"zip":"5960803"},{"town":"八幡町","koaza":"","lat":34.48195,"lng":135.389206,"zip":"5960023"},{"town":"別所町三丁目","koaza":"","lat":34.458775,"lng":135.387054,"zip":"5960045"},{"town":"南町","koaza":"","lat":34.457177,"lng":135.365363,"zip":"5960067"},{"town":"荒木町一丁目","koaza":"","lat":34.47256,"lng":135.397452,"zip":"5960004"},{"town":"加守町四丁目","koaza":"","lat":34.472489,"lng":135.391546,"zip":"5960042"},{"town":"西大路町","koaza":"","lat":34.470049,"lng":135.413065,"zip":"5960802"},{"town":"荒木町二丁目","koaza":"","lat":34.474547,"lng":135.400432,"zip":"5960004"},{"town":"南上町一丁目","koaza":"","lat":34.454688,"lng":135.369758,"zip":"5960078"},{"town":"岸城町","koaza":"","lat":34.4588,"lng":135.371513,"zip":"5960073"},{"town":"春木旭町","koaza":"","lat":34.477285,"lng":135.395126,"zip":"5960005"},{"town":"春木若松町","koaza":"","lat":34.479087,"lng":135.390921,"zip":"5960006"},{"town":"東ケ丘町","koaza":"","lat":34.458921,"lng":135.438204,"zip":"5960807"},{"town":"極楽寺町","koaza":"","lat":34.435511,"lng":135.386542,"zip":"5960832"},{"town":"今木町","koaza":"","lat":34.466023,"lng":135.419259,"zip":"5960804"},{"town":"新港町","koaza":"","lat":34.480369,"lng":135.37673,"zip":"5960012"},{"town":"神須屋町","koaza":"","lat":34.437286,"lng":135.396504,"zip":"5960833"},{"town":"田治米町","koaza":"","lat":34.463172,"lng":135.425636,"zip":"5960805"},{"town":"摩湯町","koaza":"","lat":34.465972,"lng":135.431538,"zip":"5960806"},{"town":"岸之浦町","koaza":"","lat":34.473181,"lng":135.35552,"zip":"5960016"},{"town":"臨海町","koaza":"","lat":34.475541,"lng":135.369824,"zip":"5960013"},{"town":"西之内町","koaza":"","lat":34.466285,"lng":135.391451,"zip":"5960044"},{"town":"地蔵浜町","koaza":"","lat":34.465318,"lng":135.36172,"zip":"5960015"},{"town":"池尻町","koaza":"","lat":34.459196,"lng":135.412778,"zip":"5960813"},{"town":"小松里町","koaza":"","lat":34.463569,"lng":135.401843,"zip":"5960821"},{"town":"山直中町","koaza":"","lat":34.440072,"lng":135.436584,"zip":"5960102"},{"town":"積川町","koaza":"","lat":34.4227,"lng":135.44724,"zip":"5960104"},{"town":"神於町","koaza":"","lat":34.410502,"lng":135.425653,"zip":"5960112"},{"town":"包近町","koaza":"","lat":34.443432,"lng":135.430626,"zip":"5960101"},{"town":"木材町","koaza":"","lat":34.490833,"lng":135.38109,"zip":"5960011"},{"town":"流木町","koaza":"","lat":34.429781,"lng":135.390034,"zip":"5960835"},{"town":"三田町","koaza":"","lat":34.452109,"lng":135.433065,"zip":"5960808"},{"town":"阿間河滝町","koaza":"","lat":34.418656,"lng":135.403705,"zip":"5960845"},{"town":"岡山町","koaza":"","lat":34.450504,"lng":135.421082,"zip":"5960814"},{"town":"相川町","koaza":"","lat":34.389625,"lng":135.425209,"zip":"5960115"},{"town":"塔原町","koaza":"","lat":34.365334,"lng":135.434373,"zip":"5960116"},{"town":"河合町","koaza":"","lat":34.395617,"lng":135.41513,"zip":"5960113"},{"town":"内畑町","koaza":"","lat":34.410707,"lng":135.442641,"zip":"5960105"},{"town":"大沢町","koaza":"","lat":34.377318,"lng":135.450351,"zip":"5960114"},{"town":"上松町一丁目","koaza":"","lat":34.453335,"lng":135.390823,"zip":"5960827"},{"town":"下野町一丁目","koaza":"","lat":34.473772,"lng":135.38145,"zip":"5960041"},{"town":"下野町二丁目","koaza":"","lat":34.473251,"lng":135.378539,"zip":"5960041"},{"town":"三ケ山町","koaza":"","lat":34.433097,"lng":135.424033,"zip":"5960815"},{"town":"岸の丘町三丁目","koaza":"","lat":34.424732,"lng":135.427414,"zip":"5960817"},{"town":"岸の丘町二丁目","koaza":"","lat":34.426408,"lng":135.430541,"zip":"5960817"},{"town":"岸の丘町一丁目","koaza":"","lat":34.432625,"lng":135.430227,"zip":"5960817"},{"town":"稲葉町","koaza":"","lat":34.429305,"lng":135.435085,"zip":"5960103"},{"town":"作才町","koaza":"","lat":34.451452,"lng":135.38799,"zip":"5960826"},{"town":"土生町","koaza":"","lat":34.447492,"lng":135.39107,"zip":"5960825"},{"town":"南上町二丁目","koaza":"","lat":34.452178,"lng":135.373765,"zip":"5960078"},{"town":"上町","koaza":"","lat":34.455156,"lng":135.376029,"zip":"5960077"},{"town":"畑町一丁目","koaza":"","lat":34.440173,"lng":135.383343,"zip":"5960831"},{"town":"畑町","koaza":"","lat":34.430019,"lng":135.382865,"zip":"5960831"},{"town":"土生町三丁目","koaza":"","lat":34.450388,"lng":135.383927,"zip":"5960825"},{"town":"土生町四丁目","koaza":"","lat":34.448213,"lng":135.385632,"zip":"5960825"},{"town":"土生町二丁目","koaza":"","lat":34.449791,"lng":135.379248,"zip":"5960825"},{"town":"土生町五丁目","koaza":"","lat":34.445729,"lng":135.382438,"zip":"5960825"},{"town":"額原町","koaza":"","lat":34.456951,"lng":135.40199,"zip":"5960822"},{"town":"下松町三丁目","koaza":"","lat":34.456161,"lng":135.396307,"zip":"5960823"},{"town":"下松町","koaza":"","lat":34.448635,"lng":135.404139,"zip":"5960823"},{"town":"下松町四丁目","koaza":"","lat":34.454972,"lng":135.396649,"zip":"5960823"},{"town":"八阪町三丁目","koaza":"","lat":34.455925,"lng":135.391458,"zip":"5960049"},{"town":"上松町二丁目","koaza":"","lat":34.453105,"lng":135.392379,"zip":"5960827"},{"town":"上松町四丁目","koaza":"","lat":34.452405,"lng":135.393942,"zip":"5960827"},{"town":"上松町三丁目","koaza":"","lat":34.451203,"lng":135.392477,"zip":"5960827"},{"town":"上松町","koaza":"","lat":34.449342,"lng":135.397626,"zip":"5960827"},{"town":"白原町","koaza":"","lat":34.422025,"lng":135.418155,"zip":"5960000"},{"town":"北阪町","koaza":"","lat":34.418081,"lng":135.417073,"zip":"5960843"},{"town":"尾生町","koaza":"","lat":34.432404,"lng":135.411931,"zip":"5960816"},{"town":"土生滝町","koaza":"","lat":34.422921,"lng":135.411935,"zip":"5960844"},{"town":"土生町七丁目","koaza":"","lat":34.442603,"lng":135.390644,"zip":"5960825"},{"town":"上松町五丁目","koaza":"","lat":34.450646,"lng":135.394794,"zip":"5960827"},{"town":"尾生町二丁目","koaza":"","lat":34.446596,"lng":135.408618,"zip":"5960816"},{"town":"土生町十二丁目","koaza":"","lat":null,"lng":null,"zip":null}]