[{"town":"西堤楠町一丁目","koaza":"","lat":34.671693,"lng":135.576378,"zip":"5770047"},{"town":"横枕南","koaza":"","lat":34.677834,"lng":135.607255,"zip":"5780955"},{"town":"三ノ瀬三丁目","koaza":"","lat":34.659556,"lng":135.567182,"zip":"5770849"},{"town":"御厨五丁目","koaza":"","lat":34.671177,"lng":135.589238,"zip":"5770032"},{"town":"足代南二丁目","koaza":"","lat":34.6609,"lng":135.564772,"zip":"5770842"},{"town":"三ノ瀬二丁目","koaza":"","lat":34.659112,"lng":135.566061,"zip":"5770849"},{"town":"西堤西","koaza":"","lat":34.676899,"lng":135.574458,"zip":"5770048"},{"town":"上小阪一丁目","koaza":"","lat":34.654916,"lng":135.581314,"zip":"5770806"},{"town":"藤戸新田二丁目","koaza":"","lat":34.673677,"lng":135.58872,"zip":"5770017"},{"town":"寺前町一丁目","koaza":"","lat":34.656753,"lng":135.565971,"zip":"5770845"},{"town":"長田東五丁目","koaza":"","lat":34.684572,"lng":135.593365,"zip":"5770012"},{"town":"西堤学園町一丁目","koaza":"","lat":34.671105,"lng":135.582058,"zip":"5770044"},{"town":"俊徳町一丁目","koaza":"","lat":34.657259,"lng":135.570766,"zip":"5770831"},{"town":"大蓮北一丁目","koaza":"","lat":34.639363,"lng":135.578444,"zip":"5770826"},{"town":"御厨西ノ町一丁目","koaza":"","lat":34.672031,"lng":135.583199,"zip":"5770037"},{"town":"寺前町二丁目","koaza":"","lat":34.654235,"lng":135.566456,"zip":"5770845"},{"town":"西堤楠町二丁目","koaza":"","lat":34.6735,"lng":135.576234,"zip":"5770047"},{"town":"徳庵本町","koaza":"","lat":34.694099,"lng":135.582237,"zip":"5770001"},{"town":"東上小阪","koaza":"","lat":34.65319,"lng":135.591301,"zip":"5770812"},{"town":"岸田堂西一丁目","koaza":"","lat":34.65537,"lng":135.560721,"zip":"5770848"},{"town":"高井田西五丁目","koaza":"","lat":34.677395,"lng":135.564409,"zip":"5770067"},{"town":"高井田本通五丁目","koaza":"","lat":34.676846,"lng":135.5662,"zip":"5770066"},{"town":"長田中五丁目","koaza":"","lat":34.684473,"lng":135.5903,"zip":"5770013"},{"town":"御厨二丁目","koaza":"","lat":34.674304,"lng":135.584939,"zip":"5770032"},{"town":"御厨西ノ町二丁目","koaza":"","lat":34.676057,"lng":135.583363,"zip":"5770037"},{"town":"西堤二丁目","koaza":"","lat":34.678132,"lng":135.580364,"zip":"5770042"},{"town":"瓜生堂三丁目","koaza":"","lat":34.663047,"lng":135.59662,"zip":"5780946"},{"town":"岸田堂北町","koaza":"","lat":34.656429,"lng":135.564328,"zip":"5770846"},{"town":"俊徳町三丁目","koaza":"","lat":34.655241,"lng":135.57191,"zip":"5770831"},{"town":"御厨四丁目","koaza":"","lat":34.671484,"lng":135.587605,"zip":"5770032"},{"town":"俊徳町二丁目","koaza":"","lat":34.65625,"lng":135.571164,"zip":"5770831"},{"town":"高井田本通三丁目","koaza":"","lat":34.673968,"lng":135.56606,"zip":"5770066"},{"town":"足代二丁目","koaza":"","lat":34.662566,"lng":135.563804,"zip":"5770841"},{"town":"太平寺一丁目","koaza":"","lat":34.656772,"lng":135.567891,"zip":"5770844"},{"town":"新家一丁目","koaza":"","lat":34.672488,"lng":135.591169,"zip":"5770025"},{"town":"高井田西四丁目","koaza":"","lat":34.67559,"lng":135.564179,"zip":"5770067"},{"town":"長田中一丁目","koaza":"","lat":34.678071,"lng":135.589902,"zip":"5770013"},{"town":"金岡二丁目","koaza":"","lat":34.639162,"lng":135.584034,"zip":"5770823"},{"town":"足代南一丁目","koaza":"","lat":34.659867,"lng":135.562371,"zip":"5770842"},{"town":"長田西三丁目","koaza":"","lat":34.679639,"lng":135.58355,"zip":"5770016"},{"town":"御厨南一丁目","koaza":"","lat":34.666184,"lng":135.587872,"zip":"5770034"},{"town":"若江北町一丁目","koaza":"","lat":34.660565,"lng":135.600453,"zip":"5780945"},{"town":"長田一丁目","koaza":"","lat":34.676001,"lng":135.586015,"zip":"5770015"},{"town":"中野二丁目","koaza":"","lat":34.682402,"lng":135.612094,"zip":"5780913"},{"town":"宝持二丁目","koaza":"","lat":34.654809,"lng":135.588224,"zip":"5770805"},{"town":"高井田本通六丁目","koaza":"","lat":34.67688,"lng":135.567788,"zip":"5770066"},{"town":"高井田本通一丁目","koaza":"","lat":34.670764,"lng":135.565908,"zip":"5770066"},{"town":"西堤学園町二丁目","koaza":"","lat":34.673512,"lng":135.58193,"zip":"5770044"},{"town":"足代三丁目","koaza":"","lat":34.662477,"lng":135.565426,"zip":"5770841"},{"town":"中野南","koaza":"","lat":34.677424,"lng":135.609178,"zip":"5780985"},{"town":"小若江四丁目","koaza":"","lat":34.652194,"lng":135.583613,"zip":"5770818"},{"town":"長田西五丁目","koaza":"","lat":34.681225,"lng":135.583559,"zip":"5770016"},{"town":"西堤本通西二丁目","koaza":"","lat":34.673334,"lng":135.578152,"zip":"5770046"},{"town":"宝持一丁目","koaza":"","lat":34.656388,"lng":135.587004,"zip":"5770805"},{"town":"新家東町","koaza":"","lat":34.674793,"lng":135.596214,"zip":"5770026"},{"town":"西堤本通西三丁目","koaza":"","lat":34.676016,"lng":135.577962,"zip":"5770046"},{"town":"若江本町一丁目","koaza":"","lat":34.658519,"lng":135.607719,"zip":"5780942"},{"town":"本庄二丁目","koaza":"","lat":34.683676,"lng":135.607381,"zip":"5780953"},{"town":"菱屋西五丁目","koaza":"","lat":34.665457,"lng":135.578259,"zip":"5770807"},{"town":"西堤本通東二丁目","koaza":"","lat":34.673435,"lng":135.580077,"zip":"5770045"},{"town":"荒本西二丁目","koaza":"","lat":34.674204,"lng":135.599635,"zip":"5770024"},{"town":"御厨栄町一丁目","koaza":"","lat":34.66633,"lng":135.581934,"zip":"5770036"},{"town":"高井田中二丁目","koaza":"","lat":34.671554,"lng":135.570245,"zip":"5770065"},{"town":"西堤本通東一丁目","koaza":"","lat":34.67093,"lng":135.580363,"zip":"5770045"},{"town":"足代北一丁目","koaza":"","lat":34.666838,"lng":135.558385,"zip":"5770058"},{"town":"長田西一丁目","koaza":"","lat":34.677886,"lng":135.583444,"zip":"5770016"},{"town":"御厨中二丁目","koaza":"","lat":34.668964,"lng":135.589545,"zip":"5770035"},{"town":"花園西町二丁目","koaza":"","lat":34.658564,"lng":135.615013,"zip":"5780936"},{"town":"新庄東","koaza":"","lat":34.687613,"lng":135.608155,"zip":"5780951"},{"town":"高井田西一丁目","koaza":"","lat":34.669905,"lng":135.563549,"zip":"5770067"},{"town":"藤戸新田一丁目","koaza":"","lat":34.674258,"lng":135.586967,"zip":"5770017"},{"town":"御厨栄町三丁目","koaza":"","lat":34.668695,"lng":135.584282,"zip":"5770036"},{"town":"鴻池町二丁目","koaza":"","lat":34.69726,"lng":135.60507,"zip":"5780972"},{"town":"吉松一丁目","koaza":"","lat":34.647992,"lng":135.577533,"zip":"5770821"},{"town":"西堤本通東三丁目","koaza":"","lat":34.676146,"lng":135.579823,"zip":"5770045"},{"town":"新家中町","koaza":"","lat":34.674711,"lng":135.593679,"zip":"5770027"},{"town":"池島町一丁目","koaza":"","lat":34.649684,"lng":135.633819,"zip":"5798064"},{"town":"川中","koaza":"","lat":34.682368,"lng":135.628433,"zip":"5780902"},{"town":"御厨三丁目","koaza":"","lat":34.671783,"lng":135.586186,"zip":"5770032"},{"town":"高井田本通四丁目","koaza":"","lat":34.673879,"lng":135.567637,"zip":"5770066"},{"town":"友井一丁目","koaza":"","lat":34.644115,"lng":135.5832,"zip":"5770816"},{"town":"長田西四丁目","koaza":"","lat":34.679826,"lng":135.586208,"zip":"5770016"},{"town":"玉串町西一丁目","koaza":"","lat":34.656452,"lng":135.6156,"zip":"5780934"},{"town":"俊徳町四丁目","koaza":"","lat":34.65426,"lng":135.571928,"zip":"5770831"},{"town":"御厨一丁目","koaza":"","lat":34.671726,"lng":135.584348,"zip":"5770032"},{"town":"西堤学園町三丁目","koaza":"","lat":34.676255,"lng":135.581776,"zip":"5770044"},{"town":"御厨六丁目","koaza":"","lat":34.671128,"lng":135.591079,"zip":"5770032"},{"town":"高井田西二丁目","koaza":"","lat":34.671657,"lng":135.563691,"zip":"5770067"},{"town":"大蓮東三丁目","koaza":"","lat":34.636439,"lng":135.582417,"zip":"5770824"},{"town":"長田西二丁目","koaza":"","lat":34.677527,"lng":135.586133,"zip":"5770016"},{"town":"小阪三丁目","koaza":"","lat":34.664151,"lng":135.591588,"zip":"5770801"},{"town":"横沼町二丁目","koaza":"","lat":34.655259,"lng":135.575934,"zip":"5770808"},{"town":"高井田西六丁目","koaza":"","lat":34.678969,"lng":135.565224,"zip":"5770067"},{"town":"新池島町四丁目","koaza":"","lat":34.661581,"lng":135.629351,"zip":"5798065"},{"town":"長田三丁目","koaza":"","lat":34.676394,"lng":135.59483,"zip":"5770015"},{"town":"若江南町四丁目","koaza":"","lat":34.651465,"lng":135.603342,"zip":"5780943"},{"town":"御厨南三丁目","koaza":"","lat":34.666276,"lng":135.592064,"zip":"5770034"},{"town":"長田西六丁目","koaza":"","lat":34.681162,"lng":135.586614,"zip":"5770016"},{"town":"西鴻池町三丁目","koaza":"","lat":34.698033,"lng":135.590282,"zip":"5780976"},{"town":"東鴻池町三丁目","koaza":"","lat":34.690581,"lng":135.614639,"zip":"5780973"},{"town":"若江南町三丁目","koaza":"","lat":34.65368,"lng":135.600191,"zip":"5780943"},{"town":"横沼町一丁目","koaza":"","lat":34.652854,"lng":135.57633,"zip":"5770808"},{"town":"中小阪二丁目","koaza":"","lat":34.659492,"lng":135.58693,"zip":"5770804"},{"town":"高井田本通二丁目","koaza":"","lat":34.670707,"lng":135.567482,"zip":"5770066"},{"town":"上小阪二丁目","koaza":"","lat":34.654802,"lng":135.582736,"zip":"5770806"},{"town":"長田東四丁目","koaza":"","lat":34.683014,"lng":135.593588,"zip":"5770012"},{"town":"西堤一丁目","koaza":"","lat":34.678055,"lng":135.576791,"zip":"5770042"},{"town":"西上小阪","koaza":"","lat":34.651988,"lng":135.580493,"zip":"5770811"},{"town":"若江東町三丁目","koaza":"","lat":34.656225,"lng":135.60943,"zip":"5780935"},{"town":"菱江五丁目","koaza":"","lat":34.672012,"lng":135.608658,"zip":"5780984"},{"town":"長瀬町二丁目","koaza":"","lat":34.649294,"lng":135.574508,"zip":"5770832"},{"town":"高井田中四丁目","koaza":"","lat":34.675423,"lng":135.570311,"zip":"5770065"},{"town":"菱屋東三丁目","koaza":"","lat":34.673595,"lng":135.605815,"zip":"5780948"},{"town":"若江東町一丁目","koaza":"","lat":34.658534,"lng":135.611081,"zip":"5780935"},{"town":"長堂二丁目","koaza":"","lat":34.666674,"lng":135.565485,"zip":"5770056"},{"town":"長田中四丁目","koaza":"","lat":34.683018,"lng":135.590208,"zip":"5770013"},{"town":"寿町二丁目","koaza":"","lat":34.651177,"lng":135.567117,"zip":"5770837"},{"town":"新喜多二丁目","koaza":"","lat":34.6721,"lng":135.57517,"zip":"5770052"},{"town":"高井田中五丁目","koaza":"","lat":34.677234,"lng":135.57038,"zip":"5770065"},{"town":"西堤楠町三丁目","koaza":"","lat":34.675804,"lng":135.575898,"zip":"5770047"},{"town":"長田中三丁目","koaza":"","lat":34.681035,"lng":135.590465,"zip":"5770013"},{"town":"高井田西三丁目","koaza":"","lat":34.673619,"lng":135.563869,"zip":"5770067"},{"town":"松原二丁目","koaza":"","lat":34.672781,"lng":135.631212,"zip":"5780922"},{"town":"若江本町三丁目","koaza":"","lat":34.65614,"lng":135.607225,"zip":"5780942"},{"town":"若江南町五丁目","koaza":"","lat":34.651612,"lng":135.599922,"zip":"5780943"},{"town":"宝持四丁目","koaza":"","lat":34.656073,"lng":135.591882,"zip":"5770805"},{"town":"新喜多一丁目","koaza":"","lat":34.672651,"lng":135.573927,"zip":"5770052"},{"town":"菱屋西二丁目","koaza":"","lat":34.653744,"lng":135.577948,"zip":"5770807"},{"town":"上小阪四丁目","koaza":"","lat":34.653975,"lng":135.587389,"zip":"5770806"},{"town":"若江東町五丁目","koaza":"","lat":34.651592,"lng":135.611661,"zip":"5780935"},{"town":"菱江四丁目","koaza":"","lat":34.674755,"lng":135.608912,"zip":"5780984"},{"town":"足代北二丁目","koaza":"","lat":34.666668,"lng":135.560799,"zip":"5770058"},{"town":"高井田本通七丁目","koaza":"","lat":34.678945,"lng":135.569511,"zip":"5770066"},{"town":"金岡四丁目","koaza":"","lat":34.634113,"lng":135.588189,"zip":"5770823"},{"town":"柏田西一丁目","koaza":"","lat":34.649281,"lng":135.567565,"zip":"5770835"},{"town":"箕輪一丁目","koaza":"","lat":34.684139,"lng":135.612482,"zip":"5780914"},{"town":"若江本町二丁目","koaza":"","lat":34.658568,"lng":135.60468,"zip":"5780942"},{"town":"善根寺町二丁目","koaza":"","lat":34.698417,"lng":135.646322,"zip":"5798001"},{"town":"大蓮南一丁目","koaza":"","lat":34.635185,"lng":135.579705,"zip":"5770825"},{"town":"太平寺二丁目","koaza":"","lat":34.654289,"lng":135.568171,"zip":"5770844"},{"town":"大蓮東五丁目","koaza":"","lat":34.633722,"lng":135.582762,"zip":"5770824"},{"town":"玉串町西二丁目","koaza":"","lat":34.653918,"lng":135.615111,"zip":"5780934"},{"town":"御厨栄町四丁目","koaza":"","lat":34.666438,"lng":135.58524,"zip":"5770036"},{"town":"長田中二丁目","koaza":"","lat":34.679479,"lng":135.589989,"zip":"5770013"},{"town":"南鴻池町一丁目","koaza":"","lat":34.694352,"lng":135.598852,"zip":"5780961"},{"town":"大蓮北二丁目","koaza":"","lat":34.637194,"lng":135.579583,"zip":"5770826"},{"town":"西鴻池町四丁目","koaza":"","lat":34.700468,"lng":135.590783,"zip":"5780976"},{"town":"中小阪三丁目","koaza":"","lat":34.657728,"lng":135.587341,"zip":"5770804"},{"town":"俊徳町五丁目","koaza":"","lat":34.653225,"lng":135.571926,"zip":"5770831"},{"town":"鴻池元町","koaza":"","lat":34.698024,"lng":135.600559,"zip":"5780974"},{"town":"大蓮南二丁目","koaza":"","lat":34.633259,"lng":135.579822,"zip":"5770825"},{"town":"池島町二丁目","koaza":"","lat":34.652729,"lng":135.634319,"zip":"5798064"},{"town":"大蓮南三丁目","koaza":"","lat":34.633194,"lng":135.576358,"zip":"5770825"},{"town":"下六万寺町二丁目","koaza":"","lat":34.653077,"lng":135.637306,"zip":"5798066"},{"town":"中石切町七丁目","koaza":"","lat":34.686475,"lng":135.634991,"zip":"5798014"},{"town":"上小阪三丁目","koaza":"","lat":34.654563,"lng":135.584881,"zip":"5770806"},{"town":"吉松二丁目","koaza":"","lat":34.64722,"lng":135.575885,"zip":"5770821"},{"town":"西堤本通西一丁目","koaza":"","lat":34.670674,"lng":135.577855,"zip":"5770046"},{"town":"三ノ瀬一丁目","koaza":"","lat":34.659144,"lng":135.564322,"zip":"5770849"},{"town":"若江北町二丁目","koaza":"","lat":34.658569,"lng":135.601043,"zip":"5780945"},{"town":"若江南町一丁目","koaza":"","lat":34.652659,"lng":135.605789,"zip":"5780943"},{"town":"足代新町","koaza":"","lat":34.664874,"lng":135.559582,"zip":"5770057"},{"town":"西石切町四丁目","koaza":"","lat":34.683867,"lng":135.637768,"zip":"5798013"},{"town":"長田東三丁目","koaza":"","lat":34.681131,"lng":135.593855,"zip":"5770012"},{"town":"新家西町","koaza":"","lat":34.674547,"lng":135.590486,"zip":"5770028"},{"town":"吉原一丁目","koaza":"","lat":34.685862,"lng":135.61956,"zip":"5780904"},{"town":"小阪本町一丁目","koaza":"","lat":34.662379,"lng":135.581117,"zip":"5770802"},{"town":"出雲井本町","koaza":"","lat":34.669424,"lng":135.646556,"zip":"5798034"},{"town":"角田三丁目","koaza":"","lat":34.683145,"lng":135.617222,"zip":"5780912"},{"town":"西石切町六丁目","koaza":"","lat":34.684044,"lng":135.634976,"zip":"5798013"},{"town":"菱屋西三丁目","koaza":"","lat":34.66039,"lng":135.579448,"zip":"5770807"},{"town":"横沼町三丁目","koaza":"","lat":34.65665,"lng":135.575629,"zip":"5770808"},{"town":"花園東町三丁目","koaza":"","lat":34.658271,"lng":135.623871,"zip":"5780931"},{"town":"御厨南二丁目","koaza":"","lat":34.666144,"lng":135.590003,"zip":"5770034"},{"town":"新家三丁目","koaza":"","lat":34.672147,"lng":135.596305,"zip":"5770025"},{"town":"小阪二丁目","koaza":"","lat":34.664686,"lng":135.586373,"zip":"5770801"},{"town":"寿町一丁目","koaza":"","lat":34.650877,"lng":135.569539,"zip":"5770837"},{"town":"金物町","koaza":"","lat":34.644095,"lng":135.593217,"zip":"5770815"},{"town":"衣摺一丁目","koaza":"","lat":34.643129,"lng":135.576483,"zip":"5770827"},{"town":"岸田堂西二丁目","koaza":"","lat":34.653966,"lng":135.561176,"zip":"5770848"},{"town":"下六万寺町一丁目","koaza":"","lat":34.650985,"lng":135.636955,"zip":"5798066"},{"town":"金岡三丁目","koaza":"","lat":34.63686,"lng":135.586013,"zip":"5770823"},{"town":"長田東一丁目","koaza":"","lat":34.677653,"lng":135.594405,"zip":"5770012"},{"town":"川俣三丁目","koaza":"","lat":34.681319,"lng":135.579097,"zip":"5770063"},{"town":"荒本北二丁目","koaza":"","lat":34.68039,"lng":135.602373,"zip":"5770011"},{"town":"川俣本町","koaza":"","lat":34.681087,"lng":135.581028,"zip":"5770064"},{"town":"近江堂二丁目","koaza":"","lat":34.64667,"lng":135.583597,"zip":"5770817"},{"town":"荒川一丁目","koaza":"","lat":34.662168,"lng":135.567713,"zip":"5770843"},{"town":"菱江六丁目","koaza":"","lat":34.674072,"lng":135.606934,"zip":"5780984"},{"town":"西石切町五丁目","koaza":"","lat":34.681132,"lng":135.63755,"zip":"5798013"},{"town":"小阪一丁目","koaza":"","lat":34.66494,"lng":135.581491,"zip":"5770801"},{"town":"新家二丁目","koaza":"","lat":34.672093,"lng":135.593685,"zip":"5770025"},{"town":"若江南町二丁目","koaza":"","lat":34.653518,"lng":135.603193,"zip":"5780943"},{"town":"若江西新町五丁目","koaza":"","lat":34.65161,"lng":135.596228,"zip":"5780944"},{"town":"吉田本町二丁目","koaza":"","lat":34.673698,"lng":135.625094,"zip":"5780982"},{"town":"岸田堂南町","koaza":"","lat":34.654013,"lng":135.564465,"zip":"5770847"},{"town":"西石切町七丁目","koaza":"","lat":34.681181,"lng":135.634836,"zip":"5798013"},{"town":"長田東二丁目","koaza":"","lat":34.679349,"lng":135.594129,"zip":"5770012"},{"town":"高井田中一丁目","koaza":"","lat":34.669945,"lng":135.57023,"zip":"5770065"},{"town":"高井田中三丁目","koaza":"","lat":34.673415,"lng":135.570275,"zip":"5770065"},{"town":"友井四丁目","koaza":"","lat":34.641226,"lng":135.588895,"zip":"5770816"},{"town":"荒本新町","koaza":"","lat":34.677541,"lng":135.604194,"zip":"5770022"},{"town":"布市町四丁目","koaza":"","lat":34.69679,"lng":135.639358,"zip":"5798004"},{"town":"下小阪二丁目","koaza":"","lat":34.662892,"lng":135.586452,"zip":"5770803"},{"town":"小阪本町二丁目","koaza":"","lat":34.658686,"lng":135.58108,"zip":"5770802"},{"town":"横枕","koaza":"","lat":34.680353,"lng":135.607522,"zip":"5780954"},{"town":"渋川町四丁目","koaza":"","lat":34.641889,"lng":135.563289,"zip":"5770836"},{"town":"若江本町四丁目","koaza":"","lat":34.656115,"lng":135.604558,"zip":"5780942"},{"town":"金岡一丁目","koaza":"","lat":34.642266,"lng":135.580779,"zip":"5770823"},{"town":"永和三丁目","koaza":"","lat":34.65994,"lng":135.576872,"zip":"5770809"},{"town":"東石切町五丁目","koaza":"","lat":34.684839,"lng":135.649679,"zip":"5798011"},{"town":"渋川町一丁目","koaza":"","lat":34.649201,"lng":135.56306,"zip":"5770836"},{"town":"下小阪三丁目","koaza":"","lat":34.660889,"lng":135.586483,"zip":"5770803"},{"town":"吉田一丁目","koaza":"","lat":34.663958,"lng":135.61921,"zip":"5780924"},{"town":"善根寺町五丁目","koaza":"","lat":34.700685,"lng":135.646338,"zip":"5798001"},{"town":"中野一丁目","koaza":"","lat":34.680261,"lng":135.609965,"zip":"5780913"},{"town":"玉串町西三丁目","koaza":"","lat":34.651522,"lng":135.614768,"zip":"5780934"},{"town":"荒本西四丁目","koaza":"","lat":34.677511,"lng":135.599255,"zip":"5770024"},{"town":"本庄東","koaza":"","lat":34.686241,"lng":135.608639,"zip":"5780952"},{"town":"大蓮南五丁目","koaza":"","lat":34.634968,"lng":135.571018,"zip":"5770825"},{"town":"箕輪三丁目","koaza":"","lat":34.686931,"lng":135.614226,"zip":"5780914"},{"town":"桜町","koaza":"","lat":34.664916,"lng":135.633633,"zip":"5798047"},{"town":"近江堂三丁目","koaza":"","lat":34.646534,"lng":135.587728,"zip":"5770817"},{"town":"東石切町三丁目","koaza":"","lat":34.680857,"lng":135.652427,"zip":"5798011"},{"town":"小若江二丁目","koaza":"","lat":34.6496,"lng":135.584505,"zip":"5770818"},{"town":"大蓮南四丁目","koaza":"","lat":34.635053,"lng":135.575707,"zip":"5770825"},{"town":"元町二丁目","koaza":"","lat":34.697793,"lng":135.635777,"zip":"5798005"},{"town":"元町一丁目","koaza":"","lat":34.694872,"lng":135.634218,"zip":"5798005"},{"town":"島之内一丁目","koaza":"","lat":34.677843,"lng":135.618272,"zip":"5780981"},{"town":"中石切町一丁目","koaza":"","lat":34.683684,"lng":135.645103,"zip":"5798014"},{"town":"新庄一丁目","koaza":"","lat":34.689613,"lng":135.604926,"zip":"5780963"},{"town":"日下町三丁目","koaza":"","lat":34.691765,"lng":135.64579,"zip":"5798003"},{"town":"本庄一丁目","koaza":"","lat":34.683408,"lng":135.609442,"zip":"5780953"},{"town":"吉田二丁目","koaza":"","lat":34.667912,"lng":135.618872,"zip":"5780924"},{"town":"大蓮東四丁目","koaza":"","lat":34.633715,"lng":135.58565,"zip":"5770824"},{"town":"下小阪五丁目","koaza":"","lat":34.662797,"lng":135.591453,"zip":"5770803"},{"town":"西鴻池町二丁目","koaza":"","lat":34.698466,"lng":135.594885,"zip":"5780976"},{"town":"稲田新町一丁目","koaza":"","lat":34.689369,"lng":135.583428,"zip":"5770004"},{"town":"下小阪四丁目","koaza":"","lat":34.661203,"lng":135.591427,"zip":"5770803"},{"town":"長田二丁目","koaza":"","lat":34.676357,"lng":135.590014,"zip":"5770015"},{"town":"大蓮東二丁目","koaza":"","lat":34.637581,"lng":135.582962,"zip":"5770824"},{"town":"河内町","koaza":"","lat":34.664983,"lng":135.645476,"zip":"5798044"},{"town":"菱屋東二丁目","koaza":"","lat":34.669919,"lng":135.607597,"zip":"5780948"},{"town":"大蓮北三丁目","koaza":"","lat":34.637267,"lng":135.575583,"zip":"5770826"},{"town":"御厨中一丁目","koaza":"","lat":34.668881,"lng":135.587018,"zip":"5770035"},{"town":"荒本西三丁目","koaza":"","lat":34.676199,"lng":135.599593,"zip":"5770024"},{"town":"本庄中二丁目","koaza":"","lat":34.686249,"lng":135.604049,"zip":"5780957"},{"town":"東鴻池町四丁目","koaza":"","lat":34.693783,"lng":135.608302,"zip":"5780973"},{"town":"吉田八丁目","koaza":"","lat":34.665308,"lng":135.630191,"zip":"5780924"},{"town":"東石切町二丁目","koaza":"","lat":34.680848,"lng":135.650343,"zip":"5798011"},{"town":"御厨栄町二丁目","koaza":"","lat":34.668496,"lng":135.581518,"zip":"5770036"},{"town":"足代一丁目","koaza":"","lat":34.662776,"lng":135.56105,"zip":"5770841"},{"town":"中鴻池町二丁目","koaza":"","lat":34.696322,"lng":135.598825,"zip":"5780975"},{"town":"花園本町一丁目","koaza":"","lat":34.661492,"lng":135.617843,"zip":"5780937"},{"town":"菱屋西六丁目","koaza":"","lat":34.667818,"lng":135.578403,"zip":"5770807"},{"town":"日下町四丁目","koaza":"","lat":34.692271,"lng":135.643162,"zip":"5798003"},{"town":"箕輪二丁目","koaza":"","lat":34.687289,"lng":135.611446,"zip":"5780914"},{"town":"西石切町三丁目","koaza":"","lat":34.681052,"lng":135.64055,"zip":"5798013"},{"town":"中小阪五丁目","koaza":"","lat":34.659544,"lng":135.591564,"zip":"5770804"},{"town":"友井三丁目","koaza":"","lat":34.640922,"lng":135.58527,"zip":"5770816"},{"town":"新庄南","koaza":"","lat":34.687519,"lng":135.604339,"zip":"5780958"},{"town":"西岩田一丁目","koaza":"","lat":34.664977,"lng":135.603228,"zip":"5780947"},{"town":"西石切町二丁目","koaza":"","lat":34.683649,"lng":135.640943,"zip":"5798013"},{"town":"瓜生堂二丁目","koaza":"","lat":34.660541,"lng":135.604139,"zip":"5780946"},{"town":"長瀬町一丁目","koaza":"","lat":34.651139,"lng":135.574813,"zip":"5770832"},{"town":"稲田三島町","koaza":"","lat":34.694416,"lng":135.590796,"zip":"5770003"},{"town":"新庄西","koaza":"","lat":34.688541,"lng":135.599482,"zip":"5780964"},{"town":"本庄西二丁目","koaza":"","lat":34.686262,"lng":135.599475,"zip":"5780965"},{"town":"西岩田二丁目","koaza":"","lat":34.664962,"lng":135.600184,"zip":"5780947"},{"town":"長瀬町三丁目","koaza":"","lat":34.65065,"lng":135.571671,"zip":"5770832"},{"town":"日下町五丁目","koaza":"","lat":34.695815,"lng":135.642689,"zip":"5798003"},{"town":"柏田西三丁目","koaza":"","lat":34.64435,"lng":135.567052,"zip":"5770835"},{"town":"高井田元町一丁目","koaza":"","lat":34.666543,"lng":135.573365,"zip":"5770054"},{"town":"鴻池本町","koaza":"","lat":34.700058,"lng":135.600883,"zip":"5780971"},{"town":"若江西新町二丁目","koaza":"","lat":34.658633,"lng":135.596683,"zip":"5780944"},{"town":"池島町六丁目","koaza":"","lat":34.645925,"lng":135.627216,"zip":"5798064"},{"town":"岩田町三丁目","koaza":"","lat":34.661293,"lng":135.607872,"zip":"5780941"},{"town":"岩田町四丁目","koaza":"","lat":34.664195,"lng":135.607161,"zip":"5780941"},{"town":"菱屋東一丁目","koaza":"","lat":34.666325,"lng":135.611547,"zip":"5780948"},{"town":"荒本北三丁目","koaza":"","lat":34.684044,"lng":135.595962,"zip":"5770011"},{"town":"北鴻池町","koaza":"","lat":34.7019,"lng":135.594102,"zip":"5780978"},{"town":"中小阪四丁目","koaza":"","lat":34.657738,"lng":135.59171,"zip":"5770804"},{"town":"宝持三丁目","koaza":"","lat":34.654168,"lng":135.591915,"zip":"5770805"},{"town":"東石切町一丁目","koaza":"","lat":34.681554,"lng":135.647133,"zip":"5798011"},{"town":"加納一丁目","koaza":"","lat":34.694377,"lng":135.619693,"zip":"5780901"},{"town":"東石切町六丁目","koaza":"","lat":34.687733,"lng":135.652513,"zip":"5798011"},{"town":"御厨東一丁目","koaza":"","lat":34.668004,"lng":135.592357,"zip":"5770033"},{"town":"本庄西三丁目","koaza":"","lat":34.687177,"lng":135.595697,"zip":"5780965"},{"town":"中小阪一丁目","koaza":"","lat":34.657863,"lng":135.583731,"zip":"5770804"},{"town":"南鴻池町二丁目","koaza":"","lat":34.694387,"lng":135.603474,"zip":"5780961"},{"town":"稲葉四丁目","koaza":"","lat":34.667081,"lng":135.612877,"zip":"5780925"},{"town":"中鴻池町三丁目","koaza":"","lat":34.696132,"lng":135.604001,"zip":"5780975"},{"town":"川田一丁目","koaza":"","lat":34.690354,"lng":135.618372,"zip":"5780905"},{"town":"下小阪一丁目","koaza":"","lat":34.661512,"lng":135.583053,"zip":"5770803"},{"town":"稲田本町三丁目","koaza":"","lat":34.689337,"lng":135.580538,"zip":"5770007"},{"town":"額田町","koaza":"","lat":34.677791,"lng":135.650442,"zip":"5798021"},{"town":"花園東町一丁目","koaza":"","lat":34.659999,"lng":135.620898,"zip":"5780931"},{"town":"本庄西一丁目","koaza":"","lat":34.683666,"lng":135.599608,"zip":"5780965"},{"town":"衣摺二丁目","koaza":"","lat":34.643969,"lng":135.57186,"zip":"5770827"},{"town":"柏田東町","koaza":"","lat":34.646795,"lng":135.573997,"zip":"5770833"},{"town":"下六万寺町三丁目","koaza":"","lat":34.654722,"lng":135.636054,"zip":"5798066"},{"town":"善根寺町三丁目","koaza":"","lat":34.698282,"lng":135.641287,"zip":"5798001"},{"town":"日下町六丁目","koaza":"","lat":34.695248,"lng":135.646215,"zip":"5798003"},{"town":"花園西町一丁目","koaza":"","lat":34.661184,"lng":135.614387,"zip":"5780936"},{"town":"御幸町","koaza":"","lat":34.658978,"lng":135.637333,"zip":"5798057"},{"town":"中新開一丁目","koaza":"","lat":34.681992,"lng":135.619407,"zip":"5780911"},{"town":"布市町二丁目","koaza":"","lat":34.692982,"lng":135.638522,"zip":"5798004"},{"town":"西鴻池町一丁目","koaza":"","lat":34.699736,"lng":135.594923,"zip":"5780976"},{"town":"六万寺町二丁目","koaza":"","lat":34.650817,"lng":135.641293,"zip":"5798061"},{"town":"永和一丁目","koaza":"","lat":34.660838,"lng":135.573179,"zip":"5770809"},{"town":"神田町","koaza":"","lat":34.660957,"lng":135.637419,"zip":"5798058"},{"town":"中石切町六丁目","koaza":"","lat":34.689484,"lng":135.635228,"zip":"5798014"},{"town":"稲葉三丁目","koaza":"","lat":34.665473,"lng":135.61728,"zip":"5780925"},{"town":"衣摺六丁目","koaza":"","lat":34.640546,"lng":135.566484,"zip":"5770827"},{"town":"横枕西","koaza":"","lat":34.680384,"lng":135.604872,"zip":"5780956"},{"town":"花園本町二丁目","koaza":"","lat":34.658612,"lng":135.618018,"zip":"5780937"},{"town":"玉串町東一丁目","koaza":"","lat":34.65646,"lng":135.622653,"zip":"5780932"},{"town":"新鴻池町","koaza":"","lat":34.690427,"lng":135.612668,"zip":"5780967"},{"town":"小若江一丁目","koaza":"","lat":34.649939,"lng":135.581329,"zip":"5770818"},{"town":"若江東町二丁目","koaza":"","lat":34.656941,"lng":135.612059,"zip":"5780935"},{"town":"渋川町二丁目","koaza":"","lat":34.646885,"lng":135.563071,"zip":"5770836"},{"town":"荒本一丁目","koaza":"","lat":34.672067,"lng":135.60342,"zip":"5770023"},{"town":"玉串元町一丁目","koaza":"","lat":34.655298,"lng":135.6182,"zip":"5780933"},{"town":"若江東町四丁目","koaza":"","lat":34.653814,"lng":135.61146,"zip":"5780935"},{"town":"鳥居町","koaza":"","lat":34.669145,"lng":135.642693,"zip":"5798035"},{"town":"大蓮東一丁目","koaza":"","lat":34.64153,"lng":135.578531,"zip":"5770824"},{"town":"中鴻池町一丁目","koaza":"","lat":34.696386,"lng":135.594381,"zip":"5780975"},{"town":"寿町三丁目","koaza":"","lat":34.651358,"lng":135.564008,"zip":"5770837"},{"town":"森河内東二丁目","koaza":"","lat":34.683384,"lng":135.571395,"zip":"5770062"},{"town":"新庄二丁目","koaza":"","lat":34.691392,"lng":135.602346,"zip":"5780963"},{"town":"新庄三丁目","koaza":"","lat":34.692269,"lng":135.606229,"zip":"5780963"},{"town":"柏田西二丁目","koaza":"","lat":34.647091,"lng":135.56735,"zip":"5770835"},{"town":"荒本二丁目","koaza":"","lat":34.675139,"lng":135.603638,"zip":"5770023"},{"town":"角田二丁目","koaza":"","lat":34.682347,"lng":135.614675,"zip":"5780912"},{"town":"大蓮北四丁目","koaza":"","lat":34.63716,"lng":135.570924,"zip":"5770826"},{"town":"上石切町一丁目","koaza":"","lat":34.681588,"lng":135.654625,"zip":"6300271"},{"town":"菱屋西四丁目","koaza":"","lat":34.660581,"lng":135.578345,"zip":"5770807"},{"town":"荒川二丁目","koaza":"","lat":34.659259,"lng":135.569442,"zip":"5770843"},{"town":"稲葉二丁目","koaza":"","lat":34.669312,"lng":135.6168,"zip":"5780925"},{"town":"若江西新町四丁目","koaza":"","lat":34.653971,"lng":135.596643,"zip":"5780944"},{"town":"中石切町四丁目","koaza":"","lat":34.688615,"lng":135.645421,"zip":"5798014"},{"town":"源氏ケ丘","koaza":"","lat":34.644876,"lng":135.579431,"zip":"5770822"},{"town":"若江北町三丁目","koaza":"","lat":34.656163,"lng":135.601153,"zip":"5780945"},{"town":"渋川町三丁目","koaza":"","lat":34.644271,"lng":135.56324,"zip":"5770836"},{"town":"近江堂一丁目","koaza":"","lat":34.645472,"lng":135.581125,"zip":"5770817"},{"town":"末広町","koaza":"","lat":34.656738,"lng":135.637159,"zip":"5798055"},{"town":"箱殿町","koaza":"","lat":34.671872,"lng":135.642783,"zip":"5798038"},{"town":"玉串町東二丁目","koaza":"","lat":34.652982,"lng":135.620737,"zip":"5780932"},{"town":"西石切町一丁目","koaza":"","lat":34.681089,"lng":135.643902,"zip":"5798013"},{"town":"若草町","koaza":"","lat":34.658661,"lng":135.63367,"zip":"5798056"},{"town":"花園東町二丁目","koaza":"","lat":34.660946,"lng":135.62395,"zip":"5780931"},{"town":"吉田六丁目","koaza":"","lat":34.664944,"lng":135.625744,"zip":"5780924"},{"town":"南四条町","koaza":"","lat":34.657061,"lng":135.642669,"zip":"5798054"},{"town":"布市町一丁目","koaza":"","lat":34.692972,"lng":135.640764,"zip":"5798004"},{"town":"三島一丁目","koaza":"","lat":34.691738,"lng":135.599308,"zip":"5780966"},{"town":"岩田町六丁目","koaza":"","lat":34.668513,"lng":135.603989,"zip":"5780941"},{"town":"豊浦町","koaza":"","lat":34.672043,"lng":135.647288,"zip":"5798031"},{"town":"本町","koaza":"","lat":34.663522,"lng":135.642147,"zip":"5798045"},{"town":"吉田九丁目","koaza":"","lat":34.664938,"lng":135.632014,"zip":"5780924"},{"town":"吉田四丁目","koaza":"","lat":34.670226,"lng":135.622282,"zip":"5780924"},{"town":"今米二丁目","koaza":"","lat":34.686125,"lng":135.627521,"zip":"5780903"},{"town":"横小路町三丁目","koaza":"","lat":34.64704,"lng":135.641898,"zip":"5798063"},{"town":"楠根一丁目","koaza":"","lat":34.683173,"lng":135.585102,"zip":"5770006"},{"town":"玉串元町二丁目","koaza":"","lat":34.651958,"lng":135.617993,"zip":"5780933"},{"town":"鴻池徳庵町","koaza":"","lat":34.697998,"lng":135.586306,"zip":"5780977"},{"town":"三島二丁目","koaza":"","lat":34.69209,"lng":135.596396,"zip":"5780966"},{"town":"荒本西一丁目","koaza":"","lat":34.672202,"lng":135.59963,"zip":"5770024"},{"town":"若江西新町三丁目","koaza":"","lat":34.656303,"lng":135.596765,"zip":"5780944"},{"town":"川田四丁目","koaza":"","lat":34.689698,"lng":135.62864,"zip":"5780905"},{"town":"加納二丁目","koaza":"","lat":34.693899,"lng":135.62224,"zip":"5780901"},{"town":"瓢箪山町","koaza":"","lat":34.661267,"lng":135.643496,"zip":"5798051"},{"town":"菱屋西一丁目","koaza":"","lat":34.652809,"lng":135.5789,"zip":"5770807"},{"town":"吉田本町三丁目","koaza":"","lat":34.678129,"lng":135.624493,"zip":"5780982"},{"town":"稲田上町一丁目","koaza":"","lat":34.692348,"lng":135.583857,"zip":"5770002"},{"town":"御厨東二丁目","koaza":"","lat":34.667895,"lng":135.594785,"zip":"5770033"},{"town":"柏田本町","koaza":"","lat":34.646615,"lng":135.571114,"zip":"5770834"},{"town":"新池島町三丁目","koaza":"","lat":34.658292,"lng":135.626889,"zip":"5798065"},{"town":"松原南二丁目","koaza":"","lat":34.670047,"lng":135.631113,"zip":"5780923"},{"town":"友井五丁目","koaza":"","lat":34.643662,"lng":135.591051,"zip":"5770816"},{"town":"楠根三丁目","koaza":"","lat":34.687125,"lng":135.585153,"zip":"5770006"},{"town":"日下町二丁目","koaza":"","lat":34.691717,"lng":135.649861,"zip":"5798003"},{"town":"瓜生堂一丁目","koaza":"","lat":34.662251,"lng":135.602778,"zip":"5780946"},{"town":"水走四丁目","koaza":"","lat":34.685666,"lng":135.631497,"zip":"5780921"},{"town":"水走五丁目","koaza":"","lat":34.689692,"lng":135.631788,"zip":"5780921"},{"town":"四条町","koaza":"","lat":34.658824,"lng":135.642832,"zip":"5798053"},{"town":"若江東町六丁目","koaza":"","lat":34.652668,"lng":135.608334,"zip":"5780935"},{"town":"本庄中一丁目","koaza":"","lat":34.683719,"lng":135.60403,"zip":"5780957"},{"town":"新池島町一丁目","koaza":"","lat":34.658167,"lng":135.631519,"zip":"5798065"},{"town":"吉田七丁目","koaza":"","lat":34.664869,"lng":135.628071,"zip":"5780924"},{"town":"吉田三丁目","koaza":"","lat":34.667742,"lng":135.621811,"zip":"5780924"},{"town":"川田三丁目","koaza":"","lat":34.689823,"lng":135.625426,"zip":"5780905"},{"town":"岩田町一丁目","koaza":"","lat":34.664159,"lng":135.612401,"zip":"5780941"},{"town":"角田一丁目","koaza":"","lat":34.679815,"lng":135.614691,"zip":"5780912"},{"town":"池島町五丁目","koaza":"","lat":34.643803,"lng":135.632125,"zip":"5798064"},{"town":"新池島町二丁目","koaza":"","lat":34.658128,"lng":135.629241,"zip":"5798065"},{"town":"立花町","koaza":"","lat":34.674768,"lng":135.648578,"zip":"5798023"},{"town":"川田二丁目","koaza":"","lat":34.690023,"lng":135.621705,"zip":"5780905"},{"town":"長栄寺","koaza":"","lat":34.666585,"lng":135.570754,"zip":"5770055"},{"town":"松原一丁目","koaza":"","lat":34.673732,"lng":135.627531,"zip":"5780922"},{"town":"稲田本町二丁目","koaza":"","lat":34.685114,"lng":135.57961,"zip":"5770007"},{"town":"中新開二丁目","koaza":"","lat":34.682387,"lng":135.622182,"zip":"5780911"},{"town":"池島町七丁目","koaza":"","lat":34.649161,"lng":135.627294,"zip":"5798064"},{"town":"中石切町二丁目","koaza":"","lat":34.68588,"lng":135.646306,"zip":"5798014"},{"town":"池島町四丁目","koaza":"","lat":34.64919,"lng":135.630807,"zip":"5798064"},{"town":"岩田町二丁目","koaza":"","lat":34.661002,"lng":135.611052,"zip":"5780941"},{"town":"鴻池町一丁目","koaza":"","lat":34.699323,"lng":135.604748,"zip":"5780972"},{"town":"高井田元町二丁目","koaza":"","lat":34.6666,"lng":135.575805,"zip":"5770054"},{"town":"長堂三丁目","koaza":"","lat":34.666583,"lng":135.567671,"zip":"5770056"},{"town":"吉田五丁目","koaza":"","lat":34.665182,"lng":135.623424,"zip":"5780924"},{"town":"東鴻池町二丁目","koaza":"","lat":34.692248,"lng":135.615416,"zip":"5780973"},{"town":"日下町七丁目","koaza":"","lat":34.694247,"lng":135.650604,"zip":"5798003"},{"town":"横小路町六丁目","koaza":"","lat":34.647155,"lng":135.634038,"zip":"5798063"},{"town":"衣摺四丁目","koaza":"","lat":34.639571,"lng":135.574306,"zip":"5770827"},{"town":"新庄四丁目","koaza":"","lat":34.690443,"lng":135.608885,"zip":"5780963"},{"town":"六万寺町三丁目","koaza":"","lat":34.653796,"lng":135.641272,"zip":"5798061"},{"town":"永和二丁目","koaza":"","lat":34.660798,"lng":135.574963,"zip":"5770809"},{"town":"長堂一丁目","koaza":"","lat":34.666433,"lng":135.563458,"zip":"5770056"},{"town":"池之端町","koaza":"","lat":34.696409,"lng":135.648969,"zip":"5798002"},{"town":"衣摺三丁目","koaza":"","lat":34.64146,"lng":135.573918,"zip":"5770827"},{"town":"七軒家","koaza":"","lat":34.686842,"lng":135.591051,"zip":"5770005"},{"town":"池島町三丁目","koaza":"","lat":34.653274,"lng":135.630985,"zip":"5798064"},{"town":"東鴻池町五丁目","koaza":"","lat":34.695321,"lng":135.610208,"zip":"5780973"},{"town":"池島町八丁目","koaza":"","lat":34.653262,"lng":135.627351,"zip":"5798064"},{"town":"西岩田四丁目","koaza":"","lat":34.6684,"lng":135.600689,"zip":"5780947"},{"town":"若江西新町一丁目","koaza":"","lat":34.661215,"lng":135.596616,"zip":"5780944"},{"town":"横小路町四丁目","koaza":"","lat":34.646977,"lng":135.639545,"zip":"5798063"},{"town":"松原南一丁目","koaza":"","lat":34.66943,"lng":135.627305,"zip":"5780923"},{"town":"稲葉一丁目","koaza":"","lat":34.669602,"lng":135.612351,"zip":"5780925"},{"town":"水走二丁目","koaza":"","lat":34.67772,"lng":135.627774,"zip":"5780921"},{"town":"横小路町二丁目","koaza":"","lat":34.64686,"lng":135.644134,"zip":"5798063"},{"town":"北石切町","koaza":"","lat":34.688581,"lng":135.649503,"zip":"5798015"},{"town":"島之内二丁目","koaza":"","lat":34.677815,"lng":135.621224,"zip":"5780981"},{"town":"岩田町五丁目","koaza":"","lat":34.667016,"lng":135.607212,"zip":"5780941"},{"town":"吉田本町一丁目","koaza":"","lat":34.673394,"lng":135.622648,"zip":"5780982"},{"town":"古箕輪一丁目","koaza":"","lat":34.686638,"lng":135.617182,"zip":"5780915"},{"town":"横小路町五丁目","koaza":"","lat":34.647166,"lng":135.636892,"zip":"5798063"},{"town":"菱江二丁目","koaza":"","lat":34.675139,"lng":135.613521,"zip":"5780984"},{"town":"南上小阪","koaza":"","lat":34.64727,"lng":135.592254,"zip":"5770814"},{"town":"東石切町四丁目","koaza":"","lat":34.685458,"lng":135.652777,"zip":"5798011"},{"town":"昭和町","koaza":"","lat":34.663348,"lng":135.63739,"zip":"5798046"},{"town":"菱江三丁目","koaza":"","lat":34.67786,"lng":135.613685,"zip":"5780984"},{"town":"布市町三丁目","koaza":"","lat":34.693227,"lng":135.636032,"zip":"5798004"},{"town":"衣摺五丁目","koaza":"","lat":34.640578,"lng":135.569487,"zip":"5770827"},{"town":"加納六丁目","koaza":"","lat":34.70042,"lng":135.627349,"zip":"5780901"},{"town":"楠根二丁目","koaza":"","lat":34.685114,"lng":135.584949,"zip":"5770006"},{"town":"稲田本町一丁目","koaza":"","lat":34.685672,"lng":135.57689,"zip":"5770007"},{"town":"中石切町三丁目","koaza":"","lat":34.68608,"lng":135.63978,"zip":"5798014"},{"town":"吉原二丁目","koaza":"","lat":34.686538,"lng":135.623208,"zip":"5780904"},{"town":"喜里川町","koaza":"","lat":34.666478,"lng":135.642009,"zip":"5798041"},{"town":"加納八丁目","koaza":"","lat":34.698839,"lng":135.620145,"zip":"5780901"},{"town":"善根寺町四丁目","koaza":"","lat":34.700626,"lng":135.641595,"zip":"5798001"},{"town":"高井田","koaza":"","lat":34.673669,"lng":135.572742,"zip":"5770053"},{"town":"稲田新町三丁目","koaza":"","lat":34.689225,"lng":135.591257,"zip":"5770004"},{"town":"稲田新町二丁目","koaza":"","lat":34.690299,"lng":135.587073,"zip":"5770004"},{"town":"荒川三丁目","koaza":"","lat":34.660922,"lng":135.571213,"zip":"5770843"},{"town":"旭町","koaza":"","lat":34.666243,"lng":135.637192,"zip":"5798048"},{"town":"森河内西二丁目","koaza":"","lat":34.685858,"lng":135.569261,"zip":"5770061"},{"town":"南荘町","koaza":"","lat":34.675099,"lng":135.643551,"zip":"5798024"},{"town":"今米一丁目","koaza":"","lat":34.68244,"lng":135.625952,"zip":"5780903"},{"town":"吉田下島","koaza":"","lat":34.673734,"lng":135.618838,"zip":"5780983"},{"town":"森河内西一丁目","koaza":"","lat":34.683118,"lng":135.565872,"zip":"5770061"},{"town":"川俣二丁目","koaza":"","lat":34.684929,"lng":135.574959,"zip":"5770063"},{"town":"玉串町東三丁目","koaza":"","lat":34.65297,"lng":135.623719,"zip":"5780932"},{"town":"友井二丁目","koaza":"","lat":34.643736,"lng":135.58716,"zip":"5770816"},{"town":"加納七丁目","koaza":"","lat":34.698722,"lng":135.623841,"zip":"5780901"},{"town":"日下町一丁目","koaza":"","lat":34.689245,"lng":135.656137,"zip":"5798003"},{"town":"新上小阪","koaza":"","lat":34.65071,"lng":135.591901,"zip":"5770813"},{"town":"弥生町","koaza":"","lat":34.678278,"lng":135.637232,"zip":"5798026"},{"town":"加納三丁目","koaza":"","lat":34.694134,"lng":135.626017,"zip":"5780901"},{"town":"中石切町五丁目","koaza":"","lat":34.688933,"lng":135.640311,"zip":"5798014"},{"town":"水走三丁目","koaza":"","lat":34.682364,"lng":135.631137,"zip":"5780921"},{"town":"菱江一丁目","koaza":"","lat":34.672472,"lng":135.613376,"zip":"5780984"},{"town":"荒本北一丁目","koaza":"","lat":34.680333,"lng":135.598761,"zip":"5770011"},{"town":"小若江三丁目","koaza":"","lat":34.650264,"lng":135.587498,"zip":"5770818"},{"town":"森河内東一丁目","koaza":"","lat":34.681782,"lng":135.569475,"zip":"5770062"},{"town":"川俣一丁目","koaza":"","lat":34.680307,"lng":135.575526,"zip":"5770063"},{"town":"東鴻池町一丁目","koaza":"","lat":34.695918,"lng":135.615579,"zip":"5780973"},{"town":"新町","koaza":"","lat":34.672268,"lng":135.636859,"zip":"5798037"},{"town":"東山町","koaza":"","lat":34.678323,"lng":135.645126,"zip":"5798027"},{"town":"三島三丁目","koaza":"","lat":34.69307,"lng":135.593741,"zip":"5780966"},{"town":"稲田上町二丁目","koaza":"","lat":34.69426,"lng":135.586238,"zip":"5770002"},{"town":"水走一丁目","koaza":"","lat":34.676839,"lng":135.631234,"zip":"5780921"},{"town":"鷹殿町","koaza":"","lat":34.669306,"lng":135.636568,"zip":"5798036"},{"town":"西岩田三丁目","koaza":"","lat":34.667012,"lng":135.597401,"zip":"5780947"},{"town":"加納五丁目","koaza":"","lat":34.699134,"lng":135.631288,"zip":"5780901"},{"town":"加納四丁目","koaza":"","lat":34.694215,"lng":135.630881,"zip":"5780901"},{"town":"宝町","koaza":"","lat":34.675471,"lng":135.637024,"zip":"5798025"},{"town":"善根寺町六丁目","koaza":"","lat":34.700538,"lng":135.654904,"zip":"5798001"},{"town":"五条町","koaza":"","lat":34.666227,"lng":135.652713,"zip":"5798042"},{"town":"出雲井町","koaza":"","lat":34.669072,"lng":135.656251,"zip":"5798033"},{"town":"客坊町","koaza":"","lat":34.663209,"lng":135.650977,"zip":"5798043"},{"town":"上六万寺町","koaza":"","lat":34.655092,"lng":135.654874,"zip":"5798062"},{"town":"六万寺町一丁目","koaza":"","lat":34.652648,"lng":135.654192,"zip":"5798061"},{"town":"善根寺町一丁目","koaza":"","lat":34.697842,"lng":135.661047,"zip":"5798001"},{"town":"日下町八丁目","koaza":"","lat":34.692481,"lng":135.662888,"zip":"5798003"},{"town":"横小路町一丁目","koaza":"","lat":34.646754,"lng":135.655374,"zip":"5798063"},{"town":"東豊浦町","koaza":"","lat":34.669277,"lng":135.665136,"zip":"5798032"},{"town":"山手町","koaza":"","lat":34.676824,"lng":135.664838,"zip":"5798022"},{"town":"上四条町","koaza":"","lat":34.661281,"lng":135.660513,"zip":"5798052"},{"town":"上石切町二丁目","koaza":"","lat":34.68412,"lng":135.667836,"zip":"6300271"}]