[{"town":"天美南六丁目","koaza":"","lat":34.586363,"lng":135.530677,"zip":"5800033"},{"town":"天美北八丁目","koaza":"","lat":34.596567,"lng":135.532179,"zip":"5800031"},{"town":"南新町六丁目","koaza":"","lat":34.577802,"lng":135.533454,"zip":"5800023"},{"town":"三宅東七丁目","koaza":"","lat":34.59405,"lng":135.562128,"zip":"5800041"},{"town":"北新町二丁目","koaza":"","lat":34.579136,"lng":135.535547,"zip":"5800025"},{"town":"小川三丁目","koaza":"","lat":34.585241,"lng":135.581154,"zip":"5800002"},{"town":"三宅東一丁目","koaza":"","lat":34.5868,"lng":135.557483,"zip":"5800041"},{"town":"天美北二丁目","koaza":"","lat":34.595659,"lng":135.54208,"zip":"5800031"},{"town":"三宅中八丁目","koaza":"","lat":34.593985,"lng":135.555839,"zip":"5800046"},{"town":"高見の里一丁目","koaza":"","lat":34.576157,"lng":135.548825,"zip":"5800021"},{"town":"阿保七丁目","koaza":"","lat":34.580993,"lng":135.558623,"zip":"5800043"},{"town":"高見の里二丁目","koaza":"","lat":34.5766,"lng":135.545381,"zip":"5800021"},{"town":"天美西二丁目","koaza":"","lat":34.590413,"lng":135.529189,"zip":"5800034"},{"town":"別所一丁目","koaza":"","lat":34.582817,"lng":135.565964,"zip":"5800005"},{"town":"小川二丁目","koaza":"","lat":34.583102,"lng":135.580471,"zip":"5800002"},{"town":"丹南二丁目","koaza":"","lat":34.558661,"lng":135.553252,"zip":"5800013"},{"town":"天美東五丁目","koaza":"","lat":34.591901,"lng":135.535838,"zip":"5800032"},{"town":"田井城二丁目","koaza":"","lat":34.58192,"lng":135.549134,"zip":"5800044"},{"town":"立部五丁目","koaza":"","lat":34.560379,"lng":135.562294,"zip":"5800012"},{"town":"高見の里五丁目","koaza":"","lat":34.57193,"lng":135.549325,"zip":"5800021"},{"town":"別所四丁目","koaza":"","lat":34.587174,"lng":135.568579,"zip":"5800005"},{"town":"天美我堂五丁目","koaza":"","lat":34.584549,"lng":135.528359,"zip":"5800026"},{"town":"一津屋六丁目","koaza":"","lat":34.582911,"lng":135.574308,"zip":"5800003"},{"town":"三宅西六丁目","koaza":"","lat":34.591375,"lng":135.545058,"zip":"5800045"},{"town":"上田一丁目","koaza":"","lat":34.576329,"lng":135.553321,"zip":"5800016"},{"town":"松ケ丘三丁目","koaza":"","lat":34.584098,"lng":135.562814,"zip":"5800042"},{"town":"南新町五丁目","koaza":"","lat":34.575799,"lng":135.533512,"zip":"5800023"},{"town":"田井城五丁目","koaza":"","lat":34.58192,"lng":135.54564,"zip":"5800044"},{"town":"上田三丁目","koaza":"","lat":34.574688,"lng":135.557028,"zip":"5800016"},{"town":"三宅東三丁目","koaza":"","lat":34.590801,"lng":135.561954,"zip":"5800041"},{"town":"松ケ丘一丁目","koaza":"","lat":34.578361,"lng":135.559781,"zip":"5800042"},{"town":"三宅東六丁目","koaza":"","lat":34.593996,"lng":135.559032,"zip":"5800041"},{"town":"三宅東五丁目","koaza":"","lat":34.590774,"lng":135.558067,"zip":"5800041"},{"town":"天美西五丁目","koaza":"","lat":34.588963,"lng":135.527261,"zip":"5800034"},{"town":"丹南三丁目","koaza":"","lat":34.558476,"lng":135.556648,"zip":"5800013"},{"town":"小川六丁目","koaza":"","lat":34.587449,"lng":135.579856,"zip":"5800002"},{"town":"天美東四丁目","koaza":"","lat":34.5918,"lng":135.539427,"zip":"5800032"},{"town":"岡五丁目","koaza":"","lat":34.561812,"lng":135.555609,"zip":"5800014"},{"town":"天美我堂一丁目","koaza":"","lat":34.578312,"lng":135.527219,"zip":"5800026"},{"town":"丹南一丁目","koaza":"","lat":34.556957,"lng":135.551108,"zip":"5800013"},{"town":"天美北六丁目","koaza":"","lat":34.593043,"lng":135.53454,"zip":"5800031"},{"town":"天美東九丁目","koaza":"","lat":34.590133,"lng":135.532267,"zip":"5800032"},{"town":"天美南三丁目","koaza":"","lat":34.583786,"lng":135.537177,"zip":"5800033"},{"town":"小川四丁目","koaza":"","lat":34.585756,"lng":135.578778,"zip":"5800002"},{"town":"天美我堂四丁目","koaza":"","lat":34.581541,"lng":135.527189,"zip":"5800026"},{"town":"岡六丁目","koaza":"","lat":34.560078,"lng":135.554318,"zip":"5800014"},{"town":"天美東六丁目","koaza":"","lat":34.590135,"lng":135.535789,"zip":"5800032"},{"town":"天美北一丁目","koaza":"","lat":34.59378,"lng":135.538635,"zip":"5800031"},{"town":"上田二丁目","koaza":"","lat":34.576265,"lng":135.558797,"zip":"5800016"},{"town":"天美東八丁目","koaza":"","lat":34.587859,"lng":135.532758,"zip":"5800032"},{"town":"三宅中三丁目","koaza":"","lat":34.586761,"lng":135.55595,"zip":"5800046"},{"town":"天美西一丁目","koaza":"","lat":34.587578,"lng":135.529163,"zip":"5800034"},{"town":"小川一丁目","koaza":"","lat":34.582363,"lng":135.577459,"zip":"5800002"},{"town":"天美東一丁目","koaza":"","lat":34.587791,"lng":135.541435,"zip":"5800032"},{"town":"天美我堂六丁目","koaza":"","lat":34.584971,"lng":135.525836,"zip":"5800026"},{"town":"大堀四丁目","koaza":"","lat":34.592204,"lng":135.573303,"zip":"5800006"},{"town":"河合四丁目","koaza":"","lat":34.569949,"lng":135.541052,"zip":"5800022"},{"town":"三宅中一丁目","koaza":"","lat":34.586146,"lng":135.551324,"zip":"5800046"},{"town":"別所二丁目","koaza":"","lat":34.583301,"lng":135.570035,"zip":"5800005"},{"town":"天美西八丁目","koaza":"","lat":34.594619,"lng":135.524601,"zip":"5800034"},{"town":"上田四丁目","koaza":"","lat":34.574525,"lng":135.552699,"zip":"5800016"},{"town":"上田七丁目","koaza":"","lat":34.571543,"lng":135.558663,"zip":"5800016"},{"town":"田井城一丁目","koaza":"","lat":34.57894,"lng":135.549747,"zip":"5800044"},{"town":"天美西四丁目","koaza":"","lat":34.591789,"lng":135.52629,"zip":"5800034"},{"town":"天美西三丁目","koaza":"","lat":34.593278,"lng":135.528463,"zip":"5800034"},{"town":"田井城四丁目","koaza":"","lat":34.578893,"lng":135.545044,"zip":"5800044"},{"town":"大堀二丁目","koaza":"","lat":34.586998,"lng":135.571778,"zip":"5800006"},{"town":"阿保六丁目","koaza":"","lat":34.583139,"lng":135.558603,"zip":"5800043"},{"town":"北新町一丁目","koaza":"","lat":34.579374,"lng":135.537722,"zip":"5800025"},{"town":"高見の里四丁目","koaza":"","lat":34.574371,"lng":135.548783,"zip":"5800021"},{"town":"阿保五丁目","koaza":"","lat":34.582605,"lng":135.55599,"zip":"5800043"},{"town":"三宅中七丁目","koaza":"","lat":34.593945,"lng":135.552272,"zip":"5800046"},{"town":"上田八丁目","koaza":"","lat":34.570282,"lng":135.56209,"zip":"5800016"},{"town":"三宅東四丁目","koaza":"","lat":34.590798,"lng":135.560041,"zip":"5800041"},{"town":"天美西七丁目","koaza":"","lat":34.591813,"lng":135.523781,"zip":"5800034"},{"town":"阿保一丁目","koaza":"","lat":34.579004,"lng":135.552006,"zip":"5800043"},{"town":"上田五丁目","koaza":"","lat":34.573141,"lng":135.557206,"zip":"5800016"},{"town":"河合五丁目","koaza":"","lat":34.569499,"lng":135.5376,"zip":"5800022"},{"town":"丹南五丁目","koaza":"","lat":34.555842,"lng":135.557343,"zip":"5800013"},{"town":"別所六丁目","koaza":"","lat":34.587731,"lng":135.56418,"zip":"5800005"},{"town":"西野々一丁目","koaza":"","lat":34.57623,"lng":135.56454,"zip":"5800004"},{"town":"天美東七丁目","koaza":"","lat":34.587863,"lng":135.536916,"zip":"5800032"},{"town":"別所七丁目","koaza":"","lat":34.591009,"lng":135.564063,"zip":"5800005"},{"town":"三宅中五丁目","koaza":"","lat":34.589368,"lng":135.552251,"zip":"5800046"},{"town":"立部二丁目","koaza":"","lat":34.563841,"lng":135.564011,"zip":"5800012"},{"town":"南新町二丁目","koaza":"","lat":34.572852,"lng":135.539072,"zip":"5800023"},{"town":"北新町四丁目","koaza":"","lat":34.584088,"lng":135.531127,"zip":"5800025"},{"town":"田井城六丁目","koaza":"","lat":34.583962,"lng":135.545045,"zip":"5800044"},{"town":"天美東三丁目","koaza":"","lat":34.592903,"lng":135.542643,"zip":"5800032"},{"town":"東新町三丁目","koaza":"","lat":34.577914,"lng":135.54166,"zip":"5800024"},{"town":"天美南四丁目","koaza":"","lat":34.581676,"lng":135.535609,"zip":"5800033"},{"town":"田井城三丁目","koaza":"","lat":34.57895,"lng":135.547477,"zip":"5800044"},{"town":"東新町五丁目","koaza":"","lat":34.57364,"lng":135.542075,"zip":"5800024"},{"town":"天美南二丁目","koaza":"","lat":34.584872,"lng":135.539066,"zip":"5800033"},{"town":"岡三丁目","koaza":"","lat":34.565087,"lng":135.559214,"zip":"5800014"},{"town":"天美北三丁目","koaza":"","lat":34.595483,"lng":135.538241,"zip":"5800031"},{"town":"三宅西四丁目","koaza":"","lat":34.589135,"lng":135.547019,"zip":"5800045"},{"town":"天美南一丁目","koaza":"","lat":34.584839,"lng":135.541461,"zip":"5800033"},{"town":"一津屋二丁目","koaza":"","lat":34.580151,"lng":135.567915,"zip":"5800003"},{"town":"大堀三丁目","koaza":"","lat":34.590309,"lng":135.572762,"zip":"5800006"},{"town":"一津屋三丁目","koaza":"","lat":34.581661,"lng":135.570817,"zip":"5800003"},{"town":"小川五丁目","koaza":"","lat":34.586369,"lng":135.576265,"zip":"5800002"},{"town":"南新町三丁目","koaza":"","lat":34.572803,"lng":135.536629,"zip":"5800023"},{"town":"北新町三丁目","koaza":"","lat":34.580473,"lng":135.533797,"zip":"5800025"},{"town":"別所五丁目","koaza":"","lat":34.587668,"lng":135.566679,"zip":"5800005"},{"town":"三宅西三丁目","koaza":"","lat":34.587171,"lng":135.548261,"zip":"5800045"},{"town":"高見の里六丁目","koaza":"","lat":34.571028,"lng":135.548154,"zip":"5800021"},{"town":"東新町四丁目","koaza":"","lat":34.575878,"lng":135.54137,"zip":"5800024"},{"town":"一津屋四丁目","koaza":"","lat":34.579727,"lng":135.573617,"zip":"5800003"},{"town":"河合三丁目","koaza":"","lat":34.56687,"lng":135.543151,"zip":"5800022"},{"town":"天美北七丁目","koaza":"","lat":34.592954,"lng":135.53167,"zip":"5800031"},{"town":"一津屋五丁目","koaza":"","lat":34.579689,"lng":135.576066,"zip":"5800003"},{"town":"松ケ丘四丁目","koaza":"","lat":34.579523,"lng":135.562347,"zip":"5800042"},{"town":"阿保三丁目","koaza":"","lat":34.578932,"lng":135.554331,"zip":"5800043"},{"town":"天美我堂三丁目","koaza":"","lat":34.581366,"lng":135.524171,"zip":"5800026"},{"town":"立部四丁目","koaza":"","lat":34.562371,"lng":135.566187,"zip":"5800012"},{"town":"別所三丁目","koaza":"","lat":34.584622,"lng":135.566578,"zip":"5800005"},{"town":"岡四丁目","koaza":"","lat":34.561944,"lng":135.558785,"zip":"5800014"},{"town":"天美南五丁目","koaza":"","lat":34.585323,"lng":135.534,"zip":"5800033"},{"town":"南新町四丁目","koaza":"","lat":34.573281,"lng":135.533665,"zip":"5800023"},{"town":"南新町一丁目","koaza":"","lat":34.576444,"lng":135.53687,"zip":"5800023"},{"town":"岡二丁目","koaza":"","lat":34.564696,"lng":135.555694,"zip":"5800014"},{"town":"東新町二丁目","koaza":"","lat":34.579919,"lng":135.541136,"zip":"5800024"},{"town":"若林一丁目","koaza":"","lat":34.589952,"lng":135.580401,"zip":"5800001"},{"town":"別所八丁目","koaza":"","lat":34.591326,"lng":135.566937,"zip":"5800005"},{"town":"三宅西一丁目","koaza":"","lat":34.584421,"lng":135.549042,"zip":"5800045"},{"town":"北新町五丁目","koaza":"","lat":34.581427,"lng":135.530253,"zip":"5800025"},{"town":"三宅中二丁目","koaza":"","lat":34.586104,"lng":135.553535,"zip":"5800046"},{"town":"新堂二丁目","koaza":"","lat":34.570427,"lng":135.555542,"zip":"5800015"},{"town":"高見の里三丁目","koaza":"","lat":34.572362,"lng":135.545536,"zip":"5800021"},{"town":"三宅西二丁目","koaza":"","lat":34.586717,"lng":135.544453,"zip":"5800045"},{"town":"別所九丁目","koaza":"","lat":34.594555,"lng":135.565692,"zip":"5800005"},{"town":"天美北五丁目","koaza":"","lat":34.59677,"lng":135.53393,"zip":"5800031"},{"town":"天美我堂七丁目","koaza":"","lat":34.585091,"lng":135.523572,"zip":"5800026"},{"town":"新堂四丁目","koaza":"","lat":34.566661,"lng":135.552217,"zip":"5800015"},{"town":"三宅西五丁目","koaza":"","lat":34.591388,"lng":135.548227,"zip":"5800045"},{"town":"松ケ丘二丁目","koaza":"","lat":34.581401,"lng":135.562286,"zip":"5800042"},{"town":"阿保四丁目","koaza":"","lat":34.579214,"lng":135.557044,"zip":"5800043"},{"town":"新堂三丁目","koaza":"","lat":34.56731,"lng":135.555452,"zip":"5800015"},{"town":"北新町六丁目","koaza":"","lat":34.57831,"lng":135.530245,"zip":"5800025"},{"town":"三宅中六丁目","koaza":"","lat":34.591415,"lng":135.552367,"zip":"5800046"},{"town":"岡七丁目","koaza":"","lat":34.562011,"lng":135.549376,"zip":"5800014"},{"town":"柴垣二丁目","koaza":"","lat":34.567528,"lng":135.562557,"zip":"5800017"},{"town":"一津屋一丁目","koaza":"","lat":34.578408,"lng":135.571028,"zip":"5800003"},{"town":"岡一丁目","koaza":"","lat":34.563005,"lng":135.552302,"zip":"5800014"},{"town":"立部一丁目","koaza":"","lat":34.563334,"lng":135.562057,"zip":"5800012"},{"town":"新堂五丁目","koaza":"","lat":34.566517,"lng":135.549433,"zip":"5800015"},{"town":"三宅中四丁目","koaza":"","lat":34.590636,"lng":135.555826,"zip":"5800046"},{"town":"若林二丁目","koaza":"","lat":34.588393,"lng":135.582895,"zip":"5800001"},{"town":"阿保二丁目","koaza":"","lat":34.582492,"lng":135.55283,"zip":"5800043"},{"town":"天美我堂二丁目","koaza":"","lat":34.578241,"lng":135.524177,"zip":"5800026"},{"town":"柴垣一丁目","koaza":"","lat":34.568133,"lng":135.558955,"zip":"5800017"},{"town":"丹南六丁目","koaza":"","lat":34.555863,"lng":135.553983,"zip":"5800013"},{"town":"西野々二丁目","koaza":"","lat":34.579009,"lng":135.564986,"zip":"5800004"},{"town":"東新町一丁目","koaza":"","lat":34.581916,"lng":135.54073,"zip":"5800024"},{"town":"河合一丁目","koaza":"","lat":34.568949,"lng":135.546509,"zip":"5800022"},{"town":"天美東二丁目","koaza":"","lat":34.589749,"lng":135.540718,"zip":"5800032"},{"town":"河合六丁目","koaza":"","lat":34.56715,"lng":135.538902,"zip":"5800022"},{"town":"天美西六丁目","koaza":"","lat":34.588112,"lng":135.52346,"zip":"5800034"},{"town":"上田六丁目","koaza":"","lat":34.573514,"lng":135.561653,"zip":"5800016"},{"town":"立部三丁目","koaza":"","lat":34.566152,"lng":135.567112,"zip":"5800012"},{"town":"河合二丁目","koaza":"","lat":34.57017,"lng":135.54375,"zip":"5800022"},{"town":"三宅西七丁目","koaza":"","lat":34.594325,"lng":135.547018,"zip":"5800045"},{"town":"丹南四丁目","koaza":"","lat":34.557163,"lng":135.559708,"zip":"5800013"},{"town":"新堂一丁目","koaza":"","lat":34.571215,"lng":135.55271,"zip":"5800015"},{"town":"大堀五丁目","koaza":"","lat":34.590929,"lng":135.57664,"zip":"5800006"},{"town":"大堀一丁目","koaza":"","lat":34.586509,"lng":135.573536,"zip":"5800006"},{"town":"三宅東二丁目","koaza":"","lat":34.586391,"lng":135.560608,"zip":"5800041"},{"town":"西大塚一丁目","koaza":"","lat":34.573073,"lng":135.565571,"zip":"5800011"},{"town":"西大塚二丁目","koaza":"","lat":34.569478,"lng":135.566307,"zip":"5800011"},{"town":"天美北四丁目","koaza":"","lat":34.598,"lng":135.538799,"zip":"5800031"}]