[{"town":"本郷一丁目","koaza":"","lat":34.590324,"lng":135.619091,"zip":"5820001"},{"town":"今町一丁目","koaza":"","lat":34.58791,"lng":135.621573,"zip":"5820002"},{"town":"清州一丁目","koaza":"","lat":34.586609,"lng":135.62394,"zip":"5820006"},{"town":"国分本町五丁目","koaza":"","lat":34.568117,"lng":135.642723,"zip":"5820021"},{"town":"上市四丁目","koaza":"","lat":34.586155,"lng":135.625603,"zip":"5820007"},{"town":"国分本町一丁目","koaza":"","lat":34.567945,"lng":135.63618,"zip":"5820021"},{"town":"大県二丁目","koaza":"","lat":34.588438,"lng":135.627804,"zip":"5820018"},{"town":"国分本町四丁目","koaza":"","lat":34.567468,"lng":135.639158,"zip":"5820021"},{"town":"清州二丁目","koaza":"","lat":34.588374,"lng":135.624843,"zip":"5820006"},{"town":"本郷二丁目","koaza":"","lat":34.589078,"lng":135.617352,"zip":"5820001"},{"town":"古町一丁目","koaza":"","lat":34.584635,"lng":135.621598,"zip":"5820008"},{"town":"大県一丁目","koaza":"","lat":34.588097,"lng":135.62657,"zip":"5820018"},{"town":"大正一丁目","koaza":"","lat":34.586611,"lng":135.620436,"zip":"5820009"},{"town":"今町二丁目","koaza":"","lat":34.591782,"lng":135.619786,"zip":"5820002"},{"town":"国分本町二丁目","koaza":"","lat":34.564627,"lng":135.637925,"zip":"5820021"},{"town":"国分本町三丁目","koaza":"","lat":34.568612,"lng":135.638184,"zip":"5820021"},{"town":"上市三丁目","koaza":"","lat":34.58248,"lng":135.627257,"zip":"5820007"},{"town":"堂島町","koaza":"","lat":34.592034,"lng":135.621153,"zip":"5820003"},{"town":"上市一丁目","koaza":"","lat":34.584503,"lng":135.623722,"zip":"5820007"},{"town":"本郷三丁目","koaza":"","lat":34.591479,"lng":135.617228,"zip":"5820001"},{"town":"国分本町六丁目","koaza":"","lat":34.566275,"lng":135.641031,"zip":"5820021"},{"town":"古町三丁目","koaza":"","lat":34.583134,"lng":135.619369,"zip":"5820008"},{"town":"法善寺二丁目","koaza":"","lat":34.59238,"lng":135.62776,"zip":"5820005"},{"town":"大正二丁目","koaza":"","lat":34.584599,"lng":135.617246,"zip":"5820009"},{"town":"上市二丁目","koaza":"","lat":34.581808,"lng":135.625895,"zip":"5820007"},{"town":"大正三丁目","koaza":"","lat":34.587083,"lng":135.616778,"zip":"5820009"},{"town":"法善寺一丁目","koaza":"","lat":34.592081,"lng":135.625583,"zip":"5820005"},{"town":"古町二丁目","koaza":"","lat":34.581993,"lng":135.62275,"zip":"5820008"},{"town":"国分西二丁目","koaza":"","lat":34.563689,"lng":135.635542,"zip":"5820025"},{"town":"旭ケ丘一丁目","koaza":"","lat":34.563556,"lng":135.632384,"zip":"5820026"},{"town":"平野一丁目","koaza":"","lat":34.592488,"lng":135.630064,"zip":"5820019"},{"town":"国分西一丁目","koaza":"","lat":34.566935,"lng":135.634007,"zip":"5820025"},{"town":"太平寺一丁目","koaza":"","lat":34.583116,"lng":135.629224,"zip":"5820017"},{"town":"大県三丁目","koaza":"","lat":34.587794,"lng":135.629836,"zip":"5820018"},{"town":"河原町","koaza":"","lat":34.592341,"lng":135.62308,"zip":"5820004"},{"town":"山ノ井町","koaza":"","lat":34.598892,"lng":135.633716,"zip":"5820010"},{"town":"本郷四丁目","koaza":"","lat":34.589014,"lng":135.611723,"zip":"5820001"},{"town":"田辺一丁目","koaza":"","lat":34.561097,"lng":135.640319,"zip":"5820024"},{"town":"本郷五丁目","koaza":"","lat":34.59149,"lng":135.612161,"zip":"5820001"},{"town":"法善寺三丁目","koaza":"","lat":34.596862,"lng":135.62383,"zip":"5820005"},{"town":"太平寺二丁目","koaza":"","lat":34.583792,"lng":135.633404,"zip":"5820017"},{"town":"国分市場二丁目","koaza":"","lat":34.56688,"lng":135.646472,"zip":"5820022"},{"town":"国分本町七丁目","koaza":"","lat":34.562483,"lng":135.64348,"zip":"5820021"},{"town":"大県四丁目","koaza":"","lat":34.588319,"lng":135.633074,"zip":"5820018"},{"town":"平野二丁目","koaza":"","lat":34.594306,"lng":135.633268,"zip":"5820019"},{"town":"旭ケ丘二丁目","koaza":"","lat":34.558999,"lng":135.632346,"zip":"5820026"},{"town":"法善寺四丁目","koaza":"","lat":34.597172,"lng":135.628759,"zip":"5820005"},{"town":"石川町","koaza":"","lat":34.571251,"lng":135.624691,"zip":"5820029"},{"town":"大県","koaza":"","lat":34.587717,"lng":135.637879,"zip":"5820018"},{"town":"大字太平寺","koaza":"","lat":34.586639,"lng":135.641879,"zip":"5820000"},{"town":"大字安堂","koaza":"","lat":34.581675,"lng":135.637886,"zip":"5820000"},{"town":"旭ケ丘三丁目","koaza":"","lat":34.559123,"lng":135.636945,"zip":"5820026"},{"town":"片山町","koaza":"","lat":34.570717,"lng":135.629739,"zip":"5820020"},{"town":"大字本堂","koaza":"","lat":34.600514,"lng":135.672383,"zip":"5820000"},{"town":"安堂町","koaza":"","lat":34.577843,"lng":135.631448,"zip":"5820016"},{"town":"国分市場一丁目","koaza":"","lat":34.571123,"lng":135.649557,"zip":"5820022"},{"town":"玉手町","koaza":"","lat":34.565134,"lng":135.626262,"zip":"5820028"},{"town":"大字峠","koaza":"","lat":34.582509,"lng":135.676473,"zip":"5820000"},{"town":"円明町","koaza":"","lat":34.557854,"lng":135.626213,"zip":"5820027"},{"town":"田辺二丁目","koaza":"","lat":34.558062,"lng":135.649257,"zip":"5820024"},{"town":"大字平野","koaza":"","lat":34.594607,"lng":135.638367,"zip":"5820000"},{"town":"旭ケ丘四丁目","koaza":"","lat":34.551479,"lng":135.646235,"zip":"5820026"},{"town":"大字高井田","koaza":"","lat":34.574104,"lng":135.639644,"zip":"5820000"},{"town":"国分東条町","koaza":"","lat":34.567244,"lng":135.658658,"zip":"5820023"},{"town":"大字青谷","koaza":"","lat":34.57691,"lng":135.656088,"zip":"5820000"},{"town":"大字雁多尾畑","koaza":"","lat":34.592457,"lng":135.662641,"zip":"5820000"}]