[{"town":"綾羽一丁目","koaza":"","lat":34.826356,"lng":135.426064,"zip":"5630051"},{"town":"菅原町","koaza":"","lat":34.821983,"lng":135.427102,"zip":"5630055"},{"town":"城南二丁目","koaza":"","lat":34.819267,"lng":135.429884,"zip":"5630025"},{"town":"西本町","koaza":"","lat":34.826583,"lng":135.423019,"zip":"5630059"},{"town":"大和町","koaza":"","lat":34.823353,"lng":135.427902,"zip":"5630054"},{"town":"栄町","koaza":"","lat":34.822853,"lng":135.425131,"zip":"5630056"},{"town":"城山町","koaza":"","lat":34.826796,"lng":135.428214,"zip":"5630052"},{"town":"槻木町","koaza":"","lat":34.824356,"lng":135.423033,"zip":"5630057"},{"town":"栄本町","koaza":"","lat":34.825135,"lng":135.426542,"zip":"5630058"},{"town":"新町","koaza":"","lat":34.829821,"lng":135.42426,"zip":"5630050"},{"town":"渋谷二丁目","koaza":"","lat":34.824297,"lng":135.441882,"zip":"5630028"},{"town":"城南一丁目","koaza":"","lat":34.820631,"lng":135.430106,"zip":"5630025"},{"town":"呉服町","koaza":"","lat":34.818793,"lng":135.42491,"zip":"5630048"},{"town":"畑二丁目","koaza":"","lat":34.82559,"lng":135.449459,"zip":"5630021"},{"town":"上池田一丁目","koaza":"","lat":34.82427,"lng":135.431918,"zip":"5630027"},{"town":"上池田二丁目","koaza":"","lat":34.821873,"lng":135.434131,"zip":"5630027"},{"town":"五月丘四丁目","koaza":"","lat":34.829216,"lng":135.43985,"zip":"5630029"},{"town":"建石町","koaza":"","lat":34.825741,"lng":135.430019,"zip":"5630053"},{"town":"天神二丁目","koaza":"","lat":34.806436,"lng":135.440203,"zip":"5630031"},{"town":"荘園二丁目","koaza":"","lat":34.809314,"lng":135.436721,"zip":"5630038"},{"town":"石橋三丁目","koaza":"","lat":34.805366,"lng":135.447704,"zip":"5630032"},{"town":"八王寺一丁目","koaza":"","lat":34.815237,"lng":135.433134,"zip":"5630037"},{"town":"五月丘三丁目","koaza":"","lat":34.826927,"lng":135.437018,"zip":"5630029"},{"town":"鉢塚一丁目","koaza":"","lat":34.817562,"lng":135.435374,"zip":"5630024"},{"town":"渋谷一丁目","koaza":"","lat":34.82495,"lng":135.439415,"zip":"5630028"},{"town":"姫室町","koaza":"","lat":34.817839,"lng":135.423022,"zip":"5630046"},{"town":"井口堂二丁目","koaza":"","lat":34.815469,"lng":135.444084,"zip":"5630023"},{"town":"五月丘二丁目","koaza":"","lat":34.827765,"lng":135.433759,"zip":"5630029"},{"town":"畑五丁目","koaza":"","lat":34.833191,"lng":135.451689,"zip":"5630021"},{"town":"空港一丁目","koaza":"","lat":34.796502,"lng":135.441871,"zip":"5630034"},{"town":"宇保町","koaza":"","lat":34.81661,"lng":135.429815,"zip":"5630042"},{"town":"渋谷三丁目","koaza":"","lat":34.827711,"lng":135.442076,"zip":"5630028"},{"town":"井口堂三丁目","koaza":"","lat":34.813095,"lng":135.446874,"zip":"5630023"},{"town":"五月丘一丁目","koaza":"","lat":34.824794,"lng":135.434753,"zip":"5630029"},{"town":"城南三丁目","koaza":"","lat":34.818842,"lng":135.432816,"zip":"5630025"},{"town":"鉢塚二丁目","koaza":"","lat":34.816488,"lng":135.437682,"zip":"5630024"},{"town":"伏尾台五丁目","koaza":"","lat":34.856661,"lng":135.438566,"zip":"5630017"},{"town":"豊島南一丁目","koaza":"","lat":34.800378,"lng":135.435665,"zip":"5630035"},{"town":"旭丘一丁目","koaza":"","lat":34.820271,"lng":135.445493,"zip":"5630022"},{"town":"豊島北二丁目","koaza":"","lat":34.805764,"lng":135.436452,"zip":"5630036"},{"town":"伏尾台三丁目","koaza":"","lat":34.861194,"lng":135.438891,"zip":"5630017"},{"town":"井口堂一丁目","koaza":"","lat":34.812337,"lng":135.442385,"zip":"5630023"},{"town":"天神一丁目","koaza":"","lat":34.809074,"lng":135.441209,"zip":"5630031"},{"town":"旭丘三丁目","koaza":"","lat":34.818081,"lng":135.448567,"zip":"5630022"},{"town":"室町","koaza":"","lat":34.822488,"lng":135.42202,"zip":"5630047"},{"town":"伏尾台四丁目","koaza":"","lat":34.858782,"lng":135.438651,"zip":"5630017"},{"town":"石橋一丁目","koaza":"","lat":34.806471,"lng":135.44399,"zip":"5630032"},{"town":"荘園一丁目","koaza":"","lat":34.812876,"lng":135.436824,"zip":"5630038"},{"town":"満寿美町","koaza":"","lat":34.818212,"lng":135.427326,"zip":"5630041"},{"town":"桃園一丁目","koaza":"","lat":34.820888,"lng":135.418913,"zip":"5630045"},{"town":"緑丘二丁目","koaza":"","lat":34.820428,"lng":135.4426,"zip":"5630026"},{"town":"旭丘二丁目","koaza":"","lat":34.820966,"lng":135.449427,"zip":"5630022"},{"town":"石橋二丁目","koaza":"","lat":34.810104,"lng":135.44613,"zip":"5630032"},{"town":"緑丘一丁目","koaza":"","lat":34.820956,"lng":135.438406,"zip":"5630026"},{"town":"豊島南二丁目","koaza":"","lat":34.800586,"lng":135.432081,"zip":"5630035"},{"town":"八王寺二丁目","koaza":"","lat":34.81076,"lng":135.433134,"zip":"5630037"},{"town":"住吉一丁目","koaza":"","lat":34.804024,"lng":135.439959,"zip":"5630033"},{"town":"畑一丁目","koaza":"","lat":34.825126,"lng":135.445715,"zip":"5630021"},{"town":"石橋四丁目","koaza":"","lat":34.802137,"lng":135.444628,"zip":"5630032"},{"town":"鉢塚三丁目","koaza":"","lat":34.815641,"lng":135.440455,"zip":"5630024"},{"town":"桃園二丁目","koaza":"","lat":34.817058,"lng":135.418977,"zip":"5630045"},{"town":"住吉二丁目","koaza":"","lat":34.800792,"lng":135.439996,"zip":"5630033"},{"town":"畑四丁目","koaza":"","lat":34.829926,"lng":135.44881,"zip":"5630021"},{"town":"豊島北一丁目","koaza":"","lat":34.804523,"lng":135.433315,"zip":"5630036"},{"town":"神田三丁目","koaza":"","lat":34.807054,"lng":135.426114,"zip":"5630043"},{"town":"神田一丁目","koaza":"","lat":34.813155,"lng":135.4278,"zip":"5630043"},{"town":"神田二丁目","koaza":"","lat":34.810729,"lng":135.425785,"zip":"5630043"},{"town":"伏尾台二丁目","koaza":"","lat":34.864398,"lng":135.43871,"zip":"5630017"},{"town":"伏尾台一丁目","koaza":"","lat":34.861781,"lng":135.432944,"zip":"5630017"},{"town":"ダイハツ町","koaza":"","lat":34.804206,"lng":135.426691,"zip":"5630044"},{"town":"空港二丁目","koaza":"","lat":34.795141,"lng":135.437929,"zip":"5630034"},{"town":"神田四丁目","koaza":"","lat":34.812031,"lng":135.421053,"zip":"5630043"},{"town":"綾羽二丁目","koaza":"","lat":34.82813,"lng":135.425644,"zip":"5630051"},{"town":"吉田町","koaza":"","lat":34.855066,"lng":135.434478,"zip":"5630016"},{"town":"五月丘五丁目","koaza":"","lat":34.832826,"lng":135.435439,"zip":"5630029"},{"town":"中川原町","koaza":"","lat":34.844319,"lng":135.43585,"zip":"5630013"},{"town":"古江町","koaza":"","lat":34.847949,"lng":135.422936,"zip":"5630015"},{"town":"木部町","koaza":"","lat":34.838193,"lng":135.432223,"zip":"5630014"},{"town":"東山町","koaza":"","lat":34.846789,"lng":135.442984,"zip":"5630012"},{"town":"畑三丁目","koaza":"","lat":34.829984,"lng":135.445196,"zip":"5630021"},{"town":"伏尾町","koaza":"","lat":34.860446,"lng":135.44846,"zip":"5630011"}]