[{"town":"原町","koaza":"","lat":34.460683,"lng":135.574133,"zip":"5860021"},{"town":"自由ケ丘","koaza":"","lat":34.473083,"lng":135.555227,"zip":"5860096"},{"town":"南花台七丁目","koaza":"","lat":34.43501,"lng":135.557124,"zip":"5860077"},{"town":"あかしあ台二丁目","koaza":"","lat":34.46761,"lng":135.553292,"zip":"5860095"},{"town":"原町五丁目","koaza":"","lat":34.458072,"lng":135.569815,"zip":"5860021"},{"town":"原町六丁目","koaza":"","lat":34.457191,"lng":135.567136,"zip":"5860021"},{"town":"木戸西町二丁目","koaza":"","lat":34.465608,"lng":135.565891,"zip":"5860009"},{"town":"南花台八丁目","koaza":"","lat":34.435115,"lng":135.561021,"zip":"5860077"},{"town":"桐ケ丘","koaza":"","lat":34.475483,"lng":135.555419,"zip":"5860097"},{"town":"木戸西町三丁目","koaza":"","lat":34.465189,"lng":135.564195,"zip":"5860009"},{"town":"松ケ丘東町","koaza":"","lat":34.476855,"lng":135.561163,"zip":"5860007"},{"town":"大矢船西町","koaza":"","lat":34.413383,"lng":135.557688,"zip":"5860073"},{"town":"木戸西町一丁目","koaza":"","lat":34.465516,"lng":135.567404,"zip":"5860009"},{"town":"原町三丁目","koaza":"","lat":34.46193,"lng":135.566516,"zip":"5860021"},{"town":"西片添町","koaza":"","lat":34.432046,"lng":135.569608,"zip":"5860047"},{"town":"長野町","koaza":"","lat":34.449829,"lng":135.571203,"zip":"5860014"},{"town":"あかしあ台一丁目","koaza":"","lat":34.47098,"lng":135.555839,"zip":"5860095"},{"town":"菊水町","koaza":"","lat":34.452707,"lng":135.574982,"zip":"5860012"},{"town":"本多町","koaza":"","lat":34.455427,"lng":135.566969,"zip":"5860022"},{"town":"原町二丁目","koaza":"","lat":34.462185,"lng":135.564647,"zip":"5860021"},{"town":"清見台五丁目","koaza":"","lat":34.433773,"lng":135.578281,"zip":"5860043"},{"town":"大矢船北町","koaza":"","lat":34.423001,"lng":135.559598,"zip":"5860076"},{"town":"清見台一丁目","koaza":"","lat":34.436311,"lng":135.577475,"zip":"5860043"},{"town":"西代町","koaza":"","lat":34.453031,"lng":135.566842,"zip":"5860016"},{"town":"野作町","koaza":"","lat":34.451599,"lng":135.560798,"zip":"5860023"},{"town":"緑ケ丘南町","koaza":"","lat":34.443471,"lng":135.542619,"zip":"5860083"},{"town":"清見台三丁目","koaza":"","lat":34.434842,"lng":135.581415,"zip":"5860043"},{"town":"美加の台五丁目","koaza":"","lat":34.421874,"lng":135.590922,"zip":"5860044"},{"town":"原町一丁目","koaza":"","lat":34.458685,"lng":135.566333,"zip":"5860021"},{"town":"清見台四丁目","koaza":"","lat":34.43546,"lng":135.585139,"zip":"5860043"},{"town":"美加の台四丁目","koaza":"","lat":34.41998,"lng":135.59486,"zip":"5860044"},{"town":"緑ケ丘中町","koaza":"","lat":34.446595,"lng":135.541876,"zip":"5860082"},{"town":"原町四丁目","koaza":"","lat":34.461046,"lng":135.569621,"zip":"5860021"},{"town":"南貴望ケ丘","koaza":"","lat":34.466308,"lng":135.558499,"zip":"5860092"},{"town":"南花台二丁目","koaza":"","lat":34.428538,"lng":135.558352,"zip":"5860077"},{"town":"本町","koaza":"","lat":34.452459,"lng":135.571943,"zip":"5860015"},{"town":"昭栄町","koaza":"","lat":34.454728,"lng":135.559212,"zip":"5860025"},{"town":"木戸町","koaza":"","lat":34.463872,"lng":135.557836,"zip":"5860001"},{"town":"清見台二丁目","koaza":"","lat":34.437301,"lng":135.582946,"zip":"5860043"},{"town":"松ケ丘西町","koaza":"","lat":34.474956,"lng":135.557373,"zip":"5860005"},{"town":"南花台四丁目","koaza":"","lat":34.425561,"lng":135.554521,"zip":"5860077"},{"town":"美加の台六丁目","koaza":"","lat":34.42337,"lng":135.58848,"zip":"5860044"},{"town":"大矢船中町","koaza":"","lat":34.419648,"lng":135.559763,"zip":"5860075"},{"town":"南花台三丁目","koaza":"","lat":34.429422,"lng":135.555588,"zip":"5860077"},{"town":"南花台六丁目","koaza":"","lat":34.431958,"lng":135.555176,"zip":"5860077"},{"town":"楠町西","koaza":"","lat":34.469368,"lng":135.560957,"zip":"5860004"},{"town":"木戸二丁目","koaza":"","lat":34.473713,"lng":135.566206,"zip":"5860001"},{"town":"松ケ丘中町","koaza":"","lat":34.476006,"lng":135.559714,"zip":"5860006"},{"town":"美加の台三丁目","koaza":"","lat":34.42494,"lng":135.591558,"zip":"5860044"},{"town":"寿町","koaza":"","lat":34.452408,"lng":135.557323,"zip":"5860026"},{"town":"古野町","koaza":"","lat":34.455656,"lng":135.572146,"zip":"5860017"},{"town":"楠ケ丘","koaza":"","lat":34.439144,"lng":135.561525,"zip":"5860039"},{"town":"木戸三丁目","koaza":"","lat":34.475364,"lng":135.567683,"zip":"5860001"},{"town":"東片添町","koaza":"","lat":34.433372,"lng":135.574279,"zip":"5860045"},{"town":"北貴望ケ丘","koaza":"","lat":34.468839,"lng":135.557762,"zip":"5860091"},{"town":"西之山町","koaza":"","lat":34.456854,"lng":135.562444,"zip":"5860024"},{"town":"南ケ丘","koaza":"","lat":34.411967,"lng":135.564008,"zip":"5860065"},{"town":"南花台五丁目","koaza":"","lat":34.426235,"lng":135.550501,"zip":"5860077"},{"town":"南花台一丁目","koaza":"","lat":34.432467,"lng":135.559954,"zip":"5860077"},{"town":"大矢船南町","koaza":"","lat":34.414872,"lng":135.56033,"zip":"5860074"},{"town":"楠町東","koaza":"","lat":34.470583,"lng":135.563684,"zip":"5860003"},{"town":"緑ケ丘北町","koaza":"","lat":34.449916,"lng":135.542061,"zip":"5860081"},{"town":"流谷","koaza":"","lat":34.392635,"lng":135.58114,"zip":"5860063"},{"town":"美加の台二丁目","koaza":"","lat":34.428406,"lng":135.584093,"zip":"5860044"},{"town":"木戸一丁目","koaza":"","lat":34.470635,"lng":135.568314,"zip":"5860001"},{"town":"木戸東町","koaza":"","lat":34.473412,"lng":135.572781,"zip":"5860008"},{"town":"汐の宮町","koaza":"","lat":34.467138,"lng":135.580688,"zip":"5860011"},{"town":"中片添町","koaza":"","lat":34.432712,"lng":135.572469,"zip":"5860046"},{"town":"錦町","koaza":"","lat":34.449184,"lng":135.561189,"zip":"5860031"},{"town":"荘園町","koaza":"","lat":34.459487,"lng":135.550247,"zip":"5860093"},{"town":"日東町","koaza":"","lat":34.439804,"lng":135.578712,"zip":"5860042"},{"town":"上原西町","koaza":"","lat":34.447056,"lng":135.553613,"zip":"5860038"},{"town":"旭ケ丘","koaza":"","lat":34.428666,"lng":135.542316,"zip":"5860084"},{"town":"千代田台町","koaza":"","lat":34.461696,"lng":135.561601,"zip":"5860027"},{"town":"上原町","koaza":"","lat":34.442695,"lng":135.548906,"zip":"5860037"},{"town":"栄町","koaza":"","lat":34.448564,"lng":135.564684,"zip":"5860032"},{"town":"小塩町","koaza":"","lat":34.434155,"lng":135.566356,"zip":"5860035"},{"town":"南青葉台","koaza":"","lat":34.414127,"lng":135.571224,"zip":"5860067"},{"town":"上田町","koaza":"","lat":34.440594,"lng":135.566576,"zip":"5860034"},{"town":"大師町","koaza":"","lat":34.443267,"lng":135.575302,"zip":"5860041"},{"town":"千代田南町","koaza":"","lat":34.46424,"lng":135.571381,"zip":"5860018"},{"town":"末広町","koaza":"","lat":34.451591,"lng":135.577922,"zip":"5860051"},{"town":"美加の台七丁目","koaza":"","lat":34.423326,"lng":135.58353,"zip":"5860044"},{"town":"美加の台一丁目","koaza":"","lat":34.427464,"lng":135.578386,"zip":"5860044"},{"town":"向野町","koaza":"","lat":34.45904,"lng":135.575064,"zip":"5860013"},{"town":"三日市町","koaza":"","lat":34.438088,"lng":135.571615,"zip":"5860048"},{"town":"喜多町","koaza":"","lat":34.445535,"lng":135.566358,"zip":"5860033"},{"town":"北青葉台","koaza":"","lat":34.422305,"lng":135.569746,"zip":"5860068"},{"town":"市町","koaza":"","lat":34.468764,"lng":135.575485,"zip":"5860002"},{"town":"河合寺","koaza":"","lat":34.445225,"lng":135.58055,"zip":"5860052"},{"town":"石仏","koaza":"","lat":34.422808,"lng":135.575573,"zip":"5860069"},{"town":"唐久谷","koaza":"","lat":34.402686,"lng":135.576368,"zip":"5860064"},{"town":"寺元","koaza":"","lat":34.435147,"lng":135.598841,"zip":"5860053"},{"town":"高向","koaza":"","lat":34.436843,"lng":135.552005,"zip":"5860036"},{"town":"太井","koaza":"","lat":34.415472,"lng":135.617675,"zip":"5860056"},{"town":"下里町","koaza":"","lat":34.442454,"lng":135.533736,"zip":"5860087"},{"town":"清水","koaza":"","lat":34.412239,"lng":135.581132,"zip":"5860066"},{"town":"鳩原","koaza":"","lat":34.422513,"lng":135.609903,"zip":"5860055"},{"town":"神ガ丘","koaza":"","lat":34.426811,"lng":135.598015,"zip":"5860054"},{"town":"天野町","koaza":"","lat":34.42535,"lng":135.531389,"zip":"5860086"},{"town":"岩瀬","koaza":"","lat":34.412825,"lng":135.599382,"zip":"5860061"},{"town":"小山田町","koaza":"","lat":34.452626,"lng":135.546302,"zip":"5860094"},{"town":"小深","koaza":"","lat":34.409554,"lng":135.633381,"zip":"5860057"},{"town":"日野","koaza":"","lat":34.416431,"lng":135.541755,"zip":"5860085"},{"town":"石見川","koaza":"","lat":34.391937,"lng":135.643349,"zip":"5860058"},{"town":"加賀田","koaza":"","lat":34.401162,"lng":135.561083,"zip":"5860071"},{"town":"天見","koaza":"","lat":34.39195,"lng":135.606229,"zip":"5860062"},{"town":"滝畑","koaza":"","lat":34.370893,"lng":135.528744,"zip":"5860072"}]