[{"town":"下瓦屋六丁目","koaza":"","lat":34.423728,"lng":135.334211,"zip":"5980062"},{"town":"新町三丁目","koaza":"","lat":34.416667,"lng":135.320108,"zip":"5980051"},{"town":"南泉ケ丘三丁目","koaza":"","lat":34.407665,"lng":135.351816,"zip":"5980073"},{"town":"若宮町","koaza":"","lat":34.41191,"lng":135.315471,"zip":"5980055"},{"town":"栄町","koaza":"","lat":34.412617,"lng":135.316876,"zip":"5980054"},{"town":"新町一丁目","koaza":"","lat":34.416488,"lng":135.31831,"zip":"5980051"},{"town":"鶴原五丁目","koaza":"","lat":34.428401,"lng":135.339293,"zip":"5980071"},{"town":"下瓦屋四丁目","koaza":"","lat":34.421571,"lng":135.331691,"zip":"5980062"},{"town":"下瓦屋一丁目","koaza":"","lat":34.419299,"lng":135.329582,"zip":"5980062"},{"town":"本町","koaza":"","lat":34.415081,"lng":135.315358,"zip":"5980057"},{"town":"松風台三丁目","koaza":"","lat":34.397278,"lng":135.332619,"zip":"5980008"},{"town":"泉ケ丘二丁目","koaza":"","lat":34.409203,"lng":135.35235,"zip":"5980072"},{"town":"高松南三丁目","koaza":"","lat":34.401412,"lng":135.30882,"zip":"5980015"},{"town":"羽倉崎上町一丁目","koaza":"","lat":34.398756,"lng":135.300792,"zip":"5980037"},{"town":"春日町","koaza":"","lat":34.415858,"lng":135.316981,"zip":"5980058"},{"town":"鶴原一丁目","koaza":"","lat":34.425835,"lng":135.336504,"zip":"5980071"},{"town":"南泉ケ丘一丁目","koaza":"","lat":34.412781,"lng":135.348066,"zip":"5980073"},{"town":"元町","koaza":"","lat":34.414484,"lng":135.314081,"zip":"5980056"},{"town":"高松南二丁目","koaza":"","lat":34.402294,"lng":135.310968,"zip":"5980015"},{"town":"高松南一丁目","koaza":"","lat":34.403443,"lng":135.312352,"zip":"5980015"},{"town":"市場東三丁目","koaza":"","lat":34.408284,"lng":135.326783,"zip":"5980005"},{"town":"葵町一丁目","koaza":"","lat":34.400741,"lng":135.32169,"zip":"5980014"},{"town":"市場西二丁目","koaza":"","lat":34.405153,"lng":135.320297,"zip":"5980006"},{"town":"中町四丁目","koaza":"","lat":34.399346,"lng":135.313321,"zip":"5980013"},{"town":"大宮町","koaza":"","lat":34.413221,"lng":135.318808,"zip":"5980053"},{"town":"松風台二丁目","koaza":"","lat":34.399004,"lng":135.333462,"zip":"5980008"},{"town":"中町二丁目","koaza":"","lat":34.401256,"lng":135.316684,"zip":"5980013"},{"town":"葵町四丁目","koaza":"","lat":34.39668,"lng":135.319665,"zip":"5980014"},{"town":"高松北一丁目","koaza":"","lat":34.408965,"lng":135.315593,"zip":"5980011"},{"town":"松風台一丁目","koaza":"","lat":34.401055,"lng":135.33352,"zip":"5980008"},{"town":"新浜町","koaza":"","lat":34.420714,"lng":135.320474,"zip":"5980064"},{"town":"羽倉崎上町二丁目","koaza":"","lat":34.39649,"lng":135.301554,"zip":"5980037"},{"town":"松原一丁目","koaza":"","lat":34.404613,"lng":135.3049,"zip":"5980045"},{"town":"西本町","koaza":"","lat":34.412584,"lng":135.311618,"zip":"5980042"},{"town":"新安松二丁目","koaza":"","lat":34.39677,"lng":135.306965,"zip":"5980032"},{"town":"中町三丁目","koaza":"","lat":34.399913,"lng":135.315378,"zip":"5980013"},{"town":"高松西二丁目","koaza":"","lat":34.40343,"lng":135.306706,"zip":"5980016"},{"town":"湊一丁目","koaza":"","lat":34.415651,"lng":135.324082,"zip":"5980063"},{"town":"泉ケ丘五丁目","koaza":"","lat":34.417967,"lng":135.355329,"zip":"5980072"},{"town":"南泉ケ丘二丁目","koaza":"","lat":34.410035,"lng":135.349569,"zip":"5980073"},{"town":"市場南一丁目","koaza":"","lat":34.403171,"lng":135.325115,"zip":"5980004"},{"town":"泉ケ丘四丁目","koaza":"","lat":34.416514,"lng":135.354106,"zip":"5980072"},{"town":"中町一丁目","koaza":"","lat":34.402432,"lng":135.318565,"zip":"5980013"},{"town":"葵町二丁目","koaza":"","lat":34.399314,"lng":135.321121,"zip":"5980014"},{"town":"上町三丁目","koaza":"","lat":34.409839,"lng":135.318568,"zip":"5980007"},{"town":"市場西三丁目","koaza":"","lat":34.407415,"lng":135.319973,"zip":"5980006"},{"town":"野出町","koaza":"","lat":34.41426,"lng":135.310837,"zip":"5980041"},{"town":"羽倉崎二丁目","koaza":"","lat":34.399013,"lng":135.297775,"zip":"5980046"},{"town":"羽倉崎三丁目","koaza":"","lat":34.401495,"lng":135.295666,"zip":"5980046"},{"town":"湊四丁目","koaza":"","lat":34.418116,"lng":135.326338,"zip":"5980063"},{"town":"新安松三丁目","koaza":"","lat":34.39742,"lng":135.304205,"zip":"5980032"},{"town":"東佐野台","koaza":"","lat":34.410156,"lng":135.345399,"zip":"5980074"},{"town":"湊二丁目","koaza":"","lat":34.417958,"lng":135.322261,"zip":"5980063"},{"town":"高松北二丁目","koaza":"","lat":34.407643,"lng":135.312916,"zip":"5980011"},{"town":"大西二丁目","koaza":"","lat":34.407956,"lng":135.309139,"zip":"5980043"},{"town":"大西一丁目","koaza":"","lat":34.410368,"lng":135.312778,"zip":"5980043"},{"town":"新町二丁目","koaza":"","lat":34.419645,"lng":135.318273,"zip":"5980051"},{"town":"羽倉崎上町三丁目","koaza":"","lat":34.396839,"lng":135.298164,"zip":"5980037"},{"town":"葵町三丁目","koaza":"","lat":34.398152,"lng":135.319776,"zip":"5980014"},{"town":"羽倉崎四丁目","koaza":"","lat":34.403986,"lng":135.298426,"zip":"5980046"},{"town":"下瓦屋五丁目","koaza":"","lat":34.425505,"lng":135.331169,"zip":"5980062"},{"town":"松原三丁目","koaza":"","lat":34.40696,"lng":135.300919,"zip":"5980045"},{"town":"旭町","koaza":"","lat":34.414447,"lng":135.320972,"zip":"5980052"},{"town":"新安松一丁目","koaza":"","lat":34.399457,"lng":135.308014,"zip":"5980032"},{"town":"上町二丁目","koaza":"","lat":34.411327,"lng":135.321305,"zip":"5980007"},{"town":"高松東二丁目","koaza":"","lat":34.404481,"lng":135.315274,"zip":"5980012"},{"town":"市場東二丁目","koaza":"","lat":34.406224,"lng":135.324582,"zip":"5980005"},{"town":"鶴原二丁目","koaza":"","lat":34.427267,"lng":135.335167,"zip":"5980071"},{"town":"市場西一丁目","koaza":"","lat":34.403428,"lng":135.322271,"zip":"5980006"},{"town":"高松東一丁目","koaza":"","lat":34.406937,"lng":135.316256,"zip":"5980012"},{"town":"市場東一丁目","koaza":"","lat":34.405516,"lng":135.328065,"zip":"5980005"},{"town":"市場南三丁目","koaza":"","lat":34.400546,"lng":135.331029,"zip":"5980004"},{"town":"鶴原三丁目","koaza":"","lat":34.428387,"lng":135.331377,"zip":"5980071"},{"town":"笠松二丁目","koaza":"","lat":34.408972,"lng":135.306341,"zip":"5980044"},{"town":"俵屋","koaza":"","lat":34.397819,"lng":135.325547,"zip":"5980003"},{"town":"羽倉崎一丁目","koaza":"","lat":34.401171,"lng":135.299696,"zip":"5980046"},{"town":"高松西一丁目","koaza":"","lat":34.405681,"lng":135.309942,"zip":"5980016"},{"town":"市場南二丁目","koaza":"","lat":34.401534,"lng":135.328316,"zip":"5980004"},{"town":"松原二丁目","koaza":"","lat":34.405687,"lng":135.303034,"zip":"5980045"},{"town":"下瓦屋三丁目","koaza":"","lat":34.424012,"lng":135.329718,"zip":"5980062"},{"town":"湊三丁目","koaza":"","lat":34.419791,"lng":135.324759,"zip":"5980063"},{"town":"泉ケ丘一丁目","koaza":"","lat":34.413157,"lng":135.350641,"zip":"5980072"},{"town":"泉ケ丘三丁目","koaza":"","lat":34.413988,"lng":135.353136,"zip":"5980072"},{"town":"下瓦屋二丁目","koaza":"","lat":34.422847,"lng":135.326728,"zip":"5980062"},{"town":"東羽倉崎町","koaza":"","lat":34.400674,"lng":135.303809,"zip":"5980031"},{"town":"上町一丁目","koaza":"","lat":34.40975,"lng":135.324155,"zip":"5980007"},{"town":"笠松一丁目","koaza":"","lat":34.411064,"lng":135.308703,"zip":"5980044"},{"town":"佐野台","koaza":"","lat":34.411946,"lng":135.343156,"zip":"5980075"},{"town":"鶴原四丁目","koaza":"","lat":34.430201,"lng":135.335984,"zip":"5980071"},{"town":"下瓦屋","koaza":"","lat":34.418993,"lng":135.336201,"zip":"5980062"},{"town":"南中岡本","koaza":"","lat":34.390268,"lng":135.30114,"zip":"5980036"},{"town":"りんくう往来南","koaza":"","lat":34.407448,"lng":135.296404,"zip":"5980047"},{"town":"南中樫井","koaza":"","lat":34.382747,"lng":135.296925,"zip":"5980035"},{"town":"南中安松","koaza":"","lat":34.392861,"lng":135.307552,"zip":"5980033"},{"town":"上瓦屋","koaza":"","lat":34.413322,"lng":135.33682,"zip":"5980001"},{"town":"りんくう往来北","koaza":"","lat":34.415965,"lng":135.307427,"zip":"5980048"},{"town":"住吉町","koaza":"","lat":34.426703,"lng":135.326789,"zip":"5980061"},{"town":"中庄","koaza":"","lat":34.409362,"lng":135.332099,"zip":"5980002"},{"town":"鶴原","koaza":"","lat":34.420854,"lng":135.343687,"zip":"5980071"},{"town":"泉州空港北","koaza":"","lat":34.44694,"lng":135.241025,"zip":"5490001"},{"town":"土丸","koaza":"","lat":34.362447,"lng":135.356954,"zip":"5980022"},{"town":"長滝","koaza":"","lat":34.38694,"lng":135.31659,"zip":"5980034"},{"town":"日根野","koaza":"","lat":34.348952,"lng":135.352543,"zip":"5980021"},{"town":"上之郷","koaza":"","lat":34.362708,"lng":135.335279,"zip":"5980024"},{"town":"大木","koaza":"","lat":34.347181,"lng":135.377558,"zip":"5980023"}]