[{"town":"北出一丁目","koaza":"","lat":34.48076,"lng":135.405945,"zip":"5950803"},{"town":"高月南一丁目","koaza":"","lat":34.476498,"lng":135.411609,"zip":"5950802"},{"town":"高月南二丁目","koaza":"","lat":34.478441,"lng":135.411049,"zip":"5950802"},{"town":"忠岡南一丁目","koaza":"","lat":34.489089,"lng":135.395368,"zip":"5950813"},{"town":"北出三丁目","koaza":"","lat":34.482891,"lng":135.4096,"zip":"5950803"},{"town":"忠岡中二丁目","koaza":"","lat":34.493035,"lng":135.393016,"zip":"5950812"},{"town":"忠岡南二丁目","koaza":"","lat":34.491506,"lng":135.391902,"zip":"5950813"},{"town":"高月北一丁目","koaza":"","lat":34.478414,"lng":135.41658,"zip":"5950801"},{"town":"馬瀬三丁目","koaza":"","lat":34.487405,"lng":135.405084,"zip":"5950804"},{"town":"馬瀬一丁目","koaza":"","lat":34.484324,"lng":135.402217,"zip":"5950804"},{"town":"忠岡中一丁目","koaza":"","lat":34.491115,"lng":135.396419,"zip":"5950812"},{"town":"忠岡中三丁目","koaza":"","lat":34.495683,"lng":135.388601,"zip":"5950812"},{"town":"高月北二丁目","koaza":"","lat":34.480672,"lng":135.413722,"zip":"5950801"},{"town":"馬瀬二丁目","koaza":"","lat":34.485436,"lng":135.404339,"zip":"5950804"},{"town":"忠岡北二丁目","koaza":"","lat":34.495081,"lng":135.394056,"zip":"5950811"},{"town":"忠岡北一丁目","koaza":"","lat":34.493636,"lng":135.397438,"zip":"5950811"},{"town":"忠岡東二丁目","koaza":"","lat":34.490364,"lng":135.401483,"zip":"5950805"},{"town":"北出二丁目","koaza":"","lat":34.481887,"lng":135.407395,"zip":"5950803"},{"town":"忠岡南三丁目","koaza":"","lat":34.494367,"lng":135.386789,"zip":"5950813"},{"town":"高月南三丁目","koaza":"","lat":34.477184,"lng":135.414644,"zip":"5950802"},{"town":"忠岡東一丁目","koaza":"","lat":34.488091,"lng":135.400047,"zip":"5950805"},{"town":"忠岡北三丁目","koaza":"","lat":34.497792,"lng":135.388356,"zip":"5950811"},{"town":"忠岡東三丁目","koaza":"","lat":34.492473,"lng":135.402905,"zip":"5950805"},{"town":"新浜一丁目","koaza":"","lat":34.498021,"lng":135.382528,"zip":"5950814"},{"town":"新浜二丁目","koaza":"","lat":34.500407,"lng":135.378962,"zip":"5950814"},{"town":"新浜三丁目","koaza":"","lat":34.502982,"lng":135.373996,"zip":"5950814"}]