[{"town":"板原","koaza":"","lat":34.488469,"lng":135.416208,"zip":"5950033"},{"town":"宇多","koaza":"","lat":34.490762,"lng":135.410159,"zip":"5950034"},{"town":"綾井","koaza":"","lat":34.513871,"lng":135.435578,"zip":"5950001"},{"town":"楠町西","koaza":"","lat":34.493093,"lng":135.410644,"zip":"5950038"},{"town":"尾井千原町","koaza":"","lat":34.511644,"lng":135.432513,"zip":"5950003"},{"town":"末広町一丁目","koaza":"","lat":34.513647,"lng":135.430166,"zip":"5950002"},{"town":"末広町二丁目","koaza":"","lat":34.513546,"lng":135.432031,"zip":"5950002"},{"town":"要池住宅","koaza":"","lat":34.491595,"lng":135.420855,"zip":"5950028"},{"town":"神明町","koaza":"","lat":34.504415,"lng":135.40208,"zip":"5950064"},{"town":"本町","koaza":"","lat":34.50316,"lng":135.401239,"zip":"5950063"},{"town":"若宮町","koaza":"","lat":34.504557,"lng":135.404078,"zip":"5950065"},{"town":"助松町四丁目","koaza":"","lat":34.516238,"lng":135.416757,"zip":"5950071"},{"town":"楠町東","koaza":"","lat":34.491037,"lng":135.413806,"zip":"5950039"},{"town":"下之町","koaza":"","lat":34.502343,"lng":135.398444,"zip":"5950045"},{"town":"北豊中町三丁目","koaza":"","lat":34.494725,"lng":135.427172,"zip":"5950012"},{"town":"板原町一丁目","koaza":"","lat":34.489591,"lng":135.41239,"zip":"5950033"},{"town":"菅原町","koaza":"","lat":34.506256,"lng":135.403916,"zip":"5950066"},{"town":"東豊中町三丁目","koaza":"","lat":34.491761,"lng":135.428056,"zip":"5950021"},{"town":"臨海町三丁目","koaza":"","lat":34.511904,"lng":135.40893,"zip":"5950075"},{"town":"東豊中町二丁目","koaza":"","lat":34.493015,"lng":135.425756,"zip":"5950021"},{"town":"森町一丁目","koaza":"","lat":34.51084,"lng":135.426126,"zip":"5950005"},{"town":"我孫子二丁目","koaza":"","lat":34.493199,"lng":135.412629,"zip":"5950031"},{"town":"上之町","koaza":"","lat":34.500888,"lng":135.399427,"zip":"5950046"},{"town":"千原町一丁目","koaza":"","lat":34.509111,"lng":135.431642,"zip":"5950004"},{"town":"東助松町二丁目","koaza":"","lat":34.512113,"lng":135.424581,"zip":"5950006"},{"town":"戎町","koaza":"","lat":34.500721,"lng":135.401739,"zip":"5950041"},{"town":"二田町一丁目","koaza":"","lat":34.508201,"lng":135.416648,"zip":"5950015"},{"town":"東助松町一丁目","koaza":"","lat":34.513544,"lng":135.423033,"zip":"5950006"},{"town":"板原町二丁目","koaza":"","lat":34.487234,"lng":135.415425,"zip":"5950033"},{"town":"池浦町五丁目","koaza":"","lat":34.498788,"lng":135.418423,"zip":"5950024"},{"town":"田中町","koaza":"","lat":34.503318,"lng":135.404793,"zip":"5950062"},{"town":"二田町三丁目","koaza":"","lat":34.506855,"lng":135.414789,"zip":"5950015"},{"town":"豊中町三丁目","koaza":"","lat":34.493256,"lng":135.421104,"zip":"5950023"},{"town":"池浦町二丁目","koaza":"","lat":34.495973,"lng":135.413698,"zip":"5950024"},{"town":"東助松町四丁目","koaza":"","lat":34.511352,"lng":135.42037,"zip":"5950006"},{"town":"穴田","koaza":"","lat":34.490495,"lng":135.419519,"zip":"5950032"},{"town":"東助松町三丁目","koaza":"","lat":34.50958,"lng":135.421989,"zip":"5950006"},{"town":"北豊中町一丁目","koaza":"","lat":34.498814,"lng":135.423214,"zip":"5950012"},{"town":"条南町","koaza":"","lat":34.509281,"lng":135.418692,"zip":"5950016"},{"town":"我孫子一丁目","koaza":"","lat":34.494073,"lng":135.414669,"zip":"5950031"},{"town":"下条町","koaza":"","lat":34.501448,"lng":135.413266,"zip":"5950027"},{"town":"東豊中町一丁目","koaza":"","lat":34.491108,"lng":135.423999,"zip":"5950021"},{"town":"二田町二丁目","koaza":"","lat":34.50585,"lng":135.418094,"zip":"5950015"},{"town":"小松町","koaza":"","lat":34.508163,"lng":135.406287,"zip":"5950067"},{"town":"曽根町三丁目","koaza":"","lat":34.504403,"lng":135.420468,"zip":"5950011"},{"town":"池園町","koaza":"","lat":34.506638,"lng":135.422262,"zip":"5950017"},{"town":"助松団地","koaza":"","lat":34.51181,"lng":135.429027,"zip":"5950007"},{"town":"豊中町二丁目","koaza":"","lat":34.494662,"lng":135.423542,"zip":"5950023"},{"town":"高津町","koaza":"","lat":34.497553,"lng":135.39913,"zip":"5950042"},{"town":"虫取町二丁目","koaza":"","lat":34.494168,"lng":135.406439,"zip":"5950037"},{"town":"助松町二丁目","koaza":"","lat":34.51525,"lng":135.419716,"zip":"5950071"},{"town":"青葉町","koaza":"","lat":34.503394,"lng":135.393258,"zip":"5950053"},{"town":"池浦町四丁目","koaza":"","lat":34.500018,"lng":135.415242,"zip":"5950024"},{"town":"曽根町一丁目","koaza":"","lat":34.504564,"lng":135.425596,"zip":"5950011"},{"town":"池浦町三丁目","koaza":"","lat":34.496975,"lng":135.417159,"zip":"5950024"},{"town":"北豊中町二丁目","koaza":"","lat":34.497253,"lng":135.425169,"zip":"5950012"},{"town":"曽根町二丁目","koaza":"","lat":34.502472,"lng":135.423258,"zip":"5950011"},{"town":"東港町","koaza":"","lat":34.506734,"lng":135.400161,"zip":"5950051"},{"town":"宮町","koaza":"","lat":34.500389,"lng":135.420645,"zip":"5950013"},{"town":"助松町一丁目","koaza":"","lat":34.516857,"lng":135.421284,"zip":"5950071"},{"town":"助松町三丁目","koaza":"","lat":34.513301,"lng":135.417946,"zip":"5950071"},{"town":"寿町","koaza":"","lat":34.502792,"lng":135.417455,"zip":"5950014"},{"town":"松之浜町一丁目","koaza":"","lat":34.511906,"lng":135.414653,"zip":"5950072"},{"town":"式内町","koaza":"","lat":34.497116,"lng":135.40267,"zip":"5950035"},{"town":"清水町","koaza":"","lat":34.498882,"lng":135.396728,"zip":"5950043"},{"town":"森町二丁目","koaza":"","lat":34.5081,"lng":135.425437,"zip":"5950005"},{"town":"虫取町一丁目","koaza":"","lat":34.496,"lng":135.409093,"zip":"5950037"},{"town":"池浦町一丁目","koaza":"","lat":34.49824,"lng":135.411061,"zip":"5950024"},{"town":"千原町二丁目","koaza":"","lat":34.507124,"lng":135.429354,"zip":"5950004"},{"town":"春日町","koaza":"","lat":34.506493,"lng":135.408606,"zip":"5950061"},{"town":"昭和町","koaza":"","lat":34.498928,"lng":135.404929,"zip":"5950036"},{"town":"西港町","koaza":"","lat":34.504901,"lng":135.396754,"zip":"5950052"},{"town":"板原町五丁目","koaza":"","lat":34.485671,"lng":135.40929,"zip":"5950033"},{"town":"板原町四丁目","koaza":"","lat":34.485169,"lng":135.414108,"zip":"5950033"},{"town":"松之浜町二丁目","koaza":"","lat":34.509922,"lng":135.411363,"zip":"5950072"},{"town":"旭町","koaza":"","lat":34.501356,"lng":135.407842,"zip":"5950025"},{"town":"東雲町","koaza":"","lat":34.50435,"lng":135.411513,"zip":"5950026"},{"town":"臨海町二丁目","koaza":"","lat":34.515835,"lng":135.410026,"zip":"5950075"},{"town":"なぎさ町","koaza":"","lat":34.50844,"lng":135.398515,"zip":"5950055"},{"town":"河原町","koaza":"","lat":34.500163,"lng":135.392008,"zip":"5950044"},{"town":"板原町三丁目","koaza":"","lat":34.489566,"lng":135.40818,"zip":"5950033"},{"town":"新港町","koaza":"","lat":34.513202,"lng":135.400264,"zip":"5950073"},{"town":"臨海町一丁目","koaza":"","lat":34.519185,"lng":135.4138,"zip":"5950075"},{"town":"小津島町","koaza":"","lat":34.524425,"lng":135.397851,"zip":"5950074"},{"town":"汐見町","koaza":"","lat":34.509345,"lng":135.382281,"zip":"5950054"},{"town":"夕凪町","koaza":"","lat":34.51761,"lng":135.376613,"zip":"5950056"},{"town":"豊中町一丁目","koaza":"","lat":34.49585,"lng":135.420159,"zip":"5950023"},{"town":"我孫子","koaza":"","lat":34.491177,"lng":135.416656,"zip":"5950031"},{"town":"池浦","koaza":"","lat":34.493962,"lng":135.418798,"zip":"5950022"},{"town":"豊中","koaza":"","lat":34.494531,"lng":135.419053,"zip":"5950023"}]