[{"town":"大字五門","koaza":"","lat":34.37984,"lng":135.362671,"zip":"5900400"},{"town":"大字大久保","koaza":"","lat":34.370384,"lng":135.359877,"zip":"5900400"},{"town":"大宮二丁目","koaza":"","lat":34.3961,"lng":135.365803,"zip":"5900450"},{"town":"五月ヶ丘一丁目","koaza":"","lat":34.399777,"lng":135.369047,"zip":"5900400"},{"town":"つばさが丘西一丁目","koaza":"","lat":34.383347,"lng":135.367979,"zip":"5900443"},{"town":"小谷南四丁目","koaza":"","lat":34.39019,"lng":135.37506,"zip":"5900435"},{"town":"桜が丘二丁目","koaza":"","lat":34.40596,"lng":135.349433,"zip":"5900413"},{"town":"五門西一丁目","koaza":"","lat":34.400112,"lng":135.350177,"zip":"5900415"},{"town":"山の手台三丁目","koaza":"","lat":34.393074,"lng":135.360796,"zip":"5900452"},{"town":"久保一丁目","koaza":"","lat":34.395303,"lng":135.369034,"zip":"5900441"},{"town":"美熊台二丁目","koaza":"","lat":34.388513,"lng":135.353931,"zip":"5900456"},{"town":"大久保北一丁目","koaza":"","lat":34.406979,"lng":135.347953,"zip":"5900402"},{"town":"高田二丁目","koaza":"","lat":34.38209,"lng":135.376254,"zip":"5900436"},{"town":"つばさが丘北三丁目","koaza":"","lat":34.385917,"lng":135.37311,"zip":"5900444"},{"town":"東和苑","koaza":"","lat":34.392346,"lng":135.35075,"zip":"5900416"},{"town":"大久保東一丁目","koaza":"","lat":34.402688,"lng":135.34567,"zip":"5900406"},{"town":"朝代東三丁目","koaza":"","lat":34.386037,"lng":135.35696,"zip":"5900457"},{"town":"新野田二丁目","koaza":"","lat":34.408561,"lng":135.354228,"zip":"5900454"},{"town":"大久保南五丁目","koaza":"","lat":34.39384,"lng":135.340157,"zip":"5900405"},{"town":"新野田一丁目","koaza":"","lat":34.405728,"lng":135.355413,"zip":"5900454"},{"town":"野田四丁目","koaza":"","lat":34.402289,"lng":135.358631,"zip":"5900451"},{"town":"五門東四丁目","koaza":"","lat":34.39435,"lng":135.349816,"zip":"5900414"},{"town":"小谷北二丁目","koaza":"","lat":34.39795,"lng":135.378059,"zip":"5900434"},{"town":"美熊台一丁目","koaza":"","lat":34.390217,"lng":135.351603,"zip":"5900456"},{"town":"小谷南三丁目","koaza":"","lat":34.394176,"lng":135.376674,"zip":"5900435"},{"town":"大久保中四丁目","koaza":"","lat":34.399257,"lng":135.342884,"zip":"5900403"},{"town":"小谷北一丁目","koaza":"","lat":34.396901,"lng":135.373638,"zip":"5900434"},{"town":"大久保東二丁目","koaza":"","lat":34.396896,"lng":135.346115,"zip":"5900406"},{"town":"大久保北二丁目","koaza":"","lat":34.408807,"lng":135.348012,"zip":"5900402"},{"town":"つばさが丘北一丁目","koaza":"","lat":34.384307,"lng":135.366217,"zip":"5900444"},{"town":"成合北","koaza":"","lat":34.379127,"lng":135.360795,"zip":"5900446"},{"town":"五門西二丁目","koaza":"","lat":34.399105,"lng":135.350126,"zip":"5900415"},{"town":"朝代東一丁目","koaza":"","lat":34.390748,"lng":135.349556,"zip":"5900457"},{"town":"高田三丁目","koaza":"","lat":34.381746,"lng":135.377958,"zip":"5900436"},{"town":"高田四丁目","koaza":"","lat":34.375722,"lng":135.376884,"zip":"5900436"},{"town":"久保三丁目","koaza":"","lat":34.392872,"lng":135.370774,"zip":"5900441"},{"town":"久保五丁目","koaza":"","lat":34.389892,"lng":135.372714,"zip":"5900441"},{"town":"大久保北三丁目","koaza":"","lat":34.407551,"lng":135.344506,"zip":"5900402"},{"town":"青葉台二丁目","koaza":"","lat":34.397612,"lng":135.337559,"zip":"5900407"},{"town":"高田一丁目","koaza":"","lat":34.385739,"lng":135.377086,"zip":"5900436"},{"town":"つばさが丘東二丁目","koaza":"","lat":34.385586,"lng":135.375354,"zip":"5900442"},{"town":"つばさが丘東一丁目","koaza":"","lat":34.382652,"lng":135.373659,"zip":"5900442"},{"town":"五門東二丁目","koaza":"","lat":34.397127,"lng":135.354266,"zip":"5900414"},{"town":"小谷南一丁目","koaza":"","lat":34.393816,"lng":135.372104,"zip":"5900435"},{"town":"和田一丁目","koaza":"","lat":34.392391,"lng":135.355289,"zip":"5900417"},{"town":"久保二丁目","koaza":"","lat":34.393337,"lng":135.367557,"zip":"5900441"},{"town":"桜が丘一丁目","koaza":"","lat":34.405946,"lng":135.352087,"zip":"5900413"},{"town":"五門西四丁目","koaza":"","lat":34.397031,"lng":135.347086,"zip":"5900415"},{"town":"五門東一丁目","koaza":"","lat":34.396345,"lng":135.357962,"zip":"5900414"},{"town":"小谷南二丁目","koaza":"","lat":34.393837,"lng":135.374601,"zip":"5900435"},{"town":"七山南","koaza":"","lat":34.4091,"lng":135.356608,"zip":"5900426"},{"town":"大久保南二丁目","koaza":"","lat":34.396729,"lng":135.340622,"zip":"5900405"},{"town":"大久保中五丁目","koaza":"","lat":34.401277,"lng":135.339009,"zip":"5900403"},{"town":"長池","koaza":"","lat":34.391502,"lng":135.353284,"zip":"5900455"},{"town":"つばさが丘北二丁目","koaza":"","lat":34.385779,"lng":135.370387,"zip":"5900444"},{"town":"希望が丘三丁目","koaza":"","lat":34.404873,"lng":135.362138,"zip":"5900422"},{"town":"山の手台二丁目","koaza":"","lat":34.393025,"lng":135.358635,"zip":"5900452"},{"town":"希望が丘二丁目","koaza":"","lat":34.402964,"lng":135.364954,"zip":"5900422"},{"town":"五門西三丁目","koaza":"","lat":34.397529,"lng":135.34903,"zip":"5900415"},{"town":"和田三丁目","koaza":"","lat":34.387774,"lng":135.363491,"zip":"5900417"},{"town":"大久保中一丁目","koaza":"","lat":34.405331,"lng":135.343829,"zip":"5900403"},{"town":"つばさが丘西二丁目","koaza":"","lat":34.382511,"lng":135.370567,"zip":"5900443"},{"town":"大久保中三丁目","koaza":"","lat":34.402117,"lng":135.340752,"zip":"5900403"},{"town":"希望が丘四丁目","koaza":"","lat":34.406765,"lng":135.363482,"zip":"5900422"},{"town":"小垣内三丁目","koaza":"","lat":34.398691,"lng":135.365198,"zip":"5900432"},{"town":"青葉台一丁目","koaza":"","lat":34.399183,"lng":135.338412,"zip":"5900407"},{"town":"小垣内一丁目","koaza":"","lat":34.399597,"lng":135.361457,"zip":"5900432"},{"town":"大宮一丁目","koaza":"","lat":34.397839,"lng":135.368107,"zip":"5900450"},{"town":"自由が丘一丁目","koaza":"","lat":34.405083,"lng":135.359004,"zip":"5900423"},{"town":"野田三丁目","koaza":"","lat":34.403487,"lng":135.355776,"zip":"5900451"},{"town":"山の手台一丁目","koaza":"","lat":34.393427,"lng":135.356932,"zip":"5900452"},{"town":"朝代東二丁目","koaza":"","lat":34.387592,"lng":135.351706,"zip":"5900457"},{"town":"五月ヶ丘二丁目","koaza":"","lat":34.398776,"lng":135.371763,"zip":"5900400"},{"town":"紺屋二丁目","koaza":"","lat":34.403803,"lng":135.351232,"zip":"5900412"},{"town":"大久保南四丁目","koaza":"","lat":34.39333,"lng":135.341487,"zip":"5900405"},{"town":"自由が丘二丁目","koaza":"","lat":34.408607,"lng":135.360322,"zip":"5900423"},{"town":"大宮三丁目","koaza":"","lat":34.395253,"lng":135.361649,"zip":"5900450"},{"town":"つばさが丘北四丁目","koaza":"","lat":34.38803,"lng":135.372162,"zip":"5900444"},{"town":"小垣内二丁目","koaza":"","lat":34.396936,"lng":135.362734,"zip":"5900432"},{"town":"七山三丁目","koaza":"","lat":34.416026,"lng":135.35857,"zip":"5900421"},{"town":"希望が丘一丁目","koaza":"","lat":34.402071,"lng":135.362188,"zip":"5900422"},{"town":"小垣内四丁目","koaza":"","lat":34.404763,"lng":135.365971,"zip":"5900432"},{"town":"南山の手台","koaza":"","lat":34.389401,"lng":135.360295,"zip":"5900453"},{"town":"七山二丁目","koaza":"","lat":34.413517,"lng":135.359189,"zip":"5900421"},{"town":"和田五丁目","koaza":"","lat":34.384824,"lng":135.361167,"zip":"5900417"},{"town":"朝代西四丁目","koaza":"","lat":34.380945,"lng":135.352209,"zip":"5900458"},{"town":"大久保西","koaza":"","lat":34.403381,"lng":135.338467,"zip":"5900404"},{"town":"和田二丁目","koaza":"","lat":34.38764,"lng":135.358643,"zip":"5900417"},{"town":"若葉一丁目","koaza":"","lat":34.410934,"lng":135.364752,"zip":"5900433"},{"town":"成合東","koaza":"","lat":34.377025,"lng":135.363001,"zip":"5900447"},{"town":"大久保中二丁目","koaza":"","lat":34.403527,"lng":135.342895,"zip":"5900403"},{"town":"紺屋一丁目","koaza":"","lat":34.402923,"lng":135.348818,"zip":"5900412"},{"town":"五門東三丁目","koaza":"","lat":34.395636,"lng":135.352273,"zip":"5900414"},{"town":"七山一丁目","koaza":"","lat":34.410734,"lng":135.359035,"zip":"5900421"},{"town":"七山東","koaza":"","lat":34.412627,"lng":135.362447,"zip":"5900425"},{"town":"大久保南一丁目","koaza":"","lat":34.395494,"lng":135.345128,"zip":"5900405"},{"town":"大久保南三丁目","koaza":"","lat":34.392248,"lng":135.343246,"zip":"5900405"},{"town":"朝代東四丁目","koaza":"","lat":34.383322,"lng":135.355224,"zip":"5900457"},{"town":"野田一丁目","koaza":"","lat":34.399686,"lng":135.358574,"zip":"5900451"},{"town":"久保四丁目","koaza":"","lat":34.390597,"lng":135.36946,"zip":"5900441"},{"town":"若葉二丁目","koaza":"","lat":34.407551,"lng":135.369131,"zip":"5900433"},{"town":"朝代西一丁目","koaza":"","lat":34.391193,"lng":135.346061,"zip":"5900458"},{"town":"七山西","koaza":"","lat":34.412413,"lng":135.355644,"zip":"5900427"},{"town":"野田二丁目","koaza":"","lat":34.400888,"lng":135.353567,"zip":"5900451"},{"town":"和田四丁目","koaza":"","lat":34.388096,"lng":135.367168,"zip":"5900417"},{"town":"朝代西三丁目","koaza":"","lat":34.383702,"lng":135.351243,"zip":"5900458"},{"town":"成合南","koaza":"","lat":34.374955,"lng":135.364071,"zip":"5900448"},{"town":"大字小垣内","koaza":"","lat":34.403097,"lng":135.36815,"zip":"5900400"},{"town":"大宮四丁目","koaza":"","lat":34.391491,"lng":135.364045,"zip":"5900450"},{"town":"七山北","koaza":"","lat":34.416549,"lng":135.36175,"zip":"5900424"},{"town":"朝代台","koaza":"","lat":34.381438,"lng":135.358772,"zip":"5900459"},{"town":"成合西","koaza":"","lat":34.375203,"lng":135.35743,"zip":"5900449"},{"town":"大字小谷","koaza":"","lat":34.40345,"lng":135.375508,"zip":"5900400"},{"town":"朝代西二丁目","koaza":"","lat":34.387208,"lng":135.34712,"zip":"5900458"},{"town":"大字野田","koaza":"","lat":34.371227,"lng":135.366513,"zip":"5900400"},{"town":"大字久保","koaza":"","lat":34.375425,"lng":135.381581,"zip":"5900400"}]