[{"town":"如意谷五丁目","koaza":"","lat":34.840986,"lng":135.479256,"zip":"5620011"},{"town":"粟生間谷東三丁目","koaza":"","lat":34.844705,"lng":135.523296,"zip":"5620022"},{"town":"百楽荘三丁目","koaza":"","lat":34.819978,"lng":135.466657,"zip":"5620042"},{"town":"百楽荘二丁目","koaza":"","lat":34.821721,"lng":135.466775,"zip":"5620042"},{"town":"西小路五丁目","koaza":"","lat":34.825504,"lng":135.468001,"zip":"5620003"},{"town":"桜ケ丘五丁目","koaza":"","lat":34.821483,"lng":135.452027,"zip":"5620046"},{"town":"小野原西四丁目","koaza":"","lat":34.829705,"lng":135.508975,"zip":"5620032"},{"town":"百楽荘一丁目","koaza":"","lat":34.824,"lng":135.467195,"zip":"5620042"},{"town":"百楽荘四丁目","koaza":"","lat":34.818614,"lng":135.466362,"zip":"5620042"},{"town":"桜六丁目","koaza":"","lat":34.820956,"lng":135.460639,"zip":"5620041"},{"town":"稲四丁目","koaza":"","lat":34.821042,"lng":135.478332,"zip":"5620015"},{"town":"桜三丁目","koaza":"","lat":34.825628,"lng":135.460505,"zip":"5620041"},{"town":"今宮一丁目","koaza":"","lat":34.833782,"lng":135.496333,"zip":"5620033"},{"town":"西小路一丁目","koaza":"","lat":34.82923,"lng":135.466655,"zip":"5620003"},{"town":"彩都粟生北六丁目","koaza":"","lat":34.861653,"lng":135.514558,"zip":"5620029"},{"town":"彩都粟生北一丁目","koaza":"","lat":34.858936,"lng":135.513992,"zip":"5620029"},{"town":"坊島二丁目","koaza":"","lat":34.833396,"lng":135.48185,"zip":"5620013"},{"town":"箕面一丁目","koaza":"","lat":34.835893,"lng":135.468504,"zip":"5620001"},{"town":"西小路二丁目","koaza":"","lat":34.829273,"lng":135.469148,"zip":"5620003"},{"town":"半町一丁目","koaza":"","lat":34.818578,"lng":135.455515,"zip":"5620044"},{"town":"坊島五丁目","koaza":"","lat":34.836678,"lng":135.486589,"zip":"5620013"},{"town":"小野原東二丁目","koaza":"","lat":34.833407,"lng":135.518334,"zip":"5620031"},{"town":"桜一丁目","koaza":"","lat":34.826057,"lng":135.464497,"zip":"5620041"},{"town":"稲三丁目","koaza":"","lat":34.824783,"lng":135.479689,"zip":"5620015"},{"town":"箕面七丁目","koaza":"","lat":34.833311,"lng":135.465145,"zip":"5620001"},{"town":"新稲七丁目","koaza":"","lat":34.825511,"lng":135.452022,"zip":"5620005"},{"town":"彩都粟生南五丁目","koaza":"","lat":34.857065,"lng":135.514668,"zip":"5620028"},{"town":"彩都粟生南四丁目","koaza":"","lat":34.856439,"lng":135.518297,"zip":"5620028"},{"town":"小野原西一丁目","koaza":"","lat":34.834814,"lng":135.513305,"zip":"5620032"},{"town":"牧落四丁目","koaza":"","lat":34.82202,"lng":135.474192,"zip":"5620004"},{"town":"西小路四丁目","koaza":"","lat":34.826986,"lng":135.468866,"zip":"5620003"},{"town":"粟生外院二丁目","koaza":"","lat":34.840869,"lng":135.50265,"zip":"5620025"},{"town":"西宿三丁目","koaza":"","lat":34.82834,"lng":135.495579,"zip":"5620034"},{"town":"彩都粟生北五丁目","koaza":"","lat":34.864113,"lng":135.513787,"zip":"5620029"},{"town":"今宮二丁目","koaza":"","lat":34.831867,"lng":135.497447,"zip":"5620033"},{"town":"粟生外院三丁目","koaza":"","lat":34.840934,"lng":135.50548,"zip":"5620025"},{"town":"桜五丁目","koaza":"","lat":34.821497,"lng":135.463582,"zip":"5620041"},{"town":"粟生間谷東七丁目","koaza":"","lat":34.850859,"lng":135.516793,"zip":"5620022"},{"town":"彩都粟生南二丁目","koaza":"","lat":34.848312,"lng":135.519788,"zip":"5620028"},{"town":"白島一丁目","koaza":"","lat":34.83422,"lng":135.491728,"zip":"5620012"},{"town":"坊島三丁目","koaza":"","lat":34.833907,"lng":135.483998,"zip":"5620013"},{"town":"彩都粟生南六丁目","koaza":"","lat":34.855803,"lng":135.512128,"zip":"5620028"},{"town":"粟生外院五丁目","koaza":"","lat":34.843072,"lng":135.50546,"zip":"5620025"},{"town":"粟生外院四丁目","koaza":"","lat":34.840087,"lng":135.508545,"zip":"5620025"},{"town":"牧落二丁目","koaza":"","lat":34.821115,"lng":135.469619,"zip":"5620004"},{"town":"萱野二丁目","koaza":"","lat":34.830879,"lng":135.486802,"zip":"5620014"},{"town":"桜二丁目","koaza":"","lat":34.827069,"lng":135.462426,"zip":"5620041"},{"town":"外院二丁目","koaza":"","lat":34.84081,"lng":135.499881,"zip":"5620026"},{"town":"桜四丁目","koaza":"","lat":34.824069,"lng":135.463793,"zip":"5620041"},{"town":"森町南二丁目","koaza":"","lat":34.888596,"lng":135.45774,"zip":"5630258"},{"town":"彩都粟生南三丁目","koaza":"","lat":34.851883,"lng":135.519913,"zip":"5620028"},{"town":"稲二丁目","koaza":"","lat":34.823195,"lng":135.477221,"zip":"5620015"},{"town":"萱野四丁目","koaza":"","lat":34.828294,"lng":135.487296,"zip":"5620014"},{"town":"如意谷二丁目","koaza":"","lat":34.836677,"lng":135.4828,"zip":"5620011"},{"town":"粟生間谷西五丁目","koaza":"","lat":34.848489,"lng":135.504418,"zip":"5620023"},{"town":"森町南一丁目","koaza":"","lat":34.886664,"lng":135.458756,"zip":"5630258"},{"town":"西小路三丁目","koaza":"","lat":34.82858,"lng":135.472601,"zip":"5620003"},{"town":"森町南三丁目","koaza":"","lat":34.886786,"lng":135.453293,"zip":"5630258"},{"town":"小野原東三丁目","koaza":"","lat":34.831378,"lng":135.518404,"zip":"5620031"},{"town":"外院一丁目","koaza":"","lat":34.837552,"lng":135.501531,"zip":"5620026"},{"town":"粟生間谷西二丁目","koaza":"","lat":34.843165,"lng":135.510058,"zip":"5620023"},{"town":"牧落一丁目","koaza":"","lat":34.824423,"lng":135.469925,"zip":"5620004"},{"town":"如意谷一丁目","koaza":"","lat":34.835378,"lng":135.479996,"zip":"5620011"},{"town":"粟生新家五丁目","koaza":"","lat":34.840794,"lng":135.511424,"zip":"5620024"},{"town":"粟生新家一丁目","koaza":"","lat":34.834626,"lng":135.508393,"zip":"5620024"},{"town":"瀬川三丁目","koaza":"","lat":34.812464,"lng":135.453839,"zip":"5620045"},{"town":"桜井三丁目","koaza":"","lat":34.815461,"lng":135.464162,"zip":"5620043"},{"town":"小野原西二丁目","koaza":"","lat":34.833088,"lng":135.512996,"zip":"5620032"},{"town":"粟生新家三丁目","koaza":"","lat":34.837891,"lng":135.513424,"zip":"5620024"},{"town":"船場東二丁目","koaza":"","lat":34.824947,"lng":135.493172,"zip":"5620035"},{"town":"彩都粟生北七丁目","koaza":"","lat":34.859841,"lng":135.51027,"zip":"5620029"},{"town":"森町中二丁目","koaza":"","lat":34.890906,"lng":135.463304,"zip":"5630257"},{"town":"粟生間谷西一丁目","koaza":"","lat":34.841042,"lng":135.514533,"zip":"5620023"},{"town":"如意谷三丁目","koaza":"","lat":34.838925,"lng":135.480023,"zip":"5620011"},{"town":"新稲四丁目","koaza":"","lat":34.829471,"lng":135.460639,"zip":"5620005"},{"town":"桜井二丁目","koaza":"","lat":34.816586,"lng":135.462252,"zip":"5620043"},{"town":"粟生外院六丁目","koaza":"","lat":34.845272,"lng":135.502829,"zip":"5620025"},{"town":"粟生間谷東六丁目","koaza":"","lat":34.85142,"lng":135.513793,"zip":"5620022"},{"town":"坊島四丁目","koaza":"","lat":34.833529,"lng":135.487059,"zip":"5620013"},{"town":"半町三丁目","koaza":"","lat":34.81451,"lng":135.458018,"zip":"5620044"},{"town":"森町西一丁目","koaza":"","lat":34.892057,"lng":135.454768,"zip":"5630255"},{"town":"稲五丁目","koaza":"","lat":34.822546,"lng":135.481765,"zip":"5620015"},{"town":"桜ケ丘三丁目","koaza":"","lat":34.82161,"lng":135.456,"zip":"5620046"},{"town":"小野原西五丁目","koaza":"","lat":34.831157,"lng":135.513454,"zip":"5620032"},{"town":"小野原東一丁目","koaza":"","lat":34.834836,"lng":135.519145,"zip":"5620031"},{"town":"瀬川四丁目","koaza":"","lat":34.809847,"lng":135.455093,"zip":"5620045"},{"town":"稲一丁目","koaza":"","lat":34.826428,"lng":135.476848,"zip":"5620015"},{"town":"船場西一丁目","koaza":"","lat":34.823954,"lng":135.488418,"zip":"5620036"},{"town":"桜ケ丘二丁目","koaza":"","lat":34.821895,"lng":135.458992,"zip":"5620046"},{"town":"坊島一丁目","koaza":"","lat":34.830456,"lng":135.478665,"zip":"5620013"},{"town":"新稲三丁目","koaza":"","lat":34.8304,"lng":135.463912,"zip":"5620005"},{"town":"瀬川一丁目","koaza":"","lat":34.816291,"lng":135.450229,"zip":"5620045"},{"town":"森町中三丁目","koaza":"","lat":34.893708,"lng":135.462591,"zip":"5630257"},{"town":"瀬川二丁目","koaza":"","lat":34.813743,"lng":135.451379,"zip":"5620045"},{"town":"桜ケ丘一丁目","koaza":"","lat":34.825439,"lng":135.456683,"zip":"5620046"},{"town":"粟生間谷東八丁目","koaza":"","lat":34.853296,"lng":135.517015,"zip":"5620022"},{"town":"新稲一丁目","koaza":"","lat":34.833722,"lng":135.461367,"zip":"5620005"},{"town":"小野原西六丁目","koaza":"","lat":34.829149,"lng":135.513648,"zip":"5620032"},{"town":"牧落五丁目","koaza":"","lat":34.818856,"lng":135.469719,"zip":"5620004"},{"town":"桜ケ丘四丁目","koaza":"","lat":34.821155,"lng":135.453435,"zip":"5620046"},{"town":"箕面三丁目","koaza":"","lat":34.835497,"lng":135.475436,"zip":"5620001"},{"town":"牧落三丁目","koaza":"","lat":34.824858,"lng":135.47345,"zip":"5620004"},{"town":"瀬川五丁目","koaza":"","lat":34.809407,"lng":135.451002,"zip":"5620045"},{"town":"粟生間谷西四丁目","koaza":"","lat":34.845809,"lng":135.507051,"zip":"5620023"},{"town":"粟生間谷西七丁目","koaza":"","lat":34.849954,"lng":135.509819,"zip":"5620023"},{"town":"粟生新家二丁目","koaza":"","lat":34.83743,"lng":135.510472,"zip":"5620024"},{"town":"西宿一丁目","koaza":"","lat":34.832043,"lng":135.491394,"zip":"5620034"},{"town":"半町四丁目","koaza":"","lat":34.811684,"lng":135.459354,"zip":"5620044"},{"town":"粟生間谷西六丁目","koaza":"","lat":34.850749,"lng":135.507122,"zip":"5620023"},{"town":"石丸三丁目","koaza":"","lat":34.84235,"lng":135.494999,"zip":"5620027"},{"town":"粟生外院一丁目","koaza":"","lat":34.837776,"lng":135.505094,"zip":"5620025"},{"town":"新稲六丁目","koaza":"","lat":34.828927,"lng":135.452812,"zip":"5620005"},{"town":"萱野五丁目","koaza":"","lat":34.824482,"lng":135.484473,"zip":"5620014"},{"town":"桜井一丁目","koaza":"","lat":34.818936,"lng":135.461731,"zip":"5620043"},{"town":"今宮四丁目","koaza":"","lat":34.828522,"lng":135.499046,"zip":"5620033"},{"town":"小野原東四丁目","koaza":"","lat":34.832766,"lng":135.521851,"zip":"5620031"},{"town":"船場西三丁目","koaza":"","lat":34.817974,"lng":135.488665,"zip":"5620036"},{"town":"粟生間谷西三丁目","koaza":"","lat":34.845174,"lng":135.512029,"zip":"5620023"},{"town":"船場東一丁目","koaza":"","lat":34.82672,"lng":135.491832,"zip":"5620035"},{"town":"彩都粟生南七丁目","koaza":"","lat":34.853725,"lng":135.509636,"zip":"5620028"},{"town":"粟生間谷東二丁目","koaza":"","lat":34.842906,"lng":135.522237,"zip":"5620022"},{"town":"萱野一丁目","koaza":"","lat":34.830063,"lng":135.482273,"zip":"5620014"},{"town":"稲六丁目","koaza":"","lat":34.819599,"lng":135.482192,"zip":"5620015"},{"town":"箕面六丁目","koaza":"","lat":34.832589,"lng":135.46794,"zip":"5620001"},{"town":"半町二丁目","koaza":"","lat":34.816863,"lng":135.45682,"zip":"5620044"},{"town":"小野原東五丁目","koaza":"","lat":34.828318,"lng":135.518511,"zip":"5620031"},{"town":"萱野三丁目","koaza":"","lat":34.827018,"lng":135.482712,"zip":"5620014"},{"town":"石丸二丁目","koaza":"","lat":34.839286,"lng":135.496123,"zip":"5620027"},{"town":"箕面五丁目","koaza":"","lat":34.832238,"lng":135.472397,"zip":"5620001"},{"town":"彩都粟生南一丁目","koaza":"","lat":34.847498,"lng":135.522111,"zip":"5620028"},{"town":"西宿二丁目","koaza":"","lat":34.829831,"lng":135.491879,"zip":"5620034"},{"town":"白島二丁目","koaza":"","lat":34.836812,"lng":135.49049,"zip":"5620012"},{"town":"温泉町","koaza":"","lat":34.839581,"lng":135.466565,"zip":"5620006"},{"town":"如意谷四丁目","koaza":"","lat":34.840137,"lng":135.483697,"zip":"5620011"},{"town":"小野原西三丁目","koaza":"","lat":34.832401,"lng":135.507575,"zip":"5620032"},{"town":"彩都粟生北四丁目","koaza":"","lat":34.862757,"lng":135.509594,"zip":"5620029"},{"town":"彩都粟生北二丁目","koaza":"","lat":34.85774,"lng":135.509857,"zip":"5620029"},{"town":"船場西二丁目","koaza":"","lat":34.820669,"lng":135.487474,"zip":"5620036"},{"town":"小野原東六丁目","koaza":"","lat":34.828508,"lng":135.523303,"zip":"5620031"},{"town":"箕面八丁目","koaza":"","lat":34.837051,"lng":135.464018,"zip":"5620001"},{"town":"外院三丁目","koaza":"","lat":34.843927,"lng":135.499114,"zip":"5620026"},{"town":"彩都粟生北三丁目","koaza":"","lat":34.858438,"lng":135.506014,"zip":"5620029"},{"town":"新稲二丁目","koaza":"","lat":34.832863,"lng":135.456511,"zip":"5620005"},{"town":"箕面四丁目","koaza":"","lat":34.831127,"lng":135.475975,"zip":"5620001"},{"town":"新稲五丁目","koaza":"","lat":34.828701,"lng":135.456984,"zip":"5620005"},{"town":"船場東三丁目","koaza":"","lat":34.821937,"lng":135.492445,"zip":"5620035"},{"town":"白島","koaza":"","lat":34.845746,"lng":135.491123,"zip":"5620012"},{"town":"粟生間谷東五丁目","koaza":"","lat":34.847513,"lng":135.515651,"zip":"5620022"},{"town":"石丸一丁目","koaza":"","lat":34.836366,"lng":135.496583,"zip":"5620027"},{"town":"粟生間谷東一丁目","koaza":"","lat":34.8434,"lng":135.51744,"zip":"5620022"},{"town":"白島三丁目","koaza":"","lat":34.840042,"lng":135.488994,"zip":"5620012"},{"town":"粟生新家四丁目","koaza":"","lat":34.838959,"lng":135.516827,"zip":"5620024"},{"town":"今宮三丁目","koaza":"","lat":34.83262,"lng":135.501619,"zip":"5620033"},{"town":"森町北二丁目","koaza":"","lat":34.898644,"lng":135.460388,"zip":"5630256"},{"town":"森町中一丁目","koaza":"","lat":34.888589,"lng":135.462615,"zip":"5630257"},{"town":"森町北一丁目","koaza":"","lat":34.894707,"lng":135.455789,"zip":"5630256"},{"town":"大字粟生外院","koaza":"","lat":34.852557,"lng":135.498139,"zip":"5620000"},{"town":"箕面二丁目","koaza":"","lat":34.838367,"lng":135.474377,"zip":"5620001"},{"town":"新稲","koaza":"","lat":34.838277,"lng":135.456122,"zip":"5620005"},{"town":"箕面公園","koaza":"","lat":34.846408,"lng":135.47268,"zip":"5620002"},{"town":"外院","koaza":"","lat":34.852181,"lng":135.489817,"zip":"5620026"},{"town":"如意谷","koaza":"","lat":34.846888,"lng":135.48375,"zip":"5620011"},{"town":"大字粟生間谷","koaza":"","lat":34.861576,"lng":135.498957,"zip":"5620000"},{"town":"上止々呂美","koaza":"","lat":34.889936,"lng":135.471471,"zip":"5630251"},{"town":"下止々呂美","koaza":"","lat":34.878905,"lng":135.453405,"zip":"5630252"},{"town":"箕面","koaza":"","lat":34.857934,"lng":135.4719,"zip":"5620001"},{"town":"森町西二丁目","koaza":"","lat":34.885622,"lng":135.444029,"zip":"5630255"},{"town":"森町西三丁目","koaza":"","lat":34.885662,"lng":135.441253,"zip":"5630255"}]