[{"town":"伊賀","koaza":"","lat":34.555917,"lng":135.581148,"zip":"5830876"},{"town":"学園前二丁目","koaza":"","lat":34.545953,"lng":135.590664,"zip":"5830868"},{"town":"向野","koaza":"","lat":34.557224,"lng":135.580246,"zip":"5830883"},{"town":"南古市二丁目","koaza":"","lat":34.54384,"lng":135.612469,"zip":"5830858"},{"town":"誉田四丁目","koaza":"","lat":34.558788,"lng":135.605788,"zip":"5830857"},{"town":"羽曳が丘八丁目","koaza":"","lat":34.53728,"lng":135.59332,"zip":"5830864"},{"town":"恵我之荘四丁目","koaza":"","lat":34.57553,"lng":135.573531,"zip":"5830886"},{"town":"恵我之荘三丁目","koaza":"","lat":34.576915,"lng":135.574831,"zip":"5830886"},{"town":"桃山台三丁目","koaza":"","lat":34.550965,"lng":135.581375,"zip":"5830873"},{"town":"誉田一丁目","koaza":"","lat":34.555305,"lng":135.61131,"zip":"5830857"},{"town":"学園前五丁目","koaza":"","lat":34.546529,"lng":135.581375,"zip":"5830868"},{"town":"羽曳が丘二丁目","koaza":"","lat":34.546225,"lng":135.592343,"zip":"5830864"},{"town":"島泉三丁目","koaza":"","lat":34.576711,"lng":135.579242,"zip":"5830881"},{"town":"学園前一丁目","koaza":"","lat":34.547865,"lng":135.587652,"zip":"5830868"},{"town":"桃山台二丁目","koaza":"","lat":34.549632,"lng":135.584148,"zip":"5830873"},{"town":"桃山台一丁目","koaza":"","lat":34.549995,"lng":135.585742,"zip":"5830873"},{"town":"古市一丁目","koaza":"","lat":34.553743,"lng":135.610341,"zip":"5830852"},{"town":"南恵我之荘一丁目","koaza":"","lat":34.571984,"lng":135.574372,"zip":"5830885"},{"town":"学園前六丁目","koaza":"","lat":34.548156,"lng":135.583449,"zip":"5830868"},{"town":"恵我之荘五丁目","koaza":"","lat":34.574998,"lng":135.571388,"zip":"5830886"},{"town":"誉田二丁目","koaza":"","lat":34.557092,"lng":135.61197,"zip":"5830857"},{"town":"野々上四丁目","koaza":"","lat":34.556994,"lng":135.591081,"zip":"5830871"},{"town":"翠鳥園","koaza":"","lat":34.554936,"lng":135.602735,"zip":"5830855"},{"town":"羽曳が丘西七丁目","koaza":"","lat":34.540739,"lng":135.582661,"zip":"5830865"},{"town":"島泉四丁目","koaza":"","lat":34.579104,"lng":135.577867,"zip":"5830881"},{"town":"高鷲九丁目","koaza":"","lat":34.570705,"lng":135.581153,"zip":"5830882"},{"town":"羽曳が丘六丁目","koaza":"","lat":34.540006,"lng":135.59315,"zip":"5830864"},{"town":"南古市三丁目","koaza":"","lat":34.544162,"lng":135.615722,"zip":"5830858"},{"town":"白鳥一丁目","koaza":"","lat":34.55187,"lng":135.606228,"zip":"5830856"},{"town":"羽曳が丘西六丁目","koaza":"","lat":34.543817,"lng":135.58159,"zip":"5830865"},{"town":"南恵我之荘八丁目","koaza":"","lat":34.573923,"lng":135.570612,"zip":"5830885"},{"town":"野々上一丁目","koaza":"","lat":34.562734,"lng":135.594908,"zip":"5830871"},{"town":"伊賀六丁目","koaza":"","lat":34.562912,"lng":135.582549,"zip":"5830876"},{"town":"羽曳が丘西四丁目","koaza":"","lat":34.540586,"lng":135.585504,"zip":"5830865"},{"town":"桃山台四丁目","koaza":"","lat":34.550668,"lng":135.579933,"zip":"5830873"},{"town":"羽曳が丘一丁目","koaza":"","lat":34.546455,"lng":135.594151,"zip":"5830864"},{"town":"はびきの一丁目","koaza":"","lat":34.554132,"lng":135.593921,"zip":"5830872"},{"town":"南恵我之荘四丁目","koaza":"","lat":34.56541,"lng":135.57435,"zip":"5830885"},{"town":"南恵我之荘二丁目","koaza":"","lat":34.569898,"lng":135.575097,"zip":"5830885"},{"town":"高鷲四丁目","koaza":"","lat":34.565588,"lng":135.590159,"zip":"5830882"},{"town":"羽曳が丘西二丁目","koaza":"","lat":34.541174,"lng":135.590885,"zip":"5830865"},{"town":"高鷲一丁目","koaza":"","lat":34.570612,"lng":135.585599,"zip":"5830882"},{"town":"軽里一丁目","koaza":"","lat":34.554367,"lng":135.596777,"zip":"5830854"},{"town":"はびきの七丁目","koaza":"","lat":34.55222,"lng":135.582169,"zip":"5830872"},{"town":"島泉七丁目","koaza":"","lat":34.579303,"lng":135.584407,"zip":"5830881"},{"town":"古市三丁目","koaza":"","lat":34.5509,"lng":135.613226,"zip":"5830852"},{"town":"羽曳が丘七丁目","koaza":"","lat":34.53743,"lng":135.596129,"zip":"5830864"},{"town":"羽曳が丘十丁目","koaza":"","lat":34.535326,"lng":135.588755,"zip":"5830864"},{"town":"恵我之荘二丁目","koaza":"","lat":34.575506,"lng":135.576503,"zip":"5830886"},{"town":"栄町","koaza":"","lat":34.552104,"lng":135.607774,"zip":"5830853"},{"town":"恵我之荘六丁目","koaza":"","lat":34.576212,"lng":135.569615,"zip":"5830886"},{"town":"誉田五丁目","koaza":"","lat":34.563522,"lng":135.605586,"zip":"5830857"},{"town":"伊賀四丁目","koaza":"","lat":34.557374,"lng":135.583616,"zip":"5830876"},{"town":"白鳥二丁目","koaza":"","lat":34.554249,"lng":135.605875,"zip":"5830856"},{"town":"古市七丁目","koaza":"","lat":34.545273,"lng":135.608031,"zip":"5830852"},{"town":"碓井一丁目","koaza":"","lat":34.556518,"lng":135.613337,"zip":"5830851"},{"town":"高鷲五丁目","koaza":"","lat":34.564646,"lng":135.587542,"zip":"5830882"},{"town":"碓井二丁目","koaza":"","lat":34.555421,"lng":135.616389,"zip":"5830851"},{"town":"古市二丁目","koaza":"","lat":34.553013,"lng":135.613606,"zip":"5830852"},{"town":"高鷲七丁目","koaza":"","lat":34.567001,"lng":135.580629,"zip":"5830882"},{"town":"羽曳が丘西三丁目","koaza":"","lat":34.541573,"lng":135.58823,"zip":"5830865"},{"town":"向野一丁目","koaza":"","lat":34.565117,"lng":135.578395,"zip":"5830883"},{"town":"南恵我之荘六丁目","koaza":"","lat":34.569638,"lng":135.570841,"zip":"5830885"},{"town":"野々上二丁目","koaza":"","lat":34.560153,"lng":135.593974,"zip":"5830871"},{"town":"南恵我之荘三丁目","koaza":"","lat":34.568135,"lng":135.574971,"zip":"5830885"},{"town":"学園前四丁目","koaza":"","lat":34.544048,"lng":135.588417,"zip":"5830868"},{"town":"南古市一丁目","koaza":"","lat":34.547482,"lng":135.613572,"zip":"5830858"},{"town":"島泉二丁目","koaza":"","lat":34.574792,"lng":135.579672,"zip":"5830881"},{"town":"恵我之荘一丁目","koaza":"","lat":34.573282,"lng":135.575845,"zip":"5830886"},{"town":"はびきの六丁目","koaza":"","lat":34.552206,"lng":135.585575,"zip":"5830872"},{"town":"古市四丁目","koaza":"","lat":34.55149,"lng":135.610146,"zip":"5830852"},{"town":"伊賀三丁目","koaza":"","lat":34.555787,"lng":135.587796,"zip":"5830876"},{"town":"高鷲八丁目","koaza":"","lat":34.569086,"lng":135.581001,"zip":"5830882"},{"town":"島泉六丁目","koaza":"","lat":34.579528,"lng":135.58233,"zip":"5830881"},{"town":"高鷲六丁目","koaza":"","lat":34.564987,"lng":135.583268,"zip":"5830882"},{"town":"はびきの二丁目","koaza":"","lat":34.550282,"lng":135.593248,"zip":"5830872"},{"town":"羽曳が丘五丁目","koaza":"","lat":34.540034,"lng":135.595894,"zip":"5830864"},{"town":"碓井四丁目","koaza":"","lat":34.562298,"lng":135.619,"zip":"5830851"},{"town":"羽曳が丘西五丁目","koaza":"","lat":34.543178,"lng":135.584771,"zip":"5830865"},{"town":"羽曳が丘四丁目","koaza":"","lat":34.54339,"lng":135.591726,"zip":"5830864"},{"town":"高鷲十丁目","koaza":"","lat":34.568786,"lng":135.577742,"zip":"5830882"},{"town":"島泉一丁目","koaza":"","lat":34.572721,"lng":135.580575,"zip":"5830881"},{"town":"高鷲二丁目","koaza":"","lat":34.56795,"lng":135.584782,"zip":"5830882"},{"town":"高鷲三丁目","koaza":"","lat":34.567754,"lng":135.587737,"zip":"5830882"},{"town":"島泉五丁目","koaza":"","lat":34.579637,"lng":135.579896,"zip":"5830881"},{"town":"伊賀一丁目","koaza":"","lat":34.562696,"lng":135.586105,"zip":"5830876"},{"town":"白鳥三丁目","koaza":"","lat":34.556658,"lng":135.605637,"zip":"5830856"},{"town":"羽曳が丘西一丁目","koaza":"","lat":34.538007,"lng":135.589666,"zip":"5830865"},{"town":"南恵我之荘五丁目","koaza":"","lat":34.566925,"lng":135.571014,"zip":"5830885"},{"town":"野々上三丁目","koaza":"","lat":34.556938,"lng":135.594058,"zip":"5830871"},{"town":"西浦五丁目","koaza":"","lat":34.547134,"lng":135.597793,"zip":"5830861"},{"town":"羽曳が丘九丁目","koaza":"","lat":34.535798,"lng":135.590848,"zip":"5830864"},{"town":"南恵我之荘七丁目","koaza":"","lat":34.572247,"lng":135.570332,"zip":"5830885"},{"town":"伊賀二丁目","koaza":"","lat":34.55959,"lng":135.587712,"zip":"5830876"},{"town":"軽里二丁目","koaza":"","lat":34.551504,"lng":135.597465,"zip":"5830854"},{"town":"島泉八丁目","koaza":"","lat":34.575821,"lng":135.58451,"zip":"5830881"},{"town":"西浦四丁目","koaza":"","lat":34.543985,"lng":135.598527,"zip":"5830861"},{"town":"向野二丁目","koaza":"","lat":34.563401,"lng":135.578245,"zip":"5830883"},{"town":"伊賀五丁目","koaza":"","lat":34.559976,"lng":135.583238,"zip":"5830876"},{"town":"碓井三丁目","koaza":"","lat":34.558477,"lng":135.617695,"zip":"5830851"},{"town":"古市六丁目","koaza":"","lat":34.543889,"lng":135.610427,"zip":"5830852"},{"town":"羽曳が丘三丁目","koaza":"","lat":34.543008,"lng":135.595896,"zip":"5830864"},{"town":"古市五丁目","koaza":"","lat":34.548697,"lng":135.610392,"zip":"5830852"},{"town":"西浦二丁目","koaza":"","lat":34.544499,"lng":135.605779,"zip":"5830861"},{"town":"向野三丁目","koaza":"","lat":34.560456,"lng":135.577882,"zip":"5830883"},{"town":"誉田七丁目","koaza":"","lat":34.561286,"lng":135.615131,"zip":"5830857"},{"town":"軽里三丁目","koaza":"","lat":34.552526,"lng":135.602019,"zip":"5830854"},{"town":"野々上五丁目","koaza":"","lat":34.561152,"lng":135.590361,"zip":"5830871"},{"town":"西浦六丁目","koaza":"","lat":34.549543,"lng":135.597901,"zip":"5830861"},{"town":"島泉九丁目","koaza":"","lat":34.57369,"lng":135.584325,"zip":"5830881"},{"town":"はびきの四丁目","koaza":"","lat":34.554742,"lng":135.590909,"zip":"5830872"},{"town":"学園前三丁目","koaza":"","lat":34.546396,"lng":135.586008,"zip":"5830868"},{"town":"西浦三丁目","koaza":"","lat":34.544584,"lng":135.602419,"zip":"5830861"},{"town":"はびきの五丁目","koaza":"","lat":34.555089,"lng":135.584073,"zip":"5830872"},{"town":"西浦一丁目","koaza":"","lat":34.548238,"lng":135.604991,"zip":"5830861"},{"town":"樫山","koaza":"","lat":34.557553,"lng":135.577305,"zip":"5830875"},{"town":"誉田三丁目","koaza":"","lat":34.558278,"lng":135.609632,"zip":"5830857"},{"town":"はびきの三丁目","koaza":"","lat":34.549873,"lng":135.589309,"zip":"5830872"},{"town":"東阪田","koaza":"","lat":34.530408,"lng":135.610174,"zip":"5830846"},{"town":"通法寺","koaza":"","lat":34.526876,"lng":135.622776,"zip":"5830843"},{"town":"誉田六丁目","koaza":"","lat":34.562637,"lng":135.610122,"zip":"5830857"},{"town":"蔵之内","koaza":"","lat":34.537718,"lng":135.600042,"zip":"5830863"},{"town":"埴生野","koaza":"","lat":34.537896,"lng":135.58326,"zip":"5830866"},{"town":"西浦","koaza":"","lat":34.537847,"lng":135.606122,"zip":"5830861"},{"town":"広瀬","koaza":"","lat":34.53095,"lng":135.615171,"zip":"5830845"},{"town":"河原城","koaza":"","lat":34.547875,"lng":135.576458,"zip":"5830867"},{"town":"野","koaza":"","lat":34.558989,"lng":135.571323,"zip":"5830884"},{"town":"古市","koaza":"","lat":34.545358,"lng":135.646999,"zip":"5830852"},{"town":"郡戸","koaza":"","lat":34.55214,"lng":135.571741,"zip":"5830874"},{"town":"川向","koaza":"","lat":34.555691,"lng":135.62011,"zip":"5830848"},{"town":"尺度","koaza":"","lat":34.532502,"lng":135.599502,"zip":"5830862"},{"town":"壺井","koaza":"","lat":34.531377,"lng":135.622971,"zip":"5830844"},{"town":"誉田","koaza":"","lat":34.54983,"lng":135.63691,"zip":"5830857"},{"town":"大黒","koaza":"","lat":34.54075,"lng":135.618802,"zip":"5830847"},{"town":"駒ケ谷","koaza":"","lat":34.544303,"lng":135.63075,"zip":"5830841"},{"town":"飛鳥","koaza":"","lat":34.535249,"lng":135.642073,"zip":"5830842"}]