[{"town":"本町","koaza":"","lat":34.819084,"lng":135.57291,"zip":"5670818"},{"town":"南清水町","koaza":"","lat":34.835389,"lng":135.531967,"zip":"5670056"},{"town":"総持寺台","koaza":"","lat":34.82407,"lng":135.586011,"zip":"5670804"},{"town":"山手台東町","koaza":"","lat":34.86316,"lng":135.559882,"zip":"5680089"},{"town":"駅前二丁目","koaza":"","lat":34.817934,"lng":135.56525,"zip":"5670888"},{"town":"宮元町","koaza":"","lat":34.820386,"lng":135.574276,"zip":"5670810"},{"town":"東宮町","koaza":"","lat":34.823935,"lng":135.574107,"zip":"5670812"},{"town":"山手台新町三丁目","koaza":"","lat":34.866791,"lng":135.557108,"zip":"5670010"},{"town":"別院町","koaza":"","lat":34.816831,"lng":135.574031,"zip":"5670817"},{"town":"宿久庄六丁目","koaza":"","lat":34.842913,"lng":135.527142,"zip":"5670051"},{"town":"真砂玉島台","koaza":"","lat":34.798769,"lng":135.583028,"zip":"5670850"},{"town":"大字小坪井","koaza":"","lat":34.80652,"lng":135.545801,"zip":"5670000"},{"town":"玉水町","koaza":"","lat":34.806992,"lng":135.571567,"zip":"5670896"},{"town":"総持寺二丁目","koaza":"","lat":34.82993,"lng":135.585344,"zip":"5670801"},{"town":"永代町","koaza":"","lat":34.81709,"lng":135.575778,"zip":"5670816"},{"town":"大正町","koaza":"","lat":34.794014,"lng":135.560216,"zip":"5670867"},{"town":"見付山一丁目","koaza":"","lat":34.819359,"lng":135.555298,"zip":"5670035"},{"town":"元町","koaza":"","lat":34.818138,"lng":135.571558,"zip":"5670882"},{"town":"平田台","koaza":"","lat":34.805531,"lng":135.584908,"zip":"5670849"},{"town":"東奈良一丁目","koaza":"","lat":34.808224,"lng":135.570148,"zip":"5670861"},{"town":"春日二丁目","koaza":"","lat":34.818297,"lng":135.560141,"zip":"5670031"},{"town":"駅前三丁目","koaza":"","lat":34.815954,"lng":135.568038,"zip":"5670888"},{"town":"水尾四丁目","koaza":"","lat":34.805923,"lng":135.578744,"zip":"5670891"},{"town":"大同町","koaza":"","lat":34.808847,"lng":135.586106,"zip":"5670844"},{"town":"上穂積一丁目","koaza":"","lat":34.821061,"lng":135.558264,"zip":"5670036"},{"town":"豊川三丁目","koaza":"","lat":34.835193,"lng":135.528737,"zip":"5670057"},{"town":"白川三丁目","koaza":"","lat":34.816921,"lng":135.604888,"zip":"5670832"},{"town":"大手町","koaza":"","lat":34.815907,"lng":135.571575,"zip":"5670883"},{"town":"小柳町","koaza":"","lat":34.795388,"lng":135.579919,"zip":"5670852"},{"town":"上穂東町","koaza":"","lat":34.822868,"lng":135.560979,"zip":"5670037"},{"town":"上中条一丁目","koaza":"","lat":34.820005,"lng":135.567813,"zip":"5670881"},{"town":"玉島台","koaza":"","lat":34.800378,"lng":135.584479,"zip":"5670848"},{"town":"中総持寺町","koaza":"","lat":34.826576,"lng":135.585348,"zip":"5670803"},{"town":"戸伏町","koaza":"","lat":34.822541,"lng":135.578439,"zip":"5670814"},{"town":"駅前一丁目","koaza":"","lat":34.815887,"lng":135.564298,"zip":"5670888"},{"town":"彩都あさぎ二丁目","koaza":"","lat":34.851953,"lng":135.524267,"zip":"5670085"},{"town":"駅前四丁目","koaza":"","lat":34.818012,"lng":135.567992,"zip":"5670888"},{"town":"大住町","koaza":"","lat":34.823696,"lng":135.575733,"zip":"5670813"},{"town":"鮎川一丁目","koaza":"","lat":34.817309,"lng":135.592726,"zip":"5670831"},{"town":"見付山二丁目","koaza":"","lat":34.821218,"lng":135.554753,"zip":"5670035"},{"town":"上泉町","koaza":"","lat":34.823724,"lng":135.572387,"zip":"5670811"},{"town":"総持寺駅前町","koaza":"","lat":34.828169,"lng":135.583377,"zip":"5670802"},{"town":"五日市緑町","koaza":"","lat":34.830344,"lng":135.561976,"zip":"5670029"},{"town":"小川町","koaza":"","lat":34.80949,"lng":135.569036,"zip":"5670873"},{"town":"真砂三丁目","koaza":"","lat":34.797719,"lng":135.58017,"zip":"5670851"},{"town":"若草町","koaza":"","lat":34.804288,"lng":135.565325,"zip":"5670875"},{"town":"三咲町","koaza":"","lat":34.8309,"lng":135.570176,"zip":"5670024"},{"town":"主原町","koaza":"","lat":34.811241,"lng":135.572524,"zip":"5670897"},{"town":"下穂積四丁目","koaza":"","lat":34.811247,"lng":135.55199,"zip":"5670041"},{"town":"春日四丁目","koaza":"","lat":34.823294,"lng":135.56665,"zip":"5670031"},{"town":"末広町","koaza":"","lat":34.819667,"lng":135.579656,"zip":"5670821"},{"town":"双葉町","koaza":"","lat":34.81654,"lng":135.577767,"zip":"5670829"},{"town":"西安威一丁目","koaza":"","lat":34.844666,"lng":135.557737,"zip":"5670008"},{"town":"橋の内一丁目","koaza":"","lat":34.819693,"lng":135.587667,"zip":"5670805"},{"town":"山手台新町一丁目","koaza":"","lat":34.864726,"lng":135.555628,"zip":"5670010"},{"town":"三島町","koaza":"","lat":34.830545,"lng":135.579454,"zip":"5670022"},{"town":"西駅前町","koaza":"","lat":34.815667,"lng":135.560275,"zip":"5670032"},{"town":"片桐町","koaza":"","lat":34.820183,"lng":135.570992,"zip":"5670819"},{"town":"新堂二丁目","koaza":"","lat":34.811647,"lng":135.596184,"zip":"5670835"},{"town":"西河原三丁目","koaza":"","lat":34.834789,"lng":135.574519,"zip":"5670023"},{"town":"東太田三丁目","koaza":"","lat":34.838647,"lng":135.581832,"zip":"5670012"},{"town":"並木町","koaza":"","lat":34.808781,"lng":135.579592,"zip":"5670892"},{"town":"山手台新町二丁目","koaza":"","lat":34.866751,"lng":135.553385,"zip":"5670010"},{"town":"新堂三丁目","koaza":"","lat":34.80973,"lng":135.596234,"zip":"5670835"},{"town":"竹橋町","koaza":"","lat":34.820333,"lng":135.577166,"zip":"5670815"},{"town":"新中条町","koaza":"","lat":34.809502,"lng":135.565822,"zip":"5670872"},{"town":"彩都やまぶき一丁目","koaza":"","lat":34.854493,"lng":135.521189,"zip":"5670086"},{"town":"新和町","koaza":"","lat":34.795767,"lng":135.57661,"zip":"5670855"},{"town":"園田町","koaza":"","lat":34.813751,"lng":135.581821,"zip":"5670825"},{"town":"橋の内三丁目","koaza":"","lat":34.821802,"lng":135.587965,"zip":"5670805"},{"town":"鮎川三丁目","koaza":"","lat":34.819601,"lng":135.596378,"zip":"5670831"},{"town":"南春日丘六丁目","koaza":"","lat":34.818317,"lng":135.535427,"zip":"5670046"},{"town":"野々宮一丁目","koaza":"","lat":34.795919,"lng":135.583231,"zip":"5670847"},{"town":"南安威三丁目","koaza":"","lat":34.842813,"lng":135.558197,"zip":"5670007"},{"town":"東奈良三丁目","koaza":"","lat":34.804162,"lng":135.567439,"zip":"5670861"},{"town":"玉櫛一丁目","koaza":"","lat":34.802451,"lng":135.571607,"zip":"5670895"},{"town":"沢良宜浜一丁目","koaza":"","lat":34.793869,"lng":135.568647,"zip":"5670864"},{"town":"上中条二丁目","koaza":"","lat":34.823022,"lng":135.56973,"zip":"5670881"},{"town":"下中条町","koaza":"","lat":34.812967,"lng":135.56632,"zip":"5670886"},{"town":"南目垣二丁目","koaza":"","lat":34.80269,"lng":135.595603,"zip":"5670837"},{"town":"真砂二丁目","koaza":"","lat":34.799904,"lng":135.580483,"zip":"5670851"},{"town":"沢良宜西四丁目","koaza":"","lat":34.791193,"lng":135.563255,"zip":"5670868"},{"town":"五日市二丁目","koaza":"","lat":34.833164,"lng":135.563291,"zip":"5670005"},{"town":"上穂積三丁目","koaza":"","lat":34.824091,"lng":135.556163,"zip":"5670036"},{"town":"太田二丁目","koaza":"","lat":34.842636,"lng":135.57425,"zip":"5670018"},{"town":"下穂積二丁目","koaza":"","lat":34.810941,"lng":135.555186,"zip":"5670041"},{"town":"蔵垣内二丁目","koaza":"","lat":34.795605,"lng":135.555258,"zip":"5670878"},{"town":"太田一丁目","koaza":"","lat":34.840022,"lng":135.573531,"zip":"5670018"},{"town":"安威四丁目","koaza":"","lat":34.856272,"lng":135.564147,"zip":"5670001"},{"town":"三島丘一丁目","koaza":"","lat":34.833428,"lng":135.578365,"zip":"5670021"},{"town":"春日一丁目","koaza":"","lat":34.818371,"lng":135.562911,"zip":"5670031"},{"town":"目垣三丁目","koaza":"","lat":34.804797,"lng":135.595382,"zip":"5670836"},{"town":"玉島二丁目","koaza":"","lat":34.800856,"lng":135.589014,"zip":"5670846"},{"town":"島三丁目","koaza":"","lat":34.789532,"lng":135.574698,"zip":"5670854"},{"town":"稲葉町","koaza":"","lat":34.811485,"lng":135.57534,"zip":"5670827"},{"town":"下穂積一丁目","koaza":"","lat":34.811317,"lng":135.55683,"zip":"5670041"},{"town":"下井町","koaza":"","lat":34.837173,"lng":135.550296,"zip":"5670066"},{"town":"彩都あさぎ一丁目","koaza":"","lat":34.854001,"lng":135.524114,"zip":"5670085"},{"town":"春日五丁目","koaza":"","lat":34.824149,"lng":135.563187,"zip":"5670031"},{"town":"南耳原二丁目","koaza":"","lat":34.837514,"lng":135.56813,"zip":"5670004"},{"town":"白川一丁目","koaza":"","lat":34.816559,"lng":135.598846,"zip":"5670832"},{"town":"中河原町","koaza":"","lat":34.838934,"lng":135.554205,"zip":"5670063"},{"town":"丑寅一丁目","koaza":"","lat":34.799715,"lng":135.559469,"zip":"5670877"},{"town":"彩都あさぎ四丁目","koaza":"","lat":34.848895,"lng":135.529201,"zip":"5670085"},{"town":"上郡一丁目","koaza":"","lat":34.834112,"lng":135.558009,"zip":"5670065"},{"town":"沢良宜浜三丁目","koaza":"","lat":34.794023,"lng":135.573886,"zip":"5670864"},{"town":"西田中町","koaza":"","lat":34.82463,"lng":135.567971,"zip":"5670027"},{"town":"井口台","koaza":"","lat":34.831782,"lng":135.54186,"zip":"5670076"},{"town":"山手台二丁目","koaza":"","lat":34.859069,"lng":135.557982,"zip":"5670009"},{"town":"沢良宜浜二丁目","koaza":"","lat":34.793839,"lng":135.571144,"zip":"5670864"},{"town":"西福井二丁目","koaza":"","lat":34.840238,"lng":135.549374,"zip":"5670067"},{"town":"彩都あさぎ三丁目","koaza":"","lat":34.849318,"lng":135.525008,"zip":"5670085"},{"town":"寺田町","koaza":"","lat":34.816849,"lng":135.585448,"zip":"5670823"},{"town":"穂積台","koaza":"","lat":34.810786,"lng":135.54846,"zip":"5670044"},{"town":"島二丁目","koaza":"","lat":34.792531,"lng":135.5758,"zip":"5670854"},{"town":"東中条町","koaza":"","lat":34.813094,"lng":135.568942,"zip":"5670885"},{"town":"中穂積一丁目","koaza":"","lat":34.817295,"lng":135.557795,"zip":"5670034"},{"town":"東太田一丁目","koaza":"","lat":34.835731,"lng":135.578516,"zip":"5670012"},{"town":"水尾二丁目","koaza":"","lat":34.805979,"lng":135.575058,"zip":"5670891"},{"town":"彩都やまぶき五丁目","koaza":"","lat":34.862059,"lng":135.517748,"zip":"5670086"},{"town":"宇野辺二丁目","koaza":"","lat":34.80186,"lng":135.555446,"zip":"5670042"},{"town":"南目垣三丁目","koaza":"","lat":34.79971,"lng":135.593542,"zip":"5670837"},{"town":"新庄町","koaza":"","lat":34.812844,"lng":135.57167,"zip":"5670884"},{"town":"南目垣一丁目","koaza":"","lat":34.802665,"lng":135.597685,"zip":"5670837"},{"town":"彩都やまぶき四丁目","koaza":"","lat":34.860165,"lng":135.520883,"zip":"5670086"},{"town":"南耳原一丁目","koaza":"","lat":34.834956,"lng":135.566786,"zip":"5670004"},{"town":"沢良宜西三丁目","koaza":"","lat":34.79547,"lng":135.562307,"zip":"5670868"},{"town":"下穂積三丁目","koaza":"","lat":34.813602,"lng":135.553359,"zip":"5670041"},{"town":"玉櫛二丁目","koaza":"","lat":34.802299,"lng":135.575379,"zip":"5670895"},{"town":"上郡二丁目","koaza":"","lat":34.83747,"lng":135.555887,"zip":"5670065"},{"town":"鮎川二丁目","koaza":"","lat":34.820252,"lng":135.591449,"zip":"5670831"},{"town":"西福井四丁目","koaza":"","lat":34.849686,"lng":135.548922,"zip":"5670067"},{"town":"沢良宜西一丁目","koaza":"","lat":34.800168,"lng":135.56521,"zip":"5670868"},{"town":"彩都やまぶき二丁目","koaza":"","lat":34.858687,"lng":135.52335,"zip":"5670086"},{"town":"東太田二丁目","koaza":"","lat":34.839818,"lng":135.579709,"zip":"5670012"},{"town":"目垣二丁目","koaza":"","lat":34.807341,"lng":135.595418,"zip":"5670836"},{"town":"水尾三丁目","koaza":"","lat":34.804154,"lng":135.575197,"zip":"5670891"},{"town":"沢良宜西二丁目","koaza":"","lat":34.795789,"lng":135.564736,"zip":"5670868"},{"town":"西太田町","koaza":"","lat":34.837728,"lng":135.571175,"zip":"5670015"},{"town":"耳原二丁目","koaza":"","lat":34.839216,"lng":135.564836,"zip":"5670006"},{"town":"五日市一丁目","koaza":"","lat":34.83239,"lng":135.567669,"zip":"5670005"},{"town":"城の前町","koaza":"","lat":34.837133,"lng":135.574404,"zip":"5670014"},{"town":"南春日丘四丁目","koaza":"","lat":34.817471,"lng":135.54046,"zip":"5670046"},{"town":"南春日丘五丁目","koaza":"","lat":34.816321,"lng":135.534025,"zip":"5670046"},{"town":"豊川二丁目","koaza":"","lat":34.832723,"lng":135.534519,"zip":"5670057"},{"town":"中村町","koaza":"","lat":34.81923,"lng":135.583061,"zip":"5670822"},{"town":"学園町","koaza":"","lat":34.817209,"lng":135.589455,"zip":"5670833"},{"town":"桑田町","koaza":"","lat":34.812342,"lng":135.585535,"zip":"5670841"},{"town":"豊原町","koaza":"","lat":34.838956,"lng":135.546928,"zip":"5670053"},{"town":"宿久庄三丁目","koaza":"","lat":34.838297,"lng":135.534826,"zip":"5670051"},{"town":"郡三丁目","koaza":"","lat":34.829866,"lng":135.555763,"zip":"5670072"},{"town":"東奈良二丁目","koaza":"","lat":34.803525,"lng":135.569571,"zip":"5670861"},{"town":"西河原北町","koaza":"","lat":34.834504,"lng":135.571162,"zip":"5670003"},{"town":"丑寅二丁目","koaza":"","lat":34.795817,"lng":135.559129,"zip":"5670877"},{"town":"玉島一丁目","koaza":"","lat":34.799944,"lng":135.586677,"zip":"5670846"},{"town":"平田一丁目","koaza":"","lat":34.805235,"lng":135.586727,"zip":"5670845"},{"town":"北春日丘三丁目","koaza":"","lat":34.819798,"lng":135.539247,"zip":"5670048"},{"town":"西福井一丁目","koaza":"","lat":34.840841,"lng":135.552292,"zip":"5670067"},{"town":"南安威一丁目","koaza":"","lat":34.84329,"lng":135.565388,"zip":"5670007"},{"town":"舟木町","koaza":"","lat":34.81414,"lng":135.576603,"zip":"5670828"},{"town":"島一丁目","koaza":"","lat":34.792918,"lng":135.578991,"zip":"5670854"},{"town":"上穂積二丁目","koaza":"","lat":34.823973,"lng":135.559047,"zip":"5670036"},{"town":"宇野辺一丁目","koaza":"","lat":34.806109,"lng":135.556532,"zip":"5670042"},{"town":"花園二丁目","koaza":"","lat":34.847017,"lng":135.57487,"zip":"5670017"},{"town":"山手台六丁目","koaza":"","lat":34.868229,"lng":135.547861,"zip":"5670009"},{"town":"高田町","koaza":"","lat":34.845229,"lng":135.581175,"zip":"5670011"},{"town":"天王一丁目","koaza":"","lat":34.804736,"lng":135.562419,"zip":"5670876"},{"town":"郡一丁目","koaza":"","lat":34.82722,"lng":135.554537,"zip":"5670072"},{"town":"宿川原町","koaza":"","lat":34.834394,"lng":135.542172,"zip":"5670055"},{"town":"春日三丁目","koaza":"","lat":34.821263,"lng":135.564181,"zip":"5670031"},{"town":"総持寺一丁目","koaza":"","lat":34.829758,"lng":135.582241,"zip":"5670801"},{"town":"郡四丁目","koaza":"","lat":34.832352,"lng":135.557346,"zip":"5670072"},{"town":"水尾一丁目","koaza":"","lat":34.808648,"lng":135.574654,"zip":"5670891"},{"town":"松下町","koaza":"","lat":34.828257,"lng":135.567345,"zip":"5670026"},{"town":"蔵垣内一丁目","koaza":"","lat":34.799117,"lng":135.556296,"zip":"5670878"},{"town":"蔵垣内三丁目","koaza":"","lat":34.793274,"lng":135.556458,"zip":"5670878"},{"town":"耳原一丁目","koaza":"","lat":34.836398,"lng":135.563918,"zip":"5670006"},{"town":"大池一丁目","koaza":"","lat":34.811192,"lng":135.57896,"zip":"5670826"},{"town":"鮎川五丁目","koaza":"","lat":34.813955,"lng":135.596876,"zip":"5670831"},{"town":"西中条町","koaza":"","lat":34.812934,"lng":135.563462,"zip":"5670887"},{"town":"彩都やまぶき三丁目","koaza":"","lat":34.858855,"lng":135.518129,"zip":"5670086"},{"town":"中穂積二丁目","koaza":"","lat":34.817716,"lng":135.553921,"zip":"5670034"},{"town":"大字道祖本","koaza":"","lat":34.83109,"lng":135.537846,"zip":"5670000"},{"town":"白川二丁目","koaza":"","lat":34.816636,"lng":135.601813,"zip":"5670832"},{"town":"鮎川四丁目","koaza":"","lat":34.8167,"lng":135.595747,"zip":"5670831"},{"town":"東太田四丁目","koaza":"","lat":34.841673,"lng":135.583255,"zip":"5670012"},{"town":"太田東芝町","koaza":"","lat":34.839517,"lng":135.577364,"zip":"5670013"},{"town":"横江一丁目","koaza":"","lat":34.788654,"lng":135.567233,"zip":"5670865"},{"town":"星見町","koaza":"","lat":34.808837,"lng":135.58973,"zip":"5670843"},{"town":"新郡山一丁目","koaza":"","lat":34.831416,"lng":135.547241,"zip":"5670074"},{"town":"天王二丁目","koaza":"","lat":34.800522,"lng":135.562596,"zip":"5670876"},{"town":"学園南町","koaza":"","lat":34.814038,"lng":135.591544,"zip":"5670834"},{"town":"五十鈴町","koaza":"","lat":34.813894,"lng":135.58793,"zip":"5670842"},{"town":"南安威二丁目","koaza":"","lat":34.843811,"lng":135.561787,"zip":"5670007"},{"town":"彩都あさぎ六丁目","koaza":"","lat":34.8527,"lng":135.531665,"zip":"5670085"},{"town":"東安威二丁目","koaza":"","lat":34.853144,"lng":135.567891,"zip":"5670002"},{"town":"大池二丁目","koaza":"","lat":34.810594,"lng":135.582547,"zip":"5670826"},{"town":"山手台五丁目","koaza":"","lat":34.865581,"lng":135.550488,"zip":"5670009"},{"town":"平田二丁目","koaza":"","lat":34.805361,"lng":135.589719,"zip":"5670845"},{"town":"紫明園","koaza":"","lat":34.813323,"lng":135.549068,"zip":"5670045"},{"town":"郡山一丁目","koaza":"","lat":34.831162,"lng":135.55068,"zip":"5670071"},{"town":"南春日丘二丁目","koaza":"","lat":34.816103,"lng":135.546087,"zip":"5670046"},{"town":"室山一丁目","koaza":"","lat":34.843612,"lng":135.546036,"zip":"5670052"},{"town":"新堂一丁目","koaza":"","lat":34.810358,"lng":135.592278,"zip":"5670835"},{"town":"南春日丘七丁目","koaza":"","lat":34.819933,"lng":135.532059,"zip":"5670046"},{"town":"庄二丁目","koaza":"","lat":34.824827,"lng":135.581294,"zip":"5670806"},{"town":"西安威二丁目","koaza":"","lat":34.847773,"lng":135.558364,"zip":"5670008"},{"town":"東福井一丁目","koaza":"","lat":34.842433,"lng":135.555052,"zip":"5670062"},{"town":"高浜町","koaza":"","lat":34.791849,"lng":135.565798,"zip":"5670866"},{"town":"美沢町","koaza":"","lat":34.798208,"lng":135.567995,"zip":"5670862"},{"town":"宿久庄七丁目","koaza":"","lat":34.845755,"lng":135.527356,"zip":"5670051"},{"town":"豊川四丁目","koaza":"","lat":34.833537,"lng":135.530085,"zip":"5670057"},{"town":"南春日丘三丁目","koaza":"","lat":34.815373,"lng":135.539874,"zip":"5670046"},{"town":"中津町","koaza":"","lat":34.816708,"lng":135.581182,"zip":"5670824"},{"town":"西河原一丁目","koaza":"","lat":34.828485,"lng":135.57495,"zip":"5670023"},{"town":"中穂積三丁目","koaza":"","lat":34.81662,"lng":135.551704,"zip":"5670034"},{"town":"松ケ本町","koaza":"","lat":34.811425,"lng":135.558865,"zip":"5670033"},{"town":"藤の里一丁目","koaza":"","lat":34.838857,"lng":135.543662,"zip":"5670054"},{"town":"彩都あさぎ五丁目","koaza":"","lat":34.85156,"lng":135.527825,"zip":"5670085"},{"town":"新郡山二丁目","koaza":"","lat":34.831639,"lng":135.544311,"zip":"5670074"},{"town":"横江二丁目","koaza":"","lat":34.786795,"lng":135.564793,"zip":"5670865"},{"town":"三島丘二丁目","koaza":"","lat":34.833924,"lng":135.581743,"zip":"5670021"},{"town":"山手台一丁目","koaza":"","lat":34.85598,"lng":135.557628,"zip":"5670009"},{"town":"宿久庄五丁目","koaza":"","lat":34.840184,"lng":135.526284,"zip":"5670051"},{"town":"藤の里二丁目","koaza":"","lat":34.83818,"lng":135.539075,"zip":"5670054"},{"town":"西河原二丁目","koaza":"","lat":34.83198,"lng":135.574707,"zip":"5670023"},{"town":"山手台七丁目","koaza":"","lat":34.87094,"lng":135.548877,"zip":"5670009"},{"town":"東福井四丁目","koaza":"","lat":34.857222,"lng":135.547125,"zip":"5670062"},{"town":"安威一丁目","koaza":"","lat":34.847125,"lng":135.563699,"zip":"5670001"},{"town":"山手台三丁目","koaza":"","lat":34.86017,"lng":135.554132,"zip":"5670009"},{"town":"豊川五丁目","koaza":"","lat":34.830433,"lng":135.53052,"zip":"5670057"},{"town":"郡五丁目","koaza":"","lat":34.834335,"lng":135.553364,"zip":"5670072"},{"town":"宿久庄二丁目","koaza":"","lat":34.842002,"lng":135.537877,"zip":"5670051"},{"town":"田中町","koaza":"","lat":34.827515,"lng":135.570948,"zip":"5670025"},{"town":"花園一丁目","koaza":"","lat":34.843788,"lng":135.572294,"zip":"5670017"},{"town":"野々宮二丁目","koaza":"","lat":34.796363,"lng":135.587634,"zip":"5670847"},{"town":"岩倉町","koaza":"","lat":34.81077,"lng":135.561816,"zip":"5670871"},{"town":"宿久庄一丁目","koaza":"","lat":34.842679,"lng":135.542094,"zip":"5670051"},{"town":"沢良宜東町","koaza":"","lat":34.797985,"lng":135.571295,"zip":"5670863"},{"town":"郡二丁目","koaza":"","lat":34.828029,"lng":135.550373,"zip":"5670072"},{"town":"東安威一丁目","koaza":"","lat":34.848185,"lng":135.568953,"zip":"5670002"},{"town":"山手台四丁目","koaza":"","lat":34.862643,"lng":135.555046,"zip":"5670009"},{"town":"十日市町","koaza":"","lat":34.842515,"lng":135.568678,"zip":"5670016"},{"town":"北春日丘四丁目","koaza":"","lat":34.821866,"lng":135.53245,"zip":"5670048"},{"town":"南春日丘一丁目","koaza":"","lat":34.813445,"lng":135.544808,"zip":"5670046"},{"town":"奈良町","koaza":"","lat":34.807383,"lng":135.565075,"zip":"5670874"},{"town":"橋の内二丁目","koaza":"","lat":34.822041,"lng":135.583068,"zip":"5670805"},{"town":"西福井三丁目","koaza":"","lat":34.844655,"lng":135.550304,"zip":"5670067"},{"town":"郡山二丁目","koaza":"","lat":34.833771,"lng":135.549009,"zip":"5670071"},{"town":"島四丁目","koaza":"","lat":34.788543,"lng":135.569946,"zip":"5670854"},{"town":"若園町","koaza":"","lat":34.80255,"lng":135.581239,"zip":"5670894"},{"town":"太田三丁目","koaza":"","lat":34.844554,"lng":135.577772,"zip":"5670018"},{"town":"目垣一丁目","koaza":"","lat":34.803519,"lng":135.592522,"zip":"5670836"},{"town":"玉瀬町","koaza":"","lat":34.805884,"lng":135.581901,"zip":"5670893"},{"town":"北春日丘二丁目","koaza":"","lat":34.820379,"lng":135.543139,"zip":"5670048"},{"town":"真砂一丁目","koaza":"","lat":34.799028,"lng":135.575783,"zip":"5670851"},{"town":"庄一丁目","koaza":"","lat":34.825672,"lng":135.576837,"zip":"5670806"},{"town":"上野町","koaza":"","lat":34.835807,"lng":135.560575,"zip":"5670064"},{"town":"西豊川町","koaza":"","lat":34.831457,"lng":135.526699,"zip":"5670058"},{"town":"上穂積四丁目","koaza":"","lat":34.828446,"lng":135.55991,"zip":"5670036"},{"town":"清水一丁目","koaza":"","lat":34.837979,"lng":135.531215,"zip":"5670059"},{"town":"西穂積町","koaza":"","lat":34.823545,"lng":135.552189,"zip":"5670073"},{"town":"北春日丘一丁目","koaza":"","lat":34.819567,"lng":135.548847,"zip":"5670048"},{"town":"安威二丁目","koaza":"","lat":34.849565,"lng":135.563733,"zip":"5670001"},{"town":"東福井二丁目","koaza":"","lat":34.847162,"lng":135.55388,"zip":"5670062"},{"town":"畑田町","koaza":"","lat":34.828731,"lng":135.564386,"zip":"5670028"},{"town":"安威三丁目","koaza":"","lat":34.853572,"lng":135.564824,"zip":"5670001"},{"town":"豊川一丁目","koaza":"","lat":34.833824,"lng":135.537481,"zip":"5670057"},{"town":"東宇野辺町","koaza":"","lat":34.804157,"lng":135.559291,"zip":"5670879"},{"town":"耳原三丁目","koaza":"","lat":34.840692,"lng":135.563039,"zip":"5670006"},{"town":"清水二丁目","koaza":"","lat":34.838376,"lng":135.522734,"zip":"5670059"},{"town":"東野々宮町","koaza":"","lat":34.796394,"lng":135.592291,"zip":"5670838"},{"town":"東福井三丁目","koaza":"","lat":34.852047,"lng":135.550296,"zip":"5670062"},{"town":"彩都あさぎ七丁目","koaza":"","lat":34.856981,"lng":135.526314,"zip":"5670085"},{"town":"美穂ケ丘","koaza":"","lat":34.82271,"lng":135.527687,"zip":"5670047"},{"town":"室山二丁目","koaza":"","lat":34.847252,"lng":135.543249,"zip":"5670052"},{"town":"宿久庄四丁目","koaza":"","lat":34.84324,"lng":135.52999,"zip":"5670051"},{"town":"大字上穂積","koaza":"","lat":34.826951,"lng":135.542808,"zip":"5670000"},{"town":"大字大門寺","koaza":"","lat":34.870362,"lng":135.555505,"zip":"5670000"},{"town":"宮島三丁目","koaza":"","lat":34.780616,"lng":135.571052,"zip":"5670853"},{"town":"宮島一丁目","koaza":"","lat":34.791068,"lng":135.582873,"zip":"5670853"},{"town":"大字桑原","koaza":"","lat":34.862528,"lng":135.562553,"zip":"5670000"},{"town":"宮島二丁目","koaza":"","lat":34.786219,"lng":135.575565,"zip":"5670853"},{"town":"大字長谷","koaza":"","lat":34.909729,"lng":135.538185,"zip":"5670000"},{"town":"大字生保","koaza":"","lat":34.875264,"lng":135.56238,"zip":"5670000"},{"town":"大字安元","koaza":"","lat":34.890048,"lng":135.546821,"zip":"5670000"},{"town":"大字安威","koaza":"","lat":34.864677,"lng":135.566825,"zip":"5670000"},{"town":"大字清阪","koaza":"","lat":34.910867,"lng":135.570766,"zip":"5670000"},{"town":"大字中穂積","koaza":"","lat":34.825255,"lng":135.535987,"zip":"5670000"},{"town":"大字千提寺","koaza":"","lat":34.88457,"lng":135.535328,"zip":"5670000"},{"town":"大字忍頂寺","koaza":"","lat":34.897827,"lng":135.543661,"zip":"5670000"},{"town":"大字大岩","koaza":"","lat":34.880629,"lng":135.546216,"zip":"5670000"},{"town":"大字福井","koaza":"","lat":34.862482,"lng":135.547344,"zip":"5670000"},{"town":"大字上音羽","koaza":"","lat":34.903568,"lng":135.524584,"zip":"5670000"},{"town":"大字銭原","koaza":"","lat":34.918187,"lng":135.53076,"zip":"5670000"},{"town":"大字下音羽","koaza":"","lat":34.90787,"lng":135.553247,"zip":"5670000"},{"town":"大字車作","koaza":"","lat":34.891157,"lng":135.559891,"zip":"5670000"},{"town":"大字泉原","koaza":"","lat":34.884264,"lng":135.514311,"zip":"5670000"},{"town":"大字宿久庄","koaza":"","lat":34.852699,"lng":135.539352,"zip":"5670000"},{"town":"大字粟生岩阪","koaza":"","lat":34.866826,"lng":135.517823,"zip":"5670000"},{"town":"大字佐保","koaza":"","lat":34.871915,"lng":135.529281,"zip":"5670000"},{"town":"彩都あかね","koaza":"","lat":34.860527,"lng":135.535039,"zip":"5670084"}]