[{"town":"小山藤美町","koaza":"","lat":34.580197,"lng":135.596806,"zip":"5830032"},{"town":"春日丘新町","koaza":"","lat":34.568286,"lng":135.590366,"zip":"5830025"},{"town":"小山新町","koaza":"","lat":34.581558,"lng":135.596013,"zip":"5830031"},{"town":"陵南町","koaza":"","lat":34.562104,"lng":135.59365,"zip":"5830016"},{"town":"さくら町","koaza":"","lat":34.566836,"lng":135.60104,"zip":"5830023"},{"town":"古室一丁目","koaza":"","lat":34.571041,"lng":135.609271,"zip":"5830013"},{"town":"青山一丁目","koaza":"","lat":34.555475,"lng":135.60157,"zip":"5830015"},{"town":"西古室二丁目","koaza":"","lat":34.567077,"lng":135.604394,"zip":"5830018"},{"town":"国府三丁目","koaza":"","lat":34.56984,"lng":135.619973,"zip":"5830006"},{"town":"林四丁目","koaza":"","lat":34.574417,"lng":135.611103,"zip":"5830007"},{"town":"津堂","koaza":"","lat":34.581521,"lng":135.593901,"zip":"5830037"},{"town":"林五丁目","koaza":"","lat":34.574282,"lng":135.614032,"zip":"5830007"},{"town":"青山二丁目","koaza":"","lat":34.55534,"lng":135.600161,"zip":"5830015"},{"town":"林三丁目","koaza":"","lat":34.576173,"lng":135.610942,"zip":"5830007"},{"town":"林六丁目","koaza":"","lat":34.576243,"lng":135.61397,"zip":"5830007"},{"town":"春日丘一丁目","koaza":"","lat":34.570352,"lng":135.592935,"zip":"5830026"},{"town":"藤ケ丘三丁目","koaza":"","lat":34.562511,"lng":135.599985,"zip":"5830017"},{"town":"藤ケ丘一丁目","koaza":"","lat":34.566157,"lng":135.602831,"zip":"5830017"},{"town":"恵美坂二丁目","koaza":"","lat":34.575591,"lng":135.588345,"zip":"5830036"},{"town":"川北三丁目","koaza":"","lat":34.584334,"lng":135.614074,"zip":"5830001"},{"town":"道明寺五丁目","koaza":"","lat":34.564999,"lng":135.61335,"zip":"5830012"},{"town":"東藤井寺町","koaza":"","lat":34.569537,"lng":135.601192,"zip":"5830022"},{"town":"藤ケ丘二丁目","koaza":"","lat":34.564583,"lng":135.603066,"zip":"5830017"},{"town":"西古室一丁目","koaza":"","lat":34.569302,"lng":135.604134,"zip":"5830018"},{"town":"大井一丁目","koaza":"","lat":34.578162,"lng":135.608277,"zip":"5830008"},{"town":"小山藤の里町","koaza":"","lat":34.576351,"lng":135.599052,"zip":"5830034"},{"town":"野中五丁目","koaza":"","lat":34.559819,"lng":135.598206,"zip":"5830014"},{"town":"北岡一丁目","koaza":"","lat":34.575734,"lng":135.594801,"zip":"5830035"},{"town":"野中三丁目","koaza":"","lat":34.558321,"lng":135.602694,"zip":"5830014"},{"town":"野中四丁目","koaza":"","lat":34.557008,"lng":135.598945,"zip":"5830014"},{"town":"春日丘二丁目","koaza":"","lat":34.567179,"lng":135.592388,"zip":"5830026"},{"town":"藤井寺二丁目","koaza":"","lat":34.568083,"lng":135.598176,"zip":"5830024"},{"town":"惣社二丁目","koaza":"","lat":34.576175,"lng":135.620179,"zip":"5830005"},{"town":"惣社一丁目","koaza":"","lat":34.576444,"lng":135.617128,"zip":"5830005"},{"town":"小山八丁目","koaza":"","lat":34.579676,"lng":135.601243,"zip":"5830033"},{"town":"北岡二丁目","koaza":"","lat":34.575659,"lng":135.59095,"zip":"5830035"},{"town":"青山三丁目","koaza":"","lat":34.556599,"lng":135.59673,"zip":"5830015"},{"town":"道明寺二丁目","koaza":"","lat":34.567052,"lng":135.617265,"zip":"5830012"},{"town":"古室二丁目","koaza":"","lat":34.568242,"lng":135.609973,"zip":"5830013"},{"town":"小山四丁目","koaza":"","lat":34.579669,"lng":135.594025,"zip":"5830033"},{"town":"林一丁目","koaza":"","lat":34.57584,"lng":135.604884,"zip":"5830007"},{"town":"沢田三丁目","koaza":"","lat":34.572397,"lng":135.612657,"zip":"5830011"},{"town":"小山五丁目","koaza":"","lat":34.578709,"lng":135.598586,"zip":"5830033"},{"town":"林二丁目","koaza":"","lat":34.575579,"lng":135.607868,"zip":"5830007"},{"town":"道明寺六丁目","koaza":"","lat":34.567032,"lng":135.612617,"zip":"5830012"},{"town":"野中二丁目","koaza":"","lat":34.560122,"lng":135.603016,"zip":"5830014"},{"town":"梅が園町","koaza":"","lat":34.575093,"lng":135.62278,"zip":"5830004"},{"town":"津堂一丁目","koaza":"","lat":34.581141,"lng":135.591225,"zip":"5830037"},{"town":"春日丘三丁目","koaza":"","lat":34.570407,"lng":135.589606,"zip":"5830026"},{"town":"野中一丁目","koaza":"","lat":34.562381,"lng":135.603032,"zip":"5830014"},{"town":"西大井二丁目","koaza":"","lat":34.582788,"lng":135.604595,"zip":"5830009"},{"town":"古室三丁目","koaza":"","lat":34.568065,"lng":135.607078,"zip":"5830013"},{"town":"小山九丁目","koaza":"","lat":34.576157,"lng":135.601473,"zip":"5830033"},{"town":"恵美坂一丁目","koaza":"","lat":34.572983,"lng":135.589182,"zip":"5830036"},{"town":"藤井寺一丁目","koaza":"","lat":34.570299,"lng":135.596814,"zip":"5830024"},{"town":"道明寺四丁目","koaza":"","lat":34.564589,"lng":135.616893,"zip":"5830012"},{"town":"藤井寺三丁目","koaza":"","lat":34.565646,"lng":135.598636,"zip":"5830024"},{"town":"小山二丁目","koaza":"","lat":34.577976,"lng":135.588198,"zip":"5830033"},{"town":"道明寺三丁目","koaza":"","lat":34.566798,"lng":135.620803,"zip":"5830012"},{"town":"小山一丁目","koaza":"","lat":34.577442,"lng":135.594623,"zip":"5830033"},{"town":"藤ケ丘四丁目","koaza":"","lat":34.562074,"lng":135.597528,"zip":"5830017"},{"town":"大井四丁目","koaza":"","lat":34.578178,"lng":135.613131,"zip":"5830008"},{"town":"岡二丁目","koaza":"","lat":34.573047,"lng":135.593379,"zip":"5830027"},{"town":"沢田一丁目","koaza":"","lat":34.572184,"lng":135.604285,"zip":"5830011"},{"town":"小山三丁目","koaza":"","lat":34.580606,"lng":135.587205,"zip":"5830033"},{"town":"川北二丁目","koaza":"","lat":34.586268,"lng":135.612105,"zip":"5830001"},{"town":"沢田二丁目","koaza":"","lat":34.57203,"lng":135.607435,"zip":"5830011"},{"town":"道明寺一丁目","koaza":"","lat":34.569723,"lng":135.617055,"zip":"5830012"},{"town":"岡一丁目","koaza":"","lat":34.573003,"lng":135.597236,"zip":"5830027"},{"town":"川北一丁目","koaza":"","lat":34.586553,"lng":135.60808,"zip":"5830001"},{"town":"御舟町","koaza":"","lat":34.572703,"lng":135.600812,"zip":"5830021"},{"town":"小山六丁目","koaza":"","lat":34.583997,"lng":135.594063,"zip":"5830033"},{"town":"国府一丁目","koaza":"","lat":34.573186,"lng":135.617148,"zip":"5830006"},{"town":"大井三丁目","koaza":"","lat":34.581968,"lng":135.610821,"zip":"5830008"},{"town":"沢田四丁目","koaza":"","lat":34.569922,"lng":135.612495,"zip":"5830011"},{"town":"大井二丁目","koaza":"","lat":34.581958,"lng":135.608161,"zip":"5830008"},{"town":"津堂四丁目","koaza":"","lat":34.587047,"lng":135.585387,"zip":"5830037"},{"town":"津堂二丁目","koaza":"","lat":34.584519,"lng":135.589366,"zip":"5830037"},{"town":"西大井一丁目","koaza":"","lat":34.579145,"lng":135.604664,"zip":"5830009"},{"town":"船橋町","koaza":"","lat":34.577579,"lng":135.624654,"zip":"5830003"},{"town":"藤井寺四丁目","koaza":"","lat":34.566206,"lng":135.594494,"zip":"5830024"},{"town":"津堂三丁目","koaza":"","lat":34.58319,"lng":135.585164,"zip":"5830037"},{"town":"国府二丁目","koaza":"","lat":34.573031,"lng":135.622727,"zip":"5830006"},{"town":"北條町","koaza":"","lat":34.579993,"lng":135.619755,"zip":"5830002"},{"town":"大井五丁目","koaza":"","lat":34.581573,"lng":135.61491,"zip":"5830008"},{"town":"小山七丁目","koaza":"","lat":34.583779,"lng":135.598919,"zip":"5830033"}]