[{"town":"石橋麻田町","koaza":"","lat":34.81025,"lng":135.448031,"zip":"5600042"},{"town":"岡上の町三丁目","koaza":"","lat":34.78565,"lng":135.463978,"zip":"5600023"},{"town":"豊南町南二丁目","koaza":"","lat":34.744195,"lng":135.479814,"zip":"5610815"},{"town":"豊南町南三丁目","koaza":"","lat":34.745245,"lng":135.481514,"zip":"5610815"},{"town":"庄内西町一丁目","koaza":"","lat":34.752832,"lng":135.472545,"zip":"5610832"},{"town":"豊南町南四丁目","koaza":"","lat":34.74335,"lng":135.481174,"zip":"5610815"},{"town":"庄内東町二丁目","koaza":"","lat":34.747953,"lng":135.475602,"zip":"5610831"},{"town":"桜の町二丁目","koaza":"","lat":34.798746,"lng":135.464757,"zip":"5600054"},{"town":"桜の町一丁目","koaza":"","lat":34.796939,"lng":135.464852,"zip":"5600054"},{"town":"曽根東町四丁目","koaza":"","lat":34.770662,"lng":135.472249,"zip":"5610802"},{"town":"服部南町一丁目","koaza":"","lat":34.761776,"lng":135.475944,"zip":"5610853"},{"town":"玉井町四丁目","koaza":"","lat":34.78875,"lng":135.455636,"zip":"5600026"},{"town":"日出町一丁目","koaza":"","lat":34.744671,"lng":135.476854,"zip":"5610821"},{"town":"長興寺南一丁目","koaza":"","lat":34.773885,"lng":135.473634,"zip":"5610874"},{"town":"庄内東町五丁目","koaza":"","lat":34.747655,"lng":135.477319,"zip":"5610831"},{"town":"庄本町二丁目","koaza":"","lat":34.74075,"lng":135.463311,"zip":"5610835"},{"town":"服部元町一丁目","koaza":"","lat":34.764092,"lng":135.475813,"zip":"5610851"},{"town":"服部南町四丁目","koaza":"","lat":34.759295,"lng":135.477248,"zip":"5610853"},{"town":"岡上の町二丁目","koaza":"","lat":34.784492,"lng":135.464364,"zip":"5600023"},{"town":"螢池中町三丁目","koaza":"","lat":34.794287,"lng":135.448308,"zip":"5600000"},{"town":"岡上の町四丁目","koaza":"","lat":34.786121,"lng":135.465923,"zip":"5600023"},{"town":"城山町二丁目","koaza":"","lat":34.769172,"lng":135.4757,"zip":"5610803"},{"town":"螢池北町二丁目","koaza":"","lat":34.797922,"lng":135.444991,"zip":"5600000"},{"town":"庄内東町一丁目","koaza":"","lat":34.751046,"lng":135.475555,"zip":"5610831"},{"town":"岡町","koaza":"","lat":34.781062,"lng":135.465237,"zip":"5610885"},{"town":"立花町二丁目","koaza":"","lat":34.782745,"lng":135.458349,"zip":"5600025"},{"town":"服部南町五丁目","koaza":"","lat":34.759259,"lng":135.478484,"zip":"5610853"},{"town":"豊南町南一丁目","koaza":"","lat":34.745747,"lng":135.48003,"zip":"5610815"},{"town":"服部本町一丁目","koaza":"","lat":34.763636,"lng":135.478083,"zip":"5610852"},{"town":"北桜塚一丁目","koaza":"","lat":34.783456,"lng":135.467166,"zip":"5600022"},{"town":"三和町四丁目","koaza":"","lat":34.739382,"lng":135.475509,"zip":"5610828"},{"town":"螢池中町二丁目","koaza":"","lat":34.792901,"lng":135.448502,"zip":"5600000"},{"town":"末広町二丁目","koaza":"","lat":34.783713,"lng":135.462857,"zip":"5600024"},{"town":"長興寺南二丁目","koaza":"","lat":34.772745,"lng":135.474778,"zip":"5610874"},{"town":"庄内東町四丁目","koaza":"","lat":34.749286,"lng":135.477414,"zip":"5610831"},{"town":"服部本町二丁目","koaza":"","lat":34.76506,"lng":135.477902,"zip":"5610852"},{"town":"城山町三丁目","koaza":"","lat":34.770789,"lng":135.478261,"zip":"5610803"},{"town":"服部本町三丁目","koaza":"","lat":34.76643,"lng":135.478367,"zip":"5610852"},{"town":"夕日丘三丁目","koaza":"","lat":34.780186,"lng":135.479345,"zip":"5610864"},{"town":"服部元町二丁目","koaza":"","lat":34.766686,"lng":135.473917,"zip":"5610851"},{"town":"岡上の町一丁目","koaza":"","lat":34.783539,"lng":135.465385,"zip":"5600023"},{"town":"日出町二丁目","koaza":"","lat":34.74189,"lng":135.478798,"zip":"5610821"},{"town":"豊南町西五丁目","koaza":"","lat":34.747849,"lng":135.479572,"zip":"5610816"},{"town":"千成町三丁目","koaza":"","lat":34.737414,"lng":135.469132,"zip":"5610829"},{"town":"利倉東二丁目","koaza":"","lat":34.763151,"lng":135.463532,"zip":"5610846"},{"town":"長興寺北一丁目","koaza":"","lat":34.776878,"lng":135.476198,"zip":"5610875"},{"town":"玉井町一丁目","koaza":"","lat":34.787163,"lng":135.460548,"zip":"5600026"},{"town":"清風荘二丁目","koaza":"","lat":34.803809,"lng":135.448302,"zip":"5600041"},{"town":"三和町三丁目","koaza":"","lat":34.741143,"lng":135.474783,"zip":"5610828"},{"town":"小曽根五丁目","koaza":"","lat":34.755793,"lng":135.486473,"zip":"5610813"},{"town":"本町七丁目","koaza":"","lat":34.790409,"lng":135.465721,"zip":"5600021"},{"town":"螢池東町二丁目","koaza":"","lat":34.796366,"lng":135.449695,"zip":"5600000"},{"town":"三和町二丁目","koaza":"","lat":34.74168,"lng":135.4767,"zip":"5610828"},{"town":"螢池南町三丁目","koaza":"","lat":34.789095,"lng":135.449097,"zip":"5600000"},{"town":"緑丘五丁目","koaza":"","lat":34.815571,"lng":135.483103,"zip":"5600002"},{"town":"服部南町三丁目","koaza":"","lat":34.759295,"lng":135.475872,"zip":"5610853"},{"town":"柴原町一丁目","koaza":"","lat":34.797035,"lng":135.462712,"zip":"5600055"},{"town":"螢池中町四丁目","koaza":"","lat":34.795479,"lng":135.447132,"zip":"5600000"},{"town":"豊南町西三丁目","koaza":"","lat":34.751524,"lng":135.482562,"zip":"5610816"},{"town":"豊南町東四丁目","koaza":"","lat":34.747773,"lng":135.483967,"zip":"5610814"},{"town":"長興寺北二丁目","koaza":"","lat":34.776944,"lng":135.477789,"zip":"5610875"},{"town":"桜の町五丁目","koaza":"","lat":34.804549,"lng":135.465926,"zip":"5600054"},{"town":"豊南町東一丁目","koaza":"","lat":34.752634,"lng":135.48381,"zip":"5610814"},{"town":"服部本町四丁目","koaza":"","lat":34.76714,"lng":135.476063,"zip":"5610852"},{"town":"豊南町南六丁目","koaza":"","lat":34.745807,"lng":135.483488,"zip":"5610815"},{"town":"螢池南町二丁目","koaza":"","lat":34.789915,"lng":135.451442,"zip":"5600000"},{"town":"三和町一丁目","koaza":"","lat":34.743029,"lng":135.474948,"zip":"5610828"},{"town":"三国一丁目","koaza":"","lat":34.741669,"lng":135.480904,"zip":"5610822"},{"town":"大黒町二丁目","koaza":"","lat":34.740439,"lng":135.47232,"zip":"5610827"},{"town":"螢池南町一丁目","koaza":"","lat":34.789678,"lng":135.453932,"zip":"5600000"},{"town":"螢池北町一丁目","koaza":"","lat":34.798146,"lng":135.446457,"zip":"5600000"},{"town":"庄内西町四丁目","koaza":"","lat":34.746532,"lng":135.473898,"zip":"5610832"},{"town":"服部西町一丁目","koaza":"","lat":34.762277,"lng":135.474101,"zip":"5610858"},{"town":"服部南町二丁目","koaza":"","lat":34.762008,"lng":135.477991,"zip":"5610853"},{"town":"本町八丁目","koaza":"","lat":34.792379,"lng":135.46836,"zip":"5600021"},{"town":"岡町南一丁目","koaza":"","lat":34.777099,"lng":135.4645,"zip":"5610883"},{"town":"城山町四丁目","koaza":"","lat":34.771346,"lng":135.479755,"zip":"5610803"},{"town":"春日町一丁目","koaza":"","lat":34.80631,"lng":135.46614,"zip":"5600052"},{"town":"螢池東町一丁目","koaza":"","lat":34.793563,"lng":135.450494,"zip":"5600000"},{"town":"赤阪一丁目","koaza":"","lat":34.78716,"lng":135.476393,"zip":"5600015"},{"town":"夕日丘二丁目","koaza":"","lat":34.781966,"lng":135.477648,"zip":"5610864"},{"town":"桜の町四丁目","koaza":"","lat":34.802799,"lng":135.465292,"zip":"5600054"},{"town":"曽根東町五丁目","koaza":"","lat":34.769589,"lng":135.472196,"zip":"5610802"},{"town":"服部寿町四丁目","koaza":"","lat":34.75919,"lng":135.466733,"zip":"5610857"},{"town":"末広町一丁目","koaza":"","lat":34.785727,"lng":135.461785,"zip":"5600024"},{"town":"曽根西町一丁目","koaza":"","lat":34.770348,"lng":135.466978,"zip":"5610801"},{"town":"服部西町四丁目","koaza":"","lat":34.762279,"lng":135.466869,"zip":"5610858"},{"town":"岡町南二丁目","koaza":"","lat":34.776462,"lng":135.462468,"zip":"5610883"},{"town":"螢池北町三丁目","koaza":"","lat":34.797395,"lng":135.444086,"zip":"5600000"},{"town":"向丘一丁目","koaza":"","lat":34.807396,"lng":135.470741,"zip":"5600053"},{"town":"玉井町三丁目","koaza":"","lat":34.787111,"lng":135.454876,"zip":"5600026"},{"town":"服部寿町一丁目","koaza":"","lat":34.759289,"lng":135.474071,"zip":"5610857"},{"town":"庄内宝町一丁目","koaza":"","lat":34.746968,"lng":135.462846,"zip":"5610836"},{"town":"千成町一丁目","koaza":"","lat":34.738388,"lng":135.471405,"zip":"5610829"},{"town":"千里園二丁目","koaza":"","lat":34.793212,"lng":135.459731,"zip":"5600046"},{"town":"庄内西町三丁目","koaza":"","lat":34.748296,"lng":135.473402,"zip":"5610832"},{"town":"豊南町東二丁目","koaza":"","lat":34.752693,"lng":135.485596,"zip":"5610814"},{"town":"庄本町一丁目","koaza":"","lat":34.742778,"lng":135.460746,"zip":"5610835"},{"town":"庄内幸町五丁目","koaza":"","lat":34.744478,"lng":135.470969,"zip":"5610833"},{"town":"豊南町西四丁目","koaza":"","lat":34.747523,"lng":135.481781,"zip":"5610816"},{"town":"永楽荘四丁目","koaza":"","lat":34.818277,"lng":135.471666,"zip":"5600051"},{"town":"豊南町南五丁目","koaza":"","lat":34.74349,"lng":135.482877,"zip":"5610815"},{"town":"庄本町三丁目","koaza":"","lat":34.740075,"lng":135.460918,"zip":"5610835"},{"town":"庄内東町六丁目","koaza":"","lat":34.745068,"lng":135.47805,"zip":"5610831"},{"town":"末広町三丁目","koaza":"","lat":34.783484,"lng":135.460964,"zip":"5600024"},{"town":"豊南町西二丁目","koaza":"","lat":34.750236,"lng":135.480481,"zip":"5610816"},{"town":"立花町三丁目","koaza":"","lat":34.784093,"lng":135.45553,"zip":"5600025"},{"town":"稲津町一丁目","koaza":"","lat":34.755345,"lng":135.47575,"zip":"5610854"},{"town":"刀根山三丁目","koaza":"","lat":34.792676,"lng":135.454588,"zip":"5600045"},{"town":"曽根東町六丁目","koaza":"","lat":34.767848,"lng":135.472425,"zip":"5610802"},{"town":"夕日丘一丁目","koaza":"","lat":34.784481,"lng":135.476738,"zip":"5610864"},{"town":"二葉町三丁目","koaza":"","lat":34.734263,"lng":135.461557,"zip":"5610825"},{"town":"原田元町三丁目","koaza":"","lat":34.76957,"lng":135.461245,"zip":"5610808"},{"town":"北緑丘三丁目","koaza":"","lat":34.815906,"lng":135.485292,"zip":"5600001"},{"town":"螢池東町三丁目","koaza":"","lat":34.797919,"lng":135.449643,"zip":"5600000"},{"town":"曽根東町二丁目","koaza":"","lat":34.772531,"lng":135.471701,"zip":"5610802"},{"town":"曽根西町三丁目","koaza":"","lat":34.774032,"lng":135.465712,"zip":"5610801"},{"town":"服部豊町一丁目","koaza":"","lat":34.765298,"lng":135.473417,"zip":"5610859"},{"town":"庄内栄町一丁目","koaza":"","lat":34.752862,"lng":135.466594,"zip":"5610834"},{"town":"庄内幸町一丁目","koaza":"","lat":34.753023,"lng":135.469722,"zip":"5610833"},{"town":"岡町南三丁目","koaza":"","lat":34.776234,"lng":135.459637,"zip":"5610883"},{"town":"長興寺南三丁目","koaza":"","lat":34.773799,"lng":135.476321,"zip":"5610874"},{"town":"螢池東町四丁目","koaza":"","lat":34.799346,"lng":135.449364,"zip":"5600000"},{"town":"三国二丁目","koaza":"","lat":34.739847,"lng":135.480793,"zip":"5610822"},{"town":"柴原町二丁目","koaza":"","lat":34.798519,"lng":135.461367,"zip":"5600055"},{"town":"庄内西町五丁目","koaza":"","lat":34.745056,"lng":135.47434,"zip":"5610832"},{"town":"浜四丁目","koaza":"","lat":34.755079,"lng":135.48161,"zip":"5610817"},{"town":"岡町北一丁目","koaza":"","lat":34.778931,"lng":135.463307,"zip":"5610884"},{"town":"曽根南町三丁目","koaza":"","lat":34.767133,"lng":135.461379,"zip":"5610804"},{"town":"稲津町二丁目","koaza":"","lat":34.756454,"lng":135.4778,"zip":"5610854"},{"town":"豊南町西一丁目","koaza":"","lat":34.752512,"lng":135.480787,"zip":"5610816"},{"town":"勝部三丁目","koaza":"","lat":34.77781,"lng":135.455145,"zip":"5610894"},{"town":"刀根山一丁目","koaza":"","lat":34.794686,"lng":135.457454,"zip":"5600045"},{"town":"大黒町三丁目","koaza":"","lat":34.739347,"lng":135.469638,"zip":"5610827"},{"town":"曽根東町一丁目","koaza":"","lat":34.772797,"lng":135.468809,"zip":"5610802"},{"town":"曽根東町三丁目","koaza":"","lat":34.770273,"lng":135.469254,"zip":"5610802"},{"town":"岡町北三丁目","koaza":"","lat":34.781083,"lng":135.462083,"zip":"5610884"},{"town":"服部西町二丁目","koaza":"","lat":34.762252,"lng":135.472188,"zip":"5610858"},{"town":"城山町一丁目","koaza":"","lat":34.770943,"lng":135.475531,"zip":"5610803"},{"town":"大島町二丁目","koaza":"","lat":34.735726,"lng":135.468368,"zip":"5610824"},{"town":"稲津町三丁目","koaza":"","lat":34.754056,"lng":135.477858,"zip":"5610854"},{"town":"庄内栄町四丁目","koaza":"","lat":34.745904,"lng":135.466149,"zip":"5610834"},{"town":"穂積一丁目","koaza":"","lat":34.756652,"lng":135.472778,"zip":"5610856"},{"town":"桜の町七丁目","koaza":"","lat":34.805351,"lng":135.46949,"zip":"5600054"},{"town":"庄内東町三丁目","koaza":"","lat":34.751459,"lng":135.477612,"zip":"5610831"},{"town":"庄内宝町二丁目","koaza":"","lat":34.742991,"lng":135.463165,"zip":"5610836"},{"town":"春日町四丁目","koaza":"","lat":34.813061,"lng":135.469919,"zip":"5600052"},{"town":"螢池西町二丁目","koaza":"","lat":34.792318,"lng":135.44401,"zip":"5600000"},{"town":"向丘二丁目","koaza":"","lat":34.809571,"lng":135.471917,"zip":"5600053"},{"town":"南桜塚四丁目","koaza":"","lat":34.779218,"lng":135.476988,"zip":"5610882"},{"town":"上野西四丁目","koaza":"","lat":34.797878,"lng":135.466505,"zip":"5600011"},{"town":"熊野町二丁目","koaza":"","lat":34.789069,"lng":135.484161,"zip":"5600014"},{"town":"島江町二丁目","koaza":"","lat":34.739799,"lng":135.46666,"zip":"5610826"},{"town":"千成町二丁目","koaza":"","lat":34.736835,"lng":135.472124,"zip":"5610829"},{"town":"岡町北二丁目","koaza":"","lat":34.77892,"lng":135.460517,"zip":"5610884"},{"town":"服部本町五丁目","koaza":"","lat":34.768189,"lng":135.478784,"zip":"5610852"},{"town":"西緑丘一丁目","koaza":"","lat":34.809625,"lng":135.474225,"zip":"5600005"},{"town":"本町四丁目","koaza":"","lat":34.791565,"lng":135.464,"zip":"5600021"},{"town":"北桜塚二丁目","koaza":"","lat":34.785493,"lng":135.468005,"zip":"5600022"},{"town":"服部寿町二丁目","koaza":"","lat":34.759223,"lng":135.47186,"zip":"5610857"},{"town":"立花町一丁目","koaza":"","lat":34.784489,"lng":135.457808,"zip":"5600025"},{"town":"本町二丁目","koaza":"","lat":34.789844,"lng":135.457929,"zip":"5600021"},{"town":"勝部一丁目","koaza":"","lat":34.775076,"lng":135.456705,"zip":"5610894"},{"town":"小曽根三丁目","koaza":"","lat":34.758697,"lng":135.485791,"zip":"5610813"},{"town":"曽根西町四丁目","koaza":"","lat":34.773905,"lng":135.463348,"zip":"5610801"},{"town":"螢池中町一丁目","koaza":"","lat":34.791178,"lng":135.449342,"zip":"5600000"},{"town":"玉井町二丁目","koaza":"","lat":34.787529,"lng":135.457696,"zip":"5600026"},{"town":"東泉丘二丁目","koaza":"","lat":34.792329,"lng":135.488892,"zip":"5610861"},{"town":"桜の町三丁目","koaza":"","lat":34.800828,"lng":135.464846,"zip":"5600054"},{"town":"二葉町二丁目","koaza":"","lat":34.736721,"lng":135.462386,"zip":"5610825"},{"town":"北桜塚三丁目","koaza":"","lat":34.784285,"lng":135.470913,"zip":"5600022"},{"town":"大島町一丁目","koaza":"","lat":34.736485,"lng":135.465773,"zip":"5610824"},{"town":"名神口三丁目","koaza":"","lat":34.750079,"lng":135.46065,"zip":"5610841"},{"town":"刀根山四丁目","koaza":"","lat":34.795295,"lng":135.455387,"zip":"5600045"},{"town":"服部寿町三丁目","koaza":"","lat":34.759286,"lng":135.469151,"zip":"5610857"},{"town":"庄内栄町三丁目","koaza":"","lat":34.748097,"lng":135.465832,"zip":"5610834"},{"town":"北条町三丁目","koaza":"","lat":34.765466,"lng":135.484916,"zip":"5610812"},{"town":"本町一丁目","koaza":"","lat":34.787352,"lng":135.463133,"zip":"5600021"},{"town":"柴原町五丁目","koaza":"","lat":34.802792,"lng":135.460824,"zip":"5600055"},{"town":"上津島三丁目","koaza":"","lat":34.758966,"lng":135.459298,"zip":"5610843"},{"town":"春日町五丁目","koaza":"","lat":34.816325,"lng":135.472867,"zip":"5600052"},{"town":"庄内栄町五丁目","koaza":"","lat":34.744151,"lng":135.466391,"zip":"5610834"},{"town":"小曽根四丁目","koaza":"","lat":34.755779,"lng":135.48459,"zip":"5610813"},{"town":"庄内幸町四丁目","koaza":"","lat":34.745769,"lng":135.470295,"zip":"5610833"},{"town":"庄内宝町三丁目","koaza":"","lat":34.745512,"lng":135.460865,"zip":"5610836"},{"town":"南桜塚三丁目","koaza":"","lat":34.777175,"lng":135.474004,"zip":"5610882"},{"town":"千里園一丁目","koaza":"","lat":34.79149,"lng":135.455916,"zip":"5600046"},{"town":"豊南町東三丁目","koaza":"","lat":34.749972,"lng":135.485402,"zip":"5610814"},{"town":"春日町三丁目","koaza":"","lat":34.810207,"lng":135.469216,"zip":"5600052"},{"town":"庄内幸町三丁目","koaza":"","lat":34.748277,"lng":135.469994,"zip":"5610833"},{"town":"庄内栄町二丁目","koaza":"","lat":34.749594,"lng":135.465968,"zip":"5610834"},{"town":"北条町二丁目","koaza":"","lat":34.768044,"lng":135.484713,"zip":"5610812"},{"town":"宮山町一丁目","koaza":"","lat":34.806211,"lng":135.463329,"zip":"5600056"},{"town":"服部西町三丁目","koaza":"","lat":34.762135,"lng":135.469567,"zip":"5610858"},{"town":"庄本町四丁目","koaza":"","lat":34.737001,"lng":135.460113,"zip":"5610835"},{"town":"熊野町一丁目","koaza":"","lat":34.787928,"lng":135.479883,"zip":"5600014"},{"town":"走井一丁目","koaza":"","lat":34.780991,"lng":135.453098,"zip":"5610891"},{"town":"南桜塚二丁目","koaza":"","lat":34.776569,"lng":135.47189,"zip":"5610882"},{"town":"原田元町一丁目","koaza":"","lat":34.773863,"lng":135.460147,"zip":"5610808"},{"town":"永楽荘三丁目","koaza":"","lat":34.815793,"lng":135.469194,"zip":"5600051"},{"town":"上野坂二丁目","koaza":"","lat":34.802426,"lng":135.474569,"zip":"5600012"},{"town":"本町六丁目","koaza":"","lat":34.790356,"lng":135.46848,"zip":"5600021"},{"town":"服部豊町二丁目","koaza":"","lat":34.764753,"lng":135.469655,"zip":"5610859"},{"town":"向丘三丁目","koaza":"","lat":34.813237,"lng":135.472577,"zip":"5600053"},{"town":"庄内西町二丁目","koaza":"","lat":34.750723,"lng":135.473338,"zip":"5610832"},{"town":"庄内幸町二丁目","koaza":"","lat":34.750678,"lng":135.469879,"zip":"5610833"},{"town":"永楽荘一丁目","koaza":"","lat":34.81207,"lng":135.465231,"zip":"5600051"},{"town":"清風荘一丁目","koaza":"","lat":34.801541,"lng":135.449035,"zip":"5600041"},{"town":"中桜塚三丁目","koaza":"","lat":34.780725,"lng":135.470725,"zip":"5610881"},{"town":"島江町一丁目","koaza":"","lat":34.74211,"lng":135.466832,"zip":"5610826"},{"town":"二葉町一丁目","koaza":"","lat":34.738353,"lng":135.464928,"zip":"5610825"},{"town":"原田元町二丁目","koaza":"","lat":34.771459,"lng":135.461142,"zip":"5610808"},{"town":"上津島一丁目","koaza":"","lat":34.754593,"lng":135.461769,"zip":"5610843"},{"town":"上野坂一丁目","koaza":"","lat":34.800737,"lng":135.475058,"zip":"5600012"},{"town":"長興寺北三丁目","koaza":"","lat":34.777284,"lng":135.480095,"zip":"5610875"},{"town":"箕輪二丁目","koaza":"","lat":34.785881,"lng":135.451364,"zip":"5600035"},{"town":"上新田三丁目","koaza":"","lat":34.798695,"lng":135.497481,"zip":"5600085"},{"town":"原田中二丁目","koaza":"","lat":34.770941,"lng":135.454225,"zip":"5610807"},{"town":"利倉三丁目","koaza":"","lat":34.760384,"lng":135.458932,"zip":"5610845"},{"town":"本町五丁目","koaza":"","lat":34.788425,"lng":135.467241,"zip":"5600021"},{"town":"服部西町五丁目","koaza":"","lat":34.76151,"lng":135.46363,"zip":"5610858"},{"town":"浜三丁目","koaza":"","lat":34.757086,"lng":135.481509,"zip":"5610817"},{"town":"北桜塚四丁目","koaza":"","lat":34.786573,"lng":135.471294,"zip":"5600022"},{"town":"北条町四丁目","koaza":"","lat":34.766699,"lng":135.487506,"zip":"5610812"},{"town":"小曽根二丁目","koaza":"","lat":34.761905,"lng":135.487302,"zip":"5610813"},{"town":"千里園三丁目","koaza":"","lat":34.79398,"lng":135.46243,"zip":"5600046"},{"town":"柴原町三丁目","koaza":"","lat":34.802018,"lng":135.462632,"zip":"5600055"},{"town":"若竹町二丁目","koaza":"","lat":34.770844,"lng":135.488607,"zip":"5610811"},{"town":"東泉丘三丁目","koaza":"","lat":34.788192,"lng":135.490954,"zip":"5610861"},{"town":"宝山町","koaza":"","lat":34.779004,"lng":135.458014,"zip":"5610893"},{"town":"永楽荘二丁目","koaza":"","lat":34.813621,"lng":135.467743,"zip":"5600051"},{"town":"東泉丘一丁目","koaza":"","lat":34.787849,"lng":135.486907,"zip":"5610861"},{"town":"上野西一丁目","koaza":"","lat":34.791766,"lng":135.471266,"zip":"5600011"},{"town":"柴原町四丁目","koaza":"","lat":34.802017,"lng":135.458901,"zip":"5600055"},{"town":"栗ケ丘町","koaza":"","lat":34.786603,"lng":135.474012,"zip":"5600016"},{"town":"刀根山二丁目","koaza":"","lat":34.795976,"lng":135.459766,"zip":"5600045"},{"town":"大黒町一丁目","koaza":"","lat":34.742177,"lng":135.471265,"zip":"5610827"},{"town":"勝部二丁目","koaza":"","lat":34.775933,"lng":135.454091,"zip":"5610894"},{"town":"刀根山元町","koaza":"","lat":34.798791,"lng":135.457258,"zip":"5600044"},{"town":"春日町二丁目","koaza":"","lat":34.8083,"lng":135.467402,"zip":"5600052"},{"town":"西泉丘三丁目","koaza":"","lat":34.782113,"lng":135.490078,"zip":"5610862"},{"town":"刀根山五丁目","koaza":"","lat":34.794694,"lng":135.452559,"zip":"5600045"},{"town":"西泉丘二丁目","koaza":"","lat":34.783556,"lng":135.48708,"zip":"5610862"},{"town":"曽根西町二丁目","koaza":"","lat":34.770461,"lng":135.464671,"zip":"5610801"},{"town":"本町九丁目","koaza":"","lat":34.793797,"lng":135.466247,"zip":"5600021"},{"town":"長興寺南四丁目","koaza":"","lat":34.77416,"lng":135.479238,"zip":"5610874"},{"town":"山ノ上町","koaza":"","lat":34.780239,"lng":135.456177,"zip":"5610892"},{"town":"服部寿町五丁目","koaza":"","lat":34.759163,"lng":135.463818,"zip":"5610857"},{"town":"原田南二丁目","koaza":"","lat":34.767428,"lng":135.453593,"zip":"5610805"},{"town":"少路二丁目","koaza":"","lat":34.807032,"lng":135.475401,"zip":"5600004"},{"town":"中桜塚四丁目","koaza":"","lat":34.781559,"lng":135.472623,"zip":"5610881"},{"town":"宮山町三丁目","koaza":"","lat":34.808968,"lng":135.459386,"zip":"5600056"},{"town":"走井三丁目","koaza":"","lat":34.783603,"lng":135.449792,"zip":"5610891"},{"town":"西泉丘一丁目","koaza":"","lat":34.786081,"lng":135.484453,"zip":"5610862"},{"town":"箕輪一丁目","koaza":"","lat":34.785318,"lng":135.453247,"zip":"5600035"},{"town":"西緑丘二丁目","koaza":"","lat":34.809919,"lng":135.477811,"zip":"5600005"},{"town":"中桜塚五丁目","koaza":"","lat":34.782608,"lng":135.47496,"zip":"5610881"},{"town":"本町三丁目","koaza":"","lat":34.790154,"lng":135.461465,"zip":"5600021"},{"town":"利倉一丁目","koaza":"","lat":34.763706,"lng":135.459501,"zip":"5610845"},{"town":"曽根南町一丁目","koaza":"","lat":34.767141,"lng":135.469268,"zip":"5610804"},{"town":"南桜塚一丁目","koaza":"","lat":34.775701,"lng":135.46963,"zip":"5610882"},{"town":"熊野町三丁目","koaza":"","lat":34.791122,"lng":135.484956,"zip":"5600014"},{"town":"曽根南町二丁目","koaza":"","lat":34.767114,"lng":135.464692,"zip":"5610804"},{"town":"浜二丁目","koaza":"","lat":34.759401,"lng":135.481445,"zip":"5610817"},{"town":"若竹町一丁目","koaza":"","lat":34.770739,"lng":135.484566,"zip":"5610811"},{"town":"利倉東一丁目","koaza":"","lat":34.764667,"lng":135.464045,"zip":"5610846"},{"town":"穂積二丁目","koaza":"","lat":34.755884,"lng":135.468101,"zip":"5610856"},{"town":"小曽根一丁目","koaza":"","lat":34.761617,"lng":135.484989,"zip":"5610813"},{"town":"原田南一丁目","koaza":"","lat":34.766939,"lng":135.457843,"zip":"5610805"},{"town":"中桜塚二丁目","koaza":"","lat":34.780168,"lng":135.468089,"zip":"5610881"},{"town":"名神口二丁目","koaza":"","lat":34.751852,"lng":135.464157,"zip":"5610841"},{"town":"螢池西町一丁目","koaza":"","lat":34.792558,"lng":135.445855,"zip":"5600000"},{"town":"名神口一丁目","koaza":"","lat":34.755182,"lng":135.464195,"zip":"5610841"},{"town":"西緑丘三丁目","koaza":"","lat":34.81362,"lng":135.475982,"zip":"5600005"},{"town":"浜一丁目","koaza":"","lat":34.762536,"lng":135.481439,"zip":"5610817"},{"town":"新千里西町一丁目","koaza":"","lat":34.80933,"lng":135.491899,"zip":"5600083"},{"town":"利倉二丁目","koaza":"","lat":34.763681,"lng":135.456036,"zip":"5610845"},{"town":"利倉西二丁目","koaza":"","lat":34.75993,"lng":135.452355,"zip":"5610844"},{"town":"東豊中町四丁目","koaza":"","lat":34.799005,"lng":135.485675,"zip":"5600003"},{"town":"北緑丘一丁目","koaza":"","lat":34.81817,"lng":135.475464,"zip":"5600001"},{"town":"寺内一丁目","koaza":"","lat":34.77362,"lng":135.491865,"zip":"5610872"},{"town":"上津島二丁目","koaza":"","lat":34.756354,"lng":135.458397,"zip":"5610843"},{"town":"東泉丘四丁目","koaza":"","lat":34.785583,"lng":135.489972,"zip":"5610861"},{"town":"寺内二丁目","koaza":"","lat":34.774751,"lng":135.49412,"zip":"5610872"},{"town":"中桜塚一丁目","koaza":"","lat":34.776895,"lng":135.467274,"zip":"5610881"},{"town":"北条町一丁目","koaza":"","lat":34.766323,"lng":135.481479,"zip":"5610812"},{"town":"宮山町二丁目","koaza":"","lat":34.80653,"lng":135.45977,"zip":"5600056"},{"town":"宮山町四丁目","koaza":"","lat":34.810705,"lng":135.46243,"zip":"5600056"},{"town":"刀根山六丁目","koaza":"","lat":34.798383,"lng":135.453992,"zip":"5600045"},{"town":"桜の町六丁目","koaza":"","lat":34.802056,"lng":135.469027,"zip":"5600054"},{"town":"今在家町","koaza":"","lat":34.752945,"lng":135.458708,"zip":"5610842"},{"town":"東豊中町二丁目","koaza":"","lat":34.803515,"lng":135.48023,"zip":"5600003"},{"town":"野田町","koaza":"","lat":34.754576,"lng":135.471365,"zip":"5610855"},{"town":"緑丘一丁目","koaza":"","lat":34.808187,"lng":135.479145,"zip":"5600002"},{"town":"東寺内町","koaza":"","lat":34.774686,"lng":135.496729,"zip":"5610871"},{"town":"上野西二丁目","koaza":"","lat":34.794766,"lng":135.469159,"zip":"5600011"},{"town":"原田中一丁目","koaza":"","lat":34.770872,"lng":135.457257,"zip":"5610807"},{"town":"上野西三丁目","koaza":"","lat":34.798986,"lng":135.469995,"zip":"5600011"},{"town":"熊野町四丁目","koaza":"","lat":34.790741,"lng":135.47965,"zip":"5600014"},{"town":"緑丘二丁目","koaza":"","lat":34.807776,"lng":135.482251,"zip":"5600002"},{"town":"箕輪三丁目","koaza":"","lat":34.785668,"lng":135.447591,"zip":"5600035"},{"town":"利倉西一丁目","koaza":"","lat":34.763841,"lng":135.452036,"zip":"5610844"},{"town":"上野東一丁目","koaza":"","lat":34.79081,"lng":135.47466,"zip":"5600013"},{"town":"少路一丁目","koaza":"","lat":34.804245,"lng":135.473844,"zip":"5600004"},{"town":"北緑丘二丁目","koaza":"","lat":34.817679,"lng":135.479445,"zip":"5600001"},{"town":"緑丘三丁目","koaza":"","lat":34.81266,"lng":135.484645,"zip":"5600002"},{"town":"上野東三丁目","koaza":"","lat":34.797497,"lng":135.475115,"zip":"5600013"},{"town":"走井二丁目","koaza":"","lat":34.779673,"lng":135.449867,"zip":"5610891"},{"town":"新千里東町一丁目","koaza":"","lat":34.809496,"lng":135.49475,"zip":"5600082"},{"town":"広田町","koaza":"","lat":34.781672,"lng":135.4837,"zip":"5610863"},{"town":"新千里北町一丁目","koaza":"","lat":34.815308,"lng":135.494747,"zip":"5600081"},{"town":"上野東二丁目","koaza":"","lat":34.793785,"lng":135.47552,"zip":"5600013"},{"town":"東豊中町一丁目","koaza":"","lat":34.800532,"lng":135.478713,"zip":"5600003"},{"town":"新千里西町三丁目","koaza":"","lat":34.814313,"lng":135.490131,"zip":"5600083"},{"town":"神州町","koaza":"","lat":34.738288,"lng":135.475925,"zip":"5610823"},{"town":"緑丘四丁目","koaza":"","lat":34.813896,"lng":135.480869,"zip":"5600002"},{"town":"旭丘","koaza":"","lat":34.784223,"lng":135.480603,"zip":"5610865"},{"town":"東豊中町六丁目","koaza":"","lat":34.795189,"lng":135.481084,"zip":"5600003"},{"town":"上新田二丁目","koaza":"","lat":34.804217,"lng":135.49953,"zip":"5600085"},{"town":"東豊中町三丁目","koaza":"","lat":34.80164,"lng":135.483591,"zip":"5600003"},{"town":"新千里北町三丁目","koaza":"","lat":34.815676,"lng":135.499607,"zip":"5600081"},{"town":"大島町三丁目","koaza":"","lat":34.732895,"lng":135.466339,"zip":"5610824"},{"town":"上新田四丁目","koaza":"","lat":34.801079,"lng":135.501643,"zip":"5600085"},{"town":"新千里南町二丁目","koaza":"","lat":34.798578,"lng":135.491468,"zip":"5600084"},{"town":"螢池西町三丁目","koaza":"","lat":34.787849,"lng":135.444946,"zip":"5600000"},{"town":"原田西町","koaza":"","lat":34.770617,"lng":135.447357,"zip":"5610806"},{"town":"新千里南町一丁目","koaza":"","lat":34.803745,"lng":135.489564,"zip":"5600084"},{"town":"新千里南町三丁目","koaza":"","lat":34.793493,"lng":135.493558,"zip":"5600084"},{"town":"東豊中町五丁目","koaza":"","lat":34.795079,"lng":135.487663,"zip":"5600003"},{"town":"上新田一丁目","koaza":"","lat":34.802245,"lng":135.495803,"zip":"5600085"},{"town":"新千里西町二丁目","koaza":"","lat":34.810033,"lng":135.487881,"zip":"5600083"},{"town":"新千里東町三丁目","koaza":"","lat":34.812322,"lng":135.503956,"zip":"5600082"},{"town":"新千里東町二丁目","koaza":"","lat":34.810328,"lng":135.500349,"zip":"5600082"},{"town":"新千里北町二丁目","koaza":"","lat":34.820567,"lng":135.496698,"zip":"5600081"},{"town":"南空港町","koaza":"","lat":34.77641,"lng":135.449455,"zip":"5600000"},{"town":"待兼山町","koaza":"","lat":34.804569,"lng":135.453947,"zip":"5600043"},{"town":"服部緑地","koaza":"","lat":34.775344,"lng":135.486455,"zip":"5610873"}]