[{"town":"今西","koaza":"","lat":34.969662,"lng":135.389333,"zip":"5630361"},{"town":"垂水","koaza":"","lat":34.970151,"lng":135.380471,"zip":"5630366"},{"town":"森上","koaza":"","lat":34.965548,"lng":135.397407,"zip":"5630362"},{"town":"稲地","koaza":"","lat":34.963242,"lng":135.391945,"zip":"5630363"},{"town":"下田","koaza":"","lat":34.948721,"lng":135.405288,"zip":"5630123"},{"town":"片山","koaza":"","lat":34.95913,"lng":135.404986,"zip":"5630354"},{"town":"神山","koaza":"","lat":34.961722,"lng":135.382175,"zip":"5630367"},{"town":"野間西山","koaza":"","lat":34.954773,"lng":135.443314,"zip":"5630135"},{"town":"栗栖","koaza":"","lat":34.968555,"lng":135.402212,"zip":"5630351"},{"town":"柏原","koaza":"","lat":34.9632,"lng":135.41628,"zip":"5630353"},{"town":"平野","koaza":"","lat":34.95543,"lng":135.396327,"zip":"5630364"},{"town":"杉原","koaza":"","lat":34.972734,"lng":135.484442,"zip":"5630112"},{"town":"大里","koaza":"","lat":34.972353,"lng":135.409517,"zip":"5630352"},{"town":"平通","koaza":"","lat":34.950009,"lng":135.414254,"zip":"5630356"},{"town":"上杉","koaza":"","lat":34.949637,"lng":135.393213,"zip":"5630365"},{"town":"野間稲地","koaza":"","lat":34.941799,"lng":135.448932,"zip":"5630133"},{"town":"野間出野","koaza":"","lat":34.947335,"lng":135.438421,"zip":"5630134"},{"town":"吉野","koaza":"","lat":34.988242,"lng":135.480621,"zip":"5630111"},{"town":"山内","koaza":"","lat":34.979254,"lng":135.447842,"zip":"5630114"},{"town":"上田尻","koaza":"","lat":34.967186,"lng":135.444711,"zip":"5630122"},{"town":"野間大原","koaza":"","lat":34.94674,"lng":135.474124,"zip":"5630131"},{"town":"野間中","koaza":"","lat":34.936591,"lng":135.462014,"zip":"5630132"},{"town":"地黄","koaza":"","lat":34.957434,"lng":135.467615,"zip":"5630121"},{"town":"下田尻","koaza":"","lat":34.953087,"lng":135.427459,"zip":"5630123"},{"town":"長谷","koaza":"","lat":34.967024,"lng":135.361331,"zip":"5630368"},{"town":"山田","koaza":"","lat":34.987091,"lng":135.365867,"zip":"5630373"},{"town":"倉垣","koaza":"","lat":34.983719,"lng":135.46317,"zip":"5630113"},{"town":"天王","koaza":"","lat":35.035614,"lng":135.355352,"zip":"5630371"},{"town":"宿野","koaza":"","lat":34.990808,"lng":135.428414,"zip":"5630341"},{"town":"山辺","koaza":"","lat":34.998415,"lng":135.386144,"zip":"5630372"}]