[{"town":"ときわ台五丁目","koaza":"","lat":34.902589,"lng":135.441199,"zip":"5630102"},{"town":"ときわ台二丁目","koaza":"","lat":34.906165,"lng":135.442556,"zip":"5630102"},{"town":"東ときわ台一丁目","koaza":"","lat":34.901583,"lng":135.443685,"zip":"5630103"},{"town":"ときわ台三丁目","koaza":"","lat":34.905141,"lng":135.442389,"zip":"5630102"},{"town":"希望ケ丘四丁目","koaza":"","lat":34.911986,"lng":135.512507,"zip":"5630214"},{"town":"東ときわ台四丁目","koaza":"","lat":34.903021,"lng":135.448872,"zip":"5630103"},{"town":"希望ケ丘一丁目","koaza":"","lat":34.919462,"lng":135.504823,"zip":"5630214"},{"town":"東ときわ台七丁目","koaza":"","lat":34.90001,"lng":135.447394,"zip":"5630103"},{"town":"ときわ台四丁目","koaza":"","lat":34.904013,"lng":135.440913,"zip":"5630102"},{"town":"東ときわ台六丁目","koaza":"","lat":34.900308,"lng":135.449619,"zip":"5630103"},{"town":"ときわ台六丁目","koaza":"","lat":34.901885,"lng":135.439526,"zip":"5630102"},{"town":"光風台一丁目","koaza":"","lat":34.901142,"lng":135.437117,"zip":"5630104"},{"town":"東ときわ台三丁目","koaza":"","lat":34.90244,"lng":135.445948,"zip":"5630103"},{"town":"東ときわ台二丁目","koaza":"","lat":34.904261,"lng":135.446995,"zip":"5630103"},{"town":"東ときわ台八丁目","koaza":"","lat":34.897337,"lng":135.446926,"zip":"5630103"},{"town":"希望ケ丘五丁目","koaza":"","lat":34.912848,"lng":135.510182,"zip":"5630214"},{"town":"東ときわ台九丁目","koaza":"","lat":34.897161,"lng":135.449731,"zip":"5630103"},{"town":"希望ケ丘六丁目","koaza":"","lat":34.915926,"lng":135.508078,"zip":"5630214"},{"town":"希望ケ丘三丁目","koaza":"","lat":34.914826,"lng":135.513221,"zip":"5630214"},{"town":"新光風台五丁目","koaza":"","lat":34.906304,"lng":135.432308,"zip":"5630105"},{"town":"ときわ台一丁目","koaza":"","lat":34.905096,"lng":135.43784,"zip":"5630102"},{"town":"光風台二丁目","koaza":"","lat":34.900145,"lng":135.435763,"zip":"5630104"},{"town":"光風台三丁目","koaza":"","lat":34.898997,"lng":135.433327,"zip":"5630104"},{"town":"新光風台二丁目","koaza":"","lat":34.905645,"lng":135.429206,"zip":"5630105"},{"town":"光風台五丁目","koaza":"","lat":34.899839,"lng":135.443225,"zip":"5630104"},{"town":"希望ケ丘二丁目","koaza":"","lat":34.917763,"lng":135.509393,"zip":"5630214"},{"town":"東ときわ台五丁目","koaza":"","lat":34.90162,"lng":135.451516,"zip":"5630103"},{"town":"光風台四丁目","koaza":"","lat":34.895327,"lng":135.433176,"zip":"5630104"},{"town":"新光風台四丁目","koaza":"","lat":34.909137,"lng":135.432535,"zip":"5630105"},{"town":"新光風台三丁目","koaza":"","lat":34.909935,"lng":135.428313,"zip":"5630105"},{"town":"光風台六丁目","koaza":"","lat":34.895808,"lng":135.436139,"zip":"5630104"},{"town":"新光風台一丁目","koaza":"","lat":34.902079,"lng":135.431114,"zip":"5630105"},{"town":"寺田","koaza":"","lat":34.937415,"lng":135.508963,"zip":"5630212"},{"town":"野間口","koaza":"","lat":34.930672,"lng":135.482911,"zip":"5630218"},{"town":"余野","koaza":"","lat":34.924785,"lng":135.49079,"zip":"5630219"},{"town":"牧","koaza":"","lat":34.937235,"lng":135.491428,"zip":"5630211"},{"town":"切畑","koaza":"","lat":34.922579,"lng":135.513937,"zip":"5630213"},{"town":"高山","koaza":"","lat":34.886021,"lng":135.489198,"zip":"5630216"},{"town":"川尻","koaza":"","lat":34.913675,"lng":135.476798,"zip":"5630217"},{"town":"木代","koaza":"","lat":34.909325,"lng":135.502079,"zip":"5630215"},{"town":"吉川","koaza":"","lat":34.910409,"lng":135.449776,"zip":"5630101"},{"town":"牧","koaza":"西口","lat":34.937882,"lng":135.489645,"zip":"5630211"},{"town":"牧","koaza":"宮浦","lat":34.938277,"lng":135.489446,"zip":"5630211"},{"town":"牧","koaza":"西ノ谷","lat":34.939315,"lng":135.492488,"zip":"5630211"},{"town":"牧","koaza":"川西","lat":34.938172,"lng":135.493308,"zip":"5630211"},{"town":"牧","koaza":"向井","lat":34.937033,"lng":135.494246,"zip":"5630211"},{"town":"牧","koaza":"中野","lat":34.939676,"lng":135.496933,"zip":"5630211"},{"town":"牧","koaza":"川跨","lat":34.940237,"lng":135.499883,"zip":"5630211"},{"town":"牧","koaza":"後谷","lat":34.93724,"lng":135.500078,"zip":"5630211"},{"town":"牧","koaza":"水口","lat":34.940603,"lng":135.501116,"zip":"5630211"},{"town":"寺田","koaza":"二ノ谷","lat":34.933622,"lng":135.506862,"zip":"5630212"},{"town":"寺田","koaza":"宮ノ下","lat":34.936107,"lng":135.506912,"zip":"5630212"},{"town":"寺田","koaza":"宮ノ東","lat":34.937701,"lng":135.50905,"zip":"5630212"},{"town":"牧","koaza":"中田","lat":34.936827,"lng":135.488398,"zip":"5630211"},{"town":"寺田","koaza":"向山","lat":34.933846,"lng":135.502915,"zip":"5630212"},{"town":"牧","koaza":"境野","lat":34.933181,"lng":135.489525,"zip":"5630211"},{"town":"牧","koaza":"下林","lat":34.934756,"lng":135.486709,"zip":"5630211"},{"town":"寺田","koaza":"向垣内","lat":34.938734,"lng":135.513179,"zip":"5630212"},{"town":"寺田","koaza":"大堂ノ内","lat":34.936437,"lng":135.511934,"zip":"5630212"},{"town":"牧","koaza":"中筋","lat":34.938592,"lng":135.496881,"zip":"5630211"},{"town":"牧","koaza":"川南","lat":34.937118,"lng":135.498454,"zip":"5630211"},{"town":"牧","koaza":"宮ノ前","lat":34.936222,"lng":135.491665,"zip":"5630211"},{"town":"牧","koaza":"境山","lat":34.933103,"lng":135.492063,"zip":"5630211"},{"town":"寺田","koaza":"奥畑","lat":34.938282,"lng":135.510377,"zip":"5630212"},{"town":"寺田","koaza":"下東谷","lat":34.937789,"lng":135.509974,"zip":"5630212"},{"town":"寺田","koaza":"中東谷","lat":34.938423,"lng":135.509427,"zip":"5630212"},{"town":"寺田","koaza":"山谷ノ内","lat":34.936536,"lng":135.505203,"zip":"5630212"},{"town":"寺田","koaza":"上東谷","lat":34.938578,"lng":135.50848,"zip":"5630212"},{"town":"寺田","koaza":"西谷","lat":34.936629,"lng":135.507412,"zip":"5630212"},{"town":"寺田","koaza":"山王山","lat":34.935331,"lng":135.509232,"zip":"5630212"},{"town":"寺田","koaza":"西浦","lat":34.935445,"lng":135.503981,"zip":"5630212"},{"town":"寺田","koaza":"山谷","lat":34.935857,"lng":135.505331,"zip":"5630212"},{"town":"寺田","koaza":"久保ノ下","lat":34.934799,"lng":135.505636,"zip":"5630212"},{"town":"寺田","koaza":"上ノ垣内","lat":34.9385,"lng":135.506255,"zip":"5630212"},{"town":"牧","koaza":"西エゴ","lat":34.93369,"lng":135.48893,"zip":"5630211"},{"town":"牧","koaza":"乾堂","lat":34.938873,"lng":135.487296,"zip":"5630211"},{"town":"牧","koaza":"久保川","lat":34.937702,"lng":135.495108,"zip":"5630211"},{"town":"寺田","koaza":"鴻應山","lat":34.941866,"lng":135.512494,"zip":"5630212"}]