[{"town":"神前","koaza":"","lat":34.441285,"lng":135.35844,"zip":"5970075"},{"town":"畠中","koaza":"","lat":34.435001,"lng":135.351542,"zip":"5970106"},{"town":"堀","koaza":"","lat":34.445949,"lng":135.363941,"zip":"5970015"},{"town":"二色港町","koaza":"","lat":34.43406,"lng":135.330092,"zip":"5970063"},{"town":"津田","koaza":"","lat":34.453786,"lng":135.364854,"zip":"5970012"},{"town":"海塚三丁目","koaza":"","lat":34.445331,"lng":135.354188,"zip":"5970083"},{"town":"脇濱","koaza":"","lat":34.445354,"lng":135.348877,"zip":"5970000"},{"town":"東山六丁目","koaza":"","lat":34.410207,"lng":135.391143,"zip":"5970046"},{"town":"加治","koaza":"","lat":34.44099,"lng":135.360093,"zip":"5970074"},{"town":"西町","koaza":"","lat":34.44899,"lng":135.355167,"zip":"5970004"},{"town":"新町","koaza":"","lat":34.444206,"lng":135.353029,"zip":"5970002"},{"town":"永吉","koaza":"","lat":34.450254,"lng":135.372753,"zip":"5970032"},{"town":"中","koaza":"","lat":34.448051,"lng":135.358082,"zip":"5970003"},{"town":"近木町","koaza":"","lat":34.44638,"lng":135.356315,"zip":"5970001"},{"town":"浦田","koaza":"","lat":34.433103,"lng":135.344848,"zip":"5970061"},{"town":"東山五丁目","koaza":"","lat":34.411529,"lng":135.391021,"zip":"5970046"},{"town":"二色四丁目","koaza":"","lat":34.446839,"lng":135.340696,"zip":"5970091"},{"town":"東","koaza":"","lat":34.445226,"lng":135.362698,"zip":"5970085"},{"town":"南町","koaza":"","lat":34.447524,"lng":135.353378,"zip":"5970005"},{"town":"東山七丁目","koaza":"","lat":34.408661,"lng":135.38867,"zip":"5970046"},{"town":"堀二丁目","koaza":"","lat":34.450787,"lng":135.363847,"zip":"5970015"},{"town":"脇浜二丁目","koaza":"","lat":34.4425,"lng":135.348424,"zip":"5970073"},{"town":"東山三丁目","koaza":"","lat":34.414705,"lng":135.390877,"zip":"5970046"},{"town":"脇浜三丁目","koaza":"","lat":34.444477,"lng":135.349287,"zip":"5970073"},{"town":"脇浜一丁目","koaza":"","lat":34.441393,"lng":135.350649,"zip":"5970073"},{"town":"二色二丁目","koaza":"","lat":34.446763,"lng":135.344015,"zip":"5970091"},{"town":"堀三丁目","koaza":"","lat":34.451449,"lng":135.359866,"zip":"5970015"},{"town":"東山二丁目","koaza":"","lat":34.414869,"lng":135.393269,"zip":"5970046"},{"town":"北町","koaza":"","lat":34.450361,"lng":135.357173,"zip":"5970011"},{"town":"福田","koaza":"","lat":34.442007,"lng":135.364719,"zip":"5970023"},{"town":"津田南町","koaza":"","lat":34.453898,"lng":135.360242,"zip":"5970014"},{"town":"二色一丁目","koaza":"","lat":34.447272,"lng":135.346156,"zip":"5970091"},{"town":"津田北町","koaza":"","lat":34.455622,"lng":135.361544,"zip":"5970013"},{"town":"加神二丁目","koaza":"","lat":34.437941,"lng":135.350231,"zip":"5970071"},{"town":"二色三丁目","koaza":"","lat":34.444678,"lng":135.339786,"zip":"5970091"},{"town":"東山四丁目","koaza":"","lat":34.413077,"lng":135.387486,"zip":"5970046"},{"town":"東山一丁目","koaza":"","lat":34.416605,"lng":135.387659,"zip":"5970046"},{"town":"加神一丁目","koaza":"","lat":34.440983,"lng":135.35497,"zip":"5970071"},{"town":"小瀬","koaza":"","lat":34.450139,"lng":135.369074,"zip":"5970021"},{"town":"畠中一丁目","koaza":"","lat":34.438077,"lng":135.358214,"zip":"5970106"},{"town":"畠中二丁目","koaza":"","lat":34.435524,"lng":135.354282,"zip":"5970106"},{"town":"窪田","koaza":"","lat":34.432363,"lng":135.350867,"zip":"5970052"},{"town":"鳥羽","koaza":"","lat":34.4364,"lng":135.366157,"zip":"5970084"},{"town":"小瀬一丁目","koaza":"","lat":34.446706,"lng":135.368755,"zip":"5970021"},{"town":"堀一丁目","koaza":"","lat":34.4471,"lng":135.363645,"zip":"5970015"},{"town":"海塚","koaza":"","lat":34.443176,"lng":135.359924,"zip":"5970083"},{"town":"堤","koaza":"","lat":34.430059,"lng":135.357318,"zip":"5970054"},{"town":"地藏堂","koaza":"","lat":34.426417,"lng":135.355712,"zip":"5970000"},{"town":"脇浜四丁目","koaza":"","lat":34.440116,"lng":135.34491,"zip":"5970073"},{"town":"二色北町","koaza":"","lat":34.461609,"lng":135.3434,"zip":"5970092"},{"town":"森","koaza":"","lat":34.416024,"lng":135.380668,"zip":"5970044"},{"town":"石才","koaza":"","lat":34.434148,"lng":135.362333,"zip":"5970082"},{"town":"港","koaza":"","lat":34.453016,"lng":135.355612,"zip":"5970095"},{"town":"二色中町","koaza":"","lat":34.457403,"lng":135.340723,"zip":"5970093"},{"town":"水間","koaza":"","lat":34.400223,"lng":135.385675,"zip":"5970104"},{"town":"清児","koaza":"","lat":34.425901,"lng":135.376985,"zip":"5970041"},{"town":"麻生中","koaza":"","lat":34.431314,"lng":135.373414,"zip":"5970081"},{"town":"王子","koaza":"","lat":34.424805,"lng":135.350708,"zip":"5970051"},{"town":"二色南町","koaza":"","lat":34.452071,"lng":135.335745,"zip":"5970094"},{"town":"名越","koaza":"","lat":34.417855,"lng":135.373941,"zip":"5970042"},{"town":"橋本","koaza":"","lat":34.422944,"lng":135.36469,"zip":"5970043"},{"town":"澤","koaza":"","lat":34.435114,"lng":135.339542,"zip":"5970062"},{"town":"三ケ山","koaza":"","lat":34.408248,"lng":135.398824,"zip":"5970101"},{"town":"秬谷","koaza":"","lat":34.360425,"lng":135.391157,"zip":"5970113"},{"town":"三ツ松","koaza":"","lat":34.408025,"lng":135.380112,"zip":"5970045"},{"town":"大川","koaza":"","lat":34.361439,"lng":135.398972,"zip":"5970112"},{"town":"馬場","koaza":"","lat":34.385226,"lng":135.392414,"zip":"5970103"},{"town":"木積","koaza":"","lat":34.379552,"lng":135.408423,"zip":"5970102"},{"town":"蕎原","koaza":"","lat":34.359405,"lng":135.420073,"zip":"5970111"},{"town":"久保","koaza":"","lat":34.445842,"lng":135.376059,"zip":"5970031"},{"town":"半田","koaza":"","lat":34.437499,"lng":135.377155,"zip":"5970033"},{"town":"半田二丁目","koaza":"","lat":34.440623,"lng":135.376195,"zip":"5970033"},{"town":"新井","koaza":"","lat":34.439615,"lng":135.367223,"zip":"5970022"},{"town":"半田一丁目","koaza":"","lat":34.43889,"lng":135.373684,"zip":"5970033"},{"town":"半田三丁目","koaza":"","lat":34.439867,"lng":135.371564,"zip":"5970033"},{"town":"海塚一丁目","koaza":"","lat":34.444939,"lng":135.358201,"zip":"5970083"},{"town":"半田四丁目","koaza":"","lat":34.442424,"lng":135.37867,"zip":"5970033"},{"town":"久保一丁目","koaza":"","lat":null,"lng":null,"zip":null}]