[{"town":"大字三番","koaza":"","lat":34.72276,"lng":135.588031,"zip":"5710000"},{"town":"巣本町","koaza":"","lat":34.739962,"lng":135.620147,"zip":"5710001"},{"town":"大字打越","koaza":"","lat":34.728839,"lng":135.601817,"zip":"5710000"},{"town":"大字野口","koaza":"","lat":34.727204,"lng":135.604452,"zip":"5710000"},{"town":"大字横地","koaza":"","lat":34.728795,"lng":135.603859,"zip":"5710000"},{"town":"島頭二丁目","koaza":"","lat":34.732107,"lng":135.606437,"zip":"5710016"},{"town":"四宮一丁目","koaza":"","lat":34.737719,"lng":135.612074,"zip":"5710017"},{"town":"岸和田四丁目","koaza":"","lat":34.722938,"lng":135.622663,"zip":"5710002"},{"town":"垣内町","koaza":"","lat":34.741964,"lng":135.593067,"zip":"5710065"},{"town":"朝日町","koaza":"","lat":34.748385,"lng":135.60712,"zip":"5710061"},{"town":"大倉町","koaza":"","lat":34.744999,"lng":135.593456,"zip":"5710068"},{"town":"岸和田一丁目","koaza":"","lat":34.73276,"lng":135.619577,"zip":"5710002"},{"town":"城垣町","koaza":"","lat":34.742692,"lng":135.614011,"zip":"5710072"},{"town":"寿町","koaza":"","lat":34.735848,"lng":135.59525,"zip":"5710032"},{"town":"宮野町","koaza":"","lat":34.744973,"lng":135.604986,"zip":"5710062"},{"town":"泉町","koaza":"","lat":34.74293,"lng":135.583824,"zip":"5710053"},{"town":"栄町","koaza":"","lat":34.735858,"lng":135.580986,"zip":"5710047"},{"town":"島頭一丁目","koaza":"","lat":34.735681,"lng":135.609581,"zip":"5710016"},{"town":"宮前町","koaza":"","lat":34.740463,"lng":135.614613,"zip":"5710074"},{"town":"北岸和田三丁目","koaza":"","lat":34.735479,"lng":135.620916,"zip":"5710007"},{"town":"殿島町","koaza":"","lat":34.731058,"lng":135.580705,"zip":"5710045"},{"town":"北岸和田一丁目","koaza":"","lat":34.73867,"lng":135.620162,"zip":"5710007"},{"town":"四宮四丁目","koaza":"","lat":34.733032,"lng":135.612253,"zip":"5710017"},{"town":"四宮六丁目","koaza":"","lat":34.730166,"lng":135.614482,"zip":"5710017"},{"town":"常盤町","koaza":"","lat":34.740761,"lng":135.599675,"zip":"5710078"},{"town":"浜町","koaza":"","lat":34.744996,"lng":135.587367,"zip":"5710054"},{"town":"四宮三丁目","koaza":"","lat":34.736404,"lng":135.613577,"zip":"5710017"},{"town":"向島町","koaza":"","lat":34.746028,"lng":135.581547,"zip":"5710051"},{"town":"中町","koaza":"","lat":34.740186,"lng":135.587372,"zip":"5710055"},{"town":"四宮五丁目","koaza":"","lat":34.733418,"lng":135.615233,"zip":"5710017"},{"town":"小路町","koaza":"","lat":34.740313,"lng":135.57891,"zip":"5710058"},{"town":"北岸和田二丁目","koaza":"","lat":34.735046,"lng":135.618341,"zip":"5710007"},{"town":"堂山町","koaza":"","lat":34.743299,"lng":135.580055,"zip":"5710059"},{"town":"南野口町","koaza":"","lat":34.735232,"lng":135.60697,"zip":"5710005"},{"town":"幸福町","koaza":"","lat":34.741167,"lng":135.590351,"zip":"5710066"},{"town":"岸和田二丁目","koaza":"","lat":34.729957,"lng":135.619098,"zip":"5710002"},{"town":"速見町","koaza":"","lat":34.735484,"lng":135.591608,"zip":"5710039"},{"town":"東江端町","koaza":"","lat":34.721525,"lng":135.620393,"zip":"5710008"},{"town":"下島町","koaza":"","lat":34.739884,"lng":135.611009,"zip":"5710075"},{"town":"大字門真","koaza":"","lat":34.739052,"lng":135.573763,"zip":"5710000"},{"town":"月出町","koaza":"","lat":34.745579,"lng":135.584374,"zip":"5710052"},{"town":"元町","koaza":"","lat":34.738396,"lng":135.578686,"zip":"5710057"},{"town":"島頭三丁目","koaza":"","lat":34.732648,"lng":135.609451,"zip":"5710016"},{"town":"打越町","koaza":"","lat":34.732745,"lng":135.597584,"zip":"5710029"},{"town":"常称寺町","koaza":"","lat":34.743848,"lng":135.600351,"zip":"5710063"},{"town":"大字桑才","koaza":"","lat":34.722355,"lng":135.590223,"zip":"5710000"},{"town":"五月田町","koaza":"","lat":34.729288,"lng":135.59749,"zip":"5710027"},{"town":"三ツ島四丁目","koaza":"","lat":34.721328,"lng":135.602002,"zip":"5710015"},{"town":"下馬伏町","koaza":"","lat":34.728862,"lng":135.615293,"zip":"5710009"},{"town":"四宮二丁目","koaza":"","lat":34.737899,"lng":135.615886,"zip":"5710017"},{"town":"本町","koaza":"","lat":34.734623,"lng":135.578173,"zip":"5710046"},{"town":"御堂町","koaza":"","lat":34.743446,"lng":135.596179,"zip":"5710064"},{"town":"柳町","koaza":"","lat":34.736415,"lng":135.587583,"zip":"5710041"},{"town":"沖町","koaza":"","lat":34.730905,"lng":135.60271,"zip":"5710022"},{"town":"古川町","koaza":"","lat":34.739596,"lng":135.596359,"zip":"5710031"},{"town":"大池町","koaza":"","lat":34.736965,"lng":135.603086,"zip":"5710076"},{"town":"脇田町","koaza":"","lat":34.724687,"lng":135.614166,"zip":"5710011"},{"town":"北巣本町","koaza":"","lat":34.742418,"lng":135.617987,"zip":"5710073"},{"town":"大橋町","koaza":"","lat":34.736606,"lng":135.598577,"zip":"5710077"},{"town":"松葉町","koaza":"","lat":34.740104,"lng":135.583992,"zip":"5710056"},{"town":"北島町","koaza":"","lat":34.725183,"lng":135.59652,"zip":"5710026"},{"town":"野里町","koaza":"","lat":34.741358,"lng":135.603196,"zip":"5710079"},{"town":"上島町","koaza":"","lat":34.744622,"lng":135.60982,"zip":"5710071"},{"town":"岸和田三丁目","koaza":"","lat":34.726173,"lng":135.61965,"zip":"5710002"},{"town":"石原町","koaza":"","lat":34.745306,"lng":135.590285,"zip":"5710067"},{"town":"新橋町","koaza":"","lat":34.736205,"lng":135.584038,"zip":"5710048"},{"town":"島頭四丁目","koaza":"","lat":34.729068,"lng":135.609116,"zip":"5710016"},{"town":"末広町","koaza":"","lat":34.738829,"lng":135.59179,"zip":"5710030"},{"town":"深田町","koaza":"","lat":34.730562,"lng":135.587549,"zip":"5710042"},{"town":"千石西町","koaza":"","lat":34.724733,"lng":135.606319,"zip":"5710014"},{"town":"三ツ島六丁目","koaza":"","lat":34.720395,"lng":135.605843,"zip":"5710015"},{"town":"三ツ島三丁目","koaza":"","lat":34.715669,"lng":135.593644,"zip":"5710015"},{"town":"一番町","koaza":"","lat":34.730736,"lng":135.594407,"zip":"5710033"},{"town":"舟田町","koaza":"","lat":34.733841,"lng":135.602775,"zip":"5710021"},{"town":"江端町","koaza":"","lat":34.722455,"lng":135.616172,"zip":"5710012"},{"town":"三ツ島二丁目","koaza":"","lat":34.718295,"lng":135.592717,"zip":"5710015"},{"town":"三ツ島一丁目","koaza":"","lat":34.721611,"lng":135.595837,"zip":"5710015"},{"town":"千石東町","koaza":"","lat":34.724108,"lng":135.61035,"zip":"5710013"},{"town":"東田町","koaza":"","lat":34.725419,"lng":135.59142,"zip":"5710034"},{"town":"柳田町","koaza":"","lat":34.730566,"lng":135.590929,"zip":"5710038"},{"town":"松生町","koaza":"","lat":34.730413,"lng":135.584116,"zip":"5710044"},{"town":"桑才新町","koaza":"","lat":34.723872,"lng":135.585828,"zip":"5710043"},{"town":"大字北島","koaza":"","lat":34.725684,"lng":135.60127,"zip":"5710000"},{"town":"上野口町","koaza":"","lat":34.741231,"lng":135.607352,"zip":"5710070"},{"town":"大字稗島","koaza":"","lat":34.715946,"lng":135.588567,"zip":"5710000"},{"town":"三ツ島五丁目","koaza":"","lat":34.719035,"lng":135.602292,"zip":"5710015"},{"town":"北島東町","koaza":"","lat":34.724475,"lng":135.603128,"zip":"5710018"}]