[{"town":"淡輪","koaza":"","lat":34.33191,"lng":135.191324,"zip":"5990234"},{"town":"尾崎町六丁目","koaza":"","lat":34.367936,"lng":135.243746,"zip":"5990201"},{"town":"さつき台二丁目","koaza":"","lat":34.336914,"lng":135.24979,"zip":"5990215"},{"town":"舞五丁目","koaza":"","lat":34.339426,"lng":135.233641,"zip":"5990224"},{"town":"さつき台三丁目","koaza":"","lat":34.335173,"lng":135.248289,"zip":"5990215"},{"town":"舞二丁目","koaza":"","lat":34.345397,"lng":135.228384,"zip":"5990224"},{"town":"尾崎町七丁目","koaza":"","lat":34.370062,"lng":135.245779,"zip":"5990201"},{"town":"光陽台三丁目","koaza":"","lat":34.342194,"lng":135.237525,"zip":"5990223"},{"town":"尾崎町二丁目","koaza":"","lat":34.363388,"lng":135.239858,"zip":"5990201"},{"town":"緑ヶ丘三丁目","koaza":"","lat":34.334823,"lng":135.261228,"zip":"5990200"},{"town":"尾崎町四丁目","koaza":"","lat":34.365799,"lng":135.244454,"zip":"5990201"},{"town":"さつき台一丁目","koaza":"","lat":34.340482,"lng":135.251347,"zip":"5990215"},{"town":"尾崎町三丁目","koaza":"","lat":34.364821,"lng":135.241371,"zip":"5990201"},{"town":"桃の木台一丁目","koaza":"","lat":34.333405,"lng":135.221426,"zip":"5990236"},{"town":"光陽台四丁目","koaza":"","lat":34.339841,"lng":135.237099,"zip":"5990223"},{"town":"光陽台一丁目","koaza":"","lat":34.348022,"lng":135.23563,"zip":"5990223"},{"town":"緑ヶ丘二丁目","koaza":"","lat":34.336295,"lng":135.261967,"zip":"5990200"},{"town":"光陽台二丁目","koaza":"","lat":34.345032,"lng":135.23775,"zip":"5990223"},{"town":"舞一丁目","koaza":"","lat":34.346453,"lng":135.230425,"zip":"5990224"},{"town":"桃の木台三丁目","koaza":"","lat":34.329874,"lng":135.22461,"zip":"5990236"},{"town":"鳥取三井","koaza":"","lat":34.345648,"lng":135.235006,"zip":"5990225"},{"town":"尾崎町一丁目","koaza":"","lat":34.361083,"lng":135.237641,"zip":"5990201"},{"town":"尾崎町八丁目","koaza":"","lat":34.373003,"lng":135.24814,"zip":"5990201"},{"town":"舞三丁目","koaza":"","lat":34.342548,"lng":135.232613,"zip":"5990224"},{"town":"桃の木台四丁目","koaza":"","lat":34.329059,"lng":135.221365,"zip":"5990236"},{"town":"新町","koaza":"","lat":34.35761,"lng":135.234755,"zip":"5990205"},{"town":"桃の木台五丁目","koaza":"","lat":34.328556,"lng":135.217601,"zip":"5990236"},{"town":"尾崎町","koaza":"","lat":34.369506,"lng":135.249325,"zip":"5990201"},{"town":"緑ヶ丘一丁目","koaza":"","lat":34.338809,"lng":135.259506,"zip":"5990200"},{"town":"尾崎町五丁目","koaza":"","lat":34.36695,"lng":135.246829,"zip":"5990201"},{"town":"舞四丁目","koaza":"","lat":34.341004,"lng":135.229567,"zip":"5990224"},{"town":"桃の木台六丁目","koaza":"","lat":34.326086,"lng":135.218122,"zip":"5990236"},{"town":"南山中","koaza":"","lat":34.330799,"lng":135.195082,"zip":"5990233"},{"town":"桃の木台七丁目","koaza":"","lat":34.326914,"lng":135.225328,"zip":"5990236"},{"town":"桃の木台八丁目","koaza":"","lat":34.322118,"lng":135.220798,"zip":"5990236"},{"town":"和泉鳥取","koaza":"","lat":34.343532,"lng":135.263968,"zip":"5990213"},{"town":"桃の木台二丁目","koaza":"","lat":34.331433,"lng":135.216368,"zip":"5990236"},{"town":"箱の浦","koaza":"","lat":34.33408,"lng":135.1952,"zip":"5990235"},{"town":"下出","koaza":"","lat":34.359408,"lng":135.248629,"zip":"5990202"},{"town":"黒田","koaza":"","lat":34.354883,"lng":135.241026,"zip":"5990203"},{"town":"鳥取","koaza":"","lat":34.351506,"lng":135.233226,"zip":"5990204"},{"town":"鳥取中","koaza":"","lat":34.354808,"lng":135.25672,"zip":"5990211"},{"town":"石田","koaza":"","lat":34.341497,"lng":135.24692,"zip":"5990221"},{"town":"山中渓","koaza":"","lat":34.326009,"lng":135.27158,"zip":"5990214"},{"town":"貝掛","koaza":"","lat":34.334439,"lng":135.231186,"zip":"5990231"},{"town":"自然田","koaza":"","lat":34.336858,"lng":135.254707,"zip":"5990212"},{"town":"桑畑","koaza":"","lat":34.318405,"lng":135.254833,"zip":"5990222"},{"town":"箱作","koaza":"","lat":34.323377,"lng":135.205202,"zip":"5990232"}]