[{"town":"成合西の町","koaza":"","lat":34.87516,"lng":135.621668,"zip":"5691016"},{"town":"玉川新町","koaza":"","lat":34.815888,"lng":135.604785,"zip":"5690856"},{"town":"奥天神町三丁目","koaza":"","lat":34.863882,"lng":135.618823,"zip":"5691118"},{"town":"宮之川原一丁目","koaza":"","lat":34.869118,"lng":135.600762,"zip":"5691032"},{"town":"古曽部町五丁目","koaza":"","lat":34.864836,"lng":135.619262,"zip":"5691115"},{"town":"別所新町","koaza":"","lat":34.857615,"lng":135.626578,"zip":"5691114"},{"town":"安満磐手町","koaza":"","lat":34.863177,"lng":135.633435,"zip":"5691102"},{"town":"萩谷月見台","koaza":"","lat":34.880276,"lng":135.579714,"zip":"5691053"},{"town":"宮之川原二丁目","koaza":"","lat":34.870454,"lng":135.599955,"zip":"5691032"},{"town":"宮之川原三丁目","koaza":"","lat":34.870883,"lng":135.598767,"zip":"5691032"},{"town":"天川新町","koaza":"","lat":34.844042,"lng":135.636665,"zip":"5690027"},{"town":"西面南四丁目","koaza":"","lat":34.798511,"lng":135.60048,"zip":"5690847"},{"town":"上土室二丁目","koaza":"","lat":34.853199,"lng":135.583697,"zip":"5691044"},{"town":"東城山町","koaza":"","lat":34.874027,"lng":135.596528,"zip":"5691037"},{"town":"西冠二丁目","koaza":"","lat":34.834375,"lng":135.625525,"zip":"5690055"},{"town":"名神町","koaza":"","lat":34.860045,"lng":135.603257,"zip":"5691128"},{"town":"道鵜町五丁目","koaza":"","lat":34.85264,"lng":135.65067,"zip":"5690011"},{"town":"塚原五丁目","koaza":"","lat":34.850433,"lng":135.571225,"zip":"5691046"},{"town":"上土室四丁目","koaza":"","lat":34.853569,"lng":135.577981,"zip":"5691044"},{"town":"土橋町","koaza":"","lat":34.840821,"lng":135.621664,"zip":"5690057"},{"town":"宮之川原四丁目","koaza":"","lat":34.864802,"lng":135.600103,"zip":"5691032"},{"town":"浦堂三丁目","koaza":"","lat":34.868036,"lng":135.601224,"zip":"5691027"},{"town":"宮之川原五丁目","koaza":"","lat":34.86515,"lng":135.597912,"zip":"5691032"},{"town":"八丁西町","koaza":"","lat":34.854565,"lng":135.624841,"zip":"5690095"},{"town":"塚脇四丁目","koaza":"","lat":34.873695,"lng":135.590067,"zip":"5691036"},{"town":"道鵜町二丁目","koaza":"","lat":34.855415,"lng":135.65312,"zip":"5690011"},{"town":"美しが丘二丁目","koaza":"","lat":34.866544,"lng":135.617496,"zip":"5691111"},{"town":"唐崎西二丁目","koaza":"","lat":34.814572,"lng":135.607755,"zip":"5690836"},{"town":"京口町","koaza":"","lat":34.848689,"lng":135.625286,"zip":"5690072"},{"town":"大蔵司三丁目","koaza":"","lat":34.861266,"lng":135.599362,"zip":"5691034"},{"town":"玉川一丁目","koaza":"","lat":34.814352,"lng":135.604912,"zip":"5690857"},{"town":"萩之庄四丁目","koaza":"","lat":34.855495,"lng":135.642826,"zip":"5690093"},{"town":"北柳川町","koaza":"","lat":34.826297,"lng":135.591476,"zip":"5690852"},{"town":"安満中の町","koaza":"","lat":34.860246,"lng":135.632129,"zip":"5691105"},{"town":"大学町","koaza":"","lat":34.851884,"lng":135.625077,"zip":"5690801"},{"town":"大手町","koaza":"","lat":34.846273,"lng":135.622894,"zip":"5690078"},{"town":"阿武野二丁目","koaza":"","lat":34.858994,"lng":135.58024,"zip":"5691045"},{"town":"芥川町三丁目","koaza":"","lat":34.851621,"lng":135.612188,"zip":"5691123"},{"town":"大蔵司一丁目","koaza":"","lat":34.858263,"lng":135.598838,"zip":"5691034"},{"town":"井尻一丁目","koaza":"","lat":34.860549,"lng":135.653041,"zip":"5690015"},{"town":"城東町","koaza":"","lat":34.84359,"lng":135.628427,"zip":"5690052"},{"town":"栄町三丁目","koaza":"","lat":34.826103,"lng":135.600617,"zip":"5690825"},{"town":"緑が丘三丁目","koaza":"","lat":34.862132,"lng":135.603448,"zip":"5691026"},{"town":"川西町三丁目","koaza":"","lat":34.845464,"lng":135.608374,"zip":"5691133"},{"town":"塚脇二丁目","koaza":"","lat":34.869958,"lng":135.594469,"zip":"5691036"},{"town":"上牧北駅前町","koaza":"","lat":34.869975,"lng":135.658556,"zip":"5690005"},{"town":"城北町二丁目","koaza":"","lat":34.849424,"lng":135.623758,"zip":"5690071"},{"town":"緑が丘一丁目","koaza":"","lat":34.861899,"lng":135.606016,"zip":"5691026"},{"town":"大和二丁目","koaza":"","lat":34.860731,"lng":135.570961,"zip":"5691047"},{"town":"大冠町一丁目","koaza":"","lat":34.836428,"lng":135.637509,"zip":"5690031"},{"town":"西面南一丁目","koaza":"","lat":34.802191,"lng":135.602787,"zip":"5690847"},{"town":"昭和台町一丁目","koaza":"","lat":34.829733,"lng":135.589322,"zip":"5690815"},{"town":"城南町四丁目","koaza":"","lat":34.837028,"lng":135.625342,"zip":"5690056"},{"town":"安満東の町","koaza":"","lat":34.859641,"lng":135.633995,"zip":"5691104"},{"town":"野田東一丁目","koaza":"","lat":34.85367,"lng":135.643641,"zip":"5690014"},{"town":"西五百住町","koaza":"","lat":34.834107,"lng":135.596762,"zip":"5690813"},{"town":"浦堂一丁目","koaza":"","lat":34.861803,"lng":135.600967,"zip":"5691027"},{"town":"真上町三丁目","koaza":"","lat":34.859044,"lng":135.607665,"zip":"5691121"},{"town":"柳川町一丁目","koaza":"","lat":34.82471,"lng":135.592113,"zip":"5690853"},{"town":"寿町一丁目","koaza":"","lat":34.82983,"lng":135.598108,"zip":"5690826"},{"town":"紺屋町","koaza":"","lat":34.849995,"lng":135.618588,"zip":"5690804"},{"town":"東天川五丁目","koaza":"","lat":34.848474,"lng":135.645923,"zip":"5690012"},{"town":"野田一丁目","koaza":"","lat":34.854906,"lng":135.639992,"zip":"5690013"},{"town":"大冠町三丁目","koaza":"","lat":34.833265,"lng":135.634785,"zip":"5690031"},{"town":"芥川町一丁目","koaza":"","lat":34.852362,"lng":135.616705,"zip":"5691123"},{"town":"栄町四丁目","koaza":"","lat":34.827116,"lng":135.604841,"zip":"5690825"},{"town":"上牧町三丁目","koaza":"","lat":34.863222,"lng":135.659935,"zip":"5690003"},{"town":"南松原町","koaza":"","lat":34.849426,"lng":135.627982,"zip":"5690085"},{"town":"西面中一丁目","koaza":"","lat":34.804734,"lng":135.604761,"zip":"5690842"},{"town":"安満新町","koaza":"","lat":34.857212,"lng":135.628468,"zip":"5691106"},{"town":"紅茸町","koaza":"","lat":34.865397,"lng":135.628548,"zip":"5691109"},{"town":"古曽部町四丁目","koaza":"","lat":34.864201,"lng":135.622788,"zip":"5691115"},{"town":"柱本四丁目","koaza":"","lat":34.787618,"lng":135.602385,"zip":"5690844"},{"town":"唐崎中二丁目","koaza":"","lat":34.816476,"lng":135.615895,"zip":"5690832"},{"town":"松川町","koaza":"","lat":34.837342,"lng":135.63141,"zip":"5690023"},{"town":"道鵜町一丁目","koaza":"","lat":34.858042,"lng":135.65835,"zip":"5690011"},{"town":"唐崎西一丁目","koaza":"","lat":34.817113,"lng":135.608135,"zip":"5690836"},{"town":"西面北二丁目","koaza":"","lat":34.807955,"lng":135.601171,"zip":"5690841"},{"town":"梶原四丁目","koaza":"","lat":34.866046,"lng":135.656685,"zip":"5690091"},{"town":"城南町三丁目","koaza":"","lat":34.837163,"lng":135.622964,"zip":"5690056"},{"town":"上本町","koaza":"","lat":34.846341,"lng":135.62587,"zip":"5690073"},{"town":"別所中の町","koaza":"","lat":34.859148,"lng":135.626868,"zip":"5691113"},{"town":"氷室町五丁目","koaza":"","lat":34.856296,"lng":135.5858,"zip":"5691141"},{"town":"桃園町","koaza":"","lat":34.845564,"lng":135.616087,"zip":"5690067"},{"town":"神内一丁目","koaza":"","lat":34.872031,"lng":135.656557,"zip":"5690007"},{"town":"芥川町四丁目","koaza":"","lat":34.850838,"lng":135.609128,"zip":"5691123"},{"town":"本町","koaza":"","lat":34.844095,"lng":135.626085,"zip":"5690074"},{"town":"高見台","koaza":"","lat":34.881859,"lng":135.608458,"zip":"5691020"},{"town":"柱本五丁目","koaza":"","lat":34.794865,"lng":135.603423,"zip":"5690844"},{"town":"氷室町六丁目","koaza":"","lat":34.854335,"lng":135.585143,"zip":"5691141"},{"town":"東天川二丁目","koaza":"","lat":34.844344,"lng":135.640074,"zip":"5690012"},{"town":"梶原中村町","koaza":"","lat":34.864343,"lng":135.657286,"zip":"5690092"},{"town":"柳川町二丁目","koaza":"","lat":34.822568,"lng":135.591978,"zip":"5690853"},{"town":"上牧町一丁目","koaza":"","lat":34.866264,"lng":135.659637,"zip":"5690003"},{"town":"塚脇五丁目","koaza":"","lat":34.873696,"lng":135.588836,"zip":"5691036"},{"town":"富田町二丁目","koaza":"","lat":34.832179,"lng":135.590321,"zip":"5690814"},{"town":"城北町一丁目","koaza":"","lat":34.847484,"lng":135.620107,"zip":"5690071"},{"town":"五領町","koaza":"","lat":34.861791,"lng":135.652361,"zip":"5690016"},{"town":"永楽町","koaza":"","lat":34.84589,"lng":135.635593,"zip":"5690083"},{"town":"松原町","koaza":"","lat":34.851718,"lng":135.628757,"zip":"5690086"},{"town":"唐崎中一丁目","koaza":"","lat":34.816345,"lng":135.612582,"zip":"5690832"},{"town":"南平台二丁目","koaza":"","lat":34.858534,"lng":135.591015,"zip":"5691042"},{"town":"前島二丁目","koaza":"","lat":34.845827,"lng":135.644358,"zip":"5690021"},{"town":"三箇牧二丁目","koaza":"","lat":34.799669,"lng":135.602649,"zip":"5690843"},{"town":"出丸町","koaza":"","lat":34.842044,"lng":135.618976,"zip":"5690076"},{"town":"桜町","koaza":"","lat":34.845974,"lng":135.611074,"zip":"5690807"},{"town":"道鵜町六丁目","koaza":"","lat":34.853054,"lng":135.648341,"zip":"5690011"},{"town":"野田四丁目","koaza":"","lat":34.849865,"lng":135.642502,"zip":"5690013"},{"town":"日吉台四番町","koaza":"","lat":34.875877,"lng":135.613193,"zip":"5690000"},{"town":"城南町一丁目","koaza":"","lat":34.838324,"lng":135.620686,"zip":"5690056"},{"town":"紫町","koaza":"","lat":34.854073,"lng":135.610849,"zip":"5691125"},{"town":"上牧南駅前町","koaza":"","lat":34.869729,"lng":135.660441,"zip":"5690004"},{"town":"西真上二丁目","koaza":"","lat":34.858113,"lng":135.601345,"zip":"5691127"},{"town":"安満北の町","koaza":"","lat":34.86314,"lng":135.630596,"zip":"5691108"},{"town":"栄町一丁目","koaza":"","lat":34.82714,"lng":135.595833,"zip":"5690825"},{"town":"浦堂二丁目","koaza":"","lat":34.864352,"lng":135.602699,"zip":"5691027"},{"town":"道鵜町四丁目","koaza":"","lat":34.856283,"lng":135.651547,"zip":"5690011"},{"town":"千代田町","koaza":"","lat":34.850486,"lng":135.631225,"zip":"5690087"},{"town":"山手町二丁目","koaza":"","lat":34.862419,"lng":135.637284,"zip":"5691103"},{"town":"深沢町一丁目","koaza":"","lat":34.828895,"lng":135.632791,"zip":"5690035"},{"town":"柱本南町","koaza":"","lat":34.785636,"lng":135.600463,"zip":"5690845"},{"town":"高西町","koaza":"","lat":34.838463,"lng":135.618301,"zip":"5690061"},{"town":"八幡町","koaza":"","lat":34.842216,"lng":135.625854,"zip":"5690051"},{"town":"松が丘四丁目","koaza":"","lat":34.882417,"lng":135.598724,"zip":"5691031"},{"town":"霊仙寺町一丁目","koaza":"","lat":34.876561,"lng":135.580504,"zip":"5691052"},{"town":"野田三丁目","koaza":"","lat":34.848346,"lng":135.639625,"zip":"5690013"},{"town":"安満西の町","koaza":"","lat":34.859853,"lng":135.629828,"zip":"5691107"},{"town":"桜ケ丘北町","koaza":"","lat":34.838506,"lng":135.597176,"zip":"5690817"},{"town":"唐崎南二丁目","koaza":"","lat":34.810968,"lng":135.60953,"zip":"5690833"},{"town":"柱本七丁目","koaza":"","lat":34.788717,"lng":135.600374,"zip":"5690844"},{"town":"芥川町二丁目","koaza":"","lat":34.852525,"lng":135.61434,"zip":"5691123"},{"town":"富田町四丁目","koaza":"","lat":34.831053,"lng":135.593206,"zip":"5690814"},{"town":"三箇牧一丁目","koaza":"","lat":34.800464,"lng":135.60459,"zip":"5690843"},{"town":"萩之庄五丁目","koaza":"","lat":34.857529,"lng":135.646029,"zip":"5690093"},{"town":"高槻町","koaza":"","lat":34.851002,"lng":135.6204,"zip":"5690803"},{"town":"殿町","koaza":"","lat":34.853412,"lng":135.60793,"zip":"5691126"},{"town":"辻子二丁目","koaza":"","lat":34.832119,"lng":135.632256,"zip":"5690036"},{"town":"白梅町","koaza":"","lat":34.853632,"lng":135.619712,"zip":"5691116"},{"town":"安岡寺町三丁目","koaza":"","lat":34.875637,"lng":135.606271,"zip":"5691029"},{"town":"花林苑","koaza":"","lat":34.873995,"lng":135.619695,"zip":"5691018"},{"town":"上田辺町","koaza":"","lat":34.848929,"lng":135.616708,"zip":"5690805"},{"town":"東天川三丁目","koaza":"","lat":34.84265,"lng":135.638617,"zip":"5690012"},{"town":"梶原五丁目","koaza":"","lat":34.863207,"lng":135.64917,"zip":"5690091"},{"town":"上土室一丁目","koaza":"","lat":34.852942,"lng":135.581473,"zip":"5691044"},{"town":"清水台二丁目","koaza":"","lat":34.879454,"lng":135.595818,"zip":"5691039"},{"town":"上牧山手町","koaza":"","lat":34.871209,"lng":135.654657,"zip":"5690006"},{"town":"唐崎南一丁目","koaza":"","lat":34.811913,"lng":135.611646,"zip":"5690833"},{"town":"深沢町二丁目","koaza":"","lat":34.829674,"lng":135.635094,"zip":"5690035"},{"town":"西冠一丁目","koaza":"","lat":34.835002,"lng":135.622422,"zip":"5690055"},{"town":"登美の里町","koaza":"","lat":34.834576,"lng":135.600507,"zip":"5690812"},{"town":"成合東の町","koaza":"","lat":34.873633,"lng":135.626103,"zip":"5691014"},{"town":"北園町","koaza":"","lat":34.851414,"lng":135.622503,"zip":"5690802"},{"town":"塚原三丁目","koaza":"","lat":34.854446,"lng":135.569956,"zip":"5691046"},{"town":"天王町","koaza":"","lat":34.851078,"lng":135.633714,"zip":"5690088"},{"town":"柱本二丁目","koaza":"","lat":34.794235,"lng":135.606333,"zip":"5690844"},{"town":"西面南二丁目","koaza":"","lat":34.803777,"lng":135.599946,"zip":"5690847"},{"town":"北昭和台町","koaza":"","lat":34.831466,"lng":135.587342,"zip":"5690816"},{"town":"塚原一丁目","koaza":"","lat":34.85632,"lng":135.573844,"zip":"5691046"},{"town":"西面中二丁目","koaza":"","lat":34.805116,"lng":135.601791,"zip":"5690842"},{"town":"寿町三丁目","koaza":"","lat":34.830752,"lng":135.603647,"zip":"5690826"},{"town":"真上町二丁目","koaza":"","lat":34.856692,"lng":135.608978,"zip":"5691121"},{"town":"城南町二丁目","koaza":"","lat":34.839316,"lng":135.624144,"zip":"5690056"},{"town":"清水台一丁目","koaza":"","lat":34.880107,"lng":135.597924,"zip":"5691039"},{"town":"桜ケ丘南町","koaza":"","lat":34.83586,"lng":135.596691,"zip":"5690818"},{"town":"東五百住町二丁目","koaza":"","lat":34.838845,"lng":135.602715,"zip":"5690811"},{"town":"柱本一丁目","koaza":"","lat":34.795925,"lng":135.607008,"zip":"5690844"},{"town":"日向町","koaza":"","lat":34.8402,"lng":135.632339,"zip":"5690024"},{"town":"西面南三丁目","koaza":"","lat":34.799935,"lng":135.599691,"zip":"5690847"},{"town":"唐崎北一丁目","koaza":"","lat":34.820167,"lng":135.611508,"zip":"5690831"},{"town":"寿町二丁目","koaza":"","lat":34.831092,"lng":135.600542,"zip":"5690826"},{"town":"東上牧一丁目","koaza":"","lat":34.870718,"lng":135.663783,"zip":"5690002"},{"town":"川添二丁目","koaza":"","lat":34.823981,"lng":135.604268,"zip":"5690824"},{"town":"中川町","koaza":"","lat":34.842275,"lng":135.613066,"zip":"5690066"},{"town":"塚原六丁目","koaza":"","lat":34.850642,"lng":135.573794,"zip":"5691046"},{"town":"奥天神町二丁目","koaza":"","lat":34.863233,"lng":135.61487,"zip":"5691118"},{"town":"前島三丁目","koaza":"","lat":34.840536,"lng":135.644758,"zip":"5690021"},{"town":"南総持寺町","koaza":"","lat":34.824568,"lng":135.588415,"zip":"5690851"},{"town":"富田町三丁目","koaza":"","lat":34.833957,"lng":135.593222,"zip":"5690814"},{"town":"真上町四丁目","koaza":"","lat":34.860505,"lng":135.609253,"zip":"5691121"},{"town":"東天川四丁目","koaza":"","lat":34.850333,"lng":135.646462,"zip":"5690012"},{"town":"山手町一丁目","koaza":"","lat":34.860528,"lng":135.636811,"zip":"5691103"},{"town":"萩之庄一丁目","koaza":"","lat":34.862676,"lng":135.642533,"zip":"5690093"},{"town":"野見町","koaza":"","lat":34.845572,"lng":135.620117,"zip":"5690077"},{"town":"日吉台七番町","koaza":"","lat":34.873001,"lng":135.621693,"zip":"5690000"},{"town":"美しが丘一丁目","koaza":"","lat":34.866074,"lng":135.621445,"zip":"5691111"},{"town":"昭和台町二丁目","koaza":"","lat":34.827447,"lng":135.588049,"zip":"5690815"},{"town":"日吉台二番町","koaza":"","lat":34.872648,"lng":135.612989,"zip":"5690000"},{"town":"成合中の町","koaza":"","lat":34.873708,"lng":135.623909,"zip":"5691015"},{"town":"若松町","koaza":"","lat":34.835192,"lng":135.628726,"zip":"5690054"},{"town":"野田東二丁目","koaza":"","lat":34.853338,"lng":135.645781,"zip":"5690014"},{"town":"松が丘一丁目","koaza":"","lat":34.873115,"lng":135.599489,"zip":"5691031"},{"town":"道鵜町三丁目","koaza":"","lat":34.858233,"lng":135.654516,"zip":"5690011"},{"town":"明野町","koaza":"","lat":34.847583,"lng":135.635478,"zip":"5690082"},{"town":"塚原四丁目","koaza":"","lat":34.852497,"lng":135.572928,"zip":"5691046"},{"town":"塚脇三丁目","koaza":"","lat":34.870319,"lng":135.590758,"zip":"5691036"},{"town":"緑が丘二丁目","koaza":"","lat":34.864094,"lng":135.606519,"zip":"5691026"},{"town":"上土室五丁目","koaza":"","lat":34.851086,"lng":135.580028,"zip":"5691044"},{"town":"松が丘三丁目","koaza":"","lat":34.878573,"lng":135.599911,"zip":"5691031"},{"town":"東和町","koaza":"","lat":34.83079,"lng":135.638598,"zip":"5690032"},{"town":"深沢本町","koaza":"","lat":34.827751,"lng":135.63718,"zip":"5690033"},{"town":"成合南の町","koaza":"","lat":34.86893,"lng":135.628028,"zip":"5691013"},{"town":"宮田町三丁目","koaza":"","lat":34.845109,"lng":135.593307,"zip":"5691142"},{"town":"柱本六丁目","koaza":"","lat":34.790776,"lng":135.600683,"zip":"5690844"},{"town":"安岡寺町二丁目","koaza":"","lat":34.876405,"lng":135.603467,"zip":"5691029"},{"town":"前島五丁目","koaza":"","lat":34.841389,"lng":135.641325,"zip":"5690021"},{"town":"梶原三丁目","koaza":"","lat":34.867157,"lng":135.655631,"zip":"5690091"},{"town":"栄町二丁目","koaza":"","lat":34.827706,"lng":135.600633,"zip":"5690825"},{"town":"城内町","koaza":"","lat":34.843144,"lng":135.622137,"zip":"5690075"},{"town":"奈佐原三丁目","koaza":"","lat":34.864269,"lng":135.580577,"zip":"5691041"},{"town":"日吉台五番町","koaza":"","lat":34.872262,"lng":135.616261,"zip":"5690000"},{"town":"日吉台三番町","koaza":"","lat":34.875182,"lng":135.610866,"zip":"5690000"},{"town":"奈佐原一丁目","koaza":"","lat":34.858608,"lng":135.582661,"zip":"5691041"},{"town":"唐崎北二丁目","koaza":"","lat":34.818065,"lng":135.612458,"zip":"5690831"},{"town":"真上町一丁目","koaza":"","lat":34.855939,"lng":135.61282,"zip":"5691121"},{"town":"東五百住町三丁目","koaza":"","lat":34.836665,"lng":135.601644,"zip":"5690811"},{"town":"梶原一丁目","koaza":"","lat":34.865471,"lng":135.649217,"zip":"5690091"},{"town":"川西町二丁目","koaza":"","lat":34.846761,"lng":135.606908,"zip":"5691133"},{"town":"天神町一丁目","koaza":"","lat":34.85692,"lng":135.617573,"zip":"5691117"},{"town":"神内二丁目","koaza":"","lat":34.873184,"lng":135.660741,"zip":"5690007"},{"town":"東上牧二丁目","koaza":"","lat":34.866494,"lng":135.663844,"zip":"5690002"},{"town":"川添一丁目","koaza":"","lat":34.823999,"lng":135.600678,"zip":"5690824"},{"town":"野田二丁目","koaza":"","lat":34.852178,"lng":135.640692,"zip":"5690013"},{"town":"庄所町","koaza":"","lat":34.838986,"lng":135.614565,"zip":"5690064"},{"town":"氷室町四丁目","koaza":"","lat":34.852128,"lng":135.586771,"zip":"5691141"},{"town":"大和一丁目","koaza":"","lat":34.859981,"lng":135.573759,"zip":"5691047"},{"town":"玉川三丁目","koaza":"","lat":34.811228,"lng":135.604543,"zip":"5690857"},{"town":"東上牧三丁目","koaza":"","lat":34.865982,"lng":135.6666,"zip":"5690002"},{"town":"前島四丁目","koaza":"","lat":34.840588,"lng":135.64296,"zip":"5690021"},{"town":"富田町五丁目","koaza":"","lat":34.831604,"lng":135.597081,"zip":"5690814"},{"town":"上土室三丁目","koaza":"","lat":34.85569,"lng":135.58153,"zip":"5691044"},{"town":"上土室六丁目","koaza":"","lat":34.849481,"lng":135.57813,"zip":"5691044"},{"town":"三島江三丁目","koaza":"","lat":34.80047,"lng":135.608825,"zip":"5690835"},{"town":"古曽部町一丁目","koaza":"","lat":34.857407,"lng":135.619946,"zip":"5691115"},{"town":"北大樋町","koaza":"","lat":34.827378,"lng":135.625829,"zip":"5690041"},{"town":"上牧町四丁目","koaza":"","lat":34.861355,"lng":135.661072,"zip":"5690003"},{"town":"上牧町二丁目","koaza":"","lat":34.86626,"lng":135.661589,"zip":"5690003"},{"town":"梶原六丁目","koaza":"","lat":34.861948,"lng":135.649878,"zip":"5690091"},{"town":"東五百住町一丁目","koaza":"","lat":34.841115,"lng":135.601431,"zip":"5690811"},{"town":"萩之庄三丁目","koaza":"","lat":34.858621,"lng":135.644156,"zip":"5690093"},{"town":"南芥川町","koaza":"","lat":34.848812,"lng":135.610486,"zip":"5691124"},{"town":"唐崎中四丁目","koaza":"","lat":34.814207,"lng":135.611451,"zip":"5690832"},{"town":"奈佐原元町","koaza":"","lat":34.863413,"lng":135.583928,"zip":"5691043"},{"town":"前島一丁目","koaza":"","lat":34.846525,"lng":135.647119,"zip":"5690021"},{"town":"柱本三丁目","koaza":"","lat":34.79094,"lng":135.604974,"zip":"5690844"},{"town":"唐崎南三丁目","koaza":"","lat":34.809514,"lng":135.613051,"zip":"5690833"},{"town":"下田部町一丁目","koaza":"","lat":34.835095,"lng":135.618446,"zip":"5690062"},{"town":"辻子一丁目","koaza":"","lat":34.836352,"lng":135.63328,"zip":"5690036"},{"town":"天川町","koaza":"","lat":34.843033,"lng":135.634681,"zip":"5690026"},{"town":"明田町","koaza":"","lat":34.847465,"lng":135.613794,"zip":"5690806"},{"town":"大塚町五丁目","koaza":"","lat":34.823944,"lng":135.630908,"zip":"5690034"},{"town":"奥天神町一丁目","koaza":"","lat":34.86285,"lng":135.617242,"zip":"5691118"},{"town":"日吉台一番町","koaza":"","lat":34.869674,"lng":135.614115,"zip":"5690000"},{"town":"富田町六丁目","koaza":"","lat":34.828248,"lng":135.593289,"zip":"5690814"},{"town":"東天川一丁目","koaza":"","lat":34.847172,"lng":135.641855,"zip":"5690012"},{"town":"宮之川原元町","koaza":"","lat":34.86789,"lng":135.598074,"zip":"5691033"},{"town":"富田丘町","koaza":"","lat":34.836446,"lng":135.588486,"zip":"5691145"},{"town":"奈佐原四丁目","koaza":"","lat":34.864309,"lng":135.575823,"zip":"5691041"},{"town":"大蔵司二丁目","koaza":"","lat":34.861394,"lng":135.59687,"zip":"5691034"},{"town":"三島江四丁目","koaza":"","lat":34.798097,"lng":135.607849,"zip":"5690835"},{"town":"唐崎中三丁目","koaza":"","lat":34.812776,"lng":135.615606,"zip":"5690832"},{"town":"安岡寺町六丁目","koaza":"","lat":34.882717,"lng":135.604926,"zip":"5691029"},{"town":"三島江二丁目","koaza":"","lat":34.802472,"lng":135.609438,"zip":"5690835"},{"town":"藤の里町","koaza":"","lat":34.843532,"lng":135.631309,"zip":"5690025"},{"town":"西冠三丁目","koaza":"","lat":34.832021,"lng":135.623749,"zip":"5690055"},{"town":"松が丘二丁目","koaza":"","lat":34.875361,"lng":135.598972,"zip":"5691031"},{"town":"南平台一丁目","koaza":"","lat":34.859289,"lng":135.593988,"zip":"5691042"},{"town":"宮田町二丁目","koaza":"","lat":34.843744,"lng":135.587659,"zip":"5691142"},{"town":"月見町","koaza":"","lat":34.859316,"lng":135.612356,"zip":"5691122"},{"town":"大塚町三丁目","koaza":"","lat":34.819864,"lng":135.634657,"zip":"5690034"},{"town":"井尻二丁目","koaza":"","lat":34.857677,"lng":135.64934,"zip":"5690015"},{"town":"西大樋町","koaza":"","lat":34.821528,"lng":135.617897,"zip":"5690045"},{"town":"氷室町三丁目","koaza":"","lat":34.847281,"lng":135.586544,"zip":"5691141"},{"town":"西真上一丁目","koaza":"","lat":34.857079,"lng":135.604843,"zip":"5691127"},{"town":"西之川原一丁目","koaza":"","lat":34.866607,"lng":135.592552,"zip":"5691035"},{"town":"番田二丁目","koaza":"","lat":34.819908,"lng":135.62077,"zip":"5690044"},{"town":"西面北一丁目","koaza":"","lat":34.807614,"lng":135.604831,"zip":"5690841"},{"town":"城西町","koaza":"","lat":34.842545,"lng":135.616106,"zip":"5690065"},{"town":"玉川二丁目","koaza":"","lat":34.813257,"lng":135.602044,"zip":"5690857"},{"town":"堤町","koaza":"","lat":34.826058,"lng":135.617963,"zip":"5690047"},{"town":"萩之庄二丁目","koaza":"","lat":34.860957,"lng":135.643378,"zip":"5690093"},{"town":"氷室町一丁目","koaza":"","lat":34.848016,"lng":135.593889,"zip":"5691141"},{"town":"大冠町二丁目","koaza":"","lat":34.833851,"lng":135.638119,"zip":"5690031"},{"town":"上牧町五丁目","koaza":"","lat":34.860985,"lng":135.65691,"zip":"5690003"},{"town":"玉川四丁目","koaza":"","lat":34.809729,"lng":135.600062,"zip":"5690857"},{"town":"津之江北町","koaza":"","lat":34.842479,"lng":135.605642,"zip":"5690821"},{"town":"沢良木町","koaza":"","lat":34.847126,"lng":135.629901,"zip":"5690084"},{"town":"塚脇一丁目","koaza":"","lat":34.873077,"lng":135.592399,"zip":"5691036"},{"town":"富田町一丁目","koaza":"","lat":34.835338,"lng":135.59141,"zip":"5690814"},{"town":"芝生町三丁目","koaza":"","lat":34.82692,"lng":135.608666,"zip":"5690823"},{"town":"大塚町二丁目","koaza":"","lat":34.824222,"lng":135.636665,"zip":"5690034"},{"town":"安岡寺町四丁目","koaza":"","lat":34.878662,"lng":135.605869,"zip":"5691029"},{"town":"西之川原二丁目","koaza":"","lat":34.865158,"lng":135.595206,"zip":"5691035"},{"town":"黄金の里一丁目","koaza":"","lat":34.875352,"lng":135.59369,"zip":"5691038"},{"town":"清福寺町","koaza":"","lat":34.853741,"lng":135.604487,"zip":"5691132"},{"town":"南平台四丁目","koaza":"","lat":34.86317,"lng":135.586367,"zip":"5691042"},{"town":"真上町五丁目","koaza":"","lat":34.863771,"lng":135.611267,"zip":"5691121"},{"town":"唐崎北三丁目","koaza":"","lat":34.819762,"lng":135.615131,"zip":"5690831"},{"town":"如是町","koaza":"","lat":34.835321,"lng":135.604572,"zip":"5690827"},{"town":"天神町二丁目","koaza":"","lat":34.858873,"lng":135.615709,"zip":"5691117"},{"town":"三島江一丁目","koaza":"","lat":34.804742,"lng":135.610136,"zip":"5690835"},{"town":"淀の原町","koaza":"","lat":34.869782,"lng":135.666906,"zip":"5690001"},{"town":"古曽部町三丁目","koaza":"","lat":34.861815,"lng":135.622484,"zip":"5691115"},{"town":"浦堂本町","koaza":"","lat":34.868016,"lng":135.603749,"zip":"5691028"},{"town":"大塚町一丁目","koaza":"","lat":34.824054,"lng":135.63333,"zip":"5690034"},{"town":"宮が谷町","koaza":"","lat":34.868026,"lng":135.6193,"zip":"5691023"},{"town":"大畑町","koaza":"","lat":34.838818,"lng":135.591361,"zip":"5691144"},{"town":"氷室町二丁目","koaza":"","lat":34.847874,"lng":135.589682,"zip":"5691141"},{"town":"高垣町","koaza":"","lat":34.858424,"lng":135.637845,"zip":"5690097"},{"town":"大塚町四丁目","koaza":"","lat":34.818904,"lng":135.629528,"zip":"5690034"},{"town":"日吉台六番町","koaza":"","lat":34.870085,"lng":135.622128,"zip":"5690000"},{"town":"赤大路町","koaza":"","lat":34.835886,"lng":135.58472,"zip":"5691146"},{"town":"今城町","koaza":"","lat":34.845132,"lng":135.598262,"zip":"5691135"},{"town":"南大樋町","koaza":"","lat":34.823152,"lng":135.624059,"zip":"5690042"},{"town":"春日町","koaza":"","lat":34.838511,"lng":135.628394,"zip":"5690053"},{"town":"番田一丁目","koaza":"","lat":34.818838,"lng":135.623657,"zip":"5690044"},{"town":"梶原二丁目","koaza":"","lat":34.868404,"lng":135.65301,"zip":"5690091"},{"town":"宮野町","koaza":"","lat":34.851615,"lng":135.63663,"zip":"5690081"},{"town":"安岡寺町五丁目","koaza":"","lat":34.883467,"lng":135.601069,"zip":"5691029"},{"town":"緑町","koaza":"","lat":34.855202,"lng":135.636547,"zip":"5690094"},{"town":"津之江町二丁目","koaza":"","lat":34.83558,"lng":135.611741,"zip":"5690822"},{"town":"柱本新町","koaza":"","lat":34.794539,"lng":135.600619,"zip":"5690846"},{"town":"竹の内町","koaza":"","lat":34.823754,"lng":135.628523,"zip":"5690043"},{"town":"塚原二丁目","koaza":"","lat":34.857385,"lng":135.56958,"zip":"5691046"},{"town":"芝生町四丁目","koaza":"","lat":34.821535,"lng":135.609222,"zip":"5690823"},{"town":"奈佐原二丁目","koaza":"","lat":34.861189,"lng":135.579573,"zip":"5691041"},{"town":"古曽部町二丁目","koaza":"","lat":34.857176,"lng":135.623275,"zip":"5691115"},{"town":"津之江町三丁目","koaza":"","lat":34.835104,"lng":135.608433,"zip":"5690822"},{"town":"南庄所町","koaza":"","lat":34.834206,"lng":135.614659,"zip":"5690063"},{"town":"真上町六丁目","koaza":"","lat":34.866154,"lng":135.610931,"zip":"5691121"},{"town":"川西町一丁目","koaza":"","lat":34.84896,"lng":135.605194,"zip":"5691133"},{"town":"宮田町一丁目","koaza":"","lat":34.840693,"lng":135.588202,"zip":"5691142"},{"town":"芝谷町","koaza":"","lat":34.869234,"lng":135.608455,"zip":"5691025"},{"town":"弥生が丘町","koaza":"","lat":34.876569,"lng":135.617778,"zip":"5691021"},{"town":"幸町","koaza":"","lat":34.840931,"lng":135.595341,"zip":"5691143"},{"town":"南平台三丁目","koaza":"","lat":34.856994,"lng":135.588976,"zip":"5691042"},{"town":"岡本町","koaza":"","lat":34.854023,"lng":135.591382,"zip":"5691137"},{"town":"下田部町二丁目","koaza":"","lat":34.831048,"lng":135.618049,"zip":"5690062"},{"town":"安岡寺町一丁目","koaza":"","lat":34.872255,"lng":135.604563,"zip":"5691029"},{"town":"須賀町","koaza":"","lat":34.83923,"lng":135.636841,"zip":"5690022"},{"town":"寺谷町","koaza":"","lat":34.874381,"lng":135.60925,"zip":"5691024"},{"town":"西町","koaza":"","lat":34.823126,"lng":135.59632,"zip":"5690854"},{"town":"朝日町","koaza":"","lat":34.84393,"lng":135.601188,"zip":"5691134"},{"town":"別所本町","koaza":"","lat":34.863917,"lng":135.627251,"zip":"5691112"},{"town":"安満御所の町","koaza":"","lat":34.866491,"lng":135.633123,"zip":"5691101"},{"town":"辻子三丁目","koaza":"","lat":34.829834,"lng":135.629176,"zip":"5690036"},{"town":"阿武野一丁目","koaza":"","lat":34.85687,"lng":135.577537,"zip":"5691045"},{"town":"津之江町一丁目","koaza":"","lat":34.840942,"lng":135.608323,"zip":"5690822"},{"town":"土室町","koaza":"","lat":34.848023,"lng":135.582109,"zip":"5691147"},{"town":"大字下","koaza":"","lat":34.868696,"lng":135.638496,"zip":"5690000"},{"town":"郡家本町","koaza":"","lat":34.855409,"lng":135.598067,"zip":"5691131"},{"town":"成合北の町","koaza":"","lat":34.880266,"lng":135.620274,"zip":"5691017"},{"town":"芝生町二丁目","koaza":"","lat":34.830562,"lng":135.609577,"zip":"5690823"},{"town":"八丁畷町","koaza":"","lat":34.855061,"lng":135.63007,"zip":"5690096"},{"town":"登町","koaza":"","lat":34.827511,"lng":135.622155,"zip":"5690046"},{"town":"大字前島","koaza":"","lat":34.842532,"lng":135.646893,"zip":"5690000"},{"town":"大字萩之庄","koaza":"","lat":34.86733,"lng":135.641864,"zip":"5690000"},{"town":"牧田町","koaza":"","lat":34.819902,"lng":135.603133,"zip":"5690855"},{"town":"芝生町一丁目","koaza":"","lat":34.825038,"lng":135.613536,"zip":"5690823"},{"town":"霊仙寺町二丁目","koaza":"","lat":34.875719,"lng":135.576883,"zip":"5691052"},{"town":"郡家新町","koaza":"","lat":34.850522,"lng":135.597628,"zip":"5691136"},{"town":"大字鵜殿","koaza":"","lat":34.85393,"lng":135.656466,"zip":"5690000"},{"town":"南平台五丁目","koaza":"","lat":34.865071,"lng":135.589324,"zip":"5691042"},{"town":"大字三島江","koaza":"","lat":34.80201,"lng":135.61406,"zip":"5690000"},{"town":"大字神内","koaza":"","lat":34.875657,"lng":135.650074,"zip":"5690000"},{"town":"大字梶原","koaza":"","lat":34.8708,"lng":135.645924,"zip":"5690000"},{"town":"大字上牧","koaza":"","lat":34.861976,"lng":135.666278,"zip":"5690000"},{"town":"大字柱本","koaza":"","lat":34.789772,"lng":135.607704,"zip":"5690000"},{"town":"大字唐崎","koaza":"","lat":34.812362,"lng":135.620542,"zip":"5690000"},{"town":"大字大塚","koaza":"","lat":34.82431,"lng":135.640405,"zip":"5690000"},{"town":"大字杉生","koaza":"","lat":34.968999,"lng":135.579763,"zip":"5690000"},{"town":"大字出灰","koaza":"","lat":34.941355,"lng":135.605592,"zip":"5690000"},{"town":"大字奈佐原","koaza":"","lat":34.871033,"lng":135.575891,"zip":"5690000"},{"town":"大字成合","koaza":"","lat":34.879878,"lng":135.634795,"zip":"5690000"},{"town":"大字中畑","koaza":"","lat":34.96027,"lng":135.609875,"zip":"5690000"},{"town":"大字二料","koaza":"","lat":34.944353,"lng":135.570416,"zip":"5690000"},{"town":"大字萩谷","koaza":"","lat":34.89679,"lng":135.576731,"zip":"5690000"},{"town":"大字田能","koaza":"","lat":34.948693,"lng":135.590379,"zip":"5690000"},{"town":"大字川久保","koaza":"","lat":34.909513,"lng":135.623579,"zip":"5690000"},{"town":"大字原","koaza":"","lat":34.903051,"lng":135.601969,"zip":"5690000"},{"town":"大字二料","koaza":"垣内","lat":34.943007,"lng":135.569562,"zip":"5690000"},{"town":"大字二料","koaza":"藤シロ","lat":34.948615,"lng":135.578561,"zip":"5690000"},{"town":"大字杉生","koaza":"千ケ谷","lat":34.969867,"lng":135.579751,"zip":"5690000"},{"town":"大字田能","koaza":"大谷","lat":34.948,"lng":135.584135,"zip":"5690000"},{"town":"大字杉生","koaza":"縄手ノ北","lat":34.971679,"lng":135.58419,"zip":"5690000"},{"town":"大字田能","koaza":"岡畑","lat":34.957172,"lng":135.589291,"zip":"5690000"},{"town":"大字田能","koaza":"田頭","lat":34.954545,"lng":135.587139,"zip":"5690000"},{"town":"大字田能","koaza":"小谷条","lat":34.954416,"lng":135.589015,"zip":"5690000"},{"town":"大字田能","koaza":"中条","lat":34.955092,"lng":135.587804,"zip":"5690000"},{"town":"大字田能","koaza":"向ノ下","lat":34.955859,"lng":135.588064,"zip":"5690000"},{"town":"大字田能","koaza":"アンタコ","lat":34.956315,"lng":135.587953,"zip":"5690000"},{"town":"大字田能","koaza":"伊安条","lat":34.959198,"lng":135.589645,"zip":"5690000"},{"town":"大字田能","koaza":"城山","lat":34.960322,"lng":135.589773,"zip":"5690000"},{"town":"大字田能","koaza":"飛田","lat":34.9577,"lng":135.591064,"zip":"5690000"},{"town":"大字田能","koaza":"コブケ","lat":34.959977,"lng":135.591007,"zip":"5690000"},{"town":"大字田能","koaza":"下垣内","lat":34.95486,"lng":135.591478,"zip":"5690000"},{"town":"大字田能","koaza":"鳥井垣内","lat":34.958399,"lng":135.592389,"zip":"5690000"},{"town":"大字田能","koaza":"ウシロ田","lat":34.956311,"lng":135.592112,"zip":"5690000"},{"town":"大字田能","koaza":"上条","lat":34.961416,"lng":135.595095,"zip":"5690000"},{"town":"大字田能","koaza":"清水","lat":34.95718,"lng":135.592464,"zip":"5690000"},{"town":"大字出灰","koaza":"梅ノ木原","lat":34.94012,"lng":135.600188,"zip":"5690000"},{"town":"大字中畑","koaza":"寺谷","lat":34.965791,"lng":135.602763,"zip":"5690000"},{"town":"大字出灰","koaza":"西ノ下","lat":34.935569,"lng":135.602739,"zip":"5690000"},{"town":"大字中畑","koaza":"清谷","lat":34.964868,"lng":135.604995,"zip":"5690000"},{"town":"大字出灰","koaza":"堂ノ前","lat":34.936825,"lng":135.604714,"zip":"5690000"},{"town":"大字出灰","koaza":"東羅","lat":34.936341,"lng":135.606254,"zip":"5690000"},{"town":"大字出灰","koaza":"島崎","lat":34.936139,"lng":135.605838,"zip":"5690000"},{"town":"大字中畑","koaza":"垣ノ下","lat":34.965099,"lng":135.609139,"zip":"5690000"},{"town":"大字中畑","koaza":"西条","lat":34.959736,"lng":135.608001,"zip":"5690000"},{"town":"大字出灰","koaza":"垣内","lat":34.949152,"lng":135.610186,"zip":"5690000"},{"town":"大字中畑","koaza":"久世坂","lat":34.961614,"lng":135.614192,"zip":"5690000"},{"town":"大字田能","koaza":"的谷","lat":34.948103,"lng":135.599807,"zip":"5690000"},{"town":"大字田能","koaza":"中山","lat":34.950467,"lng":135.594788,"zip":"5690000"},{"town":"大字杉生","koaza":"河原田","lat":34.97001,"lng":135.578686,"zip":"5690000"},{"town":"大字中畑","koaza":"タコ子","lat":34.956379,"lng":135.608435,"zip":"5690000"}]