[{"town":"安城寺","koaza":"","lat":39.444077,"lng":140.553514,"zip":"0191533"},{"town":"飯詰","koaza":"","lat":39.378885,"lng":140.535806,"zip":"0191234"},{"town":"金沢","koaza":"","lat":39.391443,"lng":140.581544,"zip":"0191302"},{"town":"金沢西根","koaza":"","lat":39.377931,"lng":140.516161,"zip":"0191235"},{"town":"金沢東根","koaza":"","lat":39.432426,"lng":140.627276,"zip":"0191522"},{"town":"上深井","koaza":"","lat":39.409085,"lng":140.51364,"zip":"0191236"},{"town":"黒沢","koaza":"","lat":39.484476,"lng":140.647686,"zip":"0191511"},{"town":"小荒川","koaza":"","lat":39.455616,"lng":140.574439,"zip":"0191542"},{"town":"境田","koaza":"","lat":39.399072,"lng":140.544472,"zip":"0191233"},{"town":"佐野","koaza":"","lat":39.403716,"lng":140.531339,"zip":"0191237"},{"town":"千屋","koaza":"","lat":39.450453,"lng":140.596294,"zip":"0191502"},{"town":"土崎","koaza":"","lat":39.461184,"lng":140.57215,"zip":"0191541"},{"town":"天神堂","koaza":"","lat":39.407731,"lng":140.548445,"zip":"0191232"},{"town":"中野","koaza":"","lat":39.444916,"lng":140.566761,"zip":"0191521"},{"town":"浪花","koaza":"","lat":39.468564,"lng":140.651672,"zip":"0191501"},{"town":"野荒町","koaza":"","lat":39.399073,"lng":140.560181,"zip":"0191301"},{"town":"野中","koaza":"","lat":39.422878,"lng":140.561381,"zip":"0191402"},{"town":"畑屋","koaza":"","lat":39.43907,"lng":140.546778,"zip":"0191531"},{"town":"羽貫谷地","koaza":"","lat":39.435534,"lng":140.529512,"zip":"0191532"},{"town":"南町","koaza":"","lat":39.413062,"lng":140.528175,"zip":"0191231"},{"town":"鑓田","koaza":"","lat":39.432961,"lng":140.546156,"zip":"0191401"},{"town":"六郷","koaza":"","lat":39.42134,"lng":140.537548,"zip":"0191404"},{"town":"六郷東根","koaza":"","lat":39.399421,"lng":140.630235,"zip":"0191403"},{"town":"本堂城回","koaza":"","lat":39.478661,"lng":140.580587,"zip":"0191512"},{"town":"六郷","koaza":"高田","lat":39.430325,"lng":140.517747,"zip":"0191404"},{"town":"六郷","koaza":"葭原","lat":39.431533,"lng":140.515882,"zip":"0191404"},{"town":"六郷","koaza":"小婦気","lat":39.429416,"lng":140.517342,"zip":"0191404"},{"town":"六郷","koaza":"浮池","lat":39.433379,"lng":140.516901,"zip":"0191404"},{"town":"六郷","koaza":"大荒田","lat":39.434359,"lng":140.520743,"zip":"0191404"},{"town":"六郷","koaza":"八幡","lat":39.43134,"lng":140.521564,"zip":"0191404"},{"town":"六郷","koaza":"谷地中","lat":39.421871,"lng":140.520527,"zip":"0191404"},{"town":"六郷","koaza":"南谷地","lat":39.431671,"lng":140.525272,"zip":"0191404"},{"town":"六郷","koaza":"道尻","lat":39.421927,"lng":140.529423,"zip":"0191404"},{"town":"六郷","koaza":"田岡","lat":39.427811,"lng":140.527646,"zip":"0191404"},{"town":"六郷","koaza":"岩田","lat":39.420293,"lng":140.53566,"zip":"0191404"},{"town":"六郷","koaza":"小安門","lat":39.421244,"lng":140.53683,"zip":"0191404"},{"town":"六郷","koaza":"米清水","lat":39.428502,"lng":140.53957,"zip":"0191404"},{"town":"鑓田","koaza":"屋敷田","lat":39.433987,"lng":140.540866,"zip":"0191401"},{"town":"鑓田","koaza":"谷地中","lat":39.435646,"lng":140.54069,"zip":"0191401"},{"town":"六郷","koaza":"白山","lat":39.418596,"lng":140.54399,"zip":"0191404"},{"town":"六郷","koaza":"古屋敷","lat":39.424805,"lng":140.544238,"zip":"0191404"},{"town":"六郷","koaza":"本道町","lat":39.422674,"lng":140.544195,"zip":"0191404"},{"town":"南町","koaza":"南高野","lat":39.417355,"lng":140.541968,"zip":"0191231"},{"town":"六郷","koaza":"荒町","lat":39.420835,"lng":140.543895,"zip":"0191404"},{"town":"鑓田","koaza":"下二ツ石","lat":39.432292,"lng":140.544211,"zip":"0191401"},{"town":"鑓田","koaza":"上二ツ石","lat":39.432251,"lng":140.547269,"zip":"0191401"},{"town":"六郷","koaza":"赤城","lat":39.416535,"lng":140.548878,"zip":"0191404"},{"town":"六郷","koaza":"新町","lat":39.418618,"lng":140.548347,"zip":"0191404"},{"town":"六郷","koaza":"馬町","lat":39.423554,"lng":140.547534,"zip":"0191404"},{"town":"六郷","koaza":"西高方町","lat":39.425627,"lng":140.548095,"zip":"0191404"},{"town":"六郷","koaza":"琴平西","lat":39.429644,"lng":140.549254,"zip":"0191404"},{"town":"六郷","koaza":"馬場","lat":39.419697,"lng":140.551734,"zip":"0191404"},{"town":"六郷","koaza":"安楽寺","lat":39.422858,"lng":140.552281,"zip":"0191404"},{"town":"六郷","koaza":"熊野","lat":39.415741,"lng":140.553423,"zip":"0191404"},{"town":"鑓田","koaza":"庚塚","lat":39.432745,"lng":140.555212,"zip":"0191401"},{"town":"鑓田","koaza":"馬町","lat":39.430877,"lng":140.558075,"zip":"0191401"},{"town":"六郷","koaza":"作山","lat":39.415213,"lng":140.556589,"zip":"0191404"},{"town":"野中","koaza":"沢田","lat":39.420415,"lng":140.555887,"zip":"0191402"},{"town":"野中","koaza":"下明子","lat":39.426676,"lng":140.55932,"zip":"0191402"},{"town":"野中","koaza":"中明子","lat":39.423864,"lng":140.556714,"zip":"0191402"},{"town":"野中","koaza":"下村","lat":39.422315,"lng":140.557765,"zip":"0191402"},{"town":"野中","koaza":"上明子","lat":39.423895,"lng":140.560832,"zip":"0191402"},{"town":"六郷","koaza":"遠槻","lat":39.435824,"lng":140.513762,"zip":"0191404"},{"town":"六郷","koaza":"根子荒田","lat":39.428472,"lng":140.525259,"zip":"0191404"},{"town":"六郷","koaza":"古館","lat":39.425531,"lng":140.531074,"zip":"0191404"},{"town":"六郷","koaza":"北谷地","lat":39.425722,"lng":140.536743,"zip":"0191404"},{"town":"六郷","koaza":"八百刈","lat":39.424672,"lng":140.536657,"zip":"0191404"},{"town":"六郷","koaza":"北矢口","lat":39.421259,"lng":140.519255,"zip":"0191404"},{"town":"六郷","koaza":"島田","lat":39.419806,"lng":140.525467,"zip":"0191404"},{"town":"六郷","koaza":"石名館","lat":39.417027,"lng":140.529166,"zip":"0191404"},{"town":"六郷","koaza":"鶴巻","lat":39.430911,"lng":140.529804,"zip":"0191404"},{"town":"六郷","koaza":"川内池","lat":39.418776,"lng":140.538709,"zip":"0191404"},{"town":"六郷","koaza":"往還南","lat":39.422544,"lng":140.536583,"zip":"0191404"},{"town":"六郷","koaza":"宝門清水","lat":39.426881,"lng":140.546903,"zip":"0191404"},{"town":"六郷","koaza":"琴平東","lat":39.427543,"lng":140.55457,"zip":"0191404"},{"town":"野中","koaza":"宮崎","lat":39.419346,"lng":140.557278,"zip":"0191402"},{"town":"南町","koaza":"石名館","lat":39.416924,"lng":140.528861,"zip":"0191231"},{"town":"鑓田","koaza":"稲荷","lat":39.432606,"lng":140.555767,"zip":"0191401"},{"town":"畑屋","koaza":"八石","lat":39.432443,"lng":140.558817,"zip":"0191531"},{"town":"六郷","koaza":"古館南","lat":39.423218,"lng":140.532038,"zip":"0191404"},{"town":"六郷","koaza":"大町","lat":39.422763,"lng":140.541427,"zip":"0191404"},{"town":"六郷","koaza":"上町","lat":39.421804,"lng":140.545643,"zip":"0191404"},{"town":"六郷","koaza":"東高方町","lat":39.423718,"lng":140.549949,"zip":"0191404"},{"town":"畑屋","koaza":"十文字","lat":39.432711,"lng":140.557624,"zip":"0191531"},{"town":"畑屋","koaza":"稲荷","lat":39.432808,"lng":140.557981,"zip":"0191531"},{"town":"六郷","koaza":"米町","lat":39.420759,"lng":140.547081,"zip":"0191404"}]