[{"town":"角館町","koaza":"","lat":39.593981,"lng":140.576616,"zip":"0140373"},{"town":"角館町小勝田","koaza":"","lat":39.604009,"lng":140.552017,"zip":"0140347"},{"town":"角館町川原","koaza":"","lat":39.62878,"lng":140.561914,"zip":"0140346"},{"town":"角館町雲然","koaza":"","lat":39.587461,"lng":140.53979,"zip":"0140341"},{"town":"角館町下延","koaza":"","lat":39.561547,"lng":140.524314,"zip":"0140343"},{"town":"角館町白岩","koaza":"","lat":39.583577,"lng":140.65018,"zip":"0140302"},{"town":"角館町薗田","koaza":"","lat":39.582462,"lng":140.588683,"zip":"0140303"},{"town":"角館町西長野","koaza":"","lat":39.62347,"lng":140.483848,"zip":"0140344"},{"town":"角館町八割","koaza":"","lat":39.57722,"lng":140.516031,"zip":"0140342"},{"town":"角館町広久内","koaza":"","lat":39.602247,"lng":140.688702,"zip":"0140301"},{"town":"角館町山谷川崎","koaza":"","lat":39.657701,"lng":140.517441,"zip":"0140345"},{"town":"田沢湖梅沢","koaza":"","lat":39.643568,"lng":140.629455,"zip":"0141112"},{"town":"田沢湖岡崎","koaza":"","lat":39.66538,"lng":140.624595,"zip":"0141111"},{"town":"田沢湖生保内","koaza":"","lat":39.716218,"lng":140.747015,"zip":"0141201"},{"town":"田沢湖角館東前郷","koaza":"","lat":39.634724,"lng":140.565261,"zip":"0141116"},{"town":"田沢湖潟","koaza":"","lat":39.698642,"lng":140.685049,"zip":"0141203"},{"town":"田沢湖小松","koaza":"","lat":39.612791,"lng":140.57737,"zip":"0141115"},{"town":"田沢湖刺巻","koaza":"","lat":39.665005,"lng":140.690662,"zip":"0141202"},{"town":"田沢湖神代","koaza":"","lat":39.618978,"lng":140.59957,"zip":"0141114"},{"town":"田沢湖卒田","koaza":"","lat":39.643917,"lng":140.674255,"zip":"0141113"},{"town":"田沢湖田沢","koaza":"","lat":39.841971,"lng":140.714001,"zip":"0141204"},{"town":"田沢湖玉川","koaza":"","lat":39.906008,"lng":140.664605,"zip":"0141205"},{"town":"西木町門屋","koaza":"","lat":39.657207,"lng":140.565048,"zip":"0140515"},{"town":"西木町上荒井","koaza":"","lat":39.657475,"lng":140.576392,"zip":"0140512"},{"town":"西木町上桧木内","koaza":"","lat":39.840255,"lng":140.565996,"zip":"0140601"},{"town":"西木町小渕野","koaza":"","lat":39.662191,"lng":140.590621,"zip":"0140513"},{"town":"西木町小山田","koaza":"","lat":39.687885,"lng":140.532572,"zip":"0140516"},{"town":"西木町西明寺","koaza":"","lat":39.694786,"lng":140.580445,"zip":"0140511"},{"town":"西木町西荒井","koaza":"","lat":39.638724,"lng":140.570397,"zip":"0140514"},{"town":"西木町桧木内","koaza":"","lat":39.768589,"lng":140.57788,"zip":"0140602"},{"town":"角館町西長野","koaza":"月見堂","lat":39.596725,"lng":140.532937,"zip":"0140344"},{"town":"角館町雲然","koaza":"田中","lat":39.583021,"lng":140.537267,"zip":"0140341"},{"town":"角館町雲然","koaza":"山崎","lat":39.59704,"lng":140.539032,"zip":"0140341"},{"town":"角館町雲然","koaza":"上町屋","lat":39.592671,"lng":140.544567,"zip":"0140341"},{"town":"角館町雲然","koaza":"下町屋","lat":39.589103,"lng":140.544619,"zip":"0140341"},{"town":"角館町雲然","koaza":"田頭","lat":39.584428,"lng":140.545946,"zip":"0140341"},{"town":"角館町雲然","koaza":"荒屋敷","lat":39.590509,"lng":140.551157,"zip":"0140341"},{"town":"角館町小勝田","koaza":"段の平","lat":39.601653,"lng":140.550915,"zip":"0140347"},{"town":"角館町小勝田","koaza":"中村","lat":39.606844,"lng":140.55367,"zip":"0140347"},{"town":"角館町小勝田","koaza":"下村","lat":39.600245,"lng":140.552816,"zip":"0140347"},{"town":"角館町小勝田","koaza":"間野","lat":39.6017,"lng":140.554295,"zip":"0140347"},{"town":"角館町小勝田","koaza":"柳田","lat":39.60604,"lng":140.554347,"zip":"0140347"},{"town":"角館町","koaza":"西野川原","lat":39.589784,"lng":140.555556,"zip":"0140373"},{"town":"角館町小勝田","koaza":"小倉前","lat":39.596673,"lng":140.553389,"zip":"0140347"},{"town":"角館町小勝田","koaza":"大川原","lat":39.606231,"lng":140.556113,"zip":"0140347"},{"town":"角館町小勝田","koaza":"下川原","lat":39.598158,"lng":140.556775,"zip":"0140347"},{"town":"角館町小勝田","koaza":"中川原","lat":39.595543,"lng":140.557247,"zip":"0140347"},{"town":"角館町","koaza":"小館","lat":39.590651,"lng":140.559684,"zip":"0140373"},{"town":"角館町","koaza":"西田","lat":39.588642,"lng":140.557975,"zip":"0140373"},{"town":"角館町","koaza":"川原町","lat":39.60317,"lng":140.558683,"zip":"0140373"},{"town":"角館町","koaza":"西下タ野","lat":39.584733,"lng":140.562296,"zip":"0140373"},{"town":"角館町","koaza":"小人町","lat":39.597665,"lng":140.561414,"zip":"0140373"},{"town":"角館町","koaza":"表町上丁","lat":39.603001,"lng":140.561488,"zip":"0140373"},{"town":"角館町","koaza":"細越町","lat":39.60271,"lng":140.564491,"zip":"0140373"},{"town":"角館町","koaza":"東勝楽丁","lat":39.597679,"lng":140.562793,"zip":"0140373"},{"town":"角館町","koaza":"横町","lat":39.595884,"lng":140.562033,"zip":"0140373"},{"town":"角館町","koaza":"岩瀬","lat":39.587741,"lng":140.563159,"zip":"0140373"},{"town":"角館町","koaza":"上新町","lat":39.595415,"lng":140.565323,"zip":"0140373"},{"town":"角館町","koaza":"田町上丁","lat":39.593281,"lng":140.566042,"zip":"0140373"},{"town":"角館町","koaza":"勝楽","lat":39.586479,"lng":140.565616,"zip":"0140373"},{"town":"角館町","koaza":"岩瀬下タ野","lat":39.582476,"lng":140.567726,"zip":"0140373"},{"town":"角館町","koaza":"中菅沢","lat":39.590184,"lng":140.569055,"zip":"0140373"},{"town":"角館町","koaza":"竹原町","lat":39.594709,"lng":140.567206,"zip":"0140373"},{"town":"角館町","koaza":"水ノ目沢","lat":39.598223,"lng":140.570621,"zip":"0140373"},{"town":"角館町","koaza":"上菅沢","lat":39.59347,"lng":140.574495,"zip":"0140373"},{"town":"角館町","koaza":"下菅沢","lat":39.587625,"lng":140.572746,"zip":"0140373"},{"town":"角館町","koaza":"下川原","lat":39.59749,"lng":140.587296,"zip":"0140373"},{"town":"角館町","koaza":"大中嶋","lat":39.59473,"lng":140.588071,"zip":"0140373"},{"town":"田沢湖神代","koaza":"高野","lat":39.601629,"lng":140.591018,"zip":"0141114"},{"town":"角館町広久内","koaza":"中川原","lat":39.601647,"lng":140.592763,"zip":"0140301"},{"town":"田沢湖田沢","koaza":"蟹沢口","lat":39.778503,"lng":140.663061,"zip":"0141204"},{"town":"田沢湖田沢","koaza":"鎧畑","lat":39.775982,"lng":140.665261,"zip":"0141204"},{"town":"田沢湖田沢","koaza":"田沢々口","lat":39.771917,"lng":140.68684,"zip":"0141204"},{"town":"田沢湖田沢","koaza":"高屋","lat":39.769259,"lng":140.690994,"zip":"0141204"},{"town":"田沢湖刺巻","koaza":"六枚","lat":39.668038,"lng":140.690918,"zip":"0141202"},{"town":"田沢湖田沢","koaza":"寺下","lat":39.763778,"lng":140.695426,"zip":"0141204"},{"town":"田沢湖田沢","koaza":"東前","lat":39.764599,"lng":140.697518,"zip":"0141204"},{"town":"田沢湖刺巻","koaza":"大道","lat":39.671339,"lng":140.698024,"zip":"0141202"},{"town":"田沢湖田沢","koaza":"沼田","lat":39.763848,"lng":140.702063,"zip":"0141204"},{"town":"田沢湖田沢","koaza":"先達","lat":39.753046,"lng":140.713633,"zip":"0141204"},{"town":"田沢湖生保内","koaza":"山根","lat":39.731644,"lng":140.708891,"zip":"0141201"},{"town":"田沢湖生保内","koaza":"四十程","lat":39.683822,"lng":140.712229,"zip":"0141201"},{"town":"田沢湖生保内","koaza":"石神","lat":39.739491,"lng":140.712104,"zip":"0141201"},{"town":"田沢湖生保内","koaza":"中村","lat":39.729307,"lng":140.712111,"zip":"0141201"},{"town":"田沢湖生保内","koaza":"赤石","lat":39.67934,"lng":140.713233,"zip":"0141201"},{"town":"田沢湖生保内","koaza":"上堂田","lat":39.673689,"lng":140.711821,"zip":"0141201"},{"town":"田沢湖生保内","koaza":"下村","lat":39.726252,"lng":140.71196,"zip":"0141201"},{"town":"田沢湖生保内","koaza":"船場台","lat":39.734098,"lng":140.713029,"zip":"0141201"},{"town":"田沢湖生保内","koaza":"大川端","lat":39.731842,"lng":140.71321,"zip":"0141201"},{"town":"田沢湖生保内","koaza":"野村","lat":39.677435,"lng":140.716588,"zip":"0141201"},{"town":"田沢湖生保内","koaza":"下高野","lat":39.748626,"lng":140.734452,"zip":"0141201"},{"town":"田沢湖生保内","koaza":"大平下","lat":39.672235,"lng":140.716474,"zip":"0141201"},{"town":"田沢湖田沢","koaza":"供養佛","lat":39.753224,"lng":140.717277,"zip":"0141204"},{"town":"田沢湖生保内","koaza":"浮世坂","lat":39.698044,"lng":140.720849,"zip":"0141201"},{"town":"田沢湖生保内","koaza":"造道","lat":39.73106,"lng":140.718692,"zip":"0141201"},{"town":"田沢湖生保内","koaza":"田向","lat":39.676291,"lng":140.72136,"zip":"0141201"},{"town":"田沢湖生保内","koaza":"上清水","lat":39.701458,"lng":140.717543,"zip":"0141201"},{"town":"田沢湖生保内","koaza":"源左ェ門野","lat":39.700163,"lng":140.720401,"zip":"0141201"},{"town":"田沢湖生保内","koaza":"山居","lat":39.703873,"lng":140.71936,"zip":"0141201"},{"town":"田沢湖生保内","koaza":"大宮","lat":39.678495,"lng":140.720828,"zip":"0141201"},{"town":"田沢湖生保内","koaza":"堂ノ前","lat":39.726159,"lng":140.721052,"zip":"0141201"},{"town":"田沢湖生保内","koaza":"牛沢","lat":39.71922,"lng":140.722465,"zip":"0141201"},{"town":"田沢湖生保内","koaza":"黒沢野","lat":39.721707,"lng":140.726578,"zip":"0141201"},{"town":"田沢湖生保内","koaza":"相内端","lat":39.682882,"lng":140.723259,"zip":"0141201"},{"town":"田沢湖生保内","koaza":"水尻","lat":39.698847,"lng":140.723428,"zip":"0141201"},{"town":"田沢湖生保内","koaza":"大谷地","lat":39.686047,"lng":140.725215,"zip":"0141201"},{"town":"田沢湖生保内","koaza":"男坂","lat":39.700729,"lng":140.724398,"zip":"0141201"},{"town":"田沢湖生保内","koaza":"町田","lat":39.732002,"lng":140.727466,"zip":"0141201"},{"town":"田沢湖生保内","koaza":"野中","lat":39.695913,"lng":140.722812,"zip":"0141201"},{"town":"田沢湖生保内","koaza":"武蔵野","lat":39.704253,"lng":140.736301,"zip":"0141201"},{"town":"田沢湖生保内","koaza":"街道ノ上","lat":39.701019,"lng":140.729557,"zip":"0141201"},{"town":"田沢湖生保内","koaza":"下滝沢","lat":39.706569,"lng":140.725121,"zip":"0141201"},{"town":"田沢湖生保内","koaza":"久保","lat":39.69499,"lng":140.724054,"zip":"0141201"},{"town":"田沢湖生保内","koaza":"宮ノ後","lat":39.69919,"lng":140.728978,"zip":"0141201"},{"town":"田沢湖生保内","koaza":"宮ノ前","lat":39.698097,"lng":140.72879,"zip":"0141201"},{"town":"田沢湖生保内","koaza":"小杉沢口","lat":39.692522,"lng":140.73082,"zip":"0141201"},{"town":"田沢湖生保内","koaza":"沼田","lat":39.696447,"lng":140.729097,"zip":"0141201"},{"town":"田沢湖生保内","koaza":"上滝沢","lat":39.708506,"lng":140.72948,"zip":"0141201"},{"town":"田沢湖生保内","koaza":"駒ケ岳","lat":39.778985,"lng":140.761879,"zip":"0141201"},{"town":"田沢湖生保内","koaza":"船場","lat":39.690535,"lng":140.711937,"zip":"0141201"},{"town":"田沢湖生保内","koaza":"雁治塚","lat":39.693518,"lng":140.715668,"zip":"0141201"},{"town":"田沢湖生保内","koaza":"阿気","lat":39.733959,"lng":140.709542,"zip":"0141201"},{"town":"角館町","koaza":"山根町","lat":39.599578,"lng":140.565944,"zip":"0140373"},{"town":"角館町","koaza":"上野","lat":39.586096,"lng":140.566976,"zip":"0140373"},{"town":"角館町雲然","koaza":"山口","lat":39.597327,"lng":140.536718,"zip":"0140341"},{"town":"角館町小勝田","koaza":"鵜ノ崎","lat":39.604286,"lng":140.557858,"zip":"0140347"},{"town":"田沢湖生保内","koaza":"上石神","lat":39.740174,"lng":140.704833,"zip":"0141201"},{"town":"角館町","koaza":"金山下","lat":39.595304,"lng":140.581931,"zip":"0140373"},{"town":"角館町小勝田","koaza":"石渕","lat":39.595304,"lng":140.554554,"zip":"0140347"},{"town":"田沢湖田沢","koaza":"大山","lat":39.766936,"lng":140.694208,"zip":"0141204"},{"town":"田沢湖生保内","koaza":"小先達","lat":39.740864,"lng":140.718335,"zip":"0141201"},{"town":"田沢湖生保内","koaza":"黒沢","lat":39.715888,"lng":140.725263,"zip":"0141201"},{"town":"田沢湖生保内","koaza":"十里木","lat":39.712135,"lng":140.72382,"zip":"0141201"},{"town":"田沢湖生保内","koaza":"中生保内","lat":39.712257,"lng":140.725685,"zip":"0141201"},{"town":"田沢湖生保内","koaza":"姥杉","lat":39.681567,"lng":140.716729,"zip":"0141201"},{"town":"田沢湖神代","koaza":"熊野堂","lat":39.599289,"lng":140.57861,"zip":"0141114"},{"town":"角館町","koaza":"鳥木沢","lat":39.599811,"lng":140.578464,"zip":"0140373"},{"town":"角館町","koaza":"裏町","lat":39.602249,"lng":140.562224,"zip":"0140373"},{"town":"角館町","koaza":"歩行町","lat":39.600199,"lng":140.56072,"zip":"0140373"},{"town":"角館町","koaza":"表町下丁","lat":39.600273,"lng":140.561688,"zip":"0140373"},{"town":"角館町","koaza":"北野","lat":39.603112,"lng":140.558494,"zip":"0140373"},{"town":"角館町","koaza":"七日町","lat":39.594768,"lng":140.561482,"zip":"0140373"},{"town":"角館町","koaza":"西勝楽町","lat":39.593221,"lng":140.561142,"zip":"0140373"},{"town":"角館町","koaza":"下中町","lat":39.592753,"lng":140.562769,"zip":"0140373"},{"town":"角館町","koaza":"岩瀬町","lat":39.593894,"lng":140.563607,"zip":"0140373"},{"town":"角館町","koaza":"下新町","lat":39.591121,"lng":140.564233,"zip":"0140373"},{"town":"田沢湖生保内","koaza":"下堂田","lat":39.671503,"lng":140.713099,"zip":"0141201"},{"town":"田沢湖神代","koaza":"鹿川原","lat":39.60237,"lng":140.593886,"zip":"0141114"},{"town":"角館町薗田","koaza":"久保","lat":39.581531,"lng":140.574921,"zip":"0140303"},{"town":"角館町","koaza":"下岩瀬町","lat":39.589703,"lng":140.564415,"zip":"0140373"},{"town":"角館町","koaza":"田町下丁","lat":39.590979,"lng":140.56473,"zip":"0140373"},{"town":"田沢湖生保内","koaza":"石名坂","lat":39.70241,"lng":140.729748,"zip":"0141201"},{"town":"角館町小勝田","koaza":"滝ノ沢","lat":39.597416,"lng":140.55183,"zip":"0140347"},{"town":"角館町","koaza":"中町","lat":39.594447,"lng":140.562543,"zip":"0140373"},{"town":"角館町","koaza":"花場下","lat":39.595263,"lng":140.564455,"zip":"0140373"},{"town":"角館町小勝田","koaza":"鶴巻","lat":39.603301,"lng":140.553104,"zip":"0140347"},{"town":"角館町","koaza":"川原町後","lat":39.602702,"lng":140.558605,"zip":"0140373"},{"town":"角館町","koaza":"大風呂","lat":39.595403,"lng":140.560619,"zip":"0140373"},{"town":"田沢湖小松","koaza":"城廻","lat":39.60543,"lng":140.566904,"zip":"0141115"}]