[{"town":"旭町","koaza":"","lat":40.227134,"lng":140.373386,"zip":"0183313"},{"town":"阿仁荒瀬","koaza":"","lat":39.965227,"lng":140.375467,"zip":"0184621"},{"town":"阿仁荒瀬川櫃畑","koaza":"","lat":39.970846,"lng":140.44216,"zip":"0184623"},{"town":"阿仁一ノ又鉱山","koaza":"","lat":39.991073,"lng":140.475324,"zip":"0183300"},{"town":"阿仁打当","koaza":"","lat":39.929656,"lng":140.586687,"zip":"0184731"},{"town":"阿仁笑内","koaza":"","lat":39.932213,"lng":140.414818,"zip":"0184743"},{"town":"阿仁萱草","koaza":"","lat":39.949768,"lng":140.427365,"zip":"0184745"},{"town":"阿仁銀山","koaza":"","lat":39.992219,"lng":140.398303,"zip":"0184613"},{"town":"阿仁幸屋","koaza":"","lat":39.924584,"lng":140.451877,"zip":"0184741"},{"town":"阿仁幸屋渡","koaza":"","lat":39.897397,"lng":140.405984,"zip":"0184742"},{"town":"阿仁小様","koaza":"","lat":40.00248,"lng":140.447111,"zip":"0184603"},{"town":"阿仁小沢鉱山","koaza":"","lat":39.979737,"lng":140.417715,"zip":"0184622"},{"town":"阿仁小渕","koaza":"","lat":40.027734,"lng":140.403218,"zip":"0184602"},{"town":"阿仁三枚鉱山","koaza":"","lat":40.011395,"lng":140.427847,"zip":"0184604"},{"town":"阿仁戸鳥内","koaza":"","lat":39.928603,"lng":140.498062,"zip":"0184733"},{"town":"阿仁長畑","koaza":"","lat":39.882002,"lng":140.491051,"zip":"0184734"},{"town":"阿仁中村","koaza":"","lat":39.945518,"lng":140.542345,"zip":"0184732"},{"town":"阿仁根子","koaza":"","lat":39.930097,"lng":140.382359,"zip":"0184744"},{"town":"阿仁比立内","koaza":"","lat":39.852402,"lng":140.449391,"zip":"0184735"},{"town":"阿仁伏影","koaza":"","lat":39.940312,"lng":140.417801,"zip":"0184746"},{"town":"阿仁前田","koaza":"","lat":40.065549,"lng":140.396907,"zip":"0184515"},{"town":"阿仁真木沢鉱山","koaza":"","lat":40.00708,"lng":140.414168,"zip":"0184612"},{"town":"阿仁水無","koaza":"","lat":40.010284,"lng":140.392806,"zip":"0184611"},{"town":"阿仁吉田","koaza":"","lat":40.028826,"lng":140.378735,"zip":"0184601"},{"town":"伊勢町","koaza":"","lat":40.224495,"lng":140.377804,"zip":"0183314"},{"town":"今泉","koaza":"","lat":40.224335,"lng":140.295744,"zip":"0183343"},{"town":"浦田","koaza":"","lat":40.103326,"lng":140.399389,"zip":"0184302"},{"town":"大町","koaza":"","lat":40.225139,"lng":140.364965,"zip":"0183324"},{"town":"桂瀬","koaza":"","lat":40.091869,"lng":140.419494,"zip":"0184516"},{"town":"鎌沢","koaza":"","lat":40.095811,"lng":140.31416,"zip":"0184251"},{"town":"上杉","koaza":"","lat":40.154249,"lng":140.365599,"zip":"0184231"},{"town":"川井","koaza":"","lat":40.166223,"lng":140.321933,"zip":"0184211"},{"town":"木戸石","koaza":"","lat":40.179551,"lng":140.299759,"zip":"0184203"},{"town":"黒沢","koaza":"","lat":40.250864,"lng":140.313083,"zip":"0183341"},{"town":"小又","koaza":"","lat":40.058136,"lng":140.444606,"zip":"0184513"},{"town":"五味堀","koaza":"","lat":40.046567,"lng":140.406957,"zip":"0184514"},{"town":"小森","koaza":"","lat":40.181931,"lng":140.450273,"zip":"0183451"},{"town":"根田","koaza":"","lat":40.139252,"lng":140.317129,"zip":"0184273"},{"town":"材木町","koaza":"","lat":40.231281,"lng":140.372362,"zip":"0183311"},{"town":"栄","koaza":"","lat":40.226846,"lng":140.423025,"zip":"0183302"},{"town":"下杉","koaza":"","lat":40.162107,"lng":140.345238,"zip":"0184221"},{"town":"住吉町","koaza":"","lat":40.227861,"lng":140.367784,"zip":"0183322"},{"town":"李岱","koaza":"","lat":40.154088,"lng":140.308984,"zip":"0184282"},{"town":"芹沢","koaza":"","lat":40.130436,"lng":140.319264,"zip":"0184261"},{"town":"鷹巣","koaza":"","lat":40.221387,"lng":140.364592,"zip":"0183332"},{"town":"綴子","koaza":"","lat":40.293036,"lng":140.361431,"zip":"0183301"},{"town":"道城","koaza":"","lat":40.13836,"lng":140.357422,"zip":"0184241"},{"town":"中屋敷","koaza":"","lat":40.181559,"lng":140.38395,"zip":"0183453"},{"town":"七日市","koaza":"","lat":40.127107,"lng":140.508981,"zip":"0183452"},{"town":"新田目","koaza":"","lat":40.144708,"lng":140.325185,"zip":"0184272"},{"town":"根森田","koaza":"","lat":40.036624,"lng":140.436717,"zip":"0184512"},{"town":"八幡岱新田","koaza":"","lat":40.169452,"lng":140.304729,"zip":"0184202"},{"town":"花園町","koaza":"","lat":40.227362,"lng":140.370692,"zip":"0183312"},{"town":"羽根山","koaza":"","lat":40.145716,"lng":140.28692,"zip":"0184281"},{"town":"東横町","koaza":"","lat":40.22454,"lng":140.370003,"zip":"0183316"},{"town":"福田","koaza":"","lat":40.151476,"lng":140.317214,"zip":"0184271"},{"town":"坊沢","koaza":"","lat":40.220132,"lng":140.336213,"zip":"0183333"},{"town":"本城","koaza":"","lat":40.123782,"lng":140.34875,"zip":"0184303"},{"town":"前山","koaza":"","lat":40.222735,"lng":140.319261,"zip":"0183342"},{"town":"増沢","koaza":"","lat":40.187855,"lng":140.286644,"zip":"0184201"},{"town":"松葉町","koaza":"","lat":40.230528,"lng":140.367586,"zip":"0183321"},{"town":"三木田","koaza":"","lat":40.109206,"lng":140.30095,"zip":"0184263"},{"town":"三里","koaza":"","lat":40.121043,"lng":140.292733,"zip":"0184262"},{"town":"宮前町","koaza":"","lat":40.223667,"lng":140.373175,"zip":"0183315"},{"town":"元町","koaza":"","lat":40.229001,"lng":140.364193,"zip":"0183325"},{"town":"森吉","koaza":"","lat":40.012099,"lng":140.59342,"zip":"0184511"},{"town":"米内沢","koaza":"","lat":40.137997,"lng":140.392645,"zip":"0184301"},{"town":"米代町","koaza":"","lat":40.224717,"lng":140.3675,"zip":"0183323"},{"town":"脇神","koaza":"","lat":40.202565,"lng":140.374503,"zip":"0183454"},{"town":"増沢","koaza":"小瀬渡場","lat":40.193669,"lng":140.287831,"zip":"0184201"},{"town":"増沢","koaza":"村並","lat":40.193038,"lng":140.293471,"zip":"0184201"},{"town":"木戸石","koaza":"悪摩沢悪戸","lat":40.187956,"lng":140.294174,"zip":"0184203"},{"town":"増沢","koaza":"上ノ山","lat":40.189504,"lng":140.294287,"zip":"0184201"},{"town":"増沢","koaza":"沼ノ上","lat":40.188564,"lng":140.295957,"zip":"0184201"},{"town":"木戸石","koaza":"屋布岱","lat":40.179712,"lng":140.299328,"zip":"0184203"},{"town":"木戸石","koaza":"諏訪岱","lat":40.175963,"lng":140.299229,"zip":"0184203"},{"town":"木戸石","koaza":"上務田","lat":40.177568,"lng":140.298281,"zip":"0184203"},{"town":"木戸石","koaza":"堤下","lat":40.177479,"lng":140.300317,"zip":"0184203"},{"town":"木戸石","koaza":"山ノ下","lat":40.177776,"lng":140.299928,"zip":"0184203"},{"town":"八幡岱新田","koaza":"八幡岱","lat":40.17123,"lng":140.304834,"zip":"0184202"},{"town":"木戸石","koaza":"東畑","lat":40.180511,"lng":140.301642,"zip":"0184203"},{"town":"木戸石","koaza":"林岱","lat":40.175625,"lng":140.302479,"zip":"0184203"},{"town":"木戸石","koaza":"東屋布岱","lat":40.178784,"lng":140.301702,"zip":"0184203"},{"town":"八幡岱新田","koaza":"上新田","lat":40.170067,"lng":140.305996,"zip":"0184202"},{"town":"八幡岱新田","koaza":"下新田","lat":40.170566,"lng":140.303725,"zip":"0184202"},{"town":"八幡岱新田","koaza":"林岱","lat":40.172511,"lng":140.306401,"zip":"0184202"},{"town":"川井","koaza":"松石殿","lat":40.170024,"lng":140.317094,"zip":"0184211"},{"town":"木戸石","koaza":"才ノ神岱","lat":40.182717,"lng":140.319314,"zip":"0184203"},{"town":"木戸石","koaza":"才ノ神沢","lat":40.186266,"lng":140.318942,"zip":"0184203"},{"town":"川井","koaza":"屋布岱","lat":40.163584,"lng":140.318816,"zip":"0184211"},{"town":"川井","koaza":"狐沢","lat":40.166089,"lng":140.315623,"zip":"0184211"},{"town":"川井","koaza":"家ノ後","lat":40.164528,"lng":140.318826,"zip":"0184211"},{"town":"川井","koaza":"家の上","lat":40.167154,"lng":140.319391,"zip":"0184211"},{"town":"川井","koaza":"才ノ神","lat":40.163352,"lng":140.32391,"zip":"0184211"},{"town":"川井","koaza":"漣岱","lat":40.157822,"lng":140.327038,"zip":"0184211"},{"town":"川井","koaza":"相善岱","lat":40.165368,"lng":140.322341,"zip":"0184211"},{"town":"上杉","koaza":"金沢","lat":40.180521,"lng":140.342383,"zip":"0184231"},{"town":"川井","koaza":"鳥屋沢","lat":40.161723,"lng":140.326944,"zip":"0184211"},{"town":"川井","koaza":"五郎左エ門田ノ沢","lat":40.160117,"lng":140.325196,"zip":"0184211"},{"town":"木戸石","koaza":"下中岱","lat":40.183683,"lng":140.32488,"zip":"0184203"},{"town":"川井","koaza":"蛇森","lat":40.164173,"lng":140.32983,"zip":"0184211"},{"town":"新田目","koaza":"大野","lat":40.159627,"lng":140.327331,"zip":"0184272"},{"town":"坊沢","koaza":"福田","lat":40.228053,"lng":140.333029,"zip":"0183333"},{"town":"川井","koaza":"鳥屋岱","lat":40.161305,"lng":140.330398,"zip":"0184211"},{"town":"坊沢","koaza":"屋敷","lat":40.231599,"lng":140.338198,"zip":"0183333"},{"town":"川井","koaza":"横呑沢","lat":40.176316,"lng":140.342727,"zip":"0184211"},{"town":"下杉","koaza":"田ノ沢","lat":40.160209,"lng":140.332073,"zip":"0184221"},{"town":"下杉","koaza":"川井境","lat":40.160886,"lng":140.330219,"zip":"0184221"},{"town":"下杉","koaza":"狐森","lat":40.157599,"lng":140.33276,"zip":"0184221"},{"town":"坊沢","koaza":"深沢","lat":40.22551,"lng":140.331577,"zip":"0183333"},{"town":"下杉","koaza":"中島","lat":40.159501,"lng":140.336041,"zip":"0184221"},{"town":"坊沢","koaza":"水上沢","lat":40.22858,"lng":140.336453,"zip":"0183333"},{"town":"下杉","koaza":"塚ノ岱","lat":40.154119,"lng":140.33718,"zip":"0184221"},{"town":"下杉","koaza":"小堤","lat":40.152724,"lng":140.338562,"zip":"0184221"},{"town":"坊沢","koaza":"善千鳥坂","lat":40.227914,"lng":140.33777,"zip":"0183333"},{"town":"坊沢","koaza":"高館沢","lat":40.232849,"lng":140.343643,"zip":"0183333"},{"town":"上杉","koaza":"下屋布岱","lat":40.147215,"lng":140.346145,"zip":"0184231"},{"town":"本城","koaza":"摩当沢","lat":40.131621,"lng":140.343859,"zip":"0184303"},{"town":"坊沢","koaza":"大柳岱屋敷","lat":40.231852,"lng":140.341367,"zip":"0183333"},{"town":"下杉","koaza":"家の下","lat":40.149968,"lng":140.34101,"zip":"0184221"},{"town":"坊沢","koaza":"桐木沢","lat":40.230764,"lng":140.341296,"zip":"0183333"},{"town":"坊沢","koaza":"前谷地","lat":40.229112,"lng":140.341732,"zip":"0183333"},{"town":"坊沢","koaza":"深関沢","lat":40.242284,"lng":140.352015,"zip":"0183333"},{"town":"脇神","koaza":"館下","lat":40.206499,"lng":140.343943,"zip":"0183454"},{"town":"綴子","koaza":"作坂下","lat":40.24443,"lng":140.356711,"zip":"0183301"},{"town":"上杉","koaza":"上屋布岱","lat":40.14525,"lng":140.345821,"zip":"0184231"},{"town":"坊沢","koaza":"内天道","lat":40.231752,"lng":140.345464,"zip":"0183333"},{"town":"本城","koaza":"館の下","lat":40.130352,"lng":140.347458,"zip":"0184303"},{"town":"坊沢","koaza":"相善岱","lat":40.234165,"lng":140.34549,"zip":"0183333"},{"town":"坊沢","koaza":"相善岱尻","lat":40.232822,"lng":140.346394,"zip":"0183333"},{"town":"坊沢","koaza":"影ノ沢","lat":40.236379,"lng":140.346115,"zip":"0183333"},{"town":"脇神","koaza":"小ケ田囲ノ内","lat":40.206557,"lng":140.347313,"zip":"0183454"},{"town":"坊沢","koaza":"横道沢尻","lat":40.234823,"lng":140.347924,"zip":"0183333"},{"town":"坊沢","koaza":"天道","lat":40.232007,"lng":140.347467,"zip":"0183333"},{"town":"下杉","koaza":"谷地道","lat":40.164118,"lng":140.351854,"zip":"0184221"},{"town":"上杉","koaza":"塚ノ岱","lat":40.151389,"lng":140.351254,"zip":"0184231"},{"town":"米内沢","koaza":"滝の沢上段","lat":40.125944,"lng":140.348917,"zip":"0184301"},{"town":"本城","koaza":"沢口","lat":40.127038,"lng":140.34918,"zip":"0184303"},{"town":"坊沢","koaza":"胡桃館","lat":40.231653,"lng":140.351455,"zip":"0183333"},{"town":"坊沢","koaza":"塚ノ岱","lat":40.23465,"lng":140.350601,"zip":"0183333"},{"town":"脇神","koaza":"前谷地","lat":40.205934,"lng":140.349174,"zip":"0183454"},{"town":"坊沢","koaza":"才ノ神","lat":40.23626,"lng":140.349696,"zip":"0183333"},{"town":"鷹巣","koaza":"細田","lat":40.225233,"lng":140.353486,"zip":"0183332"},{"town":"道城","koaza":"屋布岱","lat":40.136487,"lng":140.351857,"zip":"0184241"},{"town":"坊沢","koaza":"横道街道下","lat":40.234652,"lng":140.35206,"zip":"0183333"},{"town":"下杉","koaza":"上清水沢","lat":40.170194,"lng":140.360355,"zip":"0184221"},{"town":"脇神","koaza":"槐岱道下","lat":40.206105,"lng":140.355673,"zip":"0183454"},{"town":"脇神","koaza":"槐岱道上","lat":40.202843,"lng":140.35401,"zip":"0183454"},{"town":"坊沢","koaza":"下タ上野","lat":40.235159,"lng":140.355054,"zip":"0183333"},{"town":"綴子","koaza":"作坂","lat":40.245731,"lng":140.359625,"zip":"0183301"},{"town":"脇神","koaza":"川戸沼内悪戸","lat":40.208087,"lng":140.363884,"zip":"0183454"},{"town":"道城","koaza":"上堀","lat":40.134869,"lng":140.354955,"zip":"0184241"},{"town":"脇神","koaza":"三ツ屋岱","lat":40.20993,"lng":140.356411,"zip":"0183454"},{"town":"本城","koaza":"上悪戸","lat":40.124082,"lng":140.355243,"zip":"0184303"},{"town":"道城","koaza":"田ノ上","lat":40.139107,"lng":140.357818,"zip":"0184241"},{"town":"坊沢","koaza":"深関街道下","lat":40.240325,"lng":140.355768,"zip":"0183333"},{"town":"坊沢","koaza":"館ノ越","lat":40.229757,"lng":140.354181,"zip":"0183333"},{"town":"鷹巣","koaza":"西上綱","lat":40.225759,"lng":140.355949,"zip":"0183332"},{"town":"坊沢","koaza":"中柳生","lat":40.23248,"lng":140.35946,"zip":"0183333"},{"town":"鷹巣","koaza":"南三ツ谷岱","lat":40.216378,"lng":140.355629,"zip":"0183332"},{"town":"米内沢","koaza":"御嶽","lat":40.12014,"lng":140.362632,"zip":"0184301"},{"town":"米内沢","koaza":"黒沢","lat":40.119216,"lng":140.363949,"zip":"0184301"},{"town":"道城","koaza":"大野","lat":40.141365,"lng":140.35862,"zip":"0184241"},{"town":"鷹巣","koaza":"西中岱","lat":40.225011,"lng":140.357073,"zip":"0183332"},{"town":"坊沢","koaza":"上野","lat":40.233973,"lng":140.356905,"zip":"0183333"},{"town":"本城","koaza":"御嶽","lat":40.12248,"lng":140.357695,"zip":"0184303"},{"town":"綴子","koaza":"胡桃館","lat":40.234718,"lng":140.36042,"zip":"0183301"},{"town":"鷹巣","koaza":"本屋敷","lat":40.219199,"lng":140.363661,"zip":"0183332"},{"town":"鷹巣","koaza":"下家下","lat":40.22954,"lng":140.36193,"zip":"0183332"},{"town":"鷹巣","koaza":"東中岱","lat":40.223267,"lng":140.359624,"zip":"0183332"},{"town":"綴子","koaza":"佐戸岱","lat":40.239571,"lng":140.359272,"zip":"0183301"},{"town":"本城","koaza":"中島","lat":40.124321,"lng":140.365706,"zip":"0184303"},{"town":"鷹巣","koaza":"東上綱","lat":40.227967,"lng":140.360058,"zip":"0183332"},{"town":"米内沢","koaza":"下川原","lat":40.121969,"lng":140.357638,"zip":"0184301"},{"town":"綴子","koaza":"久太郎羽立","lat":40.241444,"lng":140.360494,"zip":"0183301"},{"town":"鷹巣","koaza":"小中岱","lat":40.220752,"lng":140.360562,"zip":"0183332"},{"town":"綴子","koaza":"柳中","lat":40.232359,"lng":140.361584,"zip":"0183301"},{"town":"綴子","koaza":"田中下モ","lat":40.232628,"lng":140.364109,"zip":"0183301"},{"town":"綴子","koaza":"美田古","lat":40.237653,"lng":140.362517,"zip":"0183301"},{"town":"鷹巣","koaza":"北中家下","lat":40.223784,"lng":140.362321,"zip":"0183332"},{"town":"鷹巣","koaza":"西屋敷","lat":40.232026,"lng":140.360792,"zip":"0183332"},{"town":"鷹巣","koaza":"南中家下","lat":40.223074,"lng":140.364392,"zip":"0183332"},{"town":"米内沢","koaza":"寺の上","lat":40.117756,"lng":140.367402,"zip":"0184301"},{"town":"綴子","koaza":"中堤","lat":40.234928,"lng":140.36381,"zip":"0183301"},{"town":"脇神","koaza":"下金堀","lat":40.206811,"lng":140.363219,"zip":"0183454"},{"town":"上杉","koaza":"上森沢","lat":40.148854,"lng":140.373183,"zip":"0184231"},{"town":"米内沢","koaza":"西川向","lat":40.124851,"lng":140.364337,"zip":"0184301"},{"town":"米内沢","koaza":"鶴田","lat":40.134689,"lng":140.374564,"zip":"0184301"},{"town":"脇神","koaza":"中金堀","lat":40.205777,"lng":140.364687,"zip":"0183454"},{"town":"米内沢","koaza":"出向","lat":40.122522,"lng":140.365354,"zip":"0184301"},{"town":"上杉","koaza":"中山沢","lat":40.164772,"lng":140.363542,"zip":"0184231"},{"town":"綴子","koaza":"田中表","lat":40.238051,"lng":140.364944,"zip":"0183301"},{"town":"米内沢","koaza":"桐木岱","lat":40.13096,"lng":140.370517,"zip":"0184301"},{"town":"綴子","koaza":"田中","lat":40.236345,"lng":140.365532,"zip":"0183301"},{"town":"脇神","koaza":"川口下悪戸","lat":40.207198,"lng":140.364736,"zip":"0183454"},{"town":"脇神","koaza":"平崎川戸沼","lat":40.215258,"lng":140.36897,"zip":"0183454"},{"town":"綴子","koaza":"田中家前","lat":40.233379,"lng":140.365295,"zip":"0183301"},{"town":"米内沢","koaza":"寺の下","lat":40.118985,"lng":140.367196,"zip":"0184301"},{"town":"米内沢","koaza":"大樋","lat":40.125179,"lng":140.365318,"zip":"0184301"},{"town":"綴子","koaza":"家下タ","lat":40.250247,"lng":140.367081,"zip":"0183301"},{"town":"綴子","koaza":"田中大道下","lat":40.246696,"lng":140.367151,"zip":"0183301"},{"town":"鷹巣","koaza":"北家後","lat":40.231656,"lng":140.365597,"zip":"0183332"},{"town":"脇神","koaza":"川口塚ノ岱","lat":40.208073,"lng":140.366912,"zip":"0183454"},{"town":"鷹巣","koaza":"帰道","lat":40.221297,"lng":140.367812,"zip":"0183332"},{"town":"鷹巣","koaza":"上家下","lat":40.222582,"lng":140.367326,"zip":"0183332"},{"town":"脇神","koaza":"泉屋敷","lat":40.211351,"lng":140.369638,"zip":"0183454"},{"town":"米内沢","koaza":"中島","lat":40.123998,"lng":140.367941,"zip":"0184301"},{"town":"脇神","koaza":"平崎上岱","lat":40.214447,"lng":140.370883,"zip":"0183454"},{"town":"鷹巣","koaza":"西大柳岱","lat":40.219904,"lng":140.36822,"zip":"0183332"},{"town":"綴子","koaza":"一本柳","lat":40.242158,"lng":140.367746,"zip":"0183301"},{"town":"米内沢","koaza":"薬師下","lat":40.120462,"lng":140.371398,"zip":"0184301"},{"town":"米内沢","koaza":"出向中島","lat":40.123265,"lng":140.369222,"zip":"0184301"},{"town":"綴子","koaza":"西館","lat":40.254155,"lng":140.368432,"zip":"0183301"},{"town":"米内沢","koaza":"東川向","lat":40.124989,"lng":140.36959,"zip":"0184301"},{"town":"綴子","koaza":"掛泥向","lat":40.233213,"lng":140.373208,"zip":"0183301"},{"town":"脇神","koaza":"苔岱","lat":40.193545,"lng":140.372274,"zip":"0183454"},{"town":"鷹巣","koaza":"愛宕下","lat":40.222124,"lng":140.36935,"zip":"0183332"},{"town":"綴子","koaza":"掛泥道下","lat":40.249984,"lng":140.369381,"zip":"0183301"},{"town":"綴子","koaza":"田町","lat":40.252164,"lng":140.371778,"zip":"0183301"},{"town":"綴子","koaza":"東館","lat":40.254937,"lng":140.369833,"zip":"0183301"},{"town":"米内沢","koaza":"柳原","lat":40.127399,"lng":140.374321,"zip":"0184301"},{"town":"綴子","koaza":"掛泥道上","lat":40.251888,"lng":140.372427,"zip":"0183301"},{"town":"鷹巣","koaza":"平崎上岱","lat":40.217156,"lng":140.376227,"zip":"0183332"},{"town":"米内沢","koaza":"上強瀬","lat":40.125849,"lng":140.372106,"zip":"0184301"},{"town":"米内沢","koaza":"上野","lat":40.128097,"lng":140.372518,"zip":"0184301"},{"town":"脇神","koaza":"平崎","lat":40.216975,"lng":140.371826,"zip":"0183454"},{"town":"米内沢","koaza":"倉の沢出口","lat":40.118615,"lng":140.371117,"zip":"0184301"},{"town":"米内沢","koaza":"伊勢の森","lat":40.116911,"lng":140.375197,"zip":"0184301"},{"town":"脇神","koaza":"赤川岱","lat":40.21168,"lng":140.375979,"zip":"0183454"},{"town":"綴子","koaza":"古関","lat":40.233594,"lng":140.377271,"zip":"0183301"},{"town":"綴子","koaza":"長右衛門堤下","lat":40.236426,"lng":140.373404,"zip":"0183301"},{"town":"米内沢","koaza":"林の腰","lat":40.120212,"lng":140.373736,"zip":"0184301"},{"town":"綴子","koaza":"掛泥","lat":40.235309,"lng":140.376736,"zip":"0183301"},{"town":"栄","koaza":"前綱","lat":40.231018,"lng":140.378493,"zip":"0183302"},{"town":"栄","koaza":"中綱","lat":40.229373,"lng":140.378354,"zip":"0183302"},{"town":"米内沢","koaza":"諏訪岱","lat":40.121731,"lng":140.377226,"zip":"0184301"},{"town":"綴子","koaza":"大堤道下","lat":40.25268,"lng":140.375855,"zip":"0183301"},{"town":"上杉","koaza":"硯川","lat":40.148939,"lng":140.376272,"zip":"0184231"},{"town":"綴子","koaza":"釜堤脇","lat":40.250096,"lng":140.377123,"zip":"0183301"},{"town":"脇神","koaza":"米ノ岱","lat":40.211843,"lng":140.37734,"zip":"0183454"},{"town":"米内沢","koaza":"鶴田岱","lat":40.133533,"lng":140.376055,"zip":"0184301"},{"town":"綴子","koaza":"街道下","lat":40.254614,"lng":140.378232,"zip":"0183301"},{"town":"米内沢","koaza":"ヲツコ沢","lat":40.118249,"lng":140.376881,"zip":"0184301"},{"town":"脇神","koaza":"西陣場岱","lat":40.216008,"lng":140.379056,"zip":"0183454"},{"town":"米内沢","koaza":"萩の下","lat":40.128403,"lng":140.37876,"zip":"0184301"},{"town":"米内沢","koaza":"七曲","lat":40.117723,"lng":140.37872,"zip":"0184301"},{"town":"脇神","koaza":"堂ケ岱屋敷廻","lat":40.205641,"lng":140.378312,"zip":"0183454"},{"town":"綴子","koaza":"大堤","lat":40.252501,"lng":140.381607,"zip":"0183301"},{"town":"脇神","koaza":"堂ケ岱","lat":40.207021,"lng":140.380109,"zip":"0183454"},{"town":"米内沢","koaza":"長野岱","lat":40.130248,"lng":140.388532,"zip":"0184301"},{"town":"綴子","koaza":"米堤下","lat":40.238801,"lng":140.379778,"zip":"0183301"},{"town":"綴子","koaza":"掛泥野","lat":40.237721,"lng":140.380413,"zip":"0183301"},{"town":"脇神","koaza":"白砂坂","lat":40.203508,"lng":140.380907,"zip":"0183454"},{"town":"脇神","koaza":"石ノ巻岱","lat":40.216475,"lng":140.38516,"zip":"0183454"},{"town":"米内沢","koaza":"冷水岱","lat":40.12108,"lng":140.381628,"zip":"0184301"},{"town":"脇神","koaza":"高村岱","lat":40.209385,"lng":140.383025,"zip":"0183454"},{"town":"綴子","koaza":"高野尻","lat":40.239163,"lng":140.386047,"zip":"0183301"},{"town":"脇神","koaza":"塚ノ岱","lat":40.206355,"lng":140.389073,"zip":"0183454"},{"town":"米内沢","koaza":"長野","lat":40.13525,"lng":140.383128,"zip":"0184301"},{"town":"栄","koaza":"太田","lat":40.234803,"lng":140.382129,"zip":"0183302"},{"town":"米内沢","koaza":"中道岱","lat":40.120146,"lng":140.383695,"zip":"0184301"},{"town":"綴子","koaza":"糠沢中谷地","lat":40.253665,"lng":140.396207,"zip":"0183301"},{"town":"綴子","koaza":"太田屋敷後","lat":40.237494,"lng":140.387154,"zip":"0183301"},{"town":"米内沢","koaza":"田の沢","lat":40.118646,"lng":140.383675,"zip":"0184301"},{"town":"綴子","koaza":"大堤家後","lat":40.256277,"lng":140.382021,"zip":"0183301"},{"town":"綴子","koaza":"大堤沢","lat":40.25912,"lng":140.384866,"zip":"0183301"},{"town":"綴子","koaza":"前野","lat":40.256129,"lng":140.38444,"zip":"0183301"},{"town":"米内沢","koaza":"山崎","lat":40.118343,"lng":140.384999,"zip":"0184301"},{"town":"脇神","koaza":"藤株囲ノ内","lat":40.202053,"lng":140.390589,"zip":"0183454"},{"town":"綴子","koaza":"合地","lat":40.266784,"lng":140.396329,"zip":"0183301"},{"town":"脇神","koaza":"寺下","lat":40.197504,"lng":140.386254,"zip":"0183454"},{"town":"栄","koaza":"太田新田","lat":40.234019,"lng":140.386255,"zip":"0183302"},{"town":"脇神","koaza":"東陣場岱","lat":40.221547,"lng":140.386406,"zip":"0183454"},{"town":"栄","koaza":"悪戸","lat":40.23064,"lng":140.385567,"zip":"0183302"},{"town":"脇神","koaza":"太田尻","lat":40.201865,"lng":140.386065,"zip":"0183454"},{"town":"綴子","koaza":"小糠沢","lat":40.261245,"lng":140.386718,"zip":"0183301"},{"town":"脇神","koaza":"脇神囲ノ内","lat":40.197117,"lng":140.388738,"zip":"0183454"},{"town":"綴子","koaza":"堤下","lat":40.251855,"lng":140.390019,"zip":"0183301"},{"town":"中屋敷","koaza":"囲ノ内","lat":40.186976,"lng":140.392622,"zip":"0183453"},{"town":"米内沢","koaza":"根小屋","lat":40.122927,"lng":140.393001,"zip":"0184301"},{"town":"綴子","koaza":"糠沢上谷地","lat":40.255659,"lng":140.392835,"zip":"0183301"},{"town":"綴子","koaza":"家下モ","lat":40.247233,"lng":140.39617,"zip":"0183301"},{"town":"中屋敷","koaza":"伊勢堂山続","lat":40.182358,"lng":140.39145,"zip":"0183453"},{"town":"脇神","koaza":"下太田表","lat":40.198455,"lng":140.391515,"zip":"0183454"},{"town":"綴子","koaza":"上台","lat":40.261311,"lng":140.392397,"zip":"0183301"},{"town":"栄","koaza":"田沢古川布","lat":40.235577,"lng":140.391815,"zip":"0183302"},{"town":"栄","koaza":"古川敷","lat":40.234539,"lng":140.391242,"zip":"0183302"},{"town":"脇神","koaza":"南陣場岱","lat":40.211927,"lng":140.392172,"zip":"0183454"},{"town":"脇神","koaza":"上太田表","lat":40.197447,"lng":140.39538,"zip":"0183454"},{"town":"脇神","koaza":"藤株上岱","lat":40.209946,"lng":140.394818,"zip":"0183454"},{"town":"栄","koaza":"知子内","lat":40.238788,"lng":140.392719,"zip":"0183302"},{"town":"脇神","koaza":"高森塚ノ岱","lat":40.205814,"lng":140.396415,"zip":"0183454"},{"town":"脇神","koaza":"藤株下岱","lat":40.205044,"lng":140.392427,"zip":"0183454"},{"town":"綴子","koaza":"往還下","lat":40.257441,"lng":140.396728,"zip":"0183301"},{"town":"中屋敷","koaza":"中悪戸","lat":40.186894,"lng":140.394437,"zip":"0183453"},{"town":"綴子","koaza":"深沢","lat":40.26742,"lng":140.39804,"zip":"0183301"},{"town":"綴子","koaza":"下谷地","lat":40.25018,"lng":140.399055,"zip":"0183301"},{"town":"七日市","koaza":"横渕囲ノ内","lat":40.176353,"lng":140.397135,"zip":"0183452"},{"town":"脇神","koaza":"高森下岱","lat":40.200579,"lng":140.398743,"zip":"0183454"},{"town":"中屋敷","koaza":"脇神関下","lat":40.186541,"lng":140.39759,"zip":"0183453"},{"town":"七日市","koaza":"家後","lat":40.17712,"lng":140.399624,"zip":"0183452"},{"town":"脇神","koaza":"高森上岱","lat":40.201573,"lng":140.398996,"zip":"0183454"},{"town":"七日市","koaza":"囲ノ内","lat":40.176235,"lng":140.400123,"zip":"0183452"},{"town":"綴子","koaza":"糠沢","lat":40.256756,"lng":140.400777,"zip":"0183301"},{"town":"小森","koaza":"中太田","lat":40.193377,"lng":140.402469,"zip":"0183451"},{"town":"七日市","koaza":"前田","lat":40.185115,"lng":140.400925,"zip":"0183452"},{"town":"七日市","koaza":"根木屋敷岱","lat":40.182252,"lng":140.404662,"zip":"0183452"},{"town":"七日市","koaza":"山ノ上","lat":40.1776,"lng":140.402096,"zip":"0183452"},{"town":"小森","koaza":"館ノ内","lat":40.192129,"lng":140.403042,"zip":"0183451"},{"town":"小森","koaza":"小森","lat":40.190104,"lng":140.403585,"zip":"0183451"},{"town":"七日市","koaza":"ケン越岱","lat":40.186159,"lng":140.402118,"zip":"0183452"},{"town":"小森","koaza":"寺下","lat":40.190485,"lng":140.404213,"zip":"0183451"},{"town":"七日市","koaza":"寺山下","lat":40.178833,"lng":140.402783,"zip":"0183452"},{"town":"小森","koaza":"上野","lat":40.186049,"lng":140.405149,"zip":"0183451"},{"town":"小森","koaza":"タモノ木","lat":40.189892,"lng":140.408227,"zip":"0183451"},{"town":"七日市","koaza":"石倉岱","lat":40.176294,"lng":140.405883,"zip":"0183452"},{"town":"七日市","koaza":"田ノ沢","lat":40.179073,"lng":140.406861,"zip":"0183452"},{"town":"七日市","koaza":"中岱","lat":40.18523,"lng":140.407854,"zip":"0183452"},{"town":"小森","koaza":"下門頭","lat":40.189104,"lng":140.407215,"zip":"0183451"},{"town":"七日市","koaza":"伊勢堂岱","lat":40.177779,"lng":140.411859,"zip":"0183452"},{"town":"小森","koaza":"上門頭","lat":40.184122,"lng":140.412012,"zip":"0183451"},{"town":"小又","koaza":"下川原","lat":40.062005,"lng":140.416523,"zip":"0184513"},{"town":"小又","koaza":"小又","lat":40.059914,"lng":140.416616,"zip":"0184513"},{"town":"小又","koaza":"堂ノ下","lat":40.060251,"lng":140.417275,"zip":"0184513"}]