[{"town":"字石田六ケ村堰添","koaza":"","lat":39.949749,"lng":140.122835,"zip":"0181700"},{"town":"字稲荷前","koaza":"","lat":39.955575,"lng":140.117731,"zip":"0181700"},{"town":"字鵜ノ木","koaza":"","lat":39.943371,"lng":140.117195,"zip":"0181700"},{"town":"字上町","koaza":"","lat":39.944524,"lng":140.121663,"zip":"0181700"},{"town":"字下タ町","koaza":"","lat":39.945425,"lng":140.119615,"zip":"0181700"},{"town":"字神明前","koaza":"","lat":39.952173,"lng":140.115679,"zip":"0181700"},{"town":"字杉ケ崎","koaza":"","lat":39.953349,"lng":140.129692,"zip":"0181700"},{"town":"字兎品沢","koaza":"","lat":39.961449,"lng":140.124381,"zip":"0181700"},{"town":"字七倉","koaza":"","lat":39.946631,"lng":140.114288,"zip":"0181700"},{"town":"字羽黒前","koaza":"","lat":39.95263,"lng":140.125181,"zip":"0181700"},{"town":"内川浅見内","koaza":"","lat":39.987843,"lng":140.168779,"zip":"0181851"},{"town":"内川小倉","koaza":"","lat":39.971263,"lng":140.138855,"zip":"0181857"},{"town":"内川黒土","koaza":"","lat":39.953049,"lng":140.167513,"zip":"0181854"},{"town":"内川湯ノ又","koaza":"","lat":39.968633,"lng":140.196006,"zip":"0181852"},{"town":"浦大町","koaza":"","lat":39.967476,"lng":140.10049,"zip":"0181741"},{"town":"浦横町","koaza":"","lat":39.963459,"lng":140.099426,"zip":"0181742"},{"town":"大川石崎","koaza":"","lat":39.938358,"lng":140.091918,"zip":"0181731"},{"town":"大川大川","koaza":"","lat":39.933823,"lng":140.070669,"zip":"0181734"},{"town":"大川下樋口","koaza":"","lat":39.935582,"lng":140.085212,"zip":"0181735"},{"town":"大川西野","koaza":"","lat":39.93695,"lng":140.101932,"zip":"0181732"},{"town":"大川谷地中","koaza":"","lat":39.929552,"lng":140.097568,"zip":"0181733"},{"town":"上樋口","koaza":"","lat":39.929776,"lng":140.116048,"zip":"0181723"},{"town":"川崎","koaza":"","lat":39.945478,"lng":140.107363,"zip":"0181745"},{"town":"久保","koaza":"","lat":39.930979,"lng":140.151067,"zip":"0181712"},{"town":"小池","koaza":"","lat":39.953682,"lng":140.10552,"zip":"0181746"},{"town":"高崎","koaza":"","lat":39.938483,"lng":140.138382,"zip":"0181711"},{"town":"舘越","koaza":"","lat":39.926139,"lng":140.133687,"zip":"0181714"},{"town":"西磯ノ目一丁目","koaza":"","lat":39.943168,"lng":140.110688,"zip":"0181725"},{"town":"西磯ノ目二丁目","koaza":"","lat":39.942969,"lng":140.10784,"zip":"0181725"},{"town":"野田","koaza":"","lat":39.949446,"lng":140.098669,"zip":"0181747"},{"town":"馬場目","koaza":"","lat":39.91003,"lng":140.174533,"zip":"0181713"},{"town":"東磯ノ目一丁目","koaza":"","lat":39.944015,"lng":140.114034,"zip":"0181724"},{"town":"東磯ノ目二丁目","koaza":"","lat":39.942217,"lng":140.113922,"zip":"0181724"},{"town":"富津内下山内","koaza":"","lat":39.955295,"lng":140.142868,"zip":"0181856"},{"town":"富津内富田","koaza":"","lat":39.942295,"lng":140.160713,"zip":"0181855"},{"town":"富津内中津又","koaza":"","lat":39.953406,"lng":140.214781,"zip":"0181853"},{"town":"大川西野","koaza":"西野","lat":39.936877,"lng":140.103506,"zip":"0181732"},{"town":"大川西野","koaza":"上段田屋下","lat":39.940722,"lng":140.104118,"zip":"0181732"},{"town":"大川西野","koaza":"田屋下","lat":39.943047,"lng":140.105457,"zip":"0181732"},{"town":"川崎","koaza":"宮花","lat":39.945373,"lng":140.107609,"zip":"0181745"},{"town":"小池","koaza":"森山下","lat":39.951742,"lng":140.109196,"zip":"0181746"},{"town":"小池","koaza":"岡本下台","lat":39.94951,"lng":140.108422,"zip":"0181746"},{"town":"上樋口","koaza":"山田沢","lat":39.931965,"lng":140.118001,"zip":"0181723"},{"town":"上樋口","koaza":"屋岸","lat":39.939214,"lng":140.11616,"zip":"0181723"},{"town":"上樋口","koaza":"下川原","lat":39.940042,"lng":140.112553,"zip":"0181723"},{"town":"上樋口","koaza":"樽沢","lat":39.933702,"lng":140.118544,"zip":"0181723"},{"town":"上樋口","koaza":"切通","lat":39.935761,"lng":140.120518,"zip":"0181723"},{"town":"上樋口","koaza":"堂社","lat":39.938298,"lng":140.121523,"zip":"0181723"},{"town":"高崎","koaza":"雀舘下川原","lat":39.941085,"lng":140.124357,"zip":"0181711"},{"town":"高崎","koaza":"田中","lat":39.938973,"lng":140.128716,"zip":"0181711"},{"town":"高崎","koaza":"里下","lat":39.942963,"lng":140.128533,"zip":"0181711"},{"town":"富津内下山内","koaza":"高田","lat":39.950567,"lng":140.128803,"zip":"0181856"},{"town":"富津内下山内","koaza":"下川原","lat":39.949467,"lng":140.129393,"zip":"0181856"},{"town":"高崎","koaza":"小沼","lat":39.940137,"lng":140.130042,"zip":"0181711"},{"town":"高崎","koaza":"前田","lat":39.936643,"lng":140.132172,"zip":"0181711"},{"town":"舘越","koaza":"舘回","lat":39.931238,"lng":140.13489,"zip":"0181714"},{"town":"富津内下山内","koaza":"奈良崎","lat":39.94686,"lng":140.131027,"zip":"0181856"},{"town":"高崎","koaza":"熊野台","lat":39.93724,"lng":140.135414,"zip":"0181711"},{"town":"富津内下山内","koaza":"組田","lat":39.951333,"lng":140.136336,"zip":"0181856"},{"town":"富津内下山内","koaza":"古比屋沢","lat":39.958162,"lng":140.137061,"zip":"0181856"},{"town":"富津内下山内","koaza":"下山根","lat":39.95822,"lng":140.134738,"zip":"0181856"},{"town":"富津内下山内","koaza":"深堀","lat":39.9493,"lng":140.134681,"zip":"0181856"},{"town":"高崎","koaza":"広ケ野","lat":39.944523,"lng":140.131831,"zip":"0181711"},{"town":"久保","koaza":"上川原","lat":39.930878,"lng":140.139777,"zip":"0181712"},{"town":"高崎","koaza":"行内沢","lat":39.943331,"lng":140.139836,"zip":"0181711"},{"town":"高崎","koaza":"岡谷地","lat":39.939334,"lng":140.138344,"zip":"0181711"},{"town":"久保","koaza":"下川原","lat":39.933263,"lng":140.13696,"zip":"0181712"},{"town":"高崎","koaza":"白籏","lat":39.936596,"lng":140.139668,"zip":"0181711"},{"town":"富津内下山内","koaza":"上広ケ野","lat":39.945932,"lng":140.142341,"zip":"0181856"},{"town":"久保","koaza":"梨ノ木下","lat":39.930371,"lng":140.141782,"zip":"0181712"},{"town":"高崎","koaza":"下川原","lat":39.93926,"lng":140.132248,"zip":"0181711"},{"town":"高崎","koaza":"中泉田","lat":39.935586,"lng":140.123659,"zip":"0181711"},{"town":"上樋口","koaza":"槻ノ木","lat":39.936328,"lng":140.115683,"zip":"0181723"},{"town":"大川西野","koaza":"田屋前","lat":39.935806,"lng":140.106966,"zip":"0181732"},{"town":"上樋口","koaza":"熊野堂下","lat":39.934386,"lng":140.108311,"zip":"0181723"},{"town":"野田","koaza":"下台","lat":39.950297,"lng":140.107962,"zip":"0181747"},{"town":"富津内下山内","koaza":"谷地","lat":39.95392,"lng":140.132551,"zip":"0181856"},{"town":"高崎","koaza":"中川原","lat":39.944749,"lng":140.124196,"zip":"0181711"},{"town":"高崎","koaza":"八田","lat":39.938232,"lng":140.124916,"zip":"0181711"},{"town":"上樋口","koaza":"中川原","lat":39.938699,"lng":140.119817,"zip":"0181723"}]