[{"town":"赤沢","koaza":"","lat":39.884129,"lng":140.121649,"zip":"0181525"},{"town":"井内","koaza":"","lat":39.875283,"lng":140.176887,"zip":"0181527"},{"town":"今戸","koaza":"","lat":39.922807,"lng":140.061427,"zip":"0181511"},{"town":"宇治木","koaza":"","lat":39.914902,"lng":140.120661,"zip":"0181514"},{"town":"大麦","koaza":"","lat":39.898737,"lng":140.138747,"zip":"0181524"},{"town":"北川尻","koaza":"","lat":39.919424,"lng":140.090802,"zip":"0181512"},{"town":"黒坪","koaza":"","lat":39.921135,"lng":140.109196,"zip":"0181513"},{"town":"小竹花","koaza":"","lat":39.908676,"lng":140.087765,"zip":"0181515"},{"town":"坂本","koaza":"","lat":39.899615,"lng":140.106292,"zip":"0181523"},{"town":"寺沢","koaza":"","lat":39.897509,"lng":140.123767,"zip":"0181526"},{"town":"葹田","koaza":"","lat":39.905554,"lng":140.124745,"zip":"0181528"},{"town":"八田大倉","koaza":"","lat":39.904807,"lng":140.111158,"zip":"0181521"},{"town":"浜井川","koaza":"","lat":39.907236,"lng":140.062176,"zip":"0181516"},{"town":"保野子","koaza":"","lat":39.912787,"lng":140.101713,"zip":"0181522"}]