[{"town":"青葉町","koaza":"","lat":40.261354,"lng":140.559336,"zip":"0170831"},{"town":"赤石","koaza":"","lat":40.259348,"lng":140.500762,"zip":"0170854"},{"town":"赤館町","koaza":"","lat":40.270789,"lng":140.571417,"zip":"0170814"},{"town":"商人留","koaza":"","lat":40.314382,"lng":140.589438,"zip":"0170011"},{"town":"字相染沢中岱","koaza":"","lat":40.266429,"lng":140.568968,"zip":"0170000"},{"town":"字赤館","koaza":"","lat":40.271739,"lng":140.5685,"zip":"0170000"},{"town":"字池内道上","koaza":"","lat":40.258705,"lng":140.562243,"zip":"0170000"},{"town":"字池内道下","koaza":"","lat":40.263952,"lng":140.565773,"zip":"0170000"},{"town":"字板子石境","koaza":"","lat":40.288902,"lng":140.562429,"zip":"0170000"},{"town":"字一心院南","koaza":"","lat":40.265328,"lng":140.560573,"zip":"0170000"},{"town":"字一本杉","koaza":"","lat":40.277391,"lng":140.58671,"zip":"0170000"},{"town":"字裏町","koaza":"","lat":40.270112,"lng":140.562663,"zip":"0170000"},{"town":"字上町","koaza":"","lat":40.27261,"lng":140.56777,"zip":"0170000"},{"town":"字扇田道下","koaza":"","lat":40.264255,"lng":140.571078,"zip":"0170000"},{"town":"字大田面","koaza":"","lat":40.286215,"lng":140.576625,"zip":"0170000"},{"town":"字大館","koaza":"","lat":40.271915,"lng":140.557471,"zip":"0170000"},{"town":"字大町","koaza":"","lat":40.270653,"lng":140.558802,"zip":"0170000"},{"town":"字片町","koaza":"","lat":40.270613,"lng":140.564498,"zip":"0170000"},{"town":"字金坂","koaza":"","lat":40.273005,"lng":140.570419,"zip":"0170000"},{"town":"字金坂後","koaza":"","lat":40.27272,"lng":140.573021,"zip":"0170000"},{"town":"字観音堂","koaza":"","lat":40.281692,"lng":140.578639,"zip":"0170000"},{"town":"字桂城","koaza":"","lat":40.271194,"lng":140.562978,"zip":"0170000"},{"town":"字小釈迦内道上","koaza":"","lat":40.296228,"lng":140.581204,"zip":"0170000"},{"town":"字小釈迦内道下","koaza":"","lat":40.292982,"lng":140.566423,"zip":"0170000"},{"town":"字桜町","koaza":"","lat":40.269166,"lng":140.564932,"zip":"0170000"},{"town":"字桜町南","koaza":"","lat":40.267798,"lng":140.565697,"zip":"0170000"},{"town":"字三ノ丸","koaza":"","lat":40.273552,"lng":140.562818,"zip":"0170000"},{"town":"字下綱","koaza":"","lat":40.288508,"lng":140.586572,"zip":"0170000"},{"town":"字新町","koaza":"","lat":40.268121,"lng":140.559474,"zip":"0170000"},{"town":"字水門前","koaza":"","lat":40.276453,"lng":140.559196,"zip":"0170000"},{"town":"字象ケ鼻","koaza":"","lat":40.2612,"lng":140.565759,"zip":"0170000"},{"town":"字代野","koaza":"","lat":40.288444,"lng":140.571641,"zip":"0170000"},{"town":"字館下","koaza":"","lat":40.276738,"lng":140.548448,"zip":"0170000"},{"town":"字鉄砲場","koaza":"","lat":40.275941,"lng":140.571252,"zip":"0170000"},{"town":"字土飛山下","koaza":"","lat":40.273927,"lng":140.557299,"zip":"0170000"},{"town":"字長木川南","koaza":"","lat":40.276172,"lng":140.563837,"zip":"0170000"},{"town":"字長倉","koaza":"","lat":40.27249,"lng":140.560022,"zip":"0170000"},{"town":"字中城","koaza":"","lat":40.272129,"lng":140.565296,"zip":"0170000"},{"town":"字長根山下","koaza":"","lat":40.273443,"lng":140.586238,"zip":"0170000"},{"town":"字中町","koaza":"","lat":40.2697,"lng":140.560398,"zip":"0170000"},{"town":"字七曲岱","koaza":"","lat":40.262488,"lng":140.561062,"zip":"0170000"},{"town":"字新綱","koaza":"","lat":40.291079,"lng":140.584388,"zip":"0170000"},{"town":"字二本杉後","koaza":"","lat":40.2869,"lng":140.562817,"zip":"0170000"},{"town":"字沼館道上","koaza":"","lat":40.284639,"lng":140.542391,"zip":"0170000"},{"town":"字沼館道南","koaza":"","lat":40.283093,"lng":140.542019,"zip":"0170000"},{"town":"字馬喰町","koaza":"","lat":40.270744,"lng":140.560774,"zip":"0170000"},{"town":"字八幡","koaza":"","lat":40.273799,"lng":140.57038,"zip":"0170000"},{"town":"字八幡沢岱","koaza":"","lat":40.263779,"lng":140.562688,"zip":"0170000"},{"town":"字東台","koaza":"","lat":40.273383,"lng":140.584571,"zip":"0170000"},{"town":"字二ツ屋境","koaza":"","lat":40.284166,"lng":140.587853,"zip":"0170000"},{"town":"字古川町","koaza":"","lat":40.273711,"lng":140.566384,"zip":"0170000"},{"town":"字部垂町","koaza":"","lat":40.270419,"lng":140.56717,"zip":"0170000"},{"town":"字松館","koaza":"","lat":40.287349,"lng":140.547892,"zip":"0170000"},{"town":"字向町","koaza":"","lat":40.269135,"lng":140.562627,"zip":"0170000"},{"town":"字谷地町","koaza":"","lat":40.267958,"lng":140.562404,"zip":"0170000"},{"town":"字谷地町後","koaza":"","lat":40.266507,"lng":140.562604,"zip":"0170000"},{"town":"芦田子","koaza":"","lat":40.308599,"lng":140.604067,"zip":"0170025"},{"town":"東","koaza":"","lat":40.277309,"lng":140.599875,"zip":"0170023"},{"town":"有浦一丁目","koaza":"","lat":40.285326,"lng":140.564667,"zip":"0170043"},{"town":"有浦二丁目","koaza":"","lat":40.282152,"lng":140.564387,"zip":"0170043"},{"town":"有浦三丁目","koaza":"","lat":40.279697,"lng":140.564432,"zip":"0170043"},{"town":"有浦四丁目","koaza":"","lat":40.285602,"lng":140.56897,"zip":"0170043"},{"town":"有浦五丁目","koaza":"","lat":40.282272,"lng":140.568838,"zip":"0170043"},{"town":"有浦六丁目","koaza":"","lat":40.279459,"lng":140.568716,"zip":"0170043"},{"town":"池内","koaza":"","lat":40.248085,"lng":140.565544,"zip":"0170836"},{"town":"泉町","koaza":"","lat":40.264093,"lng":140.558316,"zip":"0170845"},{"town":"板沢","koaza":"","lat":40.2619,"lng":140.487675,"zip":"0170853"},{"town":"出川","koaza":"","lat":40.247221,"lng":140.512205,"zip":"0170857"},{"town":"岩瀬","koaza":"","lat":40.364758,"lng":140.488341,"zip":"0183501"},{"town":"餌釣","koaza":"","lat":40.256342,"lng":140.598131,"zip":"0170837"},{"town":"大茂内","koaza":"","lat":40.325744,"lng":140.623777,"zip":"0170024"},{"town":"大子内","koaza":"","lat":40.227511,"lng":140.479934,"zip":"0185754"},{"town":"大披","koaza":"","lat":40.241478,"lng":140.489977,"zip":"0170851"},{"town":"御成町一丁目","koaza":"","lat":40.287545,"lng":140.558441,"zip":"0170044"},{"town":"御成町二丁目","koaza":"","lat":40.285002,"lng":140.559798,"zip":"0170044"},{"town":"御成町三丁目","koaza":"","lat":40.281987,"lng":140.560451,"zip":"0170044"},{"town":"御成町四丁目","koaza":"","lat":40.279062,"lng":140.56065,"zip":"0170044"},{"town":"粕田","koaza":"","lat":40.365826,"lng":140.573098,"zip":"0170004"},{"town":"片山","koaza":"","lat":40.279744,"lng":140.539486,"zip":"0170871"},{"town":"片山町一丁目","koaza":"","lat":40.273892,"lng":140.547526,"zip":"0170872"},{"town":"片山町二丁目","koaza":"","lat":40.274987,"lng":140.541832,"zip":"0170872"},{"town":"片山町三丁目","koaza":"","lat":40.275955,"lng":140.532985,"zip":"0170872"},{"town":"上代野","koaza":"","lat":40.292289,"lng":140.590004,"zip":"0170031"},{"town":"柄沢","koaza":"","lat":40.262771,"lng":140.58608,"zip":"0170804"},{"town":"軽井沢","koaza":"","lat":40.228017,"lng":140.654337,"zip":"0185604"},{"town":"川口","koaza":"","lat":40.282805,"lng":140.489737,"zip":"0170878"},{"town":"北神明町","koaza":"","lat":40.26737,"lng":140.549416,"zip":"0170866"},{"town":"葛原","koaza":"","lat":40.24265,"lng":140.705172,"zip":"0185606"},{"town":"小館町","koaza":"","lat":40.262675,"lng":140.554302,"zip":"0170861"},{"town":"小館花","koaza":"","lat":40.257243,"lng":140.556413,"zip":"0170835"},{"town":"小袴","koaza":"","lat":40.257021,"lng":140.479389,"zip":"0170852"},{"town":"幸町","koaza":"","lat":40.270526,"lng":140.554228,"zip":"0170847"},{"town":"猿間","koaza":"","lat":40.239344,"lng":140.667226,"zip":"0185605"},{"town":"茂内","koaza":"","lat":40.301992,"lng":140.621997,"zip":"0170022"},{"town":"下川原","koaza":"","lat":40.240626,"lng":140.529016,"zip":"0185756"},{"town":"清水一丁目","koaza":"","lat":40.285414,"lng":140.552285,"zip":"0170046"},{"town":"清水二丁目","koaza":"","lat":40.281782,"lng":140.552778,"zip":"0170046"},{"town":"清水三丁目","koaza":"","lat":40.279347,"lng":140.552716,"zip":"0170046"},{"town":"清水四丁目","koaza":"","lat":40.285057,"lng":140.546824,"zip":"0170046"},{"town":"清水五丁目","koaza":"","lat":40.281741,"lng":140.547823,"zip":"0170046"},{"town":"下代野","koaza":"","lat":40.292075,"lng":140.580026,"zip":"0170034"},{"town":"釈迦内","koaza":"","lat":40.312165,"lng":140.567487,"zip":"0170012"},{"town":"十二所","koaza":"","lat":40.192689,"lng":140.676835,"zip":"0185601"},{"town":"城西町","koaza":"","lat":40.269824,"lng":140.543825,"zip":"0170865"},{"town":"白沢","koaza":"","lat":40.346626,"lng":140.602426,"zip":"0170002"},{"town":"水門町","koaza":"","lat":40.27637,"lng":140.553451,"zip":"0170887"},{"town":"杉沢","koaza":"","lat":40.221132,"lng":140.496921,"zip":"0185755"},{"town":"住吉町","koaza":"","lat":40.272377,"lng":140.541778,"zip":"0170875"},{"town":"外川原","koaza":"","lat":40.255604,"lng":140.460063,"zip":"0183503"},{"town":"立花","koaza":"","lat":40.272868,"lng":140.503683,"zip":"0170877"},{"town":"道目木","koaza":"","lat":40.204426,"lng":140.631832,"zip":"0185602"},{"town":"常盤木町","koaza":"","lat":40.267711,"lng":140.556227,"zip":"0170846"},{"town":"長坂","koaza":"","lat":40.266911,"lng":140.424837,"zip":"0183504"},{"town":"中神明町","koaza":"","lat":40.265646,"lng":140.549728,"zip":"0170867"},{"town":"長走","koaza":"","lat":40.400799,"lng":140.601407,"zip":"0170001"},{"town":"中道一丁目","koaza":"","lat":40.285292,"lng":140.555879,"zip":"0170045"},{"town":"中道二丁目","koaza":"","lat":40.282159,"lng":140.556528,"zip":"0170045"},{"town":"中道三丁目","koaza":"","lat":40.27928,"lng":140.556003,"zip":"0170045"},{"town":"中山","koaza":"","lat":40.235935,"lng":140.621238,"zip":"0170839"},{"town":"二井田","koaza":"","lat":40.241642,"lng":140.553797,"zip":"0185751"},{"town":"沼館","koaza":"","lat":40.29306,"lng":140.527016,"zip":"0170055"},{"town":"根下戸","koaza":"","lat":40.263829,"lng":140.538276,"zip":"0170862"},{"town":"根下戸新町","koaza":"","lat":40.27207,"lng":140.533221,"zip":"0170864"},{"town":"根下戸町","koaza":"","lat":40.269528,"lng":140.539321,"zip":"0170863"},{"town":"橋桁","koaza":"","lat":40.324211,"lng":140.58973,"zip":"0170003"},{"town":"花岡町","koaza":"","lat":40.344342,"lng":140.550275,"zip":"0170005"},{"town":"早口","koaza":"","lat":40.378201,"lng":140.391184,"zip":"0183505"},{"town":"東台一丁目","koaza":"","lat":40.268021,"lng":140.572837,"zip":"0170803"},{"town":"東台二丁目","koaza":"","lat":40.269336,"lng":140.574794,"zip":"0170803"},{"town":"東台三丁目","koaza":"","lat":40.265092,"lng":140.575006,"zip":"0170803"},{"town":"東台四丁目","koaza":"","lat":40.273934,"lng":140.575899,"zip":"0170803"},{"town":"東台五丁目","koaza":"","lat":40.26894,"lng":140.577663,"zip":"0170803"},{"town":"東台六丁目","koaza":"","lat":40.274625,"lng":140.580843,"zip":"0170803"},{"town":"東台七丁目","koaza":"","lat":40.270116,"lng":140.580756,"zip":"0170803"},{"town":"櫃崎","koaza":"","lat":40.260753,"lng":140.518746,"zip":"0170855"},{"town":"比内前田","koaza":"","lat":40.217009,"lng":140.510336,"zip":"0185753"},{"town":"比内町扇田","koaza":"","lat":40.220853,"lng":140.591879,"zip":"0185701"},{"town":"比内町大葛","koaza":"","lat":40.104178,"lng":140.657471,"zip":"0185851"},{"town":"比内町小坪沢","koaza":"","lat":40.172181,"lng":140.507907,"zip":"0185743"},{"town":"比内町片貝","koaza":"","lat":40.218868,"lng":140.554019,"zip":"0185745"},{"town":"比内町笹館","koaza":"","lat":40.202264,"lng":140.564633,"zip":"0185731"},{"town":"比内町白沢水沢","koaza":"","lat":40.173734,"lng":140.534246,"zip":"0185742"},{"town":"比内町達子","koaza":"","lat":40.213157,"lng":140.572011,"zip":"0185741"},{"town":"比内町独鈷","koaza":"","lat":40.174523,"lng":140.630667,"zip":"0185721"},{"town":"比内町中野","koaza":"","lat":40.158737,"lng":140.598516,"zip":"0185722"},{"town":"比内町新館","koaza":"","lat":40.204732,"lng":140.592068,"zip":"0185712"},{"town":"比内町味噌内","koaza":"","lat":40.194022,"lng":140.631342,"zip":"0185711"},{"town":"比内町八木橋","koaza":"","lat":40.20713,"lng":140.526588,"zip":"0185744"},{"town":"比内町谷地中","koaza":"","lat":40.164996,"lng":140.55549,"zip":"0185732"},{"town":"曲田","koaza":"","lat":40.225812,"lng":140.624485,"zip":"0185603"},{"town":"松木","koaza":"","lat":40.29496,"lng":140.54766,"zip":"0170052"},{"town":"松峰","koaza":"","lat":40.307404,"lng":140.551987,"zip":"0170051"},{"town":"御坂町","koaza":"","lat":40.270296,"lng":140.550167,"zip":"0170000"},{"town":"美園町","koaza":"","lat":40.270294,"lng":140.546357,"zip":"0170874"},{"town":"南神明町","koaza":"","lat":40.265125,"lng":140.55322,"zip":"0170868"},{"town":"餅田","koaza":"","lat":40.274524,"lng":140.516749,"zip":"0170876"},{"town":"餅田一丁目","koaza":"","lat":40.276938,"lng":140.523527,"zip":"0170876"},{"town":"餅田二丁目","koaza":"","lat":40.273288,"lng":140.522393,"zip":"0170876"},{"town":"本宮","koaza":"","lat":40.234931,"lng":140.519363,"zip":"0185752"},{"town":"山田","koaza":"","lat":40.312277,"lng":140.500971,"zip":"0183502"},{"town":"山館","koaza":"","lat":40.2492,"lng":140.608861,"zip":"0170838"},{"town":"雪沢","koaza":"","lat":40.332633,"lng":140.678249,"zip":"0170021"},{"town":"豊町","koaza":"","lat":40.273279,"lng":140.553434,"zip":"0170885"},{"town":"川口","koaza":"大道下","lat":40.27225,"lng":140.468775,"zip":"0170878"},{"town":"川口","koaza":"横岩岱","lat":40.270028,"lng":140.471558,"zip":"0170878"},{"town":"岩瀬","koaza":"大柳","lat":40.274529,"lng":140.47143,"zip":"0183501"},{"town":"川口","koaza":"大人沢","lat":40.275934,"lng":140.473067,"zip":"0170878"},{"town":"川口","koaza":"上野","lat":40.275666,"lng":140.47734,"zip":"0170878"},{"town":"川口","koaza":"長里","lat":40.278105,"lng":140.486445,"zip":"0170878"},{"town":"川口","koaza":"下山田沢","lat":40.276794,"lng":140.482666,"zip":"0170878"},{"town":"板沢","koaza":"屋布","lat":40.260831,"lng":140.489262,"zip":"0170853"},{"town":"小袴","koaza":"小袴","lat":40.253344,"lng":140.489213,"zip":"0170852"},{"town":"川口","koaza":"稲荷堂岱","lat":40.275741,"lng":140.491444,"zip":"0170878"},{"town":"川口","koaza":"深沢岱","lat":40.279734,"lng":140.492217,"zip":"0170878"},{"town":"川口","koaza":"隼人岱","lat":40.277826,"lng":140.497914,"zip":"0170878"},{"town":"出川","koaza":"林ノ岱","lat":40.248374,"lng":140.497491,"zip":"0170857"},{"town":"赤石","koaza":"大道添","lat":40.254416,"lng":140.498785,"zip":"0170854"},{"town":"赤石","koaza":"下タ野","lat":40.253562,"lng":140.497791,"zip":"0170854"},{"town":"大子内","koaza":"林ノ上","lat":40.237711,"lng":140.498959,"zip":"0185754"},{"town":"赤石","koaza":"塚ノ岱","lat":40.25534,"lng":140.499132,"zip":"0170854"},{"town":"川口","koaza":"洞バミ","lat":40.281087,"lng":140.500372,"zip":"0170878"},{"town":"出川","koaza":"上沢岱","lat":40.248324,"lng":140.507425,"zip":"0170857"},{"town":"立花","koaza":"塚ノ下","lat":40.276862,"lng":140.502549,"zip":"0170877"},{"town":"大子内","koaza":"八幡下","lat":40.236129,"lng":140.504424,"zip":"0185754"},{"town":"立花","koaza":"塚ノ台","lat":40.279876,"lng":140.502446,"zip":"0170877"},{"town":"杉沢","koaza":"屋布","lat":40.230674,"lng":140.508498,"zip":"0185755"},{"town":"赤石","koaza":"伊勢堂岱","lat":40.255115,"lng":140.508071,"zip":"0170854"},{"town":"杉沢","koaza":"姥沢出口","lat":40.227435,"lng":140.505563,"zip":"0185755"},{"town":"川口","koaza":"十三森","lat":40.276201,"lng":140.504288,"zip":"0170878"},{"town":"赤石","koaza":"堤沢岱","lat":40.256234,"lng":140.504165,"zip":"0170854"},{"town":"櫃崎","koaza":"高戸屋宅地","lat":40.259812,"lng":140.506142,"zip":"0170855"},{"town":"大子内","koaza":"三ツ梨","lat":40.234068,"lng":140.50511,"zip":"0185754"},{"town":"出川","koaza":"下沢岱","lat":40.250738,"lng":140.505499,"zip":"0170857"},{"town":"出川","koaza":"下屋布岱","lat":40.247623,"lng":140.50953,"zip":"0170857"},{"town":"餅田","koaza":"向田","lat":40.277158,"lng":140.513611,"zip":"0170876"},{"town":"櫃崎","koaza":"沢端","lat":40.257137,"lng":140.50946,"zip":"0170855"},{"town":"櫃崎","koaza":"淀市","lat":40.257925,"lng":140.511677,"zip":"0170855"},{"town":"比内前田","koaza":"下前田","lat":40.230377,"lng":140.508844,"zip":"0185753"},{"town":"本宮","koaza":"下モ野","lat":40.238187,"lng":140.515619,"zip":"0185752"},{"town":"出川","koaza":"上野","lat":40.25131,"lng":140.512117,"zip":"0170857"},{"town":"比内前田","koaza":"前田","lat":40.226641,"lng":140.516205,"zip":"0185753"},{"town":"立花","koaza":"山田渡","lat":40.272788,"lng":140.514552,"zip":"0170877"},{"town":"出川","koaza":"上屋布岱","lat":40.245129,"lng":140.516817,"zip":"0170857"},{"town":"川口","koaza":"下赤石沢","lat":40.281323,"lng":140.51358,"zip":"0170878"},{"town":"櫃崎","koaza":"大堀宅地","lat":40.259493,"lng":140.51556,"zip":"0170855"},{"town":"本宮","koaza":"館下","lat":40.233077,"lng":140.516091,"zip":"0185752"},{"town":"櫃崎","koaza":"出川道上","lat":40.25418,"lng":140.516405,"zip":"0170855"},{"town":"餅田","koaza":"前田","lat":40.274322,"lng":140.516876,"zip":"0170876"},{"town":"比内前田","koaza":"下横道","lat":40.224597,"lng":140.516362,"zip":"0185753"},{"town":"比内前田","koaza":"平馬下段","lat":40.223927,"lng":140.518067,"zip":"0185753"},{"town":"比内前田","koaza":"東前田","lat":40.226218,"lng":140.518055,"zip":"0185753"},{"town":"出川","koaza":"新田","lat":40.245505,"lng":140.519802,"zip":"0170857"},{"town":"本宮","koaza":"熊ノ下","lat":40.231172,"lng":140.521497,"zip":"0185752"},{"town":"櫃崎","koaza":"家の下","lat":40.262213,"lng":140.519694,"zip":"0170855"},{"town":"櫃崎","koaza":"館宅地","lat":40.262135,"lng":140.520672,"zip":"0170855"},{"town":"櫃崎","koaza":"上宅地","lat":40.258968,"lng":140.518993,"zip":"0170855"},{"town":"二井田","koaza":"小石台","lat":40.248236,"lng":140.526921,"zip":"0185751"},{"town":"本宮","koaza":"加藤坂","lat":40.230141,"lng":140.52315,"zip":"0185752"},{"town":"下川原","koaza":"向野","lat":40.244053,"lng":140.525016,"zip":"0185756"},{"town":"本宮","koaza":"外田","lat":40.228041,"lng":140.526222,"zip":"0185752"},{"town":"二井田","koaza":"下モ四羽出","lat":40.258051,"lng":140.530447,"zip":"0185751"},{"town":"二井田","koaza":"上四羽出","lat":40.253602,"lng":140.533305,"zip":"0185751"},{"town":"下川原","koaza":"上野","lat":40.24189,"lng":140.534503,"zip":"0185756"},{"town":"本宮","koaza":"上ミ野","lat":40.232916,"lng":140.533516,"zip":"0185752"},{"town":"二井田","koaza":"中台","lat":40.238148,"lng":140.539335,"zip":"0185751"},{"town":"沼館","koaza":"小坪台","lat":40.287581,"lng":140.534722,"zip":"0170055"},{"town":"片山","koaza":"天神","lat":40.278528,"lng":140.535623,"zip":"0170871"},{"town":"根下戸","koaza":"下袋家後","lat":40.26264,"lng":140.538059,"zip":"0170862"},{"town":"沼館","koaza":"神館","lat":40.287463,"lng":140.537002,"zip":"0170055"},{"town":"根下戸","koaza":"下袋","lat":40.26338,"lng":140.541272,"zip":"0170862"},{"town":"沼館","koaza":"藤蕪","lat":40.285017,"lng":140.539568,"zip":"0170055"},{"town":"沼館","koaza":"神田表","lat":40.287305,"lng":140.539513,"zip":"0170055"},{"town":"片山","koaza":"八坂","lat":40.277088,"lng":140.545333,"zip":"0170871"},{"town":"二井田","koaza":"陣下","lat":40.237678,"lng":140.545835,"zip":"0185751"},{"town":"二井田","koaza":"前田野","lat":40.228268,"lng":140.549186,"zip":"0185751"},{"town":"二井田","koaza":"杉苗出","lat":40.245455,"lng":140.543991,"zip":"0185751"},{"town":"根下戸","koaza":"小館花尻","lat":40.262815,"lng":140.546096,"zip":"0170862"},{"town":"二井田","koaza":"菖蒲沼","lat":40.240281,"lng":140.544718,"zip":"0185751"},{"town":"二井田","koaza":"高村","lat":40.240099,"lng":140.548003,"zip":"0185751"},{"town":"片山","koaza":"中通","lat":40.279566,"lng":140.546108,"zip":"0170871"},{"town":"松木","koaza":"松木","lat":40.296329,"lng":140.545062,"zip":"0170052"},{"town":"松木","koaza":"下袋","lat":40.292491,"lng":140.546672,"zip":"0170052"},{"town":"二井田","koaza":"中前田","lat":40.23635,"lng":140.551646,"zip":"0185751"},{"town":"二井田","koaza":"寺後","lat":40.244387,"lng":140.54696,"zip":"0185751"},{"town":"松木","koaza":"伊勢堂下","lat":40.297288,"lng":140.547862,"zip":"0170052"},{"town":"松木","koaza":"石神","lat":40.292672,"lng":140.549107,"zip":"0170052"},{"town":"松木","koaza":"清水","lat":40.28985,"lng":140.548378,"zip":"0170052"},{"town":"花岡町","koaza":"堤沢","lat":40.319969,"lng":140.54849,"zip":"0170005"},{"town":"花岡町","koaza":"姥沢","lat":40.322121,"lng":140.548551,"zip":"0170005"},{"town":"松峰","koaza":"西松峰","lat":40.306302,"lng":140.549825,"zip":"0170051"},{"town":"花岡町","koaza":"前田","lat":40.324446,"lng":140.551275,"zip":"0170005"},{"town":"松木","koaza":"大上","lat":40.290629,"lng":140.554229,"zip":"0170052"},{"town":"花岡町","koaza":"アセ石","lat":40.316909,"lng":140.551931,"zip":"0170005"},{"town":"二井田","koaza":"村下","lat":40.240286,"lng":140.552502,"zip":"0185751"},{"town":"比内町片貝","koaza":"伊勢堂袋","lat":40.219321,"lng":140.554608,"zip":"0185745"},{"town":"二井田","koaza":"贄ノ里","lat":40.237991,"lng":140.554264,"zip":"0185751"},{"town":"釈迦内","koaza":"上清水","lat":40.292966,"lng":140.555989,"zip":"0170012"},{"town":"釈迦内","koaza":"高館下","lat":40.300283,"lng":140.553742,"zip":"0170012"},{"town":"釈迦内","koaza":"下清水","lat":40.2938,"lng":140.554684,"zip":"0170012"},{"town":"花岡町","koaza":"根井下","lat":40.332121,"lng":140.555559,"zip":"0170005"},{"town":"花岡町","koaza":"小坪川","lat":40.339089,"lng":140.555832,"zip":"0170005"},{"town":"二井田","koaza":"上前田","lat":40.231747,"lng":140.554528,"zip":"0185751"},{"town":"花岡町","koaza":"繋沢","lat":40.348752,"lng":140.551892,"zip":"0170005"},{"town":"二井田","koaza":"大館道下","lat":40.241497,"lng":140.557996,"zip":"0185751"},{"town":"釈迦内","koaza":"四方石","lat":40.297963,"lng":140.556597,"zip":"0170012"},{"town":"小館花","koaza":"古館下","lat":40.261729,"lng":140.552752,"zip":"0170835"},{"town":"釈迦内","koaza":"街道端","lat":40.296387,"lng":140.556125,"zip":"0170012"},{"town":"花岡町","koaza":"土目内","lat":40.349098,"lng":140.555429,"zip":"0170005"},{"town":"釈迦内","koaza":"下大留","lat":40.301944,"lng":140.557061,"zip":"0170012"},{"town":"比内町片貝","koaza":"伊勢堂北","lat":40.221596,"lng":140.557163,"zip":"0185745"},{"town":"釈迦内","koaza":"桜下","lat":40.300914,"lng":140.556698,"zip":"0170012"},{"town":"比内町片貝","koaza":"伊勢堂東","lat":40.217083,"lng":140.561031,"zip":"0185745"},{"town":"釈迦内","koaza":"上大留","lat":40.304558,"lng":140.559358,"zip":"0170012"},{"town":"釈迦内","koaza":"長袋","lat":40.291558,"lng":140.55669,"zip":"0170012"},{"town":"比内町笹館","koaza":"熊ノ下","lat":40.213332,"lng":140.558451,"zip":"0185731"},{"town":"花岡町","koaza":"鳥内","lat":40.330154,"lng":140.558462,"zip":"0170005"},{"town":"二井田","koaza":"上出向","lat":40.235708,"lng":140.558172,"zip":"0185751"},{"town":"釈迦内","koaza":"土肥","lat":40.30094,"lng":140.560323,"zip":"0170012"},{"town":"釈迦内","koaza":"稲荷山下","lat":40.297021,"lng":140.561584,"zip":"0170012"},{"town":"二井田","koaza":"背中町","lat":40.23964,"lng":140.559228,"zip":"0185751"},{"town":"釈迦内","koaza":"釈迦内","lat":40.304257,"lng":140.561332,"zip":"0170012"},{"town":"比内町笹館","koaza":"前田野","lat":40.213125,"lng":140.56189,"zip":"0185731"},{"town":"釈迦内","koaza":"塚ノ台","lat":40.292775,"lng":140.558355,"zip":"0170012"},{"town":"釈迦内","koaza":"街道上","lat":40.292322,"lng":140.56184,"zip":"0170012"},{"town":"比内町笹館","koaza":"水無","lat":40.208376,"lng":140.564542,"zip":"0185731"},{"town":"花岡町","koaza":"大森野","lat":40.332886,"lng":140.561842,"zip":"0170005"},{"town":"比内町笹館","koaza":"小森山","lat":40.215877,"lng":140.561592,"zip":"0185731"},{"town":"二井田","koaza":"羽貫谷地","lat":40.227774,"lng":140.557363,"zip":"0185751"},{"town":"釈迦内","koaza":"館","lat":40.299947,"lng":140.5633,"zip":"0170012"},{"town":"池内","koaza":"砂袋岱","lat":40.248879,"lng":140.565969,"zip":"0170836"},{"town":"釈迦内","koaza":"身ノ肌","lat":40.317206,"lng":140.56639,"zip":"0170012"},{"town":"池内","koaza":"田中","lat":40.253714,"lng":140.565139,"zip":"0170836"},{"town":"比内町扇田","koaza":"荒又才川附","lat":40.232647,"lng":140.564237,"zip":"0185701"},{"town":"釈迦内","koaza":"台野下","lat":40.303645,"lng":140.56606,"zip":"0170012"},{"town":"釈迦内","koaza":"家下","lat":40.304734,"lng":140.565623,"zip":"0170012"},{"town":"比内町達子","koaza":"前田野","lat":40.219496,"lng":140.565008,"zip":"0185741"},{"town":"釈迦内","koaza":"山神社後","lat":40.29283,"lng":140.565175,"zip":"0170012"},{"town":"釈迦内","koaza":"相染台","lat":40.309859,"lng":140.566033,"zip":"0170012"},{"town":"下代野","koaza":"代野道北","lat":40.288896,"lng":140.568124,"zip":"0170034"},{"town":"花岡町","koaza":"大森上岱","lat":40.335917,"lng":140.567729,"zip":"0170005"},{"town":"柄沢","koaza":"狐台","lat":40.258373,"lng":140.570381,"zip":"0170804"},{"town":"釈迦内","koaza":"山神台","lat":40.309228,"lng":140.569812,"zip":"0170012"},{"town":"池内","koaza":"上野","lat":40.256219,"lng":140.571427,"zip":"0170836"},{"town":"釈迦内","koaza":"長面","lat":40.319125,"lng":140.566628,"zip":"0170012"},{"town":"比内町達子","koaza":"中台","lat":40.223162,"lng":140.568047,"zip":"0185741"},{"town":"比内町達子","koaza":"風袋","lat":40.220033,"lng":140.567506,"zip":"0185741"},{"town":"釈迦内","koaza":"台野道下","lat":40.298871,"lng":140.571204,"zip":"0170012"},{"town":"池内","koaza":"中台","lat":40.248098,"lng":140.569527,"zip":"0170836"},{"town":"釈迦内","koaza":"萩長森下","lat":40.312572,"lng":140.568473,"zip":"0170012"},{"town":"釈迦内","koaza":"長田","lat":40.326885,"lng":140.568826,"zip":"0170012"},{"town":"粕田","koaza":"村西","lat":40.334627,"lng":140.571097,"zip":"0170004"},{"town":"釈迦内","koaza":"二ツ森","lat":40.314967,"lng":140.570837,"zip":"0170012"},{"town":"釈迦内","koaza":"村東","lat":40.32174,"lng":140.568328,"zip":"0170012"},{"town":"比内町扇田","koaza":"荒又","lat":40.232457,"lng":140.567448,"zip":"0185701"},{"town":"餌釣","koaza":"山王下","lat":40.253865,"lng":140.569864,"zip":"0170837"},{"town":"釈迦内","koaza":"堤下","lat":40.29727,"lng":140.56755,"zip":"0170012"},{"town":"釈迦内","koaza":"山道上","lat":40.296711,"lng":140.575863,"zip":"0170012"},{"town":"釈迦内","koaza":"長面袋","lat":40.327674,"lng":140.5702,"zip":"0170012"},{"town":"比内町扇田","koaza":"中島本道端","lat":40.231174,"lng":140.571764,"zip":"0185701"},{"town":"釈迦内","koaza":"屋布表","lat":40.328367,"lng":140.572014,"zip":"0170012"},{"town":"比内町達子","koaza":"雷","lat":40.216564,"lng":140.571134,"zip":"0185741"},{"town":"釈迦内","koaza":"中台","lat":40.309036,"lng":140.571185,"zip":"0170012"},{"town":"粕田","koaza":"粕田","lat":40.334365,"lng":140.575046,"zip":"0170004"},{"town":"下代野","koaza":"下代野","lat":40.290147,"lng":140.572504,"zip":"0170034"},{"town":"柄沢","koaza":"長橋","lat":40.260409,"lng":140.570156,"zip":"0170804"},{"town":"餌釣","koaza":"前田","lat":40.246409,"lng":140.575079,"zip":"0170837"},{"town":"粕田","koaza":"村北","lat":40.338841,"lng":140.574,"zip":"0170004"},{"town":"池内","koaza":"大出","lat":40.242121,"lng":140.574043,"zip":"0170836"},{"town":"餌釣","koaza":"山王岱","lat":40.253922,"lng":140.578721,"zip":"0170837"},{"town":"比内町達子","koaza":"風呂添","lat":40.21497,"lng":140.57374,"zip":"0185741"},{"town":"釈迦内","koaza":"台野道上","lat":40.300696,"lng":140.572086,"zip":"0170012"},{"town":"比内町達子","koaza":"釣田前","lat":40.21763,"lng":140.573214,"zip":"0185741"},{"town":"比内町扇田","koaza":"中島才川附","lat":40.228099,"lng":140.571861,"zip":"0185701"},{"town":"山館","koaza":"田尻","lat":40.237432,"lng":140.578404,"zip":"0170838"},{"town":"橋桁","koaza":"橋桁","lat":40.326732,"lng":140.581156,"zip":"0170003"},{"town":"比内町達子","koaza":"谷地","lat":40.212944,"lng":140.575101,"zip":"0185741"},{"town":"比内町扇田","koaza":"上中島","lat":40.227737,"lng":140.573817,"zip":"0185701"},{"town":"柄沢","koaza":"稲荷山下","lat":40.259767,"lng":140.581914,"zip":"0170804"},{"town":"餌釣","koaza":"大杉","lat":40.242729,"lng":140.575948,"zip":"0170837"},{"town":"山館","koaza":"金谷前田","lat":40.238204,"lng":140.57563,"zip":"0170838"},{"town":"比内町扇田","koaza":"扇田","lat":40.227314,"lng":140.576626,"zip":"0185701"},{"town":"比内町扇田","koaza":"押切","lat":40.231005,"lng":140.576878,"zip":"0185701"},{"town":"比内町達子","koaza":"相善廻","lat":40.213239,"lng":140.577408,"zip":"0185741"},{"town":"餌釣","koaza":"屋敷尻","lat":40.246853,"lng":140.576098,"zip":"0170837"},{"town":"比内町扇田","koaza":"町尻","lat":40.230588,"lng":140.576014,"zip":"0185701"},{"town":"粕田","koaza":"中羽立","lat":40.346355,"lng":140.579266,"zip":"0170004"},{"town":"山館","koaza":"沢見","lat":40.238165,"lng":140.5786,"zip":"0170838"},{"town":"山館","koaza":"草刈道","lat":40.236265,"lng":140.57696,"zip":"0170838"},{"town":"餌釣","koaza":"屋敷","lat":40.246945,"lng":140.57903,"zip":"0170837"},{"town":"粕田","koaza":"道ノ上","lat":40.343692,"lng":140.578317,"zip":"0170004"},{"town":"山館","koaza":"羽立","lat":40.238861,"lng":140.580045,"zip":"0170838"},{"town":"比内町扇田","koaza":"白砂","lat":40.22613,"lng":140.57939,"zip":"0185701"},{"town":"柄沢","koaza":"柄沢","lat":40.262391,"lng":140.579843,"zip":"0170804"},{"town":"下代野","koaza":"家後","lat":40.291877,"lng":140.576841,"zip":"0170034"},{"town":"比内町扇田","koaza":"下扇田","lat":40.228975,"lng":140.579446,"zip":"0185701"},{"town":"商人留","koaza":"坂下","lat":40.312162,"lng":140.578639,"zip":"0170011"},{"town":"釈迦内","koaza":"獅子ヶ森","lat":40.301539,"lng":140.58031,"zip":"0170012"},{"town":"柄沢","koaza":"丸山下","lat":40.266542,"lng":140.579647,"zip":"0170804"},{"town":"柄沢","koaza":"山王台","lat":40.255377,"lng":140.579946,"zip":"0170804"},{"town":"比内町扇田","koaza":"南扇田","lat":40.227241,"lng":140.58055,"zip":"0185701"},{"town":"下代野","koaza":"中道南","lat":40.289782,"lng":140.579519,"zip":"0170034"},{"town":"釈迦内","koaza":"長者森","lat":40.325329,"lng":140.579871,"zip":"0170012"},{"town":"比内町達子","koaza":"ハヌカ","lat":40.214836,"lng":140.579346,"zip":"0185741"},{"town":"商人留","koaza":"完ケ森","lat":40.309121,"lng":140.585776,"zip":"0170011"},{"town":"商人留","koaza":"横道下","lat":40.313552,"lng":140.58137,"zip":"0170011"},{"town":"釈迦内","koaza":"ヲコハ","lat":40.320884,"lng":140.57945,"zip":"0170012"},{"town":"下代野","koaza":"中道北","lat":40.29319,"lng":140.580425,"zip":"0170034"},{"town":"餌釣","koaza":"沢","lat":40.252587,"lng":140.581345,"zip":"0170837"},{"town":"山館","koaza":"八幡下","lat":40.234389,"lng":140.582682,"zip":"0170838"},{"town":"柄沢","koaza":"小柄沢","lat":40.266709,"lng":140.582612,"zip":"0170804"},{"town":"比内町扇田","koaza":"下川端","lat":40.230339,"lng":140.58013,"zip":"0185701"},{"town":"餌釣","koaza":"館","lat":40.248504,"lng":140.580227,"zip":"0170837"},{"town":"山館","koaza":"上野","lat":40.239168,"lng":140.581313,"zip":"0170838"},{"town":"比内町扇田","koaza":"上庚申台","lat":40.223684,"lng":140.582506,"zip":"0185701"},{"town":"比内町扇田","koaza":"庚申岱","lat":40.225318,"lng":140.583097,"zip":"0185701"},{"town":"比内町新館","koaza":"城下","lat":40.210997,"lng":140.583462,"zip":"0185712"},{"town":"比内町扇田","koaza":"上川端","lat":40.229508,"lng":140.582971,"zip":"0185701"},{"town":"山館","koaza":"館ノ下","lat":40.239556,"lng":140.583099,"zip":"0170838"},{"town":"下代野","koaza":"天下道下","lat":40.294402,"lng":140.584791,"zip":"0170034"},{"town":"白沢","koaza":"白沢","lat":40.340996,"lng":140.590278,"zip":"0170002"},{"town":"比内町扇田","koaza":"上扇田","lat":40.227404,"lng":140.584537,"zip":"0185701"},{"town":"商人留","koaza":"商人留","lat":40.313373,"lng":140.58573,"zip":"0170011"},{"town":"比内町新館","koaza":"真館","lat":40.213582,"lng":140.58598,"zip":"0185712"},{"town":"山館","koaza":"前田","lat":40.232821,"lng":140.585387,"zip":"0170838"},{"town":"比内町扇田","koaza":"新大堤下","lat":40.219653,"lng":140.585802,"zip":"0185701"},{"town":"芦田子","koaza":"天下道上","lat":40.295751,"lng":140.589538,"zip":"0170025"},{"town":"比内町扇田","koaza":"新長岡","lat":40.221648,"lng":140.586573,"zip":"0185701"},{"town":"比内町扇田","koaza":"伊勢堂岱","lat":40.225897,"lng":140.590754,"zip":"0185701"},{"town":"比内町新館","koaza":"屋布","lat":40.211947,"lng":140.587756,"zip":"0185712"},{"town":"比内町扇田","koaza":"新館野中岱","lat":40.214618,"lng":140.590255,"zip":"0185701"},{"town":"上代野","koaza":"上代野","lat":40.29142,"lng":140.58951,"zip":"0170031"},{"town":"商人留","koaza":"町道添","lat":40.311855,"lng":140.589295,"zip":"0170011"},{"town":"商人留","koaza":"泉田","lat":40.314242,"lng":140.589146,"zip":"0170011"},{"town":"商人留","koaza":"津都山下","lat":40.313159,"lng":140.590189,"zip":"0170011"},{"town":"商人留","koaza":"清水沢","lat":40.313098,"lng":140.588841,"zip":"0170011"},{"town":"比内町新館","koaza":"野開","lat":40.2117,"lng":140.590407,"zip":"0185712"},{"town":"東","koaza":"岩ノ下","lat":40.280737,"lng":140.592365,"zip":"0170023"},{"town":"山館","koaza":"中山境","lat":40.23052,"lng":140.592079,"zip":"0170838"},{"town":"中山","koaza":"流田","lat":40.229202,"lng":140.591969,"zip":"0170839"},{"town":"東","koaza":"二ツ屋","lat":40.284136,"lng":140.59206,"zip":"0170023"},{"town":"芦田子","koaza":"芦田子","lat":40.301502,"lng":140.593469,"zip":"0170025"},{"town":"大茂内","koaza":"清水田","lat":40.289866,"lng":140.594369,"zip":"0170024"},{"town":"比内町扇田","koaza":"山崎","lat":40.224128,"lng":140.595965,"zip":"0185701"},{"town":"東","koaza":"宮袋","lat":40.281183,"lng":140.598179,"zip":"0170023"},{"town":"中山","koaza":"兎沢","lat":40.229516,"lng":140.596086,"zip":"0170839"},{"town":"比内町扇田","koaza":"本道端","lat":40.22554,"lng":140.594181,"zip":"0185701"},{"town":"比内町扇田","koaza":"上大岱","lat":40.219916,"lng":140.597751,"zip":"0185701"},{"town":"芦田子","koaza":"芦田子南","lat":40.299208,"lng":140.598497,"zip":"0170025"},{"town":"大茂内","koaza":"諏訪下","lat":40.294225,"lng":140.598123,"zip":"0170024"},{"town":"比内町扇田","koaza":"蟹沢","lat":40.221169,"lng":140.599836,"zip":"0185701"},{"town":"芦田子","koaza":"塞神南","lat":40.301094,"lng":140.599322,"zip":"0170025"},{"town":"大茂内","koaza":"塚下","lat":40.291659,"lng":140.598841,"zip":"0170024"},{"town":"大茂内","koaza":"諏訪台","lat":40.295008,"lng":140.601031,"zip":"0170024"},{"town":"東","koaza":"鳥谷下","lat":40.284041,"lng":140.601915,"zip":"0170023"},{"town":"大茂内","koaza":"中瘤木台","lat":40.292028,"lng":140.602586,"zip":"0170024"},{"town":"大茂内","koaza":"上瘤木台","lat":40.294099,"lng":140.60528,"zip":"0170024"},{"town":"中山","koaza":"中山","lat":40.225364,"lng":140.605014,"zip":"0170839"},{"town":"中山","koaza":"臼ケ沢","lat":40.226888,"lng":140.602336,"zip":"0170839"},{"town":"曲田","koaza":"曲田","lat":40.214334,"lng":140.624582,"zip":"0185603"},{"town":"曲田","koaza":"家ノ後","lat":40.217599,"lng":140.624445,"zip":"0185603"},{"town":"道目木","koaza":"屋布添","lat":40.209891,"lng":140.629842,"zip":"0185602"},{"town":"曲田","koaza":"山田堤","lat":40.214984,"lng":140.630497,"zip":"0185603"},{"town":"軽井沢","koaza":"下岱","lat":40.217594,"lng":140.639444,"zip":"0185604"},{"town":"道目木","koaza":"天当","lat":40.211516,"lng":140.63799,"zip":"0185602"},{"town":"十二所","koaza":"上川代","lat":40.21152,"lng":140.639956,"zip":"0185601"},{"town":"軽井沢","koaza":"五輪岱","lat":40.216592,"lng":140.644215,"zip":"0185604"},{"town":"十二所","koaza":"古館","lat":40.210084,"lng":140.645353,"zip":"0185601"},{"town":"十二所","koaza":"桑原","lat":40.213241,"lng":140.648343,"zip":"0185601"},{"town":"軽井沢","koaza":"軽井沢","lat":40.218541,"lng":140.650619,"zip":"0185604"},{"town":"軽井沢","koaza":"浦山","lat":40.226606,"lng":140.660117,"zip":"0185604"},{"town":"軽井沢","koaza":"沼ノ岱","lat":40.220344,"lng":140.653166,"zip":"0185604"},{"town":"十二所","koaza":"間ノ田","lat":40.21356,"lng":140.653536,"zip":"0185601"},{"town":"十二所","koaza":"平内新田","lat":40.213832,"lng":140.655631,"zip":"0185601"},{"town":"軽井沢","koaza":"小清水","lat":40.226328,"lng":140.65644,"zip":"0185604"},{"town":"軽井沢","koaza":"大清水","lat":40.225254,"lng":140.659452,"zip":"0185604"},{"town":"十二所","koaza":"大平","lat":40.215358,"lng":140.665506,"zip":"0185601"},{"town":"猿間","koaza":"長漕","lat":40.218259,"lng":140.666932,"zip":"0185605"},{"town":"十二所","koaza":"片町","lat":40.214574,"lng":140.668768,"zip":"0185601"},{"town":"十二所","koaza":"谷地町","lat":40.214989,"lng":140.668913,"zip":"0185601"},{"town":"猿間","koaza":"中谷地","lat":40.220362,"lng":140.670993,"zip":"0185605"},{"town":"猿間","koaza":"大西","lat":40.224589,"lng":140.674606,"zip":"0185605"},{"town":"葛原","koaza":"下屋布","lat":40.232878,"lng":140.694954,"zip":"0185606"},{"town":"十二所","koaza":"田町","lat":40.216081,"lng":140.674712,"zip":"0185601"},{"town":"猿間","koaza":"丹内下","lat":40.22534,"lng":140.675764,"zip":"0185605"},{"town":"猿間","koaza":"戸沢","lat":40.228725,"lng":140.675784,"zip":"0185605"},{"town":"十二所","koaza":"上新町","lat":40.21763,"lng":140.676466,"zip":"0185601"},{"town":"十二所","koaza":"十二所町","lat":40.216885,"lng":140.674603,"zip":"0185601"},{"town":"十二所","koaza":"折橋","lat":40.219853,"lng":140.678894,"zip":"0185601"},{"town":"十二所","koaza":"川端","lat":40.230806,"lng":140.69685,"zip":"0185601"},{"town":"葛原","koaza":"後小路","lat":40.233578,"lng":140.699801,"zip":"0185606"},{"town":"葛原","koaza":"風張","lat":40.235009,"lng":140.698804,"zip":"0185606"},{"town":"葛原","koaza":"下川原上","lat":40.230904,"lng":140.70512,"zip":"0185606"},{"town":"十二所","koaza":"中野","lat":40.224312,"lng":140.708865,"zip":"0185601"},{"town":"葛原","koaza":"柳堆","lat":40.22992,"lng":140.71765,"zip":"0185606"},{"town":"下代野","koaza":"笹森","lat":40.294304,"lng":140.580837,"zip":"0170034"},{"town":"芦田子","koaza":"獅子ヶ森下","lat":40.29773,"lng":140.58418,"zip":"0170025"},{"town":"芦田子","koaza":"獅子ヶ森","lat":40.301101,"lng":140.586127,"zip":"0170025"},{"town":"商人留","koaza":"野崎","lat":40.318777,"lng":140.58142,"zip":"0170011"},{"town":"松木","koaza":"境","lat":40.289822,"lng":140.557604,"zip":"0170052"},{"town":"小館花","koaza":"萩野台","lat":40.256396,"lng":140.564382,"zip":"0170835"},{"town":"池内","koaza":"池内","lat":40.251449,"lng":140.567007,"zip":"0170836"},{"town":"二井田","koaza":"天神前","lat":40.230462,"lng":140.557756,"zip":"0185751"},{"town":"道目木","koaza":"上天当","lat":40.210126,"lng":140.638106,"zip":"0185602"},{"town":"道目木","koaza":"陣場岱","lat":40.207536,"lng":140.620474,"zip":"0185602"},{"town":"下川原","koaza":"屋布","lat":40.241335,"lng":140.528585,"zip":"0185756"},{"town":"下川原","koaza":"堤尻","lat":40.238347,"lng":140.52679,"zip":"0185756"},{"town":"本宮","koaza":"八兵エ岱","lat":40.234278,"lng":140.525046,"zip":"0185752"},{"town":"赤石","koaza":"上坂上","lat":40.25828,"lng":140.503767,"zip":"0170854"},{"town":"板沢","koaza":"乙上野","lat":40.258805,"lng":140.492148,"zip":"0170853"},{"town":"下川原","koaza":"上台","lat":40.240187,"lng":140.524437,"zip":"0185756"},{"town":"大子内","koaza":"道下","lat":40.240933,"lng":140.504177,"zip":"0185754"},{"town":"大子内","koaza":"林ノ下","lat":40.239442,"lng":140.503098,"zip":"0185754"},{"town":"大披","koaza":"堤沢","lat":40.243392,"lng":140.496693,"zip":"0170851"},{"town":"餅田","koaza":"新田","lat":40.275587,"lng":140.512316,"zip":"0170876"},{"town":"櫃崎","koaza":"土貝","lat":40.271371,"lng":140.523941,"zip":"0170855"},{"town":"比内町扇田","koaza":"長坂","lat":40.213636,"lng":140.61254,"zip":"0185701"},{"town":"道目木","koaza":"中谷地","lat":40.213232,"lng":140.635648,"zip":"0185602"},{"town":"芦田子","koaza":"塞神","lat":40.303969,"lng":140.598949,"zip":"0170025"},{"town":"釈迦内","koaza":"狼穴","lat":40.312833,"lng":140.573869,"zip":"0170012"},{"town":"松峰","koaza":"松峰仁王田","lat":40.306505,"lng":140.547741,"zip":"0170051"},{"town":"道目木","koaza":"下谷地","lat":40.211552,"lng":140.625102,"zip":"0185602"},{"town":"十二所","koaza":"川代","lat":40.212768,"lng":140.638509,"zip":"0185601"},{"town":"十二所","koaza":"町頭","lat":40.2124,"lng":140.641704,"zip":"0185601"},{"town":"十二所","koaza":"後田","lat":40.212222,"lng":140.64332,"zip":"0185601"},{"town":"十二所","koaza":"大森岱","lat":40.213432,"lng":140.656574,"zip":"0185601"},{"town":"十二所","koaza":"下新町","lat":40.214578,"lng":140.665907,"zip":"0185601"},{"town":"十二所","koaza":"荒町","lat":40.214712,"lng":140.667401,"zip":"0185601"},{"town":"十二所","koaza":"横町","lat":40.215439,"lng":140.667549,"zip":"0185601"},{"town":"十二所","koaza":"元館","lat":40.215004,"lng":140.672049,"zip":"0185601"},{"town":"十二所","koaza":"中町","lat":40.215949,"lng":140.671405,"zip":"0185601"},{"town":"十二所","koaza":"上城","lat":40.216173,"lng":140.673034,"zip":"0185601"},{"town":"猿間","koaza":"滝ノ向","lat":40.220035,"lng":140.674065,"zip":"0185605"},{"town":"葛原","koaza":"山崎","lat":40.23255,"lng":140.67694,"zip":"0185606"},{"town":"葛原","koaza":"谷地頭","lat":40.236107,"lng":140.691863,"zip":"0185606"},{"town":"葛原","koaza":"膳棚","lat":40.235728,"lng":140.683812,"zip":"0185606"},{"town":"葛原","koaza":"屋布後","lat":40.23554,"lng":140.693813,"zip":"0185606"},{"town":"葛原","koaza":"田代","lat":40.236083,"lng":140.695693,"zip":"0185606"},{"town":"葛原","koaza":"漆畑","lat":40.236914,"lng":140.693394,"zip":"0185606"},{"town":"葛原","koaza":"竹林","lat":40.236608,"lng":140.692667,"zip":"0185606"},{"town":"葛原","koaza":"根小屋","lat":40.235795,"lng":140.695162,"zip":"0185606"},{"town":"葛原","koaza":"瓜畑","lat":40.235431,"lng":140.7028,"zip":"0185606"},{"town":"葛原","koaza":"洞喰向","lat":40.232104,"lng":140.706955,"zip":"0185606"},{"town":"葛原","koaza":"河原","lat":40.2342,"lng":140.700232,"zip":"0185606"},{"town":"葛原","koaza":"上洞喰","lat":40.234491,"lng":140.700807,"zip":"0185606"},{"town":"十二所","koaza":"宮前","lat":40.22898,"lng":140.697037,"zip":"0185601"},{"town":"十二所","koaza":"前田","lat":40.229168,"lng":140.700024,"zip":"0185601"},{"town":"板沢","koaza":"甲上野","lat":40.259108,"lng":140.488275,"zip":"0170853"},{"town":"小袴","koaza":"ラント下","lat":40.255378,"lng":140.488907,"zip":"0170852"},{"town":"小袴","koaza":"伊勢堂下","lat":40.25116,"lng":140.49126,"zip":"0170852"},{"town":"大披","koaza":"後沢","lat":40.243392,"lng":140.49935,"zip":"0170851"},{"town":"大披","koaza":"大披","lat":40.244065,"lng":140.502406,"zip":"0170851"},{"town":"大披","koaza":"上野台","lat":40.24265,"lng":140.505102,"zip":"0170851"},{"town":"大子内","koaza":"羽立","lat":40.23844,"lng":140.507174,"zip":"0185754"},{"town":"赤石","koaza":"屋布","lat":40.255945,"lng":140.502134,"zip":"0170854"},{"town":"赤石","koaza":"屋布南","lat":40.254482,"lng":140.503478,"zip":"0170854"},{"town":"櫃崎","koaza":"上淀市","lat":40.258312,"lng":140.515584,"zip":"0170855"},{"town":"櫃崎","koaza":"出川道下","lat":40.25661,"lng":140.513443,"zip":"0170855"},{"town":"櫃崎","koaza":"沢頭","lat":40.257837,"lng":140.516663,"zip":"0170855"},{"town":"本宮","koaza":"上ノ山","lat":40.23368,"lng":140.519869,"zip":"0185752"},{"town":"大披","koaza":"漆林沢","lat":40.242992,"lng":140.502772,"zip":"0170851"},{"town":"大子内","koaza":"森腰","lat":40.240215,"lng":140.500733,"zip":"0185754"},{"town":"本宮","koaza":"上ハ野","lat":40.237281,"lng":140.523011,"zip":"0185752"},{"town":"比内町達子","koaza":"大谷地","lat":40.212896,"lng":140.565672,"zip":"0185741"},{"town":"比内町達子","koaza":"曲谷地","lat":40.212349,"lng":140.564786,"zip":"0185741"},{"town":"比内町達子","koaza":"釣田後","lat":40.219382,"lng":140.569857,"zip":"0185741"},{"town":"比内町達子","koaza":"釣田","lat":40.219457,"lng":140.571668,"zip":"0185741"},{"town":"比内町扇田","koaza":"倉下","lat":40.230893,"lng":140.574963,"zip":"0185701"},{"town":"比内町扇田","koaza":"中扇田","lat":40.2291,"lng":140.581616,"zip":"0185701"},{"town":"比内町扇田","koaza":"長岡","lat":40.221674,"lng":140.580731,"zip":"0185701"},{"town":"比内町扇田","koaza":"長岡下","lat":40.220751,"lng":140.58757,"zip":"0185701"},{"town":"比内町扇田","koaza":"町後","lat":40.226039,"lng":140.584867,"zip":"0185701"},{"town":"比内町扇田","koaza":"中道","lat":40.226445,"lng":140.585271,"zip":"0185701"},{"town":"比内町扇田","koaza":"小谷地","lat":40.21704,"lng":140.585832,"zip":"0185701"},{"town":"比内町扇田","koaza":"大堤下","lat":40.218769,"lng":140.584498,"zip":"0185701"},{"town":"比内町新館","koaza":"館下","lat":40.212916,"lng":140.582751,"zip":"0185712"},{"town":"比内町達子","koaza":"伊勢下","lat":40.211213,"lng":140.579506,"zip":"0185741"},{"town":"比内町達子","koaza":"家後","lat":40.214108,"lng":140.574705,"zip":"0185741"},{"town":"比内町扇田","koaza":"下大岱","lat":40.220536,"lng":140.590364,"zip":"0185701"},{"town":"比内町扇田","koaza":"南大岱","lat":40.217577,"lng":140.589798,"zip":"0185701"},{"town":"比内町扇田","koaza":"中岱","lat":40.2187,"lng":140.597665,"zip":"0185701"},{"town":"比内町扇田","koaza":"横沢","lat":40.216333,"lng":140.598398,"zip":"0185701"},{"town":"曲田","koaza":"沢口","lat":40.216381,"lng":140.628194,"zip":"0185603"},{"town":"軽井沢","koaza":"鳶ケ長根","lat":40.22021,"lng":140.640771,"zip":"0185604"},{"town":"軽井沢","koaza":"中谷地","lat":40.216906,"lng":140.645703,"zip":"0185604"},{"town":"軽井沢","koaza":"家ノ上","lat":40.219876,"lng":140.650133,"zip":"0185604"},{"town":"軽井沢","koaza":"家ノ後","lat":40.218453,"lng":140.646408,"zip":"0185604"},{"town":"十二所","koaza":"下折橋","lat":40.220628,"lng":140.679691,"zip":"0185601"},{"town":"川口","koaza":"蟹沢","lat":40.279889,"lng":140.495549,"zip":"0170878"},{"town":"立花","koaza":"街道脇","lat":40.275673,"lng":140.505371,"zip":"0170877"},{"town":"根下戸","koaza":"曲沼","lat":40.263626,"lng":140.542723,"zip":"0170862"},{"town":"松木","koaza":"家後","lat":40.297692,"lng":140.543183,"zip":"0170052"},{"town":"釈迦内","koaza":"板子石","lat":40.294941,"lng":140.55646,"zip":"0170012"},{"town":"釈迦内","koaza":"上袋","lat":40.290854,"lng":140.558646,"zip":"0170012"},{"town":"立花","koaza":"屋敷前","lat":40.2764,"lng":140.501116,"zip":"0170877"},{"town":"本宮","koaza":"寺ノ沢","lat":40.233997,"lng":140.522107,"zip":"0185752"},{"town":"比内町扇田","koaza":"下中島","lat":40.230416,"lng":140.569316,"zip":"0185701"},{"town":"比内町扇田","koaza":"大谷地","lat":40.222688,"lng":140.590209,"zip":"0185701"},{"town":"比内町扇田","koaza":"中大岱","lat":40.221269,"lng":140.593866,"zip":"0185701"},{"town":"比内町扇田","koaza":"中山川原","lat":40.224542,"lng":140.596967,"zip":"0185701"},{"town":"中山","koaza":"中山沢出口","lat":40.223447,"lng":140.606989,"zip":"0170839"},{"town":"中山","koaza":"龍毛岱","lat":40.228496,"lng":140.602007,"zip":"0170839"},{"town":"山館","koaza":"上大樽木","lat":40.231294,"lng":140.587784,"zip":"0170838"},{"town":"山館","koaza":"大川添","lat":40.233693,"lng":140.581399,"zip":"0170838"},{"town":"山館","koaza":"屋敷尻","lat":40.233509,"lng":140.58294,"zip":"0170838"},{"town":"山館","koaza":"沢口","lat":40.242754,"lng":140.584827,"zip":"0170838"},{"town":"餌釣","koaza":"椛沢","lat":40.243249,"lng":140.5813,"zip":"0170837"},{"town":"立花","koaza":"下立花","lat":40.276194,"lng":140.499864,"zip":"0170877"},{"town":"立花","koaza":"中立花","lat":40.276105,"lng":140.501416,"zip":"0170877"},{"town":"沼館","koaza":"栄戸","lat":40.286074,"lng":140.534831,"zip":"0170055"},{"town":"小館花","koaza":"山根ヒトロ","lat":40.259479,"lng":140.560741,"zip":"0170835"},{"town":"釈迦内","koaza":"沢口","lat":40.304171,"lng":140.568899,"zip":"0170012"},{"town":"釈迦内","koaza":"横堰下","lat":40.321638,"lng":140.566466,"zip":"0170012"},{"town":"下代野","koaza":"後道合","lat":40.290697,"lng":140.573712,"zip":"0170034"},{"town":"釈迦内","koaza":"小釈迦内","lat":40.294802,"lng":140.570243,"zip":"0170012"},{"town":"松木","koaza":"家下","lat":40.294847,"lng":140.543929,"zip":"0170052"},{"town":"池内","koaza":"萱野","lat":40.249695,"lng":140.562416,"zip":"0170836"},{"town":"釈迦内","koaza":"獅子ヶ森台","lat":40.304052,"lng":140.57632,"zip":"0170012"},{"town":"芦田子","koaza":"上岱","lat":40.299332,"lng":140.58709,"zip":"0170025"},{"town":"上代野","koaza":"中岱","lat":40.292047,"lng":140.589487,"zip":"0170031"},{"town":"上代野","koaza":"八幡岱","lat":40.293371,"lng":140.593453,"zip":"0170031"},{"town":"上代野","koaza":"稲荷台","lat":40.291525,"lng":140.587642,"zip":"0170031"},{"town":"大茂内","koaza":"向登々目木","lat":40.286166,"lng":140.59077,"zip":"0170024"},{"town":"東","koaza":"袴越下","lat":40.27866,"lng":140.586497,"zip":"0170023"},{"town":"大茂内","koaza":"下館下","lat":40.2952,"lng":140.596285,"zip":"0170024"},{"town":"茂内","koaza":"膳棚下","lat":40.295039,"lng":140.609153,"zip":"0170022"},{"town":"中山","koaza":"中谷地","lat":40.227145,"lng":140.596624,"zip":"0170839"},{"town":"商人留","koaza":"谷地中","lat":40.312758,"lng":140.579823,"zip":"0170011"},{"town":"粕田","koaza":"村南","lat":40.334772,"lng":140.57185,"zip":"0170004"},{"town":"粕田","koaza":"村東","lat":40.337331,"lng":140.574384,"zip":"0170004"},{"town":"花岡町","koaza":"大森下","lat":40.336611,"lng":140.570432,"zip":"0170005"},{"town":"粕田","koaza":"両堤","lat":40.345822,"lng":140.579992,"zip":"0170004"},{"town":"花岡町","koaza":"大石沢尻","lat":40.33339,"lng":140.561155,"zip":"0170005"},{"town":"花岡町","koaza":"鳥内下","lat":40.328154,"lng":140.556599,"zip":"0170005"},{"town":"花岡町","koaza":"七ツ館","lat":40.327781,"lng":140.553447,"zip":"0170005"},{"town":"花岡町","koaza":"長森","lat":40.33499,"lng":140.551355,"zip":"0170005"},{"town":"花岡町","koaza":"二井山","lat":40.336474,"lng":140.548697,"zip":"0170005"},{"town":"釈迦内","koaza":"屋布後","lat":40.32936,"lng":140.570072,"zip":"0170012"},{"town":"中山","koaza":"桂沢","lat":40.227542,"lng":140.600446,"zip":"0170839"},{"town":"釈迦内","koaza":"家後","lat":40.294175,"lng":140.56568,"zip":"0170012"},{"town":"軽井沢","koaza":"家ノ下","lat":40.218542,"lng":140.654783,"zip":"0185604"}]