[{"town":"芦崎","koaza":"","lat":40.07329,"lng":139.962481,"zip":"0182405"},{"town":"天瀬川","koaza":"","lat":39.990972,"lng":140.081694,"zip":"0182102"},{"town":"鵜川","koaza":"","lat":40.110816,"lng":140.021361,"zip":"0182401"},{"town":"大口","koaza":"","lat":40.093217,"lng":139.971003,"zip":"0182406"},{"town":"鹿渡","koaza":"","lat":40.050164,"lng":140.09738,"zip":"0182104"},{"town":"上岩川","koaza":"","lat":40.032668,"lng":140.182214,"zip":"0182101"},{"town":"川尻","koaza":"","lat":40.089596,"lng":140.037971,"zip":"0182402"},{"town":"久米岡新田","koaza":"","lat":40.078161,"lng":140.034713,"zip":"0182403"},{"town":"鯉川","koaza":"","lat":40.004748,"lng":140.097838,"zip":"0182103"},{"town":"志戸橋","koaza":"","lat":40.140738,"lng":140.086007,"zip":"0182301"},{"town":"下岩川","koaza":"","lat":40.091684,"lng":140.145289,"zip":"0182302"},{"town":"外岡","koaza":"","lat":40.132713,"lng":140.050399,"zip":"0182305"},{"town":"富岡新田","koaza":"","lat":40.088712,"lng":140.012837,"zip":"0182404"},{"town":"豊岡金田","koaza":"","lat":40.1162,"lng":140.08961,"zip":"0182304"},{"town":"浜田","koaza":"","lat":40.107267,"lng":139.983317,"zip":"0182407"},{"town":"森岳","koaza":"","lat":40.090676,"lng":140.076289,"zip":"0182303"}]