[{"town":"赤川","koaza":"","lat":39.324108,"lng":140.526776,"zip":"0130073"},{"town":"赤坂","koaza":"","lat":39.306772,"lng":140.53736,"zip":"0130064"},{"town":"朝倉町","koaza":"","lat":39.323677,"lng":140.560816,"zip":"0130028"},{"town":"朝日が丘一丁目","koaza":"","lat":39.298788,"lng":140.540401,"zip":"0130055"},{"town":"朝日が丘二丁目","koaza":"","lat":39.298178,"lng":140.538226,"zip":"0130055"},{"town":"朝日が丘三丁目","koaza":"","lat":39.295166,"lng":140.538091,"zip":"0130055"},{"town":"朝日が丘四丁目","koaza":"","lat":39.29331,"lng":140.54085,"zip":"0130055"},{"town":"旭川一丁目","koaza":"","lat":39.309495,"lng":140.576312,"zip":"0130033"},{"town":"旭川二丁目","koaza":"","lat":39.309765,"lng":140.578453,"zip":"0130033"},{"town":"旭川三丁目","koaza":"","lat":39.309734,"lng":140.580478,"zip":"0130033"},{"town":"猪岡","koaza":"","lat":39.318376,"lng":140.514657,"zip":"0130065"},{"town":"梅の木町","koaza":"","lat":39.315702,"lng":140.557751,"zip":"0130068"},{"town":"駅前町","koaza":"","lat":39.308784,"lng":140.561408,"zip":"0130036"},{"town":"駅南一丁目","koaza":"","lat":39.302415,"lng":140.56071,"zip":"0130062"},{"town":"駅南二丁目","koaza":"","lat":39.302577,"lng":140.558314,"zip":"0130062"},{"town":"追廻一丁目","koaza":"","lat":39.332247,"lng":140.568572,"zip":"0130002"},{"town":"追廻二丁目","koaza":"","lat":39.331959,"lng":140.570628,"zip":"0130002"},{"town":"追廻三丁目","koaza":"","lat":39.334844,"lng":140.572056,"zip":"0130002"},{"town":"大沢","koaza":"","lat":39.302941,"lng":140.600948,"zip":"0130041"},{"town":"大鳥町","koaza":"","lat":39.329639,"lng":140.562591,"zip":"0130007"},{"town":"大町","koaza":"","lat":39.31577,"lng":140.568296,"zip":"0130021"},{"town":"大水戸町","koaza":"","lat":39.31522,"lng":140.563201,"zip":"0130026"},{"town":"大森町","koaza":"","lat":39.340078,"lng":140.424198,"zip":"0130501"},{"town":"大森町板井田","koaza":"","lat":39.394375,"lng":140.431097,"zip":"0130501"},{"town":"大森町上溝","koaza":"","lat":39.337387,"lng":140.386487,"zip":"0130552"},{"town":"大森町坂部","koaza":"","lat":39.363327,"lng":140.290693,"zip":"0130562"},{"town":"大森町猿田","koaza":"","lat":39.37484,"lng":140.410889,"zip":"0130551"},{"town":"大森町十日町","koaza":"","lat":39.360455,"lng":140.447701,"zip":"0130503"},{"town":"大森町袴形","koaza":"","lat":39.374426,"lng":140.444263,"zip":"0130502"},{"town":"大森町八沢木","koaza":"","lat":39.360439,"lng":140.351329,"zip":"0130561"},{"town":"大屋新町","koaza":"","lat":39.280292,"lng":140.570853,"zip":"0130051"},{"town":"大屋寺内","koaza":"","lat":39.258561,"lng":140.573311,"zip":"0130052"},{"town":"雄物川町会塚","koaza":"","lat":39.303345,"lng":140.451983,"zip":"0130201"},{"town":"雄物川町今宿","koaza":"","lat":39.288277,"lng":140.402634,"zip":"0130205"},{"town":"雄物川町薄井","koaza":"","lat":39.319421,"lng":140.437454,"zip":"0130481"},{"town":"雄物川町大沢","koaza":"","lat":39.276158,"lng":140.368139,"zip":"0130218"},{"town":"雄物川町柏木","koaza":"","lat":39.265928,"lng":140.42065,"zip":"0130214"},{"town":"雄物川町常野","koaza":"","lat":39.260162,"lng":140.421657,"zip":"0130215"},{"town":"雄物川町砂子田","koaza":"","lat":39.291906,"lng":140.446058,"zip":"0130202"},{"town":"雄物川町造山","koaza":"","lat":39.275146,"lng":140.427882,"zip":"0130212"},{"town":"雄物川町東里","koaza":"","lat":39.275456,"lng":140.443346,"zip":"0130203"},{"town":"雄物川町道地","koaza":"","lat":39.266573,"lng":140.405329,"zip":"0130217"},{"town":"雄物川町南形","koaza":"","lat":39.277636,"lng":140.414768,"zip":"0130213"},{"town":"雄物川町二井山","koaza":"","lat":39.308621,"lng":140.367319,"zip":"0130206"},{"town":"雄物川町西野","koaza":"","lat":39.255993,"lng":140.414172,"zip":"0130216"},{"town":"雄物川町沼館","koaza":"","lat":39.302995,"lng":140.427456,"zip":"0130208"},{"town":"雄物川町深井","koaza":"","lat":39.289545,"lng":140.417162,"zip":"0130211"},{"town":"雄物川町矢神","koaza":"","lat":39.31034,"lng":140.404569,"zip":"0130207"},{"town":"雄物川町谷地新田","koaza":"","lat":39.26011,"lng":140.438695,"zip":"0130204"},{"town":"卸町","koaza":"","lat":39.322459,"lng":140.549175,"zip":"0130072"},{"town":"鍛冶町","koaza":"","lat":39.311738,"lng":140.568543,"zip":"0130031"},{"town":"金沢","koaza":"","lat":39.368976,"lng":140.599342,"zip":"0130813"},{"town":"金沢中野","koaza":"","lat":39.365138,"lng":140.566543,"zip":"0130814"},{"town":"金沢本町","koaza":"","lat":39.378464,"lng":140.573901,"zip":"0130812"},{"town":"上内町","koaza":"","lat":39.312034,"lng":140.574187,"zip":"0130014"},{"town":"上境","koaza":"","lat":39.344118,"lng":140.536979,"zip":"0130821"},{"town":"上八丁","koaza":"","lat":39.332483,"lng":140.530923,"zip":"0130014"},{"town":"清川町","koaza":"","lat":39.310858,"lng":140.570889,"zip":"0130032"},{"town":"黒川","koaza":"","lat":39.363813,"lng":140.500932,"zip":"0130826"},{"town":"寿町","koaza":"","lat":39.312344,"lng":140.562466,"zip":"0130025"},{"town":"幸町","koaza":"","lat":39.325066,"lng":140.565503,"zip":"0130005"},{"town":"山内筏","koaza":"","lat":39.261335,"lng":140.649667,"zip":"0191107"},{"town":"山内大沢","koaza":"","lat":39.291161,"lng":140.59135,"zip":"0191109"},{"town":"山内大松川","koaza":"","lat":39.340497,"lng":140.664492,"zip":"0191101"},{"town":"山内黒沢","koaza":"","lat":39.254436,"lng":140.737912,"zip":"0191103"},{"town":"山内小松川","koaza":"","lat":39.295664,"lng":140.666553,"zip":"0191102"},{"town":"山内土渕","koaza":"","lat":39.277555,"lng":140.643704,"zip":"0191108"},{"town":"山内南郷","koaza":"","lat":39.246311,"lng":140.696409,"zip":"0191105"},{"town":"山内平野沢","koaza":"","lat":39.240755,"lng":140.633295,"zip":"0191106"},{"town":"山内三又","koaza":"","lat":39.207002,"lng":140.712604,"zip":"0191104"},{"town":"三本柳","koaza":"","lat":39.321432,"lng":140.540082,"zip":"0130074"},{"town":"三枚橋一丁目","koaza":"","lat":39.313272,"lng":140.558151,"zip":"0130069"},{"town":"静町","koaza":"","lat":39.332264,"lng":140.545279,"zip":"0130075"},{"town":"下境","koaza":"","lat":39.347624,"lng":140.515977,"zip":"0130824"},{"town":"下八丁","koaza":"","lat":39.335146,"lng":140.516924,"zip":"0130824"},{"town":"蛇の崎町","koaza":"","lat":39.318503,"lng":140.56291,"zip":"0130017"},{"town":"十文字町","koaza":"","lat":39.2247,"lng":140.52234,"zip":"0190525"},{"town":"十文字町植田","koaza":"","lat":39.229519,"lng":140.470419,"zip":"0190513"},{"town":"十文字町腕越","koaza":"","lat":39.2215,"lng":140.542264,"zip":"0190501"},{"town":"十文字町越前","koaza":"","lat":39.23501,"lng":140.486168,"zip":"0190512"},{"town":"十文字町鼎","koaza":"","lat":39.226244,"lng":140.498382,"zip":"0190511"},{"town":"十文字町上鍋倉","koaza":"","lat":39.233788,"lng":140.505231,"zip":"0190507"},{"town":"十文字町木下","koaza":"","lat":39.251907,"lng":140.45821,"zip":"0190517"},{"town":"十文字町源太左馬","koaza":"","lat":39.246953,"lng":140.456521,"zip":"0190516"},{"town":"十文字町佐賀会","koaza":"","lat":39.21574,"lng":140.50609,"zip":"0190506"},{"town":"十文字町十五野新田","koaza":"","lat":39.240109,"lng":140.514259,"zip":"0190508"},{"town":"十文字町梨木","koaza":"","lat":39.236121,"lng":140.52609,"zip":"0190509"},{"town":"十文字町仁井田","koaza":"","lat":39.213474,"lng":140.523731,"zip":"0190505"},{"town":"十文字町西原一番町","koaza":"","lat":39.225365,"lng":140.527084,"zip":"0130000"},{"town":"十文字町西原二番町","koaza":"","lat":39.228487,"lng":140.529287,"zip":"0130000"},{"town":"十文字町宝竜一丁目","koaza":"","lat":39.218607,"lng":140.522506,"zip":"0190518"},{"town":"十文字町宝竜二丁目","koaza":"","lat":39.217148,"lng":140.52264,"zip":"0190518"},{"town":"十文字町睦合","koaza":"","lat":39.234035,"lng":140.43957,"zip":"0190514"},{"town":"十文字町谷地新田","koaza":"","lat":39.243818,"lng":140.44967,"zip":"0190515"},{"town":"条里一丁目","koaza":"","lat":39.30961,"lng":140.553879,"zip":"0130060"},{"town":"条里二丁目","koaza":"","lat":39.312409,"lng":140.554037,"zip":"0130060"},{"town":"条里三丁目","koaza":"","lat":39.315893,"lng":140.554228,"zip":"0130060"},{"town":"城西町","koaza":"","lat":39.32323,"lng":140.567511,"zip":"0130011"},{"town":"城南町","koaza":"","lat":39.318252,"lng":140.57424,"zip":"0130013"},{"town":"城山町","koaza":"","lat":39.321721,"lng":140.56988,"zip":"0130012"},{"town":"新坂町","koaza":"","lat":39.327992,"lng":140.565486,"zip":"0130006"},{"town":"神明町","koaza":"","lat":39.307326,"lng":140.567658,"zip":"0130046"},{"town":"杉沢","koaza":"","lat":39.353461,"lng":140.601608,"zip":"0130001"},{"town":"杉目","koaza":"","lat":39.344473,"lng":140.553884,"zip":"0130076"},{"town":"外目","koaza":"","lat":39.264815,"lng":140.540624,"zip":"0130053"},{"town":"台所町","koaza":"","lat":39.331365,"lng":140.566521,"zip":"0130003"},{"town":"大雄","koaza":"","lat":39.34104,"lng":140.470512,"zip":"0130459"},{"town":"田中町","koaza":"","lat":39.312475,"lng":140.565728,"zip":"0130024"},{"town":"中央町","koaza":"","lat":39.315412,"lng":140.565358,"zip":"0130023"},{"town":"塚堀","koaza":"","lat":39.323718,"lng":140.503392,"zip":"0130066"},{"town":"根岸町","koaza":"","lat":39.319076,"lng":140.568779,"zip":"0130016"},{"town":"羽黒町","koaza":"","lat":39.31481,"lng":140.571041,"zip":"0130015"},{"town":"百万刈","koaza":"","lat":39.359315,"lng":140.492087,"zip":"0130825"},{"town":"平鹿町浅舞","koaza":"","lat":39.281775,"lng":140.475729,"zip":"0130105"},{"town":"平鹿町下鍋倉","koaza":"","lat":39.250347,"lng":140.483242,"zip":"0130103"},{"town":"平鹿町下吉田","koaza":"","lat":39.305674,"lng":140.485835,"zip":"0130107"},{"town":"平鹿町醍醐","koaza":"","lat":39.258694,"lng":140.525147,"zip":"0130102"},{"town":"平鹿町樽見内","koaza":"","lat":39.270704,"lng":140.456287,"zip":"0130104"},{"town":"平鹿町中吉田","koaza":"","lat":39.284459,"lng":140.49889,"zip":"0130106"},{"town":"平城町","koaza":"","lat":39.317614,"lng":140.559855,"zip":"0130027"},{"town":"婦気大堤","koaza":"","lat":39.290556,"lng":140.546628,"zip":"0130063"},{"town":"二葉町","koaza":"","lat":39.321378,"lng":140.563246,"zip":"0130019"},{"town":"平和町","koaza":"","lat":39.3087,"lng":140.571569,"zip":"0130035"},{"town":"本郷町","koaza":"","lat":39.306599,"lng":140.578307,"zip":"0130034"},{"town":"前郷","koaza":"","lat":39.295824,"lng":140.573347,"zip":"0130042"},{"town":"前郷一番町","koaza":"","lat":39.310861,"lng":140.565465,"zip":"0130038"},{"town":"前郷二番町","koaza":"","lat":39.308085,"lng":140.564476,"zip":"0130037"},{"town":"増田町荻袋","koaza":"","lat":39.191783,"lng":140.594262,"zip":"0190711"},{"town":"増田町亀田","koaza":"","lat":39.219011,"lng":140.571802,"zip":"0190702"},{"town":"増田町熊渕","koaza":"","lat":39.194353,"lng":140.561171,"zip":"0190712"},{"town":"増田町狙半内","koaza":"","lat":39.139375,"lng":140.652088,"zip":"0190705"},{"town":"増田町戸波","koaza":"","lat":39.184934,"lng":140.532993,"zip":"0190714"},{"town":"増田町増田","koaza":"","lat":39.207408,"lng":140.541301,"zip":"0190701"},{"town":"増田町三又","koaza":"","lat":39.190558,"lng":140.548263,"zip":"0190713"},{"town":"増田町八木","koaza":"","lat":39.199147,"lng":140.532311,"zip":"0190715"},{"town":"増田町湯野沢","koaza":"","lat":39.197077,"lng":140.622586,"zip":"0190704"},{"town":"増田町吉野","koaza":"","lat":39.206512,"lng":140.597289,"zip":"0190703"},{"town":"松原町","koaza":"","lat":39.300336,"lng":140.566517,"zip":"0130047"},{"town":"南町","koaza":"","lat":39.304546,"lng":140.568614,"zip":"0130045"},{"town":"明永町","koaza":"","lat":39.327655,"lng":140.569013,"zip":"0130004"},{"town":"睦成","koaza":"","lat":39.334555,"lng":140.58742,"zip":"0130008"},{"town":"本町","koaza":"","lat":39.320753,"lng":140.565543,"zip":"0130018"},{"town":"安田","koaza":"","lat":39.299419,"lng":140.559294,"zip":"0130043"},{"town":"安田原町","koaza":"","lat":39.300785,"lng":140.563117,"zip":"0130048"},{"town":"安本","koaza":"","lat":39.355193,"lng":140.544739,"zip":"0130811"},{"town":"柳田","koaza":"","lat":39.276336,"lng":140.549434,"zip":"0130054"},{"town":"八幡","koaza":"","lat":39.326469,"lng":140.549169,"zip":"0130071"},{"town":"横手町","koaza":"","lat":39.317092,"lng":140.549431,"zip":"0130061"},{"town":"横山町","koaza":"","lat":39.303572,"lng":140.565494,"zip":"0130044"},{"town":"四日町","koaza":"","lat":39.315552,"lng":140.566809,"zip":"0130022"},{"town":"平鹿町上吉田","koaza":"","lat":39.292309,"lng":140.515824,"zip":"0130101"},{"town":"清水町新田","koaza":"","lat":39.313498,"lng":140.507267,"zip":"0130056"},{"town":"大森町上溝","koaza":"寺内","lat":39.351979,"lng":140.391301,"zip":"0130552"},{"town":"大森町上溝","koaza":"松原","lat":39.34309,"lng":140.40004,"zip":"0130552"},{"town":"大森町上溝","koaza":"観音寺","lat":39.348114,"lng":140.395702,"zip":"0130552"},{"town":"雄物川町今宿","koaza":"末館","lat":39.28358,"lng":140.401152,"zip":"0130205"},{"town":"大森町上溝","koaza":"岩清水","lat":39.347283,"lng":140.403754,"zip":"0130552"},{"town":"大森町上溝","koaza":"中野","lat":39.339117,"lng":140.402969,"zip":"0130552"},{"town":"大森町上溝","koaza":"上野","lat":39.342525,"lng":140.405541,"zip":"0130552"},{"town":"雄物川町今宿","koaza":"郷","lat":39.291217,"lng":140.404997,"zip":"0130205"},{"town":"雄物川町今宿","koaza":"菅生沢","lat":39.292297,"lng":140.405018,"zip":"0130205"},{"town":"大森町上溝","koaza":"白山下","lat":39.34788,"lng":140.408982,"zip":"0130552"},{"town":"雄物川町南形","koaza":"大巻","lat":39.281084,"lng":140.412331,"zip":"0130213"},{"town":"雄物川町道地","koaza":"家東","lat":39.266697,"lng":140.40982,"zip":"0130217"},{"town":"雄物川町矢神","koaza":"矢神","lat":39.315329,"lng":140.411142,"zip":"0130207"},{"town":"雄物川町矢神","koaza":"堂ノ下","lat":39.319079,"lng":140.41301,"zip":"0130207"},{"town":"雄物川町南形","koaza":"町屋敷","lat":39.277934,"lng":140.410991,"zip":"0130213"},{"town":"雄物川町柏木","koaza":"後田","lat":39.272584,"lng":140.411487,"zip":"0130214"},{"town":"大森町上溝","koaza":"昼川","lat":39.345557,"lng":140.412355,"zip":"0130552"},{"town":"雄物川町柏木","koaza":"福田","lat":39.272499,"lng":140.414655,"zip":"0130214"},{"town":"大森町","koaza":"菅生田","lat":39.347548,"lng":140.417449,"zip":"0130501"},{"town":"雄物川町柏木","koaza":"堂ノ脇","lat":39.269459,"lng":140.415686,"zip":"0130214"},{"town":"雄物川町南形","koaza":"下大巻","lat":39.285774,"lng":140.419369,"zip":"0130213"},{"town":"雄物川町沼館","koaza":"中島","lat":39.293217,"lng":140.422002,"zip":"0130208"},{"town":"雄物川町沼館","koaza":"下川原","lat":39.300441,"lng":140.424797,"zip":"0130208"},{"town":"雄物川町薄井","koaza":"西船沼","lat":39.315478,"lng":140.430127,"zip":"0130481"},{"town":"大森町","koaza":"町田","lat":39.338158,"lng":140.421667,"zip":"0130501"},{"town":"雄物川町常野","koaza":"三津家","lat":39.258051,"lng":140.42235,"zip":"0130215"},{"town":"雄物川町西野","koaza":"上ノ村","lat":39.253808,"lng":140.421741,"zip":"0130216"},{"town":"大森町","koaza":"西野","lat":39.346852,"lng":140.422789,"zip":"0130501"},{"town":"雄物川町沼館","koaza":"館ノ下","lat":39.295993,"lng":140.42221,"zip":"0130208"},{"town":"雄物川町造山","koaza":"南田","lat":39.278947,"lng":140.424612,"zip":"0130212"},{"town":"大森町","koaza":"持向","lat":39.358028,"lng":140.429391,"zip":"0130501"},{"town":"雄物川町柏木","koaza":"三ツ屋","lat":39.271787,"lng":140.427128,"zip":"0130214"},{"town":"大森町","koaza":"長助巻","lat":39.334846,"lng":140.425843,"zip":"0130501"},{"town":"雄物川町今宿","koaza":"出向","lat":39.289362,"lng":140.425738,"zip":"0130205"},{"town":"雄物川町沼館","koaza":"沼館","lat":39.295965,"lng":140.428031,"zip":"0130208"},{"town":"雄物川町今宿","koaza":"下谷地","lat":39.293419,"lng":140.427379,"zip":"0130205"},{"town":"十文字町睦合","koaza":"中福島","lat":39.232419,"lng":140.427261,"zip":"0190514"},{"town":"雄物川町西野","koaza":"浄戒塚","lat":39.253933,"lng":140.424276,"zip":"0130216"},{"town":"十文字町睦合","koaza":"本城","lat":39.244369,"lng":140.426955,"zip":"0190514"},{"town":"大森町","koaza":"本郷","lat":39.336445,"lng":140.428326,"zip":"0130501"},{"town":"十文字町睦合","koaza":"上福島","lat":39.229161,"lng":140.42773,"zip":"0190514"},{"town":"雄物川町造山","koaza":"広田表","lat":39.276743,"lng":140.428037,"zip":"0130212"},{"town":"雄物川町造山","koaza":"社ノ前","lat":39.27817,"lng":140.427832,"zip":"0130212"},{"town":"大森町","koaza":"大森","lat":39.343823,"lng":140.427712,"zip":"0130501"},{"town":"雄物川町沼館","koaza":"八卦","lat":39.307638,"lng":140.423533,"zip":"0130208"},{"town":"十文字町睦合","koaza":"下砂出","lat":39.229316,"lng":140.429509,"zip":"0190514"},{"town":"雄物川町沼館","koaza":"宮ノ目","lat":39.305408,"lng":140.429973,"zip":"0130208"},{"town":"大森町","koaza":"大中島","lat":39.341582,"lng":140.431866,"zip":"0130501"},{"town":"雄物川町沼館","koaza":"高畑","lat":39.298731,"lng":140.429994,"zip":"0130208"},{"town":"雄物川町今宿","koaza":"鳴田","lat":39.290845,"lng":140.430346,"zip":"0130205"},{"town":"雄物川町造山","koaza":"十足馬場","lat":39.280981,"lng":140.429887,"zip":"0130212"},{"town":"十文字町睦合","koaza":"上砂出","lat":39.227777,"lng":140.431132,"zip":"0190514"},{"town":"十文字町睦合","koaza":"砂出川原","lat":39.229753,"lng":140.432554,"zip":"0190514"},{"town":"雄物川町今宿","koaza":"高花","lat":39.286992,"lng":140.429151,"zip":"0130205"},{"town":"雄物川町薄井","koaza":"下開","lat":39.329041,"lng":140.436619,"zip":"0130481"},{"town":"雄物川町薄井","koaza":"下船沼","lat":39.31481,"lng":140.431183,"zip":"0130481"},{"town":"雄物川町造山","koaza":"栗林","lat":39.276724,"lng":140.432366,"zip":"0130212"},{"town":"大森町","koaza":"西中島","lat":39.344164,"lng":140.432475,"zip":"0130501"},{"town":"雄物川町沼館","koaza":"稲荷前","lat":39.30064,"lng":140.431256,"zip":"0130208"},{"town":"雄物川町今宿","koaza":"西ノ在家","lat":39.288152,"lng":140.430184,"zip":"0130205"},{"town":"雄物川町沼館","koaza":"佐田","lat":39.291496,"lng":140.43274,"zip":"0130208"},{"town":"雄物川町沼館","koaza":"昼飯塚","lat":39.294095,"lng":140.432857,"zip":"0130208"},{"town":"雄物川町薄井","koaza":"船沼","lat":39.311807,"lng":140.432503,"zip":"0130481"},{"town":"雄物川町今宿","koaza":"前田面","lat":39.289145,"lng":140.432274,"zip":"0130205"},{"town":"十文字町睦合","koaza":"真角","lat":39.241415,"lng":140.436023,"zip":"0190514"},{"town":"雄物川町谷地新田","koaza":"大元","lat":39.264553,"lng":140.436411,"zip":"0130204"},{"town":"雄物川町薄井","koaza":"薄井","lat":39.32393,"lng":140.438711,"zip":"0130481"},{"town":"雄物川町造山","koaza":"耳取","lat":39.267227,"lng":140.437479,"zip":"0130212"},{"town":"雄物川町薄井","koaza":"大中島","lat":39.334831,"lng":140.4396,"zip":"0130481"},{"town":"雄物川町谷地新田","koaza":"上立野","lat":39.261118,"lng":140.441003,"zip":"0130204"},{"town":"雄物川町薄井","koaza":"上薄井","lat":39.32098,"lng":140.437988,"zip":"0130481"},{"town":"雄物川町東里","koaza":"東槻","lat":39.275712,"lng":140.44019,"zip":"0130203"},{"town":"雄物川町谷地新田","koaza":"堤添","lat":39.264975,"lng":140.440212,"zip":"0130204"},{"town":"雄物川町東里","koaza":"十三塚","lat":39.277743,"lng":140.435635,"zip":"0130203"},{"town":"十文字町睦合","koaza":"乱場","lat":39.237218,"lng":140.440545,"zip":"0190514"},{"town":"大雄","koaza":"藤巻西","lat":39.332347,"lng":140.441744,"zip":"0130459"},{"town":"十文字町谷地新田","koaza":"根木野","lat":39.254016,"lng":140.445244,"zip":"0190515"},{"town":"大森町袴形","koaza":"砂間内","lat":39.374365,"lng":140.444205,"zip":"0130502"},{"town":"雄物川町薄井","koaza":"上大見内","lat":39.302802,"lng":140.445309,"zip":"0130481"},{"town":"大森町袴形","koaza":"西神成","lat":39.372759,"lng":140.445369,"zip":"0130502"},{"town":"十文字町睦合","koaza":"太郎四郎","lat":39.225618,"lng":140.448404,"zip":"0190514"},{"town":"大森町袴形","koaza":"影取","lat":39.382879,"lng":140.444387,"zip":"0130502"},{"town":"大雄","koaza":"藤巻","lat":39.334578,"lng":140.446924,"zip":"0130459"},{"town":"十文字町谷地新田","koaza":"根木場","lat":39.250405,"lng":140.447134,"zip":"0190515"},{"town":"大森町十日町","koaza":"西女郎出","lat":39.357958,"lng":140.444753,"zip":"0130503"},{"town":"大森町板井田","koaza":"中山崎","lat":39.39717,"lng":140.446193,"zip":"0130501"},{"town":"雄物川町砂子田","koaza":"沼館道北","lat":39.287888,"lng":140.44481,"zip":"0130202"},{"town":"大森町十日町","koaza":"苗代下","lat":39.355877,"lng":140.44489,"zip":"0130503"},{"town":"大森町","koaza":"牛中島","lat":39.350029,"lng":140.444951,"zip":"0130501"},{"town":"十文字町睦合","koaza":"川前","lat":39.228077,"lng":140.447051,"zip":"0190514"},{"town":"雄物川町薄井","koaza":"小出","lat":39.323249,"lng":140.445471,"zip":"0130481"},{"town":"雄物川町谷地新田","koaza":"沼田","lat":39.259184,"lng":140.449049,"zip":"0130204"},{"town":"平鹿町樽見内","koaza":"福田","lat":39.270234,"lng":140.450197,"zip":"0130104"},{"town":"大森町袴形","koaza":"北越前林","lat":39.377309,"lng":140.447896,"zip":"0130502"},{"town":"大森町板井田","koaza":"西小出","lat":39.386459,"lng":140.447581,"zip":"0130501"},{"town":"大森町板井田","koaza":"鱗田","lat":39.395933,"lng":140.445903,"zip":"0130501"},{"town":"十文字町睦合","koaza":"川井川","lat":39.231256,"lng":140.447081,"zip":"0190514"},{"town":"大森町袴形","koaza":"東小出","lat":39.383083,"lng":140.447671,"zip":"0130502"},{"town":"十文字町谷地新田","koaza":"中村","lat":39.240275,"lng":140.44733,"zip":"0190515"},{"town":"雄物川町会塚","koaza":"北田","lat":39.301542,"lng":140.451265,"zip":"0130201"},{"town":"平鹿町樽見内","koaza":"西柄内","lat":39.271478,"lng":140.447877,"zip":"0130104"},{"town":"雄物川町薄井","koaza":"南神谷地","lat":39.316121,"lng":140.44747,"zip":"0130481"},{"town":"十文字町睦合","koaza":"中谷地","lat":39.23726,"lng":140.449774,"zip":"0190514"},{"town":"雄物川町東里","koaza":"東里","lat":39.276051,"lng":140.449096,"zip":"0130203"},{"town":"大森町袴形","koaza":"南越前林","lat":39.376092,"lng":140.450197,"zip":"0130502"},{"town":"雄物川町薄井","koaza":"下大見内","lat":39.307114,"lng":140.4485,"zip":"0130481"},{"town":"大森町板井田","koaza":"上三ッ屋","lat":39.404132,"lng":140.451328,"zip":"0130501"},{"town":"十文字町谷地新田","koaza":"役内","lat":39.251565,"lng":140.450674,"zip":"0190515"},{"town":"雄物川町会塚","koaza":"石塚","lat":39.294115,"lng":140.450164,"zip":"0130201"},{"town":"雄物川町東里","koaza":"東里北","lat":39.280707,"lng":140.450152,"zip":"0130203"},{"town":"雄物川町東里","koaza":"立野","lat":39.280537,"lng":140.449094,"zip":"0130203"},{"town":"大森町板井田","koaza":"高八卦","lat":39.402338,"lng":140.450995,"zip":"0130501"},{"town":"大森町板井田","koaza":"北松田","lat":39.388454,"lng":140.451336,"zip":"0130501"},{"town":"大雄","koaza":"田町","lat":39.329399,"lng":140.451657,"zip":"0130459"},{"town":"平鹿町樽見内","koaza":"柄内","lat":39.271896,"lng":140.451092,"zip":"0130104"},{"town":"大森町板井田","koaza":"南松田","lat":39.386848,"lng":140.452454,"zip":"0130501"},{"town":"平鹿町樽見内","koaza":"北沢","lat":39.252861,"lng":140.454052,"zip":"0130104"},{"town":"大森町板井田","koaza":"中小中島","lat":39.39768,"lng":140.454549,"zip":"0130501"},{"town":"十文字町源太左馬","koaza":"源太","lat":39.249516,"lng":140.455047,"zip":"0190516"},{"town":"大雄","koaza":"土井尻","lat":39.333223,"lng":140.452131,"zip":"0130459"},{"town":"大森町板井田","koaza":"南小中島","lat":39.396553,"lng":140.453357,"zip":"0130501"},{"town":"大雄","koaza":"剰水","lat":39.320395,"lng":140.456609,"zip":"0130459"},{"town":"十文字町睦合","koaza":"宿","lat":39.226256,"lng":140.455879,"zip":"0190514"},{"town":"十文字町睦合","koaza":"朝日野","lat":39.224366,"lng":140.454743,"zip":"0190514"},{"town":"平鹿町樽見内","koaza":"中在家","lat":39.275465,"lng":140.456029,"zip":"0130104"},{"town":"大雄","koaza":"下新処","lat":39.324029,"lng":140.457484,"zip":"0130459"},{"town":"十文字町睦合","koaza":"左馬","lat":39.223358,"lng":140.457134,"zip":"0190514"},{"town":"十文字町谷地新田","koaza":"荊島","lat":39.242181,"lng":140.457405,"zip":"0190515"},{"town":"十文字町源太左馬","koaza":"前田","lat":39.247046,"lng":140.457198,"zip":"0190516"},{"town":"大雄","koaza":"西中島","lat":39.35469,"lng":140.459745,"zip":"0130459"},{"town":"大雄","koaza":"島田","lat":39.330563,"lng":140.453846,"zip":"0130459"},{"town":"大雄","koaza":"南阿気","lat":39.339298,"lng":140.456802,"zip":"0130459"},{"town":"雄物川町会塚","koaza":"又兵衛","lat":39.312347,"lng":140.458347,"zip":"0130201"},{"town":"大雄","koaza":"東阿気","lat":39.347606,"lng":140.459355,"zip":"0130459"},{"town":"平鹿町樽見内","koaza":"新屋","lat":39.260857,"lng":140.458635,"zip":"0130104"},{"town":"平鹿町樽見内","koaza":"扇田","lat":39.271667,"lng":140.459717,"zip":"0130104"},{"town":"平鹿町樽見内","koaza":"砂子田","lat":39.280394,"lng":140.458388,"zip":"0130104"},{"town":"十文字町谷地新田","koaza":"旭野","lat":39.241195,"lng":140.458584,"zip":"0190515"},{"town":"平鹿町樽見内","koaza":"大釜","lat":39.278427,"lng":140.459823,"zip":"0130104"},{"town":"平鹿町樽見内","koaza":"高畑","lat":39.261898,"lng":140.459801,"zip":"0130104"},{"town":"十文字町植田","koaza":"一ト市","lat":39.227156,"lng":140.462382,"zip":"0190513"},{"town":"十文字町木下","koaza":"一本柳","lat":39.249319,"lng":140.461589,"zip":"0190517"},{"town":"平鹿町浅舞","koaza":"上中野","lat":39.296389,"lng":140.460267,"zip":"0130105"},{"town":"平鹿町下鍋倉","koaza":"上甚平","lat":39.253887,"lng":140.461531,"zip":"0130103"},{"town":"十文字町植田","koaza":"下羽場","lat":39.22513,"lng":140.464292,"zip":"0190513"},{"town":"十文字町源太左馬","koaza":"石川原","lat":39.245654,"lng":140.464058,"zip":"0190516"},{"town":"平鹿町浅舞","koaza":"釜池","lat":39.288838,"lng":140.465117,"zip":"0130105"},{"town":"大雄","koaza":"桜森","lat":39.336113,"lng":140.462997,"zip":"0130459"},{"town":"大雄","koaza":"西四津屋","lat":39.32497,"lng":140.461433,"zip":"0130459"},{"town":"十文字町植田","koaza":"沼尻","lat":39.239888,"lng":140.465924,"zip":"0190513"},{"town":"大雄","koaza":"乗阿気","lat":39.354008,"lng":140.463358,"zip":"0130459"},{"town":"大雄","koaza":"柏木西","lat":39.31338,"lng":140.46295,"zip":"0130459"},{"town":"平鹿町浅舞","koaza":"後野","lat":39.295853,"lng":140.464789,"zip":"0130105"},{"town":"平鹿町樽見内","koaza":"小豆田","lat":39.259689,"lng":140.470402,"zip":"0130104"},{"town":"平鹿町下鍋倉","koaza":"甚平","lat":39.251514,"lng":140.464049,"zip":"0130103"},{"town":"平鹿町樽見内","koaza":"堀田","lat":39.271006,"lng":140.463612,"zip":"0130104"},{"town":"大雄","koaza":"東四津屋","lat":39.320933,"lng":140.463921,"zip":"0130459"},{"town":"大雄","koaza":"高津野","lat":39.357796,"lng":140.468448,"zip":"0130459"},{"town":"大雄","koaza":"大慈寺谷地","lat":39.350022,"lng":140.465575,"zip":"0130459"},{"town":"十文字町木下","koaza":"沢田","lat":39.24519,"lng":140.466555,"zip":"0190517"},{"town":"大雄","koaza":"柏木下","lat":39.314786,"lng":140.466303,"zip":"0130459"},{"town":"大雄","koaza":"東桜森","lat":39.336332,"lng":140.465239,"zip":"0130459"},{"town":"大雄","koaza":"柏木","lat":39.311991,"lng":140.465062,"zip":"0130459"},{"town":"大雄","koaza":"向田","lat":39.351777,"lng":140.465927,"zip":"0130459"},{"town":"大雄","koaza":"三村西","lat":39.338906,"lng":140.467869,"zip":"0130459"},{"town":"平鹿町浅舞","koaza":"蛭野","lat":39.285148,"lng":140.468339,"zip":"0130105"},{"town":"平鹿町下鍋倉","koaza":"馬場尻","lat":39.254168,"lng":140.466369,"zip":"0130103"},{"town":"平鹿町浅舞","koaza":"高野尻","lat":39.297172,"lng":140.466018,"zip":"0130105"},{"town":"平鹿町浅舞","koaza":"下高口","lat":39.304719,"lng":140.467975,"zip":"0130105"},{"town":"平鹿町浅舞","koaza":"鷹野","lat":39.29525,"lng":140.467411,"zip":"0130105"},{"town":"平鹿町樽見内","koaza":"古館","lat":39.266838,"lng":140.466977,"zip":"0130104"},{"town":"平鹿町浅舞","koaza":"反見","lat":39.29232,"lng":140.468363,"zip":"0130105"},{"town":"大雄","koaza":"石持前","lat":39.333823,"lng":140.467438,"zip":"0130459"},{"town":"十文字町植田","koaza":"西荒屋布","lat":39.240752,"lng":140.467675,"zip":"0190513"},{"town":"平鹿町樽見内","koaza":"海道添","lat":39.266389,"lng":140.465625,"zip":"0130104"},{"town":"十文字町植田","koaza":"東荒屋布","lat":39.235197,"lng":140.467959,"zip":"0190513"},{"town":"大雄","koaza":"上桜森","lat":39.316749,"lng":140.470291,"zip":"0130459"},{"town":"大雄","koaza":"樋脇","lat":39.328922,"lng":140.469028,"zip":"0130459"},{"town":"大雄","koaza":"大慈寺前","lat":39.346635,"lng":140.468003,"zip":"0130459"},{"town":"平鹿町浅舞","koaza":"蜂笛","lat":39.288685,"lng":140.46832,"zip":"0130105"},{"town":"大雄","koaza":"石持","lat":39.335946,"lng":140.469469,"zip":"0130459"},{"town":"平鹿町浅舞","koaza":"餅田","lat":39.293201,"lng":140.468425,"zip":"0130105"},{"town":"十文字町植田","koaza":"上羽場","lat":39.226343,"lng":140.468555,"zip":"0190513"},{"town":"十文字町植田","koaza":"羽場","lat":39.224955,"lng":140.468456,"zip":"0190513"},{"town":"十文字町植田","koaza":"忍ノ沢","lat":39.235118,"lng":140.472915,"zip":"0190513"},{"town":"大雄","koaza":"折橋","lat":39.350423,"lng":140.475073,"zip":"0130459"},{"town":"大雄","koaza":"大慈寺東","lat":39.346359,"lng":140.469962,"zip":"0130459"},{"town":"十文字町植田","koaza":"下二ツ橋","lat":39.241569,"lng":140.472694,"zip":"0190513"},{"town":"大雄","koaza":"向","lat":39.313351,"lng":140.470916,"zip":"0130459"},{"town":"平鹿町浅舞","koaza":"返諏訪","lat":39.264329,"lng":140.475777,"zip":"0130105"},{"town":"十文字町植田","koaza":"植田","lat":39.23094,"lng":140.47229,"zip":"0190513"},{"town":"大雄","koaza":"大谷地西","lat":39.342624,"lng":140.472637,"zip":"0130459"},{"town":"十文字町植田","koaza":"土満","lat":39.223705,"lng":140.47236,"zip":"0190513"},{"town":"大雄","koaza":"三村","lat":39.335736,"lng":140.473256,"zip":"0130459"},{"town":"大雄","koaza":"大谷地","lat":39.33916,"lng":140.473963,"zip":"0130459"},{"town":"大雄","koaza":"新町北","lat":39.366165,"lng":140.474097,"zip":"0130459"},{"town":"大雄","koaza":"福島南","lat":39.36957,"lng":140.473229,"zip":"0130459"},{"town":"平鹿町下吉田","koaza":"下高口","lat":39.304612,"lng":140.472686,"zip":"0130107"},{"town":"大雄","koaza":"狐塚","lat":39.330029,"lng":140.473754,"zip":"0130459"},{"town":"大雄","koaza":"向東","lat":39.314082,"lng":140.473739,"zip":"0130459"},{"town":"十文字町植田","koaza":"志摩","lat":39.217785,"lng":140.475793,"zip":"0190513"},{"town":"十文字町植田","koaza":"四ツ屋","lat":39.227991,"lng":140.477353,"zip":"0190513"},{"town":"大雄","koaza":"新町西","lat":39.360378,"lng":140.473359,"zip":"0130459"},{"town":"大雄","koaza":"福島","lat":39.374692,"lng":140.475658,"zip":"0130459"},{"town":"平鹿町浅舞","koaza":"上高野","lat":39.288103,"lng":140.474074,"zip":"0130105"},{"town":"十文字町植田","koaza":"大清水","lat":39.232879,"lng":140.474337,"zip":"0190513"},{"town":"平鹿町下吉田","koaza":"石川原","lat":39.312493,"lng":140.478281,"zip":"0130107"},{"town":"十文字町植田","koaza":"高口","lat":39.223528,"lng":140.476478,"zip":"0190513"},{"town":"大雄","koaza":"新町東","lat":39.360006,"lng":140.475389,"zip":"0130459"},{"town":"大雄","koaza":"大関","lat":39.339334,"lng":140.476348,"zip":"0130459"},{"town":"大雄","koaza":"三村東","lat":39.334491,"lng":140.473716,"zip":"0130459"},{"town":"十文字町植田","koaza":"上二ツ橋","lat":39.238006,"lng":140.475608,"zip":"0190513"},{"town":"大雄","koaza":"田村","lat":39.356676,"lng":140.477656,"zip":"0130459"},{"town":"大雄","koaza":"一ノ関南","lat":39.320487,"lng":140.474981,"zip":"0130459"},{"town":"平鹿町下鍋倉","koaza":"上都","lat":39.245837,"lng":140.475866,"zip":"0130103"},{"town":"大雄","koaza":"新町南","lat":39.353526,"lng":140.47782,"zip":"0130459"},{"town":"十文字町越前","koaza":"坂三塔","lat":39.24146,"lng":140.477,"zip":"0190512"},{"town":"平鹿町下吉田","koaza":"一本杉","lat":39.303403,"lng":140.478866,"zip":"0130107"},{"town":"平鹿町浅舞","koaza":"新平川","lat":39.278551,"lng":140.479387,"zip":"0130105"},{"town":"十文字町越前","koaza":"二ツ橋","lat":39.239408,"lng":140.477706,"zip":"0190512"},{"town":"平鹿町浅舞","koaza":"五味川","lat":39.291149,"lng":140.480391,"zip":"0130105"},{"town":"平鹿町浅舞","koaza":"荒小屋東","lat":39.270407,"lng":140.493554,"zip":"0130105"},{"town":"大雄","koaza":"本庄道北堰間","lat":39.333032,"lng":140.47671,"zip":"0130459"},{"town":"大雄","koaza":"一ノ関東","lat":39.322244,"lng":140.478918,"zip":"0130459"},{"town":"平鹿町浅舞","koaza":"諏訪野","lat":39.261556,"lng":140.478176,"zip":"0130105"},{"town":"平鹿町浅舞","koaza":"八幡小路","lat":39.262698,"lng":140.481519,"zip":"0130105"},{"town":"大雄","koaza":"柏木南","lat":39.350333,"lng":140.478756,"zip":"0130459"},{"town":"十文字町越前","koaza":"山道下","lat":39.239492,"lng":140.478748,"zip":"0190512"},{"town":"大雄","koaza":"傾城塚","lat":39.348451,"lng":140.483079,"zip":"0130459"},{"town":"平鹿町浅舞","koaza":"古本町","lat":39.260968,"lng":140.480519,"zip":"0130105"},{"town":"大雄","koaza":"耳取","lat":39.344615,"lng":140.485577,"zip":"0130459"},{"town":"平鹿町下鍋倉","koaza":"城戸","lat":39.252819,"lng":140.480135,"zip":"0130103"},{"town":"平鹿町下鍋倉","koaza":"鍋倉","lat":39.248654,"lng":140.48151,"zip":"0130103"},{"town":"平鹿町浅舞","koaza":"檀ノ前","lat":39.289757,"lng":140.483304,"zip":"0130105"},{"town":"平鹿町浅舞","koaza":"加羽","lat":39.278113,"lng":140.480805,"zip":"0130105"},{"town":"十文字町鼎","koaza":"海蔵院","lat":39.221014,"lng":140.48306,"zip":"0190511"},{"town":"平鹿町下鍋倉","koaza":"下六ッ段","lat":39.257113,"lng":140.481906,"zip":"0130103"},{"town":"平鹿町浅舞","koaza":"研町","lat":39.260101,"lng":140.482601,"zip":"0130105"},{"town":"平鹿町浅舞","koaza":"千刈田","lat":39.263579,"lng":140.480883,"zip":"0130105"},{"town":"平鹿町下鍋倉","koaza":"下糸畑原","lat":39.250421,"lng":140.485044,"zip":"0130103"},{"town":"平鹿町下吉田","koaza":"高口狐森","lat":39.29511,"lng":140.482516,"zip":"0130107"},{"town":"平鹿町下吉田","koaza":"高口東","lat":39.299204,"lng":140.484164,"zip":"0130107"},{"town":"大雄","koaza":"田根森","lat":39.331801,"lng":140.483988,"zip":"0130459"},{"town":"十文字町越前","koaza":"越前","lat":39.228674,"lng":140.486529,"zip":"0190512"},{"town":"平鹿町浅舞","koaza":"林崎","lat":39.273327,"lng":140.483658,"zip":"0130105"},{"town":"大雄","koaza":"耳取西","lat":39.346114,"lng":140.483457,"zip":"0130459"},{"town":"大雄","koaza":"上田村西","lat":39.328656,"lng":140.483246,"zip":"0130459"},{"town":"平鹿町浅舞","koaza":"新堀","lat":39.26882,"lng":140.483677,"zip":"0130105"},{"town":"大雄","koaza":"上田村","lat":39.32679,"lng":140.485383,"zip":"0130459"},{"town":"平鹿町中吉田","koaza":"狐森","lat":39.293437,"lng":140.483639,"zip":"0130106"},{"town":"大雄","koaza":"精兵西","lat":39.332668,"lng":140.481562,"zip":"0130459"},{"town":"十文字町越前","koaza":"大堰端","lat":39.232042,"lng":140.485744,"zip":"0190512"},{"town":"大雄","koaza":"本庄道南","lat":39.332283,"lng":140.48322,"zip":"0130459"},{"town":"十文字町鼎","koaza":"柳原村尻","lat":39.215785,"lng":140.484781,"zip":"0190511"},{"town":"平鹿町下鍋倉","koaza":"菖蒲沼","lat":39.240571,"lng":140.48485,"zip":"0130103"},{"town":"大雄","koaza":"四ッ屋","lat":39.339397,"lng":140.48539,"zip":"0130459"},{"town":"大雄","koaza":"精兵村","lat":39.334319,"lng":140.486882,"zip":"0130459"},{"town":"平鹿町中吉田","koaza":"和村西","lat":39.294524,"lng":140.485131,"zip":"0130106"},{"town":"平鹿町浅舞","koaza":"浅舞","lat":39.264219,"lng":140.486422,"zip":"0130105"},{"town":"平鹿町下吉田","koaza":"田村堰東","lat":39.308307,"lng":140.484429,"zip":"0130107"},{"town":"大雄","koaza":"上田村東","lat":39.32973,"lng":140.4865,"zip":"0130459"},{"town":"十文字町鼎","koaza":"柳原","lat":39.214747,"lng":140.488821,"zip":"0190511"},{"town":"平鹿町浅舞","koaza":"六日町後","lat":39.268242,"lng":140.487203,"zip":"0130105"},{"town":"平鹿町浅舞","koaza":"沼下","lat":39.275457,"lng":140.48703,"zip":"0130105"},{"town":"十文字町鼎","koaza":"住吉","lat":39.221269,"lng":140.48653,"zip":"0190511"},{"town":"平鹿町浅舞","koaza":"館廻","lat":39.266039,"lng":140.484718,"zip":"0130105"},{"town":"大雄","koaza":"万貝","lat":39.324798,"lng":140.486327,"zip":"0130459"},{"town":"大雄","koaza":"文蔵開","lat":39.326633,"lng":140.487331,"zip":"0130459"},{"town":"百万刈","koaza":"落合","lat":39.379466,"lng":140.488081,"zip":"0130825"},{"town":"大雄","koaza":"大森道北","lat":39.349261,"lng":140.48779,"zip":"0130459"},{"town":"平鹿町下鍋倉","koaza":"関根小屋","lat":39.254844,"lng":140.489999,"zip":"0130103"},{"town":"平鹿町浅舞","koaza":"野々助","lat":39.260978,"lng":140.487477,"zip":"0130105"},{"town":"十文字町越前","koaza":"佐戸","lat":39.241488,"lng":140.489282,"zip":"0190512"},{"town":"平鹿町下吉田","koaza":"下村","lat":39.301174,"lng":140.489482,"zip":"0130107"},{"town":"大雄","koaza":"八柏下村","lat":39.320426,"lng":140.488379,"zip":"0130459"},{"town":"平鹿町下鍋倉","koaza":"上六ッ段","lat":39.251532,"lng":140.487287,"zip":"0130103"},{"town":"十文字町鼎","koaza":"牡丹野","lat":39.224377,"lng":140.488879,"zip":"0190511"},{"town":"黒川","koaza":"落合","lat":39.376709,"lng":140.490275,"zip":"0130826"},{"town":"大雄","koaza":"八柏","lat":39.313858,"lng":140.489967,"zip":"0130459"},{"town":"大雄","koaza":"八柏村西","lat":39.318542,"lng":140.488791,"zip":"0130459"},{"town":"大雄","koaza":"八柏家間","lat":39.319708,"lng":140.491273,"zip":"0130459"},{"town":"大雄","koaza":"田根森東","lat":39.333,"lng":140.488326,"zip":"0130459"},{"town":"平鹿町浅舞","koaza":"福田","lat":39.268144,"lng":140.491713,"zip":"0130105"},{"town":"平鹿町下鍋倉","koaza":"下川前","lat":39.251379,"lng":140.488427,"zip":"0130103"},{"town":"平鹿町下吉田","koaza":"七日市","lat":39.304817,"lng":140.48936,"zip":"0130107"},{"town":"黒川","koaza":"下共和","lat":39.376112,"lng":140.489686,"zip":"0130826"},{"town":"平鹿町中吉田","koaza":"和村","lat":39.294689,"lng":140.490329,"zip":"0130106"},{"town":"大雄","koaza":"佐加里","lat":39.35532,"lng":140.491938,"zip":"0130459"},{"town":"平鹿町浅舞","koaza":"覚町後","lat":39.263821,"lng":140.491172,"zip":"0130105"},{"town":"百万刈","koaza":"百万刈","lat":39.370373,"lng":140.489941,"zip":"0130825"},{"town":"平鹿町下吉田","koaza":"下村道ノ上","lat":39.300498,"lng":140.489781,"zip":"0130107"},{"town":"大雄","koaza":"八柏村表","lat":39.310723,"lng":140.490102,"zip":"0130459"},{"town":"平鹿町下吉田","koaza":"弥十郎","lat":39.296083,"lng":140.491091,"zip":"0130107"},{"town":"大雄","koaza":"八柏街道添","lat":39.316012,"lng":140.490164,"zip":"0130459"},{"town":"大雄","koaza":"八柏中村","lat":39.317788,"lng":140.490752,"zip":"0130459"},{"town":"平鹿町下吉田","koaza":"吉田","lat":39.300906,"lng":140.490843,"zip":"0130107"},{"town":"平鹿町浅舞","koaza":"上蒋沼","lat":39.260103,"lng":140.491195,"zip":"0130105"},{"town":"平鹿町浅舞","koaza":"中東","lat":39.265346,"lng":140.491257,"zip":"0130105"},{"town":"平鹿町下吉田","koaza":"前谷地","lat":39.305653,"lng":140.490966,"zip":"0130107"},{"town":"平鹿町中吉田","koaza":"下藤根西","lat":39.284566,"lng":140.491758,"zip":"0130106"},{"town":"平鹿町下吉田","koaza":"大戸川西","lat":39.302771,"lng":140.49229,"zip":"0130107"},{"town":"大雄","koaza":"根田谷地南","lat":39.333298,"lng":140.492716,"zip":"0130459"},{"town":"平鹿町中吉田","koaza":"下藤根","lat":39.282822,"lng":140.493284,"zip":"0130106"},{"town":"平鹿町浅舞","koaza":"伊勢堂","lat":39.259056,"lng":140.490578,"zip":"0130105"},{"town":"大雄","koaza":"中野東","lat":39.344849,"lng":140.493504,"zip":"0130459"},{"town":"黒川","koaza":"合川","lat":39.374261,"lng":140.492887,"zip":"0130826"},{"town":"大雄","koaza":"八柏谷地","lat":39.325207,"lng":140.493553,"zip":"0130459"},{"town":"大雄","koaza":"根田谷地西","lat":39.334123,"lng":140.49245,"zip":"0130459"},{"town":"十文字町鼎","koaza":"大倉","lat":39.220235,"lng":140.494925,"zip":"0190511"},{"town":"平鹿町中吉田","koaza":"追分","lat":39.294859,"lng":140.492867,"zip":"0130106"},{"town":"平鹿町中吉田","koaza":"蟹沢西","lat":39.298586,"lng":140.492808,"zip":"0130106"},{"town":"黒川","koaza":"下和野","lat":39.370099,"lng":140.494779,"zip":"0130826"},{"town":"大雄","koaza":"伝蔵村","lat":39.341606,"lng":140.493968,"zip":"0130459"},{"town":"黒川","koaza":"上和野","lat":39.366463,"lng":140.495502,"zip":"0130826"},{"town":"平鹿町中吉田","koaza":"蟹沢","lat":39.298759,"lng":140.493602,"zip":"0130106"},{"town":"平鹿町浅舞","koaza":"蒋沼","lat":39.259194,"lng":140.493405,"zip":"0130105"},{"town":"平鹿町下鍋倉","koaza":"下掵","lat":39.256139,"lng":140.493781,"zip":"0130103"},{"town":"平鹿町浅舞","koaza":"横手街道北","lat":39.267541,"lng":140.495174,"zip":"0130105"},{"town":"黒川","koaza":"二本柳","lat":39.372429,"lng":140.495627,"zip":"0130826"},{"town":"黒川","koaza":"鶴巻田","lat":39.363353,"lng":140.495786,"zip":"0130826"},{"town":"黒川","koaza":"川原","lat":39.374408,"lng":140.496149,"zip":"0130826"},{"town":"平鹿町中吉田","koaza":"野村","lat":39.289538,"lng":140.495282,"zip":"0130106"},{"town":"平鹿町中吉田","koaza":"石塚","lat":39.28819,"lng":140.496313,"zip":"0130106"},{"town":"大雄","koaza":"根田谷地","lat":39.335044,"lng":140.495243,"zip":"0130459"},{"town":"大雄","koaza":"八柏釜蓋","lat":39.319706,"lng":140.495527,"zip":"0130459"},{"town":"大雄","koaza":"佐加里南","lat":39.350826,"lng":140.495873,"zip":"0130459"},{"town":"平鹿町下鍋倉","koaza":"二本松","lat":39.250359,"lng":140.497117,"zip":"0130103"},{"town":"平鹿町中吉田","koaza":"福田","lat":39.293292,"lng":140.495951,"zip":"0130106"},{"town":"黒川","koaza":"余目","lat":39.355832,"lng":140.498736,"zip":"0130826"},{"town":"平鹿町浅舞","koaza":"大東","lat":39.260906,"lng":140.496695,"zip":"0130105"},{"town":"平鹿町中吉田","koaza":"中藤根下","lat":39.283739,"lng":140.496125,"zip":"0130106"},{"town":"十文字町鼎","koaza":"能平喜","lat":39.232994,"lng":140.498876,"zip":"0190511"},{"town":"黒川","koaza":"悪戸","lat":39.368148,"lng":140.499344,"zip":"0130826"},{"town":"平鹿町中吉田","koaza":"竹原","lat":39.269202,"lng":140.497075,"zip":"0130106"},{"town":"百万刈","koaza":"下根田","lat":39.353209,"lng":140.497881,"zip":"0130825"},{"town":"大雄","koaza":"下根田谷地","lat":39.343832,"lng":140.498784,"zip":"0130459"},{"town":"平鹿町下鍋倉","koaza":"上掵","lat":39.251569,"lng":140.4971,"zip":"0130103"},{"town":"十文字町佐賀会","koaza":"八幡前","lat":39.217358,"lng":140.500667,"zip":"0190506"},{"town":"十文字町鼎","koaza":"水尻","lat":39.225571,"lng":140.498133,"zip":"0190511"},{"town":"十文字町上鍋倉","koaza":"勘六村雷","lat":39.234429,"lng":140.501609,"zip":"0190507"},{"town":"黒川","koaza":"田中","lat":39.363012,"lng":140.501851,"zip":"0130826"},{"town":"十文字町鼎","koaza":"荒田目","lat":39.22465,"lng":140.5001,"zip":"0190511"},{"town":"平鹿町上吉田","koaza":"大道","lat":39.292651,"lng":140.501112,"zip":"0130101"},{"town":"十文字町上鍋倉","koaza":"勘六村北","lat":39.235043,"lng":140.501134,"zip":"0190507"},{"town":"百万刈","koaza":"上根田","lat":39.343797,"lng":140.501518,"zip":"0130825"},{"town":"平鹿町浅舞","koaza":"一関向","lat":39.261092,"lng":140.502316,"zip":"0130105"},{"town":"平鹿町浅舞","koaza":"十六石野","lat":39.257787,"lng":140.502605,"zip":"0130105"},{"town":"十文字町鼎","koaza":"新処","lat":39.227522,"lng":140.502824,"zip":"0190511"},{"town":"黒川","koaza":"牛柳","lat":39.350243,"lng":140.50051,"zip":"0130826"},{"town":"下境","koaza":"大橋脇","lat":39.345822,"lng":140.505372,"zip":"0130824"},{"town":"十文字町上鍋倉","koaza":"家後","lat":39.244421,"lng":140.504155,"zip":"0190507"},{"town":"十文字町鼎","koaza":"石川原","lat":39.217113,"lng":140.505811,"zip":"0190511"},{"town":"平鹿町浅舞","koaza":"道川南","lat":39.26053,"lng":140.504523,"zip":"0130105"},{"town":"下境","koaza":"根田川","lat":39.342565,"lng":140.50508,"zip":"0130824"},{"town":"十文字町佐賀会","koaza":"新関","lat":39.217894,"lng":140.50415,"zip":"0190506"},{"town":"十文字町鼎","koaza":"上野村","lat":39.22439,"lng":140.503535,"zip":"0190511"},{"town":"十文字町佐賀会","koaza":"中川原","lat":39.214518,"lng":140.505033,"zip":"0190506"},{"town":"十文字町上鍋倉","koaza":"富沢","lat":39.241906,"lng":140.506801,"zip":"0190507"},{"town":"下境","koaza":"庚塚","lat":39.340284,"lng":140.505937,"zip":"0130824"},{"town":"下境","koaza":"稗巻","lat":39.346726,"lng":140.507308,"zip":"0130824"},{"town":"下境","koaza":"目名川","lat":39.350055,"lng":140.511601,"zip":"0130824"},{"town":"平鹿町中吉田","koaza":"田ノ植","lat":39.288822,"lng":140.505826,"zip":"0130106"},{"town":"黒川","koaza":"寺村","lat":39.362186,"lng":140.508699,"zip":"0130826"},{"town":"十文字町上鍋倉","koaza":"中村倉内","lat":39.233901,"lng":140.505901,"zip":"0190507"},{"town":"平鹿町上吉田","koaza":"吉田","lat":39.292695,"lng":140.506838,"zip":"0130101"},{"town":"十文字町十五野新田","koaza":"十五野","lat":39.243317,"lng":140.506713,"zip":"0190508"},{"town":"十文字町佐賀会","koaza":"新山道添","lat":39.213222,"lng":140.509312,"zip":"0190506"},{"town":"十文字町上鍋倉","koaza":"清水田","lat":39.23675,"lng":140.508592,"zip":"0190507"},{"town":"十文字町上鍋倉","koaza":"掵下中道添","lat":39.233976,"lng":140.509887,"zip":"0190507"},{"town":"十文字町佐賀会","koaza":"阿良谷","lat":39.218976,"lng":140.511129,"zip":"0190506"},{"town":"十文字町佐賀会","koaza":"新山前","lat":39.212907,"lng":140.513699,"zip":"0190506"},{"town":"下境","koaza":"中村","lat":39.346706,"lng":140.512436,"zip":"0130824"},{"town":"下境","koaza":"大島","lat":39.338162,"lng":140.509711,"zip":"0130824"},{"town":"黒川","koaza":"寺南","lat":39.361409,"lng":140.509046,"zip":"0130826"},{"town":"黒川","koaza":"川南","lat":39.360707,"lng":140.511404,"zip":"0130826"},{"town":"十文字町上鍋倉","koaza":"掵下清水田","lat":39.229724,"lng":140.510501,"zip":"0190507"},{"town":"十文字町十五野新田","koaza":"東野中","lat":39.243557,"lng":140.513335,"zip":"0190508"},{"town":"下境","koaza":"下三ツ栗","lat":39.341173,"lng":140.512608,"zip":"0130824"},{"town":"十文字町佐賀会","koaza":"伊賀利","lat":39.218936,"lng":140.512817,"zip":"0190506"},{"town":"平鹿町上吉田","koaza":"角掛","lat":39.28487,"lng":140.513528,"zip":"0130101"},{"town":"十文字町上鍋倉","koaza":"掵大道西","lat":39.230776,"lng":140.512348,"zip":"0190507"},{"town":"黒川","koaza":"目名川","lat":39.352626,"lng":140.512755,"zip":"0130826"},{"town":"十文字町上鍋倉","koaza":"掵下屋布後","lat":39.226656,"lng":140.513959,"zip":"0190507"},{"town":"下境","koaza":"北大屋敷","lat":39.350476,"lng":140.514328,"zip":"0130824"},{"town":"下境","koaza":"斉藤小屋","lat":39.345151,"lng":140.513631,"zip":"0130824"},{"town":"十文字町十五野新田","koaza":"増田道東","lat":39.232133,"lng":140.514866,"zip":"0190508"},{"town":"十文字町佐賀会","koaza":"下沖田","lat":39.219395,"lng":140.517034,"zip":"0190506"},{"town":"十文字町佐賀会","koaza":"上沖田","lat":39.215596,"lng":140.515483,"zip":"0190506"},{"town":"黒川","koaza":"南谷地","lat":39.357116,"lng":140.514022,"zip":"0130826"},{"town":"黒川","koaza":"一本木","lat":39.358738,"lng":140.518866,"zip":"0130826"},{"town":"十文字町十五野新田","koaza":"坊主沢","lat":39.235992,"lng":140.518523,"zip":"0190508"},{"town":"下境","koaza":"上三ツ栗","lat":39.341001,"lng":140.516527,"zip":"0130824"},{"town":"黒川","koaza":"千本野","lat":39.355936,"lng":140.518699,"zip":"0130826"},{"town":"黒川","koaza":"浦島","lat":39.353269,"lng":140.515232,"zip":"0130826"},{"town":"下境","koaza":"太郎小屋","lat":39.346028,"lng":140.516416,"zip":"0130824"},{"town":"黒川","koaza":"西野","lat":39.351763,"lng":140.517676,"zip":"0130826"},{"town":"十文字町上鍋倉","koaza":"上掵","lat":39.224707,"lng":140.517139,"zip":"0190507"},{"town":"下境","koaza":"八百刈","lat":39.344591,"lng":140.51792,"zip":"0130824"},{"town":"十文字町","koaza":"海道下","lat":39.226163,"lng":140.521266,"zip":"0190525"},{"town":"十文字町仁井田","koaza":"八萩","lat":39.214891,"lng":140.519265,"zip":"0190505"},{"town":"下八丁","koaza":"上中島","lat":39.337625,"lng":140.51826,"zip":"0130824"},{"town":"十文字町上鍋倉","koaza":"西坊田野","lat":39.221352,"lng":140.518393,"zip":"0190507"},{"town":"十文字町十五野新田","koaza":"十文字下タ","lat":39.22522,"lng":140.518678,"zip":"0190508"},{"town":"猪岡","koaza":"長瀞","lat":39.315335,"lng":140.519002,"zip":"0130065"},{"town":"十文字町上鍋倉","koaza":"東坊田野","lat":39.221955,"lng":140.519982,"zip":"0190507"},{"town":"十文字町仁井田","koaza":"東","lat":39.216957,"lng":140.519619,"zip":"0190505"},{"town":"平鹿町上吉田","koaza":"反見","lat":39.28563,"lng":140.520102,"zip":"0130101"},{"town":"下境","koaza":"日向","lat":39.345604,"lng":140.520119,"zip":"0130824"},{"town":"十文字町十五野新田","koaza":"十浦下タ","lat":39.231867,"lng":140.517966,"zip":"0190508"},{"town":"十文字町十五野新田","koaza":"梨木境","lat":39.240565,"lng":140.520504,"zip":"0190508"},{"town":"下境","koaza":"八気","lat":39.350627,"lng":140.521403,"zip":"0130824"},{"town":"赤川","koaza":"村北荒堰間","lat":39.326677,"lng":140.520822,"zip":"0130073"},{"town":"下境","koaza":"千本野","lat":39.355684,"lng":140.520394,"zip":"0130824"},{"town":"猪岡","koaza":"水上","lat":39.31756,"lng":140.521665,"zip":"0130065"},{"town":"十文字町仁井田","koaza":"屋布西","lat":39.213757,"lng":140.522703,"zip":"0190505"},{"town":"十文字町","koaza":"栄町","lat":39.223415,"lng":140.522049,"zip":"0190525"},{"town":"十文字町","koaza":"西上","lat":39.227251,"lng":140.524691,"zip":"0190525"},{"town":"十文字町仁井田","koaza":"町西","lat":39.211914,"lng":140.524019,"zip":"0190505"},{"town":"十文字町","koaza":"西下","lat":39.230461,"lng":140.523218,"zip":"0190525"},{"town":"平鹿町醍醐","koaza":"中道上","lat":39.250725,"lng":140.522937,"zip":"0130102"},{"town":"下境","koaza":"関合","lat":39.34157,"lng":140.524166,"zip":"0130824"},{"town":"平鹿町醍醐","koaza":"掵下","lat":39.249103,"lng":140.524056,"zip":"0130102"},{"town":"十文字町仁井田","koaza":"町東","lat":39.21248,"lng":140.525203,"zip":"0190505"},{"town":"平鹿町醍醐","koaza":"下醍醐","lat":39.252225,"lng":140.522905,"zip":"0130102"},{"town":"下境","koaza":"板小屋","lat":39.348656,"lng":140.526454,"zip":"0130824"},{"town":"十文字町","koaza":"曙町","lat":39.222681,"lng":140.524721,"zip":"0190525"},{"town":"下境","koaza":"荒田","lat":39.351901,"lng":140.524396,"zip":"0130824"},{"town":"下境","koaza":"馬場","lat":39.347665,"lng":140.524852,"zip":"0130824"},{"town":"十文字町梨木","koaza":"御休ノ上","lat":39.238842,"lng":140.526212,"zip":"0190509"},{"town":"十文字町","koaza":"大道東","lat":39.2194,"lng":140.525748,"zip":"0190525"},{"town":"十文字町仁井田","koaza":"大道西","lat":39.216994,"lng":140.525791,"zip":"0190505"},{"town":"十文字町仁井田","koaza":"町頭","lat":39.210938,"lng":140.525282,"zip":"0190505"},{"town":"上境","koaza":"谷地中","lat":39.340716,"lng":140.527923,"zip":"0130821"},{"town":"十文字町梨木","koaza":"海道下","lat":39.230578,"lng":140.526516,"zip":"0190509"},{"town":"十文字町腕越","koaza":"西原","lat":39.223779,"lng":140.526869,"zip":"0190501"},{"town":"十文字町梨木","koaza":"羽場下","lat":39.233748,"lng":140.527435,"zip":"0190509"},{"town":"上八丁","koaza":"上小屋","lat":39.33322,"lng":140.529518,"zip":"0130014"},{"town":"上境","koaza":"中小屋","lat":39.34741,"lng":140.528839,"zip":"0130821"},{"town":"赤坂","koaza":"沢口","lat":39.300937,"lng":140.530333,"zip":"0130064"},{"town":"十文字町","koaza":"麻当","lat":39.219551,"lng":140.527777,"zip":"0190525"},{"town":"三本柳","koaza":"六郎小屋","lat":39.327642,"lng":140.52838,"zip":"0130074"},{"town":"平鹿町醍醐","koaza":"街道下","lat":39.242461,"lng":140.530427,"zip":"0130102"},{"town":"十文字町","koaza":"下佐吉開","lat":39.222093,"lng":140.52913,"zip":"0190525"},{"town":"平鹿町醍醐","koaza":"醍醐","lat":39.244423,"lng":140.531797,"zip":"0130102"},{"town":"赤川","koaza":"樋掛","lat":39.323311,"lng":140.529564,"zip":"0130073"},{"town":"十文字町腕越","koaza":"佐吉開","lat":39.223561,"lng":140.532403,"zip":"0190501"},{"town":"十文字町仁井田","koaza":"大道東","lat":39.213232,"lng":140.531813,"zip":"0190505"},{"town":"赤坂","koaza":"城野岡","lat":39.30905,"lng":140.531132,"zip":"0130064"},{"town":"上境","koaza":"南大倉小屋","lat":39.337825,"lng":140.530862,"zip":"0130821"},{"town":"上境","koaza":"上間明田","lat":39.349149,"lng":140.530298,"zip":"0130821"},{"town":"上境","koaza":"北大倉小屋","lat":39.33856,"lng":140.531634,"zip":"0130821"},{"town":"十文字町梨木","koaza":"家東","lat":39.234501,"lng":140.530449,"zip":"0190509"},{"town":"十文字町梨木","koaza":"村北","lat":39.236527,"lng":140.530436,"zip":"0190509"},{"town":"外目","koaza":"五庵沢","lat":39.269167,"lng":140.532116,"zip":"0130053"},{"town":"十文字町仁井田","koaza":"堰南","lat":39.215803,"lng":140.531862,"zip":"0190505"},{"town":"上境","koaza":"下間明田","lat":39.35081,"lng":140.530643,"zip":"0130821"},{"town":"平鹿町醍醐","koaza":"大橋","lat":39.251567,"lng":140.533093,"zip":"0130102"},{"town":"上境","koaza":"番匠田","lat":39.348637,"lng":140.5322,"zip":"0130821"},{"town":"平鹿町醍醐","koaza":"上醍醐","lat":39.25243,"lng":140.532727,"zip":"0130102"},{"town":"十文字町","koaza":"上佐吉開","lat":39.221646,"lng":140.532928,"zip":"0190525"},{"town":"平鹿町醍醐","koaza":"四ッ屋","lat":39.251629,"lng":140.536092,"zip":"0130102"},{"town":"十文字町仁井田","koaza":"家西","lat":39.218434,"lng":140.530292,"zip":"0190505"},{"town":"平鹿町醍醐","koaza":"街道上","lat":39.240708,"lng":140.533395,"zip":"0130102"},{"town":"赤坂","koaza":"城野岡前","lat":39.312291,"lng":140.530834,"zip":"0130064"},{"town":"三本柳","koaza":"馬場尻","lat":39.324461,"lng":140.53328,"zip":"0130074"},{"town":"増田町増田","koaza":"一本柳西","lat":39.210738,"lng":140.532493,"zip":"0190701"},{"town":"十文字町仁井田","koaza":"家後","lat":39.217948,"lng":140.534596,"zip":"0190505"},{"town":"平鹿町醍醐","koaza":"上狐渕","lat":39.247273,"lng":140.533298,"zip":"0130102"},{"town":"赤坂","koaza":"橋本","lat":39.308331,"lng":140.5346,"zip":"0130064"},{"town":"上八丁","koaza":"村東","lat":39.33043,"lng":140.534583,"zip":"0130014"},{"town":"外目","koaza":"平鹿端","lat":39.260343,"lng":140.536572,"zip":"0130053"},{"town":"平鹿町醍醐","koaza":"下狐渕","lat":39.248558,"lng":140.53428,"zip":"0130102"},{"town":"安本","koaza":"安本","lat":39.355961,"lng":140.536495,"zip":"0130811"},{"town":"赤坂","koaza":"中山","lat":39.301764,"lng":140.533953,"zip":"0130064"},{"town":"平鹿町醍醐","koaza":"石成","lat":39.242818,"lng":140.534505,"zip":"0130102"},{"town":"上八丁","koaza":"天神町","lat":39.331387,"lng":140.536787,"zip":"0130014"},{"town":"上境","koaza":"登津羅町","lat":39.340215,"lng":140.540032,"zip":"0130821"},{"town":"上境","koaza":"館","lat":39.346985,"lng":140.537082,"zip":"0130821"},{"town":"杉目","koaza":"新屋敷","lat":39.334804,"lng":140.536949,"zip":"0130076"},{"town":"三本柳","koaza":"助太郎小屋","lat":39.325543,"lng":140.538955,"zip":"0130074"},{"town":"外目","koaza":"下桜沢","lat":39.272165,"lng":140.537709,"zip":"0130053"},{"town":"十文字町腕越","koaza":"山道端","lat":39.223191,"lng":140.537252,"zip":"0190501"},{"town":"三本柳","koaza":"街道下","lat":39.321213,"lng":140.538111,"zip":"0130074"},{"town":"平鹿町醍醐","koaza":"下篭田","lat":39.239461,"lng":140.537094,"zip":"0130102"},{"town":"十文字町腕越","koaza":"上掵","lat":39.224659,"lng":140.537276,"zip":"0190501"},{"town":"外目","koaza":"後村","lat":39.26448,"lng":140.53787,"zip":"0130053"},{"town":"三本柳","koaza":"沼頭","lat":39.320106,"lng":140.537965,"zip":"0130074"},{"town":"増田町増田","koaza":"月山西","lat":39.200683,"lng":140.539335,"zip":"0190701"},{"town":"上境","koaza":"中悪戸","lat":39.348308,"lng":140.536919,"zip":"0130821"},{"town":"上境","koaza":"大上境","lat":39.344563,"lng":140.537914,"zip":"0130821"},{"town":"平鹿町醍醐","koaza":"鰌田","lat":39.252214,"lng":140.538352,"zip":"0130102"},{"town":"赤坂","koaza":"大道添","lat":39.303544,"lng":140.538885,"zip":"0130064"},{"town":"三本柳","koaza":"村尻","lat":39.320332,"lng":140.538503,"zip":"0130074"},{"town":"安本","koaza":"本田下","lat":39.363278,"lng":140.53801,"zip":"0130811"},{"town":"赤坂","koaza":"上喜連森","lat":39.305808,"lng":140.540385,"zip":"0130064"},{"town":"柳田","koaza":"新藤","lat":39.276768,"lng":140.538992,"zip":"0130054"},{"town":"外目","koaza":"後呂山","lat":39.27475,"lng":140.537634,"zip":"0130053"},{"town":"安本","koaza":"中谷地","lat":39.356303,"lng":140.544138,"zip":"0130811"},{"town":"平鹿町醍醐","koaza":"太茂田","lat":39.24837,"lng":140.540287,"zip":"0130102"},{"town":"赤坂","koaza":"荒沼","lat":39.300903,"lng":140.539013,"zip":"0130064"},{"town":"杉目","koaza":"福小屋","lat":39.335046,"lng":140.540997,"zip":"0130076"},{"town":"平鹿町醍醐","koaza":"中篭田","lat":39.23152,"lng":140.540489,"zip":"0130102"},{"town":"平鹿町醍醐","koaza":"野中","lat":39.228862,"lng":140.541722,"zip":"0130102"},{"town":"赤坂","koaza":"大沼下","lat":39.300798,"lng":140.541122,"zip":"0130064"},{"town":"上境","koaza":"上悪戸","lat":39.347161,"lng":140.54101,"zip":"0130821"},{"town":"赤坂","koaza":"下後野","lat":39.311549,"lng":140.542,"zip":"0130064"},{"town":"上境","koaza":"白幡","lat":39.341141,"lng":140.540962,"zip":"0130821"},{"town":"上境","koaza":"川原田","lat":39.343378,"lng":140.54114,"zip":"0130821"},{"town":"平鹿町醍醐","koaza":"道中","lat":39.249722,"lng":140.542751,"zip":"0130102"},{"town":"赤坂","koaza":"白山前","lat":39.3132,"lng":140.542481,"zip":"0130064"},{"town":"三本柳","koaza":"縄手下","lat":39.318357,"lng":140.540665,"zip":"0130074"},{"town":"増田町増田","koaza":"石神","lat":39.203004,"lng":140.541265,"zip":"0190701"},{"town":"外目","koaza":"前村","lat":39.264339,"lng":140.541363,"zip":"0130053"},{"town":"上境","koaza":"空原","lat":39.339376,"lng":140.542392,"zip":"0130821"},{"town":"三本柳","koaza":"街道上","lat":39.320981,"lng":140.542112,"zip":"0130074"},{"town":"平鹿町醍醐","koaza":"野中上","lat":39.226718,"lng":140.54147,"zip":"0130102"},{"town":"上境","koaza":"石田","lat":39.340411,"lng":140.542072,"zip":"0130821"},{"town":"増田町増田","koaza":"土肥館","lat":39.201198,"lng":140.542218,"zip":"0190701"},{"town":"平鹿町醍醐","koaza":"宮西","lat":39.247405,"lng":140.546162,"zip":"0130102"},{"town":"十文字町腕越","koaza":"石倉","lat":39.222099,"lng":140.542372,"zip":"0190501"},{"town":"柳田","koaza":"五大尊","lat":39.27958,"lng":140.542969,"zip":"0130054"},{"town":"赤坂","koaza":"伏山","lat":39.316561,"lng":140.544357,"zip":"0130064"},{"town":"赤坂","koaza":"赤坂","lat":39.303972,"lng":140.543048,"zip":"0130064"},{"town":"三本柳","koaza":"寺田","lat":39.319537,"lng":140.543616,"zip":"0130074"},{"town":"安本","koaza":"尼辺","lat":39.352401,"lng":140.54595,"zip":"0130811"},{"town":"静町","koaza":"北小屋","lat":39.336115,"lng":140.543985,"zip":"0130075"},{"town":"赤坂","koaza":"郷士館","lat":39.301747,"lng":140.5467,"zip":"0130064"},{"town":"赤坂","koaza":"上後野","lat":39.308286,"lng":140.547979,"zip":"0130064"},{"town":"柳田","koaza":"大谷地","lat":39.280733,"lng":140.545923,"zip":"0130054"},{"town":"赤坂","koaza":"大道向","lat":39.302774,"lng":140.545332,"zip":"0130064"},{"town":"増田町増田","koaza":"本町","lat":39.205175,"lng":140.545048,"zip":"0190701"},{"town":"外目","koaza":"三ツ塚山","lat":39.262285,"lng":140.546163,"zip":"0130053"},{"town":"平鹿町醍醐","koaza":"下関合","lat":39.23616,"lng":140.544443,"zip":"0130102"},{"town":"柳田","koaza":"中村","lat":39.28095,"lng":140.549211,"zip":"0130054"},{"town":"赤坂","koaza":"富ケ沢","lat":39.29372,"lng":140.545927,"zip":"0130064"},{"town":"静町","koaza":"払小屋","lat":39.334205,"lng":140.543283,"zip":"0130075"},{"town":"赤坂","koaza":"後野堰添","lat":39.308337,"lng":140.547394,"zip":"0130064"},{"town":"静町","koaza":"赤口","lat":39.332453,"lng":140.545881,"zip":"0130075"},{"town":"安本","koaza":"南尼辺","lat":39.351756,"lng":140.543332,"zip":"0130811"},{"town":"赤坂","koaza":"後野","lat":39.306899,"lng":140.546676,"zip":"0130064"},{"town":"柳田","koaza":"礼塚","lat":39.276307,"lng":140.549392,"zip":"0130054"},{"town":"平鹿町醍醐","koaza":"三嶋","lat":39.248854,"lng":140.541211,"zip":"0130102"},{"town":"静町","koaza":"鶴田","lat":39.327566,"lng":140.54684,"zip":"0130075"},{"town":"婦気大堤","koaza":"田久保","lat":39.289423,"lng":140.547415,"zip":"0130063"},{"town":"上境","koaza":"毛曽","lat":39.337606,"lng":140.545257,"zip":"0130821"},{"town":"平鹿町醍醐","koaza":"上関合","lat":39.235625,"lng":140.546999,"zip":"0130102"},{"town":"増田町亀田","koaza":"在城","lat":39.22378,"lng":140.546329,"zip":"0190702"},{"town":"静町","koaza":"長田","lat":39.331331,"lng":140.545294,"zip":"0130075"},{"town":"八幡","koaza":"上鶴田","lat":39.324238,"lng":140.546743,"zip":"0130071"},{"town":"柳田","koaza":"持田","lat":39.272517,"lng":140.55252,"zip":"0130054"},{"town":"増田町増田","koaza":"竹原道下","lat":39.212978,"lng":140.547233,"zip":"0190701"},{"town":"増田町増田","koaza":"福嶋道東","lat":39.21103,"lng":140.545427,"zip":"0190701"},{"town":"横手町","koaza":"五ノ口","lat":39.315133,"lng":140.546919,"zip":"0130061"},{"town":"静町","koaza":"村東","lat":39.332554,"lng":140.54712,"zip":"0130075"},{"town":"杉目","koaza":"塚腰","lat":39.336949,"lng":140.546088,"zip":"0130076"},{"town":"横手町","koaza":"六ノ口","lat":39.317905,"lng":140.547167,"zip":"0130061"},{"town":"増田町増田","koaza":"中町","lat":39.203965,"lng":140.546462,"zip":"0190701"},{"town":"睦成","koaza":"三原","lat":39.339258,"lng":140.547767,"zip":"0130008"},{"town":"増田町増田","koaza":"七日町","lat":39.202719,"lng":140.546684,"zip":"0190701"},{"town":"横手町","koaza":"大関越","lat":39.319744,"lng":140.54896,"zip":"0130061"},{"town":"八幡","koaza":"十二柳","lat":39.32907,"lng":140.549962,"zip":"0130071"},{"town":"平鹿町醍醐","koaza":"宮東","lat":39.246863,"lng":140.550141,"zip":"0130102"},{"town":"平鹿町醍醐","koaza":"関合","lat":39.233262,"lng":140.549378,"zip":"0130102"},{"town":"平鹿町醍醐","koaza":"阿弥陀田","lat":39.243151,"lng":140.551309,"zip":"0130102"},{"town":"前郷","koaza":"八ツ口","lat":39.312613,"lng":140.548767,"zip":"0130042"},{"town":"十文字町腕越","koaza":"北軒端","lat":39.219307,"lng":140.549418,"zip":"0190501"},{"town":"金沢中野","koaza":"十二牲","lat":39.373159,"lng":140.548269,"zip":"0130814"},{"town":"婦気大堤","koaza":"西野","lat":39.304531,"lng":140.548144,"zip":"0130063"},{"town":"増田町増田","koaza":"縫殿","lat":39.198604,"lng":140.548635,"zip":"0190701"},{"town":"金沢中野","koaza":"西法寺","lat":39.358907,"lng":140.554662,"zip":"0130814"},{"town":"八幡","koaza":"長者町","lat":39.324495,"lng":140.549775,"zip":"0130071"},{"town":"横手町","koaza":"四ノ口","lat":39.312842,"lng":140.550821,"zip":"0130061"},{"town":"婦気大堤","koaza":"田久保下","lat":39.293435,"lng":140.550505,"zip":"0130063"},{"town":"婦気大堤","koaza":"下久保","lat":39.306173,"lng":140.550218,"zip":"0130063"},{"town":"睦成","koaza":"西久保目","lat":39.333659,"lng":140.550026,"zip":"0130008"},{"town":"横手町","koaza":"三ノ口","lat":39.317095,"lng":140.551075,"zip":"0130061"},{"town":"八幡","koaza":"上長田","lat":39.326055,"lng":140.552319,"zip":"0130071"},{"town":"婦気大堤","koaza":"婦気前","lat":39.301509,"lng":140.551561,"zip":"0130063"},{"town":"外目","koaza":"大谷地","lat":39.267219,"lng":140.551612,"zip":"0130053"},{"town":"増田町増田","koaza":"新町","lat":39.204616,"lng":140.550548,"zip":"0190701"},{"town":"睦成","koaza":"下久保目","lat":39.335529,"lng":140.554325,"zip":"0130008"},{"town":"赤坂","koaza":"館ノ下","lat":39.297926,"lng":140.550826,"zip":"0130064"},{"town":"婦気大堤","koaza":"谷地添","lat":39.304686,"lng":140.553599,"zip":"0130063"},{"town":"八幡","koaza":"八幡","lat":39.32215,"lng":140.553974,"zip":"0130071"},{"town":"安田","koaza":"向田","lat":39.298594,"lng":140.553861,"zip":"0130043"},{"town":"金沢中野","koaza":"下矢来沢","lat":39.369913,"lng":140.55317,"zip":"0130814"},{"town":"増田町亀田","koaza":"下タ町後","lat":39.232464,"lng":140.552236,"zip":"0190702"},{"town":"柳田","koaza":"笹崎","lat":39.270206,"lng":140.553933,"zip":"0130054"},{"town":"婦気大堤","koaza":"堤下","lat":39.293376,"lng":140.553972,"zip":"0130063"},{"town":"大屋新町","koaza":"大平","lat":39.287032,"lng":140.55172,"zip":"0130051"},{"town":"睦成","koaza":"関根","lat":39.33314,"lng":140.553868,"zip":"0130008"},{"town":"柳田","koaza":"柳田","lat":39.27725,"lng":140.553011,"zip":"0130054"},{"town":"杉目","koaza":"二タ子下","lat":39.349564,"lng":140.553199,"zip":"0130076"},{"town":"杉目","koaza":"堤下","lat":39.344099,"lng":140.553726,"zip":"0130076"},{"town":"金沢中野","koaza":"三貫堰","lat":39.36221,"lng":140.558623,"zip":"0130814"},{"town":"平鹿町醍醐","koaza":"久田","lat":39.247982,"lng":140.55467,"zip":"0130102"},{"town":"増田町亀田","koaza":"上堰合","lat":39.215337,"lng":140.55736,"zip":"0190702"},{"town":"増田町亀田","koaza":"上堰合北","lat":39.216994,"lng":140.556066,"zip":"0190702"},{"town":"睦成","koaza":"東馬川原","lat":39.335167,"lng":140.556603,"zip":"0130008"},{"town":"増田町亀田","koaza":"半助村南","lat":39.213147,"lng":140.557452,"zip":"0190702"},{"town":"横手町","koaza":"上真山","lat":39.318713,"lng":140.556317,"zip":"0130061"},{"town":"睦成","koaza":"久保目","lat":39.330621,"lng":140.554927,"zip":"0130008"},{"town":"杉目","koaza":"大堤下","lat":39.347144,"lng":140.553099,"zip":"0130076"},{"town":"杉目","koaza":"野中","lat":39.344293,"lng":140.55575,"zip":"0130076"},{"town":"婦気大堤","koaza":"中田","lat":39.296182,"lng":140.554855,"zip":"0130063"},{"town":"増田町亀田","koaza":"下タ町","lat":39.227928,"lng":140.557394,"zip":"0190702"},{"town":"八幡","koaza":"石町","lat":39.325713,"lng":140.556048,"zip":"0130071"},{"town":"増田町増田","koaza":"若松","lat":39.20266,"lng":140.559901,"zip":"0190701"},{"town":"平鹿町醍醐","koaza":"平林","lat":39.252403,"lng":140.554999,"zip":"0130102"},{"town":"大屋寺内","koaza":"下楢沢","lat":39.258554,"lng":140.553392,"zip":"0130052"},{"town":"平鹿町醍醐","koaza":"釜ノ川","lat":39.23519,"lng":140.556402,"zip":"0130102"},{"town":"平鹿町醍醐","koaza":"馬鞍","lat":39.248768,"lng":140.560367,"zip":"0130102"},{"town":"安田","koaza":"堰添","lat":39.300449,"lng":140.555708,"zip":"0130043"},{"town":"安田","koaza":"堰端","lat":39.306556,"lng":140.555385,"zip":"0130043"},{"town":"大屋新町","koaza":"中野","lat":39.284838,"lng":140.557201,"zip":"0130051"},{"town":"安田","koaza":"越廻","lat":39.302883,"lng":140.555332,"zip":"0130043"},{"town":"安本","koaza":"中御所野","lat":39.353113,"lng":140.55712,"zip":"0130811"},{"town":"増田町亀田","koaza":"下タ町南","lat":39.225899,"lng":140.557419,"zip":"0190702"},{"town":"平鹿町醍醐","koaza":"中村","lat":39.233067,"lng":140.558138,"zip":"0130102"},{"town":"金沢中野","koaza":"蛭沢","lat":39.355797,"lng":140.558636,"zip":"0130814"},{"town":"睦成","koaza":"上川原","lat":39.33104,"lng":140.55794,"zip":"0130008"},{"town":"横手町","koaza":"下真山","lat":39.320878,"lng":140.557252,"zip":"0130061"},{"town":"杉目","koaza":"前通","lat":39.342693,"lng":140.557546,"zip":"0130076"},{"town":"大屋新町","koaza":"小松原","lat":39.278757,"lng":140.556669,"zip":"0130051"},{"town":"横手町","koaza":"下飛瀬","lat":39.311512,"lng":140.558234,"zip":"0130061"},{"town":"平鹿町醍醐","koaza":"日照田","lat":39.230843,"lng":140.55919,"zip":"0130102"},{"town":"睦成","koaza":"七間川原","lat":39.332908,"lng":140.558222,"zip":"0130008"},{"town":"安田","koaza":"縄手添","lat":39.303528,"lng":140.557064,"zip":"0130043"},{"town":"前郷","koaza":"下三枚橋","lat":39.309948,"lng":140.558931,"zip":"0130042"},{"town":"大屋新町","koaza":"牛首戸","lat":39.28831,"lng":140.558818,"zip":"0130051"},{"town":"金沢中野","koaza":"湯森","lat":39.37597,"lng":140.557553,"zip":"0130814"},{"town":"前郷","koaza":"上三枚橋","lat":39.308955,"lng":140.558022,"zip":"0130042"},{"town":"安本","koaza":"御所野","lat":39.351691,"lng":140.558806,"zip":"0130811"},{"town":"杉目","koaza":"街道下","lat":39.345035,"lng":140.559212,"zip":"0130076"},{"town":"大屋寺内","koaza":"上楢沢","lat":39.258378,"lng":140.559927,"zip":"0130052"},{"town":"安田","koaza":"堂山","lat":39.300035,"lng":140.558364,"zip":"0130043"},{"town":"大屋新町","koaza":"堂ノ前","lat":39.275947,"lng":140.557716,"zip":"0130051"},{"town":"前郷","koaza":"下横山","lat":39.306471,"lng":140.55826,"zip":"0130042"},{"town":"平鹿町醍醐","koaza":"北野","lat":39.236557,"lng":140.561898,"zip":"0130102"},{"town":"大屋寺内","koaza":"長谷下","lat":39.273704,"lng":140.561101,"zip":"0130052"},{"town":"睦成","koaza":"八幡田","lat":39.327902,"lng":140.559243,"zip":"0130008"},{"town":"増田町亀田","koaza":"半助村","lat":39.215034,"lng":140.562448,"zip":"0190702"},{"town":"大屋新町","koaza":"新町","lat":39.278898,"lng":140.56055,"zip":"0130051"},{"town":"安田","koaza":"八王寺","lat":39.294523,"lng":140.559795,"zip":"0130043"},{"town":"平鹿町醍醐","koaza":"明沢","lat":39.228733,"lng":140.564091,"zip":"0130102"},{"town":"大屋寺内","koaza":"堀ノ内","lat":39.275185,"lng":140.56045,"zip":"0130052"},{"town":"安本","koaza":"北御所野","lat":39.354686,"lng":140.5512,"zip":"0130811"},{"town":"増田町亀田","koaza":"因幡","lat":39.216875,"lng":140.559796,"zip":"0190702"},{"town":"大屋新町","koaza":"法竜","lat":39.284995,"lng":140.560854,"zip":"0130051"},{"town":"増田町増田","koaza":"平鹿","lat":39.205488,"lng":140.561507,"zip":"0190701"},{"town":"安田","koaza":"馬場","lat":39.299029,"lng":140.562855,"zip":"0130043"},{"town":"安田","koaza":"樋渡","lat":39.305175,"lng":140.56043,"zip":"0130043"},{"town":"睦成","koaza":"鶴巻","lat":39.333955,"lng":140.56246,"zip":"0130008"},{"town":"婦気大堤","koaza":"高ノ森","lat":39.29168,"lng":140.560033,"zip":"0130063"},{"town":"安本","koaza":"南御所野","lat":39.349442,"lng":140.55789,"zip":"0130811"},{"town":"安田","koaza":"柳堤","lat":39.296844,"lng":140.561814,"zip":"0130043"},{"town":"平鹿町醍醐","koaza":"沢口","lat":39.233434,"lng":140.562956,"zip":"0130102"},{"town":"睦成","koaza":"長坂","lat":39.341614,"lng":140.562107,"zip":"0130008"},{"town":"杉目","koaza":"七日市","lat":39.341111,"lng":140.560101,"zip":"0130076"},{"town":"大屋新町","koaza":"中里前","lat":39.278715,"lng":140.563908,"zip":"0130051"},{"town":"大屋新町","koaza":"仏ケ沢","lat":39.281076,"lng":140.568601,"zip":"0130051"},{"town":"増田町増田","koaza":"横落下","lat":39.204268,"lng":140.564085,"zip":"0190701"},{"town":"杉沢","koaza":"中杉沢","lat":39.347814,"lng":140.564612,"zip":"0130001"},{"town":"安田","koaza":"谷地岸","lat":39.30245,"lng":140.563799,"zip":"0130043"},{"town":"増田町亀田","koaza":"平鹿","lat":39.206262,"lng":140.5656,"zip":"0190702"},{"town":"増田町亀田","koaza":"亀田","lat":39.221385,"lng":140.563609,"zip":"0190702"},{"town":"増田町亀田","koaza":"掵","lat":39.208793,"lng":140.564136,"zip":"0190702"},{"town":"睦成","koaza":"七日市","lat":39.334888,"lng":140.560334,"zip":"0130008"},{"town":"杉沢","koaza":"谷地中","lat":39.354595,"lng":140.567932,"zip":"0130001"},{"town":"増田町亀田","koaza":"柳原","lat":39.21318,"lng":140.564511,"zip":"0190702"},{"town":"大屋新町","koaza":"平林","lat":39.28565,"lng":140.564042,"zip":"0130051"},{"town":"大屋寺内","koaza":"長谷","lat":39.268095,"lng":140.563011,"zip":"0130052"},{"town":"大屋寺内","koaza":"寺内","lat":39.271786,"lng":140.564535,"zip":"0130052"},{"town":"睦成","koaza":"鶴谷地","lat":39.335221,"lng":140.564826,"zip":"0130008"},{"town":"金沢中野","koaza":"上矢来沢","lat":39.364263,"lng":140.564919,"zip":"0130814"},{"town":"安田","koaza":"ブンナ沢","lat":39.297046,"lng":140.565093,"zip":"0130043"},{"town":"増田町亀田","koaza":"鷹ノ嘴","lat":39.214765,"lng":140.565345,"zip":"0190702"},{"town":"増田町増田","koaza":"平鹿向","lat":39.20617,"lng":140.569298,"zip":"0190701"},{"town":"杉沢","koaza":"鶴谷地","lat":39.340818,"lng":140.56565,"zip":"0130001"},{"town":"大屋寺内","koaza":"寺村","lat":39.273699,"lng":140.566068,"zip":"0130052"},{"town":"金沢中野","koaza":"長持","lat":39.368084,"lng":140.568099,"zip":"0130814"},{"town":"大屋新町","koaza":"中里","lat":39.278775,"lng":140.566384,"zip":"0130051"},{"town":"前郷","koaza":"上松原","lat":39.299408,"lng":140.568019,"zip":"0130042"},{"town":"大屋寺内","koaza":"熊ノ沢","lat":39.262809,"lng":140.566521,"zip":"0130052"},{"town":"大屋新町","koaza":"鬼嵐","lat":39.276367,"lng":140.56627,"zip":"0130051"},{"town":"金沢中野","koaza":"物見","lat":39.363163,"lng":140.567104,"zip":"0130814"},{"town":"杉沢","koaza":"見入野","lat":39.339929,"lng":140.572477,"zip":"0130001"},{"town":"杉沢","koaza":"東杉沢","lat":39.348447,"lng":140.567256,"zip":"0130001"},{"town":"平鹿町醍醐","koaza":"城廻","lat":39.247596,"lng":140.567215,"zip":"0130102"},{"town":"杉沢","koaza":"狼ノ沢","lat":39.346691,"lng":140.57562,"zip":"0130001"},{"town":"杉沢","koaza":"吉沢","lat":39.335459,"lng":140.569106,"zip":"0130001"},{"town":"金沢中野","koaza":"厨川","lat":39.375049,"lng":140.569036,"zip":"0130814"},{"town":"増田町亀田","koaza":"亀ヶ森","lat":39.21086,"lng":140.570454,"zip":"0190702"},{"town":"杉沢","koaza":"上台","lat":39.35517,"lng":140.574841,"zip":"0130001"},{"town":"増田町亀田","koaza":"上掵","lat":39.209436,"lng":140.572637,"zip":"0190702"},{"town":"大屋寺内","koaza":"漆原","lat":39.26991,"lng":140.568937,"zip":"0130052"},{"town":"睦成","koaza":"大沢","lat":39.33257,"lng":140.572753,"zip":"0130008"},{"town":"金沢中野","koaza":"根小屋","lat":39.374347,"lng":140.573029,"zip":"0130814"},{"town":"前郷","koaza":"大乗院塚","lat":39.303882,"lng":140.571444,"zip":"0130042"},{"town":"金沢","koaza":"榊柳","lat":39.37709,"lng":140.571473,"zip":"0130813"},{"town":"増田町荻袋","koaza":"真当","lat":39.202674,"lng":140.576652,"zip":"0190711"},{"town":"前郷","koaza":"兀山","lat":39.298958,"lng":140.57294,"zip":"0130042"},{"town":"金沢本町","koaza":"田町","lat":39.378374,"lng":140.572187,"zip":"0130812"},{"town":"杉沢","koaza":"中島","lat":39.349721,"lng":140.578277,"zip":"0130001"},{"town":"金沢本町","koaza":"荒町","lat":39.380021,"lng":140.574391,"zip":"0130812"},{"town":"睦成","koaza":"柳沢","lat":39.335998,"lng":140.575061,"zip":"0130008"},{"town":"金沢本町","koaza":"立石","lat":39.377506,"lng":140.575191,"zip":"0130812"},{"town":"前郷","koaza":"本郷","lat":39.305736,"lng":140.580089,"zip":"0130042"},{"town":"杉沢","koaza":"糠塚","lat":39.343534,"lng":140.577118,"zip":"0130001"},{"town":"金沢本町","koaza":"川目","lat":39.379678,"lng":140.576041,"zip":"0130812"},{"town":"杉沢","koaza":"見入野天狗沢","lat":39.345136,"lng":140.576874,"zip":"0130001"},{"town":"前郷","koaza":"上在家","lat":39.304943,"lng":140.576217,"zip":"0130042"},{"town":"金沢","koaza":"館石","lat":39.377884,"lng":140.578758,"zip":"0130813"},{"town":"杉沢","koaza":"鶴ケ首","lat":39.340665,"lng":140.578826,"zip":"0130001"},{"town":"大沢","koaza":"西野","lat":39.304848,"lng":140.580994,"zip":"0130041"},{"town":"大沢","koaza":"上庭当田","lat":39.301272,"lng":140.58406,"zip":"0130041"},{"town":"大沢","koaza":"下庭当田","lat":39.301964,"lng":140.581399,"zip":"0130041"},{"town":"大沢","koaza":"前田","lat":39.305777,"lng":140.584707,"zip":"0130041"},{"town":"大沢","koaza":"山下","lat":39.306973,"lng":140.587149,"zip":"0130041"},{"town":"大沢","koaza":"回立","lat":39.291336,"lng":140.586371,"zip":"0130041"},{"town":"大沢","koaza":"大沢","lat":39.303756,"lng":140.587574,"zip":"0130041"},{"town":"大沢","koaza":"嶽鼻","lat":39.299545,"lng":140.587446,"zip":"0130041"},{"town":"山内大沢","koaza":"下長瀞","lat":39.293612,"lng":140.589976,"zip":"0191109"},{"town":"杉沢","koaza":"角代沢","lat":39.350175,"lng":140.589983,"zip":"0130001"},{"town":"山内大沢","koaza":"上長瀞","lat":39.289432,"lng":140.588801,"zip":"0191109"},{"town":"大沢","koaza":"羽根山","lat":39.297309,"lng":140.591233,"zip":"0130041"},{"town":"山内大沢","koaza":"矢櫃","lat":39.290112,"lng":140.590031,"zip":"0191109"},{"town":"睦成","koaza":"一ノ坂","lat":39.340772,"lng":140.591956,"zip":"0130008"},{"town":"山内土渕","koaza":"君ヶ原","lat":39.29139,"lng":140.599094,"zip":"0191108"},{"town":"山内土渕","koaza":"道地","lat":39.289531,"lng":140.613937,"zip":"0191108"},{"town":"山内土渕","koaza":"根子","lat":39.285894,"lng":140.612384,"zip":"0191108"},{"town":"山内土渕","koaza":"鶴ケ池","lat":39.281094,"lng":140.620645,"zip":"0191108"},{"town":"山内平野沢","koaza":"相野々","lat":39.273475,"lng":140.622988,"zip":"0191106"},{"town":"山内土渕","koaza":"小目倉沢","lat":39.290138,"lng":140.624136,"zip":"0191108"},{"town":"山内平野沢","koaza":"南相野々","lat":39.271776,"lng":140.623293,"zip":"0191106"},{"town":"山内土渕","koaza":"菅生","lat":39.284244,"lng":140.624416,"zip":"0191108"},{"town":"増田町増田","koaza":"真人山下","lat":39.209559,"lng":140.571306,"zip":"0190701"},{"town":"十文字町鼎","koaza":"中川原","lat":39.213339,"lng":140.487418,"zip":"0190511"},{"town":"十文字町","koaza":"十文字","lat":39.223486,"lng":140.523374,"zip":"0190525"},{"town":"十文字町植田","koaza":"宮ノ東","lat":39.226166,"lng":140.470543,"zip":"0190513"},{"town":"十文字町睦合","koaza":"源太","lat":39.220204,"lng":140.460498,"zip":"0190514"},{"town":"十文字町梨木","koaza":"西沢見","lat":39.24392,"lng":140.520958,"zip":"0190509"},{"town":"平鹿町下鍋倉","koaza":"下都","lat":39.251423,"lng":140.47842,"zip":"0130103"},{"town":"平鹿町下鍋倉","koaza":"御倉前","lat":39.25309,"lng":140.471704,"zip":"0130103"},{"town":"平鹿町浅舞","koaza":"中平沢","lat":39.25383,"lng":140.475801,"zip":"0130105"},{"town":"十文字町谷地新田","koaza":"村下タ","lat":39.244798,"lng":140.454777,"zip":"0190515"},{"town":"十文字町谷地新田","koaza":"谷地開闢","lat":39.249127,"lng":140.436115,"zip":"0190515"},{"town":"雄物川町常野","koaza":"塚ノ越","lat":39.259612,"lng":140.422331,"zip":"0130215"},{"town":"雄物川町谷地新田","koaza":"上荒谷地","lat":39.260449,"lng":140.450033,"zip":"0130204"},{"town":"平鹿町浅舞","koaza":"小泉","lat":39.268205,"lng":140.469411,"zip":"0130105"},{"town":"平鹿町樽見内","koaza":"宿尻","lat":39.274764,"lng":140.462007,"zip":"0130104"},{"town":"雄物川町柏木","koaza":"柏木","lat":39.271081,"lng":140.410917,"zip":"0130214"},{"town":"雄物川町造山","koaza":"蝦夷塚","lat":39.27758,"lng":140.420388,"zip":"0130212"},{"town":"雄物川町今宿","koaza":"猯袋","lat":39.281663,"lng":140.43364,"zip":"0130205"},{"town":"雄物川町東里","koaza":"回館","lat":39.278861,"lng":140.434057,"zip":"0130203"},{"town":"雄物川町東里","koaza":"薬師前","lat":39.276632,"lng":140.450843,"zip":"0130203"},{"town":"平鹿町樽見内","koaza":"道下","lat":39.279491,"lng":140.455884,"zip":"0130104"},{"town":"山内平野沢","koaza":"北相野々","lat":39.278254,"lng":140.622717,"zip":"0191106"},{"town":"山内土渕","koaza":"二瀬","lat":39.279083,"lng":140.622256,"zip":"0191108"},{"town":"山内平野沢","koaza":"岩野目","lat":39.279558,"lng":140.62444,"zip":"0191106"},{"town":"山内土渕","koaza":"内渕","lat":39.284175,"lng":140.630905,"zip":"0191108"},{"town":"婦気大堤","koaza":"街道下","lat":39.289911,"lng":140.560825,"zip":"0130063"},{"town":"雄物川町深井","koaza":"東又","lat":39.287516,"lng":140.423203,"zip":"0130211"},{"town":"雄物川町沼館","koaza":"小谷地","lat":39.294055,"lng":140.431085,"zip":"0130208"},{"town":"雄物川町今宿","koaza":"棒突","lat":39.292716,"lng":140.428923,"zip":"0130205"},{"town":"赤坂","koaza":"仁坂","lat":39.297816,"lng":140.532632,"zip":"0130064"},{"town":"平鹿町浅舞","koaza":"桜森境","lat":39.30784,"lng":140.466747,"zip":"0130105"},{"town":"平鹿町浅舞","koaza":"向高口","lat":39.303711,"lng":140.471395,"zip":"0130105"},{"town":"雄物川町薄井","koaza":"森","lat":39.311107,"lng":140.449908,"zip":"0130481"},{"town":"大雄","koaza":"鍛治村","lat":39.310255,"lng":140.469336,"zip":"0130459"},{"town":"大雄","koaza":"袋谷地","lat":39.311182,"lng":140.473155,"zip":"0130459"},{"town":"睦成","koaza":"城付","lat":39.323772,"lng":140.577169,"zip":"0130008"},{"town":"赤坂","koaza":"高口","lat":39.317408,"lng":140.531676,"zip":"0130064"},{"town":"睦成","koaza":"足駄塒","lat":39.338769,"lng":140.577089,"zip":"0130008"},{"town":"睦成","koaza":"吉沢上台","lat":39.336971,"lng":140.568073,"zip":"0130008"},{"town":"上境","koaza":"外阿摩部","lat":39.349917,"lng":140.54824,"zip":"0130821"},{"town":"金沢","koaza":"寺ノ沢","lat":39.372961,"lng":140.578136,"zip":"0130813"},{"town":"大森町袴形","koaza":"東神成","lat":39.370945,"lng":140.446573,"zip":"0130502"},{"town":"大森町","koaza":"文天鏡田","lat":39.351213,"lng":140.429417,"zip":"0130501"},{"town":"大森町","koaza":"高口下水戸堤","lat":39.346999,"lng":140.432856,"zip":"0130501"},{"town":"大森町","koaza":"堂林","lat":39.345245,"lng":140.421309,"zip":"0130501"},{"town":"大森町","koaza":"東中島","lat":39.34552,"lng":140.431809,"zip":"0130501"},{"town":"大森町","koaza":"湯ノ沢","lat":39.350997,"lng":140.439308,"zip":"0130501"},{"town":"大森町","koaza":"佐渡","lat":39.34639,"lng":140.4291,"zip":"0130501"},{"town":"大森町","koaza":"久保","lat":39.342845,"lng":140.426759,"zip":"0130501"},{"town":"大森町","koaza":"町回","lat":39.345156,"lng":140.4233,"zip":"0130501"},{"town":"大森町八沢木","koaza":"中房","lat":39.35306,"lng":140.389348,"zip":"0130561"},{"town":"大森町上溝","koaza":"小詰沢","lat":39.351045,"lng":140.400406,"zip":"0130552"},{"town":"大森町上溝","koaza":"新屋敷","lat":39.341325,"lng":140.397071,"zip":"0130552"},{"town":"大森町","koaza":"中田","lat":39.341476,"lng":140.426266,"zip":"0130501"},{"town":"大森町","koaza":"峠町頭","lat":39.339908,"lng":140.426187,"zip":"0130501"},{"town":"大森町","koaza":"真山","lat":39.338739,"lng":140.42745,"zip":"0130501"},{"town":"大森町","koaza":"高野中島","lat":39.337493,"lng":140.429992,"zip":"0130501"},{"town":"大森町","koaza":"小滝下","lat":39.330195,"lng":140.422424,"zip":"0130501"},{"town":"大森町","koaza":"湯の島","lat":39.345976,"lng":140.437793,"zip":"0130501"},{"town":"大雄","koaza":"傾城塚南","lat":39.347355,"lng":140.479961,"zip":"0130459"},{"town":"大雄","koaza":"折橋南","lat":39.348206,"lng":140.477672,"zip":"0130459"},{"town":"大雄","koaza":"新町","lat":39.354436,"lng":140.474643,"zip":"0130459"},{"town":"大雄","koaza":"新町西野添","lat":39.359151,"lng":140.470084,"zip":"0130459"},{"town":"大雄","koaza":"野中","lat":39.36547,"lng":140.46957,"zip":"0130459"},{"town":"大雄","koaza":"東高津野","lat":39.364297,"lng":140.472471,"zip":"0130459"},{"town":"大雄","koaza":"東中島","lat":39.350108,"lng":140.460574,"zip":"0130459"},{"town":"大雄","koaza":"鶴巻田","lat":39.346428,"lng":140.455038,"zip":"0130459"},{"town":"大雄","koaza":"山王","lat":39.358649,"lng":140.45922,"zip":"0130459"},{"town":"大雄","koaza":"宮小路","lat":39.345736,"lng":140.456016,"zip":"0130459"},{"town":"大雄","koaza":"阿気","lat":39.343865,"lng":140.455493,"zip":"0130459"},{"town":"大雄","koaza":"中館合","lat":39.341818,"lng":140.455585,"zip":"0130459"},{"town":"大雄","koaza":"西館合","lat":39.341988,"lng":140.454029,"zip":"0130459"},{"town":"大雄","koaza":"小林","lat":39.340316,"lng":140.445252,"zip":"0130459"},{"town":"大雄","koaza":"六町","lat":39.339245,"lng":140.448915,"zip":"0130459"},{"town":"大雄","koaza":"木戸口","lat":39.3439,"lng":140.453169,"zip":"0130459"},{"town":"大雄","koaza":"六町東","lat":39.340924,"lng":140.452427,"zip":"0130459"},{"town":"大雄","koaza":"下田町","lat":39.329559,"lng":140.453591,"zip":"0130459"},{"town":"大雄","koaza":"平柳","lat":39.331655,"lng":140.452338,"zip":"0130459"},{"town":"大雄","koaza":"新処","lat":39.324556,"lng":140.456657,"zip":"0130459"},{"town":"雄物川町薄井","koaza":"下小出","lat":39.325324,"lng":140.44397,"zip":"0130481"},{"town":"雄物川町薄井","koaza":"上船沼","lat":39.310051,"lng":140.432203,"zip":"0130481"},{"town":"雄物川町沼館","koaza":"下八卦","lat":39.311319,"lng":140.425994,"zip":"0130208"},{"town":"雄物川町薄井","koaza":"新城","lat":39.3271,"lng":140.444962,"zip":"0130481"},{"town":"雄物川町薄井","koaza":"抱合","lat":39.327423,"lng":140.439026,"zip":"0130481"},{"town":"雄物川町今宿","koaza":"今宿","lat":39.290768,"lng":140.427149,"zip":"0130205"},{"town":"雄物川町砂子田","koaza":"壇ノ尻","lat":39.291113,"lng":140.441245,"zip":"0130202"},{"town":"雄物川町砂子田","koaza":"下谷地西","lat":39.291756,"lng":140.441018,"zip":"0130202"},{"town":"雄物川町砂子田","koaza":"下谷地","lat":39.292474,"lng":140.441412,"zip":"0130202"},{"town":"雄物川町砂子田","koaza":"大清水","lat":39.290165,"lng":140.44259,"zip":"0130202"},{"town":"雄物川町会塚","koaza":"上台","lat":39.292925,"lng":140.45628,"zip":"0130201"},{"town":"雄物川町会塚","koaza":"向井田","lat":39.296169,"lng":140.454052,"zip":"0130201"},{"town":"雄物川町会塚","koaza":"上大塚","lat":39.296927,"lng":140.452186,"zip":"0130201"},{"town":"雄物川町会塚","koaza":"大塚","lat":39.308058,"lng":140.451935,"zip":"0130201"},{"town":"雄物川町薄井","koaza":"大見内","lat":39.306752,"lng":140.448628,"zip":"0130481"},{"town":"雄物川町会塚","koaza":"大畷","lat":39.304352,"lng":140.450457,"zip":"0130201"},{"town":"雄物川町会塚","koaza":"深田","lat":39.308404,"lng":140.453945,"zip":"0130201"},{"town":"雄物川町会塚","koaza":"田中","lat":39.3066,"lng":140.453864,"zip":"0130201"},{"town":"雄物川町会塚","koaza":"野堰添","lat":39.307566,"lng":140.456649,"zip":"0130201"},{"town":"雄物川町会塚","koaza":"下野","lat":39.311374,"lng":140.459809,"zip":"0130201"},{"town":"大雄","koaza":"南四津屋","lat":39.320509,"lng":140.461941,"zip":"0130459"},{"town":"大雄","koaza":"北四津屋","lat":39.323424,"lng":140.462751,"zip":"0130459"},{"town":"大雄","koaza":"江原","lat":39.341102,"lng":140.459397,"zip":"0130459"},{"town":"大雄","koaza":"四ッ屋西","lat":39.338493,"lng":140.484171,"zip":"0130459"},{"town":"大雄","koaza":"四ツ屋東","lat":39.334079,"lng":140.490316,"zip":"0130459"},{"town":"大雄","koaza":"根田谷地東","lat":39.338038,"lng":140.495059,"zip":"0130459"},{"town":"黒川","koaza":"福島","lat":39.364596,"lng":140.500772,"zip":"0130826"},{"town":"黒川","koaza":"館西","lat":39.364455,"lng":140.499741,"zip":"0130826"},{"town":"黒川","koaza":"悪戸谷地","lat":39.365522,"lng":140.497794,"zip":"0130826"},{"town":"黒川","koaza":"新田","lat":39.364061,"lng":140.496163,"zip":"0130826"},{"town":"大雄","koaza":"上田村南","lat":39.327724,"lng":140.486367,"zip":"0130459"},{"town":"大雄","koaza":"上堰東","lat":39.324314,"lng":140.485539,"zip":"0130459"},{"town":"大雄","koaza":"一ノ関","lat":39.322043,"lng":140.475762,"zip":"0130459"},{"town":"大雄","koaza":"八柏馬道添","lat":39.31669,"lng":140.491996,"zip":"0130459"},{"town":"平鹿町下吉田","koaza":"桑谷地","lat":39.309119,"lng":140.478971,"zip":"0130107"},{"town":"平鹿町下吉田","koaza":"桑ノ木","lat":39.309814,"lng":140.480472,"zip":"0130107"},{"town":"平鹿町下吉田","koaza":"桑ノ木下","lat":39.312707,"lng":140.482133,"zip":"0130107"},{"town":"雄物川町会塚","koaza":"堂尻","lat":39.305829,"lng":140.45336,"zip":"0130201"},{"town":"平鹿町浅舞","koaza":"西田","lat":39.293241,"lng":140.465136,"zip":"0130105"},{"town":"平鹿町中吉田","koaza":"夜光","lat":39.29116,"lng":140.483455,"zip":"0130106"},{"town":"平鹿町下吉田","koaza":"高口","lat":39.298477,"lng":140.481541,"zip":"0130107"},{"town":"平鹿町中吉田","koaza":"和村東","lat":39.294676,"lng":140.491251,"zip":"0130106"},{"town":"下八丁","koaza":"中島","lat":39.337641,"lng":140.511834,"zip":"0130824"},{"town":"下境","koaza":"福蔵谷地","lat":39.345382,"lng":140.511071,"zip":"0130824"},{"town":"下境","koaza":"田中","lat":39.342969,"lng":140.512696,"zip":"0130824"},{"town":"下境","koaza":"三ツ栗","lat":39.340855,"lng":140.514974,"zip":"0130824"},{"town":"下八丁","koaza":"上境田","lat":39.338425,"lng":140.518563,"zip":"0130824"},{"town":"下八丁","koaza":"南小三町","lat":39.338072,"lng":140.520877,"zip":"0130824"},{"town":"下八丁","koaza":"境田","lat":39.338949,"lng":140.519094,"zip":"0130824"},{"town":"下境","koaza":"関合村西","lat":39.341389,"lng":140.523435,"zip":"0130824"},{"town":"下境","koaza":"関合南町","lat":39.340825,"lng":140.525109,"zip":"0130824"},{"town":"上境","koaza":"下悪戸","lat":39.34913,"lng":140.5357,"zip":"0130821"},{"town":"下境","koaza":"八気南町","lat":39.349363,"lng":140.520751,"zip":"0130824"},{"town":"大雄","koaza":"八柏中村東","lat":39.319362,"lng":140.492476,"zip":"0130459"},{"town":"安本","koaza":"大道添","lat":39.357455,"lng":140.53313,"zip":"0130811"},{"town":"安本","koaza":"下御所野","lat":39.353082,"lng":140.547293,"zip":"0130811"},{"town":"杉目","koaza":"村後","lat":39.347917,"lng":140.557198,"zip":"0130076"},{"town":"杉沢","koaza":"南杉沢","lat":39.342706,"lng":140.56281,"zip":"0130001"},{"town":"金沢中野","koaza":"白石沢","lat":39.360549,"lng":140.564721,"zip":"0130814"},{"town":"金沢中野","koaza":"権五郎塚","lat":39.37216,"lng":140.571213,"zip":"0130814"},{"town":"金沢中野","koaza":"青葉田","lat":39.370785,"lng":140.567575,"zip":"0130814"},{"town":"金沢本町","koaza":"根小屋","lat":39.376749,"lng":140.573149,"zip":"0130812"},{"town":"金沢本町","koaza":"本町","lat":39.378033,"lng":140.574208,"zip":"0130812"},{"town":"金沢","koaza":"鳥井長根","lat":39.379148,"lng":140.579565,"zip":"0130813"},{"town":"杉沢","koaza":"天狗沢","lat":39.348543,"lng":140.583673,"zip":"0130001"},{"town":"金沢中野","koaza":"川原保","lat":39.375196,"lng":140.556325,"zip":"0130814"},{"town":"杉沢","koaza":"ガケ下","lat":39.35345,"lng":140.578965,"zip":"0130001"},{"town":"杉沢","koaza":"狼ケ沢","lat":39.346841,"lng":140.577743,"zip":"0130001"},{"town":"赤坂","koaza":"城野岡道下","lat":39.313474,"lng":140.529964,"zip":"0130064"},{"town":"赤坂","koaza":"山崎","lat":39.315246,"lng":140.528683,"zip":"0130064"},{"town":"三本柳","koaza":"家間","lat":39.319253,"lng":140.540755,"zip":"0130074"},{"town":"三本柳","koaza":"北ノ町","lat":39.319688,"lng":140.539053,"zip":"0130074"},{"town":"上八丁","koaza":"大巻","lat":39.331729,"lng":140.532191,"zip":"0130014"},{"town":"上八丁","koaza":"高揚","lat":39.332586,"lng":140.530484,"zip":"0130014"},{"town":"睦成","koaza":"碇","lat":39.326025,"lng":140.560044,"zip":"0130008"},{"town":"睦成","koaza":"大鳥井山下","lat":39.327997,"lng":140.559737,"zip":"0130008"},{"town":"婦気大堤","koaza":"南巻","lat":39.306263,"lng":140.548111,"zip":"0130063"},{"town":"赤坂","koaza":"家ノ前","lat":39.302662,"lng":140.542349,"zip":"0130064"},{"town":"赤坂","koaza":"上ノ台","lat":39.302776,"lng":140.537704,"zip":"0130064"},{"town":"睦成","koaza":"追回","lat":39.33392,"lng":140.573336,"zip":"0130008"},{"town":"睦成","koaza":"下川原","lat":39.335339,"lng":140.556913,"zip":"0130008"},{"town":"婦気大堤","koaza":"婦気","lat":39.302455,"lng":140.554266,"zip":"0130063"},{"town":"安田","koaza":"大台","lat":39.292628,"lng":140.564051,"zip":"0130043"},{"town":"前郷","koaza":"三井寺","lat":39.304614,"lng":140.574375,"zip":"0130042"},{"town":"前郷","koaza":"東松原","lat":39.29969,"lng":140.568678,"zip":"0130042"},{"town":"前郷","koaza":"西ケ坂","lat":39.301606,"lng":140.576918,"zip":"0130042"},{"town":"睦成","koaza":"清水沢","lat":39.316463,"lng":140.573667,"zip":"0130008"},{"town":"山内土渕","koaza":"平石上段","lat":39.290106,"lng":140.629407,"zip":"0191108"},{"town":"山内土渕","koaza":"平石下段","lat":39.288789,"lng":140.630745,"zip":"0191108"},{"town":"雄物川町大沢","koaza":"薮沢目","lat":39.280023,"lng":140.398764,"zip":"0130218"},{"town":"雄物川町今宿","koaza":"悪戸","lat":39.288922,"lng":140.40669,"zip":"0130205"},{"town":"雄物川町深井","koaza":"深井","lat":39.279286,"lng":140.408835,"zip":"0130211"},{"town":"雄物川町深井","koaza":"大深ケ","lat":39.278409,"lng":140.40949,"zip":"0130211"},{"town":"雄物川町南形","koaza":"叶川","lat":39.278368,"lng":140.415447,"zip":"0130213"},{"town":"雄物川町南形","koaza":"中道下","lat":39.277511,"lng":140.41455,"zip":"0130213"},{"town":"雄物川町南形","koaza":"下ノ谷地","lat":39.274988,"lng":140.410568,"zip":"0130213"},{"town":"雄物川町柏木","koaza":"屋敷西","lat":39.270675,"lng":140.408188,"zip":"0130214"},{"town":"雄物川町道地","koaza":"道地","lat":39.268874,"lng":140.407469,"zip":"0130217"},{"town":"十文字町睦合","koaza":"真木","lat":39.244091,"lng":140.423879,"zip":"0190514"},{"town":"十文字町睦合","koaza":"上谷地","lat":39.236253,"lng":140.437482,"zip":"0190514"},{"town":"十文字町睦合","koaza":"大明神","lat":39.237566,"lng":140.437685,"zip":"0190514"},{"town":"十文字町睦合","koaza":"下谷地","lat":39.244371,"lng":140.436796,"zip":"0190514"},{"town":"十文字町睦合","koaza":"谷地境","lat":39.242835,"lng":140.439304,"zip":"0190514"},{"town":"十文字町谷地新田","koaza":"黄金原","lat":39.252438,"lng":140.432559,"zip":"0190515"},{"town":"雄物川町造山","koaza":"志戸ケ池","lat":39.269867,"lng":140.432926,"zip":"0130212"},{"town":"雄物川町造山","koaza":"造山","lat":39.284393,"lng":140.429169,"zip":"0130212"},{"town":"雄物川町砂子田","koaza":"中村","lat":39.285771,"lng":140.448095,"zip":"0130202"},{"town":"雄物川町砂子田","koaza":"小谷地","lat":39.285092,"lng":140.448217,"zip":"0130202"},{"town":"雄物川町東里","koaza":"東里東","lat":39.279111,"lng":140.452,"zip":"0130203"},{"town":"雄物川町東里","koaza":"松木","lat":39.280032,"lng":140.450562,"zip":"0130203"},{"town":"雄物川町東里","koaza":"東里西","lat":39.279254,"lng":140.447861,"zip":"0130203"},{"town":"雄物川町東里","koaza":"相川野","lat":39.275355,"lng":140.451182,"zip":"0130203"},{"town":"平鹿町樽見内","koaza":"相川野","lat":39.275008,"lng":140.452563,"zip":"0130104"},{"town":"雄物川町東里","koaza":"水尻","lat":39.275026,"lng":140.4491,"zip":"0130203"},{"town":"雄物川町東里","koaza":"釘貫","lat":39.274547,"lng":140.445209,"zip":"0130203"},{"town":"雄物川町東里","koaza":"柄内","lat":39.273984,"lng":140.447488,"zip":"0130203"},{"town":"雄物川町東里","koaza":"水里","lat":39.275703,"lng":140.445612,"zip":"0130203"},{"town":"雄物川町東里","koaza":"内配蒔","lat":39.277282,"lng":140.445162,"zip":"0130203"},{"town":"平鹿町樽見内","koaza":"水尻","lat":39.272167,"lng":140.449526,"zip":"0130104"},{"town":"十文字町谷地新田","koaza":"明神野","lat":39.252048,"lng":140.432215,"zip":"0190515"},{"town":"十文字町睦合","koaza":"駒引","lat":39.231182,"lng":140.440313,"zip":"0190514"},{"town":"十文字町睦合","koaza":"宿屋布","lat":39.230253,"lng":140.447659,"zip":"0190514"},{"town":"十文字町睦合","koaza":"館前","lat":39.22835,"lng":140.453642,"zip":"0190514"},{"town":"十文字町睦合","koaza":"中野","lat":39.222814,"lng":140.458883,"zip":"0190514"},{"town":"十文字町植田","koaza":"生板倉","lat":39.242703,"lng":140.46574,"zip":"0190513"},{"town":"平鹿町樽見内","koaza":"新処","lat":39.269324,"lng":140.46028,"zip":"0130104"},{"town":"平鹿町樽見内","koaza":"笛吹田","lat":39.26849,"lng":140.463211,"zip":"0130104"},{"town":"平鹿町樽見内","koaza":"三ッ屋","lat":39.264331,"lng":140.463918,"zip":"0130104"},{"town":"平鹿町樽見内","koaza":"平清水","lat":39.264795,"lng":140.47007,"zip":"0130104"},{"town":"平鹿町浅舞","koaza":"足附橋","lat":39.272889,"lng":140.466336,"zip":"0130105"},{"town":"平鹿町浅舞","koaza":"豊前","lat":39.278842,"lng":140.463957,"zip":"0130105"},{"town":"平鹿町浅舞","koaza":"前田表","lat":39.277848,"lng":140.463685,"zip":"0130105"},{"town":"平鹿町浅舞","koaza":"丘見","lat":39.2782,"lng":140.464424,"zip":"0130105"},{"town":"平鹿町樽見内","koaza":"婦気","lat":39.282509,"lng":140.458911,"zip":"0130104"},{"town":"平鹿町浅舞","koaza":"大中嶋","lat":39.290473,"lng":140.461115,"zip":"0130105"},{"town":"平鹿町下鍋倉","koaza":"上糸畑原","lat":39.250659,"lng":140.481579,"zip":"0130103"},{"town":"平鹿町下鍋倉","koaza":"下詫宣","lat":39.250464,"lng":140.487909,"zip":"0130103"},{"town":"平鹿町下鍋倉","koaza":"外沢見","lat":39.250887,"lng":140.487897,"zip":"0130103"},{"town":"十文字町植田","koaza":"田ノ村","lat":39.231417,"lng":140.469933,"zip":"0190513"},{"town":"十文字町越前","koaza":"宿尻","lat":39.235353,"lng":140.479598,"zip":"0190512"},{"town":"十文字町鼎","koaza":"村尻","lat":39.230357,"lng":140.500408,"zip":"0190511"},{"town":"十文字町鼎","koaza":"八幡野","lat":39.224481,"lng":140.497037,"zip":"0190511"},{"town":"十文字町植田","koaza":"古川端","lat":39.220176,"lng":140.469529,"zip":"0190513"},{"town":"十文字町仁井田","koaza":"下川原","lat":39.213311,"lng":140.515193,"zip":"0190505"},{"town":"十文字町仁井田","koaza":"杉ノ下","lat":39.214306,"lng":140.515841,"zip":"0190505"},{"town":"十文字町佐賀会","koaza":"石川原","lat":39.211643,"lng":140.514203,"zip":"0190506"},{"town":"十文字町仁井田","koaza":"大道北","lat":39.218671,"lng":140.527692,"zip":"0190505"},{"town":"十文字町","koaza":"本町","lat":39.223081,"lng":140.524025,"zip":"0190525"},{"town":"十文字町仁井田","koaza":"段ノ下","lat":39.215907,"lng":140.525121,"zip":"0190505"},{"town":"十文字町十五野新田","koaza":"岡見","lat":39.241032,"lng":140.509326,"zip":"0190508"},{"town":"十文字町十五野新田","koaza":"富沢屋布上","lat":39.23701,"lng":140.510192,"zip":"0190508"},{"town":"十文字町梨木","koaza":"沖野","lat":39.230974,"lng":140.523931,"zip":"0190509"},{"town":"十文字町十五野新田","koaza":"堂ノ後","lat":39.246393,"lng":140.510103,"zip":"0190508"},{"town":"柳田","koaza":"久右エ門沼新田","lat":39.28367,"lng":140.551559,"zip":"0130054"},{"town":"柳田","koaza":"前田","lat":39.274644,"lng":140.553008,"zip":"0130054"},{"town":"柳田","koaza":"石田","lat":39.269442,"lng":140.549648,"zip":"0130054"},{"town":"外目","koaza":"檀森","lat":39.266338,"lng":140.547713,"zip":"0130053"},{"town":"外目","koaza":"土白坂","lat":39.270258,"lng":140.534791,"zip":"0130053"},{"town":"外目","koaza":"菖蒲谷地","lat":39.264394,"lng":140.543654,"zip":"0130053"},{"town":"平鹿町醍醐","koaza":"下油川","lat":39.248616,"lng":140.535791,"zip":"0130102"},{"town":"平鹿町醍醐","koaza":"道中後","lat":39.250845,"lng":140.538975,"zip":"0130102"},{"town":"平鹿町醍醐","koaza":"上油川","lat":39.246023,"lng":140.53367,"zip":"0130102"},{"town":"平鹿町醍醐","koaza":"下篭田西","lat":39.23704,"lng":140.532756,"zip":"0130102"},{"town":"平鹿町醍醐","koaza":"下二ッ又","lat":39.234162,"lng":140.546488,"zip":"0130102"},{"town":"平鹿町醍醐","koaza":"釜ノ川下沢田","lat":39.233227,"lng":140.551495,"zip":"0130102"},{"town":"平鹿町醍醐","koaza":"野中西","lat":39.22735,"lng":140.539981,"zip":"0130102"},{"town":"十文字町梨木","koaza":"堤ノ上","lat":39.230866,"lng":140.530884,"zip":"0190509"},{"town":"増田町増田","koaza":"一本柳","lat":39.211753,"lng":140.533542,"zip":"0190701"},{"town":"増田町増田","koaza":"福嶋道西","lat":39.212226,"lng":140.544686,"zip":"0190701"},{"town":"増田町増田","koaza":"福嶋","lat":39.21198,"lng":140.544299,"zip":"0190701"},{"town":"増田町荻袋","koaza":"萱刈場","lat":39.198068,"lng":140.580515,"zip":"0190711"},{"town":"増田町荻袋","koaza":"安養寺野","lat":39.198728,"lng":140.578563,"zip":"0190711"},{"town":"増田町亀田","koaza":"樋場","lat":39.211214,"lng":140.561276,"zip":"0190702"},{"town":"増田町亀田","koaza":"亀田南","lat":39.22468,"lng":140.560565,"zip":"0190702"},{"town":"平鹿町醍醐","koaza":"明沢妻ノ神","lat":39.239651,"lng":140.559917,"zip":"0130102"},{"town":"平鹿町醍醐","koaza":"亀井沢","lat":39.250993,"lng":140.5563,"zip":"0130102"},{"town":"平鹿町醍醐","koaza":"町尻","lat":39.250006,"lng":140.554936,"zip":"0130102"},{"town":"大屋寺内","koaza":"石田坂","lat":39.263152,"lng":140.561656,"zip":"0130052"},{"town":"大屋寺内","koaza":"長谷山甲","lat":39.263158,"lng":140.557634,"zip":"0130052"},{"town":"大屋寺内","koaza":"長谷山乙","lat":39.267638,"lng":140.568712,"zip":"0130052"},{"town":"大屋新町","koaza":"白坂","lat":39.272601,"lng":140.567887,"zip":"0130051"},{"town":"十文字町睦合","koaza":"八幡前","lat":39.229633,"lng":140.447749,"zip":"0190514"},{"town":"十文字町植田","koaza":"一ツ屋","lat":39.22042,"lng":140.47686,"zip":"0190513"},{"town":"十文字町十五野新田","koaza":"段ノ下","lat":39.247498,"lng":140.502235,"zip":"0190508"},{"town":"外目","koaza":"前田","lat":39.262251,"lng":140.542321,"zip":"0130053"},{"town":"外目","koaza":"五百刈","lat":39.266789,"lng":140.534433,"zip":"0130053"},{"town":"十文字町","koaza":"通町","lat":39.221438,"lng":140.523719,"zip":"0190525"},{"town":"前郷","koaza":"諸子沢","lat":39.312216,"lng":140.576768,"zip":"0130042"},{"town":"平鹿町醍醐","koaza":"当面町","lat":39.257897,"lng":140.539203,"zip":"0130102"},{"town":"外目","koaza":"桜","lat":39.268996,"lng":140.53203,"zip":"0130053"},{"town":"外目","koaza":"館","lat":39.260665,"lng":140.536494,"zip":"0130053"}]