[{"town":"五里合神谷","koaza":"","lat":39.981958,"lng":139.871828,"zip":"0100353"},{"town":"五里合琴川","koaza":"","lat":39.96912,"lng":139.853188,"zip":"0100352"},{"town":"五里合鮪川","koaza":"","lat":39.961202,"lng":139.886063,"zip":"0100355"},{"town":"五里合中石","koaza":"","lat":39.986209,"lng":139.891852,"zip":"0100354"},{"town":"五里合箱井","koaza":"","lat":39.955644,"lng":139.874655,"zip":"0100351"},{"town":"鵜木","koaza":"","lat":39.973969,"lng":139.916102,"zip":"0100421"},{"town":"男鹿中国有地内","koaza":"","lat":39.913804,"lng":139.781194,"zip":"0100664"},{"town":"男鹿中滝川","koaza":"","lat":39.925544,"lng":139.80876,"zip":"0100663"},{"town":"男鹿中中間口","koaza":"","lat":39.951265,"lng":139.848298,"zip":"0100662"},{"town":"男鹿中浜間口","koaza":"","lat":39.959555,"lng":139.827644,"zip":"0100661"},{"town":"男鹿中山町","koaza":"","lat":39.94372,"lng":139.817494,"zip":"0100665"},{"town":"角間崎","koaza":"","lat":39.958382,"lng":139.910096,"zip":"0100422"},{"town":"北浦相川","koaza":"","lat":39.948594,"lng":139.792049,"zip":"0100681"},{"town":"北浦安全寺","koaza":"","lat":39.932169,"lng":139.789586,"zip":"0100684"},{"town":"北浦北浦","koaza":"","lat":39.951089,"lng":139.764615,"zip":"0100683"},{"town":"北浦北浦表町","koaza":"","lat":39.96612,"lng":139.778329,"zip":"0100500"},{"town":"北浦真山","koaza":"","lat":39.936042,"lng":139.773793,"zip":"0100685"},{"town":"北浦西黒沢","koaza":"","lat":39.978615,"lng":139.723733,"zip":"0100676"},{"town":"北浦西水口","koaza":"","lat":39.957495,"lng":139.757213,"zip":"0100686"},{"town":"北浦入道崎","koaza":"","lat":39.984197,"lng":139.704017,"zip":"0100675"},{"town":"北浦野村","koaza":"","lat":39.969864,"lng":139.762387,"zip":"0100688"},{"town":"北浦湯本","koaza":"","lat":39.968792,"lng":139.747769,"zip":"0100687"},{"town":"戸賀加茂青砂","koaza":"","lat":39.926592,"lng":139.739954,"zip":"0100671"},{"town":"戸賀塩浜","koaza":"","lat":39.929816,"lng":139.71261,"zip":"0100673"},{"town":"戸賀戸賀","koaza":"","lat":39.965371,"lng":139.719328,"zip":"0100674"},{"town":"戸賀浜塩谷","koaza":"","lat":39.950498,"lng":139.730784,"zip":"0100672"},{"town":"野石","koaza":"","lat":40.027898,"lng":139.923098,"zip":"0100401"},{"town":"福川","koaza":"","lat":39.94774,"lng":139.924825,"zip":"0100423"},{"town":"福米沢","koaza":"","lat":39.998472,"lng":139.930215,"zip":"0100411"},{"town":"払戸","koaza":"","lat":39.93188,"lng":139.940595,"zip":"0100431"},{"town":"船川港女川","koaza":"","lat":39.875294,"lng":139.808137,"zip":"0100523"},{"town":"船川港金川","koaza":"","lat":39.900124,"lng":139.852076,"zip":"0100503"},{"town":"船川港小浜","koaza":"","lat":39.864665,"lng":139.761679,"zip":"0100534"},{"town":"船川港双六","koaza":"","lat":39.866953,"lng":139.771865,"zip":"0100533"},{"town":"船川港台島","koaza":"","lat":39.871092,"lng":139.796716,"zip":"0100531"},{"town":"船川港椿","koaza":"","lat":39.869131,"lng":139.78521,"zip":"0100532"},{"town":"船川港仁井山","koaza":"","lat":39.910503,"lng":139.81565,"zip":"0100501"},{"town":"船川港比詰","koaza":"","lat":39.911329,"lng":139.856708,"zip":"0100502"},{"town":"船川港船川","koaza":"","lat":39.885141,"lng":139.843358,"zip":"0100511"},{"town":"船川港本山門前","koaza":"","lat":39.867007,"lng":139.752638,"zip":"0100535"},{"town":"船川港増川","koaza":"","lat":39.883209,"lng":139.814758,"zip":"0100522"},{"town":"船川港南平沢","koaza":"","lat":39.878764,"lng":139.832755,"zip":"0100521"},{"town":"船越","koaza":"","lat":39.90052,"lng":139.939208,"zip":"0100341"},{"town":"本内","koaza":"","lat":39.988433,"lng":139.92022,"zip":"0100412"},{"town":"松木沢","koaza":"","lat":39.983431,"lng":139.919238,"zip":"0100413"},{"town":"脇本浦田","koaza":"","lat":39.931844,"lng":139.899624,"zip":"0100345"},{"town":"脇本田谷沢","koaza":"","lat":39.908831,"lng":139.876881,"zip":"0100343"},{"town":"脇本樽沢","koaza":"","lat":39.939654,"lng":139.901544,"zip":"0100346"},{"town":"脇本富永","koaza":"","lat":39.922693,"lng":139.894548,"zip":"0100344"},{"town":"脇本百川","koaza":"","lat":39.950257,"lng":139.903704,"zip":"0100347"},{"town":"脇本脇本","koaza":"","lat":39.909166,"lng":139.906639,"zip":"0100342"},{"town":"北浦入道崎","koaza":"昆布浦","lat":40.003365,"lng":139.702298,"zip":"0100675"},{"town":"北浦入道崎","koaza":"家ノ上","lat":39.998543,"lng":139.70595,"zip":"0100675"},{"town":"北浦入道崎","koaza":"嶋畑","lat":39.999435,"lng":139.706169,"zip":"0100675"},{"town":"戸賀塩浜","koaza":"漁元崎","lat":39.946232,"lng":139.709679,"zip":"0100673"},{"town":"戸賀戸賀","koaza":"戸賀","lat":39.962449,"lng":139.712001,"zip":"0100674"},{"town":"戸賀戸賀","koaza":"小沢","lat":39.960007,"lng":139.721966,"zip":"0100674"},{"town":"戸賀浜塩谷","koaza":"抜沢","lat":39.95789,"lng":139.72655,"zip":"0100672"},{"town":"戸賀加茂青砂","koaza":"鴨","lat":39.910489,"lng":139.728147,"zip":"0100671"},{"town":"北浦西黒沢","koaza":"鳥ノ久保","lat":39.979959,"lng":139.731916,"zip":"0100676"},{"town":"戸賀加茂青砂","koaza":"山道添","lat":39.908646,"lng":139.73267,"zip":"0100671"},{"town":"北浦西黒沢","koaza":"東山","lat":39.970053,"lng":139.737574,"zip":"0100676"},{"town":"北浦湯本","koaza":"草木原","lat":39.972904,"lng":139.742147,"zip":"0100687"},{"town":"北浦湯本","koaza":"隠台","lat":39.967031,"lng":139.743752,"zip":"0100687"},{"town":"船川港本山門前","koaza":"祓川","lat":39.866053,"lng":139.75064,"zip":"0100535"},{"town":"船川港本山門前","koaza":"垂水","lat":39.865989,"lng":139.754802,"zip":"0100535"},{"town":"北浦湯本","koaza":"苗代沢","lat":39.968301,"lng":139.754048,"zip":"0100687"},{"town":"北浦西水口","koaza":"大坂下","lat":39.959371,"lng":139.754153,"zip":"0100686"},{"town":"北浦湯本","koaza":"鍵掛野","lat":39.967673,"lng":139.754046,"zip":"0100687"},{"town":"北浦西水口","koaza":"橇坂","lat":39.955838,"lng":139.763317,"zip":"0100686"},{"town":"船川港小浜","koaza":"下台","lat":39.864132,"lng":139.759797,"zip":"0100534"},{"town":"北浦野村","koaza":"前野","lat":39.968013,"lng":139.764138,"zip":"0100688"},{"town":"北浦真山","koaza":"姥ケ沢","lat":39.93731,"lng":139.770425,"zip":"0100685"},{"town":"船川港小浜","koaza":"小倉山","lat":39.863418,"lng":139.765675,"zip":"0100534"},{"town":"北浦北浦","koaza":"一本木野","lat":39.956894,"lng":139.766921,"zip":"0100683"},{"town":"北浦真山","koaza":"水喰沢","lat":39.928966,"lng":139.766633,"zip":"0100685"},{"town":"北浦真山","koaza":"白根坂台","lat":39.939282,"lng":139.776407,"zip":"0100685"},{"town":"船川港双六","koaza":"館山","lat":39.86269,"lng":139.776455,"zip":"0100533"},{"town":"北浦北浦表町","koaza":"表町","lat":39.966396,"lng":139.779252,"zip":"0100500"},{"town":"北浦北浦","koaza":"出口野","lat":39.964424,"lng":139.778703,"zip":"0100683"},{"town":"船川港椿","koaza":"東","lat":39.867675,"lng":139.782935,"zip":"0100532"},{"town":"北浦北浦","koaza":"山王林","lat":39.966529,"lng":139.78103,"zip":"0100683"},{"town":"北浦安全寺","koaza":"安全寺","lat":39.931119,"lng":139.781417,"zip":"0100684"},{"town":"北浦北浦","koaza":"北浦","lat":39.963158,"lng":139.782195,"zip":"0100683"},{"town":"北浦北浦","koaza":"泉野","lat":39.95552,"lng":139.785459,"zip":"0100683"},{"town":"北浦北浦","koaza":"忍田","lat":39.959876,"lng":139.78534,"zip":"0100683"},{"town":"北浦相川","koaza":"泉野","lat":39.956119,"lng":139.789209,"zip":"0100681"},{"town":"北浦安全寺","koaza":"供養塔台","lat":39.93155,"lng":139.790508,"zip":"0100684"},{"town":"北浦安全寺","koaza":"中台","lat":39.930268,"lng":139.797186,"zip":"0100684"},{"town":"北浦相川","koaza":"冷水","lat":39.957054,"lng":139.791961,"zip":"0100681"},{"town":"船川港台島","koaza":"浜平","lat":39.871197,"lng":139.795357,"zip":"0100531"},{"town":"北浦相川","koaza":"島田岱","lat":39.955538,"lng":139.797574,"zip":"0100681"},{"town":"船川港台島","koaza":"野竹","lat":39.870399,"lng":139.800264,"zip":"0100531"},{"town":"男鹿中滝川","koaza":"三ツ森上台","lat":39.922178,"lng":139.805718,"zip":"0100663"},{"town":"船川港台島","koaza":"中台","lat":39.865179,"lng":139.806987,"zip":"0100531"},{"town":"船川港仁井山","koaza":"仁井沢","lat":39.923437,"lng":139.831231,"zip":"0100501"},{"town":"男鹿中滝川","koaza":"三ツ森","lat":39.920753,"lng":139.813041,"zip":"0100663"},{"town":"男鹿中山町","koaza":"芹柿沢","lat":39.942899,"lng":139.813437,"zip":"0100665"},{"town":"男鹿中山町","koaza":"家口","lat":39.94421,"lng":139.817888,"zip":"0100665"},{"town":"船川港台島","koaza":"鵜ノ崎","lat":39.858661,"lng":139.81215,"zip":"0100531"},{"town":"船川港女川","koaza":"大坂台","lat":39.867484,"lng":139.817355,"zip":"0100523"},{"town":"男鹿中浜間口","koaza":"地蔵台","lat":39.955432,"lng":139.81247,"zip":"0100661"},{"town":"船川港女川","koaza":"上長根","lat":39.86936,"lng":139.811928,"zip":"0100523"},{"town":"男鹿中山町","koaza":"大室沢","lat":39.951705,"lng":139.81835,"zip":"0100665"},{"town":"船川港女川","koaza":"鷲野","lat":39.861642,"lng":139.81548,"zip":"0100523"},{"town":"船川港仁井山","koaza":"山田","lat":39.904373,"lng":139.82099,"zip":"0100501"},{"town":"船川港女川","koaza":"二ツ坂","lat":39.860687,"lng":139.814,"zip":"0100523"},{"town":"船川港女川","koaza":"鵜ノ崎","lat":39.861788,"lng":139.820364,"zip":"0100523"},{"town":"船川港仁井山","koaza":"岡田","lat":39.911382,"lng":139.822061,"zip":"0100501"},{"town":"男鹿中滝川","koaza":"杉下","lat":39.938008,"lng":139.821004,"zip":"0100663"},{"town":"男鹿中山町","koaza":"深田","lat":39.944807,"lng":139.824492,"zip":"0100665"},{"town":"船川港仁井山","koaza":"梨下","lat":39.912243,"lng":139.823857,"zip":"0100501"},{"town":"男鹿中浜間口","koaza":"岡杭","lat":39.960242,"lng":139.823802,"zip":"0100661"},{"town":"船川港女川","koaza":"堂ノ前","lat":39.866789,"lng":139.822503,"zip":"0100523"},{"town":"船川港南平沢","koaza":"平ノ沢","lat":39.87595,"lng":139.832476,"zip":"0100521"},{"town":"男鹿中滝川","koaza":"島田","lat":39.928487,"lng":139.826886,"zip":"0100663"},{"town":"船川港仁井山","koaza":"馬生目","lat":39.912512,"lng":139.838979,"zip":"0100501"},{"town":"船川港船川","koaza":"外ケ沢","lat":39.884133,"lng":139.842306,"zip":"0100511"},{"town":"男鹿中滝川","koaza":"根田面","lat":39.928271,"lng":139.829229,"zip":"0100663"},{"town":"船川港増川","koaza":"小田","lat":39.871635,"lng":139.829707,"zip":"0100522"},{"town":"船川港増川","koaza":"惣屋布","lat":39.869579,"lng":139.829832,"zip":"0100522"},{"town":"男鹿中滝川","koaza":"神田","lat":39.932148,"lng":139.832855,"zip":"0100663"},{"town":"船川港仁井山","koaza":"大石台","lat":39.920519,"lng":139.838751,"zip":"0100501"},{"town":"船川港増川","koaza":"小泊","lat":39.871123,"lng":139.833144,"zip":"0100522"},{"town":"男鹿中中間口","koaza":"千苅田","lat":39.953342,"lng":139.833657,"zip":"0100662"},{"town":"船川港南平沢","koaza":"越名坂","lat":39.878459,"lng":139.836184,"zip":"0100521"},{"town":"男鹿中中間口","koaza":"堂田","lat":39.949027,"lng":139.837344,"zip":"0100662"},{"town":"船川港南平沢","koaza":"林台","lat":39.873544,"lng":139.834055,"zip":"0100521"},{"town":"船川港増川","koaza":"大宮","lat":39.868298,"lng":139.83497,"zip":"0100522"},{"town":"船川港船川","koaza":"親道","lat":39.890477,"lng":139.835608,"zip":"0100511"},{"town":"男鹿中滝川","koaza":"坂ノ下","lat":39.935713,"lng":139.836703,"zip":"0100663"},{"town":"男鹿中滝川","koaza":"萱置場","lat":39.935667,"lng":139.838691,"zip":"0100663"},{"town":"船川港船川","koaza":"鳥屋場","lat":39.885895,"lng":139.84024,"zip":"0100511"},{"town":"船川港南平沢","koaza":"苗代沢","lat":39.871836,"lng":139.840651,"zip":"0100521"},{"town":"船川港船川","koaza":"小沢田","lat":39.89019,"lng":139.83981,"zip":"0100511"},{"town":"船川港船川","koaza":"芦沢","lat":39.875127,"lng":139.847637,"zip":"0100511"},{"town":"船川港船川","koaza":"化世沢","lat":39.879539,"lng":139.842744,"zip":"0100511"},{"town":"男鹿中滝川","koaza":"藤巻台","lat":39.935341,"lng":139.841927,"zip":"0100663"},{"town":"船川港仁井山","koaza":"滝沢","lat":39.921453,"lng":139.848414,"zip":"0100501"},{"town":"船川港南平沢","koaza":"明王堂前","lat":39.869421,"lng":139.843167,"zip":"0100521"},{"town":"船川港船川","koaza":"片田","lat":39.887927,"lng":139.842782,"zip":"0100511"},{"town":"船川港船川","koaza":"船川","lat":39.885043,"lng":139.843989,"zip":"0100511"},{"town":"船川港南平沢","koaza":"大畑台","lat":39.870031,"lng":139.844159,"zip":"0100521"},{"town":"船川港船川","koaza":"柳沢","lat":39.891763,"lng":139.844525,"zip":"0100511"},{"town":"船川港金川","koaza":"長沢","lat":39.905,"lng":139.848168,"zip":"0100503"},{"town":"船川港仁井山","koaza":"森越","lat":39.921639,"lng":139.842788,"zip":"0100501"},{"town":"船川港仁井山","koaza":"谷地端","lat":39.920218,"lng":139.848042,"zip":"0100501"},{"town":"船川港船川","koaza":"新浜町","lat":39.884435,"lng":139.848308,"zip":"0100511"},{"town":"船川港金川","koaza":"姫ケ沢","lat":39.893941,"lng":139.852103,"zip":"0100503"},{"town":"船川港船川","koaza":"泉台","lat":39.887418,"lng":139.84899,"zip":"0100511"},{"town":"船川港船川","koaza":"海岸通り一号","lat":39.884182,"lng":139.851206,"zip":"0100511"},{"town":"船川港金川","koaza":"上ノ山","lat":39.896365,"lng":139.852712,"zip":"0100503"},{"town":"船川港比詰","koaza":"大沢田","lat":39.911514,"lng":139.851499,"zip":"0100502"},{"town":"船川港比詰","koaza":"神田前","lat":39.917291,"lng":139.854557,"zip":"0100502"},{"town":"五里合琴川","koaza":"浜田","lat":39.97309,"lng":139.853682,"zip":"0100352"},{"town":"五里合琴川","koaza":"浜台","lat":39.974204,"lng":139.855689,"zip":"0100352"},{"town":"男鹿中滝川","koaza":"寒風山横道","lat":39.930915,"lng":139.8595,"zip":"0100663"},{"town":"船川港比詰","koaza":"大沢","lat":39.921818,"lng":139.853885,"zip":"0100502"},{"town":"船川港金川","koaza":"大友","lat":39.898789,"lng":139.85434,"zip":"0100503"},{"town":"船川港金川","koaza":"金川","lat":39.897171,"lng":139.858422,"zip":"0100503"},{"town":"船川港金川","koaza":"金川台","lat":39.899625,"lng":139.858493,"zip":"0100503"},{"town":"船川港比詰","koaza":"神明堂脇","lat":39.90763,"lng":139.861339,"zip":"0100502"},{"town":"船川港比詰","koaza":"大巻","lat":39.90157,"lng":139.862351,"zip":"0100502"},{"town":"船川港比詰","koaza":"羽立","lat":39.898545,"lng":139.863687,"zip":"0100502"},{"town":"船川港比詰","koaza":"才ノ神","lat":39.902063,"lng":139.865319,"zip":"0100502"},{"town":"五里合箱井","koaza":"是ケ沢","lat":39.972357,"lng":139.866398,"zip":"0100351"},{"town":"五里合琴川","koaza":"前田","lat":39.965136,"lng":139.864488,"zip":"0100352"},{"town":"五里合神谷","koaza":"銭神沢","lat":39.982714,"lng":139.869033,"zip":"0100353"},{"town":"五里合琴川","koaza":"百刈田","lat":39.966224,"lng":139.8657,"zip":"0100352"},{"town":"五里合箱井","koaza":"町屋田","lat":39.974394,"lng":139.87291,"zip":"0100351"},{"town":"五里合神谷","koaza":"長者森","lat":39.984346,"lng":139.869856,"zip":"0100353"},{"town":"船川港比詰","koaza":"餅ケ沢","lat":39.898862,"lng":139.868212,"zip":"0100502"},{"town":"五里合神谷","koaza":"下石","lat":39.982372,"lng":139.871553,"zip":"0100353"},{"town":"五里合神谷","koaza":"石神","lat":39.979334,"lng":139.870818,"zip":"0100353"},{"town":"五里合箱井","koaza":"長信太","lat":39.94406,"lng":139.871921,"zip":"0100351"},{"town":"五里合神谷","koaza":"上石","lat":39.979921,"lng":139.872673,"zip":"0100353"},{"town":"五里合神谷","koaza":"谷地中","lat":39.984252,"lng":139.872013,"zip":"0100353"},{"town":"五里合箱井","koaza":"三十刈","lat":39.971351,"lng":139.872624,"zip":"0100351"},{"town":"五里合神谷","koaza":"鮫ノ口","lat":39.977286,"lng":139.87386,"zip":"0100353"},{"town":"脇本富永","koaza":"寒風山","lat":39.93443,"lng":139.873556,"zip":"0100344"},{"town":"五里合神谷","koaza":"向谷地","lat":39.984979,"lng":139.874203,"zip":"0100353"},{"town":"五里合箱井","koaza":"出ケ沢","lat":39.970635,"lng":139.875006,"zip":"0100351"},{"town":"五里合中石","koaza":"高屋","lat":39.988402,"lng":139.879067,"zip":"0100354"},{"town":"五里合箱井","koaza":"桃崎","lat":39.972458,"lng":139.87732,"zip":"0100351"},{"town":"五里合中石","koaza":"南浜野","lat":39.989295,"lng":139.878124,"zip":"0100354"},{"town":"五里合鮪川","koaza":"鮪川","lat":39.967227,"lng":139.884985,"zip":"0100355"},{"town":"五里合中石","koaza":"橋本","lat":39.989464,"lng":139.886192,"zip":"0100354"},{"town":"五里合中石","koaza":"北浜野","lat":39.992295,"lng":139.885616,"zip":"0100354"},{"town":"五里合鮪川","koaza":"長崎","lat":39.963097,"lng":139.884558,"zip":"0100355"},{"town":"脇本田谷沢","koaza":"大沢","lat":39.91431,"lng":139.887777,"zip":"0100343"},{"town":"五里合中石","koaza":"月夜前","lat":39.990224,"lng":139.887627,"zip":"0100354"},{"town":"五里合中石","koaza":"八幡前","lat":39.98276,"lng":139.889316,"zip":"0100354"},{"town":"五里合鮪川","koaza":"上谷地","lat":39.967553,"lng":139.88706,"zip":"0100355"},{"town":"脇本田谷沢","koaza":"大橋向","lat":39.916743,"lng":139.887335,"zip":"0100343"},{"town":"五里合鮪川","koaza":"寺沢","lat":39.9683,"lng":139.890536,"zip":"0100355"},{"town":"五里合中石","koaza":"大沢","lat":39.980612,"lng":139.888639,"zip":"0100354"},{"town":"脇本脇本","koaza":"乍木","lat":39.915221,"lng":139.894365,"zip":"0100342"},{"town":"脇本脇本","koaza":"横町道上","lat":39.905191,"lng":139.893038,"zip":"0100342"},{"town":"脇本百川","koaza":"矢口","lat":39.949681,"lng":139.90571,"zip":"0100347"},{"town":"脇本富永","koaza":"福田","lat":39.91754,"lng":139.89576,"zip":"0100344"},{"town":"五里合鮪川","koaza":"寺台","lat":39.969584,"lng":139.895295,"zip":"0100355"},{"town":"脇本脇本","koaza":"七沢","lat":39.902291,"lng":139.894678,"zip":"0100342"},{"town":"脇本脇本","koaza":"打ケ崎","lat":39.915044,"lng":139.898263,"zip":"0100342"},{"town":"脇本脇本","koaza":"横町道下","lat":39.903031,"lng":139.896853,"zip":"0100342"},{"town":"脇本富永","koaza":"後沢","lat":39.91817,"lng":139.897936,"zip":"0100344"},{"town":"脇本脇本","koaza":"脇本","lat":39.904054,"lng":139.901919,"zip":"0100342"},{"town":"脇本脇本","koaza":"上野","lat":39.912193,"lng":139.900074,"zip":"0100342"},{"town":"脇本脇本","koaza":"向山","lat":39.910721,"lng":139.902693,"zip":"0100342"},{"town":"脇本浦田","koaza":"菅ノ沢","lat":39.929418,"lng":139.899096,"zip":"0100345"},{"town":"脇本脇本","koaza":"大石館","lat":39.90777,"lng":139.903844,"zip":"0100342"},{"town":"脇本脇本","koaza":"曲田","lat":39.915142,"lng":139.901032,"zip":"0100342"},{"town":"脇本富永","koaza":"小谷地","lat":39.922495,"lng":139.903942,"zip":"0100344"},{"town":"脇本浦田","koaza":"大保田","lat":39.933248,"lng":139.90243,"zip":"0100345"},{"town":"脇本富永","koaza":"飯ノ森","lat":39.922074,"lng":139.903493,"zip":"0100344"},{"town":"脇本樽沢","koaza":"岡谷地","lat":39.9397,"lng":139.90577,"zip":"0100346"},{"town":"脇本脇本","koaza":"尼池","lat":39.905892,"lng":139.903919,"zip":"0100342"},{"town":"脇本富永","koaza":"野田","lat":39.915793,"lng":139.908237,"zip":"0100344"},{"town":"脇本脇本","koaza":"下谷地","lat":39.902683,"lng":139.910555,"zip":"0100342"},{"town":"脇本脇本","koaza":"上谷地","lat":39.907363,"lng":139.907122,"zip":"0100342"},{"town":"脇本脇本","koaza":"前野","lat":39.912524,"lng":139.910296,"zip":"0100342"},{"town":"脇本脇本","koaza":"上中野","lat":39.908867,"lng":139.910624,"zip":"0100342"},{"town":"脇本脇本","koaza":"中野","lat":39.909906,"lng":139.917649,"zip":"0100342"},{"town":"脇本脇本","koaza":"飯ノ町","lat":39.914627,"lng":139.914831,"zip":"0100342"},{"town":"脇本脇本","koaza":"後野","lat":39.913879,"lng":139.918154,"zip":"0100342"},{"town":"脇本脇本","koaza":"頭名地","lat":39.908656,"lng":139.917537,"zip":"0100342"},{"town":"脇本脇本","koaza":"上前谷地","lat":39.916997,"lng":139.920971,"zip":"0100342"},{"town":"船越","koaza":"根木","lat":39.910938,"lng":139.93217,"zip":"0100341"},{"town":"船越","koaza":"内子","lat":39.902798,"lng":139.933292,"zip":"0100341"},{"town":"船越","koaza":"前野","lat":39.906394,"lng":139.930111,"zip":"0100341"},{"town":"船越","koaza":"杉山","lat":39.910682,"lng":139.92709,"zip":"0100341"},{"town":"払戸","koaza":"横長根","lat":39.915576,"lng":139.936195,"zip":"0100431"},{"town":"船越","koaza":"狐森","lat":39.904569,"lng":139.94488,"zip":"0100341"},{"town":"船越","koaza":"一向","lat":39.898355,"lng":139.950103,"zip":"0100341"},{"town":"船越","koaza":"本町","lat":39.903031,"lng":139.944976,"zip":"0100341"},{"town":"船越","koaza":"那場掛","lat":39.906011,"lng":139.947453,"zip":"0100341"},{"town":"船越","koaza":"船越","lat":39.902174,"lng":139.951329,"zip":"0100341"},{"town":"船越","koaza":"サッピ","lat":39.907372,"lng":139.949103,"zip":"0100341"},{"town":"船越","koaza":"寺後","lat":39.90357,"lng":139.950721,"zip":"0100341"},{"town":"船越","koaza":"八郎谷地","lat":39.906193,"lng":139.9545,"zip":"0100341"},{"town":"北浦西黒沢","koaza":"戸沢","lat":39.981893,"lng":139.715095,"zip":"0100676"},{"town":"北浦西黒沢","koaza":"中山","lat":39.979486,"lng":139.73281,"zip":"0100676"},{"town":"北浦西黒沢","koaza":"新屋敷","lat":39.980834,"lng":139.733777,"zip":"0100676"},{"town":"戸賀塩浜","koaza":"壷ケ沢","lat":39.943277,"lng":139.706758,"zip":"0100673"},{"town":"北浦湯本","koaza":"袖ノ沢","lat":39.963823,"lng":139.75169,"zip":"0100687"},{"town":"北浦北浦","koaza":"長田","lat":39.965796,"lng":139.769622,"zip":"0100683"},{"town":"北浦北浦","koaza":"茨島","lat":39.960566,"lng":139.778093,"zip":"0100683"},{"town":"脇本百川","koaza":"方丈田","lat":39.944888,"lng":139.90549,"zip":"0100347"},{"town":"脇本樽沢","koaza":"神明下","lat":39.941019,"lng":139.905539,"zip":"0100346"},{"town":"脇本樽沢","koaza":"碇","lat":39.935384,"lng":139.905605,"zip":"0100346"},{"town":"脇本浦田","koaza":"鯖ノ沢","lat":39.931465,"lng":139.903284,"zip":"0100345"},{"town":"脇本富永","koaza":"東前田","lat":39.917978,"lng":139.90384,"zip":"0100344"},{"town":"脇本富永","koaza":"南前田","lat":39.916814,"lng":139.901595,"zip":"0100344"},{"town":"脇本富永","koaza":"大倉","lat":39.91777,"lng":139.899327,"zip":"0100344"},{"town":"船川港仁井山","koaza":"石仏","lat":39.918192,"lng":139.840907,"zip":"0100501"},{"town":"船川港仁井山","koaza":"屋敷台","lat":39.912303,"lng":139.842478,"zip":"0100501"},{"town":"船川港船川","koaza":"大沢田","lat":39.897835,"lng":139.842,"zip":"0100511"},{"town":"男鹿中山町","koaza":"小室沢","lat":39.949881,"lng":139.818718,"zip":"0100665"},{"town":"男鹿中中間口","koaza":"姥懐","lat":39.945721,"lng":139.83462,"zip":"0100662"},{"town":"船川港増川","koaza":"鍋倉","lat":39.873857,"lng":139.830212,"zip":"0100522"},{"town":"戸賀塩浜","koaza":"平床","lat":39.946244,"lng":139.728313,"zip":"0100673"},{"town":"脇本田谷沢","koaza":"要沢","lat":39.910325,"lng":139.872414,"zip":"0100343"},{"town":"脇本田谷沢","koaza":"立木沢","lat":39.910019,"lng":139.886132,"zip":"0100343"},{"town":"船川港金川","koaza":"槻木沢","lat":39.905087,"lng":139.851229,"zip":"0100503"},{"town":"船川港金川","koaza":"上小友","lat":39.90408,"lng":139.855365,"zip":"0100503"},{"town":"北浦北浦","koaza":"雪車坂","lat":39.954955,"lng":139.763611,"zip":"0100683"},{"town":"北浦安全寺","koaza":"小谷川","lat":39.932594,"lng":139.777766,"zip":"0100684"},{"town":"船川港台島","koaza":"不動前","lat":39.867633,"lng":139.789302,"zip":"0100531"},{"town":"北浦北浦","koaza":"五輪野","lat":39.95659,"lng":139.780331,"zip":"0100683"},{"town":"男鹿中中間口","koaza":"飯坂","lat":39.950315,"lng":139.827722,"zip":"0100662"},{"town":"男鹿中山町","koaza":"アミダ沢","lat":39.947652,"lng":139.821849,"zip":"0100665"},{"town":"脇本浦田","koaza":"丸森","lat":39.925654,"lng":139.90289,"zip":"0100345"},{"town":"脇本富永","koaza":"丸森","lat":39.925049,"lng":139.900758,"zip":"0100344"},{"town":"脇本百川","koaza":"夏張","lat":39.943693,"lng":139.903762,"zip":"0100347"},{"town":"五里合神谷","koaza":"五郎右エ門","lat":39.976524,"lng":139.871962,"zip":"0100353"},{"town":"北浦西黒沢","koaza":"前田","lat":39.979986,"lng":139.729988,"zip":"0100676"},{"town":"北浦西黒沢","koaza":"黒崎","lat":39.980956,"lng":139.733182,"zip":"0100676"},{"town":"北浦湯本","koaza":"一ノ森下","lat":39.974874,"lng":139.739763,"zip":"0100687"},{"town":"北浦西黒沢","koaza":"一ノ坂","lat":39.974567,"lng":139.736426,"zip":"0100676"},{"town":"北浦湯本","koaza":"水上沢","lat":39.974815,"lng":139.747519,"zip":"0100687"},{"town":"北浦湯本","koaza":"高田","lat":39.974601,"lng":139.753311,"zip":"0100687"},{"town":"北浦湯本","koaza":"大谷地","lat":39.974325,"lng":139.755754,"zip":"0100687"},{"town":"北浦湯本","koaza":"中里","lat":39.975722,"lng":139.745722,"zip":"0100687"},{"town":"五里合中石","koaza":"後田","lat":39.983456,"lng":139.889595,"zip":"0100354"},{"town":"五里合中石","koaza":"東山松原","lat":39.983379,"lng":139.898154,"zip":"0100354"},{"town":"五里合中石","koaza":"十文字台","lat":39.976604,"lng":139.898008,"zip":"0100354"},{"town":"五里合中石","koaza":"瓜沢","lat":39.980141,"lng":139.891454,"zip":"0100354"},{"town":"五里合琴川","koaza":"大柳","lat":39.970361,"lng":139.862222,"zip":"0100352"},{"town":"五里合琴川","koaza":"縄手ノ内","lat":39.970548,"lng":139.85587,"zip":"0100352"},{"town":"北浦湯本","koaza":"福ノ沢","lat":39.966693,"lng":139.746482,"zip":"0100687"},{"town":"北浦湯本","koaza":"福田","lat":39.966699,"lng":139.751157,"zip":"0100687"},{"town":"北浦北浦","koaza":"堤下","lat":39.968071,"lng":139.773146,"zip":"0100683"},{"town":"北浦北浦","koaza":"種田","lat":39.965972,"lng":139.773661,"zip":"0100683"},{"town":"北浦北浦","koaza":"杉原","lat":39.964172,"lng":139.781124,"zip":"0100683"},{"town":"北浦北浦","koaza":"中菅","lat":39.96399,"lng":139.775778,"zip":"0100683"},{"town":"北浦北浦","koaza":"栄町","lat":39.962012,"lng":139.78462,"zip":"0100683"},{"town":"五里合鮪川","koaza":"箱井沢","lat":39.966192,"lng":139.884122,"zip":"0100355"},{"town":"五里合鮪川","koaza":"轟木沢","lat":39.966202,"lng":139.885743,"zip":"0100355"},{"town":"五里合鮪川","koaza":"諸見台","lat":39.966524,"lng":139.89587,"zip":"0100355"},{"town":"北浦野村","koaza":"前田","lat":39.96834,"lng":139.76592,"zip":"0100688"},{"town":"戸賀戸賀","koaza":"栩山","lat":39.961822,"lng":139.716558,"zip":"0100674"},{"town":"男鹿中浜間口","koaza":"川上岩瀬","lat":39.957034,"lng":139.816423,"zip":"0100661"},{"town":"男鹿中浜間口","koaza":"川上","lat":39.960246,"lng":139.821992,"zip":"0100661"},{"town":"北浦北浦","koaza":"鍛冶屋長根","lat":39.957723,"lng":139.786526,"zip":"0100683"},{"town":"北浦北浦","koaza":"小山崎","lat":39.957915,"lng":139.777851,"zip":"0100683"},{"town":"脇本百川","koaza":"山崎","lat":39.954751,"lng":139.903837,"zip":"0100347"},{"town":"脇本百川","koaza":"後沢","lat":39.95578,"lng":139.905058,"zip":"0100347"},{"town":"脇本百川","koaza":"馬場台","lat":39.952661,"lng":139.898537,"zip":"0100347"},{"town":"脇本百川","koaza":"相ノ沢","lat":39.950702,"lng":139.904275,"zip":"0100347"},{"town":"脇本樽沢","koaza":"夏張","lat":39.943351,"lng":139.897462,"zip":"0100346"},{"town":"脇本樽沢","koaza":"立石","lat":39.94006,"lng":139.902894,"zip":"0100346"},{"town":"脇本樽沢","koaza":"刈沢","lat":39.93684,"lng":139.901751,"zip":"0100346"},{"town":"脇本浦田","koaza":"坂ノ上","lat":39.932382,"lng":139.898098,"zip":"0100345"},{"town":"脇本富永","koaza":"岩倉","lat":39.918894,"lng":139.883189,"zip":"0100344"},{"town":"脇本富永","koaza":"梅ノ沢","lat":39.923141,"lng":139.881811,"zip":"0100344"},{"town":"脇本富永","koaza":"山王前","lat":39.917728,"lng":139.885609,"zip":"0100344"},{"town":"脇本富永","koaza":"堂ノ前","lat":39.922618,"lng":139.890734,"zip":"0100344"},{"town":"脇本富永","koaza":"毘沙門沢","lat":39.92531,"lng":139.889933,"zip":"0100344"},{"town":"北浦西黒沢","koaza":"天王岱","lat":39.979657,"lng":139.727351,"zip":"0100676"},{"town":"北浦西黒沢","koaza":"館福","lat":39.980669,"lng":139.736114,"zip":"0100676"},{"town":"北浦湯本","koaza":"芦沢","lat":39.977871,"lng":139.741056,"zip":"0100687"},{"town":"戸賀浜塩谷","koaza":"大水沢","lat":39.956677,"lng":139.72126,"zip":"0100672"},{"town":"北浦野村","koaza":"沢田","lat":39.972484,"lng":139.76621,"zip":"0100688"},{"town":"北浦西水口","koaza":"前田","lat":39.958004,"lng":139.764812,"zip":"0100686"},{"town":"北浦北浦","koaza":"池ノ田","lat":39.961057,"lng":139.781872,"zip":"0100683"},{"town":"北浦北浦","koaza":"下鴨川","lat":39.959918,"lng":139.78089,"zip":"0100683"},{"town":"北浦相川","koaza":"相川沢","lat":39.955229,"lng":139.791216,"zip":"0100681"},{"town":"男鹿中中間口","koaza":"橋本","lat":39.949194,"lng":139.830182,"zip":"0100662"},{"town":"男鹿中滝川","koaza":"林ノ下","lat":39.939764,"lng":139.824305,"zip":"0100663"},{"town":"北浦真山","koaza":"塞ノ神下","lat":39.943581,"lng":139.779425,"zip":"0100685"},{"town":"男鹿中滝川","koaza":"大峰台","lat":39.938073,"lng":139.831662,"zip":"0100663"},{"town":"男鹿中滝川","koaza":"鶴巻","lat":39.93758,"lng":139.823151,"zip":"0100663"},{"town":"男鹿中滝川","koaza":"塩戸尻","lat":39.934053,"lng":139.828179,"zip":"0100663"},{"town":"北浦安全寺","koaza":"水沢","lat":39.931445,"lng":139.78636,"zip":"0100684"},{"town":"北浦安全寺","koaza":"前田","lat":39.932104,"lng":139.78737,"zip":"0100684"},{"town":"脇本浦田","koaza":"宮崎","lat":39.929841,"lng":139.903324,"zip":"0100345"},{"town":"男鹿中滝川","koaza":"五輪野","lat":39.930924,"lng":139.836482,"zip":"0100663"},{"town":"船川港仁井山","koaza":"大沢口","lat":39.920016,"lng":139.851321,"zip":"0100501"},{"town":"男鹿中滝川","koaza":"三ツ森下台","lat":39.918236,"lng":139.809053,"zip":"0100663"},{"town":"戸賀加茂青砂","koaza":"中台","lat":39.910502,"lng":139.720595,"zip":"0100671"},{"town":"戸賀加茂青砂","koaza":"向山","lat":39.908484,"lng":139.734783,"zip":"0100671"},{"town":"船川港仁井山","koaza":"丑沼","lat":39.915741,"lng":139.830345,"zip":"0100501"},{"town":"脇本田谷沢","koaza":"仏沢","lat":39.914879,"lng":139.878546,"zip":"0100343"},{"town":"脇本田谷沢","koaza":"豆沢","lat":39.912361,"lng":139.87855,"zip":"0100343"},{"town":"脇本脇本","koaza":"段ノ越","lat":39.913287,"lng":139.907672,"zip":"0100342"},{"town":"船川港仁井山","koaza":"鶴巻沢","lat":39.908517,"lng":139.830638,"zip":"0100501"},{"town":"脇本脇本","koaza":"相染前","lat":39.911575,"lng":139.906253,"zip":"0100342"},{"town":"脇本脇本","koaza":"石館","lat":39.909465,"lng":139.908434,"zip":"0100342"},{"town":"脇本脇本","koaza":"杉山","lat":39.910292,"lng":139.920296,"zip":"0100342"},{"town":"船越","koaza":"堂ノ前","lat":39.907508,"lng":139.956291,"zip":"0100341"},{"town":"脇本脇本","koaza":"下中野","lat":39.909498,"lng":139.916065,"zip":"0100342"},{"town":"脇本脇本","koaza":"根木","lat":39.913618,"lng":139.919676,"zip":"0100342"},{"town":"船川港金川","koaza":"戸平沢","lat":39.903879,"lng":139.853011,"zip":"0100503"},{"town":"船川港金川","koaza":"下小友","lat":39.902461,"lng":139.856883,"zip":"0100503"},{"town":"船川港比詰","koaza":"二合田","lat":39.90624,"lng":139.867916,"zip":"0100502"},{"town":"脇本脇本","koaza":"稲荷下","lat":39.906488,"lng":139.898438,"zip":"0100342"},{"town":"脇本脇本","koaza":"兜ケ崎","lat":39.908831,"lng":139.895309,"zip":"0100342"},{"town":"脇本脇本","koaza":"内郷","lat":39.904684,"lng":139.909102,"zip":"0100342"},{"town":"船川港船川","koaza":"海岸通り二号","lat":39.89144,"lng":139.855319,"zip":"0100511"},{"town":"船川港船川","koaza":"栄町","lat":39.883525,"lng":139.846527,"zip":"0100511"},{"town":"船川港船川","koaza":"元浜町","lat":39.883582,"lng":139.846042,"zip":"0100511"},{"town":"船川港船川","koaza":"漆畑","lat":39.890257,"lng":139.845151,"zip":"0100511"},{"town":"船川港船川","koaza":"石砂坂","lat":39.890408,"lng":139.830588,"zip":"0100511"},{"town":"船川港南平沢","koaza":"上大畑台","lat":39.87305,"lng":139.839612,"zip":"0100521"},{"town":"船川港南平沢","koaza":"観音沢","lat":39.869858,"lng":139.840048,"zip":"0100521"},{"town":"船川港南平沢","koaza":"近江屋","lat":39.869085,"lng":139.839567,"zip":"0100521"},{"town":"船川港増川","koaza":"宮ノ下","lat":39.871491,"lng":139.82876,"zip":"0100522"},{"town":"船川港増川","koaza":"小増川","lat":39.874361,"lng":139.820686,"zip":"0100522"},{"town":"船川港双六","koaza":"打越","lat":39.865928,"lng":139.771584,"zip":"0100533"},{"town":"船川港双六","koaza":"蕨台","lat":39.866736,"lng":139.773508,"zip":"0100533"},{"town":"船川港椿","koaza":"家ノ後","lat":39.865905,"lng":139.778502,"zip":"0100532"},{"town":"船川港椿","koaza":"中山","lat":39.865363,"lng":139.787137,"zip":"0100532"},{"town":"船川港女川","koaza":"下長根","lat":39.868815,"lng":139.812981,"zip":"0100523"},{"town":"船川港椿","koaza":"坂ノ上","lat":39.868377,"lng":139.783337,"zip":"0100532"},{"town":"船川港金川","koaza":"今平沢","lat":39.904141,"lng":139.843999,"zip":"0100503"},{"town":"北浦北浦","koaza":"長浜明前","lat":39.969191,"lng":139.7697,"zip":"0100683"},{"town":"北浦相川","koaza":"小屋ケ沢","lat":39.954653,"lng":139.793376,"zip":"0100681"},{"town":"男鹿中中間口","koaza":"戸ノ木","lat":39.954489,"lng":139.831125,"zip":"0100662"},{"town":"北浦安全寺","koaza":"横枕","lat":39.930088,"lng":139.788105,"zip":"0100684"},{"town":"北浦北浦","koaza":"平岱山","lat":39.951934,"lng":139.7545,"zip":"0100683"},{"town":"船川港金川","koaza":"留山","lat":39.897979,"lng":139.861464,"zip":"0100503"}]