[{"town":"青葉町","koaza":"","lat":40.200323,"lng":140.019083,"zip":"0160865"},{"town":"字悪戸","koaza":"","lat":40.191721,"lng":140.060938,"zip":"0160000"},{"town":"字一本木","koaza":"","lat":40.187885,"lng":140.06832,"zip":"0160000"},{"town":"字上ノ山","koaza":"","lat":40.198912,"lng":140.118621,"zip":"0160000"},{"town":"字上ノ山台","koaza":"","lat":40.201561,"lng":140.114288,"zip":"0160000"},{"town":"字後谷地","koaza":"","lat":40.196908,"lng":140.023179,"zip":"0160000"},{"town":"字鵜鳥","koaza":"","lat":40.198609,"lng":140.102416,"zip":"0160000"},{"town":"字鵜鳥悪戸","koaza":"","lat":40.202905,"lng":140.089833,"zip":"0160000"},{"town":"字鵜鳥川原","koaza":"","lat":40.205111,"lng":140.100861,"zip":"0160000"},{"town":"字姥懐","koaza":"","lat":40.202608,"lng":140.125544,"zip":"0160000"},{"town":"字大内田","koaza":"","lat":40.181215,"lng":140.035963,"zip":"0160000"},{"town":"字大瀬儘下","koaza":"","lat":40.187796,"lng":140.034275,"zip":"0160000"},{"town":"字大台野","koaza":"","lat":40.195655,"lng":140.148728,"zip":"0160000"},{"town":"字大塚","koaza":"","lat":40.182007,"lng":140.044075,"zip":"0160000"},{"town":"字大曲","koaza":"","lat":40.217293,"lng":140.095723,"zip":"0160000"},{"town":"字大森山","koaza":"","lat":40.196067,"lng":139.997335,"zip":"0160000"},{"town":"字海詠坂","koaza":"","lat":40.189774,"lng":140.000978,"zip":"0160000"},{"town":"字柏子所","koaza":"","lat":40.17267,"lng":140.048952,"zip":"0160000"},{"town":"字上関","koaza":"","lat":40.182133,"lng":140.068733,"zip":"0160000"},{"town":"字上古川布","koaza":"","lat":40.185117,"lng":140.027666,"zip":"0160000"},{"town":"字上谷地","koaza":"","lat":40.182771,"lng":140.072807,"zip":"0160000"},{"town":"字上柳","koaza":"","lat":40.189438,"lng":140.042567,"zip":"0160000"},{"town":"字臥竜山","koaza":"","lat":40.189063,"lng":140.014786,"zip":"0160000"},{"town":"字狐森","koaza":"","lat":40.220348,"lng":140.09902,"zip":"0160000"},{"town":"字九郎左エ門笹台","koaza":"","lat":40.15515,"lng":140.050855,"zip":"0160000"},{"town":"字下内崎","koaza":"","lat":40.189657,"lng":140.046423,"zip":"0160000"},{"town":"字五雲岱","koaza":"","lat":40.19222,"lng":140.008064,"zip":"0160000"},{"town":"字権現台","koaza":"","lat":40.157912,"lng":140.046115,"zip":"0160000"},{"town":"字彩霞長根","koaza":"","lat":40.194649,"lng":140.027953,"zip":"0160000"},{"town":"字塞ノ神","koaza":"","lat":40.162955,"lng":140.044561,"zip":"0160000"},{"town":"字塩干田","koaza":"","lat":40.178068,"lng":140.04313,"zip":"0160000"},{"town":"字塩干田前","koaza":"","lat":40.177212,"lng":140.04698,"zip":"0160000"},{"town":"字十洲崎","koaza":"","lat":40.18187,"lng":140.025783,"zip":"0160000"},{"town":"字芝童森","koaza":"","lat":40.192503,"lng":140.022085,"zip":"0160000"},{"town":"字下悪戸","koaza":"","lat":40.189954,"lng":140.048772,"zip":"0160000"},{"town":"字下瀬","koaza":"","lat":40.186959,"lng":140.037097,"zip":"0160000"},{"town":"字下関","koaza":"","lat":40.185146,"lng":140.06343,"zip":"0160000"},{"town":"字下野","koaza":"","lat":40.189064,"lng":140.039891,"zip":"0160000"},{"town":"字下古川布","koaza":"","lat":40.186083,"lng":140.043365,"zip":"0160000"},{"town":"字下柳","koaza":"","lat":40.186037,"lng":140.039866,"zip":"0160000"},{"town":"字寿域長根","koaza":"","lat":40.192001,"lng":140.026026,"zip":"0160000"},{"town":"字昇平岱","koaza":"","lat":40.191849,"lng":140.019163,"zip":"0160000"},{"town":"字新山前","koaza":"","lat":40.18491,"lng":140.055398,"zip":"0160000"},{"town":"字砂留山","koaza":"","lat":40.200647,"lng":140.014999,"zip":"0160000"},{"town":"字仙遊長根","koaza":"","lat":40.18785,"lng":140.012982,"zip":"0160000"},{"town":"字袖又","koaza":"","lat":40.180157,"lng":140.040015,"zip":"0160000"},{"town":"字外堤","koaza":"","lat":40.205548,"lng":140.125994,"zip":"0160000"},{"town":"字高塙","koaza":"","lat":40.184245,"lng":140.048382,"zip":"0160000"},{"town":"字田子向","koaza":"","lat":40.187476,"lng":140.026503,"zip":"0160000"},{"town":"字田中谷地","koaza":"","lat":40.193142,"lng":140.13273,"zip":"0160000"},{"town":"字田屋","koaza":"","lat":40.179553,"lng":140.04783,"zip":"0160000"},{"town":"字鶴形","koaza":"","lat":40.206561,"lng":140.11555,"zip":"0160000"},{"town":"字出戸後","koaza":"","lat":40.197082,"lng":140.025781,"zip":"0160000"},{"town":"字寺向","koaza":"","lat":40.183463,"lng":140.053945,"zip":"0160000"},{"town":"字東面","koaza":"","lat":40.218006,"lng":140.100953,"zip":"0160000"},{"town":"字戸川向","koaza":"","lat":40.178006,"lng":140.038281,"zip":"0160000"},{"town":"字戸草沢","koaza":"","lat":40.198919,"lng":140.121486,"zip":"0160000"},{"town":"字轟","koaza":"","lat":40.217305,"lng":140.112869,"zip":"0160000"},{"town":"字鳥屋場","koaza":"","lat":40.21023,"lng":140.144772,"zip":"0160000"},{"town":"字鳥小屋","koaza":"","lat":40.196395,"lng":140.018907,"zip":"0160000"},{"town":"浅内","koaza":"","lat":40.147141,"lng":140.018073,"zip":"0160179"},{"town":"字中悪戸","koaza":"","lat":40.188735,"lng":140.052413,"zip":"0160000"},{"town":"字長崎","koaza":"","lat":40.186522,"lng":140.022095,"zip":"0160000"},{"town":"字中嶋","koaza":"","lat":40.193185,"lng":140.057136,"zip":"0160000"},{"town":"字中関","koaza":"","lat":40.187028,"lng":140.066092,"zip":"0160000"},{"town":"字中谷地","koaza":"","lat":40.184259,"lng":140.060029,"zip":"0160000"},{"town":"字中柳","koaza":"","lat":40.187719,"lng":140.042754,"zip":"0160000"},{"town":"字南陽崎","koaza":"","lat":40.186422,"lng":140.014354,"zip":"0160000"},{"town":"字仁井田白山","koaza":"","lat":40.190114,"lng":140.054758,"zip":"0160000"},{"town":"字西赤沼","koaza":"","lat":40.193101,"lng":140.039464,"zip":"0160000"},{"town":"字西大瀬","koaza":"","lat":40.19146,"lng":140.033378,"zip":"0160000"},{"town":"字沼ノ上","koaza":"","lat":40.188007,"lng":140.017563,"zip":"0160000"},{"town":"字機織轌ノ目","koaza":"","lat":40.188577,"lng":140.062238,"zip":"0160000"},{"town":"字腹鞁ノ沢","koaza":"","lat":40.172139,"lng":140.066624,"zip":"0160000"},{"town":"字半戸沢","koaza":"","lat":40.20392,"lng":140.10883,"zip":"0160000"},{"town":"字東赤沼","koaza":"","lat":40.193082,"lng":140.041339,"zip":"0160000"},{"town":"字東大瀬","koaza":"","lat":40.192706,"lng":140.035337,"zip":"0160000"},{"town":"字冷清水","koaza":"","lat":40.193014,"lng":140.102092,"zip":"0160000"},{"town":"字藤山","koaza":"","lat":40.188464,"lng":140.03026,"zip":"0160000"},{"town":"字古屋布","koaza":"","lat":40.169606,"lng":140.047165,"zip":"0160000"},{"town":"字不老岱","koaza":"","lat":40.191472,"lng":140.014674,"zip":"0160000"},{"town":"字鳳凰岱","koaza":"","lat":40.196881,"lng":140.011744,"zip":"0160000"},{"town":"字坊ケ崎","koaza":"","lat":40.182026,"lng":140.029541,"zip":"0160000"},{"town":"字豊祥岱","koaza":"","lat":40.193085,"lng":140.030508,"zip":"0160000"},{"town":"字町後","koaza":"","lat":40.201233,"lng":140.123646,"zip":"0160000"},{"town":"字松長布","koaza":"","lat":40.183795,"lng":140.035411,"zip":"0160000"},{"town":"字宮ノ前","koaza":"","lat":40.18833,"lng":140.071153,"zip":"0160000"},{"town":"字向田表","koaza":"","lat":40.195339,"lng":140.097216,"zip":"0160000"},{"town":"字谷地上","koaza":"","lat":40.191321,"lng":140.115879,"zip":"0160000"},{"town":"字養蚕","koaza":"","lat":40.195777,"lng":140.036192,"zip":"0160000"},{"town":"字養蚕脇","koaza":"","lat":40.194504,"lng":140.037891,"zip":"0160000"},{"town":"字若田","koaza":"","lat":40.2093,"lng":140.130081,"zip":"0160000"},{"town":"天内","koaza":"","lat":40.246475,"lng":140.175812,"zip":"0182802"},{"town":"万町","koaza":"","lat":40.214838,"lng":140.030113,"zip":"0160804"},{"town":"磐","koaza":"","lat":40.252902,"lng":140.056253,"zip":"0160017"},{"town":"追分町","koaza":"","lat":40.203928,"lng":140.030502,"zip":"0160842"},{"town":"扇田","koaza":"","lat":40.188947,"lng":140.091275,"zip":"0160122"},{"town":"大手町","koaza":"","lat":40.211477,"lng":140.023368,"zip":"0160805"},{"town":"大町","koaza":"","lat":40.214716,"lng":140.025973,"zip":"0160803"},{"town":"大森","koaza":"","lat":40.140635,"lng":140.122052,"zip":"0160155"},{"town":"落合","koaza":"","lat":40.23143,"lng":140.025942,"zip":"0160014"},{"town":"鰄渕","koaza":"","lat":40.190745,"lng":140.075183,"zip":"0160121"},{"town":"上町","koaza":"","lat":40.211953,"lng":140.027082,"zip":"0160817"},{"town":"河戸川","koaza":"","lat":40.178845,"lng":140.01327,"zip":"0160171"},{"town":"川反町","koaza":"","lat":40.21504,"lng":140.023053,"zip":"0160802"},{"town":"久喜沢","koaza":"","lat":40.255681,"lng":140.11995,"zip":"0182806"},{"town":"景林町","koaza":"","lat":40.20666,"lng":140.020362,"zip":"0160892"},{"town":"御指南町","koaza":"","lat":40.211919,"lng":140.035908,"zip":"0160815"},{"town":"槐","koaza":"","lat":40.224529,"lng":140.124198,"zip":"0182804"},{"town":"栄町","koaza":"","lat":40.204156,"lng":140.025118,"zip":"0160846"},{"town":"坂形","koaza":"","lat":40.269972,"lng":140.039867,"zip":"0160011"},{"town":"産物","koaza":"","lat":40.214707,"lng":140.099512,"zip":"0182811"},{"town":"昭南町","koaza":"","lat":40.202408,"lng":140.02094,"zip":"0160897"},{"town":"末広町","koaza":"","lat":40.208345,"lng":140.017881,"zip":"0160895"},{"town":"須田","koaza":"","lat":40.246597,"lng":140.025211,"zip":"0160015"},{"town":"住吉町","koaza":"","lat":40.207195,"lng":140.025329,"zip":"0160824"},{"town":"清助町","koaza":"","lat":40.213405,"lng":140.01926,"zip":"0160806"},{"town":"外荒巻","koaza":"","lat":40.260177,"lng":140.074479,"zip":"0160001"},{"town":"竹生","koaza":"","lat":40.247991,"lng":140.042646,"zip":"0160016"},{"town":"田床内","koaza":"","lat":40.186539,"lng":140.109548,"zip":"0160123"},{"town":"中和一丁目","koaza":"","lat":40.200739,"lng":140.028507,"zip":"0160843"},{"town":"中和二丁目","koaza":"","lat":40.200451,"lng":140.032175,"zip":"0160843"},{"town":"出戸本町","koaza":"","lat":40.197761,"lng":140.027492,"zip":"0160852"},{"town":"通町","koaza":"","lat":40.2041,"lng":140.022406,"zip":"0160845"},{"town":"常盤","koaza":"","lat":40.2995,"lng":140.163552,"zip":"0182801"},{"town":"飛根","koaza":"","lat":40.214998,"lng":140.147329,"zip":"0160000"},{"town":"富町","koaza":"","lat":40.209789,"lng":140.031597,"zip":"0160816"},{"town":"外割田","koaza":"","lat":40.243625,"lng":140.146814,"zip":"0182803"},{"town":"中沢","koaza":"","lat":40.162074,"lng":140.076597,"zip":"0160156"},{"town":"西通町","koaza":"","lat":40.208865,"lng":140.022235,"zip":"0160891"},{"town":"荷八田","koaza":"","lat":40.214379,"lng":140.065174,"zip":"0160003"},{"town":"能代町","koaza":"","lat":40.208911,"lng":140.039932,"zip":"0160813"},{"town":"萩の台","koaza":"","lat":40.204258,"lng":140.016874,"zip":"0160894"},{"town":"畠町","koaza":"","lat":40.209697,"lng":140.029102,"zip":"0160821"},{"town":"花園町","koaza":"","lat":40.200246,"lng":140.024604,"zip":"0160844"},{"town":"浜通町","koaza":"","lat":40.215977,"lng":140.018219,"zip":"0160801"},{"town":"盤若町","koaza":"","lat":40.210971,"lng":140.018494,"zip":"0160896"},{"town":"東町","koaza":"","lat":40.207012,"lng":140.028741,"zip":"0160822"},{"town":"比八田","koaza":"","lat":40.251167,"lng":140.073517,"zip":"0160012"},{"town":"檜山","koaza":"","lat":40.168966,"lng":140.103363,"zip":"0160151"},{"town":"日吉町","koaza":"","lat":40.213414,"lng":140.033435,"zip":"0160811"},{"town":"吹越","koaza":"","lat":40.202047,"lng":140.050595,"zip":"0160004"},{"town":"二ツ井町","koaza":"","lat":40.105952,"lng":140.18638,"zip":"0183101"},{"town":"二ツ井町麻生","koaza":"","lat":40.197411,"lng":140.273053,"zip":"0183101"},{"town":"二ツ井町梅内","koaza":"","lat":40.275256,"lng":140.193491,"zip":"0183131"},{"town":"二ツ井町加護山","koaza":"","lat":40.224606,"lng":140.255143,"zip":"0160000"},{"town":"二ツ井町苅又石","koaza":"","lat":40.180169,"lng":140.194232,"zip":"0183107"},{"town":"二ツ井町切石","koaza":"","lat":40.203619,"lng":140.205806,"zip":"0183124"},{"town":"二ツ井町小掛","koaza":"","lat":40.167911,"lng":140.21665,"zip":"0183112"},{"town":"二ツ井町小繋","koaza":"","lat":40.214999,"lng":140.265641,"zip":"0183102"},{"town":"二ツ井町駒形","koaza":"","lat":40.200615,"lng":140.179794,"zip":"0183123"},{"town":"二ツ井町田代","koaza":"","lat":40.105829,"lng":140.231751,"zip":"0183111"},{"town":"二ツ井町種","koaza":"","lat":40.221584,"lng":140.217732,"zip":"0183133"},{"town":"二ツ井町荷上場","koaza":"","lat":40.229432,"lng":140.247354,"zip":"0183103"},{"town":"二ツ井町濁川","koaza":"","lat":40.102625,"lng":140.201308,"zip":"0183106"},{"town":"二ツ井町仁鮒","koaza":"","lat":40.17897,"lng":140.23513,"zip":"0183113"},{"town":"朴瀬","koaza":"","lat":40.231469,"lng":140.084841,"zip":"0160002"},{"town":"真壁地","koaza":"","lat":40.220574,"lng":140.053926,"zip":"0160005"},{"town":"松美町","koaza":"","lat":40.203817,"lng":140.018496,"zip":"0160893"},{"town":"緑町","koaza":"","lat":40.197613,"lng":140.034353,"zip":"0160851"},{"town":"南元町","koaza":"","lat":40.20309,"lng":140.032244,"zip":"0160832"},{"town":"向能代","koaza":"","lat":40.222958,"lng":140.043277,"zip":"0160013"},{"town":"明治町","koaza":"","lat":40.200367,"lng":140.035546,"zip":"0160833"},{"town":"母体","koaza":"","lat":40.15771,"lng":140.157153,"zip":"0160152"},{"town":"元町","koaza":"","lat":40.206116,"lng":140.032539,"zip":"0160831"},{"town":"柳町","koaza":"","lat":40.209451,"lng":140.026296,"zip":"0160825"},{"town":"若松町","koaza":"","lat":40.204561,"lng":140.028102,"zip":"0160823"},{"town":"浅内","koaza":"大坪","lat":40.135646,"lng":139.994476,"zip":"0160179"},{"town":"浅内","koaza":"黒岡","lat":40.140641,"lng":139.996321,"zip":"0160179"},{"town":"浅内","koaza":"上西山","lat":40.154029,"lng":139.999506,"zip":"0160179"},{"town":"浅内","koaza":"茨嶋山","lat":40.146036,"lng":140.000811,"zip":"0160179"},{"town":"浅内","koaza":"大山","lat":40.134942,"lng":139.996813,"zip":"0160179"},{"town":"浅内","koaza":"浜浅内","lat":40.165458,"lng":140.00395,"zip":"0160179"},{"town":"河戸川","koaza":"下西山","lat":40.18147,"lng":140.012562,"zip":"0160171"},{"town":"河戸川","koaza":"南西山","lat":40.176487,"lng":140.002283,"zip":"0160171"},{"town":"能代町","koaza":"日和山下","lat":40.21597,"lng":140.009946,"zip":"0160813"},{"town":"浅内","koaza":"鵜川堺","lat":40.123782,"lng":140.006597,"zip":"0160179"},{"town":"浅内","koaza":"清水下","lat":40.134833,"lng":140.007594,"zip":"0160179"},{"town":"浅内","koaza":"出戸谷地","lat":40.163812,"lng":140.010629,"zip":"0160179"},{"town":"浅内","koaza":"南大開","lat":40.168793,"lng":140.007387,"zip":"0160179"},{"town":"浅内","koaza":"中谷地","lat":40.164875,"lng":140.010195,"zip":"0160179"},{"town":"浅内","koaza":"成合","lat":40.129251,"lng":140.011135,"zip":"0160179"},{"town":"河戸川","koaza":"上西山","lat":40.177811,"lng":140.009994,"zip":"0160171"},{"town":"落合","koaza":"亀谷地","lat":40.23102,"lng":140.012174,"zip":"0160014"},{"town":"浅内","koaza":"沢辺","lat":40.126928,"lng":140.010601,"zip":"0160179"},{"town":"浅内","koaza":"向山","lat":40.134482,"lng":140.01035,"zip":"0160179"},{"town":"落合","koaza":"古悪土","lat":40.226616,"lng":140.015166,"zip":"0160014"},{"town":"河戸川","koaza":"北西山","lat":40.18179,"lng":140.0023,"zip":"0160171"},{"town":"浅内","koaza":"頭無上","lat":40.136694,"lng":140.012059,"zip":"0160179"},{"town":"浅内","koaza":"福田上野","lat":40.141441,"lng":140.013144,"zip":"0160179"},{"town":"落合","koaza":"下釜谷地","lat":40.230951,"lng":140.013527,"zip":"0160014"},{"town":"浅内","koaza":"中山","lat":40.164712,"lng":140.017378,"zip":"0160179"},{"town":"浅内","koaza":"赤沼","lat":40.170312,"lng":140.013668,"zip":"0160179"},{"town":"浅内","koaza":"石丁家下","lat":40.14567,"lng":140.014581,"zip":"0160179"},{"town":"浅内","koaza":"石丁家上","lat":40.145898,"lng":140.015222,"zip":"0160179"},{"town":"落合","koaza":"下台","lat":40.234223,"lng":140.017888,"zip":"0160014"},{"town":"浅内","koaza":"玉清水","lat":40.154381,"lng":140.018151,"zip":"0160179"},{"town":"落合","koaza":"上釜谷地","lat":40.22685,"lng":140.019004,"zip":"0160014"},{"town":"落合","koaza":"古釜谷地","lat":40.229498,"lng":140.019046,"zip":"0160014"},{"town":"河戸川","koaza":"上大須賀","lat":40.179232,"lng":140.019901,"zip":"0160171"},{"town":"河戸川","koaza":"中谷地","lat":40.183304,"lng":140.016032,"zip":"0160171"},{"town":"河戸川","koaza":"大須賀","lat":40.179554,"lng":140.018832,"zip":"0160171"},{"town":"浅内","koaza":"浅内堤下","lat":40.157586,"lng":140.018643,"zip":"0160179"},{"town":"浅内","koaza":"寒川家上","lat":40.150821,"lng":140.017873,"zip":"0160179"},{"town":"落合","koaza":"上悪土","lat":40.223657,"lng":140.022958,"zip":"0160014"},{"town":"落合","koaza":"綱割","lat":40.234309,"lng":140.022891,"zip":"0160014"},{"town":"浅内","koaza":"大館沢","lat":40.158558,"lng":140.020107,"zip":"0160179"},{"town":"浅内","koaza":"清水上","lat":40.156963,"lng":140.019645,"zip":"0160179"},{"town":"浅内","koaza":"浅内","lat":40.161253,"lng":140.020713,"zip":"0160179"},{"town":"落合","koaza":"下悪土","lat":40.226203,"lng":140.023172,"zip":"0160014"},{"town":"河戸川","koaza":"下大須賀","lat":40.182589,"lng":140.022006,"zip":"0160171"},{"town":"浅内","koaza":"横道","lat":40.16559,"lng":140.020284,"zip":"0160179"},{"town":"河戸川","koaza":"前山","lat":40.180583,"lng":140.023218,"zip":"0160171"},{"town":"河戸川","koaza":"新屋布","lat":40.179503,"lng":140.024785,"zip":"0160171"},{"town":"落合","koaza":"落合","lat":40.230436,"lng":140.024777,"zip":"0160014"},{"town":"落合","koaza":"上前田","lat":40.226749,"lng":140.026345,"zip":"0160014"},{"town":"須田","koaza":"鷲長根","lat":40.238459,"lng":140.025115,"zip":"0160015"},{"town":"落合","koaza":"下前田","lat":40.22282,"lng":140.026601,"zip":"0160014"},{"town":"河戸川","koaza":"後田","lat":40.177186,"lng":140.02527,"zip":"0160171"},{"town":"落合","koaza":"砂田","lat":40.232322,"lng":140.022981,"zip":"0160014"},{"town":"竹生","koaza":"神田","lat":40.255944,"lng":140.028535,"zip":"0160016"},{"town":"落合","koaza":"下谷地","lat":40.2297,"lng":140.02927,"zip":"0160014"},{"town":"向能代","koaza":"上野","lat":40.219963,"lng":140.032435,"zip":"0160013"},{"town":"落合","koaza":"上大野","lat":40.237415,"lng":140.03423,"zip":"0160014"},{"town":"竹生","koaza":"天神谷地","lat":40.262841,"lng":140.030085,"zip":"0160016"},{"town":"落合","koaza":"上谷地","lat":40.222421,"lng":140.029751,"zip":"0160014"},{"town":"須田","koaza":"街道下","lat":40.240363,"lng":140.030965,"zip":"0160015"},{"town":"落合","koaza":"中大野","lat":40.228148,"lng":140.033609,"zip":"0160014"},{"town":"竹生","koaza":"前田","lat":40.254731,"lng":140.032282,"zip":"0160016"},{"town":"須田","koaza":"屋布添","lat":40.246723,"lng":140.032309,"zip":"0160015"},{"town":"落合","koaza":"下大野","lat":40.224983,"lng":140.03653,"zip":"0160014"},{"town":"竹生","koaza":"竹生","lat":40.255842,"lng":140.035722,"zip":"0160016"},{"town":"河戸川","koaza":"東堂前","lat":40.177375,"lng":140.035573,"zip":"0160171"},{"town":"能代町","koaza":"中川原","lat":40.205223,"lng":140.037858,"zip":"0160813"},{"town":"向能代","koaza":"平影野","lat":40.219885,"lng":140.041539,"zip":"0160013"},{"town":"向能代","koaza":"上野越","lat":40.223519,"lng":140.039486,"zip":"0160013"},{"town":"落合","koaza":"上大野台","lat":40.235025,"lng":140.03984,"zip":"0160014"},{"town":"浅内","koaza":"船沢","lat":40.166325,"lng":140.040308,"zip":"0160179"},{"town":"向能代","koaza":"トトメキ","lat":40.225654,"lng":140.042009,"zip":"0160013"},{"town":"向能代","koaza":"平野館下道越起上","lat":40.217986,"lng":140.041318,"zip":"0160013"},{"town":"落合","koaza":"中大野台","lat":40.228799,"lng":140.042187,"zip":"0160014"},{"town":"向能代","koaza":"平野館下起上","lat":40.218987,"lng":140.04491,"zip":"0160013"},{"town":"能代町","koaza":"赤沼","lat":40.192152,"lng":140.044869,"zip":"0160813"},{"town":"竹生","koaza":"笹ノ台","lat":40.233685,"lng":140.048999,"zip":"0160016"},{"town":"真壁地","koaza":"下悪土","lat":40.214404,"lng":140.049788,"zip":"0160005"},{"town":"吹越","koaza":"谷地","lat":40.206811,"lng":140.054323,"zip":"0160004"},{"town":"真壁地","koaza":"トトメキ沢","lat":40.225153,"lng":140.04828,"zip":"0160005"},{"town":"真壁地","koaza":"上野","lat":40.22433,"lng":140.052965,"zip":"0160005"},{"town":"真壁地","koaza":"道添","lat":40.213453,"lng":140.055947,"zip":"0160005"},{"town":"鰄渕","koaza":"中島","lat":40.192618,"lng":140.058968,"zip":"0160121"},{"town":"荷八田","koaza":"前谷地","lat":40.213012,"lng":140.064,"zip":"0160003"},{"town":"鰄渕","koaza":"下悪戸","lat":40.191701,"lng":140.06733,"zip":"0160121"},{"town":"扇田","koaza":"柑子畑","lat":40.196565,"lng":140.069932,"zip":"0160122"},{"town":"鰄渕","koaza":"古川反","lat":40.192222,"lng":140.072914,"zip":"0160121"},{"town":"鰄渕","koaza":"亥ノ台","lat":40.196562,"lng":140.069711,"zip":"0160121"},{"town":"朴瀬","koaza":"大中島","lat":40.210041,"lng":140.075006,"zip":"0160002"},{"town":"鰄渕","koaza":"鰄渕","lat":40.192484,"lng":140.075189,"zip":"0160121"},{"town":"鰄渕","koaza":"家ノ下","lat":40.191374,"lng":140.078614,"zip":"0160121"},{"town":"鰄渕","koaza":"古屋布","lat":40.189055,"lng":140.078475,"zip":"0160121"},{"town":"朴瀬","koaza":"大川反","lat":40.208268,"lng":140.080044,"zip":"0160002"},{"town":"朴瀬","koaza":"家後","lat":40.210369,"lng":140.079034,"zip":"0160002"},{"town":"扇田","koaza":"四ツ屋","lat":40.176872,"lng":140.088536,"zip":"0160122"},{"town":"扇田","koaza":"扇渕","lat":40.199432,"lng":140.078235,"zip":"0160122"},{"town":"扇田","koaza":"西扇田","lat":40.189666,"lng":140.086223,"zip":"0160122"},{"town":"檜山","koaza":"新田沢","lat":40.177578,"lng":140.072048,"zip":"0160151"},{"town":"朴瀬","koaza":"村下大川反","lat":40.209505,"lng":140.082291,"zip":"0160002"},{"town":"扇田","koaza":"道地","lat":40.194725,"lng":140.087108,"zip":"0160122"},{"town":"扇田","koaza":"樋口","lat":40.186299,"lng":140.09089,"zip":"0160122"},{"town":"扇田","koaza":"道地悪戸","lat":40.198494,"lng":140.08862,"zip":"0160122"},{"town":"扇田","koaza":"東扇田","lat":40.189791,"lng":140.091746,"zip":"0160122"},{"town":"扇田","koaza":"獺野尻","lat":40.185029,"lng":140.09664,"zip":"0160122"},{"town":"扇田","koaza":"獺野","lat":40.184282,"lng":140.102357,"zip":"0160122"},{"town":"田床内","koaza":"田床内","lat":40.18576,"lng":140.106097,"zip":"0160123"},{"town":"檜山","koaza":"越王下","lat":40.171382,"lng":140.10937,"zip":"0160151"},{"town":"檜山","koaza":"川向","lat":40.172794,"lng":140.110176,"zip":"0160151"},{"town":"母体","koaza":"上母体家ノ下","lat":40.171679,"lng":140.134669,"zip":"0160152"},{"town":"二ツ井町種","koaza":"外面","lat":40.213383,"lng":140.211492,"zip":"0183133"},{"town":"二ツ井町種","koaza":"上山崎","lat":40.210235,"lng":140.22693,"zip":"0183133"},{"town":"二ツ井町","koaza":"稗川原","lat":40.198637,"lng":140.225903,"zip":"0183101"},{"town":"二ツ井町仁鮒","koaza":"小掛道","lat":40.18462,"lng":140.228226,"zip":"0183113"},{"town":"二ツ井町仁鮒","koaza":"大川反","lat":40.192411,"lng":140.228321,"zip":"0183113"},{"town":"二ツ井町","koaza":"小槻木","lat":40.203916,"lng":140.226802,"zip":"0183101"},{"town":"二ツ井町仁鮒","koaza":"家後","lat":40.190112,"lng":140.227128,"zip":"0183113"},{"town":"二ツ井町仁鮒","koaza":"後山","lat":40.190272,"lng":140.229583,"zip":"0183113"},{"town":"二ツ井町","koaza":"狐台","lat":40.201193,"lng":140.227076,"zip":"0183101"},{"town":"二ツ井町","koaza":"海道上","lat":40.200456,"lng":140.230768,"zip":"0183101"},{"town":"二ツ井町","koaza":"薄井","lat":40.20106,"lng":140.234011,"zip":"0183101"},{"town":"二ツ井町","koaza":"山根","lat":40.211031,"lng":140.234705,"zip":"0183101"},{"town":"二ツ井町仁鮒","koaza":"中台","lat":40.197644,"lng":140.235648,"zip":"0183113"},{"town":"二ツ井町","koaza":"三千苅","lat":40.209329,"lng":140.238064,"zip":"0183101"},{"town":"二ツ井町","koaza":"下野","lat":40.206814,"lng":140.237186,"zip":"0183101"},{"town":"二ツ井町","koaza":"上山崎","lat":40.217405,"lng":140.242253,"zip":"0183101"},{"town":"二ツ井町","koaza":"太田面","lat":40.212124,"lng":140.237931,"zip":"0183101"},{"town":"二ツ井町","koaza":"比井野","lat":40.206357,"lng":140.240478,"zip":"0183101"},{"town":"二ツ井町","koaza":"沢口","lat":40.216635,"lng":140.237946,"zip":"0183101"},{"town":"二ツ井町","koaza":"五千苅","lat":40.213267,"lng":140.240927,"zip":"0183101"},{"town":"二ツ井町","koaza":"下野家後","lat":40.208904,"lng":140.239377,"zip":"0183101"},{"town":"二ツ井町荷上場","koaza":"鍋良子","lat":40.220319,"lng":140.243128,"zip":"0183103"},{"town":"二ツ井町","koaza":"上野","lat":40.213461,"lng":140.242853,"zip":"0183101"},{"town":"二ツ井町","koaza":"滑良子川端","lat":40.211411,"lng":140.242533,"zip":"0183101"},{"town":"二ツ井町荷上場","koaza":"鍋良子出口","lat":40.217644,"lng":140.244366,"zip":"0183103"},{"town":"二ツ井町荷上場","koaza":"館の下山根","lat":40.225976,"lng":140.245813,"zip":"0183103"},{"town":"二ツ井町荷上場","koaza":"町館","lat":40.223854,"lng":140.243813,"zip":"0183103"},{"town":"二ツ井町荷上場","koaza":"開発川原","lat":40.227667,"lng":140.246175,"zip":"0183103"},{"town":"二ツ井町荷上場","koaza":"沼尻","lat":40.216437,"lng":140.245965,"zip":"0183103"},{"town":"二ツ井町荷上場","koaza":"柳生","lat":40.217058,"lng":140.247598,"zip":"0183103"},{"town":"二ツ井町荷上場","koaza":"中島","lat":40.21918,"lng":140.247409,"zip":"0183103"},{"town":"二ツ井町","koaza":"中坪道下","lat":40.205165,"lng":140.226895,"zip":"0183101"},{"town":"二ツ井町","koaza":"塚台","lat":40.2037,"lng":140.228291,"zip":"0183101"},{"town":"二ツ井町","koaza":"桜台","lat":40.199703,"lng":140.231692,"zip":"0183101"},{"town":"浅内","koaza":"成合下","lat":40.129737,"lng":140.006321,"zip":"0160179"},{"town":"浅内","koaza":"頭無","lat":40.137976,"lng":140.009512,"zip":"0160179"},{"town":"浅内","koaza":"押出","lat":40.170355,"lng":140.021084,"zip":"0160179"},{"town":"河戸川","koaza":"谷地","lat":40.173045,"lng":140.022308,"zip":"0160171"},{"town":"河戸川","koaza":"中野","lat":40.175329,"lng":140.029758,"zip":"0160171"},{"town":"河戸川","koaza":"南後田","lat":40.176476,"lng":140.023034,"zip":"0160171"},{"town":"河戸川","koaza":"中相染下","lat":40.173428,"lng":140.039601,"zip":"0160171"},{"town":"鰄渕","koaza":"一本柳","lat":40.189285,"lng":140.073679,"zip":"0160121"},{"town":"吹越","koaza":"谷地添","lat":40.204942,"lng":140.055294,"zip":"0160004"},{"town":"檜山","koaza":"寺田","lat":40.174016,"lng":140.109983,"zip":"0160151"},{"town":"扇田","koaza":"山下","lat":40.193314,"lng":140.092078,"zip":"0160122"},{"town":"荷八田","koaza":"森下","lat":40.207075,"lng":140.062254,"zip":"0160003"},{"town":"真壁地","koaza":"道下古川布","lat":40.214555,"lng":140.052982,"zip":"0160005"},{"town":"須田","koaza":"藤山谷地添","lat":40.252563,"lng":140.02464,"zip":"0160015"},{"town":"須田","koaza":"前谷地","lat":40.247935,"lng":140.026874,"zip":"0160015"},{"town":"須田","koaza":"立子道","lat":40.248092,"lng":140.025822,"zip":"0160015"},{"town":"須田","koaza":"街道上","lat":40.240376,"lng":140.033944,"zip":"0160015"},{"town":"檜山","koaza":"新蟹","lat":40.174861,"lng":140.123248,"zip":"0160151"},{"town":"檜山","koaza":"霧山下","lat":40.168567,"lng":140.113466,"zip":"0160151"},{"town":"檜山","koaza":"赤館","lat":40.170591,"lng":140.118202,"zip":"0160151"},{"town":"母体","koaza":"水ノ口","lat":40.170378,"lng":140.127393,"zip":"0160152"},{"town":"中沢","koaza":"柏台","lat":40.151685,"lng":140.118636,"zip":"0160156"},{"town":"吹越","koaza":"古川布","lat":40.207752,"lng":140.049515,"zip":"0160004"},{"town":"扇田","koaza":"伊勢堂前","lat":40.197602,"lng":140.091733,"zip":"0160122"},{"town":"田床内","koaza":"二タ又","lat":40.185992,"lng":140.113309,"zip":"0160123"},{"town":"田床内","koaza":"縄手下","lat":40.18823,"lng":140.106875,"zip":"0160123"},{"town":"鰄渕","koaza":"新中島","lat":40.191823,"lng":140.082046,"zip":"0160121"},{"town":"檜山","koaza":"今泉家ノ前","lat":40.162223,"lng":140.088987,"zip":"0160151"},{"town":"浅内","koaza":"下西山","lat":40.171121,"lng":140.004575,"zip":"0160179"},{"town":"二ツ井町荷上場","koaza":"館の下","lat":40.224532,"lng":140.247702,"zip":"0183103"},{"town":"二ツ井町荷上場","koaza":"下中島","lat":40.219092,"lng":140.246969,"zip":"0183103"},{"town":"二ツ井町","koaza":"中坪","lat":40.207355,"lng":140.231264,"zip":"0183101"},{"town":"竹生","koaza":"土手上下","lat":40.256442,"lng":140.030073,"zip":"0160016"},{"town":"竹生","koaza":"天神前","lat":40.257583,"lng":140.029233,"zip":"0160016"},{"town":"竹生","koaza":"相染道南","lat":40.251971,"lng":140.03437,"zip":"0160016"},{"town":"竹生","koaza":"相染道北","lat":40.254894,"lng":140.036039,"zip":"0160016"},{"town":"須田","koaza":"萩ノ台","lat":40.23794,"lng":140.029323,"zip":"0160015"},{"town":"真壁地","koaza":"サト","lat":40.215578,"lng":140.056197,"zip":"0160005"},{"town":"荷八田","koaza":"竹原","lat":40.212887,"lng":140.064889,"zip":"0160003"},{"town":"荷八田","koaza":"李ノ木","lat":40.210694,"lng":140.063048,"zip":"0160003"},{"town":"荷八田","koaza":"合ノ野","lat":40.20754,"lng":140.062688,"zip":"0160003"},{"town":"朴瀬","koaza":"下悪土","lat":40.208443,"lng":140.071978,"zip":"0160002"},{"town":"真壁地","koaza":"上悪土","lat":40.210222,"lng":140.056989,"zip":"0160005"},{"town":"真壁地","koaza":"堤下悪土","lat":40.210913,"lng":140.054324,"zip":"0160005"},{"town":"二ツ井町","koaza":"上台","lat":40.203821,"lng":140.234176,"zip":"0183101"},{"town":"二ツ井町","koaza":"道上中坪","lat":40.206008,"lng":140.228901,"zip":"0183101"},{"town":"吹越","koaza":"上悪土","lat":40.208611,"lng":140.053183,"zip":"0160004"},{"town":"吹越","koaza":"下悪戸","lat":40.208817,"lng":140.049897,"zip":"0160004"},{"town":"二ツ井町","koaza":"下野川端","lat":40.203497,"lng":140.235175,"zip":"0183101"},{"town":"二ツ井町","koaza":"家後","lat":40.201849,"lng":140.232349,"zip":"0183101"},{"town":"二ツ井町","koaza":"槻ノ木","lat":40.20172,"lng":140.225275,"zip":"0183101"},{"town":"二ツ井町","koaza":"茶屋下","lat":40.199977,"lng":140.222713,"zip":"0183101"},{"town":"二ツ井町","koaza":"下稗柄","lat":40.195998,"lng":140.225273,"zip":"0183101"},{"town":"二ツ井町仁鮒","koaza":"相善台","lat":40.193836,"lng":140.23114,"zip":"0183113"},{"town":"二ツ井町仁鮒","koaza":"川原田","lat":40.188789,"lng":140.226146,"zip":"0183113"},{"town":"扇田","koaza":"三丁樋","lat":40.191755,"lng":140.092257,"zip":"0160122"},{"town":"扇田","koaza":"中田表","lat":40.192385,"lng":140.087932,"zip":"0160122"},{"town":"扇田","koaza":"塚下","lat":40.193091,"lng":140.083927,"zip":"0160122"},{"town":"扇田","koaza":"田中","lat":40.192675,"lng":140.086051,"zip":"0160122"},{"town":"鰄渕","koaza":"中嶋古屋布","lat":40.193791,"lng":140.082206,"zip":"0160121"},{"town":"鰄渕","koaza":"四郎兵エ崎","lat":40.193558,"lng":140.072293,"zip":"0160121"},{"town":"扇田","koaza":"岩ノ目","lat":40.179602,"lng":140.091828,"zip":"0160122"},{"town":"河戸川","koaza":"西山","lat":40.184011,"lng":140.01364,"zip":"0160171"},{"town":"河戸川","koaza":"中西山","lat":40.178657,"lng":140.014986,"zip":"0160171"},{"town":"河戸川","koaza":"長沼布","lat":40.176469,"lng":140.019693,"zip":"0160171"},{"town":"檜山","koaza":"高瀬堀","lat":40.170694,"lng":140.126193,"zip":"0160151"},{"town":"檜山","koaza":"中沢道下","lat":40.170848,"lng":140.084754,"zip":"0160151"},{"town":"檜山","koaza":"中瀬戸沢","lat":40.171589,"lng":140.084341,"zip":"0160151"},{"town":"檜山","koaza":"堤下","lat":40.167654,"lng":140.089294,"zip":"0160151"},{"town":"檜山","koaza":"新田家ノ前","lat":40.168935,"lng":140.095023,"zip":"0160151"},{"town":"檜山","koaza":"苗代沢","lat":40.164725,"lng":140.087074,"zip":"0160151"},{"town":"河戸川","koaza":"砂崎","lat":40.174565,"lng":140.016875,"zip":"0160171"},{"town":"河戸川","koaza":"下長沼布","lat":40.175856,"lng":140.019832,"zip":"0160171"},{"town":"河戸川","koaza":"上長沼布","lat":40.176102,"lng":140.019033,"zip":"0160171"},{"town":"浅内","koaza":"大開","lat":40.1696,"lng":140.011429,"zip":"0160179"},{"town":"河戸川","koaza":"相染森台","lat":40.170057,"lng":140.042109,"zip":"0160171"},{"town":"河戸川","koaza":"相染森","lat":40.171303,"lng":140.04048,"zip":"0160171"},{"town":"浅内","koaza":"寒川家下","lat":40.150837,"lng":140.017018,"zip":"0160179"},{"town":"浅内","koaza":"中屋布下","lat":40.140711,"lng":140.010752,"zip":"0160179"},{"town":"浅内","koaza":"福田下","lat":40.137984,"lng":140.011362,"zip":"0160179"},{"town":"浅内","koaza":"上山崎下","lat":40.126375,"lng":140.007916,"zip":"0160179"},{"town":"浅内","koaza":"留山","lat":40.137983,"lng":139.996042,"zip":"0160179"},{"town":"浅内","koaza":"堂社","lat":40.14089,"lng":139.999051,"zip":"0160179"},{"town":"浅内","koaza":"此掛沢","lat":40.162732,"lng":140.022038,"zip":"0160179"},{"town":"浅内","koaza":"上ノ山","lat":40.161846,"lng":140.02133,"zip":"0160179"},{"town":"檜山","koaza":"千苅","lat":40.172243,"lng":140.126089,"zip":"0160151"}]