[{"town":"尾去沢","koaza":"","lat":40.179767,"lng":140.741629,"zip":"0185202"},{"town":"十和田上向","koaza":"","lat":40.301188,"lng":140.773355,"zip":"0185332"},{"town":"十和田大湯","koaza":"","lat":40.344895,"lng":140.889827,"zip":"0185421"},{"town":"十和田岡田","koaza":"","lat":40.27551,"lng":140.781009,"zip":"0185333"},{"town":"十和田草木","koaza":"","lat":40.267489,"lng":140.857292,"zip":"0185422"},{"town":"十和田毛馬内","koaza":"","lat":40.278049,"lng":140.751492,"zip":"0185334"},{"town":"十和田末広","koaza":"","lat":40.224313,"lng":140.727627,"zip":"0185337"},{"town":"十和田瀬田石","koaza":"","lat":40.260526,"lng":140.742062,"zip":"0185335"},{"town":"十和田錦木","koaza":"","lat":40.255922,"lng":140.77457,"zip":"0185336"},{"town":"十和田山根","koaza":"","lat":40.324304,"lng":140.804874,"zip":"0185331"},{"town":"八幡平","koaza":"","lat":40.068493,"lng":140.778685,"zip":"0185141"},{"town":"花輪","koaza":"","lat":40.215922,"lng":140.81975,"zip":"0185201"},{"town":"十和田末広","koaza":"下モ平","lat":40.221425,"lng":140.712565,"zip":"0185337"},{"town":"十和田末広","koaza":"中平","lat":40.220966,"lng":140.714811,"zip":"0185337"},{"town":"十和田末広","koaza":"上ミ谷地","lat":40.220634,"lng":140.716709,"zip":"0185337"},{"town":"十和田瀬田石","koaza":"茂谷前","lat":40.273497,"lng":140.732819,"zip":"0185335"},{"town":"十和田末広","koaza":"沖ノ平","lat":40.23692,"lng":140.732425,"zip":"0185337"},{"town":"十和田末広","koaza":"中野平","lat":40.228054,"lng":140.73357,"zip":"0185337"},{"town":"十和田瀬田石","koaza":"下石野","lat":40.247766,"lng":140.737097,"zip":"0185335"},{"town":"十和田末広","koaza":"苧坪田","lat":40.230814,"lng":140.735276,"zip":"0185337"},{"town":"十和田末広","koaza":"清水沼","lat":40.235376,"lng":140.734117,"zip":"0185337"},{"town":"十和田末広","koaza":"向イ平","lat":40.230904,"lng":140.737298,"zip":"0185337"},{"town":"十和田末広","koaza":"家ノ下","lat":40.235097,"lng":140.73635,"zip":"0185337"},{"town":"十和田末広","koaza":"八幡平","lat":40.235524,"lng":140.740043,"zip":"0185337"},{"town":"十和田末広","koaza":"不動平","lat":40.235603,"lng":140.737616,"zip":"0185337"},{"town":"十和田末広","koaza":"紀ノ元","lat":40.239879,"lng":140.741504,"zip":"0185337"},{"town":"十和田末広","koaza":"向川原","lat":40.242988,"lng":140.741343,"zip":"0185337"},{"town":"花輪","koaza":"曲沢","lat":40.215426,"lng":140.747936,"zip":"0185201"},{"town":"尾去沢","koaza":"獅子沢","lat":40.183497,"lng":140.753299,"zip":"0185202"},{"town":"花輪","koaza":"水越","lat":40.205159,"lng":140.750638,"zip":"0185201"},{"town":"十和田毛馬内","koaza":"鹿倉崎","lat":40.290944,"lng":140.750325,"zip":"0185334"},{"town":"十和田毛馬内","koaza":"甚兵エ川原","lat":40.290615,"lng":140.752391,"zip":"0185334"},{"town":"十和田瀬田石","koaza":"瀬田石","lat":40.262119,"lng":140.755927,"zip":"0185335"},{"town":"十和田瀬田石","koaza":"八幡平","lat":40.266964,"lng":140.758334,"zip":"0185335"},{"town":"十和田毛馬内","koaza":"又四郎川原","lat":40.286323,"lng":140.753794,"zip":"0185334"},{"town":"十和田毛馬内","koaza":"差島","lat":40.291115,"lng":140.75295,"zip":"0185334"},{"town":"十和田毛馬内","koaza":"山田","lat":40.280598,"lng":140.753997,"zip":"0185334"},{"town":"十和田毛馬内","koaza":"中台地","lat":40.288129,"lng":140.754965,"zip":"0185334"},{"town":"十和田瀬田石","koaza":"上野平","lat":40.264733,"lng":140.754826,"zip":"0185335"},{"town":"十和田毛馬内","koaza":"日影","lat":40.286413,"lng":140.754825,"zip":"0185334"},{"town":"尾去沢","koaza":"笹小屋","lat":40.186501,"lng":140.757327,"zip":"0185202"},{"town":"十和田毛馬内","koaza":"刈昼前","lat":40.284523,"lng":140.755554,"zip":"0185334"},{"town":"尾去沢","koaza":"中沢","lat":40.18842,"lng":140.756975,"zip":"0185202"},{"town":"十和田末広","koaza":"和田","lat":40.245461,"lng":140.757537,"zip":"0185337"},{"town":"十和田瀬田石","koaza":"赤冗","lat":40.271799,"lng":140.754752,"zip":"0185335"},{"town":"八幡平","koaza":"一本漆","lat":40.116119,"lng":140.760944,"zip":"0185141"},{"town":"尾去沢","koaza":"鉱山中沢","lat":40.189596,"lng":140.758368,"zip":"0185202"},{"town":"十和田毛馬内","koaza":"屏風田","lat":40.283383,"lng":140.757843,"zip":"0185334"},{"town":"十和田瀬田石","koaza":"辰ノ口","lat":40.270355,"lng":140.7593,"zip":"0185335"},{"town":"十和田末広","koaza":"上屋布","lat":40.246588,"lng":140.763851,"zip":"0185337"},{"town":"十和田末広","koaza":"下屋布","lat":40.248142,"lng":140.761823,"zip":"0185337"},{"town":"尾去沢","koaza":"春木沢","lat":40.186786,"lng":140.763775,"zip":"0185202"},{"town":"尾去沢","koaza":"軽井沢","lat":40.189326,"lng":140.764434,"zip":"0185202"},{"town":"尾去沢","koaza":"松子沢","lat":40.19241,"lng":140.759422,"zip":"0185202"},{"town":"花輪","koaza":"惣右エ門","lat":40.217914,"lng":140.762825,"zip":"0185201"},{"town":"八幡平","koaza":"平尻","lat":40.130673,"lng":140.76115,"zip":"0185141"},{"town":"花輪","koaza":"下長根","lat":40.208254,"lng":140.76305,"zip":"0185201"},{"town":"八幡平","koaza":"白砂館","lat":40.125358,"lng":140.762992,"zip":"0185141"},{"town":"八幡平","koaza":"黒沢","lat":40.14024,"lng":140.76523,"zip":"0185141"},{"town":"十和田毛馬内","koaza":"野田","lat":40.277119,"lng":140.761874,"zip":"0185334"},{"town":"十和田毛馬内","koaza":"中田","lat":40.273324,"lng":140.761743,"zip":"0185334"},{"town":"十和田毛馬内","koaza":"休堂","lat":40.270406,"lng":140.763634,"zip":"0185334"},{"town":"十和田毛馬内","koaza":"石ノ堂","lat":40.277463,"lng":140.763542,"zip":"0185334"},{"town":"尾去沢","koaza":"瓜畑","lat":40.187719,"lng":140.765167,"zip":"0185202"},{"town":"八幡平","koaza":"前谷地","lat":40.135746,"lng":140.76614,"zip":"0185141"},{"town":"八幡平","koaza":"白欠","lat":40.125552,"lng":140.766734,"zip":"0185141"},{"town":"十和田毛馬内","koaza":"小比泥","lat":40.2799,"lng":140.763445,"zip":"0185334"},{"town":"八幡平","koaza":"長牛","lat":40.116376,"lng":140.767418,"zip":"0185141"},{"town":"十和田錦木","koaza":"古田面","lat":40.259278,"lng":140.765598,"zip":"0185336"},{"town":"十和田毛馬内","koaza":"高田","lat":40.273689,"lng":140.76384,"zip":"0185334"},{"town":"十和田毛馬内","koaza":"毛馬内","lat":40.271555,"lng":140.765732,"zip":"0185334"},{"town":"八幡平","koaza":"稗田","lat":40.124689,"lng":140.764391,"zip":"0185141"},{"town":"十和田錦木","koaza":"古川","lat":40.257915,"lng":140.76633,"zip":"0185336"},{"town":"十和田毛馬内","koaza":"弁天崎","lat":40.273965,"lng":140.765321,"zip":"0185334"},{"town":"八幡平","koaza":"中谷地","lat":40.139375,"lng":140.765748,"zip":"0185141"},{"town":"八幡平","koaza":"新山","lat":40.129304,"lng":140.766425,"zip":"0185141"},{"town":"十和田毛馬内","koaza":"下陣場","lat":40.264217,"lng":140.767433,"zip":"0185334"},{"town":"十和田毛馬内","koaza":"森崎","lat":40.276133,"lng":140.766723,"zip":"0185334"},{"town":"十和田毛馬内","koaza":"城ノ下","lat":40.269493,"lng":140.767024,"zip":"0185334"},{"town":"尾去沢","koaza":"新山","lat":40.18784,"lng":140.771153,"zip":"0185202"},{"town":"八幡平","koaza":"長内","lat":40.133445,"lng":140.773047,"zip":"0185141"},{"town":"十和田毛馬内","koaza":"横道","lat":40.277647,"lng":140.767891,"zip":"0185334"},{"town":"花輪","koaza":"女平","lat":40.226148,"lng":140.76905,"zip":"0185201"},{"town":"十和田錦木","koaza":"向谷地","lat":40.252183,"lng":140.770217,"zip":"0185336"},{"town":"十和田錦木","koaza":"沢尻","lat":40.250433,"lng":140.769779,"zip":"0185336"},{"town":"十和田毛馬内","koaza":"下小路","lat":40.27355,"lng":140.766713,"zip":"0185334"},{"town":"十和田錦木","koaza":"上川原","lat":40.258441,"lng":140.769539,"zip":"0185336"},{"town":"十和田毛馬内","koaza":"南陣場","lat":40.262526,"lng":140.767779,"zip":"0185334"},{"town":"十和田毛馬内","koaza":"前舘","lat":40.281904,"lng":140.767755,"zip":"0185334"},{"town":"尾去沢","koaza":"新堀","lat":40.183484,"lng":140.769023,"zip":"0185202"},{"town":"尾去沢","koaza":"上山","lat":40.181065,"lng":140.771371,"zip":"0185202"},{"town":"十和田毛馬内","koaza":"上陣場","lat":40.265178,"lng":140.771158,"zip":"0185334"},{"town":"八幡平","koaza":"雪田","lat":40.119531,"lng":140.76918,"zip":"0185141"},{"town":"十和田毛馬内","koaza":"上道","lat":40.279463,"lng":140.769173,"zip":"0185334"},{"town":"十和田錦木","koaza":"室田","lat":40.247989,"lng":140.770379,"zip":"0185336"},{"town":"十和田錦木","koaza":"浜田","lat":40.255804,"lng":140.772491,"zip":"0185336"},{"town":"花輪","koaza":"用野目川向","lat":40.217829,"lng":140.775855,"zip":"0185201"},{"town":"八幡平","koaza":"高田","lat":40.130325,"lng":140.77108,"zip":"0185141"},{"town":"十和田毛馬内","koaza":"中陣場","lat":40.262562,"lng":140.771757,"zip":"0185334"},{"town":"十和田毛馬内","koaza":"押出","lat":40.269555,"lng":140.771893,"zip":"0185334"},{"town":"十和田上向","koaza":"四ツ谷","lat":40.2987,"lng":140.776603,"zip":"0185332"},{"town":"十和田毛馬内","koaza":"寺ノ上","lat":40.277904,"lng":140.771474,"zip":"0185334"},{"town":"八幡平","koaza":"タゝラ","lat":40.116186,"lng":140.770138,"zip":"0185141"},{"town":"花輪","koaza":"館ノ沢","lat":40.230782,"lng":140.772157,"zip":"0185201"},{"town":"十和田毛馬内","koaza":"柏崎","lat":40.271555,"lng":140.771401,"zip":"0185334"},{"town":"十和田錦木","koaza":"下野田","lat":40.253945,"lng":140.772468,"zip":"0185336"},{"town":"八幡平","koaza":"糸坪平","lat":40.134532,"lng":140.771797,"zip":"0185141"},{"town":"十和田山根","koaza":"長土路","lat":40.288284,"lng":140.780445,"zip":"0185331"},{"town":"十和田毛馬内","koaza":"上土ケ久保","lat":40.26482,"lng":140.779001,"zip":"0185334"},{"town":"花輪","koaza":"高屋","lat":40.236954,"lng":140.771846,"zip":"0185201"},{"town":"十和田錦木","koaza":"冠田","lat":40.245169,"lng":140.775698,"zip":"0185336"},{"town":"十和田毛馬内","koaza":"上寄熊","lat":40.267543,"lng":140.775168,"zip":"0185334"},{"town":"花輪","koaza":"後谷地","lat":40.236081,"lng":140.773921,"zip":"0185201"},{"town":"八幡平","koaza":"夏井","lat":40.104977,"lng":140.775279,"zip":"0185141"},{"town":"十和田毛馬内","koaza":"柏野","lat":40.27593,"lng":140.775332,"zip":"0185334"},{"town":"花輪","koaza":"上ミ田表","lat":40.233247,"lng":140.774248,"zip":"0185201"},{"town":"八幡平","koaza":"浦田","lat":40.131579,"lng":140.774916,"zip":"0185141"},{"town":"十和田毛馬内","koaza":"三ノ丸","lat":40.274584,"lng":140.774886,"zip":"0185334"},{"town":"十和田毛馬内","koaza":"下土ケ久保","lat":40.263499,"lng":140.776159,"zip":"0185334"},{"town":"十和田毛馬内","koaza":"湯坂","lat":40.278873,"lng":140.774425,"zip":"0185334"},{"town":"八幡平","koaza":"三ケ田","lat":40.13209,"lng":140.776763,"zip":"0185141"},{"town":"十和田岡田","koaza":"焼山下タ","lat":40.272676,"lng":140.776053,"zip":"0185333"},{"town":"十和田錦木","koaza":"下野添","lat":40.255887,"lng":140.778311,"zip":"0185336"},{"town":"十和田毛馬内","koaza":"嶋ノ越","lat":40.266662,"lng":140.777806,"zip":"0185334"},{"town":"十和田錦木","koaza":"下野","lat":40.251949,"lng":140.776369,"zip":"0185336"},{"town":"花輪","koaza":"志和野","lat":40.240832,"lng":140.776963,"zip":"0185201"},{"town":"十和田山根","koaza":"高清水","lat":40.30788,"lng":140.778071,"zip":"0185331"},{"town":"尾去沢","koaza":"田沢口","lat":40.171307,"lng":140.778958,"zip":"0185202"},{"town":"花輪","koaza":"新川原","lat":40.23368,"lng":140.777406,"zip":"0185201"},{"town":"花輪","koaza":"用野目","lat":40.216535,"lng":140.779136,"zip":"0185201"},{"town":"八幡平","koaza":"下田表","lat":40.106522,"lng":140.777281,"zip":"0185141"},{"town":"尾去沢","koaza":"土沢","lat":40.192739,"lng":140.777472,"zip":"0185202"},{"town":"十和田錦木","koaza":"細谷地","lat":40.260166,"lng":140.778749,"zip":"0185336"},{"town":"花輪","koaza":"狐平","lat":40.222693,"lng":140.779207,"zip":"0185201"},{"town":"十和田山根","koaza":"向崎","lat":40.304553,"lng":140.777927,"zip":"0185331"},{"town":"十和田錦木","koaza":"曲谷地","lat":40.248707,"lng":140.780479,"zip":"0185336"},{"town":"八幡平","koaza":"ドウメキ","lat":40.12967,"lng":140.778657,"zip":"0185141"},{"town":"八幡平","koaza":"石鳥谷","lat":40.151179,"lng":140.779365,"zip":"0185141"},{"town":"花輪","koaza":"家ノ下","lat":40.231699,"lng":140.78011,"zip":"0185201"},{"town":"尾去沢","koaza":"中田","lat":40.176342,"lng":140.778697,"zip":"0185202"},{"town":"八幡平","koaza":"田中","lat":40.148304,"lng":140.779021,"zip":"0185141"},{"town":"花輪","koaza":"諏訪野","lat":40.237889,"lng":140.781735,"zip":"0185201"},{"town":"尾去沢","koaza":"蟹沢","lat":40.186257,"lng":140.779199,"zip":"0185202"},{"town":"八幡平","koaza":"番匠田","lat":40.121275,"lng":140.778884,"zip":"0185141"},{"town":"十和田錦木","koaza":"中野添","lat":40.260303,"lng":140.783522,"zip":"0185336"},{"town":"十和田毛馬内","koaza":"土手","lat":40.280735,"lng":140.780023,"zip":"0185334"},{"town":"十和田岡田","koaza":"前田","lat":40.269137,"lng":140.782015,"zip":"0185333"},{"town":"八幡平","koaza":"上堰","lat":40.117538,"lng":140.776605,"zip":"0185141"},{"town":"尾去沢","koaza":"山根","lat":40.183088,"lng":140.778137,"zip":"0185202"},{"town":"八幡平","koaza":"大久保家の前","lat":40.120484,"lng":140.780147,"zip":"0185141"},{"town":"十和田錦木","koaza":"物見坂","lat":40.252164,"lng":140.780262,"zip":"0185336"},{"town":"八幡平","koaza":"上谷地","lat":40.127853,"lng":140.780142,"zip":"0185141"},{"town":"十和田岡田","koaza":"蟹沢","lat":40.276336,"lng":140.780085,"zip":"0185333"},{"town":"八幡平","koaza":"杉山家の前","lat":40.129133,"lng":140.781134,"zip":"0185141"},{"town":"八幡平","koaza":"伊勢堂","lat":40.139957,"lng":140.777883,"zip":"0185141"},{"town":"十和田毛馬内","koaza":"沖ノ畑","lat":40.281464,"lng":140.77706,"zip":"0185334"},{"town":"花輪","koaza":"用野目小沼","lat":40.214528,"lng":140.780334,"zip":"0185201"},{"town":"尾去沢","koaza":"上大屋布","lat":40.176473,"lng":140.777155,"zip":"0185202"},{"town":"尾去沢","koaza":"下モ平","lat":40.183174,"lng":140.780516,"zip":"0185202"},{"town":"尾去沢","koaza":"西道口","lat":40.178154,"lng":140.78102,"zip":"0185202"},{"town":"花輪","koaza":"下川原","lat":40.229183,"lng":140.782329,"zip":"0185201"},{"town":"八幡平","koaza":"後ロ田","lat":40.154255,"lng":140.783785,"zip":"0185141"},{"town":"尾去沢","koaza":"西在家","lat":40.171892,"lng":140.781047,"zip":"0185202"},{"town":"八幡平","koaza":"横手","lat":40.121021,"lng":140.78052,"zip":"0185141"},{"town":"花輪","koaza":"用野目太田","lat":40.212543,"lng":140.782273,"zip":"0185201"},{"town":"十和田錦木","koaza":"根市戸","lat":40.256392,"lng":140.783601,"zip":"0185336"},{"town":"花輪","koaza":"大川添","lat":40.194002,"lng":140.781704,"zip":"0185201"},{"town":"尾去沢","koaza":"尾去","lat":40.166383,"lng":140.782235,"zip":"0185202"},{"town":"八幡平","koaza":"上ミ沢","lat":40.096739,"lng":140.779626,"zip":"0185141"},{"town":"八幡平","koaza":"上前田","lat":40.134143,"lng":140.782812,"zip":"0185141"},{"town":"八幡平","koaza":"西の又","lat":40.108253,"lng":140.783689,"zip":"0185141"},{"town":"花輪","koaza":"流田","lat":40.226775,"lng":140.782358,"zip":"0185201"},{"town":"十和田山根","koaza":"田中","lat":40.297484,"lng":140.78241,"zip":"0185331"},{"town":"尾去沢","koaza":"六角平","lat":40.17262,"lng":140.782253,"zip":"0185202"},{"town":"花輪","koaza":"久保田","lat":40.194392,"lng":140.782962,"zip":"0185201"},{"town":"花輪","koaza":"太田","lat":40.198343,"lng":140.78289,"zip":"0185201"},{"town":"八幡平","koaza":"長坪","lat":40.1322,"lng":140.783274,"zip":"0185141"},{"town":"花輪","koaza":"鎌倉平","lat":40.222778,"lng":140.78446,"zip":"0185201"},{"town":"花輪","koaza":"大苗代","lat":40.231731,"lng":140.782728,"zip":"0185201"},{"town":"八幡平","koaza":"横手前田","lat":40.126111,"lng":140.783878,"zip":"0185141"},{"town":"尾去沢","koaza":"沼田","lat":40.175241,"lng":140.783392,"zip":"0185202"},{"town":"十和田錦木","koaza":"上ノ平","lat":40.252302,"lng":140.784294,"zip":"0185336"},{"town":"花輪","koaza":"下中島","lat":40.18912,"lng":140.785575,"zip":"0185201"},{"town":"十和田岡田","koaza":"中野","lat":40.270312,"lng":140.782232,"zip":"0185333"},{"town":"花輪","koaza":"牛川原","lat":40.187844,"lng":140.782801,"zip":"0185201"},{"town":"花輪","koaza":"上中島","lat":40.18572,"lng":140.785067,"zip":"0185201"},{"town":"八幡平","koaza":"松館","lat":40.154772,"lng":140.785308,"zip":"0185141"},{"town":"八幡平","koaza":"樫内","lat":40.085152,"lng":140.784281,"zip":"0185141"},{"town":"花輪","koaza":"向畑","lat":40.218895,"lng":140.78497,"zip":"0185201"},{"town":"八幡平","koaza":"永代地","lat":40.147207,"lng":140.784703,"zip":"0185141"},{"town":"花輪","koaza":"赤川","lat":40.228884,"lng":140.784649,"zip":"0185201"},{"town":"花輪","koaza":"寺ノ後","lat":40.19513,"lng":140.786786,"zip":"0185201"},{"town":"十和田錦木","koaza":"大畑","lat":40.255127,"lng":140.785444,"zip":"0185336"},{"town":"八幡平","koaza":"荒町前田","lat":40.13168,"lng":140.785831,"zip":"0185141"},{"town":"八幡平","koaza":"林崎根瀬","lat":40.093318,"lng":140.784741,"zip":"0185141"},{"town":"十和田岡田","koaza":"村添","lat":40.270239,"lng":140.784597,"zip":"0185333"},{"town":"八幡平","koaza":"谷内谷地","lat":40.116379,"lng":140.785993,"zip":"0185141"},{"town":"花輪","koaza":"鏡田","lat":40.210385,"lng":140.786326,"zip":"0185201"},{"town":"尾去沢","koaza":"東在家","lat":40.169668,"lng":140.785433,"zip":"0185202"},{"town":"尾去沢","koaza":"森ケ崎","lat":40.166027,"lng":140.785945,"zip":"0185202"},{"town":"十和田大湯","koaza":"村下モ","lat":40.276583,"lng":140.787712,"zip":"0185421"},{"town":"花輪","koaza":"六月田","lat":40.19791,"lng":140.789089,"zip":"0185201"},{"town":"花輪","koaza":"鶴田","lat":40.233994,"lng":140.787998,"zip":"0185201"},{"town":"八幡平","koaza":"荒町家の前","lat":40.135906,"lng":140.787405,"zip":"0185141"},{"town":"花輪","koaza":"家妻","lat":40.212241,"lng":140.786759,"zip":"0185201"},{"town":"花輪","koaza":"上花輪","lat":40.185631,"lng":140.789437,"zip":"0185201"},{"town":"花輪","koaza":"八正寺","lat":40.193119,"lng":140.786824,"zip":"0185201"},{"town":"十和田大湯","koaza":"前川原","lat":40.26989,"lng":140.793807,"zip":"0185421"},{"town":"八幡平","koaza":"松館下モ平","lat":40.160524,"lng":140.786131,"zip":"0185141"},{"town":"八幡平","koaza":"永田下田表","lat":40.09987,"lng":140.787459,"zip":"0185141"},{"town":"花輪","koaza":"新田町","lat":40.182249,"lng":140.787218,"zip":"0185201"},{"town":"花輪","koaza":"高井田","lat":40.17938,"lng":140.78649,"zip":"0185201"},{"town":"花輪","koaza":"荒田","lat":40.215699,"lng":140.788538,"zip":"0185201"},{"town":"八幡平","koaza":"野尻下モ平","lat":40.141611,"lng":140.787304,"zip":"0185141"},{"town":"八幡平","koaza":"小前田","lat":40.105434,"lng":140.786591,"zip":"0185141"},{"town":"八幡平","koaza":"野尻","lat":40.143832,"lng":140.787625,"zip":"0185141"},{"town":"八幡平","koaza":"松館前田","lat":40.153261,"lng":140.788262,"zip":"0185141"},{"town":"八幡平","koaza":"上平","lat":40.085258,"lng":140.788333,"zip":"0185141"},{"town":"十和田山根","koaza":"前田","lat":40.29281,"lng":140.788476,"zip":"0185331"},{"town":"花輪","koaza":"鉄砲","lat":40.224074,"lng":140.787021,"zip":"0185201"},{"town":"八幡平","koaza":"太田","lat":40.150901,"lng":140.78789,"zip":"0185141"},{"town":"花輪","koaza":"赤川端","lat":40.233699,"lng":140.783761,"zip":"0185201"},{"town":"八幡平","koaza":"大川原","lat":40.155137,"lng":140.789193,"zip":"0185141"},{"town":"八幡平","koaza":"和田","lat":40.137197,"lng":140.788789,"zip":"0185141"},{"town":"八幡平","koaza":"中川","lat":40.113417,"lng":140.787439,"zip":"0185141"},{"town":"八幡平","koaza":"堰の下","lat":40.11046,"lng":140.787269,"zip":"0185141"},{"town":"十和田錦木","koaza":"稲荷平","lat":40.256408,"lng":140.789181,"zip":"0185336"},{"town":"八幡平","koaza":"岩渕","lat":40.161151,"lng":140.787419,"zip":"0185141"},{"town":"十和田山根","koaza":"中ノ平","lat":40.288563,"lng":140.788291,"zip":"0185331"},{"town":"八幡平","koaza":"仲の沖","lat":40.111735,"lng":140.786679,"zip":"0185141"},{"town":"十和田山根","koaza":"柳平","lat":40.295101,"lng":140.788917,"zip":"0185331"},{"town":"八幡平","koaza":"沼田","lat":40.109804,"lng":140.788623,"zip":"0185141"},{"town":"八幡平","koaza":"永田上田表","lat":40.090264,"lng":140.788974,"zip":"0185141"},{"town":"花輪","koaza":"堰向","lat":40.189387,"lng":140.788917,"zip":"0185201"},{"town":"八幡平","koaza":"上の野","lat":40.140814,"lng":140.789714,"zip":"0185141"},{"town":"八幡平","koaza":"谷内上田表","lat":40.10306,"lng":140.786902,"zip":"0185141"},{"town":"八幡平","koaza":"谷内","lat":40.113348,"lng":140.788658,"zip":"0185141"},{"town":"花輪","koaza":"三日市","lat":40.179531,"lng":140.790169,"zip":"0185201"},{"town":"花輪","koaza":"前田","lat":40.208966,"lng":140.789356,"zip":"0185201"},{"town":"十和田大湯","koaza":"松ノ木","lat":40.280138,"lng":140.790268,"zip":"0185421"},{"town":"花輪","koaza":"囲田","lat":40.211698,"lng":140.788976,"zip":"0185201"},{"town":"八幡平","koaza":"八幡田","lat":40.122563,"lng":140.790016,"zip":"0185141"},{"town":"八幡平","koaza":"上苗代","lat":40.115919,"lng":140.789438,"zip":"0185141"},{"town":"花輪","koaza":"小深田","lat":40.215299,"lng":140.792593,"zip":"0185201"},{"town":"花輪","koaza":"中花輪","lat":40.189925,"lng":140.792351,"zip":"0185201"},{"town":"花輪","koaza":"下花輪","lat":40.192325,"lng":140.791588,"zip":"0185201"},{"town":"八幡平","koaza":"川部","lat":40.143469,"lng":140.791073,"zip":"0185141"},{"town":"十和田大湯","koaza":"下タノ平","lat":40.273557,"lng":140.790609,"zip":"0185421"},{"town":"八幡平","koaza":"五十刈","lat":40.136484,"lng":140.79116,"zip":"0185141"},{"town":"花輪","koaza":"新川端","lat":40.222723,"lng":140.792743,"zip":"0185201"},{"town":"八幡平","koaza":"玉内","lat":40.172284,"lng":140.790415,"zip":"0185141"},{"town":"花輪","koaza":"村後","lat":40.256993,"lng":140.794705,"zip":"0185201"},{"town":"花輪","koaza":"蒼前平","lat":40.210606,"lng":140.791272,"zip":"0185201"},{"town":"花輪","koaza":"上野馬場","lat":40.184707,"lng":140.791268,"zip":"0185201"},{"town":"花輪","koaza":"外扇ノ間","lat":40.204465,"lng":140.79165,"zip":"0185201"},{"town":"花輪","koaza":"小枝指","lat":40.244515,"lng":140.794516,"zip":"0185201"},{"town":"十和田山根","koaza":"上ノ平","lat":40.288727,"lng":140.792205,"zip":"0185331"},{"town":"十和田大湯","koaza":"森鉢","lat":40.28684,"lng":140.796903,"zip":"0185421"},{"town":"花輪","koaza":"扇ノ間","lat":40.202648,"lng":140.791319,"zip":"0185201"},{"town":"八幡平","koaza":"二ツ屋","lat":40.139598,"lng":140.791384,"zip":"0185141"},{"town":"十和田錦木","koaza":"下屋布","lat":40.25889,"lng":140.794928,"zip":"0185336"},{"town":"八幡平","koaza":"大里下モ川原","lat":40.16466,"lng":140.792263,"zip":"0185141"},{"town":"花輪","koaza":"下モ屋敷","lat":40.250732,"lng":140.790983,"zip":"0185201"},{"town":"十和田大湯","koaza":"関上","lat":40.277203,"lng":140.79253,"zip":"0185421"},{"town":"八幡平","koaza":"川部内川原","lat":40.148023,"lng":140.791509,"zip":"0185141"},{"town":"花輪","koaza":"下タ町","lat":40.198322,"lng":140.794119,"zip":"0185201"},{"town":"花輪","koaza":"明堂長根","lat":40.177623,"lng":140.798164,"zip":"0185201"},{"town":"花輪","koaza":"上頭無","lat":40.179339,"lng":140.795302,"zip":"0185201"},{"town":"八幡平","koaza":"久保","lat":40.140215,"lng":140.79281,"zip":"0185141"},{"town":"花輪","koaza":"平元古館","lat":40.242826,"lng":140.794312,"zip":"0185201"},{"town":"花輪","koaza":"中柴内","lat":40.220475,"lng":140.794432,"zip":"0185201"},{"town":"八幡平","koaza":"駒林","lat":40.165557,"lng":140.794409,"zip":"0185141"},{"town":"十和田錦木","koaza":"五軒屋","lat":40.263,"lng":140.794098,"zip":"0185336"},{"town":"八幡平","koaza":"諸田","lat":40.136267,"lng":140.793843,"zip":"0185141"},{"town":"十和田山根","koaza":"長畑","lat":40.299699,"lng":140.793855,"zip":"0185331"},{"town":"十和田山根","koaza":"大清水","lat":40.303383,"lng":140.793556,"zip":"0185331"},{"town":"花輪","koaza":"小坂","lat":40.204032,"lng":140.793745,"zip":"0185201"},{"town":"花輪","koaza":"馬場","lat":40.184413,"lng":140.793193,"zip":"0185201"},{"town":"花輪","koaza":"荒屋敷","lat":40.190208,"lng":140.794626,"zip":"0185201"},{"town":"十和田山根","koaza":"熊坂","lat":40.296243,"lng":140.794639,"zip":"0185331"},{"town":"十和田大湯","koaza":"内前田","lat":40.273541,"lng":140.794754,"zip":"0185421"},{"town":"花輪","koaza":"葉ノ木谷地","lat":40.206794,"lng":140.794125,"zip":"0185201"},{"town":"花輪","koaza":"合ノ野","lat":40.204092,"lng":140.7977,"zip":"0185201"},{"town":"八幡平","koaza":"大里家の下","lat":40.15817,"lng":140.795704,"zip":"0185141"},{"town":"花輪","koaza":"寺坂","lat":40.253288,"lng":140.79567,"zip":"0185201"},{"town":"花輪","koaza":"下田表","lat":40.214699,"lng":140.796396,"zip":"0185201"},{"town":"十和田大湯","koaza":"大川原","lat":40.271097,"lng":140.796875,"zip":"0185421"},{"town":"花輪","koaza":"下タ乳牛","lat":40.21097,"lng":140.798734,"zip":"0185201"},{"town":"花輪","koaza":"一本杉","lat":40.176321,"lng":140.795897,"zip":"0185201"},{"town":"花輪","koaza":"陳場","lat":40.193828,"lng":140.797701,"zip":"0185201"},{"town":"花輪","koaza":"沢小路","lat":40.193343,"lng":140.794217,"zip":"0185201"},{"town":"八幡平","koaza":"大里川原","lat":40.155266,"lng":140.796851,"zip":"0185141"},{"town":"花輪","koaza":"赤面","lat":40.210422,"lng":140.795718,"zip":"0185201"},{"town":"花輪","koaza":"下頭無","lat":40.182195,"lng":140.797054,"zip":"0185201"},{"town":"八幡平","koaza":"長嶺","lat":40.13424,"lng":140.797203,"zip":"0185141"},{"town":"十和田大湯","koaza":"箕ノ輪","lat":40.285702,"lng":140.798908,"zip":"0185421"},{"town":"十和田錦木","koaza":"申ケ野","lat":40.262103,"lng":140.79621,"zip":"0185336"},{"town":"八幡平","koaza":"栃木川原","lat":40.151749,"lng":140.793063,"zip":"0185141"},{"town":"十和田大湯","koaza":"吹越","lat":40.288527,"lng":140.798066,"zip":"0185421"},{"town":"花輪","koaza":"福士","lat":40.19855,"lng":140.799916,"zip":"0185201"},{"town":"花輪","koaza":"町端","lat":40.250449,"lng":140.800388,"zip":"0185201"},{"town":"花輪","koaza":"合野","lat":40.205663,"lng":140.800607,"zip":"0185201"},{"town":"花輪","koaza":"小又","lat":40.24763,"lng":140.798639,"zip":"0185201"},{"town":"八幡平","koaza":"長嶺前田","lat":40.135976,"lng":140.79793,"zip":"0185141"},{"town":"八幡平","koaza":"下葛岡","lat":40.169593,"lng":140.800986,"zip":"0185141"},{"town":"十和田大湯","koaza":"炭焼川原","lat":40.277943,"lng":140.798715,"zip":"0185421"},{"town":"十和田大湯","koaza":"腰廻","lat":40.286352,"lng":140.800138,"zip":"0185421"},{"town":"花輪","koaza":"福士川","lat":40.191363,"lng":140.801088,"zip":"0185201"},{"town":"花輪","koaza":"新斗米","lat":40.238019,"lng":140.798441,"zip":"0185201"},{"town":"花輪","koaza":"下沢田","lat":40.190022,"lng":140.800374,"zip":"0185201"},{"town":"八幡平","koaza":"宮尻","lat":40.152766,"lng":140.797555,"zip":"0185141"},{"town":"十和田錦木","koaza":"申ケ平","lat":40.262317,"lng":140.801085,"zip":"0185336"},{"town":"八幡平","koaza":"大里","lat":40.156834,"lng":140.800288,"zip":"0185141"},{"town":"花輪","koaza":"折笠","lat":40.215881,"lng":140.796582,"zip":"0185201"},{"town":"花輪","koaza":"柏木森","lat":40.177334,"lng":140.802431,"zip":"0185201"},{"town":"十和田錦木","koaza":"野中平","lat":40.265791,"lng":140.80065,"zip":"0185336"},{"town":"十和田大湯","koaza":"集宮","lat":40.276333,"lng":140.800875,"zip":"0185421"},{"town":"八幡平","koaza":"小豆沢碇","lat":40.137116,"lng":140.801942,"zip":"0185141"},{"town":"花輪","koaza":"下モ館","lat":40.239281,"lng":140.803186,"zip":"0185201"},{"town":"花輪","koaza":"寺ノ下タ","lat":40.245872,"lng":140.801229,"zip":"0185201"},{"town":"花輪","koaza":"西町","lat":40.214723,"lng":140.804424,"zip":"0185201"},{"town":"花輪","koaza":"鉄砲平","lat":40.260481,"lng":140.803561,"zip":"0185201"},{"town":"花輪","koaza":"中ノ崎","lat":40.185933,"lng":140.798002,"zip":"0185201"},{"town":"花輪","koaza":"猿ケ平","lat":40.199094,"lng":140.804298,"zip":"0185201"},{"town":"花輪","koaza":"古館","lat":40.193507,"lng":140.803359,"zip":"0185201"},{"town":"花輪","koaza":"八幡館","lat":40.245069,"lng":140.80128,"zip":"0185201"},{"town":"花輪","koaza":"妻ノ神","lat":40.208379,"lng":140.804971,"zip":"0185201"},{"town":"八幡平","koaza":"歌内","lat":40.154791,"lng":140.801461,"zip":"0185141"},{"town":"花輪","koaza":"沖田表","lat":40.220944,"lng":140.801784,"zip":"0185201"},{"town":"十和田大湯","koaza":"野中堂","lat":40.268853,"lng":140.802036,"zip":"0185421"},{"town":"八幡平","koaza":"大里上田表","lat":40.159058,"lng":140.80229,"zip":"0185141"},{"town":"八幡平","koaza":"小山","lat":40.142253,"lng":140.803393,"zip":"0185141"},{"town":"花輪","koaza":"上ワ町","lat":40.243053,"lng":140.798888,"zip":"0185201"},{"town":"花輪","koaza":"稲荷川原","lat":40.186784,"lng":140.812643,"zip":"0185201"},{"town":"花輪","koaza":"鳥野","lat":40.246276,"lng":140.807155,"zip":"0185201"},{"town":"花輪","koaza":"下野","lat":40.251796,"lng":140.804946,"zip":"0185201"},{"town":"花輪","koaza":"稲荷田","lat":40.221324,"lng":140.80283,"zip":"0185201"},{"town":"八幡平","koaza":"小豆沢","lat":40.146201,"lng":140.805044,"zip":"0185141"},{"town":"花輪","koaza":"甘蕗","lat":40.176504,"lng":140.806233,"zip":"0185201"},{"town":"花輪","koaza":"地羅野","lat":40.221102,"lng":140.8075,"zip":"0185201"},{"town":"十和田大湯","koaza":"一本木平","lat":40.276885,"lng":140.807819,"zip":"0185421"},{"town":"花輪","koaza":"乳牛平","lat":40.211375,"lng":140.805803,"zip":"0185201"},{"town":"八幡平","koaza":"鷲の巣","lat":40.148452,"lng":140.803265,"zip":"0185141"},{"town":"花輪","koaza":"柴内太田谷地","lat":40.203805,"lng":140.80685,"zip":"0185201"},{"town":"花輪","koaza":"高市向","lat":40.234118,"lng":140.80906,"zip":"0185201"},{"town":"十和田大湯","koaza":"一本木後ロ","lat":40.271298,"lng":140.805413,"zip":"0185421"},{"town":"花輪","koaza":"刈又","lat":40.206402,"lng":140.804811,"zip":"0185201"},{"town":"花輪","koaza":"中屋布","lat":40.219202,"lng":140.805806,"zip":"0185201"},{"town":"十和田大湯","koaza":"下川原","lat":40.290855,"lng":140.813906,"zip":"0185421"},{"town":"十和田草木","koaza":"豊真木沢","lat":40.25752,"lng":140.806386,"zip":"0185422"},{"town":"十和田大湯","koaza":"万座","lat":40.273901,"lng":140.806341,"zip":"0185421"},{"town":"花輪","koaza":"小平","lat":40.239202,"lng":140.807965,"zip":"0185201"},{"town":"八幡平","koaza":"堂の上","lat":40.142204,"lng":140.806512,"zip":"0185141"},{"town":"花輪","koaza":"大清水","lat":40.224643,"lng":140.810479,"zip":"0185201"},{"town":"花輪","koaza":"高市","lat":40.232008,"lng":140.807194,"zip":"0185201"},{"town":"十和田草木","koaza":"舘ノ下モ","lat":40.256318,"lng":140.80673,"zip":"0185422"},{"town":"十和田草木","koaza":"丸舘ノ下タ","lat":40.256109,"lng":140.809472,"zip":"0185422"},{"town":"十和田大湯","koaza":"上谷地","lat":40.280667,"lng":140.808281,"zip":"0185421"},{"town":"花輪","koaza":"八幡平","lat":40.240924,"lng":140.806901,"zip":"0185201"},{"town":"八幡平","koaza":"志和前","lat":40.140201,"lng":140.808561,"zip":"0185141"},{"town":"花輪","koaza":"源田平","lat":40.244029,"lng":140.805964,"zip":"0185201"},{"town":"花輪","koaza":"平中","lat":40.221917,"lng":140.809634,"zip":"0185201"},{"town":"花輪","koaza":"赤坂","lat":40.189278,"lng":140.813974,"zip":"0185201"},{"town":"花輪","koaza":"大曲","lat":40.206394,"lng":140.808292,"zip":"0185201"},{"town":"十和田草木","koaza":"丸舘","lat":40.257316,"lng":140.808885,"zip":"0185422"},{"town":"花輪","koaza":"柴内谷地中","lat":40.208238,"lng":140.812236,"zip":"0185201"},{"town":"花輪","koaza":"高沢","lat":40.232589,"lng":140.81222,"zip":"0185201"},{"town":"花輪","koaza":"深沢","lat":40.215587,"lng":140.809541,"zip":"0185201"},{"town":"花輪","koaza":"不動平","lat":40.205773,"lng":140.813915,"zip":"0185201"},{"town":"十和田草木","koaza":"丸舘表","lat":40.260626,"lng":140.810373,"zip":"0185422"},{"town":"十和田大湯","koaza":"一本木","lat":40.277703,"lng":140.812386,"zip":"0185421"},{"town":"十和田大湯","koaza":"風張","lat":40.282148,"lng":140.811566,"zip":"0185421"},{"town":"八幡平","koaza":"上山田","lat":40.130212,"lng":140.814314,"zip":"0185141"},{"town":"花輪","koaza":"山道","lat":40.246007,"lng":140.818532,"zip":"0185201"},{"town":"花輪","koaza":"近江谷地","lat":40.234908,"lng":140.816079,"zip":"0185201"},{"town":"十和田大湯","koaza":"狐崎","lat":40.283999,"lng":140.81553,"zip":"0185421"},{"town":"花輪","koaza":"与力堂","lat":40.216197,"lng":140.812704,"zip":"0185201"},{"town":"十和田草木","koaza":"一本柳","lat":40.256274,"lng":140.812922,"zip":"0185422"},{"town":"十和田大湯","koaza":"室ノ沢口","lat":40.298571,"lng":140.816493,"zip":"0185421"},{"town":"十和田大湯","koaza":"倉沢中道","lat":40.281391,"lng":140.814308,"zip":"0185421"},{"town":"花輪","koaza":"上寺野","lat":40.240622,"lng":140.816487,"zip":"0185201"},{"town":"花輪","koaza":"百合沢","lat":40.185431,"lng":140.818049,"zip":"0185201"},{"town":"花輪","koaza":"赤平","lat":40.220958,"lng":140.814742,"zip":"0185201"},{"town":"十和田草木","koaza":"中岱","lat":40.25796,"lng":140.815071,"zip":"0185422"},{"town":"十和田大湯","koaza":"倉沢","lat":40.279542,"lng":140.812734,"zip":"0185421"},{"town":"十和田草木","koaza":"小坂","lat":40.265449,"lng":140.817946,"zip":"0185422"},{"town":"十和田草木","koaza":"下草木","lat":40.260485,"lng":140.817778,"zip":"0185422"},{"town":"十和田大湯","koaza":"宮野平","lat":40.280984,"lng":140.819356,"zip":"0185421"},{"town":"花輪","koaza":"大久保","lat":40.196132,"lng":140.825809,"zip":"0185201"},{"town":"花輪","koaza":"菖蒲谷地","lat":40.251813,"lng":140.819307,"zip":"0185201"},{"town":"十和田草木","koaza":"大畑平","lat":40.260009,"lng":140.8191,"zip":"0185422"},{"town":"花輪","koaza":"石倉","lat":40.242178,"lng":140.820443,"zip":"0185201"},{"town":"十和田大湯","koaza":"桂ノ沢","lat":40.294834,"lng":140.818573,"zip":"0185421"},{"town":"花輪","koaza":"海谷地","lat":40.235683,"lng":140.820086,"zip":"0185201"},{"town":"十和田大湯","koaza":"川原ノ湯","lat":40.293542,"lng":140.82192,"zip":"0185421"},{"town":"花輪","koaza":"元苗代","lat":40.245578,"lng":140.829351,"zip":"0185201"},{"town":"花輪","koaza":"小米","lat":40.232659,"lng":140.822972,"zip":"0185201"},{"town":"花輪","koaza":"級ノ木","lat":40.246782,"lng":140.82086,"zip":"0185201"},{"town":"花輪","koaza":"乳牛山","lat":40.208505,"lng":140.823298,"zip":"0185201"},{"town":"十和田大湯","koaza":"倉沢向","lat":40.274753,"lng":140.816579,"zip":"0185421"},{"town":"十和田大湯","koaza":"下ノ湯","lat":40.291929,"lng":140.821676,"zip":"0185421"},{"town":"花輪","koaza":"鷹嘴","lat":40.249386,"lng":140.825115,"zip":"0185201"},{"town":"十和田大湯","koaza":"長根外レ","lat":40.278545,"lng":140.825047,"zip":"0185421"},{"town":"十和田草木","koaza":"舘下タ","lat":40.267908,"lng":140.825064,"zip":"0185422"},{"town":"花輪","koaza":"長野","lat":40.234855,"lng":140.822577,"zip":"0185201"},{"town":"十和田大湯","koaza":"赤川","lat":40.321883,"lng":140.830451,"zip":"0185421"},{"town":"花輪","koaza":"本苗代","lat":40.249789,"lng":140.830722,"zip":"0185201"},{"town":"十和田大湯","koaza":"中田","lat":40.293257,"lng":140.826769,"zip":"0185421"},{"town":"十和田大湯","koaza":"大湯","lat":40.290642,"lng":140.830146,"zip":"0185421"},{"town":"十和田草木","koaza":"新田","lat":40.257672,"lng":140.825473,"zip":"0185422"},{"town":"十和田大湯","koaza":"権現堂","lat":40.298853,"lng":140.827982,"zip":"0185421"},{"town":"花輪","koaza":"横長根","lat":40.231454,"lng":140.829947,"zip":"0185201"},{"town":"十和田草木","koaza":"砂派","lat":40.2603,"lng":140.832908,"zip":"0185422"},{"town":"十和田草木","koaza":"前田","lat":40.269023,"lng":140.828968,"zip":"0185422"},{"town":"十和田大湯","koaza":"大橋向","lat":40.297566,"lng":140.830685,"zip":"0185421"},{"town":"花輪","koaza":"冷水","lat":40.242072,"lng":140.829621,"zip":"0185201"},{"town":"十和田大湯","koaza":"根市","lat":40.282965,"lng":140.830258,"zip":"0185421"},{"town":"十和田大湯","koaza":"上ノ湯","lat":40.295091,"lng":140.829957,"zip":"0185421"},{"town":"十和田草木","koaza":"保田","lat":40.26667,"lng":140.828721,"zip":"0185422"},{"town":"十和田草木","koaza":"山田","lat":40.271325,"lng":140.830783,"zip":"0185422"},{"town":"十和田大湯","koaza":"上内野","lat":40.302164,"lng":140.833181,"zip":"0185421"},{"town":"十和田大湯","koaza":"和町","lat":40.287886,"lng":140.828006,"zip":"0185421"},{"town":"花輪","koaza":"下モ平","lat":40.238678,"lng":140.830743,"zip":"0185201"},{"town":"十和田大湯","koaza":"中岱","lat":40.299586,"lng":140.836554,"zip":"0185421"},{"town":"花輪","koaza":"上台","lat":40.235071,"lng":140.835395,"zip":"0185201"},{"town":"十和田大湯","koaza":"二倉","lat":40.31367,"lng":140.836342,"zip":"0185421"},{"town":"十和田大湯","koaza":"荒瀬","lat":40.298216,"lng":140.836415,"zip":"0185421"},{"town":"十和田大湯","koaza":"上の湯一丁目","lat":40.294965,"lng":140.832541,"zip":"0185421"},{"town":"十和田草木","koaza":"松舟","lat":40.271973,"lng":140.83508,"zip":"0185422"},{"town":"花輪","koaza":"蛇沢","lat":40.255825,"lng":140.835849,"zip":"0185201"},{"town":"八幡平","koaza":"湯瀬堰根口","lat":40.125399,"lng":140.834959,"zip":"0185141"},{"town":"花輪","koaza":"柴内大久保","lat":40.240646,"lng":140.835989,"zip":"0185201"},{"town":"八幡平","koaza":"湯瀬","lat":40.124153,"lng":140.835637,"zip":"0185141"},{"town":"八幡平","koaza":"湯瀬非瀬口","lat":40.128924,"lng":140.845865,"zip":"0185141"},{"town":"十和田大湯","koaza":"上の湯二丁目","lat":40.295183,"lng":140.83452,"zip":"0185421"},{"town":"八幡平","koaza":"湯瀬古館","lat":40.124048,"lng":140.838328,"zip":"0185141"},{"town":"花輪","koaza":"菩提野","lat":40.256766,"lng":140.841349,"zip":"0185201"},{"town":"十和田大湯","koaza":"湯の岱一丁目","lat":40.295503,"lng":140.835625,"zip":"0185421"},{"town":"十和田大湯","koaza":"舘ケ沢","lat":40.283067,"lng":140.837134,"zip":"0185421"},{"town":"十和田大湯","koaza":"五ノ岱","lat":40.305024,"lng":140.839913,"zip":"0185421"},{"town":"十和田草木","koaza":"陣場下","lat":40.264748,"lng":140.835213,"zip":"0185422"},{"town":"十和田大湯","koaza":"湯の岱二丁目","lat":40.29635,"lng":140.836566,"zip":"0185421"},{"town":"十和田大湯","koaza":"堀内","lat":40.310509,"lng":140.839302,"zip":"0185421"},{"town":"花輪","koaza":"雁府","lat":40.251724,"lng":140.837228,"zip":"0185201"},{"town":"十和田草木","koaza":"家ノ下","lat":40.272203,"lng":140.84146,"zip":"0185422"},{"town":"十和田大湯","koaza":"白山","lat":40.305639,"lng":140.840885,"zip":"0185421"},{"town":"十和田草木","koaza":"中岱下","lat":40.277163,"lng":140.841297,"zip":"0185422"},{"town":"十和田草木","koaza":"丑道ノ下タ","lat":40.271591,"lng":140.842708,"zip":"0185422"},{"town":"八幡平","koaza":"湯瀬一羽根","lat":40.121385,"lng":140.840329,"zip":"0185141"},{"town":"十和田草木","koaza":"家ノ上","lat":40.275369,"lng":140.844992,"zip":"0185422"},{"town":"十和田草木","koaza":"川向","lat":40.267013,"lng":140.844237,"zip":"0185422"},{"town":"十和田大湯","koaza":"下折戸","lat":40.3024,"lng":140.846111,"zip":"0185421"},{"town":"十和田草木","koaza":"大沢出口","lat":40.271137,"lng":140.845366,"zip":"0185422"},{"town":"十和田草木","koaza":"崩原","lat":40.268951,"lng":140.847374,"zip":"0185422"},{"town":"十和田草木","koaza":"妻ノ神","lat":40.272589,"lng":140.848622,"zip":"0185422"},{"town":"八幡平","koaza":"湯瀬才田","lat":40.120339,"lng":140.864158,"zip":"0185141"},{"town":"十和田岡田","koaza":"竹林","lat":40.277649,"lng":140.784652,"zip":"0185333"},{"town":"十和田岡田","koaza":"大道","lat":40.27989,"lng":140.783228,"zip":"0185333"},{"town":"十和田毛馬内","koaza":"上野","lat":40.277151,"lng":140.779852,"zip":"0185334"},{"town":"十和田岡田","koaza":"下モ谷地","lat":40.269678,"lng":140.775628,"zip":"0185333"},{"town":"十和田岡田","koaza":"上前田","lat":40.268318,"lng":140.78434,"zip":"0185333"},{"town":"十和田岡田","koaza":"中野平","lat":40.27199,"lng":140.786829,"zip":"0185333"},{"town":"十和田大湯","koaza":"下モ岱","lat":40.270993,"lng":140.787007,"zip":"0185421"},{"town":"花輪","koaza":"鹿角沢","lat":40.252065,"lng":140.789596,"zip":"0185201"},{"town":"花輪","koaza":"堰根川原","lat":40.177994,"lng":140.784832,"zip":"0185201"},{"town":"十和田大湯","koaza":"大足","lat":40.27322,"lng":140.787784,"zip":"0185421"},{"town":"花輪","koaza":"小沼","lat":40.216321,"lng":140.784151,"zip":"0185201"},{"town":"十和田山根","koaza":"上ミ平","lat":40.310878,"lng":140.778218,"zip":"0185331"},{"town":"十和田大湯","koaza":"中谷地","lat":40.296488,"lng":140.823928,"zip":"0185421"},{"town":"十和田上向","koaza":"下四ツ谷","lat":40.297158,"lng":140.777017,"zip":"0185332"},{"town":"十和田山根","koaza":"神平","lat":40.296207,"lng":140.774926,"zip":"0185331"},{"town":"十和田山根","koaza":"大畑","lat":40.292499,"lng":140.78605,"zip":"0185331"},{"town":"十和田山根","koaza":"下川原","lat":40.288783,"lng":140.784826,"zip":"0185331"},{"town":"十和田山根","koaza":"白山","lat":40.290029,"lng":140.788742,"zip":"0185331"},{"town":"十和田山根","koaza":"万養田","lat":40.2912,"lng":140.795538,"zip":"0185331"},{"town":"十和田大湯","koaza":"長渉","lat":40.287795,"lng":140.80393,"zip":"0185421"},{"town":"十和田大湯","koaza":"湯脇","lat":40.287976,"lng":140.806082,"zip":"0185421"},{"town":"十和田大湯","koaza":"欠田尻","lat":40.283627,"lng":140.800185,"zip":"0185421"},{"town":"十和田大湯","koaza":"欠田","lat":40.285745,"lng":140.804264,"zip":"0185421"},{"town":"十和田大湯","koaza":"古舘","lat":40.289052,"lng":140.822751,"zip":"0185421"},{"town":"十和田大湯","koaza":"小清水","lat":40.289022,"lng":140.82564,"zip":"0185421"},{"town":"十和田大湯","koaza":"大諏訪","lat":40.290452,"lng":140.815971,"zip":"0185421"},{"town":"十和田大湯","koaza":"上屋布","lat":40.288975,"lng":140.817873,"zip":"0185421"},{"town":"十和田大湯","koaza":"堤尻","lat":40.284317,"lng":140.818144,"zip":"0185421"},{"town":"十和田大湯","koaza":"横長根","lat":40.282348,"lng":140.817515,"zip":"0185421"},{"town":"十和田大湯","koaza":"黒又","lat":40.28166,"lng":140.820616,"zip":"0185421"},{"town":"十和田草木","koaza":"合橋","lat":40.27508,"lng":140.840307,"zip":"0185422"},{"town":"十和田草木","koaza":"大畑","lat":40.270783,"lng":140.823875,"zip":"0185422"},{"town":"十和田草木","koaza":"草木","lat":40.269592,"lng":140.826941,"zip":"0185422"},{"town":"十和田草木","koaza":"馬伏谷地","lat":40.272819,"lng":140.826479,"zip":"0185422"},{"town":"十和田草木","koaza":"中平","lat":40.272281,"lng":140.823043,"zip":"0185422"},{"town":"十和田大湯","koaza":"柏木新田","lat":40.281407,"lng":140.800529,"zip":"0185421"},{"town":"十和田大湯","koaza":"横道","lat":40.284389,"lng":140.807122,"zip":"0185421"},{"town":"十和田大湯","koaza":"村下タ","lat":40.276021,"lng":140.791603,"zip":"0185421"},{"town":"十和田山根","koaza":"上外ノ沢","lat":40.307873,"lng":140.77419,"zip":"0185331"},{"town":"十和田大湯","koaza":"湯ノ岱","lat":40.299786,"lng":140.841752,"zip":"0185421"},{"town":"十和田大湯","koaza":"中川原","lat":40.293619,"lng":140.817274,"zip":"0185421"},{"town":"十和田毛馬内","koaza":"大坊舘","lat":40.274146,"lng":140.75391,"zip":"0185334"},{"town":"十和田毛馬内","koaza":"水無","lat":40.274232,"lng":140.746698,"zip":"0185334"},{"town":"十和田毛馬内","koaza":"母谷下","lat":40.272284,"lng":140.753373,"zip":"0185334"},{"town":"十和田瀬田石","koaza":"太田表","lat":40.268255,"lng":140.759397,"zip":"0185335"},{"town":"十和田毛馬内","koaza":"曹洞下タ","lat":40.268938,"lng":140.764903,"zip":"0185334"},{"town":"十和田毛馬内","koaza":"番屋平","lat":40.275461,"lng":140.770771,"zip":"0185334"},{"town":"十和田毛馬内","koaza":"下タ道","lat":40.279884,"lng":140.766608,"zip":"0185334"},{"town":"十和田毛馬内","koaza":"冷水","lat":40.279656,"lng":140.775429,"zip":"0185334"},{"town":"十和田大湯","koaza":"初瀬場","lat":40.271448,"lng":140.792986,"zip":"0185421"},{"town":"十和田毛馬内","koaza":"取越","lat":40.274807,"lng":140.761342,"zip":"0185334"},{"town":"十和田毛馬内","koaza":"赤冗","lat":40.273668,"lng":140.759148,"zip":"0185334"},{"town":"十和田毛馬内","koaza":"古下タ","lat":40.271726,"lng":140.769563,"zip":"0185334"},{"town":"十和田岡田","koaza":"勝善岱","lat":40.272095,"lng":140.776817,"zip":"0185333"},{"town":"十和田岡田","koaza":"琴平岱","lat":40.271591,"lng":140.779585,"zip":"0185333"},{"town":"十和田岡田","koaza":"後谷地","lat":40.270847,"lng":140.78077,"zip":"0185333"},{"town":"十和田草木","koaza":"二本柳","lat":40.273623,"lng":140.839678,"zip":"0185422"},{"town":"十和田草木","koaza":"竹柄","lat":40.267699,"lng":140.83287,"zip":"0185422"},{"town":"十和田草木","koaza":"小森子","lat":40.264398,"lng":140.828962,"zip":"0185422"},{"town":"十和田錦木","koaza":"元形平","lat":40.265938,"lng":140.802907,"zip":"0185336"},{"town":"十和田毛馬内","koaza":"古舘","lat":40.2878,"lng":140.76724,"zip":"0185334"},{"town":"十和田毛馬内","koaza":"下川原","lat":40.266244,"lng":140.766843,"zip":"0185334"},{"town":"十和田毛馬内","koaza":"下寄熊","lat":40.266144,"lng":140.768569,"zip":"0185334"},{"town":"十和田毛馬内","koaza":"上新田","lat":40.262314,"lng":140.773261,"zip":"0185334"},{"town":"十和田草木","koaza":"上高田","lat":40.263809,"lng":140.824998,"zip":"0185422"},{"town":"十和田草木","koaza":"水木","lat":40.258237,"lng":140.820022,"zip":"0185422"},{"town":"十和田草木","koaza":"大谷地","lat":40.259739,"lng":140.824398,"zip":"0185422"},{"town":"花輪","koaza":"小坂野","lat":40.250424,"lng":140.811343,"zip":"0185201"},{"town":"花輪","koaza":"一ツ森","lat":40.248778,"lng":140.804177,"zip":"0185201"},{"town":"花輪","koaza":"平元谷地中","lat":40.247608,"lng":140.818758,"zip":"0185201"},{"town":"花輪","koaza":"平元熊堂","lat":40.24736,"lng":140.813679,"zip":"0185201"},{"town":"花輪","koaza":"岩下","lat":40.24861,"lng":140.791776,"zip":"0185201"},{"town":"十和田錦木","koaza":"稲生田","lat":40.256804,"lng":140.767563,"zip":"0185336"},{"town":"十和田錦木","koaza":"山谷","lat":40.257683,"lng":140.770384,"zip":"0185336"},{"town":"十和田瀬田石","koaza":"中野平","lat":40.265637,"lng":140.751329,"zip":"0185335"},{"town":"十和田瀬田石","koaza":"外ノ沢","lat":40.265189,"lng":140.748191,"zip":"0185335"},{"town":"十和田瀬田石","koaza":"狐平","lat":40.266241,"lng":140.749212,"zip":"0185335"},{"town":"十和田毛馬内","koaza":"下新田","lat":40.260723,"lng":140.765722,"zip":"0185334"},{"town":"十和田錦木","koaza":"袖ケ口","lat":40.249394,"lng":140.768635,"zip":"0185336"},{"town":"十和田錦木","koaza":"沖田面","lat":40.247925,"lng":140.772116,"zip":"0185336"},{"town":"十和田錦木","koaza":"泉森","lat":40.249817,"lng":140.782873,"zip":"0185336"},{"town":"十和田末広","koaza":"白根方","lat":40.241127,"lng":140.731518,"zip":"0185337"},{"town":"十和田末広","koaza":"村下","lat":40.226862,"lng":140.727339,"zip":"0185337"},{"town":"花輪","koaza":"平元前田","lat":40.245024,"lng":140.794344,"zip":"0185201"},{"town":"花輪","koaza":"四ツ谷","lat":40.243676,"lng":140.804263,"zip":"0185201"},{"town":"花輪","koaza":"茂ハ谷地","lat":40.243259,"lng":140.805293,"zip":"0185201"},{"town":"花輪","koaza":"柴内熊堂","lat":40.2356,"lng":140.843685,"zip":"0185201"},{"town":"花輪","koaza":"元村","lat":40.238893,"lng":140.806888,"zip":"0185201"},{"town":"花輪","koaza":"平元向平","lat":40.237315,"lng":140.808782,"zip":"0185201"},{"town":"花輪","koaza":"天王平","lat":40.23855,"lng":140.801346,"zip":"0185201"},{"town":"花輪","koaza":"前田面","lat":40.237055,"lng":140.79917,"zip":"0185201"},{"town":"花輪","koaza":"伊坂","lat":40.237823,"lng":140.768319,"zip":"0185201"},{"town":"花輪","koaza":"八幡田","lat":40.241729,"lng":140.79334,"zip":"0185201"},{"town":"花輪","koaza":"木田橋","lat":40.24159,"lng":140.793089,"zip":"0185201"},{"town":"花輪","koaza":"大坊沢","lat":40.236544,"lng":140.80407,"zip":"0185201"},{"town":"花輪","koaza":"下平","lat":40.234986,"lng":140.828094,"zip":"0185201"},{"town":"花輪","koaza":"間瀬川","lat":40.235846,"lng":140.785047,"zip":"0185201"},{"town":"花輪","koaza":"太田谷地","lat":40.232759,"lng":140.771529,"zip":"0185201"},{"town":"花輪","koaza":"稲荷沢","lat":40.231677,"lng":140.767989,"zip":"0185201"},{"town":"花輪","koaza":"新矢","lat":40.228806,"lng":140.787677,"zip":"0185201"},{"town":"花輪","koaza":"堰ノ口","lat":40.231059,"lng":140.787305,"zip":"0185201"},{"town":"花輪","koaza":"観音平","lat":40.225509,"lng":140.805456,"zip":"0185201"},{"town":"花輪","koaza":"万谷野","lat":40.225798,"lng":140.802727,"zip":"0185201"},{"town":"花輪","koaza":"二ツ森","lat":40.207996,"lng":140.757364,"zip":"0185201"},{"town":"花輪","koaza":"坂ノ下","lat":40.210572,"lng":140.755628,"zip":"0185201"},{"town":"花輪","koaza":"高寺","lat":40.201442,"lng":140.752586,"zip":"0185201"},{"town":"花輪","koaza":"上ミ平","lat":40.207294,"lng":140.762341,"zip":"0185201"},{"town":"花輪","koaza":"袖越","lat":40.210475,"lng":140.766661,"zip":"0185201"},{"town":"花輪","koaza":"大屋敷","lat":40.205906,"lng":140.792182,"zip":"0185201"},{"town":"花輪","koaza":"水ノ目","lat":40.201535,"lng":140.817618,"zip":"0185201"},{"town":"花輪","koaza":"柳田","lat":40.196035,"lng":140.789946,"zip":"0185201"},{"town":"花輪","koaza":"観音堂","lat":40.202239,"lng":140.780387,"zip":"0185201"},{"town":"花輪","koaza":"堪忍沢","lat":40.201861,"lng":140.775491,"zip":"0185201"},{"town":"尾去沢","koaza":"一の坂","lat":40.196648,"lng":140.778643,"zip":"0185202"},{"town":"花輪","koaza":"水沢","lat":40.204443,"lng":140.768649,"zip":"0185201"},{"town":"花輪","koaza":"高瀬川原","lat":40.204481,"lng":140.779303,"zip":"0185201"},{"town":"花輪","koaza":"案内","lat":40.192995,"lng":140.80572,"zip":"0185201"},{"town":"花輪","koaza":"孫右エ門館","lat":40.189769,"lng":140.806208,"zip":"0185201"},{"town":"花輪","koaza":"柴切田","lat":40.195446,"lng":140.791671,"zip":"0185201"},{"town":"尾去沢","koaza":"前平","lat":40.189082,"lng":140.778712,"zip":"0185202"},{"town":"花輪","koaza":"火附森","lat":40.186879,"lng":140.80391,"zip":"0185201"},{"town":"花輪","koaza":"張渡","lat":40.186721,"lng":140.802592,"zip":"0185201"},{"town":"尾去沢","koaza":"前田","lat":40.179362,"lng":140.777939,"zip":"0185202"},{"town":"八幡平","koaza":"玉内下","lat":40.171062,"lng":140.788185,"zip":"0185141"},{"town":"尾去沢","koaza":"下大屋布","lat":40.178119,"lng":140.776384,"zip":"0185202"},{"town":"尾去沢","koaza":"長淵","lat":40.179872,"lng":140.782877,"zip":"0185202"},{"town":"花輪","koaza":"月竹沢","lat":40.175423,"lng":140.791137,"zip":"0185201"},{"town":"八幡平","koaza":"上玉内","lat":40.172981,"lng":140.795813,"zip":"0185141"},{"town":"八幡平","koaza":"清水向","lat":40.171015,"lng":140.796419,"zip":"0185141"},{"town":"八幡平","koaza":"赤渕","lat":40.168156,"lng":140.789609,"zip":"0185141"},{"town":"尾去沢","koaza":"西の沢","lat":40.1679,"lng":140.780803,"zip":"0185202"},{"town":"八幡平","koaza":"坂元","lat":40.162107,"lng":140.793998,"zip":"0185141"},{"town":"八幡平","koaza":"高見田","lat":40.160821,"lng":140.792761,"zip":"0185141"},{"town":"八幡平","koaza":"堀合","lat":40.160012,"lng":140.799701,"zip":"0185141"},{"town":"八幡平","koaza":"飛鳥平","lat":40.157494,"lng":140.803554,"zip":"0185141"},{"town":"八幡平","koaza":"鳥居平","lat":40.15631,"lng":140.804035,"zip":"0185141"},{"town":"八幡平","koaza":"永田","lat":40.155833,"lng":140.793846,"zip":"0185141"},{"town":"尾去沢","koaza":"三光塚","lat":40.166627,"lng":140.78691,"zip":"0185202"},{"town":"八幡平","koaza":"湯瀬湯端","lat":40.121655,"lng":140.838236,"zip":"0185141"},{"town":"八幡平","koaza":"竹鼻","lat":40.147712,"lng":140.775911,"zip":"0185141"},{"town":"八幡平","koaza":"堀切","lat":40.147376,"lng":140.776162,"zip":"0185141"},{"town":"八幡平","koaza":"下モ和志賀","lat":40.145976,"lng":140.776928,"zip":"0185141"},{"town":"八幡平","koaza":"前川原","lat":40.143804,"lng":140.79475,"zip":"0185141"},{"town":"八幡平","koaza":"川部下モ川原","lat":40.146428,"lng":140.793252,"zip":"0185141"},{"town":"八幡平","koaza":"外川原","lat":40.148587,"lng":140.790915,"zip":"0185141"},{"town":"八幡平","koaza":"西の下","lat":40.144616,"lng":140.804551,"zip":"0185141"},{"town":"八幡平","koaza":"川部家の下","lat":40.142694,"lng":140.793745,"zip":"0185141"},{"town":"八幡平","koaza":"川部上川原","lat":40.141246,"lng":140.792708,"zip":"0185141"},{"town":"八幡平","koaza":"朴","lat":40.137811,"lng":140.78654,"zip":"0185141"},{"town":"八幡平","koaza":"長嶺川原","lat":40.135185,"lng":140.796795,"zip":"0185141"},{"town":"八幡平","koaza":"上沢田","lat":40.135728,"lng":140.799577,"zip":"0185141"},{"town":"八幡平","koaza":"東館","lat":40.128502,"lng":140.793567,"zip":"0185141"},{"town":"八幡平","koaza":"新城","lat":40.134278,"lng":140.7993,"zip":"0185141"},{"town":"八幡平","koaza":"堂の前","lat":40.130724,"lng":140.798027,"zip":"0185141"},{"town":"八幡平","koaza":"間明田","lat":40.134416,"lng":140.790747,"zip":"0185141"},{"town":"八幡平","koaza":"長内古館","lat":40.132661,"lng":140.768822,"zip":"0185141"},{"town":"八幡平","koaza":"室ケ平","lat":40.130938,"lng":140.768479,"zip":"0185141"},{"town":"八幡平","koaza":"時戸","lat":40.124998,"lng":140.771557,"zip":"0185141"},{"town":"八幡平","koaza":"桐の木","lat":40.125589,"lng":140.771062,"zip":"0185141"},{"town":"八幡平","koaza":"谷内下モ平","lat":40.120773,"lng":140.791731,"zip":"0185141"},{"town":"八幡平","koaza":"八舛寺","lat":40.11797,"lng":140.792238,"zip":"0185141"},{"town":"八幡平","koaza":"萱町","lat":40.106411,"lng":140.788388,"zip":"0185141"},{"town":"八幡平","koaza":"薬師川原","lat":40.102815,"lng":140.784902,"zip":"0185141"},{"town":"八幡平","koaza":"林崎","lat":40.095598,"lng":140.781538,"zip":"0185141"},{"town":"八幡平","koaza":"弥蔵","lat":40.098456,"lng":140.779935,"zip":"0185141"},{"town":"八幡平","koaza":"岩崎","lat":40.105455,"lng":140.7742,"zip":"0185141"},{"town":"八幡平","koaza":"指鳥","lat":40.115141,"lng":140.762458,"zip":"0185141"},{"town":"八幡平","koaza":"八升地","lat":40.114414,"lng":140.758659,"zip":"0185141"},{"town":"八幡平","koaza":"小沢田","lat":40.116779,"lng":140.764474,"zip":"0185141"},{"town":"八幡平","koaza":"カラメ田","lat":40.111911,"lng":140.766423,"zip":"0185141"},{"town":"花輪","koaza":"下タノ田","lat":40.220161,"lng":140.781489,"zip":"0185201"},{"town":"八幡平","koaza":"三ケ田前田","lat":40.13268,"lng":140.778649,"zip":"0185141"},{"town":"花輪","koaza":"三ツ権現","lat":40.23473,"lng":140.768917,"zip":"0185201"},{"town":"花輪","koaza":"樋田","lat":40.245518,"lng":140.797492,"zip":"0185201"},{"town":"花輪","koaza":"館神","lat":40.243581,"lng":140.796584,"zip":"0185201"},{"town":"花輪","koaza":"長漕","lat":40.238842,"lng":140.822195,"zip":"0185201"},{"town":"十和田山根","koaza":"上内ノ沢","lat":40.311538,"lng":140.782052,"zip":"0185331"},{"town":"十和田山根","koaza":"舘ヶ沢","lat":40.311453,"lng":140.78041,"zip":"0185331"},{"town":"十和田山根","koaza":"森合","lat":40.304268,"lng":140.77968,"zip":"0185331"},{"town":"十和田山根","koaza":"中内ノ沢","lat":40.301642,"lng":140.781362,"zip":"0185331"},{"town":"十和田山根","koaza":"家ノ下","lat":40.308645,"lng":140.780348,"zip":"0185331"},{"town":"十和田山根","koaza":"橋場","lat":40.304502,"lng":140.780739,"zip":"0185331"},{"town":"十和田山根","koaza":"下モ内ノ沢","lat":40.300258,"lng":140.783243,"zip":"0185331"}]