[{"town":"荒谷","koaza":"","lat":40.300628,"lng":140.760426,"zip":"0170204"},{"town":"上向","koaza":"","lat":40.336325,"lng":140.776915,"zip":"0170203"},{"town":"小坂","koaza":"","lat":40.381163,"lng":140.750691,"zip":"0170201"},{"town":"小坂鉱山","koaza":"","lat":40.341627,"lng":140.752815,"zip":"0170202"},{"town":"大地","koaza":"","lat":40.295763,"lng":140.736672,"zip":"0170205"},{"town":"十和田湖","koaza":"","lat":40.458566,"lng":140.823858,"zip":"0185511"},{"town":"小坂","koaza":"館平","lat":40.323035,"lng":140.731339,"zip":"0170201"},{"town":"小坂","koaza":"横道","lat":40.335032,"lng":140.735363,"zip":"0170201"},{"town":"小坂","koaza":"細越","lat":40.340355,"lng":140.735264,"zip":"0170201"},{"town":"小坂","koaza":"中小坂","lat":40.321246,"lng":140.736513,"zip":"0170201"},{"town":"小坂","koaza":"上谷地","lat":40.332067,"lng":140.735312,"zip":"0170201"},{"town":"小坂鉱山","koaza":"渡ノ羽","lat":40.334345,"lng":140.739272,"zip":"0170202"},{"town":"小坂","koaza":"上田表","lat":40.330534,"lng":140.737835,"zip":"0170201"},{"town":"小坂","koaza":"上小坂","lat":40.324727,"lng":140.737742,"zip":"0170201"},{"town":"小坂","koaza":"下小坂","lat":40.320189,"lng":140.738835,"zip":"0170201"},{"town":"小坂鉱山","koaza":"栗平","lat":40.329825,"lng":140.739293,"zip":"0170202"},{"town":"小坂","koaza":"上前田","lat":40.326593,"lng":140.740352,"zip":"0170201"},{"town":"小坂","koaza":"曲戸","lat":40.317155,"lng":140.740456,"zip":"0170201"},{"town":"小坂","koaza":"五十刈","lat":40.323497,"lng":140.741431,"zip":"0170201"},{"town":"小坂","koaza":"岩沢平","lat":40.311554,"lng":140.74095,"zip":"0170201"},{"town":"小坂鉱山","koaza":"古館","lat":40.32892,"lng":140.742365,"zip":"0170202"},{"town":"小坂","koaza":"赤神","lat":40.324235,"lng":140.743722,"zip":"0170201"},{"town":"小坂","koaza":"下前田","lat":40.321668,"lng":140.742735,"zip":"0170201"},{"town":"小坂鉱山","koaza":"古川","lat":40.322097,"lng":140.743728,"zip":"0170202"},{"town":"小坂","koaza":"大稲坪","lat":40.314842,"lng":140.744859,"zip":"0170201"},{"town":"小坂","koaza":"岩ノ下","lat":40.31762,"lng":140.745492,"zip":"0170201"},{"town":"小坂鉱山","koaza":"尾樽部","lat":40.336511,"lng":140.7408,"zip":"0170202"},{"town":"小坂","koaza":"山崎","lat":40.311739,"lng":140.747859,"zip":"0170201"},{"town":"小坂","koaza":"金窪","lat":40.313672,"lng":140.747447,"zip":"0170201"},{"town":"小坂","koaza":"大生手","lat":40.313886,"lng":140.753372,"zip":"0170201"},{"town":"上向","koaza":"鳥越","lat":40.325183,"lng":140.763487,"zip":"0170203"},{"town":"小坂鉱山","koaza":"苦竹","lat":40.335815,"lng":140.736402,"zip":"0170202"},{"town":"小坂","koaza":"下平","lat":40.317552,"lng":140.741653,"zip":"0170201"},{"town":"小坂","koaza":"中前田","lat":40.322764,"lng":140.740529,"zip":"0170201"},{"town":"小坂鉱山","koaza":"松ノ下","lat":40.326301,"lng":140.745407,"zip":"0170202"},{"town":"小坂","koaza":"坂ノ上","lat":40.31482,"lng":140.737939,"zip":"0170201"},{"town":"小坂","koaza":"沢","lat":40.311225,"lng":140.740308,"zip":"0170201"},{"town":"荒谷","koaza":"横欠","lat":40.309686,"lng":140.751349,"zip":"0170204"},{"town":"上向","koaza":"谷地端","lat":40.323217,"lng":140.762905,"zip":"0170203"},{"town":"上向","koaza":"谷地ノ上","lat":40.324135,"lng":140.758391,"zip":"0170203"},{"town":"小坂","koaza":"砂森","lat":40.324815,"lng":140.742787,"zip":"0170201"}]