[{"town":"上神目","koaza":"","lat":34.909021,"lng":133.930669,"zip":"7093626"},{"town":"上二ケ","koaza":"","lat":34.921195,"lng":133.953584,"zip":"7093615"},{"town":"上籾","koaza":"","lat":34.939805,"lng":133.918414,"zip":"7093621"},{"town":"上弓削","koaza":"","lat":34.941194,"lng":133.967119,"zip":"7093612"},{"town":"北庄","koaza":"","lat":34.961547,"lng":133.938753,"zip":"7093601"},{"town":"京尾","koaza":"","lat":34.879617,"lng":133.953893,"zip":"7093634"},{"town":"神目中","koaza":"","lat":34.893034,"lng":133.92845,"zip":"7093627"},{"town":"里方","koaza":"","lat":34.957762,"lng":133.95571,"zip":"7093602"},{"town":"塩之内","koaza":"","lat":34.936307,"lng":133.983564,"zip":"7093605"},{"town":"下二ケ","koaza":"","lat":34.91772,"lng":133.950943,"zip":"7093617"},{"town":"下籾","koaza":"","lat":34.912377,"lng":133.90746,"zip":"7093624"},{"town":"下弓削","koaza":"","lat":34.923517,"lng":133.975414,"zip":"7093614"},{"town":"泰山寺","koaza":"","lat":34.916639,"lng":133.984271,"zip":"7093600"},{"town":"峠","koaza":"","lat":34.882781,"lng":133.966751,"zip":"7093633"},{"town":"中籾","koaza":"","lat":34.92539,"lng":133.916659,"zip":"7093623"},{"town":"西山寺","koaza":"","lat":34.927803,"lng":133.954255,"zip":"7093613"},{"town":"羽出木","koaza":"","lat":34.950032,"lng":133.990636,"zip":"7093606"},{"town":"仏教寺","koaza":"","lat":34.917842,"lng":133.940361,"zip":"7093622"},{"town":"別所","koaza":"","lat":34.908099,"lng":133.920978,"zip":"7093625"},{"town":"全間","koaza":"","lat":34.912477,"lng":133.995389,"zip":"7093616"},{"town":"松","koaza":"","lat":34.933262,"lng":133.941012,"zip":"7093611"},{"town":"南庄","koaza":"","lat":34.948173,"lng":133.954436,"zip":"7093604"},{"town":"南畑","koaza":"","lat":34.890067,"lng":133.944008,"zip":"7093635"},{"town":"宮地","koaza":"","lat":34.901233,"lng":133.948588,"zip":"7093631"},{"town":"安ケ乢","koaza":"","lat":34.876616,"lng":133.939745,"zip":"7093636"},{"town":"山手","koaza":"","lat":34.897747,"lng":133.967895,"zip":"7093632"},{"town":"山ノ城","koaza":"","lat":34.957663,"lng":133.971122,"zip":"7093603"}]