[{"town":"上口","koaza":"","lat":34.990715,"lng":133.867487,"zip":"7093411"},{"town":"打穴上","koaza":"","lat":34.971493,"lng":133.918524,"zip":"7093705"},{"town":"打穴北","koaza":"","lat":34.98793,"lng":133.911577,"zip":"7093706"},{"town":"打穴里","koaza":"","lat":34.986061,"lng":133.932813,"zip":"7093704"},{"town":"打穴下","koaza":"","lat":35.020499,"lng":133.941449,"zip":"7093702"},{"town":"打穴中","koaza":"","lat":35.00756,"lng":133.949095,"zip":"7093703"},{"town":"打穴西","koaza":"","lat":35.003385,"lng":133.928153,"zip":"7093707"},{"town":"上間","koaza":"","lat":34.991106,"lng":134.081566,"zip":"7081506"},{"town":"江与味","koaza":"","lat":34.944595,"lng":133.787034,"zip":"7093415"},{"town":"王子","koaza":"","lat":34.937115,"lng":134.115255,"zip":"7081525"},{"town":"大垪和西","koaza":"","lat":34.958152,"lng":133.875085,"zip":"7093726"},{"town":"大垪和東","koaza":"","lat":34.965177,"lng":133.89667,"zip":"7093722"},{"town":"小原","koaza":"","lat":34.969797,"lng":133.968554,"zip":"7093714"},{"town":"書副","koaza":"","lat":34.986519,"lng":134.049559,"zip":"7081543"},{"town":"金堀","koaza":"","lat":34.978591,"lng":134.001325,"zip":"7093712"},{"town":"北","koaza":"","lat":35.028546,"lng":133.857161,"zip":"7093401"},{"town":"吉ケ原","koaza":"","lat":34.952263,"lng":134.086042,"zip":"7081523"},{"town":"栗子","koaza":"","lat":34.96529,"lng":134.036581,"zip":"7081531"},{"town":"高下","koaza":"","lat":34.927517,"lng":134.10511,"zip":"7081526"},{"town":"小瀬","koaza":"","lat":34.959531,"lng":134.048997,"zip":"7081532"},{"town":"小山","koaza":"","lat":34.983384,"lng":133.882315,"zip":"7093412"},{"town":"越尾","koaza":"","lat":35.007582,"lng":133.97955,"zip":"7093711"},{"town":"西幸","koaza":"","lat":34.972196,"lng":133.956057,"zip":"7093715"},{"town":"境","koaza":"","lat":34.954578,"lng":133.913203,"zip":"7093723"},{"town":"定宗","koaza":"","lat":34.947796,"lng":134.010054,"zip":"7081536"},{"town":"里","koaza":"","lat":34.992927,"lng":133.833117,"zip":"7093403"},{"town":"塩気","koaza":"","lat":34.984492,"lng":134.096377,"zip":"7081503"},{"town":"重藤","koaza":"","lat":34.980339,"lng":134.088286,"zip":"7081505"},{"town":"下谷","koaza":"","lat":34.968209,"lng":134.05401,"zip":"7081515"},{"town":"新城","koaza":"","lat":34.977915,"lng":133.979021,"zip":"7093713"},{"town":"周佐","koaza":"","lat":34.98423,"lng":134.038788,"zip":"7081544"},{"town":"惣田","koaza":"","lat":34.964411,"lng":134.077292,"zip":"7081522"},{"town":"大戸上","koaza":"","lat":34.960228,"lng":134.014274,"zip":"7081545"},{"town":"大戸下","koaza":"","lat":34.975751,"lng":134.024982,"zip":"7081546"},{"town":"高城","koaza":"","lat":34.947547,"lng":134.041744,"zip":"7081535"},{"town":"角石祖母","koaza":"","lat":34.951451,"lng":133.895841,"zip":"7093724"},{"town":"塚角","koaza":"","lat":34.994666,"lng":134.02221,"zip":"7081541"},{"town":"百々","koaza":"","lat":34.997795,"lng":134.063378,"zip":"7081507"},{"town":"栃原","koaza":"","lat":34.953701,"lng":133.848875,"zip":"7093413"},{"town":"中","koaza":"","lat":35.023953,"lng":133.824939,"zip":"7093407"},{"town":"中垪和","koaza":"","lat":34.968778,"lng":133.857489,"zip":"7093417"},{"town":"西","koaza":"","lat":34.965636,"lng":133.811762,"zip":"7093715"},{"town":"西川","koaza":"","lat":34.970065,"lng":133.828499,"zip":"7093404"},{"town":"西川上","koaza":"","lat":34.995879,"lng":133.804644,"zip":"7093406"},{"town":"錦織","koaza":"","lat":35.035785,"lng":133.9458,"zip":"7093701"},{"town":"西垪和","koaza":"","lat":34.960234,"lng":133.831788,"zip":"7093414"},{"town":"八神","koaza":"","lat":35.005903,"lng":134.008295,"zip":"7081547"},{"town":"羽仁","koaza":"","lat":35.007941,"lng":134.045644,"zip":"7081542"},{"town":"原田","koaza":"","lat":34.990079,"lng":133.957618,"zip":"7093717"},{"town":"東垪和","koaza":"","lat":34.971455,"lng":133.84692,"zip":"7093416"},{"town":"久木","koaza":"","lat":34.951975,"lng":134.052849,"zip":"7081533"},{"town":"藤田上","koaza":"","lat":34.968592,"lng":134.077139,"zip":"7081514"},{"town":"藤田下","koaza":"","lat":34.977771,"lng":134.077083,"zip":"7081513"},{"town":"藤原","koaza":"","lat":34.943923,"lng":134.062902,"zip":"7081534"},{"town":"松尾","koaza":"","lat":34.985613,"lng":134.072922,"zip":"7081512"},{"town":"南","koaza":"","lat":35.005104,"lng":133.860838,"zip":"7093402"},{"town":"宮山","koaza":"","lat":35.012077,"lng":134.076895,"zip":"7081502"},{"town":"安井","koaza":"","lat":35.013369,"lng":134.058081,"zip":"7081501"},{"town":"休石","koaza":"","lat":34.961291,"lng":134.074096,"zip":"7081521"},{"town":"柵原","koaza":"","lat":34.957943,"lng":134.063493,"zip":"7081527"},{"town":"飯岡","koaza":"","lat":34.936656,"lng":134.101553,"zip":"7081524"},{"town":"行信","koaza":"","lat":34.984956,"lng":134.061602,"zip":"7081511"},{"town":"吉留","koaza":"","lat":34.970544,"lng":134.095656,"zip":"7081504"},{"town":"頼元","koaza":"","lat":34.975312,"lng":133.943469,"zip":"7093716"},{"town":"両山寺","koaza":"","lat":34.976744,"lng":133.892059,"zip":"7093721"},{"town":"連石","koaza":"","lat":34.97367,"lng":134.055855,"zip":"7081516"},{"town":"和田北","koaza":"","lat":34.94581,"lng":133.866972,"zip":"7093725"}]