[{"town":"青江","koaza":"","lat":34.613175,"lng":133.757815,"zip":"7100064"},{"town":"浅原","koaza":"","lat":34.63247,"lng":133.76256,"zip":"7100007"},{"town":"阿知三丁目","koaza":"","lat":34.598702,"lng":133.766591,"zip":"7100055"},{"town":"天城台一丁目","koaza":"","lat":34.570626,"lng":133.807342,"zip":"7100131"},{"town":"天城台二丁目","koaza":"","lat":34.56868,"lng":133.80752,"zip":"7100131"},{"town":"天城台三丁目","koaza":"","lat":34.570977,"lng":133.809095,"zip":"7100131"},{"town":"天城台四丁目","koaza":"","lat":34.573593,"lng":133.810042,"zip":"7100131"},{"town":"有城","koaza":"","lat":34.572839,"lng":133.798208,"zip":"7100031"},{"town":"生坂","koaza":"","lat":34.632299,"lng":133.785178,"zip":"7100002"},{"town":"五日市","koaza":"","lat":34.598902,"lng":133.792855,"zip":"7100041"},{"town":"稲荷町","koaza":"","lat":34.595064,"lng":133.765941,"zip":"7100822"},{"town":"石見町","koaza":"","lat":34.600459,"lng":133.761978,"zip":"7100814"},{"town":"潮通一丁目","koaza":"","lat":34.505699,"lng":133.74572,"zip":"7128054"},{"town":"潮通二丁目","koaza":"","lat":34.493823,"lng":133.753091,"zip":"7128054"},{"town":"潮通三丁目","koaza":"","lat":34.503355,"lng":133.756233,"zip":"7128054"},{"town":"浦田","koaza":"","lat":34.56477,"lng":133.759775,"zip":"7100843"},{"town":"老松町一丁目","koaza":"","lat":34.597864,"lng":133.75798,"zip":"7100826"},{"town":"老松町二丁目","koaza":"","lat":34.596506,"lng":133.759476,"zip":"7100826"},{"town":"老松町三丁目","koaza":"","lat":34.595717,"lng":133.761996,"zip":"7100826"},{"town":"老松町四丁目","koaza":"","lat":34.593239,"lng":133.761004,"zip":"7100826"},{"town":"老松町五丁目","koaza":"","lat":34.594033,"lng":133.755886,"zip":"7100826"},{"town":"大内","koaza":"","lat":34.606742,"lng":133.753542,"zip":"7100817"},{"town":"大島","koaza":"","lat":34.605694,"lng":133.779442,"zip":"7100047"},{"town":"大畠","koaza":"","lat":34.434317,"lng":133.816615,"zip":"7110924"},{"town":"大畠一丁目","koaza":"","lat":34.44334,"lng":133.810685,"zip":"7110924"},{"town":"大畠二丁目","koaza":"","lat":34.438548,"lng":133.812082,"zip":"7110924"},{"town":"沖","koaza":"","lat":34.589135,"lng":133.752992,"zip":"7100836"},{"town":"沖新町","koaza":"","lat":34.5836,"lng":133.754731,"zip":"7100837"},{"town":"尾原","koaza":"","lat":34.51129,"lng":133.834556,"zip":"7100144"},{"town":"帯高","koaza":"","lat":34.58052,"lng":133.812053,"zip":"7100023"},{"town":"加須山","koaza":"","lat":34.585659,"lng":133.795805,"zip":"7100026"},{"town":"片島町","koaza":"","lat":34.574379,"lng":133.716625,"zip":"7100805"},{"town":"上富井","koaza":"","lat":34.581082,"lng":133.746808,"zip":"7100846"},{"town":"亀島一丁目","koaza":"","lat":34.535766,"lng":133.728808,"zip":"7128013"},{"town":"亀島二丁目","koaza":"","lat":34.539947,"lng":133.727083,"zip":"7128013"},{"town":"亀山","koaza":"","lat":34.583046,"lng":133.80286,"zip":"7100024"},{"town":"川入","koaza":"","lat":34.607836,"lng":133.759271,"zip":"7100811"},{"town":"川西町","koaza":"","lat":34.598098,"lng":133.764207,"zip":"7100821"},{"town":"神田一丁目","koaza":"","lat":34.536436,"lng":133.734087,"zip":"7128061"},{"town":"神田二丁目","koaza":"","lat":34.54071,"lng":133.736126,"zip":"7128061"},{"town":"神田三丁目","koaza":"","lat":34.542049,"lng":133.73156,"zip":"7128061"},{"town":"神田四丁目","koaza":"","lat":34.543496,"lng":133.728249,"zip":"7128061"},{"town":"北畝一丁目","koaza":"","lat":34.537376,"lng":133.747743,"zip":"7128032"},{"town":"北畝二丁目","koaza":"","lat":34.541692,"lng":133.748741,"zip":"7128032"},{"town":"北畝三丁目","koaza":"","lat":34.548057,"lng":133.750179,"zip":"7128032"},{"town":"北畝四丁目","koaza":"","lat":34.536659,"lng":133.757067,"zip":"7128032"},{"town":"北畝五丁目","koaza":"","lat":34.538637,"lng":133.754509,"zip":"7128032"},{"town":"北畝六丁目","koaza":"","lat":34.542425,"lng":133.753642,"zip":"7128032"},{"town":"北畝七丁目","koaza":"","lat":34.548285,"lng":133.751866,"zip":"7128032"},{"town":"北浜町","koaza":"","lat":34.607595,"lng":133.764009,"zip":"7100812"},{"town":"木見","koaza":"","lat":34.526796,"lng":133.834021,"zip":"7100143"},{"town":"串田","koaza":"","lat":34.546413,"lng":133.810746,"zip":"7100141"},{"town":"倉敷ハイツ","koaza":"","lat":34.582545,"lng":133.792021,"zip":"7100025"},{"town":"栗坂","koaza":"","lat":34.630064,"lng":133.825874,"zip":"7010113"},{"town":"黒石","koaza":"","lat":34.562689,"lng":133.776659,"zip":"7100035"},{"town":"黒崎","koaza":"","lat":34.606565,"lng":133.794512,"zip":"7100014"},{"town":"児島赤崎","koaza":"","lat":34.449581,"lng":133.798778,"zip":"7110931"},{"town":"児島赤崎一丁目","koaza":"","lat":34.459251,"lng":133.800418,"zip":"7110931"},{"town":"児島赤崎二丁目","koaza":"","lat":34.453927,"lng":133.797842,"zip":"7110931"},{"town":"児島赤崎三丁目","koaza":"","lat":34.458324,"lng":133.795334,"zip":"7110931"},{"town":"児島赤崎四丁目","koaza":"","lat":34.461895,"lng":133.793643,"zip":"7110931"},{"town":"児島味野","koaza":"","lat":34.462419,"lng":133.810833,"zip":"7110913"},{"town":"児島味野一丁目","koaza":"","lat":34.472182,"lng":133.80318,"zip":"7110913"},{"town":"児島味野二丁目","koaza":"","lat":34.468758,"lng":133.802281,"zip":"7110913"},{"town":"児島味野三丁目","koaza":"","lat":34.466845,"lng":133.800866,"zip":"7110913"},{"town":"児島味野四丁目","koaza":"","lat":34.463894,"lng":133.800152,"zip":"7110913"},{"town":"児島味野五丁目","koaza":"","lat":34.466481,"lng":133.795478,"zip":"7110913"},{"town":"児島味野六丁目","koaza":"","lat":34.468769,"lng":133.797873,"zip":"7110913"},{"town":"児島味野上一丁目","koaza":"","lat":34.47642,"lng":133.798188,"zip":"7110917"},{"town":"児島味野上二丁目","koaza":"","lat":34.479437,"lng":133.794982,"zip":"7110917"},{"town":"児島味野城一丁目","koaza":"","lat":34.473053,"lng":133.800437,"zip":"7110916"},{"town":"児島味野城二丁目","koaza":"","lat":34.471759,"lng":133.79712,"zip":"7110916"},{"town":"児島味野城山","koaza":"","lat":34.476781,"lng":133.78758,"zip":"7110916"},{"town":"児島味野山田町","koaza":"","lat":34.469556,"lng":133.79088,"zip":"7110915"},{"town":"児島阿津一丁目","koaza":"","lat":34.454707,"lng":133.806512,"zip":"7110923"},{"town":"児島阿津二丁目","koaza":"","lat":34.449765,"lng":133.805651,"zip":"7110923"},{"town":"児島阿津三丁目","koaza":"","lat":34.452217,"lng":133.800538,"zip":"7110923"},{"town":"児島宇野津","koaza":"","lat":34.502021,"lng":133.777087,"zip":"7110935"},{"town":"児島駅前一丁目","koaza":"","lat":34.464205,"lng":133.805322,"zip":"7110921"},{"town":"児島駅前二丁目","koaza":"","lat":34.466818,"lng":133.805521,"zip":"7110921"},{"town":"児島駅前三丁目","koaza":"","lat":34.461917,"lng":133.80837,"zip":"7110921"},{"town":"児島駅前四丁目","koaza":"","lat":34.460071,"lng":133.805406,"zip":"7110921"},{"town":"児島小川十丁目","koaza":"","lat":34.487071,"lng":133.809648,"zip":"7110911"},{"town":"児島小川一丁目","koaza":"","lat":34.469322,"lng":133.809011,"zip":"7110911"},{"town":"児島小川二丁目","koaza":"","lat":34.471551,"lng":133.810596,"zip":"7110911"},{"town":"児島小川三丁目","koaza":"","lat":34.472233,"lng":133.806127,"zip":"7110911"},{"town":"児島小川四丁目","koaza":"","lat":34.474915,"lng":133.807146,"zip":"7110911"},{"town":"児島小川五丁目","koaza":"","lat":34.477241,"lng":133.805081,"zip":"7110911"},{"town":"児島小川六丁目","koaza":"","lat":34.479166,"lng":133.803183,"zip":"7110911"},{"town":"児島小川七丁目","koaza":"","lat":34.482055,"lng":133.802605,"zip":"7110911"},{"town":"児島小川八丁目","koaza":"","lat":34.486644,"lng":133.801895,"zip":"7110911"},{"town":"児島小川九丁目","koaza":"","lat":34.490219,"lng":133.805779,"zip":"7110911"},{"town":"児島小川町","koaza":"","lat":34.482571,"lng":133.808434,"zip":"7110912"},{"town":"児島上の町","koaza":"","lat":34.497074,"lng":133.827184,"zip":"7110907"},{"town":"児島上の町一丁目","koaza":"","lat":34.483449,"lng":133.812389,"zip":"7110907"},{"town":"児島上の町二丁目","koaza":"","lat":34.490676,"lng":133.812954,"zip":"7110907"},{"town":"児島上の町三丁目","koaza":"","lat":34.492653,"lng":133.818236,"zip":"7110907"},{"town":"児島上の町四丁目","koaza":"","lat":34.487823,"lng":133.820416,"zip":"7110907"},{"town":"児島通生","koaza":"","lat":34.459392,"lng":133.781618,"zip":"7110933"},{"town":"児島唐琴一丁目","koaza":"","lat":34.471897,"lng":133.859152,"zip":"7110904"},{"town":"児島唐琴二丁目","koaza":"","lat":34.472426,"lng":133.862774,"zip":"7110904"},{"town":"児島唐琴三丁目","koaza":"","lat":34.469493,"lng":133.866123,"zip":"7110904"},{"town":"児島唐琴四丁目","koaza":"","lat":34.467876,"lng":133.864739,"zip":"7110904"},{"town":"児島唐琴町","koaza":"","lat":34.469444,"lng":133.87243,"zip":"7110905"},{"town":"児島塩生","koaza":"","lat":34.479668,"lng":133.77054,"zip":"7110934"},{"town":"児島下の町","koaza":"","lat":34.489233,"lng":133.833623,"zip":"7110906"},{"town":"児島下の町十丁目","koaza":"","lat":34.473277,"lng":133.826715,"zip":"7110906"},{"town":"児島下の町一丁目","koaza":"","lat":34.471,"lng":133.816778,"zip":"7110906"},{"town":"児島下の町二丁目","koaza":"","lat":34.472671,"lng":133.819894,"zip":"7110906"},{"town":"児島下の町三丁目","koaza":"","lat":34.476523,"lng":133.816628,"zip":"7110906"},{"town":"児島下の町四丁目","koaza":"","lat":34.48121,"lng":133.815284,"zip":"7110906"},{"town":"児島下の町五丁目","koaza":"","lat":34.480017,"lng":133.820933,"zip":"7110906"},{"town":"児島下の町六丁目","koaza":"","lat":34.483177,"lng":133.824453,"zip":"7110906"},{"town":"児島下の町七丁目","koaza":"","lat":34.479354,"lng":133.826468,"zip":"7110906"},{"town":"児島下の町八丁目","koaza":"","lat":34.481155,"lng":133.831475,"zip":"7110906"},{"town":"児島下の町九丁目","koaza":"","lat":34.47368,"lng":133.831388,"zip":"7110906"},{"town":"児島白尾","koaza":"","lat":34.4898,"lng":133.855633,"zip":"7110902"},{"town":"児島田の口","koaza":"","lat":34.484679,"lng":133.840935,"zip":"7110903"},{"town":"児島田の口一丁目","koaza":"","lat":34.478751,"lng":133.83419,"zip":"7110903"},{"town":"児島田の口二丁目","koaza":"","lat":34.477637,"lng":133.83896,"zip":"7110903"},{"town":"児島田の口三丁目","koaza":"","lat":34.475467,"lng":133.842307,"zip":"7110903"},{"town":"児島田の口四丁目","koaza":"","lat":34.478059,"lng":133.846955,"zip":"7110903"},{"town":"児島田の口五丁目","koaza":"","lat":34.473685,"lng":133.847629,"zip":"7110903"},{"town":"児島田の口六丁目","koaza":"","lat":34.471115,"lng":133.843127,"zip":"7110903"},{"town":"児島田の口七丁目","koaza":"","lat":34.473502,"lng":133.838761,"zip":"7110903"},{"town":"児島稗田町","koaza":"","lat":34.503745,"lng":133.804893,"zip":"7110937"},{"town":"児島元浜町","koaza":"","lat":34.453701,"lng":133.808957,"zip":"7110922"},{"town":"児島柳田町","koaza":"","lat":34.490274,"lng":133.789849,"zip":"7110936"},{"town":"児島由加","koaza":"","lat":34.505595,"lng":133.856441,"zip":"7110901"},{"town":"寿町","koaza":"","lat":34.603754,"lng":133.763745,"zip":"7100813"},{"town":"菰池","koaza":"","lat":34.450037,"lng":133.792537,"zip":"7110932"},{"town":"菰池一丁目","koaza":"","lat":34.453722,"lng":133.792029,"zip":"7110932"},{"town":"菰池二丁目","koaza":"","lat":34.453319,"lng":133.786647,"zip":"7110932"},{"town":"菰池三丁目","koaza":"","lat":34.45714,"lng":133.7897,"zip":"7110932"},{"town":"幸町","koaza":"","lat":34.604863,"lng":133.774657,"zip":"7100051"},{"town":"酒津","koaza":"","lat":34.615688,"lng":133.743919,"zip":"7100801"},{"town":"笹沖","koaza":"","lat":34.5767,"lng":133.765934,"zip":"7100834"},{"town":"四十瀬","koaza":"","lat":34.586009,"lng":133.749029,"zip":"7100835"},{"town":"下庄","koaza":"","lat":34.638387,"lng":133.827515,"zip":"7010112"},{"town":"下津井","koaza":"","lat":34.444792,"lng":133.784906,"zip":"7110927"},{"town":"下津井一丁目","koaza":"","lat":34.438043,"lng":133.797759,"zip":"7110927"},{"town":"下津井二丁目","koaza":"","lat":34.440283,"lng":133.79196,"zip":"7110927"},{"town":"下津井三丁目","koaza":"","lat":34.442573,"lng":133.789284,"zip":"7110927"},{"town":"下津井四丁目","koaza":"","lat":34.438435,"lng":133.78701,"zip":"7110927"},{"town":"下津井五丁目","koaza":"","lat":34.442583,"lng":133.782527,"zip":"7110927"},{"town":"下津井田之浦","koaza":"","lat":34.435197,"lng":133.811294,"zip":"7110925"},{"town":"下津井田之浦一丁目","koaza":"","lat":34.436707,"lng":133.806614,"zip":"7110925"},{"town":"下津井田之浦二丁目","koaza":"","lat":34.439912,"lng":133.805305,"zip":"7110925"},{"town":"下津井吹上","koaza":"","lat":34.444481,"lng":133.798924,"zip":"7110926"},{"town":"下津井吹上一丁目","koaza":"","lat":34.439843,"lng":133.802411,"zip":"7110926"},{"town":"下津井吹上二丁目","koaza":"","lat":34.439992,"lng":133.799616,"zip":"7110926"},{"town":"庄新町","koaza":"","lat":34.660622,"lng":133.82505,"zip":"7010102"},{"town":"上東","koaza":"","lat":34.647483,"lng":133.823213,"zip":"7010111"},{"town":"新倉敷駅前一丁目","koaza":"","lat":34.56285,"lng":133.67819,"zip":"7100253"},{"town":"新倉敷駅前二丁目","koaza":"","lat":34.565165,"lng":133.680672,"zip":"7100253"},{"town":"新倉敷駅前三丁目","koaza":"","lat":34.563775,"lng":133.682676,"zip":"7100253"},{"town":"新倉敷駅前四丁目","koaza":"","lat":34.560847,"lng":133.680514,"zip":"7100253"},{"town":"新倉敷駅前五丁目","koaza":"","lat":34.559999,"lng":133.677199,"zip":"7100253"},{"town":"新田","koaza":"","lat":34.580013,"lng":133.778885,"zip":"7100038"},{"town":"祐安","koaza":"","lat":34.619174,"lng":133.758333,"zip":"7100006"},{"town":"曽原","koaza":"","lat":34.53566,"lng":133.798354,"zip":"7100146"},{"town":"高須賀","koaza":"","lat":34.586574,"lng":133.822203,"zip":"7100021"},{"town":"田ノ上","koaza":"","lat":34.588549,"lng":133.758096,"zip":"7100831"},{"town":"田ノ上新町","koaza":"","lat":34.585458,"lng":133.756063,"zip":"7100832"},{"town":"玉島","koaza":"","lat":34.552789,"lng":133.684793,"zip":"7138102"},{"town":"玉島一丁目","koaza":"","lat":34.545573,"lng":133.675403,"zip":"7138102"},{"town":"玉島二丁目","koaza":"","lat":34.541826,"lng":133.676724,"zip":"7138102"},{"town":"玉島三丁目","koaza":"","lat":34.539454,"lng":133.672185,"zip":"7138102"},{"town":"玉島阿賀崎","koaza":"","lat":34.544535,"lng":133.658244,"zip":"7138121"},{"town":"玉島阿賀崎一丁目","koaza":"","lat":34.550685,"lng":133.67642,"zip":"7138121"},{"town":"玉島阿賀崎二丁目","koaza":"","lat":34.549336,"lng":133.672727,"zip":"7138121"},{"town":"玉島阿賀崎三丁目","koaza":"","lat":34.549566,"lng":133.670417,"zip":"7138121"},{"town":"玉島阿賀崎四丁目","koaza":"","lat":34.549868,"lng":133.667756,"zip":"7138121"},{"town":"玉島阿賀崎五丁目","koaza":"","lat":34.552876,"lng":133.669255,"zip":"7138121"},{"town":"玉島上成","koaza":"","lat":34.559959,"lng":133.692708,"zip":"7138101"},{"town":"玉島柏島","koaza":"","lat":34.531936,"lng":133.658119,"zip":"7138123"},{"town":"玉島柏台一丁目","koaza":"","lat":34.533682,"lng":133.650199,"zip":"7138124"},{"town":"玉島柏台二丁目","koaza":"","lat":34.532465,"lng":133.648969,"zip":"7138124"},{"town":"玉島柏台三丁目","koaza":"","lat":34.531315,"lng":133.652038,"zip":"7138124"},{"town":"玉島柏台四丁目","koaza":"","lat":34.530462,"lng":133.649421,"zip":"7138124"},{"town":"玉島柏台五丁目","koaza":"","lat":34.528842,"lng":133.653268,"zip":"7138124"},{"town":"玉島黒崎","koaza":"","lat":34.514239,"lng":133.635141,"zip":"7138126"},{"town":"玉島黒崎新町","koaza":"","lat":34.515027,"lng":133.649915,"zip":"7138127"},{"town":"玉島陶","koaza":"","lat":34.591353,"lng":133.66571,"zip":"7138112"},{"town":"玉島中央町一丁目","koaza":"","lat":34.544015,"lng":133.672216,"zip":"7138122"},{"town":"玉島中央町二丁目","koaza":"","lat":34.546307,"lng":133.669872,"zip":"7138122"},{"town":"玉島中央町三丁目","koaza":"","lat":34.544046,"lng":133.669372,"zip":"7138122"},{"town":"玉島爪崎","koaza":"","lat":34.561119,"lng":133.684421,"zip":"7100252"},{"town":"玉島富","koaza":"","lat":34.576591,"lng":133.631395,"zip":"7138116"},{"town":"玉島長尾","koaza":"","lat":34.575487,"lng":133.680785,"zip":"7100251"},{"town":"玉島服部","koaza":"","lat":34.606991,"lng":133.683251,"zip":"7138111"},{"town":"玉島道口","koaza":"","lat":34.57312,"lng":133.6489,"zip":"7138115"},{"town":"玉島道越","koaza":"","lat":34.553444,"lng":133.656437,"zip":"7138114"},{"town":"玉島八島","koaza":"","lat":34.564064,"lng":133.665141,"zip":"7138113"},{"town":"玉島勇崎","koaza":"","lat":34.526587,"lng":133.644459,"zip":"7138125"},{"town":"茶屋町","koaza":"","lat":34.578075,"lng":133.831108,"zip":"7101101"},{"town":"茶屋町早沖","koaza":"","lat":34.588636,"lng":133.835585,"zip":"7101102"},{"town":"中央一丁目","koaza":"","lat":34.591933,"lng":133.771328,"zip":"7100046"},{"town":"中央二丁目","koaza":"","lat":34.593233,"lng":133.768936,"zip":"7100046"},{"town":"粒浦","koaza":"","lat":34.569069,"lng":133.786115,"zip":"7100036"},{"town":"粒江","koaza":"","lat":34.55211,"lng":133.798275,"zip":"7100034"},{"town":"粒江団地","koaza":"","lat":34.563454,"lng":133.804359,"zip":"7100033"},{"town":"連島一丁目","koaza":"","lat":34.545281,"lng":133.737775,"zip":"7128012"},{"town":"連島二丁目","koaza":"","lat":34.548901,"lng":133.739284,"zip":"7128012"},{"town":"連島三丁目","koaza":"","lat":34.551446,"lng":133.743357,"zip":"7128012"},{"town":"連島四丁目","koaza":"","lat":34.552367,"lng":133.741348,"zip":"7128012"},{"town":"連島五丁目","koaza":"","lat":34.550923,"lng":133.738055,"zip":"7128012"},{"town":"連島中央一丁目","koaza":"","lat":34.546524,"lng":133.733777,"zip":"7128014"},{"town":"連島中央二丁目","koaza":"","lat":34.5496,"lng":133.733806,"zip":"7128014"},{"town":"連島中央三丁目","koaza":"","lat":34.548588,"lng":133.730859,"zip":"7128014"},{"town":"連島中央四丁目","koaza":"","lat":34.5477,"lng":133.729268,"zip":"7128014"},{"town":"連島中央五丁目","koaza":"","lat":34.546397,"lng":133.724828,"zip":"7128014"},{"town":"連島町亀島新田","koaza":"","lat":34.550201,"lng":133.726922,"zip":"7128002"},{"town":"連島町連島","koaza":"","lat":34.562098,"lng":133.738436,"zip":"7128011"},{"town":"連島町鶴新田","koaza":"","lat":34.538777,"lng":133.711384,"zip":"7128006"},{"town":"連島町西之浦","koaza":"","lat":34.555971,"lng":133.710605,"zip":"7128001"},{"town":"連島町矢柄","koaza":"","lat":34.560822,"lng":133.723064,"zip":"7128015"},{"town":"鶴形一丁目","koaza":"","lat":34.600881,"lng":133.771605,"zip":"7100056"},{"town":"鶴形二丁目","koaza":"","lat":34.598862,"lng":133.772333,"zip":"7100056"},{"town":"鶴の浦一丁目","koaza":"","lat":34.551029,"lng":133.704529,"zip":"7128007"},{"town":"鶴の浦二丁目","koaza":"","lat":34.544238,"lng":133.705796,"zip":"7128007"},{"town":"鶴の浦三丁目","koaza":"","lat":34.548192,"lng":133.710222,"zip":"7128007"},{"town":"徳芳","koaza":"","lat":34.624237,"lng":133.817948,"zip":"7100011"},{"town":"鳥羽","koaza":"","lat":34.619399,"lng":133.809599,"zip":"7100012"},{"town":"中帯江","koaza":"","lat":34.601284,"lng":133.801744,"zip":"7100013"},{"town":"中島","koaza":"","lat":34.580676,"lng":133.734368,"zip":"7100803"},{"town":"中庄","koaza":"","lat":34.618986,"lng":133.79578,"zip":"7100016"},{"town":"中庄団地","koaza":"","lat":34.612934,"lng":133.790682,"zip":"7100015"},{"town":"中畝十丁目","koaza":"","lat":34.534093,"lng":133.753271,"zip":"7128051"},{"town":"中畝一丁目","koaza":"","lat":34.525751,"lng":133.744462,"zip":"7128051"},{"town":"中畝二丁目","koaza":"","lat":34.526852,"lng":133.746792,"zip":"7128051"},{"town":"中畝三丁目","koaza":"","lat":34.529777,"lng":133.745985,"zip":"7128051"},{"town":"中畝四丁目","koaza":"","lat":34.531959,"lng":133.746474,"zip":"7128051"},{"town":"中畝五丁目","koaza":"","lat":34.534353,"lng":133.747033,"zip":"7128051"},{"town":"中畝六丁目","koaza":"","lat":34.523766,"lng":133.751601,"zip":"7128051"},{"town":"中畝七丁目","koaza":"","lat":34.525259,"lng":133.752861,"zip":"7128051"},{"town":"中畝八丁目","koaza":"","lat":34.528703,"lng":133.753026,"zip":"7128051"},{"town":"中畝九丁目","koaza":"","lat":34.531763,"lng":133.753161,"zip":"7128051"},{"town":"西阿知町","koaza":"","lat":34.589951,"lng":133.73194,"zip":"7100807"},{"town":"西阿知町新田","koaza":"","lat":34.572284,"lng":133.727412,"zip":"7100804"},{"town":"西阿知町西原","koaza":"","lat":34.588483,"lng":133.721052,"zip":"7100806"},{"town":"西尾","koaza":"","lat":34.655549,"lng":133.826046,"zip":"7010103"},{"town":"西岡","koaza":"","lat":34.618756,"lng":133.767899,"zip":"7100005"},{"town":"西坂","koaza":"","lat":34.630666,"lng":133.774329,"zip":"7100004"},{"town":"西田","koaza":"","lat":34.59315,"lng":133.810926,"zip":"7100027"},{"town":"西富井","koaza":"","lat":34.574114,"lng":133.747411,"zip":"7100845"},{"town":"西中新田","koaza":"","lat":34.582184,"lng":133.761643,"zip":"7100833"},{"town":"白楽町","koaza":"","lat":34.588619,"lng":133.766755,"zip":"7100824"},{"town":"羽島","koaza":"","lat":34.595696,"lng":133.784775,"zip":"7100043"},{"town":"八王寺町","koaza":"","lat":34.600914,"lng":133.751472,"zip":"7100816"},{"town":"八軒屋","koaza":"","lat":34.57493,"lng":133.787965,"zip":"7100037"},{"town":"浜ノ茶屋","koaza":"","lat":34.613257,"lng":133.769944,"zip":"7100061"},{"town":"浜ノ茶屋一丁目","koaza":"","lat":34.61108,"lng":133.769963,"zip":"7100061"},{"town":"浜ノ茶屋二丁目","koaza":"","lat":34.612088,"lng":133.772799,"zip":"7100061"},{"town":"浜町一丁目","koaza":"","lat":34.607919,"lng":133.76874,"zip":"7100062"},{"town":"浜町二丁目","koaza":"","lat":34.608341,"lng":133.772658,"zip":"7100062"},{"town":"林","koaza":"","lat":34.533262,"lng":133.813534,"zip":"7100142"},{"town":"早高","koaza":"","lat":34.589493,"lng":133.816333,"zip":"7100022"},{"town":"東塚一丁目","koaza":"","lat":34.523747,"lng":133.758904,"zip":"7128044"},{"town":"東塚二丁目","koaza":"","lat":34.526163,"lng":133.758998,"zip":"7128044"},{"town":"東塚三丁目","koaza":"","lat":34.528989,"lng":133.759095,"zip":"7128044"},{"town":"東塚四丁目","koaza":"","lat":34.532633,"lng":133.759209,"zip":"7128044"},{"town":"東塚五丁目","koaza":"","lat":34.529266,"lng":133.764905,"zip":"7128044"},{"town":"東塚六丁目","koaza":"","lat":34.526048,"lng":133.766119,"zip":"7128044"},{"town":"東塚七丁目","koaza":"","lat":34.523556,"lng":133.76565,"zip":"7128044"},{"town":"東粒浦","koaza":"","lat":34.566317,"lng":133.798997,"zip":"7100032"},{"town":"東富井","koaza":"","lat":34.574541,"lng":133.75441,"zip":"7100847"},{"town":"東町","koaza":"","lat":34.596061,"lng":133.777318,"zip":"7100053"},{"town":"日ノ出町二丁目","koaza":"","lat":34.607918,"lng":133.766186,"zip":"7100063"},{"town":"日畑","koaza":"","lat":34.658664,"lng":133.832148,"zip":"7010101"},{"town":"日吉町","koaza":"","lat":34.601361,"lng":133.757129,"zip":"7100815"},{"town":"平田","koaza":"","lat":34.614686,"lng":133.779601,"zip":"7100003"},{"town":"広江一丁目","koaza":"","lat":34.520082,"lng":133.773935,"zip":"7128043"},{"town":"広江二丁目","koaza":"","lat":34.526284,"lng":133.772049,"zip":"7128043"},{"town":"広江三丁目","koaza":"","lat":34.526761,"lng":133.7769,"zip":"7128043"},{"town":"広江四丁目","koaza":"","lat":34.528827,"lng":133.781762,"zip":"7128043"},{"town":"広江五丁目","koaza":"","lat":34.525859,"lng":133.782287,"zip":"7128043"},{"town":"広江六丁目","koaza":"","lat":34.521554,"lng":133.78021,"zip":"7128043"},{"town":"広江七丁目","koaza":"","lat":34.523035,"lng":133.787652,"zip":"7128043"},{"town":"広江八丁目","koaza":"","lat":34.528898,"lng":133.791728,"zip":"7128043"},{"town":"福井","koaza":"","lat":34.568132,"lng":133.749847,"zip":"7100844"},{"town":"福江","koaza":"","lat":34.520502,"lng":133.803175,"zip":"7100145"},{"town":"福島","koaza":"","lat":34.604056,"lng":133.783376,"zip":"7100048"},{"town":"福田町浦田","koaza":"","lat":34.556511,"lng":133.765159,"zip":"7128031"},{"town":"福田町古新田","koaza":"","lat":34.539606,"lng":133.765395,"zip":"7128046"},{"town":"福田町東塚","koaza":"","lat":34.53422,"lng":133.761312,"zip":"7128045"},{"town":"福田町広江","koaza":"","lat":34.518004,"lng":133.784976,"zip":"7128042"},{"town":"福田町福田","koaza":"","lat":34.543491,"lng":133.778444,"zip":"7128041"},{"town":"福田町南畝","koaza":"","lat":34.513024,"lng":133.743507,"zip":"7100000"},{"town":"藤戸町天城","koaza":"","lat":34.568998,"lng":133.814446,"zip":"7100132"},{"town":"藤戸町藤戸","koaza":"","lat":34.558824,"lng":133.819169,"zip":"7100133"},{"town":"二子","koaza":"","lat":34.640028,"lng":133.808608,"zip":"7010115"},{"town":"二日市","koaza":"","lat":34.590167,"lng":133.792953,"zip":"7100042"},{"town":"船穂町船穂","koaza":"","lat":34.581759,"lng":133.70211,"zip":"7100261"},{"town":"船穂町水江","koaza":"","lat":34.598986,"lng":133.720071,"zip":"7100262"},{"town":"船穂町柳井原","koaza":"","lat":34.61346,"lng":133.718286,"zip":"7100263"},{"town":"船倉町","koaza":"","lat":34.591498,"lng":133.773294,"zip":"7100045"},{"town":"堀南","koaza":"","lat":34.573667,"lng":133.758151,"zip":"7100841"},{"town":"本町","koaza":"","lat":34.596249,"lng":133.774176,"zip":"7100054"},{"town":"松江一丁目","koaza":"","lat":34.519701,"lng":133.758771,"zip":"7128052"},{"town":"松江二丁目","koaza":"","lat":34.515598,"lng":133.758636,"zip":"7128052"},{"town":"松江三丁目","koaza":"","lat":34.511477,"lng":133.755565,"zip":"7128052"},{"town":"松江四丁目","koaza":"","lat":34.514706,"lng":133.766032,"zip":"7128052"},{"town":"松島","koaza":"","lat":34.63129,"lng":133.813464,"zip":"7010114"},{"town":"真備町有井","koaza":"","lat":34.634303,"lng":133.704639,"zip":"7101306"},{"town":"真備町市場","koaza":"","lat":34.651391,"lng":133.680804,"zip":"7101305"},{"town":"真備町岡田","koaza":"","lat":34.649529,"lng":133.70454,"zip":"7101311"},{"town":"真備町尾崎","koaza":"","lat":34.629486,"lng":133.668408,"zip":"7101304"},{"town":"真備町上二万","koaza":"","lat":34.606274,"lng":133.703461,"zip":"7101315"},{"town":"真備町川辺","koaza":"","lat":34.633831,"lng":133.718809,"zip":"7101313"},{"town":"真備町下二万","koaza":"","lat":34.619784,"lng":133.70954,"zip":"7101314"},{"town":"真備町妹","koaza":"","lat":34.624253,"lng":133.644787,"zip":"7101303"},{"town":"真備町辻田","koaza":"","lat":34.650028,"lng":133.716729,"zip":"7101312"},{"town":"真備町服部","koaza":"","lat":34.614314,"lng":133.670568,"zip":"7101302"},{"town":"真備町箭田","koaza":"","lat":34.626403,"lng":133.688409,"zip":"7101301"},{"town":"水江","koaza":"","lat":34.603918,"lng":133.737793,"zip":"7100802"},{"town":"水島相生町","koaza":"","lat":34.550587,"lng":133.749089,"zip":"7128039"},{"town":"水島青葉町","koaza":"","lat":34.534908,"lng":133.738038,"zip":"7128064"},{"town":"水島海岸通一丁目","koaza":"","lat":34.525702,"lng":133.733777,"zip":"7128071"},{"town":"水島海岸通二丁目","koaza":"","lat":34.519952,"lng":133.73366,"zip":"7128071"},{"town":"水島海岸通三丁目","koaza":"","lat":34.514446,"lng":133.733336,"zip":"7128071"},{"town":"水島海岸通四丁目","koaza":"","lat":34.509692,"lng":133.733451,"zip":"7128071"},{"town":"水島海岸通五丁目","koaza":"","lat":34.5032,"lng":133.728922,"zip":"7128071"},{"town":"水島川崎通一丁目","koaza":"","lat":34.507474,"lng":133.714843,"zip":"7128074"},{"town":"水島北春日町","koaza":"","lat":34.544836,"lng":133.742969,"zip":"7128024"},{"town":"水島北亀島町","koaza":"","lat":34.532276,"lng":133.726799,"zip":"7128005"},{"town":"水島北幸町","koaza":"","lat":34.540579,"lng":133.740684,"zip":"7128062"},{"town":"水島北瑞穂町","koaza":"","lat":34.548304,"lng":133.742553,"zip":"7128027"},{"town":"水島北緑町","koaza":"","lat":34.548657,"lng":133.745144,"zip":"7128022"},{"town":"水島高砂町","koaza":"","lat":34.530396,"lng":133.735995,"zip":"7128066"},{"town":"水島中通一丁目","koaza":"","lat":34.525669,"lng":133.727396,"zip":"7128072"},{"town":"水島中通二丁目","koaza":"","lat":34.520103,"lng":133.727345,"zip":"7128072"},{"town":"水島中通三丁目","koaza":"","lat":34.514387,"lng":133.726981,"zip":"7128072"},{"town":"水島中通四丁目","koaza":"","lat":34.509657,"lng":133.727029,"zip":"7128072"},{"town":"水島西寿町","koaza":"","lat":34.546896,"lng":133.746674,"zip":"7128038"},{"town":"水島西栄町","koaza":"","lat":34.538584,"lng":133.742646,"zip":"7128034"},{"town":"水島西千鳥町","koaza":"","lat":34.529612,"lng":133.738692,"zip":"7128065"},{"town":"水島西通一丁目","koaza":"","lat":34.525832,"lng":133.722021,"zip":"7128073"},{"town":"水島西通二丁目","koaza":"","lat":34.519832,"lng":133.72226,"zip":"7128073"},{"town":"水島西常盤町","koaza":"","lat":34.53418,"lng":133.74071,"zip":"7128059"},{"town":"水島西弥生町","koaza":"","lat":34.542963,"lng":133.744767,"zip":"7128036"},{"town":"水島東川町","koaza":"","lat":34.550289,"lng":133.746038,"zip":"7128021"},{"town":"水島東寿町","koaza":"","lat":34.54648,"lng":133.748087,"zip":"7128037"},{"town":"水島東栄町","koaza":"","lat":34.537998,"lng":133.744234,"zip":"7128033"},{"town":"水島東千鳥町","koaza":"","lat":34.529298,"lng":133.740536,"zip":"7128057"},{"town":"水島東常盤町","koaza":"","lat":34.533625,"lng":133.74234,"zip":"7128058"},{"town":"水島東弥生町","koaza":"","lat":34.542435,"lng":133.746243,"zip":"7128035"},{"town":"水島福崎町","koaza":"","lat":34.525863,"lng":133.738773,"zip":"7128056"},{"town":"水島南春日町","koaza":"","lat":34.542701,"lng":133.741792,"zip":"7128025"},{"town":"水島南亀島町","koaza":"","lat":34.529624,"lng":133.726528,"zip":"7128004"},{"town":"水島南幸町","koaza":"","lat":34.538326,"lng":133.739609,"zip":"7128063"},{"town":"水島南瑞穂町","koaza":"","lat":34.544451,"lng":133.740236,"zip":"7128026"},{"town":"水島南緑町","koaza":"","lat":34.546852,"lng":133.744118,"zip":"7128023"},{"town":"水島明神町","koaza":"","lat":34.531454,"lng":133.732632,"zip":"7128003"},{"town":"三田","koaza":"","lat":34.63291,"lng":133.796516,"zip":"7100001"},{"town":"南畝一丁目","koaza":"","lat":34.521134,"lng":133.74087,"zip":"7128055"},{"town":"南畝二丁目","koaza":"","lat":34.521353,"lng":133.743583,"zip":"7128055"},{"town":"南畝三丁目","koaza":"","lat":34.521308,"lng":133.746067,"zip":"7128055"},{"town":"南畝四丁目","koaza":"","lat":34.513997,"lng":133.746617,"zip":"7128055"},{"town":"南畝五丁目","koaza":"","lat":34.521193,"lng":133.74852,"zip":"7128055"},{"town":"南畝六丁目","koaza":"","lat":34.517234,"lng":133.751579,"zip":"7128055"},{"town":"南畝七丁目","koaza":"","lat":34.518122,"lng":133.753826,"zip":"7128055"},{"town":"南町","koaza":"","lat":34.592909,"lng":133.766114,"zip":"7100823"},{"town":"宮前","koaza":"","lat":34.612335,"lng":133.763432,"zip":"7100065"},{"town":"美和一丁目","koaza":"","lat":34.601334,"lng":133.775948,"zip":"7100052"},{"town":"美和二丁目","koaza":"","lat":34.598754,"lng":133.776131,"zip":"7100052"},{"town":"向山","koaza":"","lat":34.590261,"lng":133.777944,"zip":"7100044"},{"town":"安江","koaza":"","lat":34.59558,"lng":133.750225,"zip":"7100825"},{"town":"矢部","koaza":"","lat":34.663481,"lng":133.814013,"zip":"7010105"},{"town":"山地","koaza":"","lat":34.653982,"lng":133.810933,"zip":"7010104"},{"town":"吉岡","koaza":"","lat":34.568569,"lng":133.767601,"zip":"7100842"},{"town":"呼松一丁目","koaza":"","lat":34.515282,"lng":133.771237,"zip":"7128053"},{"town":"呼松二丁目","koaza":"","lat":34.511199,"lng":133.771392,"zip":"7128053"},{"town":"呼松三丁目","koaza":"","lat":34.508967,"lng":133.769918,"zip":"7128053"},{"town":"呼松町","koaza":"","lat":34.513687,"lng":133.775308,"zip":"7128053"},{"town":"日ノ出町一丁目","koaza":"","lat":34.605294,"lng":133.768923,"zip":"7100063"},{"town":"阿知二丁目","koaza":"","lat":34.599602,"lng":133.768942,"zip":"7100055"},{"town":"玉島乙島","koaza":"","lat":34.522543,"lng":133.676441,"zip":"7138103"},{"town":"阿知一丁目","koaza":"","lat":34.601736,"lng":133.766382,"zip":"7100055"},{"town":"昭和一丁目","koaza":"","lat":34.604836,"lng":133.77098,"zip":"7100057"},{"town":"昭和二丁目","koaza":"","lat":34.603379,"lng":133.7714,"zip":"7100057"},{"town":"中島","koaza":"小溝","lat":34.571983,"lng":133.739789,"zip":"7100803"},{"town":"中島","koaza":"松之内","lat":34.58162,"lng":133.740361,"zip":"7100803"},{"town":"笹沖","koaza":"太田山","lat":34.580611,"lng":133.771521,"zip":"7100834"},{"town":"松島","koaza":"堤中","lat":34.630679,"lng":133.805235,"zip":"7010114"}]