[{"town":"麻宇那","koaza":"","lat":34.752583,"lng":134.238499,"zip":"7050032"},{"town":"伊里中","koaza":"","lat":34.75822,"lng":134.216324,"zip":"7050023"},{"town":"伊部","koaza":"","lat":34.740677,"lng":134.160033,"zip":"7050001"},{"town":"浦伊部","koaza":"","lat":34.730296,"lng":134.17978,"zip":"7050002"},{"town":"大内","koaza":"","lat":34.742222,"lng":134.13566,"zip":"7050003"},{"town":"香登西","koaza":"","lat":34.736462,"lng":134.115449,"zip":"7050011"},{"town":"香登本","koaza":"","lat":34.740372,"lng":134.124739,"zip":"7050012"},{"town":"木谷","koaza":"","lat":34.761373,"lng":134.225675,"zip":"7050035"},{"town":"久々井","koaza":"","lat":34.71988,"lng":134.181859,"zip":"7050024"},{"town":"坂根","koaza":"","lat":34.734041,"lng":134.107786,"zip":"7050016"},{"town":"佐山","koaza":"","lat":34.698112,"lng":134.172417,"zip":"7050026"},{"town":"蕃山","koaza":"","lat":34.759905,"lng":134.260629,"zip":"7050031"},{"town":"閑谷","koaza":"","lat":34.783112,"lng":134.216109,"zip":"7050036"},{"town":"新庄","koaza":"","lat":34.710739,"lng":134.117363,"zip":"7050014"},{"town":"鶴海","koaza":"","lat":34.704794,"lng":134.202939,"zip":"7050025"},{"town":"友延","koaza":"","lat":34.746665,"lng":134.218998,"zip":"7050034"},{"town":"西片上","koaza":"","lat":34.752139,"lng":134.180238,"zip":"7050021"},{"town":"野谷","koaza":"","lat":34.810215,"lng":134.259578,"zip":"7050131"},{"town":"畠田","koaza":"","lat":34.722239,"lng":134.116058,"zip":"7050015"},{"town":"東片上","koaza":"","lat":34.74945,"lng":134.199755,"zip":"7050022"},{"town":"日生町大多府","koaza":"","lat":34.683593,"lng":134.294795,"zip":"7013203"},{"town":"日生町寺山","koaza":"","lat":34.770216,"lng":134.321431,"zip":"7013201"},{"town":"福田","koaza":"","lat":34.723517,"lng":134.131912,"zip":"7050013"},{"town":"穂浪","koaza":"","lat":34.72976,"lng":134.240693,"zip":"7050033"},{"town":"三石","koaza":"","lat":34.797971,"lng":134.290285,"zip":"7050132"},{"town":"八木山","koaza":"","lat":34.782308,"lng":134.254929,"zip":"7050133"},{"town":"吉永町今崎","koaza":"","lat":34.835879,"lng":134.247708,"zip":"7090213"},{"town":"吉永町岩崎","koaza":"","lat":34.831393,"lng":134.217546,"zip":"7090226"},{"town":"吉永町加賀美","koaza":"","lat":34.918831,"lng":134.2432,"zip":"7090301"},{"town":"吉永町金谷","koaza":"","lat":34.811843,"lng":134.243521,"zip":"7090221"},{"town":"吉永町神根本","koaza":"","lat":34.84654,"lng":134.23503,"zip":"7090212"},{"town":"吉永町笹目","koaza":"","lat":34.873993,"lng":134.197086,"zip":"7090304"},{"town":"吉永町高田","koaza":"","lat":34.867487,"lng":134.244203,"zip":"7090211"},{"town":"吉永町多麻","koaza":"","lat":34.9163,"lng":134.273736,"zip":"7090302"},{"town":"吉永町都留岐","koaza":"","lat":34.896438,"lng":134.221203,"zip":"7090303"},{"town":"吉永町福満","koaza":"","lat":34.811711,"lng":134.225328,"zip":"7090222"},{"town":"吉永町三股","koaza":"","lat":34.817266,"lng":134.204715,"zip":"7090225"},{"town":"吉永町南方","koaza":"","lat":34.800059,"lng":134.201897,"zip":"7090223"},{"town":"吉永町吉永中","koaza":"","lat":34.813022,"lng":134.206566,"zip":"7090224"},{"town":"吉永町和意谷","koaza":"","lat":34.862727,"lng":134.216237,"zip":"7090214"},{"town":"日生町日生","koaza":"","lat":34.734865,"lng":134.275084,"zip":"7013204"},{"town":"日生町寒河","koaza":"","lat":34.744779,"lng":134.29341,"zip":"7013202"},{"town":"西片上","koaza":"北","lat":34.742493,"lng":134.184748,"zip":"7050021"},{"town":"穂浪","koaza":"小柳","lat":34.727337,"lng":134.234671,"zip":"7050033"}]