[{"town":"粟井谷","koaza":"","lat":34.92778,"lng":133.76021,"zip":"7092672"},{"town":"案田","koaza":"","lat":34.907833,"lng":133.815329,"zip":"7092403"},{"town":"井原","koaza":"","lat":34.896386,"lng":133.756221,"zip":"7092552"},{"town":"上田西","koaza":"","lat":34.882651,"lng":133.81159,"zip":"7092413"},{"town":"上田東","koaza":"","lat":34.895387,"lng":133.835717,"zip":"7092411"},{"town":"上野","koaza":"","lat":34.84445,"lng":133.775017,"zip":"7092344"},{"town":"円城","koaza":"","lat":34.89144,"lng":133.807737,"zip":"7092412"},{"town":"大木","koaza":"","lat":34.905536,"lng":133.779102,"zip":"7092663"},{"town":"尾原","koaza":"","lat":34.908904,"lng":133.737262,"zip":"7092673"},{"town":"上加茂","koaza":"","lat":34.844753,"lng":133.805954,"zip":"7092341"},{"town":"上竹","koaza":"","lat":34.837577,"lng":133.664187,"zip":"7161131"},{"town":"加茂市場","koaza":"","lat":34.861581,"lng":133.760656,"zip":"7092333"},{"town":"神瀬","koaza":"","lat":34.915265,"lng":133.841966,"zip":"7092401"},{"town":"北","koaza":"","lat":34.811651,"lng":133.706137,"zip":"7161551"},{"town":"黒土","koaza":"","lat":34.853225,"lng":133.706163,"zip":"7161102"},{"town":"黒山","koaza":"","lat":34.79511,"lng":133.765604,"zip":"7161242"},{"town":"小森","koaza":"","lat":34.929634,"lng":133.808791,"zip":"7092404"},{"town":"笹目","koaza":"","lat":34.918714,"lng":133.721002,"zip":"7092674"},{"town":"下加茂","koaza":"","lat":34.86159,"lng":133.817298,"zip":"7092331"},{"town":"下土井","koaza":"","lat":34.881217,"lng":133.764334,"zip":"7092551"},{"town":"杉谷","koaza":"","lat":34.942692,"lng":133.75518,"zip":"7092671"},{"town":"岨谷","koaza":"","lat":34.773173,"lng":133.701176,"zip":"7161552"},{"town":"高富","koaza":"","lat":34.919066,"lng":133.823881,"zip":"7092402"},{"town":"高谷","koaza":"","lat":34.857819,"lng":133.775496,"zip":"7092332"},{"town":"竹荘","koaza":"","lat":34.864677,"lng":133.678553,"zip":"7161122"},{"town":"竹部","koaza":"","lat":34.824504,"lng":133.782444,"zip":"7092343"},{"town":"田土","koaza":"","lat":34.862175,"lng":133.729311,"zip":"7161111"},{"town":"富永","koaza":"","lat":34.881838,"lng":133.750784,"zip":"7092553"},{"town":"豊岡上","koaza":"","lat":34.911004,"lng":133.763241,"zip":"7092664"},{"town":"豊岡下","koaza":"","lat":34.923386,"lng":133.781549,"zip":"7092661"},{"town":"豊野","koaza":"","lat":34.882886,"lng":133.71081,"zip":"7161101"},{"town":"西","koaza":"","lat":34.800417,"lng":133.67678,"zip":"7161554"},{"town":"納地","koaza":"","lat":34.831711,"lng":133.696471,"zip":"7161121"},{"town":"平岡","koaza":"","lat":34.849114,"lng":133.790746,"zip":"7092345"},{"town":"広面","koaza":"","lat":34.826997,"lng":133.806725,"zip":"7092342"},{"town":"福沢","koaza":"","lat":34.934999,"lng":133.729273,"zip":"7092675"},{"town":"船津","koaza":"","lat":34.94143,"lng":133.83295,"zip":"7161100"},{"town":"細田","koaza":"","lat":34.895787,"lng":133.781021,"zip":"7092421"},{"town":"溝部","koaza":"","lat":34.94225,"lng":133.737578,"zip":"7092676"},{"town":"三谷","koaza":"","lat":34.908881,"lng":133.795695,"zip":"7092662"},{"town":"三納谷","koaza":"","lat":34.883799,"lng":133.777922,"zip":"7092422"},{"town":"美原","koaza":"","lat":34.870582,"lng":133.775042,"zip":"7092334"},{"town":"宮地","koaza":"","lat":34.782146,"lng":133.685626,"zip":"7161553"},{"town":"湯山","koaza":"","lat":34.841361,"lng":133.725634,"zip":"7161112"},{"town":"吉川","koaza":"","lat":34.819385,"lng":133.746059,"zip":"7161241"},{"town":"和田","koaza":"","lat":34.890438,"lng":133.738843,"zip":"7092554"}]