[{"town":"石生","koaza":"","lat":35.082692,"lng":134.149708,"zip":"7094307"},{"town":"植月北","koaza":"","lat":35.082165,"lng":134.118392,"zip":"7094331"},{"town":"植月中","koaza":"","lat":35.064265,"lng":134.118681,"zip":"7094335"},{"town":"植月東","koaza":"","lat":35.076713,"lng":134.133973,"zip":"7094332"},{"town":"岡","koaza":"","lat":35.037541,"lng":134.127937,"zip":"7094311"},{"town":"小矢田","koaza":"","lat":35.022215,"lng":134.130701,"zip":"7094313"},{"town":"勝間田","koaza":"","lat":35.041716,"lng":134.115806,"zip":"7094316"},{"town":"上香山","koaza":"","lat":35.051916,"lng":134.175708,"zip":"7094304"},{"town":"河原","koaza":"","lat":35.088083,"lng":134.161927,"zip":"7094302"},{"town":"黒坂","koaza":"","lat":35.040676,"lng":134.100523,"zip":"7094323"},{"town":"黒土","koaza":"","lat":35.029327,"lng":134.132232,"zip":"7094312"},{"town":"下町川","koaza":"","lat":35.094671,"lng":134.146385,"zip":"7094301"},{"town":"曽井","koaza":"","lat":35.052472,"lng":134.157716,"zip":"7094305"},{"town":"田井","koaza":"","lat":35.064422,"lng":134.137864,"zip":"7094333"},{"town":"太平台","koaza":"","lat":35.051847,"lng":134.108621,"zip":"7094321"},{"town":"平","koaza":"","lat":35.045258,"lng":134.117297,"zip":"7094334"},{"town":"為本","koaza":"","lat":35.025386,"lng":134.086536,"zip":"7094324"},{"town":"豊久田","koaza":"","lat":35.07085,"lng":134.168167,"zip":"7094303"},{"town":"畑屋","koaza":"","lat":35.035427,"lng":134.11111,"zip":"7094315"},{"town":"東吉田","koaza":"","lat":35.027563,"lng":134.120199,"zip":"7094314"},{"town":"福吉","koaza":"","lat":35.04602,"lng":134.090438,"zip":"7094322"},{"town":"美野","koaza":"","lat":35.069592,"lng":134.15147,"zip":"7094306"}]