[{"town":"荒内西","koaza":"","lat":35.110161,"lng":134.165637,"zip":"7081314"},{"town":"小坂","koaza":"","lat":35.141683,"lng":134.217292,"zip":"7081302"},{"town":"柿","koaza":"","lat":35.109239,"lng":134.185474,"zip":"7081312"},{"town":"上町川","koaza":"","lat":35.109351,"lng":134.139109,"zip":"7081326"},{"town":"行方","koaza":"","lat":35.12959,"lng":134.196418,"zip":"7081305"},{"town":"高円","koaza":"","lat":35.148696,"lng":134.187608,"zip":"7081307"},{"town":"関本","koaza":"","lat":35.140312,"lng":134.203768,"zip":"7081304"},{"town":"滝本","koaza":"","lat":35.140877,"lng":134.156373,"zip":"7081325"},{"town":"豊沢","koaza":"","lat":35.124623,"lng":134.17488,"zip":"7081323"},{"town":"中島西","koaza":"","lat":35.10338,"lng":134.158709,"zip":"7081315"},{"town":"中島東","koaza":"","lat":35.099833,"lng":134.173774,"zip":"7081313"},{"town":"成松","koaza":"","lat":35.131981,"lng":134.178661,"zip":"7081322"},{"town":"西原","koaza":"","lat":35.115116,"lng":134.204111,"zip":"7081306"},{"town":"久常","koaza":"","lat":35.122741,"lng":134.183464,"zip":"7081311"},{"town":"広岡","koaza":"","lat":35.121848,"lng":134.165486,"zip":"7081324"},{"town":"馬桑","koaza":"","lat":35.168862,"lng":134.207789,"zip":"7081301"},{"town":"皆木","koaza":"","lat":35.115716,"lng":134.221267,"zip":"7081303"},{"town":"宮内","koaza":"","lat":35.134295,"lng":134.171642,"zip":"7081321"}]