[{"town":"泉","koaza":"","lat":34.815418,"lng":134.160776,"zip":"7090413"},{"town":"岩戸","koaza":"","lat":34.844016,"lng":134.128917,"zip":"7090513"},{"town":"宇生","koaza":"","lat":34.849837,"lng":134.065114,"zip":"7090525"},{"town":"大田原","koaza":"","lat":34.806988,"lng":134.153717,"zip":"7090414"},{"town":"大中山","koaza":"","lat":34.776808,"lng":134.173652,"zip":"7090432"},{"town":"奥塩田","koaza":"","lat":34.908426,"lng":134.110834,"zip":"7090501"},{"town":"加三方","koaza":"","lat":34.833659,"lng":134.07609,"zip":"7090522"},{"town":"北山方","koaza":"","lat":34.886429,"lng":134.120646,"zip":"7090504"},{"town":"衣笠","koaza":"","lat":34.794467,"lng":134.175048,"zip":"7090441"},{"town":"木倉","koaza":"","lat":34.845926,"lng":134.146578,"zip":"7090404"},{"town":"小坂","koaza":"","lat":34.836325,"lng":134.050278,"zip":"7090523"},{"town":"佐伯","koaza":"","lat":34.847442,"lng":134.091286,"zip":"7090514"},{"town":"塩田","koaza":"","lat":34.907819,"lng":134.096467,"zip":"7090506"},{"town":"清水","koaza":"","lat":34.767558,"lng":134.176649,"zip":"7090431"},{"town":"尺所","koaza":"","lat":34.802069,"lng":134.159392,"zip":"7090422"},{"town":"田賀","koaza":"","lat":34.846972,"lng":134.053588,"zip":"7090524"},{"town":"田土","koaza":"","lat":34.85877,"lng":134.133363,"zip":"7090512"},{"town":"田原上","koaza":"","lat":34.82703,"lng":134.124483,"zip":"7090463"},{"town":"田原下","koaza":"","lat":34.815947,"lng":134.117504,"zip":"7090464"},{"town":"父井原","koaza":"","lat":34.826172,"lng":134.094843,"zip":"7090521"},{"town":"津瀬","koaza":"","lat":34.866353,"lng":134.103321,"zip":"7090516"},{"town":"苦木","koaza":"","lat":34.884305,"lng":134.099833,"zip":"7090505"},{"town":"原","koaza":"","lat":34.798341,"lng":134.134556,"zip":"7090461"},{"town":"日笠上","koaza":"","lat":34.851146,"lng":134.170068,"zip":"7090402"},{"town":"日笠下","koaza":"","lat":34.840757,"lng":134.181615,"zip":"7090403"},{"town":"日室","koaza":"","lat":34.80128,"lng":134.168843,"zip":"7090421"},{"town":"福富","koaza":"","lat":34.790366,"lng":134.151515,"zip":"7090442"},{"town":"藤野","koaza":"","lat":34.817612,"lng":134.17293,"zip":"7090412"},{"town":"保曽","koaza":"","lat":34.878919,"lng":134.172356,"zip":"7090401"},{"town":"本","koaza":"","lat":34.801425,"lng":134.121102,"zip":"7090462"},{"town":"益原","koaza":"","lat":34.826344,"lng":134.143209,"zip":"7090452"},{"town":"丸山","koaza":"","lat":34.879098,"lng":134.146033,"zip":"7090502"},{"town":"南山方","koaza":"","lat":34.876459,"lng":134.122526,"zip":"7090503"},{"town":"矢田","koaza":"","lat":34.858768,"lng":134.112854,"zip":"7090511"},{"town":"矢田部","koaza":"","lat":34.856288,"lng":134.077426,"zip":"7090526"},{"town":"吉田","koaza":"","lat":34.829054,"lng":134.195282,"zip":"7090411"},{"town":"米澤","koaza":"","lat":34.861235,"lng":134.089845,"zip":"7090515"},{"town":"和気","koaza":"","lat":34.802219,"lng":134.145303,"zip":"7090451"}]