[{"town":"浅海","koaza":"","lat":34.598761,"lng":133.563184,"zip":"7141225"},{"town":"宇角","koaza":"","lat":34.648999,"lng":133.604666,"zip":"7141205"},{"town":"内田","koaza":"","lat":34.656187,"lng":133.572941,"zip":"7141206"},{"town":"宇内","koaza":"","lat":34.638296,"lng":133.545105,"zip":"7141221"},{"town":"江良","koaza":"","lat":34.602966,"lng":133.579692,"zip":"7141226"},{"town":"小田","koaza":"","lat":34.615849,"lng":133.540651,"zip":"7141227"},{"town":"小林","koaza":"","lat":34.636106,"lng":133.574732,"zip":"7141202"},{"town":"上高末","koaza":"","lat":34.684823,"lng":133.604099,"zip":"7141203"},{"town":"里山田","koaza":"","lat":34.60882,"lng":133.592518,"zip":"7141213"},{"town":"下高末","koaza":"","lat":34.660778,"lng":133.600343,"zip":"7141204"},{"town":"中","koaza":"","lat":34.605846,"lng":133.606865,"zip":"7141215"},{"town":"西川面","koaza":"","lat":34.629847,"lng":133.564605,"zip":"7141222"},{"town":"東川面","koaza":"","lat":34.621956,"lng":133.579494,"zip":"7141223"},{"town":"東三成","koaza":"","lat":34.628436,"lng":133.619942,"zip":"7141211"},{"town":"南山田","koaza":"","lat":34.585941,"lng":133.60279,"zip":"7141214"},{"town":"本堀","koaza":"","lat":34.616608,"lng":133.55569,"zip":"7141224"},{"town":"矢掛","koaza":"","lat":34.631677,"lng":133.597787,"zip":"7141201"},{"town":"横谷","koaza":"","lat":34.597947,"lng":133.630311,"zip":"7141212"},{"town":"小田","koaza":"蓮町","lat":34.605544,"lng":133.543798,"zip":"7141227"}]