[{"town":"葵町","koaza":"","lat":34.669495,"lng":133.89937,"zip":"7000045"},{"town":"青江一丁目","koaza":"","lat":34.634108,"lng":133.918142,"zip":"7000941"},{"town":"青江二丁目","koaza":"","lat":34.633987,"lng":133.921695,"zip":"7000941"},{"town":"青江三丁目","koaza":"","lat":34.633822,"lng":133.92513,"zip":"7000941"},{"town":"青江四丁目","koaza":"","lat":34.630393,"lng":133.924395,"zip":"7000941"},{"town":"青江五丁目","koaza":"","lat":34.63009,"lng":133.9195,"zip":"7000941"},{"town":"旭本町","koaza":"","lat":34.643476,"lng":133.929926,"zip":"7000865"},{"town":"旭町","koaza":"","lat":34.646187,"lng":133.927736,"zip":"7000864"},{"town":"足守","koaza":"","lat":34.72929,"lng":133.803348,"zip":"7011463"},{"town":"天瀬","koaza":"","lat":34.655195,"lng":133.928808,"zip":"7000833"},{"town":"天瀬南町","koaza":"","lat":34.652555,"lng":133.928335,"zip":"7000834"},{"town":"粟井","koaza":"","lat":34.751074,"lng":133.773012,"zip":"7011461"},{"town":"石関町","koaza":"","lat":34.666897,"lng":133.931686,"zip":"7000813"},{"town":"石妻","koaza":"","lat":34.767479,"lng":133.846467,"zip":"7011527"},{"town":"伊島北町","koaza":"","lat":34.6807,"lng":133.904656,"zip":"7000017"},{"town":"伊島町一丁目","koaza":"","lat":34.676454,"lng":133.911086,"zip":"7000016"},{"town":"伊島町二丁目","koaza":"","lat":34.679627,"lng":133.910195,"zip":"7000016"},{"town":"伊島町三丁目","koaza":"","lat":34.677915,"lng":133.907101,"zip":"7000016"},{"town":"出石町一丁目","koaza":"","lat":34.66944,"lng":133.931855,"zip":"7000812"},{"town":"出石町二丁目","koaza":"","lat":34.672968,"lng":133.931219,"zip":"7000812"},{"town":"いずみ町","koaza":"","lat":34.67862,"lng":133.916937,"zip":"7000012"},{"town":"一宮","koaza":"","lat":34.676501,"lng":133.866269,"zip":"7011211"},{"town":"一宮山崎","koaza":"","lat":34.683507,"lng":133.873545,"zip":"7011203"},{"town":"伊福町一丁目","koaza":"","lat":34.670514,"lng":133.91467,"zip":"7000013"},{"town":"伊福町二丁目","koaza":"","lat":34.673363,"lng":133.915839,"zip":"7000013"},{"town":"伊福町三丁目","koaza":"","lat":34.673331,"lng":133.912782,"zip":"7000013"},{"town":"伊福町四丁目","koaza":"","lat":34.672843,"lng":133.909925,"zip":"7000013"},{"town":"今一丁目","koaza":"","lat":34.651478,"lng":133.89479,"zip":"7000975"},{"town":"今二丁目","koaza":"","lat":34.648376,"lng":133.896819,"zip":"7000975"},{"town":"今三丁目","koaza":"","lat":34.648022,"lng":133.893101,"zip":"7000975"},{"town":"今四丁目","koaza":"","lat":34.644931,"lng":133.893243,"zip":"7000975"},{"town":"今五丁目","koaza":"","lat":34.645284,"lng":133.896958,"zip":"7000975"},{"town":"今六丁目","koaza":"","lat":34.642137,"lng":133.897103,"zip":"7000975"},{"town":"今七丁目","koaza":"","lat":34.641834,"lng":133.893374,"zip":"7000975"},{"town":"今八丁目","koaza":"","lat":34.638161,"lng":133.893463,"zip":"7000975"},{"town":"今岡","koaza":"","lat":34.690124,"lng":133.870389,"zip":"7011204"},{"town":"今保","koaza":"","lat":34.637752,"lng":133.87334,"zip":"7010145"},{"town":"今村","koaza":"","lat":34.639527,"lng":133.895956,"zip":"7000974"},{"town":"岩井一丁目","koaza":"","lat":34.670541,"lng":133.896678,"zip":"7000046"},{"town":"岩井二丁目","koaza":"","lat":34.671793,"lng":133.894032,"zip":"7000046"},{"town":"岩井宮裏","koaza":"","lat":34.671736,"lng":133.903924,"zip":"7000041"},{"town":"岩田町","koaza":"","lat":34.669945,"lng":133.921586,"zip":"7000022"},{"town":"内山下一丁目","koaza":"","lat":34.660792,"lng":133.93162,"zip":"7000824"},{"town":"内山下二丁目","koaza":"","lat":34.660804,"lng":133.93451,"zip":"7000824"},{"town":"駅前町一丁目","koaza":"","lat":34.666383,"lng":133.921012,"zip":"7000023"},{"town":"駅前町二丁目","koaza":"","lat":34.667975,"lng":133.921211,"zip":"7000023"},{"town":"駅元町","koaza":"","lat":34.66542,"lng":133.916729,"zip":"7000024"},{"town":"絵図町","koaza":"","lat":34.676074,"lng":133.919628,"zip":"7000028"},{"town":"大井","koaza":"","lat":34.742895,"lng":133.805314,"zip":"7011462"},{"town":"大内田","koaza":"","lat":34.626791,"lng":133.839692,"zip":"7010165"},{"town":"大窪","koaza":"","lat":34.696721,"lng":133.849857,"zip":"7011223"},{"town":"大崎","koaza":"","lat":34.705642,"lng":133.817162,"zip":"7011336"},{"town":"大元一丁目","koaza":"","lat":34.645801,"lng":133.903641,"zip":"7000924"},{"town":"大元二丁目","koaza":"","lat":34.642684,"lng":133.903783,"zip":"7000924"},{"town":"大元駅前","koaza":"","lat":34.645956,"lng":133.911818,"zip":"7000923"},{"town":"大元上町","koaza":"","lat":34.6487,"lng":133.900441,"zip":"7000925"},{"town":"岡町","koaza":"","lat":34.649482,"lng":133.922444,"zip":"7000867"},{"town":"奥田一丁目","koaza":"","lat":34.645624,"lng":133.92407,"zip":"7000933"},{"town":"奥田二丁目","koaza":"","lat":34.643247,"lng":133.92203,"zip":"7000933"},{"town":"奥田西町","koaza":"","lat":34.643206,"lng":133.917707,"zip":"7000931"},{"town":"奥田本町","koaza":"","lat":34.645948,"lng":133.921353,"zip":"7000932"},{"town":"奥田南町","koaza":"","lat":34.641664,"lng":133.92184,"zip":"7000934"},{"town":"尾上","koaza":"","lat":34.665607,"lng":133.865526,"zip":"7011212"},{"town":"御舟入町","koaza":"","lat":34.63779,"lng":133.934466,"zip":"7000844"},{"town":"表町一丁目","koaza":"","lat":34.663989,"lng":133.929508,"zip":"7000822"},{"town":"表町二丁目","koaza":"","lat":34.660825,"lng":133.929562,"zip":"7000822"},{"town":"表町三丁目","koaza":"","lat":34.657811,"lng":133.928414,"zip":"7000822"},{"town":"栢谷","koaza":"","lat":34.728894,"lng":133.920094,"zip":"7011144"},{"town":"学南町一丁目","koaza":"","lat":34.679556,"lng":133.922889,"zip":"7000011"},{"town":"学南町二丁目","koaza":"","lat":34.682944,"lng":133.921635,"zip":"7000011"},{"town":"学南町三丁目","koaza":"","lat":34.683573,"lng":133.925339,"zip":"7000011"},{"town":"掛畑","koaza":"","lat":34.807153,"lng":133.79938,"zip":"7011601"},{"town":"春日町","koaza":"","lat":34.653835,"lng":133.921474,"zip":"7000905"},{"town":"金山寺","koaza":"","lat":34.735753,"lng":133.947402,"zip":"7012151"},{"town":"上高田","koaza":"","lat":34.784047,"lng":133.831445,"zip":"7011525"},{"town":"上土田","koaza":"","lat":34.708159,"lng":133.808509,"zip":"7011465"},{"town":"上中野一丁目","koaza":"","lat":34.645585,"lng":133.900577,"zip":"7000972"},{"town":"上中野二丁目","koaza":"","lat":34.6424,"lng":133.900788,"zip":"7000972"},{"town":"加茂","koaza":"","lat":34.675298,"lng":133.830051,"zip":"7011342"},{"town":"辛川市場","koaza":"","lat":34.687001,"lng":133.864998,"zip":"7011214"},{"town":"川入","koaza":"","lat":34.658715,"lng":133.845341,"zip":"7010161"},{"town":"河原","koaza":"","lat":34.786821,"lng":133.800814,"zip":"7011605"},{"town":"関西町","koaza":"","lat":34.672123,"lng":133.89927,"zip":"7000047"},{"town":"神田町一丁目","koaza":"","lat":34.639935,"lng":133.920092,"zip":"7000935"},{"town":"神田町二丁目","koaza":"","lat":34.639147,"lng":133.923228,"zip":"7000935"},{"town":"祇園","koaza":"","lat":34.70855,"lng":133.95811,"zip":"7038207"},{"town":"北方一丁目","koaza":"","lat":34.686188,"lng":133.930127,"zip":"7000803"},{"town":"北方二丁目","koaza":"","lat":34.688695,"lng":133.930572,"zip":"7000803"},{"town":"北方三丁目","koaza":"","lat":34.687397,"lng":133.933012,"zip":"7000803"},{"town":"北方四丁目","koaza":"","lat":34.685606,"lng":133.935512,"zip":"7000803"},{"town":"北長瀬","koaza":"","lat":34.650813,"lng":133.879078,"zip":"7000963"},{"town":"北長瀬表町一丁目","koaza":"","lat":34.653645,"lng":133.892585,"zip":"7000962"},{"town":"北長瀬表町二丁目","koaza":"","lat":34.652081,"lng":133.887898,"zip":"7000962"},{"town":"北長瀬表町三丁目","koaza":"","lat":34.650847,"lng":133.883341,"zip":"7000962"},{"town":"北長瀬本町","koaza":"","lat":34.655976,"lng":133.886126,"zip":"7000961"},{"town":"吉備津","koaza":"","lat":34.673665,"lng":133.845681,"zip":"7011341"},{"town":"京橋町","koaza":"","lat":34.657798,"lng":133.93172,"zip":"7000831"},{"town":"京橋南町","koaza":"","lat":34.654931,"lng":133.931042,"zip":"7000832"},{"town":"京町","koaza":"","lat":34.653595,"lng":133.924542,"zip":"7000838"},{"town":"京山一丁目","koaza":"","lat":34.672878,"lng":133.906124,"zip":"7000015"},{"town":"京山二丁目","koaza":"","lat":34.675151,"lng":133.905869,"zip":"7000015"},{"town":"久米","koaza":"","lat":34.646818,"lng":133.871678,"zip":"7010144"},{"town":"桑田町","koaza":"","lat":34.659115,"lng":133.91554,"zip":"7000984"},{"town":"厚生町一丁目","koaza":"","lat":34.655715,"lng":133.915581,"zip":"7000985"},{"town":"厚生町二丁目","koaza":"","lat":34.655524,"lng":133.913595,"zip":"7000985"},{"town":"厚生町三丁目","koaza":"","lat":34.655335,"lng":133.91135,"zip":"7000985"},{"town":"岡南町一丁目","koaza":"","lat":34.645489,"lng":133.92626,"zip":"7000866"},{"town":"岡南町二丁目","koaza":"","lat":34.642022,"lng":133.926235,"zip":"7000866"},{"town":"首部","koaza":"","lat":34.68572,"lng":133.896597,"zip":"7011201"},{"town":"高野尻","koaza":"","lat":34.736381,"lng":133.932568,"zip":"7012152"},{"town":"後楽園","koaza":"","lat":34.666624,"lng":133.935692,"zip":"7038257"},{"town":"国体町","koaza":"","lat":34.673076,"lng":133.92057,"zip":"7000021"},{"town":"苔山","koaza":"","lat":34.765692,"lng":133.80071,"zip":"7011604"},{"town":"寿町","koaza":"","lat":34.66696,"lng":133.912849,"zip":"7000025"},{"town":"小山","koaza":"","lat":34.694066,"lng":133.814492,"zip":"7011352"},{"town":"幸町","koaza":"","lat":34.661449,"lng":133.920968,"zip":"7000903"},{"town":"佐山","koaza":"","lat":34.701359,"lng":133.880723,"zip":"7011205"},{"town":"鹿田町一丁目","koaza":"","lat":34.653829,"lng":133.918918,"zip":"7000914"},{"town":"鹿田町二丁目","koaza":"","lat":34.650805,"lng":133.919884,"zip":"7000914"},{"town":"鹿田本町","koaza":"","lat":34.651662,"lng":133.916381,"zip":"7000915"},{"town":"島田本町一丁目","koaza":"","lat":34.661789,"lng":133.909854,"zip":"7000033"},{"town":"島田本町二丁目","koaza":"","lat":34.661367,"lng":133.907163,"zip":"7000033"},{"town":"下足守","koaza":"","lat":34.720538,"lng":133.813877,"zip":"7011464"},{"town":"下石井一丁目","koaza":"","lat":34.662457,"lng":133.917324,"zip":"7000907"},{"town":"下石井二丁目","koaza":"","lat":34.659156,"lng":133.918002,"zip":"7000907"},{"town":"下伊福一丁目","koaza":"","lat":34.666975,"lng":133.906427,"zip":"7000052"},{"town":"下伊福二丁目","koaza":"","lat":34.664285,"lng":133.905904,"zip":"7000052"},{"town":"下伊福上町","koaza":"","lat":34.667416,"lng":133.902865,"zip":"7000051"},{"town":"下伊福西町","koaza":"","lat":34.664719,"lng":133.901119,"zip":"7000054"},{"town":"下伊福本町","koaza":"","lat":34.66473,"lng":133.903496,"zip":"7000053"},{"town":"下内田町","koaza":"","lat":34.647612,"lng":133.927975,"zip":"7000846"},{"town":"下高田","koaza":"","lat":34.768502,"lng":133.83082,"zip":"7011524"},{"town":"下土田","koaza":"","lat":34.703269,"lng":133.79764,"zip":"7011356"},{"town":"下中野","koaza":"","lat":34.638622,"lng":133.901419,"zip":"7000973"},{"town":"下牧","koaza":"","lat":34.740601,"lng":133.955055,"zip":"7012143"},{"town":"宿","koaza":"","lat":34.703977,"lng":133.930278,"zip":"7000001"},{"town":"宿本町","koaza":"","lat":34.699182,"lng":133.936929,"zip":"7000002"},{"town":"庄田","koaza":"","lat":34.777154,"lng":133.805257,"zip":"7011603"},{"town":"昭和町","koaza":"","lat":34.664484,"lng":133.912918,"zip":"7000032"},{"town":"白石","koaza":"","lat":34.652319,"lng":133.871843,"zip":"7010143"},{"town":"白石西新町","koaza":"","lat":34.655264,"lng":133.868996,"zip":"7010142"},{"town":"白石東新町","koaza":"","lat":34.656774,"lng":133.874648,"zip":"7010141"},{"town":"新庄上","koaza":"","lat":34.676138,"lng":133.801583,"zip":"7011345"},{"town":"新庄下","koaza":"","lat":34.671999,"lng":133.805445,"zip":"7011344"},{"town":"新道","koaza":"","lat":34.64964,"lng":133.926556,"zip":"7000863"},{"town":"新屋敷町一丁目","koaza":"","lat":34.655489,"lng":133.909352,"zip":"7000986"},{"town":"新屋敷町二丁目","koaza":"","lat":34.655485,"lng":133.907208,"zip":"7000986"},{"town":"新屋敷町三丁目","koaza":"","lat":34.653277,"lng":133.908354,"zip":"7000986"},{"town":"菅野","koaza":"","lat":34.748885,"lng":133.894616,"zip":"7011141"},{"town":"杉谷","koaza":"","lat":34.752647,"lng":133.830392,"zip":"7011522"},{"town":"清輝橋一丁目","koaza":"","lat":34.652205,"lng":133.924403,"zip":"7000861"},{"town":"清輝橋二丁目","koaza":"","lat":34.650923,"lng":133.924782,"zip":"7000861"},{"town":"清輝橋三丁目","koaza":"","lat":34.648682,"lng":133.924334,"zip":"7000861"},{"town":"清輝橋四丁目","koaza":"","lat":34.649137,"lng":133.925627,"zip":"7000861"},{"town":"清輝本町","koaza":"","lat":34.652736,"lng":133.926788,"zip":"7000862"},{"town":"清心町","koaza":"","lat":34.673072,"lng":133.9184,"zip":"7000027"},{"town":"船頭町","koaza":"","lat":34.649867,"lng":133.929435,"zip":"7000842"},{"town":"惣爪","koaza":"","lat":34.667997,"lng":133.832271,"zip":"7011343"},{"town":"大安寺中町","koaza":"","lat":34.66666,"lng":133.887398,"zip":"7000062"},{"town":"大安寺西町","koaza":"","lat":34.665725,"lng":133.883994,"zip":"7000061"},{"town":"大安寺東町","koaza":"","lat":34.667361,"lng":133.890967,"zip":"7000063"},{"town":"大安寺南町一丁目","koaza":"","lat":34.660663,"lng":133.891988,"zip":"7000064"},{"town":"大安寺南町二丁目","koaza":"","lat":34.660167,"lng":133.887165,"zip":"7000064"},{"town":"大学町","koaza":"","lat":34.652604,"lng":133.921375,"zip":"7000906"},{"town":"大供一丁目","koaza":"","lat":34.655115,"lng":133.920689,"zip":"7000913"},{"town":"大供二丁目","koaza":"","lat":34.654741,"lng":133.917073,"zip":"7000913"},{"town":"大供三丁目","koaza":"","lat":34.656708,"lng":133.917716,"zip":"7000913"},{"town":"大供表町","koaza":"","lat":34.652391,"lng":133.914596,"zip":"7000912"},{"town":"大供本町","koaza":"","lat":34.653044,"lng":133.911924,"zip":"7000911"},{"town":"高塚","koaza":"","lat":34.688692,"lng":133.80525,"zip":"7011354"},{"town":"高野","koaza":"","lat":34.742842,"lng":133.925776,"zip":"7012152"},{"town":"高松","koaza":"","lat":34.690669,"lng":133.823513,"zip":"7011335"},{"town":"高松稲荷","koaza":"","lat":34.708836,"lng":133.835977,"zip":"7011331"},{"town":"高松田中","koaza":"","lat":34.696595,"lng":133.795523,"zip":"7011355"},{"town":"高松原古才","koaza":"","lat":34.684437,"lng":133.822314,"zip":"7011334"},{"town":"高柳西町","koaza":"","lat":34.661006,"lng":133.897148,"zip":"7000035"},{"town":"高柳東町","koaza":"","lat":34.661192,"lng":133.903056,"zip":"7000034"},{"town":"建部町市場","koaza":"","lat":34.847984,"lng":133.901206,"zip":"7093131"},{"town":"建部町大田","koaza":"","lat":34.861672,"lng":133.919823,"zip":"7093121"},{"town":"建部町小倉","koaza":"","lat":34.833708,"lng":133.941086,"zip":"7093124"},{"town":"建部町川口","koaza":"","lat":34.895072,"lng":133.90169,"zip":"7093112"},{"town":"建部町桜","koaza":"","lat":34.846574,"lng":133.877577,"zip":"7093134"},{"town":"建部町三明寺","koaza":"","lat":34.924482,"lng":133.899067,"zip":"7093105"},{"town":"建部町品田","koaza":"","lat":34.88471,"lng":133.869531,"zip":"7093141"},{"town":"建部町下神目","koaza":"","lat":34.887951,"lng":133.923426,"zip":"7093113"},{"town":"建部町建部上","koaza":"","lat":34.861334,"lng":133.903181,"zip":"7093142"},{"town":"建部町田地子","koaza":"","lat":34.862734,"lng":133.858606,"zip":"7093145"},{"town":"建部町鶴田","koaza":"","lat":34.911914,"lng":133.872369,"zip":"7093101"},{"town":"建部町角石畝","koaza":"","lat":34.935974,"lng":133.886354,"zip":"7093103"},{"town":"建部町角石谷","koaza":"","lat":34.928009,"lng":133.891466,"zip":"7093104"},{"town":"建部町富沢","koaza":"","lat":34.857587,"lng":133.891043,"zip":"7093144"},{"town":"建部町中田","koaza":"","lat":34.837212,"lng":133.886806,"zip":"7093132"},{"town":"建部町西原","koaza":"","lat":34.832474,"lng":133.895386,"zip":"7093133"},{"town":"建部町土師方","koaza":"","lat":34.852,"lng":133.943887,"zip":"7093123"},{"town":"建部町福渡","koaza":"","lat":34.870262,"lng":133.911535,"zip":"7093111"},{"town":"建部町豊楽寺","koaza":"","lat":34.880553,"lng":133.912002,"zip":"7093114"},{"town":"建部町宮地","koaza":"","lat":34.853157,"lng":133.906221,"zip":"7093143"},{"town":"建部町吉田","koaza":"","lat":34.842951,"lng":133.916177,"zip":"7093122"},{"town":"建部町和田南","koaza":"","lat":34.927075,"lng":133.86737,"zip":"7093102"},{"town":"立田","koaza":"","lat":34.686008,"lng":133.834941,"zip":"7011333"},{"town":"辰巳","koaza":"","lat":34.640379,"lng":133.888141,"zip":"7000976"},{"town":"田中","koaza":"","lat":34.638929,"lng":133.881368,"zip":"7000951"},{"town":"谷万成一丁目","koaza":"","lat":34.676297,"lng":133.900454,"zip":"7000071"},{"town":"谷万成二丁目","koaza":"","lat":34.678165,"lng":133.897218,"zip":"7000071"},{"town":"田原","koaza":"","lat":34.738764,"lng":133.879019,"zip":"7011132"},{"town":"玉柏","koaza":"","lat":34.719626,"lng":133.964277,"zip":"7012142"},{"town":"田益","koaza":"","lat":34.713599,"lng":133.895761,"zip":"7011154"},{"town":"田町一丁目","koaza":"","lat":34.661437,"lng":133.924545,"zip":"7000825"},{"town":"田町二丁目","koaza":"","lat":34.659452,"lng":133.924601,"zip":"7000825"},{"town":"中央町","koaza":"","lat":34.65738,"lng":133.92461,"zip":"7000836"},{"town":"津倉町一丁目","koaza":"","lat":34.670131,"lng":133.909066,"zip":"7000014"},{"town":"津倉町二丁目","koaza":"","lat":34.670424,"lng":133.907583,"zip":"7000014"},{"town":"津島","koaza":"","lat":34.694795,"lng":133.921114,"zip":"7000087"},{"town":"津島京町一丁目","koaza":"","lat":34.680654,"lng":133.900381,"zip":"7000087"},{"town":"津島京町二丁目","koaza":"","lat":34.682472,"lng":133.90085,"zip":"7000087"},{"town":"津島京町三丁目","koaza":"","lat":34.685104,"lng":133.900391,"zip":"7000087"},{"town":"津島桑の木町","koaza":"","lat":34.686259,"lng":133.912769,"zip":"7000084"},{"town":"津島笹が瀬","koaza":"","lat":34.687211,"lng":133.901872,"zip":"7000088"},{"town":"津島中一丁目","koaza":"","lat":34.685631,"lng":133.917119,"zip":"7000082"},{"town":"津島中二丁目","koaza":"","lat":34.686466,"lng":133.92265,"zip":"7000082"},{"town":"津島中三丁目","koaza":"","lat":34.689246,"lng":133.922055,"zip":"7000082"},{"town":"津島新野一丁目","koaza":"","lat":34.682978,"lng":133.918347,"zip":"7000083"},{"town":"津島新野二丁目","koaza":"","lat":34.682734,"lng":133.915605,"zip":"7000083"},{"town":"津島西坂一丁目","koaza":"","lat":34.682665,"lng":133.904963,"zip":"7000086"},{"town":"津島西坂二丁目","koaza":"","lat":34.683553,"lng":133.906584,"zip":"7000086"},{"town":"津島西坂三丁目","koaza":"","lat":34.687727,"lng":133.905283,"zip":"7000086"},{"town":"津島東一丁目","koaza":"","lat":34.686916,"lng":133.927077,"zip":"7000081"},{"town":"津島東二丁目","koaza":"","lat":34.689778,"lng":133.928679,"zip":"7000081"},{"town":"津島東三丁目","koaza":"","lat":34.6932,"lng":133.927497,"zip":"7000081"},{"town":"津島東四丁目","koaza":"","lat":34.693334,"lng":133.924324,"zip":"7000081"},{"town":"津島福居一丁目","koaza":"","lat":34.689043,"lng":133.914045,"zip":"7000080"},{"town":"津島福居二丁目","koaza":"","lat":34.691488,"lng":133.918842,"zip":"7000080"},{"town":"津島本町","koaza":"","lat":34.688535,"lng":133.908528,"zip":"7000089"},{"town":"津島南一丁目","koaza":"","lat":34.683199,"lng":133.912683,"zip":"7000085"},{"town":"津島南二丁目","koaza":"","lat":34.683019,"lng":133.910107,"zip":"7000085"},{"town":"津高","koaza":"","lat":34.696553,"lng":133.919106,"zip":"7011152"},{"town":"津高台一丁目","koaza":"","lat":34.698331,"lng":133.916833,"zip":"7011151"},{"town":"津高台二丁目","koaza":"","lat":34.69817,"lng":133.914153,"zip":"7011151"},{"town":"津高台三丁目","koaza":"","lat":34.698148,"lng":133.911899,"zip":"7011151"},{"town":"津高台四丁目","koaza":"","lat":34.700588,"lng":133.913769,"zip":"7011151"},{"town":"津寺","koaza":"","lat":34.676478,"lng":133.81994,"zip":"7011346"},{"town":"天神町","koaza":"","lat":34.667284,"lng":133.929301,"zip":"7000814"},{"town":"問屋町","koaza":"","lat":34.644079,"lng":133.889036,"zip":"7000977"},{"town":"十日市中町","koaza":"","lat":34.637386,"lng":133.928975,"zip":"7000855"},{"town":"十日市西町","koaza":"","lat":34.63704,"lng":133.925213,"zip":"7000856"},{"town":"十日市東町","koaza":"","lat":34.636019,"lng":133.931722,"zip":"7000854"},{"town":"磨屋町","koaza":"","lat":34.664067,"lng":133.925256,"zip":"7000826"},{"town":"富田","koaza":"","lat":34.639452,"lng":133.915215,"zip":"7000936"},{"town":"富原","koaza":"","lat":34.697153,"lng":133.890074,"zip":"7011153"},{"town":"富町一丁目","koaza":"","lat":34.666994,"lng":133.909214,"zip":"7000031"},{"town":"富町二丁目","koaza":"","lat":34.664367,"lng":133.90927,"zip":"7000031"},{"town":"富吉","koaza":"","lat":34.734907,"lng":133.862782,"zip":"7011133"},{"town":"富田町一丁目","koaza":"","lat":34.669931,"lng":133.923559,"zip":"7000816"},{"town":"富田町二丁目","koaza":"","lat":34.669719,"lng":133.925384,"zip":"7000816"},{"town":"中井町一丁目","koaza":"","lat":34.682072,"lng":133.929407,"zip":"7000804"},{"town":"中井町二丁目","koaza":"","lat":34.681558,"lng":133.932056,"zip":"7000804"},{"town":"中山下一丁目","koaza":"","lat":34.664042,"lng":133.927414,"zip":"7000821"},{"town":"中山下二丁目","koaza":"","lat":34.660595,"lng":133.927467,"zip":"7000821"},{"town":"中島田町一丁目","koaza":"","lat":34.66027,"lng":133.911354,"zip":"7000982"},{"town":"中島田町二丁目","koaza":"","lat":34.658101,"lng":133.911308,"zip":"7000982"},{"town":"中仙道","koaza":"","lat":34.644485,"lng":133.885032,"zip":"7000964"},{"town":"中仙道一丁目","koaza":"","lat":34.647877,"lng":133.888847,"zip":"7000964"},{"town":"中仙道二丁目","koaza":"","lat":34.647038,"lng":133.884119,"zip":"7000964"},{"town":"中撫川","koaza":"","lat":34.650022,"lng":133.840584,"zip":"7010163"},{"town":"長野","koaza":"","lat":34.719408,"lng":133.843212,"zip":"7011224"},{"town":"中原","koaza":"","lat":34.703456,"lng":133.949691,"zip":"7012155"},{"town":"中牧","koaza":"","lat":34.763004,"lng":133.961129,"zip":"7012144"},{"town":"撫川","koaza":"","lat":34.642656,"lng":133.841456,"zip":"7010164"},{"town":"七日市西町","koaza":"","lat":34.639871,"lng":133.929371,"zip":"7000851"},{"town":"七日市東町","koaza":"","lat":34.640258,"lng":133.931912,"zip":"7000852"},{"town":"楢津","koaza":"","lat":34.684177,"lng":133.885615,"zip":"7011202"},{"town":"西市","koaza":"","lat":34.636641,"lng":133.900339,"zip":"7000953"},{"town":"西辛川","koaza":"","lat":34.682825,"lng":133.854436,"zip":"7011213"},{"town":"錦町","koaza":"","lat":34.663249,"lng":133.920893,"zip":"7000902"},{"town":"西崎一丁目","koaza":"","lat":34.664722,"lng":133.898091,"zip":"7000055"},{"town":"西崎二丁目","koaza":"","lat":34.664618,"lng":133.895098,"zip":"7000055"},{"town":"西崎本町","koaza":"","lat":34.669461,"lng":133.894828,"zip":"7000056"},{"town":"西島田町","koaza":"","lat":34.660003,"lng":133.908529,"zip":"7000981"},{"town":"西長瀬","koaza":"","lat":34.647693,"lng":133.879151,"zip":"7000965"},{"town":"西之町","koaza":"","lat":34.65146,"lng":133.908388,"zip":"7000916"},{"town":"西野山町","koaza":"","lat":34.667281,"lng":133.877049,"zip":"7000067"},{"town":"西花尻","koaza":"","lat":34.657953,"lng":133.85605,"zip":"7010136"},{"town":"西古松","koaza":"","lat":34.644501,"lng":133.907825,"zip":"7000927"},{"town":"西古松一丁目","koaza":"","lat":34.649116,"lng":133.907633,"zip":"7000927"},{"town":"西古松二丁目","koaza":"","lat":34.646846,"lng":133.907735,"zip":"7000927"},{"town":"西古松西町","koaza":"","lat":34.648874,"lng":133.903566,"zip":"7000926"},{"town":"西山内","koaza":"","lat":34.767075,"lng":133.754871,"zip":"7011612"},{"town":"日応寺","koaza":"","lat":34.76731,"lng":133.86204,"zip":"7011131"},{"town":"庭瀬","koaza":"","lat":34.644863,"lng":133.849954,"zip":"7010153"},{"town":"納所","koaza":"","lat":34.658451,"lng":133.837085,"zip":"7010162"},{"town":"野田一丁目","koaza":"","lat":34.653229,"lng":133.905396,"zip":"7000971"},{"town":"野田二丁目","koaza":"","lat":34.653004,"lng":133.903401,"zip":"7000971"},{"town":"野田三丁目","koaza":"","lat":34.652413,"lng":133.899272,"zip":"7000971"},{"town":"野田四丁目","koaza":"","lat":34.655953,"lng":133.897314,"zip":"7000971"},{"town":"野田五丁目","koaza":"","lat":34.657506,"lng":133.903652,"zip":"7000971"},{"town":"野田屋町一丁目","koaza":"","lat":34.666401,"lng":133.924472,"zip":"7000815"},{"town":"野田屋町二丁目","koaza":"","lat":34.667934,"lng":133.924462,"zip":"7000815"},{"town":"野殿西町","koaza":"","lat":34.660903,"lng":133.879228,"zip":"7000066"},{"town":"野殿東町","koaza":"","lat":34.661515,"lng":133.883028,"zip":"7000065"},{"town":"延友","koaza":"","lat":34.638766,"lng":133.863992,"zip":"7010152"},{"town":"芳賀","koaza":"","lat":34.713463,"lng":133.871198,"zip":"7011221"},{"town":"畑鮎","koaza":"","lat":34.725354,"lng":133.936943,"zip":"7012153"},{"town":"花尻","koaza":"","lat":34.658494,"lng":133.867107,"zip":"7010134"},{"town":"花尻あかね町","koaza":"","lat":34.657773,"lng":133.868627,"zip":"7010133"},{"town":"花尻ききょう町","koaza":"","lat":34.658297,"lng":133.871125,"zip":"7010132"},{"town":"花尻みどり町","koaza":"","lat":34.659265,"lng":133.874788,"zip":"7010131"},{"town":"原","koaza":"","lat":34.710129,"lng":133.940245,"zip":"7012154"},{"town":"蕃山町","koaza":"","lat":34.667447,"lng":133.927159,"zip":"7000818"},{"town":"半田町","koaza":"","lat":34.696598,"lng":133.933063,"zip":"7000003"},{"town":"番町一丁目","koaza":"","lat":34.672303,"lng":133.92838,"zip":"7000811"},{"town":"番町二丁目","koaza":"","lat":34.674117,"lng":133.928221,"zip":"7000811"},{"town":"東島田町一丁目","koaza":"","lat":34.660397,"lng":133.913299,"zip":"7000983"},{"town":"東島田町二丁目","koaza":"","lat":34.65813,"lng":133.913936,"zip":"7000983"},{"town":"東中央町","koaza":"","lat":34.655253,"lng":133.926889,"zip":"7000835"},{"town":"東野山町","koaza":"","lat":34.66783,"lng":133.88163,"zip":"7000068"},{"town":"東花尻","koaza":"","lat":34.654746,"lng":133.862966,"zip":"7010135"},{"town":"東古松","koaza":"","lat":34.642594,"lng":133.914112,"zip":"7000921"},{"town":"東古松一丁目","koaza":"","lat":34.649319,"lng":133.91691,"zip":"7000921"},{"town":"東古松二丁目","koaza":"","lat":34.649304,"lng":133.914494,"zip":"7000921"},{"town":"東古松三丁目","koaza":"","lat":34.646477,"lng":133.91365,"zip":"7000921"},{"town":"東古松四丁目","koaza":"","lat":34.647105,"lng":133.917477,"zip":"7000921"},{"town":"東古松五丁目","koaza":"","lat":34.645784,"lng":133.916923,"zip":"7000921"},{"town":"東古松南町","koaza":"","lat":34.644172,"lng":133.914733,"zip":"7000922"},{"town":"東山内","koaza":"","lat":34.781036,"lng":133.788332,"zip":"7011611"},{"town":"日近","koaza":"","lat":34.748554,"lng":133.813461,"zip":"7011521"},{"town":"日吉町","koaza":"","lat":34.654167,"lng":133.879955,"zip":"7000966"},{"town":"平田","koaza":"","lat":34.633505,"lng":133.886607,"zip":"7000952"},{"town":"平野","koaza":"","lat":34.643495,"lng":133.857757,"zip":"7010151"},{"town":"平山","koaza":"","lat":34.698691,"lng":133.83378,"zip":"7011332"},{"town":"広瀬町","koaza":"","lat":34.676787,"lng":133.928623,"zip":"7000806"},{"town":"福崎","koaza":"","lat":34.695918,"lng":133.802281,"zip":"7011357"},{"town":"福谷","koaza":"","lat":34.712184,"lng":133.853747,"zip":"7011225"},{"town":"二日市町","koaza":"","lat":34.646821,"lng":133.929453,"zip":"7000843"},{"town":"舟橋町","koaza":"","lat":34.652308,"lng":133.930348,"zip":"7000841"},{"town":"兵団","koaza":"","lat":34.676591,"lng":133.931213,"zip":"7000805"},{"town":"平和町","koaza":"","lat":34.664065,"lng":133.923486,"zip":"7000827"},{"town":"法界院","koaza":"","lat":34.693304,"lng":133.932198,"zip":"7000004"},{"town":"奉還町一丁目","koaza":"","lat":34.669585,"lng":133.919011,"zip":"7000026"},{"town":"奉還町二丁目","koaza":"","lat":34.669063,"lng":133.915835,"zip":"7000026"},{"town":"奉還町三丁目","koaza":"","lat":34.668978,"lng":133.912802,"zip":"7000026"},{"town":"奉還町四丁目","koaza":"","lat":34.669286,"lng":133.91009,"zip":"7000026"},{"town":"本町","koaza":"","lat":34.664715,"lng":133.920904,"zip":"7000901"},{"town":"間倉","koaza":"","lat":34.784658,"lng":133.771402,"zip":"7011613"},{"town":"松尾","koaza":"","lat":34.696432,"lng":133.867164,"zip":"7011222"},{"town":"真星","koaza":"","lat":34.79331,"lng":133.811976,"zip":"7011602"},{"town":"丸の内一丁目","koaza":"","lat":34.664039,"lng":133.931349,"zip":"7000823"},{"town":"丸の内二丁目","koaza":"","lat":34.664164,"lng":133.934992,"zip":"7000823"},{"town":"万成西町","koaza":"","lat":34.675936,"lng":133.890643,"zip":"7000073"},{"town":"万成東町","koaza":"","lat":34.675308,"lng":133.894605,"zip":"7000072"},{"town":"三門中町","koaza":"","lat":34.669249,"lng":133.903491,"zip":"7000043"},{"town":"三門西町","koaza":"","lat":34.670051,"lng":133.901187,"zip":"7000044"},{"town":"三門東町","koaza":"","lat":34.669914,"lng":133.905679,"zip":"7000042"},{"town":"御津石上","koaza":"","lat":34.84036,"lng":133.965582,"zip":"7092101"},{"town":"御津伊田","koaza":"","lat":34.800329,"lng":133.957717,"zip":"7092105"},{"town":"御津宇甘","koaza":"","lat":34.804453,"lng":133.872007,"zip":"7092125"},{"town":"御津宇垣","koaza":"","lat":34.782855,"lng":133.924364,"zip":"7092121"},{"town":"御津鹿瀬","koaza":"","lat":34.834001,"lng":133.923051,"zip":"7092131"},{"town":"御津勝尾","koaza":"","lat":34.792278,"lng":133.847884,"zip":"7092126"},{"town":"御津金川","koaza":"","lat":34.796735,"lng":133.92766,"zip":"7092133"},{"town":"御津川高","koaza":"","lat":34.781376,"lng":133.934819,"zip":"7092111"},{"town":"御津北野","koaza":"","lat":34.751649,"lng":133.938722,"zip":"7092115"},{"town":"御津草生","koaza":"","lat":34.815366,"lng":133.932415,"zip":"7092132"},{"town":"御津国ケ原","koaza":"","lat":34.775624,"lng":133.944424,"zip":"7092112"},{"town":"御津河内","koaza":"","lat":34.778763,"lng":133.893105,"zip":"7092123"},{"town":"御津虎倉","koaza":"","lat":34.823727,"lng":133.829287,"zip":"7092137"},{"town":"御津紙工","koaza":"","lat":34.820637,"lng":133.861522,"zip":"7092136"},{"town":"御津下田","koaza":"","lat":34.813929,"lng":133.914619,"zip":"7092134"},{"town":"御津新庄","koaza":"","lat":34.821076,"lng":133.964062,"zip":"7092106"},{"town":"御津高津","koaza":"","lat":34.80221,"lng":133.901671,"zip":"7092124"},{"town":"御津中泉","koaza":"","lat":34.817683,"lng":133.892017,"zip":"7092135"},{"town":"御津中畑","koaza":"","lat":34.845541,"lng":133.9852,"zip":"7092102"},{"town":"御津中牧","koaza":"","lat":34.766897,"lng":133.946267,"zip":"7092114"},{"town":"御津中山","koaza":"","lat":34.752655,"lng":133.921613,"zip":"7092116"},{"town":"御津野々口","koaza":"","lat":34.766866,"lng":133.931956,"zip":"7092117"},{"town":"御津平岡西","koaza":"","lat":34.831348,"lng":133.968396,"zip":"7092104"},{"town":"御津矢知","koaza":"","lat":34.829756,"lng":133.980633,"zip":"7092103"},{"town":"御津矢原","koaza":"","lat":34.801937,"lng":133.940828,"zip":"7092107"},{"town":"御津吉尾","koaza":"","lat":34.76248,"lng":133.917639,"zip":"7092122"},{"town":"御津芳谷","koaza":"","lat":34.769171,"lng":133.973076,"zip":"7092113"},{"town":"三手","koaza":"","lat":34.687628,"lng":133.812085,"zip":"7011353"},{"town":"三和","koaza":"","lat":34.744037,"lng":133.83826,"zip":"7011134"},{"town":"南方一丁目","koaza":"","lat":34.672205,"lng":133.923936,"zip":"7000807"},{"town":"南方二丁目","koaza":"","lat":34.674125,"lng":133.924383,"zip":"7000807"},{"town":"南方三丁目","koaza":"","lat":34.67672,"lng":133.925804,"zip":"7000807"},{"town":"南方四丁目","koaza":"","lat":34.677384,"lng":133.924528,"zip":"7000807"},{"town":"南方五丁目","koaza":"","lat":34.676558,"lng":133.922212,"zip":"7000807"},{"town":"南中央町","koaza":"","lat":34.655359,"lng":133.924557,"zip":"7000837"},{"town":"三野一丁目","koaza":"","lat":34.688463,"lng":133.936904,"zip":"7000802"},{"town":"三野二丁目","koaza":"","lat":34.691742,"lng":133.938473,"zip":"7000802"},{"town":"三野三丁目","koaza":"","lat":34.693199,"lng":133.936595,"zip":"7000802"},{"town":"三野本町","koaza":"","lat":34.696229,"lng":133.93758,"zip":"7000801"},{"town":"牟佐","koaza":"","lat":34.732864,"lng":133.974388,"zip":"7012141"},{"town":"門前","koaza":"","lat":34.698235,"lng":133.807344,"zip":"7011351"},{"town":"矢坂西町","koaza":"","lat":34.672788,"lng":133.877046,"zip":"7000076"},{"town":"矢坂東町","koaza":"","lat":34.674421,"lng":133.88763,"zip":"7000074"},{"town":"矢坂本町","koaza":"","lat":34.673412,"lng":133.883096,"zip":"7000075"},{"town":"柳町一丁目","koaza":"","lat":34.659387,"lng":133.921055,"zip":"7000904"},{"town":"柳町二丁目","koaza":"","lat":34.657359,"lng":133.921112,"zip":"7000904"},{"town":"山科町","koaza":"","lat":34.650453,"lng":133.927972,"zip":"7000847"},{"town":"大和町一丁目","koaza":"","lat":34.679554,"lng":133.926472,"zip":"7000808"},{"town":"大和町二丁目","koaza":"","lat":34.683569,"lng":133.927655,"zip":"7000808"},{"town":"山上","koaza":"","lat":34.784996,"lng":133.849939,"zip":"7011526"},{"town":"弓之町","koaza":"","lat":34.670115,"lng":133.928657,"zip":"7000817"},{"town":"横井上","koaza":"","lat":34.711457,"lng":133.91202,"zip":"7011145"},{"town":"横尾","koaza":"","lat":34.727319,"lng":133.828534,"zip":"7011226"},{"town":"吉","koaza":"","lat":34.76511,"lng":133.813736,"zip":"7011341"},{"town":"吉宗","koaza":"","lat":34.734448,"lng":133.908824,"zip":"7011143"},{"town":"理大町","koaza":"","lat":34.696748,"lng":133.928362,"zip":"7000005"},{"town":"和井元","koaza":"","lat":34.705018,"lng":133.824834,"zip":"7011337"},{"town":"下中野","koaza":"五ノ坪","lat":34.636884,"lng":133.903961,"zip":"7000973"}]