[{"town":"浅川","koaza":"","lat":34.706735,"lng":134.071045,"zip":"7090605"},{"town":"浅越","koaza":"","lat":34.663118,"lng":134.027354,"zip":"7048181"},{"town":"犬島","koaza":"","lat":34.563518,"lng":134.102987,"zip":"7048153"},{"town":"内ケ原","koaza":"","lat":34.694149,"lng":134.075729,"zip":"7090612"},{"town":"浦間","koaza":"","lat":34.715781,"lng":134.062996,"zip":"7090607"},{"town":"大多羅町","koaza":"","lat":34.665218,"lng":134.004828,"zip":"7048172"},{"town":"邑久郷","koaza":"","lat":34.626168,"lng":134.074186,"zip":"7048132"},{"town":"乙子","koaza":"","lat":34.628586,"lng":134.03937,"zip":"7048137"},{"town":"可知一丁目","koaza":"","lat":34.660174,"lng":134.001293,"zip":"7048173"},{"town":"可知二丁目","koaza":"","lat":34.656438,"lng":134.001463,"zip":"7048173"},{"town":"可知三丁目","koaza":"","lat":34.659958,"lng":134.003795,"zip":"7048173"},{"town":"可知四丁目","koaza":"","lat":34.656551,"lng":134.004364,"zip":"7048173"},{"town":"可知五丁目","koaza":"","lat":34.660121,"lng":134.007877,"zip":"7048173"},{"town":"金岡西町","koaza":"","lat":34.640954,"lng":134.021903,"zip":"7048193"},{"town":"金岡東町一丁目","koaza":"","lat":34.646051,"lng":134.030336,"zip":"7048194"},{"town":"金岡東町二丁目","koaza":"","lat":34.639482,"lng":134.028798,"zip":"7048194"},{"town":"金岡東町三丁目","koaza":"","lat":34.630434,"lng":134.029972,"zip":"7048194"},{"town":"金田","koaza":"","lat":34.636575,"lng":134.016397,"zip":"7048196"},{"town":"上阿知","koaza":"","lat":34.625245,"lng":134.107712,"zip":"7048142"},{"town":"神崎町","koaza":"","lat":34.631504,"lng":134.052504,"zip":"7048138"},{"town":"北幸田","koaza":"","lat":34.622732,"lng":134.062101,"zip":"7048134"},{"town":"君津","koaza":"","lat":34.634745,"lng":134.010033,"zip":"7048166"},{"town":"久々井","koaza":"","lat":34.587546,"lng":134.082442,"zip":"7048154"},{"town":"草ケ部","koaza":"","lat":34.715341,"lng":134.029388,"zip":"7090635"},{"town":"九蟠","koaza":"","lat":34.616411,"lng":134.030307,"zip":"7048161"},{"town":"久保","koaza":"","lat":34.665301,"lng":134.047767,"zip":"7048102"},{"town":"鉄","koaza":"","lat":34.698626,"lng":134.010315,"zip":"7038214"},{"town":"幸地崎町","koaza":"","lat":34.618361,"lng":134.080569,"zip":"7048149"},{"town":"光津","koaza":"","lat":34.640048,"lng":133.991488,"zip":"7048164"},{"town":"河本町","koaza":"","lat":34.661687,"lng":134.049386,"zip":"7048103"},{"town":"古都宿","koaza":"","lat":34.698424,"lng":133.998047,"zip":"7038212"},{"town":"古都南方","koaza":"","lat":34.684654,"lng":134.023515,"zip":"7038215"},{"town":"才崎","koaza":"","lat":34.692542,"lng":134.066091,"zip":"7090615"},{"town":"西大寺","koaza":"","lat":34.66223,"lng":134.041159,"zip":"7048113"},{"town":"西大寺射越","koaza":"","lat":34.655851,"lng":134.055318,"zip":"7048121"},{"town":"西大寺一宮","koaza":"","lat":34.605928,"lng":134.105566,"zip":"7048144"},{"town":"西大寺金岡","koaza":"","lat":34.632421,"lng":134.025885,"zip":"7048195"},{"town":"西大寺上一丁目","koaza":"","lat":34.658922,"lng":134.031647,"zip":"7048112"},{"town":"西大寺上二丁目","koaza":"","lat":34.659575,"lng":134.035304,"zip":"7048112"},{"town":"西大寺上三丁目","koaza":"","lat":34.658943,"lng":134.038684,"zip":"7048112"},{"town":"西大寺川口","koaza":"","lat":34.648793,"lng":134.048721,"zip":"7048125"},{"town":"西大寺北","koaza":"","lat":34.662881,"lng":134.037095,"zip":"7048111"},{"town":"西大寺五明","koaza":"","lat":34.640773,"lng":134.053883,"zip":"7048124"},{"town":"西大寺新","koaza":"","lat":34.638564,"lng":134.039284,"zip":"7048127"},{"town":"西大寺新地","koaza":"","lat":34.6505,"lng":134.053532,"zip":"7048122"},{"town":"西大寺中一丁目","koaza":"","lat":34.653491,"lng":134.03378,"zip":"7048116"},{"town":"西大寺中二丁目","koaza":"","lat":34.655689,"lng":134.033679,"zip":"7048116"},{"town":"西大寺中三丁目","koaza":"","lat":34.653957,"lng":134.037244,"zip":"7048116"},{"town":"西大寺中野","koaza":"","lat":34.65451,"lng":134.023839,"zip":"7048191"},{"town":"西大寺中野本町","koaza":"","lat":34.654431,"lng":134.029441,"zip":"7048192"},{"town":"西大寺浜","koaza":"","lat":34.644957,"lng":134.040204,"zip":"7048126"},{"town":"西大寺東一丁目","koaza":"","lat":34.65828,"lng":134.041161,"zip":"7048114"},{"town":"西大寺東二丁目","koaza":"","lat":34.657648,"lng":134.044172,"zip":"7048114"},{"town":"西大寺東三丁目","koaza":"","lat":34.658445,"lng":134.048451,"zip":"7048114"},{"town":"西大寺松崎","koaza":"","lat":34.663914,"lng":134.012505,"zip":"7048183"},{"town":"西大寺南一丁目","koaza":"","lat":34.651295,"lng":134.029484,"zip":"7048117"},{"town":"西大寺南二丁目","koaza":"","lat":34.649787,"lng":134.033593,"zip":"7048117"},{"town":"西大寺門前","koaza":"","lat":34.646287,"lng":134.060545,"zip":"7048123"},{"town":"西隆寺","koaza":"","lat":34.67412,"lng":134.053804,"zip":"7048101"},{"town":"宍甘","koaza":"","lat":34.693744,"lng":133.991446,"zip":"7038216"},{"town":"下阿知","koaza":"","lat":34.627493,"lng":134.093278,"zip":"7048141"},{"town":"宿毛","koaza":"","lat":34.623245,"lng":134.084255,"zip":"7048133"},{"town":"上道北方","koaza":"","lat":34.699443,"lng":134.016485,"zip":"7090625"},{"town":"城東台西一丁目","koaza":"","lat":34.6933,"lng":134.019698,"zip":"7090624"},{"town":"城東台西二丁目","koaza":"","lat":34.694859,"lng":134.022819,"zip":"7090624"},{"town":"城東台西三丁目","koaza":"","lat":34.692377,"lng":134.023983,"zip":"7090624"},{"town":"城東台東一丁目","koaza":"","lat":34.695644,"lng":134.026594,"zip":"7090622"},{"town":"城東台東二丁目","koaza":"","lat":34.696247,"lng":134.029367,"zip":"7090622"},{"town":"城東台南一丁目","koaza":"","lat":34.692556,"lng":134.027966,"zip":"7090623"},{"town":"城東台南二丁目","koaza":"","lat":34.695144,"lng":134.031115,"zip":"7090623"},{"town":"水門町","koaza":"","lat":34.614455,"lng":134.062532,"zip":"7048148"},{"town":"砂場","koaza":"","lat":34.717854,"lng":134.04199,"zip":"7090634"},{"town":"西祖","koaza":"","lat":34.713393,"lng":134.076428,"zip":"7090603"},{"town":"瀬戸町旭ヶ丘一丁目","koaza":"","lat":34.724449,"lng":134.05305,"zip":"7090853"},{"town":"瀬戸町旭ヶ丘二丁目","koaza":"","lat":34.726208,"lng":134.051981,"zip":"7090853"},{"town":"瀬戸町旭ヶ丘三丁目","koaza":"","lat":34.725282,"lng":134.050008,"zip":"7090853"},{"town":"瀬戸町旭ヶ丘四丁目","koaza":"","lat":34.725289,"lng":134.047477,"zip":"7090853"},{"town":"瀬戸町江尻","koaza":"","lat":34.729004,"lng":134.052295,"zip":"7090854"},{"town":"瀬戸町大内","koaza":"","lat":34.734254,"lng":134.091883,"zip":"7090851"},{"town":"瀬戸町沖","koaza":"","lat":34.721528,"lng":134.044609,"zip":"7090855"},{"town":"瀬戸町鍛冶屋","koaza":"","lat":34.76817,"lng":134.06525,"zip":"7090845"},{"town":"瀬戸町肩脊","koaza":"","lat":34.730748,"lng":134.069225,"zip":"7090852"},{"town":"瀬戸町観音寺","koaza":"","lat":34.725025,"lng":134.008622,"zip":"7090863"},{"town":"瀬戸町菊山","koaza":"","lat":34.71093,"lng":134.018736,"zip":"7090865"},{"town":"瀬戸町光明谷","koaza":"","lat":34.740323,"lng":134.04252,"zip":"7090876"},{"town":"瀬戸町坂根","koaza":"","lat":34.742324,"lng":134.064031,"zip":"7090873"},{"town":"瀬戸町笹岡","koaza":"","lat":34.731487,"lng":134.025912,"zip":"7090862"},{"town":"瀬戸町塩納","koaza":"","lat":34.761969,"lng":134.059227,"zip":"7090871"},{"town":"瀬戸町下","koaza":"","lat":34.73036,"lng":134.041684,"zip":"7090856"},{"town":"瀬戸町宿奥","koaza":"","lat":34.714606,"lng":134.005207,"zip":"7090864"},{"town":"瀬戸町瀬戸","koaza":"","lat":34.738589,"lng":134.036601,"zip":"7090861"},{"town":"瀬戸町宗堂","koaza":"","lat":34.752683,"lng":134.061475,"zip":"7090872"},{"town":"瀬戸町大井","koaza":"","lat":34.767833,"lng":134.075085,"zip":"7090846"},{"town":"瀬戸町寺地","koaza":"","lat":34.741587,"lng":134.050108,"zip":"7090875"},{"town":"瀬戸町二日市","koaza":"","lat":34.759757,"lng":134.087216,"zip":"7090842"},{"town":"瀬戸町万富","koaza":"","lat":34.768741,"lng":134.085057,"zip":"7090841"},{"town":"瀬戸町南方","koaza":"","lat":34.746732,"lng":134.082846,"zip":"7090844"},{"town":"瀬戸町森末","koaza":"","lat":34.746881,"lng":134.058147,"zip":"7090874"},{"town":"瀬戸町弓削","koaza":"","lat":34.751785,"lng":134.10586,"zip":"7090843"},{"town":"千手","koaza":"","lat":34.620366,"lng":134.113518,"zip":"7048143"},{"town":"竹原","koaza":"","lat":34.688875,"lng":134.051884,"zip":"7090614"},{"town":"谷尻","koaza":"","lat":34.725853,"lng":134.034048,"zip":"7090636"},{"town":"寺山","koaza":"","lat":34.703454,"lng":134.079167,"zip":"7090604"},{"town":"富崎","koaza":"","lat":34.669352,"lng":134.037323,"zip":"7048104"},{"town":"豊田","koaza":"","lat":34.616966,"lng":134.016778,"zip":"7048162"},{"town":"中尾","koaza":"","lat":34.701951,"lng":134.024214,"zip":"7090626"},{"town":"中川町","koaza":"","lat":34.664941,"lng":133.995884,"zip":"7048176"},{"town":"長沼","koaza":"","lat":34.642084,"lng":134.067661,"zip":"7048131"},{"town":"楢原","koaza":"","lat":34.701682,"lng":134.062104,"zip":"7090611"},{"town":"西片岡","koaza":"","lat":34.59686,"lng":134.080136,"zip":"7048155"},{"town":"西幸西","koaza":"","lat":34.61113,"lng":134.045261,"zip":"7048136"},{"town":"西庄","koaza":"","lat":34.673763,"lng":134.023797,"zip":"7048106"},{"town":"西平島","koaza":"","lat":34.712183,"lng":134.045239,"zip":"7090633"},{"town":"沼","koaza":"","lat":34.702165,"lng":134.037684,"zip":"7090621"},{"town":"東片岡","koaza":"","lat":34.604036,"lng":134.09471,"zip":"7048151"},{"town":"東幸西","koaza":"","lat":34.614832,"lng":134.051618,"zip":"7048135"},{"town":"東幸崎","koaza":"","lat":34.613456,"lng":134.082623,"zip":"7048145"},{"town":"東平島","koaza":"","lat":34.711413,"lng":134.051946,"zip":"7090631"},{"town":"一日市","koaza":"","lat":34.714223,"lng":134.083997,"zip":"7090602"},{"town":"広谷","koaza":"","lat":34.658763,"lng":134.020038,"zip":"7048182"},{"town":"福治","koaza":"","lat":34.677553,"lng":134.03981,"zip":"7048107"},{"town":"藤井","koaza":"","lat":34.697491,"lng":134.00426,"zip":"7038213"},{"town":"富士見町一丁目","koaza":"","lat":34.659136,"lng":134.012291,"zip":"7048184"},{"town":"宝伝","koaza":"","lat":34.589018,"lng":134.096814,"zip":"7048152"},{"town":"正儀","koaza":"","lat":34.594816,"lng":134.062748,"zip":"7048147"},{"town":"政津","koaza":"","lat":34.635708,"lng":134.001598,"zip":"7048165"},{"town":"升田","koaza":"","lat":34.618208,"lng":133.999539,"zip":"7048163"},{"town":"益野町","koaza":"","lat":34.654201,"lng":133.997574,"zip":"7048175"},{"town":"松新町","koaza":"","lat":34.651622,"lng":134.006265,"zip":"7048174"},{"town":"南古都","koaza":"","lat":34.701245,"lng":134.051438,"zip":"7090632"},{"town":"南水門町","koaza":"","lat":34.609176,"lng":134.070495,"zip":"7048146"},{"town":"向州","koaza":"","lat":34.654367,"lng":134.041243,"zip":"7048115"},{"town":"目黒町","koaza":"","lat":34.67208,"lng":134.00812,"zip":"7048171"},{"town":"百枝月","koaza":"","lat":34.679409,"lng":134.068487,"zip":"7090613"},{"town":"矢井","koaza":"","lat":34.706782,"lng":134.061528,"zip":"7090606"},{"town":"矢津","koaza":"","lat":34.706803,"lng":133.990663,"zip":"7038211"},{"town":"吉井","koaza":"","lat":34.718414,"lng":134.090262,"zip":"7090601"},{"town":"吉原","koaza":"","lat":34.672837,"lng":134.031678,"zip":"7048105"}]