[{"town":"赤坂台","koaza":"","lat":34.649358,"lng":133.938305,"zip":"7038287"},{"town":"赤坂本町","koaza":"","lat":34.649741,"lng":133.936615,"zip":"7038288"},{"town":"赤坂南新町","koaza":"","lat":34.646598,"lng":133.939165,"zip":"7038283"},{"town":"赤田","koaza":"","lat":34.679775,"lng":133.963095,"zip":"7038231"},{"town":"網浜","koaza":"","lat":34.646992,"lng":133.936725,"zip":"7038284"},{"town":"今在家","koaza":"","lat":34.69277,"lng":133.950542,"zip":"7038208"},{"town":"今谷","koaza":"","lat":34.668476,"lng":133.979804,"zip":"7038226"},{"town":"江崎","koaza":"","lat":34.622248,"lng":133.959682,"zip":"7028005"},{"town":"江並","koaza":"","lat":34.609774,"lng":133.969482,"zip":"7028004"},{"town":"沖元","koaza":"","lat":34.630851,"lng":133.982028,"zip":"7028001"},{"town":"奥市","koaza":"","lat":34.658055,"lng":133.952663,"zip":"7038272"},{"town":"乙多見","koaza":"","lat":34.679722,"lng":133.978215,"zip":"7038228"},{"town":"御成町","koaza":"","lat":34.657809,"lng":133.94489,"zip":"7038277"},{"town":"雄町","koaza":"","lat":34.686139,"lng":133.974337,"zip":"7038204"},{"town":"門田文化町一丁目","koaza":"","lat":34.655508,"lng":133.948246,"zip":"7038273"},{"town":"門田文化町二丁目","koaza":"","lat":34.653076,"lng":133.947359,"zip":"7038273"},{"town":"門田文化町三丁目","koaza":"","lat":34.652935,"lng":133.951631,"zip":"7038273"},{"town":"門田本町一丁目","koaza":"","lat":34.651373,"lng":133.945655,"zip":"7038274"},{"town":"門田本町二丁目","koaza":"","lat":34.648374,"lng":133.943239,"zip":"7038274"},{"town":"門田本町三丁目","koaza":"","lat":34.649367,"lng":133.94527,"zip":"7038274"},{"town":"門田本町四丁目","koaza":"","lat":34.649255,"lng":133.948965,"zip":"7038274"},{"town":"門田屋敷一丁目","koaza":"","lat":34.65786,"lng":133.940438,"zip":"7038275"},{"town":"門田屋敷二丁目","koaza":"","lat":34.65536,"lng":133.94027,"zip":"7038275"},{"town":"門田屋敷三丁目","koaza":"","lat":34.653979,"lng":133.939931,"zip":"7038275"},{"town":"門田屋敷四丁目","koaza":"","lat":34.652792,"lng":133.939367,"zip":"7038275"},{"town":"門田屋敷五丁目","koaza":"","lat":34.656814,"lng":133.938286,"zip":"7038275"},{"town":"門田屋敷本町","koaza":"","lat":34.655159,"lng":133.937371,"zip":"7038276"},{"town":"兼基","koaza":"","lat":34.669038,"lng":133.972593,"zip":"7038227"},{"town":"祇園","koaza":"","lat":34.702748,"lng":133.956554,"zip":"7038207"},{"town":"旭東町一丁目","koaza":"","lat":34.651951,"lng":133.93501,"zip":"7038286"},{"town":"旭東町二丁目","koaza":"","lat":34.65096,"lng":133.936166,"zip":"7038286"},{"town":"旭東町三丁目","koaza":"","lat":34.650447,"lng":133.934133,"zip":"7038286"},{"town":"国富","koaza":"","lat":34.66616,"lng":133.943881,"zip":"7038236"},{"town":"国富一丁目","koaza":"","lat":34.66421,"lng":133.94534,"zip":"7038236"},{"town":"国富二丁目","koaza":"","lat":34.663615,"lng":133.94793,"zip":"7038236"},{"town":"国富三丁目","koaza":"","lat":34.663973,"lng":133.951096,"zip":"7038236"},{"town":"国富四丁目","koaza":"","lat":34.667999,"lng":133.94637,"zip":"7038236"},{"town":"倉田","koaza":"","lat":34.636578,"lng":133.960536,"zip":"7038265"},{"town":"倉富","koaza":"","lat":34.641699,"lng":133.969279,"zip":"7038264"},{"town":"倉益","koaza":"","lat":34.642511,"lng":133.977934,"zip":"7038263"},{"town":"桑野","koaza":"","lat":34.62109,"lng":133.979073,"zip":"7028002"},{"town":"神下","koaza":"","lat":34.676531,"lng":133.984321,"zip":"7038225"},{"town":"国府市場","koaza":"","lat":34.691617,"lng":133.967114,"zip":"7038203"},{"town":"小橋町一丁目","koaza":"","lat":34.659554,"lng":133.93739,"zip":"7038293"},{"town":"小橋町二丁目","koaza":"","lat":34.656937,"lng":133.93682,"zip":"7038293"},{"town":"さい","koaza":"","lat":34.680505,"lng":133.948429,"zip":"7038248"},{"town":"さい東町一丁目","koaza":"","lat":34.67753,"lng":133.951648,"zip":"7038247"},{"town":"さい東町二丁目","koaza":"","lat":34.681374,"lng":133.951752,"zip":"7038247"},{"town":"さくら住座","koaza":"","lat":34.651238,"lng":133.932312,"zip":"7038296"},{"town":"桜橋一丁目","koaza":"","lat":34.645697,"lng":133.932593,"zip":"7038285"},{"town":"桜橋二丁目","koaza":"","lat":34.648026,"lng":133.933562,"zip":"7038285"},{"town":"桜橋三丁目","koaza":"","lat":34.646621,"lng":133.934856,"zip":"7038285"},{"town":"桜橋四丁目","koaza":"","lat":34.645374,"lng":133.936624,"zip":"7038285"},{"town":"沢田","koaza":"","lat":34.665598,"lng":133.965227,"zip":"7038234"},{"town":"四御神","koaza":"","lat":34.700722,"lng":133.978166,"zip":"7038201"},{"town":"清水","koaza":"","lat":34.682776,"lng":133.962871,"zip":"7038243"},{"town":"清水一丁目","koaza":"","lat":34.679619,"lng":133.957384,"zip":"7038243"},{"town":"清水二丁目","koaza":"","lat":34.682232,"lng":133.956272,"zip":"7038243"},{"town":"下","koaza":"","lat":34.680393,"lng":133.996843,"zip":"7038222"},{"town":"賞田","koaza":"","lat":34.69774,"lng":133.959892,"zip":"7038206"},{"town":"新京橋一丁目","koaza":"","lat":34.654753,"lng":133.935854,"zip":"7038294"},{"town":"新京橋二丁目","koaza":"","lat":34.654493,"lng":133.937207,"zip":"7038294"},{"town":"新京橋三丁目","koaza":"","lat":34.653299,"lng":133.936594,"zip":"7038294"},{"town":"新築港","koaza":"","lat":34.605122,"lng":133.980937,"zip":"7028003"},{"town":"住吉町一丁目","koaza":"","lat":34.664151,"lng":133.941152,"zip":"7038238"},{"town":"住吉町二丁目","koaza":"","lat":34.665863,"lng":133.940176,"zip":"7038238"},{"town":"関","koaza":"","lat":34.67956,"lng":133.970964,"zip":"7038232"},{"town":"高島一丁目","koaza":"","lat":34.684945,"lng":133.949715,"zip":"7038242"},{"town":"高島二丁目","koaza":"","lat":34.683841,"lng":133.95473,"zip":"7038242"},{"town":"高島新屋敷","koaza":"","lat":34.687166,"lng":133.954442,"zip":"7038241"},{"town":"高屋","koaza":"","lat":34.67572,"lng":133.964969,"zip":"7038233"},{"town":"竹田","koaza":"","lat":34.683243,"lng":133.938897,"zip":"7038251"},{"town":"中納言町","koaza":"","lat":34.658954,"lng":133.938962,"zip":"7038292"},{"town":"土田","koaza":"","lat":34.699466,"lng":133.984962,"zip":"7038217"},{"town":"徳吉町一丁目","koaza":"","lat":34.659749,"lng":133.941727,"zip":"7038291"},{"town":"徳吉町二丁目","koaza":"","lat":34.657739,"lng":133.942576,"zip":"7038291"},{"town":"中井","koaza":"","lat":34.689598,"lng":133.95981,"zip":"7038205"},{"town":"中井一丁目","koaza":"","lat":34.685664,"lng":133.960131,"zip":"7038205"},{"town":"中井二丁目","koaza":"","lat":34.687904,"lng":133.959502,"zip":"7038205"},{"town":"中井三丁目","koaza":"","lat":34.687515,"lng":133.963256,"zip":"7038205"},{"town":"中井四丁目","koaza":"","lat":34.685631,"lng":133.963138,"zip":"7038205"},{"town":"長岡","koaza":"","lat":34.682312,"lng":133.985121,"zip":"7038221"},{"town":"中島","koaza":"","lat":34.687873,"lng":133.943016,"zip":"7038252"},{"town":"長利","koaza":"","lat":34.674021,"lng":134.000267,"zip":"7038223"},{"town":"西川原","koaza":"","lat":34.678026,"lng":133.940961,"zip":"7038258"},{"town":"西川原一丁目","koaza":"","lat":34.677309,"lng":133.935836,"zip":"7038258"},{"town":"西中島町","koaza":"","lat":34.657031,"lng":133.933472,"zip":"7038298"},{"town":"浜","koaza":"","lat":34.673318,"lng":133.941717,"zip":"7038256"},{"town":"浜一丁目","koaza":"","lat":34.673402,"lng":133.935523,"zip":"7038256"},{"town":"浜二丁目","koaza":"","lat":34.669832,"lng":133.937014,"zip":"7038256"},{"town":"浜三丁目","koaza":"","lat":34.669171,"lng":133.942084,"zip":"7038256"},{"town":"原尾島","koaza":"","lat":34.669239,"lng":133.955475,"zip":"7038235"},{"town":"原尾島一丁目","koaza":"","lat":34.673733,"lng":133.9508,"zip":"7038235"},{"town":"原尾島二丁目","koaza":"","lat":34.671817,"lng":133.953179,"zip":"7038235"},{"town":"原尾島三丁目","koaza":"","lat":34.669659,"lng":133.94812,"zip":"7038235"},{"town":"原尾島四丁目","koaza":"","lat":34.665447,"lng":133.956146,"zip":"7038235"},{"town":"東川原","koaza":"","lat":34.677217,"lng":133.946052,"zip":"7038255"},{"town":"東中島町","koaza":"","lat":34.657808,"lng":133.935244,"zip":"7038297"},{"town":"東山一丁目","koaza":"","lat":34.65566,"lng":133.945056,"zip":"7038281"},{"town":"東山二丁目","koaza":"","lat":34.654329,"lng":133.943312,"zip":"7038281"},{"town":"東山三丁目","koaza":"","lat":34.650892,"lng":133.941142,"zip":"7038281"},{"town":"東山四丁目","koaza":"","lat":34.647468,"lng":133.940726,"zip":"7038281"},{"town":"平井","koaza":"","lat":34.628316,"lng":133.951456,"zip":"7038282"},{"town":"平井一丁目","koaza":"","lat":34.643176,"lng":133.940199,"zip":"7038282"},{"town":"平井二丁目","koaza":"","lat":34.644264,"lng":133.947285,"zip":"7038282"},{"town":"平井三丁目","koaza":"","lat":34.63756,"lng":133.95012,"zip":"7038282"},{"town":"平井四丁目","koaza":"","lat":34.638485,"lng":133.946718,"zip":"7038282"},{"town":"平井五丁目","koaza":"","lat":34.639336,"lng":133.942501,"zip":"7038282"},{"town":"平井六丁目","koaza":"","lat":34.637888,"lng":133.939195,"zip":"7038282"},{"town":"平井七丁目","koaza":"","lat":34.632848,"lng":133.947659,"zip":"7038282"},{"town":"福泊","koaza":"","lat":34.656039,"lng":133.977273,"zip":"7038262"},{"town":"藤崎","koaza":"","lat":34.619029,"lng":133.97173,"zip":"7028006"},{"town":"藤原","koaza":"","lat":34.674846,"lng":133.959226,"zip":"7038245"},{"town":"藤原西町一丁目","koaza":"","lat":34.673703,"lng":133.956571,"zip":"7038244"},{"town":"藤原西町二丁目","koaza":"","lat":34.676535,"lng":133.956911,"zip":"7038244"},{"town":"藤原光町一丁目","koaza":"","lat":34.677082,"lng":133.953729,"zip":"7038246"},{"town":"藤原光町二丁目","koaza":"","lat":34.67851,"lng":133.954732,"zip":"7038246"},{"town":"藤原光町三丁目","koaza":"","lat":34.680711,"lng":133.954597,"zip":"7038246"},{"town":"古京町一丁目","koaza":"","lat":34.661872,"lng":133.939219,"zip":"7038278"},{"town":"古京町二丁目","koaza":"","lat":34.66038,"lng":133.944343,"zip":"7038278"},{"town":"円山","koaza":"","lat":34.657062,"lng":133.966596,"zip":"7038271"},{"town":"湊","koaza":"","lat":34.647063,"lng":133.957228,"zip":"7038266"},{"town":"御幸町","koaza":"","lat":34.653771,"lng":133.933693,"zip":"7038295"},{"town":"海吉","koaza":"","lat":34.65717,"lng":133.985756,"zip":"7038261"},{"town":"森下町","koaza":"","lat":34.662816,"lng":133.942184,"zip":"7038237"},{"town":"八幡","koaza":"","lat":34.685377,"lng":133.947138,"zip":"7038254"},{"town":"八幡東町","koaza":"","lat":34.687586,"lng":133.949736,"zip":"7038253"},{"town":"山崎","koaza":"","lat":34.651536,"lng":133.972356,"zip":"7038267"},{"town":"湯迫","koaza":"","lat":34.699621,"lng":133.968762,"zip":"7038202"},{"town":"米田","koaza":"","lat":34.673857,"lng":133.990064,"zip":"7038224"}]