[{"town":"足立","koaza":"","lat":35.048881,"lng":133.400714,"zip":"7180006"},{"town":"井倉","koaza":"","lat":34.927948,"lng":133.506919,"zip":"7192551"},{"town":"石蟹","koaza":"","lat":34.954601,"lng":133.473724,"zip":"7180015"},{"town":"大佐大井野","koaza":"","lat":35.156783,"lng":133.506483,"zip":"7193501"},{"town":"大佐小阪部","koaza":"","lat":35.088713,"lng":133.548739,"zip":"7193503"},{"town":"大佐上刑部","koaza":"","lat":35.120144,"lng":133.539735,"zip":"7193502"},{"town":"大佐小南","koaza":"","lat":35.065332,"lng":133.571015,"zip":"7193507"},{"town":"大佐田治部","koaza":"","lat":35.026728,"lng":133.547462,"zip":"7193506"},{"town":"大佐永富","koaza":"","lat":35.081531,"lng":133.578337,"zip":"7193504"},{"town":"大佐布瀬","koaza":"","lat":35.034323,"lng":133.572743,"zip":"7193505"},{"town":"金谷","koaza":"","lat":34.969723,"lng":133.457188,"zip":"7180016"},{"town":"上市","koaza":"","lat":35.0226,"lng":133.414959,"zip":"7180005"},{"town":"上熊谷","koaza":"","lat":35.017321,"lng":133.51699,"zip":"7180001"},{"town":"唐松","koaza":"","lat":34.964647,"lng":133.512144,"zip":"7180012"},{"town":"草間","koaza":"","lat":34.918885,"lng":133.54449,"zip":"7192732"},{"town":"坂本","koaza":"","lat":35.049065,"lng":133.440896,"zip":"7180007"},{"town":"下熊谷","koaza":"","lat":35.016326,"lng":133.486555,"zip":"7180002"},{"town":"正田","koaza":"","lat":34.963614,"lng":133.478285,"zip":"7180013"},{"town":"神郷釜村","koaza":"","lat":35.084397,"lng":133.390933,"zip":"7192801"},{"town":"神郷下神代","koaza":"","lat":34.982079,"lng":133.381416,"zip":"7193611"},{"town":"神郷高瀬","koaza":"","lat":35.085231,"lng":133.325714,"zip":"7192802"},{"town":"神郷油野","koaza":"","lat":35.034868,"lng":133.338954,"zip":"7193612"},{"town":"菅生","koaza":"","lat":35.080187,"lng":133.501113,"zip":"7180211"},{"town":"高尾","koaza":"","lat":35.008351,"lng":133.44977,"zip":"7180003"},{"town":"足見","koaza":"","lat":34.94626,"lng":133.519638,"zip":"7192642"},{"town":"千屋","koaza":"","lat":35.085897,"lng":133.430666,"zip":"7180101"},{"town":"千屋井原","koaza":"","lat":35.156016,"lng":133.455943,"zip":"7180103"},{"town":"千屋実","koaza":"","lat":35.107975,"lng":133.454288,"zip":"7180102"},{"town":"千屋花見","koaza":"","lat":35.161877,"lng":133.418088,"zip":"7180104"},{"town":"土橋","koaza":"","lat":34.967532,"lng":133.550842,"zip":"7192731"},{"town":"哲西町大竹","koaza":"","lat":34.900969,"lng":133.305621,"zip":"7193811"},{"town":"哲西町大野部","koaza":"","lat":34.888802,"lng":133.329897,"zip":"7193814"},{"town":"哲西町上神代","koaza":"","lat":34.975536,"lng":133.33607,"zip":"7193702"},{"town":"哲西町畑木","koaza":"","lat":34.918587,"lng":133.313148,"zip":"7193812"},{"town":"哲西町八鳥","koaza":"","lat":34.908157,"lng":133.326942,"zip":"7193813"},{"town":"哲西町矢田","koaza":"","lat":34.933017,"lng":133.338156,"zip":"7193701"},{"town":"哲多町老栄","koaza":"","lat":34.910959,"lng":133.42557,"zip":"7180307"},{"town":"哲多町大野","koaza":"","lat":34.948921,"lng":133.404395,"zip":"7180313"},{"town":"哲多町荻尾","koaza":"","lat":34.89807,"lng":133.484251,"zip":"7180305"},{"town":"哲多町蚊家","koaza":"","lat":34.894539,"lng":133.386599,"zip":"7180311"},{"town":"哲多町田淵","koaza":"","lat":34.928274,"lng":133.382079,"zip":"7180312"},{"town":"哲多町成松","koaza":"","lat":34.923326,"lng":133.439984,"zip":"7180304"},{"town":"哲多町花木","koaza":"","lat":34.935826,"lng":133.471525,"zip":"7180302"},{"town":"哲多町本郷","koaza":"","lat":34.933426,"lng":133.43168,"zip":"7180303"},{"town":"哲多町宮河内","koaza":"","lat":34.958149,"lng":133.437791,"zip":"7180301"},{"town":"哲多町矢戸","koaza":"","lat":34.89031,"lng":133.446228,"zip":"7180306"},{"town":"豊永赤馬","koaza":"","lat":34.989286,"lng":133.578835,"zip":"7192721"},{"town":"豊永宇山","koaza":"","lat":34.942877,"lng":133.575401,"zip":"7192723"},{"town":"豊永佐伏","koaza":"","lat":34.967147,"lng":133.604769,"zip":"7192722"},{"town":"長屋","koaza":"","lat":34.938197,"lng":133.489218,"zip":"7180014"},{"town":"新見","koaza":"","lat":34.982828,"lng":133.484627,"zip":"7180011"},{"town":"西方","koaza":"","lat":34.987862,"lng":133.4325,"zip":"7180017"},{"town":"法曽","koaza":"","lat":34.894715,"lng":133.522036,"zip":"7192552"},{"town":"馬塚","koaza":"","lat":35.027128,"lng":133.44687,"zip":"7180004"},{"town":"正田","koaza":"橋ノ本","lat":34.964582,"lng":133.47386,"zip":"7180013"},{"town":"西方","koaza":"仮屋ヶ市","lat":34.993896,"lng":133.443684,"zip":"7180017"}]