[{"town":"阿波","koaza":"","lat":35.262959,"lng":134.119141,"zip":"7093951"},{"town":"綾部","koaza":"","lat":35.117516,"lng":134.069218,"zip":"7081104"},{"town":"池ヶ原","koaza":"","lat":35.042717,"lng":134.078532,"zip":"7080000"},{"town":"一色","koaza":"","lat":35.046334,"lng":133.89538,"zip":"7094615"},{"town":"一宮","koaza":"","lat":35.096002,"lng":133.98459,"zip":"7080815"},{"town":"市場","koaza":"","lat":35.133266,"lng":134.11638,"zip":"7081206"},{"town":"一方","koaza":"","lat":35.049317,"lng":133.980029,"zip":"7080883"},{"town":"井口","koaza":"","lat":35.05021,"lng":133.987988,"zip":"7080885"},{"town":"院庄","koaza":"","lat":35.060132,"lng":133.95204,"zip":"7080014"},{"town":"上之町","koaza":"","lat":35.063943,"lng":134.016621,"zip":"7080831"},{"town":"瓜生原","koaza":"","lat":35.031846,"lng":134.042859,"zip":"7080844"},{"town":"大岩","koaza":"","lat":35.143479,"lng":134.124112,"zip":"7081202"},{"town":"大篠","koaza":"","lat":35.125823,"lng":134.034669,"zip":"7080802"},{"town":"大田","koaza":"","lat":35.091396,"lng":134.00579,"zip":"7080806"},{"town":"大谷","koaza":"","lat":35.046604,"lng":133.996685,"zip":"7080882"},{"town":"大手町","koaza":"","lat":35.059881,"lng":134.003629,"zip":"7080023"},{"town":"大吉","koaza":"","lat":35.156973,"lng":134.134351,"zip":"7081203"},{"town":"奥津川","koaza":"","lat":35.156938,"lng":134.11178,"zip":"7081201"},{"town":"小桁","koaza":"","lat":35.037792,"lng":134.025846,"zip":"7080863"},{"town":"桶屋町","koaza":"","lat":35.058024,"lng":133.998697,"zip":"7080066"},{"town":"押入","koaza":"","lat":35.067725,"lng":134.041278,"zip":"7081126"},{"town":"押渕","koaza":"","lat":35.014215,"lng":134.02164,"zip":"7080865"},{"town":"小田中","koaza":"","lat":35.064474,"lng":133.988516,"zip":"7080006"},{"town":"小原","koaza":"","lat":35.083801,"lng":133.99276,"zip":"7080001"},{"town":"鍛治町","koaza":"","lat":35.060886,"lng":133.998498,"zip":"7080077"},{"town":"勝部","koaza":"","lat":35.08725,"lng":134.025363,"zip":"7080804"},{"town":"勝間田町","koaza":"","lat":35.060822,"lng":134.011668,"zip":"7080835"},{"town":"金井","koaza":"","lat":35.035619,"lng":134.057084,"zip":"7080855"},{"town":"金屋","koaza":"","lat":35.028932,"lng":134.027501,"zip":"7080864"},{"town":"上河原","koaza":"","lat":35.085397,"lng":134.003667,"zip":"7080002"},{"town":"上紺屋町","koaza":"","lat":35.061258,"lng":133.99678,"zip":"7080076"},{"town":"上高倉","koaza":"","lat":35.116798,"lng":134.051212,"zip":"7081121"},{"town":"上田邑","koaza":"","lat":35.095902,"lng":133.962797,"zip":"7080011"},{"town":"上野田","koaza":"","lat":35.081955,"lng":134.096608,"zip":"7081214"},{"town":"上村","koaza":"","lat":35.100897,"lng":134.093103,"zip":"7081224"},{"town":"上横野","koaza":"","lat":35.143993,"lng":134.00192,"zip":"7080801"},{"town":"加茂町青柳","koaza":"","lat":35.210547,"lng":134.070755,"zip":"7093915"},{"town":"加茂町宇野","koaza":"","lat":35.207244,"lng":134.018274,"zip":"7093907"},{"town":"加茂町小渕","koaza":"","lat":35.187508,"lng":134.072136,"zip":"7093924"},{"town":"加茂町河井","koaza":"","lat":35.206189,"lng":134.117805,"zip":"7093912"},{"town":"加茂町公郷","koaza":"","lat":35.171129,"lng":134.078429,"zip":"7093921"},{"town":"加茂町倉見","koaza":"","lat":35.266393,"lng":134.052789,"zip":"7093901"},{"town":"加茂町黒木","koaza":"","lat":35.22349,"lng":134.04127,"zip":"7093902"},{"town":"加茂町桑原","koaza":"","lat":35.17559,"lng":134.062239,"zip":"7093923"},{"town":"加茂町小中原","koaza":"","lat":35.178402,"lng":134.050411,"zip":"7093906"},{"town":"加茂町齋野谷","koaza":"","lat":35.184857,"lng":134.047418,"zip":"7080000"},{"town":"加茂町山下","koaza":"","lat":35.207384,"lng":134.103286,"zip":"7093913"},{"town":"加茂町下津川","koaza":"","lat":35.171502,"lng":134.102892,"zip":"7093922"},{"town":"加茂町塔中","koaza":"","lat":35.184118,"lng":134.056375,"zip":"7093905"},{"town":"加茂町知和","koaza":"","lat":35.21015,"lng":134.090719,"zip":"7093914"},{"town":"加茂町百々","koaza":"","lat":35.177141,"lng":134.031366,"zip":"7093935"},{"town":"加茂町戸賀","koaza":"","lat":35.19584,"lng":134.048504,"zip":"7093903"},{"town":"加茂町中原","koaza":"","lat":35.173174,"lng":134.049434,"zip":"7093931"},{"town":"加茂町楢井","koaza":"","lat":35.164886,"lng":134.022121,"zip":"7093934"},{"town":"加茂町成安","koaza":"","lat":35.155259,"lng":134.06128,"zip":"7093932"},{"town":"加茂町原口","koaza":"","lat":35.184137,"lng":134.009741,"zip":"7093908"},{"town":"加茂町物見","koaza":"","lat":35.214802,"lng":134.145461,"zip":"7093911"},{"town":"加茂町行重","koaza":"","lat":35.1545,"lng":134.034182,"zip":"7093933"},{"town":"茅町","koaza":"","lat":35.059729,"lng":133.988852,"zip":"7080043"},{"town":"川崎","koaza":"","lat":35.061172,"lng":134.030946,"zip":"7080841"},{"town":"河辺","koaza":"","lat":35.059091,"lng":134.051726,"zip":"7080842"},{"town":"河原町","koaza":"","lat":35.058268,"lng":134.005137,"zip":"7080033"},{"town":"北園町","koaza":"","lat":35.076578,"lng":134.006452,"zip":"7080003"},{"town":"北町","koaza":"","lat":35.065889,"lng":134.005944,"zip":"7080021"},{"town":"京町","koaza":"","lat":35.058782,"lng":134.003732,"zip":"7080062"},{"town":"草加部","koaza":"","lat":35.10081,"lng":134.067247,"zip":"7081117"},{"town":"くめ","koaza":"","lat":35.06176,"lng":133.922922,"zip":"7094612"},{"town":"久米川南","koaza":"","lat":35.048552,"lng":133.928297,"zip":"7094614"},{"town":"桑上","koaza":"","lat":35.020847,"lng":133.915976,"zip":"7094624"},{"town":"桑下","koaza":"","lat":35.025068,"lng":133.923174,"zip":"7094623"},{"town":"神代","koaza":"","lat":35.03905,"lng":133.907106,"zip":"7094621"},{"town":"荒神山","koaza":"","lat":35.0281,"lng":134.014306,"zip":"7080866"},{"town":"河面","koaza":"","lat":35.071946,"lng":134.074705,"zip":"7081115"},{"town":"国分寺","koaza":"","lat":35.051025,"lng":134.041477,"zip":"7080843"},{"town":"小性町","koaza":"","lat":35.058093,"lng":134.00278,"zip":"7080063"},{"town":"細工町","koaza":"","lat":35.06165,"lng":133.996822,"zip":"7080053"},{"town":"材木町","koaza":"","lat":35.059179,"lng":134.008251,"zip":"7080031"},{"town":"堺町","koaza":"","lat":35.058413,"lng":134.001421,"zip":"7080064"},{"town":"坂上","koaza":"","lat":35.099956,"lng":134.102139,"zip":"7081223"},{"town":"里公文","koaza":"","lat":35.030257,"lng":133.897366,"zip":"7094625"},{"town":"里公文上","koaza":"","lat":35.031542,"lng":133.88111,"zip":"7094626"},{"town":"皿","koaza":"","lat":35.038463,"lng":133.973837,"zip":"7080873"},{"town":"山下","koaza":"","lat":35.061717,"lng":134.004087,"zip":"7080022"},{"town":"志戸部","koaza":"","lat":35.079019,"lng":134.019755,"zip":"7080825"},{"town":"紫保井","koaza":"","lat":35.091593,"lng":134.014451,"zip":"7080805"},{"town":"下紺屋町","koaza":"","lat":35.0614,"lng":133.999107,"zip":"7080071"},{"town":"下高倉西","koaza":"","lat":35.093588,"lng":134.04075,"zip":"7081123"},{"town":"下高倉東","koaza":"","lat":35.095107,"lng":134.053581,"zip":"7081122"},{"town":"下田邑","koaza":"","lat":35.076917,"lng":133.967838,"zip":"7080012"},{"town":"下野田","koaza":"","lat":35.075312,"lng":134.100329,"zip":"7081213"},{"town":"下横野","koaza":"","lat":35.112675,"lng":134.023483,"zip":"7080807"},{"town":"城代町","koaza":"","lat":35.065769,"lng":133.99823,"zip":"7080005"},{"town":"昭和町一丁目","koaza":"","lat":35.05524,"lng":133.999564,"zip":"7080886"},{"town":"昭和町二丁目","koaza":"","lat":35.055245,"lng":133.994647,"zip":"7080886"},{"town":"新魚町","koaza":"","lat":35.058696,"lng":134.000444,"zip":"7080065"},{"town":"新茅町","koaza":"","lat":35.05795,"lng":133.990947,"zip":"7080042"},{"town":"神戸","koaza":"","lat":35.062965,"lng":133.941498,"zip":"7080015"},{"town":"新職人町","koaza":"","lat":35.058785,"lng":133.999498,"zip":"7080067"},{"town":"杉宮","koaza":"","lat":35.090579,"lng":134.090875,"zip":"7081215"},{"town":"船頭町","koaza":"","lat":35.05763,"lng":134.003585,"zip":"7080034"},{"town":"総社","koaza":"","lat":35.076039,"lng":133.989406,"zip":"7080007"},{"town":"高尾","koaza":"","lat":35.035706,"lng":133.960202,"zip":"7080876"},{"town":"高野本郷","koaza":"","lat":35.079419,"lng":134.061803,"zip":"7081125"},{"town":"高野山西","koaza":"","lat":35.079309,"lng":134.044076,"zip":"7081124"},{"town":"種","koaza":"","lat":35.032961,"lng":133.996434,"zip":"7080874"},{"town":"田熊","koaza":"","lat":35.068153,"lng":134.091546,"zip":"7081113"},{"town":"田町","koaza":"","lat":35.062908,"lng":133.997564,"zip":"7080052"},{"town":"近長","koaza":"","lat":35.083277,"lng":134.081943,"zip":"7081112"},{"town":"椿高下","koaza":"","lat":35.066431,"lng":134.001702,"zip":"7080051"},{"town":"坪井上","koaza":"","lat":35.051281,"lng":133.83739,"zip":"7094605"},{"town":"坪井下","koaza":"","lat":35.053025,"lng":133.864222,"zip":"7094604"},{"town":"坪井町","koaza":"","lat":35.060584,"lng":133.996705,"zip":"7080075"},{"town":"津山口","koaza":"","lat":35.057198,"lng":133.985525,"zip":"7080884"},{"town":"鉄砲町","koaza":"","lat":35.057325,"lng":133.99379,"zip":"7080041"},{"town":"堂尾","koaza":"","lat":35.026553,"lng":134.079239,"zip":"7080853"},{"town":"戸川町","koaza":"","lat":35.059207,"lng":133.998953,"zip":"7080037"},{"town":"戸島","koaza":"","lat":35.071245,"lng":133.950607,"zip":"7080016"},{"town":"戸脇","koaza":"","lat":35.032019,"lng":133.931398,"zip":"7094622"},{"town":"中北上","koaza":"","lat":35.074103,"lng":133.843551,"zip":"7094606"},{"town":"中北下","koaza":"","lat":35.06718,"lng":133.899463,"zip":"7094603"},{"town":"中島","koaza":"","lat":35.053025,"lng":133.961575,"zip":"7080871"},{"town":"中之町","koaza":"","lat":35.061504,"lng":134.013087,"zip":"7080834"},{"town":"中原","koaza":"","lat":35.032574,"lng":134.066712,"zip":"7080854"},{"town":"中村","koaza":"","lat":35.093011,"lng":134.097971,"zip":"7081216"},{"town":"楢","koaza":"","lat":35.09606,"lng":134.081479,"zip":"7081111"},{"town":"新田","koaza":"","lat":35.0564,"lng":134.065637,"zip":"7080851"},{"town":"新野東","koaza":"","lat":35.107194,"lng":134.119964,"zip":"7081205"},{"town":"新野山形","koaza":"","lat":35.124666,"lng":134.09694,"zip":"7081226"},{"town":"二階町","koaza":"","lat":35.060084,"lng":134.001464,"zip":"7080024"},{"town":"西今町","koaza":"","lat":35.060421,"lng":133.992907,"zip":"7080046"},{"town":"西上","koaza":"","lat":35.129981,"lng":134.109165,"zip":"7081221"},{"town":"西下","koaza":"","lat":35.107105,"lng":134.09628,"zip":"7081225"},{"town":"西新町","koaza":"","lat":35.062343,"lng":134.015917,"zip":"7080833"},{"town":"西田辺","koaza":"","lat":35.126151,"lng":133.973597,"zip":"7080811"},{"town":"西寺町","koaza":"","lat":35.059907,"lng":133.991881,"zip":"7080045"},{"town":"西中","koaza":"","lat":35.112606,"lng":134.107307,"zip":"7081222"},{"town":"西吉田","koaza":"","lat":35.051298,"lng":134.055976,"zip":"7080856"},{"town":"二宮","koaza":"","lat":35.063948,"lng":133.968385,"zip":"7080013"},{"town":"日本原","koaza":"","lat":35.112878,"lng":134.129951,"zip":"7081204"},{"town":"沼","koaza":"","lat":35.077169,"lng":134.012521,"zip":"7080824"},{"town":"野介代","koaza":"","lat":35.075027,"lng":134.0295,"zip":"7080821"},{"town":"野村","koaza":"","lat":35.088162,"lng":134.067375,"zip":"7081116"},{"town":"林田","koaza":"","lat":35.070067,"lng":134.017311,"zip":"7080822"},{"town":"林田町","koaza":"","lat":35.060171,"lng":134.010362,"zip":"7080836"},{"town":"橋本町","koaza":"","lat":35.05995,"lng":134.009069,"zip":"7080837"},{"town":"原","koaza":"","lat":35.097632,"lng":134.117232,"zip":"7081211"},{"town":"東一宮","koaza":"","lat":35.100988,"lng":134.002068,"zip":"7080814"},{"town":"東新町","koaza":"","lat":35.063372,"lng":134.018721,"zip":"7080832"},{"town":"東田辺","koaza":"","lat":35.12169,"lng":133.982525,"zip":"7080812"},{"town":"日上","koaza":"","lat":35.0508,"lng":134.027753,"zip":"7080845"},{"town":"平福","koaza":"","lat":35.050094,"lng":133.969187,"zip":"7080872"},{"town":"吹屋町","koaza":"","lat":35.057212,"lng":133.999906,"zip":"7080035"},{"town":"福井","koaza":"","lat":35.059608,"lng":134.082164,"zip":"7081114"},{"town":"福田","koaza":"","lat":35.021364,"lng":133.964037,"zip":"7080875"},{"town":"福田下","koaza":"","lat":35.014505,"lng":133.912109,"zip":"7094631"},{"town":"福力","koaza":"","lat":35.046576,"lng":134.066226,"zip":"7080857"},{"town":"福渡町","koaza":"","lat":35.059854,"lng":133.996612,"zip":"7080074"},{"town":"伏見町","koaza":"","lat":35.05857,"lng":134.006705,"zip":"7080032"},{"town":"堀坂","koaza":"","lat":35.11758,"lng":134.082893,"zip":"7081103"},{"town":"本町二丁目","koaza":"","lat":35.060082,"lng":133.999642,"zip":"7080073"},{"town":"本町三丁目","koaza":"","lat":35.060168,"lng":133.998392,"zip":"7080073"},{"town":"三浦","koaza":"","lat":35.145056,"lng":134.086337,"zip":"7081101"},{"town":"南方中","koaza":"","lat":35.051336,"lng":133.884741,"zip":"7094616"},{"town":"南新座","koaza":"","lat":35.058245,"lng":133.996787,"zip":"7080036"},{"town":"南町一丁目","koaza":"","lat":35.0559,"lng":134.002619,"zip":"7080881"},{"town":"美濃町","koaza":"","lat":35.060802,"lng":133.999839,"zip":"7080072"},{"town":"宮尾","koaza":"","lat":35.057595,"lng":133.931063,"zip":"7094613"},{"town":"宮部上","koaza":"","lat":35.088251,"lng":133.853209,"zip":"7094601"},{"town":"宮部下","koaza":"","lat":35.073622,"lng":133.882813,"zip":"7094602"},{"town":"宮脇町","koaza":"","lat":35.06052,"lng":133.99493,"zip":"7080047"},{"town":"妙原","koaza":"","lat":35.133553,"lng":134.082303,"zip":"7081102"},{"town":"元魚町","koaza":"","lat":35.060565,"lng":134.00069,"zip":"7080061"},{"town":"籾保","koaza":"","lat":35.096046,"lng":134.024629,"zip":"7080803"},{"town":"八出","koaza":"","lat":35.057049,"lng":134.016804,"zip":"7080861"},{"town":"八社","koaza":"","lat":34.998398,"lng":133.899339,"zip":"7094632"},{"town":"安井","koaza":"","lat":35.09141,"lng":134.110424,"zip":"7081212"},{"town":"安岡町","koaza":"","lat":35.061451,"lng":133.986779,"zip":"7080044"},{"town":"山方","koaza":"","lat":35.11643,"lng":133.992111,"zip":"7080813"},{"town":"山北","koaza":"","lat":35.070585,"lng":134.004009,"zip":"7080004"},{"town":"弥生町","koaza":"","lat":35.074819,"lng":134.015296,"zip":"7080823"},{"town":"油木上","koaza":"","lat":35.001578,"lng":133.884214,"zip":"7094633"},{"town":"油木北","koaza":"","lat":35.016482,"lng":133.890505,"zip":"7094635"},{"town":"油木下","koaza":"","lat":35.013308,"lng":133.899304,"zip":"7094634"},{"town":"横山","koaza":"","lat":35.048089,"lng":134.010616,"zip":"7080862"},{"town":"吉見","koaza":"","lat":35.135417,"lng":134.06411,"zip":"7081105"},{"town":"領家","koaza":"","lat":35.062762,"lng":133.911635,"zip":"7094611"},{"town":"平福","koaza":"六反田","lat":35.05464,"lng":133.970762,"zip":"7080872"},{"town":"津山口","koaza":"中通","lat":35.058271,"lng":133.98386,"zip":"7080884"},{"town":"林田","koaza":"西神命","lat":35.070027,"lng":134.013104,"zip":"7080822"},{"town":"河辺","koaza":"北川原角右エ門","lat":35.064667,"lng":134.045741,"zip":"7080842"},{"town":"河辺","koaza":"濱田","lat":35.061777,"lng":134.048544,"zip":"7080842"}]