[{"town":"鴨方町鴨方","koaza":"","lat":34.538802,"lng":133.588634,"zip":"7190243"},{"town":"鴨方町小坂西","koaza":"","lat":34.540047,"lng":133.556123,"zip":"7190231"},{"town":"鴨方町小坂東","koaza":"","lat":34.567363,"lng":133.570732,"zip":"7190241"},{"town":"鴨方町地頭上","koaza":"","lat":34.559481,"lng":133.593193,"zip":"7190233"},{"town":"鴨方町鳩ケ丘一丁目","koaza":"","lat":34.518305,"lng":133.577722,"zip":"7190253"},{"town":"鴨方町鳩ケ丘二丁目","koaza":"","lat":34.515714,"lng":133.577718,"zip":"7190253"},{"town":"鴨方町鳩ケ丘三丁目","koaza":"","lat":34.514037,"lng":133.578235,"zip":"7190253"},{"town":"鴨方町鳩ケ丘四丁目","koaza":"","lat":34.515431,"lng":133.573923,"zip":"7190253"},{"town":"鴨方町深田","koaza":"","lat":34.538412,"lng":133.576361,"zip":"7190244"},{"town":"鴨方町本庄","koaza":"","lat":34.563035,"lng":133.584519,"zip":"7190232"},{"town":"鴨方町益坂","koaza":"","lat":34.557692,"lng":133.604002,"zip":"7190234"},{"town":"鴨方町みどりケ丘一丁目","koaza":"","lat":34.541774,"lng":133.572821,"zip":"7190242"},{"town":"鴨方町みどりケ丘二丁目","koaza":"","lat":34.540353,"lng":133.570634,"zip":"7190242"},{"town":"鴨方町みどりケ丘三丁目","koaza":"","lat":34.538182,"lng":133.569468,"zip":"7190242"},{"town":"鴨方町みどりケ丘四丁目","koaza":"","lat":34.536975,"lng":133.566658,"zip":"7190242"},{"town":"鴨方町六条院中","koaza":"","lat":34.517797,"lng":133.590067,"zip":"7190252"},{"town":"鴨方町六条院西","koaza":"","lat":34.506126,"lng":133.574431,"zip":"7190251"},{"town":"鴨方町六条院東","koaza":"","lat":34.519176,"lng":133.604172,"zip":"7190254"},{"town":"金光町占見","koaza":"","lat":34.545223,"lng":133.612379,"zip":"7190105"},{"town":"金光町占見新田","koaza":"","lat":34.548041,"lng":133.627572,"zip":"7190104"},{"town":"金光町大谷","koaza":"","lat":34.529953,"lng":133.629619,"zip":"7190111"},{"town":"金光町上竹","koaza":"","lat":34.568295,"lng":133.624833,"zip":"7190221"},{"town":"金光町佐方","koaza":"","lat":34.522302,"lng":133.611982,"zip":"7190113"},{"town":"金光町地頭下","koaza":"","lat":34.54334,"lng":133.599899,"zip":"7190106"},{"town":"金光町下竹","koaza":"","lat":34.552979,"lng":133.639155,"zip":"7190102"},{"town":"金光町須恵","koaza":"","lat":34.529558,"lng":133.618494,"zip":"7190112"},{"town":"金光町八重","koaza":"","lat":34.543633,"lng":133.642404,"zip":"7190103"},{"town":"寄島町","koaza":"","lat":34.484802,"lng":133.579302,"zip":"7140101"}]