[{"town":"牛窓町牛窓","koaza":"","lat":34.628302,"lng":134.159125,"zip":"7014302"},{"town":"牛窓町鹿忍","koaza":"","lat":34.61429,"lng":134.133803,"zip":"7014303"},{"town":"牛窓町千手","koaza":"","lat":34.613346,"lng":134.116156,"zip":"7014304"},{"town":"牛窓町長浜","koaza":"","lat":34.642269,"lng":134.135238,"zip":"7014301"},{"town":"邑久町大窪","koaza":"","lat":34.657395,"lng":134.083624,"zip":"7014231"},{"town":"邑久町大富","koaza":"","lat":34.661984,"lng":134.072143,"zip":"7014234"},{"town":"邑久町尾張","koaza":"","lat":34.661459,"lng":134.103182,"zip":"7014221"},{"town":"邑久町上笠加","koaza":"","lat":34.687685,"lng":134.103003,"zip":"7014252"},{"town":"邑久町上山田","koaza":"","lat":34.636969,"lng":134.113811,"zip":"7014215"},{"town":"邑久町北池","koaza":"","lat":34.681092,"lng":134.110318,"zip":"7014251"},{"town":"邑久町北島","koaza":"","lat":34.652424,"lng":134.070378,"zip":"7014232"},{"town":"邑久町下笠加","koaza":"","lat":34.680527,"lng":134.096922,"zip":"7014247"},{"town":"邑久町下山田","koaza":"","lat":34.649346,"lng":134.109057,"zip":"7014216"},{"town":"邑久町庄田","koaza":"","lat":34.672343,"lng":134.161226,"zip":"7014211"},{"town":"邑久町尻海","koaza":"","lat":34.659801,"lng":134.160827,"zip":"7014212"},{"town":"邑久町宗三","koaza":"","lat":34.666961,"lng":134.078814,"zip":"7014243"},{"town":"邑久町豊原","koaza":"","lat":34.64871,"lng":134.094493,"zip":"7014223"},{"town":"邑久町豊安","koaza":"","lat":34.657625,"lng":134.094649,"zip":"7014222"},{"town":"邑久町東谷","koaza":"","lat":34.641244,"lng":134.077845,"zip":"7014224"},{"town":"邑久町福谷","koaza":"","lat":34.674995,"lng":134.186506,"zip":"7014502"},{"town":"邑久町福中","koaza":"","lat":34.672213,"lng":134.072646,"zip":"7014244"},{"town":"邑久町福元","koaza":"","lat":34.675907,"lng":134.084852,"zip":"7014241"},{"town":"邑久町福山","koaza":"","lat":34.664894,"lng":134.061674,"zip":"7014245"},{"town":"邑久町本庄","koaza":"","lat":34.656171,"lng":134.120941,"zip":"7014214"},{"town":"邑久町豆田","koaza":"","lat":34.686063,"lng":134.083391,"zip":"7014254"},{"town":"邑久町箕輪","koaza":"","lat":34.686501,"lng":134.090847,"zip":"7014253"},{"town":"邑久町向山","koaza":"","lat":34.658056,"lng":134.065749,"zip":"7014233"},{"town":"邑久町百田","koaza":"","lat":34.665632,"lng":134.084498,"zip":"7014248"},{"town":"邑久町山田庄","koaza":"","lat":34.671354,"lng":134.096743,"zip":"7014246"},{"town":"邑久町山手","koaza":"","lat":34.670774,"lng":134.112357,"zip":"7014213"},{"town":"長船町飯井","koaza":"","lat":34.696551,"lng":134.147048,"zip":"7014261"},{"town":"長船町磯上","koaza":"","lat":34.711375,"lng":134.143141,"zip":"7014273"},{"town":"長船町牛文","koaza":"","lat":34.692603,"lng":134.130747,"zip":"7014274"},{"town":"長船町長船","koaza":"","lat":34.72086,"lng":134.104339,"zip":"7014271"},{"town":"長船町西須恵","koaza":"","lat":34.675359,"lng":134.132577,"zip":"7014263"},{"town":"長船町土師","koaza":"","lat":34.692972,"lng":134.111663,"zip":"7014264"},{"town":"長船町服部","koaza":"","lat":34.707395,"lng":134.106862,"zip":"7014276"},{"town":"長船町東須恵","koaza":"","lat":34.682733,"lng":134.151639,"zip":"7014262"},{"town":"長船町福岡","koaza":"","lat":34.70259,"lng":134.092225,"zip":"7014265"},{"town":"長船町福里","koaza":"","lat":34.701937,"lng":134.121453,"zip":"7014275"},{"town":"長船町八日市","koaza":"","lat":34.712356,"lng":134.095784,"zip":"7014272"},{"town":"邑久町虫明","koaza":"","lat":34.693723,"lng":134.213652,"zip":"7014501"}]