[{"town":"石島","koaza":"","lat":34.50169,"lng":134.014646,"zip":"7060306"},{"town":"宇藤木","koaza":"","lat":34.529826,"lng":133.89204,"zip":"7060133"},{"town":"宇野一丁目","koaza":"","lat":34.490037,"lng":133.947345,"zip":"7060011"},{"town":"宇野二丁目","koaza":"","lat":34.489923,"lng":133.942068,"zip":"7060011"},{"town":"宇野三丁目","koaza":"","lat":34.485456,"lng":133.944821,"zip":"7060011"},{"town":"宇野四丁目","koaza":"","lat":34.483914,"lng":133.938335,"zip":"7060011"},{"town":"宇野五丁目","koaza":"","lat":34.489158,"lng":133.936219,"zip":"7060011"},{"town":"宇野六丁目","koaza":"","lat":34.497429,"lng":133.926754,"zip":"7060011"},{"town":"宇野七丁目","koaza":"","lat":34.498157,"lng":133.938039,"zip":"7060011"},{"town":"宇野八丁目","koaza":"","lat":34.496231,"lng":133.944337,"zip":"7060011"},{"town":"大藪","koaza":"","lat":34.533817,"lng":133.963046,"zip":"7060000"},{"town":"奥玉一丁目","koaza":"","lat":34.487918,"lng":133.923315,"zip":"7060013"},{"town":"奥玉二丁目","koaza":"","lat":34.483016,"lng":133.920856,"zip":"7060013"},{"town":"奥玉三丁目","koaza":"","lat":34.489146,"lng":133.917233,"zip":"7060013"},{"town":"御崎一丁目","koaza":"","lat":34.463514,"lng":133.92646,"zip":"7060024"},{"town":"御崎二丁目","koaza":"","lat":34.46019,"lng":133.928727,"zip":"7060024"},{"town":"梶岡","koaza":"","lat":34.555995,"lng":134.002324,"zip":"7060311"},{"town":"上山坂","koaza":"","lat":34.568347,"lng":133.994748,"zip":"7060303"},{"town":"北方","koaza":"","lat":34.569992,"lng":134.014911,"zip":"7060301"},{"town":"後閑","koaza":"","lat":34.532341,"lng":133.984553,"zip":"7060315"},{"town":"小島地","koaza":"","lat":34.517372,"lng":133.874248,"zip":"7060144"},{"town":"渋川一丁目","koaza":"","lat":34.458161,"lng":133.908058,"zip":"7060028"},{"town":"渋川二丁目","koaza":"","lat":34.459108,"lng":133.902807,"zip":"7060028"},{"town":"渋川三丁目","koaza":"","lat":34.463222,"lng":133.896047,"zip":"7060028"},{"town":"渋川四丁目","koaza":"","lat":34.462817,"lng":133.887299,"zip":"7060028"},{"town":"下山坂","koaza":"","lat":34.559547,"lng":134.015799,"zip":"7060302"},{"town":"田井一丁目","koaza":"","lat":34.508884,"lng":133.951224,"zip":"7060001"},{"town":"田井二丁目","koaza":"","lat":34.511558,"lng":133.933284,"zip":"7060001"},{"town":"田井三丁目","koaza":"","lat":34.515534,"lng":133.947588,"zip":"7060001"},{"town":"田井四丁目","koaza":"","lat":34.523674,"lng":133.937084,"zip":"7060001"},{"town":"田井五丁目","koaza":"","lat":34.524369,"lng":133.955316,"zip":"7060001"},{"town":"田井六丁目","koaza":"","lat":34.510206,"lng":133.957681,"zip":"7060001"},{"town":"滝","koaza":"","lat":34.487879,"lng":133.875949,"zip":"7060153"},{"town":"玉一丁目","koaza":"","lat":34.483318,"lng":133.933495,"zip":"7060012"},{"town":"玉二丁目","koaza":"","lat":34.481262,"lng":133.933277,"zip":"7060012"},{"town":"玉三丁目","koaza":"","lat":34.470661,"lng":133.932783,"zip":"7060012"},{"town":"玉四丁目","koaza":"","lat":34.477653,"lng":133.926955,"zip":"7060012"},{"town":"玉五丁目","koaza":"","lat":34.480736,"lng":133.924679,"zip":"7060012"},{"town":"玉六丁目","koaza":"","lat":34.486962,"lng":133.929908,"zip":"7060012"},{"town":"玉原一丁目","koaza":"","lat":34.49423,"lng":133.911123,"zip":"7060014"},{"town":"玉原二丁目","koaza":"","lat":34.478716,"lng":133.91362,"zip":"7060014"},{"town":"玉原三丁目","koaza":"","lat":34.477753,"lng":133.906067,"zip":"7060014"},{"town":"築港一丁目","koaza":"","lat":34.494803,"lng":133.953074,"zip":"7060002"},{"town":"築港二丁目","koaza":"","lat":34.497736,"lng":133.950532,"zip":"7060002"},{"town":"築港三丁目","koaza":"","lat":34.500345,"lng":133.945278,"zip":"7060002"},{"town":"築港四丁目","koaza":"","lat":34.501852,"lng":133.955568,"zip":"7060002"},{"town":"築港五丁目","koaza":"","lat":34.4958,"lng":133.959194,"zip":"7060002"},{"town":"槌ケ原","koaza":"","lat":34.517222,"lng":133.912259,"zip":"7060141"},{"town":"永井","koaza":"","lat":34.478939,"lng":133.870502,"zip":"7060152"},{"town":"長尾","koaza":"","lat":34.487631,"lng":133.892581,"zip":"7060151"},{"town":"西田井地","koaza":"","lat":34.554969,"lng":133.982479,"zip":"7060313"},{"town":"沼","koaza":"","lat":34.522877,"lng":133.995656,"zip":"7060316"},{"town":"迫間","koaza":"","lat":34.504374,"lng":133.898331,"zip":"7060142"},{"town":"八浜町大崎","koaza":"","lat":34.534829,"lng":133.936411,"zip":"7060224"},{"town":"八浜町波知","koaza":"","lat":34.548877,"lng":133.962711,"zip":"7060223"},{"town":"八浜町八浜","koaza":"","lat":34.545535,"lng":133.946112,"zip":"7060221"},{"town":"八浜町見石","koaza":"","lat":34.565804,"lng":133.948995,"zip":"7060222"},{"town":"羽根崎町","koaza":"","lat":34.461284,"lng":133.924609,"zip":"7060026"},{"town":"番田","koaza":"","lat":34.564625,"lng":134.025219,"zip":"7060304"},{"town":"東紅陽台一丁目","koaza":"","lat":34.540632,"lng":133.893912,"zip":"7060131"},{"town":"東紅陽台二丁目","koaza":"","lat":34.537036,"lng":133.897012,"zip":"7060131"},{"town":"東田井地","koaza":"","lat":34.557762,"lng":133.99218,"zip":"7060312"},{"town":"東高崎","koaza":"","lat":34.536857,"lng":133.891415,"zip":"7060134"},{"town":"東七区","koaza":"","lat":34.551019,"lng":133.931325,"zip":"7060226"},{"town":"東野崎","koaza":"","lat":34.540157,"lng":133.994693,"zip":"7060314"},{"town":"日比一丁目","koaza":"","lat":34.460289,"lng":133.920094,"zip":"7060027"},{"town":"日比二丁目","koaza":"","lat":34.458643,"lng":133.916661,"zip":"7060027"},{"town":"日比三丁目","koaza":"","lat":34.45772,"lng":133.922907,"zip":"7060027"},{"town":"日比四丁目","koaza":"","lat":34.455891,"lng":133.922317,"zip":"7060027"},{"town":"日比五丁目","koaza":"","lat":34.453348,"lng":133.924432,"zip":"7060027"},{"town":"日比六丁目","koaza":"","lat":34.457318,"lng":133.913579,"zip":"7060027"},{"town":"日比七丁目","koaza":"","lat":34.469984,"lng":133.90095,"zip":"7060027"},{"town":"広岡","koaza":"","lat":34.501977,"lng":133.883385,"zip":"7060154"},{"town":"深井町","koaza":"","lat":34.456482,"lng":133.938876,"zip":"7060023"},{"town":"南七区","koaza":"","lat":34.538189,"lng":133.914537,"zip":"7060225"},{"town":"明神町","koaza":"","lat":34.45891,"lng":133.925049,"zip":"7060025"},{"town":"向日比一丁目","koaza":"","lat":34.459489,"lng":133.932616,"zip":"7060022"},{"town":"向日比二丁目","koaza":"","lat":34.454387,"lng":133.933321,"zip":"7060022"},{"town":"胸上","koaza":"","lat":34.550141,"lng":134.00381,"zip":"7060305"},{"town":"木目","koaza":"","lat":34.514376,"lng":133.885293,"zip":"7060143"},{"town":"用吉","koaza":"","lat":34.521179,"lng":133.893361,"zip":"7060132"},{"town":"山田","koaza":"","lat":34.545787,"lng":133.985085,"zip":"7060314"},{"town":"和田一丁目","koaza":"","lat":34.473006,"lng":133.924272,"zip":"7060021"},{"town":"和田二丁目","koaza":"","lat":34.466946,"lng":133.928723,"zip":"7060021"},{"town":"和田三丁目","koaza":"","lat":34.465963,"lng":133.923524,"zip":"7060021"},{"town":"和田四丁目","koaza":"","lat":34.467657,"lng":133.918132,"zip":"7060021"},{"town":"和田五丁目","koaza":"","lat":34.469278,"lng":133.921113,"zip":"7060021"},{"town":"和田六丁目","koaza":"","lat":34.47224,"lng":133.918513,"zip":"7060021"},{"town":"和田七丁目","koaza":"","lat":34.469136,"lng":133.910872,"zip":"7060021"}]