[{"town":"中町","koaza":"","lat":35.177164,"lng":133.569363,"zip":"7170201"},{"town":"東町","koaza":"","lat":35.175806,"lng":133.569913,"zip":"7170201"},{"town":"田浪","koaza":"","lat":35.217927,"lng":133.531441,"zip":"7170201"},{"town":"野土路","koaza":"","lat":35.223413,"lng":133.579604,"zip":"7170201"},{"town":"二ツ橋","koaza":"","lat":35.198992,"lng":133.533728,"zip":"7170201"},{"town":"滝ノ尻","koaza":"","lat":35.206154,"lng":133.553978,"zip":"7170201"},{"town":"戸島","koaza":"","lat":35.177319,"lng":133.561624,"zip":"7170201"},{"town":"高下","koaza":"","lat":35.201415,"lng":133.57415,"zip":"7170201"},{"town":"大原","koaza":"","lat":35.196628,"lng":133.564804,"zip":"7170201"},{"town":"中谷","koaza":"","lat":35.197488,"lng":133.5722,"zip":"7170201"},{"town":"浦手","koaza":"","lat":35.192357,"lng":133.576558,"zip":"7170201"},{"town":"梨瀬","koaza":"","lat":35.191353,"lng":133.568158,"zip":"7170201"},{"town":"田中","koaza":"","lat":35.188301,"lng":133.565477,"zip":"7170201"},{"town":"鍛冶屋","koaza":"","lat":35.182117,"lng":133.569149,"zip":"7170201"},{"town":"幸町","koaza":"","lat":35.178566,"lng":133.567135,"zip":"7170201"},{"town":"上町","koaza":"","lat":35.178055,"lng":133.568204,"zip":"7170201"},{"town":"本町","koaza":"","lat":35.177584,"lng":133.568643,"zip":"7170201"},{"town":"西町","koaza":"","lat":35.175799,"lng":133.569439,"zip":"7170201"},{"town":"旭町","koaza":"","lat":35.17522,"lng":133.570217,"zip":"7170201"},{"town":"長床","koaza":"","lat":35.168653,"lng":133.579835,"zip":"7170201"},{"town":"田井","koaza":"","lat":35.184157,"lng":133.564778,"zip":"7170201"},{"town":"茅見","koaza":"","lat":35.165161,"lng":133.56446,"zip":"7170201"},{"town":"大所","koaza":"","lat":35.163314,"lng":133.57835,"zip":"7170201"}]