[{"town":"相生","koaza":"","lat":34.519698,"lng":133.498673,"zip":"7140014"},{"town":"旭が丘","koaza":"","lat":34.51186,"lng":133.481543,"zip":"7140056"},{"town":"有田","koaza":"","lat":34.521993,"lng":133.460789,"zip":"7140075"},{"town":"一番町","koaza":"","lat":34.496375,"lng":133.523157,"zip":"7140082"},{"town":"今立","koaza":"","lat":34.529418,"lng":133.53729,"zip":"7140022"},{"town":"入江","koaza":"","lat":34.487988,"lng":133.526714,"zip":"7140041"},{"town":"絵師","koaza":"","lat":34.506882,"lng":133.530273,"zip":"7140091"},{"town":"生江浜","koaza":"","lat":34.505449,"lng":133.483054,"zip":"7140055"},{"town":"大井南","koaza":"","lat":34.530373,"lng":133.500109,"zip":"7140013"},{"town":"大宜","koaza":"","lat":34.506729,"lng":133.473295,"zip":"7140000"},{"town":"大河","koaza":"","lat":34.528834,"lng":133.48795,"zip":"7140073"},{"town":"大島中","koaza":"","lat":34.474689,"lng":133.55988,"zip":"7140033"},{"town":"尾坂","koaza":"","lat":34.568614,"lng":133.556081,"zip":"7140003"},{"town":"押撫","koaza":"","lat":34.528963,"lng":133.459075,"zip":"7140076"},{"town":"小平井","koaza":"","lat":34.537295,"lng":133.509789,"zip":"7140012"},{"town":"笠岡","koaza":"","lat":34.51378,"lng":133.515358,"zip":"7140081"},{"town":"春日台","koaza":"","lat":34.529881,"lng":133.513867,"zip":"7140025"},{"town":"金浦","koaza":"","lat":34.513346,"lng":133.49448,"zip":"7140057"},{"town":"カブト中央町","koaza":"","lat":34.487151,"lng":133.488216,"zip":"7140052"},{"town":"カブト西町","koaza":"","lat":34.476217,"lng":133.485714,"zip":"7140053"},{"town":"カブト東町","koaza":"","lat":34.49469,"lng":133.496362,"zip":"7140051"},{"town":"カブト南町","koaza":"","lat":34.472821,"lng":133.500009,"zip":"7140046"},{"town":"北木島町","koaza":"","lat":34.384521,"lng":133.532074,"zip":"7140301"},{"town":"九番町","koaza":"","lat":34.493733,"lng":133.518253,"zip":"7140096"},{"town":"鋼管町","koaza":"","lat":34.471908,"lng":133.46785,"zip":"7140063"},{"town":"甲弩","koaza":"","lat":34.591347,"lng":133.550816,"zip":"7140002"},{"town":"神島","koaza":"","lat":34.460527,"lng":133.500598,"zip":"7140044"},{"town":"神島外浦","koaza":"","lat":34.454674,"lng":133.507335,"zip":"7140034"},{"town":"五番町","koaza":"","lat":34.498129,"lng":133.512896,"zip":"7140086"},{"town":"三番町","koaza":"","lat":34.497981,"lng":133.518604,"zip":"7140084"},{"town":"篠坂","koaza":"","lat":34.537482,"lng":133.459828,"zip":"7140077"},{"town":"十一番町","koaza":"","lat":34.49403,"lng":133.513153,"zip":"7140098"},{"town":"十番町","koaza":"","lat":34.495423,"lng":133.516005,"zip":"7140097"},{"town":"白石島","koaza":"","lat":34.403117,"lng":133.515124,"zip":"7140036"},{"town":"城見台","koaza":"","lat":34.500221,"lng":133.458652,"zip":"7140065"},{"town":"新賀","koaza":"","lat":34.562139,"lng":133.517715,"zip":"7140005"},{"town":"新横島","koaza":"","lat":34.491405,"lng":133.524203,"zip":"7140093"},{"town":"関戸","koaza":"","lat":34.556729,"lng":133.532723,"zip":"7140004"},{"town":"園井","koaza":"","lat":34.527878,"lng":133.522801,"zip":"7140021"},{"town":"高島","koaza":"","lat":34.429529,"lng":133.508736,"zip":"7140035"},{"town":"拓海町","koaza":"","lat":34.487223,"lng":133.506174,"zip":"7140047"},{"town":"中央町","koaza":"","lat":34.506616,"lng":133.505847,"zip":"7140088"},{"town":"富岡","koaza":"","lat":34.498294,"lng":133.527113,"zip":"7140092"},{"town":"七番町","koaza":"","lat":34.496483,"lng":133.518346,"zip":"7140094"},{"town":"西大島","koaza":"","lat":34.47953,"lng":133.541799,"zip":"7140032"},{"town":"西大島新田","koaza":"","lat":34.487075,"lng":133.528915,"zip":"7140031"},{"town":"西大戸","koaza":"","lat":34.53578,"lng":133.486023,"zip":"7140072"},{"town":"西茂平","koaza":"","lat":34.486802,"lng":133.451447,"zip":"7140064"},{"town":"二番町","koaza":"","lat":34.497627,"lng":133.521166,"zip":"7140083"},{"town":"入田","koaza":"","lat":34.540932,"lng":133.474668,"zip":"7140078"},{"town":"走出","koaza":"","lat":34.582193,"lng":133.517733,"zip":"7140001"},{"town":"八番町","koaza":"","lat":34.495405,"lng":133.520833,"zip":"7140095"},{"town":"東大戸","koaza":"","lat":34.545736,"lng":133.495543,"zip":"7140071"},{"town":"飛島","koaza":"","lat":34.342772,"lng":133.503527,"zip":"7140302"},{"town":"広浜","koaza":"","lat":34.514997,"lng":133.539585,"zip":"7140023"},{"town":"平成町","koaza":"","lat":34.496138,"lng":133.478516,"zip":"7140054"},{"town":"馬飼","koaza":"","lat":34.513325,"lng":133.529708,"zip":"7140024"},{"town":"真鍋島","koaza":"","lat":34.355796,"lng":133.573493,"zip":"7140037"},{"town":"緑町","koaza":"","lat":34.492448,"lng":133.519397,"zip":"7140048"},{"town":"港町","koaza":"","lat":34.465012,"lng":133.479448,"zip":"7140045"},{"town":"みの越","koaza":"","lat":34.552607,"lng":133.506149,"zip":"7140006"},{"town":"美の浜","koaza":"","lat":34.485924,"lng":133.519648,"zip":"7140042"},{"town":"六島","koaza":"","lat":34.304053,"lng":133.531852,"zip":"7140038"},{"town":"用之江","koaza":"","lat":34.506149,"lng":133.460455,"zip":"7140066"},{"town":"茂平","koaza":"","lat":34.490295,"lng":133.460957,"zip":"7140062"},{"town":"山口","koaza":"","lat":34.57604,"lng":133.53494,"zip":"7140007"},{"town":"横島","koaza":"","lat":34.483633,"lng":133.523924,"zip":"7140043"},{"town":"吉田","koaza":"","lat":34.54621,"lng":133.529402,"zip":"7140011"},{"town":"吉浜","koaza":"","lat":34.519665,"lng":133.479393,"zip":"7140074"},{"town":"四番町","koaza":"","lat":34.498351,"lng":133.515748,"zip":"7140085"},{"town":"六番町","koaza":"","lat":34.496261,"lng":133.515376,"zip":"7140087"},{"town":"神島","koaza":"片島","lat":34.479609,"lng":133.506059,"zip":"7140044"},{"town":"笠岡","koaza":"大磯","lat":34.499254,"lng":133.518413,"zip":"7140081"}]