[{"town":"赤浜","koaza":"","lat":34.68364,"lng":133.796478,"zip":"7191121"},{"town":"井尻野","koaza":"","lat":34.69034,"lng":133.733137,"zip":"7191154"},{"town":"泉","koaza":"","lat":34.690772,"lng":133.753717,"zip":"7191106"},{"town":"井手","koaza":"","lat":34.675653,"lng":133.7638,"zip":"7191125"},{"town":"宇山","koaza":"","lat":34.739433,"lng":133.672594,"zip":"7191315"},{"town":"駅前一丁目","koaza":"","lat":34.674734,"lng":133.740005,"zip":"7191136"},{"town":"岡谷","koaza":"","lat":34.651914,"lng":133.773613,"zip":"7191162"},{"town":"奥坂","koaza":"","lat":34.73105,"lng":133.772354,"zip":"7191101"},{"town":"刑部","koaza":"","lat":34.691274,"lng":133.759476,"zip":"7191116"},{"town":"影","koaza":"","lat":34.718699,"lng":133.612324,"zip":"7191322"},{"town":"金井戸","koaza":"","lat":34.682444,"lng":133.772507,"zip":"7191114"},{"town":"上林","koaza":"","lat":34.672546,"lng":133.779758,"zip":"7191123"},{"town":"上原","koaza":"","lat":34.673671,"lng":133.715109,"zip":"7191143"},{"town":"北溝手","koaza":"","lat":34.690039,"lng":133.773704,"zip":"7191117"},{"town":"清音柿木","koaza":"","lat":34.656102,"lng":133.737184,"zip":"7191176"},{"town":"清音上中島","koaza":"","lat":34.643686,"lng":133.730425,"zip":"7191175"},{"town":"清音軽部","koaza":"","lat":34.643006,"lng":133.740047,"zip":"7191172"},{"town":"清音黒田","koaza":"","lat":34.630941,"lng":133.749202,"zip":"7191173"},{"town":"清音古地","koaza":"","lat":34.629829,"lng":133.73442,"zip":"7191174"},{"town":"清音三因","koaza":"","lat":34.646992,"lng":133.753311,"zip":"7191171"},{"town":"久代","koaza":"","lat":34.677141,"lng":133.688383,"zip":"7101201"},{"town":"窪木","koaza":"","lat":34.69033,"lng":133.784544,"zip":"7191112"},{"town":"久米","koaza":"","lat":34.704815,"lng":133.767553,"zip":"7191104"},{"town":"黒尾","koaza":"","lat":34.713932,"lng":133.755573,"zip":"7191105"},{"town":"槁","koaza":"","lat":34.772777,"lng":133.653818,"zip":"7191313"},{"town":"小寺","koaza":"","lat":34.693191,"lng":133.744676,"zip":"7191155"},{"town":"宍粟","koaza":"","lat":34.714187,"lng":133.714447,"zip":"7191153"},{"town":"下倉","koaza":"","lat":34.706237,"lng":133.652159,"zip":"7191321"},{"town":"地頭片山","koaza":"","lat":34.652454,"lng":133.765308,"zip":"7191163"},{"town":"下林","koaza":"","lat":34.674391,"lng":133.789826,"zip":"7191122"},{"town":"下原","koaza":"","lat":34.656116,"lng":133.722214,"zip":"7191145"},{"town":"宿","koaza":"","lat":34.65397,"lng":133.788905,"zip":"7191161"},{"town":"新本","koaza":"","lat":34.666295,"lng":133.643134,"zip":"7101203"},{"town":"総社","koaza":"","lat":34.684696,"lng":133.76589,"zip":"7191126"},{"town":"総社一丁目","koaza":"","lat":34.675521,"lng":133.748352,"zip":"7191126"},{"town":"総社二丁目","koaza":"","lat":34.676312,"lng":133.752657,"zip":"7191126"},{"town":"総社三丁目","koaza":"","lat":34.677283,"lng":133.75679,"zip":"7191126"},{"town":"種井","koaza":"","lat":34.748445,"lng":133.635976,"zip":"7191312"},{"town":"中央二丁目","koaza":"","lat":34.674708,"lng":133.74438,"zip":"7191131"},{"town":"中央三丁目","koaza":"","lat":34.671667,"lng":133.748958,"zip":"7191131"},{"town":"中央四丁目","koaza":"","lat":34.671776,"lng":133.752737,"zip":"7191131"},{"town":"中央五丁目","koaza":"","lat":34.668974,"lng":133.752473,"zip":"7191131"},{"town":"富原","koaza":"","lat":34.665445,"lng":133.719339,"zip":"7191144"},{"town":"中尾","koaza":"","lat":34.728765,"lng":133.610238,"zip":"7191323"},{"town":"中原","koaza":"","lat":34.662792,"lng":133.731487,"zip":"7191133"},{"town":"長良","koaza":"","lat":34.690682,"lng":133.792809,"zip":"7191111"},{"town":"西阿曽","koaza":"","lat":34.708942,"lng":133.780123,"zip":"7191103"},{"town":"西郡","koaza":"","lat":34.65474,"lng":133.760058,"zip":"7191164"},{"town":"西坂台","koaza":"","lat":34.642491,"lng":133.772068,"zip":"7191165"},{"town":"延原","koaza":"","lat":34.757251,"lng":133.663991,"zip":"7191314"},{"town":"秦","koaza":"","lat":34.688894,"lng":133.710123,"zip":"7191142"},{"town":"原","koaza":"","lat":34.738544,"lng":133.634189,"zip":"7191324"},{"town":"東阿曽","koaza":"","lat":34.717738,"lng":133.793171,"zip":"7191102"},{"town":"日羽","koaza":"","lat":34.728827,"lng":133.697311,"zip":"7191316"},{"town":"福井","koaza":"","lat":34.692579,"lng":133.755932,"zip":"7191115"},{"town":"福谷","koaza":"","lat":34.703718,"lng":133.698481,"zip":"7191141"},{"town":"槙谷","koaza":"","lat":34.753708,"lng":133.718723,"zip":"7191100"},{"town":"三須","koaza":"","lat":34.668647,"lng":133.768048,"zip":"7191124"},{"town":"溝口","koaza":"","lat":34.676022,"lng":133.734112,"zip":"7191135"},{"town":"美袋","koaza":"","lat":34.72792,"lng":133.652037,"zip":"7191311"},{"town":"南溝手","koaza":"","lat":34.686823,"lng":133.778106,"zip":"7191113"},{"town":"見延","koaza":"","lat":34.721817,"lng":133.732533,"zip":"7191152"},{"town":"門田","koaza":"","lat":34.679682,"lng":133.739974,"zip":"7191156"},{"town":"八代","koaza":"","lat":34.665262,"lng":133.702164,"zip":"7191146"},{"town":"山田","koaza":"","lat":34.684305,"lng":133.653616,"zip":"7101202"},{"town":"駅前二丁目","koaza":"","lat":34.67161,"lng":133.739765,"zip":"7191136"},{"town":"真壁","koaza":"","lat":34.671871,"lng":133.728359,"zip":"7191134"},{"town":"三輪","koaza":"","lat":34.661154,"lng":133.746302,"zip":"7191132"},{"town":"駅南一丁目","koaza":"","lat":34.667359,"lng":133.739468,"zip":"7191137"},{"town":"駅南二丁目","koaza":"","lat":34.667476,"lng":133.742791,"zip":"7191137"},{"town":"中央一丁目","koaza":"","lat":34.671604,"lng":133.744573,"zip":"7191131"},{"town":"中央六丁目","koaza":"","lat":34.668026,"lng":133.748589,"zip":"7191131"},{"town":"井手","koaza":"村後","lat":34.676614,"lng":133.76379,"zip":"7191125"},{"town":"井手","koaza":"出張","lat":34.678333,"lng":133.765867,"zip":"7191125"}]