[{"town":"英田青野","koaza":"","lat":34.945971,"lng":134.120813,"zip":"7012623"},{"town":"青木","koaza":"","lat":34.998663,"lng":134.116201,"zip":"7070065"},{"town":"赤田","koaza":"","lat":35.082368,"lng":134.287476,"zip":"7070432"},{"town":"芦河内","koaza":"","lat":35.03664,"lng":134.222535,"zip":"7094232"},{"town":"安蘇","koaza":"","lat":34.967434,"lng":134.123698,"zip":"7070053"},{"town":"粟井中","koaza":"","lat":35.071095,"lng":134.23706,"zip":"7094205"},{"town":"粟野","koaza":"","lat":35.078771,"lng":134.270929,"zip":"7070437"},{"town":"井口","koaza":"","lat":34.938847,"lng":134.148531,"zip":"7012606"},{"town":"位田","koaza":"","lat":34.979417,"lng":134.120246,"zip":"7070052"},{"town":"稲穂","koaza":"","lat":34.988789,"lng":134.11332,"zip":"7070051"},{"town":"猪臥","koaza":"","lat":34.986124,"lng":134.177092,"zip":"7070034"},{"town":"今岡","koaza":"","lat":35.104017,"lng":134.335236,"zip":"7070416"},{"town":"岩辺","koaza":"","lat":35.044692,"lng":134.247607,"zip":"7094222"},{"town":"岩見田","koaza":"","lat":34.974054,"lng":134.111218,"zip":"7070054"},{"town":"上山","koaza":"","lat":34.899635,"lng":134.145417,"zip":"7012614"},{"town":"後山","koaza":"","lat":35.171113,"lng":134.39523,"zip":"7070401"},{"town":"右手","koaza":"","lat":35.179022,"lng":134.250215,"zip":"7070204"},{"town":"江ノ原","koaza":"","lat":35.145104,"lng":134.322728,"zip":"7070411"},{"town":"江見","koaza":"","lat":35.014243,"lng":134.225624,"zip":"7094234"},{"town":"江見吉田","koaza":"","lat":35.026352,"lng":134.231475,"zip":"7094227"},{"town":"大井が丘","koaza":"","lat":35.010224,"lng":134.133377,"zip":"7070005"},{"town":"大内谷","koaza":"","lat":35.030224,"lng":134.265388,"zip":"7094223"},{"town":"太田","koaza":"","lat":35.146052,"lng":134.361008,"zip":"7070404"},{"town":"大原","koaza":"","lat":34.979813,"lng":134.196055,"zip":"7070033"},{"town":"大町","koaza":"","lat":35.071293,"lng":134.202322,"zip":"7070124"},{"town":"奥","koaza":"","lat":34.921713,"lng":134.115873,"zip":"7012605"},{"town":"奥大谷","koaza":"","lat":35.011135,"lng":134.099383,"zip":"7070067"},{"town":"尾谷","koaza":"","lat":34.949429,"lng":134.153773,"zip":"7012601"},{"town":"小野","koaza":"","lat":35.080378,"lng":134.249896,"zip":"7094203"},{"town":"小ノ谷","koaza":"","lat":35.043647,"lng":134.263331,"zip":"7094215"},{"town":"小畑","koaza":"","lat":35.059989,"lng":134.194845,"zip":"7070132"},{"town":"小原田","koaza":"","lat":35.09373,"lng":134.313386,"zip":"7070423"},{"town":"小房","koaza":"","lat":35.095856,"lng":134.249077,"zip":"7094201"},{"town":"海田","koaza":"","lat":34.970765,"lng":134.164234,"zip":"7070044"},{"town":"柿ケ原","koaza":"","lat":34.950398,"lng":134.23071,"zip":"7094253"},{"town":"梶並","koaza":"","lat":35.114625,"lng":134.244877,"zip":"7070201"},{"town":"梶原","koaza":"","lat":35.088928,"lng":134.258799,"zip":"7094202"},{"town":"桂坪","koaza":"","lat":35.08974,"lng":134.287698,"zip":"7070426"},{"town":"金原","koaza":"","lat":34.984195,"lng":134.108671,"zip":"7070055"},{"town":"上福原","koaza":"","lat":35.005318,"lng":134.233333,"zip":"7094246"},{"town":"上相","koaza":"","lat":35.039959,"lng":134.14718,"zip":"7070001"},{"town":"川上","koaza":"","lat":35.116926,"lng":134.299322,"zip":"7070421"},{"town":"川北","koaza":"","lat":35.018857,"lng":134.211685,"zip":"7094236"},{"town":"川戸","koaza":"","lat":35.069635,"lng":134.272215,"zip":"7070436"},{"town":"川東","koaza":"","lat":35.123679,"lng":134.341578,"zip":"7070407"},{"town":"北","koaza":"","lat":34.927395,"lng":134.181623,"zip":"7012611"},{"town":"北坂","koaza":"","lat":34.996271,"lng":134.123518,"zip":"7070063"},{"town":"北原","koaza":"","lat":34.999914,"lng":134.178981,"zip":"7070036"},{"town":"北山","koaza":"","lat":35.030003,"lng":134.162197,"zip":"7070014"},{"town":"久賀","koaza":"","lat":35.098306,"lng":134.227662,"zip":"7070111"},{"town":"朽木","koaza":"","lat":35.005221,"lng":134.160846,"zip":"7070042"},{"town":"国貞","koaza":"","lat":34.956321,"lng":134.191332,"zip":"7094255"},{"town":"楮","koaza":"","lat":35.131651,"lng":134.23587,"zip":"7070202"},{"town":"河内","koaza":"","lat":35.069078,"lng":134.184651,"zip":"7070131"},{"town":"巨勢","koaza":"","lat":34.973311,"lng":134.137269,"zip":"7070045"},{"town":"五名","koaza":"","lat":35.060803,"lng":134.267565,"zip":"7094211"},{"town":"栄町","koaza":"","lat":35.009128,"lng":134.151569,"zip":"7070025"},{"town":"鷺巣","koaza":"","lat":35.063614,"lng":134.248138,"zip":"7094204"},{"town":"笹岡","koaza":"","lat":35.103752,"lng":134.313418,"zip":"7070422"},{"town":"沢田","koaza":"","lat":35.065663,"lng":134.284594,"zip":"7070435"},{"town":"下大谷","koaza":"","lat":35.006982,"lng":134.113613,"zip":"7070066"},{"town":"下香山","koaza":"","lat":35.041912,"lng":134.163534,"zip":"7070016"},{"town":"下庄町","koaza":"","lat":35.087022,"lng":134.314153,"zip":"7070425"},{"town":"下町","koaza":"","lat":35.10762,"lng":134.321865,"zip":"7070417"},{"town":"下山","koaza":"","lat":34.960089,"lng":134.114179,"zip":"7012621"},{"town":"城田","koaza":"","lat":34.966481,"lng":134.104643,"zip":"7012625"},{"town":"白水","koaza":"","lat":34.966282,"lng":134.264456,"zip":"7094251"},{"town":"杉原","koaza":"","lat":35.064078,"lng":134.188791,"zip":"7070133"},{"town":"鈴家","koaza":"","lat":34.971399,"lng":134.206839,"zip":"7094256"},{"town":"角南","koaza":"","lat":34.967013,"lng":134.246674,"zip":"7094252"},{"town":"瀬戸","koaza":"","lat":35.048232,"lng":134.236241,"zip":"7094221"},{"town":"田井","koaza":"","lat":35.086688,"lng":134.277,"zip":"7070431"},{"town":"大聖寺","koaza":"","lat":35.037714,"lng":134.27648,"zip":"7094213"},{"town":"滝","koaza":"","lat":35.10396,"lng":134.275321,"zip":"7070427"},{"town":"滝宮","koaza":"","lat":34.922659,"lng":134.212735,"zip":"7012612"},{"town":"竹田","koaza":"","lat":34.995506,"lng":134.236701,"zip":"7094245"},{"town":"立石","koaza":"","lat":35.077344,"lng":134.300826,"zip":"7070433"},{"town":"田殿","koaza":"","lat":35.047026,"lng":134.203559,"zip":"7070012"},{"town":"田渕","koaza":"","lat":34.974141,"lng":134.222705,"zip":"7094257"},{"town":"田原","koaza":"","lat":35.018239,"lng":134.253816,"zip":"7094242"},{"town":"土居","koaza":"","lat":34.987154,"lng":134.259664,"zip":"7094244"},{"town":"殿所","koaza":"","lat":34.993645,"lng":134.120235,"zip":"7070064"},{"town":"友野","koaza":"","lat":35.002584,"lng":134.182263,"zip":"7070037"},{"town":"豊国原","koaza":"","lat":35.023192,"lng":134.160619,"zip":"7070015"},{"town":"豊野","koaza":"","lat":35.036242,"lng":134.24624,"zip":"7094224"},{"town":"鳥渕","koaza":"","lat":34.954498,"lng":134.1255,"zip":"7012622"},{"town":"長内","koaza":"","lat":34.996236,"lng":134.093169,"zip":"7070056"},{"town":"中尾","koaza":"","lat":35.027211,"lng":134.147105,"zip":"7070002"},{"town":"中川","koaza":"","lat":34.915722,"lng":134.160414,"zip":"7012615"},{"town":"中河内","koaza":"","lat":34.957569,"lng":134.104394,"zip":"7012624"},{"town":"中谷","koaza":"","lat":35.171328,"lng":134.370696,"zip":"7070402"},{"town":"中町","koaza":"","lat":35.11201,"lng":134.334311,"zip":"7070413"},{"town":"中山","koaza":"","lat":35.007099,"lng":134.123431,"zip":"7070061"},{"town":"鯰","koaza":"","lat":35.033252,"lng":134.23092,"zip":"7094226"},{"town":"楢原上","koaza":"","lat":35.026035,"lng":134.188119,"zip":"7070022"},{"town":"楢原下","koaza":"","lat":35.015064,"lng":134.168512,"zip":"7070024"},{"town":"楢原中","koaza":"","lat":35.031084,"lng":134.175428,"zip":"7070021"},{"town":"南海","koaza":"","lat":35.031705,"lng":134.207735,"zip":"7094231"},{"town":"西町","koaza":"","lat":35.115107,"lng":134.350285,"zip":"7070414"},{"town":"入田","koaza":"","lat":35.006818,"lng":134.143463,"zip":"7070004"},{"town":"野形","koaza":"","lat":35.093573,"lng":134.3042,"zip":"7070424"},{"town":"野原","koaza":"","lat":35.151628,"lng":134.352967,"zip":"7070405"},{"town":"則平","koaza":"","lat":34.995297,"lng":134.108433,"zip":"7070057"},{"town":"長谷内","koaza":"","lat":35.075008,"lng":134.218525,"zip":"7070121"},{"town":"林野","koaza":"","lat":35.003791,"lng":134.150045,"zip":"7070041"},{"town":"原","koaza":"","lat":35.001432,"lng":134.219068,"zip":"7094235"},{"town":"東青野","koaza":"","lat":35.158691,"lng":134.365485,"zip":"7070403"},{"town":"東谷上","koaza":"","lat":35.147734,"lng":134.278803,"zip":"7070205"},{"town":"東谷下","koaza":"","lat":35.12123,"lng":134.267887,"zip":"7070206"},{"town":"東吉田","koaza":"","lat":35.14632,"lng":134.343634,"zip":"7070406"},{"town":"日指","koaza":"","lat":35.027876,"lng":134.24893,"zip":"7094241"},{"town":"平田","koaza":"","lat":35.003085,"lng":134.171259,"zip":"7070035"},{"town":"平福","koaza":"","lat":35.010343,"lng":134.1899,"zip":"7070023"},{"town":"福本","koaza":"","lat":34.930992,"lng":134.127834,"zip":"7012604"},{"town":"藤生","koaza":"","lat":35.025267,"lng":134.221257,"zip":"7094233"},{"town":"古町","koaza":"","lat":35.137068,"lng":134.316639,"zip":"7070412"},{"town":"馬形","koaza":"","lat":35.064624,"lng":134.218399,"zip":"7070122"},{"town":"真加部","koaza":"","lat":35.080736,"lng":134.183299,"zip":"7070113"},{"town":"真神","koaza":"","lat":34.927113,"lng":134.155126,"zip":"7012602"},{"town":"松脇","koaza":"","lat":35.030762,"lng":134.236116,"zip":"7094225"},{"town":"真殿","koaza":"","lat":35.142492,"lng":134.250976,"zip":"7070203"},{"town":"豆田","koaza":"","lat":35.050817,"lng":134.274017,"zip":"7094214"},{"town":"万善","koaza":"","lat":34.946813,"lng":134.203774,"zip":"7094254"},{"town":"海内","koaza":"","lat":34.997723,"lng":134.162791,"zip":"7070043"},{"town":"三倉田","koaza":"","lat":34.992215,"lng":134.153726,"zip":"7070046"},{"town":"南","koaza":"","lat":34.916099,"lng":134.188381,"zip":"7094231"},{"town":"壬生","koaza":"","lat":35.073596,"lng":134.28547,"zip":"7070434"},{"town":"三保原","koaza":"","lat":34.930438,"lng":134.140582,"zip":"7012603"},{"town":"宮原","koaza":"","lat":35.057667,"lng":134.302631,"zip":"7094212"},{"town":"宮本","koaza":"","lat":35.093701,"lng":134.336774,"zip":"7070415"},{"town":"明見","koaza":"","lat":35.015579,"lng":134.146174,"zip":"7070003"},{"town":"宗掛","koaza":"","lat":35.053632,"lng":134.222398,"zip":"7070123"},{"town":"矢田","koaza":"","lat":35.055878,"lng":134.18504,"zip":"7070134"},{"town":"山口","koaza":"","lat":35.003201,"lng":134.201969,"zip":"7070031"},{"town":"山城","koaza":"","lat":35.011944,"lng":134.245865,"zip":"7094247"},{"town":"山手","koaza":"","lat":35.053723,"lng":134.259651,"zip":"7094216"},{"town":"山外野","koaza":"","lat":34.99171,"lng":134.210864,"zip":"7070032"},{"town":"湯郷","koaza":"","lat":34.995125,"lng":134.137822,"zip":"7070062"},{"town":"横尾","koaza":"","lat":34.902139,"lng":134.180561,"zip":"7012613"},{"town":"吉","koaza":"","lat":35.036766,"lng":134.172251,"zip":"7070013"},{"town":"余野","koaza":"","lat":35.093436,"lng":134.199924,"zip":"7070112"},{"town":"蓮花寺","koaza":"","lat":35.001334,"lng":134.265732,"zip":"7094243"},{"town":"和田","koaza":"","lat":35.044255,"lng":134.180607,"zip":"7070011"},{"town":"北山","koaza":"横手","lat":35.025316,"lng":134.162507,"zip":"7070014"}]