[{"town":"井坂","koaza":"","lat":35.185966,"lng":133.911773,"zip":"7080421"},{"town":"市場","koaza":"","lat":35.111597,"lng":133.950409,"zip":"7080315"},{"town":"入","koaza":"","lat":35.110478,"lng":133.9077,"zip":"7080351"},{"town":"岩屋","koaza":"","lat":35.19006,"lng":133.981618,"zip":"7080302"},{"town":"円宗寺","koaza":"","lat":35.099794,"lng":133.942693,"zip":"7080321"},{"town":"大","koaza":"","lat":35.155841,"lng":133.805781,"zip":"7080704"},{"town":"大町","koaza":"","lat":35.180073,"lng":133.966973,"zip":"7080303"},{"town":"沖","koaza":"","lat":35.090275,"lng":133.945636,"zip":"7080322"},{"town":"奥津","koaza":"","lat":35.216261,"lng":133.942334,"zip":"7080503"},{"town":"奥津川西","koaza":"","lat":35.223465,"lng":133.909465,"zip":"7080504"},{"town":"小座","koaza":"","lat":35.111173,"lng":133.925046,"zip":"7080363"},{"town":"女原","koaza":"","lat":35.174584,"lng":133.910806,"zip":"7080423"},{"town":"香々美","koaza":"","lat":35.123306,"lng":133.961822,"zip":"7080312"},{"town":"上齋原","koaza":"","lat":35.304273,"lng":133.966089,"zip":"7080601"},{"town":"上森原","koaza":"","lat":35.127358,"lng":133.924638,"zip":"7080361"},{"town":"楠","koaza":"","lat":35.139602,"lng":133.807489,"zip":"7080705"},{"town":"久田上原","koaza":"","lat":35.142892,"lng":133.899597,"zip":"7080432"},{"town":"久田下原","koaza":"","lat":35.13194,"lng":133.888049,"zip":"7080433"},{"town":"公保田","koaza":"","lat":35.109914,"lng":133.959146,"zip":"7080313"},{"town":"黒木","koaza":"","lat":35.152183,"lng":133.882695,"zip":"7080435"},{"town":"河内","koaza":"","lat":35.156322,"lng":133.912578,"zip":"7080431"},{"town":"河本","koaza":"","lat":35.085055,"lng":133.899474,"zip":"7080343"},{"town":"越畑","koaza":"","lat":35.231946,"lng":133.984958,"zip":"7080301"},{"town":"真経","koaza":"","lat":35.163445,"lng":133.953986,"zip":"7080304"},{"town":"沢田","koaza":"","lat":35.100235,"lng":133.951679,"zip":"7080314"},{"town":"至孝農","koaza":"","lat":35.18876,"lng":133.899689,"zip":"7080427"},{"town":"下斎原","koaza":"","lat":35.253343,"lng":133.940536,"zip":"7080501"},{"town":"下原","koaza":"","lat":35.071891,"lng":133.915177,"zip":"7080341"},{"town":"下森原","koaza":"","lat":35.115492,"lng":133.915557,"zip":"7080364"},{"town":"杉","koaza":"","lat":35.165994,"lng":133.905939,"zip":"7080424"},{"town":"瀬戸","koaza":"","lat":35.098376,"lng":133.931069,"zip":"7080325"},{"town":"高山","koaza":"","lat":35.090633,"lng":133.883819,"zip":"7080345"},{"town":"薪森原","koaza":"","lat":35.082383,"lng":133.913994,"zip":"7080342"},{"town":"竹田","koaza":"","lat":35.093051,"lng":133.932698,"zip":"7080324"},{"town":"塚谷","koaza":"","lat":35.124128,"lng":133.903653,"zip":"7080365"},{"town":"貞永寺","koaza":"","lat":35.130534,"lng":133.936863,"zip":"7080362"},{"town":"寺元","koaza":"","lat":35.084864,"lng":133.934233,"zip":"7080323"},{"town":"寺和田","koaza":"","lat":35.13915,"lng":133.955987,"zip":"7080311"},{"town":"土居","koaza":"","lat":35.107502,"lng":133.935529,"zip":"7080317"},{"town":"富仲間","koaza":"","lat":35.139565,"lng":133.828647,"zip":"7080703"},{"town":"富西谷","koaza":"","lat":35.178797,"lng":133.812189,"zip":"7080701"},{"town":"富東谷","koaza":"","lat":35.177734,"lng":133.857329,"zip":"7080702"},{"town":"中谷","koaza":"","lat":35.126469,"lng":133.855556,"zip":"7080353"},{"town":"長藤","koaza":"","lat":35.240812,"lng":133.937232,"zip":"7080502"},{"town":"西屋","koaza":"","lat":35.17875,"lng":133.884482,"zip":"7080426"},{"town":"布原","koaza":"","lat":35.078487,"lng":133.94149,"zip":"7080331"},{"town":"箱","koaza":"","lat":35.164423,"lng":133.881382,"zip":"7080425"},{"town":"羽出","koaza":"","lat":35.239531,"lng":133.886869,"zip":"7080511"},{"town":"羽出西谷","koaza":"","lat":35.228075,"lng":133.843428,"zip":"7080512"},{"town":"馬場","koaza":"","lat":35.128695,"lng":133.915437,"zip":"7080366"},{"town":"土生","koaza":"","lat":35.135484,"lng":133.872889,"zip":"7080434"},{"town":"原","koaza":"","lat":35.087686,"lng":133.906667,"zip":"7080344"},{"town":"古川","koaza":"","lat":35.076728,"lng":133.935187,"zip":"7080333"},{"town":"真加部","koaza":"","lat":35.090107,"lng":133.917961,"zip":"7080335"},{"town":"宗枝","koaza":"","lat":35.077867,"lng":133.927578,"zip":"7080334"},{"town":"百谷","koaza":"","lat":35.171036,"lng":133.937843,"zip":"7080305"},{"town":"山城","koaza":"","lat":35.101403,"lng":133.888783,"zip":"7080352"},{"town":"養野","koaza":"","lat":35.185353,"lng":133.929586,"zip":"7080422"},{"town":"吉原","koaza":"","lat":35.067758,"lng":133.934951,"zip":"7080332"},{"town":"和田","koaza":"","lat":35.118273,"lng":133.945211,"zip":"7080316"}]