[{"town":"合田","koaza":"","lat":34.853143,"lng":133.99919,"zip":"7012443"},{"town":"石","koaza":"","lat":34.874155,"lng":134.049357,"zip":"7012514"},{"town":"石上","koaza":"","lat":34.849677,"lng":133.97253,"zip":"7012445"},{"town":"五日市","koaza":"","lat":34.773065,"lng":134.013265,"zip":"7090831"},{"town":"稲蒔","koaza":"","lat":34.885628,"lng":134.082299,"zip":"7012511"},{"town":"今井","koaza":"","lat":34.819433,"lng":134.026844,"zip":"7012213"},{"town":"岩田","koaza":"","lat":34.741433,"lng":134.011238,"zip":"7090822"},{"town":"円光寺","koaza":"","lat":34.796487,"lng":134.101017,"zip":"7090711"},{"town":"大苅田","koaza":"","lat":34.79108,"lng":134.024526,"zip":"7012221"},{"town":"大屋","koaza":"","lat":34.834224,"lng":134.032957,"zip":"7012205"},{"town":"岡","koaza":"","lat":34.81263,"lng":134.065894,"zip":"7090702"},{"town":"小鎌","koaza":"","lat":34.866719,"lng":133.97083,"zip":"7012446"},{"town":"奥吉原","koaza":"","lat":34.779491,"lng":134.134209,"zip":"7090713"},{"town":"小瀬木","koaza":"","lat":34.78613,"lng":134.09029,"zip":"7090717"},{"town":"尾谷","koaza":"","lat":34.771919,"lng":134.021223,"zip":"7090806"},{"town":"可真上","koaza":"","lat":34.786945,"lng":134.05625,"zip":"7090733"},{"town":"可真下","koaza":"","lat":34.792376,"lng":134.069233,"zip":"7090732"},{"town":"上市","koaza":"","lat":34.757875,"lng":134.018429,"zip":"7090817"},{"town":"上仁保","koaza":"","lat":34.774764,"lng":133.989732,"zip":"7090837"},{"town":"鴨前","koaza":"","lat":34.757154,"lng":134.001351,"zip":"7090834"},{"town":"河田原","koaza":"","lat":34.786936,"lng":134.10451,"zip":"7090719"},{"town":"河原屋","koaza":"","lat":34.933821,"lng":134.063454,"zip":"7012501"},{"town":"北佐古田","koaza":"","lat":34.821082,"lng":134.042579,"zip":"7012211"},{"town":"草生","koaza":"","lat":34.93314,"lng":134.083785,"zip":"7012502"},{"town":"熊崎","koaza":"","lat":34.757224,"lng":134.010644,"zip":"7090833"},{"town":"暮田","koaza":"","lat":34.869996,"lng":134.067614,"zip":"7012512"},{"town":"黒沢","koaza":"","lat":34.910619,"lng":134.064721,"zip":"7012522"},{"town":"黒本","koaza":"","lat":34.918631,"lng":134.072705,"zip":"7012521"},{"town":"光木","koaza":"","lat":34.885005,"lng":134.061602,"zip":"7012515"},{"town":"神田","koaza":"","lat":34.783481,"lng":134.022448,"zip":"7090801"},{"town":"河本","koaza":"","lat":34.747768,"lng":134.015266,"zip":"7090821"},{"town":"小原","koaza":"","lat":34.836791,"lng":134.000273,"zip":"7012201"},{"town":"是里","koaza":"","lat":34.933277,"lng":134.031585,"zip":"7012525"},{"town":"斎富","koaza":"","lat":34.752749,"lng":134.034778,"zip":"7090813"},{"town":"坂辺","koaza":"","lat":34.849586,"lng":134.006796,"zip":"7012202"},{"town":"桜が丘西十丁目","koaza":"","lat":34.784301,"lng":134.034941,"zip":"7090802"},{"town":"桜が丘西一丁目","koaza":"","lat":34.767476,"lng":134.043696,"zip":"7090802"},{"town":"桜が丘西二丁目","koaza":"","lat":34.770951,"lng":134.038587,"zip":"7090802"},{"town":"桜が丘西三丁目","koaza":"","lat":34.77357,"lng":134.041709,"zip":"7090802"},{"town":"桜が丘西四丁目","koaza":"","lat":34.777884,"lng":134.042661,"zip":"7090802"},{"town":"桜が丘西五丁目","koaza":"","lat":34.778876,"lng":134.039338,"zip":"7090802"},{"town":"桜が丘西六丁目","koaza":"","lat":34.778651,"lng":134.036027,"zip":"7090802"},{"town":"桜が丘西七丁目","koaza":"","lat":34.773035,"lng":134.033495,"zip":"7090802"},{"town":"桜が丘西八丁目","koaza":"","lat":34.776153,"lng":134.028889,"zip":"7090802"},{"town":"桜が丘西九丁目","koaza":"","lat":34.780371,"lng":134.030312,"zip":"7090802"},{"town":"桜が丘東一丁目","koaza":"","lat":34.773768,"lng":134.049285,"zip":"7090721"},{"town":"桜が丘東二丁目","koaza":"","lat":34.778478,"lng":134.047034,"zip":"7090721"},{"town":"桜が丘東三丁目","koaza":"","lat":34.78343,"lng":134.04943,"zip":"7090721"},{"town":"桜が丘東四丁目","koaza":"","lat":34.783458,"lng":134.044303,"zip":"7090721"},{"town":"桜が丘東五丁目","koaza":"","lat":34.783371,"lng":134.039398,"zip":"7090721"},{"town":"桜が丘東六丁目","koaza":"","lat":34.788107,"lng":134.039263,"zip":"7090721"},{"town":"佐古","koaza":"","lat":34.805897,"lng":134.072468,"zip":"7090706"},{"town":"沢原","koaza":"","lat":34.800208,"lng":134.086837,"zip":"7090704"},{"town":"山陽一丁目","koaza":"","lat":34.745583,"lng":134.006931,"zip":"7090827"},{"town":"山陽二丁目","koaza":"","lat":34.74545,"lng":134.00327,"zip":"7090827"},{"town":"山陽三丁目","koaza":"","lat":34.747367,"lng":134.008218,"zip":"7090827"},{"town":"山陽四丁目","koaza":"","lat":34.750334,"lng":134.003741,"zip":"7090827"},{"town":"山陽五丁目","koaza":"","lat":34.751919,"lng":134.008068,"zip":"7090827"},{"town":"山陽六丁目","koaza":"","lat":34.752895,"lng":134.004667,"zip":"7090827"},{"town":"山陽七丁目","koaza":"","lat":34.749149,"lng":134.000463,"zip":"7090827"},{"town":"塩木","koaza":"","lat":34.88403,"lng":134.037234,"zip":"7012432"},{"town":"下市","koaza":"","lat":34.752732,"lng":134.016463,"zip":"7090816"},{"town":"下仁保","koaza":"","lat":34.770632,"lng":133.997632,"zip":"7090836"},{"town":"酌田","koaza":"","lat":34.822325,"lng":134.065299,"zip":"7090701"},{"town":"石蓮寺","koaza":"","lat":34.807838,"lng":134.057319,"zip":"7090731"},{"town":"正崎","koaza":"","lat":34.7641,"lng":134.015265,"zip":"7090832"},{"town":"周匝","koaza":"","lat":34.916903,"lng":134.092079,"zip":"7012503"},{"town":"勢力","koaza":"","lat":34.767893,"lng":134.104637,"zip":"7090715"},{"town":"千躰","koaza":"","lat":34.780702,"lng":134.111422,"zip":"7090714"},{"town":"惣分","koaza":"","lat":34.846863,"lng":134.022744,"zip":"7012203"},{"town":"多賀","koaza":"","lat":34.822076,"lng":134.003517,"zip":"7012216"},{"town":"高屋","koaza":"","lat":34.761201,"lng":134.022121,"zip":"7090811"},{"town":"滝山","koaza":"","lat":34.914209,"lng":134.027692,"zip":"7012524"},{"town":"立川","koaza":"","lat":34.745137,"lng":134.02463,"zip":"7090815"},{"town":"津崎","koaza":"","lat":34.778517,"lng":134.014506,"zip":"7090807"},{"town":"釣井","koaza":"","lat":34.780767,"lng":134.101191,"zip":"7090718"},{"town":"斗有","koaza":"","lat":34.786306,"lng":133.991861,"zip":"7090838"},{"town":"徳富","koaza":"","lat":34.777338,"lng":134.092253,"zip":"7090716"},{"town":"戸津野","koaza":"","lat":34.896921,"lng":134.032015,"zip":"7012431"},{"town":"殿谷","koaza":"","lat":34.815169,"lng":134.080892,"zip":"7090703"},{"town":"長尾","koaza":"","lat":34.7368,"lng":134.021113,"zip":"7090823"},{"town":"中島","koaza":"","lat":34.760592,"lng":134.040616,"zip":"7090803"},{"town":"中勢実","koaza":"","lat":34.897477,"lng":134.011563,"zip":"7012437"},{"town":"中畑","koaza":"","lat":34.854029,"lng":133.991972,"zip":"7012444"},{"town":"中山","koaza":"","lat":34.899672,"lng":134.060026,"zip":"7012523"},{"town":"西軽部","koaza":"","lat":34.808405,"lng":134.012451,"zip":"7012215"},{"town":"西窪田","koaza":"","lat":34.782777,"lng":134.003348,"zip":"7012224"},{"town":"西勢実","koaza":"","lat":34.883201,"lng":133.985056,"zip":"7012441"},{"town":"西中","koaza":"","lat":34.761595,"lng":133.993437,"zip":"7090835"},{"town":"仁堀中","koaza":"","lat":34.871947,"lng":134.010586,"zip":"7012435"},{"town":"仁堀西","koaza":"","lat":34.872916,"lng":133.993994,"zip":"7012436"},{"town":"仁堀東","koaza":"","lat":34.879056,"lng":134.02229,"zip":"7012434"},{"town":"沼田","koaza":"","lat":34.756505,"lng":134.030212,"zip":"7090812"},{"town":"野間","koaza":"","lat":34.795953,"lng":134.039576,"zip":"7090735"},{"town":"稗田","koaza":"","lat":34.798657,"lng":134.052421,"zip":"7090736"},{"town":"東軽部","koaza":"","lat":34.802986,"lng":134.027777,"zip":"7012214"},{"town":"東窪田","koaza":"","lat":34.78443,"lng":134.011048,"zip":"7012223"},{"town":"日古木","koaza":"","lat":34.768271,"lng":134.035654,"zip":"7090804"},{"town":"平山","koaza":"","lat":34.866687,"lng":134.030382,"zip":"7012433"},{"town":"広戸","koaza":"","lat":34.867341,"lng":133.983912,"zip":"7012442"},{"town":"福田","koaza":"","lat":34.904502,"lng":134.082286,"zip":"7012504"},{"town":"二井","koaza":"","lat":34.768226,"lng":134.027764,"zip":"7090805"},{"town":"穂崎","koaza":"","lat":34.730768,"lng":134.005389,"zip":"7090824"},{"town":"町苅田","koaza":"","lat":34.794683,"lng":134.010446,"zip":"7012222"},{"town":"松木","koaza":"","lat":34.793232,"lng":134.091513,"zip":"7090705"},{"town":"馬屋","koaza":"","lat":34.7353,"lng":133.99331,"zip":"7090825"},{"town":"南方","koaza":"","lat":34.748901,"lng":134.037822,"zip":"7090814"},{"town":"南佐古田","koaza":"","lat":34.811726,"lng":134.042183,"zip":"7012212"},{"town":"弥上","koaza":"","lat":34.774076,"lng":134.056981,"zip":"7090734"},{"town":"八島田","koaza":"","lat":34.862774,"lng":134.051856,"zip":"7012513"},{"town":"山口","koaza":"","lat":34.79234,"lng":133.978578,"zip":"7012225"},{"town":"山手","koaza":"","lat":34.851671,"lng":134.038901,"zip":"7012204"},{"town":"由津里","koaza":"","lat":34.801247,"lng":133.993027,"zip":"7012226"},{"town":"吉原","koaza":"","lat":34.796234,"lng":134.111329,"zip":"7090712"},{"town":"和田","koaza":"","lat":34.745307,"lng":133.988734,"zip":"7090826"},{"town":"下市","koaza":"南","lat":34.750457,"lng":134.017734,"zip":"7090816"},{"town":"下市","koaza":"砂田","lat":34.75303,"lng":134.021853,"zip":"7090816"}]