[{"town":"間之町","koaza":"","lat":34.792855,"lng":133.61845,"zip":"7160009"},{"town":"旭町","koaza":"","lat":34.788307,"lng":133.61539,"zip":"7160039"},{"town":"伊賀町","koaza":"","lat":34.797658,"lng":133.623994,"zip":"7160018"},{"town":"石火矢町","koaza":"","lat":34.799341,"lng":133.6183,"zip":"7160015"},{"town":"有漢町有漢","koaza":"","lat":34.899272,"lng":133.663601,"zip":"7161321"},{"town":"有漢町上有漢","koaza":"","lat":34.9295,"lng":133.68275,"zip":"7161322"},{"town":"宇治町穴田","koaza":"","lat":34.816956,"lng":133.470169,"zip":"7192233"},{"town":"宇治町宇治","koaza":"","lat":34.844555,"lng":133.49,"zip":"7192232"},{"town":"宇治町遠原","koaza":"","lat":34.851511,"lng":133.506375,"zip":"7192231"},{"town":"宇治町本郷","koaza":"","lat":34.837846,"lng":133.484045,"zip":"7192234"},{"town":"内山下","koaza":"","lat":34.809562,"lng":133.6231,"zip":"7160004"},{"town":"奥万田町","koaza":"","lat":34.796308,"lng":133.633716,"zip":"7160007"},{"town":"落合町阿部","koaza":"","lat":34.784831,"lng":133.583982,"zip":"7160061"},{"town":"落合町福地","koaza":"","lat":34.794712,"lng":133.548621,"zip":"7160064"},{"town":"落合町近似","koaza":"","lat":34.795559,"lng":133.603012,"zip":"7160062"},{"town":"落合町原田","koaza":"","lat":34.800958,"lng":133.578238,"zip":"7160063"},{"town":"御前町","koaza":"","lat":34.799154,"lng":133.619594,"zip":"7160017"},{"town":"柿木町","koaza":"","lat":34.795479,"lng":133.617408,"zip":"7160028"},{"town":"鍜冶町","koaza":"","lat":34.794782,"lng":133.616187,"zip":"7160023"},{"town":"片原町","koaza":"","lat":34.799188,"lng":133.617485,"zip":"7160013"},{"town":"上谷町","koaza":"","lat":34.784355,"lng":133.62353,"zip":"7160041"},{"town":"川上町大原","koaza":"","lat":34.747722,"lng":133.414451,"zip":"7160222"},{"town":"川上町上大竹","koaza":"","lat":34.713881,"lng":133.433524,"zip":"7160211"},{"town":"川上町高山","koaza":"","lat":34.745269,"lng":133.429813,"zip":"7160223"},{"town":"川上町高山市","koaza":"","lat":34.748772,"lng":133.39035,"zip":"7160221"},{"town":"川上町地頭","koaza":"","lat":34.733227,"lng":133.481223,"zip":"7160201"},{"town":"川上町下大竹","koaza":"","lat":34.734591,"lng":133.454313,"zip":"7160212"},{"town":"川上町臘数","koaza":"","lat":34.758552,"lng":133.509026,"zip":"7160205"},{"town":"川上町七地","koaza":"","lat":34.759037,"lng":133.465406,"zip":"7160202"},{"town":"川上町仁賀","koaza":"","lat":34.708401,"lng":133.467109,"zip":"7160207"},{"town":"川上町三沢","koaza":"","lat":34.71923,"lng":133.505463,"zip":"7160203"},{"town":"川上町吉木","koaza":"","lat":34.774957,"lng":133.50227,"zip":"7160206"},{"town":"川上町領家","koaza":"","lat":34.757314,"lng":133.493135,"zip":"7160204"},{"town":"川端町","koaza":"","lat":34.803075,"lng":133.615537,"zip":"7160005"},{"town":"川面町","koaza":"","lat":34.859152,"lng":133.594702,"zip":"7192121"},{"town":"甲賀町","koaza":"","lat":34.794111,"lng":133.616846,"zip":"7160026"},{"town":"荒神町","koaza":"","lat":34.794751,"lng":133.61673,"zip":"7160025"},{"town":"小高下町","koaza":"","lat":34.806956,"lng":133.639973,"zip":"7160006"},{"town":"巨瀬町","koaza":"","lat":34.874612,"lng":133.635906,"zip":"7161311"},{"town":"栄町","koaza":"","lat":34.790339,"lng":133.61544,"zip":"7160035"},{"town":"下谷町","koaza":"","lat":34.781923,"lng":133.61784,"zip":"7160042"},{"town":"下町","koaza":"","lat":34.794825,"lng":133.615451,"zip":"7160022"},{"town":"新町","koaza":"","lat":34.798385,"lng":133.616991,"zip":"7160012"},{"town":"大工町","koaza":"","lat":34.795718,"lng":133.616996,"zip":"7160024"},{"town":"高倉町飯部","koaza":"","lat":34.858546,"lng":133.544042,"zip":"7192123"},{"town":"高倉町大瀬八長","koaza":"","lat":34.812238,"lng":133.606738,"zip":"7160003"},{"town":"高倉町田井","koaza":"","lat":34.83816,"lng":133.583358,"zip":"7192122"},{"town":"玉川町下切","koaza":"","lat":34.752646,"lng":133.573613,"zip":"7160053"},{"town":"玉川町玉","koaza":"","lat":34.755941,"lng":133.600396,"zip":"7160052"},{"town":"玉川町増原","koaza":"","lat":34.733823,"lng":133.579872,"zip":"7160054"},{"town":"段町","koaza":"","lat":34.779639,"lng":133.603816,"zip":"7160047"},{"town":"中間町","koaza":"","lat":34.79505,"lng":133.614553,"zip":"7160021"},{"town":"津川町今津","koaza":"","lat":34.823118,"lng":133.633204,"zip":"7160002"},{"town":"津川町八川","koaza":"","lat":34.847489,"lng":133.630658,"zip":"7160001"},{"town":"鉄砲町","koaza":"","lat":34.791414,"lng":133.613006,"zip":"7160031"},{"town":"寺町","koaza":"","lat":34.795736,"lng":133.619353,"zip":"7160019"},{"town":"中井町津々","koaza":"","lat":34.925704,"lng":133.603598,"zip":"7192401"},{"town":"中井町西方","koaza":"","lat":34.898499,"lng":133.585423,"zip":"7192402"},{"town":"中之町","koaza":"","lat":34.797275,"lng":133.618007,"zip":"7160014"},{"town":"中原町","koaza":"","lat":34.785004,"lng":133.612226,"zip":"7160045"},{"town":"成羽町相坂","koaza":"","lat":34.79555,"lng":133.471682,"zip":"7160333"},{"town":"成羽町長地","koaza":"","lat":34.801666,"lng":133.46834,"zip":"7160334"},{"town":"成羽町上日名","koaza":"","lat":34.74587,"lng":133.534644,"zip":"7160102"},{"town":"成羽町小泉","koaza":"","lat":34.795284,"lng":133.492076,"zip":"7160332"},{"town":"成羽町坂本","koaza":"","lat":34.865263,"lng":133.438451,"zip":"7192343"},{"town":"成羽町佐々木","koaza":"","lat":34.774368,"lng":133.512804,"zip":"7160113"},{"town":"成羽町下原","koaza":"","lat":34.770635,"lng":133.532996,"zip":"7160111"},{"town":"成羽町下日名","koaza":"","lat":34.767627,"lng":133.552373,"zip":"7160101"},{"town":"成羽町中野","koaza":"","lat":34.838603,"lng":133.460675,"zip":"7192342"},{"town":"成羽町成羽","koaza":"","lat":34.789993,"lng":133.5271,"zip":"7160121"},{"town":"成羽町羽根","koaza":"","lat":34.806637,"lng":133.485467,"zip":"7160331"},{"town":"成羽町羽山","koaza":"","lat":34.810561,"lng":133.508012,"zip":"7160122"},{"town":"成羽町吹屋","koaza":"","lat":34.868155,"lng":133.478685,"zip":"7192341"},{"town":"成羽町布寄","koaza":"","lat":34.807151,"lng":133.44966,"zip":"7160335"},{"town":"成羽町星原","koaza":"","lat":34.771825,"lng":133.524663,"zip":"7160112"},{"town":"浜町","koaza":"","lat":34.789587,"lng":133.61864,"zip":"7160038"},{"town":"原田北町","koaza":"","lat":34.78605,"lng":133.615927,"zip":"7160043"},{"town":"原田南町","koaza":"","lat":34.782855,"lng":133.613023,"zip":"7160044"},{"town":"東町","koaza":"","lat":34.792291,"lng":133.61581,"zip":"7160034"},{"town":"備中町志藤用瀬","koaza":"","lat":34.781834,"lng":133.485247,"zip":"7160301"},{"town":"備中町長屋","koaza":"","lat":34.788602,"lng":133.458989,"zip":"7160303"},{"town":"備中町西山","koaza":"","lat":34.853305,"lng":133.356751,"zip":"7160323"},{"town":"備中町西油野","koaza":"","lat":34.851737,"lng":133.4074,"zip":"7160322"},{"town":"備中町東油野","koaza":"","lat":34.832545,"lng":133.428248,"zip":"7160321"},{"town":"備中町平川","koaza":"","lat":34.796811,"lng":133.403962,"zip":"7160311"},{"town":"備中町布賀","koaza":"","lat":34.774529,"lng":133.430878,"zip":"7160304"},{"town":"備中町布瀬","koaza":"","lat":34.773168,"lng":133.460146,"zip":"7160302"},{"town":"本町","koaza":"","lat":34.798375,"lng":133.615706,"zip":"7160011"},{"town":"正宗町","koaza":"","lat":34.790473,"lng":133.617042,"zip":"7160037"},{"town":"松原町大津寄","koaza":"","lat":34.809592,"lng":133.560389,"zip":"7160065"},{"town":"松原町神原","koaza":"","lat":34.819921,"lng":133.584563,"zip":"7160068"},{"town":"松原町春木","koaza":"","lat":34.831501,"lng":133.562116,"zip":"7160067"},{"town":"松原町松岡","koaza":"","lat":34.821454,"lng":133.538337,"zip":"7160066"},{"town":"松原通","koaza":"","lat":34.79233,"lng":133.617086,"zip":"7160036"},{"town":"松山","koaza":"","lat":34.781205,"lng":133.641663,"zip":"7160051"},{"town":"南町","koaza":"","lat":34.789365,"lng":133.613711,"zip":"7160033"},{"town":"向町","koaza":"","lat":34.795379,"lng":133.618256,"zip":"7160029"},{"town":"八幡町","koaza":"","lat":34.793682,"lng":133.616773,"zip":"7160027"},{"town":"弓之町","koaza":"","lat":34.790993,"lng":133.613958,"zip":"7160032"},{"town":"横町","koaza":"","lat":34.786496,"lng":133.610301,"zip":"7160046"},{"town":"頼久寺町","koaza":"","lat":34.797379,"lng":133.619028,"zip":"7160016"},{"town":"和田町","koaza":"","lat":34.792537,"lng":133.621285,"zip":"7160008"}]