[{"town":"相生","koaza":"","lat":38.124874,"lng":140.278994,"zip":"9993222"},{"town":"朝日台一丁目","koaza":"","lat":38.16679,"lng":140.281547,"zip":"9993164"},{"town":"朝日台二丁目","koaza":"","lat":38.171461,"lng":140.284845,"zip":"9993164"},{"town":"旭町一丁目","koaza":"","lat":38.162655,"lng":140.285129,"zip":"9993106"},{"town":"旭町二丁目","koaza":"","lat":38.164343,"lng":140.287901,"zip":"9993106"},{"town":"旭町三丁目","koaza":"","lat":38.165781,"lng":140.289007,"zip":"9993106"},{"town":"阿弥陀地","koaza":"","lat":38.11355,"lng":140.265002,"zip":"9993235"},{"town":"石崎一丁目","koaza":"","lat":38.1514,"lng":140.271428,"zip":"9993144"},{"town":"石崎二丁目","koaza":"","lat":38.153182,"lng":140.271448,"zip":"9993144"},{"town":"石曽根","koaza":"","lat":38.135627,"lng":140.259022,"zip":"9993244"},{"town":"石堂","koaza":"","lat":38.144167,"lng":140.279292,"zip":"9993231"},{"town":"泉川","koaza":"","lat":38.161241,"lng":140.29048,"zip":"9993105"},{"town":"裏町","koaza":"","lat":38.176133,"lng":140.281342,"zip":"9993165"},{"town":"御井戸丁","koaza":"","lat":38.160529,"lng":140.278784,"zip":"9993157"},{"town":"大石一丁目","koaza":"","lat":38.171556,"lng":140.28392,"zip":"9993167"},{"town":"大石二丁目","koaza":"","lat":38.173019,"lng":140.283566,"zip":"9993167"},{"town":"小倉","koaza":"","lat":38.158971,"lng":140.351364,"zip":"9993112"},{"town":"小笹","koaza":"","lat":38.104878,"lng":140.32087,"zip":"9993214"},{"town":"小白府","koaza":"","lat":38.193044,"lng":140.20285,"zip":"9993172"},{"town":"金生","koaza":"","lat":38.144959,"lng":140.290727,"zip":"9993124"},{"town":"金生一丁目","koaza":"","lat":38.150394,"lng":140.28444,"zip":"9993124"},{"town":"金生西一丁目","koaza":"","lat":38.146295,"lng":140.283545,"zip":"9993126"},{"town":"金生西二丁目","koaza":"","lat":38.143373,"lng":140.282701,"zip":"9993126"},{"town":"金生西三丁目","koaza":"","lat":38.139292,"lng":140.283752,"zip":"9993126"},{"town":"金生東一丁目","koaza":"","lat":38.145302,"lng":140.286923,"zip":"9993125"},{"town":"金生東二丁目","koaza":"","lat":38.14125,"lng":140.285522,"zip":"9993125"},{"town":"金瓶","koaza":"","lat":38.178013,"lng":140.300946,"zip":"9993101"},{"town":"金谷","koaza":"","lat":38.163243,"lng":140.30131,"zip":"9993103"},{"town":"金山","koaza":"","lat":38.076657,"lng":140.312845,"zip":"9993226"},{"town":"上生居","koaza":"","lat":38.118532,"lng":140.319462,"zip":"9993204"},{"town":"軽井沢一丁目","koaza":"","lat":38.162761,"lng":140.278922,"zip":"9993163"},{"town":"軽井沢二丁目","koaza":"","lat":38.163879,"lng":140.278236,"zip":"9993163"},{"town":"川口","koaza":"","lat":38.136118,"lng":140.217349,"zip":"9993245"},{"town":"河崎","koaza":"","lat":38.155661,"lng":140.251222,"zip":"9993145"},{"town":"河崎一丁目","koaza":"","lat":38.149157,"lng":140.268196,"zip":"9993145"},{"town":"河崎二丁目","koaza":"","lat":38.15194,"lng":140.268279,"zip":"9993145"},{"town":"河崎三丁目","koaza":"","lat":38.15317,"lng":140.263927,"zip":"9993145"},{"town":"河崎四丁目","koaza":"","lat":38.149593,"lng":140.264354,"zip":"9993145"},{"town":"北町","koaza":"","lat":38.169741,"lng":140.276331,"zip":"9993131"},{"town":"北町一丁目","koaza":"","lat":38.158957,"lng":140.282907,"zip":"9993131"},{"town":"北町二丁目","koaza":"","lat":38.158231,"lng":140.284233,"zip":"9993131"},{"town":"北町本丁","koaza":"","lat":38.159792,"lng":140.282882,"zip":"9993151"},{"town":"久保川","koaza":"","lat":38.107959,"lng":140.328127,"zip":"9993215"},{"town":"久保手","koaza":"","lat":38.182746,"lng":140.278546,"zip":"9993166"},{"town":"けやきの森","koaza":"","lat":38.147399,"lng":140.272353,"zip":"9993241"},{"town":"小穴","koaza":"","lat":38.106223,"lng":140.243783,"zip":"9993237"},{"town":"高野","koaza":"","lat":38.151109,"lng":140.326448,"zip":"9993115"},{"town":"権現堂","koaza":"","lat":38.165603,"lng":140.323353,"zip":"9993111"},{"town":"蔵王","koaza":"","lat":38.133159,"lng":140.400497,"zip":"9993113"},{"town":"蔵王の森","koaza":"","lat":38.162121,"lng":140.304133,"zip":"9993104"},{"town":"栄町一丁目","koaza":"","lat":38.15671,"lng":140.278986,"zip":"9993132"},{"town":"栄町二丁目","koaza":"","lat":38.156763,"lng":140.280877,"zip":"9993132"},{"town":"沢丁","koaza":"","lat":38.155776,"lng":140.27482,"zip":"9993142"},{"town":"三本松","koaza":"","lat":38.13599,"lng":140.271929,"zip":"9993233"},{"town":"下生居","koaza":"","lat":38.127227,"lng":140.335528,"zip":"9993202"},{"town":"菖蒲","koaza":"","lat":38.097746,"lng":140.389498,"zip":"9993217"},{"town":"新金谷","koaza":"","lat":38.16999,"lng":140.305385,"zip":"9993102"},{"town":"新北浦","koaza":"","lat":38.132553,"lng":140.268235,"zip":"9993100"},{"town":"新丁","koaza":"","lat":38.160008,"lng":140.281287,"zip":"9993102"},{"town":"新町一丁目","koaza":"","lat":38.163275,"lng":140.281986,"zip":"9993158"},{"town":"新町二丁目","koaza":"","lat":38.163094,"lng":140.283652,"zip":"9993158"},{"town":"新湯","koaza":"","lat":38.157181,"lng":140.273352,"zip":"9993141"},{"town":"須田板","koaza":"","lat":38.104557,"lng":140.312491,"zip":"9993213"},{"town":"関根","koaza":"","lat":38.131733,"lng":140.276814,"zip":"9993221"},{"town":"仙石","koaza":"","lat":38.147351,"lng":140.294352,"zip":"9993122"},{"town":"大門","koaza":"","lat":38.085829,"lng":140.355717,"zip":"9993216"},{"town":"高松","koaza":"","lat":38.14877,"lng":140.221271,"zip":"9993243"},{"town":"鶴脛町","koaza":"","lat":38.167751,"lng":140.259545,"zip":"9993155"},{"town":"鶴脛町一丁目","koaza":"","lat":38.159704,"lng":140.273485,"zip":"9993155"},{"town":"鶴脛町二丁目","koaza":"","lat":38.161463,"lng":140.273168,"zip":"9993155"},{"town":"藤吾","koaza":"","lat":38.12403,"lng":140.252446,"zip":"9993234"},{"town":"十日町","koaza":"","lat":38.165403,"lng":140.27592,"zip":"9993153"},{"town":"長清水一丁目","koaza":"","lat":38.144335,"lng":140.276705,"zip":"9993232"},{"town":"長清水二丁目","koaza":"","lat":38.143554,"lng":140.273879,"zip":"9993232"},{"town":"長清水三丁目","koaza":"","lat":38.140278,"lng":140.276949,"zip":"9993232"},{"town":"中生居","koaza":"","lat":38.123276,"lng":140.312034,"zip":"9993203"},{"town":"永野","koaza":"","lat":38.138596,"lng":140.346847,"zip":"9993114"},{"town":"中山","koaza":"","lat":38.116103,"lng":140.217373,"zip":"9993246"},{"town":"楢下","koaza":"","lat":38.079917,"lng":140.27567,"zip":"9993225"},{"town":"葉山","koaza":"","lat":38.148261,"lng":140.262478,"zip":"9993242"},{"town":"原口","koaza":"","lat":38.112357,"lng":140.309565,"zip":"9993212"},{"town":"東金瓶","koaza":"","lat":38.183827,"lng":140.312417,"zip":"9993100"},{"town":"東町","koaza":"","lat":38.154528,"lng":140.285234,"zip":"9993121"},{"town":"二日町","koaza":"","lat":38.15417,"lng":140.275039,"zip":"9993143"},{"town":"弁天一丁目","koaza":"","lat":38.166816,"lng":140.293644,"zip":"9993161"},{"town":"弁天二丁目","koaza":"","lat":38.170812,"lng":140.29438,"zip":"9993161"},{"town":"細谷","koaza":"","lat":38.100964,"lng":140.268651,"zip":"9993236"},{"town":"牧野","koaza":"","lat":38.115627,"lng":140.299165,"zip":"9993211"},{"town":"松山一丁目","koaza":"","lat":38.155738,"lng":140.272431,"zip":"9993146"},{"town":"松山二丁目","koaza":"","lat":38.15602,"lng":140.269534,"zip":"9993146"},{"town":"松山三丁目","koaza":"","lat":38.157572,"lng":140.266995,"zip":"9993146"},{"town":"三上","koaza":"","lat":38.113079,"lng":140.281992,"zip":"9993223"},{"town":"美咲町一丁目","koaza":"","lat":38.153373,"lng":140.280635,"zip":"9993123"},{"town":"美咲町二丁目","koaza":"","lat":38.151746,"lng":140.282006,"zip":"9993123"},{"town":"皆沢","koaza":"","lat":38.097595,"lng":140.284975,"zip":"9993224"},{"town":"南町","koaza":"","lat":38.149336,"lng":140.275038,"zip":"9993135"},{"town":"みはらしの丘","koaza":"","lat":38.182204,"lng":140.296719,"zip":"9993107"},{"town":"宮脇","koaza":"","lat":38.133229,"lng":140.293104,"zip":"9993201"},{"town":"狸森","koaza":"","lat":38.187465,"lng":140.231495,"zip":"9993171"},{"town":"元城内","koaza":"","lat":38.158218,"lng":140.275754,"zip":"9993154"},{"town":"矢来一丁目","koaza":"","lat":38.15263,"lng":140.277661,"zip":"9993134"},{"town":"矢来二丁目","koaza":"","lat":38.151459,"lng":140.276865,"zip":"9993134"},{"town":"矢来三丁目","koaza":"","lat":38.150895,"lng":140.273188,"zip":"9993134"},{"town":"矢来四丁目","koaza":"","lat":38.149074,"lng":140.278709,"zip":"9993134"},{"town":"湯町","koaza":"","lat":38.160709,"lng":140.276282,"zip":"9993156"},{"town":"八日町","koaza":"","lat":38.154984,"lng":140.279314,"zip":"9993133"},{"town":"四ツ谷一丁目","koaza":"","lat":38.167581,"lng":140.284306,"zip":"9993162"},{"town":"四ツ谷二丁目","koaza":"","lat":38.169415,"lng":140.287037,"zip":"9993162"},{"town":"高松","koaza":"北谷地","lat":38.146649,"lng":140.264547,"zip":"9993243"},{"town":"藤吾","koaza":"原","lat":38.130182,"lng":140.270491,"zip":"9993234"},{"town":"久保手","koaza":"久保手","lat":38.182239,"lng":140.278154,"zip":"9993166"},{"town":"裏町","koaza":"大石蔭","lat":38.175576,"lng":140.279998,"zip":"9993165"},{"town":"久保手","koaza":"原","lat":38.183283,"lng":140.283069,"zip":"9993166"},{"town":"泉川","koaza":"東河原","lat":38.160247,"lng":140.287123,"zip":"9993105"},{"town":"仙石","koaza":"梅ノ木","lat":38.151444,"lng":140.289679,"zip":"9993122"},{"town":"金生","koaza":"山神上","lat":38.14614,"lng":140.290167,"zip":"9993124"},{"town":"泉川","koaza":"松ノ木","lat":38.159334,"lng":140.291032,"zip":"9993105"},{"town":"金瓶","koaza":"狼石山","lat":38.181358,"lng":140.292636,"zip":"9993101"},{"town":"泉川","koaza":"梨ノ木","lat":38.161107,"lng":140.292503,"zip":"9993105"},{"town":"金瓶","koaza":"山ノ上","lat":38.179443,"lng":140.297954,"zip":"9993101"},{"town":"泉川","koaza":"屋敷下","lat":38.164254,"lng":140.295153,"zip":"9993105"},{"town":"金谷","koaza":"藤木","lat":38.165172,"lng":140.299997,"zip":"9993103"},{"town":"北町","koaza":"弁天","lat":38.172646,"lng":140.299825,"zip":"9993131"},{"town":"金瓶","koaza":"高谷","lat":38.180584,"lng":140.299588,"zip":"9993101"},{"town":"金瓶","koaza":"原","lat":38.176346,"lng":140.305942,"zip":"9993101"},{"town":"金瓶","koaza":"北","lat":38.184803,"lng":140.30745,"zip":"9993101"},{"town":"金谷","koaza":"飯ノ森","lat":38.162844,"lng":140.306832,"zip":"9993103"},{"town":"金谷","koaza":"鼠谷地","lat":38.164336,"lng":140.309877,"zip":"9993103"},{"town":"金瓶","koaza":"石田","lat":38.18408,"lng":140.310236,"zip":"9993101"},{"town":"金瓶","koaza":"谷広地","lat":38.180896,"lng":140.312363,"zip":"9993101"},{"town":"金瓶","koaza":"田中","lat":38.185355,"lng":140.310729,"zip":"9993101"},{"town":"金瓶","koaza":"水上","lat":38.178176,"lng":140.307397,"zip":"9993101"},{"town":"河崎","koaza":"反田","lat":38.154341,"lng":140.2618,"zip":"9993145"},{"town":"高松","koaza":"和合","lat":38.145385,"lng":140.258404,"zip":"9993243"},{"town":"高松","koaza":"向里","lat":38.136692,"lng":140.267915,"zip":"9993243"},{"town":"藤吾","koaza":"小橋","lat":38.133549,"lng":140.270208,"zip":"9993234"},{"town":"藤吾","koaza":"久保","lat":38.132496,"lng":140.269643,"zip":"9993234"},{"town":"藤吾","koaza":"北浦","lat":38.130661,"lng":140.267697,"zip":"9993234"},{"town":"藤吾","koaza":"日照田","lat":38.129769,"lng":140.265261,"zip":"9993234"},{"town":"藤吾","koaza":"原際","lat":38.128317,"lng":140.269291,"zip":"9993234"},{"town":"藤吾","koaza":"屋裏","lat":38.128998,"lng":140.266988,"zip":"9993234"},{"town":"藤吾","koaza":"田下","lat":38.12791,"lng":140.267204,"zip":"9993234"},{"town":"藤吾","koaza":"下原","lat":38.130112,"lng":140.269721,"zip":"9993234"},{"town":"藤吾","koaza":"馬頭前","lat":38.128565,"lng":140.26786,"zip":"9993234"},{"town":"高松","koaza":"三本松","lat":38.133416,"lng":140.271187,"zip":"9993243"},{"town":"関根","koaza":"西原","lat":38.133708,"lng":140.272335,"zip":"9993221"},{"town":"北町","koaza":"沢","lat":38.163344,"lng":140.269566,"zip":"9993131"},{"town":"久保手","koaza":"鷹取山","lat":38.182543,"lng":140.276226,"zip":"9993166"},{"town":"北町","koaza":"三千刈","lat":38.16993,"lng":140.279188,"zip":"9993131"},{"town":"十日町","koaza":"三千刈","lat":38.165653,"lng":140.276168,"zip":"9993153"},{"town":"鶴脛町","koaza":"伊勢堂","lat":38.166153,"lng":140.27822,"zip":"9993155"},{"town":"金生","koaza":"北区","lat":38.148578,"lng":140.285877,"zip":"9993124"},{"town":"宮脇","koaza":"八幡下","lat":38.140705,"lng":140.282075,"zip":"9993201"},{"town":"泉川","koaza":"流田","lat":38.161979,"lng":140.291557,"zip":"9993105"},{"town":"北町","koaza":"外原","lat":38.174005,"lng":140.288138,"zip":"9993131"},{"town":"金瓶","koaza":"高谷山","lat":38.178122,"lng":140.296676,"zip":"9993101"},{"town":"泉川","koaza":"砂田","lat":38.162294,"lng":140.290213,"zip":"9993105"},{"town":"泉川","koaza":"杉名渕","lat":38.16129,"lng":140.291174,"zip":"9993105"},{"town":"泉川","koaza":"屋敷裏","lat":38.163081,"lng":140.292434,"zip":"9993105"},{"town":"泉川","koaza":"小泉","lat":38.162615,"lng":140.29316,"zip":"9993105"},{"town":"金瓶","koaza":"湯坂山","lat":38.174703,"lng":140.297944,"zip":"9993101"},{"town":"金谷","koaza":"下河原","lat":38.171909,"lng":140.301968,"zip":"9993103"},{"town":"金谷","koaza":"鳴石","lat":38.170065,"lng":140.301772,"zip":"9993103"},{"town":"金谷","koaza":"金ケ瀬","lat":38.170273,"lng":140.300306,"zip":"9993103"},{"town":"金谷","koaza":"金谷","lat":38.166358,"lng":140.301738,"zip":"9993103"},{"town":"金谷","koaza":"安信","lat":38.167481,"lng":140.298105,"zip":"9993103"},{"town":"金谷","koaza":"北原","lat":38.167443,"lng":140.299458,"zip":"9993103"},{"town":"泉川","koaza":"中河原","lat":38.163739,"lng":140.292358,"zip":"9993105"},{"town":"泉川","koaza":"下河原","lat":38.164106,"lng":140.292116,"zip":"9993105"},{"town":"泉川","koaza":"新兵衛川","lat":38.164864,"lng":140.295003,"zip":"9993105"},{"town":"金谷","koaza":"寺田","lat":38.164804,"lng":140.296358,"zip":"9993103"},{"town":"金谷","koaza":"土矢倉","lat":38.163132,"lng":140.299696,"zip":"9993103"},{"town":"金谷","koaza":"八反田","lat":38.164346,"lng":140.3021,"zip":"9993103"},{"town":"河崎","koaza":"高楯","lat":38.156794,"lng":140.262656,"zip":"9993145"},{"town":"藤吾","koaza":"三辻","lat":38.129797,"lng":140.268254,"zip":"9993234"},{"town":"藤吾","koaza":"谷地","lat":38.130715,"lng":140.268055,"zip":"9993234"},{"town":"泉川","koaza":"ヤツマ","lat":38.161422,"lng":140.292143,"zip":"9993105"},{"town":"仙石","koaza":"久保田","lat":38.155297,"lng":140.287438,"zip":"9993122"},{"town":"仙石","koaza":"大免","lat":38.153329,"lng":140.288639,"zip":"9993122"},{"town":"金瓶","koaza":"富沢","lat":38.180281,"lng":140.308588,"zip":"9993101"},{"town":"金瓶","koaza":"林ノ蔭","lat":38.180594,"lng":140.311652,"zip":"9993101"},{"town":"金谷","koaza":"犬馬場","lat":38.170991,"lng":140.308411,"zip":"9993103"},{"town":"金瓶","koaza":"湯尻","lat":38.172451,"lng":140.304071,"zip":"9993101"},{"town":"金谷","koaza":"トウチョウメン","lat":38.172178,"lng":140.303236,"zip":"9993103"},{"town":"高野","koaza":"金谷神","lat":38.168494,"lng":140.300234,"zip":"9993115"},{"town":"金谷","koaza":"金谷神","lat":38.168806,"lng":140.301756,"zip":"9993103"},{"town":"金谷","koaza":"中河原","lat":38.169744,"lng":140.304238,"zip":"9993103"},{"town":"金谷","koaza":"原","lat":38.167839,"lng":140.305509,"zip":"9993103"},{"town":"金谷","koaza":"石バタ","lat":38.164807,"lng":140.305456,"zip":"9993103"},{"town":"永野","koaza":"飯ノ森","lat":38.163114,"lng":140.305904,"zip":"9993114"},{"town":"金谷","koaza":"西屋敷","lat":38.161311,"lng":140.309087,"zip":"9993103"},{"town":"金谷","koaza":"甲石","lat":38.159879,"lng":140.310801,"zip":"9993103"},{"town":"高野","koaza":"高野原","lat":38.159434,"lng":140.312421,"zip":"9993115"},{"town":"金谷","koaza":"元甲石","lat":38.162741,"lng":140.309814,"zip":"9993103"},{"town":"高野","koaza":"念仏檀","lat":38.161782,"lng":140.310982,"zip":"9993115"},{"town":"権現堂","koaza":"東","lat":38.165063,"lng":140.311476,"zip":"9993111"},{"town":"金谷","koaza":"廻立","lat":38.16078,"lng":140.30204,"zip":"9993103"},{"town":"金谷","koaza":"中屋敷","lat":38.166051,"lng":140.301785,"zip":"9993103"},{"town":"金谷","koaza":"追堀","lat":38.166263,"lng":140.305147,"zip":"9993103"},{"town":"金谷","koaza":"カラメキ","lat":38.165511,"lng":140.305177,"zip":"9993103"},{"town":"金谷","koaza":"水上","lat":38.165551,"lng":140.304274,"zip":"9993103"},{"town":"金谷","koaza":"的場","lat":38.164165,"lng":140.303637,"zip":"9993103"},{"town":"永野","koaza":"金谷頭","lat":38.164349,"lng":140.30275,"zip":"9993114"},{"town":"金谷","koaza":"道ハタ","lat":38.165926,"lng":140.302885,"zip":"9993103"},{"town":"金谷","koaza":"吉原清水","lat":38.16779,"lng":140.303355,"zip":"9993103"},{"town":"高野","koaza":"飯ノ森","lat":38.165243,"lng":140.30619,"zip":"9993115"},{"town":"金谷","koaza":"念仏檀","lat":38.162516,"lng":140.311746,"zip":"9993103"},{"town":"高松","koaza":"南谷地","lat":38.140287,"lng":140.260665,"zip":"9993243"},{"town":"関根","koaza":"ヤウラ","lat":38.129777,"lng":140.272754,"zip":"9993221"},{"town":"金生","koaza":"宿尻","lat":38.148298,"lng":140.288306,"zip":"9993124"},{"town":"仙石","koaza":"高畑","lat":38.148987,"lng":140.287034,"zip":"9993122"},{"town":"仙石","koaza":"旱田","lat":38.149761,"lng":140.288188,"zip":"9993122"},{"town":"高松","koaza":"観音下","lat":38.142631,"lng":140.259456,"zip":"9993243"},{"town":"高松","koaza":"南沢","lat":38.140668,"lng":140.25959,"zip":"9993243"},{"town":"金谷","koaza":"水神河原","lat":38.162451,"lng":140.313281,"zip":"9993103"}]