[{"town":"赤湯","koaza":"","lat":38.057612,"lng":140.175366,"zip":"9992211"},{"town":"池黒","koaza":"","lat":38.069324,"lng":140.1268,"zip":"9920473"},{"town":"漆山","koaza":"","lat":38.092831,"lng":140.115148,"zip":"9920474"},{"town":"大橋","koaza":"","lat":38.024852,"lng":140.153529,"zip":"9992224"},{"town":"荻","koaza":"","lat":38.15484,"lng":140.181108,"zip":"9920582"},{"town":"沖田","koaza":"","lat":38.029401,"lng":140.130936,"zip":"9992252"},{"town":"金沢","koaza":"","lat":38.053244,"lng":140.192475,"zip":"9992212"},{"town":"金山","koaza":"","lat":38.102251,"lng":140.157878,"zip":"9920471"},{"town":"釜渡戸","koaza":"","lat":38.110907,"lng":140.180655,"zip":"9992201"},{"town":"蒲生田","koaza":"","lat":38.058045,"lng":140.140902,"zip":"9992261"},{"town":"川樋","koaza":"","lat":38.081438,"lng":140.194554,"zip":"9992204"},{"town":"椚塚","koaza":"","lat":38.040773,"lng":140.171819,"zip":"9992221"},{"town":"小岩沢","koaza":"","lat":38.087126,"lng":140.217147,"zip":"9992203"},{"town":"郡山","koaza":"","lat":38.04372,"lng":140.150612,"zip":"9992241"},{"town":"小滝","koaza":"","lat":38.194269,"lng":140.176079,"zip":"9920581"},{"town":"坂井","koaza":"","lat":38.041101,"lng":140.124878,"zip":"9992256"},{"town":"島貫","koaza":"","lat":38.044359,"lng":140.143206,"zip":"9992244"},{"town":"下荻","koaza":"","lat":38.151762,"lng":140.146195,"zip":"9920583"},{"town":"新田","koaza":"","lat":38.074492,"lng":140.188099,"zip":"9992205"},{"town":"砂塚","koaza":"","lat":38.050443,"lng":140.109979,"zip":"9920476"},{"town":"関根","koaza":"","lat":38.038358,"lng":140.112014,"zip":"9992255"},{"town":"高梨","koaza":"","lat":38.038597,"lng":140.136056,"zip":"9992251"},{"town":"竹原","koaza":"","lat":38.068486,"lng":140.09019,"zip":"9920478"},{"town":"太郎","koaza":"","lat":38.121716,"lng":140.141629,"zip":"9920584"},{"town":"中央東","koaza":"","lat":38.057583,"lng":140.150078,"zip":"9992234"},{"town":"露橋","koaza":"","lat":38.032563,"lng":140.114019,"zip":"9992254"},{"town":"長岡","koaza":"","lat":38.037702,"lng":140.160838,"zip":"9992222"},{"town":"中落合","koaza":"","lat":38.049895,"lng":140.134923,"zip":"9992264"},{"town":"長瀞","koaza":"","lat":38.049726,"lng":140.126762,"zip":"9992266"},{"town":"中ノ目","koaza":"","lat":38.033463,"lng":140.15162,"zip":"9992242"},{"town":"鍋田","koaza":"","lat":38.031643,"lng":140.14243,"zip":"9992243"},{"town":"二色根","koaza":"","lat":38.05336,"lng":140.160516,"zip":"9992231"},{"town":"西落合","koaza":"","lat":38.047615,"lng":140.130257,"zip":"9992265"},{"town":"萩生田","koaza":"","lat":38.045789,"lng":140.137205,"zip":"9992263"},{"town":"羽付","koaza":"","lat":38.080347,"lng":140.102759,"zip":"9920475"},{"town":"法師柳","koaza":"","lat":38.04748,"lng":140.12181,"zip":"9992267"},{"town":"松沢","koaza":"","lat":38.043167,"lng":140.199039,"zip":"9992213"},{"town":"爼柳","koaza":"","lat":38.031818,"lng":140.163856,"zip":"9992200"},{"town":"三間通","koaza":"","lat":38.056717,"lng":140.154931,"zip":"9992232"},{"town":"宮内","koaza":"","lat":38.077537,"lng":140.148525,"zip":"9920472"},{"town":"宮崎","koaza":"","lat":38.028352,"lng":140.122207,"zip":"9992253"},{"town":"元中山","koaza":"","lat":38.107151,"lng":140.198481,"zip":"9992202"},{"town":"梨郷","koaza":"","lat":38.058272,"lng":140.079375,"zip":"9920477"},{"town":"若狭郷屋","koaza":"","lat":38.052856,"lng":140.145602,"zip":"9992262"},{"town":"和田","koaza":"","lat":38.063864,"lng":140.105257,"zip":"9920479"},{"town":"上野","koaza":"","lat":38.066453,"lng":140.163614,"zip":"9992233"},{"town":"赤湯","koaza":"川尻","lat":38.047944,"lng":140.171699,"zip":"9992211"},{"town":"爼柳","koaza":"六百苅","lat":38.035272,"lng":140.157819,"zip":"9992200"},{"town":"長岡","koaza":"柳田","lat":38.036004,"lng":140.162386,"zip":"9992222"},{"town":"蒲生田","koaza":"清水上","lat":38.062605,"lng":140.138653,"zip":"9992261"}]