[{"town":"石鳥居","koaza":"","lat":38.327216,"lng":140.369669,"zip":"9940057"},{"town":"石鳥居一丁目","koaza":"","lat":38.320991,"lng":140.36868,"zip":"9940057"},{"town":"石鳥居二丁目","koaza":"","lat":38.324817,"lng":140.368774,"zip":"9940057"},{"town":"泉町一丁目","koaza":"","lat":38.363136,"lng":140.382974,"zip":"9940015"},{"town":"泉町二丁目","koaza":"","lat":38.363034,"lng":140.385929,"zip":"9940015"},{"town":"五日町一丁目","koaza":"","lat":38.353413,"lng":140.370513,"zip":"9940041"},{"town":"五日町二丁目","koaza":"","lat":38.353718,"lng":140.371834,"zip":"9940041"},{"town":"駅西一丁目","koaza":"","lat":38.36095,"lng":140.367683,"zip":"9940047"},{"town":"駅西二丁目","koaza":"","lat":38.358998,"lng":140.367322,"zip":"9940047"},{"town":"駅西三丁目","koaza":"","lat":38.360173,"lng":140.364579,"zip":"9940047"},{"town":"駅西四丁目","koaza":"","lat":38.356672,"lng":140.363854,"zip":"9940047"},{"town":"駅西五丁目","koaza":"","lat":38.354465,"lng":140.363507,"zip":"9940047"},{"town":"老野森一丁目","koaza":"","lat":38.363251,"lng":140.379325,"zip":"9940013"},{"town":"老野森二丁目","koaza":"","lat":38.364238,"lng":140.375401,"zip":"9940013"},{"town":"老野森三丁目","koaza":"","lat":38.364346,"lng":140.372027,"zip":"9940013"},{"town":"大字荒谷","koaza":"","lat":38.321697,"lng":140.387019,"zip":"9940000"},{"town":"大字今町","koaza":"","lat":38.394086,"lng":140.334638,"zip":"9940000"},{"town":"大字老野森","koaza":"","lat":38.369399,"lng":140.385647,"zip":"9940000"},{"town":"大字大清水","koaza":"","lat":38.389321,"lng":140.355355,"zip":"9940000"},{"town":"大字大町","koaza":"","lat":38.393562,"lng":140.346682,"zip":"9940000"},{"town":"大字上荻野戸","koaza":"","lat":38.319732,"lng":140.404957,"zip":"9940000"},{"town":"大字川原子","koaza":"","lat":38.389479,"lng":140.429561,"zip":"9940000"},{"town":"大字北目","koaza":"","lat":38.344964,"lng":140.358035,"zip":"9940000"},{"town":"大字久野本","koaza":"","lat":38.377697,"lng":140.386929,"zip":"9940000"},{"town":"大字窪野目","koaza":"","lat":38.383666,"lng":140.338345,"zip":"9940000"},{"town":"大字蔵増","koaza":"","lat":38.368217,"lng":140.330726,"zip":"9940000"},{"town":"大字小関","koaza":"","lat":38.366276,"lng":140.35555,"zip":"9940000"},{"town":"大字下荻野戸","koaza":"","lat":38.323709,"lng":140.421039,"zip":"9940000"},{"town":"大字清池","koaza":"","lat":38.326235,"lng":140.351069,"zip":"9940000"},{"town":"大字高木","koaza":"","lat":38.37456,"lng":140.361989,"zip":"9940000"},{"town":"大字高擶","koaza":"","lat":38.34432,"lng":140.332223,"zip":"9940000"},{"town":"大字高野辺","koaza":"","lat":38.381343,"lng":140.330622,"zip":"9940000"},{"town":"大字田麦野","koaza":"","lat":38.35931,"lng":140.467673,"zip":"9940000"},{"town":"大字塚野目","koaza":"","lat":38.349993,"lng":140.343224,"zip":"9940000"},{"town":"大字寺津","koaza":"","lat":38.345282,"lng":140.32088,"zip":"9940000"},{"town":"大字天童","koaza":"","lat":38.355795,"lng":140.374904,"zip":"9940000"},{"town":"大字東善寺","koaza":"","lat":38.345626,"lng":140.396973,"zip":"9940000"},{"town":"大字藤内新田","koaza":"","lat":38.358574,"lng":140.317096,"zip":"9940000"},{"town":"大字道満","koaza":"","lat":38.389493,"lng":140.393499,"zip":"9940000"},{"town":"大字長岡","koaza":"","lat":38.333434,"lng":140.358082,"zip":"9940000"},{"town":"大字奈良沢","koaza":"","lat":38.335918,"lng":140.417956,"zip":"9940000"},{"town":"大字成生","koaza":"","lat":38.386901,"lng":140.363144,"zip":"9940000"},{"town":"大字貫津","koaza":"","lat":38.351267,"lng":140.407958,"zip":"9940000"},{"town":"大字芳賀","koaza":"","lat":38.341031,"lng":140.354246,"zip":"9940000"},{"town":"大字原町","koaza":"","lat":38.337048,"lng":140.387413,"zip":"9940000"},{"town":"大字干布","koaza":"","lat":38.329574,"lng":140.399123,"zip":"9940000"},{"town":"大字乱川","koaza":"","lat":38.387152,"lng":140.372543,"zip":"9940000"},{"town":"大字矢野目","koaza":"","lat":38.355969,"lng":140.349775,"zip":"9940000"},{"town":"大字山口","koaza":"","lat":38.372888,"lng":140.431456,"zip":"9940000"},{"town":"大字山元","koaza":"","lat":38.360462,"lng":140.409611,"zip":"9940000"},{"town":"柏木町一丁目","koaza":"","lat":38.367673,"lng":140.36923,"zip":"9940003"},{"town":"柏木町二丁目","koaza":"","lat":38.370692,"lng":140.36985,"zip":"9940003"},{"town":"柏木町三丁目","koaza":"","lat":38.370933,"lng":140.367133,"zip":"9940003"},{"town":"鎌田一丁目","koaza":"","lat":38.360205,"lng":140.384986,"zip":"9940024"},{"town":"鎌田二丁目","koaza":"","lat":38.357008,"lng":140.387518,"zip":"9940024"},{"town":"鎌田本町一丁目","koaza":"","lat":38.359965,"lng":140.380891,"zip":"9940025"},{"town":"鎌田本町二丁目","koaza":"","lat":38.35733,"lng":140.382437,"zip":"9940025"},{"town":"鎌田本町三丁目","koaza":"","lat":38.357011,"lng":140.380915,"zip":"9940025"},{"town":"北久野本一丁目","koaza":"","lat":38.374929,"lng":140.375498,"zip":"9940011"},{"town":"北久野本二丁目","koaza":"","lat":38.375055,"lng":140.380593,"zip":"9940011"},{"town":"北久野本三丁目","koaza":"","lat":38.378311,"lng":140.375475,"zip":"9940011"},{"town":"北久野本四丁目","koaza":"","lat":38.378126,"lng":140.380084,"zip":"9940011"},{"town":"北久野本五丁目","koaza":"","lat":38.380338,"lng":140.378501,"zip":"9940011"},{"town":"北目一丁目","koaza":"","lat":38.349621,"lng":140.37253,"zip":"9940042"},{"town":"北目二丁目","koaza":"","lat":38.34612,"lng":140.372409,"zip":"9940042"},{"town":"北目三丁目","koaza":"","lat":38.34562,"lng":140.376535,"zip":"9940042"},{"town":"北目四丁目","koaza":"","lat":38.348155,"lng":140.375949,"zip":"9940042"},{"town":"久野本一丁目","koaza":"","lat":38.367989,"lng":140.372735,"zip":"9940012"},{"town":"久野本二丁目","koaza":"","lat":38.371358,"lng":140.373321,"zip":"9940012"},{"town":"久野本三丁目","koaza":"","lat":38.371138,"lng":140.376358,"zip":"9940012"},{"town":"久野本四丁目","koaza":"","lat":38.367656,"lng":140.375924,"zip":"9940012"},{"town":"鍬ノ町一丁目","koaza":"","lat":38.356158,"lng":140.384407,"zip":"9940028"},{"town":"鍬ノ町二丁目","koaza":"","lat":38.355366,"lng":140.386198,"zip":"9940028"},{"town":"小路一丁目","koaza":"","lat":38.356259,"lng":140.372151,"zip":"9940032"},{"town":"小路二丁目","koaza":"","lat":38.357622,"lng":140.373889,"zip":"9940032"},{"town":"小関一丁目","koaza":"","lat":38.367622,"lng":140.366071,"zip":"9940004"},{"town":"小関二丁目","koaza":"","lat":38.367385,"lng":140.363211,"zip":"9940004"},{"town":"桜町","koaza":"","lat":38.350297,"lng":140.383743,"zip":"9940027"},{"town":"山王","koaza":"","lat":38.337376,"lng":140.378304,"zip":"9940000"},{"town":"清池東一丁目","koaza":"","lat":38.323802,"lng":140.35514,"zip":"9940069"},{"town":"清池東二丁目","koaza":"","lat":38.322896,"lng":140.359805,"zip":"9940069"},{"town":"田鶴町一丁目","koaza":"","lat":38.355966,"lng":140.369403,"zip":"9940046"},{"town":"田鶴町二丁目","koaza":"","lat":38.353831,"lng":140.369057,"zip":"9940046"},{"town":"田鶴町三丁目","koaza":"","lat":38.35374,"lng":140.366387,"zip":"9940046"},{"town":"田鶴町四丁目","koaza":"","lat":38.356379,"lng":140.366918,"zip":"9940046"},{"town":"天童中一丁目","koaza":"","lat":38.35797,"lng":140.376424,"zip":"9940031"},{"town":"天童中二丁目","koaza":"","lat":38.356553,"lng":140.378258,"zip":"9940031"},{"town":"天童中三丁目","koaza":"","lat":38.35403,"lng":140.383167,"zip":"9940031"},{"town":"長岡北一丁目","koaza":"","lat":38.334339,"lng":140.363367,"zip":"9940062"},{"town":"長岡北二丁目","koaza":"","lat":38.33602,"lng":140.364803,"zip":"9940062"},{"town":"長岡北三丁目","koaza":"","lat":38.334394,"lng":140.365986,"zip":"9940062"},{"town":"長岡北四丁目","koaza":"","lat":38.333636,"lng":140.368226,"zip":"9940062"},{"town":"中里一丁目","koaza":"","lat":38.330142,"lng":140.359556,"zip":"9940064"},{"town":"中里二丁目","koaza":"","lat":38.327939,"lng":140.357894,"zip":"9940064"},{"town":"中里三丁目","koaza":"","lat":38.326632,"lng":140.356753,"zip":"9940064"},{"town":"中里四丁目","koaza":"","lat":38.328883,"lng":140.362383,"zip":"9940064"},{"town":"中里五丁目","koaza":"","lat":38.326947,"lng":140.360071,"zip":"9940064"},{"town":"中里六丁目","koaza":"","lat":38.326339,"lng":140.36183,"zip":"9940064"},{"town":"中里七丁目","koaza":"","lat":38.326354,"lng":140.364294,"zip":"9940064"},{"town":"仲町一丁目","koaza":"","lat":38.351866,"lng":140.36902,"zip":"9940045"},{"town":"糠塚一丁目","koaza":"","lat":38.36602,"lng":140.379515,"zip":"9940014"},{"town":"糠塚二丁目","koaza":"","lat":38.365682,"lng":140.384009,"zip":"9940014"},{"town":"糠塚三丁目","koaza":"","lat":38.367787,"lng":140.383526,"zip":"9940014"},{"town":"万代","koaza":"","lat":38.394541,"lng":140.382173,"zip":"9940001"},{"town":"東久野本一丁目","koaza":"","lat":38.367923,"lng":140.379626,"zip":"9940016"},{"town":"東久野本二丁目","koaza":"","lat":38.370902,"lng":140.379679,"zip":"9940016"},{"town":"東久野本三丁目","koaza":"","lat":38.371446,"lng":140.382651,"zip":"9940016"},{"town":"東長岡一丁目","koaza":"","lat":38.33203,"lng":140.361219,"zip":"9940063"},{"town":"東長岡二丁目","koaza":"","lat":38.331178,"lng":140.363112,"zip":"9940063"},{"town":"東長岡三丁目","koaza":"","lat":38.330534,"lng":140.365169,"zip":"9940063"},{"town":"東長岡四丁目","koaza":"","lat":38.32997,"lng":140.367083,"zip":"9940063"},{"town":"東芳賀一丁目","koaza":"","lat":38.33793,"lng":140.366212,"zip":"9940061"},{"town":"東芳賀二丁目","koaza":"","lat":38.337341,"lng":140.369353,"zip":"9940061"},{"town":"東芳賀三丁目","koaza":"","lat":38.33992,"lng":140.36721,"zip":"9940061"},{"town":"東本町一丁目","koaza":"","lat":38.360602,"lng":140.37505,"zip":"9940026"},{"town":"東本町二丁目","koaza":"","lat":38.360446,"lng":140.378635,"zip":"9940026"},{"town":"東本町三丁目","koaza":"","lat":38.357963,"lng":140.378727,"zip":"9940026"},{"town":"一日町一丁目","koaza":"","lat":38.350428,"lng":140.36852,"zip":"9940044"},{"town":"一日町二丁目","koaza":"","lat":38.350015,"lng":140.371488,"zip":"9940044"},{"town":"一日町三丁目","koaza":"","lat":38.346696,"lng":140.370164,"zip":"9940044"},{"town":"一日町四丁目","koaza":"","lat":38.34668,"lng":140.368036,"zip":"9940044"},{"town":"本町一丁目","koaza":"","lat":38.360307,"lng":140.370293,"zip":"9940034"},{"town":"本町二丁目","koaza":"","lat":38.360325,"lng":140.372266,"zip":"9940034"},{"town":"交り江一丁目","koaza":"","lat":38.364692,"lng":140.368631,"zip":"9940048"},{"town":"交り江二丁目","koaza":"","lat":38.363105,"lng":140.368303,"zip":"9940048"},{"town":"交り江三丁目","koaza":"","lat":38.362789,"lng":140.365077,"zip":"9940048"},{"town":"交り江四丁目","koaza":"","lat":38.364717,"lng":140.36549,"zip":"9940048"},{"town":"交り江五丁目","koaza":"","lat":38.363325,"lng":140.363518,"zip":"9940048"},{"town":"松城町","koaza":"","lat":38.340724,"lng":140.371336,"zip":"9940043"},{"town":"乱川一丁目","koaza":"","lat":38.38213,"lng":140.376149,"zip":"9940002"},{"town":"乱川二丁目","koaza":"","lat":38.385863,"lng":140.376466,"zip":"9940002"},{"town":"乱川三丁目","koaza":"","lat":38.386055,"lng":140.380193,"zip":"9940002"},{"town":"乱川四丁目","koaza":"","lat":38.382418,"lng":140.380129,"zip":"9940002"},{"town":"三日町一丁目","koaza":"","lat":38.35813,"lng":140.370584,"zip":"9940033"},{"town":"三日町二丁目","koaza":"","lat":38.355881,"lng":140.371023,"zip":"9940033"},{"town":"南小畑一丁目","koaza":"","lat":38.350976,"lng":140.367311,"zip":"9940081"},{"town":"南小畑二丁目","koaza":"","lat":38.352466,"lng":140.363095,"zip":"9940081"},{"town":"南小畑三丁目","koaza":"","lat":38.350739,"lng":140.362637,"zip":"9940081"},{"town":"南小畑四丁目","koaza":"","lat":38.350435,"lng":140.365518,"zip":"9940081"},{"town":"南小畑五丁目","koaza":"","lat":38.348666,"lng":140.365353,"zip":"9940081"},{"town":"南小畑六丁目","koaza":"","lat":38.348911,"lng":140.362398,"zip":"9940081"},{"town":"南町一丁目","koaza":"","lat":38.3438,"lng":140.374188,"zip":"9940049"},{"town":"南町二丁目","koaza":"","lat":38.343221,"lng":140.370439,"zip":"9940049"},{"town":"南町三丁目","koaza":"","lat":38.343139,"lng":140.367548,"zip":"9940049"},{"town":"芳賀タウン北一丁目","koaza":"","lat":38.346691,"lng":140.365135,"zip":"9940082"},{"town":"芳賀タウン北二丁目","koaza":"","lat":38.347414,"lng":140.362281,"zip":"9940082"},{"town":"芳賀タウン北三丁目","koaza":"","lat":38.344991,"lng":140.361104,"zip":"9940082"},{"town":"芳賀タウン北四丁目","koaza":"","lat":38.343706,"lng":140.362742,"zip":"9940082"},{"town":"芳賀タウン北五丁目","koaza":"","lat":38.344376,"lng":140.365007,"zip":"9940082"},{"town":"芳賀タウン北六丁目","koaza":"","lat":38.342491,"lng":140.365341,"zip":"9940082"},{"town":"芳賀タウン南一丁目","koaza":"","lat":38.340252,"lng":140.364703,"zip":"9940083"},{"town":"芳賀タウン南二丁目","koaza":"","lat":38.340506,"lng":140.363242,"zip":"9940083"},{"town":"芳賀タウン南三丁目","koaza":"","lat":38.340852,"lng":140.360751,"zip":"9940083"},{"town":"芳賀タウン南四丁目","koaza":"","lat":38.341383,"lng":140.358652,"zip":"9940083"},{"town":"芳賀タウン南五丁目","koaza":"","lat":38.339483,"lng":140.357475,"zip":"9940083"},{"town":"芳賀タウン南六丁目","koaza":"","lat":38.338283,"lng":140.360623,"zip":"9940083"},{"town":"大字蔵増","koaza":"乙","lat":38.370033,"lng":140.333887,"zip":"9940000"},{"town":"大字高擶","koaza":"立谷川原北","lat":38.328885,"lng":140.33565,"zip":"9940000"},{"town":"大字高擶","koaza":"南","lat":38.335105,"lng":140.345452,"zip":"9940000"},{"town":"大字蔵増","koaza":"南","lat":38.367821,"lng":140.341488,"zip":"9940000"},{"town":"大字高擶","koaza":"北","lat":38.334297,"lng":140.349096,"zip":"9940000"},{"town":"大字芳賀","koaza":"桜段","lat":38.331913,"lng":140.370528,"zip":"9940000"},{"town":"大字原町","koaza":"乙","lat":38.340147,"lng":140.382414,"zip":"9940000"},{"town":"大字老野森","koaza":"光戒旦","lat":38.369515,"lng":140.384904,"zip":"9940000"},{"town":"大字山元","koaza":"藤田","lat":38.365999,"lng":140.38699,"zip":"9940000"},{"town":"大字山元","koaza":"五反田","lat":38.362938,"lng":140.388676,"zip":"9940000"},{"town":"大字貫津","koaza":"石橋","lat":38.35743,"lng":140.388887,"zip":"9940000"},{"town":"大字奈良沢","koaza":"甲","lat":38.333637,"lng":140.397581,"zip":"9940000"}]