[{"town":"字上河原","koaza":"","lat":38.401377,"lng":140.279237,"zip":"9910000"},{"town":"字菊地堂","koaza":"","lat":38.405398,"lng":140.275622,"zip":"9910000"},{"town":"字雲河原","koaza":"","lat":38.407616,"lng":140.277476,"zip":"9910000"},{"town":"字下河原","koaza":"","lat":38.399341,"lng":140.286476,"zip":"9910000"},{"town":"字道生","koaza":"","lat":38.40455,"lng":140.266698,"zip":"9910000"},{"town":"字中河原","koaza":"","lat":38.401846,"lng":140.284123,"zip":"9910000"},{"town":"字入倉","koaza":"","lat":38.4081,"lng":140.284114,"zip":"9910000"},{"town":"字夕カヘ","koaza":"","lat":38.401864,"lng":140.271417,"zip":"9910000"},{"town":"石持町","koaza":"","lat":38.385902,"lng":140.274762,"zip":"9910027"},{"town":"内ノ袋一丁目","koaza":"","lat":38.371797,"lng":140.262405,"zip":"9910057"},{"town":"大字幸生","koaza":"","lat":38.474412,"lng":140.199069,"zip":"9910000"},{"town":"大字慈恩寺","koaza":"","lat":38.425741,"lng":140.244481,"zip":"9910000"},{"town":"大字柴橋","koaza":"","lat":38.374732,"lng":140.247307,"zip":"9910000"},{"town":"大字島","koaza":"","lat":38.35348,"lng":140.275558,"zip":"9910000"},{"town":"大字白岩","koaza":"","lat":38.491843,"lng":140.230461,"zip":"9910000"},{"town":"大字清助新田","koaza":"","lat":38.401248,"lng":140.233125,"zip":"9910000"},{"town":"大字高松","koaza":"","lat":38.400057,"lng":140.247053,"zip":"9910000"},{"town":"大字高屋","koaza":"","lat":38.351219,"lng":140.286595,"zip":"9910000"},{"town":"大字田代","koaza":"","lat":38.453425,"lng":140.236541,"zip":"9910000"},{"town":"大字留場","koaza":"","lat":38.427162,"lng":140.223356,"zip":"9910000"},{"town":"大字中郷","koaza":"","lat":38.363086,"lng":140.230854,"zip":"9910000"},{"town":"大字西根","koaza":"","lat":38.388858,"lng":140.287453,"zip":"9910000"},{"town":"大字平塩","koaza":"","lat":38.356937,"lng":140.248257,"zip":"9910000"},{"town":"大字日和田","koaza":"","lat":38.407141,"lng":140.264456,"zip":"9910000"},{"town":"大字松川","koaza":"","lat":38.381914,"lng":140.226814,"zip":"9910000"},{"town":"大字箕輪","koaza":"","lat":38.418125,"lng":140.264815,"zip":"9910000"},{"town":"大字宮内","koaza":"","lat":38.412002,"lng":140.197144,"zip":"9910000"},{"town":"大字八鍬","koaza":"","lat":38.396594,"lng":140.261844,"zip":"9910000"},{"town":"大字谷沢","koaza":"","lat":38.39543,"lng":140.210669,"zip":"9910000"},{"town":"大字米沢","koaza":"","lat":38.392268,"lng":140.244139,"zip":"9910000"},{"town":"落衣前","koaza":"","lat":38.369072,"lng":140.261011,"zip":"9910056"},{"town":"越井坂町","koaza":"","lat":38.372059,"lng":140.284732,"zip":"9910044"},{"town":"小沼町","koaza":"","lat":38.369754,"lng":140.2835,"zip":"9910045"},{"town":"幸町","koaza":"","lat":38.371227,"lng":140.276835,"zip":"9910035"},{"town":"栄町","koaza":"","lat":38.369318,"lng":140.279182,"zip":"9910034"},{"town":"幸田町","koaza":"","lat":38.36668,"lng":140.274509,"zip":"9910052"},{"town":"新山一丁目","koaza":"","lat":38.371818,"lng":140.289223,"zip":"9910047"},{"town":"新山二丁目","koaza":"","lat":38.371641,"lng":140.291187,"zip":"9910047"},{"town":"新山町","koaza":"","lat":38.37122,"lng":140.293204,"zip":"9910012"},{"town":"末広町","koaza":"","lat":38.37062,"lng":140.280093,"zip":"9910033"},{"town":"高田一丁目","koaza":"","lat":38.369759,"lng":140.286516,"zip":"9910013"},{"town":"高田二丁目","koaza":"","lat":38.367914,"lng":140.2862,"zip":"9910013"},{"town":"高田三丁目","koaza":"","lat":38.368632,"lng":140.288955,"zip":"9910013"},{"town":"中央一丁目","koaza":"","lat":38.380626,"lng":140.277576,"zip":"9910021"},{"town":"中央二丁目","koaza":"","lat":38.383756,"lng":140.278545,"zip":"9910021"},{"town":"中央工業団地","koaza":"","lat":38.387127,"lng":140.254481,"zip":"9900561"},{"town":"仲谷地一丁目","koaza":"","lat":38.369666,"lng":140.265975,"zip":"9910054"},{"town":"仲谷地二丁目","koaza":"","lat":38.369157,"lng":140.264461,"zip":"9910054"},{"town":"仲谷地三丁目","koaza":"","lat":38.368667,"lng":140.262927,"zip":"9910054"},{"town":"七日町","koaza":"","lat":38.380137,"lng":140.281374,"zip":"9910022"},{"town":"西根一丁目","koaza":"","lat":38.383142,"lng":140.281838,"zip":"9910003"},{"town":"西根二丁目","koaza":"","lat":38.386413,"lng":140.279987,"zip":"9910003"},{"town":"西根北町","koaza":"","lat":38.390433,"lng":140.280211,"zip":"9910004"},{"town":"東新山町","koaza":"","lat":38.371146,"lng":140.296139,"zip":"9910046"},{"town":"船橋町","koaza":"","lat":38.373407,"lng":140.26793,"zip":"9910055"},{"town":"ほなみ一丁目","koaza":"","lat":38.379542,"lng":140.283773,"zip":"9910028"},{"town":"ほなみ二丁目","koaza":"","lat":38.381029,"lng":140.283809,"zip":"9910028"},{"town":"ほなみ三丁目","koaza":"","lat":38.38283,"lng":140.283897,"zip":"9910028"},{"town":"本町一丁目","koaza":"","lat":38.373308,"lng":140.274802,"zip":"9910031"},{"town":"本町二丁目","koaza":"","lat":38.376145,"lng":140.276463,"zip":"9910031"},{"town":"本町三丁目","koaza":"","lat":38.376519,"lng":140.273691,"zip":"9910031"},{"town":"丸内一丁目","koaza":"","lat":38.375879,"lng":140.279789,"zip":"9910023"},{"town":"丸内二丁目","koaza":"","lat":38.377462,"lng":140.280268,"zip":"9910023"},{"town":"丸内三丁目","koaza":"","lat":38.376635,"lng":140.283135,"zip":"9910023"},{"town":"みずき一丁目","koaza":"","lat":38.36598,"lng":140.280977,"zip":"9910048"},{"town":"みずき二丁目","koaza":"","lat":38.365943,"lng":140.284513,"zip":"9910048"},{"town":"みずき三丁目","koaza":"","lat":38.365463,"lng":140.287445,"zip":"9910048"},{"town":"緑町","koaza":"","lat":38.384477,"lng":140.259151,"zip":"9910062"},{"town":"南町一丁目","koaza":"","lat":38.372778,"lng":140.278925,"zip":"9910032"},{"town":"南町二丁目","koaza":"","lat":38.374261,"lng":140.279162,"zip":"9910032"},{"town":"南町三丁目","koaza":"","lat":38.373347,"lng":140.283601,"zip":"9910032"},{"town":"本楯一丁目","koaza":"","lat":38.366675,"lng":140.294316,"zip":"9910049"},{"town":"本楯二丁目","koaza":"","lat":38.363625,"lng":140.293268,"zip":"9910049"},{"town":"本楯三丁目","koaza":"","lat":38.366771,"lng":140.290683,"zip":"9910049"},{"town":"元町一丁目","koaza":"","lat":38.372998,"lng":140.272273,"zip":"9910053"},{"town":"元町二丁目","koaza":"","lat":38.37037,"lng":140.271953,"zip":"9910053"},{"town":"元町三丁目","koaza":"","lat":38.371585,"lng":140.268503,"zip":"9910053"},{"town":"元町四丁目","koaza":"","lat":38.368639,"lng":140.269996,"zip":"9910053"},{"town":"山岸町","koaza":"","lat":38.381465,"lng":140.273951,"zip":"9910026"},{"town":"八幡町","koaza":"","lat":38.379255,"lng":140.270753,"zip":"9910025"},{"town":"六供町一丁目","koaza":"","lat":38.377012,"lng":140.27007,"zip":"9910024"},{"town":"六供町二丁目","koaza":"","lat":38.380854,"lng":140.268412,"zip":"9910024"},{"town":"若葉町","koaza":"","lat":38.369915,"lng":140.274847,"zip":"9910051"},{"town":"大字日田元仁田","koaza":"","lat":38.369079,"lng":140.31619,"zip":"9910000"},{"town":"本楯四丁目","koaza":"","lat":38.368372,"lng":140.296205,"zip":"9910049"},{"town":"大字寒河江","koaza":"","lat":38.358483,"lng":140.300964,"zip":"9910000"},{"town":"大字日田","koaza":"","lat":38.37451,"lng":140.30914,"zip":"9910000"},{"town":"大字八鍬","koaza":"富沢","lat":38.405063,"lng":140.24036,"zip":"9910000"},{"town":"大字慈恩寺","koaza":"番外","lat":38.410166,"lng":140.245728,"zip":"9910000"},{"town":"大字八鍬","koaza":"南","lat":38.397485,"lng":140.254678,"zip":"9910000"},{"town":"大字八鍬","koaza":"八鍬","lat":38.399806,"lng":140.252581,"zip":"9910000"},{"town":"大字慈恩寺","koaza":"地籍","lat":38.410659,"lng":140.252261,"zip":"9910000"},{"town":"大字寒河江","koaza":"久保","lat":38.364033,"lng":140.258261,"zip":"9910000"},{"town":"大字寒河江","koaza":"鷹の巣","lat":38.378741,"lng":140.256228,"zip":"9910000"},{"town":"大字八鍬","koaza":"川原","lat":38.400278,"lng":140.264253,"zip":"9910000"},{"town":"大字八鍬","koaza":"東","lat":38.395855,"lng":140.26221,"zip":"9910000"},{"town":"大字寒河江","koaza":"落衣前","lat":38.367752,"lng":140.259645,"zip":"9910000"},{"town":"大字寒河江","koaza":"鶴田","lat":38.381426,"lng":140.26081,"zip":"9910000"},{"town":"大字八鍬","koaza":"鹿島","lat":38.396439,"lng":140.258332,"zip":"9910000"},{"town":"大字寒河江","koaza":"塩水","lat":38.378236,"lng":140.263291,"zip":"9910000"},{"town":"大字寒河江","koaza":"内の袋","lat":38.375273,"lng":140.260854,"zip":"9910000"},{"town":"大字寒河江","koaza":"仲田","lat":38.382212,"lng":140.26508,"zip":"9910000"},{"town":"大字寒河江","koaza":"菖蒲沼","lat":38.390045,"lng":140.26448,"zip":"9910000"},{"town":"大字寒河江","koaza":"山西","lat":38.36625,"lng":140.264043,"zip":"9910000"},{"town":"大字寒河江","koaza":"長岡","lat":38.385385,"lng":140.269096,"zip":"9910000"},{"town":"大字寒河江","koaza":"小和田","lat":38.375073,"lng":140.267275,"zip":"9910000"},{"town":"大字寒河江","koaza":"追方","lat":38.384933,"lng":140.265893,"zip":"9910000"},{"town":"大字寒河江","koaza":"上原","lat":38.389729,"lng":140.270174,"zip":"9910000"},{"town":"大字寒河江","koaza":"高瀬山","lat":38.36389,"lng":140.269618,"zip":"9910000"},{"town":"大字寒河江","koaza":"下原","lat":38.390549,"lng":140.271269,"zip":"9910000"},{"town":"大字寒河江","koaza":"樋ノ口","lat":38.392634,"lng":140.273284,"zip":"9910000"},{"town":"大字島","koaza":"島西","lat":38.36011,"lng":140.270194,"zip":"9910000"},{"town":"大字島","koaza":"島","lat":38.358114,"lng":140.272254,"zip":"9910000"},{"town":"大字寒河江","koaza":"丙","lat":38.382492,"lng":140.27375,"zip":"9910000"},{"town":"大字島","koaza":"島南","lat":38.352621,"lng":140.277017,"zip":"9910000"},{"town":"大字島","koaza":"島北","lat":38.358425,"lng":140.275521,"zip":"9910000"},{"town":"大字寒河江","koaza":"山岸","lat":38.384354,"lng":140.274576,"zip":"9910000"},{"town":"大字西根","koaza":"下堰","lat":38.394024,"lng":140.278746,"zip":"9910000"},{"town":"大字西根","koaza":"石川西","lat":38.39028,"lng":140.277259,"zip":"9910000"},{"town":"大字島","koaza":"島東","lat":38.35652,"lng":140.277807,"zip":"9910000"},{"town":"大字島","koaza":"皿沼西","lat":38.347195,"lng":140.279395,"zip":"9910000"},{"town":"大字西根","koaza":"上川原","lat":38.39627,"lng":140.277157,"zip":"9910000"},{"town":"大字寒河江","koaza":"石田","lat":38.367084,"lng":140.277512,"zip":"9910000"},{"town":"大字寒河江","koaza":"古河江","lat":38.361927,"lng":140.281422,"zip":"9910000"},{"town":"大字島","koaza":"皿沼","lat":38.346259,"lng":140.281131,"zip":"9910000"},{"town":"大字寒河江","koaza":"月越","lat":38.363993,"lng":140.278688,"zip":"9910000"},{"town":"大字高屋","koaza":"西浦","lat":38.353495,"lng":140.28172,"zip":"9910000"},{"town":"大字高屋","koaza":"北江","lat":38.358409,"lng":140.284755,"zip":"9910000"},{"town":"大字島","koaza":"皿沼南","lat":38.343854,"lng":140.281531,"zip":"9910000"},{"town":"大字西根","koaza":"中川原","lat":38.393392,"lng":140.284387,"zip":"9910000"},{"town":"大字西根","koaza":"石川下","lat":38.388131,"lng":140.285543,"zip":"9910000"},{"town":"大字西根","koaza":"前川原","lat":38.391753,"lng":140.284615,"zip":"9910000"},{"town":"大字島","koaza":"皿沼東","lat":38.345209,"lng":140.284567,"zip":"9910000"},{"town":"大字寒河江","koaza":"横道","lat":38.366754,"lng":140.284583,"zip":"9910000"},{"town":"大字西根","koaza":"木の下","lat":38.38265,"lng":140.285516,"zip":"9910000"},{"town":"大字高屋","koaza":"上屋敷","lat":38.354666,"lng":140.284392,"zip":"9910000"},{"town":"大字寒河江","koaza":"赤田","lat":38.374937,"lng":140.288157,"zip":"9910000"},{"town":"大字高屋","koaza":"台下","lat":38.354169,"lng":140.289332,"zip":"9910000"},{"town":"大字高屋","koaza":"下屋敷","lat":38.357186,"lng":140.28671,"zip":"9910000"},{"town":"大字寒河江","koaza":"木の下","lat":38.379581,"lng":140.285804,"zip":"9910000"},{"town":"大字西根","koaza":"谷地田","lat":38.381385,"lng":140.292496,"zip":"9910000"},{"town":"大字寒河江","koaza":"亀ケ泓","lat":38.376637,"lng":140.288367,"zip":"9910000"},{"town":"大字西根","koaza":"長面","lat":38.383984,"lng":140.29171,"zip":"9910000"},{"town":"大字寒河江","koaza":"茨江","lat":38.36506,"lng":140.287696,"zip":"9910000"},{"town":"大字寒河江","koaza":"北江","lat":38.362898,"lng":140.291446,"zip":"9910000"},{"town":"大字西根","koaza":"下川原","lat":38.390906,"lng":140.291956,"zip":"9910000"},{"town":"大字西根","koaza":"江前","lat":38.387305,"lng":140.292611,"zip":"9910000"},{"town":"大字西根","koaza":"高畑","lat":38.381852,"lng":140.297259,"zip":"9910000"},{"town":"大字寒河江","koaza":"五反","lat":38.374781,"lng":140.29658,"zip":"9910000"},{"town":"大字日田","koaza":"五反","lat":38.374713,"lng":140.299104,"zip":"9910000"},{"town":"大字寒河江","koaza":"曲戸","lat":38.364933,"lng":140.297028,"zip":"9910000"},{"town":"大字寒河江","koaza":"起田野","lat":38.36661,"lng":140.297894,"zip":"9910000"},{"town":"大字西根","koaza":"外川原","lat":38.385536,"lng":140.301317,"zip":"9910000"},{"town":"大字日田","koaza":"後田","lat":38.378188,"lng":140.301025,"zip":"9910000"},{"town":"大字日田","koaza":"内川向","lat":38.384106,"lng":140.303125,"zip":"9910000"},{"town":"大字日田","koaza":"満々下","lat":38.382026,"lng":140.302542,"zip":"9910000"},{"town":"大字日田","koaza":"中向","lat":38.37196,"lng":140.304252,"zip":"9910000"},{"town":"大字日田","koaza":"楯越","lat":38.375584,"lng":140.304712,"zip":"9910000"},{"town":"大字日田","koaza":"五輪","lat":38.378819,"lng":140.304365,"zip":"9910000"},{"town":"大字日田","koaza":"川前","lat":38.37493,"lng":140.307813,"zip":"9910000"},{"town":"大字日田","koaza":"平田","lat":38.375277,"lng":140.31394,"zip":"9910000"},{"town":"大字日田","koaza":"前野","lat":38.376553,"lng":140.317361,"zip":"9910000"},{"town":"大字寒河江","koaza":"三条","lat":38.363682,"lng":140.275482,"zip":"9910000"},{"town":"大字島","koaza":"皿沼北","lat":38.348858,"lng":140.281411,"zip":"9910000"},{"town":"大字高屋","koaza":"新屋敷","lat":38.350647,"lng":140.284289,"zip":"9910000"},{"town":"大字寒河江","koaza":"沼田","lat":38.360519,"lng":140.293521,"zip":"9910000"},{"town":"大字寒河江","koaza":"塚田","lat":38.361304,"lng":140.292561,"zip":"9910000"},{"town":"大字寒河江","koaza":"上野","lat":38.366215,"lng":140.269922,"zip":"9910000"},{"town":"大字八鍬","koaza":"郷ノ目","lat":38.397555,"lng":140.24872,"zip":"9910000"},{"town":"大字寒河江","koaza":"石持","lat":38.387313,"lng":140.273015,"zip":"9910000"},{"town":"大字西根","koaza":"石川東","lat":38.384807,"lng":140.283148,"zip":"9910000"},{"town":"大字日田","koaza":"向","lat":38.370748,"lng":140.312916,"zip":"9910000"},{"town":"大字日田","koaza":"新田","lat":38.380076,"lng":140.305326,"zip":"9910000"},{"town":"大字日田","koaza":"中島","lat":38.370875,"lng":140.297627,"zip":"9910000"},{"town":"大字寒河江","koaza":"洲崎","lat":38.388941,"lng":140.262586,"zip":"9910000"},{"town":"大字寒河江","koaza":"谷地田","lat":38.37559,"lng":140.292052,"zip":"9910000"},{"town":"大字日田","koaza":"弓貝","lat":38.376338,"lng":140.299442,"zip":"9910000"},{"town":"大字西根","koaza":"五反","lat":38.378465,"lng":140.296721,"zip":"9910000"},{"town":"大字寒河江","koaza":"寺山","lat":38.374388,"lng":140.257755,"zip":"9910000"},{"town":"大字寒河江","koaza":"丁","lat":38.365739,"lng":140.292246,"zip":"9910000"},{"town":"大字寒河江","koaza":"砂川原","lat":38.359067,"lng":140.294279,"zip":"9910000"},{"town":"大字西根","koaza":"内川","lat":38.385415,"lng":140.29375,"zip":"9910000"},{"town":"大字寒河江","koaza":"若神子","lat":38.386235,"lng":140.263761,"zip":"9910000"}]