[{"town":"大字芦沢","koaza":"","lat":38.652203,"lng":140.364453,"zip":"9994200"},{"town":"大字五十沢","koaza":"","lat":38.573726,"lng":140.418327,"zip":"9994200"},{"town":"大字市野々","koaza":"","lat":38.496992,"lng":140.541936,"zip":"9994200"},{"town":"大字岩谷沢","koaza":"","lat":38.674327,"lng":140.515918,"zip":"9994200"},{"town":"大字荻袋","koaza":"","lat":38.624433,"lng":140.396354,"zip":"9994200"},{"town":"大字押切","koaza":"","lat":38.625938,"lng":140.481149,"zip":"9994200"},{"town":"大字尾花沢","koaza":"","lat":38.605626,"lng":140.425164,"zip":"9994200"},{"town":"大字朧気","koaza":"","lat":38.594537,"lng":140.404576,"zip":"9994200"},{"town":"大字上ノ畑","koaza":"","lat":38.551728,"lng":140.551748,"zip":"9994200"},{"town":"大字上柳渡戸","koaza":"","lat":38.574439,"lng":140.507275,"zip":"9994200"},{"town":"大字北郷","koaza":"","lat":38.611086,"lng":140.459019,"zip":"9994200"},{"town":"大字銀山新畑","koaza":"","lat":38.577955,"lng":140.547715,"zip":"9994200"},{"town":"大字牛房野","koaza":"","lat":38.666521,"lng":140.466153,"zip":"9994200"},{"town":"大字下柳渡戸","koaza":"","lat":38.572907,"lng":140.491221,"zip":"9994200"},{"town":"大字正厳","koaza":"","lat":38.630722,"lng":140.460685,"zip":"9994200"},{"town":"大字高橋","koaza":"","lat":38.641537,"lng":140.517962,"zip":"9994200"},{"town":"大字鶴子","koaza":"","lat":38.54515,"lng":140.495763,"zip":"9994200"},{"town":"大字鶴巻田","koaza":"","lat":38.600016,"lng":140.485468,"zip":"9994200"},{"town":"大字寺内","koaza":"","lat":38.67778,"lng":140.430683,"zip":"9994200"},{"town":"大字毒沢","koaza":"","lat":38.667968,"lng":140.329314,"zip":"9994200"},{"town":"大字富山","koaza":"","lat":38.645268,"lng":140.48398,"zip":"9994200"},{"town":"大字中島","koaza":"","lat":38.622257,"lng":140.515413,"zip":"9994200"},{"town":"大字名木沢","koaza":"","lat":38.675519,"lng":140.366116,"zip":"9994200"},{"town":"大字行沢","koaza":"","lat":38.611444,"lng":140.498537,"zip":"9994200"},{"town":"大字二藤袋","koaza":"","lat":38.60701,"lng":140.44184,"zip":"9994200"},{"town":"大字丹生","koaza":"","lat":38.632563,"lng":140.432082,"zip":"9994200"},{"town":"大字野黒沢","koaza":"","lat":38.646793,"lng":140.376135,"zip":"9994200"},{"town":"大字延沢","koaza":"","lat":38.57791,"lng":140.44343,"zip":"9994200"},{"town":"大字畑沢","koaza":"","lat":38.533836,"lng":140.443528,"zip":"9994200"},{"town":"大字原田","koaza":"","lat":38.59488,"lng":140.45905,"zip":"9994200"},{"town":"大字細野","koaza":"","lat":38.52163,"lng":140.484862,"zip":"9994200"},{"town":"大字南沢","koaza":"","lat":38.692994,"lng":140.413303,"zip":"9994200"},{"town":"大字母袋","koaza":"","lat":38.602281,"lng":140.52992,"zip":"9994200"},{"town":"大字六沢","koaza":"","lat":38.576297,"lng":140.470983,"zip":"9994200"},{"town":"朧気一丁目","koaza":"","lat":38.595945,"lng":140.401321,"zip":"9994222"},{"town":"上町一丁目","koaza":"","lat":38.602758,"lng":140.404824,"zip":"9994228"},{"town":"上町二丁目","koaza":"","lat":38.600391,"lng":140.40372,"zip":"9994228"},{"town":"上町三丁目","koaza":"","lat":38.597377,"lng":140.403686,"zip":"9994228"},{"town":"上町四丁目","koaza":"","lat":38.598984,"lng":140.399768,"zip":"9994228"},{"town":"上町五丁目","koaza":"","lat":38.602715,"lng":140.402636,"zip":"9994228"},{"town":"上町六丁目","koaza":"","lat":38.602606,"lng":140.400592,"zip":"9994228"},{"town":"北町一丁目","koaza":"","lat":38.610341,"lng":140.407167,"zip":"9994231"},{"town":"北町二丁目","koaza":"","lat":38.612586,"lng":140.407514,"zip":"9994231"},{"town":"新町一丁目","koaza":"","lat":38.603134,"lng":140.408964,"zip":"9994224"},{"town":"新町二丁目","koaza":"","lat":38.605218,"lng":140.409883,"zip":"9994224"},{"town":"新町三丁目","koaza":"","lat":38.599239,"lng":140.417414,"zip":"9994224"},{"town":"新町四丁目","koaza":"","lat":38.607344,"lng":140.414087,"zip":"9994224"},{"town":"新町五丁目","koaza":"","lat":38.610067,"lng":140.42092,"zip":"9994224"},{"town":"新町中央","koaza":"","lat":38.605435,"lng":140.406391,"zip":"9994226"},{"town":"中町","koaza":"","lat":38.605444,"lng":140.404148,"zip":"9994227"},{"town":"梺町一丁目","koaza":"","lat":38.605805,"lng":140.401827,"zip":"9994232"},{"town":"梺町二丁目","koaza":"","lat":38.607436,"lng":140.400686,"zip":"9994232"},{"town":"梺町三丁目","koaza":"","lat":38.608675,"lng":140.402283,"zip":"9994232"},{"town":"梺町四丁目","koaza":"","lat":38.611214,"lng":140.404352,"zip":"9994232"},{"town":"横町一丁目","koaza":"","lat":38.60783,"lng":140.40621,"zip":"9994229"},{"town":"横町二丁目","koaza":"","lat":38.608884,"lng":140.410515,"zip":"9994229"},{"town":"若葉町一丁目","koaza":"","lat":38.599016,"lng":140.406032,"zip":"9994225"},{"town":"若葉町二丁目","koaza":"","lat":38.599685,"lng":140.409186,"zip":"9994225"},{"town":"若葉町三丁目","koaza":"","lat":38.601014,"lng":140.412312,"zip":"9994225"},{"town":"若葉町四丁目","koaza":"","lat":38.598945,"lng":140.412236,"zip":"9994225"},{"town":"大字尾花沢","koaza":"下新田","lat":38.596631,"lng":140.39507,"zip":"9994200"},{"town":"大字尾花沢","koaza":"南原","lat":38.598146,"lng":140.394434,"zip":"9994200"}]