[{"town":"相生町","koaza":"","lat":38.259076,"lng":140.337672,"zip":"9900055"},{"town":"青田一丁目","koaza":"","lat":38.22547,"lng":140.329118,"zip":"9902435"},{"town":"青田二丁目","koaza":"","lat":38.22618,"lng":140.334657,"zip":"9902435"},{"town":"青田三丁目","koaza":"","lat":38.223266,"lng":140.332035,"zip":"9902435"},{"town":"青田四丁目","koaza":"","lat":38.22371,"lng":140.328611,"zip":"9902435"},{"town":"青田五丁目","koaza":"","lat":38.222154,"lng":140.329651,"zip":"9902435"},{"town":"青田南","koaza":"","lat":38.220714,"lng":140.32707,"zip":"9902324"},{"town":"明石堂","koaza":"","lat":38.228951,"lng":140.292897,"zip":"9902353"},{"town":"あかねケ丘一丁目","koaza":"","lat":38.250198,"lng":140.311308,"zip":"9902481"},{"town":"あかねケ丘二丁目","koaza":"","lat":38.245721,"lng":140.310193,"zip":"9902481"},{"town":"あかねケ丘三丁目","koaza":"","lat":38.242139,"lng":140.309268,"zip":"9902481"},{"town":"あけぼの一丁目","koaza":"","lat":38.313451,"lng":140.362092,"zip":"9902162"},{"town":"あけぼの二丁目","koaza":"","lat":38.313547,"lng":140.359751,"zip":"9902162"},{"town":"あこや町一丁目","koaza":"","lat":38.240038,"lng":140.350896,"zip":"9900025"},{"town":"あこや町二丁目","koaza":"","lat":38.24231,"lng":140.352468,"zip":"9900025"},{"town":"あこや町三丁目","koaza":"","lat":38.240395,"lng":140.354958,"zip":"9900025"},{"town":"旭が丘","koaza":"","lat":38.227021,"lng":140.33055,"zip":"9902434"},{"town":"あさひ町","koaza":"","lat":38.243303,"lng":140.363634,"zip":"9900024"},{"town":"あずま町","koaza":"","lat":38.238828,"lng":140.337376,"zip":"9902491"},{"town":"阿弥陀","koaza":"","lat":38.250965,"lng":140.271179,"zip":"9900000"},{"town":"荒楯町一丁目","koaza":"","lat":38.233512,"lng":140.333223,"zip":"9902432"},{"town":"荒楯町二丁目","koaza":"","lat":38.231137,"lng":140.333144,"zip":"9902432"},{"town":"飯沢","koaza":"","lat":38.240955,"lng":140.302226,"zip":"9902476"},{"town":"飯田一丁目","koaza":"","lat":38.216253,"lng":140.324533,"zip":"9902332"},{"town":"飯田二丁目","koaza":"","lat":38.216442,"lng":140.327945,"zip":"9902332"},{"town":"飯田三丁目","koaza":"","lat":38.213973,"lng":140.330905,"zip":"9902332"},{"town":"飯田四丁目","koaza":"","lat":38.213849,"lng":140.326862,"zip":"9902332"},{"town":"飯田五丁目","koaza":"","lat":38.211435,"lng":140.32522,"zip":"9902332"},{"town":"飯田西一丁目","koaza":"","lat":38.216726,"lng":140.322626,"zip":"9902331"},{"town":"飯田西二丁目","koaza":"","lat":38.215582,"lng":140.318019,"zip":"9902331"},{"town":"飯田西三丁目","koaza":"","lat":38.212867,"lng":140.317382,"zip":"9902331"},{"town":"飯田西四丁目","koaza":"","lat":38.213296,"lng":140.320837,"zip":"9902331"},{"town":"飯田西五丁目","koaza":"","lat":38.211747,"lng":140.321342,"zip":"9902331"},{"town":"飯塚口","koaza":"","lat":38.257641,"lng":140.303537,"zip":"9900841"},{"town":"石関","koaza":"","lat":38.252847,"lng":140.305489,"zip":"9900842"},{"town":"石寺","koaza":"","lat":38.228057,"lng":140.285808,"zip":"9900000"},{"town":"五十鈴一丁目","koaza":"","lat":38.271661,"lng":140.353291,"zip":"9900061"},{"town":"五十鈴二丁目","koaza":"","lat":38.273776,"lng":140.354458,"zip":"9900061"},{"town":"五十鈴三丁目","koaza":"","lat":38.276069,"lng":140.355874,"zip":"9900061"},{"town":"泉町","koaza":"","lat":38.274231,"lng":140.345019,"zip":"9900068"},{"town":"五日町","koaza":"","lat":38.244882,"lng":140.323463,"zip":"9900829"},{"town":"鋳物町","koaza":"","lat":38.232243,"lng":140.28879,"zip":"9902351"},{"town":"印役町一丁目","koaza":"","lat":38.263459,"lng":140.349619,"zip":"9900066"},{"town":"印役町二丁目","koaza":"","lat":38.263595,"lng":140.3532,"zip":"9900066"},{"town":"印役町三丁目","koaza":"","lat":38.265184,"lng":140.351542,"zip":"9900066"},{"town":"印役町四丁目","koaza":"","lat":38.267624,"lng":140.35191,"zip":"9900066"},{"town":"印役町五丁目","koaza":"","lat":38.268321,"lng":140.347729,"zip":"9900066"},{"town":"内表東","koaza":"","lat":38.292127,"lng":140.305905,"zip":"9900878"},{"town":"内城","koaza":"","lat":38.2674,"lng":140.268717,"zip":"9900000"},{"town":"馬洗場","koaza":"","lat":38.310451,"lng":140.312794,"zip":"9900000"},{"town":"梅野木前","koaza":"","lat":38.282696,"lng":140.312931,"zip":"9900874"},{"town":"上江","koaza":"","lat":38.274457,"lng":140.286008,"zip":"9900000"},{"town":"上町一丁目","koaza":"","lat":38.242691,"lng":140.320654,"zip":"9902483"},{"town":"上町二丁目","koaza":"","lat":38.245375,"lng":140.319388,"zip":"9902483"},{"town":"上町三丁目","koaza":"","lat":38.24207,"lng":140.316703,"zip":"9902483"},{"town":"上町四丁目","koaza":"","lat":38.244274,"lng":140.314332,"zip":"9902483"},{"town":"上町五丁目","koaza":"","lat":38.241571,"lng":140.313334,"zip":"9902483"},{"town":"江俣一丁目","koaza":"","lat":38.274316,"lng":140.323403,"zip":"9900861"},{"town":"江俣二丁目","koaza":"","lat":38.278095,"lng":140.323108,"zip":"9900861"},{"town":"江俣三丁目","koaza":"","lat":38.275204,"lng":140.320199,"zip":"9900861"},{"town":"江俣四丁目","koaza":"","lat":38.276889,"lng":140.316847,"zip":"9900861"},{"town":"江俣五丁目","koaza":"","lat":38.278922,"lng":140.313606,"zip":"9900861"},{"town":"円応寺町","koaza":"","lat":38.267026,"lng":140.344137,"zip":"9900052"},{"town":"追散","koaza":"","lat":38.269749,"lng":140.302154,"zip":"9900000"},{"town":"大字青野","koaza":"","lat":38.284609,"lng":140.382142,"zip":"9900000"},{"town":"大字青柳","koaza":"","lat":38.299448,"lng":140.351406,"zip":"9900000"},{"town":"大字今塚","koaza":"","lat":38.291894,"lng":140.32397,"zip":"9900000"},{"town":"大字岩波","koaza":"","lat":38.211356,"lng":140.357264,"zip":"9900000"},{"town":"大字内表","koaza":"","lat":38.294926,"lng":140.296223,"zip":"9900000"},{"town":"大字江俣","koaza":"","lat":38.288303,"lng":140.311736,"zip":"9900000"},{"town":"大字大森","koaza":"","lat":38.308732,"lng":140.395661,"zip":"9900000"},{"town":"大字風間","koaza":"","lat":38.295527,"lng":140.381874,"zip":"9900000"},{"town":"大字柏倉","koaza":"","lat":38.221614,"lng":140.232111,"zip":"9900000"},{"town":"大字片谷地","koaza":"","lat":38.21321,"lng":140.304964,"zip":"9900000"},{"town":"大字上椹沢","koaza":"","lat":38.26509,"lng":140.296033,"zip":"9900000"},{"town":"大字上桜田","koaza":"","lat":38.216968,"lng":140.348279,"zip":"9900000"},{"town":"大字上反田","koaza":"","lat":38.269387,"lng":140.256185,"zip":"9900000"},{"town":"大字上東山","koaza":"","lat":38.282926,"lng":140.432696,"zip":"9900000"},{"town":"大字上宝沢","koaza":"","lat":38.212072,"lng":140.42069,"zip":"9900000"},{"town":"大字神尾","koaza":"","lat":38.191511,"lng":140.367854,"zip":"9900000"},{"town":"大字切畑","koaza":"","lat":38.281604,"lng":140.400441,"zip":"9900000"},{"town":"大字黒沢","koaza":"","lat":38.191542,"lng":140.302004,"zip":"9900000"},{"town":"大字下東山","koaza":"","lat":38.297457,"lng":140.412232,"zip":"9900000"},{"town":"大字下宝沢","koaza":"","lat":38.23179,"lng":140.4011,"zip":"9900000"},{"town":"大字釈迦堂","koaza":"","lat":38.240127,"lng":140.385814,"zip":"9900000"},{"town":"大字十文字","koaza":"","lat":38.309579,"lng":140.373946,"zip":"9900000"},{"town":"大字常明寺","koaza":"","lat":38.266185,"lng":140.245765,"zip":"9900000"},{"town":"大字陣場","koaza":"","lat":38.282679,"lng":140.303854,"zip":"9900000"},{"town":"大字陣場新田","koaza":"","lat":38.282854,"lng":140.298328,"zip":"9900000"},{"town":"大字菅沢","koaza":"","lat":38.225443,"lng":140.272772,"zip":"9900000"},{"town":"大字鮨洗","koaza":"","lat":38.291153,"lng":140.282324,"zip":"9900000"},{"town":"大字関沢","koaza":"","lat":38.219552,"lng":140.454969,"zip":"9900000"},{"town":"大字高沢","koaza":"","lat":38.257437,"lng":140.441562,"zip":"9900000"},{"town":"大字滝平","koaza":"","lat":38.267906,"lng":140.222431,"zip":"9900000"},{"town":"大字津金沢","koaza":"","lat":38.204067,"lng":140.290669,"zip":"9900000"},{"town":"大字土坂","koaza":"","lat":38.202836,"lng":140.382413,"zip":"9900000"},{"town":"大字中桜田","koaza":"","lat":38.210506,"lng":140.342288,"zip":"9900000"},{"town":"大字中里","koaza":"","lat":38.302105,"lng":140.383865,"zip":"9900000"},{"town":"大字中野","koaza":"","lat":38.307506,"lng":140.306733,"zip":"9900000"},{"town":"大字中野目","koaza":"","lat":38.332889,"lng":140.311796,"zip":"9900000"},{"town":"大字七浦","koaza":"","lat":38.303221,"lng":140.339276,"zip":"9900000"},{"town":"大字滑川","koaza":"","lat":38.242188,"lng":140.407245,"zip":"9900000"},{"town":"大字成安","koaza":"","lat":38.318395,"lng":140.316989,"zip":"9900000"},{"town":"大字二位田","koaza":"","lat":38.222092,"lng":140.287115,"zip":"9900000"},{"town":"大字新山","koaza":"","lat":38.230241,"lng":140.425661,"zip":"9900000"},{"town":"大字西中野","koaza":"","lat":38.300421,"lng":140.299268,"zip":"9900000"},{"town":"大字沼木","koaza":"","lat":38.246405,"lng":140.290597,"zip":"9900000"},{"town":"大字灰塚","koaza":"","lat":38.329213,"lng":140.321558,"zip":"9900000"},{"town":"大字長谷堂","koaza":"","lat":38.197865,"lng":140.262624,"zip":"9900000"},{"town":"大字八森","koaza":"","lat":38.212684,"lng":140.384187,"zip":"9900000"},{"town":"大字平清水","koaza":"","lat":38.22812,"lng":140.371488,"zip":"9900000"},{"town":"大字船町","koaza":"","lat":38.309414,"lng":140.290169,"zip":"9900000"},{"town":"大字古館","koaza":"","lat":38.263651,"lng":140.261576,"zip":"9900000"},{"town":"大字前明石","koaza":"","lat":38.2309,"lng":140.299658,"zip":"9900000"},{"town":"大字松原","koaza":"","lat":38.198056,"lng":140.295032,"zip":"9900000"},{"town":"大字見崎","koaza":"","lat":38.299854,"lng":140.320545,"zip":"9900000"},{"town":"大字南館","koaza":"","lat":38.234244,"lng":140.298705,"zip":"9900000"},{"town":"大字妙見寺","koaza":"","lat":38.23656,"lng":140.376621,"zip":"9900000"},{"town":"大字向新田","koaza":"","lat":38.313681,"lng":140.290095,"zip":"9900000"},{"town":"大字村木沢","koaza":"","lat":38.248809,"lng":140.228903,"zip":"9900000"},{"town":"大字門伝","koaza":"","lat":38.231639,"lng":140.216171,"zip":"9900000"},{"town":"大字谷柏","koaza":"","lat":38.217657,"lng":140.295434,"zip":"9900000"},{"town":"大字山寺","koaza":"","lat":38.309795,"lng":140.456248,"zip":"9900000"},{"town":"大字芳沢","koaza":"","lat":38.260373,"lng":140.226524,"zip":"9900000"},{"town":"大字吉野宿","koaza":"","lat":38.286116,"lng":140.291759,"zip":"9900000"},{"town":"大字吉原","koaza":"","lat":38.227328,"lng":140.303314,"zip":"9900000"},{"town":"大字若木","koaza":"","lat":38.26222,"lng":140.254126,"zip":"9900000"},{"town":"大手町","koaza":"","lat":38.256605,"lng":140.333623,"zip":"9900046"},{"town":"大道端","koaza":"","lat":38.242988,"lng":140.274468,"zip":"9902344"},{"town":"沖町","koaza":"","lat":38.28946,"lng":140.328563,"zip":"9900818"},{"town":"小立一丁目","koaza":"","lat":38.228608,"lng":140.339998,"zip":"9902402"},{"town":"小立二丁目","koaza":"","lat":38.229786,"lng":140.342762,"zip":"9902402"},{"town":"小立三丁目","koaza":"","lat":38.228239,"lng":140.344046,"zip":"9902402"},{"town":"小立四丁目","koaza":"","lat":38.226136,"lng":140.345912,"zip":"9902402"},{"town":"落合町","koaza":"","lat":38.282211,"lng":140.348911,"zip":"9900075"},{"town":"御手作","koaza":"","lat":38.219958,"lng":140.277188,"zip":"9902365"},{"town":"表蔵王","koaza":"","lat":38.18924,"lng":140.312742,"zip":"9902307"},{"town":"替所","koaza":"","lat":38.263563,"lng":140.26832,"zip":"9900000"},{"town":"篭田一丁目","koaza":"","lat":38.240152,"lng":140.321344,"zip":"9902484"},{"town":"篭田二丁目","koaza":"","lat":38.237471,"lng":140.320116,"zip":"9902484"},{"town":"篭田三丁目","koaza":"","lat":38.237778,"lng":140.317742,"zip":"9902484"},{"town":"霞城町","koaza":"","lat":38.255488,"lng":140.328125,"zip":"9900826"},{"town":"春日町","koaza":"","lat":38.252708,"lng":140.319179,"zip":"9900833"},{"town":"香澄町一丁目","koaza":"","lat":38.249424,"lng":140.329646,"zip":"9900039"},{"town":"香澄町二丁目","koaza":"","lat":38.24862,"lng":140.332306,"zip":"9900039"},{"town":"香澄町三丁目","koaza":"","lat":38.245563,"lng":140.330707,"zip":"9900039"},{"town":"金石田","koaza":"","lat":38.266821,"lng":140.292011,"zip":"9900856"},{"town":"上桜田一丁目","koaza":"","lat":38.22319,"lng":140.342472,"zip":"9902421"},{"town":"上桜田二丁目","koaza":"","lat":38.222785,"lng":140.34467,"zip":"9902421"},{"town":"上桜田三丁目","koaza":"","lat":38.219843,"lng":140.345736,"zip":"9902421"},{"town":"上桜田四丁目","koaza":"","lat":38.219061,"lng":140.342424,"zip":"9902421"},{"town":"上桜田五丁目","koaza":"","lat":38.219354,"lng":140.33978,"zip":"9902421"},{"town":"上柳","koaza":"","lat":38.295318,"lng":140.347092,"zip":"9902212"},{"town":"上山家町","koaza":"","lat":38.258505,"lng":140.388982,"zip":"9900004"},{"town":"北江俣","koaza":"","lat":38.283815,"lng":140.308922,"zip":"9900875"},{"town":"北志戸田","koaza":"","lat":38.283681,"lng":140.284755,"zip":"9900000"},{"town":"北田","koaza":"","lat":38.30875,"lng":140.305882,"zip":"9900896"},{"town":"北町一丁目","koaza":"","lat":38.268239,"lng":140.331471,"zip":"9900821"},{"town":"北町二丁目","koaza":"","lat":38.269411,"lng":140.329065,"zip":"9900821"},{"town":"北町三丁目","koaza":"","lat":38.272827,"lng":140.327073,"zip":"9900821"},{"town":"北町四丁目","koaza":"","lat":38.272651,"lng":140.332697,"zip":"9900821"},{"town":"北山形一丁目","koaza":"","lat":38.263301,"lng":140.330788,"zip":"9900822"},{"town":"北山形二丁目","koaza":"","lat":38.26586,"lng":140.329484,"zip":"9900822"},{"town":"木の実町","koaza":"","lat":38.252108,"lng":140.334211,"zip":"9900044"},{"town":"木ノ目田","koaza":"","lat":38.25123,"lng":140.289837,"zip":"9902475"},{"town":"行才","koaza":"","lat":38.288162,"lng":140.308184,"zip":"9900876"},{"town":"京旦","koaza":"","lat":38.228328,"lng":140.30078,"zip":"9900000"},{"town":"清住町一丁目","koaza":"","lat":38.254848,"lng":140.316938,"zip":"9900834"},{"town":"清住町二丁目","koaza":"","lat":38.256309,"lng":140.313066,"zip":"9900834"},{"town":"清住町三丁目","koaza":"","lat":38.252824,"lng":140.31389,"zip":"9900834"},{"town":"久保田一丁目","koaza":"","lat":38.2487,"lng":140.31829,"zip":"9902482"},{"town":"久保田二丁目","koaza":"","lat":38.249628,"lng":140.315387,"zip":"9902482"},{"town":"久保田三丁目","koaza":"","lat":38.24635,"lng":140.315424,"zip":"9902482"},{"town":"江南一丁目","koaza":"","lat":38.269962,"lng":140.321062,"zip":"9900863"},{"town":"江南二丁目","koaza":"","lat":38.271736,"lng":140.321403,"zip":"9900863"},{"town":"江南三丁目","koaza":"","lat":38.272484,"lng":140.316237,"zip":"9900863"},{"town":"江南四丁目","koaza":"","lat":38.273981,"lng":140.312477,"zip":"9900863"},{"town":"黄金","koaza":"","lat":38.265089,"lng":140.303517,"zip":"9900852"},{"town":"小姓町","koaza":"","lat":38.247219,"lng":140.341309,"zip":"9900032"},{"town":"小白川町","koaza":"","lat":38.249103,"lng":140.367713,"zip":"9900021"},{"town":"小白川町一丁目","koaza":"","lat":38.246206,"lng":140.350657,"zip":"9900021"},{"town":"小白川町二丁目","koaza":"","lat":38.249212,"lng":140.351846,"zip":"9900021"},{"town":"小白川町三丁目","koaza":"","lat":38.247622,"lng":140.357991,"zip":"9900021"},{"town":"小白川町四丁目","koaza":"","lat":38.245027,"lng":140.357429,"zip":"9900021"},{"town":"小白川町五丁目","koaza":"","lat":38.245088,"lng":140.36772,"zip":"9900021"},{"town":"寿町","koaza":"","lat":38.235304,"lng":140.338131,"zip":"9902414"},{"town":"小荷駄町","koaza":"","lat":38.239457,"lng":140.340888,"zip":"9900035"},{"town":"後明","koaza":"","lat":38.271398,"lng":140.256777,"zip":"9900000"},{"town":"こも石","koaza":"","lat":38.296182,"lng":140.390534,"zip":"9902234"},{"town":"才津","koaza":"","lat":38.246356,"lng":140.270125,"zip":"9900000"},{"town":"幸町","koaza":"","lat":38.245434,"lng":140.327414,"zip":"9900038"},{"town":"蔵王飯田","koaza":"","lat":38.209064,"lng":140.332877,"zip":"9902333"},{"town":"蔵王上野","koaza":"","lat":38.175729,"lng":140.330987,"zip":"9902303"},{"town":"蔵王温泉","koaza":"","lat":38.174319,"lng":140.41791,"zip":"9902301"},{"town":"蔵王成沢","koaza":"","lat":38.200878,"lng":140.328794,"zip":"9902334"},{"town":"蔵王野際","koaza":"","lat":38.198376,"lng":140.327525,"zip":"9900000"},{"town":"蔵王半郷","koaza":"","lat":38.187585,"lng":140.32526,"zip":"9902305"},{"town":"蔵王堀田","koaza":"","lat":38.172013,"lng":140.353699,"zip":"9902302"},{"town":"蔵王松ケ丘","koaza":"","lat":38.19637,"lng":140.309506,"zip":"9902338"},{"town":"蔵王松ケ丘一丁目","koaza":"","lat":38.19943,"lng":140.312665,"zip":"9902338"},{"town":"蔵王松ケ丘二丁目","koaza":"","lat":38.191095,"lng":140.3088,"zip":"9902338"},{"town":"蔵王南成沢","koaza":"","lat":38.196714,"lng":140.31593,"zip":"9902335"},{"town":"蔵王美原","koaza":"","lat":38.198763,"lng":140.310476,"zip":"9900000"},{"town":"蔵王山田","koaza":"","lat":38.191007,"lng":140.33207,"zip":"9902304"},{"town":"早乙女","koaza":"","lat":38.276835,"lng":140.362241,"zip":"9900003"},{"town":"境田町","koaza":"","lat":38.297551,"lng":140.329975,"zip":"9900819"},{"town":"栄原","koaza":"","lat":38.289743,"lng":140.345511,"zip":"9900077"},{"town":"肴町","koaza":"","lat":38.261749,"lng":140.330151,"zip":"9900824"},{"town":"桜ケ丘","koaza":"","lat":38.252559,"lng":140.263091,"zip":"9902376"},{"town":"佐倉宿","koaza":"","lat":38.23179,"lng":140.278769,"zip":"9900000"},{"town":"桜田西一丁目","koaza":"","lat":38.221296,"lng":140.317034,"zip":"9902321"},{"town":"桜田西二丁目","koaza":"","lat":38.219551,"lng":140.316966,"zip":"9902321"},{"town":"桜田西三丁目","koaza":"","lat":38.220678,"lng":140.313475,"zip":"9902321"},{"town":"桜田西四丁目","koaza":"","lat":38.218057,"lng":140.315218,"zip":"9902321"},{"town":"桜田西五丁目","koaza":"","lat":38.222102,"lng":140.309588,"zip":"9902321"},{"town":"桜田東一丁目","koaza":"","lat":38.220715,"lng":140.320781,"zip":"9902323"},{"town":"桜田東二丁目","koaza":"","lat":38.220821,"lng":140.32319,"zip":"9902323"},{"town":"桜田東三丁目","koaza":"","lat":38.217925,"lng":140.321652,"zip":"9902323"},{"town":"桜田東四丁目","koaza":"","lat":38.219046,"lng":140.325523,"zip":"9902323"},{"town":"桜田南","koaza":"","lat":38.215621,"lng":140.312947,"zip":"9902322"},{"town":"桜町","koaza":"","lat":38.252826,"lng":140.331422,"zip":"9900045"},{"town":"三社","koaza":"","lat":38.315593,"lng":140.303014,"zip":"9900898"},{"town":"島","koaza":"","lat":38.287546,"lng":140.314883,"zip":"9900870"},{"town":"嶋北一丁目","koaza":"","lat":38.286195,"lng":140.322981,"zip":"9900885"},{"town":"嶋北二丁目","koaza":"","lat":38.28655,"lng":140.319665,"zip":"9900885"},{"town":"嶋北三丁目","koaza":"","lat":38.289987,"lng":140.321881,"zip":"9900885"},{"town":"嶋北四丁目","koaza":"","lat":38.287421,"lng":140.317808,"zip":"9900885"},{"town":"嶋南一丁目","koaza":"","lat":38.280566,"lng":140.322586,"zip":"9900886"},{"town":"嶋南二丁目","koaza":"","lat":38.280663,"lng":140.319607,"zip":"9900886"},{"town":"嶋南三丁目","koaza":"","lat":38.281244,"lng":140.317083,"zip":"9900886"},{"town":"嶋南四丁目","koaza":"","lat":38.281864,"lng":140.315077,"zip":"9900886"},{"town":"下条町一丁目","koaza":"","lat":38.263117,"lng":140.326888,"zip":"9900823"},{"town":"下条町二丁目","koaza":"","lat":38.262425,"lng":140.322957,"zip":"9900823"},{"town":"下条町三丁目","koaza":"","lat":38.267021,"lng":140.32272,"zip":"9900823"},{"town":"下条町四丁目","koaza":"","lat":38.266032,"lng":140.325989,"zip":"9900823"},{"town":"下条町五丁目","koaza":"","lat":38.269912,"lng":140.325916,"zip":"9900823"},{"town":"下田","koaza":"","lat":38.324928,"lng":140.307694,"zip":"9900809"},{"town":"下柳","koaza":"","lat":38.291768,"lng":140.34957,"zip":"9902215"},{"town":"城南町一丁目","koaza":"","lat":38.250868,"lng":140.326111,"zip":"9900827"},{"town":"城南町二丁目","koaza":"","lat":38.252367,"lng":140.326661,"zip":"9900827"},{"town":"城南町三丁目","koaza":"","lat":38.251646,"lng":140.321894,"zip":"9900827"},{"town":"城北町一丁目","koaza":"","lat":38.258444,"lng":140.330236,"zip":"9900825"},{"town":"城北町二丁目","koaza":"","lat":38.259942,"lng":140.32953,"zip":"9900825"},{"town":"白川","koaza":"","lat":38.316041,"lng":140.309655,"zip":"9900807"},{"town":"城西町一丁目","koaza":"","lat":38.255978,"lng":140.324077,"zip":"9900832"},{"town":"城西町二丁目","koaza":"","lat":38.255339,"lng":140.321802,"zip":"9900832"},{"town":"城西町三丁目","koaza":"","lat":38.256958,"lng":140.31801,"zip":"9900832"},{"town":"城西町四丁目","koaza":"","lat":38.25956,"lng":140.32112,"zip":"9900832"},{"town":"城西町五丁目","koaza":"","lat":38.260599,"lng":140.314076,"zip":"9900832"},{"town":"城森","koaza":"","lat":38.241588,"lng":140.260748,"zip":"9902343"},{"town":"新開一丁目","koaza":"","lat":38.303116,"lng":140.360104,"zip":"9902164"},{"town":"新開二丁目","koaza":"","lat":38.305332,"lng":140.361643,"zip":"9902164"},{"town":"新開三丁目","koaza":"","lat":38.305766,"lng":140.358501,"zip":"9902164"},{"town":"陣場一丁目","koaza":"","lat":38.277246,"lng":140.31053,"zip":"9900864"},{"town":"陣場二丁目","koaza":"","lat":38.277256,"lng":140.305696,"zip":"9900864"},{"town":"陣場三丁目","koaza":"","lat":38.278696,"lng":140.30242,"zip":"9900864"},{"town":"陣場南","koaza":"","lat":38.275084,"lng":140.309003,"zip":"9900860"},{"town":"末広町","koaza":"","lat":38.238822,"lng":140.323821,"zip":"9902494"},{"town":"菅原","koaza":"","lat":38.271976,"lng":140.310365,"zip":"9900000"},{"town":"すげさわの丘","koaza":"","lat":38.223582,"lng":140.268615,"zip":"9902367"},{"town":"鈴川町一丁目","koaza":"","lat":38.263651,"lng":140.355497,"zip":"9900062"},{"town":"鈴川町二丁目","koaza":"","lat":38.267,"lng":140.35576,"zip":"9900062"},{"town":"鈴川町三丁目","koaza":"","lat":38.270301,"lng":140.357426,"zip":"9900062"},{"town":"鈴川町四丁目","koaza":"","lat":38.269985,"lng":140.360401,"zip":"9900062"},{"town":"砂田","koaza":"","lat":38.259733,"lng":140.291433,"zip":"9900847"},{"town":"砂塚","koaza":"","lat":38.259898,"lng":140.307581,"zip":"9900854"},{"town":"諏訪町一丁目","koaza":"","lat":38.2452,"lng":140.339655,"zip":"9900033"},{"town":"諏訪町二丁目","koaza":"","lat":38.244006,"lng":140.339344,"zip":"9900033"},{"town":"瀬波一丁目","koaza":"","lat":38.280662,"lng":140.309167,"zip":"9900881"},{"town":"瀬波二丁目","koaza":"","lat":38.279933,"lng":140.306421,"zip":"9900881"},{"town":"瀬波三丁目","koaza":"","lat":38.28344,"lng":140.307125,"zip":"9900881"},{"town":"千石","koaza":"","lat":38.293529,"lng":140.362716,"zip":"9902227"},{"town":"双月新町","koaza":"","lat":38.256309,"lng":140.362054,"zip":"9900008"},{"town":"双月町","koaza":"","lat":38.254023,"lng":140.364237,"zip":"9900065"},{"town":"双月町一丁目","koaza":"","lat":38.258885,"lng":140.35309,"zip":"9900065"},{"town":"双月町二丁目","koaza":"","lat":38.260993,"lng":140.353813,"zip":"9900065"},{"town":"双月町三丁目","koaza":"","lat":38.258162,"lng":140.356609,"zip":"9900065"},{"town":"双月町四丁目","koaza":"","lat":38.254958,"lng":140.354301,"zip":"9900065"},{"town":"反町","koaza":"","lat":38.246127,"lng":140.265796,"zip":"9902378"},{"town":"大師堂","koaza":"","lat":38.218787,"lng":140.271733,"zip":"9902364"},{"town":"大野目一丁目","koaza":"","lat":38.274898,"lng":140.35873,"zip":"9900073"},{"town":"大野目二丁目","koaza":"","lat":38.278672,"lng":140.357475,"zip":"9900073"},{"town":"大野目三丁目","koaza":"","lat":38.281709,"lng":140.35886,"zip":"9900073"},{"town":"大野目四丁目","koaza":"","lat":38.28069,"lng":140.360293,"zip":"9900073"},{"town":"大野目町","koaza":"","lat":38.286023,"lng":140.356814,"zip":"9900000"},{"town":"高木","koaza":"","lat":38.23344,"lng":140.284776,"zip":"9902346"},{"town":"高田","koaza":"","lat":38.307174,"lng":140.320447,"zip":"9900808"},{"town":"高堂","koaza":"","lat":38.240533,"lng":140.310357,"zip":"9902464"},{"town":"高堂一丁目","koaza":"","lat":38.238647,"lng":140.310713,"zip":"9902464"},{"town":"高堂二丁目","koaza":"","lat":38.239148,"lng":140.307474,"zip":"9902464"},{"town":"高原町","koaza":"","lat":38.275453,"lng":140.372357,"zip":"9900002"},{"town":"立谷川一丁目","koaza":"","lat":38.312286,"lng":140.384144,"zip":"9902251"},{"town":"立谷川二丁目","koaza":"","lat":38.31315,"lng":140.379885,"zip":"9902251"},{"town":"立谷川三丁目","koaza":"","lat":38.313088,"lng":140.373478,"zip":"9902251"},{"town":"伊達城一丁目","koaza":"","lat":38.309037,"lng":140.362094,"zip":"9902163"},{"town":"伊達城二丁目","koaza":"","lat":38.308289,"lng":140.358577,"zip":"9902163"},{"town":"伊達城三丁目","koaza":"","lat":38.310744,"lng":140.359352,"zip":"9902163"},{"town":"立道","koaza":"","lat":38.274235,"lng":140.304233,"zip":"9900000"},{"town":"田吹","koaza":"","lat":38.235034,"lng":140.277319,"zip":"9900000"},{"town":"檀野前","koaza":"","lat":38.296439,"lng":140.32196,"zip":"9900805"},{"town":"近田","koaza":"","lat":38.289227,"lng":140.36585,"zip":"9902224"},{"town":"千歳一丁目","koaza":"","lat":38.279793,"lng":140.338724,"zip":"9900812"},{"town":"千歳二丁目","koaza":"","lat":38.281198,"lng":140.341958,"zip":"9900812"},{"town":"千代田","koaza":"","lat":38.26216,"lng":140.300622,"zip":"9900855"},{"town":"塚野目","koaza":"","lat":38.312481,"lng":140.3076,"zip":"9900000"},{"town":"辻","koaza":"","lat":38.255765,"lng":140.270685,"zip":"9900000"},{"town":"土屋倉","koaza":"","lat":38.267735,"lng":140.262429,"zip":"9900000"},{"town":"鉄砲町一丁目","koaza":"","lat":38.238667,"lng":140.329544,"zip":"9902492"},{"town":"鉄砲町二丁目","koaza":"","lat":38.237824,"lng":140.333554,"zip":"9902492"},{"town":"鉄砲町三丁目","koaza":"","lat":38.2352,"lng":140.32909,"zip":"9902492"},{"town":"寺西","koaza":"","lat":38.296654,"lng":140.363929,"zip":"9902213"},{"town":"天神台","koaza":"","lat":38.269348,"lng":140.290654,"zip":"9900867"},{"town":"天神町","koaza":"","lat":38.307593,"lng":140.326033,"zip":"9900801"},{"town":"十日町一丁目","koaza":"","lat":38.247795,"lng":140.334797,"zip":"9900031"},{"town":"十日町二丁目","koaza":"","lat":38.247022,"lng":140.337241,"zip":"9900031"},{"town":"十日町三丁目","koaza":"","lat":38.243905,"lng":140.335497,"zip":"9900031"},{"town":"十日町四丁目","koaza":"","lat":38.244364,"lng":140.333028,"zip":"9900031"},{"town":"藤治屋敷","koaza":"","lat":38.306198,"lng":140.314314,"zip":"9900806"},{"town":"塔の前","koaza":"","lat":38.284139,"lng":140.367794,"zip":"9902223"},{"town":"銅町一丁目","koaza":"","lat":38.273645,"lng":140.338238,"zip":"9900051"},{"town":"銅町二丁目","koaza":"","lat":38.272225,"lng":140.341686,"zip":"9900051"},{"town":"銅谷口","koaza":"","lat":38.295643,"lng":140.309365,"zip":"9900871"},{"town":"富神台","koaza":"","lat":38.239068,"lng":140.281054,"zip":"9902345"},{"town":"富神前","koaza":"","lat":38.236155,"lng":140.26229,"zip":"9902342"},{"town":"富の中一丁目","koaza":"","lat":38.236896,"lng":140.303943,"zip":"9902463"},{"town":"富の中二丁目","koaza":"","lat":38.234193,"lng":140.303896,"zip":"9902463"},{"town":"富の中三丁目","koaza":"","lat":38.23395,"lng":140.307547,"zip":"9902463"},{"town":"富の中四丁目","koaza":"","lat":38.23173,"lng":140.307093,"zip":"9902463"},{"town":"百目鬼","koaza":"","lat":38.225247,"lng":140.277876,"zip":"9902361"},{"town":"豊風","koaza":"","lat":38.2971,"lng":140.373335,"zip":"9900000"},{"town":"樋越","koaza":"","lat":38.287037,"lng":140.326371,"zip":"9900815"},{"town":"豊原","koaza":"","lat":38.267788,"lng":140.308881,"zip":"9900000"},{"town":"鳥居ケ丘","koaza":"","lat":38.229342,"lng":140.333037,"zip":"9902433"},{"town":"中江","koaza":"","lat":38.27728,"lng":140.287326,"zip":"9900000"},{"town":"長表","koaza":"","lat":38.294931,"lng":140.319843,"zip":"9900000"},{"town":"中桜田一丁目","koaza":"","lat":38.218685,"lng":140.33091,"zip":"9902422"},{"town":"中桜田二丁目","koaza":"","lat":38.217816,"lng":140.3352,"zip":"9902422"},{"town":"中桜田三丁目","koaza":"","lat":38.215095,"lng":140.334403,"zip":"9902422"},{"town":"中田","koaza":"","lat":38.319983,"lng":140.311358,"zip":"9900000"},{"town":"長苗代","koaza":"","lat":38.245608,"lng":140.303507,"zip":"9902477"},{"town":"中沼","koaza":"","lat":38.250723,"lng":140.296587,"zip":"9900849"},{"town":"長町","koaza":"","lat":38.29233,"lng":140.332826,"zip":"9900811"},{"town":"長町一丁目","koaza":"","lat":38.286857,"lng":140.338407,"zip":"9900811"},{"town":"長町二丁目","koaza":"","lat":38.287869,"lng":140.340866,"zip":"9900811"},{"town":"長町三丁目","koaza":"","lat":38.293016,"lng":140.340001,"zip":"9900811"},{"town":"長町四丁目","koaza":"","lat":38.294079,"lng":140.337026,"zip":"9900811"},{"town":"中道","koaza":"","lat":38.300622,"lng":140.323142,"zip":"9900000"},{"town":"中屋敷","koaza":"","lat":38.238323,"lng":140.275768,"zip":"9900000"},{"town":"七十刈","koaza":"","lat":38.298104,"lng":140.321145,"zip":"9900804"},{"town":"七日町一丁目","koaza":"","lat":38.25309,"lng":140.337767,"zip":"9900042"},{"town":"七日町二丁目","koaza":"","lat":38.252397,"lng":140.340123,"zip":"9900042"},{"town":"七日町三丁目","koaza":"","lat":38.254591,"lng":140.341333,"zip":"9900042"},{"town":"七日町四丁目","koaza":"","lat":38.253138,"lng":140.344142,"zip":"9900042"},{"town":"七日町五丁目","koaza":"","lat":38.249966,"lng":140.342866,"zip":"9900042"},{"town":"並柳","koaza":"","lat":38.263395,"lng":140.257153,"zip":"9902386"},{"town":"成沢西一丁目","koaza":"","lat":38.211176,"lng":140.316023,"zip":"9902339"},{"town":"成沢西二丁目","koaza":"","lat":38.210668,"lng":140.312784,"zip":"9902339"},{"town":"成沢西三丁目","koaza":"","lat":38.207707,"lng":140.313623,"zip":"9902339"},{"town":"成沢西四丁目","koaza":"","lat":38.206465,"lng":140.317568,"zip":"9902339"},{"town":"成沢西五丁目","koaza":"","lat":38.208467,"lng":140.319462,"zip":"9902339"},{"town":"南栄町一丁目","koaza":"","lat":38.234411,"lng":140.321539,"zip":"9902445"},{"town":"南栄町二丁目","koaza":"","lat":38.231864,"lng":140.320662,"zip":"9902445"},{"town":"南栄町三丁目","koaza":"","lat":38.229378,"lng":140.320889,"zip":"9902445"},{"town":"西江俣","koaza":"","lat":38.276603,"lng":140.313216,"zip":"9900862"},{"town":"錦町","koaza":"","lat":38.260132,"lng":140.334671,"zip":"9900056"},{"town":"西越","koaza":"","lat":38.289771,"lng":140.362428,"zip":"9902226"},{"town":"西崎","koaza":"","lat":38.262542,"lng":140.306992,"zip":"9900853"},{"town":"西田一丁目","koaza":"","lat":38.263144,"lng":140.318889,"zip":"9900831"},{"town":"西田二丁目","koaza":"","lat":38.264283,"lng":140.314331,"zip":"9900831"},{"town":"西田三丁目","koaza":"","lat":38.266691,"lng":140.314828,"zip":"9900831"},{"town":"西田四丁目","koaza":"","lat":38.267295,"lng":140.319185,"zip":"9900831"},{"town":"西田五丁目","koaza":"","lat":38.269757,"lng":140.315423,"zip":"9900831"},{"town":"西二位田","koaza":"","lat":38.223165,"lng":140.282901,"zip":"9900000"},{"town":"西前明石","koaza":"","lat":38.225005,"lng":140.296761,"zip":"9900000"},{"town":"西見田","koaza":"","lat":38.255298,"lng":140.28888,"zip":"9900844"},{"town":"沼の辺町","koaza":"","lat":38.263763,"lng":140.363817,"zip":"9900007"},{"town":"馬合","koaza":"","lat":38.309661,"lng":140.316803,"zip":"9900000"},{"town":"白山一丁目","koaza":"","lat":38.227774,"lng":140.31824,"zip":"9902446"},{"town":"白山二丁目","koaza":"","lat":38.224708,"lng":140.316864,"zip":"9902446"},{"town":"白山三丁目","koaza":"","lat":38.226683,"lng":140.322056,"zip":"9902446"},{"town":"羽黒堂","koaza":"","lat":38.245908,"lng":140.297014,"zip":"9902471"},{"town":"旅篭町一丁目","koaza":"","lat":38.255632,"lng":140.336241,"zip":"9900047"},{"town":"旅篭町二丁目","koaza":"","lat":38.255437,"lng":140.339126,"zip":"9900047"},{"town":"旅篭町三丁目","koaza":"","lat":38.257205,"lng":140.340605,"zip":"9900047"},{"town":"八幡前","koaza":"","lat":38.300659,"lng":140.312439,"zip":"9900872"},{"town":"服部","koaza":"","lat":38.301347,"lng":140.316335,"zip":"9900000"},{"town":"花岡","koaza":"","lat":38.293301,"lng":140.369463,"zip":"9902225"},{"town":"花楯一丁目","koaza":"","lat":38.270268,"lng":140.350918,"zip":"9900067"},{"town":"花楯二丁目","koaza":"","lat":38.274535,"lng":140.350716,"zip":"9900067"},{"town":"浜崎","koaza":"","lat":38.284782,"lng":140.358936,"zip":"9900072"},{"town":"東青田一丁目","koaza":"","lat":38.225489,"lng":140.337489,"zip":"9902423"},{"town":"東青田二丁目","koaza":"","lat":38.224441,"lng":140.34039,"zip":"9902423"},{"town":"東青田三丁目","koaza":"","lat":38.221393,"lng":140.338458,"zip":"9902423"},{"town":"東青田四丁目","koaza":"","lat":38.222787,"lng":140.335307,"zip":"9902423"},{"town":"東青田五丁目","koaza":"","lat":38.220511,"lng":140.333991,"zip":"9902423"},{"town":"東篭野町","koaza":"","lat":38.298975,"lng":140.304798,"zip":"9900899"},{"town":"東黒沢","koaza":"","lat":38.19141,"lng":140.305351,"zip":"9900000"},{"town":"東志戸田","koaza":"","lat":38.278483,"lng":140.293826,"zip":"9900869"},{"town":"東二位田","koaza":"","lat":38.220522,"lng":140.292067,"zip":"9902354"},{"town":"東原町一丁目","koaza":"","lat":38.248122,"lng":140.346242,"zip":"9900034"},{"town":"東原町二丁目","koaza":"","lat":38.245016,"lng":140.344632,"zip":"9900034"},{"town":"東原町三丁目","koaza":"","lat":38.242196,"lng":140.342836,"zip":"9900034"},{"town":"東原町四丁目","koaza":"","lat":38.242059,"lng":140.347059,"zip":"9900034"},{"town":"東半郷","koaza":"","lat":38.188761,"lng":140.322399,"zip":"9902308"},{"town":"東古館","koaza":"","lat":38.265007,"lng":140.274993,"zip":"9902375"},{"town":"東山形一丁目","koaza":"","lat":38.24204,"lng":140.372477,"zip":"9900022"},{"town":"東山形二丁目","koaza":"","lat":38.240606,"lng":140.374206,"zip":"9900022"},{"town":"桧町一丁目","koaza":"","lat":38.276341,"lng":140.336827,"zip":"9900813"},{"town":"桧町二丁目","koaza":"","lat":38.276459,"lng":140.332768,"zip":"9900813"},{"town":"桧町三丁目","koaza":"","lat":38.276566,"lng":140.329689,"zip":"9900813"},{"town":"桧町四丁目","koaza":"","lat":38.276568,"lng":140.32613,"zip":"9900813"},{"town":"平久保","koaza":"","lat":38.286624,"lng":140.353463,"zip":"9900076"},{"town":"平清水一丁目","koaza":"","lat":38.230946,"lng":140.346241,"zip":"9902401"},{"town":"平清水二丁目","koaza":"","lat":38.228726,"lng":140.348718,"zip":"9902401"},{"town":"深町一丁目","koaza":"","lat":38.23516,"lng":140.317202,"zip":"9902462"},{"town":"深町二丁目","koaza":"","lat":38.233721,"lng":140.316876,"zip":"9902462"},{"town":"深町三丁目","koaza":"","lat":38.231449,"lng":140.316072,"zip":"9902462"},{"town":"藤沢川","koaza":"","lat":38.26125,"lng":140.271044,"zip":"9902377"},{"town":"舞台","koaza":"","lat":38.256647,"lng":140.260985,"zip":"9900000"},{"town":"双葉町一丁目","koaza":"","lat":38.24822,"lng":140.325078,"zip":"9900828"},{"town":"双葉町二丁目","koaza":"","lat":38.248655,"lng":140.32091,"zip":"9900828"},{"town":"平田","koaza":"","lat":38.270977,"lng":140.286145,"zip":"9900857"},{"town":"防原町","koaza":"","lat":38.23882,"lng":140.392181,"zip":"9900013"},{"town":"穂積","koaza":"","lat":38.283533,"lng":140.364298,"zip":"9900001"},{"town":"本町一丁目","koaza":"","lat":38.250543,"lng":140.336267,"zip":"9900043"},{"town":"本町二丁目","koaza":"","lat":38.250209,"lng":140.339054,"zip":"9900043"},{"town":"前田町","koaza":"","lat":38.237109,"lng":140.349709,"zip":"9902411"},{"town":"松栄","koaza":"","lat":38.240462,"lng":140.296239,"zip":"9902473"},{"town":"松栄一丁目","koaza":"","lat":38.237688,"lng":140.295268,"zip":"9902473"},{"town":"松栄二丁目","koaza":"","lat":38.238745,"lng":140.290209,"zip":"9902473"},{"town":"松波一丁目","koaza":"","lat":38.238436,"lng":140.358597,"zip":"9900023"},{"town":"松波二丁目","koaza":"","lat":38.240797,"lng":140.36111,"zip":"9900023"},{"town":"松波三丁目","koaza":"","lat":38.241805,"lng":140.36782,"zip":"9900023"},{"town":"松波四丁目","koaza":"","lat":38.238877,"lng":140.366789,"zip":"9900023"},{"town":"松波五丁目","koaza":"","lat":38.237434,"lng":140.369933,"zip":"9900023"},{"town":"松見町","koaza":"","lat":38.230653,"lng":140.339161,"zip":"9902431"},{"town":"松山一丁目","koaza":"","lat":38.23411,"lng":140.346672,"zip":"9902412"},{"town":"松山二丁目","koaza":"","lat":38.233467,"lng":140.350422,"zip":"9902412"},{"town":"松山三丁目","koaza":"","lat":38.236728,"lng":140.353763,"zip":"9902412"},{"town":"馬見ケ崎一丁目","koaza":"","lat":38.281124,"lng":140.333973,"zip":"9900810"},{"town":"馬見ケ崎二丁目","koaza":"","lat":38.281238,"lng":140.329797,"zip":"9900810"},{"town":"馬見ケ崎三丁目","koaza":"","lat":38.281292,"lng":140.326218,"zip":"9900810"},{"town":"馬見ケ崎四丁目","koaza":"","lat":38.284555,"lng":140.327915,"zip":"9900810"},{"town":"見崎川原","koaza":"","lat":38.30144,"lng":140.331541,"zip":"9900802"},{"town":"三日町一丁目","koaza":"","lat":38.24128,"lng":140.3362,"zip":"9900036"},{"town":"三日町二丁目","koaza":"","lat":38.242841,"lng":140.338597,"zip":"9900036"},{"town":"緑町一丁目","koaza":"","lat":38.257173,"lng":140.345599,"zip":"9900041"},{"town":"緑町二丁目","koaza":"","lat":38.256565,"lng":140.34994,"zip":"9900041"},{"town":"緑町三丁目","koaza":"","lat":38.251525,"lng":140.347481,"zip":"9900041"},{"town":"緑町四丁目","koaza":"","lat":38.253041,"lng":140.351693,"zip":"9900041"},{"town":"南一番町","koaza":"","lat":38.23301,"lng":140.327798,"zip":"9902441"},{"town":"南二番町","koaza":"","lat":38.229554,"lng":140.326186,"zip":"9902442"},{"town":"南三番町","koaza":"","lat":38.231505,"lng":140.324281,"zip":"9902443"},{"town":"南四番町","koaza":"","lat":38.234016,"lng":140.324737,"zip":"9902444"},{"town":"南石関","koaza":"","lat":38.249911,"lng":140.304417,"zip":"9900836"},{"town":"南志戸田","koaza":"","lat":38.272257,"lng":140.29344,"zip":"9900879"},{"town":"南反田","koaza":"","lat":38.269091,"lng":140.274369,"zip":"9900000"},{"town":"南館一丁目","koaza":"","lat":38.238184,"lng":140.315751,"zip":"9902461"},{"town":"南館二丁目","koaza":"","lat":38.238356,"lng":140.313671,"zip":"9902461"},{"town":"南館三丁目","koaza":"","lat":38.234041,"lng":140.312963,"zip":"9902461"},{"town":"南館四丁目","koaza":"","lat":38.234821,"lng":140.310774,"zip":"9902461"},{"town":"南館五丁目","koaza":"","lat":38.236523,"lng":140.307968,"zip":"9902461"},{"town":"南館西","koaza":"","lat":38.237416,"lng":140.299291,"zip":"9902465"},{"town":"南原町一丁目","koaza":"","lat":38.238075,"lng":140.345611,"zip":"9902413"},{"town":"南原町二丁目","koaza":"","lat":38.235827,"lng":140.341694,"zip":"9902413"},{"town":"南原町三丁目","koaza":"","lat":38.232466,"lng":140.343099,"zip":"9902413"},{"town":"南半郷","koaza":"","lat":38.184794,"lng":140.31713,"zip":"9902306"},{"town":"南松原一丁目","koaza":"","lat":38.200128,"lng":140.308789,"zip":"9902312"},{"town":"南松原二丁目","koaza":"","lat":38.197651,"lng":140.307532,"zip":"9902312"},{"town":"みのりが丘","koaza":"","lat":38.248871,"lng":140.245471,"zip":"9902372"},{"town":"美畑町","koaza":"","lat":38.23654,"lng":140.323978,"zip":"9902493"},{"town":"みはらしの丘一丁目","koaza":"","lat":38.193731,"lng":140.29258,"zip":"9902317"},{"town":"みはらしの丘二丁目","koaza":"","lat":38.188963,"lng":140.293221,"zip":"9902317"},{"town":"みはらしの丘三丁目","koaza":"","lat":38.18787,"lng":140.286977,"zip":"9902317"},{"town":"みはらしの丘四丁目","koaza":"","lat":38.183262,"lng":140.289204,"zip":"9902317"},{"town":"みはらしの丘五丁目","koaza":"","lat":38.183928,"lng":140.292107,"zip":"9902317"},{"town":"宮浦","koaza":"","lat":38.258097,"lng":140.300481,"zip":"9900848"},{"town":"宮町一丁目","koaza":"","lat":38.264011,"lng":140.334833,"zip":"9900057"},{"town":"宮町二丁目","koaza":"","lat":38.267153,"lng":140.335164,"zip":"9900057"},{"town":"宮町三丁目","koaza":"","lat":38.270277,"lng":140.335966,"zip":"9900057"},{"town":"宮町四丁目","koaza":"","lat":38.267185,"lng":140.339854,"zip":"9900057"},{"town":"宮町五丁目","koaza":"","lat":38.262847,"lng":140.338703,"zip":"9900057"},{"town":"明神前","koaza":"","lat":38.243705,"lng":140.291092,"zip":"9902472"},{"town":"六日町","koaza":"","lat":38.258602,"lng":140.342109,"zip":"9900054"},{"town":"元木一丁目","koaza":"","lat":38.226071,"lng":140.325352,"zip":"9902447"},{"town":"元木二丁目","koaza":"","lat":38.223969,"lng":140.322905,"zip":"9902447"},{"town":"元木三丁目","koaza":"","lat":38.223505,"lng":140.317166,"zip":"9902447"},{"town":"本屋敷","koaza":"","lat":38.291736,"lng":140.318233,"zip":"9900000"},{"town":"門前","koaza":"","lat":38.215659,"lng":140.269125,"zip":"9900000"},{"town":"薬師町一丁目","koaza":"","lat":38.262376,"lng":140.342347,"zip":"9900053"},{"town":"薬師町二丁目","koaza":"","lat":38.262702,"lng":140.346351,"zip":"9900053"},{"town":"谷地前","koaza":"","lat":38.211689,"lng":140.268188,"zip":"9902366"},{"town":"八ツ口","koaza":"","lat":38.294339,"lng":140.315315,"zip":"9900000"},{"town":"柳田","koaza":"","lat":38.262619,"lng":140.284073,"zip":"9900000"},{"town":"やよい一丁目","koaza":"","lat":38.253498,"lng":140.30816,"zip":"9900835"},{"town":"やよい二丁目","koaza":"","lat":38.256167,"lng":140.309023,"zip":"9900835"},{"town":"山家本町一丁目","koaza":"","lat":38.264065,"lng":140.366165,"zip":"9900006"},{"town":"山家本町二丁目","koaza":"","lat":38.26554,"lng":140.365864,"zip":"9900006"},{"town":"山家町一丁目","koaza":"","lat":38.265055,"lng":140.358647,"zip":"9900063"},{"town":"山家町二丁目","koaza":"","lat":38.264442,"lng":140.360621,"zip":"9900063"},{"town":"八日町一丁目","koaza":"","lat":38.243466,"lng":140.329711,"zip":"9900037"},{"town":"八日町二丁目","koaza":"","lat":38.241588,"lng":140.329995,"zip":"9900037"},{"town":"横井","koaza":"","lat":38.28219,"lng":140.290232,"zip":"9900866"},{"town":"横道","koaza":"","lat":38.254512,"lng":140.296202,"zip":"9900843"},{"town":"芳野","koaza":"","lat":38.280209,"lng":140.355381,"zip":"9900074"},{"town":"吉原一丁目","koaza":"","lat":38.229395,"lng":140.315313,"zip":"9902451"},{"town":"吉原二丁目","koaza":"","lat":38.229754,"lng":140.311213,"zip":"9902451"},{"town":"吉原三丁目","koaza":"","lat":38.230074,"lng":140.306605,"zip":"9902451"},{"town":"吉原南","koaza":"","lat":38.222699,"lng":140.311374,"zip":"9902455"},{"town":"流通センター一丁目","koaza":"","lat":38.291565,"lng":140.352249,"zip":"9900071"},{"town":"流通センター二丁目","koaza":"","lat":38.290939,"lng":140.355413,"zip":"9900071"},{"town":"流通センター三丁目","koaza":"","lat":38.289392,"lng":140.3587,"zip":"9900071"},{"town":"流通センター四丁目","koaza":"","lat":38.294472,"lng":140.359253,"zip":"9900071"},{"town":"若葉町","koaza":"","lat":38.240817,"lng":140.325261,"zip":"9902495"},{"town":"若宮","koaza":"","lat":38.229214,"lng":140.303711,"zip":"9902453"},{"town":"若宮一丁目","koaza":"","lat":38.227283,"lng":140.312212,"zip":"9902453"},{"town":"若宮二丁目","koaza":"","lat":38.225288,"lng":140.311582,"zip":"9902453"},{"town":"若宮三丁目","koaza":"","lat":38.226078,"lng":140.306365,"zip":"9902453"},{"town":"若宮四丁目","koaza":"","lat":38.227947,"lng":140.306691,"zip":"9902453"},{"town":"和合町一丁目","koaza":"","lat":38.261787,"lng":140.358876,"zip":"9900064"},{"town":"和合町二丁目","koaza":"","lat":38.259704,"lng":140.357956,"zip":"9900064"},{"town":"和合町三丁目","koaza":"","lat":38.260146,"lng":140.361584,"zip":"9900064"},{"town":"割田","koaza":"","lat":38.303767,"lng":140.323322,"zip":"9900000"},{"town":"大字下反田","koaza":"","lat":38.273146,"lng":140.267424,"zip":"9900000"},{"town":"くぬぎざわ西","koaza":"","lat":38.270523,"lng":140.278733,"zip":"9900850"},{"town":"大字志戸田","koaza":"","lat":38.279319,"lng":140.280287,"zip":"9900000"},{"town":"西原二丁目","koaza":"","lat":38.266342,"lng":140.280834,"zip":"9900859"},{"town":"西原一丁目","koaza":"","lat":38.264487,"lng":140.281117,"zip":"9900859"},{"town":"大字下椹沢","koaza":"","lat":38.267488,"lng":140.285208,"zip":"9900000"},{"town":"飯塚町","koaza":"","lat":38.258058,"lng":140.281706,"zip":"9900845"},{"town":"大字渋江","koaza":"","lat":38.319425,"lng":140.327704,"zip":"9900000"},{"town":"大字漆山","koaza":"","lat":38.314587,"lng":140.343542,"zip":"9900000"},{"town":"大字千手堂","koaza":"","lat":38.312016,"lng":140.3352,"zip":"9900000"},{"town":"大字村木沢","koaza":"河原田","lat":38.249953,"lng":140.269507,"zip":"9900000"},{"town":"蔵王上野","koaza":"南坂","lat":38.177697,"lng":140.317991,"zip":"9902303"},{"town":"蔵王温泉","koaza":"丈二田","lat":38.16987,"lng":140.393202,"zip":"9902301"},{"town":"大字松原","koaza":"東河原","lat":38.200936,"lng":140.307313,"zip":"9900000"},{"town":"上山家町","koaza":"下宿","lat":38.269276,"lng":140.361635,"zip":"9900004"}]