[{"town":"新町","koaza":"","lat":38.760851,"lng":140.290347,"zip":"9960078"},{"town":"石川町","koaza":"","lat":38.770697,"lng":140.296691,"zip":"9960086"},{"town":"五日町","koaza":"","lat":38.782872,"lng":140.329371,"zip":"9960001"},{"town":"大字泉田","koaza":"","lat":38.807488,"lng":140.322939,"zip":"9960000"},{"town":"大字昭和","koaza":"","lat":38.83527,"lng":140.315696,"zip":"9960000"},{"town":"大字角沢","koaza":"","lat":38.72848,"lng":140.285811,"zip":"9960000"},{"town":"大字飛田","koaza":"","lat":38.760626,"lng":140.261687,"zip":"9960000"},{"town":"大字鳥越","koaza":"","lat":38.799548,"lng":140.398605,"zip":"9960000"},{"town":"大字仁間","koaza":"","lat":38.745821,"lng":140.292125,"zip":"9960000"},{"town":"大字萩野","koaza":"","lat":38.825896,"lng":140.355716,"zip":"9960000"},{"town":"大字福田","koaza":"","lat":38.739939,"lng":140.277039,"zip":"9960000"},{"town":"大字升形","koaza":"","lat":38.749098,"lng":140.234546,"zip":"9960000"},{"town":"大字松本","koaza":"","lat":38.748232,"lng":140.296149,"zip":"9960000"},{"town":"大字本合海","koaza":"","lat":38.729593,"lng":140.24016,"zip":"9960000"},{"town":"大手町","koaza":"","lat":38.76733,"lng":140.298865,"zip":"9960084"},{"town":"大町","koaza":"","lat":38.761702,"lng":140.298461,"zip":"9960026"},{"town":"沖の町","koaza":"","lat":38.763567,"lng":140.302493,"zip":"9960023"},{"town":"小田島","koaza":"","lat":38.766338,"lng":140.285435,"zip":"9960074"},{"town":"小田島町","koaza":"","lat":38.764199,"lng":140.297004,"zip":"9960071"},{"town":"金沢","koaza":"","lat":38.764323,"lng":140.342948,"zip":"9960002"},{"town":"上金沢町","koaza":"","lat":38.752247,"lng":140.305453,"zip":"9960032"},{"town":"北町","koaza":"","lat":38.773835,"lng":140.300111,"zip":"9960082"},{"town":"栄町","koaza":"","lat":38.758896,"lng":140.296361,"zip":"9960073"},{"town":"下金沢町","koaza":"","lat":38.754675,"lng":140.301578,"zip":"9960033"},{"town":"下田町","koaza":"","lat":38.757463,"lng":140.297877,"zip":"9960034"},{"town":"城南町","koaza":"","lat":38.763336,"lng":140.29231,"zip":"9960077"},{"town":"城西町","koaza":"","lat":38.764833,"lng":140.289441,"zip":"9960076"},{"town":"末広町","koaza":"","lat":38.756301,"lng":140.304974,"zip":"9960031"},{"town":"住吉町","koaza":"","lat":38.766381,"lng":140.303848,"zip":"9960022"},{"town":"多門町","koaza":"","lat":38.76266,"lng":140.305789,"zip":"9960024"},{"town":"鉄砲町","koaza":"","lat":38.7585,"lng":140.30012,"zip":"9960035"},{"town":"十日町","koaza":"","lat":38.79045,"lng":140.290287,"zip":"9995191"},{"town":"常葉町","koaza":"","lat":38.769881,"lng":140.303499,"zip":"9960021"},{"town":"中道町","koaza":"","lat":38.777099,"lng":140.303037,"zip":"9960081"},{"town":"沼田","koaza":"","lat":38.773042,"lng":140.297748,"zip":"9960087"},{"town":"沼田町","koaza":"","lat":38.770449,"lng":140.299126,"zip":"9960083"},{"town":"万場町","koaza":"","lat":38.771032,"lng":140.301851,"zip":"9960028"},{"town":"東谷地田町","koaza":"","lat":38.75839,"lng":140.313606,"zip":"9960011"},{"town":"桧町","koaza":"","lat":38.772547,"lng":140.294237,"zip":"9960088"},{"town":"堀端町","koaza":"","lat":38.766981,"lng":140.293223,"zip":"9960085"},{"town":"本町","koaza":"","lat":38.766083,"lng":140.301023,"zip":"9960027"},{"town":"宮内町","koaza":"","lat":38.761472,"lng":140.295131,"zip":"9960072"},{"town":"若葉町","koaza":"","lat":38.759884,"lng":140.302982,"zip":"9960025"},{"town":"千門町","koaza":"","lat":38.761663,"lng":140.287406,"zip":"9960079"},{"town":"大字福田","koaza":"福田山","lat":38.737675,"lng":140.272008,"zip":"9960000"},{"town":"大字飛田","koaza":"備前川","lat":38.763737,"lng":140.284329,"zip":"9960000"},{"town":"五日町","koaza":"宮内","lat":38.759085,"lng":140.292444,"zip":"9960001"},{"town":"金沢","koaza":"大道上","lat":38.751708,"lng":140.308576,"zip":"9960002"},{"town":"五日町","koaza":"清水川","lat":38.772856,"lng":140.309209,"zip":"9960001"},{"town":"大字鳥越","koaza":"栗田","lat":38.742881,"lng":140.310565,"zip":"9960000"},{"town":"大字鳥越","koaza":"玉ノ木","lat":38.745151,"lng":140.308831,"zip":"9960000"},{"town":"金沢","koaza":"南沢","lat":38.755289,"lng":140.31156,"zip":"9960002"},{"town":"金沢","koaza":"前野","lat":38.751782,"lng":140.312885,"zip":"9960002"},{"town":"五日町","koaza":"上小月野","lat":38.775594,"lng":140.310183,"zip":"9960001"},{"town":"金沢","koaza":"中村","lat":38.76088,"lng":140.310459,"zip":"9960002"},{"town":"大字鳥越","koaza":"熊ノ沢","lat":38.732113,"lng":140.311573,"zip":"9960000"},{"town":"大字鳥越","koaza":"駒場","lat":38.740612,"lng":140.313191,"zip":"9960000"},{"town":"十日町","koaza":"柳原","lat":38.795164,"lng":140.317541,"zip":"9995191"},{"town":"大字泉田","koaza":"泉田","lat":38.810191,"lng":140.322139,"zip":"9960000"},{"town":"大字泉田","koaza":"村東","lat":38.810338,"lng":140.325569,"zip":"9960000"},{"town":"大字泉田","koaza":"往還東","lat":38.812248,"lng":140.328699,"zip":"9960000"},{"town":"金沢","koaza":"中関屋","lat":38.765562,"lng":140.309853,"zip":"9960002"}]