[{"town":"近江","koaza":"","lat":38.280535,"lng":140.270985,"zip":"9900311"},{"town":"大字大塚","koaza":"","lat":38.279346,"lng":140.264099,"zip":"9900300"},{"town":"大字大寺","koaza":"","lat":38.306094,"lng":140.265284,"zip":"9900300"},{"town":"大字大蕨","koaza":"","lat":38.289836,"lng":140.208286,"zip":"9900300"},{"town":"大字北垣","koaza":"","lat":38.307526,"lng":140.258174,"zip":"9900300"},{"town":"大字北作","koaza":"","lat":38.273715,"lng":140.177603,"zip":"9900300"},{"town":"大字北山","koaza":"","lat":38.311043,"lng":140.206358,"zip":"9900300"},{"town":"大字杉下","koaza":"","lat":38.302779,"lng":140.24313,"zip":"9900300"},{"town":"大字畑谷","koaza":"","lat":38.243469,"lng":140.186307,"zip":"9900300"},{"town":"大字三河尻","koaza":"","lat":38.28488,"lng":140.27684,"zip":"9900300"},{"town":"大字簗沢","koaza":"","lat":38.260928,"lng":140.20016,"zip":"9900300"},{"town":"大字要害","koaza":"","lat":38.274328,"lng":140.241082,"zip":"9900300"},{"town":"緑ケ丘","koaza":"","lat":38.286846,"lng":140.260684,"zip":"9900302"},{"town":"宮の前","koaza":"","lat":38.283102,"lng":140.251572,"zip":"9900300"},{"town":"大字山辺","koaza":"","lat":38.302012,"lng":140.275744,"zip":"9900300"},{"town":"元宮","koaza":"","lat":38.28397,"lng":140.258195,"zip":"9900300"},{"town":"緑ケ丘四丁目","koaza":"","lat":38.292059,"lng":140.259805,"zip":"9900302"},{"town":"緑ケ丘一丁目","koaza":"","lat":38.290821,"lng":140.258737,"zip":"9900302"},{"town":"緑ケ丘六丁目","koaza":"","lat":38.287528,"lng":140.258164,"zip":"9900302"},{"town":"大字根際","koaza":"","lat":38.284006,"lng":140.235967,"zip":"9900300"},{"town":"緑ケ丘三丁目","koaza":"","lat":38.291533,"lng":140.25723,"zip":"9900302"},{"town":"緑ケ丘二丁目","koaza":"","lat":38.289803,"lng":140.256876,"zip":"9900302"},{"town":"緑ケ丘五丁目","koaza":"","lat":38.289834,"lng":140.259504,"zip":"9900302"},{"town":"向ケ丘","koaza":"","lat":38.273534,"lng":140.24593,"zip":"9900300"},{"town":"大字上沢","koaza":"","lat":38.274309,"lng":140.255982,"zip":"9900300"},{"town":"大字三河","koaza":"","lat":38.284714,"lng":140.273353,"zip":"9900300"},{"town":"近江","koaza":"七丁目","lat":38.280133,"lng":140.268683,"zip":"9900311"},{"town":"近江","koaza":"二丁目","lat":38.281796,"lng":140.269642,"zip":"9900311"},{"town":"近江","koaza":"六丁目","lat":38.280104,"lng":140.270926,"zip":"9900311"},{"town":"近江","koaza":"三丁目","lat":38.282232,"lng":140.271136,"zip":"9900311"},{"town":"近江","koaza":"一丁目","lat":38.282824,"lng":140.270521,"zip":"9900311"},{"town":"近江","koaza":"五丁目","lat":38.279865,"lng":140.272982,"zip":"9900311"},{"town":"近江","koaza":"四丁目","lat":38.281818,"lng":140.273032,"zip":"9900311"},{"town":"大字元木","koaza":"","lat":38.280151,"lng":140.257085,"zip":"9900300"}]