[{"town":"板垣大通り","koaza":"","lat":38.408802,"lng":140.393775,"zip":"9993747"},{"town":"板垣北小路","koaza":"","lat":38.411571,"lng":140.389107,"zip":"9993749"},{"town":"板垣北通り","koaza":"","lat":38.413048,"lng":140.392721,"zip":"9993744"},{"town":"板垣中通り","koaza":"","lat":38.411845,"lng":140.399244,"zip":"9993745"},{"town":"板垣西小路","koaza":"","lat":38.411467,"lng":140.390803,"zip":"9993748"},{"town":"一本木一丁目","koaza":"","lat":38.423499,"lng":140.381111,"zip":"9993717"},{"town":"一本木二丁目","koaza":"","lat":38.424269,"lng":140.385024,"zip":"9993717"},{"town":"一本木三丁目","koaza":"","lat":38.421882,"lng":140.383969,"zip":"9993717"},{"town":"大字泉郷甲","koaza":"","lat":38.434591,"lng":140.461211,"zip":"9993700"},{"town":"大字泉郷乙","koaza":"","lat":38.430483,"lng":140.436914,"zip":"9993700"},{"town":"大字泉郷","koaza":"","lat":38.426843,"lng":140.426581,"zip":"9993700"},{"town":"大字板垣新田","koaza":"","lat":38.412014,"lng":140.395657,"zip":"9993700"},{"town":"大字猪野沢","koaza":"","lat":38.377946,"lng":140.474606,"zip":"9993700"},{"town":"大字太田新田","koaza":"","lat":38.410301,"lng":140.427297,"zip":"9993700"},{"town":"大字若木","koaza":"","lat":38.419364,"lng":140.369688,"zip":"9993700"},{"town":"大字蟹沢","koaza":"","lat":38.434689,"lng":140.360715,"zip":"9993700"},{"town":"大字郡山","koaza":"","lat":38.428809,"lng":140.367422,"zip":"9993700"},{"town":"大字島大堀","koaza":"","lat":38.438557,"lng":140.346484,"zip":"9993700"},{"town":"大字関山","koaza":"","lat":38.404569,"lng":140.523329,"zip":"9993700"},{"town":"大字藤助新田","koaza":"","lat":38.419723,"lng":140.344113,"zip":"9993700"},{"town":"大字中島新田","koaza":"","lat":38.411855,"lng":140.403463,"zip":"9993700"},{"town":"大字長瀞","koaza":"","lat":38.460742,"lng":140.367439,"zip":"9993700"},{"town":"大字荷口","koaza":"","lat":38.40609,"lng":140.342636,"zip":"9993700"},{"town":"大字沼沢","koaza":"","lat":38.385208,"lng":140.501306,"zip":"9993700"},{"town":"大字野川","koaza":"","lat":38.413245,"lng":140.429217,"zip":"9993700"},{"town":"大字野田","koaza":"","lat":38.428441,"lng":140.355555,"zip":"9993700"},{"town":"大字羽入","koaza":"","lat":38.414775,"lng":140.354896,"zip":"9993700"},{"town":"大字東根","koaza":"","lat":38.456392,"lng":140.444006,"zip":"9993700"},{"town":"大字東根乙","koaza":"","lat":38.421024,"lng":140.407279,"zip":"9993700"},{"town":"大字東根甲","koaza":"","lat":38.445831,"lng":140.434894,"zip":"9993700"},{"town":"大字松沢","koaza":"","lat":38.447365,"lng":140.349636,"zip":"9993700"},{"town":"大字六田","koaza":"","lat":38.443051,"lng":140.377628,"zip":"9993700"},{"town":"大林一丁目","koaza":"","lat":38.43207,"lng":140.384251,"zip":"9993714"},{"town":"大林二丁目","koaza":"","lat":38.435031,"lng":140.385854,"zip":"9993714"},{"town":"大森一丁目","koaza":"","lat":38.429826,"lng":140.391827,"zip":"9993712"},{"town":"大森二丁目","koaza":"","lat":38.430309,"lng":140.386495,"zip":"9993712"},{"town":"若木一条通り","koaza":"","lat":38.408449,"lng":140.388448,"zip":"9993756"},{"town":"若木大通り","koaza":"","lat":38.409861,"lng":140.40283,"zip":"9993738"},{"town":"若木小路","koaza":"","lat":38.408116,"lng":140.389635,"zip":"9993757"},{"town":"若木五条通り","koaza":"","lat":38.406817,"lng":140.404627,"zip":"9993752"},{"town":"若木三条通り","koaza":"","lat":38.407292,"lng":140.397356,"zip":"9993754"},{"town":"若木通り一丁目","koaza":"","lat":38.407244,"lng":140.389894,"zip":"9993751"},{"town":"若木通り二丁目","koaza":"","lat":38.40626,"lng":140.392505,"zip":"9993751"},{"town":"若木通り三丁目","koaza":"","lat":38.404555,"lng":140.391747,"zip":"9993751"},{"town":"若木通り四丁目","koaza":"","lat":38.408785,"lng":140.40455,"zip":"9993751"},{"town":"若木通り五丁目","koaza":"","lat":38.407243,"lng":140.402289,"zip":"9993751"},{"town":"若木二条通り","koaza":"","lat":38.407909,"lng":140.391129,"zip":"9993755"},{"town":"若木四条通り","koaza":"","lat":38.407148,"lng":140.399742,"zip":"9993753"},{"town":"温泉町一丁目","koaza":"","lat":38.456145,"lng":140.391139,"zip":"9993702"},{"town":"温泉町二丁目","koaza":"","lat":38.460339,"lng":140.389888,"zip":"9993702"},{"town":"温泉町三丁目","koaza":"","lat":38.462973,"lng":140.386851,"zip":"9993702"},{"town":"柏原一丁目","koaza":"","lat":38.405598,"lng":140.365755,"zip":"9993770"},{"town":"柏原二丁目","koaza":"","lat":38.402753,"lng":140.365639,"zip":"9993770"},{"town":"柏原三丁目","koaza":"","lat":38.403507,"lng":140.362605,"zip":"9993770"},{"town":"小林一丁目","koaza":"","lat":38.429682,"lng":140.395523,"zip":"9993710"},{"town":"小林二丁目","koaza":"","lat":38.428077,"lng":140.396243,"zip":"9993710"},{"town":"鷺の宿","koaza":"","lat":38.448476,"lng":140.391791,"zip":"9993786"},{"town":"鷺ノ森一丁目","koaza":"","lat":38.450452,"lng":140.386949,"zip":"9993703"},{"town":"鷺ノ森二丁目","koaza":"","lat":38.448785,"lng":140.389444,"zip":"9993703"},{"town":"さくらんぼ駅前一丁目","koaza":"","lat":38.428407,"lng":140.381881,"zip":"9993720"},{"town":"さくらんぼ駅前二丁目","koaza":"","lat":38.42907,"lng":140.386138,"zip":"9993720"},{"town":"さくらんぼ駅前三丁目","koaza":"","lat":38.426988,"lng":140.385645,"zip":"9993720"},{"town":"下川原一丁目","koaza":"","lat":38.443022,"lng":140.391155,"zip":"9993708"},{"town":"神町北二丁目","koaza":"","lat":38.416306,"lng":140.382577,"zip":"9993762"},{"town":"神町営団一条通り","koaza":"","lat":38.408004,"lng":140.40967,"zip":"9993735"},{"town":"神町営団大通り","koaza":"","lat":38.411405,"lng":140.415464,"zip":"9993731"},{"town":"神町営団三条通り","koaza":"","lat":38.406842,"lng":140.418899,"zip":"9993733"},{"town":"神町営団中通り","koaza":"","lat":38.408743,"lng":140.416742,"zip":"9993732"},{"town":"神町営団二条通り","koaza":"","lat":38.406647,"lng":140.413708,"zip":"9993734"},{"town":"神町営団南通り","koaza":"","lat":38.40266,"lng":140.416344,"zip":"9993736"},{"town":"神町北一丁目","koaza":"","lat":38.416651,"lng":140.380029,"zip":"9993762"},{"town":"神町北三丁目","koaza":"","lat":38.417834,"lng":140.387689,"zip":"9993762"},{"town":"神町北四丁目","koaza":"","lat":38.416152,"lng":140.387422,"zip":"9993762"},{"town":"神町北五丁目","koaza":"","lat":38.41398,"lng":140.386995,"zip":"9993762"},{"town":"神町中央一丁目","koaza":"","lat":38.410381,"lng":140.379662,"zip":"9993763"},{"town":"神町中央二丁目","koaza":"","lat":38.40523,"lng":140.378823,"zip":"9993763"},{"town":"神町西一丁目","koaza":"","lat":38.420061,"lng":140.377517,"zip":"9993766"},{"town":"神町西二丁目","koaza":"","lat":38.412818,"lng":140.377662,"zip":"9993766"},{"town":"神町西三丁目","koaza":"","lat":38.413091,"lng":140.375724,"zip":"9993766"},{"town":"神町西四丁目","koaza":"","lat":38.405627,"lng":140.375522,"zip":"9993766"},{"town":"神町西五丁目","koaza":"","lat":38.400413,"lng":140.37504,"zip":"9993766"},{"town":"神町西六丁目","koaza":"","lat":38.399932,"lng":140.372186,"zip":"9993766"},{"town":"神町東一丁目","koaza":"","lat":38.410882,"lng":140.384131,"zip":"9993764"},{"town":"神町東二丁目","koaza":"","lat":38.407541,"lng":140.383143,"zip":"9993764"},{"town":"神町東三丁目","koaza":"","lat":38.404581,"lng":140.382315,"zip":"9993764"},{"town":"神町東四丁目","koaza":"","lat":38.407473,"lng":140.38702,"zip":"9993764"},{"town":"神町南一丁目","koaza":"","lat":38.399806,"lng":140.37925,"zip":"9993765"},{"town":"神町南二丁目","koaza":"","lat":38.398121,"lng":140.381618,"zip":"9993765"},{"town":"神町南三丁目","koaza":"","lat":38.40062,"lng":140.398098,"zip":"9993765"},{"town":"中央一丁目","koaza":"","lat":38.431757,"lng":140.392482,"zip":"9993711"},{"town":"中央二丁目","koaza":"","lat":38.432606,"lng":140.388047,"zip":"9993711"},{"town":"中央三丁目","koaza":"","lat":38.436445,"lng":140.391182,"zip":"9993711"},{"town":"中央四丁目","koaza":"","lat":38.435333,"lng":140.394078,"zip":"9993711"},{"town":"中央西","koaza":"","lat":38.43798,"lng":140.387727,"zip":"9993719"},{"town":"中央東一丁目","koaza":"","lat":38.434508,"lng":140.397833,"zip":"9993729"},{"town":"中央東二丁目","koaza":"","lat":38.432186,"lng":140.404392,"zip":"9993729"},{"town":"中央東三丁目","koaza":"","lat":38.429256,"lng":140.403557,"zip":"9993729"},{"town":"中央南一丁目","koaza":"","lat":38.428652,"lng":140.391494,"zip":"9993730"},{"town":"中央南二丁目","koaza":"","lat":38.42651,"lng":140.390831,"zip":"9993730"},{"town":"中島通り一丁目","koaza":"","lat":38.41348,"lng":140.404005,"zip":"9993742"},{"town":"中島通り二丁目","koaza":"","lat":38.412732,"lng":140.409106,"zip":"9993742"},{"town":"中島東通り","koaza":"","lat":38.412866,"lng":140.406594,"zip":"9993741"},{"town":"羽入東","koaza":"","lat":38.407149,"lng":140.363127,"zip":"9993779"},{"town":"本丸北一丁目","koaza":"","lat":38.443825,"lng":140.403879,"zip":"9993781"},{"town":"本丸北二丁目","koaza":"","lat":38.448906,"lng":140.402657,"zip":"9993781"},{"town":"本丸西一丁目","koaza":"","lat":38.445329,"lng":140.400848,"zip":"9993785"},{"town":"本丸西二丁目","koaza":"","lat":38.445481,"lng":140.398718,"zip":"9993785"},{"town":"本丸西三丁目","koaza":"","lat":38.447655,"lng":140.395983,"zip":"9993785"},{"town":"本丸西四丁目","koaza":"","lat":38.447696,"lng":140.393506,"zip":"9993785"},{"town":"本丸東","koaza":"","lat":38.4429,"lng":140.407168,"zip":"9993782"},{"town":"本丸南一丁目","koaza":"","lat":38.441133,"lng":140.402885,"zip":"9993783"},{"town":"本丸南二丁目","koaza":"","lat":38.436245,"lng":140.406196,"zip":"9993783"},{"town":"本丸南三丁目","koaza":"","lat":38.436447,"lng":140.40406,"zip":"9993783"},{"town":"三日町一丁目","koaza":"","lat":38.444567,"lng":140.391405,"zip":"9993706"},{"town":"三日町三丁目","koaza":"","lat":38.445403,"lng":140.393126,"zip":"9993706"},{"town":"宮崎一丁目","koaza":"","lat":38.44529,"lng":140.387771,"zip":"9993705"},{"town":"宮崎二丁目","koaza":"","lat":38.447738,"lng":140.387419,"zip":"9993705"},{"town":"宮崎三丁目","koaza":"","lat":38.450011,"lng":140.384881,"zip":"9993705"},{"town":"宮崎四丁目","koaza":"","lat":38.448412,"lng":140.38264,"zip":"9993705"},{"town":"宮崎五丁目","koaza":"","lat":38.447085,"lng":140.378071,"zip":"9993705"},{"town":"四ツ家一丁目","koaza":"","lat":38.4334,"lng":140.382649,"zip":"9993718"},{"town":"六田一丁目","koaza":"","lat":38.438817,"lng":140.38423,"zip":"9993709"},{"town":"六田二丁目","koaza":"","lat":38.442961,"lng":140.385946,"zip":"9993709"},{"town":"大字神町","koaza":"","lat":38.409859,"lng":140.371383,"zip":"9993700"},{"town":"白水二丁目","koaza":"","lat":38.441859,"lng":140.391355,"zip":"9993787"},{"town":"中央五丁目","koaza":"","lat":38.438187,"lng":140.394665,"zip":"9993711"},{"town":"新田町一丁目","koaza":"","lat":38.441731,"lng":140.393599,"zip":"9993707"},{"town":"白水一丁目","koaza":"","lat":38.439409,"lng":140.395676,"zip":"9993787"},{"town":"三日町二丁目","koaza":"","lat":38.443353,"lng":140.393406,"zip":"9993706"},{"town":"三日町四丁目","koaza":"","lat":38.443052,"lng":140.395981,"zip":"9993706"},{"town":"新田町二丁目","koaza":"","lat":38.441553,"lng":140.395214,"zip":"9993707"},{"town":"本町","koaza":"","lat":38.441632,"lng":140.398025,"zip":"9993784"},{"town":"大字観音寺","koaza":"","lat":38.434859,"lng":140.522244,"zip":"9993700"},{"town":"大字蟹沢","koaza":"上縄目","lat":38.427315,"lng":140.377364,"zip":"9993700"},{"town":"大字羽入","koaza":"柏原新林","lat":38.410582,"lng":140.367341,"zip":"9993700"},{"town":"大字蟹沢","koaza":"鳥居崎","lat":38.42693,"lng":140.380213,"zip":"9993700"}]