[{"town":"大字大塚","koaza":"","lat":38.042637,"lng":140.074889,"zip":"9990100"},{"town":"大字大舟","koaza":"","lat":37.936755,"lng":140.016274,"zip":"9990100"},{"town":"大字尾長島","koaza":"","lat":37.983817,"lng":140.104474,"zip":"9990100"},{"town":"大字上奥田","koaza":"","lat":37.963454,"lng":140.020726,"zip":"9990100"},{"town":"大字上小松","koaza":"","lat":38.002377,"lng":140.031057,"zip":"9990100"},{"town":"大字黒川","koaza":"","lat":38.01533,"lng":140.079436,"zip":"9990100"},{"town":"大字高豆蒄","koaza":"","lat":38.018753,"lng":140.071778,"zip":"9990100"},{"town":"大字小松","koaza":"","lat":38.019555,"lng":140.064251,"zip":"9990100"},{"town":"大字下奥田","koaza":"","lat":37.983843,"lng":140.049697,"zip":"9990100"},{"town":"大字下小松","koaza":"","lat":38.030361,"lng":140.047234,"zip":"9990100"},{"town":"大字下平柳","koaza":"","lat":38.001004,"lng":140.124485,"zip":"9990100"},{"town":"大字洲島","koaza":"","lat":38.01715,"lng":140.115095,"zip":"9990100"},{"town":"大字高山","koaza":"","lat":38.01443,"lng":140.087997,"zip":"9990100"},{"town":"大字玉庭","koaza":"","lat":37.926586,"lng":139.967128,"zip":"9990100"},{"town":"大字時田","koaza":"","lat":37.981286,"lng":140.063281,"zip":"9990100"},{"town":"大字中小松","koaza":"","lat":38.014168,"lng":140.054852,"zip":"9990100"},{"town":"大字西大塚","koaza":"","lat":38.044969,"lng":140.058111,"zip":"9990100"},{"town":"大字莅","koaza":"","lat":37.992599,"lng":140.072586,"zip":"9990100"},{"town":"大字東大塚","koaza":"","lat":38.040931,"lng":140.089618,"zip":"9990100"},{"town":"大字朴沢","koaza":"","lat":37.985428,"lng":139.991321,"zip":"9990100"},{"town":"大字堀金","koaza":"","lat":37.986883,"lng":140.084971,"zip":"9990100"},{"town":"大字吉田","koaza":"","lat":38.005074,"lng":140.098881,"zip":"9990100"},{"town":"大字中小松","koaza":"田仲","lat":38.01203,"lng":140.053081,"zip":"9990100"}]