[{"town":"大字相森","koaza":"","lat":38.000746,"lng":140.178489,"zip":"9920300"},{"town":"大字安久津","koaza":"","lat":38.026278,"lng":140.221602,"zip":"9920300"},{"town":"大字石岡","koaza":"","lat":38.017701,"lng":140.149978,"zip":"9920300"},{"town":"大字泉岡","koaza":"","lat":37.996117,"lng":140.185991,"zip":"9920300"},{"town":"大字一本柳","koaza":"","lat":38.003015,"lng":140.165165,"zip":"9920300"},{"town":"大字入生田","koaza":"","lat":37.981012,"lng":140.157396,"zip":"9920300"},{"town":"大字小其塚","koaza":"","lat":37.983937,"lng":140.118703,"zip":"9920300"},{"town":"大字柏木目","koaza":"","lat":37.998432,"lng":140.169712,"zip":"9920300"},{"town":"大字金原","koaza":"","lat":37.993784,"lng":140.245882,"zip":"9920300"},{"town":"大字上平柳","koaza":"","lat":37.998645,"lng":140.133488,"zip":"9920300"},{"town":"大字上和田","koaza":"","lat":37.93029,"lng":140.231504,"zip":"9920300"},{"town":"大字亀岡","koaza":"","lat":37.980346,"lng":140.181425,"zip":"9920300"},{"town":"大字川沼","koaza":"","lat":38.011559,"lng":140.157216,"zip":"9920300"},{"town":"大字高安","koaza":"","lat":37.985311,"lng":140.208733,"zip":"9920300"},{"town":"大字小郡山","koaza":"","lat":37.998395,"lng":140.212131,"zip":"9920300"},{"town":"大字佐沢","koaza":"","lat":37.943501,"lng":140.177423,"zip":"9920300"},{"town":"大字三条目","koaza":"","lat":38.008889,"lng":140.180485,"zip":"9920300"},{"town":"大字塩森","koaza":"","lat":37.987301,"lng":140.192925,"zip":"9920300"},{"town":"大字下和田","koaza":"","lat":37.965791,"lng":140.172428,"zip":"9920300"},{"town":"大字蛇口","koaza":"","lat":37.994095,"lng":140.123995,"zip":"9920300"},{"town":"大字高畠","koaza":"","lat":37.979076,"lng":140.251026,"zip":"9920300"},{"town":"大字竹森","koaza":"","lat":38.025619,"lng":140.195954,"zip":"9920300"},{"town":"大字露藤","koaza":"","lat":37.970712,"lng":140.158601,"zip":"9920300"},{"town":"大字時沢","koaza":"","lat":38.051752,"lng":140.212922,"zip":"9920300"},{"town":"大字中里","koaza":"","lat":37.99572,"lng":140.177151,"zip":"9920300"},{"town":"大字中島","koaza":"","lat":37.957921,"lng":140.169109,"zip":"9920300"},{"town":"大字夏茂","koaza":"","lat":38.013384,"lng":140.143387,"zip":"9920300"},{"town":"大字二井宿","koaza":"","lat":38.036871,"lng":140.258737,"zip":"9920300"},{"town":"大字糠野目","koaza":"","lat":37.980967,"lng":140.138495,"zip":"9920300"},{"town":"大字根岸","koaza":"","lat":38.012449,"lng":140.190647,"zip":"9920300"},{"town":"大字馬頭","koaza":"","lat":37.952482,"lng":140.177427,"zip":"9920300"},{"town":"大字深沼","koaza":"","lat":38.02597,"lng":140.172825,"zip":"9920300"},{"town":"大字福沢","koaza":"","lat":37.997824,"lng":140.148531,"zip":"9920300"},{"town":"大字船橋","koaza":"","lat":37.990533,"lng":140.165215,"zip":"9920300"},{"town":"大字元和田","koaza":"","lat":37.964577,"lng":140.227836,"zip":"9920300"},{"town":"大字山崎","koaza":"","lat":37.99418,"lng":140.155524,"zip":"9920300"},{"town":"福沢南","koaza":"","lat":37.990736,"lng":140.148859,"zip":"9992175"},{"town":"大字泉岡","koaza":"中道","lat":37.99908,"lng":140.187922,"zip":"9920300"},{"town":"大字高畠","koaza":"川辺","lat":38.005968,"lng":140.190865,"zip":"9920300"}]