[{"town":"相生町","koaza":"","lat":37.906318,"lng":140.11868,"zip":"9920032"},{"town":"赤芝町","koaza":"","lat":37.886447,"lng":140.066249,"zip":"9920075"},{"town":"吾妻町","koaza":"","lat":37.892893,"lng":140.119784,"zip":"9920034"},{"town":"アルカディア一丁目","koaza":"","lat":37.913023,"lng":140.143205,"zip":"9920119"},{"town":"泉町一丁目","koaza":"","lat":37.892129,"lng":140.106006,"zip":"9920063"},{"town":"泉町二丁目","koaza":"","lat":37.893275,"lng":140.102779,"zip":"9920063"},{"town":"駅前一丁目","koaza":"","lat":37.909982,"lng":140.128405,"zip":"9920027"},{"town":"駅前二丁目","koaza":"","lat":37.910118,"lng":140.121261,"zip":"9920027"},{"town":"駅前三丁目","koaza":"","lat":37.911559,"lng":140.124854,"zip":"9920027"},{"town":"駅前四丁目","koaza":"","lat":37.912792,"lng":140.120149,"zip":"9920027"},{"town":"大字赤崩","koaza":"","lat":37.816373,"lng":140.163808,"zip":"9920000"},{"town":"大字浅川","koaza":"","lat":37.950184,"lng":140.152777,"zip":"9920000"},{"town":"大字梓川","koaza":"","lat":37.928161,"lng":140.153186,"zip":"9920000"},{"town":"大字板谷","koaza":"","lat":37.793618,"lng":140.25893,"zip":"9920000"},{"town":"大字入田沢","koaza":"","lat":37.828885,"lng":139.976971,"zip":"9920000"},{"town":"大字大小屋","koaza":"","lat":37.815471,"lng":140.191212,"zip":"9920000"},{"town":"大字大沢","koaza":"","lat":37.799289,"lng":140.222602,"zip":"9920000"},{"town":"大字大平","koaza":"","lat":37.794168,"lng":140.148496,"zip":"9920000"},{"town":"大字上新田","koaza":"","lat":37.945023,"lng":140.13836,"zip":"9920000"},{"town":"大字川井","koaza":"","lat":37.925102,"lng":140.138593,"zip":"9920000"},{"town":"大字神原","koaza":"","lat":37.894006,"lng":140.00252,"zip":"9920000"},{"town":"大字木和田","koaza":"","lat":37.919943,"lng":140.171644,"zip":"9920000"},{"town":"大字口田沢","koaza":"","lat":37.894413,"lng":140.022927,"zip":"9920000"},{"town":"大字笹野","koaza":"","lat":37.879221,"lng":140.108072,"zip":"9920000"},{"town":"大字塩野","koaza":"","lat":37.924834,"lng":140.092258,"zip":"9920000"},{"town":"大字下新田","koaza":"","lat":37.9627,"lng":140.148785,"zip":"9920000"},{"town":"大字李山","koaza":"","lat":37.843671,"lng":140.110918,"zip":"9920000"},{"town":"大字関","koaza":"","lat":37.792515,"lng":140.104196,"zip":"9920000"},{"town":"大字関根","koaza":"","lat":37.856012,"lng":140.156028,"zip":"9920000"},{"town":"大字関町","koaza":"","lat":37.840235,"lng":140.08178,"zip":"9920000"},{"town":"大字竹井","koaza":"","lat":37.924813,"lng":140.154969,"zip":"9920000"},{"town":"大字立石","koaza":"","lat":37.844846,"lng":140.065841,"zip":"9920000"},{"town":"大字舘山","koaza":"","lat":37.900805,"lng":140.076415,"zip":"9920000"},{"town":"大字綱木","koaza":"","lat":37.796063,"lng":140.06829,"zip":"9920000"},{"town":"大字長手","koaza":"","lat":37.935064,"lng":140.170437,"zip":"9920000"},{"town":"大字花沢","koaza":"","lat":37.928589,"lng":140.125833,"zip":"9920000"},{"town":"大字吹屋敷","koaza":"","lat":37.920131,"lng":140.077215,"zip":"9920000"},{"town":"大字福田","koaza":"","lat":37.888588,"lng":140.110682,"zip":"9920000"},{"town":"大字芳泉町","koaza":"","lat":37.883875,"lng":140.120589,"zip":"9920000"},{"town":"大字三沢","koaza":"","lat":37.880855,"lng":140.136172,"zip":"9920000"},{"town":"大字南原石垣町","koaza":"","lat":37.867365,"lng":140.116336,"zip":"9920000"},{"town":"大字南原猪苗代町","koaza":"","lat":37.870421,"lng":140.10439,"zip":"9920000"},{"town":"大字南原笹野町","koaza":"","lat":37.874,"lng":140.106564,"zip":"9920000"},{"town":"大字南原新町","koaza":"","lat":37.869842,"lng":140.109644,"zip":"9920000"},{"town":"大字南原横堀町","koaza":"","lat":37.874574,"lng":140.111281,"zip":"9920000"},{"town":"大字簗沢","koaza":"","lat":37.837376,"lng":140.036906,"zip":"9920000"},{"town":"太田町一丁目","koaza":"","lat":37.894327,"lng":140.115235,"zip":"9920035"},{"town":"太田町二丁目","koaza":"","lat":37.898552,"lng":140.114884,"zip":"9920035"},{"town":"太田町三丁目","koaza":"","lat":37.89826,"lng":140.112116,"zip":"9920035"},{"town":"太田町四丁目","koaza":"","lat":37.893242,"lng":140.110846,"zip":"9920035"},{"town":"太田町五丁目","koaza":"","lat":37.890126,"lng":140.115449,"zip":"9920035"},{"town":"大町一丁目","koaza":"","lat":37.904151,"lng":140.112563,"zip":"9920031"},{"town":"大町二丁目","koaza":"","lat":37.90624,"lng":140.113179,"zip":"9920031"},{"town":"大町三丁目","koaza":"","lat":37.908586,"lng":140.113823,"zip":"9920031"},{"town":"大町四丁目","koaza":"","lat":37.910507,"lng":140.114974,"zip":"9920031"},{"town":"大町五丁目","koaza":"","lat":37.91299,"lng":140.114368,"zip":"9920031"},{"town":"小野川町","koaza":"","lat":37.867163,"lng":140.068071,"zip":"9920076"},{"town":"鍛冶町","koaza":"","lat":37.915353,"lng":140.11473,"zip":"9920014"},{"town":"春日一丁目","koaza":"","lat":37.922748,"lng":140.112567,"zip":"9920044"},{"town":"春日二丁目","koaza":"","lat":37.923881,"lng":140.108933,"zip":"9920044"},{"town":"春日三丁目","koaza":"","lat":37.927016,"lng":140.112016,"zip":"9920044"},{"town":"春日四丁目","koaza":"","lat":37.930759,"lng":140.116756,"zip":"9920044"},{"town":"春日五丁目","koaza":"","lat":37.931104,"lng":140.114119,"zip":"9920044"},{"town":"金池一丁目","koaza":"","lat":37.91706,"lng":140.115646,"zip":"9920012"},{"town":"金池二丁目","koaza":"","lat":37.91897,"lng":140.115216,"zip":"9920012"},{"town":"金池三丁目","koaza":"","lat":37.920632,"lng":140.1155,"zip":"9920012"},{"town":"金池四丁目","koaza":"","lat":37.919266,"lng":140.117832,"zip":"9920012"},{"town":"金池五丁目","koaza":"","lat":37.92343,"lng":140.116719,"zip":"9920012"},{"town":"金池六丁目","koaza":"","lat":37.926178,"lng":140.115185,"zip":"9920012"},{"town":"金池七丁目","koaza":"","lat":37.927171,"lng":140.118844,"zip":"9920012"},{"town":"金池八丁目","koaza":"","lat":37.929812,"lng":140.119205,"zip":"9920012"},{"town":"川井小路","koaza":"","lat":37.914919,"lng":140.115923,"zip":"9920016"},{"town":"木場町","koaza":"","lat":37.917587,"lng":140.093429,"zip":"9920058"},{"town":"窪田町窪田","koaza":"","lat":37.962729,"lng":140.128824,"zip":"9920003"},{"town":"窪田町小瀬","koaza":"","lat":37.95049,"lng":140.112116,"zip":"9920004"},{"town":"窪田町東江股","koaza":"","lat":37.969249,"lng":140.108841,"zip":"9920001"},{"town":"窪田町藤泉","koaza":"","lat":37.954873,"lng":140.10572,"zip":"9920005"},{"town":"窪田町矢野目","koaza":"","lat":37.974969,"lng":140.122934,"zip":"9920002"},{"town":"御廟一丁目","koaza":"","lat":37.91433,"lng":140.091995,"zip":"9920055"},{"town":"御廟二丁目","koaza":"","lat":37.909535,"lng":140.092197,"zip":"9920055"},{"town":"御廟三丁目","koaza":"","lat":37.905093,"lng":140.093961,"zip":"9920055"},{"town":"栄町","koaza":"","lat":37.916108,"lng":140.115129,"zip":"9920013"},{"town":"桜木町","koaza":"","lat":37.914262,"lng":140.116953,"zip":"9920017"},{"town":"笹野本町","koaza":"","lat":37.876865,"lng":140.093681,"zip":"9921445"},{"town":"笹野町","koaza":"","lat":37.886905,"lng":140.092433,"zip":"9921441"},{"town":"塩井町塩野","koaza":"","lat":37.933077,"lng":140.10024,"zip":"9920042"},{"town":"塩井町宮井","koaza":"","lat":37.940721,"lng":140.112226,"zip":"9920041"},{"town":"信夫町","koaza":"","lat":37.920325,"lng":140.098532,"zip":"9920046"},{"town":"下小菅","koaza":"","lat":37.962115,"lng":140.068836,"zip":"9920081"},{"town":"下花沢一丁目","koaza":"","lat":37.905636,"lng":140.131395,"zip":"9920023"},{"town":"下花沢二丁目","koaza":"","lat":37.910379,"lng":140.131809,"zip":"9920023"},{"town":"下花沢三丁目","koaza":"","lat":37.917094,"lng":140.128358,"zip":"9920023"},{"town":"城西一丁目","koaza":"","lat":37.908756,"lng":140.096335,"zip":"9920054"},{"town":"城西二丁目","koaza":"","lat":37.913778,"lng":140.100779,"zip":"9920054"},{"town":"城西三丁目","koaza":"","lat":37.913875,"lng":140.097822,"zip":"9920054"},{"town":"城西四丁目","koaza":"","lat":37.914126,"lng":140.095132,"zip":"9920054"},{"town":"城南一丁目","koaza":"","lat":37.905962,"lng":140.104076,"zip":"9920038"},{"town":"城南二丁目","koaza":"","lat":37.903106,"lng":140.105701,"zip":"9920038"},{"town":"城南三丁目","koaza":"","lat":37.903816,"lng":140.103163,"zip":"9920038"},{"town":"城南四丁目","koaza":"","lat":37.89996,"lng":140.104645,"zip":"9920038"},{"town":"城南五丁目","koaza":"","lat":37.897269,"lng":140.103075,"zip":"9920038"},{"town":"城北一丁目","koaza":"","lat":37.914263,"lng":140.104765,"zip":"9920051"},{"town":"城北二丁目","koaza":"","lat":37.916523,"lng":140.104812,"zip":"9920051"},{"town":"諸仏町","koaza":"","lat":37.88277,"lng":140.104576,"zip":"9921444"},{"town":"杉の目町","koaza":"","lat":37.888242,"lng":140.103974,"zip":"9920064"},{"town":"立町","koaza":"","lat":37.914596,"lng":140.114323,"zip":"9920015"},{"town":"舘山一丁目","koaza":"","lat":37.910468,"lng":140.077536,"zip":"9920072"},{"town":"舘山二丁目","koaza":"","lat":37.914971,"lng":140.07648,"zip":"9920072"},{"town":"舘山三丁目","koaza":"","lat":37.914647,"lng":140.071544,"zip":"9920072"},{"town":"舘山四丁目","koaza":"","lat":37.912827,"lng":140.071026,"zip":"9920072"},{"town":"舘山五丁目","koaza":"","lat":37.909425,"lng":140.067924,"zip":"9920072"},{"town":"舘山六丁目","koaza":"","lat":37.910009,"lng":140.065277,"zip":"9920072"},{"town":"舘山矢子町","koaza":"","lat":37.917445,"lng":140.051129,"zip":"9920071"},{"town":"中央一丁目","koaza":"","lat":37.91358,"lng":140.111236,"zip":"9920045"},{"town":"中央二丁目","koaza":"","lat":37.914026,"lng":140.107819,"zip":"9920045"},{"town":"中央三丁目","koaza":"","lat":37.916703,"lng":140.112058,"zip":"9920045"},{"town":"中央四丁目","koaza":"","lat":37.917272,"lng":140.108585,"zip":"9920045"},{"town":"中央五丁目","koaza":"","lat":37.919717,"lng":140.111286,"zip":"9920045"},{"town":"中央六丁目","koaza":"","lat":37.918585,"lng":140.104673,"zip":"9920045"},{"town":"中央七丁目","koaza":"","lat":37.921072,"lng":140.105596,"zip":"9920045"},{"town":"遠山町","koaza":"","lat":37.904641,"lng":140.085707,"zip":"9920066"},{"town":"通町一丁目","koaza":"","lat":37.885148,"lng":140.134372,"zip":"9920025"},{"town":"通町二丁目","koaza":"","lat":37.886797,"lng":140.127899,"zip":"9920025"},{"town":"通町三丁目","koaza":"","lat":37.889375,"lng":140.132573,"zip":"9920025"},{"town":"通町四丁目","koaza":"","lat":37.889389,"lng":140.1275,"zip":"9920025"},{"town":"通町五丁目","koaza":"","lat":37.894004,"lng":140.130739,"zip":"9920025"},{"town":"通町六丁目","koaza":"","lat":37.892924,"lng":140.125372,"zip":"9920025"},{"town":"通町七丁目","koaza":"","lat":37.90001,"lng":140.129903,"zip":"9920025"},{"town":"通町八丁目","koaza":"","lat":37.898733,"lng":140.12451,"zip":"9920025"},{"town":"徳町","koaza":"","lat":37.923788,"lng":140.100104,"zip":"9920047"},{"town":"直江石堤","koaza":"","lat":37.870851,"lng":140.120649,"zip":"9921446"},{"town":"直江町","koaza":"","lat":37.914994,"lng":140.088158,"zip":"9920056"},{"town":"中田町","koaza":"","lat":37.941484,"lng":140.125248,"zip":"9920011"},{"town":"成島町一丁目","koaza":"","lat":37.919409,"lng":140.090508,"zip":"9920057"},{"town":"成島町二丁目","koaza":"","lat":37.920946,"lng":140.086079,"zip":"9920057"},{"town":"成島町三丁目","koaza":"","lat":37.921749,"lng":140.093241,"zip":"9920057"},{"town":"西大通一丁目","koaza":"","lat":37.917759,"lng":140.100874,"zip":"9920059"},{"town":"西大通二丁目","koaza":"","lat":37.917758,"lng":140.097218,"zip":"9920059"},{"town":"八幡原一丁目","koaza":"","lat":37.913226,"lng":140.157759,"zip":"9921128"},{"town":"八幡原二丁目","koaza":"","lat":37.911016,"lng":140.177698,"zip":"9921128"},{"town":"八幡原三丁目","koaza":"","lat":37.906795,"lng":140.177512,"zip":"9921128"},{"town":"八幡原四丁目","koaza":"","lat":37.904465,"lng":140.168772,"zip":"9921128"},{"town":"八幡原五丁目","koaza":"","lat":37.904925,"lng":140.166042,"zip":"9921128"},{"town":"花沢町","koaza":"","lat":37.919256,"lng":140.121282,"zip":"9920022"},{"town":"花沢町一丁目","koaza":"","lat":37.91657,"lng":140.123404,"zip":"9920022"},{"town":"万世町牛森","koaza":"","lat":37.905042,"lng":140.161409,"zip":"9921127"},{"town":"万世町片子","koaza":"","lat":37.899063,"lng":140.139432,"zip":"9921125"},{"town":"万世町金谷","koaza":"","lat":37.904068,"lng":140.145372,"zip":"9921124"},{"town":"万世町刈安","koaza":"","lat":37.861054,"lng":140.21338,"zip":"9921121"},{"town":"万世町桑山","koaza":"","lat":37.896433,"lng":140.154444,"zip":"9921123"},{"town":"万世町梓山","koaza":"","lat":37.897376,"lng":140.240414,"zip":"9921122"},{"town":"万世町立沢","koaza":"","lat":37.881425,"lng":140.146421,"zip":"9921201"},{"town":"万世町堂森","koaza":"","lat":37.908008,"lng":140.152069,"zip":"9921126"},{"town":"東一丁目","koaza":"","lat":37.902911,"lng":140.127648,"zip":"9920026"},{"town":"東二丁目","koaza":"","lat":37.904588,"lng":140.124238,"zip":"9920026"},{"town":"東三丁目","koaza":"","lat":37.90711,"lng":140.126779,"zip":"9920026"},{"town":"東大通一丁目","koaza":"","lat":37.888623,"lng":140.137199,"zip":"9920024"},{"town":"東大通二丁目","koaza":"","lat":37.893325,"lng":140.135369,"zip":"9920024"},{"town":"東大通三丁目","koaza":"","lat":37.900122,"lng":140.133045,"zip":"9920024"},{"town":"広幡町大沢","koaza":"","lat":37.939967,"lng":140.057463,"zip":"9920087"},{"town":"広幡町沖仲","koaza":"","lat":37.948433,"lng":140.080845,"zip":"9920085"},{"town":"広幡町小山田","koaza":"","lat":37.950198,"lng":140.087894,"zip":"9920082"},{"town":"広幡町上小菅","koaza":"","lat":37.949614,"lng":140.073916,"zip":"9920084"},{"town":"広幡町京塚","koaza":"","lat":37.934201,"lng":140.05914,"zip":"9920086"},{"town":"広幡町成島","koaza":"","lat":37.929922,"lng":140.071076,"zip":"9920083"},{"town":"吹屋敷町","koaza":"","lat":37.915809,"lng":140.082299,"zip":"9920073"},{"town":"福田町一丁目","koaza":"","lat":37.899501,"lng":140.119347,"zip":"9920033"},{"town":"福田町二丁目","koaza":"","lat":37.902538,"lng":140.118782,"zip":"9920033"},{"town":"古志田町","koaza":"","lat":37.892824,"lng":140.083135,"zip":"9920065"},{"town":"堀川町","koaza":"","lat":37.906085,"lng":140.098318,"zip":"9920061"},{"town":"本町一丁目","koaza":"","lat":37.898481,"lng":140.108601,"zip":"9920037"},{"town":"本町二丁目","koaza":"","lat":37.902041,"lng":140.109115,"zip":"9920037"},{"town":"本町三丁目","koaza":"","lat":37.901809,"lng":140.112443,"zip":"9920037"},{"town":"松が岬一丁目","koaza":"","lat":37.906984,"lng":140.100616,"zip":"9920053"},{"town":"松が岬二丁目","koaza":"","lat":37.909938,"lng":140.10054,"zip":"9920053"},{"town":"松が岬三丁目","koaza":"","lat":37.913404,"lng":140.10262,"zip":"9920053"},{"town":"丸の内一丁目","koaza":"","lat":37.908909,"lng":140.105203,"zip":"9920052"},{"town":"丸の内二丁目","koaza":"","lat":37.912088,"lng":140.105951,"zip":"9920052"},{"town":"門東町一丁目","koaza":"","lat":37.905869,"lng":140.109313,"zip":"9920039"},{"town":"門東町二丁目","koaza":"","lat":37.909243,"lng":140.110086,"zip":"9920039"},{"town":"門東町三丁目","koaza":"","lat":37.911671,"lng":140.110581,"zip":"9920039"},{"town":"矢来一丁目","koaza":"","lat":37.909324,"lng":140.085562,"zip":"9920074"},{"town":"矢来二丁目","koaza":"","lat":37.911087,"lng":140.085098,"zip":"9920074"},{"town":"矢来三丁目","koaza":"","lat":37.913207,"lng":140.08396,"zip":"9920074"},{"town":"林泉寺一丁目","koaza":"","lat":37.900311,"lng":140.100299,"zip":"9920062"},{"town":"林泉寺二丁目","koaza":"","lat":37.902192,"lng":140.097157,"zip":"9920062"},{"town":"林泉寺三丁目","koaza":"","lat":37.898353,"lng":140.098329,"zip":"9920062"},{"town":"六郷町桐原","koaza":"","lat":37.97102,"lng":140.088892,"zip":"9920091"},{"town":"六郷町轟","koaza":"","lat":37.958972,"lng":140.090545,"zip":"9920094"},{"town":"六郷町長橋","koaza":"","lat":37.970873,"lng":140.078723,"zip":"9920096"},{"town":"六郷町西江股","koaza":"","lat":37.968033,"lng":140.098767,"zip":"9920092"},{"town":"六郷町西藤泉","koaza":"","lat":37.951255,"lng":140.095799,"zip":"9920093"},{"town":"六郷町一漆","koaza":"","lat":37.965082,"lng":140.083645,"zip":"9920095"},{"town":"中田町","koaza":"道の上参","lat":37.940816,"lng":140.121439,"zip":"9920011"},{"town":"大字赤崩","koaza":"山王浦","lat":37.871032,"lng":140.122387,"zip":"9920000"}]