[{"town":"大字新宿","koaza":"","lat":38.291252,"lng":140.155211,"zip":"9901400"},{"town":"大字馬神","koaza":"","lat":38.339477,"lng":140.170775,"zip":"9901400"},{"town":"大字大暮山","koaza":"","lat":38.334848,"lng":140.128654,"zip":"9901400"},{"town":"大字大滝","koaza":"","lat":38.281258,"lng":140.144326,"zip":"9901400"},{"town":"大字大沼","koaza":"","lat":38.329867,"lng":140.109075,"zip":"9901400"},{"town":"大字大船木","koaza":"","lat":38.259089,"lng":140.091916,"zip":"9901400"},{"town":"大字大谷","koaza":"","lat":38.347708,"lng":140.157848,"zip":"9901400"},{"town":"大字送橋","koaza":"","lat":38.297734,"lng":140.182881,"zip":"9901400"},{"town":"大字上郷","koaza":"","lat":38.266061,"lng":140.129341,"zip":"9901400"},{"town":"大字石須部","koaza":"","lat":38.305858,"lng":140.095926,"zip":"9901400"},{"town":"大字今平","koaza":"","lat":38.24775,"lng":140.091588,"zip":"9901400"},{"town":"大字四ノ沢","koaza":"","lat":38.311055,"lng":140.160338,"zip":"9901400"},{"town":"大字下芦沢","koaza":"","lat":38.284929,"lng":140.164691,"zip":"9901400"},{"town":"大字白倉","koaza":"","lat":38.277067,"lng":139.995482,"zip":"9901400"},{"town":"大字杉山","koaza":"","lat":38.253559,"lng":140.113874,"zip":"9901400"},{"town":"大字立木","koaza":"","lat":38.248892,"lng":140.022528,"zip":"9901400"},{"town":"大字玉ノ井","koaza":"","lat":38.333162,"lng":140.179011,"zip":"9901400"},{"town":"大字太郎","koaza":"","lat":38.287981,"lng":140.10109,"zip":"9901400"},{"town":"大字常盤","koaza":"","lat":38.291195,"lng":140.121433,"zip":"9901400"},{"town":"大字中沢","koaza":"","lat":38.350531,"lng":140.190847,"zip":"9901400"},{"town":"大字長沼","koaza":"","lat":38.299594,"lng":140.114439,"zip":"9901400"},{"town":"大字古槇","koaza":"","lat":38.30494,"lng":140.188225,"zip":"9901400"},{"town":"大字松程","koaza":"","lat":38.274885,"lng":140.111039,"zip":"9901400"},{"town":"大字水本","koaza":"","lat":38.261179,"lng":140.149223,"zip":"9901400"},{"town":"大字三中","koaza":"","lat":38.314613,"lng":140.128231,"zip":"9901400"},{"town":"大字宮宿","koaza":"","lat":38.29834,"lng":140.142872,"zip":"9901400"},{"town":"大字雪谷","koaza":"","lat":38.294107,"lng":140.129738,"zip":"9901400"},{"town":"大字和合","koaza":"","lat":38.320074,"lng":140.174678,"zip":"9901400"},{"town":"大字三中","koaza":"丙","lat":38.304494,"lng":140.135501,"zip":"9901400"},{"town":"大字宮宿","koaza":"中郷","lat":38.300233,"lng":140.151544,"zip":"9901400"}]