[{"town":"大字入間","koaza":"","lat":38.411318,"lng":140.053454,"zip":"9900700"},{"town":"大字岩根沢","koaza":"","lat":38.473565,"lng":140.10515,"zip":"9900700"},{"town":"大字大井沢","koaza":"","lat":38.359622,"lng":139.96144,"zip":"9900700"},{"town":"大字海味","koaza":"","lat":38.454632,"lng":140.160385,"zip":"9900700"},{"town":"大字志津","koaza":"","lat":38.494222,"lng":139.973897,"zip":"9900700"},{"town":"大字砂子関","koaza":"","lat":38.461284,"lng":140.02907,"zip":"9900700"},{"town":"大字月岡","koaza":"","lat":38.429018,"lng":140.024979,"zip":"9900700"},{"town":"大字月山沢","koaza":"","lat":38.492945,"lng":140.023891,"zip":"9900700"},{"town":"大字綱取","koaza":"","lat":38.465854,"lng":140.116196,"zip":"9900700"},{"town":"大字沼山","koaza":"","lat":38.4188,"lng":140.114641,"zip":"9900700"},{"town":"大字原","koaza":"","lat":38.419572,"lng":140.137048,"zip":"9900700"},{"town":"大字本道寺","koaza":"","lat":38.469307,"lng":140.047887,"zip":"9900700"},{"town":"大字間沢","koaza":"","lat":38.470952,"lng":140.13616,"zip":"9900700"},{"town":"大字水沢","koaza":"","lat":38.468509,"lng":140.082555,"zip":"9900700"},{"town":"大字睦合","koaza":"","lat":38.441327,"lng":140.176455,"zip":"9900700"},{"town":"大字吉川","koaza":"","lat":38.411169,"lng":140.166295,"zip":"9900700"}]