[{"town":"字造山","koaza":"","lat":38.405903,"lng":140.291239,"zip":"9993500"},{"town":"字畑中","koaza":"","lat":38.408455,"lng":140.300371,"zip":"9993500"},{"town":"大字岩木","koaza":"","lat":38.459579,"lng":140.296464,"zip":"9993500"},{"town":"大字新吉田","koaza":"","lat":38.453419,"lng":140.33361,"zip":"9993500"},{"town":"大字田井","koaza":"","lat":38.403128,"lng":140.327661,"zip":"9993500"},{"town":"大字溝延","koaza":"","lat":38.393495,"lng":140.308895,"zip":"9993500"},{"town":"大字吉田","koaza":"","lat":38.444532,"lng":140.318472,"zip":"9993500"},{"town":"西里","koaza":"","lat":38.433215,"lng":140.274442,"zip":"9993533"},{"town":"谷地","koaza":"","lat":38.432591,"lng":140.332535,"zip":"9993511"},{"town":"谷地荒町東一丁目","koaza":"","lat":38.42034,"lng":140.318596,"zip":"9993515"},{"town":"谷地荒町東二丁目","koaza":"","lat":38.420377,"lng":140.321232,"zip":"9993515"},{"town":"谷地中央一丁目","koaza":"","lat":38.421111,"lng":140.311442,"zip":"9993512"},{"town":"谷地中央二丁目","koaza":"","lat":38.420719,"lng":140.313957,"zip":"9993512"},{"town":"谷地中央三丁目","koaza":"","lat":38.417763,"lng":140.313901,"zip":"9993512"},{"town":"谷地中央四丁目","koaza":"","lat":38.417942,"lng":140.310409,"zip":"9993512"},{"town":"谷地中央五丁目","koaza":"","lat":38.418306,"lng":140.307971,"zip":"9993512"},{"town":"谷地所岡一丁目","koaza":"","lat":38.42689,"lng":140.309581,"zip":"9993513"},{"town":"谷地所岡二丁目","koaza":"","lat":38.431112,"lng":140.312296,"zip":"9993513"},{"town":"谷地所岡三丁目","koaza":"","lat":38.431266,"lng":140.309713,"zip":"9993513"},{"town":"谷地ひな市一丁目","koaza":"","lat":38.429147,"lng":140.317404,"zip":"9993514"},{"town":"谷地ひな市二丁目","koaza":"","lat":38.431377,"lng":140.318065,"zip":"9993514"},{"town":"谷地ひな市三丁目","koaza":"","lat":38.431503,"lng":140.320688,"zip":"9993514"},{"town":"谷地ひな市四丁目","koaza":"","lat":38.428966,"lng":140.320069,"zip":"9993514"},{"town":"西里","koaza":"天満","lat":38.412005,"lng":140.274102,"zip":"9993533"},{"town":"西里","koaza":"治部橋","lat":38.415558,"lng":140.280464,"zip":"9993533"},{"town":"西里","koaza":"中嶋","lat":38.416906,"lng":140.283568,"zip":"9993533"},{"town":"西里","koaza":"両所","lat":38.419362,"lng":140.27662,"zip":"9993533"},{"town":"谷地","koaza":"戊","lat":38.434386,"lng":140.299408,"zip":"9993511"},{"town":"西里","koaza":"白山堂","lat":38.416028,"lng":140.288571,"zip":"9993533"},{"town":"西里","koaza":"塩ノ渕","lat":38.411425,"lng":140.287691,"zip":"9993533"},{"town":"谷地","koaza":"根際","lat":38.42877,"lng":140.289296,"zip":"9993511"},{"town":"谷地","koaza":"嶋","lat":38.42231,"lng":140.298998,"zip":"9993511"},{"town":"谷地","koaza":"己","lat":38.43636,"lng":140.296602,"zip":"9993511"},{"town":"谷地","koaza":"砂田","lat":38.418278,"lng":140.303393,"zip":"9993511"},{"town":"谷地","koaza":"甲","lat":38.434135,"lng":140.297068,"zip":"9993511"},{"town":"谷地","koaza":"高嶋","lat":38.431374,"lng":140.293242,"zip":"9993511"},{"town":"谷地","koaza":"庚","lat":38.436559,"lng":140.300547,"zip":"9993511"},{"town":"谷地","koaza":"丁","lat":38.431076,"lng":140.293168,"zip":"9993511"},{"town":"谷地","koaza":"丙","lat":38.434992,"lng":140.297848,"zip":"9993511"},{"town":"谷地","koaza":"辛","lat":38.43456,"lng":140.297698,"zip":"9993511"},{"town":"谷地","koaza":"桑ケ原","lat":38.432835,"lng":140.29583,"zip":"9993511"},{"town":"西里","koaza":"下槇","lat":38.41297,"lng":140.300572,"zip":"9993533"},{"town":"谷地","koaza":"岩木","lat":38.435237,"lng":140.300559,"zip":"9993511"},{"town":"谷地","koaza":"十二堂","lat":38.429501,"lng":140.305231,"zip":"9993511"},{"town":"谷地","koaza":"布田","lat":38.437678,"lng":140.302356,"zip":"9993511"},{"town":"大字溝延","koaza":"黒木渕","lat":38.392455,"lng":140.306626,"zip":"9993500"},{"town":"谷地","koaza":"谷地","lat":38.425495,"lng":140.316315,"zip":"9993511"},{"town":"大字溝延","koaza":"西浦","lat":38.397706,"lng":140.308088,"zip":"9993500"},{"town":"谷地","koaza":"月山堂","lat":38.413197,"lng":140.315443,"zip":"9993511"},{"town":"谷地","koaza":"要害","lat":38.413832,"lng":140.305414,"zip":"9993511"},{"town":"大字岩木","koaza":"岩木","lat":38.450064,"lng":140.311575,"zip":"9993500"},{"town":"大字岩木","koaza":"童子","lat":38.448672,"lng":140.310037,"zip":"9993500"},{"town":"谷地","koaza":"田中","lat":38.42161,"lng":140.311158,"zip":"9993511"},{"town":"大字岩木","koaza":"岩木東","lat":38.45248,"lng":140.311549,"zip":"9993500"},{"town":"谷地","koaza":"所岡","lat":38.429243,"lng":140.310457,"zip":"9993511"},{"town":"大字溝延","koaza":"境田","lat":38.394418,"lng":140.307788,"zip":"9993500"},{"town":"大字溝延","koaza":"西小路","lat":38.395713,"lng":140.308796,"zip":"9993500"},{"town":"大字溝延","koaza":"稲荷原","lat":38.389394,"lng":140.314957,"zip":"9993500"},{"town":"大字溝延","koaza":"八幡小路","lat":38.393975,"lng":140.309055,"zip":"9993500"},{"town":"大字溝延","koaza":"浦小路","lat":38.397618,"lng":140.309554,"zip":"9993500"},{"town":"大字溝延","koaza":"千苅","lat":38.398364,"lng":140.310807,"zip":"9993500"},{"town":"大字溝延","koaza":"南","lat":38.392913,"lng":140.312363,"zip":"9993500"},{"town":"大字溝延","koaza":"馬場","lat":38.406908,"lng":140.314184,"zip":"9993500"},{"town":"大字溝延","koaza":"内堀","lat":38.393531,"lng":140.311656,"zip":"9993500"},{"town":"大字溝延","koaza":"北口","lat":38.396698,"lng":140.310805,"zip":"9993500"},{"town":"大字溝延","koaza":"楯","lat":38.395044,"lng":140.312682,"zip":"9993500"},{"town":"谷地","koaza":"霊堂","lat":38.434779,"lng":140.313375,"zip":"9993511"},{"town":"大字溝延","koaza":"寺屋敷","lat":38.392397,"lng":140.310074,"zip":"9993500"},{"town":"大字吉田","koaza":"馬場","lat":38.442246,"lng":140.315683,"zip":"9993500"},{"town":"大字溝延","koaza":"本丸","lat":38.395474,"lng":140.311761,"zip":"9993500"},{"town":"大字溝延","koaza":"横町","lat":38.393381,"lng":140.310666,"zip":"9993500"},{"town":"大字溝延","koaza":"田中","lat":38.392211,"lng":140.311942,"zip":"9993500"},{"town":"大字溝延","koaza":"内小路","lat":38.393164,"lng":140.313134,"zip":"9993500"},{"town":"大字溝延","koaza":"東","lat":38.395128,"lng":140.313857,"zip":"9993500"},{"town":"大字溝延","koaza":"小堤","lat":38.398295,"lng":140.317444,"zip":"9993500"},{"town":"大字溝延","koaza":"毘沙門","lat":38.38973,"lng":140.316942,"zip":"9993500"},{"town":"大字溝延","koaza":"東浦","lat":38.393144,"lng":140.316839,"zip":"9993500"},{"town":"大字吉田","koaza":"花ノ木","lat":38.448618,"lng":140.318736,"zip":"9993500"},{"town":"大字吉田","koaza":"吉田","lat":38.439413,"lng":140.318314,"zip":"9993500"},{"town":"大字吉田","koaza":"霊堂","lat":38.436788,"lng":140.315995,"zip":"9993500"},{"town":"大字溝延","koaza":"吉原","lat":38.405164,"lng":140.319111,"zip":"9993500"},{"town":"大字岩木","koaza":"原ノ内","lat":38.455525,"lng":140.317067,"zip":"9993500"},{"town":"谷地","koaza":"荒町東","lat":38.419315,"lng":140.318183,"zip":"9993511"},{"town":"谷地","koaza":"東","lat":38.42772,"lng":140.323546,"zip":"9993511"},{"town":"大字溝延","koaza":"舟戸下","lat":38.387822,"lng":140.318363,"zip":"9993500"},{"town":"谷地","koaza":"鉾江","lat":38.4227,"lng":140.319193,"zip":"9993511"},{"town":"大字溝延","koaza":"前野","lat":38.388385,"lng":140.318643,"zip":"9993500"},{"town":"大字吉田","koaza":"吉田東","lat":38.438293,"lng":140.319722,"zip":"9993500"},{"town":"谷地","koaza":"真木","lat":38.411179,"lng":140.323731,"zip":"9993511"},{"town":"大字新吉田","koaza":"新吉田","lat":38.452722,"lng":140.322478,"zip":"9993500"},{"town":"大字吉田","koaza":"原ノ内","lat":38.452987,"lng":140.320507,"zip":"9993500"},{"town":"谷地","koaza":"下野","lat":38.41996,"lng":140.324397,"zip":"9993511"},{"town":"大字田井","koaza":"田中","lat":38.402584,"lng":140.323953,"zip":"9993500"},{"town":"大字田井","koaza":"荷渡","lat":38.406105,"lng":140.323739,"zip":"9993500"},{"town":"大字田井","koaza":"中曽根","lat":38.405202,"lng":140.324433,"zip":"9993500"},{"town":"大字田井","koaza":"中宿","lat":38.404523,"lng":140.326854,"zip":"9993500"},{"town":"大字田井","koaza":"下宿","lat":38.407096,"lng":140.326796,"zip":"9993500"},{"town":"大字田井","koaza":"苅杭田","lat":38.407106,"lng":140.328182,"zip":"9993500"},{"town":"谷地","koaza":"吉田東","lat":38.436054,"lng":140.329763,"zip":"9993511"},{"town":"谷地","koaza":"下釜","lat":38.435675,"lng":140.330135,"zip":"9993511"},{"town":"谷地","koaza":"海老鶴","lat":38.441486,"lng":140.334894,"zip":"9993511"},{"town":"谷地","koaza":"山王","lat":38.420901,"lng":140.334631,"zip":"9993511"},{"town":"谷地","koaza":"置上","lat":38.446089,"lng":140.336076,"zip":"9993511"},{"town":"大字新吉田","koaza":"荒小屋","lat":38.452923,"lng":140.342799,"zip":"9993500"}]