[{"town":"大字左沢","koaza":"","lat":38.383934,"lng":140.204779,"zip":"9901100"},{"town":"大字大鉢","koaza":"","lat":38.39853,"lng":140.103212,"zip":"9901100"},{"town":"大字小見","koaza":"","lat":38.365233,"lng":140.193491,"zip":"9901100"},{"town":"大字荻野","koaza":"","lat":38.365428,"lng":140.180655,"zip":"9901100"},{"town":"大字顔好乙","koaza":"","lat":38.38655,"lng":140.153932,"zip":"9901100"},{"town":"大字顔好甲","koaza":"","lat":38.376013,"lng":140.153505,"zip":"9901100"},{"town":"大字勝生","koaza":"","lat":38.329149,"lng":140.083486,"zip":"9901100"},{"town":"大字黒森","koaza":"","lat":38.387425,"lng":140.08196,"zip":"9901100"},{"town":"大字小釿","koaza":"","lat":38.394818,"lng":140.13946,"zip":"9901100"},{"town":"大字小清","koaza":"","lat":38.343678,"lng":140.088064,"zip":"9901100"},{"town":"大字小柳","koaza":"","lat":38.398541,"lng":140.088058,"zip":"9901100"},{"town":"大字材木","koaza":"","lat":38.361053,"lng":140.125621,"zip":"9901100"},{"town":"大字沢口","koaza":"","lat":38.342187,"lng":140.059714,"zip":"9901100"},{"town":"大字三郷乙","koaza":"","lat":38.341524,"lng":140.205155,"zip":"9901100"},{"town":"大字三郷甲","koaza":"","lat":38.333294,"lng":140.195888,"zip":"9901100"},{"town":"大字三郷丙","koaza":"","lat":38.354211,"lng":140.216649,"zip":"9901100"},{"town":"大字塩野平","koaza":"","lat":38.367028,"lng":140.160886,"zip":"9901100"},{"town":"大字十八才乙","koaza":"","lat":38.389385,"lng":140.133424,"zip":"9901100"},{"town":"大字十八才甲","koaza":"","lat":38.376106,"lng":140.122468,"zip":"9901100"},{"town":"大字月布","koaza":"","lat":38.380698,"lng":140.107779,"zip":"9901100"},{"town":"大字堂屋敷","koaza":"","lat":38.365205,"lng":140.171243,"zip":"9901100"},{"town":"大字所部","koaza":"","lat":38.361829,"lng":140.146012,"zip":"9901100"},{"town":"大字富沢","koaza":"","lat":38.356653,"lng":140.194365,"zip":"9901100"},{"town":"大字楢山","koaza":"","lat":38.396387,"lng":140.117893,"zip":"9901100"},{"town":"大字貫見","koaza":"","lat":38.369221,"lng":140.09898,"zip":"9901100"},{"town":"大字橋上","koaza":"","lat":38.375846,"lng":140.135375,"zip":"9901100"},{"town":"大字原田","koaza":"","lat":38.380315,"lng":140.19389,"zip":"9901100"},{"town":"大字藤田","koaza":"","lat":38.369388,"lng":140.208583,"zip":"9901100"},{"town":"大字本郷乙","koaza":"","lat":38.379077,"lng":140.166931,"zip":"9901100"},{"town":"大字本郷己","koaza":"","lat":38.376239,"lng":140.199033,"zip":"9901100"},{"town":"大字本郷甲","koaza":"","lat":38.388276,"lng":140.161721,"zip":"9901100"},{"town":"大字本郷丁","koaza":"","lat":38.384472,"lng":140.181934,"zip":"9901100"},{"town":"大字本郷丙","koaza":"","lat":38.381351,"lng":140.174954,"zip":"9901100"},{"town":"大字本郷戊","koaza":"","lat":38.391415,"lng":140.183014,"zip":"9901100"},{"town":"大字柳川","koaza":"","lat":38.337402,"lng":140.027446,"zip":"9901100"},{"town":"大字藤田","koaza":"山中","lat":38.366233,"lng":140.208309,"zip":"9901100"}]