[{"town":"大字岩倉","koaza":"","lat":37.870791,"lng":139.810091,"zip":"9990600"},{"town":"大字宇津沢","koaza":"","lat":37.943777,"lng":139.868456,"zip":"9990600"},{"town":"大字上原","koaza":"","lat":37.912615,"lng":139.911872,"zip":"9990600"},{"town":"大字遅谷","koaza":"","lat":37.894455,"lng":139.872579,"zip":"9990600"},{"town":"大字数馬","koaza":"","lat":37.952444,"lng":139.903902,"zip":"9990600"},{"town":"大字上屋地","koaza":"","lat":37.908318,"lng":139.867892,"zip":"9990600"},{"town":"大字川内戸","koaza":"","lat":37.909499,"lng":139.854697,"zip":"9990600"},{"town":"大字黒沢","koaza":"","lat":38.061056,"lng":140.015249,"zip":"9990600"},{"town":"大字小白川","koaza":"","lat":38.063451,"lng":139.924765,"zip":"9990600"},{"town":"大字小屋","koaza":"","lat":37.874151,"lng":139.928144,"zip":"9990600"},{"town":"大字下屋地","koaza":"","lat":37.925477,"lng":139.866856,"zip":"9990600"},{"town":"大字白川","koaza":"","lat":37.926661,"lng":139.85309,"zip":"9990600"},{"town":"大字須郷","koaza":"","lat":37.921592,"lng":139.933227,"zip":"9990600"},{"town":"大字添川","koaza":"","lat":38.03007,"lng":140.014686,"zip":"9990600"},{"town":"大字高造路","koaza":"","lat":37.893546,"lng":139.851576,"zip":"9990600"},{"town":"大字高峰","koaza":"","lat":37.977732,"lng":139.92215,"zip":"9990600"},{"town":"大字椿","koaza":"","lat":38.044286,"lng":139.985694,"zip":"9990600"},{"town":"大字手ノ子","koaza":"","lat":38.009838,"lng":139.952849,"zip":"9990600"},{"town":"大字中","koaza":"","lat":38.080443,"lng":139.985845,"zip":"9990600"},{"town":"大字萩生","koaza":"","lat":38.078786,"lng":139.948327,"zip":"9990600"},{"town":"大字広河原","koaza":"","lat":37.858494,"lng":139.871697,"zip":"9990600"},{"town":"大字松原","koaza":"","lat":38.026995,"lng":139.991267,"zip":"9990600"}]