[{"town":"大字浅立","koaza":"","lat":38.141804,"lng":140.067618,"zip":"9920800"},{"town":"大字鮎貝","koaza":"","lat":38.199046,"lng":140.073004,"zip":"9920800"},{"town":"大字荒砥乙","koaza":"","lat":38.176205,"lng":140.111019,"zip":"9920800"},{"town":"大字荒砥甲","koaza":"","lat":38.183968,"lng":140.094741,"zip":"9920800"},{"town":"大字大瀬","koaza":"","lat":38.240829,"lng":140.106513,"zip":"9920800"},{"town":"大字黒鴨","koaza":"","lat":38.217782,"lng":140.017401,"zip":"9920800"},{"town":"大字畔藤","koaza":"","lat":38.156648,"lng":140.106017,"zip":"9920800"},{"town":"大字佐野原","koaza":"","lat":38.230048,"lng":140.097534,"zip":"9920800"},{"town":"大字下山","koaza":"","lat":38.217453,"lng":140.107387,"zip":"9920800"},{"town":"大字十王","koaza":"","lat":38.182378,"lng":140.127538,"zip":"9920800"},{"town":"大字菖蒲","koaza":"","lat":38.198535,"lng":140.105593,"zip":"9920800"},{"town":"大字高岡","koaza":"","lat":38.213776,"lng":140.091083,"zip":"9920800"},{"town":"大字高玉","koaza":"","lat":38.172876,"lng":140.033379,"zip":"9920800"},{"town":"大字滝野","koaza":"","lat":38.200036,"lng":140.144485,"zip":"9920800"},{"town":"大字栃窪","koaza":"","lat":38.244818,"lng":140.067387,"zip":"9920800"},{"town":"大字中山","koaza":"","lat":38.233894,"lng":140.150777,"zip":"9920800"},{"town":"大字萩野","koaza":"","lat":38.21276,"lng":140.132317,"zip":"9920800"},{"town":"大字針生","koaza":"","lat":38.245209,"lng":140.131216,"zip":"9920800"},{"town":"大字広野","koaza":"","lat":38.157704,"lng":140.067408,"zip":"9920800"},{"town":"大字箕和田","koaza":"","lat":38.198787,"lng":140.081578,"zip":"9920800"},{"town":"大字深山","koaza":"","lat":38.213889,"lng":140.073245,"zip":"9920800"},{"town":"大字山口","koaza":"","lat":38.196001,"lng":140.044496,"zip":"9920800"},{"town":"大字横田尻","koaza":"","lat":38.180583,"lng":140.042051,"zip":"9920800"}]