[{"town":"相生町一丁目","koaza":"","lat":38.91877,"lng":139.843169,"zip":"9980032"},{"town":"相生町二丁目","koaza":"","lat":38.919137,"lng":139.84123,"zip":"9980032"},{"town":"相沢","koaza":"","lat":38.875652,"lng":139.948233,"zip":"9996852"},{"town":"赤剥","koaza":"","lat":38.987142,"lng":139.998034,"zip":"9998203"},{"town":"あきほ町","koaza":"","lat":38.889958,"lng":139.8514,"zip":"9980828"},{"town":"曙町一丁目","koaza":"","lat":38.920132,"lng":139.860723,"zip":"9980862"},{"town":"曙町二丁目","koaza":"","lat":38.919456,"lng":139.864472,"zip":"9980862"},{"town":"字荒町","koaza":"","lat":38.854657,"lng":139.959221,"zip":"9980000"},{"town":"字稲荷沢","koaza":"","lat":38.858067,"lng":139.966925,"zip":"9980000"},{"town":"字内町","koaza":"","lat":38.858615,"lng":139.9599,"zip":"9980000"},{"town":"字扇谷地","koaza":"","lat":38.893948,"lng":139.859521,"zip":"9980000"},{"town":"字片町","koaza":"","lat":38.861915,"lng":139.957652,"zip":"9980000"},{"town":"字金谷","koaza":"","lat":38.86257,"lng":139.957281,"zip":"9980000"},{"town":"字北町","koaza":"","lat":38.861673,"lng":139.959624,"zip":"9980000"},{"town":"字蔵小路","koaza":"","lat":38.857272,"lng":139.957982,"zip":"9980000"},{"town":"字古湊","koaza":"","lat":38.951336,"lng":139.825008,"zip":"9980000"},{"town":"字肴町","koaza":"","lat":38.858575,"lng":139.956388,"zip":"9980000"},{"town":"字鷺谷地","koaza":"","lat":38.894557,"lng":139.856758,"zip":"9980000"},{"town":"字下瀬","koaza":"","lat":38.912364,"lng":139.827368,"zip":"9980000"},{"town":"字真学寺沢","koaza":"","lat":38.853999,"lng":139.966436,"zip":"9980000"},{"town":"字心光寺沢","koaza":"","lat":38.863039,"lng":139.969533,"zip":"9980000"},{"town":"字新町","koaza":"","lat":38.859659,"lng":139.955455,"zip":"9980000"},{"town":"字新屋敷","koaza":"","lat":38.860075,"lng":139.959733,"zip":"9980000"},{"town":"字総光寺沢","koaza":"","lat":38.860353,"lng":139.967427,"zip":"9980000"},{"town":"字外山越","koaza":"","lat":38.85732,"lng":139.975583,"zip":"9980000"},{"town":"字仲町","koaza":"","lat":38.856832,"lng":139.961023,"zip":"9980000"},{"town":"字中森","koaza":"","lat":38.865566,"lng":139.962901,"zip":"9980000"},{"town":"字西田","koaza":"","lat":38.854603,"lng":139.955088,"zip":"9980000"},{"town":"字仁助谷地","koaza":"","lat":38.898209,"lng":139.865051,"zip":"9980000"},{"town":"旭新町","koaza":"","lat":38.923591,"lng":139.851035,"zip":"9980021"},{"town":"字朴ノ木沢","koaza":"","lat":38.863953,"lng":139.963788,"zip":"9980000"},{"town":"字本町","koaza":"","lat":38.857032,"lng":139.95688,"zip":"9980000"},{"town":"字南新屋敷","koaza":"","lat":38.85331,"lng":139.961748,"zip":"9980000"},{"town":"字南町","koaza":"","lat":38.855114,"lng":139.960396,"zip":"9980000"},{"town":"字妙香寺沢","koaza":"","lat":38.856336,"lng":139.966642,"zip":"9980000"},{"town":"字元新屋敷","koaza":"","lat":38.85456,"lng":139.961425,"zip":"9980000"},{"town":"字山田","koaza":"","lat":38.85847,"lng":139.953465,"zip":"9980000"},{"town":"飛鳥","koaza":"","lat":38.885965,"lng":139.925645,"zip":"9996711"},{"town":"東町一丁目","koaza":"","lat":38.908973,"lng":139.861193,"zip":"9980875"},{"town":"東町二丁目","koaza":"","lat":38.906516,"lng":139.860482,"zip":"9980875"},{"town":"飯森山一丁目","koaza":"","lat":38.89615,"lng":139.820407,"zip":"9980055"},{"town":"飯森山二丁目","koaza":"","lat":38.889983,"lng":139.823592,"zip":"9980055"},{"town":"飯森山三丁目","koaza":"","lat":38.894455,"lng":139.817739,"zip":"9980055"},{"town":"石名坂","koaza":"","lat":38.883406,"lng":139.941932,"zip":"9996853"},{"town":"石橋","koaza":"","lat":38.902796,"lng":139.912976,"zip":"9996704"},{"town":"泉興野","koaza":"","lat":38.896597,"lng":139.92041,"zip":"9996708"},{"town":"泉町","koaza":"","lat":38.931547,"lng":139.843632,"zip":"9980018"},{"town":"板戸","koaza":"","lat":38.866367,"lng":139.857561,"zip":"9997774"},{"town":"市条","koaza":"","lat":38.960674,"lng":139.944273,"zip":"9998232"},{"town":"一番町","koaza":"","lat":38.915106,"lng":139.842037,"zip":"9980046"},{"town":"入船町","koaza":"","lat":38.908233,"lng":139.830942,"zip":"9980836"},{"town":"臼ケ沢","koaza":"","lat":38.827466,"lng":139.985144,"zip":"9996815"},{"town":"漆曽根","koaza":"","lat":38.929238,"lng":139.884374,"zip":"9998164"},{"town":"駅東一丁目","koaza":"","lat":38.924911,"lng":139.845833,"zip":"9980022"},{"town":"駅東二丁目","koaza":"","lat":38.924728,"lng":139.848682,"zip":"9980022"},{"town":"円能寺","koaza":"","lat":38.939813,"lng":139.908,"zip":"9998153"},{"town":"生石","koaza":"","lat":38.923434,"lng":139.94659,"zip":"9980802"},{"town":"大川渡","koaza":"","lat":38.801432,"lng":139.999323,"zip":"9996813"},{"town":"大久保","koaza":"","lat":38.976945,"lng":139.918779,"zip":"9998244"},{"town":"大島田","koaza":"","lat":38.955377,"lng":139.915786,"zip":"9998225"},{"town":"大多新田","koaza":"","lat":38.918227,"lng":139.868659,"zip":"9980877"},{"town":"大槻新田","koaza":"","lat":38.91591,"lng":139.920379,"zip":"9980803"},{"town":"大豊田","koaza":"","lat":38.968757,"lng":139.917421,"zip":"9998133"},{"town":"大沼新田","koaza":"","lat":38.827113,"lng":139.970728,"zip":"9996816"},{"town":"大野新田","koaza":"","lat":38.899812,"lng":139.880638,"zip":"9980816"},{"town":"大浜一丁目","koaza":"","lat":38.926449,"lng":139.821397,"zip":"9980064"},{"town":"大浜二丁目","koaza":"","lat":38.93068,"lng":139.81654,"zip":"9980064"},{"town":"大町","koaza":"","lat":38.90388,"lng":139.872008,"zip":"9980859"},{"town":"大宮","koaza":"","lat":38.892267,"lng":139.863504,"zip":"9980822"},{"town":"大宮町一丁目","koaza":"","lat":38.889425,"lng":139.857263,"zip":"9980824"},{"town":"大宮町二丁目","koaza":"","lat":38.885141,"lng":139.853971,"zip":"9980824"},{"town":"大宮町三丁目","koaza":"","lat":38.883855,"lng":139.860338,"zip":"9980824"},{"town":"大宮町四丁目","koaza":"","lat":38.886782,"lng":139.862252,"zip":"9980824"},{"town":"大蕨","koaza":"","lat":38.972057,"lng":139.989005,"zip":"9998215"},{"town":"岡島田","koaza":"","lat":38.950552,"lng":139.919323,"zip":"9998227"},{"town":"荻島","koaza":"","lat":38.918312,"lng":139.886674,"zip":"9980871"},{"town":"落野目","koaza":"","lat":38.881769,"lng":139.844757,"zip":"9997775"},{"town":"御成町","koaza":"","lat":38.924198,"lng":139.841479,"zip":"9980024"},{"town":"小見","koaza":"","lat":38.888741,"lng":139.955749,"zip":"9996845"},{"town":"卸町","koaza":"","lat":38.886499,"lng":139.856332,"zip":"9980823"},{"town":"柏谷沢","koaza":"","lat":38.782827,"lng":140.040274,"zip":"9996811"},{"town":"勝保関","koaza":"","lat":38.905003,"lng":139.884082,"zip":"9980818"},{"town":"門田","koaza":"","lat":38.857607,"lng":139.876278,"zip":"9997772"},{"town":"上青沢","koaza":"","lat":38.956482,"lng":140.045361,"zip":"9998212"},{"town":"上北目","koaza":"","lat":38.888797,"lng":139.975453,"zip":"9996843"},{"town":"上黒川","koaza":"","lat":39.000114,"lng":140.004031,"zip":"9998206"},{"town":"上興野","koaza":"","lat":38.941403,"lng":139.889787,"zip":"9998163"},{"town":"上野曽根","koaza":"","lat":38.944394,"lng":139.882697,"zip":"9998162"},{"town":"上本町","koaza":"","lat":38.911837,"lng":139.841068,"zip":"9980042"},{"town":"上餅山","koaza":"","lat":38.884177,"lng":139.968483,"zip":"9996842"},{"town":"上安田","koaza":"","lat":38.950083,"lng":139.905305,"zip":"9998152"},{"town":"上安町一丁目","koaza":"","lat":38.927679,"lng":139.860405,"zip":"9980011"},{"town":"上安町二丁目","koaza":"","lat":38.927533,"lng":139.863619,"zip":"9980011"},{"town":"上安町三丁目","koaza":"","lat":38.929175,"lng":139.866071,"zip":"9980011"},{"town":"亀ケ崎一丁目","koaza":"","lat":38.908678,"lng":139.841457,"zip":"9980842"},{"town":"亀ケ崎二丁目","koaza":"","lat":38.907142,"lng":139.845476,"zip":"9980842"},{"town":"亀ケ崎三丁目","koaza":"","lat":38.903417,"lng":139.845307,"zip":"9980842"},{"town":"亀ケ崎四丁目","koaza":"","lat":38.900976,"lng":139.842555,"zip":"9980842"},{"town":"亀ケ崎五丁目","koaza":"","lat":38.899028,"lng":139.849414,"zip":"9980842"},{"town":"亀ケ崎六丁目","koaza":"","lat":38.898092,"lng":139.845568,"zip":"9980842"},{"town":"亀ケ崎七丁目","koaza":"","lat":38.897041,"lng":139.849129,"zip":"9980842"},{"town":"刈穂","koaza":"","lat":38.959374,"lng":139.908372,"zip":"9998143"},{"town":"刈屋","koaza":"","lat":38.97474,"lng":139.906463,"zip":"9998132"},{"town":"観音寺","koaza":"","lat":38.972323,"lng":139.939367,"zip":"9998235"},{"town":"木川","koaza":"","lat":38.864229,"lng":139.87804,"zip":"9997773"},{"town":"北青沢","koaza":"","lat":38.974081,"lng":140.036578,"zip":"9998211"},{"town":"北今町","koaza":"","lat":38.924018,"lng":139.834904,"zip":"9980027"},{"town":"北里町","koaza":"","lat":38.925864,"lng":139.835185,"zip":"9980028"},{"town":"北沢","koaza":"","lat":38.932415,"lng":139.941774,"zip":"9980801"},{"town":"北仁田","koaza":"","lat":38.975473,"lng":139.931003,"zip":"9998243"},{"town":"北新橋一丁目","koaza":"","lat":38.923361,"lng":139.855577,"zip":"9980865"},{"town":"北新橋二丁目","koaza":"","lat":38.925602,"lng":139.85605,"zip":"9980865"},{"town":"北新町一丁目","koaza":"","lat":38.924012,"lng":139.832005,"zip":"9980062"},{"town":"北新町二丁目","koaza":"","lat":38.923648,"lng":139.828464,"zip":"9980062"},{"town":"北千日町","koaza":"","lat":38.934427,"lng":139.83857,"zip":"9980016"},{"town":"北千日堂前","koaza":"","lat":38.934447,"lng":139.835457,"zip":"9980015"},{"town":"北平沢","koaza":"","lat":38.948237,"lng":139.937898,"zip":"9998222"},{"town":"北俣","koaza":"","lat":38.92274,"lng":140.041146,"zip":"9996741"},{"town":"城輪","koaza":"","lat":38.962889,"lng":139.905372,"zip":"9998142"},{"town":"京田一丁目","koaza":"","lat":38.879758,"lng":139.839387,"zip":"9980102"},{"town":"京田二丁目","koaza":"","lat":38.878187,"lng":139.83707,"zip":"9980102"},{"town":"京田三丁目","koaza":"","lat":38.876787,"lng":139.83453,"zip":"9980102"},{"town":"京田四丁目","koaza":"","lat":38.873258,"lng":139.837341,"zip":"9980102"},{"town":"草津","koaza":"","lat":39.017263,"lng":140.033422,"zip":"9998207"},{"town":"久保田","koaza":"","lat":38.925428,"lng":139.904096,"zip":"9998156"},{"town":"熊手島","koaza":"","lat":38.903506,"lng":139.892865,"zip":"9980817"},{"town":"熊野田","koaza":"","lat":38.914924,"lng":139.891994,"zip":"9980819"},{"town":"黒森","koaza":"","lat":38.849358,"lng":139.815434,"zip":"9980111"},{"town":"こあら一丁目","koaza":"","lat":38.915783,"lng":139.862749,"zip":"9980878"},{"town":"こあら二丁目","koaza":"","lat":38.914572,"lng":139.861456,"zip":"9980878"},{"town":"こあら三丁目","koaza":"","lat":38.911795,"lng":139.862215,"zip":"9980878"},{"town":"古荒新田","koaza":"","lat":38.913998,"lng":139.867189,"zip":"9980876"},{"town":"小泉","koaza":"","lat":38.971194,"lng":139.930974,"zip":"9998234"},{"town":"広栄町一丁目","koaza":"","lat":38.865855,"lng":139.844703,"zip":"9980104"},{"town":"広栄町二丁目","koaza":"","lat":38.861969,"lng":139.845487,"zip":"9980104"},{"town":"広栄町三丁目","koaza":"","lat":38.865058,"lng":139.847425,"zip":"9980104"},{"town":"郡山","koaza":"","lat":38.906265,"lng":139.925308,"zip":"9996707"},{"town":"こがね町一丁目","koaza":"","lat":38.902261,"lng":139.858655,"zip":"9980852"},{"town":"こがね町二丁目","koaza":"","lat":38.897609,"lng":139.856606,"zip":"9980852"},{"town":"寿町","koaza":"","lat":38.920384,"lng":139.835893,"zip":"9980035"},{"town":"小林","koaza":"","lat":38.814902,"lng":140.050214,"zip":"9996735"},{"town":"小牧","koaza":"","lat":38.892697,"lng":139.882582,"zip":"9980815"},{"town":"小牧新田","koaza":"","lat":38.898977,"lng":139.896093,"zip":"9980814"},{"town":"古湊町","koaza":"","lat":38.947606,"lng":139.827037,"zip":"9980071"},{"town":"幸町一丁目","koaza":"","lat":38.923079,"lng":139.84558,"zip":"9980023"},{"town":"幸町二丁目","koaza":"","lat":38.923714,"lng":139.843655,"zip":"9980023"},{"town":"境興野","koaza":"","lat":38.940616,"lng":139.918911,"zip":"9980806"},{"town":"酒井新田","koaza":"","lat":38.938949,"lng":139.841992,"zip":"9980003"},{"town":"栄町","koaza":"","lat":38.923564,"lng":139.837993,"zip":"9980026"},{"town":"坂野辺新田","koaza":"","lat":38.872482,"lng":139.818628,"zip":"9980101"},{"town":"桜林","koaza":"","lat":38.904712,"lng":139.918514,"zip":"9996705"},{"town":"桜林興野","koaza":"","lat":38.908706,"lng":139.92045,"zip":"9996706"},{"town":"砂越","koaza":"","lat":38.889419,"lng":139.900037,"zip":"9996701"},{"town":"砂越緑町一丁目","koaza":"","lat":38.894917,"lng":139.911435,"zip":"9996702"},{"town":"砂越緑町二丁目","koaza":"","lat":38.894597,"lng":139.911104,"zip":"9996702"},{"town":"砂越緑町三丁目","koaza":"","lat":38.894176,"lng":139.910788,"zip":"9996702"},{"town":"砂越緑町四丁目","koaza":"","lat":38.893873,"lng":139.910433,"zip":"9996702"},{"town":"砂越緑町五丁目","koaza":"","lat":38.893536,"lng":139.91015,"zip":"9996702"},{"town":"砂越緑町六丁目","koaza":"","lat":38.893221,"lng":139.909853,"zip":"9996702"},{"town":"山居町一丁目","koaza":"","lat":38.911826,"lng":139.836074,"zip":"9980838"},{"town":"山居町二丁目","koaza":"","lat":38.910517,"lng":139.833508,"zip":"9980838"},{"town":"三之宮","koaza":"","lat":38.898643,"lng":139.934377,"zip":"9996723"},{"town":"地見興屋","koaza":"","lat":38.819027,"lng":139.996581,"zip":"9996814"},{"town":"下青沢","koaza":"","lat":38.958785,"lng":139.993613,"zip":"9998213"},{"town":"下黒川","koaza":"","lat":39.000982,"lng":139.985022,"zip":"9998205"},{"town":"下餅山","koaza":"","lat":38.882501,"lng":139.955009,"zip":"9996846"},{"town":"下安町","koaza":"","lat":38.928801,"lng":139.856271,"zip":"9980012"},{"town":"十里塚","koaza":"","lat":38.879968,"lng":139.806349,"zip":"9980114"},{"town":"常禅寺","koaza":"","lat":38.95665,"lng":139.966829,"zip":"9998214"},{"town":"新出","koaza":"","lat":38.987542,"lng":139.976691,"zip":"9998204"},{"town":"新橋一丁目","koaza":"","lat":38.921014,"lng":139.855112,"zip":"9980864"},{"town":"新橋二丁目","koaza":"","lat":38.918055,"lng":139.854265,"zip":"9980864"},{"town":"新橋三丁目","koaza":"","lat":38.917078,"lng":139.851657,"zip":"9980864"},{"town":"新橋四丁目","koaza":"","lat":38.915216,"lng":139.853689,"zip":"9980864"},{"town":"新橋五丁目","koaza":"","lat":38.914384,"lng":139.85688,"zip":"9980864"},{"town":"末広町","koaza":"","lat":38.90933,"lng":139.849426,"zip":"9980854"},{"town":"住吉町","koaza":"","lat":38.928871,"lng":139.835397,"zip":"9980029"},{"town":"関","koaza":"","lat":38.930091,"lng":139.91574,"zip":"9980805"},{"town":"芹田","koaza":"","lat":38.981823,"lng":139.926284,"zip":"9998246"},{"town":"千石町一丁目","koaza":"","lat":38.908328,"lng":139.837681,"zip":"9980843"},{"town":"千石町二丁目","koaza":"","lat":38.904436,"lng":139.838903,"zip":"9980843"},{"town":"千日町","koaza":"","lat":38.929185,"lng":139.839451,"zip":"9980014"},{"town":"曽根田","koaza":"","lat":38.931739,"lng":139.903428,"zip":"9998155"},{"town":"高砂","koaza":"","lat":38.945764,"lng":139.817298,"zip":"9980075"},{"town":"高砂一丁目","koaza":"","lat":38.941614,"lng":139.825564,"zip":"9980075"},{"town":"高砂二丁目","koaza":"","lat":38.941889,"lng":139.822034,"zip":"9980075"},{"town":"高砂三丁目","koaza":"","lat":38.942706,"lng":139.824279,"zip":"9980075"},{"town":"高砂四丁目","koaza":"","lat":38.945409,"lng":139.824713,"zip":"9980075"},{"town":"高見台一丁目","koaza":"","lat":38.902675,"lng":139.820716,"zip":"9980051"},{"town":"高見台二丁目","koaza":"","lat":38.901064,"lng":139.819686,"zip":"9980051"},{"town":"竹田","koaza":"","lat":38.857834,"lng":139.946393,"zip":"9996848"},{"town":"田沢","koaza":"","lat":38.872841,"lng":139.988,"zip":"9996731"},{"town":"楯山","koaza":"","lat":38.863948,"lng":140.055561,"zip":"9996732"},{"town":"中央西町","koaza":"","lat":38.920119,"lng":139.838099,"zip":"9980034"},{"town":"中央東町","koaza":"","lat":38.919639,"lng":139.839566,"zip":"9980033"},{"town":"千代田","koaza":"","lat":38.99451,"lng":139.886021,"zip":"9998422"},{"town":"塚渕","koaza":"","lat":38.980972,"lng":139.91233,"zip":"9980000"},{"town":"土崎","koaza":"","lat":38.911777,"lng":139.875148,"zip":"9980873"},{"town":"土渕","koaza":"","lat":38.864301,"lng":139.976199,"zip":"9996839"},{"town":"堤町","koaza":"","lat":38.905381,"lng":139.832842,"zip":"9980835"},{"town":"局","koaza":"","lat":38.852332,"lng":139.882832,"zip":"9997771"},{"town":"鶴田","koaza":"","lat":38.941484,"lng":139.875042,"zip":"9998168"},{"town":"手蔵田","koaza":"","lat":38.912252,"lng":139.907025,"zip":"9980811"},{"town":"寺田","koaza":"","lat":38.95133,"lng":139.933383,"zip":"9998221"},{"town":"天神堂","koaza":"","lat":38.898145,"lng":139.915137,"zip":"9996703"},{"town":"東栄町","koaza":"","lat":38.914575,"lng":139.847307,"zip":"9980856"},{"town":"飛島","koaza":"","lat":39.195004,"lng":139.54973,"zip":"9980281"},{"town":"豊里","koaza":"","lat":38.944685,"lng":139.845652,"zip":"9980004"},{"town":"豊原","koaza":"","lat":38.963019,"lng":139.895572,"zip":"9998141"},{"town":"泥沢","koaza":"","lat":38.986999,"lng":140.018514,"zip":"9998202"},{"town":"中北目","koaza":"","lat":38.892811,"lng":139.964907,"zip":"9996844"},{"town":"中野新田","koaza":"","lat":38.910859,"lng":139.886037,"zip":"9980872"},{"town":"中野曽根","koaza":"","lat":38.932446,"lng":139.878017,"zip":"9998165"},{"town":"中野俣","koaza":"","lat":38.893918,"lng":140.052498,"zip":"9996727"},{"town":"中野目","koaza":"","lat":38.902531,"lng":139.932049,"zip":"9996722"},{"town":"中牧田","koaza":"","lat":38.870413,"lng":139.942666,"zip":"9996851"},{"town":"中町一丁目","koaza":"","lat":38.916342,"lng":139.838187,"zip":"9980044"},{"town":"中町二丁目","koaza":"","lat":38.916857,"lng":139.835897,"zip":"9980044"},{"town":"中町三丁目","koaza":"","lat":38.91759,"lng":139.833968,"zip":"9980044"},{"town":"楢橋","koaza":"","lat":38.893931,"lng":139.946085,"zip":"9996712"},{"town":"成興野","koaza":"","lat":38.800566,"lng":140.016329,"zip":"9996812"},{"town":"新青渡","koaza":"","lat":38.92618,"lng":139.895194,"zip":"9998157"},{"town":"新井田町","koaza":"","lat":38.914513,"lng":139.844503,"zip":"9980041"},{"town":"新堀","koaza":"","lat":38.873784,"lng":139.879045,"zip":"9997776"},{"town":"錦町一丁目","koaza":"","lat":38.882279,"lng":139.835527,"zip":"9980103"},{"town":"錦町二丁目","koaza":"","lat":38.882246,"lng":139.833179,"zip":"9980103"},{"town":"錦町三丁目","koaza":"","lat":38.883289,"lng":139.831634,"zip":"9980103"},{"town":"錦町四丁目","koaza":"","lat":38.877617,"lng":139.831147,"zip":"9980103"},{"town":"錦町五丁目","koaza":"","lat":38.87753,"lng":139.832759,"zip":"9980103"},{"town":"西坂本","koaza":"","lat":38.847097,"lng":139.995836,"zip":"9996733"},{"town":"西野町","koaza":"","lat":38.937294,"lng":139.838542,"zip":"9980017"},{"town":"二番町","koaza":"","lat":38.915599,"lng":139.840044,"zip":"9980045"},{"town":"庭田","koaza":"","lat":38.957635,"lng":139.887446,"zip":"9998144"},{"town":"布目","koaza":"","lat":38.936781,"lng":139.898324,"zip":"9998158"},{"town":"橋本","koaza":"","lat":38.981672,"lng":139.934892,"zip":"9998242"},{"town":"浜田一丁目","koaza":"","lat":38.917632,"lng":139.846743,"zip":"9980031"},{"town":"浜田二丁目","koaza":"","lat":38.919959,"lng":139.850266,"zip":"9980031"},{"town":"浜中","koaza":"","lat":38.83348,"lng":139.796075,"zip":"9980112"},{"town":"浜松町","koaza":"","lat":38.937068,"lng":139.820851,"zip":"9980074"},{"town":"茨野新田","koaza":"","lat":38.898914,"lng":139.907492,"zip":"9980813"},{"town":"東泉町一丁目","koaza":"","lat":38.928833,"lng":139.845197,"zip":"9980013"},{"town":"東泉町二丁目","koaza":"","lat":38.927978,"lng":139.85048,"zip":"9980013"},{"town":"東泉町三丁目","koaza":"","lat":38.931368,"lng":139.847753,"zip":"9980013"},{"town":"東泉町四丁目","koaza":"","lat":38.931476,"lng":139.852534,"zip":"9980013"},{"town":"東泉町五丁目","koaza":"","lat":38.934225,"lng":139.850831,"zip":"9980013"},{"town":"東泉町六丁目","koaza":"","lat":38.935677,"lng":139.851919,"zip":"9980013"},{"town":"東大町一丁目","koaza":"","lat":38.910709,"lng":139.855762,"zip":"9980851"},{"town":"東大町二丁目","koaza":"","lat":38.907888,"lng":139.855295,"zip":"9980851"},{"town":"東大町三丁目","koaza":"","lat":38.905003,"lng":139.860792,"zip":"9980851"},{"town":"東中の口町","koaza":"","lat":38.910926,"lng":139.845415,"zip":"9980855"},{"town":"東両羽町","koaza":"","lat":38.893863,"lng":139.850401,"zip":"9980831"},{"town":"光ケ丘一丁目","koaza":"","lat":38.928546,"lng":139.831356,"zip":"9980061"},{"town":"光ケ丘二丁目","koaza":"","lat":38.92663,"lng":139.828224,"zip":"9980061"},{"town":"光ケ丘三丁目","koaza":"","lat":38.933149,"lng":139.829307,"zip":"9980061"},{"town":"光ケ丘四丁目","koaza":"","lat":38.936325,"lng":139.82745,"zip":"9980061"},{"town":"光ケ丘五丁目","koaza":"","lat":38.935391,"lng":139.824028,"zip":"9980061"},{"town":"引地","koaza":"","lat":38.870472,"lng":139.950704,"zip":"9996847"},{"town":"日の出町一丁目","koaza":"","lat":38.917565,"lng":139.860125,"zip":"9980863"},{"town":"日の出町二丁目","koaza":"","lat":38.917389,"lng":139.863635,"zip":"9980863"},{"town":"日吉町一丁目","koaza":"","lat":38.920813,"lng":139.832059,"zip":"9980037"},{"town":"日吉町二丁目","koaza":"","lat":38.918727,"lng":139.830681,"zip":"9980037"},{"town":"広岡新田","koaza":"","lat":38.825604,"lng":139.806983,"zip":"9980113"},{"town":"広野","koaza":"","lat":38.849795,"lng":139.844046,"zip":"9980125"},{"town":"広野新田","koaza":"","lat":38.828571,"lng":139.838027,"zip":"9980105"},{"town":"福岡","koaza":"","lat":38.831822,"lng":139.855914,"zip":"9980000"},{"town":"福山","koaza":"","lat":38.988267,"lng":139.952142,"zip":"9998241"},{"town":"藤塚","koaza":"","lat":38.956834,"lng":139.857087,"zip":"9980002"},{"town":"富士見町一丁目","koaza":"","lat":38.923977,"lng":139.859691,"zip":"9980861"},{"town":"富士見町二丁目","koaza":"","lat":38.923198,"lng":139.862245,"zip":"9980861"},{"town":"富士見町三丁目","koaza":"","lat":38.922004,"lng":139.865252,"zip":"9980861"},{"town":"船場町一丁目","koaza":"","lat":38.917585,"lng":139.82875,"zip":"9980036"},{"town":"船場町二丁目","koaza":"","lat":38.915127,"lng":139.82994,"zip":"9980036"},{"town":"麓","koaza":"","lat":38.976224,"lng":139.948128,"zip":"9998231"},{"town":"古青渡","koaza":"","lat":38.934653,"lng":139.905666,"zip":"9998154"},{"town":"法連寺","koaza":"","lat":38.964341,"lng":139.929299,"zip":"9998233"},{"town":"穂積","koaza":"","lat":38.97177,"lng":139.862008,"zip":"9998131"},{"town":"堀野内","koaza":"","lat":38.898667,"lng":139.92575,"zip":"9996721"},{"town":"本川","koaza":"","lat":38.903744,"lng":139.905718,"zip":"9980812"},{"town":"本町一丁目","koaza":"","lat":38.912458,"lng":139.838693,"zip":"9980043"},{"town":"本町二丁目","koaza":"","lat":38.913714,"lng":139.836849,"zip":"9980043"},{"town":"本町三丁目","koaza":"","lat":38.914756,"lng":139.833966,"zip":"9980043"},{"town":"前川","koaza":"","lat":38.945293,"lng":139.913224,"zip":"9998224"},{"town":"牧曽根","koaza":"","lat":38.935592,"lng":139.872647,"zip":"9998166"},{"town":"升田","koaza":"","lat":39.021238,"lng":140.049361,"zip":"9998201"},{"town":"松原南","koaza":"","lat":38.900289,"lng":139.853628,"zip":"9980841"},{"town":"松美町","koaza":"","lat":38.941592,"lng":139.83068,"zip":"9980073"},{"town":"丸沼","koaza":"","lat":38.874673,"lng":139.895743,"zip":"9997777"},{"town":"政所","koaza":"","lat":38.959603,"lng":139.920704,"zip":"9998226"},{"town":"みずほ一丁目","koaza":"","lat":38.905671,"lng":139.849007,"zip":"9980853"},{"town":"みずほ二丁目","koaza":"","lat":38.903104,"lng":139.853129,"zip":"9980853"},{"town":"緑ケ丘一丁目","koaza":"","lat":38.899699,"lng":139.814764,"zip":"9980052"},{"town":"緑ケ丘二丁目","koaza":"","lat":38.894083,"lng":139.808718,"zip":"9980052"},{"town":"緑町","koaza":"","lat":38.912001,"lng":139.852464,"zip":"9980858"},{"town":"南新町一丁目","koaza":"","lat":38.9204,"lng":139.827684,"zip":"9980063"},{"town":"南新町二丁目","koaza":"","lat":38.920505,"lng":139.825129,"zip":"9980063"},{"town":"南千日町","koaza":"","lat":38.925875,"lng":139.838747,"zip":"9980025"},{"town":"南平沢","koaza":"","lat":38.944399,"lng":139.939907,"zip":"9998223"},{"town":"宮内","koaza":"","lat":38.985363,"lng":139.878839,"zip":"9998423"},{"town":"宮海","koaza":"","lat":38.966125,"lng":139.838186,"zip":"9980005"},{"town":"宮野浦","koaza":"","lat":38.909394,"lng":139.807616,"zip":"9980054"},{"town":"宮野浦一丁目","koaza":"","lat":38.906637,"lng":139.817202,"zip":"9980054"},{"town":"宮野浦二丁目","koaza":"","lat":38.906265,"lng":139.81364,"zip":"9980054"},{"town":"宮野浦三丁目","koaza":"","lat":38.910158,"lng":139.813777,"zip":"9980054"},{"town":"茗ケ沢","koaza":"","lat":38.874116,"lng":139.971605,"zip":"9996841"},{"town":"本楯","koaza":"","lat":38.971029,"lng":139.886217,"zip":"9998134"},{"town":"保岡","koaza":"","lat":38.956539,"lng":139.871871,"zip":"9998145"},{"town":"安田","koaza":"","lat":38.947611,"lng":139.896528,"zip":"9998151"},{"town":"山楯","koaza":"","lat":38.904488,"lng":139.945679,"zip":"9996724"},{"town":"山寺","koaza":"","lat":38.8417,"lng":139.965548,"zip":"9996821"},{"town":"山元","koaza":"","lat":38.839768,"lng":140.054312,"zip":"9996734"},{"town":"山谷","koaza":"","lat":38.908695,"lng":139.977802,"zip":"9996726"},{"town":"山谷新田","koaza":"","lat":38.909784,"lng":139.965697,"zip":"9996725"},{"town":"遊摺部","koaza":"","lat":38.888443,"lng":139.871656,"zip":"9980821"},{"town":"ゆたか一丁目","koaza":"","lat":38.934267,"lng":139.843267,"zip":"9980006"},{"town":"ゆたか二丁目","koaza":"","lat":38.937213,"lng":139.845568,"zip":"9980006"},{"town":"ゆたか三丁目","koaza":"","lat":38.937413,"lng":139.8496,"zip":"9980006"},{"town":"横代","koaza":"","lat":38.923758,"lng":139.918354,"zip":"9980804"},{"town":"吉田","koaza":"","lat":38.948172,"lng":139.873247,"zip":"9998161"},{"town":"吉田新田","koaza":"","lat":38.936809,"lng":139.861452,"zip":"9998167"},{"town":"四ツ興野","koaza":"","lat":38.905486,"lng":139.867155,"zip":"9980874"},{"town":"米島","koaza":"","lat":38.983173,"lng":139.89901,"zip":"9998421"},{"town":"両羽町","koaza":"","lat":38.894215,"lng":139.844318,"zip":"9980832"},{"town":"若竹町一丁目","koaza":"","lat":38.906349,"lng":139.835369,"zip":"9980834"},{"town":"若竹町二丁目","koaza":"","lat":38.901744,"lng":139.837504,"zip":"9980834"},{"town":"若浜町","koaza":"","lat":38.914016,"lng":139.849926,"zip":"9980857"},{"town":"若原町","koaza":"","lat":38.898594,"lng":139.840162,"zip":"9980833"},{"town":"若宮町一丁目","koaza":"","lat":38.901774,"lng":139.813093,"zip":"9980053"},{"town":"若宮町二丁目","koaza":"","lat":38.899671,"lng":139.810431,"zip":"9980053"},{"town":"北浜町","koaza":"","lat":38.943775,"lng":139.82913,"zip":"9980072"},{"town":"浜中","koaza":"七窪","lat":38.810311,"lng":139.774632,"zip":"9980112"},{"town":"浜中","koaza":"西割","lat":38.812418,"lng":139.775851,"zip":"9980112"},{"town":"浜中","koaza":"八窪","lat":38.806605,"lng":139.783659,"zip":"9980112"},{"town":"浜中","koaza":"上村","lat":38.824715,"lng":139.779989,"zip":"9980112"},{"town":"浜中","koaza":"下村","lat":38.828542,"lng":139.782431,"zip":"9980112"},{"town":"浜中","koaza":"分散山","lat":38.821354,"lng":139.782619,"zip":"9980112"},{"town":"浜中","koaza":"十二森","lat":38.809549,"lng":139.785882,"zip":"9980112"},{"town":"浜中","koaza":"村北分散","lat":38.833681,"lng":139.787025,"zip":"9980112"},{"town":"浜中","koaza":"村東","lat":38.822341,"lng":139.790259,"zip":"9980112"},{"town":"浜中","koaza":"八間山","lat":38.856387,"lng":139.797764,"zip":"9980112"},{"town":"浜中","koaza":"東割","lat":38.836423,"lng":139.805,"zip":"9980112"},{"town":"十里塚","koaza":"村東山南","lat":38.871573,"lng":139.801534,"zip":"9980114"},{"town":"広岡新田","koaza":"前林","lat":38.823228,"lng":139.80328,"zip":"9980113"},{"town":"浜中","koaza":"粮畑","lat":38.816557,"lng":139.797417,"zip":"9980112"},{"town":"十里塚","koaza":"高砂子","lat":38.88011,"lng":139.798679,"zip":"9980114"},{"town":"十里塚","koaza":"村東山北","lat":38.885612,"lng":139.806021,"zip":"9980114"},{"town":"黒森","koaza":"境山","lat":38.847649,"lng":139.809533,"zip":"9980111"},{"town":"黒森","koaza":"葭葉山","lat":38.855977,"lng":139.8126,"zip":"9980111"},{"town":"浜中","koaza":"小浜山","lat":38.844367,"lng":139.808778,"zip":"9980112"},{"town":"坂野辺新田","koaza":"地続山","lat":38.867542,"lng":139.816477,"zip":"9980101"},{"town":"浜中","koaza":"船付場","lat":38.830631,"lng":139.806892,"zip":"9980112"},{"town":"宮野浦","koaza":"飯森山西","lat":38.893274,"lng":139.813044,"zip":"9980054"},{"town":"十里塚","koaza":"村東山","lat":38.880943,"lng":139.814696,"zip":"9980114"},{"town":"浜中","koaza":"細縄","lat":38.826855,"lng":139.80892,"zip":"9980112"},{"town":"浜中","koaza":"砂沼","lat":38.836509,"lng":139.811484,"zip":"9980112"},{"town":"浜中","koaza":"小浜","lat":38.838301,"lng":139.812911,"zip":"9980112"},{"town":"浜中","koaza":"沼中瀬","lat":38.825933,"lng":139.813319,"zip":"9980112"},{"town":"黒森","koaza":"村中","lat":38.848593,"lng":139.817924,"zip":"9980111"},{"town":"坂野辺新田","koaza":"西狢山","lat":38.881656,"lng":139.820724,"zip":"9980101"},{"town":"黒森","koaza":"草刈谷地","lat":38.849853,"lng":139.819579,"zip":"9980111"},{"town":"坂野辺新田","koaza":"葉萱","lat":38.860293,"lng":139.819343,"zip":"9980101"},{"town":"宮海","koaza":"南浜","lat":38.963372,"lng":139.832182,"zip":"9980005"},{"town":"宮野浦","koaza":"出羽台","lat":38.898126,"lng":139.821551,"zip":"9980054"},{"town":"黒森","koaza":"鏥","lat":38.855351,"lng":139.821552,"zip":"9980111"},{"town":"宮野浦","koaza":"実取","lat":38.895349,"lng":139.821285,"zip":"9980054"},{"town":"黒森","koaza":"十二ノ木","lat":38.841961,"lng":139.820661,"zip":"9980111"},{"town":"坂野辺新田","koaza":"坂野辺","lat":38.87218,"lng":139.823693,"zip":"9980101"},{"town":"黒森","koaza":"一ノ木","lat":38.848511,"lng":139.821485,"zip":"9980111"},{"town":"坂野辺新田","koaza":"一番割","lat":38.867725,"lng":139.824651,"zip":"9980101"},{"town":"坂野辺新田","koaza":"二番割","lat":38.872219,"lng":139.824538,"zip":"9980101"},{"town":"坂野辺新田","koaza":"東狢山","lat":38.880979,"lng":139.828722,"zip":"9980101"},{"town":"坂野辺新田","koaza":"稲荷","lat":38.889354,"lng":139.826638,"zip":"9980101"},{"town":"坂野辺新田","koaza":"古川","lat":38.874625,"lng":139.828516,"zip":"9980101"},{"town":"坂野辺新田","koaza":"四角割","lat":38.862348,"lng":139.827698,"zip":"9980101"},{"town":"宮海","koaza":"明治","lat":38.949902,"lng":139.83758,"zip":"9980005"},{"town":"宮野浦","koaza":"試田","lat":38.894463,"lng":139.828766,"zip":"9980054"},{"town":"広野","koaza":"杓子","lat":38.829324,"lng":139.838082,"zip":"9980125"},{"town":"広野","koaza":"奥井","lat":38.872027,"lng":139.832105,"zip":"9980125"},{"town":"新町","koaza":"光ヶ丘","lat":38.932757,"lng":139.832382,"zip":"9996837"},{"town":"宮海","koaza":"新林","lat":38.959871,"lng":139.84098,"zip":"9980005"},{"town":"広野","koaza":"三本柳","lat":38.834359,"lng":139.835068,"zip":"9980125"},{"town":"宮海","koaza":"治八郎畑","lat":38.952438,"lng":139.835487,"zip":"9980005"},{"town":"北千日堂前","koaza":"松境","lat":38.934271,"lng":139.834732,"zip":"9980015"},{"town":"広野","koaza":"下中村","lat":38.865524,"lng":139.836954,"zip":"9980125"},{"town":"豊里","koaza":"芦原","lat":38.944381,"lng":139.839347,"zip":"9980004"},{"town":"酒井新田","koaza":"水口","lat":38.94076,"lng":139.835876,"zip":"9980003"},{"town":"広野","koaza":"上中村","lat":38.855078,"lng":139.841393,"zip":"9980125"},{"town":"宮海","koaza":"砂飛","lat":38.974802,"lng":139.839852,"zip":"9980005"},{"town":"豊里","koaza":"上割","lat":38.946142,"lng":139.840729,"zip":"9980004"},{"town":"豊里","koaza":"大割","lat":38.945312,"lng":139.840044,"zip":"9980004"},{"town":"宮海","koaza":"南砂畑","lat":38.967224,"lng":139.842736,"zip":"9980005"},{"town":"落野目","koaza":"新田","lat":38.879362,"lng":139.846877,"zip":"9997775"},{"town":"宮海","koaza":"向砂畑","lat":38.97253,"lng":139.842798,"zip":"9980005"},{"town":"広野","koaza":"上割","lat":38.872409,"lng":139.842449,"zip":"9980125"},{"town":"広野","koaza":"大日塚","lat":38.846106,"lng":139.845291,"zip":"9980125"},{"town":"宮海","koaza":"村東","lat":38.9787,"lng":139.845889,"zip":"9980005"},{"town":"広野","koaza":"中曽美","lat":38.86011,"lng":139.844802,"zip":"9980125"},{"town":"豊里","koaza":"下藤塚","lat":38.949609,"lng":139.8451,"zip":"9980004"},{"town":"広野","koaza":"末広","lat":38.849136,"lng":139.845629,"zip":"9980125"},{"town":"広野","koaza":"福岡","lat":38.825814,"lng":139.849687,"zip":"9980125"},{"town":"広野","koaza":"興屋","lat":38.830733,"lng":139.843925,"zip":"9980125"},{"town":"広野","koaza":"上通","lat":38.842221,"lng":139.850968,"zip":"9980125"},{"town":"宮海","koaza":"林内","lat":38.96941,"lng":139.848797,"zip":"9980005"},{"town":"宮海","koaza":"古川","lat":38.955274,"lng":139.846541,"zip":"9980005"},{"town":"広野","koaza":"十五軒","lat":38.857827,"lng":139.847285,"zip":"9980125"},{"town":"豊里","koaza":"家脇","lat":38.948063,"lng":139.847034,"zip":"9980004"},{"town":"広野","koaza":"榎橋","lat":38.854652,"lng":139.847585,"zip":"9980125"},{"town":"藤塚","koaza":"下谷地","lat":38.950686,"lng":139.850975,"zip":"9980002"},{"town":"広野","koaza":"下通","lat":38.848718,"lng":139.849824,"zip":"9980125"},{"town":"藤塚","koaza":"南畑","lat":38.952829,"lng":139.849026,"zip":"9980002"},{"town":"広野","koaza":"中通","lat":38.845321,"lng":139.851709,"zip":"9980125"},{"town":"宮海","koaza":"安政","lat":38.962339,"lng":139.85289,"zip":"9980005"},{"town":"藤塚","koaza":"元和里","lat":38.956099,"lng":139.852195,"zip":"9980002"},{"town":"藤塚","koaza":"中畑","lat":38.959363,"lng":139.854524,"zip":"9980002"},{"town":"宮海","koaza":"日向","lat":38.972261,"lng":139.855733,"zip":"9980005"},{"town":"広野","koaza":"大渕","lat":38.848554,"lng":139.85564,"zip":"9980125"},{"town":"藤塚","koaza":"北畑","lat":38.963306,"lng":139.855652,"zip":"9980002"},{"town":"穂積","koaza":"砂畑","lat":38.966763,"lng":139.855507,"zip":"9998131"},{"town":"吉田新田","koaza":"落シ端","lat":38.937614,"lng":139.858978,"zip":"9998167"},{"town":"穂積","koaza":"下市神","lat":38.971475,"lng":139.856675,"zip":"9998131"},{"town":"穂積","koaza":"上市神","lat":38.976287,"lng":139.862358,"zip":"9998131"},{"town":"大宮","koaza":"一貫野","lat":38.889461,"lng":139.859844,"zip":"9980822"},{"town":"吉田新田","koaza":"南割","lat":38.933421,"lng":139.862097,"zip":"9998167"},{"town":"吉田新田","koaza":"九五田","lat":38.93576,"lng":139.861662,"zip":"9998167"},{"town":"穂積","koaza":"土手下","lat":38.975138,"lng":139.861128,"zip":"9998131"},{"town":"板戸","koaza":"北前","lat":38.863966,"lng":139.865824,"zip":"9997774"},{"town":"大宮","koaza":"槇野","lat":38.889817,"lng":139.866959,"zip":"9980822"},{"town":"板戸","koaza":"福岡","lat":38.86227,"lng":139.863779,"zip":"9997774"},{"town":"落野目","koaza":"杉之崎","lat":38.873213,"lng":139.864145,"zip":"9997775"},{"town":"吉田新田","koaza":"堰中瀬","lat":38.940083,"lng":139.862433,"zip":"9998167"},{"town":"保岡","koaza":"家際","lat":38.947565,"lng":139.862724,"zip":"9998145"},{"town":"落野目","koaza":"刈分","lat":38.874075,"lng":139.8703,"zip":"9997775"},{"town":"吉田新田","koaza":"土井東","lat":38.941692,"lng":139.864907,"zip":"9998167"},{"town":"大町","koaza":"下切添","lat":38.905733,"lng":139.86594,"zip":"9980859"},{"town":"吉田新田","koaza":"東割","lat":38.937961,"lng":139.86607,"zip":"9998167"},{"town":"保岡","koaza":"屋敷添","lat":38.950945,"lng":139.866214,"zip":"9998145"},{"town":"大町","koaza":"下割","lat":38.906181,"lng":139.868757,"zip":"9980859"},{"town":"落野目","koaza":"十寸穂","lat":38.87295,"lng":139.868045,"zip":"9997775"},{"town":"大多新田","koaza":"村添","lat":38.917981,"lng":139.867916,"zip":"9980877"},{"town":"遊摺部","koaza":"中通","lat":38.890416,"lng":139.871658,"zip":"9980821"},{"town":"宮内","koaza":"六ツ新田","lat":38.983758,"lng":139.868353,"zip":"9998423"},{"town":"穂積","koaza":"元屋敷","lat":38.981063,"lng":139.869498,"zip":"9998131"},{"town":"千代田","koaza":"西谷地","lat":38.998775,"lng":139.869582,"zip":"9998422"},{"town":"保岡","koaza":"境田","lat":38.951069,"lng":139.870267,"zip":"9998145"},{"town":"保岡","koaza":"柳原","lat":38.954926,"lng":139.870732,"zip":"9998145"},{"town":"遊摺部","koaza":"千代世","lat":38.898786,"lng":139.872489,"zip":"9980821"},{"town":"大町","koaza":"出雲","lat":38.90763,"lng":139.873359,"zip":"9980859"},{"town":"遊摺部","koaza":"南畑","lat":38.882378,"lng":139.87515,"zip":"9980821"},{"town":"土崎","koaza":"堰西","lat":38.912576,"lng":139.873457,"zip":"9980873"},{"town":"土崎","koaza":"屋敷添","lat":38.911852,"lng":139.875159,"zip":"9980873"},{"town":"局","koaza":"惣田","lat":38.849824,"lng":139.87868,"zip":"9997771"},{"town":"遊摺部","koaza":"村立","lat":38.884116,"lng":139.877357,"zip":"9980821"},{"town":"門田","koaza":"寿福","lat":38.858295,"lng":139.880402,"zip":"9997772"},{"town":"遊摺部","koaza":"南五丁野","lat":38.882254,"lng":139.878799,"zip":"9980821"},{"town":"局","koaza":"局","lat":38.851397,"lng":139.883036,"zip":"9997771"},{"town":"勝保関","koaza":"百野","lat":38.906027,"lng":139.879489,"zip":"9980818"},{"town":"新堀","koaza":"豊森","lat":38.873772,"lng":139.879649,"zip":"9997776"},{"town":"局","koaza":"未谷地","lat":38.855557,"lng":139.880257,"zip":"9997771"},{"town":"勝保関","koaza":"前","lat":38.904503,"lng":139.88064,"zip":"9980818"},{"town":"勝保関","koaza":"後口","lat":38.905235,"lng":139.882103,"zip":"9980818"},{"town":"勝保関","koaza":"上割符","lat":38.902715,"lng":139.886969,"zip":"9980818"},{"town":"大野新田","koaza":"村南","lat":38.899027,"lng":139.884462,"zip":"9980816"},{"town":"大野新田","koaza":"高田","lat":38.899926,"lng":139.882675,"zip":"9980816"},{"town":"小牧","koaza":"南五丁野","lat":38.885632,"lng":139.883488,"zip":"9980815"},{"town":"局","koaza":"南田","lat":38.85099,"lng":139.882668,"zip":"9997771"},{"town":"本楯","koaza":"通伝","lat":38.966973,"lng":139.883061,"zip":"9998134"},{"town":"門田","koaza":"台ノ上","lat":38.856584,"lng":139.883962,"zip":"9997772"},{"town":"大町","koaza":"大野","lat":38.897012,"lng":139.888379,"zip":"9980859"},{"town":"局","koaza":"立野","lat":38.854012,"lng":139.884341,"zip":"9997771"},{"town":"小牧","koaza":"西畑","lat":38.893359,"lng":139.886715,"zip":"9980815"},{"town":"勝保関","koaza":"北波加伊","lat":38.903298,"lng":139.887648,"zip":"9980818"},{"town":"本楯","koaza":"前田","lat":38.966525,"lng":139.891954,"zip":"9998134"},{"town":"茨野新田","koaza":"村北","lat":38.899892,"lng":139.900972,"zip":"9980813"},{"town":"寺田","koaza":"沖","lat":38.957372,"lng":139.9268,"zip":"9998221"},{"town":"法連寺","koaza":"茅針谷地","lat":38.964961,"lng":139.92806,"zip":"9998233"},{"town":"小泉","koaza":"北豊田","lat":38.97324,"lng":139.927492,"zip":"9998234"},{"town":"小泉","koaza":"後田","lat":38.97134,"lng":139.935972,"zip":"9998234"},{"town":"市条","koaza":"荒瀬","lat":38.966031,"lng":139.932089,"zip":"9998232"},{"town":"北仁田","koaza":"川除","lat":38.977397,"lng":139.932568,"zip":"9998243"},{"town":"北仁田","koaza":"広面","lat":38.975937,"lng":139.933274,"zip":"9998243"},{"town":"北仁田","koaza":"石田","lat":38.975259,"lng":139.93456,"zip":"9998243"},{"town":"寺田","koaza":"道ノ上","lat":38.956828,"lng":139.935153,"zip":"9998221"},{"town":"市条","koaza":"水上","lat":38.96448,"lng":139.935619,"zip":"9998232"},{"town":"市条","koaza":"横枕","lat":38.961893,"lng":139.933799,"zip":"9998232"},{"town":"市条","koaza":"村ノ前","lat":38.96316,"lng":139.932461,"zip":"9998232"},{"town":"小泉","koaza":"道南","lat":38.970215,"lng":139.935204,"zip":"9998234"},{"town":"小泉","koaza":"前田","lat":38.969339,"lng":139.937496,"zip":"9998234"},{"town":"市条","koaza":"畑ケ中","lat":38.963346,"lng":139.935577,"zip":"9998232"},{"town":"観音寺","koaza":"町後","lat":38.971223,"lng":139.939697,"zip":"9998235"},{"town":"小泉","koaza":"上川原","lat":38.967849,"lng":139.938582,"zip":"9998234"},{"town":"市条","koaza":"上川原","lat":38.966113,"lng":139.940803,"zip":"9998232"},{"town":"観音寺","koaza":"町","lat":38.968584,"lng":139.940238,"zip":"9998235"},{"town":"麓","koaza":"雪車田","lat":38.982558,"lng":139.942919,"zip":"9998231"},{"town":"麓","koaza":"坂ノ下","lat":38.976512,"lng":139.944272,"zip":"9998231"},{"town":"麓","koaza":"村ノ下","lat":38.978374,"lng":139.944416,"zip":"9998231"},{"town":"観音寺","koaza":"古楯","lat":38.97423,"lng":139.943611,"zip":"9998235"},{"town":"麓","koaza":"天神堂","lat":38.980247,"lng":139.944455,"zip":"9998231"},{"town":"麓","koaza":"荒町","lat":38.969027,"lng":139.944745,"zip":"9998231"},{"town":"麓","koaza":"横道","lat":38.968588,"lng":139.946522,"zip":"9998231"},{"town":"麓","koaza":"緑沢","lat":38.966457,"lng":139.945877,"zip":"9998231"},{"town":"麓","koaza":"麓野","lat":38.978717,"lng":139.946981,"zip":"9998231"},{"town":"麓","koaza":"楯ノ腰","lat":38.97115,"lng":139.946729,"zip":"9998231"},{"town":"麓","koaza":"上川原","lat":38.968022,"lng":139.947394,"zip":"9998231"},{"town":"常禅寺","koaza":"西田","lat":38.967428,"lng":139.954598,"zip":"9998214"},{"town":"常禅寺","koaza":"上野山","lat":38.968858,"lng":139.955984,"zip":"9998214"},{"town":"常禅寺","koaza":"上川原","lat":38.967733,"lng":139.957676,"zip":"9998214"},{"town":"北仁田","koaza":"堂脇","lat":38.976389,"lng":139.935377,"zip":"9998243"},{"town":"北仁田","koaza":"上曽田","lat":38.973709,"lng":139.936799,"zip":"9998243"},{"town":"北仁田","koaza":"五百地","lat":38.972849,"lng":139.936518,"zip":"9998243"},{"town":"麓","koaza":"楯山","lat":38.974337,"lng":139.946332,"zip":"9998231"},{"town":"市条","koaza":"八森","lat":38.963112,"lng":139.941274,"zip":"9998232"},{"town":"法連寺","koaza":"与作新田","lat":38.965656,"lng":139.934201,"zip":"9998233"},{"town":"法連寺","koaza":"村前","lat":38.963966,"lng":139.929973,"zip":"9998233"},{"town":"法連寺","koaza":"村ノ前","lat":38.964098,"lng":139.931985,"zip":"9998233"},{"town":"観音寺","koaza":"前田","lat":38.971743,"lng":139.939771,"zip":"9998235"},{"town":"宮内","koaza":"南谷地","lat":38.988416,"lng":139.868492,"zip":"9998423"},{"town":"宮海","koaza":"中砂畑","lat":38.969302,"lng":139.842766,"zip":"9980005"},{"town":"吉田新田","koaza":"宮ノ西","lat":38.939812,"lng":139.858758,"zip":"9998167"},{"town":"牧曽根","koaza":"梵天塚","lat":38.933905,"lng":139.867288,"zip":"9998166"},{"town":"牧曽根","koaza":"西興野","lat":38.934826,"lng":139.866991,"zip":"9998166"},{"town":"酒井新田","koaza":"道ノ下","lat":38.9412,"lng":139.836926,"zip":"9980003"},{"town":"豊里","koaza":"下西割","lat":38.94543,"lng":139.835555,"zip":"9980004"},{"town":"豊里","koaza":"堂脇","lat":38.947428,"lng":139.8395,"zip":"9980004"},{"town":"漆曽根","koaza":"向谷地","lat":38.916645,"lng":139.864781,"zip":"9998164"},{"town":"黒森","koaza":"小浜","lat":38.844355,"lng":139.81701,"zip":"9980111"},{"town":"黒森","koaza":"砂土端","lat":38.845751,"lng":139.81922,"zip":"9980111"},{"town":"黒森","koaza":"泊山","lat":38.846252,"lng":139.816429,"zip":"9980111"},{"town":"黒森","koaza":"川前","lat":38.848708,"lng":139.819753,"zip":"9980111"},{"town":"黒森","koaza":"谷地中","lat":38.856991,"lng":139.820588,"zip":"9980111"},{"town":"浜中","koaza":"稗畑","lat":38.832666,"lng":139.812187,"zip":"9980112"},{"town":"門田","koaza":"宮ノ前","lat":38.856706,"lng":139.879101,"zip":"9997772"},{"town":"木川","koaza":"アラコウヤ","lat":38.867076,"lng":139.877379,"zip":"9997773"},{"town":"板戸","koaza":"苗岡","lat":38.863472,"lng":139.86374,"zip":"9997774"},{"town":"宮野浦","koaza":"山手","lat":38.890153,"lng":139.816898,"zip":"9980054"},{"town":"坂野辺新田","koaza":"下割","lat":38.88591,"lng":139.835966,"zip":"9980101"},{"town":"市条","koaza":"山本","lat":38.962426,"lng":139.93609,"zip":"9998232"},{"town":"寺田","koaza":"堂田","lat":38.956963,"lng":139.934053,"zip":"9998221"},{"town":"常禅寺","koaza":"西ノ沢","lat":38.967933,"lng":139.954493,"zip":"9998214"},{"town":"穂積","koaza":"大割","lat":38.970708,"lng":139.856141,"zip":"9998131"},{"town":"観音寺","koaza":"寺ノ下","lat":38.970934,"lng":139.942744,"zip":"9998235"},{"town":"広野","koaza":"土橋","lat":38.843026,"lng":139.848284,"zip":"9980125"},{"town":"酒井新田","koaza":"山ノ下","lat":38.936388,"lng":139.840092,"zip":"9980003"}]