[{"town":"芦沢","koaza":"","lat":38.087402,"lng":140.082349,"zip":"9930022"},{"town":"あら町","koaza":"","lat":38.101844,"lng":140.037788,"zip":"9930006"},{"town":"五十川","koaza":"","lat":38.13774,"lng":140.04756,"zip":"9930072"},{"town":"泉","koaza":"","lat":38.08419,"lng":140.039776,"zip":"9930031"},{"town":"今泉","koaza":"","lat":38.057391,"lng":140.048032,"zip":"9930033"},{"town":"歌丸","koaza":"","lat":38.058048,"lng":140.031434,"zip":"9930034"},{"town":"大町","koaza":"","lat":38.110472,"lng":140.038135,"zip":"9930083"},{"town":"片田町","koaza":"","lat":38.10393,"lng":140.040202,"zip":"9930005"},{"town":"上伊佐沢","koaza":"","lat":38.114238,"lng":140.087744,"zip":"9930021"},{"town":"河井","koaza":"","lat":38.072497,"lng":140.049902,"zip":"9930032"},{"town":"川原沢","koaza":"","lat":38.182688,"lng":139.930123,"zip":"9930062"},{"town":"勧進代","koaza":"","lat":38.159531,"lng":140.00827,"zip":"9930064"},{"town":"草岡","koaza":"","lat":38.169897,"lng":139.974501,"zip":"9930063"},{"town":"九野本","koaza":"","lat":38.091645,"lng":140.015472,"zip":"9930041"},{"town":"小出","koaza":"","lat":38.09639,"lng":140.056505,"zip":"9930014"},{"town":"高野町一丁目","koaza":"","lat":38.107986,"lng":140.034701,"zip":"9930085"},{"town":"高野町二丁目","koaza":"","lat":38.110343,"lng":140.034521,"zip":"9930085"},{"town":"幸町","koaza":"","lat":38.113299,"lng":140.030098,"zip":"9930051"},{"town":"栄町","koaza":"","lat":38.107696,"lng":140.037571,"zip":"9930084"},{"town":"清水町一丁目","koaza":"","lat":38.111512,"lng":140.025037,"zip":"9930054"},{"town":"清水町二丁目","koaza":"","lat":38.107412,"lng":140.018824,"zip":"9930054"},{"town":"下伊佐沢","koaza":"","lat":38.072532,"lng":140.070866,"zip":"9930023"},{"town":"白兎","koaza":"","lat":38.164154,"lng":140.02636,"zip":"9930071"},{"town":"新町","koaza":"","lat":38.110815,"lng":140.032082,"zip":"9930052"},{"town":"神明町","koaza":"","lat":38.102134,"lng":140.041227,"zip":"9930004"},{"town":"台町","koaza":"","lat":38.094816,"lng":140.033365,"zip":"9930016"},{"town":"館町北","koaza":"","lat":38.10034,"lng":140.042408,"zip":"9930011"},{"town":"館町南","koaza":"","lat":38.094034,"lng":140.042001,"zip":"9930013"},{"town":"寺泉","koaza":"","lat":38.123058,"lng":139.960906,"zip":"9930061"},{"town":"十日町一丁目","koaza":"","lat":38.112403,"lng":140.03876,"zip":"9930086"},{"town":"十日町二丁目","koaza":"","lat":38.114864,"lng":140.037295,"zip":"9930086"},{"town":"時庭","koaza":"","lat":38.070068,"lng":140.03041,"zip":"9930035"},{"town":"中伊佐沢","koaza":"","lat":38.08558,"lng":140.062623,"zip":"9930024"},{"town":"中道一丁目","koaza":"","lat":38.107249,"lng":140.027747,"zip":"9930053"},{"town":"中道二丁目","koaza":"","lat":38.105571,"lng":140.028874,"zip":"9930053"},{"town":"成田","koaza":"","lat":38.125922,"lng":140.040394,"zip":"9930075"},{"town":"花作町","koaza":"","lat":38.100569,"lng":140.031723,"zip":"9930017"},{"town":"日の出町","koaza":"","lat":38.094996,"lng":140.050056,"zip":"9930012"},{"town":"平野","koaza":"","lat":38.147164,"lng":139.909476,"zip":"9930000"},{"town":"平山","koaza":"","lat":38.098284,"lng":140.004777,"zip":"9930042"},{"town":"舟場","koaza":"","lat":38.119869,"lng":140.044046,"zip":"9930082"},{"town":"ままの上","koaza":"","lat":38.107103,"lng":140.040459,"zip":"9930001"},{"town":"緑町","koaza":"","lat":38.117895,"lng":140.039633,"zip":"9930081"},{"town":"宮","koaza":"","lat":38.100411,"lng":140.023563,"zip":"9930074"},{"town":"本町一丁目","koaza":"","lat":38.105647,"lng":140.036343,"zip":"9930007"},{"town":"本町二丁目","koaza":"","lat":38.103424,"lng":140.035822,"zip":"9930007"},{"town":"森","koaza":"","lat":38.12291,"lng":140.059248,"zip":"9930073"},{"town":"横町","koaza":"","lat":38.116074,"lng":140.034123,"zip":"9930087"},{"town":"四ツ谷一丁目","koaza":"","lat":38.099672,"lng":140.036084,"zip":"9930015"},{"town":"四ツ谷二丁目","koaza":"","lat":38.096171,"lng":140.036997,"zip":"9930015"},{"town":"東町","koaza":"","lat":38.106389,"lng":140.043752,"zip":"9930003"},{"town":"屋城町","koaza":"","lat":38.110102,"lng":140.044005,"zip":"9930002"}]