[{"town":"岩川","koaza":"","lat":39.002885,"lng":139.893762,"zip":"9998436"},{"town":"江地","koaza":"","lat":39.028069,"lng":139.884003,"zip":"9998433"},{"town":"大蕨岡","koaza":"","lat":38.993631,"lng":139.938278,"zip":"9998315"},{"town":"小原田","koaza":"","lat":39.009596,"lng":139.932568,"zip":"9998311"},{"town":"鹿野沢","koaza":"","lat":39.00645,"lng":139.943507,"zip":"9998312"},{"town":"上蕨岡","koaza":"","lat":38.997074,"lng":139.947652,"zip":"9998314"},{"town":"北目","koaza":"","lat":39.049921,"lng":139.889123,"zip":"9998522"},{"town":"小松","koaza":"","lat":39.000824,"lng":139.913503,"zip":"9998317"},{"town":"庄泉","koaza":"","lat":39.008685,"lng":139.884329,"zip":"9998435"},{"town":"白井新田","koaza":"","lat":39.040924,"lng":139.948951,"zip":"9998304"},{"town":"菅里","koaza":"","lat":39.044777,"lng":139.873628,"zip":"9998431"},{"town":"杉沢","koaza":"","lat":39.021664,"lng":139.99161,"zip":"9998313"},{"town":"直世","koaza":"","lat":39.068513,"lng":139.909666,"zip":"9998525"},{"town":"当山","koaza":"","lat":39.058223,"lng":139.924951,"zip":"9998523"},{"town":"富岡","koaza":"","lat":39.036784,"lng":139.902552,"zip":"9998524"},{"town":"豊岡","koaza":"","lat":38.992183,"lng":139.91768,"zip":"9998316"},{"town":"野沢","koaza":"","lat":39.043737,"lng":139.934265,"zip":"9998303"},{"town":"比子","koaza":"","lat":39.001432,"lng":139.851482,"zip":"9998438"},{"town":"吹浦","koaza":"","lat":39.089109,"lng":139.94339,"zip":"9998521"},{"town":"藤崎","koaza":"","lat":39.008093,"lng":139.865572,"zip":"9998437"},{"town":"増穂","koaza":"","lat":39.019601,"lng":139.884917,"zip":"9998434"},{"town":"宮田","koaza":"","lat":39.034753,"lng":139.889596,"zip":"9998432"},{"town":"遊佐","koaza":"","lat":39.018606,"lng":139.90346,"zip":"9998301"},{"town":"吉出","koaza":"","lat":39.055762,"lng":140.00158,"zip":"9998302"},{"town":"比子","koaza":"服部興野","lat":39.005246,"lng":139.853281,"zip":"9998438"},{"town":"比子","koaza":"白木","lat":38.993957,"lng":139.849279,"zip":"9998438"},{"town":"比子","koaza":"青塚","lat":38.999255,"lng":139.849184,"zip":"9998438"},{"town":"藤崎","koaza":"千代ノ藤","lat":39.001304,"lng":139.867136,"zip":"9998437"},{"town":"吹浦","koaza":"西楯","lat":39.077239,"lng":139.873641,"zip":"9998521"},{"town":"庄泉","koaza":"大谷地","lat":39.00361,"lng":139.871297,"zip":"9998435"},{"town":"菅里","koaza":"十里塚","lat":39.055283,"lng":139.872937,"zip":"9998431"},{"town":"藤崎","koaza":"一ノ坪","lat":39.003726,"lng":139.870854,"zip":"9998437"},{"town":"吹浦","koaza":"西浜","lat":39.066337,"lng":139.877851,"zip":"9998521"},{"town":"菅里","koaza":"菅野","lat":39.058492,"lng":139.876802,"zip":"9998431"},{"town":"吹浦","koaza":"湯ノ田","lat":39.084117,"lng":139.872955,"zip":"9998521"},{"town":"吹浦","koaza":"横町","lat":39.073185,"lng":139.876963,"zip":"9998521"},{"town":"吹浦","koaza":"澗ノ鼻","lat":39.087591,"lng":139.874179,"zip":"9998521"},{"town":"吹浦","koaza":"澗ノ坂","lat":39.084726,"lng":139.875611,"zip":"9998521"},{"town":"吹浦","koaza":"東楯","lat":39.079457,"lng":139.875966,"zip":"9998521"},{"town":"吹浦","koaza":"布倉","lat":39.075157,"lng":139.880449,"zip":"9998521"},{"town":"吹浦","koaza":"吉野森","lat":39.069444,"lng":139.877468,"zip":"9998521"},{"town":"菅里","koaza":"菅野南山","lat":39.049264,"lng":139.880727,"zip":"9998431"},{"town":"吹浦","koaza":"川田","lat":39.071751,"lng":139.87779,"zip":"9998521"},{"town":"吹浦","koaza":"下川原","lat":39.071217,"lng":139.878474,"zip":"9998521"},{"town":"吹浦","koaza":"宿町","lat":39.071714,"lng":139.878641,"zip":"9998521"},{"town":"吹浦","koaza":"上川原","lat":39.069232,"lng":139.880128,"zip":"9998521"},{"town":"吹浦","koaza":"中川原","lat":39.07044,"lng":139.87951,"zip":"9998521"},{"town":"吹浦","koaza":"苗代","lat":39.070997,"lng":139.879826,"zip":"9998521"},{"town":"吹浦","koaza":"堤端","lat":39.072865,"lng":139.879662,"zip":"9998521"},{"town":"吹浦","koaza":"山王平","lat":39.072105,"lng":139.882238,"zip":"9998521"},{"town":"吹浦","koaza":"一本木","lat":39.06863,"lng":139.882407,"zip":"9998521"},{"town":"吹浦","koaza":"泉沢","lat":39.069907,"lng":139.880496,"zip":"9998521"},{"town":"吹浦","koaza":"赤坂","lat":39.070212,"lng":139.882944,"zip":"9998521"},{"town":"吹浦","koaza":"堂屋","lat":39.069428,"lng":139.882628,"zip":"9998521"},{"town":"吹浦","koaza":"物見峠","lat":39.071245,"lng":139.884485,"zip":"9998521"},{"town":"北目","koaza":"石淵","lat":39.067197,"lng":139.883726,"zip":"9998522"},{"town":"北目","koaza":"菅野谷地","lat":39.062526,"lng":139.888429,"zip":"9998522"},{"town":"北目","koaza":"蟻塚","lat":39.057794,"lng":139.886879,"zip":"9998522"},{"town":"吹浦","koaza":"小谷地","lat":39.069873,"lng":139.886312,"zip":"9998521"},{"town":"遊佐","koaza":"油田","lat":39.021281,"lng":139.89794,"zip":"9998301"},{"town":"遊佐","koaza":"下曽根田","lat":39.02203,"lng":139.90075,"zip":"9998301"},{"town":"遊佐","koaza":"道ノ下","lat":39.020948,"lng":139.901549,"zip":"9998301"},{"town":"遊佐","koaza":"上曽根田","lat":39.021647,"lng":139.903617,"zip":"9998301"},{"town":"遊佐","koaza":"丸ノ内","lat":39.020638,"lng":139.906333,"zip":"9998301"},{"town":"遊佐","koaza":"新ラ田","lat":39.011111,"lng":139.904983,"zip":"9998301"},{"town":"小原田","koaza":"道ノ下","lat":39.009961,"lng":139.905608,"zip":"9998311"},{"town":"遊佐","koaza":"前田","lat":39.018962,"lng":139.906238,"zip":"9998301"},{"town":"遊佐","koaza":"石田","lat":39.016785,"lng":139.906082,"zip":"9998301"},{"town":"遊佐","koaza":"沖","lat":39.01201,"lng":139.905538,"zip":"9998301"},{"town":"遊佐","koaza":"広表","lat":39.012842,"lng":139.905896,"zip":"9998301"},{"town":"遊佐","koaza":"南田筋","lat":39.015196,"lng":139.907142,"zip":"9998301"},{"town":"小原田","koaza":"橋本","lat":39.007594,"lng":139.907205,"zip":"9998311"},{"town":"遊佐","koaza":"鶴田","lat":39.0122,"lng":139.9086,"zip":"9998301"},{"town":"小原田","koaza":"沼田","lat":39.00995,"lng":139.908139,"zip":"9998311"},{"town":"遊佐","koaza":"舞鶴","lat":39.014974,"lng":139.910306,"zip":"9998301"},{"town":"遊佐","koaza":"京田","lat":39.01712,"lng":139.907816,"zip":"9998301"},{"town":"遊佐","koaza":"向田","lat":39.011095,"lng":139.908053,"zip":"9998301"},{"town":"吉出","koaza":"野添","lat":39.021558,"lng":139.907818,"zip":"9998302"},{"town":"遊佐","koaza":"下高砂","lat":39.019431,"lng":139.909101,"zip":"9998301"},{"town":"遊佐","koaza":"松葉","lat":39.023785,"lng":139.908401,"zip":"9998301"},{"town":"吉出","koaza":"和田","lat":39.021853,"lng":139.910347,"zip":"9998302"},{"town":"吉出","koaza":"東田道","lat":39.027197,"lng":139.909104,"zip":"9998302"},{"town":"吉出","koaza":"境田","lat":39.023667,"lng":139.909016,"zip":"9998302"},{"town":"遊佐","koaza":"高砂","lat":39.018034,"lng":139.910261,"zip":"9998301"},{"town":"遊佐","koaza":"横道","lat":39.02583,"lng":139.908844,"zip":"9998301"},{"town":"吉出","koaza":"奥屋","lat":39.026611,"lng":139.909523,"zip":"9998302"},{"town":"野沢","koaza":"大門","lat":39.027902,"lng":139.909876,"zip":"9998303"},{"town":"遊佐","koaza":"古川","lat":39.018338,"lng":139.911618,"zip":"9998301"},{"town":"遊佐","koaza":"田子","lat":39.017212,"lng":139.911875,"zip":"9998301"},{"town":"遊佐","koaza":"樋ノ口","lat":39.010764,"lng":139.912384,"zip":"9998301"},{"town":"遊佐","koaza":"下タノ川","lat":39.016383,"lng":139.914793,"zip":"9998301"},{"town":"遊佐","koaza":"倉ノ町","lat":39.012249,"lng":139.91378,"zip":"9998301"},{"town":"吉出","koaza":"太田","lat":39.020503,"lng":139.913696,"zip":"9998302"},{"town":"遊佐","koaza":"堰端","lat":39.011257,"lng":139.914244,"zip":"9998301"},{"town":"遊佐","koaza":"堅田","lat":39.01243,"lng":139.916386,"zip":"9998301"},{"town":"遊佐","koaza":"川端","lat":39.013585,"lng":139.915545,"zip":"9998301"},{"town":"遊佐","koaza":"五所ノ馬場","lat":39.011572,"lng":139.918053,"zip":"9998301"},{"town":"吉出","koaza":"石動","lat":39.018942,"lng":139.921808,"zip":"9998302"},{"town":"吉出","koaza":"郷蔵続","lat":39.020177,"lng":139.920685,"zip":"9998302"},{"town":"吉出","koaza":"カクジ田","lat":39.020647,"lng":139.920643,"zip":"9998302"},{"town":"小原田","koaza":"大楯","lat":39.012583,"lng":139.922995,"zip":"9998311"},{"town":"小原田","koaza":"御所ノ馬場","lat":39.011923,"lng":139.922683,"zip":"9998311"},{"town":"吉出","koaza":"弥太郎東","lat":39.019809,"lng":139.923492,"zip":"9998302"},{"town":"小原田","koaza":"大槻","lat":39.011585,"lng":139.922607,"zip":"9998311"},{"town":"吉出","koaza":"袋冷","lat":39.020726,"lng":139.927082,"zip":"9998302"},{"town":"小原田","koaza":"石田","lat":39.012185,"lng":139.925777,"zip":"9998311"},{"town":"小原田","koaza":"新田","lat":39.01214,"lng":139.926655,"zip":"9998311"},{"town":"吉出","koaza":"北子橋下","lat":39.020697,"lng":139.928775,"zip":"9998302"},{"town":"吉出","koaza":"早稲田","lat":39.019597,"lng":139.927169,"zip":"9998302"},{"town":"小原田","koaza":"上川原","lat":39.014781,"lng":139.928645,"zip":"9998311"},{"town":"吉出","koaza":"弥四郎稲荷","lat":39.019206,"lng":139.930328,"zip":"9998302"},{"town":"吉出","koaza":"釈迦田","lat":39.018614,"lng":139.933507,"zip":"9998302"},{"town":"吉出","koaza":"一口下","lat":39.017711,"lng":139.935248,"zip":"9998302"},{"town":"吉出","koaza":"兵治郎畑","lat":39.01817,"lng":139.935347,"zip":"9998302"}]