[{"town":"青柳町","koaza":"","lat":38.723986,"lng":139.812035,"zip":"9970832"},{"town":"温海","koaza":"","lat":38.632109,"lng":139.601776,"zip":"9997205"},{"town":"温海川","koaza":"","lat":38.580155,"lng":139.730442,"zip":"9997312"},{"town":"油戸","koaza":"","lat":38.741776,"lng":139.715205,"zip":"9971205"},{"town":"荒井京田","koaza":"","lat":38.756575,"lng":139.818344,"zip":"9970051"},{"town":"荒沢","koaza":"","lat":38.503553,"lng":139.780133,"zip":"9970621"},{"town":"荒俣","koaza":"","lat":38.732811,"lng":139.884109,"zip":"9997673"},{"town":"新屋敷","koaza":"","lat":38.770408,"lng":139.887821,"zip":"9997682"},{"town":"安丹","koaza":"","lat":38.754261,"lng":139.792075,"zip":"9970057"},{"town":"砂谷","koaza":"","lat":38.655038,"lng":139.771398,"zip":"9970755"},{"town":"泉町","koaza":"","lat":38.731586,"lng":139.830118,"zip":"9970033"},{"town":"伊勢原町","koaza":"","lat":38.717764,"lng":139.850929,"zip":"9970802"},{"town":"伊勢横内","koaza":"","lat":38.713595,"lng":139.851787,"zip":"9970803"},{"town":"板井川","koaza":"","lat":38.640454,"lng":139.835273,"zip":"9970331"},{"town":"稲生一丁目","koaza":"","lat":38.717051,"lng":139.81076,"zip":"9970834"},{"town":"稲生二丁目","koaza":"","lat":38.715933,"lng":139.806438,"zip":"9970834"},{"town":"井岡","koaza":"","lat":38.713358,"lng":139.795531,"zip":"9970842"},{"town":"今泉","koaza":"","lat":38.755524,"lng":139.724135,"zip":"9971206"},{"town":"五十川","koaza":"","lat":38.657744,"lng":139.620164,"zip":"9997207"},{"town":"馬町","koaza":"","lat":38.765094,"lng":139.773799,"zip":"9971125"},{"town":"越後京田","koaza":"","lat":38.76812,"lng":139.925697,"zip":"9997635"},{"town":"越中山","koaza":"","lat":38.604335,"lng":139.858492,"zip":"9970403"},{"town":"海老島町","koaza":"","lat":38.715446,"lng":139.824446,"zip":"9970823"},{"town":"大網","koaza":"","lat":38.593204,"lng":139.908243,"zip":"9970531"},{"town":"大荒","koaza":"","lat":38.715538,"lng":139.726911,"zip":"9997547"},{"town":"大岩川","koaza":"","lat":38.602173,"lng":139.579345,"zip":"9997123"},{"town":"大川渡","koaza":"","lat":38.748438,"lng":139.908623,"zip":"9997661"},{"town":"大塚町","koaza":"","lat":38.738229,"lng":139.80853,"zip":"9970047"},{"town":"大机","koaza":"","lat":38.63127,"lng":139.766103,"zip":"9970000"},{"town":"大鳥","koaza":"","lat":38.468604,"lng":139.767411,"zip":"9970622"},{"town":"大西町","koaza":"","lat":38.726979,"lng":139.809588,"zip":"9970831"},{"town":"大針","koaza":"","lat":38.548119,"lng":139.821668,"zip":"9970414"},{"town":"大広","koaza":"","lat":38.695386,"lng":139.727994,"zip":"9997543"},{"town":"大山","koaza":"","lat":38.75621,"lng":139.78353,"zip":"9971124"},{"town":"大山一丁目","koaza":"","lat":38.743786,"lng":139.764804,"zip":"9971124"},{"town":"大山二丁目","koaza":"","lat":38.748404,"lng":139.763711,"zip":"9971124"},{"town":"大山三丁目","koaza":"","lat":38.753447,"lng":139.76269,"zip":"9971124"},{"town":"大淀川","koaza":"","lat":38.736867,"lng":139.785399,"zip":"9970854"},{"town":"岡山","koaza":"","lat":38.709468,"lng":139.784678,"zip":"9970843"},{"town":"遠賀原","koaza":"","lat":38.709238,"lng":139.839511,"zip":"9970806"},{"town":"小国","koaza":"","lat":38.571168,"lng":139.644401,"zip":"9997316"},{"town":"小名部","koaza":"","lat":38.53686,"lng":139.626036,"zip":"9997125"},{"town":"面野山","koaza":"","lat":38.780043,"lng":139.803911,"zip":"9971116"},{"town":"覚岸寺","koaza":"","lat":38.750561,"lng":139.820288,"zip":"9970052"},{"town":"堅苔沢","koaza":"","lat":38.677741,"lng":139.639276,"zip":"9997461"},{"town":"家中新町","koaza":"","lat":38.728861,"lng":139.820312,"zip":"9970036"},{"town":"桂荒俣","koaza":"","lat":38.67301,"lng":139.850502,"zip":"9970343"},{"town":"金谷","koaza":"","lat":38.666547,"lng":139.827342,"zip":"9970365"},{"town":"金沢","koaza":"","lat":38.767865,"lng":139.74523,"zip":"9971203"},{"town":"上清水","koaza":"","lat":38.706934,"lng":139.757504,"zip":"9970847"},{"town":"上田沢","koaza":"","lat":38.515928,"lng":139.809276,"zip":"9970623"},{"town":"上中野目","koaza":"","lat":38.745972,"lng":139.921769,"zip":"9997664"},{"town":"上名川","koaza":"","lat":38.556276,"lng":139.894248,"zip":"9970405"},{"town":"上畑町","koaza":"","lat":38.734093,"lng":139.830396,"zip":"9970032"},{"town":"上藤島","koaza":"","lat":38.762019,"lng":139.888239,"zip":"9997611"},{"town":"上山添","koaza":"","lat":38.680932,"lng":139.843222,"zip":"9970346"},{"town":"上山谷","koaza":"","lat":38.662042,"lng":139.806303,"zip":"9970367"},{"town":"加茂","koaza":"","lat":38.757307,"lng":139.73778,"zip":"9971204"},{"town":"我老林","koaza":"","lat":38.700545,"lng":139.853869,"zip":"9970805"},{"town":"川尻","koaza":"","lat":38.751405,"lng":139.934029,"zip":"9997644"},{"town":"北京田","koaza":"","lat":38.750441,"lng":139.815703,"zip":"9970053"},{"town":"木野俣","koaza":"","lat":38.563052,"lng":139.703681,"zip":"9997313"},{"town":"切添町","koaza":"","lat":38.732763,"lng":139.843404,"zip":"9970022"},{"town":"工藤","koaza":"","lat":38.754925,"lng":139.923009,"zip":"9997646"},{"town":"熊出","koaza":"","lat":38.625416,"lng":139.812485,"zip":"9970411"},{"town":"倉沢","koaza":"","lat":38.523652,"lng":139.778817,"zip":"9970624"},{"town":"黒川","koaza":"","lat":38.663823,"lng":139.874015,"zip":"9970311"},{"town":"小岩川","koaza":"","lat":38.586138,"lng":139.576454,"zip":"9997122"},{"town":"越沢","koaza":"","lat":38.539949,"lng":139.702093,"zip":"9997314"},{"town":"小京田","koaza":"","lat":38.761535,"lng":139.820189,"zip":"9970005"},{"town":"小菅野代","koaza":"","lat":38.639875,"lng":139.627934,"zip":"9997206"},{"town":"寿","koaza":"","lat":38.686815,"lng":139.823446,"zip":"9970363"},{"town":"小中島","koaza":"","lat":38.791174,"lng":139.913362,"zip":"9997632"},{"town":"小波渡","koaza":"","lat":38.693476,"lng":139.655058,"zip":"9997462"},{"town":"小真木原町","koaza":"","lat":38.715016,"lng":139.815492,"zip":"9970825"},{"town":"小淀川","koaza":"","lat":38.733868,"lng":139.794034,"zip":"9970853"},{"town":"斎藤川原","koaza":"","lat":38.706595,"lng":139.844058,"zip":"9970804"},{"town":"坂野下","koaza":"","lat":38.640785,"lng":139.73925,"zip":"9970757"},{"town":"鷺畑","koaza":"","lat":38.745058,"lng":139.94442,"zip":"9997651"},{"town":"桜新町","koaza":"","lat":38.71752,"lng":139.838263,"zip":"9970861"},{"town":"三光町","koaza":"","lat":38.721428,"lng":139.823598,"zip":"9970821"},{"town":"三瀬","koaza":"","lat":38.691114,"lng":139.675093,"zip":"9997463"},{"town":"三千刈","koaza":"","lat":38.679388,"lng":139.854732,"zip":"9970342"},{"town":"山王町","koaza":"","lat":38.731541,"lng":139.834506,"zip":"9970028"},{"town":"清水新田","koaza":"","lat":38.728996,"lng":139.763013,"zip":"9970848"},{"town":"下川","koaza":"","lat":38.785339,"lng":139.773171,"zip":"9971117"},{"town":"下興屋","koaza":"","lat":38.731551,"lng":139.744512,"zip":"9971133"},{"town":"下小中","koaza":"","lat":38.724621,"lng":139.752021,"zip":"9971134"},{"town":"下清水","koaza":"","lat":38.720381,"lng":139.770189,"zip":"9970845"},{"town":"下田沢","koaza":"","lat":38.534497,"lng":139.806983,"zip":"9970625"},{"town":"下中野目","koaza":"","lat":38.756419,"lng":139.917009,"zip":"9997637"},{"town":"下名川","koaza":"","lat":38.603261,"lng":139.838865,"zip":"9970404"},{"town":"下山添","koaza":"","lat":38.695182,"lng":139.839752,"zip":"9970341"},{"town":"城南町","koaza":"","lat":38.711359,"lng":139.832065,"zip":"9970814"},{"town":"勝福寺","koaza":"","lat":38.689983,"lng":139.854537,"zip":"9970351"},{"town":"城北町","koaza":"","lat":38.738365,"lng":139.819713,"zip":"9970041"},{"town":"青龍寺","koaza":"","lat":38.681651,"lng":139.808833,"zip":"9970368"},{"town":"少連寺","koaza":"","lat":38.677739,"lng":139.764198,"zip":"9970754"},{"town":"昭和町","koaza":"","lat":38.726648,"lng":139.834451,"zip":"9970027"},{"town":"白山","koaza":"","lat":38.722985,"lng":139.781962,"zip":"9970841"},{"town":"新海町","koaza":"","lat":38.729766,"lng":139.815131,"zip":"9970044"},{"town":"神明町","koaza":"","lat":38.72249,"lng":139.83358,"zip":"9970811"},{"town":"末広町","koaza":"","lat":38.739099,"lng":139.838086,"zip":"9970015"},{"town":"菅野代","koaza":"","lat":38.618948,"lng":139.734177,"zip":"9997311"},{"town":"砂川","koaza":"","lat":38.576249,"lng":139.802738,"zip":"9970415"},{"town":"砂田町","koaza":"","lat":38.732013,"lng":139.804298,"zip":"9970839"},{"town":"砂塚","koaza":"","lat":38.753468,"lng":139.872691,"zip":"9997685"},{"town":"須走","koaza":"","lat":38.782376,"lng":139.920372,"zip":"9997633"},{"town":"関川","koaza":"","lat":38.515343,"lng":139.692387,"zip":"9997315"},{"town":"関根","koaza":"","lat":38.661553,"lng":139.725969,"zip":"9970758"},{"town":"千石町","koaza":"","lat":38.716321,"lng":139.83261,"zip":"9970813"},{"town":"添川","koaza":"","lat":38.731171,"lng":139.974859,"zip":"9996652"},{"town":"大東町","koaza":"","lat":38.725798,"lng":139.838891,"zip":"9970026"},{"town":"大半田","koaza":"","lat":38.744362,"lng":139.864297,"zip":"9997677"},{"town":"大部町","koaza":"","lat":38.739381,"lng":139.814989,"zip":"9970049"},{"town":"大宝寺","koaza":"","lat":38.733421,"lng":139.848543,"zip":"9970117"},{"town":"大宝寺町","koaza":"","lat":38.73805,"lng":139.842855,"zip":"9970014"},{"town":"高坂","koaza":"","lat":38.698026,"lng":139.806617,"zip":"9970369"},{"town":"高田","koaza":"","lat":38.749077,"lng":139.810528,"zip":"9970054"},{"town":"宝田一丁目","koaza":"","lat":38.744612,"lng":139.836067,"zip":"9970011"},{"town":"宝田二丁目","koaza":"","lat":38.746574,"lng":139.842373,"zip":"9970011"},{"town":"宝田三丁目","koaza":"","lat":38.75222,"lng":139.845643,"zip":"9970011"},{"town":"宝町","koaza":"","lat":38.734461,"lng":139.839649,"zip":"9970021"},{"town":"田川","koaza":"","lat":38.694716,"lng":139.755425,"zip":"9970753"},{"town":"滝沢","koaza":"","lat":38.674667,"lng":139.818216,"zip":"9970364"},{"town":"蛸井興屋","koaza":"","lat":38.736692,"lng":139.927155,"zip":"9997663"},{"town":"田代","koaza":"","lat":38.679344,"lng":139.888384,"zip":"9970302"},{"town":"谷定","koaza":"","lat":38.655014,"lng":139.819972,"zip":"9970366"},{"town":"田麦俣","koaza":"","lat":38.568652,"lng":139.924099,"zip":"9970532"},{"town":"梳代","koaza":"","lat":38.639587,"lng":139.921339,"zip":"9970000"},{"town":"千安京田","koaza":"","lat":38.78123,"lng":139.796982,"zip":"9971114"},{"town":"長者町","koaza":"","lat":38.718829,"lng":139.835072,"zip":"9970812"},{"town":"朝暘町","koaza":"","lat":38.727298,"lng":139.844119,"zip":"9970024"},{"town":"茅原","koaza":"","lat":38.753523,"lng":139.835879,"zip":"9970019"},{"town":"茅原町","koaza":"","lat":38.751493,"lng":139.839564,"zip":"9970018"},{"town":"辻興屋","koaza":"","lat":38.788731,"lng":139.798792,"zip":"9971115"},{"town":"寺田","koaza":"","lat":38.724406,"lng":139.797292,"zip":"9970836"},{"town":"道形","koaza":"","lat":38.747771,"lng":139.853105,"zip":"9970012"},{"town":"道形町","koaza":"","lat":38.743101,"lng":139.846,"zip":"9970013"},{"town":"常盤木","koaza":"","lat":38.663226,"lng":139.842419,"zip":"9970333"},{"town":"戸沢","koaza":"","lat":38.635298,"lng":139.690455,"zip":"9997202"},{"town":"栃屋","koaza":"","lat":38.736148,"lng":139.760417,"zip":"9971132"},{"town":"外内島","koaza":"","lat":38.703174,"lng":139.833404,"zip":"9970815"},{"town":"友江","koaza":"","lat":38.748325,"lng":139.781618,"zip":"9971122"},{"town":"友江町","koaza":"","lat":38.748711,"lng":139.772545,"zip":"9971123"},{"town":"豊田","koaza":"","lat":38.773368,"lng":139.809538,"zip":"9970007"},{"town":"鳥居町","koaza":"","lat":38.72971,"lng":139.838516,"zip":"9970023"},{"town":"苗津","koaza":"","lat":38.717381,"lng":139.841255,"zip":"9970808"},{"town":"苗津町","koaza":"","lat":38.72146,"lng":139.839663,"zip":"9970809"},{"town":"中京田","koaza":"","lat":38.778907,"lng":139.827708,"zip":"9970009"},{"town":"長崎","koaza":"","lat":38.798378,"lng":139.803309,"zip":"9971113"},{"town":"中沢","koaza":"","lat":38.712402,"lng":139.71379,"zip":"9997546"},{"town":"中清水","koaza":"","lat":38.71665,"lng":139.758946,"zip":"9970846"},{"town":"中田","koaza":"","lat":38.671811,"lng":139.839774,"zip":"9970345"},{"town":"中楯","koaza":"","lat":38.721703,"lng":139.742201,"zip":"9971135"},{"town":"長沼","koaza":"","lat":38.810289,"lng":139.884932,"zip":"9997621"},{"town":"中野京田","koaza":"","lat":38.745229,"lng":139.799218,"zip":"9970056"},{"town":"中野新田","koaza":"","lat":38.623186,"lng":139.847728,"zip":"9970401"},{"town":"中橋","koaza":"","lat":38.69285,"lng":139.827154,"zip":"9970362"},{"town":"中山","koaza":"","lat":38.681789,"lng":139.699143,"zip":"9997544"},{"town":"行沢","koaza":"","lat":38.579522,"lng":139.838674,"zip":"9970413"},{"town":"新形","koaza":"","lat":38.742342,"lng":139.821584,"zip":"9970042"},{"town":"新形町","koaza":"","lat":38.736366,"lng":139.824351,"zip":"9970042"},{"town":"西荒屋","koaza":"","lat":38.649599,"lng":139.837885,"zip":"9970332"},{"town":"西片屋","koaza":"","lat":38.641746,"lng":139.85547,"zip":"9970323"},{"town":"錦町","koaza":"","lat":38.738367,"lng":139.830938,"zip":"9970031"},{"town":"西京田","koaza":"","lat":38.746373,"lng":139.806449,"zip":"9970055"},{"town":"西新斎町","koaza":"","lat":38.736978,"lng":139.813276,"zip":"9970045"},{"town":"西沼","koaza":"","lat":38.798343,"lng":139.816415,"zip":"9971112"},{"town":"西目","koaza":"","lat":38.728247,"lng":139.719326,"zip":"9997541"},{"town":"布目","koaza":"","lat":38.742012,"lng":139.794075,"zip":"9970851"},{"town":"鼠ケ関","koaza":"","lat":38.550434,"lng":139.571829,"zip":"9997126"},{"town":"のぞみ町","koaza":"","lat":38.714226,"lng":139.835436,"zip":"9970819"},{"town":"野田目","koaza":"","lat":38.762834,"lng":139.922846,"zip":"9997636"},{"town":"羽黒町赤川","koaza":"","lat":38.726808,"lng":139.855886,"zip":"9970167"},{"town":"羽黒町荒川","koaza":"","lat":38.666863,"lng":139.938838,"zip":"9970141"},{"town":"羽黒町石野新田","koaza":"","lat":38.70495,"lng":139.863144,"zip":"9970155"},{"town":"羽黒町市野山","koaza":"","lat":38.711967,"lng":139.924378,"zip":"9970123"},{"town":"羽黒町猪俣新田","koaza":"","lat":38.700569,"lng":139.895056,"zip":"9970152"},{"town":"羽黒町後田","koaza":"","lat":38.713934,"lng":139.875485,"zip":"9970157"},{"town":"羽黒町上野新田","koaza":"","lat":38.679665,"lng":139.907195,"zip":"9970142"},{"town":"羽黒町大口","koaza":"","lat":38.709547,"lng":139.931635,"zip":"9970122"},{"town":"羽黒町押口","koaza":"","lat":38.736913,"lng":139.858575,"zip":"9970161"},{"town":"羽黒町金森目","koaza":"","lat":38.741936,"lng":139.904804,"zip":"9970108"},{"town":"羽黒町狩谷野目","koaza":"","lat":38.727476,"lng":139.872981,"zip":"9970163"},{"town":"羽黒町川代","koaza":"","lat":38.658071,"lng":139.966765,"zip":"9970131"},{"town":"羽黒町川行","koaza":"","lat":38.72886,"lng":139.908774,"zip":"9970105"},{"town":"羽黒町黒瀬","koaza":"","lat":38.71757,"lng":139.887402,"zip":"9970151"},{"town":"羽黒町小増川","koaza":"","lat":38.73505,"lng":139.905006,"zip":"9970107"},{"town":"羽黒町坂ノ下","koaza":"","lat":38.722655,"lng":139.932336,"zip":"9970104"},{"town":"羽黒町十文字","koaza":"","lat":38.717973,"lng":139.922653,"zip":"9970127"},{"town":"羽黒町仙道","koaza":"","lat":38.702234,"lng":139.90911,"zip":"9970125"},{"town":"羽黒町染興屋","koaza":"","lat":38.73177,"lng":139.914237,"zip":"9970106"},{"town":"羽黒町高寺","koaza":"","lat":38.699926,"lng":139.874891,"zip":"9970153"},{"town":"羽黒町玉川","koaza":"","lat":38.708187,"lng":139.943196,"zip":"9970121"},{"town":"羽黒町手向","koaza":"","lat":38.692656,"lng":139.969215,"zip":"9970211"},{"town":"羽黒町戸野","koaza":"","lat":38.722216,"lng":139.925263,"zip":"9970103"},{"town":"羽黒町富沢","koaza":"","lat":38.726801,"lng":139.890103,"zip":"9970165"},{"town":"羽黒町中里","koaza":"","lat":38.725043,"lng":139.916274,"zip":"9970102"},{"town":"羽黒町野荒町","koaza":"","lat":38.71967,"lng":139.916884,"zip":"9970126"},{"town":"羽黒町野田","koaza":"","lat":38.714213,"lng":139.896579,"zip":"9970143"},{"town":"羽黒町昼田","koaza":"","lat":38.725051,"lng":139.882392,"zip":"9970164"},{"town":"羽黒町細谷","koaza":"","lat":38.735744,"lng":139.866208,"zip":"9970162"},{"town":"羽黒町増川新田","koaza":"","lat":38.710993,"lng":139.917958,"zip":"9970124"},{"town":"羽黒町町屋","koaza":"","lat":38.735388,"lng":139.921104,"zip":"9970101"},{"town":"羽黒町松尾","koaza":"","lat":38.71522,"lng":139.862983,"zip":"9970156"},{"town":"羽黒町松ケ岡","koaza":"","lat":38.697354,"lng":139.885718,"zip":"9970158"},{"town":"羽黒町馬渡ノ内下","koaza":"","lat":38.704735,"lng":139.870149,"zip":"9970154"},{"town":"羽黒町三ツ橋","koaza":"","lat":38.726455,"lng":139.865231,"zip":"9970166"},{"town":"馬場町","koaza":"","lat":38.727324,"lng":139.825478,"zip":"9970035"},{"town":"林崎","koaza":"","lat":38.759495,"lng":139.80123,"zip":"9970058"},{"town":"茨新田","koaza":"","lat":38.806385,"lng":139.804414,"zip":"9971111"},{"town":"播磨","koaza":"","lat":38.769805,"lng":139.82742,"zip":"9970002"},{"town":"番田","koaza":"","lat":38.717434,"lng":139.801721,"zip":"9970835"},{"town":"日枝","koaza":"","lat":38.712,"lng":139.822265,"zip":"9970824"},{"town":"東荒屋","koaza":"","lat":38.658685,"lng":139.852914,"zip":"9970344"},{"town":"東岩本","koaza":"","lat":38.622087,"lng":139.865179,"zip":"9970402"},{"town":"東新斎町","koaza":"","lat":38.735616,"lng":139.817997,"zip":"9970043"},{"town":"東原町","koaza":"","lat":38.720447,"lng":139.844773,"zip":"9970801"},{"town":"東堀越","koaza":"","lat":38.734262,"lng":139.938707,"zip":"9997653"},{"town":"東目","koaza":"","lat":38.653943,"lng":139.753545,"zip":"9970756"},{"town":"菱津","koaza":"","lat":38.742561,"lng":139.740505,"zip":"9971131"},{"town":"一霞","koaza":"","lat":38.600703,"lng":139.655337,"zip":"9997203"},{"town":"日出一丁目","koaza":"","lat":38.72423,"lng":139.84493,"zip":"9970025"},{"town":"日出二丁目","koaza":"","lat":38.722814,"lng":139.8486,"zip":"9970025"},{"town":"日吉町","koaza":"","lat":38.734678,"lng":139.835066,"zip":"9970029"},{"town":"日和田町","koaza":"","lat":38.742817,"lng":139.827097,"zip":"9970016"},{"town":"平形","koaza":"","lat":38.780511,"lng":139.893797,"zip":"9997681"},{"town":"平田","koaza":"","lat":38.780086,"lng":139.814705,"zip":"9970008"},{"town":"福田","koaza":"","lat":38.765666,"lng":139.807911,"zip":"9970006"},{"town":"藤岡","koaza":"","lat":38.770702,"lng":139.917344,"zip":"9997638"},{"town":"藤沢","koaza":"","lat":38.687389,"lng":139.782711,"zip":"9970751"},{"town":"藤島","koaza":"","lat":38.766901,"lng":139.906448,"zip":"9997601"},{"town":"藤島関根","koaza":"","lat":38.762175,"lng":139.942401,"zip":"9997642"},{"town":"藤浪一丁目","koaza":"","lat":38.761762,"lng":139.89664,"zip":"9997604"},{"town":"藤浪二丁目","koaza":"","lat":38.76214,"lng":139.902277,"zip":"9997604"},{"town":"藤浪三丁目","koaza":"","lat":38.759338,"lng":139.896285,"zip":"9997604"},{"town":"藤浪四丁目","koaza":"","lat":38.76018,"lng":139.900862,"zip":"9997604"},{"town":"藤浪五丁目","koaza":"","lat":38.761855,"lng":139.906244,"zip":"9997604"},{"town":"藤の花一丁目","koaza":"","lat":38.772415,"lng":139.907958,"zip":"9997602"},{"town":"藤の花二丁目","koaza":"","lat":38.772469,"lng":139.906096,"zip":"9997602"},{"town":"双葉町","koaza":"","lat":38.718166,"lng":139.824027,"zip":"9970822"},{"town":"文園町","koaza":"","lat":38.716103,"lng":139.828423,"zip":"9970816"},{"town":"古郡","koaza":"","lat":38.754465,"lng":139.903337,"zip":"9997671"},{"town":"平京田","koaza":"","lat":38.739672,"lng":139.80387,"zip":"9970048"},{"town":"平成町","koaza":"","lat":38.744825,"lng":139.770012,"zip":"9971156"},{"town":"平足","koaza":"","lat":38.753056,"lng":139.926643,"zip":"9997645"},{"town":"豊栄","koaza":"","lat":38.7922,"lng":139.892359,"zip":"9997622"},{"town":"宝徳","koaza":"","lat":38.74012,"lng":139.881972,"zip":"9997675"},{"town":"宝谷","koaza":"","lat":38.640582,"lng":139.897197,"zip":"9970321"},{"town":"文下","koaza":"","lat":38.762654,"lng":139.846463,"zip":"9970003"},{"town":"ほなみ町","koaza":"","lat":38.716756,"lng":139.844692,"zip":"9970862"},{"town":"本郷","koaza":"","lat":38.598219,"lng":139.803767,"zip":"9970412"},{"town":"本町一丁目","koaza":"","lat":38.727411,"lng":139.831507,"zip":"9970034"},{"town":"本町二丁目","koaza":"","lat":38.72362,"lng":139.827276,"zip":"9970034"},{"town":"本町三丁目","koaza":"","lat":38.724056,"lng":139.821419,"zip":"9970034"},{"town":"本田","koaza":"","lat":38.759171,"lng":139.831774,"zip":"9970004"},{"town":"槙代","koaza":"","lat":38.586933,"lng":139.601602,"zip":"9970000"},{"town":"幕野内","koaza":"","lat":38.743369,"lng":139.873598,"zip":"9997676"},{"town":"松沢","koaza":"","lat":38.551143,"lng":139.790414,"zip":"9970626"},{"town":"松根","koaza":"","lat":38.636331,"lng":139.880122,"zip":"9970322"},{"town":"丸岡","koaza":"","lat":38.676276,"lng":139.832702,"zip":"9970334"},{"town":"馬渡","koaza":"","lat":38.691549,"lng":139.868709,"zip":"9970301"},{"town":"美咲町","koaza":"","lat":38.735766,"lng":139.79954,"zip":"9970857"},{"town":"水沢","koaza":"","lat":38.696144,"lng":139.742918,"zip":"9997542"},{"town":"みずほ","koaza":"","lat":38.712516,"lng":139.734116,"zip":"9997548"},{"town":"道田町","koaza":"","lat":38.726874,"lng":139.803018,"zip":"9970837"},{"town":"みどり町","koaza":"","lat":38.731993,"lng":139.809884,"zip":"9970046"},{"town":"美原町","koaza":"","lat":38.719329,"lng":139.818219,"zip":"9970826"},{"town":"箕升新田","koaza":"","lat":38.743216,"lng":139.888834,"zip":"9997674"},{"town":"宮沢","koaza":"","lat":38.772279,"lng":139.751523,"zip":"9971202"},{"town":"三和","koaza":"","lat":38.776966,"lng":139.93031,"zip":"9997634"},{"town":"三和町","koaza":"","lat":38.72088,"lng":139.831684,"zip":"9970818"},{"town":"民田","koaza":"","lat":38.702885,"lng":139.822667,"zip":"9970361"},{"town":"睦町","koaza":"","lat":38.7209,"lng":139.827545,"zip":"9970817"},{"town":"森片","koaza":"","lat":38.709798,"lng":139.776677,"zip":"9970844"},{"town":"八色木","koaza":"","lat":38.79301,"lng":139.903056,"zip":"9997631"},{"town":"谷地興屋","koaza":"","lat":38.74781,"lng":139.917243,"zip":"9997662"},{"town":"八ツ興屋","koaza":"","lat":38.714049,"lng":139.840622,"zip":"9970807"},{"town":"柳田","koaza":"","lat":38.723407,"lng":139.808457,"zip":"9970833"},{"town":"柳久瀬","koaza":"","lat":38.738564,"lng":139.897006,"zip":"9997672"},{"town":"矢馳","koaza":"","lat":38.732515,"lng":139.775717,"zip":"9970855"},{"town":"矢引","koaza":"","lat":38.700836,"lng":139.704657,"zip":"9997545"},{"town":"山五十川","koaza":"","lat":38.645496,"lng":139.657764,"zip":"9997201"},{"town":"山田","koaza":"","lat":38.741506,"lng":139.776156,"zip":"9970856"},{"town":"湯温海","koaza":"","lat":38.613163,"lng":139.618002,"zip":"9997204"},{"town":"楪","koaza":"","lat":38.768706,"lng":139.938985,"zip":"9997641"},{"town":"湯田川","koaza":"","lat":38.696364,"lng":139.766495,"zip":"9970752"},{"town":"湯野沢","koaza":"","lat":38.776711,"lng":139.839586,"zip":"9970001"},{"town":"湯野浜","koaza":"","lat":38.775076,"lng":139.756491,"zip":"9971201"},{"town":"湯野浜一丁目","koaza":"","lat":38.781441,"lng":139.75252,"zip":"9971201"},{"town":"湯野浜二丁目","koaza":"","lat":38.781316,"lng":139.755573,"zip":"9971201"},{"town":"由良","koaza":"","lat":38.720642,"lng":139.699222,"zip":"9997464"},{"town":"由良一丁目","koaza":"","lat":38.717662,"lng":139.684574,"zip":"9997464"},{"town":"由良二丁目","koaza":"","lat":38.720526,"lng":139.687206,"zip":"9997464"},{"town":"由良三丁目","koaza":"","lat":38.723113,"lng":139.690747,"zip":"9997464"},{"town":"陽光町","koaza":"","lat":38.722954,"lng":139.816343,"zip":"9970827"},{"town":"余慶町","koaza":"","lat":38.746924,"lng":139.831971,"zip":"9970010"},{"town":"淀川町","koaza":"","lat":38.730085,"lng":139.804108,"zip":"9970838"},{"town":"無音","koaza":"","lat":38.758976,"lng":139.932368,"zip":"9997643"},{"town":"若葉町","koaza":"","lat":38.732556,"lng":139.825554,"zip":"9970037"},{"town":"早田","koaza":"","lat":38.569305,"lng":139.573821,"zip":"9997121"},{"town":"渡前","koaza":"","lat":38.751833,"lng":139.885846,"zip":"9997683"},{"town":"和名川","koaza":"","lat":38.761928,"lng":139.876199,"zip":"9997684"},{"town":"鼠ケ関","koaza":"乙","lat":38.557039,"lng":139.546468,"zip":"9997126"},{"town":"鼠ケ関","koaza":"原海","lat":38.555469,"lng":139.5451,"zip":"9997126"},{"town":"鼠ケ関","koaza":"横路","lat":38.560717,"lng":139.549985,"zip":"9997126"},{"town":"鼠ケ関","koaza":"丙","lat":38.554514,"lng":139.548205,"zip":"9997126"},{"town":"鼠ケ関","koaza":"甲","lat":38.560838,"lng":139.549936,"zip":"9997126"},{"town":"鼠ケ関","koaza":"奥田","lat":38.553493,"lng":139.550397,"zip":"9997126"},{"town":"鼠ケ関","koaza":"中道","lat":38.554956,"lng":139.552929,"zip":"9997126"},{"town":"温海","koaza":"己","lat":38.618023,"lng":139.582338,"zip":"9997205"},{"town":"温海","koaza":"釜谷坂","lat":38.617378,"lng":139.58161,"zip":"9997205"},{"town":"温海","koaza":"丁","lat":38.630116,"lng":139.590287,"zip":"9997205"},{"town":"温海","koaza":"戊","lat":38.625469,"lng":139.588772,"zip":"9997205"},{"town":"温海","koaza":"片淵","lat":38.620315,"lng":139.586472,"zip":"9997205"},{"town":"温海","koaza":"温福","lat":38.633903,"lng":139.592342,"zip":"9997205"},{"town":"湯温海","koaza":"紅葉岡","lat":38.612869,"lng":139.59919,"zip":"9997204"},{"town":"温海","koaza":"荻田","lat":38.617805,"lng":139.593292,"zip":"9997205"},{"town":"湯温海","koaza":"湯之尻","lat":38.61713,"lng":139.598904,"zip":"9997204"},{"town":"湯温海","koaza":"湯之里","lat":38.614729,"lng":139.60234,"zip":"9997204"},{"town":"湯温海","koaza":"甲","lat":38.616494,"lng":139.609609,"zip":"9997204"},{"town":"湯温海","koaza":"丁","lat":38.615107,"lng":139.605737,"zip":"9997204"},{"town":"湯温海","koaza":"湯見ケ代","lat":38.613728,"lng":139.611597,"zip":"9997204"},{"town":"三瀬","koaza":"横町","lat":38.701635,"lng":139.66344,"zip":"9997463"},{"town":"三瀬","koaza":"宮ノ前","lat":38.707901,"lng":139.668273,"zip":"9997463"},{"town":"三瀬","koaza":"殿田","lat":38.702802,"lng":139.668297,"zip":"9997463"},{"town":"三瀬","koaza":"堅田","lat":38.701895,"lng":139.670765,"zip":"9997463"},{"town":"由良","koaza":"由良沢","lat":38.715212,"lng":139.677082,"zip":"9997464"},{"town":"由良","koaza":"町田","lat":38.718834,"lng":139.691771,"zip":"9997464"},{"town":"今泉","koaza":"大久保","lat":38.761768,"lng":139.724774,"zip":"9971206"},{"town":"大広","koaza":"大木","lat":38.704556,"lng":139.727638,"zip":"9997543"},{"town":"加茂","koaza":"大崩","lat":38.760641,"lng":139.730602,"zip":"9971204"},{"town":"大広","koaza":"大木ノ下","lat":38.704043,"lng":139.729255,"zip":"9997543"},{"town":"大広","koaza":"広浜","lat":38.701853,"lng":139.733153,"zip":"9997543"},{"town":"加茂","koaza":"弁慶沢","lat":38.765794,"lng":139.736093,"zip":"9971204"},{"town":"水沢","koaza":"木ノ下","lat":38.707037,"lng":139.737952,"zip":"9997542"},{"town":"水沢","koaza":"水京","lat":38.708486,"lng":139.734378,"zip":"9997542"},{"town":"加茂","koaza":"加茂","lat":38.760833,"lng":139.735742,"zip":"9971204"},{"town":"加茂","koaza":"岩倉","lat":38.759598,"lng":139.735723,"zip":"9971204"},{"town":"菱津","koaza":"新興","lat":38.743595,"lng":139.747866,"zip":"9971131"},{"town":"水沢","koaza":"水沢尻","lat":38.711596,"lng":139.73863,"zip":"9997542"},{"town":"水沢","koaza":"山ノ腰","lat":38.708333,"lng":139.740894,"zip":"9997542"},{"town":"菱津","koaza":"山栃谷","lat":38.744902,"lng":139.749653,"zip":"9971131"},{"town":"水沢","koaza":"楯ノ下","lat":38.705589,"lng":139.740573,"zip":"9997542"},{"town":"水沢","koaza":"中布目","lat":38.711618,"lng":139.741193,"zip":"9997542"},{"town":"水沢","koaza":"行司免","lat":38.711461,"lng":139.743028,"zip":"9997542"},{"town":"水沢","koaza":"割田","lat":38.712309,"lng":139.743057,"zip":"9997542"},{"town":"大山","koaza":"都沢","lat":38.757948,"lng":139.762587,"zip":"9971124"},{"town":"中楯","koaza":"大町","lat":38.717531,"lng":139.747045,"zip":"9971135"},{"town":"栃屋","koaza":"馬建","lat":38.741905,"lng":139.74876,"zip":"9971132"},{"town":"田川","koaza":"品の町","lat":38.701921,"lng":139.747109,"zip":"9970753"},{"town":"田川","koaza":"宮野前","lat":38.69886,"lng":139.747668,"zip":"9970753"},{"town":"田川","koaza":"中里前","lat":38.703949,"lng":139.748342,"zip":"9970753"},{"town":"下小中","koaza":"田中屋敷","lat":38.721364,"lng":139.748992,"zip":"9971134"},{"town":"下小中","koaza":"壱の揚","lat":38.720147,"lng":139.751518,"zip":"9971134"},{"town":"菱津","koaza":"坂下","lat":38.746258,"lng":139.753302,"zip":"9971131"},{"town":"宮沢","koaza":"小山腰","lat":38.776056,"lng":139.749853,"zip":"9971202"},{"town":"下興屋","koaza":"腰前","lat":38.729047,"lng":139.752192,"zip":"9971133"},{"town":"大山","koaza":"砂押","lat":38.747431,"lng":139.758186,"zip":"9971124"},{"town":"下興屋","koaza":"笊田","lat":38.728713,"lng":139.753834,"zip":"9971133"},{"town":"大山","koaza":"北田","lat":38.743455,"lng":139.754779,"zip":"9971124"},{"town":"上清水","koaza":"蔵王前","lat":38.706597,"lng":139.755445,"zip":"9970847"},{"town":"栃屋","koaza":"谷地道","lat":38.736377,"lng":139.758829,"zip":"9971132"},{"town":"上清水","koaza":"宮崎","lat":38.71023,"lng":139.756526,"zip":"9970847"},{"town":"大山","koaza":"堤下","lat":38.748199,"lng":139.757824,"zip":"9971124"},{"town":"清水新田","koaza":"南田","lat":38.72908,"lng":139.760076,"zip":"9970848"},{"town":"中清水","koaza":"大沢田","lat":38.708627,"lng":139.761381,"zip":"9970846"},{"town":"下川","koaza":"窪畑","lat":38.795073,"lng":139.765968,"zip":"9971117"},{"town":"栃屋","koaza":"千苅","lat":38.738162,"lng":139.758812,"zip":"9971132"},{"town":"栃屋","koaza":"小水川","lat":38.736386,"lng":139.760987,"zip":"9971132"},{"town":"下川","koaza":"東海林場","lat":38.784456,"lng":139.761361,"zip":"9971117"},{"town":"中清水","koaza":"割田","lat":38.713413,"lng":139.761334,"zip":"9970846"},{"town":"馬町","koaza":"宮ノ腰","lat":38.764872,"lng":139.762558,"zip":"9971125"},{"town":"湯田川","koaza":"瀬戸ノ沢","lat":38.691783,"lng":139.767755,"zip":"9970752"},{"town":"大山","koaza":"転目木","lat":38.745439,"lng":139.761923,"zip":"9971124"},{"town":"中清水","koaza":"桃木沢","lat":38.712858,"lng":139.763801,"zip":"9970846"},{"town":"栃屋","koaza":"天保恵","lat":38.739852,"lng":139.763536,"zip":"9971132"},{"town":"馬町","koaza":"駒繋","lat":38.759815,"lng":139.766127,"zip":"9971125"},{"town":"下清水","koaza":"田中","lat":38.722402,"lng":139.767565,"zip":"9970845"},{"town":"下清水","koaza":"内田元","lat":38.717315,"lng":139.765939,"zip":"9970845"},{"town":"山田","koaza":"油田","lat":38.740743,"lng":139.770822,"zip":"9970856"},{"town":"下川","koaza":"龍花崎","lat":38.784583,"lng":139.775603,"zip":"9971117"},{"town":"大山","koaza":"天保恵","lat":38.738724,"lng":139.765661,"zip":"9971124"},{"town":"湯田川","koaza":"滝ノ沢","lat":38.701932,"lng":139.766227,"zip":"9970752"},{"town":"大山","koaza":"向町","lat":38.740012,"lng":139.766852,"zip":"9971124"},{"town":"下川","koaza":"七窪","lat":38.795376,"lng":139.773446,"zip":"9971117"},{"town":"馬町","koaza":"池ノ下","lat":38.76708,"lng":139.766249,"zip":"9971125"},{"town":"馬町","koaza":"枇杷川原","lat":38.762903,"lng":139.766895,"zip":"9971125"},{"town":"馬町","koaza":"諏訪岸","lat":38.758308,"lng":139.76757,"zip":"9971125"},{"town":"湯田川","koaza":"杉ケ沢","lat":38.70456,"lng":139.768509,"zip":"9970752"},{"town":"馬町","koaza":"八幡田","lat":38.769195,"lng":139.769227,"zip":"9971125"},{"town":"下川","koaza":"関根","lat":38.773939,"lng":139.769442,"zip":"9971117"},{"town":"下清水","koaza":"山田","lat":38.713672,"lng":139.770137,"zip":"9970845"},{"town":"大山","koaza":"近田","lat":38.755121,"lng":139.768475,"zip":"9971124"},{"town":"湯田川","koaza":"湯元","lat":38.693307,"lng":139.769851,"zip":"9970752"},{"town":"大山","koaza":"茨田","lat":38.753114,"lng":139.768664,"zip":"9971124"},{"town":"下川","koaza":"陳田","lat":38.779118,"lng":139.77425,"zip":"9971117"},{"town":"森片","koaza":"前田","lat":38.708203,"lng":139.772774,"zip":"9970844"},{"town":"大山","koaza":"中道","lat":38.751119,"lng":139.768875,"zip":"9971124"},{"town":"中清水","koaza":"柿木沢","lat":38.708689,"lng":139.773472,"zip":"9970846"},{"town":"湯田川","koaza":"万年入","lat":38.692162,"lng":139.769692,"zip":"9970752"},{"town":"矢馳","koaza":"上矢馳","lat":38.729799,"lng":139.774425,"zip":"9970855"},{"town":"湯田川","koaza":"中田","lat":38.697886,"lng":139.773551,"zip":"9970752"},{"town":"下川","koaza":"堰下","lat":38.772619,"lng":139.772813,"zip":"9971117"},{"town":"下川","koaza":"西谷地","lat":38.773435,"lng":139.772827,"zip":"9971117"},{"town":"白山","koaza":"西野","lat":38.725813,"lng":139.780516,"zip":"9970841"},{"town":"山田","koaza":"小京田","lat":38.739299,"lng":139.773032,"zip":"9970856"},{"town":"千安京田","koaza":"龍花山","lat":38.786692,"lng":139.778225,"zip":"9971114"},{"town":"湯田川","koaza":"砂子田","lat":38.701541,"lng":139.77312,"zip":"9970752"},{"town":"白山","koaza":"西木村","lat":38.724668,"lng":139.777329,"zip":"9970841"},{"town":"藤沢","koaza":"西側","lat":38.689452,"lng":139.774398,"zip":"9970751"},{"town":"友江","koaza":"川向","lat":38.747635,"lng":139.778222,"zip":"9971122"},{"town":"山田","koaza":"仲道","lat":38.741455,"lng":139.775284,"zip":"9970856"},{"town":"下川","koaza":"西田面","lat":38.774648,"lng":139.777022,"zip":"9971117"},{"town":"下川","koaza":"松葉","lat":38.777818,"lng":139.779156,"zip":"9971117"},{"town":"藤沢","koaza":"中辻","lat":38.696149,"lng":139.775115,"zip":"9970751"},{"town":"藤沢","koaza":"東側","lat":38.694485,"lng":139.776266,"zip":"9970751"},{"town":"下川","koaza":"前田元","lat":38.772422,"lng":139.776314,"zip":"9971117"},{"town":"森片","koaza":"山崎","lat":38.710026,"lng":139.776889,"zip":"9970844"},{"town":"下川","koaza":"合喜","lat":38.774303,"lng":139.777448,"zip":"9971117"},{"town":"辻興屋","koaza":"街ノ上","lat":38.789246,"lng":139.786237,"zip":"9971115"},{"town":"下川","koaza":"大坪","lat":38.775426,"lng":139.780025,"zip":"9971117"},{"town":"藤沢","koaza":"荒沢","lat":38.6983,"lng":139.779155,"zip":"9970751"},{"town":"藤沢","koaza":"軽井沢","lat":38.702891,"lng":139.785666,"zip":"9970751"},{"town":"下川","koaza":"樋渡","lat":38.78037,"lng":139.783709,"zip":"9971117"},{"town":"山田","koaza":"境興屋","lat":38.741343,"lng":139.781732,"zip":"9970856"},{"town":"岡山","koaza":"大谷地","lat":38.7057,"lng":139.780557,"zip":"9970843"},{"town":"矢馳","koaza":"金光寺","lat":38.72848,"lng":139.780692,"zip":"9970855"},{"town":"白山","koaza":"村北","lat":38.727674,"lng":139.784521,"zip":"9970841"},{"town":"大淀川","koaza":"鋤橋","lat":38.736617,"lng":139.781188,"zip":"9970854"},{"town":"下川","koaza":"五百刈","lat":38.77747,"lng":139.786129,"zip":"9971117"},{"town":"大淀川","koaza":"川端","lat":38.742096,"lng":139.783935,"zip":"9970854"},{"town":"友江","koaza":"中野","lat":38.745846,"lng":139.785604,"zip":"9971122"},{"town":"岡山","koaza":"六供","lat":38.707255,"lng":139.787973,"zip":"9970843"},{"town":"白山","koaza":"囲地田","lat":38.724539,"lng":139.783944,"zip":"9970841"},{"town":"大山","koaza":"上柳原","lat":38.750171,"lng":139.784768,"zip":"9971124"},{"town":"下川","koaza":"龍花","lat":38.782029,"lng":139.787622,"zip":"9971117"},{"town":"大山","koaza":"下柳原","lat":38.761315,"lng":139.786074,"zip":"9971124"},{"town":"大淀川","koaza":"洞合","lat":38.730174,"lng":139.786565,"zip":"9970854"},{"town":"長崎","koaza":"下畑","lat":38.799876,"lng":139.790488,"zip":"9971113"},{"town":"白山","koaza":"興野","lat":38.726595,"lng":139.787797,"zip":"9970841"},{"town":"大淀川","koaza":"畑田","lat":38.736746,"lng":139.788736,"zip":"9970854"},{"town":"下川","koaza":"鞘師","lat":38.774627,"lng":139.793285,"zip":"9971117"},{"town":"小淀川","koaza":"色田","lat":38.730742,"lng":139.795164,"zip":"9970853"},{"town":"布目","koaza":"西通","lat":38.740636,"lng":139.794644,"zip":"9970851"},{"town":"長崎","koaza":"花見原","lat":38.795092,"lng":139.793071,"zip":"9971113"},{"town":"白山","koaza":"新田","lat":38.719372,"lng":139.79042,"zip":"9970841"},{"town":"安丹","koaza":"村上","lat":38.748021,"lng":139.791228,"zip":"9970057"},{"town":"辻興屋","koaza":"三丁場","lat":38.786248,"lng":139.792117,"zip":"9971115"},{"town":"井岡","koaza":"和田","lat":38.711764,"lng":139.794548,"zip":"9970842"},{"town":"千安京田","koaza":"千寿","lat":38.776566,"lng":139.797597,"zip":"9971114"},{"town":"安丹","koaza":"山ノ下","lat":38.75261,"lng":139.791504,"zip":"9970057"},{"town":"井岡","koaza":"奈良岡","lat":38.71483,"lng":139.792002,"zip":"9970842"},{"town":"安丹","koaza":"上丹波","lat":38.751736,"lng":139.791549,"zip":"9970057"},{"town":"井岡","koaza":"沢田","lat":38.707805,"lng":139.793074,"zip":"9970842"},{"town":"布目","koaza":"宮田","lat":38.744478,"lng":139.79392,"zip":"9970851"},{"town":"寺田","koaza":"大道下","lat":38.730043,"lng":139.793106,"zip":"9970836"},{"town":"中野京田","koaza":"大坪","lat":38.747721,"lng":139.793225,"zip":"9970056"},{"town":"千安京田","koaza":"泰田","lat":38.78218,"lng":139.796485,"zip":"9971114"},{"town":"林崎","koaza":"油田","lat":38.757653,"lng":139.795553,"zip":"9970058"},{"town":"安丹","koaza":"東丹波","lat":38.755584,"lng":139.796326,"zip":"9970057"},{"town":"林崎","koaza":"道田","lat":38.75988,"lng":139.798014,"zip":"9970058"},{"town":"茨新田","koaza":"砂山","lat":38.806147,"lng":139.799342,"zip":"9971111"},{"town":"茨新田","koaza":"千花山","lat":38.80335,"lng":139.797801,"zip":"9971111"},{"town":"布目","koaza":"中通","lat":38.73856,"lng":139.797573,"zip":"9970851"},{"town":"茨新田","koaza":"千馬合","lat":38.804032,"lng":139.800029,"zip":"9971111"},{"town":"長崎","koaza":"道田","lat":38.796714,"lng":139.799529,"zip":"9971113"},{"town":"中野京田","koaza":"上大坪","lat":38.742831,"lng":139.79925,"zip":"9970056"},{"town":"小淀川","koaza":"谷地田","lat":38.731427,"lng":139.798069,"zip":"9970853"},{"town":"林崎","koaza":"千苅","lat":38.75576,"lng":139.802197,"zip":"9970058"},{"town":"寺田","koaza":"後田","lat":38.724648,"lng":139.797416,"zip":"9970836"},{"town":"林崎","koaza":"水口","lat":38.761387,"lng":139.800956,"zip":"9970058"},{"town":"茨新田","koaza":"興野","lat":38.801023,"lng":139.801614,"zip":"9971111"},{"town":"千安京田","koaza":"京田","lat":38.78431,"lng":139.801323,"zip":"9971114"},{"town":"辻興屋","koaza":"大黒興屋","lat":38.785918,"lng":139.801036,"zip":"9971115"},{"town":"寺田","koaza":"道田","lat":38.725904,"lng":139.799579,"zip":"9970836"},{"town":"長崎","koaza":"井坪","lat":38.797426,"lng":139.798048,"zip":"9971113"},{"town":"寺田","koaza":"大東","lat":38.724312,"lng":139.800358,"zip":"9970836"},{"town":"中野京田","koaza":"白川","lat":38.747408,"lng":139.799023,"zip":"9970056"},{"town":"井岡","koaza":"塔の腰","lat":38.709778,"lng":139.803756,"zip":"9970842"},{"town":"中野京田","koaza":"壱柳","lat":38.743613,"lng":139.801094,"zip":"9970056"},{"town":"林崎","koaza":"中堰","lat":38.763698,"lng":139.803268,"zip":"9970058"},{"town":"長崎","koaza":"高道","lat":38.800128,"lng":139.8008,"zip":"9971113"},{"town":"井岡","koaza":"御衣田","lat":38.712787,"lng":139.801896,"zip":"9970842"},{"town":"高坂","koaza":"仏供沢","lat":38.702919,"lng":139.801496,"zip":"9970369"},{"town":"平京田","koaza":"屋敷廻","lat":38.739282,"lng":139.803419,"zip":"9970048"},{"town":"高坂","koaza":"杉ヶ沢","lat":38.70127,"lng":139.806477,"zip":"9970369"},{"town":"高坂","koaza":"新沢田","lat":38.700332,"lng":139.803036,"zip":"9970369"},{"town":"面野山","koaza":"地ノ本","lat":38.779741,"lng":139.804479,"zip":"9971116"},{"town":"茨新田","koaza":"上山根","lat":38.807327,"lng":139.803498,"zip":"9971111"},{"town":"福田","koaza":"阿部","lat":38.763989,"lng":139.806252,"zip":"9970006"},{"town":"長崎","koaza":"村北","lat":38.800235,"lng":139.802576,"zip":"9971113"},{"town":"高坂","koaza":"宮下","lat":38.706795,"lng":139.804328,"zip":"9970369"},{"town":"柳田","koaza":"田中","lat":38.723199,"lng":139.807907,"zip":"9970833"},{"town":"豊田","koaza":"辻外","lat":38.769645,"lng":139.806191,"zip":"9970007"},{"town":"高坂","koaza":"金沢","lat":38.701587,"lng":139.80509,"zip":"9970369"},{"town":"林崎","koaza":"鍬代","lat":38.760245,"lng":139.806433,"zip":"9970058"},{"town":"面野山","koaza":"舞代","lat":38.778533,"lng":139.806322,"zip":"9971116"},{"town":"豊田","koaza":"中瀬","lat":38.774722,"lng":139.807559,"zip":"9970007"},{"town":"西京田","koaza":"前田","lat":38.745143,"lng":139.809575,"zip":"9970055"},{"town":"面野山","koaza":"鶴之瀬","lat":38.77944,"lng":139.807782,"zip":"9971116"},{"town":"福田","koaza":"中田","lat":38.76611,"lng":139.808484,"zip":"9970006"},{"town":"高坂","koaza":"楯ノ下","lat":38.700273,"lng":139.811329,"zip":"9970369"},{"town":"高田","koaza":"下村","lat":38.751711,"lng":139.807498,"zip":"9970054"},{"town":"辻興屋","koaza":"腰前","lat":38.785186,"lng":139.806971,"zip":"9971115"},{"town":"辻興屋","koaza":"丸沼","lat":38.786736,"lng":139.808886,"zip":"9971115"},{"town":"豊田","koaza":"堰向","lat":38.769399,"lng":139.811886,"zip":"9970007"},{"town":"平田","koaza":"平元","lat":38.778226,"lng":139.810719,"zip":"9970008"},{"town":"福田","koaza":"免田","lat":38.760646,"lng":139.81052,"zip":"9970006"},{"town":"番田","koaza":"東田","lat":38.710967,"lng":139.809489,"zip":"9970835"},{"town":"北京田","koaza":"丸岡田","lat":38.754477,"lng":139.808432,"zip":"9970053"},{"town":"高坂","koaza":"山口","lat":38.696293,"lng":139.810657,"zip":"9970369"},{"town":"豊田","koaza":"谷地田","lat":38.773857,"lng":139.813139,"zip":"9970007"},{"town":"覚岸寺","koaza":"砂子","lat":38.756247,"lng":139.812975,"zip":"9970052"},{"town":"高田","koaza":"上村","lat":38.746598,"lng":139.812811,"zip":"9970054"},{"town":"福田","koaza":"八日田","lat":38.765126,"lng":139.812165,"zip":"9970006"},{"town":"高坂","koaza":"三ケ水口","lat":38.705942,"lng":139.813772,"zip":"9970369"},{"town":"平田","koaza":"披栄田","lat":38.779979,"lng":139.813618,"zip":"9970008"},{"town":"荒井京田","koaza":"西田","lat":38.757377,"lng":139.813795,"zip":"9970051"},{"town":"青龍寺","koaza":"村下","lat":38.690559,"lng":139.817562,"zip":"9970368"},{"town":"日枝","koaza":"小真木原","lat":38.711474,"lng":139.813666,"zip":"9970824"},{"town":"青龍寺","koaza":"金峯","lat":38.688551,"lng":139.813425,"zip":"9970368"},{"town":"高坂","koaza":"金谷","lat":38.698227,"lng":139.812704,"zip":"9970369"},{"town":"高坂","koaza":"天王原","lat":38.703119,"lng":139.814573,"zip":"9970369"},{"town":"平田","koaza":"伊久田","lat":38.779333,"lng":139.813405,"zip":"9970008"},{"town":"青龍寺","koaza":"北内","lat":38.689637,"lng":139.816058,"zip":"9970368"},{"town":"荒井京田","koaza":"北田","lat":38.75973,"lng":139.815021,"zip":"9970051"},{"town":"北京田","koaza":"浜中田","lat":38.749241,"lng":139.815513,"zip":"9970053"},{"town":"日枝","koaza":"鳥居上","lat":38.709172,"lng":139.815295,"zip":"9970824"},{"town":"平田","koaza":"財当","lat":38.780128,"lng":139.814431,"zip":"9970008"},{"town":"播磨","koaza":"助郷","lat":38.767657,"lng":139.822333,"zip":"9970002"},{"town":"日枝","koaza":"坂本","lat":38.711497,"lng":139.819041,"zip":"9970824"},{"town":"西沼","koaza":"三百刈","lat":38.802409,"lng":139.815912,"zip":"9971112"},{"town":"播磨","koaza":"須磨田","lat":38.770461,"lng":139.818394,"zip":"9970002"},{"town":"平田","koaza":"長田","lat":38.780575,"lng":139.817639,"zip":"9970008"},{"town":"茨新田","koaza":"村東","lat":38.805185,"lng":139.82038,"zip":"9971111"},{"town":"小京田","koaza":"堂野口","lat":38.762157,"lng":139.815824,"zip":"9970005"},{"town":"高坂","koaza":"古町","lat":38.700677,"lng":139.817606,"zip":"9970369"},{"town":"茨新田","koaza":"村下","lat":38.806742,"lng":139.820292,"zip":"9971111"},{"town":"青龍寺","koaza":"川内","lat":38.68831,"lng":139.817662,"zip":"9970368"},{"town":"西沼","koaza":"深田","lat":38.799167,"lng":139.817559,"zip":"9971112"},{"town":"日枝","koaza":"沢田","lat":38.710646,"lng":139.816498,"zip":"9970824"},{"town":"青龍寺","koaza":"山の内","lat":38.688015,"lng":139.815198,"zip":"9970368"},{"town":"覚岸寺","koaza":"菅谷地","lat":38.752796,"lng":139.81799,"zip":"9970052"},{"town":"荒井京田","koaza":"荒田","lat":38.754169,"lng":139.82073,"zip":"9970051"},{"town":"中京田","koaza":"早田","lat":38.781063,"lng":139.821831,"zip":"9970009"},{"town":"西沼","koaza":"村上","lat":38.798934,"lng":139.820693,"zip":"9971112"},{"town":"西沼","koaza":"高屋","lat":38.799408,"lng":139.819534,"zip":"9971112"},{"town":"覚岸寺","koaza":"水上","lat":38.751829,"lng":139.820044,"zip":"9970052"},{"town":"日枝","koaza":"宮ノ下","lat":38.712943,"lng":139.820332,"zip":"9970824"},{"town":"日枝","koaza":"大塚","lat":38.714311,"lng":139.821377,"zip":"9970824"},{"town":"中京田","koaza":"十王免","lat":38.77648,"lng":139.825165,"zip":"9970009"},{"town":"播磨","koaza":"若松","lat":38.771103,"lng":139.824554,"zip":"9970002"},{"town":"滝沢","koaza":"村尻","lat":38.672041,"lng":139.821382,"zip":"9970364"},{"town":"西沼","koaza":"嶋野","lat":38.801992,"lng":139.820201,"zip":"9971112"},{"town":"北京田","koaza":"下鳥ノ巣","lat":38.745862,"lng":139.824046,"zip":"9970053"},{"town":"小京田","koaza":"角地","lat":38.761282,"lng":139.824012,"zip":"9970005"},{"town":"民田","koaza":"十二前","lat":38.70305,"lng":139.822883,"zip":"9970361"},{"town":"大宝寺","koaza":"日本国","lat":38.746921,"lng":139.826358,"zip":"9970117"},{"town":"滝沢","koaza":"村東","lat":38.674047,"lng":139.825056,"zip":"9970364"},{"town":"日枝","koaza":"宮脇","lat":38.710898,"lng":139.824724,"zip":"9970824"},{"town":"民田","koaza":"天王前","lat":38.699371,"lng":139.824464,"zip":"9970361"},{"town":"民田","koaza":"村下","lat":38.703774,"lng":139.824215,"zip":"9970361"},{"town":"寿","koaza":"漆原","lat":38.685419,"lng":139.823565,"zip":"9970363"},{"town":"小京田","koaza":"黒羽","lat":38.760929,"lng":139.823506,"zip":"9970005"},{"town":"寿","koaza":"川口","lat":38.682491,"lng":139.827443,"zip":"9970363"},{"town":"民田","koaza":"船附","lat":38.702474,"lng":139.824701,"zip":"9970361"},{"town":"播磨","koaza":"通端","lat":38.772716,"lng":139.825498,"zip":"9970002"},{"town":"日枝","koaza":"海老島","lat":38.712844,"lng":139.825341,"zip":"9970824"},{"town":"民田","koaza":"五百刈","lat":38.700814,"lng":139.824699,"zip":"9970361"},{"town":"中橋","koaza":"石ナ田","lat":38.694043,"lng":139.825912,"zip":"9970362"},{"town":"中橋","koaza":"村西","lat":38.68644,"lng":139.829174,"zip":"9970362"},{"town":"中橋","koaza":"山王下","lat":38.695272,"lng":139.82725,"zip":"9970362"},{"town":"播磨","koaza":"相生","lat":38.769574,"lng":139.827856,"zip":"9970002"},{"town":"中橋","koaza":"備川","lat":38.694267,"lng":139.827671,"zip":"9970362"},{"town":"本田","koaza":"相田","lat":38.764916,"lng":139.827707,"zip":"9970004"},{"town":"中橋","koaza":"大川原","lat":38.696586,"lng":139.827565,"zip":"9970362"},{"town":"中京田","koaza":"太夫の越","lat":38.776337,"lng":139.829969,"zip":"9970009"},{"town":"播磨","koaza":"樋口","lat":38.771,"lng":139.830315,"zip":"9970002"},{"town":"中京田","koaza":"上田本","lat":38.773833,"lng":139.830144,"zip":"9970009"},{"town":"本田","koaza":"馬場添","lat":38.765925,"lng":139.828744,"zip":"9970004"},{"town":"本田","koaza":"八百地","lat":38.752997,"lng":139.830518,"zip":"9970004"},{"town":"寿","koaza":"塩田","lat":38.683064,"lng":139.828944,"zip":"9970363"},{"town":"谷定","koaza":"伊勢堂","lat":38.660253,"lng":139.83135,"zip":"9970366"},{"town":"中橋","koaza":"村東","lat":38.68555,"lng":139.829926,"zip":"9970362"},{"town":"丸岡","koaza":"町の内","lat":38.680982,"lng":139.833303,"zip":"9970334"},{"town":"外内島","koaza":"石名田","lat":38.707128,"lng":139.830884,"zip":"9970815"},{"town":"丸岡","koaza":"鳥飼","lat":38.683543,"lng":139.834879,"zip":"9970334"},{"town":"下山添","koaza":"庄南","lat":38.690881,"lng":139.833174,"zip":"9970341"},{"town":"外内島","koaza":"信州川原","lat":38.70299,"lng":139.832366,"zip":"9970815"},{"town":"外内島","koaza":"明神川原","lat":38.707308,"lng":139.833744,"zip":"9970815"},{"town":"板井川","koaza":"村西","lat":38.640435,"lng":139.835804,"zip":"9970331"},{"town":"茅原","koaza":"西茅原","lat":38.74957,"lng":139.835336,"zip":"9970019"},{"town":"湯野沢","koaza":"茨田","lat":38.777785,"lng":139.833315,"zip":"9970001"},{"town":"播磨","koaza":"上堤","lat":38.768187,"lng":139.832466,"zip":"9970002"},{"town":"播磨","koaza":"野中","lat":38.765753,"lng":139.837875,"zip":"9970002"},{"town":"下名川","koaza":"落合","lat":38.61163,"lng":139.836516,"zip":"9970404"},{"town":"外内島","koaza":"古川","lat":38.702617,"lng":139.833857,"zip":"9970815"},{"town":"湯野沢","koaza":"沖田本","lat":38.774156,"lng":139.837066,"zip":"9970001"},{"town":"熊出","koaza":"日鑓","lat":38.618687,"lng":139.838081,"zip":"9970411"},{"town":"谷定","koaza":"白山","lat":38.657885,"lng":139.83484,"zip":"9970366"},{"town":"下名川","koaza":"村下","lat":38.607451,"lng":139.834797,"zip":"9970404"},{"town":"湯野沢","koaza":"外野谷地","lat":38.779283,"lng":139.83642,"zip":"9970001"},{"town":"熊出","koaza":"岡村","lat":38.632538,"lng":139.837998,"zip":"9970411"},{"town":"西荒屋","koaza":"蕨野","lat":38.655277,"lng":139.837798,"zip":"9970332"},{"town":"播磨","koaza":"小瀬京田","lat":38.763165,"lng":139.837101,"zip":"9970002"},{"town":"下山添","koaza":"一里塚","lat":38.694378,"lng":139.83639,"zip":"9970341"},{"town":"熊出","koaza":"南俣","lat":38.615691,"lng":139.835968,"zip":"9970411"},{"town":"下山添","koaza":"茶屋川原","lat":38.686583,"lng":139.837013,"zip":"9970341"},{"town":"常盤木","koaza":"湯殿","lat":38.665578,"lng":139.83793,"zip":"9970333"},{"town":"遠賀原","koaza":"芦原","lat":38.707266,"lng":139.838054,"zip":"9970806"},{"town":"中田","koaza":"八幡","lat":38.673396,"lng":139.840791,"zip":"9970345"},{"town":"熊出","koaza":"下村","lat":38.635651,"lng":139.843106,"zip":"9970411"},{"town":"湯野沢","koaza":"下川原","lat":38.780997,"lng":139.839506,"zip":"9970001"},{"town":"西荒屋","koaza":"角田","lat":38.651328,"lng":139.839299,"zip":"9970332"},{"town":"上山添","koaza":"神明前","lat":38.682478,"lng":139.841039,"zip":"9970346"},{"town":"西荒屋","koaza":"杉下","lat":38.649473,"lng":139.84315,"zip":"9970332"},{"town":"茅原","koaza":"草見鶴","lat":38.756956,"lng":139.841257,"zip":"9970019"},{"town":"熊出","koaza":"水無川前","lat":38.639339,"lng":139.844461,"zip":"9970411"},{"town":"下名川","koaza":"村西","lat":38.603664,"lng":139.839395,"zip":"9970404"},{"town":"下山添","koaza":"中通","lat":38.692967,"lng":139.842341,"zip":"9970341"},{"town":"熊出","koaza":"黒沢","lat":38.627027,"lng":139.842348,"zip":"9970411"},{"town":"越中山","koaza":"立岩","lat":38.610443,"lng":139.840929,"zip":"9970403"},{"town":"湯野沢","koaza":"上川原","lat":38.777026,"lng":139.840346,"zip":"9970001"},{"town":"湯野沢","koaza":"畑田","lat":38.77488,"lng":139.84211,"zip":"9970001"},{"town":"常盤木","koaza":"臼井","lat":38.660442,"lng":139.841987,"zip":"9970333"},{"town":"熊出","koaza":"沖田","lat":38.62918,"lng":139.840198,"zip":"9970411"},{"town":"下山添","koaza":"上通","lat":38.68809,"lng":139.842168,"zip":"9970341"},{"town":"文下","koaza":"広野","lat":38.760573,"lng":139.843131,"zip":"9970003"},{"town":"板井川","koaza":"宮の下","lat":38.64311,"lng":139.844532,"zip":"9970331"},{"town":"八ツ興屋","koaza":"北田","lat":38.715376,"lng":139.842563,"zip":"9970807"},{"town":"熊出","koaza":"長表","lat":38.632249,"lng":139.843834,"zip":"9970411"},{"town":"西荒屋","koaza":"宮の根","lat":38.65558,"lng":139.84314,"zip":"9970332"},{"town":"下山添","koaza":"下通","lat":38.697062,"lng":139.84426,"zip":"9970341"},{"town":"遠賀原","koaza":"稲荷","lat":38.707559,"lng":139.842237,"zip":"9970806"},{"town":"八ツ興屋","koaza":"南田","lat":38.712555,"lng":139.842545,"zip":"9970807"},{"town":"斎藤川原","koaza":"間々下","lat":38.707913,"lng":139.844857,"zip":"9970804"},{"town":"斎藤川原","koaza":"小鷹","lat":38.707649,"lng":139.842991,"zip":"9970804"},{"town":"中田","koaza":"追分","lat":38.669783,"lng":139.844767,"zip":"9970345"},{"town":"八ツ興屋","koaza":"土谷俣","lat":38.712976,"lng":139.844633,"zip":"9970807"},{"town":"越中山","koaza":"谷口","lat":38.61824,"lng":139.84721,"zip":"9970403"},{"town":"板井川","koaza":"片茎","lat":38.646682,"lng":139.850084,"zip":"9970331"},{"town":"桂荒俣","koaza":"下桂","lat":38.67429,"lng":139.846392,"zip":"9970343"},{"town":"文下","koaza":"仲田","lat":38.76276,"lng":139.844331,"zip":"9970003"},{"town":"上山添","koaza":"北早田","lat":38.681457,"lng":139.843965,"zip":"9970346"},{"town":"桂荒俣","koaza":"上桂","lat":38.670821,"lng":139.849098,"zip":"9970343"},{"town":"東荒屋","koaza":"小島","lat":38.670974,"lng":139.844869,"zip":"9970344"},{"town":"上山添","koaza":"文栄","lat":38.679329,"lng":139.848644,"zip":"9970346"},{"town":"中野新田","koaza":"村西","lat":38.62577,"lng":139.847323,"zip":"9970401"},{"town":"下山添","koaza":"長瀞","lat":38.689613,"lng":139.844552,"zip":"9970341"},{"town":"中野新田","koaza":"居村","lat":38.624564,"lng":139.847816,"zip":"9970401"},{"town":"熊出","koaza":"東村","lat":38.631912,"lng":139.847502,"zip":"9970411"},{"town":"東岩本","koaza":"沖田","lat":38.631118,"lng":139.853926,"zip":"9970402"},{"town":"道形","koaza":"二ツ屋","lat":38.75793,"lng":139.845483,"zip":"9970012"},{"town":"伊勢横内","koaza":"畑福","lat":38.713753,"lng":139.847497,"zip":"9970803"},{"town":"文下","koaza":"沼田","lat":38.760778,"lng":139.846923,"zip":"9970003"},{"town":"常盤木","koaza":"木原","lat":38.659719,"lng":139.847997,"zip":"9970333"},{"town":"斎藤川原","koaza":"林俣","lat":38.708476,"lng":139.848886,"zip":"9970804"},{"town":"熊出","koaza":"十王前","lat":38.637872,"lng":139.847297,"zip":"9970411"},{"town":"文下","koaza":"家岸","lat":38.766621,"lng":139.849076,"zip":"9970003"},{"town":"西荒屋","koaza":"川原田","lat":38.656559,"lng":139.848101,"zip":"9970332"},{"town":"我老林","koaza":"野中川原","lat":38.704914,"lng":139.848046,"zip":"9970805"},{"town":"東岩本","koaza":"野中","lat":38.6264,"lng":139.8509,"zip":"9970402"},{"town":"中野新田","koaza":"村東","lat":38.622044,"lng":139.850533,"zip":"9970401"},{"town":"西片屋","koaza":"興屋","lat":38.636419,"lng":139.852144,"zip":"9970323"},{"town":"文下","koaza":"久保田","lat":38.768513,"lng":139.844356,"zip":"9970003"},{"town":"上山添","koaza":"成田","lat":38.675807,"lng":139.849052,"zip":"9970346"},{"town":"東荒屋","koaza":"田中","lat":38.65692,"lng":139.85058,"zip":"9970344"},{"town":"伊勢横内","koaza":"伊勢郷","lat":38.714321,"lng":139.851171,"zip":"9970803"},{"town":"三千刈","koaza":"藤掛","lat":38.675887,"lng":139.853824,"zip":"9970342"},{"town":"文下","koaza":"村ノ内","lat":38.764909,"lng":139.849964,"zip":"9970003"},{"town":"我老林","koaza":"村西","lat":38.70342,"lng":139.850406,"zip":"9970805"},{"town":"斎藤川原","koaza":"中道","lat":38.708846,"lng":139.85089,"zip":"9970804"},{"town":"我老林","koaza":"下川原","lat":38.70383,"lng":139.852509,"zip":"9970805"},{"town":"我老林","koaza":"五里市","lat":38.700891,"lng":139.852974,"zip":"9970805"},{"town":"東荒屋","koaza":"竹の内","lat":38.655069,"lng":139.853786,"zip":"9970344"},{"town":"勝福寺","koaza":"泉山","lat":38.692749,"lng":139.853169,"zip":"9970351"},{"town":"勝福寺","koaza":"中通","lat":38.690722,"lng":139.854432,"zip":"9970351"},{"town":"東岩本","koaza":"漆原","lat":38.626119,"lng":139.854362,"zip":"9970402"},{"town":"伊勢横内","koaza":"大場川原","lat":38.716761,"lng":139.85495,"zip":"9970803"},{"town":"東荒屋","koaza":"上荒屋","lat":38.650658,"lng":139.854391,"zip":"9970344"},{"town":"西片屋","koaza":"楯村","lat":38.640707,"lng":139.855699,"zip":"9970323"},{"town":"三千刈","koaza":"清和","lat":38.681321,"lng":139.856347,"zip":"9970342"},{"town":"伊勢横内","koaza":"前川原","lat":38.713094,"lng":139.854049,"zip":"9970803"},{"town":"桂荒俣","koaza":"荒敷","lat":38.671348,"lng":139.856426,"zip":"9970343"},{"town":"大宝寺","koaza":"中野","lat":38.736509,"lng":139.853301,"zip":"9970117"},{"town":"羽黒町押口","koaza":"升ノ内","lat":38.738386,"lng":139.855117,"zip":"9970161"},{"town":"我老林","koaza":"東川原","lat":38.701042,"lng":139.857233,"zip":"9970805"},{"town":"我老林","koaza":"向川原","lat":38.698039,"lng":139.85495,"zip":"9970805"},{"town":"西片屋","koaza":"片貝","lat":38.643979,"lng":139.858836,"zip":"9970323"},{"town":"東岩本","koaza":"田中","lat":38.629629,"lng":139.85663,"zip":"9970402"},{"town":"羽黒町赤川","koaza":"村中","lat":38.726528,"lng":139.856168,"zip":"9970167"},{"town":"東岩本","koaza":"北野","lat":38.630985,"lng":139.858021,"zip":"9970402"},{"town":"羽黒町押口","koaza":"川端","lat":38.737468,"lng":139.85787,"zip":"9970161"},{"town":"羽黒町赤川","koaza":"地蔵俣","lat":38.724122,"lng":139.857674,"zip":"9970167"},{"town":"斎藤川原","koaza":"石川端","lat":38.710737,"lng":139.856985,"zip":"9970804"},{"town":"勝福寺","koaza":"前川原","lat":38.691377,"lng":139.857508,"zip":"9970351"},{"town":"大半田","koaza":"丁野田","lat":38.738778,"lng":139.859536,"zip":"9997677"},{"town":"松根","koaza":"中松根","lat":38.645878,"lng":139.867085,"zip":"9970322"},{"town":"大半田","koaza":"北田","lat":38.74134,"lng":139.859055,"zip":"9997677"},{"town":"羽黒町赤川","koaza":"村下","lat":38.726515,"lng":139.859123,"zip":"9970167"},{"town":"東荒屋","koaza":"志田","lat":38.67528,"lng":139.858929,"zip":"9970344"},{"town":"羽黒町赤川","koaza":"熊坂","lat":38.724725,"lng":139.860748,"zip":"9970167"},{"town":"黒川","koaza":"滝の上","lat":38.663897,"lng":139.863671,"zip":"9970311"},{"town":"大半田","koaza":"獺野","lat":38.740274,"lng":139.863634,"zip":"9997677"},{"town":"羽黒町細谷","koaza":"七ツ塚","lat":38.73339,"lng":139.864715,"zip":"9970162"},{"town":"大半田","koaza":"大田","lat":38.742446,"lng":139.860997,"zip":"9997677"},{"town":"東岩本","koaza":"内野","lat":38.629476,"lng":139.860544,"zip":"9970402"},{"town":"羽黒町松尾","koaza":"桂野","lat":38.715017,"lng":139.861796,"zip":"9970156"},{"town":"松根","koaza":"上松根","lat":38.643486,"lng":139.86612,"zip":"9970322"},{"town":"羽黒町細谷","koaza":"北田","lat":38.73974,"lng":139.863696,"zip":"9970162"},{"town":"羽黒町三ツ橋","koaza":"向田","lat":38.728455,"lng":139.862443,"zip":"9970166"},{"town":"長沼","koaza":"宮東","lat":38.810714,"lng":139.869838,"zip":"9997621"},{"town":"大半田","koaza":"宮田","lat":38.74108,"lng":139.863739,"zip":"9997677"},{"town":"黒川","koaza":"楯","lat":38.671515,"lng":139.864588,"zip":"9970311"},{"town":"羽黒町石野新田","koaza":"前川原","lat":38.706677,"lng":139.862619,"zip":"9970155"},{"town":"馬渡","koaza":"川西","lat":38.68748,"lng":139.863242,"zip":"9970301"},{"town":"羽黒町三ツ橋","koaza":"前田","lat":38.723158,"lng":139.863421,"zip":"9970166"},{"town":"黒川","koaza":"大杉川原","lat":38.678446,"lng":139.862699,"zip":"9970311"},{"town":"羽黒町松尾","koaza":"前田元","lat":38.71604,"lng":139.86433,"zip":"9970156"},{"town":"羽黒町松尾","koaza":"吉原","lat":38.717548,"lng":139.862761,"zip":"9970156"},{"town":"羽黒町松尾","koaza":"櫻野","lat":38.719084,"lng":139.863958,"zip":"9970156"},{"town":"松根","koaza":"下松根","lat":38.648813,"lng":139.867231,"zip":"9970322"},{"town":"羽黒町石野新田","koaza":"中川原","lat":38.706495,"lng":139.864559,"zip":"9970155"},{"town":"羽黒町松尾","koaza":"鶴ケ野","lat":38.716938,"lng":139.864762,"zip":"9970156"},{"town":"黒川","koaza":"小在家","lat":38.66992,"lng":139.865974,"zip":"9970311"},{"town":"馬渡","koaza":"道西","lat":38.690546,"lng":139.866701,"zip":"9970301"},{"town":"黒川","koaza":"大杉","lat":38.67785,"lng":139.867097,"zip":"9970311"},{"town":"羽黒町細谷","koaza":"堰面","lat":38.735485,"lng":139.865991,"zip":"9970162"},{"town":"黒川","koaza":"橋本","lat":38.662347,"lng":139.869093,"zip":"9970311"},{"town":"羽黒町三ツ橋","koaza":"道下","lat":38.725031,"lng":139.865923,"zip":"9970166"},{"town":"黒川","koaza":"仲村","lat":38.67195,"lng":139.868456,"zip":"9970311"},{"town":"黒川","koaza":"漆原","lat":38.681557,"lng":139.869649,"zip":"9970311"},{"town":"馬渡","koaza":"道東","lat":38.690617,"lng":139.867822,"zip":"9970301"},{"town":"羽黒町松尾","koaza":"駒繋野","lat":38.716263,"lng":139.867442,"zip":"9970156"},{"town":"黒川","koaza":"椿出","lat":38.658186,"lng":139.87263,"zip":"9970311"},{"town":"羽黒町後田","koaza":"中島","lat":38.719521,"lng":139.870829,"zip":"9970157"},{"town":"羽黒町松尾","koaza":"成沢向","lat":38.715581,"lng":139.871002,"zip":"9970156"},{"town":"黒川","koaza":"宮の下","lat":38.66655,"lng":139.87264,"zip":"9970311"},{"town":"羽黒町馬渡ノ内下","koaza":"因幡西","lat":38.705006,"lng":139.872095,"zip":"9970154"},{"town":"長沼","koaza":"宮前","lat":38.808076,"lng":139.871231,"zip":"9997621"},{"town":"羽黒町後田","koaza":"下田元","lat":38.71577,"lng":139.874931,"zip":"9970157"},{"town":"羽黒町高寺","koaza":"南畑","lat":38.701974,"lng":139.870874,"zip":"9970153"},{"town":"羽黒町後田","koaza":"柳原","lat":38.709173,"lng":139.871329,"zip":"9970157"},{"town":"砂塚","koaza":"河戸向","lat":38.757751,"lng":139.869287,"zip":"9997685"},{"town":"馬渡","koaza":"鶴ケ沢","lat":38.6853,"lng":139.872143,"zip":"9970301"},{"town":"羽黒町後田","koaza":"柳原下","lat":38.709707,"lng":139.871739,"zip":"9970157"},{"town":"羽黒町高寺","koaza":"上野山","lat":38.703075,"lng":139.871465,"zip":"9970153"},{"town":"黒川","koaza":"成沢","lat":38.675802,"lng":139.872472,"zip":"9970311"},{"town":"長沼","koaza":"上新田","lat":38.799179,"lng":139.875455,"zip":"9997621"},{"town":"羽黒町狩谷野目","koaza":"高坂","lat":38.722882,"lng":139.871867,"zip":"9970163"},{"town":"羽黒町後田","koaza":"中田","lat":38.712696,"lng":139.873207,"zip":"9970157"},{"town":"羽黒町狩谷野目","koaza":"南川原","lat":38.720866,"lng":139.875279,"zip":"9970163"},{"town":"黒川","koaza":"上の山","lat":38.663624,"lng":139.877427,"zip":"9970311"},{"town":"羽黒町狩谷野目","koaza":"村東","lat":38.724178,"lng":139.875811,"zip":"9970163"},{"town":"幕野内","koaza":"大東","lat":38.745104,"lng":139.874535,"zip":"9997676"},{"town":"羽黒町狩谷野目","koaza":"大田畑","lat":38.726149,"lng":139.875482,"zip":"9970163"},{"town":"幕野内","koaza":"大橋本","lat":38.743133,"lng":139.875485,"zip":"9997676"},{"town":"羽黒町後田","koaza":"東","lat":38.714973,"lng":139.876478,"zip":"9970157"},{"town":"豊栄","koaza":"西川原","lat":38.794906,"lng":139.879824,"zip":"9997622"},{"town":"宝徳","koaza":"粕巻","lat":38.743996,"lng":139.876474,"zip":"9997675"},{"town":"羽黒町後田","koaza":"谷地田","lat":38.714569,"lng":139.88112,"zip":"9970157"},{"town":"荒俣","koaza":"谷地田","lat":38.730166,"lng":139.881954,"zip":"9997673"},{"town":"黒川","koaza":"春日山","lat":38.666983,"lng":139.880828,"zip":"9970311"},{"town":"田代","koaza":"大坂山","lat":38.681124,"lng":139.881184,"zip":"9970302"},{"town":"長沼","koaza":"中組","lat":38.810147,"lng":139.880118,"zip":"9997621"},{"town":"宝徳","koaza":"西鴨田","lat":38.742949,"lng":139.877011,"zip":"9997675"},{"town":"宝徳","koaza":"北田","lat":38.743776,"lng":139.877687,"zip":"9997675"},{"town":"羽黒町狩谷野目","koaza":"宮野下","lat":38.721422,"lng":139.877545,"zip":"9970163"},{"town":"宝徳","koaza":"仲田","lat":38.740426,"lng":139.882037,"zip":"9997675"},{"town":"田代","koaza":"広瀬","lat":38.68353,"lng":139.887489,"zip":"9970302"},{"town":"渡前","koaza":"前堰","lat":38.751768,"lng":139.88339,"zip":"9997683"},{"town":"羽黒町黒瀬","koaza":"黒瀬","lat":38.719546,"lng":139.885561,"zip":"9970151"},{"town":"羽黒町猪俣新田","koaza":"田屋前","lat":38.711263,"lng":139.88674,"zip":"9970152"},{"town":"渡前","koaza":"中道","lat":38.753634,"lng":139.884228,"zip":"9997683"},{"town":"荒俣","koaza":"仲川原","lat":38.733771,"lng":139.885744,"zip":"9997673"},{"town":"渡前","koaza":"大坪","lat":38.751035,"lng":139.885831,"zip":"9997683"},{"town":"渡前","koaza":"中堰","lat":38.749839,"lng":139.886699,"zip":"9997683"},{"town":"渡前","koaza":"中屋敷","lat":38.753821,"lng":139.886755,"zip":"9997683"},{"town":"田代","koaza":"森下","lat":38.682102,"lng":139.890745,"zip":"9970302"},{"town":"上藤島","koaza":"三文字","lat":38.763365,"lng":139.889286,"zip":"9997611"},{"town":"渡前","koaza":"下谷地","lat":38.75802,"lng":139.889189,"zip":"9997683"},{"town":"羽黒町富沢","koaza":"地開","lat":38.728045,"lng":139.888034,"zip":"9970165"},{"town":"渡前","koaza":"北谷地","lat":38.755652,"lng":139.888322,"zip":"9997683"},{"town":"渡前","koaza":"白山前","lat":38.752191,"lng":139.887876,"zip":"9997683"},{"town":"上藤島","koaza":"村西","lat":38.761181,"lng":139.887937,"zip":"9997611"},{"town":"羽黒町荒川","koaza":"鉢巻","lat":38.715431,"lng":139.893822,"zip":"9970141"},{"town":"上藤島","koaza":"村東","lat":38.760553,"lng":139.889569,"zip":"9997611"},{"town":"渡前","koaza":"山道東","lat":38.749859,"lng":139.889458,"zip":"9997683"},{"town":"羽黒町富沢","koaza":"下川原","lat":38.734,"lng":139.892227,"zip":"9970165"},{"town":"羽黒町荒川","koaza":"家ノ下","lat":38.722079,"lng":139.89265,"zip":"9970141"},{"town":"渡前","koaza":"神伝田","lat":38.75092,"lng":139.890776,"zip":"9997683"},{"town":"平形","koaza":"耳取","lat":38.778208,"lng":139.889969,"zip":"9997681"},{"town":"平形","koaza":"国分","lat":38.779038,"lng":139.89024,"zip":"9997681"},{"town":"羽黒町富沢","koaza":"庄地分","lat":38.728888,"lng":139.8907,"zip":"9970165"},{"town":"上藤島","koaza":"上川原","lat":38.760848,"lng":139.890691,"zip":"9997611"},{"town":"羽黒町富沢","koaza":"月ノ木","lat":38.729977,"lng":139.891527,"zip":"9970165"},{"town":"平形","koaza":"小新田","lat":38.779085,"lng":139.890926,"zip":"9997681"},{"town":"平形","koaza":"町田","lat":38.778506,"lng":139.891531,"zip":"9997681"},{"town":"豊栄","koaza":"宅地","lat":38.789456,"lng":139.894614,"zip":"9997622"},{"town":"上藤島","koaza":"六所畑","lat":38.76471,"lng":139.894196,"zip":"9997611"},{"town":"上藤島","koaza":"街道西","lat":38.764724,"lng":139.892157,"zip":"9997611"},{"town":"平形","koaza":"田屋敷","lat":38.779102,"lng":139.891623,"zip":"9997681"},{"town":"長沼","koaza":"十文字","lat":38.810719,"lng":139.896515,"zip":"9997621"},{"town":"上藤島","koaza":"備中下","lat":38.766525,"lng":139.894392,"zip":"9997611"},{"town":"渡前","koaza":"水無","lat":38.748613,"lng":139.894324,"zip":"9997683"},{"town":"羽黒町荒川","koaza":"西田","lat":38.720204,"lng":139.893409,"zip":"9970141"},{"town":"羽黒町猪俣新田","koaza":"中台","lat":38.691954,"lng":139.896376,"zip":"9970152"},{"town":"柳久瀬","koaza":"前田元","lat":38.735863,"lng":139.898178,"zip":"9997672"},{"town":"豊栄","koaza":"村西","lat":38.790531,"lng":139.893397,"zip":"9997622"},{"town":"羽黒町荒川","koaza":"荒泉橋","lat":38.722245,"lng":139.897279,"zip":"9970141"},{"town":"羽黒町野田","koaza":"板橋","lat":38.71532,"lng":139.895613,"zip":"9970143"},{"town":"上藤島","koaza":"鎧田畑","lat":38.768713,"lng":139.895632,"zip":"9997611"},{"town":"羽黒町荒川","koaza":"落合","lat":38.721645,"lng":139.895197,"zip":"9970141"},{"town":"羽黒町荒川","koaza":"谷地堰","lat":38.716304,"lng":139.90138,"zip":"9970141"},{"town":"古郡","koaza":"水押","lat":38.754842,"lng":139.896989,"zip":"9997671"},{"town":"藤島","koaza":"川向","lat":38.76779,"lng":139.89727,"zip":"9997601"},{"town":"藤島","koaza":"向楯跡","lat":38.769831,"lng":139.8968,"zip":"9997601"},{"town":"平形","koaza":"小町田","lat":38.77518,"lng":139.896476,"zip":"9997681"},{"town":"古郡","koaza":"道橋","lat":38.763179,"lng":139.896837,"zip":"9997671"},{"town":"平形","koaza":"前田元","lat":38.776013,"lng":139.898063,"zip":"9997681"},{"town":"羽黒町荒川","koaza":"白山","lat":38.715363,"lng":139.900726,"zip":"9970141"},{"town":"古郡","koaza":"金清水","lat":38.749624,"lng":139.899671,"zip":"9997671"},{"town":"柳久瀬","koaza":"ソブ田","lat":38.737658,"lng":139.898301,"zip":"9997672"},{"town":"羽黒町野田","koaza":"白山","lat":38.715226,"lng":139.897675,"zip":"9970143"},{"town":"藤島","koaza":"村東","lat":38.765866,"lng":139.89963,"zip":"9997601"},{"town":"平形","koaza":"小割","lat":38.774202,"lng":139.896435,"zip":"9997681"},{"town":"羽黒町荒川","koaza":"上前田元","lat":38.719698,"lng":139.897893,"zip":"9970141"},{"town":"羽黒町荒川","koaza":"前田元","lat":38.717906,"lng":139.902475,"zip":"9970141"},{"town":"古郡","koaza":"長堰","lat":38.754415,"lng":139.898125,"zip":"9997671"},{"town":"八色木","koaza":"前田元","lat":38.791406,"lng":139.89873,"zip":"9997631"},{"town":"八色木","koaza":"西野","lat":38.786999,"lng":139.900115,"zip":"9997631"},{"town":"古郡","koaza":"形ノ目","lat":38.752989,"lng":139.899256,"zip":"9997671"},{"town":"平形","koaza":"桜屋敷","lat":38.776478,"lng":139.899221,"zip":"9997681"},{"town":"八色木","koaza":"平田","lat":38.788071,"lng":139.901778,"zip":"9997631"},{"town":"藤島","koaza":"古楯跡","lat":38.768206,"lng":139.900827,"zip":"9997601"},{"town":"藤島","koaza":"西川原","lat":38.769689,"lng":139.901822,"zip":"9997601"},{"town":"古郡","koaza":"明円田","lat":38.752151,"lng":139.900335,"zip":"9997671"},{"town":"藤島","koaza":"山ノ前","lat":38.765482,"lng":139.902541,"zip":"9997601"},{"town":"八色木","koaza":"殿田","lat":38.792064,"lng":139.901653,"zip":"9997631"},{"town":"藤島","koaza":"前野","lat":38.778419,"lng":139.903259,"zip":"9997601"},{"town":"羽黒町小増川","koaza":"大坪","lat":38.733722,"lng":139.901986,"zip":"9970107"},{"town":"八色木","koaza":"四百刈","lat":38.791667,"lng":139.903808,"zip":"9997631"},{"town":"八色木","koaza":"荒落","lat":38.786079,"lng":139.902717,"zip":"9997631"},{"town":"羽黒町荒川","koaza":"宮東","lat":38.718908,"lng":139.905817,"zip":"9970141"},{"town":"羽黒町小増川","koaza":"道ノ上","lat":38.737129,"lng":139.902874,"zip":"9970107"},{"town":"藤島","koaza":"村前","lat":38.77202,"lng":139.903794,"zip":"9997601"},{"town":"羽黒町小増川","koaza":"前谷地","lat":38.731699,"lng":139.905059,"zip":"9970107"},{"town":"羽黒町小増川","koaza":"南川原","lat":38.734864,"lng":139.906135,"zip":"9970107"},{"town":"藤島","koaza":"西細杖","lat":38.777005,"lng":139.904869,"zip":"9997601"},{"town":"羽黒町金森目","koaza":"村ノ内","lat":38.740617,"lng":139.906832,"zip":"9970108"},{"town":"藤島","koaza":"笹花","lat":38.766363,"lng":139.906116,"zip":"9997601"},{"town":"羽黒町荒川","koaza":"上ノ山","lat":38.719531,"lng":139.908291,"zip":"9970141"},{"town":"羽黒町仙道","koaza":"大桜","lat":38.709532,"lng":139.909565,"zip":"9970125"},{"town":"羽黒町仙道","koaza":"聖宮","lat":38.711107,"lng":139.90559,"zip":"9970125"},{"town":"羽黒町小増川","koaza":"西ノ門","lat":38.733368,"lng":139.904992,"zip":"9970107"},{"town":"羽黒町仙道","koaza":"後田","lat":38.713708,"lng":139.906525,"zip":"9970125"},{"town":"羽黒町仙道","koaza":"一本松","lat":38.705725,"lng":139.912595,"zip":"9970125"},{"town":"藤島","koaza":"中細杖","lat":38.775542,"lng":139.906028,"zip":"9997601"},{"town":"羽黒町荒川","koaza":"花沢","lat":38.715707,"lng":139.912076,"zip":"9970141"},{"town":"羽黒町川行","koaza":"川原","lat":38.729709,"lng":139.909138,"zip":"9970105"},{"town":"小中島","koaza":"赤沼","lat":38.788398,"lng":139.909636,"zip":"9997632"},{"town":"羽黒町川代","koaza":"八森","lat":38.692071,"lng":139.914472,"zip":"9970131"},{"town":"小中島","koaza":"猫作","lat":38.786873,"lng":139.909581,"zip":"9997632"},{"town":"大川渡","koaza":"三社前","lat":38.748882,"lng":139.909901,"zip":"9997661"},{"town":"大川渡","koaza":"前千刈","lat":38.747038,"lng":139.909645,"zip":"9997661"},{"town":"大川渡","koaza":"中谷地","lat":38.747526,"lng":139.911388,"zip":"9997661"},{"town":"羽黒町川行","koaza":"経塚","lat":38.729594,"lng":139.910969,"zip":"9970105"},{"town":"小中島","koaza":"中野","lat":38.787067,"lng":139.913434,"zip":"9997632"},{"town":"谷地興屋","koaza":"大坪","lat":38.746137,"lng":139.91461,"zip":"9997662"},{"town":"羽黒町川代","koaza":"川代山","lat":38.699959,"lng":139.919767,"zip":"9970131"},{"town":"藤岡","koaza":"東柳田","lat":38.769624,"lng":139.915077,"zip":"9997638"},{"town":"羽黒町野荒町","koaza":"西田","lat":38.719667,"lng":139.915798,"zip":"9970126"},{"town":"谷地興屋","koaza":"佐古免","lat":38.74801,"lng":139.914936,"zip":"9997662"},{"town":"羽黒町市野山","koaza":"猿田","lat":38.712102,"lng":139.925696,"zip":"9970123"},{"town":"小中島","koaza":"郷ノ浜","lat":38.787833,"lng":139.917211,"zip":"9997632"},{"town":"須走","koaza":"西田","lat":38.78013,"lng":139.916043,"zip":"9997633"},{"town":"谷地興屋","koaza":"村中","lat":38.747211,"lng":139.916335,"zip":"9997662"},{"town":"羽黒町中里","koaza":"村中","lat":38.728802,"lng":139.918752,"zip":"9970102"},{"town":"須走","koaza":"水尻","lat":38.782825,"lng":139.918006,"zip":"9997633"},{"town":"藤岡","koaza":"小川分","lat":38.768726,"lng":139.916697,"zip":"9997638"},{"town":"羽黒町市野山","koaza":"中田","lat":38.716616,"lng":139.918275,"zip":"9970123"},{"town":"野田目","koaza":"砂田","lat":38.760512,"lng":139.920103,"zip":"9997636"},{"town":"羽黒町川代","koaza":"向山","lat":38.685916,"lng":139.917399,"zip":"9970131"},{"town":"須走","koaza":"村中","lat":38.780591,"lng":139.92042,"zip":"9997633"},{"town":"谷地興屋","koaza":"木ノ下","lat":38.748377,"lng":139.917568,"zip":"9997662"},{"town":"藤岡","koaza":"イカリ田","lat":38.771833,"lng":139.918569,"zip":"9997638"},{"town":"羽黒町町屋","koaza":"六所","lat":38.734369,"lng":139.919345,"zip":"9970101"},{"town":"三和","koaza":"西田","lat":38.774526,"lng":139.923516,"zip":"9997634"},{"town":"羽黒町町屋","koaza":"村中","lat":38.73267,"lng":139.920492,"zip":"9970101"},{"town":"野田目","koaza":"家ノ腰","lat":38.766468,"lng":139.92232,"zip":"9997636"},{"town":"藤岡","koaza":"三千刈","lat":38.770812,"lng":139.921762,"zip":"9997638"},{"town":"羽黒町町屋","koaza":"薬師","lat":38.730645,"lng":139.920687,"zip":"9970101"},{"town":"羽黒町市野山","koaza":"加茂裏","lat":38.711651,"lng":139.922437,"zip":"9970123"},{"town":"羽黒町中里","koaza":"薬師","lat":38.726849,"lng":139.921531,"zip":"9970102"},{"town":"羽黒町市野山","koaza":"林中","lat":38.709632,"lng":139.926296,"zip":"9970123"},{"town":"羽黒町戸野","koaza":"福ノ内","lat":38.722126,"lng":139.924456,"zip":"9970103"},{"town":"羽黒町戸野","koaza":"橋本","lat":38.719296,"lng":139.923642,"zip":"9970103"},{"town":"三和","koaza":"早稲田","lat":38.773011,"lng":139.92529,"zip":"9997634"},{"town":"羽黒町市野山","koaza":"山王林","lat":38.716997,"lng":139.924926,"zip":"9970123"},{"town":"平足","koaza":"横立","lat":38.747085,"lng":139.92597,"zip":"9997645"},{"town":"野田目","koaza":"中堰","lat":38.766594,"lng":139.924761,"zip":"9997636"},{"town":"羽黒町戸野","koaza":"祝儀田","lat":38.721293,"lng":139.925023,"zip":"9970103"},{"town":"三和","koaza":"柳町","lat":38.778391,"lng":139.928255,"zip":"9997634"},{"town":"三和","koaza":"下京田","lat":38.784955,"lng":139.928161,"zip":"9997634"},{"town":"羽黒町大口","koaza":"木戸口","lat":38.715673,"lng":139.928668,"zip":"9970122"},{"town":"羽黒町大口","koaza":"宮ノ下","lat":38.71003,"lng":139.929296,"zip":"9970122"},{"town":"川尻","koaza":"新田","lat":38.752641,"lng":139.930984,"zip":"9997644"},{"town":"三和","koaza":"本田前","lat":38.776957,"lng":139.930523,"zip":"9997634"},{"town":"川尻","koaza":"寺下","lat":38.750634,"lng":139.930243,"zip":"9997644"},{"town":"三和","koaza":"柴ノ越","lat":38.78054,"lng":139.932093,"zip":"9997634"},{"town":"川尻","koaza":"上ノ前","lat":38.748858,"lng":139.932386,"zip":"9997644"},{"town":"羽黒町大口","koaza":"数古ノ前","lat":38.709581,"lng":139.932412,"zip":"9970122"},{"town":"三和","koaza":"堂地","lat":38.778468,"lng":139.9336,"zip":"9997634"},{"town":"川尻","koaza":"水尻","lat":38.751635,"lng":139.933475,"zip":"9997644"},{"town":"楪","koaza":"猫田","lat":38.767989,"lng":139.934444,"zip":"9997641"},{"town":"川尻","koaza":"町上","lat":38.748814,"lng":139.935261,"zip":"9997644"},{"town":"川尻","koaza":"蔵ノ下","lat":38.750981,"lng":139.934674,"zip":"9997644"},{"town":"羽黒町玉川","koaza":"玉川","lat":38.709632,"lng":139.938068,"zip":"9970121"},{"town":"三和","koaza":"堰中","lat":38.777754,"lng":139.937017,"zip":"9997634"},{"town":"東堀越","koaza":"桔梗出","lat":38.737225,"lng":139.937459,"zip":"9997653"},{"town":"東堀越","koaza":"松葉","lat":38.736862,"lng":139.935249,"zip":"9997653"},{"town":"楪","koaza":"砂田","lat":38.769123,"lng":139.936505,"zip":"9997641"},{"town":"東堀越","koaza":"中田","lat":38.739566,"lng":139.936174,"zip":"9997653"},{"town":"東堀越","koaza":"谷地田","lat":38.740308,"lng":139.937605,"zip":"9997653"},{"town":"楪","koaza":"早稲田","lat":38.765543,"lng":139.937426,"zip":"9997641"},{"town":"藤島関根","koaza":"猫田","lat":38.760144,"lng":139.938473,"zip":"9997642"},{"town":"東堀越","koaza":"馬ノ口","lat":38.736745,"lng":139.938908,"zip":"9997653"},{"town":"藤島関根","koaza":"西田","lat":38.757844,"lng":139.940304,"zip":"9997642"},{"town":"東堀越","koaza":"人足田","lat":38.738903,"lng":139.941917,"zip":"9997653"},{"town":"鷺畑","koaza":"佐渡端","lat":38.74983,"lng":139.943004,"zip":"9997651"},{"town":"藤島関根","koaza":"下女分","lat":38.757694,"lng":139.941872,"zip":"9997642"},{"town":"藤島関根","koaza":"堰合","lat":38.761942,"lng":139.945297,"zip":"9997642"},{"town":"鷺畑","koaza":"道合","lat":38.742616,"lng":139.94768,"zip":"9997651"},{"town":"藤島関根","koaza":"土用野","lat":38.76428,"lng":139.946178,"zip":"9997642"},{"town":"鷺畑","koaza":"腰巻","lat":38.741326,"lng":139.953035,"zip":"9997651"},{"town":"滝沢","koaza":"村下","lat":38.673055,"lng":139.827206,"zip":"9970364"},{"town":"丸岡","koaza":"備前","lat":38.67746,"lng":139.830936,"zip":"9970334"},{"town":"羽黒町猪俣新田","koaza":"東台","lat":38.69242,"lng":139.900122,"zip":"9970152"},{"town":"下山添","koaza":"道外","lat":38.692535,"lng":139.832723,"zip":"9970341"},{"town":"勝福寺","koaza":"根木瀞","lat":38.694653,"lng":139.858769,"zip":"9970351"},{"town":"白山","koaza":"東木村","lat":38.723313,"lng":139.781927,"zip":"9970841"},{"town":"下清水","koaza":"打越","lat":38.72259,"lng":139.771297,"zip":"9970845"},{"town":"中清水","koaza":"岩崎","lat":38.725016,"lng":139.762612,"zip":"9970846"},{"town":"下清水","koaza":"向京田","lat":38.728102,"lng":139.768023,"zip":"9970845"},{"town":"矢馳","koaza":"下矢馳","lat":38.738248,"lng":139.770275,"zip":"9970855"},{"town":"大山","koaza":"若柳","lat":38.755584,"lng":139.770605,"zip":"9971124"},{"town":"茅原","koaza":"中谷地","lat":38.754905,"lng":139.83655,"zip":"9970019"},{"town":"渡前","koaza":"太田","lat":38.758361,"lng":139.886994,"zip":"9997683"},{"town":"藤島","koaza":"鶴巻","lat":38.765308,"lng":139.909128,"zip":"9997601"},{"town":"湯野沢","koaza":"南田","lat":38.770535,"lng":139.841383,"zip":"9970001"},{"town":"小京田","koaza":"沖","lat":38.763993,"lng":139.816508,"zip":"9970005"},{"town":"中京田","koaza":"宮の越","lat":38.779314,"lng":139.824963,"zip":"9970009"},{"town":"中京田","koaza":"船橋","lat":38.779488,"lng":139.828839,"zip":"9970009"},{"town":"幕野内","koaza":"道下","lat":38.742662,"lng":139.872998,"zip":"9997676"},{"town":"幕野内","koaza":"仲田","lat":38.744982,"lng":139.873677,"zip":"9997676"},{"town":"湯田川","koaza":"岩清水","lat":38.695205,"lng":139.764392,"zip":"9970752"},{"town":"柳久瀬","koaza":"外ノ屋敷","lat":38.739205,"lng":139.902789,"zip":"9997672"},{"town":"宮沢","koaza":"小沢","lat":38.774627,"lng":139.748116,"zip":"9971202"},{"town":"由良","koaza":"古四王田","lat":38.714525,"lng":139.68084,"zip":"9997464"},{"town":"湯温海","koaza":"乙","lat":38.614299,"lng":139.614026,"zip":"9997204"},{"town":"三瀬","koaza":"己","lat":38.706228,"lng":139.66426,"zip":"9997463"},{"town":"文下","koaza":"上川原","lat":38.760589,"lng":139.850751,"zip":"9970003"},{"town":"渡前","koaza":"松根田","lat":38.754922,"lng":139.884771,"zip":"9997683"},{"town":"平足","koaza":"南田","lat":38.750272,"lng":139.928496,"zip":"9997645"},{"town":"日枝","koaza":"宮東","lat":38.710699,"lng":139.824014,"zip":"9970824"},{"town":"高坂","koaza":"堰下","lat":38.704061,"lng":139.804093,"zip":"9970369"},{"town":"藤沢","koaza":"小巻島","lat":38.696889,"lng":139.777902,"zip":"9970751"},{"town":"藤沢","koaza":"船見台","lat":38.688121,"lng":139.773425,"zip":"9970751"},{"town":"田川","koaza":"七日台","lat":38.684885,"lng":139.763913,"zip":"9970753"},{"town":"湯田川","koaza":"茗ケ沢","lat":38.688246,"lng":139.764279,"zip":"9970752"},{"town":"青龍寺","koaza":"亀ケ峯","lat":38.689511,"lng":139.813807,"zip":"9970368"},{"town":"滝沢","koaza":"水尻","lat":38.675027,"lng":139.820302,"zip":"9970364"},{"town":"滝沢","koaza":"村内","lat":38.673745,"lng":139.820748,"zip":"9970364"},{"town":"高坂","koaza":"前田元","lat":38.70245,"lng":139.812588,"zip":"9970369"},{"town":"湯野浜","koaza":"浜泉","lat":38.78616,"lng":139.758292,"zip":"9971201"},{"town":"滝沢","koaza":"京崎","lat":38.672116,"lng":139.820455,"zip":"9970364"},{"town":"大山","koaza":"中柳原","lat":38.760743,"lng":139.791053,"zip":"9971124"},{"town":"北茅原町","koaza":"","lat":null,"lng":null,"zip":null},{"town":"西茅原町","koaza":"","lat":null,"lng":null,"zip":null}]