[{"town":"石作","koaza":"","lat":35.206201,"lng":136.818714,"zip":"4901102"},{"town":"乙之子","koaza":"","lat":35.178431,"lng":136.78195,"zip":"4901213"},{"town":"金岩","koaza":"","lat":35.195534,"lng":136.793317,"zip":"4901221"},{"town":"上萱津","koaza":"","lat":35.19335,"lng":136.837948,"zip":"4901112"},{"town":"木折","koaza":"","lat":35.193066,"lng":136.798532,"zip":"4901203"},{"town":"木田","koaza":"","lat":35.196057,"lng":136.784977,"zip":"4901222"},{"town":"北苅","koaza":"","lat":35.193432,"lng":136.776135,"zip":"4901214"},{"town":"小橋方","koaza":"","lat":35.180278,"lng":136.784798,"zip":"4901212"},{"town":"栄","koaza":"","lat":35.203238,"lng":136.837163,"zip":"4901103"},{"town":"坂牧","koaza":"","lat":35.181917,"lng":136.828537,"zip":"4901115"},{"town":"七宝町秋竹","koaza":"","lat":35.175425,"lng":136.805071,"zip":"4970003"},{"town":"七宝町伊福","koaza":"","lat":35.15561,"lng":136.797485,"zip":"4970005"},{"town":"七宝町沖之島","koaza":"","lat":35.189563,"lng":136.803583,"zip":"4970001"},{"town":"七宝町桂","koaza":"","lat":35.167977,"lng":136.801593,"zip":"4970004"},{"town":"七宝町川部","koaza":"","lat":35.165924,"lng":136.791696,"zip":"4970013"},{"town":"七宝町下田","koaza":"","lat":35.172132,"lng":136.790515,"zip":"4970012"},{"town":"七宝町下之森","koaza":"","lat":35.152224,"lng":136.798156,"zip":"4970006"},{"town":"七宝町鷹居","koaza":"","lat":35.155126,"lng":136.786119,"zip":"4970014"},{"town":"七宝町鷹居一丁目","koaza":"","lat":35.15749,"lng":136.792968,"zip":"4970014"},{"town":"七宝町鷹居二丁目","koaza":"","lat":35.154666,"lng":136.791184,"zip":"4970014"},{"town":"七宝町鷹居三丁目","koaza":"","lat":35.156541,"lng":136.790676,"zip":"4970014"},{"town":"七宝町鷹居四丁目","koaza":"","lat":35.159092,"lng":136.79118,"zip":"4970014"},{"town":"七宝町鷹居五丁目","koaza":"","lat":35.159175,"lng":136.787915,"zip":"4970014"},{"town":"七宝町鷹居六丁目","koaza":"","lat":35.156589,"lng":136.787863,"zip":"4970014"},{"town":"七宝町鷹居七丁目","koaza":"","lat":35.157023,"lng":136.785809,"zip":"4970014"},{"town":"七宝町遠島","koaza":"","lat":35.180751,"lng":136.802214,"zip":"4970002"},{"town":"七宝町徳実","koaza":"","lat":35.149892,"lng":136.795765,"zip":"4970016"},{"town":"七宝町鯰橋一丁目","koaza":"","lat":35.154504,"lng":136.788901,"zip":"4970015"},{"town":"七宝町鯰橋二丁目","koaza":"","lat":35.153491,"lng":136.788092,"zip":"4970015"},{"town":"七宝町鯰橋三丁目","koaza":"","lat":35.15257,"lng":136.786456,"zip":"4970015"},{"town":"七宝町鯰橋四丁目","koaza":"","lat":35.15138,"lng":136.78776,"zip":"4970015"},{"town":"七宝町鯰橋五丁目","koaza":"","lat":35.151826,"lng":136.788975,"zip":"4970015"},{"town":"七宝町鯰橋六丁目","koaza":"","lat":35.152104,"lng":136.790026,"zip":"4970015"},{"town":"七宝町鯰橋七丁目","koaza":"","lat":35.152456,"lng":136.791235,"zip":"4970015"},{"town":"七宝町鯰橋八丁目","koaza":"","lat":35.153024,"lng":136.792384,"zip":"4970015"},{"town":"七宝町安松","koaza":"","lat":35.175576,"lng":136.796085,"zip":"4970011"},{"town":"七宝町安松十二丁目","koaza":"","lat":35.17536,"lng":136.797791,"zip":"4970011"},{"town":"七宝町安松十三丁目","koaza":"","lat":35.17306,"lng":136.797828,"zip":"4970011"},{"town":"七宝町安松十四丁目","koaza":"","lat":35.173265,"lng":136.795804,"zip":"4970011"},{"town":"七宝町安松一丁目","koaza":"","lat":35.173144,"lng":136.793635,"zip":"4970011"},{"town":"七宝町安松二丁目","koaza":"","lat":35.175186,"lng":136.792702,"zip":"4970011"},{"town":"七宝町安松三丁目","koaza":"","lat":35.177471,"lng":136.794423,"zip":"4970011"},{"town":"七宝町安松四丁目","koaza":"","lat":35.177514,"lng":136.791995,"zip":"4970011"},{"town":"七宝町安松五丁目","koaza":"","lat":35.17792,"lng":136.789441,"zip":"4970011"},{"town":"七宝町安松六丁目","koaza":"","lat":35.180074,"lng":136.792025,"zip":"4970011"},{"town":"七宝町安松七丁目","koaza":"","lat":35.179832,"lng":136.794392,"zip":"4970011"},{"town":"七宝町安松八丁目","koaza":"","lat":35.178522,"lng":136.796407,"zip":"4970011"},{"town":"篠田","koaza":"","lat":35.18347,"lng":136.790545,"zip":"4901211"},{"town":"篠田一丁目","koaza":"","lat":35.190551,"lng":136.778997,"zip":"4901211"},{"town":"篠田二丁目","koaza":"","lat":35.188566,"lng":136.778124,"zip":"4901211"},{"town":"篠田三丁目","koaza":"","lat":35.186493,"lng":136.778129,"zip":"4901211"},{"town":"篠田四丁目","koaza":"","lat":35.184878,"lng":136.778144,"zip":"4901211"},{"town":"下萱津","koaza":"","lat":35.180625,"lng":136.842691,"zip":"4901114"},{"town":"甚目寺","koaza":"","lat":35.194593,"lng":136.824211,"zip":"4901111"},{"town":"小路一丁目","koaza":"","lat":35.206572,"lng":136.813777,"zip":"4901106"},{"town":"小路二丁目","koaza":"","lat":35.207214,"lng":136.810707,"zip":"4901106"},{"town":"小路三丁目","koaza":"","lat":35.205264,"lng":136.810851,"zip":"4901106"},{"town":"丹波","koaza":"","lat":35.200297,"lng":136.774275,"zip":"4901224"},{"town":"富塚","koaza":"","lat":35.198932,"lng":136.805729,"zip":"4901202"},{"town":"中萱津","koaza":"","lat":35.187947,"lng":136.837241,"zip":"4901113"},{"town":"中橋","koaza":"","lat":35.204005,"lng":136.7809,"zip":"4901226"},{"town":"新居屋","koaza":"","lat":35.19726,"lng":136.812408,"zip":"4901105"},{"town":"西今宿","koaza":"","lat":35.2002,"lng":136.831606,"zip":"4901104"},{"town":"蜂須賀","koaza":"","lat":35.202906,"lng":136.766707,"zip":"4901225"},{"town":"花長","koaza":"","lat":35.199233,"lng":136.797995,"zip":"4901204"},{"town":"花正","koaza":"","lat":35.202773,"lng":136.788623,"zip":"4901205"},{"town":"東溝口一丁目","koaza":"","lat":35.207725,"lng":136.781683,"zip":"4901206"},{"town":"東溝口二丁目","koaza":"","lat":35.20985,"lng":136.785713,"zip":"4901206"},{"town":"東溝口三丁目","koaza":"","lat":35.207054,"lng":136.785035,"zip":"4901206"},{"town":"東溝口四丁目","koaza":"","lat":35.210391,"lng":136.789096,"zip":"4901206"},{"town":"東溝口五丁目","koaza":"","lat":35.208145,"lng":136.789093,"zip":"4901206"},{"town":"二ツ寺","koaza":"","lat":35.204489,"lng":136.79695,"zip":"4901207"},{"town":"古道","koaza":"","lat":35.206336,"lng":136.805302,"zip":"4901201"},{"town":"方領","koaza":"","lat":35.210412,"lng":136.818725,"zip":"4901101"},{"town":"本郷","koaza":"","lat":35.187388,"lng":136.826239,"zip":"4901116"},{"town":"森","koaza":"","lat":35.215297,"lng":136.820153,"zip":"4901107"},{"town":"森一丁目","koaza":"","lat":35.213472,"lng":136.815437,"zip":"4901107"},{"town":"森二丁目","koaza":"","lat":35.209839,"lng":136.81376,"zip":"4901107"},{"town":"森三丁目","koaza":"","lat":35.208991,"lng":136.810362,"zip":"4901107"},{"town":"森四丁目","koaza":"","lat":35.210806,"lng":136.810735,"zip":"4901107"},{"town":"森五丁目","koaza":"","lat":35.212954,"lng":136.811235,"zip":"4901107"},{"town":"森六丁目","koaza":"","lat":35.215425,"lng":136.811786,"zip":"4901107"},{"town":"森七丁目","koaza":"","lat":35.214443,"lng":136.80758,"zip":"4901107"},{"town":"森八丁目","koaza":"","lat":35.210012,"lng":136.807103,"zip":"4901107"},{"town":"森山","koaza":"","lat":35.198316,"lng":136.779538,"zip":"4901223"},{"town":"蜂須賀","koaza":"花木前","lat":35.202221,"lng":136.761805,"zip":"4901225"},{"town":"蜂須賀","koaza":"花木","lat":35.203639,"lng":136.762465,"zip":"4901225"},{"town":"蜂須賀","koaza":"三反割","lat":35.202502,"lng":136.763268,"zip":"4901225"},{"town":"蜂須賀","koaza":"宮前","lat":35.204011,"lng":136.763214,"zip":"4901225"},{"town":"蜂須賀","koaza":"下五反地","lat":35.200168,"lng":136.765339,"zip":"4901225"},{"town":"蜂須賀","koaza":"中江向","lat":35.205446,"lng":136.76441,"zip":"4901225"},{"town":"蜂須賀","koaza":"上五反地","lat":35.200958,"lng":136.765648,"zip":"4901225"},{"town":"蜂須賀","koaza":"四反割","lat":35.203569,"lng":136.765089,"zip":"4901225"},{"town":"蜂須賀","koaza":"北本郷","lat":35.204368,"lng":136.768176,"zip":"4901225"},{"town":"蜂須賀","koaza":"南本郷","lat":35.202648,"lng":136.76858,"zip":"4901225"},{"town":"蜂須賀","koaza":"山ノ腰","lat":35.205119,"lng":136.76824,"zip":"4901225"},{"town":"蜂須賀","koaza":"百歩","lat":35.200452,"lng":136.768336,"zip":"4901225"},{"town":"蜂須賀","koaza":"上赤切目","lat":35.201213,"lng":136.769217,"zip":"4901225"},{"town":"蜂須賀","koaza":"大寺","lat":35.205246,"lng":136.770166,"zip":"4901225"},{"town":"丹波","koaza":"西切","lat":35.199208,"lng":136.770845,"zip":"4901224"},{"town":"蜂須賀","koaza":"山東","lat":35.206258,"lng":136.771418,"zip":"4901225"},{"town":"蜂須賀","koaza":"八幡前","lat":35.205317,"lng":136.772391,"zip":"4901225"},{"town":"丹波","koaza":"中切","lat":35.19917,"lng":136.771698,"zip":"4901224"},{"town":"丹波","koaza":"中屋敷","lat":35.20072,"lng":136.7726,"zip":"4901224"},{"town":"丹波","koaza":"北屋敷","lat":35.202741,"lng":136.77271,"zip":"4901224"},{"town":"蜂須賀","koaza":"中島","lat":35.204378,"lng":136.772721,"zip":"4901225"},{"town":"北苅","koaza":"二反田","lat":35.191917,"lng":136.774616,"zip":"4901214"},{"town":"北苅","koaza":"三本柿","lat":35.194696,"lng":136.77524,"zip":"4901214"},{"town":"森山","koaza":"三本柿","lat":35.196894,"lng":136.773879,"zip":"4901223"},{"town":"丹波","koaza":"南屋敷","lat":35.19912,"lng":136.773549,"zip":"4901224"},{"town":"蜂須賀","koaza":"浄岸","lat":35.206261,"lng":136.773522,"zip":"4901225"},{"town":"丹波","koaza":"前並","lat":35.201233,"lng":136.775023,"zip":"4901224"},{"town":"蜂須賀","koaza":"竹ケ花","lat":35.203581,"lng":136.774608,"zip":"4901225"},{"town":"蜂須賀","koaza":"札掛","lat":35.205821,"lng":136.775336,"zip":"4901225"},{"town":"森山","koaza":"番上","lat":35.197139,"lng":136.776401,"zip":"4901223"},{"town":"丹波","koaza":"川中","lat":35.198475,"lng":136.776824,"zip":"4901224"},{"town":"丹波","koaza":"深田","lat":35.200265,"lng":136.775984,"zip":"4901224"},{"town":"北苅","koaza":"郷中","lat":35.193118,"lng":136.776939,"zip":"4901214"},{"town":"北苅","koaza":"上深坪","lat":35.195507,"lng":136.777015,"zip":"4901214"},{"town":"丹波","koaza":"竹花","lat":35.202784,"lng":136.777292,"zip":"4901224"},{"town":"蜂須賀","koaza":"西杁ノ下","lat":35.203645,"lng":136.776312,"zip":"4901225"},{"town":"蜂須賀","koaza":"西道上","lat":35.204299,"lng":136.776222,"zip":"4901225"},{"town":"森山","koaza":"八反地","lat":35.198355,"lng":136.777645,"zip":"4901223"},{"town":"蜂須賀","koaza":"東道上","lat":35.204148,"lng":136.777272,"zip":"4901225"},{"town":"森山","koaza":"江端","lat":35.196142,"lng":136.779759,"zip":"4901223"},{"town":"北苅","koaza":"郷東","lat":35.194553,"lng":136.779447,"zip":"4901214"},{"town":"丹波","koaza":"高畑","lat":35.202167,"lng":136.778568,"zip":"4901224"},{"town":"森山","koaza":"弁才天","lat":35.200009,"lng":136.779751,"zip":"4901223"},{"town":"森山","koaza":"道上","lat":35.197966,"lng":136.779243,"zip":"4901223"},{"town":"乙之子","koaza":"天王畑","lat":35.183544,"lng":136.779652,"zip":"4901213"},{"town":"中橋","koaza":"廻間","lat":35.206851,"lng":136.780913,"zip":"4901226"},{"town":"中橋","koaza":"宮前","lat":35.202941,"lng":136.779974,"zip":"4901226"},{"town":"木田","koaza":"申尾","lat":35.19314,"lng":136.780251,"zip":"4901222"},{"town":"中橋","koaza":"郷中","lat":35.204864,"lng":136.78139,"zip":"4901226"},{"town":"木田","koaza":"小塚","lat":35.191728,"lng":136.781134,"zip":"4901222"},{"town":"篠田","koaza":"島原","lat":35.190102,"lng":136.780205,"zip":"4901211"},{"town":"森山","koaza":"東江端","lat":35.198237,"lng":136.780514,"zip":"4901223"},{"town":"木田","koaza":"西浦","lat":35.195594,"lng":136.78099,"zip":"4901222"},{"town":"篠田","koaza":"中深","lat":35.187277,"lng":136.780232,"zip":"4901211"},{"town":"乙之子","koaza":"莪原新田","lat":35.173805,"lng":136.781253,"zip":"4901213"},{"town":"乙之子","koaza":"元苗場","lat":35.180886,"lng":136.781512,"zip":"4901213"},{"town":"篠田","koaza":"弁天","lat":35.185043,"lng":136.780539,"zip":"4901211"},{"town":"篠田","koaza":"寺前","lat":35.187269,"lng":136.78092,"zip":"4901211"},{"town":"乙之子","koaza":"堂東","lat":35.179247,"lng":136.780596,"zip":"4901213"},{"town":"中橋","koaza":"明円","lat":35.202799,"lng":136.781565,"zip":"4901226"},{"town":"乙之子","koaza":"屋敷","lat":35.181705,"lng":136.78133,"zip":"4901213"},{"town":"篠田","koaza":"上大門","lat":35.188327,"lng":136.781801,"zip":"4901211"},{"town":"乙之子","koaza":"八反田","lat":35.175445,"lng":136.781753,"zip":"4901213"},{"town":"木田","koaza":"宮西","lat":35.193201,"lng":136.782036,"zip":"4901222"},{"town":"乙之子","koaza":"元柳","lat":35.182452,"lng":136.78277,"zip":"4901213"},{"town":"篠田","koaza":"南組","lat":35.187552,"lng":136.782141,"zip":"4901211"},{"town":"篠田","koaza":"天神前","lat":35.185315,"lng":136.781382,"zip":"4901211"},{"town":"木田","koaza":"徳左","lat":35.195613,"lng":136.782179,"zip":"4901222"},{"town":"木田","koaza":"沼西切","lat":35.19933,"lng":136.782432,"zip":"4901222"},{"town":"中橋","koaza":"郷東","lat":35.204537,"lng":136.782714,"zip":"4901226"},{"town":"木田","koaza":"南屋敷","lat":35.194741,"lng":136.783053,"zip":"4901222"},{"town":"中橋","koaza":"五反地","lat":35.202748,"lng":136.782696,"zip":"4901226"},{"town":"木田","koaza":"小兵衛前","lat":35.196143,"lng":136.783212,"zip":"4901222"},{"town":"篠田","koaza":"向島","lat":35.185576,"lng":136.782772,"zip":"4901211"},{"town":"乙之子","koaza":"十八割","lat":35.177859,"lng":136.783546,"zip":"4901213"},{"town":"木田","koaza":"戌亥","lat":35.201019,"lng":136.78339,"zip":"4901222"},{"town":"篠田","koaza":"小塚","lat":35.188639,"lng":136.783918,"zip":"4901211"},{"town":"篠田","koaza":"寺裏","lat":35.186767,"lng":136.783543,"zip":"4901211"},{"town":"篠田","koaza":"中分","lat":35.185675,"lng":136.784082,"zip":"4901211"},{"town":"木田","koaza":"北屋敷","lat":35.197037,"lng":136.783946,"zip":"4901222"},{"town":"木田","koaza":"沼中切","lat":35.198942,"lng":136.783635,"zip":"4901222"},{"town":"木田","koaza":"東屋敷南切","lat":35.194558,"lng":136.783779,"zip":"4901222"},{"town":"七宝町川部","koaza":"植田","lat":35.161218,"lng":136.784096,"zip":"4970013"},{"town":"小橋方","koaza":"花之木","lat":35.17682,"lng":136.785088,"zip":"4901212"},{"town":"花正","koaza":"中之割","lat":35.201527,"lng":136.78464,"zip":"4901205"},{"town":"七宝町川部","koaza":"八反田","lat":35.16537,"lng":136.784237,"zip":"4970013"},{"town":"花正","koaza":"八反田","lat":35.202479,"lng":136.786053,"zip":"4901205"},{"town":"木田","koaza":"東","lat":35.194904,"lng":136.784808,"zip":"4901222"},{"town":"木田","koaza":"白見懸","lat":35.191916,"lng":136.784174,"zip":"4901222"},{"town":"花正","koaza":"地先","lat":35.204214,"lng":136.784461,"zip":"4901205"},{"town":"篠田","koaza":"南大門","lat":35.186835,"lng":136.785288,"zip":"4901211"},{"town":"小橋方","koaza":"田中","lat":35.180776,"lng":136.784932,"zip":"4901212"},{"town":"小橋方","koaza":"郷中","lat":35.18275,"lng":136.784687,"zip":"4901212"},{"town":"篠田","koaza":"明田","lat":35.187831,"lng":136.784324,"zip":"4901211"},{"town":"小橋方","koaza":"東壱町田","lat":35.178493,"lng":136.784872,"zip":"4901212"},{"town":"小橋方","koaza":"海用","lat":35.181635,"lng":136.784652,"zip":"4901212"},{"town":"木田","koaza":"西山","lat":35.197337,"lng":136.784803,"zip":"4901222"},{"town":"篠田","koaza":"東分","lat":35.18563,"lng":136.784981,"zip":"4901211"},{"town":"小橋方","koaza":"東境","lat":35.180276,"lng":136.785311,"zip":"4901212"},{"town":"木田","koaza":"池ノ島","lat":35.196717,"lng":136.785982,"zip":"4901222"},{"town":"七宝町下田","koaza":"西長代","lat":35.176023,"lng":136.785272,"zip":"4970012"},{"town":"木田","koaza":"飛江ノ見","lat":35.191907,"lng":136.786094,"zip":"4901222"},{"town":"小橋方","koaza":"四ツ物","lat":35.178185,"lng":136.786038,"zip":"4901212"},{"town":"木田","koaza":"折戸","lat":35.193722,"lng":136.784755,"zip":"4901222"},{"town":"篠田","koaza":"東苗田","lat":35.188484,"lng":136.785784,"zip":"4901211"},{"town":"篠田","koaza":"虱掛","lat":35.189742,"lng":136.784894,"zip":"4901211"},{"town":"七宝町鷹居","koaza":"江向","lat":35.155205,"lng":136.78589,"zip":"4970014"},{"town":"木田","koaza":"八反田","lat":35.192893,"lng":136.786055,"zip":"4901222"},{"town":"小橋方","koaza":"杁之口","lat":35.177647,"lng":136.785994,"zip":"4901212"},{"town":"木田","koaza":"五反田","lat":35.19085,"lng":136.788181,"zip":"4901222"},{"town":"七宝町下田","koaza":"江西","lat":35.175064,"lng":136.787275,"zip":"4970012"},{"town":"篠田","koaza":"一之沢","lat":35.184327,"lng":136.78572,"zip":"4901211"},{"town":"篠田","koaza":"長堀","lat":35.18246,"lng":136.786494,"zip":"4901211"},{"town":"篠田","koaza":"榊","lat":35.179924,"lng":136.786165,"zip":"4901211"},{"town":"篠田","koaza":"新割","lat":35.189759,"lng":136.787798,"zip":"4901211"},{"town":"七宝町下田","koaza":"山","lat":35.170297,"lng":136.78661,"zip":"4970012"},{"town":"篠田","koaza":"八原","lat":35.179728,"lng":136.78771,"zip":"4901211"},{"town":"篠田","koaza":"居島","lat":35.188838,"lng":136.786387,"zip":"4901211"},{"town":"篠田","koaza":"稲荷","lat":35.1835,"lng":136.788173,"zip":"4901211"},{"town":"篠田","koaza":"生膾田","lat":35.187858,"lng":136.786831,"zip":"4901211"},{"town":"木田","koaza":"東明","lat":35.195097,"lng":136.786625,"zip":"4901222"},{"town":"篠田","koaza":"八原先","lat":35.177545,"lng":136.786974,"zip":"4901211"},{"town":"花正","koaza":"郷中","lat":35.203289,"lng":136.788958,"zip":"4901205"},{"town":"花正","koaza":"寺浦","lat":35.20592,"lng":136.787154,"zip":"4901205"},{"town":"篠田","koaza":"森後","lat":35.185793,"lng":136.787989,"zip":"4901211"},{"town":"篠田","koaza":"北長無","lat":35.187329,"lng":136.787033,"zip":"4901211"},{"town":"七宝町川部","koaza":"三反田","lat":35.162471,"lng":136.787841,"zip":"4970013"},{"town":"七宝町川部","koaza":"市ノ坪","lat":35.164115,"lng":136.787908,"zip":"4970013"},{"town":"七宝町下田","koaza":"町田","lat":35.16885,"lng":136.78804,"zip":"4970012"},{"town":"木田","koaza":"道下","lat":35.194504,"lng":136.788511,"zip":"4901222"},{"town":"七宝町下田","koaza":"弐町六反","lat":35.170494,"lng":136.788884,"zip":"4970012"},{"town":"篠田","koaza":"西鳥","lat":35.188959,"lng":136.78823,"zip":"4901211"},{"town":"花正","koaza":"五反田","lat":35.200422,"lng":136.788711,"zip":"4901205"},{"town":"木田","koaza":"加瀬","lat":35.192873,"lng":136.787736,"zip":"4901222"},{"town":"七宝町下田","koaza":"四反割","lat":35.175137,"lng":136.788795,"zip":"4970012"},{"town":"七宝町下田","koaza":"折場","lat":35.172773,"lng":136.789077,"zip":"4970012"},{"town":"篠田","koaza":"澤口","lat":35.187151,"lng":136.788741,"zip":"4901211"},{"town":"木田","koaza":"猪ノ木","lat":35.196165,"lng":136.788655,"zip":"4901222"},{"town":"七宝町川部","koaza":"吉原","lat":35.162437,"lng":136.788997,"zip":"4970013"},{"town":"七宝町川部","koaza":"瀬木戸","lat":35.164305,"lng":136.789075,"zip":"4970013"},{"town":"木田","koaza":"川東加瀬","lat":35.193726,"lng":136.78931,"zip":"4901222"},{"town":"篠田","koaza":"鳥羽見","lat":35.188802,"lng":136.788922,"zip":"4901211"},{"town":"木田","koaza":"東新五領","lat":35.191915,"lng":136.789659,"zip":"4901222"},{"town":"七宝町下田","koaza":"前並","lat":35.168609,"lng":136.79078,"zip":"4970012"},{"town":"篠田","koaza":"森南","lat":35.18113,"lng":136.790384,"zip":"4901211"},{"town":"花正","koaza":"長島","lat":35.200388,"lng":136.789999,"zip":"4901205"},{"town":"七宝町下田","koaza":"廻間","lat":35.170851,"lng":136.790034,"zip":"4970012"},{"town":"七宝町川部","koaza":"佛供田","lat":35.161402,"lng":136.789764,"zip":"4970013"},{"town":"七宝町川部","koaza":"出屋敷","lat":35.164645,"lng":136.79081,"zip":"4970013"},{"town":"篠田","koaza":"高保田","lat":35.185706,"lng":136.790507,"zip":"4901211"},{"town":"七宝町下田","koaza":"上才当治","lat":35.17434,"lng":136.790279,"zip":"4970012"},{"town":"木田","koaza":"東阿弥陀","lat":35.192871,"lng":136.789266,"zip":"4901222"},{"town":"金岩","koaza":"江西下","lat":35.194234,"lng":136.790166,"zip":"4901221"},{"town":"金岩","koaza":"江西上","lat":35.197048,"lng":136.789831,"zip":"4901221"},{"town":"篠田","koaza":"江下島","lat":35.188541,"lng":136.791052,"zip":"4901211"},{"town":"木田","koaza":"池成","lat":35.191875,"lng":136.791611,"zip":"4901222"},{"town":"七宝町川部","koaza":"六反田","lat":35.166401,"lng":136.791486,"zip":"4970013"},{"town":"七宝町下之森","koaza":"河原","lat":35.151301,"lng":136.792019,"zip":"4970006"},{"town":"七宝町下田","koaza":"下才当治","lat":35.173278,"lng":136.791656,"zip":"4970012"},{"town":"二ツ寺","koaza":"小畑","lat":35.208173,"lng":136.792372,"zip":"4901207"},{"town":"木田","koaza":"三町懸","lat":35.190887,"lng":136.791581,"zip":"4901222"},{"town":"花正","koaza":"金岩越","lat":35.199853,"lng":136.791675,"zip":"4901205"},{"town":"金岩","koaza":"枝村","lat":35.197263,"lng":136.792122,"zip":"4901221"},{"town":"七宝町川部","koaza":"三屋敷","lat":35.162957,"lng":136.792154,"zip":"4970013"},{"town":"篠田","koaza":"塚田","lat":35.184528,"lng":136.792257,"zip":"4901211"},{"town":"七宝町川部","koaza":"二屋敷","lat":35.164542,"lng":136.792344,"zip":"4970013"},{"town":"七宝町川部","koaza":"四屋敷","lat":35.161097,"lng":136.792049,"zip":"4970013"},{"town":"七宝町下田","koaza":"堂中","lat":35.171323,"lng":136.792109,"zip":"4970012"},{"town":"七宝町川部","koaza":"屋敷代","lat":35.167933,"lng":136.793063,"zip":"4970013"},{"town":"金岩","koaza":"前浪","lat":35.19553,"lng":136.791976,"zip":"4901221"},{"town":"七宝町川部","koaza":"壱屋敷","lat":35.166111,"lng":136.793111,"zip":"4970013"},{"town":"花正","koaza":"東浦","lat":35.203031,"lng":136.792628,"zip":"4901205"},{"town":"七宝町下田","koaza":"江東","lat":35.171619,"lng":136.794074,"zip":"4970012"},{"town":"篠田","koaza":"長谷川","lat":35.189838,"lng":136.792848,"zip":"4901211"},{"town":"七宝町川部","koaza":"埋田","lat":35.161657,"lng":136.793014,"zip":"4970013"},{"town":"金岩","koaza":"広野","lat":35.19244,"lng":136.794058,"zip":"4901221"},{"town":"七宝町下田","koaza":"江東本町","lat":35.170077,"lng":136.794061,"zip":"4970012"},{"town":"金岩","koaza":"上屋敷","lat":35.19899,"lng":136.793665,"zip":"4901221"},{"town":"二ツ寺","koaza":"東高須賀","lat":35.211517,"lng":136.793858,"zip":"4901207"},{"town":"七宝町川部","koaza":"丸田","lat":35.164307,"lng":136.794128,"zip":"4970013"},{"town":"七宝町下之森","koaza":"北田","lat":35.155033,"lng":136.794528,"zip":"4970006"},{"town":"七宝町下之森","koaza":"内河原","lat":35.153592,"lng":136.793379,"zip":"4970006"},{"town":"金岩","koaza":"宮廓","lat":35.199861,"lng":136.794032,"zip":"4901221"},{"town":"七宝町川部","koaza":"行田","lat":35.165941,"lng":136.795,"zip":"4970013"},{"town":"二ツ寺","koaza":"揚山","lat":35.204644,"lng":136.795602,"zip":"4901207"},{"town":"篠田","koaza":"五ツ藤","lat":35.182758,"lng":136.79404,"zip":"4901211"},{"town":"七宝町伊福","koaza":"河原","lat":35.157639,"lng":136.794168,"zip":"4970005"},{"town":"二ツ寺","koaza":"観音寺","lat":35.2048,"lng":136.793928,"zip":"4901207"},{"town":"金岩","koaza":"十王堂","lat":35.196543,"lng":136.793634,"zip":"4901221"},{"town":"金岩","koaza":"六ノ坪","lat":35.191037,"lng":136.794046,"zip":"4901221"},{"town":"金岩","koaza":"東田","lat":35.193569,"lng":136.794059,"zip":"4901221"},{"town":"二ツ寺","koaza":"屋敷","lat":35.208292,"lng":136.796475,"zip":"4901207"},{"town":"七宝町川部","koaza":"折戸","lat":35.167022,"lng":136.795068,"zip":"4970013"},{"town":"七宝町下之森","koaza":"郷西","lat":35.152832,"lng":136.794573,"zip":"4970006"},{"town":"七宝町徳実","koaza":"苗代向","lat":35.148994,"lng":136.794534,"zip":"4970016"},{"town":"花長","koaza":"西出","lat":35.201289,"lng":136.794316,"zip":"4901204"},{"town":"七宝町川部","koaza":"山王","lat":35.169702,"lng":136.795138,"zip":"4970013"},{"town":"七宝町徳実","koaza":"郷ノ西","lat":35.151549,"lng":136.793832,"zip":"4970016"},{"town":"篠田","koaza":"尻無","lat":35.183165,"lng":136.794476,"zip":"4901211"},{"town":"七宝町川部","koaza":"四反田","lat":35.162523,"lng":136.795094,"zip":"4970013"},{"town":"七宝町安松","koaza":"小新田本町","lat":35.172165,"lng":136.794616,"zip":"4970011"},{"town":"七宝町徳実","koaza":"郷","lat":35.1512,"lng":136.794858,"zip":"4970016"},{"town":"七宝町安松","koaza":"下屋敷","lat":35.174539,"lng":136.796021,"zip":"4970011"},{"town":"七宝町川部","koaza":"登り前","lat":35.169222,"lng":136.79635,"zip":"4970013"},{"town":"花長","koaza":"川内","lat":35.200949,"lng":136.796251,"zip":"4901204"},{"town":"花長","koaza":"六反田","lat":35.196966,"lng":136.795497,"zip":"4901204"},{"town":"花長","koaza":"茶木島","lat":35.198985,"lng":136.79557,"zip":"4901204"},{"town":"七宝町下之森","koaza":"稲荷","lat":35.153813,"lng":136.795052,"zip":"4970006"},{"town":"七宝町徳実","koaza":"道ノ内","lat":35.148974,"lng":136.795847,"zip":"4970016"},{"town":"七宝町伊福","koaza":"壱町畑","lat":35.162288,"lng":136.796505,"zip":"4970005"},{"town":"七宝町徳実","koaza":"郷東","lat":35.150402,"lng":136.796001,"zip":"4970016"},{"town":"木折","koaza":"上柳","lat":35.192437,"lng":136.795712,"zip":"4901203"},{"town":"七宝町伊福","koaza":"弐之割","lat":35.157693,"lng":136.796471,"zip":"4970005"},{"town":"七宝町伊福","koaza":"参之割","lat":35.155765,"lng":136.796029,"zip":"4970005"},{"town":"七宝町遠島","koaza":"萱苅島","lat":35.183819,"lng":136.795886,"zip":"4970002"},{"town":"七宝町下之森","koaza":"屋敷代","lat":35.153653,"lng":136.795327,"zip":"4970006"},{"town":"七宝町遠島","koaza":"南萱苅島","lat":35.183178,"lng":136.796724,"zip":"4970002"},{"town":"七宝町遠島","koaza":"七反田","lat":35.180565,"lng":136.796361,"zip":"4970002"},{"town":"七宝町桂","koaza":"山之浦","lat":35.167487,"lng":136.796584,"zip":"4970004"},{"town":"二ツ寺","koaza":"上長","lat":35.210794,"lng":136.796613,"zip":"4901207"},{"town":"七宝町下之森","koaza":"屋敷","lat":35.153501,"lng":136.796556,"zip":"4970006"},{"town":"七宝町伊福","koaza":"宮東","lat":35.15945,"lng":136.797221,"zip":"4970005"},{"town":"木折","koaza":"枕","lat":35.192457,"lng":136.796651,"zip":"4901203"},{"town":"七宝町桂","koaza":"神明","lat":35.165907,"lng":136.797838,"zip":"4970004"},{"town":"七宝町徳実","koaza":"十九東切","lat":35.149627,"lng":136.797982,"zip":"4970016"},{"town":"七宝町伊福","koaza":"米","lat":35.162372,"lng":136.797632,"zip":"4970005"},{"town":"木折","koaza":"七反地","lat":35.193913,"lng":136.797072,"zip":"4901203"},{"town":"七宝町伊福","koaza":"四之割","lat":35.155978,"lng":136.797817,"zip":"4970005"},{"town":"七宝町下之森","koaza":"新畑","lat":35.150529,"lng":136.7998,"zip":"4970006"},{"town":"篠田","koaza":"遠原","lat":35.185598,"lng":136.796978,"zip":"4901211"},{"town":"七宝町下之森","koaza":"七反田","lat":35.15098,"lng":136.797613,"zip":"4970006"},{"town":"七宝町桂","koaza":"寺附","lat":35.166819,"lng":136.798576,"zip":"4970004"},{"town":"花長","koaza":"堀上","lat":35.199668,"lng":136.797928,"zip":"4901204"},{"town":"七宝町安松","koaza":"生岡","lat":35.174697,"lng":136.797345,"zip":"4970011"},{"town":"二ツ寺","koaza":"三本松","lat":35.203834,"lng":136.799202,"zip":"4901207"},{"town":"七宝町桂","koaza":"角田","lat":35.170513,"lng":136.797951,"zip":"4970004"},{"town":"七宝町安松","koaza":"縣","lat":35.175377,"lng":136.797508,"zip":"4970011"},{"town":"七宝町桂","koaza":"西塚","lat":35.164315,"lng":136.797867,"zip":"4970004"},{"town":"木折","koaza":"下柳","lat":35.192754,"lng":136.797773,"zip":"4901203"},{"town":"木折","koaza":"寺田","lat":35.191276,"lng":136.797806,"zip":"4901203"},{"town":"木折","koaza":"外平","lat":35.190549,"lng":136.796394,"zip":"4901203"},{"town":"七宝町伊福","koaza":"壱之割","lat":35.157579,"lng":136.797989,"zip":"4970005"},{"town":"花長","koaza":"うしや","lat":35.197067,"lng":136.798134,"zip":"4901204"},{"town":"木折","koaza":"元苗代","lat":35.1951,"lng":136.797939,"zip":"4901203"},{"town":"七宝町伊福","koaza":"蓮池","lat":35.159578,"lng":136.798347,"zip":"4970005"},{"town":"木折","koaza":"宮ノ越","lat":35.193737,"lng":136.798253,"zip":"4901203"},{"town":"七宝町桂","koaza":"築込","lat":35.169301,"lng":136.798776,"zip":"4970004"},{"town":"七宝町遠島","koaza":"鳥居先","lat":35.175272,"lng":136.798589,"zip":"4970002"},{"town":"七宝町下之森","koaza":"郷東","lat":35.154116,"lng":136.798054,"zip":"4970006"},{"town":"花長","koaza":"上町田","lat":35.201809,"lng":136.798847,"zip":"4901204"},{"town":"七宝町遠島","koaza":"十坪","lat":35.185748,"lng":136.799417,"zip":"4970002"},{"town":"木折","koaza":"十六","lat":35.19313,"lng":136.798694,"zip":"4901203"},{"town":"七宝町桂","koaza":"宮前","lat":35.16547,"lng":136.799491,"zip":"4970004"},{"town":"七宝町桂","koaza":"郷内","lat":35.168253,"lng":136.800496,"zip":"4970004"},{"town":"七宝町桂","koaza":"奥山","lat":35.163386,"lng":136.799807,"zip":"4970004"},{"town":"七宝町下之森","koaza":"八之坪","lat":35.151782,"lng":136.799061,"zip":"4970006"},{"town":"木折","koaza":"宮新規","lat":35.193679,"lng":136.799323,"zip":"4901203"},{"town":"七宝町下之森","koaza":"一丁田","lat":35.153996,"lng":136.800188,"zip":"4970006"},{"town":"七宝町沖之島","koaza":"上折","lat":35.189719,"lng":136.799178,"zip":"4970001"},{"town":"花長","koaza":"下町田","lat":35.199677,"lng":136.800583,"zip":"4901204"},{"town":"七宝町徳実","koaza":"外田面南ノ切","lat":35.148482,"lng":136.800906,"zip":"4970016"},{"town":"七宝町徳実","koaza":"外田面中ノ切","lat":35.149041,"lng":136.800124,"zip":"4970016"},{"town":"七宝町伊福","koaza":"苗代","lat":35.157251,"lng":136.800496,"zip":"4970005"},{"town":"七宝町遠島","koaza":"新開","lat":35.175106,"lng":136.799747,"zip":"4970002"},{"town":"七宝町桂","koaza":"親田","lat":35.170885,"lng":136.800929,"zip":"4970004"},{"town":"七宝町桂","koaza":"宮附","lat":35.167371,"lng":136.800534,"zip":"4970004"},{"town":"七宝町伊福","koaza":"薬師","lat":35.162061,"lng":136.800008,"zip":"4970005"},{"town":"二ツ寺","koaza":"鬼田","lat":35.206188,"lng":136.80012,"zip":"4901207"},{"town":"七宝町桂","koaza":"城之堀","lat":35.170173,"lng":136.800712,"zip":"4970004"},{"town":"花長","koaza":"新堀","lat":35.197027,"lng":136.799738,"zip":"4901204"},{"town":"木折","koaza":"戸井田","lat":35.192609,"lng":136.800157,"zip":"4901203"},{"town":"木折","koaza":"八畝割","lat":35.191304,"lng":136.800188,"zip":"4901203"},{"town":"七宝町秋竹","koaza":"四町田","lat":35.173166,"lng":136.800565,"zip":"4970003"},{"town":"七宝町遠島","koaza":"泉水","lat":35.179805,"lng":136.800929,"zip":"4970002"},{"town":"二ツ寺","koaza":"五反地","lat":35.210174,"lng":136.801879,"zip":"4901207"},{"town":"七宝町伊福","koaza":"新家西","lat":35.159288,"lng":136.801387,"zip":"4970005"},{"town":"七宝町桂","koaza":"三田","lat":35.162996,"lng":136.802447,"zip":"4970004"},{"town":"七宝町下之森","koaza":"二之坪","lat":35.153931,"lng":136.801038,"zip":"4970006"},{"town":"七宝町伊福","koaza":"鍛治屋前","lat":35.154551,"lng":136.80022,"zip":"4970005"},{"town":"七宝町桂","koaza":"鎌蓋","lat":35.164298,"lng":136.801714,"zip":"4970004"},{"town":"木折","koaza":"南新規","lat":35.192613,"lng":136.801089,"zip":"4901203"},{"town":"七宝町桂","koaza":"須賀","lat":35.166915,"lng":136.802061,"zip":"4970004"},{"town":"二ツ寺","koaza":"六町","lat":35.200275,"lng":136.80222,"zip":"4901207"},{"town":"七宝町桂","koaza":"石暮","lat":35.165757,"lng":136.802361,"zip":"4970004"},{"town":"古道","koaza":"赤本田","lat":35.204473,"lng":136.801877,"zip":"4901201"},{"town":"七宝町沖之島","koaza":"間曽","lat":35.195908,"lng":136.803073,"zip":"4970001"},{"town":"七宝町沖之島","koaza":"中折","lat":35.193387,"lng":136.803658,"zip":"4970001"},{"town":"七宝町桂","koaza":"薮之内","lat":35.170567,"lng":136.802547,"zip":"4970004"},{"town":"七宝町沖之島","koaza":"五反田","lat":35.191731,"lng":136.803603,"zip":"4970001"},{"town":"七宝町沖之島","koaza":"内之町","lat":35.189776,"lng":136.803705,"zip":"4970001"},{"town":"古道","koaza":"与六","lat":35.20289,"lng":136.802084,"zip":"4901201"},{"town":"七宝町沖之島","koaza":"彼岸出","lat":35.18861,"lng":136.802284,"zip":"4970001"},{"town":"七宝町遠島","koaza":"水落","lat":35.180705,"lng":136.803671,"zip":"4970002"},{"town":"七宝町秋竹","koaza":"西堤","lat":35.17655,"lng":136.801968,"zip":"4970003"},{"town":"七宝町秋竹","koaza":"杁先","lat":35.174104,"lng":136.803254,"zip":"4970003"},{"town":"七宝町秋竹","koaza":"廻場","lat":35.175232,"lng":136.801996,"zip":"4970003"},{"town":"古道","koaza":"一本松","lat":35.205484,"lng":136.802625,"zip":"4901201"},{"town":"七宝町秋竹","koaza":"西屋敷","lat":35.172811,"lng":136.802964,"zip":"4970003"},{"town":"七宝町遠島","koaza":"上江越","lat":35.182283,"lng":136.802287,"zip":"4970002"},{"town":"七宝町沖之島","koaza":"九之坪","lat":35.185772,"lng":136.802453,"zip":"4970001"},{"town":"七宝町桂","koaza":"猶猪","lat":35.167813,"lng":136.80225,"zip":"4970004"},{"town":"七宝町伊福","koaza":"隅田","lat":35.152565,"lng":136.803673,"zip":"4970005"},{"town":"古道","koaza":"吉松","lat":35.209018,"lng":136.803202,"zip":"4901201"},{"town":"七宝町沖之島","koaza":"西流","lat":35.183786,"lng":136.802016,"zip":"4970001"},{"town":"古道","koaza":"千束","lat":35.202996,"lng":136.803016,"zip":"4901201"},{"town":"七宝町桂","koaza":"六勺","lat":35.167002,"lng":136.803923,"zip":"4970004"},{"town":"七宝町沖之島","koaza":"深坪","lat":35.187419,"lng":136.80409,"zip":"4970001"},{"town":"七宝町伊福","koaza":"猿学","lat":35.150375,"lng":136.803812,"zip":"4970005"},{"town":"七宝町桂","koaza":"深田","lat":35.169711,"lng":136.804423,"zip":"4970004"},{"town":"七宝町桂","koaza":"河原","lat":35.170836,"lng":136.804566,"zip":"4970004"},{"town":"七宝町桂","koaza":"検白","lat":35.168286,"lng":136.805585,"zip":"4970004"},{"town":"富塚","koaza":"先速","lat":35.199809,"lng":136.80424,"zip":"4901202"},{"town":"富塚","koaza":"ハタチ","lat":35.197549,"lng":136.804271,"zip":"4901202"},{"town":"富塚","koaza":"西間曽","lat":35.196872,"lng":136.804067,"zip":"4901202"},{"town":"古道","koaza":"沢","lat":35.210451,"lng":136.804793,"zip":"4901201"},{"town":"七宝町秋竹","koaza":"松原","lat":35.174048,"lng":136.804694,"zip":"4970003"},{"town":"古道","koaza":"長田","lat":35.204535,"lng":136.804374,"zip":"4901201"},{"town":"七宝町秋竹","koaza":"東屋敷","lat":35.172395,"lng":136.805878,"zip":"4970003"},{"town":"七宝町秋竹","koaza":"大島","lat":35.177362,"lng":136.805471,"zip":"4970003"},{"town":"七宝町遠島","koaza":"大切戸","lat":35.182627,"lng":136.806225,"zip":"4970002"},{"town":"七宝町遠島","koaza":"七台","lat":35.180738,"lng":136.806736,"zip":"4970002"},{"town":"七宝町伊福","koaza":"十七","lat":35.14896,"lng":136.806168,"zip":"4970005"},{"town":"七宝町秋竹","koaza":"中道","lat":35.175443,"lng":136.803457,"zip":"4970003"},{"town":"古道","koaza":"屋敷","lat":35.205619,"lng":136.806243,"zip":"4901201"},{"town":"古道","koaza":"宮ノ腰","lat":35.205652,"lng":136.803793,"zip":"4901201"},{"town":"七宝町伊福","koaza":"十三","lat":35.153148,"lng":136.806648,"zip":"4970005"},{"town":"古道","koaza":"六反田","lat":35.207678,"lng":136.805356,"zip":"4901201"},{"town":"富塚","koaza":"地蔵堂","lat":35.200835,"lng":136.805395,"zip":"4901202"},{"town":"古道","koaza":"北畑","lat":35.202643,"lng":136.80604,"zip":"4901201"},{"town":"古道","koaza":"白粉田","lat":35.204411,"lng":136.806031,"zip":"4901201"},{"town":"七宝町沖之島","koaza":"高畑","lat":35.194816,"lng":136.806255,"zip":"4970001"},{"town":"七宝町沖之島","koaza":"観音寺","lat":35.192497,"lng":136.806892,"zip":"4970001"},{"town":"七宝町沖之島","koaza":"北屋敷","lat":35.19058,"lng":136.805286,"zip":"4970001"},{"town":"七宝町桂","koaza":"川向","lat":35.167074,"lng":136.806408,"zip":"4970004"},{"town":"七宝町沖之島","koaza":"南屋敷","lat":35.188576,"lng":136.806656,"zip":"4970001"},{"town":"七宝町沖之島","koaza":"安無","lat":35.186876,"lng":136.807085,"zip":"4970001"},{"town":"七宝町沖之島","koaza":"十八","lat":35.184801,"lng":136.807336,"zip":"4970001"},{"town":"七宝町沖之島","koaza":"東流","lat":35.183801,"lng":136.807751,"zip":"4970001"},{"town":"七宝町秋竹","koaza":"宮西","lat":35.173248,"lng":136.805919,"zip":"4970003"},{"town":"七宝町秋竹","koaza":"六反田","lat":35.17493,"lng":136.806698,"zip":"4970003"},{"town":"七宝町桂","koaza":"下り戸","lat":35.169618,"lng":136.806313,"zip":"4970004"},{"town":"七宝町秋竹","koaza":"壱町田","lat":35.178968,"lng":136.805666,"zip":"4970003"},{"town":"七宝町桂","koaza":"境之橋","lat":35.170721,"lng":136.806285,"zip":"4970004"},{"town":"七宝町伊福","koaza":"戸田境","lat":35.148336,"lng":136.806531,"zip":"4970005"},{"town":"七宝町秋竹","koaza":"井原坪","lat":35.177766,"lng":136.806786,"zip":"4970003"},{"town":"七宝町秋竹","koaza":"三角","lat":35.173088,"lng":136.806872,"zip":"4970003"},{"town":"古道","koaza":"同道","lat":35.206675,"lng":136.807284,"zip":"4901201"},{"town":"七宝町沖之島","koaza":"中屋敷","lat":35.189164,"lng":136.805949,"zip":"4970001"},{"town":"七宝町沖之島","koaza":"市之坪","lat":35.195119,"lng":136.807001,"zip":"4970001"},{"town":"富塚","koaza":"七反地","lat":35.198923,"lng":136.806229,"zip":"4901202"},{"town":"富塚","koaza":"十の坪","lat":35.20112,"lng":136.807322,"zip":"4901202"},{"town":"古道","koaza":"岩屋","lat":35.202697,"lng":136.808136,"zip":"4901201"},{"town":"古道","koaza":"斉宮司","lat":35.204803,"lng":136.807637,"zip":"4901201"},{"town":"七宝町沖之島","koaza":"東屋敷","lat":35.190166,"lng":136.80729,"zip":"4970001"},{"town":"七宝町秋竹","koaza":"柏田","lat":35.174022,"lng":136.806559,"zip":"4970003"},{"town":"七宝町伊福","koaza":"江向","lat":35.149768,"lng":136.808083,"zip":"4970005"},{"town":"富塚","koaza":"向","lat":35.199053,"lng":136.807575,"zip":"4901202"},{"town":"七宝町秋竹","koaza":"新所","lat":35.178335,"lng":136.808293,"zip":"4970003"},{"town":"七宝町沖之島","koaza":"宮前","lat":35.192804,"lng":136.808027,"zip":"4970001"},{"town":"七宝町沖之島","koaza":"十坪","lat":35.189733,"lng":136.808185,"zip":"4970001"},{"town":"七宝町秋竹","koaza":"東堤","lat":35.178147,"lng":136.808295,"zip":"4970003"},{"town":"新居屋","koaza":"岩屋","lat":35.200795,"lng":136.809125,"zip":"4901105"},{"town":"新居屋","koaza":"鶴田","lat":35.198325,"lng":136.81037,"zip":"4901105"},{"town":"新居屋","koaza":"久渕郷","lat":35.20292,"lng":136.810626,"zip":"4901105"},{"town":"新居屋","koaza":"新町","lat":35.196433,"lng":136.811655,"zip":"4901105"},{"town":"新居屋","koaza":"江上田","lat":35.191784,"lng":136.809997,"zip":"4901105"},{"town":"新居屋","koaza":"八島","lat":35.194652,"lng":136.809123,"zip":"4901105"},{"town":"新居屋","koaza":"烏帽子","lat":35.191041,"lng":136.810892,"zip":"4901105"},{"town":"新居屋","koaza":"榎坪","lat":35.191138,"lng":136.812061,"zip":"4901105"},{"town":"新居屋","koaza":"辻畑","lat":35.200819,"lng":136.811748,"zip":"4901105"},{"town":"新居屋","koaza":"東高田","lat":35.198337,"lng":136.811788,"zip":"4901105"},{"town":"新居屋","koaza":"高島","lat":35.19443,"lng":136.811893,"zip":"4901105"},{"town":"新居屋","koaza":"上権現","lat":35.193577,"lng":136.813175,"zip":"4901105"},{"town":"新居屋","koaza":"茶屋","lat":35.195282,"lng":136.813024,"zip":"4901105"},{"town":"新居屋","koaza":"郷","lat":35.200998,"lng":136.814345,"zip":"4901105"},{"town":"新居屋","koaza":"又屋敷","lat":35.19973,"lng":136.814118,"zip":"4901105"},{"town":"新居屋","koaza":"大日","lat":35.197553,"lng":136.813015,"zip":"4901105"},{"town":"新居屋","koaza":"清明","lat":35.203643,"lng":136.813421,"zip":"4901105"},{"town":"新居屋","koaza":"小舟戸","lat":35.193054,"lng":136.815197,"zip":"4901105"},{"town":"甚目寺","koaza":"飛殿","lat":35.188801,"lng":136.814922,"zip":"4901111"},{"town":"新居屋","koaza":"善左屋敷","lat":35.202642,"lng":136.814868,"zip":"4901105"},{"town":"甚目寺","koaza":"権現","lat":35.19234,"lng":136.816364,"zip":"4901111"},{"town":"石作","koaza":"郷","lat":35.20536,"lng":136.815503,"zip":"4901102"},{"town":"新居屋","koaza":"西大池","lat":35.199743,"lng":136.815646,"zip":"4901105"},{"town":"新居屋","koaza":"三反通","lat":35.197959,"lng":136.815536,"zip":"4901105"},{"town":"方領","koaza":"屋敷","lat":35.21032,"lng":136.816553,"zip":"4901101"},{"town":"甚目寺","koaza":"大渕","lat":35.197672,"lng":136.818805,"zip":"4901111"},{"town":"方領","koaza":"北浦","lat":35.211943,"lng":136.816051,"zip":"4901101"},{"town":"石作","koaza":"北浦","lat":35.207855,"lng":136.816336,"zip":"4901102"},{"town":"甚目寺","koaza":"沖田","lat":35.188922,"lng":136.816366,"zip":"4901111"},{"town":"新居屋","koaza":"山","lat":35.201959,"lng":136.816947,"zip":"4901105"},{"town":"甚目寺","koaza":"稲荷","lat":35.195537,"lng":136.816952,"zip":"4901111"},{"town":"石作","koaza":"六丹寺","lat":35.206844,"lng":136.817918,"zip":"4901102"},{"town":"石作","koaza":"阿弥陀寺","lat":35.205012,"lng":136.820313,"zip":"4901102"},{"town":"新居屋","koaza":"阿弥陀寺","lat":35.203497,"lng":136.819078,"zip":"4901105"},{"town":"甚目寺","koaza":"稲荷新田","lat":35.198906,"lng":136.817932,"zip":"4901111"},{"town":"新居屋","koaza":"高畑","lat":35.200954,"lng":136.819514,"zip":"4901105"},{"town":"方領","koaza":"北ノ川","lat":35.211749,"lng":136.818586,"zip":"4901101"},{"town":"新居屋","koaza":"東大池","lat":35.200119,"lng":136.818151,"zip":"4901105"},{"town":"方領","koaza":"東七之坪","lat":35.209902,"lng":136.818529,"zip":"4901101"},{"town":"方領","koaza":"西六反地","lat":35.209337,"lng":136.818527,"zip":"4901101"},{"town":"甚目寺","koaza":"乾出","lat":35.195547,"lng":136.819052,"zip":"4901111"},{"town":"甚目寺","koaza":"桑丸","lat":35.191553,"lng":136.81909,"zip":"4901111"},{"town":"甚目寺","koaza":"山王","lat":35.19049,"lng":136.821466,"zip":"4901111"},{"town":"甚目寺","koaza":"茶之木田","lat":35.193133,"lng":136.820108,"zip":"4901111"},{"town":"甚目寺","koaza":"須原","lat":35.188384,"lng":136.821245,"zip":"4901111"},{"town":"石作","koaza":"中小路","lat":35.205763,"lng":136.818732,"zip":"4901102"},{"town":"森","koaza":"東町長","lat":35.216717,"lng":136.819769,"zip":"4901107"},{"town":"甚目寺","koaza":"西大門","lat":35.192069,"lng":136.821925,"zip":"4901111"},{"town":"甚目寺","koaza":"寺西","lat":35.19593,"lng":136.821426,"zip":"4901111"},{"town":"新居屋","koaza":"江ノ橋","lat":35.201241,"lng":136.821864,"zip":"4901105"},{"town":"甚目寺","koaza":"山之浦","lat":35.196853,"lng":136.822553,"zip":"4901111"},{"town":"甚目寺","koaza":"二伴田","lat":35.199877,"lng":136.822192,"zip":"4901111"},{"town":"甚目寺","koaza":"東門前","lat":35.195342,"lng":136.82392,"zip":"4901111"},{"town":"甚目寺","koaza":"市場","lat":35.190483,"lng":136.823435,"zip":"4901111"},{"town":"本郷","koaza":"取替","lat":35.188371,"lng":136.823656,"zip":"4901116"},{"town":"甚目寺","koaza":"東大門","lat":35.192746,"lng":136.823921,"zip":"4901111"},{"town":"本郷","koaza":"郷前","lat":35.185177,"lng":136.825175,"zip":"4901116"},{"town":"本郷","koaza":"四反田","lat":35.187415,"lng":136.824474,"zip":"4901116"},{"town":"坂牧","koaza":"汁江","lat":35.180416,"lng":136.825992,"zip":"4901115"},{"town":"西今宿","koaza":"阿弥陀寺","lat":35.203709,"lng":136.825613,"zip":"4901104"},{"town":"坂牧","koaza":"坂塩","lat":35.183884,"lng":136.826145,"zip":"4901115"},{"town":"西今宿","koaza":"六反割","lat":35.202531,"lng":136.824688,"zip":"4901104"},{"town":"坂牧","koaza":"日吉","lat":35.182143,"lng":136.825118,"zip":"4901115"},{"town":"甚目寺","koaza":"畦田","lat":35.200117,"lng":136.824518,"zip":"4901111"},{"town":"甚目寺","koaza":"五位田","lat":35.197067,"lng":136.826358,"zip":"4901111"},{"town":"甚目寺","koaza":"郷中","lat":35.193314,"lng":136.827097,"zip":"4901111"},{"town":"本郷","koaza":"郷中","lat":35.186817,"lng":136.826305,"zip":"4901116"},{"town":"甚目寺","koaza":"郷浦","lat":35.196244,"lng":136.827772,"zip":"4901111"},{"town":"甚目寺","koaza":"郷前","lat":35.191407,"lng":136.825382,"zip":"4901111"},{"town":"本郷","koaza":"三反地","lat":35.18902,"lng":136.825668,"zip":"4901116"},{"town":"坂牧","koaza":"郷","lat":35.181806,"lng":136.828434,"zip":"4901115"},{"town":"西今宿","koaza":"八反田","lat":35.202035,"lng":136.827787,"zip":"4901104"},{"town":"西今宿","koaza":"馬洗","lat":35.199321,"lng":136.828374,"zip":"4901104"},{"town":"甚目寺","koaza":"松山","lat":35.191996,"lng":136.828048,"zip":"4901111"},{"town":"本郷","koaza":"八尻","lat":35.18829,"lng":136.828647,"zip":"4901116"},{"town":"本郷","koaza":"柿ノ木","lat":35.187008,"lng":136.829054,"zip":"4901116"},{"town":"坂牧","koaza":"北浦","lat":35.184063,"lng":136.828553,"zip":"4901115"},{"town":"西今宿","koaza":"狐海道二","lat":35.198306,"lng":136.829024,"zip":"4901104"},{"town":"本郷","koaza":"花ノ木","lat":35.185373,"lng":136.830132,"zip":"4901116"},{"town":"甚目寺","koaza":"桜田","lat":35.19584,"lng":136.829717,"zip":"4901111"},{"town":"西今宿","koaza":"山伏四","lat":35.197378,"lng":136.829885,"zip":"4901104"},{"town":"甚目寺","koaza":"流","lat":35.194213,"lng":136.830239,"zip":"4901111"},{"town":"坂牧","koaza":"向江","lat":35.179489,"lng":136.831011,"zip":"4901115"},{"town":"西今宿","koaza":"六反地四","lat":35.203432,"lng":136.829923,"zip":"4901104"},{"town":"西今宿","koaza":"狐海道一","lat":35.199456,"lng":136.830049,"zip":"4901104"},{"town":"坂牧","koaza":"壱町田","lat":35.180172,"lng":136.829854,"zip":"4901115"},{"town":"坂牧","koaza":"西之宮","lat":35.181134,"lng":136.831785,"zip":"4901115"},{"town":"坂牧","koaza":"阿原","lat":35.182738,"lng":136.83192,"zip":"4901115"},{"town":"甚目寺","koaza":"八尻","lat":35.190786,"lng":136.830041,"zip":"4901111"},{"town":"坂牧","koaza":"大塚","lat":35.184527,"lng":136.831938,"zip":"4901115"},{"town":"西今宿","koaza":"六反地一","lat":35.201138,"lng":136.830195,"zip":"4901104"},{"town":"西今宿","koaza":"山伏三","lat":35.197383,"lng":136.831047,"zip":"4901104"},{"town":"西今宿","koaza":"郷内二","lat":35.201533,"lng":136.832442,"zip":"4901104"},{"town":"西今宿","koaza":"六反地五","lat":35.203083,"lng":136.83192,"zip":"4901104"},{"town":"上萱津","koaza":"深見","lat":35.190354,"lng":136.831431,"zip":"4901112"},{"town":"中萱津","koaza":"南ノ川","lat":35.187695,"lng":136.832156,"zip":"4901113"},{"town":"中萱津","koaza":"西ノ川","lat":35.189067,"lng":136.83154,"zip":"4901113"},{"town":"西今宿","koaza":"郷内一","lat":35.199834,"lng":136.832607,"zip":"4901104"},{"town":"西今宿","koaza":"山伏二","lat":35.197684,"lng":136.832795,"zip":"4901104"},{"town":"西今宿","koaza":"平割一","lat":35.203238,"lng":136.833041,"zip":"4901104"},{"town":"上萱津","koaza":"北ノ川","lat":35.191347,"lng":136.832101,"zip":"4901112"},{"town":"中萱津","koaza":"足川","lat":35.186514,"lng":136.833195,"zip":"4901113"},{"town":"中萱津","koaza":"九反所","lat":35.189264,"lng":136.833995,"zip":"4901113"},{"town":"上萱津","koaza":"大門","lat":35.194288,"lng":136.834329,"zip":"4901112"},{"town":"上萱津","koaza":"川崎","lat":35.19649,"lng":136.833462,"zip":"4901112"},{"town":"中萱津","koaza":"稲干場","lat":35.188036,"lng":136.834697,"zip":"4901113"},{"town":"西今宿","koaza":"平割二","lat":35.202405,"lng":136.834625,"zip":"4901104"},{"town":"上萱津","koaza":"銭神","lat":35.192613,"lng":136.834502,"zip":"4901112"},{"town":"西今宿","koaza":"平割四","lat":35.204082,"lng":136.835273,"zip":"4901104"},{"town":"西今宿","koaza":"平割三","lat":35.201818,"lng":136.834798,"zip":"4901104"},{"town":"西今宿","koaza":"梶村一","lat":35.200151,"lng":136.835195,"zip":"4901104"},{"town":"中萱津","koaza":"燈明先","lat":35.186869,"lng":136.836522,"zip":"4901113"},{"town":"上萱津","koaza":"薬師","lat":35.19527,"lng":136.836144,"zip":"4901112"},{"town":"上萱津","koaza":"矢台","lat":35.197129,"lng":136.836526,"zip":"4901112"},{"town":"上萱津","koaza":"森","lat":35.194017,"lng":136.836694,"zip":"4901112"},{"town":"下萱津","koaza":"九反田","lat":35.184978,"lng":136.836346,"zip":"4901114"},{"town":"西今宿","koaza":"梶村二","lat":35.200896,"lng":136.836818,"zip":"4901104"},{"town":"下萱津","koaza":"平島","lat":35.182963,"lng":136.837309,"zip":"4901114"},{"town":"上萱津","koaza":"白髭","lat":35.190419,"lng":136.837273,"zip":"4901112"},{"town":"中萱津","koaza":"五反田","lat":35.189475,"lng":136.836516,"zip":"4901113"},{"town":"中萱津","koaza":"親牧","lat":35.188194,"lng":136.836721,"zip":"4901113"},{"town":"下萱津","koaza":"五反田","lat":35.18491,"lng":136.837292,"zip":"4901114"},{"town":"西今宿","koaza":"梶村三","lat":35.199071,"lng":136.83682,"zip":"4901104"},{"town":"栄","koaza":"東郷内","lat":35.202317,"lng":136.836515,"zip":"4901103"},{"town":"上萱津","koaza":"八剱","lat":35.193155,"lng":136.838278,"zip":"4901112"},{"town":"西今宿","koaza":"外野","lat":35.198162,"lng":136.837879,"zip":"4901104"},{"town":"下萱津","koaza":"砂入","lat":35.1775,"lng":136.838079,"zip":"4901114"},{"town":"下萱津","koaza":"山伏","lat":35.180477,"lng":136.838326,"zip":"4901114"},{"town":"中萱津","koaza":"出口","lat":35.187055,"lng":136.838967,"zip":"4901113"},{"town":"中萱津","koaza":"砂入","lat":35.189226,"lng":136.838519,"zip":"4901113"},{"town":"下萱津","koaza":"中道","lat":35.178772,"lng":136.838338,"zip":"4901114"},{"town":"中萱津","koaza":"紺屋田","lat":35.188366,"lng":136.838646,"zip":"4901113"},{"town":"下萱津","koaza":"山","lat":35.176044,"lng":136.838682,"zip":"4901114"},{"town":"上萱津","koaza":"車屋","lat":35.193555,"lng":136.840008,"zip":"4901112"},{"town":"下萱津","koaza":"江西","lat":35.184871,"lng":136.839342,"zip":"4901114"},{"town":"下萱津","koaza":"坪井","lat":35.182991,"lng":136.839227,"zip":"4901114"},{"town":"下萱津","koaza":"蓮池","lat":35.178967,"lng":136.840309,"zip":"4901114"},{"town":"上萱津","koaza":"上野","lat":35.192577,"lng":136.84028,"zip":"4901112"},{"town":"中萱津","koaza":"定段寺","lat":35.18838,"lng":136.840348,"zip":"4901113"},{"town":"下萱津","koaza":"銀杏木","lat":35.180958,"lng":136.840926,"zip":"4901114"},{"town":"下萱津","koaza":"池端","lat":35.184581,"lng":136.841672,"zip":"4901114"},{"town":"下萱津","koaza":"宝","lat":35.182322,"lng":136.840882,"zip":"4901114"},{"town":"下萱津","koaza":"長者","lat":35.185804,"lng":136.841485,"zip":"4901114"},{"town":"上萱津","koaza":"左渡","lat":35.191184,"lng":136.841007,"zip":"4901112"},{"town":"中萱津","koaza":"大坊","lat":35.189511,"lng":136.840805,"zip":"4901113"},{"town":"中萱津","koaza":"道場","lat":35.188217,"lng":136.841632,"zip":"4901113"},{"town":"下萱津","koaza":"替地","lat":35.183007,"lng":136.842908,"zip":"4901114"},{"town":"上萱津","koaza":"池田","lat":35.191407,"lng":136.842202,"zip":"4901112"},{"town":"上萱津","koaza":"儀平東","lat":35.192528,"lng":136.844587,"zip":"4901112"},{"town":"下萱津","koaza":"宿ノ口","lat":35.185399,"lng":136.842797,"zip":"4901114"},{"town":"下萱津","koaza":"未見取","lat":35.182378,"lng":136.843318,"zip":"4901114"},{"town":"中萱津","koaza":"南宿","lat":35.186725,"lng":136.842855,"zip":"4901113"},{"town":"蜂須賀","koaza":"宮東","lat":35.204344,"lng":136.764127,"zip":"4901225"},{"town":"蜂須賀","koaza":"花木浦","lat":35.204277,"lng":136.762216,"zip":"4901225"},{"town":"蜂須賀","koaza":"上溝合","lat":35.203041,"lng":136.764688,"zip":"4901225"},{"town":"蜂須賀","koaza":"南西浦","lat":35.201863,"lng":136.766467,"zip":"4901225"},{"town":"蜂須賀","koaza":"新道","lat":35.202798,"lng":136.766869,"zip":"4901225"},{"town":"蜂須賀","koaza":"東五反地","lat":35.200338,"lng":136.766746,"zip":"4901225"},{"town":"蜂須賀","koaza":"下赤切目","lat":35.199981,"lng":136.769168,"zip":"4901225"},{"town":"丹波","koaza":"西裏","lat":35.201656,"lng":136.770711,"zip":"4901224"},{"town":"蜂須賀","koaza":"蛭間地","lat":35.200074,"lng":136.769793,"zip":"4901225"},{"town":"蜂須賀","koaza":"下郷合","lat":35.203087,"lng":136.770464,"zip":"4901225"},{"town":"蜂須賀","koaza":"上郷合","lat":35.204511,"lng":136.77047,"zip":"4901225"},{"town":"蜂須賀","koaza":"中島浦","lat":35.204869,"lng":136.772351,"zip":"4901225"},{"town":"蜂須賀","koaza":"丹波浦","lat":35.203668,"lng":136.772432,"zip":"4901225"},{"town":"蜂須賀","koaza":"東杁ノ下","lat":35.203521,"lng":136.777145,"zip":"4901225"},{"town":"蜂須賀","koaza":"高代","lat":35.205995,"lng":136.776151,"zip":"4901225"},{"town":"蜂須賀","koaza":"中橋境","lat":35.205723,"lng":136.77706,"zip":"4901225"},{"town":"蜂須賀","koaza":"杉ノ木","lat":35.206577,"lng":136.775373,"zip":"4901225"},{"town":"中橋","koaza":"宮西","lat":35.204807,"lng":136.778529,"zip":"4901226"},{"town":"森山","koaza":"堂建","lat":35.197681,"lng":136.773855,"zip":"4901223"},{"town":"丹波","koaza":"堂立","lat":35.198108,"lng":136.771944,"zip":"4901224"},{"town":"木田","koaza":"大西浦上切","lat":35.196808,"lng":136.780911,"zip":"4901222"},{"town":"木田","koaza":"庄兵衛前","lat":35.196696,"lng":136.781575,"zip":"4901222"},{"town":"木田","koaza":"北出","lat":35.197932,"lng":136.783958,"zip":"4901222"},{"town":"木田","koaza":"沼東切","lat":35.200141,"lng":136.784496,"zip":"4901222"},{"town":"木田","koaza":"山之越東切","lat":35.198062,"lng":136.786262,"zip":"4901222"},{"town":"木田","koaza":"山之越西切","lat":35.198027,"lng":136.785372,"zip":"4901222"},{"town":"木田","koaza":"南江村","lat":35.197935,"lng":136.788697,"zip":"4901222"},{"town":"木田","koaza":"道上","lat":35.196693,"lng":136.787856,"zip":"4901222"},{"town":"木田","koaza":"丁子ノ口","lat":35.197667,"lng":136.786695,"zip":"4901222"},{"town":"木田","koaza":"三助東","lat":35.197572,"lng":136.78627,"zip":"4901222"},{"town":"木田","koaza":"高端","lat":35.195539,"lng":136.789963,"zip":"4901222"},{"town":"金岩","koaza":"九反所","lat":35.195291,"lng":136.7931,"zip":"4901221"},{"town":"木折","koaza":"新堀","lat":35.195087,"lng":136.797094,"zip":"4901203"},{"town":"金岩","koaza":"後堂","lat":35.195503,"lng":136.795017,"zip":"4901221"},{"town":"花正","koaza":"花長道","lat":35.200792,"lng":136.792058,"zip":"4901205"},{"town":"木田","koaza":"大花寺","lat":35.198503,"lng":136.790086,"zip":"4901222"},{"town":"花正","koaza":"柳坪","lat":35.200791,"lng":136.787419,"zip":"4901205"},{"town":"木田","koaza":"柳坪","lat":35.198464,"lng":136.78783,"zip":"4901222"},{"town":"花正","koaza":"七反地","lat":35.199469,"lng":136.785724,"zip":"4901205"},{"town":"二ツ寺","koaza":"東ノ口","lat":35.208345,"lng":136.798581,"zip":"4901207"},{"town":"富塚","koaza":"西先速","lat":35.200291,"lng":136.803051,"zip":"4901202"},{"town":"木折","koaza":"苗代","lat":35.195688,"lng":136.798674,"zip":"4901203"},{"town":"富塚","koaza":"長堀","lat":35.198487,"lng":136.803195,"zip":"4901202"},{"town":"木折","koaza":"欠坪","lat":35.195609,"lng":136.80029,"zip":"4901203"},{"town":"富塚","koaza":"東間曽","lat":35.196965,"lng":136.80541,"zip":"4901202"},{"town":"富塚","koaza":"二反地","lat":35.196798,"lng":136.80656,"zip":"4901202"},{"town":"富塚","koaza":"郷","lat":35.198799,"lng":136.805706,"zip":"4901202"},{"town":"富塚","koaza":"布内","lat":35.196754,"lng":136.807527,"zip":"4901202"},{"town":"富塚","koaza":"岩屋","lat":35.201019,"lng":136.808117,"zip":"4901202"},{"town":"方領","koaza":"西出","lat":35.209353,"lng":136.815566,"zip":"4901101"},{"town":"方領","koaza":"杉ノ本","lat":35.209648,"lng":136.818056,"zip":"4901101"},{"town":"方領","koaza":"七ノ坪","lat":35.210478,"lng":136.81794,"zip":"4901101"},{"town":"石作","koaza":"郷南","lat":35.20429,"lng":136.816445,"zip":"4901102"},{"town":"新居屋","koaza":"新田","lat":35.196436,"lng":136.815283,"zip":"4901105"},{"town":"上萱津","koaza":"西ノ川","lat":35.189984,"lng":136.831013,"zip":"4901112"},{"town":"上萱津","koaza":"米屋","lat":35.195947,"lng":136.834598,"zip":"4901112"},{"town":"西今宿","koaza":"山伏一","lat":35.198344,"lng":136.835508,"zip":"4901104"},{"town":"中萱津","koaza":"法慶寺","lat":35.190093,"lng":136.842867,"zip":"4901113"},{"town":"中萱津","koaza":"鴻巣","lat":35.187117,"lng":136.840729,"zip":"4901113"},{"town":"下萱津","koaza":"新替","lat":35.185032,"lng":136.842926,"zip":"4901114"},{"town":"下萱津","koaza":"切戸","lat":35.183111,"lng":136.841042,"zip":"4901114"},{"town":"下萱津","koaza":"孫左池","lat":35.181331,"lng":136.841979,"zip":"4901114"},{"town":"下萱津","koaza":"末広","lat":35.186582,"lng":136.831575,"zip":"4901114"},{"town":"七宝町沖之島","koaza":"返上地","lat":35.196029,"lng":136.806856,"zip":"4970001"},{"town":"七宝町沖之島","koaza":"北島","lat":35.196043,"lng":136.805877,"zip":"4970001"},{"town":"乙之子","koaza":"百歩","lat":35.174835,"lng":136.782516,"zip":"4901213"},{"town":"乙之子","koaza":"楠島","lat":35.176208,"lng":136.781782,"zip":"4901213"},{"town":"乙之子","koaza":"八原先","lat":35.175226,"lng":136.783499,"zip":"4901213"},{"town":"乙之子","koaza":"江又ギ","lat":35.175666,"lng":136.783096,"zip":"4901213"},{"town":"七宝町下田","koaza":"江向","lat":35.17389,"lng":136.782811,"zip":"4970012"},{"town":"七宝町下田","koaza":"莪原裏","lat":35.172944,"lng":136.782833,"zip":"4970012"},{"town":"乙之子","koaza":"六畝物","lat":35.180952,"lng":136.782857,"zip":"4901213"},{"town":"小橋方","koaza":"寺西","lat":35.183662,"lng":136.783916,"zip":"4901212"},{"town":"小橋方","koaza":"北山西","lat":35.18306,"lng":136.783743,"zip":"4901212"},{"town":"乙之子","koaza":"西北","lat":35.182606,"lng":136.780438,"zip":"4901213"},{"town":"篠田","koaza":"小塚東","lat":35.189294,"lng":136.784135,"zip":"4901211"},{"town":"篠田","koaza":"小塚浦","lat":35.189409,"lng":136.784012,"zip":"4901211"},{"town":"篠田","koaza":"北苗田","lat":35.190498,"lng":136.783427,"zip":"4901211"},{"town":"篠田","koaza":"高畑","lat":35.190538,"lng":136.782604,"zip":"4901211"},{"town":"篠田","koaza":"鳥先","lat":35.189711,"lng":136.781891,"zip":"4901211"},{"town":"篠田","koaza":"小町塚","lat":35.18977,"lng":136.782939,"zip":"4901211"},{"town":"篠田","koaza":"木田前","lat":35.190616,"lng":136.781763,"zip":"4901211"},{"town":"篠田","koaza":"鷲之巣","lat":35.190781,"lng":136.780836,"zip":"4901211"},{"town":"篠田","koaza":"陰島","lat":35.19081,"lng":136.779686,"zip":"4901211"},{"town":"木田","koaza":"小塚裏","lat":35.191688,"lng":136.782693,"zip":"4901222"},{"town":"木田","koaza":"宮東","lat":35.193227,"lng":136.78362,"zip":"4901222"},{"town":"木田","koaza":"宮前","lat":35.192491,"lng":136.782945,"zip":"4901222"},{"town":"木田","koaza":"西新五領","lat":35.191924,"lng":136.787968,"zip":"4901222"},{"town":"木田","koaza":"東新赤坪","lat":35.194433,"lng":136.786275,"zip":"4901222"},{"town":"木田","koaza":"東屋敷北切","lat":35.195746,"lng":136.784686,"zip":"4901222"},{"town":"木田","koaza":"西高出","lat":35.197471,"lng":136.781502,"zip":"4901222"},{"town":"花正","koaza":"鳥先","lat":35.20654,"lng":136.79101,"zip":"4901205"},{"town":"二ツ寺","koaza":"江ノ内","lat":35.207979,"lng":136.793636,"zip":"4901207"},{"town":"森","koaza":"高白","lat":35.21138,"lng":136.801872,"zip":"4901107"},{"town":"篠田","koaza":"堤添","lat":35.189587,"lng":136.790361,"zip":"4901211"},{"town":"篠田","koaza":"棚田","lat":35.189857,"lng":136.79158,"zip":"4901211"},{"town":"篠田","koaza":"坪枕","lat":35.189186,"lng":136.792385,"zip":"4901211"},{"town":"篠田","koaza":"長直し","lat":35.189823,"lng":136.794168,"zip":"4901211"},{"town":"篠田","koaza":"一ツ蓮","lat":35.188283,"lng":136.796294,"zip":"4901211"},{"town":"篠田","koaza":"藤東","lat":35.185307,"lng":136.793962,"zip":"4901211"},{"town":"篠田","koaza":"山吹","lat":35.187588,"lng":136.795117,"zip":"4901211"},{"town":"篠田","koaza":"蓮島","lat":35.186346,"lng":136.797086,"zip":"4901211"},{"town":"篠田","koaza":"尼ケ崎","lat":35.184453,"lng":136.795936,"zip":"4901211"},{"town":"七宝町遠島","koaza":"中藤江","lat":35.183483,"lng":136.797912,"zip":"4970002"},{"town":"七宝町遠島","koaza":"十三割","lat":35.184186,"lng":136.798739,"zip":"4970002"},{"town":"七宝町遠島","koaza":"萱苅島海田","lat":35.184178,"lng":136.798081,"zip":"4970002"},{"town":"七宝町遠島","koaza":"十四割","lat":35.183509,"lng":136.800149,"zip":"4970002"},{"town":"七宝町遠島","koaza":"大切戸新田","lat":35.183172,"lng":136.801983,"zip":"4970002"},{"town":"七宝町遠島","koaza":"宮西","lat":35.179124,"lng":136.797716,"zip":"4970002"},{"town":"七宝町遠島","koaza":"三反田","lat":35.180434,"lng":136.798351,"zip":"4970002"},{"town":"七宝町遠島","koaza":"八幡島","lat":35.180467,"lng":136.799305,"zip":"4970002"},{"town":"七宝町安松","koaza":"寺浦","lat":35.177508,"lng":136.796605,"zip":"4970011"},{"town":"七宝町安松","koaza":"上屋敷","lat":35.176947,"lng":136.795804,"zip":"4970011"},{"town":"七宝町安松","koaza":"中屋敷","lat":35.175442,"lng":136.796745,"zip":"4970011"},{"town":"七宝町安松","koaza":"北辻田","lat":35.174261,"lng":136.797069,"zip":"4970011"},{"town":"七宝町桂","koaza":"北海道","lat":35.172793,"lng":136.799549,"zip":"4970004"},{"town":"七宝町安松","koaza":"小新田","lat":35.1722,"lng":136.796729,"zip":"4970011"},{"town":"七宝町安松","koaza":"瀬木戸","lat":35.17249,"lng":136.794691,"zip":"4970011"},{"town":"七宝町安松","koaza":"壱本木","lat":35.171199,"lng":136.796436,"zip":"4970011"},{"town":"七宝町安松","koaza":"南辻田","lat":35.172117,"lng":136.798775,"zip":"4970011"},{"town":"七宝町安松","koaza":"東高御堂","lat":35.17159,"lng":136.798751,"zip":"4970011"},{"town":"七宝町秋竹","koaza":"小島田","lat":35.176405,"lng":136.803443,"zip":"4970003"},{"town":"七宝町桂","koaza":"六地蔵","lat":35.168767,"lng":136.802293,"zip":"4970004"},{"town":"七宝町安松","koaza":"東万乗","lat":35.17567,"lng":136.795062,"zip":"4970011"},{"town":"七宝町鷹居","koaza":"堂後","lat":35.15521,"lng":136.786825,"zip":"4970014"},{"town":"七宝町下之森","koaza":"徳実裏","lat":35.152169,"lng":136.795181,"zip":"4970006"},{"town":"七宝町徳実","koaza":"三河畑","lat":35.150581,"lng":136.793992,"zip":"4970016"},{"town":"七宝町徳実","koaza":"十九西切","lat":35.149626,"lng":136.797285,"zip":"4970016"},{"town":"七宝町下之森","koaza":"郷前","lat":35.151556,"lng":136.796373,"zip":"4970006"},{"town":"七宝町桂","koaza":"弥勒","lat":35.164487,"lng":136.796119,"zip":"4970004"},{"town":"七宝町安松","koaza":"西高御堂","lat":35.171683,"lng":136.797592,"zip":"4970011"},{"town":"七宝町下之森","koaza":"寺浦","lat":35.154652,"lng":136.797545,"zip":"4970006"},{"town":"蜂須賀","koaza":"蛇除地","lat":35.200999,"lng":136.7668,"zip":"4901225"},{"town":"北苅","koaza":"沢","lat":35.191729,"lng":136.779145,"zip":"4901214"},{"town":"篠田","koaza":"宮裏","lat":35.190011,"lng":136.780701,"zip":"4901211"},{"town":"篠田","koaza":"西出","lat":35.188748,"lng":136.780056,"zip":"4901211"},{"town":"篠田","koaza":"西苗田","lat":35.186308,"lng":136.780696,"zip":"4901211"},{"town":"篠田","koaza":"十王堂","lat":35.186898,"lng":136.782261,"zip":"4901211"},{"town":"篠田","koaza":"寺後","lat":35.185807,"lng":136.780963,"zip":"4901211"},{"town":"篠田","koaza":"乙柳","lat":35.184303,"lng":136.782138,"zip":"4901211"},{"town":"小橋方","koaza":"如来田","lat":35.18438,"lng":136.783685,"zip":"4901212"},{"town":"乙之子","koaza":"東出","lat":35.181911,"lng":136.782896,"zip":"4901213"},{"town":"小橋方","koaza":"南山西","lat":35.180965,"lng":136.783695,"zip":"4901212"},{"town":"小橋方","koaza":"西境","lat":35.179705,"lng":136.784578,"zip":"4901212"},{"town":"小橋方","koaza":"八原先","lat":35.176435,"lng":136.785203,"zip":"4901212"},{"town":"篠田","koaza":"水筒先","lat":35.179981,"lng":136.789194,"zip":"4901211"},{"town":"七宝町安松","koaza":"内崩","lat":35.174633,"lng":136.795101,"zip":"4970011"},{"town":"七宝町遠島","koaza":"宮東","lat":35.177598,"lng":136.800857,"zip":"4970002"},{"town":"七宝町川部","koaza":"北ノ町","lat":35.165913,"lng":136.787336,"zip":"4970013"},{"town":"篠田","koaza":"南長無","lat":35.186006,"lng":136.786343,"zip":"4901211"},{"town":"篠田","koaza":"三田畑","lat":35.18552,"lng":136.785997,"zip":"4901211"},{"town":"小橋方","koaza":"大屋敷","lat":35.184532,"lng":136.784016,"zip":"4901212"},{"town":"篠田","koaza":"坂島","lat":35.184911,"lng":136.790416,"zip":"4901211"},{"town":"篠田","koaza":"苅萱島","lat":35.184577,"lng":136.790936,"zip":"4901211"},{"town":"篠田","koaza":"森東","lat":35.184603,"lng":136.790154,"zip":"4901211"},{"town":"篠田","koaza":"八反田","lat":35.185254,"lng":136.792703,"zip":"4901211"},{"town":"七宝町遠島","koaza":"折口","lat":35.182018,"lng":136.80164,"zip":"4970002"},{"town":"七宝町遠島","koaza":"千之島","lat":35.184161,"lng":136.801651,"zip":"4970002"},{"town":"七宝町遠島","koaza":"川南","lat":35.183014,"lng":136.805786,"zip":"4970002"},{"town":"七宝町桂","koaza":"神明前","lat":35.166422,"lng":136.799282,"zip":"4970004"},{"town":"上萱津","koaza":"下流","lat":35.194389,"lng":136.83253,"zip":"4901112"},{"town":"栄","koaza":"平割四","lat":35.203975,"lng":136.836716,"zip":"4901103"},{"town":"坂牧","koaza":"西海道","lat":35.181107,"lng":136.825744,"zip":"4901115"},{"town":"篠田","koaza":"西六","lat":35.184777,"lng":136.794488,"zip":"4901211"},{"town":"篠田","koaza":"猿田","lat":35.18925,"lng":136.791524,"zip":"4901211"},{"town":"篠田","koaza":"南分","lat":35.184748,"lng":136.784637,"zip":"4901211"},{"town":"木田","koaza":"西明","lat":35.195355,"lng":136.786229,"zip":"4901222"},{"town":"木田","koaza":"小島","lat":35.197808,"lng":136.782333,"zip":"4901222"},{"town":"木田","koaza":"高出","lat":35.197885,"lng":136.782826,"zip":"4901222"},{"town":"七宝町下田","koaza":"矢倉下","lat":35.174072,"lng":136.784195,"zip":"4970012"},{"town":"七宝町下田","koaza":"五之坪","lat":35.173195,"lng":136.785219,"zip":"4970012"},{"town":"木折","koaza":"五反地","lat":35.195767,"lng":136.797325,"zip":"4901203"},{"town":"篠田","koaza":"面徳","lat":35.188763,"lng":136.797381,"zip":"4901211"},{"town":"七宝町沖之島","koaza":"下折","lat":35.188873,"lng":136.798764,"zip":"4970001"},{"town":"森","koaza":"東源寺","lat":35.215576,"lng":136.818292,"zip":"4901107"},{"town":"森","koaza":"野黒","lat":35.214892,"lng":136.817649,"zip":"4901107"},{"town":"新居屋","koaza":"上古川","lat":35.195404,"lng":136.815225,"zip":"4901105"}]