[{"town":"打越町","koaza":"","lat":35.078401,"lng":137.096648,"zip":"4700213"},{"town":"黒笹一丁目","koaza":"","lat":35.127347,"lng":137.093474,"zip":"4700231"},{"town":"黒笹二丁目","koaza":"","lat":35.12812,"lng":137.097677,"zip":"4700231"},{"town":"黒笹三丁目","koaza":"","lat":35.128262,"lng":137.100279,"zip":"4700231"},{"town":"黒笹いずみ一丁目","koaza":"","lat":35.129035,"lng":137.091129,"zip":"4700232"},{"town":"黒笹いずみ二丁目","koaza":"","lat":35.132323,"lng":137.095475,"zip":"4700232"},{"town":"黒笹いずみ三丁目","koaza":"","lat":35.130035,"lng":137.096362,"zip":"4700232"},{"town":"黒笹町","koaza":"","lat":35.136583,"lng":137.096076,"zip":"4700201"},{"town":"潮見","koaza":"","lat":35.099207,"lng":137.112355,"zip":"4700209"},{"town":"園原一丁目","koaza":"","lat":35.084346,"lng":137.073109,"zip":"4700227"},{"town":"園原二丁目","koaza":"","lat":35.083922,"lng":137.069763,"zip":"4700227"},{"town":"園原三丁目","koaza":"","lat":35.082087,"lng":137.067558,"zip":"4700227"},{"town":"園原四丁目","koaza":"","lat":35.081087,"lng":137.065964,"zip":"4700227"},{"town":"園原五丁目","koaza":"","lat":35.082241,"lng":137.069319,"zip":"4700227"},{"town":"天王台","koaza":"","lat":35.089101,"lng":137.089277,"zip":"4700211"},{"town":"西一色町","koaza":"","lat":35.086845,"lng":137.057768,"zip":"4700226"},{"town":"西陣取山","koaza":"","lat":35.087699,"lng":137.077496,"zip":"4700221"},{"town":"東陣取山","koaza":"","lat":35.086738,"lng":137.080148,"zip":"4700222"},{"town":"東蜂ヶ池","koaza":"","lat":35.084626,"lng":137.080641,"zip":"4700223"},{"town":"東山台","koaza":"","lat":35.086219,"lng":137.087699,"zip":"4700212"},{"town":"ひばりヶ丘一丁目","koaza":"","lat":35.118095,"lng":137.119284,"zip":"4700208"},{"town":"ひばりヶ丘二丁目","koaza":"","lat":35.116818,"lng":137.113191,"zip":"4700208"},{"town":"福田町","koaza":"","lat":35.071453,"lng":137.052175,"zip":"4700225"},{"town":"南台","koaza":"","lat":35.0855,"lng":137.096955,"zip":"4700216"},{"town":"みなよし台","koaza":"","lat":35.077232,"lng":137.087533,"zip":"4700215"},{"town":"明知町","koaza":"","lat":35.068324,"lng":137.077251,"zip":"4700214"},{"town":"三好丘一丁目","koaza":"","lat":35.127014,"lng":137.109019,"zip":"4700202"},{"town":"三好丘二丁目","koaza":"","lat":35.125199,"lng":137.114992,"zip":"4700202"},{"town":"三好丘三丁目","koaza":"","lat":35.122717,"lng":137.111243,"zip":"4700202"},{"town":"三好丘四丁目","koaza":"","lat":35.12294,"lng":137.114306,"zip":"4700202"},{"town":"三好丘五丁目","koaza":"","lat":35.121188,"lng":137.110023,"zip":"4700202"},{"town":"三好丘六丁目","koaza":"","lat":35.117747,"lng":137.110849,"zip":"4700202"},{"town":"三好丘七丁目","koaza":"","lat":35.120093,"lng":137.113648,"zip":"4700202"},{"town":"三好丘八丁目","koaza":"","lat":35.121032,"lng":137.117283,"zip":"4700202"},{"town":"三好丘あおば一丁目","koaza":"","lat":35.13035,"lng":137.102881,"zip":"4700233"},{"town":"三好丘あおば二丁目","koaza":"","lat":35.128177,"lng":137.104054,"zip":"4700233"},{"town":"三好丘旭一丁目","koaza":"","lat":35.12402,"lng":137.119089,"zip":"4700203"},{"town":"三好丘旭二丁目","koaza":"","lat":35.123183,"lng":137.121599,"zip":"4700203"},{"town":"三好丘旭三丁目","koaza":"","lat":35.121471,"lng":137.120288,"zip":"4700203"},{"town":"三好丘旭四丁目","koaza":"","lat":35.118731,"lng":137.124576,"zip":"4700203"},{"town":"三好丘旭五丁目","koaza":"","lat":35.12096,"lng":137.124717,"zip":"4700203"},{"town":"三好丘桜一丁目","koaza":"","lat":35.113599,"lng":137.109046,"zip":"4700204"},{"town":"三好丘桜二丁目","koaza":"","lat":35.111299,"lng":137.107958,"zip":"4700204"},{"town":"三好丘桜三丁目","koaza":"","lat":35.112991,"lng":137.111988,"zip":"4700204"},{"town":"三好丘桜四丁目","koaza":"","lat":35.11378,"lng":137.116043,"zip":"4700204"},{"town":"三好丘桜五丁目","koaza":"","lat":35.113578,"lng":137.11776,"zip":"4700204"},{"town":"三好丘緑一丁目","koaza":"","lat":35.111527,"lng":137.115154,"zip":"4700205"},{"town":"三好丘緑二丁目","koaza":"","lat":35.110244,"lng":137.111858,"zip":"4700205"},{"town":"三好丘緑三丁目","koaza":"","lat":35.109295,"lng":137.114967,"zip":"4700205"},{"town":"三好丘緑四丁目","koaza":"","lat":35.109465,"lng":137.117653,"zip":"4700205"},{"town":"三好丘緑五丁目","koaza":"","lat":35.113255,"lng":137.119207,"zip":"4700205"},{"town":"三好町","koaza":"","lat":35.083124,"lng":137.081114,"zip":"4700224"},{"town":"莇生町","koaza":"","lat":35.10181,"lng":137.100743,"zip":"4700206"},{"town":"根浦町五丁目","koaza":"","lat":35.115908,"lng":137.091757,"zip":"4700217"},{"town":"根浦町一丁目","koaza":"","lat":35.114073,"lng":137.088727,"zip":"4700217"},{"town":"根浦町二丁目","koaza":"","lat":35.110927,"lng":137.088468,"zip":"4700217"},{"town":"根浦町四丁目","koaza":"","lat":35.112238,"lng":137.09184,"zip":"4700217"},{"town":"根浦町六丁目","koaza":"","lat":35.1123,"lng":137.094623,"zip":"4700217"},{"town":"根浦町三丁目","koaza":"","lat":35.109063,"lng":137.093984,"zip":"4700217"},{"town":"福谷町","koaza":"","lat":35.116901,"lng":137.102335,"zip":"4700207"},{"town":"根浦町七丁目","koaza":"","lat":35.112403,"lng":137.096787,"zip":"4700217"},{"town":"福田町","koaza":"川端","lat":35.069463,"lng":137.047364,"zip":"4700225"},{"town":"福田町","koaza":"栗畑","lat":35.06734,"lng":137.047481,"zip":"4700225"},{"town":"福田町","koaza":"一本松","lat":35.066535,"lng":137.049204,"zip":"4700225"},{"town":"福田町","koaza":"西屋敷","lat":35.070027,"lng":137.048824,"zip":"4700225"},{"town":"福田町","koaza":"清水","lat":35.072335,"lng":137.049479,"zip":"4700225"},{"town":"福田町","koaza":"井ヶ谷境","lat":35.06635,"lng":137.051093,"zip":"4700225"},{"town":"福田町","koaza":"有塚","lat":35.067555,"lng":137.051035,"zip":"4700225"},{"town":"福田町","koaza":"屋敷浦","lat":35.070525,"lng":137.050549,"zip":"4700225"},{"town":"福田町","koaza":"東屋敷","lat":35.071446,"lng":137.052399,"zip":"4700225"},{"town":"福田町","koaza":"中屋敷","lat":35.074125,"lng":137.052426,"zip":"4700225"},{"town":"福田町","koaza":"物吉","lat":35.075778,"lng":137.051965,"zip":"4700225"},{"town":"三好町","koaza":"物由","lat":35.07869,"lng":137.053005,"zip":"4700224"},{"town":"福田町","koaza":"碁盤田","lat":35.068989,"lng":137.053116,"zip":"4700225"},{"town":"西一色町","koaza":"荒井","lat":35.081484,"lng":137.05394,"zip":"4700226"},{"town":"福田町","koaza":"大沢","lat":35.076659,"lng":137.052874,"zip":"4700225"},{"town":"福田町","koaza":"山畑","lat":35.07442,"lng":137.05447,"zip":"4700225"},{"town":"福田町","koaza":"杓子","lat":35.071789,"lng":137.054302,"zip":"4700225"},{"town":"西一色町","koaza":"塚ノ下","lat":35.083827,"lng":137.054907,"zip":"4700226"},{"town":"三好町","koaza":"西荒田","lat":35.07758,"lng":137.055576,"zip":"4700224"},{"town":"西一色町","koaza":"前田","lat":35.085841,"lng":137.055379,"zip":"4700226"},{"town":"西一色町","koaza":"神田","lat":35.089326,"lng":137.058014,"zip":"4700226"},{"town":"三好町","koaza":"石塚","lat":35.079995,"lng":137.057283,"zip":"4700224"},{"town":"三好町","koaza":"東荒田","lat":35.077042,"lng":137.05674,"zip":"4700224"},{"town":"三好町","koaza":"杓子","lat":35.0825,"lng":137.057169,"zip":"4700224"},{"town":"福田町","koaza":"池田","lat":35.073938,"lng":137.056447,"zip":"4700225"},{"town":"西一色町","koaza":"前原","lat":35.083945,"lng":137.057417,"zip":"4700226"},{"town":"福田町","koaza":"樋揚","lat":35.069824,"lng":137.057231,"zip":"4700225"},{"town":"西一色町","koaza":"池ノ内","lat":35.087438,"lng":137.058787,"zip":"4700226"},{"town":"西一色町","koaza":"中","lat":35.085885,"lng":137.057695,"zip":"4700226"},{"town":"三好町","koaza":"新月","lat":35.073673,"lng":137.059515,"zip":"4700224"},{"town":"三好町","koaza":"福田","lat":35.071568,"lng":137.058644,"zip":"4700224"},{"town":"三好町","koaza":"西田","lat":35.081835,"lng":137.059521,"zip":"4700224"},{"town":"西一色町","koaza":"東","lat":35.084919,"lng":137.057774,"zip":"4700226"},{"town":"西一色町","koaza":"猿投松","lat":35.091818,"lng":137.05973,"zip":"4700226"},{"town":"三好町","koaza":"沖田","lat":35.079199,"lng":137.05912,"zip":"4700224"},{"town":"福田町","koaza":"池下","lat":35.066997,"lng":137.059408,"zip":"4700225"},{"town":"三好町","koaza":"神明田","lat":35.078723,"lng":137.059804,"zip":"4700224"},{"town":"西一色町","koaza":"〆林","lat":35.086728,"lng":137.060052,"zip":"4700226"},{"town":"三好町","koaza":"東一ノ沢","lat":35.080407,"lng":137.059354,"zip":"4700224"},{"town":"三好町","koaza":"一色前","lat":35.084641,"lng":137.059572,"zip":"4700224"},{"town":"三好町","koaza":"庚申塚","lat":35.077585,"lng":137.061869,"zip":"4700224"},{"town":"三好町","koaza":"薬師山","lat":35.085707,"lng":137.061746,"zip":"4700224"},{"town":"福田町","koaza":"宮下","lat":35.070054,"lng":137.059526,"zip":"4700225"},{"town":"三好町","koaza":"善休","lat":35.088323,"lng":137.060681,"zip":"4700224"},{"town":"三好町","koaza":"半野木","lat":35.081901,"lng":137.061833,"zip":"4700224"},{"town":"西一色町","koaza":"大上","lat":35.093278,"lng":137.061021,"zip":"4700226"},{"town":"三好町","koaza":"原","lat":35.084506,"lng":137.06094,"zip":"4700224"},{"town":"三好町","koaza":"東新月","lat":35.074663,"lng":137.061336,"zip":"4700224"},{"town":"三好町","koaza":"原前","lat":35.083536,"lng":137.061673,"zip":"4700224"},{"town":"明知町","koaza":"割目池","lat":35.065177,"lng":137.062071,"zip":"4700214"},{"town":"三好町","koaza":"上砂後","lat":35.095349,"lng":137.071319,"zip":"4700224"},{"town":"三好町","koaza":"東善休","lat":35.088062,"lng":137.062592,"zip":"4700224"},{"town":"三好町","koaza":"植松下","lat":35.08065,"lng":137.064658,"zip":"4700224"},{"town":"三好町","koaza":"中鯰ヶ池","lat":35.091553,"lng":137.062758,"zip":"4700224"},{"town":"福田町","koaza":"権現山","lat":35.070231,"lng":137.062369,"zip":"4700225"},{"town":"三好町","koaza":"塩田","lat":35.073032,"lng":137.062999,"zip":"4700224"},{"town":"明知町","koaza":"八和田山","lat":35.068177,"lng":137.063549,"zip":"4700214"},{"town":"三好町","koaza":"井ノ口","lat":35.09455,"lng":137.063717,"zip":"4700224"},{"town":"三好町","koaza":"下畷","lat":35.085173,"lng":137.06486,"zip":"4700224"},{"town":"三好町","koaza":"高根","lat":35.076075,"lng":137.064043,"zip":"4700224"},{"town":"三好町","koaza":"森曽","lat":35.092001,"lng":137.064491,"zip":"4700224"},{"town":"三好町","koaza":"石畑","lat":35.089981,"lng":137.064362,"zip":"4700224"},{"town":"三好町","koaza":"姥子","lat":35.083882,"lng":137.063823,"zip":"4700224"},{"town":"三好町","koaza":"荒池","lat":35.086089,"lng":137.065156,"zip":"4700224"},{"town":"三好町","koaza":"植松","lat":35.078295,"lng":137.064686,"zip":"4700224"},{"town":"三好町","koaza":"折坂","lat":35.087727,"lng":137.064736,"zip":"4700224"},{"town":"三好町","koaza":"八和田山","lat":35.076833,"lng":137.073818,"zip":"4700224"},{"town":"三好町","koaza":"赤羽根","lat":35.08325,"lng":137.065912,"zip":"4700224"},{"town":"三好町","koaza":"弁財天","lat":35.089096,"lng":137.065752,"zip":"4700224"},{"town":"明知町","koaza":"流谷","lat":35.06745,"lng":137.064845,"zip":"4700214"},{"town":"三好町","koaza":"川畔","lat":35.094785,"lng":137.067038,"zip":"4700224"},{"town":"三好町","koaza":"八和田","lat":35.085322,"lng":137.067624,"zip":"4700224"},{"town":"三好町","koaza":"西平子","lat":35.081775,"lng":137.065832,"zip":"4700224"},{"town":"明知町","koaza":"平成","lat":35.067704,"lng":137.0705,"zip":"4700214"},{"town":"三好町","koaza":"西ノ木戸","lat":35.087462,"lng":137.067629,"zip":"4700224"},{"town":"三好町","koaza":"荒畑","lat":35.08689,"lng":137.066697,"zip":"4700224"},{"town":"三好町","koaza":"上","lat":35.088986,"lng":137.069636,"zip":"4700224"},{"town":"三好町","koaza":"池守田","lat":35.093355,"lng":137.067077,"zip":"4700224"},{"town":"三好町","koaza":"向田","lat":35.08246,"lng":137.06655,"zip":"4700224"},{"town":"明知町","koaza":"柿ノ木","lat":35.063265,"lng":137.067557,"zip":"4700214"},{"town":"三好町","koaza":"湯ノ気","lat":35.090971,"lng":137.066703,"zip":"4700224"},{"town":"三好町","koaza":"下前田","lat":35.082901,"lng":137.066887,"zip":"4700224"},{"town":"三好町","koaza":"木之本","lat":35.092169,"lng":137.068815,"zip":"4700224"},{"town":"三好町","koaza":"東平子","lat":35.077767,"lng":137.070522,"zip":"4700224"},{"town":"三好町","koaza":"植ノ畑","lat":35.085185,"lng":137.068451,"zip":"4700224"},{"town":"明知町","koaza":"下田","lat":35.062505,"lng":137.068566,"zip":"4700214"},{"town":"明知町","koaza":"西山","lat":35.073126,"lng":137.072111,"zip":"4700214"},{"town":"明知町","koaza":"南山","lat":35.057105,"lng":137.070324,"zip":"4700214"},{"town":"明知町","koaza":"小石山","lat":35.060611,"lng":137.072872,"zip":"4700214"},{"town":"明知町","koaza":"下畑","lat":35.06175,"lng":137.070019,"zip":"4700214"},{"town":"明知町","koaza":"源氏狭間","lat":35.060297,"lng":137.070596,"zip":"4700214"},{"town":"三好町","koaza":"前畑","lat":35.087049,"lng":137.071566,"zip":"4700224"},{"town":"三好町","koaza":"宮ノ越","lat":35.085714,"lng":137.073275,"zip":"4700224"},{"town":"明知町","koaza":"山下","lat":35.062427,"lng":137.070914,"zip":"4700214"},{"town":"三好町","koaza":"大慈山","lat":35.082194,"lng":137.07488,"zip":"4700224"},{"town":"三好町","koaza":"大坪","lat":35.092335,"lng":137.072181,"zip":"4700224"},{"town":"三好町","koaza":"湯ノ前","lat":35.088595,"lng":137.073208,"zip":"4700224"},{"town":"三好町","koaza":"平池","lat":35.096161,"lng":137.074097,"zip":"4700224"},{"town":"明知町","koaza":"茨山","lat":35.057912,"lng":137.073501,"zip":"4700214"},{"town":"明知町","koaza":"深狭間","lat":35.05945,"lng":137.073592,"zip":"4700214"},{"town":"三好町","koaza":"下池下","lat":35.084825,"lng":137.073268,"zip":"4700224"},{"town":"明知町","koaza":"八幡前","lat":35.062082,"lng":137.07311,"zip":"4700214"},{"town":"明知町","koaza":"深田","lat":35.063156,"lng":137.072875,"zip":"4700214"},{"town":"三好町","koaza":"片原山","lat":35.086882,"lng":137.073314,"zip":"4700224"},{"town":"明知町","koaza":"上狭間口","lat":35.072759,"lng":137.074037,"zip":"4700214"},{"town":"三好町","koaza":"中島","lat":35.092099,"lng":137.075915,"zip":"4700224"},{"town":"三好町","koaza":"出口","lat":35.091286,"lng":137.074614,"zip":"4700224"},{"town":"三好町","koaza":"西中島","lat":35.091853,"lng":137.073805,"zip":"4700224"},{"town":"三好町","koaza":"陣取山","lat":35.08748,"lng":137.076327,"zip":"4700224"},{"town":"三好町","koaza":"蜂ヶ池","lat":35.085144,"lng":137.076346,"zip":"4700224"},{"town":"明知町","koaza":"落通","lat":35.062462,"lng":137.075004,"zip":"4700214"},{"town":"三好町","koaza":"小坂","lat":35.090028,"lng":137.076754,"zip":"4700224"},{"town":"明知町","koaza":"下狭間口","lat":35.071836,"lng":137.075612,"zip":"4700214"},{"town":"三好町","koaza":"彦六","lat":35.096081,"lng":137.075599,"zip":"4700224"},{"town":"三好町","koaza":"青木","lat":35.092922,"lng":137.078736,"zip":"4700224"},{"town":"三好町","koaza":"蝉田","lat":35.096834,"lng":137.075985,"zip":"4700224"},{"town":"明知町","koaza":"三好坂","lat":35.075271,"lng":137.076987,"zip":"4700214"},{"town":"明知町","koaza":"今池下","lat":35.063673,"lng":137.076491,"zip":"4700214"},{"town":"明知町","koaza":"根揚","lat":35.071711,"lng":137.078363,"zip":"4700214"},{"town":"明知町","koaza":"割田","lat":35.069929,"lng":137.076259,"zip":"4700214"},{"town":"明知町","koaza":"松葉池下","lat":35.061039,"lng":137.076072,"zip":"4700214"},{"town":"三好町","koaza":"溝ノ上","lat":35.090947,"lng":137.075974,"zip":"4700224"},{"town":"三好町","koaza":"南中島","lat":35.091534,"lng":137.075925,"zip":"4700224"},{"town":"明知町","koaza":"下屋敷","lat":35.061638,"lng":137.078621,"zip":"4700214"},{"town":"明知町","koaza":"立山","lat":35.059608,"lng":137.077179,"zip":"4700214"},{"town":"明知町","koaza":"兎林","lat":35.070691,"lng":137.076724,"zip":"4700214"},{"town":"明知町","koaza":"小池下","lat":35.06109,"lng":137.076792,"zip":"4700214"},{"town":"明知町","koaza":"河原","lat":35.071828,"lng":137.077471,"zip":"4700214"},{"town":"明知町","koaza":"豊","lat":35.063855,"lng":137.078154,"zip":"4700214"},{"town":"三好町","koaza":"前部垣内","lat":35.095183,"lng":137.082291,"zip":"4700224"},{"town":"明知町","koaza":"松葉池浦","lat":35.060095,"lng":137.079197,"zip":"4700214"},{"town":"明知町","koaza":"中田","lat":35.069465,"lng":137.079071,"zip":"4700214"},{"town":"明知町","koaza":"大池下","lat":35.07349,"lng":137.078769,"zip":"4700214"},{"town":"明知町","koaza":"登立","lat":35.065011,"lng":137.078957,"zip":"4700214"},{"town":"明知町","koaza":"今池","lat":35.062853,"lng":137.079245,"zip":"4700214"},{"town":"明知町","koaza":"西ノ口","lat":35.075049,"lng":137.079812,"zip":"4700214"},{"town":"明知町","koaza":"上原","lat":35.070881,"lng":137.080359,"zip":"4700214"},{"town":"三好町","koaza":"弥栄","lat":35.085607,"lng":137.082205,"zip":"4700224"},{"town":"明知町","koaza":"青木","lat":35.067277,"lng":137.079572,"zip":"4700214"},{"town":"明知町","koaza":"砲録山","lat":35.079329,"lng":137.083478,"zip":"4700214"},{"town":"明知町","koaza":"団子山","lat":35.064173,"lng":137.080149,"zip":"4700214"},{"town":"三好町","koaza":"東山","lat":35.087052,"lng":137.090977,"zip":"4700224"},{"town":"三好町","koaza":"上ヶ池","lat":35.080765,"lng":137.082798,"zip":"4700224"},{"town":"三好町","koaza":"油田","lat":35.091335,"lng":137.081524,"zip":"4700224"},{"town":"明知町","koaza":"池田","lat":35.065899,"lng":137.080248,"zip":"4700214"},{"town":"三好町","koaza":"前田","lat":35.093131,"lng":137.082447,"zip":"4700224"},{"town":"明知町","koaza":"仏工田","lat":35.068665,"lng":137.080251,"zip":"4700214"},{"town":"明知町","koaza":"屋浦","lat":35.063849,"lng":137.080314,"zip":"4700214"},{"town":"明知町","koaza":"二本木","lat":35.060603,"lng":137.081128,"zip":"4700214"},{"town":"明知町","koaza":"宮前","lat":35.059687,"lng":137.082453,"zip":"4700214"},{"town":"明知町","koaza":"一木","lat":35.070078,"lng":137.081615,"zip":"4700214"},{"town":"明知町","koaza":"塔ノ下","lat":35.071682,"lng":137.081159,"zip":"4700214"},{"town":"明知町","koaza":"横根","lat":35.066845,"lng":137.083557,"zip":"4700214"},{"town":"明知町","koaza":"溝坂","lat":35.075773,"lng":137.081857,"zip":"4700214"},{"town":"明知町","koaza":"美並","lat":35.062033,"lng":137.081263,"zip":"4700214"},{"town":"明知町","koaza":"小浦","lat":35.068422,"lng":137.082595,"zip":"4700214"},{"town":"明知町","koaza":"花立","lat":35.073017,"lng":137.082628,"zip":"4700214"},{"town":"明知町","koaza":"神明東","lat":35.062812,"lng":137.082678,"zip":"4700214"},{"town":"明知町","koaza":"東谷","lat":35.070918,"lng":137.082103,"zip":"4700214"},{"town":"明知町","koaza":"美里","lat":35.061702,"lng":137.082943,"zip":"4700214"},{"town":"明知町","koaza":"一本木","lat":35.060881,"lng":137.08262,"zip":"4700214"},{"town":"三好町","koaza":"新屋","lat":35.093635,"lng":137.083658,"zip":"4700224"},{"town":"明知町","koaza":"後田","lat":35.078344,"lng":137.083088,"zip":"4700214"},{"town":"明知町","koaza":"清水池浦","lat":35.069344,"lng":137.083623,"zip":"4700214"},{"town":"明知町","koaza":"上屋敷","lat":35.073095,"lng":137.084261,"zip":"4700214"},{"town":"三好町","koaza":"天王","lat":35.090507,"lng":137.084936,"zip":"4700224"},{"town":"明知町","koaza":"細口浦","lat":35.064629,"lng":137.08371,"zip":"4700214"},{"town":"三好町","koaza":"笠松","lat":35.098432,"lng":137.086292,"zip":"4700224"},{"town":"明知町","koaza":"八弁田","lat":35.077625,"lng":137.084707,"zip":"4700214"},{"town":"明知町","koaza":"河田","lat":35.074828,"lng":137.084183,"zip":"4700214"},{"town":"明知町","koaza":"宝栄","lat":35.080451,"lng":137.086913,"zip":"4700214"},{"town":"三好町","koaza":"井ノ花","lat":35.094915,"lng":137.086458,"zip":"4700224"},{"town":"明知町","koaza":"杁狭間","lat":35.070941,"lng":137.084208,"zip":"4700214"},{"town":"明知町","koaza":"山中","lat":35.068475,"lng":137.086636,"zip":"4700214"},{"town":"明知町","koaza":"北畑","lat":35.074508,"lng":137.085295,"zip":"4700214"},{"town":"明知町","koaza":"玄ノ山","lat":35.069718,"lng":137.086999,"zip":"4700214"},{"town":"明知町","koaza":"松狭間","lat":35.062142,"lng":137.085647,"zip":"4700214"},{"town":"三好町","koaza":"池下","lat":35.092813,"lng":137.085412,"zip":"4700224"},{"town":"福谷町","koaza":"根浦","lat":35.10907,"lng":137.090676,"zip":"4700207"},{"town":"明知町","koaza":"大塚","lat":35.066026,"lng":137.087547,"zip":"4700214"},{"town":"三好町","koaza":"池ノ原","lat":35.092227,"lng":137.087534,"zip":"4700224"},{"town":"黒笹町","koaza":"清水","lat":35.124963,"lng":137.089158,"zip":"4700201"},{"town":"明知町","koaza":"多羅釜","lat":35.078451,"lng":137.087814,"zip":"4700214"},{"town":"明知町","koaza":"釜ヶ杁","lat":35.07567,"lng":137.087565,"zip":"4700214"},{"town":"明知町","koaza":"狐塚","lat":35.071541,"lng":137.087014,"zip":"4700214"},{"town":"打越町","koaza":"下山","lat":35.064308,"lng":137.090389,"zip":"4700213"},{"town":"三好町","koaza":"東山畑","lat":35.091424,"lng":137.088117,"zip":"4700224"},{"town":"莇生町","koaza":"下永井田","lat":35.100124,"lng":137.088069,"zip":"4700206"},{"town":"三好町","koaza":"夕田","lat":35.096782,"lng":137.089452,"zip":"4700224"},{"town":"三好町","koaza":"金田","lat":35.098582,"lng":137.087545,"zip":"4700224"},{"town":"打越町","koaza":"三本松","lat":35.082904,"lng":137.092488,"zip":"4700213"},{"town":"三好町","koaza":"下夕田","lat":35.098396,"lng":137.088269,"zip":"4700224"},{"town":"莇生町","koaza":"上永井田","lat":35.099555,"lng":137.089031,"zip":"4700206"},{"town":"三好町","koaza":"仲ヶ山","lat":35.094554,"lng":137.091595,"zip":"4700224"},{"town":"打越町","koaza":"三百目","lat":35.074706,"lng":137.090617,"zip":"4700213"},{"town":"明知町","koaza":"下細口","lat":35.068683,"lng":137.089539,"zip":"4700214"},{"town":"莇生町","koaza":"原","lat":35.09824,"lng":137.091065,"zip":"4700206"},{"town":"明知町","koaza":"上細口","lat":35.072054,"lng":137.090511,"zip":"4700214"},{"town":"三好町","koaza":"土取","lat":35.096649,"lng":137.091936,"zip":"4700224"},{"town":"打越町","koaza":"畦違","lat":35.078361,"lng":137.091457,"zip":"4700213"},{"town":"黒笹町","koaza":"野田兼","lat":35.122747,"lng":137.090997,"zip":"4700201"},{"town":"福谷町","koaza":"定壱貫","lat":35.118207,"lng":137.092744,"zip":"4700207"},{"town":"打越町","koaza":"山ノ越","lat":35.061209,"lng":137.090871,"zip":"4700213"},{"town":"莇生町","koaza":"川岸当","lat":35.100962,"lng":137.092337,"zip":"4700206"},{"town":"打越町","koaza":"九蔵釜","lat":35.070087,"lng":137.092538,"zip":"4700213"},{"town":"打越町","koaza":"南小林","lat":35.066804,"lng":137.090601,"zip":"4700213"},{"town":"打越町","koaza":"南二池下","lat":35.06245,"lng":137.094619,"zip":"4700213"},{"town":"黒笹町","koaza":"前田","lat":35.125606,"lng":137.092232,"zip":"4700201"},{"town":"莇生町","koaza":"池上","lat":35.107762,"lng":137.091814,"zip":"4700206"},{"town":"莇生町","koaza":"西山","lat":35.105686,"lng":137.091791,"zip":"4700206"},{"town":"打越町","koaza":"小林","lat":35.068476,"lng":137.09398,"zip":"4700213"},{"town":"黒笹町","koaza":"大力池下","lat":35.132224,"lng":137.091174,"zip":"4700201"},{"town":"莇生町","koaza":"西原","lat":35.104011,"lng":137.091786,"zip":"4700206"},{"town":"打越町","koaza":"山伏","lat":35.075553,"lng":137.093858,"zip":"4700213"},{"town":"黒笹町","koaza":"樋越","lat":35.123603,"lng":137.092139,"zip":"4700201"},{"town":"莇生町","koaza":"水洗","lat":35.100337,"lng":137.094487,"zip":"4700206"},{"town":"打越町","koaza":"鏡塚","lat":35.073452,"lng":137.093136,"zip":"4700213"},{"town":"莇生町","koaza":"打上","lat":35.103345,"lng":137.092746,"zip":"4700206"},{"town":"莇生町","koaza":"小根","lat":35.106343,"lng":137.093891,"zip":"4700206"},{"town":"黒笹町","koaza":"下田","lat":35.122203,"lng":137.092747,"zip":"4700201"},{"town":"黒笹町","koaza":"寺山","lat":35.126156,"lng":137.093252,"zip":"4700201"},{"town":"三好町","koaza":"火打山","lat":35.096021,"lng":137.093726,"zip":"4700224"},{"town":"黒笹町","koaza":"桐山","lat":35.124243,"lng":137.093059,"zip":"4700201"},{"town":"莇生町","koaza":"川向","lat":35.103773,"lng":137.09446,"zip":"4700206"},{"town":"打越町","koaza":"後田","lat":35.07956,"lng":137.095147,"zip":"4700213"},{"town":"打越町","koaza":"諸輪坂","lat":35.087271,"lng":137.095418,"zip":"4700213"},{"town":"打越町","koaza":"西ノ前","lat":35.076722,"lng":137.095099,"zip":"4700213"},{"town":"福谷町","koaza":"坂上","lat":35.107643,"lng":137.094595,"zip":"4700207"},{"town":"莇生町","koaza":"山際","lat":35.09733,"lng":137.094004,"zip":"4700206"},{"town":"打越町","koaza":"中鵠ノ巣","lat":35.062783,"lng":137.095775,"zip":"4700213"},{"town":"黒笹町","koaza":"唐沢","lat":35.12227,"lng":137.094904,"zip":"4700201"},{"town":"莇生町","koaza":"愛宕下","lat":35.104674,"lng":137.094155,"zip":"4700206"},{"town":"打越町","koaza":"下鏡塚","lat":35.070899,"lng":137.094368,"zip":"4700213"},{"town":"莇生町","koaza":"ドブ","lat":35.098632,"lng":137.09453,"zip":"4700206"},{"town":"黒笹町","koaza":"伊保道","lat":35.124935,"lng":137.095358,"zip":"4700201"},{"town":"打越町","koaza":"北二池下","lat":35.067963,"lng":137.095833,"zip":"4700213"},{"town":"福谷町","koaza":"蟹畑","lat":35.116545,"lng":137.095025,"zip":"4700207"},{"town":"莇生町","koaza":"平地","lat":35.098898,"lng":137.094741,"zip":"4700206"},{"town":"打越町","koaza":"西屋敷","lat":35.078752,"lng":137.09541,"zip":"4700213"},{"town":"打越町","koaza":"清水釜","lat":35.083127,"lng":137.098738,"zip":"4700213"},{"town":"打越町","koaza":"北屋敷","lat":35.074362,"lng":137.095858,"zip":"4700213"},{"town":"打越町","koaza":"南屋敷","lat":35.072225,"lng":137.096019,"zip":"4700213"},{"town":"莇生町","koaza":"土取","lat":35.095939,"lng":137.096064,"zip":"4700206"},{"town":"打越町","koaza":"島ノ山","lat":35.076169,"lng":137.096081,"zip":"4700213"},{"town":"福谷町","koaza":"蓬平地","lat":35.107606,"lng":137.09663,"zip":"4700207"},{"town":"打越町","koaza":"下屋敷","lat":35.069304,"lng":137.096206,"zip":"4700213"},{"town":"福谷町","koaza":"大坂","lat":35.120017,"lng":137.098162,"zip":"4700207"},{"town":"打越町","koaza":"小池下","lat":35.070739,"lng":137.097474,"zip":"4700213"},{"town":"打越町","koaza":"山ノ間","lat":35.088487,"lng":137.098138,"zip":"4700213"},{"town":"莇生町","koaza":"仲田","lat":35.102004,"lng":137.096961,"zip":"4700206"},{"town":"莇生町","koaza":"汁田","lat":35.10395,"lng":137.097866,"zip":"4700206"},{"town":"打越町","koaza":"東屋敷","lat":35.078027,"lng":137.096781,"zip":"4700213"},{"town":"莇生町","koaza":"鳥居前","lat":35.101008,"lng":137.099255,"zip":"4700206"},{"town":"打越町","koaza":"上屋敷","lat":35.079169,"lng":137.097444,"zip":"4700213"},{"town":"福谷町","koaza":"西道上","lat":35.114989,"lng":137.097779,"zip":"4700207"},{"town":"莇生町","koaza":"郷浦","lat":35.099357,"lng":137.099158,"zip":"4700206"},{"town":"莇生町","koaza":"並木","lat":35.107145,"lng":137.097715,"zip":"4700206"},{"town":"莇生町","koaza":"梅ノ里","lat":35.096047,"lng":137.098475,"zip":"4700206"},{"town":"打越町","koaza":"西苗座","lat":35.071801,"lng":137.097103,"zip":"4700213"},{"town":"莇生町","koaza":"下辻","lat":35.097972,"lng":137.097014,"zip":"4700206"},{"town":"打越町","koaza":"西池田","lat":35.068625,"lng":137.097359,"zip":"4700213"},{"town":"福谷町","koaza":"清水道","lat":35.112799,"lng":137.098068,"zip":"4700207"},{"town":"黒笹町","koaza":"三ヶ峯","lat":35.143021,"lng":137.097328,"zip":"4700201"},{"town":"打越町","koaza":"方貝外","lat":35.082384,"lng":137.09798,"zip":"4700213"},{"town":"黒笹町","koaza":"丸根","lat":35.136766,"lng":137.099784,"zip":"4700201"},{"town":"打越町","koaza":"黒山","lat":35.08612,"lng":137.099435,"zip":"4700213"},{"town":"打越町","koaza":"前田","lat":35.074292,"lng":137.098767,"zip":"4700213"},{"town":"打越町","koaza":"苗座","lat":35.071481,"lng":137.098307,"zip":"4700213"},{"town":"福谷町","koaza":"西大山","lat":35.126794,"lng":137.098136,"zip":"4700207"},{"town":"打越町","koaza":"庚申","lat":35.075706,"lng":137.098802,"zip":"4700213"},{"town":"莇生町","koaza":"明知原","lat":35.093576,"lng":137.100687,"zip":"4700206"},{"town":"莇生町","koaza":"曽和","lat":35.097746,"lng":137.098513,"zip":"4700206"},{"town":"福谷町","koaza":"大日","lat":35.109473,"lng":137.099391,"zip":"4700207"},{"town":"莇生町","koaza":"川原","lat":35.106042,"lng":137.098705,"zip":"4700206"},{"town":"打越町","koaza":"上前","lat":35.077458,"lng":137.098761,"zip":"4700213"},{"town":"福谷町","koaza":"善ヶ山","lat":35.114891,"lng":137.099473,"zip":"4700207"},{"town":"福谷町","koaza":"西ノ洞","lat":35.125069,"lng":137.102138,"zip":"4700207"},{"town":"福谷町","koaza":"西荒井","lat":35.1135,"lng":137.099166,"zip":"4700207"},{"town":"莇生町","koaza":"池下","lat":35.09809,"lng":137.099458,"zip":"4700206"},{"town":"福谷町","koaza":"落合","lat":35.110898,"lng":137.100517,"zip":"4700207"},{"town":"莇生町","koaza":"小金下","lat":35.102693,"lng":137.101443,"zip":"4700206"},{"town":"打越町","koaza":"向山","lat":35.072629,"lng":137.100695,"zip":"4700213"},{"town":"打越町","koaza":"池下","lat":35.081026,"lng":137.100832,"zip":"4700213"},{"town":"莇生町","koaza":"後田","lat":35.103757,"lng":137.100081,"zip":"4700206"},{"town":"打越町","koaza":"石坂","lat":35.091208,"lng":137.102449,"zip":"4700213"},{"town":"打越町","koaza":"向畑","lat":35.075495,"lng":137.101092,"zip":"4700213"},{"town":"福谷町","koaza":"市場","lat":35.112586,"lng":137.10029,"zip":"4700207"},{"town":"莇生町","koaza":"南池ノ上","lat":35.09595,"lng":137.101952,"zip":"4700206"},{"town":"莇生町","koaza":"郷","lat":35.098552,"lng":137.100973,"zip":"4700206"},{"town":"莇生町","koaza":"南山ノ上","lat":35.098286,"lng":137.100297,"zip":"4700206"},{"town":"福谷町","koaza":"杁ノ奥","lat":35.116443,"lng":137.101967,"zip":"4700207"},{"town":"莇生町","koaza":"下石田","lat":35.108607,"lng":137.10022,"zip":"4700206"},{"town":"打越町","koaza":"上池田","lat":35.083605,"lng":137.101429,"zip":"4700213"},{"town":"打越町","koaza":"京塚","lat":35.074009,"lng":137.102371,"zip":"4700213"},{"town":"福谷町","koaza":"寺田","lat":35.110208,"lng":137.102569,"zip":"4700207"},{"town":"福谷町","koaza":"広久伝","lat":35.131253,"lng":137.107234,"zip":"4700207"},{"town":"打越町","koaza":"菖蒲池","lat":35.077367,"lng":137.101475,"zip":"4700213"},{"town":"福谷町","koaza":"大沢","lat":35.127431,"lng":137.100828,"zip":"4700207"},{"town":"打越町","koaza":"堀ノ内","lat":35.079085,"lng":137.10277,"zip":"4700213"},{"town":"打越町","koaza":"中田","lat":35.079638,"lng":137.101351,"zip":"4700213"},{"town":"福谷町","koaza":"最中","lat":35.111715,"lng":137.102048,"zip":"4700207"},{"town":"打越町","koaza":"生賀山","lat":35.081418,"lng":137.103477,"zip":"4700213"},{"town":"打越町","koaza":"百々","lat":35.087122,"lng":137.10178,"zip":"4700213"},{"town":"莇生町","koaza":"藤塚","lat":35.096972,"lng":137.104651,"zip":"4700206"},{"town":"莇生町","koaza":"前田","lat":35.100452,"lng":137.102614,"zip":"4700206"},{"town":"福谷町","koaza":"小宮","lat":35.117443,"lng":137.102093,"zip":"4700207"},{"town":"福谷町","koaza":"蔵屋敷","lat":35.113725,"lng":137.10191,"zip":"4700207"},{"town":"莇生町","koaza":"百嶋","lat":35.105202,"lng":137.102762,"zip":"4700206"},{"town":"打越町","koaza":"松下","lat":35.084366,"lng":137.10304,"zip":"4700213"},{"town":"莇生町","koaza":"東浦","lat":35.098304,"lng":137.10258,"zip":"4700206"},{"town":"福谷町","koaza":"寺ノ前","lat":35.114275,"lng":137.10287,"zip":"4700207"},{"town":"福谷町","koaza":"才戸","lat":35.123544,"lng":137.106234,"zip":"4700207"},{"town":"福谷町","koaza":"鑰之洞","lat":35.115861,"lng":137.10336,"zip":"4700207"},{"town":"打越町","koaza":"山ノ神","lat":35.085649,"lng":137.105281,"zip":"4700213"},{"town":"莇生町","koaza":"北海道","lat":35.104312,"lng":137.102753,"zip":"4700206"},{"town":"打越町","koaza":"吹付","lat":35.080441,"lng":137.104585,"zip":"4700213"},{"town":"莇生町","koaza":"あざみ","lat":35.10642,"lng":137.106395,"zip":"4700206"},{"town":"打越町","koaza":"並木","lat":35.076382,"lng":137.102551,"zip":"4700213"},{"town":"莇生町","koaza":"立山","lat":35.102953,"lng":137.103652,"zip":"4700206"},{"town":"打越町","koaza":"井流","lat":35.081054,"lng":137.103606,"zip":"4700213"},{"town":"打越町","koaza":"黒巣雲","lat":35.077264,"lng":137.102682,"zip":"4700213"},{"town":"打越町","koaza":"新池浦","lat":35.092616,"lng":137.108165,"zip":"4700213"},{"town":"福谷町","koaza":"薬師洞","lat":35.121973,"lng":137.105511,"zip":"4700207"},{"town":"莇生町","koaza":"山ノ上","lat":35.104409,"lng":137.103297,"zip":"4700206"},{"town":"福谷町","koaza":"棚田","lat":35.1098,"lng":137.103987,"zip":"4700207"},{"town":"福谷町","koaza":"花立","lat":35.115724,"lng":137.105097,"zip":"4700207"},{"town":"福谷町","koaza":"社口","lat":35.118577,"lng":137.104558,"zip":"4700207"},{"town":"打越町","koaza":"新池","lat":35.085518,"lng":137.103971,"zip":"4700213"},{"town":"莇生町","koaza":"土郎谷","lat":35.098054,"lng":137.104822,"zip":"4700206"},{"town":"福谷町","koaza":"四反田","lat":35.125589,"lng":137.106012,"zip":"4700207"},{"town":"福谷町","koaza":"仲田","lat":35.114464,"lng":137.105555,"zip":"4700207"},{"town":"莇生町","koaza":"寺ヶ峪","lat":35.108561,"lng":137.104878,"zip":"4700206"},{"town":"莇生町","koaza":"山ノ神前","lat":35.102866,"lng":137.104398,"zip":"4700206"},{"town":"莇生町","koaza":"東山ノ神","lat":35.104752,"lng":137.106889,"zip":"4700206"},{"town":"福谷町","koaza":"宮ノ前","lat":35.120387,"lng":137.105837,"zip":"4700207"},{"town":"莇生町","koaza":"向山","lat":35.098245,"lng":137.10713,"zip":"4700206"},{"town":"福谷町","koaza":"竹ヶ花","lat":35.116771,"lng":137.105897,"zip":"4700207"},{"town":"福谷町","koaza":"壱丁田","lat":35.119371,"lng":137.106993,"zip":"4700207"},{"town":"福谷町","koaza":"重郎左","lat":35.113411,"lng":137.106534,"zip":"4700207"},{"town":"莇生町","koaza":"一色","lat":35.10298,"lng":137.107016,"zip":"4700206"},{"town":"莇生町","koaza":"辰己山","lat":35.101346,"lng":137.110838,"zip":"4700206"},{"town":"莇生町","koaza":"舟ヶ峪","lat":35.10904,"lng":137.109689,"zip":"4700206"},{"town":"福谷町","koaza":"堂ノ後","lat":35.116377,"lng":137.106971,"zip":"4700207"},{"town":"福谷町","koaza":"阿弥陀堂","lat":35.115044,"lng":137.107704,"zip":"4700207"},{"town":"福谷町","koaza":"細田","lat":35.121227,"lng":137.107689,"zip":"4700207"},{"town":"福谷町","koaza":"井守下","lat":35.117968,"lng":137.108146,"zip":"4700207"},{"town":"福谷町","koaza":"吉良戸","lat":35.117052,"lng":137.108292,"zip":"4700207"},{"town":"莇生町","koaza":"小坂","lat":35.09733,"lng":137.110285,"zip":"4700206"},{"town":"福谷町","koaza":"下り松","lat":35.125939,"lng":137.118091,"zip":"4700207"},{"town":"福谷町","koaza":"北井山","lat":35.128771,"lng":137.114702,"zip":"4700207"},{"town":"莇生町","koaza":"山田","lat":35.105677,"lng":137.115294,"zip":"4700206"}]