[{"town":"大字小淵","koaza":"","lat":35.374251,"lng":136.902135,"zip":"4800100"},{"town":"大字柏森","koaza":"","lat":35.348653,"lng":136.903149,"zip":"4800100"},{"town":"大字斎藤","koaza":"","lat":35.354045,"lng":136.896921,"zip":"4800100"},{"town":"大字高雄","koaza":"","lat":35.360591,"lng":136.925773,"zip":"4800100"},{"town":"大字高木","koaza":"","lat":35.359074,"lng":136.909826,"zip":"4800100"},{"town":"大字南山名","koaza":"","lat":35.365946,"lng":136.903792,"zip":"4800100"},{"town":"大字山那","koaza":"","lat":35.374643,"lng":136.914561,"zip":"4800100"},{"town":"大字斎藤","koaza":"座敷野","lat":35.35435,"lng":136.894135,"zip":"4800100"},{"town":"大字柏森","koaza":"中島","lat":35.345271,"lng":136.894807,"zip":"4800100"},{"town":"大字斎藤","koaza":"境山","lat":35.352417,"lng":136.893129,"zip":"4800100"},{"town":"大字山那","koaza":"幸野","lat":35.376466,"lng":136.9076,"zip":"4800100"},{"town":"大字斎藤","koaza":"山尻境","lat":35.35205,"lng":136.893317,"zip":"4800100"},{"town":"大字柏森","koaza":"郷前","lat":35.343426,"lng":136.895975,"zip":"4800100"},{"town":"大字斎藤","koaza":"緑","lat":35.352262,"lng":136.895425,"zip":"4800100"},{"town":"大字斎藤","koaza":"薬師堂","lat":35.353131,"lng":136.89423,"zip":"4800100"},{"town":"大字斎藤","koaza":"小垂","lat":35.352341,"lng":136.894081,"zip":"4800100"},{"town":"大字斎藤","koaza":"旭","lat":35.349932,"lng":136.896445,"zip":"4800100"},{"town":"大字斎藤","koaza":"北山","lat":35.357869,"lng":136.896639,"zip":"4800100"},{"town":"大字南山名","koaza":"新津","lat":35.361741,"lng":136.896263,"zip":"4800100"},{"town":"大字柏森","koaza":"西前","lat":35.345889,"lng":136.897915,"zip":"4800100"},{"town":"大字柏森","koaza":"郷西","lat":35.347324,"lng":136.896227,"zip":"4800100"},{"town":"大字柏森","koaza":"西屋敷","lat":35.348481,"lng":136.898469,"zip":"4800100"},{"town":"大字南山名","koaza":"西ノ山","lat":35.365792,"lng":136.89695,"zip":"4800100"},{"town":"大字斎藤","koaza":"本新須","lat":35.358767,"lng":136.900323,"zip":"4800100"},{"town":"大字斎藤","koaza":"榎","lat":35.353907,"lng":136.899122,"zip":"4800100"},{"town":"大字斎藤","koaza":"山神","lat":35.357619,"lng":136.898812,"zip":"4800100"},{"town":"大字南山名","koaza":"高塚","lat":35.361466,"lng":136.900304,"zip":"4800100"},{"town":"大字南山名","koaza":"名護根","lat":35.364868,"lng":136.899017,"zip":"4800100"},{"town":"大字柏森","koaza":"甲西屋敷","lat":35.348028,"lng":136.898713,"zip":"4800100"},{"town":"大字柏森","koaza":"天神","lat":35.343978,"lng":136.900883,"zip":"4800100"},{"town":"大字柏森","koaza":"長畑","lat":35.351374,"lng":136.900612,"zip":"4800100"},{"town":"大字斎藤","koaza":"小島","lat":35.356346,"lng":136.899029,"zip":"4800100"},{"town":"大字南山名","koaza":"逆巻","lat":35.36764,"lng":136.899862,"zip":"4800100"},{"town":"大字小淵","koaza":"堤南","lat":35.37322,"lng":136.899566,"zip":"4800100"},{"town":"大字柏森","koaza":"丙西前","lat":35.346743,"lng":136.898377,"zip":"4800100"},{"town":"大字小淵","koaza":"本郷","lat":35.371405,"lng":136.900246,"zip":"4800100"},{"town":"大字南山名","koaza":"御幸堂","lat":35.370229,"lng":136.90031,"zip":"4800100"},{"town":"大字斎藤","koaza":"山添","lat":35.355485,"lng":136.899155,"zip":"4800100"},{"town":"大字柏森","koaza":"丙西屋敷","lat":35.347117,"lng":136.899861,"zip":"4800100"},{"town":"大字斎藤","koaza":"山神前","lat":35.356594,"lng":136.899182,"zip":"4800100"},{"town":"大字小淵","koaza":"砂原","lat":35.374926,"lng":136.899822,"zip":"4800100"},{"town":"大字小淵","koaza":"小淵新開","lat":35.372987,"lng":136.901038,"zip":"4800100"},{"town":"大字柏森","koaza":"乙西屋敷","lat":35.347683,"lng":136.900665,"zip":"4800100"},{"town":"大字斎藤","koaza":"宮島","lat":35.356808,"lng":136.899667,"zip":"4800100"},{"town":"大字南山名","koaza":"松葉","lat":35.364483,"lng":136.900881,"zip":"4800100"},{"town":"大字柏森","koaza":"寺裏","lat":35.350774,"lng":136.902579,"zip":"4800100"},{"town":"大字斎藤","koaza":"西屋敷","lat":35.355857,"lng":136.900917,"zip":"4800100"},{"town":"大字斎藤","koaza":"北脇","lat":35.357231,"lng":136.900883,"zip":"4800100"},{"town":"大字斎藤","koaza":"県","lat":35.354986,"lng":136.902094,"zip":"4800100"},{"town":"大字柏森","koaza":"前屋敷","lat":35.34598,"lng":136.902048,"zip":"4800100"},{"town":"大字南山名","koaza":"本郷","lat":35.367844,"lng":136.902693,"zip":"4800100"},{"town":"大字斎藤","koaza":"中屋敷","lat":35.35593,"lng":136.901609,"zip":"4800100"},{"town":"大字小淵","koaza":"宮東ノ切","lat":35.371543,"lng":136.903132,"zip":"4800100"},{"town":"大字斎藤","koaza":"折橋","lat":35.357097,"lng":136.901835,"zip":"4800100"},{"town":"大字柏森","koaza":"中屋敷","lat":35.348683,"lng":136.903213,"zip":"4800100"},{"town":"大字南山名","koaza":"仲畑","lat":35.36409,"lng":136.902803,"zip":"4800100"},{"town":"大字南山名","koaza":"野田浦","lat":35.369916,"lng":136.903018,"zip":"4800100"},{"town":"大字柏森","koaza":"乙寺裏","lat":35.348798,"lng":136.90218,"zip":"4800100"},{"town":"大字斎藤","koaza":"北中","lat":35.357643,"lng":136.902517,"zip":"4800100"},{"town":"大字南山名","koaza":"寺前","lat":35.360838,"lng":136.903759,"zip":"4800100"},{"town":"大字南山名","koaza":"前ノ前","lat":35.363071,"lng":136.904795,"zip":"4800100"},{"town":"大字柏森","koaza":"甲寺裏","lat":35.350359,"lng":136.904275,"zip":"4800100"},{"town":"大字斎藤","koaza":"北屋敷","lat":35.35809,"lng":136.903833,"zip":"4800100"},{"town":"大字斎藤","koaza":"本郷屋敷","lat":35.355293,"lng":136.903769,"zip":"4800100"},{"town":"大字柏森","koaza":"丙寺裏","lat":35.351315,"lng":136.903614,"zip":"4800100"},{"town":"大字斎藤","koaza":"県タ","lat":35.3552,"lng":136.90325,"zip":"4800100"},{"town":"大字南山名","koaza":"前ノ浦","lat":35.364528,"lng":136.904971,"zip":"4800100"},{"town":"大字小淵","koaza":"神木","lat":35.373263,"lng":136.903823,"zip":"4800100"},{"town":"大字柏森","koaza":"御字神","lat":35.346852,"lng":136.906271,"zip":"4800100"},{"town":"大字南山名","koaza":"道下","lat":35.366766,"lng":136.904024,"zip":"4800100"},{"town":"大字柏森","koaza":"黒野","lat":35.348176,"lng":136.906023,"zip":"4800100"},{"town":"大字南山名","koaza":"宮西","lat":35.367253,"lng":136.905172,"zip":"4800100"},{"town":"大字斎藤","koaza":"御堂","lat":35.358634,"lng":136.906619,"zip":"4800100"},{"town":"大字柏森","koaza":"辻田","lat":35.352894,"lng":136.906939,"zip":"4800100"},{"town":"大字斎藤","koaza":"東屋敷","lat":35.356285,"lng":136.905671,"zip":"4800100"},{"town":"大字南山名","koaza":"山神浦","lat":35.370639,"lng":136.905554,"zip":"4800100"},{"town":"大字南山名","koaza":"神地","lat":35.366203,"lng":136.905927,"zip":"4800100"},{"town":"大字山那","koaza":"青木","lat":35.372372,"lng":136.906611,"zip":"4800100"},{"town":"大字小淵","koaza":"寺浦","lat":35.37236,"lng":136.906,"zip":"4800100"},{"town":"大字山那","koaza":"大持","lat":35.373276,"lng":136.907563,"zip":"4800100"},{"town":"大字南山名","koaza":"一色","lat":35.362589,"lng":136.906929,"zip":"4800100"},{"town":"大字南山名","koaza":"森","lat":35.367941,"lng":136.907521,"zip":"4800100"},{"town":"大字柏森","koaza":"中切","lat":35.352281,"lng":136.908503,"zip":"4800100"},{"town":"大字高木","koaza":"福","lat":35.360686,"lng":136.908994,"zip":"4800100"},{"town":"大字南山名","koaza":"馬場","lat":35.36493,"lng":136.907734,"zip":"4800100"},{"town":"大字斎藤","koaza":"宮添","lat":35.355908,"lng":136.907318,"zip":"4800100"},{"town":"大字高木","koaza":"吉山","lat":35.358752,"lng":136.908156,"zip":"4800100"},{"town":"大字高木","koaza":"白山前","lat":35.355347,"lng":136.910613,"zip":"4800100"},{"town":"大字南山名","koaza":"山神前","lat":35.370471,"lng":136.908726,"zip":"4800100"},{"town":"大字山那","koaza":"屋敷地","lat":35.372612,"lng":136.911084,"zip":"4800100"},{"town":"大字南山名","koaza":"安戸","lat":35.369173,"lng":136.909806,"zip":"4800100"},{"town":"大字南山名","koaza":"岩石","lat":35.366078,"lng":136.90994,"zip":"4800100"},{"town":"大字柏森","koaza":"花立","lat":35.35109,"lng":136.912409,"zip":"4800100"},{"town":"大字高木","koaza":"稲葉","lat":35.361682,"lng":136.910096,"zip":"4800100"},{"town":"大字高雄","koaza":"福塚","lat":35.362426,"lng":136.912606,"zip":"4800100"},{"town":"大字南山名","koaza":"小山西","lat":35.367579,"lng":136.911175,"zip":"4800100"},{"town":"大字南山名","koaza":"別レ塚","lat":35.371268,"lng":136.912096,"zip":"4800100"},{"town":"大字高木","koaza":"桜木","lat":35.358259,"lng":136.912154,"zip":"4800100"},{"town":"大字南山名","koaza":"西寺子","lat":35.37015,"lng":136.913042,"zip":"4800100"},{"town":"大字高雄","koaza":"堂子","lat":35.364933,"lng":136.913985,"zip":"4800100"},{"town":"大字柏森","koaza":"平塚","lat":35.353274,"lng":136.914071,"zip":"4800100"},{"town":"大字山那","koaza":"宮東","lat":35.372493,"lng":136.914999,"zip":"4800100"},{"town":"大字高雄","koaza":"天道","lat":35.359875,"lng":136.913818,"zip":"4800100"},{"town":"大字南山名","koaza":"小山東","lat":35.369588,"lng":136.913546,"zip":"4800100"},{"town":"大字高木","koaza":"高木前","lat":35.356659,"lng":136.913645,"zip":"4800100"},{"town":"大字高雄","koaza":"扶桑台","lat":35.369547,"lng":136.915462,"zip":"4800100"},{"town":"大字高雄","koaza":"犬堀","lat":35.355536,"lng":136.915599,"zip":"4800100"},{"town":"大字高雄","koaza":"定松","lat":35.35809,"lng":136.916222,"zip":"4800100"},{"town":"大字高雄","koaza":"東寺子","lat":35.367352,"lng":136.917098,"zip":"4800100"},{"town":"大字高雄","koaza":"下山","lat":35.360097,"lng":136.917758,"zip":"4800100"},{"town":"大字高雄","koaza":"宮島","lat":35.362869,"lng":136.917067,"zip":"4800100"},{"town":"大字高雄","koaza":"定松郷","lat":35.356677,"lng":136.918597,"zip":"4800100"},{"town":"大字高雄","koaza":"伊勢帰","lat":35.366132,"lng":136.919978,"zip":"4800100"},{"town":"大字山那","koaza":"番所下","lat":35.373589,"lng":136.918364,"zip":"4800100"},{"town":"大字高雄","koaza":"下野","lat":35.363213,"lng":136.919043,"zip":"4800100"},{"town":"大字高雄","koaza":"定光寺","lat":35.353281,"lng":136.918463,"zip":"4800100"},{"town":"大字高雄","koaza":"薬師堂","lat":35.358097,"lng":136.920701,"zip":"4800100"},{"town":"大字高雄","koaza":"中海道","lat":35.362611,"lng":136.922239,"zip":"4800100"},{"town":"大字高雄","koaza":"覚王寺前","lat":35.352282,"lng":136.921008,"zip":"4800100"},{"town":"大字高雄","koaza":"北東川","lat":35.360272,"lng":136.924021,"zip":"4800100"},{"town":"大字高雄","koaza":"南屋敷","lat":35.354564,"lng":136.923338,"zip":"4800100"},{"town":"大字高雄","koaza":"北海道","lat":35.36488,"lng":136.923204,"zip":"4800100"},{"town":"大字高雄","koaza":"南東川","lat":35.357782,"lng":136.922868,"zip":"4800100"},{"town":"大字高雄","koaza":"柳前","lat":35.352083,"lng":136.924419,"zip":"4800100"},{"town":"大字高雄","koaza":"中屋敷","lat":35.356037,"lng":136.924,"zip":"4800100"},{"town":"大字高雄","koaza":"羽根西","lat":35.366629,"lng":136.923296,"zip":"4800100"},{"town":"大字高雄","koaza":"米ノ山","lat":35.366906,"lng":136.926768,"zip":"4800100"},{"town":"大字高雄","koaza":"北屋敷","lat":35.356697,"lng":136.92517,"zip":"4800100"},{"town":"大字高雄","koaza":"北羽根","lat":35.364754,"lng":136.92658,"zip":"4800100"},{"town":"大字高雄","koaza":"南羽根","lat":35.362362,"lng":136.926381,"zip":"4800100"},{"town":"大字高雄","koaza":"海道田","lat":35.353132,"lng":136.928758,"zip":"4800100"},{"town":"大字高雄","koaza":"南郷","lat":35.358379,"lng":136.929623,"zip":"4800100"},{"town":"大字高雄","koaza":"宮前","lat":35.355213,"lng":136.931956,"zip":"4800100"},{"town":"大字高雄","koaza":"中郷","lat":35.362951,"lng":136.930459,"zip":"4800100"},{"town":"大字高雄","koaza":"北郷","lat":35.367836,"lng":136.931454,"zip":"4800100"},{"town":"大字高雄","koaza":"郷東","lat":35.362698,"lng":136.93616,"zip":"4800100"},{"town":"大字高雄","koaza":"高田","lat":35.352886,"lng":136.933971,"zip":"4800100"},{"town":"大字高雄","koaza":"道塚","lat":35.358746,"lng":136.936696,"zip":"4800100"},{"town":"大字高雄","koaza":"突田","lat":35.356586,"lng":136.936462,"zip":"4800100"}]