[{"town":"秋田一丁目","koaza":"","lat":35.321759,"lng":136.90083,"zip":"4800132"},{"town":"秋田二丁目","koaza":"","lat":35.322054,"lng":136.906648,"zip":"4800132"},{"town":"秋田三丁目","koaza":"","lat":35.318591,"lng":136.902253,"zip":"4800132"},{"town":"秋田四丁目","koaza":"","lat":35.31615,"lng":136.903049,"zip":"4800132"},{"town":"大字小口","koaza":"","lat":35.344326,"lng":136.91637,"zip":"4800100"},{"town":"大字河北","koaza":"","lat":35.360172,"lng":136.939899,"zip":"4800100"},{"town":"大屋敷一丁目","koaza":"","lat":35.327289,"lng":136.894469,"zip":"4800137"},{"town":"大屋敷二丁目","koaza":"","lat":35.327236,"lng":136.899528,"zip":"4800137"},{"town":"大屋敷三丁目","koaza":"","lat":35.326017,"lng":136.901426,"zip":"4800137"},{"town":"大御堂一丁目","koaza":"","lat":35.331752,"lng":136.895314,"zip":"4800138"},{"town":"大御堂二丁目","koaza":"","lat":35.3316,"lng":136.899267,"zip":"4800138"},{"town":"替地一丁目","koaza":"","lat":35.314201,"lng":136.897953,"zip":"4800133"},{"town":"替地二丁目","koaza":"","lat":35.314602,"lng":136.903667,"zip":"4800133"},{"town":"替地三丁目","koaza":"","lat":35.311011,"lng":136.897777,"zip":"4800133"},{"town":"垣田","koaza":"","lat":35.34666,"lng":136.910684,"zip":"4800149"},{"town":"上小口一丁目","koaza":"","lat":35.349088,"lng":136.920797,"zip":"4800141"},{"town":"上小口二丁目","koaza":"","lat":35.346213,"lng":136.927797,"zip":"4800141"},{"town":"上小口三丁目","koaza":"","lat":35.344323,"lng":136.922027,"zip":"4800141"},{"town":"河北一丁目","koaza":"","lat":35.35426,"lng":136.939919,"zip":"4800121"},{"town":"河北二丁目","koaza":"","lat":35.347203,"lng":136.933607,"zip":"4800121"},{"town":"河北三丁目","koaza":"","lat":35.344069,"lng":136.933009,"zip":"4800121"},{"town":"御供所一丁目","koaza":"","lat":35.318303,"lng":136.88515,"zip":"4800135"},{"town":"御供所二丁目","koaza":"","lat":35.315099,"lng":136.886693,"zip":"4800135"},{"town":"御供所三丁目","koaza":"","lat":35.314816,"lng":136.893634,"zip":"4800135"},{"town":"さつきケ丘一丁目","koaza":"","lat":35.347647,"lng":136.909447,"zip":"4800151"},{"town":"さつきケ丘二丁目","koaza":"","lat":35.345559,"lng":136.907964,"zip":"4800151"},{"town":"下小口一丁目","koaza":"","lat":35.33882,"lng":136.910546,"zip":"4800144"},{"town":"下小口二丁目","koaza":"","lat":35.34022,"lng":136.913025,"zip":"4800144"},{"town":"下小口三丁目","koaza":"","lat":35.338284,"lng":136.914457,"zip":"4800144"},{"town":"下小口四丁目","koaza":"","lat":35.33478,"lng":136.912456,"zip":"4800144"},{"town":"下小口五丁目","koaza":"","lat":35.332992,"lng":136.918092,"zip":"4800144"},{"town":"下小口六丁目","koaza":"","lat":35.331311,"lng":136.912853,"zip":"4800144"},{"town":"下小口七丁目","koaza":"","lat":35.33355,"lng":136.90878,"zip":"4800144"},{"town":"城屋敷一丁目","koaza":"","lat":35.34096,"lng":136.916469,"zip":"4800143"},{"town":"城屋敷二丁目","koaza":"","lat":35.339027,"lng":136.918124,"zip":"4800143"},{"town":"新宮一丁目","koaza":"","lat":35.330973,"lng":136.922161,"zip":"4800127"},{"town":"新宮二丁目","koaza":"","lat":35.327589,"lng":136.920591,"zip":"4800127"},{"town":"高橋一丁目","koaza":"","lat":35.323838,"lng":136.895547,"zip":"4800131"},{"town":"高橋二丁目","koaza":"","lat":35.326074,"lng":136.90464,"zip":"4800131"},{"town":"竹田一丁目","koaza":"","lat":35.338814,"lng":136.900146,"zip":"4800147"},{"town":"竹田二丁目","koaza":"","lat":35.334869,"lng":136.904412,"zip":"4800147"},{"town":"竹田三丁目","koaza":"","lat":35.334703,"lng":136.897558,"zip":"4800147"},{"town":"伝右一丁目","koaza":"","lat":35.327107,"lng":136.911288,"zip":"4800126"},{"town":"伝右二丁目","koaza":"","lat":35.324105,"lng":136.909118,"zip":"4800126"},{"town":"外坪一丁目","koaza":"","lat":35.324719,"lng":136.921447,"zip":"4800125"},{"town":"外坪二丁目","koaza":"","lat":35.326912,"lng":136.926399,"zip":"4800125"},{"town":"外坪三丁目","koaza":"","lat":35.322231,"lng":136.92236,"zip":"4800125"},{"town":"外坪四丁目","koaza":"","lat":35.321023,"lng":136.919228,"zip":"4800125"},{"town":"外坪五丁目","koaza":"","lat":35.322162,"lng":136.916614,"zip":"4800125"},{"town":"豊田一丁目","koaza":"","lat":35.310947,"lng":136.884627,"zip":"4800134"},{"town":"豊田二丁目","koaza":"","lat":35.309833,"lng":136.88774,"zip":"4800134"},{"town":"豊田三丁目","koaza":"","lat":35.308643,"lng":136.891621,"zip":"4800134"},{"town":"仲沖一丁目","koaza":"","lat":35.339763,"lng":136.93186,"zip":"4800122"},{"town":"仲沖二丁目","koaza":"","lat":35.337372,"lng":136.931185,"zip":"4800122"},{"town":"中小口一丁目","koaza":"","lat":35.34851,"lng":136.913965,"zip":"4800142"},{"town":"中小口二丁目","koaza":"","lat":35.342612,"lng":136.920957,"zip":"4800142"},{"town":"中小口三丁目","koaza":"","lat":35.339265,"lng":136.922284,"zip":"4800142"},{"town":"中小口四丁目","koaza":"","lat":35.342161,"lng":136.927914,"zip":"4800142"},{"town":"中小口五丁目","koaza":"","lat":35.33508,"lng":136.922446,"zip":"4800142"},{"town":"奈良子一丁目","koaza":"","lat":35.322787,"lng":136.891881,"zip":"4800139"},{"town":"奈良子二丁目","koaza":"","lat":35.321113,"lng":136.895658,"zip":"4800139"},{"town":"奈良子三丁目","koaza":"","lat":35.318828,"lng":136.894861,"zip":"4800139"},{"town":"萩島一丁目","koaza":"","lat":35.336688,"lng":136.926781,"zip":"4800124"},{"town":"萩島二丁目","koaza":"","lat":35.33099,"lng":136.926626,"zip":"4800124"},{"town":"二ツ屋一丁目","koaza":"","lat":35.335034,"lng":136.93121,"zip":"4800123"},{"town":"二ツ屋二丁目","koaza":"","lat":35.330588,"lng":136.930603,"zip":"4800123"},{"town":"堀尾跡一丁目","koaza":"","lat":35.318645,"lng":136.88839,"zip":"4800136"},{"town":"堀尾跡二丁目","koaza":"","lat":35.318381,"lng":136.891013,"zip":"4800136"},{"town":"丸一丁目","koaza":"","lat":35.331502,"lng":136.902531,"zip":"4800145"},{"town":"丸二丁目","koaza":"","lat":35.33084,"lng":136.905441,"zip":"4800145"},{"town":"余野一丁目","koaza":"","lat":35.343449,"lng":136.903417,"zip":"4800146"},{"town":"余野二丁目","koaza":"","lat":35.344119,"lng":136.907653,"zip":"4800146"},{"town":"余野三丁目","koaza":"","lat":35.344449,"lng":136.911963,"zip":"4800146"},{"town":"余野四丁目","koaza":"","lat":35.341488,"lng":136.906826,"zip":"4800146"},{"town":"余野五丁目","koaza":"","lat":35.339028,"lng":136.907718,"zip":"4800146"},{"town":"余野六丁目","koaza":"","lat":35.340005,"lng":136.903061,"zip":"4800146"},{"town":"大字小口","koaza":"宮之前","lat":35.343397,"lng":136.914677,"zip":"4800100"},{"town":"大字小口","koaza":"下之段","lat":35.344456,"lng":136.914988,"zip":"4800100"},{"town":"大字小口","koaza":"地蔵堂","lat":35.345654,"lng":136.914164,"zip":"4800100"},{"town":"大字小口","koaza":"定光寺","lat":35.34692,"lng":136.91505,"zip":"4800100"},{"town":"大字小口","koaza":"城屋敷","lat":35.342768,"lng":136.916426,"zip":"4800100"},{"town":"大字小口","koaza":"下山伏","lat":35.345273,"lng":136.917222,"zip":"4800100"},{"town":"大字小口","koaza":"馬場","lat":35.342981,"lng":136.918217,"zip":"4800100"},{"town":"大字小口","koaza":"金三西","lat":35.34574,"lng":136.917609,"zip":"4800100"},{"town":"大字河北","koaza":"神明下","lat":35.360224,"lng":136.939828,"zip":"4800100"}]