[{"town":"石橋","koaza":"","lat":35.245556,"lng":136.853041,"zip":"4810046"},{"town":"井瀬木","koaza":"","lat":35.241828,"lng":136.885937,"zip":"4810014"},{"town":"宇福寺","koaza":"","lat":35.25125,"lng":136.847259,"zip":"4810035"},{"town":"沖村","koaza":"","lat":35.236854,"lng":136.856923,"zip":"4810043"},{"town":"鍜治ケ一色","koaza":"","lat":35.260167,"lng":136.854096,"zip":"4810037"},{"town":"鍜治ケ一色西一丁目","koaza":"","lat":35.263111,"lng":136.855138,"zip":"4810000"},{"town":"鍜治ケ一色西二丁目","koaza":"","lat":35.262683,"lng":136.851148,"zip":"4810000"},{"town":"鍜治ケ一色西三丁目","koaza":"","lat":35.2614,"lng":136.848907,"zip":"4810000"},{"town":"鍜治ケ一色東一丁目","koaza":"","lat":35.261576,"lng":136.859189,"zip":"4810000"},{"town":"鍜治ケ一色東二丁目","koaza":"","lat":35.263287,"lng":136.859312,"zip":"4810000"},{"town":"加島新田","koaza":"","lat":35.227337,"lng":136.875497,"zip":"4810044"},{"town":"片場","koaza":"","lat":35.245445,"lng":136.895798,"zip":"4810002"},{"town":"北野","koaza":"","lat":35.251882,"lng":136.852002,"zip":"4810034"},{"town":"久地野","koaza":"","lat":35.23572,"lng":136.896341,"zip":"4810012"},{"town":"熊之庄","koaza":"","lat":35.257372,"lng":136.885549,"zip":"4810006"},{"town":"高田寺","koaza":"","lat":35.242236,"lng":136.89572,"zip":"4810011"},{"town":"徳重","koaza":"","lat":35.259239,"lng":136.865574,"zip":"4810038"},{"town":"中之郷","koaza":"","lat":35.243193,"lng":136.844996,"zip":"4810045"},{"town":"能田","koaza":"","lat":35.248885,"lng":136.888554,"zip":"4810003"},{"town":"野崎","koaza":"","lat":35.236044,"lng":136.863622,"zip":"4810042"},{"town":"二子","koaza":"","lat":35.233532,"lng":136.886786,"zip":"4810013"},{"town":"法成寺","koaza":"","lat":35.254903,"lng":136.855615,"zip":"4810039"},{"town":"弥勒寺西一丁目","koaza":"","lat":35.25019,"lng":136.865514,"zip":"4810032"},{"town":"弥勒寺西二丁目","koaza":"","lat":35.252299,"lng":136.86556,"zip":"4810032"},{"town":"弥勒寺西三丁目","koaza":"","lat":35.253991,"lng":136.86555,"zip":"4810032"},{"town":"弥勒寺東一丁目","koaza":"","lat":35.247887,"lng":136.869779,"zip":"4810031"},{"town":"弥勒寺東二丁目","koaza":"","lat":35.249926,"lng":136.868857,"zip":"4810031"},{"town":"弥勒寺東三丁目","koaza":"","lat":35.251838,"lng":136.868948,"zip":"4810031"},{"town":"弥勒寺東四丁目","koaza":"","lat":35.253762,"lng":136.869061,"zip":"4810031"},{"town":"六ツ師","koaza":"","lat":35.253636,"lng":136.895224,"zip":"4810001"},{"town":"薬師寺","koaza":"","lat":35.261917,"lng":136.878215,"zip":"4810005"},{"town":"山之腰","koaza":"","lat":35.257783,"lng":136.845477,"zip":"4810036"},{"town":"鹿田","koaza":"","lat":35.245355,"lng":136.876867,"zip":"4810004"},{"town":"西春駅前一丁目","koaza":"","lat":35.244023,"lng":136.87056,"zip":"4810040"},{"town":"西之保","koaza":"","lat":35.248139,"lng":136.86234,"zip":"4810033"},{"town":"西春駅前二丁目","koaza":"","lat":35.244388,"lng":136.868496,"zip":"4810040"},{"town":"九之坪","koaza":"","lat":35.23561,"lng":136.873173,"zip":"4810041"},{"town":"中之郷","koaza":"四辻","lat":35.246359,"lng":136.841398,"zip":"4810045"},{"town":"中之郷","koaza":"諏訪","lat":35.247636,"lng":136.842515,"zip":"4810045"},{"town":"山之腰","koaza":"五条","lat":35.25829,"lng":136.844193,"zip":"4810036"},{"town":"中之郷","koaza":"北","lat":35.24546,"lng":136.844107,"zip":"4810045"},{"town":"中之郷","koaza":"南","lat":35.242226,"lng":136.844467,"zip":"4810045"},{"town":"山之腰","koaza":"天神東","lat":35.256685,"lng":136.8456,"zip":"4810036"},{"town":"宇福寺","koaza":"中杁","lat":35.252242,"lng":136.844481,"zip":"4810035"},{"town":"中之郷","koaza":"池田","lat":35.239066,"lng":136.844524,"zip":"4810045"},{"town":"宇福寺","koaza":"神明","lat":35.254505,"lng":136.845333,"zip":"4810035"},{"town":"宇福寺","koaza":"天神","lat":35.248995,"lng":136.845908,"zip":"4810035"},{"town":"中之郷","koaza":"天神","lat":35.239569,"lng":136.845874,"zip":"4810045"},{"town":"中之郷","koaza":"栗島","lat":35.245228,"lng":136.846998,"zip":"4810045"},{"town":"鍜治ケ一色","koaza":"端須賀","lat":35.260243,"lng":136.846877,"zip":"4810037"},{"town":"中之郷","koaza":"八反","lat":35.242847,"lng":136.847448,"zip":"4810045"},{"town":"中之郷","koaza":"神明","lat":35.240184,"lng":136.848547,"zip":"4810045"},{"town":"宇福寺","koaza":"村上","lat":35.255086,"lng":136.847713,"zip":"4810035"},{"town":"宇福寺","koaza":"東出","lat":35.251035,"lng":136.849283,"zip":"4810035"},{"town":"宇福寺","koaza":"長田","lat":35.247347,"lng":136.849322,"zip":"4810035"},{"town":"法成寺","koaza":"法師堂","lat":35.257724,"lng":136.848547,"zip":"4810039"},{"town":"法成寺","koaza":"戌亥出","lat":35.255458,"lng":136.848981,"zip":"4810039"},{"town":"鍜治ケ一色","koaza":"襟","lat":35.260207,"lng":136.850585,"zip":"4810037"},{"town":"石橋","koaza":"大日","lat":35.246174,"lng":136.85135,"zip":"4810046"},{"town":"石橋","koaza":"白目","lat":35.24342,"lng":136.851713,"zip":"4810046"},{"town":"沖村","koaza":"西ノ川","lat":35.239597,"lng":136.85081,"zip":"4810043"},{"town":"法成寺","koaza":"水戸","lat":35.257519,"lng":136.850768,"zip":"4810039"},{"town":"法成寺","koaza":"丸瀬町","lat":35.254958,"lng":136.85081,"zip":"4810039"},{"town":"北野","koaza":"小柳","lat":35.253535,"lng":136.850517,"zip":"4810034"},{"town":"石橋","koaza":"惣作","lat":35.247647,"lng":136.852652,"zip":"4810046"},{"town":"北野","koaza":"神明前","lat":35.250061,"lng":136.851959,"zip":"4810034"},{"town":"沖村","koaza":"白弓","lat":35.236522,"lng":136.853353,"zip":"4810043"},{"town":"法成寺","koaza":"中道","lat":35.257527,"lng":136.852238,"zip":"4810039"},{"town":"法成寺","koaza":"西出","lat":35.254984,"lng":136.853613,"zip":"4810039"},{"town":"北野","koaza":"天神","lat":35.253467,"lng":136.85286,"zip":"4810034"},{"town":"鍜治ケ一色","koaza":"高塚","lat":35.260125,"lng":136.85464,"zip":"4810037"},{"town":"鍜治ケ一色","koaza":"村内西","lat":35.261729,"lng":136.854689,"zip":"4810037"},{"town":"沖村","koaza":"佐渡","lat":35.241147,"lng":136.854454,"zip":"4810043"},{"town":"沖村","koaza":"六反","lat":35.238229,"lng":136.854581,"zip":"4810043"},{"town":"法成寺","koaza":"ツナギ畑","lat":35.257543,"lng":136.85363,"zip":"4810039"},{"town":"北野","koaza":"五反畑","lat":35.250779,"lng":136.853974,"zip":"4810034"},{"town":"石橋","koaza":"郷","lat":35.244661,"lng":136.8546,"zip":"4810046"},{"town":"石橋","koaza":"五反田","lat":35.24231,"lng":136.854273,"zip":"4810046"},{"town":"鍜治ケ一色","koaza":"宮浦","lat":35.258339,"lng":136.854858,"zip":"4810037"},{"town":"石橋","koaza":"角畑","lat":35.248001,"lng":136.855953,"zip":"4810046"},{"town":"法成寺","koaza":"南出","lat":35.25216,"lng":136.854817,"zip":"4810039"},{"town":"法成寺","koaza":"八竜","lat":35.254368,"lng":136.856868,"zip":"4810039"},{"town":"法成寺","koaza":"蚊帳場","lat":35.257039,"lng":136.854928,"zip":"4810039"},{"town":"北野","koaza":"八竜前","lat":35.250628,"lng":136.856025,"zip":"4810034"},{"town":"沖村","koaza":"八反","lat":35.234679,"lng":136.856346,"zip":"4810043"},{"town":"沖村","koaza":"舟附","lat":35.237209,"lng":136.856011,"zip":"4810043"},{"town":"沖村","koaza":"五反","lat":35.231997,"lng":136.858348,"zip":"4810043"},{"town":"法成寺","koaza":"道久","lat":35.256466,"lng":136.857155,"zip":"4810039"},{"town":"法成寺","koaza":"蔵化","lat":35.251637,"lng":136.858433,"zip":"4810039"},{"town":"西之保","koaza":"棒地","lat":35.244163,"lng":136.857168,"zip":"4810033"},{"town":"鍜治ケ一色","koaza":"拳","lat":35.257408,"lng":136.858662,"zip":"4810037"},{"town":"沖村","koaza":"権現","lat":35.242244,"lng":136.85856,"zip":"4810043"},{"town":"沖村","koaza":"西ノ郷","lat":35.239473,"lng":136.858256,"zip":"4810043"},{"town":"西之保","koaza":"藤塚","lat":35.247809,"lng":136.857257,"zip":"4810033"},{"town":"西之保","koaza":"八之坪","lat":35.245669,"lng":136.857241,"zip":"4810033"},{"town":"沖村","koaza":"山ノ神","lat":35.236843,"lng":136.858263,"zip":"4810043"},{"town":"鍜治ケ一色","koaza":"村内東","lat":35.259633,"lng":136.858421,"zip":"4810037"},{"town":"沖村","koaza":"井島","lat":35.234356,"lng":136.859462,"zip":"4810043"},{"town":"西之保","koaza":"才戸","lat":35.250043,"lng":136.85754,"zip":"4810033"},{"town":"法成寺","koaza":"米田","lat":35.253318,"lng":136.858566,"zip":"4810039"},{"town":"西之保","koaza":"光明田","lat":35.251104,"lng":136.859765,"zip":"4810033"},{"town":"西之保","koaza":"高野","lat":35.245687,"lng":136.861041,"zip":"4810033"},{"town":"西之保","koaza":"西出","lat":35.24418,"lng":136.860684,"zip":"4810033"},{"town":"西之保","koaza":"神ノ戸","lat":35.247833,"lng":136.861021,"zip":"4810033"},{"town":"法成寺","koaza":"松の木","lat":35.25542,"lng":136.860512,"zip":"4810039"},{"town":"鍜治ケ一色","koaza":"鍜治前","lat":35.259053,"lng":136.859649,"zip":"4810037"},{"town":"沖村","koaza":"東ノ郷","lat":35.239675,"lng":136.861041,"zip":"4810043"},{"town":"沖村","koaza":"蔵前","lat":35.236628,"lng":136.861642,"zip":"4810043"},{"town":"沖村","koaza":"沖浦","lat":35.241907,"lng":136.863115,"zip":"4810043"},{"town":"沖村","koaza":"柳原","lat":35.234129,"lng":136.861964,"zip":"4810043"},{"town":"徳重","koaza":"中道","lat":35.256935,"lng":136.862448,"zip":"4810038"},{"town":"沖村","koaza":"岡西","lat":35.232232,"lng":136.862208,"zip":"4810043"},{"town":"法成寺","koaza":"神子前","lat":35.253752,"lng":136.862235,"zip":"4810039"},{"town":"徳重","koaza":"西出","lat":35.261594,"lng":136.861657,"zip":"4810038"},{"town":"徳重","koaza":"北出","lat":35.263528,"lng":136.862509,"zip":"4810038"},{"town":"徳重","koaza":"西沼","lat":35.255884,"lng":136.861814,"zip":"4810038"},{"town":"西之保","koaza":"西屋敷","lat":35.244037,"lng":136.861984,"zip":"4810033"},{"town":"徳重","koaza":"杁ノ口","lat":35.259657,"lng":136.862437,"zip":"4810038"},{"town":"西之保","koaza":"犬井","lat":35.251135,"lng":136.862911,"zip":"4810033"},{"town":"西之保","koaza":"立石","lat":35.24784,"lng":136.862252,"zip":"4810033"},{"town":"西之保","koaza":"中屋敷","lat":35.245306,"lng":136.863246,"zip":"4810033"},{"town":"西之保","koaza":"南出","lat":35.243029,"lng":136.862318,"zip":"4810033"},{"town":"西之保","koaza":"中社","lat":35.253766,"lng":136.863393,"zip":"4810033"},{"town":"野崎","koaza":"乾出","lat":35.237783,"lng":136.862716,"zip":"4810042"},{"town":"野崎","koaza":"西出","lat":35.236823,"lng":136.862701,"zip":"4810042"},{"town":"徳重","koaza":"本郷","lat":35.261176,"lng":136.864037,"zip":"4810038"},{"town":"野崎","koaza":"八反田","lat":35.235218,"lng":136.862778,"zip":"4810042"},{"town":"沖村","koaza":"天花寺","lat":35.239315,"lng":136.8635,"zip":"4810043"},{"town":"沖村","koaza":"岡","lat":35.232272,"lng":136.864986,"zip":"4810043"},{"town":"野崎","koaza":"梶畑","lat":35.235262,"lng":136.863599,"zip":"4810042"},{"town":"徳重","koaza":"西吉原","lat":35.258254,"lng":136.86371,"zip":"4810038"},{"town":"西之保","koaza":"宮前","lat":35.242996,"lng":136.863963,"zip":"4810033"},{"town":"西之保","koaza":"東屋敷","lat":35.245115,"lng":136.864455,"zip":"4810033"},{"town":"野崎","koaza":"宮前","lat":35.236622,"lng":136.864624,"zip":"4810042"},{"town":"西之保","koaza":"八龍","lat":35.246578,"lng":136.865358,"zip":"4810033"},{"town":"野崎","koaza":"城屋敷","lat":35.23531,"lng":136.864501,"zip":"4810042"},{"town":"西之保","koaza":"青野","lat":35.247907,"lng":136.8654,"zip":"4810033"},{"town":"野崎","koaza":"宮浦","lat":35.237506,"lng":136.865005,"zip":"4810042"},{"town":"徳重","koaza":"吉原","lat":35.258465,"lng":136.865668,"zip":"4810038"},{"town":"徳重","koaza":"高道","lat":35.255438,"lng":136.864701,"zip":"4810038"},{"town":"徳重","koaza":"花ノ木","lat":35.256955,"lng":136.865663,"zip":"4810038"},{"town":"西之保","koaza":"三町地","lat":35.242135,"lng":136.865883,"zip":"4810033"},{"town":"野崎","koaza":"山神","lat":35.235361,"lng":136.865455,"zip":"4810042"},{"town":"西之保","koaza":"清水田","lat":35.245105,"lng":136.865646,"zip":"4810033"},{"town":"九之坪","koaza":"上吉田","lat":35.23902,"lng":136.866129,"zip":"4810041"},{"town":"九之坪","koaza":"葭田","lat":35.237963,"lng":136.866213,"zip":"4810041"},{"town":"九之坪","koaza":"天下地","lat":35.240773,"lng":136.865989,"zip":"4810041"},{"town":"九之坪","koaza":"下葭田","lat":35.236681,"lng":136.866306,"zip":"4810041"},{"town":"西之保","koaza":"深坪","lat":35.243645,"lng":136.866819,"zip":"4810033"},{"town":"徳重","koaza":"大日","lat":35.255624,"lng":136.866372,"zip":"4810038"},{"town":"野崎","koaza":"正光寺","lat":35.234971,"lng":136.866319,"zip":"4810042"},{"town":"徳重","koaza":"東出","lat":35.260439,"lng":136.867737,"zip":"4810038"},{"town":"徳重","koaza":"長池","lat":35.25912,"lng":136.867591,"zip":"4810038"},{"town":"九之坪","koaza":"長堀","lat":35.234603,"lng":136.8678,"zip":"4810041"},{"town":"徳重","koaza":"米野","lat":35.257848,"lng":136.86945,"zip":"4810038"},{"town":"西之保","koaza":"青野東","lat":35.247692,"lng":136.868574,"zip":"4810033"},{"town":"九之坪","koaza":"天神","lat":35.232812,"lng":136.867861,"zip":"4810041"},{"town":"西之保","koaza":"西若","lat":35.245268,"lng":136.867793,"zip":"4810033"},{"town":"九之坪","koaza":"梅田","lat":35.231241,"lng":136.867699,"zip":"4810041"},{"town":"西之保","koaza":"東海","lat":35.243492,"lng":136.867544,"zip":"4810033"},{"town":"九之坪","koaza":"竹田","lat":35.242291,"lng":136.868904,"zip":"4810041"},{"town":"九之坪","koaza":"小松","lat":35.24063,"lng":136.869429,"zip":"4810041"},{"town":"九之坪","koaza":"西町","lat":35.243471,"lng":136.868044,"zip":"4810041"},{"town":"九之坪","koaza":"寺領","lat":35.239132,"lng":136.86928,"zip":"4810041"},{"town":"九之坪","koaza":"山","lat":35.237765,"lng":136.868987,"zip":"4810041"},{"town":"九之坪","koaza":"松馬場","lat":35.236687,"lng":136.869398,"zip":"4810041"},{"town":"徳重","koaza":"御宮前","lat":35.255621,"lng":136.869019,"zip":"4810038"},{"town":"徳重","koaza":"大山","lat":35.258771,"lng":136.870129,"zip":"4810038"},{"town":"西之保","koaza":"南若","lat":35.245217,"lng":136.869091,"zip":"4810033"},{"town":"九之坪","koaza":"神明","lat":35.234987,"lng":136.86999,"zip":"4810041"},{"town":"九之坪","koaza":"菰口","lat":35.232951,"lng":136.870108,"zip":"4810041"},{"town":"九之坪","koaza":"中町","lat":35.243705,"lng":136.869706,"zip":"4810041"},{"town":"九之坪","koaza":"北町","lat":35.244901,"lng":136.869735,"zip":"4810041"},{"town":"九之坪","koaza":"石ノ戸","lat":35.231598,"lng":136.869603,"zip":"4810041"},{"town":"九之坪","koaza":"両ケ前","lat":35.231405,"lng":136.871615,"zip":"4810041"},{"town":"徳重","koaza":"与八杁","lat":35.255316,"lng":136.870912,"zip":"4810038"},{"town":"九之坪","koaza":"宮前","lat":35.238697,"lng":136.87065,"zip":"4810041"},{"town":"徳重","koaza":"生田","lat":35.258066,"lng":136.871347,"zip":"4810038"},{"town":"九之坪","koaza":"宮浦","lat":35.241343,"lng":136.870992,"zip":"4810041"},{"town":"九之坪","koaza":"北美田","lat":35.237654,"lng":136.870733,"zip":"4810041"},{"town":"九之坪","koaza":"南美田","lat":35.236585,"lng":136.87114,"zip":"4810041"},{"town":"鹿田","koaza":"出町西","lat":35.251894,"lng":136.871057,"zip":"4810004"},{"town":"九之坪","koaza":"東町","lat":35.243936,"lng":136.871941,"zip":"4810041"},{"town":"九之坪","koaza":"市場","lat":35.239075,"lng":136.871611,"zip":"4810041"},{"town":"鹿田","koaza":"天田","lat":35.249012,"lng":136.871529,"zip":"4810004"},{"town":"九之坪","koaza":"辰巳","lat":35.234461,"lng":136.871695,"zip":"4810041"},{"town":"九之坪","koaza":"南町","lat":35.244498,"lng":136.871111,"zip":"4810041"},{"town":"九之坪","koaza":"庚申前","lat":35.237991,"lng":136.871733,"zip":"4810041"},{"town":"鹿田","koaza":"出町東","lat":35.251238,"lng":136.87207,"zip":"4810004"},{"town":"鹿田","koaza":"丸籔","lat":35.246833,"lng":136.872036,"zip":"4810004"},{"town":"九之坪","koaza":"東美田","lat":35.23653,"lng":136.871852,"zip":"4810041"},{"town":"鹿田","koaza":"流","lat":35.252743,"lng":136.872224,"zip":"4810004"},{"town":"徳重","koaza":"小崎","lat":35.254568,"lng":136.873097,"zip":"4810038"},{"town":"徳重","koaza":"広畑","lat":35.255604,"lng":136.872823,"zip":"4810038"},{"town":"徳重","koaza":"土部","lat":35.257264,"lng":136.873429,"zip":"4810038"},{"town":"鹿田","koaza":"東海","lat":35.249017,"lng":136.87397,"zip":"4810004"},{"town":"九之坪","koaza":"西城屋敷","lat":35.23908,"lng":136.873088,"zip":"4810041"},{"town":"九之坪","koaza":"南城屋敷","lat":35.237449,"lng":136.87272,"zip":"4810041"},{"town":"鹿田","koaza":"天王山","lat":35.250393,"lng":136.873208,"zip":"4810004"},{"town":"九之坪","koaza":"松本","lat":35.236442,"lng":136.873422,"zip":"4810041"},{"town":"九之坪","koaza":"北口","lat":35.239885,"lng":136.873443,"zip":"4810041"},{"town":"鹿田","koaza":"藤の木","lat":35.243342,"lng":136.872993,"zip":"4810004"},{"town":"九之坪","koaza":"北浦","lat":35.24135,"lng":136.87338,"zip":"4810041"},{"town":"鹿田","koaza":"清水","lat":35.251863,"lng":136.874326,"zip":"4810004"},{"town":"加島新田","koaza":"加島西","lat":35.227199,"lng":136.874245,"zip":"4810044"},{"town":"加島新田","koaza":"北浦","lat":35.229257,"lng":136.873963,"zip":"4810044"},{"town":"鹿田","koaza":"栄","lat":35.244395,"lng":136.874976,"zip":"4810004"},{"town":"鹿田","koaza":"坂巻","lat":35.254796,"lng":136.876514,"zip":"4810004"},{"town":"加島新田","koaza":"屋敷","lat":35.228288,"lng":136.874844,"zip":"4810044"},{"town":"鹿田","koaza":"神明附","lat":35.256944,"lng":136.875735,"zip":"4810004"},{"town":"九之坪","koaza":"東ノ川","lat":35.228144,"lng":136.876365,"zip":"4810041"},{"town":"九之坪","koaza":"高田","lat":35.234705,"lng":136.8753,"zip":"4810041"},{"town":"九之坪","koaza":"笹塚","lat":35.236651,"lng":136.875311,"zip":"4810041"},{"town":"九之坪","koaza":"白山","lat":35.241078,"lng":136.875884,"zip":"4810041"},{"town":"薬師寺","koaza":"山浦","lat":35.257791,"lng":136.876376,"zip":"4810005"},{"town":"加島新田","koaza":"吸星","lat":35.227609,"lng":136.874872,"zip":"4810044"},{"town":"加島新田","koaza":"南田面","lat":35.226839,"lng":136.876008,"zip":"4810044"},{"town":"鹿田","koaza":"大門","lat":35.246522,"lng":136.876627,"zip":"4810004"},{"town":"鹿田","koaza":"花の木","lat":35.250581,"lng":136.876189,"zip":"4810004"},{"town":"鹿田","koaza":"廻間","lat":35.252832,"lng":136.878555,"zip":"4810004"},{"town":"九之坪","koaza":"加島前","lat":35.227247,"lng":136.876403,"zip":"4810041"},{"town":"鹿田","koaza":"西村前","lat":35.242861,"lng":136.876398,"zip":"4810004"},{"town":"薬師寺","koaza":"草木","lat":35.259618,"lng":136.877458,"zip":"4810005"},{"town":"薬師寺","koaza":"樋口","lat":35.260844,"lng":136.877816,"zip":"4810005"},{"town":"薬師寺","koaza":"村前","lat":35.2635,"lng":136.879023,"zip":"4810005"},{"town":"鹿田","koaza":"永塚","lat":35.249754,"lng":136.879396,"zip":"4810004"},{"town":"鹿田","koaza":"丹波屋敷","lat":35.244885,"lng":136.87864,"zip":"4810004"},{"town":"九之坪","koaza":"鴨田","lat":35.229123,"lng":136.880177,"zip":"4810041"},{"town":"鹿田","koaza":"院田屋敷","lat":35.246869,"lng":136.878806,"zip":"4810004"},{"town":"鹿田","koaza":"東村前","lat":35.242864,"lng":136.880181,"zip":"4810004"},{"town":"九之坪","koaza":"龍子田","lat":35.237511,"lng":136.879176,"zip":"4810041"},{"town":"鹿田","koaza":"道下","lat":35.240695,"lng":136.878991,"zip":"4810004"},{"town":"熊之庄","koaza":"古井","lat":35.257609,"lng":136.880281,"zip":"4810006"},{"town":"九之坪","koaza":"五反地","lat":35.231965,"lng":136.879756,"zip":"4810041"},{"town":"二子","koaza":"松江","lat":35.231783,"lng":136.881506,"zip":"4810013"},{"town":"熊之庄","koaza":"新宮","lat":35.25344,"lng":136.880853,"zip":"4810006"},{"town":"薬師寺","koaza":"屋敷","lat":35.265172,"lng":136.880623,"zip":"4810005"},{"town":"熊之庄","koaza":"十二社","lat":35.262419,"lng":136.881423,"zip":"4810006"},{"town":"鹿田","koaza":"新宮境内附","lat":35.247268,"lng":136.880274,"zip":"4810004"},{"town":"鹿田","koaza":"清井古","lat":35.233981,"lng":136.881222,"zip":"4810004"},{"town":"鹿田","koaza":"院田前","lat":35.245149,"lng":136.880149,"zip":"4810004"},{"town":"鹿田","koaza":"合田","lat":35.249705,"lng":136.881784,"zip":"4810004"},{"town":"鹿田","koaza":"北蒲屋敷","lat":35.247349,"lng":136.88096,"zip":"4810004"},{"town":"鹿田","koaza":"才海","lat":35.236324,"lng":136.882576,"zip":"4810004"},{"town":"鹿田","koaza":"天井田","lat":35.239594,"lng":136.882627,"zip":"4810004"},{"town":"鹿田","koaza":"西蒲屋敷","lat":35.244838,"lng":136.881065,"zip":"4810004"},{"town":"鹿田","koaza":"国門地","lat":35.243323,"lng":136.882666,"zip":"4810004"},{"town":"鹿田","koaza":"東蒲屋敷","lat":35.246944,"lng":136.882224,"zip":"4810004"},{"town":"鹿田","koaza":"南蒲屋敷","lat":35.245047,"lng":136.883098,"zip":"4810004"},{"town":"熊之庄","koaza":"射矢重","lat":35.257329,"lng":136.88267,"zip":"4810006"},{"town":"九之坪","koaza":"半野","lat":35.230881,"lng":136.882265,"zip":"4810041"},{"town":"熊之庄","koaza":"細長","lat":35.260892,"lng":136.882675,"zip":"4810006"},{"town":"二子","koaza":"四反地","lat":35.229917,"lng":136.884379,"zip":"4810013"},{"town":"熊之庄","koaza":"八幡","lat":35.253165,"lng":136.884056,"zip":"4810006"},{"town":"熊之庄","koaza":"堤下","lat":35.263272,"lng":136.888002,"zip":"4810006"},{"town":"二子","koaza":"瀬古","lat":35.234373,"lng":136.88398,"zip":"4810013"},{"town":"井瀬木","koaza":"五町","lat":35.236781,"lng":136.885751,"zip":"4810014"},{"town":"鹿田","koaza":"西赤土","lat":35.247804,"lng":136.884242,"zip":"4810004"},{"town":"井瀬木","koaza":"井の元","lat":35.239588,"lng":136.884052,"zip":"4810014"},{"town":"井瀬木","koaza":"鴨","lat":35.244281,"lng":136.884261,"zip":"4810014"},{"town":"熊之庄","koaza":"御榊","lat":35.250259,"lng":136.884894,"zip":"4810006"},{"town":"二子","koaza":"双葉","lat":35.232709,"lng":136.884169,"zip":"4810013"},{"town":"熊之庄","koaza":"西出","lat":35.257092,"lng":136.884742,"zip":"4810006"},{"town":"熊之庄","koaza":"大畔","lat":35.260158,"lng":136.886715,"zip":"4810006"},{"town":"二子","koaza":"名師","lat":35.230776,"lng":136.885684,"zip":"4810013"},{"town":"熊之庄","koaza":"宮地","lat":35.261917,"lng":136.886707,"zip":"4810006"},{"town":"井瀬木","koaza":"居屋敷","lat":35.243242,"lng":136.885976,"zip":"4810014"},{"town":"二子","koaza":"西の町","lat":35.23483,"lng":136.885721,"zip":"4810013"},{"town":"井瀬木","koaza":"郷前","lat":35.240058,"lng":136.885794,"zip":"4810014"},{"town":"井瀬木","koaza":"赤土","lat":35.246907,"lng":136.885977,"zip":"4810014"},{"town":"熊之庄","koaza":"城ノ屋敷","lat":35.2572,"lng":136.88685,"zip":"4810006"},{"town":"熊之庄","koaza":"屋形","lat":35.252791,"lng":136.88637,"zip":"4810006"},{"town":"能田","koaza":"蓮池","lat":35.248158,"lng":136.887286,"zip":"4810003"},{"town":"井瀬木","koaza":"五反地","lat":35.245317,"lng":136.887105,"zip":"4810014"},{"town":"能田","koaza":"引免地","lat":35.249896,"lng":136.886973,"zip":"4810003"},{"town":"二子","koaza":"二子前","lat":35.231963,"lng":136.887351,"zip":"4810013"},{"town":"二子","koaza":"神明","lat":35.235786,"lng":136.88757,"zip":"4810013"},{"town":"井瀬木","koaza":"狭場","lat":35.239557,"lng":136.887621,"zip":"4810014"},{"town":"熊之庄","koaza":"江川","lat":35.252818,"lng":136.887709,"zip":"4810006"},{"town":"井瀬木","koaza":"高畑","lat":35.244663,"lng":136.888745,"zip":"4810014"},{"town":"二子","koaza":"屋敷","lat":35.23547,"lng":136.889403,"zip":"4810013"},{"town":"六ツ師","koaza":"松葉","lat":35.254517,"lng":136.890303,"zip":"4810001"},{"town":"二子","koaza":"栄和","lat":35.237207,"lng":136.889462,"zip":"4810013"},{"town":"高田寺","koaza":"後明","lat":35.239526,"lng":136.889457,"zip":"4810011"},{"town":"高田寺","koaza":"西の門","lat":35.24225,"lng":136.889952,"zip":"4810011"},{"town":"能田","koaza":"旭","lat":35.247761,"lng":136.889006,"zip":"4810003"},{"town":"能田","koaza":"南屋敷","lat":35.248475,"lng":136.889821,"zip":"4810003"},{"town":"能田","koaza":"北屋敷","lat":35.249484,"lng":136.889776,"zip":"4810003"},{"town":"六ツ師","koaza":"宮西","lat":35.251797,"lng":136.8896,"zip":"4810001"},{"town":"熊之庄","koaza":"東出","lat":35.257117,"lng":136.889532,"zip":"4810006"},{"town":"熊之庄","koaza":"山の前","lat":35.260072,"lng":136.890137,"zip":"4810006"},{"town":"熊之庄","koaza":"六の坪","lat":35.261863,"lng":136.890143,"zip":"4810006"},{"town":"二子","koaza":"比良出","lat":35.231973,"lng":136.890214,"zip":"4810013"},{"town":"片場","koaza":"新町","lat":35.245006,"lng":136.889728,"zip":"4810002"},{"town":"片場","koaza":"六所","lat":35.246808,"lng":136.890963,"zip":"4810002"},{"town":"二子","koaza":"曙","lat":35.235859,"lng":136.891407,"zip":"4810013"},{"town":"片場","koaza":"郷","lat":35.245454,"lng":136.891981,"zip":"4810002"},{"town":"片場","koaza":"大石","lat":35.243867,"lng":136.89117,"zip":"4810002"},{"town":"高田寺","koaza":"屋敷","lat":35.241271,"lng":136.892391,"zip":"4810011"},{"town":"熊之庄","koaza":"小烏","lat":35.257111,"lng":136.891318,"zip":"4810006"},{"town":"能田","koaza":"村東","lat":35.248279,"lng":136.891882,"zip":"4810003"},{"town":"六ツ師","koaza":"道毛","lat":35.248735,"lng":136.89284,"zip":"4810001"},{"town":"六ツ師","koaza":"南屋敷","lat":35.250917,"lng":136.892919,"zip":"4810001"},{"town":"六ツ師","koaza":"中屋敷","lat":35.252785,"lng":136.893027,"zip":"4810001"},{"town":"六ツ師","koaza":"北屋敷","lat":35.25422,"lng":136.893233,"zip":"4810001"},{"town":"六ツ師","koaza":"女夫越","lat":35.258255,"lng":136.893655,"zip":"4810001"},{"town":"熊之庄","koaza":"牛流","lat":35.262224,"lng":136.892585,"zip":"4810006"},{"town":"久地野","koaza":"戌亥","lat":35.237557,"lng":136.892311,"zip":"4810012"},{"town":"久地野","koaza":"牧野","lat":35.23346,"lng":136.892483,"zip":"4810012"},{"town":"片場","koaza":"白山","lat":35.246805,"lng":136.893966,"zip":"4810002"},{"town":"高田寺","koaza":"一本橋","lat":35.242393,"lng":136.895234,"zip":"4810011"},{"town":"片場","koaza":"都","lat":35.24428,"lng":136.894417,"zip":"4810002"},{"town":"久地野","koaza":"郷廻","lat":35.235402,"lng":136.895327,"zip":"4810012"},{"town":"高田寺","koaza":"出口","lat":35.23965,"lng":136.894106,"zip":"4810011"},{"town":"久地野","koaza":"北浦","lat":35.23803,"lng":136.894323,"zip":"4810012"},{"town":"熊之庄","koaza":"石原","lat":35.2612,"lng":136.896574,"zip":"4810006"},{"town":"熊之庄","koaza":"登り戸","lat":35.258383,"lng":136.895955,"zip":"4810006"},{"town":"片場","koaza":"天王森","lat":35.246164,"lng":136.89748,"zip":"4810002"},{"town":"片場","koaza":"八瀬の木","lat":35.244414,"lng":136.897162,"zip":"4810002"},{"town":"六ツ師","koaza":"山の神","lat":35.253854,"lng":136.896736,"zip":"4810001"},{"town":"高田寺","koaza":"北の川","lat":35.243365,"lng":136.897208,"zip":"4810011"},{"town":"六ツ師","koaza":"町田","lat":35.25024,"lng":136.89743,"zip":"4810001"},{"town":"高田寺","koaza":"東の川","lat":35.240764,"lng":136.897706,"zip":"4810011"},{"town":"久地野","koaza":"安田","lat":35.238398,"lng":136.897402,"zip":"4810012"},{"town":"久地野","koaza":"権現","lat":35.235999,"lng":136.89802,"zip":"4810012"},{"town":"六ツ師","koaza":"大島","lat":35.253843,"lng":136.901014,"zip":"4810001"},{"town":"久地野","koaza":"幟立","lat":35.236459,"lng":136.900166,"zip":"4810012"},{"town":"久地野","koaza":"河原","lat":35.238374,"lng":136.89995,"zip":"4810012"},{"town":"高田寺","koaza":"起返","lat":35.240666,"lng":136.899449,"zip":"4810011"},{"town":"高田寺","koaza":"砂場","lat":35.243328,"lng":136.899553,"zip":"4810011"},{"town":"片場","koaza":"八反","lat":35.245663,"lng":136.900367,"zip":"4810002"},{"town":"六ツ師","koaza":"松戸","lat":35.250228,"lng":136.899548,"zip":"4810001"},{"town":"六ツ師","koaza":"江向","lat":35.250171,"lng":136.901907,"zip":"4810001"},{"town":"高田寺","koaza":"中外浦","lat":35.242208,"lng":136.901365,"zip":"4810011"},{"town":"高田寺","koaza":"上外浦","lat":35.244866,"lng":136.901626,"zip":"4810011"},{"town":"六ツ師","koaza":"高台","lat":35.24729,"lng":136.901792,"zip":"4810001"}]