[{"town":"荒尾","koaza":"","lat":35.083637,"lng":137.587612,"zip":"4412316"},{"town":"大名倉","koaza":"","lat":35.11211,"lng":137.542906,"zip":"4412434"},{"town":"神田","koaza":"","lat":35.065778,"lng":137.611139,"zip":"4412315"},{"town":"川合","koaza":"","lat":35.038195,"lng":137.606529,"zip":"4412300"},{"town":"川向","koaza":"","lat":35.119354,"lng":137.561893,"zip":"4412433"},{"town":"清崎","koaza":"","lat":35.07402,"lng":137.573166,"zip":"4412302"},{"town":"小松","koaza":"","lat":35.106776,"lng":137.585537,"zip":"4412317"},{"town":"田口","koaza":"","lat":35.099103,"lng":137.572286,"zip":"4412301"},{"town":"田内","koaza":"","lat":35.076874,"lng":137.545198,"zip":"4412222"},{"town":"田峯","koaza":"","lat":35.104392,"lng":137.48289,"zip":"4412221"},{"town":"津具","koaza":"","lat":35.177736,"lng":137.621307,"zip":"4412601"},{"town":"豊邦","koaza":"","lat":35.070377,"lng":137.470528,"zip":"4412224"},{"town":"長江","koaza":"","lat":35.112138,"lng":137.597877,"zip":"4412312"},{"town":"西納庫","koaza":"","lat":35.173321,"lng":137.525017,"zip":"4412531"},{"town":"東納庫","koaza":"","lat":35.144331,"lng":137.550828,"zip":"4412432"},{"town":"平山","koaza":"","lat":35.087747,"lng":137.612329,"zip":"4412314"},{"town":"松戸","koaza":"","lat":35.094086,"lng":137.549456,"zip":"4412303"},{"town":"三都橋","koaza":"","lat":35.063828,"lng":137.515034,"zip":"4412223"},{"town":"八橋","koaza":"","lat":35.136228,"lng":137.597174,"zip":"4412311"},{"town":"和市","koaza":"","lat":35.096322,"lng":137.599065,"zip":"4412313"}]