[{"town":"青山一丁目","koaza":"","lat":34.878092,"lng":136.916129,"zip":"4750836"},{"town":"青山二丁目","koaza":"","lat":34.879627,"lng":136.913789,"zip":"4750836"},{"town":"青山三丁目","koaza":"","lat":34.87735,"lng":136.912092,"zip":"4750836"},{"town":"青山四丁目","koaza":"","lat":34.881388,"lng":136.908653,"zip":"4750836"},{"town":"青山五丁目","koaza":"","lat":34.87924,"lng":136.908216,"zip":"4750836"},{"town":"青山六丁目","koaza":"","lat":34.876733,"lng":136.907644,"zip":"4750836"},{"town":"青山七丁目","koaza":"","lat":34.876741,"lng":136.904407,"zip":"4750836"},{"town":"明田町","koaza":"","lat":34.913058,"lng":136.905717,"zip":"4750000"},{"town":"旭町一丁目","koaza":"","lat":34.879,"lng":136.924858,"zip":"4750838"},{"town":"旭町二丁目","koaza":"","lat":34.877162,"lng":136.923681,"zip":"4750838"},{"town":"旭町三丁目","koaza":"","lat":34.875021,"lng":136.922405,"zip":"4750838"},{"town":"旭町四丁目","koaza":"","lat":34.872756,"lng":136.921055,"zip":"4750838"},{"town":"旭町五丁目","koaza":"","lat":34.87031,"lng":136.920035,"zip":"4750838"},{"town":"阿原町","koaza":"","lat":34.913335,"lng":136.959463,"zip":"4750031"},{"town":"新居町一丁目","koaza":"","lat":34.911531,"lng":136.957918,"zip":"4750039"},{"town":"新居町二丁目","koaza":"","lat":34.910215,"lng":136.95598,"zip":"4750039"},{"town":"新居町三丁目","koaza":"","lat":34.908438,"lng":136.955967,"zip":"4750039"},{"town":"新居町四丁目","koaza":"","lat":34.90984,"lng":136.958421,"zip":"4750039"},{"town":"新居町五丁目","koaza":"","lat":34.908548,"lng":136.959063,"zip":"4750039"},{"town":"新居町六丁目","koaza":"","lat":34.907041,"lng":136.956788,"zip":"4750039"},{"town":"新居町七丁目","koaza":"","lat":34.906443,"lng":136.958924,"zip":"4750039"},{"town":"荒古町一丁目","koaza":"","lat":34.891994,"lng":136.934168,"zip":"4750881"},{"town":"荒古町二丁目","koaza":"","lat":34.89108,"lng":136.934053,"zip":"4750881"},{"town":"有脇町十丁目","koaza":"","lat":34.935639,"lng":136.955407,"zip":"4750017"},{"town":"有脇町十一丁目","koaza":"","lat":34.936724,"lng":136.955997,"zip":"4750017"},{"town":"有脇町十二丁目","koaza":"","lat":34.935822,"lng":136.958386,"zip":"4750017"},{"town":"有脇町十三丁目","koaza":"","lat":34.937311,"lng":136.959878,"zip":"4750017"},{"town":"有脇町十四丁目","koaza":"","lat":34.937725,"lng":136.957812,"zip":"4750017"},{"town":"有脇町十五丁目","koaza":"","lat":34.937542,"lng":136.956027,"zip":"4750017"},{"town":"有脇町一丁目","koaza":"","lat":34.929326,"lng":136.957699,"zip":"4750017"},{"town":"有脇町二丁目","koaza":"","lat":34.92962,"lng":136.955745,"zip":"4750017"},{"town":"有脇町三丁目","koaza":"","lat":34.931718,"lng":136.954593,"zip":"4750017"},{"town":"有脇町四丁目","koaza":"","lat":34.931597,"lng":136.95639,"zip":"4750017"},{"town":"有脇町五丁目","koaza":"","lat":34.933037,"lng":136.955327,"zip":"4750017"},{"town":"有脇町六丁目","koaza":"","lat":34.933998,"lng":136.955897,"zip":"4750017"},{"town":"有脇町七丁目","koaza":"","lat":34.933979,"lng":136.957319,"zip":"4750017"},{"town":"有脇町八丁目","koaza":"","lat":34.934187,"lng":136.958528,"zip":"4750017"},{"town":"有脇町九丁目","koaza":"","lat":34.935144,"lng":136.956826,"zip":"4750017"},{"town":"飯森町","koaza":"","lat":34.914431,"lng":136.946022,"zip":"4750062"},{"town":"池田町一丁目","koaza":"","lat":34.897444,"lng":136.884048,"zip":"4750945"},{"town":"池田町二丁目","koaza":"","lat":34.897256,"lng":136.88065,"zip":"4750945"},{"town":"池田町三丁目","koaza":"","lat":34.901486,"lng":136.882571,"zip":"4750945"},{"town":"石塚町一丁目","koaza":"","lat":34.939523,"lng":136.947897,"zip":"4750001"},{"town":"石塚町二丁目","koaza":"","lat":34.940753,"lng":136.945806,"zip":"4750001"},{"town":"石塚町三丁目","koaza":"","lat":34.939316,"lng":136.943087,"zip":"4750001"},{"town":"石塚町四丁目","koaza":"","lat":34.938136,"lng":136.945733,"zip":"4750001"},{"town":"石塚町五丁目","koaza":"","lat":34.936894,"lng":136.947321,"zip":"4750001"},{"town":"板山町十丁目","koaza":"","lat":34.89087,"lng":136.888564,"zip":"4750936"},{"town":"板山町十一丁目","koaza":"","lat":34.891607,"lng":136.886127,"zip":"4750936"},{"town":"板山町十二丁目","koaza":"","lat":34.892872,"lng":136.884466,"zip":"4750936"},{"town":"板山町十三丁目","koaza":"","lat":34.890009,"lng":136.884234,"zip":"4750936"},{"town":"板山町十四丁目","koaza":"","lat":34.892502,"lng":136.878819,"zip":"4750936"},{"town":"板山町十五丁目","koaza":"","lat":34.893663,"lng":136.880104,"zip":"4750936"},{"town":"板山町一丁目","koaza":"","lat":34.890343,"lng":136.892125,"zip":"4750936"},{"town":"板山町二丁目","koaza":"","lat":34.888128,"lng":136.891472,"zip":"4750936"},{"town":"板山町三丁目","koaza":"","lat":34.887162,"lng":136.89427,"zip":"4750936"},{"town":"板山町四丁目","koaza":"","lat":34.885486,"lng":136.895827,"zip":"4750936"},{"town":"板山町五丁目","koaza":"","lat":34.885751,"lng":136.893478,"zip":"4750936"},{"town":"板山町六丁目","koaza":"","lat":34.886404,"lng":136.890648,"zip":"4750936"},{"town":"板山町七丁目","koaza":"","lat":34.885799,"lng":136.885728,"zip":"4750936"},{"town":"板山町八丁目","koaza":"","lat":34.887483,"lng":136.88682,"zip":"4750936"},{"town":"板山町九丁目","koaza":"","lat":34.888663,"lng":136.888143,"zip":"4750936"},{"town":"一ノ草町","koaza":"","lat":34.916111,"lng":136.943296,"zip":"4750061"},{"town":"一本木町一丁目","koaza":"","lat":34.92554,"lng":136.953535,"zip":"4750014"},{"town":"一本木町二丁目","koaza":"","lat":34.923747,"lng":136.953231,"zip":"4750014"},{"town":"一本木町三丁目","koaza":"","lat":34.922046,"lng":136.953173,"zip":"4750014"},{"town":"稲穂町十丁目","koaza":"","lat":34.936949,"lng":136.962772,"zip":"4750011"},{"town":"稲穂町十一丁目","koaza":"","lat":34.936162,"lng":136.96562,"zip":"4750011"},{"town":"稲穂町十二丁目","koaza":"","lat":34.938064,"lng":136.963037,"zip":"4750011"},{"town":"稲穂町十三丁目","koaza":"","lat":34.938596,"lng":136.961443,"zip":"4750011"},{"town":"稲穂町十四丁目","koaza":"","lat":34.939114,"lng":136.959941,"zip":"4750011"},{"town":"稲穂町一丁目","koaza":"","lat":34.932192,"lng":136.958483,"zip":"4750011"},{"town":"稲穂町二丁目","koaza":"","lat":34.930638,"lng":136.958758,"zip":"4750011"},{"town":"稲穂町三丁目","koaza":"","lat":34.931237,"lng":136.961888,"zip":"4750011"},{"town":"稲穂町四丁目","koaza":"","lat":34.932601,"lng":136.961704,"zip":"4750011"},{"town":"稲穂町五丁目","koaza":"","lat":34.933834,"lng":136.961611,"zip":"4750011"},{"town":"稲穂町六丁目","koaza":"","lat":34.931867,"lng":136.964132,"zip":"4750011"},{"town":"稲穂町七丁目","koaza":"","lat":34.934211,"lng":136.964968,"zip":"4750011"},{"town":"稲穂町八丁目","koaza":"","lat":34.935035,"lng":136.961782,"zip":"4750011"},{"town":"稲穂町九丁目","koaza":"","lat":34.935984,"lng":136.962083,"zip":"4750011"},{"town":"稲荷町一丁目","koaza":"","lat":34.877636,"lng":136.902664,"zip":"4750835"},{"town":"稲荷町二丁目","koaza":"","lat":34.876902,"lng":136.900554,"zip":"4750835"},{"town":"稲荷町三丁目","koaza":"","lat":34.874921,"lng":136.898714,"zip":"4750835"},{"town":"鵜ノ池町","koaza":"","lat":34.905655,"lng":136.882491,"zip":"4750958"},{"town":"馬捨町","koaza":"","lat":34.903881,"lng":136.891034,"zip":"4750952"},{"town":"枝山町","koaza":"","lat":34.901524,"lng":136.906641,"zip":"4750915"},{"town":"榎下町","koaza":"","lat":34.901084,"lng":136.928432,"zip":"4750867"},{"town":"大池町一丁目","koaza":"","lat":34.918366,"lng":136.952788,"zip":"4750087"},{"town":"大池町二丁目","koaza":"","lat":34.918192,"lng":136.949777,"zip":"4750087"},{"town":"大池町三丁目","koaza":"","lat":34.916462,"lng":136.949954,"zip":"4750087"},{"town":"大池町四丁目","koaza":"","lat":34.91455,"lng":136.949326,"zip":"4750087"},{"town":"大高町一丁目","koaza":"","lat":34.924557,"lng":136.946677,"zip":"4750015"},{"town":"大高町二丁目","koaza":"","lat":34.922891,"lng":136.948846,"zip":"4750015"},{"town":"大高町三丁目","koaza":"","lat":34.923079,"lng":136.94733,"zip":"4750015"},{"town":"大坪町","koaza":"","lat":34.902922,"lng":136.928036,"zip":"4750904"},{"town":"大伝根町一丁目","koaza":"","lat":34.920528,"lng":136.941601,"zip":"4750071"},{"town":"大伝根町二丁目","koaza":"","lat":34.92287,"lng":136.941691,"zip":"4750071"},{"town":"大松町一丁目","koaza":"","lat":34.910173,"lng":136.954368,"zip":"4750083"},{"town":"大松町二丁目","koaza":"","lat":34.910261,"lng":136.952513,"zip":"4750083"},{"town":"大湯町一丁目","koaza":"","lat":34.888528,"lng":136.883329,"zip":"4750935"},{"town":"大湯町二丁目","koaza":"","lat":34.887111,"lng":136.880806,"zip":"4750935"},{"town":"大湯町三丁目","koaza":"","lat":34.884733,"lng":136.876748,"zip":"4750935"},{"town":"大湯町四丁目","koaza":"","lat":34.888852,"lng":136.879334,"zip":"4750935"},{"town":"大湯町五丁目","koaza":"","lat":34.889716,"lng":136.878262,"zip":"4750935"},{"town":"奥町一丁目","koaza":"","lat":34.909377,"lng":136.879084,"zip":"4750957"},{"town":"奥町二丁目","koaza":"","lat":34.910924,"lng":136.876796,"zip":"4750957"},{"town":"奥町三丁目","koaza":"","lat":34.912957,"lng":136.876447,"zip":"4750957"},{"town":"奥町四丁目","koaza":"","lat":34.915962,"lng":136.879687,"zip":"4750957"},{"town":"乙川一色町","koaza":"","lat":34.908272,"lng":136.937972,"zip":"4750056"},{"town":"乙川市場町一丁目","koaza":"","lat":34.90841,"lng":136.944279,"zip":"4750046"},{"town":"乙川市場町二丁目","koaza":"","lat":34.907784,"lng":136.943986,"zip":"4750046"},{"town":"乙川内山町","koaza":"","lat":34.90511,"lng":136.940802,"zip":"4750053"},{"town":"乙川太田町一丁目","koaza":"","lat":34.911385,"lng":136.947394,"zip":"4750041"},{"town":"乙川太田町二丁目","koaza":"","lat":34.908437,"lng":136.946932,"zip":"4750041"},{"town":"乙川北側町一丁目","koaza":"","lat":34.910512,"lng":136.945314,"zip":"4750047"},{"town":"乙川北側町二丁目","koaza":"","lat":34.909806,"lng":136.943747,"zip":"4750047"},{"town":"乙川源内林町一丁目","koaza":"","lat":34.912121,"lng":136.93915,"zip":"4750066"},{"town":"乙川源内林町二丁目","koaza":"","lat":34.913666,"lng":136.939017,"zip":"4750066"},{"town":"乙川源内林町三丁目","koaza":"","lat":34.915131,"lng":136.938584,"zip":"4750066"},{"town":"乙川栄町","koaza":"","lat":34.908174,"lng":136.942181,"zip":"4750051"},{"town":"乙川新町一丁目","koaza":"","lat":34.906183,"lng":136.938606,"zip":"4750057"},{"town":"乙川新町二丁目","koaza":"","lat":34.907016,"lng":136.939889,"zip":"4750057"},{"town":"乙川新町三丁目","koaza":"","lat":34.908397,"lng":136.940715,"zip":"4750057"},{"town":"乙川末広町","koaza":"","lat":34.890674,"lng":136.950827,"zip":"4750803"},{"town":"乙川高良町","koaza":"","lat":34.906525,"lng":136.941486,"zip":"4750052"},{"town":"乙川町","koaza":"","lat":34.903563,"lng":136.940005,"zip":"4750054"},{"town":"乙川殿町","koaza":"","lat":34.906997,"lng":136.943757,"zip":"4750045"},{"town":"乙川西ノ宮町一丁目","koaza":"","lat":34.911578,"lng":136.943315,"zip":"4750068"},{"town":"乙川西ノ宮町二丁目","koaza":"","lat":34.911376,"lng":136.941987,"zip":"4750068"},{"town":"乙川西ノ宮町三丁目","koaza":"","lat":34.91179,"lng":136.940689,"zip":"4750068"},{"town":"乙川畑田町一丁目","koaza":"","lat":34.912909,"lng":136.942636,"zip":"4750067"},{"town":"乙川畑田町二丁目","koaza":"","lat":34.914037,"lng":136.942578,"zip":"4750067"},{"town":"乙川畑田町三丁目","koaza":"","lat":34.914971,"lng":136.942652,"zip":"4750067"},{"town":"乙川八幡町一丁目","koaza":"","lat":34.905703,"lng":136.943601,"zip":"4750044"},{"town":"乙川八幡町二丁目","koaza":"","lat":34.905394,"lng":136.942407,"zip":"4750044"},{"town":"乙川八幡町三丁目","koaza":"","lat":34.904457,"lng":136.943302,"zip":"4750044"},{"town":"乙川浜側町一丁目","koaza":"","lat":34.904804,"lng":136.944999,"zip":"4750043"},{"town":"乙川浜側町二丁目","koaza":"","lat":34.904894,"lng":136.94751,"zip":"4750043"},{"town":"乙川稗田町","koaza":"","lat":34.906506,"lng":136.946293,"zip":"4750048"},{"town":"乙川深田町一丁目","koaza":"","lat":34.909685,"lng":136.939794,"zip":"4750065"},{"town":"乙川深田町二丁目","koaza":"","lat":34.91023,"lng":136.938071,"zip":"4750065"},{"town":"乙川向田町一丁目","koaza":"","lat":34.90682,"lng":136.948614,"zip":"4750042"},{"town":"乙川向田町二丁目","koaza":"","lat":34.906386,"lng":136.950642,"zip":"4750042"},{"town":"乙川薬師町一丁目","koaza":"","lat":34.909518,"lng":136.94144,"zip":"4750064"},{"town":"乙川薬師町二丁目","koaza":"","lat":34.909491,"lng":136.942638,"zip":"4750064"},{"town":"乙川吉野町","koaza":"","lat":34.905213,"lng":136.93738,"zip":"4750058"},{"town":"乙川若宮町","koaza":"","lat":34.911864,"lng":136.944325,"zip":"4750063"},{"town":"欠ケ下町","koaza":"","lat":34.910823,"lng":136.912098,"zip":"4750967"},{"town":"春日町一丁目","koaza":"","lat":34.883314,"lng":136.919079,"zip":"4750923"},{"town":"春日町二丁目","koaza":"","lat":34.884285,"lng":136.917654,"zip":"4750923"},{"town":"春日町三丁目","koaza":"","lat":34.885045,"lng":136.916442,"zip":"4750923"},{"town":"金山町一丁目","koaza":"","lat":34.899372,"lng":136.878342,"zip":"4750953"},{"town":"金山町二丁目","koaza":"","lat":34.903299,"lng":136.87932,"zip":"4750953"},{"town":"上池町一丁目","koaza":"","lat":34.928827,"lng":136.949155,"zip":"4750004"},{"town":"上池町二丁目","koaza":"","lat":34.92891,"lng":136.946058,"zip":"4750004"},{"town":"上池町三丁目","koaza":"","lat":34.926922,"lng":136.946116,"zip":"4750004"},{"town":"上池町四丁目","koaza":"","lat":34.92707,"lng":136.948764,"zip":"4750004"},{"town":"上池町五丁目","koaza":"","lat":34.925656,"lng":136.94764,"zip":"4750004"},{"town":"神前町","koaza":"","lat":34.91722,"lng":136.97146,"zip":"4750000"},{"town":"上定光町一丁目","koaza":"","lat":34.936766,"lng":136.942593,"zip":"4750009"},{"town":"上定光町二丁目","koaza":"","lat":34.935341,"lng":136.944548,"zip":"4750009"},{"town":"神代町一丁目","koaza":"","lat":34.894075,"lng":136.883043,"zip":"4750944"},{"town":"神代町二丁目","koaza":"","lat":34.896062,"lng":136.886247,"zip":"4750944"},{"town":"上浜町","koaza":"","lat":34.898351,"lng":136.941072,"zip":"4750804"},{"town":"亀崎相生町一丁目","koaza":"","lat":34.918829,"lng":136.963803,"zip":"4750028"},{"town":"亀崎相生町二丁目","koaza":"","lat":34.917358,"lng":136.964389,"zip":"4750028"},{"town":"亀崎相生町三丁目","koaza":"","lat":34.916455,"lng":136.963589,"zip":"4750028"},{"town":"亀崎大洞町一丁目","koaza":"","lat":34.929413,"lng":136.962058,"zip":"4750025"},{"town":"亀崎大洞町二丁目","koaza":"","lat":34.926665,"lng":136.96225,"zip":"4750025"},{"town":"亀崎大洞町三丁目","koaza":"","lat":34.929756,"lng":136.959826,"zip":"4750025"},{"town":"亀崎大洞町四丁目","koaza":"","lat":34.927358,"lng":136.961253,"zip":"4750025"},{"town":"亀崎大洞町五丁目","koaza":"","lat":34.928522,"lng":136.959062,"zip":"4750025"},{"town":"亀崎大洞町六丁目","koaza":"","lat":34.924808,"lng":136.96158,"zip":"4750025"},{"town":"亀崎大洞町七丁目","koaza":"","lat":34.925388,"lng":136.961697,"zip":"4750025"},{"town":"亀崎北浦町一丁目","koaza":"","lat":34.923007,"lng":136.963927,"zip":"4750027"},{"town":"亀崎北浦町二丁目","koaza":"","lat":34.921143,"lng":136.96803,"zip":"4750027"},{"town":"亀崎北浦町三丁目","koaza":"","lat":34.92001,"lng":136.969062,"zip":"4750027"},{"town":"亀崎新田町一丁目","koaza":"","lat":34.929439,"lng":136.963893,"zip":"4750026"},{"town":"亀崎新田町二丁目","koaza":"","lat":34.92703,"lng":136.96529,"zip":"4750026"},{"town":"亀崎新田町三丁目","koaza":"","lat":34.926827,"lng":136.963684,"zip":"4750026"},{"town":"亀崎新田町四丁目","koaza":"","lat":34.924555,"lng":136.964094,"zip":"4750026"},{"town":"亀崎新田町五丁目","koaza":"","lat":34.924734,"lng":136.966064,"zip":"4750026"},{"town":"亀崎高根町一丁目","koaza":"","lat":34.924832,"lng":136.958044,"zip":"4750024"},{"town":"亀崎高根町二丁目","koaza":"","lat":34.921825,"lng":136.959701,"zip":"4750024"},{"town":"亀崎高根町三丁目","koaza":"","lat":34.922618,"lng":136.956143,"zip":"4750024"},{"town":"亀崎高根町四丁目","koaza":"","lat":34.921139,"lng":136.955875,"zip":"4750024"},{"town":"亀崎高根町五丁目","koaza":"","lat":34.920826,"lng":136.957957,"zip":"4750024"},{"town":"亀崎高根町六丁目","koaza":"","lat":34.918628,"lng":136.959259,"zip":"4750024"},{"town":"亀崎高根町七丁目","koaza":"","lat":34.91815,"lng":136.956039,"zip":"4750024"},{"town":"亀崎高根町八丁目","koaza":"","lat":34.916434,"lng":136.95886,"zip":"4750024"},{"town":"亀崎町十丁目","koaza":"","lat":34.91098,"lng":136.961068,"zip":"4750023"},{"town":"亀崎町一丁目","koaza":"","lat":34.919156,"lng":136.971182,"zip":"4750023"},{"town":"亀崎町二丁目","koaza":"","lat":34.918088,"lng":136.970403,"zip":"4750023"},{"town":"亀崎町三丁目","koaza":"","lat":34.916864,"lng":136.968515,"zip":"4750023"},{"town":"亀崎町四丁目","koaza":"","lat":34.916024,"lng":136.966661,"zip":"4750023"},{"town":"亀崎町五丁目","koaza":"","lat":34.914702,"lng":136.965665,"zip":"4750023"},{"town":"亀崎町六丁目","koaza":"","lat":34.913747,"lng":136.964041,"zip":"4750023"},{"town":"亀崎町七丁目","koaza":"","lat":34.914757,"lng":136.96252,"zip":"4750023"},{"town":"亀崎町八丁目","koaza":"","lat":34.913985,"lng":136.961414,"zip":"4750023"},{"town":"亀崎町九丁目","koaza":"","lat":34.912265,"lng":136.963188,"zip":"4750023"},{"town":"亀崎月見町一丁目","koaza":"","lat":34.921016,"lng":136.963669,"zip":"4750022"},{"town":"亀崎月見町二丁目","koaza":"","lat":34.920524,"lng":136.965865,"zip":"4750022"},{"town":"亀崎月見町三丁目","koaza":"","lat":34.918852,"lng":136.965435,"zip":"4750022"},{"town":"亀崎月見町四丁目","koaza":"","lat":34.918919,"lng":136.967342,"zip":"4750022"},{"town":"亀崎常盤町一丁目","koaza":"","lat":34.921413,"lng":136.962117,"zip":"4750029"},{"town":"亀崎常盤町二丁目","koaza":"","lat":34.918776,"lng":136.962107,"zip":"4750029"},{"town":"亀崎常盤町三丁目","koaza":"","lat":34.91754,"lng":136.961857,"zip":"4750029"},{"town":"亀崎常盤町四丁目","koaza":"","lat":34.915762,"lng":136.961462,"zip":"4750029"},{"town":"鴉根町一丁目","koaza":"","lat":34.877794,"lng":136.898564,"zip":"4750932"},{"town":"鴉根町二丁目","koaza":"","lat":34.8763,"lng":136.895043,"zip":"4750932"},{"town":"鴉根町三丁目","koaza":"","lat":34.876309,"lng":136.889551,"zip":"4750932"},{"town":"鴉根町四丁目","koaza":"","lat":34.876053,"lng":136.884393,"zip":"4750932"},{"town":"雁宿町二丁目","koaza":"","lat":34.895053,"lng":136.918591,"zip":"4750918"},{"town":"雁宿町三丁目","koaza":"","lat":34.896983,"lng":136.917694,"zip":"4750918"},{"town":"川崎町一丁目","koaza":"","lat":34.874452,"lng":136.927801,"zip":"4750832"},{"town":"川崎町二丁目","koaza":"","lat":34.870134,"lng":136.926606,"zip":"4750832"},{"town":"川崎町三丁目","koaza":"","lat":34.868268,"lng":136.936862,"zip":"4750832"},{"town":"川崎町四丁目","koaza":"","lat":34.872847,"lng":136.940504,"zip":"4750832"},{"town":"川田町","koaza":"","lat":34.894039,"lng":136.947732,"zip":"4750808"},{"town":"神田町一丁目","koaza":"","lat":34.884897,"lng":136.899578,"zip":"4750937"},{"town":"神田町二丁目","koaza":"","lat":34.883909,"lng":136.898174,"zip":"4750937"},{"town":"神田町三丁目","koaza":"","lat":34.883017,"lng":136.894238,"zip":"4750937"},{"town":"勘内町","koaza":"","lat":34.899534,"lng":136.932729,"zip":"4750877"},{"town":"北大矢知町一丁目","koaza":"","lat":34.932973,"lng":136.939322,"zip":"4750008"},{"town":"北大矢知町二丁目","koaza":"","lat":34.935874,"lng":136.940433,"zip":"4750008"},{"town":"北大矢知町三丁目","koaza":"","lat":34.934393,"lng":136.94159,"zip":"4750008"},{"town":"北滑草町","koaza":"","lat":34.898014,"lng":136.900574,"zip":"4750972"},{"town":"北浜田町一丁目","koaza":"","lat":34.905465,"lng":136.935196,"zip":"4750055"},{"town":"北浜田町二丁目","koaza":"","lat":34.90307,"lng":136.935401,"zip":"4750055"},{"town":"北二ツ坂町一丁目","koaza":"","lat":34.893926,"lng":136.913007,"zip":"4750927"},{"town":"北二ツ坂町二丁目","koaza":"","lat":34.894063,"lng":136.909959,"zip":"4750927"},{"town":"北二ツ坂町三丁目","koaza":"","lat":34.896504,"lng":136.910361,"zip":"4750927"},{"town":"吉田町一丁目","koaza":"","lat":34.887026,"lng":136.899033,"zip":"4750977"},{"town":"吉田町二丁目","koaza":"","lat":34.888066,"lng":136.895725,"zip":"4750977"},{"town":"吉田町三丁目","koaza":"","lat":34.889774,"lng":136.898557,"zip":"4750977"},{"town":"吉田町四丁目","koaza":"","lat":34.891495,"lng":136.897153,"zip":"4750977"},{"town":"吉田町五丁目","koaza":"","lat":34.890353,"lng":136.894124,"zip":"4750977"},{"town":"吉田町六丁目","koaza":"","lat":34.892463,"lng":136.894342,"zip":"4750977"},{"town":"吉田町七丁目","koaza":"","lat":34.892985,"lng":136.895478,"zip":"4750977"},{"town":"吉田町八丁目","koaza":"","lat":34.895314,"lng":136.897638,"zip":"4750977"},{"town":"君ケ橋町一丁目","koaza":"","lat":34.883842,"lng":136.892319,"zip":"4750938"},{"town":"君ケ橋町二丁目","koaza":"","lat":34.881738,"lng":136.891672,"zip":"4750938"},{"town":"君ケ橋町三丁目","koaza":"","lat":34.8793,"lng":136.892418,"zip":"4750938"},{"town":"行人町","koaza":"","lat":34.901632,"lng":136.869929,"zip":"4750955"},{"town":"協和町二丁目","koaza":"","lat":34.889471,"lng":136.929088,"zip":"4750854"},{"town":"桐ケ丘一丁目","koaza":"","lat":34.887946,"lng":136.915982,"zip":"4750928"},{"town":"桐ケ丘二丁目","koaza":"","lat":34.889292,"lng":136.917411,"zip":"4750928"},{"town":"桐ケ丘三丁目","koaza":"","lat":34.891385,"lng":136.916782,"zip":"4750928"},{"town":"桐ケ丘四丁目","koaza":"","lat":34.890788,"lng":136.913772,"zip":"4750928"},{"town":"桐ケ丘五丁目","koaza":"","lat":34.888901,"lng":136.913523,"zip":"4750928"},{"town":"銀座本町一丁目","koaza":"","lat":34.895743,"lng":136.93275,"zip":"4750874"},{"town":"銀座本町二丁目","koaza":"","lat":34.894657,"lng":136.932561,"zip":"4750874"},{"town":"銀座本町三丁目","koaza":"","lat":34.893676,"lng":136.932501,"zip":"4750874"},{"town":"銀座本町四丁目","koaza":"","lat":34.892967,"lng":136.932975,"zip":"4750874"},{"town":"銀座本町五丁目","koaza":"","lat":34.892337,"lng":136.932945,"zip":"4750874"},{"town":"黒石町","koaza":"","lat":34.894168,"lng":136.89168,"zip":"4750976"},{"town":"源平町","koaza":"","lat":34.893224,"lng":136.936063,"zip":"4750816"},{"town":"庚申町一丁目","koaza":"","lat":34.917714,"lng":136.948075,"zip":"4750086"},{"town":"庚申町二丁目","koaza":"","lat":34.915909,"lng":136.946927,"zip":"4750086"},{"town":"郷中町一丁目","koaza":"","lat":34.888496,"lng":136.928764,"zip":"4750842"},{"town":"郷中町二丁目","koaza":"","lat":34.887927,"lng":136.927157,"zip":"4750842"},{"town":"郷中町三丁目","koaza":"","lat":34.887024,"lng":136.92852,"zip":"4750842"},{"town":"小神町","koaza":"","lat":34.911035,"lng":136.948845,"zip":"4750085"},{"town":"古浜町","koaza":"","lat":34.900884,"lng":136.945877,"zip":"4750806"},{"town":"幸町一丁目","koaza":"","lat":34.890731,"lng":136.936284,"zip":"4750814"},{"town":"幸町二丁目","koaza":"","lat":34.889824,"lng":136.938458,"zip":"4750814"},{"town":"栄町一丁目","koaza":"","lat":34.887454,"lng":136.924475,"zip":"4750846"},{"town":"栄町二丁目","koaza":"","lat":34.886527,"lng":136.923814,"zip":"4750846"},{"town":"栄町三丁目","koaza":"","lat":34.884993,"lng":136.923256,"zip":"4750846"},{"town":"栄町四丁目","koaza":"","lat":34.883399,"lng":136.92199,"zip":"4750846"},{"town":"椎ノ木町一丁目","koaza":"","lat":34.884965,"lng":136.880859,"zip":"4750934"},{"town":"椎ノ木町二丁目","koaza":"","lat":34.882235,"lng":136.879886,"zip":"4750934"},{"town":"椎ノ木町三丁目","koaza":"","lat":34.880259,"lng":136.879361,"zip":"4750934"},{"town":"椎ノ木町四丁目","koaza":"","lat":34.882908,"lng":136.88538,"zip":"4750934"},{"town":"潮干町","koaza":"","lat":34.90846,"lng":136.966545,"zip":"4750032"},{"town":"七本木町一丁目","koaza":"","lat":34.920148,"lng":136.949471,"zip":"4750072"},{"town":"七本木町二丁目","koaza":"","lat":34.92164,"lng":136.949802,"zip":"4750072"},{"town":"東雲町","koaza":"","lat":34.895226,"lng":136.936181,"zip":"4750872"},{"town":"清水北町","koaza":"","lat":34.900578,"lng":136.926422,"zip":"4750866"},{"town":"清水西町","koaza":"","lat":34.899379,"lng":136.926178,"zip":"4750865"},{"town":"清水東町","koaza":"","lat":34.899487,"lng":136.927778,"zip":"4750869"},{"town":"十一号地","koaza":"","lat":34.879696,"lng":136.953703,"zip":"4750831"},{"town":"十三塚町","koaza":"","lat":34.897621,"lng":136.874125,"zip":"4750954"},{"town":"昭和町三丁目","koaza":"","lat":34.887047,"lng":136.920736,"zip":"4750922"},{"town":"昭和町四丁目","koaza":"","lat":34.884975,"lng":136.919933,"zip":"4750922"},{"town":"新池町一丁目","koaza":"","lat":34.919487,"lng":136.940716,"zip":"4750078"},{"town":"新池町二丁目","koaza":"","lat":34.920768,"lng":136.93836,"zip":"4750078"},{"town":"新宮町二丁目","koaza":"","lat":34.879635,"lng":136.904197,"zip":"4750931"},{"town":"新宮町三丁目","koaza":"","lat":34.882493,"lng":136.904463,"zip":"4750931"},{"town":"新宮町四丁目","koaza":"","lat":34.881517,"lng":136.901354,"zip":"4750931"},{"town":"新宮町五丁目","koaza":"","lat":34.880868,"lng":136.897544,"zip":"4750931"},{"town":"新栄町","koaza":"","lat":34.891756,"lng":136.936109,"zip":"4750815"},{"town":"新生町一丁目","koaza":"","lat":34.909845,"lng":136.89314,"zip":"4750965"},{"town":"新生町二丁目","koaza":"","lat":34.908346,"lng":136.892889,"zip":"4750965"},{"town":"新生町三丁目","koaza":"","lat":34.909883,"lng":136.891394,"zip":"4750965"},{"town":"新生町四丁目","koaza":"","lat":34.909887,"lng":136.889484,"zip":"4750965"},{"town":"新生町五丁目","koaza":"","lat":34.907907,"lng":136.890011,"zip":"4750965"},{"town":"新生町六丁目","koaza":"","lat":34.906481,"lng":136.890797,"zip":"4750965"},{"town":"新生町七丁目","koaza":"","lat":34.906022,"lng":136.893111,"zip":"4750965"},{"town":"新浜町","koaza":"","lat":34.877347,"lng":136.933539,"zip":"4750824"},{"town":"神明町一丁目","koaza":"","lat":34.882968,"lng":136.931891,"zip":"4750826"},{"town":"神明町二丁目","koaza":"","lat":34.881383,"lng":136.934677,"zip":"4750826"},{"town":"神明町三丁目","koaza":"","lat":34.881684,"lng":136.93043,"zip":"4750826"},{"town":"神明町四丁目","koaza":"","lat":34.88009,"lng":136.933386,"zip":"4750826"},{"town":"砂谷町","koaza":"","lat":34.902242,"lng":136.894033,"zip":"4750947"},{"town":"州の崎町","koaza":"","lat":34.926228,"lng":136.970343,"zip":"4750021"},{"town":"住吉町一丁目","koaza":"","lat":34.908134,"lng":136.931235,"zip":"4750862"},{"town":"住吉町二丁目","koaza":"","lat":34.906757,"lng":136.9315,"zip":"4750862"},{"town":"住吉町三丁目","koaza":"","lat":34.904667,"lng":136.931237,"zip":"4750862"},{"town":"住吉町四丁目","koaza":"","lat":34.903369,"lng":136.931425,"zip":"4750862"},{"town":"住吉町五丁目","koaza":"","lat":34.901909,"lng":136.931829,"zip":"4750862"},{"town":"住吉町六丁目","koaza":"","lat":34.900155,"lng":136.930606,"zip":"4750862"},{"town":"住吉町七丁目","koaza":"","lat":34.898524,"lng":136.93081,"zip":"4750862"},{"town":"住吉町八丁目","koaza":"","lat":34.897253,"lng":136.930531,"zip":"4750862"},{"town":"清城町一丁目","koaza":"","lat":34.898713,"lng":136.916544,"zip":"4750917"},{"town":"清城町二丁目","koaza":"","lat":34.898275,"lng":136.911466,"zip":"4750917"},{"town":"清城町三丁目","koaza":"","lat":34.896451,"lng":136.913046,"zip":"4750917"},{"town":"相賀町","koaza":"","lat":34.901694,"lng":136.949108,"zip":"4750801"},{"town":"高砂町","koaza":"","lat":34.901829,"lng":136.95497,"zip":"4750036"},{"town":"高峯町","koaza":"","lat":34.893863,"lng":136.888231,"zip":"4750943"},{"town":"田代町","koaza":"","lat":34.897933,"lng":136.891319,"zip":"4750948"},{"town":"丁田町","koaza":"","lat":34.911388,"lng":136.912408,"zip":"4750968"},{"town":"出口町一丁目","koaza":"","lat":34.902014,"lng":136.922531,"zip":"4750903"},{"town":"出口町二丁目","koaza":"","lat":34.905109,"lng":136.919786,"zip":"4750903"},{"town":"寺町","koaza":"","lat":34.882737,"lng":136.927836,"zip":"4750844"},{"town":"天神町","koaza":"","lat":34.889582,"lng":136.920562,"zip":"4750921"},{"town":"天王町一丁目","koaza":"","lat":34.896503,"lng":136.927023,"zip":"4750859"},{"town":"天王町二丁目","koaza":"","lat":34.895949,"lng":136.928087,"zip":"4750859"},{"town":"土井山町一丁目","koaza":"","lat":34.897522,"lng":136.908008,"zip":"4750914"},{"town":"土井山町二丁目","koaza":"","lat":34.898755,"lng":136.905155,"zip":"4750914"},{"town":"土井山町三丁目","koaza":"","lat":34.896272,"lng":136.905021,"zip":"4750914"},{"town":"東郷町一丁目","koaza":"","lat":34.882364,"lng":136.91855,"zip":"4750924"},{"town":"東郷町二丁目","koaza":"","lat":34.88288,"lng":136.91659,"zip":"4750924"},{"town":"東郷町三丁目","koaza":"","lat":34.881068,"lng":136.917518,"zip":"4750924"},{"town":"東郷町四丁目","koaza":"","lat":34.881745,"lng":136.915563,"zip":"4750924"},{"town":"東洋町一丁目","koaza":"","lat":34.894484,"lng":136.939325,"zip":"4750817"},{"town":"東洋町二丁目","koaza":"","lat":34.891943,"lng":136.939833,"zip":"4750817"},{"town":"東洋町三丁目","koaza":"","lat":34.890425,"lng":136.939162,"zip":"4750817"},{"town":"中午町","koaza":"","lat":34.903978,"lng":136.953821,"zip":"4750037"},{"town":"中億田町","koaza":"","lat":34.899605,"lng":136.955335,"zip":"4750035"},{"town":"中島町","koaza":"","lat":34.884505,"lng":136.929446,"zip":"4750843"},{"town":"仲田町一丁目","koaza":"","lat":34.887623,"lng":136.918491,"zip":"4750929"},{"town":"仲田町二丁目","koaza":"","lat":34.886108,"lng":136.918723,"zip":"4750929"},{"town":"長根町一丁目","koaza":"","lat":34.917826,"lng":136.943584,"zip":"4750074"},{"town":"長根町二丁目","koaza":"","lat":34.917922,"lng":136.940525,"zip":"4750074"},{"town":"長根町三丁目","koaza":"","lat":34.918975,"lng":136.937754,"zip":"4750074"},{"town":"中生見町","koaza":"","lat":34.928538,"lng":136.953929,"zip":"4750018"},{"town":"中町四丁目","koaza":"","lat":34.888222,"lng":136.925855,"zip":"4750855"},{"town":"中村町一丁目","koaza":"","lat":34.894347,"lng":136.934224,"zip":"4750873"},{"town":"中村町二丁目","koaza":"","lat":34.893084,"lng":136.934137,"zip":"4750873"},{"town":"滑楚町","koaza":"","lat":34.902339,"lng":136.897868,"zip":"4750941"},{"town":"成岩東町","koaza":"","lat":34.880602,"lng":136.925735,"zip":"4750845"},{"town":"成岩本町一丁目","koaza":"","lat":34.885576,"lng":136.928093,"zip":"4750848"},{"town":"成岩本町二丁目","koaza":"","lat":34.884463,"lng":136.926434,"zip":"4750848"},{"town":"成岩本町三丁目","koaza":"","lat":34.882942,"lng":136.92567,"zip":"4750848"},{"town":"成岩本町四丁目","koaza":"","lat":34.882388,"lng":136.924259,"zip":"4750848"},{"town":"苗代町一丁目","koaza":"","lat":34.916337,"lng":136.939919,"zip":"4750075"},{"town":"苗代町二丁目","koaza":"","lat":34.916778,"lng":136.937184,"zip":"4750075"},{"town":"新野町一丁目","koaza":"","lat":34.879739,"lng":136.887018,"zip":"4750933"},{"town":"新野町二丁目","koaza":"","lat":34.876952,"lng":136.881334,"zip":"4750933"},{"town":"西大矢知町一丁目","koaza":"","lat":34.928245,"lng":136.936991,"zip":"4750007"},{"town":"西大矢知町二丁目","koaza":"","lat":34.92789,"lng":136.93863,"zip":"4750007"},{"town":"西大矢知町三丁目","koaza":"","lat":34.924244,"lng":136.936451,"zip":"4750007"},{"town":"西大矢知町四丁目","koaza":"","lat":34.921207,"lng":136.935875,"zip":"4750007"},{"town":"西億田町","koaza":"","lat":34.894332,"lng":136.953701,"zip":"4750802"},{"town":"西新町","koaza":"","lat":34.900188,"lng":136.929563,"zip":"4750868"},{"town":"西生見町","koaza":"","lat":34.927425,"lng":136.952574,"zip":"4750016"},{"town":"西端町","koaza":"","lat":34.891201,"lng":136.931778,"zip":"4750884"},{"town":"日東町","koaza":"","lat":34.895774,"lng":136.962017,"zip":"4750033"},{"town":"祢宜町","koaza":"","lat":34.907024,"lng":136.953036,"zip":"4750038"},{"town":"のぞみが丘一丁目","koaza":"","lat":34.927215,"lng":136.960396,"zip":"4750019"},{"town":"のぞみが丘二丁目","koaza":"","lat":34.926388,"lng":136.958547,"zip":"4750019"},{"town":"のぞみが丘三丁目","koaza":"","lat":34.923789,"lng":136.961043,"zip":"4750019"},{"town":"白山町二丁目","koaza":"","lat":34.891548,"lng":136.922901,"zip":"4750912"},{"town":"白山町三丁目","koaza":"","lat":34.891537,"lng":136.919845,"zip":"4750912"},{"town":"白山町四丁目","koaza":"","lat":34.894078,"lng":136.921178,"zip":"4750912"},{"town":"白山町五丁目","koaza":"","lat":34.89418,"lng":136.916205,"zip":"4750912"},{"town":"兀山町","koaza":"","lat":34.919361,"lng":136.935443,"zip":"4750077"},{"town":"畑合町","koaza":"","lat":34.887052,"lng":136.926583,"zip":"4750847"},{"town":"八軒町","koaza":"","lat":34.897006,"lng":136.945714,"zip":"4750807"},{"town":"花園町一丁目","koaza":"","lat":34.873729,"lng":136.914406,"zip":"4750833"},{"town":"花園町二丁目","koaza":"","lat":34.870117,"lng":136.913871,"zip":"4750833"},{"town":"花園町三丁目","koaza":"","lat":34.873727,"lng":136.910911,"zip":"4750833"},{"town":"花園町四丁目","koaza":"","lat":34.873906,"lng":136.907088,"zip":"4750833"},{"town":"花園町五丁目","koaza":"","lat":34.870999,"lng":136.908425,"zip":"4750833"},{"town":"花園町六丁目","koaza":"","lat":34.873219,"lng":136.902935,"zip":"4750833"},{"town":"花田町一丁目","koaza":"","lat":34.91215,"lng":136.955979,"zip":"4750088"},{"town":"花田町二丁目","koaza":"","lat":34.912239,"lng":136.953151,"zip":"4750088"},{"town":"花田町三丁目","koaza":"","lat":34.912214,"lng":136.950967,"zip":"4750088"},{"town":"浜田町一丁目","koaza":"","lat":34.904219,"lng":136.949441,"zip":"4750805"},{"town":"浜田町二丁目","koaza":"","lat":34.9032,"lng":136.945885,"zip":"4750805"},{"town":"浜田町三丁目","koaza":"","lat":34.902294,"lng":136.939883,"zip":"4750805"},{"town":"浜町","koaza":"","lat":34.888963,"lng":136.934519,"zip":"4750822"},{"town":"柊町一丁目","koaza":"","lat":34.901963,"lng":136.919082,"zip":"4750916"},{"town":"柊町二丁目","koaza":"","lat":34.903032,"lng":136.91661,"zip":"4750916"},{"town":"柊町三丁目","koaza":"","lat":34.901063,"lng":136.914654,"zip":"4750916"},{"town":"柊町四丁目","koaza":"","lat":34.903137,"lng":136.911934,"zip":"4750916"},{"town":"柊町五丁目","koaza":"","lat":34.900686,"lng":136.910066,"zip":"4750916"},{"town":"東大矢知町一丁目","koaza":"","lat":34.932145,"lng":136.942422,"zip":"4750003"},{"town":"東大矢知町二丁目","koaza":"","lat":34.93165,"lng":136.945254,"zip":"4750003"},{"town":"東大矢知町三丁目","koaza":"","lat":34.930838,"lng":136.948621,"zip":"4750003"},{"town":"東億田町","koaza":"","lat":34.897563,"lng":136.956978,"zip":"4750034"},{"town":"東新町","koaza":"","lat":34.900158,"lng":136.931504,"zip":"4750861"},{"town":"東天王町一丁目","koaza":"","lat":34.897044,"lng":136.931794,"zip":"4750876"},{"town":"東天王町二丁目","koaza":"","lat":34.895678,"lng":136.931495,"zip":"4750876"},{"town":"東生見町","koaza":"","lat":34.927509,"lng":136.955298,"zip":"4750012"},{"town":"東浜町一丁目","koaza":"","lat":34.889257,"lng":136.93637,"zip":"4750813"},{"town":"東浜町二丁目","koaza":"","lat":34.88652,"lng":136.936148,"zip":"4750813"},{"town":"東本町一丁目","koaza":"","lat":34.897643,"lng":136.93484,"zip":"4750878"},{"town":"東本町二丁目","koaza":"","lat":34.895876,"lng":136.934396,"zip":"4750878"},{"town":"彦洲町一丁目","koaza":"","lat":34.888122,"lng":136.903978,"zip":"4750975"},{"town":"彦洲町二丁目","koaza":"","lat":34.88549,"lng":136.904052,"zip":"4750975"},{"town":"彦洲町三丁目","koaza":"","lat":34.887514,"lng":136.901281,"zip":"4750975"},{"town":"彦洲町四丁目","koaza":"","lat":34.891659,"lng":136.900492,"zip":"4750975"},{"town":"日ノ出町","koaza":"","lat":34.888767,"lng":136.937763,"zip":"4750819"},{"town":"平井町一丁目","koaza":"","lat":34.910372,"lng":136.897403,"zip":"4750964"},{"town":"平井町二丁目","koaza":"","lat":34.908144,"lng":136.897554,"zip":"4750964"},{"town":"平井町三丁目","koaza":"","lat":34.906753,"lng":136.897201,"zip":"4750964"},{"town":"平井町四丁目","koaza":"","lat":34.904489,"lng":136.897232,"zip":"4750964"},{"town":"平井町五丁目","koaza":"","lat":34.907045,"lng":136.895282,"zip":"4750964"},{"town":"平井町六丁目","koaza":"","lat":34.910084,"lng":136.895125,"zip":"4750964"},{"town":"平井町七丁目","koaza":"","lat":34.911562,"lng":136.895843,"zip":"4750964"},{"town":"平井町八丁目","koaza":"","lat":34.91237,"lng":136.897386,"zip":"4750964"},{"town":"平地町一丁目","koaza":"","lat":34.915756,"lng":136.956949,"zip":"4750081"},{"town":"平地町二丁目","koaza":"","lat":34.916524,"lng":136.954672,"zip":"4750081"},{"town":"平地町三丁目","koaza":"","lat":34.914498,"lng":136.954702,"zip":"4750081"},{"town":"平地町四丁目","koaza":"","lat":34.915247,"lng":136.952467,"zip":"4750081"},{"town":"平地町五丁目","koaza":"","lat":34.919387,"lng":136.954204,"zip":"4750081"},{"town":"平地馬場町一丁目","koaza":"","lat":34.925901,"lng":136.956602,"zip":"4750013"},{"town":"平地馬場町二丁目","koaza":"","lat":34.924551,"lng":136.956068,"zip":"4750013"},{"town":"深谷町","koaza":"","lat":34.900683,"lng":136.900493,"zip":"4750971"},{"town":"福地町","koaza":"","lat":34.895102,"lng":136.900065,"zip":"4750978"},{"town":"冨士ケ丘五丁目","koaza":"","lat":34.873044,"lng":136.90045,"zip":"4750834"},{"town":"冨士ケ丘六丁目","koaza":"","lat":34.874311,"lng":136.900109,"zip":"4750834"},{"town":"船入町","koaza":"","lat":34.889941,"lng":136.934139,"zip":"4750821"},{"town":"平和町一丁目","koaza":"","lat":34.910294,"lng":136.903492,"zip":"4750963"},{"town":"平和町二丁目","koaza":"","lat":34.910241,"lng":136.901559,"zip":"4750963"},{"town":"平和町三丁目","koaza":"","lat":34.906884,"lng":136.902135,"zip":"4750963"},{"town":"平和町四丁目","koaza":"","lat":34.904167,"lng":136.899761,"zip":"4750963"},{"town":"平和町五丁目","koaza":"","lat":34.9072,"lng":136.89921,"zip":"4750963"},{"town":"平和町六丁目","koaza":"","lat":34.909617,"lng":136.899416,"zip":"4750963"},{"town":"平和町七丁目","koaza":"","lat":34.911867,"lng":136.899814,"zip":"4750963"},{"town":"平和町八丁目","koaza":"","lat":34.91317,"lng":136.901581,"zip":"4750963"},{"town":"宝来町一丁目","koaza":"","lat":34.90987,"lng":136.887308,"zip":"4750951"},{"town":"宝来町二丁目","koaza":"","lat":34.907144,"lng":136.888237,"zip":"4750951"},{"town":"宝来町三丁目","koaza":"","lat":34.907602,"lng":136.886389,"zip":"4750951"},{"town":"宝来町四丁目","koaza":"","lat":34.907716,"lng":136.883052,"zip":"4750951"},{"town":"宝来町五丁目","koaza":"","lat":34.909463,"lng":136.883851,"zip":"4750951"},{"town":"宝来町六丁目","koaza":"","lat":34.911609,"lng":136.885145,"zip":"4750951"},{"town":"宝来町七丁目","koaza":"","lat":34.911347,"lng":136.882817,"zip":"4750951"},{"town":"星崎町一丁目","koaza":"","lat":34.897486,"lng":136.922945,"zip":"4750911"},{"town":"星崎町二丁目","koaza":"","lat":34.89861,"lng":136.920996,"zip":"4750911"},{"town":"星崎町三丁目","koaza":"","lat":34.898592,"lng":136.924188,"zip":"4750911"},{"town":"堀崎町一丁目","koaza":"","lat":34.898503,"lng":136.929369,"zip":"4750851"},{"town":"堀崎町二丁目","koaza":"","lat":34.89728,"lng":136.928983,"zip":"4750851"},{"town":"本町一丁目","koaza":"","lat":34.901673,"lng":136.934769,"zip":"4750871"},{"town":"本町二丁目","koaza":"","lat":34.899287,"lng":136.935742,"zip":"4750871"},{"town":"本町三丁目","koaza":"","lat":34.899075,"lng":136.934536,"zip":"4750871"},{"town":"本町四丁目","koaza":"","lat":34.898641,"lng":136.933941,"zip":"4750871"},{"town":"本町五丁目","koaza":"","lat":34.898025,"lng":136.933686,"zip":"4750871"},{"town":"本町六丁目","koaza":"","lat":34.897648,"lng":136.933049,"zip":"4750871"},{"town":"本町七丁目","koaza":"","lat":34.896719,"lng":136.933167,"zip":"4750871"},{"town":"前潟町","koaza":"","lat":34.878755,"lng":136.929194,"zip":"4750825"},{"town":"前崎西町","koaza":"","lat":34.897853,"lng":136.926481,"zip":"4750864"},{"town":"前崎東町","koaza":"","lat":34.897841,"lng":136.92783,"zip":"4750863"},{"town":"前田町","koaza":"","lat":34.913636,"lng":136.956709,"zip":"4750082"},{"town":"松堀町","koaza":"","lat":34.898633,"lng":136.89577,"zip":"4750942"},{"town":"瑞穂町十丁目","koaza":"","lat":34.891618,"lng":136.943813,"zip":"4750828"},{"town":"瑞穂町一丁目","koaza":"","lat":34.892604,"lng":136.945807,"zip":"4750828"},{"town":"瑞穂町二丁目","koaza":"","lat":34.888538,"lng":136.948698,"zip":"4750828"},{"town":"瑞穂町三丁目","koaza":"","lat":34.889378,"lng":136.945584,"zip":"4750828"},{"town":"瑞穂町四丁目","koaza":"","lat":34.885812,"lng":136.946166,"zip":"4750828"},{"town":"瑞穂町五丁目","koaza":"","lat":34.888108,"lng":136.94362,"zip":"4750828"},{"town":"瑞穂町六丁目","koaza":"","lat":34.885815,"lng":136.942434,"zip":"4750828"},{"town":"瑞穂町七丁目","koaza":"","lat":34.885528,"lng":136.938866,"zip":"4750828"},{"town":"瑞穂町八丁目","koaza":"","lat":34.887499,"lng":136.940377,"zip":"4750828"},{"town":"瑞穂町九丁目","koaza":"","lat":34.889468,"lng":136.941272,"zip":"4750828"},{"town":"三ツ池町","koaza":"","lat":34.908101,"lng":136.872165,"zip":"4750956"},{"town":"緑ケ丘十丁目","koaza":"","lat":34.935771,"lng":136.953314,"zip":"4750002"},{"town":"緑ケ丘十一丁目","koaza":"","lat":34.937411,"lng":136.953854,"zip":"4750002"},{"town":"緑ケ丘十二丁目","koaza":"","lat":34.937161,"lng":136.952092,"zip":"4750002"},{"town":"緑ケ丘十三丁目","koaza":"","lat":34.938759,"lng":136.950912,"zip":"4750002"},{"town":"緑ケ丘一丁目","koaza":"","lat":34.930155,"lng":136.951379,"zip":"4750002"},{"town":"緑ケ丘二丁目","koaza":"","lat":34.931251,"lng":136.951866,"zip":"4750002"},{"town":"緑ケ丘三丁目","koaza":"","lat":34.933032,"lng":136.95267,"zip":"4750002"},{"town":"緑ケ丘四丁目","koaza":"","lat":34.933939,"lng":136.953247,"zip":"4750002"},{"town":"緑ケ丘五丁目","koaza":"","lat":34.9335,"lng":136.950805,"zip":"4750002"},{"town":"緑ケ丘六丁目","koaza":"","lat":34.93374,"lng":136.948849,"zip":"4750002"},{"town":"緑ケ丘七丁目","koaza":"","lat":34.934611,"lng":136.946737,"zip":"4750002"},{"town":"緑ケ丘八丁目","koaza":"","lat":34.936,"lng":136.94855,"zip":"4750002"},{"town":"緑ケ丘九丁目","koaza":"","lat":34.936158,"lng":136.950581,"zip":"4750002"},{"town":"港本町一丁目","koaza":"","lat":34.888861,"lng":136.932448,"zip":"4750827"},{"town":"港本町二丁目","koaza":"","lat":34.888099,"lng":136.931383,"zip":"4750827"},{"town":"港本町三丁目","koaza":"","lat":34.886998,"lng":136.93044,"zip":"4750827"},{"town":"港本町四丁目","koaza":"","lat":34.886347,"lng":136.929473,"zip":"4750827"},{"town":"港町一丁目","koaza":"","lat":34.887473,"lng":136.934295,"zip":"4750823"},{"town":"港町二丁目","koaza":"","lat":34.885559,"lng":136.934694,"zip":"4750823"},{"town":"港町三丁目","koaza":"","lat":34.88417,"lng":136.933989,"zip":"4750823"},{"town":"港町四丁目","koaza":"","lat":34.880613,"lng":136.93854,"zip":"4750823"},{"town":"南大矢知町一丁目","koaza":"","lat":34.929087,"lng":136.940976,"zip":"4750006"},{"town":"南大矢知町二丁目","koaza":"","lat":34.926085,"lng":136.941482,"zip":"4750006"},{"town":"南大矢知町三丁目","koaza":"","lat":34.924836,"lng":136.940508,"zip":"4750006"},{"town":"南大矢知町四丁目","koaza":"","lat":34.923552,"lng":136.938909,"zip":"4750006"},{"town":"南二ツ坂町一丁目","koaza":"","lat":34.89035,"lng":136.909733,"zip":"4750926"},{"town":"南二ツ坂町二丁目","koaza":"","lat":34.8915,"lng":136.910276,"zip":"4750926"},{"town":"南本町一丁目","koaza":"","lat":34.89125,"lng":136.932676,"zip":"4750882"},{"town":"南本町二丁目","koaza":"","lat":34.88992,"lng":136.932566,"zip":"4750882"},{"town":"美原町一丁目","koaza":"","lat":34.917896,"lng":136.946482,"zip":"4750073"},{"town":"美原町二丁目","koaza":"","lat":34.92045,"lng":136.947719,"zip":"4750073"},{"town":"宮路町","koaza":"","lat":34.903171,"lng":136.92613,"zip":"4750902"},{"town":"宮本町一丁目","koaza":"","lat":34.886189,"lng":136.914702,"zip":"4750925"},{"town":"宮本町二丁目","koaza":"","lat":34.884138,"lng":136.914477,"zip":"4750925"},{"town":"宮本町三丁目","koaza":"","lat":34.883327,"lng":136.9126,"zip":"4750925"},{"town":"宮本町四丁目","koaza":"","lat":34.88681,"lng":136.91182,"zip":"4750925"},{"town":"宮本町五丁目","koaza":"","lat":34.886937,"lng":136.908034,"zip":"4750925"},{"town":"宮本町六丁目","koaza":"","lat":34.883962,"lng":136.908521,"zip":"4750925"},{"town":"妙見町","koaza":"","lat":34.89045,"lng":136.931357,"zip":"4750883"},{"town":"向山町一丁目","koaza":"","lat":34.910953,"lng":136.950509,"zip":"4750084"},{"town":"向山町二丁目","koaza":"","lat":34.908014,"lng":136.950572,"zip":"4750084"},{"town":"向山町三丁目","koaza":"","lat":34.908246,"lng":136.95266,"zip":"4750084"},{"town":"桃山町","koaza":"","lat":34.904346,"lng":136.874,"zip":"4750959"},{"town":"岩滑北浜町","koaza":"","lat":34.911277,"lng":136.932189,"zip":"4750906"},{"town":"岩滑高山町一丁目","koaza":"","lat":34.911609,"lng":136.918179,"zip":"4750962"},{"town":"岩滑高山町二丁目","koaza":"","lat":34.90904,"lng":136.919136,"zip":"4750962"},{"town":"岩滑高山町三丁目","koaza":"","lat":34.907285,"lng":136.919804,"zip":"4750962"},{"town":"岩滑高山町四丁目","koaza":"","lat":34.906475,"lng":136.917266,"zip":"4750962"},{"town":"岩滑高山町五丁目","koaza":"","lat":34.908681,"lng":136.916385,"zip":"4750962"},{"town":"岩滑高山町六丁目","koaza":"","lat":34.909388,"lng":136.914164,"zip":"4750962"},{"town":"岩滑高山町七丁目","koaza":"","lat":34.908336,"lng":136.912982,"zip":"4750962"},{"town":"岩滑高山町八丁目","koaza":"","lat":34.905726,"lng":136.914193,"zip":"4750962"},{"town":"岩滑中町一丁目","koaza":"","lat":34.911593,"lng":136.924206,"zip":"4750961"},{"town":"岩滑中町二丁目","koaza":"","lat":34.909326,"lng":136.923876,"zip":"4750961"},{"town":"岩滑中町三丁目","koaza":"","lat":34.907562,"lng":136.924113,"zip":"4750961"},{"town":"岩滑中町四丁目","koaza":"","lat":34.905764,"lng":136.923536,"zip":"4750961"},{"town":"岩滑中町五丁目","koaza":"","lat":34.90758,"lng":136.921681,"zip":"4750961"},{"town":"岩滑中町六丁目","koaza":"","lat":34.909689,"lng":136.921245,"zip":"4750961"},{"town":"岩滑中町七丁目","koaza":"","lat":34.911348,"lng":136.921711,"zip":"4750961"},{"town":"岩滑西町一丁目","koaza":"","lat":34.908455,"lng":136.911351,"zip":"4750966"},{"town":"岩滑西町二丁目","koaza":"","lat":34.905763,"lng":136.910066,"zip":"4750966"},{"town":"岩滑西町三丁目","koaza":"","lat":34.907216,"lng":136.907783,"zip":"4750966"},{"town":"岩滑西町四丁目","koaza":"","lat":34.909676,"lng":136.908432,"zip":"4750966"},{"town":"岩滑西町五丁目","koaza":"","lat":34.910339,"lng":136.911775,"zip":"4750966"},{"town":"岩滑西町六丁目","koaza":"","lat":34.911495,"lng":136.908701,"zip":"4750966"},{"town":"岩滑西町七丁目","koaza":"","lat":34.912192,"lng":136.905188,"zip":"4750966"},{"town":"岩滑西町八丁目","koaza":"","lat":34.910208,"lng":136.905255,"zip":"4750966"},{"town":"岩滑西町九丁目","koaza":"","lat":34.904137,"lng":136.904571,"zip":"4750966"},{"town":"岩滑東町一丁目","koaza":"","lat":34.909898,"lng":136.930132,"zip":"4750905"},{"town":"岩滑東町二丁目","koaza":"","lat":34.912248,"lng":136.925876,"zip":"4750905"},{"town":"岩滑東町三丁目","koaza":"","lat":34.910619,"lng":136.927043,"zip":"4750905"},{"town":"岩滑東町四丁目","koaza":"","lat":34.908885,"lng":136.927181,"zip":"4750905"},{"town":"岩滑東町五丁目","koaza":"","lat":34.906188,"lng":136.926776,"zip":"4750905"},{"town":"岩滑南浜町","koaza":"","lat":34.90899,"lng":136.934848,"zip":"4750901"},{"town":"山代町一丁目","koaza":"","lat":34.890675,"lng":136.906998,"zip":"4750974"},{"town":"山代町二丁目","koaza":"","lat":34.894411,"lng":136.907537,"zip":"4750974"},{"town":"山代町三丁目","koaza":"","lat":34.892475,"lng":136.905539,"zip":"4750974"},{"town":"山代町四丁目","koaza":"","lat":34.891903,"lng":136.903551,"zip":"4750974"},{"town":"有楽町一丁目","koaza":"","lat":34.88179,"lng":136.920604,"zip":"4750837"},{"town":"有楽町二丁目","koaza":"","lat":34.880174,"lng":136.92121,"zip":"4750837"},{"town":"有楽町三丁目","koaza":"","lat":34.878741,"lng":136.92094,"zip":"4750837"},{"town":"有楽町四丁目","koaza":"","lat":34.878508,"lng":136.917751,"zip":"4750837"},{"town":"有楽町五丁目","koaza":"","lat":34.877349,"lng":136.919128,"zip":"4750837"},{"town":"有楽町六丁目","koaza":"","lat":34.875166,"lng":136.918516,"zip":"4750837"},{"town":"有楽町七丁目","koaza":"","lat":34.873016,"lng":136.917935,"zip":"4750837"},{"town":"有楽町八丁目","koaza":"","lat":34.870155,"lng":136.917275,"zip":"4750837"},{"town":"横川町一丁目","koaza":"","lat":34.928783,"lng":136.943325,"zip":"4750005"},{"town":"横川町二丁目","koaza":"","lat":34.926007,"lng":136.944258,"zip":"4750005"},{"town":"横川町三丁目","koaza":"","lat":34.921857,"lng":136.945367,"zip":"4750005"},{"town":"横松上町","koaza":"","lat":34.915592,"lng":136.934783,"zip":"4750076"},{"town":"横山町","koaza":"","lat":34.899957,"lng":136.887365,"zip":"4750946"},{"town":"葭谷町一丁目","koaza":"","lat":34.894262,"lng":136.90372,"zip":"4750973"},{"town":"葭谷町二丁目","koaza":"","lat":34.89499,"lng":136.902187,"zip":"4750973"},{"town":"四方木町","koaza":"","lat":34.883519,"lng":136.888942,"zip":"4750939"},{"town":"白山町一丁目","koaza":"","lat":34.893832,"lng":136.923946,"zip":"4750912"},{"town":"雁宿町一丁目","koaza":"","lat":34.896125,"lng":136.923703,"zip":"4750918"},{"town":"昭和町一丁目","koaza":"","lat":34.893576,"lng":136.92551,"zip":"4750922"},{"town":"泉町","koaza":"","lat":34.895399,"lng":136.926669,"zip":"4750858"},{"town":"広小路町","koaza":"","lat":34.893944,"lng":136.926981,"zip":"4750857"},{"town":"山ノ神町","koaza":"","lat":34.891832,"lng":136.931456,"zip":"4750885"},{"town":"南末広町","koaza":"","lat":34.893177,"lng":136.929067,"zip":"4750853"},{"town":"山崎町","koaza":"","lat":34.894937,"lng":136.931341,"zip":"4750875"},{"town":"北末広町","koaza":"","lat":34.894956,"lng":136.929573,"zip":"4750852"},{"town":"新川町","koaza":"","lat":34.892889,"lng":136.931312,"zip":"4750886"},{"town":"御幸町","koaza":"","lat":34.89407,"lng":136.931234,"zip":"4750887"},{"town":"協和町一丁目","koaza":"","lat":34.890675,"lng":136.929883,"zip":"4750854"},{"town":"中町一丁目","koaza":"","lat":34.891814,"lng":136.929078,"zip":"4750855"},{"town":"大和町二丁目","koaza":"","lat":34.889571,"lng":136.925691,"zip":"4750841"},{"town":"昭和町二丁目","koaza":"","lat":34.890135,"lng":136.923459,"zip":"4750922"},{"town":"更生町一丁目","koaza":"","lat":34.892419,"lng":136.926347,"zip":"4750856"},{"town":"大和町一丁目","koaza":"","lat":34.890211,"lng":136.92497,"zip":"4750841"},{"town":"更生町二丁目","koaza":"","lat":34.891785,"lng":136.927443,"zip":"4750856"},{"town":"中町二丁目","koaza":"","lat":34.890339,"lng":136.927969,"zip":"4750855"},{"town":"中町三丁目","koaza":"","lat":34.889402,"lng":136.927054,"zip":"4750855"}]