[{"town":"青葉台","koaza":"","lat":35.227782,"lng":136.994092,"zip":"4630815"},{"town":"青山台","koaza":"","lat":35.229325,"lng":137.015779,"zip":"4630805"},{"town":"天子田一丁目","koaza":"","lat":35.197505,"lng":136.998596,"zip":"4630037"},{"town":"天子田二丁目","koaza":"","lat":35.199044,"lng":137.003865,"zip":"4630037"},{"town":"天子田三丁目","koaza":"","lat":35.200031,"lng":137.008705,"zip":"4630037"},{"town":"天子田四丁目","koaza":"","lat":35.199365,"lng":137.012272,"zip":"4630037"},{"town":"泉が丘","koaza":"","lat":35.23415,"lng":137.013907,"zip":"4630804"},{"town":"市場","koaza":"","lat":35.196856,"lng":136.950119,"zip":"4630075"},{"town":"今尻町","koaza":"","lat":35.203807,"lng":137.008985,"zip":"4630023"},{"town":"大字牛牧","koaza":"","lat":35.218027,"lng":136.988445,"zip":"4630000"},{"town":"大字小幡","koaza":"","lat":35.216556,"lng":136.991346,"zip":"4630000"},{"town":"大字上志段味","koaza":"","lat":35.24887,"lng":137.046853,"zip":"4630000"},{"town":"大字川","koaza":"","lat":35.216805,"lng":136.95864,"zip":"4630000"},{"town":"大字吉根","koaza":"","lat":35.225169,"lng":137.00231,"zip":"4630000"},{"town":"大字下志段味","koaza":"","lat":35.241391,"lng":137.016946,"zip":"4630000"},{"town":"大字瀬古","koaza":"","lat":35.215008,"lng":136.934879,"zip":"4630000"},{"town":"大字中志段味","koaza":"","lat":35.24463,"lng":137.030957,"zip":"4630000"},{"town":"太田井","koaza":"","lat":35.197565,"lng":136.98872,"zip":"4630044"},{"town":"大谷町","koaza":"","lat":35.200638,"lng":136.984021,"zip":"4630041"},{"town":"大牧町","koaza":"","lat":35.203065,"lng":136.95948,"zip":"4630085"},{"town":"大森一丁目","koaza":"","lat":35.203016,"lng":136.994635,"zip":"4630021"},{"town":"大森二丁目","koaza":"","lat":35.208688,"lng":136.993212,"zip":"4630021"},{"town":"大森三丁目","koaza":"","lat":35.207324,"lng":136.999446,"zip":"4630021"},{"town":"大森四丁目","koaza":"","lat":35.204282,"lng":136.999412,"zip":"4630021"},{"town":"大森五丁目","koaza":"","lat":35.208415,"lng":137.003615,"zip":"4630021"},{"town":"大森北一丁目","koaza":"","lat":35.220221,"lng":137.005249,"zip":"4630802"},{"town":"大森北二丁目","koaza":"","lat":35.223419,"lng":137.009991,"zip":"4630802"},{"town":"大森八龍一丁目","koaza":"","lat":35.214178,"lng":136.999756,"zip":"4630028"},{"town":"大森八龍二丁目","koaza":"","lat":35.217358,"lng":136.999033,"zip":"4630028"},{"town":"大屋敷","koaza":"","lat":35.20269,"lng":136.965598,"zip":"4630016"},{"town":"小幡一丁目","koaza":"","lat":35.202931,"lng":136.977844,"zip":"4630011"},{"town":"小幡二丁目","koaza":"","lat":35.206522,"lng":136.978058,"zip":"4630011"},{"town":"小幡三丁目","koaza":"","lat":35.210057,"lng":136.979695,"zip":"4630011"},{"town":"小幡四丁目","koaza":"","lat":35.207621,"lng":136.982236,"zip":"4630011"},{"town":"小幡五丁目","koaza":"","lat":35.203706,"lng":136.982655,"zip":"4630011"},{"town":"小幡太田","koaza":"","lat":35.193534,"lng":136.977482,"zip":"4630051"},{"town":"小幡北","koaza":"","lat":35.214427,"lng":136.985785,"zip":"4630008"},{"town":"小幡常燈","koaza":"","lat":35.197588,"lng":136.973641,"zip":"4630047"},{"town":"小幡千代田","koaza":"","lat":35.19294,"lng":136.972537,"zip":"4630053"},{"town":"小幡中一丁目","koaza":"","lat":35.201023,"lng":136.972516,"zip":"4630013"},{"town":"小幡中二丁目","koaza":"","lat":35.204279,"lng":136.972558,"zip":"4630013"},{"town":"小幡中三丁目","koaza":"","lat":35.206917,"lng":136.972578,"zip":"4630013"},{"town":"小幡南一丁目","koaza":"","lat":35.198383,"lng":136.976066,"zip":"4630048"},{"town":"小幡南二丁目","koaza":"","lat":35.1992,"lng":136.978669,"zip":"4630048"},{"town":"小幡南三丁目","koaza":"","lat":35.200012,"lng":136.981257,"zip":"4630048"},{"town":"小幡宮ノ腰","koaza":"","lat":35.19329,"lng":136.975337,"zip":"4630052"},{"town":"金屋一丁目","koaza":"","lat":35.204231,"lng":136.951521,"zip":"4630072"},{"town":"金屋二丁目","koaza":"","lat":35.203993,"lng":136.955714,"zip":"4630072"},{"town":"川上町","koaza":"","lat":35.215576,"lng":136.97198,"zip":"4630091"},{"town":"川北町","koaza":"","lat":35.213306,"lng":136.963736,"zip":"4630098"},{"town":"川西一丁目","koaza":"","lat":35.210462,"lng":136.929906,"zip":"4630080"},{"town":"川西二丁目","koaza":"","lat":35.213147,"lng":136.930843,"zip":"4630080"},{"town":"川東山","koaza":"","lat":35.218936,"lng":136.978601,"zip":"4630006"},{"town":"川宮町","koaza":"","lat":35.212407,"lng":136.960524,"zip":"4630081"},{"town":"川村町","koaza":"","lat":35.212266,"lng":136.966176,"zip":"4630097"},{"town":"桔梗平一丁目","koaza":"","lat":35.228586,"lng":136.99323,"zip":"4630814"},{"town":"桔梗平二丁目","koaza":"","lat":35.233682,"lng":136.994982,"zip":"4630814"},{"town":"桔梗平三丁目","koaza":"","lat":35.235425,"lng":136.993284,"zip":"4630814"},{"town":"喜多山一丁目","koaza":"","lat":35.205291,"lng":136.990407,"zip":"4630017"},{"town":"喜多山二丁目","koaza":"","lat":35.206766,"lng":136.989378,"zip":"4630017"},{"town":"喜多山南","koaza":"","lat":35.201888,"lng":136.989542,"zip":"4630043"},{"town":"吉根一丁目","koaza":"","lat":35.234095,"lng":136.998244,"zip":"4630004"},{"town":"吉根二丁目","koaza":"","lat":35.2365,"lng":137.000502,"zip":"4630004"},{"town":"吉根三丁目","koaza":"","lat":35.238144,"lng":136.997756,"zip":"4630004"},{"town":"吉根南","koaza":"","lat":35.232337,"lng":136.999361,"zip":"4630813"},{"town":"幸心一丁目","koaza":"","lat":35.2065,"lng":136.945533,"zip":"4630079"},{"town":"幸心二丁目","koaza":"","lat":35.209805,"lng":136.947316,"zip":"4630079"},{"town":"幸心三丁目","koaza":"","lat":35.214326,"lng":136.949429,"zip":"4630079"},{"town":"幸心四丁目","koaza":"","lat":35.213091,"lng":136.952682,"zip":"4630079"},{"town":"御膳洞","koaza":"","lat":35.212785,"lng":137.002956,"zip":"4630029"},{"town":"小六町","koaza":"","lat":35.192442,"lng":136.968128,"zip":"4630054"},{"town":"笹ヶ根一丁目","koaza":"","lat":35.231479,"lng":137.005183,"zip":"4630812"},{"town":"笹ヶ根二丁目","koaza":"","lat":35.232927,"lng":137.003834,"zip":"4630812"},{"town":"笹ヶ根三丁目","koaza":"","lat":35.23477,"lng":137.003107,"zip":"4630812"},{"town":"更屋敷","koaza":"","lat":35.192711,"lng":136.959299,"zip":"4630064"},{"town":"四軒家一丁目","koaza":"","lat":35.194795,"lng":137.011912,"zip":"4630034"},{"town":"四軒家二丁目","koaza":"","lat":35.191737,"lng":137.014887,"zip":"4630034"},{"town":"城南町","koaza":"","lat":35.201161,"lng":136.968061,"zip":"4630014"},{"town":"白沢町","koaza":"","lat":35.213057,"lng":136.971314,"zip":"4630092"},{"town":"城土町","koaza":"","lat":35.212943,"lng":136.976027,"zip":"4630093"},{"town":"新城","koaza":"","lat":35.196799,"lng":136.969071,"zip":"4630056"},{"town":"新守町","koaza":"","lat":35.208273,"lng":136.953142,"zip":"4630071"},{"town":"新守西","koaza":"","lat":35.208722,"lng":136.950354,"zip":"4630069"},{"town":"新守山","koaza":"","lat":35.202576,"lng":136.94472,"zip":"4630070"},{"town":"翠松園一丁目","koaza":"","lat":35.210423,"lng":136.988086,"zip":"4630010"},{"town":"翠松園二丁目","koaza":"","lat":35.211483,"lng":136.99172,"zip":"4630010"},{"town":"翠松園三丁目","koaza":"","lat":35.214645,"lng":136.993222,"zip":"4630010"},{"town":"瀬古一丁目","koaza":"","lat":35.209715,"lng":136.934237,"zip":"4630078"},{"town":"瀬古二丁目","koaza":"","lat":35.214072,"lng":136.93565,"zip":"4630078"},{"town":"瀬古三丁目","koaza":"","lat":35.214225,"lng":136.942305,"zip":"4630078"},{"town":"瀬古東一丁目","koaza":"","lat":35.206432,"lng":136.941158,"zip":"4630090"},{"town":"瀬古東二丁目","koaza":"","lat":35.208361,"lng":136.942773,"zip":"4630090"},{"town":"瀬古東三丁目","koaza":"","lat":35.211552,"lng":136.941812,"zip":"4630090"},{"town":"大永寺町","koaza":"","lat":35.207626,"lng":136.958457,"zip":"4630087"},{"town":"高島町","koaza":"","lat":35.209839,"lng":136.970943,"zip":"4630095"},{"town":"茶臼前","koaza":"","lat":35.205749,"lng":136.985901,"zip":"4630012"},{"town":"長栄","koaza":"","lat":35.196081,"lng":136.963784,"zip":"4630062"},{"town":"鼓が丘一丁目","koaza":"","lat":35.228333,"lng":137.010491,"zip":"4630807"},{"town":"鼓が丘二丁目","koaza":"","lat":35.23143,"lng":137.011052,"zip":"4630807"},{"town":"鳥神町","koaza":"","lat":35.208046,"lng":136.955791,"zip":"4630088"},{"town":"鳥羽見一丁目","koaza":"","lat":35.198659,"lng":136.946862,"zip":"4630076"},{"town":"鳥羽見二丁目","koaza":"","lat":35.201569,"lng":136.949627,"zip":"4630076"},{"town":"鳥羽見三丁目","koaza":"","lat":35.1992,"lng":136.950997,"zip":"4630076"},{"town":"苗代一丁目","koaza":"","lat":35.193937,"lng":136.979866,"zip":"4630046"},{"town":"苗代二丁目","koaza":"","lat":35.194175,"lng":136.983198,"zip":"4630046"},{"town":"中新","koaza":"","lat":35.197238,"lng":136.971577,"zip":"4630057"},{"town":"永森町","koaza":"","lat":35.206316,"lng":136.960607,"zip":"4630086"},{"town":"西川原町","koaza":"","lat":35.212887,"lng":136.95623,"zip":"4630089"},{"town":"西島町","koaza":"","lat":35.200186,"lng":136.96474,"zip":"4630015"},{"town":"西城一丁目","koaza":"","lat":35.203565,"lng":136.963403,"zip":"4630084"},{"town":"西城二丁目","koaza":"","lat":35.205183,"lng":136.966769,"zip":"4630084"},{"town":"西新","koaza":"","lat":35.196327,"lng":136.966586,"zip":"4630055"},{"town":"廿軒家","koaza":"","lat":35.19581,"lng":136.959458,"zip":"4630065"},{"town":"白山一丁目","koaza":"","lat":35.194525,"lng":137.023375,"zip":"4630032"},{"town":"白山二丁目","koaza":"","lat":35.19614,"lng":137.027875,"zip":"4630032"},{"town":"白山三丁目","koaza":"","lat":35.194783,"lng":137.029217,"zip":"4630032"},{"town":"白山四丁目","koaza":"","lat":35.193362,"lng":137.024049,"zip":"4630032"},{"town":"八反","koaza":"","lat":35.19248,"lng":136.963951,"zip":"4630063"},{"town":"花咲台一丁目","koaza":"","lat":35.233269,"lng":137.007497,"zip":"4630808"},{"town":"花咲台二丁目","koaza":"","lat":35.234839,"lng":137.009823,"zip":"4630808"},{"town":"原境町","koaza":"","lat":35.196103,"lng":136.995063,"zip":"4630038"},{"town":"東山町","koaza":"","lat":35.199519,"lng":136.962847,"zip":"4630061"},{"town":"菱池町","koaza":"","lat":35.196122,"lng":136.985042,"zip":"4630045"},{"town":"日の後","koaza":"","lat":35.237982,"lng":137.012003,"zip":"4630803"},{"town":"平池東","koaza":"","lat":35.236644,"lng":137.006232,"zip":"4630809"},{"town":"深沢一丁目","koaza":"","lat":35.238584,"lng":137.005107,"zip":"4630811"},{"town":"深沢二丁目","koaza":"","lat":35.240772,"lng":137.008889,"zip":"4630811"},{"town":"弁天が丘","koaza":"","lat":35.210849,"lng":136.997152,"zip":"4630027"},{"town":"本地が丘","koaza":"","lat":35.19874,"lng":137.023023,"zip":"4630031"},{"town":"町北","koaza":"","lat":35.198748,"lng":136.953993,"zip":"4630074"},{"town":"町南","koaza":"","lat":35.194543,"lng":136.953578,"zip":"4630066"},{"town":"松坂町","koaza":"","lat":35.215,"lng":136.978684,"zip":"4630007"},{"town":"緑ケ丘","koaza":"","lat":35.211186,"lng":136.9836,"zip":"4630009"},{"town":"向台一丁目","koaza":"","lat":35.195613,"lng":137.000019,"zip":"4630036"},{"town":"向台二丁目","koaza":"","lat":35.19657,"lng":137.005114,"zip":"4630036"},{"town":"向台三丁目","koaza":"","lat":35.197618,"lng":137.009203,"zip":"4630036"},{"town":"村合町","koaza":"","lat":35.206799,"lng":136.963236,"zip":"4630083"},{"town":"村前町","koaza":"","lat":35.207004,"lng":136.965932,"zip":"4630082"},{"town":"元郷一丁目","koaza":"","lat":35.20011,"lng":136.996885,"zip":"4630025"},{"town":"元郷二丁目","koaza":"","lat":35.201591,"lng":137.000848,"zip":"4630025"},{"town":"森孝一丁目","koaza":"","lat":35.193702,"lng":137.003477,"zip":"4630035"},{"town":"森孝二丁目","koaza":"","lat":35.194173,"lng":137.007126,"zip":"4630035"},{"town":"森孝三丁目","koaza":"","lat":35.194671,"lng":137.009722,"zip":"4630035"},{"town":"森孝四丁目","koaza":"","lat":35.191412,"lng":137.009272,"zip":"4630035"},{"town":"森孝東一丁目","koaza":"","lat":35.192113,"lng":137.021901,"zip":"4630033"},{"town":"森孝東二丁目","koaza":"","lat":35.191471,"lng":137.028536,"zip":"4630033"},{"town":"守牧町","koaza":"","lat":35.201534,"lng":136.95359,"zip":"4630073"},{"town":"森宮町","koaza":"","lat":35.209306,"lng":136.964824,"zip":"4630096"},{"town":"守山一丁目","koaza":"","lat":35.19838,"lng":136.955626,"zip":"4630067"},{"town":"守山二丁目","koaza":"","lat":35.200814,"lng":136.958691,"zip":"4630067"},{"town":"守山三丁目","koaza":"","lat":35.198606,"lng":136.95915,"zip":"4630067"},{"town":"八剣一丁目","koaza":"","lat":35.20532,"lng":137.002983,"zip":"4630022"},{"town":"八剣二丁目","koaza":"","lat":35.206505,"lng":137.004988,"zip":"4630022"},{"town":"野萩町","koaza":"","lat":35.201185,"lng":136.986798,"zip":"4630042"},{"town":"藪田町","koaza":"","lat":35.200526,"lng":136.992062,"zip":"4630026"},{"town":"百合が丘","koaza":"","lat":35.227687,"lng":137.012478,"zip":"4630806"},{"town":"竜泉寺一丁目","koaza":"","lat":35.223685,"lng":136.983925,"zip":"4630801"},{"town":"竜泉寺二丁目","koaza":"","lat":35.221482,"lng":136.987308,"zip":"4630801"},{"town":"脇田町","koaza":"","lat":35.20263,"lng":137.004728,"zip":"4630024"},{"town":"大字吉根","koaza":"小屋前","lat":35.237171,"lng":136.991521,"zip":"4630000"},{"town":"大字吉根","koaza":"至来","lat":35.229458,"lng":136.991182,"zip":"4630000"},{"town":"大字吉根","koaza":"階子田","lat":35.229475,"lng":136.996516,"zip":"4630000"},{"town":"大字吉根","koaza":"長廻間","lat":35.226133,"lng":137.003554,"zip":"4630000"},{"town":"大字吉根","koaza":"川田","lat":35.231112,"lng":136.99385,"zip":"4630000"},{"town":"大字吉根","koaza":"川","lat":35.232503,"lng":136.993695,"zip":"4630000"},{"town":"大字吉根","koaza":"溝畑","lat":35.234124,"lng":136.994917,"zip":"4630000"},{"town":"大字吉根","koaza":"中畑","lat":35.236058,"lng":136.995096,"zip":"4630000"},{"town":"大字吉根","koaza":"仲田","lat":35.231156,"lng":136.996472,"zip":"4630000"},{"town":"大字吉根","koaza":"下江","lat":35.237795,"lng":136.996461,"zip":"4630000"},{"town":"大字吉根","koaza":"上島","lat":35.238827,"lng":137.002642,"zip":"4630000"},{"town":"大字吉根","koaza":"太鼓ケ根","lat":35.228523,"lng":137.008745,"zip":"4630000"},{"town":"大字吉根","koaza":"深沢","lat":35.2366,"lng":137.005329,"zip":"4630000"},{"town":"大字下志段味","koaza":"上東禅寺","lat":35.240888,"lng":137.011176,"zip":"4630000"},{"town":"大字下志段味","koaza":"下東禅寺","lat":35.242594,"lng":137.011779,"zip":"4630000"},{"town":"大字下志段味","koaza":"西島","lat":35.244578,"lng":137.011475,"zip":"4630000"},{"town":"大字下志段味","koaza":"落合","lat":35.245486,"lng":137.013693,"zip":"4630000"},{"town":"大字下志段味","koaza":"長筬","lat":35.247576,"lng":137.014131,"zip":"4630000"},{"town":"大字下志段味","koaza":"北畑","lat":35.250299,"lng":137.0134,"zip":"4630000"},{"town":"大字吉根","koaza":"日ノ後","lat":35.238162,"lng":137.013765,"zip":"4630000"},{"town":"大字下志段味","koaza":"小段","lat":35.241652,"lng":137.012794,"zip":"4630000"},{"town":"大字下志段味","koaza":"北荒田","lat":35.241713,"lng":137.013847,"zip":"4630000"},{"town":"大字下志段味","koaza":"生下り","lat":35.238007,"lng":137.01588,"zip":"4630000"},{"town":"大字下志段味","koaza":"池田","lat":35.243641,"lng":137.014717,"zip":"4630000"},{"town":"大字下志段味","koaza":"熊田","lat":35.246997,"lng":137.013941,"zip":"4630000"},{"town":"大字下志段味","koaza":"西ノ原","lat":35.24276,"lng":137.01493,"zip":"4630000"},{"town":"大字下志段味","koaza":"南荒田","lat":35.240429,"lng":137.015868,"zip":"4630000"},{"town":"大字下志段味","koaza":"廻間","lat":35.248374,"lng":137.015304,"zip":"4630000"},{"town":"大字下志段味","koaza":"真光寺","lat":35.25082,"lng":137.014537,"zip":"4630000"},{"town":"大字下志段味","koaza":"濁り池","lat":35.241475,"lng":137.017483,"zip":"4630000"},{"town":"大字中志段味","koaza":"申新田","lat":35.250339,"lng":137.018478,"zip":"4630000"},{"town":"大字下志段味","koaza":"焼田","lat":35.248003,"lng":137.017039,"zip":"4630000"},{"town":"大字下志段味","koaza":"長廻間","lat":35.236915,"lng":137.019198,"zip":"4630000"},{"town":"大字下志段味","koaza":"西新外","lat":35.246318,"lng":137.017149,"zip":"4630000"},{"town":"大字下志段味","koaza":"池段寺","lat":35.24486,"lng":137.016789,"zip":"4630000"},{"town":"大字下志段味","koaza":"長戸","lat":35.242402,"lng":137.018502,"zip":"4630000"},{"town":"大字下志段味","koaza":"前田","lat":35.24954,"lng":137.01792,"zip":"4630000"},{"town":"大字下志段味","koaza":"島ノ口","lat":35.240233,"lng":137.019334,"zip":"4630000"},{"town":"大字下志段味","koaza":"釼当先","lat":35.244128,"lng":137.018457,"zip":"4630000"},{"town":"大字下志段味","koaza":"東新外","lat":35.247618,"lng":137.018492,"zip":"4630000"},{"town":"大字下志段味","koaza":"上野山","lat":35.245572,"lng":137.019653,"zip":"4630000"},{"town":"大字下志段味","koaza":"風越","lat":35.24018,"lng":137.020737,"zip":"4630000"},{"town":"大字下志段味","koaza":"作り道","lat":35.243285,"lng":137.01985,"zip":"4630000"},{"town":"大字下志段味","koaza":"穴ケ洞","lat":35.237435,"lng":137.023308,"zip":"4630000"},{"town":"大字下志段味","koaza":"唐曽","lat":35.246181,"lng":137.020409,"zip":"4630000"},{"town":"大字中志段味","koaza":"大屋敷","lat":35.25057,"lng":137.020057,"zip":"4630000"},{"town":"大字中志段味","koaza":"可良素","lat":35.248373,"lng":137.020672,"zip":"4630000"},{"town":"大字下志段味","koaza":"横堤","lat":35.243941,"lng":137.021258,"zip":"4630000"},{"town":"大字中志段味","koaza":"才井戸流","lat":35.250857,"lng":137.02175,"zip":"4630000"},{"town":"大字下志段味","koaza":"石米","lat":35.245423,"lng":137.021768,"zip":"4630000"},{"town":"大字中志段味","koaza":"西山島","lat":35.250235,"lng":137.022634,"zip":"4630000"},{"town":"大字中志段味","koaza":"湿ケ","lat":35.247664,"lng":137.022504,"zip":"4630000"},{"town":"大字下志段味","koaza":"長根","lat":35.242513,"lng":137.023332,"zip":"4630000"},{"town":"大字下志段味","koaza":"新林","lat":35.240487,"lng":137.022202,"zip":"4630000"},{"town":"大字下志段味","koaza":"東新田","lat":35.244326,"lng":137.023109,"zip":"4630000"},{"town":"大字中志段味","koaza":"西田","lat":35.253354,"lng":137.024297,"zip":"4630000"},{"town":"大字中志段味","koaza":"宮前","lat":35.251221,"lng":137.0255,"zip":"4630000"},{"town":"大字中志段味","koaza":"元屋敷","lat":35.253103,"lng":137.02524,"zip":"4630000"},{"town":"大字中志段味","koaza":"東山島","lat":35.249498,"lng":137.025003,"zip":"4630000"},{"town":"大字中志段味","koaza":"墓前","lat":35.247922,"lng":137.024286,"zip":"4630000"},{"town":"大字中志段味","koaza":"二ツ塚","lat":35.246107,"lng":137.025648,"zip":"4630000"},{"town":"大字下志段味","koaza":"吉田","lat":35.237454,"lng":137.026052,"zip":"4630000"},{"town":"大字中志段味","koaza":"長根","lat":35.241379,"lng":137.026376,"zip":"4630000"},{"town":"大字中志段味","koaza":"西原","lat":35.244197,"lng":137.025948,"zip":"4630000"},{"town":"大字中志段味","koaza":"洞畑","lat":35.248124,"lng":137.025109,"zip":"4630000"},{"town":"大字中志段味","koaza":"沢田","lat":35.253919,"lng":137.027537,"zip":"4630000"},{"town":"大字上志段味","koaza":"安川原","lat":35.256257,"lng":137.02911,"zip":"4630000"},{"town":"大字中志段味","koaza":"富士塚","lat":35.248664,"lng":137.02689,"zip":"4630000"},{"town":"大字中志段味","koaza":"蟹原","lat":35.250855,"lng":137.027185,"zip":"4630000"},{"town":"大字中志段味","koaza":"吉田洞","lat":35.238297,"lng":137.029554,"zip":"4630000"},{"town":"大字中志段味","koaza":"四畝物","lat":35.246931,"lng":137.027741,"zip":"4630000"},{"town":"大字中志段味","koaza":"上寺林","lat":35.249383,"lng":137.030032,"zip":"4630000"},{"town":"大字中志段味","koaza":"大洞口","lat":35.243931,"lng":137.029252,"zip":"4630000"},{"town":"大字中志段味","koaza":"下寺林","lat":35.251858,"lng":137.030513,"zip":"4630000"},{"town":"大字中志段味","koaza":"西荒古","lat":35.248112,"lng":137.029383,"zip":"4630000"},{"town":"大字中志段味","koaza":"曲畷","lat":35.246709,"lng":137.029494,"zip":"4630000"},{"town":"大字中志段味","koaza":"野添","lat":35.253434,"lng":137.029711,"zip":"4630000"},{"town":"大字上志段味","koaza":"庚申","lat":35.253931,"lng":137.030676,"zip":"4630000"},{"town":"大字上志段味","koaza":"蟻塚","lat":35.254933,"lng":137.030508,"zip":"4630000"},{"town":"大字上志段味","koaza":"海東","lat":35.256355,"lng":137.033431,"zip":"4630000"},{"town":"大字中志段味","koaza":"南原","lat":35.241756,"lng":137.033847,"zip":"4630000"},{"town":"大字中志段味","koaza":"唐池","lat":35.252283,"lng":137.030308,"zip":"4630000"},{"town":"大字中志段味","koaza":"東荒古","lat":35.248697,"lng":137.03162,"zip":"4630000"},{"town":"大字中志段味","koaza":"下定納","lat":35.250296,"lng":137.03199,"zip":"4630000"},{"town":"大字上志段味","koaza":"竹ノ腰","lat":35.255493,"lng":137.032842,"zip":"4630000"},{"town":"大字中志段味","koaza":"東原","lat":35.247,"lng":137.031887,"zip":"4630000"},{"town":"大字上志段味","koaza":"道光","lat":35.253437,"lng":137.033266,"zip":"4630000"},{"town":"大字中志段味","koaza":"古山田","lat":35.246757,"lng":137.033723,"zip":"4630000"},{"town":"大字上志段味","koaza":"羽根前","lat":35.253219,"lng":137.034772,"zip":"4630000"},{"town":"大字上志段味","koaza":"中屋敷","lat":35.252116,"lng":137.034686,"zip":"4630000"},{"town":"大字上志段味","koaza":"羽根","lat":35.254575,"lng":137.034634,"zip":"4630000"},{"town":"大字上志段味","koaza":"二之輪","lat":35.248879,"lng":137.034593,"zip":"4630000"},{"town":"大字上志段味","koaza":"樹木","lat":35.250312,"lng":137.034633,"zip":"4630000"},{"town":"大字上志段味","koaza":"上島","lat":35.257407,"lng":137.036906,"zip":"4630000"},{"town":"大字上志段味","koaza":"茂中","lat":35.254854,"lng":137.036106,"zip":"4630000"},{"town":"大字上志段味","koaza":"稲堀田新田","lat":35.24747,"lng":137.037369,"zip":"4630000"},{"town":"大字上志段味","koaza":"東谷","lat":35.251824,"lng":137.046517,"zip":"4630000"},{"town":"大字上志段味","koaza":"前山","lat":35.253818,"lng":137.037802,"zip":"4630000"},{"town":"大字上志段味","koaza":"大久手下","lat":35.250209,"lng":137.037841,"zip":"4630000"},{"town":"大字上志段味","koaza":"深田","lat":35.255112,"lng":137.038298,"zip":"4630000"},{"town":"大字上志段味","koaza":"青里掛","lat":35.253871,"lng":137.040238,"zip":"4630000"},{"town":"大字上志段味","koaza":"馬洗渕","lat":35.255232,"lng":137.039802,"zip":"4630000"},{"town":"大字上志段味","koaza":"東山","lat":35.257621,"lng":137.03983,"zip":"4630000"},{"town":"大字上志段味","koaza":"大塚","lat":35.251679,"lng":137.04154,"zip":"4630000"},{"town":"大字上志段味","koaza":"所下","lat":35.256737,"lng":137.040754,"zip":"4630000"},{"town":"大字上志段味","koaza":"大矢","lat":35.257986,"lng":137.041553,"zip":"4630000"},{"town":"大字上志段味","koaza":"山ノ田","lat":35.257236,"lng":137.042003,"zip":"4630000"},{"town":"大字上志段味","koaza":"洞田","lat":35.25444,"lng":137.042256,"zip":"4630000"},{"town":"大字上志段味","koaza":"寺山","lat":35.25342,"lng":137.043501,"zip":"4630000"},{"town":"大字上志段味","koaza":"白鳥","lat":35.257362,"lng":137.044248,"zip":"4630000"}]