[{"town":"青柳町五丁目","koaza":"","lat":35.161494,"lng":136.939084,"zip":"4640852"},{"town":"青柳町六丁目","koaza":"","lat":35.159491,"lng":136.93849,"zip":"4640852"},{"town":"青柳町七丁目","koaza":"","lat":35.15702,"lng":136.937938,"zip":"4640852"},{"town":"赤坂町一丁目","koaza":"","lat":35.18247,"lng":136.959466,"zip":"4640094"},{"town":"赤坂町二丁目","koaza":"","lat":35.181677,"lng":136.959935,"zip":"4640094"},{"town":"赤坂町三丁目","koaza":"","lat":35.181243,"lng":136.959756,"zip":"4640094"},{"town":"赤坂町四丁目","koaza":"","lat":35.180691,"lng":136.958867,"zip":"4640094"},{"town":"赤坂町五丁目","koaza":"","lat":35.179873,"lng":136.958282,"zip":"4640094"},{"town":"赤坂町六丁目","koaza":"","lat":35.178691,"lng":136.957215,"zip":"4640094"},{"town":"赤坂町七丁目","koaza":"","lat":35.17704,"lng":136.956663,"zip":"4640094"},{"town":"揚羽町一丁目","koaza":"","lat":35.183193,"lng":136.964559,"zip":"4640019"},{"town":"揚羽町二丁目","koaza":"","lat":35.182247,"lng":136.966124,"zip":"4640019"},{"town":"朝岡町一丁目","koaza":"","lat":35.162513,"lng":136.965071,"zip":"4640811"},{"town":"朝岡町二丁目","koaza":"","lat":35.161503,"lng":136.965666,"zip":"4640811"},{"town":"朝岡町三丁目","koaza":"","lat":35.160574,"lng":136.966606,"zip":"4640811"},{"town":"池上町一丁目","koaza":"","lat":35.170634,"lng":136.970448,"zip":"4640029"},{"town":"池上町二丁目","koaza":"","lat":35.169669,"lng":136.972578,"zip":"4640029"},{"town":"池上町三丁目","koaza":"","lat":35.169358,"lng":136.974892,"zip":"4640029"},{"town":"池下一丁目","koaza":"","lat":35.168524,"lng":136.944253,"zip":"4640067"},{"town":"池下二丁目","koaza":"","lat":35.168644,"lng":136.945943,"zip":"4640067"},{"town":"池下町二丁目","koaza":"","lat":35.16834,"lng":136.947929,"zip":"4640066"},{"town":"池園町一丁目","koaza":"","lat":35.160484,"lng":136.963084,"zip":"4640818"},{"town":"池園町二丁目","koaza":"","lat":35.15906,"lng":136.96353,"zip":"4640818"},{"town":"猪高町大字猪子石","koaza":"","lat":35.185423,"lng":136.966909,"zip":"4640000"},{"town":"稲舟通一丁目","koaza":"","lat":35.162819,"lng":136.961814,"zip":"4640824"},{"town":"稲舟通二丁目","koaza":"","lat":35.161042,"lng":136.959527,"zip":"4640824"},{"town":"井上町","koaza":"","lat":35.162462,"lng":136.983331,"zip":"4640026"},{"town":"今池一丁目","koaza":"","lat":35.168448,"lng":136.933626,"zip":"4640850"},{"town":"今池二丁目","koaza":"","lat":35.167156,"lng":136.930226,"zip":"4640850"},{"town":"今池三丁目","koaza":"","lat":35.165162,"lng":136.934211,"zip":"4640850"},{"town":"今池四丁目","koaza":"","lat":35.16981,"lng":136.939181,"zip":"4640850"},{"town":"今池五丁目","koaza":"","lat":35.167094,"lng":136.93921,"zip":"4640850"},{"town":"今池南","koaza":"","lat":35.163905,"lng":136.938345,"zip":"4640851"},{"town":"上野一丁目","koaza":"","lat":35.181759,"lng":136.951849,"zip":"4640082"},{"town":"上野二丁目","koaza":"","lat":35.179776,"lng":136.951642,"zip":"4640082"},{"town":"上野三丁目","koaza":"","lat":35.177666,"lng":136.951159,"zip":"4640082"},{"town":"内山一丁目","koaza":"","lat":35.173227,"lng":136.935816,"zip":"4640075"},{"town":"内山二丁目","koaza":"","lat":35.172395,"lng":136.939457,"zip":"4640075"},{"town":"内山三丁目","koaza":"","lat":35.170985,"lng":136.934425,"zip":"4640075"},{"town":"大久手町五丁目","koaza":"","lat":35.16179,"lng":136.936797,"zip":"4640854"},{"town":"大久手町六丁目","koaza":"","lat":35.160228,"lng":136.936486,"zip":"4640854"},{"town":"大久手町七丁目","koaza":"","lat":35.158248,"lng":136.936124,"zip":"4640854"},{"town":"大島町一丁目","koaza":"","lat":35.160131,"lng":136.952112,"zip":"4640833"},{"town":"大島町二丁目","koaza":"","lat":35.159173,"lng":136.951541,"zip":"4640833"},{"town":"大島町三丁目","koaza":"","lat":35.158247,"lng":136.951143,"zip":"4640833"},{"town":"大島町四丁目","koaza":"","lat":35.157628,"lng":136.951039,"zip":"4640833"},{"town":"丘上町一丁目","koaza":"","lat":35.165361,"lng":136.95195,"zip":"4640837"},{"town":"丘上町二丁目","koaza":"","lat":35.1638,"lng":136.952419,"zip":"4640837"},{"town":"御棚町一丁目","koaza":"","lat":35.163736,"lng":136.949514,"zip":"4640835"},{"town":"御棚町二丁目","koaza":"","lat":35.162678,"lng":136.949903,"zip":"4640835"},{"town":"御棚町三丁目","koaza":"","lat":35.161692,"lng":136.949648,"zip":"4640835"},{"town":"鏡池通一丁目","koaza":"","lat":35.16027,"lng":136.955981,"zip":"4640816"},{"town":"鏡池通二丁目","koaza":"","lat":35.159872,"lng":136.958147,"zip":"4640816"},{"town":"鏡池通三丁目","koaza":"","lat":35.159319,"lng":136.960451,"zip":"4640816"},{"town":"鏡池通四丁目","koaza":"","lat":35.157991,"lng":136.96461,"zip":"4640816"},{"town":"覚王山通七丁目","koaza":"","lat":35.167646,"lng":136.946106,"zip":"4640841"},{"town":"覚王山通八丁目","koaza":"","lat":35.166881,"lng":136.947287,"zip":"4640841"},{"town":"覚王山通九丁目","koaza":"","lat":35.16635,"lng":136.950463,"zip":"4640841"},{"town":"霞ケ丘一丁目","koaza":"","lat":35.179296,"lng":136.962427,"zip":"4640041"},{"town":"霞ケ丘二丁目","koaza":"","lat":35.178358,"lng":136.965191,"zip":"4640041"},{"town":"香流橋一丁目","koaza":"","lat":35.19008,"lng":136.978705,"zip":"4640002"},{"town":"香流橋二丁目","koaza":"","lat":35.190879,"lng":136.98524,"zip":"4640002"},{"town":"鹿子町一丁目","koaza":"","lat":35.167764,"lng":136.972326,"zip":"4640033"},{"town":"鹿子町二丁目","koaza":"","lat":35.167411,"lng":136.971215,"zip":"4640033"},{"town":"鹿子町三丁目","koaza":"","lat":35.167251,"lng":136.96977,"zip":"4640033"},{"town":"鹿子町四丁目","koaza":"","lat":35.166426,"lng":136.969564,"zip":"4640033"},{"town":"鹿子町五丁目","koaza":"","lat":35.165805,"lng":136.969808,"zip":"4640033"},{"town":"鹿子町六丁目","koaza":"","lat":35.165103,"lng":136.969953,"zip":"4640033"},{"town":"鹿子町七丁目","koaza":"","lat":35.164396,"lng":136.969744,"zip":"4640033"},{"town":"鹿子殿","koaza":"","lat":35.176679,"lng":136.973914,"zip":"4640021"},{"town":"萱場一丁目","koaza":"","lat":35.182304,"lng":136.943213,"zip":"4640086"},{"town":"萱場二丁目","koaza":"","lat":35.183292,"lng":136.946622,"zip":"4640086"},{"town":"唐山町一丁目","koaza":"","lat":35.160133,"lng":136.968568,"zip":"4640806"},{"town":"唐山町二丁目","koaza":"","lat":35.159192,"lng":136.970292,"zip":"4640806"},{"town":"唐山町三丁目","koaza":"","lat":35.159471,"lng":136.971697,"zip":"4640806"},{"town":"川崎町一丁目","koaza":"","lat":35.159586,"lng":136.955708,"zip":"4640826"},{"town":"川崎町二丁目","koaza":"","lat":35.159152,"lng":136.957961,"zip":"4640826"},{"town":"観月町一丁目","koaza":"","lat":35.165277,"lng":136.954195,"zip":"4640831"},{"town":"観月町二丁目","koaza":"","lat":35.164575,"lng":136.955359,"zip":"4640831"},{"town":"神田町","koaza":"","lat":35.175655,"lng":136.940408,"zip":"4640077"},{"town":"菊坂町一丁目","koaza":"","lat":35.165499,"lng":136.948417,"zip":"4640836"},{"town":"菊坂町二丁目","koaza":"","lat":35.165026,"lng":136.949353,"zip":"4640836"},{"town":"菊坂町三丁目","koaza":"","lat":35.16486,"lng":136.950535,"zip":"4640836"},{"town":"北千種一丁目","koaza":"","lat":35.179733,"lng":136.943882,"zip":"4640083"},{"town":"北千種二丁目","koaza":"","lat":35.180935,"lng":136.948006,"zip":"4640083"},{"town":"北千種三丁目","koaza":"","lat":35.178564,"lng":136.946878,"zip":"4640083"},{"town":"希望ケ丘一丁目","koaza":"","lat":35.179889,"lng":136.969324,"zip":"4640016"},{"town":"希望ケ丘二丁目","koaza":"","lat":35.178892,"lng":136.967606,"zip":"4640016"},{"town":"希望ケ丘三丁目","koaza":"","lat":35.179346,"lng":136.97202,"zip":"4640016"},{"town":"希望ケ丘四丁目","koaza":"","lat":35.178506,"lng":136.972432,"zip":"4640016"},{"town":"京命一丁目","koaza":"","lat":35.186012,"lng":136.984442,"zip":"4640004"},{"town":"京命二丁目","koaza":"","lat":35.183931,"lng":136.983917,"zip":"4640004"},{"town":"清住町一丁目","koaza":"","lat":35.163206,"lng":136.96885,"zip":"4640034"},{"town":"清住町二丁目","koaza":"","lat":35.163118,"lng":136.971217,"zip":"4640034"},{"town":"清住町三丁目","koaza":"","lat":35.162044,"lng":136.971,"zip":"4640034"},{"town":"桐林町一丁目","koaza":"","lat":35.165691,"lng":136.946847,"zip":"4640842"},{"town":"桐林町二丁目","koaza":"","lat":35.164676,"lng":136.946917,"zip":"4640842"},{"town":"楠元町一丁目","koaza":"","lat":35.167846,"lng":136.961766,"zip":"4640037"},{"town":"楠元町二丁目","koaza":"","lat":35.165838,"lng":136.960989,"zip":"4640037"},{"town":"幸川町一丁目","koaza":"","lat":35.158835,"lng":136.959719,"zip":"4640815"},{"town":"幸川町二丁目","koaza":"","lat":35.158265,"lng":136.961251,"zip":"4640815"},{"town":"幸川町三丁目","koaza":"","lat":35.157441,"lng":136.963094,"zip":"4640815"},{"town":"向陽一丁目","koaza":"","lat":35.170518,"lng":136.947586,"zip":"4640061"},{"town":"向陽町一丁目","koaza":"","lat":35.17121,"lng":136.951873,"zip":"4640062"},{"town":"向陽町二丁目","koaza":"","lat":35.170578,"lng":136.950085,"zip":"4640062"},{"town":"向陽町三丁目","koaza":"","lat":35.169922,"lng":136.948526,"zip":"4640062"},{"town":"古出来三丁目","koaza":"","lat":35.181785,"lng":136.941385,"zip":"4640085"},{"town":"小松町五丁目","koaza":"","lat":35.161651,"lng":136.938055,"zip":"4640853"},{"town":"小松町六丁目","koaza":"","lat":35.159966,"lng":136.937592,"zip":"4640853"},{"town":"小松町七丁目","koaza":"","lat":35.157854,"lng":136.937017,"zip":"4640853"},{"town":"桜が丘","koaza":"","lat":35.166242,"lng":136.988718,"zip":"4640025"},{"town":"山門町一丁目","koaza":"","lat":35.168974,"lng":136.953894,"zip":"4640064"},{"town":"山門町二丁目","koaza":"","lat":35.167669,"lng":136.952832,"zip":"4640064"},{"town":"下方町一丁目","koaza":"","lat":35.181787,"lng":136.954203,"zip":"4640096"},{"town":"下方町三丁目","koaza":"","lat":35.179495,"lng":136.954378,"zip":"4640096"},{"town":"下方町四丁目","koaza":"","lat":35.178426,"lng":136.954352,"zip":"4640096"},{"town":"下方町五丁目","koaza":"","lat":35.177722,"lng":136.954311,"zip":"4640096"},{"town":"下方町六丁目","koaza":"","lat":35.17637,"lng":136.953853,"zip":"4640096"},{"town":"下方町七丁目","koaza":"","lat":35.175883,"lng":136.955603,"zip":"4640096"},{"town":"自由ケ丘一丁目","koaza":"","lat":35.174134,"lng":136.962229,"zip":"4640044"},{"town":"自由ケ丘二丁目","koaza":"","lat":35.174762,"lng":136.965222,"zip":"4640044"},{"town":"自由ケ丘三丁目","koaza":"","lat":35.176167,"lng":136.968363,"zip":"4640044"},{"town":"松軒一丁目","koaza":"","lat":35.179226,"lng":136.938666,"zip":"4640084"},{"town":"松軒二丁目","koaza":"","lat":35.179005,"lng":136.94106,"zip":"4640084"},{"town":"松竹町一丁目","koaza":"","lat":35.163884,"lng":136.960258,"zip":"4640823"},{"town":"松竹町二丁目","koaza":"","lat":35.163246,"lng":136.960998,"zip":"4640823"},{"town":"汁谷町","koaza":"","lat":35.184965,"lng":136.970334,"zip":"4640013"},{"town":"城木町一丁目","koaza":"","lat":35.160828,"lng":136.942302,"zip":"4640846"},{"town":"城木町二丁目","koaza":"","lat":35.159559,"lng":136.941873,"zip":"4640846"},{"town":"城木町三丁目","koaza":"","lat":35.158347,"lng":136.94162,"zip":"4640846"},{"town":"城山新町一丁目","koaza":"","lat":35.173252,"lng":136.958229,"zip":"4640046"},{"town":"城山新町二丁目","koaza":"","lat":35.172483,"lng":136.96024,"zip":"4640046"},{"town":"城山町一丁目","koaza":"","lat":35.170158,"lng":136.95927,"zip":"4640045"},{"town":"城山町二丁目","koaza":"","lat":35.167937,"lng":136.959267,"zip":"4640045"},{"town":"城山町三丁目","koaza":"","lat":35.166304,"lng":136.960157,"zip":"4640045"},{"town":"新池町一丁目","koaza":"","lat":35.163723,"lng":136.974784,"zip":"4640027"},{"town":"新池町二丁目","koaza":"","lat":35.162695,"lng":136.974784,"zip":"4640027"},{"town":"新池町三丁目","koaza":"","lat":35.161303,"lng":136.973379,"zip":"4640027"},{"town":"新池町四丁目","koaza":"","lat":35.161218,"lng":136.975337,"zip":"4640027"},{"town":"新栄三丁目","koaza":"","lat":35.167977,"lng":136.928062,"zip":"4640859"},{"town":"新西一丁目","koaza":"","lat":35.189049,"lng":136.982509,"zip":"4640003"},{"town":"新西二丁目","koaza":"","lat":35.18919,"lng":136.985735,"zip":"4640003"},{"town":"振甫町一丁目","koaza":"","lat":35.176148,"lng":136.951083,"zip":"4640072"},{"town":"振甫町二丁目","koaza":"","lat":35.174883,"lng":136.950624,"zip":"4640072"},{"town":"振甫町三丁目","koaza":"","lat":35.174605,"lng":136.952987,"zip":"4640072"},{"town":"振甫町四丁目","koaza":"","lat":35.17317,"lng":136.950283,"zip":"4640072"},{"town":"末盛通一丁目","koaza":"","lat":35.166614,"lng":136.953426,"zip":"4640821"},{"town":"末盛通二丁目","koaza":"","lat":35.166311,"lng":136.956276,"zip":"4640821"},{"town":"末盛通三丁目","koaza":"","lat":35.165532,"lng":136.9589,"zip":"4640821"},{"town":"末盛通四丁目","koaza":"","lat":35.1649,"lng":136.960671,"zip":"4640821"},{"town":"末盛通五丁目","koaza":"","lat":35.164269,"lng":136.962418,"zip":"4640821"},{"town":"清明山一丁目","koaza":"","lat":35.183491,"lng":136.949236,"zip":"4640087"},{"town":"清明山二丁目","koaza":"","lat":35.183608,"lng":136.951156,"zip":"4640087"},{"town":"園山町一丁目","koaza":"","lat":35.158499,"lng":136.967666,"zip":"4640812"},{"town":"園山町二丁目","koaza":"","lat":35.157309,"lng":136.969927,"zip":"4640812"},{"town":"園山町三丁目","koaza":"","lat":35.156129,"lng":136.969521,"zip":"4640812"},{"town":"高見一丁目","koaza":"","lat":35.172156,"lng":136.946017,"zip":"4640073"},{"town":"高見二丁目","koaza":"","lat":35.170387,"lng":136.944836,"zip":"4640073"},{"town":"高峯町","koaza":"","lat":35.152696,"lng":136.96736,"zip":"4640000"},{"town":"竹越一丁目","koaza":"","lat":35.188284,"lng":136.973962,"zip":"4640007"},{"town":"竹越二丁目","koaza":"","lat":35.188062,"lng":136.977147,"zip":"4640007"},{"town":"田代町","koaza":"","lat":35.15624,"lng":136.979455,"zip":"4640053"},{"town":"田代本通一丁目","koaza":"","lat":35.164662,"lng":136.956679,"zip":"4640827"},{"town":"田代本通二丁目","koaza":"","lat":35.1629,"lng":136.955719,"zip":"4640827"},{"town":"田代本通三丁目","koaza":"","lat":35.161353,"lng":136.954801,"zip":"4640827"},{"town":"田代本通四丁目","koaza":"","lat":35.159953,"lng":136.954007,"zip":"4640827"},{"town":"田代本通五丁目","koaza":"","lat":35.158756,"lng":136.953288,"zip":"4640827"},{"town":"谷口町","koaza":"","lat":35.183582,"lng":136.95303,"zip":"4640081"},{"town":"千種一丁目","koaza":"","lat":35.164242,"lng":136.928958,"zip":"4640858"},{"town":"千種二丁目","koaza":"","lat":35.162486,"lng":136.926175,"zip":"4640858"},{"town":"千種三丁目","koaza":"","lat":35.161334,"lng":136.93264,"zip":"4640858"},{"town":"千種通五丁目","koaza":"","lat":35.161938,"lng":136.935922,"zip":"4640855"},{"town":"千種通六丁目","koaza":"","lat":35.160352,"lng":136.935743,"zip":"4640855"},{"town":"千種通七丁目","koaza":"","lat":35.158717,"lng":136.934915,"zip":"4640855"},{"town":"茶屋が坂一丁目","koaza":"","lat":35.184647,"lng":136.961026,"zip":"4640092"},{"town":"茶屋が坂二丁目","koaza":"","lat":35.184501,"lng":136.962984,"zip":"4640092"},{"town":"茶屋坂通一丁目","koaza":"","lat":35.182725,"lng":136.954282,"zip":"4640093"},{"town":"茶屋坂通二丁目","koaza":"","lat":35.183122,"lng":136.959372,"zip":"4640093"},{"town":"千代が丘","koaza":"","lat":35.181165,"lng":136.981944,"zip":"4640005"},{"town":"千代田橋一丁目","koaza":"","lat":35.188082,"lng":136.966942,"zip":"4640011"},{"town":"千代田橋二丁目","koaza":"","lat":35.188118,"lng":136.970791,"zip":"4640011"},{"town":"月ケ丘一丁目","koaza":"","lat":35.175019,"lng":136.957071,"zip":"4640043"},{"town":"月ケ丘二丁目","koaza":"","lat":35.175464,"lng":136.958977,"zip":"4640043"},{"town":"月ケ丘三丁目","koaza":"","lat":35.176203,"lng":136.959789,"zip":"4640043"},{"town":"月見坂町一丁目","koaza":"","lat":35.168119,"lng":136.955792,"zip":"4640056"},{"town":"月見坂町二丁目","koaza":"","lat":35.167063,"lng":136.956078,"zip":"4640056"},{"town":"天白町大字植田","koaza":"","lat":35.153111,"lng":136.982947,"zip":"4640000"},{"town":"天満通一丁目","koaza":"","lat":35.18103,"lng":136.955763,"zip":"4640095"},{"town":"天満通二丁目","koaza":"","lat":35.177858,"lng":136.956052,"zip":"4640095"},{"town":"東明町一丁目","koaza":"","lat":35.167185,"lng":136.974796,"zip":"4640028"},{"town":"東明町二丁目","koaza":"","lat":35.166765,"lng":136.973073,"zip":"4640028"},{"town":"東明町三丁目","koaza":"","lat":35.16609,"lng":136.973564,"zip":"4640028"},{"town":"東明町四丁目","koaza":"","lat":35.165366,"lng":136.973418,"zip":"4640028"},{"town":"東明町五丁目","koaza":"","lat":35.164722,"lng":136.973443,"zip":"4640028"},{"town":"東明町六丁目","koaza":"","lat":35.165514,"lng":136.975764,"zip":"4640028"},{"town":"東明町七丁目","koaza":"","lat":35.165344,"lng":136.9772,"zip":"4640028"},{"town":"徳川山町一丁目","koaza":"","lat":35.172729,"lng":136.96681,"zip":"4640031"},{"town":"徳川山町二丁目","koaza":"","lat":35.170758,"lng":136.965946,"zip":"4640031"},{"town":"徳川山町三丁目","koaza":"","lat":35.170036,"lng":136.968185,"zip":"4640031"},{"town":"徳川山町四丁目","koaza":"","lat":35.172531,"lng":136.969126,"zip":"4640031"},{"town":"徳川山町五丁目","koaza":"","lat":35.175014,"lng":136.96878,"zip":"4640031"},{"town":"徳川山町六丁目","koaza":"","lat":35.174032,"lng":136.970591,"zip":"4640031"},{"town":"仲田一丁目","koaza":"","lat":35.173851,"lng":136.941877,"zip":"4640074"},{"town":"仲田二丁目","koaza":"","lat":35.170112,"lng":136.942114,"zip":"4640074"},{"town":"鍋屋上野町","koaza":"","lat":35.180721,"lng":136.964691,"zip":"4640017"},{"town":"南明町一丁目","koaza":"","lat":35.160409,"lng":136.9459,"zip":"4640845"},{"town":"南明町二丁目","koaza":"","lat":35.159607,"lng":136.944703,"zip":"4640845"},{"town":"南明町三丁目","koaza":"","lat":35.158389,"lng":136.943841,"zip":"4640845"},{"town":"仁座町","koaza":"","lat":35.15341,"lng":136.96884,"zip":"4640813"},{"town":"西崎町一丁目","koaza":"","lat":35.162164,"lng":136.957826,"zip":"4640825"},{"town":"西崎町二丁目","koaza":"","lat":35.161235,"lng":136.957214,"zip":"4640825"},{"town":"西崎町三丁目","koaza":"","lat":35.160667,"lng":136.956527,"zip":"4640825"},{"town":"西山元町一丁目","koaza":"","lat":35.170787,"lng":136.95326,"zip":"4640063"},{"town":"西山元町二丁目","koaza":"","lat":35.169364,"lng":136.951799,"zip":"4640063"},{"town":"西山元町三丁目","koaza":"","lat":35.169032,"lng":136.949799,"zip":"4640063"},{"town":"日進通一丁目","koaza":"","lat":35.161559,"lng":136.942799,"zip":"4640844"},{"town":"日進通二丁目","koaza":"","lat":35.161386,"lng":136.944649,"zip":"4640844"},{"town":"日進通三丁目","koaza":"","lat":35.161079,"lng":136.946575,"zip":"4640844"},{"town":"日進通四丁目","koaza":"","lat":35.160723,"lng":136.948679,"zip":"4640844"},{"town":"日進通五丁目","koaza":"","lat":35.161262,"lng":136.950583,"zip":"4640844"},{"town":"日進通六丁目","koaza":"","lat":35.160752,"lng":136.952979,"zip":"4640844"},{"town":"猫洞通一丁目","koaza":"","lat":35.168581,"lng":136.974934,"zip":"4640032"},{"town":"猫洞通二丁目","koaza":"","lat":35.168605,"lng":136.972161,"zip":"4640032"},{"town":"猫洞通三丁目","koaza":"","lat":35.168087,"lng":136.969685,"zip":"4640032"},{"town":"猫洞通四丁目","koaza":"","lat":35.16641,"lng":136.966925,"zip":"4640032"},{"town":"猫洞通五丁目","koaza":"","lat":35.164868,"lng":136.964882,"zip":"4640032"},{"town":"萩岡町","koaza":"","lat":35.150562,"lng":136.97113,"zip":"4640805"},{"town":"橋本町一丁目","koaza":"","lat":35.165054,"lng":136.966203,"zip":"4640035"},{"town":"橋本町二丁目","koaza":"","lat":35.164901,"lng":136.967338,"zip":"4640035"},{"town":"橋本町三丁目","koaza":"","lat":35.163535,"lng":136.966731,"zip":"4640035"},{"town":"花田町一丁目","koaza":"","lat":35.15866,"lng":136.923005,"zip":"4640857"},{"town":"花田町三丁目","koaza":"","lat":35.158618,"lng":136.926343,"zip":"4640857"},{"town":"春岡一丁目","koaza":"","lat":35.166178,"lng":136.943714,"zip":"4640848"},{"town":"春岡二丁目","koaza":"","lat":35.163282,"lng":136.942742,"zip":"4640848"},{"town":"春岡通五丁目","koaza":"","lat":35.161339,"lng":136.940387,"zip":"4640847"},{"town":"春岡通六丁目","koaza":"","lat":35.159029,"lng":136.939802,"zip":"4640847"},{"town":"春岡通七丁目","koaza":"","lat":35.156029,"lng":136.939175,"zip":"4640847"},{"town":"春里町一丁目","koaza":"","lat":35.170589,"lng":136.961074,"zip":"4640038"},{"town":"春里町二丁目","koaza":"","lat":35.171115,"lng":136.963158,"zip":"4640038"},{"town":"春里町三丁目","koaza":"","lat":35.16953,"lng":136.963329,"zip":"4640038"},{"town":"春里町四丁目","koaza":"","lat":35.169096,"lng":136.963722,"zip":"4640038"},{"town":"東千種台","koaza":"","lat":35.191994,"lng":136.984152,"zip":"4640001"},{"town":"東山通一丁目","koaza":"","lat":35.163404,"lng":136.96495,"zip":"4640807"},{"town":"東山通二丁目","koaza":"","lat":35.162597,"lng":136.967179,"zip":"4640807"},{"town":"東山通三丁目","koaza":"","lat":35.161791,"lng":136.96927,"zip":"4640807"},{"town":"東山通四丁目","koaza":"","lat":35.161001,"lng":136.971355,"zip":"4640807"},{"town":"東山通五丁目","koaza":"","lat":35.159635,"lng":136.973603,"zip":"4640807"},{"town":"東山元町一丁目","koaza":"","lat":35.156612,"lng":136.972002,"zip":"4640804"},{"town":"東山元町二丁目","koaza":"","lat":35.156121,"lng":136.974061,"zip":"4640804"},{"town":"東山元町三丁目","koaza":"","lat":35.154634,"lng":136.975476,"zip":"4640804"},{"town":"東山元町四丁目","koaza":"","lat":35.152435,"lng":136.975727,"zip":"4640804"},{"town":"東山元町五丁目","koaza":"","lat":35.149705,"lng":136.975271,"zip":"4640804"},{"town":"東山元町六丁目","koaza":"","lat":35.152196,"lng":136.9733,"zip":"4640804"},{"town":"光が丘一丁目","koaza":"","lat":35.185059,"lng":136.975584,"zip":"4640006"},{"town":"光が丘二丁目","koaza":"","lat":35.181515,"lng":136.976659,"zip":"4640006"},{"town":"日岡町一丁目","koaza":"","lat":35.160243,"lng":136.94791,"zip":"4640834"},{"town":"日岡町二丁目","koaza":"","lat":35.159497,"lng":136.948343,"zip":"4640834"},{"town":"日岡町三丁目","koaza":"","lat":35.158983,"lng":136.947909,"zip":"4640834"},{"town":"姫池通一丁目","koaza":"","lat":35.171576,"lng":136.957545,"zip":"4640055"},{"town":"姫池通二丁目","koaza":"","lat":35.169627,"lng":136.957558,"zip":"4640055"},{"town":"姫池通三丁目","koaza":"","lat":35.167358,"lng":136.957401,"zip":"4640055"},{"town":"日和町一丁目","koaza":"","lat":35.169541,"lng":136.965131,"zip":"4640039"},{"town":"日和町二丁目","koaza":"","lat":35.16841,"lng":136.965051,"zip":"4640039"},{"town":"日和町三丁目","koaza":"","lat":35.167658,"lng":136.964536,"zip":"4640039"},{"town":"日和町四丁目","koaza":"","lat":35.168597,"lng":136.967141,"zip":"4640039"},{"town":"日和町五丁目","koaza":"","lat":35.167797,"lng":136.967641,"zip":"4640039"},{"town":"吹上一丁目","koaza":"","lat":35.1593,"lng":136.924925,"zip":"4640856"},{"town":"吹上二丁目","koaza":"","lat":35.158991,"lng":136.929737,"zip":"4640856"},{"town":"富士見台一丁目","koaza":"","lat":35.181962,"lng":136.968139,"zip":"4640015"},{"town":"富士見台二丁目","koaza":"","lat":35.181487,"lng":136.970423,"zip":"4640015"},{"town":"富士見台三丁目","koaza":"","lat":35.182454,"lng":136.971512,"zip":"4640015"},{"town":"富士見台四丁目","koaza":"","lat":35.181053,"lng":136.972838,"zip":"4640015"},{"town":"富士見台五丁目","koaza":"","lat":35.180211,"lng":136.975748,"zip":"4640015"},{"town":"不老町","koaza":"","lat":35.155654,"lng":136.964669,"zip":"4640814"},{"town":"平和が丘三丁目","koaza":"","lat":35.168786,"lng":136.989047,"zip":"4640024"},{"town":"平和公園一丁目","koaza":"","lat":35.175973,"lng":136.978536,"zip":"4640022"},{"town":"平和公園二丁目","koaza":"","lat":35.172321,"lng":136.974632,"zip":"4640022"},{"town":"平和公園三丁目","koaza":"","lat":35.172411,"lng":136.980572,"zip":"4640022"},{"town":"法王町一丁目","koaza":"","lat":35.171088,"lng":136.955476,"zip":"4640057"},{"town":"法王町二丁目","koaza":"","lat":35.169568,"lng":136.956232,"zip":"4640057"},{"town":"豊年町","koaza":"","lat":35.176394,"lng":136.937684,"zip":"4640076"},{"town":"星ケ丘一丁目","koaza":"","lat":35.162671,"lng":136.988104,"zip":"4640801"},{"town":"星ケ丘二丁目","koaza":"","lat":35.165204,"lng":136.990688,"zip":"4640801"},{"town":"星が丘元町","koaza":"","lat":35.160549,"lng":136.98452,"zip":"4640802"},{"town":"星が丘山手","koaza":"","lat":35.162914,"lng":136.980939,"zip":"4640808"},{"town":"穂波町一丁目","koaza":"","lat":35.164856,"lng":136.958538,"zip":"4640822"},{"town":"穂波町二丁目","koaza":"","lat":35.163955,"lng":136.958239,"zip":"4640822"},{"town":"穂波町三丁目","koaza":"","lat":35.163062,"lng":136.958267,"zip":"4640822"},{"town":"堀割町一丁目","koaza":"","lat":35.167565,"lng":136.949059,"zip":"4640065"},{"town":"堀割町二丁目","koaza":"","lat":35.167654,"lng":136.951013,"zip":"4640065"},{"town":"本山町一丁目","koaza":"","lat":35.166756,"lng":136.96578,"zip":"4640036"},{"town":"本山町二丁目","koaza":"","lat":35.165841,"lng":136.964702,"zip":"4640036"},{"town":"本山町三丁目","koaza":"","lat":35.166288,"lng":136.962943,"zip":"4640036"},{"town":"本山町四丁目","koaza":"","lat":35.165112,"lng":136.963085,"zip":"4640036"},{"town":"丸山町一丁目","koaza":"","lat":35.163548,"lng":136.946878,"zip":"4640843"},{"town":"丸山町二丁目","koaza":"","lat":35.162595,"lng":136.946908,"zip":"4640843"},{"town":"丸山町三丁目","koaza":"","lat":35.161858,"lng":136.945716,"zip":"4640843"},{"town":"御影町一丁目","koaza":"","lat":35.18394,"lng":136.966723,"zip":"4640014"},{"town":"御影町二丁目","koaza":"","lat":35.183589,"lng":136.971072,"zip":"4640014"},{"town":"見附町一丁目","koaza":"","lat":35.162052,"lng":136.962513,"zip":"4640817"},{"town":"見附町二丁目","koaza":"","lat":35.161283,"lng":136.961197,"zip":"4640817"},{"town":"見附町三丁目","koaza":"","lat":35.160097,"lng":136.960552,"zip":"4640817"},{"town":"南ケ丘一丁目","koaza":"","lat":35.178306,"lng":136.959422,"zip":"4640042"},{"town":"南ケ丘二丁目","koaza":"","lat":35.177094,"lng":136.962421,"zip":"4640042"},{"town":"宮根台一丁目","koaza":"","lat":35.186862,"lng":136.979268,"zip":"4640008"},{"town":"宮根台二丁目","koaza":"","lat":35.18401,"lng":136.979806,"zip":"4640008"},{"town":"宮の腰町","koaza":"","lat":35.185015,"lng":136.957115,"zip":"4640091"},{"town":"宮東町","koaza":"","lat":35.155217,"lng":136.962169,"zip":"4640000"},{"town":"八雲町","koaza":"","lat":35.152935,"lng":136.964961,"zip":"4640000"},{"town":"山添町一丁目","koaza":"","lat":35.163228,"lng":136.953933,"zip":"4640832"},{"town":"山添町二丁目","koaza":"","lat":35.161953,"lng":136.952675,"zip":"4640832"},{"town":"山手通一丁目","koaza":"","lat":35.153372,"lng":136.96603,"zip":"4640000"},{"town":"四谷通","koaza":"","lat":35.155167,"lng":136.966595,"zip":"4640819"},{"town":"四谷通一丁目","koaza":"","lat":35.16248,"lng":136.963843,"zip":"4640819"},{"town":"四谷通二丁目","koaza":"","lat":35.160877,"lng":136.964561,"zip":"4640819"},{"town":"四谷通三丁目","koaza":"","lat":35.158476,"lng":136.965603,"zip":"4640819"},{"town":"若水一丁目","koaza":"","lat":35.175562,"lng":136.943497,"zip":"4640071"},{"town":"若水二丁目","koaza":"","lat":35.175539,"lng":136.945883,"zip":"4640071"},{"town":"若水三丁目","koaza":"","lat":35.17555,"lng":136.948252,"zip":"4640071"},{"town":"田代町","koaza":"蝮池上","lat":35.172368,"lng":136.949809,"zip":"4640053"},{"town":"田代町","koaza":"岩谷","lat":35.172528,"lng":136.951324,"zip":"4640053"},{"town":"田代町","koaza":"四観音道西","lat":35.172984,"lng":136.95305,"zip":"4640053"},{"town":"鍋屋上野町","koaza":"東脇","lat":35.180879,"lng":136.95435,"zip":"4640017"},{"town":"田代町","koaza":"四観音道東","lat":35.174328,"lng":136.955799,"zip":"4640053"},{"town":"鍋屋上野町","koaza":"北山","lat":35.180536,"lng":136.962495,"zip":"4640017"},{"town":"鍋屋上野町","koaza":"汁谷","lat":35.180723,"lng":136.964953,"zip":"4640017"},{"town":"鍋屋上野町","koaza":"不動","lat":35.183759,"lng":136.963053,"zip":"4640017"},{"town":"猪高町大字猪子石","koaza":"猪々道","lat":35.185614,"lng":136.969373,"zip":"4640000"},{"town":"田代町","koaza":"瓶杁","lat":35.158957,"lng":136.979561,"zip":"4640053"},{"town":"田代町","koaza":"鹿子殿","lat":35.165265,"lng":136.979101,"zip":"4640053"},{"town":"天白町大字植田","koaza":"植田山","lat":35.151892,"lng":136.983557,"zip":"4640000"}]