[{"town":"芦辺町一丁目","koaza":"","lat":35.194027,"lng":136.925584,"zip":"4620856"},{"town":"芦辺町二丁目","koaza":"","lat":35.19347,"lng":136.927199,"zip":"4620856"},{"town":"芦辺町三丁目","koaza":"","lat":35.193662,"lng":136.928422,"zip":"4620856"},{"town":"池花町","koaza":"","lat":35.230932,"lng":136.92069,"zip":"4620005"},{"town":"生駒町一丁目","koaza":"","lat":35.193629,"lng":136.916252,"zip":"4620832"},{"town":"生駒町二丁目","koaza":"","lat":35.193676,"lng":136.917446,"zip":"4620832"},{"town":"生駒町三丁目","koaza":"","lat":35.193604,"lng":136.918387,"zip":"4620832"},{"town":"生駒町四丁目","koaza":"","lat":35.193465,"lng":136.919407,"zip":"4620832"},{"town":"生駒町五丁目","koaza":"","lat":35.193568,"lng":136.920529,"zip":"4620832"},{"town":"生駒町六丁目","koaza":"","lat":35.193451,"lng":136.922024,"zip":"4620832"},{"town":"生駒町七丁目","koaza":"","lat":35.193406,"lng":136.923357,"zip":"4620832"},{"town":"石園町一丁目","koaza":"","lat":35.195033,"lng":136.925603,"zip":"4620855"},{"town":"石園町二丁目","koaza":"","lat":35.194978,"lng":136.927098,"zip":"4620855"},{"town":"石園町三丁目","koaza":"","lat":35.194962,"lng":136.928599,"zip":"4620855"},{"town":"大我麻町","koaza":"","lat":35.231459,"lng":136.908134,"zip":"4620064"},{"town":"大蔵町","koaza":"","lat":35.195442,"lng":136.920372,"zip":"4620858"},{"town":"大杉一丁目","koaza":"","lat":35.186718,"lng":136.916846,"zip":"4620837"},{"town":"大杉二丁目","koaza":"","lat":35.187988,"lng":136.917015,"zip":"4620837"},{"town":"大杉三丁目","koaza":"","lat":35.189719,"lng":136.917353,"zip":"4620837"},{"town":"大杉町一丁目","koaza":"","lat":35.191006,"lng":136.915997,"zip":"4620836"},{"town":"大杉町二丁目","koaza":"","lat":35.190932,"lng":136.917302,"zip":"4620836"},{"town":"大杉町三丁目","koaza":"","lat":35.190813,"lng":136.918258,"zip":"4620836"},{"town":"大杉町四丁目","koaza":"","lat":35.190885,"lng":136.919142,"zip":"4620836"},{"town":"大杉町五丁目","koaza":"","lat":35.190936,"lng":136.920367,"zip":"4620836"},{"town":"大杉町六丁目","koaza":"","lat":35.190861,"lng":136.921896,"zip":"4620836"},{"town":"大杉町七丁目","koaza":"","lat":35.19077,"lng":136.923241,"zip":"4620836"},{"town":"大曽根一丁目","koaza":"","lat":35.190611,"lng":136.929517,"zip":"4620825"},{"town":"大曽根二丁目","koaza":"","lat":35.189883,"lng":136.931442,"zip":"4620825"},{"town":"大曽根三丁目","koaza":"","lat":35.191852,"lng":136.935114,"zip":"4620825"},{"town":"大曽根四丁目","koaza":"","lat":35.191764,"lng":136.931917,"zip":"4620825"},{"town":"大野町一丁目","koaza":"","lat":35.204513,"lng":136.914692,"zip":"4620035"},{"town":"大野町二丁目","koaza":"","lat":35.204672,"lng":136.915865,"zip":"4620035"},{"town":"大野町三丁目","koaza":"","lat":35.204621,"lng":136.917061,"zip":"4620035"},{"town":"大野町四丁目","koaza":"","lat":35.204954,"lng":136.91865,"zip":"4620035"},{"town":"大野町五丁目","koaza":"","lat":35.204576,"lng":136.920006,"zip":"4620035"},{"town":"落合町","koaza":"","lat":35.223667,"lng":136.908672,"zip":"4620017"},{"town":"御成通一丁目","koaza":"","lat":35.197159,"lng":136.929353,"zip":"4620807"},{"town":"御成通二丁目","koaza":"","lat":35.198513,"lng":136.929461,"zip":"4620807"},{"town":"御成通三丁目","koaza":"","lat":35.199603,"lng":136.92991,"zip":"4620807"},{"town":"御成通四丁目","koaza":"","lat":35.201044,"lng":136.929888,"zip":"4620807"},{"town":"尾上町","koaza":"","lat":35.200868,"lng":136.925941,"zip":"4620863"},{"town":"織部町","koaza":"","lat":35.200897,"lng":136.928386,"zip":"4620864"},{"town":"会所町","koaza":"","lat":35.237979,"lng":136.907721,"zip":"4620061"},{"town":"垣戸町一丁目","koaza":"","lat":35.197347,"lng":136.921173,"zip":"4620867"},{"town":"垣戸町二丁目","koaza":"","lat":35.197327,"lng":136.92212,"zip":"4620867"},{"town":"垣戸町三丁目","koaza":"","lat":35.19735,"lng":136.923354,"zip":"4620867"},{"town":"金田町一丁目","koaza":"","lat":35.207496,"lng":136.914362,"zip":"4620033"},{"town":"金田町二丁目","koaza":"","lat":35.207592,"lng":136.915646,"zip":"4620033"},{"town":"金田町三丁目","koaza":"","lat":35.207688,"lng":136.916916,"zip":"4620033"},{"town":"金田町四丁目","koaza":"","lat":35.207789,"lng":136.918179,"zip":"4620033"},{"town":"金田町五丁目","koaza":"","lat":35.20789,"lng":136.91945,"zip":"4620033"},{"town":"金田町六丁目","koaza":"","lat":35.20798,"lng":136.92063,"zip":"4620033"},{"town":"上飯田北町一丁目","koaza":"","lat":35.203861,"lng":136.932224,"zip":"4620802"},{"town":"上飯田北町二丁目","koaza":"","lat":35.204904,"lng":136.931757,"zip":"4620802"},{"town":"上飯田北町三丁目","koaza":"","lat":35.20601,"lng":136.931552,"zip":"4620802"},{"town":"上飯田北町四丁目","koaza":"","lat":35.206593,"lng":136.932793,"zip":"4620802"},{"town":"上飯田通一丁目","koaza":"","lat":35.202704,"lng":136.929678,"zip":"4620808"},{"town":"上飯田通二丁目","koaza":"","lat":35.204657,"lng":136.929793,"zip":"4620808"},{"town":"上飯田通三丁目","koaza":"","lat":35.206365,"lng":136.929914,"zip":"4620808"},{"town":"上飯田西町一丁目","koaza":"","lat":35.20256,"lng":136.927742,"zip":"4620809"},{"town":"上飯田西町二丁目","koaza":"","lat":35.203618,"lng":136.928173,"zip":"4620809"},{"town":"上飯田西町三丁目","koaza":"","lat":35.205259,"lng":136.928268,"zip":"4620809"},{"town":"上飯田東町一丁目","koaza":"","lat":35.2008,"lng":136.938943,"zip":"4620803"},{"town":"上飯田東町二丁目","koaza":"","lat":35.204421,"lng":136.937923,"zip":"4620803"},{"town":"上飯田東町三丁目","koaza":"","lat":35.203069,"lng":136.937395,"zip":"4620803"},{"town":"上飯田東町四丁目","koaza":"","lat":35.203402,"lng":136.936156,"zip":"4620803"},{"town":"上飯田東町五丁目","koaza":"","lat":35.205463,"lng":136.935807,"zip":"4620803"},{"town":"上飯田南町一丁目","koaza":"","lat":35.202284,"lng":136.930693,"zip":"4620804"},{"town":"上飯田南町二丁目","koaza":"","lat":35.202054,"lng":136.932045,"zip":"4620804"},{"town":"上飯田南町三丁目","koaza":"","lat":35.202115,"lng":136.933844,"zip":"4620804"},{"town":"上飯田南町四丁目","koaza":"","lat":35.200791,"lng":136.936412,"zip":"4620804"},{"town":"上飯田南町五丁目","koaza":"","lat":35.199582,"lng":136.93355,"zip":"4620804"},{"town":"川中町","koaza":"","lat":35.212299,"lng":136.91254,"zip":"4620022"},{"town":"喜惣治一丁目","koaza":"","lat":35.233047,"lng":136.906004,"zip":"4620065"},{"town":"喜惣治二丁目","koaza":"","lat":35.237985,"lng":136.904451,"zip":"4620065"},{"town":"北久手町","koaza":"","lat":35.240815,"lng":136.925223,"zip":"4620001"},{"town":"木津根町","koaza":"","lat":35.198667,"lng":136.919586,"zip":"4620851"},{"town":"桐畑町","koaza":"","lat":35.235028,"lng":136.928014,"zip":"4620003"},{"town":"金城一丁目","koaza":"","lat":35.193917,"lng":136.901671,"zip":"4620847"},{"town":"金城二丁目","koaza":"","lat":35.196163,"lng":136.90135,"zip":"4620847"},{"town":"金城三丁目","koaza":"","lat":35.19584,"lng":136.905034,"zip":"4620847"},{"town":"金城四丁目","koaza":"","lat":35.193728,"lng":136.905089,"zip":"4620847"},{"town":"金城町二丁目","koaza":"","lat":35.20057,"lng":136.906983,"zip":"4620047"},{"town":"金城町三丁目","koaza":"","lat":35.205528,"lng":136.906627,"zip":"4620047"},{"town":"金城町四丁目","koaza":"","lat":35.209049,"lng":136.906099,"zip":"4620047"},{"town":"楠一丁目","koaza":"","lat":35.226764,"lng":136.916711,"zip":"4620012"},{"town":"楠二丁目","koaza":"","lat":35.226509,"lng":136.92093,"zip":"4620012"},{"town":"楠三丁目","koaza":"","lat":35.225911,"lng":136.923354,"zip":"4620012"},{"town":"楠四丁目","koaza":"","lat":35.227407,"lng":136.926349,"zip":"4620012"},{"town":"楠五丁目","koaza":"","lat":35.22478,"lng":136.926292,"zip":"4620012"},{"town":"楠味鋺一丁目","koaza":"","lat":35.21696,"lng":136.92851,"zip":"4620014"},{"town":"楠味鋺二丁目","koaza":"","lat":35.218899,"lng":136.926796,"zip":"4620014"},{"town":"楠味鋺三丁目","koaza":"","lat":35.223096,"lng":136.927593,"zip":"4620014"},{"town":"楠味鋺四丁目","koaza":"","lat":35.221743,"lng":136.931004,"zip":"4620014"},{"town":"楠味鋺五丁目","koaza":"","lat":35.218454,"lng":136.931081,"zip":"4620014"},{"town":"楠町大字味鋺","koaza":"","lat":35.222045,"lng":136.907865,"zip":"4620000"},{"town":"楠町大字喜惣治新田","koaza":"","lat":35.234674,"lng":136.90176,"zip":"4620000"},{"town":"黒川本通一丁目","koaza":"","lat":35.196012,"lng":136.91316,"zip":"4620841"},{"town":"黒川本通二丁目","koaza":"","lat":35.198043,"lng":136.911799,"zip":"4620841"},{"town":"黒川本通三丁目","koaza":"","lat":35.198975,"lng":136.911947,"zip":"4620841"},{"town":"黒川本通四丁目","koaza":"","lat":35.200456,"lng":136.91191,"zip":"4620841"},{"town":"黒川本通五丁目","koaza":"","lat":35.202724,"lng":136.91173,"zip":"4620841"},{"town":"玄馬町","koaza":"","lat":35.227732,"lng":136.906896,"zip":"4620018"},{"town":"紅雲町","koaza":"","lat":35.194883,"lng":136.924155,"zip":"4620857"},{"town":"光音寺町","koaza":"","lat":35.21093,"lng":136.902991,"zip":"4620053"},{"town":"光音寺町一丁目","koaza":"","lat":35.207202,"lng":136.902582,"zip":"4620053"},{"town":"光音寺町二丁目","koaza":"","lat":35.209093,"lng":136.902932,"zip":"4620053"},{"town":"光音寺町三丁目","koaza":"","lat":35.207894,"lng":136.904967,"zip":"4620053"},{"town":"光音寺町四丁目","koaza":"","lat":35.209818,"lng":136.904411,"zip":"4620053"},{"town":"五反田町","koaza":"","lat":35.226736,"lng":136.91174,"zip":"4620011"},{"town":"駒止町一丁目","koaza":"","lat":35.198347,"lng":136.901748,"zip":"4620059"},{"town":"駒止町二丁目","koaza":"","lat":35.198368,"lng":136.904962,"zip":"4620059"},{"town":"米が瀬町","koaza":"","lat":35.212069,"lng":136.92721,"zip":"4620031"},{"town":"彩紅橋通一丁目","koaza":"","lat":35.193389,"lng":136.929276,"zip":"4620818"},{"town":"彩紅橋通二丁目","koaza":"","lat":35.194514,"lng":136.929322,"zip":"4620818"},{"town":"猿投町","koaza":"","lat":35.197738,"lng":136.918198,"zip":"4620852"},{"town":"三軒町","koaza":"","lat":35.231741,"lng":136.924428,"zip":"4620004"},{"town":"志賀町一丁目","koaza":"","lat":35.198478,"lng":136.914649,"zip":"4620037"},{"town":"志賀町二丁目","koaza":"","lat":35.200239,"lng":136.914172,"zip":"4620037"},{"town":"志賀町三丁目","koaza":"","lat":35.200197,"lng":136.917066,"zip":"4620037"},{"town":"志賀町四丁目","koaza":"","lat":35.202363,"lng":136.913866,"zip":"4620037"},{"town":"志賀町五丁目","koaza":"","lat":35.201887,"lng":136.917223,"zip":"4620037"},{"town":"志賀本通一丁目","koaza":"","lat":35.196535,"lng":136.91738,"zip":"4620853"},{"town":"志賀本通二丁目","koaza":"","lat":35.196237,"lng":136.920435,"zip":"4620853"},{"town":"志賀南通一丁目","koaza":"","lat":35.197346,"lng":136.911184,"zip":"4620842"},{"town":"志賀南通二丁目","koaza":"","lat":35.196988,"lng":136.914236,"zip":"4620842"},{"town":"敷島町","koaza":"","lat":35.198437,"lng":136.908877,"zip":"4620045"},{"town":"清水一丁目","koaza":"","lat":35.186527,"lng":136.910824,"zip":"4620844"},{"town":"清水二丁目","koaza":"","lat":35.188426,"lng":136.913973,"zip":"4620844"},{"town":"清水三丁目","koaza":"","lat":35.189135,"lng":136.911529,"zip":"4620844"},{"town":"清水四丁目","koaza":"","lat":35.193261,"lng":136.911035,"zip":"4620844"},{"town":"清水五丁目","koaza":"","lat":35.19374,"lng":136.914006,"zip":"4620844"},{"town":"下飯田町一丁目","koaza":"","lat":35.198027,"lng":136.925627,"zip":"4620865"},{"town":"下飯田町二丁目","koaza":"","lat":35.198065,"lng":136.926826,"zip":"4620865"},{"town":"下飯田町三丁目","koaza":"","lat":35.198039,"lng":136.927901,"zip":"4620865"},{"town":"下飯田町四丁目","koaza":"","lat":35.198045,"lng":136.928832,"zip":"4620865"},{"town":"成願寺一丁目","koaza":"","lat":35.215875,"lng":136.911664,"zip":"4620021"},{"town":"成願寺二丁目","koaza":"","lat":35.214709,"lng":136.915764,"zip":"4620021"},{"town":"成願寺町","koaza":"","lat":35.215678,"lng":136.918005,"zip":"4620000"},{"town":"城東町一丁目","koaza":"","lat":35.194749,"lng":136.916277,"zip":"4620831"},{"town":"城東町二丁目","koaza":"","lat":35.194715,"lng":136.917492,"zip":"4620831"},{"town":"城東町三丁目","koaza":"","lat":35.194583,"lng":136.918429,"zip":"4620831"},{"town":"城東町四丁目","koaza":"","lat":35.194501,"lng":136.919471,"zip":"4620831"},{"town":"城東町五丁目","koaza":"","lat":35.194491,"lng":136.920722,"zip":"4620831"},{"town":"城東町六丁目","koaza":"","lat":35.194497,"lng":136.92203,"zip":"4620831"},{"town":"城東町七丁目","koaza":"","lat":35.194375,"lng":136.923362,"zip":"4620831"},{"town":"城見通一丁目","koaza":"","lat":35.197416,"lng":136.901733,"zip":"4620046"},{"town":"城見通二丁目","koaza":"","lat":35.197423,"lng":136.903877,"zip":"4620046"},{"town":"城見通三丁目","koaza":"","lat":35.19744,"lng":136.907929,"zip":"4620046"},{"town":"新沼町","koaza":"","lat":35.237993,"lng":136.910107,"zip":"4620062"},{"town":"新堀町","koaza":"","lat":35.206289,"lng":136.928046,"zip":"4620801"},{"town":"神明町","koaza":"","lat":35.195725,"lng":136.917218,"zip":"4620859"},{"town":"杉栄町二丁目","koaza":"","lat":35.191001,"lng":136.92448,"zip":"4620829"},{"town":"杉栄町三丁目","koaza":"","lat":35.191937,"lng":136.924497,"zip":"4620829"},{"town":"杉栄町四丁目","koaza":"","lat":35.192927,"lng":136.92453,"zip":"4620829"},{"town":"杉栄町五丁目","koaza":"","lat":35.194111,"lng":136.924356,"zip":"4620829"},{"town":"杉村一丁目","koaza":"","lat":35.189196,"lng":136.921997,"zip":"4620835"},{"town":"龍ノ口町一丁目","koaza":"","lat":35.199799,"lng":136.920831,"zip":"4620869"},{"town":"龍ノ口町二丁目","koaza":"","lat":35.199614,"lng":136.922112,"zip":"4620869"},{"town":"龍ノ口町三丁目","koaza":"","lat":35.199621,"lng":136.923363,"zip":"4620869"},{"town":"田幡一丁目","koaza":"","lat":35.194343,"lng":136.908381,"zip":"4620843"},{"town":"田幡二丁目","koaza":"","lat":35.196039,"lng":136.909578,"zip":"4620843"},{"town":"稚児宮通一丁目","koaza":"","lat":35.197992,"lng":136.916584,"zip":"4620038"},{"town":"稚児宮通二丁目","koaza":"","lat":35.199187,"lng":136.917813,"zip":"4620038"},{"town":"中丸町一丁目","koaza":"","lat":35.205404,"lng":136.901322,"zip":"4620056"},{"town":"中丸町二丁目","koaza":"","lat":35.20498,"lng":136.903066,"zip":"4620056"},{"town":"中丸町三丁目","koaza":"","lat":35.20517,"lng":136.9051,"zip":"4620056"},{"town":"長田町一丁目","koaza":"","lat":35.19162,"lng":136.919176,"zip":"4620834"},{"town":"長田町二丁目","koaza":"","lat":35.19161,"lng":136.920534,"zip":"4620834"},{"town":"長田町三丁目","koaza":"","lat":35.191624,"lng":136.921937,"zip":"4620834"},{"town":"長田町四丁目","koaza":"","lat":35.19154,"lng":136.923278,"zip":"4620834"},{"town":"辻町","koaza":"","lat":35.203054,"lng":136.925348,"zip":"4620032"},{"town":"辻町一丁目","koaza":"","lat":35.20558,"lng":136.921853,"zip":"4620032"},{"town":"辻町二丁目","koaza":"","lat":35.206296,"lng":136.923112,"zip":"4620032"},{"town":"辻町三丁目","koaza":"","lat":35.206773,"lng":136.924209,"zip":"4620032"},{"town":"辻町四丁目","koaza":"","lat":35.206978,"lng":136.925307,"zip":"4620032"},{"town":"辻町五丁目","koaza":"","lat":35.207037,"lng":136.926719,"zip":"4620032"},{"town":"辻町六丁目","koaza":"","lat":35.208179,"lng":136.929387,"zip":"4620032"},{"town":"辻町七丁目","koaza":"","lat":35.208896,"lng":136.9274,"zip":"4620032"},{"town":"辻町八丁目","koaza":"","lat":35.209398,"lng":136.925734,"zip":"4620032"},{"town":"辻町九丁目","koaza":"","lat":35.210003,"lng":136.92358,"zip":"4620032"},{"town":"辻本通一丁目","koaza":"","lat":35.200644,"lng":136.920022,"zip":"4620861"},{"town":"辻本通二丁目","koaza":"","lat":35.202629,"lng":136.922704,"zip":"4620861"},{"town":"辻本通三丁目","koaza":"","lat":35.204029,"lng":136.924601,"zip":"4620861"},{"town":"辻本通四丁目","koaza":"","lat":35.205163,"lng":136.926081,"zip":"4620861"},{"town":"天道町一丁目","koaza":"","lat":35.206098,"lng":136.914521,"zip":"4620034"},{"town":"天道町二丁目","koaza":"","lat":35.206116,"lng":136.915925,"zip":"4620034"},{"town":"天道町三丁目","koaza":"","lat":35.206278,"lng":136.917086,"zip":"4620034"},{"town":"天道町四丁目","koaza":"","lat":35.206426,"lng":136.918343,"zip":"4620034"},{"town":"天道町五丁目","koaza":"","lat":35.206369,"lng":136.920173,"zip":"4620034"},{"town":"憧旛町一丁目","koaza":"","lat":35.198392,"lng":136.920913,"zip":"4620868"},{"town":"憧旛町二丁目","koaza":"","lat":35.198419,"lng":136.92211,"zip":"4620868"},{"town":"憧旛町三丁目","koaza":"","lat":35.198458,"lng":136.923358,"zip":"4620868"},{"town":"苗田町","koaza":"","lat":35.237022,"lng":136.916892,"zip":"4620009"},{"town":"中味鋺一丁目","koaza":"","lat":35.217199,"lng":136.922965,"zip":"4620015"},{"town":"中味鋺二丁目","koaza":"","lat":35.219421,"lng":136.922471,"zip":"4620015"},{"town":"中味鋺三丁目","koaza":"","lat":35.222185,"lng":136.922371,"zip":"4620015"},{"town":"長喜町一丁目","koaza":"","lat":35.203344,"lng":136.915892,"zip":"4620036"},{"town":"長喜町二丁目","koaza":"","lat":35.203326,"lng":136.917174,"zip":"4620036"},{"town":"長喜町三丁目","koaza":"","lat":35.203312,"lng":136.918679,"zip":"4620036"},{"town":"長喜町四丁目","koaza":"","lat":35.203265,"lng":136.920123,"zip":"4620036"},{"town":"中切町","koaza":"","lat":35.219175,"lng":136.907411,"zip":"4620051"},{"town":"中切町一丁目","koaza":"","lat":35.213903,"lng":136.906052,"zip":"4620051"},{"town":"中切町二丁目","koaza":"","lat":35.213941,"lng":136.907324,"zip":"4620051"},{"town":"中切町三丁目","koaza":"","lat":35.21405,"lng":136.908385,"zip":"4620051"},{"town":"中切町四丁目","koaza":"","lat":35.214073,"lng":136.909661,"zip":"4620051"},{"town":"中切町五丁目","koaza":"","lat":35.216679,"lng":136.908991,"zip":"4620051"},{"town":"中切町六丁目","koaza":"","lat":35.216355,"lng":136.906504,"zip":"4620051"},{"town":"中杉町一丁目","koaza":"","lat":35.191713,"lng":136.916237,"zip":"4620838"},{"town":"中杉町二丁目","koaza":"","lat":35.191714,"lng":136.917348,"zip":"4620838"},{"town":"中杉町三丁目","koaza":"","lat":35.191631,"lng":136.918298,"zip":"4620838"},{"town":"浪打町一丁目","koaza":"","lat":35.205938,"lng":136.909729,"zip":"4620041"},{"town":"浪打町二丁目","koaza":"","lat":35.209086,"lng":136.909314,"zip":"4620041"},{"town":"西味鋺一丁目","koaza":"","lat":35.221846,"lng":136.912418,"zip":"4620016"},{"town":"西味鋺二丁目","koaza":"","lat":35.224079,"lng":136.912359,"zip":"4620016"},{"town":"西味鋺三丁目","koaza":"","lat":35.223063,"lng":136.917258,"zip":"4620016"},{"town":"西味鋺四丁目","koaza":"","lat":35.221321,"lng":136.917483,"zip":"4620016"},{"town":"西味鋺五丁目","koaza":"","lat":35.218985,"lng":136.918715,"zip":"4620016"},{"town":"西志賀町一丁目","koaza":"","lat":35.200295,"lng":136.901172,"zip":"4620058"},{"town":"西志賀町二丁目","koaza":"","lat":35.200358,"lng":136.902597,"zip":"4620058"},{"town":"西志賀町三丁目","koaza":"","lat":35.200392,"lng":136.903853,"zip":"4620058"},{"town":"西志賀町四丁目","koaza":"","lat":35.200442,"lng":136.905108,"zip":"4620058"},{"town":"西志賀町五丁目","koaza":"","lat":35.200451,"lng":136.906221,"zip":"4620058"},{"town":"如意一丁目","koaza":"","lat":35.233581,"lng":136.918739,"zip":"4620007"},{"town":"如意二丁目","koaza":"","lat":35.235644,"lng":136.918541,"zip":"4620007"},{"town":"如意三丁目","koaza":"","lat":35.237827,"lng":136.923362,"zip":"4620007"},{"town":"如意四丁目","koaza":"","lat":35.235826,"lng":136.923222,"zip":"4620007"},{"town":"如意五丁目","koaza":"","lat":35.234565,"lng":136.923565,"zip":"4620007"},{"town":"如来町","koaza":"","lat":35.234426,"lng":136.914723,"zip":"4620008"},{"town":"野方通一丁目","koaza":"","lat":35.210322,"lng":136.902709,"zip":"4620054"},{"town":"野方通二丁目","koaza":"","lat":35.210885,"lng":136.904529,"zip":"4620054"},{"town":"野方通三丁目","koaza":"","lat":35.211166,"lng":136.907034,"zip":"4620054"},{"town":"野方通四丁目","koaza":"","lat":35.211144,"lng":136.909525,"zip":"4620054"},{"town":"萩野通一丁目","koaza":"","lat":35.205369,"lng":136.911304,"zip":"4620026"},{"town":"萩野通二丁目","koaza":"","lat":35.20916,"lng":136.910644,"zip":"4620026"},{"town":"八龍町一丁目","koaza":"","lat":35.199733,"lng":136.931278,"zip":"4620805"},{"town":"鳩岡二丁目","koaza":"","lat":35.209539,"lng":136.912809,"zip":"4620024"},{"town":"鳩岡町一丁目","koaza":"","lat":35.205959,"lng":136.91292,"zip":"4620025"},{"town":"東味鋺一丁目","koaza":"","lat":35.220349,"lng":136.93414,"zip":"4620013"},{"town":"東味鋺二丁目","koaza":"","lat":35.222229,"lng":136.938012,"zip":"4620013"},{"town":"東味鋺三丁目","koaza":"","lat":35.218564,"lng":136.936076,"zip":"4620013"},{"town":"東大杉町一丁目","koaza":"","lat":35.190749,"lng":136.92541,"zip":"4620826"},{"town":"東大杉町二丁目","koaza":"","lat":35.190713,"lng":136.926234,"zip":"4620826"},{"town":"東大杉町三丁目","koaza":"","lat":35.190676,"lng":136.92722,"zip":"4620826"},{"town":"東大杉町四丁目","koaza":"","lat":35.190626,"lng":136.928174,"zip":"4620826"},{"town":"東大曽根町上一丁目","koaza":"","lat":35.192615,"lng":136.929062,"zip":"4620823"},{"town":"東長田町一丁目","koaza":"","lat":35.191461,"lng":136.925399,"zip":"4620827"},{"town":"東長田町二丁目","koaza":"","lat":35.191467,"lng":136.926266,"zip":"4620827"},{"town":"東長田町三丁目","koaza":"","lat":35.191308,"lng":136.927259,"zip":"4620827"},{"town":"東長田町四丁目","koaza":"","lat":35.191428,"lng":136.928316,"zip":"4620827"},{"town":"東水切町一丁目","koaza":"","lat":35.192948,"lng":136.925446,"zip":"4620828"},{"town":"東水切町二丁目","koaza":"","lat":35.192777,"lng":136.926327,"zip":"4620828"},{"town":"東水切町三丁目","koaza":"","lat":35.192531,"lng":136.927313,"zip":"4620828"},{"town":"東水切町四丁目","koaza":"","lat":35.192385,"lng":136.928363,"zip":"4620828"},{"town":"平手町一丁目","koaza":"","lat":35.202856,"lng":136.901822,"zip":"4620057"},{"town":"平手町二丁目","koaza":"","lat":35.202553,"lng":136.904942,"zip":"4620057"},{"town":"福徳町","koaza":"","lat":35.215012,"lng":136.900156,"zip":"4620052"},{"town":"福徳町一丁目","koaza":"","lat":35.21121,"lng":136.896389,"zip":"4620052"},{"town":"福徳町二丁目","koaza":"","lat":35.211424,"lng":136.897681,"zip":"4620052"},{"town":"福徳町三丁目","koaza":"","lat":35.211796,"lng":136.899062,"zip":"4620052"},{"town":"福徳町四丁目","koaza":"","lat":35.212153,"lng":136.900332,"zip":"4620052"},{"town":"福徳町五丁目","koaza":"","lat":35.212823,"lng":136.902105,"zip":"4620052"},{"town":"福徳町六丁目","koaza":"","lat":35.213424,"lng":136.903265,"zip":"4620052"},{"town":"福徳町七丁目","koaza":"","lat":35.214353,"lng":136.904288,"zip":"4620052"},{"town":"平安一丁目","koaza":"","lat":35.194402,"lng":136.931222,"zip":"4620819"},{"town":"平安二丁目","koaza":"","lat":35.196163,"lng":136.931935,"zip":"4620819"},{"town":"平安通一丁目","koaza":"","lat":35.195775,"lng":136.929387,"zip":"4620816"},{"town":"真畔町","koaza":"","lat":35.201203,"lng":136.922925,"zip":"4620862"},{"town":"桝形町一丁目","koaza":"","lat":35.20948,"lng":136.901665,"zip":"4620055"},{"town":"丸新町","koaza":"","lat":35.231344,"lng":136.911525,"zip":"4620063"},{"town":"水切町一丁目","koaza":"","lat":35.192709,"lng":136.916225,"zip":"4620833"},{"town":"水切町二丁目","koaza":"","lat":35.192669,"lng":136.917414,"zip":"4620833"},{"town":"水切町三丁目","koaza":"","lat":35.192662,"lng":136.918372,"zip":"4620833"},{"town":"水切町四丁目","koaza":"","lat":35.19259,"lng":136.919353,"zip":"4620833"},{"town":"水切町五丁目","koaza":"","lat":35.192636,"lng":136.920739,"zip":"4620833"},{"town":"水切町六丁目","koaza":"","lat":35.192424,"lng":136.921985,"zip":"4620833"},{"town":"水切町七丁目","koaza":"","lat":35.192514,"lng":136.923322,"zip":"4620833"},{"town":"水草町一丁目","koaza":"","lat":35.205574,"lng":136.908086,"zip":"4620042"},{"town":"水草町二丁目","koaza":"","lat":35.209265,"lng":136.907603,"zip":"4620042"},{"town":"名城一丁目","koaza":"","lat":35.189118,"lng":136.901441,"zip":"4620846"},{"town":"名城二丁目","koaza":"","lat":35.191109,"lng":136.904984,"zip":"4620846"},{"town":"名城三丁目","koaza":"","lat":35.187664,"lng":136.905538,"zip":"4620846"},{"town":"元志賀町一丁目","koaza":"","lat":35.200363,"lng":136.908122,"zip":"4620044"},{"town":"元志賀町二丁目","koaza":"","lat":35.200366,"lng":136.910169,"zip":"4620044"},{"town":"八代町一丁目","koaza":"","lat":35.202654,"lng":136.908152,"zip":"4620043"},{"town":"八代町二丁目","koaza":"","lat":35.202758,"lng":136.910208,"zip":"4620043"},{"town":"安井一丁目","koaza":"","lat":35.20988,"lng":136.916552,"zip":"4620023"},{"town":"安井二丁目","koaza":"","lat":35.212563,"lng":136.916411,"zip":"4620023"},{"town":"安井三丁目","koaza":"","lat":35.212135,"lng":136.919772,"zip":"4620023"},{"town":"安井四丁目","koaza":"","lat":35.210006,"lng":136.920183,"zip":"4620023"},{"town":"安井町","koaza":"","lat":35.211526,"lng":136.922879,"zip":"4620000"},{"town":"矢田町一丁目","koaza":"","lat":35.200108,"lng":136.942658,"zip":"4620812"},{"town":"柳原一丁目","koaza":"","lat":35.187898,"lng":136.907623,"zip":"4620845"},{"town":"柳原二丁目","koaza":"","lat":35.191452,"lng":136.907452,"zip":"4620845"},{"town":"柳原三丁目","koaza":"","lat":35.191832,"lng":136.909169,"zip":"4620845"},{"town":"柳原四丁目","koaza":"","lat":35.1882,"lng":136.90935,"zip":"4620845"},{"town":"山田一丁目","koaza":"","lat":35.194454,"lng":136.936136,"zip":"4620810"},{"town":"山田二丁目","koaza":"","lat":35.196758,"lng":136.935243,"zip":"4620810"},{"town":"山田三丁目","koaza":"","lat":35.198047,"lng":136.939809,"zip":"4620810"},{"town":"山田四丁目","koaza":"","lat":35.198951,"lng":136.941296,"zip":"4620810"},{"town":"山田北町一丁目","koaza":"","lat":35.201504,"lng":136.940912,"zip":"4620811"},{"town":"山田北町二丁目","koaza":"","lat":35.203125,"lng":136.939983,"zip":"4620811"},{"town":"山田町三丁目","koaza":"","lat":35.196627,"lng":136.938149,"zip":"4620813"},{"town":"山田町四丁目","koaza":"","lat":35.198315,"lng":136.938334,"zip":"4620813"},{"town":"山田西町二丁目","koaza":"","lat":35.198411,"lng":136.933149,"zip":"4620814"},{"town":"山田西町三丁目","koaza":"","lat":35.197928,"lng":136.936525,"zip":"4620814"},{"town":"芳野二丁目","koaza":"","lat":35.188113,"lng":136.923523,"zip":"4620824"},{"town":"芳野三丁目","koaza":"","lat":35.188037,"lng":136.925754,"zip":"4620824"},{"town":"瑠璃光町一丁目","koaza":"","lat":35.197085,"lng":136.924368,"zip":"4620866"},{"town":"瑠璃光町二丁目","koaza":"","lat":35.198051,"lng":136.924324,"zip":"4620866"},{"town":"瑠璃光町三丁目","koaza":"","lat":35.199131,"lng":136.924292,"zip":"4620866"},{"town":"瑠璃光町四丁目","koaza":"","lat":35.200093,"lng":136.924278,"zip":"4620866"},{"town":"瑠璃光町五丁目","koaza":"","lat":35.201339,"lng":136.924147,"zip":"4620866"},{"town":"六が池町","koaza":"","lat":35.240354,"lng":136.928009,"zip":"4620002"},{"town":"若鶴町","koaza":"","lat":35.230857,"lng":136.916164,"zip":"4620006"},{"town":"若葉通一丁目","koaza":"","lat":35.196243,"lng":136.922841,"zip":"4620854"},{"town":"若葉通二丁目","koaza":"","lat":35.196143,"lng":136.924351,"zip":"4620854"},{"town":"若葉通三丁目","koaza":"","lat":35.196109,"lng":136.925659,"zip":"4620854"},{"town":"若葉通四丁目","koaza":"","lat":35.196054,"lng":136.927145,"zip":"4620854"},{"town":"若葉通五丁目","koaza":"","lat":35.196023,"lng":136.928524,"zip":"4620854"},{"town":"福徳町","koaza":"広瀬島","lat":35.211262,"lng":136.90185,"zip":"4620052"},{"town":"光音寺町","koaza":"野方","lat":35.211485,"lng":136.905856,"zip":"4620053"}]