[{"town":"赤城町","koaza":"","lat":35.223348,"lng":136.888116,"zip":"4520813"},{"town":"あし原町","koaza":"","lat":35.210737,"lng":136.865431,"zip":"4520823"},{"town":"天塚町一丁目","koaza":"","lat":35.200266,"lng":136.896532,"zip":"4510021"},{"town":"天塚町二丁目","koaza":"","lat":35.200008,"lng":136.895143,"zip":"4510021"},{"town":"天塚町三丁目","koaza":"","lat":35.200383,"lng":136.893962,"zip":"4510021"},{"town":"天塚町四丁目","koaza":"","lat":35.200529,"lng":136.892462,"zip":"4510021"},{"town":"新木町","koaza":"","lat":35.216417,"lng":136.861363,"zip":"4520836"},{"town":"市場木町","koaza":"","lat":35.217038,"lng":136.887765,"zip":"4520805"},{"town":"稲生町","koaza":"","lat":35.210551,"lng":136.89179,"zip":"4510012"},{"town":"稲生町一丁目","koaza":"","lat":35.208476,"lng":136.899638,"zip":"4510012"},{"town":"稲生町二丁目","koaza":"","lat":35.208553,"lng":136.897909,"zip":"4510012"},{"town":"稲生町三丁目","koaza":"","lat":35.208807,"lng":136.896395,"zip":"4510012"},{"town":"稲生町四丁目","koaza":"","lat":35.209281,"lng":136.895139,"zip":"4510012"},{"town":"稲生町五丁目","koaza":"","lat":35.209375,"lng":136.893854,"zip":"4510012"},{"town":"稲生町六丁目","koaza":"","lat":35.209361,"lng":136.89289,"zip":"4510012"},{"town":"稲生町七丁目","koaza":"","lat":35.208715,"lng":136.892205,"zip":"4510012"},{"town":"浮野町","koaza":"","lat":35.227101,"lng":136.85826,"zip":"4520846"},{"town":"牛島町","koaza":"","lat":35.175668,"lng":136.880386,"zip":"4510046"},{"town":"歌里町","koaza":"","lat":35.219966,"lng":136.893069,"zip":"4520807"},{"town":"江向町一丁目","koaza":"","lat":35.206827,"lng":136.899689,"zip":"4510013"},{"town":"江向町二丁目","koaza":"","lat":35.206907,"lng":136.897799,"zip":"4510013"},{"town":"江向町三丁目","koaza":"","lat":35.20704,"lng":136.896352,"zip":"4510013"},{"town":"江向町四丁目","koaza":"","lat":35.207079,"lng":136.89503,"zip":"4510013"},{"town":"江向町五丁目","koaza":"","lat":35.207055,"lng":136.893828,"zip":"4510013"},{"town":"江向町六丁目","koaza":"","lat":35.207405,"lng":136.892436,"zip":"4510013"},{"town":"円明町","koaza":"","lat":35.22798,"lng":136.873127,"zip":"4520831"},{"town":"大金町一丁目","koaza":"","lat":35.203626,"lng":136.887156,"zip":"4510082"},{"town":"大金町二丁目","koaza":"","lat":35.203997,"lng":136.887953,"zip":"4510082"},{"town":"大金町三丁目","koaza":"","lat":35.20451,"lng":136.888024,"zip":"4510082"},{"town":"大金町四丁目","koaza":"","lat":35.204946,"lng":136.88858,"zip":"4510082"},{"town":"大金町五丁目","koaza":"","lat":35.205359,"lng":136.888578,"zip":"4510082"},{"town":"大野木一丁目","koaza":"","lat":35.215898,"lng":136.893838,"zip":"4520803"},{"town":"大野木二丁目","koaza":"","lat":35.217965,"lng":136.896586,"zip":"4520803"},{"town":"大野木三丁目","koaza":"","lat":35.220039,"lng":136.899628,"zip":"4520803"},{"town":"大野木四丁目","koaza":"","lat":35.221442,"lng":136.89905,"zip":"4520803"},{"town":"大野木五丁目","koaza":"","lat":35.223759,"lng":136.899819,"zip":"4520803"},{"town":"押切一丁目","koaza":"","lat":35.186112,"lng":136.884832,"zip":"4510063"},{"town":"押切二丁目","koaza":"","lat":35.187405,"lng":136.884793,"zip":"4510063"},{"town":"貝田町一丁目","koaza":"","lat":35.20093,"lng":136.89944,"zip":"4510022"},{"town":"貝田町二丁目","koaza":"","lat":35.200353,"lng":136.897907,"zip":"4510022"},{"town":"笠取町一丁目","koaza":"","lat":35.198564,"lng":136.887698,"zip":"4510072"},{"town":"笠取町二丁目","koaza":"","lat":35.199415,"lng":136.887281,"zip":"4510072"},{"town":"笠取町三丁目","koaza":"","lat":35.200262,"lng":136.887891,"zip":"4510072"},{"town":"笠取町四丁目","koaza":"","lat":35.200522,"lng":136.88661,"zip":"4510072"},{"town":"上小田井一丁目","koaza":"","lat":35.215593,"lng":136.879923,"zip":"4520821"},{"town":"上小田井二丁目","koaza":"","lat":35.21898,"lng":136.878456,"zip":"4520821"},{"town":"上名古屋一丁目","koaza":"","lat":35.193489,"lng":136.898072,"zip":"4510025"},{"town":"上名古屋二丁目","koaza":"","lat":35.193334,"lng":136.89343,"zip":"4510025"},{"town":"上名古屋三丁目","koaza":"","lat":35.195646,"lng":136.893307,"zip":"4510025"},{"town":"上名古屋四丁目","koaza":"","lat":35.195758,"lng":136.898043,"zip":"4510025"},{"town":"上橋町","koaza":"","lat":35.22384,"lng":136.862644,"zip":"4520844"},{"town":"上堀越町一丁目","koaza":"","lat":35.205039,"lng":136.882387,"zip":"4510084"},{"town":"上堀越町二丁目","koaza":"","lat":35.204493,"lng":136.881131,"zip":"4510084"},{"town":"上堀越町三丁目","koaza":"","lat":35.204392,"lng":136.879874,"zip":"4510084"},{"town":"上堀越町四丁目","koaza":"","lat":35.203979,"lng":136.878707,"zip":"4510084"},{"town":"菊井一丁目","koaza":"","lat":35.183092,"lng":136.884662,"zip":"4510044"},{"town":"菊井二丁目","koaza":"","lat":35.179351,"lng":136.884027,"zip":"4510044"},{"town":"貴生町","koaza":"","lat":35.223849,"lng":136.876019,"zip":"4520816"},{"town":"木前町","koaza":"","lat":35.220815,"lng":136.865534,"zip":"4520834"},{"town":"清里町","koaza":"","lat":35.231309,"lng":136.894265,"zip":"4520801"},{"town":"康生通一丁目","koaza":"","lat":35.197301,"lng":136.888944,"zip":"4510075"},{"town":"康生通二丁目","koaza":"","lat":35.197169,"lng":136.885068,"zip":"4510075"},{"town":"香呑町一丁目","koaza":"","lat":35.203264,"lng":136.89953,"zip":"4510015"},{"town":"香呑町二丁目","koaza":"","lat":35.202681,"lng":136.897813,"zip":"4510015"},{"town":"香呑町三丁目","koaza":"","lat":35.202885,"lng":136.89637,"zip":"4510015"},{"town":"香呑町四丁目","koaza":"","lat":35.202783,"lng":136.895045,"zip":"4510015"},{"town":"香呑町五丁目","koaza":"","lat":35.202776,"lng":136.893863,"zip":"4510015"},{"town":"香呑町六丁目","koaza":"","lat":35.203477,"lng":136.892273,"zip":"4510015"},{"town":"五才美町","koaza":"","lat":35.220221,"lng":136.888312,"zip":"4520806"},{"town":"児玉一丁目","koaza":"","lat":35.195069,"lng":136.88842,"zip":"4510066"},{"town":"児玉二丁目","koaza":"","lat":35.194409,"lng":136.885368,"zip":"4510066"},{"town":"児玉三丁目","koaza":"","lat":35.19429,"lng":136.881847,"zip":"4510066"},{"town":"こも原町","koaza":"","lat":35.208514,"lng":136.863034,"zip":"4520824"},{"town":"坂井戸町","koaza":"","lat":35.214887,"lng":136.890452,"zip":"4520804"},{"town":"栄生一丁目","koaza":"","lat":35.185553,"lng":136.876962,"zip":"4510052"},{"town":"栄生二丁目","koaza":"","lat":35.184714,"lng":136.873102,"zip":"4510052"},{"town":"栄生三丁目","koaza":"","lat":35.187406,"lng":136.872232,"zip":"4510052"},{"town":"笹塚町一丁目","koaza":"","lat":35.200761,"lng":136.883675,"zip":"4510077"},{"town":"笹塚町二丁目","koaza":"","lat":35.200802,"lng":136.882133,"zip":"4510077"},{"town":"城西一丁目","koaza":"","lat":35.183452,"lng":136.8933,"zip":"4510031"},{"town":"城西二丁目","koaza":"","lat":35.185414,"lng":136.892887,"zip":"4510031"},{"town":"城西三丁目","koaza":"","lat":35.188229,"lng":136.893371,"zip":"4510031"},{"town":"城西四丁目","koaza":"","lat":35.190814,"lng":136.893218,"zip":"4510031"},{"town":"城西五丁目","koaza":"","lat":35.191014,"lng":136.89767,"zip":"4510031"},{"town":"浄心一丁目","koaza":"","lat":35.194496,"lng":136.89016,"zip":"4510061"},{"town":"浄心二丁目","koaza":"","lat":35.192653,"lng":136.886632,"zip":"4510061"},{"town":"浄心本通三丁目","koaza":"","lat":35.197614,"lng":136.890537,"zip":"4510073"},{"town":"庄内通一丁目","koaza":"","lat":35.199879,"lng":136.890991,"zip":"4510016"},{"town":"庄内通二丁目","koaza":"","lat":35.20228,"lng":136.891085,"zip":"4510016"},{"town":"庄内通三丁目","koaza":"","lat":35.204466,"lng":136.891095,"zip":"4510016"},{"town":"庄内通四丁目","koaza":"","lat":35.206888,"lng":136.891326,"zip":"4510016"},{"town":"庄内通五丁目","koaza":"","lat":35.208758,"lng":136.891513,"zip":"4510016"},{"town":"城北町一丁目","koaza":"","lat":35.198493,"lng":136.898627,"zip":"4510023"},{"town":"城北町二丁目","koaza":"","lat":35.198114,"lng":136.895801,"zip":"4510023"},{"town":"城北町三丁目","koaza":"","lat":35.198288,"lng":136.893046,"zip":"4510023"},{"town":"城西町","koaza":"","lat":35.229184,"lng":136.862372,"zip":"4520841"},{"town":"城町","koaza":"","lat":35.229075,"lng":136.866315,"zip":"4520842"},{"town":"新福寺町一丁目","koaza":"","lat":35.204957,"lng":136.885533,"zip":"4510083"},{"town":"新福寺町二丁目","koaza":"","lat":35.205148,"lng":136.883828,"zip":"4510083"},{"town":"新道一丁目","koaza":"","lat":35.182426,"lng":136.888282,"zip":"4510043"},{"town":"新道二丁目","koaza":"","lat":35.179129,"lng":136.888097,"zip":"4510043"},{"town":"数寄屋町","koaza":"","lat":35.188637,"lng":136.896659,"zip":"4510032"},{"town":"砂原町","koaza":"","lat":35.227319,"lng":136.893592,"zip":"4520811"},{"town":"浅間一丁目","koaza":"","lat":35.184145,"lng":136.890962,"zip":"4510035"},{"town":"浅間二丁目","koaza":"","lat":35.185029,"lng":136.888427,"zip":"4510035"},{"town":"田幡町","koaza":"","lat":35.197805,"lng":136.8999,"zip":"4510026"},{"town":"玉池町","koaza":"","lat":35.227448,"lng":136.888179,"zip":"4520812"},{"town":"秩父通一丁目","koaza":"","lat":35.197418,"lng":136.898028,"zip":"4510024"},{"town":"秩父通二丁目","koaza":"","lat":35.197228,"lng":136.893594,"zip":"4510024"},{"town":"天神山町","koaza":"","lat":35.190031,"lng":136.885207,"zip":"4510065"},{"town":"東岸町二丁目","koaza":"","lat":35.197741,"lng":136.882388,"zip":"4510076"},{"town":"十方町","koaza":"","lat":35.218132,"lng":136.860295,"zip":"4520837"},{"town":"鳥見町一丁目","koaza":"","lat":35.201611,"lng":136.886316,"zip":"4510071"},{"town":"鳥見町二丁目","koaza":"","lat":35.20208,"lng":136.887749,"zip":"4510071"},{"town":"鳥見町三丁目","koaza":"","lat":35.202666,"lng":136.888958,"zip":"4510071"},{"town":"鳥見町四丁目","koaza":"","lat":35.203014,"lng":136.886615,"zip":"4510071"},{"town":"中小田井一丁目","koaza":"","lat":35.212545,"lng":136.877217,"zip":"4520822"},{"town":"中小田井二丁目","koaza":"","lat":35.212785,"lng":136.872858,"zip":"4520822"},{"town":"中小田井三丁目","koaza":"","lat":35.21455,"lng":136.868585,"zip":"4520822"},{"town":"中小田井四丁目","koaza":"","lat":35.219368,"lng":136.872109,"zip":"4520822"},{"town":"中小田井五丁目","koaza":"","lat":35.217777,"lng":136.874709,"zip":"4520822"},{"town":"長先町","koaza":"","lat":35.220339,"lng":136.859064,"zip":"4520838"},{"town":"中沼町","koaza":"","lat":35.223615,"lng":136.858392,"zip":"4520845"},{"town":"那古野一丁目","koaza":"","lat":35.175659,"lng":136.891779,"zip":"4510042"},{"town":"那古野二丁目","koaza":"","lat":35.176178,"lng":136.888086,"zip":"4510042"},{"town":"名塚町","koaza":"","lat":35.209268,"lng":136.886854,"zip":"4510081"},{"town":"名塚町一丁目","koaza":"","lat":35.206041,"lng":136.888713,"zip":"4510081"},{"town":"名塚町二丁目","koaza":"","lat":35.206792,"lng":136.888923,"zip":"4510081"},{"town":"名塚町三丁目","koaza":"","lat":35.207827,"lng":136.887224,"zip":"4510081"},{"town":"名塚町四丁目","koaza":"","lat":35.208032,"lng":136.889939,"zip":"4510081"},{"town":"名塚町五丁目","koaza":"","lat":35.208866,"lng":136.890543,"zip":"4510081"},{"town":"西志賀町","koaza":"","lat":35.198751,"lng":136.89103,"zip":"4510027"},{"town":"西原町","koaza":"","lat":35.226718,"lng":136.862488,"zip":"4520848"},{"town":"野南町","koaza":"","lat":35.229484,"lng":136.858117,"zip":"4520847"},{"town":"則武新町一丁目","koaza":"","lat":35.185103,"lng":136.881142,"zip":"4510051"},{"town":"則武新町二丁目","koaza":"","lat":35.182718,"lng":136.880147,"zip":"4510051"},{"town":"則武新町三丁目","koaza":"","lat":35.179598,"lng":136.879398,"zip":"4510051"},{"town":"則武新町四丁目","koaza":"","lat":35.182474,"lng":136.87595,"zip":"4510051"},{"town":"花の木一丁目","koaza":"","lat":35.186654,"lng":136.88864,"zip":"4510062"},{"town":"花の木二丁目","koaza":"","lat":35.188845,"lng":136.889316,"zip":"4510062"},{"town":"花の木三丁目","koaza":"","lat":35.190884,"lng":136.889032,"zip":"4510062"},{"town":"花原町","koaza":"","lat":35.225584,"lng":136.894108,"zip":"4520809"},{"town":"幅下一丁目","koaza":"","lat":35.181619,"lng":136.892483,"zip":"4510041"},{"town":"幅下二丁目","koaza":"","lat":35.178824,"lng":136.891967,"zip":"4510041"},{"town":"樋の口町","koaza":"","lat":35.184978,"lng":136.895796,"zip":"4510034"},{"town":"比良一丁目","koaza":"","lat":35.225006,"lng":136.899733,"zip":"4520802"},{"town":"比良二丁目","koaza":"","lat":35.227289,"lng":136.899814,"zip":"4520802"},{"town":"比良三丁目","koaza":"","lat":35.229411,"lng":136.900093,"zip":"4520802"},{"town":"比良四丁目","koaza":"","lat":35.23291,"lng":136.900483,"zip":"4520802"},{"town":"平出町","koaza":"","lat":35.228815,"lng":136.870074,"zip":"4520832"},{"town":"平中町","koaza":"","lat":35.22506,"lng":136.867078,"zip":"4520843"},{"town":"枇杷島一丁目","koaza":"","lat":35.189642,"lng":136.872973,"zip":"4510053"},{"town":"枇杷島二丁目","koaza":"","lat":35.189997,"lng":136.86838,"zip":"4510053"},{"town":"枇杷島三丁目","koaza":"","lat":35.191846,"lng":136.873566,"zip":"4510053"},{"town":"枇杷島四丁目","koaza":"","lat":35.19368,"lng":136.874738,"zip":"4510053"},{"town":"枇杷島五丁目","koaza":"","lat":35.195982,"lng":136.875918,"zip":"4510053"},{"town":"枇杷島町","koaza":"","lat":35.194482,"lng":136.870779,"zip":"4510000"},{"town":"二方町","koaza":"","lat":35.226117,"lng":136.881835,"zip":"4520817"},{"town":"宝地町","koaza":"","lat":35.223527,"lng":136.893089,"zip":"4520808"},{"town":"堀越一丁目","koaza":"","lat":35.199094,"lng":136.878742,"zip":"4510055"},{"town":"堀越二丁目","koaza":"","lat":35.201811,"lng":136.88013,"zip":"4510055"},{"town":"堀越三丁目","koaza":"","lat":35.201939,"lng":136.878029,"zip":"4510055"},{"town":"堀越町","koaza":"","lat":35.203607,"lng":136.876986,"zip":"4510000"},{"town":"堀端町","koaza":"","lat":35.188227,"lng":136.89782,"zip":"4510033"},{"town":"桝形町一丁目","koaza":"","lat":35.208941,"lng":136.901009,"zip":"4510011"},{"town":"又穂町一丁目","koaza":"","lat":35.205153,"lng":136.900036,"zip":"4510014"},{"town":"又穂町二丁目","koaza":"","lat":35.205053,"lng":136.898216,"zip":"4510014"},{"town":"又穂町三丁目","koaza":"","lat":35.204918,"lng":136.896222,"zip":"4510014"},{"town":"又穂町四丁目","koaza":"","lat":35.205144,"lng":136.895029,"zip":"4510014"},{"town":"又穂町五丁目","koaza":"","lat":35.204902,"lng":136.893724,"zip":"4510014"},{"town":"又穂町六丁目","koaza":"","lat":35.20516,"lng":136.892375,"zip":"4510014"},{"town":"丸野一丁目","koaza":"","lat":35.215078,"lng":136.864644,"zip":"4520835"},{"town":"丸野二丁目","koaza":"","lat":35.21815,"lng":136.866216,"zip":"4520835"},{"town":"万代町一丁目","koaza":"","lat":35.197741,"lng":136.88865,"zip":"4510074"},{"town":"万代町二丁目","koaza":"","lat":35.198018,"lng":136.885506,"zip":"4510074"},{"town":"南川町","koaza":"","lat":35.219682,"lng":136.882801,"zip":"4520814"},{"town":"南堀越一丁目","koaza":"","lat":35.196658,"lng":136.879623,"zip":"4510054"},{"town":"南堀越二丁目","koaza":"","lat":35.198713,"lng":136.875122,"zip":"4510054"},{"town":"見寄町","koaza":"","lat":35.219514,"lng":136.863273,"zip":"4520839"},{"town":"名駅一丁目","koaza":"","lat":35.172566,"lng":136.881199,"zip":"4510045"},{"town":"名駅二丁目","koaza":"","lat":35.176354,"lng":136.884231,"zip":"4510045"},{"town":"名駅三丁目","koaza":"","lat":35.174576,"lng":136.886808,"zip":"4510045"},{"town":"名西一丁目","koaza":"","lat":35.187703,"lng":136.879243,"zip":"4510064"},{"town":"名西二丁目","koaza":"","lat":35.18968,"lng":136.879804,"zip":"4510064"},{"town":"八筋町","koaza":"","lat":35.221832,"lng":136.881337,"zip":"4520815"},{"town":"山木一丁目","koaza":"","lat":35.222079,"lng":136.869246,"zip":"4520833"},{"town":"山木二丁目","koaza":"","lat":35.225248,"lng":136.871675,"zip":"4520833"},{"town":"山田町大字大野木","koaza":"","lat":35.218799,"lng":136.901733,"zip":"4510000"},{"town":"山田町大字上小田井","koaza":"","lat":35.213898,"lng":136.881715,"zip":"4510000"},{"town":"山田町大字中小田井","koaza":"","lat":35.211148,"lng":136.884012,"zip":"4510000"},{"town":"山田町大字比良","koaza":"","lat":35.229149,"lng":136.903833,"zip":"4510000"},{"town":"山田町大字平田","koaza":"","lat":35.218537,"lng":136.868456,"zip":"4510000"},{"town":"山田町大字上小田井","koaza":"敷地","lat":35.215016,"lng":136.886613,"zip":"4510000"},{"town":"稲生町","koaza":"杁先","lat":35.209816,"lng":136.897869,"zip":"4510012"}]