[{"town":"相川一丁目","koaza":"","lat":35.102446,"lng":136.967674,"zip":"4680836"},{"town":"相川二丁目","koaza":"","lat":35.102505,"lng":136.972101,"zip":"4680836"},{"town":"荒池一丁目","koaza":"","lat":35.117238,"lng":137.011473,"zip":"4680013"},{"town":"荒池二丁目","koaza":"","lat":35.115139,"lng":137.013517,"zip":"4680013"},{"town":"井口一丁目","koaza":"","lat":35.127772,"lng":136.993138,"zip":"4680052"},{"town":"井口二丁目","koaza":"","lat":35.128783,"lng":136.99646,"zip":"4680052"},{"town":"池場一丁目","koaza":"","lat":35.124711,"lng":136.980942,"zip":"4680055"},{"town":"池場二丁目","koaza":"","lat":35.121341,"lng":136.981166,"zip":"4680055"},{"town":"池場三丁目","koaza":"","lat":35.122387,"lng":136.985729,"zip":"4680055"},{"town":"池場四丁目","koaza":"","lat":35.119443,"lng":136.986509,"zip":"4680055"},{"town":"池場五丁目","koaza":"","lat":35.11897,"lng":136.98104,"zip":"4680055"},{"town":"池見一丁目","koaza":"","lat":35.124961,"lng":136.963249,"zip":"4680067"},{"town":"池見二丁目","koaza":"","lat":35.12619,"lng":136.967397,"zip":"4680067"},{"town":"一本松一丁目","koaza":"","lat":35.139475,"lng":136.986483,"zip":"4680008"},{"town":"一本松二丁目","koaza":"","lat":35.137536,"lng":136.985344,"zip":"4680008"},{"town":"井の森町","koaza":"","lat":35.105939,"lng":136.951311,"zip":"4680047"},{"town":"植田一丁目","koaza":"","lat":35.130579,"lng":136.986132,"zip":"4680051"},{"town":"植田二丁目","koaza":"","lat":35.130778,"lng":136.989867,"zip":"4680051"},{"town":"植田三丁目","koaza":"","lat":35.127966,"lng":136.988997,"zip":"4680051"},{"town":"植田西一丁目","koaza":"","lat":35.135884,"lng":136.983896,"zip":"4680058"},{"town":"植田西二丁目","koaza":"","lat":35.132456,"lng":136.982139,"zip":"4680058"},{"town":"植田西三丁目","koaza":"","lat":35.130423,"lng":136.982336,"zip":"4680058"},{"town":"植田東一丁目","koaza":"","lat":35.136379,"lng":136.996235,"zip":"4680006"},{"town":"植田東二丁目","koaza":"","lat":35.133474,"lng":136.997074,"zip":"4680006"},{"town":"植田東三丁目","koaza":"","lat":35.131135,"lng":136.997177,"zip":"4680006"},{"town":"植田本町一丁目","koaza":"","lat":35.137541,"lng":136.992614,"zip":"4680007"},{"town":"植田本町二丁目","koaza":"","lat":35.133781,"lng":136.992993,"zip":"4680007"},{"town":"植田本町三丁目","koaza":"","lat":35.13079,"lng":136.993279,"zip":"4680007"},{"town":"植田南一丁目","koaza":"","lat":35.127368,"lng":136.979403,"zip":"4680053"},{"town":"植田南二丁目","koaza":"","lat":35.127446,"lng":136.982916,"zip":"4680053"},{"town":"植田南三丁目","koaza":"","lat":35.1262,"lng":136.987948,"zip":"4680053"},{"town":"植田山一丁目","koaza":"","lat":35.146851,"lng":136.982794,"zip":"4680001"},{"town":"植田山二丁目","koaza":"","lat":35.147033,"lng":136.986311,"zip":"4680001"},{"town":"植田山三丁目","koaza":"","lat":35.146425,"lng":136.990188,"zip":"4680001"},{"town":"植田山四丁目","koaza":"","lat":35.143504,"lng":136.988485,"zip":"4680001"},{"town":"植田山五丁目","koaza":"","lat":35.142925,"lng":136.985129,"zip":"4680001"},{"town":"梅が丘一丁目","koaza":"","lat":35.138347,"lng":137.000872,"zip":"4680004"},{"town":"梅が丘二丁目","koaza":"","lat":35.137495,"lng":137.007176,"zip":"4680004"},{"town":"梅が丘三丁目","koaza":"","lat":35.13458,"lng":137.005397,"zip":"4680004"},{"town":"梅が丘四丁目","koaza":"","lat":35.131905,"lng":137.005637,"zip":"4680004"},{"town":"梅が丘五丁目","koaza":"","lat":35.132831,"lng":137.001312,"zip":"4680004"},{"town":"海老山町","koaza":"","lat":35.115255,"lng":136.972029,"zip":"4680042"},{"town":"大坪一丁目","koaza":"","lat":35.139378,"lng":136.983919,"zip":"4680072"},{"town":"大坪二丁目","koaza":"","lat":35.136618,"lng":136.980977,"zip":"4680072"},{"town":"大根町","koaza":"","lat":35.112908,"lng":136.990443,"zip":"4680024"},{"town":"音聞山","koaza":"","lat":35.131879,"lng":136.967397,"zip":"4680063"},{"town":"表台","koaza":"","lat":35.128174,"lng":136.966524,"zip":"4680068"},{"town":"表山一丁目","koaza":"","lat":35.13075,"lng":136.960651,"zip":"4680069"},{"town":"表山二丁目","koaza":"","lat":35.131416,"lng":136.964795,"zip":"4680069"},{"town":"表山三丁目","koaza":"","lat":35.12731,"lng":136.962179,"zip":"4680069"},{"town":"鴻の巣一丁目","koaza":"","lat":35.142944,"lng":136.997553,"zip":"4680003"},{"town":"鴻の巣二丁目","koaza":"","lat":35.138495,"lng":136.997005,"zip":"4680003"},{"town":"御前場町","koaza":"","lat":35.111077,"lng":136.993978,"zip":"4680023"},{"town":"境根町","koaza":"","lat":35.105642,"lng":136.97446,"zip":"4680035"},{"town":"笹原町","koaza":"","lat":35.112479,"lng":136.961251,"zip":"4680044"},{"town":"山郷町","koaza":"","lat":35.114564,"lng":136.979654,"zip":"4680032"},{"town":"塩釜口一丁目","koaza":"","lat":35.135298,"lng":136.976217,"zip":"4680073"},{"town":"塩釜口二丁目","koaza":"","lat":35.13298,"lng":136.979104,"zip":"4680073"},{"town":"島田一丁目","koaza":"","lat":35.12063,"lng":136.972074,"zip":"4680056"},{"town":"島田二丁目","koaza":"","lat":35.122977,"lng":136.975953,"zip":"4680056"},{"town":"島田三丁目","koaza":"","lat":35.120754,"lng":136.977064,"zip":"4680056"},{"town":"島田四丁目","koaza":"","lat":35.117941,"lng":136.97623,"zip":"4680056"},{"town":"島田五丁目","koaza":"","lat":35.119111,"lng":136.974079,"zip":"4680056"},{"town":"島田が丘","koaza":"","lat":35.107795,"lng":136.994422,"zip":"4680029"},{"town":"島田黒石","koaza":"","lat":35.107988,"lng":136.992457,"zip":"4680028"},{"town":"菅田一丁目","koaza":"","lat":35.115008,"lng":136.964435,"zip":"4680043"},{"town":"菅田二丁目","koaza":"","lat":35.116763,"lng":136.970405,"zip":"4680043"},{"town":"菅田三丁目","koaza":"","lat":35.112438,"lng":136.968315,"zip":"4680043"},{"town":"高坂町","koaza":"","lat":35.108711,"lng":136.986464,"zip":"4680025"},{"town":"高島一丁目","koaza":"","lat":35.108008,"lng":136.998101,"zip":"4680022"},{"town":"高島二丁目","koaza":"","lat":35.104136,"lng":137.000565,"zip":"4680022"},{"town":"高宮町","koaza":"","lat":35.115386,"lng":136.976737,"zip":"4680031"},{"town":"土原一丁目","koaza":"","lat":35.115446,"lng":136.981503,"zip":"4680026"},{"town":"土原二丁目","koaza":"","lat":35.115984,"lng":136.984555,"zip":"4680026"},{"town":"土原三丁目","koaza":"","lat":35.113776,"lng":136.987105,"zip":"4680026"},{"town":"土原四丁目","koaza":"","lat":35.110802,"lng":136.984421,"zip":"4680026"},{"town":"土原五丁目","koaza":"","lat":35.112462,"lng":136.982866,"zip":"4680026"},{"town":"天白町大字植田","koaza":"","lat":35.141652,"lng":137.000657,"zip":"4680000"},{"town":"天白町大字島田","koaza":"","lat":35.117423,"lng":136.988071,"zip":"4680000"},{"town":"天白町大字野並","koaza":"","lat":35.106553,"lng":136.966532,"zip":"4680000"},{"town":"天白町大字平針","koaza":"","lat":35.113657,"lng":137.01065,"zip":"4680000"},{"town":"天白町大字八事","koaza":"","lat":35.143845,"lng":136.977842,"zip":"4680000"},{"town":"道明町","koaza":"","lat":35.124766,"lng":136.973771,"zip":"4680064"},{"town":"中砂町","koaza":"","lat":35.119896,"lng":136.964739,"zip":"4680065"},{"town":"中坪町","koaza":"","lat":35.109013,"lng":136.950917,"zip":"4680048"},{"town":"中平一丁目","koaza":"","lat":35.122676,"lng":136.998559,"zip":"4680014"},{"town":"中平二丁目","koaza":"","lat":35.117842,"lng":136.997855,"zip":"4680014"},{"town":"中平三丁目","koaza":"","lat":35.117655,"lng":137.00102,"zip":"4680014"},{"town":"中平四丁目","koaza":"","lat":35.112484,"lng":136.999479,"zip":"4680014"},{"town":"中平五丁目","koaza":"","lat":35.112871,"lng":136.996198,"zip":"4680014"},{"town":"西入町","koaza":"","lat":35.11264,"lng":136.975163,"zip":"4680039"},{"town":"野並一丁目","koaza":"","lat":35.107842,"lng":136.95668,"zip":"4680045"},{"town":"野並二丁目","koaza":"","lat":35.105013,"lng":136.955754,"zip":"4680045"},{"town":"野並三丁目","koaza":"","lat":35.102595,"lng":136.958829,"zip":"4680045"},{"town":"野並四丁目","koaza":"","lat":35.104718,"lng":136.95933,"zip":"4680045"},{"town":"八幡山","koaza":"","lat":35.132569,"lng":136.974089,"zip":"4680074"},{"town":"原一丁目","koaza":"","lat":35.126966,"lng":136.997525,"zip":"4680015"},{"town":"原二丁目","koaza":"","lat":35.123479,"lng":136.991166,"zip":"4680015"},{"town":"原三丁目","koaza":"","lat":35.12077,"lng":136.990827,"zip":"4680015"},{"town":"原四丁目","koaza":"","lat":35.122192,"lng":136.995171,"zip":"4680015"},{"town":"原五丁目","koaza":"","lat":35.116869,"lng":136.994151,"zip":"4680015"},{"town":"久方一丁目","koaza":"","lat":35.105959,"lng":136.977707,"zip":"4680034"},{"town":"久方二丁目","koaza":"","lat":35.106525,"lng":136.982553,"zip":"4680034"},{"town":"久方三丁目","koaza":"","lat":35.104073,"lng":136.980224,"zip":"4680034"},{"town":"一つ山一丁目","koaza":"","lat":35.112343,"lng":136.98083,"zip":"4680033"},{"town":"一つ山二丁目","koaza":"","lat":35.111571,"lng":136.97916,"zip":"4680033"},{"town":"一つ山三丁目","koaza":"","lat":35.109635,"lng":136.978256,"zip":"4680033"},{"town":"一つ山四丁目","koaza":"","lat":35.108996,"lng":136.980811,"zip":"4680033"},{"town":"一つ山五丁目","koaza":"","lat":35.109081,"lng":136.98269,"zip":"4680033"},{"town":"平針一丁目","koaza":"","lat":35.126651,"lng":137.002397,"zip":"4680011"},{"town":"平針二丁目","koaza":"","lat":35.124365,"lng":137.005585,"zip":"4680011"},{"town":"平針三丁目","koaza":"","lat":35.12086,"lng":137.008521,"zip":"4680011"},{"town":"平針四丁目","koaza":"","lat":35.121386,"lng":137.00485,"zip":"4680011"},{"town":"平針五丁目","koaza":"","lat":35.12224,"lng":137.00139,"zip":"4680011"},{"town":"平針台一丁目","koaza":"","lat":35.105029,"lng":137.002329,"zip":"4680030"},{"town":"平針台二丁目","koaza":"","lat":35.10593,"lng":137.006324,"zip":"4680030"},{"town":"平針南一丁目","koaza":"","lat":35.110351,"lng":137.001513,"zip":"4680020"},{"town":"平針南二丁目","koaza":"","lat":35.112111,"lng":137.005364,"zip":"4680020"},{"town":"平針南三丁目","koaza":"","lat":35.107908,"lng":137.007101,"zip":"4680020"},{"town":"平針南四丁目","koaza":"","lat":35.107309,"lng":137.011219,"zip":"4680020"},{"town":"福池一丁目","koaza":"","lat":35.111666,"lng":136.954677,"zip":"4680049"},{"town":"福池二丁目","koaza":"","lat":35.109644,"lng":136.958157,"zip":"4680049"},{"town":"古川町","koaza":"","lat":35.10194,"lng":136.950161,"zip":"4680046"},{"town":"保呂町","koaza":"","lat":35.117914,"lng":136.967422,"zip":"4680041"},{"town":"御幸山","koaza":"","lat":35.131814,"lng":136.97088,"zip":"4680075"},{"town":"向が丘一丁目","koaza":"","lat":35.117216,"lng":137.003551,"zip":"4680012"},{"town":"向が丘二丁目","koaza":"","lat":35.118495,"lng":137.006935,"zip":"4680012"},{"town":"向が丘三丁目","koaza":"","lat":35.115371,"lng":137.005301,"zip":"4680012"},{"town":"向が丘四丁目","koaza":"","lat":35.112511,"lng":137.0081,"zip":"4680012"},{"town":"元植田一丁目","koaza":"","lat":35.138117,"lng":136.989345,"zip":"4680009"},{"town":"元植田二丁目","koaza":"","lat":35.134192,"lng":136.989514,"zip":"4680009"},{"town":"元植田三丁目","koaza":"","lat":35.134528,"lng":136.986288,"zip":"4680009"},{"town":"元八事一丁目","koaza":"","lat":35.122372,"lng":136.962898,"zip":"4680066"},{"town":"元八事二丁目","koaza":"","lat":35.123801,"lng":136.968141,"zip":"4680066"},{"town":"元八事三丁目","koaza":"","lat":35.126367,"lng":136.971813,"zip":"4680066"},{"town":"元八事四丁目","koaza":"","lat":35.128974,"lng":136.974992,"zip":"4680066"},{"town":"元八事五丁目","koaza":"","lat":35.129251,"lng":136.977946,"zip":"4680066"},{"town":"焼山一丁目","koaza":"","lat":35.143364,"lng":136.990932,"zip":"4680002"},{"town":"焼山二丁目","koaza":"","lat":35.142597,"lng":136.993217,"zip":"4680002"},{"town":"八事石坂","koaza":"","lat":35.134832,"lng":136.964778,"zip":"4680076"},{"town":"八事天道","koaza":"","lat":35.134287,"lng":136.96142,"zip":"4680061"},{"town":"八事山","koaza":"","lat":35.136134,"lng":136.969135,"zip":"4680077"},{"town":"山根町","koaza":"","lat":35.110236,"lng":136.974156,"zip":"4680038"},{"town":"弥生が岡","koaza":"","lat":35.134081,"lng":136.963444,"zip":"4680062"},{"town":"横町","koaza":"","lat":35.125187,"lng":136.984968,"zip":"4680054"},{"town":"天白町大字野並","koaza":"上新田","lat":35.104462,"lng":136.962222,"zip":"4680000"},{"town":"天白町大字野並","koaza":"相生","lat":35.10502,"lng":136.968025,"zip":"4680000"},{"town":"天白町大字野並","koaza":"稲田","lat":35.108871,"lng":136.967641,"zip":"4680000"},{"town":"天白町大字八事","koaza":"裏山","lat":35.143752,"lng":136.975814,"zip":"4680000"},{"town":"天白町大字野並","koaza":"境根","lat":35.104333,"lng":136.976767,"zip":"4680000"},{"town":"天白町大字八事","koaza":"山田","lat":35.138621,"lng":136.978466,"zip":"4680000"},{"town":"天白町大字島田","koaza":"黒石","lat":35.117763,"lng":136.986793,"zip":"4680000"},{"town":"天白町大字植田","koaza":"鴻ノ巣","lat":35.141477,"lng":137.001242,"zip":"4680000"},{"town":"天白町大字平針","koaza":"大根ヶ越","lat":35.116205,"lng":137.009684,"zip":"4680000"},{"town":"天白町大字平針","koaza":"黒石","lat":35.114296,"lng":137.011102,"zip":"4680000"},{"town":"天白町大字平針","koaza":"荒池下","lat":35.111993,"lng":137.014706,"zip":"4680000"},{"town":"天白町大字野並","koaza":"欠ノ上","lat":35.107395,"lng":136.959371,"zip":"4680000"},{"town":"天白町大字野並","koaza":"北沢","lat":35.106336,"lng":136.961024,"zip":"4680000"},{"town":"天白町大字野並","koaza":"山ノ神","lat":35.108082,"lng":136.960128,"zip":"4680000"},{"town":"天白町大字平針","koaza":"上原","lat":35.119225,"lng":136.991129,"zip":"4680000"},{"town":"天白町大字平針","koaza":"大堤下","lat":35.1171,"lng":137.006767,"zip":"4680000"},{"town":"天白町大字平針","koaza":"奴女里川","lat":35.115106,"lng":137.011343,"zip":"4680000"},{"town":"天白町大字野並","koaza":"上大塚","lat":35.102455,"lng":136.962513,"zip":"4680000"},{"town":"天白町大字野並","koaza":"笹原","lat":35.110303,"lng":136.962281,"zip":"4680000"}]