[{"town":"荒輪井町一丁目","koaza":"","lat":35.164506,"lng":136.841037,"zip":"4530848"},{"town":"荒輪井町二丁目","koaza":"","lat":35.164471,"lng":136.839657,"zip":"4530848"},{"town":"稲上町一丁目","koaza":"","lat":35.173534,"lng":136.843548,"zip":"4530066"},{"town":"稲上町二丁目","koaza":"","lat":35.171723,"lng":136.844418,"zip":"4530066"},{"town":"稲上町三丁目","koaza":"","lat":35.170659,"lng":136.844834,"zip":"4530066"},{"town":"稲上町四丁目","koaza":"","lat":35.169927,"lng":136.844538,"zip":"4530066"},{"town":"稲上町五丁目","koaza":"","lat":35.169153,"lng":136.844633,"zip":"4530066"},{"town":"稲西町","koaza":"","lat":35.165156,"lng":136.837563,"zip":"4530849"},{"town":"稲葉地町","koaza":"","lat":35.170915,"lng":136.838219,"zip":"4530841"},{"town":"稲葉地町一丁目","koaza":"","lat":35.166214,"lng":136.84537,"zip":"4530841"},{"town":"稲葉地町二丁目","koaza":"","lat":35.16622,"lng":136.843629,"zip":"4530841"},{"town":"稲葉地町三丁目","koaza":"","lat":35.166685,"lng":136.842598,"zip":"4530841"},{"town":"稲葉地町四丁目","koaza":"","lat":35.166913,"lng":136.841022,"zip":"4530841"},{"town":"稲葉地町五丁目","koaza":"","lat":35.16692,"lng":136.839312,"zip":"4530841"},{"town":"稲葉地町六丁目","koaza":"","lat":35.167549,"lng":136.837372,"zip":"4530841"},{"town":"稲葉地町七丁目","koaza":"","lat":35.163582,"lng":136.844762,"zip":"4530841"},{"town":"稲葉地町八丁目","koaza":"","lat":35.161874,"lng":136.846158,"zip":"4530841"},{"town":"稲葉地本通一丁目","koaza":"","lat":35.168373,"lng":136.845347,"zip":"4530057"},{"town":"稲葉地本通二丁目","koaza":"","lat":35.168458,"lng":136.842721,"zip":"4530057"},{"town":"稲葉地本通三丁目","koaza":"","lat":35.168629,"lng":136.839019,"zip":"4530057"},{"town":"乾出町一丁目","koaza":"","lat":35.1674,"lng":136.856043,"zip":"4530832"},{"town":"乾出町二丁目","koaza":"","lat":35.166442,"lng":136.856033,"zip":"4530832"},{"town":"乾出町三丁目","koaza":"","lat":35.165619,"lng":136.856052,"zip":"4530832"},{"town":"乾出町四丁目","koaza":"","lat":35.164753,"lng":136.856007,"zip":"4530832"},{"town":"猪之越町一丁目","koaza":"","lat":35.185201,"lng":136.864358,"zip":"4530038"},{"town":"猪之越町二丁目","koaza":"","lat":35.185547,"lng":136.863075,"zip":"4530038"},{"town":"猪之越町三丁目","koaza":"","lat":35.185028,"lng":136.861223,"zip":"4530038"},{"town":"井深町","koaza":"","lat":35.179469,"lng":136.874951,"zip":"4530012"},{"town":"岩上町","koaza":"","lat":35.162512,"lng":136.838813,"zip":"4530847"},{"town":"岩塚町","koaza":"","lat":35.156121,"lng":136.840807,"zip":"4530862"},{"town":"岩塚町一丁目","koaza":"","lat":35.156042,"lng":136.852908,"zip":"4530862"},{"town":"岩塚町二丁目","koaza":"","lat":35.156107,"lng":136.850932,"zip":"4530862"},{"town":"岩塚町三丁目","koaza":"","lat":35.156061,"lng":136.848715,"zip":"4530862"},{"town":"岩塚町四丁目","koaza":"","lat":35.156384,"lng":136.846165,"zip":"4530862"},{"town":"岩塚町五丁目","koaza":"","lat":35.156497,"lng":136.844747,"zip":"4530862"},{"town":"岩塚本通一丁目","koaza":"","lat":35.15758,"lng":136.853147,"zip":"4530861"},{"town":"岩塚本通二丁目","koaza":"","lat":35.157625,"lng":136.850947,"zip":"4530861"},{"town":"岩塚本通三丁目","koaza":"","lat":35.157829,"lng":136.848543,"zip":"4530861"},{"town":"岩塚本通四丁目","koaza":"","lat":35.157733,"lng":136.845758,"zip":"4530861"},{"town":"岩塚本通五丁目","koaza":"","lat":35.157872,"lng":136.843463,"zip":"4530861"},{"town":"岩塚本通六丁目","koaza":"","lat":35.158015,"lng":136.841674,"zip":"4530861"},{"town":"牛島町","koaza":"","lat":35.174089,"lng":136.88237,"zip":"4530000"},{"town":"牛田通一丁目","koaza":"","lat":35.158651,"lng":136.864917,"zip":"4530853"},{"town":"牛田通二丁目","koaza":"","lat":35.155973,"lng":136.864945,"zip":"4530853"},{"town":"牛田通三丁目","koaza":"","lat":35.15446,"lng":136.864636,"zip":"4530853"},{"town":"牛田通四丁目","koaza":"","lat":35.153256,"lng":136.864348,"zip":"4530853"},{"town":"運河町","koaza":"","lat":35.159577,"lng":136.882457,"zip":"4530873"},{"town":"黄金通一丁目","koaza":"","lat":35.166571,"lng":136.872273,"zip":"4530804"},{"town":"黄金通二丁目","koaza":"","lat":35.164287,"lng":136.871746,"zip":"4530804"},{"town":"黄金通三丁目","koaza":"","lat":35.161807,"lng":136.871439,"zip":"4530804"},{"town":"黄金通四丁目","koaza":"","lat":35.16055,"lng":136.871134,"zip":"4530804"},{"town":"黄金通五丁目","koaza":"","lat":35.159437,"lng":136.870961,"zip":"4530804"},{"town":"黄金通六丁目","koaza":"","lat":35.158079,"lng":136.870721,"zip":"4530804"},{"town":"黄金通七丁目","koaza":"","lat":35.156866,"lng":136.870822,"zip":"4530804"},{"town":"黄金通八丁目","koaza":"","lat":35.156141,"lng":136.87073,"zip":"4530804"},{"town":"大秋町一丁目","koaza":"","lat":35.176161,"lng":136.867384,"zip":"4530042"},{"town":"大秋町二丁目","koaza":"","lat":35.174774,"lng":136.867523,"zip":"4530042"},{"town":"大秋町三丁目","koaza":"","lat":35.173757,"lng":136.867075,"zip":"4530042"},{"town":"大秋町四丁目","koaza":"","lat":35.17284,"lng":136.867101,"zip":"4530042"},{"town":"大宮町一丁目","koaza":"","lat":35.166481,"lng":136.865648,"zip":"4530821"},{"town":"大宮町二丁目","koaza":"","lat":35.166316,"lng":136.864406,"zip":"4530821"},{"town":"大宮町三丁目","koaza":"","lat":35.166384,"lng":136.863573,"zip":"4530821"},{"town":"沖田町","koaza":"","lat":35.158899,"lng":136.857467,"zip":"4530825"},{"town":"押木田町一丁目","koaza":"","lat":35.164338,"lng":136.857149,"zip":"4530833"},{"town":"押木田町二丁目","koaza":"","lat":35.163238,"lng":136.857033,"zip":"4530833"},{"town":"角割町一丁目","koaza":"","lat":35.156395,"lng":136.869281,"zip":"4530852"},{"town":"角割町二丁目","koaza":"","lat":35.156093,"lng":136.868017,"zip":"4530852"},{"town":"角割町三丁目","koaza":"","lat":35.155794,"lng":136.866761,"zip":"4530852"},{"town":"角割町四丁目","koaza":"","lat":35.155432,"lng":136.865708,"zip":"4530852"},{"town":"角割町五丁目","koaza":"","lat":35.154664,"lng":136.867597,"zip":"4530852"},{"town":"烏森町一丁目","koaza":"","lat":35.154836,"lng":136.862565,"zip":"4530855"},{"town":"烏森町二丁目","koaza":"","lat":35.155034,"lng":136.861001,"zip":"4530855"},{"town":"烏森町三丁目","koaza":"","lat":35.155414,"lng":136.859286,"zip":"4530855"},{"town":"烏森町四丁目","koaza":"","lat":35.155755,"lng":136.857424,"zip":"4530855"},{"town":"烏森町五丁目","koaza":"","lat":35.155877,"lng":136.85555,"zip":"4530855"},{"town":"烏森町六丁目","koaza":"","lat":35.15215,"lng":136.855038,"zip":"4530855"},{"town":"烏森町七丁目","koaza":"","lat":35.151977,"lng":136.857385,"zip":"4530855"},{"town":"烏森町八丁目","koaza":"","lat":35.152053,"lng":136.860797,"zip":"4530855"},{"town":"香取町一丁目","koaza":"","lat":35.167509,"lng":136.852444,"zip":"4530055"},{"town":"香取町二丁目","koaza":"","lat":35.16766,"lng":136.848381,"zip":"4530055"},{"town":"上石川町一丁目","koaza":"","lat":35.163994,"lng":136.853004,"zip":"4530835"},{"town":"上石川町二丁目","koaza":"","lat":35.163381,"lng":136.852992,"zip":"4530835"},{"town":"上石川町三丁目","koaza":"","lat":35.162731,"lng":136.85296,"zip":"4530835"},{"town":"上石川町四丁目","koaza":"","lat":35.162071,"lng":136.85293,"zip":"4530835"},{"town":"上石川町五丁目","koaza":"","lat":35.161412,"lng":136.85333,"zip":"4530835"},{"town":"上米野町一丁目","koaza":"","lat":35.167066,"lng":136.874047,"zip":"4530809"},{"town":"上米野町二丁目","koaza":"","lat":35.166308,"lng":136.875031,"zip":"4530809"},{"town":"上米野町三丁目","koaza":"","lat":35.166494,"lng":136.873672,"zip":"4530809"},{"town":"上米野町四丁目","koaza":"","lat":35.165554,"lng":136.873963,"zip":"4530809"},{"town":"上米野町五丁目","koaza":"","lat":35.165444,"lng":136.874998,"zip":"4530809"},{"town":"上ノ宮町一丁目","koaza":"","lat":35.176472,"lng":136.864592,"zip":"4530043"},{"town":"上ノ宮町二丁目","koaza":"","lat":35.175389,"lng":136.863946,"zip":"4530043"},{"town":"亀島一丁目","koaza":"","lat":35.17678,"lng":136.87582,"zip":"4530013"},{"town":"亀島二丁目","koaza":"","lat":35.174789,"lng":136.876298,"zip":"4530013"},{"town":"鴨付町一丁目","koaza":"","lat":35.162085,"lng":136.843397,"zip":"4530843"},{"town":"鴨付町二丁目","koaza":"","lat":35.16066,"lng":136.844249,"zip":"4530843"},{"town":"川前町","koaza":"","lat":35.146476,"lng":136.840883,"zip":"4530865"},{"town":"菊水町一丁目","koaza":"","lat":35.179058,"lng":136.851254,"zip":"4530068"},{"town":"菊水町二丁目","koaza":"","lat":35.178694,"lng":136.848741,"zip":"4530068"},{"town":"北浦町","koaza":"","lat":35.1587,"lng":136.863937,"zip":"4530824"},{"town":"北畑町一丁目","koaza":"","lat":35.158831,"lng":136.8688,"zip":"4530815"},{"town":"北畑町二丁目","koaza":"","lat":35.158783,"lng":136.867581,"zip":"4530815"},{"town":"北畑町三丁目","koaza":"","lat":35.158745,"lng":136.866676,"zip":"4530815"},{"town":"北畑町四丁目","koaza":"","lat":35.158733,"lng":136.865679,"zip":"4530815"},{"town":"京田町一丁目","koaza":"","lat":35.160795,"lng":136.869012,"zip":"4530816"},{"town":"京田町二丁目","koaza":"","lat":35.160635,"lng":136.867687,"zip":"4530816"},{"town":"京田町三丁目","koaza":"","lat":35.160543,"lng":136.866148,"zip":"4530816"},{"town":"草薙町一丁目","koaza":"","lat":35.171545,"lng":136.851456,"zip":"4530064"},{"town":"草薙町二丁目","koaza":"","lat":35.171609,"lng":136.848871,"zip":"4530064"},{"town":"草薙町三丁目","koaza":"","lat":35.171736,"lng":136.846916,"zip":"4530064"},{"town":"熊野町一丁目","koaza":"","lat":35.16221,"lng":136.870067,"zip":"4530814"},{"town":"熊野町二丁目","koaza":"","lat":35.160549,"lng":136.870045,"zip":"4530814"},{"town":"熊野町三丁目","koaza":"","lat":35.158764,"lng":136.870052,"zip":"4530814"},{"town":"郷前町一丁目","koaza":"","lat":35.165331,"lng":136.872978,"zip":"4530808"},{"town":"郷前町二丁目","koaza":"","lat":35.16459,"lng":136.873919,"zip":"4530808"},{"town":"郷前町三丁目","koaza":"","lat":35.164113,"lng":136.873721,"zip":"4530808"},{"town":"小鴨町","koaza":"","lat":35.15998,"lng":136.843048,"zip":"4530844"},{"town":"五反城町一丁目","koaza":"","lat":35.160826,"lng":136.853061,"zip":"4530836"},{"town":"五反城町二丁目","koaza":"","lat":35.160347,"lng":136.853287,"zip":"4530836"},{"town":"五反城町三丁目","koaza":"","lat":35.159921,"lng":136.853508,"zip":"4530836"},{"town":"五反城町四丁目","koaza":"","lat":35.159451,"lng":136.85324,"zip":"4530836"},{"town":"五反城町五丁目","koaza":"","lat":35.159022,"lng":136.85322,"zip":"4530836"},{"town":"五反城町六丁目","koaza":"","lat":35.158722,"lng":136.853206,"zip":"4530836"},{"town":"五反城町七丁目","koaza":"","lat":35.158424,"lng":136.853195,"zip":"4530836"},{"town":"五反城町八丁目","koaza":"","lat":35.158182,"lng":136.853181,"zip":"4530836"},{"town":"寿町","koaza":"","lat":35.171109,"lng":136.866218,"zip":"4530028"},{"town":"権現通一丁目","koaza":"","lat":35.163384,"lng":136.87774,"zip":"4530807"},{"town":"権現通二丁目","koaza":"","lat":35.163611,"lng":136.875197,"zip":"4530807"},{"town":"権現通三丁目","koaza":"","lat":35.16355,"lng":136.873182,"zip":"4530807"},{"town":"権現通四丁目","koaza":"","lat":35.163409,"lng":136.87021,"zip":"4530807"},{"town":"栄生町","koaza":"","lat":35.183782,"lng":136.871147,"zip":"4530033"},{"town":"佐古前町","koaza":"","lat":35.17974,"lng":136.871666,"zip":"4530018"},{"town":"笹島町一丁目","koaza":"","lat":35.166101,"lng":136.884198,"zip":"4500007"},{"town":"塩池町一丁目","koaza":"","lat":35.186021,"lng":136.868366,"zip":"4530032"},{"town":"塩池町二丁目","koaza":"","lat":35.184968,"lng":136.866979,"zip":"4530032"},{"town":"塩池町三丁目","koaza":"","lat":35.184404,"lng":136.865888,"zip":"4530032"},{"town":"下米野町一丁目","koaza":"","lat":35.161159,"lng":136.879283,"zip":"4530802"},{"town":"下米野町二丁目","koaza":"","lat":35.16047,"lng":136.878131,"zip":"4530802"},{"town":"下米野町三丁目","koaza":"","lat":35.160163,"lng":136.876739,"zip":"4530802"},{"town":"下中村町","koaza":"","lat":35.163117,"lng":136.869009,"zip":"4530827"},{"town":"下中村町一丁目","koaza":"","lat":35.164379,"lng":136.86332,"zip":"4530827"},{"town":"下中村町二丁目","koaza":"","lat":35.163829,"lng":136.863029,"zip":"4530827"},{"town":"下中村町三丁目","koaza":"","lat":35.163456,"lng":136.86139,"zip":"4530827"},{"town":"下中村町四丁目","koaza":"","lat":35.16306,"lng":136.861673,"zip":"4530827"},{"town":"下広井町一丁目","koaza":"","lat":35.164983,"lng":136.884633,"zip":"4500006"},{"town":"十王町","koaza":"","lat":35.179101,"lng":136.867303,"zip":"4530035"},{"town":"宿跡町一丁目","koaza":"","lat":35.176692,"lng":136.848802,"zip":"4530067"},{"town":"宿跡町二丁目","koaza":"","lat":35.17514,"lng":136.846492,"zip":"4530067"},{"town":"宿跡町三丁目","koaza":"","lat":35.173597,"lng":136.845642,"zip":"4530067"},{"town":"城主町一丁目","koaza":"","lat":35.165385,"lng":136.866398,"zip":"4530819"},{"town":"城主町二丁目","koaza":"","lat":35.16495,"lng":136.865773,"zip":"4530819"},{"town":"城主町三丁目","koaza":"","lat":35.164566,"lng":136.86574,"zip":"4530819"},{"town":"城主町四丁目","koaza":"","lat":35.164206,"lng":136.866001,"zip":"4530819"},{"town":"城主町五丁目","koaza":"","lat":35.163798,"lng":136.865835,"zip":"4530819"},{"town":"城主町六丁目","koaza":"","lat":35.163453,"lng":136.866407,"zip":"4530819"},{"town":"白子町一丁目","koaza":"","lat":35.162623,"lng":136.866206,"zip":"4530817"},{"town":"白子町二丁目","koaza":"","lat":35.162126,"lng":136.866609,"zip":"4530817"},{"town":"白子町三丁目","koaza":"","lat":35.161579,"lng":136.866397,"zip":"4530817"},{"town":"白子町四丁目","koaza":"","lat":35.162083,"lng":136.868358,"zip":"4530817"},{"town":"城屋敷町一丁目","koaza":"","lat":35.172285,"lng":136.84159,"zip":"4530058"},{"town":"城屋敷町二丁目","koaza":"","lat":35.170766,"lng":136.840768,"zip":"4530058"},{"town":"城屋敷町三丁目","koaza":"","lat":35.169447,"lng":136.841798,"zip":"4530058"},{"town":"城屋敷町四丁目","koaza":"","lat":35.169737,"lng":136.839331,"zip":"4530058"},{"town":"新富町一丁目","koaza":"","lat":35.189182,"lng":136.866113,"zip":"4530031"},{"town":"新富町二丁目","koaza":"","lat":35.187677,"lng":136.865514,"zip":"4530031"},{"town":"新富町三丁目","koaza":"","lat":35.187706,"lng":136.864012,"zip":"4530031"},{"town":"新富町四丁目","koaza":"","lat":35.18761,"lng":136.862527,"zip":"4530031"},{"town":"新富町五丁目","koaza":"","lat":35.186747,"lng":136.86117,"zip":"4530031"},{"town":"砂田町一丁目","koaza":"","lat":35.166561,"lng":136.853678,"zip":"4530056"},{"town":"砂田町二丁目","koaza":"","lat":35.165679,"lng":136.853636,"zip":"4530056"},{"town":"砂田町三丁目","koaza":"","lat":35.164802,"lng":136.853609,"zip":"4530056"},{"town":"諏訪町一丁目","koaza":"","lat":35.179942,"lng":136.855063,"zip":"4530062"},{"town":"諏訪町二丁目","koaza":"","lat":35.179561,"lng":136.853793,"zip":"4530062"},{"town":"諏訪町三丁目","koaza":"","lat":35.179599,"lng":136.852694,"zip":"4530062"},{"town":"千成通一丁目","koaza":"","lat":35.163302,"lng":136.867726,"zip":"4530818"},{"town":"千成通二丁目","koaza":"","lat":35.162816,"lng":136.864642,"zip":"4530818"},{"town":"千成通三丁目","koaza":"","lat":35.162577,"lng":136.862495,"zip":"4530818"},{"town":"千成通四丁目","koaza":"","lat":35.162516,"lng":136.860163,"zip":"4530818"},{"town":"千成通五丁目","koaza":"","lat":35.162526,"lng":136.857813,"zip":"4530818"},{"town":"千成通六丁目","koaza":"","lat":35.162588,"lng":136.855909,"zip":"4530818"},{"town":"太閤一丁目","koaza":"","lat":35.165592,"lng":136.881946,"zip":"4530801"},{"town":"太閤二丁目","koaza":"","lat":35.162859,"lng":136.880246,"zip":"4530801"},{"town":"太閤三丁目","koaza":"","lat":35.165641,"lng":136.879273,"zip":"4530801"},{"town":"太閤四丁目","koaza":"","lat":35.166589,"lng":136.876888,"zip":"4530801"},{"town":"太閤五丁目","koaza":"","lat":35.164883,"lng":136.876955,"zip":"4530801"},{"town":"太閤通三丁目","koaza":"","lat":35.167447,"lng":136.873806,"zip":"4530811"},{"town":"太閤通四丁目","koaza":"","lat":35.167714,"lng":136.870796,"zip":"4530811"},{"town":"太閤通五丁目","koaza":"","lat":35.167855,"lng":136.867563,"zip":"4530811"},{"town":"太閤通六丁目","koaza":"","lat":35.168024,"lng":136.864303,"zip":"4530811"},{"town":"太閤通七丁目","koaza":"","lat":35.168052,"lng":136.861283,"zip":"4530811"},{"town":"太閤通八丁目","koaza":"","lat":35.168211,"lng":136.858581,"zip":"4530811"},{"town":"太閤通九丁目","koaza":"","lat":35.168292,"lng":136.856031,"zip":"4530811"},{"town":"大正町一丁目","koaza":"","lat":35.162676,"lng":136.87819,"zip":"4530806"},{"town":"大正町二丁目","koaza":"","lat":35.162545,"lng":136.876564,"zip":"4530806"},{"town":"大正町三丁目","koaza":"","lat":35.1625,"lng":136.875142,"zip":"4530806"},{"town":"大正町四丁目","koaza":"","lat":35.162412,"lng":136.873984,"zip":"4530806"},{"town":"大正町五丁目","koaza":"","lat":35.162411,"lng":136.872672,"zip":"4530806"},{"town":"大日町","koaza":"","lat":35.18125,"lng":136.869553,"zip":"4530034"},{"town":"大門町","koaza":"","lat":35.170557,"lng":136.866198,"zip":"4530027"},{"town":"高須賀町","koaza":"","lat":35.155447,"lng":136.86366,"zip":"4530854"},{"town":"高道町一丁目","koaza":"","lat":35.182614,"lng":136.866015,"zip":"4530037"},{"town":"高道町二丁目","koaza":"","lat":35.182412,"lng":136.864209,"zip":"4530037"},{"town":"高道町三丁目","koaza":"","lat":35.182779,"lng":136.862771,"zip":"4530037"},{"town":"高道町四丁目","koaza":"","lat":35.180872,"lng":136.866039,"zip":"4530037"},{"town":"高道町五丁目","koaza":"","lat":35.180352,"lng":136.864333,"zip":"4530037"},{"town":"高道町六丁目","koaza":"","lat":35.180599,"lng":136.862559,"zip":"4530037"},{"town":"竹橋町","koaza":"","lat":35.168871,"lng":136.87555,"zip":"4530016"},{"town":"千原町","koaza":"","lat":35.181388,"lng":136.873744,"zip":"4530011"},{"town":"椿町","koaza":"","lat":35.170433,"lng":136.879388,"zip":"4530015"},{"town":"剣町","koaza":"","lat":35.159674,"lng":136.84676,"zip":"4530842"},{"town":"豊国通一丁目","koaza":"","lat":35.167141,"lng":136.855021,"zip":"4530834"},{"town":"豊国通二丁目","koaza":"","lat":35.16554,"lng":136.854922,"zip":"4530834"},{"town":"豊国通三丁目","koaza":"","lat":35.163968,"lng":136.854831,"zip":"4530834"},{"town":"豊国通四丁目","koaza":"","lat":35.161538,"lng":136.854824,"zip":"4530834"},{"town":"豊国通六丁目","koaza":"","lat":35.15598,"lng":136.854354,"zip":"4530834"},{"town":"豊幡町","koaza":"","lat":35.17652,"lng":136.854912,"zip":"4530051"},{"town":"鳥居通二丁目","koaza":"","lat":35.175992,"lng":136.866117,"zip":"4530044"},{"town":"鳥居通三丁目","koaza":"","lat":35.174111,"lng":136.863845,"zip":"4530044"},{"town":"鳥居通四丁目","koaza":"","lat":35.171548,"lng":136.860696,"zip":"4530044"},{"town":"鳥居通五丁目","koaza":"","lat":35.170157,"lng":136.858435,"zip":"4530044"},{"town":"鳥居西通一丁目","koaza":"","lat":35.168417,"lng":136.852568,"zip":"4530054"},{"town":"鳥居西通二丁目","koaza":"","lat":35.168433,"lng":136.848238,"zip":"4530054"},{"town":"長筬町一丁目","koaza":"","lat":35.167106,"lng":136.850275,"zip":"4530839"},{"town":"長筬町二丁目","koaza":"","lat":35.166698,"lng":136.849637,"zip":"4530839"},{"town":"長筬町三丁目","koaza":"","lat":35.166328,"lng":136.849628,"zip":"4530839"},{"town":"長筬町四丁目","koaza":"","lat":35.165926,"lng":136.84962,"zip":"4530839"},{"town":"長筬町五丁目","koaza":"","lat":35.165518,"lng":136.849609,"zip":"4530839"},{"town":"長筬町六丁目","koaza":"","lat":35.165147,"lng":136.849591,"zip":"4530839"},{"town":"長筬町七丁目","koaza":"","lat":35.164691,"lng":136.849552,"zip":"4530839"},{"town":"長草町","koaza":"","lat":35.1482,"lng":136.849059,"zip":"4530857"},{"town":"中島町一丁目","koaza":"","lat":35.171962,"lng":136.869962,"zip":"4530022"},{"town":"中島町二丁目","koaza":"","lat":35.170804,"lng":136.870168,"zip":"4530022"},{"town":"中島町三丁目","koaza":"","lat":35.170107,"lng":136.87044,"zip":"4530022"},{"town":"中島町四丁目","koaza":"","lat":35.169731,"lng":136.869948,"zip":"4530022"},{"town":"長戸井町一丁目","koaza":"","lat":35.159075,"lng":136.87583,"zip":"4530803"},{"town":"長戸井町二丁目","koaza":"","lat":35.158399,"lng":136.874656,"zip":"4530803"},{"town":"長戸井町三丁目","koaza":"","lat":35.158063,"lng":136.873322,"zip":"4530803"},{"town":"長戸井町四丁目","koaza":"","lat":35.15791,"lng":136.872002,"zip":"4530803"},{"town":"中村町","koaza":"","lat":35.17478,"lng":136.855086,"zip":"4530053"},{"town":"中村町一丁目","koaza":"","lat":35.174363,"lng":136.858079,"zip":"4530053"},{"town":"中村町二丁目","koaza":"","lat":35.172536,"lng":136.859224,"zip":"4530053"},{"town":"中村町三丁目","koaza":"","lat":35.171389,"lng":136.859248,"zip":"4530053"},{"town":"中村町四丁目","koaza":"","lat":35.172481,"lng":136.857051,"zip":"4530053"},{"town":"中村町五丁目","koaza":"","lat":35.170983,"lng":136.857326,"zip":"4530053"},{"town":"中村町六丁目","koaza":"","lat":35.172509,"lng":136.854343,"zip":"4530053"},{"town":"中村町七丁目","koaza":"","lat":35.17119,"lng":136.854308,"zip":"4530053"},{"town":"中村町八丁目","koaza":"","lat":35.169566,"lng":136.855565,"zip":"4530053"},{"town":"中村町九丁目","koaza":"","lat":35.169646,"lng":136.853724,"zip":"4530053"},{"town":"中村中町一丁目","koaza":"","lat":35.16731,"lng":136.857446,"zip":"4530831"},{"town":"中村中町二丁目","koaza":"","lat":35.166335,"lng":136.857775,"zip":"4530831"},{"town":"中村中町三丁目","koaza":"","lat":35.16537,"lng":136.857795,"zip":"4530831"},{"town":"中村中町四丁目","koaza":"","lat":35.164958,"lng":136.85974,"zip":"4530831"},{"town":"中村本町一丁目","koaza":"","lat":35.16717,"lng":136.860198,"zip":"4530828"},{"town":"中村本町二丁目","koaza":"","lat":35.166525,"lng":136.860487,"zip":"4530828"},{"town":"中村本町三丁目","koaza":"","lat":35.165845,"lng":136.861017,"zip":"4530828"},{"town":"中村本町四丁目","koaza":"","lat":35.165218,"lng":136.86196,"zip":"4530828"},{"town":"中村本町五丁目","koaza":"","lat":35.16477,"lng":136.862561,"zip":"4530828"},{"town":"那古野一丁目","koaza":"","lat":35.173123,"lng":136.891516,"zip":"4500001"},{"town":"並木一丁目","koaza":"","lat":35.153679,"lng":136.851616,"zip":"4530856"},{"town":"並木二丁目","koaza":"","lat":35.15035,"lng":136.851197,"zip":"4530856"},{"town":"賑町","koaza":"","lat":35.169359,"lng":136.866102,"zip":"4530025"},{"town":"西米野町一丁目","koaza":"","lat":35.16656,"lng":136.870427,"zip":"4530812"},{"town":"西米野町二丁目","koaza":"","lat":35.166693,"lng":136.868478,"zip":"4530812"},{"town":"西米野町三丁目","koaza":"","lat":35.166719,"lng":136.867457,"zip":"4530812"},{"town":"西米野町四丁目","koaza":"","lat":35.166547,"lng":136.866466,"zip":"4530812"},{"town":"西栄町","koaza":"","lat":35.162484,"lng":136.841035,"zip":"4530846"},{"town":"西日置一丁目","koaza":"","lat":35.157706,"lng":136.887422,"zip":"4500005"},{"town":"鈍池町一丁目","koaza":"","lat":35.161886,"lng":136.857094,"zip":"4530826"},{"town":"鈍池町二丁目","koaza":"","lat":35.16111,"lng":136.857041,"zip":"4530826"},{"town":"鈍池町三丁目","koaza":"","lat":35.160177,"lng":136.857378,"zip":"4530826"},{"town":"野上町","koaza":"","lat":35.148366,"lng":136.843117,"zip":"4530859"},{"town":"野田町","koaza":"","lat":35.148124,"lng":136.845828,"zip":"4530858"},{"town":"則武一丁目","koaza":"","lat":35.172855,"lng":136.87606,"zip":"4530014"},{"town":"則武二丁目","koaza":"","lat":35.171027,"lng":136.875614,"zip":"4530014"},{"town":"則武本通一丁目","koaza":"","lat":35.17587,"lng":136.872729,"zip":"4530017"},{"town":"則武本通二丁目","koaza":"","lat":35.172691,"lng":136.872565,"zip":"4530017"},{"town":"則武本通三丁目","koaza":"","lat":35.1693,"lng":136.872527,"zip":"4530017"},{"town":"羽衣町","koaza":"","lat":35.169868,"lng":136.866163,"zip":"4530026"},{"town":"橋下町","koaza":"","lat":35.182876,"lng":136.85513,"zip":"4530069"},{"town":"畑江通一丁目","koaza":"","lat":35.157287,"lng":136.869252,"zip":"4530851"},{"town":"畑江通二丁目","koaza":"","lat":35.157301,"lng":136.868025,"zip":"4530851"},{"town":"畑江通三丁目","koaza":"","lat":35.157313,"lng":136.866789,"zip":"4530851"},{"town":"畑江通四丁目","koaza":"","lat":35.15733,"lng":136.865502,"zip":"4530851"},{"town":"畑江通五丁目","koaza":"","lat":35.157369,"lng":136.864458,"zip":"4530851"},{"town":"畑江通六丁目","koaza":"","lat":35.157432,"lng":136.863067,"zip":"4530851"},{"town":"畑江通七丁目","koaza":"","lat":35.158545,"lng":136.863057,"zip":"4530851"},{"town":"畑江通八丁目","koaza":"","lat":35.157408,"lng":136.858733,"zip":"4530851"},{"town":"畑江通九丁目","koaza":"","lat":35.157417,"lng":136.855675,"zip":"4530851"},{"town":"八社一丁目","koaza":"","lat":35.151912,"lng":136.840481,"zip":"4530863"},{"town":"八社二丁目","koaza":"","lat":35.149502,"lng":136.839738,"zip":"4530863"},{"town":"八田町","koaza":"","lat":35.149189,"lng":136.85319,"zip":"4530000"},{"town":"東宿町一丁目","koaza":"","lat":35.176027,"lng":136.851611,"zip":"4530063"},{"town":"東宿町二丁目","koaza":"","lat":35.173962,"lng":136.851435,"zip":"4530063"},{"town":"東宿町三丁目","koaza":"","lat":35.173827,"lng":136.848618,"zip":"4530063"},{"town":"日ノ宮町一丁目","koaza":"","lat":35.16185,"lng":136.860331,"zip":"4530823"},{"town":"日ノ宮町二丁目","koaza":"","lat":35.160996,"lng":136.860108,"zip":"4530823"},{"town":"日ノ宮町三丁目","koaza":"","lat":35.1604,"lng":136.862187,"zip":"4530823"},{"town":"日ノ宮町四丁目","koaza":"","lat":35.159796,"lng":136.861632,"zip":"4530823"},{"town":"日ノ宮町五丁目","koaza":"","lat":35.159068,"lng":136.861296,"zip":"4530823"},{"town":"日比津町","koaza":"","lat":35.184521,"lng":136.854158,"zip":"4530061"},{"town":"日比津町一丁目","koaza":"","lat":35.182957,"lng":136.859389,"zip":"4530061"},{"town":"日比津町二丁目","koaza":"","lat":35.180686,"lng":136.859866,"zip":"4530061"},{"town":"日比津町三丁目","koaza":"","lat":35.181761,"lng":136.85648,"zip":"4530061"},{"town":"日比津町四丁目","koaza":"","lat":35.179304,"lng":136.857347,"zip":"4530061"},{"town":"日吉町","koaza":"","lat":35.171603,"lng":136.866225,"zip":"4530029"},{"town":"平池町四丁目","koaza":"","lat":35.161858,"lng":136.883249,"zip":"4530872"},{"town":"枇杷島町","koaza":"","lat":35.189988,"lng":136.863962,"zip":"4530000"},{"town":"深川町一丁目","koaza":"","lat":35.160814,"lng":136.875292,"zip":"4530805"},{"town":"深川町二丁目","koaza":"","lat":35.160321,"lng":136.874292,"zip":"4530805"},{"town":"深川町三丁目","koaza":"","lat":35.160501,"lng":136.872638,"zip":"4530805"},{"town":"藤江町一丁目","koaza":"","lat":35.174505,"lng":136.862673,"zip":"4530045"},{"town":"藤江町二丁目","koaza":"","lat":35.17423,"lng":136.861698,"zip":"4530045"},{"town":"藤江町三丁目","koaza":"","lat":35.174284,"lng":136.859974,"zip":"4530045"},{"town":"藤江町四丁目","koaza":"","lat":35.172455,"lng":136.861002,"zip":"4530045"},{"town":"二瀬町","koaza":"","lat":35.159655,"lng":136.850331,"zip":"4530837"},{"town":"二ツ橋町一丁目","koaza":"","lat":35.165721,"lng":136.869282,"zip":"4530813"},{"town":"二ツ橋町二丁目","koaza":"","lat":35.165189,"lng":136.869866,"zip":"4530813"},{"town":"二ツ橋町三丁目","koaza":"","lat":35.164899,"lng":136.869336,"zip":"4530813"},{"town":"二ツ橋町四丁目","koaza":"","lat":35.164454,"lng":136.869969,"zip":"4530813"},{"town":"二ツ橋町五丁目","koaza":"","lat":35.164102,"lng":136.868923,"zip":"4530813"},{"town":"本陣通二丁目","koaza":"","lat":35.177326,"lng":136.87133,"zip":"4530041"},{"town":"本陣通三丁目","koaza":"","lat":35.177167,"lng":136.867674,"zip":"4530041"},{"town":"本陣通四丁目","koaza":"","lat":35.177623,"lng":136.863104,"zip":"4530041"},{"town":"本陣通五丁目","koaza":"","lat":35.177903,"lng":136.856466,"zip":"4530041"},{"town":"本陣通六丁目","koaza":"","lat":35.177879,"lng":136.848415,"zip":"4530041"},{"town":"牧野町二丁目","koaza":"","lat":35.164202,"lng":136.883379,"zip":"4530871"},{"town":"牧野町三丁目","koaza":"","lat":35.165714,"lng":136.883683,"zip":"4530871"},{"town":"松重町","koaza":"","lat":35.159371,"lng":136.892365,"zip":"4500004"},{"town":"松原町一丁目","koaza":"","lat":35.176764,"lng":136.87013,"zip":"4530021"},{"town":"松原町二丁目","koaza":"","lat":35.175888,"lng":136.870155,"zip":"4530021"},{"town":"松原町三丁目","koaza":"","lat":35.175136,"lng":136.871122,"zip":"4530021"},{"town":"松原町四丁目","koaza":"","lat":35.174274,"lng":136.871077,"zip":"4530021"},{"town":"松原町五丁目","koaza":"","lat":35.172521,"lng":136.869614,"zip":"4530021"},{"town":"道下町一丁目","koaza":"","lat":35.17379,"lng":136.864713,"zip":"4530046"},{"town":"道下町二丁目","koaza":"","lat":35.1727,"lng":136.864081,"zip":"4530046"},{"town":"道下町三丁目","koaza":"","lat":35.171528,"lng":136.862355,"zip":"4530046"},{"town":"道下町四丁目","koaza":"","lat":35.171526,"lng":136.863875,"zip":"4530046"},{"town":"道下町五丁目","koaza":"","lat":35.170783,"lng":136.863949,"zip":"4530046"},{"town":"宮塚町","koaza":"","lat":35.160029,"lng":136.841142,"zip":"4530845"},{"town":"向島町一丁目","koaza":"","lat":35.164388,"lng":136.849631,"zip":"4530838"},{"town":"向島町二丁目","koaza":"","lat":35.164072,"lng":136.849635,"zip":"4530838"},{"town":"向島町三丁目","koaza":"","lat":35.163578,"lng":136.849637,"zip":"4530838"},{"town":"向島町四丁目","koaza":"","lat":35.162195,"lng":136.848977,"zip":"4530838"},{"town":"向島町五丁目","koaza":"","lat":35.162054,"lng":136.85093,"zip":"4530838"},{"town":"名駅一丁目","koaza":"","lat":35.170778,"lng":136.882494,"zip":"4530002"},{"town":"名駅二丁目","koaza":"","lat":35.17454,"lng":136.88384,"zip":"4530002"},{"town":"名駅三丁目","koaza":"","lat":35.173172,"lng":136.886961,"zip":"4530002"},{"town":"名駅四丁目","koaza":"","lat":35.17007,"lng":136.887272,"zip":"4530002"},{"town":"名駅五丁目","koaza":"","lat":35.170189,"lng":136.89119,"zip":"4530002"},{"town":"名駅南一丁目","koaza":"","lat":35.166296,"lng":136.888427,"zip":"4500003"},{"town":"名駅南二丁目","koaza":"","lat":35.1642,"lng":136.889813,"zip":"4500003"},{"town":"名駅南三丁目","koaza":"","lat":35.161482,"lng":136.89051,"zip":"4500003"},{"town":"名駅南四丁目","koaza":"","lat":35.162447,"lng":136.8872,"zip":"4500003"},{"town":"名駅南五丁目","koaza":"","lat":35.158885,"lng":136.889564,"zip":"4500003"},{"town":"名西通一丁目","koaza":"","lat":35.164153,"lng":136.864397,"zip":"4530822"},{"town":"名西通二丁目","koaza":"","lat":35.161392,"lng":136.864845,"zip":"4530822"},{"town":"名西通三丁目","koaza":"","lat":35.160203,"lng":136.864924,"zip":"4530822"},{"town":"名楽町一丁目","koaza":"","lat":35.168574,"lng":136.867101,"zip":"4530024"},{"town":"名楽町二丁目","koaza":"","lat":35.169039,"lng":136.864489,"zip":"4530024"},{"town":"名楽町三丁目","koaza":"","lat":35.168853,"lng":136.863297,"zip":"4530024"},{"town":"名楽町四丁目","koaza":"","lat":35.169624,"lng":136.863346,"zip":"4530024"},{"town":"名楽町五丁目","koaza":"","lat":35.17012,"lng":136.863751,"zip":"4530024"},{"town":"元中村町一丁目","koaza":"","lat":35.169797,"lng":136.860466,"zip":"4530047"},{"town":"元中村町二丁目","koaza":"","lat":35.169348,"lng":136.858939,"zip":"4530047"},{"town":"元中村町三丁目","koaza":"","lat":35.169496,"lng":136.862156,"zip":"4530047"},{"town":"森末町一丁目","koaza":"","lat":35.17641,"lng":136.862768,"zip":"4530052"},{"town":"森末町二丁目","koaza":"","lat":35.176392,"lng":136.861591,"zip":"4530052"},{"town":"森末町三丁目","koaza":"","lat":35.176397,"lng":136.85995,"zip":"4530052"},{"town":"森末町四丁目","koaza":"","lat":35.176435,"lng":136.857607,"zip":"4530052"},{"town":"森田町一丁目","koaza":"","lat":35.178503,"lng":136.863751,"zip":"4530036"},{"town":"森田町二丁目","koaza":"","lat":35.1786,"lng":136.861769,"zip":"4530036"},{"town":"森田町三丁目","koaza":"","lat":35.178994,"lng":136.859991,"zip":"4530036"},{"town":"靖国町一丁目","koaza":"","lat":35.169641,"lng":136.851505,"zip":"4530065"},{"town":"靖国町二丁目","koaza":"","lat":35.169587,"lng":136.848949,"zip":"4530065"},{"town":"靖国町三丁目","koaza":"","lat":35.169687,"lng":136.847013,"zip":"4530065"},{"town":"横井一丁目","koaza":"","lat":35.149338,"lng":136.833621,"zip":"4530866"},{"town":"横井二丁目","koaza":"","lat":35.146671,"lng":136.833599,"zip":"4530866"},{"town":"横井町","koaza":"","lat":35.148642,"lng":136.829738,"zip":"4530867"},{"town":"横前町","koaza":"","lat":35.148036,"lng":136.840851,"zip":"4530864"},{"town":"若宮町一丁目","koaza":"","lat":35.169059,"lng":136.871204,"zip":"4530023"},{"town":"若宮町二丁目","koaza":"","lat":35.168446,"lng":136.871286,"zip":"4530023"},{"town":"若宮町三丁目","koaza":"","lat":35.1685,"lng":136.869333,"zip":"4530023"},{"town":"若宮町四丁目","koaza":"","lat":35.16916,"lng":136.868888,"zip":"4530023"},{"town":"岩塚町","koaza":"横手堤付","lat":35.163015,"lng":136.836717,"zip":"4530862"},{"town":"岩塚町","koaza":"山堤付","lat":35.162049,"lng":136.837378,"zip":"4530862"},{"town":"岩塚町","koaza":"干鮹","lat":35.161178,"lng":136.839236,"zip":"4530862"},{"town":"岩塚町","koaza":"山","lat":35.159986,"lng":136.838287,"zip":"4530862"},{"town":"岩塚町","koaza":"本陣屋敷","lat":35.160329,"lng":136.839452,"zip":"4530862"},{"town":"岩塚町","koaza":"宮前","lat":35.152956,"lng":136.83918,"zip":"4530862"},{"town":"岩塚町","koaza":"上小路","lat":35.158293,"lng":136.84033,"zip":"4530862"},{"town":"岩塚町","koaza":"宮西","lat":35.159427,"lng":136.839614,"zip":"4530862"},{"town":"岩塚町","koaza":"郷中","lat":35.15487,"lng":136.841262,"zip":"4530862"},{"town":"岩塚町","koaza":"新屋敷","lat":35.157186,"lng":136.841381,"zip":"4530862"},{"town":"岩塚町","koaza":"城前","lat":35.154256,"lng":136.843068,"zip":"4530862"},{"town":"岩塚町","koaza":"林高寺東","lat":35.157149,"lng":136.842802,"zip":"4530862"},{"town":"岩塚町","koaza":"一里山","lat":35.152437,"lng":136.843536,"zip":"4530862"},{"town":"岩塚町","koaza":"小池","lat":35.151087,"lng":136.843843,"zip":"4530862"},{"town":"野田町","koaza":"経田","lat":35.147949,"lng":136.844415,"zip":"4530858"},{"town":"岩塚町","koaza":"大池","lat":35.149854,"lng":136.845668,"zip":"4530862"},{"town":"岩塚町","koaza":"神田","lat":35.15547,"lng":136.845174,"zip":"4530862"},{"town":"岩塚町","koaza":"茶ノ木島","lat":35.151351,"lng":136.845071,"zip":"4530862"},{"town":"岩塚町","koaza":"杁脇","lat":35.153355,"lng":136.845402,"zip":"4530862"},{"town":"野田町","koaza":"中深","lat":35.148848,"lng":136.846476,"zip":"4530858"},{"town":"岩塚町","koaza":"五反田","lat":35.151723,"lng":136.84721,"zip":"4530862"},{"town":"岩塚町","koaza":"竜子田","lat":35.155177,"lng":136.846634,"zip":"4530862"},{"town":"岩塚町","koaza":"九反所","lat":35.155009,"lng":136.848387,"zip":"4530862"},{"town":"岩塚町","koaza":"西枝","lat":35.150092,"lng":136.848093,"zip":"4530862"},{"town":"岩塚町","koaza":"高道","lat":35.152815,"lng":136.848045,"zip":"4530862"},{"town":"岩塚町","koaza":"流レ","lat":35.151705,"lng":136.848377,"zip":"4530862"},{"town":"中村町","koaza":"茶ノ木","lat":35.174045,"lng":136.853913,"zip":"4530053"},{"town":"中村町","koaza":"河原","lat":35.175892,"lng":136.853348,"zip":"4530053"},{"town":"中村町","koaza":"高畑","lat":35.175307,"lng":136.854552,"zip":"4530053"},{"town":"中村町","koaza":"木下屋敷","lat":35.17452,"lng":136.856244,"zip":"4530053"},{"town":"中村町","koaza":"加藤屋敷","lat":35.170572,"lng":136.856896,"zip":"4530053"},{"town":"中村町","koaza":"大島","lat":35.169347,"lng":136.857279,"zip":"4530053"},{"town":"中村町","koaza":"待屋","lat":35.175222,"lng":136.856876,"zip":"4530053"},{"town":"中村町","koaza":"楠","lat":35.169348,"lng":136.857997,"zip":"4530053"},{"town":"高須賀町","koaza":"北西出","lat":35.158592,"lng":136.862831,"zip":"4530854"},{"town":"高須賀町","koaza":"北浦","lat":35.159545,"lng":136.863852,"zip":"4530854"},{"town":"岩塚町","koaza":"神明西","lat":35.159665,"lng":136.836859,"zip":"4530862"}]