[{"town":"赤松台","koaza":"","lat":35.182575,"lng":136.995211,"zip":"4650016"},{"town":"明が丘","koaza":"","lat":35.183127,"lng":137.017782,"zip":"4650033"},{"town":"朝日が丘","koaza":"","lat":35.183028,"lng":137.024425,"zip":"4650041"},{"town":"石が根町","koaza":"","lat":35.182614,"lng":137.011031,"zip":"4650023"},{"town":"猪高台一丁目","koaza":"","lat":35.18254,"lng":137.005903,"zip":"4650028"},{"town":"猪高台二丁目","koaza":"","lat":35.180139,"lng":137.003937,"zip":"4650028"},{"town":"猪高町大字猪子石","koaza":"","lat":35.185974,"lng":137.007885,"zip":"4650000"},{"town":"猪高町大字上社","koaza":"","lat":35.167386,"lng":137.022227,"zip":"4650000"},{"town":"猪高町大字高針","koaza":"","lat":35.145655,"lng":137.007354,"zip":"4650000"},{"town":"猪高町大字藤森","koaza":"","lat":35.185665,"lng":137.010081,"zip":"4650000"},{"town":"一社一丁目","koaza":"","lat":35.166778,"lng":136.993918,"zip":"4650093"},{"town":"一社二丁目","koaza":"","lat":35.16716,"lng":136.998224,"zip":"4650093"},{"town":"一社三丁目","koaza":"","lat":35.169089,"lng":137.002951,"zip":"4650093"},{"town":"一社四丁目","koaza":"","lat":35.166572,"lng":137.003408,"zip":"4650093"},{"town":"猪子石一丁目","koaza":"","lat":35.185444,"lng":136.99895,"zip":"4650021"},{"town":"猪子石二丁目","koaza":"","lat":35.186772,"lng":137.003948,"zip":"4650021"},{"town":"猪子石三丁目","koaza":"","lat":35.184696,"lng":137.004308,"zip":"4650021"},{"town":"猪子石原一丁目","koaza":"","lat":35.192339,"lng":136.989775,"zip":"4650008"},{"town":"猪子石原二丁目","koaza":"","lat":35.194262,"lng":136.990525,"zip":"4650008"},{"town":"猪子石原三丁目","koaza":"","lat":35.193402,"lng":136.993965,"zip":"4650008"},{"town":"植園町一丁目","koaza":"","lat":35.156293,"lng":136.989091,"zip":"4650077"},{"town":"植園町二丁目","koaza":"","lat":35.156128,"lng":136.991071,"zip":"4650077"},{"town":"植園町三丁目","koaza":"","lat":35.153594,"lng":136.990752,"zip":"4650077"},{"town":"梅森坂一丁目","koaza":"","lat":35.146231,"lng":137.015967,"zip":"4650065"},{"town":"梅森坂二丁目","koaza":"","lat":35.142477,"lng":137.01613,"zip":"4650065"},{"town":"梅森坂三丁目","koaza":"","lat":35.144458,"lng":137.018754,"zip":"4650065"},{"town":"梅森坂四丁目","koaza":"","lat":35.141158,"lng":137.021378,"zip":"4650065"},{"town":"梅森坂五丁目","koaza":"","lat":35.139491,"lng":137.017675,"zip":"4650065"},{"town":"梅森坂西一丁目","koaza":"","lat":35.139503,"lng":137.011757,"zip":"4650066"},{"town":"梅森坂西二丁目","koaza":"","lat":35.140146,"lng":137.013767,"zip":"4650066"},{"town":"延珠町","koaza":"","lat":35.191337,"lng":137.005295,"zip":"4650003"},{"town":"扇町一丁目","koaza":"","lat":35.156231,"lng":136.992949,"zip":"4650076"},{"town":"扇町二丁目","koaza":"","lat":35.153989,"lng":136.992832,"zip":"4650076"},{"town":"扇町三丁目","koaza":"","lat":35.153765,"lng":136.994403,"zip":"4650076"},{"town":"大針一丁目","koaza":"","lat":35.1539,"lng":137.020534,"zip":"4650064"},{"town":"大針二丁目","koaza":"","lat":35.151421,"lng":137.019036,"zip":"4650064"},{"town":"大針三丁目","koaza":"","lat":35.14922,"lng":137.017795,"zip":"4650064"},{"town":"香流一丁目","koaza":"","lat":35.187924,"lng":136.989773,"zip":"4650005"},{"town":"香流二丁目","koaza":"","lat":35.187937,"lng":136.994507,"zip":"4650005"},{"town":"香流三丁目","koaza":"","lat":35.187747,"lng":136.998457,"zip":"4650005"},{"town":"神丘町一丁目","koaza":"","lat":35.158398,"lng":136.998882,"zip":"4650083"},{"town":"神丘町二丁目","koaza":"","lat":35.157442,"lng":137.001072,"zip":"4650083"},{"town":"神丘町三丁目","koaza":"","lat":35.156471,"lng":136.999745,"zip":"4650083"},{"town":"神里一丁目","koaza":"","lat":35.158642,"lng":137.003919,"zip":"4650082"},{"town":"神里二丁目","koaza":"","lat":35.155855,"lng":137.002157,"zip":"4650082"},{"town":"上菅一丁目","koaza":"","lat":35.177606,"lng":136.995767,"zip":"4650014"},{"town":"上菅二丁目","koaza":"","lat":35.179537,"lng":136.998846,"zip":"4650014"},{"town":"上社一丁目","koaza":"","lat":35.173751,"lng":137.005748,"zip":"4650025"},{"town":"上社二丁目","koaza":"","lat":35.175628,"lng":137.00918,"zip":"4650025"},{"town":"上社三丁目","koaza":"","lat":35.172521,"lng":137.009802,"zip":"4650025"},{"town":"上社四丁目","koaza":"","lat":35.170397,"lng":137.007558,"zip":"4650025"},{"town":"上社五丁目","koaza":"","lat":35.170563,"lng":137.012292,"zip":"4650025"},{"town":"亀の井一丁目","koaza":"","lat":35.16317,"lng":136.993874,"zip":"4650094"},{"town":"亀の井二丁目","koaza":"","lat":35.163662,"lng":136.998653,"zip":"4650094"},{"town":"亀の井三丁目","koaza":"","lat":35.163668,"lng":137.004038,"zip":"4650094"},{"town":"貴船一丁目","koaza":"","lat":35.166504,"lng":137.008202,"zip":"4650058"},{"town":"貴船二丁目","koaza":"","lat":35.166807,"lng":137.012862,"zip":"4650058"},{"town":"貴船三丁目","koaza":"","lat":35.164533,"lng":137.013562,"zip":"4650058"},{"town":"小池町","koaza":"","lat":35.180122,"lng":137.017549,"zip":"4650047"},{"town":"小井堀町","koaza":"","lat":35.172547,"lng":137.023553,"zip":"4650044"},{"town":"香坂","koaza":"","lat":35.189861,"lng":136.989815,"zip":"4650007"},{"town":"香南一丁目","koaza":"","lat":35.188828,"lng":137.001732,"zip":"4650004"},{"town":"香南二丁目","koaza":"","lat":35.189435,"lng":137.006011,"zip":"4650004"},{"town":"極楽一丁目","koaza":"","lat":35.160818,"lng":137.020574,"zip":"4650053"},{"town":"極楽二丁目","koaza":"","lat":35.158219,"lng":137.021634,"zip":"4650053"},{"town":"極楽三丁目","koaza":"","lat":35.155893,"lng":137.022848,"zip":"4650053"},{"town":"極楽四丁目","koaza":"","lat":35.155954,"lng":137.017863,"zip":"4650053"},{"town":"極楽五丁目","koaza":"","lat":35.154505,"lng":137.015579,"zip":"4650053"},{"town":"桜が丘","koaza":"","lat":35.169374,"lng":136.989738,"zip":"4650096"},{"town":"山香町","koaza":"","lat":35.15192,"lng":136.994327,"zip":"4650074"},{"town":"神月町","koaza":"","lat":35.190443,"lng":136.993567,"zip":"4650006"},{"town":"新宿一丁目","koaza":"","lat":35.15182,"lng":137.013033,"zip":"4650063"},{"town":"新宿二丁目","koaza":"","lat":35.151246,"lng":137.010369,"zip":"4650063"},{"town":"勢子坊一丁目","koaza":"","lat":35.161552,"lng":137.012754,"zip":"4650055"},{"town":"勢子坊二丁目","koaza":"","lat":35.1635,"lng":137.017127,"zip":"4650055"},{"town":"勢子坊三丁目","koaza":"","lat":35.161312,"lng":137.0174,"zip":"4650055"},{"town":"勢子坊四丁目","koaza":"","lat":35.160271,"lng":137.013636,"zip":"4650055"},{"town":"代万町一丁目","koaza":"","lat":35.159018,"lng":136.99323,"zip":"4650086"},{"town":"代万町二丁目","koaza":"","lat":35.159191,"lng":136.994857,"zip":"4650086"},{"town":"代万町三丁目","koaza":"","lat":35.158529,"lng":136.996481,"zip":"4650086"},{"town":"高針一丁目","koaza":"","lat":35.156755,"lng":137.0058,"zip":"4650061"},{"town":"高針二丁目","koaza":"","lat":35.156264,"lng":137.008155,"zip":"4650061"},{"town":"高針三丁目","koaza":"","lat":35.159745,"lng":137.009366,"zip":"4650061"},{"town":"高針四丁目","koaza":"","lat":35.157171,"lng":137.011803,"zip":"4650061"},{"town":"高針五丁目","koaza":"","lat":35.155087,"lng":137.010151,"zip":"4650061"},{"town":"高針荒田","koaza":"","lat":35.148584,"lng":136.99226,"zip":"4650069"},{"town":"高針台一丁目","koaza":"","lat":35.157845,"lng":137.014284,"zip":"4650054"},{"town":"高針台二丁目","koaza":"","lat":35.158553,"lng":137.017787,"zip":"4650054"},{"town":"高針台三丁目","koaza":"","lat":35.156263,"lng":137.015745,"zip":"4650054"},{"town":"高針原一丁目","koaza":"","lat":35.147316,"lng":136.994497,"zip":"4650073"},{"town":"高針原二丁目","koaza":"","lat":35.146474,"lng":136.997014,"zip":"4650073"},{"town":"高間町","koaza":"","lat":35.160865,"lng":137.001079,"zip":"4650081"},{"town":"高社一丁目","koaza":"","lat":35.169245,"lng":136.993305,"zip":"4650095"},{"town":"高社二丁目","koaza":"","lat":35.170037,"lng":136.997603,"zip":"4650095"},{"town":"高柳町","koaza":"","lat":35.183374,"lng":137.014521,"zip":"4650034"},{"town":"宝が丘","koaza":"","lat":35.177697,"lng":137.022571,"zip":"4650043"},{"town":"丁田町","koaza":"","lat":35.177061,"lng":137.00453,"zip":"4650027"},{"town":"つつじが丘","koaza":"","lat":35.18159,"lng":136.991777,"zip":"4650017"},{"town":"照が丘","koaza":"","lat":35.178655,"lng":137.025399,"zip":"4650042"},{"town":"天神下","koaza":"","lat":35.195097,"lng":136.988808,"zip":"4650009"},{"town":"天白町大字植田","koaza":"","lat":35.14059,"lng":137.009807,"zip":"4650000"},{"town":"富が丘","koaza":"","lat":35.186687,"lng":137.020095,"zip":"4650031"},{"town":"にじが丘一丁目","koaza":"","lat":35.159133,"lng":136.989056,"zip":"4650078"},{"town":"にじが丘二丁目","koaza":"","lat":35.159378,"lng":136.990409,"zip":"4650078"},{"town":"にじが丘三丁目","koaza":"","lat":35.15825,"lng":136.991269,"zip":"4650078"},{"town":"西里町一丁目","koaza":"","lat":35.15629,"lng":136.996126,"zip":"4650084"},{"town":"西里町二丁目","koaza":"","lat":35.154831,"lng":136.996642,"zip":"4650084"},{"town":"西里町三丁目","koaza":"","lat":35.153706,"lng":136.99779,"zip":"4650084"},{"town":"西里町四丁目","koaza":"","lat":35.155716,"lng":136.997869,"zip":"4650084"},{"town":"西里町五丁目","koaza":"","lat":35.154922,"lng":136.99997,"zip":"4650084"},{"town":"西山台","koaza":"","lat":35.152726,"lng":136.999232,"zip":"4650071"},{"town":"西山本通一丁目","koaza":"","lat":35.158988,"lng":136.992279,"zip":"4650085"},{"town":"西山本通二丁目","koaza":"","lat":35.156435,"lng":136.994466,"zip":"4650085"},{"town":"西山本通三丁目","koaza":"","lat":35.153901,"lng":136.995779,"zip":"4650085"},{"town":"望が丘","koaza":"","lat":35.177019,"lng":137.02019,"zip":"4650046"},{"town":"野間町","koaza":"","lat":35.15954,"lng":137.006701,"zip":"4650056"},{"town":"八前一丁目","koaza":"","lat":35.183007,"lng":136.986712,"zip":"4650018"},{"town":"八前二丁目","koaza":"","lat":35.181035,"lng":136.987175,"zip":"4650018"},{"town":"八前三丁目","koaza":"","lat":35.178054,"lng":136.985886,"zip":"4650018"},{"town":"引山一丁目","koaza":"","lat":35.190353,"lng":136.997092,"zip":"4650002"},{"town":"引山二丁目","koaza":"","lat":35.190584,"lng":137.000696,"zip":"4650002"},{"town":"引山三丁目","koaza":"","lat":35.193565,"lng":136.999052,"zip":"4650002"},{"town":"引山四丁目","koaza":"","lat":35.193318,"lng":136.996774,"zip":"4650002"},{"town":"姫若町","koaza":"","lat":35.173253,"lng":137.01873,"zip":"4650045"},{"town":"藤が丘","koaza":"","lat":35.183502,"lng":137.020868,"zip":"4650032"},{"town":"藤香町","koaza":"","lat":35.1898,"lng":137.018731,"zip":"4650037"},{"town":"藤里町","koaza":"","lat":35.189507,"lng":137.014558,"zip":"4650036"},{"town":"藤巻町一丁目","koaza":"","lat":35.150758,"lng":136.985906,"zip":"4650075"},{"town":"藤巻町二丁目","koaza":"","lat":35.150329,"lng":136.988213,"zip":"4650075"},{"town":"藤巻町三丁目","koaza":"","lat":35.151108,"lng":136.990182,"zip":"4650075"},{"town":"藤見が丘","koaza":"","lat":35.180515,"lng":137.02147,"zip":"4650048"},{"town":"藤森一丁目","koaza":"","lat":35.179152,"lng":137.007654,"zip":"4650026"},{"town":"藤森二丁目","koaza":"","lat":35.179768,"lng":137.010141,"zip":"4650026"},{"town":"藤森西町","koaza":"","lat":35.187218,"lng":137.010999,"zip":"4650022"},{"town":"文教台一丁目","koaza":"","lat":35.182893,"lng":136.999178,"zip":"4650012"},{"town":"文教台二丁目","koaza":"","lat":35.180928,"lng":136.999591,"zip":"4650012"},{"town":"平和が丘一丁目","koaza":"","lat":35.177913,"lng":136.982535,"zip":"4650097"},{"town":"平和が丘二丁目","koaza":"","lat":35.173781,"lng":136.98422,"zip":"4650097"},{"town":"平和が丘三丁目","koaza":"","lat":35.170792,"lng":136.986438,"zip":"4650097"},{"town":"平和が丘四丁目","koaza":"","lat":35.171412,"lng":136.990498,"zip":"4650097"},{"town":"平和が丘五丁目","koaza":"","lat":35.174745,"lng":136.987216,"zip":"4650097"},{"town":"本郷一丁目","koaza":"","lat":35.179975,"lng":137.014362,"zip":"4650024"},{"town":"本郷二丁目","koaza":"","lat":35.176022,"lng":137.013858,"zip":"4650024"},{"town":"本郷三丁目","koaza":"","lat":35.176546,"lng":137.017557,"zip":"4650024"},{"town":"牧の里一丁目","koaza":"","lat":35.154804,"lng":137.005142,"zip":"4650068"},{"town":"牧の里二丁目","koaza":"","lat":35.152548,"lng":137.005353,"zip":"4650068"},{"town":"牧の里三丁目","koaza":"","lat":35.150307,"lng":137.003508,"zip":"4650068"},{"town":"牧の原一丁目","koaza":"","lat":35.152579,"lng":137.001523,"zip":"4650072"},{"town":"牧の原二丁目","koaza":"","lat":35.149239,"lng":136.999116,"zip":"4650072"},{"town":"牧の原三丁目","koaza":"","lat":35.150265,"lng":136.997374,"zip":"4650072"},{"town":"松井町","koaza":"","lat":35.15347,"lng":137.014327,"zip":"4650062"},{"town":"名東本通一丁目","koaza":"","lat":35.160842,"lng":136.989139,"zip":"4650087"},{"town":"名東本通二丁目","koaza":"","lat":35.160643,"lng":136.990747,"zip":"4650087"},{"town":"名東本通三丁目","koaza":"","lat":35.160761,"lng":136.993964,"zip":"4650087"},{"town":"名東本通四丁目","koaza":"","lat":35.160003,"lng":136.998195,"zip":"4650087"},{"town":"名東本通五丁目","koaza":"","lat":35.159121,"lng":137.001235,"zip":"4650087"},{"town":"名東本町","koaza":"","lat":35.162632,"lng":136.990969,"zip":"4650088"},{"town":"社が丘一丁目","koaza":"","lat":35.173081,"lng":137.014302,"zip":"4650051"},{"town":"社が丘二丁目","koaza":"","lat":35.170768,"lng":137.015912,"zip":"4650051"},{"town":"社が丘三丁目","koaza":"","lat":35.167423,"lng":137.016516,"zip":"4650051"},{"town":"社が丘四丁目","koaza":"","lat":35.170593,"lng":137.019222,"zip":"4650051"},{"town":"社口一丁目","koaza":"","lat":35.176752,"lng":136.998256,"zip":"4650013"},{"town":"社口二丁目","koaza":"","lat":35.176987,"lng":137.000858,"zip":"4650013"},{"town":"社台一丁目","koaza":"","lat":35.17271,"lng":136.993851,"zip":"4650092"},{"town":"社台二丁目","koaza":"","lat":35.173412,"lng":136.998214,"zip":"4650092"},{"town":"社台三丁目","koaza":"","lat":35.172233,"lng":137.002003,"zip":"4650092"},{"town":"山の手一丁目","koaza":"","lat":35.184587,"lng":136.988633,"zip":"4650011"},{"town":"山の手二丁目","koaza":"","lat":35.184841,"lng":136.991452,"zip":"4650011"},{"town":"山の手三丁目","koaza":"","lat":35.184986,"lng":136.994535,"zip":"4650011"},{"town":"豊が丘","koaza":"","lat":35.186969,"lng":137.014364,"zip":"4650035"},{"town":"よもぎ台一丁目","koaza":"","lat":35.178155,"lng":136.9892,"zip":"4650091"},{"town":"よもぎ台二丁目","koaza":"","lat":35.176491,"lng":136.990114,"zip":"4650091"},{"town":"よもぎ台三丁目","koaza":"","lat":35.17531,"lng":136.993326,"zip":"4650091"},{"town":"陸前町","koaza":"","lat":35.162476,"lng":137.008738,"zip":"4650057"},{"town":"若葉台","koaza":"","lat":35.179582,"lng":136.993416,"zip":"4650015"},{"town":"猪高町大字高針","koaza":"牧","lat":35.149301,"lng":137.004612,"zip":"4650000"},{"town":"猪高町大字高針","koaza":"原","lat":35.143266,"lng":137.001357,"zip":"4650000"},{"town":"猪高町大字高針","koaza":"山ノ中","lat":35.14508,"lng":137.006098,"zip":"4650000"},{"town":"猪高町大字高針","koaza":"前山","lat":35.148351,"lng":137.008203,"zip":"4650000"},{"town":"天白町大字植田","koaza":"梅森坂","lat":35.144105,"lng":137.010866,"zip":"4650000"},{"town":"猪高町大字高針","koaza":"梅森坂","lat":35.145286,"lng":137.013519,"zip":"4650000"},{"town":"猪高町大字上社","koaza":"足廻間","lat":35.167481,"lng":137.022213,"zip":"4650000"},{"town":"猪高町大字高針","koaza":"勢子坊","lat":35.161777,"lng":137.021878,"zip":"4650000"}]