[{"town":"相生町","koaza":"","lat":35.180876,"lng":136.92189,"zip":"4610012"},{"town":"葵一丁目","koaza":"","lat":35.172034,"lng":136.921786,"zip":"4610004"},{"town":"葵二丁目","koaza":"","lat":35.172083,"lng":136.925789,"zip":"4610004"},{"town":"葵三丁目","koaza":"","lat":35.171623,"lng":136.92952,"zip":"4610004"},{"town":"赤塚町","koaza":"","lat":35.183773,"lng":136.923032,"zip":"4610026"},{"town":"飯田町","koaza":"","lat":35.179177,"lng":136.918544,"zip":"4610013"},{"town":"泉一丁目","koaza":"","lat":35.176396,"lng":136.911307,"zip":"4610001"},{"town":"泉二丁目","koaza":"","lat":35.176388,"lng":136.915793,"zip":"4610001"},{"town":"泉三丁目","koaza":"","lat":35.176592,"lng":136.919002,"zip":"4610001"},{"town":"大曽根一丁目","koaza":"","lat":35.188574,"lng":136.927772,"zip":"4610021"},{"town":"大曽根二丁目","koaza":"","lat":35.188795,"lng":136.931387,"zip":"4610021"},{"town":"大松町","koaza":"","lat":35.179646,"lng":136.936472,"zip":"4610033"},{"town":"上竪杉町","koaza":"","lat":35.179695,"lng":136.910819,"zip":"4610016"},{"town":"車道町一丁目","koaza":"","lat":35.177324,"lng":136.930073,"zip":"4610036"},{"town":"車道町二丁目","koaza":"","lat":35.178388,"lng":136.930989,"zip":"4610036"},{"town":"車道町三丁目","koaza":"","lat":35.179239,"lng":136.930714,"zip":"4610036"},{"town":"黒門町","koaza":"","lat":35.17776,"lng":136.932943,"zip":"4610035"},{"town":"古出来一丁目","koaza":"","lat":35.180732,"lng":136.939674,"zip":"4610049"},{"town":"古出来二丁目","koaza":"","lat":35.182896,"lng":136.940735,"zip":"4610049"},{"town":"古出来三丁目","koaza":"","lat":35.18269,"lng":136.941228,"zip":"4610049"},{"town":"三の丸四丁目","koaza":"","lat":35.185792,"lng":136.907892,"zip":"4610019"},{"town":"橦木町一丁目","koaza":"","lat":35.17971,"lng":136.91242,"zip":"4610014"},{"town":"橦木町二丁目","koaza":"","lat":35.179783,"lng":136.915226,"zip":"4610014"},{"town":"橦木町三丁目","koaza":"","lat":35.180023,"lng":136.918848,"zip":"4610014"},{"town":"白壁一丁目","koaza":"","lat":35.181954,"lng":136.911342,"zip":"4610011"},{"town":"白壁二丁目","koaza":"","lat":35.184347,"lng":136.910824,"zip":"4610011"},{"town":"白壁三丁目","koaza":"","lat":35.18542,"lng":136.914819,"zip":"4610011"},{"town":"白壁四丁目","koaza":"","lat":35.182532,"lng":136.916184,"zip":"4610011"},{"town":"白壁五丁目","koaza":"","lat":35.182755,"lng":136.920702,"zip":"4610011"},{"town":"新出来一丁目","koaza":"","lat":35.181972,"lng":136.930376,"zip":"4610038"},{"town":"新出来二丁目","koaza":"","lat":35.181525,"lng":136.932569,"zip":"4610038"},{"town":"砂田橋一丁目","koaza":"","lat":35.187515,"lng":136.956678,"zip":"4610045"},{"town":"砂田橋二丁目","koaza":"","lat":35.190194,"lng":136.957457,"zip":"4610045"},{"town":"砂田橋三丁目","koaza":"","lat":35.189384,"lng":136.960743,"zip":"4610045"},{"town":"砂田橋四丁目","koaza":"","lat":35.188586,"lng":136.963599,"zip":"4610045"},{"town":"砂田橋五丁目","koaza":"","lat":35.186518,"lng":136.961152,"zip":"4610045"},{"town":"代官町","koaza":"","lat":35.17677,"lng":136.922757,"zip":"4610002"},{"town":"大幸一丁目","koaza":"","lat":35.192201,"lng":136.946946,"zip":"4610043"},{"town":"大幸二丁目","koaza":"","lat":35.191963,"lng":136.948815,"zip":"4610043"},{"town":"大幸三丁目","koaza":"","lat":35.192034,"lng":136.954942,"zip":"4610043"},{"town":"大幸四丁目","koaza":"","lat":35.190637,"lng":136.953836,"zip":"4610043"},{"town":"大幸南一丁目","koaza":"","lat":35.18744,"lng":136.948577,"zip":"4610047"},{"town":"大幸南二丁目","koaza":"","lat":35.186526,"lng":136.952806,"zip":"4610047"},{"town":"主税町二丁目","koaza":"","lat":35.180843,"lng":136.912393,"zip":"4610018"},{"town":"主税町三丁目","koaza":"","lat":35.181008,"lng":136.915119,"zip":"4610018"},{"town":"主税町四丁目","koaza":"","lat":35.181218,"lng":136.919053,"zip":"4610018"},{"town":"筒井一丁目","koaza":"","lat":35.178977,"lng":136.927962,"zip":"4610003"},{"town":"筒井二丁目","koaza":"","lat":35.17563,"lng":136.92691,"zip":"4610003"},{"town":"筒井三丁目","koaza":"","lat":35.17471,"lng":136.931663,"zip":"4610003"},{"town":"筒井町四丁目","koaza":"","lat":35.17723,"lng":136.930985,"zip":"4610003"},{"town":"出来町一丁目","koaza":"","lat":35.181311,"lng":136.934743,"zip":"4610032"},{"town":"出来町二丁目","koaza":"","lat":35.183283,"lng":136.936568,"zip":"4610032"},{"town":"出来町三丁目","koaza":"","lat":35.183453,"lng":136.93869,"zip":"4610032"},{"town":"徳川一丁目","koaza":"","lat":35.181251,"lng":136.924503,"zip":"4610025"},{"town":"徳川二丁目","koaza":"","lat":35.186076,"lng":136.927678,"zip":"4610025"},{"town":"徳川町","koaza":"","lat":35.184522,"lng":136.932158,"zip":"4610023"},{"town":"豊前町一丁目","koaza":"","lat":35.178169,"lng":136.93614,"zip":"4610034"},{"town":"豊前町二丁目","koaza":"","lat":35.177028,"lng":136.935212,"zip":"4610034"},{"town":"豊前町三丁目","koaza":"","lat":35.176007,"lng":136.934591,"zip":"4610034"},{"town":"西新町一丁目","koaza":"","lat":35.17005,"lng":136.912773,"zip":"4610007"},{"town":"東大曽根町","koaza":"","lat":35.188125,"lng":136.933521,"zip":"4610022"},{"town":"東片端町","koaza":"","lat":35.178933,"lng":136.913674,"zip":"4610015"},{"town":"東桜一丁目","koaza":"","lat":35.172267,"lng":136.911633,"zip":"4610005"},{"town":"東桜二丁目","koaza":"","lat":35.171876,"lng":136.916736,"zip":"4610005"},{"town":"東新町","koaza":"","lat":35.17008,"lng":136.913724,"zip":"4610006"},{"town":"東外堀町","koaza":"","lat":35.18023,"lng":136.909824,"zip":"4610017"},{"town":"久屋町八丁目","koaza":"","lat":35.169681,"lng":136.909651,"zip":"4610009"},{"town":"百人町","koaza":"","lat":35.179602,"lng":136.93315,"zip":"4610037"},{"town":"武平町五丁目","koaza":"","lat":35.16972,"lng":136.910369,"zip":"4610008"},{"town":"前浪町","koaza":"","lat":35.185032,"lng":136.952583,"zip":"4610046"},{"town":"明倫町","koaza":"","lat":35.183412,"lng":136.935406,"zip":"4610031"},{"town":"矢田一丁目","koaza":"","lat":35.194536,"lng":136.938922,"zip":"4610040"},{"town":"矢田二丁目","koaza":"","lat":35.194254,"lng":136.940982,"zip":"4610040"},{"town":"矢田三丁目","koaza":"","lat":35.196435,"lng":136.944151,"zip":"4610040"},{"town":"矢田四丁目","koaza":"","lat":35.194122,"lng":136.94427,"zip":"4610040"},{"town":"矢田五丁目","koaza":"","lat":35.191913,"lng":136.943271,"zip":"4610040"},{"town":"矢田町","koaza":"","lat":35.196773,"lng":136.946962,"zip":"4610000"},{"town":"矢田東","koaza":"","lat":35.191274,"lng":136.94526,"zip":"4610044"},{"town":"矢田南一丁目","koaza":"","lat":35.185111,"lng":136.940202,"zip":"4610048"},{"town":"矢田南二丁目","koaza":"","lat":35.183828,"lng":136.943274,"zip":"4610048"},{"town":"矢田南三丁目","koaza":"","lat":35.185471,"lng":136.943321,"zip":"4610048"},{"town":"矢田南四丁目","koaza":"","lat":35.188566,"lng":136.944621,"zip":"4610048"},{"town":"矢田南五丁目","koaza":"","lat":35.188883,"lng":136.939854,"zip":"4610048"},{"town":"山口町","koaza":"","lat":35.184154,"lng":136.926691,"zip":"4610024"},{"town":"芳野一丁目","koaza":"","lat":35.184952,"lng":136.921391,"zip":"4610027"},{"town":"芳野二丁目","koaza":"","lat":35.18709,"lng":136.921906,"zip":"4610027"},{"town":"芳野三丁目","koaza":"","lat":35.186425,"lng":136.925263,"zip":"4610027"}]