[{"town":"赤坪町","koaza":"","lat":35.095134,"lng":136.944066,"zip":"4570024"},{"town":"阿原町","koaza":"","lat":35.084765,"lng":136.939405,"zip":"4570063"},{"town":"荒浜町一丁目","koaza":"","lat":35.103654,"lng":136.92124,"zip":"4570831"},{"town":"荒浜町二丁目","koaza":"","lat":35.101485,"lng":136.921789,"zip":"4570831"},{"town":"荒浜町三丁目","koaza":"","lat":35.100099,"lng":136.922509,"zip":"4570831"},{"town":"荒浜町四丁目","koaza":"","lat":35.098977,"lng":136.923238,"zip":"4570831"},{"town":"荒浜町五丁目","koaza":"","lat":35.097931,"lng":136.923897,"zip":"4570831"},{"town":"石元町一丁目","koaza":"","lat":35.086676,"lng":136.931884,"zip":"4570075"},{"town":"石元町二丁目","koaza":"","lat":35.085647,"lng":136.932313,"zip":"4570075"},{"town":"石元町三丁目","koaza":"","lat":35.084641,"lng":136.932916,"zip":"4570075"},{"town":"石元町四丁目","koaza":"","lat":35.084263,"lng":136.933656,"zip":"4570075"},{"town":"岩戸町","koaza":"","lat":35.109576,"lng":136.928387,"zip":"4570015"},{"town":"内田橋一丁目","koaza":"","lat":35.114537,"lng":136.906755,"zip":"4570862"},{"town":"内田橋二丁目","koaza":"","lat":35.113615,"lng":136.909436,"zip":"4570862"},{"town":"扇田町","koaza":"","lat":35.102018,"lng":136.937098,"zip":"4570037"},{"town":"大磯通四丁目","koaza":"","lat":35.106599,"lng":136.926486,"zip":"4570048"},{"town":"大磯通五丁目","koaza":"","lat":35.104658,"lng":136.927063,"zip":"4570048"},{"town":"大磯通六丁目","koaza":"","lat":35.10312,"lng":136.927872,"zip":"4570048"},{"town":"大堀町","koaza":"","lat":35.110368,"lng":136.94792,"zip":"4570002"},{"town":"貝塚町","koaza":"","lat":35.101111,"lng":136.940717,"zip":"4570035"},{"town":"駈上一丁目","koaza":"","lat":35.115188,"lng":136.938703,"zip":"4570007"},{"town":"駈上二丁目","koaza":"","lat":35.112167,"lng":136.938481,"zip":"4570007"},{"town":"笠寺町","koaza":"","lat":35.096529,"lng":136.936584,"zip":"4570051"},{"town":"春日野町","koaza":"","lat":35.101838,"lng":136.939606,"zip":"4570034"},{"town":"粕畠町一丁目","koaza":"","lat":35.095398,"lng":136.93409,"zip":"4570052"},{"town":"粕畠町二丁目","koaza":"","lat":35.093632,"lng":136.935052,"zip":"4570052"},{"town":"粕畠町三丁目","koaza":"","lat":35.093063,"lng":136.937006,"zip":"4570052"},{"town":"霞町","koaza":"","lat":35.103712,"lng":136.9399,"zip":"4570033"},{"town":"要町一丁目","koaza":"","lat":35.074808,"lng":136.920743,"zip":"4570802"},{"town":"要町二丁目","koaza":"","lat":35.074733,"lng":136.921891,"zip":"4570802"},{"town":"要町三丁目","koaza":"","lat":35.07498,"lng":136.923238,"zip":"4570802"},{"town":"要町四丁目","koaza":"","lat":35.075579,"lng":136.924543,"zip":"4570802"},{"town":"要町五丁目","koaza":"","lat":35.075715,"lng":136.927074,"zip":"4570802"},{"town":"加福町一丁目","koaza":"","lat":35.091665,"lng":136.904446,"zip":"4570837"},{"town":"加福町二丁目","koaza":"","lat":35.092717,"lng":136.907662,"zip":"4570837"},{"town":"加福町三丁目","koaza":"","lat":35.093299,"lng":136.911099,"zip":"4570837"},{"town":"加福本通一丁目","koaza":"","lat":35.095418,"lng":136.912939,"zip":"4570836"},{"town":"加福本通二丁目","koaza":"","lat":35.093311,"lng":136.913396,"zip":"4570836"},{"town":"加福本通三丁目","koaza":"","lat":35.091596,"lng":136.913352,"zip":"4570836"},{"town":"上浜町","koaza":"","lat":35.07348,"lng":136.930464,"zip":"4570067"},{"town":"神松町一丁目","koaza":"","lat":35.08359,"lng":136.916018,"zip":"4570824"},{"town":"神松町二丁目","koaza":"","lat":35.083555,"lng":136.918024,"zip":"4570824"},{"town":"神松町三丁目","koaza":"","lat":35.083639,"lng":136.919883,"zip":"4570824"},{"town":"観音町一丁目","koaza":"","lat":35.099569,"lng":136.905324,"zip":"4570845"},{"town":"観音町二丁目","koaza":"","lat":35.098232,"lng":136.905767,"zip":"4570845"},{"town":"観音町三丁目","koaza":"","lat":35.099826,"lng":136.906445,"zip":"4570845"},{"town":"観音町四丁目","koaza":"","lat":35.098491,"lng":136.906856,"zip":"4570845"},{"town":"観音町五丁目","koaza":"","lat":35.100135,"lng":136.907795,"zip":"4570845"},{"town":"観音町六丁目","koaza":"","lat":35.098825,"lng":136.908192,"zip":"4570845"},{"town":"観音町七丁目","koaza":"","lat":35.100928,"lng":136.909437,"zip":"4570845"},{"town":"観音町八丁目","koaza":"","lat":35.100277,"lng":136.909789,"zip":"4570845"},{"town":"観音町九丁目","koaza":"","lat":35.099248,"lng":136.909925,"zip":"4570845"},{"town":"菊住一丁目","koaza":"","lat":35.114868,"lng":136.935239,"zip":"4570012"},{"town":"菊住二丁目","koaza":"","lat":35.11212,"lng":136.935469,"zip":"4570012"},{"town":"北内町一丁目","koaza":"","lat":35.107337,"lng":136.92492,"zip":"4570049"},{"town":"北内町二丁目","koaza":"","lat":35.106498,"lng":136.925096,"zip":"4570049"},{"town":"北内町三丁目","koaza":"","lat":35.105624,"lng":136.925161,"zip":"4570049"},{"town":"北内町四丁目","koaza":"","lat":35.104749,"lng":136.925427,"zip":"4570049"},{"town":"北内町五丁目","koaza":"","lat":35.103718,"lng":136.926023,"zip":"4570049"},{"town":"北頭町一丁目","koaza":"","lat":35.089941,"lng":136.915695,"zip":"4570827"},{"town":"北頭町二丁目","koaza":"","lat":35.090201,"lng":136.916778,"zip":"4570827"},{"town":"北頭町三丁目","koaza":"","lat":35.090467,"lng":136.918158,"zip":"4570827"},{"town":"北頭町四丁目","koaza":"","lat":35.090688,"lng":136.919763,"zip":"4570827"},{"town":"楠町","koaza":"","lat":35.103047,"lng":136.941735,"zip":"4570028"},{"town":"源兵衛町一丁目","koaza":"","lat":35.07002,"lng":136.911301,"zip":"4570804"},{"town":"源兵衛町二丁目","koaza":"","lat":35.07001,"lng":136.913094,"zip":"4570804"},{"town":"源兵衛町三丁目","koaza":"","lat":35.070407,"lng":136.914929,"zip":"4570804"},{"town":"源兵衛町四丁目","koaza":"","lat":35.070624,"lng":136.916404,"zip":"4570804"},{"town":"源兵衛町五丁目","koaza":"","lat":35.07075,"lng":136.918236,"zip":"4570804"},{"town":"港東通一丁目","koaza":"","lat":35.0913,"lng":136.915715,"zip":"4570834"},{"town":"港東通二丁目","koaza":"","lat":35.091993,"lng":136.919553,"zip":"4570834"},{"town":"五条町一丁目","koaza":"","lat":35.103941,"lng":136.902683,"zip":"4570851"},{"town":"五条町二丁目","koaza":"","lat":35.102125,"lng":136.902861,"zip":"4570851"},{"town":"五条町三丁目","koaza":"","lat":35.100919,"lng":136.902898,"zip":"4570851"},{"town":"柵下町一丁目","koaza":"","lat":35.09581,"lng":136.92959,"zip":"4570044"},{"town":"柵下町二丁目","koaza":"","lat":35.09617,"lng":136.930786,"zip":"4570044"},{"town":"柵下町三丁目","koaza":"","lat":35.096778,"lng":136.931896,"zip":"4570044"},{"town":"柵下町四丁目","koaza":"","lat":35.09716,"lng":136.932673,"zip":"4570044"},{"town":"桜台一丁目","koaza":"","lat":35.10789,"lng":136.938536,"zip":"4570005"},{"town":"桜台二丁目","koaza":"","lat":35.107242,"lng":136.942269,"zip":"4570005"},{"town":"桜本町","koaza":"","lat":35.102758,"lng":136.935775,"zip":"4570038"},{"town":"桜本町二丁目","koaza":"","lat":35.106612,"lng":136.935831,"zip":"4570038"},{"town":"三条一丁目","koaza":"","lat":35.107009,"lng":136.901685,"zip":"4570866"},{"town":"三条二丁目","koaza":"","lat":35.107446,"lng":136.903612,"zip":"4570866"},{"town":"汐田町","koaza":"","lat":35.109614,"lng":136.92488,"zip":"4570016"},{"town":"塩屋町一丁目","koaza":"","lat":35.105283,"lng":136.922338,"zip":"4570078"},{"town":"塩屋町二丁目","koaza":"","lat":35.103853,"lng":136.922569,"zip":"4570078"},{"town":"塩屋町三丁目","koaza":"","lat":35.102447,"lng":136.923066,"zip":"4570078"},{"town":"塩屋町四丁目","koaza":"","lat":35.100987,"lng":136.923846,"zip":"4570078"},{"town":"塩屋町五丁目","koaza":"","lat":35.099099,"lng":136.924876,"zip":"4570078"},{"town":"塩屋町六丁目","koaza":"","lat":35.097943,"lng":136.925686,"zip":"4570078"},{"town":"七条町一丁目","koaza":"","lat":35.09652,"lng":136.902548,"zip":"4570854"},{"town":"七条町二丁目","koaza":"","lat":35.095628,"lng":136.902666,"zip":"4570854"},{"town":"七条町三丁目","koaza":"","lat":35.094879,"lng":136.903058,"zip":"4570854"},{"town":"柴田町一丁目","koaza":"","lat":35.076336,"lng":136.909923,"zip":"4570815"},{"town":"柴田町二丁目","koaza":"","lat":35.075127,"lng":136.909823,"zip":"4570815"},{"town":"柴田町三丁目","koaza":"","lat":35.074286,"lng":136.909694,"zip":"4570815"},{"town":"柴田町四丁目","koaza":"","lat":35.073288,"lng":136.909642,"zip":"4570815"},{"town":"柴田町五丁目","koaza":"","lat":35.072409,"lng":136.909479,"zip":"4570815"},{"town":"柴田町六丁目","koaza":"","lat":35.070675,"lng":136.909262,"zip":"4570815"},{"town":"柴田本通一丁目","koaza":"","lat":35.076144,"lng":136.911061,"zip":"4570814"},{"town":"柴田本通二丁目","koaza":"","lat":35.07443,"lng":136.910811,"zip":"4570814"},{"town":"柴田本通三丁目","koaza":"","lat":35.073305,"lng":136.910529,"zip":"4570814"},{"town":"柴田本通四丁目","koaza":"","lat":35.072344,"lng":136.910372,"zip":"4570814"},{"town":"柴田本通五丁目","koaza":"","lat":35.070785,"lng":136.910188,"zip":"4570814"},{"town":"芝町","koaza":"","lat":35.09741,"lng":136.945414,"zip":"4570023"},{"town":"城下町一丁目","koaza":"","lat":35.102544,"lng":136.92661,"zip":"4570047"},{"town":"城下町二丁目","koaza":"","lat":35.101662,"lng":136.927295,"zip":"4570047"},{"town":"城下町三丁目","koaza":"","lat":35.10081,"lng":136.928614,"zip":"4570047"},{"town":"砂口町","koaza":"","lat":35.092491,"lng":136.941526,"zip":"4570054"},{"town":"泉楽通一丁目","koaza":"","lat":35.104271,"lng":136.903023,"zip":"4570852"},{"town":"泉楽通二丁目","koaza":"","lat":35.101714,"lng":136.903966,"zip":"4570852"},{"town":"泉楽通三丁目","koaza":"","lat":35.098994,"lng":136.904812,"zip":"4570852"},{"town":"泉楽通四丁目","koaza":"","lat":35.096215,"lng":136.905223,"zip":"4570852"},{"town":"曽池町一丁目","koaza":"","lat":35.107064,"lng":136.927882,"zip":"4570042"},{"town":"曽池町二丁目","koaza":"","lat":35.105673,"lng":136.927897,"zip":"4570042"},{"town":"曽池町三丁目","koaza":"","lat":35.104682,"lng":136.928276,"zip":"4570042"},{"town":"曽池町四丁目","koaza":"","lat":35.103465,"lng":136.928738,"zip":"4570042"},{"town":"外山一丁目","koaza":"","lat":35.114003,"lng":136.941366,"zip":"4570008"},{"town":"外山二丁目","koaza":"","lat":35.112,"lng":136.941677,"zip":"4570008"},{"town":"大同町一丁目","koaza":"","lat":35.082359,"lng":136.911944,"zip":"4570811"},{"town":"大同町二丁目","koaza":"","lat":35.080912,"lng":136.911335,"zip":"4570811"},{"town":"大同町三丁目","koaza":"","lat":35.079758,"lng":136.911171,"zip":"4570811"},{"town":"大同町四丁目","koaza":"","lat":35.078654,"lng":136.911031,"zip":"4570811"},{"town":"大同町五丁目","koaza":"","lat":35.077611,"lng":136.910952,"zip":"4570811"},{"town":"鯛取通一丁目","koaza":"","lat":35.106587,"lng":136.938167,"zip":"4570031"},{"town":"鯛取通二丁目","koaza":"","lat":35.106093,"lng":136.940489,"zip":"4570031"},{"town":"鯛取通三丁目","koaza":"","lat":35.105638,"lng":136.943036,"zip":"4570031"},{"town":"鯛取通四丁目","koaza":"","lat":35.105239,"lng":136.945147,"zip":"4570031"},{"town":"鯛取通五丁目","koaza":"","lat":35.104552,"lng":136.947949,"zip":"4570031"},{"town":"滝春町","koaza":"","lat":35.080245,"lng":136.906602,"zip":"4570819"},{"town":"立脇町一丁目","koaza":"","lat":35.097005,"lng":136.92627,"zip":"4570077"},{"town":"立脇町二丁目","koaza":"","lat":35.09582,"lng":136.926791,"zip":"4570077"},{"town":"立脇町三丁目","koaza":"","lat":35.094435,"lng":136.927086,"zip":"4570077"},{"town":"立脇町四丁目","koaza":"","lat":35.092852,"lng":136.928497,"zip":"4570077"},{"town":"立脇町五丁目","koaza":"","lat":35.091993,"lng":136.928988,"zip":"4570077"},{"town":"丹後通一丁目","koaza":"","lat":35.076772,"lng":136.918561,"zip":"4570801"},{"town":"丹後通二丁目","koaza":"","lat":35.079413,"lng":136.920561,"zip":"4570801"},{"town":"丹後通三丁目","koaza":"","lat":35.076876,"lng":136.922767,"zip":"4570801"},{"town":"丹後通四丁目","koaza":"","lat":35.077551,"lng":136.923921,"zip":"4570801"},{"town":"丹後通五丁目","koaza":"","lat":35.080561,"lng":136.925295,"zip":"4570801"},{"town":"千竈通一丁目","koaza":"","lat":35.107301,"lng":136.922967,"zip":"4570071"},{"town":"千竈通二丁目","koaza":"","lat":35.105672,"lng":136.923517,"zip":"4570071"},{"town":"千竈通三丁目","koaza":"","lat":35.104335,"lng":136.923956,"zip":"4570071"},{"town":"千竈通四丁目","koaza":"","lat":35.103071,"lng":136.924545,"zip":"4570071"},{"town":"千竈通五丁目","koaza":"","lat":35.101468,"lng":136.925684,"zip":"4570071"},{"town":"千竈通六丁目","koaza":"","lat":35.099684,"lng":136.926343,"zip":"4570071"},{"town":"千竈通七丁目","koaza":"","lat":35.098335,"lng":136.927081,"zip":"4570071"},{"town":"忠次一丁目","koaza":"","lat":35.100084,"lng":136.917382,"zip":"4570843"},{"town":"忠次二丁目","koaza":"","lat":35.100371,"lng":136.919853,"zip":"4570843"},{"town":"堤起町一丁目","koaza":"","lat":35.085612,"lng":136.915722,"zip":"4570825"},{"town":"堤起町二丁目","koaza":"","lat":35.086015,"lng":136.917599,"zip":"4570825"},{"town":"堤起町三丁目","koaza":"","lat":35.085867,"lng":136.919394,"zip":"4570825"},{"town":"堤町一丁目","koaza":"","lat":35.0964,"lng":136.90639,"zip":"4570844"},{"town":"堤町二丁目","koaza":"","lat":35.096677,"lng":136.907408,"zip":"4570844"},{"town":"堤町三丁目","koaza":"","lat":35.097451,"lng":136.908505,"zip":"4570844"},{"town":"堤町四丁目","koaza":"","lat":35.097661,"lng":136.909755,"zip":"4570844"},{"town":"堤町五丁目","koaza":"","lat":35.097134,"lng":136.911157,"zip":"4570844"},{"town":"鶴里町一丁目","koaza":"","lat":35.103703,"lng":136.944786,"zip":"4570021"},{"town":"鶴里町二丁目","koaza":"","lat":35.103284,"lng":136.946223,"zip":"4570021"},{"town":"鶴里町三丁目","koaza":"","lat":35.102924,"lng":136.947915,"zip":"4570021"},{"town":"鶴田一丁目","koaza":"","lat":35.109381,"lng":136.94503,"zip":"4570003"},{"town":"鶴田二丁目","koaza":"","lat":35.109026,"lng":136.947029,"zip":"4570003"},{"town":"鶴見通一丁目","koaza":"","lat":35.075211,"lng":136.912009,"zip":"4570807"},{"town":"鶴見通二丁目","koaza":"","lat":35.075441,"lng":136.913796,"zip":"4570807"},{"town":"鶴見通三丁目","koaza":"","lat":35.07564,"lng":136.915258,"zip":"4570807"},{"town":"鶴見通四丁目","koaza":"","lat":35.075754,"lng":136.91684,"zip":"4570807"},{"town":"鶴見通五丁目","koaza":"","lat":35.07605,"lng":136.918631,"zip":"4570807"},{"town":"鶴見通六丁目","koaza":"","lat":35.076166,"lng":136.920365,"zip":"4570807"},{"town":"寺崎町","koaza":"","lat":35.10908,"lng":136.935731,"zip":"4570013"},{"town":"寺部通一丁目","koaza":"","lat":35.097229,"lng":136.927651,"zip":"4570072"},{"town":"寺部通二丁目","koaza":"","lat":35.095465,"lng":136.928648,"zip":"4570072"},{"town":"寺部通三丁目","koaza":"","lat":35.093259,"lng":136.929749,"zip":"4570072"},{"town":"寺部通四丁目","koaza":"","lat":35.092307,"lng":136.930154,"zip":"4570072"},{"town":"天白町一丁目","koaza":"","lat":35.071763,"lng":136.920807,"zip":"4570803"},{"town":"天白町二丁目","koaza":"","lat":35.071958,"lng":136.922491,"zip":"4570803"},{"town":"天白町三丁目","koaza":"","lat":35.072033,"lng":136.923915,"zip":"4570803"},{"town":"天白町四丁目","koaza":"","lat":35.072157,"lng":136.925491,"zip":"4570803"},{"town":"天白町五丁目","koaza":"","lat":35.07231,"lng":136.926922,"zip":"4570803"},{"town":"道全町一丁目","koaza":"","lat":35.090993,"lng":136.929519,"zip":"4570076"},{"town":"道全町二丁目","koaza":"","lat":35.089898,"lng":136.930079,"zip":"4570076"},{"town":"道全町三丁目","koaza":"","lat":35.088772,"lng":136.930878,"zip":"4570076"},{"town":"道全町四丁目","koaza":"","lat":35.087661,"lng":136.93129,"zip":"4570076"},{"town":"道徳北町一丁目","koaza":"","lat":35.104754,"lng":136.904527,"zip":"4570864"},{"town":"道徳北町二丁目","koaza":"","lat":35.10554,"lng":136.907033,"zip":"4570864"},{"town":"道徳北町三丁目","koaza":"","lat":35.106055,"lng":136.908498,"zip":"4570864"},{"town":"道徳新町一丁目","koaza":"","lat":35.104232,"lng":136.904806,"zip":"4570847"},{"town":"道徳新町二丁目","koaza":"","lat":35.103255,"lng":136.904941,"zip":"4570847"},{"town":"道徳新町三丁目","koaza":"","lat":35.102485,"lng":136.905185,"zip":"4570847"},{"town":"道徳新町四丁目","koaza":"","lat":35.101525,"lng":136.905461,"zip":"4570847"},{"town":"道徳新町五丁目","koaza":"","lat":35.103312,"lng":136.907385,"zip":"4570847"},{"town":"道徳新町六丁目","koaza":"","lat":35.1054,"lng":136.908692,"zip":"4570847"},{"town":"道徳新町七丁目","koaza":"","lat":35.104254,"lng":136.909141,"zip":"4570847"},{"town":"道徳新町八丁目","koaza":"","lat":35.103135,"lng":136.909343,"zip":"4570847"},{"town":"道徳新町九丁目","koaza":"","lat":35.10219,"lng":136.909509,"zip":"4570847"},{"town":"道徳通一丁目","koaza":"","lat":35.100238,"lng":136.902897,"zip":"4570846"},{"town":"道徳通二丁目","koaza":"","lat":35.100867,"lng":136.906003,"zip":"4570846"},{"town":"道徳通三丁目","koaza":"","lat":35.101496,"lng":136.909639,"zip":"4570846"},{"town":"戸部下一丁目","koaza":"","lat":35.106111,"lng":136.919637,"zip":"4570842"},{"town":"戸部下二丁目","koaza":"","lat":35.103987,"lng":136.919433,"zip":"4570842"},{"town":"戸部町一丁目","koaza":"","lat":35.102475,"lng":136.929408,"zip":"4570043"},{"town":"戸部町二丁目","koaza":"","lat":35.102312,"lng":136.931349,"zip":"4570043"},{"town":"戸部町三丁目","koaza":"","lat":35.100987,"lng":136.930851,"zip":"4570043"},{"town":"戸部町四丁目","koaza":"","lat":35.09996,"lng":136.931265,"zip":"4570043"},{"town":"豊田一丁目","koaza":"","lat":35.106207,"lng":136.911166,"zip":"4570841"},{"town":"豊田二丁目","koaza":"","lat":35.106311,"lng":136.915301,"zip":"4570841"},{"town":"豊田三丁目","koaza":"","lat":35.103622,"lng":136.915884,"zip":"4570841"},{"town":"豊田四丁目","koaza":"","lat":35.103189,"lng":136.911875,"zip":"4570841"},{"town":"豊田五丁目","koaza":"","lat":35.09932,"lng":136.913512,"zip":"4570841"},{"town":"豊田町","koaza":"","lat":35.094319,"lng":136.901113,"zip":"4570855"},{"town":"鳥栖一丁目","koaza":"","lat":35.110195,"lng":136.939353,"zip":"4570006"},{"town":"鳥栖二丁目","koaza":"","lat":35.109549,"lng":136.942534,"zip":"4570006"},{"town":"鳥山町一丁目","koaza":"","lat":35.093071,"lng":136.931021,"zip":"4570057"},{"town":"鳥山町二丁目","koaza":"","lat":35.093457,"lng":136.932228,"zip":"4570057"},{"town":"鳥山町三丁目","koaza":"","lat":35.093799,"lng":136.933425,"zip":"4570057"},{"town":"中江一丁目","koaza":"","lat":35.106565,"lng":136.945128,"zip":"4570004"},{"town":"中江二丁目","koaza":"","lat":35.106062,"lng":136.947686,"zip":"4570004"},{"town":"中割町一丁目","koaza":"","lat":35.087895,"lng":136.915376,"zip":"4570826"},{"town":"中割町二丁目","koaza":"","lat":35.088033,"lng":136.91686,"zip":"4570826"},{"town":"中割町三丁目","koaza":"","lat":35.088302,"lng":136.918708,"zip":"4570826"},{"town":"中割町四丁目","koaza":"","lat":35.088489,"lng":136.920495,"zip":"4570826"},{"town":"鳴尾一丁目","koaza":"","lat":35.076664,"lng":136.93386,"zip":"4570066"},{"town":"鳴尾二丁目","koaza":"","lat":35.074504,"lng":136.934901,"zip":"4570066"},{"town":"鳴尾町","koaza":"","lat":35.06957,"lng":136.905732,"zip":"4570813"},{"town":"鳴浜町一丁目","koaza":"","lat":35.074036,"lng":136.911956,"zip":"4570806"},{"town":"鳴浜町二丁目","koaza":"","lat":35.074109,"lng":136.913613,"zip":"4570806"},{"town":"鳴浜町三丁目","koaza":"","lat":35.073925,"lng":136.915153,"zip":"4570806"},{"town":"鳴浜町四丁目","koaza":"","lat":35.074363,"lng":136.916471,"zip":"4570806"},{"town":"鳴浜町五丁目","koaza":"","lat":35.074701,"lng":136.917767,"zip":"4570806"},{"town":"鳴浜町六丁目","koaza":"","lat":35.074661,"lng":136.919079,"zip":"4570806"},{"town":"鳴浜町七丁目","koaza":"","lat":35.074803,"lng":136.920003,"zip":"4570806"},{"town":"南陽通四丁目","koaza":"","lat":35.104702,"lng":136.902097,"zip":"4570856"},{"town":"南陽通五丁目","koaza":"","lat":35.10154,"lng":136.901626,"zip":"4570856"},{"town":"南陽通六丁目","koaza":"","lat":35.098468,"lng":136.901257,"zip":"4570856"},{"town":"西桜町","koaza":"","lat":35.103446,"lng":136.93466,"zip":"4570039"},{"town":"西田町一丁目","koaza":"","lat":35.091521,"lng":136.93161,"zip":"4570073"},{"town":"西田町二丁目","koaza":"","lat":35.090513,"lng":136.931946,"zip":"4570073"},{"town":"西田町三丁目","koaza":"","lat":35.089422,"lng":136.932469,"zip":"4570073"},{"town":"西田町四丁目","koaza":"","lat":35.088337,"lng":136.933049,"zip":"4570073"},{"town":"西又兵ヱ町一丁目","koaza":"","lat":35.096511,"lng":136.915378,"zip":"4570835"},{"town":"西又兵ヱ町二丁目","koaza":"","lat":35.095027,"lng":136.915086,"zip":"4570835"},{"town":"西又兵ヱ町三丁目","koaza":"","lat":35.093719,"lng":136.915499,"zip":"4570835"},{"town":"西又兵ヱ町四丁目","koaza":"","lat":35.092691,"lng":136.916166,"zip":"4570835"},{"town":"白雲町","koaza":"","lat":35.097127,"lng":136.939704,"zip":"4570025"},{"town":"白水町","koaza":"","lat":35.075552,"lng":136.906165,"zip":"4570818"},{"town":"浜田町一丁目","koaza":"","lat":35.087381,"lng":136.922054,"zip":"4570822"},{"town":"浜田町二丁目","koaza":"","lat":35.08763,"lng":136.923005,"zip":"4570822"},{"town":"浜田町三丁目","koaza":"","lat":35.087801,"lng":136.924452,"zip":"4570822"},{"town":"浜田町四丁目","koaza":"","lat":35.088038,"lng":136.926689,"zip":"4570822"},{"town":"浜田町五丁目","koaza":"","lat":35.088943,"lng":136.928683,"zip":"4570822"},{"town":"浜中町一丁目","koaza":"","lat":35.097016,"lng":136.924411,"zip":"4570832"},{"town":"浜中町二丁目","koaza":"","lat":35.095049,"lng":136.925289,"zip":"4570832"},{"town":"浜中町三丁目","koaza":"","lat":35.091897,"lng":136.927074,"zip":"4570832"},{"town":"東又兵ヱ町一丁目","koaza":"","lat":35.098138,"lng":136.921345,"zip":"4570833"},{"town":"東又兵ヱ町二丁目","koaza":"","lat":35.09589,"lng":136.919014,"zip":"4570833"},{"town":"東又兵ヱ町三丁目","koaza":"","lat":35.094135,"lng":136.918984,"zip":"4570833"},{"town":"東又兵ヱ町四丁目","koaza":"","lat":35.092861,"lng":136.919587,"zip":"4570833"},{"town":"東又兵ヱ町五丁目","koaza":"","lat":35.094713,"lng":136.922449,"zip":"4570833"},{"town":"氷室町","koaza":"","lat":35.107375,"lng":136.906774,"zip":"4570865"},{"town":"氷室町四丁目","koaza":"","lat":35.106511,"lng":136.908196,"zip":"4570865"},{"town":"平子一丁目","koaza":"","lat":35.115243,"lng":136.942184,"zip":"4570001"},{"town":"平子二丁目","koaza":"","lat":35.113052,"lng":136.945449,"zip":"4570001"},{"town":"宝生町一丁目","koaza":"","lat":35.088792,"lng":136.91232,"zip":"4570828"},{"town":"宝生町二丁目","koaza":"","lat":35.088867,"lng":136.914117,"zip":"4570828"},{"town":"宝生町三丁目","koaza":"","lat":35.085226,"lng":136.911312,"zip":"4570828"},{"town":"宝生町四丁目","koaza":"","lat":35.085122,"lng":136.91352,"zip":"4570828"},{"town":"星崎一丁目","koaza":"","lat":35.082245,"lng":136.936283,"zip":"4570064"},{"town":"星崎二丁目","koaza":"","lat":35.082504,"lng":136.938613,"zip":"4570064"},{"town":"星崎町","koaza":"","lat":35.080039,"lng":136.915322,"zip":"4570812"},{"town":"星園町","koaza":"","lat":35.086316,"lng":136.934307,"zip":"4570069"},{"town":"星宮町","koaza":"","lat":35.088829,"lng":136.939063,"zip":"4570055"},{"town":"本地通一丁目","koaza":"","lat":35.091304,"lng":136.930819,"zip":"4570074"},{"town":"本地通二丁目","koaza":"","lat":35.090295,"lng":136.931363,"zip":"4570074"},{"town":"本地通三丁目","koaza":"","lat":35.0892,"lng":136.931944,"zip":"4570074"},{"town":"本地通四丁目","koaza":"","lat":35.08819,"lng":136.932483,"zip":"4570074"},{"town":"本地通五丁目","koaza":"","lat":35.086991,"lng":136.93311,"zip":"4570074"},{"town":"本地通六丁目","koaza":"","lat":35.085977,"lng":136.933469,"zip":"4570074"},{"town":"本地通七丁目","koaza":"","lat":35.085252,"lng":136.933986,"zip":"4570074"},{"town":"本城町一丁目","koaza":"","lat":35.090982,"lng":136.936047,"zip":"4570053"},{"town":"本城町二丁目","koaza":"","lat":35.091115,"lng":136.937542,"zip":"4570053"},{"town":"本城町三丁目","koaza":"","lat":35.091927,"lng":136.938527,"zip":"4570053"},{"town":"前浜通一丁目","koaza":"","lat":35.092797,"lng":136.92665,"zip":"4570058"},{"town":"前浜通二丁目","koaza":"","lat":35.093883,"lng":136.928626,"zip":"4570058"},{"town":"前浜通三丁目","koaza":"","lat":35.094459,"lng":136.930574,"zip":"4570058"},{"town":"前浜通四丁目","koaza":"","lat":35.095678,"lng":136.932804,"zip":"4570058"},{"town":"前浜通五丁目","koaza":"","lat":35.097063,"lng":136.933634,"zip":"4570058"},{"town":"前浜通六丁目","koaza":"","lat":35.097919,"lng":136.934418,"zip":"4570058"},{"town":"前浜通七丁目","koaza":"","lat":35.098953,"lng":136.934122,"zip":"4570058"},{"town":"松池町一丁目","koaza":"","lat":35.099793,"lng":136.928483,"zip":"4570046"},{"town":"松池町二丁目","koaza":"","lat":35.099204,"lng":136.929048,"zip":"4570046"},{"town":"松池町三丁目","koaza":"","lat":35.098672,"lng":136.92986,"zip":"4570046"},{"town":"松下町一丁目","koaza":"","lat":35.076487,"lng":136.912384,"zip":"4570808"},{"town":"松下町二丁目","koaza":"","lat":35.076404,"lng":136.913907,"zip":"4570808"},{"town":"松下町三丁目","koaza":"","lat":35.076454,"lng":136.915312,"zip":"4570808"},{"town":"松下町四丁目","koaza":"","lat":35.07655,"lng":136.917039,"zip":"4570808"},{"town":"松城町一丁目","koaza":"","lat":35.097453,"lng":136.928718,"zip":"4570045"},{"town":"松城町二丁目","koaza":"","lat":35.097937,"lng":136.930614,"zip":"4570045"},{"town":"松城町三丁目","koaza":"","lat":35.098881,"lng":136.932078,"zip":"4570045"},{"town":"南野一丁目","koaza":"","lat":35.081575,"lng":136.929034,"zip":"4570068"},{"town":"南野二丁目","koaza":"","lat":35.078085,"lng":136.928529,"zip":"4570068"},{"town":"南野三丁目","koaza":"","lat":35.080465,"lng":136.931724,"zip":"4570068"},{"town":"見晴町","koaza":"","lat":35.100015,"lng":136.941001,"zip":"4570026"},{"town":"明円町","koaza":"","lat":35.100535,"lng":136.945609,"zip":"4570022"},{"town":"三吉町一丁目","koaza":"","lat":35.072126,"lng":136.91162,"zip":"4570805"},{"town":"三吉町二丁目","koaza":"","lat":35.072053,"lng":136.913324,"zip":"4570805"},{"town":"三吉町三丁目","koaza":"","lat":35.0724,"lng":136.91504,"zip":"4570805"},{"town":"三吉町四丁目","koaza":"","lat":35.072403,"lng":136.916522,"zip":"4570805"},{"town":"三吉町五丁目","koaza":"","lat":35.072526,"lng":136.917937,"zip":"4570805"},{"town":"三吉町六丁目","koaza":"","lat":35.072175,"lng":136.91932,"zip":"4570805"},{"town":"明治一丁目","koaza":"","lat":35.114239,"lng":136.903894,"zip":"4570861"},{"town":"明治二丁目","koaza":"","lat":35.110287,"lng":136.906004,"zip":"4570861"},{"town":"元桜田町","koaza":"","lat":35.104748,"lng":136.941249,"zip":"4570032"},{"town":"元桜田町一丁目","koaza":"","lat":35.105994,"lng":136.937175,"zip":"4570032"},{"town":"元桜田町二丁目","koaza":"","lat":35.105875,"lng":136.938781,"zip":"4570032"},{"town":"元桜田町三丁目","koaza":"","lat":35.105466,"lng":136.940773,"zip":"4570032"},{"town":"元桜田町四丁目","koaza":"","lat":35.10497,"lng":136.943094,"zip":"4570032"},{"town":"元桜田町五丁目","koaza":"","lat":35.103927,"lng":136.943442,"zip":"4570032"},{"town":"元塩町一丁目","koaza":"","lat":35.084459,"lng":136.921875,"zip":"4570823"},{"town":"元塩町二丁目","koaza":"","lat":35.08478,"lng":136.923758,"zip":"4570823"},{"town":"元塩町三丁目","koaza":"","lat":35.084984,"lng":136.925276,"zip":"4570823"},{"town":"元塩町四丁目","koaza":"","lat":35.085345,"lng":136.927404,"zip":"4570823"},{"town":"元塩町五丁目","koaza":"","lat":35.086494,"lng":136.929493,"zip":"4570823"},{"town":"元塩町六丁目","koaza":"","lat":35.084869,"lng":136.930809,"zip":"4570823"},{"town":"元柴田西町一丁目","koaza":"","lat":35.073211,"lng":136.905169,"zip":"4570817"},{"town":"元柴田西町二丁目","koaza":"","lat":35.070913,"lng":136.903666,"zip":"4570817"},{"town":"元柴田西町三丁目","koaza":"","lat":35.073781,"lng":136.903409,"zip":"4570817"},{"town":"元柴田東町一丁目","koaza":"","lat":35.073546,"lng":136.907599,"zip":"4570816"},{"town":"元柴田東町二丁目","koaza":"","lat":35.072527,"lng":136.907531,"zip":"4570816"},{"town":"元柴田東町三丁目","koaza":"","lat":35.071474,"lng":136.907477,"zip":"4570816"},{"town":"元柴田東町四丁目","koaza":"","lat":35.070266,"lng":136.907421,"zip":"4570816"},{"town":"元鳴尾町","koaza":"","lat":35.078176,"lng":136.937891,"zip":"4570065"},{"town":"本星崎町","koaza":"","lat":35.088486,"lng":136.934926,"zip":"4570056"},{"town":"薬師通一丁目","koaza":"","lat":35.107772,"lng":136.925139,"zip":"4570041"},{"town":"薬師通二丁目","koaza":"","lat":35.107864,"lng":136.927704,"zip":"4570041"},{"town":"弥次ヱ町一丁目","koaza":"","lat":35.090477,"lng":136.921145,"zip":"4570821"},{"town":"弥次ヱ町二丁目","koaza":"","lat":35.090661,"lng":136.922238,"zip":"4570821"},{"town":"弥次ヱ町三丁目","koaza":"","lat":35.091377,"lng":136.92359,"zip":"4570821"},{"town":"弥次ヱ町四丁目","koaza":"","lat":35.091289,"lng":136.92534,"zip":"4570821"},{"town":"弥次ヱ町五丁目","koaza":"","lat":35.090662,"lng":136.927665,"zip":"4570821"},{"town":"弥生町","koaza":"","lat":35.100617,"lng":136.942131,"zip":"4570027"},{"town":"豊一丁目","koaza":"","lat":35.113454,"lng":136.913424,"zip":"4570841"},{"town":"豊二丁目","koaza":"","lat":35.109894,"lng":136.911642,"zip":"4570841"},{"town":"豊三丁目","koaza":"","lat":35.110031,"lng":136.916365,"zip":"4570841"},{"town":"豊四丁目","koaza":"","lat":35.109869,"lng":136.92012,"zip":"4570841"},{"town":"呼続一丁目","koaza":"","lat":35.113229,"lng":136.928363,"zip":"4570014"},{"town":"呼続二丁目","koaza":"","lat":35.112299,"lng":136.931058,"zip":"4570014"},{"town":"呼続三丁目","koaza":"","lat":35.109085,"lng":136.932495,"zip":"4570014"},{"town":"呼続四丁目","koaza":"","lat":35.105688,"lng":136.931798,"zip":"4570014"},{"town":"呼続五丁目","koaza":"","lat":35.102113,"lng":136.933039,"zip":"4570014"},{"town":"呼続町","koaza":"","lat":35.102404,"lng":136.941146,"zip":"4570000"},{"town":"呼続元町","koaza":"","lat":35.113282,"lng":136.932606,"zip":"4570011"},{"town":"六条町一丁目","koaza":"","lat":35.099139,"lng":136.902583,"zip":"4570853"},{"town":"六条町二丁目","koaza":"","lat":35.099416,"lng":136.903922,"zip":"4570853"},{"town":"六条町三丁目","koaza":"","lat":35.097993,"lng":136.904344,"zip":"4570853"},{"town":"六条町四丁目","koaza":"","lat":35.097656,"lng":136.902719,"zip":"4570853"},{"town":"若草町","koaza":"","lat":35.101941,"lng":136.938223,"zip":"4570036"},{"town":"笠寺町","koaza":"西之門","lat":35.100081,"lng":136.933681,"zip":"4570051"},{"town":"笠寺町","koaza":"姥子山","lat":35.099395,"lng":136.932653,"zip":"4570051"},{"town":"本星崎町","koaza":"西中","lat":35.090999,"lng":136.932119,"zip":"4570056"},{"town":"本星崎町","koaza":"廻間","lat":35.091577,"lng":136.932651,"zip":"4570056"},{"town":"本星崎町","koaza":"寺坂","lat":35.089797,"lng":136.933868,"zip":"4570056"},{"town":"笠寺町","koaza":"迫間","lat":35.092665,"lng":136.934518,"zip":"4570051"},{"town":"本星崎町","koaza":"西田","lat":35.088773,"lng":136.933416,"zip":"4570056"},{"town":"笠寺町","koaza":"松東","lat":35.098968,"lng":136.933408,"zip":"4570051"},{"town":"本星崎町","koaza":"宮西","lat":35.088989,"lng":136.934307,"zip":"4570056"},{"town":"本星崎町","koaza":"町西","lat":35.087308,"lng":136.934181,"zip":"4570056"},{"town":"本星崎町","koaza":"本城","lat":35.09015,"lng":136.935114,"zip":"4570056"},{"town":"本星崎町","koaza":"堀割","lat":35.091432,"lng":136.934273,"zip":"4570056"},{"town":"笠寺町","koaza":"大門","lat":35.097294,"lng":136.935543,"zip":"4570051"},{"town":"本星崎町","koaza":"町","lat":35.087263,"lng":136.935381,"zip":"4570056"},{"town":"本星崎町","koaza":"大道","lat":35.08596,"lng":136.936107,"zip":"4570056"},{"town":"笠寺町","koaza":"天満","lat":35.095228,"lng":136.934906,"zip":"4570051"},{"town":"本星崎町","koaza":"宮浦","lat":35.088805,"lng":136.935336,"zip":"4570056"},{"town":"笠寺町","koaza":"上新町","lat":35.098775,"lng":136.93599,"zip":"4570051"},{"town":"星崎町","koaza":"殿海道","lat":35.085367,"lng":136.936868,"zip":"4570812"},{"town":"笠寺町","koaza":"市場","lat":35.094839,"lng":136.936502,"zip":"4570051"},{"town":"笠寺町","koaza":"中切","lat":35.095779,"lng":136.936837,"zip":"4570051"},{"town":"笠寺町","koaza":"下新町","lat":35.096076,"lng":136.938269,"zip":"4570051"},{"town":"本星崎町","koaza":"東浦下","lat":35.087253,"lng":136.937312,"zip":"4570056"},{"town":"笠寺町","koaza":"市場東","lat":35.094472,"lng":136.938113,"zip":"4570051"},{"town":"笠寺町","koaza":"柚ノ木","lat":35.09338,"lng":136.939072,"zip":"4570051"}]