[{"town":"相川一丁目","koaza":"","lat":35.101565,"lng":136.967846,"zip":"4580011"},{"town":"相川二丁目","koaza":"","lat":35.101279,"lng":136.972218,"zip":"4580011"},{"town":"相川三丁目","koaza":"","lat":35.100793,"lng":136.975041,"zip":"4580011"},{"town":"相原郷一丁目","koaza":"","lat":35.081305,"lng":136.969451,"zip":"4580033"},{"town":"相原郷二丁目","koaza":"","lat":35.079485,"lng":136.969195,"zip":"4580033"},{"town":"青山一丁目","koaza":"","lat":35.071023,"lng":136.947907,"zip":"4580833"},{"town":"青山二丁目","koaza":"","lat":35.070226,"lng":136.950279,"zip":"4580833"},{"town":"青山三丁目","koaza":"","lat":35.069492,"lng":136.952214,"zip":"4580833"},{"town":"青山四丁目","koaza":"","lat":35.067453,"lng":136.951205,"zip":"4580833"},{"town":"赤松","koaza":"","lat":35.101831,"lng":137.01793,"zip":"4580837"},{"town":"旭出一丁目","koaza":"","lat":35.085142,"lng":136.96535,"zip":"4580031"},{"town":"旭出二丁目","koaza":"","lat":35.087032,"lng":136.967959,"zip":"4580031"},{"town":"旭出三丁目","koaza":"","lat":35.089067,"lng":136.970866,"zip":"4580031"},{"town":"有松","koaza":"","lat":35.066532,"lng":136.970207,"zip":"4580924"},{"town":"有松三丁山","koaza":"","lat":35.064674,"lng":136.966888,"zip":"4580902"},{"town":"有松町大字有松","koaza":"","lat":35.064156,"lng":136.968766,"zip":"4580000"},{"town":"有松南","koaza":"","lat":35.064211,"lng":136.964818,"zip":"4598004"},{"town":"池上台一丁目","koaza":"","lat":35.093449,"lng":136.963822,"zip":"4580044"},{"town":"池上台二丁目","koaza":"","lat":35.093289,"lng":136.967203,"zip":"4580044"},{"town":"池上台三丁目","koaza":"","lat":35.090503,"lng":136.9673,"zip":"4580044"},{"town":"姥子山一丁目","koaza":"","lat":35.074438,"lng":136.981788,"zip":"4580830"},{"town":"姥子山二丁目","koaza":"","lat":35.072,"lng":136.981795,"zip":"4580830"},{"town":"姥子山三丁目","koaza":"","lat":35.06976,"lng":136.981934,"zip":"4580830"},{"town":"姥子山四丁目","koaza":"","lat":35.06798,"lng":136.982704,"zip":"4580830"},{"town":"姥子山五丁目","koaza":"","lat":35.068911,"lng":136.985934,"zip":"4580830"},{"town":"梅里一丁目","koaza":"","lat":35.107723,"lng":136.989805,"zip":"4580001"},{"town":"梅里二丁目","koaza":"","lat":35.105837,"lng":136.991716,"zip":"4580001"},{"town":"浦里一丁目","koaza":"","lat":35.091083,"lng":136.944527,"zip":"4580847"},{"town":"浦里二丁目","koaza":"","lat":35.089858,"lng":136.948297,"zip":"4580847"},{"town":"浦里三丁目","koaza":"","lat":35.085937,"lng":136.947208,"zip":"4580847"},{"town":"浦里四丁目","koaza":"","lat":35.087071,"lng":136.943408,"zip":"4580847"},{"town":"浦里五丁目","koaza":"","lat":35.082638,"lng":136.944472,"zip":"4580847"},{"town":"漆山","koaza":"","lat":35.070152,"lng":136.955662,"zip":"4580832"},{"town":"大形山","koaza":"","lat":35.0839,"lng":136.96874,"zip":"4580032"},{"town":"大清水一丁目","koaza":"","lat":35.08069,"lng":136.987827,"zip":"4580805"},{"town":"大清水二丁目","koaza":"","lat":35.080361,"lng":136.991118,"zip":"4580805"},{"town":"大清水三丁目","koaza":"","lat":35.077582,"lng":136.991751,"zip":"4580805"},{"town":"大清水四丁目","koaza":"","lat":35.075678,"lng":136.988128,"zip":"4580805"},{"town":"大清水五丁目","koaza":"","lat":35.074398,"lng":136.991223,"zip":"4580805"},{"town":"大清水西","koaza":"","lat":35.078345,"lng":136.988811,"zip":"4580806"},{"town":"大清水東","koaza":"","lat":35.074102,"lng":136.993867,"zip":"4580849"},{"town":"大高台一丁目","koaza":"","lat":35.058115,"lng":136.934802,"zip":"4598003"},{"town":"大高台二丁目","koaza":"","lat":35.057798,"lng":136.937125,"zip":"4598003"},{"town":"大高台三丁目","koaza":"","lat":35.061201,"lng":136.935778,"zip":"4598003"},{"town":"大根山一丁目","koaza":"","lat":35.054256,"lng":136.956773,"zip":"4598007"},{"town":"大根山二丁目","koaza":"","lat":35.050924,"lng":136.953708,"zip":"4598007"},{"town":"桶狭間上の山","koaza":"","lat":35.047791,"lng":136.971624,"zip":"4580926"},{"town":"桶狭間切戸","koaza":"","lat":35.046314,"lng":136.961159,"zip":"4580922"},{"town":"桶狭間清水山","koaza":"","lat":35.048498,"lng":136.960099,"zip":"4580921"},{"town":"桶狭間南","koaza":"","lat":35.044282,"lng":136.969344,"zip":"4580927"},{"town":"桶狭間森前","koaza":"","lat":35.048188,"lng":136.964856,"zip":"4580910"},{"town":"尾崎山一丁目","koaza":"","lat":35.078092,"lng":136.977787,"zip":"4580024"},{"town":"尾崎山二丁目","koaza":"","lat":35.076238,"lng":136.978438,"zip":"4580024"},{"town":"鏡田","koaza":"","lat":35.092873,"lng":137.013139,"zip":"4580803"},{"town":"篭山一丁目","koaza":"","lat":35.08489,"lng":136.984108,"zip":"4580007"},{"town":"篭山二丁目","koaza":"","lat":35.08302,"lng":136.98399,"zip":"4580007"},{"town":"篭山三丁目","koaza":"","lat":35.082029,"lng":136.984659,"zip":"4580007"},{"town":"鎌倉台一丁目","koaza":"","lat":35.076307,"lng":136.981828,"zip":"4580829"},{"town":"鎌倉台二丁目","koaza":"","lat":35.073186,"lng":136.985955,"zip":"4580829"},{"town":"上旭一丁目","koaza":"","lat":35.092874,"lng":136.974426,"zip":"4580016"},{"town":"上旭二丁目","koaza":"","lat":35.091055,"lng":136.973366,"zip":"4580016"},{"town":"神沢一丁目","koaza":"","lat":35.098362,"lng":136.987607,"zip":"4580014"},{"town":"神沢二丁目","koaza":"","lat":35.09569,"lng":136.985869,"zip":"4580014"},{"town":"神沢三丁目","koaza":"","lat":35.093248,"lng":136.984605,"zip":"4580014"},{"town":"神の倉一丁目","koaza":"","lat":35.103257,"lng":137.011589,"zip":"4580812"},{"town":"神の倉二丁目","koaza":"","lat":35.103818,"lng":137.013355,"zip":"4580812"},{"town":"神の倉三丁目","koaza":"","lat":35.101612,"lng":137.013997,"zip":"4580812"},{"town":"神の倉四丁目","koaza":"","lat":35.100141,"lng":137.011472,"zip":"4580812"},{"town":"亀が洞一丁目","koaza":"","lat":35.09524,"lng":137.006468,"zip":"4580804"},{"town":"亀が洞二丁目","koaza":"","lat":35.093141,"lng":137.007879,"zip":"4580804"},{"town":"亀が洞三丁目","koaza":"","lat":35.093819,"lng":137.011622,"zip":"4580804"},{"town":"倉坂","koaza":"","lat":35.06598,"lng":136.949844,"zip":"4598006"},{"town":"黒沢台一丁目","koaza":"","lat":35.104787,"lng":136.996875,"zip":"4580003"},{"town":"黒沢台二丁目","koaza":"","lat":35.101816,"lng":136.998296,"zip":"4580003"},{"town":"黒沢台三丁目","koaza":"","lat":35.101822,"lng":136.994403,"zip":"4580003"},{"town":"黒沢台四丁目","koaza":"","lat":35.098385,"lng":136.993032,"zip":"4580003"},{"town":"黒沢台五丁目","koaza":"","lat":35.098399,"lng":136.996333,"zip":"4580003"},{"town":"鴻仏目一丁目","koaza":"","lat":35.081531,"lng":136.980788,"zip":"4580023"},{"town":"鴻仏目二丁目","koaza":"","lat":35.080352,"lng":136.979749,"zip":"4580023"},{"town":"小坂一丁目","koaza":"","lat":35.087357,"lng":136.983168,"zip":"4580022"},{"town":"小坂二丁目","koaza":"","lat":35.082995,"lng":136.979304,"zip":"4580022"},{"town":"古鳴海一丁目","koaza":"","lat":35.09991,"lng":136.958486,"zip":"4580047"},{"town":"古鳴海二丁目","koaza":"","lat":35.097673,"lng":136.957929,"zip":"4580047"},{"town":"境松一丁目","koaza":"","lat":35.063363,"lng":136.974753,"zip":"4580820"},{"town":"境松二丁目","koaza":"","lat":35.062365,"lng":136.984067,"zip":"4580820"},{"town":"左京山","koaza":"","lat":35.069378,"lng":136.961273,"zip":"4580825"},{"town":"作の山町","koaza":"","lat":35.085929,"lng":136.959681,"zip":"4580038"},{"town":"潮見が丘一丁目","koaza":"","lat":35.083516,"lng":136.959718,"zip":"4580037"},{"town":"潮見が丘二丁目","koaza":"","lat":35.083774,"lng":136.96234,"zip":"4580037"},{"town":"潮見が丘三丁目","koaza":"","lat":35.081993,"lng":136.965175,"zip":"4580037"},{"town":"鹿山一丁目","koaza":"","lat":35.088803,"lng":136.962945,"zip":"4580045"},{"town":"鹿山二丁目","koaza":"","lat":35.089669,"lng":136.964289,"zip":"4580045"},{"town":"鹿山三丁目","koaza":"","lat":35.087908,"lng":136.965102,"zip":"4580045"},{"town":"篠の風一丁目","koaza":"","lat":35.096908,"lng":136.97455,"zip":"4580015"},{"town":"篠の風二丁目","koaza":"","lat":35.096806,"lng":136.979196,"zip":"4580015"},{"town":"篠の風三丁目","koaza":"","lat":35.093546,"lng":136.979036,"zip":"4580015"},{"town":"四本木","koaza":"","lat":35.070859,"lng":136.963284,"zip":"4580039"},{"town":"清水山一丁目","koaza":"","lat":35.051487,"lng":136.959823,"zip":"4598009"},{"town":"定納山一丁目","koaza":"","lat":35.054693,"lng":136.934052,"zip":"4598011"},{"town":"定納山二丁目","koaza":"","lat":35.051691,"lng":136.933841,"zip":"4598011"},{"town":"白土","koaza":"","lat":35.100752,"lng":137.02118,"zip":"4580836"},{"town":"砂田一丁目","koaza":"","lat":35.079383,"lng":136.980458,"zip":"4580807"},{"town":"砂田二丁目","koaza":"","lat":35.08057,"lng":136.984387,"zip":"4580807"},{"town":"曽根一丁目","koaza":"","lat":35.076019,"lng":136.956373,"zip":"4580035"},{"town":"曽根二丁目","koaza":"","lat":35.074079,"lng":136.958172,"zip":"4580035"},{"town":"曽根三丁目","koaza":"","lat":35.072265,"lng":136.964204,"zip":"4580035"},{"town":"太子一丁目","koaza":"","lat":35.066199,"lng":136.976581,"zip":"4580823"},{"town":"太子二丁目","koaza":"","lat":35.06639,"lng":136.979893,"zip":"4580823"},{"town":"太子三丁目","koaza":"","lat":35.063161,"lng":136.977166,"zip":"4580823"},{"town":"大将ケ根一丁目","koaza":"","lat":35.065314,"lng":136.983078,"zip":"4580822"},{"town":"大将ケ根二丁目","koaza":"","lat":35.063026,"lng":136.981037,"zip":"4580822"},{"town":"高根台","koaza":"","lat":35.095532,"lng":136.973005,"zip":"4580042"},{"town":"滝ノ水一丁目","koaza":"","lat":35.089944,"lng":136.977164,"zip":"4580021"},{"town":"滝ノ水二丁目","koaza":"","lat":35.089147,"lng":136.981161,"zip":"4580021"},{"town":"滝ノ水三丁目","koaza":"","lat":35.086673,"lng":136.977128,"zip":"4580021"},{"town":"滝ノ水四丁目","koaza":"","lat":35.08353,"lng":136.973814,"zip":"4580021"},{"town":"滝ノ水五丁目","koaza":"","lat":35.087138,"lng":136.972047,"zip":"4580021"},{"town":"鶴が沢一丁目","koaza":"","lat":35.093023,"lng":137.002532,"zip":"4580814"},{"town":"鶴が沢二丁目","koaza":"","lat":35.090979,"lng":137.006554,"zip":"4580814"},{"town":"鶴が沢三丁目","koaza":"","lat":35.09013,"lng":137.009452,"zip":"4580814"},{"town":"徳重一丁目","koaza":"","lat":35.091346,"lng":136.998965,"zip":"4580815"},{"town":"徳重二丁目","koaza":"","lat":35.089296,"lng":137.000914,"zip":"4580815"},{"town":"徳重三丁目","koaza":"","lat":35.088618,"lng":137.004047,"zip":"4580815"},{"town":"徳重四丁目","koaza":"","lat":35.086387,"lng":137.002355,"zip":"4580815"},{"town":"徳重五丁目","koaza":"","lat":35.089059,"lng":136.995894,"zip":"4580815"},{"town":"鳥澄一丁目","koaza":"","lat":35.079438,"lng":136.975241,"zip":"4580025"},{"town":"鳥澄二丁目","koaza":"","lat":35.077787,"lng":136.973679,"zip":"4580025"},{"town":"鳥澄三丁目","koaza":"","lat":35.075412,"lng":136.975166,"zip":"4580025"},{"town":"長根町","koaza":"","lat":35.096694,"lng":136.961783,"zip":"4580046"},{"town":"鳴丘一丁目","koaza":"","lat":35.093609,"lng":136.989853,"zip":"4580005"},{"town":"鳴丘二丁目","koaza":"","lat":35.090928,"lng":136.988543,"zip":"4580005"},{"town":"鳴丘三丁目","koaza":"","lat":35.089359,"lng":136.985555,"zip":"4580005"},{"town":"鳴子町一丁目","koaza":"","lat":35.097602,"lng":136.964512,"zip":"4580041"},{"town":"鳴子町二丁目","koaza":"","lat":35.099626,"lng":136.965375,"zip":"4580041"},{"town":"鳴子町三丁目","koaza":"","lat":35.099515,"lng":136.969572,"zip":"4580041"},{"town":"鳴子町四丁目","koaza":"","lat":35.096651,"lng":136.969963,"zip":"4580041"},{"town":"鳴子町五丁目","koaza":"","lat":35.098828,"lng":136.973272,"zip":"4580041"},{"town":"鳴海町","koaza":"","lat":35.086478,"lng":136.953366,"zip":"4580845"},{"town":"南陵","koaza":"","lat":35.047411,"lng":136.967565,"zip":"4580918"},{"town":"西神の倉一丁目","koaza":"","lat":35.100726,"lng":137.004003,"zip":"4580809"},{"town":"西神の倉二丁目","koaza":"","lat":35.102465,"lng":137.005486,"zip":"4580809"},{"town":"野末町","koaza":"","lat":35.041814,"lng":136.962517,"zip":"4580915"},{"town":"乗鞍一丁目","koaza":"","lat":35.095033,"lng":136.993238,"zip":"4580004"},{"town":"乗鞍二丁目","koaza":"","lat":35.0932,"lng":136.996806,"zip":"4580004"},{"town":"乗鞍三丁目","koaza":"","lat":35.089388,"lng":136.993312,"zip":"4580004"},{"town":"東神の倉一丁目","koaza":"","lat":35.106086,"lng":137.01478,"zip":"4580808"},{"town":"東神の倉二丁目","koaza":"","lat":35.107543,"lng":137.018978,"zip":"4580808"},{"town":"東神の倉三丁目","koaza":"","lat":35.104367,"lng":137.020186,"zip":"4580808"},{"town":"久方二丁目","koaza":"","lat":35.104313,"lng":136.984453,"zip":"4580012"},{"town":"久方三丁目","koaza":"","lat":35.103431,"lng":136.982869,"zip":"4580012"},{"town":"兵庫一丁目","koaza":"","lat":35.097151,"lng":137.011221,"zip":"4580802"},{"town":"兵庫二丁目","koaza":"","lat":35.095316,"lng":137.014205,"zip":"4580802"},{"town":"平子が丘","koaza":"","lat":35.073723,"lng":136.9645,"zip":"4580826"},{"town":"平手北一丁目","koaza":"","lat":35.084519,"lng":136.98816,"zip":"4580008"},{"town":"平手北二丁目","koaza":"","lat":35.086513,"lng":136.991414,"zip":"4580008"},{"town":"平手南一丁目","koaza":"","lat":35.08332,"lng":136.989129,"zip":"4580009"},{"town":"平手南二丁目","koaza":"","lat":35.085616,"lng":136.993375,"zip":"4580009"},{"town":"藤塚一丁目","koaza":"","lat":35.097413,"lng":137.015044,"zip":"4580813"},{"town":"藤塚二丁目","koaza":"","lat":35.099475,"lng":137.016423,"zip":"4580813"},{"town":"藤塚三丁目","koaza":"","lat":35.095362,"lng":137.01963,"zip":"4580813"},{"town":"文久山","koaza":"","lat":35.054631,"lng":136.960373,"zip":"4598008"},{"town":"細口一丁目","koaza":"","lat":35.086667,"lng":136.986321,"zip":"4580006"},{"town":"細口二丁目","koaza":"","lat":35.087327,"lng":136.988827,"zip":"4580006"},{"town":"細口三丁目","koaza":"","lat":35.088871,"lng":136.988753,"zip":"4580006"},{"town":"ほら貝一丁目","koaza":"","lat":35.100818,"lng":136.979288,"zip":"4580013"},{"town":"ほら貝二丁目","koaza":"","lat":35.101125,"lng":136.98431,"zip":"4580013"},{"town":"ほら貝三丁目","koaza":"","lat":35.0985,"lng":136.982677,"zip":"4580013"},{"town":"松が根台","koaza":"","lat":35.093554,"lng":136.953594,"zip":"4580843"},{"town":"万場山一丁目","koaza":"","lat":35.094379,"lng":136.970431,"zip":"4580043"},{"town":"万場山二丁目","koaza":"","lat":35.091021,"lng":136.970739,"zip":"4580043"},{"town":"水広一丁目","koaza":"","lat":35.082016,"lng":136.993845,"zip":"4580848"},{"town":"水広二丁目","koaza":"","lat":35.078928,"lng":136.996743,"zip":"4580848"},{"town":"水広三丁目","koaza":"","lat":35.077685,"lng":136.994953,"zip":"4580848"},{"town":"桃山一丁目","koaza":"","lat":35.105372,"lng":136.987942,"zip":"4580002"},{"town":"桃山二丁目","koaza":"","lat":35.103405,"lng":136.990922,"zip":"4580002"},{"town":"桃山三丁目","koaza":"","lat":35.099773,"lng":136.989902,"zip":"4580002"},{"town":"桃山四丁目","koaza":"","lat":35.102845,"lng":136.985875,"zip":"4580002"},{"town":"森の里一丁目","koaza":"","lat":35.062286,"lng":136.942071,"zip":"4598002"},{"town":"森の里二丁目","koaza":"","lat":35.061862,"lng":136.93948,"zip":"4598002"},{"town":"諸の木一丁目","koaza":"","lat":35.082297,"lng":137.006709,"zip":"4580817"},{"town":"八つ松一丁目","koaza":"","lat":35.07717,"lng":136.985696,"zip":"4580810"},{"town":"八つ松二丁目","koaza":"","lat":35.076317,"lng":136.984259,"zip":"4580810"},{"town":"横吹町","koaza":"","lat":35.085218,"lng":136.994972,"zip":"4580816"},{"town":"六田一丁目","koaza":"","lat":35.078023,"lng":136.957426,"zip":"4580036"},{"town":"六田二丁目","koaza":"","lat":35.078808,"lng":136.962611,"zip":"4580036"},{"town":"若田一丁目","koaza":"","lat":35.076542,"lng":136.963409,"zip":"4580034"},{"town":"若田二丁目","koaza":"","lat":35.077721,"lng":136.968384,"zip":"4580034"},{"town":"若田三丁目","koaza":"","lat":35.075683,"lng":136.967585,"zip":"4580034"},{"town":"茨谷山","koaza":"","lat":35.050266,"lng":136.943007,"zip":"4598012"},{"town":"清水山二丁目","koaza":"","lat":35.048095,"lng":136.954294,"zip":"4598009"},{"town":"大高町","koaza":"","lat":35.058498,"lng":136.948783,"zip":"4598001"},{"town":"南大高一丁目","koaza":"","lat":35.057544,"lng":136.944237,"zip":"4598016"},{"town":"南大高二丁目","koaza":"","lat":35.053516,"lng":136.947185,"zip":"4598016"},{"town":"高根山一丁目","koaza":"","lat":35.046181,"lng":136.946117,"zip":"4598013"},{"town":"高根山二丁目","koaza":"","lat":35.045663,"lng":136.949604,"zip":"4598013"},{"town":"別所山","koaza":"","lat":35.049059,"lng":136.94556,"zip":"4598015"},{"town":"忠治山","koaza":"","lat":35.049024,"lng":136.949158,"zip":"4598014"},{"town":"南大高三丁目","koaza":"","lat":35.052982,"lng":136.943923,"zip":"4598016"},{"town":"南大高四丁目","koaza":"","lat":35.054999,"lng":136.941111,"zip":"4598016"},{"town":"緑花台","koaza":"","lat":35.058422,"lng":136.962264,"zip":"4598005"},{"town":"武路町","koaza":"","lat":35.059953,"lng":136.972011,"zip":"4580917"},{"town":"桶狭間","koaza":"","lat":35.05178,"lng":136.972318,"zip":"4580925"},{"town":"桶狭間北三丁目","koaza":"","lat":35.054769,"lng":136.971402,"zip":"4580913"},{"town":"有松愛宕","koaza":"","lat":35.060781,"lng":136.964521,"zip":"4580903"},{"town":"桶狭間神明","koaza":"","lat":35.05331,"lng":136.964815,"zip":"4580919"},{"town":"有松町大字桶狭間","koaza":"","lat":35.062877,"lng":136.969654,"zip":"4580000"},{"town":"桶狭間西","koaza":"","lat":35.058241,"lng":136.966012,"zip":"4580929"},{"town":"桶狭間北二丁目","koaza":"","lat":35.057523,"lng":136.971533,"zip":"4580913"},{"town":"桶狭間巻山","koaza":"","lat":35.056021,"lng":136.968394,"zip":"4580920"},{"town":"有松幕山","koaza":"","lat":35.060146,"lng":136.968381,"zip":"4580928"},{"town":"熊の前一丁目","koaza":"","lat":35.097166,"lng":137.004635,"zip":"4580851"},{"town":"熊の前二丁目","koaza":"","lat":35.098658,"lng":137.007449,"zip":"4580851"},{"town":"元徳重一丁目","koaza":"","lat":35.095569,"lng":137.001002,"zip":"4580852"},{"town":"元徳重二丁目","koaza":"","lat":35.097954,"lng":137.002021,"zip":"4580852"},{"town":"諸の木三丁目","koaza":"","lat":35.077218,"lng":137.000956,"zip":"4580817"},{"town":"諸の木二丁目","koaza":"","lat":35.078694,"lng":137.005789,"zip":"4580817"},{"town":"大高町","koaza":"川添","lat":35.067632,"lng":136.914555,"zip":"4598001"},{"town":"大高町","koaza":"杁前","lat":35.064078,"lng":136.915452,"zip":"4598001"},{"town":"大高町","koaza":"三番割","lat":35.063348,"lng":136.917921,"zip":"4598001"},{"town":"大高町","koaza":"一番割","lat":35.068112,"lng":136.917782,"zip":"4598001"},{"town":"大高町","koaza":"二番割","lat":35.064753,"lng":136.91865,"zip":"4598001"},{"town":"大高町","koaza":"己新田","lat":35.067534,"lng":136.922365,"zip":"4598001"},{"town":"大高町","koaza":"寅新田","lat":35.064801,"lng":136.920813,"zip":"4598001"},{"town":"大高町","koaza":"西正地","lat":35.06625,"lng":136.925454,"zip":"4598001"},{"town":"大高町","koaza":"西古根","lat":35.059438,"lng":136.926386,"zip":"4598001"},{"town":"大高町","koaza":"子ノ年","lat":35.064855,"lng":136.926059,"zip":"4598001"},{"town":"大高町","koaza":"砂畑","lat":35.064094,"lng":136.926646,"zip":"4598001"},{"town":"大高町","koaza":"中ノ島","lat":35.06232,"lng":136.925714,"zip":"4598001"},{"town":"大高町","koaza":"丸ノ内","lat":35.068823,"lng":136.927869,"zip":"4598001"},{"town":"大高町","koaza":"追風","lat":35.06334,"lng":136.928147,"zip":"4598001"},{"town":"大高町","koaza":"一色山","lat":35.061499,"lng":136.927246,"zip":"4598001"},{"town":"大高町","koaza":"東正地","lat":35.066693,"lng":136.928337,"zip":"4598001"},{"town":"大高町","koaza":"東古根","lat":35.057149,"lng":136.927759,"zip":"4598001"},{"town":"大高町","koaza":"神戸","lat":35.064025,"lng":136.92875,"zip":"4598001"},{"town":"大高町","koaza":"火上山","lat":35.062347,"lng":136.929225,"zip":"4598001"},{"town":"大高町","koaza":"天楽山","lat":35.058303,"lng":136.928636,"zip":"4598001"},{"town":"大高町","koaza":"折戸","lat":35.066149,"lng":136.93041,"zip":"4598001"},{"town":"大高町","koaza":"西森前","lat":35.064286,"lng":136.929891,"zip":"4598001"},{"town":"大高町","koaza":"儀長","lat":35.065224,"lng":136.931459,"zip":"4598001"},{"town":"大高町","koaza":"定納山","lat":35.05169,"lng":136.930834,"zip":"4598001"},{"town":"大高町","koaza":"中川","lat":35.069454,"lng":136.931729,"zip":"4598001"},{"town":"大高町","koaza":"東森前","lat":35.062722,"lng":136.930667,"zip":"4598001"},{"town":"大高町","koaza":"平野池下","lat":35.061194,"lng":136.931139,"zip":"4598001"},{"town":"大高町","koaza":"平野","lat":35.060602,"lng":136.932209,"zip":"4598001"},{"town":"大高町","koaza":"本銭瓶","lat":35.057916,"lng":136.932227,"zip":"4598001"},{"town":"大高町","koaza":"新町","lat":35.065722,"lng":136.933558,"zip":"4598001"},{"town":"大高町","koaza":"西門田","lat":35.064757,"lng":136.9334,"zip":"4598001"},{"town":"大高町","koaza":"北銭瓶","lat":35.058072,"lng":136.933262,"zip":"4598001"},{"town":"大高町","koaza":"下塩田","lat":35.071155,"lng":136.934927,"zip":"4598001"},{"town":"大高町","koaza":"銭瓶谷","lat":35.055222,"lng":136.93672,"zip":"4598001"},{"town":"大高町","koaza":"高見","lat":35.067163,"lng":136.934516,"zip":"4598001"},{"town":"大高町","koaza":"町屋川","lat":35.068693,"lng":136.936561,"zip":"4598001"},{"town":"大高町","koaza":"鳥戸","lat":35.06965,"lng":136.936416,"zip":"4598001"},{"town":"大高町","koaza":"上塩田","lat":35.071578,"lng":136.937352,"zip":"4598001"},{"town":"大高町","koaza":"江明","lat":35.065468,"lng":136.937017,"zip":"4598001"},{"town":"大高町","koaza":"鶴田","lat":35.067536,"lng":136.939136,"zip":"4598001"},{"town":"鳴海町","koaza":"下汐田","lat":35.073501,"lng":136.93938,"zip":"4580845"},{"town":"大高町","koaza":"北鶴田","lat":35.068261,"lng":136.93792,"zip":"4598001"},{"town":"大高町","koaza":"門田","lat":35.064966,"lng":136.939006,"zip":"4598001"},{"town":"大高町","koaza":"八幡","lat":35.069996,"lng":136.938451,"zip":"4598001"},{"town":"大高町","koaza":"北横峯","lat":35.05932,"lng":136.938686,"zip":"4598001"},{"town":"大高町","koaza":"北大高畑","lat":35.063851,"lng":136.939638,"zip":"4598001"},{"town":"大高町","koaza":"南炭焼","lat":35.053745,"lng":136.938369,"zip":"4598001"},{"town":"大高町","koaza":"天神","lat":35.065568,"lng":136.940781,"zip":"4598001"},{"town":"大高町","koaza":"洞之腰","lat":35.057352,"lng":136.939951,"zip":"4598001"},{"town":"大高町","koaza":"鷲津","lat":35.070968,"lng":136.94118,"zip":"4598001"},{"town":"大高町","koaza":"鷲津山","lat":35.0684,"lng":136.942721,"zip":"4598001"},{"town":"鳴海町","koaza":"前之輪","lat":35.073265,"lng":136.942996,"zip":"4580845"},{"town":"鳴海町","koaza":"中汐田","lat":35.077326,"lng":136.944535,"zip":"4580845"},{"town":"鳴海町","koaza":"上汐田","lat":35.078953,"lng":136.946884,"zip":"4580845"},{"town":"大高町","koaza":"西丸根","lat":35.066209,"lng":136.944865,"zip":"4598001"},{"town":"大高町","koaza":"小坂","lat":35.069872,"lng":136.944065,"zip":"4598001"},{"town":"大高町","koaza":"丸根","lat":35.064642,"lng":136.945684,"zip":"4598001"},{"town":"大高町","koaza":"砦前","lat":35.062725,"lng":136.945124,"zip":"4598001"},{"town":"大高町","koaza":"伊賀殿","lat":35.069925,"lng":136.945878,"zip":"4598001"},{"town":"鳴海町","koaza":"石堀山","lat":35.071906,"lng":136.94575,"zip":"4580845"},{"town":"鳴海町","koaza":"丸内","lat":35.074113,"lng":136.946147,"zip":"4580845"},{"town":"鳴海町","koaza":"京田","lat":35.076126,"lng":136.947239,"zip":"4580845"},{"town":"大高町","koaza":"藤塚","lat":35.060621,"lng":136.946061,"zip":"4598001"},{"town":"大高町","koaza":"亀原","lat":35.067096,"lng":136.946492,"zip":"4598001"},{"town":"鳴海町","koaza":"山腰","lat":35.072458,"lng":136.95063,"zip":"4580845"},{"town":"大高町","koaza":"三凹山","lat":35.06431,"lng":136.948346,"zip":"4598001"},{"town":"鳴海町","koaza":"作町","lat":35.080819,"lng":136.94822,"zip":"4580845"},{"town":"大高町","koaza":"北鎌研","lat":35.060485,"lng":136.948831,"zip":"4598001"},{"town":"鳴海町","koaza":"母呂後","lat":35.074286,"lng":136.950655,"zip":"4580845"},{"town":"鳴海町","koaza":"山下","lat":35.093269,"lng":136.949301,"zip":"4580845"},{"town":"鳴海町","koaza":"向田","lat":35.07777,"lng":136.950661,"zip":"4580845"},{"town":"鳴海町","koaza":"長田","lat":35.100121,"lng":136.950315,"zip":"4580845"},{"town":"鳴海町","koaza":"城","lat":35.081477,"lng":136.950639,"zip":"4580845"},{"town":"鳴海町","koaza":"杜若","lat":35.097766,"lng":136.952734,"zip":"4580845"},{"town":"大高町","koaza":"北関山","lat":35.057984,"lng":136.949891,"zip":"4598001"},{"town":"鳴海町","koaza":"根古屋","lat":35.080235,"lng":136.950029,"zip":"4580845"},{"town":"鳴海町","koaza":"三王山","lat":35.090848,"lng":136.951013,"zip":"4580845"},{"town":"大高町","koaza":"蝮池","lat":35.056891,"lng":136.951201,"zip":"4598001"},{"town":"鳴海町","koaza":"善明寺","lat":35.076258,"lng":136.950749,"zip":"4580845"},{"town":"鳴海町","koaza":"北浦","lat":35.084314,"lng":136.950843,"zip":"4580845"},{"town":"鳴海町","koaza":"丹下","lat":35.086093,"lng":136.950191,"zip":"4580845"},{"town":"鳴海町","koaza":"花井町","lat":35.083491,"lng":136.94998,"zip":"4580845"},{"town":"大高町","koaza":"坊主山","lat":35.054309,"lng":136.952563,"zip":"4598001"},{"town":"鳴海町","koaza":"本町","lat":35.079862,"lng":136.95087,"zip":"4580845"},{"town":"鳴海町","koaza":"森下","lat":35.087214,"lng":136.951869,"zip":"4580845"},{"town":"鳴海町","koaza":"光正寺","lat":35.084731,"lng":136.951527,"zip":"4580845"},{"town":"鳴海町","koaza":"矢切","lat":35.081631,"lng":136.953259,"zip":"4580845"},{"town":"鳴海町","koaza":"諏訪山","lat":35.071794,"lng":136.9527,"zip":"4580845"},{"town":"鳴海町","koaza":"相原町","lat":35.079099,"lng":136.953039,"zip":"4580845"},{"town":"鳴海町","koaza":"上ノ山","lat":35.096526,"lng":136.953493,"zip":"4580845"},{"town":"鳴海町","koaza":"小森","lat":35.101202,"lng":136.952941,"zip":"4580845"},{"town":"大高町","koaza":"猪根","lat":35.059377,"lng":136.952196,"zip":"4598001"},{"town":"鳴海町","koaza":"白山","lat":35.084243,"lng":136.953664,"zip":"4580845"},{"town":"大高町","koaza":"西茶屋","lat":35.045536,"lng":136.952667,"zip":"4598001"},{"town":"鳴海町","koaza":"雷","lat":35.080813,"lng":136.953534,"zip":"4580845"},{"town":"鳴海町","koaza":"薬師山","lat":35.087165,"lng":136.955967,"zip":"4580845"},{"town":"鳴海町","koaza":"三高根","lat":35.089126,"lng":136.954487,"zip":"4580845"},{"town":"鳴海町","koaza":"山ノ神","lat":35.090873,"lng":136.953511,"zip":"4580845"},{"town":"鳴海町","koaza":"乙子山","lat":35.087168,"lng":136.954422,"zip":"4580845"},{"town":"鳴海町","koaza":"下中","lat":35.077019,"lng":136.954094,"zip":"4580845"},{"town":"鳴海町","koaza":"柳長","lat":35.074408,"lng":136.953646,"zip":"4580845"},{"town":"大高町","koaza":"高山","lat":35.064453,"lng":136.95568,"zip":"4598001"},{"town":"鳴海町","koaza":"石畑","lat":35.080648,"lng":136.955366,"zip":"4580845"},{"town":"鳴海町","koaza":"古鳴海","lat":35.099406,"lng":136.955058,"zip":"4580845"},{"town":"鳴海町","koaza":"砦","lat":35.08177,"lng":136.956499,"zip":"4580845"},{"town":"鳴海町","koaza":"文木","lat":35.083512,"lng":136.957269,"zip":"4580845"},{"town":"鳴海町","koaza":"赤塚","lat":35.090235,"lng":136.957752,"zip":"4580845"},{"town":"鳴海町","koaza":"片坂","lat":35.079409,"lng":136.956475,"zip":"4580845"},{"town":"鳴海町","koaza":"嫁ケ茶屋","lat":35.097061,"lng":136.955873,"zip":"4580845"},{"town":"鳴海町","koaza":"小松山","lat":35.094434,"lng":136.95635,"zip":"4580845"},{"town":"大高町","koaza":"殿山","lat":35.057082,"lng":136.956324,"zip":"4598001"},{"town":"鳴海町","koaza":"宿地","lat":35.080459,"lng":136.960102,"zip":"4580845"},{"town":"鳴海町","koaza":"伝治山","lat":35.094907,"lng":136.959909,"zip":"4580845"},{"town":"鳴海町","koaza":"池上","lat":35.090292,"lng":136.961943,"zip":"4580845"},{"town":"大高町","koaza":"平部高根","lat":35.064305,"lng":136.962118,"zip":"4598001"},{"town":"鳴海町","koaza":"早稲屋","lat":35.080602,"lng":136.963174,"zip":"4580845"},{"town":"大高町","koaza":"北平部","lat":35.066841,"lng":136.964863,"zip":"4598001"},{"town":"大高町","koaza":"南平部","lat":35.065612,"lng":136.964255,"zip":"4598001"},{"town":"鳴海町","koaza":"御茶屋","lat":35.072141,"lng":136.968191,"zip":"4580845"},{"town":"鳴海町","koaza":"鎌研","lat":35.069803,"lng":136.966628,"zip":"4580845"},{"town":"有松町大字桶狭間","koaza":"愛宕西","lat":35.060539,"lng":136.966062,"zip":"4580000"},{"town":"鳴海町","koaza":"米塚","lat":35.070139,"lng":136.970099,"zip":"4580845"},{"town":"有松町大字桶狭間","koaza":"高根","lat":35.064553,"lng":136.9702,"zip":"4580000"},{"town":"鳴海町","koaza":"細根","lat":35.072601,"lng":136.971935,"zip":"4580845"},{"town":"鳴海町","koaza":"有松裏","lat":35.068293,"lng":136.975564,"zip":"4580845"},{"town":"有松町大字桶狭間","koaza":"生山","lat":35.062809,"lng":136.972517,"zip":"4580000"},{"town":"鳴海町","koaza":"姥子山","lat":35.07141,"lng":136.9782,"zip":"4580845"},{"town":"鳴海町","koaza":"尾崎山","lat":35.073539,"lng":136.978914,"zip":"4580845"},{"town":"鳴海町","koaza":"螺貝","lat":35.103014,"lng":136.981438,"zip":"4580845"},{"town":"鳴海町","koaza":"水広下","lat":35.080336,"lng":136.998889,"zip":"4580845"},{"town":"鳴海町","koaza":"大清水","lat":35.078127,"lng":137.001375,"zip":"4580845"},{"town":"鳴海町","koaza":"神ノ倉","lat":35.101345,"lng":137.002195,"zip":"4580845"},{"town":"鳴海町","koaza":"横吹","lat":35.082153,"lng":136.999354,"zip":"4580845"},{"town":"鳴海町","koaza":"諸ノ木","lat":35.079527,"lng":137.005106,"zip":"4580845"},{"town":"鳴海町","koaza":"笹塚","lat":35.086236,"lng":137.009422,"zip":"4580845"},{"town":"鳴海町","koaza":"鏡田","lat":35.090651,"lng":137.013987,"zip":"4580845"},{"town":"大高町","koaza":"斎山","lat":35.060955,"lng":136.923604,"zip":"4598001"},{"town":"大高町","koaza":"取手山","lat":35.060763,"lng":136.925648,"zip":"4598001"},{"town":"大高町","koaza":"元屋敷","lat":35.059656,"lng":136.929154,"zip":"4598001"},{"town":"大高町","koaza":"深谷","lat":35.054926,"lng":136.930848,"zip":"4598001"},{"town":"大高町","koaza":"平野池末","lat":35.057696,"lng":136.930678,"zip":"4598001"},{"town":"大高町","koaza":"南白砂","lat":35.056175,"lng":136.93038,"zip":"4598001"},{"town":"大高町","koaza":"北白砂","lat":35.056527,"lng":136.931859,"zip":"4598001"},{"town":"大高町","koaza":"熊野山","lat":35.059273,"lng":136.932477,"zip":"4598001"},{"town":"大高町","koaza":"馬ノ背","lat":35.059748,"lng":136.933113,"zip":"4598001"},{"town":"大高町","koaza":"常世島","lat":35.062701,"lng":136.929109,"zip":"4598001"},{"town":"大高町","koaza":"小村谷","lat":35.05952,"lng":136.933295,"zip":"4598001"},{"town":"大高町","koaza":"下西峡","lat":35.054363,"lng":136.937486,"zip":"4598001"},{"town":"大高町","koaza":"上瀬木川東","lat":35.059246,"lng":136.942564,"zip":"4598001"},{"town":"大高町","koaza":"北炭焼","lat":35.054962,"lng":136.938841,"zip":"4598001"},{"town":"大高町","koaza":"横峯","lat":35.058817,"lng":136.937311,"zip":"4598001"},{"town":"鳴海町","koaza":"天白","lat":35.094555,"lng":136.947785,"zip":"4580845"},{"town":"鳴海町","koaza":"大根","lat":35.092067,"lng":136.95272,"zip":"4580845"},{"town":"鳴海町","koaza":"片平","lat":35.089136,"lng":136.952182,"zip":"4580845"},{"town":"鳴海町","koaza":"三皿","lat":35.082296,"lng":136.948365,"zip":"4580845"},{"town":"鳴海町","koaza":"会下","lat":35.078476,"lng":136.954858,"zip":"4580845"},{"town":"鳴海町","koaza":"上中町","lat":35.078948,"lng":136.954076,"zip":"4580845"},{"town":"鳴海町","koaza":"手越","lat":35.073667,"lng":136.955783,"zip":"4580845"},{"town":"鳴海町","koaza":"鴻ノ巣","lat":35.069648,"lng":136.957099,"zip":"4580845"},{"town":"鳴海町","koaza":"太鼓田","lat":35.072091,"lng":136.954548,"zip":"4580845"},{"town":"大高町","koaza":"下熊瀬","lat":35.069354,"lng":136.940111,"zip":"4598001"},{"town":"大高町","koaza":"西千正坊","lat":35.068663,"lng":136.933823,"zip":"4598001"},{"town":"大高町","koaza":"三本木","lat":35.0671,"lng":136.932321,"zip":"4598001"},{"town":"大高町","koaza":"土廻間","lat":35.063845,"lng":136.934199,"zip":"4598001"},{"town":"大高町","koaza":"紺屋町","lat":35.065928,"lng":136.9342,"zip":"4598001"},{"town":"大高町","koaza":"石ノ戸","lat":35.068058,"lng":136.93302,"zip":"4598001"},{"town":"大高町","koaza":"城山","lat":35.064499,"lng":136.935728,"zip":"4598001"},{"town":"大高町","koaza":"石神","lat":35.062836,"lng":136.933976,"zip":"4598001"},{"town":"大高町","koaza":"東姥神","lat":35.063097,"lng":136.932881,"zip":"4598001"},{"town":"大高町","koaza":"西姥神","lat":35.062942,"lng":136.931381,"zip":"4598001"},{"town":"大高町","koaza":"釜野","lat":35.0625,"lng":136.935394,"zip":"4598001"},{"town":"大高町","koaza":"向山","lat":35.06355,"lng":136.935399,"zip":"4598001"},{"town":"大高町","koaza":"西向山","lat":35.061869,"lng":136.934356,"zip":"4598001"},{"town":"大高町","koaza":"西大高畑","lat":35.063447,"lng":136.937943,"zip":"4598001"},{"town":"大高町","koaza":"南大高畑","lat":35.062416,"lng":136.936995,"zip":"4598001"},{"town":"大高町","koaza":"小村","lat":35.060811,"lng":136.936934,"zip":"4598001"},{"town":"大高町","koaza":"懸田","lat":35.060738,"lng":136.937888,"zip":"4598001"},{"town":"大高町","koaza":"正光寺峡","lat":35.059676,"lng":136.939397,"zip":"4598001"},{"town":"大高町","koaza":"赤塚","lat":35.058423,"lng":136.938976,"zip":"4598001"},{"town":"大高町","koaza":"上瀬木川西","lat":35.059016,"lng":136.941345,"zip":"4598001"},{"town":"大高町","koaza":"東正光寺","lat":35.059029,"lng":136.941063,"zip":"4598001"},{"town":"鳴海町","koaza":"徳重","lat":35.094785,"lng":137.002386,"zip":"4580845"},{"town":"鳴海町","koaza":"石田","lat":35.088143,"lng":136.949854,"zip":"4580845"},{"town":"大高町","koaza":"東山","lat":35.05748,"lng":136.964075,"zip":"4598001"},{"town":"有松町大字桶狭間","koaza":"権平谷","lat":35.058188,"lng":136.964403,"zip":"4580000"},{"town":"大高町","koaza":"大根山","lat":35.053591,"lng":136.95451,"zip":"4598001"},{"town":"大高町","koaza":"榎峡","lat":35.060959,"lng":136.936958,"zip":"4598001"},{"town":"大高町","koaza":"神宮戸","lat":35.061116,"lng":136.937171,"zip":"4598001"},{"town":"大高町","koaza":"山之田","lat":35.052657,"lng":136.949635,"zip":"4598001"},{"town":"鳴海町","koaza":"大将ヶ根","lat":35.066387,"lng":136.975375,"zip":"4580845"},{"town":"有松町大字有松","koaza":"橋東南","lat":35.064141,"lng":136.972034,"zip":"4580000"},{"town":"有松町大字有松","koaza":"三丁山","lat":35.062735,"lng":136.966905,"zip":"4580000"},{"town":"有松町大字有松","koaza":"往還南","lat":35.064904,"lng":136.96891,"zip":"4580000"},{"town":"有松町大字有松","koaza":"長坂南","lat":35.064581,"lng":136.968194,"zip":"4580000"},{"town":"鳴海町","koaza":"明願","lat":35.073637,"lng":136.969949,"zip":"4580845"},{"town":"大高町","koaza":"中平部","lat":35.066927,"lng":136.965265,"zip":"4598001"},{"town":"大高町","koaza":"大平戸","lat":35.060069,"lng":136.945506,"zip":"4598001"},{"town":"大高町","koaza":"阿原","lat":35.060828,"lng":136.945129,"zip":"4598001"},{"town":"大高町","koaza":"田中","lat":35.063747,"lng":136.937406,"zip":"4598001"},{"town":"大高町","koaza":"上蝮池","lat":35.059181,"lng":136.954335,"zip":"4598001"},{"town":"鳴海町","koaza":"藤川","lat":35.100835,"lng":136.967199,"zip":"4580845"},{"town":"有松町大字桶狭間","koaza":"寺前","lat":35.054379,"lng":136.969485,"zip":"4580000"},{"town":"大高町","koaza":"南鶴田","lat":35.067163,"lng":136.93682,"zip":"4598001"},{"town":"大高町","koaza":"東千正坊","lat":35.06923,"lng":136.933922,"zip":"4598001"},{"town":"大高町","koaza":"本町","lat":35.065383,"lng":136.934415,"zip":"4598001"},{"town":"大高町","koaza":"脇之田","lat":35.063408,"lng":136.939801,"zip":"4598001"},{"town":"大高町","koaza":"上熊瀬","lat":35.071334,"lng":136.940585,"zip":"4598001"},{"town":"大高町","koaza":"中屋敷","lat":35.071316,"lng":136.940204,"zip":"4598001"},{"town":"大高町","koaza":"天神東","lat":35.066176,"lng":136.941957,"zip":"4598001"},{"town":"鳴海町","koaza":"清水寺","lat":35.087765,"lng":136.951195,"zip":"4580845"},{"town":"鳴海町","koaza":"栢ノ木","lat":35.079704,"lng":136.954523,"zip":"4580845"},{"town":"大高町","koaza":"倉坂","lat":35.068067,"lng":136.948566,"zip":"4598001"},{"town":"鳴海町","koaza":"鉾ノ木","lat":35.08978,"lng":136.951026,"zip":"4580845"},{"town":"鳴海町","koaza":"蛸畑","lat":35.07383,"lng":136.970467,"zip":"4580845"},{"town":"鳴海町","koaza":"平部","lat":35.075025,"lng":136.955202,"zip":"4580845"},{"town":"大高町","koaza":"中熊瀬","lat":35.071085,"lng":136.940257,"zip":"4598001"},{"town":"大高町","koaza":"狐山","lat":35.063476,"lng":136.947207,"zip":"4598001"},{"town":"大高町","koaza":"文根山","lat":35.065674,"lng":136.952404,"zip":"4598001"},{"town":"大高町","koaza":"大正木","lat":35.063085,"lng":136.948643,"zip":"4598001"},{"town":"大高町","koaza":"藤岡","lat":35.061763,"lng":136.948105,"zip":"4598001"},{"town":"大高町","koaza":"八洲ケ淵","lat":35.0651,"lng":136.950905,"zip":"4598001"},{"town":"大高町","koaza":"夜寒","lat":35.062314,"lng":136.950627,"zip":"4598001"},{"town":"大高町","koaza":"茶臼山","lat":35.067101,"lng":136.953712,"zip":"4598001"},{"town":"大高町","koaza":"琵琶岬","lat":35.064062,"lng":136.958462,"zip":"4598001"},{"town":"大高町","koaza":"長根","lat":35.061449,"lng":136.959924,"zip":"4598001"},{"town":"大高町","koaza":"西平部山","lat":35.065491,"lng":136.960618,"zip":"4598001"},{"town":"鳴海町","koaza":"左京山","lat":35.070254,"lng":136.958065,"zip":"4580845"},{"town":"大高町","koaza":"北忠治山","lat":35.058434,"lng":136.959389,"zip":"4598001"},{"town":"大高町","koaza":"崙天","lat":35.059387,"lng":136.959812,"zip":"4598001"},{"town":"大高町","koaza":"根土山","lat":35.05857,"lng":136.956693,"zip":"4598001"},{"town":"大高町","koaza":"細根","lat":35.062118,"lng":136.956998,"zip":"4598001"},{"town":"大高町","koaza":"鎌磨","lat":35.059537,"lng":136.949703,"zip":"4598001"},{"town":"大高町","koaza":"中古根","lat":35.060067,"lng":136.925843,"zip":"4598001"},{"town":"大高町","koaza":"平地","lat":35.057267,"lng":136.947192,"zip":"4598001"},{"town":"大高町","koaza":"南関山","lat":35.057527,"lng":136.948267,"zip":"4598001"},{"town":"大高町","koaza":"池之内","lat":35.055668,"lng":136.948673,"zip":"4598001"},{"town":"大高町","koaza":"奥中道","lat":35.054453,"lng":136.95046,"zip":"4598001"},{"town":"鳴海町","koaza":"神沢","lat":35.099254,"lng":136.998181,"zip":"4580845"},{"town":"大高町","koaza":"川原","lat":35.072596,"lng":136.940454,"zip":"4598001"},{"town":"大高町","koaza":"水主ケ池","lat":35.046189,"lng":136.952482,"zip":"4598001"},{"town":"大高町","koaza":"中道","lat":35.056828,"lng":136.949362,"zip":"4598001"},{"town":"大高町","koaza":"粕森谷","lat":35.063336,"lng":136.936264,"zip":"4598001"},{"town":"大高町","koaza":"西正光寺","lat":35.059808,"lng":136.940207,"zip":"4598001"},{"town":"大高町","koaza":"南休","lat":35.055881,"lng":136.93955,"zip":"4598001"},{"town":"大高町","koaza":"柿木峡","lat":35.056571,"lng":136.939696,"zip":"4598001"},{"town":"瀬木南","koaza":"","lat":null,"lng":null,"zip":null}]