[{"town":"葵一丁目","koaza":"","lat":35.170061,"lng":136.921741,"zip":"4600006"},{"town":"葵二丁目","koaza":"","lat":35.170014,"lng":136.925276,"zip":"4600006"},{"town":"葵三丁目","koaza":"","lat":35.169719,"lng":136.926705,"zip":"4600006"},{"town":"伊勢山一丁目","koaza":"","lat":35.150189,"lng":136.901522,"zip":"4600026"},{"town":"伊勢山二丁目","koaza":"","lat":35.148129,"lng":136.901729,"zip":"4600026"},{"town":"大井町","koaza":"","lat":35.150916,"lng":136.906629,"zip":"4600015"},{"town":"大須一丁目","koaza":"","lat":35.160435,"lng":136.895416,"zip":"4600011"},{"town":"大須二丁目","koaza":"","lat":35.15976,"lng":136.90051,"zip":"4600011"},{"town":"大須三丁目","koaza":"","lat":35.160097,"lng":136.903914,"zip":"4600011"},{"town":"大須四丁目","koaza":"","lat":35.159796,"lng":136.907986,"zip":"4600011"},{"town":"金山一丁目","koaza":"","lat":35.144987,"lng":136.90087,"zip":"4600022"},{"town":"金山二丁目","koaza":"","lat":35.145537,"lng":136.904218,"zip":"4600022"},{"town":"金山三丁目","koaza":"","lat":35.145743,"lng":136.90667,"zip":"4600022"},{"town":"金山四丁目","koaza":"","lat":35.143475,"lng":136.904296,"zip":"4600022"},{"town":"金山五丁目","koaza":"","lat":35.145469,"lng":136.909482,"zip":"4600022"},{"town":"金山町一丁目","koaza":"","lat":35.142884,"lng":136.899517,"zip":"4600023"},{"town":"上前津一丁目","koaza":"","lat":35.156184,"lng":136.903893,"zip":"4600013"},{"town":"上前津二丁目","koaza":"","lat":35.155512,"lng":136.907412,"zip":"4600013"},{"town":"栄一丁目","koaza":"","lat":35.165426,"lng":136.894915,"zip":"4600008"},{"town":"栄二丁目","koaza":"","lat":35.165446,"lng":136.900753,"zip":"4600008"},{"town":"栄三丁目","koaza":"","lat":35.165759,"lng":136.905971,"zip":"4600008"},{"town":"栄四丁目","koaza":"","lat":35.167619,"lng":136.911978,"zip":"4600008"},{"town":"栄五丁目","koaza":"","lat":35.163952,"lng":136.912342,"zip":"4600008"},{"town":"三の丸一丁目","koaza":"","lat":35.180335,"lng":136.897277,"zip":"4600001"},{"town":"三の丸二丁目","koaza":"","lat":35.180065,"lng":136.902857,"zip":"4600001"},{"town":"三の丸三丁目","koaza":"","lat":35.180469,"lng":136.907282,"zip":"4600001"},{"town":"三の丸四丁目","koaza":"","lat":35.18425,"lng":136.906495,"zip":"4600001"},{"town":"新栄一丁目","koaza":"","lat":35.165384,"lng":136.917307,"zip":"4600007"},{"town":"新栄二丁目","koaza":"","lat":35.165466,"lng":136.92079,"zip":"4600007"},{"town":"新栄三丁目","koaza":"","lat":35.166536,"lng":136.924403,"zip":"4600007"},{"town":"新栄町一丁目","koaza":"","lat":35.169337,"lng":136.910005,"zip":"4600004"},{"town":"新栄町二丁目","koaza":"","lat":35.169629,"lng":136.911945,"zip":"4600004"},{"town":"新栄町三丁目","koaza":"","lat":35.1696,"lng":136.913655,"zip":"4600004"},{"town":"橘一丁目","koaza":"","lat":35.154202,"lng":136.901868,"zip":"4600016"},{"town":"橘二丁目","koaza":"","lat":35.152065,"lng":136.901359,"zip":"4600016"},{"town":"千代田一丁目","koaza":"","lat":35.160721,"lng":136.912659,"zip":"4600012"},{"town":"千代田二丁目","koaza":"","lat":35.157819,"lng":136.912802,"zip":"4600012"},{"town":"千代田三丁目","koaza":"","lat":35.154554,"lng":136.912986,"zip":"4600012"},{"town":"千代田四丁目","koaza":"","lat":35.151215,"lng":136.911125,"zip":"4600012"},{"town":"千代田五丁目","koaza":"","lat":35.158752,"lng":136.918081,"zip":"4600012"},{"town":"錦一丁目","koaza":"","lat":35.170446,"lng":136.894808,"zip":"4600003"},{"town":"錦二丁目","koaza":"","lat":35.170816,"lng":136.899475,"zip":"4600003"},{"town":"錦三丁目","koaza":"","lat":35.170439,"lng":136.90679,"zip":"4600003"},{"town":"二の丸","koaza":"","lat":35.183855,"lng":136.902701,"zip":"4600032"},{"town":"東桜二丁目","koaza":"","lat":35.169835,"lng":136.917812,"zip":"4600005"},{"town":"富士見町","koaza":"","lat":35.152757,"lng":136.907069,"zip":"4600014"},{"town":"古渡町","koaza":"","lat":35.149219,"lng":136.899056,"zip":"4600025"},{"town":"平和一丁目","koaza":"","lat":35.148389,"lng":136.905088,"zip":"4600021"},{"town":"平和二丁目","koaza":"","lat":35.148468,"lng":136.908357,"zip":"4600021"},{"town":"本丸","koaza":"","lat":35.185008,"lng":136.898947,"zip":"4600031"},{"town":"正木一丁目","koaza":"","lat":35.150683,"lng":136.896011,"zip":"4600024"},{"town":"正木二丁目","koaza":"","lat":35.148926,"lng":136.896216,"zip":"4600024"},{"town":"正木三丁目","koaza":"","lat":35.145562,"lng":136.896853,"zip":"4600024"},{"town":"正木四丁目","koaza":"","lat":35.143709,"lng":136.896551,"zip":"4600024"},{"town":"松原一丁目","koaza":"","lat":35.157984,"lng":136.895665,"zip":"4600017"},{"town":"松原二丁目","koaza":"","lat":35.15561,"lng":136.895889,"zip":"4600017"},{"town":"松原三丁目","koaza":"","lat":35.15313,"lng":136.896152,"zip":"4600017"},{"town":"丸の内一丁目","koaza":"","lat":35.17523,"lng":136.894943,"zip":"4600002"},{"town":"丸の内二丁目","koaza":"","lat":35.176481,"lng":136.898759,"zip":"4600002"},{"town":"丸の内三丁目","koaza":"","lat":35.175844,"lng":136.905037,"zip":"4600002"},{"town":"門前町","koaza":"","lat":35.156975,"lng":136.900329,"zip":"4600018"}]