[{"town":"秋葉一丁目","koaza":"","lat":35.109288,"lng":136.820807,"zip":"4550857"},{"town":"秋葉二丁目","koaza":"","lat":35.106677,"lng":136.820161,"zip":"4550857"},{"town":"秋葉三丁目","koaza":"","lat":35.104606,"lng":136.819828,"zip":"4550857"},{"town":"熱田前新田","koaza":"","lat":35.100251,"lng":136.878571,"zip":"4550035"},{"town":"油屋町一丁目","koaza":"","lat":35.105413,"lng":136.851097,"zip":"4550815"},{"town":"油屋町二丁目","koaza":"","lat":35.103499,"lng":136.8508,"zip":"4550815"},{"town":"油屋町三丁目","koaza":"","lat":35.101621,"lng":136.850521,"zip":"4550815"},{"town":"油屋町四丁目","koaza":"","lat":35.099619,"lng":136.850318,"zip":"4550815"},{"town":"惟信町一丁目","koaza":"","lat":35.107366,"lng":136.844074,"zip":"4550823"},{"town":"惟信町二丁目","koaza":"","lat":35.106257,"lng":136.844219,"zip":"4550823"},{"town":"惟信町三丁目","koaza":"","lat":35.104827,"lng":136.844478,"zip":"4550823"},{"town":"惟信町四丁目","koaza":"","lat":35.103251,"lng":136.84406,"zip":"4550823"},{"town":"惟信町五丁目","koaza":"","lat":35.101575,"lng":136.843792,"zip":"4550823"},{"town":"惟信町六丁目","koaza":"","lat":35.099886,"lng":136.844333,"zip":"4550823"},{"town":"一州町","koaza":"","lat":35.08951,"lng":136.867146,"zip":"4550841"},{"town":"稲永一丁目","koaza":"","lat":35.089795,"lng":136.861187,"zip":"4550842"},{"town":"稲永二丁目","koaza":"","lat":35.085527,"lng":136.864539,"zip":"4550842"},{"town":"稲永三丁目","koaza":"","lat":35.082043,"lng":136.858788,"zip":"4550842"},{"town":"稲永四丁目","koaza":"","lat":35.086569,"lng":136.858097,"zip":"4550842"},{"town":"稲永五丁目","koaza":"","lat":35.086617,"lng":136.855552,"zip":"4550842"},{"town":"稲永新田","koaza":"","lat":35.085323,"lng":136.866487,"zip":"4550000"},{"town":"入場一丁目","koaza":"","lat":35.111873,"lng":136.854208,"zip":"4550803"},{"town":"入場二丁目","koaza":"","lat":35.108302,"lng":136.853603,"zip":"4550803"},{"town":"入場町一丁目","koaza":"","lat":35.113071,"lng":136.857567,"zip":"4550802"},{"town":"入船一丁目","koaza":"","lat":35.092968,"lng":136.885794,"zip":"4550032"},{"town":"入船二丁目","koaza":"","lat":35.093497,"lng":136.880662,"zip":"4550032"},{"town":"いろは町一丁目","koaza":"","lat":35.106504,"lng":136.873331,"zip":"4550052"},{"town":"いろは町二丁目","koaza":"","lat":35.104304,"lng":136.873668,"zip":"4550052"},{"town":"いろは町三丁目","koaza":"","lat":35.102501,"lng":136.873753,"zip":"4550052"},{"town":"いろは町四丁目","koaza":"","lat":35.100533,"lng":136.873733,"zip":"4550052"},{"town":"いろは町五丁目","koaza":"","lat":35.100104,"lng":136.871651,"zip":"4550052"},{"town":"遠若町一丁目","koaza":"","lat":35.098889,"lng":136.865918,"zip":"4550054"},{"town":"遠若町二丁目","koaza":"","lat":35.099615,"lng":136.863577,"zip":"4550054"},{"town":"遠若町三丁目","koaza":"","lat":35.096962,"lng":136.866626,"zip":"4550054"},{"town":"小碓一丁目","koaza":"","lat":35.119495,"lng":136.85355,"zip":"4550801"},{"town":"小碓二丁目","koaza":"","lat":35.11534,"lng":136.854145,"zip":"4550801"},{"town":"小碓三丁目","koaza":"","lat":35.115046,"lng":136.849116,"zip":"4550801"},{"town":"小碓四丁目","koaza":"","lat":35.118592,"lng":136.848617,"zip":"4550801"},{"town":"小碓町","koaza":"","lat":35.115494,"lng":136.837532,"zip":"4550062"},{"town":"大江町","koaza":"","lat":35.088979,"lng":136.895428,"zip":"4550024"},{"town":"大手町一丁目","koaza":"","lat":35.098273,"lng":136.869781,"zip":"4550046"},{"town":"大手町二丁目","koaza":"","lat":35.097496,"lng":136.869431,"zip":"4550046"},{"town":"大手町三丁目","koaza":"","lat":35.096759,"lng":136.869244,"zip":"4550046"},{"town":"大手町四丁目","koaza":"","lat":35.095933,"lng":136.869116,"zip":"4550046"},{"town":"大手町五丁目","koaza":"","lat":35.095081,"lng":136.870003,"zip":"4550046"},{"town":"大手町六丁目","koaza":"","lat":35.09543,"lng":136.867528,"zip":"4550046"},{"town":"大西一丁目","koaza":"","lat":35.108484,"lng":136.815143,"zip":"4550861"},{"town":"大西二丁目","koaza":"","lat":35.109226,"lng":136.811936,"zip":"4550861"},{"town":"大西三丁目","koaza":"","lat":35.104007,"lng":136.814949,"zip":"4550861"},{"town":"小川一丁目","koaza":"","lat":35.09774,"lng":136.817201,"zip":"4550864"},{"town":"小川二丁目","koaza":"","lat":35.092319,"lng":136.815219,"zip":"4550864"},{"town":"小川三丁目","koaza":"","lat":35.095396,"lng":136.811543,"zip":"4550864"},{"town":"小川四丁目","koaza":"","lat":35.097307,"lng":136.806534,"zip":"4550864"},{"town":"金川町","koaza":"","lat":35.110344,"lng":136.879368,"zip":"4550017"},{"town":"金船町一丁目","koaza":"","lat":35.112099,"lng":136.875796,"zip":"4550063"},{"town":"金船町二丁目","koaza":"","lat":35.110351,"lng":136.876015,"zip":"4550063"},{"town":"金船町三丁目","koaza":"","lat":35.109366,"lng":136.876038,"zip":"4550063"},{"town":"金船町四丁目","koaza":"","lat":35.1081,"lng":136.876321,"zip":"4550063"},{"town":"河口町","koaza":"","lat":35.105659,"lng":136.879017,"zip":"4550016"},{"town":"川園一丁目","koaza":"","lat":35.10279,"lng":136.819534,"zip":"4550856"},{"town":"川園二丁目","koaza":"","lat":35.101032,"lng":136.819242,"zip":"4550856"},{"town":"川園三丁目","koaza":"","lat":35.099095,"lng":136.819621,"zip":"4550856"},{"town":"川西通一丁目","koaza":"","lat":35.113686,"lng":136.874169,"zip":"4550073"},{"town":"川西通二丁目","koaza":"","lat":35.113602,"lng":136.872768,"zip":"4550073"},{"town":"川西通三丁目","koaza":"","lat":35.113635,"lng":136.870378,"zip":"4550073"},{"town":"川西通四丁目","koaza":"","lat":35.113864,"lng":136.866606,"zip":"4550073"},{"town":"川西通五丁目","koaza":"","lat":35.113635,"lng":136.861965,"zip":"4550073"},{"town":"川西通六丁目","koaza":"","lat":35.113453,"lng":136.859162,"zip":"4550073"},{"town":"川間町一丁目","koaza":"","lat":35.116083,"lng":136.867945,"zip":"4550076"},{"town":"川間町二丁目","koaza":"","lat":35.116182,"lng":136.866353,"zip":"4550076"},{"town":"川間町三丁目","koaza":"","lat":35.116286,"lng":136.864809,"zip":"4550076"},{"town":"寛政町","koaza":"","lat":35.109309,"lng":136.856218,"zip":"4550066"},{"town":"寛政町一丁目","koaza":"","lat":35.107279,"lng":136.864506,"zip":"4550066"},{"town":"寛政町二丁目","koaza":"","lat":35.106839,"lng":136.863494,"zip":"4550066"},{"town":"寛政町三丁目","koaza":"","lat":35.106526,"lng":136.862573,"zip":"4550066"},{"town":"寛政町四丁目","koaza":"","lat":35.106282,"lng":136.861451,"zip":"4550066"},{"town":"寛政町五丁目","koaza":"","lat":35.105765,"lng":136.860607,"zip":"4550066"},{"town":"寛政町六丁目","koaza":"","lat":35.105383,"lng":136.859235,"zip":"4550066"},{"town":"寛政町七丁目","koaza":"","lat":35.105545,"lng":136.858026,"zip":"4550066"},{"town":"寛政町八丁目","koaza":"","lat":35.106085,"lng":136.857043,"zip":"4550066"},{"town":"寛政町九丁目","koaza":"","lat":35.105841,"lng":136.856189,"zip":"4550066"},{"town":"木場町","koaza":"","lat":35.103907,"lng":136.898925,"zip":"4550021"},{"town":"金城ふ頭一丁目","koaza":"","lat":35.054092,"lng":136.844056,"zip":"4550848"},{"town":"金城ふ頭二丁目","koaza":"","lat":35.04824,"lng":136.843699,"zip":"4550848"},{"town":"金城ふ頭三丁目","koaza":"","lat":35.044564,"lng":136.845165,"zip":"4550848"},{"town":"九番町一丁目","koaza":"","lat":35.117827,"lng":136.884244,"zip":"4550008"},{"town":"九番町二丁目","koaza":"","lat":35.116766,"lng":136.884115,"zip":"4550008"},{"town":"九番町三丁目","koaza":"","lat":35.115985,"lng":136.884409,"zip":"4550008"},{"town":"九番町五丁目","koaza":"","lat":35.114133,"lng":136.883837,"zip":"4550008"},{"town":"港栄一丁目","koaza":"","lat":35.106397,"lng":136.882841,"zip":"4550015"},{"town":"港栄二丁目","koaza":"","lat":35.104244,"lng":136.882528,"zip":"4550015"},{"town":"港栄三丁目","koaza":"","lat":35.103192,"lng":136.881311,"zip":"4550015"},{"town":"港栄四丁目","koaza":"","lat":35.099491,"lng":136.881607,"zip":"4550015"},{"town":"港北町一丁目","koaza":"","lat":35.108481,"lng":136.860994,"zip":"4550067"},{"town":"港北町二丁目","koaza":"","lat":35.108383,"lng":136.859242,"zip":"4550067"},{"town":"港北町三丁目","koaza":"","lat":35.109044,"lng":136.857214,"zip":"4550067"},{"town":"港北町四丁目","koaza":"","lat":35.107068,"lng":136.856951,"zip":"4550067"},{"town":"港明一丁目","koaza":"","lat":35.108838,"lng":136.888451,"zip":"4550018"},{"town":"港明二丁目","koaza":"","lat":35.109599,"lng":136.88337,"zip":"4550018"},{"town":"港陽一丁目","koaza":"","lat":35.102035,"lng":136.888249,"zip":"4550013"},{"town":"港陽二丁目","koaza":"","lat":35.100214,"lng":136.890474,"zip":"4550013"},{"town":"港陽三丁目","koaza":"","lat":35.100629,"lng":136.886911,"zip":"4550013"},{"town":"港楽一丁目","koaza":"","lat":35.105708,"lng":136.886943,"zip":"4550014"},{"town":"港楽二丁目","koaza":"","lat":35.103599,"lng":136.885836,"zip":"4550014"},{"town":"港楽三丁目","koaza":"","lat":35.101178,"lng":136.8846,"zip":"4550014"},{"town":"小賀須一丁目","koaza":"","lat":35.114452,"lng":136.831851,"zip":"4550882"},{"town":"小賀須二丁目","koaza":"","lat":35.112028,"lng":136.832715,"zip":"4550882"},{"town":"小賀須三丁目","koaza":"","lat":35.11193,"lng":136.829376,"zip":"4550882"},{"town":"小賀須四丁目","koaza":"","lat":35.114656,"lng":136.827744,"zip":"4550882"},{"town":"小割通一丁目","koaza":"","lat":35.117365,"lng":136.869113,"zip":"4550077"},{"town":"小割通二丁目","koaza":"","lat":35.11604,"lng":136.869488,"zip":"4550077"},{"town":"小割通三丁目","koaza":"","lat":35.114571,"lng":136.869505,"zip":"4550077"},{"town":"幸町一丁目","koaza":"","lat":35.099266,"lng":136.873877,"zip":"4550041"},{"town":"幸町二丁目","koaza":"","lat":35.098847,"lng":136.873146,"zip":"4550041"},{"town":"幸町三丁目","koaza":"","lat":35.098525,"lng":136.873067,"zip":"4550041"},{"town":"魁町一丁目","koaza":"","lat":35.096882,"lng":136.87308,"zip":"4550043"},{"town":"魁町二丁目","koaza":"","lat":35.096471,"lng":136.873099,"zip":"4550043"},{"town":"魁町三丁目","koaza":"","lat":35.096201,"lng":136.872543,"zip":"4550043"},{"town":"魁町四丁目","koaza":"","lat":35.095746,"lng":136.872217,"zip":"4550043"},{"town":"作倉町","koaza":"","lat":35.101675,"lng":136.892984,"zip":"4550012"},{"town":"佐野町一丁目","koaza":"","lat":35.098215,"lng":136.873078,"zip":"4550042"},{"town":"佐野町二丁目","koaza":"","lat":35.097842,"lng":136.872745,"zip":"4550042"},{"town":"佐野町三丁目","koaza":"","lat":35.097526,"lng":136.873086,"zip":"4550042"},{"town":"佐野町四丁目","koaza":"","lat":35.097197,"lng":136.873076,"zip":"4550042"},{"town":"汐止町","koaza":"","lat":35.071566,"lng":136.851462,"zip":"4550846"},{"town":"潮凪町","koaza":"","lat":35.077386,"lng":136.859437,"zip":"4550844"},{"town":"潮見町","koaza":"","lat":35.060693,"lng":136.873987,"zip":"4550028"},{"town":"七条町二丁目","koaza":"","lat":35.095429,"lng":136.90064,"zip":"4550000"},{"town":"七反野一丁目","koaza":"","lat":35.114199,"lng":136.820122,"zip":"4550884"},{"town":"七反野二丁目","koaza":"","lat":35.111616,"lng":136.819422,"zip":"4550884"},{"town":"七番町一丁目","koaza":"","lat":35.117823,"lng":136.887709,"zip":"4550001"},{"town":"七番町二丁目","koaza":"","lat":35.116722,"lng":136.887608,"zip":"4550001"},{"town":"七番町三丁目","koaza":"","lat":35.11598,"lng":136.887625,"zip":"4550001"},{"town":"七番町四丁目","koaza":"","lat":35.114959,"lng":136.887645,"zip":"4550001"},{"town":"七番町五丁目","koaza":"","lat":35.11406,"lng":136.887574,"zip":"4550001"},{"town":"品川町一丁目","koaza":"","lat":35.103231,"lng":136.864922,"zip":"4550055"},{"town":"品川町二丁目","koaza":"","lat":35.102492,"lng":136.862061,"zip":"4550055"},{"town":"十一屋一丁目","koaza":"","lat":35.096399,"lng":136.863082,"zip":"4550831"},{"town":"十一屋二丁目","koaza":"","lat":35.094554,"lng":136.85872,"zip":"4550831"},{"town":"十一屋三丁目","koaza":"","lat":35.093146,"lng":136.855899,"zip":"4550831"},{"town":"十一屋町","koaza":"","lat":35.09728,"lng":136.848462,"zip":"4550835"},{"town":"正徳町一丁目","koaza":"","lat":35.121207,"lng":136.862618,"zip":"4550075"},{"town":"正徳町二丁目","koaza":"","lat":35.121098,"lng":136.86118,"zip":"4550075"},{"town":"正徳町三丁目","koaza":"","lat":35.12101,"lng":136.860133,"zip":"4550075"},{"town":"正徳町四丁目","koaza":"","lat":35.120981,"lng":136.859082,"zip":"4550075"},{"town":"正徳町五丁目","koaza":"","lat":35.121011,"lng":136.858016,"zip":"4550075"},{"town":"正徳町六丁目","koaza":"","lat":35.120626,"lng":136.856787,"zip":"4550075"},{"town":"正保町一丁目","koaza":"","lat":35.117763,"lng":136.863178,"zip":"4550074"},{"town":"正保町二丁目","koaza":"","lat":35.117836,"lng":136.861994,"zip":"4550074"},{"town":"正保町三丁目","koaza":"","lat":35.117908,"lng":136.860472,"zip":"4550074"},{"town":"正保町四丁目","koaza":"","lat":35.118086,"lng":136.859084,"zip":"4550074"},{"town":"正保町五丁目","koaza":"","lat":35.115159,"lng":136.86344,"zip":"4550074"},{"town":"正保町六丁目","koaza":"","lat":35.115264,"lng":136.862322,"zip":"4550074"},{"town":"正保町七丁目","koaza":"","lat":35.115203,"lng":136.860705,"zip":"4550074"},{"town":"正保町八丁目","koaza":"","lat":35.116462,"lng":136.858093,"zip":"4550074"},{"town":"昭和町","koaza":"","lat":35.080808,"lng":136.897068,"zip":"4550026"},{"town":"新川町一丁目","koaza":"","lat":35.117777,"lng":136.877866,"zip":"4550005"},{"town":"新川町二丁目","koaza":"","lat":35.116298,"lng":136.877884,"zip":"4550005"},{"town":"新川町三丁目","koaza":"","lat":35.114673,"lng":136.877937,"zip":"4550005"},{"town":"新川町四丁目","koaza":"","lat":35.11354,"lng":136.877969,"zip":"4550005"},{"town":"神宮寺一丁目","koaza":"","lat":35.095905,"lng":136.849066,"zip":"4550834"},{"town":"神宮寺二丁目","koaza":"","lat":35.096065,"lng":136.845204,"zip":"4550834"},{"town":"新茶屋一丁目","koaza":"","lat":35.10926,"lng":136.807874,"zip":"4550863"},{"town":"新茶屋二丁目","koaza":"","lat":35.104445,"lng":136.809457,"zip":"4550863"},{"town":"新茶屋三丁目","koaza":"","lat":35.100722,"lng":136.811501,"zip":"4550863"},{"town":"新船町一丁目","koaza":"","lat":35.117747,"lng":136.875912,"zip":"4550071"},{"town":"新船町二丁目","koaza":"","lat":35.116401,"lng":136.875706,"zip":"4550071"},{"town":"新船町三丁目","koaza":"","lat":35.114721,"lng":136.875976,"zip":"4550071"},{"town":"新船町四丁目","koaza":"","lat":35.113527,"lng":136.876004,"zip":"4550071"},{"town":"甚兵衛通一丁目","koaza":"","lat":35.105953,"lng":136.846446,"zip":"4550822"},{"town":"甚兵衛通二丁目","koaza":"","lat":35.103555,"lng":136.846218,"zip":"4550822"},{"town":"甚兵衛通三丁目","koaza":"","lat":35.101604,"lng":136.846044,"zip":"4550822"},{"town":"甚兵衛通四丁目","koaza":"","lat":35.100046,"lng":136.845908,"zip":"4550822"},{"town":"甚兵衛通五丁目","koaza":"","lat":35.098423,"lng":136.846687,"zip":"4550822"},{"town":"砂美町","koaza":"","lat":35.104204,"lng":136.868045,"zip":"4550056"},{"town":"須成町一丁目","koaza":"","lat":35.117533,"lng":136.873757,"zip":"4550072"},{"town":"須成町二丁目","koaza":"","lat":35.115984,"lng":136.873381,"zip":"4550072"},{"town":"須成町三丁目","koaza":"","lat":35.114696,"lng":136.873432,"zip":"4550072"},{"town":"善進町一丁目","koaza":"","lat":35.104775,"lng":136.854733,"zip":"4550811"},{"town":"善進町二丁目","koaza":"","lat":35.105555,"lng":136.854124,"zip":"4550811"},{"town":"善進町三丁目","koaza":"","lat":35.105187,"lng":136.853004,"zip":"4550811"},{"town":"善進町四丁目","koaza":"","lat":35.10403,"lng":136.853701,"zip":"4550811"},{"town":"善進町五丁目","koaza":"","lat":35.103113,"lng":136.852564,"zip":"4550811"},{"town":"善進町八丁目","koaza":"","lat":35.098122,"lng":136.849658,"zip":"4550811"},{"town":"善進本町","koaza":"","lat":35.100824,"lng":136.855972,"zip":"4550813"},{"town":"船頭場一丁目","koaza":"","lat":35.119346,"lng":136.829784,"zip":"4550881"},{"town":"船頭場二丁目","koaza":"","lat":35.118169,"lng":136.831115,"zip":"4550881"},{"town":"船頭場三丁目","koaza":"","lat":35.116332,"lng":136.832548,"zip":"4550881"},{"town":"船頭場四丁目","koaza":"","lat":35.115577,"lng":136.830606,"zip":"4550881"},{"town":"船頭場五丁目","koaza":"","lat":35.116844,"lng":136.827187,"zip":"4550881"},{"town":"善南町","koaza":"","lat":35.098163,"lng":136.852041,"zip":"4550814"},{"town":"善北町","koaza":"","lat":35.104093,"lng":136.855984,"zip":"4550812"},{"town":"空見町","koaza":"","lat":35.063318,"lng":136.85217,"zip":"4550847"},{"town":"泰明町一丁目","koaza":"","lat":35.111266,"lng":136.867031,"zip":"4550069"},{"town":"泰明町二丁目","koaza":"","lat":35.112367,"lng":136.863323,"zip":"4550069"},{"town":"泰明町三丁目","koaza":"","lat":35.109572,"lng":136.863165,"zip":"4550069"},{"town":"高木町一丁目","koaza":"","lat":35.105702,"lng":136.848435,"zip":"4550821"},{"town":"高木町二丁目","koaza":"","lat":35.103581,"lng":136.848069,"zip":"4550821"},{"town":"高木町三丁目","koaza":"","lat":35.101822,"lng":136.847995,"zip":"4550821"},{"town":"高木町四丁目","koaza":"","lat":35.09994,"lng":136.848173,"zip":"4550821"},{"town":"高木町五丁目","koaza":"","lat":35.09842,"lng":136.84807,"zip":"4550821"},{"town":"多加良浦町一丁目","koaza":"","lat":35.10771,"lng":136.840325,"zip":"4550825"},{"town":"多加良浦町二丁目","koaza":"","lat":35.105481,"lng":136.840563,"zip":"4550825"},{"town":"多加良浦町三丁目","koaza":"","lat":35.103235,"lng":136.841055,"zip":"4550825"},{"town":"多加良浦町四丁目","koaza":"","lat":35.100616,"lng":136.841898,"zip":"4550825"},{"town":"多加良浦町五丁目","koaza":"","lat":35.099321,"lng":136.8432,"zip":"4550825"},{"town":"辰巳町","koaza":"","lat":35.111963,"lng":136.890046,"zip":"4550003"},{"town":"築盛町","koaza":"","lat":35.104475,"lng":136.871302,"zip":"4550057"},{"town":"知多一丁目","koaza":"","lat":35.114046,"lng":136.824332,"zip":"4550883"},{"town":"知多二丁目","koaza":"","lat":35.111734,"lng":136.823869,"zip":"4550883"},{"town":"知多三丁目","koaza":"","lat":35.111457,"lng":136.827024,"zip":"4550883"},{"town":"千年二丁目","koaza":"","lat":35.112515,"lng":136.898245,"zip":"4550011"},{"town":"千年三丁目","koaza":"","lat":35.107927,"lng":136.894895,"zip":"4550011"},{"town":"千鳥一丁目","koaza":"","lat":35.097725,"lng":136.889276,"zip":"4550031"},{"town":"千鳥二丁目","koaza":"","lat":35.095245,"lng":136.888244,"zip":"4550031"},{"town":"津金一丁目","koaza":"","lat":35.112704,"lng":136.884151,"zip":"4550004"},{"town":"津金二丁目","koaza":"","lat":35.112635,"lng":136.87992,"zip":"4550004"},{"town":"築三町一丁目","koaza":"","lat":35.095201,"lng":136.875539,"zip":"4550044"},{"town":"築三町二丁目","koaza":"","lat":35.094314,"lng":136.873339,"zip":"4550044"},{"town":"築三町三丁目","koaza":"","lat":35.093125,"lng":136.87053,"zip":"4550044"},{"town":"築地町","koaza":"","lat":35.090642,"lng":136.872756,"zip":"4550045"},{"town":"寺前町","koaza":"","lat":35.113295,"lng":136.80054,"zip":"4550875"},{"town":"天目町","koaza":"","lat":35.098714,"lng":136.801194,"zip":"4550865"},{"town":"東海通三丁目","koaza":"","lat":35.113417,"lng":136.887524,"zip":"4550002"},{"town":"東海通四丁目","koaza":"","lat":35.113518,"lng":136.88342,"zip":"4550002"},{"town":"東海通五丁目","koaza":"","lat":35.113627,"lng":136.88042,"zip":"4550002"},{"town":"当知一丁目","koaza":"","lat":35.112211,"lng":136.849111,"zip":"4550804"},{"town":"当知二丁目","koaza":"","lat":35.108333,"lng":136.849004,"zip":"4550804"},{"town":"当知三丁目","koaza":"","lat":35.11055,"lng":136.844415,"zip":"4550804"},{"town":"当知四丁目","koaza":"","lat":35.111078,"lng":136.840943,"zip":"4550804"},{"town":"当知町","koaza":"","lat":35.099155,"lng":136.840606,"zip":"4550805"},{"town":"当知町六丁目","koaza":"","lat":35.11428,"lng":136.837774,"zip":"4550805"},{"town":"当知町七丁目","koaza":"","lat":35.112238,"lng":136.838658,"zip":"4550805"},{"town":"当知町八丁目","koaza":"","lat":35.110467,"lng":136.839151,"zip":"4550805"},{"town":"土古町一丁目","koaza":"","lat":35.112747,"lng":136.861151,"zip":"4550068"},{"town":"土古町二丁目","koaza":"","lat":35.110909,"lng":136.860955,"zip":"4550068"},{"town":"土古町三丁目","koaza":"","lat":35.112764,"lng":136.858666,"zip":"4550068"},{"town":"土古町四丁目","koaza":"","lat":35.110983,"lng":136.858179,"zip":"4550068"},{"town":"中川本町一丁目","koaza":"","lat":35.107033,"lng":136.876144,"zip":"4550051"},{"town":"中川本町二丁目","koaza":"","lat":35.105982,"lng":136.876182,"zip":"4550051"},{"town":"中川本町三丁目","koaza":"","lat":35.104442,"lng":136.876221,"zip":"4550051"},{"town":"中川本町四丁目","koaza":"","lat":35.102492,"lng":136.876278,"zip":"4550051"},{"town":"中川本町五丁目","koaza":"","lat":35.100422,"lng":136.87642,"zip":"4550051"},{"town":"中川本町六丁目","koaza":"","lat":35.098561,"lng":136.876063,"zip":"4550051"},{"town":"中川本町七丁目","koaza":"","lat":35.097046,"lng":136.876005,"zip":"4550051"},{"town":"中之島通一丁目","koaza":"","lat":35.09866,"lng":136.870855,"zip":"4550047"},{"town":"中之島通二丁目","koaza":"","lat":35.097904,"lng":136.870915,"zip":"4550047"},{"town":"中之島通三丁目","koaza":"","lat":35.096909,"lng":136.871005,"zip":"4550047"},{"town":"中之島通四丁目","koaza":"","lat":35.095911,"lng":136.871089,"zip":"4550047"},{"town":"七島一丁目","koaza":"","lat":35.104353,"lng":136.833873,"zip":"4550852"},{"town":"七島二丁目","koaza":"","lat":35.099595,"lng":136.833315,"zip":"4550852"},{"town":"南陽町大字茶屋新田","koaza":"","lat":35.105689,"lng":136.816403,"zip":"4550000"},{"town":"南陽町大字七島新田","koaza":"","lat":35.100641,"lng":136.837166,"zip":"4550000"},{"town":"南陽町大字福田","koaza":"","lat":35.116128,"lng":136.833311,"zip":"4550000"},{"town":"南陽町大字藤高新田","koaza":"","lat":35.094233,"lng":136.836968,"zip":"4550000"},{"town":"西蟹田","koaza":"","lat":35.12228,"lng":136.816232,"zip":"4550872"},{"town":"西川町一丁目","koaza":"","lat":35.107978,"lng":136.841519,"zip":"4550824"},{"town":"西川町二丁目","koaza":"","lat":35.107151,"lng":136.841654,"zip":"4550824"},{"town":"西川町三丁目","koaza":"","lat":35.105467,"lng":136.841762,"zip":"4550824"},{"town":"西川町四丁目","koaza":"","lat":35.103264,"lng":136.842206,"zip":"4550824"},{"town":"錦町","koaza":"","lat":35.08653,"lng":136.86104,"zip":"4550843"},{"town":"西倉町","koaza":"","lat":35.095065,"lng":136.878146,"zip":"4550034"},{"town":"西茶屋一丁目","koaza":"","lat":35.107776,"lng":136.825208,"zip":"4550858"},{"town":"西茶屋二丁目","koaza":"","lat":35.103726,"lng":136.824923,"zip":"4550858"},{"town":"西茶屋三丁目","koaza":"","lat":35.100318,"lng":136.824798,"zip":"4550858"},{"town":"西茶屋四丁目","koaza":"","lat":35.098311,"lng":136.825163,"zip":"4550858"},{"town":"西福田一丁目","koaza":"","lat":35.121529,"lng":136.811301,"zip":"4550874"},{"town":"西福田二丁目","koaza":"","lat":35.115446,"lng":136.807702,"zip":"4550874"},{"town":"西福田三丁目","koaza":"","lat":35.112721,"lng":136.808111,"zip":"4550874"},{"town":"西福田四丁目","koaza":"","lat":35.112754,"lng":136.803119,"zip":"4550874"},{"town":"西福田五丁目","koaza":"","lat":35.117977,"lng":136.804706,"zip":"4550874"},{"town":"野跡一丁目","koaza":"","lat":35.081171,"lng":136.85516,"zip":"4550845"},{"town":"野跡二丁目","koaza":"","lat":35.076213,"lng":136.854584,"zip":"4550845"},{"town":"野跡三丁目","koaza":"","lat":35.074607,"lng":136.852902,"zip":"4550845"},{"town":"野跡四丁目","koaza":"","lat":35.075967,"lng":136.850328,"zip":"4550845"},{"town":"野跡五丁目","koaza":"","lat":35.081391,"lng":136.851356,"zip":"4550845"},{"town":"八百島一丁目","koaza":"","lat":35.117708,"lng":136.822176,"zip":"4550885"},{"town":"八百島二丁目","koaza":"","lat":35.117532,"lng":136.819634,"zip":"4550885"},{"town":"浜一丁目","koaza":"","lat":35.09776,"lng":136.881341,"zip":"4550036"},{"town":"浜二丁目","koaza":"","lat":35.095818,"lng":136.880997,"zip":"4550036"},{"town":"春田野一丁目","koaza":"","lat":35.117992,"lng":136.813905,"zip":"4550873"},{"town":"春田野二丁目","koaza":"","lat":35.114435,"lng":136.813677,"zip":"4550873"},{"town":"春田野三丁目","koaza":"","lat":35.111745,"lng":136.814107,"zip":"4550873"},{"town":"東蟹田","koaza":"","lat":35.122291,"lng":136.820287,"zip":"4550886"},{"town":"東茶屋一丁目","koaza":"","lat":35.108749,"lng":136.830492,"zip":"4550851"},{"town":"東茶屋二丁目","koaza":"","lat":35.106073,"lng":136.830351,"zip":"4550851"},{"town":"東茶屋三丁目","koaza":"","lat":35.103457,"lng":136.829693,"zip":"4550851"},{"town":"東茶屋四丁目","koaza":"","lat":35.099129,"lng":136.829209,"zip":"4550851"},{"town":"東築地町","koaza":"","lat":35.095011,"lng":136.893259,"zip":"4550023"},{"town":"東土古町一丁目","koaza":"","lat":35.112923,"lng":136.871754,"zip":"4550061"},{"town":"東土古町二丁目","koaza":"","lat":35.111294,"lng":136.871179,"zip":"4550061"},{"town":"福田一丁目","koaza":"","lat":35.117566,"lng":136.824499,"zip":"4550887"},{"town":"福田二丁目","koaza":"","lat":35.115489,"lng":136.824391,"zip":"4550887"},{"town":"福屋一丁目","koaza":"","lat":35.11999,"lng":136.800809,"zip":"4550876"},{"town":"藤高一丁目","koaza":"","lat":35.096933,"lng":136.834218,"zip":"4550854"},{"town":"藤高二丁目","koaza":"","lat":35.091797,"lng":136.834798,"zip":"4550854"},{"town":"藤高三丁目","koaza":"","lat":35.093897,"lng":136.829845,"zip":"4550854"},{"town":"藤高四丁目","koaza":"","lat":35.093546,"lng":136.825292,"zip":"4550854"},{"town":"藤高五丁目","koaza":"","lat":35.095419,"lng":136.820947,"zip":"4550854"},{"town":"藤前一丁目","koaza":"","lat":35.087751,"lng":136.836561,"zip":"4550855"},{"town":"藤前二丁目","koaza":"","lat":35.083652,"lng":136.836527,"zip":"4550855"},{"town":"藤前三丁目","koaza":"","lat":35.084,"lng":136.830337,"zip":"4550855"},{"town":"藤前四丁目","koaza":"","lat":35.087873,"lng":136.829593,"zip":"4550855"},{"town":"藤前五丁目","koaza":"","lat":35.087706,"lng":136.824178,"zip":"4550855"},{"town":"船見町","koaza":"","lat":35.072043,"lng":136.895834,"zip":"4550027"},{"town":"宝神一丁目","koaza":"","lat":35.09434,"lng":136.851188,"zip":"4550832"},{"town":"宝神二丁目","koaza":"","lat":35.091214,"lng":136.852437,"zip":"4550832"},{"town":"宝神三丁目","koaza":"","lat":35.088016,"lng":136.853913,"zip":"4550832"},{"town":"宝神四丁目","koaza":"","lat":35.086636,"lng":136.849685,"zip":"4550832"},{"town":"宝神五丁目","koaza":"","lat":35.091071,"lng":136.846865,"zip":"4550832"},{"town":"宝神町","koaza":"","lat":35.09637,"lng":136.843086,"zip":"4550833"},{"town":"本宮新町","koaza":"","lat":35.107487,"lng":136.867617,"zip":"4550065"},{"town":"本宮町一丁目","koaza":"","lat":35.112029,"lng":136.873925,"zip":"4550064"},{"town":"本宮町二丁目","koaza":"","lat":35.109342,"lng":136.873336,"zip":"4550064"},{"town":"本宮町三丁目","koaza":"","lat":35.110085,"lng":136.871385,"zip":"4550064"},{"town":"本宮町四丁目","koaza":"","lat":35.109833,"lng":136.86975,"zip":"4550064"},{"town":"本宮町五丁目","koaza":"","lat":35.109364,"lng":136.868033,"zip":"4550064"},{"town":"本宮町六丁目","koaza":"","lat":35.10882,"lng":136.865988,"zip":"4550064"},{"town":"本宮町七丁目","koaza":"","lat":35.108764,"lng":136.86806,"zip":"4550064"},{"town":"本宮町八丁目","koaza":"","lat":35.10857,"lng":136.870951,"zip":"4550064"},{"town":"丸池町一丁目","koaza":"","lat":35.117482,"lng":136.871105,"zip":"4550078"},{"town":"丸池町二丁目","koaza":"","lat":35.115944,"lng":136.871046,"zip":"4550078"},{"town":"丸池町三丁目","koaza":"","lat":35.114646,"lng":136.871087,"zip":"4550078"},{"town":"港町","koaza":"","lat":35.090505,"lng":136.884416,"zip":"4550033"},{"town":"南十一番町一丁目","koaza":"","lat":35.117822,"lng":136.879892,"zip":"4550006"},{"town":"南十一番町二丁目","koaza":"","lat":35.116756,"lng":136.879917,"zip":"4550006"},{"town":"南十一番町三丁目","koaza":"","lat":35.115904,"lng":136.879928,"zip":"4550006"},{"town":"南十一番町四丁目","koaza":"","lat":35.114993,"lng":136.87994,"zip":"4550006"},{"town":"南十一番町五丁目","koaza":"","lat":35.114118,"lng":136.879872,"zip":"4550006"},{"town":"南十番町一丁目","koaza":"","lat":35.117826,"lng":136.881821,"zip":"4550007"},{"town":"南十番町二丁目","koaza":"","lat":35.116767,"lng":136.881797,"zip":"4550007"},{"town":"南十番町三丁目","koaza":"","lat":35.115911,"lng":136.881726,"zip":"4550007"},{"town":"名港一丁目","koaza":"","lat":35.098011,"lng":136.884301,"zip":"4550037"},{"town":"名港二丁目","koaza":"","lat":35.095458,"lng":136.883856,"zip":"4550037"},{"town":"名四町","koaza":"","lat":35.099398,"lng":136.868784,"zip":"4550053"},{"town":"明正一丁目","koaza":"","lat":35.116281,"lng":136.844197,"zip":"4550806"},{"town":"明正二丁目","koaza":"","lat":35.115659,"lng":136.840238,"zip":"4550806"},{"town":"本星崎町","koaza":"","lat":35.087056,"lng":136.907416,"zip":"4550025"},{"town":"龍宮町","koaza":"","lat":35.095003,"lng":136.898056,"zip":"4550000"},{"town":"九番町四丁目","koaza":"","lat":35.114969,"lng":136.883985,"zip":"4550008"},{"town":"南十番町四丁目","koaza":"","lat":35.114988,"lng":136.881635,"zip":"4550007"},{"town":"南十番町五丁目","koaza":"","lat":35.114172,"lng":136.881554,"zip":"4550007"},{"town":"協和一丁目","koaza":"","lat":35.119497,"lng":136.797062,"zip":"4550869"},{"town":"畑中一丁目","koaza":"","lat":35.11924,"lng":136.794059,"zip":"4550879"},{"town":"福屋二丁目","koaza":"","lat":35.116261,"lng":136.801246,"zip":"4550876"},{"town":"協和二丁目","koaza":"","lat":35.11629,"lng":136.797019,"zip":"4550869"},{"town":"畑中二丁目","koaza":"","lat":35.11629,"lng":136.794134,"zip":"4550879"},{"town":"六軒家","koaza":"","lat":35.114059,"lng":136.796344,"zip":"4550877"},{"town":"新茶屋五丁目","koaza":"","lat":35.109486,"lng":136.802253,"zip":"4550863"},{"town":"新茶屋四丁目","koaza":"","lat":35.103263,"lng":136.801617,"zip":"4550863"},{"town":"福前一丁目","koaza":"","lat":35.111463,"lng":136.79585,"zip":"4550878"},{"town":"南陽町大字福田前新田","koaza":"","lat":35.104141,"lng":136.798868,"zip":"4550000"},{"town":"福前二丁目","koaza":"","lat":35.109661,"lng":136.796762,"zip":"4550878"},{"town":"南陽町大字福田前新田","koaza":"ほの割","lat":35.106212,"lng":136.797401,"zip":"4550000"},{"town":"宝神町","koaza":"敷地","lat":35.098129,"lng":136.842427,"zip":"4550833"},{"town":"宝神町","koaza":"操出","lat":35.097266,"lng":136.842319,"zip":"4550833"},{"town":"宝神町","koaza":"西屋敷","lat":35.099034,"lng":136.84193,"zip":"4550833"},{"town":"宝神町","koaza":"い","lat":35.098113,"lng":136.843186,"zip":"4550833"},{"town":"宝神町","koaza":"会所裏","lat":35.096257,"lng":136.842896,"zip":"4550833"},{"town":"宝神町","koaza":"屋敷","lat":35.094064,"lng":136.843572,"zip":"4550833"},{"town":"宝神町","koaza":"元美","lat":35.097657,"lng":136.848174,"zip":"4550833"},{"town":"善進町六丁目","koaza":"","lat":35.100829,"lng":136.851413,"zip":"4550811"}]