[{"town":"朝日町一丁目","koaza":"","lat":35.005016,"lng":136.965326,"zip":"4740024"},{"town":"朝日町二丁目","koaza":"","lat":35.003658,"lng":136.967013,"zip":"4740024"},{"town":"朝日町三丁目","koaza":"","lat":35.007045,"lng":136.967838,"zip":"4740024"},{"town":"朝日町四丁目","koaza":"","lat":35.005727,"lng":136.968666,"zip":"4740024"},{"town":"朝日町五丁目","koaza":"","lat":35.005032,"lng":136.969614,"zip":"4740024"},{"town":"朝日町六丁目","koaza":"","lat":35.002764,"lng":136.97085,"zip":"4740024"},{"town":"馬池町一丁目","koaza":"","lat":34.994057,"lng":136.928683,"zip":"4740045"},{"town":"馬池町二丁目","koaza":"","lat":34.996461,"lng":136.925515,"zip":"4740045"},{"town":"馬池町三丁目","koaza":"","lat":34.993881,"lng":136.92518,"zip":"4740045"},{"town":"馬池町四丁目","koaza":"","lat":34.995232,"lng":136.921218,"zip":"4740045"},{"town":"馬池町五丁目","koaza":"","lat":34.99741,"lng":136.918763,"zip":"4740045"},{"town":"江端町一丁目","koaza":"","lat":35.010842,"lng":136.95916,"zip":"4740035"},{"town":"江端町二丁目","koaza":"","lat":35.013214,"lng":136.955341,"zip":"4740035"},{"town":"江端町三丁目","koaza":"","lat":35.00997,"lng":136.956473,"zip":"4740035"},{"town":"江端町四丁目","koaza":"","lat":35.011374,"lng":136.952432,"zip":"4740035"},{"town":"江端町五丁目","koaza":"","lat":35.008799,"lng":136.953838,"zip":"4740035"},{"town":"江端町六丁目","koaza":"","lat":35.01033,"lng":136.949452,"zip":"4740035"},{"town":"追分町一丁目","koaza":"","lat":35.030214,"lng":136.958178,"zip":"4740027"},{"town":"追分町二丁目","koaza":"","lat":35.028026,"lng":136.958001,"zip":"4740027"},{"town":"追分町三丁目","koaza":"","lat":35.025599,"lng":136.957813,"zip":"4740027"},{"town":"追分町四丁目","koaza":"","lat":35.029461,"lng":136.961355,"zip":"4740027"},{"town":"追分町五丁目","koaza":"","lat":35.025544,"lng":136.96089,"zip":"4740027"},{"town":"追分町六丁目","koaza":"","lat":35.023183,"lng":136.959249,"zip":"4740027"},{"town":"大府町","koaza":"","lat":35.01084,"lng":136.945156,"zip":"4740051"},{"town":"梶田町一丁目","koaza":"","lat":35.041156,"lng":136.964436,"zip":"4740071"},{"town":"梶田町二丁目","koaza":"","lat":35.039555,"lng":136.966018,"zip":"4740071"},{"town":"梶田町三丁目","koaza":"","lat":35.038273,"lng":136.968215,"zip":"4740071"},{"town":"梶田町四丁目","koaza":"","lat":35.035621,"lng":136.969299,"zip":"4740071"},{"town":"梶田町五丁目","koaza":"","lat":35.03604,"lng":136.965595,"zip":"4740071"},{"town":"梶田町六丁目","koaza":"","lat":35.034243,"lng":136.968447,"zip":"4740071"},{"town":"神田町一丁目","koaza":"","lat":35.02815,"lng":136.980784,"zip":"4740003"},{"town":"神田町二丁目","koaza":"","lat":35.028842,"lng":136.983001,"zip":"4740003"},{"town":"神田町三丁目","koaza":"","lat":35.025403,"lng":136.986541,"zip":"4740003"},{"town":"神田町四丁目","koaza":"","lat":35.027448,"lng":136.986786,"zip":"4740003"},{"town":"神田町五丁目","koaza":"","lat":35.029206,"lng":136.986357,"zip":"4740003"},{"town":"神田町六丁目","koaza":"","lat":35.027652,"lng":136.990525,"zip":"4740003"},{"town":"神田町七丁目","koaza":"","lat":35.024174,"lng":136.988976,"zip":"4740003"},{"town":"北崎町一丁目","koaza":"","lat":35.037679,"lng":136.982382,"zip":"4740002"},{"town":"北崎町二丁目","koaza":"","lat":35.034074,"lng":136.981656,"zip":"4740002"},{"town":"北崎町三丁目","koaza":"","lat":35.032762,"lng":136.98381,"zip":"4740002"},{"town":"北崎町四丁目","koaza":"","lat":35.031528,"lng":136.986907,"zip":"4740002"},{"town":"北崎町五丁目","koaza":"","lat":35.035202,"lng":136.985407,"zip":"4740002"},{"town":"北崎町六丁目","koaza":"","lat":35.034172,"lng":136.98968,"zip":"4740002"},{"town":"北崎町七丁目","koaza":"","lat":35.029979,"lng":136.990983,"zip":"4740002"},{"town":"北崎町","koaza":"","lat":35.029484,"lng":136.997205,"zip":"4740002"},{"town":"北山町一丁目","koaza":"","lat":35.032933,"lng":136.966333,"zip":"4740072"},{"town":"北山町二丁目","koaza":"","lat":35.030142,"lng":136.964879,"zip":"4740072"},{"town":"北山町三丁目","koaza":"","lat":35.030694,"lng":136.968958,"zip":"4740072"},{"town":"北山町四丁目","koaza":"","lat":35.02707,"lng":136.969264,"zip":"4740072"},{"town":"共栄町一丁目","koaza":"","lat":35.046028,"lng":136.954996,"zip":"4740074"},{"town":"共栄町二丁目","koaza":"","lat":35.045578,"lng":136.957523,"zip":"4740074"},{"town":"共栄町三丁目","koaza":"","lat":35.043171,"lng":136.954173,"zip":"4740074"},{"town":"共栄町四丁目","koaza":"","lat":35.043022,"lng":136.956681,"zip":"4740074"},{"town":"共栄町五丁目","koaza":"","lat":35.042078,"lng":136.959941,"zip":"4740074"},{"town":"共栄町六丁目","koaza":"","lat":35.040482,"lng":136.959029,"zip":"4740074"},{"town":"共栄町七丁目","koaza":"","lat":35.039738,"lng":136.956209,"zip":"4740074"},{"town":"共栄町八丁目","koaza":"","lat":35.039287,"lng":136.954545,"zip":"4740074"},{"town":"共栄町九丁目","koaza":"","lat":35.036353,"lng":136.955631,"zip":"4740074"},{"town":"共西町一丁目","koaza":"","lat":35.036827,"lng":136.944591,"zip":"4740062"},{"town":"共西町二丁目","koaza":"","lat":35.033956,"lng":136.945892,"zip":"4740062"},{"town":"共西町三丁目","koaza":"","lat":35.032816,"lng":136.947292,"zip":"4740062"},{"town":"共西町四丁目","koaza":"","lat":35.038154,"lng":136.941852,"zip":"4740062"},{"town":"共西町五丁目","koaza":"","lat":35.036035,"lng":136.941719,"zip":"4740062"},{"town":"共西町六丁目","koaza":"","lat":35.033085,"lng":136.943198,"zip":"4740062"},{"town":"共西町七丁目","koaza":"","lat":35.031229,"lng":136.945622,"zip":"4740062"},{"town":"共和町一丁目","koaza":"","lat":35.039485,"lng":136.952024,"zip":"4740061"},{"town":"共和町二丁目","koaza":"","lat":35.035715,"lng":136.95265,"zip":"4740061"},{"town":"共和町三丁目","koaza":"","lat":35.032169,"lng":136.953549,"zip":"4740061"},{"town":"共和町四丁目","koaza":"","lat":35.038983,"lng":136.947139,"zip":"4740061"},{"town":"共和町五丁目","koaza":"","lat":35.034966,"lng":136.949454,"zip":"4740061"},{"town":"共和町六丁目","koaza":"","lat":35.03192,"lng":136.95022,"zip":"4740061"},{"town":"共和町七丁目","koaza":"","lat":35.036788,"lng":136.947299,"zip":"4740061"},{"town":"共和町","koaza":"","lat":35.042774,"lng":136.942519,"zip":"4740061"},{"town":"米田町一丁目","koaza":"","lat":34.989327,"lng":136.929205,"zip":"4740043"},{"town":"米田町二丁目","koaza":"","lat":34.985587,"lng":136.928782,"zip":"4740043"},{"town":"米田町三丁目","koaza":"","lat":34.989587,"lng":136.924637,"zip":"4740043"},{"town":"米田町四丁目","koaza":"","lat":34.985743,"lng":136.924951,"zip":"4740043"},{"town":"米田町五丁目","koaza":"","lat":34.980467,"lng":136.925629,"zip":"4740043"},{"town":"桜木町一丁目","koaza":"","lat":34.990947,"lng":136.920425,"zip":"4740044"},{"town":"桜木町二丁目","koaza":"","lat":34.988825,"lng":136.919975,"zip":"4740044"},{"town":"桜木町三丁目","koaza":"","lat":34.985031,"lng":136.921033,"zip":"4740044"},{"town":"桜木町四丁目","koaza":"","lat":34.984359,"lng":136.918301,"zip":"4740044"},{"town":"桜木町五丁目","koaza":"","lat":34.979967,"lng":136.922181,"zip":"4740044"},{"town":"大東町一丁目","koaza":"","lat":35.008832,"lng":136.971411,"zip":"4740023"},{"town":"大東町二丁目","koaza":"","lat":35.004496,"lng":136.974534,"zip":"4740023"},{"town":"大東町三丁目","koaza":"","lat":35.009079,"lng":136.974916,"zip":"4740023"},{"town":"大東町四丁目","koaza":"","lat":35.005381,"lng":136.977269,"zip":"4740023"},{"town":"大東町五丁目","koaza":"","lat":35.003272,"lng":136.979883,"zip":"4740023"},{"town":"高丘町一丁目","koaza":"","lat":34.994586,"lng":136.935763,"zip":"4740042"},{"town":"高丘町二丁目","koaza":"","lat":34.995104,"lng":136.933084,"zip":"4740042"},{"town":"高丘町三丁目","koaza":"","lat":34.995734,"lng":136.930801,"zip":"4740042"},{"town":"中央町一丁目","koaza":"","lat":35.01597,"lng":136.959166,"zip":"4740025"},{"town":"中央町二丁目","koaza":"","lat":35.012152,"lng":136.960746,"zip":"4740025"},{"town":"中央町三丁目","koaza":"","lat":35.009397,"lng":136.962407,"zip":"4740025"},{"town":"中央町四丁目","koaza":"","lat":35.007454,"lng":136.963959,"zip":"4740025"},{"town":"中央町五丁目","koaza":"","lat":35.012063,"lng":136.962551,"zip":"4740025"},{"town":"中央町六丁目","koaza":"","lat":35.010657,"lng":136.964147,"zip":"4740025"},{"town":"中央町七丁目","koaza":"","lat":35.008987,"lng":136.965821,"zip":"4740025"},{"town":"月見町一丁目","koaza":"","lat":35.00661,"lng":136.961074,"zip":"4740036"},{"town":"月見町二丁目","koaza":"","lat":35.003804,"lng":136.963035,"zip":"4740036"},{"town":"月見町三丁目","koaza":"","lat":35.006343,"lng":136.958062,"zip":"4740036"},{"town":"月見町四丁目","koaza":"","lat":35.004005,"lng":136.959842,"zip":"4740036"},{"town":"月見町五丁目","koaza":"","lat":35.006821,"lng":136.95453,"zip":"4740036"},{"town":"月見町六丁目","koaza":"","lat":35.003669,"lng":136.957029,"zip":"4740036"},{"town":"東新町一丁目","koaza":"","lat":35.036902,"lng":136.959197,"zip":"4740073"},{"town":"東新町二丁目","koaza":"","lat":35.034104,"lng":136.957858,"zip":"4740073"},{"town":"東新町三丁目","koaza":"","lat":35.032277,"lng":136.95822,"zip":"4740073"},{"town":"東新町四丁目","koaza":"","lat":35.038059,"lng":136.962443,"zip":"4740073"},{"town":"東新町五丁目","koaza":"","lat":35.035476,"lng":136.962342,"zip":"4740073"},{"town":"東新町六丁目","koaza":"","lat":35.032825,"lng":136.962904,"zip":"4740073"},{"town":"長草町","koaza":"","lat":35.023419,"lng":136.940474,"zip":"4740052"},{"town":"長根町一丁目","koaza":"","lat":35.027874,"lng":136.964034,"zip":"4740021"},{"town":"長根町二丁目","koaza":"","lat":35.022901,"lng":136.962878,"zip":"4740021"},{"town":"長根町三丁目","koaza":"","lat":35.025438,"lng":136.965573,"zip":"4740021"},{"town":"長根町四丁目","koaza":"","lat":35.024305,"lng":136.967655,"zip":"4740021"},{"town":"長根町五丁目","koaza":"","lat":35.021846,"lng":136.966479,"zip":"4740021"},{"town":"長根町六丁目","koaza":"","lat":35.020161,"lng":136.967021,"zip":"4740021"},{"town":"半月町一丁目","koaza":"","lat":35.006353,"lng":136.941767,"zip":"4740037"},{"town":"半月町二丁目","koaza":"","lat":35.002995,"lng":136.942046,"zip":"4740037"},{"town":"半月町三丁目","koaza":"","lat":34.998555,"lng":136.941042,"zip":"4740037"},{"town":"半月町四丁目","koaza":"","lat":34.996008,"lng":136.940732,"zip":"4740037"},{"town":"柊山町一丁目","koaza":"","lat":35.017576,"lng":136.955946,"zip":"4740053"},{"town":"柊山町二丁目","koaza":"","lat":35.015399,"lng":136.95508,"zip":"4740053"},{"town":"柊山町三丁目","koaza":"","lat":35.019272,"lng":136.950752,"zip":"4740053"},{"town":"柊山町四丁目","koaza":"","lat":35.017153,"lng":136.950519,"zip":"4740053"},{"town":"柊山町五丁目","koaza":"","lat":35.014443,"lng":136.951605,"zip":"4740053"},{"town":"柊山町六丁目","koaza":"","lat":35.018902,"lng":136.94659,"zip":"4740053"},{"town":"柊山町七丁目","koaza":"","lat":35.015891,"lng":136.945889,"zip":"4740053"},{"town":"柊山町八丁目","koaza":"","lat":35.013912,"lng":136.947903,"zip":"4740053"},{"town":"一屋町一丁目","koaza":"","lat":35.027457,"lng":136.955042,"zip":"4740055"},{"town":"一屋町二丁目","koaza":"","lat":35.024004,"lng":136.955256,"zip":"4740055"},{"town":"一屋町三丁目","koaza":"","lat":35.021075,"lng":136.955304,"zip":"4740055"},{"town":"一屋町四丁目","koaza":"","lat":35.027208,"lng":136.953143,"zip":"4740055"},{"town":"一屋町五丁目","koaza":"","lat":35.024409,"lng":136.953089,"zip":"4740055"},{"town":"宮内町一丁目","koaza":"","lat":35.011585,"lng":136.930232,"zip":"4740047"},{"town":"宮内町二丁目","koaza":"","lat":35.009308,"lng":136.931006,"zip":"4740047"},{"town":"宮内町三丁目","koaza":"","lat":35.006987,"lng":136.93114,"zip":"4740047"},{"town":"宮内町四丁目","koaza":"","lat":35.007311,"lng":136.927258,"zip":"4740047"},{"town":"宮内町五丁目","koaza":"","lat":35.011053,"lng":136.924741,"zip":"4740047"},{"town":"宮内町六丁目","koaza":"","lat":35.006972,"lng":136.922633,"zip":"4740047"},{"town":"宮内町七丁目","koaza":"","lat":35.008667,"lng":136.919277,"zip":"4740047"},{"town":"明成町一丁目","koaza":"","lat":35.02972,"lng":136.949144,"zip":"4740056"},{"town":"明成町二丁目","koaza":"","lat":35.027473,"lng":136.949238,"zip":"4740056"},{"town":"明成町三丁目","koaza":"","lat":35.023458,"lng":136.950968,"zip":"4740056"},{"town":"明成町四丁目","koaza":"","lat":35.022497,"lng":136.948956,"zip":"4740056"},{"town":"桃山町一丁目","koaza":"","lat":35.019725,"lng":136.961034,"zip":"4740026"},{"town":"桃山町二丁目","koaza":"","lat":35.016613,"lng":136.961667,"zip":"4740026"},{"town":"桃山町三丁目","koaza":"","lat":35.018238,"lng":136.965836,"zip":"4740026"},{"town":"桃山町四丁目","koaza":"","lat":35.015511,"lng":136.966097,"zip":"4740026"},{"town":"桃山町五丁目","koaza":"","lat":35.012937,"lng":136.965214,"zip":"4740026"},{"town":"森岡町一丁目","koaza":"","lat":35.007551,"lng":136.95043,"zip":"4740038"},{"town":"森岡町二丁目","koaza":"","lat":35.007683,"lng":136.947703,"zip":"4740038"},{"town":"森岡町三丁目","koaza":"","lat":35.007779,"lng":136.943848,"zip":"4740038"},{"town":"森岡町四丁目","koaza":"","lat":35.004444,"lng":136.950763,"zip":"4740038"},{"town":"森岡町五丁目","koaza":"","lat":35.004477,"lng":136.946626,"zip":"4740038"},{"town":"森岡町六丁目","koaza":"","lat":35.002477,"lng":136.946158,"zip":"4740038"},{"town":"横根町","koaza":"","lat":35.023227,"lng":136.975257,"zip":"4740011"},{"town":"吉川町一丁目","koaza":"","lat":35.004084,"lng":136.927212,"zip":"4740046"},{"town":"吉川町二丁目","koaza":"","lat":35.002089,"lng":136.926396,"zip":"4740046"},{"town":"吉川町三丁目","koaza":"","lat":34.999054,"lng":136.927222,"zip":"4740046"},{"town":"吉川町四丁目","koaza":"","lat":35.003449,"lng":136.923738,"zip":"4740046"},{"town":"吉川町五丁目","koaza":"","lat":35.00077,"lng":136.923571,"zip":"4740046"},{"town":"吉川町六丁目","koaza":"","lat":35.003489,"lng":136.919387,"zip":"4740046"},{"town":"吉川町七丁目","koaza":"","lat":35.00043,"lng":136.919977,"zip":"4740046"},{"town":"吉田町一丁目","koaza":"","lat":35.003171,"lng":136.938924,"zip":"4740048"},{"town":"吉田町二丁目","koaza":"","lat":35.000081,"lng":136.937477,"zip":"4740048"},{"town":"吉田町三丁目","koaza":"","lat":35.003783,"lng":136.935365,"zip":"4740048"},{"town":"吉田町四丁目","koaza":"","lat":35.000615,"lng":136.934036,"zip":"4740048"},{"town":"吉田町五丁目","koaza":"","lat":35.004034,"lng":136.931044,"zip":"4740048"},{"town":"吉田町六丁目","koaza":"","lat":35.001441,"lng":136.93027,"zip":"4740048"},{"town":"吉田町","koaza":"","lat":34.989565,"lng":136.93406,"zip":"4740048"},{"town":"若草町一丁目","koaza":"","lat":35.016653,"lng":136.970157,"zip":"4740022"},{"town":"若草町二丁目","koaza":"","lat":35.012578,"lng":136.968439,"zip":"4740022"},{"town":"若草町三丁目","koaza":"","lat":35.010859,"lng":136.969314,"zip":"4740022"},{"town":"若草町四丁目","koaza":"","lat":35.01293,"lng":136.972467,"zip":"4740022"},{"town":"森岡町九丁目","koaza":"","lat":34.998267,"lng":136.946586,"zip":"4740038"},{"town":"森岡町八丁目","koaza":"","lat":35.001472,"lng":136.951393,"zip":"4740038"},{"town":"森岡町七丁目","koaza":"","lat":35.001106,"lng":136.95528,"zip":"4740038"},{"town":"長草町","koaza":"杁口下","lat":35.028925,"lng":136.928712,"zip":"4740052"},{"town":"長草町","koaza":"茶臼","lat":35.031594,"lng":136.928179,"zip":"4740052"},{"town":"共和町","koaza":"上入道","lat":35.044585,"lng":136.931215,"zip":"4740061"},{"town":"共和町","koaza":"児子廻間","lat":35.048327,"lng":136.932097,"zip":"4740061"},{"town":"長草町","koaza":"西忍場","lat":35.033873,"lng":136.932106,"zip":"4740052"},{"town":"吉田町","koaza":"寺下","lat":34.984552,"lng":136.931165,"zip":"4740048"},{"town":"吉田町","koaza":"小藪","lat":34.986226,"lng":136.931376,"zip":"4740048"},{"town":"吉田町","koaza":"上家下","lat":34.987707,"lng":136.93149,"zip":"4740048"},{"town":"長草町","koaza":"石原","lat":35.030613,"lng":136.932674,"zip":"4740052"},{"town":"共和町","koaza":"才田","lat":35.043747,"lng":136.932812,"zip":"4740061"},{"town":"共和町","koaza":"大松","lat":35.03965,"lng":136.933003,"zip":"4740061"},{"town":"長草町","koaza":"大池","lat":35.037403,"lng":136.932775,"zip":"4740052"},{"town":"吉田町","koaza":"家下","lat":34.98836,"lng":136.932565,"zip":"4740048"},{"town":"吉田町","koaza":"毛分田","lat":34.989912,"lng":136.933122,"zip":"4740048"},{"town":"共和町","koaza":"木根","lat":35.039032,"lng":136.934353,"zip":"4740061"},{"town":"長草町","koaza":"西寄合","lat":35.025701,"lng":136.934982,"zip":"4740052"},{"town":"共和町","koaza":"神戸","lat":35.045841,"lng":136.934184,"zip":"4740061"},{"town":"長草町","koaza":"上長口","lat":35.021252,"lng":136.933101,"zip":"4740052"},{"town":"長草町","koaza":"白は下","lat":35.030358,"lng":136.935467,"zip":"4740052"},{"town":"共和町","koaza":"宮前","lat":35.050002,"lng":136.93585,"zip":"4740061"},{"town":"吉田町","koaza":"平地","lat":35.005542,"lng":136.932935,"zip":"4740048"},{"town":"吉田町","koaza":"弥左エ門脇","lat":35.008521,"lng":136.935733,"zip":"4740048"},{"town":"共和町","koaza":"壱ツ田","lat":35.048032,"lng":136.935319,"zip":"4740061"},{"town":"吉田町","koaza":"大高山前","lat":35.007679,"lng":136.933464,"zip":"4740048"},{"town":"長草町","koaza":"笹山","lat":35.035275,"lng":136.93431,"zip":"4740052"},{"town":"長草町","koaza":"立根","lat":35.021389,"lng":136.938519,"zip":"4740052"},{"town":"吉田町","koaza":"大高山西","lat":35.007901,"lng":136.934066,"zip":"4740048"},{"town":"長草町","koaza":"東忍場","lat":35.031626,"lng":136.936729,"zip":"4740052"},{"town":"吉田町","koaza":"東端","lat":34.991772,"lng":136.936978,"zip":"4740048"},{"town":"共和町","koaza":"油田","lat":35.044752,"lng":136.935489,"zip":"4740061"},{"town":"長草町","koaza":"亀池","lat":35.024377,"lng":136.936688,"zip":"4740052"},{"town":"長草町","koaza":"山口","lat":35.011617,"lng":136.940146,"zip":"4740052"},{"town":"共和町","koaza":"鴻ノ巣","lat":35.041398,"lng":136.937629,"zip":"4740061"},{"town":"吉田町","koaza":"半ノ木","lat":35.006168,"lng":136.937064,"zip":"4740048"},{"town":"長草町","koaza":"峯","lat":35.030359,"lng":136.93769,"zip":"4740052"},{"town":"共和町","koaza":"小仏","lat":35.046571,"lng":136.937818,"zip":"4740061"},{"town":"共和町","koaza":"西流レ","lat":35.050086,"lng":136.93806,"zip":"4740061"},{"town":"共和町","koaza":"末広","lat":35.035479,"lng":136.938672,"zip":"4740061"},{"town":"共和町","koaza":"子安","lat":35.052339,"lng":136.937337,"zip":"4740061"},{"town":"長草町","koaza":"螢ケ脇","lat":35.031832,"lng":136.939453,"zip":"4740052"},{"town":"共和町","koaza":"血洗","lat":35.049582,"lng":136.937058,"zip":"4740061"},{"town":"長草町","koaza":"下長口","lat":35.018703,"lng":136.937493,"zip":"4740052"},{"town":"共和町","koaza":"半ノ田","lat":35.045307,"lng":136.938851,"zip":"4740061"},{"town":"長草町","koaza":"新池","lat":35.025229,"lng":136.939101,"zip":"4740052"},{"town":"共和町","koaza":"宮廻間","lat":35.048662,"lng":136.937714,"zip":"4740061"},{"town":"長草町","koaza":"東寄合","lat":35.027278,"lng":136.938418,"zip":"4740052"},{"town":"長草町","koaza":"前田","lat":35.028875,"lng":136.940843,"zip":"4740052"},{"town":"共和町","koaza":"大深田","lat":35.043746,"lng":136.9391,"zip":"4740061"},{"town":"吉田町","koaza":"清水城","lat":35.006398,"lng":136.938604,"zip":"4740048"},{"town":"吉田町","koaza":"六枚畑","lat":35.005905,"lng":136.939877,"zip":"4740048"},{"town":"共和町","koaza":"別岨","lat":35.049735,"lng":136.94151,"zip":"4740061"},{"town":"共和町","koaza":"大廻間","lat":35.047094,"lng":136.939243,"zip":"4740061"},{"town":"吉田町","koaza":"籠染","lat":34.992553,"lng":136.941685,"zip":"4740048"},{"town":"共和町","koaza":"炭焼","lat":35.051731,"lng":136.940284,"zip":"4740061"},{"town":"共和町","koaza":"上徳","lat":35.04367,"lng":136.944406,"zip":"4740061"},{"town":"長草町","koaza":"中屋敷","lat":35.030812,"lng":136.941013,"zip":"4740052"},{"town":"長草町","koaza":"前屋敷","lat":35.029373,"lng":136.940658,"zip":"4740052"},{"town":"共和町","koaza":"奥谷","lat":35.035461,"lng":136.94024,"zip":"4740061"},{"town":"長草町","koaza":"坪井","lat":35.028483,"lng":136.940738,"zip":"4740052"},{"town":"共和町","koaza":"峠","lat":35.033476,"lng":136.941026,"zip":"4740061"},{"town":"共和町","koaza":"荒池","lat":35.040681,"lng":136.944135,"zip":"4740061"},{"town":"長草町","koaza":"道仙","lat":35.015433,"lng":136.941217,"zip":"4740052"},{"town":"長草町","koaza":"墓所根","lat":35.025477,"lng":136.942808,"zip":"4740052"},{"town":"吉田町","koaza":"北熊場","lat":35.007081,"lng":136.940634,"zip":"4740048"},{"town":"長草町","koaza":"ドンド","lat":35.031831,"lng":136.941246,"zip":"4740052"},{"town":"長草町","koaza":"仲良畑","lat":35.026843,"lng":136.942174,"zip":"4740052"},{"town":"共和町","koaza":"新定納","lat":35.032804,"lng":136.941582,"zip":"4740061"},{"town":"長草町","koaza":"田ノ神","lat":35.027827,"lng":136.9426,"zip":"4740052"},{"town":"長草町","koaza":"下北山","lat":35.031815,"lng":136.942317,"zip":"4740052"},{"town":"長草町","koaza":"車池","lat":35.019774,"lng":136.944081,"zip":"4740052"},{"town":"長草町","koaza":"大坂下","lat":35.015378,"lng":136.942604,"zip":"4740052"},{"town":"吉田町","koaza":"律粉","lat":34.994923,"lng":136.942525,"zip":"4740048"},{"town":"長草町","koaza":"本郷","lat":35.028976,"lng":136.943604,"zip":"4740052"},{"town":"長草町","koaza":"前新切","lat":35.022538,"lng":136.944131,"zip":"4740052"},{"town":"大府町","koaza":"ウド","lat":35.011208,"lng":136.945873,"zip":"4740051"},{"town":"長草町","koaza":"火燈","lat":35.024558,"lng":136.943241,"zip":"4740052"},{"town":"長草町","koaza":"向江","lat":35.02544,"lng":136.94371,"zip":"4740052"},{"town":"長草町","koaza":"向江裏","lat":35.0277,"lng":136.943943,"zip":"4740052"},{"town":"長草町","koaza":"後田","lat":35.030393,"lng":136.943373,"zip":"4740052"},{"town":"吉田町","koaza":"正右エ門新田","lat":34.992632,"lng":136.943659,"zip":"4740048"},{"town":"長草町","koaza":"八幡西","lat":35.029267,"lng":136.944377,"zip":"4740052"},{"town":"長草町","koaza":"上田ノ松","lat":35.024602,"lng":136.945138,"zip":"4740052"},{"town":"長草町","koaza":"田面","lat":35.02659,"lng":136.946518,"zip":"4740052"},{"town":"長草町","koaza":"下田ノ松","lat":35.025997,"lng":136.946533,"zip":"4740052"},{"town":"共和町","koaza":"茶屋","lat":35.042411,"lng":136.947506,"zip":"4740061"},{"town":"共和町","koaza":"家後","lat":35.026058,"lng":136.955914,"zip":"4740061"},{"town":"共和町","koaza":"大池下","lat":35.04249,"lng":136.968095,"zip":"4740061"},{"town":"横根町","koaza":"坊主山","lat":35.039422,"lng":136.970418,"zip":"4740011"},{"town":"大府町","koaza":"長根","lat":35.020484,"lng":136.968674,"zip":"4740051"},{"town":"横根町","koaza":"林新田","lat":35.021994,"lng":136.970224,"zip":"4740011"},{"town":"横根町","koaza":"古井戸","lat":35.020464,"lng":136.971073,"zip":"4740011"},{"town":"横根町","koaza":"梶田","lat":35.039191,"lng":136.970326,"zip":"4740011"},{"town":"横根町","koaza":"茨狭間","lat":35.024601,"lng":136.971448,"zip":"4740011"},{"town":"横根町","koaza":"名高山","lat":35.027505,"lng":136.97406,"zip":"4740011"},{"town":"横根町","koaza":"石亀戸","lat":35.03162,"lng":136.970924,"zip":"4740011"},{"town":"横根町","koaza":"箕手","lat":35.03143,"lng":136.976088,"zip":"4740011"},{"town":"横根町","koaza":"狐山","lat":35.018313,"lng":136.974485,"zip":"4740011"},{"town":"北崎町","koaza":"井田","lat":35.042996,"lng":136.975976,"zip":"4740002"},{"town":"大府町","koaza":"峯畑","lat":35.014616,"lng":136.971781,"zip":"4740051"},{"town":"横根町","koaza":"山ノ後","lat":35.01522,"lng":136.973178,"zip":"4740011"},{"town":"北崎町","koaza":"清水ケ根","lat":35.036165,"lng":136.97589,"zip":"4740002"},{"town":"横根町","koaza":"羽根山","lat":35.014004,"lng":136.974439,"zip":"4740011"},{"town":"横根町","koaza":"午池","lat":35.020263,"lng":136.975808,"zip":"4740011"},{"town":"大府町","koaza":"アラタ","lat":35.011122,"lng":136.974471,"zip":"4740051"},{"town":"横根町","koaza":"平子","lat":35.017552,"lng":136.978444,"zip":"4740011"},{"town":"横根町","koaza":"平地","lat":35.013417,"lng":136.978721,"zip":"4740011"},{"town":"横根町","koaza":"砂原","lat":35.007745,"lng":136.979161,"zip":"4740011"},{"town":"横根町","koaza":"池下","lat":35.010978,"lng":136.97862,"zip":"4740011"},{"town":"横根町","koaza":"折戸","lat":35.011517,"lng":136.978573,"zip":"4740011"},{"town":"横根町","koaza":"膝折","lat":35.021271,"lng":136.979239,"zip":"4740011"},{"town":"横根町","koaza":"寺田","lat":35.012763,"lng":136.980002,"zip":"4740011"},{"town":"北崎町","koaza":"福池","lat":35.043873,"lng":136.979469,"zip":"4740002"},{"town":"北崎町","koaza":"峯下","lat":35.0324,"lng":136.979485,"zip":"4740002"},{"town":"北崎町","koaza":"梨ノ木","lat":35.039988,"lng":136.979016,"zip":"4740002"},{"town":"横根町","koaza":"前田","lat":35.015202,"lng":136.981251,"zip":"4740011"},{"town":"横根町","koaza":"中村","lat":35.016622,"lng":136.981656,"zip":"4740011"},{"town":"北崎町","koaza":"名所ケ峯","lat":35.030807,"lng":136.980206,"zip":"4740002"},{"town":"横根町","koaza":"名高","lat":35.020091,"lng":136.981704,"zip":"4740011"},{"town":"横根町","koaza":"浜田","lat":35.005774,"lng":136.980206,"zip":"4740011"},{"town":"横根町","koaza":"山ノ井","lat":35.020387,"lng":136.982614,"zip":"4740011"},{"town":"横根町","koaza":"新江","lat":35.007876,"lng":136.985146,"zip":"4740011"},{"town":"北崎町","koaza":"新田前","lat":35.033422,"lng":136.980669,"zip":"4740002"},{"town":"横根町","koaza":"寺下","lat":35.012821,"lng":136.982117,"zip":"4740011"},{"town":"北崎町","koaza":"西山畑","lat":35.026235,"lng":136.981828,"zip":"4740002"},{"town":"北崎町","koaza":"小山","lat":35.023575,"lng":136.982836,"zip":"4740002"},{"town":"北崎町","koaza":"大根","lat":35.04107,"lng":136.984372,"zip":"4740002"},{"town":"横根町","koaza":"石丸","lat":35.018395,"lng":136.983654,"zip":"4740011"},{"town":"横根町","koaza":"惣作","lat":35.014486,"lng":136.984245,"zip":"4740011"},{"town":"北崎町","koaza":"城畑","lat":35.020746,"lng":136.984255,"zip":"4740002"},{"town":"横根町","koaza":"酉新田","lat":35.012496,"lng":136.984426,"zip":"4740011"},{"town":"北崎町","koaza":"北屋敷","lat":35.023229,"lng":136.98521,"zip":"4740002"},{"town":"横根町","koaza":"家下","lat":35.017647,"lng":136.98398,"zip":"4740011"},{"town":"北崎町","koaza":"西四十八","lat":35.024689,"lng":136.984473,"zip":"4740002"},{"town":"横根町","koaza":"後田","lat":35.018444,"lng":136.98584,"zip":"4740011"},{"town":"横根町","koaza":"子新田","lat":35.010722,"lng":136.985319,"zip":"4740011"},{"town":"北崎町","koaza":"東四十八","lat":35.024053,"lng":136.986108,"zip":"4740002"},{"town":"北崎町","koaza":"南屋敷","lat":35.021118,"lng":136.986978,"zip":"4740002"},{"town":"北崎町","koaza":"内田面","lat":35.022732,"lng":136.98785,"zip":"4740002"},{"town":"横根町","koaza":"大猿尾","lat":35.011709,"lng":136.987334,"zip":"4740011"},{"town":"北崎町","koaza":"神田","lat":35.025341,"lng":136.991663,"zip":"4740002"},{"town":"北崎町","koaza":"道山","lat":35.037378,"lng":136.991109,"zip":"4740002"},{"town":"北崎町","koaza":"西浜田","lat":35.027033,"lng":136.993024,"zip":"4740002"},{"town":"北崎町","koaza":"神明","lat":35.026708,"lng":136.992738,"zip":"4740002"},{"town":"北崎町","koaza":"遠山","lat":35.037422,"lng":136.994984,"zip":"4740002"},{"town":"北崎町","koaza":"駒場","lat":35.032681,"lng":136.99245,"zip":"4740002"},{"town":"北崎町","koaza":"皆瀬","lat":35.02791,"lng":136.993208,"zip":"4740002"},{"town":"北崎町","koaza":"小根下","lat":35.035584,"lng":136.993777,"zip":"4740002"},{"town":"北崎町","koaza":"午原","lat":35.031802,"lng":136.99313,"zip":"4740002"},{"town":"北崎町","koaza":"北田面","lat":35.033893,"lng":136.995753,"zip":"4740002"},{"town":"北崎町","koaza":"森下","lat":35.028234,"lng":136.993661,"zip":"4740002"},{"town":"北崎町","koaza":"東新田","lat":35.024923,"lng":136.995363,"zip":"4740002"},{"town":"北崎町","koaza":"島原","lat":35.03311,"lng":136.995391,"zip":"4740002"},{"town":"北崎町","koaza":"大島","lat":35.035117,"lng":136.995994,"zip":"4740002"},{"town":"北崎町","koaza":"境川","lat":35.026522,"lng":136.999732,"zip":"4740002"},{"town":"北崎町","koaza":"大清水","lat":35.035283,"lng":136.997238,"zip":"4740002"},{"town":"北崎町","koaza":"清水","lat":35.036008,"lng":136.996722,"zip":"4740002"},{"town":"森岡町","koaza":"上荒田","lat":35.008421,"lng":136.939131,"zip":"4740038"}]