[{"town":"相生町","koaza":"","lat":34.954872,"lng":137.086583,"zip":"4460037"},{"town":"赤松町","koaza":"","lat":34.939577,"lng":137.06686,"zip":"4460046"},{"town":"朝日町","koaza":"","lat":34.956934,"lng":137.089748,"zip":"4460031"},{"town":"安城町","koaza":"","lat":34.94256,"lng":137.089745,"zip":"4460026"},{"town":"井杭山町","koaza":"","lat":34.976153,"lng":137.061368,"zip":"4460074"},{"town":"池浦町","koaza":"","lat":34.972721,"lng":137.080956,"zip":"4460066"},{"town":"石井町","koaza":"","lat":34.921018,"lng":137.066496,"zip":"4441201"},{"town":"和泉町","koaza":"","lat":34.921089,"lng":137.053451,"zip":"4441221"},{"town":"今池町","koaza":"","lat":34.97995,"lng":137.09373,"zip":"4460071"},{"town":"今池町一丁目","koaza":"","lat":34.986708,"lng":137.084108,"zip":"4460071"},{"town":"今池町二丁目","koaza":"","lat":34.982424,"lng":137.086305,"zip":"4460071"},{"town":"今池町三丁目","koaza":"","lat":34.978237,"lng":137.084869,"zip":"4460071"},{"town":"今池町四丁目","koaza":"","lat":34.982699,"lng":137.090508,"zip":"4460071"},{"town":"今本町","koaza":"","lat":34.99601,"lng":137.074083,"zip":"4460008"},{"town":"今本町一丁目","koaza":"","lat":34.991128,"lng":137.084153,"zip":"4460008"},{"town":"今本町二丁目","koaza":"","lat":34.99236,"lng":137.081526,"zip":"4460008"},{"town":"今本町三丁目","koaza":"","lat":34.990881,"lng":137.079648,"zip":"4460008"},{"town":"今本町四丁目","koaza":"","lat":34.994424,"lng":137.079597,"zip":"4460008"},{"town":"今本町五丁目","koaza":"","lat":34.992262,"lng":137.07713,"zip":"4460008"},{"town":"今本町七丁目","koaza":"","lat":34.99457,"lng":137.082815,"zip":"4460008"},{"town":"今本町八丁目","koaza":"","lat":34.993371,"lng":137.085927,"zip":"4460008"},{"town":"宇頭茶屋町","koaza":"","lat":34.985058,"lng":137.107197,"zip":"4460005"},{"town":"榎前町","koaza":"","lat":34.932127,"lng":137.042041,"zip":"4441214"},{"town":"大岡町","koaza":"","lat":34.959652,"lng":137.103616,"zip":"4460017"},{"town":"大山町一丁目","koaza":"","lat":34.949852,"lng":137.085455,"zip":"4460042"},{"town":"大山町二丁目","koaza":"","lat":34.947913,"lng":137.08191,"zip":"4460042"},{"town":"小川町","koaza":"","lat":34.908158,"lng":137.087029,"zip":"4441162"},{"town":"尾崎町","koaza":"","lat":34.978658,"lng":137.108996,"zip":"4460004"},{"town":"柿さき町","koaza":"","lat":34.979107,"lng":137.119859,"zip":"4460003"},{"town":"川島町","koaza":"","lat":34.925383,"lng":137.104514,"zip":"4441152"},{"town":"河野町","koaza":"","lat":34.933226,"lng":137.112489,"zip":"4460024"},{"town":"北山崎町","koaza":"","lat":34.967204,"lng":137.103282,"zip":"4460011"},{"town":"木戸町","koaza":"","lat":34.897729,"lng":137.096968,"zip":"4441163"},{"town":"小堤町","koaza":"","lat":34.955241,"lng":137.079796,"zip":"4460036"},{"town":"桜井町","koaza":"","lat":34.923887,"lng":137.08424,"zip":"4441154"},{"town":"桜町","koaza":"","lat":34.960859,"lng":137.078792,"zip":"4460041"},{"town":"篠目町","koaza":"","lat":34.977998,"lng":137.065919,"zip":"4460073"},{"town":"篠目町一丁目","koaza":"","lat":34.977311,"lng":137.071743,"zip":"4460073"},{"town":"篠目町二丁目","koaza":"","lat":34.980497,"lng":137.070808,"zip":"4460073"},{"town":"篠目町三丁目","koaza":"","lat":34.981942,"lng":137.072969,"zip":"4460073"},{"town":"篠目町四丁目","koaza":"","lat":34.980359,"lng":137.074818,"zip":"4460073"},{"town":"里町","koaza":"","lat":34.999937,"lng":137.095614,"zip":"4460001"},{"town":"里町一丁目","koaza":"","lat":34.996166,"lng":137.090985,"zip":"4460001"},{"town":"里町二丁目","koaza":"","lat":34.994253,"lng":137.092009,"zip":"4460001"},{"town":"里町三丁目","koaza":"","lat":34.992859,"lng":137.096066,"zip":"4460001"},{"town":"里町四丁目","koaza":"","lat":34.992048,"lng":137.090945,"zip":"4460001"},{"town":"城ヶ入町","koaza":"","lat":34.904882,"lng":137.049352,"zip":"4460000"},{"town":"上条町","koaza":"","lat":34.951591,"lng":137.103386,"zip":"4460023"},{"town":"城南町一丁目","koaza":"","lat":34.951394,"lng":137.079195,"zip":"4460043"},{"town":"城南町二丁目","koaza":"","lat":34.948223,"lng":137.077506,"zip":"4460043"},{"town":"昭和町","koaza":"","lat":34.963221,"lng":137.08805,"zip":"4460063"},{"town":"寺領町","koaza":"","lat":34.900246,"lng":137.090444,"zip":"4441166"},{"town":"新田町","koaza":"","lat":34.9684,"lng":137.094878,"zip":"4460061"},{"town":"新明町","koaza":"","lat":34.960296,"lng":137.094884,"zip":"4460019"},{"town":"末広町","koaza":"","lat":34.95631,"lng":137.08468,"zip":"4460038"},{"town":"住吉町","koaza":"","lat":34.98005,"lng":137.079157,"zip":"4460072"},{"town":"住吉町一丁目","koaza":"","lat":34.989496,"lng":137.079014,"zip":"4460072"},{"town":"住吉町二丁目","koaza":"","lat":34.986002,"lng":137.079264,"zip":"4460072"},{"town":"住吉町三丁目","koaza":"","lat":34.983355,"lng":137.08156,"zip":"4460072"},{"town":"住吉町五丁目","koaza":"","lat":34.988722,"lng":137.073906,"zip":"4460072"},{"town":"住吉町六丁目","koaza":"","lat":34.987887,"lng":137.078075,"zip":"4460072"},{"town":"住吉町七丁目","koaza":"","lat":34.98505,"lng":137.075953,"zip":"4460072"},{"town":"大東町","koaza":"","lat":34.965345,"lng":137.08091,"zip":"4460065"},{"town":"高木町","koaza":"","lat":34.957065,"lng":137.110823,"zip":"4460015"},{"town":"高棚町","koaza":"","lat":34.946304,"lng":137.025113,"zip":"4460053"},{"town":"東栄町","koaza":"","lat":34.981655,"lng":137.10029,"zip":"4460007"},{"town":"東栄町一丁目","koaza":"","lat":34.988559,"lng":137.083717,"zip":"4460007"},{"town":"東栄町二丁目","koaza":"","lat":34.989721,"lng":137.086284,"zip":"4460007"},{"town":"東栄町三丁目","koaza":"","lat":34.986754,"lng":137.088976,"zip":"4460007"},{"town":"東栄町四丁目","koaza":"","lat":34.989156,"lng":137.091009,"zip":"4460007"},{"town":"東栄町五丁目","koaza":"","lat":34.986174,"lng":137.094988,"zip":"4460007"},{"town":"東栄町六丁目","koaza":"","lat":34.984423,"lng":137.098061,"zip":"4460007"},{"town":"東栄町七丁目","koaza":"","lat":34.983126,"lng":137.100306,"zip":"4460007"},{"town":"東新町","koaza":"","lat":34.957414,"lng":137.096645,"zip":"4460018"},{"town":"東明町","koaza":"","lat":34.951419,"lng":137.095822,"zip":"4460027"},{"town":"錦町","koaza":"","lat":34.953221,"lng":137.084093,"zip":"4460035"},{"town":"西別所町","koaza":"","lat":34.966734,"lng":137.110624,"zip":"4460012"},{"town":"二本木新町","koaza":"","lat":34.979401,"lng":137.059098,"zip":"4460075"},{"town":"二本木新町一丁目","koaza":"","lat":34.978675,"lng":137.054585,"zip":"4460075"},{"town":"二本木新町二丁目","koaza":"","lat":34.975589,"lng":137.057106,"zip":"4460075"},{"town":"二本木新町三丁目","koaza":"","lat":34.972294,"lng":137.059703,"zip":"4460075"},{"town":"二本木町","koaza":"","lat":34.965481,"lng":137.050014,"zip":"4460054"},{"town":"根崎町","koaza":"","lat":34.902945,"lng":137.036885,"zip":"4441211"},{"town":"野寺町","koaza":"","lat":34.900016,"lng":137.082227,"zip":"4441165"},{"town":"橋目町","koaza":"","lat":34.988675,"lng":137.113123,"zip":"4460002"},{"town":"花ノ木町","koaza":"","lat":34.957403,"lng":137.082172,"zip":"4460039"},{"town":"浜富町","koaza":"","lat":34.954442,"lng":137.097253,"zip":"4460022"},{"town":"浜屋町","koaza":"","lat":34.988038,"lng":137.102721,"zip":"4460006"},{"town":"浜屋町南裏一丁目","koaza":"","lat":34.98485,"lng":137.100357,"zip":"4460000"},{"town":"東端町","koaza":"","lat":34.91,"lng":137.025852,"zip":"4441213"},{"town":"東別所町","koaza":"","lat":34.966342,"lng":137.115468,"zip":"4460013"},{"town":"東町","koaza":"","lat":34.917805,"lng":137.09779,"zip":"4441153"},{"town":"日の出町","koaza":"","lat":34.953567,"lng":137.090744,"zip":"4460033"},{"town":"姫小川町","koaza":"","lat":34.914534,"lng":137.087629,"zip":"4441161"},{"town":"百石町一丁目","koaza":"","lat":34.952756,"lng":137.076182,"zip":"4460044"},{"town":"百石町二丁目","koaza":"","lat":34.94859,"lng":137.071357,"zip":"4460044"},{"town":"福釜町","koaza":"","lat":34.946309,"lng":137.051649,"zip":"4460052"},{"town":"藤井町","koaza":"","lat":34.899509,"lng":137.070349,"zip":"4441164"},{"town":"古井町","koaza":"","lat":34.935176,"lng":137.091805,"zip":"4460025"},{"town":"別郷町","koaza":"","lat":34.959763,"lng":137.115065,"zip":"4460014"},{"town":"弁天町","koaza":"","lat":34.966285,"lng":137.090283,"zip":"4460064"},{"town":"法連町","koaza":"","lat":34.955345,"lng":137.093894,"zip":"4460021"},{"town":"堀内町","koaza":"","lat":34.930098,"lng":137.084581,"zip":"4441155"},{"town":"三河安城町一丁目","koaza":"","lat":34.967829,"lng":137.063501,"zip":"4460056"},{"town":"三河安城町二丁目","koaza":"","lat":34.970966,"lng":137.063476,"zip":"4460056"},{"town":"三河安城東町一丁目","koaza":"","lat":34.96423,"lng":137.068082,"zip":"4460057"},{"town":"三河安城東町二丁目","koaza":"","lat":34.966514,"lng":137.06824,"zip":"4460057"},{"town":"三河安城本町一丁目","koaza":"","lat":34.970697,"lng":137.057492,"zip":"4460059"},{"town":"三河安城本町二丁目","koaza":"","lat":34.96743,"lng":137.057419,"zip":"4460059"},{"town":"三河安城南町一丁目","koaza":"","lat":34.966167,"lng":137.060033,"zip":"4460058"},{"town":"三河安城南町二丁目","koaza":"","lat":34.963637,"lng":137.062943,"zip":"4460058"},{"town":"美園町","koaza":"","lat":34.979332,"lng":137.046606,"zip":"4460076"},{"town":"美園町一丁目","koaza":"","lat":34.977424,"lng":137.047224,"zip":"4460076"},{"town":"美園町二丁目","koaza":"","lat":34.975078,"lng":137.052004,"zip":"4460076"},{"town":"緑町一丁目","koaza":"","lat":34.973071,"lng":137.051013,"zip":"4460055"},{"town":"緑町二丁目","koaza":"","lat":34.971202,"lng":137.047337,"zip":"4460055"},{"town":"南町","koaza":"","lat":34.950914,"lng":137.089306,"zip":"4460034"},{"town":"南町四丁目","koaza":"","lat":34.94903,"lng":137.090815,"zip":"4460034"},{"town":"南町五丁目","koaza":"","lat":34.949785,"lng":137.0887,"zip":"4460034"},{"town":"箕輪町","koaza":"","lat":34.958288,"lng":137.055296,"zip":"4460051"},{"town":"御幸本町","koaza":"","lat":34.959217,"lng":137.084872,"zip":"4460032"},{"town":"村高町","koaza":"","lat":34.926241,"lng":137.113226,"zip":"4441151"},{"town":"明治本町","koaza":"","lat":34.960982,"lng":137.090808,"zip":"4460062"},{"town":"山崎町","koaza":"","lat":34.952288,"lng":137.10993,"zip":"4460016"},{"town":"横山町","koaza":"","lat":34.957224,"lng":137.073766,"zip":"4460045"},{"town":"高棚町","koaza":"川東","lat":34.947981,"lng":137.012617,"zip":"4460053"},{"town":"高棚町","koaza":"秋葉堂","lat":34.942994,"lng":137.015783,"zip":"4460053"},{"town":"高棚町","koaza":"中根山","lat":34.935613,"lng":137.014051,"zip":"4460053"},{"town":"高棚町","koaza":"西山","lat":34.948033,"lng":137.016552,"zip":"4460053"},{"town":"高棚町","koaza":"土井ノ内","lat":34.939139,"lng":137.019536,"zip":"4460053"},{"town":"高棚町","koaza":"鮫川","lat":34.933748,"lng":137.018362,"zip":"4460053"},{"town":"東端町","koaza":"江戸坂","lat":34.907125,"lng":137.017725,"zip":"4441213"},{"town":"高棚町","koaza":"広久手","lat":34.951969,"lng":137.021928,"zip":"4460053"},{"town":"東端町","koaza":"西新田","lat":34.901179,"lng":137.017113,"zip":"4441213"},{"town":"東端町","koaza":"天白","lat":34.908739,"lng":137.01959,"zip":"4441213"},{"town":"東端町","koaza":"南山","lat":34.903768,"lng":137.019648,"zip":"4441213"},{"town":"東端町","koaza":"神子塚","lat":34.905577,"lng":137.019444,"zip":"4441213"},{"town":"高棚町","koaza":"申畑","lat":34.947503,"lng":137.020765,"zip":"4460053"},{"town":"東端町","koaza":"切間","lat":34.903822,"lng":137.018854,"zip":"4441213"},{"town":"高棚町","koaza":"中敷","lat":34.940955,"lng":137.020779,"zip":"4460053"},{"town":"東端町","koaza":"道城","lat":34.907186,"lng":137.018403,"zip":"4441213"},{"town":"東端町","koaza":"前新田","lat":34.899055,"lng":137.020507,"zip":"4441213"},{"town":"高棚町","koaza":"三反田","lat":34.934545,"lng":137.020372,"zip":"4460053"},{"town":"東端町","koaza":"山ノ鼻","lat":34.900227,"lng":137.02058,"zip":"4441213"},{"town":"東端町","koaza":"中村","lat":34.902534,"lng":137.021479,"zip":"4441213"},{"town":"東端町","koaza":"寺下","lat":34.910604,"lng":137.02154,"zip":"4441213"},{"town":"東端町","koaza":"貝戸","lat":34.905518,"lng":137.020718,"zip":"4441213"},{"town":"高棚町","koaza":"下手","lat":34.944472,"lng":137.021509,"zip":"4460053"},{"town":"東端町","koaza":"主木","lat":34.907875,"lng":137.023003,"zip":"4441213"},{"town":"東端町","koaza":"新井","lat":34.904738,"lng":137.022967,"zip":"4441213"},{"town":"高棚町","koaza":"郷","lat":34.942665,"lng":137.024258,"zip":"4460053"},{"town":"高棚町","koaza":"上荒井","lat":34.947463,"lng":137.025083,"zip":"4460053"},{"town":"東端町","koaza":"八剱","lat":34.91076,"lng":137.024474,"zip":"4441213"},{"town":"東端町","koaza":"中縄手","lat":34.901864,"lng":137.023032,"zip":"4441213"},{"town":"高棚町","koaza":"井荒井","lat":34.937358,"lng":137.024631,"zip":"4460053"},{"town":"東端町","koaza":"南新田","lat":34.89586,"lng":137.024292,"zip":"4441213"},{"town":"東端町","koaza":"里","lat":34.907054,"lng":137.02364,"zip":"4441213"},{"town":"高棚町","koaza":"新道","lat":34.958366,"lng":137.029209,"zip":"4460053"},{"town":"東端町","koaza":"祈祷","lat":34.908312,"lng":137.02488,"zip":"4441213"},{"town":"高棚町","koaza":"蛭田","lat":34.94496,"lng":137.02729,"zip":"4460053"},{"town":"東端町","koaza":"中根山","lat":34.903065,"lng":137.024944,"zip":"4441213"},{"town":"東端町","koaza":"殿町","lat":34.89956,"lng":137.024328,"zip":"4441213"},{"town":"東端町","koaza":"山ノ神","lat":34.908452,"lng":137.027324,"zip":"4441213"},{"town":"東端町","koaza":"住吉","lat":34.90653,"lng":137.02477,"zip":"4441213"},{"town":"東端町","koaza":"鐘鋳場","lat":34.9048,"lng":137.026205,"zip":"4441213"},{"town":"東端町","koaza":"向山","lat":34.901026,"lng":137.02631,"zip":"4441213"},{"town":"根崎町","koaza":"南境目","lat":34.892374,"lng":137.026817,"zip":"4441211"},{"town":"東端町","koaza":"明祥南","lat":34.911657,"lng":137.030699,"zip":"4441213"},{"town":"東端町","koaza":"新稲荷","lat":34.910245,"lng":137.029213,"zip":"4441213"},{"town":"高棚町","koaza":"東山","lat":34.93846,"lng":137.029575,"zip":"4460053"},{"town":"東端町","koaza":"稲荷","lat":34.910356,"lng":137.026619,"zip":"4441213"},{"town":"高棚町","koaza":"中島","lat":34.942173,"lng":137.029158,"zip":"4460053"},{"town":"根崎町","koaza":"西根","lat":34.899433,"lng":137.030855,"zip":"4441211"},{"town":"東端町","koaza":"鴻ノ巣","lat":34.914165,"lng":137.027026,"zip":"4441213"},{"town":"根崎町","koaza":"西大川","lat":34.889987,"lng":137.030853,"zip":"4441211"},{"town":"根崎町","koaza":"南傍示木","lat":34.891249,"lng":137.028852,"zip":"4441211"},{"town":"東端町","koaza":"明和","lat":34.904122,"lng":137.030227,"zip":"4441213"},{"town":"高棚町","koaza":"茨池","lat":34.949755,"lng":137.031754,"zip":"4460053"},{"town":"東端町","koaza":"宮裏","lat":34.915757,"lng":137.029313,"zip":"4441213"},{"town":"東端町","koaza":"東稲場","lat":34.905439,"lng":137.032228,"zip":"4441213"},{"town":"高棚町","koaza":"大道","lat":34.940153,"lng":137.032502,"zip":"4460053"},{"town":"東端町","koaza":"明祥北","lat":34.914153,"lng":137.033042,"zip":"4441213"},{"town":"根崎町","koaza":"砂子","lat":34.897214,"lng":137.031223,"zip":"4441211"},{"town":"東端町","koaza":"明祥東","lat":34.909667,"lng":137.033467,"zip":"4441213"},{"town":"根崎町","koaza":"下小久戸","lat":34.89913,"lng":137.031899,"zip":"4441211"},{"town":"榎前町","koaza":"南西山","lat":34.935821,"lng":137.033862,"zip":"4441214"},{"town":"根崎町","koaza":"西出口","lat":34.903482,"lng":137.033307,"zip":"4441211"},{"town":"高棚町","koaza":"芦池","lat":34.958861,"lng":137.03677,"zip":"4460053"},{"town":"根崎町","koaza":"大川","lat":34.890348,"lng":137.035867,"zip":"4441211"},{"town":"榎前町","koaza":"西山","lat":34.93636,"lng":137.034414,"zip":"4441214"},{"town":"根崎町","koaza":"五佐池","lat":34.905812,"lng":137.034831,"zip":"4441211"},{"town":"根崎町","koaza":"南根","lat":34.898302,"lng":137.034806,"zip":"4441211"},{"town":"高棚町","koaza":"井池","lat":34.947308,"lng":137.036535,"zip":"4460053"},{"town":"榎前町","koaza":"向山","lat":34.927783,"lng":137.034101,"zip":"4441214"},{"town":"高棚町","koaza":"新池","lat":34.955632,"lng":137.038824,"zip":"4460053"},{"town":"榎前町","koaza":"内畑","lat":34.931508,"lng":137.034614,"zip":"4441214"},{"town":"榎前町","koaza":"北山","lat":34.938112,"lng":137.036277,"zip":"4441214"},{"town":"根崎町","koaza":"南荒子","lat":34.902798,"lng":137.035286,"zip":"4441211"},{"town":"榎前町","koaza":"南榎","lat":34.932475,"lng":137.035695,"zip":"4441214"},{"town":"高棚町","koaza":"小牧","lat":34.944107,"lng":137.037511,"zip":"4460053"},{"town":"根崎町","koaza":"新切","lat":34.912063,"lng":137.035982,"zip":"4441211"},{"town":"根崎町","koaza":"新石谷","lat":34.907924,"lng":137.037348,"zip":"4441211"},{"town":"榎前町","koaza":"下田","lat":34.927319,"lng":137.034645,"zip":"4441214"},{"town":"榎前町","koaza":"北榎","lat":34.934757,"lng":137.036861,"zip":"4441214"},{"town":"東端町","koaza":"南用地","lat":34.917309,"lng":137.036382,"zip":"4441213"},{"town":"東端町","koaza":"大坪","lat":34.921583,"lng":137.037568,"zip":"4441213"},{"town":"根崎町","koaza":"石渕","lat":34.893195,"lng":137.037155,"zip":"4441211"},{"town":"福釜町","koaza":"下山","lat":34.940563,"lng":137.039621,"zip":"4460052"},{"town":"根崎町","koaza":"北根","lat":34.900634,"lng":137.036269,"zip":"4441211"},{"town":"根崎町","koaza":"西新切","lat":34.914518,"lng":137.038368,"zip":"4441211"},{"town":"根崎町","koaza":"荒子","lat":34.904616,"lng":137.036464,"zip":"4441211"},{"town":"榎前町","koaza":"寒風根","lat":34.936165,"lng":137.037749,"zip":"4441214"},{"town":"根崎町","koaza":"西石谷","lat":34.908494,"lng":137.039481,"zip":"4441211"},{"town":"根崎町","koaza":"石谷","lat":34.906842,"lng":137.038394,"zip":"4441211"},{"town":"榎前町","koaza":"宮下","lat":34.933655,"lng":137.039047,"zip":"4441214"},{"town":"根崎町","koaza":"東出口","lat":34.902876,"lng":137.039415,"zip":"4441211"},{"town":"東端町","koaza":"用地","lat":34.919336,"lng":137.039482,"zip":"4441213"},{"town":"高棚町","koaza":"石亀","lat":34.954015,"lng":137.042559,"zip":"4460053"},{"town":"根崎町","koaza":"東石谷","lat":34.905757,"lng":137.040406,"zip":"4441211"},{"town":"根崎町","koaza":"下渡瀬","lat":34.902444,"lng":137.040828,"zip":"4441211"},{"town":"根崎町","koaza":"東新切","lat":34.912859,"lng":137.040692,"zip":"4441211"},{"town":"東端町","koaza":"新切","lat":34.923762,"lng":137.040993,"zip":"4441213"},{"town":"福釜町","koaza":"大洲","lat":34.93783,"lng":137.040336,"zip":"4460052"},{"town":"和泉町","koaza":"下之切","lat":34.916558,"lng":137.041734,"zip":"4441221"},{"town":"榎前町","koaza":"松原","lat":34.930979,"lng":137.040424,"zip":"4441214"},{"town":"和泉町","koaza":"神明","lat":34.924641,"lng":137.042705,"zip":"4441221"},{"town":"榎前町","koaza":"中隠","lat":34.927587,"lng":137.043102,"zip":"4441214"},{"town":"和泉町","koaza":"南本郷","lat":34.918991,"lng":137.042952,"zip":"4441221"},{"town":"根崎町","koaza":"長配","lat":34.909288,"lng":137.041667,"zip":"4441211"},{"town":"榎前町","koaza":"狐塚","lat":34.934014,"lng":137.040876,"zip":"4441214"},{"town":"福釜町","koaza":"釜ヶ渕","lat":34.946403,"lng":137.042892,"zip":"4460052"},{"town":"根崎町","koaza":"石ケ入","lat":34.906722,"lng":137.043297,"zip":"4441211"},{"town":"福釜町","koaza":"尾山","lat":34.935982,"lng":137.04162,"zip":"4460052"},{"town":"福釜町","koaza":"蔵前","lat":34.943909,"lng":137.044091,"zip":"4460052"},{"town":"東端町","koaza":"北荒子","lat":34.923144,"lng":137.042269,"zip":"4441213"},{"town":"和泉町","koaza":"大下","lat":34.912356,"lng":137.042852,"zip":"4441221"},{"town":"和泉町","koaza":"郷前","lat":34.914315,"lng":137.042439,"zip":"4441221"},{"town":"和泉町","koaza":"中本郷","lat":34.921113,"lng":137.044284,"zip":"4441221"},{"town":"福釜町","koaza":"荒子","lat":34.937752,"lng":137.044759,"zip":"4460052"},{"town":"福釜町","koaza":"細湫","lat":34.950918,"lng":137.044294,"zip":"4460052"},{"town":"福釜町","koaza":"中根","lat":34.948851,"lng":137.047406,"zip":"4460052"},{"town":"福釜町","koaza":"野中","lat":34.94137,"lng":137.043144,"zip":"4460052"},{"town":"榎前町","koaza":"西林","lat":34.930915,"lng":137.044715,"zip":"4441214"},{"town":"二本木町","koaza":"二本木","lat":34.969928,"lng":137.046648,"zip":"4460054"},{"town":"和泉町","koaza":"北本郷","lat":34.922253,"lng":137.045062,"zip":"4441221"},{"town":"二本木町","koaza":"西切替","lat":34.965563,"lng":137.0469,"zip":"4460054"},{"town":"福釜町","koaza":"里添","lat":34.942825,"lng":137.04521,"zip":"4460052"},{"town":"和泉町","koaza":"長筬","lat":34.926971,"lng":137.042295,"zip":"4441221"},{"town":"城ヶ入町","koaza":"山崎","lat":34.900578,"lng":137.044885,"zip":"4460000"},{"town":"榎前町","koaza":"井杭山","lat":34.932079,"lng":137.046965,"zip":"4441214"},{"town":"福釜町","koaza":"西天","lat":34.947191,"lng":137.045779,"zip":"4460052"},{"town":"和泉町","koaza":"南家下","lat":34.912348,"lng":137.044949,"zip":"4441221"},{"town":"美園町","koaza":"吹戸","lat":34.980014,"lng":137.04404,"zip":"4460076"},{"town":"城ヶ入町","koaza":"城畠","lat":34.898484,"lng":137.045022,"zip":"4460000"},{"town":"城ヶ入町","koaza":"西海","lat":34.903428,"lng":137.044649,"zip":"4460000"},{"town":"箕輪町","koaza":"六畝","lat":34.958611,"lng":137.046776,"zip":"4460051"},{"town":"榎前町","koaza":"東林","lat":34.927991,"lng":137.046972,"zip":"4441214"},{"town":"美園町","koaza":"時ヶ堀","lat":34.978959,"lng":137.044827,"zip":"4460076"},{"town":"美園町","koaza":"東菰神","lat":34.979851,"lng":137.04582,"zip":"4460076"},{"town":"城ヶ入町","koaza":"欠間","lat":34.896919,"lng":137.046311,"zip":"4460000"},{"town":"二本木町","koaza":"切替","lat":34.968816,"lng":137.046778,"zip":"4460054"},{"town":"福釜町","koaza":"馬場","lat":34.940719,"lng":137.046468,"zip":"4460052"},{"town":"城ヶ入町","koaza":"本郷","lat":34.904844,"lng":137.046805,"zip":"4460000"},{"town":"城ヶ入町","koaza":"新井","lat":34.900559,"lng":137.047037,"zip":"4460000"},{"town":"城ヶ入町","koaza":"稲場","lat":34.906637,"lng":137.047354,"zip":"4460000"},{"town":"和泉町","koaza":"上之切","lat":34.925483,"lng":137.047716,"zip":"4441221"},{"town":"福釜町","koaza":"道田","lat":34.955966,"lng":137.046913,"zip":"4460052"},{"town":"和泉町","koaza":"家下","lat":34.917559,"lng":137.047672,"zip":"4441221"},{"town":"福釜町","koaza":"宮添","lat":34.944784,"lng":137.047292,"zip":"4460052"},{"town":"福釜町","koaza":"細池","lat":34.938968,"lng":137.048017,"zip":"4460052"},{"town":"和泉町","koaza":"中北","lat":34.927815,"lng":137.049699,"zip":"4441221"},{"town":"和泉町","koaza":"惣山","lat":34.914189,"lng":137.048047,"zip":"4441221"},{"town":"城ヶ入町","koaza":"向山","lat":34.902822,"lng":137.047823,"zip":"4460000"},{"town":"福釜町","koaza":"百々目","lat":34.93663,"lng":137.049339,"zip":"4460052"},{"town":"和泉町","koaza":"宮前","lat":34.922417,"lng":137.04938,"zip":"4441221"},{"town":"和泉町","koaza":"八兵エ","lat":34.918423,"lng":137.049697,"zip":"4441221"},{"town":"城ヶ入町","koaza":"荒子","lat":34.898518,"lng":137.04858,"zip":"4460000"},{"town":"福釜町","koaza":"鴻ノ巣","lat":34.951742,"lng":137.052413,"zip":"4460052"},{"town":"和泉町","koaza":"向","lat":34.916712,"lng":137.049165,"zip":"4441221"},{"town":"城ヶ入町","koaza":"本割","lat":34.902155,"lng":137.050066,"zip":"4460000"},{"town":"福釜町","koaza":"蓬野","lat":34.948171,"lng":137.05087,"zip":"4460052"},{"town":"城ヶ入町","koaza":"丸根","lat":34.906205,"lng":137.050342,"zip":"4460000"},{"town":"福釜町","koaza":"長池","lat":34.941169,"lng":137.049559,"zip":"4460052"},{"town":"二本木町","koaza":"東切替","lat":34.966325,"lng":137.053749,"zip":"4460054"},{"town":"和泉町","koaza":"宮ノ腰","lat":34.925136,"lng":137.050763,"zip":"4441221"},{"town":"和泉町","koaza":"井ノ上","lat":34.920822,"lng":137.051291,"zip":"4441221"},{"town":"箕輪町","koaza":"新田","lat":34.961912,"lng":137.052047,"zip":"4460051"},{"town":"福釜町","koaza":"ふけ田","lat":34.942891,"lng":137.050816,"zip":"4460052"},{"town":"和泉町","koaza":"大北","lat":34.932081,"lng":137.051371,"zip":"4441221"},{"town":"箕輪町","koaza":"権現","lat":34.955487,"lng":137.052768,"zip":"4460051"},{"town":"和泉町","koaza":"七ツ田","lat":34.928533,"lng":137.051053,"zip":"4441221"},{"town":"城ヶ入町","koaza":"雨池","lat":34.905141,"lng":137.052007,"zip":"4460000"},{"town":"城ヶ入町","koaza":"西ノ根","lat":34.910262,"lng":137.050955,"zip":"4460000"},{"town":"和泉町","koaza":"大海古","lat":34.917192,"lng":137.054899,"zip":"4441221"},{"town":"福釜町","koaza":"横山","lat":34.940249,"lng":137.054053,"zip":"4460052"},{"town":"二本木町","koaza":"長根","lat":34.969201,"lng":137.052219,"zip":"4460054"},{"town":"和泉町","koaza":"八斗蒔","lat":34.928019,"lng":137.052426,"zip":"4441221"},{"town":"城ヶ入町","koaza":"広見","lat":34.90928,"lng":137.054011,"zip":"4460000"},{"town":"城ヶ入町","koaza":"山新田","lat":34.907181,"lng":137.053484,"zip":"4460000"},{"town":"和泉町","koaza":"庄司作","lat":34.922008,"lng":137.054852,"zip":"4441221"},{"town":"箕輪町","koaza":"清兵衛","lat":34.958152,"lng":137.054131,"zip":"4460051"},{"town":"城ヶ入町","koaza":"高根","lat":34.904642,"lng":137.053291,"zip":"4460000"},{"town":"福釜町","koaza":"河原","lat":34.950914,"lng":137.053038,"zip":"4460052"},{"town":"赤松町","koaza":"西下","lat":34.934054,"lng":137.05588,"zip":"4460046"},{"town":"福釜町","koaza":"笠松","lat":34.945491,"lng":137.057002,"zip":"4460052"},{"town":"福釜町","koaza":"小六","lat":34.939168,"lng":137.053564,"zip":"4460052"},{"town":"福釜町","koaza":"大江","lat":34.949547,"lng":137.054277,"zip":"4460052"},{"town":"箕輪町","koaza":"青木","lat":34.956257,"lng":137.055407,"zip":"4460051"},{"town":"和泉町","koaza":"南梶","lat":34.923626,"lng":137.053672,"zip":"4441221"},{"town":"福釜町","koaza":"十郎","lat":34.952068,"lng":137.053996,"zip":"4460052"},{"town":"城ヶ入町","koaza":"彦左","lat":34.908568,"lng":137.054805,"zip":"4460000"},{"town":"福釜町","koaza":"条山","lat":34.949322,"lng":137.056498,"zip":"4460052"},{"town":"和泉町","koaza":"北梶","lat":34.928486,"lng":137.053607,"zip":"4441221"},{"town":"二本木町","koaza":"南舞々山","lat":34.964696,"lng":137.055006,"zip":"4460054"},{"town":"福釜町","koaza":"犬田","lat":34.951507,"lng":137.055348,"zip":"4460052"},{"town":"城ヶ入町","koaza":"源治","lat":34.906689,"lng":137.055658,"zip":"4460000"},{"town":"福釜町","koaza":"甲大道","lat":34.937934,"lng":137.055658,"zip":"4460052"},{"town":"福釜町","koaza":"東湫","lat":34.941477,"lng":137.058108,"zip":"4460052"},{"town":"箕輪町","koaza":"唐生","lat":34.960143,"lng":137.058419,"zip":"4460051"},{"town":"箕輪町","koaza":"門田","lat":34.95538,"lng":137.056398,"zip":"4460051"},{"town":"和泉町","koaza":"中根山","lat":34.91954,"lng":137.058345,"zip":"4441221"},{"town":"福釜町","koaza":"砂渡","lat":34.951719,"lng":137.058008,"zip":"4460052"},{"town":"二本木新町","koaza":"北菅口","lat":34.979302,"lng":137.057843,"zip":"4460075"},{"town":"赤松町","koaza":"東下","lat":34.931032,"lng":137.058942,"zip":"4460046"},{"town":"和泉町","koaza":"西山","lat":34.923977,"lng":137.058147,"zip":"4441221"},{"town":"箕輪町","koaza":"半夏","lat":34.954995,"lng":137.059814,"zip":"4460051"},{"town":"箕輪町","koaza":"本屋敷","lat":34.957054,"lng":137.057889,"zip":"4460051"},{"town":"箕輪町","koaza":"新芳畔","lat":34.964538,"lng":137.057335,"zip":"4460051"},{"town":"和泉町","koaza":"北大木","lat":34.915717,"lng":137.059515,"zip":"4441221"},{"town":"井杭山町","koaza":"一本木","lat":34.977178,"lng":137.058925,"zip":"4460074"},{"town":"城ヶ入町","koaza":"団戸","lat":34.91146,"lng":137.059474,"zip":"4460000"},{"town":"赤松町","koaza":"堀切","lat":34.938086,"lng":137.059414,"zip":"4460046"},{"town":"箕輪町","koaza":"屋下","lat":34.9557,"lng":137.059816,"zip":"4460051"},{"town":"福釜町","koaza":"猿町","lat":34.944229,"lng":137.060208,"zip":"4460052"},{"town":"福釜町","koaza":"矢場","lat":34.949577,"lng":137.060169,"zip":"4460052"},{"town":"和泉町","koaza":"南山","lat":34.919813,"lng":137.061018,"zip":"4441221"},{"town":"箕輪町","koaza":"神戸","lat":34.958033,"lng":137.060944,"zip":"4460051"},{"town":"城ヶ入町","koaza":"立出","lat":34.908881,"lng":137.059813,"zip":"4460000"},{"town":"赤松町","koaza":"的場","lat":34.935296,"lng":137.061144,"zip":"4460046"},{"town":"井杭山町","koaza":"高見","lat":34.974558,"lng":137.061458,"zip":"4460074"},{"town":"和泉町","koaza":"東山","lat":34.922025,"lng":137.062259,"zip":"4441221"},{"town":"井杭山町","koaza":"菅口","lat":34.978229,"lng":137.060297,"zip":"4460074"},{"town":"箕輪町","koaza":"東山","lat":34.953814,"lng":137.060952,"zip":"4460051"},{"town":"赤松町","koaza":"梶","lat":34.929775,"lng":137.062583,"zip":"4460046"},{"town":"井杭山町","koaza":"家下","lat":34.975725,"lng":137.062694,"zip":"4460074"},{"town":"赤松町","koaza":"西ノ山","lat":34.942219,"lng":137.062304,"zip":"4460046"},{"town":"赤松町","koaza":"浄善","lat":34.932269,"lng":137.063176,"zip":"4460046"},{"town":"井杭山町","koaza":"井杭山","lat":34.976993,"lng":137.063845,"zip":"4460074"},{"town":"箕輪町","koaza":"昭和","lat":34.96227,"lng":137.064422,"zip":"4460051"},{"town":"和泉町","koaza":"高曽根","lat":34.919213,"lng":137.063614,"zip":"4441221"},{"town":"石井町","koaza":"徳原","lat":34.913967,"lng":137.064311,"zip":"4441201"},{"town":"赤松町","koaza":"鐘山","lat":34.939695,"lng":137.064057,"zip":"4460046"},{"town":"箕輪町","koaza":"切戸","lat":34.957032,"lng":137.066224,"zip":"4460051"},{"town":"箕輪町","koaza":"鳥屋金","lat":34.958371,"lng":137.063402,"zip":"4460051"},{"town":"赤松町","koaza":"前川","lat":34.93783,"lng":137.064208,"zip":"4460046"},{"town":"藤井町","koaza":"南高根","lat":34.900191,"lng":137.063844,"zip":"4441164"},{"town":"篠目町","koaza":"童子","lat":34.971288,"lng":137.066559,"zip":"4460073"},{"town":"石井町","koaza":"福原","lat":34.916852,"lng":137.064972,"zip":"4441201"},{"town":"石井町","koaza":"石原","lat":34.920898,"lng":137.065863,"zip":"4441201"},{"town":"横山町","koaza":"横山","lat":34.953217,"lng":137.067693,"zip":"4460045"},{"town":"石井町","koaza":"辻原","lat":34.923569,"lng":137.066628,"zip":"4441201"},{"town":"藤井町","koaza":"五郎田","lat":34.897219,"lng":137.064518,"zip":"4441164"},{"town":"篠目町","koaza":"竜田","lat":34.980652,"lng":137.065616,"zip":"4460073"},{"town":"石井町","koaza":"高井","lat":34.926581,"lng":137.066904,"zip":"4441201"},{"town":"藤井町","koaza":"高根","lat":34.904446,"lng":137.068327,"zip":"4441164"},{"town":"藤井町","koaza":"居林","lat":34.892158,"lng":137.064762,"zip":"4441164"},{"town":"赤松町","koaza":"広久手","lat":34.931547,"lng":137.066258,"zip":"4460046"},{"town":"篠目町","koaza":"溝川","lat":34.976218,"lng":137.065278,"zip":"4460073"},{"town":"赤松町","koaza":"新屋敷","lat":34.940976,"lng":137.067425,"zip":"4460046"},{"town":"赤松町","koaza":"隅田川","lat":34.936435,"lng":137.068091,"zip":"4460046"},{"town":"藤井町","koaza":"丸山","lat":34.902926,"lng":137.069797,"zip":"4441164"},{"town":"篠目町","koaza":"大西","lat":34.978119,"lng":137.065304,"zip":"4460073"},{"town":"赤松町","koaza":"本郷","lat":34.937446,"lng":137.06575,"zip":"4460046"},{"town":"赤松町","koaza":"北畑","lat":34.937582,"lng":137.067295,"zip":"4460046"},{"town":"赤松町","koaza":"北新屋敷","lat":34.942772,"lng":137.068491,"zip":"4460046"},{"town":"篠目町","koaza":"肥田","lat":34.978425,"lng":137.065817,"zip":"4460073"},{"town":"小川町","koaza":"久々井","lat":34.91678,"lng":137.069627,"zip":"4441162"},{"town":"篠目町","koaza":"本郷","lat":34.977626,"lng":137.067347,"zip":"4460073"},{"town":"横山町","koaza":"赤子","lat":34.959418,"lng":137.067768,"zip":"4460045"},{"town":"赤松町","koaza":"東向","lat":34.934809,"lng":137.068992,"zip":"4460046"},{"town":"篠目町","koaza":"向","lat":34.976353,"lng":137.067517,"zip":"4460073"},{"town":"小川町","koaza":"山中","lat":34.91407,"lng":137.070517,"zip":"4441162"},{"town":"横山町","koaza":"下管池","lat":34.961793,"lng":137.068665,"zip":"4460045"},{"town":"篠目町","koaza":"長根","lat":34.983848,"lng":137.067741,"zip":"4460073"},{"town":"池浦町","koaza":"池西","lat":34.96883,"lng":137.072312,"zip":"4460066"},{"town":"篠目町","koaza":"二タ又","lat":34.981915,"lng":137.06897,"zip":"4460073"},{"town":"横山町","koaza":"八左","lat":34.952759,"lng":137.070702,"zip":"4460045"},{"town":"藤井町","koaza":"長先","lat":34.906626,"lng":137.073085,"zip":"4441164"},{"town":"桜井町","koaza":"西天上","lat":34.928136,"lng":137.068742,"zip":"4441154"},{"town":"赤松町","koaza":"大北","lat":34.945106,"lng":137.071575,"zip":"4460046"},{"town":"藤井町","koaza":"南居林","lat":34.892205,"lng":137.0696,"zip":"4441164"},{"town":"篠目町","koaza":"井原","lat":34.978358,"lng":137.068544,"zip":"4460073"},{"town":"桜井町","koaza":"土取","lat":34.929552,"lng":137.068782,"zip":"4441154"},{"town":"横山町","koaza":"山田","lat":34.95591,"lng":137.068913,"zip":"4460045"},{"town":"小川町","koaza":"山田","lat":34.909117,"lng":137.070943,"zip":"4441162"},{"town":"横山町","koaza":"寺下","lat":34.962202,"lng":137.07103,"zip":"4460045"},{"town":"篠目町","koaza":"ハゼ原","lat":34.974981,"lng":137.069725,"zip":"4460073"},{"town":"篠目町","koaza":"西ハゼ原","lat":34.976043,"lng":137.069558,"zip":"4460073"},{"town":"桜井町","koaza":"五ヶ野","lat":34.92068,"lng":137.069678,"zip":"4441154"},{"town":"篠目町","koaza":"新郷","lat":34.972803,"lng":137.071653,"zip":"4460073"},{"town":"赤松町","koaza":"乙菊","lat":34.934764,"lng":137.073716,"zip":"4460046"},{"town":"横山町","koaza":"下毛賀知","lat":34.958543,"lng":137.073559,"zip":"4460045"},{"town":"藤井町","koaza":"蟻塚","lat":34.89718,"lng":137.070826,"zip":"4441164"},{"town":"横山町","koaza":"大山田中","lat":34.961157,"lng":137.073195,"zip":"4460045"},{"town":"篠目町","koaza":"作野","lat":34.983583,"lng":137.072476,"zip":"4460073"},{"town":"藤井町","koaza":"西山","lat":34.894529,"lng":137.076797,"zip":"4441164"},{"town":"藤井町","koaza":"南山","lat":34.892392,"lng":137.075991,"zip":"4441164"},{"town":"住吉町","koaza":"長根","lat":34.991098,"lng":137.073473,"zip":"4460072"},{"town":"桜井町","koaza":"小三尻","lat":34.919922,"lng":137.072505,"zip":"4441154"},{"town":"篠目町","koaza":"井山","lat":34.974883,"lng":137.074489,"zip":"4460073"},{"town":"藤井町","koaza":"堀切","lat":34.903097,"lng":137.072132,"zip":"4441164"},{"town":"横山町","koaza":"寺田","lat":34.963701,"lng":137.07331,"zip":"4460045"},{"town":"藤井町","koaza":"新切","lat":34.900249,"lng":137.075305,"zip":"4441164"},{"town":"横山町","koaza":"石ナ曽根","lat":34.953089,"lng":137.073048,"zip":"4460045"},{"town":"赤松町","koaza":"東恋塚","lat":34.937757,"lng":137.073529,"zip":"4460046"},{"town":"今本町","koaza":"東向山","lat":34.995403,"lng":137.072508,"zip":"4460008"},{"town":"桜井町","koaza":"半抜","lat":34.918167,"lng":137.076074,"zip":"4441154"},{"town":"横山町","koaza":"浜畔上","lat":34.955315,"lng":137.075244,"zip":"4460045"},{"town":"小川町","koaza":"丸根","lat":34.912528,"lng":137.073895,"zip":"4441162"},{"town":"安城町","koaza":"西広畔","lat":34.94265,"lng":137.075142,"zip":"4460026"},{"town":"小川町","koaza":"曽根","lat":34.908412,"lng":137.074378,"zip":"4441162"},{"town":"桜井町","koaza":"門原","lat":34.920111,"lng":137.074034,"zip":"4441154"},{"town":"横山町","koaza":"毛賀知","lat":34.957684,"lng":137.075997,"zip":"4460045"},{"town":"藤井町","koaza":"立狭間","lat":34.905062,"lng":137.073794,"zip":"4441164"},{"town":"藤井町","koaza":"東長先","lat":34.903803,"lng":137.076328,"zip":"4441164"},{"town":"住吉町","koaza":"南長根","lat":34.990647,"lng":137.074334,"zip":"4460072"},{"town":"住吉町","koaza":"荒曽根","lat":34.980709,"lng":137.078855,"zip":"4460072"},{"town":"篠目町","koaza":"古林畔","lat":34.977065,"lng":137.076221,"zip":"4460073"},{"town":"姫小川町","koaza":"半野木","lat":34.913853,"lng":137.076113,"zip":"4441161"},{"town":"篠目町","koaza":"古林","lat":34.975692,"lng":137.078384,"zip":"4460073"},{"town":"藤井町","koaza":"車場","lat":34.896403,"lng":137.077377,"zip":"4441164"},{"town":"今本町","koaza":"石田","lat":34.998085,"lng":137.076202,"zip":"4460008"},{"town":"里町","koaza":"北大道寺","lat":34.998566,"lng":137.080542,"zip":"4460001"},{"town":"桜井町","koaza":"咽首","lat":34.918974,"lng":137.077858,"zip":"4441154"},{"town":"池浦町","koaza":"丸畔","lat":34.971789,"lng":137.077125,"zip":"4460066"},{"town":"姫小川町","koaza":"西門原","lat":34.914317,"lng":137.078764,"zip":"4441161"},{"town":"安城町","koaza":"広美","lat":34.943459,"lng":137.077725,"zip":"4460026"},{"town":"池浦町","koaza":"丸田","lat":34.972704,"lng":137.080358,"zip":"4460066"},{"town":"安城町","koaza":"東広畔","lat":34.941243,"lng":137.079092,"zip":"4460026"},{"town":"安城町","koaza":"広岸","lat":34.93698,"lng":137.082804,"zip":"4460026"},{"town":"桜井町","koaza":"坊主山","lat":34.926047,"lng":137.078022,"zip":"4441154"},{"town":"小川町","koaza":"三ツ塚","lat":34.908563,"lng":137.078292,"zip":"4441162"},{"town":"堀内町","koaza":"東新田","lat":34.932144,"lng":137.079151,"zip":"4441155"},{"town":"桜井町","koaza":"グテ","lat":34.927714,"lng":137.080557,"zip":"4441154"},{"town":"野寺町","koaza":"大薮畔","lat":34.899808,"lng":137.079195,"zip":"4441165"},{"town":"住吉町","koaza":"小根","lat":34.978247,"lng":137.07966,"zip":"4460072"},{"town":"小川町","koaza":"石曽根","lat":34.910783,"lng":137.078713,"zip":"4441162"},{"town":"桜井町","koaza":"雨池下","lat":34.921552,"lng":137.078477,"zip":"4441154"},{"town":"野寺町","koaza":"南新切","lat":34.896059,"lng":137.080382,"zip":"4441165"},{"town":"桜井町","koaza":"伝左","lat":34.917378,"lng":137.080848,"zip":"4441154"},{"town":"桜井町","koaza":"蜂ヶ尻","lat":34.919942,"lng":137.079365,"zip":"4441154"},{"town":"小川町","koaza":"御林","lat":34.909591,"lng":137.082839,"zip":"4441162"},{"town":"桜井町","koaza":"雑用山","lat":34.921382,"lng":137.079688,"zip":"4441154"},{"town":"里町","koaza":"大道寺","lat":34.996725,"lng":137.080582,"zip":"4460001"},{"town":"桜井町","koaza":"稲荷西","lat":34.915394,"lng":137.080106,"zip":"4441154"},{"town":"野寺町","koaza":"宝殿","lat":34.901568,"lng":137.081301,"zip":"4441165"},{"town":"安城町","koaza":"祥南","lat":34.94095,"lng":137.08183,"zip":"4460026"},{"town":"小川町","koaza":"南門原","lat":34.91073,"lng":137.081194,"zip":"4441162"},{"town":"藤井町","koaza":"大畑","lat":34.893039,"lng":137.081587,"zip":"4441164"},{"town":"里町","koaza":"溝下","lat":35.00005,"lng":137.08137,"zip":"4460001"},{"town":"堀内町","koaza":"山畑","lat":34.930637,"lng":137.081373,"zip":"4441155"},{"town":"姫小川町","koaza":"遠見塚","lat":34.914058,"lng":137.082141,"zip":"4441161"},{"town":"古井町","koaza":"甲加勢","lat":34.936567,"lng":137.082003,"zip":"4460025"},{"town":"里町","koaza":"荒畑","lat":34.999904,"lng":137.083802,"zip":"4460001"},{"town":"野寺町","koaza":"前畑","lat":34.89816,"lng":137.084268,"zip":"4441165"},{"town":"桜井町","koaza":"蟻路","lat":34.923318,"lng":137.082193,"zip":"4441154"},{"town":"藤井町","koaza":"本郷","lat":34.892043,"lng":137.084732,"zip":"4441164"},{"town":"桜井町","koaza":"稲荷東","lat":34.916121,"lng":137.082314,"zip":"4441154"},{"town":"小川町","koaza":"久手","lat":34.907719,"lng":137.083595,"zip":"4441162"},{"town":"桜井町","koaza":"林","lat":34.916711,"lng":137.082748,"zip":"4441154"},{"town":"新田町","koaza":"丸畔","lat":34.969731,"lng":137.083293,"zip":"4460061"},{"town":"桜井町","koaza":"上小縄手","lat":34.925358,"lng":137.083278,"zip":"4441154"},{"town":"藤井町","koaza":"北山","lat":34.894956,"lng":137.084573,"zip":"4441164"},{"town":"池浦町","koaza":"池浦","lat":34.975631,"lng":137.083302,"zip":"4460066"},{"town":"桜井町","koaza":"高見","lat":34.922829,"lng":137.083736,"zip":"4441154"},{"town":"里町","koaza":"西ノ口","lat":35.001922,"lng":137.083775,"zip":"4460001"},{"town":"里町","koaza":"畑下","lat":34.997073,"lng":137.084497,"zip":"4460001"},{"town":"池浦町","koaza":"大山田上","lat":34.972975,"lng":137.085194,"zip":"4460066"},{"town":"桜井町","koaza":"新田","lat":34.917675,"lng":137.084987,"zip":"4441154"},{"town":"小川町","koaza":"清水道","lat":34.906129,"lng":137.086407,"zip":"4441162"},{"town":"古井町","koaza":"五徳山","lat":34.934248,"lng":137.084134,"zip":"4460025"},{"town":"安城町","koaza":"若葉","lat":34.945483,"lng":137.086174,"zip":"4460026"},{"town":"桜井町","koaza":"薬師田","lat":34.924258,"lng":137.084266,"zip":"4441154"},{"town":"桜井町","koaza":"塔見塚","lat":34.915583,"lng":137.085188,"zip":"4441154"},{"town":"姫小川町","koaza":"舘出","lat":34.91429,"lng":137.087034,"zip":"4441161"},{"town":"古井町","koaza":"北畔","lat":34.936388,"lng":137.086613,"zip":"4460025"},{"town":"里町","koaza":"下田","lat":34.995015,"lng":137.084807,"zip":"4460001"},{"town":"小川町","koaza":"金政","lat":34.911645,"lng":137.086874,"zip":"4441162"},{"town":"桜井町","koaza":"小縄手","lat":34.925044,"lng":137.086008,"zip":"4441154"},{"town":"里町","koaza":"菖蒲池","lat":35.003376,"lng":137.085294,"zip":"4460001"},{"town":"野寺町","koaza":"野寺","lat":34.900667,"lng":137.086539,"zip":"4441165"},{"town":"里町","koaza":"阿賀多","lat":34.997571,"lng":137.086195,"zip":"4460001"},{"town":"新田町","koaza":"大山田上","lat":34.970744,"lng":137.084241,"zip":"4460061"},{"town":"藤井町","koaza":"東山","lat":34.894885,"lng":137.086264,"zip":"4441164"},{"town":"古井町","koaza":"一本木","lat":34.933274,"lng":137.085886,"zip":"4460025"},{"town":"里町","koaza":"宮西","lat":35.001141,"lng":137.086084,"zip":"4460001"},{"town":"安城町","koaza":"栗ノ木","lat":34.947049,"lng":137.085331,"zip":"4460026"},{"town":"小川町","koaza":"扇林","lat":34.903387,"lng":137.085005,"zip":"4441162"},{"town":"桜井町","koaza":"貝戸尻","lat":34.920298,"lng":137.087326,"zip":"4441154"},{"town":"桜井町","koaza":"三度山","lat":34.922379,"lng":137.087598,"zip":"4441154"},{"town":"池浦町","koaza":"池東","lat":34.975539,"lng":137.087155,"zip":"4460066"},{"town":"堀内町","koaza":"西門","lat":34.930914,"lng":137.085181,"zip":"4441155"},{"town":"新田町","koaza":"小山西","lat":34.970522,"lng":137.085534,"zip":"4460061"},{"town":"古井町","koaza":"南畔","lat":34.935089,"lng":137.085795,"zip":"4460025"},{"town":"堀内町","koaza":"西口","lat":34.928552,"lng":137.086313,"zip":"4441155"},{"town":"里町","koaza":"森","lat":34.999776,"lng":137.086779,"zip":"4460001"},{"town":"桜井町","koaza":"元山","lat":34.927129,"lng":137.086381,"zip":"4441154"},{"town":"安城町","koaza":"天草","lat":34.94195,"lng":137.087502,"zip":"4460026"},{"town":"寺領町","koaza":"願明","lat":34.897414,"lng":137.086125,"zip":"4441166"},{"town":"堀内町","koaza":"前山","lat":34.928403,"lng":137.088478,"zip":"4441155"},{"town":"安城町","koaza":"庚申","lat":34.938357,"lng":137.086904,"zip":"4460026"},{"town":"里町","koaza":"本郷","lat":34.995984,"lng":137.086328,"zip":"4460001"},{"town":"里町","koaza":"前田","lat":34.995335,"lng":137.086617,"zip":"4460001"},{"town":"新田町","koaza":"小山","lat":34.969969,"lng":137.088031,"zip":"4460061"},{"town":"堀内町","koaza":"形谷","lat":34.930229,"lng":137.08753,"zip":"4441155"},{"town":"姫小川町","koaza":"北門原","lat":34.913436,"lng":137.088026,"zip":"4441161"},{"town":"野寺町","koaza":"外畑","lat":34.903439,"lng":137.087155,"zip":"4441165"},{"town":"桜井町","koaza":"山ノ寺","lat":34.924061,"lng":137.087806,"zip":"4441154"},{"town":"古井町","koaza":"揚リ登","lat":34.935216,"lng":137.087693,"zip":"4460025"},{"town":"安城町","koaza":"馬池","lat":34.947571,"lng":137.088934,"zip":"4460026"},{"town":"里町","koaza":"西山ノ田","lat":35.006186,"lng":137.089624,"zip":"4460001"},{"town":"小川町","koaza":"大久根","lat":34.904843,"lng":137.090513,"zip":"4441162"},{"town":"堀内町","koaza":"カラ桶","lat":34.926095,"lng":137.08922,"zip":"4441155"},{"town":"里町","koaza":"早稲田","lat":34.997172,"lng":137.087932,"zip":"4460001"},{"town":"古井町","koaza":"小仏","lat":34.933784,"lng":137.088579,"zip":"4460025"},{"town":"小川町","koaza":"志茂","lat":34.908185,"lng":137.090678,"zip":"4441162"},{"town":"里町","koaza":"南歌口","lat":35.001373,"lng":137.08875,"zip":"4460001"},{"town":"寺領町","koaza":"牛家","lat":34.899684,"lng":137.089904,"zip":"4441166"},{"town":"小川町","koaza":"三日三升","lat":34.909281,"lng":137.088423,"zip":"4441162"},{"town":"安城町","koaza":"秋葉西","lat":34.946081,"lng":137.088345,"zip":"4460026"},{"town":"小川町","koaza":"的場丘","lat":34.911152,"lng":137.089735,"zip":"4441162"},{"town":"桜井町","koaza":"大役田","lat":34.916544,"lng":137.089269,"zip":"4441154"},{"town":"里町","koaza":"焼山","lat":34.997822,"lng":137.088028,"zip":"4460001"},{"town":"里町","koaza":"東山ノ田","lat":35.00398,"lng":137.090744,"zip":"4460001"},{"town":"堀内町","koaza":"道下","lat":34.929955,"lng":137.088817,"zip":"4441155"},{"town":"新田町","koaza":"池田上","lat":34.973786,"lng":137.088168,"zip":"4460061"},{"town":"里町","koaza":"西野池","lat":34.993523,"lng":137.089735,"zip":"4460001"},{"town":"里町","koaza":"今池","lat":34.99911,"lng":137.089705,"zip":"4460001"},{"town":"寺領町","koaza":"仏供田","lat":34.898265,"lng":137.089534,"zip":"4441166"},{"town":"木戸町","koaza":"西屋敷","lat":34.896855,"lng":137.089095,"zip":"4441163"},{"town":"古井町","koaza":"北芝崎","lat":34.935806,"lng":137.089252,"zip":"4460025"},{"town":"木戸町","koaza":"南屋敷","lat":34.89482,"lng":137.089587,"zip":"4441163"},{"town":"桜井町","koaza":"中新田","lat":34.917292,"lng":137.089164,"zip":"4441154"},{"town":"今池町","koaza":"上倉","lat":34.979061,"lng":137.092692,"zip":"4460071"},{"town":"堀内町","koaza":"屋敷","lat":34.926037,"lng":137.090626,"zip":"4441155"},{"town":"桜井町","koaza":"城阿原","lat":34.921689,"lng":137.092499,"zip":"4441154"},{"town":"安城町","koaza":"社口堂","lat":34.946247,"lng":137.09016,"zip":"4460026"},{"town":"古井町","koaza":"芝崎","lat":34.934052,"lng":137.089779,"zip":"4460025"},{"town":"堀内町","koaza":"阿原","lat":34.931191,"lng":137.089426,"zip":"4441155"},{"town":"桜井町","koaza":"下谷","lat":34.923968,"lng":137.091896,"zip":"4441154"},{"town":"里町","koaza":"山崎","lat":34.992533,"lng":137.089533,"zip":"4460001"},{"town":"寺領町","koaza":"クシ林","lat":34.90158,"lng":137.090374,"zip":"4441166"},{"town":"池浦町","koaza":"池上","lat":34.976695,"lng":137.092429,"zip":"4460066"},{"town":"古井町","koaza":"新道","lat":34.932239,"lng":137.09058,"zip":"4460025"},{"town":"安城町","koaza":"亀山","lat":34.939152,"lng":137.090333,"zip":"4460026"},{"town":"桜井町","koaza":"城向","lat":34.921167,"lng":137.090471,"zip":"4441154"},{"town":"姫小川町","koaza":"芝山","lat":34.914177,"lng":137.091265,"zip":"4441161"},{"town":"古井町","koaza":"松山","lat":34.937855,"lng":137.090981,"zip":"4460025"},{"town":"里町","koaza":"柿木島","lat":34.998413,"lng":137.090707,"zip":"4460001"},{"town":"新田町","koaza":"新定山","lat":34.971908,"lng":137.090157,"zip":"4460061"},{"town":"堀内町","koaza":"安下","lat":34.928184,"lng":137.090976,"zip":"4441155"},{"town":"里町","koaza":"長根","lat":35.005878,"lng":137.094001,"zip":"4460001"},{"town":"堀内町","koaza":"羽開道","lat":34.927678,"lng":137.090759,"zip":"4441155"},{"town":"古井町","koaza":"天皇","lat":34.931388,"lng":137.090747,"zip":"4460025"},{"town":"古井町","koaza":"花田","lat":34.938894,"lng":137.09074,"zip":"4460025"},{"town":"新田町","koaza":"新定","lat":34.973387,"lng":137.091094,"zip":"4460061"},{"town":"安城町","koaza":"甲山寺","lat":34.94374,"lng":137.091497,"zip":"4460026"},{"town":"木戸町","koaza":"東屋敷","lat":34.89453,"lng":137.091571,"zip":"4441163"},{"town":"東町","koaza":"荒井","lat":34.916122,"lng":137.092092,"zip":"4441153"},{"town":"寺領町","koaza":"久後","lat":34.899465,"lng":137.092185,"zip":"4441166"},{"town":"古井町","koaza":"堂前田","lat":34.935562,"lng":137.091662,"zip":"4460025"},{"town":"木戸町","koaza":"北屋敷","lat":34.896917,"lng":137.091803,"zip":"4441163"},{"town":"里町","koaza":"北歌口","lat":35.001567,"lng":137.094037,"zip":"4460001"},{"town":"古井町","koaza":"石原","lat":34.933298,"lng":137.091981,"zip":"4460025"},{"town":"安城町","koaza":"宮前","lat":34.947787,"lng":137.092699,"zip":"4460026"},{"town":"小川町","koaza":"岩根前","lat":34.900988,"lng":137.09287,"zip":"4441162"},{"town":"古井町","koaza":"大久後","lat":34.937229,"lng":137.091679,"zip":"4460025"},{"town":"古井町","koaza":"三ツ塚","lat":34.934402,"lng":137.091842,"zip":"4460025"},{"town":"小川町","koaza":"岩根","lat":34.903212,"lng":137.093263,"zip":"4441162"},{"town":"古井町","koaza":"上寺","lat":34.939865,"lng":137.092404,"zip":"4460025"},{"town":"古井町","koaza":"本神","lat":34.929984,"lng":137.091936,"zip":"4460025"},{"town":"新田町","koaza":"新栄","lat":34.96722,"lng":137.092125,"zip":"4460061"},{"town":"桜井町","koaza":"北阿原下","lat":34.929059,"lng":137.094022,"zip":"4441154"},{"town":"木戸町","koaza":"丸池","lat":34.895331,"lng":137.092911,"zip":"4441163"},{"town":"桜井町","koaza":"中開道","lat":34.925627,"lng":137.093842,"zip":"4441154"},{"town":"安城町","koaza":"多門","lat":34.943977,"lng":137.093429,"zip":"4460026"},{"town":"古井町","koaza":"亀山","lat":34.939317,"lng":137.092504,"zip":"4460025"},{"town":"桜井町","koaza":"寒池","lat":34.924628,"lng":137.093093,"zip":"4441154"},{"town":"古井町","koaza":"井ノ池","lat":34.933048,"lng":137.09329,"zip":"4460025"},{"town":"里町","koaza":"御地蔵","lat":34.998141,"lng":137.091915,"zip":"4460001"},{"town":"古井町","koaza":"釈迦山","lat":34.930015,"lng":137.092711,"zip":"4460025"},{"town":"小川町","koaza":"加美","lat":34.906278,"lng":137.093073,"zip":"4441162"},{"town":"小川町","koaza":"鹿乗","lat":34.911683,"lng":137.093727,"zip":"4441162"},{"town":"安城町","koaza":"若宮","lat":34.950305,"lng":137.094128,"zip":"4460026"},{"town":"新田町","koaza":"郷西","lat":34.962697,"lng":137.095003,"zip":"4460061"},{"town":"小川町","koaza":"南加美","lat":34.908687,"lng":137.093341,"zip":"4441162"},{"town":"古井町","koaza":"金蔵塚","lat":34.938423,"lng":137.093172,"zip":"4460025"},{"town":"里町","koaza":"南井畑","lat":34.995108,"lng":137.093828,"zip":"4460001"},{"town":"東町","koaza":"屋敷","lat":34.918993,"lng":137.094557,"zip":"4441153"},{"town":"安城町","koaza":"的場","lat":34.952166,"lng":137.092806,"zip":"4460026"},{"town":"古井町","koaza":"宮前","lat":34.934305,"lng":137.092976,"zip":"4460025"},{"town":"里町","koaza":"出崎","lat":34.999846,"lng":137.095293,"zip":"4460001"},{"town":"安城町","koaza":"荒下","lat":34.941439,"lng":137.093653,"zip":"4460026"},{"town":"古井町","koaza":"高見","lat":34.936713,"lng":137.093195,"zip":"4460025"},{"town":"古井町","koaza":"桜塚","lat":34.931869,"lng":137.094252,"zip":"4460025"},{"town":"新田町","koaza":"宮町","lat":34.965595,"lng":137.095263,"zip":"4460061"},{"town":"新田町","koaza":"稲恵","lat":34.974301,"lng":137.097148,"zip":"4460061"},{"town":"桜井町","koaza":"阿原","lat":34.919781,"lng":137.092786,"zip":"4441154"},{"town":"小川町","koaza":"北加美","lat":34.910588,"lng":137.094206,"zip":"4441162"},{"town":"姫小川町","koaza":"姫","lat":34.914922,"lng":137.094015,"zip":"4441161"},{"town":"安城町","koaza":"小圦","lat":34.941685,"lng":137.095229,"zip":"4460026"},{"town":"古井町","koaza":"豊日","lat":34.935566,"lng":137.094372,"zip":"4460025"},{"town":"古井町","koaza":"松本","lat":34.937259,"lng":137.094889,"zip":"4460025"},{"town":"安城町","koaza":"道上","lat":34.945817,"lng":137.093774,"zip":"4460026"},{"town":"姫小川町","koaza":"鹿乗","lat":34.912837,"lng":137.095109,"zip":"4441161"},{"town":"安城町","koaza":"極楽坊","lat":34.951181,"lng":137.094039,"zip":"4460026"},{"town":"東町","koaza":"獅子塚","lat":34.917527,"lng":137.095809,"zip":"4441153"},{"town":"里町","koaza":"東大道","lat":34.990848,"lng":137.094598,"zip":"4460001"},{"town":"里町","koaza":"北井畑","lat":34.995746,"lng":137.094997,"zip":"4460001"},{"town":"安城町","koaza":"宮地","lat":34.94872,"lng":137.095367,"zip":"4460026"},{"town":"桜井町","koaza":"印内南分","lat":34.927914,"lng":137.094669,"zip":"4441154"},{"town":"古井町","koaza":"古井堤","lat":34.931655,"lng":137.095574,"zip":"4460025"},{"town":"桜井町","koaza":"塔元","lat":34.923687,"lng":137.094639,"zip":"4441154"},{"town":"古井町","koaza":"鍋屋町","lat":34.934025,"lng":137.096056,"zip":"4460025"},{"town":"里町","koaza":"八幡","lat":35.001145,"lng":137.098923,"zip":"4460001"},{"town":"木戸町","koaza":"平地","lat":34.897574,"lng":137.09566,"zip":"4441163"},{"town":"小川町","koaza":"欠下","lat":34.909411,"lng":137.0949,"zip":"4441162"},{"town":"桜井町","koaza":"印内北分","lat":34.929308,"lng":137.094835,"zip":"4441154"},{"town":"新田町","koaza":"追田","lat":34.967558,"lng":137.095984,"zip":"4460061"},{"town":"桜井町","koaza":"西町上","lat":34.919775,"lng":137.094012,"zip":"4441154"},{"town":"里町","koaza":"七曲リ","lat":34.996422,"lng":137.096024,"zip":"4460001"},{"town":"桜井町","koaza":"宮西","lat":34.925241,"lng":137.095073,"zip":"4441154"},{"town":"小川町","koaza":"向田","lat":34.907671,"lng":137.096949,"zip":"4441162"},{"town":"安城町","koaza":"清水","lat":34.948112,"lng":137.096661,"zip":"4460026"},{"town":"古井町","koaza":"中屋敷","lat":34.93544,"lng":137.096356,"zip":"4460025"},{"town":"古井町","koaza":"西川","lat":34.93641,"lng":137.096415,"zip":"4460025"},{"town":"桜井町","koaza":"中狭間","lat":34.923228,"lng":137.096816,"zip":"4441154"},{"town":"新田町","koaza":"出郷","lat":34.961986,"lng":137.097673,"zip":"4460061"},{"town":"里町","koaza":"大道畑","lat":34.994379,"lng":137.097171,"zip":"4460001"},{"town":"小川町","koaza":"上太田","lat":34.909772,"lng":137.097512,"zip":"4441162"},{"town":"東町","koaza":"亀塚","lat":34.920069,"lng":137.096927,"zip":"4441153"},{"town":"安城町","koaza":"名広","lat":34.949996,"lng":137.097364,"zip":"4460026"},{"town":"桜井町","koaza":"宮下","lat":34.926135,"lng":137.097494,"zip":"4441154"},{"town":"東町","koaza":"大塚","lat":34.915813,"lng":137.095987,"zip":"4441153"},{"town":"池浦町","koaza":"曲尺手","lat":34.978148,"lng":137.098751,"zip":"4460066"},{"town":"里町","koaza":"大道","lat":34.992092,"lng":137.097844,"zip":"4460001"},{"town":"木戸町","koaza":"中畑","lat":34.899503,"lng":137.098524,"zip":"4441163"},{"town":"安城町","koaza":"拝木","lat":34.948506,"lng":137.098661,"zip":"4460026"},{"town":"姫小川町","koaza":"姫野池","lat":34.913656,"lng":137.09876,"zip":"4441161"},{"town":"新田町","koaza":"弁天","lat":34.964349,"lng":137.098096,"zip":"4460061"},{"town":"安城町","koaza":"城堀","lat":34.945855,"lng":137.097157,"zip":"4460026"},{"town":"古井町","koaza":"金次","lat":34.937103,"lng":137.097619,"zip":"4460025"},{"town":"桜井町","koaza":"古井堤","lat":34.930713,"lng":137.09767,"zip":"4441154"},{"town":"古井町","koaza":"東川","lat":34.934269,"lng":137.097812,"zip":"4460025"},{"town":"木戸町","koaza":"為門","lat":34.901951,"lng":137.098733,"zip":"4441163"},{"town":"東町","koaza":"向田","lat":34.917114,"lng":137.099028,"zip":"4441153"},{"town":"新田町","koaza":"縦町","lat":34.966007,"lng":137.098191,"zip":"4460061"},{"town":"浜屋町","koaza":"宮西","lat":34.9902,"lng":137.100187,"zip":"4460006"},{"town":"里町","koaza":"足取","lat":34.996824,"lng":137.098271,"zip":"4460001"},{"town":"小川町","koaza":"五反田","lat":34.903983,"lng":137.099075,"zip":"4441162"},{"town":"古井町","koaza":"御堂山","lat":34.933219,"lng":137.098065,"zip":"4460025"},{"town":"上条町","koaza":"小堤","lat":34.950568,"lng":137.099349,"zip":"4460023"},{"town":"東町","koaza":"秋葉下","lat":34.918128,"lng":137.099429,"zip":"4441153"},{"town":"新田町","koaza":"郷東","lat":34.962248,"lng":137.099154,"zip":"4460061"},{"town":"上条町","koaza":"郷場","lat":34.95192,"lng":137.098432,"zip":"4460023"},{"town":"浜屋町","koaza":"屋敷山","lat":34.988435,"lng":137.099329,"zip":"4460006"},{"town":"小川町","koaza":"西六反","lat":34.90597,"lng":137.099767,"zip":"4441162"},{"town":"北山崎町","koaza":"柳原","lat":34.969841,"lng":137.102216,"zip":"4460011"},{"town":"新田町","koaza":"吉池","lat":34.975448,"lng":137.100007,"zip":"4460061"},{"town":"里町","koaza":"石橋","lat":34.995381,"lng":137.098173,"zip":"4460001"},{"town":"桜井町","koaza":"太田","lat":34.928472,"lng":137.098936,"zip":"4441154"},{"town":"上条町","koaza":"西浦","lat":34.953001,"lng":137.099259,"zip":"4460023"},{"town":"里町","koaza":"八幡山","lat":35.002792,"lng":137.099065,"zip":"4460001"},{"town":"安城町","koaza":"前田","lat":34.943926,"lng":137.098983,"zip":"4460026"},{"town":"小川町","koaza":"大帳前","lat":34.910146,"lng":137.100607,"zip":"4441162"},{"town":"小川町","koaza":"福地","lat":34.909245,"lng":137.102511,"zip":"4441162"},{"town":"古井町","koaza":"彼岸田","lat":34.933427,"lng":137.099838,"zip":"4460025"},{"town":"上条町","koaza":"熊野林","lat":34.953627,"lng":137.100705,"zip":"4460023"},{"town":"小川町","koaza":"大帳","lat":34.912156,"lng":137.101042,"zip":"4441162"},{"town":"安城町","koaza":"赤塚","lat":34.946543,"lng":137.100033,"zip":"4460026"},{"town":"小川町","koaza":"小向","lat":34.900726,"lng":137.101538,"zip":"4441162"},{"town":"上条町","koaza":"千度","lat":34.956262,"lng":137.099598,"zip":"4460023"},{"town":"上条町","koaza":"報土寺","lat":34.951661,"lng":137.099064,"zip":"4460023"},{"town":"尾崎町","koaza":"西向","lat":34.981141,"lng":137.101225,"zip":"4460004"},{"town":"大岡町","koaza":"荒古","lat":34.958399,"lng":137.101473,"zip":"4460017"},{"town":"姫小川町","koaza":"姫池田","lat":34.914445,"lng":137.100867,"zip":"4441161"},{"town":"上条町","koaza":"経根","lat":34.94897,"lng":137.100697,"zip":"4460023"},{"town":"安城町","koaza":"横町","lat":34.946234,"lng":137.100972,"zip":"4460026"},{"town":"里町","koaza":"日吉","lat":35.007306,"lng":137.101464,"zip":"4460001"},{"town":"木戸町","koaza":"下無田池","lat":34.90249,"lng":137.100911,"zip":"4441163"},{"town":"東町","koaza":"下池田","lat":34.916505,"lng":137.101596,"zip":"4441153"},{"town":"上条町","koaza":"小薮","lat":34.955313,"lng":137.101302,"zip":"4460023"},{"town":"上条町","koaza":"南組","lat":34.950452,"lng":137.101414,"zip":"4460023"},{"town":"北山崎町","koaza":"大土塚","lat":34.964965,"lng":137.103228,"zip":"4460011"},{"town":"里町","koaza":"三郎","lat":34.998472,"lng":137.10852,"zip":"4460001"},{"town":"小川町","koaza":"上六反","lat":34.90433,"lng":137.102276,"zip":"4441162"},{"town":"安城町","koaza":"多宝坊","lat":34.944383,"lng":137.100681,"zip":"4460026"},{"town":"浜屋町","koaza":"南裏","lat":34.984602,"lng":137.102021,"zip":"4460006"},{"town":"浜屋町","koaza":"宮東","lat":34.990235,"lng":137.102356,"zip":"4460006"},{"town":"安城町","koaza":"常福寺","lat":34.947589,"lng":137.101217,"zip":"4460026"},{"town":"安城町","koaza":"県木","lat":34.944961,"lng":137.10216,"zip":"4460026"},{"town":"北山崎町","koaza":"大山","lat":34.967675,"lng":137.102399,"zip":"4460011"},{"town":"東町","koaza":"上池田","lat":34.918542,"lng":137.102308,"zip":"4441153"},{"town":"上条町","koaza":"西荒井","lat":34.952875,"lng":137.101225,"zip":"4460023"},{"town":"大岡町","koaza":"船人","lat":34.957182,"lng":137.100868,"zip":"4460017"},{"town":"里町","koaza":"証文山","lat":34.991497,"lng":137.105147,"zip":"4460001"},{"town":"安城町","koaza":"屋下","lat":34.945971,"lng":137.102001,"zip":"4460026"},{"town":"上条町","koaza":"観音","lat":34.949061,"lng":137.102935,"zip":"4460023"},{"town":"小川町","koaza":"天神","lat":34.902738,"lng":137.103936,"zip":"4441162"},{"town":"上条町","koaza":"中屋敷","lat":34.952063,"lng":137.102805,"zip":"4460023"},{"town":"川島町","koaza":"中田","lat":34.926963,"lng":137.10312,"zip":"4441152"},{"town":"川島町","koaza":"浦辻","lat":34.924848,"lng":137.103033,"zip":"4441152"},{"town":"里町","koaza":"御坊主","lat":34.997586,"lng":137.103017,"zip":"4460001"},{"town":"大岡町","koaza":"唐津","lat":34.957209,"lng":137.102505,"zip":"4460017"},{"town":"山崎町","koaza":"大手","lat":34.954882,"lng":137.104024,"zip":"4460016"},{"town":"里町","koaza":"高根","lat":35.002225,"lng":137.108761,"zip":"4460001"},{"town":"安城町","koaza":"横堤","lat":34.936436,"lng":137.10485,"zip":"4460026"},{"town":"北山崎町","koaza":"西山","lat":34.970034,"lng":137.104316,"zip":"4460011"},{"town":"尾崎町","koaza":"大縄","lat":34.980592,"lng":137.100919,"zip":"4460004"},{"town":"北山崎町","koaza":"北浦","lat":34.968738,"lng":137.10619,"zip":"4460011"},{"town":"大岡町","koaza":"荒神","lat":34.957611,"lng":137.104317,"zip":"4460017"},{"town":"安城町","koaza":"三平","lat":34.943916,"lng":137.103667,"zip":"4460026"},{"town":"大岡町","koaza":"宮前","lat":34.95904,"lng":137.105115,"zip":"4460017"},{"town":"川島町","koaza":"西側屋敷","lat":34.92418,"lng":137.105324,"zip":"4441152"},{"town":"上条町","koaza":"堂前","lat":34.949895,"lng":137.103761,"zip":"4460023"},{"town":"大岡町","koaza":"文明","lat":34.961361,"lng":137.103939,"zip":"4460017"},{"town":"山崎町","koaza":"溝川","lat":34.956714,"lng":137.104346,"zip":"4460016"},{"town":"川島町","koaza":"山伏","lat":34.92459,"lng":137.104306,"zip":"4441152"},{"town":"川島町","koaza":"西屋敷","lat":34.927569,"lng":137.104989,"zip":"4441152"},{"town":"安城町","koaza":"圦上","lat":34.945162,"lng":137.104154,"zip":"4460026"},{"town":"上条町","koaza":"浮橋","lat":34.950395,"lng":137.104801,"zip":"4460023"},{"town":"大岡町","koaza":"源覚","lat":34.960635,"lng":137.105865,"zip":"4460017"},{"town":"上条町","koaza":"東組","lat":34.951414,"lng":137.104038,"zip":"4460023"},{"town":"古井町","koaza":"下橋下","lat":34.930624,"lng":137.104584,"zip":"4460025"},{"town":"川島町","koaza":"渡合","lat":34.926057,"lng":137.105629,"zip":"4441152"},{"town":"浜屋町","koaza":"北裏","lat":34.987432,"lng":137.105118,"zip":"4460006"},{"town":"山崎町","koaza":"境","lat":34.95357,"lng":137.105931,"zip":"4460016"},{"town":"尾崎町","koaza":"堤下","lat":34.978906,"lng":137.107597,"zip":"4460004"},{"town":"上条町","koaza":"背戸田","lat":34.952676,"lng":137.104191,"zip":"4460023"},{"town":"川島町","koaza":"太田屋敷","lat":34.923955,"lng":137.106229,"zip":"4441152"},{"town":"山崎町","koaza":"向","lat":34.95558,"lng":137.106232,"zip":"4460016"},{"town":"上条町","koaza":"根崎","lat":34.949737,"lng":137.105922,"zip":"4460023"},{"town":"川島町","koaza":"上屋敷","lat":34.929227,"lng":137.107278,"zip":"4441152"},{"town":"北山崎町","koaza":"築地","lat":34.972585,"lng":137.107663,"zip":"4460011"},{"town":"川島町","koaza":"四反田","lat":34.931257,"lng":137.106701,"zip":"4441152"},{"town":"上条町","koaza":"吹付","lat":34.951082,"lng":137.107215,"zip":"4460023"},{"town":"川島町","koaza":"談喜所","lat":34.926238,"lng":137.106634,"zip":"4441152"},{"town":"尾崎町","koaza":"追池","lat":34.979652,"lng":137.107917,"zip":"4460004"},{"town":"尾崎町","koaza":"南畔","lat":34.975598,"lng":137.106644,"zip":"4460004"},{"town":"宇頭茶屋町","koaza":"北裏","lat":34.985782,"lng":137.107726,"zip":"4460005"},{"town":"川島町","koaza":"東屋敷","lat":34.927745,"lng":137.107295,"zip":"4441152"},{"town":"大岡町","koaza":"宮東","lat":34.960221,"lng":137.107191,"zip":"4460017"},{"town":"大岡町","koaza":"前畑","lat":34.957696,"lng":137.10659,"zip":"4460017"},{"town":"安城町","koaza":"座頭池","lat":34.93613,"lng":137.107425,"zip":"4460026"},{"town":"川島町","koaza":"野中","lat":34.921701,"lng":137.107684,"zip":"4441152"},{"town":"里町","koaza":"壱斗山","lat":34.993151,"lng":137.110732,"zip":"4460001"},{"town":"安城町","koaza":"三本木","lat":34.938907,"lng":137.107702,"zip":"4460026"},{"town":"山崎町","koaza":"城跡","lat":34.952998,"lng":137.108184,"zip":"4460016"},{"town":"高木町","koaza":"鳥居","lat":34.954304,"lng":137.107756,"zip":"4460015"},{"town":"高木町","koaza":"高畑","lat":34.95564,"lng":137.107938,"zip":"4460015"},{"town":"川島町","koaza":"松原","lat":34.930617,"lng":137.107872,"zip":"4441152"},{"town":"安城町","koaza":"ハシカ","lat":34.934512,"lng":137.10773,"zip":"4460026"},{"town":"川島町","koaza":"七反","lat":34.92276,"lng":137.108652,"zip":"4441152"},{"town":"宇頭茶屋町","koaza":"宮前","lat":34.98362,"lng":137.109052,"zip":"4460005"},{"town":"川島町","koaza":"藤野","lat":34.93103,"lng":137.109957,"zip":"4441152"},{"town":"宇頭茶屋町","koaza":"道下","lat":34.98286,"lng":137.108458,"zip":"4460005"},{"town":"北山崎町","koaza":"蓮台","lat":34.960252,"lng":137.109731,"zip":"4460011"},{"town":"高木町","koaza":"下屋敷","lat":34.957941,"lng":137.109383,"zip":"4460015"},{"town":"大岡町","koaza":"山伏","lat":34.958738,"lng":137.108496,"zip":"4460017"},{"town":"高木町","koaza":"知事構","lat":34.955627,"lng":137.108719,"zip":"4460015"},{"town":"高木町","koaza":"上屋敷","lat":34.959392,"lng":137.108901,"zip":"4460015"},{"town":"北山崎町","koaza":"干河原","lat":34.961782,"lng":137.109344,"zip":"4460011"},{"town":"河野町","koaza":"内田","lat":34.93456,"lng":137.110025,"zip":"4460024"},{"town":"村高町","koaza":"たが","lat":34.929619,"lng":137.109707,"zip":"4441151"},{"town":"西別所町","koaza":"牛引","lat":34.968989,"lng":137.109705,"zip":"4460012"},{"town":"村高町","koaza":"藤野里","lat":34.925885,"lng":137.111535,"zip":"4441151"},{"town":"尾崎町","koaza":"豊阿弥","lat":34.977211,"lng":137.111229,"zip":"4460004"},{"town":"尾崎町","koaza":"郷西","lat":34.979423,"lng":137.111407,"zip":"4460004"},{"town":"高木町","koaza":"御用米","lat":34.957984,"lng":137.110822,"zip":"4460015"},{"town":"山崎町","koaza":"鷺針","lat":34.952119,"lng":137.110428,"zip":"4460016"},{"town":"橋目町","koaza":"郷前","lat":34.985275,"lng":137.110931,"zip":"4460002"},{"town":"西別所町","koaza":"山新田","lat":34.966011,"lng":137.110861,"zip":"4460012"},{"town":"橋目町","koaza":"北茶屋浦","lat":34.988756,"lng":137.112339,"zip":"4460002"},{"town":"西別所町","koaza":"観音","lat":34.963379,"lng":137.111238,"zip":"4460012"},{"town":"高木町","koaza":"神子田","lat":34.958753,"lng":137.111366,"zip":"4460015"},{"town":"山崎町","koaza":"惣作","lat":34.952657,"lng":137.112125,"zip":"4460016"},{"town":"橋目町","koaza":"中茶臼","lat":34.984535,"lng":137.111865,"zip":"4460002"},{"town":"別郷町","koaza":"油石","lat":34.961759,"lng":137.112783,"zip":"4460014"},{"town":"橋目町","koaza":"新居林","lat":34.982965,"lng":137.111189,"zip":"4460002"},{"town":"尾崎町","koaza":"郷前","lat":34.97828,"lng":137.112006,"zip":"4460004"},{"town":"河野町","koaza":"藤野郷","lat":34.933119,"lng":137.111617,"zip":"4460024"},{"town":"村高町","koaza":"楠","lat":34.924476,"lng":137.113091,"zip":"4441151"},{"town":"西別所町","koaza":"戌新畑","lat":34.969862,"lng":137.111973,"zip":"4460012"},{"town":"河野町","koaza":"皀角","lat":34.931586,"lng":137.112351,"zip":"4460024"},{"town":"橋目町","koaza":"茶臼","lat":34.991246,"lng":137.114636,"zip":"4460002"},{"town":"西別所町","koaza":"中新田","lat":34.965958,"lng":137.112554,"zip":"4460012"},{"town":"高木町","koaza":"半崎","lat":34.959621,"lng":137.111778,"zip":"4460015"},{"town":"尾崎町","koaza":"大塚","lat":34.975837,"lng":137.114579,"zip":"4460004"},{"town":"東別所町","koaza":"戌新畑","lat":34.969461,"lng":137.113417,"zip":"4460013"},{"town":"村高町","koaza":"藤野元","lat":34.928585,"lng":137.114564,"zip":"4441151"},{"town":"西別所町","koaza":"本郷","lat":34.96375,"lng":137.113462,"zip":"4460012"},{"town":"尾崎町","koaza":"宮裏","lat":34.982414,"lng":137.111947,"zip":"4460004"},{"town":"別郷町","koaza":"下前田","lat":34.959629,"lng":137.113973,"zip":"4460014"},{"town":"東別所町","koaza":"応","lat":34.966757,"lng":137.114048,"zip":"4460013"},{"town":"河野町","koaza":"小榎","lat":34.933528,"lng":137.114561,"zip":"4460024"},{"town":"尾崎町","koaza":"中屋敷","lat":34.978185,"lng":137.114363,"zip":"4460004"},{"town":"橋目町","koaza":"宮東","lat":34.987255,"lng":137.114485,"zip":"4460002"},{"town":"別郷町","koaza":"荒子","lat":34.961579,"lng":137.114551,"zip":"4460014"},{"town":"東別所町","koaza":"新開","lat":34.969292,"lng":137.114813,"zip":"4460013"},{"town":"河野町","koaza":"下リ道","lat":34.931396,"lng":137.114007,"zip":"4460024"},{"town":"尾崎町","koaza":"東屋敷","lat":34.977373,"lng":137.114714,"zip":"4460004"},{"town":"別郷町","koaza":"屋敷","lat":34.96064,"lng":137.114831,"zip":"4460014"},{"town":"東別所町","koaza":"屋敷","lat":34.964716,"lng":137.117055,"zip":"4460013"},{"town":"尾崎町","koaza":"西勘定","lat":34.976632,"lng":137.116582,"zip":"4460004"},{"town":"柿さき町","koaza":"御用地","lat":34.979346,"lng":137.116742,"zip":"4460003"},{"town":"柿さき町","koaza":"東山","lat":34.981189,"lng":137.118735,"zip":"4460003"},{"town":"柿さき町","koaza":"長合","lat":34.974878,"lng":137.120728,"zip":"4460003"},{"town":"柿さき町","koaza":"宮ノ西","lat":34.979116,"lng":137.120993,"zip":"4460003"},{"town":"柿さき町","koaza":"南屋敷","lat":34.976057,"lng":137.121405,"zip":"4460003"},{"town":"柿さき町","koaza":"下リ坂","lat":34.979621,"lng":137.123184,"zip":"4460003"},{"town":"柿さき町","koaza":"四十目","lat":34.977372,"lng":137.120678,"zip":"4460003"},{"town":"柿さき町","koaza":"北屋敷","lat":34.977726,"lng":137.122009,"zip":"4460003"},{"town":"柿さき町","koaza":"竹久","lat":34.977086,"lng":137.122863,"zip":"4460003"},{"town":"今本町","koaza":"鴻ノ池","lat":34.998519,"lng":137.077209,"zip":"4460008"},{"town":"今本町","koaza":"西向山","lat":34.996893,"lng":137.071458,"zip":"4460008"},{"town":"今本町","koaza":"平松","lat":34.997584,"lng":137.071112,"zip":"4460008"},{"town":"里町","koaza":"二タ股","lat":35.000594,"lng":137.087888,"zip":"4460001"},{"town":"小川町","koaza":"的場","lat":34.91341,"lng":137.091615,"zip":"4441162"},{"town":"姫小川町","koaza":"堂開道","lat":34.913832,"lng":137.093114,"zip":"4441161"},{"town":"小川町","koaza":"堂開道","lat":34.912341,"lng":137.091822,"zip":"4441162"},{"town":"姫小川町","koaza":"姫下","lat":34.914411,"lng":137.095974,"zip":"4441161"},{"town":"桜井町","koaza":"西町下","lat":34.916673,"lng":137.091307,"zip":"4441154"},{"town":"里町","koaza":"足取北側","lat":34.999904,"lng":137.10156,"zip":"4460001"},{"town":"里町","koaza":"足取中ノ切","lat":34.996324,"lng":137.10024,"zip":"4460001"},{"town":"里町","koaza":"雁戸塚","lat":34.999195,"lng":137.094211,"zip":"4460001"},{"town":"里町","koaza":"用手木","lat":34.998076,"lng":137.093665,"zip":"4460001"},{"town":"里町","koaza":"新屋敷","lat":34.997759,"lng":137.093042,"zip":"4460001"},{"town":"里町","koaza":"池畔","lat":35.000232,"lng":137.090588,"zip":"4460001"},{"town":"今本町","koaza":"西ノ山","lat":34.996385,"lng":137.076538,"zip":"4460008"},{"town":"今本町","koaza":"西大塚","lat":34.993941,"lng":137.075259,"zip":"4460008"},{"town":"今本町","koaza":"長根","lat":34.994099,"lng":137.073893,"zip":"4460008"},{"town":"東栄町","koaza":"野池畑","lat":34.989143,"lng":137.090533,"zip":"4460007"},{"town":"里町","koaza":"脇ノ田","lat":34.995325,"lng":137.084964,"zip":"4460001"},{"town":"里町","koaza":"高縄手","lat":34.997224,"lng":137.089317,"zip":"4460001"},{"town":"里町","koaza":"重原田","lat":34.99618,"lng":137.094242,"zip":"4460001"},{"town":"里町","koaza":"下義信坊","lat":34.997285,"lng":137.096772,"zip":"4460001"},{"town":"里町","koaza":"池ノ浦","lat":34.994035,"lng":137.094951,"zip":"4460001"},{"town":"里町","koaza":"東山","lat":34.992416,"lng":137.101331,"zip":"4460001"},{"town":"寺領町","koaza":"坂口","lat":34.898023,"lng":137.092783,"zip":"4441166"},{"town":"木戸町","koaza":"惣作","lat":34.899182,"lng":137.0948,"zip":"4441163"},{"town":"寺領町","koaza":"法祐","lat":34.898686,"lng":137.089325,"zip":"4441166"},{"town":"小川町","koaza":"馬場瀬","lat":34.906168,"lng":137.104085,"zip":"4441162"},{"town":"小川町","koaza":"間田","lat":34.910888,"lng":137.092299,"zip":"4441162"},{"town":"桜井町","koaza":"茶屋坊","lat":34.917691,"lng":137.091068,"zip":"4441154"},{"town":"安城町","koaza":"大山","lat":34.94738,"lng":137.084161,"zip":"4460026"},{"town":"大岡町","koaza":"的場","lat":34.958545,"lng":137.107501,"zip":"4460017"},{"town":"高木町","koaza":"油田","lat":34.956843,"lng":137.109483,"zip":"4460015"},{"town":"上条町","koaza":"北浦","lat":34.952233,"lng":137.107409,"zip":"4460023"},{"town":"上条町","koaza":"入谷","lat":34.952707,"lng":137.100869,"zip":"4460023"},{"town":"上条町","koaza":"北組","lat":34.953146,"lng":137.102917,"zip":"4460023"},{"town":"安城町","koaza":"照路","lat":34.948925,"lng":137.089818,"zip":"4460026"},{"town":"安城町","koaza":"戸崎","lat":34.94649,"lng":137.096121,"zip":"4460026"},{"town":"上条町","koaza":"機操","lat":34.951805,"lng":137.099567,"zip":"4460023"},{"town":"堀内町","koaza":"水落","lat":34.931114,"lng":137.08613,"zip":"4441155"},{"town":"堀内町","koaza":"北阿原上","lat":34.931986,"lng":137.088581,"zip":"4441155"},{"town":"古井町","koaza":"山崎根","lat":34.933356,"lng":137.087028,"zip":"4460025"},{"town":"古井町","koaza":"南揚リ登","lat":34.934627,"lng":137.086053,"zip":"4460025"},{"town":"古井町","koaza":"中本神","lat":34.932844,"lng":137.095606,"zip":"4460025"},{"town":"古井町","koaza":"軽桶","lat":34.934203,"lng":137.095022,"zip":"4460025"},{"town":"古井町","koaza":"十王堂","lat":34.932786,"lng":137.097731,"zip":"4460025"},{"town":"古井町","koaza":"塚下","lat":34.936115,"lng":137.098528,"zip":"4460025"},{"town":"古井町","koaza":"塚越","lat":34.935497,"lng":137.097766,"zip":"4460025"},{"town":"古井町","koaza":"大堀","lat":34.936466,"lng":137.089152,"zip":"4460025"},{"town":"古井町","koaza":"冠木山","lat":34.931585,"lng":137.096712,"zip":"4460025"},{"town":"古井町","koaza":"南淡良","lat":34.93029,"lng":137.090892,"zip":"4460025"},{"town":"堀内町","koaza":"切欠","lat":34.930095,"lng":137.090142,"zip":"4441155"},{"town":"安城町","koaza":"天草東","lat":34.942189,"lng":137.090749,"zip":"4460026"},{"town":"安城町","koaza":"亀山下","lat":34.941626,"lng":137.09108,"zip":"4460026"},{"town":"安城町","koaza":"八幡前","lat":34.943075,"lng":137.097344,"zip":"4460026"},{"town":"河野町","koaza":"阿原","lat":34.933826,"lng":137.112851,"zip":"4460024"},{"town":"河野町","koaza":"土井浦","lat":34.934188,"lng":137.111097,"zip":"4460024"},{"town":"安城町","koaza":"半ノ木","lat":34.940993,"lng":137.094985,"zip":"4460026"},{"town":"福釜町","koaza":"清水","lat":34.942224,"lng":137.041813,"zip":"4460052"},{"town":"赤松町","koaza":"小山","lat":34.938285,"lng":137.069318,"zip":"4460046"},{"town":"赤松町","koaza":"恋塚","lat":34.939507,"lng":137.071162,"zip":"4460046"},{"town":"村高町","koaza":"郷西","lat":34.927214,"lng":137.109662,"zip":"4441151"},{"town":"桜井町","koaza":"森田","lat":34.918729,"lng":137.090143,"zip":"4441154"},{"town":"桜井町","koaza":"桜林","lat":34.926159,"lng":137.095688,"zip":"4441154"},{"town":"桜井町","koaza":"蓮台","lat":34.919969,"lng":137.089037,"zip":"4441154"},{"town":"桜井町","koaza":"北新田","lat":34.918179,"lng":137.088853,"zip":"4441154"},{"town":"桜井町","koaza":"干地","lat":34.926977,"lng":137.094242,"zip":"4441154"},{"town":"和泉町","koaza":"小塚","lat":34.929261,"lng":137.060002,"zip":"4441221"},{"town":"和泉町","koaza":"大上","lat":34.930989,"lng":137.052384,"zip":"4441221"},{"town":"東端町","koaza":"毘沙田","lat":34.900768,"lng":137.018544,"zip":"4441213"},{"town":"東端町","koaza":"中田","lat":34.900022,"lng":137.023058,"zip":"4441213"},{"town":"東端町","koaza":"新子","lat":34.902044,"lng":137.028364,"zip":"4441213"},{"town":"東端町","koaza":"大久戸","lat":34.901875,"lng":137.029064,"zip":"4441213"},{"town":"根崎町","koaza":"東家下","lat":34.898597,"lng":137.037828,"zip":"4441211"},{"town":"根崎町","koaza":"上小久戸","lat":34.900292,"lng":137.034425,"zip":"4441211"},{"town":"東端町","koaza":"南内浜","lat":34.896512,"lng":137.027012,"zip":"4441213"},{"town":"根崎町","koaza":"内浜","lat":34.898338,"lng":137.02799,"zip":"4441211"},{"town":"東端町","koaza":"東田","lat":34.899851,"lng":137.027012,"zip":"4441213"},{"town":"東端町","koaza":"内浜","lat":34.899783,"lng":137.025797,"zip":"4441213"},{"town":"東端町","koaza":"丸ノ内","lat":34.899819,"lng":137.018462,"zip":"4441213"},{"town":"城ヶ入町","koaza":"犬殺","lat":34.898261,"lng":137.04695,"zip":"4460000"},{"town":"小川町","koaza":"西扇林","lat":34.904415,"lng":137.079422,"zip":"4441162"},{"town":"小川町","koaza":"高曽根","lat":34.910088,"lng":137.072458,"zip":"4441162"},{"town":"小川町","koaza":"新田山","lat":34.911368,"lng":137.071052,"zip":"4441162"},{"town":"城ヶ入町","koaza":"北立出","lat":34.911171,"lng":137.060926,"zip":"4460000"},{"town":"東端町","koaza":"蓮台","lat":34.907901,"lng":137.025617,"zip":"4441213"},{"town":"東端町","koaza":"白萩","lat":34.916657,"lng":137.028489,"zip":"4441213"},{"town":"東端町","koaza":"宮下","lat":34.912756,"lng":137.024008,"zip":"4441213"},{"town":"東端町","koaza":"小山","lat":34.911919,"lng":137.023569,"zip":"4441213"},{"town":"東端町","koaza":"薮崎","lat":34.909464,"lng":137.019945,"zip":"4441213"},{"town":"東端町","koaza":"井ノ口","lat":34.909977,"lng":137.020223,"zip":"4441213"},{"town":"東端町","koaza":"新長田","lat":34.918323,"lng":137.031856,"zip":"4441213"},{"town":"東端町","koaza":"青ノ山","lat":34.918556,"lng":137.033803,"zip":"4441213"},{"town":"東端町","koaza":"北山","lat":34.916072,"lng":137.035066,"zip":"4441213"},{"town":"東端町","koaza":"西大坪","lat":34.919788,"lng":137.03418,"zip":"4441213"},{"town":"東端町","koaza":"山ノ崎","lat":34.919802,"lng":137.033221,"zip":"4441213"},{"town":"東端町","koaza":"中大坪","lat":34.920949,"lng":137.036912,"zip":"4441213"},{"town":"東端町","koaza":"東大坪","lat":34.922007,"lng":137.040246,"zip":"4441213"},{"town":"東端町","koaza":"東荒子","lat":34.921776,"lng":137.041408,"zip":"4441213"},{"town":"東端町","koaza":"北大坪","lat":34.922465,"lng":137.040394,"zip":"4441213"},{"town":"和泉町","koaza":"宮下","lat":34.923638,"lng":137.050249,"zip":"4441221"},{"town":"和泉町","koaza":"西湫","lat":34.925012,"lng":137.0438,"zip":"4441221"},{"town":"榎前町","koaza":"道合","lat":34.927777,"lng":137.040321,"zip":"4441214"},{"town":"二本木町","koaza":"荒田","lat":34.968194,"lng":137.043752,"zip":"4460054"},{"town":"箕輪町","koaza":"祢宜田","lat":34.961845,"lng":137.067698,"zip":"4460051"},{"town":"横山町","koaza":"管池","lat":34.964175,"lng":137.07135,"zip":"4460045"},{"town":"横山町","koaza":"狐穴","lat":34.966148,"lng":137.073579,"zip":"4460045"},{"town":"池浦町","koaza":"茶筅木","lat":34.969816,"lng":137.080216,"zip":"4460066"},{"town":"小川町","koaza":"北三ツ塚","lat":34.909861,"lng":137.08849,"zip":"4441162"},{"town":"別郷町","koaza":"東田","lat":34.96068,"lng":137.116604,"zip":"4460014"},{"town":"東別所町","koaza":"東畑","lat":34.964706,"lng":137.116582,"zip":"4460013"},{"town":"東別所町","koaza":"廻間","lat":34.967806,"lng":137.115612,"zip":"4460013"},{"town":"西別所町","koaza":"北牛引","lat":34.969945,"lng":137.111694,"zip":"4460012"},{"town":"北山崎町","koaza":"猪山","lat":34.970679,"lng":137.11052,"zip":"4460011"},{"town":"北山崎町","koaza":"天神","lat":34.959956,"lng":137.110957,"zip":"4460011"},{"town":"新田町","koaza":"弁天前","lat":34.967598,"lng":137.087427,"zip":"4460061"},{"town":"新田町","koaza":"丼東","lat":34.968694,"lng":137.085975,"zip":"4460061"},{"town":"池浦町","koaza":"境目","lat":34.971081,"lng":137.07529,"zip":"4460066"},{"town":"美園町","koaza":"薮田","lat":34.978784,"lng":137.047137,"zip":"4460076"},{"town":"篠目町","koaza":"池下","lat":34.984093,"lng":137.069415,"zip":"4460073"},{"town":"篠目町","koaza":"新段留","lat":34.983772,"lng":137.073629,"zip":"4460073"},{"town":"東栄町","koaza":"東大道山","lat":34.981622,"lng":137.100511,"zip":"4460007"},{"town":"尾崎町","koaza":"上大縄","lat":34.982108,"lng":137.102586,"zip":"4460004"},{"town":"宇頭茶屋町","koaza":"南裏","lat":34.983082,"lng":137.104078,"zip":"4460005"},{"town":"東栄町","koaza":"柳原","lat":34.984138,"lng":137.101552,"zip":"4460007"},{"town":"浜屋町","koaza":"浜道","lat":34.982603,"lng":137.101522,"zip":"4460006"},{"town":"尾崎町","koaza":"柳田","lat":34.980669,"lng":137.105478,"zip":"4460004"},{"town":"尾崎町","koaza":"丸田","lat":34.981584,"lng":137.106837,"zip":"4460004"},{"town":"尾崎町","koaza":"小縄","lat":34.982384,"lng":137.104779,"zip":"4460004"},{"town":"尾崎町","koaza":"北亥池","lat":34.983492,"lng":137.107282,"zip":"4460004"},{"town":"尾崎町","koaza":"南亥池","lat":34.983319,"lng":137.105161,"zip":"4460004"},{"town":"宇頭茶屋町","koaza":"大浜屋敷","lat":34.984725,"lng":137.106565,"zip":"4460005"},{"town":"尾崎町","koaza":"池裏","lat":34.982529,"lng":137.108106,"zip":"4460004"},{"town":"尾崎町","koaza":"亥ノ子","lat":34.981878,"lng":137.111103,"zip":"4460004"},{"town":"尾崎町","koaza":"新田","lat":34.981641,"lng":137.11064,"zip":"4460004"},{"town":"尾崎町","koaza":"宮東","lat":34.980412,"lng":137.113555,"zip":"4460004"},{"town":"尾崎町","koaza":"西屋敷","lat":34.97989,"lng":137.113017,"zip":"4460004"},{"town":"尾崎町","koaza":"市場屋敷","lat":34.979602,"lng":137.114342,"zip":"4460004"},{"town":"尾崎町","koaza":"郷東","lat":34.977978,"lng":137.11608,"zip":"4460004"},{"town":"尾崎町","koaza":"北屋敷","lat":34.978468,"lng":137.11512,"zip":"4460004"},{"town":"柿さき町","koaza":"大境","lat":34.978771,"lng":137.11666,"zip":"4460003"},{"town":"尾崎町","koaza":"北豊阿弥","lat":34.977451,"lng":137.113333,"zip":"4460004"},{"town":"尾崎町","koaza":"西大塚","lat":34.976985,"lng":137.113891,"zip":"4460004"},{"town":"尾崎町","koaza":"東大塚","lat":34.976474,"lng":137.114676,"zip":"4460004"},{"town":"尾崎町","koaza":"土取","lat":34.976258,"lng":137.115956,"zip":"4460004"},{"town":"尾崎町","koaza":"東勘定","lat":34.975545,"lng":137.117656,"zip":"4460004"},{"town":"尾崎町","koaza":"長合","lat":34.974336,"lng":137.118256,"zip":"4460004"},{"town":"柿さき町","koaza":"猪ノ背","lat":34.975423,"lng":137.118993,"zip":"4460003"},{"town":"柿さき町","koaza":"勘定","lat":34.976821,"lng":137.117033,"zip":"4460003"},{"town":"柿さき町","koaza":"大土井","lat":34.976643,"lng":137.117508,"zip":"4460003"},{"town":"柿さき町","koaza":"仏供田","lat":34.97641,"lng":137.1223,"zip":"4460003"},{"town":"柿さき町","koaza":"和志取","lat":34.978988,"lng":137.122333,"zip":"4460003"},{"town":"柿さき町","koaza":"八幡","lat":34.977372,"lng":137.123198,"zip":"4460003"},{"town":"柿さき町","koaza":"宮前","lat":34.978753,"lng":137.121552,"zip":"4460003"},{"town":"柿さき町","koaza":"向ヒ","lat":34.97871,"lng":137.124738,"zip":"4460003"},{"town":"柿さき町","koaza":"和志取下","lat":34.978949,"lng":137.123368,"zip":"4460003"},{"town":"柿さき町","koaza":"十二塚","lat":34.979984,"lng":137.119283,"zip":"4460003"},{"town":"柿さき町","koaza":"神田","lat":34.981275,"lng":137.11929,"zip":"4460003"},{"town":"浜屋町","koaza":"西新切","lat":34.987624,"lng":137.102404,"zip":"4460006"},{"town":"浜屋町","koaza":"北屋敷","lat":34.987135,"lng":137.103067,"zip":"4460006"},{"town":"桜井町","koaza":"西町中","lat":34.918485,"lng":137.092501,"zip":"4441154"},{"town":"住吉町","koaza":"茅原","lat":34.979728,"lng":137.081568,"zip":"4460072"},{"town":"池浦町","koaza":"小山西","lat":34.972611,"lng":137.085383,"zip":"4460066"},{"town":"池浦町","koaza":"池田上","lat":34.973862,"lng":137.08727,"zip":"4460066"},{"town":"柿さき町","koaza":"中尾崎","lat":34.97841,"lng":137.117026,"zip":"4460003"},{"town":"尾崎町","koaza":"北裏","lat":34.979733,"lng":137.115169,"zip":"4460004"},{"town":"尾崎町","koaza":"宮前","lat":34.980361,"lng":137.112321,"zip":"4460004"},{"town":"浜屋町","koaza":"南屋敷","lat":34.986419,"lng":137.103416,"zip":"4460006"},{"town":"浜屋町","koaza":"二番山","lat":34.989679,"lng":137.098255,"zip":"4460006"},{"town":"里町","koaza":"上義信坊","lat":34.999571,"lng":137.099814,"zip":"4460001"},{"town":"里町","koaza":"愚通山","lat":34.996194,"lng":137.099701,"zip":"4460001"},{"town":"里町","koaza":"大道山","lat":34.993998,"lng":137.098623,"zip":"4460001"},{"town":"今本町","koaza":"石畑","lat":34.99763,"lng":137.073734,"zip":"4460008"},{"town":"今本町","koaza":"西石田","lat":34.998302,"lng":137.074124,"zip":"4460008"},{"town":"里町","koaza":"北山畑","lat":34.993352,"lng":137.093814,"zip":"4460001"},{"town":"里町","koaza":"西山畑","lat":34.993484,"lng":137.092773,"zip":"4460001"},{"town":"浜屋町","koaza":"新切屋敷","lat":34.987747,"lng":137.101171,"zip":"4460006"},{"town":"堀内町","koaza":"西新田","lat":34.933784,"lng":137.073827,"zip":"4441155"},{"town":"村高町","koaza":"堤","lat":34.926865,"lng":137.115111,"zip":"4441151"}]