[{"town":"曙町","koaza":"","lat":35.293168,"lng":136.907747,"zip":"4850047"},{"town":"池之内赤堀","koaza":"","lat":35.317749,"lng":136.975928,"zip":"4850000"},{"town":"池之内道木","koaza":"","lat":35.313116,"lng":136.976556,"zip":"4850000"},{"town":"市之久田一丁目","koaza":"","lat":35.272482,"lng":136.920148,"zip":"4850034"},{"town":"市之久田二丁目","koaza":"","lat":35.267363,"lng":136.91757,"zip":"4850034"},{"town":"岩崎一丁目","koaza":"","lat":35.313167,"lng":136.928752,"zip":"4850011"},{"town":"岩崎五丁目","koaza":"","lat":35.309282,"lng":136.926935,"zip":"4850011"},{"town":"岩崎原一丁目","koaza":"","lat":35.316582,"lng":136.92144,"zip":"4850017"},{"town":"岩崎原二丁目","koaza":"","lat":35.31633,"lng":136.92357,"zip":"4850017"},{"town":"岩崎原三丁目","koaza":"","lat":35.315228,"lng":136.926249,"zip":"4850017"},{"town":"応時一丁目","koaza":"","lat":35.283481,"lng":136.932646,"zip":"4850832"},{"town":"応時二丁目","koaza":"","lat":35.281034,"lng":136.93625,"zip":"4850832"},{"town":"応時三丁目","koaza":"","lat":35.280484,"lng":136.933204,"zip":"4850832"},{"town":"応時四丁目","koaza":"","lat":35.281868,"lng":136.930387,"zip":"4850832"},{"town":"大字池之内","koaza":"","lat":35.312572,"lng":136.969039,"zip":"4850000"},{"town":"大字入鹿出新田","koaza":"","lat":35.308338,"lng":136.903839,"zip":"4850000"},{"town":"大字岩崎","koaza":"","lat":35.310957,"lng":136.934044,"zip":"4850000"},{"town":"大字岩崎原新田","koaza":"","lat":35.312575,"lng":136.919064,"zip":"4850000"},{"town":"大字大草","koaza":"","lat":35.301032,"lng":137.002779,"zip":"4850000"},{"town":"大字大山","koaza":"","lat":35.32462,"lng":137.013811,"zip":"4850000"},{"town":"大字上末","koaza":"","lat":35.297156,"lng":136.966271,"zip":"4850000"},{"town":"大字河内屋新田","koaza":"","lat":35.319523,"lng":136.910143,"zip":"4850000"},{"town":"大字北外山","koaza":"","lat":35.277813,"lng":136.930618,"zip":"4850000"},{"town":"大字北外山入鹿新田","koaza":"","lat":35.285,"lng":136.928545,"zip":"4850000"},{"town":"大字久保一色","koaza":"","lat":35.316285,"lng":136.94558,"zip":"4850000"},{"town":"大字小木","koaza":"","lat":35.285274,"lng":136.889436,"zip":"4850000"},{"town":"大字小牧","koaza":"","lat":35.295665,"lng":136.917219,"zip":"4850000"},{"town":"大字小牧原新田","koaza":"","lat":35.297646,"lng":136.932086,"zip":"4850000"},{"town":"大字小松寺","koaza":"","lat":35.307496,"lng":136.946726,"zip":"4850000"},{"town":"大字下末","koaza":"","lat":35.286256,"lng":136.956566,"zip":"4850000"},{"town":"大字西之島","koaza":"","lat":35.300058,"lng":136.898747,"zip":"4850000"},{"town":"大字野口","koaza":"","lat":35.322294,"lng":136.993001,"zip":"4850000"},{"town":"大字林","koaza":"","lat":35.319545,"lng":136.9696,"zip":"4850000"},{"town":"大字東田中","koaza":"","lat":35.298809,"lng":136.943881,"zip":"4850000"},{"town":"大字二重堀","koaza":"","lat":35.291548,"lng":136.94061,"zip":"4850000"},{"town":"大字舟津","koaza":"","lat":35.288024,"lng":136.897257,"zip":"4850000"},{"town":"大字文津","koaza":"","lat":35.305906,"lng":136.946972,"zip":"4850000"},{"town":"大字本庄","koaza":"","lat":35.307548,"lng":136.958044,"zip":"4850000"},{"town":"大字間々","koaza":"","lat":35.29782,"lng":136.908669,"zip":"4850000"},{"town":"大字間々原新田","koaza":"","lat":35.304198,"lng":136.918322,"zip":"4850000"},{"town":"大字三ツ渕","koaza":"","lat":35.295589,"lng":136.889439,"zip":"4850000"},{"town":"大字三ツ渕原新田","koaza":"","lat":35.303869,"lng":136.887086,"zip":"4850000"},{"town":"大字南外山","koaza":"","lat":35.26799,"lng":136.926163,"zip":"4850000"},{"town":"大字村中","koaza":"","lat":35.303587,"lng":136.909002,"zip":"4850000"},{"town":"大字横内","koaza":"","lat":35.314694,"lng":136.915335,"zip":"4850000"},{"town":"大草一色","koaza":"","lat":35.290857,"lng":137.009715,"zip":"4850000"},{"town":"大草北","koaza":"","lat":35.297913,"lng":136.998992,"zip":"4850000"},{"town":"大草太良上","koaza":"","lat":35.305109,"lng":137.008325,"zip":"4850000"},{"town":"大草太良下","koaza":"","lat":35.299098,"lng":137.001929,"zip":"4850000"},{"town":"大草太良中","koaza":"","lat":35.301287,"lng":137.006464,"zip":"4850000"},{"town":"大草藤助","koaza":"","lat":35.296456,"lng":137.006509,"zip":"4850000"},{"town":"大草中","koaza":"","lat":35.287785,"lng":136.991955,"zip":"4850000"},{"town":"大草七重","koaza":"","lat":35.305631,"lng":136.995989,"zip":"4850000"},{"town":"大草西","koaza":"","lat":35.282446,"lng":136.988534,"zip":"4850000"},{"town":"大草東","koaza":"","lat":35.286812,"lng":137.000819,"zip":"4850000"},{"town":"大草深洞上","koaza":"","lat":35.288262,"lng":137.009152,"zip":"4850000"},{"town":"大草南","koaza":"","lat":35.284154,"lng":136.993686,"zip":"4850000"},{"town":"大山中","koaza":"","lat":35.314649,"lng":137.007365,"zip":"4850000"},{"town":"大山東","koaza":"","lat":35.315942,"lng":137.012616,"zip":"4850000"},{"town":"大山南","koaza":"","lat":35.315188,"lng":137.001773,"zip":"4850000"},{"town":"小針一丁目","koaza":"","lat":35.276836,"lng":136.91293,"zip":"4850037"},{"town":"小針二丁目","koaza":"","lat":35.272599,"lng":136.914594,"zip":"4850037"},{"town":"小針三丁目","koaza":"","lat":35.267542,"lng":136.913941,"zip":"4850037"},{"town":"掛割町","koaza":"","lat":35.276108,"lng":136.923847,"zip":"4850032"},{"town":"春日寺一丁目","koaza":"","lat":35.260241,"lng":136.929399,"zip":"4850025"},{"town":"春日寺二丁目","koaza":"","lat":35.260894,"lng":136.931311,"zip":"4850025"},{"town":"春日寺三丁目","koaza":"","lat":35.261133,"lng":136.933354,"zip":"4850025"},{"town":"川西一丁目","koaza":"","lat":35.284268,"lng":136.907838,"zip":"4850045"},{"town":"川西二丁目","koaza":"","lat":35.283468,"lng":136.909948,"zip":"4850045"},{"town":"川西三丁目","koaza":"","lat":35.281141,"lng":136.907495,"zip":"4850045"},{"town":"久保一色東一丁目","koaza":"","lat":35.32101,"lng":136.944949,"zip":"4850001"},{"town":"久保一色東二丁目","koaza":"","lat":35.32165,"lng":136.948237,"zip":"4850001"},{"town":"久保一色南一丁目","koaza":"","lat":35.31811,"lng":136.934958,"zip":"4850007"},{"town":"久保一色南二丁目","koaza":"","lat":35.316048,"lng":136.937468,"zip":"4850007"},{"town":"久保新町","koaza":"","lat":35.31174,"lng":136.93971,"zip":"4850006"},{"town":"久保本町","koaza":"","lat":35.313637,"lng":136.939585,"zip":"4850005"},{"town":"郷中一丁目","koaza":"","lat":35.278449,"lng":136.919346,"zip":"4850033"},{"town":"郷中二丁目","koaza":"","lat":35.277024,"lng":136.918906,"zip":"4850033"},{"town":"郷西町","koaza":"","lat":35.295758,"lng":136.956411,"zip":"4850823"},{"town":"古雅一丁目","koaza":"","lat":35.301721,"lng":136.982068,"zip":"4850814"},{"town":"古雅二丁目","koaza":"","lat":35.301388,"lng":136.979172,"zip":"4850814"},{"town":"古雅三丁目","koaza":"","lat":35.302961,"lng":136.976437,"zip":"4850814"},{"town":"古雅四丁目","koaza":"","lat":35.3046,"lng":136.973543,"zip":"4850814"},{"town":"小木一丁目","koaza":"","lat":35.283451,"lng":136.901904,"zip":"4850058"},{"town":"小木二丁目","koaza":"","lat":35.281889,"lng":136.898899,"zip":"4850058"},{"town":"小木三丁目","koaza":"","lat":35.278345,"lng":136.896931,"zip":"4850058"},{"town":"小木四丁目","koaza":"","lat":35.276608,"lng":136.895135,"zip":"4850058"},{"town":"小木五丁目","koaza":"","lat":35.274236,"lng":136.893108,"zip":"4850058"},{"town":"小木西一丁目","koaza":"","lat":35.281076,"lng":136.893953,"zip":"4850057"},{"town":"小木西二丁目","koaza":"","lat":35.275989,"lng":136.889851,"zip":"4850057"},{"town":"小木西三丁目","koaza":"","lat":35.273281,"lng":136.886481,"zip":"4850057"},{"town":"小木東一丁目","koaza":"","lat":35.280668,"lng":136.903902,"zip":"4850059"},{"town":"小木東二丁目","koaza":"","lat":35.277118,"lng":136.90131,"zip":"4850059"},{"town":"小木東三丁目","koaza":"","lat":35.274484,"lng":136.8986,"zip":"4850059"},{"town":"小木南一丁目","koaza":"","lat":35.272655,"lng":136.896251,"zip":"4850056"},{"town":"小木南二丁目","koaza":"","lat":35.269919,"lng":136.895044,"zip":"4850056"},{"town":"小木南三丁目","koaza":"","lat":35.27089,"lng":136.891686,"zip":"4850056"},{"town":"小牧一丁目","koaza":"","lat":35.292488,"lng":136.919139,"zip":"4850041"},{"town":"小牧二丁目","koaza":"","lat":35.292954,"lng":136.925896,"zip":"4850041"},{"town":"小牧三丁目","koaza":"","lat":35.290639,"lng":136.924148,"zip":"4850041"},{"town":"小牧四丁目","koaza":"","lat":35.28728,"lng":136.922669,"zip":"4850041"},{"town":"小牧五丁目","koaza":"","lat":35.289049,"lng":136.917867,"zip":"4850041"},{"town":"小牧原一丁目","koaza":"","lat":35.304921,"lng":136.925364,"zip":"4850829"},{"town":"小牧原二丁目","koaza":"","lat":35.304726,"lng":136.931094,"zip":"4850829"},{"town":"小牧原三丁目","koaza":"","lat":35.303537,"lng":136.936194,"zip":"4850829"},{"town":"小牧原四丁目","koaza":"","lat":35.302966,"lng":136.929774,"zip":"4850829"},{"town":"桜井","koaza":"","lat":35.283786,"lng":136.921403,"zip":"4850042"},{"town":"桜井本町","koaza":"","lat":35.282535,"lng":136.922339,"zip":"4850043"},{"town":"篠岡一丁目","koaza":"","lat":35.303193,"lng":136.98578,"zip":"4850815"},{"town":"篠岡二丁目","koaza":"","lat":35.305228,"lng":136.98258,"zip":"4850815"},{"town":"篠岡三丁目","koaza":"","lat":35.306141,"lng":136.986074,"zip":"4850815"},{"town":"下小針天神一丁目","koaza":"","lat":35.272333,"lng":136.90952,"zip":"4850036"},{"town":"下小針天神二丁目","koaza":"","lat":35.266778,"lng":136.912022,"zip":"4850036"},{"town":"下小針天神三丁目","koaza":"","lat":35.268115,"lng":136.909295,"zip":"4850036"},{"town":"下小針中島一丁目","koaza":"","lat":35.27376,"lng":136.903963,"zip":"4850051"},{"town":"下小針中島二丁目","koaza":"","lat":35.2689,"lng":136.904857,"zip":"4850051"},{"town":"下小針中島三丁目","koaza":"","lat":35.270504,"lng":136.90021,"zip":"4850051"},{"town":"常普請一丁目","koaza":"","lat":35.286304,"lng":136.916631,"zip":"4850044"},{"town":"常普請二丁目","koaza":"","lat":35.284065,"lng":136.917655,"zip":"4850044"},{"town":"常普請三丁目","koaza":"","lat":35.280911,"lng":136.917408,"zip":"4850044"},{"town":"城山一丁目","koaza":"","lat":35.297806,"lng":136.983996,"zip":"4850812"},{"town":"城山二丁目","koaza":"","lat":35.297138,"lng":136.987587,"zip":"4850812"},{"town":"城山三丁目","koaza":"","lat":35.293591,"lng":136.989313,"zip":"4850812"},{"town":"城山四丁目","koaza":"","lat":35.291613,"lng":136.986159,"zip":"4850812"},{"town":"城山五丁目","koaza":"","lat":35.293582,"lng":136.983034,"zip":"4850812"},{"town":"新小木一丁目","koaza":"","lat":35.284137,"lng":136.887415,"zip":"4850074"},{"town":"新小木二丁目","koaza":"","lat":35.282555,"lng":136.891542,"zip":"4850074"},{"town":"新小木三丁目","koaza":"","lat":35.2791,"lng":136.889281,"zip":"4850074"},{"town":"新小木四丁目","koaza":"","lat":35.277154,"lng":136.886884,"zip":"4850074"},{"town":"新町一丁目","koaza":"","lat":35.297035,"lng":136.920936,"zip":"4850013"},{"town":"新町二丁目","koaza":"","lat":35.29621,"lng":136.924774,"zip":"4850013"},{"town":"新町三丁目","koaza":"","lat":35.295316,"lng":136.928706,"zip":"4850013"},{"town":"外堀一丁目","koaza":"","lat":35.282253,"lng":136.91237,"zip":"4850039"},{"town":"外堀二丁目","koaza":"","lat":35.279423,"lng":136.911153,"zip":"4850039"},{"town":"外堀三丁目","koaza":"","lat":35.276833,"lng":136.90856,"zip":"4850039"},{"town":"外堀四丁目","koaza":"","lat":35.277299,"lng":136.905622,"zip":"4850039"},{"town":"田県町","koaza":"","lat":35.315802,"lng":136.941419,"zip":"4850004"},{"town":"高根一丁目","koaza":"","lat":35.294393,"lng":136.974926,"zip":"4850803"},{"town":"高根二丁目","koaza":"","lat":35.290244,"lng":136.97418,"zip":"4850803"},{"town":"高根三丁目","koaza":"","lat":35.287761,"lng":136.977155,"zip":"4850803"},{"town":"多気北町","koaza":"","lat":35.265497,"lng":136.900581,"zip":"4850055"},{"town":"多気中町","koaza":"","lat":35.262822,"lng":136.904982,"zip":"4850052"},{"town":"多気西町","koaza":"","lat":35.261231,"lng":136.89872,"zip":"4850054"},{"town":"多気東町","koaza":"","lat":35.263786,"lng":136.909878,"zip":"4850035"},{"town":"多気南町","koaza":"","lat":35.258898,"lng":136.902218,"zip":"4850053"},{"town":"中央一丁目","koaza":"","lat":35.289209,"lng":136.927136,"zip":"4850029"},{"town":"中央二丁目","koaza":"","lat":35.289007,"lng":136.929724,"zip":"4850029"},{"town":"中央三丁目","koaza":"","lat":35.289975,"lng":136.932738,"zip":"4850029"},{"town":"中央四丁目","koaza":"","lat":35.289441,"lng":136.935241,"zip":"4850029"},{"town":"中央五丁目","koaza":"","lat":35.285955,"lng":136.936012,"zip":"4850029"},{"town":"中央六丁目","koaza":"","lat":35.285019,"lng":136.933502,"zip":"4850029"},{"town":"寺西","koaza":"","lat":35.320425,"lng":136.925448,"zip":"4850008"},{"town":"長治町","koaza":"","lat":35.292244,"lng":136.953784,"zip":"4850824"},{"town":"西島町","koaza":"","lat":35.295469,"lng":136.899889,"zip":"4850078"},{"town":"野口柿花","koaza":"","lat":35.312647,"lng":136.990395,"zip":"4850000"},{"town":"野口定道","koaza":"","lat":35.31717,"lng":136.99073,"zip":"4850000"},{"town":"野口島ノ田","koaza":"","lat":35.312276,"lng":136.985179,"zip":"4850000"},{"town":"野口惣門","koaza":"","lat":35.316181,"lng":136.995367,"zip":"4850000"},{"town":"野口違井那","koaza":"","lat":35.307968,"lng":136.987085,"zip":"4850000"},{"town":"野口高畑","koaza":"","lat":35.31177,"lng":136.99713,"zip":"4850000"},{"town":"野口友ケ根","koaza":"","lat":35.311708,"lng":136.993461,"zip":"4850000"},{"town":"野口中田","koaza":"","lat":35.315114,"lng":136.992396,"zip":"4850000"},{"town":"林北","koaza":"","lat":35.317135,"lng":136.982259,"zip":"4850000"},{"town":"林新外","koaza":"","lat":35.311265,"lng":136.980889,"zip":"4850000"},{"town":"林中","koaza":"","lat":35.313509,"lng":136.98007,"zip":"4850000"},{"town":"林西","koaza":"","lat":35.319556,"lng":136.972899,"zip":"4850000"},{"town":"林野原","koaza":"","lat":35.31299,"lng":136.982599,"zip":"4850000"},{"town":"林南","koaza":"","lat":35.311396,"lng":136.978639,"zip":"4850000"},{"town":"東一丁目","koaza":"","lat":35.284932,"lng":136.94046,"zip":"4850831"},{"town":"東二丁目","koaza":"","lat":35.279012,"lng":136.944003,"zip":"4850831"},{"town":"東三丁目","koaza":"","lat":35.279569,"lng":136.940997,"zip":"4850831"},{"town":"東四丁目","koaza":"","lat":35.280718,"lng":136.938829,"zip":"4850831"},{"town":"東新町","koaza":"","lat":35.285447,"lng":136.927746,"zip":"4850028"},{"town":"光ケ丘一丁目","koaza":"","lat":35.30076,"lng":136.988285,"zip":"4850811"},{"town":"光ケ丘二丁目","koaza":"","lat":35.30335,"lng":136.990012,"zip":"4850811"},{"town":"光ケ丘三丁目","koaza":"","lat":35.3026,"lng":136.993242,"zip":"4850811"},{"town":"光ケ丘四丁目","koaza":"","lat":35.301108,"lng":136.99622,"zip":"4850811"},{"town":"光ケ丘五丁目","koaza":"","lat":35.297414,"lng":136.993199,"zip":"4850811"},{"town":"光ケ丘六丁目","koaza":"","lat":35.298371,"lng":136.990568,"zip":"4850811"},{"town":"藤島一丁目","koaza":"","lat":35.271666,"lng":136.885913,"zip":"4850068"},{"town":"藤島二丁目","koaza":"","lat":35.270124,"lng":136.885145,"zip":"4850068"},{"town":"藤島町居屋敷","koaza":"","lat":35.267309,"lng":136.883706,"zip":"4850067"},{"town":"藤島町鏡池","koaza":"","lat":35.266752,"lng":136.891372,"zip":"4850063"},{"town":"藤島町五才田","koaza":"","lat":35.265748,"lng":136.887571,"zip":"4850065"},{"town":"藤島町出口","koaza":"","lat":35.265164,"lng":136.885181,"zip":"4850066"},{"town":"藤島町徳願寺","koaza":"","lat":35.264545,"lng":136.891152,"zip":"4850064"},{"town":"藤島町中島","koaza":"","lat":35.268406,"lng":136.891966,"zip":"4850062"},{"town":"藤島町梵天","koaza":"","lat":35.269413,"lng":136.888837,"zip":"4850069"},{"town":"藤島町向江","koaza":"","lat":35.265667,"lng":136.894324,"zip":"4850061"},{"town":"堀の内一丁目","koaza":"","lat":35.292135,"lng":136.91223,"zip":"4850046"},{"town":"堀の内二丁目","koaza":"","lat":35.290723,"lng":136.908331,"zip":"4850046"},{"town":"堀の内三丁目","koaza":"","lat":35.289115,"lng":136.912129,"zip":"4850046"},{"town":"堀の内四丁目","koaza":"","lat":35.286574,"lng":136.91069,"zip":"4850046"},{"town":"堀の内五丁目","koaza":"","lat":35.288094,"lng":136.907487,"zip":"4850046"},{"town":"間々本町","koaza":"","lat":35.295934,"lng":136.910474,"zip":"4850048"},{"town":"緑町","koaza":"","lat":35.284363,"lng":136.92759,"zip":"4850027"},{"town":"村中新町","koaza":"","lat":35.295966,"lng":136.906481,"zip":"4850083"},{"town":"元町一丁目","koaza":"","lat":35.291544,"lng":136.905205,"zip":"4850072"},{"town":"元町二丁目","koaza":"","lat":35.288689,"lng":136.904914,"zip":"4850072"},{"town":"元町三丁目","koaza":"","lat":35.286608,"lng":136.904257,"zip":"4850072"},{"town":"元町四丁目","koaza":"","lat":35.284052,"lng":136.904225,"zip":"4850072"},{"town":"桃ケ丘一丁目","koaza":"","lat":35.298889,"lng":136.980334,"zip":"4850813"},{"town":"桃ケ丘二丁目","koaza":"","lat":35.297851,"lng":136.977185,"zip":"4850813"},{"town":"桃ケ丘三丁目","koaza":"","lat":35.298095,"lng":136.97366,"zip":"4850813"},{"town":"安田町","koaza":"","lat":35.297319,"lng":136.916662,"zip":"4850014"},{"town":"山北町","koaza":"","lat":35.295437,"lng":136.914989,"zip":"4850049"},{"town":"弥生町","koaza":"","lat":35.293684,"lng":136.90426,"zip":"4850071"},{"town":"葭原","koaza":"","lat":35.317748,"lng":136.948407,"zip":"4850002"},{"town":"若草町","koaza":"","lat":35.279646,"lng":136.923231,"zip":"4850031"},{"town":"久保","koaza":"","lat":35.312315,"lng":136.942569,"zip":"4850009"},{"town":"小松寺一丁目","koaza":"","lat":35.311742,"lng":136.944838,"zip":"4850828"},{"town":"小松寺五丁目","koaza":"","lat":35.308092,"lng":136.941556,"zip":"4850828"},{"town":"小松寺三丁目","koaza":"","lat":35.30987,"lng":136.947394,"zip":"4850828"},{"town":"小松寺四丁目","koaza":"","lat":35.308266,"lng":136.944859,"zip":"4850828"},{"town":"小松寺二丁目","koaza":"","lat":35.312448,"lng":136.949371,"zip":"4850828"},{"town":"文津一丁目","koaza":"","lat":35.308441,"lng":136.950199,"zip":"4850827"},{"town":"大字村中","koaza":"井領","lat":35.293257,"lng":136.902354,"zip":"4850000"},{"town":"大字村中","koaza":"大島","lat":35.306614,"lng":136.91011,"zip":"4850000"},{"town":"大字村中","koaza":"松原","lat":35.301821,"lng":136.910445,"zip":"4850000"},{"town":"大字村中","koaza":"稲荷","lat":35.305931,"lng":136.91142,"zip":"4850000"},{"town":"大字間々原新田","koaza":"上新池","lat":35.302638,"lng":136.919729,"zip":"4850000"},{"town":"大字間々原新田","koaza":"下新池","lat":35.301303,"lng":136.920462,"zip":"4850000"},{"town":"大字北外山","koaza":"宮ノ腰","lat":35.27354,"lng":136.925253,"zip":"4850000"},{"town":"大字小牧原新田","koaza":"自才前","lat":35.301357,"lng":136.926832,"zip":"4850000"},{"town":"大字南外山","koaza":"長田","lat":35.269555,"lng":136.926086,"zip":"4850000"},{"town":"大字北外山","koaza":"池田","lat":35.277507,"lng":136.929672,"zip":"4850000"},{"town":"大字小牧原新田","koaza":"定右之門前","lat":35.292688,"lng":136.932205,"zip":"4850000"},{"town":"大字二重堀","koaza":"中田","lat":35.291063,"lng":136.940351,"zip":"4850000"},{"town":"大字二重堀","koaza":"芒原","lat":35.292664,"lng":136.94291,"zip":"4850000"},{"town":"大字東田中","koaza":"東島","lat":35.298955,"lng":136.946642,"zip":"4850000"},{"town":"大字小松寺","koaza":"東前","lat":35.308533,"lng":136.947382,"zip":"4850000"},{"town":"大字本庄","koaza":"郷浦","lat":35.315128,"lng":136.960465,"zip":"4850000"}]