[{"town":"旭ケ丘町旭ケ丘","koaza":"","lat":35.227428,"lng":137.047192,"zip":"4880083"},{"town":"旭ケ丘町長洞","koaza":"","lat":35.230318,"lng":137.044397,"zip":"4880086"},{"town":"旭ケ丘町濁池","koaza":"","lat":35.227816,"lng":137.043758,"zip":"4880085"},{"town":"旭ケ丘町森","koaza":"","lat":35.230403,"lng":137.049269,"zip":"4880082"},{"town":"旭ケ丘町山の手","koaza":"","lat":35.227473,"lng":137.037696,"zip":"4880084"},{"town":"旭台一丁目","koaza":"","lat":35.224339,"lng":137.055254,"zip":"4880001"},{"town":"旭台二丁目","koaza":"","lat":35.226723,"lng":137.056871,"zip":"4880001"},{"town":"旭台三丁目","koaza":"","lat":35.228677,"lng":137.057959,"zip":"4880001"},{"town":"新居町今池下","koaza":"","lat":35.224393,"lng":137.038604,"zip":"4880079"},{"town":"新居町上の田","koaza":"","lat":35.220736,"lng":137.038601,"zip":"4880073"},{"town":"新居町木の本","koaza":"","lat":35.217994,"lng":137.031026,"zip":"4880075"},{"town":"新居町五反田","koaza":"","lat":35.218129,"lng":137.033036,"zip":"4880070"},{"town":"新居町下切戸","koaza":"","lat":35.222527,"lng":137.041414,"zip":"4880071"},{"town":"新居町諏訪南","koaza":"","lat":35.219882,"lng":137.040806,"zip":"4880072"},{"town":"新居町寺田","koaza":"","lat":35.221937,"lng":137.036293,"zip":"4880078"},{"town":"新居町西浦","koaza":"","lat":35.221112,"lng":137.033405,"zip":"4880077"},{"town":"新居町明才切","koaza":"","lat":35.219445,"lng":137.036178,"zip":"4880074"},{"town":"新居町山の田","koaza":"","lat":35.221015,"lng":137.030772,"zip":"4880076"},{"town":"井田町一丁目","koaza":"","lat":35.211054,"lng":137.052637,"zip":"4880024"},{"town":"井田町二丁目","koaza":"","lat":35.210008,"lng":137.049326,"zip":"4880024"},{"town":"井田町三丁目","koaza":"","lat":35.206387,"lng":137.053052,"zip":"4880024"},{"town":"井田町四丁目","koaza":"","lat":35.206736,"lng":137.050311,"zip":"4880024"},{"town":"稲葉町一丁目","koaza":"","lat":35.205758,"lng":137.032604,"zip":"4880054"},{"town":"稲葉町二丁目","koaza":"","lat":35.205078,"lng":137.034785,"zip":"4880054"},{"town":"稲葉町三丁目","koaza":"","lat":35.205111,"lng":137.037342,"zip":"4880054"},{"town":"稲葉町四丁目","koaza":"","lat":35.206251,"lng":137.039766,"zip":"4880054"},{"town":"稲葉町五丁目","koaza":"","lat":35.205683,"lng":137.042523,"zip":"4880054"},{"town":"印場元町一丁目","koaza":"","lat":35.212231,"lng":137.010928,"zip":"4880840"},{"town":"印場元町二丁目","koaza":"","lat":35.210586,"lng":137.011187,"zip":"4880840"},{"town":"印場元町三丁目","koaza":"","lat":35.208762,"lng":137.011061,"zip":"4880840"},{"town":"印場元町四丁目","koaza":"","lat":35.209129,"lng":137.013293,"zip":"4880840"},{"town":"印場元町五丁目","koaza":"","lat":35.210622,"lng":137.016038,"zip":"4880840"},{"town":"印場元町北島","koaza":"","lat":35.209091,"lng":137.009529,"zip":"4880000"},{"town":"印場元町北山","koaza":"","lat":35.211231,"lng":137.008438,"zip":"4880841"},{"town":"印場元町細田","koaza":"","lat":35.208438,"lng":137.009586,"zip":"4880843"},{"town":"上の山町間口","koaza":"","lat":35.201643,"lng":137.042906,"zip":"4880035"},{"town":"上の山町山畑","koaza":"","lat":35.201302,"lng":137.039099,"zip":"4880034"},{"town":"大久手町一の曽","koaza":"","lat":35.220758,"lng":137.047935,"zip":"4880000"},{"town":"大久手町上切戸","koaza":"","lat":35.222935,"lng":137.044687,"zip":"4880005"},{"town":"大久手町中松原","koaza":"","lat":35.223575,"lng":137.048373,"zip":"4880006"},{"town":"大塚町一丁目","koaza":"","lat":35.199909,"lng":137.020425,"zip":"4880826"},{"town":"大塚町二丁目","koaza":"","lat":35.201477,"lng":137.01878,"zip":"4880826"},{"town":"大塚町三丁目","koaza":"","lat":35.202912,"lng":137.02132,"zip":"4880826"},{"town":"柏井町弥栄","koaza":"","lat":35.2272,"lng":137.052992,"zip":"4880008"},{"town":"柏井町公園通","koaza":"","lat":35.22896,"lng":137.050981,"zip":"4880007"},{"town":"霞ケ丘町北","koaza":"","lat":35.217258,"lng":137.007176,"zip":"4880847"},{"town":"霞ケ丘町中","koaza":"","lat":35.212218,"lng":137.005829,"zip":"4880846"},{"town":"霞ケ丘町南","koaza":"","lat":35.210301,"lng":137.004564,"zip":"4880845"},{"town":"狩宿新町一丁目","koaza":"","lat":35.212046,"lng":137.0602,"zip":"4880022"},{"town":"狩宿新町二丁目","koaza":"","lat":35.209886,"lng":137.059533,"zip":"4880022"},{"town":"狩宿町一丁目","koaza":"","lat":35.214394,"lng":137.066559,"zip":"4880021"},{"town":"狩宿町二丁目","koaza":"","lat":35.21396,"lng":137.063937,"zip":"4880021"},{"town":"狩宿町三丁目","koaza":"","lat":35.212299,"lng":137.063933,"zip":"4880021"},{"town":"狩宿町四丁目","koaza":"","lat":35.210131,"lng":137.062719,"zip":"4880021"},{"town":"北原山町大久保見","koaza":"","lat":35.216055,"lng":137.047015,"zip":"4880065"},{"town":"北原山町陀摩屋敷","koaza":"","lat":35.219679,"lng":137.043639,"zip":"4880063"},{"town":"北原山町鳴湫","koaza":"","lat":35.218436,"lng":137.046661,"zip":"4880064"},{"town":"北原山町平池浦","koaza":"","lat":35.217998,"lng":137.042741,"zip":"4880062"},{"town":"北原山町六田池","koaza":"","lat":35.215999,"lng":137.042846,"zip":"4880061"},{"town":"北本地ケ原町一丁目","koaza":"","lat":35.197147,"lng":137.032153,"zip":"4880043"},{"town":"北本地ケ原町二丁目","koaza":"","lat":35.198723,"lng":137.03599,"zip":"4880043"},{"town":"北本地ケ原町三丁目","koaza":"","lat":35.19951,"lng":137.038484,"zip":"4880043"},{"town":"北本地ケ原町四丁目","koaza":"","lat":35.199552,"lng":137.041679,"zip":"4880043"},{"town":"北山町北新田","koaza":"","lat":35.213362,"lng":137.042077,"zip":"4880057"},{"town":"北山町北山","koaza":"","lat":35.210201,"lng":137.040263,"zip":"4880056"},{"town":"北山町六反田","koaza":"","lat":35.208575,"lng":137.041991,"zip":"4880055"},{"town":"桜ケ丘町一丁目","koaza":"","lat":35.219845,"lng":137.012784,"zip":"4880859"},{"town":"桜ケ丘町二丁目","koaza":"","lat":35.215643,"lng":137.013296,"zip":"4880859"},{"town":"桜ケ丘町西","koaza":"","lat":35.217245,"lng":137.010309,"zip":"4880857"},{"town":"三郷町栄","koaza":"","lat":35.216145,"lng":137.052947,"zip":"4880015"},{"town":"三郷町角田","koaza":"","lat":35.216464,"lng":137.058772,"zip":"4880012"},{"town":"三郷町陶栄","koaza":"","lat":35.216466,"lng":137.056437,"zip":"4880016"},{"town":"三郷町富丘","koaza":"","lat":35.214116,"lng":137.056434,"zip":"4880013"},{"town":"三郷町中井田","koaza":"","lat":35.214009,"lng":137.053336,"zip":"4880014"},{"town":"渋川町一丁目","koaza":"","lat":35.207513,"lng":137.02053,"zip":"4880839"},{"town":"渋川町二丁目","koaza":"","lat":35.206992,"lng":137.016773,"zip":"4880839"},{"town":"渋川町三丁目","koaza":"","lat":35.205164,"lng":137.018959,"zip":"4880839"},{"town":"下井町下井","koaza":"","lat":35.205475,"lng":137.046849,"zip":"4880052"},{"town":"下井町刎内","koaza":"","lat":35.203871,"lng":137.04539,"zip":"4880053"},{"town":"下井町前の上","koaza":"","lat":35.20843,"lng":137.045722,"zip":"4880051"},{"town":"庄中町一丁目","koaza":"","lat":35.20653,"lng":137.013104,"zip":"4880838"},{"town":"庄中町二丁目","koaza":"","lat":35.203933,"lng":137.012781,"zip":"4880838"},{"town":"庄中町三丁目","koaza":"","lat":35.204235,"lng":137.015456,"zip":"4880838"},{"town":"庄中町渋川","koaza":"","lat":35.20502,"lng":137.01078,"zip":"4880836"},{"town":"庄中町南島","koaza":"","lat":35.204002,"lng":137.019607,"zip":"4880835"},{"town":"庄南町一丁目","koaza":"","lat":35.194956,"lng":137.018552,"zip":"4880823"},{"town":"庄南町二丁目","koaza":"","lat":35.196291,"lng":137.016013,"zip":"4880823"},{"town":"庄南町三丁目","koaza":"","lat":35.197721,"lng":137.018164,"zip":"4880823"},{"town":"庄南町四丁目","koaza":"","lat":35.195923,"lng":137.021557,"zip":"4880823"},{"town":"城山町城山","koaza":"","lat":35.224027,"lng":137.027095,"zip":"4880884"},{"town":"城山町三ツ池","koaza":"","lat":35.22411,"lng":137.03045,"zip":"4880881"},{"town":"城山町向ケ丘","koaza":"","lat":35.225421,"lng":137.032599,"zip":"4880882"},{"town":"瀬戸川町一丁目","koaza":"","lat":35.211465,"lng":137.056529,"zip":"4880023"},{"town":"瀬戸川町二丁目","koaza":"","lat":35.208792,"lng":137.05602,"zip":"4880023"},{"town":"東栄町一丁目","koaza":"","lat":35.218346,"lng":137.050072,"zip":"4880011"},{"town":"東栄町二丁目","koaza":"","lat":35.217672,"lng":137.053693,"zip":"4880011"},{"town":"東栄町三丁目","koaza":"","lat":35.219672,"lng":137.052703,"zip":"4880011"},{"town":"東栄町四丁目","koaza":"","lat":35.219189,"lng":137.055717,"zip":"4880011"},{"town":"東名西町一丁目","koaza":"","lat":35.207677,"lng":137.008257,"zip":"4880844"},{"town":"東名西町二丁目","koaza":"","lat":35.20566,"lng":137.009914,"zip":"4880844"},{"town":"長坂町南山","koaza":"","lat":35.202771,"lng":137.032509,"zip":"4880821"},{"town":"西大道町五輪塚","koaza":"","lat":35.213559,"lng":137.031942,"zip":"4880813"},{"town":"西大道町前田","koaza":"","lat":35.212595,"lng":137.033034,"zip":"4880814"},{"town":"西の野町一丁目","koaza":"","lat":35.206354,"lng":137.030522,"zip":"4880804"},{"town":"西の野町二丁目","koaza":"","lat":35.20958,"lng":137.030147,"zip":"4880804"},{"town":"西の野町三丁目","koaza":"","lat":35.209537,"lng":137.032921,"zip":"4880804"},{"town":"西の野町四丁目","koaza":"","lat":35.209423,"lng":137.035045,"zip":"4880804"},{"town":"西の野町五丁目","koaza":"","lat":35.209782,"lng":137.036879,"zip":"4880804"},{"town":"西の野町豆塚","koaza":"","lat":35.209034,"lng":137.02834,"zip":"4880805"},{"town":"西山町一丁目","koaza":"","lat":35.196684,"lng":137.01359,"zip":"4880824"},{"town":"西山町二丁目","koaza":"","lat":35.198359,"lng":137.01383,"zip":"4880824"},{"town":"根の鼻町一丁目","koaza":"","lat":35.219912,"lng":137.057395,"zip":"4880002"},{"town":"根の鼻町二丁目","koaza":"","lat":35.22169,"lng":137.05622,"zip":"4880002"},{"town":"晴丘町池上","koaza":"","lat":35.194479,"lng":137.044388,"zip":"4880032"},{"town":"晴丘町東","koaza":"","lat":35.196605,"lng":137.047561,"zip":"4880031"},{"town":"東印場町一丁目","koaza":"","lat":35.21235,"lng":137.024832,"zip":"4880830"},{"town":"東印場町三丁目","koaza":"","lat":35.209669,"lng":137.020307,"zip":"4880830"},{"town":"東印場町四丁目","koaza":"","lat":35.210359,"lng":137.024501,"zip":"4880830"},{"town":"東印場町二反田","koaza":"","lat":35.208292,"lng":137.026056,"zip":"4880833"},{"town":"東大久手町一丁目","koaza":"","lat":35.223029,"lng":137.050062,"zip":"4880003"},{"town":"東大久手町二丁目","koaza":"","lat":35.221336,"lng":137.053184,"zip":"4880003"},{"town":"東大久手町三丁目","koaza":"","lat":35.223187,"lng":137.051972,"zip":"4880003"},{"town":"東大久手町四丁目","koaza":"","lat":35.222865,"lng":137.054387,"zip":"4880003"},{"town":"東三郷町","koaza":"","lat":35.214609,"lng":137.058524,"zip":"4880017"},{"town":"東大道町曽我廻間","koaza":"","lat":35.213068,"lng":137.038265,"zip":"4880802"},{"town":"東大道町原田","koaza":"","lat":35.216683,"lng":137.037643,"zip":"4880801"},{"town":"東大道町山の内","koaza":"","lat":35.213085,"lng":137.035854,"zip":"4880803"},{"town":"東本地ケ原町一丁目","koaza":"","lat":35.197802,"lng":137.040658,"zip":"4880033"},{"town":"東本地ケ原町二丁目","koaza":"","lat":35.198601,"lng":137.043297,"zip":"4880033"},{"town":"東本地ケ原町三丁目","koaza":"","lat":35.199189,"lng":137.046296,"zip":"4880033"},{"town":"東本地ケ原町四丁目","koaza":"","lat":35.199746,"lng":137.048294,"zip":"4880033"},{"town":"東山町一丁目","koaza":"","lat":35.199403,"lng":137.016897,"zip":"4880825"},{"town":"東山町二丁目","koaza":"","lat":35.201091,"lng":137.015233,"zip":"4880825"},{"town":"平子ケ丘町一丁目","koaza":"","lat":35.221544,"lng":137.013627,"zip":"4880876"},{"town":"平子ケ丘町二丁目","koaza":"","lat":35.221594,"lng":137.014434,"zip":"4880876"},{"town":"平子町北","koaza":"","lat":35.226503,"lng":137.018842,"zip":"4880875"},{"town":"平子町西","koaza":"","lat":35.222051,"lng":137.020061,"zip":"4880874"},{"town":"平子町東","koaza":"","lat":35.230361,"lng":137.02531,"zip":"4880871"},{"town":"緑町緑ケ丘","koaza":"","lat":35.198976,"lng":137.027619,"zip":"4880822"},{"town":"南栄町一丁目","koaza":"","lat":35.193308,"lng":137.026332,"zip":"4880045"},{"town":"南栄町旭ケ丘","koaza":"","lat":35.194283,"lng":137.038183,"zip":"4880046"},{"town":"南栄町黒石","koaza":"","lat":35.193314,"lng":137.029531,"zip":"4880047"},{"town":"南新町中畑","koaza":"","lat":35.1992,"lng":137.031485,"zip":"4880041"},{"town":"南新町白山","koaza":"","lat":35.200311,"lng":137.034935,"zip":"4880042"},{"town":"南原山町赤土","koaza":"","lat":35.214,"lng":137.047013,"zip":"4880066"},{"town":"南原山町石原","koaza":"","lat":35.21304,"lng":137.049848,"zip":"4880067"},{"town":"南原山町南原山","koaza":"","lat":35.210656,"lng":137.043751,"zip":"4880068"},{"town":"南本地ケ原町一丁目","koaza":"","lat":35.193834,"lng":137.032954,"zip":"4880044"},{"town":"南本地ケ原町二丁目","koaza":"","lat":35.195533,"lng":137.032866,"zip":"4880044"},{"town":"南本地ケ原町三丁目","koaza":"","lat":35.196712,"lng":137.036304,"zip":"4880044"},{"town":"向町一丁目","koaza":"","lat":35.216447,"lng":137.032436,"zip":"4880818"},{"town":"向町二丁目","koaza":"","lat":35.21504,"lng":137.032565,"zip":"4880818"},{"town":"向町四丁目","koaza":"","lat":35.216353,"lng":137.028624,"zip":"4880818"},{"town":"吉岡町一丁目","koaza":"","lat":35.203249,"lng":137.023876,"zip":"4880827"},{"town":"吉岡町二丁目","koaza":"","lat":35.203858,"lng":137.026081,"zip":"4880827"},{"town":"吉岡町三丁目","koaza":"","lat":35.204341,"lng":137.028644,"zip":"4880827"},{"town":"白鳳町一丁目","koaza":"","lat":35.213069,"lng":137.014492,"zip":"4880858"},{"town":"白鳳町二丁目","koaza":"","lat":35.212008,"lng":137.0158,"zip":"4880858"},{"town":"東印場町二丁目","koaza":"","lat":35.212286,"lng":137.020708,"zip":"4880830"},{"town":"旭前町四丁目","koaza":"","lat":35.21296,"lng":137.01839,"zip":"4880855"},{"town":"旭前町六丁目","koaza":"","lat":35.215925,"lng":137.016963,"zip":"4880855"},{"town":"旭前町五丁目","koaza":"","lat":35.213911,"lng":137.021117,"zip":"4880855"},{"town":"城前町三丁目","koaza":"","lat":35.21531,"lng":137.024977,"zip":"4880867"},{"town":"旭前町三丁目","koaza":"","lat":35.214443,"lng":137.017662,"zip":"4880855"},{"town":"旭前町二丁目","koaza":"","lat":35.215296,"lng":137.019271,"zip":"4880855"},{"town":"旭前町一丁目","koaza":"","lat":35.216023,"lng":137.021551,"zip":"4880855"},{"town":"平子町長池上","koaza":"","lat":35.223318,"lng":137.024823,"zip":"4880872"},{"town":"城山町長池下","koaza":"","lat":35.220099,"lng":137.027595,"zip":"4880883"},{"town":"城前町二丁目","koaza":"","lat":35.216485,"lng":137.024767,"zip":"4880867"},{"town":"城前町城前","koaza":"","lat":35.217302,"lng":137.02814,"zip":"4880861"},{"town":"城前町一丁目","koaza":"","lat":35.218089,"lng":137.02464,"zip":"4880867"},{"town":"平子町中通","koaza":"","lat":35.220793,"lng":137.023679,"zip":"4880873"},{"town":"桜ケ丘町三丁目","koaza":"","lat":35.217256,"lng":137.015649,"zip":"4880859"},{"town":"旭前町北","koaza":"","lat":35.220029,"lng":137.0173,"zip":"4880851"},{"town":"城前町茅池","koaza":"","lat":35.217977,"lng":137.023342,"zip":"4880866"},{"town":"旭前町西新田","koaza":"","lat":35.218343,"lng":137.018115,"zip":"4880854"},{"town":"旭前町新田洞","koaza":"","lat":35.217585,"lng":137.02019,"zip":"4880852"},{"town":"向町三丁目","koaza":"","lat":35.214647,"lng":137.029014,"zip":"4880818"},{"town":"西大道町六兵衛前","koaza":"","lat":35.212128,"lng":137.030097,"zip":"4880815"},{"town":"西大道町八瀬の木前","koaza":"","lat":35.213358,"lng":137.029756,"zip":"4880817"},{"town":"城前町上大道","koaza":"","lat":35.213484,"lng":137.028083,"zip":"4880863"},{"town":"西大道町下大道","koaza":"","lat":35.212173,"lng":137.027842,"zip":"4880816"},{"town":"城前町四丁目","koaza":"","lat":35.214121,"lng":137.024963,"zip":"4880867"},{"town":"大字新居","koaza":"","lat":35.235522,"lng":137.049872,"zip":"4880000"}]