[{"town":"曙一丁目","koaza":"","lat":35.044212,"lng":136.758505,"zip":"4980060"},{"town":"曙二丁目","koaza":"","lat":35.028115,"lng":136.770934,"zip":"4980060"},{"town":"桴場一丁目","koaza":"","lat":35.091484,"lng":136.758581,"zip":"4901404"},{"town":"桴場二丁目","koaza":"","lat":35.095248,"lng":136.76445,"zip":"4901404"},{"town":"桴場三丁目","koaza":"","lat":35.096293,"lng":136.7692,"zip":"4901404"},{"town":"稲狐町","koaza":"","lat":35.065306,"lng":136.766611,"zip":"4980053"},{"town":"稲元十丁目","koaza":"","lat":35.081612,"lng":136.771147,"zip":"4980045"},{"town":"稲元十一丁目","koaza":"","lat":35.081085,"lng":136.7697,"zip":"4980045"},{"town":"稲元十二丁目","koaza":"","lat":35.080092,"lng":136.771854,"zip":"4980045"},{"town":"稲元十三丁目","koaza":"","lat":35.075613,"lng":136.771279,"zip":"4980045"},{"town":"稲元十四丁目","koaza":"","lat":35.078862,"lng":136.772946,"zip":"4980045"},{"town":"稲元十五丁目","koaza":"","lat":35.075246,"lng":136.772678,"zip":"4980045"},{"town":"稲元一丁目","koaza":"","lat":35.079221,"lng":136.761079,"zip":"4980045"},{"town":"稲元二丁目","koaza":"","lat":35.076507,"lng":136.761105,"zip":"4980045"},{"town":"稲元三丁目","koaza":"","lat":35.081613,"lng":136.764921,"zip":"4980045"},{"town":"稲元四丁目","koaza":"","lat":35.079646,"lng":136.764241,"zip":"4980045"},{"town":"稲元五丁目","koaza":"","lat":35.077734,"lng":136.764209,"zip":"4980045"},{"town":"稲元六丁目","koaza":"","lat":35.076228,"lng":136.768093,"zip":"4980045"},{"town":"稲元七丁目","koaza":"","lat":35.081915,"lng":136.766937,"zip":"4980045"},{"town":"稲元八丁目","koaza":"","lat":35.079763,"lng":136.768458,"zip":"4980045"},{"town":"稲元九丁目","koaza":"","lat":35.078134,"lng":136.769346,"zip":"4980045"},{"town":"稲吉一丁目","koaza":"","lat":35.078704,"lng":136.755211,"zip":"4980048"},{"town":"稲吉二丁目","koaza":"","lat":35.078443,"lng":136.75816,"zip":"4980048"},{"town":"稲荷一丁目","koaza":"","lat":35.079373,"lng":136.776264,"zip":"4980052"},{"town":"稲荷二丁目","koaza":"","lat":35.075185,"lng":136.775072,"zip":"4980052"},{"town":"稲荷三丁目","koaza":"","lat":35.071982,"lng":136.77326,"zip":"4980052"},{"town":"稲荷四丁目","koaza":"","lat":35.074889,"lng":136.781013,"zip":"4980052"},{"town":"稲荷崎一丁目","koaza":"","lat":35.06282,"lng":136.753891,"zip":"4980056"},{"town":"稲荷崎二丁目","koaza":"","lat":35.059902,"lng":136.756262,"zip":"4980056"},{"town":"稲荷崎三丁目","koaza":"","lat":35.062923,"lng":136.756501,"zip":"4980056"},{"town":"稲荷崎四丁目","koaza":"","lat":35.066473,"lng":136.759224,"zip":"4980056"},{"town":"稲荷崎五丁目","koaza":"","lat":35.065821,"lng":136.761332,"zip":"4980056"},{"town":"稲荷崎六丁目","koaza":"","lat":35.061846,"lng":136.75846,"zip":"4980056"},{"town":"稲荷崎七丁目","koaza":"","lat":35.060575,"lng":136.760125,"zip":"4980056"},{"town":"稲荷崎八丁目","koaza":"","lat":35.063321,"lng":136.76266,"zip":"4980056"},{"town":"稲荷崎九丁目","koaza":"","lat":35.068611,"lng":136.762586,"zip":"4980056"},{"town":"上野町","koaza":"","lat":35.043977,"lng":136.783874,"zip":"4980067"},{"town":"鯏浦町","koaza":"","lat":35.11538,"lng":136.727639,"zip":"4980023"},{"town":"馬ケ地一丁目","koaza":"","lat":35.115503,"lng":136.769412,"zip":"4901412"},{"town":"馬ケ地二丁目","koaza":"","lat":35.115103,"lng":136.764564,"zip":"4901412"},{"town":"馬ケ地三丁目","koaza":"","lat":35.11126,"lng":136.766894,"zip":"4901412"},{"town":"栄南町","koaza":"","lat":35.070202,"lng":136.752372,"zip":"4980040"},{"town":"海老江一丁目","koaza":"","lat":35.119444,"lng":136.713333,"zip":"4980015"},{"town":"大谷一丁目","koaza":"","lat":35.070037,"lng":136.784112,"zip":"4980062"},{"town":"大谷二丁目","koaza":"","lat":35.072194,"lng":136.781694,"zip":"4980062"},{"town":"大谷三丁目","koaza":"","lat":35.069045,"lng":136.783197,"zip":"4980062"},{"town":"大谷四丁目","koaza":"","lat":35.065621,"lng":136.783756,"zip":"4980062"},{"town":"大谷五丁目","koaza":"","lat":35.063542,"lng":136.783101,"zip":"4980062"},{"town":"大縄場町","koaza":"","lat":35.075991,"lng":136.760235,"zip":"4980049"},{"town":"大藤町","koaza":"","lat":35.090401,"lng":136.737876,"zip":"4980039"},{"town":"海屋一丁目","koaza":"","lat":35.104888,"lng":136.788258,"zip":"4901423"},{"town":"海屋二丁目","koaza":"","lat":35.101741,"lng":136.79163,"zip":"4901423"},{"town":"海屋三丁目","koaza":"","lat":35.099732,"lng":136.794337,"zip":"4901423"},{"town":"海屋町","koaza":"","lat":35.102052,"lng":136.7884,"zip":"4901423"},{"town":"加稲一丁目","koaza":"","lat":35.07655,"lng":136.758385,"zip":"4980047"},{"town":"加稲二丁目","koaza":"","lat":35.076513,"lng":136.754574,"zip":"4980047"},{"town":"加稲三丁目","koaza":"","lat":35.077044,"lng":136.752006,"zip":"4980047"},{"town":"加稲四丁目","koaza":"","lat":35.076306,"lng":136.751604,"zip":"4980047"},{"town":"加稲九郎次町","koaza":"","lat":35.07744,"lng":136.756763,"zip":"4980000"},{"town":"加稲山町","koaza":"","lat":35.06264,"lng":136.752634,"zip":"4980000"},{"town":"鎌倉町","koaza":"","lat":35.11933,"lng":136.735928,"zip":"4980007"},{"town":"鎌島一丁目","koaza":"","lat":35.101392,"lng":136.741709,"zip":"4980035"},{"town":"鎌島二丁目","koaza":"","lat":35.099793,"lng":136.743985,"zip":"4980035"},{"town":"鎌島三丁目","koaza":"","lat":35.09946,"lng":136.748025,"zip":"4980035"},{"town":"鎌島四丁目","koaza":"","lat":35.09738,"lng":136.75206,"zip":"4980035"},{"town":"鎌島五丁目","koaza":"","lat":35.096407,"lng":136.750917,"zip":"4980035"},{"town":"鎌島六丁目","koaza":"","lat":35.095889,"lng":136.747162,"zip":"4980035"},{"town":"鎌島七丁目","koaza":"","lat":35.09285,"lng":136.747585,"zip":"4980035"},{"town":"鎌島八丁目","koaza":"","lat":35.092014,"lng":136.750228,"zip":"4980035"},{"town":"鎌島九丁目","koaza":"","lat":35.090845,"lng":136.748405,"zip":"4980035"},{"town":"上押萩一丁目","koaza":"","lat":35.112123,"lng":136.776798,"zip":"4901421"},{"town":"上押萩二丁目","koaza":"","lat":35.111733,"lng":136.78098,"zip":"4901421"},{"town":"亀ケ地一丁目","koaza":"","lat":35.10399,"lng":136.785365,"zip":"4901424"},{"town":"亀ケ地二丁目","koaza":"","lat":35.102605,"lng":136.784996,"zip":"4901424"},{"town":"川平一丁目","koaza":"","lat":35.121497,"lng":136.70693,"zip":"4980013"},{"town":"川原欠一丁目","koaza":"","lat":35.099788,"lng":136.730447,"zip":"4980037"},{"town":"川原欠二丁目","koaza":"","lat":35.098104,"lng":136.733604,"zip":"4980037"},{"town":"川原欠三丁目","koaza":"","lat":35.100216,"lng":136.734095,"zip":"4980037"},{"town":"川原欠四丁目","koaza":"","lat":35.099966,"lng":136.728432,"zip":"4980037"},{"town":"川原欠五丁目","koaza":"","lat":35.097913,"lng":136.732143,"zip":"4980037"},{"town":"寛延一丁目","koaza":"","lat":35.083074,"lng":136.749206,"zip":"4980043"},{"town":"寛延二丁目","koaza":"","lat":35.082507,"lng":136.751957,"zip":"4980043"},{"town":"寛延三丁目","koaza":"","lat":35.08247,"lng":136.754401,"zip":"4980043"},{"town":"寛延四丁目","koaza":"","lat":35.082621,"lng":136.756808,"zip":"4980043"},{"town":"寛延五丁目","koaza":"","lat":35.083045,"lng":136.759129,"zip":"4980043"},{"town":"寛延六丁目","koaza":"","lat":35.083259,"lng":136.761589,"zip":"4980043"},{"town":"寛延七丁目","koaza":"","lat":35.084327,"lng":136.762955,"zip":"4980043"},{"town":"間崎一丁目","koaza":"","lat":35.079748,"lng":136.753128,"zip":"4980044"},{"town":"間崎二丁目","koaza":"","lat":35.080129,"lng":136.7585,"zip":"4980044"},{"town":"間崎三丁目","koaza":"","lat":35.080595,"lng":136.760332,"zip":"4980044"},{"town":"間崎町","koaza":"","lat":35.081265,"lng":136.749838,"zip":"4980044"},{"town":"神戸十丁目","koaza":"","lat":35.094054,"lng":136.787746,"zip":"4901405"},{"town":"神戸一丁目","koaza":"","lat":35.100906,"lng":136.777395,"zip":"4901405"},{"town":"神戸二丁目","koaza":"","lat":35.100046,"lng":136.770517,"zip":"4901405"},{"town":"神戸三丁目","koaza":"","lat":35.099328,"lng":136.774131,"zip":"4901405"},{"town":"神戸四丁目","koaza":"","lat":35.097449,"lng":136.779074,"zip":"4901405"},{"town":"神戸五丁目","koaza":"","lat":35.096629,"lng":136.78296,"zip":"4901405"},{"town":"神戸六丁目","koaza":"","lat":35.096367,"lng":136.785563,"zip":"4901405"},{"town":"神戸七丁目","koaza":"","lat":35.098961,"lng":136.787577,"zip":"4901405"},{"town":"神戸八丁目","koaza":"","lat":35.096144,"lng":136.788931,"zip":"4901405"},{"town":"神戸九丁目","koaza":"","lat":35.092984,"lng":136.783204,"zip":"4901405"},{"town":"狐地一丁目","koaza":"","lat":35.074791,"lng":136.763422,"zip":"4980051"},{"town":"狐地二丁目","koaza":"","lat":35.071314,"lng":136.765131,"zip":"4980051"},{"town":"狐地三丁目","koaza":"","lat":35.072241,"lng":136.769153,"zip":"4980051"},{"town":"狐地四丁目","koaza":"","lat":35.070733,"lng":136.767685,"zip":"4980051"},{"town":"狐地五丁目","koaza":"","lat":35.070244,"lng":136.767291,"zip":"4980051"},{"town":"狐地六丁目","koaza":"","lat":35.06948,"lng":136.766911,"zip":"4980051"},{"town":"狐地七丁目","koaza":"","lat":35.068979,"lng":136.766014,"zip":"4980051"},{"town":"楠一丁目","koaza":"","lat":35.055207,"lng":136.800384,"zip":"4980066"},{"town":"楠二丁目","koaza":"","lat":35.046,"lng":136.791612,"zip":"4980066"},{"town":"楠三丁目","koaza":"","lat":35.036688,"lng":136.794095,"zip":"4980066"},{"town":"操出十丁目","koaza":"","lat":35.063889,"lng":136.775972,"zip":"4980061"},{"town":"操出十一丁目","koaza":"","lat":35.061199,"lng":136.776985,"zip":"4980061"},{"town":"操出十二丁目","koaza":"","lat":35.060963,"lng":136.774709,"zip":"4980061"},{"town":"操出一丁目","koaza":"","lat":35.074626,"lng":136.778041,"zip":"4980061"},{"town":"操出二丁目","koaza":"","lat":35.070781,"lng":136.779409,"zip":"4980061"},{"town":"操出三丁目","koaza":"","lat":35.070579,"lng":136.775836,"zip":"4980061"},{"town":"操出四丁目","koaza":"","lat":35.066292,"lng":136.781863,"zip":"4980061"},{"town":"操出五丁目","koaza":"","lat":35.067259,"lng":136.779062,"zip":"4980061"},{"town":"操出六丁目","koaza":"","lat":35.067216,"lng":136.775731,"zip":"4980061"},{"town":"操出七丁目","koaza":"","lat":35.066975,"lng":136.773252,"zip":"4980061"},{"town":"操出八丁目","koaza":"","lat":35.063376,"lng":136.772709,"zip":"4980061"},{"town":"操出九丁目","koaza":"","lat":35.064015,"lng":136.779285,"zip":"4980061"},{"town":"小島町","koaza":"","lat":35.109124,"lng":136.714635,"zip":"4980016"},{"town":"子宝一丁目","koaza":"","lat":35.107607,"lng":136.764767,"zip":"4901413"},{"town":"子宝二丁目","koaza":"","lat":35.107905,"lng":136.768203,"zip":"4901413"},{"town":"子宝三丁目","koaza":"","lat":35.104641,"lng":136.766348,"zip":"4901413"},{"town":"子宝四丁目","koaza":"","lat":35.10473,"lng":136.769601,"zip":"4901413"},{"town":"子宝五丁目","koaza":"","lat":35.103158,"lng":136.770009,"zip":"4901413"},{"town":"子宝六丁目","koaza":"","lat":35.101552,"lng":136.766557,"zip":"4901413"},{"town":"子宝町","koaza":"","lat":35.102553,"lng":136.764786,"zip":"4901413"},{"town":"五斗山一丁目","koaza":"","lat":35.115295,"lng":136.749439,"zip":"4901402"},{"town":"五斗山二丁目","koaza":"","lat":35.110377,"lng":136.751946,"zip":"4901402"},{"town":"五斗山三丁目","koaza":"","lat":35.106865,"lng":136.755573,"zip":"4901402"},{"town":"五斗山四丁目","koaza":"","lat":35.104162,"lng":136.758599,"zip":"4901402"},{"town":"五之三川平二丁目","koaza":"","lat":35.123376,"lng":136.709326,"zip":"4980018"},{"town":"五之三川平三丁目","koaza":"","lat":35.126514,"lng":136.706762,"zip":"4980018"},{"town":"五之三町","koaza":"","lat":35.12688,"lng":136.711791,"zip":"4980012"},{"town":"駒野町","koaza":"","lat":35.054603,"lng":136.784946,"zip":"4980065"},{"town":"五明一丁目","koaza":"","lat":35.11853,"lng":136.712315,"zip":"4980014"},{"town":"五明二丁目","koaza":"","lat":35.117065,"lng":136.710892,"zip":"4980014"},{"town":"五明三丁目","koaza":"","lat":35.12036,"lng":136.708828,"zip":"4980014"},{"town":"五明四丁目","koaza":"","lat":35.120814,"lng":136.710612,"zip":"4980014"},{"town":"五明町","koaza":"","lat":35.114832,"lng":136.715016,"zip":"4980014"},{"town":"境町","koaza":"","lat":35.057856,"lng":136.758839,"zip":"4980055"},{"town":"坂中地一丁目","koaza":"","lat":35.113325,"lng":136.753815,"zip":"4901414"},{"town":"坂中地二丁目","koaza":"","lat":35.111401,"lng":136.754902,"zip":"4901414"},{"town":"坂中地三丁目","koaza":"","lat":35.110059,"lng":136.757824,"zip":"4901414"},{"town":"坂中地四丁目","koaza":"","lat":35.108212,"lng":136.761691,"zip":"4901414"},{"town":"坂中地五丁目","koaza":"","lat":35.105891,"lng":136.761729,"zip":"4901414"},{"town":"佐古木一丁目","koaza":"","lat":35.117519,"lng":136.755699,"zip":"4980006"},{"town":"佐古木二丁目","koaza":"","lat":35.119603,"lng":136.754614,"zip":"4980006"},{"town":"佐古木三丁目","koaza":"","lat":35.118323,"lng":136.752401,"zip":"4980006"},{"town":"佐古木四丁目","koaza":"","lat":35.118006,"lng":136.749995,"zip":"4980006"},{"town":"佐古木五丁目","koaza":"","lat":35.119538,"lng":136.75062,"zip":"4980006"},{"town":"佐古木六丁目","koaza":"","lat":35.121289,"lng":136.75266,"zip":"4980006"},{"town":"佐古木七丁目","koaza":"","lat":35.12465,"lng":136.754886,"zip":"4980006"},{"town":"鮫ケ地一丁目","koaza":"","lat":35.115022,"lng":136.754831,"zip":"4901415"},{"town":"鮫ケ地二丁目","koaza":"","lat":35.113785,"lng":136.758956,"zip":"4901415"},{"town":"鮫ケ地三丁目","koaza":"","lat":35.110893,"lng":136.762466,"zip":"4901415"},{"town":"鮫ケ地四丁目","koaza":"","lat":35.117659,"lng":136.757231,"zip":"4901415"},{"town":"三稲一丁目","koaza":"","lat":35.069432,"lng":136.771916,"zip":"4980054"},{"town":"三稲二丁目","koaza":"","lat":35.067408,"lng":136.771447,"zip":"4980054"},{"town":"三稲三丁目","koaza":"","lat":35.066904,"lng":136.770015,"zip":"4980054"},{"town":"三稲四丁目","koaza":"","lat":35.064698,"lng":136.770864,"zip":"4980054"},{"town":"三稲五丁目","koaza":"","lat":35.061704,"lng":136.771516,"zip":"4980054"},{"town":"三稲六丁目","koaza":"","lat":35.060827,"lng":136.769319,"zip":"4980054"},{"town":"三稲七丁目","koaza":"","lat":35.059738,"lng":136.767305,"zip":"4980054"},{"town":"三稲八丁目","koaza":"","lat":35.058745,"lng":136.765896,"zip":"4980054"},{"town":"三百島一丁目","koaza":"","lat":35.117861,"lng":136.743061,"zip":"4901407"},{"town":"芝井十丁目","koaza":"","lat":35.08605,"lng":136.750365,"zip":"4980041"},{"town":"芝井十一丁目","koaza":"","lat":35.088264,"lng":136.750506,"zip":"4980041"},{"town":"芝井十二丁目","koaza":"","lat":35.090501,"lng":136.750761,"zip":"4980041"},{"town":"芝井十三丁目","koaza":"","lat":35.090829,"lng":136.749789,"zip":"4980041"},{"town":"芝井十四丁目","koaza":"","lat":35.084688,"lng":136.749933,"zip":"4980041"},{"town":"芝井十五丁目","koaza":"","lat":35.08959,"lng":136.739688,"zip":"4980041"},{"town":"芝井十六丁目","koaza":"","lat":35.085567,"lng":136.743873,"zip":"4980041"},{"town":"芝井一丁目","koaza":"","lat":35.089836,"lng":136.74054,"zip":"4980041"},{"town":"芝井二丁目","koaza":"","lat":35.091349,"lng":136.742334,"zip":"4980041"},{"town":"芝井三丁目","koaza":"","lat":35.087224,"lng":136.742867,"zip":"4980041"},{"town":"芝井四丁目","koaza":"","lat":35.089454,"lng":136.743628,"zip":"4980041"},{"town":"芝井五丁目","koaza":"","lat":35.087592,"lng":136.744611,"zip":"4980041"},{"town":"芝井六丁目","koaza":"","lat":35.085323,"lng":136.745484,"zip":"4980041"},{"town":"芝井七丁目","koaza":"","lat":35.08406,"lng":136.747224,"zip":"4980041"},{"town":"芝井八丁目","koaza":"","lat":35.085532,"lng":136.747475,"zip":"4980041"},{"town":"芝井九丁目","koaza":"","lat":35.088236,"lng":136.747368,"zip":"4980041"},{"town":"下押萩一丁目","koaza":"","lat":35.109625,"lng":136.784981,"zip":"4901422"},{"town":"下押萩町","koaza":"","lat":35.110046,"lng":136.785698,"zip":"4901422"},{"town":"四郎兵衛一丁目","koaza":"","lat":35.102125,"lng":136.775483,"zip":"4901426"},{"town":"四郎兵衛二丁目","koaza":"","lat":35.101415,"lng":136.781626,"zip":"4901426"},{"town":"四郎兵衛三丁目","koaza":"","lat":35.100808,"lng":136.784852,"zip":"4901426"},{"town":"四郎兵衛四丁目","koaza":"","lat":35.099768,"lng":136.783477,"zip":"4901426"},{"town":"善太町","koaza":"","lat":35.1177,"lng":136.76944,"zip":"4901411"},{"town":"竹田一丁目","koaza":"","lat":35.110685,"lng":136.774616,"zip":"4901428"},{"town":"竹田二丁目","koaza":"","lat":35.109233,"lng":136.778632,"zip":"4901428"},{"town":"竹田三丁目","koaza":"","lat":35.108254,"lng":136.782999,"zip":"4901428"},{"town":"竹田四丁目","koaza":"","lat":35.105118,"lng":136.78455,"zip":"4901428"},{"town":"竹田五丁目","koaza":"","lat":35.10566,"lng":136.781193,"zip":"4901428"},{"town":"竹田六丁目","koaza":"","lat":35.106935,"lng":136.778163,"zip":"4901428"},{"town":"富島一丁目","koaza":"","lat":35.071342,"lng":136.75375,"zip":"4980058"},{"town":"富島二丁目","koaza":"","lat":35.06887,"lng":136.756668,"zip":"4980058"},{"town":"富島三丁目","koaza":"","lat":35.071802,"lng":136.755699,"zip":"4980058"},{"town":"富島四丁目","koaza":"","lat":35.073266,"lng":136.75745,"zip":"4980058"},{"town":"富浜一丁目","koaza":"","lat":35.027084,"lng":136.7753,"zip":"4980069"},{"town":"富浜二丁目","koaza":"","lat":35.031625,"lng":136.778903,"zip":"4980069"},{"town":"富浜三丁目","koaza":"","lat":35.027118,"lng":136.781542,"zip":"4980069"},{"town":"富浜四丁目","koaza":"","lat":35.023995,"lng":136.788117,"zip":"4980069"},{"town":"富浜五丁目","koaza":"","lat":35.01963,"lng":136.792608,"zip":"4980069"},{"town":"鳥ケ地一丁目","koaza":"","lat":35.100513,"lng":136.758194,"zip":"4901403"},{"town":"鳥ケ地二丁目","koaza":"","lat":35.096163,"lng":136.759247,"zip":"4901403"},{"town":"鳥ケ地三丁目","koaza":"","lat":35.09632,"lng":136.754384,"zip":"4901403"},{"town":"中原一丁目","koaza":"","lat":35.066186,"lng":136.755117,"zip":"4980057"},{"town":"中原町","koaza":"","lat":35.06634,"lng":136.752219,"zip":"4980057"},{"town":"中山町","koaza":"","lat":35.102899,"lng":136.729157,"zip":"4980038"},{"town":"鍋田町","koaza":"","lat":35.047529,"lng":136.767949,"zip":"4980068"},{"town":"鍋平一丁目","koaza":"","lat":35.117164,"lng":136.745605,"zip":"4901406"},{"town":"鍋平二丁目","koaza":"","lat":35.114758,"lng":136.744351,"zip":"4901406"},{"town":"鍋平三丁目","koaza":"","lat":35.112978,"lng":136.745803,"zip":"4901406"},{"town":"鍋平四丁目","koaza":"","lat":35.111221,"lng":136.746292,"zip":"4901406"},{"town":"鍋平五丁目","koaza":"","lat":35.110578,"lng":136.749275,"zip":"4901406"},{"town":"西蜆一丁目","koaza":"","lat":35.110035,"lng":136.770759,"zip":"4901427"},{"town":"西蜆二丁目","koaza":"","lat":35.10506,"lng":136.772358,"zip":"4901427"},{"town":"西末広一丁目","koaza":"","lat":35.061911,"lng":136.780129,"zip":"4980064"},{"town":"西末広二丁目","koaza":"","lat":35.06132,"lng":136.783765,"zip":"4980064"},{"town":"西末広三丁目","koaza":"","lat":35.061011,"lng":136.780335,"zip":"4980064"},{"town":"西末広四丁目","koaza":"","lat":35.057664,"lng":136.779825,"zip":"4980064"},{"town":"西末広五丁目","koaza":"","lat":35.057706,"lng":136.784139,"zip":"4980064"},{"town":"西中地町","koaza":"","lat":35.124429,"lng":136.73217,"zip":"4980001"},{"town":"荷之上町","koaza":"","lat":35.126514,"lng":136.722094,"zip":"4980011"},{"town":"東蜆一丁目","koaza":"","lat":35.105507,"lng":136.775934,"zip":"4901425"},{"town":"東蜆二丁目","koaza":"","lat":35.10313,"lng":136.781272,"zip":"4901425"},{"town":"東末広一丁目","koaza":"","lat":35.070515,"lng":136.786331,"zip":"4980063"},{"town":"東末広二丁目","koaza":"","lat":35.066013,"lng":136.787718,"zip":"4980063"},{"town":"東末広三丁目","koaza":"","lat":35.062543,"lng":136.788163,"zip":"4980063"},{"town":"東末広四丁目","koaza":"","lat":35.057978,"lng":136.788701,"zip":"4980063"},{"town":"東末広五丁目","koaza":"","lat":35.058499,"lng":136.793,"zip":"4980063"},{"town":"東末広六丁目","koaza":"","lat":35.062783,"lng":136.79197,"zip":"4980063"},{"town":"東末広七丁目","koaza":"","lat":35.067017,"lng":136.791617,"zip":"4980063"},{"town":"東末広八丁目","koaza":"","lat":35.063427,"lng":136.797698,"zip":"4980063"},{"town":"東末広九丁目","koaza":"","lat":35.059556,"lng":136.798331,"zip":"4980063"},{"town":"東中地一丁目","koaza":"","lat":35.124278,"lng":136.736514,"zip":"4980002"},{"town":"東中地二丁目","koaza":"","lat":35.122871,"lng":136.74074,"zip":"4980002"},{"town":"平島町","koaza":"","lat":35.10721,"lng":136.733319,"zip":"4980025"},{"town":"平島中二丁目","koaza":"","lat":35.10955,"lng":136.738111,"zip":"4980032"},{"town":"平島中三丁目","koaza":"","lat":35.109276,"lng":136.736822,"zip":"4980032"},{"town":"平島中四丁目","koaza":"","lat":35.107171,"lng":136.737844,"zip":"4980032"},{"town":"平島西一丁目","koaza":"","lat":35.109781,"lng":136.735804,"zip":"4980033"},{"town":"平島東一丁目","koaza":"","lat":35.108908,"lng":136.741486,"zip":"4980034"},{"town":"平島東二丁目","koaza":"","lat":35.107639,"lng":136.742572,"zip":"4980034"},{"town":"平島東三丁目","koaza":"","lat":35.105875,"lng":136.745471,"zip":"4980034"},{"town":"前ケ須町","koaza":"","lat":35.107552,"lng":136.725401,"zip":"4980017"},{"town":"前ケ平一丁目","koaza":"","lat":35.125513,"lng":136.741278,"zip":"4980003"},{"town":"前ケ平二丁目","koaza":"","lat":35.127459,"lng":136.744246,"zip":"4980003"},{"town":"前ケ平三丁目","koaza":"","lat":35.12728,"lng":136.748616,"zip":"4980003"},{"town":"又八一丁目","koaza":"","lat":35.124485,"lng":136.749397,"zip":"4980004"},{"town":"又八二丁目","koaza":"","lat":35.124494,"lng":136.753527,"zip":"4980004"},{"town":"又八三丁目","koaza":"","lat":35.120578,"lng":136.747888,"zip":"4980004"},{"town":"又八四丁目","koaza":"","lat":35.124624,"lng":136.74839,"zip":"4980004"},{"town":"松名一丁目","koaza":"","lat":35.09579,"lng":136.753326,"zip":"4980042"},{"town":"松名二丁目","koaza":"","lat":35.094097,"lng":136.752516,"zip":"4980042"},{"town":"松名三丁目","koaza":"","lat":35.090194,"lng":136.754615,"zip":"4980042"},{"town":"松名四丁目","koaza":"","lat":35.088122,"lng":136.756138,"zip":"4980042"},{"town":"松名五丁目","koaza":"","lat":35.085822,"lng":136.752612,"zip":"4980042"},{"town":"松名六丁目","koaza":"","lat":35.086839,"lng":136.758065,"zip":"4980042"},{"town":"松名七丁目","koaza":"","lat":35.090507,"lng":136.757825,"zip":"4980042"},{"town":"三好一丁目","koaza":"","lat":35.072418,"lng":136.762157,"zip":"4980046"},{"town":"三好二丁目","koaza":"","lat":35.073755,"lng":136.760774,"zip":"4980046"},{"town":"三好三丁目","koaza":"","lat":35.073474,"lng":136.759205,"zip":"4980046"},{"town":"三好四丁目","koaza":"","lat":35.071374,"lng":136.761278,"zip":"4980046"},{"town":"三好五丁目","koaza":"","lat":35.070103,"lng":136.759313,"zip":"4980046"},{"town":"森津十丁目","koaza":"","lat":35.092604,"lng":136.740636,"zip":"4980036"},{"town":"森津十一丁目","koaza":"","lat":35.097917,"lng":136.735984,"zip":"4980036"},{"town":"森津十二丁目","koaza":"","lat":35.098976,"lng":136.735719,"zip":"4980036"},{"town":"森津十三丁目","koaza":"","lat":35.096522,"lng":136.734764,"zip":"4980036"},{"town":"森津十四丁目","koaza":"","lat":35.094663,"lng":136.735346,"zip":"4980036"},{"town":"森津十五丁目","koaza":"","lat":35.091941,"lng":136.737348,"zip":"4980036"},{"town":"森津十六丁目","koaza":"","lat":35.095393,"lng":136.734155,"zip":"4980036"},{"town":"森津一丁目","koaza":"","lat":35.102185,"lng":136.736437,"zip":"4980036"},{"town":"森津二丁目","koaza":"","lat":35.101631,"lng":136.738359,"zip":"4980036"},{"town":"森津三丁目","koaza":"","lat":35.100459,"lng":136.738593,"zip":"4980036"},{"town":"森津四丁目","koaza":"","lat":35.099213,"lng":136.739022,"zip":"4980036"},{"town":"森津五丁目","koaza":"","lat":35.098159,"lng":136.739389,"zip":"4980036"},{"town":"森津六丁目","koaza":"","lat":35.097106,"lng":136.739637,"zip":"4980036"},{"town":"森津七丁目","koaza":"","lat":35.096053,"lng":136.73973,"zip":"4980036"},{"town":"森津八丁目","koaza":"","lat":35.095013,"lng":136.739714,"zip":"4980036"},{"town":"森津九丁目","koaza":"","lat":35.093954,"lng":136.740267,"zip":"4980036"},{"town":"楽平一丁目","koaza":"","lat":35.128508,"lng":136.754879,"zip":"4980005"},{"town":"楽平二丁目","koaza":"","lat":35.126121,"lng":136.752501,"zip":"4980005"},{"town":"六條町","koaza":"","lat":35.105315,"lng":136.750698,"zip":"4901401"},{"town":"五之三町","koaza":"川平","lat":35.123899,"lng":136.710301,"zip":"4980012"},{"town":"五之三町","koaza":"伊三郎","lat":35.126108,"lng":136.709569,"zip":"4980012"},{"town":"五之三町","koaza":"与太郎","lat":35.124342,"lng":136.712398,"zip":"4980012"},{"town":"五之三町","koaza":"西本田","lat":35.129998,"lng":136.71117,"zip":"4980012"},{"town":"五之三町","koaza":"福島","lat":35.126866,"lng":136.71317,"zip":"4980012"},{"town":"五之三町","koaza":"東与太郎","lat":35.122336,"lng":136.712835,"zip":"4980012"},{"town":"五之三町","koaza":"本田","lat":35.129219,"lng":136.712229,"zip":"4980012"},{"town":"小島町","koaza":"半兵衛分","lat":35.115899,"lng":136.712235,"zip":"4980016"},{"town":"五明町","koaza":"西亀具","lat":35.113942,"lng":136.714952,"zip":"4980014"},{"town":"鯏浦町","koaza":"用水上","lat":35.120705,"lng":136.714815,"zip":"4980023"},{"town":"五之三町","koaza":"焼田","lat":35.124841,"lng":136.714292,"zip":"4980012"},{"town":"五明町","koaza":"二間城","lat":35.115754,"lng":136.7147,"zip":"4980014"},{"town":"荷之上町","koaza":"柴ケ森","lat":35.131892,"lng":136.714666,"zip":"4980011"},{"town":"五明町","koaza":"内川平","lat":35.117549,"lng":136.714573,"zip":"4980014"},{"town":"鯏浦町","koaza":"未新田","lat":35.11577,"lng":136.717699,"zip":"4980023"},{"town":"五明町","koaza":"内川平外","lat":35.11819,"lng":136.714294,"zip":"4980014"},{"town":"五明町","koaza":"九郎治","lat":35.114048,"lng":136.717828,"zip":"4980014"},{"town":"荷之上町","koaza":"川田","lat":35.126984,"lng":136.715774,"zip":"4980011"},{"town":"五之三町","koaza":"東本田","lat":35.129798,"lng":136.716214,"zip":"4980012"},{"town":"五明町","koaza":"蒲原","lat":35.115526,"lng":136.715932,"zip":"4980014"},{"town":"鯏浦町","koaza":"上本田","lat":35.117431,"lng":136.718652,"zip":"4980023"},{"town":"小島町","koaza":"下新田","lat":35.10999,"lng":136.716722,"zip":"4980016"},{"town":"小島町","koaza":"附新田","lat":35.108018,"lng":136.717232,"zip":"4980016"},{"town":"荷之上町","koaza":"中焼田","lat":35.124265,"lng":136.716511,"zip":"4980011"},{"town":"五明町","koaza":"小赤津外","lat":35.112282,"lng":136.719999,"zip":"4980014"},{"town":"荷之上町","koaza":"河原","lat":35.126465,"lng":136.717252,"zip":"4980011"},{"town":"荷之上町","koaza":"石仏","lat":35.128807,"lng":136.717127,"zip":"4980011"},{"town":"中山町","koaza":"松山","lat":35.104636,"lng":136.720106,"zip":"4980038"},{"town":"鯏浦町","koaza":"下与太","lat":35.121376,"lng":136.71909,"zip":"4980023"},{"town":"五明町","koaza":"築留","lat":35.110928,"lng":136.719027,"zip":"4980014"},{"town":"前ケ須町","koaza":"駅地","lat":35.106062,"lng":136.724077,"zip":"4980017"},{"town":"荷之上町","koaza":"本田屋敷","lat":35.126117,"lng":136.722108,"zip":"4980011"},{"town":"前ケ須町","koaza":"午新田","lat":35.108575,"lng":136.719677,"zip":"4980017"},{"town":"前ケ須町","koaza":"野方","lat":35.105908,"lng":136.723294,"zip":"4980017"},{"town":"荷之上町","koaza":"小新田","lat":35.12517,"lng":136.719065,"zip":"4980011"},{"town":"鯏浦町","koaza":"下本田","lat":35.118825,"lng":136.722467,"zip":"4980023"},{"town":"鯏浦町","koaza":"方六","lat":35.113361,"lng":136.721748,"zip":"4980023"},{"town":"鯏浦町","koaza":"下六","lat":35.11576,"lng":136.720804,"zip":"4980023"},{"town":"鯏浦町","koaza":"中六","lat":35.112633,"lng":136.723467,"zip":"4980023"},{"town":"前ケ須町","koaza":"南本田","lat":35.108415,"lng":136.723109,"zip":"4980017"},{"town":"荷之上町","koaza":"権七走","lat":35.123933,"lng":136.722721,"zip":"4980011"},{"town":"中山町","koaza":"分水","lat":35.103664,"lng":136.722875,"zip":"4980038"},{"town":"中山町","koaza":"中山","lat":35.102674,"lng":136.724422,"zip":"4980038"},{"town":"鯏浦町","koaza":"上巳","lat":35.120889,"lng":136.723218,"zip":"4980023"},{"town":"荷之上町","koaza":"小田面","lat":35.126899,"lng":136.723594,"zip":"4980011"},{"town":"鯏浦町","koaza":"上六","lat":35.116262,"lng":136.724578,"zip":"4980023"},{"town":"前ケ須町","koaza":"小前ケ須","lat":35.106163,"lng":136.724895,"zip":"4980017"},{"town":"前ケ須町","koaza":"西勘助","lat":35.108207,"lng":136.725732,"zip":"4980017"},{"town":"荷之上町","koaza":"下焼田","lat":35.125574,"lng":136.725242,"zip":"4980011"},{"town":"中山町","koaza":"懸廻","lat":35.101752,"lng":136.72433,"zip":"4980038"},{"town":"荷之上町","koaza":"来家","lat":35.126992,"lng":136.726407,"zip":"4980011"},{"town":"中山町","koaza":"桃陰","lat":35.104258,"lng":136.725097,"zip":"4980038"},{"town":"鯏浦町","koaza":"浦六","lat":35.119145,"lng":136.726684,"zip":"4980023"},{"town":"中山町","koaza":"中砂","lat":35.10365,"lng":136.72564,"zip":"4980038"},{"town":"西中地町","koaza":"中島","lat":35.120954,"lng":136.728422,"zip":"4980001"},{"town":"荷之上町","koaza":"八平裏","lat":35.126852,"lng":136.727351,"zip":"4980011"},{"town":"荷之上町","koaza":"焼田新田","lat":35.122031,"lng":136.728243,"zip":"4980011"},{"town":"鯏浦町","koaza":"南前新田","lat":35.111262,"lng":136.729283,"zip":"4980023"},{"town":"荷之上町","koaza":"六十人","lat":35.123759,"lng":136.728666,"zip":"4980011"},{"town":"鯏浦町","koaza":"西前新田","lat":35.113768,"lng":136.728645,"zip":"4980023"},{"town":"中山町","koaza":"南山","lat":35.100847,"lng":136.730015,"zip":"4980038"},{"town":"鯏浦町","koaza":"気開","lat":35.117237,"lng":136.728782,"zip":"4980023"},{"town":"中山町","koaza":"本山","lat":35.102832,"lng":136.730404,"zip":"4980038"},{"town":"中山町","koaza":"亥新田","lat":35.103873,"lng":136.727627,"zip":"4980038"},{"town":"前ケ須町","koaza":"東勘助","lat":35.107188,"lng":136.729294,"zip":"4980017"},{"town":"西中地町","koaza":"五右","lat":35.126042,"lng":136.732854,"zip":"4980001"},{"town":"荷之上町","koaza":"古堤","lat":35.123228,"lng":136.730607,"zip":"4980011"},{"town":"荷之上町","koaza":"白頭","lat":35.127564,"lng":136.7284,"zip":"4980011"},{"town":"鯏浦町","koaza":"脇元小","lat":35.11697,"lng":136.728519,"zip":"4980023"},{"town":"平島町","koaza":"西勘助","lat":35.10676,"lng":136.730158,"zip":"4980025"},{"town":"鎌倉町","koaza":"外分","lat":35.119146,"lng":136.730229,"zip":"4980007"},{"town":"鯏浦町","koaza":"東気開","lat":35.116573,"lng":136.73132,"zip":"4980023"},{"town":"前ケ須町","koaza":"勘助走","lat":35.108725,"lng":136.731445,"zip":"4980017"},{"town":"平島町","koaza":"西新田","lat":35.105483,"lng":136.7347,"zip":"4980025"},{"town":"平島町","koaza":"喜右味名","lat":35.111204,"lng":136.73384,"zip":"4980025"},{"town":"中山町","koaza":"辰新田","lat":35.10412,"lng":136.731246,"zip":"4980038"},{"town":"鯏浦町","koaza":"東前新田","lat":35.112424,"lng":136.733303,"zip":"4980023"},{"town":"平島町","koaza":"東勘助","lat":35.107224,"lng":136.734052,"zip":"4980025"},{"town":"鯏浦町","koaza":"北前新田","lat":35.117126,"lng":136.735108,"zip":"4980023"},{"town":"平島町","koaza":"大脇","lat":35.108944,"lng":136.733733,"zip":"4980025"},{"town":"西中地町","koaza":"権右","lat":35.122574,"lng":136.734936,"zip":"4980001"},{"town":"鯏浦町","koaza":"車新田","lat":35.113561,"lng":136.737906,"zip":"4980023"},{"town":"中山町","koaza":"北新田","lat":35.103696,"lng":136.734382,"zip":"4980038"},{"town":"西中地町","koaza":"新平","lat":35.123299,"lng":136.735291,"zip":"4980001"},{"town":"平島町","koaza":"北勘助","lat":35.10913,"lng":136.735252,"zip":"4980025"},{"town":"中山町","koaza":"南辰","lat":35.10255,"lng":136.73591,"zip":"4980038"},{"town":"中山町","koaza":"北脇","lat":35.10295,"lng":136.736171,"zip":"4980038"},{"town":"鯏浦町","koaza":"一反割","lat":35.114532,"lng":136.736385,"zip":"4980023"},{"town":"鎌倉町","koaza":"権右走","lat":35.121049,"lng":136.738039,"zip":"4980007"},{"town":"鯏浦町","koaza":"下巳","lat":35.115317,"lng":136.737036,"zip":"4980023"},{"town":"平島町","koaza":"北広畑","lat":35.111127,"lng":136.738335,"zip":"4980025"},{"town":"平島町","koaza":"中新田","lat":35.104781,"lng":136.739634,"zip":"4980025"},{"town":"鯏浦町","koaza":"中割","lat":35.114835,"lng":136.73735,"zip":"4980023"},{"town":"鯏浦町","koaza":"三畝割","lat":35.113329,"lng":136.737429,"zip":"4980023"},{"town":"平島町","koaza":"南広畑","lat":35.108987,"lng":136.737918,"zip":"4980025"},{"town":"鯏浦町","koaza":"天王割","lat":35.113356,"lng":136.73837,"zip":"4980023"},{"town":"鯏浦町","koaza":"車東","lat":35.113406,"lng":136.740365,"zip":"4980023"},{"town":"平島町","koaza":"小具足巳","lat":35.110013,"lng":136.740297,"zip":"4980025"},{"town":"鯏浦町","koaza":"伊勢田前","lat":35.11334,"lng":136.740923,"zip":"4980023"},{"town":"平島町","koaza":"脇島","lat":35.111387,"lng":136.740841,"zip":"4980025"},{"town":"平島町","koaza":"五反割","lat":35.111417,"lng":136.742359,"zip":"4980025"},{"town":"平島町","koaza":"小具足前","lat":35.102849,"lng":136.745861,"zip":"4980025"},{"town":"平島町","koaza":"甲新田","lat":35.104823,"lng":136.743897,"zip":"4980025"},{"town":"六條町","koaza":"大山","lat":35.108233,"lng":136.749668,"zip":"4901401"},{"town":"六條町","koaza":"中切","lat":35.103985,"lng":136.750585,"zip":"4901401"},{"town":"六條町","koaza":"大崎","lat":35.103883,"lng":136.753299,"zip":"4901401"},{"town":"間崎町","koaza":"ハノ割","lat":35.079542,"lng":136.751519,"zip":"4980044"},{"town":"鍋田町","koaza":"稲山","lat":35.052568,"lng":136.762612,"zip":"4980068"},{"town":"鍋田町","koaza":"六野","lat":35.048548,"lng":136.761164,"zip":"4980068"},{"town":"鍋田町","koaza":"八穂","lat":35.047665,"lng":136.774103,"zip":"4980068"}]