[{"town":"大字春木","koaza":"","lat":35.088972,"lng":137.052583,"zip":"4700100"},{"town":"大字諸輪","koaza":"","lat":35.107975,"lng":137.075844,"zip":"4700100"},{"town":"大字和合","koaza":"","lat":35.105689,"lng":137.046056,"zip":"4700100"},{"town":"北山台一丁目","koaza":"","lat":35.097135,"lng":137.062408,"zip":"4700152"},{"town":"北山台二丁目","koaza":"","lat":35.097817,"lng":137.059759,"zip":"4700152"},{"town":"北山台三丁目","koaza":"","lat":35.100793,"lng":137.06112,"zip":"4700152"},{"town":"北山台四丁目","koaza":"","lat":35.09917,"lng":137.063904,"zip":"4700152"},{"town":"北山台五丁目","koaza":"","lat":35.100627,"lng":137.064554,"zip":"4700152"},{"town":"清水一丁目","koaza":"","lat":35.091745,"lng":137.028602,"zip":"4700165"},{"town":"清水二丁目","koaza":"","lat":35.091026,"lng":137.031282,"zip":"4700165"},{"town":"清水三丁目","koaza":"","lat":35.089272,"lng":137.029398,"zip":"4700165"},{"town":"清水四丁目","koaza":"","lat":35.086517,"lng":137.028538,"zip":"4700165"},{"town":"白鳥一丁目","koaza":"","lat":35.108991,"lng":137.054808,"zip":"4700155"},{"town":"白鳥二丁目","koaza":"","lat":35.111875,"lng":137.052415,"zip":"4700155"},{"town":"白鳥三丁目","koaza":"","lat":35.113167,"lng":137.058851,"zip":"4700155"},{"town":"白鳥四丁目","koaza":"","lat":35.114014,"lng":137.054981,"zip":"4700155"},{"town":"涼松一丁目","koaza":"","lat":35.098429,"lng":137.027426,"zip":"4700163"},{"town":"涼松二丁目","koaza":"","lat":35.099575,"lng":137.025541,"zip":"4700163"},{"town":"春木台一丁目","koaza":"","lat":35.089446,"lng":137.048284,"zip":"4700161"},{"town":"春木台二丁目","koaza":"","lat":35.089324,"lng":137.044789,"zip":"4700161"},{"town":"春木台三丁目","koaza":"","lat":35.089644,"lng":137.041361,"zip":"4700161"},{"town":"春木台四丁目","koaza":"","lat":35.086839,"lng":137.040891,"zip":"4700161"},{"town":"春木台五丁目","koaza":"","lat":35.085848,"lng":137.042599,"zip":"4700161"},{"town":"兵庫一丁目","koaza":"","lat":35.09399,"lng":137.023008,"zip":"4700166"},{"town":"兵庫二丁目","koaza":"","lat":35.091859,"lng":137.025578,"zip":"4700166"},{"town":"兵庫三丁目","koaza":"","lat":35.091007,"lng":137.022775,"zip":"4700166"},{"town":"兵庫四丁目","koaza":"","lat":35.090512,"lng":137.025882,"zip":"4700166"},{"town":"御岳一丁目","koaza":"","lat":35.111079,"lng":137.063867,"zip":"4700156"},{"town":"御岳二丁目","koaza":"","lat":35.112995,"lng":137.062901,"zip":"4700156"},{"town":"三ツ池一丁目","koaza":"","lat":35.096651,"lng":137.02614,"zip":"4700164"},{"town":"三ツ池二丁目","koaza":"","lat":35.095362,"lng":137.027413,"zip":"4700164"},{"town":"三ツ池三丁目","koaza":"","lat":35.094158,"lng":137.026362,"zip":"4700164"},{"town":"三ツ池四丁目","koaza":"","lat":35.093008,"lng":137.027723,"zip":"4700164"},{"town":"和合ケ丘一丁目","koaza":"","lat":35.109443,"lng":137.047326,"zip":"4700154"},{"town":"和合ケ丘二丁目","koaza":"","lat":35.11129,"lng":137.044844,"zip":"4700154"},{"town":"和合ケ丘三丁目","koaza":"","lat":35.111933,"lng":137.047734,"zip":"4700154"},{"town":"大字春木","koaza":"藤坂","lat":35.096443,"lng":137.020905,"zip":"4700100"},{"town":"大字春木","koaza":"白土","lat":35.102749,"lng":137.030121,"zip":"4700100"},{"town":"大字春木","koaza":"半ノ木","lat":35.096587,"lng":137.023394,"zip":"4700100"},{"town":"大字春木","koaza":"涼松","lat":35.099957,"lng":137.024622,"zip":"4700100"},{"town":"大字春木","koaza":"音貝","lat":35.100455,"lng":137.027804,"zip":"4700100"},{"town":"大字和合","koaza":"ドンドロ","lat":35.111758,"lng":137.034243,"zip":"4700100"},{"town":"大字春木","koaza":"千子","lat":35.103346,"lng":137.034655,"zip":"4700100"},{"town":"大字春木","koaza":"勘右エ門新田","lat":35.097634,"lng":137.033259,"zip":"4700100"},{"town":"大字春木","koaza":"岩ケ根","lat":35.086359,"lng":137.030067,"zip":"4700100"},{"town":"大字春木","koaza":"下鏡田","lat":35.093528,"lng":137.036282,"zip":"4700100"},{"town":"大字春木","koaza":"新池","lat":35.088706,"lng":137.035414,"zip":"4700100"},{"town":"大字春木","koaza":"小坂","lat":35.086041,"lng":137.033601,"zip":"4700100"},{"town":"大字和合","koaza":"濁池新田","lat":35.110547,"lng":137.036281,"zip":"4700100"},{"town":"大字春木","koaza":"清水","lat":35.089683,"lng":137.031967,"zip":"4700100"},{"town":"大字春木","koaza":"清水ケ根","lat":35.083116,"lng":137.038055,"zip":"4700100"},{"town":"大字春木","koaza":"弥計","lat":35.098449,"lng":137.037302,"zip":"4700100"},{"town":"大字春木","koaza":"柏屋本","lat":35.095995,"lng":137.03855,"zip":"4700100"},{"town":"大字春木","koaza":"上針廻間","lat":35.099827,"lng":137.041348,"zip":"4700100"},{"town":"大字春木","koaza":"上正葉廻間","lat":35.084408,"lng":137.040154,"zip":"4700100"},{"town":"大字和合","koaza":"牛廻間","lat":35.108167,"lng":137.042487,"zip":"4700100"},{"town":"大字春木","koaza":"南天神","lat":35.080036,"lng":137.041779,"zip":"4700100"},{"town":"大字春木","koaza":"蛭池","lat":35.081417,"lng":137.042239,"zip":"4700100"},{"town":"大字春木","koaza":"折橋","lat":35.096135,"lng":137.04232,"zip":"4700100"},{"town":"大字春木","koaza":"北切山","lat":35.078335,"lng":137.042285,"zip":"4700100"},{"town":"大字春木","koaza":"黒土","lat":35.10141,"lng":137.04147,"zip":"4700100"},{"town":"大字春木","koaza":"南切山","lat":35.075289,"lng":137.042658,"zip":"4700100"},{"town":"大字春木","koaza":"下正葉廻間","lat":35.083245,"lng":137.043168,"zip":"4700100"},{"town":"大字春木","koaza":"桝池","lat":35.09789,"lng":137.043335,"zip":"4700100"},{"town":"大字春木","koaza":"喜之右エ門新田","lat":35.090794,"lng":137.042638,"zip":"4700100"},{"town":"大字春木","koaza":"中ノ杁","lat":35.091952,"lng":137.045729,"zip":"4700100"},{"town":"大字春木","koaza":"塩田","lat":35.097538,"lng":137.044528,"zip":"4700100"},{"town":"大字春木","koaza":"西前","lat":35.077864,"lng":137.044372,"zip":"4700100"},{"town":"大字春木","koaza":"四ツ塚","lat":35.070021,"lng":137.044247,"zip":"4700100"},{"town":"大字春木","koaza":"狐塚","lat":35.086792,"lng":137.044979,"zip":"4700100"},{"town":"大字春木","koaza":"伊勢木","lat":35.100116,"lng":137.047905,"zip":"4700100"},{"town":"大字春木","koaza":"畑尻","lat":35.074113,"lng":137.043915,"zip":"4700100"},{"town":"大字春木","koaza":"坂上","lat":35.080656,"lng":137.043979,"zip":"4700100"},{"town":"大字春木","koaza":"屋敷","lat":35.083982,"lng":137.046391,"zip":"4700100"},{"town":"大字春木","koaza":"上池田","lat":35.081397,"lng":137.044489,"zip":"4700100"},{"town":"大字和合","koaza":"ギロウ","lat":35.10427,"lng":137.045132,"zip":"4700100"},{"town":"大字春木","koaza":"池田","lat":35.081606,"lng":137.045946,"zip":"4700100"},{"town":"大字春木","koaza":"下池田","lat":35.081285,"lng":137.045585,"zip":"4700100"},{"town":"大字和合","koaza":"神ノ木","lat":35.105804,"lng":137.046147,"zip":"4700100"},{"town":"大字春木","koaza":"深池","lat":35.095702,"lng":137.046666,"zip":"4700100"},{"town":"大字春木","koaza":"太子","lat":35.079146,"lng":137.047771,"zip":"4700100"},{"town":"大字和合","koaza":"林清池","lat":35.106322,"lng":137.047234,"zip":"4700100"},{"town":"大字春木","koaza":"南見額","lat":35.098376,"lng":137.047233,"zip":"4700100"},{"town":"大字和合","koaza":"前田","lat":35.099268,"lng":137.050216,"zip":"4700100"},{"town":"大字春木","koaza":"前田","lat":35.081331,"lng":137.047013,"zip":"4700100"},{"town":"大字和合","koaza":"ジ子ンゴ","lat":35.101857,"lng":137.047885,"zip":"4700100"},{"town":"大字春木","koaza":"姥ケ根","lat":35.091182,"lng":137.049362,"zip":"4700100"},{"town":"大字和合","koaza":"芦廻間","lat":35.102257,"lng":137.048993,"zip":"4700100"},{"town":"大字春木","koaza":"蟹池","lat":35.093323,"lng":137.047908,"zip":"4700100"},{"town":"大字春木","koaza":"仲田","lat":35.085589,"lng":137.049691,"zip":"4700100"},{"town":"大字春木","koaza":"山畑","lat":35.08798,"lng":137.047659,"zip":"4700100"},{"town":"大字和合","koaza":"大坂","lat":35.106816,"lng":137.049783,"zip":"4700100"},{"town":"大字春木","koaza":"起内","lat":35.076134,"lng":137.048363,"zip":"4700100"},{"town":"大字春木","koaza":"塔ノ上","lat":35.094746,"lng":137.048602,"zip":"4700100"},{"town":"大字春木","koaza":"追分","lat":35.081909,"lng":137.049279,"zip":"4700100"},{"town":"大字春木","koaza":"猫池","lat":35.096526,"lng":137.048682,"zip":"4700100"},{"town":"大字春木","koaza":"山崎","lat":35.088298,"lng":137.050456,"zip":"4700100"},{"town":"大字春木","koaza":"上ノ畑","lat":35.092662,"lng":137.050787,"zip":"4700100"},{"town":"大字春木","koaza":"小廻間","lat":35.09699,"lng":137.049693,"zip":"4700100"},{"town":"大字春木","koaza":"瀬戸田","lat":35.094644,"lng":137.050738,"zip":"4700100"},{"town":"大字春木","koaza":"南岡ノ上","lat":35.095459,"lng":137.051004,"zip":"4700100"},{"town":"大字和合","koaza":"知々釜","lat":35.101881,"lng":137.051099,"zip":"4700100"},{"town":"大字春木","koaza":"道下","lat":35.086488,"lng":137.051414,"zip":"4700100"},{"town":"大字春木","koaza":"橋際","lat":35.097066,"lng":137.051588,"zip":"4700100"},{"town":"大字春木","koaza":"中屋敷","lat":35.090785,"lng":137.051101,"zip":"4700100"},{"town":"大字春木","koaza":"西前田","lat":35.089034,"lng":137.050891,"zip":"4700100"},{"town":"大字春木","koaza":"北所屋敷","lat":35.093443,"lng":137.051301,"zip":"4700100"},{"town":"大字春木","koaza":"東岡ノ上","lat":35.096179,"lng":137.051253,"zip":"4700100"},{"town":"大字春木","koaza":"和合前田","lat":35.098443,"lng":137.052056,"zip":"4700100"},{"town":"大字春木","koaza":"北反田","lat":35.096147,"lng":137.052458,"zip":"4700100"},{"town":"大字春木","koaza":"中通屋敷","lat":35.093456,"lng":137.052415,"zip":"4700100"},{"town":"大字春木","koaza":"西羽根穴","lat":35.097334,"lng":137.053118,"zip":"4700100"},{"town":"大字和合","koaza":"北蚊谷","lat":35.106114,"lng":137.054373,"zip":"4700100"},{"town":"大字春木","koaza":"市場屋敷","lat":35.092529,"lng":137.053451,"zip":"4700100"},{"town":"大字和合","koaza":"南蚊谷","lat":35.10067,"lng":137.053828,"zip":"4700100"},{"town":"大字春木","koaza":"羽根穴","lat":35.096928,"lng":137.05274,"zip":"4700100"},{"town":"大字春木","koaza":"申下","lat":35.094283,"lng":137.054118,"zip":"4700100"},{"town":"大字春木","koaza":"東前田","lat":35.090844,"lng":137.054526,"zip":"4700100"},{"town":"大字春木","koaza":"東羽根穴","lat":35.096346,"lng":137.055026,"zip":"4700100"},{"town":"大字春木","koaza":"石塔","lat":35.093049,"lng":137.055114,"zip":"4700100"},{"town":"大字和合","koaza":"東蚊谷","lat":35.102071,"lng":137.056274,"zip":"4700100"},{"town":"大字諸輪","koaza":"北山","lat":35.095809,"lng":137.061437,"zip":"4700100"},{"town":"大字諸輪","koaza":"尼ケ根","lat":35.105713,"lng":137.059555,"zip":"4700100"},{"town":"大字春木","koaza":"北野渕","lat":35.094832,"lng":137.058026,"zip":"4700100"},{"town":"大字春木","koaza":"野渕","lat":35.09385,"lng":137.057898,"zip":"4700100"},{"town":"大字諸輪","koaza":"狐坂","lat":35.10232,"lng":137.061105,"zip":"4700100"},{"town":"大字諸輪","koaza":"永根","lat":35.107632,"lng":137.060759,"zip":"4700100"},{"town":"大字諸輪","koaza":"中木戸西","lat":35.113084,"lng":137.066822,"zip":"4700100"},{"town":"大字諸輪","koaza":"押草台","lat":35.103007,"lng":137.064935,"zip":"4700100"},{"town":"大字諸輪","koaza":"大坊池","lat":35.108865,"lng":137.06381,"zip":"4700100"},{"town":"大字諸輪","koaza":"北木戸西","lat":35.113989,"lng":137.069087,"zip":"4700100"},{"town":"大字諸輪","koaza":"仁登","lat":35.097721,"lng":137.065647,"zip":"4700100"},{"town":"大字諸輪","koaza":"稲場","lat":35.103844,"lng":137.066423,"zip":"4700100"},{"town":"大字諸輪","koaza":"上鉾","lat":35.119152,"lng":137.069285,"zip":"4700100"},{"town":"大字諸輪","koaza":"観音畑","lat":35.100385,"lng":137.068319,"zip":"4700100"},{"town":"大字諸輪","koaza":"観音","lat":35.10058,"lng":137.070117,"zip":"4700100"},{"town":"大字諸輪","koaza":"後山","lat":35.107758,"lng":137.07023,"zip":"4700100"},{"town":"大字諸輪","koaza":"南木戸西","lat":35.110628,"lng":137.067355,"zip":"4700100"},{"town":"大字諸輪","koaza":"下市","lat":35.10296,"lng":137.068359,"zip":"4700100"},{"town":"大字諸輪","koaza":"中市","lat":35.104375,"lng":137.070128,"zip":"4700100"},{"town":"大字諸輪","koaza":"百々","lat":35.118652,"lng":137.085519,"zip":"4700100"},{"town":"大字諸輪","koaza":"上市","lat":35.106982,"lng":137.071857,"zip":"4700100"},{"town":"大字諸輪","koaza":"福田","lat":35.096371,"lng":137.071244,"zip":"4700100"},{"town":"大字諸輪","koaza":"木戸畑","lat":35.110859,"lng":137.072689,"zip":"4700100"},{"town":"大字諸輪","koaza":"上前田","lat":35.108798,"lng":137.072698,"zip":"4700100"},{"town":"大字諸輪","koaza":"小泉","lat":35.10954,"lng":137.072094,"zip":"4700100"},{"town":"大字諸輪","koaza":"仲田","lat":35.10187,"lng":137.072417,"zip":"4700100"},{"town":"大字諸輪","koaza":"上仲田","lat":35.101842,"lng":137.072939,"zip":"4700100"},{"town":"大字諸輪","koaza":"曙","lat":35.103348,"lng":137.075493,"zip":"4700100"},{"town":"大字諸輪","koaza":"車坂","lat":35.112932,"lng":137.073065,"zip":"4700100"},{"town":"大字諸輪","koaza":"杉ノ木","lat":35.098335,"lng":137.07574,"zip":"4700100"},{"town":"大字諸輪","koaza":"畑尻山","lat":35.111955,"lng":137.077575,"zip":"4700100"},{"town":"大字諸輪","koaza":"篠木","lat":35.11604,"lng":137.080126,"zip":"4700100"},{"town":"大字諸輪","koaza":"富士塚","lat":35.105634,"lng":137.078717,"zip":"4700100"},{"town":"大字諸輪","koaza":"富士見台","lat":35.103407,"lng":137.079182,"zip":"4700100"},{"town":"大字諸輪","koaza":"畑尻","lat":35.109681,"lng":137.079109,"zip":"4700100"},{"town":"大字諸輪","koaza":"吉田","lat":35.106689,"lng":137.079017,"zip":"4700100"},{"town":"大字諸輪","koaza":"向イ","lat":35.101946,"lng":137.078052,"zip":"4700100"},{"town":"大字諸輪","koaza":"米ケ廻間","lat":35.109052,"lng":137.08423,"zip":"4700100"},{"town":"大字諸輪","koaza":"東脇","lat":35.103061,"lng":137.085807,"zip":"4700100"},{"town":"大字諸輪","koaza":"永井田","lat":35.100103,"lng":137.085119,"zip":"4700100"}]