[{"town":"赤目町","koaza":"","lat":35.202512,"lng":136.697666,"zip":"4968046"},{"town":"石田町","koaza":"","lat":35.170574,"lng":136.693942,"zip":"4960938"},{"town":"稲葉町","koaza":"","lat":35.152425,"lng":136.730155,"zip":"4960907"},{"town":"鰯江町","koaza":"","lat":35.126842,"lng":136.761411,"zip":"4960923"},{"town":"鵜多須町","koaza":"","lat":35.226091,"lng":136.70574,"zip":"4968033"},{"town":"内佐屋町","koaza":"","lat":35.16108,"lng":136.716498,"zip":"4960903"},{"town":"江西町","koaza":"","lat":35.221027,"lng":136.693389,"zip":"4968044"},{"town":"大井町","koaza":"","lat":35.140692,"lng":136.750905,"zip":"4960921"},{"town":"大野町","koaza":"","lat":35.130349,"lng":136.767992,"zip":"4960922"},{"town":"大野山町","koaza":"","lat":35.206335,"lng":136.725944,"zip":"4968017"},{"town":"落合町","koaza":"","lat":35.143999,"lng":136.738484,"zip":"4960909"},{"town":"小津町","koaza":"","lat":35.193338,"lng":136.745145,"zip":"4968009"},{"town":"葛木町","koaza":"","lat":35.180534,"lng":136.683991,"zip":"4960932"},{"town":"金棒町","koaza":"","lat":35.152992,"lng":136.74462,"zip":"4960908"},{"town":"上東川町","koaza":"","lat":35.230578,"lng":136.717965,"zip":"4968031"},{"town":"甘村井町","koaza":"","lat":35.151341,"lng":136.736566,"zip":"4960908"},{"town":"川北町","koaza":"","lat":35.231588,"lng":136.6952,"zip":"4968039"},{"town":"北一色町","koaza":"","lat":35.147699,"lng":136.72584,"zip":"4960905"},{"town":"北河田町","koaza":"","lat":35.188304,"lng":136.742942,"zip":"4968008"},{"town":"給父町","koaza":"","lat":35.22407,"lng":136.684106,"zip":"4968042"},{"town":"草平町","koaza":"","lat":35.201981,"lng":136.715977,"zip":"4968015"},{"town":"古瀬町","koaza":"","lat":35.189358,"lng":136.751875,"zip":"4968004"},{"town":"小茂井町","koaza":"","lat":35.160415,"lng":136.692986,"zip":"4960944"},{"town":"佐折町","koaza":"","lat":35.197273,"lng":136.759381,"zip":"4968002"},{"town":"佐屋町","koaza":"","lat":35.151138,"lng":136.712009,"zip":"4960901"},{"town":"塩田町","koaza":"","lat":35.195443,"lng":136.685259,"zip":"4968049"},{"town":"下一色町","koaza":"","lat":35.183112,"lng":136.703643,"zip":"4960935"},{"town":"下大牧町","koaza":"","lat":35.206936,"lng":136.686077,"zip":"4968048"},{"town":"下東川町","koaza":"","lat":35.222906,"lng":136.712828,"zip":"4968032"},{"town":"勝幡町","koaza":"","lat":35.198909,"lng":136.751441,"zip":"4968001"},{"town":"新右エ門新田町","koaza":"","lat":35.183146,"lng":136.696989,"zip":"4960934"},{"town":"須依町","koaza":"","lat":35.15298,"lng":136.721772,"zip":"4960902"},{"town":"雀ケ森町","koaza":"","lat":35.161517,"lng":136.704444,"zip":"4960941"},{"town":"諏訪町","koaza":"","lat":35.191505,"lng":136.739716,"zip":"4968011"},{"town":"善太新田町","koaza":"","lat":35.125261,"lng":136.758455,"zip":"4960924"},{"town":"千引町","koaza":"","lat":35.189217,"lng":136.756185,"zip":"4968003"},{"town":"高畑町","koaza":"","lat":35.215806,"lng":136.685683,"zip":"4968043"},{"town":"鷹場町","koaza":"","lat":35.204726,"lng":136.709782,"zip":"4968016"},{"town":"立田町","koaza":"","lat":35.156671,"lng":136.684651,"zip":"4960946"},{"town":"立石町","koaza":"","lat":35.211387,"lng":136.690985,"zip":"4968047"},{"town":"戸倉町","koaza":"","lat":35.179559,"lng":136.692708,"zip":"4960933"},{"town":"西川端町","koaza":"","lat":35.21235,"lng":136.717822,"zip":"4968019"},{"town":"西條町","koaza":"","lat":35.137629,"lng":136.723418,"zip":"4960913"},{"town":"西保町","koaza":"","lat":35.137402,"lng":136.710216,"zip":"4960911"},{"town":"根高町","koaza":"","lat":35.190793,"lng":136.736367,"zip":"4968012"},{"town":"早尾町","koaza":"","lat":35.191625,"lng":136.697944,"zip":"4960931"},{"town":"東條町","koaza":"","lat":35.133191,"lng":136.734427,"zip":"4960914"},{"town":"東保町","koaza":"","lat":35.139551,"lng":136.718346,"zip":"4960912"},{"town":"後江町","koaza":"","lat":35.170139,"lng":136.674629,"zip":"4960939"},{"town":"福原新田町","koaza":"","lat":35.128637,"lng":136.683125,"zip":"4960947"},{"town":"藤ケ瀬町","koaza":"","lat":35.22763,"lng":136.691791,"zip":"4968041"},{"town":"二子町","koaza":"","lat":35.20997,"lng":136.705627,"zip":"4968035"},{"town":"渕高町","koaza":"","lat":35.215808,"lng":136.726244,"zip":"4968018"},{"town":"日置町","koaza":"","lat":35.160804,"lng":136.732233,"zip":"4960906"},{"town":"本部田町","koaza":"","lat":35.132891,"lng":136.741425,"zip":"4960915"},{"town":"町方町","koaza":"","lat":35.192536,"lng":136.722636,"zip":"4968014"},{"town":"見越町","koaza":"","lat":35.18725,"lng":136.732384,"zip":"4968013"},{"town":"三和町","koaza":"","lat":35.164391,"lng":136.685629,"zip":"4960945"},{"town":"南河田町","koaza":"","lat":35.186971,"lng":136.747319,"zip":"4968007"},{"town":"宮地町","koaza":"","lat":35.169719,"lng":136.705971,"zip":"4960937"},{"town":"持中町","koaza":"","lat":35.184311,"lng":136.740936,"zip":"4968006"},{"town":"元赤目町","koaza":"","lat":35.214464,"lng":136.695773,"zip":"4968045"},{"town":"森川町","koaza":"","lat":35.133096,"lng":136.699747,"zip":"4960943"},{"town":"諸桑町","koaza":"","lat":35.18192,"lng":136.74857,"zip":"4968005"},{"town":"山路町","koaza":"","lat":35.151902,"lng":136.701232,"zip":"4960942"},{"town":"柚木町","koaza":"","lat":35.163338,"lng":136.724557,"zip":"4960904"},{"town":"四会町","koaza":"","lat":35.176415,"lng":136.701358,"zip":"4960936"},{"town":"六輪町","koaza":"","lat":35.194351,"lng":136.735491,"zip":"4968010"},{"town":"立田町","koaza":"福原","lat":35.138258,"lng":136.675969,"zip":"4960946"},{"town":"立田町","koaza":"堤外三番割","lat":35.135612,"lng":136.678656,"zip":"4960946"},{"town":"立田町","koaza":"十六石山","lat":35.131687,"lng":136.680878,"zip":"4960946"},{"town":"葛木町","koaza":"高田","lat":35.177393,"lng":136.682063,"zip":"4960932"},{"town":"葛木町","koaza":"長池","lat":35.182309,"lng":136.682402,"zip":"4960932"},{"town":"後江町","koaza":"北田面","lat":35.173893,"lng":136.68326,"zip":"4960939"},{"town":"福原新田町","koaza":"郷前","lat":35.128314,"lng":136.682884,"zip":"4960947"},{"town":"福原新田町","koaza":"屋敷附","lat":35.130002,"lng":136.682702,"zip":"4960947"},{"town":"後江町","koaza":"南田面","lat":35.171788,"lng":136.683169,"zip":"4960939"},{"town":"早尾町","koaza":"西立切","lat":35.190564,"lng":136.685255,"zip":"4960931"},{"town":"給父町","koaza":"北部","lat":35.227662,"lng":136.683748,"zip":"4968042"},{"town":"葛木町","koaza":"神田","lat":35.182649,"lng":136.684082,"zip":"4960932"},{"town":"葛木町","koaza":"五反田","lat":35.180499,"lng":136.684143,"zip":"4960932"},{"town":"葛木町","koaza":"葭畔","lat":35.177294,"lng":136.684157,"zip":"4960932"},{"town":"三和町","koaza":"中ノ割","lat":35.165862,"lng":136.686592,"zip":"4960945"},{"town":"福原新田町","koaza":"弐反歩","lat":35.129716,"lng":136.683933,"zip":"4960947"},{"town":"塩田町","koaza":"大森","lat":35.192405,"lng":136.685303,"zip":"4968049"},{"town":"石田町","koaza":"北知田","lat":35.175119,"lng":136.686606,"zip":"4960938"},{"town":"三和町","koaza":"北条","lat":35.170263,"lng":136.685734,"zip":"4960945"},{"town":"藤ケ瀬町","koaza":"西藤","lat":35.228111,"lng":136.689466,"zip":"4968041"},{"town":"早尾町","koaza":"井下野","lat":35.186832,"lng":136.686313,"zip":"4960931"},{"town":"給父町","koaza":"南部","lat":35.222069,"lng":136.686635,"zip":"4968042"},{"town":"給父町","koaza":"中部","lat":35.22474,"lng":136.686621,"zip":"4968042"},{"town":"立田町","koaza":"郷附","lat":35.151812,"lng":136.686936,"zip":"4960946"},{"town":"立田町","koaza":"富安","lat":35.146531,"lng":136.688484,"zip":"4960946"},{"town":"塩田町","koaza":"池田","lat":35.195599,"lng":136.686816,"zip":"4968049"},{"town":"塩田町","koaza":"砂山","lat":35.200372,"lng":136.686819,"zip":"4968049"},{"town":"三和町","koaza":"田尻","lat":35.159609,"lng":136.687099,"zip":"4960945"},{"town":"立田町","koaza":"前田面","lat":35.150486,"lng":136.686919,"zip":"4960946"},{"town":"立田町","koaza":"松田","lat":35.141032,"lng":136.687137,"zip":"4960946"},{"town":"立田町","koaza":"北郷附","lat":35.155449,"lng":136.686906,"zip":"4960946"},{"town":"高畑町","koaza":"尾ノ口","lat":35.218027,"lng":136.688171,"zip":"4968043"},{"town":"高畑町","koaza":"村中","lat":35.215534,"lng":136.686993,"zip":"4968043"},{"town":"下大牧町","koaza":"中島","lat":35.210347,"lng":136.688657,"zip":"4968048"},{"town":"下大牧町","koaza":"寺前","lat":35.208283,"lng":136.68851,"zip":"4968048"},{"town":"江西町","koaza":"街道西","lat":35.220196,"lng":136.688559,"zip":"4968044"},{"town":"下大牧町","koaza":"中央","lat":35.207026,"lng":136.689357,"zip":"4968048"},{"town":"川北町","koaza":"上","lat":35.232779,"lng":136.689647,"zip":"4968039"},{"town":"立田町","koaza":"郷前","lat":35.144541,"lng":136.690183,"zip":"4960946"},{"town":"葛木町","koaza":"ギロ","lat":35.183797,"lng":136.687986,"zip":"4960932"},{"town":"江西町","koaza":"寺南","lat":35.221258,"lng":136.688525,"zip":"4968044"},{"town":"江西町","koaza":"寺北","lat":35.222874,"lng":136.689607,"zip":"4968044"},{"town":"塩田町","koaza":"宮田","lat":35.201425,"lng":136.687992,"zip":"4968049"},{"town":"早尾町","koaza":"新田","lat":35.185192,"lng":136.687559,"zip":"4960931"},{"town":"早尾町","koaza":"枝郷","lat":35.186495,"lng":136.688718,"zip":"4960931"},{"town":"小茂井町","koaza":"北鍋田","lat":35.156759,"lng":136.68834,"zip":"4960944"},{"town":"葛木町","koaza":"江東","lat":35.180541,"lng":136.688765,"zip":"4960932"},{"town":"立田町","koaza":"南鍋田","lat":35.154601,"lng":136.688504,"zip":"4960946"},{"town":"下大牧町","koaza":"稲香","lat":35.203209,"lng":136.689153,"zip":"4968048"},{"town":"早尾町","koaza":"晩稲場","lat":35.190537,"lng":136.690984,"zip":"4960931"},{"town":"高畑町","koaza":"村東","lat":35.215792,"lng":136.688967,"zip":"4968043"},{"town":"立石町","koaza":"本郷","lat":35.210667,"lng":136.689455,"zip":"4968047"},{"town":"塩田町","koaza":"江東","lat":35.192879,"lng":136.68897,"zip":"4968049"},{"town":"立田町","koaza":"船頭平","lat":35.135138,"lng":136.691503,"zip":"4960946"},{"town":"早尾町","koaza":"西草場","lat":35.194254,"lng":136.690651,"zip":"4960931"},{"town":"立田町","koaza":"ギロ","lat":35.139153,"lng":136.689801,"zip":"4960946"},{"town":"小茂井町","koaza":"江西","lat":35.16175,"lng":136.68996,"zip":"4960944"},{"town":"立田町","koaza":"中田","lat":35.142453,"lng":136.690056,"zip":"4960946"},{"town":"戸倉町","koaza":"道添","lat":35.184109,"lng":136.691719,"zip":"4960933"},{"town":"藤ケ瀬町","koaza":"西沼","lat":35.225715,"lng":136.69007,"zip":"4968041"},{"town":"小茂井町","koaza":"才勝","lat":35.157967,"lng":136.690319,"zip":"4960944"},{"town":"立田町","koaza":"東田面","lat":35.15031,"lng":136.690573,"zip":"4960946"},{"town":"立石町","koaza":"上","lat":35.215531,"lng":136.691769,"zip":"4968047"},{"town":"小茂井町","koaza":"下半割","lat":35.152482,"lng":136.690708,"zip":"4960944"},{"town":"立石町","koaza":"宮西","lat":35.215659,"lng":136.690712,"zip":"4968047"},{"town":"立石町","koaza":"中","lat":35.208509,"lng":136.692894,"zip":"4968047"},{"town":"戸倉町","koaza":"中屋敷","lat":35.1806,"lng":136.691194,"zip":"4960933"},{"town":"立石町","koaza":"下山","lat":35.206684,"lng":136.692254,"zip":"4968047"},{"town":"早尾町","koaza":"長瀬","lat":35.185692,"lng":136.693192,"zip":"4960931"},{"town":"小茂井町","koaza":"江東","lat":35.161882,"lng":136.69205,"zip":"4960944"},{"town":"立田町","koaza":"鯉ケ平","lat":35.145299,"lng":136.693407,"zip":"4960946"},{"town":"藤ケ瀬町","koaza":"西平","lat":35.22907,"lng":136.691728,"zip":"4968041"},{"town":"早尾町","koaza":"立切","lat":35.188916,"lng":136.693626,"zip":"4960931"},{"town":"江西町","koaza":"宮西","lat":35.220509,"lng":136.693019,"zip":"4968044"},{"town":"小茂井町","koaza":"大畑","lat":35.158074,"lng":136.692102,"zip":"4960944"},{"town":"早尾町","koaza":"天上","lat":35.195304,"lng":136.691682,"zip":"4960931"},{"town":"川北町","koaza":"下","lat":35.231302,"lng":136.693196,"zip":"4968039"},{"town":"山路町","koaza":"外山","lat":35.15025,"lng":136.691924,"zip":"4960942"},{"town":"江西町","koaza":"江東","lat":35.221844,"lng":136.692771,"zip":"4968044"},{"town":"戸倉町","koaza":"折戸","lat":35.178422,"lng":136.692255,"zip":"4960933"},{"town":"赤目町","koaza":"横座","lat":35.200069,"lng":136.692259,"zip":"4968046"},{"town":"赤目町","koaza":"中屋敷","lat":35.204548,"lng":136.694377,"zip":"4968046"},{"town":"立田町","koaza":"杁先","lat":35.132197,"lng":136.693662,"zip":"4960946"},{"town":"山路町","koaza":"大割","lat":35.150197,"lng":136.693017,"zip":"4960942"},{"town":"早尾町","koaza":"草場","lat":35.193154,"lng":136.696107,"zip":"4960931"},{"town":"戸倉町","koaza":"南鵜戸","lat":35.175181,"lng":136.693729,"zip":"4960933"},{"town":"元赤目町","koaza":"下切","lat":35.213339,"lng":136.692622,"zip":"4968045"},{"town":"石田町","koaza":"宮前","lat":35.169876,"lng":136.694986,"zip":"4960938"},{"town":"四会町","koaza":"庄内","lat":35.173041,"lng":136.693818,"zip":"4960936"},{"town":"元赤目町","koaza":"中切","lat":35.214981,"lng":136.694379,"zip":"4968045"},{"town":"石田町","koaza":"宮東","lat":35.170865,"lng":136.693052,"zip":"4960938"},{"town":"小茂井町","koaza":"松下","lat":35.169401,"lng":136.695079,"zip":"4960944"},{"town":"小茂井町","koaza":"中","lat":35.158888,"lng":136.694671,"zip":"4960944"},{"town":"小茂井町","koaza":"上屋敷","lat":35.166416,"lng":136.695616,"zip":"4960944"},{"town":"森川町","koaza":"井桁西","lat":35.144375,"lng":136.693957,"zip":"4960943"},{"town":"小茂井町","koaza":"中屋敷","lat":35.165131,"lng":136.694525,"zip":"4960944"},{"town":"戸倉町","koaza":"西鵜戸","lat":35.180634,"lng":136.69379,"zip":"4960933"},{"town":"江西町","koaza":"宮東","lat":35.218942,"lng":136.694386,"zip":"4968044"},{"town":"小茂井町","koaza":"宮西","lat":35.15713,"lng":136.694128,"zip":"4960944"},{"town":"小茂井町","koaza":"南屋敷","lat":35.164158,"lng":136.694605,"zip":"4960944"},{"town":"元赤目町","koaza":"上切","lat":35.216086,"lng":136.694286,"zip":"4968045"},{"town":"小茂井町","koaza":"六反田","lat":35.154976,"lng":136.694339,"zip":"4960944"},{"town":"藤ケ瀬町","koaza":"東沼","lat":35.224573,"lng":136.696789,"zip":"4968041"},{"town":"森川町","koaza":"井桁","lat":35.134671,"lng":136.694294,"zip":"4960943"},{"town":"江西町","koaza":"池端","lat":35.221372,"lng":136.695323,"zip":"4968044"},{"town":"山路町","koaza":"小割","lat":35.151137,"lng":136.696512,"zip":"4960942"},{"town":"赤目町","koaza":"上屋敷","lat":35.205736,"lng":136.696283,"zip":"4968046"},{"town":"川北町","koaza":"山","lat":35.23437,"lng":136.694726,"zip":"4968039"},{"town":"藤ケ瀬町","koaza":"東藤","lat":35.226026,"lng":136.697299,"zip":"4968041"},{"town":"小茂井町","koaza":"宮浦","lat":35.162832,"lng":136.694478,"zip":"4960944"},{"town":"新右エ門新田町","koaza":"郷前","lat":35.182786,"lng":136.69536,"zip":"4960934"},{"town":"新右エ門新田町","koaza":"郷浦","lat":35.184299,"lng":136.696814,"zip":"4960934"},{"town":"森川町","koaza":"一番割","lat":35.147886,"lng":136.703916,"zip":"4960943"},{"town":"森川町","koaza":"宮西","lat":35.139123,"lng":136.698542,"zip":"4960943"},{"town":"赤目町","koaza":"江東","lat":35.202689,"lng":136.695227,"zip":"4968046"},{"town":"森川町","koaza":"鵜戸川添","lat":35.133408,"lng":136.695086,"zip":"4960943"},{"town":"川北町","koaza":"平","lat":35.23096,"lng":136.696665,"zip":"4968039"},{"town":"四会町","koaza":"鵜戸","lat":35.17211,"lng":136.695354,"zip":"4960936"},{"town":"小茂井町","koaza":"保古原","lat":35.16749,"lng":136.695445,"zip":"4960944"},{"town":"藤ケ瀬町","koaza":"東平","lat":35.228105,"lng":136.69567,"zip":"4968041"},{"town":"森川町","koaza":"杁口","lat":35.133355,"lng":136.695761,"zip":"4960943"},{"town":"小茂井町","koaza":"寺下","lat":35.157223,"lng":136.695858,"zip":"4960944"},{"town":"新右エ門新田町","koaza":"江向","lat":35.180682,"lng":136.696471,"zip":"4960934"},{"town":"元赤目町","koaza":"川並","lat":35.213165,"lng":136.696875,"zip":"4968045"},{"town":"小茂井町","koaza":"池渕","lat":35.154228,"lng":136.697336,"zip":"4960944"},{"town":"森川町","koaza":"村仲","lat":35.144864,"lng":136.699167,"zip":"4960943"},{"town":"四会町","koaza":"郷北","lat":35.175269,"lng":136.696363,"zip":"4960936"},{"town":"森川町","koaza":"子消前","lat":35.141628,"lng":136.69681,"zip":"4960943"},{"town":"石田町","koaza":"南鵜戸","lat":35.169509,"lng":136.697072,"zip":"4960938"},{"town":"石田町","koaza":"北鵜戸","lat":35.171854,"lng":136.697116,"zip":"4960938"},{"town":"赤目町","koaza":"杉土居","lat":35.202341,"lng":136.699096,"zip":"4968046"},{"town":"森川町","koaza":"幸吉西","lat":35.136176,"lng":136.700212,"zip":"4960943"},{"town":"山路町","koaza":"西郷付","lat":35.152858,"lng":136.699414,"zip":"4960942"},{"town":"江西町","koaza":"大縄場","lat":35.218143,"lng":136.69678,"zip":"4968044"},{"town":"森川町","koaza":"重兵","lat":35.131589,"lng":136.698651,"zip":"4960943"},{"town":"赤目町","koaza":"山之神","lat":35.199466,"lng":136.698773,"zip":"4968046"},{"town":"石田町","koaza":"南郷","lat":35.165796,"lng":136.697485,"zip":"4960938"},{"town":"鵜多須町","koaza":"大山西","lat":35.232468,"lng":136.69948,"zip":"4968033"},{"town":"四会町","koaza":"広田","lat":35.181802,"lng":136.697567,"zip":"4960936"},{"town":"新右エ門新田町","koaza":"郷東","lat":35.184217,"lng":136.697973,"zip":"4960934"},{"town":"赤目町","koaza":"海用","lat":35.202526,"lng":136.700767,"zip":"4968046"},{"town":"四会町","koaza":"角田","lat":35.181331,"lng":136.698045,"zip":"4960936"},{"town":"森川町","koaza":"梶島","lat":35.128002,"lng":136.700821,"zip":"4960943"},{"town":"石田町","koaza":"村前","lat":35.169369,"lng":136.700908,"zip":"4960938"},{"town":"早尾町","koaza":"舟原","lat":35.191716,"lng":136.700227,"zip":"4960931"},{"town":"早尾町","koaza":"流","lat":35.197453,"lng":136.699277,"zip":"4960931"},{"town":"石田町","koaza":"村浦","lat":35.170646,"lng":136.698596,"zip":"4960938"},{"town":"四会町","koaza":"脇野","lat":35.173684,"lng":136.699569,"zip":"4960936"},{"town":"元赤目町","koaza":"東川並","lat":35.217336,"lng":136.698734,"zip":"4968045"},{"town":"山路町","koaza":"宮裏","lat":35.154178,"lng":136.700422,"zip":"4960942"},{"town":"江西町","koaza":"川原","lat":35.221464,"lng":136.699359,"zip":"4968044"},{"town":"二子町","koaza":"小判山","lat":35.216389,"lng":136.702283,"zip":"4968035"},{"town":"雀ケ森町","koaza":"前並","lat":35.157657,"lng":136.702101,"zip":"4960941"},{"town":"二子町","koaza":"柳原","lat":35.212211,"lng":136.699827,"zip":"4968035"},{"town":"森川町","koaza":"子改","lat":35.132413,"lng":136.699406,"zip":"4960943"},{"town":"早尾町","koaza":"野薮","lat":35.189406,"lng":136.699858,"zip":"4960931"},{"town":"雀ケ森町","koaza":"七畝割","lat":35.160917,"lng":136.700389,"zip":"4960941"},{"town":"森川町","koaza":"大森","lat":35.135541,"lng":136.700656,"zip":"4960943"},{"town":"森川町","koaza":"上梶島","lat":35.129924,"lng":136.70081,"zip":"4960943"},{"town":"森川町","koaza":"寺西","lat":35.141168,"lng":136.701952,"zip":"4960943"},{"town":"下一色町","koaza":"宮内","lat":35.180994,"lng":136.702167,"zip":"4960935"},{"town":"二子町","koaza":"定納","lat":35.209628,"lng":136.703308,"zip":"4968035"},{"town":"山路町","koaza":"東郷付","lat":35.151357,"lng":136.702048,"zip":"4960942"},{"town":"鵜多須町","koaza":"松原","lat":35.223833,"lng":136.701544,"zip":"4968033"},{"town":"四会町","koaza":"村内","lat":35.178337,"lng":136.701486,"zip":"4960936"},{"town":"二子町","koaza":"松原","lat":35.204493,"lng":136.704445,"zip":"4968035"},{"town":"赤目町","koaza":"下堤畦","lat":35.200779,"lng":136.701894,"zip":"4968046"},{"town":"森川町","koaza":"百石山","lat":35.134497,"lng":136.701671,"zip":"4960943"},{"town":"四会町","koaza":"高西","lat":35.175044,"lng":136.701115,"zip":"4960936"},{"town":"鵜多須町","koaza":"神明西","lat":35.225781,"lng":136.701694,"zip":"4968033"},{"town":"早尾町","koaza":"前並","lat":35.18965,"lng":136.703975,"zip":"4960931"},{"town":"山路町","koaza":"中村","lat":35.148984,"lng":136.702641,"zip":"4960942"},{"town":"赤目町","koaza":"堤敷","lat":35.203396,"lng":136.701773,"zip":"4968046"},{"town":"早尾町","koaza":"村北","lat":35.19106,"lng":136.704603,"zip":"4960931"},{"town":"早尾町","koaza":"北河原","lat":35.193481,"lng":136.703166,"zip":"4960931"},{"town":"雀ケ森町","koaza":"郷中","lat":35.159835,"lng":136.702667,"zip":"4960941"},{"town":"森川町","koaza":"下古川","lat":35.142311,"lng":136.703493,"zip":"4960943"},{"town":"宮地町","koaza":"西浦","lat":35.170507,"lng":136.703052,"zip":"4960937"},{"town":"山路町","koaza":"下中地","lat":35.152815,"lng":136.702875,"zip":"4960942"},{"town":"雀ケ森町","koaza":"壱町田","lat":35.161996,"lng":136.705388,"zip":"4960941"},{"town":"森川町","koaza":"川平","lat":35.12984,"lng":136.703621,"zip":"4960943"},{"town":"鵜多須町","koaza":"中道","lat":35.223098,"lng":136.705531,"zip":"4968033"},{"town":"鵜多須町","koaza":"二本松","lat":35.219325,"lng":136.70431,"zip":"4968033"},{"town":"赤目町","koaza":"東流作","lat":35.200396,"lng":136.705563,"zip":"4968046"},{"town":"四会町","koaza":"高田","lat":35.175955,"lng":136.704633,"zip":"4960936"},{"town":"四会町","koaza":"笹塚","lat":35.178277,"lng":136.703623,"zip":"4960936"},{"town":"森川町","koaza":"百石山壱番割","lat":35.139402,"lng":136.702978,"zip":"4960943"},{"town":"鵜多須町","koaza":"上中山","lat":35.230342,"lng":136.704336,"zip":"4968033"},{"town":"下一色町","koaza":"倉前","lat":35.180069,"lng":136.702679,"zip":"4960935"},{"town":"雀ケ森町","koaza":"大縄場","lat":35.15957,"lng":136.7082,"zip":"4960941"},{"town":"鵜多須町","koaza":"下中山","lat":35.226883,"lng":136.704481,"zip":"4968033"},{"town":"雀ケ森町","koaza":"尾藤","lat":35.159307,"lng":136.705015,"zip":"4960941"},{"town":"早尾町","koaza":"榎下","lat":35.196309,"lng":136.703838,"zip":"4960931"},{"town":"赤目町","koaza":"流作","lat":35.200499,"lng":136.703641,"zip":"4968046"},{"town":"森川町","koaza":"堤外","lat":35.142007,"lng":136.705397,"zip":"4960943"},{"town":"山路町","koaza":"下ノ割","lat":35.151284,"lng":136.705105,"zip":"4960942"},{"town":"森川町","koaza":"上古川","lat":35.146357,"lng":136.704647,"zip":"4960943"},{"town":"西保町","koaza":"南川原","lat":35.13257,"lng":136.705631,"zip":"4960911"},{"town":"下一色町","koaza":"中西","lat":35.183314,"lng":136.704376,"zip":"4960935"},{"town":"早尾町","koaza":"南川並","lat":35.19199,"lng":136.7075,"zip":"4960931"},{"town":"早尾町","koaza":"川並","lat":35.192178,"lng":136.707102,"zip":"4960931"},{"town":"山路町","koaza":"上中地","lat":35.156355,"lng":136.705181,"zip":"4960942"},{"town":"山路町","koaza":"上井","lat":35.14968,"lng":136.705343,"zip":"4960942"},{"town":"宮地町","koaza":"大倉","lat":35.173776,"lng":136.705206,"zip":"4960937"},{"town":"宮地町","koaza":"長代","lat":35.167924,"lng":136.706923,"zip":"4960937"},{"town":"宮地町","koaza":"前田面","lat":35.171161,"lng":136.706526,"zip":"4960937"},{"town":"四会町","koaza":"堤外","lat":35.178542,"lng":136.705348,"zip":"4960936"},{"town":"早尾町","koaza":"堤敷","lat":35.190878,"lng":136.706885,"zip":"4960931"},{"town":"雀ケ森町","koaza":"大池割","lat":35.160884,"lng":136.706199,"zip":"4960941"},{"town":"下一色町","koaza":"堤敷","lat":35.181688,"lng":136.705369,"zip":"4960935"},{"town":"西保町","koaza":"西川原","lat":35.142836,"lng":136.708037,"zip":"4960911"},{"town":"森川町","koaza":"東柳","lat":35.122444,"lng":136.705676,"zip":"4960943"},{"town":"下一色町","koaza":"堤外","lat":35.181674,"lng":136.705778,"zip":"4960935"},{"town":"早尾町","koaza":"南前並","lat":35.1858,"lng":136.705824,"zip":"4960931"},{"town":"四会町","koaza":"堤敷","lat":35.176224,"lng":136.706316,"zip":"4960936"},{"town":"二子町","koaza":"丸島","lat":35.212004,"lng":136.710251,"zip":"4968035"},{"town":"西川端町","koaza":"流川","lat":35.215371,"lng":136.711834,"zip":"4968019"},{"town":"下一色町","koaza":"東堤外","lat":35.180772,"lng":136.705604,"zip":"4960935"},{"town":"鵜多須町","koaza":"寺浦","lat":35.224264,"lng":136.708535,"zip":"4968033"},{"town":"二子町","koaza":"新田","lat":35.211066,"lng":136.709011,"zip":"4968035"},{"town":"西保町","koaza":"堤外新田","lat":35.128854,"lng":136.707834,"zip":"4960911"},{"town":"西保町","koaza":"石暮","lat":35.134875,"lng":136.706719,"zip":"4960911"},{"town":"宮地町","koaza":"五ツ割","lat":35.165376,"lng":136.70691,"zip":"4960937"},{"town":"山路町","koaza":"荒山","lat":35.153136,"lng":136.706457,"zip":"4960942"},{"town":"四会町","koaza":"東堤外","lat":35.179733,"lng":136.706402,"zip":"4960936"},{"town":"鷹場町","koaza":"柳枯草場","lat":35.207291,"lng":136.705966,"zip":"4968016"},{"town":"鷹場町","koaza":"久田山","lat":35.20725,"lng":136.707085,"zip":"4968016"},{"town":"鷹場町","koaza":"久田","lat":35.206589,"lng":136.706849,"zip":"4968016"},{"town":"鵜多須町","koaza":"松塚","lat":35.227854,"lng":136.707711,"zip":"4968033"},{"town":"西保町","koaza":"屋敷割","lat":35.132216,"lng":136.707212,"zip":"4960911"},{"town":"山路町","koaza":"西新田","lat":35.148949,"lng":136.707585,"zip":"4960942"},{"town":"四会町","koaza":"郷付","lat":35.175883,"lng":136.706864,"zip":"4960936"},{"town":"西川端町","koaza":"広口","lat":35.207548,"lng":136.70972,"zip":"4968019"},{"town":"草平町","koaza":"新佐屋川","lat":35.198392,"lng":136.709174,"zip":"4968015"},{"town":"鷹場町","koaza":"川田","lat":35.203587,"lng":136.708016,"zip":"4968016"},{"town":"山路町","koaza":"野方","lat":35.155896,"lng":136.70779,"zip":"4960942"},{"town":"西保町","koaza":"北川原","lat":35.141756,"lng":136.708936,"zip":"4960911"},{"town":"西保町","koaza":"置土","lat":35.130123,"lng":136.707916,"zip":"4960911"},{"town":"宮地町","koaza":"大縄場","lat":35.169612,"lng":136.708056,"zip":"4960937"},{"town":"西保町","koaza":"増右","lat":35.135735,"lng":136.707157,"zip":"4960911"},{"town":"鷹場町","koaza":"境山","lat":35.208219,"lng":136.707712,"zip":"4968016"},{"town":"西保町","koaza":"古堤西","lat":35.139137,"lng":136.708524,"zip":"4960911"},{"town":"宮地町","koaza":"東田面","lat":35.17058,"lng":136.708549,"zip":"4960937"},{"town":"鷹場町","koaza":"五反山","lat":35.206908,"lng":136.708164,"zip":"4968016"},{"town":"西保町","koaza":"観音堂","lat":35.137285,"lng":136.709106,"zip":"4960911"},{"town":"鷹場町","koaza":"本田","lat":35.208211,"lng":136.708072,"zip":"4968016"},{"town":"山路町","koaza":"東荒山","lat":35.152989,"lng":136.709202,"zip":"4960942"},{"town":"二子町","koaza":"上丸島","lat":35.215398,"lng":136.710368,"zip":"4968035"},{"town":"鷹場町","koaza":"孫田","lat":35.203184,"lng":136.710523,"zip":"4968016"},{"town":"雀ケ森町","koaza":"堤敷","lat":35.16196,"lng":136.708687,"zip":"4960941"},{"town":"佐屋町","koaza":"新田","lat":35.149463,"lng":136.710024,"zip":"4960901"},{"town":"西保町","koaza":"船戸給","lat":35.129868,"lng":136.709364,"zip":"4960911"},{"town":"草平町","koaza":"佐屋川新田","lat":35.198511,"lng":136.710152,"zip":"4968015"},{"town":"下東川町","koaza":"河原","lat":35.222124,"lng":136.70934,"zip":"4968032"},{"town":"町方町","koaza":"西祖父池","lat":35.195547,"lng":136.708942,"zip":"4968014"},{"town":"町方町","koaza":"西大山田","lat":35.194223,"lng":136.710055,"zip":"4968014"},{"town":"宮地町","koaza":"神田","lat":35.166411,"lng":136.708752,"zip":"4960937"},{"town":"西保町","koaza":"西浦","lat":35.139725,"lng":136.709392,"zip":"4960911"},{"town":"鷹場町","koaza":"広口前","lat":35.20672,"lng":136.710677,"zip":"4968016"},{"town":"佐屋町","koaza":"堤西","lat":35.154248,"lng":136.711521,"zip":"4960901"},{"town":"草平町","koaza":"六上","lat":35.20003,"lng":136.710156,"zip":"4968015"},{"town":"西保町","koaza":"中田","lat":35.132218,"lng":136.710392,"zip":"4960911"},{"town":"町方町","koaza":"新西馬","lat":35.190014,"lng":136.710852,"zip":"4968014"},{"town":"雀ケ森町","koaza":"開田","lat":35.160796,"lng":136.709371,"zip":"4960941"},{"town":"山路町","koaza":"東野方","lat":35.155947,"lng":136.710126,"zip":"4960942"},{"town":"西保町","koaza":"六十坪","lat":35.135534,"lng":136.710637,"zip":"4960911"},{"town":"西保町","koaza":"城之内","lat":35.141227,"lng":136.710517,"zip":"4960911"},{"town":"草平町","koaza":"六下","lat":35.198502,"lng":136.711243,"zip":"4968015"},{"town":"西保町","koaza":"同所新田","lat":35.143154,"lng":136.711404,"zip":"4960911"},{"town":"西保町","koaza":"大之内","lat":35.137813,"lng":136.711085,"zip":"4960911"},{"town":"町方町","koaza":"祖父池","lat":35.195984,"lng":136.711466,"zip":"4968014"},{"town":"町方町","koaza":"西馬","lat":35.189848,"lng":136.712996,"zip":"4968014"},{"town":"佐屋町","koaza":"亥新田","lat":35.149382,"lng":136.71117,"zip":"4960901"},{"town":"西保町","koaza":"森浦","lat":35.133176,"lng":136.713264,"zip":"4960911"},{"town":"町方町","koaza":"大山田","lat":35.194161,"lng":136.714103,"zip":"4968014"},{"town":"内佐屋町","koaza":"佐屋河原","lat":35.157546,"lng":136.712354,"zip":"4960903"},{"town":"鷹場町","koaza":"高山","lat":35.207063,"lng":136.711696,"zip":"4968016"},{"town":"西保町","koaza":"宮西","lat":35.14282,"lng":136.712402,"zip":"4960911"},{"town":"西保町","koaza":"森西","lat":35.131311,"lng":136.713295,"zip":"4960911"},{"town":"内佐屋町","koaza":"西新田","lat":35.163972,"lng":136.713003,"zip":"4960903"},{"town":"佐屋町","koaza":"宅地","lat":35.150309,"lng":136.71324,"zip":"4960901"},{"town":"西川端町","koaza":"兼ケ角","lat":35.213853,"lng":136.714374,"zip":"4968019"},{"town":"下東川町","koaza":"大崎","lat":35.219499,"lng":136.712601,"zip":"4968032"},{"town":"西川端町","koaza":"長田池","lat":35.205973,"lng":136.7138,"zip":"4968019"},{"town":"草平町","koaza":"江ノ田","lat":35.199998,"lng":136.713266,"zip":"4968015"},{"town":"草平町","koaza":"新開","lat":35.196626,"lng":136.713914,"zip":"4968015"},{"town":"佐屋町","koaza":"道西","lat":35.153901,"lng":136.712882,"zip":"4960901"},{"town":"鷹場町","koaza":"坪堀","lat":35.207394,"lng":136.71244,"zip":"4968016"},{"town":"内佐屋町","koaza":"西郷","lat":35.160326,"lng":136.713303,"zip":"4960903"},{"town":"西川端町","koaza":"杁ノ戸","lat":35.217667,"lng":136.713615,"zip":"4968019"},{"town":"西川端町","koaza":"上兼","lat":35.215041,"lng":136.713888,"zip":"4968019"},{"town":"佐屋町","koaza":"西保浦","lat":35.146496,"lng":136.712901,"zip":"4960901"},{"town":"佐屋町","koaza":"依田川原","lat":35.147907,"lng":136.713346,"zip":"4960901"},{"town":"西川端町","koaza":"南須原","lat":35.21761,"lng":136.715992,"zip":"4968019"},{"town":"内佐屋町","koaza":"西松原","lat":35.16153,"lng":136.713166,"zip":"4960903"},{"town":"町方町","koaza":"松川","lat":35.191306,"lng":136.715041,"zip":"4968014"},{"town":"下東川町","koaza":"水戸","lat":35.223627,"lng":136.713188,"zip":"4968032"},{"town":"草平町","koaza":"池田","lat":35.202246,"lng":136.714841,"zip":"4968015"},{"town":"西川端町","koaza":"長田","lat":35.206621,"lng":136.714063,"zip":"4968019"},{"town":"東保町","koaza":"西河原","lat":35.145788,"lng":136.71471,"zip":"4960912"},{"town":"西川端町","koaza":"兼久","lat":35.210139,"lng":136.714501,"zip":"4968019"},{"town":"内佐屋町","koaza":"河原","lat":35.156534,"lng":136.71709,"zip":"4960903"},{"town":"町方町","koaza":"東馬","lat":35.189601,"lng":136.715723,"zip":"4968014"},{"town":"東保町","koaza":"大門","lat":35.143738,"lng":136.714841,"zip":"4960912"},{"town":"西川端町","koaza":"須原","lat":35.218961,"lng":136.717017,"zip":"4968019"},{"town":"草平町","koaza":"開田名","lat":35.200912,"lng":136.714894,"zip":"4968015"},{"town":"内佐屋町","koaza":"新田","lat":35.16316,"lng":136.714501,"zip":"4960903"},{"town":"西川端町","koaza":"住田前","lat":35.209215,"lng":136.715136,"zip":"4968019"},{"town":"西川端町","koaza":"草張","lat":35.207879,"lng":136.714265,"zip":"4968019"},{"town":"西川端町","koaza":"新領内","lat":35.207299,"lng":136.714093,"zip":"4968019"},{"town":"草平町","koaza":"中池","lat":35.203209,"lng":136.715441,"zip":"4968015"},{"town":"草平町","koaza":"中切","lat":35.199747,"lng":136.715101,"zip":"4968015"},{"town":"西川端町","koaza":"久保目","lat":35.2091,"lng":136.715481,"zip":"4968019"},{"town":"西保町","koaza":"三間城","lat":35.134731,"lng":136.714966,"zip":"4960911"},{"town":"内佐屋町","koaza":"郷","lat":35.159865,"lng":136.717044,"zip":"4960903"},{"town":"下東川町","koaza":"中山","lat":35.221158,"lng":136.716047,"zip":"4968032"},{"town":"西川端町","koaza":"一本松","lat":35.210865,"lng":136.715527,"zip":"4968019"},{"town":"西川端町","koaza":"下り戸","lat":35.204576,"lng":136.715606,"zip":"4968019"},{"town":"西川端町","koaza":"江東","lat":35.208531,"lng":136.716238,"zip":"4968019"},{"town":"町方町","koaza":"小山田","lat":35.191925,"lng":136.714794,"zip":"4968014"},{"town":"須依町","koaza":"須賀割","lat":35.147943,"lng":136.715392,"zip":"4960902"},{"town":"内佐屋町","koaza":"松原","lat":35.162745,"lng":136.716125,"zip":"4960903"},{"town":"佐屋町","koaza":"道東","lat":35.154433,"lng":136.716764,"zip":"4960901"},{"town":"西川端町","koaza":"川原前","lat":35.211733,"lng":136.716757,"zip":"4968019"},{"town":"須依町","koaza":"屋敷","lat":35.15125,"lng":136.715543,"zip":"4960902"},{"town":"下東川町","koaza":"蔵之段","lat":35.223939,"lng":136.716458,"zip":"4968032"},{"town":"上東川町","koaza":"宮東","lat":35.229799,"lng":136.718583,"zip":"4968031"},{"town":"草平町","koaza":"中屋","lat":35.202077,"lng":136.716901,"zip":"4968015"},{"town":"西川端町","koaza":"下兼","lat":35.211008,"lng":136.717563,"zip":"4968019"},{"town":"下東川町","koaza":"北山","lat":35.225492,"lng":136.717144,"zip":"4968032"},{"town":"東保町","koaza":"東河原","lat":35.14558,"lng":136.717464,"zip":"4960912"},{"town":"須依町","koaza":"寅新田","lat":35.149771,"lng":136.715551,"zip":"4960902"},{"town":"西川端町","koaza":"中須原","lat":35.218585,"lng":136.717267,"zip":"4968019"},{"town":"西川端町","koaza":"川原","lat":35.212467,"lng":136.715769,"zip":"4968019"},{"town":"須依町","koaza":"郷","lat":35.153869,"lng":136.717677,"zip":"4960902"},{"town":"須依町","koaza":"喜之助","lat":35.147845,"lng":136.716864,"zip":"4960902"},{"town":"西川端町","koaza":"小城","lat":35.213756,"lng":136.717897,"zip":"4968019"},{"town":"西川端町","koaza":"藤左山","lat":35.203968,"lng":136.715831,"zip":"4968019"},{"town":"草平町","koaza":"川田","lat":35.202467,"lng":136.717406,"zip":"4968015"},{"town":"須依町","koaza":"前田面","lat":35.150887,"lng":136.718398,"zip":"4960902"},{"town":"東保町","koaza":"中","lat":35.142498,"lng":136.717203,"zip":"4960912"},{"town":"町方町","koaza":"海用","lat":35.189436,"lng":136.717201,"zip":"4968014"},{"town":"町方町","koaza":"二ツ橋","lat":35.194753,"lng":136.718405,"zip":"4968014"},{"town":"須依町","koaza":"佐原","lat":35.148299,"lng":136.717791,"zip":"4960902"},{"town":"上東川町","koaza":"新七前","lat":35.227567,"lng":136.718667,"zip":"4968031"},{"town":"草平町","koaza":"草場","lat":35.19768,"lng":136.719184,"zip":"4968015"},{"town":"西川端町","koaza":"北須原","lat":35.219188,"lng":136.717347,"zip":"4968019"},{"town":"町方町","koaza":"丸池","lat":35.194976,"lng":136.716801,"zip":"4968014"},{"town":"西川端町","koaza":"七畝割","lat":35.21023,"lng":136.716968,"zip":"4968019"},{"town":"東保町","koaza":"ハサバ","lat":35.140324,"lng":136.717223,"zip":"4960912"},{"town":"西川端町","koaza":"大込","lat":35.215201,"lng":136.720172,"zip":"4968019"},{"town":"草平町","koaza":"北田名","lat":35.199859,"lng":136.717431,"zip":"4968015"},{"town":"草平町","koaza":"阿原","lat":35.206695,"lng":136.719849,"zip":"4968015"},{"town":"東保町","koaza":"屋敷割","lat":35.139516,"lng":136.717278,"zip":"4960912"},{"town":"内佐屋町","koaza":"東新田","lat":35.164951,"lng":136.718348,"zip":"4960903"},{"town":"草平町","koaza":"中阿原","lat":35.20503,"lng":136.717033,"zip":"4968015"},{"town":"西川端町","koaza":"中東山","lat":35.217273,"lng":136.72005,"zip":"4968019"},{"town":"上東川町","koaza":"細野","lat":35.231954,"lng":136.718943,"zip":"4968031"},{"town":"須依町","koaza":"元屋敷","lat":35.15535,"lng":136.719738,"zip":"4960902"},{"town":"草平町","koaza":"道下","lat":35.199553,"lng":136.719807,"zip":"4968015"},{"town":"町方町","koaza":"三角","lat":35.190054,"lng":136.720313,"zip":"4968014"},{"town":"東保町","koaza":"東孫","lat":35.141126,"lng":136.719175,"zip":"4960912"},{"town":"須依町","koaza":"大正","lat":35.151956,"lng":136.720888,"zip":"4960902"},{"town":"須依町","koaza":"北前","lat":35.147372,"lng":136.719614,"zip":"4960902"},{"town":"西川端町","koaza":"大込屋敷","lat":35.214957,"lng":136.719145,"zip":"4968019"},{"town":"西川端町","koaza":"北江","lat":35.219893,"lng":136.721903,"zip":"4968019"},{"town":"西川端町","koaza":"北山","lat":35.220409,"lng":136.718996,"zip":"4968019"},{"town":"須依町","koaza":"郷東","lat":35.15571,"lng":136.718442,"zip":"4960902"},{"town":"東保町","koaza":"宮越","lat":35.142575,"lng":136.720098,"zip":"4960912"},{"town":"大野山町","koaza":"郷西","lat":35.204772,"lng":136.722298,"zip":"4968017"},{"town":"東保町","koaza":"権右","lat":35.144809,"lng":136.72011,"zip":"4960912"},{"town":"柚木町","koaza":"西田面","lat":35.164084,"lng":136.720179,"zip":"4960904"},{"town":"柚木町","koaza":"山廻","lat":35.165644,"lng":136.722145,"zip":"4960904"},{"town":"東保町","koaza":"大割","lat":35.138941,"lng":136.719385,"zip":"4960912"},{"town":"草平町","koaza":"竪原","lat":35.199149,"lng":136.71966,"zip":"4968015"},{"town":"草平町","koaza":"東阿原","lat":35.205223,"lng":136.720919,"zip":"4968015"},{"town":"北一色町","koaza":"西田面","lat":35.149862,"lng":136.722007,"zip":"4960905"},{"town":"西川端町","koaza":"寺東","lat":35.214338,"lng":136.719926,"zip":"4968019"},{"town":"須依町","koaza":"砂山","lat":35.158797,"lng":136.721984,"zip":"4960902"},{"town":"内佐屋町","koaza":"五反田","lat":35.160758,"lng":136.720202,"zip":"4960903"},{"town":"東保町","koaza":"五反地","lat":35.141154,"lng":136.720233,"zip":"4960912"},{"town":"西川端町","koaza":"大込東","lat":35.216156,"lng":136.720145,"zip":"4968019"},{"town":"東保町","koaza":"柳原","lat":35.138943,"lng":136.720422,"zip":"4960912"},{"town":"北一色町","koaza":"証文","lat":35.146723,"lng":136.72167,"zip":"4960905"},{"town":"草平町","koaza":"元足立","lat":35.199879,"lng":136.722243,"zip":"4968015"},{"town":"町方町","koaza":"十二城","lat":35.187916,"lng":136.723326,"zip":"4968014"},{"town":"草平町","koaza":"東前","lat":35.198379,"lng":136.720864,"zip":"4968015"},{"town":"大野山町","koaza":"弁才天","lat":35.20119,"lng":136.721612,"zip":"4968017"},{"town":"西保町","koaza":"道西","lat":35.131724,"lng":136.720992,"zip":"4960911"},{"town":"東保町","koaza":"海用一","lat":35.142585,"lng":136.720931,"zip":"4960912"},{"town":"西條町","koaza":"西善太","lat":35.143329,"lng":136.722534,"zip":"4960913"},{"town":"東保町","koaza":"宗十","lat":35.132935,"lng":136.721248,"zip":"4960912"},{"town":"柚木町","koaza":"前田面","lat":35.161438,"lng":136.722038,"zip":"4960904"},{"town":"草平町","koaza":"山下","lat":35.201497,"lng":136.720983,"zip":"4968015"},{"town":"東保町","koaza":"車田","lat":35.14075,"lng":136.72136,"zip":"4960912"},{"town":"大野山町","koaza":"坪田","lat":35.210963,"lng":136.725941,"zip":"4968017"},{"town":"柚木町","koaza":"中田面","lat":35.164156,"lng":136.72381,"zip":"4960904"},{"town":"大野山町","koaza":"新九郎新田","lat":35.201259,"lng":136.722066,"zip":"4968017"},{"town":"大野山町","koaza":"山中","lat":35.207297,"lng":136.724235,"zip":"4968017"},{"town":"西條町","koaza":"二町田","lat":35.138283,"lng":136.722791,"zip":"4960913"},{"town":"渕高町","koaza":"平太","lat":35.211963,"lng":136.722485,"zip":"4968018"},{"town":"町方町","koaza":"八田野","lat":35.19625,"lng":136.723692,"zip":"4968014"},{"town":"北一色町","koaza":"北田面","lat":35.149883,"lng":136.724352,"zip":"4960905"},{"town":"町方町","koaza":"高砂","lat":35.191007,"lng":136.722294,"zip":"4968014"},{"town":"町方町","koaza":"地官","lat":35.190758,"lng":136.72441,"zip":"4968014"},{"town":"渕高町","koaza":"東西野","lat":35.216261,"lng":136.723459,"zip":"4968018"},{"town":"大野山町","koaza":"西之割","lat":35.204961,"lng":136.723237,"zip":"4968017"},{"town":"須依町","koaza":"白山","lat":35.157292,"lng":136.725698,"zip":"4960902"},{"town":"柚木町","koaza":"北田面","lat":35.165887,"lng":136.725332,"zip":"4960904"},{"town":"大野山町","koaza":"郷東","lat":35.20544,"lng":136.724299,"zip":"4968017"},{"town":"西川端町","koaza":"江端","lat":35.220931,"lng":136.723517,"zip":"4968019"},{"town":"渕高町","koaza":"蔭島","lat":35.216847,"lng":136.725263,"zip":"4968018"},{"town":"須依町","koaza":"庄屋敷","lat":35.154959,"lng":136.724869,"zip":"4960902"},{"town":"町方町","koaza":"足立川","lat":35.197909,"lng":136.725379,"zip":"4968014"},{"town":"須依町","koaza":"東田面","lat":35.153065,"lng":136.726524,"zip":"4960902"},{"town":"西條町","koaza":"大池","lat":35.130813,"lng":136.725728,"zip":"4960913"},{"town":"北一色町","koaza":"四町","lat":35.145655,"lng":136.726104,"zip":"4960905"},{"town":"西條町","koaza":"伊重","lat":35.137689,"lng":136.725626,"zip":"4960913"},{"town":"町方町","koaza":"小原","lat":35.193628,"lng":136.725061,"zip":"4968014"},{"town":"大野山町","koaza":"尾中瀬","lat":35.205572,"lng":136.72353,"zip":"4968017"},{"town":"日置町","koaza":"六反畑","lat":35.159864,"lng":136.724401,"zip":"4960906"},{"town":"大野山町","koaza":"八兵衛山","lat":35.206021,"lng":136.724477,"zip":"4968017"},{"town":"日置町","koaza":"八百歩","lat":35.161501,"lng":136.725229,"zip":"4960906"},{"town":"渕高町","koaza":"権左","lat":35.214707,"lng":136.726569,"zip":"4968018"},{"town":"大野山町","koaza":"三日月","lat":35.206198,"lng":136.725013,"zip":"4968017"},{"town":"大野山町","koaza":"中之割","lat":35.204456,"lng":136.72467,"zip":"4968017"},{"town":"北一色町","koaza":"昭和","lat":35.14888,"lng":136.727193,"zip":"4960905"},{"town":"西條町","koaza":"東善太","lat":35.141947,"lng":136.727109,"zip":"4960913"},{"town":"渕高町","koaza":"上八反","lat":35.219849,"lng":136.726374,"zip":"4968018"},{"town":"町方町","koaza":"古江","lat":35.196376,"lng":136.72607,"zip":"4968014"},{"town":"西保町","koaza":"西源左","lat":35.128989,"lng":136.725453,"zip":"4960911"},{"town":"大野山町","koaza":"海用","lat":35.204934,"lng":136.727071,"zip":"4968017"},{"town":"渕高町","koaza":"南八畝割","lat":35.212069,"lng":136.727529,"zip":"4968018"},{"town":"柚木町","koaza":"東田面","lat":35.163643,"lng":136.726806,"zip":"4960904"},{"town":"西條町","koaza":"北廻り","lat":35.14133,"lng":136.726269,"zip":"4960913"},{"town":"大野山町","koaza":"海東","lat":35.206263,"lng":136.727188,"zip":"4968017"},{"town":"町方町","koaza":"大原","lat":35.193007,"lng":136.72819,"zip":"4968014"},{"town":"東條町","koaza":"西田面","lat":35.138142,"lng":136.728367,"zip":"4960914"},{"town":"西條町","koaza":"小島","lat":35.13452,"lng":136.726302,"zip":"4960913"},{"town":"日置町","koaza":"山の池","lat":35.165847,"lng":136.729677,"zip":"4960906"},{"town":"渕高町","koaza":"八畝割","lat":35.213041,"lng":136.727408,"zip":"4968018"},{"town":"西條町","koaza":"十人口","lat":35.141388,"lng":136.727075,"zip":"4960913"},{"town":"柚木町","koaza":"元屋敷曲輪","lat":35.166084,"lng":136.727054,"zip":"4960904"},{"town":"町方町","koaza":"石塚","lat":35.191186,"lng":136.727831,"zip":"4968014"},{"town":"日置町","koaza":"下河田","lat":35.159339,"lng":136.729449,"zip":"4960906"},{"town":"日置町","koaza":"上川田","lat":35.161562,"lng":136.728059,"zip":"4960906"},{"town":"町方町","koaza":"北前","lat":35.196248,"lng":136.72895,"zip":"4968014"},{"town":"柚木町","koaza":"東郷曲輪","lat":35.163137,"lng":136.727209,"zip":"4960904"},{"town":"東條町","koaza":"五反田","lat":35.135988,"lng":136.729427,"zip":"4960914"},{"town":"町方町","koaza":"南堤外","lat":35.190713,"lng":136.729632,"zip":"4968014"},{"town":"稲葉町","koaza":"米野","lat":35.155554,"lng":136.728249,"zip":"4960907"},{"town":"渕高町","koaza":"三ノ割","lat":35.215844,"lng":136.727915,"zip":"4968018"},{"town":"落合町","koaza":"上河原","lat":35.142152,"lng":136.731654,"zip":"4960909"},{"town":"渕高町","koaza":"二ノ割","lat":35.217304,"lng":136.728744,"zip":"4968018"},{"town":"渕高町","koaza":"四ノ割","lat":35.21465,"lng":136.728306,"zip":"4968018"},{"town":"西保町","koaza":"東源左","lat":35.129296,"lng":136.72819,"zip":"4960911"},{"town":"渕高町","koaza":"明六","lat":35.211387,"lng":136.7286,"zip":"4968018"},{"town":"大野山町","koaza":"狐穴","lat":35.205901,"lng":136.728613,"zip":"4968017"},{"town":"渕高町","koaza":"五ノ割","lat":35.213375,"lng":136.728288,"zip":"4968018"},{"town":"町方町","koaza":"大杁先","lat":35.189773,"lng":136.727635,"zip":"4968014"},{"town":"町方町","koaza":"宮西","lat":35.196918,"lng":136.727881,"zip":"4968014"},{"town":"稲葉町","koaza":"三四田","lat":35.154118,"lng":136.727676,"zip":"4960907"},{"town":"渕高町","koaza":"一ノ割","lat":35.218576,"lng":136.729511,"zip":"4968018"},{"town":"町方町","koaza":"案山子","lat":35.190953,"lng":136.728625,"zip":"4968014"},{"town":"大野山町","koaza":"御納戸","lat":35.211193,"lng":136.728419,"zip":"4968017"},{"town":"落合町","koaza":"散地","lat":35.145533,"lng":136.728215,"zip":"4960909"},{"town":"北一色町","koaza":"東田面","lat":35.14566,"lng":136.731183,"zip":"4960905"},{"town":"東條町","koaza":"嘉江口","lat":35.140123,"lng":136.730665,"zip":"4960914"},{"town":"西條町","koaza":"与右渕","lat":35.130468,"lng":136.730555,"zip":"4960913"},{"town":"大野山町","koaza":"余代","lat":35.208706,"lng":136.72962,"zip":"4968017"},{"town":"町方町","koaza":"五軒家","lat":35.195438,"lng":136.729019,"zip":"4968014"},{"town":"東條町","koaza":"井桁","lat":35.138247,"lng":136.729589,"zip":"4960914"},{"town":"大野山町","koaza":"元余代","lat":35.210323,"lng":136.729723,"zip":"4968017"},{"town":"渕高町","koaza":"足立川","lat":35.213842,"lng":136.729045,"zip":"4968018"},{"town":"渕高町","koaza":"河原","lat":35.216169,"lng":136.72926,"zip":"4968018"},{"town":"町方町","koaza":"庄司原","lat":35.193781,"lng":136.729243,"zip":"4968014"},{"town":"日置町","koaza":"河平","lat":35.164191,"lng":136.729924,"zip":"4960906"},{"town":"町方町","koaza":"宮前","lat":35.193235,"lng":136.729927,"zip":"4968014"},{"town":"東條町","koaza":"柳原","lat":35.136376,"lng":136.734193,"zip":"4960914"},{"town":"稲葉町","koaza":"本郷","lat":35.152906,"lng":136.731607,"zip":"4960907"},{"town":"見越町","koaza":"堂起","lat":35.185632,"lng":136.73114,"zip":"4968013"},{"town":"東條町","koaza":"高田","lat":35.138241,"lng":136.731573,"zip":"4960914"},{"town":"稲葉町","koaza":"村南","lat":35.148322,"lng":136.731478,"zip":"4960907"},{"town":"渕高町","koaza":"落入","lat":35.22007,"lng":136.732012,"zip":"4968018"},{"town":"日置町","koaza":"本郷","lat":35.163048,"lng":136.732082,"zip":"4960906"},{"town":"町方町","koaza":"北堤外","lat":35.193787,"lng":136.731856,"zip":"4968014"},{"town":"町方町","koaza":"五軒家東","lat":35.194599,"lng":136.731547,"zip":"4968014"},{"town":"稲葉町","koaza":"前南","lat":35.151161,"lng":136.732635,"zip":"4960907"},{"town":"見越町","koaza":"古堤起","lat":35.189843,"lng":136.732406,"zip":"4968013"},{"town":"稲葉町","koaza":"江頭","lat":35.157421,"lng":136.733044,"zip":"4960907"},{"town":"日置町","koaza":"岡田池","lat":35.16084,"lng":136.731154,"zip":"4960906"},{"town":"日置町","koaza":"弐橋","lat":35.15902,"lng":136.733397,"zip":"4960906"},{"town":"見越町","koaza":"川田","lat":35.189646,"lng":136.732736,"zip":"4968013"},{"town":"見越町","koaza":"前田","lat":35.184777,"lng":136.732375,"zip":"4968013"},{"town":"落合町","koaza":"中通","lat":35.143611,"lng":136.736959,"zip":"4960909"},{"town":"見越町","koaza":"高畑","lat":35.187138,"lng":136.73239,"zip":"4968013"},{"town":"西條町","koaza":"森之越","lat":35.133005,"lng":136.732639,"zip":"4960913"},{"town":"東條町","koaza":"八江口","lat":35.13832,"lng":136.733761,"zip":"4960914"},{"town":"東條町","koaza":"酉新田","lat":35.132267,"lng":136.734504,"zip":"4960914"},{"town":"日置町","koaza":"枝郷","lat":35.161896,"lng":136.734487,"zip":"4960906"},{"town":"稲葉町","koaza":"高附","lat":35.154456,"lng":136.733681,"zip":"4960907"},{"town":"町方町","koaza":"彦作堤外","lat":35.191879,"lng":136.733668,"zip":"4968014"},{"town":"西條町","koaza":"相之江","lat":35.130406,"lng":136.734258,"zip":"4960913"},{"town":"甘村井町","koaza":"西出割","lat":35.151767,"lng":136.735207,"zip":"4960908"},{"town":"落合町","koaza":"中河原","lat":35.141534,"lng":136.735237,"zip":"4960909"},{"town":"根高町","koaza":"古堤己新田","lat":35.192087,"lng":136.73552,"zip":"4968012"},{"town":"東條町","koaza":"平城","lat":35.12968,"lng":136.737167,"zip":"4960914"},{"town":"落合町","koaza":"下通","lat":35.142165,"lng":136.739177,"zip":"4960909"},{"town":"町方町","koaza":"彦作堤内","lat":35.193371,"lng":136.735437,"zip":"4968014"},{"town":"根高町","koaza":"郷前","lat":35.189603,"lng":136.735919,"zip":"4968012"},{"town":"六輪町","koaza":"塩川","lat":35.194269,"lng":136.735532,"zip":"4968010"},{"town":"本部田町","koaza":"宮ノ切","lat":35.134082,"lng":136.737122,"zip":"4960915"},{"town":"根高町","koaza":"川田","lat":35.191782,"lng":136.736386,"zip":"4968012"},{"town":"日置町","koaza":"壱の割","lat":35.162459,"lng":136.73638,"zip":"4960906"},{"town":"日置町","koaza":"勇田","lat":35.159396,"lng":136.736151,"zip":"4960906"},{"town":"東條町","koaza":"卯新田","lat":35.13531,"lng":136.736029,"zip":"4960914"},{"town":"本部田町","koaza":"本西","lat":35.136308,"lng":136.738499,"zip":"4960915"},{"town":"甘村井町","koaza":"勘十田割","lat":35.152465,"lng":136.737441,"zip":"4960908"},{"town":"落合町","koaza":"上通","lat":35.147812,"lng":136.738243,"zip":"4960909"},{"town":"甘村井町","koaza":"松ノ木割","lat":35.149707,"lng":136.738635,"zip":"4960908"},{"town":"根高町","koaza":"本郷","lat":35.189766,"lng":136.737494,"zip":"4968012"},{"town":"本部田町","koaza":"鴨田","lat":35.132632,"lng":136.740597,"zip":"4960915"},{"town":"諏訪町","koaza":"郷西","lat":35.191876,"lng":136.738511,"zip":"4968011"},{"town":"諏訪町","koaza":"古堤新田","lat":35.194676,"lng":136.739379,"zip":"4968011"},{"town":"諏訪町","koaza":"池埋","lat":35.194151,"lng":136.738184,"zip":"4968011"},{"town":"金棒町","koaza":"承西","lat":35.154388,"lng":136.738026,"zip":"4960908"},{"town":"持中町","koaza":"八町","lat":35.18139,"lng":136.740452,"zip":"4968006"},{"town":"落合町","koaza":"下河原","lat":35.139416,"lng":136.739957,"zip":"4960909"},{"town":"諏訪町","koaza":"中島","lat":35.189143,"lng":136.738639,"zip":"4968011"},{"town":"持中町","koaza":"佐渡り","lat":35.18707,"lng":136.73983,"zip":"4968006"},{"town":"諏訪町","koaza":"郷浦","lat":35.193779,"lng":136.740114,"zip":"4968011"},{"town":"本部田町","koaza":"狭場","lat":35.130777,"lng":136.742408,"zip":"4960915"},{"town":"落合町","koaza":"新田","lat":35.149434,"lng":136.741539,"zip":"4960909"},{"town":"諏訪町","koaza":"橋本","lat":35.18852,"lng":136.740038,"zip":"4968011"},{"town":"持中町","koaza":"流レ","lat":35.185603,"lng":136.73959,"zip":"4968006"},{"town":"諏訪町","koaza":"中杁","lat":35.189854,"lng":136.740842,"zip":"4968011"},{"town":"持中町","koaza":"郷前","lat":35.185638,"lng":136.741172,"zip":"4968006"},{"town":"諏訪町","koaza":"郷東","lat":35.192482,"lng":136.74047,"zip":"4968011"},{"town":"日置町","koaza":"髭田","lat":35.158741,"lng":136.742017,"zip":"4960906"},{"town":"日置町","koaza":"青池","lat":35.156801,"lng":136.740609,"zip":"4960906"},{"town":"金棒町","koaza":"北","lat":35.152031,"lng":136.742842,"zip":"4960908"},{"town":"持中町","koaza":"蓮田","lat":35.185767,"lng":136.740694,"zip":"4968006"},{"town":"金棒町","koaza":"南","lat":35.150306,"lng":136.743924,"zip":"4960908"},{"town":"持中町","koaza":"郷東","lat":35.186786,"lng":136.741229,"zip":"4968006"},{"town":"大井町","koaza":"同所","lat":35.139174,"lng":136.74439,"zip":"4960921"},{"town":"諸桑町","koaza":"西浦","lat":35.183812,"lng":136.74376,"zip":"4968005"},{"town":"北河田町","koaza":"蓮田","lat":35.185878,"lng":136.742814,"zip":"4968008"},{"town":"北河田町","koaza":"郷西","lat":35.190264,"lng":136.74347,"zip":"4968008"},{"town":"北河田町","koaza":"郷前","lat":35.187862,"lng":136.743003,"zip":"4968008"},{"town":"本部田町","koaza":"三反田","lat":35.133363,"lng":136.743525,"zip":"4960915"},{"town":"本部田町","koaza":"本東","lat":35.135279,"lng":136.743406,"zip":"4960915"},{"town":"小津町","koaza":"古堤","lat":35.195131,"lng":136.743548,"zip":"4968009"},{"town":"小津町","koaza":"観音堂","lat":35.192721,"lng":136.743968,"zip":"4968009"},{"town":"大井町","koaza":"樫ノ木","lat":35.144334,"lng":136.745408,"zip":"4960921"},{"town":"小津町","koaza":"浦田面","lat":35.194022,"lng":136.745206,"zip":"4968009"},{"town":"南河田町","koaza":"阿古佐","lat":35.186105,"lng":136.745112,"zip":"4968007"},{"town":"北河田町","koaza":"郷東","lat":35.19048,"lng":136.7454,"zip":"4968008"},{"town":"南河田町","koaza":"高台","lat":35.187624,"lng":136.745599,"zip":"4968007"},{"town":"日置町","koaza":"四反割","lat":35.1563,"lng":136.74498,"zip":"4960906"},{"town":"小津町","koaza":"江新田","lat":35.191791,"lng":136.74682,"zip":"4968009"},{"town":"勝幡町","koaza":"墨田","lat":35.1966,"lng":136.745989,"zip":"4968001"},{"town":"金棒町","koaza":"東","lat":35.152724,"lng":136.747279,"zip":"4960908"},{"town":"勝幡町","koaza":"大縄場","lat":35.199994,"lng":136.747611,"zip":"4968001"},{"town":"諸桑町","koaza":"郷城","lat":35.17971,"lng":136.748047,"zip":"4968005"},{"town":"諸桑町","koaza":"中江","lat":35.184296,"lng":136.749848,"zip":"4968005"},{"town":"勝幡町","koaza":"塩畑","lat":35.197736,"lng":136.748586,"zip":"4968001"},{"town":"大井町","koaza":"五川東","lat":35.139229,"lng":136.747521,"zip":"4960921"},{"town":"大井町","koaza":"浦田面","lat":35.145098,"lng":136.749789,"zip":"4960921"},{"town":"大井町","koaza":"道一","lat":35.132409,"lng":136.749046,"zip":"4960921"},{"town":"小津町","koaza":"川東","lat":35.192024,"lng":136.749089,"zip":"4968009"},{"town":"南河田町","koaza":"八龍","lat":35.185169,"lng":136.747911,"zip":"4968007"},{"town":"勝幡町","koaza":"下市場","lat":35.195751,"lng":136.748252,"zip":"4968001"},{"town":"南河田町","koaza":"江田","lat":35.188452,"lng":136.748177,"zip":"4968007"},{"town":"本部田町","koaza":"茨塚","lat":35.130549,"lng":136.749618,"zip":"4960915"},{"town":"勝幡町","koaza":"竪切","lat":35.194265,"lng":136.748625,"zip":"4968001"},{"town":"大井町","koaza":"六川北","lat":35.136934,"lng":136.750118,"zip":"4960921"},{"town":"勝幡町","koaza":"元池","lat":35.20036,"lng":136.750276,"zip":"4968001"},{"town":"勝幡町","koaza":"五俵入","lat":35.19546,"lng":136.749239,"zip":"4968001"},{"town":"勝幡町","koaza":"竪切町","lat":35.192791,"lng":136.749874,"zip":"4968001"},{"town":"勝幡町","koaza":"弁才天","lat":35.193572,"lng":136.750361,"zip":"4968001"},{"town":"勝幡町","koaza":"河畔","lat":35.202034,"lng":136.7512,"zip":"4968001"},{"town":"古瀬町","koaza":"江向","lat":35.187085,"lng":136.749738,"zip":"4968004"},{"town":"勝幡町","koaza":"五反分","lat":35.200342,"lng":136.749492,"zip":"4968001"},{"town":"諸桑町","koaza":"塩田","lat":35.184263,"lng":136.752532,"zip":"4968005"},{"town":"古瀬町","koaza":"郷浦","lat":35.192558,"lng":136.751928,"zip":"4968004"},{"town":"勝幡町","koaza":"蓮池","lat":35.200196,"lng":136.75016,"zip":"4968001"},{"town":"古瀬町","koaza":"村前","lat":35.189401,"lng":136.751612,"zip":"4968004"},{"town":"古瀬町","koaza":"郷内","lat":35.19135,"lng":136.751711,"zip":"4968004"},{"town":"古瀬町","koaza":"村内","lat":35.191004,"lng":136.751323,"zip":"4968004"},{"town":"勝幡町","koaza":"姪ケ池","lat":35.201008,"lng":136.752385,"zip":"4968001"},{"town":"勝幡町","koaza":"出崎","lat":35.198454,"lng":136.75105,"zip":"4968001"},{"town":"勝幡町","koaza":"竹丸","lat":35.196597,"lng":136.75065,"zip":"4968001"},{"town":"諸桑町","koaza":"東浦","lat":35.18015,"lng":136.752293,"zip":"4968005"},{"town":"勝幡町","koaza":"駅東","lat":35.196783,"lng":136.752415,"zip":"4968001"},{"town":"勝幡町","koaza":"流","lat":35.194391,"lng":136.751101,"zip":"4968001"},{"town":"善太新田町","koaza":"七草平","lat":35.132869,"lng":136.755925,"zip":"4960924"},{"town":"勝幡町","koaza":"堤内","lat":35.203595,"lng":136.752154,"zip":"4968001"},{"town":"古瀬町","koaza":"古御堂","lat":35.192424,"lng":136.75178,"zip":"4968004"},{"town":"勝幡町","koaza":"栄","lat":35.193698,"lng":136.751382,"zip":"4968001"},{"town":"大井町","koaza":"宮新田","lat":35.145155,"lng":136.753839,"zip":"4960921"},{"town":"勝幡町","koaza":"矢田","lat":35.199401,"lng":136.751583,"zip":"4968001"},{"town":"大井町","koaza":"七川南","lat":35.133925,"lng":136.753334,"zip":"4960921"},{"town":"大井町","koaza":"前田面","lat":35.138983,"lng":136.753507,"zip":"4960921"},{"town":"勝幡町","koaza":"駒捨場","lat":35.198762,"lng":136.752352,"zip":"4968001"},{"town":"勝幡町","koaza":"小玉出","lat":35.193722,"lng":136.753453,"zip":"4968001"},{"town":"諸桑町","koaza":"株木","lat":35.181058,"lng":136.752753,"zip":"4968005"},{"town":"本部田町","koaza":"天池","lat":35.128816,"lng":136.75302,"zip":"4960915"},{"town":"勝幡町","koaza":"長筬","lat":35.194605,"lng":136.753045,"zip":"4968001"},{"town":"勝幡町","koaza":"大矢","lat":35.202698,"lng":136.754348,"zip":"4968001"},{"town":"勝幡町","koaza":"鎌出新田","lat":35.19744,"lng":136.752838,"zip":"4968001"},{"town":"勝幡町","koaza":"緑町","lat":35.199018,"lng":136.754405,"zip":"4968001"},{"town":"古瀬町","koaza":"大割","lat":35.187565,"lng":136.753691,"zip":"4968004"},{"town":"大井町","koaza":"七川北","lat":35.136256,"lng":136.756084,"zip":"4960921"},{"town":"勝幡町","koaza":"八反田","lat":35.197052,"lng":136.75424,"zip":"4968001"},{"town":"勝幡町","koaza":"神様田","lat":35.195979,"lng":136.755339,"zip":"4968001"},{"town":"千引町","koaza":"郷前","lat":35.189724,"lng":136.755315,"zip":"4968003"},{"town":"勝幡町","koaza":"新町","lat":35.194806,"lng":136.755318,"zip":"4968001"},{"town":"善太新田町","koaza":"八草平","lat":35.129963,"lng":136.756202,"zip":"4960924"},{"town":"千引町","koaza":"郷浦","lat":35.191458,"lng":136.75625,"zip":"4968003"},{"town":"古瀬町","koaza":"川東","lat":35.187028,"lng":136.754861,"zip":"4968004"},{"town":"勝幡町","koaza":"大御堂","lat":35.202372,"lng":136.757548,"zip":"4968001"},{"town":"千引町","koaza":"北浦","lat":35.192305,"lng":136.754693,"zip":"4968003"},{"town":"勝幡町","koaza":"佐折腰","lat":35.196781,"lng":136.755043,"zip":"4968001"},{"town":"勝幡町","koaza":"石塚","lat":35.193904,"lng":136.755568,"zip":"4968001"},{"town":"千引町","koaza":"屋敷","lat":35.190678,"lng":136.755722,"zip":"4968003"},{"town":"大井町","koaza":"石池","lat":35.138652,"lng":136.756913,"zip":"4960921"},{"town":"善太新田町","koaza":"佐古木前","lat":35.125858,"lng":136.756201,"zip":"4960924"},{"town":"善太新田町","koaza":"十割下","lat":35.119143,"lng":136.7591,"zip":"4960924"},{"town":"千引町","koaza":"西五反田","lat":35.189773,"lng":136.755926,"zip":"4968003"},{"town":"千引町","koaza":"中五反田","lat":35.189775,"lng":136.756624,"zip":"4968003"},{"town":"勝幡町","koaza":"萩原","lat":35.195456,"lng":136.756369,"zip":"4968001"},{"town":"勝幡町","koaza":"東町","lat":35.20221,"lng":136.760505,"zip":"4968001"},{"town":"善太新田町","koaza":"大前","lat":35.123058,"lng":136.758248,"zip":"4960924"},{"town":"佐折町","koaza":"上栄","lat":35.199911,"lng":136.758633,"zip":"4968002"},{"town":"佐折町","koaza":"宮寺","lat":35.196798,"lng":136.758191,"zip":"4968002"},{"town":"千引町","koaza":"川東","lat":35.187246,"lng":136.757362,"zip":"4968003"},{"town":"千引町","koaza":"長畑","lat":35.190631,"lng":136.757524,"zip":"4968003"},{"town":"善太新田町","koaza":"九番割","lat":35.126079,"lng":136.759048,"zip":"4960924"},{"town":"勝幡町","koaza":"林","lat":35.203325,"lng":136.76005,"zip":"4968001"},{"town":"勝幡町","koaza":"後田","lat":35.202812,"lng":136.759142,"zip":"4968001"},{"town":"善太新田町","koaza":"鰯江前","lat":35.127602,"lng":136.758015,"zip":"4960924"},{"town":"鰯江町","koaza":"郷西","lat":35.128207,"lng":136.75966,"zip":"4960923"},{"town":"善太新田町","koaza":"十割上","lat":35.124014,"lng":136.759576,"zip":"4960924"},{"town":"大井町","koaza":"弥八","lat":35.132302,"lng":136.761611,"zip":"4960921"},{"town":"善太新田町","koaza":"十一下","lat":35.119882,"lng":136.761534,"zip":"4960924"},{"town":"鰯江町","koaza":"郷裏","lat":35.129258,"lng":136.761319,"zip":"4960923"},{"town":"佐折町","koaza":"東川","lat":35.196767,"lng":136.759993,"zip":"4968002"},{"town":"鰯江町","koaza":"郷中","lat":35.126237,"lng":136.761662,"zip":"4960923"},{"town":"善太新田町","koaza":"十一上","lat":35.122248,"lng":136.762208,"zip":"4960924"},{"town":"善太新田町","koaza":"小新田","lat":35.124711,"lng":136.761769,"zip":"4960924"},{"town":"佐折町","koaza":"辻畑","lat":35.199551,"lng":136.76232,"zip":"4968002"},{"town":"鰯江町","koaza":"郷東","lat":35.125071,"lng":136.764094,"zip":"4960923"},{"town":"大井町","koaza":"姥弥八","lat":35.132043,"lng":136.763245,"zip":"4960921"},{"town":"大野町","koaza":"郷西","lat":35.132989,"lng":136.766966,"zip":"4960922"},{"town":"勝幡町","koaza":"堀田","lat":35.200462,"lng":136.762533,"zip":"4968001"},{"town":"大野町","koaza":"未","lat":35.127213,"lng":136.765626,"zip":"4960922"},{"town":"大野町","koaza":"茶木","lat":35.131129,"lng":136.765888,"zip":"4960922"},{"town":"佐折町","koaza":"溝合","lat":35.200091,"lng":136.762946,"zip":"4968002"},{"town":"善太新田町","koaza":"十二下","lat":35.11904,"lng":136.76441,"zip":"4960924"},{"town":"大野町","koaza":"鉄道外","lat":35.13227,"lng":136.764042,"zip":"4960922"},{"town":"善太新田町","koaza":"十二上","lat":35.120384,"lng":136.766627,"zip":"4960924"},{"town":"善太新田町","koaza":"古株","lat":35.119906,"lng":136.769463,"zip":"4960924"},{"town":"大野町","koaza":"郷裏","lat":35.133742,"lng":136.770366,"zip":"4960922"},{"town":"大野町","koaza":"山","lat":35.126147,"lng":136.77048,"zip":"4960922"},{"town":"大野町","koaza":"郷前","lat":35.130694,"lng":136.771152,"zip":"4960922"}]