[{"town":"愛郷","koaza":"","lat":35.022327,"lng":137.502359,"zip":"4411951"},{"town":"字石名号","koaza":"","lat":34.901636,"lng":137.504952,"zip":"4411300"},{"town":"字井道","koaza":"","lat":34.898539,"lng":137.50925,"zip":"4411300"},{"town":"字内井道北","koaza":"","lat":34.903353,"lng":137.513177,"zip":"4411300"},{"town":"字内井道南","koaza":"","lat":34.900491,"lng":137.513814,"zip":"4411300"},{"town":"字裏野","koaza":"","lat":34.903161,"lng":137.498397,"zip":"4411300"},{"town":"字沖野","koaza":"","lat":34.902778,"lng":137.505361,"zip":"4411300"},{"town":"字奥井道","koaza":"","lat":34.89819,"lng":137.514913,"zip":"4411300"},{"town":"字笠岩","koaza":"","lat":34.896234,"lng":137.503363,"zip":"4411300"},{"town":"字鰹渕","koaza":"","lat":34.89672,"lng":137.510467,"zip":"4411300"},{"town":"字北畑","koaza":"","lat":34.898257,"lng":137.490189,"zip":"4411300"},{"town":"字久保","koaza":"","lat":34.903747,"lng":137.499934,"zip":"4411300"},{"town":"字桜渕","koaza":"","lat":34.896635,"lng":137.505845,"zip":"4411300"},{"town":"字下川","koaza":"","lat":34.900324,"lng":137.499859,"zip":"4411300"},{"town":"字滝ノ上","koaza":"","lat":34.8976,"lng":137.501791,"zip":"4411300"},{"town":"字中野","koaza":"","lat":34.899467,"lng":137.50578,"zip":"4411300"},{"town":"字西入船","koaza":"","lat":34.896483,"lng":137.496408,"zip":"4411300"},{"town":"字西新町","koaza":"","lat":34.902327,"lng":137.501124,"zip":"4411300"},{"town":"字二本松","koaza":"","lat":34.90053,"lng":137.508953,"zip":"4411300"},{"town":"字橋向","koaza":"","lat":34.898509,"lng":137.49219,"zip":"4411300"},{"town":"字八幡","koaza":"","lat":34.897488,"lng":137.493051,"zip":"4411300"},{"town":"字東入船","koaza":"","lat":34.89777,"lng":137.499058,"zip":"4411300"},{"town":"字東沖野","koaza":"","lat":34.903024,"lng":137.508729,"zip":"4411300"},{"town":"字札木","koaza":"","lat":34.900987,"lng":137.501853,"zip":"4411300"},{"town":"字町並","koaza":"","lat":34.900402,"lng":137.497149,"zip":"4411300"},{"town":"字的場","koaza":"","lat":34.902777,"lng":137.495957,"zip":"4411300"},{"town":"字南畑","koaza":"","lat":34.896935,"lng":137.489942,"zip":"4411300"},{"town":"字宮ノ後","koaza":"","lat":34.903185,"lng":137.492392,"zip":"4411300"},{"town":"字宮ノ西","koaza":"","lat":34.900753,"lng":137.49244,"zip":"4411300"},{"town":"字宮ノ前","koaza":"","lat":34.900762,"lng":137.494968,"zip":"4411300"},{"town":"字向野","koaza":"","lat":34.89885,"lng":137.503381,"zip":"4411300"},{"town":"浅谷","koaza":"","lat":34.935709,"lng":137.535189,"zip":"4411312"},{"town":"字屋敷","koaza":"","lat":34.903618,"lng":137.503479,"zip":"4411300"},{"town":"有海","koaza":"","lat":34.918937,"lng":137.550835,"zip":"4411317"},{"town":"池場","koaza":"","lat":35.02273,"lng":137.689273,"zip":"4411602"},{"town":"石田","koaza":"","lat":34.892228,"lng":137.489507,"zip":"4411342"},{"town":"井代","koaza":"","lat":34.961055,"lng":137.619003,"zip":"4411616"},{"town":"市川","koaza":"","lat":34.905159,"lng":137.562734,"zip":"4411321"},{"town":"市場台一丁目","koaza":"","lat":34.88742,"lng":137.469965,"zip":"4411348"},{"town":"市場台二丁目","koaza":"","lat":34.88567,"lng":137.470479,"zip":"4411348"},{"town":"市場台三丁目","koaza":"","lat":34.885585,"lng":137.468237,"zip":"4411348"},{"town":"市場台四丁目","koaza":"","lat":34.887081,"lng":137.467938,"zip":"4411348"},{"town":"一色","koaza":"","lat":34.996107,"lng":137.509685,"zip":"4411953"},{"town":"稲木","koaza":"","lat":34.899843,"lng":137.455759,"zip":"4411351"},{"town":"牛倉","koaza":"","lat":34.930602,"lng":137.513629,"zip":"4411303"},{"town":"海老","koaza":"","lat":35.027663,"lng":137.571391,"zip":"4411943"},{"town":"大野","koaza":"","lat":34.944292,"lng":137.605142,"zip":"4411615"},{"town":"大海","koaza":"","lat":34.932461,"lng":137.547647,"zip":"4411315"},{"town":"大宮","koaza":"","lat":34.921337,"lng":137.521306,"zip":"4411304"},{"town":"小畑","koaza":"","lat":34.86643,"lng":137.548889,"zip":"4411333"},{"town":"片山","koaza":"","lat":34.919941,"lng":137.487309,"zip":"4411354"},{"town":"門谷","koaza":"","lat":34.987643,"lng":137.592492,"zip":"4411693"},{"town":"上平井","koaza":"","lat":34.917497,"lng":137.494817,"zip":"4411355"},{"town":"上吉田","koaza":"","lat":34.891066,"lng":137.604133,"zip":"4411622"},{"town":"川合","koaza":"","lat":35.029073,"lng":137.647103,"zip":"4411601"},{"town":"川路","koaza":"","lat":34.911088,"lng":137.52873,"zip":"4411306"},{"town":"川田","koaza":"","lat":34.891852,"lng":137.448723,"zip":"4411346"},{"town":"玖老勢","koaza":"","lat":34.985912,"lng":137.561806,"zip":"4411945"},{"town":"黒田","koaza":"","lat":34.873683,"lng":137.519946,"zip":"4411332"},{"town":"塩瀬","koaza":"","lat":34.980632,"lng":137.495574,"zip":"4411956"},{"town":"下吉田","koaza":"","lat":34.916493,"lng":137.620965,"zip":"4411621"},{"town":"城北一丁目","koaza":"","lat":34.905195,"lng":137.497582,"zip":"4411371"},{"town":"城北二丁目","koaza":"","lat":34.906271,"lng":137.496908,"zip":"4411371"},{"town":"城北三丁目","koaza":"","lat":34.907105,"lng":137.496533,"zip":"4411371"},{"town":"杉山","koaza":"","lat":34.902402,"lng":137.484282,"zip":"4411341"},{"town":"出沢","koaza":"","lat":34.947671,"lng":137.530598,"zip":"4411313"},{"town":"須長","koaza":"","lat":34.934445,"lng":137.497746,"zip":"4411311"},{"town":"巣山","koaza":"","lat":34.958664,"lng":137.655382,"zip":"4411612"},{"town":"竹ノ輪","koaza":"","lat":34.891391,"lng":137.582941,"zip":"4411624"},{"town":"竹広","koaza":"","lat":34.918073,"lng":137.525439,"zip":"4411305"},{"town":"只持","koaza":"","lat":34.995883,"lng":137.528263,"zip":"4411954"},{"town":"作手荒原","koaza":"","lat":34.958193,"lng":137.501629,"zip":"4411533"},{"town":"作手岩波","koaza":"","lat":34.993907,"lng":137.459776,"zip":"4411411"},{"town":"作手大和田","koaza":"","lat":34.985179,"lng":137.474568,"zip":"4411531"},{"town":"作手鴨ヶ谷","koaza":"","lat":34.971527,"lng":137.44485,"zip":"4411300"},{"town":"作手清岳","koaza":"","lat":34.965235,"lng":137.410032,"zip":"4411414"},{"town":"作手木和田","koaza":"","lat":35.019451,"lng":137.478976,"zip":"4411402"},{"town":"作手黒瀬","koaza":"","lat":35.013367,"lng":137.438677,"zip":"4411421"},{"town":"作手白鳥","koaza":"","lat":34.945995,"lng":137.42273,"zip":"4411413"},{"town":"作手菅沼","koaza":"","lat":35.047938,"lng":137.448591,"zip":"4411404"},{"town":"作手杉平","koaza":"","lat":34.937856,"lng":137.462082,"zip":"4411535"},{"town":"作手善夫","koaza":"","lat":35.025427,"lng":137.44717,"zip":"4411403"},{"town":"作手高里","koaza":"","lat":34.98402,"lng":137.417745,"zip":"4411423"},{"town":"作手高松","koaza":"","lat":34.955673,"lng":137.455249,"zip":"4411532"},{"town":"作手田代","koaza":"","lat":34.947645,"lng":137.479458,"zip":"4411534"},{"town":"作手田原","koaza":"","lat":34.996036,"lng":137.438659,"zip":"4411422"},{"town":"作手中河内","koaza":"","lat":34.997385,"lng":137.407929,"zip":"4411424"},{"town":"作手守義","koaza":"","lat":35.051773,"lng":137.486211,"zip":"4411401"},{"town":"作手保永","koaza":"","lat":34.924531,"lng":137.438579,"zip":"4411536"},{"town":"黄柳野","koaza":"","lat":34.869064,"lng":137.583076,"zip":"4411623"},{"town":"徳定","koaza":"","lat":34.919197,"lng":137.477919,"zip":"4411353"},{"town":"富岡","koaza":"","lat":34.846681,"lng":137.499483,"zip":"4411335"},{"town":"富栄","koaza":"","lat":34.946484,"lng":137.59198,"zip":"4411632"},{"town":"富沢","koaza":"","lat":34.906942,"lng":137.515665,"zip":"4411307"},{"town":"富沢一丁目","koaza":"","lat":34.909963,"lng":137.511721,"zip":"4411307"},{"town":"富沢二丁目","koaza":"","lat":34.908612,"lng":137.511269,"zip":"4411307"},{"town":"富永","koaza":"","lat":34.918331,"lng":137.514023,"zip":"4411302"},{"town":"富保","koaza":"","lat":34.94969,"lng":137.571095,"zip":"4411636"},{"town":"豊岡","koaza":"","lat":34.976138,"lng":137.604826,"zip":"4411631"},{"town":"豊栄","koaza":"","lat":34.910312,"lng":137.461788,"zip":"4411352"},{"town":"豊島","koaza":"","lat":34.87912,"lng":137.467087,"zip":"4411345"},{"town":"中宇利","koaza":"","lat":34.856385,"lng":137.54601,"zip":"4411334"},{"town":"長篠","koaza":"","lat":34.932003,"lng":137.565723,"zip":"4411634"},{"town":"中島","koaza":"","lat":35.018969,"lng":137.528327,"zip":"4411952"},{"town":"名越","koaza":"","lat":34.98064,"lng":137.627704,"zip":"4411604"},{"town":"七郷一色","koaza":"","lat":34.974686,"lng":137.684123,"zip":"4411611"},{"town":"庭野","koaza":"","lat":34.886971,"lng":137.506149,"zip":"4411331"},{"town":"野田","koaza":"","lat":34.884688,"lng":137.477925,"zip":"4411343"},{"town":"能登瀬","koaza":"","lat":34.975077,"lng":137.62117,"zip":"4411605"},{"town":"乗本","koaza":"","lat":34.917285,"lng":137.577137,"zip":"4411633"},{"town":"一鍬田","koaza":"","lat":34.86989,"lng":137.487153,"zip":"4411338"},{"town":"日吉","koaza":"","lat":34.898022,"lng":137.531649,"zip":"4411322"},{"town":"平井","koaza":"","lat":34.907942,"lng":137.504401,"zip":"4411362"},{"town":"副川","koaza":"","lat":35.012664,"lng":137.558984,"zip":"4411946"},{"town":"布里","koaza":"","lat":34.974534,"lng":137.522212,"zip":"4411955"},{"town":"細川","koaza":"","lat":34.958761,"lng":137.638666,"zip":"4411613"},{"town":"緑が丘一丁目","koaza":"","lat":34.926559,"lng":137.545741,"zip":"4411316"},{"town":"緑が丘二丁目","koaza":"","lat":34.927788,"lng":137.546975,"zip":"4411316"},{"town":"緑が丘三丁目","koaza":"","lat":34.928492,"lng":137.550585,"zip":"4411316"},{"town":"緑が丘四丁目","koaza":"","lat":34.928087,"lng":137.549039,"zip":"4411316"},{"town":"緑が丘五丁目","koaza":"","lat":34.92644,"lng":137.547175,"zip":"4411316"},{"town":"名号","koaza":"","lat":34.988399,"lng":137.656372,"zip":"4411603"},{"town":"睦平","koaza":"","lat":34.945559,"lng":137.622153,"zip":"4411614"},{"town":"八束穂","koaza":"","lat":34.922392,"lng":137.533999,"zip":"4411318"},{"town":"八名井","koaza":"","lat":34.86588,"lng":137.463691,"zip":"4411337"},{"town":"矢部","koaza":"","lat":34.91934,"lng":137.503603,"zip":"4411301"},{"town":"横川","koaza":"","lat":34.950314,"lng":137.550722,"zip":"4411314"},{"town":"吉川","koaza":"","lat":34.881377,"lng":137.551589,"zip":"4411323"},{"town":"四谷","koaza":"","lat":35.048971,"lng":137.572184,"zip":"4411942"},{"town":"連合","koaza":"","lat":35.0397,"lng":137.544066,"zip":"4411941"},{"town":"川田","koaza":"本宮","lat":34.89114,"lng":137.446069,"zip":"4411346"},{"town":"川田","koaza":"本宮道","lat":34.885053,"lng":137.453056,"zip":"4411346"},{"town":"川田","koaza":"奥陣後","lat":34.894879,"lng":137.449561,"zip":"4411346"},{"town":"川田","koaza":"新間平","lat":34.89031,"lng":137.458419,"zip":"4411346"},{"town":"八名井","koaza":"反林","lat":34.863385,"lng":137.456989,"zip":"4411337"},{"town":"川田","koaza":"三田地","lat":34.889062,"lng":137.453786,"zip":"4411346"},{"town":"八名井","koaza":"西川原","lat":34.867671,"lng":137.454468,"zip":"4411337"},{"town":"川田","koaza":"横枕","lat":34.887055,"lng":137.457645,"zip":"4411346"},{"town":"八名井","koaza":"五平治","lat":34.863899,"lng":137.457812,"zip":"4411337"},{"town":"川田","koaza":"平","lat":34.882588,"lng":137.457564,"zip":"4411346"},{"town":"八名井","koaza":"祢宜屋敷","lat":34.86527,"lng":137.45612,"zip":"4411337"},{"town":"川田","koaza":"滝川原","lat":34.879028,"lng":137.456974,"zip":"4411346"},{"town":"川田","koaza":"下側","lat":34.875757,"lng":137.457925,"zip":"4411346"},{"town":"川田","koaza":"仲屋敷","lat":34.877328,"lng":137.458903,"zip":"4411346"},{"town":"川田","koaza":"山田平","lat":34.880904,"lng":137.459064,"zip":"4411346"},{"town":"八名井","koaza":"東畑","lat":34.866281,"lng":137.45863,"zip":"4411337"},{"town":"八名井","koaza":"豊辺屋敷","lat":34.868863,"lng":137.463647,"zip":"4411337"},{"town":"八名井","koaza":"大入山","lat":34.862336,"lng":137.460435,"zip":"4411337"},{"town":"川田","koaza":"八幡前","lat":34.874959,"lng":137.458708,"zip":"4411346"},{"town":"八名井","koaza":"天神西","lat":34.865591,"lng":137.459297,"zip":"4411337"},{"town":"川田","koaza":"天王前","lat":34.876192,"lng":137.459298,"zip":"4411346"},{"town":"川田","koaza":"堂ノ前","lat":34.875277,"lng":137.459002,"zip":"4411346"},{"town":"川田","koaza":"新平","lat":34.87971,"lng":137.460612,"zip":"4411346"},{"town":"八名井","koaza":"下モ屋敷","lat":34.864904,"lng":137.461103,"zip":"4411337"},{"town":"川田","koaza":"新丸田","lat":34.874849,"lng":137.459947,"zip":"4411346"},{"town":"川田","koaza":"新広美","lat":34.873769,"lng":137.463129,"zip":"4411346"},{"town":"八名井","koaza":"西屋敷","lat":34.866412,"lng":137.460276,"zip":"4411337"},{"town":"八名井","koaza":"関屋","lat":34.868227,"lng":137.46061,"zip":"4411337"},{"town":"八名井","koaza":"時行","lat":34.867407,"lng":137.459846,"zip":"4411337"},{"town":"八名井","koaza":"羽根ノ下","lat":34.867474,"lng":137.459712,"zip":"4411337"},{"town":"川田","koaza":"吉水","lat":34.891158,"lng":137.461522,"zip":"4411346"},{"town":"八名井","koaza":"下タ屋敷","lat":34.867737,"lng":137.4613,"zip":"4411337"},{"town":"川田","koaza":"榊差","lat":34.884196,"lng":137.461579,"zip":"4411346"},{"town":"八名井","koaza":"宮ノ内","lat":34.865564,"lng":137.460764,"zip":"4411337"},{"town":"豊島","koaza":"大畔","lat":34.879096,"lng":137.463922,"zip":"4411345"},{"town":"川田","koaza":"堀合","lat":34.884262,"lng":137.463794,"zip":"4411346"},{"town":"八名井","koaza":"中下タ屋敷","lat":34.867113,"lng":137.46205,"zip":"4411337"},{"town":"八名井","koaza":"滝ノ入山下","lat":34.866128,"lng":137.462246,"zip":"4411337"},{"town":"川田","koaza":"野中","lat":34.882275,"lng":137.463041,"zip":"4411346"},{"town":"八名井","koaza":"上地屋敷","lat":34.866674,"lng":137.462814,"zip":"4411337"},{"town":"野田","koaza":"野添","lat":34.888065,"lng":137.463738,"zip":"4411343"},{"town":"八名井","koaza":"権現山下","lat":34.867191,"lng":137.463585,"zip":"4411337"},{"town":"八名井","koaza":"中上屋敷","lat":34.867811,"lng":137.46534,"zip":"4411337"},{"town":"野田","koaza":"山田屋敷","lat":34.885582,"lng":137.464948,"zip":"4411343"},{"town":"野田","koaza":"山田","lat":34.886857,"lng":137.46469,"zip":"4411343"},{"town":"八名井","koaza":"村上","lat":34.868427,"lng":137.464717,"zip":"4411337"},{"town":"豊島","koaza":"南","lat":34.876779,"lng":137.467782,"zip":"4411345"},{"town":"豊島","koaza":"浄悦","lat":34.874399,"lng":137.465817,"zip":"4411345"},{"town":"豊島","koaza":"龍谷","lat":34.882058,"lng":137.466662,"zip":"4411345"},{"town":"野田","koaza":"新山田","lat":34.887481,"lng":137.465698,"zip":"4411343"},{"town":"八名井","koaza":"堤内","lat":34.869626,"lng":137.466503,"zip":"4411337"},{"town":"豊島","koaza":"広瀬川原","lat":34.875485,"lng":137.465367,"zip":"4411345"},{"town":"八名井","koaza":"鍛冶ケ井戸","lat":34.86908,"lng":137.466304,"zip":"4411337"},{"town":"豊島","koaza":"北","lat":34.878932,"lng":137.468238,"zip":"4411345"},{"town":"豊島","koaza":"本城","lat":34.884061,"lng":137.467928,"zip":"4411345"},{"town":"八名井","koaza":"上ミ屋敷","lat":34.869568,"lng":137.467982,"zip":"4411337"},{"town":"豊島","koaza":"馬渡","lat":34.880543,"lng":137.466838,"zip":"4411345"},{"town":"豊島","koaza":"東石原","lat":34.876408,"lng":137.467691,"zip":"4411345"},{"town":"野田","koaza":"上市場","lat":34.884431,"lng":137.46915,"zip":"4411343"},{"town":"八名井","koaza":"今水","lat":34.868183,"lng":137.472926,"zip":"4411337"},{"town":"豊島","koaza":"西川原","lat":34.875334,"lng":137.467607,"zip":"4411345"},{"town":"豊島","koaza":"新道","lat":34.875996,"lng":137.469114,"zip":"4411345"},{"town":"豊島","koaza":"スワブ","lat":34.877017,"lng":137.469066,"zip":"4411345"},{"town":"豊島","koaza":"外畑","lat":34.881374,"lng":137.469127,"zip":"4411345"},{"town":"八名井","koaza":"朝拝","lat":34.870686,"lng":137.468886,"zip":"4411337"},{"town":"八名井","koaza":"大上ミ屋敷","lat":34.869962,"lng":137.471195,"zip":"4411337"},{"town":"豊島","koaza":"東大坪","lat":34.877645,"lng":137.469043,"zip":"4411345"},{"town":"一鍬田","koaza":"西上ノ平","lat":34.873207,"lng":137.473483,"zip":"4411338"},{"town":"豊島","koaza":"南湧清水","lat":34.879792,"lng":137.469548,"zip":"4411345"},{"town":"八名井","koaza":"笠上","lat":34.869351,"lng":137.469785,"zip":"4411337"},{"town":"八名井","koaza":"赤松","lat":34.869542,"lng":137.47078,"zip":"4411337"},{"town":"豊島","koaza":"鳥居前","lat":34.876795,"lng":137.470456,"zip":"4411345"},{"town":"野田","koaza":"戸矢ケ崎","lat":34.882643,"lng":137.471669,"zip":"4411343"},{"town":"豊島","koaza":"元宮","lat":34.878886,"lng":137.470602,"zip":"4411345"},{"town":"一鍬田","koaza":"東下川原","lat":34.872702,"lng":137.472117,"zip":"4411338"},{"town":"野田","koaza":"権現","lat":34.886031,"lng":137.472506,"zip":"4411343"},{"town":"豊島","koaza":"東","lat":34.878186,"lng":137.472256,"zip":"4411345"},{"town":"豊島","koaza":"老平","lat":34.879186,"lng":137.472101,"zip":"4411345"},{"town":"野田","koaza":"専徳","lat":34.884404,"lng":137.472924,"zip":"4411343"},{"town":"稲木","koaza":"仲野","lat":34.891201,"lng":137.472821,"zip":"4411351"},{"town":"野田","koaza":"皆津","lat":34.886385,"lng":137.475443,"zip":"4411343"},{"town":"野田","koaza":"深田","lat":34.883883,"lng":137.474514,"zip":"4411343"},{"town":"野田","koaza":"大野田","lat":34.884971,"lng":137.474204,"zip":"4411343"},{"town":"野田","koaza":"西町屋敷","lat":34.890692,"lng":137.475737,"zip":"4411343"},{"town":"野田","koaza":"堤上","lat":34.889611,"lng":137.474404,"zip":"4411343"},{"town":"一鍬田","koaza":"東上ノ平","lat":34.872218,"lng":137.476367,"zip":"4411338"},{"town":"一鍬田","koaza":"西浦","lat":34.873615,"lng":137.47589,"zip":"4411338"},{"town":"一鍬田","koaza":"向山","lat":34.868541,"lng":137.484658,"zip":"4411338"},{"town":"野田","koaza":"西浄悦","lat":34.888345,"lng":137.475274,"zip":"4411343"},{"town":"野田","koaza":"貴船","lat":34.878147,"lng":137.476068,"zip":"4411343"},{"town":"野田","koaza":"幹徳","lat":34.885026,"lng":137.477367,"zip":"4411343"},{"town":"野田","koaza":"東町屋敷","lat":34.890765,"lng":137.478232,"zip":"4411343"},{"town":"一鍬田","koaza":"吉祥山","lat":34.859209,"lng":137.484561,"zip":"4411338"},{"town":"野田","koaza":"諏訪川原","lat":34.8933,"lng":137.479266,"zip":"4411343"},{"town":"野田","koaza":"東浄悦","lat":34.889691,"lng":137.477254,"zip":"4411343"},{"town":"野田","koaza":"古屋敷","lat":34.887983,"lng":137.478822,"zip":"4411343"},{"town":"杉山","koaza":"森高","lat":34.905126,"lng":137.479797,"zip":"4411341"},{"town":"一鍬田","koaza":"殿海道","lat":34.873734,"lng":137.478481,"zip":"4411338"},{"town":"野田","koaza":"西郷","lat":34.884098,"lng":137.479196,"zip":"4411343"},{"town":"杉山","koaza":"行時","lat":34.905528,"lng":137.480595,"zip":"4411341"},{"town":"一鍬田","koaza":"西宇利川","lat":34.872031,"lng":137.478754,"zip":"4411338"},{"town":"杉山","koaza":"道目記","lat":34.895816,"lng":137.481448,"zip":"4411341"},{"town":"野田","koaza":"上ド々メキ","lat":34.893681,"lng":137.479586,"zip":"4411343"},{"town":"野田","koaza":"鐘鋳場","lat":34.891207,"lng":137.480791,"zip":"4411343"},{"town":"杉山","koaza":"フロコシ","lat":34.898869,"lng":137.480318,"zip":"4411341"},{"town":"野田","koaza":"笹田","lat":34.892361,"lng":137.480402,"zip":"4411343"},{"town":"杉山","koaza":"小寺前","lat":34.905027,"lng":137.480994,"zip":"4411341"},{"town":"野田","koaza":"観音","lat":34.885131,"lng":137.481855,"zip":"4411343"},{"town":"一鍬田","koaza":"東宇利川","lat":34.872145,"lng":137.480461,"zip":"4411338"},{"town":"杉山","koaza":"中屋","lat":34.902277,"lng":137.481368,"zip":"4411341"},{"town":"一鍬田","koaza":"滝沢","lat":34.864537,"lng":137.485704,"zip":"4411338"},{"town":"杉山","koaza":"野中","lat":34.899203,"lng":137.481667,"zip":"4411341"},{"town":"杉山","koaza":"宗近","lat":34.906726,"lng":137.482357,"zip":"4411341"},{"town":"富岡","koaza":"三ツ合","lat":34.850791,"lng":137.488973,"zip":"4411335"},{"town":"石田","koaza":"トヲメキ","lat":34.891158,"lng":137.484278,"zip":"4411342"},{"town":"石田","koaza":"西末旨","lat":34.895664,"lng":137.485142,"zip":"4411342"},{"town":"一鍬田","koaza":"堂ノ前","lat":34.873408,"lng":137.482203,"zip":"4411338"},{"town":"野田","koaza":"野田市場","lat":34.887607,"lng":137.483219,"zip":"4411343"},{"town":"一鍬田","koaza":"安京","lat":34.874742,"lng":137.482628,"zip":"4411338"},{"town":"杉山","koaza":"後田","lat":34.90619,"lng":137.483354,"zip":"4411341"},{"town":"庭野","koaza":"外河原","lat":34.884399,"lng":137.485439,"zip":"4411331"},{"town":"杉山","koaza":"阿賀地","lat":34.908842,"lng":137.482539,"zip":"4411341"},{"town":"杉山","koaza":"篠刈","lat":34.90225,"lng":137.484238,"zip":"4411341"},{"town":"庭野","koaza":"下河原","lat":34.882567,"lng":137.484601,"zip":"4411331"},{"town":"一鍬田","koaza":"実盛","lat":34.873897,"lng":137.485042,"zip":"4411338"},{"town":"一鍬田","koaza":"京兼","lat":34.875995,"lng":137.483349,"zip":"4411338"},{"town":"杉山","koaza":"端城","lat":34.900942,"lng":137.483125,"zip":"4411341"},{"town":"杉山","koaza":"前野","lat":34.897497,"lng":137.484078,"zip":"4411341"},{"town":"杉山","koaza":"野口","lat":34.89918,"lng":137.484794,"zip":"4411341"},{"town":"一鍬田","koaza":"外畑","lat":34.877797,"lng":137.485035,"zip":"4411338"},{"town":"一鍬田","koaza":"赤座ケ入","lat":34.860021,"lng":137.492701,"zip":"4411338"},{"town":"杉山","koaza":"荒井","lat":34.904177,"lng":137.486311,"zip":"4411341"},{"town":"一鍬田","koaza":"斉ナダ","lat":34.878593,"lng":137.484751,"zip":"4411338"},{"town":"一鍬田","koaza":"九五","lat":34.874836,"lng":137.485535,"zip":"4411338"},{"town":"一鍬田","koaza":"畠中","lat":34.88094,"lng":137.486167,"zip":"4411338"},{"town":"杉山","koaza":"大久後","lat":34.90828,"lng":137.484986,"zip":"4411341"},{"town":"一鍬田","koaza":"北畑","lat":34.879765,"lng":137.484173,"zip":"4411338"},{"town":"一鍬田","koaza":"説法","lat":34.876163,"lng":137.484654,"zip":"4411338"},{"town":"石田","koaza":"西金国","lat":34.890532,"lng":137.488329,"zip":"4411342"},{"town":"杉山","koaza":"四ツ谷","lat":34.898245,"lng":137.485973,"zip":"4411341"},{"town":"一鍬田","koaza":"浦海道","lat":34.87311,"lng":137.486234,"zip":"4411338"},{"town":"一鍬田","koaza":"阿原田","lat":34.875325,"lng":137.48666,"zip":"4411338"},{"town":"杉山","koaza":"東カイト","lat":34.900682,"lng":137.485271,"zip":"4411341"},{"town":"杉山","koaza":"池下","lat":34.902443,"lng":137.486023,"zip":"4411341"},{"town":"杉山","koaza":"ツクエ","lat":34.909415,"lng":137.486197,"zip":"4411341"},{"town":"富岡","koaza":"西屋敷","lat":34.847246,"lng":137.487832,"zip":"4411335"},{"town":"一鍬田","koaza":"荒神場","lat":34.873972,"lng":137.48736,"zip":"4411338"},{"town":"一鍬田","koaza":"下六田","lat":34.878209,"lng":137.488549,"zip":"4411338"},{"town":"庭野","koaza":"向河原","lat":34.886028,"lng":137.488752,"zip":"4411331"},{"town":"庭野","koaza":"中河原","lat":34.88424,"lng":137.487244,"zip":"4411331"},{"town":"一鍬田","koaza":"仮塚","lat":34.87244,"lng":137.487461,"zip":"4411338"},{"town":"杉山","koaza":"久保","lat":34.898358,"lng":137.487297,"zip":"4411341"},{"town":"富岡","koaza":"釜石","lat":34.842887,"lng":137.489306,"zip":"4411335"},{"town":"一鍬田","koaza":"六田","lat":34.880169,"lng":137.488572,"zip":"4411338"},{"town":"庭野","koaza":"上ノ平","lat":34.883799,"lng":137.489309,"zip":"4411331"},{"town":"一鍬田","koaza":"三月日","lat":34.876662,"lng":137.487766,"zip":"4411338"},{"town":"一鍬田","koaza":"大場サコ","lat":34.882409,"lng":137.487434,"zip":"4411338"},{"town":"杉山","koaza":"大東","lat":34.901657,"lng":137.48842,"zip":"4411341"},{"town":"石田","koaza":"東末旨","lat":34.89564,"lng":137.489815,"zip":"4411342"},{"town":"富岡","koaza":"フケ","lat":34.84766,"lng":137.490496,"zip":"4411335"},{"town":"石田","koaza":"南畑","lat":34.897041,"lng":137.487693,"zip":"4411342"},{"town":"杉山","koaza":"町浦","lat":34.899074,"lng":137.489005,"zip":"4411341"},{"town":"富岡","koaza":"南川","lat":34.841384,"lng":137.494444,"zip":"4411335"},{"town":"一鍬田","koaza":"小深田","lat":34.873538,"lng":137.489541,"zip":"4411338"},{"town":"庭野","koaza":"井堀","lat":34.887343,"lng":137.49022,"zip":"4411331"},{"town":"石田","koaza":"池田","lat":34.893051,"lng":137.491068,"zip":"4411342"},{"town":"富岡","koaza":"牛ケ額","lat":34.852747,"lng":137.495969,"zip":"4411335"},{"town":"一鍬田","koaza":"福田","lat":34.877178,"lng":137.491612,"zip":"4411338"},{"town":"一鍬田","koaza":"柄杓沢","lat":34.872896,"lng":137.491203,"zip":"4411338"},{"town":"庭野","koaza":"藤ノ本","lat":34.883847,"lng":137.491343,"zip":"4411331"},{"town":"杉山","koaza":"柴先","lat":34.901324,"lng":137.490253,"zip":"4411341"},{"town":"一鍬田","koaza":"上赤座","lat":34.864431,"lng":137.494011,"zip":"4411338"},{"town":"杉山","koaza":"建長寺","lat":34.904426,"lng":137.489826,"zip":"4411341"},{"town":"富岡","koaza":"新田面","lat":34.844946,"lng":137.493558,"zip":"4411335"},{"town":"庭野","koaza":"為重","lat":34.886804,"lng":137.490682,"zip":"4411331"},{"town":"石田","koaza":"東金国","lat":34.891603,"lng":137.491098,"zip":"4411342"},{"town":"庭野","koaza":"下植田","lat":34.884885,"lng":137.491296,"zip":"4411331"},{"town":"富岡","koaza":"大入","lat":34.851604,"lng":137.494036,"zip":"4411335"},{"town":"庭野","koaza":"藪田","lat":34.884527,"lng":137.49044,"zip":"4411331"},{"town":"石田","koaza":"黒坂","lat":34.896468,"lng":137.491508,"zip":"4411342"},{"town":"庭野","koaza":"南植田","lat":34.883763,"lng":137.495999,"zip":"4411331"},{"town":"一鍬田","koaza":"余松","lat":34.869581,"lng":137.491115,"zip":"4411338"},{"town":"庭野","koaza":"西井ノ口","lat":34.888603,"lng":137.492411,"zip":"4411331"},{"town":"庭野","koaza":"中植田","lat":34.886361,"lng":137.492215,"zip":"4411331"},{"town":"一鍬田","koaza":"埜中田","lat":34.873433,"lng":137.493004,"zip":"4411338"},{"town":"一鍬田","koaza":"柿平","lat":34.869059,"lng":137.49297,"zip":"4411338"},{"town":"片山","koaza":"柴先","lat":34.905708,"lng":137.492426,"zip":"4411354"},{"town":"庭野","koaza":"井ノ口","lat":34.889749,"lng":137.494261,"zip":"4411331"},{"town":"石田","koaza":"八幡","lat":34.895628,"lng":137.492878,"zip":"4411342"},{"town":"一鍬田","koaza":"南神田平","lat":34.871042,"lng":137.493513,"zip":"4411338"},{"town":"一鍬田","koaza":"北神田平","lat":34.871068,"lng":137.495591,"zip":"4411338"},{"town":"庭野","koaza":"沓形","lat":34.888887,"lng":137.495194,"zip":"4411331"},{"town":"石田","koaza":"万福","lat":34.893937,"lng":137.49375,"zip":"4411342"},{"town":"庭野","koaza":"東植田","lat":34.88695,"lng":137.496528,"zip":"4411331"},{"town":"片山","koaza":"西野畑","lat":34.905612,"lng":137.494461,"zip":"4411354"},{"town":"富岡","koaza":"池下","lat":34.842576,"lng":137.493512,"zip":"4411335"},{"town":"庭野","koaza":"萩野","lat":34.891107,"lng":137.494738,"zip":"4411331"},{"town":"一鍬田","koaza":"鍋倉","lat":34.878233,"lng":137.495326,"zip":"4411338"},{"town":"庭野","koaza":"川大田","lat":34.890029,"lng":137.497431,"zip":"4411331"},{"town":"富岡","koaza":"東川","lat":34.843497,"lng":137.498655,"zip":"4411335"},{"town":"一鍬田","koaza":"清水野","lat":34.869894,"lng":137.496661,"zip":"4411338"},{"town":"片山","koaza":"東野畑","lat":34.907121,"lng":137.495095,"zip":"4411354"},{"town":"一鍬田","koaza":"駒場","lat":34.872838,"lng":137.496903,"zip":"4411338"},{"town":"庭野","koaza":"板割戸","lat":34.880438,"lng":137.498349,"zip":"4411331"},{"town":"庭野","koaza":"東萩野","lat":34.892405,"lng":137.49733,"zip":"4411331"},{"town":"庭野","koaza":"香ケ崎","lat":34.888473,"lng":137.496905,"zip":"4411331"},{"town":"庭野","koaza":"宮ノ前","lat":34.887732,"lng":137.497284,"zip":"4411331"},{"town":"庭野","koaza":"宮下","lat":34.889337,"lng":137.4967,"zip":"4411331"},{"town":"一鍬田","koaza":"瓦平","lat":34.872903,"lng":137.49818,"zip":"4411338"},{"town":"富岡","koaza":"門原野","lat":34.85063,"lng":137.501157,"zip":"4411335"},{"town":"矢部","koaza":"谷下","lat":34.919244,"lng":137.499464,"zip":"4411301"},{"town":"庭野","koaza":"上香ケ崎","lat":34.888832,"lng":137.498613,"zip":"4411331"},{"town":"庭野","koaza":"神荒居","lat":34.893948,"lng":137.500604,"zip":"4411331"},{"town":"平井","koaza":"西浦","lat":34.907128,"lng":137.500537,"zip":"4411362"},{"town":"一鍬田","koaza":"高土井","lat":34.870372,"lng":137.499099,"zip":"4411338"},{"town":"矢部","koaza":"新谷下","lat":34.918452,"lng":137.500131,"zip":"4411301"},{"town":"庭野","koaza":"勝負","lat":34.887948,"lng":137.499602,"zip":"4411331"},{"town":"富岡","koaza":"西足柿","lat":34.846547,"lng":137.500515,"zip":"4411335"},{"town":"庭野","koaza":"原川","lat":34.891749,"lng":137.500374,"zip":"4411331"},{"town":"一鍬田","koaza":"古輪松","lat":34.866531,"lng":137.501414,"zip":"4411338"},{"town":"庭野","koaza":"北山","lat":34.881698,"lng":137.506245,"zip":"4411331"},{"town":"庭野","koaza":"五人櫃","lat":34.889568,"lng":137.500535,"zip":"4411331"},{"town":"平井","koaza":"後田","lat":34.908658,"lng":137.501266,"zip":"4411362"},{"town":"庭野","koaza":"行宗","lat":34.88715,"lng":137.500579,"zip":"4411331"},{"town":"平井","koaza":"地官","lat":34.904626,"lng":137.501123,"zip":"4411362"},{"town":"庭野","koaza":"田ノ平","lat":34.882347,"lng":137.504371,"zip":"4411331"},{"town":"平井","koaza":"松田","lat":34.910342,"lng":137.501528,"zip":"4411362"},{"town":"庭野","koaza":"松本","lat":34.8943,"lng":137.502192,"zip":"4411331"},{"town":"庭野","koaza":"広野","lat":34.885959,"lng":137.50123,"zip":"4411331"},{"town":"平井","koaza":"藪前","lat":34.907602,"lng":137.501641,"zip":"4411362"},{"town":"庭野","koaza":"日貝野","lat":34.892229,"lng":137.501706,"zip":"4411331"},{"town":"矢部","koaza":"新高畔","lat":34.918094,"lng":137.501892,"zip":"4411301"},{"town":"平井","koaza":"新栄","lat":34.910445,"lng":137.505359,"zip":"4411362"},{"town":"矢部","koaza":"高沢","lat":34.921787,"lng":137.501433,"zip":"4411301"},{"town":"富岡","koaza":"箕打平","lat":34.865412,"lng":137.502144,"zip":"4411335"},{"town":"平井","koaza":"中田","lat":34.904909,"lng":137.502395,"zip":"4411362"},{"town":"矢部","koaza":"寺坂","lat":34.919633,"lng":137.501918,"zip":"4411301"},{"town":"庭野","koaza":"向屋敷","lat":34.887999,"lng":137.503032,"zip":"4411331"},{"town":"黒田","koaza":"萩平野","lat":34.867371,"lng":137.505063,"zip":"4411332"},{"town":"矢部","koaza":"新矢畑","lat":34.922262,"lng":137.502053,"zip":"4411301"},{"town":"富岡","koaza":"小吹","lat":34.861877,"lng":137.502158,"zip":"4411335"},{"town":"富岡","koaza":"萩平野","lat":34.864949,"lng":137.504165,"zip":"4411335"},{"town":"平井","koaza":"藪添","lat":34.907516,"lng":137.50273,"zip":"4411362"},{"town":"矢部","koaza":"新寺坂","lat":34.919885,"lng":137.502695,"zip":"4411301"},{"town":"矢部","koaza":"矢畑","lat":34.923102,"lng":137.503706,"zip":"4411301"},{"town":"庭野","koaza":"清上野","lat":34.885323,"lng":137.504067,"zip":"4411331"},{"town":"富岡","koaza":"新田","lat":34.852886,"lng":137.504544,"zip":"4411335"},{"town":"平井","koaza":"若杉","lat":34.906003,"lng":137.503248,"zip":"4411362"},{"town":"矢部","koaza":"慶蔵地","lat":34.918501,"lng":137.503759,"zip":"4411301"},{"town":"矢部","koaza":"高畔","lat":34.917067,"lng":137.503089,"zip":"4411301"},{"town":"矢部","koaza":"欠下","lat":34.921306,"lng":137.503648,"zip":"4411301"},{"town":"平井","koaza":"神田","lat":34.908525,"lng":137.504878,"zip":"4411362"},{"town":"平井","koaza":"大小","lat":34.907362,"lng":137.504333,"zip":"4411362"},{"town":"富岡","koaza":"堀切平","lat":34.861764,"lng":137.504441,"zip":"4411335"},{"town":"矢部","koaza":"紺屋前","lat":34.916201,"lng":137.504667,"zip":"4411301"},{"town":"平井","koaza":"姥神","lat":34.906342,"lng":137.504782,"zip":"4411362"},{"town":"庭野","koaza":"八名井田","lat":34.893652,"lng":137.505185,"zip":"4411331"},{"town":"矢部","koaza":"土取","lat":34.915425,"lng":137.504201,"zip":"4411301"},{"town":"矢部","koaza":"京早稲","lat":34.922078,"lng":137.505082,"zip":"4411301"},{"town":"庭野","koaza":"岩本","lat":34.89296,"lng":137.504993,"zip":"4411331"},{"town":"矢部","koaza":"上ノ川","lat":34.917542,"lng":137.506574,"zip":"4411301"},{"town":"牛倉","koaza":"宗国","lat":34.932231,"lng":137.509586,"zip":"4411303"},{"town":"矢部","koaza":"慶蔵寺","lat":34.917708,"lng":137.504412,"zip":"4411301"},{"town":"平井","koaza":"沖野","lat":34.904486,"lng":137.505019,"zip":"4411362"},{"town":"平井","koaza":"五楽","lat":34.907943,"lng":137.505215,"zip":"4411362"},{"town":"富岡","koaza":"宇利川","lat":34.855313,"lng":137.506515,"zip":"4411335"},{"town":"平井","koaza":"番場","lat":34.90984,"lng":137.50549,"zip":"4411362"},{"town":"矢部","koaza":"葉舞場","lat":34.92007,"lng":137.506008,"zip":"4411301"},{"town":"富岡","koaza":"西門沢","lat":34.851307,"lng":137.50755,"zip":"4411335"},{"town":"庭野","koaza":"大脇前","lat":34.884374,"lng":137.506961,"zip":"4411331"},{"town":"黒田","koaza":"坪","lat":34.870892,"lng":137.506213,"zip":"4411332"},{"town":"富岡","koaza":"半ノ木","lat":34.862107,"lng":137.507539,"zip":"4411335"},{"town":"庭野","koaza":"切場","lat":34.881579,"lng":137.507659,"zip":"4411331"},{"town":"矢部","koaza":"新慶蔵地","lat":34.918491,"lng":137.505356,"zip":"4411301"},{"town":"平井","koaza":"西原","lat":34.908123,"lng":137.506613,"zip":"4411362"},{"town":"富岡","koaza":"大屋敷","lat":34.858586,"lng":137.507005,"zip":"4411335"},{"town":"富岡","koaza":"田島","lat":34.85454,"lng":137.505886,"zip":"4411335"},{"town":"平井","koaza":"西長田","lat":34.910087,"lng":137.505945,"zip":"4411362"},{"town":"矢部","koaza":"ユツリハ","lat":34.921294,"lng":137.509982,"zip":"4411301"},{"town":"平井","koaza":"原","lat":34.905928,"lng":137.508577,"zip":"4411362"},{"town":"矢部","koaza":"本並","lat":34.919168,"lng":137.508326,"zip":"4411301"},{"town":"黒田","koaza":"大岡","lat":34.868769,"lng":137.510499,"zip":"4411332"},{"town":"庭野","koaza":"大脇屋敷","lat":34.883879,"lng":137.508718,"zip":"4411331"},{"town":"富岡","koaza":"杉畑","lat":34.862907,"lng":137.508398,"zip":"4411335"},{"town":"庭野","koaza":"西田","lat":34.894546,"lng":137.509393,"zip":"4411331"},{"town":"庭野","koaza":"池ノ谷下","lat":34.882051,"lng":137.509153,"zip":"4411331"},{"town":"矢部","koaza":"広見","lat":34.913948,"lng":137.509307,"zip":"4411301"},{"town":"富岡","koaza":"屋敷","lat":34.856648,"lng":137.507571,"zip":"4411335"},{"town":"富岡","koaza":"下川原","lat":34.853838,"lng":137.509834,"zip":"4411335"},{"town":"黒田","koaza":"半ノ木","lat":34.865715,"lng":137.509407,"zip":"4411332"},{"town":"平井","koaza":"東長田","lat":34.910569,"lng":137.508206,"zip":"4411362"},{"town":"平井","koaza":"ノナカ","lat":34.905133,"lng":137.50962,"zip":"4411362"},{"town":"平井","koaza":"東原","lat":34.907952,"lng":137.509572,"zip":"4411362"},{"town":"庭野","koaza":"薬師前","lat":34.885119,"lng":137.514208,"zip":"4411331"},{"town":"黒田","koaza":"伏田","lat":34.867022,"lng":137.509466,"zip":"4411332"},{"town":"平井","koaza":"野地","lat":34.909493,"lng":137.509613,"zip":"4411362"},{"town":"富永","koaza":"下田","lat":34.911661,"lng":137.509156,"zip":"4411302"},{"town":"庭野","koaza":"南山","lat":34.877578,"lng":137.512218,"zip":"4411331"},{"town":"矢部","koaza":"松下","lat":34.918187,"lng":137.509,"zip":"4411301"},{"town":"牛倉","koaza":"山洞","lat":34.92735,"lng":137.511461,"zip":"4411303"},{"town":"富岡","koaza":"半原田","lat":34.860982,"lng":137.510531,"zip":"4411335"},{"town":"庭野","koaza":"玉ノ木","lat":34.890159,"lng":137.517778,"zip":"4411331"},{"town":"庭野","koaza":"大脇","lat":34.883326,"lng":137.511714,"zip":"4411331"},{"town":"富岡","koaza":"大廻リ","lat":34.854564,"lng":137.511163,"zip":"4411335"},{"town":"牛倉","koaza":"石田","lat":34.932869,"lng":137.511193,"zip":"4411303"},{"town":"富永","koaza":"藪下","lat":34.914054,"lng":137.510432,"zip":"4411302"},{"town":"平井","koaza":"道目木","lat":34.90525,"lng":137.510882,"zip":"4411362"},{"town":"富永","koaza":"向夏目","lat":34.911953,"lng":137.510762,"zip":"4411302"},{"town":"富永","koaza":"広見","lat":34.912179,"lng":137.510584,"zip":"4411302"},{"town":"富永","koaza":"西田","lat":34.917466,"lng":137.510626,"zip":"4411302"},{"town":"黒田","koaza":"三ツ又","lat":34.872318,"lng":137.511328,"zip":"4411332"},{"town":"富永","koaza":"沢田","lat":34.912062,"lng":137.51171,"zip":"4411302"},{"town":"牛倉","koaza":"城山","lat":34.924746,"lng":137.512523,"zip":"4411303"},{"town":"富永","koaza":"中ヤシキ","lat":34.914414,"lng":137.511509,"zip":"4411302"},{"town":"富岡","koaza":"中屋敷","lat":34.856178,"lng":137.512459,"zip":"4411335"},{"town":"庭野","koaza":"大沢","lat":34.89472,"lng":137.515533,"zip":"4411331"},{"town":"富永","koaza":"今屋敷","lat":34.912414,"lng":137.512184,"zip":"4411302"},{"town":"庭野","koaza":"南田","lat":34.880344,"lng":137.514457,"zip":"4411331"},{"town":"富永","koaza":"東田","lat":34.916667,"lng":137.512326,"zip":"4411302"},{"town":"富岡","koaza":"東門沢","lat":34.85167,"lng":137.514038,"zip":"4411335"},{"town":"富永","koaza":"五反","lat":34.918186,"lng":137.512943,"zip":"4411302"},{"town":"牛倉","koaza":"寺領","lat":34.932851,"lng":137.512273,"zip":"4411303"},{"town":"黒田","koaza":"深坪","lat":34.866097,"lng":137.515001,"zip":"4411332"},{"town":"富岡","koaza":"井戸尻","lat":34.855781,"lng":137.513943,"zip":"4411335"},{"town":"牛倉","koaza":"南貝津","lat":34.931894,"lng":137.513688,"zip":"4411303"},{"town":"富永","koaza":"柿下","lat":34.922096,"lng":137.513362,"zip":"4411302"},{"town":"富永","koaza":"新栄","lat":34.911902,"lng":137.514277,"zip":"4411302"},{"town":"富永","koaza":"新知","lat":34.915021,"lng":137.514303,"zip":"4411302"},{"town":"牛倉","koaza":"黒口","lat":34.933992,"lng":137.515156,"zip":"4411303"},{"town":"黒田","koaza":"線香","lat":34.870422,"lng":137.514926,"zip":"4411332"},{"town":"富永","koaza":"梵知口","lat":34.915086,"lng":137.51336,"zip":"4411302"},{"town":"富永","koaza":"上野","lat":34.922957,"lng":137.514022,"zip":"4411302"},{"town":"富岡","koaza":"森","lat":34.857189,"lng":137.51489,"zip":"4411335"},{"town":"富岡","koaza":"赤岩","lat":34.861822,"lng":137.513933,"zip":"4411335"},{"town":"牛倉","koaza":"梛","lat":34.929369,"lng":137.514019,"zip":"4411303"},{"town":"日吉","koaza":"黒淵","lat":34.903023,"lng":137.519099,"zip":"4411322"},{"town":"富永","koaza":"富高利","lat":34.912393,"lng":137.514781,"zip":"4411302"},{"town":"富永","koaza":"四条","lat":34.910231,"lng":137.514174,"zip":"4411302"},{"town":"牛倉","koaza":"石井","lat":34.92806,"lng":137.514797,"zip":"4411303"},{"town":"富永","koaza":"新六田","lat":34.91761,"lng":137.514145,"zip":"4411302"},{"town":"黒田","koaza":"高縄手","lat":34.873671,"lng":137.518962,"zip":"4411332"},{"town":"富永","koaza":"安京","lat":34.922079,"lng":137.51484,"zip":"4411302"},{"town":"富岡","koaza":"笠神","lat":34.852539,"lng":137.514932,"zip":"4411335"},{"town":"富永","koaza":"神田","lat":34.917365,"lng":137.515676,"zip":"4411302"},{"town":"富永","koaza":"遠松","lat":34.920017,"lng":137.514759,"zip":"4411302"},{"town":"富永","koaza":"漆畑","lat":34.91161,"lng":137.515153,"zip":"4411302"},{"town":"富永","koaza":"郷中","lat":34.91274,"lng":137.516095,"zip":"4411302"},{"town":"黒田","koaza":"仁田","lat":34.867523,"lng":137.519493,"zip":"4411332"},{"town":"牛倉","koaza":"北下","lat":34.926006,"lng":137.516842,"zip":"4411303"},{"town":"富永","koaza":"青柳","lat":34.91524,"lng":137.515238,"zip":"4411302"},{"town":"富岡","koaza":"不動平","lat":34.853676,"lng":137.515908,"zip":"4411335"},{"town":"牛倉","koaza":"坂後","lat":34.928636,"lng":137.516319,"zip":"4411303"},{"town":"牛倉","koaza":"吉竹","lat":34.92653,"lng":137.516247,"zip":"4411303"},{"town":"黒田","koaza":"広見","lat":34.874701,"lng":137.520136,"zip":"4411332"},{"town":"大宮","koaza":"矢田","lat":34.930205,"lng":137.516856,"zip":"4411304"},{"town":"富永","koaza":"郷ノ内","lat":34.912278,"lng":137.516298,"zip":"4411302"},{"town":"富岡","koaza":"山ノ神","lat":34.852852,"lng":137.517128,"zip":"4411335"},{"town":"牛倉","koaza":"菅沼","lat":34.927326,"lng":137.51741,"zip":"4411303"},{"town":"富永","koaza":"松尾","lat":34.919508,"lng":137.516439,"zip":"4411302"},{"town":"富沢","koaza":"半田","lat":34.909499,"lng":137.516503,"zip":"4411307"},{"town":"大宮","koaza":"宝泉名","lat":34.928905,"lng":137.518489,"zip":"4411304"},{"town":"富岡","koaza":"宇利山","lat":34.851246,"lng":137.516106,"zip":"4411335"},{"town":"黒田","koaza":"頼実","lat":34.871895,"lng":137.517335,"zip":"4411332"},{"town":"日吉","koaza":"西山","lat":34.896844,"lng":137.517623,"zip":"4411322"},{"town":"富永","koaza":"高津","lat":34.91683,"lng":137.517292,"zip":"4411302"},{"town":"大宮","koaza":"市木","lat":34.92264,"lng":137.518739,"zip":"4411304"},{"town":"富永","koaza":"鎌屋敷","lat":34.911207,"lng":137.517402,"zip":"4411302"},{"town":"日吉","koaza":"下畑","lat":34.899439,"lng":137.521552,"zip":"4411322"},{"town":"富永","koaza":"原ノ内","lat":34.913814,"lng":137.517419,"zip":"4411302"},{"town":"富永","koaza":"地蔵堂","lat":34.912797,"lng":137.518026,"zip":"4411302"},{"town":"牛倉","koaza":"宮川","lat":34.924808,"lng":137.518775,"zip":"4411303"},{"town":"大宮","koaza":"高田","lat":34.920222,"lng":137.518828,"zip":"4411304"},{"town":"富岡","koaza":"凡","lat":34.858542,"lng":137.521063,"zip":"4411335"},{"town":"日吉","koaza":"前田","lat":34.898061,"lng":137.519395,"zip":"4411322"},{"town":"富岡","koaza":"三ケ沢","lat":34.856405,"lng":137.521412,"zip":"4411335"},{"town":"大宮","koaza":"正幹寺","lat":34.910373,"lng":137.518868,"zip":"4411304"},{"town":"富永","koaza":"イノキ田","lat":34.913818,"lng":137.518894,"zip":"4411302"},{"town":"大宮","koaza":"定石","lat":34.916558,"lng":137.518655,"zip":"4411304"},{"town":"富永","koaza":"定吉","lat":34.914288,"lng":137.518745,"zip":"4411302"},{"town":"川路","koaza":"小川路","lat":34.910604,"lng":137.520509,"zip":"4411306"},{"town":"富岡","koaza":"中村","lat":34.854766,"lng":137.523334,"zip":"4411335"},{"town":"川路","koaza":"市場","lat":34.908668,"lng":137.519052,"zip":"4411306"},{"town":"大宮","koaza":"楠木","lat":34.91812,"lng":137.518974,"zip":"4411304"},{"town":"富岡","koaza":"東屋敷","lat":34.854187,"lng":137.519589,"zip":"4411335"},{"town":"日吉","koaza":"山ノ田","lat":34.894505,"lng":137.520678,"zip":"4411322"},{"town":"日吉","koaza":"井戸向","lat":34.901678,"lng":137.519055,"zip":"4411322"},{"town":"大宮","koaza":"金山","lat":34.911902,"lng":137.519508,"zip":"4411304"},{"town":"須長","koaza":"稲場","lat":34.935217,"lng":137.524592,"zip":"4411311"},{"town":"大宮","koaza":"静貝津","lat":34.928336,"lng":137.52276,"zip":"4411304"},{"town":"富岡","koaza":"栃沢","lat":34.853433,"lng":137.52094,"zip":"4411335"},{"town":"川路","koaza":"広瀬","lat":34.90774,"lng":137.520829,"zip":"4411306"},{"town":"大宮","koaza":"大ノ木","lat":34.922685,"lng":137.519861,"zip":"4411304"},{"town":"富永","koaza":"亀淵","lat":34.914194,"lng":137.519332,"zip":"4411302"},{"town":"大宮","koaza":"井戸ノ本","lat":34.91358,"lng":137.521052,"zip":"4411304"},{"town":"大宮","koaza":"下馬場","lat":34.91522,"lng":137.520084,"zip":"4411304"},{"town":"大宮","koaza":"上馬場","lat":34.91688,"lng":137.520115,"zip":"4411304"},{"town":"大宮","koaza":"大道添南","lat":34.911278,"lng":137.520334,"zip":"4411304"},{"town":"大宮","koaza":"生国平","lat":34.919425,"lng":137.52017,"zip":"4411304"},{"town":"富岡","koaza":"洗出シ","lat":34.849266,"lng":137.520365,"zip":"4411335"},{"town":"日吉","koaza":"浜井場","lat":34.903155,"lng":137.521466,"zip":"4411322"},{"town":"黒田","koaza":"南田","lat":34.870172,"lng":137.520092,"zip":"4411332"},{"town":"大宮","koaza":"平田","lat":34.921237,"lng":137.520299,"zip":"4411304"},{"town":"黒田","koaza":"深田","lat":34.872922,"lng":137.520882,"zip":"4411332"},{"town":"大宮","koaza":"山伏塚","lat":34.912514,"lng":137.521068,"zip":"4411304"},{"town":"中宇利","koaza":"山田","lat":34.860609,"lng":137.523495,"zip":"4411334"},{"town":"黒田","koaza":"杉下","lat":34.872285,"lng":137.521318,"zip":"4411332"},{"town":"大宮","koaza":"宮ノ前","lat":34.924241,"lng":137.52142,"zip":"4411304"},{"town":"須長","koaza":"八幡","lat":34.932337,"lng":137.522261,"zip":"4411311"},{"town":"大宮","koaza":"南貝津","lat":34.920164,"lng":137.521567,"zip":"4411304"},{"town":"大宮","koaza":"清水","lat":34.922589,"lng":137.521317,"zip":"4411304"},{"town":"竹広","koaza":"宮川","lat":34.917322,"lng":137.521776,"zip":"4411305"},{"town":"富岡","koaza":"ツイジ","lat":34.85465,"lng":137.521745,"zip":"4411335"},{"town":"出沢","koaza":"牛馬屋","lat":34.946368,"lng":137.533032,"zip":"4411313"},{"town":"日吉","koaza":"荒井","lat":34.89765,"lng":137.521714,"zip":"4411322"},{"town":"出沢","koaza":"後口山","lat":34.955678,"lng":137.533312,"zip":"4411313"},{"town":"日吉","koaza":"小袋","lat":34.901915,"lng":137.523279,"zip":"4411322"},{"town":"日吉","koaza":"桶谷","lat":34.89959,"lng":137.52523,"zip":"4411322"},{"town":"川路","koaza":"端城","lat":34.907477,"lng":137.522888,"zip":"4411306"},{"town":"日吉","koaza":"前畑","lat":34.89839,"lng":137.523241,"zip":"4411322"},{"town":"日吉","koaza":"野畑","lat":34.903733,"lng":137.523975,"zip":"4411322"},{"town":"川路","koaza":"西之宮","lat":34.908908,"lng":137.523231,"zip":"4411306"},{"town":"日吉","koaza":"辻堂","lat":34.902739,"lng":137.524465,"zip":"4411322"},{"town":"川路","koaza":"天神","lat":34.90695,"lng":137.524158,"zip":"4411306"},{"town":"須長","koaza":"縄手","lat":34.930564,"lng":137.523297,"zip":"4411311"},{"town":"川路","koaza":"連吾","lat":34.911591,"lng":137.524026,"zip":"4411306"},{"town":"須長","koaza":"長田","lat":34.929647,"lng":137.523757,"zip":"4411311"},{"town":"須長","koaza":"道久保","lat":34.930583,"lng":137.524553,"zip":"4411311"},{"town":"中宇利","koaza":"曽根川南","lat":34.851571,"lng":137.528865,"zip":"4411334"},{"town":"川路","koaza":"舟附","lat":34.906462,"lng":137.524588,"zip":"4411306"},{"town":"中宇利","koaza":"高田","lat":34.861165,"lng":137.529688,"zip":"4411334"},{"town":"日吉","koaza":"宮ノ腰","lat":34.897841,"lng":137.526313,"zip":"4411322"},{"town":"須長","koaza":"山崎","lat":34.928644,"lng":137.525365,"zip":"4411311"},{"town":"川路","koaza":"藤波","lat":34.911533,"lng":137.525396,"zip":"4411306"},{"town":"川路","koaza":"宮ノ脇","lat":34.907554,"lng":137.525844,"zip":"4411306"},{"town":"川路","koaza":"御前","lat":34.910542,"lng":137.525563,"zip":"4411306"},{"town":"日吉","koaza":"上ノ風呂","lat":34.901438,"lng":137.526367,"zip":"4411322"},{"town":"浅谷","koaza":"芋久保","lat":34.936339,"lng":137.527813,"zip":"4411312"},{"town":"日吉","koaza":"伝水","lat":34.893488,"lng":137.531955,"zip":"4411322"},{"town":"須長","koaza":"辻脇","lat":34.925592,"lng":137.525781,"zip":"4411311"},{"town":"須長","koaza":"藤沢","lat":34.932167,"lng":137.526022,"zip":"4411311"},{"town":"須長","koaza":"丸山","lat":34.930069,"lng":137.525751,"zip":"4411311"},{"town":"浅谷","koaza":"坪ノ口","lat":34.938997,"lng":137.528553,"zip":"4411312"},{"town":"日吉","koaza":"中貝津","lat":34.904174,"lng":137.527556,"zip":"4411322"},{"town":"浅谷","koaza":"上ノ平","lat":34.942295,"lng":137.527834,"zip":"4411312"},{"town":"須長","koaza":"石岸","lat":34.92731,"lng":137.526029,"zip":"4411311"},{"town":"日吉","koaza":"国森","lat":34.903539,"lng":137.528072,"zip":"4411322"},{"town":"川路","koaza":"光正寺","lat":34.911385,"lng":137.527056,"zip":"4411306"},{"town":"須長","koaza":"坂ノ下","lat":34.930491,"lng":137.526797,"zip":"4411311"},{"town":"須長","koaza":"楠下","lat":34.93304,"lng":137.526852,"zip":"4411311"},{"town":"川路","koaza":"前野","lat":34.906639,"lng":137.527279,"zip":"4411306"},{"town":"川路","koaza":"寺ノ前","lat":34.908172,"lng":137.528332,"zip":"4411306"},{"town":"須長","koaza":"松葉","lat":34.930485,"lng":137.528757,"zip":"4411311"},{"town":"中宇利","koaza":"曽根川北","lat":34.855435,"lng":137.527531,"zip":"4411334"},{"town":"日吉","koaza":"馬渡","lat":34.901128,"lng":137.528561,"zip":"4411322"},{"town":"川路","koaza":"仲田","lat":34.907772,"lng":137.527284,"zip":"4411306"},{"town":"竹広","koaza":"信玄原","lat":34.918446,"lng":137.527421,"zip":"4411305"},{"town":"須長","koaza":"京早稲","lat":34.932415,"lng":137.527551,"zip":"4411311"},{"town":"吉川","koaza":"小黒田","lat":34.883508,"lng":137.533713,"zip":"4411323"},{"town":"八束穂","koaza":"柳田","lat":34.922271,"lng":137.527676,"zip":"4411318"},{"town":"川路","koaza":"夜燈","lat":34.914122,"lng":137.529625,"zip":"4411306"},{"town":"中宇利","koaza":"北川","lat":34.861492,"lng":137.532333,"zip":"4411334"},{"town":"須長","koaza":"天王","lat":34.926475,"lng":137.528448,"zip":"4411311"},{"town":"須長","koaza":"賀門","lat":34.934685,"lng":137.529055,"zip":"4411311"},{"town":"日吉","koaza":"熊ノ谷","lat":34.898208,"lng":137.530786,"zip":"4411322"},{"town":"出沢","koaza":"西沢","lat":34.94307,"lng":137.532767,"zip":"4411313"},{"town":"浅谷","koaza":"椿キ","lat":34.9417,"lng":137.529925,"zip":"4411312"},{"town":"日吉","koaza":"田戸","lat":34.905305,"lng":137.529107,"zip":"4411322"},{"town":"日吉","koaza":"坊字田","lat":34.90447,"lng":137.529614,"zip":"4411322"},{"town":"川路","koaza":"後藤貝津","lat":34.907616,"lng":137.528436,"zip":"4411306"},{"town":"日吉","koaza":"上ノ原","lat":34.901161,"lng":137.530795,"zip":"4411322"},{"town":"川路","koaza":"早滝","lat":34.90677,"lng":137.529285,"zip":"4411306"},{"town":"中宇利","koaza":"南川","lat":34.858852,"lng":137.529841,"zip":"4411334"},{"town":"須長","koaza":"杉ノ入","lat":34.925505,"lng":137.530037,"zip":"4411311"},{"town":"中宇利","koaza":"岡","lat":34.855748,"lng":137.531935,"zip":"4411334"},{"town":"出沢","koaza":"根岸谷下","lat":34.94672,"lng":137.531245,"zip":"4411313"},{"town":"中宇利","koaza":"向田","lat":34.857506,"lng":137.53168,"zip":"4411334"},{"town":"浅谷","koaza":"野添","lat":34.932418,"lng":137.531194,"zip":"4411312"},{"town":"日吉","koaza":"新井","lat":34.905523,"lng":137.531179,"zip":"4411322"},{"town":"川路","koaza":"加生沢","lat":34.912049,"lng":137.531153,"zip":"4411306"},{"town":"浅谷","koaza":"杉ノ本","lat":34.927657,"lng":137.532011,"zip":"4411312"},{"town":"川路","koaza":"萩平","lat":34.912649,"lng":137.535634,"zip":"4411306"},{"town":"出沢","koaza":"大荷場","lat":34.952015,"lng":137.533982,"zip":"4411313"},{"town":"浅谷","koaza":"久保田","lat":34.940507,"lng":137.530819,"zip":"4411312"},{"town":"浅谷","koaza":"朔日田","lat":34.940163,"lng":137.530572,"zip":"4411312"},{"town":"日吉","koaza":"原","lat":34.902713,"lng":137.533232,"zip":"4411322"},{"town":"吉川","koaza":"雲沢","lat":34.88001,"lng":137.544634,"zip":"4411323"},{"town":"中宇利","koaza":"御屋敷","lat":34.859966,"lng":137.532687,"zip":"4411334"},{"town":"日吉","koaza":"上田","lat":34.902081,"lng":137.532424,"zip":"4411322"},{"town":"浅谷","koaza":"ホウミツ","lat":34.935318,"lng":137.532146,"zip":"4411312"},{"town":"川路","koaza":"東郷","lat":34.910002,"lng":137.532282,"zip":"4411306"},{"town":"日吉","koaza":"広畑","lat":34.905298,"lng":137.533393,"zip":"4411322"},{"town":"中宇利","koaza":"市場","lat":34.860721,"lng":137.532778,"zip":"4411334"},{"town":"浅谷","koaza":"谷下新田","lat":34.939667,"lng":137.532374,"zip":"4411312"},{"town":"浅谷","koaza":"三反田","lat":34.937302,"lng":137.532617,"zip":"4411312"},{"town":"出沢","koaza":"的場田","lat":34.94115,"lng":137.537,"zip":"4411313"},{"town":"日吉","koaza":"大入","lat":34.899076,"lng":137.536984,"zip":"4411322"},{"town":"浅谷","koaza":"向畑","lat":34.93458,"lng":137.533535,"zip":"4411312"},{"town":"中宇利","koaza":"雁津","lat":34.857074,"lng":137.537349,"zip":"4411334"},{"town":"日吉","koaza":"百田","lat":34.895902,"lng":137.53645,"zip":"4411322"},{"town":"浅谷","koaza":"上ノ山","lat":34.935177,"lng":137.53439,"zip":"4411312"},{"town":"日吉","koaza":"宮坂","lat":34.90306,"lng":137.535965,"zip":"4411322"},{"town":"日吉","koaza":"清水","lat":34.908556,"lng":137.535899,"zip":"4411322"},{"town":"日吉","koaza":"上貝津","lat":34.906313,"lng":137.535759,"zip":"4411322"},{"town":"日吉","koaza":"小柳","lat":34.901618,"lng":137.539185,"zip":"4411322"},{"town":"中宇利","koaza":"坂","lat":34.861349,"lng":137.536191,"zip":"4411334"},{"town":"出沢","koaza":"八ノ平","lat":34.943776,"lng":137.53633,"zip":"4411313"},{"town":"出沢","koaza":"橋詰","lat":34.947222,"lng":137.544222,"zip":"4411313"},{"town":"日吉","koaza":"南貝津","lat":34.892435,"lng":137.53726,"zip":"4411322"},{"town":"浅谷","koaza":"ヒヨイタ","lat":34.936024,"lng":137.536789,"zip":"4411312"},{"town":"日吉","koaza":"大沢","lat":34.897591,"lng":137.535814,"zip":"4411322"},{"town":"八束穂","koaza":"野添","lat":34.920097,"lng":137.536256,"zip":"4411318"},{"town":"小畑","koaza":"対子","lat":34.867281,"lng":137.538962,"zip":"4411333"},{"town":"日吉","koaza":"青木林","lat":34.890996,"lng":137.540187,"zip":"4411322"},{"town":"中宇利","koaza":"馬場","lat":34.858379,"lng":137.53841,"zip":"4411334"},{"town":"中宇利","koaza":"御田前","lat":34.857783,"lng":137.538038,"zip":"4411334"},{"town":"有海","koaza":"飛塚","lat":34.917462,"lng":137.538601,"zip":"4411317"},{"town":"出沢","koaza":"中ケ谷","lat":34.942637,"lng":137.541854,"zip":"4411313"},{"town":"浅谷","koaza":"小道シ","lat":34.933871,"lng":137.539545,"zip":"4411312"},{"town":"出沢","koaza":"前畑","lat":34.94115,"lng":137.54669,"zip":"4411313"},{"town":"有海","koaza":"阿ら田","lat":34.914171,"lng":137.541386,"zip":"4411317"},{"town":"中宇利","koaza":"北馬場","lat":34.859148,"lng":137.539825,"zip":"4411334"},{"town":"吉川","koaza":"後貝津","lat":34.893932,"lng":137.539698,"zip":"4411323"},{"town":"大海","koaza":"市ノ沢","lat":34.927823,"lng":137.54484,"zip":"4411315"},{"town":"有海","koaza":"深沢","lat":34.912883,"lng":137.540584,"zip":"4411317"},{"town":"小畑","koaza":"新谷","lat":34.863419,"lng":137.540416,"zip":"4411333"},{"town":"横川","koaza":"追分","lat":34.959803,"lng":137.546075,"zip":"4411314"},{"town":"小畑","koaza":"大入","lat":34.864085,"lng":137.545668,"zip":"4411333"},{"town":"吉川","koaza":"菖蒲","lat":34.887172,"lng":137.54253,"zip":"4411323"},{"town":"有海","koaza":"市道","lat":34.915033,"lng":137.540703,"zip":"4411317"},{"town":"中宇利","koaza":"黒石","lat":34.859695,"lng":137.541076,"zip":"4411334"},{"town":"有海","koaza":"丸山","lat":34.918321,"lng":137.542546,"zip":"4411317"},{"town":"大海","koaza":"井原","lat":34.93174,"lng":137.542255,"zip":"4411315"},{"town":"吉川","koaza":"中野","lat":34.888708,"lng":137.541436,"zip":"4411323"},{"town":"小畑","koaza":"前父","lat":34.866044,"lng":137.541897,"zip":"4411333"},{"town":"吉川","koaza":"絵下ノ入","lat":34.890962,"lng":137.542497,"zip":"4411323"},{"town":"小畑","koaza":"宮ノ前","lat":34.865043,"lng":137.542007,"zip":"4411333"},{"town":"出沢","koaza":"銭亀","lat":34.940376,"lng":137.543768,"zip":"4411313"},{"town":"小畑","koaza":"権現","lat":34.866082,"lng":137.545702,"zip":"4411333"},{"town":"有海","koaza":"市ノ沢","lat":34.924964,"lng":137.544427,"zip":"4411317"},{"town":"有海","koaza":"高田","lat":34.920401,"lng":137.544125,"zip":"4411317"},{"town":"吉川","koaza":"壱町田","lat":34.888431,"lng":137.542638,"zip":"4411323"},{"town":"中宇利","koaza":"大幡","lat":34.862396,"lng":137.548113,"zip":"4411334"},{"town":"横川","koaza":"宮ノ前","lat":34.949573,"lng":137.545319,"zip":"4411314"},{"town":"有海","koaza":"鳥影","lat":34.922633,"lng":137.543993,"zip":"4411317"},{"town":"有海","koaza":"落合","lat":34.919291,"lng":137.54564,"zip":"4411317"},{"town":"大海","koaza":"中山","lat":34.926592,"lng":137.544483,"zip":"4411315"},{"town":"有海","koaza":"太郎田","lat":34.914394,"lng":137.54364,"zip":"4411317"},{"town":"吉川","koaza":"柿原","lat":34.887206,"lng":137.545223,"zip":"4411323"},{"town":"大海","koaza":"寺ノ前","lat":34.933858,"lng":137.547736,"zip":"4411315"},{"town":"大海","koaza":"南田","lat":34.930524,"lng":137.548205,"zip":"4411315"},{"town":"横川","koaza":"東ノ前","lat":34.95286,"lng":137.546807,"zip":"4411314"},{"town":"吉川","koaza":"前田","lat":34.880493,"lng":137.550819,"zip":"4411323"},{"town":"大海","koaza":"中貝津","lat":34.93203,"lng":137.548899,"zip":"4411315"},{"town":"吉川","koaza":"桂沢","lat":34.879272,"lng":137.544667,"zip":"4411323"},{"town":"横川","koaza":"久保貝津","lat":34.950443,"lng":137.545077,"zip":"4411314"},{"town":"横川","koaza":"広貝津","lat":34.950739,"lng":137.545784,"zip":"4411314"},{"town":"横川","koaza":"中貝津","lat":34.952233,"lng":137.546274,"zip":"4411314"},{"town":"吉川","koaza":"竹ノ下","lat":34.884831,"lng":137.547094,"zip":"4411323"},{"town":"有海","koaza":"長久保","lat":34.916461,"lng":137.546271,"zip":"4411317"},{"town":"小畑","koaza":"荒神ケ入","lat":34.868377,"lng":137.5457,"zip":"4411333"},{"town":"吉川","koaza":"中山","lat":34.884998,"lng":137.548166,"zip":"4411323"},{"town":"大海","koaza":"岩手","lat":34.937636,"lng":137.548493,"zip":"4411315"},{"town":"有海","koaza":"安長","lat":34.922549,"lng":137.547092,"zip":"4411317"},{"town":"横川","koaza":"倉木","lat":34.948537,"lng":137.549483,"zip":"4411314"},{"town":"日吉","koaza":"大坊","lat":34.909722,"lng":137.550628,"zip":"4411322"},{"town":"有海","koaza":"羽根","lat":34.916444,"lng":137.548174,"zip":"4411317"},{"town":"小畑","koaza":"奥谷","lat":34.86935,"lng":137.55055,"zip":"4411333"},{"town":"吉川","koaza":"上林","lat":34.883146,"lng":137.549218,"zip":"4411323"},{"town":"横川","koaza":"仲平","lat":34.94513,"lng":137.548368,"zip":"4411314"},{"town":"有海","koaza":"輪出","lat":34.91956,"lng":137.548506,"zip":"4411317"},{"town":"有海","koaza":"坂下","lat":34.924579,"lng":137.548032,"zip":"4411317"},{"town":"有海","koaza":"小呂道","lat":34.921587,"lng":137.548405,"zip":"4411317"},{"town":"有海","koaza":"萱刈","lat":34.914984,"lng":137.549727,"zip":"4411317"},{"town":"横川","koaza":"北沢","lat":34.94391,"lng":137.548748,"zip":"4411314"},{"town":"大海","koaza":"北田","lat":34.940239,"lng":137.548409,"zip":"4411315"},{"town":"有海","koaza":"上ノ山","lat":34.918386,"lng":137.549072,"zip":"4411317"},{"town":"横川","koaza":"坊貝津","lat":34.953344,"lng":137.550286,"zip":"4411314"},{"town":"横川","koaza":"長畑","lat":34.941972,"lng":137.549396,"zip":"4411314"},{"town":"市川","koaza":"西ノ谷","lat":34.910643,"lng":137.555866,"zip":"4411321"},{"town":"大海","koaza":"瀬戸貝津","lat":34.934059,"lng":137.550113,"zip":"4411315"},{"town":"横川","koaza":"入リ","lat":34.942241,"lng":137.551997,"zip":"4411314"},{"town":"有海","koaza":"瀬戸","lat":34.92374,"lng":137.550439,"zip":"4411317"},{"town":"横川","koaza":"神田","lat":34.94088,"lng":137.549558,"zip":"4411314"},{"town":"大海","koaza":"宮ノ前","lat":34.938101,"lng":137.549567,"zip":"4411315"},{"town":"有海","koaza":"並松","lat":34.922451,"lng":137.550809,"zip":"4411317"},{"town":"大海","koaza":"下林","lat":34.934953,"lng":137.551374,"zip":"4411315"},{"town":"有海","koaza":"洗林","lat":34.92107,"lng":137.551369,"zip":"4411317"},{"town":"有海","koaza":"住吉","lat":34.927566,"lng":137.551221,"zip":"4411317"},{"town":"有海","koaza":"朴沢","lat":34.918714,"lng":137.549922,"zip":"4411317"},{"town":"大海","koaza":"黒瀬","lat":34.931163,"lng":137.552109,"zip":"4411315"},{"town":"吉川","koaza":"漆原","lat":34.877079,"lng":137.553192,"zip":"4411323"},{"town":"吉川","koaza":"殿貝津","lat":34.884381,"lng":137.5509,"zip":"4411323"},{"town":"吉川","koaza":"津舞羅","lat":34.883566,"lng":137.552693,"zip":"4411323"},{"town":"有海","koaza":"タキ","lat":34.922631,"lng":137.551233,"zip":"4411317"},{"town":"有海","koaza":"作神","lat":34.925222,"lng":137.551059,"zip":"4411317"},{"town":"有海","koaza":"岩城","lat":34.921726,"lng":137.552966,"zip":"4411317"},{"town":"有海","koaza":"金神場","lat":34.917021,"lng":137.552115,"zip":"4411317"},{"town":"吉川","koaza":"小川路","lat":34.894755,"lng":137.554035,"zip":"4411323"},{"town":"有海","koaza":"稲場","lat":34.919726,"lng":137.552839,"zip":"4411317"},{"town":"中宇利","koaza":"福津","lat":34.859295,"lng":137.560334,"zip":"4411334"},{"town":"吉川","koaza":"新在家","lat":34.885218,"lng":137.553191,"zip":"4411323"},{"town":"横川","koaza":"広畑","lat":34.936353,"lng":137.553042,"zip":"4411314"},{"town":"有海","koaza":"島","lat":34.919527,"lng":137.552263,"zip":"4411317"},{"town":"横川","koaza":"宮貝津","lat":34.939066,"lng":137.553997,"zip":"4411314"},{"town":"長篠","koaza":"西野々","lat":34.925812,"lng":137.553896,"zip":"4411634"},{"town":"長篠","koaza":"古渡","lat":34.929203,"lng":137.554365,"zip":"4411634"},{"town":"吉川","koaza":"井田","lat":34.887482,"lng":137.553338,"zip":"4411323"},{"town":"吉川","koaza":"間渡","lat":34.883034,"lng":137.555348,"zip":"4411323"},{"town":"吉川","koaza":"新井田","lat":34.881355,"lng":137.556181,"zip":"4411323"},{"town":"有海","koaza":"下モ稲場","lat":34.916599,"lng":137.555098,"zip":"4411317"},{"town":"吉川","koaza":"寒欠","lat":34.888556,"lng":137.55772,"zip":"4411323"},{"town":"有海","koaza":"前田","lat":34.917061,"lng":137.554182,"zip":"4411317"},{"town":"市川","koaza":"山中","lat":34.904502,"lng":137.555818,"zip":"4411321"},{"town":"長篠","koaza":"殿関","lat":34.928363,"lng":137.55535,"zip":"4411634"},{"town":"有海","koaza":"篠原","lat":34.918877,"lng":137.555875,"zip":"4411317"},{"town":"長篠","koaza":"東野々","lat":34.926865,"lng":137.555445,"zip":"4411634"},{"town":"吉川","koaza":"広正","lat":34.882627,"lng":137.55772,"zip":"4411323"},{"town":"市川","koaza":"鍋山","lat":34.908005,"lng":137.556966,"zip":"4411321"},{"town":"乗本","koaza":"保木平","lat":34.914862,"lng":137.557497,"zip":"4411633"},{"town":"吉川","koaza":"峠下","lat":34.875462,"lng":137.558919,"zip":"4411323"},{"town":"乗本","koaza":"川添","lat":34.91788,"lng":137.558839,"zip":"4411633"},{"town":"吉川","koaza":"光田","lat":34.888916,"lng":137.5675,"zip":"4411323"},{"town":"市川","koaza":"向山","lat":34.906953,"lng":137.558415,"zip":"4411321"},{"town":"市川","koaza":"西ノ久保","lat":34.909257,"lng":137.559825,"zip":"4411321"},{"town":"吉川","koaza":"斧久保","lat":34.890063,"lng":137.559634,"zip":"4411323"},{"town":"乗本","koaza":"舟津","lat":34.921139,"lng":137.56117,"zip":"4411633"},{"town":"市川","koaza":"宮ノ前","lat":34.906608,"lng":137.561379,"zip":"4411321"},{"town":"吉川","koaza":"藤平","lat":34.881105,"lng":137.562242,"zip":"4411323"},{"town":"市川","koaza":"峯","lat":34.908374,"lng":137.562011,"zip":"4411321"},{"town":"乗本","koaza":"坊貝津","lat":34.919022,"lng":137.561273,"zip":"4411633"},{"town":"乗本","koaza":"中貝津","lat":34.921314,"lng":137.561747,"zip":"4411633"},{"town":"乗本","koaza":"新井貝津","lat":34.92175,"lng":137.561674,"zip":"4411633"},{"town":"市川","koaza":"平","lat":34.907957,"lng":137.563247,"zip":"4411321"},{"town":"吉川","koaza":"横手","lat":34.879657,"lng":137.567515,"zip":"4411323"},{"town":"市川","koaza":"宮ノ上","lat":34.906171,"lng":137.563587,"zip":"4411321"},{"town":"日吉","koaza":"樋田","lat":34.90833,"lng":137.539023,"zip":"4411322"},{"town":"日吉","koaza":"陣場","lat":34.908779,"lng":137.542732,"zip":"4411322"},{"town":"日吉","koaza":"柿ノ平","lat":34.91076,"lng":137.548671,"zip":"4411322"},{"town":"石田","koaza":"鹿原","lat":34.896383,"lng":137.494634,"zip":"4411342"}]