[{"town":"明知町","koaza":"","lat":35.315329,"lng":137.029871,"zip":"4800303"},{"town":"旭町一丁目","koaza":"","lat":35.232502,"lng":136.954811,"zip":"4860929"},{"town":"旭町二丁目","koaza":"","lat":35.235766,"lng":136.954193,"zip":"4860929"},{"town":"旭町三丁目","koaza":"","lat":35.23792,"lng":136.953815,"zip":"4860929"},{"town":"旭町四丁目","koaza":"","lat":35.240671,"lng":136.953084,"zip":"4860929"},{"town":"朝宮町一丁目","koaza":"","lat":35.251389,"lng":136.96043,"zip":"4860846"},{"town":"朝宮町二丁目","koaza":"","lat":35.249216,"lng":136.956721,"zip":"4860846"},{"town":"朝宮町三丁目","koaza":"","lat":35.252262,"lng":136.956186,"zip":"4860846"},{"town":"朝宮町四丁目","koaza":"","lat":35.255375,"lng":136.959878,"zip":"4860846"},{"town":"浅山町","koaza":"","lat":35.256604,"lng":136.980348,"zip":"4860857"},{"town":"浅山町一丁目","koaza":"","lat":35.253889,"lng":136.983888,"zip":"4860857"},{"town":"浅山町二丁目","koaza":"","lat":35.25524,"lng":136.981771,"zip":"4860857"},{"town":"浅山町三丁目","koaza":"","lat":35.258076,"lng":136.984166,"zip":"4860857"},{"town":"浅山町四丁目","koaza":"","lat":35.255589,"lng":136.984915,"zip":"4860857"},{"town":"味美上ノ町","koaza":"","lat":35.242251,"lng":136.933523,"zip":"4860965"},{"town":"味美町一丁目","koaza":"","lat":35.237805,"lng":136.9382,"zip":"4860968"},{"town":"味美町二丁目","koaza":"","lat":35.237598,"lng":136.940861,"zip":"4860968"},{"town":"味美町三丁目","koaza":"","lat":35.236684,"lng":136.944074,"zip":"4860968"},{"town":"味美西本町","koaza":"","lat":35.238256,"lng":136.935931,"zip":"4860967"},{"town":"味美白山町一丁目","koaza":"","lat":35.231322,"lng":136.935541,"zip":"4860969"},{"town":"味美白山町二丁目","koaza":"","lat":35.231822,"lng":136.932426,"zip":"4860969"},{"town":"穴橋町","koaza":"","lat":35.255103,"lng":136.992647,"zip":"4860853"},{"town":"穴橋町一丁目","koaza":"","lat":35.253758,"lng":136.99265,"zip":"4860853"},{"town":"穴橋町二丁目","koaza":"","lat":35.254903,"lng":136.995725,"zip":"4860853"},{"town":"穴橋町三丁目","koaza":"","lat":35.25358,"lng":136.997496,"zip":"4860853"},{"town":"石尾台一丁目","koaza":"","lat":35.288038,"lng":137.05762,"zip":"4870006"},{"town":"石尾台二丁目","koaza":"","lat":35.2906,"lng":137.057488,"zip":"4870006"},{"town":"石尾台三丁目","koaza":"","lat":35.293126,"lng":137.061291,"zip":"4870006"},{"town":"石尾台四丁目","koaza":"","lat":35.294412,"lng":137.063979,"zip":"4870006"},{"town":"石尾台五丁目","koaza":"","lat":35.291243,"lng":137.062241,"zip":"4870006"},{"town":"石尾台六丁目","koaza":"","lat":35.287868,"lng":137.062633,"zip":"4870006"},{"town":"稲口町","koaza":"","lat":35.243908,"lng":136.939561,"zip":"4860905"},{"town":"稲口町一丁目","koaza":"","lat":35.244134,"lng":136.941665,"zip":"4860905"},{"town":"稲口町二丁目","koaza":"","lat":35.243621,"lng":136.945897,"zip":"4860905"},{"town":"稲口町三丁目","koaza":"","lat":35.240139,"lng":136.948897,"zip":"4860905"},{"town":"稲口町四丁目","koaza":"","lat":35.243685,"lng":136.951207,"zip":"4860905"},{"town":"杁ケ島町","koaza":"","lat":35.236152,"lng":136.969135,"zip":"4860921"},{"town":"岩成台十丁目","koaza":"","lat":35.277873,"lng":137.035018,"zip":"4870033"},{"town":"岩成台一丁目","koaza":"","lat":35.272147,"lng":137.040448,"zip":"4870033"},{"town":"岩成台二丁目","koaza":"","lat":35.273712,"lng":137.041304,"zip":"4870033"},{"town":"岩成台三丁目","koaza":"","lat":35.274047,"lng":137.038477,"zip":"4870033"},{"town":"岩成台四丁目","koaza":"","lat":35.276928,"lng":137.04052,"zip":"4870033"},{"town":"岩成台五丁目","koaza":"","lat":35.276011,"lng":137.041802,"zip":"4870033"},{"town":"岩成台六丁目","koaza":"","lat":35.277794,"lng":137.046696,"zip":"4870033"},{"town":"岩成台七丁目","koaza":"","lat":35.27885,"lng":137.043891,"zip":"4870033"},{"town":"岩成台八丁目","koaza":"","lat":35.279516,"lng":137.040046,"zip":"4870033"},{"town":"岩成台九丁目","koaza":"","lat":35.280993,"lng":137.037527,"zip":"4870033"},{"town":"岩野町","koaza":"","lat":35.26871,"lng":136.960596,"zip":"4860805"},{"town":"岩野町一丁目","koaza":"","lat":35.267626,"lng":136.959103,"zip":"4860805"},{"town":"岩野町二丁目","koaza":"","lat":35.265039,"lng":136.961427,"zip":"4860805"},{"town":"上野町","koaza":"","lat":35.282199,"lng":137.018307,"zip":"4800306"},{"town":"上野町三丁目","koaza":"","lat":35.281266,"lng":137.02288,"zip":"4800306"},{"town":"上野町二丁目","koaza":"","lat":35.27972,"lng":137.021754,"zip":"4800306"},{"town":"上野町一丁目","koaza":"","lat":35.278166,"lng":137.020907,"zip":"4800306"},{"town":"牛山町","koaza":"","lat":35.269559,"lng":136.935758,"zip":"4860901"},{"town":"内津町","koaza":"","lat":35.328675,"lng":137.064154,"zip":"4800301"},{"town":"梅ケ坪町","koaza":"","lat":35.254209,"lng":136.979351,"zip":"4860856"},{"town":"王子町","koaza":"","lat":35.234533,"lng":136.974579,"zip":"4860834"},{"town":"大手田酉町一丁目","koaza":"","lat":35.25954,"lng":136.957566,"zip":"4860806"},{"town":"大手田酉町二丁目","koaza":"","lat":35.260894,"lng":136.960189,"zip":"4860806"},{"town":"大手田酉町三丁目","koaza":"","lat":35.262318,"lng":136.963104,"zip":"4860806"},{"town":"大手町","koaza":"","lat":35.26646,"lng":136.949217,"zip":"4860807"},{"town":"大手町一丁目","koaza":"","lat":35.266856,"lng":136.956744,"zip":"4860807"},{"town":"大手町二丁目","koaza":"","lat":35.267025,"lng":136.955251,"zip":"4860807"},{"town":"大手町三丁目","koaza":"","lat":35.263374,"lng":136.957264,"zip":"4860807"},{"town":"大手町四丁目","koaza":"","lat":35.264572,"lng":136.953798,"zip":"4860807"},{"town":"大留町","koaza":"","lat":35.258799,"lng":137.028344,"zip":"4870024"},{"town":"大留町一丁目","koaza":"","lat":35.254869,"lng":137.016151,"zip":"4870024"},{"town":"大留町二丁目","koaza":"","lat":35.258711,"lng":137.016886,"zip":"4870024"},{"town":"大留町三丁目","koaza":"","lat":35.260075,"lng":137.020541,"zip":"4870024"},{"town":"大留町四丁目","koaza":"","lat":35.257603,"lng":137.020711,"zip":"4870024"},{"town":"大留町五丁目","koaza":"","lat":35.254822,"lng":137.021281,"zip":"4870024"},{"town":"大留町六丁目","koaza":"","lat":35.257245,"lng":137.025074,"zip":"4870024"},{"town":"大留町七丁目","koaza":"","lat":35.259272,"lng":137.02418,"zip":"4870024"},{"town":"大留町八丁目","koaza":"","lat":35.261266,"lng":137.022643,"zip":"4870024"},{"town":"大留町九丁目","koaza":"","lat":35.261259,"lng":137.026128,"zip":"4870024"},{"town":"小木田町","koaza":"","lat":35.246205,"lng":136.990519,"zip":"4860827"},{"town":"押沢台一丁目","koaza":"","lat":35.285033,"lng":137.062492,"zip":"4870005"},{"town":"押沢台二丁目","koaza":"","lat":35.284876,"lng":137.065872,"zip":"4870005"},{"town":"押沢台三丁目","koaza":"","lat":35.282505,"lng":137.067802,"zip":"4870005"},{"town":"押沢台四丁目","koaza":"","lat":35.277883,"lng":137.065184,"zip":"4870005"},{"town":"押沢台五丁目","koaza":"","lat":35.279452,"lng":137.064435,"zip":"4870005"},{"town":"押沢台六丁目","koaza":"","lat":35.281885,"lng":137.06501,"zip":"4870005"},{"town":"押沢台七丁目","koaza":"","lat":35.282154,"lng":137.06209,"zip":"4870005"},{"town":"乙輪町一丁目","koaza":"","lat":35.245264,"lng":136.982009,"zip":"4860832"},{"town":"乙輪町二丁目","koaza":"","lat":35.246536,"lng":136.98144,"zip":"4860832"},{"town":"乙輪町三丁目","koaza":"","lat":35.247487,"lng":136.980464,"zip":"4860832"},{"town":"小野町一丁目","koaza":"","lat":35.225914,"lng":136.961846,"zip":"4860926"},{"town":"小野町二丁目","koaza":"","lat":35.228107,"lng":136.961207,"zip":"4860926"},{"town":"小野町三丁目","koaza":"","lat":35.2312,"lng":136.963676,"zip":"4860926"},{"town":"小野町四丁目","koaza":"","lat":35.23038,"lng":136.966451,"zip":"4860926"},{"town":"小野町五丁目","koaza":"","lat":35.227825,"lng":136.96615,"zip":"4860926"},{"town":"小野町六丁目","koaza":"","lat":35.225913,"lng":136.966456,"zip":"4860926"},{"town":"神屋町","koaza":"","lat":35.302975,"lng":137.027573,"zip":"4800304"},{"town":"柏原町一丁目","koaza":"","lat":35.243612,"lng":136.956682,"zip":"4860913"},{"town":"柏原町二丁目","koaza":"","lat":35.243102,"lng":136.959088,"zip":"4860913"},{"town":"柏原町三丁目","koaza":"","lat":35.246477,"lng":136.959893,"zip":"4860913"},{"town":"柏原町四丁目","koaza":"","lat":35.247487,"lng":136.962435,"zip":"4860913"},{"town":"柏原町五丁目","koaza":"","lat":35.249132,"lng":136.96533,"zip":"4860913"},{"town":"柏井町一丁目","koaza":"","lat":35.232635,"lng":136.957664,"zip":"4860927"},{"town":"柏井町二丁目","koaza":"","lat":35.23473,"lng":136.959343,"zip":"4860927"},{"town":"柏井町三丁目","koaza":"","lat":35.235619,"lng":136.9613,"zip":"4860927"},{"town":"柏井町四丁目","koaza":"","lat":35.236863,"lng":136.963175,"zip":"4860927"},{"town":"柏井町五丁目","koaza":"","lat":35.238657,"lng":136.964311,"zip":"4860927"},{"town":"柏井町六丁目","koaza":"","lat":35.232761,"lng":136.963006,"zip":"4860927"},{"town":"柏井町七丁目","koaza":"","lat":35.234399,"lng":136.96594,"zip":"4860927"},{"town":"春日井上ノ町","koaza":"","lat":35.2548,"lng":136.931805,"zip":"4860961"},{"town":"春日井町","koaza":"","lat":35.248514,"lng":136.933419,"zip":"4860963"},{"town":"勝川新町一丁目","koaza":"","lat":35.233,"lng":136.94775,"zip":"4860941"},{"town":"勝川新町二丁目","koaza":"","lat":35.235448,"lng":136.948888,"zip":"4860941"},{"town":"勝川新町三丁目","koaza":"","lat":35.237267,"lng":136.947535,"zip":"4860941"},{"town":"勝川町十丁目","koaza":"","lat":35.224379,"lng":136.952644,"zip":"4860945"},{"town":"勝川町一丁目","koaza":"","lat":35.218753,"lng":136.947317,"zip":"4860945"},{"town":"勝川町二丁目","koaza":"","lat":35.222583,"lng":136.949418,"zip":"4860945"},{"town":"勝川町三丁目","koaza":"","lat":35.224398,"lng":136.949392,"zip":"4860945"},{"town":"勝川町四丁目","koaza":"","lat":35.226358,"lng":136.949154,"zip":"4860945"},{"town":"勝川町五丁目","koaza":"","lat":35.227624,"lng":136.950237,"zip":"4860945"},{"town":"勝川町六丁目","koaza":"","lat":35.228967,"lng":136.953655,"zip":"4860945"},{"town":"勝川町七丁目","koaza":"","lat":35.230943,"lng":136.955358,"zip":"4860945"},{"town":"勝川町八丁目","koaza":"","lat":35.22809,"lng":136.955285,"zip":"4860945"},{"town":"勝川町九丁目","koaza":"","lat":35.22645,"lng":136.953694,"zip":"4860945"},{"town":"勝川町西一丁目","koaza":"","lat":35.222491,"lng":136.944167,"zip":"4860946"},{"town":"勝川町西二丁目","koaza":"","lat":35.222754,"lng":136.945878,"zip":"4860946"},{"town":"勝川町西三丁目","koaza":"","lat":35.223991,"lng":136.945519,"zip":"4860946"},{"town":"勝川町西四丁目","koaza":"","lat":35.22642,"lng":136.94509,"zip":"4860946"},{"town":"金ケ口町","koaza":"","lat":35.264599,"lng":137.004902,"zip":"4860813"},{"town":"上田楽町","koaza":"","lat":35.281175,"lng":136.950335,"zip":"4860801"},{"town":"上ノ町一丁目","koaza":"","lat":35.239718,"lng":136.932195,"zip":"4860966"},{"town":"菅大臣町","koaza":"","lat":35.252342,"lng":136.988619,"zip":"4860858"},{"town":"北城町一丁目","koaza":"","lat":35.260959,"lng":137.00808,"zip":"4860814"},{"town":"北城町二丁目","koaza":"","lat":35.262125,"lng":137.005724,"zip":"4860814"},{"town":"北城町三丁目","koaza":"","lat":35.263401,"lng":137.00509,"zip":"4860814"},{"town":"北城町四丁目","koaza":"","lat":35.263722,"lng":137.009075,"zip":"4860814"},{"town":"木附町","koaza":"","lat":35.281376,"lng":137.074262,"zip":"4870003"},{"town":"気噴町","koaza":"","lat":35.259364,"lng":137.032898,"zip":"4870014"},{"town":"気噴町一丁目","koaza":"","lat":35.260755,"lng":137.029898,"zip":"4870014"},{"town":"気噴町二丁目","koaza":"","lat":35.262714,"lng":137.029392,"zip":"4870014"},{"town":"気噴町三丁目","koaza":"","lat":35.265712,"lng":137.027543,"zip":"4870014"},{"town":"気噴町四丁目","koaza":"","lat":35.263207,"lng":137.033924,"zip":"4870014"},{"town":"気噴町五丁目","koaza":"","lat":35.261268,"lng":137.033772,"zip":"4870014"},{"town":"気噴町六丁目","koaza":"","lat":35.260748,"lng":137.036231,"zip":"4870014"},{"town":"気噴町北一丁目","koaza":"","lat":35.267564,"lng":137.028813,"zip":"4870015"},{"town":"気噴町北二丁目","koaza":"","lat":35.266562,"lng":137.032304,"zip":"4870015"},{"town":"貴船町","koaza":"","lat":35.247197,"lng":136.985394,"zip":"4860826"},{"town":"熊野町","koaza":"","lat":35.246524,"lng":137.000846,"zip":"4860822"},{"town":"熊野町北一丁目","koaza":"","lat":35.250729,"lng":136.996411,"zip":"4860820"},{"town":"黒鉾町","koaza":"","lat":35.25473,"lng":136.936756,"zip":"4860907"},{"town":"下条町","koaza":"","lat":35.228535,"lng":136.977058,"zip":"4860923"},{"town":"下条町一丁目","koaza":"","lat":35.230506,"lng":136.970064,"zip":"4860923"},{"town":"下条町二丁目","koaza":"","lat":35.228147,"lng":136.970357,"zip":"4860923"},{"town":"下条町三丁目","koaza":"","lat":35.228389,"lng":136.973707,"zip":"4860923"},{"town":"高蔵寺町一丁目","koaza":"","lat":35.262912,"lng":137.036535,"zip":"4870013"},{"town":"高蔵寺町二丁目","koaza":"","lat":35.261063,"lng":137.039609,"zip":"4870013"},{"town":"高蔵寺町三丁目","koaza":"","lat":35.261307,"lng":137.042225,"zip":"4870013"},{"town":"高蔵寺町四丁目","koaza":"","lat":35.261559,"lng":137.044363,"zip":"4870013"},{"town":"高蔵寺町五丁目","koaza":"","lat":35.261777,"lng":137.047228,"zip":"4870013"},{"town":"高蔵寺町六丁目","koaza":"","lat":35.262136,"lng":137.048837,"zip":"4870013"},{"town":"高蔵寺町七丁目","koaza":"","lat":35.262498,"lng":137.051412,"zip":"4870013"},{"town":"高蔵寺町八丁目","koaza":"","lat":35.265159,"lng":137.054499,"zip":"4870013"},{"town":"高蔵寺町北一丁目","koaza":"","lat":35.266369,"lng":137.03584,"zip":"4870016"},{"town":"高蔵寺町北二丁目","koaza":"","lat":35.265936,"lng":137.039362,"zip":"4870016"},{"town":"高蔵寺町北三丁目","koaza":"","lat":35.265836,"lng":137.042815,"zip":"4870016"},{"town":"高蔵寺町北四丁目","koaza":"","lat":35.266096,"lng":137.045346,"zip":"4870016"},{"town":"高蔵寺町北五丁目","koaza":"","lat":35.265111,"lng":137.050809,"zip":"4870016"},{"town":"ことぶき町","koaza":"","lat":35.252099,"lng":136.978032,"zip":"4860831"},{"town":"西尾町","koaza":"","lat":35.324277,"lng":137.044215,"zip":"4800302"},{"town":"坂下町一丁目","koaza":"","lat":35.284067,"lng":137.023471,"zip":"4800305"},{"town":"坂下町二丁目","koaza":"","lat":35.287167,"lng":137.021679,"zip":"4800305"},{"town":"坂下町三丁目","koaza":"","lat":35.289166,"lng":137.021611,"zip":"4800305"},{"town":"坂下町四丁目","koaza":"","lat":35.291469,"lng":137.021727,"zip":"4800305"},{"town":"坂下町五丁目","koaza":"","lat":35.287698,"lng":137.027659,"zip":"4800305"},{"town":"坂下町六丁目","koaza":"","lat":35.287379,"lng":137.014624,"zip":"4800305"},{"town":"坂下町七丁目","koaza":"","lat":35.292224,"lng":137.015544,"zip":"4800305"},{"town":"桜佐町","koaza":"","lat":35.2423,"lng":136.994097,"zip":"4860823"},{"town":"篠木町一丁目","koaza":"","lat":35.251128,"lng":136.981679,"zip":"4860851"},{"town":"篠木町二丁目","koaza":"","lat":35.251933,"lng":136.983412,"zip":"4860851"},{"town":"篠木町三丁目","koaza":"","lat":35.252326,"lng":136.985636,"zip":"4860851"},{"town":"篠木町四丁目","koaza":"","lat":35.253494,"lng":136.98688,"zip":"4860851"},{"town":"篠木町五丁目","koaza":"","lat":35.255893,"lng":136.987852,"zip":"4860851"},{"town":"篠木町六丁目","koaza":"","lat":35.256813,"lng":136.990867,"zip":"4860851"},{"town":"篠木町七丁目","koaza":"","lat":35.259489,"lng":136.993048,"zip":"4860851"},{"town":"篠木町八丁目","koaza":"","lat":35.261182,"lng":136.996604,"zip":"4860851"},{"town":"篠田町","koaza":"","lat":35.232592,"lng":136.965773,"zip":"4860922"},{"town":"下市場町","koaza":"","lat":35.26139,"lng":137.010051,"zip":"4860852"},{"town":"下市場町一丁目","koaza":"","lat":35.255582,"lng":137.000057,"zip":"4860852"},{"town":"下市場町二丁目","koaza":"","lat":35.258748,"lng":137.000213,"zip":"4860852"},{"town":"下市場町三丁目","koaza":"","lat":35.258298,"lng":136.998145,"zip":"4860852"},{"town":"下市場町四丁目","koaza":"","lat":35.26098,"lng":137.002443,"zip":"4860852"},{"town":"下市場町五丁目","koaza":"","lat":35.258315,"lng":137.002747,"zip":"4860852"},{"town":"下市場町六丁目","koaza":"","lat":35.258903,"lng":137.006678,"zip":"4860852"},{"town":"下津町","koaza":"","lat":35.227191,"lng":136.983631,"zip":"4860924"},{"town":"下原町","koaza":"","lat":35.273819,"lng":136.984424,"zip":"4860819"},{"town":"下屋敷町","koaza":"","lat":35.24697,"lng":136.937756,"zip":"4860906"},{"town":"下屋敷町一丁目","koaza":"","lat":35.244367,"lng":136.939794,"zip":"4860906"},{"town":"下屋敷町二丁目","koaza":"","lat":35.245847,"lng":136.938724,"zip":"4860906"},{"town":"十三塚町","koaza":"","lat":35.26627,"lng":136.996635,"zip":"4860815"},{"town":"上条町十丁目","koaza":"","lat":35.23062,"lng":136.984899,"zip":"4860833"},{"town":"上条町一丁目","koaza":"","lat":35.243069,"lng":136.982188,"zip":"4860833"},{"town":"上条町二丁目","koaza":"","lat":35.240761,"lng":136.983782,"zip":"4860833"},{"town":"上条町三丁目","koaza":"","lat":35.241753,"lng":136.988056,"zip":"4860833"},{"town":"上条町四丁目","koaza":"","lat":35.238225,"lng":136.98384,"zip":"4860833"},{"town":"上条町五丁目","koaza":"","lat":35.238545,"lng":136.988106,"zip":"4860833"},{"town":"上条町六丁目","koaza":"","lat":35.235994,"lng":136.983883,"zip":"4860833"},{"town":"上条町七丁目","koaza":"","lat":35.234797,"lng":136.987954,"zip":"4860833"},{"town":"上条町八丁目","koaza":"","lat":35.233317,"lng":136.982415,"zip":"4860833"},{"town":"上条町九丁目","koaza":"","lat":35.230773,"lng":136.988434,"zip":"4860833"},{"town":"白山町一丁目","koaza":"","lat":35.269932,"lng":137.039004,"zip":"4870034"},{"town":"白山町二丁目","koaza":"","lat":35.269771,"lng":137.035945,"zip":"4870034"},{"town":"白山町三丁目","koaza":"","lat":35.26982,"lng":137.032546,"zip":"4870034"},{"town":"白山町四丁目","koaza":"","lat":35.270151,"lng":137.029056,"zip":"4870034"},{"town":"白山町六丁目","koaza":"","lat":35.272551,"lng":137.033587,"zip":"4870034"},{"town":"白山町七丁目","koaza":"","lat":35.274467,"lng":137.035885,"zip":"4870034"},{"town":"白山町八丁目","koaza":"","lat":35.274939,"lng":137.032421,"zip":"4870034"},{"town":"白山町九丁目","koaza":"","lat":35.276891,"lng":137.030804,"zip":"4870034"},{"town":"新開町","koaza":"","lat":35.267732,"lng":136.942916,"zip":"4860902"},{"town":"神明町","koaza":"","lat":35.234862,"lng":136.951892,"zip":"4860942"},{"town":"神領町","koaza":"","lat":35.24786,"lng":137.010197,"zip":"4860821"},{"town":"神領町一丁目","koaza":"","lat":35.248804,"lng":137.008445,"zip":"4860821"},{"town":"神領町二丁目","koaza":"","lat":35.254312,"lng":137.011132,"zip":"4860821"},{"town":"神領町三丁目","koaza":"","lat":35.256568,"lng":137.013352,"zip":"4860821"},{"town":"神領町北一丁目","koaza":"","lat":35.260521,"lng":137.011464,"zip":"4860830"},{"town":"神領町北二丁目","koaza":"","lat":35.260104,"lng":137.013019,"zip":"4860830"},{"town":"関田町一丁目","koaza":"","lat":35.249604,"lng":136.98396,"zip":"4860855"},{"town":"関田町二丁目","koaza":"","lat":35.249848,"lng":136.986561,"zip":"4860855"},{"town":"関田町三丁目","koaza":"","lat":35.250168,"lng":136.989061,"zip":"4860855"},{"town":"惣中町一丁目","koaza":"","lat":35.228581,"lng":136.946778,"zip":"4860949"},{"town":"惣中町二丁目","koaza":"","lat":35.229912,"lng":136.94745,"zip":"4860949"},{"town":"惣中町三丁目","koaza":"","lat":35.231284,"lng":136.947224,"zip":"4860949"},{"town":"宗法町","koaza":"","lat":35.244836,"lng":136.933162,"zip":"4860964"},{"town":"大泉寺町","koaza":"","lat":35.273358,"lng":137.00345,"zip":"4860812"},{"town":"鷹来町","koaza":"","lat":35.272864,"lng":136.964665,"zip":"4860804"},{"town":"鷹来町一丁目","koaza":"","lat":35.272201,"lng":136.969742,"zip":"4860804"},{"town":"高座台一丁目","koaza":"","lat":35.268449,"lng":137.040648,"zip":"4870017"},{"town":"高座台二丁目","koaza":"","lat":35.270106,"lng":137.04273,"zip":"4870017"},{"town":"高座台三丁目","koaza":"","lat":35.269269,"lng":137.044517,"zip":"4870017"},{"town":"高座台四丁目","koaza":"","lat":35.272506,"lng":137.04444,"zip":"4870017"},{"town":"高座台五丁目","koaza":"","lat":35.275025,"lng":137.047055,"zip":"4870017"},{"town":"高座町","koaza":"","lat":35.272454,"lng":137.054684,"zip":"4870012"},{"town":"高森台十丁目","koaza":"","lat":35.289741,"lng":137.048355,"zip":"4870032"},{"town":"高森台一丁目","koaza":"","lat":35.289079,"lng":137.045465,"zip":"4870032"},{"town":"高森台二丁目","koaza":"","lat":35.289943,"lng":137.040225,"zip":"4870032"},{"town":"高森台三丁目","koaza":"","lat":35.292033,"lng":137.042653,"zip":"4870032"},{"town":"高森台四丁目","koaza":"","lat":35.294661,"lng":137.046893,"zip":"4870032"},{"town":"高森台五丁目","koaza":"","lat":35.296614,"lng":137.053322,"zip":"4870032"},{"town":"高森台六丁目","koaza":"","lat":35.297092,"lng":137.059783,"zip":"4870032"},{"town":"高森台七丁目","koaza":"","lat":35.294094,"lng":137.058393,"zip":"4870032"},{"town":"高森台八丁目","koaza":"","lat":35.292607,"lng":137.052028,"zip":"4870032"},{"town":"高森台九丁目","koaza":"","lat":35.289607,"lng":137.053927,"zip":"4870032"},{"town":"高山町一丁目","koaza":"","lat":35.252089,"lng":136.951619,"zip":"4860912"},{"town":"高山町二丁目","koaza":"","lat":35.255226,"lng":136.954845,"zip":"4860912"},{"town":"高山町三丁目","koaza":"","lat":35.257578,"lng":136.954365,"zip":"4860912"},{"town":"玉野台一丁目","koaza":"","lat":35.270762,"lng":137.068608,"zip":"4870007"},{"town":"玉野台二丁目","koaza":"","lat":35.273538,"lng":137.070695,"zip":"4870007"},{"town":"玉野台三丁目","koaza":"","lat":35.272292,"lng":137.074943,"zip":"4870007"},{"town":"玉野町","koaza":"","lat":35.275318,"lng":137.075253,"zip":"4870004"},{"town":"田楽町","koaza":"","lat":35.274312,"lng":136.950908,"zip":"4860808"},{"town":"知多町一丁目","koaza":"","lat":35.22932,"lng":136.94313,"zip":"4860947"},{"town":"知多町二丁目","koaza":"","lat":35.231156,"lng":136.943621,"zip":"4860947"},{"town":"知多町三丁目","koaza":"","lat":35.23303,"lng":136.94417,"zip":"4860947"},{"town":"知多町四丁目","koaza":"","lat":35.235593,"lng":136.945748,"zip":"4860947"},{"town":"中央台一丁目","koaza":"","lat":35.279737,"lng":137.048965,"zip":"4870011"},{"town":"中央台二丁目","koaza":"","lat":35.284806,"lng":137.048391,"zip":"4870011"},{"town":"中央台三丁目","koaza":"","lat":35.283462,"lng":137.050312,"zip":"4870011"},{"town":"中央台四丁目","koaza":"","lat":35.286249,"lng":137.050504,"zip":"4870011"},{"town":"中央台五丁目","koaza":"","lat":35.286357,"lng":137.052076,"zip":"4870011"},{"town":"中央台六丁目","koaza":"","lat":35.286569,"lng":137.053961,"zip":"4870011"},{"town":"中央台七丁目","koaza":"","lat":35.285336,"lng":137.057689,"zip":"4870011"},{"town":"中央台八丁目","koaza":"","lat":35.283044,"lng":137.05297,"zip":"4870011"},{"town":"中央通一丁目","koaza":"","lat":35.245045,"lng":136.984159,"zip":"4860825"},{"town":"中央通二丁目","koaza":"","lat":35.248639,"lng":136.982234,"zip":"4860825"},{"town":"町田町一丁目","koaza":"","lat":35.225998,"lng":136.955665,"zip":"4860936"},{"town":"町田町二丁目","koaza":"","lat":35.226437,"lng":136.957999,"zip":"4860936"},{"town":"追進町一丁目","koaza":"","lat":35.223611,"lng":136.942521,"zip":"4860952"},{"town":"追進町二丁目","koaza":"","lat":35.225026,"lng":136.941995,"zip":"4860952"},{"town":"追進町三丁目","koaza":"","lat":35.227311,"lng":136.942118,"zip":"4860952"},{"town":"月見町","koaza":"","lat":35.241256,"lng":136.974216,"zip":"4860835"},{"town":"角崎町","koaza":"","lat":35.231221,"lng":136.952946,"zip":"4860943"},{"town":"出川町","koaza":"","lat":35.265009,"lng":137.012205,"zip":"4870025"},{"town":"出川町一丁目","koaza":"","lat":35.267632,"lng":137.016121,"zip":"4870025"},{"town":"出川町二丁目","koaza":"","lat":35.268537,"lng":137.022005,"zip":"4870025"},{"town":"出川町三丁目","koaza":"","lat":35.266495,"lng":137.024739,"zip":"4870025"},{"town":"出川町四丁目","koaza":"","lat":35.263992,"lng":137.025109,"zip":"4870025"},{"town":"出川町五丁目","koaza":"","lat":35.265344,"lng":137.020547,"zip":"4870025"},{"town":"出川町六丁目","koaza":"","lat":35.263141,"lng":137.020373,"zip":"4870025"},{"town":"出川町七丁目","koaza":"","lat":35.260928,"lng":137.016451,"zip":"4870025"},{"town":"出川町八丁目","koaza":"","lat":35.264403,"lng":137.015673,"zip":"4870025"},{"town":"天神町","koaza":"","lat":35.232228,"lng":136.949586,"zip":"4860948"},{"town":"外之原町","koaza":"","lat":35.29591,"lng":137.074437,"zip":"4870002"},{"town":"鳥居松町一丁目","koaza":"","lat":35.239676,"lng":136.967599,"zip":"4860844"},{"town":"鳥居松町二丁目","koaza":"","lat":35.242071,"lng":136.96912,"zip":"4860844"},{"town":"鳥居松町三丁目","koaza":"","lat":35.243637,"lng":136.97084,"zip":"4860844"},{"town":"鳥居松町四丁目","koaza":"","lat":35.245001,"lng":136.972558,"zip":"4860844"},{"town":"鳥居松町五丁目","koaza":"","lat":35.246812,"lng":136.973659,"zip":"4860844"},{"town":"鳥居松町六丁目","koaza":"","lat":35.247413,"lng":136.976442,"zip":"4860844"},{"town":"鳥居松町七丁目","koaza":"","lat":35.248659,"lng":136.978002,"zip":"4860844"},{"town":"鳥居松町八丁目","koaza":"","lat":35.25008,"lng":136.979567,"zip":"4860844"},{"town":"中切町","koaza":"","lat":35.223886,"lng":136.976584,"zip":"4860925"},{"town":"中切町一丁目","koaza":"","lat":35.225782,"lng":136.97046,"zip":"4860925"},{"town":"中切町二丁目","koaza":"","lat":35.225737,"lng":136.973566,"zip":"4860925"},{"town":"中切町三丁目","koaza":"","lat":35.224115,"lng":136.972455,"zip":"4860925"},{"town":"中新町一丁目","koaza":"","lat":35.22529,"lng":136.931216,"zip":"4860956"},{"town":"中新町二丁目","koaza":"","lat":35.228376,"lng":136.930367,"zip":"4860956"},{"town":"長塚町一丁目","koaza":"","lat":35.220231,"lng":136.950804,"zip":"4860934"},{"town":"長塚町二丁目","koaza":"","lat":35.220163,"lng":136.953635,"zip":"4860934"},{"town":"中野町一丁目","koaza":"","lat":35.229629,"lng":136.927283,"zip":"4860957"},{"town":"中野町二丁目","koaza":"","lat":35.232086,"lng":136.928885,"zip":"4860957"},{"town":"中町","koaza":"","lat":35.251267,"lng":136.932864,"zip":"4860962"},{"town":"西高山町一丁目","koaza":"","lat":35.254654,"lng":136.947041,"zip":"4860911"},{"town":"西高山町二丁目","koaza":"","lat":35.257245,"lng":136.948331,"zip":"4860911"},{"town":"西高山町三丁目","koaza":"","lat":35.254868,"lng":136.950086,"zip":"4860911"},{"town":"西本町一丁目","koaza":"","lat":35.234454,"lng":136.935659,"zip":"4860958"},{"town":"西本町二丁目","koaza":"","lat":35.234837,"lng":136.931731,"zip":"4860958"},{"town":"西本町三丁目","koaza":"","lat":35.237517,"lng":136.932135,"zip":"4860958"},{"town":"西屋町","koaza":"","lat":35.261379,"lng":136.938699,"zip":"4860908"},{"town":"西山町","koaza":"","lat":35.280447,"lng":136.98102,"zip":"4860803"},{"town":"西山町一丁目","koaza":"","lat":35.275087,"lng":136.970181,"zip":"4860803"},{"town":"西山町二丁目","koaza":"","lat":35.274437,"lng":136.974087,"zip":"4860803"},{"town":"西山町三丁目","koaza":"","lat":35.271482,"lng":136.975363,"zip":"4860803"},{"town":"西山町四丁目","koaza":"","lat":35.274154,"lng":136.979137,"zip":"4860803"},{"town":"西山町五丁目","koaza":"","lat":35.276977,"lng":136.981191,"zip":"4860803"},{"town":"如意申町一丁目","koaza":"","lat":35.245947,"lng":136.941924,"zip":"4860918"},{"town":"如意申町二丁目","koaza":"","lat":35.248671,"lng":136.942451,"zip":"4860918"},{"town":"如意申町三丁目","koaza":"","lat":35.245818,"lng":136.94667,"zip":"4860918"},{"town":"如意申町四丁目","koaza":"","lat":35.249064,"lng":136.947006,"zip":"4860918"},{"town":"如意申町五丁目","koaza":"","lat":35.249698,"lng":136.951851,"zip":"4860918"},{"town":"如意申町六丁目","koaza":"","lat":35.247113,"lng":136.951189,"zip":"4860918"},{"town":"如意申町七丁目","koaza":"","lat":35.245532,"lng":136.952034,"zip":"4860918"},{"town":"如意申町八丁目","koaza":"","lat":35.246447,"lng":136.955524,"zip":"4860918"},{"town":"廻間町","koaza":"","lat":35.298447,"lng":137.043797,"zip":"4870031"},{"town":"八幡町","koaza":"","lat":35.23868,"lng":136.957471,"zip":"4860915"},{"town":"八光町一丁目","koaza":"","lat":35.232679,"lng":136.956083,"zip":"4860916"},{"town":"八光町二丁目","koaza":"","lat":35.235842,"lng":136.955642,"zip":"4860916"},{"town":"八光町三丁目","koaza":"","lat":35.238494,"lng":136.955393,"zip":"4860916"},{"town":"八光町四丁目","koaza":"","lat":35.240794,"lng":136.955071,"zip":"4860916"},{"town":"八光町五丁目","koaza":"","lat":35.243296,"lng":136.954627,"zip":"4860916"},{"town":"八田町一丁目","koaza":"","lat":35.251,"lng":136.969923,"zip":"4860849"},{"town":"八田町二丁目","koaza":"","lat":35.253303,"lng":136.96833,"zip":"4860849"},{"town":"八田町三丁目","koaza":"","lat":35.25359,"lng":136.964255,"zip":"4860849"},{"town":"八田町四丁目","koaza":"","lat":35.255818,"lng":136.963033,"zip":"4860849"},{"town":"八田町五丁目","koaza":"","lat":35.25793,"lng":136.961097,"zip":"4860849"},{"town":"八田町六丁目","koaza":"","lat":35.258041,"lng":136.965632,"zip":"4860849"},{"town":"八田町七丁目","koaza":"","lat":35.256069,"lng":136.970894,"zip":"4860849"},{"town":"八田町八丁目","koaza":"","lat":35.253386,"lng":136.972153,"zip":"4860849"},{"town":"花長町一丁目","koaza":"","lat":35.230885,"lng":136.939279,"zip":"4860951"},{"town":"花長町二丁目","koaza":"","lat":35.23402,"lng":136.939873,"zip":"4860951"},{"town":"林島町","koaza":"","lat":35.250093,"lng":136.991179,"zip":"4860854"},{"town":"林島町二丁目","koaza":"","lat":35.24821,"lng":136.993878,"zip":"4860854"},{"town":"林島町三丁目","koaza":"","lat":35.25127,"lng":136.99322,"zip":"4860854"},{"town":"林島町四丁目","koaza":"","lat":35.252784,"lng":136.993589,"zip":"4860854"},{"town":"春見町","koaza":"","lat":35.249706,"lng":136.975464,"zip":"4860837"},{"town":"東神明町","koaza":"","lat":35.277988,"lng":137.017471,"zip":"4870021"},{"town":"東神明町二丁目","koaza":"","lat":35.274976,"lng":137.022479,"zip":"4870021"},{"town":"東野新町一丁目","koaza":"","lat":35.260463,"lng":136.987534,"zip":"4860816"},{"town":"東野新町二丁目","koaza":"","lat":35.262646,"lng":136.990565,"zip":"4860816"},{"town":"東野町","koaza":"","lat":35.271097,"lng":136.989753,"zip":"4860817"},{"town":"東野町十丁目","koaza":"","lat":35.262044,"lng":136.981792,"zip":"4860817"},{"town":"東野町一丁目","koaza":"","lat":35.263256,"lng":136.979275,"zip":"4860817"},{"town":"東野町二丁目","koaza":"","lat":35.265759,"lng":136.981832,"zip":"4860817"},{"town":"東野町三丁目","koaza":"","lat":35.267879,"lng":136.985168,"zip":"4860817"},{"town":"東野町四丁目","koaza":"","lat":35.2699,"lng":136.98547,"zip":"4860817"},{"town":"東野町五丁目","koaza":"","lat":35.267254,"lng":136.991809,"zip":"4860817"},{"town":"東野町六丁目","koaza":"","lat":35.26469,"lng":136.989497,"zip":"4860817"},{"town":"東野町七丁目","koaza":"","lat":35.264622,"lng":136.986998,"zip":"4860817"},{"town":"東野町八丁目","koaza":"","lat":35.265092,"lng":136.984188,"zip":"4860817"},{"town":"東野町九丁目","koaza":"","lat":35.261727,"lng":136.985619,"zip":"4860817"},{"town":"東野町西一丁目","koaza":"","lat":35.264277,"lng":136.976531,"zip":"4860818"},{"town":"東野町西二丁目","koaza":"","lat":35.267918,"lng":136.977758,"zip":"4860818"},{"town":"東野町西三丁目","koaza":"","lat":35.269115,"lng":136.980415,"zip":"4860818"},{"town":"東山町","koaza":"","lat":35.277068,"lng":136.992494,"zip":"4860811"},{"town":"東山町一丁目","koaza":"","lat":35.281699,"lng":136.995905,"zip":"4860811"},{"town":"東山町二丁目","koaza":"","lat":35.282071,"lng":136.997775,"zip":"4860811"},{"town":"東山町三丁目","koaza":"","lat":35.282129,"lng":136.999559,"zip":"4860811"},{"town":"東山町四丁目","koaza":"","lat":35.280973,"lng":137.001914,"zip":"4860811"},{"town":"東山町五丁目","koaza":"","lat":35.279481,"lng":136.998798,"zip":"4860811"},{"town":"不二ガ丘一丁目","koaza":"","lat":35.267782,"lng":137.012625,"zip":"4870023"},{"town":"不二ガ丘二丁目","koaza":"","lat":35.269386,"lng":137.013553,"zip":"4870023"},{"town":"不二ガ丘三丁目","koaza":"","lat":35.270909,"lng":137.013313,"zip":"4870023"},{"town":"不二町一丁目","koaza":"","lat":35.267393,"lng":137.026405,"zip":"4870026"},{"town":"不二町二丁目","koaza":"","lat":35.269537,"lng":137.026607,"zip":"4870026"},{"town":"藤山台十丁目","koaza":"","lat":35.287717,"lng":137.038641,"zip":"4870035"},{"town":"藤山台一丁目","koaza":"","lat":35.284757,"lng":137.044734,"zip":"4870035"},{"town":"藤山台二丁目","koaza":"","lat":35.282752,"lng":137.042779,"zip":"4870035"},{"town":"藤山台三丁目","koaza":"","lat":35.284772,"lng":137.039082,"zip":"4870035"},{"town":"藤山台四丁目","koaza":"","lat":35.281619,"lng":137.034733,"zip":"4870035"},{"town":"藤山台五丁目","koaza":"","lat":35.278669,"lng":137.032444,"zip":"4870035"},{"town":"藤山台八丁目","koaza":"","lat":35.282135,"lng":137.031898,"zip":"4870035"},{"town":"藤山台九丁目","koaza":"","lat":35.285349,"lng":137.034639,"zip":"4870035"},{"town":"二子町一丁目","koaza":"","lat":35.2249,"lng":136.935072,"zip":"4860955"},{"town":"二子町二丁目","koaza":"","lat":35.227639,"lng":136.935134,"zip":"4860955"},{"town":"細木町一丁目","koaza":"","lat":35.22381,"lng":136.955804,"zip":"4860937"},{"town":"細野町","koaza":"","lat":35.301212,"lng":137.06522,"zip":"4870001"},{"town":"堀ノ内町","koaza":"","lat":35.254552,"lng":137.005703,"zip":"4860829"},{"town":"堀ノ内町一丁目","koaza":"","lat":35.252557,"lng":137.004426,"zip":"4860829"},{"town":"堀ノ内町二丁目","koaza":"","lat":35.251571,"lng":137.006079,"zip":"4860829"},{"town":"堀ノ内町三丁目","koaza":"","lat":35.254044,"lng":137.008119,"zip":"4860829"},{"town":"堀ノ内町四丁目","koaza":"","lat":35.250917,"lng":137.008076,"zip":"4860829"},{"town":"堀ノ内町五丁目","koaza":"","lat":35.249606,"lng":137.00441,"zip":"4860829"},{"town":"堀ノ内町北一丁目","koaza":"","lat":35.254673,"lng":137.003042,"zip":"4860828"},{"town":"堀ノ内町北二丁目","koaza":"","lat":35.256911,"lng":137.007203,"zip":"4860828"},{"town":"前並町","koaza":"","lat":35.261892,"lng":136.948778,"zip":"4860903"},{"town":"前並町一丁目","koaza":"","lat":35.258264,"lng":136.945964,"zip":"4860903"},{"town":"前並町二丁目","koaza":"","lat":35.259793,"lng":136.949441,"zip":"4860903"},{"town":"前並町三丁目","koaza":"","lat":35.260439,"lng":136.946376,"zip":"4860903"},{"town":"町屋町","koaza":"","lat":35.272331,"lng":136.957319,"zip":"4860809"},{"town":"町屋町一丁目","koaza":"","lat":35.269579,"lng":136.956983,"zip":"4860809"},{"town":"松新町一丁目","koaza":"","lat":35.230503,"lng":136.955972,"zip":"4860931"},{"town":"松新町二丁目","koaza":"","lat":35.232594,"lng":136.959323,"zip":"4860931"},{"town":"松新町三丁目","koaza":"","lat":35.23154,"lng":136.960433,"zip":"4860931"},{"town":"松新町四丁目","koaza":"","lat":35.230302,"lng":136.959487,"zip":"4860931"},{"town":"松新町五丁目","koaza":"","lat":35.229618,"lng":136.958065,"zip":"4860931"},{"town":"松新町六丁目","koaza":"","lat":35.229039,"lng":136.957104,"zip":"4860931"},{"town":"松本町","koaza":"","lat":35.273085,"lng":137.015962,"zip":"4870027"},{"town":"松本町一丁目","koaza":"","lat":35.271076,"lng":137.024084,"zip":"4870027"},{"town":"松本町二丁目","koaza":"","lat":35.272895,"lng":137.021869,"zip":"4870027"},{"town":"瑞穂通一丁目","koaza":"","lat":35.243682,"lng":136.96326,"zip":"4860845"},{"town":"瑞穂通二丁目","koaza":"","lat":35.245142,"lng":136.965331,"zip":"4860845"},{"town":"瑞穂通三丁目","koaza":"","lat":35.246309,"lng":136.96713,"zip":"4860845"},{"town":"瑞穂通四丁目","koaza":"","lat":35.24753,"lng":136.969276,"zip":"4860845"},{"town":"瑞穂通五丁目","koaza":"","lat":35.249272,"lng":136.971198,"zip":"4860845"},{"town":"瑞穂通六丁目","koaza":"","lat":35.250195,"lng":136.972933,"zip":"4860845"},{"town":"瑞穂通七丁目","koaza":"","lat":35.252452,"lng":136.974231,"zip":"4860845"},{"town":"瑞穂通八丁目","koaza":"","lat":35.25333,"lng":136.975942,"zip":"4860845"},{"town":"南下原町","koaza":"","lat":35.268788,"lng":136.96519,"zip":"4860841"},{"town":"南下原町一丁目","koaza":"","lat":35.264275,"lng":136.966967,"zip":"4860841"},{"town":"南下原町二丁目","koaza":"","lat":35.266994,"lng":136.965403,"zip":"4860841"},{"town":"南下原町三丁目","koaza":"","lat":35.268118,"lng":136.970249,"zip":"4860841"},{"town":"南下原町四丁目","koaza":"","lat":35.269209,"lng":136.973724,"zip":"4860841"},{"town":"南下原町五丁目","koaza":"","lat":35.26618,"lng":136.974002,"zip":"4860841"},{"town":"南下原町六丁目","koaza":"","lat":35.264144,"lng":136.970924,"zip":"4860841"},{"town":"南花長町","koaza":"","lat":35.226433,"lng":136.938562,"zip":"4860954"},{"town":"美濃町一丁目","koaza":"","lat":35.241665,"lng":136.93828,"zip":"4860917"},{"town":"美濃町二丁目","koaza":"","lat":35.241193,"lng":136.941564,"zip":"4860917"},{"town":"美濃町三丁目","koaza":"","lat":35.240567,"lng":136.945511,"zip":"4860917"},{"town":"宮町","koaza":"","lat":35.252553,"lng":136.940298,"zip":"4860904"},{"town":"宮町一丁目","koaza":"","lat":35.251921,"lng":136.947269,"zip":"4860904"},{"town":"宮町二丁目","koaza":"","lat":35.250996,"lng":136.944759,"zip":"4860904"},{"town":"宮町三丁目","koaza":"","lat":35.254357,"lng":136.944707,"zip":"4860904"},{"town":"御幸町一丁目","koaza":"","lat":35.218353,"lng":136.941042,"zip":"4860953"},{"town":"御幸町二丁目","koaza":"","lat":35.219951,"lng":136.94211,"zip":"4860953"},{"town":"御幸町三丁目","koaza":"","lat":35.222489,"lng":136.941521,"zip":"4860953"},{"town":"妙慶町","koaza":"","lat":35.237232,"lng":136.952371,"zip":"4860928"},{"town":"妙慶町二丁目","koaza":"","lat":35.23769,"lng":136.950427,"zip":"4860928"},{"town":"妙慶町三丁目","koaza":"","lat":35.239882,"lng":136.951062,"zip":"4860928"},{"town":"桃山町","koaza":"","lat":35.28066,"lng":136.960979,"zip":"4860802"},{"town":"桃山町一丁目","koaza":"","lat":35.278712,"lng":136.96829,"zip":"4860802"},{"town":"桃山町二丁目","koaza":"","lat":35.282274,"lng":136.968749,"zip":"4860802"},{"town":"桃山町三丁目","koaza":"","lat":35.285712,"lng":136.970381,"zip":"4860802"},{"town":"森山田町","koaza":"","lat":35.223033,"lng":136.953609,"zip":"4860935"},{"town":"八事町一丁目","koaza":"","lat":35.245678,"lng":136.977295,"zip":"4860836"},{"town":"八事町二丁目","koaza":"","lat":35.244844,"lng":136.978345,"zip":"4860836"},{"town":"八事町三丁目","koaza":"","lat":35.24453,"lng":136.980112,"zip":"4860836"},{"town":"大和通一丁目","koaza":"","lat":35.230339,"lng":136.950746,"zip":"4860944"},{"town":"大和通二丁目","koaza":"","lat":35.23327,"lng":136.952275,"zip":"4860944"},{"town":"弥生町","koaza":"","lat":35.239663,"lng":136.978768,"zip":"4860838"},{"town":"弥生町一丁目","koaza":"","lat":35.239814,"lng":136.975112,"zip":"4860838"},{"town":"弥生町二丁目","koaza":"","lat":35.241692,"lng":136.978212,"zip":"4860838"},{"town":"四ツ家町","koaza":"","lat":35.259698,"lng":136.94183,"zip":"4860909"},{"town":"六軒屋町","koaza":"","lat":35.258135,"lng":136.981433,"zip":"4860842"},{"town":"六軒屋町一丁目","koaza":"","lat":35.256248,"lng":136.974994,"zip":"4860842"},{"town":"六軒屋町二丁目","koaza":"","lat":35.260111,"lng":136.971956,"zip":"4860842"},{"town":"六軒屋町三丁目","koaza":"","lat":35.261691,"lng":136.97613,"zip":"4860842"},{"town":"六軒屋町四丁目","koaza":"","lat":35.25982,"lng":136.975766,"zip":"4860842"},{"town":"六軒屋町五丁目","koaza":"","lat":35.256935,"lng":136.976733,"zip":"4860842"},{"town":"六軒屋町六丁目","koaza":"","lat":35.259764,"lng":136.979262,"zip":"4860842"},{"town":"六軒屋町七丁目","koaza":"","lat":35.258612,"lng":136.980067,"zip":"4860842"},{"town":"六軒屋町西一丁目","koaza":"","lat":35.256155,"lng":136.973287,"zip":"4860839"},{"town":"六軒屋町西二丁目","koaza":"","lat":35.259121,"lng":136.969287,"zip":"4860839"},{"town":"六軒屋町西三丁目","koaza":"","lat":35.261435,"lng":136.969997,"zip":"4860839"},{"town":"若草通一丁目","koaza":"","lat":35.234369,"lng":136.955854,"zip":"4860914"},{"town":"若草通二丁目","koaza":"","lat":35.235746,"lng":136.957551,"zip":"4860914"},{"town":"若草通三丁目","koaza":"","lat":35.238076,"lng":136.959524,"zip":"4860914"},{"town":"若草通四丁目","koaza":"","lat":35.240422,"lng":136.961101,"zip":"4860914"},{"town":"若草通五丁目","koaza":"","lat":35.242258,"lng":136.961803,"zip":"4860914"},{"town":"割塚町","koaza":"","lat":35.2458,"lng":136.986195,"zip":"4860824"},{"town":"高山町四丁目","koaza":"","lat":35.260353,"lng":136.953285,"zip":"4860912"},{"town":"高山町","koaza":"","lat":35.2616,"lng":136.952509,"zip":"4860912"},{"town":"松河戸町五丁目","koaza":"","lat":35.219698,"lng":136.967682,"zip":"4860932"},{"town":"松河戸町四丁目","koaza":"","lat":35.222388,"lng":136.968635,"zip":"4860932"},{"town":"松河戸町六丁目","koaza":"","lat":35.220177,"lng":136.971609,"zip":"4860932"},{"town":"細木町二丁目","koaza":"","lat":35.223717,"lng":136.958738,"zip":"4860937"},{"town":"愛知町","koaza":"","lat":35.221051,"lng":136.957753,"zip":"4860933"},{"town":"松河戸町","koaza":"","lat":35.218589,"lng":136.962684,"zip":"4860932"},{"town":"松河戸町一丁目","koaza":"","lat":35.221538,"lng":136.964026,"zip":"4860932"},{"town":"松河戸町二丁目","koaza":"","lat":35.223716,"lng":136.963741,"zip":"4860932"},{"town":"松河戸町三丁目","koaza":"","lat":35.223536,"lng":136.970421,"zip":"4860932"},{"town":"庄名町","koaza":"","lat":35.278777,"lng":137.025584,"zip":"4870022"},{"town":"藤山台七丁目","koaza":"","lat":35.279427,"lng":137.029286,"zip":"4870035"},{"town":"東神明町一丁目","koaza":"","lat":35.273179,"lng":137.024932,"zip":"4870021"},{"town":"不二町三丁目","koaza":"","lat":35.272227,"lng":137.025619,"zip":"4870026"},{"town":"庄名町一丁目","koaza":"","lat":35.273625,"lng":137.026628,"zip":"4870022"},{"town":"藤山台六丁目","koaza":"","lat":35.277087,"lng":137.0291,"zip":"4870035"},{"town":"庄名町二丁目","koaza":"","lat":35.276288,"lng":137.02648,"zip":"4870022"},{"town":"白山町五丁目","koaza":"","lat":35.274277,"lng":137.029314,"zip":"4870034"},{"town":"宗法町","koaza":"宗法","lat":35.243799,"lng":136.928678,"zip":"4860964"},{"town":"春日井上ノ町","koaza":"上ノ町","lat":35.254444,"lng":136.930646,"zip":"4860961"},{"town":"春日井町","koaza":"七ツ割","lat":35.247591,"lng":136.934159,"zip":"4860963"},{"town":"春日井上ノ町","koaza":"割畑","lat":35.255878,"lng":136.934055,"zip":"4860961"},{"town":"西屋町","koaza":"西屋敷","lat":35.259373,"lng":136.933933,"zip":"4860908"},{"town":"春日井町","koaza":"町","lat":35.249977,"lng":136.933094,"zip":"4860963"},{"town":"西屋町","koaza":"割畑","lat":35.258485,"lng":136.93414,"zip":"4860908"},{"town":"春日井町","koaza":"黒鉾","lat":35.250687,"lng":136.935387,"zip":"4860963"},{"town":"春日井町","koaza":"土合","lat":35.250969,"lng":136.93739,"zip":"4860963"},{"town":"春日井上ノ町","koaza":"黒鉾","lat":35.252454,"lng":136.934562,"zip":"4860961"},{"town":"下屋敷町","koaza":"下屋敷","lat":35.247635,"lng":136.937619,"zip":"4860906"},{"town":"黒鉾町","koaza":"大久手","lat":35.255804,"lng":136.936564,"zip":"4860907"},{"town":"宗法町","koaza":"知光院","lat":35.244949,"lng":136.935961,"zip":"4860964"},{"town":"西屋町","koaza":"大久手","lat":35.258124,"lng":136.935491,"zip":"4860908"},{"town":"黒鉾町","koaza":"黒鉾","lat":35.253587,"lng":136.936618,"zip":"4860907"},{"town":"宮町","koaza":"宮町","lat":35.253914,"lng":136.941066,"zip":"4860904"},{"town":"宮町","koaza":"下夕原","lat":35.250812,"lng":136.940576,"zip":"4860904"},{"town":"西屋町","koaza":"中新田","lat":35.260406,"lng":136.939026,"zip":"4860908"},{"town":"下屋敷町","koaza":"知光院","lat":35.244091,"lng":136.938265,"zip":"4860906"},{"town":"西屋町","koaza":"南野池","lat":35.263141,"lng":136.940419,"zip":"4860908"},{"town":"四ツ家町","koaza":"四ツ家","lat":35.257636,"lng":136.942389,"zip":"4860909"},{"town":"新開町","koaza":"北野池","lat":35.266719,"lng":136.941235,"zip":"4860902"},{"town":"新開町","koaza":"新開","lat":35.269633,"lng":136.942354,"zip":"4860902"},{"town":"宮町","koaza":"中島","lat":35.251345,"lng":136.943049,"zip":"4860904"},{"town":"四ツ家町","koaza":"二ツ杁","lat":35.261813,"lng":136.9435,"zip":"4860909"},{"town":"新開町","koaza":"平渕","lat":35.266045,"lng":136.945124,"zip":"4860902"},{"town":"前並町","koaza":"左右分","lat":35.259479,"lng":136.944991,"zip":"4860903"},{"town":"前並町","koaza":"前並","lat":35.262855,"lng":136.948348,"zip":"4860903"},{"town":"前並町","koaza":"東屋敷","lat":35.260882,"lng":136.94837,"zip":"4860903"},{"town":"高山町","koaza":"辻山","lat":35.261221,"lng":136.952058,"zip":"4860912"},{"town":"上田楽町","koaza":"庄司山","lat":35.278553,"lng":136.959333,"zip":"4860801"},{"town":"六軒屋町","koaza":"向ヱ","lat":35.262285,"lng":136.972043,"zip":"4860842"},{"town":"六軒屋町","koaza":"松山","lat":35.257411,"lng":136.979146,"zip":"4860842"},{"town":"六軒屋町","koaza":"中山","lat":35.256473,"lng":136.979094,"zip":"4860842"},{"town":"六軒屋町","koaza":"東丘","lat":35.258458,"lng":136.983193,"zip":"4860842"},{"town":"下原町","koaza":"村東","lat":35.272836,"lng":136.986614,"zip":"4860819"},{"town":"東野町","koaza":"上二本木","lat":35.269605,"lng":136.992193,"zip":"4860817"},{"town":"熊野町","koaza":"五反田","lat":35.245861,"lng":136.994237,"zip":"4860822"},{"town":"松本町","koaza":"下丁田","lat":35.269387,"lng":137.016748,"zip":"4870027"},{"town":"神屋町","koaza":"地福","lat":35.302918,"lng":137.019427,"zip":"4800304"},{"town":"神屋町","koaza":"南郷","lat":35.301168,"lng":137.025296,"zip":"4800304"},{"town":"神屋町","koaza":"森","lat":35.298746,"lng":137.026258,"zip":"4800304"},{"town":"神屋町","koaza":"上郷","lat":35.304118,"lng":137.027958,"zip":"4800304"},{"town":"神屋町","koaza":"南海道","lat":35.301479,"lng":137.028174,"zip":"4800304"},{"town":"神屋町","koaza":"北海道","lat":35.302869,"lng":137.029675,"zip":"4800304"},{"town":"廻間町","koaza":"上杉森","lat":35.286231,"lng":137.028932,"zip":"4870031"},{"town":"廻間町","koaza":"間瀬口","lat":35.285142,"lng":137.030777,"zip":"4870031"},{"town":"廻間町","koaza":"石亀","lat":35.28694,"lng":137.031185,"zip":"4870031"},{"town":"廻間町","koaza":"下巳新田","lat":35.286599,"lng":137.032519,"zip":"4870031"},{"town":"廻間町","koaza":"上巳新田","lat":35.287865,"lng":137.033652,"zip":"4870031"},{"town":"廻間町","koaza":"上新田","lat":35.289412,"lng":137.034029,"zip":"4870031"},{"town":"廻間町","koaza":"地蔵前","lat":35.290392,"lng":137.034984,"zip":"4870031"},{"town":"廻間町","koaza":"落重","lat":35.292337,"lng":137.035931,"zip":"4870031"},{"town":"廻間町","koaza":"東出","lat":35.29097,"lng":137.037915,"zip":"4870031"},{"town":"廻間町","koaza":"神屋洞","lat":35.293775,"lng":137.037286,"zip":"4870031"},{"town":"廻間町","koaza":"浜居場","lat":35.293432,"lng":137.038489,"zip":"4870031"},{"town":"廻間町","koaza":"明知洞","lat":35.295901,"lng":137.03778,"zip":"4870031"},{"town":"廻間町","koaza":"西神多","lat":35.295294,"lng":137.04073,"zip":"4870031"},{"town":"廻間町","koaza":"東神多","lat":35.294254,"lng":137.040757,"zip":"4870031"},{"town":"廻間町","koaza":"高森","lat":35.30278,"lng":137.04361,"zip":"4870031"},{"town":"廻間町","koaza":"上乱林","lat":35.297765,"lng":137.043156,"zip":"4870031"},{"town":"廻間町","koaza":"馬不入","lat":35.300335,"lng":137.054287,"zip":"4870031"},{"town":"宮町","koaza":"長斉","lat":35.252333,"lng":136.942055,"zip":"4860904"},{"town":"東野町","koaza":"小堤","lat":35.274173,"lng":136.987639,"zip":"4860817"},{"town":"東野町","koaza":"茨沢","lat":35.274325,"lng":136.989486,"zip":"4860817"},{"town":"東野町","koaza":"落合池","lat":35.272414,"lng":136.98991,"zip":"4860817"},{"town":"下原町","koaza":"萱場","lat":35.270886,"lng":136.97851,"zip":"4860819"},{"town":"六軒屋町","koaza":"水附","lat":35.258691,"lng":136.986575,"zip":"4860842"},{"town":"金ケ口町","koaza":"金ヶ口","lat":35.265033,"lng":137.008537,"zip":"4860813"},{"town":"廻間町","koaza":"大洞","lat":35.292943,"lng":137.032688,"zip":"4870031"},{"town":"廻間町","koaza":"後ノ田","lat":35.293205,"lng":137.040008,"zip":"4870031"},{"town":"廻間町","koaza":"下乱林","lat":35.297039,"lng":137.040623,"zip":"4870031"},{"town":"廻間町","koaza":"宮滝","lat":35.299346,"lng":137.040947,"zip":"4870031"}]