[{"town":"浅山一丁目","koaza":"","lat":35.049591,"lng":136.90444,"zip":"4760006"},{"town":"浅山二丁目","koaza":"","lat":35.052159,"lng":136.905062,"zip":"4760006"},{"town":"浅山三丁目","koaza":"","lat":35.054718,"lng":136.907288,"zip":"4760006"},{"town":"荒尾町","koaza":"","lat":35.034974,"lng":136.917496,"zip":"4760003"},{"town":"大田町","koaza":"","lat":35.018963,"lng":136.896771,"zip":"4770031"},{"town":"加木屋町","koaza":"","lat":34.992887,"lng":136.908781,"zip":"4770032"},{"town":"加木屋町一丁目","koaza":"","lat":34.986718,"lng":136.908597,"zip":"4770032"},{"town":"加木屋町二丁目","koaza":"","lat":34.982725,"lng":136.909753,"zip":"4770032"},{"town":"新宝町","koaza":"","lat":35.055961,"lng":136.892608,"zip":"4760005"},{"town":"高横須賀町","koaza":"","lat":35.006318,"lng":136.894651,"zip":"4770037"},{"town":"高横須賀町一丁目","koaza":"","lat":35.010006,"lng":136.886577,"zip":"4770037"},{"town":"高横須賀町二丁目","koaza":"","lat":35.008307,"lng":136.888558,"zip":"4770037"},{"town":"高横須賀町三丁目","koaza":"","lat":35.014041,"lng":136.890667,"zip":"4770037"},{"town":"高横須賀町四丁目","koaza":"","lat":35.015513,"lng":136.891148,"zip":"4770037"},{"town":"高横須賀町五丁目","koaza":"","lat":35.013055,"lng":136.894364,"zip":"4770037"},{"town":"高横須賀町六丁目","koaza":"","lat":35.010801,"lng":136.894554,"zip":"4770037"},{"town":"中央町一丁目","koaza":"","lat":35.022658,"lng":136.902616,"zip":"4760013"},{"town":"中央町二丁目","koaza":"","lat":35.025204,"lng":136.90083,"zip":"4760013"},{"town":"中央町三丁目","koaza":"","lat":35.025344,"lng":136.905132,"zip":"4760013"},{"town":"中央町四丁目","koaza":"","lat":35.021118,"lng":136.905054,"zip":"4760013"},{"town":"中央町五丁目","koaza":"","lat":35.020411,"lng":136.908319,"zip":"4760013"},{"town":"中央町六丁目","koaza":"","lat":35.017794,"lng":136.906687,"zip":"4760013"},{"town":"中央町七丁目","koaza":"","lat":35.020114,"lng":136.903993,"zip":"4760013"},{"town":"東海町一丁目","koaza":"","lat":35.037658,"lng":136.899182,"zip":"4760015"},{"town":"東海町二丁目","koaza":"","lat":35.035163,"lng":136.898057,"zip":"4760015"},{"town":"東海町三丁目","koaza":"","lat":35.032492,"lng":136.896054,"zip":"4760015"},{"town":"東海町四丁目","koaza":"","lat":35.035804,"lng":136.894801,"zip":"4760015"},{"town":"東海町五丁目","koaza":"","lat":35.029759,"lng":136.874817,"zip":"4760015"},{"town":"東海町六丁目","koaza":"","lat":35.04148,"lng":136.897947,"zip":"4760015"},{"town":"東海町七丁目","koaza":"","lat":35.039592,"lng":136.900313,"zip":"4760015"},{"town":"中ノ池一丁目","koaza":"","lat":35.002913,"lng":136.898488,"zip":"4770033"},{"town":"中ノ池二丁目","koaza":"","lat":35.00181,"lng":136.897978,"zip":"4770033"},{"town":"中ノ池三丁目","koaza":"","lat":34.999073,"lng":136.899221,"zip":"4770033"},{"town":"中ノ池四丁目","koaza":"","lat":34.997311,"lng":136.897471,"zip":"4770033"},{"town":"中ノ池五丁目","koaza":"","lat":34.9993,"lng":136.896153,"zip":"4770033"},{"town":"中ノ池六丁目","koaza":"","lat":35.001711,"lng":136.894617,"zip":"4770033"},{"town":"名和町","koaza":"","lat":35.052321,"lng":136.91868,"zip":"4760002"},{"town":"名和町一丁目","koaza":"","lat":35.060719,"lng":136.912397,"zip":"4760002"},{"town":"名和町二丁目","koaza":"","lat":35.060942,"lng":136.913573,"zip":"4760002"},{"town":"名和町三丁目","koaza":"","lat":35.062059,"lng":136.914442,"zip":"4760002"},{"town":"富木島町","koaza":"","lat":35.018045,"lng":136.924207,"zip":"4760011"},{"town":"富木島町伏見一丁目","koaza":"","lat":35.021904,"lng":136.913148,"zip":"4760012"},{"town":"富木島町伏見二丁目","koaza":"","lat":35.018394,"lng":136.911127,"zip":"4760012"},{"town":"富木島町伏見三丁目","koaza":"","lat":35.01546,"lng":136.910744,"zip":"4760012"},{"town":"富木島町伏見四丁目","koaza":"","lat":35.014148,"lng":136.91065,"zip":"4760012"},{"town":"富貴ノ台一丁目","koaza":"","lat":35.030576,"lng":136.901065,"zip":"4760014"},{"town":"富貴ノ台二丁目","koaza":"","lat":35.03382,"lng":136.902409,"zip":"4760014"},{"town":"富貴ノ台三丁目","koaza":"","lat":35.033357,"lng":136.905584,"zip":"4760014"},{"town":"富貴ノ台四丁目","koaza":"","lat":35.03211,"lng":136.907673,"zip":"4760014"},{"town":"富貴ノ台五丁目","koaza":"","lat":35.029294,"lng":136.906949,"zip":"4760014"},{"town":"富貴ノ台六丁目","koaza":"","lat":35.02981,"lng":136.904075,"zip":"4760014"},{"town":"南柴田町","koaza":"","lat":35.063193,"lng":136.901797,"zip":"4760001"},{"town":"元浜町","koaza":"","lat":35.01835,"lng":136.861237,"zip":"4770035"},{"town":"養父町","koaza":"","lat":34.996503,"lng":136.89391,"zip":"4770034"},{"town":"養父町一丁目","koaza":"","lat":35.009779,"lng":136.885722,"zip":"4770034"},{"town":"養父町二丁目","koaza":"","lat":35.008272,"lng":136.886045,"zip":"4770034"},{"town":"養父町三丁目","koaza":"","lat":35.007151,"lng":136.887266,"zip":"4770034"},{"town":"横須賀町","koaza":"","lat":35.016858,"lng":136.879735,"zip":"4770036"},{"town":"養父町","koaza":"中川","lat":35.010118,"lng":136.875942,"zip":"4770034"},{"town":"養父町","koaza":"義神","lat":35.009742,"lng":136.87813,"zip":"4770034"},{"town":"養父町","koaza":"正神","lat":35.008599,"lng":136.877014,"zip":"4770034"},{"town":"養父町","koaza":"西川向","lat":35.005725,"lng":136.876706,"zip":"4770034"},{"town":"養父町","koaza":"八王子","lat":35.005985,"lng":136.877893,"zip":"4770034"},{"town":"養父町","koaza":"東川向","lat":35.004496,"lng":136.878112,"zip":"4770034"},{"town":"横須賀町","koaza":"天宝新田","lat":35.01904,"lng":136.881457,"zip":"4770036"},{"town":"養父町","koaza":"釈迦御堂","lat":35.008415,"lng":136.879344,"zip":"4770034"},{"town":"養父町","koaza":"島ノ内","lat":35.005569,"lng":136.879221,"zip":"4770034"},{"town":"養父町","koaza":"浅間前","lat":35.00668,"lng":136.879583,"zip":"4770034"},{"town":"養父町","koaza":"南堀畑","lat":35.008096,"lng":136.880622,"zip":"4770034"},{"town":"養父町","koaza":"浜脇","lat":35.009565,"lng":136.880295,"zip":"4770034"},{"town":"養父町","koaza":"横枕","lat":35.004323,"lng":136.881633,"zip":"4770034"},{"town":"養父町","koaza":"里中","lat":35.006406,"lng":136.881089,"zip":"4770034"},{"town":"養父町","koaza":"北堀畑","lat":35.008839,"lng":136.882114,"zip":"4770034"},{"town":"養父町","koaza":"漁脇","lat":35.010274,"lng":136.881325,"zip":"4770034"},{"town":"横須賀町","koaza":"扇島","lat":35.013811,"lng":136.882222,"zip":"4770036"},{"town":"養父町","koaza":"城之内","lat":35.007596,"lng":136.882373,"zip":"4770034"},{"town":"横須賀町","koaza":"二ノ割","lat":35.011156,"lng":136.882195,"zip":"4770036"},{"town":"高横須賀町","koaza":"成宝新田","lat":35.018722,"lng":136.884681,"zip":"4770037"},{"town":"養父町","koaza":"四ツ池","lat":35.003881,"lng":136.882396,"zip":"4770034"},{"town":"養父町","koaza":"諸之木","lat":35.005233,"lng":136.883306,"zip":"4770034"},{"town":"横須賀町","koaza":"三ノ割","lat":35.011982,"lng":136.883148,"zip":"4770036"},{"town":"養父町","koaza":"八ケ池","lat":35.008508,"lng":136.88396,"zip":"4770034"},{"town":"養父町","koaza":"大木之本","lat":35.006397,"lng":136.883602,"zip":"4770034"},{"town":"横須賀町","koaza":"植松","lat":35.0103,"lng":136.883136,"zip":"4770036"},{"town":"大田町","koaza":"天尾崎","lat":35.020661,"lng":136.885875,"zip":"4770031"},{"town":"横須賀町","koaza":"浜屋敷","lat":35.013432,"lng":136.883475,"zip":"4770036"},{"town":"養父町","koaza":"前田","lat":35.005314,"lng":136.885117,"zip":"4770034"},{"town":"横須賀町","koaza":"四ノ割","lat":35.013191,"lng":136.884367,"zip":"4770036"},{"town":"高横須賀町","koaza":"桝形","lat":35.015034,"lng":136.884437,"zip":"4770037"},{"town":"横須賀町","koaza":"一ノ割","lat":35.011466,"lng":136.884627,"zip":"4770036"},{"town":"大田町","koaza":"川南新田","lat":35.022873,"lng":136.887665,"zip":"4770031"},{"town":"養父町","koaza":"元藪下","lat":35.010921,"lng":136.884883,"zip":"4770034"},{"town":"養父町","koaza":"北反田","lat":35.010615,"lng":136.885281,"zip":"4770034"},{"town":"養父町","koaza":"宮山","lat":35.007054,"lng":136.885781,"zip":"4770034"},{"town":"養父町","koaza":"墓下","lat":35.009989,"lng":136.885521,"zip":"4770034"},{"town":"横須賀町","koaza":"南狐塚","lat":35.012754,"lng":136.885687,"zip":"4770036"},{"town":"横須賀町","koaza":"狐塚","lat":35.012197,"lng":136.885755,"zip":"4770036"},{"town":"養父町","koaza":"向神田","lat":35.003502,"lng":136.885809,"zip":"4770034"},{"town":"高横須賀町","koaza":"御亭","lat":35.015262,"lng":136.886561,"zip":"4770037"},{"town":"養父町","koaza":"森東","lat":35.00521,"lng":136.88683,"zip":"4770034"},{"town":"高横須賀町","koaza":"町新田","lat":35.017489,"lng":136.887376,"zip":"4770037"},{"town":"高横須賀町","koaza":"横狐塚","lat":35.01311,"lng":136.886757,"zip":"4770037"},{"town":"高横須賀町","koaza":"公家","lat":35.01169,"lng":136.887,"zip":"4770037"},{"town":"高横須賀町","koaza":"烏帽子","lat":35.01521,"lng":136.887431,"zip":"4770037"},{"town":"大田町","koaza":"川北新田","lat":35.029561,"lng":136.892447,"zip":"4770031"},{"town":"養父町","koaza":"野崎","lat":35.001029,"lng":136.889829,"zip":"4770034"},{"town":"高横須賀町","koaza":"米屋","lat":35.010844,"lng":136.887141,"zip":"4770037"},{"town":"高横須賀町","koaza":"浅間","lat":35.011877,"lng":136.887922,"zip":"4770037"},{"town":"大田町","koaza":"後浜新田","lat":35.02349,"lng":136.890794,"zip":"4770031"},{"town":"養父町","koaza":"竹ケ鼻","lat":35.004158,"lng":136.888068,"zip":"4770034"},{"town":"高横須賀町","koaza":"角田","lat":35.006451,"lng":136.888664,"zip":"4770037"},{"town":"高横須賀町","koaza":"浜畑","lat":35.013684,"lng":136.888111,"zip":"4770037"},{"town":"高横須賀町","koaza":"西屋敷","lat":35.010595,"lng":136.889012,"zip":"4770037"},{"town":"高横須賀町","koaza":"葭山","lat":35.01724,"lng":136.889337,"zip":"4770037"},{"town":"高横須賀町","koaza":"真光寺","lat":35.011072,"lng":136.888453,"zip":"4770037"},{"town":"高横須賀町","koaza":"栗ノ木","lat":35.016162,"lng":136.888751,"zip":"4770037"},{"town":"高横須賀町","koaza":"呉天石","lat":35.018837,"lng":136.889533,"zip":"4770037"},{"town":"高横須賀町","koaza":"浜田","lat":35.013378,"lng":136.889168,"zip":"4770037"},{"town":"高横須賀町","koaza":"塩田","lat":35.012165,"lng":136.889092,"zip":"4770037"},{"town":"高横須賀町","koaza":"踊場","lat":35.015219,"lng":136.889224,"zip":"4770037"},{"town":"高横須賀町","koaza":"前畑","lat":35.008783,"lng":136.889449,"zip":"4770037"},{"town":"高横須賀町","koaza":"辰巳屋敷","lat":35.007181,"lng":136.890405,"zip":"4770037"},{"town":"高横須賀町","koaza":"南屋敷","lat":35.009046,"lng":136.889771,"zip":"4770037"},{"town":"高横須賀町","koaza":"尾之松","lat":35.015128,"lng":136.889667,"zip":"4770037"},{"town":"大田町","koaza":"下浜田","lat":35.023091,"lng":136.894315,"zip":"4770031"},{"town":"高横須賀町","koaza":"大塚","lat":35.011757,"lng":136.889834,"zip":"4770037"},{"town":"高横須賀町","koaza":"御洲浜","lat":35.018229,"lng":136.89026,"zip":"4770037"},{"town":"高横須賀町","koaza":"井戸池","lat":35.013964,"lng":136.889731,"zip":"4770037"},{"town":"高横須賀町","koaza":"戌亥屋敷","lat":35.01139,"lng":136.890488,"zip":"4770037"},{"town":"養父町","koaza":"南儀老","lat":35.000392,"lng":136.890513,"zip":"4770034"},{"town":"高横須賀町","koaza":"川田","lat":35.01621,"lng":136.890305,"zip":"4770037"},{"town":"養父町","koaza":"海老田","lat":34.997701,"lng":136.891379,"zip":"4770034"},{"town":"高横須賀町","koaza":"柳ケ坪","lat":35.002202,"lng":136.891411,"zip":"4770037"},{"town":"大田町","koaza":"川島","lat":35.015777,"lng":136.89243,"zip":"4770031"},{"town":"大田町","koaza":"蟹田","lat":35.018085,"lng":136.893231,"zip":"4770031"},{"town":"高横須賀町","koaza":"北屋敷","lat":35.011684,"lng":136.892111,"zip":"4770037"},{"town":"大田町","koaza":"浜新田","lat":35.027465,"lng":136.892753,"zip":"4770031"},{"town":"高横須賀町","koaza":"東屋敷","lat":35.009103,"lng":136.891848,"zip":"4770037"},{"town":"大田町","koaza":"汐田","lat":35.016505,"lng":136.892864,"zip":"4770031"},{"town":"高横須賀町","koaza":"家下","lat":35.007674,"lng":136.893148,"zip":"4770037"},{"town":"大田町","koaza":"後田","lat":35.02173,"lng":136.894275,"zip":"4770031"},{"town":"高横須賀町","koaza":"天神下","lat":35.014601,"lng":136.894537,"zip":"4770037"},{"town":"高横須賀町","koaza":"北儀老","lat":35.000456,"lng":136.892512,"zip":"4770037"},{"town":"高横須賀町","koaza":"藪下","lat":35.008931,"lng":136.892515,"zip":"4770037"},{"town":"高横須賀町","koaza":"南形","lat":35.005257,"lng":136.892798,"zip":"4770037"},{"town":"高横須賀町","koaza":"城山","lat":35.00407,"lng":136.894028,"zip":"4770037"},{"town":"高横須賀町","koaza":"西ノ丁","lat":35.011109,"lng":136.893031,"zip":"4770037"},{"town":"高横須賀町","koaza":"雲海戸","lat":35.006646,"lng":136.89405,"zip":"4770037"},{"town":"大田町","koaza":"的場","lat":35.01545,"lng":136.895403,"zip":"4770031"},{"town":"大田町","koaza":"上浜田","lat":35.024454,"lng":136.89583,"zip":"4770031"},{"town":"高横須賀町","koaza":"松本","lat":35.00862,"lng":136.894232,"zip":"4770037"},{"town":"大田町","koaza":"前田","lat":35.018231,"lng":136.895271,"zip":"4770031"},{"town":"高横須賀町","koaza":"若宮","lat":35.004876,"lng":136.894559,"zip":"4770037"},{"town":"加木屋町","koaza":"社山","lat":34.994166,"lng":136.897826,"zip":"4770032"},{"town":"高横須賀町","koaza":"北竹ケ花","lat":35.008054,"lng":136.894317,"zip":"4770037"},{"town":"高横須賀町","koaza":"大宮","lat":35.006071,"lng":136.895059,"zip":"4770037"},{"town":"高横須賀町","koaza":"西岨","lat":35.007514,"lng":136.89507,"zip":"4770037"},{"town":"大田町","koaza":"郷中","lat":35.020963,"lng":136.89573,"zip":"4770031"},{"town":"高横須賀町","koaza":"岩屋口","lat":35.004582,"lng":136.896336,"zip":"4770037"},{"town":"大田町","koaza":"堀切","lat":35.029294,"lng":136.896052,"zip":"4770031"},{"town":"高横須賀町","koaza":"脇之前","lat":35.005323,"lng":136.89543,"zip":"4770037"},{"town":"高横須賀町","koaza":"社宮司","lat":35.010007,"lng":136.896034,"zip":"4770037"},{"town":"高横須賀町","koaza":"宮ノ脇","lat":35.005512,"lng":136.896075,"zip":"4770037"},{"town":"大田町","koaza":"松崎","lat":35.027567,"lng":136.89743,"zip":"4770031"},{"town":"高横須賀町","koaza":"山屋敷","lat":35.013155,"lng":136.896248,"zip":"4770037"},{"town":"大田町","koaza":"天神下","lat":35.014625,"lng":136.89706,"zip":"4770031"},{"town":"大田町","koaza":"神宮前","lat":35.02339,"lng":136.897511,"zip":"4770031"},{"town":"高横須賀町","koaza":"庭草","lat":35.007851,"lng":136.896079,"zip":"4770037"},{"town":"高横須賀町","koaza":"北池田","lat":35.007956,"lng":136.8974,"zip":"4770037"},{"town":"大田町","koaza":"天神下ノ上","lat":35.013371,"lng":136.89845,"zip":"4770031"},{"town":"大田町","koaza":"東畑","lat":35.016376,"lng":136.897016,"zip":"4770031"},{"town":"加木屋町","koaza":"西御嶽","lat":34.986005,"lng":136.899826,"zip":"4770032"},{"town":"高横須賀町","koaza":"上池田","lat":35.006108,"lng":136.897683,"zip":"4770037"},{"town":"荒尾町","koaza":"下畑","lat":35.031,"lng":136.896833,"zip":"4760003"},{"town":"高横須賀町","koaza":"会下前","lat":35.011858,"lng":136.896708,"zip":"4770037"},{"town":"高横須賀町","koaza":"切通","lat":35.009319,"lng":136.898776,"zip":"4770037"},{"town":"養父町","koaza":"鎌ケ谷","lat":34.982414,"lng":136.8984,"zip":"4770034"},{"town":"高横須賀町","koaza":"楠井","lat":35.006274,"lng":136.897291,"zip":"4770037"},{"town":"高横須賀町","koaza":"坂下","lat":35.012033,"lng":136.897505,"zip":"4770037"},{"town":"荒尾町","koaza":"見晴","lat":35.029867,"lng":136.897893,"zip":"4760003"},{"town":"大田町","koaza":"畑間","lat":35.020142,"lng":136.898941,"zip":"4770031"},{"town":"荒尾町","koaza":"昇録","lat":35.032731,"lng":136.89795,"zip":"4760003"},{"town":"大田町","koaza":"西ノ脇","lat":35.012489,"lng":136.898352,"zip":"4770031"},{"town":"大田町","koaza":"寺下","lat":35.021905,"lng":136.899441,"zip":"4770031"},{"town":"高横須賀町","koaza":"北猫狭間","lat":35.004432,"lng":136.899765,"zip":"4770037"},{"town":"高横須賀町","koaza":"南広脇","lat":35.006768,"lng":136.898828,"zip":"4770037"},{"town":"荒尾町","koaza":"レノ割","lat":35.046355,"lng":136.899317,"zip":"4760003"},{"town":"荒尾町","koaza":"カノ割","lat":35.044251,"lng":136.900719,"zip":"4760003"},{"town":"荒尾町","koaza":"南脇","lat":35.033965,"lng":136.898887,"zip":"4760003"},{"town":"養父町","koaza":"竹ケ谷","lat":34.988805,"lng":136.898449,"zip":"4770034"},{"town":"荒尾町","koaza":"源氏山","lat":35.028562,"lng":136.899578,"zip":"4760003"},{"town":"高横須賀町","koaza":"広脇","lat":35.007147,"lng":136.899524,"zip":"4770037"},{"town":"荒尾町","koaza":"イノ割","lat":35.034305,"lng":136.899286,"zip":"4760003"},{"town":"大田町","koaza":"与五八","lat":35.010789,"lng":136.899518,"zip":"4770031"},{"town":"南柴田町","koaza":"ルノ割","lat":35.064455,"lng":136.898887,"zip":"4760001"},{"town":"南柴田町","koaza":"ヌノ割","lat":35.065461,"lng":136.899897,"zip":"4760001"},{"town":"大田町","koaza":"柏ノ木","lat":35.014985,"lng":136.89902,"zip":"4770031"},{"town":"南柴田町","koaza":"ヲノ割","lat":35.0606,"lng":136.900156,"zip":"4760001"},{"town":"大田町","koaza":"細田","lat":35.017884,"lng":136.899771,"zip":"4770031"},{"town":"荒尾町","koaza":"中切","lat":35.034784,"lng":136.900115,"zip":"4760003"},{"town":"大田町","koaza":"城之腰","lat":35.014077,"lng":136.899847,"zip":"4770031"},{"town":"大田町","koaza":"庄之脇","lat":35.015504,"lng":136.900573,"zip":"4770031"},{"town":"南柴田町","koaza":"リノ割","lat":35.066322,"lng":136.90168,"zip":"4760001"},{"town":"加木屋町","koaza":"雉子野","lat":34.995999,"lng":136.901396,"zip":"4770032"},{"town":"名和町","koaza":"南埋田","lat":35.04903,"lng":136.900742,"zip":"4760002"},{"town":"大田町","koaza":"砂原","lat":35.007205,"lng":136.900574,"zip":"4770031"},{"town":"高横須賀町","koaza":"北人鎌","lat":35.005704,"lng":136.901305,"zip":"4770037"},{"town":"荒尾町","koaza":"一ツ根","lat":35.028305,"lng":136.899798,"zip":"4760003"},{"town":"大田町","koaza":"城山","lat":35.013074,"lng":136.900638,"zip":"4770031"},{"town":"高横須賀町","koaza":"人鎌","lat":35.004969,"lng":136.900246,"zip":"4770037"},{"town":"荒尾町","koaza":"加家","lat":35.036431,"lng":136.90057,"zip":"4760003"},{"town":"加木屋町","koaza":"竹ケ谷","lat":34.988147,"lng":136.902992,"zip":"4770032"},{"town":"大田町","koaza":"清水脇","lat":35.011177,"lng":136.900969,"zip":"4770031"},{"town":"大田町","koaza":"瀬戸山","lat":35.014904,"lng":136.901196,"zip":"4770031"},{"town":"荒尾町","koaza":"ヨノ割","lat":35.046753,"lng":136.901184,"zip":"4760003"},{"town":"南柴田町","koaza":"チノ割","lat":35.063569,"lng":136.901466,"zip":"4760001"},{"town":"加木屋町","koaza":"唐畑","lat":35.000211,"lng":136.902175,"zip":"4770032"},{"town":"加木屋町","koaza":"釜ケ谷","lat":34.984583,"lng":136.901775,"zip":"4770032"},{"town":"加木屋町","koaza":"与平山","lat":34.998158,"lng":136.901334,"zip":"4770032"},{"town":"加木屋町","koaza":"西御門","lat":35.001851,"lng":136.903454,"zip":"4770032"},{"town":"大田町","koaza":"張本","lat":35.017711,"lng":136.901638,"zip":"4770031"},{"town":"大田町","koaza":"樹木","lat":35.01429,"lng":136.901617,"zip":"4770031"},{"town":"南柴田町","koaza":"トノ割","lat":35.06122,"lng":136.901629,"zip":"4760001"},{"town":"荒尾町","koaza":"峰脇","lat":35.034915,"lng":136.902083,"zip":"4760003"},{"town":"荒尾町","koaza":"リノ割","lat":35.041162,"lng":136.902787,"zip":"4760003"},{"town":"荒尾町","koaza":"チノ割","lat":35.036939,"lng":136.901175,"zip":"4760003"},{"town":"大田町","koaza":"下畑","lat":35.013246,"lng":136.901842,"zip":"4770031"},{"town":"加木屋町","koaza":"順見","lat":34.995822,"lng":136.90277,"zip":"4770032"},{"town":"荒尾町","koaza":"上畑","lat":35.037123,"lng":136.901696,"zip":"4760003"},{"town":"大田町","koaza":"別所","lat":35.017157,"lng":136.902601,"zip":"4770031"},{"town":"加木屋町","koaza":"宮ノ脇","lat":35.007675,"lng":136.90289,"zip":"4770032"},{"town":"荒尾町","koaza":"ワノ割","lat":35.043629,"lng":136.902869,"zip":"4760003"},{"town":"南柴田町","koaza":"ヘノ割","lat":35.058802,"lng":136.90288,"zip":"4760001"},{"town":"荒尾町","koaza":"池下","lat":35.046311,"lng":136.903064,"zip":"4760003"},{"town":"南柴田町","koaza":"ロノ割","lat":35.067687,"lng":136.902996,"zip":"4760001"},{"town":"加木屋町","koaza":"郷中","lat":35.004318,"lng":136.903071,"zip":"4770032"},{"town":"大田町","koaza":"前畑","lat":35.014785,"lng":136.903662,"zip":"4770031"},{"town":"大田町","koaza":"高ノ御前","lat":35.015838,"lng":136.903206,"zip":"4770031"},{"town":"加木屋町","koaza":"編笠","lat":34.996878,"lng":136.90321,"zip":"4770032"},{"town":"加木屋町","koaza":"唐山","lat":34.990481,"lng":136.903587,"zip":"4770032"},{"town":"加木屋町","koaza":"仲新田","lat":34.992551,"lng":136.90398,"zip":"4770032"},{"town":"名和町","koaza":"北埋田","lat":35.055164,"lng":136.90355,"zip":"4760002"},{"town":"加木屋町","koaza":"留木","lat":34.983444,"lng":136.905076,"zip":"4770032"},{"town":"大田町","koaza":"曽根","lat":35.018989,"lng":136.902647,"zip":"4770031"},{"town":"荒尾町","koaza":"仏供田","lat":35.038156,"lng":136.903773,"zip":"4760003"},{"town":"南柴田町","koaza":"ハノ割","lat":35.064947,"lng":136.90256,"zip":"4760001"},{"town":"荒尾町","koaza":"船江","lat":35.041719,"lng":136.90285,"zip":"4760003"},{"town":"大田町","koaza":"山畑","lat":35.012261,"lng":136.903411,"zip":"4770031"},{"town":"加木屋町","koaza":"愛敬","lat":34.986193,"lng":136.904568,"zip":"4770032"},{"town":"加木屋町","koaza":"内堀","lat":35.009853,"lng":136.905379,"zip":"4770032"},{"town":"大田町","koaza":"石田","lat":35.017212,"lng":136.90425,"zip":"4770031"},{"town":"荒尾町","koaza":"上ノ山","lat":35.034894,"lng":136.904041,"zip":"4760003"},{"town":"加木屋町","koaza":"小清水","lat":34.9815,"lng":136.905358,"zip":"4770032"},{"town":"荒尾町","koaza":"神田","lat":35.035979,"lng":136.903464,"zip":"4760003"},{"town":"南柴田町","koaza":"ニノ割","lat":35.06104,"lng":136.905581,"zip":"4760001"},{"town":"大田町","koaza":"上前田","lat":35.014645,"lng":136.904543,"zip":"4770031"},{"town":"荒尾町","koaza":"西丸山","lat":35.04276,"lng":136.903616,"zip":"4760003"},{"town":"名和町","koaza":"一ノ下","lat":35.056351,"lng":136.90485,"zip":"4760002"},{"town":"荒尾町","koaza":"御幣土","lat":35.036422,"lng":136.9046,"zip":"4760003"},{"town":"荒尾町","koaza":"木下シ","lat":35.040968,"lng":136.904025,"zip":"4760003"},{"town":"名和町","koaza":"砂崎","lat":35.046552,"lng":136.906039,"zip":"4760002"},{"town":"荒尾町","koaza":"東丸山","lat":35.04354,"lng":136.90505,"zip":"4760003"},{"town":"加木屋町","koaza":"鈴井田","lat":34.999146,"lng":136.905045,"zip":"4770032"},{"town":"加木屋町","koaza":"柿畑","lat":34.988421,"lng":136.905563,"zip":"4770032"},{"town":"南柴田町","koaza":"ホノ割","lat":35.059624,"lng":136.903942,"zip":"4760001"},{"town":"名和町","koaza":"四ノ下","lat":35.04788,"lng":136.904339,"zip":"4760002"},{"town":"荒尾町","koaza":"山王前","lat":35.03829,"lng":136.905127,"zip":"4760003"},{"town":"加木屋町","koaza":"白拍子","lat":35.007647,"lng":136.905358,"zip":"4770032"},{"town":"加木屋町","koaza":"畑尻","lat":35.002057,"lng":136.90571,"zip":"4770032"},{"town":"富木島町","koaza":"八幡南","lat":35.022094,"lng":136.905761,"zip":"4760011"},{"town":"加木屋町","koaza":"一本木","lat":34.997076,"lng":136.906014,"zip":"4770032"},{"town":"加木屋町","koaza":"辻ケ花","lat":35.000079,"lng":136.905088,"zip":"4770032"},{"town":"富木島町","koaza":"西広","lat":35.012757,"lng":136.905292,"zip":"4760011"},{"town":"南柴田町","koaza":"イノ割","lat":35.067049,"lng":136.906748,"zip":"4760001"},{"town":"荒尾町","koaza":"大脇","lat":35.040781,"lng":136.905489,"zip":"4760003"},{"town":"加木屋町","koaza":"木之下","lat":35.004191,"lng":136.906138,"zip":"4770032"},{"town":"大田町","koaza":"替地","lat":35.014913,"lng":136.906027,"zip":"4770031"},{"town":"富木島町","koaza":"八丁ケ根","lat":35.023181,"lng":136.9066,"zip":"4760011"},{"town":"名和町","koaza":"一番割下","lat":35.065358,"lng":136.906958,"zip":"4760002"},{"town":"加木屋町","koaza":"西平子","lat":34.993593,"lng":136.906315,"zip":"4770032"},{"town":"富木島町","koaza":"北広","lat":35.013376,"lng":136.907266,"zip":"4760011"},{"town":"大田町","koaza":"下前田","lat":35.016231,"lng":136.90586,"zip":"4770031"},{"town":"富木島町","koaza":"八幡下","lat":35.021933,"lng":136.906338,"zip":"4760011"},{"town":"富木島町","koaza":"南広","lat":35.010933,"lng":136.906461,"zip":"4760011"},{"town":"加木屋町","koaza":"倉池","lat":34.99571,"lng":136.906621,"zip":"4770032"},{"town":"名和町","koaza":"二番割下","lat":35.063174,"lng":136.907996,"zip":"4760002"},{"town":"荒尾町","koaza":"天ノ根","lat":35.043458,"lng":136.907755,"zip":"4760003"},{"town":"富木島町","koaza":"内堀","lat":35.01432,"lng":136.907697,"zip":"4760011"},{"town":"荒尾町","koaza":"二本木","lat":35.035841,"lng":136.906765,"zip":"4760003"},{"town":"富木島町","koaza":"東広","lat":35.012647,"lng":136.907176,"zip":"4760011"},{"town":"加木屋町","koaza":"北平井","lat":34.990272,"lng":136.91005,"zip":"4770032"},{"town":"加木屋町","koaza":"大清水","lat":34.978648,"lng":136.908373,"zip":"4770032"},{"town":"荒尾町","koaza":"仲田","lat":35.034503,"lng":136.909005,"zip":"4760003"},{"town":"荒尾町","koaza":"丸根","lat":35.027969,"lng":136.908425,"zip":"4760003"},{"town":"加木屋町","koaza":"寺ノ前","lat":34.985165,"lng":136.907037,"zip":"4770032"},{"town":"名和町","koaza":"三番割下","lat":35.062007,"lng":136.908865,"zip":"4760002"},{"town":"名和町","koaza":"五ノ横物","lat":35.060175,"lng":136.906513,"zip":"4760002"},{"town":"名和町","koaza":"欠ノ脇","lat":35.04835,"lng":136.906527,"zip":"4760002"},{"town":"荒尾町","koaza":"清水入","lat":35.041968,"lng":136.907143,"zip":"4760003"},{"town":"荒尾町","koaza":"山王","lat":35.038365,"lng":136.907785,"zip":"4760003"},{"town":"荒尾町","koaza":"梨ノ木","lat":35.034535,"lng":136.906748,"zip":"4760003"},{"town":"荒尾町","koaza":"西廻間","lat":35.04225,"lng":136.906691,"zip":"4760003"},{"town":"富木島町","koaza":"東扇廻間","lat":35.021673,"lng":136.906973,"zip":"4760011"},{"town":"加木屋町","koaza":"南平井","lat":34.988324,"lng":136.906746,"zip":"4770032"},{"town":"名和町","koaza":"関東山","lat":35.04754,"lng":136.907964,"zip":"4760002"},{"town":"加木屋町","koaza":"大堀","lat":34.983602,"lng":136.907867,"zip":"4770032"},{"town":"加木屋町","koaza":"丑寅海戸","lat":34.997836,"lng":136.908141,"zip":"4770032"},{"town":"名和町","koaza":"家下","lat":35.051218,"lng":136.908295,"zip":"4760002"},{"town":"名和町","koaza":"五番割","lat":35.059855,"lng":136.908702,"zip":"4760002"},{"town":"加木屋町","koaza":"樋","lat":35.005182,"lng":136.908702,"zip":"4770032"},{"town":"荒尾町","koaza":"西屋敷","lat":35.037299,"lng":136.908285,"zip":"4760003"},{"town":"加木屋町","koaza":"腹太","lat":35.008539,"lng":136.908109,"zip":"4770032"},{"town":"加木屋町","koaza":"石田","lat":35.007256,"lng":136.907763,"zip":"4770032"},{"town":"名和町","koaza":"池西","lat":35.045675,"lng":136.90804,"zip":"4760002"},{"town":"荒尾町","koaza":"大城","lat":35.040599,"lng":136.908506,"zip":"4760003"},{"town":"加木屋町","koaza":"中平地","lat":34.981517,"lng":136.908439,"zip":"4770032"},{"town":"富木島町","koaza":"石根","lat":35.021558,"lng":136.908327,"zip":"4760011"},{"town":"名和町","koaza":"汐田西","lat":35.058015,"lng":136.910496,"zip":"4760002"},{"town":"荒尾町","koaza":"西前田面","lat":35.035633,"lng":136.907661,"zip":"4760003"},{"town":"名和町","koaza":"浜須賀","lat":35.049459,"lng":136.907666,"zip":"4760002"},{"town":"加木屋町","koaza":"円畑","lat":34.999309,"lng":136.909376,"zip":"4770032"},{"town":"加木屋町","koaza":"六反田","lat":35.002367,"lng":136.908998,"zip":"4770032"},{"town":"富木島町","koaza":"上り戸","lat":35.02303,"lng":136.908386,"zip":"4760011"},{"town":"荒尾町","koaza":"外山","lat":35.041698,"lng":136.908666,"zip":"4760003"},{"town":"名和町","koaza":"下新屋敷","lat":35.066737,"lng":136.908473,"zip":"4760002"},{"town":"名和町","koaza":"一番割中","lat":35.066093,"lng":136.91001,"zip":"4760002"},{"town":"荒尾町","koaza":"熊ノ山","lat":35.032957,"lng":136.908611,"zip":"4760003"},{"town":"富木島町","koaza":"南屋敷","lat":35.021261,"lng":136.909091,"zip":"4760011"},{"town":"名和町","koaza":"岡廻間","lat":35.046777,"lng":136.90809,"zip":"4760002"},{"town":"名和町","koaza":"神明","lat":35.049219,"lng":136.908145,"zip":"4760002"},{"town":"富木島町","koaza":"峰畑","lat":35.024603,"lng":136.909182,"zip":"4760011"},{"town":"加木屋町","koaza":"栗見坂","lat":34.992799,"lng":136.909562,"zip":"4770032"},{"town":"加木屋町","koaza":"東平井","lat":34.988932,"lng":136.909918,"zip":"4770032"},{"town":"荒尾町","koaza":"稲葉","lat":35.028353,"lng":136.909273,"zip":"4760003"},{"town":"名和町","koaza":"池末","lat":35.044011,"lng":136.908886,"zip":"4760002"},{"town":"名和町","koaza":"中屋敷","lat":35.051586,"lng":136.90915,"zip":"4760002"},{"town":"荒尾町","koaza":"片坂","lat":35.031251,"lng":136.909446,"zip":"4760003"},{"town":"名和町","koaza":"二番割中","lat":35.064509,"lng":136.909899,"zip":"4760002"},{"town":"名和町","koaza":"墓根山","lat":35.049696,"lng":136.910192,"zip":"4760002"},{"town":"加木屋町","koaza":"平子","lat":34.993844,"lng":136.910436,"zip":"4770032"},{"town":"荒尾町","koaza":"寄亀","lat":35.039508,"lng":136.909157,"zip":"4760003"},{"town":"荒尾町","koaza":"宮ノ川","lat":35.025764,"lng":136.910315,"zip":"4760003"},{"town":"名和町","koaza":"西高根","lat":35.047025,"lng":136.909913,"zip":"4760002"},{"town":"名和町","koaza":"森ノ上","lat":35.050754,"lng":136.909912,"zip":"4760002"},{"town":"名和町","koaza":"池東","lat":35.04554,"lng":136.909807,"zip":"4760002"},{"town":"荒尾町","koaza":"東屋敷","lat":35.037471,"lng":136.909763,"zip":"4760003"},{"town":"加木屋町","koaza":"中井道","lat":35.007392,"lng":136.911001,"zip":"4770032"},{"town":"富木島町","koaza":"中屋敷","lat":35.02285,"lng":136.909509,"zip":"4760011"},{"town":"加木屋町","koaza":"松之内","lat":35.005026,"lng":136.910347,"zip":"4770032"},{"town":"荒尾町","koaza":"中屋敷","lat":35.031808,"lng":136.910292,"zip":"4760003"},{"town":"加木屋町","koaza":"夕霞松","lat":35.000478,"lng":136.910601,"zip":"4770032"},{"town":"加木屋町","koaza":"七本松","lat":34.997517,"lng":136.911743,"zip":"4770032"},{"town":"加木屋町","koaza":"高見","lat":34.979241,"lng":136.910156,"zip":"4770032"},{"town":"名和町","koaza":"三番割中","lat":35.062856,"lng":136.911399,"zip":"4760002"},{"town":"加木屋町","koaza":"真崎","lat":35.00962,"lng":136.910357,"zip":"4770032"},{"town":"加木屋町","koaza":"富士塚","lat":35.002654,"lng":136.911333,"zip":"4770032"},{"town":"名和町","koaza":"新屋敷","lat":35.067707,"lng":136.91141,"zip":"4760002"},{"town":"名和町","koaza":"北脇","lat":35.052928,"lng":136.91073,"zip":"4760002"},{"town":"荒尾町","koaza":"別出シ","lat":35.041207,"lng":136.910104,"zip":"4760003"},{"town":"富木島町","koaza":"前田面","lat":35.022667,"lng":136.911188,"zip":"4760011"},{"town":"名和町","koaza":"荒尾堺","lat":35.043094,"lng":136.909931,"zip":"4760002"},{"town":"加木屋町","koaza":"石塚","lat":34.977283,"lng":136.911031,"zip":"4770032"},{"town":"名和町","koaza":"三ケ月外","lat":35.054541,"lng":136.910072,"zip":"4760002"},{"town":"名和町","koaza":"奥平戸","lat":35.044081,"lng":136.910087,"zip":"4760002"},{"town":"荒尾町","koaza":"畑田","lat":35.027962,"lng":136.91104,"zip":"4760003"},{"town":"荒尾町","koaza":"西川","lat":35.029352,"lng":136.910627,"zip":"4760003"},{"town":"荒尾町","koaza":"向前田","lat":35.033852,"lng":136.911691,"zip":"4760003"},{"town":"名和町","koaza":"岡前","lat":35.050569,"lng":136.911474,"zip":"4760002"},{"town":"名和町","koaza":"狐廻間","lat":35.047675,"lng":136.911157,"zip":"4760002"},{"town":"加木屋町","koaza":"美女ケ脇","lat":34.99947,"lng":136.910787,"zip":"4770032"},{"town":"名和町","koaza":"南三ケ月","lat":35.055726,"lng":136.911457,"zip":"4760002"},{"town":"富木島町","koaza":"北屋敷","lat":35.024667,"lng":136.911008,"zip":"4760011"},{"town":"名和町","koaza":"平戸口","lat":35.044653,"lng":136.910899,"zip":"4760002"},{"town":"加木屋町","koaza":"東島田","lat":34.987155,"lng":136.912819,"zip":"4770032"},{"town":"名和町","koaza":"東高根","lat":35.046781,"lng":136.910881,"zip":"4760002"},{"town":"荒尾町","koaza":"平古","lat":35.042367,"lng":136.910675,"zip":"4760003"},{"town":"名和町","koaza":"北三ケ月","lat":35.057165,"lng":136.911484,"zip":"4760002"},{"town":"加木屋町","koaza":"陀々法師","lat":34.975249,"lng":136.913662,"zip":"4770032"},{"town":"加木屋町","koaza":"東大堀","lat":34.986279,"lng":136.914141,"zip":"4770032"},{"town":"名和町","koaza":"四番割","lat":35.060917,"lng":136.911062,"zip":"4760002"},{"town":"名和町","koaza":"吹付","lat":35.049244,"lng":136.911276,"zip":"4760002"},{"town":"名和町","koaza":"一番割上","lat":35.066662,"lng":136.911747,"zip":"4760002"},{"town":"荒尾町","koaza":"西ノ木戸","lat":35.032841,"lng":136.912579,"zip":"4760003"},{"town":"荒尾町","koaza":"恵毛","lat":35.037676,"lng":136.911151,"zip":"4760003"},{"town":"名和町","koaza":"榎戸","lat":35.054744,"lng":136.911846,"zip":"4760002"},{"town":"荒尾町","koaza":"大恵毛","lat":35.039664,"lng":136.911445,"zip":"4760003"},{"town":"加木屋町","koaza":"泡池","lat":34.981146,"lng":136.913129,"zip":"4770032"},{"town":"荒尾町","koaza":"下油田","lat":35.039884,"lng":136.912354,"zip":"4760003"},{"town":"荒尾町","koaza":"北見田","lat":35.025985,"lng":136.911804,"zip":"4760003"},{"town":"加木屋町","koaza":"向山","lat":35.009064,"lng":136.91165,"zip":"4770032"},{"town":"荒尾町","koaza":"油田","lat":35.042146,"lng":136.91203,"zip":"4760003"},{"town":"加木屋町","koaza":"三ツ池","lat":34.990046,"lng":136.91352,"zip":"4770032"},{"town":"荒尾町","koaza":"本郷","lat":35.036058,"lng":136.912124,"zip":"4760003"},{"town":"加木屋町","koaza":"旭","lat":35.011243,"lng":136.911541,"zip":"4770032"},{"town":"名和町","koaza":"堂ノ前","lat":35.05225,"lng":136.912026,"zip":"4760002"},{"town":"荒尾町","koaza":"前田","lat":35.034363,"lng":136.911366,"zip":"4760003"},{"town":"荒尾町","koaza":"木戸畑","lat":35.027686,"lng":136.912166,"zip":"4760003"},{"town":"名和町","koaza":"二番割上","lat":35.065201,"lng":136.91338,"zip":"4760002"},{"town":"加木屋町","koaza":"長根","lat":34.996503,"lng":136.913787,"zip":"4770032"},{"town":"名和町","koaza":"向廻間","lat":35.049104,"lng":136.91272,"zip":"4760002"},{"town":"名和町","koaza":"東岨","lat":35.045578,"lng":136.911922,"zip":"4760002"},{"town":"加木屋町","koaza":"鎌吉良根","lat":34.9924,"lng":136.91465,"zip":"4770032"},{"town":"名和町","koaza":"南之山","lat":35.043018,"lng":136.913856,"zip":"4760002"},{"town":"名和町","koaza":"向イ","lat":35.050697,"lng":136.9122,"zip":"4760002"},{"town":"荒尾町","koaza":"福田地","lat":35.038637,"lng":136.912136,"zip":"4760003"},{"town":"荒尾町","koaza":"坂本","lat":35.035155,"lng":136.912803,"zip":"4760003"},{"town":"荒尾町","koaza":"水深","lat":35.025826,"lng":136.913088,"zip":"4760003"},{"town":"加木屋町","koaza":"定納","lat":35.000945,"lng":136.912898,"zip":"4770032"},{"town":"名和町","koaza":"塚森","lat":35.05399,"lng":136.912629,"zip":"4760002"},{"town":"荒尾町","koaza":"金山","lat":35.030829,"lng":136.913538,"zip":"4760003"},{"town":"名和町","koaza":"背戸田","lat":35.057953,"lng":136.912815,"zip":"4760002"},{"town":"荒尾町","koaza":"東川","lat":35.028838,"lng":136.913013,"zip":"4760003"},{"town":"名和町","koaza":"三番割上","lat":35.06393,"lng":136.913899,"zip":"4760002"},{"town":"名和町","koaza":"寄山","lat":35.046735,"lng":136.912775,"zip":"4760002"},{"town":"荒尾町","koaza":"朝日出","lat":35.03644,"lng":136.912924,"zip":"4760003"},{"town":"加木屋町","koaza":"南鹿持","lat":34.977699,"lng":136.915069,"zip":"4770032"},{"town":"荒尾町","koaza":"遠鐘","lat":35.041461,"lng":136.913031,"zip":"4760003"},{"town":"富木島町","koaza":"船島","lat":35.012541,"lng":136.913605,"zip":"4760011"},{"town":"加木屋町","koaza":"山之脇","lat":35.003384,"lng":136.915775,"zip":"4770032"},{"town":"荒尾町","koaza":"若宮","lat":35.039157,"lng":136.912991,"zip":"4760003"},{"town":"名和町","koaza":"北本郷","lat":35.056497,"lng":136.913608,"zip":"4760002"},{"town":"名和町","koaza":"南本郷","lat":35.055151,"lng":136.91319,"zip":"4760002"},{"town":"名和町","koaza":"細田","lat":35.044475,"lng":136.913545,"zip":"4760002"},{"town":"名和町","koaza":"船津","lat":35.052552,"lng":136.913129,"zip":"4760002"},{"town":"富木島町","koaza":"南島","lat":35.015812,"lng":136.914842,"zip":"4760011"},{"town":"加木屋町","koaza":"丸根","lat":34.97205,"lng":136.913829,"zip":"4770032"},{"town":"名和町","koaza":"高ノ宮前","lat":35.051081,"lng":136.913462,"zip":"4760002"},{"town":"名和町","koaza":"一本木","lat":35.047745,"lng":136.914152,"zip":"4760002"},{"town":"加木屋町","koaza":"菊尾","lat":35.010889,"lng":136.915052,"zip":"4770032"},{"town":"名和町","koaza":"一ノ井上","lat":35.067087,"lng":136.913394,"zip":"4760002"},{"town":"名和町","koaza":"一番畑","lat":35.058747,"lng":136.913642,"zip":"4760002"},{"town":"荒尾町","koaza":"寺下","lat":35.038072,"lng":136.91386,"zip":"4760003"},{"town":"加木屋町","koaza":"論田","lat":34.988858,"lng":136.916153,"zip":"4770032"},{"town":"荒尾町","koaza":"泉","lat":35.039414,"lng":136.914729,"zip":"4760003"},{"town":"荒尾町","koaza":"宮裏","lat":35.039492,"lng":136.914911,"zip":"4760003"},{"town":"富木島町","koaza":"寺下","lat":35.019273,"lng":136.913555,"zip":"4760011"},{"town":"富木島町","koaza":"北島","lat":35.017671,"lng":136.915616,"zip":"4760011"},{"town":"富木島町","koaza":"前外面","lat":35.019828,"lng":136.913652,"zip":"4760011"},{"town":"荒尾町","koaza":"祢崎","lat":35.028484,"lng":136.913966,"zip":"4760003"},{"town":"名和町","koaza":"馬坂","lat":35.049261,"lng":136.913643,"zip":"4760002"},{"town":"富木島町","koaza":"外面","lat":35.023854,"lng":136.915379,"zip":"4760011"},{"town":"名和町","koaza":"細田廻間","lat":35.046701,"lng":136.913991,"zip":"4760002"},{"town":"名和町","koaza":"西垣内","lat":35.054302,"lng":136.913917,"zip":"4760002"},{"town":"名和町","koaza":"北之山","lat":35.044013,"lng":136.915311,"zip":"4760002"},{"town":"加木屋町","koaza":"御林","lat":35.007275,"lng":136.917173,"zip":"4770032"},{"town":"富木島町","koaza":"後田","lat":35.025978,"lng":136.914125,"zip":"4760011"},{"town":"名和町","koaza":"二三ノ井上","lat":35.065415,"lng":136.914144,"zip":"4760002"},{"town":"名和町","koaza":"涼戸","lat":35.053101,"lng":136.91496,"zip":"4760002"},{"town":"荒尾町","koaza":"福部","lat":35.034596,"lng":136.914388,"zip":"4760003"},{"town":"名和町","koaza":"寅新田","lat":35.045723,"lng":136.915292,"zip":"4760002"},{"town":"荒尾町","koaza":"出口","lat":35.037156,"lng":136.914516,"zip":"4760003"},{"town":"名和町","koaza":"山東","lat":35.051357,"lng":136.914551,"zip":"4760002"},{"town":"富木島町","koaza":"向イ","lat":35.020649,"lng":136.915228,"zip":"4760011"},{"town":"荒尾町","koaza":"勝山","lat":35.041128,"lng":136.914501,"zip":"4760003"},{"town":"荒尾町","koaza":"向屋敷","lat":35.035698,"lng":136.91457,"zip":"4760003"},{"town":"名和町","koaza":"トゝメキ","lat":35.056952,"lng":136.915097,"zip":"4760002"},{"town":"名和町","koaza":"石塚","lat":35.049145,"lng":136.915353,"zip":"4760002"},{"town":"荒尾町","koaza":"明倫","lat":35.026952,"lng":136.916763,"zip":"4760003"},{"town":"名和町","koaza":"戸石","lat":35.048129,"lng":136.915505,"zip":"4760002"},{"town":"荒尾町","koaza":"奥油田","lat":35.04241,"lng":136.914916,"zip":"4760003"},{"town":"名和町","koaza":"奥油田","lat":35.043441,"lng":136.91521,"zip":"4760002"},{"town":"荒尾町","koaza":"寺東","lat":35.038915,"lng":136.915891,"zip":"4760003"},{"town":"名和町","koaza":"東垣内","lat":35.053549,"lng":136.915631,"zip":"4760002"},{"town":"富木島町","koaza":"前田","lat":35.014329,"lng":136.914719,"zip":"4760011"},{"town":"荒尾町","koaza":"狐狭間","lat":35.040416,"lng":136.916234,"zip":"4760003"},{"town":"荒尾町","koaza":"脇ノ田","lat":35.030541,"lng":136.914587,"zip":"4760003"},{"town":"名和町","koaza":"龍ノ脇","lat":35.055272,"lng":136.915765,"zip":"4760002"},{"town":"荒尾町","koaza":"下平井","lat":35.036774,"lng":136.916263,"zip":"4760003"},{"town":"名和町","koaza":"蓮池","lat":35.059344,"lng":136.916119,"zip":"4760002"},{"town":"富木島町","koaza":"東脇","lat":35.013861,"lng":136.916283,"zip":"4760011"},{"town":"加木屋町","koaza":"北鹿持","lat":34.979215,"lng":136.917472,"zip":"4770032"},{"town":"荒尾町","koaza":"宮田","lat":35.033173,"lng":136.915197,"zip":"4760003"},{"town":"荒尾町","koaza":"上平井","lat":35.038248,"lng":136.916203,"zip":"4760003"},{"town":"加木屋町","koaza":"小家ノ脇","lat":34.97524,"lng":136.917165,"zip":"4770032"},{"town":"富木島町","koaza":"森前","lat":35.015137,"lng":136.916548,"zip":"4760011"},{"town":"名和町","koaza":"日向根","lat":35.047162,"lng":136.916053,"zip":"4760002"},{"town":"荒尾町","koaza":"下り松","lat":35.031569,"lng":136.91627,"zip":"4760003"},{"town":"荒尾町","koaza":"寿鎌","lat":35.03611,"lng":136.916836,"zip":"4760003"},{"town":"名和町","koaza":"石田","lat":35.057904,"lng":136.916049,"zip":"4760002"},{"town":"名和町","koaza":"二反表","lat":35.050806,"lng":136.915897,"zip":"4760002"},{"town":"荒尾町","koaza":"北中ノ山","lat":35.034255,"lng":136.916693,"zip":"4760003"},{"town":"富木島町","koaza":"勘七脇","lat":35.019731,"lng":136.917644,"zip":"4760011"},{"town":"富木島町","koaza":"貴船","lat":35.024522,"lng":136.918122,"zip":"4760011"},{"town":"荒尾町","koaza":"嶌越","lat":35.028235,"lng":136.916208,"zip":"4760003"},{"town":"荒尾町","koaza":"小錆","lat":35.034137,"lng":136.918199,"zip":"4760003"},{"town":"名和町","koaza":"向田","lat":35.052983,"lng":136.916259,"zip":"4760002"},{"town":"名和町","koaza":"姥ケ懐","lat":35.056435,"lng":136.917562,"zip":"4760002"},{"town":"富木島町","koaza":"新呂島","lat":35.012795,"lng":136.916348,"zip":"4760011"},{"town":"富木島町","koaza":"長田","lat":35.022345,"lng":136.916805,"zip":"4760011"},{"town":"荒尾町","koaza":"北遠鐘","lat":35.041913,"lng":136.917484,"zip":"4760003"},{"town":"名和町","koaza":"戸石東","lat":35.046274,"lng":136.916447,"zip":"4760002"},{"town":"名和町","koaza":"石谷","lat":35.060121,"lng":136.91619,"zip":"4760002"},{"town":"荒尾町","koaza":"藤治山","lat":35.032951,"lng":136.917368,"zip":"4760003"},{"town":"名和町","koaza":"八幡前","lat":35.055287,"lng":136.916985,"zip":"4760002"},{"town":"名和町","koaza":"北向イ山","lat":35.050345,"lng":136.916752,"zip":"4760002"},{"town":"富木島町","koaza":"植ノ口","lat":35.017613,"lng":136.916561,"zip":"4760011"},{"town":"名和町","koaza":"向イ山","lat":35.049603,"lng":136.917322,"zip":"4760002"},{"town":"名和町","koaza":"南神田","lat":35.048535,"lng":136.91708,"zip":"4760002"},{"town":"荒尾町","koaza":"向山","lat":35.030353,"lng":136.91782,"zip":"4760003"},{"town":"富木島町","koaza":"呂島","lat":35.011536,"lng":136.916821,"zip":"4760011"},{"town":"名和町","koaza":"北寺廻間","lat":35.052166,"lng":136.91718,"zip":"4760002"},{"town":"名和町","koaza":"焼山","lat":35.045303,"lng":136.917813,"zip":"4760002"},{"town":"名和町","koaza":"後酉","lat":35.062849,"lng":136.919924,"zip":"4760002"},{"town":"名和町","koaza":"南廻間","lat":35.046261,"lng":136.91685,"zip":"4760002"},{"town":"名和町","koaza":"寺徳","lat":35.044403,"lng":136.91744,"zip":"4760002"},{"town":"名和町","koaza":"東田","lat":35.054457,"lng":136.918013,"zip":"4760002"},{"town":"荒尾町","koaza":"蜂ケ尻","lat":35.031773,"lng":136.918705,"zip":"4760003"},{"town":"荒尾町","koaza":"土取","lat":35.028686,"lng":136.917963,"zip":"4760003"},{"town":"名和町","koaza":"南玄蕃","lat":35.057299,"lng":136.917768,"zip":"4760002"},{"town":"荒尾町","koaza":"見幕","lat":35.038947,"lng":136.917155,"zip":"4760003"},{"town":"富木島町","koaza":"十二塚","lat":35.012094,"lng":136.918463,"zip":"4760011"},{"town":"名和町","koaza":"口小松揃","lat":35.047365,"lng":136.91828,"zip":"4760002"},{"town":"富木島町","koaza":"藤島","lat":35.013997,"lng":136.917734,"zip":"4760011"},{"town":"名和町","koaza":"南寺廻間","lat":35.050655,"lng":136.918344,"zip":"4760002"},{"town":"加木屋町","koaza":"冬至池","lat":34.976388,"lng":136.919469,"zip":"4770032"},{"town":"富木島町","koaza":"北太子","lat":35.01628,"lng":136.917804,"zip":"4760011"},{"town":"名和町","koaza":"欠下","lat":35.058917,"lng":136.918501,"zip":"4760002"},{"town":"荒尾町","koaza":"馬池","lat":35.039635,"lng":136.917456,"zip":"4760003"},{"town":"荒尾町","koaza":"鏡山","lat":35.035103,"lng":136.918623,"zip":"4760003"},{"town":"荒尾町","koaza":"山ノ神前","lat":35.04153,"lng":136.917886,"zip":"4760003"},{"town":"荒尾町","koaza":"登立","lat":35.037521,"lng":136.917849,"zip":"4760003"},{"town":"名和町","koaza":"平松","lat":35.04586,"lng":136.918336,"zip":"4760002"},{"town":"名和町","koaza":"西三宅山","lat":35.05378,"lng":136.917679,"zip":"4760002"},{"town":"富木島町","koaza":"池下","lat":35.011483,"lng":136.918876,"zip":"4760011"},{"town":"荒尾町","koaza":"義呂","lat":35.036876,"lng":136.917789,"zip":"4760003"},{"town":"富木島町","koaza":"山中","lat":35.021544,"lng":136.92062,"zip":"4760011"},{"town":"荒尾町","koaza":"仏田","lat":35.040977,"lng":136.918237,"zip":"4760003"},{"town":"荒尾町","koaza":"真池","lat":35.041626,"lng":136.91916,"zip":"4760003"},{"town":"荒尾町","koaza":"後山","lat":35.033375,"lng":136.920151,"zip":"4760003"},{"town":"名和町","koaza":"北三宅山","lat":35.054135,"lng":136.918338,"zip":"4760002"},{"town":"富木島町","koaza":"南太子","lat":35.014985,"lng":136.919055,"zip":"4760011"},{"town":"名和町","koaza":"切戸","lat":35.060992,"lng":136.918797,"zip":"4760002"},{"town":"荒尾町","koaza":"小池","lat":35.029652,"lng":136.920739,"zip":"4760003"},{"town":"荒尾町","koaza":"才道","lat":35.025609,"lng":136.918551,"zip":"4760003"},{"town":"名和町","koaza":"八幡東","lat":35.055955,"lng":136.918831,"zip":"4760002"},{"town":"荒尾町","koaza":"嫁田","lat":35.037458,"lng":136.91838,"zip":"4760003"},{"town":"富木島町","koaza":"新石根","lat":35.016941,"lng":136.920748,"zip":"4760011"},{"town":"富木島町","koaza":"手代","lat":35.014529,"lng":136.921882,"zip":"4760011"},{"town":"富木島町","koaza":"奥新田","lat":35.013513,"lng":136.918908,"zip":"4760011"},{"town":"荒尾町","koaza":"寺前","lat":35.02754,"lng":136.918008,"zip":"4760003"},{"town":"名和町","koaza":"北神田","lat":35.048511,"lng":136.919511,"zip":"4760002"},{"town":"名和町","koaza":"口前後","lat":35.049744,"lng":136.919349,"zip":"4760002"},{"town":"荒尾町","koaza":"池ノ平子","lat":35.038974,"lng":136.919469,"zip":"4760003"},{"town":"名和町","koaza":"平山","lat":35.0567,"lng":136.919316,"zip":"4760002"},{"town":"名和町","koaza":"中小松揃","lat":35.047736,"lng":136.919135,"zip":"4760002"},{"town":"荒尾町","koaza":"唐ノ山","lat":35.040186,"lng":136.918957,"zip":"4760003"},{"town":"名和町","koaza":"女郎田","lat":35.055599,"lng":136.920257,"zip":"4760002"},{"town":"名和町","koaza":"南三宅山","lat":35.050911,"lng":136.919299,"zip":"4760002"},{"town":"名和町","koaza":"北玄蕃","lat":35.058313,"lng":136.919769,"zip":"4760002"},{"town":"荒尾町","koaza":"下平子","lat":35.037668,"lng":136.919461,"zip":"4760003"},{"town":"名和町","koaza":"蛇骨","lat":35.045076,"lng":136.919473,"zip":"4760002"},{"town":"富木島町","koaza":"池脇","lat":35.009927,"lng":136.920038,"zip":"4760011"},{"town":"荒尾町","koaza":"藤左エ門起","lat":35.036397,"lng":136.91963,"zip":"4760003"},{"town":"名和町","koaza":"東三宅山","lat":35.053399,"lng":136.91993,"zip":"4760002"},{"town":"名和町","koaza":"出崎","lat":35.054695,"lng":136.920612,"zip":"4760002"},{"town":"荒尾町","koaza":"曽山","lat":35.040321,"lng":136.921864,"zip":"4760003"},{"town":"名和町","koaza":"下大廻間","lat":35.059624,"lng":136.920013,"zip":"4760002"},{"town":"名和町","koaza":"南小倉","lat":35.042501,"lng":136.919526,"zip":"4760002"},{"town":"名和町","koaza":"山畑","lat":35.045697,"lng":136.921224,"zip":"4760002"},{"town":"富木島町","koaza":"西才道","lat":35.024319,"lng":136.920649,"zip":"4760011"},{"town":"名和町","koaza":"汐田東","lat":35.061662,"lng":136.92036,"zip":"4760002"},{"town":"荒尾町","koaza":"洞ケ山","lat":35.031154,"lng":136.921618,"zip":"4760003"},{"town":"名和町","koaza":"蛇骨山","lat":35.044077,"lng":136.920419,"zip":"4760002"},{"town":"富木島町","koaza":"石ケ根","lat":35.018616,"lng":136.920221,"zip":"4760011"},{"town":"名和町","koaza":"緑陽台","lat":35.057038,"lng":136.921511,"zip":"4760002"},{"town":"荒尾町","koaza":"石根山","lat":35.035135,"lng":136.920571,"zip":"4760003"},{"town":"名和町","koaza":"秋葉","lat":35.050638,"lng":136.92066,"zip":"4760002"},{"town":"名和町","koaza":"口平地","lat":35.048851,"lng":136.920987,"zip":"4760002"},{"town":"荒尾町","koaza":"岩ノ脇","lat":35.027131,"lng":136.920896,"zip":"4760003"},{"town":"名和町","koaza":"奥小松揃","lat":35.046251,"lng":136.92092,"zip":"4760002"},{"town":"名和町","koaza":"北小倉","lat":35.042132,"lng":136.921127,"zip":"4760002"},{"town":"荒尾町","koaza":"細高根","lat":35.039152,"lng":136.921258,"zip":"4760003"},{"town":"富木島町","koaza":"北才道","lat":35.024863,"lng":136.92218,"zip":"4760011"},{"town":"名和町","koaza":"三ツ屋","lat":35.060332,"lng":136.921323,"zip":"4760002"},{"town":"荒尾町","koaza":"石根峠","lat":35.035382,"lng":136.921944,"zip":"4760003"},{"town":"荒尾町","koaza":"太夫狭間","lat":35.033145,"lng":136.921186,"zip":"4760003"},{"town":"名和町","koaza":"西中嶺","lat":35.053919,"lng":136.921165,"zip":"4760002"},{"town":"名和町","koaza":"西前郷","lat":35.05008,"lng":136.921981,"zip":"4760002"},{"town":"荒尾町","koaza":"南奥山","lat":35.033234,"lng":136.925754,"zip":"4760003"},{"town":"名和町","koaza":"大根","lat":35.058515,"lng":136.921803,"zip":"4760002"},{"town":"名和町","koaza":"中前後","lat":35.049178,"lng":136.92179,"zip":"4760002"},{"town":"名和町","koaza":"山神戸","lat":35.055024,"lng":136.922019,"zip":"4760002"},{"town":"名和町","koaza":"東中嶺","lat":35.052115,"lng":136.922406,"zip":"4760002"},{"town":"荒尾町","koaza":"赤羽根","lat":35.037591,"lng":136.921171,"zip":"4760003"},{"town":"荒尾町","koaza":"笹根","lat":35.032983,"lng":136.922552,"zip":"4760003"},{"town":"富木島町","koaza":"山田","lat":35.018533,"lng":136.92318,"zip":"4760011"},{"town":"名和町","koaza":"濁池","lat":35.045818,"lng":136.921666,"zip":"4760002"},{"town":"富木島町","koaza":"東才道","lat":35.023996,"lng":136.922326,"zip":"4760011"},{"town":"名和町","koaza":"寝覚","lat":35.062619,"lng":136.92363,"zip":"4760002"},{"town":"荒尾町","koaza":"木田橋","lat":35.035095,"lng":136.922941,"zip":"4760003"},{"town":"名和町","koaza":"城谷","lat":35.046827,"lng":136.922224,"zip":"4760002"},{"town":"名和町","koaza":"西萌山","lat":35.051316,"lng":136.922634,"zip":"4760002"},{"town":"名和町","koaza":"中平地","lat":35.048078,"lng":136.922371,"zip":"4760002"},{"town":"荒尾町","koaza":"作山","lat":35.034405,"lng":136.922907,"zip":"4760003"},{"town":"富木島町","koaza":"道才","lat":35.020807,"lng":136.922836,"zip":"4760011"},{"town":"名和町","koaza":"平子","lat":35.042836,"lng":136.924249,"zip":"4760002"},{"town":"荒尾町","koaza":"下笹根","lat":35.032447,"lng":136.922867,"zip":"4760003"},{"town":"荒尾町","koaza":"甚造","lat":35.024282,"lng":136.92421,"zip":"4760003"},{"town":"荒尾町","koaza":"惣山和田","lat":35.039094,"lng":136.922936,"zip":"4760003"},{"town":"荒尾町","koaza":"社張","lat":35.026934,"lng":136.922403,"zip":"4760003"},{"town":"名和町","koaza":"座頭ケ峰","lat":35.045016,"lng":136.922535,"zip":"4760002"},{"town":"名和町","koaza":"中大廻間","lat":35.059877,"lng":136.923008,"zip":"4760002"},{"town":"名和町","koaza":"前郷","lat":35.049574,"lng":136.924356,"zip":"4760002"},{"town":"富木島町","koaza":"藤ノ棚","lat":35.013472,"lng":136.92301,"zip":"4760011"},{"town":"荒尾町","koaza":"大頭","lat":35.025329,"lng":136.924729,"zip":"4760003"},{"town":"名和町","koaza":"奥平地","lat":35.047344,"lng":136.92395,"zip":"4760002"},{"town":"富木島町","koaza":"新道才","lat":35.020945,"lng":136.925554,"zip":"4760011"},{"town":"荒尾町","koaza":"諸ノ木","lat":35.028753,"lng":136.924981,"zip":"4760003"},{"town":"荒尾町","koaza":"中大脇","lat":35.037873,"lng":136.922785,"zip":"4760003"},{"town":"荒尾町","koaza":"奥曽山","lat":35.039409,"lng":136.924227,"zip":"4760003"},{"town":"荒尾町","koaza":"下大脇","lat":35.031864,"lng":136.925128,"zip":"4760003"},{"town":"名和町","koaza":"太佐山","lat":35.05499,"lng":136.922665,"zip":"4760002"},{"town":"荒尾町","koaza":"大高根","lat":35.028119,"lng":136.926446,"zip":"4760003"},{"town":"荒尾町","koaza":"雨堤","lat":35.029394,"lng":136.926293,"zip":"4760003"},{"town":"富木島町","koaza":"西山田","lat":35.016438,"lng":136.924761,"zip":"4760011"},{"town":"名和町","koaza":"東萌山","lat":35.050629,"lng":136.924725,"zip":"4760002"},{"town":"名和町","koaza":"中首羅","lat":35.0574,"lng":136.925023,"zip":"4760002"},{"town":"名和町","koaza":"長生","lat":35.052449,"lng":136.92468,"zip":"4760002"},{"town":"富木島町","koaza":"新藤棚","lat":35.01378,"lng":136.924714,"zip":"4760011"},{"town":"荒尾町","koaza":"犬久利","lat":35.036678,"lng":136.924686,"zip":"4760003"},{"town":"荒尾町","koaza":"山ノ田","lat":35.027343,"lng":136.926013,"zip":"4760003"},{"town":"名和町","koaza":"茂り","lat":35.043314,"lng":136.925582,"zip":"4760002"},{"town":"荒尾町","koaza":"惣山池","lat":35.037367,"lng":136.92497,"zip":"4760003"},{"town":"名和町","koaza":"水田","lat":35.048463,"lng":136.923912,"zip":"4760002"},{"town":"名和町","koaza":"南蕨","lat":35.041563,"lng":136.926219,"zip":"4760002"},{"town":"名和町","koaza":"法秀","lat":35.047835,"lng":136.924802,"zip":"4760002"},{"town":"荒尾町","koaza":"奥山下","lat":35.035035,"lng":136.924743,"zip":"4760003"},{"town":"名和町","koaza":"奥前後","lat":35.046222,"lng":136.926348,"zip":"4760002"},{"town":"名和町","koaza":"膳棚","lat":35.053968,"lng":136.925435,"zip":"4760002"},{"town":"名和町","koaza":"上大廻間","lat":35.057904,"lng":136.925953,"zip":"4760002"},{"town":"名和町","koaza":"六反歩","lat":35.055989,"lng":136.925535,"zip":"4760002"},{"town":"荒尾町","koaza":"大狭間","lat":35.038785,"lng":136.925673,"zip":"4760003"},{"town":"名和町","koaza":"一枚畑","lat":35.049262,"lng":136.927149,"zip":"4760002"},{"town":"富木島町","koaza":"新山田","lat":35.01837,"lng":136.927269,"zip":"4760011"},{"town":"荒尾町","koaza":"東犬久利","lat":35.035165,"lng":136.926007,"zip":"4760003"},{"town":"名和町","koaza":"半六坊","lat":35.051452,"lng":136.927222,"zip":"4760002"},{"town":"荒尾町","koaza":"上桐ノ木","lat":35.025544,"lng":136.930274,"zip":"4760003"},{"town":"荒尾町","koaza":"奥大狭間","lat":35.037285,"lng":136.927272,"zip":"4760003"},{"town":"名和町","koaza":"北池上","lat":35.053633,"lng":136.927358,"zip":"4760002"},{"town":"名和町","koaza":"南池上","lat":35.052529,"lng":136.927079,"zip":"4760002"},{"town":"富木島町","koaza":"東山田","lat":35.015187,"lng":136.928118,"zip":"4760011"},{"town":"名和町","koaza":"上首羅","lat":35.056004,"lng":136.927231,"zip":"4760002"},{"town":"荒尾町","koaza":"奥山","lat":35.034103,"lng":136.92816,"zip":"4760003"},{"town":"名和町","koaza":"蕨山","lat":35.0413,"lng":136.929523,"zip":"4760002"},{"town":"名和町","koaza":"北蕨","lat":35.043737,"lng":136.928486,"zip":"4760002"},{"town":"荒尾町","koaza":"壱町畑","lat":35.022416,"lng":136.928759,"zip":"4760003"},{"town":"富木島町","koaza":"新藤塚","lat":35.017795,"lng":136.930216,"zip":"4760011"},{"town":"荒尾町","koaza":"下桐ノ木","lat":35.023245,"lng":136.929614,"zip":"4760003"},{"town":"名和町","koaza":"山ノ田","lat":35.039603,"lng":136.927992,"zip":"4760002"},{"town":"富木島町","koaza":"藤塚","lat":35.021291,"lng":136.92899,"zip":"4760011"},{"town":"富木島町","koaza":"葭野","lat":35.012691,"lng":136.932476,"zip":"4760011"},{"town":"富木島町","koaza":"西長口","lat":35.018502,"lng":136.93172,"zip":"4760011"},{"town":"名和町","koaza":"横道","lat":35.038863,"lng":136.930943,"zip":"4760002"},{"town":"名和町","koaza":"奥山之田","lat":35.039201,"lng":136.929953,"zip":"4760002"},{"town":"荒尾町","koaza":"長口","lat":35.021714,"lng":136.93195,"zip":"4760003"},{"town":"富木島町","koaza":"東山","lat":35.014806,"lng":136.93276,"zip":"4760011"},{"town":"荒尾町","koaza":"源太池","lat":35.023391,"lng":136.932687,"zip":"4760003"},{"town":"富木島町","koaza":"新長口","lat":35.015787,"lng":136.934013,"zip":"4760011"},{"town":"富木島町","koaza":"大清水","lat":35.012921,"lng":136.935371,"zip":"4760011"},{"town":"富木島町","koaza":"東長口","lat":35.015188,"lng":136.937426,"zip":"4760011"}]