[{"town":"青塚町一丁目","koaza":"","lat":35.199144,"lng":136.765329,"zip":"4960001"},{"town":"青塚町二丁目","koaza":"","lat":35.198359,"lng":136.769974,"zip":"4960001"},{"town":"青塚町三丁目","koaza":"","lat":35.198205,"lng":136.765099,"zip":"4960001"},{"town":"青塚町四丁目","koaza":"","lat":35.197451,"lng":136.769132,"zip":"4960001"},{"town":"青塚町五丁目","koaza":"","lat":35.196271,"lng":136.764803,"zip":"4960001"},{"town":"青塚町六丁目","koaza":"","lat":35.193798,"lng":136.764696,"zip":"4960001"},{"town":"愛宕町一丁目","koaza":"","lat":35.17118,"lng":136.734448,"zip":"4960036"},{"town":"愛宕町二丁目","koaza":"","lat":35.171163,"lng":136.737346,"zip":"4960036"},{"town":"愛宕町三丁目","koaza":"","lat":35.169598,"lng":136.734412,"zip":"4960036"},{"town":"愛宕町四丁目","koaza":"","lat":35.169232,"lng":136.737462,"zip":"4960036"},{"town":"愛宕町五丁目","koaza":"","lat":35.167195,"lng":136.733997,"zip":"4960036"},{"town":"愛宕町六丁目","koaza":"","lat":35.167499,"lng":136.737281,"zip":"4960036"},{"town":"愛宕町七丁目","koaza":"","lat":35.166216,"lng":136.737162,"zip":"4960036"},{"town":"愛宕町八丁目","koaza":"","lat":35.165101,"lng":136.734647,"zip":"4960036"},{"town":"愛宕町九丁目","koaza":"","lat":35.163804,"lng":136.73852,"zip":"4960036"},{"town":"筏場町","koaza":"","lat":35.175965,"lng":136.724608,"zip":"4960842"},{"town":"池須町","koaza":"","lat":35.178952,"lng":136.721301,"zip":"4960828"},{"town":"池麸町","koaza":"","lat":35.177531,"lng":136.725791,"zip":"4960000"},{"town":"一本木町","koaza":"","lat":35.180103,"lng":136.714108,"zip":"4960873"},{"town":"今市場町一丁目","koaza":"","lat":35.176435,"lng":136.726705,"zip":"4960803"},{"town":"今市場町二丁目","koaza":"","lat":35.17627,"lng":136.7279,"zip":"4960803"},{"town":"今市場町三丁目","koaza":"","lat":35.176415,"lng":136.729855,"zip":"4960803"},{"town":"今市場町四丁目","koaza":"","lat":35.176261,"lng":136.732105,"zip":"4960803"},{"town":"杁前町一丁目","koaza":"","lat":35.168546,"lng":136.745149,"zip":"4960033"},{"town":"杁前町二丁目","koaza":"","lat":35.166458,"lng":136.744396,"zip":"4960033"},{"town":"杁前町三丁目","koaza":"","lat":35.164787,"lng":136.744253,"zip":"4960033"},{"town":"杁前町四丁目","koaza":"","lat":35.161308,"lng":136.745359,"zip":"4960033"},{"town":"杁前町五丁目","koaza":"","lat":35.163249,"lng":136.746782,"zip":"4960033"},{"town":"牛田町","koaza":"","lat":35.169843,"lng":136.762987,"zip":"4960018"},{"town":"宇治町","koaza":"","lat":35.184219,"lng":136.759952,"zip":"4960008"},{"town":"埋田町一丁目","koaza":"","lat":35.175708,"lng":136.740597,"zip":"4960031"},{"town":"埋田町二丁目","koaza":"","lat":35.174216,"lng":136.740606,"zip":"4960031"},{"town":"埋田町三丁目","koaza":"","lat":35.174262,"lng":136.743434,"zip":"4960031"},{"town":"埋田町四丁目","koaza":"","lat":35.172094,"lng":136.740732,"zip":"4960031"},{"town":"埋田町五丁目","koaza":"","lat":35.172258,"lng":136.744433,"zip":"4960031"},{"town":"浦方町","koaza":"","lat":35.176831,"lng":136.72022,"zip":"4960827"},{"town":"永楽町一丁目","koaza":"","lat":35.173099,"lng":136.72503,"zip":"4960845"},{"town":"永楽町二丁目","koaza":"","lat":35.171074,"lng":136.724537,"zip":"4960845"},{"town":"永楽町三丁目","koaza":"","lat":35.168872,"lng":136.724145,"zip":"4960845"},{"town":"永楽町四丁目","koaza":"","lat":35.167273,"lng":136.723531,"zip":"4960845"},{"town":"江川町一丁目","koaza":"","lat":35.182576,"lng":136.718966,"zip":"4960867"},{"town":"江川町二丁目","koaza":"","lat":35.182686,"lng":136.716612,"zip":"4960867"},{"town":"江東町一丁目","koaza":"","lat":35.176338,"lng":136.715952,"zip":"4960855"},{"town":"江東町二丁目","koaza":"","lat":35.174425,"lng":136.71571,"zip":"4960855"},{"town":"江東町三丁目","koaza":"","lat":35.171844,"lng":136.716734,"zip":"4960855"},{"town":"江西町一丁目","koaza":"","lat":35.178167,"lng":136.714048,"zip":"4960874"},{"town":"江西町二丁目","koaza":"","lat":35.176734,"lng":136.713723,"zip":"4960874"},{"town":"江西町三丁目","koaza":"","lat":35.173918,"lng":136.713729,"zip":"4960874"},{"town":"江西町四丁目","koaza":"","lat":35.171084,"lng":136.714424,"zip":"4960874"},{"town":"老松町","koaza":"","lat":35.168922,"lng":136.714936,"zip":"4960854"},{"town":"大字津島","koaza":"","lat":35.175792,"lng":136.748967,"zip":"4960000"},{"town":"大字日光","koaza":"","lat":35.177994,"lng":136.75278,"zip":"4960000"},{"town":"大字古川","koaza":"","lat":35.178377,"lng":136.745632,"zip":"4960000"},{"town":"大坪町","koaza":"","lat":35.162328,"lng":136.778605,"zip":"4960012"},{"town":"大縄町一丁目","koaza":"","lat":35.187837,"lng":136.709633,"zip":"4960876"},{"town":"大縄町二丁目","koaza":"","lat":35.184546,"lng":136.708878,"zip":"4960876"},{"town":"大縄町三丁目","koaza":"","lat":35.181199,"lng":136.708519,"zip":"4960876"},{"town":"大縄町四丁目","koaza":"","lat":35.178192,"lng":136.708388,"zip":"4960876"},{"town":"大縄町五丁目","koaza":"","lat":35.175184,"lng":136.708986,"zip":"4960876"},{"town":"大縄町六丁目","koaza":"","lat":35.172769,"lng":136.710362,"zip":"4960876"},{"town":"大縄町七丁目","koaza":"","lat":35.170493,"lng":136.710736,"zip":"4960876"},{"town":"大縄町八丁目","koaza":"","lat":35.168021,"lng":136.712048,"zip":"4960876"},{"town":"大縄町九丁目","koaza":"","lat":35.165576,"lng":136.712208,"zip":"4960876"},{"town":"片岡町","koaza":"","lat":35.1833,"lng":136.726383,"zip":"4960813"},{"town":"片町一丁目","koaza":"","lat":35.176475,"lng":136.722855,"zip":"4960826"},{"town":"片町二丁目","koaza":"","lat":35.175201,"lng":136.723419,"zip":"4960826"},{"town":"金町","koaza":"","lat":35.177886,"lng":136.722703,"zip":"4960824"},{"town":"金柳町","koaza":"","lat":35.151833,"lng":136.77924,"zip":"4960014"},{"town":"兼平町一丁目","koaza":"","lat":35.185521,"lng":136.726407,"zip":"4960812"},{"town":"兼平町二丁目","koaza":"","lat":35.187245,"lng":136.729474,"zip":"4960812"},{"town":"鹿伏兎町","koaza":"","lat":35.140425,"lng":136.765384,"zip":"4960023"},{"town":"上河原町","koaza":"","lat":35.179308,"lng":136.7226,"zip":"4960823"},{"town":"上新田町一丁目","koaza":"","lat":35.187654,"lng":136.711774,"zip":"4960871"},{"town":"上新田町二丁目","koaza":"","lat":35.187432,"lng":136.714516,"zip":"4960871"},{"town":"上新田町三丁目","koaza":"","lat":35.185402,"lng":136.71467,"zip":"4960871"},{"town":"上之町一丁目","koaza":"","lat":35.18067,"lng":136.718668,"zip":"4960863"},{"town":"上之町二丁目","koaza":"","lat":35.180656,"lng":136.720076,"zip":"4960863"},{"town":"神守町","koaza":"","lat":35.178378,"lng":136.772756,"zip":"4960005"},{"town":"唐臼町","koaza":"","lat":35.15955,"lng":136.752679,"zip":"4960026"},{"town":"河田町一丁目","koaza":"","lat":35.185348,"lng":136.711449,"zip":"4960877"},{"town":"河田町二丁目","koaza":"","lat":35.18324,"lng":136.711414,"zip":"4960877"},{"town":"河原町","koaza":"","lat":35.187836,"lng":136.716761,"zip":"4960869"},{"town":"神尾町","koaza":"","lat":35.157367,"lng":136.778771,"zip":"4960013"},{"town":"観音町","koaza":"","lat":35.187262,"lng":136.719418,"zip":"4960861"},{"town":"北町","koaza":"","lat":35.182023,"lng":136.725439,"zip":"4960817"},{"town":"喜楽町","koaza":"","lat":35.188895,"lng":136.729422,"zip":"4960811"},{"town":"光正寺町","koaza":"","lat":35.182212,"lng":136.768825,"zip":"4960007"},{"town":"高台寺町","koaza":"","lat":35.155992,"lng":136.772554,"zip":"4960015"},{"town":"越津町","koaza":"","lat":35.173624,"lng":136.761899,"zip":"4960022"},{"town":"寿町","koaza":"","lat":35.18017,"lng":136.721309,"zip":"4960829"},{"town":"米之座町一丁目","koaza":"","lat":35.180362,"lng":136.725172,"zip":"4960815"},{"town":"米之座町二丁目","koaza":"","lat":35.179501,"lng":136.725091,"zip":"4960815"},{"town":"米町","koaza":"","lat":35.180248,"lng":136.723836,"zip":"4960816"},{"town":"申塚町一丁目","koaza":"","lat":35.185045,"lng":136.719218,"zip":"4960868"},{"town":"申塚町二丁目","koaza":"","lat":35.18512,"lng":136.717215,"zip":"4960868"},{"town":"下切町","koaza":"","lat":35.176936,"lng":136.756616,"zip":"4960029"},{"town":"下新田町一丁目","koaza":"","lat":35.181229,"lng":136.711512,"zip":"4960875"},{"town":"下新田町二丁目","koaza":"","lat":35.178285,"lng":136.711026,"zip":"4960875"},{"town":"下新田町三丁目","koaza":"","lat":35.175668,"lng":136.710775,"zip":"4960875"},{"town":"下新田町四丁目","koaza":"","lat":35.173572,"lng":136.712028,"zip":"4960875"},{"town":"下新田町五丁目","koaza":"","lat":35.170746,"lng":136.712722,"zip":"4960875"},{"town":"昭和町一丁目","koaza":"","lat":35.179439,"lng":136.727714,"zip":"4960809"},{"town":"昭和町二丁目","koaza":"","lat":35.181401,"lng":136.727736,"zip":"4960809"},{"town":"昭和町三丁目","koaza":"","lat":35.183291,"lng":136.727819,"zip":"4960809"},{"town":"昭和町四丁目","koaza":"","lat":35.185321,"lng":136.727832,"zip":"4960809"},{"town":"白浜町","koaza":"","lat":35.156594,"lng":136.769023,"zip":"4960016"},{"town":"城之越町","koaza":"","lat":35.181089,"lng":136.723055,"zip":"4960821"},{"town":"城山町一丁目","koaza":"","lat":35.18199,"lng":136.720595,"zip":"4960862"},{"town":"城山町二丁目","koaza":"","lat":35.184129,"lng":136.721269,"zip":"4960862"},{"town":"城山町三丁目","koaza":"","lat":35.186204,"lng":136.721291,"zip":"4960862"},{"town":"新開町一丁目","koaza":"","lat":35.17304,"lng":136.747646,"zip":"4960071"},{"town":"新開町二丁目","koaza":"","lat":35.172713,"lng":136.751663,"zip":"4960071"},{"town":"新開町三丁目","koaza":"","lat":35.170189,"lng":136.752343,"zip":"4960071"},{"town":"新開町四丁目","koaza":"","lat":35.170185,"lng":136.749663,"zip":"4960071"},{"town":"新開町五丁目","koaza":"","lat":35.170587,"lng":136.747729,"zip":"4960071"},{"town":"神明町","koaza":"","lat":35.177694,"lng":136.718471,"zip":"4960851"},{"town":"大木町","koaza":"","lat":35.182572,"lng":136.77101,"zip":"4960006"},{"town":"大慶寺町","koaza":"","lat":35.17283,"lng":136.723627,"zip":"4960848"},{"town":"大政町一丁目","koaza":"","lat":35.174842,"lng":136.728604,"zip":"4960837"},{"town":"大政町二丁目","koaza":"","lat":35.173405,"lng":136.728305,"zip":"4960837"},{"town":"高畑町","koaza":"","lat":35.186848,"lng":136.735521,"zip":"4960041"},{"town":"高屋敷町","koaza":"","lat":35.180211,"lng":136.722655,"zip":"4960822"},{"town":"宝町","koaza":"","lat":35.179046,"lng":136.726397,"zip":"4960808"},{"town":"橘町一丁目","koaza":"","lat":35.174681,"lng":136.73218,"zip":"4960038"},{"town":"橘町二丁目","koaza":"","lat":35.174604,"lng":136.734689,"zip":"4960038"},{"town":"橘町三丁目","koaza":"","lat":35.174532,"lng":136.737404,"zip":"4960038"},{"town":"橘町四丁目","koaza":"","lat":35.173106,"lng":136.732115,"zip":"4960038"},{"town":"橘町五丁目","koaza":"","lat":35.172947,"lng":136.734611,"zip":"4960038"},{"town":"橘町六丁目","koaza":"","lat":35.172847,"lng":136.73743,"zip":"4960038"},{"town":"立込町一丁目","koaza":"","lat":35.17745,"lng":136.739561,"zip":"4960044"},{"town":"立込町二丁目","koaza":"","lat":35.177355,"lng":136.741669,"zip":"4960044"},{"town":"立込町三丁目","koaza":"","lat":35.179961,"lng":136.739724,"zip":"4960044"},{"town":"立込町四丁目","koaza":"","lat":35.179821,"lng":136.741745,"zip":"4960044"},{"town":"椿市町","koaza":"","lat":35.180232,"lng":136.763849,"zip":"4960021"},{"town":"寺野町","koaza":"","lat":35.192549,"lng":136.769507,"zip":"4960003"},{"town":"寺前町一丁目","koaza":"","lat":35.184809,"lng":136.735573,"zip":"4960042"},{"town":"寺前町二丁目","koaza":"","lat":35.184548,"lng":136.738254,"zip":"4960042"},{"town":"寺前町三丁目","koaza":"","lat":35.186915,"lng":136.738022,"zip":"4960042"},{"town":"天王通り一丁目","koaza":"","lat":35.178211,"lng":136.721341,"zip":"4960000"},{"town":"天王通り二丁目","koaza":"","lat":35.17824,"lng":136.722883,"zip":"4960000"},{"town":"天王通り三丁目","koaza":"","lat":35.178087,"lng":136.724327,"zip":"4960000"},{"town":"天王通り四丁目","koaza":"","lat":35.17847,"lng":136.725776,"zip":"4960000"},{"town":"天王通り五丁目","koaza":"","lat":35.178129,"lng":136.727581,"zip":"4960000"},{"town":"天王通り六丁目","koaza":"","lat":35.177923,"lng":136.729198,"zip":"4960000"},{"town":"東洋町一丁目","koaza":"","lat":35.172117,"lng":136.729053,"zip":"4960832"},{"town":"東洋町二丁目","koaza":"","lat":35.171446,"lng":136.729349,"zip":"4960832"},{"town":"常盤町一丁目","koaza":"","lat":35.170076,"lng":136.73006,"zip":"4960833"},{"town":"常盤町二丁目","koaza":"","lat":35.170394,"lng":136.728461,"zip":"4960833"},{"town":"常盤町三丁目","koaza":"","lat":35.168519,"lng":136.729897,"zip":"4960833"},{"town":"常盤町四丁目","koaza":"","lat":35.168887,"lng":136.727967,"zip":"4960833"},{"town":"中一色町","koaza":"","lat":35.161431,"lng":136.757571,"zip":"4960025"},{"town":"中地町一丁目","koaza":"","lat":35.172588,"lng":136.722157,"zip":"4960847"},{"town":"中地町二丁目","koaza":"","lat":35.171098,"lng":136.72107,"zip":"4960847"},{"town":"中地町三丁目","koaza":"","lat":35.169423,"lng":136.720889,"zip":"4960847"},{"town":"中地町四丁目","koaza":"","lat":35.167575,"lng":136.72024,"zip":"4960847"},{"town":"中野町","koaza":"","lat":35.174472,"lng":136.727779,"zip":"4960836"},{"town":"中之町","koaza":"","lat":35.179788,"lng":136.719272,"zip":"4960864"},{"town":"西愛宕町一丁目","koaza":"","lat":35.171398,"lng":136.731963,"zip":"4960037"},{"town":"西愛宕町二丁目","koaza":"","lat":35.168744,"lng":136.731948,"zip":"4960037"},{"town":"錦町","koaza":"","lat":35.177465,"lng":136.730594,"zip":"4960802"},{"town":"西御堂町","koaza":"","lat":35.174933,"lng":136.724545,"zip":"4960849"},{"town":"西柳原町一丁目","koaza":"","lat":35.17692,"lng":136.733827,"zip":"4960047"},{"town":"西柳原町二丁目","koaza":"","lat":35.179079,"lng":136.73367,"zip":"4960047"},{"town":"西柳原町三丁目","koaza":"","lat":35.181062,"lng":136.73382,"zip":"4960047"},{"town":"西柳原町四丁目","koaza":"","lat":35.182453,"lng":136.734109,"zip":"4960047"},{"town":"祢宜町","koaza":"","lat":35.177171,"lng":136.720656,"zip":"4960852"},{"town":"莪原町","koaza":"","lat":35.168135,"lng":136.779839,"zip":"4960011"},{"town":"葉苅町","koaza":"","lat":35.192748,"lng":136.760633,"zip":"4960009"},{"town":"橋詰町一丁目","koaza":"","lat":35.177257,"lng":136.72331,"zip":"4960825"},{"town":"橋詰町二丁目","koaza":"","lat":35.177226,"lng":136.721776,"zip":"4960825"},{"town":"橋詰町三丁目","koaza":"","lat":35.177573,"lng":136.721286,"zip":"4960825"},{"town":"馬場町","koaza":"","lat":35.178455,"lng":136.720039,"zip":"4960865"},{"town":"半頭町","koaza":"","lat":35.143788,"lng":136.760309,"zip":"4960024"},{"town":"東愛宕町一丁目","koaza":"","lat":35.168213,"lng":136.740875,"zip":"4960035"},{"town":"東愛宕町二丁目","koaza":"","lat":35.16637,"lng":136.740986,"zip":"4960035"},{"town":"東愛宕町三丁目","koaza":"","lat":35.163686,"lng":136.741392,"zip":"4960035"},{"town":"東中地町一丁目","koaza":"","lat":35.171197,"lng":136.723178,"zip":"4960846"},{"town":"東中地町二丁目","koaza":"","lat":35.169016,"lng":136.722743,"zip":"4960846"},{"town":"東中地町三丁目","koaza":"","lat":35.167469,"lng":136.722399,"zip":"4960846"},{"town":"東柳原町一丁目","koaza":"","lat":35.175769,"lng":136.737229,"zip":"4960045"},{"town":"東柳原町二丁目","koaza":"","lat":35.177292,"lng":136.737446,"zip":"4960045"},{"town":"東柳原町三丁目","koaza":"","lat":35.179175,"lng":136.737518,"zip":"4960045"},{"town":"東柳原町四丁目","koaza":"","lat":35.180891,"lng":136.737709,"zip":"4960045"},{"town":"東柳原町五丁目","koaza":"","lat":35.182461,"lng":136.737493,"zip":"4960045"},{"town":"百町","koaza":"","lat":35.160219,"lng":136.762971,"zip":"4960017"},{"town":"蛭間町","koaza":"","lat":35.186948,"lng":136.770947,"zip":"4960004"},{"town":"深坪町一丁目","koaza":"","lat":35.170352,"lng":136.740782,"zip":"4960032"},{"town":"深坪町二丁目","koaza":"","lat":35.170397,"lng":136.74476,"zip":"4960032"},{"town":"藤川町","koaza":"","lat":35.172696,"lng":136.727878,"zip":"4960839"},{"town":"藤里町一丁目","koaza":"","lat":35.178603,"lng":136.731824,"zip":"4960048"},{"town":"藤里町二丁目","koaza":"","lat":35.181113,"lng":136.731886,"zip":"4960048"},{"town":"藤里町三丁目","koaza":"","lat":35.183022,"lng":136.731653,"zip":"4960048"},{"town":"藤浪町一丁目","koaza":"","lat":35.178716,"lng":136.729781,"zip":"4960801"},{"town":"藤浪町二丁目","koaza":"","lat":35.180083,"lng":136.72958,"zip":"4960801"},{"town":"藤浪町三丁目","koaza":"","lat":35.181538,"lng":136.729413,"zip":"4960801"},{"town":"藤浪町四丁目","koaza":"","lat":35.183072,"lng":136.729291,"zip":"4960801"},{"town":"藤浪町五丁目","koaza":"","lat":35.185607,"lng":136.729231,"zip":"4960801"},{"town":"舟戸町","koaza":"","lat":35.174963,"lng":136.725429,"zip":"4960843"},{"town":"古川町一丁目","koaza":"","lat":35.176276,"lng":136.743943,"zip":"4960043"},{"town":"古川町二丁目","koaza":"","lat":35.178674,"lng":136.743723,"zip":"4960043"},{"town":"古川町三丁目","koaza":"","lat":35.180962,"lng":136.744668,"zip":"4960043"},{"town":"古川町四丁目","koaza":"","lat":35.178325,"lng":136.747226,"zip":"4960043"},{"town":"本町一丁目","koaza":"","lat":35.179074,"lng":136.724078,"zip":"4960805"},{"town":"本町二丁目","koaza":"","lat":35.17755,"lng":136.724202,"zip":"4960805"},{"town":"本町三丁目","koaza":"","lat":35.176839,"lng":136.725071,"zip":"4960805"},{"town":"本町四丁目","koaza":"","lat":35.175719,"lng":136.72632,"zip":"4960805"},{"town":"本町五丁目","koaza":"","lat":35.174928,"lng":136.727182,"zip":"4960805"},{"town":"牧野町","koaza":"","lat":35.195676,"lng":136.770581,"zip":"4960002"},{"town":"又吉町一丁目","koaza":"","lat":35.18171,"lng":136.721865,"zip":"4960819"},{"town":"又吉町二丁目","koaza":"","lat":35.183595,"lng":136.7229,"zip":"4960819"},{"town":"又吉町三丁目","koaza":"","lat":35.185468,"lng":136.724113,"zip":"4960819"},{"town":"又吉町四丁目","koaza":"","lat":35.186971,"lng":136.726027,"zip":"4960819"},{"town":"松ケ下町","koaza":"","lat":35.18259,"lng":136.714424,"zip":"4960872"},{"town":"松原町","koaza":"","lat":35.182913,"lng":136.723988,"zip":"4960818"},{"town":"瑞穂町一丁目","koaza":"","lat":35.174906,"lng":136.730304,"zip":"4960831"},{"town":"瑞穂町二丁目","koaza":"","lat":35.17361,"lng":136.73043,"zip":"4960831"},{"town":"瑞穂町三丁目","koaza":"","lat":35.172462,"lng":136.730175,"zip":"4960831"},{"town":"皆戸町","koaza":"","lat":35.174648,"lng":136.726133,"zip":"4960835"},{"town":"南新開町一丁目","koaza":"","lat":35.167338,"lng":136.748428,"zip":"4960072"},{"town":"南新開町二丁目","koaza":"","lat":35.166692,"lng":136.752784,"zip":"4960072"},{"town":"南本町一丁目","koaza":"","lat":35.173649,"lng":136.727206,"zip":"4960834"},{"town":"南本町二丁目","koaza":"","lat":35.172928,"lng":136.726683,"zip":"4960834"},{"town":"南本町三丁目","koaza":"","lat":35.171825,"lng":136.726729,"zip":"4960834"},{"town":"南本町四丁目","koaza":"","lat":35.170991,"lng":136.726427,"zip":"4960834"},{"town":"南本町五丁目","koaza":"","lat":35.169925,"lng":136.726099,"zip":"4960834"},{"town":"南本町六丁目","koaza":"","lat":35.169057,"lng":136.725981,"zip":"4960834"},{"town":"南本町七丁目","koaza":"","lat":35.167664,"lng":136.725291,"zip":"4960834"},{"town":"南門前町一丁目","koaza":"","lat":35.176155,"lng":136.718363,"zip":"4960857"},{"town":"南門前町二丁目","koaza":"","lat":35.175389,"lng":136.71842,"zip":"4960857"},{"town":"南門前町三丁目","koaza":"","lat":35.174472,"lng":136.718243,"zip":"4960857"},{"town":"宮川町一丁目","koaza":"","lat":35.172993,"lng":136.720585,"zip":"4960853"},{"town":"宮川町二丁目","koaza":"","lat":35.168134,"lng":136.717542,"zip":"4960853"},{"town":"宮川町三丁目","koaza":"","lat":35.166068,"lng":136.715623,"zip":"4960853"},{"town":"明天町一丁目","koaza":"","lat":35.174733,"lng":136.729296,"zip":"4960838"},{"town":"明天町二丁目","koaza":"","lat":35.173526,"lng":136.729176,"zip":"4960838"},{"town":"明天町三丁目","koaza":"","lat":35.172696,"lng":136.72911,"zip":"4960838"},{"town":"元寺町一丁目","koaza":"","lat":35.16206,"lng":136.741285,"zip":"4960034"},{"town":"元寺町二丁目","koaza":"","lat":35.160184,"lng":136.743753,"zip":"4960034"},{"town":"元寺町三丁目","koaza":"","lat":35.157472,"lng":136.746568,"zip":"4960034"},{"town":"百島町","koaza":"","lat":35.167363,"lng":136.769351,"zip":"4960019"},{"town":"薬師町","koaza":"","lat":35.173923,"lng":136.725503,"zip":"4960844"},{"town":"柳原町一丁目","koaza":"","lat":35.17596,"lng":136.735197,"zip":"4960046"},{"town":"柳原町二丁目","koaza":"","lat":35.17744,"lng":136.735396,"zip":"4960046"},{"town":"柳原町三丁目","koaza":"","lat":35.179332,"lng":136.735605,"zip":"4960046"},{"town":"柳原町四丁目","koaza":"","lat":35.181005,"lng":136.735754,"zip":"4960046"},{"town":"柳原町五丁目","koaza":"","lat":35.182585,"lng":136.735879,"zip":"4960046"},{"town":"大和町一丁目","koaza":"","lat":35.177912,"lng":136.71651,"zip":"4960866"},{"town":"大和町二丁目","koaza":"","lat":35.180105,"lng":136.716876,"zip":"4960866"},{"town":"弥生町","koaza":"","lat":35.17724,"lng":136.727596,"zip":"4960804"},{"town":"横町","koaza":"","lat":35.176646,"lng":136.724087,"zip":"4960841"},{"town":"良王町一丁目","koaza":"","lat":35.181423,"lng":136.72693,"zip":"4960814"},{"town":"良王町二丁目","koaza":"","lat":35.179918,"lng":136.726599,"zip":"4960814"},{"town":"瑠璃小路町一丁目","koaza":"","lat":35.175051,"lng":136.720289,"zip":"4960856"},{"town":"瑠璃小路町二丁目","koaza":"","lat":35.173406,"lng":136.718607,"zip":"4960856"},{"town":"大字古川","koaza":"上割","lat":35.178212,"lng":136.745744,"zip":"4960000"},{"town":"大字古川","koaza":"汁江","lat":35.177093,"lng":136.747048,"zip":"4960000"},{"town":"唐臼町","koaza":"囲外","lat":35.163384,"lng":136.74757,"zip":"4960026"},{"town":"唐臼町","koaza":"四反田","lat":35.157152,"lng":136.748286,"zip":"4960026"},{"town":"唐臼町","koaza":"油田","lat":35.163998,"lng":136.749429,"zip":"4960026"},{"town":"唐臼町","koaza":"西島","lat":35.160313,"lng":136.749565,"zip":"4960026"},{"town":"大字津島","koaza":"北新開","lat":35.175252,"lng":136.747041,"zip":"4960000"},{"town":"唐臼町","koaza":"中杁","lat":35.157499,"lng":136.750698,"zip":"4960026"},{"town":"唐臼町","koaza":"半池","lat":35.155454,"lng":136.750517,"zip":"4960026"},{"town":"唐臼町","koaza":"代官田","lat":35.163821,"lng":136.750964,"zip":"4960026"},{"town":"唐臼町","koaza":"郷裏","lat":35.159254,"lng":136.751349,"zip":"4960026"},{"town":"大字日光","koaza":"東浦","lat":35.1779,"lng":136.752417,"zip":"4960000"},{"town":"唐臼町","koaza":"前南","lat":35.157273,"lng":136.753794,"zip":"4960026"},{"town":"中一色町","koaza":"折","lat":35.150577,"lng":136.752819,"zip":"4960025"},{"town":"大字日光","koaza":"上山","lat":35.177907,"lng":136.75293,"zip":"4960000"},{"town":"唐臼町","koaza":"大門","lat":35.158847,"lng":136.75343,"zip":"4960026"},{"town":"中一色町","koaza":"北山","lat":35.17557,"lng":136.753705,"zip":"4960025"},{"town":"唐臼町","koaza":"柳原","lat":35.161324,"lng":136.754678,"zip":"4960026"},{"town":"唐臼町","koaza":"二ツ池","lat":35.163585,"lng":136.753559,"zip":"4960026"},{"town":"唐臼町","koaza":"道上","lat":35.165157,"lng":136.754229,"zip":"4960026"},{"town":"中一色町","koaza":"中山","lat":35.168695,"lng":136.75506,"zip":"4960025"},{"town":"中一色町","koaza":"柳原","lat":35.155836,"lng":136.755642,"zip":"4960025"},{"town":"宇治町","koaza":"旭","lat":35.183868,"lng":136.755218,"zip":"4960008"},{"town":"宇治町","koaza":"小切","lat":35.179084,"lng":136.754786,"zip":"4960008"},{"town":"中一色町","koaza":"寺前","lat":35.147507,"lng":136.757098,"zip":"4960025"},{"town":"中一色町","koaza":"西訳","lat":35.150638,"lng":136.757091,"zip":"4960025"},{"town":"中一色町","koaza":"市場","lat":35.154623,"lng":136.757786,"zip":"4960025"},{"town":"下切町","koaza":"高橋","lat":35.177386,"lng":136.757008,"zip":"4960029"},{"town":"唐臼町","koaza":"茨塚","lat":35.159472,"lng":136.755806,"zip":"4960026"},{"town":"下切町","koaza":"見祢ツ","lat":35.176333,"lng":136.756435,"zip":"4960029"},{"town":"越津町","koaza":"新田","lat":35.170682,"lng":136.757711,"zip":"4960022"},{"town":"宇治町","koaza":"新堀田","lat":35.183256,"lng":136.758054,"zip":"4960008"},{"town":"宇治町","koaza":"城","lat":35.185998,"lng":136.757163,"zip":"4960008"},{"town":"唐臼町","koaza":"東田面","lat":35.156847,"lng":136.756891,"zip":"4960026"},{"town":"唐臼町","koaza":"大島","lat":35.156177,"lng":136.756674,"zip":"4960026"},{"town":"中一色町","koaza":"下山","lat":35.161285,"lng":136.757062,"zip":"4960025"},{"town":"中一色町","koaza":"弥六山","lat":35.157818,"lng":136.758093,"zip":"4960025"},{"town":"葉苅町","koaza":"南町","lat":35.192501,"lng":136.759601,"zip":"4960009"},{"town":"百町","koaza":"みどり台","lat":35.165782,"lng":136.758816,"zip":"4960017"},{"town":"下切町","koaza":"坪之内","lat":35.179475,"lng":136.758596,"zip":"4960029"},{"town":"葉苅町","koaza":"北町","lat":35.193929,"lng":136.759204,"zip":"4960009"},{"town":"半頭町","koaza":"西之割","lat":35.143013,"lng":136.759228,"zip":"4960024"},{"town":"越津町","koaza":"馬三味","lat":35.176335,"lng":136.758891,"zip":"4960022"},{"town":"鹿伏兎町","koaza":"上子守","lat":35.140787,"lng":136.760261,"zip":"4960023"},{"town":"宇治町","koaza":"小船戸","lat":35.188243,"lng":136.759295,"zip":"4960008"},{"town":"中一色町","koaza":"東郷","lat":35.152409,"lng":136.759852,"zip":"4960025"},{"town":"越津町","koaza":"荒毛","lat":35.17389,"lng":136.758859,"zip":"4960022"},{"town":"鹿伏兎町","koaza":"下子守","lat":35.138458,"lng":136.759954,"zip":"4960023"},{"town":"牛田町","koaza":"杁先","lat":35.167334,"lng":136.759489,"zip":"4960018"},{"town":"中一色町","koaza":"清光坊","lat":35.148686,"lng":136.761397,"zip":"4960025"},{"town":"百町","koaza":"南古農","lat":35.160792,"lng":136.761039,"zip":"4960017"},{"town":"葉苅町","koaza":"綿掛","lat":35.191002,"lng":136.761589,"zip":"4960009"},{"town":"鹿伏兎町","koaza":"西永和","lat":35.134751,"lng":136.760319,"zip":"4960023"},{"town":"越津町","koaza":"梅之木","lat":35.177878,"lng":136.761499,"zip":"4960022"},{"town":"百町","koaza":"上住吉","lat":35.156037,"lng":136.761399,"zip":"4960017"},{"town":"下切町","koaza":"桂本","lat":35.178641,"lng":136.761448,"zip":"4960029"},{"town":"越津町","koaza":"坪之内","lat":35.175419,"lng":136.760537,"zip":"4960022"},{"town":"宇治町","koaza":"亀田","lat":35.183796,"lng":136.761288,"zip":"4960008"},{"town":"越津町","koaza":"如来","lat":35.172807,"lng":136.760583,"zip":"4960022"},{"town":"百町","koaza":"新開","lat":35.159678,"lng":136.761171,"zip":"4960017"},{"town":"牛田町","koaza":"荒田","lat":35.171116,"lng":136.760641,"zip":"4960018"},{"town":"宇治町","koaza":"茶ノ里","lat":35.185896,"lng":136.761888,"zip":"4960008"},{"town":"牛田町","koaza":"江南","lat":35.166728,"lng":136.762053,"zip":"4960018"},{"town":"百町","koaza":"北古農","lat":35.164506,"lng":136.760667,"zip":"4960017"},{"town":"百町","koaza":"宮跡","lat":35.157225,"lng":136.761339,"zip":"4960017"},{"town":"半頭町","koaza":"東之割","lat":35.145496,"lng":136.762071,"zip":"4960024"},{"town":"牛田町","koaza":"化粧院","lat":35.168763,"lng":136.761407,"zip":"4960018"},{"town":"葉苅町","koaza":"稲葉","lat":35.193486,"lng":136.762206,"zip":"4960009"},{"town":"鹿伏兎町","koaza":"西","lat":35.141791,"lng":136.76257,"zip":"4960023"},{"town":"牛田町","koaza":"天越","lat":35.171577,"lng":136.763611,"zip":"4960018"},{"town":"越津町","koaza":"西之郷","lat":35.175355,"lng":136.761972,"zip":"4960022"},{"town":"越津町","koaza":"天越","lat":35.173917,"lng":136.762697,"zip":"4960022"},{"town":"椿市町","koaza":"二ノ割","lat":35.178658,"lng":136.763446,"zip":"4960021"},{"town":"葉苅町","koaza":"青塚前","lat":35.194642,"lng":136.762353,"zip":"4960009"},{"town":"鹿伏兎町","koaza":"西清水","lat":35.139604,"lng":136.763601,"zip":"4960023"},{"town":"鹿伏兎町","koaza":"永和","lat":35.133634,"lng":136.762598,"zip":"4960023"},{"town":"百町","koaza":"下住吉","lat":35.15442,"lng":136.763547,"zip":"4960017"},{"town":"宇治町","koaza":"石畑","lat":35.188194,"lng":136.76464,"zip":"4960008"},{"town":"百町","koaza":"中住吉","lat":35.1554,"lng":136.763344,"zip":"4960017"},{"town":"百町","koaza":"新所","lat":35.164063,"lng":136.76474,"zip":"4960017"},{"town":"百町","koaza":"旭","lat":35.155954,"lng":136.764509,"zip":"4960017"},{"town":"越津町","koaza":"柳之内","lat":35.177211,"lng":136.764206,"zip":"4960022"},{"town":"下切町","koaza":"大矢","lat":35.182098,"lng":136.763495,"zip":"4960029"},{"town":"宇治町","koaza":"天王前","lat":35.184854,"lng":136.764814,"zip":"4960008"},{"town":"百町","koaza":"柿割","lat":35.158229,"lng":136.765194,"zip":"4960017"},{"town":"越津町","koaza":"中之郷","lat":35.174241,"lng":136.764634,"zip":"4960022"},{"town":"宇治町","koaza":"喜多神","lat":35.189386,"lng":136.764803,"zip":"4960008"},{"town":"百町","koaza":"神明","lat":35.152391,"lng":136.764791,"zip":"4960017"},{"town":"百町","koaza":"古座","lat":35.164988,"lng":136.764698,"zip":"4960017"},{"town":"鹿伏兎町","koaza":"上郷","lat":35.14577,"lng":136.763422,"zip":"4960023"},{"town":"百町","koaza":"矢塚","lat":35.153463,"lng":136.765308,"zip":"4960017"},{"town":"椿市町","koaza":"一ノ割","lat":35.17895,"lng":136.765079,"zip":"4960021"},{"town":"椿市町","koaza":"三ノ割","lat":35.180628,"lng":136.765368,"zip":"4960021"},{"town":"蛭間町","koaza":"喜多神","lat":35.19124,"lng":136.764945,"zip":"4960004"},{"town":"百町","koaza":"佐多遊","lat":35.162743,"lng":136.764649,"zip":"4960017"},{"town":"蛭間町","koaza":"蔵掛堂","lat":35.191292,"lng":136.767271,"zip":"4960004"},{"town":"牛田町","koaza":"黒佛","lat":35.168931,"lng":136.764871,"zip":"4960018"},{"town":"越津町","koaza":"東田面","lat":35.172235,"lng":136.7665,"zip":"4960022"},{"town":"牛田町","koaza":"角田","lat":35.17052,"lng":136.765107,"zip":"4960018"},{"town":"鹿伏兎町","koaza":"上春日台","lat":35.145834,"lng":136.765558,"zip":"4960023"},{"town":"鹿伏兎町","koaza":"東","lat":35.143019,"lng":136.766454,"zip":"4960023"},{"town":"百町","koaza":"柴丈","lat":35.155187,"lng":136.764979,"zip":"4960017"},{"town":"中一色町","koaza":"神明","lat":35.148581,"lng":136.767142,"zip":"4960025"},{"town":"百町","koaza":"光善地","lat":35.156587,"lng":136.765556,"zip":"4960017"},{"town":"蛭間町","koaza":"弁日","lat":35.184094,"lng":136.766809,"zip":"4960004"},{"town":"百島町","koaza":"丸田","lat":35.166783,"lng":136.76753,"zip":"4960019"},{"town":"百町","koaza":"土冨","lat":35.160842,"lng":136.765663,"zip":"4960017"},{"town":"蛭間町","koaza":"西屋敷","lat":35.188044,"lng":136.766422,"zip":"4960004"},{"town":"神守町","koaza":"二ノ割","lat":35.177319,"lng":136.76673,"zip":"4960005"},{"town":"神守町","koaza":"八反田","lat":35.174819,"lng":136.766265,"zip":"4960005"},{"town":"百島町","koaza":"牛屋","lat":35.169161,"lng":136.76751,"zip":"4960019"},{"town":"白浜町","koaza":"林造","lat":35.157181,"lng":136.767069,"zip":"4960016"},{"town":"神守町","koaza":"こがね","lat":35.173418,"lng":136.76692,"zip":"4960005"},{"town":"寺野町","koaza":"青塚前","lat":35.194849,"lng":136.766232,"zip":"4960003"},{"town":"寺野町","koaza":"下ノ町","lat":35.193842,"lng":136.765694,"zip":"4960003"},{"town":"鹿伏兎町","koaza":"東清水","lat":35.138577,"lng":136.76794,"zip":"4960023"},{"town":"白浜町","koaza":"番場","lat":35.151389,"lng":136.767001,"zip":"4960016"},{"town":"白浜町","koaza":"弁天","lat":35.154542,"lng":136.767159,"zip":"4960016"},{"town":"百島町","koaza":"祢宜","lat":35.170543,"lng":136.767827,"zip":"4960019"},{"town":"白浜町","koaza":"平堤","lat":35.161118,"lng":136.768197,"zip":"4960016"},{"town":"百島町","koaza":"こがね","lat":35.171145,"lng":136.768663,"zip":"4960019"},{"town":"鹿伏兎町","koaza":"下春日台","lat":35.139389,"lng":136.769543,"zip":"4960023"},{"town":"蛭間町","koaza":"逆川東","lat":35.187856,"lng":136.768216,"zip":"4960004"},{"town":"大木町","koaza":"五反田","lat":35.181601,"lng":136.770315,"zip":"4960006"},{"town":"白浜町","koaza":"下池","lat":35.150386,"lng":136.768412,"zip":"4960016"},{"town":"寺野町","koaza":"廻場","lat":35.192324,"lng":136.76853,"zip":"4960003"},{"town":"寺野町","koaza":"瓦土","lat":35.193715,"lng":136.769531,"zip":"4960003"},{"town":"牧野町","koaza":"西出","lat":35.195947,"lng":136.768352,"zip":"4960002"},{"town":"越津町","koaza":"こがね","lat":35.171884,"lng":136.769592,"zip":"4960022"},{"town":"白浜町","koaza":"八升川田","lat":35.154204,"lng":136.769522,"zip":"4960016"},{"town":"百島町","koaza":"居屋敷","lat":35.166367,"lng":136.770106,"zip":"4960019"},{"town":"寺野町","koaza":"高瀬","lat":35.190494,"lng":136.770548,"zip":"4960003"},{"town":"百島町","koaza":"源正","lat":35.169037,"lng":136.769978,"zip":"4960019"},{"town":"百島町","koaza":"黒佛","lat":35.164353,"lng":136.767875,"zip":"4960019"},{"town":"牧野町","koaza":"浪寄","lat":35.194829,"lng":136.769338,"zip":"4960002"},{"town":"白浜町","koaza":"深坪","lat":35.161105,"lng":136.768887,"zip":"4960016"},{"town":"白浜町","koaza":"宮組","lat":35.156251,"lng":136.769507,"zip":"4960016"},{"town":"高台寺町","koaza":"江西","lat":35.148904,"lng":136.769598,"zip":"4960015"},{"town":"蛭間町","koaza":"高瀬","lat":35.18922,"lng":136.772327,"zip":"4960004"},{"town":"蛭間町","koaza":"宮重","lat":35.187381,"lng":136.77245,"zip":"4960004"},{"town":"蛭間町","koaza":"桝田","lat":35.185643,"lng":136.771292,"zip":"4960004"},{"town":"神守町","koaza":"中田面","lat":35.174668,"lng":136.768563,"zip":"4960005"},{"town":"神守町","koaza":"中切","lat":35.178693,"lng":136.77178,"zip":"4960005"},{"town":"百島町","koaza":"中割","lat":35.163483,"lng":136.77071,"zip":"4960019"},{"town":"神守町","koaza":"五反田","lat":35.173071,"lng":136.770095,"zip":"4960005"},{"town":"神守町","koaza":"森本","lat":35.176523,"lng":136.769648,"zip":"4960005"},{"town":"寺野町","koaza":"郷","lat":35.192397,"lng":136.771247,"zip":"4960003"},{"town":"百島町","koaza":"献上","lat":35.170444,"lng":136.770608,"zip":"4960019"},{"town":"白浜町","koaza":"鳥羽見","lat":35.160869,"lng":136.770734,"zip":"4960016"},{"town":"大木町","koaza":"郷前","lat":35.182647,"lng":136.771189,"zip":"4960006"},{"town":"高台寺町","koaza":"新開","lat":35.149526,"lng":136.772828,"zip":"4960015"},{"town":"白浜町","koaza":"小新開","lat":35.155074,"lng":136.770282,"zip":"4960016"},{"town":"大木町","koaza":"八反田","lat":35.179627,"lng":136.769194,"zip":"4960006"},{"town":"神守町","koaza":"下町","lat":35.173967,"lng":136.772601,"zip":"4960005"},{"town":"神守町","koaza":"中町","lat":35.176514,"lng":136.77274,"zip":"4960005"},{"town":"高台寺町","koaza":"石燈","lat":35.152293,"lng":136.771215,"zip":"4960015"},{"town":"牧野町","koaza":"辰己","lat":35.194437,"lng":136.770625,"zip":"4960002"},{"town":"牧野町","koaza":"郷東","lat":35.19521,"lng":136.770661,"zip":"4960002"},{"town":"大木町","koaza":"西切","lat":35.184088,"lng":136.770491,"zip":"4960006"},{"town":"牧野町","koaza":"五ツ島","lat":35.196198,"lng":136.771934,"zip":"4960002"},{"town":"牧野町","koaza":"江北","lat":35.19734,"lng":136.7706,"zip":"4960002"},{"town":"高台寺町","koaza":"二王","lat":35.154159,"lng":136.77231,"zip":"4960015"},{"town":"大木町","koaza":"東切","lat":35.184078,"lng":136.771505,"zip":"4960006"},{"town":"大木町","koaza":"元田","lat":35.181619,"lng":136.771282,"zip":"4960006"},{"town":"大木町","koaza":"新田","lat":35.179913,"lng":136.77151,"zip":"4960006"},{"town":"高台寺町","koaza":"北浦","lat":35.156811,"lng":136.772401,"zip":"4960015"},{"town":"寺野町","koaza":"五反田","lat":35.190055,"lng":136.773696,"zip":"4960003"},{"town":"百島町","koaza":"観音坊","lat":35.169861,"lng":136.772278,"zip":"4960019"},{"town":"高台寺町","koaza":"茶木原","lat":35.159046,"lng":136.77235,"zip":"4960015"},{"town":"百島町","koaza":"三正六歩","lat":35.165518,"lng":136.773054,"zip":"4960019"},{"town":"高台寺町","koaza":"善右ェ門渕","lat":35.164544,"lng":136.77215,"zip":"4960015"},{"town":"寺野町","koaza":"好土","lat":35.190932,"lng":136.773338,"zip":"4960003"},{"town":"神守町","koaza":"元屋敷","lat":35.18389,"lng":136.774317,"zip":"4960005"},{"town":"神守町","koaza":"大門","lat":35.180488,"lng":136.77436,"zip":"4960005"},{"town":"高台寺町","koaza":"尼ケ御堂","lat":35.152721,"lng":136.774156,"zip":"4960015"},{"town":"牧野町","koaza":"昭和","lat":35.194778,"lng":136.772999,"zip":"4960002"},{"town":"莪原町","koaza":"みずほ","lat":35.169469,"lng":136.773349,"zip":"4960011"},{"town":"莪原町","koaza":"不毛","lat":35.167323,"lng":136.774557,"zip":"4960011"},{"town":"神尾町","koaza":"江西","lat":35.157254,"lng":136.774337,"zip":"4960013"},{"town":"大坪町","koaza":"折戸","lat":35.163408,"lng":136.775289,"zip":"4960012"},{"town":"神守町","koaza":"一丁田","lat":35.177494,"lng":136.774206,"zip":"4960005"},{"town":"神守町","koaza":"六反田","lat":35.175818,"lng":136.775402,"zip":"4960005"},{"town":"神守町","koaza":"東浦","lat":35.17942,"lng":136.774378,"zip":"4960005"},{"town":"莪原町","koaza":"神守前","lat":35.171761,"lng":136.774708,"zip":"4960011"},{"town":"神守町","koaza":"古道","lat":35.17309,"lng":136.7749,"zip":"4960005"},{"town":"神尾町","koaza":"蓮池","lat":35.156684,"lng":136.776211,"zip":"4960013"},{"town":"莪原町","koaza":"椋木","lat":35.165526,"lng":136.777767,"zip":"4960011"},{"town":"金柳町","koaza":"神様田","lat":35.152007,"lng":136.776756,"zip":"4960014"},{"town":"大坪町","koaza":"蛤田","lat":35.160974,"lng":136.775424,"zip":"4960012"},{"town":"蛭間町","koaza":"新田","lat":35.186683,"lng":136.775649,"zip":"4960004"},{"town":"莪原町","koaza":"長ケ島","lat":35.171703,"lng":136.777563,"zip":"4960011"},{"town":"莪原町","koaza":"中深","lat":35.169989,"lng":136.777685,"zip":"4960011"},{"town":"莪原町","koaza":"郷西","lat":35.167341,"lng":136.776494,"zip":"4960011"},{"town":"神尾町","koaza":"野中","lat":35.158815,"lng":136.776913,"zip":"4960013"},{"town":"神守町","koaza":"持竿","lat":35.183884,"lng":136.777449,"zip":"4960005"},{"town":"神守町","koaza":"野合","lat":35.17945,"lng":136.777516,"zip":"4960005"},{"town":"神守町","koaza":"中ノ折","lat":35.173616,"lng":136.777637,"zip":"4960005"},{"town":"神守町","koaza":"砂田","lat":35.175523,"lng":136.777615,"zip":"4960005"},{"town":"神守町","koaza":"二反代","lat":35.180542,"lng":136.77878,"zip":"4960005"},{"town":"大坪町","koaza":"壺里","lat":35.161755,"lng":136.778251,"zip":"4960012"},{"town":"金柳町","koaza":"北脇","lat":35.154006,"lng":136.780182,"zip":"4960014"},{"town":"大坪町","koaza":"小割","lat":35.164158,"lng":136.777898,"zip":"4960012"},{"town":"金柳町","koaza":"観音堂","lat":35.15234,"lng":136.780494,"zip":"4960014"},{"town":"金柳町","koaza":"南脇","lat":35.150425,"lng":136.78098,"zip":"4960014"},{"town":"神尾町","koaza":"西之割","lat":35.15646,"lng":136.779251,"zip":"4960013"},{"town":"神守町","koaza":"東高島","lat":35.178042,"lng":136.778709,"zip":"4960005"},{"town":"神尾町","koaza":"蛤田","lat":35.158686,"lng":136.779537,"zip":"4960013"},{"town":"莪原町","koaza":"河原","lat":35.171752,"lng":136.781815,"zip":"4960011"},{"town":"莪原町","koaza":"西屋敷","lat":35.16809,"lng":136.78016,"zip":"4960011"},{"town":"莪原町","koaza":"菱毛","lat":35.165561,"lng":136.781775,"zip":"4960011"},{"town":"神尾町","koaza":"中外面","lat":35.158529,"lng":136.782719,"zip":"4960013"},{"town":"大坪町","koaza":"東台","lat":35.160508,"lng":136.780866,"zip":"4960012"},{"town":"莪原町","koaza":"下条免","lat":35.164139,"lng":136.781484,"zip":"4960011"},{"town":"神尾町","koaza":"東之割","lat":35.155733,"lng":136.782332,"zip":"4960013"},{"town":"莪原町","koaza":"東屋敷","lat":35.168377,"lng":136.782114,"zip":"4960011"},{"town":"大坪町","koaza":"大割","lat":35.159386,"lng":136.784935,"zip":"4960012"},{"town":"莪原町","koaza":"宮東","lat":35.170957,"lng":136.784567,"zip":"4960011"},{"town":"莪原町","koaza":"郷東","lat":35.167809,"lng":136.785252,"zip":"4960011"},{"town":"神尾町","koaza":"吉田","lat":35.1565,"lng":136.78382,"zip":"4960013"},{"town":"唐臼町","koaza":"当理","lat":35.161694,"lng":136.75081,"zip":"4960026"},{"town":"唐臼町","koaza":"立出","lat":35.16284,"lng":136.755905,"zip":"4960026"},{"town":"中一色町","koaza":"上山","lat":35.177414,"lng":136.753294,"zip":"4960025"},{"town":"大字日光","koaza":"日光","lat":35.178358,"lng":136.753323,"zip":"4960000"},{"town":"大字古川","koaza":"金前","lat":35.177723,"lng":136.744701,"zip":"4960000"},{"town":"大字古川","koaza":"竹腰","lat":35.178178,"lng":136.744278,"zip":"4960000"},{"town":"高台寺町","koaza":"土卜","lat":35.161992,"lng":136.772511,"zip":"4960015"},{"town":"神守町","koaza":"四丁","lat":35.179233,"lng":136.766832,"zip":"4960005"},{"town":"神守町","koaza":"上町","lat":35.177753,"lng":136.771166,"zip":"4960005"},{"town":"神守町","koaza":"高島","lat":35.177452,"lng":136.777221,"zip":"4960005"}]