[{"town":"大字鎌須賀","koaza":"","lat":35.164339,"lng":136.829517,"zip":"4901100"},{"town":"大字北間島","koaza":"","lat":35.176451,"lng":136.830068,"zip":"4901100"},{"town":"大字三本木","koaza":"","lat":35.168387,"lng":136.820247,"zip":"4901100"},{"town":"大字砂子","koaza":"","lat":35.162118,"lng":136.823549,"zip":"4901100"},{"town":"大字中島","koaza":"","lat":35.174272,"lng":136.816964,"zip":"4901100"},{"town":"大字長牧","koaza":"","lat":35.180324,"lng":136.835254,"zip":"4901100"},{"town":"大字西條","koaza":"","lat":35.178777,"lng":136.811838,"zip":"4901100"},{"town":"大字花常","koaza":"","lat":35.181236,"lng":136.821085,"zip":"4901100"},{"town":"大字東條","koaza":"","lat":35.172126,"lng":136.828533,"zip":"4901100"},{"town":"大字堀之内","koaza":"","lat":35.175346,"lng":136.82401,"zip":"4901100"},{"town":"大字馬島","koaza":"","lat":35.173261,"lng":136.819748,"zip":"4901100"},{"town":"大字八ツ屋","koaza":"","lat":35.170769,"lng":136.833418,"zip":"4901100"},{"town":"大字西條","koaza":"平ケ野","lat":35.168953,"lng":136.808677,"zip":"4901100"},{"town":"大字西條","koaza":"須先","lat":35.171017,"lng":136.808463,"zip":"4901100"},{"town":"大字西條","koaza":"狐海道","lat":35.171952,"lng":136.809997,"zip":"4901100"},{"town":"大字西條","koaza":"南井口","lat":35.178352,"lng":136.811614,"zip":"4901100"},{"town":"大字西條","koaza":"石間畑","lat":35.173516,"lng":136.8095,"zip":"4901100"},{"town":"大字西條","koaza":"神田","lat":35.176079,"lng":136.809686,"zip":"4901100"},{"town":"大字西條","koaza":"附田","lat":35.1838,"lng":136.810044,"zip":"4901100"},{"town":"大字西條","koaza":"壱町田","lat":35.181037,"lng":136.810067,"zip":"4901100"},{"town":"大字西條","koaza":"西之川","lat":35.188704,"lng":136.80979,"zip":"4901100"},{"town":"大字西條","koaza":"尼ケ須賀","lat":35.169047,"lng":136.811047,"zip":"4901100"},{"town":"大字西條","koaza":"西之割","lat":35.175667,"lng":136.811569,"zip":"4901100"},{"town":"大字西條","koaza":"殿池","lat":35.176717,"lng":136.811289,"zip":"4901100"},{"town":"大字西條","koaza":"大門先","lat":35.171747,"lng":136.811644,"zip":"4901100"},{"town":"大字西條","koaza":"土井ノ池","lat":35.173792,"lng":136.812098,"zip":"4901100"},{"town":"大字西條","koaza":"松下","lat":35.181094,"lng":136.813357,"zip":"4901100"},{"town":"大字三本木","koaza":"村部","lat":35.166564,"lng":136.814792,"zip":"4901100"},{"town":"大字西條","koaza":"七反田","lat":35.189109,"lng":136.811861,"zip":"4901100"},{"town":"大字西條","koaza":"柳原","lat":35.183775,"lng":136.812087,"zip":"4901100"},{"town":"大字西條","koaza":"南屋敷","lat":35.175115,"lng":136.814259,"zip":"4901100"},{"town":"大字西條","koaza":"佐渡","lat":35.17101,"lng":136.812985,"zip":"4901100"},{"town":"大字西條","koaza":"城前田","lat":35.173294,"lng":136.81389,"zip":"4901100"},{"town":"大字西條","koaza":"北屋敷","lat":35.176748,"lng":136.814081,"zip":"4901100"},{"town":"大字三本木","koaza":"西之川","lat":35.169882,"lng":136.814594,"zip":"4901100"},{"town":"大字西條","koaza":"諏訪","lat":35.1803,"lng":136.81473,"zip":"4901100"},{"town":"大字西條","koaza":"上新田","lat":35.185972,"lng":136.814359,"zip":"4901100"},{"town":"大字西條","koaza":"苅屋橋","lat":35.183273,"lng":136.817036,"zip":"4901100"},{"town":"大字花常","koaza":"円楽寺","lat":35.179156,"lng":136.815593,"zip":"4901100"},{"town":"大字西條","koaza":"海玄田","lat":35.180411,"lng":136.816812,"zip":"4901100"},{"town":"大字西條","koaza":"笠見立","lat":35.185635,"lng":136.816186,"zip":"4901100"},{"town":"大字西條","koaza":"中島前","lat":35.175086,"lng":136.815089,"zip":"4901100"},{"town":"大字中島","koaza":"郷中","lat":35.175691,"lng":136.815572,"zip":"4901100"},{"town":"大字中島","koaza":"深田","lat":35.172261,"lng":136.817019,"zip":"4901100"},{"town":"大字花常","koaza":"郷浦","lat":35.179231,"lng":136.816691,"zip":"4901100"},{"town":"大字花常","koaza":"西屋敷","lat":35.177013,"lng":136.816876,"zip":"4901100"},{"town":"大字西條","koaza":"後割","lat":35.180504,"lng":136.816231,"zip":"4901100"},{"town":"大字中島","koaza":"中田","lat":35.173861,"lng":136.816979,"zip":"4901100"},{"town":"大字砂子","koaza":"西河原","lat":35.166375,"lng":136.816614,"zip":"4901100"},{"town":"大字三本木","koaza":"柳原","lat":35.170488,"lng":136.819001,"zip":"4901100"},{"town":"大字砂子","koaza":"稲家","lat":35.165272,"lng":136.816791,"zip":"4901100"},{"town":"大字三本木","koaza":"金久","lat":35.167999,"lng":136.81777,"zip":"4901100"},{"town":"大字中島","koaza":"大門先","lat":35.175575,"lng":136.817704,"zip":"4901100"},{"town":"大字西條","koaza":"弥勒","lat":35.181402,"lng":136.817653,"zip":"4901100"},{"town":"大字三本木","koaza":"壱ノ割","lat":35.170272,"lng":136.817437,"zip":"4901100"},{"town":"大字三本木","koaza":"西深田","lat":35.171063,"lng":136.81794,"zip":"4901100"},{"town":"大字西條","koaza":"坂牧島","lat":35.183012,"lng":136.819229,"zip":"4901100"},{"town":"大字西條","koaza":"高場","lat":35.185934,"lng":136.819403,"zip":"4901100"},{"town":"大字馬島","koaza":"西深田","lat":35.172329,"lng":136.818113,"zip":"4901100"},{"town":"大字馬島","koaza":"山西","lat":35.174164,"lng":136.818939,"zip":"4901100"},{"town":"大字花常","koaza":"東屋敷","lat":35.176729,"lng":136.819386,"zip":"4901100"},{"town":"大字砂子","koaza":"馬捨場","lat":35.164581,"lng":136.81954,"zip":"4901100"},{"town":"大字花常","koaza":"西江端","lat":35.177952,"lng":136.819622,"zip":"4901100"},{"town":"大字花常","koaza":"フケ","lat":35.179674,"lng":136.820326,"zip":"4901100"},{"town":"大字花常","koaza":"出口","lat":35.182167,"lng":136.819763,"zip":"4901100"},{"town":"大字砂子","koaza":"五反畑","lat":35.163398,"lng":136.819206,"zip":"4901100"},{"town":"大字砂子","koaza":"長田","lat":35.160339,"lng":136.819338,"zip":"4901100"},{"town":"大字砂子","koaza":"勇八前","lat":35.166055,"lng":136.819099,"zip":"4901100"},{"town":"大字三本木","koaza":"屋形","lat":35.167124,"lng":136.820417,"zip":"4901100"},{"town":"大字西條","koaza":"大辻","lat":35.1856,"lng":136.821026,"zip":"4901100"},{"town":"大字馬島","koaza":"大道西","lat":35.172127,"lng":136.819328,"zip":"4901100"},{"town":"大字三本木","koaza":"米野","lat":35.169919,"lng":136.819119,"zip":"4901100"},{"town":"大字馬島","koaza":"大門西","lat":35.173856,"lng":136.819402,"zip":"4901100"},{"town":"大字砂子","koaza":"八ノ坪","lat":35.160683,"lng":136.822746,"zip":"4901100"},{"town":"大字花常","koaza":"馬島浦","lat":35.176137,"lng":136.820265,"zip":"4901100"},{"town":"大字砂子","koaza":"寺屋敷","lat":35.162865,"lng":136.821401,"zip":"4901100"},{"town":"大字砂子","koaza":"折戸","lat":35.166147,"lng":136.821517,"zip":"4901100"},{"town":"大字砂子","koaza":"堂地","lat":35.16403,"lng":136.820679,"zip":"4901100"},{"town":"大字花常","koaza":"福島","lat":35.183435,"lng":136.821487,"zip":"4901100"},{"town":"大字花常","koaza":"中切","lat":35.176908,"lng":136.820735,"zip":"4901100"},{"town":"大字馬島","koaza":"北割","lat":35.174637,"lng":136.821056,"zip":"4901100"},{"town":"大字砂子","koaza":"野割","lat":35.159216,"lng":136.824391,"zip":"4901100"},{"town":"大字花常","koaza":"東江端","lat":35.17785,"lng":136.821877,"zip":"4901100"},{"town":"大字三本木","koaza":"前深田","lat":35.170199,"lng":136.82161,"zip":"4901100"},{"town":"大字馬島","koaza":"大道東","lat":35.171726,"lng":136.820934,"zip":"4901100"},{"town":"大字馬島","koaza":"大門東","lat":35.173537,"lng":136.821533,"zip":"4901100"},{"town":"大字花常","koaza":"伊勢田","lat":35.185828,"lng":136.822333,"zip":"4901100"},{"town":"大字花常","koaza":"中折","lat":35.180479,"lng":136.82224,"zip":"4901100"},{"town":"大字堀之内","koaza":"南二反畑","lat":35.175495,"lng":136.821876,"zip":"4901100"},{"town":"大字花常","koaza":"堀之内境","lat":35.177343,"lng":136.822484,"zip":"4901100"},{"town":"大字花常","koaza":"内坂牧","lat":35.181613,"lng":136.821943,"zip":"4901100"},{"town":"大字堀之内","koaza":"深田","lat":35.170923,"lng":136.823351,"zip":"4901100"},{"town":"大字砂子","koaza":"山ノ浦","lat":35.166228,"lng":136.821912,"zip":"4901100"},{"town":"大字堀之内","koaza":"大堀","lat":35.172372,"lng":136.82348,"zip":"4901100"},{"town":"大字堀之内","koaza":"元苗代","lat":35.17362,"lng":136.821963,"zip":"4901100"},{"town":"大字花常","koaza":"人見","lat":35.182805,"lng":136.82254,"zip":"4901100"},{"town":"大字堀之内","koaza":"郷中","lat":35.174421,"lng":136.822806,"zip":"4901100"},{"town":"大字砂子","koaza":"高越","lat":35.162128,"lng":136.822681,"zip":"4901100"},{"town":"大字花常","koaza":"砂田","lat":35.180046,"lng":136.82249,"zip":"4901100"},{"town":"大字砂子","koaza":"山ノ前","lat":35.164334,"lng":136.822732,"zip":"4901100"},{"town":"大字花常","koaza":"本郷西","lat":35.185808,"lng":136.822924,"zip":"4901100"},{"town":"大字堀之内","koaza":"北二反畑","lat":35.177036,"lng":136.823534,"zip":"4901100"},{"town":"大字砂子","koaza":"桜木","lat":35.16626,"lng":136.824039,"zip":"4901100"},{"town":"大字三本木","koaza":"堅田","lat":35.167576,"lng":136.824485,"zip":"4901100"},{"town":"大字堀之内","koaza":"半之返","lat":35.177551,"lng":136.824675,"zip":"4901100"},{"town":"大字堀之内","koaza":"下六反地","lat":35.178238,"lng":136.824599,"zip":"4901100"},{"town":"大字砂子","koaza":"千手堂","lat":35.163983,"lng":136.824414,"zip":"4901100"},{"town":"大字堀之内","koaza":"宮之越","lat":35.179321,"lng":136.823653,"zip":"4901100"},{"town":"大字砂子","koaza":"犬飼","lat":35.162439,"lng":136.8248,"zip":"4901100"},{"town":"大字堀之内","koaza":"屋敷代","lat":35.175975,"lng":136.824131,"zip":"4901100"},{"town":"大字堀之内","koaza":"苗代","lat":35.173156,"lng":136.824564,"zip":"4901100"},{"town":"大字堀之内","koaza":"中切","lat":35.176962,"lng":136.824503,"zip":"4901100"},{"town":"大字堀之内","koaza":"鷺島","lat":35.179245,"lng":136.824748,"zip":"4901100"},{"town":"大字三本木","koaza":"寒宿","lat":35.168925,"lng":136.826378,"zip":"4901100"},{"town":"大字堀之内","koaza":"東浦","lat":35.173817,"lng":136.8246,"zip":"4901100"},{"town":"大字堀之内","koaza":"神明越","lat":35.174322,"lng":136.824763,"zip":"4901100"},{"town":"大字堀之内","koaza":"彦田畑","lat":35.175417,"lng":136.824842,"zip":"4901100"},{"town":"大字堀之内","koaza":"狐穴","lat":35.176101,"lng":136.825895,"zip":"4901100"},{"town":"大字砂子","koaza":"西腰掛畑","lat":35.162169,"lng":136.825499,"zip":"4901100"},{"town":"大字東條","koaza":"高松","lat":35.172884,"lng":136.826633,"zip":"4901100"},{"town":"大字堀之内","koaza":"上六反地","lat":35.179546,"lng":136.825711,"zip":"4901100"},{"town":"大字北間島","koaza":"屋敷","lat":35.174481,"lng":136.827867,"zip":"4901100"},{"town":"大字三本木","koaza":"九合畑","lat":35.167216,"lng":136.825818,"zip":"4901100"},{"town":"大字東條","koaza":"砂島","lat":35.171298,"lng":136.826587,"zip":"4901100"},{"town":"大字砂子","koaza":"村東","lat":35.158391,"lng":136.827336,"zip":"4901100"},{"town":"大字砂子","koaza":"中割","lat":35.160145,"lng":136.827673,"zip":"4901100"},{"town":"大字北間島","koaza":"宮西","lat":35.176413,"lng":136.827219,"zip":"4901100"},{"town":"大字砂子","koaza":"尾崎","lat":35.161833,"lng":136.828148,"zip":"4901100"},{"town":"大字砂子","koaza":"東腰掛畑","lat":35.162277,"lng":136.826894,"zip":"4901100"},{"town":"大字北間島","koaza":"阿原","lat":35.178275,"lng":136.827873,"zip":"4901100"},{"town":"大字砂子","koaza":"二又","lat":35.163759,"lng":136.827619,"zip":"4901100"},{"town":"大字鎌須賀","koaza":"茶屋","lat":35.167018,"lng":136.828647,"zip":"4901100"},{"town":"大字八ツ屋","koaza":"東田面","lat":35.173645,"lng":136.835138,"zip":"4901100"},{"town":"大字鎌須賀","koaza":"山廻","lat":35.164684,"lng":136.828785,"zip":"4901100"},{"town":"大字東條","koaza":"郷前","lat":35.171164,"lng":136.829229,"zip":"4901100"},{"town":"大字東條","koaza":"郷内","lat":35.172828,"lng":136.829221,"zip":"4901100"},{"town":"大字北間島","koaza":"宮東","lat":35.176034,"lng":136.830414,"zip":"4901100"},{"town":"大字北間島","koaza":"藤田","lat":35.177907,"lng":136.83073,"zip":"4901100"},{"town":"大字鎌須賀","koaza":"川畔","lat":35.161365,"lng":136.830681,"zip":"4901100"},{"town":"大字八ツ屋","koaza":"西田面","lat":35.169658,"lng":136.830523,"zip":"4901100"},{"town":"大字砂子","koaza":"柳原","lat":35.158487,"lng":136.830871,"zip":"4901100"},{"town":"大字鎌須賀","koaza":"郷前","lat":35.163207,"lng":136.830671,"zip":"4901100"},{"town":"大字八ツ屋","koaza":"山畔","lat":35.166846,"lng":136.830835,"zip":"4901100"},{"town":"大字東條","koaza":"中切","lat":35.173378,"lng":136.83169,"zip":"4901100"},{"town":"大字北間島","koaza":"大道","lat":35.175272,"lng":136.831621,"zip":"4901100"},{"town":"大字八ツ屋","koaza":"堤添","lat":35.167589,"lng":136.832184,"zip":"4901100"},{"town":"大字八ツ屋","koaza":"裏畑","lat":35.172248,"lng":136.833155,"zip":"4901100"},{"town":"大字長牧","koaza":"浦畑","lat":35.178199,"lng":136.834784,"zip":"4901100"},{"town":"大字砂子","koaza":"大宮崎","lat":35.158423,"lng":136.833681,"zip":"4901100"},{"town":"大字八ツ屋","koaza":"郷内","lat":35.171305,"lng":136.834176,"zip":"4901100"},{"town":"大字北間島","koaza":"柿木","lat":35.175511,"lng":136.834167,"zip":"4901100"},{"town":"大字八ツ屋","koaza":"前山","lat":35.170082,"lng":136.835083,"zip":"4901100"},{"town":"大字長牧","koaza":"中道","lat":35.179962,"lng":136.835734,"zip":"4901100"},{"town":"大字長牧","koaza":"前田","lat":35.182925,"lng":136.835516,"zip":"4901100"},{"town":"大字長牧","koaza":"向","lat":35.176515,"lng":136.835141,"zip":"4901100"},{"town":"大字長牧","koaza":"油","lat":35.184757,"lng":136.833859,"zip":"4901100"},{"town":"大字八ツ屋","koaza":"流作","lat":35.174171,"lng":136.838673,"zip":"4901100"}]