[{"town":"朝日愛宕","koaza":"","lat":35.222217,"lng":136.849612,"zip":"4520000"},{"town":"朝日貝塚","koaza":"","lat":35.220279,"lng":136.852767,"zip":"4520000"},{"town":"朝日検見","koaza":"","lat":35.221177,"lng":136.855684,"zip":"4520000"},{"town":"朝日五条","koaza":"","lat":35.222449,"lng":136.846659,"zip":"4520000"},{"town":"朝日城屋敷","koaza":"","lat":35.220415,"lng":136.845138,"zip":"4520000"},{"town":"朝日天王","koaza":"","lat":35.219282,"lng":136.84596,"zip":"4520000"},{"town":"朝日弥生","koaza":"","lat":35.219057,"lng":136.848726,"zip":"4520000"},{"town":"阿原","koaza":"","lat":35.216751,"lng":136.85831,"zip":"4520901"},{"town":"阿原池之表","koaza":"","lat":35.214311,"lng":136.855699,"zip":"4520000"},{"town":"阿原鴨池","koaza":"","lat":35.216914,"lng":136.856659,"zip":"4520000"},{"town":"阿原北野","koaza":"","lat":35.214191,"lng":136.861078,"zip":"4520000"},{"town":"阿原神門","koaza":"","lat":35.208535,"lng":136.85749,"zip":"4520000"},{"town":"阿原角の城","koaza":"","lat":35.218127,"lng":136.853681,"zip":"4520000"},{"town":"阿原八幡","koaza":"","lat":35.216049,"lng":136.854512,"zip":"4520000"},{"town":"阿原星の宮","koaza":"","lat":35.212159,"lng":136.856173,"zip":"4520000"},{"town":"阿原宮東","koaza":"","lat":35.212805,"lng":136.859606,"zip":"4520000"},{"town":"阿原宮前","koaza":"","lat":35.210646,"lng":136.859151,"zip":"4520000"},{"town":"一場","koaza":"","lat":35.223345,"lng":136.840066,"zip":"4520931"},{"town":"一場福島","koaza":"","lat":35.227319,"lng":136.841626,"zip":"4520000"},{"town":"一場弓町","koaza":"","lat":35.22464,"lng":136.842613,"zip":"4520000"},{"town":"大嶋一丁目","koaza":"","lat":35.229004,"lng":136.835153,"zip":"4520934"},{"town":"大嶋二丁目","koaza":"","lat":35.227744,"lng":136.836537,"zip":"4520934"},{"town":"下津町北下河原","koaza":"","lat":35.245608,"lng":136.832311,"zip":"4520000"},{"town":"下津町東クタラケ","koaza":"","lat":35.245989,"lng":136.832893,"zip":"4520000"},{"town":"上河原","koaza":"","lat":35.195068,"lng":136.853495,"zip":"4520913"},{"town":"清洲","koaza":"","lat":35.209955,"lng":136.84037,"zip":"4520942"},{"town":"清洲一丁目","koaza":"","lat":35.215626,"lng":136.836167,"zip":"4520942"},{"town":"清洲二丁目","koaza":"","lat":35.216205,"lng":136.838343,"zip":"4520942"},{"town":"清洲三丁目","koaza":"","lat":35.217797,"lng":136.838782,"zip":"4520942"},{"town":"清洲四丁目","koaza":"","lat":35.221543,"lng":136.835909,"zip":"4520942"},{"town":"清洲田中町","koaza":"","lat":35.215416,"lng":136.845346,"zip":"4520000"},{"town":"清洲弁天","koaza":"","lat":35.216288,"lng":136.846743,"zip":"4520000"},{"town":"下河原","koaza":"","lat":35.186165,"lng":136.850054,"zip":"4520916"},{"town":"上条","koaza":"","lat":35.206186,"lng":136.825963,"zip":"4520944"},{"town":"上条一丁目","koaza":"","lat":35.207897,"lng":136.832645,"zip":"4520944"},{"town":"上条二丁目","koaza":"","lat":35.205417,"lng":136.831125,"zip":"4520944"},{"town":"上条織部","koaza":"","lat":35.20723,"lng":136.830597,"zip":"4520000"},{"town":"新清洲一丁目","koaza":"","lat":35.210968,"lng":136.834697,"zip":"4520943"},{"town":"新清洲二丁目","koaza":"","lat":35.209391,"lng":136.834478,"zip":"4520943"},{"town":"新清洲三丁目","koaza":"","lat":35.209275,"lng":136.836585,"zip":"4520943"},{"town":"新清洲四丁目","koaza":"","lat":35.206371,"lng":136.836844,"zip":"4520943"},{"town":"新清洲五丁目","koaza":"","lat":35.207097,"lng":136.83468,"zip":"4520943"},{"town":"新清洲六丁目","koaza":"","lat":35.205489,"lng":136.834638,"zip":"4520943"},{"town":"須ケ口","koaza":"","lat":35.199033,"lng":136.848736,"zip":"4520905"},{"town":"須ケ口駅前一丁目","koaza":"","lat":35.198731,"lng":136.845079,"zip":"4520912"},{"town":"須ケ口駅前二丁目","koaza":"","lat":35.198378,"lng":136.844818,"zip":"4520912"},{"town":"助七","koaza":"","lat":35.203516,"lng":136.855321,"zip":"4520903"},{"town":"助七一丁目","koaza":"","lat":35.202919,"lng":136.853774,"zip":"4520903"},{"town":"助七二丁目","koaza":"","lat":35.203439,"lng":136.850239,"zip":"4520903"},{"town":"助七五反田","koaza":"","lat":35.206415,"lng":136.854845,"zip":"4520000"},{"town":"助七東山中","koaza":"","lat":35.205219,"lng":136.856139,"zip":"4520000"},{"town":"助七美里","koaza":"","lat":35.205966,"lng":136.853386,"zip":"4520000"},{"town":"助七芳花","koaza":"","lat":35.207649,"lng":136.856531,"zip":"4520000"},{"town":"土田","koaza":"","lat":35.212368,"lng":136.825555,"zip":"4520945"},{"town":"土田一丁目","koaza":"","lat":35.210586,"lng":136.832681,"zip":"4520945"},{"town":"土田二丁目","koaza":"","lat":35.210672,"lng":136.82874,"zip":"4520945"},{"town":"土田三丁目","koaza":"","lat":35.214278,"lng":136.830083,"zip":"4520945"},{"town":"土田小中畑","koaza":"","lat":35.212731,"lng":136.833771,"zip":"4520000"},{"town":"土田川田","koaza":"","lat":35.212525,"lng":136.834569,"zip":"4520000"},{"town":"土田北浦","koaza":"","lat":35.213131,"lng":136.831091,"zip":"4520000"},{"town":"土田郷上切","koaza":"","lat":35.212053,"lng":136.831524,"zip":"4520000"},{"town":"土田郷下切","koaza":"","lat":35.209415,"lng":136.83002,"zip":"4520000"},{"town":"土田郷中切","koaza":"","lat":35.210986,"lng":136.830926,"zip":"4520000"},{"town":"寺野","koaza":"","lat":35.207652,"lng":136.849988,"zip":"4520908"},{"town":"寺野池端","koaza":"","lat":35.212414,"lng":136.847848,"zip":"4520000"},{"town":"寺野郷前","koaza":"","lat":35.205297,"lng":136.850383,"zip":"4520000"},{"town":"寺野花笠","koaza":"","lat":35.209262,"lng":136.851842,"zip":"4520000"},{"town":"寺野花園","koaza":"","lat":35.209337,"lng":136.845735,"zip":"4520000"},{"town":"寺野美鈴","koaza":"","lat":35.21006,"lng":136.854363,"zip":"4520000"},{"town":"寺野元町","koaza":"","lat":35.206768,"lng":136.847861,"zip":"4520000"},{"town":"桃栄一丁目","koaza":"","lat":35.198591,"lng":136.840131,"zip":"4520918"},{"town":"桃栄二丁目","koaza":"","lat":35.196985,"lng":136.841156,"zip":"4520918"},{"town":"桃栄三丁目","koaza":"","lat":35.195287,"lng":136.843034,"zip":"4520918"},{"town":"桃栄四丁目","koaza":"","lat":35.193101,"lng":136.846057,"zip":"4520918"},{"town":"土器野","koaza":"","lat":35.19257,"lng":136.852868,"zip":"4520914"},{"town":"中河原","koaza":"","lat":35.190575,"lng":136.850042,"zip":"4520915"},{"town":"鍋片一丁目","koaza":"","lat":35.207409,"lng":136.843485,"zip":"4520907"},{"town":"鍋片二丁目","koaza":"","lat":35.205224,"lng":136.845508,"zip":"4520907"},{"town":"鍋片三丁目","koaza":"","lat":35.203488,"lng":136.845361,"zip":"4520907"},{"town":"西市場一丁目","koaza":"","lat":35.218198,"lng":136.835102,"zip":"4520941"},{"town":"西市場二丁目","koaza":"","lat":35.220241,"lng":136.83583,"zip":"4520941"},{"town":"西市場三丁目","koaza":"","lat":35.220361,"lng":136.833209,"zip":"4520941"},{"town":"西市場四丁目","koaza":"","lat":35.220429,"lng":136.830388,"zip":"4520941"},{"town":"西市場五丁目","koaza":"","lat":35.219058,"lng":136.828503,"zip":"4520941"},{"town":"西市場六丁目","koaza":"","lat":35.221048,"lng":136.827534,"zip":"4520941"},{"town":"西須ケ口","koaza":"","lat":35.201702,"lng":136.839396,"zip":"4520911"},{"town":"西田中","koaza":"","lat":35.211594,"lng":136.850958,"zip":"4520933"},{"town":"西田中城下","koaza":"","lat":35.213444,"lng":136.849108,"zip":"4520000"},{"town":"西田中長堀","koaza":"","lat":35.217018,"lng":136.849189,"zip":"4520000"},{"town":"西田中白山","koaza":"","lat":35.212712,"lng":136.853159,"zip":"4520000"},{"town":"西田中蓮池","koaza":"","lat":35.214109,"lng":136.85162,"zip":"4520000"},{"town":"西田中本城","koaza":"","lat":35.215372,"lng":136.850364,"zip":"4520000"},{"town":"西田中松本","koaza":"","lat":35.216985,"lng":136.851782,"zip":"4520000"},{"town":"西枇杷島町旭一丁目","koaza":"","lat":35.19682,"lng":136.862671,"zip":"4520064"},{"town":"西枇杷島町旭二丁目","koaza":"","lat":35.197089,"lng":136.861221,"zip":"4520064"},{"town":"西枇杷島町旭三丁目","koaza":"","lat":35.198192,"lng":136.859941,"zip":"4520064"},{"town":"西枇杷島町亥新田","koaza":"","lat":35.196395,"lng":136.856958,"zip":"4520000"},{"town":"西枇杷島町泉","koaza":"","lat":35.1989,"lng":136.86736,"zip":"4520015"},{"town":"西枇杷島町一反五畝割","koaza":"","lat":35.20275,"lng":136.861857,"zip":"4520007"},{"town":"西枇杷島町一反二畝割","koaza":"","lat":35.203655,"lng":136.860701,"zip":"4520000"},{"town":"西枇杷島町井下見取","koaza":"","lat":35.206248,"lng":136.877275,"zip":"4520000"},{"town":"西枇杷島町恵比須","koaza":"","lat":35.199504,"lng":136.864298,"zip":"4520005"},{"town":"西枇杷島町大野","koaza":"","lat":35.194045,"lng":136.860069,"zip":"4520051"},{"town":"西枇杷島町押花","koaza":"","lat":35.200675,"lng":136.868087,"zip":"4520014"},{"town":"西枇杷島町小田井一丁目","koaza":"","lat":35.203328,"lng":136.873097,"zip":"4520021"},{"town":"西枇杷島町小田井二丁目","koaza":"","lat":35.20622,"lng":136.874353,"zip":"4520021"},{"town":"西枇杷島町小田井三丁目","koaza":"","lat":35.208313,"lng":136.875239,"zip":"4520021"},{"town":"西枇杷島町小野田","koaza":"","lat":35.19431,"lng":136.863038,"zip":"4520041"},{"town":"西枇杷島町替地","koaza":"","lat":35.200338,"lng":136.855936,"zip":"4520067"},{"town":"西枇杷島町片町","koaza":"","lat":35.197623,"lng":136.870172,"zip":"4520024"},{"town":"西枇杷島町上新","koaza":"","lat":35.201258,"lng":136.872515,"zip":"4520022"},{"town":"西枇杷島町川口","koaza":"","lat":35.194559,"lng":136.864425,"zip":"4520042"},{"town":"西枇杷島町北枇杷池","koaza":"","lat":35.19135,"lng":136.859952,"zip":"4520000"},{"town":"西枇杷島町北二ツ杁","koaza":"","lat":35.193661,"lng":136.857348,"zip":"4520055"},{"town":"西枇杷島町北大和","koaza":"","lat":35.203093,"lng":136.869178,"zip":"4520012"},{"town":"西枇杷島町古城一丁目","koaza":"","lat":35.206005,"lng":136.866888,"zip":"4520001"},{"town":"西枇杷島町古城二丁目","koaza":"","lat":35.209129,"lng":136.868171,"zip":"4520001"},{"town":"西枇杷島町五畝割","koaza":"","lat":35.201377,"lng":136.858874,"zip":"4520062"},{"town":"西枇杷島町小場塚","koaza":"","lat":35.202525,"lng":136.856883,"zip":"4520061"},{"town":"西枇杷島町十軒裏","koaza":"","lat":35.195551,"lng":136.869036,"zip":"4520025"},{"town":"西枇杷島町芝野新田","koaza":"","lat":35.197127,"lng":136.859115,"zip":"4520066"},{"town":"西枇杷島町芝場","koaza":"","lat":35.19906,"lng":136.85985,"zip":"4520000"},{"town":"西枇杷島町下新","koaza":"","lat":35.199425,"lng":136.871372,"zip":"4520023"},{"town":"西枇杷島町下砂入","koaza":"","lat":35.195985,"lng":136.867424,"zip":"4520017"},{"town":"西枇杷島町城並一丁目","koaza":"","lat":35.204557,"lng":136.870201,"zip":"4520011"},{"town":"西枇杷島町城並二丁目","koaza":"","lat":35.207334,"lng":136.871038,"zip":"4520011"},{"town":"西枇杷島町城並三丁目","koaza":"","lat":35.209879,"lng":136.871272,"zip":"4520011"},{"town":"西枇杷島町地領","koaza":"","lat":35.206088,"lng":136.858927,"zip":"4520008"},{"town":"西枇杷島町地領一丁目","koaza":"","lat":35.205688,"lng":136.863179,"zip":"4520008"},{"town":"西枇杷島町地領二丁目","koaza":"","lat":35.205943,"lng":136.86046,"zip":"4520008"},{"town":"西枇杷島町新田","koaza":"","lat":35.200351,"lng":136.858457,"zip":"4520000"},{"town":"西枇杷島町砂入","koaza":"","lat":35.197165,"lng":136.86733,"zip":"4520016"},{"town":"西枇杷島町末広","koaza":"","lat":35.201543,"lng":136.864858,"zip":"4520003"},{"town":"西枇杷島町住吉","koaza":"","lat":35.197287,"lng":136.865506,"zip":"4520018"},{"town":"西枇杷島町大黒","koaza":"","lat":35.200471,"lng":136.86557,"zip":"4520004"},{"town":"西枇杷島町高葭","koaza":"","lat":35.196073,"lng":136.858464,"zip":"4520000"},{"town":"西枇杷島町辰新田","koaza":"","lat":35.193386,"lng":136.859968,"zip":"4520052"},{"town":"西枇杷島町問屋","koaza":"","lat":35.194132,"lng":136.86589,"zip":"4520035"},{"town":"西枇杷島町七畝割","koaza":"","lat":35.199778,"lng":136.859499,"zip":"4520063"},{"town":"西枇杷島町西笹子原","koaza":"","lat":35.194309,"lng":136.860682,"zip":"4520046"},{"town":"西枇杷島町西枇杷池","koaza":"","lat":35.190767,"lng":136.857197,"zip":"4520000"},{"town":"西枇杷島町西六軒","koaza":"","lat":35.193362,"lng":136.86246,"zip":"4520045"},{"town":"西枇杷島町子新田","koaza":"","lat":35.198623,"lng":136.856094,"zip":"4520068"},{"town":"西枇杷島町橋詰","koaza":"","lat":35.194191,"lng":136.868181,"zip":"4520026"},{"town":"西枇杷島町花咲","koaza":"","lat":35.203159,"lng":136.866384,"zip":"4520002"},{"town":"西枇杷島町東笹子原","koaza":"","lat":35.19421,"lng":136.861857,"zip":"4520047"},{"town":"西枇杷島町東六軒","koaza":"","lat":35.193693,"lng":136.864668,"zip":"4520043"},{"town":"西枇杷島町日の出","koaza":"","lat":35.196721,"lng":136.864303,"zip":"4520034"},{"town":"西枇杷島町日之出一丁目","koaza":"","lat":35.195127,"lng":136.865237,"zip":"4520034"},{"town":"西枇杷島町二見","koaza":"","lat":35.199013,"lng":136.862959,"zip":"4520033"},{"town":"西枇杷島町弁天","koaza":"","lat":35.202227,"lng":136.863516,"zip":"4520006"},{"town":"西枇杷島町南問屋","koaza":"","lat":35.192484,"lng":136.866584,"zip":"4520036"},{"town":"西枇杷島町南枇杷池","koaza":"","lat":35.189885,"lng":136.857959,"zip":"4520000"},{"town":"西枇杷島町南二ツ杁","koaza":"","lat":35.192021,"lng":136.85693,"zip":"4520054"},{"town":"西枇杷島町南松原","koaza":"","lat":35.192459,"lng":136.859813,"zip":"4520053"},{"town":"西枇杷島町南大和","koaza":"","lat":35.20179,"lng":136.868857,"zip":"4520013"},{"town":"西枇杷島町南六軒","koaza":"","lat":35.191674,"lng":136.863556,"zip":"4520044"},{"town":"西枇杷島町宮前一丁目","koaza":"","lat":35.202354,"lng":136.860061,"zip":"4520031"},{"town":"西枇杷島町宮前二丁目","koaza":"","lat":35.203299,"lng":136.85888,"zip":"4520031"},{"town":"西枇杷島町養和","koaza":"","lat":35.20169,"lng":136.861218,"zip":"4520032"},{"town":"西枇杷島町芳野一丁目","koaza":"","lat":35.195094,"lng":136.862619,"zip":"4520065"},{"town":"西枇杷島町芳野二丁目","koaza":"","lat":35.195293,"lng":136.858284,"zip":"4520065"},{"town":"西枇杷島町芳野三丁目","koaza":"","lat":35.196191,"lng":136.853983,"zip":"4520065"},{"town":"西枇杷島町六拾軒","koaza":"","lat":35.197848,"lng":136.855429,"zip":"4520000"},{"town":"西堀江","koaza":"","lat":35.189021,"lng":136.846873,"zip":"4520917"},{"town":"萩野","koaza":"","lat":35.195169,"lng":136.846505,"zip":"4520919"},{"town":"廻間一丁目","koaza":"","lat":35.216823,"lng":136.83162,"zip":"4520946"},{"town":"廻間二丁目","koaza":"","lat":35.217853,"lng":136.830622,"zip":"4520946"},{"town":"廻間三丁目","koaza":"","lat":35.217151,"lng":136.826802,"zip":"4520946"},{"town":"花水木一丁目","koaza":"","lat":35.214013,"lng":136.834197,"zip":"4520947"},{"town":"花水木二丁目","koaza":"","lat":35.214805,"lng":136.832106,"zip":"4520947"},{"town":"春日県","koaza":"","lat":35.233874,"lng":136.844943,"zip":"4520962"},{"town":"春日明河原","koaza":"","lat":35.229762,"lng":136.842416,"zip":"4520961"},{"town":"春日石戸尻","koaza":"","lat":35.230244,"lng":136.851264,"zip":"4520000"},{"town":"春日一番割","koaza":"","lat":35.23656,"lng":136.831479,"zip":"4520961"},{"town":"春日壱屋敷","koaza":"","lat":35.240142,"lng":136.835577,"zip":"4520961"},{"town":"春日一丁地","koaza":"","lat":35.223618,"lng":136.854159,"zip":"4520000"},{"town":"春日一本松","koaza":"","lat":35.231055,"lng":136.844564,"zip":"4520961"},{"town":"春日稲荷","koaza":"","lat":35.234587,"lng":136.832014,"zip":"4520961"},{"town":"春日杁前","koaza":"","lat":35.225059,"lng":136.844622,"zip":"4520961"},{"town":"春日午","koaza":"","lat":35.238321,"lng":136.834578,"zip":"4520961"},{"town":"春日江先","koaza":"","lat":35.224045,"lng":136.854955,"zip":"4520962"},{"town":"春日鴛葬寺","koaza":"","lat":35.234708,"lng":136.849363,"zip":"4520000"},{"town":"春日落合","koaza":"","lat":35.245113,"lng":136.83725,"zip":"4520961"},{"town":"春日上丑","koaza":"","lat":35.239296,"lng":136.829483,"zip":"4520961"},{"town":"春日上川畑","koaza":"","lat":35.244528,"lng":136.831821,"zip":"4520961"},{"town":"春日上河原","koaza":"","lat":35.231569,"lng":136.843698,"zip":"4520961"},{"town":"春日上須ケ田","koaza":"","lat":35.243085,"lng":136.833285,"zip":"4520961"},{"town":"春日上高畑","koaza":"","lat":35.245348,"lng":136.832854,"zip":"4520961"},{"town":"春日上堤クロ","koaza":"","lat":35.239054,"lng":136.831372,"zip":"4520961"},{"town":"春日上中割","koaza":"","lat":35.239082,"lng":136.832817,"zip":"4520961"},{"town":"春日上六反地","koaza":"","lat":35.226494,"lng":136.853106,"zip":"4520000"},{"town":"春日川中","koaza":"","lat":35.234425,"lng":136.848034,"zip":"4520962"},{"town":"春日河原","koaza":"","lat":35.228983,"lng":136.843588,"zip":"4520961"},{"town":"春日北河原","koaza":"","lat":35.249173,"lng":136.836057,"zip":"4520000"},{"town":"春日北焼田","koaza":"","lat":35.236853,"lng":136.84862,"zip":"4520000"},{"town":"春日桑","koaza":"","lat":35.232211,"lng":136.83727,"zip":"4520961"},{"town":"春日郷裏","koaza":"","lat":35.234608,"lng":136.838887,"zip":"4520961"},{"town":"春日郷ケ島","koaza":"","lat":35.231943,"lng":136.853749,"zip":"4520962"},{"town":"春日高札","koaza":"","lat":35.229953,"lng":136.849314,"zip":"4520962"},{"town":"春日郷前","koaza":"","lat":35.239185,"lng":136.838655,"zip":"4520961"},{"town":"春日五反地","koaza":"","lat":35.231905,"lng":136.851737,"zip":"4520962"},{"town":"春日小塚西","koaza":"","lat":35.232734,"lng":136.834602,"zip":"4520961"},{"town":"春日小塚南","koaza":"","lat":35.230728,"lng":136.837101,"zip":"4520961"},{"town":"春日小松生","koaza":"","lat":35.243322,"lng":136.831673,"zip":"4520961"},{"town":"春日三番割","koaza":"","lat":35.235301,"lng":136.833159,"zip":"4520961"},{"town":"春日三本松","koaza":"","lat":35.234952,"lng":136.849271,"zip":"4520000"},{"town":"春日仕合","koaza":"","lat":35.234236,"lng":136.849709,"zip":"4520000"},{"town":"春日下丑","koaza":"","lat":35.236832,"lng":136.830177,"zip":"4520961"},{"town":"春日下河原","koaza":"","lat":35.228688,"lng":136.840815,"zip":"4520961"},{"town":"春日下堤クロ","koaza":"","lat":35.238135,"lng":136.831708,"zip":"4520961"},{"town":"春日下流","koaza":"","lat":35.236387,"lng":136.849021,"zip":"4520000"},{"town":"春日下中割","koaza":"","lat":35.238177,"lng":136.833063,"zip":"4520961"},{"town":"春日社子地","koaza":"","lat":35.236154,"lng":136.843387,"zip":"4520962"},{"town":"春日定ノ割","koaza":"","lat":35.231578,"lng":136.836954,"zip":"4520961"},{"town":"春日白弓","koaza":"","lat":35.235971,"lng":136.850935,"zip":"4520962"},{"town":"春日尻江","koaza":"","lat":35.225723,"lng":136.853319,"zip":"4520000"},{"town":"春日城裏","koaza":"","lat":35.224047,"lng":136.845515,"zip":"4520000"},{"town":"春日新田","koaza":"","lat":35.231793,"lng":136.85597,"zip":"4520962"},{"town":"春日新田畑","koaza":"","lat":35.235814,"lng":136.839755,"zip":"4520961"},{"town":"春日新畑","koaza":"","lat":35.236613,"lng":136.840607,"zip":"4520000"},{"town":"春日新堀","koaza":"","lat":35.237155,"lng":136.838583,"zip":"4520961"},{"town":"春日新堀北","koaza":"","lat":35.239127,"lng":136.836186,"zip":"4520961"},{"town":"春日新堀南","koaza":"","lat":35.237862,"lng":136.839637,"zip":"4520000"},{"town":"春日新町","koaza":"","lat":35.227252,"lng":136.850869,"zip":"4520962"},{"town":"春日神明","koaza":"","lat":35.230208,"lng":136.846654,"zip":"4520962"},{"town":"春日須ケ田","koaza":"","lat":35.24285,"lng":136.834689,"zip":"4520961"},{"town":"春日須ケ畑","koaza":"","lat":35.243071,"lng":136.829675,"zip":"4520961"},{"town":"春日砂賀東","koaza":"","lat":35.231829,"lng":136.849073,"zip":"4520962"},{"town":"春日代官田","koaza":"","lat":35.232468,"lng":136.850438,"zip":"4520000"},{"town":"春日大河戸","koaza":"","lat":35.23009,"lng":136.838998,"zip":"4520961"},{"town":"春日高畑","koaza":"","lat":35.244,"lng":136.832688,"zip":"4520961"},{"town":"春日竹村","koaza":"","lat":35.224474,"lng":136.853772,"zip":"4520000"},{"town":"春日蛸代","koaza":"","lat":35.234769,"lng":136.849684,"zip":"4520000"},{"town":"春日立作","koaza":"","lat":35.226748,"lng":136.854409,"zip":"4520962"},{"town":"春日長久寺","koaza":"","lat":35.225849,"lng":136.851474,"zip":"4520962"},{"town":"春日堤クロ","koaza":"","lat":35.239984,"lng":136.830372,"zip":"4520961"},{"town":"春日寺浦","koaza":"","lat":35.230562,"lng":136.848734,"zip":"4520000"},{"town":"春日寺廻り","koaza":"","lat":35.240476,"lng":136.833884,"zip":"4520961"},{"town":"春日天神","koaza":"","lat":35.227338,"lng":136.847706,"zip":"4520962"},{"town":"春日樋","koaza":"","lat":35.229467,"lng":136.840025,"zip":"4520961"},{"town":"春日寅ケ島","koaza":"","lat":35.223636,"lng":136.853929,"zip":"4520000"},{"town":"春日酉","koaza":"","lat":35.235354,"lng":136.837165,"zip":"4520961"},{"town":"春日鳥出","koaza":"","lat":35.234101,"lng":136.852295,"zip":"4520962"},{"town":"春日中河原","koaza":"","lat":35.226581,"lng":136.845668,"zip":"4520961"},{"town":"春日中沼","koaza":"","lat":35.229174,"lng":136.854503,"zip":"4520962"},{"town":"春日中ノ割","koaza":"","lat":35.230602,"lng":136.837578,"zip":"4520000"},{"town":"春日長畑","koaza":"","lat":35.240525,"lng":136.831696,"zip":"4520961"},{"town":"春日中焼田","koaza":"","lat":35.236068,"lng":136.848994,"zip":"4520000"},{"town":"春日流","koaza":"","lat":35.23855,"lng":136.849594,"zip":"4520962"},{"town":"春日仲割","koaza":"","lat":35.245657,"lng":136.834494,"zip":"4520000"},{"town":"春日西須ケ畑","koaza":"","lat":35.242761,"lng":136.830627,"zip":"4520961"},{"town":"春日西牧前","koaza":"","lat":35.231009,"lng":136.838596,"zip":"4520961"},{"town":"春日西牧南","koaza":"","lat":35.23079,"lng":136.84212,"zip":"4520961"},{"town":"春日西余部","koaza":"","lat":35.23392,"lng":136.836189,"zip":"4520961"},{"town":"春日二番割","koaza":"","lat":35.236876,"lng":136.833294,"zip":"4520961"},{"town":"春日弐屋敷","koaza":"","lat":35.239918,"lng":136.83733,"zip":"4520961"},{"town":"春日猫塚","koaza":"","lat":35.237382,"lng":136.848395,"zip":"4520000"},{"town":"春日野方","koaza":"","lat":35.236585,"lng":136.835763,"zip":"4520961"},{"town":"春日野田町","koaza":"","lat":35.225355,"lng":136.847558,"zip":"4520962"},{"town":"春日八幡","koaza":"","lat":35.23276,"lng":136.84178,"zip":"4520961"},{"town":"春日八幡裏","koaza":"","lat":35.234553,"lng":136.842164,"zip":"4520961"},{"town":"春日八幡前","koaza":"","lat":35.230268,"lng":136.843244,"zip":"4520961"},{"town":"春日八幡南","koaza":"","lat":35.23329,"lng":136.842381,"zip":"4520961"},{"town":"春日東上河原","koaza":"","lat":35.227822,"lng":136.845511,"zip":"4520000"},{"town":"春日東小塚","koaza":"","lat":35.23156,"lng":136.840383,"zip":"4520961"},{"town":"春日東須ケ畑","koaza":"","lat":35.232807,"lng":136.841295,"zip":"4520961"},{"town":"春日東出","koaza":"","lat":35.240635,"lng":136.839237,"zip":"4520961"},{"town":"春日富士塚","koaza":"","lat":35.231637,"lng":136.846113,"zip":"4520000"},{"town":"春日二ツ池","koaza":"","lat":35.241317,"lng":136.840922,"zip":"4520961"},{"town":"春日淵田","koaza":"","lat":35.233226,"lng":136.850092,"zip":"4520000"},{"town":"春日舟付","koaza":"","lat":35.223842,"lng":136.85135,"zip":"4520962"},{"town":"春日振形","koaza":"","lat":35.237906,"lng":136.841495,"zip":"4520961"},{"town":"春日堀田","koaza":"","lat":35.241806,"lng":136.831712,"zip":"4520961"},{"town":"春日松原","koaza":"","lat":35.231359,"lng":136.850904,"zip":"4520000"},{"town":"春日南川原","koaza":"","lat":35.24747,"lng":136.834629,"zip":"4520000"},{"town":"春日南灰肥","koaza":"","lat":35.224071,"lng":136.854045,"zip":"4520000"},{"town":"春日宮越","koaza":"","lat":35.233956,"lng":136.837694,"zip":"4520961"},{"town":"春日宮重","koaza":"","lat":35.23244,"lng":136.836517,"zip":"4520961"},{"town":"春日宮重町","koaza":"","lat":35.249502,"lng":136.840543,"zip":"4520961"},{"town":"春日向河原","koaza":"","lat":35.229996,"lng":136.83799,"zip":"4520961"},{"town":"春日焼河原","koaza":"","lat":35.229697,"lng":136.845005,"zip":"4520000"},{"town":"春日焼田","koaza":"","lat":35.23616,"lng":136.846799,"zip":"4520962"},{"town":"春日屋敷","koaza":"","lat":35.232398,"lng":136.839472,"zip":"4520961"},{"town":"春日柳先","koaza":"","lat":35.228168,"lng":136.852336,"zip":"4520000"},{"town":"春日夢の森","koaza":"","lat":35.234041,"lng":136.840091,"zip":"4520961"},{"town":"春日与市河原","koaza":"","lat":35.225662,"lng":136.845671,"zip":"4520000"},{"town":"春日四辻","koaza":"","lat":35.229378,"lng":136.85176,"zip":"4520000"},{"town":"春日四番割","koaza":"","lat":35.2339,"lng":136.833803,"zip":"4520961"},{"town":"春日蓮花寺前","koaza":"","lat":35.238262,"lng":136.837103,"zip":"4520961"},{"town":"春日六反地","koaza":"","lat":35.226868,"lng":136.852749,"zip":"4520000"},{"town":"東須ケ口","koaza":"","lat":35.201888,"lng":136.847947,"zip":"4520904"},{"town":"東外町","koaza":"","lat":35.201169,"lng":136.844322,"zip":"4520906"},{"town":"枇杷島駅前東一丁目","koaza":"","lat":35.200443,"lng":136.861724,"zip":"4520037"},{"town":"土田","koaza":"郷前","lat":35.209576,"lng":136.831277,"zip":"4520945"},{"town":"一場","koaza":"御園","lat":35.22328,"lng":136.840583,"zip":"4520931"},{"town":"寺野","koaza":"中園","lat":35.209276,"lng":136.848673,"zip":"4520908"},{"town":"阿原","koaza":"九丁田","lat":35.216958,"lng":136.858316,"zip":"4520901"},{"town":"阿原","koaza":"向北","lat":35.215097,"lng":136.862567,"zip":"4520901"},{"town":"春日夢の森一丁目","koaza":"","lat":null,"lng":null,"zip":null},{"town":"春日夢の森二丁目","koaza":"","lat":null,"lng":null,"zip":null},{"town":"春日夢の森三丁目","koaza":"","lat":null,"lng":null,"zip":null}]