[{"town":"青塚新町","koaza":"","lat":35.32358,"lng":136.927492,"zip":"4840000"},{"town":"字青塚","koaza":"","lat":35.326183,"lng":136.929013,"zip":"4840000"},{"town":"字味加田","koaza":"","lat":35.329847,"lng":136.940549,"zip":"4840000"},{"town":"字荒井","koaza":"","lat":35.327237,"lng":136.959543,"zip":"4840000"},{"town":"字荒田","koaza":"","lat":35.349265,"lng":137.023862,"zip":"4840000"},{"town":"字安師","koaza":"","lat":35.327682,"lng":136.930713,"zip":"4840000"},{"town":"字池田","koaza":"","lat":35.338657,"lng":136.952366,"zip":"4840000"},{"town":"字一色浦","koaza":"","lat":35.323542,"lng":136.936187,"zip":"4840000"},{"town":"字石塚","koaza":"","lat":35.343736,"lng":136.95657,"zip":"4840000"},{"town":"字石畑","koaza":"","lat":35.347366,"lng":136.97694,"zip":"4840000"},{"town":"字稲干場","koaza":"","lat":35.34744,"lng":136.974291,"zip":"4840000"},{"town":"字井ノ元","koaza":"","lat":35.340535,"lng":136.977033,"zip":"4840000"},{"town":"字今村","koaza":"","lat":35.338305,"lng":136.956487,"zip":"4840000"},{"town":"字杁下","koaza":"","lat":35.335364,"lng":136.992197,"zip":"4840000"},{"town":"字岩穴","koaza":"","lat":35.350446,"lng":137.034994,"zip":"4840000"},{"town":"字岩田","koaza":"","lat":35.341418,"lng":136.954883,"zip":"4840000"},{"town":"字牛岩","koaza":"","lat":35.344934,"lng":136.97616,"zip":"4840000"},{"town":"字内久保","koaza":"","lat":35.31965,"lng":136.954105,"zip":"4840000"},{"town":"字打越","koaza":"","lat":35.324801,"lng":136.9645,"zip":"4840000"},{"town":"字内屋敷","koaza":"","lat":35.335486,"lng":136.988081,"zip":"4840000"},{"town":"字内山","koaza":"","lat":35.343357,"lng":136.99055,"zip":"4840000"},{"town":"字裏之門","koaza":"","lat":35.331586,"lng":136.952215,"zip":"4840000"},{"town":"字裏山","koaza":"","lat":35.341664,"lng":136.979697,"zip":"4840000"},{"town":"字追分","koaza":"","lat":35.33774,"lng":136.949884,"zip":"4840000"},{"town":"字追分東","koaza":"","lat":35.336409,"lng":136.951698,"zip":"4840000"},{"town":"字大洞","koaza":"","lat":35.339151,"lng":136.980367,"zip":"4840000"},{"town":"字押出","koaza":"","lat":35.347063,"lng":137.016637,"zip":"4840000"},{"town":"字落添","koaza":"","lat":35.3321,"lng":136.93999,"zip":"4840000"},{"town":"字垣ノ内","koaza":"","lat":35.336473,"lng":137.014128,"zip":"4840000"},{"town":"字柿畑","koaza":"","lat":35.338043,"lng":136.945699,"zip":"4840000"},{"town":"字角池","koaza":"","lat":35.335865,"lng":136.940836,"zip":"4840000"},{"town":"字勝部前","koaza":"","lat":35.33222,"lng":136.947945,"zip":"4840000"},{"town":"字金山","koaza":"","lat":35.348061,"lng":136.972176,"zip":"4840000"},{"town":"字上榎島","koaza":"","lat":35.329018,"lng":136.940946,"zip":"4840000"},{"town":"字上小針","koaza":"","lat":35.329192,"lng":136.956387,"zip":"4840000"},{"town":"字上ノ田","koaza":"","lat":35.345331,"lng":136.974615,"zip":"4840000"},{"town":"字上舞台","koaza":"","lat":35.335223,"lng":136.943969,"zip":"4840000"},{"town":"字烏杜","koaza":"","lat":35.32692,"lng":136.949558,"zip":"4840000"},{"town":"字神田","koaza":"","lat":35.338587,"lng":136.958224,"zip":"4840000"},{"town":"字観音浦","koaza":"","lat":35.32681,"lng":136.945503,"zip":"4840000"},{"town":"字北浦","koaza":"","lat":35.344536,"lng":136.95697,"zip":"4840000"},{"town":"字北大橋","koaza":"","lat":35.326204,"lng":136.938548,"zip":"4840000"},{"town":"字北大門","koaza":"","lat":35.332443,"lng":136.962309,"zip":"4840000"},{"town":"字北高根","koaza":"","lat":35.34182,"lng":137.010073,"zip":"4840000"},{"town":"字北之門","koaza":"","lat":35.331212,"lng":136.94761,"zip":"4840000"},{"town":"字北平","koaza":"","lat":35.34592,"lng":137.012185,"zip":"4840000"},{"town":"字北平塚","koaza":"","lat":35.332485,"lng":136.935656,"zip":"4840000"},{"town":"字北洞","koaza":"","lat":35.333403,"lng":136.96738,"zip":"4840000"},{"town":"字喜六屋敷","koaza":"","lat":35.334925,"lng":136.997433,"zip":"4840000"},{"town":"字九左エ門廻り","koaza":"","lat":35.34381,"lng":136.954935,"zip":"4840000"},{"town":"字倉曽洞","koaza":"","lat":35.325835,"lng":136.976538,"zip":"4840000"},{"town":"字栗林","koaza":"","lat":35.337359,"lng":136.951949,"zip":"4840000"},{"town":"字郷中","koaza":"","lat":35.336034,"lng":137.012056,"zip":"4840000"},{"town":"字郷西","koaza":"","lat":35.346686,"lng":136.956161,"zip":"4840000"},{"town":"字郷東","koaza":"","lat":35.347269,"lng":136.958753,"zip":"4840000"},{"town":"字小路","koaza":"","lat":35.331106,"lng":136.961751,"zip":"4840000"},{"town":"字五反田","koaza":"","lat":35.33267,"lng":136.942521,"zip":"4840000"},{"town":"字御殿屋敷","koaza":"","lat":35.338198,"lng":137.012529,"zip":"4840000"},{"town":"字小洞","koaza":"","lat":35.320325,"lng":136.951913,"zip":"4840000"},{"town":"字古山","koaza":"","lat":35.335429,"lng":137.009434,"zip":"4840000"},{"town":"字佐ケ瀬","koaza":"","lat":35.337738,"lng":136.984806,"zip":"4840000"},{"town":"字鷺山","koaza":"","lat":35.325081,"lng":136.956853,"zip":"4840000"},{"town":"字地蔵池西","koaza":"","lat":35.337003,"lng":136.944025,"zip":"4840000"},{"town":"字篠平","koaza":"","lat":35.336573,"lng":137.000909,"zip":"4840000"},{"town":"字下榎島","koaza":"","lat":35.326962,"lng":136.941253,"zip":"4840000"},{"town":"字下小針","koaza":"","lat":35.325444,"lng":136.956584,"zip":"4840000"},{"town":"字下沼","koaza":"","lat":35.324873,"lng":136.942404,"zip":"4840000"},{"town":"字下林","koaza":"","lat":35.337077,"lng":136.977202,"zip":"4840000"},{"town":"字下舞台","koaza":"","lat":35.333763,"lng":136.942536,"zip":"4840000"},{"town":"字下屋敷","koaza":"","lat":35.346109,"lng":136.975259,"zip":"4840000"},{"town":"字十三塚","koaza":"","lat":35.354116,"lng":137.007976,"zip":"4840000"},{"town":"字常福寺浦","koaza":"","lat":35.333293,"lng":136.961736,"zip":"4840000"},{"town":"字常福寺洞","koaza":"","lat":35.335528,"lng":136.960689,"zip":"4840000"},{"town":"字城山","koaza":"","lat":35.327743,"lng":136.951095,"zip":"4840000"},{"town":"字新川","koaza":"","lat":35.334105,"lng":136.937828,"zip":"4840000"},{"town":"字惣作","koaza":"","lat":35.331121,"lng":136.957209,"zip":"4840000"},{"town":"字大上戸","koaza":"","lat":35.33782,"lng":136.942292,"zip":"4840000"},{"town":"字大門","koaza":"","lat":35.348525,"lng":136.979391,"zip":"4840000"},{"town":"字高坪","koaza":"","lat":35.324692,"lng":136.956598,"zip":"4840000"},{"town":"字高根","koaza":"","lat":35.341254,"lng":137.007699,"zip":"4840000"},{"town":"字高根洞","koaza":"","lat":35.339162,"lng":136.966047,"zip":"4840000"},{"town":"字高洞","koaza":"","lat":35.350905,"lng":137.004699,"zip":"4840000"},{"town":"字滝ケ洞","koaza":"","lat":35.347008,"lng":137.008765,"zip":"4840000"},{"town":"字太吉屋敷","koaza":"","lat":35.329504,"lng":136.935111,"zip":"4840000"},{"town":"字池底","koaza":"","lat":35.34648,"lng":137.002319,"zip":"4840000"},{"town":"字土取","koaza":"","lat":35.32702,"lng":136.939393,"zip":"4840000"},{"town":"字堤下","koaza":"","lat":35.337312,"lng":136.990452,"zip":"4840000"},{"town":"字鶴池","koaza":"","lat":35.330761,"lng":136.939312,"zip":"4840000"},{"town":"字寺西","koaza":"","lat":35.33425,"lng":136.951251,"zip":"4840000"},{"town":"字寺洞","koaza":"","lat":35.339358,"lng":137.010203,"zip":"4840000"},{"town":"字天王前","koaza":"","lat":35.34243,"lng":136.955482,"zip":"4840000"},{"town":"字樋池","koaza":"","lat":35.316788,"lng":136.955764,"zip":"4840000"},{"town":"字樋ノ口","koaza":"","lat":35.335302,"lng":137.015788,"zip":"4840000"},{"town":"字堂屋敷","koaza":"","lat":35.329299,"lng":136.962721,"zip":"4840000"},{"town":"字外屋敷","koaza":"","lat":35.328053,"lng":136.949092,"zip":"4840000"},{"town":"字鳥屋越","koaza":"","lat":35.324053,"lng":136.945166,"zip":"4840000"},{"town":"字中唐曽","koaza":"","lat":35.324527,"lng":136.932167,"zip":"4840000"},{"town":"字中切","koaza":"","lat":35.33098,"lng":136.963137,"zip":"4840000"},{"town":"字中小針","koaza":"","lat":35.327261,"lng":136.95696,"zip":"4840000"},{"town":"字仲畑","koaza":"","lat":35.341036,"lng":136.975777,"zip":"4840000"},{"town":"字中道","koaza":"","lat":35.331192,"lng":136.942007,"zip":"4840000"},{"town":"字仲屋敷","koaza":"","lat":35.346586,"lng":136.977419,"zip":"4840000"},{"town":"字七ツ屋","koaza":"","lat":35.32782,"lng":136.938141,"zip":"4840000"},{"town":"字西片草","koaza":"","lat":35.346612,"lng":136.966679,"zip":"4840000"},{"town":"字西唐曽","koaza":"","lat":35.325607,"lng":136.931472,"zip":"4840000"},{"town":"字西北野","koaza":"","lat":35.334652,"lng":136.949319,"zip":"4840000"},{"town":"字西桑原","koaza":"","lat":35.343025,"lng":136.970801,"zip":"4840000"},{"town":"字西大円","koaza":"","lat":35.323164,"lng":136.924217,"zip":"4840000"},{"town":"字西野","koaza":"","lat":35.322031,"lng":136.935083,"zip":"4840000"},{"town":"字西洞","koaza":"","lat":35.333237,"lng":136.985468,"zip":"4840000"},{"town":"字西山","koaza":"","lat":35.345185,"lng":137.005166,"zip":"4840000"},{"town":"字二タ田","koaza":"","lat":35.328728,"lng":136.943285,"zip":"4840000"},{"town":"字二ノ谷","koaza":"","lat":35.341961,"lng":137.019821,"zip":"4840000"},{"town":"字二本木","koaza":"","lat":35.349205,"lng":136.973128,"zip":"4840000"},{"town":"字野田","koaza":"","lat":35.335996,"lng":136.957765,"zip":"4840000"},{"town":"字野中","koaza":"","lat":35.332171,"lng":136.991619,"zip":"4840000"},{"town":"字白山洞","koaza":"","lat":35.33115,"lng":136.993623,"zip":"4840000"},{"town":"字蓮池","koaza":"","lat":35.320075,"lng":136.963749,"zip":"4840000"},{"town":"字八曽","koaza":"","lat":35.352305,"lng":137.021784,"zip":"4840000"},{"town":"字八反田","koaza":"","lat":35.336273,"lng":136.938814,"zip":"4840000"},{"town":"字巾前","koaza":"","lat":35.327554,"lng":136.936043,"zip":"4840000"},{"town":"字巾廻り","koaza":"","lat":35.329977,"lng":136.933222,"zip":"4840000"},{"town":"字番前","koaza":"","lat":35.333371,"lng":136.957526,"zip":"4840000"},{"town":"字東片草","koaza":"","lat":35.343486,"lng":136.970226,"zip":"4840000"},{"town":"字東唐曽","koaza":"","lat":35.323747,"lng":136.933519,"zip":"4840000"},{"town":"字東北野","koaza":"","lat":35.33447,"lng":136.954731,"zip":"4840000"},{"town":"字東桑原","koaza":"","lat":35.342379,"lng":136.973999,"zip":"4840000"},{"town":"字東大円","koaza":"","lat":35.322311,"lng":136.925712,"zip":"4840000"},{"town":"字百廻り","koaza":"","lat":35.334712,"lng":137.033809,"zip":"4840000"},{"town":"字平塚","koaza":"","lat":35.332311,"lng":136.934485,"zip":"4840000"},{"town":"字笛田","koaza":"","lat":35.326479,"lng":136.96539,"zip":"4840000"},{"town":"字富士山","koaza":"","lat":35.344748,"lng":136.981629,"zip":"4840000"},{"town":"字二タ俣","koaza":"","lat":35.332012,"lng":136.937489,"zip":"4840000"},{"town":"字舟田","koaza":"","lat":35.329565,"lng":136.943811,"zip":"4840000"},{"town":"字古新田","koaza":"","lat":35.33508,"lng":137.018269,"zip":"4840000"},{"town":"字洞奥","koaza":"","lat":35.347815,"lng":136.998825,"zip":"4840000"},{"town":"字洞田","koaza":"","lat":35.332109,"lng":136.967712,"zip":"4840000"},{"town":"字本町","koaza":"","lat":35.325523,"lng":136.946704,"zip":"4840000"},{"town":"字前田面","koaza":"","lat":35.315104,"lng":136.95157,"zip":"4840000"},{"town":"字前並","koaza":"","lat":35.340797,"lng":136.953929,"zip":"4840000"},{"town":"字的場","koaza":"","lat":35.326678,"lng":136.937185,"zip":"4840000"},{"town":"字三ツ塚","koaza":"","lat":35.340791,"lng":136.954595,"zip":"4840000"},{"town":"字南大橋","koaza":"","lat":35.322273,"lng":136.938243,"zip":"4840000"},{"town":"字南高根","koaza":"","lat":35.339965,"lng":137.007683,"zip":"4840000"},{"town":"字宮浦","koaza":"","lat":35.342595,"lng":136.955109,"zip":"4840000"},{"town":"字宮裏","koaza":"","lat":35.351349,"lng":136.97791,"zip":"4840000"},{"town":"字宮西","koaza":"","lat":35.330898,"lng":136.965093,"zip":"4840000"},{"town":"字宮東","koaza":"","lat":35.325019,"lng":136.930583,"zip":"4840000"},{"town":"字宮山","koaza":"","lat":35.329777,"lng":136.971261,"zip":"4840000"},{"town":"字向エ","koaza":"","lat":35.341617,"lng":136.974164,"zip":"4840000"},{"town":"字向田","koaza":"","lat":35.331866,"lng":136.988219,"zip":"4840000"},{"town":"字向山","koaza":"","lat":35.32932,"lng":136.965813,"zip":"4840000"},{"town":"字元散前","koaza":"","lat":35.331071,"lng":136.944858,"zip":"4840000"},{"town":"字薬師浦","koaza":"","lat":35.333105,"lng":136.959984,"zip":"4840000"},{"town":"字薬師前","koaza":"","lat":35.331035,"lng":136.960417,"zip":"4840000"},{"town":"字焼野","koaza":"","lat":35.33438,"lng":136.946658,"zip":"4840000"},{"town":"字屋敷裏","koaza":"","lat":35.342076,"lng":136.975248,"zip":"4840000"},{"town":"字藪ケ洞","koaza":"","lat":35.338834,"lng":137.004364,"zip":"4840000"},{"town":"字藪畔","koaza":"","lat":35.329358,"lng":136.953658,"zip":"4840000"},{"town":"字破岩","koaza":"","lat":35.334888,"lng":137.022474,"zip":"4840000"},{"town":"字山神","koaza":"","lat":35.336453,"lng":136.950111,"zip":"4840000"},{"town":"字山崎西","koaza":"","lat":35.335137,"lng":136.959118,"zip":"4840000"},{"town":"字山ノ田腰","koaza":"","lat":35.345013,"lng":136.959691,"zip":"4840000"},{"town":"字山ノ鼻","koaza":"","lat":35.329476,"lng":136.960453,"zip":"4840000"},{"town":"字斧研","koaza":"","lat":35.340465,"lng":137.015431,"zip":"4840000"},{"town":"字横町","koaza":"","lat":35.328735,"lng":136.947409,"zip":"4840000"},{"town":"字與三ケ洞","koaza":"","lat":35.337162,"lng":137.026212,"zip":"4840000"},{"town":"字芳ケ洞","koaza":"","lat":35.341157,"lng":137.011237,"zip":"4840000"},{"town":"字林吾塚","koaza":"","lat":35.338564,"lng":136.954492,"zip":"4840000"},{"town":"字若宮","koaza":"","lat":35.330861,"lng":136.949558,"zip":"4840000"},{"town":"字早稲田","koaza":"","lat":35.346998,"lng":136.975824,"zip":"4840000"},{"town":"池野安楽寺一丁目","koaza":"","lat":35.339351,"lng":136.976955,"zip":"4840032"},{"town":"池野安楽寺二丁目","koaza":"","lat":35.340083,"lng":136.97427,"zip":"4840032"},{"town":"池野安楽寺三丁目","koaza":"","lat":35.342372,"lng":136.971792,"zip":"4840032"},{"town":"池野安楽寺四丁目","koaza":"","lat":35.345276,"lng":136.969024,"zip":"4840032"},{"town":"今井一丁目","koaza":"","lat":35.37598,"lng":137.004488,"zip":"4840005"},{"town":"今井二丁目","koaza":"","lat":35.372697,"lng":137.000807,"zip":"4840005"},{"town":"今井三丁目","koaza":"","lat":35.369467,"lng":136.999343,"zip":"4840005"},{"town":"今井四丁目","koaza":"","lat":35.366241,"lng":137.004656,"zip":"4840005"},{"town":"今井五丁目","koaza":"","lat":35.366599,"lng":136.997588,"zip":"4840005"},{"town":"今井六丁目","koaza":"","lat":35.361667,"lng":136.997164,"zip":"4840005"},{"town":"今井七丁目","koaza":"","lat":35.35729,"lng":136.996766,"zip":"4840005"},{"town":"今井八丁目","koaza":"","lat":35.359146,"lng":137.001138,"zip":"4840005"},{"town":"内田東町","koaza":"","lat":35.386513,"lng":136.945105,"zip":"4840071"},{"town":"梅坪一丁目","koaza":"","lat":35.376197,"lng":136.950214,"zip":"4840074"},{"town":"梅坪二丁目","koaza":"","lat":35.374887,"lng":136.951979,"zip":"4840074"},{"town":"梅坪三丁目","koaza":"","lat":35.375542,"lng":136.954609,"zip":"4840074"},{"town":"大字犬山","koaza":"","lat":35.384836,"lng":136.938019,"zip":"4840000"},{"town":"大字今井","koaza":"","lat":35.367194,"lng":137.011578,"zip":"4840000"},{"town":"大字上野","koaza":"","lat":35.370836,"lng":136.928729,"zip":"4840000"},{"town":"大字栗栖","koaza":"","lat":35.408066,"lng":136.971558,"zip":"4840000"},{"town":"大字木津","koaza":"","lat":35.377134,"lng":136.926306,"zip":"4840000"},{"town":"大字五郎丸","koaza":"","lat":35.362877,"lng":136.942841,"zip":"4840000"},{"town":"大字善師野","koaza":"","lat":35.391407,"lng":136.975749,"zip":"4840000"},{"town":"大字継鹿尾","koaza":"","lat":35.394656,"lng":136.961946,"zip":"4840000"},{"town":"大字塔野地","koaza":"","lat":35.375208,"lng":136.973766,"zip":"4840000"},{"town":"大字富岡","koaza":"","lat":35.385146,"lng":136.965589,"zip":"4840000"},{"town":"大字羽黒","koaza":"","lat":35.352471,"lng":136.973379,"zip":"4840000"},{"town":"大字羽黒新田","koaza":"","lat":35.340773,"lng":136.947551,"zip":"4840000"},{"town":"大字橋爪","koaza":"","lat":35.370244,"lng":136.940043,"zip":"4840000"},{"town":"大字前原","koaza":"","lat":35.361931,"lng":136.98063,"zip":"4840000"},{"town":"楽田青塚一丁目","koaza":"","lat":35.323645,"lng":136.929792,"zip":"4840936"},{"town":"楽田青塚二丁目","koaza":"","lat":35.32188,"lng":136.925929,"zip":"4840936"},{"town":"楽田安師","koaza":"","lat":35.327079,"lng":136.931958,"zip":"4840944"},{"town":"楽田一色浦","koaza":"","lat":35.325652,"lng":136.935681,"zip":"4840926"},{"town":"楽田今村","koaza":"","lat":35.339477,"lng":136.957338,"zip":"4840874"},{"town":"楽田内久保一丁目","koaza":"","lat":35.318964,"lng":136.949584,"zip":"4840048"},{"town":"楽田内久保二丁目","koaza":"","lat":35.316655,"lng":136.950613,"zip":"4840048"},{"town":"楽田打越一丁目","koaza":"","lat":35.325528,"lng":136.958507,"zip":"4840843"},{"town":"楽田打越二丁目","koaza":"","lat":35.32543,"lng":136.961382,"zip":"4840843"},{"town":"楽田大橋一丁目","koaza":"","lat":35.324245,"lng":136.937419,"zip":"4840924"},{"town":"楽田大橋二丁目","koaza":"","lat":35.324978,"lng":136.940249,"zip":"4840924"},{"town":"楽田大橋三丁目","koaza":"","lat":35.323559,"lng":136.939735,"zip":"4840924"},{"town":"楽田勝部前一丁目","koaza":"","lat":35.332321,"lng":136.945434,"zip":"4840904"},{"town":"楽田上沼一丁目","koaza":"","lat":35.326267,"lng":136.943632,"zip":"4840915"},{"town":"楽田上沼二丁目","koaza":"","lat":35.323864,"lng":136.943223,"zip":"4840915"},{"town":"楽田小針","koaza":"","lat":35.32615,"lng":136.955273,"zip":"4840841"},{"town":"楽田地蔵池","koaza":"","lat":35.336022,"lng":136.946403,"zip":"4840907"},{"town":"楽田大円一丁目","koaza":"","lat":35.323749,"lng":136.925631,"zip":"4840947"},{"town":"楽田大円二丁目","koaza":"","lat":35.320732,"lng":136.923556,"zip":"4840947"},{"town":"楽田鶴池","koaza":"","lat":35.329634,"lng":136.938906,"zip":"4840963"},{"town":"楽田天神一丁目","koaza":"","lat":35.325127,"lng":136.949234,"zip":"4840856"},{"town":"楽田天神二丁目","koaza":"","lat":35.324941,"lng":136.952109,"zip":"4840856"},{"town":"楽田天神三丁目","koaza":"","lat":35.322713,"lng":136.9513,"zip":"4840856"},{"town":"楽田長塚西","koaza":"","lat":35.345034,"lng":136.955329,"zip":"4840819"},{"town":"楽田長塚東","koaza":"","lat":35.345984,"lng":136.959271,"zip":"4840811"},{"town":"楽田西浦一丁目","koaza":"","lat":35.329809,"lng":136.94591,"zip":"4840916"},{"town":"楽田西浦二丁目","koaza":"","lat":35.328072,"lng":136.94433,"zip":"4840916"},{"town":"楽田西野一丁目","koaza":"","lat":35.322301,"lng":136.936332,"zip":"4840925"},{"town":"楽田西野二丁目","koaza":"","lat":35.321911,"lng":136.937359,"zip":"4840925"},{"town":"楽田巾一丁目","koaza":"","lat":35.330097,"lng":136.934024,"zip":"4840942"},{"town":"楽田巾二丁目","koaza":"","lat":35.330474,"lng":136.935401,"zip":"4840942"},{"town":"楽田巾三丁目","koaza":"","lat":35.329601,"lng":136.937239,"zip":"4840942"},{"town":"楽田原西","koaza":"","lat":35.34335,"lng":136.954014,"zip":"4840885"},{"town":"楽田原東","koaza":"","lat":35.342033,"lng":136.955618,"zip":"4840816"},{"town":"楽田東追分","koaza":"","lat":35.337004,"lng":136.953896,"zip":"4840877"},{"town":"楽田三ツ塚","koaza":"","lat":35.3399,"lng":136.954595,"zip":"4840879"},{"town":"楽田山ノ田一丁目","koaza":"","lat":35.324226,"lng":136.954563,"zip":"4840846"},{"town":"楽田山ノ田二丁目","koaza":"","lat":35.32392,"lng":136.958047,"zip":"4840846"},{"town":"楽田山ノ田三丁目","koaza":"","lat":35.321232,"lng":136.957288,"zip":"4840846"},{"town":"楽田山ノ田四丁目","koaza":"","lat":35.322615,"lng":136.955031,"zip":"4840846"},{"town":"上坂町一丁目","koaza":"","lat":35.377728,"lng":136.934164,"zip":"4840059"},{"town":"上坂町二丁目","koaza":"","lat":35.378111,"lng":136.932023,"zip":"4840059"},{"town":"上坂町三丁目","koaza":"","lat":35.376289,"lng":136.932913,"zip":"4840059"},{"town":"上坂町四丁目","koaza":"","lat":35.374349,"lng":136.9318,"zip":"4840059"},{"town":"上坂町五丁目","koaza":"","lat":35.374279,"lng":136.929492,"zip":"4840059"},{"town":"上野新町","koaza":"","lat":35.370481,"lng":136.920092,"zip":"4840078"},{"town":"五郎丸東一丁目","koaza":"","lat":35.365267,"lng":136.949708,"zip":"4840065"},{"town":"五郎丸東二丁目","koaza":"","lat":35.365143,"lng":136.952916,"zip":"4840065"},{"town":"五郎丸東三丁目","koaza":"","lat":35.362604,"lng":136.951597,"zip":"4840065"},{"town":"五郎丸東四丁目","koaza":"","lat":35.363613,"lng":136.956216,"zip":"4840065"},{"town":"四季の丘一丁目","koaza":"","lat":35.391701,"lng":136.989135,"zip":"4840019"},{"town":"四季の丘二丁目","koaza":"","lat":35.393068,"lng":136.988058,"zip":"4840019"},{"town":"四季の丘三丁目","koaza":"","lat":35.392755,"lng":136.986727,"zip":"4840019"},{"town":"四季の丘四丁目","koaza":"","lat":35.39582,"lng":136.988826,"zip":"4840019"},{"town":"四季の丘五丁目","koaza":"","lat":35.394132,"lng":136.989866,"zip":"4840019"},{"town":"四季の丘六丁目","koaza":"","lat":35.392641,"lng":136.99099,"zip":"4840019"},{"town":"四季の丘七丁目","koaza":"","lat":35.391209,"lng":136.99073,"zip":"4840019"},{"town":"善師野一丁目","koaza":"","lat":35.386395,"lng":136.973452,"zip":"4840003"},{"town":"善師野二丁目","koaza":"","lat":35.391925,"lng":136.984802,"zip":"4840003"},{"town":"善師野三丁目","koaza":"","lat":35.390461,"lng":136.988709,"zip":"4840003"},{"town":"善師野台一丁目","koaza":"","lat":35.38854,"lng":136.996483,"zip":"4840004"},{"town":"善師野台二丁目","koaza":"","lat":35.389356,"lng":136.998116,"zip":"4840004"},{"town":"善師野台三丁目","koaza":"","lat":35.387285,"lng":136.998747,"zip":"4840004"},{"town":"善師野台四丁目","koaza":"","lat":35.387132,"lng":136.99716,"zip":"4840004"},{"town":"田口一丁目","koaza":"","lat":35.376187,"lng":136.978667,"zip":"4840009"},{"town":"田口二丁目","koaza":"","lat":35.376465,"lng":136.982688,"zip":"4840009"},{"town":"田口三丁目","koaza":"","lat":35.377193,"lng":136.986082,"zip":"4840009"},{"town":"長者町一丁目","koaza":"","lat":35.34874,"lng":136.968729,"zip":"4840041"},{"town":"長者町二丁目","koaza":"","lat":35.348147,"lng":136.971093,"zip":"4840041"},{"town":"長者町三丁目","koaza":"","lat":35.3462,"lng":136.97307,"zip":"4840041"},{"town":"長者町四丁目","koaza":"","lat":35.343582,"lng":136.975715,"zip":"4840041"},{"town":"長者町五丁目","koaza":"","lat":35.343319,"lng":136.973139,"zip":"4840041"},{"town":"長者町六丁目","koaza":"","lat":35.344736,"lng":136.970576,"zip":"4840041"},{"town":"長者町七丁目","koaza":"","lat":35.347188,"lng":136.969309,"zip":"4840041"},{"town":"天神町一丁目","koaza":"","lat":35.38092,"lng":136.947102,"zip":"4840073"},{"town":"天神町二丁目","koaza":"","lat":35.379163,"lng":136.947517,"zip":"4840073"},{"town":"天神町三丁目","koaza":"","lat":35.378666,"lng":136.946437,"zip":"4840073"},{"town":"天神町四丁目","koaza":"","lat":35.377569,"lng":136.946621,"zip":"4840073"},{"town":"天神町五丁目","koaza":"","lat":35.377041,"lng":136.945518,"zip":"4840073"},{"town":"塔野地北一丁目","koaza":"","lat":35.382359,"lng":136.969397,"zip":"4840097"},{"town":"塔野地北二丁目","koaza":"","lat":35.379358,"lng":136.965315,"zip":"4840097"},{"town":"塔野地北三丁目","koaza":"","lat":35.376901,"lng":136.961396,"zip":"4840097"},{"town":"塔野地北四丁目","koaza":"","lat":35.375905,"lng":136.957775,"zip":"4840097"},{"town":"塔野地杉一丁目","koaza":"","lat":35.368345,"lng":136.96563,"zip":"4840095"},{"town":"塔野地杉二丁目","koaza":"","lat":35.369112,"lng":136.961764,"zip":"4840095"},{"town":"塔野地西一丁目","koaza":"","lat":35.372371,"lng":136.957187,"zip":"4840096"},{"town":"塔野地西二丁目","koaza":"","lat":35.37161,"lng":136.959597,"zip":"4840096"},{"town":"塔野地西三丁目","koaza":"","lat":35.370402,"lng":136.960154,"zip":"4840096"},{"town":"塔野地西四丁目","koaza":"","lat":35.368628,"lng":136.958357,"zip":"4840096"},{"town":"富岡新町一丁目","koaza":"","lat":35.38085,"lng":136.953888,"zip":"4840099"},{"town":"富岡新町二丁目","koaza":"","lat":35.381353,"lng":136.955599,"zip":"4840099"},{"town":"富岡新町三丁目","koaza":"","lat":35.381499,"lng":136.957522,"zip":"4840099"},{"town":"富岡新町四丁目","koaza":"","lat":35.37956,"lng":136.95567,"zip":"4840099"},{"town":"富岡新町五丁目","koaza":"","lat":35.37871,"lng":136.955418,"zip":"4840099"},{"town":"富岡東一丁目","koaza":"","lat":35.381539,"lng":136.965714,"zip":"4840093"},{"town":"富岡東二丁目","koaza":"","lat":35.379784,"lng":136.964261,"zip":"4840093"},{"town":"富岡南一丁目","koaza":"","lat":35.379067,"lng":136.958021,"zip":"4840098"},{"town":"富岡南二丁目","koaza":"","lat":35.378268,"lng":136.958689,"zip":"4840098"},{"town":"富岡南三丁目","koaza":"","lat":35.376997,"lng":136.957476,"zip":"4840098"},{"town":"中山町一丁目","koaza":"","lat":35.376263,"lng":136.946164,"zip":"4840087"},{"town":"中山町二丁目","koaza":"","lat":35.376024,"lng":136.948709,"zip":"4840087"},{"town":"羽黒朝日一丁目","koaza":"","lat":35.35581,"lng":136.958783,"zip":"4840806"},{"town":"羽黒朝日二丁目","koaza":"","lat":35.354748,"lng":136.960787,"zip":"4840806"},{"town":"羽黒朝日三丁目","koaza":"","lat":35.355071,"lng":136.962909,"zip":"4840806"},{"town":"羽黒朝日四丁目","koaza":"","lat":35.355003,"lng":136.964774,"zip":"4840806"},{"town":"羽黒朝日五丁目","koaza":"","lat":35.351611,"lng":136.960681,"zip":"4840806"},{"town":"羽黒朝日六丁目","koaza":"","lat":35.350973,"lng":136.962576,"zip":"4840806"},{"town":"羽黒稲葉西一丁目","koaza":"","lat":35.35854,"lng":136.942579,"zip":"4840898"},{"town":"羽黒稲葉西二丁目","koaza":"","lat":35.358553,"lng":136.945819,"zip":"4840898"},{"town":"羽黒稲葉東","koaza":"","lat":35.359877,"lng":136.948918,"zip":"4840899"},{"town":"羽黒起","koaza":"","lat":35.344129,"lng":136.952504,"zip":"4840884"},{"town":"羽黒恩田島","koaza":"","lat":35.359939,"lng":136.950333,"zip":"4840891"},{"town":"羽黒菊川","koaza":"","lat":35.344264,"lng":136.945706,"zip":"4840882"},{"town":"羽黒栄一丁目","koaza":"","lat":35.358508,"lng":136.954492,"zip":"4840893"},{"town":"羽黒栄二丁目","koaza":"","lat":35.35629,"lng":136.954828,"zip":"4840893"},{"town":"羽黒栄三丁目","koaza":"","lat":35.354753,"lng":136.952934,"zip":"4840893"},{"town":"羽黒栄四丁目","koaza":"","lat":35.356879,"lng":136.956965,"zip":"4840893"},{"town":"羽黒桜海道一丁目","koaza":"","lat":35.3484,"lng":136.964696,"zip":"4840804"},{"town":"羽黒新赤坂","koaza":"","lat":35.352863,"lng":136.96858,"zip":"4840803"},{"town":"羽黒新外山","koaza":"","lat":35.351085,"lng":136.96409,"zip":"4840805"},{"town":"羽黒摺墨","koaza":"","lat":35.355561,"lng":136.948805,"zip":"4840895"},{"town":"羽黒惣境","koaza":"","lat":35.360252,"lng":136.952626,"zip":"4840892"},{"town":"羽黒高橋一丁目","koaza":"","lat":35.345265,"lng":136.93714,"zip":"4840889"},{"town":"羽黒高橋二丁目","koaza":"","lat":35.345656,"lng":136.942143,"zip":"4840889"},{"town":"羽黒高橋三丁目","koaza":"","lat":35.341618,"lng":136.93874,"zip":"4840889"},{"town":"羽黒高橋四丁目","koaza":"","lat":35.341264,"lng":136.941448,"zip":"4840889"},{"town":"羽黒堂前","koaza":"","lat":35.355223,"lng":136.943645,"zip":"4840897"},{"town":"羽黒成海西","koaza":"","lat":35.347239,"lng":136.941092,"zip":"4840881"},{"town":"羽黒成海南","koaza":"","lat":35.345269,"lng":136.945614,"zip":"4840883"},{"town":"羽黒鉾添一丁目","koaza":"","lat":35.358781,"lng":136.963035,"zip":"4840807"},{"town":"羽黒鉾添二丁目","koaza":"","lat":35.359223,"lng":136.959939,"zip":"4840807"},{"town":"羽黒鉾添三丁目","koaza":"","lat":35.35709,"lng":136.964019,"zip":"4840807"},{"town":"羽黒安戸西一丁目","koaza":"","lat":35.361146,"lng":136.961712,"zip":"4840802"},{"town":"羽黒安戸西二丁目","koaza":"","lat":35.359898,"lng":136.964517,"zip":"4840802"},{"town":"羽黒安戸南一丁目","koaza":"","lat":35.357175,"lng":136.968245,"zip":"4840801"},{"town":"羽黒安戸南二丁目","koaza":"","lat":35.357043,"lng":136.971387,"zip":"4840801"},{"town":"羽黒余町","koaza":"","lat":35.355922,"lng":136.945913,"zip":"4840896"},{"town":"橋爪東一丁目","koaza":"","lat":35.372123,"lng":136.947689,"zip":"4840075"},{"town":"橋爪東二丁目","koaza":"","lat":35.372137,"lng":136.954074,"zip":"4840075"},{"town":"橋爪東三丁目","koaza":"","lat":35.36973,"lng":136.948062,"zip":"4840075"},{"town":"橋爪東四丁目","koaza":"","lat":35.369362,"lng":136.95299,"zip":"4840075"},{"town":"橋爪東五丁目","koaza":"","lat":35.366909,"lng":136.947949,"zip":"4840075"},{"town":"橋爪東六丁目","koaza":"","lat":35.368171,"lng":136.954419,"zip":"4840075"},{"town":"前原一丁目","koaza":"","lat":35.367378,"lng":136.962801,"zip":"4840061"},{"town":"前原二丁目","koaza":"","lat":35.364971,"lng":136.965463,"zip":"4840061"},{"town":"前原味鹿一丁目","koaza":"","lat":35.357483,"lng":136.975386,"zip":"4840062"},{"town":"前原味鹿二丁目","koaza":"","lat":35.356983,"lng":136.977203,"zip":"4840062"},{"town":"前原西一丁目","koaza":"","lat":35.367759,"lng":136.960728,"zip":"4840064"},{"town":"前原西二丁目","koaza":"","lat":35.364675,"lng":136.962747,"zip":"4840064"},{"town":"前原西三丁目","koaza":"","lat":35.36471,"lng":136.960302,"zip":"4840064"},{"town":"前原西四丁目","koaza":"","lat":35.364837,"lng":136.958012,"zip":"4840064"},{"town":"前原西五丁目","koaza":"","lat":35.362333,"lng":136.962213,"zip":"4840064"},{"town":"前原南一丁目","koaza":"","lat":35.36109,"lng":136.968376,"zip":"4840063"},{"town":"前原南二丁目","koaza":"","lat":35.360892,"lng":136.969713,"zip":"4840063"},{"town":"前原南三丁目","koaza":"","lat":35.35943,"lng":136.971802,"zip":"4840063"},{"town":"前原南四丁目","koaza":"","lat":35.360854,"lng":136.966289,"zip":"4840063"},{"town":"松本町一丁目","koaza":"","lat":35.382445,"lng":136.948895,"zip":"4840086"},{"town":"松本町二丁目","koaza":"","lat":35.380781,"lng":136.950475,"zip":"4840086"},{"town":"松本町三丁目","koaza":"","lat":35.378824,"lng":136.952489,"zip":"4840086"},{"town":"松本町四丁目","koaza":"","lat":35.37851,"lng":136.94941,"zip":"4840086"},{"town":"丸山天白町","koaza":"","lat":35.383458,"lng":136.949532,"zip":"4840072"},{"town":"もえぎヶ丘一丁目","koaza":"","lat":35.392406,"lng":136.993188,"zip":"4840000"},{"town":"もえぎヶ丘二丁目","koaza":"","lat":35.391944,"lng":136.995157,"zip":"4840000"},{"town":"もえぎヶ丘三丁目","koaza":"","lat":35.390752,"lng":136.993369,"zip":"4840000"},{"town":"桃山台一丁目","koaza":"","lat":35.32873,"lng":136.959528,"zip":"4840839"},{"town":"桃山台二丁目","koaza":"","lat":35.326467,"lng":136.963326,"zip":"4840839"},{"town":"大字上野","koaza":"寺子","lat":35.372803,"lng":136.919439,"zip":"4840000"},{"town":"大字上野","koaza":"先道","lat":35.370557,"lng":136.923587,"zip":"4840000"},{"town":"大字上野","koaza":"郷","lat":35.369472,"lng":136.924341,"zip":"4840000"},{"town":"大字木津","koaza":"西ノ山","lat":35.375398,"lng":136.92357,"zip":"4840000"},{"town":"大字上野","koaza":"後川田","lat":35.370443,"lng":136.924217,"zip":"4840000"},{"town":"大字上野","koaza":"南海道","lat":35.367069,"lng":136.921836,"zip":"4840000"},{"town":"大字木津","koaza":"流","lat":35.374684,"lng":136.924125,"zip":"4840000"},{"town":"大字上野","koaza":"長畑","lat":35.371023,"lng":136.922589,"zip":"4840000"},{"town":"大字木津","koaza":"上ノ畑","lat":35.373884,"lng":136.924164,"zip":"4840000"},{"town":"大字上野","koaza":"前川田","lat":35.368849,"lng":136.925035,"zip":"4840000"},{"town":"大字木津","koaza":"前畑","lat":35.373335,"lng":136.924707,"zip":"4840000"},{"town":"大字木津","koaza":"西ノ畑","lat":35.374961,"lng":136.924191,"zip":"4840000"},{"town":"大字木津","koaza":"池ノ上","lat":35.372767,"lng":136.925657,"zip":"4840000"},{"town":"大字上野","koaza":"南向","lat":35.367692,"lng":136.925244,"zip":"4840000"},{"town":"大字上野","koaza":"米野","lat":35.369445,"lng":136.926579,"zip":"4840000"},{"town":"大字木津","koaza":"池田","lat":35.372829,"lng":136.926981,"zip":"4840000"},{"town":"大字木津","koaza":"宮前","lat":35.377735,"lng":136.929318,"zip":"4840000"},{"town":"大字木津","koaza":"北ノ畑","lat":35.37479,"lng":136.927646,"zip":"4840000"},{"town":"大字上野","koaza":"向米野","lat":35.370184,"lng":136.928375,"zip":"4840000"},{"town":"大字上野","koaza":"大門","lat":35.371838,"lng":136.929713,"zip":"4840000"},{"town":"大字上野","koaza":"大野","lat":35.369318,"lng":136.929639,"zip":"4840000"},{"town":"大字上野","koaza":"久保見","lat":35.371579,"lng":136.930413,"zip":"4840000"},{"town":"大字上野","koaza":"小巾","lat":35.370035,"lng":136.932097,"zip":"4840000"},{"town":"大字上野","koaza":"神ノ木","lat":35.370184,"lng":136.931093,"zip":"4840000"},{"town":"大字上野","koaza":"午ノ背","lat":35.370527,"lng":136.931009,"zip":"4840000"},{"town":"大字上野","koaza":"弥左畑","lat":35.372178,"lng":136.931645,"zip":"4840000"},{"town":"大字犬山","koaza":"妙覚","lat":35.379613,"lng":136.931877,"zip":"4840000"},{"town":"大字上野","koaza":"兼若","lat":35.37149,"lng":136.932513,"zip":"4840000"},{"town":"大字上野","koaza":"清水","lat":35.374565,"lng":136.934032,"zip":"4840000"},{"town":"大字犬山","koaza":"四日市","lat":35.380957,"lng":136.932776,"zip":"4840000"},{"town":"大字上野","koaza":"石塚","lat":35.373789,"lng":136.934177,"zip":"4840000"},{"town":"大字犬山","koaza":"西馬場先","lat":35.3799,"lng":136.933409,"zip":"4840000"},{"town":"大字犬山","koaza":"西古券","lat":35.382789,"lng":136.936003,"zip":"4840000"},{"town":"大字羽黒新田","koaza":"下平塚","lat":35.332645,"lng":136.933845,"zip":"4840000"},{"town":"大字羽黒新田","koaza":"不二見坂","lat":35.336818,"lng":136.934508,"zip":"4840000"},{"town":"大字橋爪","koaza":"曽理見","lat":35.371461,"lng":136.934556,"zip":"4840000"},{"town":"大字羽黒新田","koaza":"椿南屋敷","lat":35.338952,"lng":136.935595,"zip":"4840000"},{"town":"大字羽黒新田","koaza":"上平塚","lat":35.335079,"lng":136.934234,"zip":"4840000"},{"town":"大字羽黒新田","koaza":"中平塚","lat":35.33376,"lng":136.934425,"zip":"4840000"},{"town":"大字犬山","koaza":"北志水","lat":35.378747,"lng":136.934377,"zip":"4840000"},{"town":"大字犬山","koaza":"東馬場先","lat":35.379619,"lng":136.934726,"zip":"4840000"},{"town":"大字橋爪","koaza":"西中野","lat":35.372588,"lng":136.934773,"zip":"4840000"},{"town":"大字犬山","koaza":"南笠屋","lat":35.373907,"lng":136.934972,"zip":"4840000"},{"town":"大字犬山","koaza":"北笠屋","lat":35.375106,"lng":136.935981,"zip":"4840000"},{"town":"大字羽黒新田","koaza":"椿北屋敷","lat":35.340115,"lng":136.935614,"zip":"4840000"},{"town":"大字犬山","koaza":"南志水","lat":35.376159,"lng":136.935045,"zip":"4840000"},{"town":"大字犬山","koaza":"西三条","lat":35.376665,"lng":136.935747,"zip":"4840000"},{"town":"大字羽黒新田","koaza":"上堅筬","lat":35.335548,"lng":136.936499,"zip":"4840000"},{"town":"大字犬山","koaza":"北首塚","lat":35.380685,"lng":136.936332,"zip":"4840000"},{"town":"大字羽黒新田","koaza":"椿東","lat":35.337479,"lng":136.935938,"zip":"4840000"},{"town":"大字橋爪","koaza":"東中野","lat":35.372484,"lng":136.93604,"zip":"4840000"},{"town":"大字犬山","koaza":"中野","lat":35.374118,"lng":136.936546,"zip":"4840000"},{"town":"大字橋爪","koaza":"北中野","lat":35.373111,"lng":136.936414,"zip":"4840000"},{"town":"大字羽黒新田","koaza":"小島","lat":35.342189,"lng":136.937193,"zip":"4840000"},{"town":"大字羽黒新田","koaza":"山ノ田下","lat":35.338906,"lng":136.937315,"zip":"4840000"},{"town":"大字犬山","koaza":"北古券","lat":35.385676,"lng":136.940023,"zip":"4840000"},{"town":"大字犬山","koaza":"西山下","lat":35.378614,"lng":136.936525,"zip":"4840000"},{"town":"大字羽黒新田","koaza":"高見","lat":35.338292,"lng":136.939066,"zip":"4840000"},{"town":"大字五郎丸","koaza":"森上","lat":35.363645,"lng":136.937276,"zip":"4840000"},{"town":"大字羽黒新田","koaza":"山ノ田西","lat":35.34105,"lng":136.937791,"zip":"4840000"},{"town":"大字犬山","koaza":"東三条","lat":35.376731,"lng":136.937233,"zip":"4840000"},{"town":"大字羽黒新田","koaza":"辻ノ内","lat":35.338319,"lng":136.937532,"zip":"4840000"},{"town":"大字羽黒","koaza":"山ノ田","lat":35.342558,"lng":136.937389,"zip":"4840000"},{"town":"大字羽黒","koaza":"桟敷","lat":35.347051,"lng":136.938697,"zip":"4840000"},{"town":"大字五郎丸","koaza":"上池","lat":35.365228,"lng":136.93781,"zip":"4840000"},{"town":"大字橋爪","koaza":"下地蔵下","lat":35.370003,"lng":136.939177,"zip":"4840000"},{"town":"大字五郎丸","koaza":"猿屋東","lat":35.362649,"lng":136.93828,"zip":"4840000"},{"town":"大字橋爪","koaza":"石畑","lat":35.373172,"lng":136.938477,"zip":"4840000"},{"town":"大字羽黒","koaza":"下ノ山ノ田","lat":35.340267,"lng":136.938174,"zip":"4840000"},{"town":"大字犬山","koaza":"上リ屋","lat":35.374458,"lng":136.938325,"zip":"4840000"},{"town":"大字橋爪","koaza":"中島","lat":35.371885,"lng":136.938046,"zip":"4840000"},{"town":"大字犬山","koaza":"南古券","lat":35.377588,"lng":136.939381,"zip":"4840000"},{"town":"大字羽黒新田","koaza":"北野間","lat":35.339804,"lng":136.939555,"zip":"4840000"},{"town":"大字橋爪","koaza":"清水下","lat":35.367817,"lng":136.939775,"zip":"4840000"},{"town":"大字羽黒新田","koaza":"南野間","lat":35.338451,"lng":136.938431,"zip":"4840000"},{"town":"大字羽黒","koaza":"釈迦ノ下","lat":35.348697,"lng":136.93899,"zip":"4840000"},{"town":"大字橋爪","koaza":"論出","lat":35.365937,"lng":136.939455,"zip":"4840000"},{"town":"大字羽黒","koaza":"河北東","lat":35.349749,"lng":136.939122,"zip":"4840000"},{"town":"大字羽黒","koaza":"畑合","lat":35.345297,"lng":136.938544,"zip":"4840000"},{"town":"大字五郎丸","koaza":"堤北","lat":35.364385,"lng":136.939604,"zip":"4840000"},{"town":"大字羽黒","koaza":"高橋郷","lat":35.343373,"lng":136.941094,"zip":"4840000"},{"town":"大字橋爪","koaza":"地蔵下","lat":35.371267,"lng":136.940505,"zip":"4840000"},{"town":"大字羽黒新田","koaza":"米野前","lat":35.340204,"lng":136.940934,"zip":"4840000"},{"town":"大字犬山","koaza":"東古券","lat":35.382684,"lng":136.941986,"zip":"4840000"},{"town":"大字犬山","koaza":"末友","lat":35.373866,"lng":136.939889,"zip":"4840000"},{"town":"大字五郎丸","koaza":"神明下","lat":35.360755,"lng":136.940592,"zip":"4840000"},{"town":"大字羽黒新田","koaza":"西将監野","lat":35.341092,"lng":136.939731,"zip":"4840000"},{"town":"大字橋爪","koaza":"止々馬木","lat":35.366286,"lng":136.94075,"zip":"4840000"},{"town":"大字五郎丸","koaza":"山下","lat":35.363948,"lng":136.940207,"zip":"4840000"},{"town":"大字羽黒新田","koaza":"井堀向","lat":35.339305,"lng":136.94063,"zip":"4840000"},{"town":"大字羽黒","koaza":"田中畑","lat":35.349553,"lng":136.940361,"zip":"4840000"},{"town":"大字羽黒","koaza":"西下市場","lat":35.350546,"lng":136.941932,"zip":"4840000"},{"town":"大字橋爪","koaza":"巾屋敷","lat":35.371658,"lng":136.941874,"zip":"4840000"},{"town":"大字橋爪","koaza":"末友","lat":35.37371,"lng":136.941639,"zip":"4840000"},{"town":"大字羽黒","koaza":"下大日","lat":35.35171,"lng":136.941787,"zip":"4840000"},{"town":"大字犬山","koaza":"神ノ木","lat":35.375323,"lng":136.942727,"zip":"4840000"},{"town":"大字五郎丸","koaza":"皿屋敷","lat":35.364528,"lng":136.942333,"zip":"4840000"},{"town":"大字五郎丸","koaza":"万願寺","lat":35.365604,"lng":136.941338,"zip":"4840000"},{"town":"大字犬山","koaza":"柳町","lat":35.375721,"lng":136.941299,"zip":"4840000"},{"town":"大字犬山","koaza":"専正寺町","lat":35.376143,"lng":136.942544,"zip":"4840000"},{"town":"大字羽黒新田","koaza":"九右エ門屋敷","lat":35.342757,"lng":136.942039,"zip":"4840000"},{"town":"大字五郎丸","koaza":"新田組","lat":35.362338,"lng":136.942008,"zip":"4840000"},{"town":"大字羽黒","koaza":"吉原","lat":35.346489,"lng":136.941094,"zip":"4840000"},{"town":"大字犬山","koaza":"薬師町","lat":35.377742,"lng":136.942547,"zip":"4840000"},{"town":"大字犬山","koaza":"堀ノ内","lat":35.386973,"lng":136.941665,"zip":"4840000"},{"town":"大字橋爪","koaza":"大浦屋敷","lat":35.370116,"lng":136.942475,"zip":"4840000"},{"town":"大字羽黒","koaza":"宮浦","lat":35.349192,"lng":136.942826,"zip":"4840000"},{"town":"大字羽黒","koaza":"島田","lat":35.345695,"lng":136.941127,"zip":"4840000"},{"town":"大字犬山","koaza":"木ノ下","lat":35.37849,"lng":136.942101,"zip":"4840000"},{"town":"大字橋爪","koaza":"中屋敷","lat":35.369397,"lng":136.942813,"zip":"4840000"},{"town":"大字五郎丸","koaza":"郷瀬川","lat":35.360456,"lng":136.94211,"zip":"4840000"},{"town":"大字橋爪","koaza":"西浦","lat":35.367603,"lng":136.942306,"zip":"4840000"},{"town":"大字犬山","koaza":"御門先","lat":35.388186,"lng":136.942293,"zip":"4840000"},{"town":"大字犬山","koaza":"西畑","lat":35.389473,"lng":136.942827,"zip":"4840000"},{"town":"大字羽黒","koaza":"上大日","lat":35.353064,"lng":136.942159,"zip":"4840000"},{"town":"大字五郎丸","koaza":"上前田","lat":35.365556,"lng":136.943554,"zip":"4840000"},{"town":"大字羽黒","koaza":"下堂前","lat":35.354834,"lng":136.942388,"zip":"4840000"},{"town":"大字羽黒","koaza":"エンゼチ","lat":35.3451,"lng":136.942236,"zip":"4840000"},{"town":"大字羽黒新田","koaza":"米野東","lat":35.339285,"lng":136.942909,"zip":"4840000"},{"town":"大字犬山","koaza":"藪下","lat":35.385224,"lng":136.94295,"zip":"4840000"},{"town":"大字羽黒","koaza":"北巾","lat":35.356802,"lng":136.942543,"zip":"4840000"},{"town":"大字羽黒","koaza":"成海郷","lat":35.34743,"lng":136.944305,"zip":"4840000"},{"town":"大字犬山","koaza":"三反田","lat":35.387047,"lng":136.942875,"zip":"4840000"},{"town":"大字橋爪","koaza":"四郎丸","lat":35.372154,"lng":136.943221,"zip":"4840000"},{"town":"大字羽黒","koaza":"東下市場","lat":35.349766,"lng":136.943443,"zip":"4840000"},{"town":"大字橋爪","koaza":"国正","lat":35.374183,"lng":136.943343,"zip":"4840000"},{"town":"大字犬山","koaza":"愛宕","lat":35.378352,"lng":136.942774,"zip":"4840000"},{"town":"大字羽黒新田","koaza":"高橋前","lat":35.341369,"lng":136.942822,"zip":"4840000"},{"town":"大字犬山","koaza":"薬師","lat":35.377699,"lng":136.943096,"zip":"4840000"},{"town":"大字羽黒新田","koaza":"笹野","lat":35.340523,"lng":136.94462,"zip":"4840000"},{"town":"大字橋爪","koaza":"万願寺","lat":35.367646,"lng":136.94395,"zip":"4840000"},{"town":"大字橋爪","koaza":"五反田","lat":35.37032,"lng":136.943446,"zip":"4840000"},{"town":"大字五郎丸","koaza":"狭間","lat":35.361592,"lng":136.944226,"zip":"4840000"},{"town":"大字犬山","koaza":"西大門先","lat":35.389714,"lng":136.943292,"zip":"4840000"},{"town":"大字羽黒","koaza":"池ノ向","lat":35.345941,"lng":136.944333,"zip":"4840000"},{"town":"大字羽黒新田","koaza":"阿弥陀池廻リ","lat":35.339311,"lng":136.943658,"zip":"4840000"},{"town":"大字羽黒新田","koaza":"西屋敷","lat":35.342251,"lng":136.944321,"zip":"4840000"},{"town":"大字羽黒","koaza":"寺海道","lat":35.343415,"lng":136.944342,"zip":"4840000"},{"town":"大字羽黒","koaza":"徳間屋敷","lat":35.346533,"lng":136.944052,"zip":"4840000"},{"town":"大字五郎丸","koaza":"前畑","lat":35.35942,"lng":136.945264,"zip":"4840000"},{"town":"大字犬山","koaza":"赤鍋","lat":35.375134,"lng":136.944079,"zip":"4840000"},{"town":"大字犬山","koaza":"身打田","lat":35.38685,"lng":136.943971,"zip":"4840000"},{"town":"大字橋爪","koaza":"下前田","lat":35.369616,"lng":136.944313,"zip":"4840000"},{"town":"大字羽黒","koaza":"南金屋","lat":35.351565,"lng":136.944601,"zip":"4840000"},{"town":"大字犬山","koaza":"中道","lat":35.388631,"lng":136.944389,"zip":"4840000"},{"town":"大字羽黒新田","koaza":"郷前","lat":35.341918,"lng":136.946344,"zip":"4840000"},{"town":"大字羽黒","koaza":"懸ケ","lat":35.348668,"lng":136.944626,"zip":"4840000"},{"town":"大字犬山","koaza":"東畑","lat":35.379072,"lng":136.944657,"zip":"4840000"},{"town":"大字羽黒新田","koaza":"松山","lat":35.343649,"lng":136.94396,"zip":"4840000"},{"town":"大字犬山","koaza":"高見町","lat":35.381357,"lng":136.944304,"zip":"4840000"},{"town":"大字五郎丸","koaza":"下前田","lat":35.363397,"lng":136.945512,"zip":"4840000"},{"town":"大字羽黒","koaza":"北金屋","lat":35.353081,"lng":136.944866,"zip":"4840000"},{"town":"大字犬山","koaza":"大門先","lat":35.389528,"lng":136.945453,"zip":"4840000"},{"town":"大字橋爪","koaza":"前田","lat":35.372535,"lng":136.944301,"zip":"4840000"},{"town":"大字五郎丸","koaza":"稲葉組","lat":35.361137,"lng":136.94478,"zip":"4840000"},{"town":"大字犬山","koaza":"東山下","lat":35.385392,"lng":136.945451,"zip":"4840000"},{"town":"大字犬山","koaza":"富士見町","lat":35.380538,"lng":136.945015,"zip":"4840000"},{"town":"大字羽黒","koaza":"貴船浦","lat":35.348965,"lng":136.945623,"zip":"4840000"},{"town":"大字橋爪","koaza":"一丁田","lat":35.374006,"lng":136.946114,"zip":"4840000"},{"town":"大字橋爪","koaza":"南大森","lat":35.370177,"lng":136.94498,"zip":"4840000"},{"town":"大字橋爪","koaza":"花ノ木","lat":35.368537,"lng":136.945221,"zip":"4840000"},{"town":"大字羽黒新田","koaza":"中屋敷","lat":35.34227,"lng":136.945634,"zip":"4840000"},{"town":"大字橋爪","koaza":"上海","lat":35.367238,"lng":136.945972,"zip":"4840000"},{"town":"大字五郎丸","koaza":"柿崎","lat":35.365177,"lng":136.946724,"zip":"4840000"},{"town":"大字犬山","koaza":"寺下","lat":35.390877,"lng":136.946091,"zip":"4840000"},{"town":"大字犬山","koaza":"東余坂","lat":35.383581,"lng":136.94547,"zip":"4840000"},{"town":"大字犬山","koaza":"寺畑","lat":35.388833,"lng":136.945675,"zip":"4840000"},{"town":"大字犬山","koaza":"北天神","lat":35.379292,"lng":136.945517,"zip":"4840000"},{"town":"大字犬山","koaza":"出口","lat":35.375308,"lng":136.945947,"zip":"4840000"},{"town":"大字五郎丸","koaza":"二タ子塚","lat":35.364304,"lng":136.946206,"zip":"4840000"},{"town":"大字五郎丸","koaza":"八龍","lat":35.361269,"lng":136.946649,"zip":"4840000"},{"town":"大字犬山","koaza":"東小島町","lat":35.384731,"lng":136.946046,"zip":"4840000"},{"town":"大字羽黒","koaza":"二日町","lat":35.353097,"lng":136.946806,"zip":"4840000"},{"town":"大字犬山","koaza":"西林崎","lat":35.382545,"lng":136.945987,"zip":"4840000"},{"town":"大字犬山","koaza":"西平","lat":35.386902,"lng":136.947314,"zip":"4840000"},{"town":"大字犬山","koaza":"天王坂","lat":35.385505,"lng":136.946141,"zip":"4840000"},{"town":"大字犬山","koaza":"天白","lat":35.38379,"lng":136.946476,"zip":"4840000"},{"town":"大字羽黒","koaza":"東畑","lat":35.346138,"lng":136.946384,"zip":"4840000"},{"town":"大字羽黒","koaza":"西向畑","lat":35.348955,"lng":136.947573,"zip":"4840000"},{"town":"大字羽黒新田","koaza":"宮ノ前","lat":35.340852,"lng":136.947662,"zip":"4840000"},{"town":"大字五郎丸","koaza":"隅田","lat":35.362924,"lng":136.946773,"zip":"4840000"},{"town":"大字犬山","koaza":"山寺","lat":35.38558,"lng":136.947356,"zip":"4840000"},{"town":"大字羽黒","koaza":"角畑","lat":35.354119,"lng":136.947493,"zip":"4840000"},{"town":"大字犬山","koaza":"瑞泉寺","lat":35.389702,"lng":136.946738,"zip":"4840000"},{"town":"大字羽黒","koaza":"川原口","lat":35.351167,"lng":136.947847,"zip":"4840000"},{"town":"大字羽黒","koaza":"寺浦","lat":35.347115,"lng":136.946994,"zip":"4840000"},{"town":"大字犬山","koaza":"北白山平","lat":35.392596,"lng":136.949853,"zip":"4840000"},{"town":"大字羽黒新田","koaza":"東屋敷","lat":35.343319,"lng":136.948351,"zip":"4840000"},{"town":"大字羽黒","koaza":"稲葉","lat":35.358455,"lng":136.948359,"zip":"4840000"},{"town":"大字犬山","koaza":"下時迫間","lat":35.37369,"lng":136.947793,"zip":"4840000"},{"town":"大字羽黒","koaza":"東向田","lat":35.357623,"lng":136.948516,"zip":"4840000"},{"town":"大字羽黒新田","koaza":"北野屋敷","lat":35.340311,"lng":136.94927,"zip":"4840000"},{"town":"大字羽黒","koaza":"川西","lat":35.360151,"lng":136.947483,"zip":"4840000"},{"town":"大字羽黒新田","koaza":"下蝉屋","lat":35.345854,"lng":136.949391,"zip":"4840000"},{"town":"大字犬山","koaza":"辰ケ池","lat":35.385697,"lng":136.949394,"zip":"4840000"},{"town":"大字羽黒新田","koaza":"灸仕場","lat":35.342548,"lng":136.94847,"zip":"4840000"},{"town":"大字羽黒新田","koaza":"上島","lat":35.339339,"lng":136.949005,"zip":"4840000"},{"town":"大字五郎丸","koaza":"堀端","lat":35.36351,"lng":136.947993,"zip":"4840000"},{"town":"大字羽黒新田","koaza":"樗畑","lat":35.340825,"lng":136.949399,"zip":"4840000"},{"town":"大字犬山","koaza":"南山","lat":35.386742,"lng":136.948476,"zip":"4840000"},{"town":"大字羽黒新田","koaza":"上蝉屋","lat":35.348395,"lng":136.949028,"zip":"4840000"},{"town":"大字羽黒新田","koaza":"郷浦","lat":35.344883,"lng":136.948618,"zip":"4840000"},{"town":"大字羽黒新田","koaza":"中蝉屋","lat":35.346526,"lng":136.949073,"zip":"4840000"},{"town":"大字犬山","koaza":"上時迫間","lat":35.373675,"lng":136.949,"zip":"4840000"},{"town":"大字羽黒","koaza":"城屋敷","lat":35.352755,"lng":136.949313,"zip":"4840000"},{"town":"大字羽黒","koaza":"神明","lat":35.351283,"lng":136.949837,"zip":"4840000"},{"town":"大字羽黒","koaza":"東向畑","lat":35.349365,"lng":136.949333,"zip":"4840000"},{"town":"大字羽黒新田","koaza":"郷東","lat":35.344413,"lng":136.95015,"zip":"4840000"},{"town":"大字羽黒新田","koaza":"鳥屋場","lat":35.342512,"lng":136.950305,"zip":"4840000"},{"town":"大字羽黒","koaza":"井ノ尻","lat":35.357713,"lng":136.949502,"zip":"4840000"},{"town":"大字犬山","koaza":"蝶ケ坪","lat":35.374819,"lng":136.950141,"zip":"4840000"},{"town":"大字羽黒新田","koaza":"八幡西","lat":35.346314,"lng":136.951275,"zip":"4840000"},{"town":"大字犬山","koaza":"甲塚","lat":35.384915,"lng":136.951576,"zip":"4840000"},{"town":"大字羽黒","koaza":"八幡","lat":35.34733,"lng":136.951459,"zip":"4840000"},{"town":"大字羽黒","koaza":"三反田","lat":35.356734,"lng":136.950065,"zip":"4840000"},{"town":"大字羽黒","koaza":"大見下","lat":35.357312,"lng":136.950996,"zip":"4840000"},{"town":"大字羽黒","koaza":"八幡西","lat":35.347083,"lng":136.949826,"zip":"4840000"},{"town":"大字犬山","koaza":"白山平","lat":35.387283,"lng":136.952476,"zip":"4840000"},{"town":"大字羽黒","koaza":"前川原","lat":35.348308,"lng":136.953579,"zip":"4840000"},{"town":"大字羽黒新田","koaza":"起シ","lat":35.344215,"lng":136.951065,"zip":"4840000"},{"town":"大字羽黒","koaza":"古市場","lat":35.351402,"lng":136.952406,"zip":"4840000"},{"town":"大字羽黒新田","koaza":"栗林","lat":35.339606,"lng":136.951344,"zip":"4840000"},{"town":"大字羽黒","koaza":"長田","lat":35.355935,"lng":136.95207,"zip":"4840000"},{"town":"大字羽黒新田","koaza":"境松","lat":35.340543,"lng":136.951673,"zip":"4840000"},{"town":"大字犬山","koaza":"中ノ宮","lat":35.385308,"lng":136.952452,"zip":"4840000"},{"town":"大字羽黒新田","koaza":"畑田","lat":35.342042,"lng":136.952159,"zip":"4840000"},{"town":"大字羽黒","koaza":"竹ノ腰","lat":35.357432,"lng":136.952264,"zip":"4840000"},{"town":"大字羽黒新田","koaza":"起東","lat":35.343566,"lng":136.952644,"zip":"4840000"},{"town":"大字羽黒","koaza":"鳳町","lat":35.35383,"lng":136.953367,"zip":"4840000"},{"town":"大字犬山","koaza":"官林","lat":35.389196,"lng":136.958627,"zip":"4840000"},{"town":"大字羽黒新田","koaza":"八幡前","lat":35.345609,"lng":136.952813,"zip":"4840000"},{"town":"大字犬山","koaza":"北別祖","lat":35.383078,"lng":136.954079,"zip":"4840000"},{"town":"大字羽黒","koaza":"八幡東","lat":35.347996,"lng":136.954143,"zip":"4840000"},{"town":"大字羽黒","koaza":"畑間","lat":35.355974,"lng":136.953299,"zip":"4840000"},{"town":"大字羽黒","koaza":"小安","lat":35.351544,"lng":136.954467,"zip":"4840000"},{"town":"大字五郎丸","koaza":"兜池","lat":35.363289,"lng":136.953534,"zip":"4840000"},{"town":"大字羽黒","koaza":"西五反田","lat":35.35984,"lng":136.95558,"zip":"4840000"},{"town":"大字犬山","koaza":"南別祖","lat":35.38271,"lng":136.956983,"zip":"4840000"},{"town":"大字犬山","koaza":"相生","lat":35.388614,"lng":136.954905,"zip":"4840000"},{"town":"大字犬山","koaza":"殻池","lat":35.385923,"lng":136.955873,"zip":"4840000"},{"town":"大字富岡","koaza":"別曽","lat":35.382573,"lng":136.954948,"zip":"4840000"},{"town":"大字羽黒","koaza":"小豆田","lat":35.361244,"lng":136.955818,"zip":"4840000"},{"town":"大字五郎丸","koaza":"鷺寺","lat":35.362923,"lng":136.955174,"zip":"4840000"},{"town":"大字橋爪","koaza":"下菖蒲池","lat":35.366442,"lng":136.954571,"zip":"4840000"},{"town":"大字五郎丸","koaza":"二タ俣","lat":35.364978,"lng":136.955663,"zip":"4840000"},{"town":"大字五郎丸","koaza":"清水坪","lat":35.366321,"lng":136.955351,"zip":"4840000"},{"town":"大字羽黒","koaza":"高見","lat":35.352338,"lng":136.956109,"zip":"4840000"},{"town":"大字羽黒","koaza":"田中","lat":35.354458,"lng":136.956179,"zip":"4840000"},{"town":"大字羽黒","koaza":"向浦","lat":35.359175,"lng":136.958009,"zip":"4840000"},{"town":"大字羽黒","koaza":"子安","lat":35.351525,"lng":136.957988,"zip":"4840000"},{"town":"大字羽黒","koaza":"上前川原","lat":35.348985,"lng":136.957275,"zip":"4840000"},{"town":"大字羽黒","koaza":"中深田","lat":35.360924,"lng":136.957721,"zip":"4840000"},{"town":"大字羽黒","koaza":"井島","lat":35.361514,"lng":136.957768,"zip":"4840000"},{"town":"大字塔野地","koaza":"深田","lat":35.372752,"lng":136.958472,"zip":"4840000"},{"town":"大字前原","koaza":"井島","lat":35.362396,"lng":136.958307,"zip":"4840000"},{"town":"大字羽黒","koaza":"低見","lat":35.352829,"lng":136.958181,"zip":"4840000"},{"town":"大字継鹿尾","koaza":"氷室","lat":35.395057,"lng":136.958861,"zip":"4840000"},{"town":"大字前原","koaza":"土取","lat":35.363199,"lng":136.957554,"zip":"4840000"},{"town":"大字塔野地","koaza":"兼清","lat":35.369837,"lng":136.95874,"zip":"4840000"},{"town":"大字羽黒","koaza":"細目","lat":35.35378,"lng":136.959125,"zip":"4840000"},{"town":"大字富岡","koaza":"西木戸","lat":35.380179,"lng":136.958185,"zip":"4840000"},{"town":"大字富岡","koaza":"西川原","lat":35.379467,"lng":136.958598,"zip":"4840000"},{"town":"大字富岡","koaza":"池下","lat":35.381276,"lng":136.958367,"zip":"4840000"},{"town":"大字継鹿尾","koaza":"長坂","lat":35.391955,"lng":136.958701,"zip":"4840000"},{"town":"大字継鹿尾","koaza":"仁王洞","lat":35.391628,"lng":136.959489,"zip":"4840000"},{"town":"大字前原","koaza":"桜坪","lat":35.363301,"lng":136.958404,"zip":"4840000"},{"town":"大字塔野地","koaza":"青木","lat":35.374746,"lng":136.958735,"zip":"4840000"},{"town":"大字富岡","koaza":"洞田","lat":35.384253,"lng":136.960527,"zip":"4840000"},{"town":"大字富岡","koaza":"南洞","lat":35.380755,"lng":136.96011,"zip":"4840000"},{"town":"大字継鹿尾","koaza":"光龍寺","lat":35.393503,"lng":136.961355,"zip":"4840000"},{"town":"大字犬山","koaza":"勧行洞","lat":35.385525,"lng":136.959534,"zip":"4840000"},{"town":"大字羽黒","koaza":"桜海道","lat":35.349075,"lng":136.961712,"zip":"4840000"},{"town":"大字羽黒","koaza":"吹上","lat":35.34979,"lng":136.959188,"zip":"4840000"},{"town":"大字継鹿尾","koaza":"川端","lat":35.397141,"lng":136.961529,"zip":"4840000"},{"town":"大字富岡","koaza":"前田","lat":35.379908,"lng":136.961475,"zip":"4840000"},{"town":"大字羽黒","koaza":"元苗田","lat":35.352106,"lng":136.959878,"zip":"4840000"},{"town":"大字富岡","koaza":"北洞","lat":35.382633,"lng":136.960114,"zip":"4840000"},{"town":"大字塔野地","koaza":"山王","lat":35.374315,"lng":136.961196,"zip":"4840000"},{"town":"大字塔野地","koaza":"長見","lat":35.371641,"lng":136.961906,"zip":"4840000"},{"town":"大字羽黒","koaza":"八反田","lat":35.353707,"lng":136.960174,"zip":"4840000"},{"town":"大字羽黒","koaza":"高屋","lat":35.357276,"lng":136.961329,"zip":"4840000"},{"town":"大字羽黒","koaza":"半ノ木","lat":35.357394,"lng":136.961364,"zip":"4840000"},{"town":"大字塔野地","koaza":"川原田","lat":35.370997,"lng":136.960895,"zip":"4840000"},{"town":"大字富岡","koaza":"永洞","lat":35.386217,"lng":136.963055,"zip":"4840000"},{"town":"大字塔野地","koaza":"寺田","lat":35.375893,"lng":136.962985,"zip":"4840000"},{"town":"大字塔野地","koaza":"天王","lat":35.370538,"lng":136.961305,"zip":"4840000"},{"town":"大字栗栖","koaza":"草野","lat":35.414923,"lng":136.963838,"zip":"4840000"},{"town":"大字栗栖","koaza":"野口","lat":35.412086,"lng":136.96537,"zip":"4840000"},{"town":"大字継鹿尾","koaza":"杉ノ段","lat":35.399094,"lng":136.971063,"zip":"4840000"},{"town":"大字富岡","koaza":"片洞","lat":35.382721,"lng":136.963931,"zip":"4840000"},{"town":"大字富岡","koaza":"株池","lat":35.379717,"lng":136.962656,"zip":"4840000"},{"town":"大字塔野地","koaza":"杉ノ山","lat":35.370123,"lng":136.965889,"zip":"4840000"},{"town":"大字栗栖","koaza":"尾崎","lat":35.418194,"lng":136.963208,"zip":"4840000"},{"town":"大字栗栖","koaza":"古屋敷","lat":35.404455,"lng":136.965179,"zip":"4840000"},{"town":"大字栗栖","koaza":"瀬ノ上","lat":35.409334,"lng":136.965071,"zip":"4840000"},{"town":"大字羽黒","koaza":"段ノ上","lat":35.352729,"lng":136.962994,"zip":"4840000"},{"town":"大字羽黒","koaza":"溝口","lat":35.350131,"lng":136.962691,"zip":"4840000"},{"town":"大字塔野地","koaza":"清水","lat":35.378242,"lng":136.963339,"zip":"4840000"},{"town":"大字塔野地","koaza":"南ノ切","lat":35.373508,"lng":136.965071,"zip":"4840000"},{"town":"大字栗栖","koaza":"垣ノ内","lat":35.408086,"lng":136.965875,"zip":"4840000"},{"town":"大字塔野地","koaza":"浦屋敷","lat":35.37778,"lng":136.964123,"zip":"4840000"},{"town":"大字塔野地","koaza":"西中ノ切","lat":35.375634,"lng":136.964492,"zip":"4840000"},{"town":"大字栗栖","koaza":"寺前","lat":35.420155,"lng":136.966563,"zip":"4840000"},{"town":"大字羽黒","koaza":"水井戸","lat":35.347806,"lng":136.966067,"zip":"4840000"},{"town":"大字前原","koaza":"高森塚","lat":35.367652,"lng":136.964291,"zip":"4840000"},{"town":"大字前原","koaza":"西畑","lat":35.367435,"lng":136.966195,"zip":"4840000"},{"town":"大字栗栖","koaza":"大平","lat":35.416034,"lng":136.966406,"zip":"4840000"},{"town":"大字羽黒","koaza":"外山","lat":35.350413,"lng":136.968113,"zip":"4840000"},{"town":"大字塔野地","koaza":"仲田","lat":35.380004,"lng":136.966279,"zip":"4840000"},{"town":"大字前原","koaza":"北中根","lat":35.366135,"lng":136.96623,"zip":"4840000"},{"town":"大字善師野","koaza":"裏山","lat":35.393991,"lng":136.973711,"zip":"4840000"},{"town":"大字富岡","koaza":"小野洞","lat":35.38805,"lng":136.96836,"zip":"4840000"},{"town":"大字前原","koaza":"東野畔","lat":35.362554,"lng":136.965984,"zip":"4840000"},{"town":"大字塔野地","koaza":"中浦","lat":35.3781,"lng":136.966799,"zip":"4840000"},{"town":"大字羽黒","koaza":"北郷","lat":35.359873,"lng":136.966489,"zip":"4840000"},{"town":"大字前原","koaza":"南中根","lat":35.365191,"lng":136.966774,"zip":"4840000"},{"town":"大字羽黒","koaza":"北山手","lat":35.359639,"lng":136.965623,"zip":"4840000"},{"town":"大字羽黒","koaza":"南郷","lat":35.358432,"lng":136.967274,"zip":"4840000"},{"town":"大字塔野地","koaza":"中ノ切","lat":35.375841,"lng":136.967499,"zip":"4840000"},{"town":"大字塔野地","koaza":"前ノ切","lat":35.37422,"lng":136.967333,"zip":"4840000"},{"town":"大字塔野地","koaza":"下前田","lat":35.373306,"lng":136.966365,"zip":"4840000"},{"town":"大字羽黒","koaza":"赤坂","lat":35.354377,"lng":136.969028,"zip":"4840000"},{"town":"大字羽黒","koaza":"赤坂西","lat":35.35422,"lng":136.966416,"zip":"4840000"},{"town":"大字羽黒","koaza":"外山北","lat":35.354371,"lng":136.966476,"zip":"4840000"},{"town":"大字善師野","koaza":"小野洞","lat":35.388545,"lng":136.970591,"zip":"4840000"},{"town":"大字前原","koaza":"北荒神洞","lat":35.362291,"lng":136.968185,"zip":"4840000"},{"town":"大字前原","koaza":"西町","lat":35.364153,"lng":136.967825,"zip":"4840000"},{"town":"大字前原","koaza":"西沢","lat":35.36439,"lng":136.967165,"zip":"4840000"},{"town":"大字塔野地","koaza":"東浦","lat":35.379139,"lng":136.967883,"zip":"4840000"},{"town":"大字塔野地","koaza":"東屋敷","lat":35.378605,"lng":136.969482,"zip":"4840000"},{"town":"大字栗栖","koaza":"古渡","lat":35.420765,"lng":136.968171,"zip":"4840000"},{"town":"大字前原","koaza":"小脇町","lat":35.366855,"lng":136.968484,"zip":"4840000"},{"town":"大字塔野地","koaza":"横松","lat":35.38301,"lng":136.968466,"zip":"4840000"},{"town":"大字前原","koaza":"南荒神洞","lat":35.360475,"lng":136.967764,"zip":"4840000"},{"town":"大字塔野地","koaza":"前田新田","lat":35.373288,"lng":136.969099,"zip":"4840000"},{"town":"大字前原","koaza":"東町","lat":35.363728,"lng":136.96891,"zip":"4840000"},{"town":"大字塔野地","koaza":"東前田","lat":35.375823,"lng":136.96997,"zip":"4840000"},{"town":"大字塔野地","koaza":"岩田","lat":35.381557,"lng":136.970422,"zip":"4840000"},{"town":"大字前原","koaza":"横町","lat":35.367079,"lng":136.970261,"zip":"4840000"},{"town":"大字前原","koaza":"向屋敷","lat":35.361021,"lng":136.974586,"zip":"4840000"},{"town":"大字前原","koaza":"門前","lat":35.364358,"lng":136.9707,"zip":"4840000"},{"town":"大字前原","koaza":"下縄手","lat":35.361865,"lng":136.969297,"zip":"4840000"},{"town":"大字前原","koaza":"上原","lat":35.358054,"lng":136.972381,"zip":"4840000"},{"town":"大字羽黒","koaza":"外山野","lat":35.352791,"lng":136.971037,"zip":"4840000"},{"town":"大字前原","koaza":"前畑","lat":35.362184,"lng":136.970547,"zip":"4840000"},{"town":"大字塔野地","koaza":"大畔","lat":35.371808,"lng":136.975195,"zip":"4840000"},{"town":"大字羽黒","koaza":"堂ケ洞","lat":35.352847,"lng":136.972869,"zip":"4840000"},{"town":"大字前原","koaza":"天道新田","lat":35.365623,"lng":136.975601,"zip":"4840000"},{"town":"大字塔野地","koaza":"田口洞","lat":35.379189,"lng":136.980328,"zip":"4840000"},{"town":"大字前原","koaza":"北畑","lat":35.360089,"lng":136.972952,"zip":"4840000"},{"town":"大字善師野","koaza":"雑志田","lat":35.386407,"lng":136.972657,"zip":"4840000"},{"town":"大字善師野","koaza":"三軒寺","lat":35.384496,"lng":136.97388,"zip":"4840000"},{"town":"大字羽黒","koaza":"根比敷","lat":35.352652,"lng":136.977769,"zip":"4840000"},{"town":"大字善師野","koaza":"六郎洞","lat":35.381785,"lng":136.976074,"zip":"4840000"},{"town":"大字前原","koaza":"味鹿","lat":35.35683,"lng":136.974786,"zip":"4840000"},{"town":"大字善師野","koaza":"細洞","lat":35.388853,"lng":136.97459,"zip":"4840000"},{"town":"大字前原","koaza":"橋爪山","lat":35.363233,"lng":136.984254,"zip":"4840000"},{"town":"大字善師野","koaza":"曲リ","lat":35.386131,"lng":136.975483,"zip":"4840000"},{"town":"大字善師野","koaza":"下清水","lat":35.385154,"lng":136.974619,"zip":"4840000"},{"town":"大字善師野","koaza":"中清水","lat":35.385066,"lng":136.975495,"zip":"4840000"},{"town":"大字善師野","koaza":"五反田","lat":35.387998,"lng":136.976335,"zip":"4840000"},{"town":"大字善師野","koaza":"庄洞","lat":35.38592,"lng":136.977383,"zip":"4840000"},{"town":"大字前原","koaza":"石拾イ","lat":35.357986,"lng":136.978875,"zip":"4840000"},{"town":"大字善師野","koaza":"向田","lat":35.387761,"lng":136.978185,"zip":"4840000"},{"town":"大字善師野","koaza":"伏屋","lat":35.389575,"lng":136.978649,"zip":"4840000"},{"town":"大字善師野","koaza":"上清水","lat":35.384231,"lng":136.97853,"zip":"4840000"},{"town":"大字善師野","koaza":"前田","lat":35.388427,"lng":136.977628,"zip":"4840000"},{"town":"大字善師野","koaza":"裏田","lat":35.391554,"lng":136.978098,"zip":"4840000"},{"town":"大字善師野","koaza":"西ノ野","lat":35.387044,"lng":136.982457,"zip":"4840000"},{"town":"大字善師野","koaza":"野出洞","lat":35.390971,"lng":136.979481,"zip":"4840000"},{"town":"大字善師野","koaza":"橋本","lat":35.388372,"lng":136.97941,"zip":"4840000"},{"town":"大字善師野","koaza":"村街道","lat":35.392101,"lng":136.981153,"zip":"4840000"},{"town":"大字善師野","koaza":"伏屋宮下","lat":35.390846,"lng":136.981252,"zip":"4840000"},{"town":"大字善師野","koaza":"清水寺洞","lat":35.383377,"lng":136.981796,"zip":"4840000"},{"town":"大字善師野","koaza":"下紅屋","lat":35.390255,"lng":136.979949,"zip":"4840000"},{"town":"大字善師野","koaza":"上紅屋","lat":35.389476,"lng":136.981583,"zip":"4840000"},{"town":"大字善師野","koaza":"真土","lat":35.390714,"lng":136.98171,"zip":"4840000"},{"town":"大字善師野","koaza":"口野手ケ洞","lat":35.392887,"lng":136.982982,"zip":"4840000"},{"town":"大字善師野","koaza":"内ケ洞","lat":35.386815,"lng":136.984264,"zip":"4840000"},{"town":"大字善師野","koaza":"隅田","lat":35.391647,"lng":136.982881,"zip":"4840000"},{"town":"大字善師野","koaza":"寺洞屋敷","lat":35.393579,"lng":136.984204,"zip":"4840000"},{"town":"大字善師野","koaza":"下向野","lat":35.390288,"lng":136.983366,"zip":"4840000"},{"town":"大字善師野","koaza":"上向野","lat":35.389233,"lng":136.984247,"zip":"4840000"},{"town":"大字善師野","koaza":"郷戸","lat":35.391538,"lng":136.984349,"zip":"4840000"},{"town":"大字善師野","koaza":"下ノ奥","lat":35.394588,"lng":136.984978,"zip":"4840000"},{"town":"大字善師野","koaza":"小橋","lat":35.389704,"lng":136.984602,"zip":"4840000"},{"town":"大字善師野","koaza":"竹ノ街道","lat":35.392561,"lng":136.985369,"zip":"4840000"},{"town":"大字善師野","koaza":"中屋敷","lat":35.389195,"lng":136.986493,"zip":"4840000"},{"town":"大字善師野","koaza":"宮蔵洞","lat":35.391469,"lng":136.986687,"zip":"4840000"},{"town":"大字善師野","koaza":"西屋敷","lat":35.390131,"lng":136.986398,"zip":"4840000"},{"town":"大字善師野","koaza":"畔洞","lat":35.393365,"lng":136.985734,"zip":"4840000"},{"town":"大字善師野","koaza":"口平谷","lat":35.389581,"lng":136.986126,"zip":"4840000"},{"town":"大字善師野","koaza":"野原","lat":35.38916,"lng":136.988554,"zip":"4840000"},{"town":"大字善師野","koaza":"小戸","lat":35.389971,"lng":136.988085,"zip":"4840000"},{"town":"大字善師野","koaza":"大門下","lat":35.38986,"lng":136.989074,"zip":"4840000"},{"town":"大字善師野","koaza":"東野原","lat":35.389268,"lng":136.98927,"zip":"4840000"},{"town":"大字今井","koaza":"物置洞","lat":35.353881,"lng":136.998022,"zip":"4840000"},{"town":"大字今井","koaza":"観音堂","lat":35.362437,"lng":136.995893,"zip":"4840000"},{"town":"大字善師野","koaza":"奥雑木洞","lat":35.384372,"lng":136.99373,"zip":"4840000"},{"town":"大字善師野","koaza":"下田洞","lat":35.389209,"lng":136.990221,"zip":"4840000"},{"town":"大字善師野","koaza":"下神ノ木","lat":35.390685,"lng":136.990142,"zip":"4840000"},{"town":"大字善師野","koaza":"上神ノ木","lat":35.390671,"lng":136.990997,"zip":"4840000"},{"town":"大字善師野","koaza":"口下屋","lat":35.389009,"lng":136.990839,"zip":"4840000"},{"town":"大字今井","koaza":"岩穴洞","lat":35.360562,"lng":136.991833,"zip":"4840000"},{"town":"大字善師野","koaza":"中下屋","lat":35.388347,"lng":136.991323,"zip":"4840000"},{"town":"大字善師野","koaza":"上西屋敷","lat":35.389449,"lng":136.992206,"zip":"4840000"},{"town":"大字今井","koaza":"志水口","lat":35.370425,"lng":136.995052,"zip":"4840000"},{"town":"大字善師野","koaza":"東上屋敷","lat":35.388498,"lng":136.993424,"zip":"4840000"},{"town":"大字善師野","koaza":"東下屋敷","lat":35.389068,"lng":136.993214,"zip":"4840000"},{"town":"大字善師野","koaza":"上宮下","lat":35.389896,"lng":136.993571,"zip":"4840000"},{"town":"大字善師野","koaza":"中田","lat":35.388332,"lng":136.994379,"zip":"4840000"},{"town":"大字善師野","koaza":"上前田","lat":35.389337,"lng":136.994396,"zip":"4840000"},{"town":"大字今井","koaza":"前田","lat":35.358319,"lng":136.995605,"zip":"4840000"},{"town":"大字今井","koaza":"反保","lat":35.360192,"lng":136.995928,"zip":"4840000"},{"town":"大字今井","koaza":"山神洞","lat":35.37895,"lng":137.009187,"zip":"4840000"},{"town":"大字今井","koaza":"笠松","lat":35.359057,"lng":136.995097,"zip":"4840000"},{"town":"大字善師野","koaza":"馬瀬口","lat":35.390906,"lng":136.996241,"zip":"4840000"},{"town":"大字今井","koaza":"喜八洞","lat":35.37794,"lng":136.998846,"zip":"4840000"},{"town":"大字今井","koaza":"寺ノ前","lat":35.367708,"lng":136.997327,"zip":"4840000"},{"town":"大字今井","koaza":"宮ケ洞","lat":35.363282,"lng":136.999007,"zip":"4840000"},{"town":"大字今井","koaza":"駒屋敷","lat":35.357293,"lng":136.998396,"zip":"4840000"},{"town":"大字今井","koaza":"聟田","lat":35.366586,"lng":136.999224,"zip":"4840000"},{"town":"大字今井","koaza":"鍬下","lat":35.35871,"lng":136.999195,"zip":"4840000"},{"town":"大字今井","koaza":"方丈堂","lat":35.357412,"lng":136.999095,"zip":"4840000"},{"town":"大字今井","koaza":"浅戸","lat":35.366221,"lng":136.999046,"zip":"4840000"},{"town":"大字今井","koaza":"宮下","lat":35.359168,"lng":136.999312,"zip":"4840000"},{"town":"大字今井","koaza":"石蔵","lat":35.367016,"lng":137.001286,"zip":"4840000"},{"town":"大字今井","koaza":"若宮","lat":35.367636,"lng":137.0009,"zip":"4840000"},{"town":"大字今井","koaza":"酒屋越","lat":35.368918,"lng":137.000244,"zip":"4840000"},{"town":"大字今井","koaza":"保町","lat":35.369263,"lng":137.000618,"zip":"4840000"},{"town":"大字今井","koaza":"姥田","lat":35.373164,"lng":137.002898,"zip":"4840000"},{"town":"大字今井","koaza":"小洞","lat":35.369804,"lng":137.000766,"zip":"4840000"},{"town":"大字今井","koaza":"畑中","lat":35.369577,"lng":137.003295,"zip":"4840000"},{"town":"大字今井","koaza":"成沢","lat":35.368014,"lng":137.014857,"zip":"4840000"},{"town":"大字今井","koaza":"仲田","lat":35.37306,"lng":137.002119,"zip":"4840000"},{"town":"大字今井","koaza":"百無","lat":35.367292,"lng":137.003402,"zip":"4840000"},{"town":"大字今井","koaza":"榎木洞","lat":35.372657,"lng":137.005774,"zip":"4840000"},{"town":"大字今井","koaza":"祢宜洞","lat":35.369079,"lng":137.008034,"zip":"4840000"},{"town":"大字今井","koaza":"四ツ家","lat":35.37457,"lng":137.006349,"zip":"4840000"},{"town":"大字今井","koaza":"虎熊","lat":35.367174,"lng":137.006473,"zip":"4840000"},{"town":"大字今井","koaza":"八反田","lat":35.376218,"lng":137.006602,"zip":"4840000"},{"town":"大字今井","koaza":"割洞","lat":35.375738,"lng":137.007757,"zip":"4840000"},{"town":"大字今井","koaza":"池ノ下","lat":35.366699,"lng":137.008541,"zip":"4840000"},{"town":"大字今井","koaza":"切塞","lat":35.381104,"lng":137.013478,"zip":"4840000"},{"town":"大字今井","koaza":"牛ケ洞","lat":35.365798,"lng":137.010247,"zip":"4840000"},{"town":"大字今井","koaza":"平内洞","lat":35.371465,"lng":137.013774,"zip":"4840000"},{"town":"大字今井","koaza":"北洞","lat":35.366265,"lng":137.012604,"zip":"4840000"},{"town":"大字今井","koaza":"畑ケ平","lat":35.370572,"lng":137.019811,"zip":"4840000"},{"town":"大字今井","koaza":"東山","lat":35.364911,"lng":137.026621,"zip":"4840000"}]