[{"town":"相川町","koaza":"","lat":34.658632,"lng":137.310072,"zip":"4413418"},{"town":"赤石一丁目","koaza":"","lat":34.665374,"lng":137.26655,"zip":"4413422"},{"town":"赤石二丁目","koaza":"","lat":34.664929,"lng":137.268336,"zip":"4413422"},{"town":"赤石三丁目","koaza":"","lat":34.663353,"lng":137.268837,"zip":"4413422"},{"town":"赤石四丁目","koaza":"","lat":34.663467,"lng":137.267588,"zip":"4413422"},{"town":"赤石五丁目","koaza":"","lat":34.661951,"lng":137.266362,"zip":"4413422"},{"town":"赤石六丁目","koaza":"","lat":34.661523,"lng":137.2677,"zip":"4413422"},{"town":"赤羽根町","koaza":"","lat":34.621239,"lng":137.199621,"zip":"4413502"},{"town":"芦町","koaza":"","lat":34.639707,"lng":137.18895,"zip":"4413433"},{"town":"伊川津町","koaza":"","lat":34.646531,"lng":137.145186,"zip":"4413604"},{"town":"池尻町","koaza":"","lat":34.613433,"lng":137.179272,"zip":"4413505"},{"town":"石神町","koaza":"","lat":34.632475,"lng":137.140752,"zip":"4413611"},{"town":"伊良湖町","koaza":"","lat":34.589939,"lng":137.04342,"zip":"4413624"},{"town":"宇津江町","koaza":"","lat":34.6585,"lng":137.179676,"zip":"4413601"},{"town":"浦町","koaza":"","lat":34.698234,"lng":137.278567,"zip":"4413403"},{"town":"江比間町","koaza":"","lat":34.648977,"lng":137.168832,"zip":"4413605"},{"town":"大草町","koaza":"","lat":34.63583,"lng":137.253879,"zip":"4413425"},{"town":"大久保町","koaza":"","lat":34.648986,"lng":137.235058,"zip":"4413426"},{"town":"越戸町","koaza":"","lat":34.598309,"lng":137.155245,"zip":"4413504"},{"town":"折立町","koaza":"","lat":34.631601,"lng":137.112637,"zip":"4413608"},{"town":"加治町","koaza":"","lat":34.658969,"lng":137.253505,"zip":"4413427"},{"town":"片西一丁目","koaza":"","lat":34.693457,"lng":137.260522,"zip":"4413409"},{"town":"片西二丁目","koaza":"","lat":34.694473,"lng":137.260768,"zip":"4413409"},{"town":"片西三丁目","koaza":"","lat":34.695252,"lng":137.259354,"zip":"4413409"},{"town":"片浜町","koaza":"","lat":34.691676,"lng":137.260612,"zip":"4413404"},{"town":"亀山町","koaza":"","lat":34.608165,"lng":137.067819,"zip":"4413625"},{"town":"神戸町","koaza":"","lat":34.657082,"lng":137.277829,"zip":"4413415"},{"town":"光崎一丁目","koaza":"","lat":34.710306,"lng":137.2802,"zip":"4413407"},{"town":"光崎二丁目","koaza":"","lat":34.711352,"lng":137.277841,"zip":"4413407"},{"town":"光崎三丁目","koaza":"","lat":34.711348,"lng":137.282986,"zip":"4413407"},{"town":"小塩津町","koaza":"","lat":34.600594,"lng":137.092893,"zip":"4413626"},{"town":"古田町","koaza":"","lat":34.62381,"lng":137.111958,"zip":"4413613"},{"town":"御殿山","koaza":"","lat":34.674312,"lng":137.285441,"zip":"4413419"},{"town":"小中山町","koaza":"","lat":34.647123,"lng":137.070726,"zip":"4413618"},{"town":"白浜","koaza":"","lat":34.696758,"lng":137.246415,"zip":"4413436"},{"town":"白谷町","koaza":"","lat":34.68309,"lng":137.239952,"zip":"4413431"},{"town":"高木町","koaza":"","lat":34.630236,"lng":137.123134,"zip":"4413612"},{"town":"高松町","koaza":"","lat":34.627975,"lng":137.234696,"zip":"4413501"},{"town":"田原町","koaza":"","lat":34.673188,"lng":137.259611,"zip":"4413421"},{"town":"豊島町","koaza":"","lat":34.669882,"lng":137.286934,"zip":"4413417"},{"town":"長沢町","koaza":"","lat":34.61463,"lng":137.10829,"zip":"4413609"},{"town":"中山町","koaza":"","lat":34.624839,"lng":137.076253,"zip":"4413615"},{"town":"仁崎町","koaza":"","lat":34.669302,"lng":137.223928,"zip":"4413435"},{"town":"西神戸町","koaza":"","lat":34.647267,"lng":137.268179,"zip":"4413423"},{"town":"西山町","koaza":"","lat":34.61203,"lng":137.053084,"zip":"4413619"},{"town":"野田町","koaza":"","lat":34.652208,"lng":137.205959,"zip":"4413432"},{"town":"波瀬町","koaza":"","lat":34.708787,"lng":137.278098,"zip":"4413406"},{"town":"八王子町","koaza":"","lat":34.633659,"lng":137.171827,"zip":"4413602"},{"town":"馬伏町","koaza":"","lat":34.641673,"lng":137.153077,"zip":"4413606"},{"town":"日出町","koaza":"","lat":34.582572,"lng":137.044145,"zip":"4413623"},{"town":"東赤石一丁目","koaza":"","lat":34.664535,"lng":137.272212,"zip":"4413416"},{"town":"東赤石二丁目","koaza":"","lat":34.66297,"lng":137.273042,"zip":"4413416"},{"town":"東赤石三丁目","koaza":"","lat":34.664033,"lng":137.270829,"zip":"4413416"},{"town":"東赤石四丁目","koaza":"","lat":34.662425,"lng":137.270494,"zip":"4413416"},{"town":"東赤石五丁目","koaza":"","lat":34.661265,"lng":137.273635,"zip":"4413416"},{"town":"東神戸町","koaza":"","lat":34.642273,"lng":137.29564,"zip":"4413414"},{"town":"姫見台","koaza":"","lat":34.706,"lng":137.275365,"zip":"4413405"},{"town":"福江町","koaza":"","lat":34.626643,"lng":137.100581,"zip":"4413617"},{"town":"保美町","koaza":"","lat":34.618213,"lng":137.088604,"zip":"4413614"},{"town":"堀切町","koaza":"","lat":34.597519,"lng":137.074457,"zip":"4413627"},{"town":"ほると台","koaza":"","lat":34.662826,"lng":137.20886,"zip":"4413434"},{"town":"緑が浜","koaza":"","lat":34.717763,"lng":137.282089,"zip":"4413401"},{"town":"南神戸町","koaza":"","lat":34.638067,"lng":137.281216,"zip":"4413424"},{"town":"向山町","koaza":"","lat":34.633975,"lng":137.098652,"zip":"4413616"},{"town":"六連町","koaza":"","lat":34.651205,"lng":137.316025,"zip":"4413413"},{"town":"村松町","koaza":"","lat":34.631272,"lng":137.156692,"zip":"4413603"},{"town":"やぐま台","koaza":"","lat":34.672001,"lng":137.307534,"zip":"4413411"},{"town":"谷熊町","koaza":"","lat":34.670983,"lng":137.301336,"zip":"4413412"},{"town":"山田町","koaza":"","lat":34.613983,"lng":137.12783,"zip":"4413621"},{"town":"夕陽が浜","koaza":"","lat":34.642672,"lng":137.139966,"zip":"4413607"},{"town":"吉胡台一丁目","koaza":"","lat":34.684669,"lng":137.277325,"zip":"4413408"},{"town":"吉胡台二丁目","koaza":"","lat":34.684307,"lng":137.278606,"zip":"4413408"},{"town":"吉胡台三丁目","koaza":"","lat":34.682939,"lng":137.279104,"zip":"4413408"},{"town":"吉胡町","koaza":"","lat":34.686551,"lng":137.278045,"zip":"4413402"},{"town":"若見町","koaza":"","lat":34.611283,"lng":137.163413,"zip":"4413503"},{"town":"和地町","koaza":"","lat":34.598444,"lng":137.123614,"zip":"4413622"},{"town":"伊良湖町","koaza":"宮下","lat":34.585387,"lng":137.030258,"zip":"4413624"},{"town":"伊良湖町","koaza":"古山","lat":34.581427,"lng":137.02247,"zip":"4413624"},{"town":"西山町","koaza":"千里","lat":34.602452,"lng":137.035671,"zip":"4413619"},{"town":"中山町","koaza":"大松上","lat":34.609234,"lng":137.038645,"zip":"4413615"},{"town":"伊良湖町","koaza":"新田","lat":34.589173,"lng":137.039728,"zip":"4413624"},{"town":"中山町","koaza":"岬","lat":34.618427,"lng":137.044631,"zip":"4413615"},{"town":"日出町","koaza":"本畑","lat":34.581997,"lng":137.042578,"zip":"4413623"},{"town":"伊良湖町","koaza":"渡川","lat":34.589786,"lng":137.04236,"zip":"4413624"},{"town":"伊良湖町","koaza":"拾歩","lat":34.586604,"lng":137.041797,"zip":"4413624"},{"town":"伊良湖町","koaza":"小薮下","lat":34.587838,"lng":137.042249,"zip":"4413624"},{"town":"西山町","koaza":"大平","lat":34.601708,"lng":137.044155,"zip":"4413619"},{"town":"伊良湖町","koaza":"小薮","lat":34.585558,"lng":137.042751,"zip":"4413624"},{"town":"伊良湖町","koaza":"長切","lat":34.588082,"lng":137.044342,"zip":"4413624"},{"town":"日出町","koaza":"長畑","lat":34.583094,"lng":137.042803,"zip":"4413623"},{"town":"日出町","koaza":"西瀬古","lat":34.581381,"lng":137.043752,"zip":"4413623"},{"town":"伊良湖町","koaza":"古婦","lat":34.591332,"lng":137.046011,"zip":"4413624"},{"town":"日出町","koaza":"世戸畑","lat":34.583779,"lng":137.04465,"zip":"4413623"},{"town":"日出町","koaza":"新屋敷","lat":34.584426,"lng":137.047064,"zip":"4413623"},{"town":"日出町","koaza":"中瀬古","lat":34.582491,"lng":137.045311,"zip":"4413623"},{"town":"日出町","koaza":"浜辺","lat":34.585247,"lng":137.046396,"zip":"4413623"},{"town":"西山町","koaza":"明和","lat":34.602286,"lng":137.050817,"zip":"4413619"},{"town":"日出町","koaza":"東瀬古","lat":34.583189,"lng":137.047086,"zip":"4413623"},{"town":"西山町","koaza":"大松","lat":34.608606,"lng":137.046969,"zip":"4413619"},{"town":"西山町","koaza":"砂原","lat":34.611625,"lng":137.048838,"zip":"4413619"},{"town":"小中山町","koaza":"一膳松","lat":34.644106,"lng":137.058508,"zip":"4413618"},{"town":"日出町","koaza":"浜辺汐除地","lat":34.584124,"lng":137.050752,"zip":"4413623"},{"town":"西山町","koaza":"西ノ山","lat":34.610698,"lng":137.051969,"zip":"4413619"},{"town":"西山町","koaza":"小松原","lat":34.616365,"lng":137.054293,"zip":"4413619"},{"town":"堀切町","koaza":"浜薮","lat":34.584309,"lng":137.053634,"zip":"4413627"},{"town":"西山町","koaza":"中里","lat":34.605959,"lng":137.054629,"zip":"4413619"},{"town":"堀切町","koaza":"焼山","lat":34.585759,"lng":137.056496,"zip":"4413627"},{"town":"伊良湖町","koaza":"瓦場","lat":34.596654,"lng":137.056347,"zip":"4413624"},{"town":"西山町","koaza":"大原","lat":34.618615,"lng":137.057435,"zip":"4413619"},{"town":"亀山町","koaza":"山畑","lat":34.603369,"lng":137.057452,"zip":"4413625"},{"town":"亀山町","koaza":"瀬戸畑","lat":34.604269,"lng":137.059543,"zip":"4413625"},{"town":"西山町","koaza":"穂波","lat":34.61381,"lng":137.060704,"zip":"4413619"},{"town":"堀切町","koaza":"西畑","lat":34.586955,"lng":137.061183,"zip":"4413627"},{"town":"西山町","koaza":"福地","lat":34.62179,"lng":137.060643,"zip":"4413619"},{"town":"西山町","koaza":"須賀","lat":34.619803,"lng":137.063662,"zip":"4413619"},{"town":"亀山町","koaza":"上ノ越","lat":34.605117,"lng":137.062709,"zip":"4413625"},{"town":"堀切町","koaza":"川畑","lat":34.587869,"lng":137.062791,"zip":"4413627"},{"town":"堀切町","koaza":"瀬古畑","lat":34.58797,"lng":137.065107,"zip":"4413627"},{"town":"亀山町","koaza":"上中原","lat":34.60541,"lng":137.064235,"zip":"4413625"},{"town":"亀山町","koaza":"平沢","lat":34.604868,"lng":137.065962,"zip":"4413625"},{"town":"小中山町","koaza":"久エ森","lat":34.65449,"lng":137.066825,"zip":"4413618"},{"town":"堀切町","koaza":"鳥屋道","lat":34.589078,"lng":137.065247,"zip":"4413627"},{"town":"堀切町","koaza":"除地","lat":34.589406,"lng":137.067664,"zip":"4413627"},{"town":"中山町","koaza":"兼原郷","lat":34.619269,"lng":137.069534,"zip":"4413615"},{"town":"亀山町","koaza":"小中原","lat":34.609242,"lng":137.067531,"zip":"4413625"},{"town":"中山町","koaza":"清水","lat":34.631033,"lng":137.067779,"zip":"4413615"},{"town":"亀山町","koaza":"スルシ沢","lat":34.608342,"lng":137.068959,"zip":"4413625"},{"town":"堀切町","koaza":"五反田","lat":34.590916,"lng":137.068012,"zip":"4413627"},{"town":"亀山町","koaza":"大辻","lat":34.616022,"lng":137.070744,"zip":"4413625"},{"town":"中山町","koaza":"本田","lat":34.622505,"lng":137.06815,"zip":"4413615"},{"town":"亀山町","koaza":"川地","lat":34.610998,"lng":137.068732,"zip":"4413625"},{"town":"中山町","koaza":"平分","lat":34.627837,"lng":137.069367,"zip":"4413615"},{"town":"堀切町","koaza":"新田","lat":34.590319,"lng":137.069483,"zip":"4413627"},{"town":"亀山町","koaza":"本畑","lat":34.612803,"lng":137.069235,"zip":"4413625"},{"town":"堀切町","koaza":"中浜畑","lat":34.589541,"lng":137.070563,"zip":"4413627"},{"town":"亀山町","koaza":"小林","lat":34.609966,"lng":137.07071,"zip":"4413625"},{"town":"亀山町","koaza":"地ノ神","lat":34.614019,"lng":137.070934,"zip":"4413625"},{"town":"中山町","koaza":"新開","lat":34.616442,"lng":137.071843,"zip":"4413615"},{"town":"堀切町","koaza":"瀬戸","lat":34.590607,"lng":137.071598,"zip":"4413627"},{"town":"亀山町","koaza":"起","lat":34.611722,"lng":137.071325,"zip":"4413625"},{"town":"亀山町","koaza":"草刈場","lat":34.608808,"lng":137.071749,"zip":"4413625"},{"town":"小中山町","koaza":"八幡上","lat":34.652577,"lng":137.077384,"zip":"4413618"},{"town":"亀山町","koaza":"札ノ辻","lat":34.612192,"lng":137.072023,"zip":"4413625"},{"town":"堀切町","koaza":"新堀西","lat":34.58951,"lng":137.073175,"zip":"4413627"},{"town":"中山町","koaza":"御墓","lat":34.629516,"lng":137.073535,"zip":"4413615"},{"town":"堀切町","koaza":"蒲","lat":34.595444,"lng":137.073681,"zip":"4413627"},{"town":"堀切町","koaza":"永田","lat":34.598495,"lng":137.074044,"zip":"4413627"},{"town":"中山町","koaza":"丸田","lat":34.633683,"lng":137.074667,"zip":"4413615"},{"town":"中山町","koaza":"中原","lat":34.624505,"lng":137.074005,"zip":"4413615"},{"town":"亀山町","koaza":"大構","lat":34.609567,"lng":137.07386,"zip":"4413625"},{"town":"保美町","koaza":"西原","lat":34.615188,"lng":137.079312,"zip":"4413614"},{"town":"堀切町","koaza":"山ノ鼻","lat":34.606504,"lng":137.074525,"zip":"4413627"},{"town":"小中山町","koaza":"万灯松","lat":34.648782,"lng":137.075215,"zip":"4413618"},{"town":"中山町","koaza":"新浜","lat":34.632399,"lng":137.075029,"zip":"4413615"},{"town":"小中山町","koaza":"立馬崎","lat":34.656342,"lng":137.082365,"zip":"4413618"},{"town":"堀切町","koaza":"新堀東","lat":34.591011,"lng":137.075119,"zip":"4413627"},{"town":"中山町","koaza":"郷前","lat":34.630098,"lng":137.077594,"zip":"4413615"},{"town":"中山町","koaza":"郷下","lat":34.632863,"lng":137.076188,"zip":"4413615"},{"town":"堀切町","koaza":"植松","lat":34.596583,"lng":137.076813,"zip":"4413627"},{"town":"堀切町","koaza":"小堀","lat":34.593744,"lng":137.076049,"zip":"4413627"},{"town":"保美町","koaza":"今田","lat":34.614192,"lng":137.082334,"zip":"4413614"},{"town":"中山町","koaza":"八軒屋","lat":34.632181,"lng":137.078934,"zip":"4413615"},{"town":"堀切町","koaza":"出口","lat":34.594313,"lng":137.077319,"zip":"4413627"},{"town":"堀切町","koaza":"河木原","lat":34.592741,"lng":137.076681,"zip":"4413627"},{"town":"堀切町","koaza":"浜畑","lat":34.590019,"lng":137.077503,"zip":"4413627"},{"town":"小中山町","koaza":"一分","lat":34.649552,"lng":137.079059,"zip":"4413618"},{"town":"中山町","koaza":"貝羽呉","lat":34.620956,"lng":137.078257,"zip":"4413615"},{"town":"堀切町","koaza":"岡畑","lat":34.592192,"lng":137.077806,"zip":"4413627"},{"town":"小中山町","koaza":"塚土","lat":34.64552,"lng":137.078848,"zip":"4413618"},{"town":"中山町","koaza":"又兵衛構","lat":34.625979,"lng":137.080287,"zip":"4413615"},{"town":"堀切町","koaza":"元畑","lat":34.596336,"lng":137.079616,"zip":"4413627"},{"town":"中山町","koaza":"成美","lat":34.633512,"lng":137.079469,"zip":"4413615"},{"town":"中山町","koaza":"西今田","lat":34.622986,"lng":137.079315,"zip":"4413615"},{"town":"堀切町","koaza":"西瀬古","lat":34.590905,"lng":137.078507,"zip":"4413627"},{"town":"小中山町","koaza":"一本松","lat":34.64382,"lng":137.082858,"zip":"4413618"},{"town":"堀切町","koaza":"奥瀬古","lat":34.5924,"lng":137.080103,"zip":"4413627"},{"town":"小中山町","koaza":"南郷","lat":34.648377,"lng":137.081387,"zip":"4413618"},{"town":"堀切町","koaza":"東瀬古","lat":34.589536,"lng":137.080181,"zip":"4413627"},{"town":"堀切町","koaza":"段留","lat":34.609569,"lng":137.081822,"zip":"4413627"},{"town":"小中山町","koaza":"田端","lat":34.646853,"lng":137.080562,"zip":"4413618"},{"town":"中山町","koaza":"儀呂","lat":34.631633,"lng":137.082471,"zip":"4413615"},{"town":"中山町","koaza":"東今田","lat":34.620765,"lng":137.081427,"zip":"4413615"},{"town":"小中山町","koaza":"北浜新田","lat":34.65119,"lng":137.082802,"zip":"4413618"},{"town":"中山町","koaza":"神明前","lat":34.636114,"lng":137.081924,"zip":"4413615"},{"town":"小中山町","koaza":"北郷","lat":34.649104,"lng":137.084082,"zip":"4413618"},{"town":"堀切町","koaza":"宮裏","lat":34.59299,"lng":137.081075,"zip":"4413627"},{"town":"中山町","koaza":"小番場","lat":34.626769,"lng":137.081263,"zip":"4413615"},{"town":"小中山町","koaza":"新田一本松下","lat":34.642488,"lng":137.084616,"zip":"4413618"},{"town":"保美町","koaza":"段土","lat":34.616128,"lng":137.087733,"zip":"4413614"},{"town":"中山町","koaza":"寺脇","lat":34.639112,"lng":137.084863,"zip":"4413615"},{"town":"中山町","koaza":"茶園","lat":34.626512,"lng":137.085713,"zip":"4413615"},{"town":"小中山町","koaza":"山二新田","lat":34.655828,"lng":137.087925,"zip":"4413618"},{"town":"堀切町","koaza":"今田","lat":34.608466,"lng":137.085029,"zip":"4413627"},{"town":"中山町","koaza":"大番場","lat":34.622009,"lng":137.085676,"zip":"4413615"},{"town":"中山町","koaza":"前畑","lat":34.632122,"lng":137.085864,"zip":"4413615"},{"town":"堀切町","koaza":"宮東","lat":34.590549,"lng":137.084962,"zip":"4413627"},{"town":"中山町","koaza":"宮下","lat":34.635535,"lng":137.085497,"zip":"4413615"},{"town":"保美町","koaza":"丸池","lat":34.620721,"lng":137.08729,"zip":"4413614"},{"town":"保美町","koaza":"土尻","lat":34.612486,"lng":137.087544,"zip":"4413614"},{"town":"中山町","koaza":"宮脇本畑","lat":34.640727,"lng":137.085892,"zip":"4413615"},{"town":"中山町","koaza":"大堀","lat":34.632972,"lng":137.086815,"zip":"4413615"},{"town":"中山町","koaza":"天白","lat":34.642615,"lng":137.086062,"zip":"4413615"},{"town":"小塩津町","koaza":"南荒古","lat":34.593098,"lng":137.087133,"zip":"4413626"},{"town":"小塩津町","koaza":"新田","lat":34.592261,"lng":137.087215,"zip":"4413626"},{"town":"中山町","koaza":"広畑","lat":34.62425,"lng":137.087889,"zip":"4413615"},{"town":"小塩津町","koaza":"右善坊構","lat":34.600158,"lng":137.088634,"zip":"4413626"},{"town":"中山町","koaza":"作道","lat":34.630969,"lng":137.088335,"zip":"4413615"},{"town":"小塩津町","koaza":"唐沢","lat":34.605213,"lng":137.088429,"zip":"4413626"},{"town":"中山町","koaza":"宇須畑","lat":34.631334,"lng":137.089461,"zip":"4413615"},{"town":"小塩津町","koaza":"後山","lat":34.603313,"lng":137.089977,"zip":"4413626"},{"town":"小塩津町","koaza":"中荒古","lat":34.593539,"lng":137.089136,"zip":"4413626"},{"town":"中山町","koaza":"松渕郷","lat":34.628936,"lng":137.091532,"zip":"4413615"},{"town":"小塩津町","koaza":"西瀬古","lat":34.592203,"lng":137.089443,"zip":"4413626"},{"town":"小塩津町","koaza":"出口","lat":34.593875,"lng":137.090253,"zip":"4413626"},{"town":"保美町","koaza":"仲原","lat":34.619203,"lng":137.092534,"zip":"4413614"},{"town":"保美町","koaza":"西武者詰","lat":34.613459,"lng":137.092939,"zip":"4413614"},{"town":"小塩津町","koaza":"右善坊下","lat":34.596484,"lng":137.092195,"zip":"4413626"},{"town":"小塩津町","koaza":"内荒古","lat":34.5938,"lng":137.091415,"zip":"4413626"},{"town":"保美町","koaza":"寺西","lat":34.619913,"lng":137.091949,"zip":"4413614"},{"town":"小塩津町","koaza":"里瀬古","lat":34.592081,"lng":137.092081,"zip":"4413626"},{"town":"保美町","koaza":"沢","lat":34.623908,"lng":137.091963,"zip":"4413614"},{"town":"福江町","koaza":"蓼池","lat":34.635275,"lng":137.094799,"zip":"4413617"},{"town":"保美町","koaza":"後田","lat":34.62602,"lng":137.093285,"zip":"4413614"},{"town":"小塩津町","koaza":"中村","lat":34.593537,"lng":137.09255,"zip":"4413626"},{"town":"福江町","koaza":"今ノ田上","lat":34.638721,"lng":137.094045,"zip":"4413617"},{"town":"小塩津町","koaza":"寺道","lat":34.595547,"lng":137.093834,"zip":"4413626"},{"town":"小塩津町","koaza":"西坂下","lat":34.597545,"lng":137.093028,"zip":"4413626"},{"town":"小塩津町","koaza":"山井戸","lat":34.59688,"lng":137.093154,"zip":"4413626"},{"town":"小塩津町","koaza":"為原","lat":34.606481,"lng":137.095649,"zip":"4413626"},{"town":"保美町","koaza":"南","lat":34.617749,"lng":137.094836,"zip":"4413614"},{"town":"保美町","koaza":"仲瀬古","lat":34.620384,"lng":137.095778,"zip":"4413614"},{"town":"保美町","koaza":"東武者詰","lat":34.616097,"lng":137.094675,"zip":"4413614"},{"town":"保美町","koaza":"平城","lat":34.624711,"lng":137.094786,"zip":"4413614"},{"town":"小塩津町","koaza":"先祖畑","lat":34.593657,"lng":137.095084,"zip":"4413626"},{"town":"福江町","koaza":"仲畑","lat":34.632101,"lng":137.094861,"zip":"4413617"},{"town":"小塩津町","koaza":"宮構","lat":34.597474,"lng":137.096124,"zip":"4413626"},{"town":"福江町","koaza":"広畑","lat":34.636429,"lng":137.095048,"zip":"4413617"},{"town":"福江町","koaza":"新西畑","lat":34.63865,"lng":137.095502,"zip":"4413617"},{"town":"福江町","koaza":"天神","lat":34.626677,"lng":137.096863,"zip":"4413617"},{"town":"小塩津町","koaza":"東瀬古","lat":34.592938,"lng":137.096739,"zip":"4413626"},{"town":"保美町","koaza":"仲新古","lat":34.622245,"lng":137.095965,"zip":"4413614"},{"town":"小塩津町","koaza":"中瀬古","lat":34.594964,"lng":137.096423,"zip":"4413626"},{"town":"福江町","koaza":"代官","lat":34.64202,"lng":137.09803,"zip":"4413617"},{"town":"小塩津町","koaza":"宮東","lat":34.597413,"lng":137.097563,"zip":"4413626"},{"town":"保美町","koaza":"下地","lat":34.620851,"lng":137.097424,"zip":"4413614"},{"town":"和地町","koaza":"前畑","lat":34.591612,"lng":137.098502,"zip":"4413622"},{"town":"和地町","koaza":"一色","lat":34.592918,"lng":137.099281,"zip":"4413622"},{"town":"福江町","koaza":"仲田","lat":34.62462,"lng":137.100273,"zip":"4413617"},{"town":"福江町","koaza":"横井","lat":34.624873,"lng":137.101888,"zip":"4413617"},{"town":"福江町","koaza":"上ノ山","lat":34.639895,"lng":137.099153,"zip":"4413617"},{"town":"和地町","koaza":"一色新畑","lat":34.593656,"lng":137.100508,"zip":"4413622"},{"town":"向山町","koaza":"上前田","lat":34.638443,"lng":137.099344,"zip":"4413616"},{"town":"福江町","koaza":"五反田","lat":34.621098,"lng":137.100508,"zip":"4413617"},{"town":"福江町","koaza":"堂前","lat":34.62586,"lng":137.100111,"zip":"4413617"},{"town":"向山町","koaza":"清水","lat":34.628223,"lng":137.09998,"zip":"4413616"},{"town":"福江町","koaza":"本構","lat":34.640837,"lng":137.101052,"zip":"4413617"},{"town":"福江町","koaza":"原ノ島","lat":34.626714,"lng":137.099902,"zip":"4413617"},{"town":"保美町","koaza":"坂井戸","lat":34.617162,"lng":137.101387,"zip":"4413614"},{"town":"福江町","koaza":"梔原","lat":34.644456,"lng":137.101069,"zip":"4413617"},{"town":"向山町","koaza":"郷","lat":34.639426,"lng":137.100846,"zip":"4413616"},{"town":"福江町","koaza":"附山","lat":34.643644,"lng":137.103695,"zip":"4413617"},{"town":"福江町","koaza":"新御坊","lat":34.642864,"lng":137.102017,"zip":"4413617"},{"town":"福江町","koaza":"下地","lat":34.627732,"lng":137.101965,"zip":"4413617"},{"town":"和地町","koaza":"北原","lat":34.599034,"lng":137.103072,"zip":"4413622"},{"town":"福江町","koaza":"日比浜","lat":34.640689,"lng":137.102895,"zip":"4413617"},{"town":"福江町","koaza":"白石","lat":34.62217,"lng":137.104353,"zip":"4413617"},{"town":"福江町","koaza":"沢","lat":34.626502,"lng":137.10343,"zip":"4413617"},{"town":"福江町","koaza":"下紺屋瀬古","lat":34.629371,"lng":137.103929,"zip":"4413617"},{"town":"福江町","koaza":"羽根","lat":34.623385,"lng":137.104741,"zip":"4413617"},{"town":"古田町","koaza":"郷中","lat":34.631752,"lng":137.105287,"zip":"4413613"},{"town":"長沢町","koaza":"長沢","lat":34.616448,"lng":137.106112,"zip":"4413609"},{"town":"福江町","koaza":"中紺屋瀬古","lat":34.62829,"lng":137.104543,"zip":"4413617"},{"town":"福江町","koaza":"中羽根","lat":34.626222,"lng":137.104824,"zip":"4413617"},{"town":"長沢町","koaza":"西山","lat":34.615624,"lng":137.105237,"zip":"4413609"},{"town":"福江町","koaza":"上紺屋瀬古","lat":34.628374,"lng":137.10547,"zip":"4413617"},{"town":"和地町","koaza":"船間","lat":34.590192,"lng":137.105415,"zip":"4413622"},{"town":"古田町","koaza":"鐘鋳下","lat":34.62301,"lng":137.107116,"zip":"4413613"},{"town":"長沢町","koaza":"馬道下","lat":34.618348,"lng":137.106859,"zip":"4413609"},{"town":"古田町","koaza":"宮ノ前","lat":34.629273,"lng":137.107467,"zip":"4413613"},{"town":"古田町","koaza":"橡木間","lat":34.63525,"lng":137.107018,"zip":"4413613"},{"town":"古田町","koaza":"エゲノ前","lat":34.627158,"lng":137.107234,"zip":"4413613"},{"town":"古田町","koaza":"広海道","lat":34.631098,"lng":137.108035,"zip":"4413613"},{"town":"和地町","koaza":"北大田原","lat":34.599849,"lng":137.108025,"zip":"4413622"},{"town":"古田町","koaza":"宮ノ原","lat":34.627271,"lng":137.109848,"zip":"4413613"},{"town":"和地町","koaza":"中谷ノ田","lat":34.605156,"lng":137.118568,"zip":"4413622"},{"town":"長沢町","koaza":"稲葉","lat":34.617072,"lng":137.108273,"zip":"4413609"},{"town":"長沢町","koaza":"中明","lat":34.61154,"lng":137.109403,"zip":"4413609"},{"town":"古田町","koaza":"寺ノ前","lat":34.630109,"lng":137.110236,"zip":"4413613"},{"town":"古田町","koaza":"大岩下","lat":34.625059,"lng":137.108978,"zip":"4413613"},{"town":"古田町","koaza":"梔原","lat":34.628455,"lng":137.111209,"zip":"4413613"},{"town":"古田町","koaza":"岡ノ越","lat":34.623882,"lng":137.111671,"zip":"4413613"},{"town":"古田町","koaza":"蔵道上","lat":34.633278,"lng":137.112604,"zip":"4413613"},{"town":"和地町","koaza":"寺口","lat":34.594623,"lng":137.106627,"zip":"4413622"},{"town":"和地町","koaza":"川尻","lat":34.590454,"lng":137.113843,"zip":"4413622"},{"town":"和地町","koaza":"京田","lat":34.593583,"lng":137.11554,"zip":"4413622"},{"town":"和地町","koaza":"鍵田","lat":34.59482,"lng":137.11372,"zip":"4413622"},{"town":"折立町","koaza":"西原畑","lat":34.630297,"lng":137.113981,"zip":"4413608"},{"town":"折立町","koaza":"原","lat":34.632411,"lng":137.115433,"zip":"4413608"},{"town":"折立町","koaza":"茶畑","lat":34.633609,"lng":137.114187,"zip":"4413608"},{"town":"和地町","koaza":"北山","lat":34.592972,"lng":137.124171,"zip":"4413622"},{"town":"山田町","koaza":"甲門","lat":34.621596,"lng":137.117063,"zip":"4413621"},{"town":"折立町","koaza":"折立","lat":34.634567,"lng":137.115644,"zip":"4413608"},{"town":"高木町","koaza":"大荒古","lat":34.631175,"lng":137.11699,"zip":"4413612"},{"town":"山田町","koaza":"八幡前","lat":34.61834,"lng":137.117989,"zip":"4413621"},{"town":"和地町","koaza":"下大道","lat":34.592054,"lng":137.120445,"zip":"4413622"},{"town":"高木町","koaza":"中原","lat":34.629068,"lng":137.116903,"zip":"4413612"},{"town":"山田町","koaza":"宮前","lat":34.617922,"lng":137.117819,"zip":"4413621"},{"town":"高木町","koaza":"荒古下","lat":34.631927,"lng":137.118598,"zip":"4413612"},{"town":"高木町","koaza":"相賀","lat":34.627584,"lng":137.119244,"zip":"4413612"},{"town":"高木町","koaza":"大堀上","lat":34.629242,"lng":137.121071,"zip":"4413612"},{"town":"和地町","koaza":"上大道","lat":34.593431,"lng":137.120519,"zip":"4413622"},{"town":"高木町","koaza":"羽根畑","lat":34.632488,"lng":137.120755,"zip":"4413612"},{"town":"高木町","koaza":"大堀下","lat":34.631499,"lng":137.12046,"zip":"4413612"},{"town":"和地町","koaza":"地蔵田","lat":34.59028,"lng":137.119794,"zip":"4413622"},{"town":"和地町","koaza":"北屋敷","lat":34.592565,"lng":137.121835,"zip":"4413622"},{"town":"高木町","koaza":"尋畑","lat":34.629769,"lng":137.123157,"zip":"4413612"},{"town":"高木町","koaza":"中畑下","lat":34.633752,"lng":137.123382,"zip":"4413612"},{"town":"和地町","koaza":"西本村","lat":34.589665,"lng":137.121951,"zip":"4413622"},{"town":"高木町","koaza":"中畑","lat":34.629538,"lng":137.123739,"zip":"4413612"},{"town":"和地町","koaza":"東本村","lat":34.589838,"lng":137.12416,"zip":"4413622"},{"town":"高木町","koaza":"上野段下","lat":34.63282,"lng":137.124565,"zip":"4413612"},{"town":"高木町","koaza":"上野段","lat":34.631761,"lng":137.125411,"zip":"4413612"},{"town":"和地町","koaza":"東畑","lat":34.589854,"lng":137.126413,"zip":"4413622"},{"town":"高木町","koaza":"宮下","lat":34.635713,"lng":137.127178,"zip":"4413612"},{"town":"和地町","koaza":"瀬戸山","lat":34.593255,"lng":137.125816,"zip":"4413622"},{"town":"和地町","koaza":"波治神","lat":34.59077,"lng":137.129419,"zip":"4413622"},{"town":"和地町","koaza":"野丹場","lat":34.592593,"lng":137.129197,"zip":"4413622"},{"town":"高木町","koaza":"東原","lat":34.636864,"lng":137.130606,"zip":"4413612"},{"town":"石神町","koaza":"向山","lat":34.638092,"lng":137.133561,"zip":"4413611"},{"town":"和地町","koaza":"上鮎川","lat":34.592474,"lng":137.135705,"zip":"4413622"},{"town":"石神町","koaza":"宮ノ前","lat":34.639426,"lng":137.136686,"zip":"4413611"},{"town":"和地町","koaza":"宮下","lat":34.592606,"lng":137.138069,"zip":"4413622"},{"town":"伊川津町","koaza":"伊井新田","lat":34.649045,"lng":137.139768,"zip":"4413604"},{"town":"石神町","koaza":"梨木","lat":34.636658,"lng":137.137939,"zip":"4413611"},{"town":"石神町","koaza":"西上ノ山","lat":34.635744,"lng":137.139294,"zip":"4413611"},{"town":"石神町","koaza":"西中瀬古","lat":34.639188,"lng":137.139018,"zip":"4413611"},{"town":"石神町","koaza":"中平野","lat":34.639444,"lng":137.137996,"zip":"4413611"},{"town":"和地町","koaza":"土田郷","lat":34.591568,"lng":137.139688,"zip":"4413622"},{"town":"石神町","koaza":"中瀬古","lat":34.637979,"lng":137.140023,"zip":"4413611"},{"town":"石神町","koaza":"西沖田","lat":34.639696,"lng":137.140053,"zip":"4413611"},{"town":"石神町","koaza":"沖田","lat":34.640267,"lng":137.139859,"zip":"4413611"},{"town":"伊川津町","koaza":"沖田","lat":34.643243,"lng":137.142508,"zip":"4413604"},{"town":"伊川津町","koaza":"横津","lat":34.64327,"lng":137.141396,"zip":"4413604"},{"town":"和地町","koaza":"下中島","lat":34.590661,"lng":137.141765,"zip":"4413622"},{"town":"石神町","koaza":"上ノ山","lat":34.636923,"lng":137.141258,"zip":"4413611"},{"town":"石神町","koaza":"東沖田","lat":34.637966,"lng":137.141405,"zip":"4413611"},{"town":"伊川津町","koaza":"郷中","lat":34.645295,"lng":137.145238,"zip":"4413604"},{"town":"和地町","koaza":"新切","lat":34.593062,"lng":137.142994,"zip":"4413622"},{"town":"石神町","koaza":"芸泉名","lat":34.637521,"lng":137.143383,"zip":"4413611"},{"town":"伊川津町","koaza":"前田","lat":34.644689,"lng":137.143786,"zip":"4413604"},{"town":"和地町","koaza":"下狐沢","lat":34.5922,"lng":137.144901,"zip":"4413622"},{"town":"伊川津町","koaza":"中島","lat":34.64338,"lng":137.144908,"zip":"4413604"},{"town":"伊川津町","koaza":"上地","lat":34.644226,"lng":137.146416,"zip":"4413604"},{"town":"伊川津町","koaza":"新田","lat":34.649771,"lng":137.147447,"zip":"4413604"},{"town":"伊川津町","koaza":"大薮","lat":34.646942,"lng":137.148215,"zip":"4413604"},{"town":"江比間町","koaza":"新田","lat":34.652067,"lng":137.150553,"zip":"4413605"},{"town":"伊川津町","koaza":"東砂地","lat":34.647866,"lng":137.147415,"zip":"4413604"},{"town":"越戸町","koaza":"狐沢","lat":34.594094,"lng":137.148626,"zip":"4413504"},{"town":"伊川津町","koaza":"原","lat":34.641299,"lng":137.150152,"zip":"4413604"},{"town":"村松町","koaza":"段土","lat":34.635316,"lng":137.15271,"zip":"4413603"},{"town":"越戸町","koaza":"曲尺手","lat":34.594718,"lng":137.151491,"zip":"4413504"},{"town":"村松町","koaza":"天王原","lat":34.636716,"lng":137.151782,"zip":"4413603"},{"town":"江比間町","koaza":"西前田","lat":34.645885,"lng":137.152152,"zip":"4413605"},{"town":"江比間町","koaza":"女郎川","lat":34.649078,"lng":137.152797,"zip":"4413605"},{"town":"馬伏町","koaza":"西瀬古","lat":34.644021,"lng":137.152615,"zip":"4413606"},{"town":"江比間町","koaza":"寺ノ前","lat":34.648496,"lng":137.153963,"zip":"4413605"},{"town":"江比間町","koaza":"西砂畑","lat":34.651768,"lng":137.155304,"zip":"4413605"},{"town":"馬伏町","koaza":"中瀬古","lat":34.644806,"lng":137.153671,"zip":"4413606"},{"town":"越戸町","koaza":"九五三","lat":34.594858,"lng":137.153161,"zip":"4413504"},{"town":"越戸町","koaza":"山下","lat":34.595878,"lng":137.155359,"zip":"4413504"},{"town":"村松町","koaza":"西郷中","lat":34.635784,"lng":137.155068,"zip":"4413603"},{"town":"江比間町","koaza":"三字郷中","lat":34.650835,"lng":137.155387,"zip":"4413605"},{"town":"馬伏町","koaza":"東瀬古","lat":34.642895,"lng":137.156104,"zip":"4413606"},{"town":"越戸町","koaza":"三竹","lat":34.596161,"lng":137.155848,"zip":"4413504"},{"town":"江比間町","koaza":"五字郷中","lat":34.653114,"lng":137.15771,"zip":"4413605"},{"town":"村松町","koaza":"北郷中","lat":34.638125,"lng":137.157268,"zip":"4413603"},{"town":"越戸町","koaza":"寺前","lat":34.597091,"lng":137.15649,"zip":"4413504"},{"town":"江比間町","koaza":"二字郷中","lat":34.650593,"lng":137.156685,"zip":"4413605"},{"town":"村松町","koaza":"南郷中","lat":34.635486,"lng":137.157391,"zip":"4413603"},{"town":"村松町","koaza":"百々川","lat":34.634147,"lng":137.157155,"zip":"4413603"},{"town":"越戸町","koaza":"中島","lat":34.598067,"lng":137.158061,"zip":"4413504"},{"town":"江比間町","koaza":"前田","lat":34.648784,"lng":137.156652,"zip":"4413605"},{"town":"江比間町","koaza":"郷中","lat":34.652411,"lng":137.159847,"zip":"4413605"},{"town":"村松町","koaza":"おんぶ田","lat":34.635072,"lng":137.159395,"zip":"4413603"},{"town":"越戸町","koaza":"立岩","lat":34.598475,"lng":137.160214,"zip":"4413504"},{"town":"八王子町","koaza":"道下","lat":34.636047,"lng":137.16301,"zip":"4413602"},{"town":"若見町","koaza":"力石","lat":34.6078,"lng":137.160741,"zip":"4413503"},{"town":"江比間町","koaza":"中新古","lat":34.646899,"lng":137.160844,"zip":"4413605"},{"town":"越戸町","koaza":"田尻","lat":34.598849,"lng":137.161224,"zip":"4413504"},{"town":"越戸町","koaza":"番土","lat":34.597014,"lng":137.161947,"zip":"4413504"},{"town":"若見町","koaza":"小山田","lat":34.606916,"lng":137.163292,"zip":"4413503"},{"town":"村松町","koaza":"中ノ切","lat":34.629025,"lng":137.165032,"zip":"4413603"},{"town":"若見町","koaza":"丸出","lat":34.6083,"lng":137.168291,"zip":"4413503"},{"town":"八王子町","koaza":"道上","lat":34.633924,"lng":137.165725,"zip":"4413602"},{"town":"八王子町","koaza":"川向","lat":34.63796,"lng":137.166744,"zip":"4413602"},{"town":"江比間町","koaza":"二ノ谷","lat":34.650162,"lng":137.175058,"zip":"4413605"},{"town":"若見町","koaza":"矢倉石","lat":34.614959,"lng":137.165892,"zip":"4413503"},{"town":"若見町","koaza":"野川","lat":34.604983,"lng":137.167972,"zip":"4413503"},{"town":"八王子町","koaza":"東原","lat":34.63524,"lng":137.167052,"zip":"4413602"},{"town":"若見町","koaza":"鬼堕","lat":34.612627,"lng":137.167939,"zip":"4413503"},{"town":"若見町","koaza":"帯刀沢","lat":34.602947,"lng":137.166523,"zip":"4413503"},{"town":"若見町","koaza":"新居","lat":34.601052,"lng":137.167841,"zip":"4413503"},{"town":"八王子町","koaza":"清水上","lat":34.635916,"lng":137.17042,"zip":"4413602"},{"town":"八王子町","koaza":"丸山下","lat":34.630466,"lng":137.169176,"zip":"4413602"},{"town":"若見町","koaza":"土手ノ内","lat":34.601192,"lng":137.168719,"zip":"4413503"},{"town":"八王子町","koaza":"深沢","lat":34.638711,"lng":137.170886,"zip":"4413602"},{"town":"若見町","koaza":"権亟地","lat":34.603317,"lng":137.170471,"zip":"4413503"},{"town":"若見町","koaza":"市場","lat":34.601376,"lng":137.171618,"zip":"4413503"},{"town":"若見町","koaza":"築田","lat":34.607934,"lng":137.171413,"zip":"4413503"},{"town":"若見町","koaza":"下地","lat":34.605458,"lng":137.171647,"zip":"4413503"},{"town":"江比間町","koaza":"番場","lat":34.641495,"lng":137.175128,"zip":"4413605"},{"town":"若見町","koaza":"松渕","lat":34.602849,"lng":137.173773,"zip":"4413503"},{"town":"若見町","koaza":"弥次郎","lat":34.608542,"lng":137.172659,"zip":"4413503"},{"town":"若見町","koaza":"社宮司","lat":34.607141,"lng":137.176935,"zip":"4413503"},{"town":"若見町","koaza":"鳥居","lat":34.604513,"lng":137.17814,"zip":"4413503"},{"town":"若見町","koaza":"広畑","lat":34.602764,"lng":137.175532,"zip":"4413503"},{"town":"八王子町","koaza":"馬越","lat":34.633499,"lng":137.1764,"zip":"4413602"},{"town":"宇津江町","koaza":"南原","lat":34.656833,"lng":137.176225,"zip":"4413601"},{"town":"宇津江町","koaza":"内荒古","lat":34.658468,"lng":137.176996,"zip":"4413601"},{"town":"池尻町","koaza":"宮脇","lat":34.607424,"lng":137.17859,"zip":"4413505"},{"town":"宇津江町","koaza":"荒古","lat":34.657183,"lng":137.178512,"zip":"4413601"},{"town":"宇津江町","koaza":"南","lat":34.657448,"lng":137.176989,"zip":"4413601"},{"town":"宇津江町","koaza":"中原","lat":34.655971,"lng":137.179193,"zip":"4413601"},{"town":"池尻町","koaza":"上り世古","lat":34.605013,"lng":137.179904,"zip":"4413505"},{"town":"宇津江町","koaza":"ドウ亀","lat":34.658507,"lng":137.179129,"zip":"4413601"},{"town":"池尻町","koaza":"尾山塚","lat":34.610974,"lng":137.180168,"zip":"4413505"},{"town":"宇津江町","koaza":"下仲野","lat":34.658977,"lng":137.184012,"zip":"4413601"},{"town":"池尻町","koaza":"精進川","lat":34.607272,"lng":137.180405,"zip":"4413505"},{"town":"池尻町","koaza":"中瀬古","lat":34.60589,"lng":137.181312,"zip":"4413505"},{"town":"池尻町","koaza":"下り瀬古","lat":34.606102,"lng":137.182893,"zip":"4413505"},{"town":"池尻町","koaza":"向山","lat":34.609393,"lng":137.183639,"zip":"4413505"},{"town":"赤羽根町","koaza":"猪荒","lat":34.615869,"lng":137.182581,"zip":"4413502"},{"town":"池尻町","koaza":"下り畑","lat":34.606275,"lng":137.185107,"zip":"4413505"},{"town":"赤羽根町","koaza":"余造","lat":34.634298,"lng":137.1847,"zip":"4413502"},{"town":"芦町","koaza":"大アラコ","lat":34.63886,"lng":137.19014,"zip":"4413433"},{"town":"赤羽根町","koaza":"野添原","lat":34.632262,"lng":137.188546,"zip":"4413502"},{"town":"赤羽根町","koaza":"浜田","lat":34.614437,"lng":137.18882,"zip":"4413502"},{"town":"野田町","koaza":"湊田","lat":34.668278,"lng":137.190442,"zip":"4413432"},{"town":"芦町","koaza":"田嶋","lat":34.641725,"lng":137.19186,"zip":"4413433"},{"town":"野田町","koaza":"大荒古","lat":34.666437,"lng":137.192175,"zip":"4413432"},{"town":"赤羽根町","koaza":"大西","lat":34.608267,"lng":137.191103,"zip":"4413502"},{"town":"赤羽根町","koaza":"野添","lat":34.630635,"lng":137.190509,"zip":"4413502"},{"town":"赤羽根町","koaza":"長尻","lat":34.615292,"lng":137.192009,"zip":"4413502"},{"town":"芦町","koaza":"清水","lat":34.640269,"lng":137.190929,"zip":"4413433"},{"town":"赤羽根町","koaza":"四貫目","lat":34.610829,"lng":137.19252,"zip":"4413502"},{"town":"赤羽根町","koaza":"新田","lat":34.626639,"lng":137.193754,"zip":"4413502"},{"town":"芦町","koaza":"向田","lat":34.639297,"lng":137.192871,"zip":"4413433"},{"town":"赤羽根町","koaza":"向八反田","lat":34.624197,"lng":137.192852,"zip":"4413502"},{"town":"赤羽根町","koaza":"西","lat":34.609685,"lng":137.191503,"zip":"4413502"},{"town":"赤羽根町","koaza":"池ノ神","lat":34.617963,"lng":137.19296,"zip":"4413502"},{"town":"野田町","koaza":"天神","lat":34.659398,"lng":137.192971,"zip":"4413432"},{"town":"赤羽根町","koaza":"出口","lat":34.612123,"lng":137.195696,"zip":"4413502"},{"town":"赤羽根町","koaza":"源六","lat":34.618959,"lng":137.193539,"zip":"4413502"},{"town":"芦町","koaza":"前畑","lat":34.63233,"lng":137.193365,"zip":"4413433"},{"town":"赤羽根町","koaza":"枝古","lat":34.609263,"lng":137.194293,"zip":"4413502"},{"town":"芦町","koaza":"小山田","lat":34.645279,"lng":137.192991,"zip":"4413433"},{"town":"芦町","koaza":"柿ノ木","lat":34.643139,"lng":137.193856,"zip":"4413433"},{"town":"赤羽根町","koaza":"西宝珠","lat":34.62898,"lng":137.195307,"zip":"4413502"},{"town":"赤羽根町","koaza":"太田","lat":34.622657,"lng":137.195872,"zip":"4413502"},{"town":"野田町","koaza":"丸海道","lat":34.660782,"lng":137.195074,"zip":"4413432"},{"town":"野田町","koaza":"塩谷坪","lat":34.665273,"lng":137.195393,"zip":"4413432"},{"town":"赤羽根町","koaza":"堂瀬古","lat":34.609894,"lng":137.195281,"zip":"4413502"},{"town":"赤羽根町","koaza":"仏供田","lat":34.618396,"lng":137.19605,"zip":"4413502"},{"town":"野田町","koaza":"北野","lat":34.661692,"lng":137.195798,"zip":"4413432"},{"town":"赤羽根町","koaza":"新笹","lat":34.615288,"lng":137.195774,"zip":"4413502"},{"town":"赤羽根町","koaza":"市場","lat":34.610211,"lng":137.196385,"zip":"4413502"},{"town":"赤羽根町","koaza":"天神","lat":34.61441,"lng":137.199628,"zip":"4413502"},{"town":"野田町","koaza":"坂下","lat":34.668164,"lng":137.199085,"zip":"4413432"},{"town":"芦町","koaza":"南台","lat":34.636654,"lng":137.197914,"zip":"4413433"},{"town":"野田町","koaza":"西野口","lat":34.65765,"lng":137.196656,"zip":"4413432"},{"town":"赤羽根町","koaza":"道亀原","lat":34.618234,"lng":137.198064,"zip":"4413502"},{"town":"野田町","koaza":"源助","lat":34.659034,"lng":137.19734,"zip":"4413432"},{"town":"野田町","koaza":"ドンド","lat":34.663561,"lng":137.198278,"zip":"4413432"},{"town":"野田町","koaza":"長塚","lat":34.65669,"lng":137.197929,"zip":"4413432"},{"town":"赤羽根町","koaza":"根上り","lat":34.610743,"lng":137.197455,"zip":"4413502"},{"town":"野田町","koaza":"西郷","lat":34.665417,"lng":137.197735,"zip":"4413432"},{"town":"赤羽根町","koaza":"西瀬古","lat":34.611705,"lng":137.199985,"zip":"4413502"},{"town":"野田町","koaza":"東野口","lat":34.658926,"lng":137.198758,"zip":"4413432"},{"town":"野田町","koaza":"新夕野","lat":34.656342,"lng":137.198988,"zip":"4413432"},{"town":"赤羽根町","koaza":"走り落","lat":34.616181,"lng":137.198309,"zip":"4413502"},{"town":"赤羽根町","koaza":"中竜ケ原","lat":34.632199,"lng":137.20046,"zip":"4413502"},{"town":"野田町","koaza":"前海道","lat":34.664624,"lng":137.199976,"zip":"4413432"},{"town":"野田町","koaza":"仲瀬古","lat":34.666403,"lng":137.199134,"zip":"4413432"},{"town":"野田町","koaza":"西荒古","lat":34.660074,"lng":137.199955,"zip":"4413432"},{"town":"赤羽根町","koaza":"天神瀬古","lat":34.612869,"lng":137.199514,"zip":"4413502"},{"town":"赤羽根町","koaza":"大辻","lat":34.615187,"lng":137.201451,"zip":"4413502"},{"town":"野田町","koaza":"平芝出口","lat":34.667129,"lng":137.200382,"zip":"4413432"},{"town":"野田町","koaza":"市場","lat":34.657124,"lng":137.201832,"zip":"4413432"},{"town":"野田町","koaza":"甲田","lat":34.664984,"lng":137.200519,"zip":"4413432"},{"town":"野田町","koaza":"下道","lat":34.665871,"lng":137.200624,"zip":"4413432"},{"town":"野田町","koaza":"籠田","lat":34.653731,"lng":137.202849,"zip":"4413432"},{"town":"野田町","koaza":"北社口","lat":34.658994,"lng":137.201754,"zip":"4413432"},{"town":"赤羽根町","koaza":"宮瀬古","lat":34.612247,"lng":137.201848,"zip":"4413502"},{"town":"野田町","koaza":"平芝","lat":34.669754,"lng":137.201867,"zip":"4413432"},{"town":"赤羽根町","koaza":"小山","lat":34.616793,"lng":137.202204,"zip":"4413502"},{"town":"野田町","koaza":"田尻","lat":34.672083,"lng":137.203062,"zip":"4413432"},{"town":"野田町","koaza":"神成","lat":34.661292,"lng":137.205938,"zip":"4413432"},{"town":"赤羽根町","koaza":"東瀬古","lat":34.612773,"lng":137.203025,"zip":"4413502"},{"town":"野田町","koaza":"市ノ西屋敷","lat":34.655691,"lng":137.202127,"zip":"4413432"},{"town":"野田町","koaza":"西瀬古","lat":34.650425,"lng":137.205416,"zip":"4413432"},{"town":"赤羽根町","koaza":"荒古","lat":34.614933,"lng":137.204258,"zip":"4413502"},{"town":"野田町","koaza":"井戸薮","lat":34.673286,"lng":137.204804,"zip":"4413432"},{"town":"赤羽根町","koaza":"中瀬古","lat":34.613486,"lng":137.204895,"zip":"4413502"},{"town":"赤羽根町","koaza":"夕沢","lat":34.617782,"lng":137.206791,"zip":"4413502"},{"town":"野田町","koaza":"地部道","lat":34.640301,"lng":137.207274,"zip":"4413432"},{"town":"赤羽根町","koaza":"南田","lat":34.621747,"lng":137.20635,"zip":"4413502"},{"town":"野田町","koaza":"元屋敷","lat":34.658723,"lng":137.206137,"zip":"4413432"},{"town":"野田町","koaza":"瓜生","lat":34.649883,"lng":137.206548,"zip":"4413432"},{"town":"赤羽根町","koaza":"諏訪","lat":34.615466,"lng":137.206188,"zip":"4413502"},{"town":"野田町","koaza":"スルゴ","lat":34.67145,"lng":137.20493,"zip":"4413432"},{"town":"野田町","koaza":"大海道","lat":34.652098,"lng":137.206253,"zip":"4413432"},{"town":"野田町","koaza":"天床","lat":34.659617,"lng":137.20449,"zip":"4413432"},{"town":"野田町","koaza":"公文","lat":34.652941,"lng":137.207219,"zip":"4413432"},{"town":"野田町","koaza":"向海道","lat":34.655052,"lng":137.206923,"zip":"4413432"},{"town":"野田町","koaza":"石フミ","lat":34.648594,"lng":137.209111,"zip":"4413432"},{"town":"赤羽根町","koaza":"東竜ケ原","lat":34.62529,"lng":137.208678,"zip":"4413502"},{"town":"野田町","koaza":"松ノ木","lat":34.658232,"lng":137.207047,"zip":"4413432"},{"town":"野田町","koaza":"西田","lat":34.65661,"lng":137.207142,"zip":"4413432"},{"town":"野田町","koaza":"北瀬古","lat":34.65045,"lng":137.207146,"zip":"4413432"},{"town":"赤羽根町","koaza":"於三畑","lat":34.613957,"lng":137.207223,"zip":"4413502"},{"town":"野田町","koaza":"五反田","lat":34.659959,"lng":137.206831,"zip":"4413432"},{"town":"赤羽根町","koaza":"寺山","lat":34.615457,"lng":137.208829,"zip":"4413502"},{"town":"赤羽根町","koaza":"石添","lat":34.626084,"lng":137.216233,"zip":"4413502"},{"town":"野田町","koaza":"西海道","lat":34.652828,"lng":137.210161,"zip":"4413432"},{"town":"野田町","koaza":"弥蔵","lat":34.655011,"lng":137.209853,"zip":"4413432"},{"town":"赤羽根町","koaza":"明神","lat":34.615903,"lng":137.21021,"zip":"4413502"},{"town":"野田町","koaza":"柳橋","lat":34.649616,"lng":137.209601,"zip":"4413432"},{"town":"野田町","koaza":"後田","lat":34.656574,"lng":137.209834,"zip":"4413432"},{"town":"野田町","koaza":"大札木","lat":34.654384,"lng":137.210772,"zip":"4413432"},{"town":"野田町","koaza":"孫八瀬古","lat":34.655899,"lng":137.211214,"zip":"4413432"},{"town":"赤羽根町","koaza":"赤土","lat":34.618895,"lng":137.212013,"zip":"4413502"},{"town":"野田町","koaza":"セキヤシキ","lat":34.650708,"lng":137.212335,"zip":"4413432"},{"town":"野田町","koaza":"山本","lat":34.661499,"lng":137.211461,"zip":"4413432"},{"town":"野田町","koaza":"紺屋敷","lat":34.652308,"lng":137.211892,"zip":"4413432"},{"town":"野田町","koaza":"前田","lat":34.659122,"lng":137.212395,"zip":"4413432"},{"town":"野田町","koaza":"柏","lat":34.655292,"lng":137.211967,"zip":"4413432"},{"town":"野田町","koaza":"壱本松","lat":34.653163,"lng":137.212759,"zip":"4413432"},{"town":"野田町","koaza":"出口","lat":34.654546,"lng":137.212772,"zip":"4413432"},{"town":"野田町","koaza":"柏坪","lat":34.657191,"lng":137.211065,"zip":"4413432"},{"town":"赤羽根町","koaza":"大石畑","lat":34.618237,"lng":137.215677,"zip":"4413502"},{"town":"赤羽根町","koaza":"大石","lat":34.61585,"lng":137.214611,"zip":"4413502"},{"town":"野田町","koaza":"長田","lat":34.653978,"lng":137.215106,"zip":"4413432"},{"town":"野田町","koaza":"新屋坪","lat":34.650353,"lng":137.214367,"zip":"4413432"},{"town":"赤羽根町","koaza":"大道浦","lat":34.618435,"lng":137.215025,"zip":"4413502"},{"town":"野田町","koaza":"栗喰","lat":34.652895,"lng":137.214283,"zip":"4413432"},{"town":"野田町","koaza":"東彦田","lat":34.651326,"lng":137.214507,"zip":"4413432"},{"town":"赤羽根町","koaza":"東石橋","lat":34.620155,"lng":137.214397,"zip":"4413502"},{"town":"仁崎町","koaza":"中瀬古","lat":34.674376,"lng":137.216774,"zip":"4413435"},{"town":"赤羽根町","koaza":"東山","lat":34.62052,"lng":137.215906,"zip":"4413502"},{"town":"野田町","koaza":"細法り","lat":34.656992,"lng":137.217649,"zip":"4413432"},{"town":"仁崎町","koaza":"出雲田","lat":34.672103,"lng":137.215904,"zip":"4413435"},{"town":"仁崎町","koaza":"三月田","lat":34.672127,"lng":137.216607,"zip":"4413435"},{"town":"野田町","koaza":"宝り海道","lat":34.654525,"lng":137.217444,"zip":"4413432"},{"town":"赤羽根町","koaza":"長沢","lat":34.617151,"lng":137.217,"zip":"4413502"},{"town":"野田町","koaza":"吹上","lat":34.650801,"lng":137.2195,"zip":"4413432"},{"town":"野田町","koaza":"坂瀬古","lat":34.652474,"lng":137.217912,"zip":"4413432"},{"town":"仁崎町","koaza":"山ノ田","lat":34.671511,"lng":137.219227,"zip":"4413435"},{"town":"野田町","koaza":"才ノ神","lat":34.651781,"lng":137.218781,"zip":"4413432"},{"town":"野田町","koaza":"池田","lat":34.651016,"lng":137.220237,"zip":"4413432"},{"town":"高松町","koaza":"尾村崎","lat":34.620554,"lng":137.221802,"zip":"4413501"},{"town":"高松町","koaza":"蝉ケ沢","lat":34.617415,"lng":137.221195,"zip":"4413501"},{"town":"仁崎町","koaza":"大湯","lat":34.673889,"lng":137.222164,"zip":"4413435"},{"town":"高松町","koaza":"一色","lat":34.617072,"lng":137.222948,"zip":"4413501"},{"town":"仁崎町","koaza":"三丈ケ","lat":34.67729,"lng":137.227416,"zip":"4413435"},{"town":"仁崎町","koaza":"東畑","lat":34.67469,"lng":137.225228,"zip":"4413435"},{"town":"仁崎町","koaza":"東瀬古","lat":34.673637,"lng":137.224182,"zip":"4413435"},{"town":"高松町","koaza":"椿沢","lat":34.624586,"lng":137.224959,"zip":"4413501"},{"town":"高松町","koaza":"赤崩","lat":34.621066,"lng":137.22519,"zip":"4413501"},{"town":"大久保町","koaza":"椎沢","lat":34.651099,"lng":137.225906,"zip":"4413426"},{"town":"仁崎町","koaza":"新田","lat":34.67434,"lng":137.234148,"zip":"4413435"},{"town":"高松町","koaza":"北大荒古","lat":34.62106,"lng":137.22632,"zip":"4413501"},{"town":"大久保町","koaza":"万五郎","lat":34.652021,"lng":137.227126,"zip":"4413426"},{"town":"高松町","koaza":"東島","lat":34.620261,"lng":137.226864,"zip":"4413501"},{"town":"大久保町","koaza":"門前","lat":34.6533,"lng":137.228897,"zip":"4413426"},{"town":"大久保町","koaza":"下鋪地","lat":34.649697,"lng":137.229467,"zip":"4413426"},{"town":"大久保町","koaza":"籠池","lat":34.654056,"lng":137.228036,"zip":"4413426"},{"town":"高松町","koaza":"盆ケ池","lat":34.625374,"lng":137.228908,"zip":"4413501"},{"town":"大久保町","koaza":"上鋪地","lat":34.651746,"lng":137.229816,"zip":"4413426"},{"town":"大久保町","koaza":"山下","lat":34.656306,"lng":137.229132,"zip":"4413426"},{"town":"大久保町","koaza":"宮西","lat":34.646436,"lng":137.230057,"zip":"4413426"},{"town":"大久保町","koaza":"南浅場","lat":34.647572,"lng":137.232002,"zip":"4413426"},{"town":"高松町","koaza":"シンチウ","lat":34.623957,"lng":137.232964,"zip":"4413501"},{"town":"大久保町","koaza":"森下","lat":34.656006,"lng":137.230103,"zip":"4413426"},{"town":"大久保町","koaza":"河原","lat":34.653794,"lng":137.230552,"zip":"4413426"},{"town":"高松町","koaza":"西山","lat":34.6213,"lng":137.231393,"zip":"4413501"},{"town":"大久保町","koaza":"洞下","lat":34.65499,"lng":137.232058,"zip":"4413426"},{"town":"大久保町","koaza":"東谷","lat":34.654086,"lng":137.231698,"zip":"4413426"},{"town":"大久保町","koaza":"北浅場","lat":34.648377,"lng":137.232325,"zip":"4413426"},{"town":"高松町","koaza":"西脇","lat":34.62167,"lng":137.232835,"zip":"4413501"},{"town":"大久保町","koaza":"東久保","lat":34.653627,"lng":137.233197,"zip":"4413426"},{"town":"大久保町","koaza":"下地","lat":34.652626,"lng":137.233387,"zip":"4413426"},{"town":"高松町","koaza":"中尾","lat":34.628759,"lng":137.23375,"zip":"4413501"},{"town":"高松町","koaza":"岩ケ下","lat":34.638708,"lng":137.233802,"zip":"4413501"},{"town":"高松町","koaza":"木場","lat":34.625736,"lng":137.233966,"zip":"4413501"},{"town":"白谷町","koaza":"谷津","lat":34.682713,"lng":137.234407,"zip":"4413431"},{"town":"高松町","koaza":"荒古","lat":34.624733,"lng":137.234785,"zip":"4413501"},{"town":"高松町","koaza":"縄口","lat":34.629108,"lng":137.235176,"zip":"4413501"},{"town":"高松町","koaza":"中村","lat":34.623673,"lng":137.236036,"zip":"4413501"},{"town":"高松町","koaza":"広子村","lat":34.631813,"lng":137.235511,"zip":"4413501"},{"town":"高松町","koaza":"蔵屋敷","lat":34.626359,"lng":137.235291,"zip":"4413501"},{"town":"白谷町","koaza":"清水","lat":34.686032,"lng":137.235714,"zip":"4413431"},{"town":"高松町","koaza":"前後","lat":34.635496,"lng":137.236637,"zip":"4413501"},{"town":"大久保町","koaza":"大師田","lat":34.64551,"lng":137.237911,"zip":"4413426"},{"town":"高松町","koaza":"実相","lat":34.625633,"lng":137.236632,"zip":"4413501"},{"town":"高松町","koaza":"坪ノ内","lat":34.629373,"lng":137.236613,"zip":"4413501"},{"town":"大久保町","koaza":"大新田","lat":34.646867,"lng":137.240166,"zip":"4413426"},{"town":"白谷町","koaza":"中畑","lat":34.687091,"lng":137.237219,"zip":"4413431"},{"town":"大久保町","koaza":"仲ノ坪","lat":34.65291,"lng":137.237021,"zip":"4413426"},{"town":"高松町","koaza":"中瀬古","lat":34.622353,"lng":137.237865,"zip":"4413501"},{"town":"大久保町","koaza":"仲原","lat":34.649808,"lng":137.240635,"zip":"4413426"},{"town":"大久保町","koaza":"七ツ釜","lat":34.653152,"lng":137.239188,"zip":"4413426"},{"town":"白谷町","koaza":"原","lat":34.686837,"lng":137.239582,"zip":"4413431"},{"town":"高松町","koaza":"谷倉","lat":34.624838,"lng":137.239322,"zip":"4413501"},{"town":"高松町","koaza":"東脇","lat":34.623511,"lng":137.24077,"zip":"4413501"},{"town":"白谷町","koaza":"中原","lat":34.687548,"lng":137.239207,"zip":"4413431"},{"town":"高松町","koaza":"猫田","lat":34.636505,"lng":137.240265,"zip":"4413501"},{"town":"高松町","koaza":"岩本","lat":34.625979,"lng":137.238978,"zip":"4413501"},{"town":"高松町","koaza":"京塚","lat":34.625327,"lng":137.242018,"zip":"4413501"},{"town":"大草町","koaza":"糠塚","lat":34.638775,"lng":137.243019,"zip":"4413425"},{"town":"大草町","koaza":"荒子","lat":34.63788,"lng":137.243101,"zip":"4413425"},{"town":"大久保町","koaza":"黒河原","lat":34.651302,"lng":137.248437,"zip":"4413426"},{"town":"高松町","koaza":"西新井","lat":34.62441,"lng":137.245005,"zip":"4413501"},{"town":"田原町","koaza":"西滝頭","lat":34.669874,"lng":137.244313,"zip":"4413421"},{"town":"田原町","koaza":"椿沢","lat":34.675792,"lng":137.246478,"zip":"4413421"},{"town":"加治町","koaza":"奥恩中","lat":34.656587,"lng":137.244439,"zip":"4413427"},{"town":"加治町","koaza":"新田","lat":34.656588,"lng":137.248416,"zip":"4413427"},{"town":"大久保町","koaza":"極楽","lat":34.644776,"lng":137.248779,"zip":"4413426"},{"town":"高松町","koaza":"田畑","lat":34.627776,"lng":137.246091,"zip":"4413501"},{"town":"大久保町","koaza":"黒河","lat":34.648233,"lng":137.249094,"zip":"4413426"},{"town":"高松町","koaza":"新井","lat":34.626454,"lng":137.246717,"zip":"4413501"},{"town":"大草町","koaza":"蔵屋敷","lat":34.635739,"lng":137.247003,"zip":"4413425"},{"town":"大草町","koaza":"御園","lat":34.638433,"lng":137.248079,"zip":"4413425"},{"town":"高松町","koaza":"尺太郎","lat":34.62846,"lng":137.248666,"zip":"4413501"},{"town":"田原町","koaza":"井戸沢","lat":34.679161,"lng":137.251048,"zip":"4413421"},{"town":"田原町","koaza":"東滝頭","lat":34.670139,"lng":137.248723,"zip":"4413421"},{"town":"加治町","koaza":"踏分","lat":34.654094,"lng":137.25184,"zip":"4413427"},{"town":"加治町","koaza":"南恩中","lat":34.657375,"lng":137.249614,"zip":"4413427"},{"town":"大草町","koaza":"前田","lat":34.636801,"lng":137.249841,"zip":"4413425"},{"town":"加治町","koaza":"中恩中","lat":34.660228,"lng":137.248658,"zip":"4413427"},{"town":"大草町","koaza":"本郷","lat":34.63244,"lng":137.25005,"zip":"4413425"},{"town":"田原町","koaza":"西藤七原","lat":34.677112,"lng":137.250097,"zip":"4413421"},{"town":"田原町","koaza":"蕨沢","lat":34.680467,"lng":137.250139,"zip":"4413421"},{"town":"田原町","koaza":"西笹尾","lat":34.663547,"lng":137.249845,"zip":"4413421"},{"town":"田原町","koaza":"荘司川","lat":34.672075,"lng":137.251882,"zip":"4413421"},{"town":"田原町","koaza":"西鎌田","lat":34.670368,"lng":137.25156,"zip":"4413421"},{"town":"大草町","koaza":"二本木","lat":34.631889,"lng":137.248274,"zip":"4413425"},{"town":"田原町","koaza":"犬塚","lat":34.673884,"lng":137.251379,"zip":"4413421"},{"town":"大草町","koaza":"西前","lat":34.629101,"lng":137.251612,"zip":"4413425"},{"town":"西神戸町","koaza":"新美","lat":34.647761,"lng":137.254309,"zip":"4413423"},{"town":"大草町","koaza":"弥田","lat":34.641301,"lng":137.252668,"zip":"4413425"},{"town":"加治町","koaza":"恩中","lat":34.661049,"lng":137.253305,"zip":"4413427"},{"town":"田原町","koaza":"藤七原","lat":34.674986,"lng":137.25091,"zip":"4413421"},{"town":"田原町","koaza":"栄巌","lat":34.669178,"lng":137.253224,"zip":"4413421"},{"town":"大草町","koaza":"北宝龍","lat":34.638134,"lng":137.252244,"zip":"4413425"},{"town":"加治町","koaza":"沢","lat":34.6576,"lng":137.252908,"zip":"4413427"},{"town":"大草町","koaza":"沖田","lat":34.6447,"lng":137.253705,"zip":"4413425"},{"town":"大草町","koaza":"宝龍","lat":34.637543,"lng":137.253997,"zip":"4413425"},{"town":"加治町","koaza":"稲場","lat":34.655716,"lng":137.255698,"zip":"4413427"},{"town":"田原町","koaza":"亀若","lat":34.674148,"lng":137.253816,"zip":"4413421"},{"town":"加治町","koaza":"前恩中","lat":34.658485,"lng":137.251758,"zip":"4413427"},{"town":"大草町","koaza":"東前","lat":34.631593,"lng":137.253808,"zip":"4413425"},{"town":"田原町","koaza":"南乗鞍","lat":34.66705,"lng":137.255694,"zip":"4413421"},{"town":"田原町","koaza":"稲村石","lat":34.674659,"lng":137.256417,"zip":"4413421"},{"town":"田原町","koaza":"東笹尾","lat":34.663984,"lng":137.252356,"zip":"4413421"},{"town":"加治町","koaza":"大新子","lat":34.660396,"lng":137.254548,"zip":"4413427"},{"town":"田原町","koaza":"丸田","lat":34.6759,"lng":137.255849,"zip":"4413421"},{"town":"西神戸町","koaza":"大狭間","lat":34.653147,"lng":137.257578,"zip":"4413423"},{"town":"田原町","koaza":"稲荷下","lat":34.665209,"lng":137.256697,"zip":"4413421"},{"town":"大草町","koaza":"北山寺","lat":34.635312,"lng":137.256751,"zip":"4413425"},{"town":"大草町","koaza":"志田原","lat":34.637821,"lng":137.256391,"zip":"4413425"},{"town":"田原町","koaza":"上八軒家","lat":34.663369,"lng":137.256363,"zip":"4413421"},{"town":"加治町","koaza":"天神","lat":34.661772,"lng":137.257095,"zip":"4413427"},{"town":"大草町","koaza":"大草原","lat":34.640908,"lng":137.258408,"zip":"4413425"},{"town":"大草町","koaza":"西ノ谷","lat":34.628761,"lng":137.256719,"zip":"4413425"},{"town":"加治町","koaza":"西屋敷","lat":34.65948,"lng":137.25696,"zip":"4413427"},{"town":"大草町","koaza":"中半","lat":34.630962,"lng":137.258828,"zip":"4413425"},{"town":"田原町","koaza":"桜台","lat":34.673919,"lng":137.259277,"zip":"4413421"},{"town":"大草町","koaza":"山之寺","lat":34.634651,"lng":137.257489,"zip":"4413425"},{"town":"大草町","koaza":"惣作","lat":34.639445,"lng":137.259608,"zip":"4413425"},{"town":"大草町","koaza":"清水","lat":34.648731,"lng":137.259368,"zip":"4413425"},{"town":"大草町","koaza":"中原","lat":34.635751,"lng":137.258353,"zip":"4413425"},{"town":"大草町","koaza":"西高尾","lat":34.63346,"lng":137.258272,"zip":"4413425"},{"town":"加治町","koaza":"東天神","lat":34.663787,"lng":137.25854,"zip":"4413427"},{"town":"田原町","koaza":"女夫石","lat":34.666438,"lng":137.25868,"zip":"4413421"},{"town":"西神戸町","koaza":"清水","lat":34.649136,"lng":137.260808,"zip":"4413423"},{"town":"田原町","koaza":"下八軒家","lat":34.666005,"lng":137.259852,"zip":"4413421"},{"town":"加治町","koaza":"欠田","lat":34.660295,"lng":137.259868,"zip":"4413427"},{"town":"加治町","koaza":"石井戸","lat":34.662744,"lng":137.259761,"zip":"4413427"},{"town":"田原町","koaza":"新清谷","lat":34.668911,"lng":137.261102,"zip":"4413421"},{"town":"田原町","koaza":"東馬洗","lat":34.671352,"lng":137.259245,"zip":"4413421"},{"town":"大草町","koaza":"半身","lat":34.6337,"lng":137.261711,"zip":"4413425"},{"town":"大草町","koaza":"平松","lat":34.638177,"lng":137.261662,"zip":"4413425"},{"town":"田原町","koaza":"西山口","lat":34.676727,"lng":137.260927,"zip":"4413421"},{"town":"田原町","koaza":"三軒屋","lat":34.670415,"lng":137.262268,"zip":"4413421"},{"town":"西神戸町","koaza":"神明前","lat":34.652113,"lng":137.261154,"zip":"4413423"},{"town":"大草町","koaza":"志田","lat":34.6421,"lng":137.261619,"zip":"4413425"},{"town":"加治町","koaza":"宇沢","lat":34.663673,"lng":137.261601,"zip":"4413427"},{"town":"田原町","koaza":"西砦","lat":34.665751,"lng":137.262154,"zip":"4413421"},{"town":"田原町","koaza":"清谷","lat":34.668416,"lng":137.263332,"zip":"4413421"},{"town":"片浜町","koaza":"南瀬古","lat":34.693472,"lng":137.264205,"zip":"4413404"},{"town":"田原町","koaza":"東山口","lat":34.677202,"lng":137.263094,"zip":"4413421"},{"town":"加治町","koaza":"下山間","lat":34.65759,"lng":137.263452,"zip":"4413427"},{"town":"西神戸町","koaza":"新美新田","lat":34.650271,"lng":137.262552,"zip":"4413423"},{"town":"加治町","koaza":"向嶋","lat":34.658382,"lng":137.262836,"zip":"4413427"},{"town":"加治町","koaza":"北取手","lat":34.665253,"lng":137.263904,"zip":"4413427"},{"town":"加治町","koaza":"取手","lat":34.66311,"lng":137.262937,"zip":"4413427"},{"town":"西神戸町","koaza":"大辻","lat":34.642424,"lng":137.265199,"zip":"4413423"},{"town":"西神戸町","koaza":"長塚","lat":34.646326,"lng":137.264569,"zip":"4413423"},{"town":"西神戸町","koaza":"山股","lat":34.655916,"lng":137.264843,"zip":"4413423"},{"town":"加治町","koaza":"洲田","lat":34.660339,"lng":137.263639,"zip":"4413427"},{"town":"加治町","koaza":"東取手","lat":34.66491,"lng":137.265212,"zip":"4413427"},{"town":"片浜町","koaza":"山畑","lat":34.690432,"lng":137.264224,"zip":"4413404"},{"town":"田原町","koaza":"山口","lat":34.674757,"lng":137.265691,"zip":"4413421"},{"town":"田原町","koaza":"大沢","lat":34.680785,"lng":137.270266,"zip":"4413421"},{"town":"田原町","koaza":"大沢下","lat":34.677819,"lng":137.264221,"zip":"4413421"},{"town":"片浜町","koaza":"中瀬古","lat":34.694336,"lng":137.263714,"zip":"4413404"},{"town":"緑が浜","koaza":"一号","lat":34.701796,"lng":137.264924,"zip":"4413401"},{"town":"加治町","koaza":"宮下","lat":34.658764,"lng":137.267233,"zip":"4413427"},{"town":"田原町","koaza":"西大浜","lat":34.666669,"lng":137.26674,"zip":"4413421"},{"town":"田原町","koaza":"池ノ原","lat":34.673598,"lng":137.264772,"zip":"4413421"},{"town":"田原町","koaza":"南番場","lat":34.669083,"lng":137.264258,"zip":"4413421"},{"town":"南神戸町","koaza":"平松","lat":34.634609,"lng":137.265686,"zip":"4413424"},{"town":"加治町","koaza":"諸田","lat":34.661721,"lng":137.2658,"zip":"4413427"},{"town":"田原町","koaza":"中小路","lat":34.672924,"lng":137.266622,"zip":"4413421"},{"town":"田原町","koaza":"新町","lat":34.669343,"lng":137.266257,"zip":"4413421"},{"town":"片浜町","koaza":"前畑","lat":34.692332,"lng":137.266534,"zip":"4413404"},{"town":"西神戸町","koaza":"北中島","lat":34.643725,"lng":137.266838,"zip":"4413423"},{"town":"田原町","koaza":"椿","lat":34.674741,"lng":137.267954,"zip":"4413421"},{"town":"田原町","koaza":"五軒丁","lat":34.677444,"lng":137.267577,"zip":"4413421"},{"town":"西神戸町","koaza":"荒子新田","lat":34.641794,"lng":137.266531,"zip":"4413423"},{"town":"浦町","koaza":"茶畑","lat":34.689165,"lng":137.269165,"zip":"4413403"},{"town":"田原町","koaza":"稗田","lat":34.668568,"lng":137.267484,"zip":"4413421"},{"town":"浦町","koaza":"西浦","lat":34.703036,"lng":137.269547,"zip":"4413403"},{"town":"南神戸町","koaza":"水川","lat":34.633388,"lng":137.268481,"zip":"4413424"},{"town":"浦町","koaza":"大原西","lat":34.696422,"lng":137.268343,"zip":"4413403"},{"town":"田原町","koaza":"本町","lat":34.6701,"lng":137.26691,"zip":"4413421"},{"town":"西神戸町","koaza":"広野","lat":34.647591,"lng":137.268101,"zip":"4413423"},{"town":"田原町","koaza":"殿町","lat":34.671571,"lng":137.267757,"zip":"4413421"},{"town":"浦町","koaza":"平畑","lat":34.693687,"lng":137.269964,"zip":"4413403"},{"town":"田原町","koaza":"巴江","lat":34.673748,"lng":137.269849,"zip":"4413421"},{"town":"神戸町","koaza":"沖田","lat":34.656118,"lng":137.269084,"zip":"4413415"},{"town":"田原町","koaza":"東大浜","lat":34.667402,"lng":137.269371,"zip":"4413421"},{"town":"西神戸町","koaza":"追田","lat":34.647805,"lng":137.269869,"zip":"4413423"},{"town":"浦町","koaza":"蔵王下","lat":34.691138,"lng":137.268726,"zip":"4413403"},{"town":"西神戸町","koaza":"川向","lat":34.645922,"lng":137.269221,"zip":"4413423"},{"town":"西神戸町","koaza":"浜行場","lat":34.647938,"lng":137.271164,"zip":"4413423"},{"town":"神戸町","koaza":"西中島","lat":34.65668,"lng":137.273024,"zip":"4413415"},{"town":"田原町","koaza":"柳沢","lat":34.679496,"lng":137.269327,"zip":"4413421"},{"town":"南神戸町","koaza":"仲","lat":34.63427,"lng":137.271037,"zip":"4413424"},{"town":"浦町","koaza":"原畑","lat":34.693831,"lng":137.271762,"zip":"4413403"},{"town":"田原町","koaza":"萱町","lat":34.66911,"lng":137.269623,"zip":"4413421"},{"town":"西神戸町","koaza":"堀山田","lat":34.642449,"lng":137.270511,"zip":"4413423"},{"town":"浦町","koaza":"丸山","lat":34.701341,"lng":137.270507,"zip":"4413403"},{"town":"南神戸町","koaza":"西浜辺","lat":34.633173,"lng":137.269835,"zip":"4413424"},{"town":"緑が浜","koaza":"二号","lat":34.716898,"lng":137.276613,"zip":"4413401"},{"town":"西神戸町","koaza":"荒古島","lat":34.64562,"lng":137.271534,"zip":"4413423"},{"town":"田原町","koaza":"築出","lat":34.671503,"lng":137.270644,"zip":"4413421"},{"town":"西神戸町","koaza":"岡下","lat":34.651538,"lng":137.271919,"zip":"4413423"},{"town":"田原町","koaza":"倉田","lat":34.669013,"lng":137.271453,"zip":"4413421"},{"town":"田原町","koaza":"晩田","lat":34.676348,"lng":137.271718,"zip":"4413421"},{"town":"南神戸町","koaza":"大北","lat":34.636958,"lng":137.272602,"zip":"4413424"},{"town":"神戸町","koaza":"三本杉","lat":34.660061,"lng":137.271411,"zip":"4413415"},{"town":"南神戸町","koaza":"仲北","lat":34.634389,"lng":137.272196,"zip":"4413424"},{"town":"田原町","koaza":"北荒井","lat":34.678512,"lng":137.272713,"zip":"4413421"},{"town":"神戸町","koaza":"ヤンベ","lat":34.665932,"lng":137.273126,"zip":"4413415"},{"town":"田原町","koaza":"南晩田","lat":34.672671,"lng":137.2721,"zip":"4413421"},{"town":"西神戸町","koaza":"蓼川","lat":34.644599,"lng":137.274113,"zip":"4413423"},{"town":"田原町","koaza":"松下","lat":34.669331,"lng":137.272993,"zip":"4413421"},{"town":"神戸町","koaza":"汐田","lat":34.665775,"lng":137.272446,"zip":"4413415"},{"town":"浦町","koaza":"南松崎","lat":34.705841,"lng":137.273826,"zip":"4413403"},{"town":"吉胡町","koaza":"権十","lat":34.68976,"lng":137.272858,"zip":"4413402"},{"town":"吉胡町","koaza":"清水","lat":34.689858,"lng":137.276364,"zip":"4413402"},{"town":"吉胡町","koaza":"蔵王","lat":34.684725,"lng":137.275837,"zip":"4413402"},{"town":"神戸町","koaza":"堀池","lat":34.659951,"lng":137.274181,"zip":"4413415"},{"town":"南神戸町","koaza":"南町","lat":34.638096,"lng":137.276368,"zip":"4413424"},{"town":"吉胡町","koaza":"山瀬","lat":34.688751,"lng":137.274707,"zip":"4413402"},{"town":"西神戸町","koaza":"郷中","lat":34.647462,"lng":137.272894,"zip":"4413423"},{"town":"神戸町","koaza":"後申","lat":34.668263,"lng":137.274069,"zip":"4413415"},{"town":"南神戸町","koaza":"宗困","lat":34.63798,"lng":137.273042,"zip":"4413424"},{"town":"田原町","koaza":"汐見","lat":34.670751,"lng":137.273317,"zip":"4413421"},{"town":"南神戸町","koaza":"富士手","lat":34.635835,"lng":137.274059,"zip":"4413424"},{"town":"神戸町","koaza":"深田","lat":34.664464,"lng":137.273568,"zip":"4413415"},{"town":"田原町","koaza":"南新地","lat":34.674214,"lng":137.273069,"zip":"4413421"},{"town":"南神戸町","koaza":"東屋敷","lat":34.633366,"lng":137.273602,"zip":"4413424"},{"town":"西神戸町","koaza":"岡","lat":34.649341,"lng":137.274654,"zip":"4413423"},{"town":"浦町","koaza":"中分","lat":34.693335,"lng":137.275883,"zip":"4413403"},{"town":"波瀬町","koaza":"波瀬前","lat":34.706843,"lng":137.276442,"zip":"4413406"},{"town":"波瀬町","koaza":"西郷","lat":34.710045,"lng":137.273769,"zip":"4413406"},{"town":"波瀬町","koaza":"宮前","lat":34.709719,"lng":137.274566,"zip":"4413406"},{"town":"浦町","koaza":"中畑","lat":34.699028,"lng":137.275599,"zip":"4413403"},{"town":"神戸町","koaza":"宮下","lat":34.657505,"lng":137.275256,"zip":"4413415"},{"town":"神戸町","koaza":"大坪","lat":34.668824,"lng":137.275875,"zip":"4413415"},{"town":"神戸町","koaza":"西ノ門","lat":34.664146,"lng":137.27592,"zip":"4413415"},{"town":"南神戸町","koaza":"南前","lat":34.634583,"lng":137.275239,"zip":"4413424"},{"town":"神戸町","koaza":"前畑","lat":34.652321,"lng":137.275413,"zip":"4413415"},{"town":"神戸町","koaza":"郷仲","lat":34.662166,"lng":137.276638,"zip":"4413415"},{"town":"吉胡町","koaza":"中新地","lat":34.679114,"lng":137.277476,"zip":"4413402"},{"town":"南神戸町","koaza":"藤手","lat":34.635265,"lng":137.276022,"zip":"4413424"},{"town":"神戸町","koaza":"新大坪","lat":34.666887,"lng":137.278065,"zip":"4413415"},{"town":"神戸町","koaza":"極楽地","lat":34.656763,"lng":137.275546,"zip":"4413415"},{"town":"吉胡町","koaza":"木綿畑","lat":34.680429,"lng":137.275116,"zip":"4413402"},{"town":"波瀬町","koaza":"中村","lat":34.708697,"lng":137.275339,"zip":"4413406"},{"town":"神戸町","koaza":"明土","lat":34.664987,"lng":137.276884,"zip":"4413415"},{"town":"神戸町","koaza":"カタセ","lat":34.656079,"lng":137.277195,"zip":"4413415"},{"town":"吉胡町","koaza":"木綿台","lat":34.682058,"lng":137.276973,"zip":"4413402"},{"town":"神戸町","koaza":"中新造","lat":34.653816,"lng":137.277707,"zip":"4413415"},{"town":"浦町","koaza":"西畑","lat":34.703896,"lng":137.277907,"zip":"4413403"},{"town":"浦町","koaza":"井狭沢","lat":34.696766,"lng":137.276524,"zip":"4413403"},{"town":"南神戸町","koaza":"長坂","lat":34.634605,"lng":137.27678,"zip":"4413424"},{"town":"神戸町","koaza":"丘東","lat":34.647218,"lng":137.277076,"zip":"4413415"},{"town":"南神戸町","koaza":"竪障子","lat":34.635728,"lng":137.277307,"zip":"4413424"},{"town":"神戸町","koaza":"北高畑","lat":34.65875,"lng":137.278017,"zip":"4413415"},{"town":"波瀬町","koaza":"東郷","lat":34.708263,"lng":137.27698,"zip":"4413406"},{"town":"南神戸町","koaza":"中ノ島","lat":34.635347,"lng":137.278374,"zip":"4413424"},{"town":"浦町","koaza":"原組","lat":34.696591,"lng":137.277405,"zip":"4413403"},{"town":"浦町","koaza":"南寺海道","lat":34.698486,"lng":137.278981,"zip":"4413403"},{"town":"神戸町","koaza":"高畑","lat":34.657565,"lng":137.278607,"zip":"4413415"},{"town":"浦町","koaza":"寺海道","lat":34.699508,"lng":137.278304,"zip":"4413403"},{"town":"浦町","koaza":"原屋敷","lat":34.701455,"lng":137.279672,"zip":"4413403"},{"town":"浦町","koaza":"安エ","lat":34.697469,"lng":137.279053,"zip":"4413403"},{"town":"豊島町","koaza":"西新田","lat":34.669768,"lng":137.279146,"zip":"4413417"},{"town":"神戸町","koaza":"東大坪","lat":34.666845,"lng":137.279,"zip":"4413415"},{"town":"神戸町","koaza":"サルガク","lat":34.654799,"lng":137.279545,"zip":"4413415"},{"town":"波瀬町","koaza":"山北","lat":34.70833,"lng":137.279552,"zip":"4413406"},{"town":"浦町","koaza":"川向","lat":34.692893,"lng":137.283562,"zip":"4413403"},{"town":"神戸町","koaza":"大池","lat":34.652123,"lng":137.280064,"zip":"4413415"},{"town":"吉胡町","koaza":"高畑","lat":34.686973,"lng":137.280589,"zip":"4413402"},{"town":"浦町","koaza":"中世古","lat":34.699357,"lng":137.280173,"zip":"4413403"},{"town":"南神戸町","koaza":"中郷","lat":34.637038,"lng":137.279489,"zip":"4413424"},{"town":"吉胡町","koaza":"郷中","lat":34.684593,"lng":137.282573,"zip":"4413402"},{"town":"神戸町","koaza":"七助","lat":34.655513,"lng":137.281105,"zip":"4413415"},{"town":"吉胡町","koaza":"矢崎","lat":34.683023,"lng":137.280716,"zip":"4413402"},{"town":"神戸町","koaza":"神明","lat":34.658976,"lng":137.280201,"zip":"4413415"},{"town":"神戸町","koaza":"天王","lat":34.663382,"lng":137.280306,"zip":"4413415"},{"town":"浦町","koaza":"上ノ原","lat":34.689613,"lng":137.281726,"zip":"4413403"},{"town":"浦町","koaza":"西側","lat":34.696219,"lng":137.279683,"zip":"4413403"},{"town":"浦町","koaza":"中村","lat":34.701603,"lng":137.281492,"zip":"4413403"},{"town":"浦町","koaza":"山家","lat":34.704002,"lng":137.280525,"zip":"4413403"},{"town":"豊島町","koaza":"天白","lat":34.666244,"lng":137.283831,"zip":"4413417"},{"town":"浦町","koaza":"深堀","lat":34.699947,"lng":137.281646,"zip":"4413403"},{"town":"南神戸町","koaza":"東郷","lat":34.636584,"lng":137.280895,"zip":"4413424"},{"town":"神戸町","koaza":"植松","lat":34.647355,"lng":137.282726,"zip":"4413415"},{"town":"浦町","koaza":"前畑","lat":34.703215,"lng":137.281699,"zip":"4413403"},{"town":"浦町","koaza":"山ノ田","lat":34.696187,"lng":137.281763,"zip":"4413403"},{"town":"神戸町","koaza":"笠屋","lat":34.657558,"lng":137.280708,"zip":"4413415"},{"town":"神戸町","koaza":"川坂","lat":34.660138,"lng":137.280909,"zip":"4413415"},{"town":"波瀬町","koaza":"波瀬北","lat":34.709709,"lng":137.281629,"zip":"4413406"},{"town":"浦町","koaza":"北浦","lat":34.704841,"lng":137.282139,"zip":"4413403"},{"town":"波瀬町","koaza":"波瀬口","lat":34.7084,"lng":137.283994,"zip":"4413406"},{"town":"南神戸町","koaza":"西新田","lat":34.64152,"lng":137.282501,"zip":"4413424"},{"town":"神戸町","koaza":"南島","lat":34.657145,"lng":137.283348,"zip":"4413415"},{"town":"浦町","koaza":"荒古","lat":34.696158,"lng":137.282288,"zip":"4413403"},{"town":"波瀬町","koaza":"塩浜","lat":34.709558,"lng":137.283073,"zip":"4413406"},{"town":"浦町","koaza":"岡","lat":34.699552,"lng":137.282395,"zip":"4413403"},{"town":"豊島町","koaza":"釜鋳硲","lat":34.668765,"lng":137.284807,"zip":"4413417"},{"town":"神戸町","koaza":"北海道","lat":34.660256,"lng":137.284866,"zip":"4413415"},{"town":"南神戸町","koaza":"南中島","lat":34.636996,"lng":137.283094,"zip":"4413424"},{"town":"南神戸町","koaza":"高尾","lat":34.639037,"lng":137.280673,"zip":"4413424"},{"town":"豊島町","koaza":"清吾","lat":34.67082,"lng":137.283288,"zip":"4413417"},{"town":"神戸町","koaza":"竹ノ内","lat":34.663215,"lng":137.283781,"zip":"4413415"},{"town":"浦町","koaza":"北条","lat":34.702016,"lng":137.283853,"zip":"4413403"},{"town":"神戸町","koaza":"山畑","lat":34.656294,"lng":137.284751,"zip":"4413415"},{"town":"浦町","koaza":"天白","lat":34.699131,"lng":137.283809,"zip":"4413403"},{"town":"神戸町","koaza":"東山田","lat":34.652641,"lng":137.285162,"zip":"4413415"},{"town":"豊島町","koaza":"七曲","lat":34.668251,"lng":137.284394,"zip":"4413417"},{"town":"南神戸町","koaza":"谷ノ口","lat":34.640747,"lng":137.284639,"zip":"4413424"},{"town":"浦町","koaza":"浜海道","lat":34.704241,"lng":137.285027,"zip":"4413403"},{"town":"浦町","koaza":"青尾","lat":34.705156,"lng":137.284741,"zip":"4413403"},{"town":"吉胡町","koaza":"下畑","lat":34.688789,"lng":137.286029,"zip":"4413402"},{"town":"浦町","koaza":"青尾新田","lat":34.711416,"lng":137.287091,"zip":"4413403"},{"town":"神戸町","koaza":"市場","lat":34.656204,"lng":137.286478,"zip":"4413415"},{"town":"浦町","koaza":"東田","lat":34.700068,"lng":137.289425,"zip":"4413403"},{"town":"南神戸町","koaza":"宮腰","lat":34.643753,"lng":137.285572,"zip":"4413424"},{"town":"浦町","koaza":"鬼塚","lat":34.708355,"lng":137.286216,"zip":"4413403"},{"town":"吉胡町","koaza":"北新地","lat":34.684344,"lng":137.286095,"zip":"4413402"},{"town":"南神戸町","koaza":"寺前","lat":34.637672,"lng":137.284597,"zip":"4413424"},{"town":"豊島町","koaza":"豊丘","lat":34.670898,"lng":137.287385,"zip":"4413417"},{"town":"豊島町","koaza":"豊中","lat":34.665465,"lng":137.287183,"zip":"4413417"},{"town":"緑が浜","koaza":"三号","lat":34.721925,"lng":137.290484,"zip":"4413401"},{"town":"豊島町","koaza":"安原崎","lat":34.673256,"lng":137.285652,"zip":"4413417"},{"town":"豊島町","koaza":"傾城","lat":34.674691,"lng":137.287494,"zip":"4413417"},{"town":"南神戸町","koaza":"本郷","lat":34.639003,"lng":137.287374,"zip":"4413424"},{"town":"神戸町","koaza":"数割","lat":34.655035,"lng":137.288271,"zip":"4413415"},{"town":"豊島町","koaza":"榎沢","lat":34.669389,"lng":137.289184,"zip":"4413417"},{"town":"相川町","koaza":"数原","lat":34.658735,"lng":137.288857,"zip":"4413418"},{"town":"豊島町","koaza":"豊南","lat":34.662199,"lng":137.289997,"zip":"4413417"},{"town":"東神戸町","koaza":"曲坂","lat":34.648881,"lng":137.29,"zip":"4413414"},{"town":"豊島町","koaza":"中島","lat":34.667131,"lng":137.289316,"zip":"4413417"},{"town":"豊島町","koaza":"川西","lat":34.663369,"lng":137.288751,"zip":"4413417"},{"town":"豊島町","koaza":"梅硲","lat":34.67161,"lng":137.290304,"zip":"4413417"},{"town":"豊島町","koaza":"高畑","lat":34.666194,"lng":137.289444,"zip":"4413417"},{"town":"緑が浜","koaza":"四号","lat":34.698138,"lng":137.294831,"zip":"4413401"},{"town":"豊島町","koaza":"川東","lat":34.664751,"lng":137.28943,"zip":"4413417"},{"town":"六連町","koaza":"昭栄","lat":34.65159,"lng":137.291412,"zip":"4413413"},{"town":"豊島町","koaza":"前田","lat":34.666139,"lng":137.293129,"zip":"4413417"},{"town":"豊島町","koaza":"神垣","lat":34.680168,"lng":137.293157,"zip":"4413417"},{"town":"豊島町","koaza":"龍蔵","lat":34.662712,"lng":137.291902,"zip":"4413417"},{"town":"東神戸町","koaza":"清七平古","lat":34.641033,"lng":137.291758,"zip":"4413414"},{"town":"豊島町","koaza":"中坪","lat":34.670867,"lng":137.292218,"zip":"4413417"},{"town":"六連町","koaza":"神ノ釜","lat":34.655852,"lng":137.295572,"zip":"4413413"},{"town":"六連町","koaza":"花水","lat":34.660241,"lng":137.291614,"zip":"4413413"},{"town":"東神戸町","koaza":"東新田","lat":34.647524,"lng":137.294799,"zip":"4413414"},{"town":"東神戸町","koaza":"寺裏","lat":34.643532,"lng":137.293465,"zip":"4413414"},{"town":"東神戸町","koaza":"東ケ谷","lat":34.644016,"lng":137.295827,"zip":"4413414"},{"town":"豊島町","koaza":"奥谷","lat":34.668712,"lng":137.292715,"zip":"4413417"},{"town":"豊島町","koaza":"安原","lat":34.67692,"lng":137.294464,"zip":"4413417"},{"town":"東神戸町","koaza":"寺東","lat":34.641164,"lng":137.295284,"zip":"4413414"},{"town":"谷熊町","koaza":"谷熊下","lat":34.68188,"lng":137.296392,"zip":"4413412"},{"town":"谷熊町","koaza":"洲崎","lat":34.679131,"lng":137.295581,"zip":"4413412"},{"town":"東神戸町","koaza":"新田","lat":34.645917,"lng":137.296414,"zip":"4413414"},{"town":"豊島町","koaza":"西屋敷","lat":34.665079,"lng":137.296483,"zip":"4413417"},{"town":"東神戸町","koaza":"御農","lat":34.642666,"lng":137.297183,"zip":"4413414"},{"town":"谷熊町","koaza":"松ノ本","lat":34.670578,"lng":137.297162,"zip":"4413412"},{"town":"谷熊町","koaza":"寺新田","lat":34.673613,"lng":137.298517,"zip":"4413412"},{"town":"東神戸町","koaza":"中島","lat":34.639319,"lng":137.296985,"zip":"4413414"},{"town":"六連町","koaza":"一本木","lat":34.652462,"lng":137.306074,"zip":"4413413"},{"town":"東神戸町","koaza":"新古","lat":34.643211,"lng":137.298753,"zip":"4413414"},{"town":"谷熊町","koaza":"御堂崎","lat":34.668786,"lng":137.299199,"zip":"4413412"},{"town":"谷熊町","koaza":"備後","lat":34.672118,"lng":137.300498,"zip":"4413412"},{"town":"相川町","koaza":"美里台","lat":34.659856,"lng":137.299802,"zip":"4413418"},{"town":"六連町","koaza":"赤石里","lat":34.643304,"lng":137.301876,"zip":"4413413"},{"town":"谷熊町","koaza":"平三","lat":34.675324,"lng":137.303157,"zip":"4413412"},{"town":"六連町","koaza":"弥栄","lat":34.647419,"lng":137.300486,"zip":"4413413"},{"town":"谷熊町","koaza":"栗生","lat":34.665723,"lng":137.301675,"zip":"4413412"},{"town":"六連町","koaza":"境","lat":34.661063,"lng":137.302521,"zip":"4413413"},{"town":"六連町","koaza":"見沢","lat":34.644674,"lng":137.30191,"zip":"4413413"},{"town":"谷熊町","koaza":"桑原","lat":34.667494,"lng":137.303574,"zip":"4413412"},{"town":"谷熊町","koaza":"堂代","lat":34.666957,"lng":137.301958,"zip":"4413412"},{"town":"六連町","koaza":"百々","lat":34.648115,"lng":137.306961,"zip":"4413413"},{"town":"六連町","koaza":"権現山","lat":34.644197,"lng":137.304226,"zip":"4413413"},{"town":"谷熊町","koaza":"森下","lat":34.673758,"lng":137.303937,"zip":"4413412"},{"town":"相川町","koaza":"鴫森","lat":34.660649,"lng":137.304567,"zip":"4413418"},{"town":"谷熊町","koaza":"太神","lat":34.663786,"lng":137.304121,"zip":"4413412"},{"town":"六連町","koaza":"高畑","lat":34.644629,"lng":137.30563,"zip":"4413413"},{"town":"谷熊町","koaza":"森山","lat":34.66477,"lng":137.304831,"zip":"4413412"},{"town":"谷熊町","koaza":"須郷","lat":34.67005,"lng":137.306265,"zip":"4413412"},{"town":"谷熊町","koaza":"上大取","lat":34.665601,"lng":137.305017,"zip":"4413412"},{"town":"六連町","koaza":"西井戸浦","lat":34.642587,"lng":137.304928,"zip":"4413413"},{"town":"谷熊町","koaza":"高田","lat":34.67413,"lng":137.306361,"zip":"4413412"},{"town":"六連町","koaza":"中郷中","lat":34.643269,"lng":137.306466,"zip":"4413413"},{"town":"相川町","koaza":"片神戸","lat":34.662408,"lng":137.310781,"zip":"4413418"},{"town":"相川町","koaza":"西野","lat":34.661333,"lng":137.308992,"zip":"4413418"},{"town":"谷熊町","koaza":"江縄","lat":34.675459,"lng":137.309651,"zip":"4413412"},{"town":"六連町","koaza":"六郎次","lat":34.644234,"lng":137.307556,"zip":"4413413"},{"town":"六連町","koaza":"大平子","lat":34.646692,"lng":137.308516,"zip":"4413413"},{"town":"相川町","koaza":"高木","lat":34.661041,"lng":137.311342,"zip":"4413418"},{"town":"相川町","koaza":"札木","lat":34.662166,"lng":137.313827,"zip":"4413418"},{"town":"相川町","koaza":"御嶽","lat":34.661451,"lng":137.31173,"zip":"4413418"},{"town":"六連町","koaza":"新谷","lat":34.646741,"lng":137.313671,"zip":"4413413"},{"town":"六連町","koaza":"富山","lat":34.649222,"lng":137.314178,"zip":"4413413"},{"town":"六連町","koaza":"若宮前","lat":34.646321,"lng":137.314527,"zip":"4413413"},{"town":"六連町","koaza":"堂下","lat":34.647127,"lng":137.315147,"zip":"4413413"},{"town":"六連町","koaza":"新浜","lat":34.645896,"lng":137.316491,"zip":"4413413"},{"town":"相川町","koaza":"長仙寺境","lat":34.660588,"lng":137.315787,"zip":"4413418"},{"town":"六連町","koaza":"四本松","lat":34.651825,"lng":137.3177,"zip":"4413413"},{"town":"六連町","koaza":"左車","lat":34.656611,"lng":137.31696,"zip":"4413413"},{"town":"六連町","koaza":"神ケ谷","lat":34.656923,"lng":137.318623,"zip":"4413413"},{"town":"六連町","koaza":"宮ノ西","lat":34.647995,"lng":137.320372,"zip":"4413413"},{"town":"六連町","koaza":"貝場","lat":34.649673,"lng":137.321746,"zip":"4413413"},{"town":"六連町","koaza":"四ツ谷","lat":34.645472,"lng":137.32043,"zip":"4413413"},{"town":"六連町","koaza":"西浜田","lat":34.647717,"lng":137.323327,"zip":"4413413"},{"town":"六連町","koaza":"宮狭間","lat":34.653615,"lng":137.321577,"zip":"4413413"},{"town":"六連町","koaza":"番場","lat":34.649709,"lng":137.324707,"zip":"4413413"},{"town":"六連町","koaza":"山本","lat":34.659798,"lng":137.322773,"zip":"4413413"},{"town":"六連町","koaza":"西大尺","lat":34.65833,"lng":137.324694,"zip":"4413413"},{"town":"六連町","koaza":"谷ノ上","lat":34.646862,"lng":137.325767,"zip":"4413413"},{"town":"六連町","koaza":"黒福","lat":34.650107,"lng":137.326385,"zip":"4413413"},{"town":"六連町","koaza":"芝元","lat":34.657378,"lng":137.32899,"zip":"4413413"},{"town":"六連町","koaza":"東浜田","lat":34.649498,"lng":137.329713,"zip":"4413413"},{"town":"六連町","koaza":"西峠","lat":34.65194,"lng":137.331344,"zip":"4413413"},{"town":"六連町","koaza":"境川","lat":34.650111,"lng":137.33148,"zip":"4413413"},{"town":"六連町","koaza":"雨堤","lat":34.651113,"lng":137.334288,"zip":"4413413"},{"town":"六連町","koaza":"西赤山","lat":34.659019,"lng":137.333342,"zip":"4413413"},{"town":"六連町","koaza":"大平","lat":34.656131,"lng":137.334178,"zip":"4413413"},{"town":"六連町","koaza":"北長山","lat":34.6578,"lng":137.337116,"zip":"4413413"},{"town":"六連町","koaza":"狩拂","lat":34.651631,"lng":137.336133,"zip":"4413413"},{"town":"六連町","koaza":"脇浜辺","lat":34.650383,"lng":137.336086,"zip":"4413413"},{"town":"日出町","koaza":"骨山","lat":34.586699,"lng":137.040412,"zip":"4413623"},{"town":"伊良湖町","koaza":"恋路浦","lat":34.582294,"lng":137.02375,"zip":"4413624"},{"town":"日出町","koaza":"大越","lat":34.586411,"lng":137.037838,"zip":"4413623"},{"town":"日出町","koaza":"山ノ岸","lat":34.583254,"lng":137.039959,"zip":"4413623"},{"town":"日出町","koaza":"又三畑","lat":34.581516,"lng":137.040524,"zip":"4413623"},{"town":"伊良湖町","koaza":"古婦下","lat":34.589544,"lng":137.043353,"zip":"4413624"},{"town":"堀切町","koaza":"矢崎","lat":34.590658,"lng":137.055204,"zip":"4413627"},{"town":"堀切町","koaza":"和名山","lat":34.587987,"lng":137.057769,"zip":"4413627"},{"town":"亀山町","koaza":"岡山","lat":34.605404,"lng":137.069789,"zip":"4413625"},{"town":"亀山町","koaza":"稲場","lat":34.600871,"lng":137.059535,"zip":"4413625"},{"town":"小中山町","koaza":"後江小砂","lat":34.650638,"lng":137.080723,"zip":"4413618"},{"town":"福江町","koaza":"直江","lat":34.640042,"lng":137.097776,"zip":"4413617"},{"town":"福江町","koaza":"今ノ田","lat":34.63961,"lng":137.097178,"zip":"4413617"},{"town":"中山町","koaza":"溜下","lat":34.630175,"lng":137.079812,"zip":"4413615"},{"town":"中山町","koaza":"北松渕","lat":34.629758,"lng":137.092296,"zip":"4413615"},{"town":"福江町","koaza":"金五郎坂","lat":34.629645,"lng":137.094095,"zip":"4413617"},{"town":"福江町","koaza":"坂上","lat":34.629173,"lng":137.09383,"zip":"4413617"},{"town":"福江町","koaza":"葭原田","lat":34.628131,"lng":137.09506,"zip":"4413617"},{"town":"保美町","koaza":"大原","lat":34.621585,"lng":137.089535,"zip":"4413614"},{"town":"保美町","koaza":"土取","lat":34.623695,"lng":137.094124,"zip":"4413614"},{"town":"保美町","koaza":"仲屋敷","lat":34.621762,"lng":137.09517,"zip":"4413614"},{"town":"福江町","koaza":"向田","lat":34.624145,"lng":137.09662,"zip":"4413617"},{"town":"福江町","koaza":"清水塚","lat":34.619328,"lng":137.101453,"zip":"4413617"},{"town":"福江町","koaza":"境戸","lat":34.617324,"lng":137.103184,"zip":"4413617"},{"town":"福江町","koaza":"漆薮","lat":34.622156,"lng":137.100188,"zip":"4413617"},{"town":"福江町","koaza":"宮ノ脇","lat":34.624704,"lng":137.102686,"zip":"4413617"},{"town":"福江町","koaza":"浜田","lat":34.627684,"lng":137.096767,"zip":"4413617"},{"town":"福江町","koaza":"八反坪","lat":34.624785,"lng":137.098051,"zip":"4413617"},{"town":"向山町","koaza":"吉野","lat":34.628303,"lng":137.097645,"zip":"4413616"},{"town":"古田町","koaza":"背戸山","lat":34.636528,"lng":137.11017,"zip":"4413613"},{"town":"福江町","koaza":"高田","lat":34.626403,"lng":137.101453,"zip":"4413617"},{"town":"福江町","koaza":"片背山","lat":34.610591,"lng":137.106423,"zip":"4413617"},{"town":"長沢町","koaza":"大鹿","lat":34.60848,"lng":137.106904,"zip":"4413609"},{"town":"堀切町","koaza":"西猫池","lat":34.591446,"lng":137.073139,"zip":"4413627"},{"town":"堀切町","koaza":"北猫池","lat":34.592046,"lng":137.075412,"zip":"4413627"},{"town":"堀切町","koaza":"寺ノ東","lat":34.593616,"lng":137.080235,"zip":"4413627"},{"town":"堀切町","koaza":"八人組","lat":34.595967,"lng":137.07763,"zip":"4413627"},{"town":"堀切町","koaza":"風除","lat":34.590055,"lng":137.08247,"zip":"4413627"},{"town":"小塩津町","koaza":"宮前","lat":34.595684,"lng":137.095411,"zip":"4413626"},{"town":"小塩津町","koaza":"萱畑","lat":34.595771,"lng":137.097693,"zip":"4413626"},{"town":"小塩津町","koaza":"甚太夫","lat":34.594381,"lng":137.097855,"zip":"4413626"},{"town":"和地町","koaza":"内荒子","lat":34.594512,"lng":137.10161,"zip":"4413622"},{"town":"和地町","koaza":"広畑","lat":34.593573,"lng":137.101358,"zip":"4413622"},{"town":"和地町","koaza":"徳右衛門荒子","lat":34.591938,"lng":137.103425,"zip":"4413622"},{"town":"和地町","koaza":"立岩","lat":34.590661,"lng":137.116783,"zip":"4413622"},{"town":"山田町","koaza":"御殿下","lat":34.62071,"lng":137.120451,"zip":"4413621"},{"town":"高木町","koaza":"西田","lat":34.633004,"lng":137.117627,"zip":"4413612"},{"town":"高木町","koaza":"羽広","lat":34.636075,"lng":137.124723,"zip":"4413612"},{"town":"石神町","koaza":"森下","lat":34.639338,"lng":137.13464,"zip":"4413611"},{"town":"石神町","koaza":"西田","lat":34.638869,"lng":137.133138,"zip":"4413611"},{"town":"折立町","koaza":"東原畑","lat":34.628356,"lng":137.11596,"zip":"4413608"},{"town":"和地町","koaza":"上狐沢","lat":34.593729,"lng":137.146007,"zip":"4413622"},{"town":"越戸町","koaza":"宮下","lat":34.595094,"lng":137.152482,"zip":"4413504"},{"town":"越戸町","koaza":"才八","lat":34.595962,"lng":137.150818,"zip":"4413504"},{"town":"越戸町","koaza":"童子","lat":34.597178,"lng":137.158598,"zip":"4413504"},{"town":"越戸町","koaza":"大山","lat":34.597507,"lng":137.156138,"zip":"4413504"},{"town":"石神町","koaza":"浜田","lat":34.641709,"lng":137.138958,"zip":"4413611"},{"town":"石神町","koaza":"北屋敷","lat":34.640398,"lng":137.138517,"zip":"4413611"},{"town":"伊川津町","koaza":"横津新田","lat":34.645115,"lng":137.14059,"zip":"4413604"},{"town":"江比間町","koaza":"惣浦","lat":34.654971,"lng":137.15561,"zip":"4413605"},{"town":"伊川津町","koaza":"仙田","lat":34.646706,"lng":137.150029,"zip":"4413604"},{"town":"伊川津町","koaza":"大歳","lat":34.645671,"lng":137.148607,"zip":"4413604"},{"town":"伊川津町","koaza":"砂地","lat":34.648498,"lng":137.148022,"zip":"4413604"},{"town":"伊川津町","koaza":"欠ノ山","lat":34.643863,"lng":137.14623,"zip":"4413604"},{"town":"伊川津町","koaza":"細田","lat":34.643768,"lng":137.144788,"zip":"4413604"},{"town":"伊川津町","koaza":"大本","lat":34.641512,"lng":137.144776,"zip":"4413604"},{"town":"伊川津町","koaza":"泉","lat":34.636566,"lng":137.147304,"zip":"4413604"},{"town":"伊川津町","koaza":"西上地","lat":34.638939,"lng":137.144864,"zip":"4413604"},{"town":"石神町","koaza":"泉","lat":34.635254,"lng":137.146399,"zip":"4413611"},{"town":"村松町","koaza":"北畑","lat":34.641528,"lng":137.155099,"zip":"4413603"},{"town":"若見町","koaza":"亀太郎","lat":34.611427,"lng":137.1684,"zip":"4413503"},{"town":"八王子町","koaza":"大番場","lat":34.638944,"lng":137.182011,"zip":"4413602"},{"town":"赤羽根町","koaza":"西山","lat":34.637057,"lng":137.183426,"zip":"4413502"},{"town":"八王子町","koaza":"椿沢","lat":34.631398,"lng":137.175996,"zip":"4413602"},{"town":"八王子町","koaza":"宮下","lat":34.63516,"lng":137.163137,"zip":"4413602"},{"town":"村松町","koaza":"東原","lat":34.634887,"lng":137.160348,"zip":"4413603"},{"town":"江比間町","koaza":"寺田","lat":34.651788,"lng":137.160758,"zip":"4413605"},{"town":"江比間町","koaza":"東中新古","lat":34.64894,"lng":137.160418,"zip":"4413605"},{"town":"宇津江町","koaza":"居山","lat":34.658048,"lng":137.174959,"zip":"4413601"},{"town":"宇津江町","koaza":"新切","lat":34.658428,"lng":137.180324,"zip":"4413601"},{"town":"野田町","koaza":"小山","lat":34.668594,"lng":137.186259,"zip":"4413432"},{"town":"野田町","koaza":"上ノ山","lat":34.665935,"lng":137.19389,"zip":"4413432"},{"town":"宇津江町","koaza":"長尾","lat":34.662056,"lng":137.181414,"zip":"4413601"},{"town":"野田町","koaza":"長尾","lat":34.664973,"lng":137.186597,"zip":"4413432"},{"town":"野田町","koaza":"寺間","lat":34.662288,"lng":137.192556,"zip":"4413432"},{"town":"野田町","koaza":"寺海道","lat":34.665262,"lng":137.196787,"zip":"4413432"},{"town":"野田町","koaza":"広海道","lat":34.666783,"lng":137.197817,"zip":"4413432"},{"town":"野田町","koaza":"辻瀬古","lat":34.665644,"lng":137.19897,"zip":"4413432"},{"town":"野田町","koaza":"間坂","lat":34.658511,"lng":137.194218,"zip":"4413432"},{"town":"野田町","koaza":"城海道","lat":34.661844,"lng":137.197947,"zip":"4413432"},{"town":"野田町","koaza":"東屋敷","lat":34.656618,"lng":137.204026,"zip":"4413432"},{"town":"野田町","koaza":"三軒屋","lat":34.657268,"lng":137.204832,"zip":"4413432"},{"town":"野田町","koaza":"大門","lat":34.654494,"lng":137.20476,"zip":"4413432"},{"town":"野田町","koaza":"宮前","lat":34.653041,"lng":137.204542,"zip":"4413432"},{"town":"野田町","koaza":"弥次兵衛","lat":34.654623,"lng":137.205824,"zip":"4413432"},{"town":"野田町","koaza":"新堀","lat":34.651811,"lng":137.209178,"zip":"4413432"},{"town":"野田町","koaza":"西彦田","lat":34.651422,"lng":137.208691,"zip":"4413432"},{"town":"野田町","koaza":"小川","lat":34.651428,"lng":137.210638,"zip":"4413432"},{"town":"野田町","koaza":"落合","lat":34.650382,"lng":137.210516,"zip":"4413432"},{"town":"野田町","koaza":"芦ヶ池","lat":34.642783,"lng":137.202464,"zip":"4413432"},{"town":"野田町","koaza":"池下","lat":34.643082,"lng":137.201052,"zip":"4413432"},{"town":"野田町","koaza":"宇津口","lat":34.651811,"lng":137.201377,"zip":"4413432"},{"town":"芦町","koaza":"大田","lat":34.641278,"lng":137.192152,"zip":"4413433"},{"town":"芦町","koaza":"上田","lat":34.646833,"lng":137.194356,"zip":"4413433"},{"town":"野田町","koaza":"尾ケ坂西","lat":34.648653,"lng":137.200191,"zip":"4413432"},{"town":"野田町","koaza":"山合口","lat":34.638659,"lng":137.209872,"zip":"4413432"},{"town":"仁崎町","koaza":"柳沢","lat":34.672344,"lng":137.213952,"zip":"4413435"},{"town":"仁崎町","koaza":"西畑","lat":34.672928,"lng":137.215274,"zip":"4413435"},{"town":"仁崎町","koaza":"上ノ山","lat":34.676484,"lng":137.215277,"zip":"4413435"},{"town":"仁崎町","koaza":"浜辺","lat":34.67558,"lng":137.216981,"zip":"4413435"},{"town":"仁崎町","koaza":"仲坪","lat":34.67295,"lng":137.217849,"zip":"4413435"},{"town":"仁崎町","koaza":"前田","lat":34.67399,"lng":137.219238,"zip":"4413435"},{"town":"仁崎町","koaza":"前洲","lat":34.674362,"lng":137.218624,"zip":"4413435"},{"town":"大久保町","koaza":"地蔵","lat":34.650517,"lng":137.223604,"zip":"4413426"},{"town":"大久保町","koaza":"西山","lat":34.651751,"lng":137.225607,"zip":"4413426"},{"town":"野田町","koaza":"ズル沢","lat":34.652177,"lng":137.218885,"zip":"4413432"},{"town":"野田町","koaza":"上ノ沢","lat":34.653671,"lng":137.218362,"zip":"4413432"},{"town":"大久保町","koaza":"仲地田","lat":34.652346,"lng":137.232386,"zip":"4413426"},{"town":"大久保町","koaza":"洞山","lat":34.653596,"lng":137.236119,"zip":"4413426"},{"town":"大久保町","koaza":"二又","lat":34.654661,"lng":137.24294,"zip":"4413426"},{"town":"大久保町","koaza":"佐藤","lat":34.642997,"lng":137.238635,"zip":"4413426"},{"town":"高松町","koaza":"宮方辺","lat":34.622051,"lng":137.234812,"zip":"4413501"},{"town":"高松町","koaza":"大荒古","lat":34.620725,"lng":137.228692,"zip":"4413501"},{"town":"高松町","koaza":"名幸","lat":34.619045,"lng":137.224736,"zip":"4413501"},{"town":"大草町","koaza":"辷り","lat":34.628538,"lng":137.252593,"zip":"4413425"},{"town":"大草町","koaza":"高砂","lat":34.629276,"lng":137.253183,"zip":"4413425"},{"town":"大草町","koaza":"茶園","lat":34.634675,"lng":137.250561,"zip":"4413425"},{"town":"大草町","koaza":"南三軒","lat":34.629744,"lng":137.255147,"zip":"4413425"},{"town":"大草町","koaza":"三軒","lat":34.630149,"lng":137.255998,"zip":"4413425"},{"town":"大草町","koaza":"前山","lat":34.633069,"lng":137.247902,"zip":"4413425"},{"town":"大草町","koaza":"東畑","lat":34.632985,"lng":137.253705,"zip":"4413425"},{"town":"大草町","koaza":"畑巻","lat":34.634638,"lng":137.252859,"zip":"4413425"},{"town":"大草町","koaza":"小丸","lat":34.637024,"lng":137.250751,"zip":"4413425"},{"town":"大草町","koaza":"砂子","lat":34.637768,"lng":137.251172,"zip":"4413425"},{"town":"大草町","koaza":"池下","lat":34.632072,"lng":137.252914,"zip":"4413425"},{"town":"大草町","koaza":"神戸","lat":34.635813,"lng":137.256449,"zip":"4413425"},{"town":"大草町","koaza":"北神","lat":34.634472,"lng":137.255086,"zip":"4413425"},{"town":"大草町","koaza":"南左位神","lat":34.633798,"lng":137.254273,"zip":"4413425"},{"town":"西神戸町","koaza":"中田","lat":34.651595,"lng":137.263008,"zip":"4413423"},{"town":"西神戸町","koaza":"契り","lat":34.653742,"lng":137.262069,"zip":"4413423"},{"town":"大草町","koaza":"東山田","lat":34.643089,"lng":137.255424,"zip":"4413425"},{"town":"加治町","koaza":"北恩中","lat":34.660985,"lng":137.246312,"zip":"4413427"},{"town":"田原町","koaza":"西栄巌","lat":34.668676,"lng":137.25001,"zip":"4413421"},{"town":"田原町","koaza":"衣笠下","lat":34.672707,"lng":137.249316,"zip":"4413421"},{"town":"田原町","koaza":"石取","lat":34.677877,"lng":137.256381,"zip":"4413421"},{"town":"田原町","koaza":"東藤七原","lat":34.676688,"lng":137.25291,"zip":"4413421"},{"town":"白谷町","koaza":"西山","lat":34.681263,"lng":137.234063,"zip":"4413431"},{"town":"白谷町","koaza":"東山","lat":34.684888,"lng":137.255411,"zip":"4413431"},{"town":"田原町","koaza":"石取下","lat":34.677056,"lng":137.258242,"zip":"4413421"},{"town":"田原町","koaza":"十七谷","lat":34.673002,"lng":137.26202,"zip":"4413421"},{"town":"田原町","koaza":"鎌田","lat":34.670843,"lng":137.254768,"zip":"4413421"},{"town":"田原町","koaza":"西馬洗","lat":34.67223,"lng":137.257682,"zip":"4413421"},{"town":"田原町","koaza":"北乗鞍","lat":34.667287,"lng":137.258,"zip":"4413421"},{"town":"田原町","koaza":"八軒家","lat":34.667513,"lng":137.259939,"zip":"4413421"},{"town":"田原町","koaza":"二ノ丸","lat":34.667107,"lng":137.261686,"zip":"4413421"},{"town":"福江町","koaza":"新郡治","lat":34.639554,"lng":137.096041,"zip":"4413617"},{"town":"福江町","koaza":"郡治","lat":34.6393,"lng":137.096366,"zip":"4413617"},{"town":"石神町","koaza":"応","lat":34.637394,"lng":137.135172,"zip":"4413611"},{"town":"若見町","koaza":"山ノ田","lat":34.616801,"lng":137.161878,"zip":"4413503"},{"town":"若見町","koaza":"小山","lat":34.601528,"lng":137.16428,"zip":"4413503"},{"town":"赤羽根町","koaza":"池尻田","lat":34.608631,"lng":137.187071,"zip":"4413502"},{"town":"赤羽根町","koaza":"三枚","lat":34.609919,"lng":137.189521,"zip":"4413502"},{"town":"宇津江町","koaza":"東田","lat":34.661593,"lng":137.178801,"zip":"4413601"},{"town":"江比間町","koaza":"東山","lat":34.654445,"lng":137.158989,"zip":"4413605"},{"town":"野田町","koaza":"段","lat":34.675278,"lng":137.205966,"zip":"4413432"},{"town":"野田町","koaza":"尾川","lat":34.674524,"lng":137.205138,"zip":"4413432"},{"town":"野田町","koaza":"宮下","lat":34.675379,"lng":137.204971,"zip":"4413432"},{"town":"野田町","koaza":"宮西","lat":34.671394,"lng":137.204517,"zip":"4413432"},{"town":"野田町","koaza":"建長平芝","lat":34.671193,"lng":137.201214,"zip":"4413432"},{"town":"高松町","koaza":"弥八島","lat":34.616877,"lng":137.221908,"zip":"4413501"},{"town":"大久保町","koaza":"岩下","lat":34.663908,"lng":137.232718,"zip":"4413426"},{"town":"田原町","koaza":"二ツ坂","lat":34.671893,"lng":137.261075,"zip":"4413421"},{"town":"田原町","koaza":"東栄巌","lat":34.669531,"lng":137.253431,"zip":"4413421"},{"town":"田原町","koaza":"東鎌田","lat":34.670624,"lng":137.256798,"zip":"4413421"},{"town":"大草町","koaza":"北左位神","lat":34.635718,"lng":137.253395,"zip":"4413425"},{"town":"南神戸町","koaza":"東浜辺","lat":34.632132,"lng":137.275609,"zip":"4413424"},{"town":"東神戸町","koaza":"仙路山","lat":34.642265,"lng":137.292511,"zip":"4413414"},{"town":"東神戸町","koaza":"市坊","lat":34.641258,"lng":137.288908,"zip":"4413414"},{"town":"神戸町","koaza":"大無生","lat":34.644871,"lng":137.279509,"zip":"4413415"},{"town":"神戸町","koaza":"東新田","lat":34.644666,"lng":137.279139,"zip":"4413415"},{"town":"西神戸町","koaza":"橋前","lat":34.653283,"lng":137.27355,"zip":"4413423"},{"town":"神戸町","koaza":"前田","lat":34.654487,"lng":137.274883,"zip":"4413415"},{"town":"神戸町","koaza":"上り口","lat":34.647397,"lng":137.280374,"zip":"4413415"},{"town":"神戸町","koaza":"殿畑","lat":34.649555,"lng":137.276459,"zip":"4413415"},{"town":"神戸町","koaza":"中島","lat":34.655637,"lng":137.275569,"zip":"4413415"},{"town":"神戸町","koaza":"松本","lat":34.655654,"lng":137.276791,"zip":"4413415"},{"town":"神戸町","koaza":"赤石","lat":34.66096,"lng":137.271929,"zip":"4413415"},{"town":"神戸町","koaza":"天白","lat":34.663593,"lng":137.277185,"zip":"4413415"},{"town":"神戸町","koaza":"久保川","lat":34.662116,"lng":137.278623,"zip":"4413415"},{"town":"田原町","koaza":"当田","lat":34.671031,"lng":137.272375,"zip":"4413421"},{"town":"田原町","koaza":"柳町","lat":34.667927,"lng":137.271586,"zip":"4413421"},{"town":"田原町","koaza":"北番場","lat":34.671532,"lng":137.2645,"zip":"4413421"},{"town":"田原町","koaza":"柳ケ丘","lat":34.678316,"lng":137.266502,"zip":"4413421"},{"town":"田原町","koaza":"蔵王","lat":34.681156,"lng":137.258604,"zip":"4413421"},{"town":"片浜町","koaza":"向山","lat":34.686906,"lng":137.265055,"zip":"4413404"},{"town":"片浜町","koaza":"西原","lat":34.690864,"lng":137.258445,"zip":"4413404"},{"town":"片浜町","koaza":"榎沢","lat":34.691408,"lng":137.261543,"zip":"4413404"},{"town":"片浜町","koaza":"椿沢","lat":34.689922,"lng":137.262437,"zip":"4413404"},{"town":"浦町","koaza":"北落方","lat":34.696253,"lng":137.266784,"zip":"4413403"},{"town":"浦町","koaza":"落方","lat":34.695644,"lng":137.265062,"zip":"4413403"},{"town":"片浜町","koaza":"井戸瀬古","lat":34.694357,"lng":137.26673,"zip":"4413404"},{"town":"波瀬町","koaza":"光崎","lat":34.710982,"lng":137.27703,"zip":"4413406"},{"town":"浦町","koaza":"笠山","lat":34.704206,"lng":137.278797,"zip":"4413403"},{"town":"浦町","koaza":"大原","lat":34.698369,"lng":137.273629,"zip":"4413403"},{"town":"浦町","koaza":"稲場","lat":34.702719,"lng":137.279615,"zip":"4413403"},{"town":"浦町","koaza":"尾崎","lat":34.697216,"lng":137.282812,"zip":"4413403"},{"town":"浦町","koaza":"米山","lat":34.69606,"lng":137.278302,"zip":"4413403"},{"town":"浦町","koaza":"大坂","lat":34.694805,"lng":137.27598,"zip":"4413403"},{"town":"吉胡町","koaza":"下屋敷","lat":34.686324,"lng":137.284613,"zip":"4413402"},{"town":"豊島町","koaza":"道南","lat":34.669348,"lng":137.280508,"zip":"4413417"},{"town":"神戸町","koaza":"鷲川","lat":34.667197,"lng":137.280808,"zip":"4413415"},{"town":"神戸町","koaza":"北山","lat":34.665358,"lng":137.280369,"zip":"4413415"},{"town":"豊島町","koaza":"大池","lat":34.664576,"lng":137.286134,"zip":"4413417"},{"town":"豊島町","koaza":"堀川","lat":34.663177,"lng":137.287473,"zip":"4413417"},{"town":"豊島町","koaza":"地獄沢","lat":34.663404,"lng":137.289407,"zip":"4413417"},{"town":"豊島町","koaza":"仲田","lat":34.664785,"lng":137.294723,"zip":"4413417"},{"town":"豊島町","koaza":"神田","lat":34.665492,"lng":137.296949,"zip":"4413417"},{"town":"豊島町","koaza":"大田","lat":34.66492,"lng":137.297583,"zip":"4413417"},{"town":"豊島町","koaza":"上ノ山","lat":34.663893,"lng":137.297056,"zip":"4413417"},{"town":"豊島町","koaza":"東屋敷","lat":34.663817,"lng":137.297749,"zip":"4413417"},{"town":"谷熊町","koaza":"鍛冶屋前","lat":34.667894,"lng":137.2966,"zip":"4413412"},{"town":"谷熊町","koaza":"岡野","lat":34.666243,"lng":137.2991,"zip":"4413412"},{"town":"谷熊町","koaza":"谷熊間","lat":34.669506,"lng":137.298686,"zip":"4413412"},{"town":"谷熊町","koaza":"岩前","lat":34.672514,"lng":137.302876,"zip":"4413412"},{"town":"谷熊町","koaza":"成木","lat":34.667918,"lng":137.300874,"zip":"4413412"},{"town":"相川町","koaza":"寺前","lat":34.663415,"lng":137.306308,"zip":"4413418"},{"town":"豊島町","koaza":"岩ノ根","lat":34.67189,"lng":137.295107,"zip":"4413417"},{"town":"東神戸町","koaza":"山中","lat":34.640961,"lng":137.299643,"zip":"4413414"},{"town":"東神戸町","koaza":"井戸島","lat":34.638598,"lng":137.299834,"zip":"4413414"},{"town":"東神戸町","koaza":"高山","lat":34.641207,"lng":137.30016,"zip":"4413414"},{"town":"保美町","koaza":"唐沢","lat":34.62521,"lng":137.091589,"zip":"4413614"},{"town":"日出町","koaza":"北本畑","lat":34.582534,"lng":137.043322,"zip":"4413623"},{"town":"神戸町","koaza":"郷原","lat":34.656317,"lng":137.279139,"zip":"4413415"},{"town":"加治町","koaza":"平戸","lat":34.661163,"lng":137.262464,"zip":"4413427"},{"town":"田原町","koaza":"橋上","lat":34.665889,"lng":137.270311,"zip":"4413421"},{"town":"南神戸町","koaza":"市防","lat":34.642501,"lng":137.286993,"zip":"4413424"},{"town":"東神戸町","koaza":"本田","lat":34.640416,"lng":137.291904,"zip":"4413414"},{"town":"東神戸町","koaza":"百々境","lat":34.642477,"lng":137.300694,"zip":"4413414"},{"town":"浦町","koaza":"鶴沢","lat":34.694345,"lng":137.26835,"zip":"4413403"},{"town":"神戸町","koaza":"上堀池","lat":34.659705,"lng":137.27505,"zip":"4413415"},{"town":"六連町","koaza":"東郷中","lat":34.643074,"lng":137.308569,"zip":"4413413"},{"town":"相川町","koaza":"数原前","lat":34.656216,"lng":137.29048,"zip":"4413418"},{"town":"神戸町","koaza":"中尾","lat":34.65833,"lng":137.286855,"zip":"4413415"},{"town":"豊島町","koaza":"薬師","lat":34.672571,"lng":137.290531,"zip":"4413417"},{"town":"吉胡町","koaza":"瀬戸田","lat":34.689467,"lng":137.280542,"zip":"4413402"},{"town":"六連町","koaza":"落合沢","lat":34.644478,"lng":137.304457,"zip":"4413413"},{"town":"六連町","koaza":"雉子山","lat":34.647766,"lng":137.312317,"zip":"4413413"},{"town":"六連町","koaza":"栗穴","lat":34.649628,"lng":137.31868,"zip":"4413413"},{"town":"六連町","koaza":"南浜辺","lat":34.646978,"lng":137.318856,"zip":"4413413"},{"town":"六連町","koaza":"向山","lat":34.647645,"lng":137.318611,"zip":"4413413"},{"town":"六連町","koaza":"西ノ川","lat":34.651401,"lng":137.319725,"zip":"4413413"},{"town":"六連町","koaza":"南枯木川","lat":34.652693,"lng":137.320287,"zip":"4413413"},{"town":"六連町","koaza":"北枯木川","lat":34.654969,"lng":137.320142,"zip":"4413413"},{"town":"六連町","koaza":"西高尾","lat":34.6502,"lng":137.324519,"zip":"4413413"},{"town":"六連町","koaza":"前田","lat":34.658562,"lng":137.318358,"zip":"4413413"},{"town":"六連町","koaza":"居屋敷","lat":34.659235,"lng":137.320455,"zip":"4413413"},{"town":"六連町","koaza":"中切","lat":34.648319,"lng":137.327627,"zip":"4413413"},{"town":"六連町","koaza":"久美原","lat":34.650879,"lng":137.335859,"zip":"4413413"},{"town":"六連町","koaza":"中坪","lat":34.651864,"lng":137.337779,"zip":"4413413"},{"town":"六連町","koaza":"東高尾","lat":34.651381,"lng":137.325882,"zip":"4413413"},{"town":"豊島町","koaza":"山村","lat":34.667862,"lng":137.284959,"zip":"4413417"},{"town":"豊島町","koaza":"背戸田","lat":34.670406,"lng":137.291182,"zip":"4413417"},{"town":"六連町","koaza":"高尾","lat":34.651667,"lng":137.32261,"zip":"4413413"},{"town":"六連町","koaza":"奥屋敷","lat":34.66009,"lng":137.318188,"zip":"4413413"},{"town":"大草町","koaza":"南神","lat":34.633194,"lng":137.256138,"zip":"4413425"},{"town":"南神戸町","koaza":"宮前","lat":34.6416,"lng":137.286177,"zip":"4413424"},{"town":"豊島町","koaza":"北新切","lat":34.673342,"lng":137.288176,"zip":"4413417"},{"town":"大草町","koaza":"長坂","lat":34.632809,"lng":137.255128,"zip":"4413425"},{"town":"高松町","koaza":"羽根","lat":34.621527,"lng":137.241393,"zip":"4413501"},{"town":"高木町","koaza":"亀井","lat":34.634165,"lng":137.120249,"zip":"4413612"},{"town":"古田町","koaza":"梵木下","lat":34.621279,"lng":137.113264,"zip":"4413613"},{"town":"山田町","koaza":"谷太郎","lat":34.619755,"lng":137.130906,"zip":"4413621"},{"town":"山田町","koaza":"寺前","lat":34.619709,"lng":137.123568,"zip":"4413621"},{"town":"芦町","koaza":"柳原","lat":34.646209,"lng":137.197823,"zip":"4413433"},{"town":"野田町","koaza":"尾ケ坂東","lat":34.644981,"lng":137.201813,"zip":"4413432"},{"town":"南神戸町","koaza":"高畑","lat":34.639546,"lng":137.284796,"zip":"4413424"},{"town":"南神戸町","koaza":"寺東","lat":34.64047,"lng":137.286625,"zip":"4413424"},{"town":"六連町","koaza":"東浜辺","lat":34.650977,"lng":137.339661,"zip":"4413413"},{"town":"六連町","koaza":"狐川","lat":34.652792,"lng":137.333273,"zip":"4413413"},{"town":"六連町","koaza":"北山","lat":34.650375,"lng":137.329206,"zip":"4413413"},{"town":"六連町","koaza":"東海辺","lat":34.648324,"lng":137.328971,"zip":"4413413"},{"town":"東神戸町","koaza":"杉林","lat":34.644088,"lng":137.297264,"zip":"4413414"},{"town":"谷熊町","koaza":"砂亡","lat":34.667488,"lng":137.295632,"zip":"4413412"},{"town":"豊島町","koaza":"惣作","lat":34.667901,"lng":137.294319,"zip":"4413417"},{"town":"波瀬町","koaza":"井田","lat":34.70975,"lng":137.277623,"zip":"4413406"},{"town":"浦町","koaza":"蔵王","lat":34.683026,"lng":137.266801,"zip":"4413403"},{"town":"田原町","koaza":"大谷下","lat":34.678631,"lng":137.25219,"zip":"4413421"},{"town":"白谷町","koaza":"坂下","lat":34.685629,"lng":137.2484,"zip":"4413431"},{"town":"仁崎町","koaza":"ホウベ","lat":34.674687,"lng":137.22213,"zip":"4413435"},{"town":"和地町","koaza":"瀬戸畑","lat":34.592585,"lng":137.13975,"zip":"4413622"},{"town":"田原町","koaza":"西屋敷","lat":34.665043,"lng":137.259879,"zip":"4413421"},{"town":"山田町","koaza":"入口","lat":34.621712,"lng":137.114934,"zip":"4413621"},{"town":"豊島町","koaza":"城下新田","lat":34.675926,"lng":137.283738,"zip":"4413417"},{"town":"白谷町","koaza":"白磯","lat":34.685574,"lng":137.232915,"zip":"4413431"}]