[{"town":"大字内海","koaza":"","lat":34.74581,"lng":136.880159,"zip":"4703300"},{"town":"大字大井","koaza":"","lat":34.726563,"lng":136.957497,"zip":"4703300"},{"town":"大字片名","koaza":"","lat":34.711803,"lng":136.959055,"zip":"4703300"},{"town":"大字篠島","koaza":"","lat":34.676142,"lng":137.003883,"zip":"4703300"},{"town":"大字豊丘","koaza":"","lat":34.733151,"lng":136.937727,"zip":"4703300"},{"town":"大字豊浜","koaza":"","lat":34.7146,"lng":136.929221,"zip":"4703300"},{"town":"大字日間賀島","koaza":"","lat":34.70515,"lng":137.005609,"zip":"4703300"},{"town":"大字師崎","koaza":"","lat":34.702367,"lng":136.966595,"zip":"4703300"},{"town":"大字山海","koaza":"","lat":34.726178,"lng":136.901171,"zip":"4703300"},{"town":"大字内海","koaza":"口揚","lat":34.745517,"lng":136.858697,"zip":"4703300"},{"town":"大字内海","koaza":"揚西","lat":34.74801,"lng":136.854159,"zip":"4703300"},{"town":"大字内海","koaza":"揚東","lat":34.746863,"lng":136.855952,"zip":"4703300"},{"town":"大字内海","koaza":"紙手木","lat":34.748618,"lng":136.862206,"zip":"4703300"},{"town":"大字内海","koaza":"西座頭畑","lat":34.743372,"lng":136.860069,"zip":"4703300"},{"town":"大字内海","koaza":"城山","lat":34.744615,"lng":136.861496,"zip":"4703300"},{"town":"大字内海","koaza":"東座頭畑","lat":34.739948,"lng":136.86148,"zip":"4703300"},{"town":"大字内海","koaza":"柴井","lat":34.740316,"lng":136.86231,"zip":"4703300"},{"town":"大字内海","koaza":"寺後","lat":34.740266,"lng":136.863564,"zip":"4703300"},{"town":"大字内海","koaza":"西郷","lat":34.739059,"lng":136.863783,"zip":"4703300"},{"town":"大字内海","koaza":"寺前","lat":34.739743,"lng":136.864207,"zip":"4703300"},{"town":"大字内海","koaza":"今場","lat":34.745295,"lng":136.863712,"zip":"4703300"},{"town":"大字内海","koaza":"西御所奥","lat":34.74782,"lng":136.864732,"zip":"4703300"},{"town":"大字内海","koaza":"風呂谷","lat":34.743642,"lng":136.864544,"zip":"4703300"},{"town":"大字内海","koaza":"城下","lat":34.741527,"lng":136.865676,"zip":"4703300"},{"town":"大字内海","koaza":"上別所","lat":34.752387,"lng":136.868515,"zip":"4703300"},{"town":"大字内海","koaza":"東御所奥","lat":34.746306,"lng":136.867229,"zip":"4703300"},{"town":"大字内海","koaza":"東郷","lat":34.738698,"lng":136.86623,"zip":"4703300"},{"town":"大字内海","koaza":"西塩田","lat":34.739526,"lng":136.866326,"zip":"4703300"},{"town":"大字内海","koaza":"西前田","lat":34.743687,"lng":136.866401,"zip":"4703300"},{"town":"大字内海","koaza":"南浜田","lat":34.740725,"lng":136.867216,"zip":"4703300"},{"town":"大字内海","koaza":"西側","lat":34.744272,"lng":136.867765,"zip":"4703300"},{"town":"大字内海","koaza":"長城","lat":34.741992,"lng":136.867428,"zip":"4703300"},{"town":"大字内海","koaza":"中浜","lat":34.738548,"lng":136.867369,"zip":"4703300"},{"town":"大字内海","koaza":"下別所","lat":34.746893,"lng":136.869888,"zip":"4703300"},{"town":"大字内海","koaza":"浜岡部","lat":34.737771,"lng":136.868047,"zip":"4703300"},{"town":"大字内海","koaza":"小桝","lat":34.729144,"lng":136.879805,"zip":"4703300"},{"town":"大字内海","koaza":"西浜田","lat":34.738472,"lng":136.868752,"zip":"4703300"},{"town":"大字内海","koaza":"前側","lat":34.742359,"lng":136.869929,"zip":"4703300"},{"town":"大字内海","koaza":"松田","lat":34.743359,"lng":136.870587,"zip":"4703300"},{"town":"大字内海","koaza":"亥新田","lat":34.739178,"lng":136.870894,"zip":"4703300"},{"town":"大字内海","koaza":"中前田","lat":34.740498,"lng":136.870926,"zip":"4703300"},{"town":"大字内海","koaza":"阿麻","lat":34.749607,"lng":136.871858,"zip":"4703300"},{"town":"大字内海","koaza":"新田","lat":34.736107,"lng":136.87043,"zip":"4703300"},{"town":"大字内海","koaza":"西端後","lat":34.737,"lng":136.870689,"zip":"4703300"},{"town":"大字内海","koaza":"一色","lat":34.732472,"lng":136.872077,"zip":"4703300"},{"town":"大字内海","koaza":"早稲倉","lat":34.744528,"lng":136.871221,"zip":"4703300"},{"town":"大字内海","koaza":"浦向","lat":34.734708,"lng":136.871435,"zip":"4703300"},{"town":"大字内海","koaza":"中浜田","lat":34.738333,"lng":136.871579,"zip":"4703300"},{"town":"大字内海","koaza":"本田","lat":34.735711,"lng":136.871516,"zip":"4703300"},{"town":"大字内海","koaza":"五反田","lat":34.742915,"lng":136.872623,"zip":"4703300"},{"town":"大字内海","koaza":"南側","lat":34.734544,"lng":136.872923,"zip":"4703300"},{"town":"大字内海","koaza":"先苅","lat":34.744614,"lng":136.874709,"zip":"4703300"},{"town":"大字内海","koaza":"前山","lat":34.733924,"lng":136.873661,"zip":"4703300"},{"town":"大字内海","koaza":"北向","lat":34.737567,"lng":136.873149,"zip":"4703300"},{"town":"大字内海","koaza":"馬場","lat":34.744033,"lng":136.873898,"zip":"4703300"},{"town":"大字内海","koaza":"中之郷","lat":34.740579,"lng":136.874232,"zip":"4703300"},{"town":"大字内海","koaza":"山尾","lat":34.732353,"lng":136.873545,"zip":"4703300"},{"town":"大字内海","koaza":"林之峯","lat":34.747711,"lng":136.875079,"zip":"4703300"},{"town":"大字内海","koaza":"東浜田","lat":34.73949,"lng":136.874721,"zip":"4703300"},{"town":"大字内海","koaza":"高平井","lat":34.737859,"lng":136.874317,"zip":"4703300"},{"town":"大字内海","koaza":"入口","lat":34.73866,"lng":136.874523,"zip":"4703300"},{"town":"大字内海","koaza":"中根","lat":34.735055,"lng":136.875882,"zip":"4703300"},{"town":"大字内海","koaza":"内塩田","lat":34.742348,"lng":136.876697,"zip":"4703300"},{"town":"大字内海","koaza":"奥南側","lat":34.737459,"lng":136.875268,"zip":"4703300"},{"town":"大字内海","koaza":"上浜田","lat":34.739376,"lng":136.875888,"zip":"4703300"},{"town":"大字内海","koaza":"北脇","lat":34.742805,"lng":136.876387,"zip":"4703300"},{"town":"大字内海","koaza":"欠ケ下","lat":34.740087,"lng":136.876551,"zip":"4703300"},{"town":"大字内海","koaza":"野田奥","lat":34.758625,"lng":136.879885,"zip":"4703300"},{"town":"大字内海","koaza":"南前田","lat":34.737787,"lng":136.8769,"zip":"4703300"},{"town":"大字内海","koaza":"北側","lat":34.738858,"lng":136.877412,"zip":"4703300"},{"town":"大字内海","koaza":"東塩田","lat":34.74092,"lng":136.880644,"zip":"4703300"},{"town":"大字内海","koaza":"奥側","lat":34.734167,"lng":136.884841,"zip":"4703300"},{"town":"大字内海","koaza":"中塩田","lat":34.741581,"lng":136.879585,"zip":"4703300"},{"town":"大字内海","koaza":"兼井","lat":34.744639,"lng":136.880486,"zip":"4703300"},{"town":"大字内海","koaza":"小名切","lat":34.739946,"lng":136.879615,"zip":"4703300"},{"town":"大字内海","koaza":"三ツ合","lat":34.731061,"lng":136.881077,"zip":"4703300"},{"town":"大字内海","koaza":"野田口","lat":34.755816,"lng":136.881853,"zip":"4703300"},{"town":"大字内海","koaza":"東前田","lat":34.739751,"lng":136.881492,"zip":"4703300"},{"town":"大字内海","koaza":"丸田","lat":34.733206,"lng":136.880943,"zip":"4703300"},{"town":"大字内海","koaza":"中添","lat":34.74863,"lng":136.882977,"zip":"4703300"},{"town":"大字内海","koaza":"森越","lat":34.741504,"lng":136.881499,"zip":"4703300"},{"town":"大字内海","koaza":"南桐ノ木","lat":34.729702,"lng":136.88215,"zip":"4703300"},{"town":"大字内海","koaza":"芋沢","lat":34.761879,"lng":136.884151,"zip":"4703300"},{"town":"大字内海","koaza":"平田","lat":34.74283,"lng":136.884654,"zip":"4703300"},{"town":"大字内海","koaza":"高峯","lat":34.728396,"lng":136.886452,"zip":"4703300"},{"town":"大字内海","koaza":"楠","lat":34.742266,"lng":136.884088,"zip":"4703300"},{"town":"大字内海","koaza":"大根","lat":34.738401,"lng":136.884497,"zip":"4703300"},{"town":"大字内海","koaza":"楠本","lat":34.740845,"lng":136.88539,"zip":"4703300"},{"town":"大字山海","koaza":"高峯","lat":34.724479,"lng":136.886227,"zip":"4703300"},{"town":"大字内海","koaza":"奥苔廻間","lat":34.752168,"lng":136.887225,"zip":"4703300"},{"town":"大字内海","koaza":"柳坪","lat":34.745453,"lng":136.884978,"zip":"4703300"},{"town":"大字内海","koaza":"奥樫木","lat":34.763054,"lng":136.888398,"zip":"4703300"},{"town":"大字山海","koaza":"河廻間","lat":34.723198,"lng":136.888296,"zip":"4703300"},{"town":"大字内海","koaza":"口遠廻間","lat":34.749312,"lng":136.885741,"zip":"4703300"},{"town":"大字内海","koaza":"留山","lat":34.758302,"lng":136.887389,"zip":"4703300"},{"town":"大字内海","koaza":"口苔廻間","lat":34.751158,"lng":136.891068,"zip":"4703300"},{"town":"大字内海","koaza":"池田","lat":34.748826,"lng":136.887697,"zip":"4703300"},{"town":"大字内海","koaza":"大名切","lat":34.736816,"lng":136.892329,"zip":"4703300"},{"town":"大字内海","koaza":"石ケ坪","lat":34.743,"lng":136.888471,"zip":"4703300"},{"town":"大字内海","koaza":"細脇","lat":34.753454,"lng":136.890833,"zip":"4703300"},{"town":"大字内海","koaza":"鍋山","lat":34.747226,"lng":136.887299,"zip":"4703300"},{"town":"大字内海","koaza":"清水","lat":34.74703,"lng":136.888549,"zip":"4703300"},{"town":"大字内海","koaza":"向山","lat":34.744325,"lng":136.890007,"zip":"4703300"},{"town":"大字山海","koaza":"長坂","lat":34.726561,"lng":136.893844,"zip":"4703300"},{"town":"大字内海","koaza":"西鈴谷","lat":34.759862,"lng":136.890744,"zip":"4703300"},{"town":"大字内海","koaza":"八ケ池奥","lat":34.755288,"lng":136.894907,"zip":"4703300"},{"town":"大字山海","koaza":"高座","lat":34.722298,"lng":136.890988,"zip":"4703300"},{"town":"大字内海","koaza":"前","lat":34.746063,"lng":136.890852,"zip":"4703300"},{"town":"大字内海","koaza":"西鈴ケ谷","lat":34.763206,"lng":136.89428,"zip":"4703300"},{"town":"大字山海","koaza":"石ケ坪","lat":34.731869,"lng":136.892545,"zip":"4703300"},{"town":"大字内海","koaza":"平居","lat":34.74674,"lng":136.893558,"zip":"4703300"},{"town":"大字内海","koaza":"一色前","lat":34.748321,"lng":136.894377,"zip":"4703300"},{"town":"大字山海","koaza":"橋詰","lat":34.721489,"lng":136.892881,"zip":"4703300"},{"town":"大字内海","koaza":"奥一色","lat":34.749725,"lng":136.89312,"zip":"4703300"},{"town":"大字内海","koaza":"亀口","lat":34.751146,"lng":136.894717,"zip":"4703300"},{"town":"大字内海","koaza":"奥鈴ケ谷","lat":34.7603,"lng":136.894564,"zip":"4703300"},{"town":"大字山海","koaza":"屋敷","lat":34.720126,"lng":136.896911,"zip":"4703300"},{"town":"大字山海","koaza":"荒井","lat":34.724177,"lng":136.894858,"zip":"4703300"},{"town":"大字内海","koaza":"子曽田","lat":34.745549,"lng":136.894604,"zip":"4703300"},{"town":"大字内海","koaza":"三反田","lat":34.746603,"lng":136.895285,"zip":"4703300"},{"town":"大字山海","koaza":"久須","lat":34.733447,"lng":136.900405,"zip":"4703300"},{"town":"大字山海","koaza":"欠ケ前","lat":34.726347,"lng":136.895021,"zip":"4703300"},{"town":"大字内海","koaza":"杁ケ奥","lat":34.755393,"lng":136.896893,"zip":"4703300"},{"town":"大字山海","koaza":"後田","lat":34.721987,"lng":136.896608,"zip":"4703300"},{"town":"大字内海","koaza":"熊野","lat":34.738432,"lng":136.898819,"zip":"4703300"},{"town":"大字内海","koaza":"竹ケ尻","lat":34.740287,"lng":136.89852,"zip":"4703300"},{"town":"大字内海","koaza":"不老脇","lat":34.744621,"lng":136.899837,"zip":"4703300"},{"town":"大字山海","koaza":"大坪","lat":34.725312,"lng":136.903247,"zip":"4703300"},{"town":"大字山海","koaza":"土々坊","lat":34.730406,"lng":136.90233,"zip":"4703300"},{"town":"大字内海","koaza":"内田","lat":34.745155,"lng":136.900991,"zip":"4703300"},{"town":"大字山海","koaza":"荒布越","lat":34.720809,"lng":136.898693,"zip":"4703300"},{"town":"大字内海","koaza":"打越","lat":34.749071,"lng":136.9001,"zip":"4703300"},{"town":"大字山海","koaza":"松生","lat":34.719537,"lng":136.899069,"zip":"4703300"},{"town":"大字内海","koaza":"奥大廻間","lat":34.739618,"lng":136.902092,"zip":"4703300"},{"town":"大字山海","koaza":"西松相","lat":34.720823,"lng":136.902234,"zip":"4703300"},{"town":"大字山海","koaza":"向山","lat":34.722719,"lng":136.900766,"zip":"4703300"},{"town":"大字山海","koaza":"天神西","lat":34.71715,"lng":136.903482,"zip":"4703300"},{"town":"大字内海","koaza":"岩之奥","lat":34.74659,"lng":136.903514,"zip":"4703300"},{"town":"大字山海","koaza":"井平居","lat":34.722767,"lng":136.904695,"zip":"4703300"},{"town":"大字内海","koaza":"戻リ風","lat":34.744364,"lng":136.902695,"zip":"4703300"},{"town":"大字山海","koaza":"小山","lat":34.726844,"lng":136.905342,"zip":"4703300"},{"town":"大字内海","koaza":"牧之内","lat":34.742165,"lng":136.905747,"zip":"4703300"},{"town":"大字内海","koaza":"奥山","lat":34.736528,"lng":136.905022,"zip":"4703300"},{"town":"大字豊浜","koaza":"坂井","lat":34.714227,"lng":136.911812,"zip":"4703300"},{"town":"大字山海","koaza":"鈴木","lat":34.722521,"lng":136.907854,"zip":"4703300"},{"town":"大字山海","koaza":"天神東","lat":34.717289,"lng":136.905679,"zip":"4703300"},{"town":"大字内海","koaza":"矢倉ケ根","lat":34.740231,"lng":136.907379,"zip":"4703300"},{"town":"大字山海","koaza":"奥","lat":34.719524,"lng":136.908844,"zip":"4703300"},{"town":"大字山海","koaza":"池渕","lat":34.72922,"lng":136.909878,"zip":"4703300"},{"town":"大字山海","koaza":"小野坂","lat":34.72713,"lng":136.906613,"zip":"4703300"},{"town":"大字山海","koaza":"北山","lat":34.73823,"lng":136.908659,"zip":"4703300"},{"town":"大字山海","koaza":"薮下","lat":34.717566,"lng":136.909087,"zip":"4703300"},{"town":"大字山海","koaza":"西海外","lat":34.715304,"lng":136.908558,"zip":"4703300"},{"town":"大字山海","koaza":"ひばりケ丘","lat":34.724051,"lng":136.91274,"zip":"4703300"},{"town":"大字山海","koaza":"七七九五","lat":34.716377,"lng":136.908912,"zip":"4703300"},{"town":"大字山海","koaza":"大峯","lat":34.723719,"lng":136.91075,"zip":"4703300"},{"town":"大字山海","koaza":"間草","lat":34.731899,"lng":136.911486,"zip":"4703300"},{"town":"大字山海","koaza":"緑ケ丘","lat":34.726959,"lng":136.916133,"zip":"4703300"},{"town":"大字山海","koaza":"東海外","lat":34.715017,"lng":136.910854,"zip":"4703300"},{"town":"大字山海","koaza":"城山","lat":34.729577,"lng":136.913766,"zip":"4703300"},{"town":"大字山海","koaza":"上之山","lat":34.715849,"lng":136.91137,"zip":"4703300"},{"town":"大字山海","koaza":"阿原","lat":34.729575,"lng":136.91278,"zip":"4703300"},{"town":"大字豊浜","koaza":"西狭間","lat":34.715358,"lng":136.913178,"zip":"4703300"},{"town":"大字豊浜","koaza":"西之峰","lat":34.714518,"lng":136.914536,"zip":"4703300"},{"town":"大字山海","koaza":"城洲","lat":34.732229,"lng":136.916303,"zip":"4703300"},{"town":"大字山海","koaza":"土間","lat":34.728526,"lng":136.916844,"zip":"4703300"},{"town":"大字豊浜","koaza":"塩屋浦","lat":34.712285,"lng":136.915628,"zip":"4703300"},{"town":"大字豊浜","koaza":"恩徳寺","lat":34.725791,"lng":136.919894,"zip":"4703300"},{"town":"大字豊浜","koaza":"西之浦","lat":34.711302,"lng":136.918276,"zip":"4703300"},{"town":"大字山海","koaza":"押水","lat":34.728091,"lng":136.915268,"zip":"4703300"},{"town":"大字豊浜","koaza":"中狭間","lat":34.712676,"lng":136.91567,"zip":"4703300"},{"town":"大字豊浜","koaza":"十久保","lat":34.721351,"lng":136.920108,"zip":"4703300"},{"town":"大字豊浜","koaza":"丸山","lat":34.718905,"lng":136.922249,"zip":"4703300"},{"town":"大字豊浜","koaza":"中之浦","lat":34.709537,"lng":136.92123,"zip":"4703300"},{"town":"大字豊浜","koaza":"東之浦","lat":34.708241,"lng":136.922878,"zip":"4703300"},{"town":"大字豊浜","koaza":"原欠","lat":34.719712,"lng":136.922684,"zip":"4703300"},{"town":"大字豊浜","koaza":"大久郷","lat":34.711611,"lng":136.922078,"zip":"4703300"},{"town":"大字豊浜","koaza":"白山脇","lat":34.710203,"lng":136.925369,"zip":"4703300"},{"town":"大字豊浜","koaza":"日之水","lat":34.721521,"lng":136.92279,"zip":"4703300"},{"town":"大字豊浜","koaza":"堀奥","lat":34.715401,"lng":136.926299,"zip":"4703300"},{"town":"大字豊浜","koaza":"初神","lat":34.719463,"lng":136.92443,"zip":"4703300"},{"town":"大字豊浜","koaza":"鳶ケ平井","lat":34.718174,"lng":136.924758,"zip":"4703300"},{"town":"大字豊浜","koaza":"馬ケ瀬","lat":34.721547,"lng":136.926069,"zip":"4703300"},{"town":"大字豊丘","koaza":"梅之木","lat":34.729351,"lng":136.925771,"zip":"4703300"},{"town":"大字豊浜","koaza":"南ケ丘","lat":34.717746,"lng":136.925121,"zip":"4703300"},{"town":"大字豊浜","koaza":"尾ケ瀬","lat":34.718072,"lng":136.926864,"zip":"4703300"},{"town":"大字豊浜","koaza":"田名畑","lat":34.707242,"lng":136.926615,"zip":"4703300"},{"town":"大字豊浜","koaza":"六面","lat":34.719011,"lng":136.925414,"zip":"4703300"},{"town":"大字豊浜","koaza":"長命寺","lat":34.713534,"lng":136.928369,"zip":"4703300"},{"town":"大字豊丘","koaza":"八町","lat":34.733208,"lng":136.928841,"zip":"4703300"},{"town":"大字豊浜","koaza":"小地廻間","lat":34.719767,"lng":136.93175,"zip":"4703300"},{"town":"大字豊浜","koaza":"榎畑","lat":34.718688,"lng":136.926565,"zip":"4703300"},{"town":"大字豊浜","koaza":"中之坪","lat":34.715765,"lng":136.927757,"zip":"4703300"},{"town":"大字豊浜","koaza":"内田","lat":34.710037,"lng":136.929525,"zip":"4703300"},{"town":"大字豊浜","koaza":"下地ケ谷","lat":34.717036,"lng":136.927233,"zip":"4703300"},{"town":"大字豊浜","koaza":"椋田","lat":34.717906,"lng":136.931107,"zip":"4703300"},{"town":"大字豊浜","koaza":"西之平井","lat":34.705822,"lng":136.929239,"zip":"4703300"},{"town":"大字豊丘","koaza":"大深","lat":34.728788,"lng":136.930963,"zip":"4703300"},{"town":"大字豊浜","koaza":"椿廻間","lat":34.720409,"lng":136.933216,"zip":"4703300"},{"town":"大字豊丘","koaza":"平井","lat":34.725724,"lng":136.930125,"zip":"4703300"},{"town":"大字豊浜","koaza":"上大田面","lat":34.713809,"lng":136.929445,"zip":"4703300"},{"town":"大字豊浜","koaza":"貝ケ坪","lat":34.715995,"lng":136.930151,"zip":"4703300"},{"town":"大字豊浜","koaza":"登畑","lat":34.70757,"lng":136.929959,"zip":"4703300"},{"town":"大字豊丘","koaza":"坊奥","lat":34.736373,"lng":136.932684,"zip":"4703300"},{"town":"大字豊浜","koaza":"中町","lat":34.71495,"lng":136.931301,"zip":"4703300"},{"town":"大字豊浜","koaza":"半月","lat":34.706022,"lng":136.931802,"zip":"4703300"},{"town":"大字豊浜","koaza":"下大田面","lat":34.710443,"lng":136.932198,"zip":"4703300"},{"town":"大字豊丘","koaza":"矢倉","lat":34.723438,"lng":136.934495,"zip":"4703300"},{"town":"大字豊浜","koaza":"石之浦","lat":34.705241,"lng":136.933557,"zip":"4703300"},{"town":"大字豊浜","koaza":"清水谷","lat":34.713613,"lng":136.932058,"zip":"4703300"},{"town":"大字豊浜","koaza":"薬師堂","lat":34.715214,"lng":136.933261,"zip":"4703300"},{"town":"大字豊浜","koaza":"月之浦","lat":34.707157,"lng":136.93284,"zip":"4703300"},{"town":"大字豊浜","koaza":"中村","lat":34.70893,"lng":136.9331,"zip":"4703300"},{"town":"大字豊丘","koaza":"大浦","lat":34.73388,"lng":136.932536,"zip":"4703300"},{"town":"大字豊丘","koaza":"仲嶋","lat":34.73251,"lng":136.933787,"zip":"4703300"},{"town":"大字豊浜","koaza":"篭目","lat":34.716945,"lng":136.93406,"zip":"4703300"},{"town":"大字豊浜","koaza":"会下坪","lat":34.711739,"lng":136.933254,"zip":"4703300"},{"town":"大字豊丘","koaza":"緑ケ丘","lat":34.738545,"lng":136.933271,"zip":"4703300"},{"town":"大字豊丘","koaza":"堂ノ上","lat":34.73571,"lng":136.934513,"zip":"4703300"},{"town":"大字豊丘","koaza":"高見台","lat":34.721326,"lng":136.936534,"zip":"4703300"},{"town":"大字豊浜","koaza":"鵞麦","lat":34.712818,"lng":136.934437,"zip":"4703300"},{"town":"大字豊丘","koaza":"古田","lat":34.739292,"lng":136.935264,"zip":"4703300"},{"town":"大字豊浜","koaza":"中之廻間","lat":34.719264,"lng":136.934164,"zip":"4703300"},{"town":"大字豊浜","koaza":"須佐ケ丘","lat":34.719759,"lng":136.93825,"zip":"4703300"},{"town":"大字豊浜","koaza":"相筆","lat":34.70831,"lng":136.936018,"zip":"4703300"},{"town":"大字豊浜","koaza":"鳥居","lat":34.71042,"lng":136.935245,"zip":"4703300"},{"town":"大字豊丘","koaza":"向海戸","lat":34.733847,"lng":136.934618,"zip":"4703300"},{"town":"大字豊浜","koaza":"大城","lat":34.720543,"lng":136.937708,"zip":"4703300"},{"town":"大字豊丘","koaza":"竹石台","lat":34.729524,"lng":136.936738,"zip":"4703300"},{"town":"大字豊丘","koaza":"林","lat":34.736248,"lng":136.936811,"zip":"4703300"},{"town":"大字豊丘","koaza":"海戸","lat":34.737165,"lng":136.935251,"zip":"4703300"},{"town":"大字豊丘","koaza":"有田脇","lat":34.73436,"lng":136.939972,"zip":"4703300"},{"town":"大字豊丘","koaza":"本郷","lat":34.730639,"lng":136.941203,"zip":"4703300"},{"town":"大字豊浜","koaza":"須佐ノ浦","lat":34.708411,"lng":136.938149,"zip":"4703300"},{"town":"大字豊浜","koaza":"高浜","lat":34.708973,"lng":136.938579,"zip":"4703300"},{"town":"大字豊丘","koaza":"中新田","lat":34.743504,"lng":136.938158,"zip":"4703300"},{"town":"大字豊丘","koaza":"浜見台","lat":34.738055,"lng":136.93909,"zip":"4703300"},{"town":"大字豊丘","koaza":"かに川","lat":34.7443,"lng":136.942886,"zip":"4703300"},{"town":"大字豊浜","koaza":"新居","lat":34.706692,"lng":136.940426,"zip":"4703300"},{"town":"大字豊丘","koaza":"稗田","lat":34.732507,"lng":136.94076,"zip":"4703300"},{"town":"大字豊浜","koaza":"清水","lat":34.714369,"lng":136.943014,"zip":"4703300"},{"town":"大字豊浜","koaza":"打合","lat":34.704358,"lng":136.941253,"zip":"4703300"},{"town":"大字豊丘","koaza":"布干","lat":34.736905,"lng":136.940209,"zip":"4703300"},{"town":"大字豊浜","koaza":"高浜谷","lat":34.709279,"lng":136.941084,"zip":"4703300"},{"town":"大字豊浜","koaza":"池田","lat":34.711513,"lng":136.940888,"zip":"4703300"},{"town":"大字豊浜","koaza":"峠","lat":34.70306,"lng":136.941014,"zip":"4703300"},{"town":"大字豊丘","koaza":"宮前","lat":34.733524,"lng":136.943781,"zip":"4703300"},{"town":"大字豊丘","koaza":"山田","lat":34.733872,"lng":136.942892,"zip":"4703300"},{"town":"大字豊浜","koaza":"金久保","lat":34.712193,"lng":136.942161,"zip":"4703300"},{"town":"大字豊丘","koaza":"松下","lat":34.737412,"lng":136.942381,"zip":"4703300"},{"town":"大字豊浜","koaza":"汐見台","lat":34.706017,"lng":136.942773,"zip":"4703300"},{"town":"大字豊丘","koaza":"神戸","lat":34.746342,"lng":136.942462,"zip":"4703300"},{"town":"大字豊丘","koaza":"宮後","lat":34.735061,"lng":136.942884,"zip":"4703300"},{"town":"大字豊丘","koaza":"古山田","lat":34.740574,"lng":136.94465,"zip":"4703300"},{"town":"大字豊丘","koaza":"新屋敷","lat":34.733622,"lng":136.945979,"zip":"4703300"},{"town":"大字豊浜","koaza":"泊り","lat":34.702118,"lng":136.945005,"zip":"4703300"},{"town":"大字豊丘","koaza":"西古山田","lat":34.743476,"lng":136.944529,"zip":"4703300"},{"town":"大字豊浜","koaza":"豊浦","lat":34.702094,"lng":136.946395,"zip":"4703300"},{"town":"大字豊浜","koaza":"小佐郷","lat":34.703037,"lng":136.946882,"zip":"4703300"},{"town":"大字豊丘","koaza":"中古山田","lat":34.742305,"lng":136.946009,"zip":"4703300"},{"town":"大字豊浜","koaza":"堅持","lat":34.702856,"lng":136.945463,"zip":"4703300"},{"town":"大字豊丘","koaza":"孫廻間","lat":34.739871,"lng":136.94669,"zip":"4703300"},{"town":"大字師崎","koaza":"茱更木","lat":34.702778,"lng":136.963747,"zip":"4703300"},{"town":"大字豊丘","koaza":"東浜","lat":34.740372,"lng":136.948721,"zip":"4703300"},{"town":"大字大井","koaza":"西園","lat":34.719187,"lng":136.955153,"zip":"4703300"},{"town":"大字豊丘","koaza":"丑平井","lat":34.737296,"lng":136.949025,"zip":"4703300"},{"town":"大字大井","koaza":"平成平","lat":34.731168,"lng":136.94732,"zip":"4703300"},{"town":"大字豊丘","koaza":"葭野","lat":34.74132,"lng":136.947529,"zip":"4703300"},{"town":"大字豊浜","koaza":"小佐谷","lat":34.70452,"lng":136.947921,"zip":"4703300"},{"town":"大字豊丘","koaza":"森添","lat":34.740324,"lng":136.94819,"zip":"4703300"},{"town":"大字豊浜","koaza":"西山口","lat":34.705839,"lng":136.948367,"zip":"4703300"},{"town":"大字豊浜","koaza":"小佐ケ丘","lat":34.706147,"lng":136.950569,"zip":"4703300"},{"town":"大字豊浜","koaza":"郷田","lat":34.703148,"lng":136.948862,"zip":"4703300"},{"town":"大字大井","koaza":"釜山","lat":34.730687,"lng":136.952238,"zip":"4703300"},{"town":"大字大井","koaza":"和田ケ丘","lat":34.73584,"lng":136.951415,"zip":"4703300"},{"town":"大字豊浜","koaza":"社宮司","lat":34.705931,"lng":136.951923,"zip":"4703300"},{"town":"大字大井","koaza":"西田面","lat":34.717757,"lng":136.952523,"zip":"4703300"},{"town":"大字豊浜","koaza":"草花","lat":34.701114,"lng":136.953116,"zip":"4703300"},{"town":"大字大井","koaza":"中根","lat":34.728934,"lng":136.954416,"zip":"4703300"},{"town":"大字大井","koaza":"松ケ平","lat":34.735517,"lng":136.954561,"zip":"4703300"},{"town":"大字大井","koaza":"郷見台","lat":34.725781,"lng":136.957404,"zip":"4703300"},{"town":"大字大井","koaza":"山ノ手","lat":34.721226,"lng":136.957996,"zip":"4703300"},{"town":"大字豊浜","koaza":"廻間","lat":34.703648,"lng":136.957942,"zip":"4703300"},{"town":"大字大井","koaza":"井ケ奥","lat":34.71747,"lng":136.958428,"zip":"4703300"},{"town":"大字大井","koaza":"上二本松","lat":34.728057,"lng":136.95589,"zip":"4703300"},{"town":"大字大井","koaza":"丘ノ上","lat":34.719677,"lng":136.957416,"zip":"4703300"},{"town":"大字片名","koaza":"長谷ケ丘","lat":34.715867,"lng":136.959542,"zip":"4703300"},{"town":"大字大井","koaza":"大海田","lat":34.734747,"lng":136.957686,"zip":"4703300"},{"town":"大字大井","koaza":"緑ケ丘","lat":34.731498,"lng":136.960355,"zip":"4703300"},{"town":"大字大井","koaza":"下二本松","lat":34.727581,"lng":136.957436,"zip":"4703300"},{"town":"大字大井","koaza":"丘ノ下","lat":34.719992,"lng":136.958395,"zip":"4703300"},{"town":"大字大井","koaza":"三ケ月","lat":34.734383,"lng":136.958227,"zip":"4703300"},{"town":"大字大井","koaza":"堰口","lat":34.720691,"lng":136.958072,"zip":"4703300"},{"town":"大字師崎","koaza":"中狭間","lat":34.705729,"lng":136.960659,"zip":"4703300"},{"town":"大字大井","koaza":"真向","lat":34.719574,"lng":136.96057,"zip":"4703300"},{"town":"大字大井","koaza":"上ノ山","lat":34.718608,"lng":136.959375,"zip":"4703300"},{"town":"大字大井","koaza":"小海田","lat":34.729963,"lng":136.962105,"zip":"4703300"},{"town":"大字大井","koaza":"入道","lat":34.722525,"lng":136.959224,"zip":"4703300"},{"town":"大字大井","koaza":"塩屋","lat":34.723081,"lng":136.961305,"zip":"4703300"},{"town":"大字大井","koaza":"五郎ケ奥","lat":34.725861,"lng":136.961859,"zip":"4703300"},{"town":"大字大井","koaza":"東園","lat":34.728398,"lng":136.963141,"zip":"4703300"},{"town":"大字大井","koaza":"江崎","lat":34.721236,"lng":136.959773,"zip":"4703300"},{"town":"大字師崎","koaza":"口狭間","lat":34.703697,"lng":136.961945,"zip":"4703300"},{"town":"大字大井","koaza":"北側","lat":34.721631,"lng":136.962774,"zip":"4703300"},{"town":"大字大井","koaza":"高辺","lat":34.717591,"lng":136.964948,"zip":"4703300"},{"town":"大字大井","koaza":"南側","lat":34.718924,"lng":136.961739,"zip":"4703300"},{"town":"大字片名","koaza":"西海戸","lat":34.713908,"lng":136.963462,"zip":"4703300"},{"town":"大字大井","koaza":"銭亀","lat":34.733606,"lng":136.962364,"zip":"4703300"},{"town":"大字大井","koaza":"小脇","lat":34.732722,"lng":136.962825,"zip":"4703300"},{"town":"大字片名","koaza":"向畑","lat":34.711537,"lng":136.963649,"zip":"4703300"},{"town":"大字大井","koaza":"小浜","lat":34.723477,"lng":136.964059,"zip":"4703300"},{"town":"大字大井","koaza":"聖崎","lat":34.717971,"lng":136.9658,"zip":"4703300"},{"town":"大字片名","koaza":"大坪","lat":34.714304,"lng":136.962517,"zip":"4703300"},{"town":"大字師崎","koaza":"丸山","lat":34.704158,"lng":136.966989,"zip":"4703300"},{"town":"大字片名","koaza":"後山","lat":34.715927,"lng":136.964624,"zip":"4703300"},{"town":"大字大井","koaza":"間哉","lat":34.73141,"lng":136.963873,"zip":"4703300"},{"town":"大字片名","koaza":"黒地","lat":34.707155,"lng":136.968013,"zip":"4703300"},{"town":"大字大井","koaza":"山田","lat":34.726202,"lng":136.964686,"zip":"4703300"},{"town":"大字片名","koaza":"川田","lat":34.713202,"lng":136.964167,"zip":"4703300"},{"town":"大字片名","koaza":"矢篭","lat":34.716845,"lng":136.965337,"zip":"4703300"},{"town":"大字大井","koaza":"葦廻間","lat":34.727871,"lng":136.96542,"zip":"4703300"},{"town":"大字片名","koaza":"新津","lat":34.710288,"lng":136.965531,"zip":"4703300"},{"town":"大字片名","koaza":"稗田","lat":34.713306,"lng":136.965341,"zip":"4703300"},{"town":"大字大井","koaza":"浜辺","lat":34.728989,"lng":136.966426,"zip":"4703300"},{"town":"大字師崎","koaza":"高岩","lat":34.701811,"lng":136.966887,"zip":"4703300"},{"town":"大字片名","koaza":"郷中","lat":34.71185,"lng":136.967316,"zip":"4703300"},{"town":"大字片名","koaza":"長谷","lat":34.716987,"lng":136.968582,"zip":"4703300"},{"town":"大字大井","koaza":"鳶ケ崎","lat":34.724468,"lng":136.968056,"zip":"4703300"},{"town":"大字片名","koaza":"亀井戸","lat":34.709719,"lng":136.96654,"zip":"4703300"},{"town":"大字片名","koaza":"長廻間","lat":34.71015,"lng":136.966825,"zip":"4703300"},{"town":"大字片名","koaza":"新師崎","lat":34.70804,"lng":136.970471,"zip":"4703300"},{"town":"大字片名","koaza":"於更","lat":34.7138,"lng":136.96909,"zip":"4703300"},{"town":"大字師崎","koaza":"天神山","lat":34.699355,"lng":136.968491,"zip":"4703300"},{"town":"大字師崎","koaza":"折戸","lat":34.700333,"lng":136.968435,"zip":"4703300"},{"town":"大字師崎","koaza":"新町","lat":34.702448,"lng":136.969617,"zip":"4703300"},{"town":"大字師崎","koaza":"宝陸","lat":34.705881,"lng":136.969339,"zip":"4703300"},{"town":"大字師崎","koaza":"日影","lat":34.701167,"lng":136.969035,"zip":"4703300"},{"town":"大字師崎","koaza":"山ノ神","lat":34.70053,"lng":136.969772,"zip":"4703300"},{"town":"大字片名","koaza":"蛭子","lat":34.713568,"lng":136.970247,"zip":"4703300"},{"town":"大字師崎","koaza":"的場","lat":34.699784,"lng":136.970498,"zip":"4703300"},{"town":"大字師崎","koaza":"乙坂","lat":34.70603,"lng":136.969497,"zip":"4703300"},{"town":"大字片名","koaza":"浜山","lat":34.715415,"lng":136.970413,"zip":"4703300"},{"town":"大字師崎","koaza":"松田","lat":34.70312,"lng":136.969698,"zip":"4703300"},{"town":"大字片名","koaza":"田尻","lat":34.714802,"lng":136.970983,"zip":"4703300"},{"town":"大字師崎","koaza":"明神山","lat":34.697052,"lng":136.972444,"zip":"4703300"},{"town":"大字師崎","koaza":"神戸浦","lat":34.704555,"lng":136.972068,"zip":"4703300"},{"town":"大字師崎","koaza":"鳥西","lat":34.701131,"lng":136.971329,"zip":"4703300"},{"town":"大字師崎","koaza":"上ノ山","lat":34.701832,"lng":136.97204,"zip":"4703300"},{"town":"大字師崎","koaza":"浅間山","lat":34.703006,"lng":136.972794,"zip":"4703300"},{"town":"大字師崎","koaza":"寺脇","lat":34.702487,"lng":136.972519,"zip":"4703300"},{"town":"大字師崎","koaza":"向島","lat":34.70054,"lng":136.972521,"zip":"4703300"},{"town":"大字師崎","koaza":"鳥東","lat":34.701106,"lng":136.972291,"zip":"4703300"},{"town":"大字師崎","koaza":"栄村","lat":34.702053,"lng":136.972731,"zip":"4703300"},{"town":"大字師崎","koaza":"朝日町","lat":34.701481,"lng":136.973541,"zip":"4703300"},{"town":"大字師崎","koaza":"荒井","lat":34.703052,"lng":136.974092,"zip":"4703300"},{"town":"大字師崎","koaza":"林崎","lat":34.70403,"lng":136.974517,"zip":"4703300"}]