[{"town":"字青木ケ丘一丁目","koaza":"","lat":34.855487,"lng":136.905125,"zip":"4702300"},{"town":"字青木ケ丘二丁目","koaza":"","lat":34.855989,"lng":136.90688,"zip":"4702300"},{"town":"字上ケ","koaza":"","lat":34.856451,"lng":136.919988,"zip":"4702300"},{"town":"字旭","koaza":"","lat":34.834217,"lng":136.926306,"zip":"4702300"},{"town":"字旭ケ丘一丁目","koaza":"","lat":34.843986,"lng":136.903929,"zip":"4702300"},{"town":"字旭ケ丘二丁目","koaza":"","lat":34.844521,"lng":136.906108,"zip":"4702300"},{"town":"字旭ケ丘三丁目","koaza":"","lat":34.845394,"lng":136.907381,"zip":"4702300"},{"town":"字浅水","koaza":"","lat":34.864402,"lng":136.919853,"zip":"4702300"},{"town":"字池田一丁目","koaza":"","lat":34.861728,"lng":136.914686,"zip":"4702300"},{"town":"字池田二丁目","koaza":"","lat":34.860223,"lng":136.915393,"zip":"4702300"},{"town":"字石川","koaza":"","lat":34.868037,"lng":136.92015,"zip":"4702300"},{"town":"字石田","koaza":"","lat":34.844048,"lng":136.913082,"zip":"4702300"},{"town":"字一号地","koaza":"","lat":34.844269,"lng":136.927209,"zip":"4702300"},{"town":"字壱町田","koaza":"","lat":34.869617,"lng":136.892843,"zip":"4702300"},{"town":"字後田","koaza":"","lat":34.850601,"lng":136.91924,"zip":"4702300"},{"town":"字後畑","koaza":"","lat":34.848427,"lng":136.923266,"zip":"4702300"},{"town":"字内かんな","koaza":"","lat":34.862073,"lng":136.919052,"zip":"4702300"},{"town":"字会下","koaza":"","lat":34.842187,"lng":136.888943,"zip":"4702300"},{"town":"字ヱケ屋敷","koaza":"","lat":34.859642,"lng":136.91796,"zip":"4702300"},{"town":"字ヲヲガケ","koaza":"","lat":34.842827,"lng":136.900847,"zip":"4702300"},{"town":"字大屋敷","koaza":"","lat":34.845817,"lng":136.91912,"zip":"4702300"},{"town":"字金下","koaza":"","lat":34.85342,"lng":136.921591,"zip":"4702300"},{"town":"字鹿ノ子田一丁目","koaza":"","lat":34.870646,"lng":136.902,"zip":"4702300"},{"town":"字鹿ノ子田二丁目","koaza":"","lat":34.869249,"lng":136.906766,"zip":"4702300"},{"town":"字上起","koaza":"","lat":34.842839,"lng":136.905092,"zip":"4702300"},{"town":"字上原","koaza":"","lat":34.838119,"lng":136.886838,"zip":"4702300"},{"town":"字上山一丁目","koaza":"","lat":34.855438,"lng":136.892922,"zip":"4702300"},{"town":"字上山二丁目","koaza":"","lat":34.856382,"lng":136.895795,"zip":"4702300"},{"town":"字上山三丁目","koaza":"","lat":34.854932,"lng":136.896419,"zip":"4702300"},{"town":"字上山ノ田","koaza":"","lat":34.860494,"lng":136.891885,"zip":"4702300"},{"town":"字川尻","koaza":"","lat":34.845848,"lng":136.913108,"zip":"4702300"},{"town":"字川脇","koaza":"","lat":34.850594,"lng":136.92183,"zip":"4702300"},{"town":"字北曲輪","koaza":"","lat":34.86793,"lng":136.923935,"zip":"4702300"},{"town":"字北小松谷","koaza":"","lat":34.847751,"lng":136.893392,"zip":"4702300"},{"town":"字北新田","koaza":"","lat":34.845158,"lng":136.917548,"zip":"4702300"},{"town":"字北中根一丁目","koaza":"","lat":34.852741,"lng":136.897889,"zip":"4702300"},{"town":"字北中根二丁目","koaza":"","lat":34.853002,"lng":136.899378,"zip":"4702300"},{"town":"字北中根三丁目","koaza":"","lat":34.853331,"lng":136.900637,"zip":"4702300"},{"town":"字北中根四丁目","koaza":"","lat":34.854285,"lng":136.903629,"zip":"4702300"},{"town":"字北中根五丁目","koaza":"","lat":34.852521,"lng":136.902228,"zip":"4702300"},{"town":"字北中根六丁目","koaza":"","lat":34.852273,"lng":136.904349,"zip":"4702300"},{"town":"字北長宗","koaza":"","lat":34.858523,"lng":136.907679,"zip":"4702300"},{"town":"字九号地","koaza":"","lat":34.864553,"lng":136.933201,"zip":"4702300"},{"town":"字草口","koaza":"","lat":34.844638,"lng":136.914949,"zip":"4702300"},{"town":"字楠一丁目","koaza":"","lat":34.85009,"lng":136.907112,"zip":"4702300"},{"town":"字楠二丁目","koaza":"","lat":34.848173,"lng":136.908176,"zip":"4702300"},{"town":"字楠三丁目","koaza":"","lat":34.849417,"lng":136.906107,"zip":"4702300"},{"town":"字楠四丁目","koaza":"","lat":34.847998,"lng":136.904835,"zip":"4702300"},{"town":"字楠五丁目","koaza":"","lat":34.847259,"lng":136.907289,"zip":"4702300"},{"town":"字口田","koaza":"","lat":34.861423,"lng":136.920615,"zip":"4702300"},{"town":"字熊野","koaza":"","lat":34.847875,"lng":136.919414,"zip":"4702300"},{"town":"字向陽一丁目","koaza":"","lat":34.848853,"lng":136.910598,"zip":"4702300"},{"town":"字向陽二丁目","koaza":"","lat":34.848561,"lng":136.912573,"zip":"4702300"},{"town":"字向陽三丁目","koaza":"","lat":34.84773,"lng":136.912597,"zip":"4702300"},{"town":"字向陽四丁目","koaza":"","lat":34.847446,"lng":136.909724,"zip":"4702300"},{"town":"字向陽五丁目","koaza":"","lat":34.846145,"lng":136.908963,"zip":"4702300"},{"town":"字五号地","koaza":"","lat":34.853656,"lng":136.931554,"zip":"4702300"},{"town":"字小迎","koaza":"","lat":34.854385,"lng":136.923427,"zip":"4702300"},{"town":"字桜ケ丘一丁目","koaza":"","lat":34.851155,"lng":136.902761,"zip":"4702300"},{"town":"字桜ケ丘二丁目","koaza":"","lat":34.850531,"lng":136.90503,"zip":"4702300"},{"town":"字桜ケ丘三丁目","koaza":"","lat":34.849698,"lng":136.903059,"zip":"4702300"},{"town":"字桜ケ丘四丁目","koaza":"","lat":34.848977,"lng":136.902161,"zip":"4702300"},{"town":"字里中","koaza":"","lat":34.845503,"lng":136.922102,"zip":"4702300"},{"town":"字沢田新田","koaza":"","lat":34.855621,"lng":136.926376,"zip":"4702300"},{"town":"字三号地","koaza":"","lat":34.838245,"lng":136.930245,"zip":"4702300"},{"town":"字塩田","koaza":"","lat":34.86284,"lng":136.922465,"zip":"4702300"},{"town":"字下門","koaza":"","lat":34.858325,"lng":136.918021,"zip":"4702300"},{"town":"字嶋田","koaza":"","lat":34.839356,"lng":136.897455,"zip":"4702300"},{"town":"字下起","koaza":"","lat":34.843829,"lng":136.909335,"zip":"4702300"},{"town":"字下田","koaza":"","lat":34.840297,"lng":136.921928,"zip":"4702300"},{"town":"字下原","koaza":"","lat":34.842142,"lng":136.892254,"zip":"4702300"},{"town":"字下山ノ田","koaza":"","lat":34.860837,"lng":136.897543,"zip":"4702300"},{"town":"字砂川一丁目","koaza":"","lat":34.868173,"lng":136.912378,"zip":"4702300"},{"town":"字砂川二丁目","koaza":"","lat":34.865408,"lng":136.9125,"zip":"4702300"},{"town":"字砂川三丁目","koaza":"","lat":34.866022,"lng":136.914797,"zip":"4702300"},{"town":"字瀬木","koaza":"","lat":34.849344,"lng":136.91548,"zip":"4702300"},{"town":"字大門田","koaza":"","lat":34.840793,"lng":136.906219,"zip":"4702300"},{"town":"字多賀一丁目","koaza":"","lat":34.849248,"lng":136.896584,"zip":"4702300"},{"town":"字多賀二丁目","koaza":"","lat":34.848104,"lng":136.899776,"zip":"4702300"},{"town":"字多賀三丁目","koaza":"","lat":34.846548,"lng":136.899547,"zip":"4702300"},{"town":"字多賀四丁目","koaza":"","lat":34.84749,"lng":136.897179,"zip":"4702300"},{"town":"字多賀五丁目","koaza":"","lat":34.844641,"lng":136.897754,"zip":"4702300"},{"town":"字多賀六丁目","koaza":"","lat":34.845527,"lng":136.899135,"zip":"4702300"},{"town":"字多賀七丁目","koaza":"","lat":34.843903,"lng":136.899691,"zip":"4702300"},{"town":"字多賀八丁目","koaza":"","lat":34.846428,"lng":136.896031,"zip":"4702300"},{"town":"字高野前","koaza":"","lat":34.855379,"lng":136.918958,"zip":"4702300"},{"town":"字田崎","koaza":"","lat":34.848824,"lng":136.918133,"zip":"4702300"},{"town":"字谷口","koaza":"","lat":34.856366,"lng":136.909486,"zip":"4702300"},{"town":"字蛇ケ谷","koaza":"","lat":34.864976,"lng":136.893281,"zip":"4702300"},{"town":"字忠白田","koaza":"","lat":34.842792,"lng":136.92304,"zip":"4702300"},{"town":"字中蓮","koaza":"","lat":34.867268,"lng":136.916907,"zip":"4702300"},{"town":"字甚田","koaza":"","lat":34.841864,"lng":136.896121,"zip":"4702300"},{"town":"字土穴","koaza":"","lat":34.847117,"lng":136.917219,"zip":"4702300"},{"town":"字天神前一丁目","koaza":"","lat":34.862004,"lng":136.91223,"zip":"4702300"},{"town":"字天神前二丁目","koaza":"","lat":34.860334,"lng":136.91299,"zip":"4702300"},{"town":"字道崎","koaza":"","lat":34.849914,"lng":136.914766,"zip":"4702300"},{"town":"字道崎田","koaza":"","lat":34.848228,"lng":136.915213,"zip":"4702300"},{"town":"字道仙田","koaza":"","lat":34.846976,"lng":136.924785,"zip":"4702300"},{"town":"字長尾山","koaza":"","lat":34.852687,"lng":136.915143,"zip":"4702300"},{"town":"字中根一丁目","koaza":"","lat":34.854049,"lng":136.907798,"zip":"4702300"},{"town":"字中根二丁目","koaza":"","lat":34.852522,"lng":136.908674,"zip":"4702300"},{"town":"字中根三丁目","koaza":"","lat":34.854675,"lng":136.910433,"zip":"4702300"},{"town":"字中根四丁目","koaza":"","lat":34.854515,"lng":136.913244,"zip":"4702300"},{"town":"字中根五丁目","koaza":"","lat":34.852939,"lng":136.912339,"zip":"4702300"},{"town":"字中狭","koaza":"","lat":34.864808,"lng":136.917528,"zip":"4702300"},{"town":"字長峰","koaza":"","lat":34.841264,"lng":136.918734,"zip":"4702300"},{"town":"字長宗一丁目","koaza":"","lat":34.856577,"lng":136.903466,"zip":"4702300"},{"town":"字長宗二丁目","koaza":"","lat":34.858514,"lng":136.905175,"zip":"4702300"},{"town":"字中山一丁目","koaza":"","lat":34.856202,"lng":136.898445,"zip":"4702300"},{"town":"字中山二丁目","koaza":"","lat":34.857881,"lng":136.900977,"zip":"4702300"},{"town":"字中山三丁目","koaza":"","lat":34.855011,"lng":136.900204,"zip":"4702300"},{"town":"字梨子ノ木","koaza":"","lat":34.866934,"lng":136.899387,"zip":"4702300"},{"town":"字梨子ノ木一丁目","koaza":"","lat":34.868707,"lng":136.903773,"zip":"4702300"},{"town":"字梨子ノ木二丁目","koaza":"","lat":34.866847,"lng":136.904615,"zip":"4702300"},{"town":"字梨子ノ木三丁目","koaza":"","lat":34.866713,"lng":136.906293,"zip":"4702300"},{"town":"字七号地","koaza":"","lat":34.862097,"lng":136.926045,"zip":"4702300"},{"town":"字二ケ崎一丁目","koaza":"","lat":34.864591,"lng":136.914681,"zip":"4702300"},{"town":"字二ケ崎二丁目","koaza":"","lat":34.863083,"lng":136.913899,"zip":"4702300"},{"town":"字西田崎","koaza":"","lat":34.848644,"lng":136.916335,"zip":"4702300"},{"town":"字西門","koaza":"","lat":34.85383,"lng":136.91919,"zip":"4702300"},{"town":"字白山","koaza":"","lat":34.842683,"lng":136.913154,"zip":"4702300"},{"town":"字廻間","koaza":"","lat":34.840597,"lng":136.92047,"zip":"4702300"},{"town":"字原田","koaza":"","lat":34.840365,"lng":136.891328,"zip":"4702300"},{"town":"字原屋敷","koaza":"","lat":34.838461,"lng":136.889728,"zip":"4702300"},{"town":"字東長宗","koaza":"","lat":34.858592,"lng":136.910445,"zip":"4702300"},{"town":"字ヒジリ田","koaza":"","lat":34.857797,"lng":136.92295,"zip":"4702300"},{"town":"字壱畝町","koaza":"","lat":34.841302,"lng":136.900901,"zip":"4702300"},{"town":"字平井一丁目","koaza":"","lat":34.863892,"lng":136.909106,"zip":"4702300"},{"town":"字平井二丁目","koaza":"","lat":34.861894,"lng":136.908243,"zip":"4702300"},{"town":"字平井三丁目","koaza":"","lat":34.862219,"lng":136.906347,"zip":"4702300"},{"town":"字平井四丁目","koaza":"","lat":34.86133,"lng":136.904271,"zip":"4702300"},{"town":"字平井五丁目","koaza":"","lat":34.860515,"lng":136.906359,"zip":"4702300"},{"town":"字平井六丁目","koaza":"","lat":34.860408,"lng":136.910333,"zip":"4702300"},{"town":"字平井七丁目","koaza":"","lat":34.861733,"lng":136.910173,"zip":"4702300"},{"town":"字平井田","koaza":"","lat":34.861116,"lng":136.902646,"zip":"4702300"},{"town":"字平井畑","koaza":"","lat":34.859489,"lng":136.911874,"zip":"4702300"},{"town":"字二ツ峯","koaza":"","lat":34.871716,"lng":136.885062,"zip":"4702300"},{"town":"字平海道","koaza":"","lat":34.848732,"lng":136.921284,"zip":"4702300"},{"town":"字豊成一丁目","koaza":"","lat":34.86802,"lng":136.914683,"zip":"4702300"},{"town":"字豊成二丁目","koaza":"","lat":34.87014,"lng":136.908331,"zip":"4702300"},{"town":"字豊成三丁目","koaza":"","lat":34.871251,"lng":136.903213,"zip":"4702300"},{"town":"字祠峯一丁目","koaza":"","lat":34.868346,"lng":136.910499,"zip":"4702300"},{"town":"字祠峯二丁目","koaza":"","lat":34.865463,"lng":136.911034,"zip":"4702300"},{"town":"字祠峯三丁目","koaza":"","lat":34.86678,"lng":136.908614,"zip":"4702300"},{"town":"字堀割","koaza":"","lat":34.850904,"lng":136.923824,"zip":"4702300"},{"town":"字前田","koaza":"","lat":34.859155,"lng":136.921098,"zip":"4702300"},{"town":"字前畑","koaza":"","lat":34.843187,"lng":136.921452,"zip":"4702300"},{"town":"字緑台一丁目","koaza":"","lat":34.85133,"lng":136.897,"zip":"4702300"},{"town":"字緑台二丁目","koaza":"","lat":34.850693,"lng":136.899877,"zip":"4702300"},{"town":"字緑台三丁目","koaza":"","lat":34.849648,"lng":136.899715,"zip":"4702300"},{"town":"字緑台四丁目","koaza":"","lat":34.850201,"lng":136.896804,"zip":"4702300"},{"town":"字緑台五丁目","koaza":"","lat":34.850847,"lng":136.89446,"zip":"4702300"},{"town":"字緑台六丁目","koaza":"","lat":34.852832,"lng":136.89509,"zip":"4702300"},{"town":"字南起","koaza":"","lat":34.842468,"lng":136.908215,"zip":"4702300"},{"town":"字南小松谷","koaza":"","lat":34.845454,"lng":136.887319,"zip":"4702300"},{"town":"字南中根","koaza":"","lat":34.850986,"lng":136.909394,"zip":"4702300"},{"town":"字明神戸","koaza":"","lat":34.850375,"lng":136.924961,"zip":"4702300"},{"town":"字向田","koaza":"","lat":34.845646,"lng":136.911003,"zip":"4702300"},{"town":"字迎戸","koaza":"","lat":34.852165,"lng":136.916571,"zip":"4702300"},{"town":"字目堀","koaza":"","lat":34.846397,"lng":136.91522,"zip":"4702300"},{"town":"字山起","koaza":"","lat":34.843368,"lng":136.91894,"zip":"4702300"},{"town":"字山ノ神","koaza":"","lat":34.857344,"lng":136.914178,"zip":"4702300"},{"town":"字四畝","koaza":"","lat":34.842561,"lng":136.916611,"zip":"4702300"},{"town":"字竜宮","koaza":"","lat":34.82074,"lng":136.923613,"zip":"4702300"},{"town":"字六貫山一丁目","koaza":"","lat":34.847378,"lng":136.902398,"zip":"4702300"},{"town":"字六貫山二丁目","koaza":"","lat":34.846422,"lng":136.905779,"zip":"4702300"},{"town":"字六貫山三丁目","koaza":"","lat":34.844952,"lng":136.904045,"zip":"4702300"},{"town":"字六貫山四丁目","koaza":"","lat":34.845803,"lng":136.902572,"zip":"4702300"},{"town":"字六貫山五丁目","koaza":"","lat":34.844602,"lng":136.902215,"zip":"4702300"},{"town":"字若宮","koaza":"","lat":34.861882,"lng":136.917403,"zip":"4702300"},{"town":"大字東大高","koaza":"","lat":34.836686,"lng":136.907671,"zip":"4702300"},{"town":"大字冨貴","koaza":"","lat":34.823662,"lng":136.901793,"zip":"4702300"},{"town":"大字冨貴","koaza":"南曽原","lat":34.828532,"lng":136.886729,"zip":"4702300"},{"town":"大字冨貴","koaza":"深谷","lat":34.823257,"lng":136.887113,"zip":"4702300"},{"town":"大字冨貴","koaza":"大谷道","lat":34.83468,"lng":136.893566,"zip":"4702300"},{"town":"大字冨貴","koaza":"権兵衛新田","lat":34.817168,"lng":136.886225,"zip":"4702300"},{"town":"大字東大高","koaza":"山","lat":34.836242,"lng":136.896412,"zip":"4702300"},{"town":"大字冨貴","koaza":"上別曽","lat":34.819988,"lng":136.888201,"zip":"4702300"},{"town":"大字冨貴","koaza":"下別曽","lat":34.824749,"lng":136.890683,"zip":"4702300"},{"town":"大字冨貴","koaza":"新砂","lat":34.83331,"lng":136.89402,"zip":"4702300"},{"town":"大字冨貴","koaza":"曽原","lat":34.832975,"lng":136.892393,"zip":"4702300"},{"town":"大字冨貴","koaza":"森南","lat":34.830073,"lng":136.895082,"zip":"4702300"},{"town":"大字冨貴","koaza":"中田","lat":34.827087,"lng":136.89396,"zip":"4702300"},{"town":"大字冨貴","koaza":"西迎","lat":34.831611,"lng":136.896391,"zip":"4702300"},{"town":"大字冨貴","koaza":"黒山","lat":34.822322,"lng":136.895225,"zip":"4702300"},{"town":"大字冨貴","koaza":"兎山","lat":34.816452,"lng":136.894345,"zip":"4702300"},{"town":"大字冨貴","koaza":"中割","lat":34.83404,"lng":136.895023,"zip":"4702300"},{"town":"大字冨貴","koaza":"樋口","lat":34.826576,"lng":136.895216,"zip":"4702300"},{"town":"大字冨貴","koaza":"高代","lat":34.824915,"lng":136.898136,"zip":"4702300"},{"town":"大字冨貴","koaza":"後田面","lat":34.832772,"lng":136.897861,"zip":"4702300"},{"town":"大字冨貴","koaza":"久原","lat":34.81773,"lng":136.901719,"zip":"4702300"},{"town":"大字冨貴","koaza":"樽田","lat":34.826757,"lng":136.896663,"zip":"4702300"},{"town":"大字冨貴","koaza":"丸山","lat":34.835621,"lng":136.896814,"zip":"4702300"},{"town":"大字冨貴","koaza":"細池","lat":34.819339,"lng":136.899248,"zip":"4702300"},{"town":"大字冨貴","koaza":"前田側","lat":34.827472,"lng":136.897491,"zip":"4702300"},{"town":"大字冨貴","koaza":"森東","lat":34.830492,"lng":136.89723,"zip":"4702300"},{"town":"大字冨貴","koaza":"西畑","lat":34.830548,"lng":136.900034,"zip":"4702300"},{"town":"大字冨貴","koaza":"寺後","lat":34.831434,"lng":136.900078,"zip":"4702300"},{"town":"大字冨貴","koaza":"シッペイ","lat":34.828412,"lng":136.90349,"zip":"4702300"},{"town":"大字冨貴","koaza":"寺東","lat":34.830353,"lng":136.901472,"zip":"4702300"},{"town":"大字冨貴","koaza":"前畑","lat":34.829689,"lng":136.901092,"zip":"4702300"},{"town":"大字東大高","koaza":"上矢田平","lat":34.834729,"lng":136.90296,"zip":"4702300"},{"town":"大字冨貴","koaza":"道廻間","lat":34.823817,"lng":136.906742,"zip":"4702300"},{"town":"大字冨貴","koaza":"道兼","lat":34.828216,"lng":136.9054,"zip":"4702300"},{"town":"大字東大高","koaza":"大高山","lat":34.835951,"lng":136.903019,"zip":"4702300"},{"town":"大字東大高","koaza":"下矢田平","lat":34.837708,"lng":136.902737,"zip":"4702300"},{"town":"大字東大高","koaza":"雲霞山","lat":34.838614,"lng":136.902753,"zip":"4702300"},{"town":"大字冨貴","koaza":"影井","lat":34.830223,"lng":136.903379,"zip":"4702300"},{"town":"大字冨貴","koaza":"石田","lat":34.822733,"lng":136.908617,"zip":"4702300"},{"town":"大字冨貴","koaza":"稲荷","lat":34.817228,"lng":136.909833,"zip":"4702300"},{"town":"大字東大高","koaza":"瓶竈","lat":34.83368,"lng":136.904511,"zip":"4702300"},{"town":"大字冨貴","koaza":"酉新田","lat":34.819078,"lng":136.909054,"zip":"4702300"},{"town":"大字東大高","koaza":"新田畑","lat":34.835449,"lng":136.904846,"zip":"4702300"},{"town":"大字東大高","koaza":"鎮守","lat":34.834459,"lng":136.907794,"zip":"4702300"},{"town":"大字冨貴","koaza":"南新川","lat":34.83177,"lng":136.90986,"zip":"4702300"},{"town":"大字東大高","koaza":"玉林","lat":34.838215,"lng":136.906239,"zip":"4702300"},{"town":"大字冨貴","koaza":"西側","lat":34.826516,"lng":136.908126,"zip":"4702300"},{"town":"大字冨貴","koaza":"中道","lat":34.827517,"lng":136.909269,"zip":"4702300"},{"town":"大字冨貴","koaza":"一ノ坪","lat":34.8297,"lng":136.908489,"zip":"4702300"},{"town":"大字東大高","koaza":"清水","lat":34.839826,"lng":136.909226,"zip":"4702300"},{"town":"大字冨貴","koaza":"薄里","lat":34.829173,"lng":136.90873,"zip":"4702300"},{"town":"大字冨貴","koaza":"新田前","lat":34.823236,"lng":136.911415,"zip":"4702300"},{"town":"大字東大高","koaza":"南アラ畑","lat":34.835025,"lng":136.909143,"zip":"4702300"},{"town":"大字冨貴","koaza":"寺西","lat":34.826506,"lng":136.909608,"zip":"4702300"},{"town":"大字冨貴","koaza":"前田","lat":34.825251,"lng":136.910584,"zip":"4702300"},{"town":"大字東大高","koaza":"大師田","lat":34.834464,"lng":136.910275,"zip":"4702300"},{"town":"大字東大高","koaza":"並松","lat":34.837142,"lng":136.909508,"zip":"4702300"},{"town":"大字東大高","koaza":"熊野西","lat":34.838619,"lng":136.911381,"zip":"4702300"},{"town":"大字冨貴","koaza":"中根","lat":34.820641,"lng":136.912403,"zip":"4702300"},{"town":"大字東大高","koaza":"アラ畑","lat":34.835634,"lng":136.910658,"zip":"4702300"},{"town":"大字冨貴","koaza":"宮前","lat":34.82949,"lng":136.910725,"zip":"4702300"},{"town":"大字東大高","koaza":"北新川","lat":34.834293,"lng":136.913412,"zip":"4702300"},{"town":"大字冨貴","koaza":"郷南","lat":34.827147,"lng":136.911712,"zip":"4702300"},{"town":"大字東大高","koaza":"熊野後","lat":34.840541,"lng":136.912084,"zip":"4702300"},{"town":"大字冨貴","koaza":"郷北","lat":34.829463,"lng":136.913378,"zip":"4702300"},{"town":"大字東大高","koaza":"川南","lat":34.835049,"lng":136.911642,"zip":"4702300"},{"town":"大字東大高","koaza":"光明寺","lat":34.836621,"lng":136.912024,"zip":"4702300"},{"town":"大字冨貴","koaza":"上椎ノ木","lat":34.817828,"lng":136.911809,"zip":"4702300"},{"town":"大字冨貴","koaza":"海道","lat":34.830579,"lng":136.912567,"zip":"4702300"},{"town":"大字冨貴","koaza":"上石神","lat":34.815218,"lng":136.914065,"zip":"4702300"},{"town":"大字東大高","koaza":"郷道南","lat":34.834835,"lng":136.913745,"zip":"4702300"},{"town":"大字東大高","koaza":"池下","lat":34.837586,"lng":136.91265,"zip":"4702300"},{"town":"大字東大高","koaza":"中瀬郷","lat":34.836166,"lng":136.913088,"zip":"4702300"},{"town":"大字東大高","koaza":"烏田","lat":34.834274,"lng":136.912464,"zip":"4702300"},{"town":"大字冨貴","koaza":"外面","lat":34.829132,"lng":136.915559,"zip":"4702300"},{"town":"大字冨貴","koaza":"外前田","lat":34.827585,"lng":136.915354,"zip":"4702300"},{"town":"大字東大高","koaza":"中池下","lat":34.840451,"lng":136.914391,"zip":"4702300"},{"town":"大字冨貴","koaza":"新田","lat":34.821015,"lng":136.915968,"zip":"4702300"},{"town":"大字冨貴","koaza":"林平井","lat":34.82491,"lng":136.915389,"zip":"4702300"},{"town":"大字東大高","koaza":"土穴","lat":34.837112,"lng":136.915498,"zip":"4702300"},{"town":"大字東大高","koaza":"長田","lat":34.834693,"lng":136.915428,"zip":"4702300"},{"town":"大字東大高","koaza":"郷道東","lat":34.835682,"lng":136.915314,"zip":"4702300"},{"town":"大字東大高","koaza":"知里付","lat":34.83419,"lng":136.915772,"zip":"4702300"},{"town":"大字東大高","koaza":"本田","lat":34.835408,"lng":136.916551,"zip":"4702300"},{"town":"大字東大高","koaza":"野中","lat":34.83893,"lng":136.915913,"zip":"4702300"},{"town":"大字東大高","koaza":"西長峰","lat":34.840519,"lng":136.917697,"zip":"4702300"},{"town":"大字冨貴","koaza":"小桜","lat":34.826372,"lng":136.91689,"zip":"4702300"},{"town":"大字冨貴","koaza":"東椎ノ木","lat":34.820763,"lng":136.915114,"zip":"4702300"},{"town":"大字冨貴","koaza":"東門","lat":34.831998,"lng":136.918301,"zip":"4702300"},{"town":"大字冨貴","koaza":"下石神","lat":34.815368,"lng":136.918468,"zip":"4702300"},{"town":"大字冨貴","koaza":"茶ノ木","lat":34.822291,"lng":136.917667,"zip":"4702300"},{"town":"大字冨貴","koaza":"大塚","lat":34.823875,"lng":136.916873,"zip":"4702300"},{"town":"大字東大高","koaza":"池田","lat":34.837755,"lng":136.918364,"zip":"4702300"},{"town":"大字冨貴","koaza":"砂水","lat":34.825625,"lng":136.919092,"zip":"4702300"},{"town":"大字冨貴","koaza":"北側","lat":34.831451,"lng":136.919987,"zip":"4702300"},{"town":"大字冨貴","koaza":"笠松","lat":34.815942,"lng":136.919179,"zip":"4702300"},{"town":"大字冨貴","koaza":"南側","lat":34.826869,"lng":136.919485,"zip":"4702300"},{"town":"大字東大高","koaza":"石曽根","lat":34.836113,"lng":136.919819,"zip":"4702300"},{"town":"大字冨貴","koaza":"市場","lat":34.829172,"lng":136.919697,"zip":"4702300"},{"town":"大字冨貴","koaza":"山崎","lat":34.820516,"lng":136.919211,"zip":"4702300"},{"town":"大字冨貴","koaza":"篭田","lat":34.823225,"lng":136.919662,"zip":"4702300"},{"town":"大字東大高","koaza":"砂畑","lat":34.833857,"lng":136.919222,"zip":"4702300"},{"town":"大字東大高","koaza":"塔ノ下","lat":34.838741,"lng":136.919628,"zip":"4702300"},{"town":"大字冨貴","koaza":"三反田","lat":34.818582,"lng":136.919438,"zip":"4702300"},{"town":"大字冨貴","koaza":"下鐘鋳","lat":34.81382,"lng":136.918695,"zip":"4702300"},{"town":"大字冨貴","koaza":"臓ノ内","lat":34.818397,"lng":136.92042,"zip":"4702300"},{"town":"大字東大高","koaza":"浦之島","lat":34.833577,"lng":136.920814,"zip":"4702300"},{"town":"大字東大高","koaza":"中浜田","lat":34.835881,"lng":136.921812,"zip":"4702300"},{"town":"大字東大高","koaza":"北浜田","lat":34.837793,"lng":136.92054,"zip":"4702300"},{"town":"大字冨貴","koaza":"森萬新田","lat":34.829708,"lng":136.921276,"zip":"4702300"},{"town":"大字東大高","koaza":"豊倉新田","lat":34.833603,"lng":136.922325,"zip":"4702300"},{"town":"大字冨貴","koaza":"北曽原","lat":34.833462,"lng":136.890222,"zip":"4702300"},{"town":"字梨子ノ木四丁目","koaza":"","lat":null,"lng":null,"zip":null},{"town":"字梨子ノ木五丁目","koaza":"","lat":null,"lng":null,"zip":null}]