[{"town":"大字生路","koaza":"","lat":34.95278,"lng":136.973066,"zip":"4702100"},{"town":"大字石浜","koaza":"","lat":34.960303,"lng":136.954754,"zip":"4702100"},{"town":"大字緒川","koaza":"","lat":34.972812,"lng":136.936685,"zip":"4702100"},{"town":"大字藤江","koaza":"","lat":34.942841,"lng":136.960119,"zip":"4702100"},{"town":"大字森岡","koaza":"","lat":34.994575,"lng":136.964281,"zip":"4702100"},{"town":"大字緒川","koaza":"西本坪","lat":34.971411,"lng":136.914759,"zip":"4702100"},{"town":"大字緒川","koaza":"寿久茂","lat":34.969376,"lng":136.916294,"zip":"4702100"},{"town":"大字緒川","koaza":"唐治屋敷","lat":34.970547,"lng":136.91723,"zip":"4702100"},{"town":"大字緒川","koaza":"八巻","lat":34.97146,"lng":136.917988,"zip":"4702100"},{"town":"大字緒川","koaza":"中本坪","lat":34.97344,"lng":136.917284,"zip":"4702100"},{"town":"大字緒川","koaza":"丸山","lat":34.967006,"lng":136.917811,"zip":"4702100"},{"town":"大字緒川","koaza":"西釜池","lat":34.96455,"lng":136.917711,"zip":"4702100"},{"town":"大字緒川","koaza":"組田","lat":34.96294,"lng":136.919351,"zip":"4702100"},{"town":"大字緒川","koaza":"中釜池","lat":34.96479,"lng":136.919089,"zip":"4702100"},{"town":"大字緒川","koaza":"植山","lat":34.971474,"lng":136.92155,"zip":"4702100"},{"town":"大字緒川","koaza":"雁狭間","lat":34.970505,"lng":136.922315,"zip":"4702100"},{"town":"大字緒川","koaza":"北添","lat":34.971414,"lng":136.920262,"zip":"4702100"},{"town":"大字緒川","koaza":"肥後原","lat":34.967856,"lng":136.922534,"zip":"4702100"},{"town":"大字緒川","koaza":"東釜池","lat":34.963615,"lng":136.920669,"zip":"4702100"},{"town":"大字緒川","koaza":"新左田","lat":34.96332,"lng":136.921166,"zip":"4702100"},{"town":"大字緒川","koaza":"次郎兵衛山","lat":34.966128,"lng":136.922006,"zip":"4702100"},{"town":"大字緒川","koaza":"東本坪","lat":34.974892,"lng":136.923145,"zip":"4702100"},{"town":"大字緒川","koaza":"丸池","lat":34.959631,"lng":136.92266,"zip":"4702100"},{"town":"大字緒川","koaza":"丸池台","lat":34.96037,"lng":136.924433,"zip":"4702100"},{"town":"大字緒川","koaza":"雁狭間山","lat":34.969341,"lng":136.924491,"zip":"4702100"},{"town":"大字緒川","koaza":"西地獄","lat":34.972355,"lng":136.924403,"zip":"4702100"},{"town":"大字緒川","koaza":"大原","lat":34.966662,"lng":136.925055,"zip":"4702100"},{"town":"大字緒川","koaza":"南籾谷鐘","lat":34.962467,"lng":136.926711,"zip":"4702100"},{"town":"大字緒川","koaza":"姥池","lat":34.975797,"lng":136.928289,"zip":"4702100"},{"town":"大字緒川","koaza":"葭池","lat":34.975001,"lng":136.926925,"zip":"4702100"},{"town":"大字緒川","koaza":"地獄谷","lat":34.97187,"lng":136.92711,"zip":"4702100"},{"town":"大字緒川","koaza":"東仙台","lat":34.956939,"lng":136.928618,"zip":"4702100"},{"town":"大字緒川","koaza":"北籾谷鐘","lat":34.965886,"lng":136.926627,"zip":"4702100"},{"town":"大字緒川","koaza":"鴉狭間","lat":34.982492,"lng":136.93027,"zip":"4702100"},{"town":"大字緒川","koaza":"西高根","lat":34.961845,"lng":136.929389,"zip":"4702100"},{"town":"大字緒川","koaza":"上広狭間","lat":34.966529,"lng":136.931504,"zip":"4702100"},{"town":"大字緒川","koaza":"南鶴根","lat":34.969646,"lng":136.927634,"zip":"4702100"},{"town":"大字緒川","koaza":"北鶴根","lat":34.97155,"lng":136.932805,"zip":"4702100"},{"town":"大字緒川","koaza":"深狭間","lat":34.975344,"lng":136.928689,"zip":"4702100"},{"town":"大字緒川","koaza":"上高根台","lat":34.96045,"lng":136.931975,"zip":"4702100"},{"town":"大字緒川","koaza":"北東仙坊","lat":34.959663,"lng":136.928355,"zip":"4702100"},{"town":"大字緒川","koaza":"広狭間","lat":34.966656,"lng":136.929061,"zip":"4702100"},{"town":"大字緒川","koaza":"市右原","lat":34.972925,"lng":136.929184,"zip":"4702100"},{"town":"大字緒川","koaza":"鴻ノ木","lat":34.978613,"lng":136.931499,"zip":"4702100"},{"town":"大字緒川","koaza":"立合池","lat":34.959112,"lng":136.932084,"zip":"4702100"},{"town":"大字緒川","koaza":"上高根","lat":34.96505,"lng":136.931576,"zip":"4702100"},{"town":"大字緒川","koaza":"鶴根","lat":34.970533,"lng":136.931259,"zip":"4702100"},{"town":"大字緒川","koaza":"中広狭間","lat":34.968051,"lng":136.931708,"zip":"4702100"},{"town":"大字緒川","koaza":"下米田","lat":34.982825,"lng":136.935029,"zip":"4702100"},{"town":"大字緒川","koaza":"上米田","lat":34.976047,"lng":136.932208,"zip":"4702100"},{"town":"大字緒川","koaza":"上鰻池","lat":34.973577,"lng":136.933793,"zip":"4702100"},{"town":"大字緒川","koaza":"中米田","lat":34.977436,"lng":136.933128,"zip":"4702100"},{"town":"大字石浜","koaza":"藤仙坊","lat":34.953612,"lng":136.934744,"zip":"4702100"},{"town":"大字緒川","koaza":"下高根","lat":34.966864,"lng":136.93352,"zip":"4702100"},{"town":"大字緒川","koaza":"薮道","lat":34.986205,"lng":136.932941,"zip":"4702100"},{"town":"大字森岡","koaza":"西時志","lat":34.986401,"lng":136.934754,"zip":"4702100"},{"town":"大字緒川","koaza":"庄九","lat":34.958324,"lng":136.936895,"zip":"4702100"},{"town":"大字緒川","koaza":"明治","lat":34.970904,"lng":136.933988,"zip":"4702100"},{"town":"大字石浜","koaza":"上永見","lat":34.956098,"lng":136.938881,"zip":"4702100"},{"town":"大字緒川","koaza":"葭狭間","lat":34.976487,"lng":136.935357,"zip":"4702100"},{"town":"大字緒川","koaza":"折戸","lat":34.972478,"lng":136.935534,"zip":"4702100"},{"town":"大字森岡","koaza":"時志二区","lat":34.985298,"lng":136.937086,"zip":"4702100"},{"town":"大字緒川","koaza":"東米田","lat":34.978943,"lng":136.935777,"zip":"4702100"},{"town":"大字緒川","koaza":"相生の丘","lat":34.978106,"lng":136.937045,"zip":"4702100"},{"town":"大字森岡","koaza":"源一","lat":34.990429,"lng":136.941022,"zip":"4702100"},{"town":"大字石浜","koaza":"鋳師","lat":34.955755,"lng":136.935554,"zip":"4702100"},{"town":"大字緒川","koaza":"鰻池","lat":34.977486,"lng":136.938825,"zip":"4702100"},{"town":"大字緒川","koaza":"鈴栗弐区","lat":34.966728,"lng":136.940312,"zip":"4702100"},{"town":"大字森岡","koaza":"東時志","lat":34.988841,"lng":136.93675,"zip":"4702100"},{"town":"大字緒川","koaza":"桐池壱区","lat":34.968305,"lng":136.937334,"zip":"4702100"},{"town":"大字緒川","koaza":"桐池四区","lat":34.972791,"lng":136.938452,"zip":"4702100"},{"town":"大字緒川","koaza":"中根","lat":34.96046,"lng":136.937218,"zip":"4702100"},{"town":"大字石浜","koaza":"午池","lat":34.951194,"lng":136.942648,"zip":"4702100"},{"town":"大字緒川","koaza":"鼈池","lat":34.962333,"lng":136.939874,"zip":"4702100"},{"town":"大字緒川","koaza":"桐池弐区","lat":34.970429,"lng":136.940396,"zip":"4702100"},{"town":"大字緒川","koaza":"上苅又池","lat":34.981863,"lng":136.938989,"zip":"4702100"},{"town":"大字緒川","koaza":"苅又一区","lat":34.983624,"lng":136.938922,"zip":"4702100"},{"town":"大字緒川","koaza":"鈴栗壱区","lat":34.970613,"lng":136.941393,"zip":"4702100"},{"town":"大字森岡","koaza":"二ツ池","lat":34.989566,"lng":136.941364,"zip":"4702100"},{"town":"大字石浜","koaza":"平池西","lat":34.948905,"lng":136.939622,"zip":"4702100"},{"town":"大字緒川","koaza":"篭池","lat":34.975652,"lng":136.941099,"zip":"4702100"},{"town":"大字緒川","koaza":"相生","lat":34.978696,"lng":136.94195,"zip":"4702100"},{"town":"大字緒川","koaza":"平六","lat":34.961608,"lng":136.943416,"zip":"4702100"},{"town":"大字緒川","koaza":"下苅又池","lat":34.98568,"lng":136.941512,"zip":"4702100"},{"town":"大字緒川","koaza":"梨ノ木","lat":34.983963,"lng":136.943175,"zip":"4702100"},{"town":"大字緒川","koaza":"大高山壱区","lat":34.965318,"lng":136.941564,"zip":"4702100"},{"town":"大字緒川","koaza":"桐池参区","lat":34.971832,"lng":136.941647,"zip":"4702100"},{"town":"大字石浜","koaza":"平池上","lat":34.948145,"lng":136.943677,"zip":"4702100"},{"town":"大字森岡","koaza":"時志一区","lat":34.987445,"lng":136.941811,"zip":"4702100"},{"town":"大字生路","koaza":"平根二区","lat":34.946683,"lng":136.944179,"zip":"4702100"},{"town":"大字緒川","koaza":"組ケ平弐区","lat":34.977405,"lng":136.943383,"zip":"4702100"},{"town":"大字石浜","koaza":"新兵衛山","lat":34.958613,"lng":136.943835,"zip":"4702100"},{"town":"大字緒川","koaza":"大高山弐区","lat":34.968175,"lng":136.944616,"zip":"4702100"},{"town":"大字緒川","koaza":"引蛙","lat":34.970791,"lng":136.945121,"zip":"4702100"},{"town":"大字緒川","koaza":"小川一区","lat":34.976102,"lng":136.945565,"zip":"4702100"},{"town":"大字緒川","koaza":"鍋ケ谷","lat":34.965559,"lng":136.946146,"zip":"4702100"},{"town":"大字緒川","koaza":"大草","lat":34.980994,"lng":136.945366,"zip":"4702100"},{"town":"大字森岡","koaza":"錦","lat":34.990432,"lng":136.94653,"zip":"4702100"},{"town":"大字生路","koaza":"黒根","lat":34.947845,"lng":136.944174,"zip":"4702100"},{"town":"大字森岡","koaza":"一ツ池","lat":34.991444,"lng":136.945589,"zip":"4702100"},{"town":"大字藤江","koaza":"藤塚","lat":34.942691,"lng":136.944164,"zip":"4702100"},{"town":"大字緒川","koaza":"両筋道","lat":34.978039,"lng":136.945396,"zip":"4702100"},{"town":"大字藤江","koaza":"西黒根","lat":34.944175,"lng":136.946543,"zip":"4702100"},{"town":"大字緒川","koaza":"石名平","lat":34.973182,"lng":136.946962,"zip":"4702100"},{"town":"大字石浜","koaza":"半戸","lat":34.952736,"lng":136.946087,"zip":"4702100"},{"town":"大字森岡","koaza":"上源吾","lat":34.991975,"lng":136.950194,"zip":"4702100"},{"town":"大字石浜","koaza":"蛇子連","lat":34.96061,"lng":136.948544,"zip":"4702100"},{"town":"大字石浜","koaza":"東半戸","lat":34.954792,"lng":136.948761,"zip":"4702100"},{"town":"大字緒川","koaza":"三日狭間","lat":34.980906,"lng":136.947989,"zip":"4702100"},{"town":"大字緒川","koaza":"庄九坂","lat":34.969335,"lng":136.946782,"zip":"4702100"},{"town":"大字緒川","koaza":"西高岨","lat":34.978625,"lng":136.947792,"zip":"4702100"},{"town":"大字緒川","koaza":"南赤坂一区","lat":34.97734,"lng":136.949135,"zip":"4702100"},{"town":"大字藤江","koaza":"篠田","lat":34.942568,"lng":136.949025,"zip":"4702100"},{"town":"大字緒川","koaza":"下舟木","lat":34.969519,"lng":136.94913,"zip":"4702100"},{"town":"大字森岡","koaza":"野田","lat":34.987359,"lng":136.947552,"zip":"4702100"},{"town":"大字森岡","koaza":"下申間","lat":34.988824,"lng":136.951081,"zip":"4702100"},{"town":"大字緒川","koaza":"南石根","lat":34.983776,"lng":136.948742,"zip":"4702100"},{"town":"大字藤江","koaza":"追根","lat":34.940705,"lng":136.951084,"zip":"4702100"},{"town":"大字森岡","koaza":"餓鬼出","lat":34.98747,"lng":136.948624,"zip":"4702100"},{"town":"大字緒川","koaza":"大薮","lat":34.974582,"lng":136.950221,"zip":"4702100"},{"town":"大字森岡","koaza":"源吾山","lat":34.995133,"lng":136.949791,"zip":"4702100"},{"town":"大字石浜","koaza":"御鴻城","lat":34.959656,"lng":136.948835,"zip":"4702100"},{"town":"大字生路","koaza":"平根一区","lat":34.94926,"lng":136.949208,"zip":"4702100"},{"town":"大字緒川","koaza":"北赤坂","lat":34.982145,"lng":136.952689,"zip":"4702100"},{"town":"大字藤江","koaza":"東黒根","lat":34.946589,"lng":136.95008,"zip":"4702100"},{"town":"大字石浜","koaza":"蕨","lat":34.958514,"lng":136.951274,"zip":"4702100"},{"town":"大字森岡","koaza":"南陽一区","lat":34.988892,"lng":136.955512,"zip":"4702100"},{"town":"大字緒川","koaza":"実盛山","lat":34.984202,"lng":136.951351,"zip":"4702100"},{"town":"大字緒川","koaza":"東高岨","lat":34.977849,"lng":136.951624,"zip":"4702100"},{"town":"大字藤江","koaza":"新池","lat":34.943856,"lng":136.953008,"zip":"4702100"},{"town":"大字森岡","koaza":"下源吾","lat":34.998928,"lng":136.9502,"zip":"4702100"},{"town":"大字石浜","koaza":"三ツ池","lat":34.968431,"lng":136.956849,"zip":"4702100"},{"town":"大字生路","koaza":"永栄三区","lat":34.949456,"lng":136.951842,"zip":"4702100"},{"town":"大字森岡","koaza":"祖母懐","lat":34.994458,"lng":136.953075,"zip":"4702100"},{"town":"大字藤江","koaza":"苔根","lat":34.940056,"lng":136.952111,"zip":"4702100"},{"town":"大字緒川","koaza":"入道狭間","lat":34.973575,"lng":136.952308,"zip":"4702100"},{"town":"大字緒川","koaza":"上舟木","lat":34.971392,"lng":136.952664,"zip":"4702100"},{"town":"大字生路","koaza":"石根","lat":34.951535,"lng":136.953278,"zip":"4702100"},{"town":"大字藤江","koaza":"仲之山","lat":34.946559,"lng":136.955352,"zip":"4702100"},{"town":"大字石浜","koaza":"雨堤","lat":34.963322,"lng":136.954115,"zip":"4702100"},{"town":"大字石浜","koaza":"願並","lat":34.960561,"lng":136.954521,"zip":"4702100"},{"town":"大字生路","koaza":"永栄二区","lat":34.955596,"lng":136.953675,"zip":"4702100"},{"town":"大字森岡","koaza":"森の里","lat":34.99273,"lng":136.954786,"zip":"4702100"},{"town":"大字藤江","koaza":"カガリ","lat":34.950583,"lng":136.954908,"zip":"4702100"},{"town":"大字藤江","koaza":"奥蕨","lat":34.943259,"lng":136.955285,"zip":"4702100"},{"town":"大字森岡","koaza":"上申間","lat":34.990638,"lng":136.954201,"zip":"4702100"},{"town":"大字緒川","koaza":"膝折","lat":34.984327,"lng":136.95442,"zip":"4702100"},{"town":"大字緒川","koaza":"栄","lat":34.982326,"lng":136.953929,"zip":"4702100"},{"town":"大字緒川","koaza":"東膝折","lat":34.985901,"lng":136.952924,"zip":"4702100"},{"town":"大字緒川","koaza":"門前","lat":34.974421,"lng":136.955527,"zip":"4702100"},{"town":"大字藤江","koaza":"定納","lat":34.940267,"lng":136.955005,"zip":"4702100"},{"town":"大字森岡","koaza":"上今池","lat":34.993548,"lng":136.956243,"zip":"4702100"},{"town":"大字緒川","koaza":"猪伏釜","lat":34.979358,"lng":136.955128,"zip":"4702100"},{"town":"大字緒川","koaza":"赤坂","lat":34.977978,"lng":136.954154,"zip":"4702100"},{"town":"大字緒川","koaza":"南赤坂二区","lat":34.977386,"lng":136.956307,"zip":"4702100"},{"town":"大字緒川","koaza":"井之口","lat":34.97345,"lng":136.957827,"zip":"4702100"},{"town":"大字森岡","koaza":"上割木","lat":34.996732,"lng":136.955185,"zip":"4702100"},{"town":"大字森岡","koaza":"十一廻間","lat":34.990502,"lng":136.95553,"zip":"4702100"},{"town":"大字緒川","koaza":"北河内","lat":34.986918,"lng":136.95682,"zip":"4702100"},{"town":"大字緒川","koaza":"上三町","lat":34.978104,"lng":136.956586,"zip":"4702100"},{"town":"大字生路","koaza":"永栄一区","lat":34.95283,"lng":136.957756,"zip":"4702100"},{"town":"大字緒川","koaza":"三ツ池一区","lat":34.972258,"lng":136.957936,"zip":"4702100"},{"town":"大字森岡","koaza":"下今池","lat":34.995456,"lng":136.957121,"zip":"4702100"},{"town":"大字藤江","koaza":"口蕨","lat":34.943926,"lng":136.957841,"zip":"4702100"},{"town":"大字石浜","koaza":"三本松","lat":34.966364,"lng":136.958728,"zip":"4702100"},{"town":"大字緒川","koaza":"北大狭間","lat":34.982666,"lng":136.956565,"zip":"4702100"},{"town":"大字緒川","koaza":"南大狭間","lat":34.980387,"lng":136.957404,"zip":"4702100"},{"town":"大字藤江","koaza":"八幡","lat":34.947694,"lng":136.958283,"zip":"4702100"},{"town":"大字藤江","koaza":"守宮池","lat":34.950363,"lng":136.959498,"zip":"4702100"},{"town":"大字藤江","koaza":"神木","lat":34.941218,"lng":136.958052,"zip":"4702100"},{"town":"大字石浜","koaza":"飛山池上","lat":34.958927,"lng":136.959155,"zip":"4702100"},{"town":"大字藤江","koaza":"広坂","lat":34.940781,"lng":136.959762,"zip":"4702100"},{"town":"大字藤江","koaza":"北根","lat":34.938509,"lng":136.95682,"zip":"4702100"},{"town":"大字緒川","koaza":"沙弥田","lat":34.978985,"lng":136.960235,"zip":"4702100"},{"town":"大字藤江","koaza":"仏","lat":34.946262,"lng":136.960921,"zip":"4702100"},{"town":"大字石浜","koaza":"菰蓋","lat":34.969226,"lng":136.959307,"zip":"4702100"},{"town":"大字緒川","koaza":"大狭間","lat":34.98145,"lng":136.958911,"zip":"4702100"},{"town":"大字森岡","koaza":"濁池","lat":34.993706,"lng":136.95853,"zip":"4702100"},{"town":"大字藤江","koaza":"高ツブラ","lat":34.942482,"lng":136.959294,"zip":"4702100"},{"town":"大字緒川","koaza":"寿二区","lat":34.983699,"lng":136.960306,"zip":"4702100"},{"town":"大字森岡","koaza":"半之木","lat":34.999726,"lng":136.959308,"zip":"4702100"},{"town":"大字緒川","koaza":"寿一区","lat":34.987024,"lng":136.96035,"zip":"4702100"},{"town":"大字石浜","koaza":"飛山","lat":34.962455,"lng":136.958984,"zip":"4702100"},{"town":"大字森岡","koaza":"上半之木","lat":34.998238,"lng":136.958552,"zip":"4702100"},{"town":"大字生路","koaza":"上坪釜","lat":34.952268,"lng":136.958695,"zip":"4702100"},{"town":"大字生路","koaza":"上坪","lat":34.955112,"lng":136.960143,"zip":"4702100"},{"town":"大字森岡","koaza":"飯喰場","lat":34.996823,"lng":136.961187,"zip":"4702100"},{"town":"大字森岡","koaza":"高峯","lat":34.995154,"lng":136.96059,"zip":"4702100"},{"town":"大字石浜","koaza":"入海田","lat":34.964689,"lng":136.959162,"zip":"4702100"},{"town":"大字緒川","koaza":"南祢宜狭間","lat":34.981028,"lng":136.959663,"zip":"4702100"},{"town":"大字森岡","koaza":"田面","lat":35.000783,"lng":136.961583,"zip":"4702100"},{"town":"大字藤江","koaza":"山敷","lat":34.943924,"lng":136.961751,"zip":"4702100"},{"town":"大字石浜","koaza":"西飛山","lat":34.964704,"lng":136.959889,"zip":"4702100"},{"town":"大字石浜","koaza":"吹付","lat":34.966026,"lng":136.962039,"zip":"4702100"},{"town":"大字石浜","koaza":"南ヶ丘","lat":34.961885,"lng":136.962388,"zip":"4702100"},{"town":"大字緒川","koaza":"中祢宜狭間","lat":34.981715,"lng":136.960347,"zip":"4702100"},{"town":"大字森岡","koaza":"中町","lat":34.995896,"lng":136.962384,"zip":"4702100"},{"town":"大字森岡","koaza":"後廻間","lat":34.993835,"lng":136.960579,"zip":"4702100"},{"town":"大字緒川","koaza":"喜右山","lat":34.980082,"lng":136.961097,"zip":"4702100"},{"town":"大字藤江","koaza":"荒子","lat":34.940875,"lng":136.962489,"zip":"4702100"},{"town":"大字森岡","koaza":"上田面","lat":34.999203,"lng":136.960784,"zip":"4702100"},{"town":"大字石浜","koaza":"白山","lat":34.968567,"lng":136.962636,"zip":"4702100"},{"town":"大字緒川","koaza":"濁池西","lat":34.981418,"lng":136.962081,"zip":"4702100"},{"town":"大字石浜","koaza":"町田","lat":34.9716,"lng":136.960631,"zip":"4702100"},{"town":"大字石浜","koaza":"藤塚","lat":34.97005,"lng":136.961444,"zip":"4702100"},{"town":"大字石浜","koaza":"下黒鳥","lat":34.957226,"lng":136.962496,"zip":"4702100"},{"town":"大字藤江","koaza":"樋","lat":34.949925,"lng":136.962205,"zip":"4702100"},{"town":"大字石浜","koaza":"桜見台","lat":34.971168,"lng":136.963861,"zip":"4702100"},{"town":"大字緒川","koaza":"一本木","lat":34.983589,"lng":136.961783,"zip":"4702100"},{"town":"大字藤江","koaza":"西之宮","lat":34.947166,"lng":136.962873,"zip":"4702100"},{"town":"大字緒川","koaza":"富士塚","lat":34.982689,"lng":136.961355,"zip":"4702100"},{"town":"大字森岡","koaza":"南陽二区","lat":34.990812,"lng":136.964474,"zip":"4702100"},{"town":"大字藤江","koaza":"ふじが丘","lat":34.950652,"lng":136.963526,"zip":"4702100"},{"town":"大字生路","koaza":"池上","lat":34.953757,"lng":136.963302,"zip":"4702100"},{"town":"大字森岡","koaza":"上小林","lat":34.992351,"lng":136.962992,"zip":"4702100"},{"town":"大字緒川","koaza":"上之山","lat":34.981144,"lng":136.963332,"zip":"4702100"},{"town":"大字石浜","koaza":"田之助","lat":34.967101,"lng":136.964344,"zip":"4702100"},{"town":"大字森岡","koaza":"中田面","lat":35.000463,"lng":136.963003,"zip":"4702100"},{"town":"大字緒川","koaza":"帯刀","lat":34.975655,"lng":136.962982,"zip":"4702100"},{"town":"大字生路","koaza":"富士塚","lat":34.954628,"lng":136.964271,"zip":"4702100"},{"town":"大字緒川","koaza":"六本木","lat":34.979621,"lng":136.963975,"zip":"4702100"},{"town":"大字緒川","koaza":"後狭間","lat":34.979678,"lng":136.962724,"zip":"4702100"},{"town":"大字緒川","koaza":"蛭藻池","lat":34.97773,"lng":136.964144,"zip":"4702100"},{"town":"大字緒川","koaza":"小鮒","lat":34.989181,"lng":136.962743,"zip":"4702100"},{"town":"大字藤江","koaza":"上之山","lat":34.949108,"lng":136.963035,"zip":"4702100"},{"town":"大字緒川","koaza":"笠松","lat":34.982229,"lng":136.964426,"zip":"4702100"},{"town":"大字森岡","koaza":"一色畑","lat":34.997306,"lng":136.96373,"zip":"4702100"},{"town":"大字石浜","koaza":"坊ケ谷","lat":34.96994,"lng":136.96385,"zip":"4702100"},{"town":"大字森岡","koaza":"新池下","lat":34.998099,"lng":136.963696,"zip":"4702100"},{"town":"大字森岡","koaza":"柳ケ坪","lat":34.999117,"lng":136.96443,"zip":"4702100"},{"town":"大字森岡","koaza":"天王西","lat":34.993016,"lng":136.96472,"zip":"4702100"},{"town":"大字森岡","koaza":"山之神","lat":34.993772,"lng":136.964094,"zip":"4702100"},{"town":"大字藤江","koaza":"摩耶","lat":34.951487,"lng":136.964442,"zip":"4702100"},{"town":"大字藤江","koaza":"南新田","lat":34.939785,"lng":136.965964,"zip":"4702100"},{"town":"大字森岡","koaza":"上之山","lat":34.995258,"lng":136.963917,"zip":"4702100"},{"town":"大字生路","koaza":"上ノ里","lat":34.958831,"lng":136.966446,"zip":"4702100"},{"town":"大字藤江","koaza":"六反田","lat":34.942855,"lng":136.965574,"zip":"4702100"},{"town":"大字緒川","koaza":"平島","lat":34.975856,"lng":136.964603,"zip":"4702100"},{"town":"大字緒川","koaza":"青木","lat":34.97938,"lng":136.965145,"zip":"4702100"},{"town":"大字藤江","koaza":"松本","lat":34.943819,"lng":136.964221,"zip":"4702100"},{"town":"大字緒川","koaza":"八幡","lat":34.98415,"lng":136.965064,"zip":"4702100"},{"town":"大字森岡","koaza":"下小林","lat":34.990893,"lng":136.963753,"zip":"4702100"},{"town":"大字緒川","koaza":"安明寺","lat":34.989075,"lng":136.966046,"zip":"4702100"},{"town":"大字森岡","koaza":"杉之内","lat":34.991684,"lng":136.965601,"zip":"4702100"},{"town":"大字緒川","koaza":"政所","lat":34.976669,"lng":136.965006,"zip":"4702100"},{"town":"大字緒川","koaza":"与市山","lat":34.987828,"lng":136.964845,"zip":"4702100"},{"town":"大字石浜","koaza":"連台","lat":34.968176,"lng":136.965423,"zip":"4702100"},{"town":"大字森岡","koaza":"郷一色","lat":34.995666,"lng":136.965034,"zip":"4702100"},{"town":"大字石浜","koaza":"八ツ針","lat":34.964109,"lng":136.966371,"zip":"4702100"},{"town":"大字藤江","koaza":"須賀","lat":34.945578,"lng":136.965681,"zip":"4702100"},{"town":"大字緒川","koaza":"北山神","lat":34.986177,"lng":136.965568,"zip":"4702100"},{"town":"大字石浜","koaza":"黒鳥","lat":34.9628,"lng":136.964771,"zip":"4702100"},{"town":"大字石浜","koaza":"笹原","lat":34.964533,"lng":136.964789,"zip":"4702100"},{"town":"大字森岡","koaza":"上山之上","lat":34.99402,"lng":136.965237,"zip":"4702100"},{"town":"大字緒川","koaza":"九俵池","lat":34.985809,"lng":136.964223,"zip":"4702100"},{"town":"大字緒川","koaza":"平成","lat":34.975486,"lng":136.96742,"zip":"4702100"},{"town":"大字緒川","koaza":"稗田","lat":34.982061,"lng":136.965551,"zip":"4702100"},{"town":"大字緒川","koaza":"西川","lat":34.981134,"lng":136.96476,"zip":"4702100"},{"town":"大字藤江","koaza":"トウズ","lat":34.952106,"lng":136.965317,"zip":"4702100"},{"town":"大字緒川","koaza":"重右山","lat":34.977754,"lng":136.966098,"zip":"4702100"},{"town":"大字石浜","koaza":"廻間","lat":34.969734,"lng":136.96628,"zip":"4702100"},{"town":"大字生路","koaza":"大砂除","lat":34.957256,"lng":136.965834,"zip":"4702100"},{"town":"大字石浜","koaza":"平鳥","lat":34.959544,"lng":136.965959,"zip":"4702100"},{"town":"大字森岡","koaza":"松原","lat":34.999185,"lng":136.965542,"zip":"4702100"},{"town":"大字藤江","koaza":"上廻間","lat":34.946762,"lng":136.967076,"zip":"4702100"},{"town":"大字緒川","koaza":"蓮池","lat":34.978885,"lng":136.965788,"zip":"4702100"},{"town":"大字石浜","koaza":"西平地","lat":34.962703,"lng":136.96646,"zip":"4702100"},{"town":"大字森岡","koaza":"荒子","lat":34.996509,"lng":136.96711,"zip":"4702100"},{"town":"大字森岡","koaza":"下山之上","lat":34.994667,"lng":136.965986,"zip":"4702100"},{"town":"大字生路","koaza":"梨ノ木","lat":34.955718,"lng":136.967012,"zip":"4702100"},{"town":"大字藤江","koaza":"上満","lat":34.943588,"lng":136.966012,"zip":"4702100"},{"town":"大字生路","koaza":"狐洞","lat":34.953142,"lng":136.966949,"zip":"4702100"},{"town":"大字石浜","koaza":"平林","lat":34.966851,"lng":136.966897,"zip":"4702100"},{"town":"大字石浜","koaza":"庚申坊","lat":34.971147,"lng":136.966228,"zip":"4702100"},{"town":"大字藤江","koaza":"皆栄町","lat":34.938874,"lng":136.968796,"zip":"4702100"},{"town":"大字藤江","koaza":"三丁","lat":34.950675,"lng":136.966858,"zip":"4702100"},{"town":"大字藤江","koaza":"前田","lat":34.944653,"lng":136.967233,"zip":"4702100"},{"town":"大字緒川","koaza":"金十根","lat":34.987999,"lng":136.96671,"zip":"4702100"},{"town":"大字藤江","koaza":"南栄町","lat":34.936009,"lng":136.97185,"zip":"4702100"},{"town":"大字緒川","koaza":"遠藤畑","lat":34.985776,"lng":136.966565,"zip":"4702100"},{"town":"大字森岡","koaza":"藤後","lat":34.999804,"lng":136.966645,"zip":"4702100"},{"town":"大字緒川","koaza":"屋敷参区","lat":34.979563,"lng":136.967834,"zip":"4702100"},{"town":"大字石浜","koaza":"北庚申坊","lat":34.972767,"lng":136.96614,"zip":"4702100"},{"town":"大字森岡","koaza":"段上","lat":34.995741,"lng":136.967121,"zip":"4702100"},{"town":"大字石浜","koaza":"障戸","lat":34.973505,"lng":136.96716,"zip":"4702100"},{"town":"大字森岡","koaza":"岡田","lat":34.992136,"lng":136.966849,"zip":"4702100"},{"town":"大字藤江","koaza":"酉新田","lat":34.94151,"lng":136.967006,"zip":"4702100"},{"town":"大字石浜","koaza":"青木","lat":34.969182,"lng":136.967901,"zip":"4702100"},{"town":"大字緒川","koaza":"屋敷弐区","lat":34.982839,"lng":136.968257,"zip":"4702100"},{"town":"大字緒川","koaza":"古城","lat":34.978746,"lng":136.967312,"zip":"4702100"},{"town":"大字藤江","koaza":"大坪","lat":34.950444,"lng":136.968723,"zip":"4702100"},{"town":"大字緒川","koaza":"羽城","lat":34.977561,"lng":136.96686,"zip":"4702100"},{"town":"大字石浜","koaza":"下庚申坊","lat":34.970542,"lng":136.967643,"zip":"4702100"},{"town":"大字緒川","koaza":"宝前庵","lat":34.987038,"lng":136.967002,"zip":"4702100"},{"town":"大字緒川","koaza":"屋敷壱区","lat":34.985201,"lng":136.968605,"zip":"4702100"},{"town":"大字生路","koaza":"上ノ山","lat":34.959198,"lng":136.967976,"zip":"4702100"},{"town":"大字森岡","koaza":"新屋敷","lat":34.994303,"lng":136.967287,"zip":"4702100"},{"town":"大字緒川","koaza":"下出口","lat":34.977685,"lng":136.968525,"zip":"4702100"},{"town":"大字森岡","koaza":"取手","lat":34.996428,"lng":136.968564,"zip":"4702100"},{"town":"大字石浜","koaza":"中平地","lat":34.961277,"lng":136.967805,"zip":"4702100"},{"town":"大字生路","koaza":"傍示松","lat":34.957212,"lng":136.968715,"zip":"4702100"},{"town":"大字石浜","koaza":"須賀","lat":34.964353,"lng":136.967736,"zip":"4702100"},{"town":"大字藤江","koaza":"前新田","lat":34.942838,"lng":136.968763,"zip":"4702100"},{"town":"大字生路","koaza":"小太郎","lat":34.952745,"lng":136.968658,"zip":"4702100"},{"town":"大字森岡","koaza":"岡田川","lat":34.991437,"lng":136.967642,"zip":"4702100"},{"town":"大字緒川","koaza":"天白","lat":34.987235,"lng":136.968546,"zip":"4702100"},{"town":"大字生路","koaza":"西畑","lat":34.958168,"lng":136.969004,"zip":"4702100"},{"town":"大字石浜","koaza":"平地","lat":34.961888,"lng":136.969497,"zip":"4702100"},{"town":"大字石浜","koaza":"前浜","lat":34.967014,"lng":136.968777,"zip":"4702100"},{"town":"大字石浜","koaza":"岐路","lat":34.973091,"lng":136.969165,"zip":"4702100"},{"town":"大字緒川","koaza":"宮戸","lat":34.988116,"lng":136.969708,"zip":"4702100"},{"town":"大字生路","koaza":"狭間","lat":34.960692,"lng":136.969565,"zip":"4702100"},{"town":"大字藤江","koaza":"柳牛","lat":34.949827,"lng":136.970136,"zip":"4702100"},{"town":"大字森岡","koaza":"池端","lat":34.994366,"lng":136.968398,"zip":"4702100"},{"town":"大字石浜","koaza":"芦間","lat":34.969404,"lng":136.969506,"zip":"4702100"},{"town":"大字藤江","koaza":"折戸","lat":34.945039,"lng":136.969396,"zip":"4702100"},{"town":"大字森岡","koaza":"前田","lat":34.9929,"lng":136.969797,"zip":"4702100"},{"town":"大字藤江","koaza":"下廻間","lat":34.946036,"lng":136.969673,"zip":"4702100"},{"town":"大字森岡","koaza":"一町田","lat":34.991291,"lng":136.96885,"zip":"4702100"},{"town":"大字森岡","koaza":"栄北","lat":34.997512,"lng":136.969051,"zip":"4702100"},{"town":"大字石浜","koaza":"行田","lat":34.964158,"lng":136.969875,"zip":"4702100"},{"town":"大字石浜","koaza":"御保田","lat":34.966014,"lng":136.96933,"zip":"4702100"},{"town":"大字緒川","koaza":"八郎兵衛","lat":34.97802,"lng":136.969241,"zip":"4702100"},{"town":"大字森岡","koaza":"浜田","lat":34.992589,"lng":136.969848,"zip":"4702100"},{"town":"大字生路","koaza":"池下","lat":34.952351,"lng":136.970268,"zip":"4702100"},{"town":"大字緒川","koaza":"下汐田","lat":34.976632,"lng":136.969366,"zip":"4702100"},{"town":"大字緒川","koaza":"塩田","lat":34.989282,"lng":136.969779,"zip":"4702100"},{"town":"大字緒川","koaza":"家下","lat":34.98024,"lng":136.969739,"zip":"4702100"},{"town":"大字石浜","koaza":"片山","lat":34.962515,"lng":136.970448,"zip":"4702100"},{"town":"大字緒川","koaza":"古川","lat":34.991453,"lng":136.97031,"zip":"4702100"},{"town":"大字森岡","koaza":"南古新田","lat":34.994973,"lng":136.971217,"zip":"4702100"},{"town":"大字石浜","koaza":"中央","lat":34.972333,"lng":136.971478,"zip":"4702100"},{"town":"大字生路","koaza":"森腰","lat":34.956979,"lng":136.97067,"zip":"4702100"},{"town":"大字緒川","koaza":"東栄町","lat":34.976682,"lng":136.9707,"zip":"4702100"},{"town":"大字藤江","koaza":"午新田","lat":34.942147,"lng":136.970929,"zip":"4702100"},{"town":"大字藤江","koaza":"ヤンチャ","lat":34.945901,"lng":136.970416,"zip":"4702100"},{"town":"大字緒川","koaza":"浜田","lat":34.97722,"lng":136.970856,"zip":"4702100"},{"town":"大字生路","koaza":"弁財","lat":34.954263,"lng":136.97096,"zip":"4702100"},{"town":"大字藤江","koaza":"稲栄一区","lat":34.946311,"lng":136.971236,"zip":"4702100"},{"town":"大字緒川","koaza":"竹塚","lat":34.982205,"lng":136.971236,"zip":"4702100"},{"town":"大字石浜","koaza":"中子新田","lat":34.968294,"lng":136.971361,"zip":"4702100"},{"town":"大字石浜","koaza":"下子新田","lat":34.966384,"lng":136.970609,"zip":"4702100"},{"town":"大字石浜","koaza":"なかね","lat":34.96828,"lng":136.97029,"zip":"4702100"},{"town":"大字藤江","koaza":"亥子新田","lat":34.94191,"lng":136.97334,"zip":"4702100"},{"town":"大字生路","koaza":"生片山","lat":34.960434,"lng":136.971316,"zip":"4702100"},{"town":"大字緒川","koaza":"北新田","lat":34.9817,"lng":136.973856,"zip":"4702100"},{"town":"大字緒川","koaza":"上家左川","lat":34.983559,"lng":136.97169,"zip":"4702100"},{"town":"大字石浜","koaza":"戌新田","lat":34.964827,"lng":136.970681,"zip":"4702100"},{"town":"大字緒川","koaza":"十王郭","lat":34.987129,"lng":136.97149,"zip":"4702100"},{"town":"大字緒川","koaza":"申新田弐区","lat":34.981086,"lng":136.971776,"zip":"4702100"},{"town":"大字生路","koaza":"前田","lat":34.952334,"lng":136.972793,"zip":"4702100"},{"town":"大字藤江","koaza":"川北","lat":34.939768,"lng":136.972571,"zip":"4702100"},{"town":"大字石浜","koaza":"川尻","lat":34.961726,"lng":136.972309,"zip":"4702100"},{"town":"大字森岡","koaza":"古川","lat":34.991447,"lng":136.971922,"zip":"4702100"},{"town":"大字緒川","koaza":"申新田壱区","lat":34.978018,"lng":136.971716,"zip":"4702100"},{"town":"大字生路","koaza":"門田","lat":34.954661,"lng":136.972125,"zip":"4702100"},{"town":"大字藤江","koaza":"名切","lat":34.949058,"lng":136.972312,"zip":"4702100"},{"town":"大字生路","koaza":"坂下","lat":34.957183,"lng":136.972955,"zip":"4702100"},{"town":"大字生路","koaza":"浜田","lat":34.960211,"lng":136.97226,"zip":"4702100"},{"town":"大字緒川","koaza":"宗六浜","lat":34.985255,"lng":136.973073,"zip":"4702100"},{"town":"大字緒川","koaza":"旭","lat":34.980731,"lng":136.973836,"zip":"4702100"},{"town":"大字緒川","koaza":"昭和二区","lat":34.987494,"lng":136.97487,"zip":"4702100"},{"town":"大字石浜","koaza":"成実新田八ノ切","lat":34.964055,"lng":136.973372,"zip":"4702100"},{"town":"大字藤江","koaza":"皆栄新田","lat":34.937006,"lng":136.973161,"zip":"4702100"},{"town":"大字緒川","koaza":"昭和一区","lat":34.98958,"lng":136.97518,"zip":"4702100"},{"town":"大字森岡","koaza":"葭野","lat":35.000398,"lng":136.97557,"zip":"4702100"},{"town":"大字緒川","koaza":"中家左川","lat":34.983312,"lng":136.973987,"zip":"4702100"},{"town":"大字生路","koaza":"浜起","lat":34.958905,"lng":136.973617,"zip":"4702100"},{"town":"大字緒川","koaza":"下家左川","lat":34.983726,"lng":136.975234,"zip":"4702100"},{"town":"大字生路","koaza":"矢崎","lat":34.950094,"lng":136.973445,"zip":"4702100"},{"town":"大字生路","koaza":"折戸","lat":34.955519,"lng":136.974316,"zip":"4702100"},{"town":"大字生路","koaza":"生栄五区","lat":34.950603,"lng":136.974376,"zip":"4702100"},{"town":"大字生路","koaza":"生川尻","lat":34.960519,"lng":136.976304,"zip":"4702100"},{"town":"大字生路","koaza":"生栄一区","lat":34.959664,"lng":136.975444,"zip":"4702100"},{"town":"大字藤江","koaza":"稲栄二区","lat":34.946596,"lng":136.975816,"zip":"4702100"},{"town":"大字藤江","koaza":"稲栄三区","lat":34.943658,"lng":136.974965,"zip":"4702100"},{"town":"大字石浜","koaza":"大曲輪","lat":34.962685,"lng":136.975138,"zip":"4702100"},{"town":"大字緒川","koaza":"臨時","lat":34.984522,"lng":136.974869,"zip":"4702100"},{"town":"大字生路","koaza":"鍋屋新田","lat":34.951307,"lng":136.9745,"zip":"4702100"},{"town":"大字生路","koaza":"西午新田","lat":34.954571,"lng":136.975754,"zip":"4702100"},{"town":"大字生路","koaza":"新々田","lat":34.953101,"lng":136.975376,"zip":"4702100"},{"town":"大字生路","koaza":"生栄四区","lat":34.953008,"lng":136.975555,"zip":"4702100"},{"town":"大字生路","koaza":"東午新田","lat":34.958809,"lng":136.976775,"zip":"4702100"},{"town":"大字藤江","koaza":"五号地","lat":34.947476,"lng":136.977545,"zip":"4702100"},{"town":"大字生路","koaza":"生栄二区","lat":34.958034,"lng":136.97767,"zip":"4702100"},{"town":"大字緒川","koaza":"三角","lat":34.983756,"lng":136.976212,"zip":"4702100"},{"town":"大字緒川","koaza":"流作","lat":34.986876,"lng":136.977295,"zip":"4702100"},{"town":"大字石浜","koaza":"北成実","lat":34.971974,"lng":136.979464,"zip":"4702100"},{"town":"大字森岡","koaza":"洲崎","lat":35.000893,"lng":136.978242,"zip":"4702100"},{"town":"大字緒川","koaza":"古流作","lat":34.981321,"lng":136.977568,"zip":"4702100"},{"town":"大字緒川","koaza":"辰新田壱区","lat":34.979003,"lng":136.97887,"zip":"4702100"},{"town":"大字石浜","koaza":"中成実","lat":34.969976,"lng":136.978107,"zip":"4702100"},{"town":"大字森岡","koaza":"巳成","lat":34.990909,"lng":136.978981,"zip":"4702100"},{"town":"大字森岡","koaza":"下々浜","lat":34.990087,"lng":136.979068,"zip":"4702100"},{"town":"大字森岡","koaza":"外新切","lat":34.994203,"lng":136.981028,"zip":"4702100"},{"town":"大字生路","koaza":"生栄三区","lat":34.958167,"lng":136.979539,"zip":"4702100"},{"town":"大字緒川","koaza":"東新町","lat":34.977266,"lng":136.978846,"zip":"4702100"},{"town":"大字森岡","koaza":"浜酉南","lat":34.99151,"lng":136.979277,"zip":"4702100"},{"town":"大字森岡","koaza":"蓮池","lat":34.998916,"lng":136.979557,"zip":"4702100"},{"town":"大字森岡","koaza":"三洲道","lat":34.998894,"lng":136.980543,"zip":"4702100"},{"town":"大字森岡","koaza":"新割木","lat":34.998211,"lng":136.955992,"zip":"4702100"},{"town":"大字森岡","koaza":"下割木","lat":34.999879,"lng":136.957298,"zip":"4702100"}]