[{"town":"大字浦戸","koaza":"","lat":34.756158,"lng":136.907383,"zip":"4703200"},{"town":"大字奥田","koaza":"","lat":34.783027,"lng":136.872836,"zip":"4703200"},{"town":"大字小野浦","koaza":"","lat":34.754604,"lng":136.852123,"zip":"4703200"},{"town":"大字上野間","koaza":"","lat":34.804393,"lng":136.88181,"zip":"4703200"},{"town":"大字古布","koaza":"","lat":34.750472,"lng":136.914042,"zip":"4703200"},{"town":"大字河和","koaza":"","lat":34.773996,"lng":136.894958,"zip":"4703200"},{"town":"大字時志","koaza":"","lat":34.793827,"lng":136.910817,"zip":"4703200"},{"town":"大字豊丘","koaza":"","lat":34.741558,"lng":136.926498,"zip":"4703200"},{"town":"大字野間","koaza":"","lat":34.766024,"lng":136.859733,"zip":"4703200"},{"town":"大字布土","koaza":"","lat":34.805374,"lng":136.905163,"zip":"4703200"},{"town":"北方一丁目","koaza":"","lat":34.781533,"lng":136.906086,"zip":"4702403"},{"town":"河和台一丁目","koaza":"","lat":34.773171,"lng":136.903936,"zip":"4702405"},{"town":"河和台二丁目","koaza":"","lat":34.772322,"lng":136.907602,"zip":"4702405"},{"town":"河和台三丁目","koaza":"","lat":34.770254,"lng":136.904315,"zip":"4702405"},{"town":"新浦戸一丁目","koaza":"","lat":34.763606,"lng":136.918494,"zip":"4702411"},{"town":"新浦戸二丁目","koaza":"","lat":34.764168,"lng":136.920156,"zip":"4702411"},{"town":"新浦戸三丁目","koaza":"","lat":34.763574,"lng":136.921991,"zip":"4702411"},{"town":"新栄一丁目","koaza":"","lat":34.783058,"lng":136.85763,"zip":"4703234"},{"town":"新栄二丁目","koaza":"","lat":34.783681,"lng":136.855714,"zip":"4703234"},{"town":"美浜緑苑一丁目","koaza":"","lat":34.802481,"lng":136.867024,"zip":"4703232"},{"town":"美浜緑苑二丁目","koaza":"","lat":34.802469,"lng":136.868902,"zip":"4703232"},{"town":"美浜緑苑三丁目","koaza":"","lat":34.799137,"lng":136.867988,"zip":"4703232"},{"town":"美浜緑苑四丁目","koaza":"","lat":34.799065,"lng":136.864959,"zip":"4703232"},{"town":"北方二丁目","koaza":"","lat":34.783077,"lng":136.905386,"zip":"4702403"},{"town":"北方三丁目","koaza":"","lat":34.784271,"lng":136.90406,"zip":"4702403"},{"town":"北方六丁目","koaza":"","lat":34.785528,"lng":136.904797,"zip":"4702403"},{"town":"大字北方","koaza":"","lat":34.789895,"lng":136.901941,"zip":"4703200"},{"town":"北方七丁目","koaza":"","lat":34.786609,"lng":136.90686,"zip":"4702403"},{"town":"北方五丁目","koaza":"","lat":34.784873,"lng":136.906246,"zip":"4702403"},{"town":"大字野間","koaza":"冨具崎","lat":34.764557,"lng":136.843911,"zip":"4703200"},{"town":"大字小野浦","koaza":"風宮崎","lat":34.761899,"lng":136.842881,"zip":"4703200"},{"town":"大字小野浦","koaza":"岩成","lat":34.758246,"lng":136.845682,"zip":"4703200"},{"town":"大字野間","koaza":"本郷","lat":34.767385,"lng":136.844898,"zip":"4703200"},{"town":"大字野間","koaza":"南前田","lat":34.762825,"lng":136.849638,"zip":"4703200"},{"town":"大字野間","koaza":"中新田","lat":34.771032,"lng":136.84638,"zip":"4703200"},{"town":"大字野間","koaza":"須賀","lat":34.768807,"lng":136.848418,"zip":"4703200"},{"town":"大字野間","koaza":"上川田","lat":34.767096,"lng":136.847314,"zip":"4703200"},{"town":"大字小野浦","koaza":"福島","lat":34.751366,"lng":136.851595,"zip":"4703200"},{"town":"大字野間","koaza":"新前田","lat":34.768471,"lng":136.853311,"zip":"4703200"},{"town":"大字野間","koaza":"神明","lat":34.765777,"lng":136.847445,"zip":"4703200"},{"town":"大字野間","koaza":"石名原","lat":34.773713,"lng":136.84922,"zip":"4703200"},{"town":"大字小野浦","koaza":"西川","lat":34.754236,"lng":136.849412,"zip":"4703200"},{"town":"大字野間","koaza":"下長堀","lat":34.776271,"lng":136.849494,"zip":"4703200"},{"town":"大字野間","koaza":"小松川","lat":34.770103,"lng":136.848137,"zip":"4703200"},{"town":"大字野間","koaza":"桑名前","lat":34.764689,"lng":136.851663,"zip":"4703200"},{"town":"大字小野浦","koaza":"御子廻間","lat":34.75705,"lng":136.850846,"zip":"4703200"},{"town":"大字野間","koaza":"前川","lat":34.770884,"lng":136.850321,"zip":"4703200"},{"town":"大字野間","koaza":"北向井","lat":34.773092,"lng":136.85073,"zip":"4703200"},{"town":"大字野間","koaza":"南川","lat":34.768095,"lng":136.850521,"zip":"4703200"},{"town":"大字小野浦","koaza":"清水","lat":34.755039,"lng":136.850426,"zip":"4703200"},{"town":"大字野間","koaza":"若松","lat":34.778742,"lng":136.850577,"zip":"4703200"},{"town":"大字野間","koaza":"中町","lat":34.776574,"lng":136.851782,"zip":"4703200"},{"town":"大字野間","koaza":"川田","lat":34.761842,"lng":136.854244,"zip":"4703200"},{"town":"大字小野浦","koaza":"東川","lat":34.752387,"lng":136.851082,"zip":"4703200"},{"town":"大字野間","koaza":"畑中","lat":34.768506,"lng":136.850823,"zip":"4703200"},{"town":"大字野間","koaza":"前田","lat":34.765671,"lng":136.851924,"zip":"4703200"},{"town":"大字奥田","koaza":"天野","lat":34.781011,"lng":136.852033,"zip":"4703200"},{"town":"大字小野浦","koaza":"河谷","lat":34.749537,"lng":136.854065,"zip":"4703200"},{"town":"大字野間","koaza":"東畠ケ","lat":34.771065,"lng":136.852375,"zip":"4703200"},{"town":"大字野間","koaza":"後田","lat":34.773951,"lng":136.852005,"zip":"4703200"},{"town":"大字野間","koaza":"天野","lat":34.777195,"lng":136.85202,"zip":"4703200"},{"town":"大字奥田","koaza":"砂原","lat":34.784559,"lng":136.854073,"zip":"4703200"},{"town":"大字野間","koaza":"新松下","lat":34.772213,"lng":136.85571,"zip":"4703200"},{"town":"大字野間","koaza":"新町","lat":34.775984,"lng":136.854824,"zip":"4703200"},{"town":"大字小野浦","koaza":"宮後","lat":34.752113,"lng":136.853823,"zip":"4703200"},{"town":"大字奥田","koaza":"三ケ市","lat":34.77875,"lng":136.855359,"zip":"4703200"},{"town":"大字奥田","koaza":"松中","lat":34.782735,"lng":136.854284,"zip":"4703200"},{"town":"大字奥田","koaza":"儀路","lat":34.787293,"lng":136.856491,"zip":"4703200"},{"town":"大字奥田","koaza":"西卯起","lat":34.780094,"lng":136.855999,"zip":"4703200"},{"town":"大字野間","koaza":"下高田","lat":34.770516,"lng":136.856575,"zip":"4703200"},{"town":"大字小野浦","koaza":"小池","lat":34.748382,"lng":136.855402,"zip":"4703200"},{"town":"大字奥田","koaza":"石畑","lat":34.792517,"lng":136.859738,"zip":"4703200"},{"town":"大字野間","koaza":"新大町","lat":34.774719,"lng":136.860512,"zip":"4703200"},{"town":"大字野間","koaza":"大坪","lat":34.773339,"lng":136.85695,"zip":"4703200"},{"town":"大字奥田","koaza":"東卯起","lat":34.779059,"lng":136.857813,"zip":"4703200"},{"town":"大字奥田","koaza":"御茶銭","lat":34.797318,"lng":136.861391,"zip":"4703200"},{"town":"大字奥田","koaza":"南大西","lat":34.781321,"lng":136.857885,"zip":"4703200"},{"town":"大字奥田","koaza":"北大西","lat":34.781912,"lng":136.858276,"zip":"4703200"},{"town":"大字奥田","koaza":"石亀","lat":34.795126,"lng":136.862928,"zip":"4703200"},{"town":"大字奥田","koaza":"田原谷","lat":34.802435,"lng":136.860664,"zip":"4703200"},{"town":"大字奥田","koaza":"大庭","lat":34.777336,"lng":136.85892,"zip":"4703200"},{"town":"大字上野間","koaza":"新居","lat":34.804581,"lng":136.859572,"zip":"4703200"},{"town":"大字奥田","koaza":"北側","lat":34.783513,"lng":136.859928,"zip":"4703200"},{"town":"大字上野間","koaza":"新田","lat":34.80644,"lng":136.860284,"zip":"4703200"},{"town":"大字奥田","koaza":"海道田","lat":34.786347,"lng":136.860491,"zip":"4703200"},{"town":"大字奥田","koaza":"南側","lat":34.781019,"lng":136.859924,"zip":"4703200"},{"town":"大字上野間","koaza":"越智","lat":34.808154,"lng":136.861129,"zip":"4703200"},{"town":"大字上野間","koaza":"北川","lat":34.810256,"lng":136.86073,"zip":"4703200"},{"town":"大字奥田","koaza":"外面","lat":34.778372,"lng":136.86159,"zip":"4703200"},{"town":"大字奥田","koaza":"前田","lat":34.782549,"lng":136.862585,"zip":"4703200"},{"town":"大字上野間","koaza":"泉","lat":34.804934,"lng":136.862595,"zip":"4703200"},{"town":"大字奥田","koaza":"森越","lat":34.786502,"lng":136.863965,"zip":"4703200"},{"town":"大字奥田","koaza":"北條","lat":34.783736,"lng":136.862447,"zip":"4703200"},{"town":"大字奥田","koaza":"小原","lat":34.800886,"lng":136.862423,"zip":"4703200"},{"town":"大字上野間","koaza":"高川","lat":34.811703,"lng":136.863593,"zip":"4703200"},{"town":"大字上野間","koaza":"西之脇","lat":34.812953,"lng":136.864154,"zip":"4703200"},{"town":"大字上野間","koaza":"里屋敷","lat":34.806967,"lng":136.863583,"zip":"4703200"},{"town":"大字奥田","koaza":"谷","lat":34.790629,"lng":136.8648,"zip":"4703200"},{"town":"大字野間","koaza":"清王寺","lat":34.76631,"lng":136.865091,"zip":"4703200"},{"town":"大字奥田","koaza":"会下前","lat":34.783235,"lng":136.865808,"zip":"4703200"},{"town":"大字野間","koaza":"内扇","lat":34.762774,"lng":136.86552,"zip":"4703200"},{"town":"大字奥田","koaza":"廻間田","lat":34.781637,"lng":136.865421,"zip":"4703200"},{"town":"大字上野間","koaza":"天神前","lat":34.808976,"lng":136.863827,"zip":"4703200"},{"town":"大字野間","koaza":"田上","lat":34.773796,"lng":136.86555,"zip":"4703200"},{"town":"大字上野間","koaza":"鴻田","lat":34.807868,"lng":136.865212,"zip":"4703200"},{"town":"大字上野間","koaza":"祢宜廻間","lat":34.805596,"lng":136.866675,"zip":"4703200"},{"town":"大字野間","koaza":"新杉谷","lat":34.768924,"lng":136.867893,"zip":"4703200"},{"town":"大字奥田","koaza":"至ル谷","lat":34.791131,"lng":136.866713,"zip":"4703200"},{"town":"大字野間","koaza":"姫乗","lat":34.759309,"lng":136.871689,"zip":"4703200"},{"town":"大字上野間","koaza":"的場","lat":34.811213,"lng":136.866319,"zip":"4703200"},{"town":"大字上野間","koaza":"郷戸","lat":34.809169,"lng":136.86707,"zip":"4703200"},{"town":"大字野間","koaza":"谷田口","lat":34.759039,"lng":136.867887,"zip":"4703200"},{"town":"大字野間","koaza":"下モ田","lat":34.767674,"lng":136.866075,"zip":"4703200"},{"town":"大字上野間","koaza":"杉代","lat":34.811062,"lng":136.86873,"zip":"4703200"},{"town":"大字上野間","koaza":"深廻間","lat":34.806824,"lng":136.869012,"zip":"4703200"},{"town":"大字野間","koaza":"東谷","lat":34.77078,"lng":136.869973,"zip":"4703200"},{"town":"大字奥田","koaza":"小廻間","lat":34.782438,"lng":136.873605,"zip":"4703200"},{"town":"大字上野間","koaza":"宮廻間","lat":34.810578,"lng":136.871742,"zip":"4703200"},{"town":"大字野間","koaza":"南高峠","lat":34.763803,"lng":136.869308,"zip":"4703200"},{"town":"大字野間","koaza":"井杉谷","lat":34.765869,"lng":136.870829,"zip":"4703200"},{"town":"大字野間","koaza":"高峠","lat":34.765437,"lng":136.870312,"zip":"4703200"},{"town":"大字奥田","koaza":"清代","lat":34.775013,"lng":136.871506,"zip":"4703200"},{"town":"大字奥田","koaza":"中之谷","lat":34.785408,"lng":136.869051,"zip":"4703200"},{"town":"大字野間","koaza":"杉谷","lat":34.768918,"lng":136.870988,"zip":"4703200"},{"town":"大字奥田","koaza":"滝谷","lat":34.80035,"lng":136.87325,"zip":"4703200"},{"town":"大字野間","koaza":"馬池","lat":34.763001,"lng":136.872157,"zip":"4703200"},{"town":"大字奥田","koaza":"芋沢","lat":34.766086,"lng":136.877896,"zip":"4703200"},{"town":"大字奥田","koaza":"中白沢","lat":34.788176,"lng":136.881079,"zip":"4703200"},{"town":"大字上野間","koaza":"中新田","lat":34.800795,"lng":136.88003,"zip":"4703200"},{"town":"大字奥田","koaza":"真虫","lat":34.767399,"lng":136.884533,"zip":"4703200"},{"town":"大字北方","koaza":"尾木毛","lat":34.798016,"lng":136.892328,"zip":"4703200"},{"town":"大字北方","koaza":"十二谷","lat":34.792844,"lng":136.887655,"zip":"4703200"},{"town":"大字布土","koaza":"豆池","lat":34.808711,"lng":136.889078,"zip":"4703200"},{"town":"大字河和","koaza":"小田","lat":34.772448,"lng":136.891468,"zip":"4703200"},{"town":"大字河和","koaza":"姥八反","lat":34.780436,"lng":136.890793,"zip":"4703200"},{"town":"大字河和","koaza":"亀ケ坪","lat":34.770369,"lng":136.89539,"zip":"4703200"},{"town":"大字北方","koaza":"吉田流","lat":34.79143,"lng":136.894778,"zip":"4703200"},{"town":"大字北方","koaza":"山鼻","lat":34.787438,"lng":136.897496,"zip":"4703200"},{"town":"大字北方","koaza":"井柳","lat":34.793981,"lng":136.895037,"zip":"4703200"},{"town":"大字河和","koaza":"南橘田","lat":34.764386,"lng":136.898843,"zip":"4703200"},{"town":"大字河和","koaza":"平田","lat":34.782014,"lng":136.900121,"zip":"4703200"},{"town":"大字河和","koaza":"小坂","lat":34.771908,"lng":136.900102,"zip":"4703200"},{"town":"大字河和","koaza":"岡ノ脇","lat":34.778708,"lng":136.902713,"zip":"4703200"},{"town":"大字浦戸","koaza":"大沢","lat":34.754668,"lng":136.906016,"zip":"4703200"},{"town":"大字布土","koaza":"志洞","lat":34.80952,"lng":136.90439,"zip":"4703200"},{"town":"大字北方","koaza":"稲道","lat":34.785855,"lng":136.902776,"zip":"4703200"},{"town":"大字布土","koaza":"半月","lat":34.80232,"lng":136.908119,"zip":"4703200"},{"town":"大字北方","koaza":"阿嶽","lat":34.788083,"lng":136.905754,"zip":"4703200"},{"town":"大字河和","koaza":"道土","lat":34.765344,"lng":136.905056,"zip":"4703200"},{"town":"大字河和","koaza":"花廻間","lat":34.771497,"lng":136.909564,"zip":"4703200"},{"town":"大字布土","koaza":"大池脇","lat":34.799246,"lng":136.913559,"zip":"4703200"},{"town":"大字古布","koaza":"善切","lat":34.749003,"lng":136.906258,"zip":"4703200"},{"town":"大字河和","koaza":"西谷","lat":34.775299,"lng":136.907838,"zip":"4703200"},{"town":"大字河和","koaza":"細田","lat":34.760877,"lng":136.909348,"zip":"4703200"},{"town":"大字布土","koaza":"南亀井","lat":34.805668,"lng":136.911724,"zip":"4703200"},{"town":"大字時志","koaza":"西海道","lat":34.793023,"lng":136.916856,"zip":"4703200"},{"town":"大字北方","koaza":"土海道","lat":34.780385,"lng":136.906098,"zip":"4703200"},{"town":"大字河和","koaza":"北田面","lat":34.778117,"lng":136.909467,"zip":"4703200"},{"town":"大字古布","koaza":"石田","lat":34.748414,"lng":136.910065,"zip":"4703200"},{"town":"大字北方","koaza":"柿谷","lat":34.786254,"lng":136.90441,"zip":"4703200"},{"town":"大字河和","koaza":"上前田","lat":34.767709,"lng":136.913018,"zip":"4703200"},{"town":"大字布土","koaza":"赤目平井","lat":34.812738,"lng":136.910176,"zip":"4703200"},{"town":"大字布土","koaza":"平田","lat":34.808189,"lng":136.909065,"zip":"4703200"},{"town":"大字北方","koaza":"西側","lat":34.77896,"lng":136.910805,"zip":"4703200"},{"town":"大字布土","koaza":"明山","lat":34.809965,"lng":136.912277,"zip":"4703200"},{"town":"大字北方","koaza":"平井下","lat":34.78039,"lng":136.912445,"zip":"4703200"},{"town":"大字北方","koaza":"立戸","lat":34.785463,"lng":136.91023,"zip":"4703200"},{"town":"大字河和","koaza":"古屋敷","lat":34.771138,"lng":136.910629,"zip":"4703200"},{"town":"大字古布","koaza":"桝池","lat":34.741583,"lng":136.914528,"zip":"4703200"},{"town":"大字古布","koaza":"九條","lat":34.750213,"lng":136.911173,"zip":"4703200"},{"town":"大字河和","koaza":"北屋敷","lat":34.775491,"lng":136.913165,"zip":"4703200"},{"town":"大字北方","koaza":"白山","lat":34.789026,"lng":136.918622,"zip":"4703200"},{"town":"大字布土","koaza":"北亀井","lat":34.805927,"lng":136.914678,"zip":"4703200"},{"town":"大字古布","koaza":"砂行","lat":34.748972,"lng":136.913429,"zip":"4703200"},{"town":"大字北方","koaza":"東側","lat":34.779393,"lng":136.913475,"zip":"4703200"},{"town":"大字河和","koaza":"南屋敷","lat":34.771154,"lng":136.913542,"zip":"4703200"},{"town":"大字河和","koaza":"六反田","lat":34.764355,"lng":136.914033,"zip":"4703200"},{"town":"大字浦戸","koaza":"落合","lat":34.760152,"lng":136.916351,"zip":"4703200"},{"town":"大字北方","koaza":"打越","lat":34.784399,"lng":136.914554,"zip":"4703200"},{"town":"大字北方","koaza":"宮東","lat":34.780555,"lng":136.914514,"zip":"4703200"},{"town":"大字布土","koaza":"権太","lat":34.797976,"lng":136.916779,"zip":"4703200"},{"town":"大字布土","koaza":"平井","lat":34.808641,"lng":136.916621,"zip":"4703200"},{"town":"大字時志","koaza":"南平井","lat":34.790271,"lng":136.916895,"zip":"4703200"},{"town":"大字時志","koaza":"北郷中","lat":34.793656,"lng":136.917464,"zip":"4703200"},{"town":"大字布土","koaza":"外平井","lat":34.811331,"lng":136.916527,"zip":"4703200"},{"town":"大字豊丘","koaza":"親街戸","lat":34.736786,"lng":136.919601,"zip":"4703200"},{"town":"大字浦戸","koaza":"峯","lat":34.762076,"lng":136.915986,"zip":"4703200"},{"town":"大字布土","koaza":"大池","lat":34.802975,"lng":136.919294,"zip":"4703200"},{"town":"大字布土","koaza":"中平井","lat":34.795613,"lng":136.918844,"zip":"4703200"},{"town":"大字古布","koaza":"奥之海道","lat":34.751514,"lng":136.917009,"zip":"4703200"},{"town":"大字布土","koaza":"上村","lat":34.805401,"lng":136.917953,"zip":"4703200"},{"town":"大字豊丘","koaza":"法花寺脇","lat":34.747787,"lng":136.927531,"zip":"4703200"},{"town":"大字浦戸","koaza":"籠田","lat":34.763579,"lng":136.917136,"zip":"4703200"},{"town":"大字布土","koaza":"和田","lat":34.799648,"lng":136.918673,"zip":"4703200"},{"town":"大字時志","koaza":"南郷中","lat":34.792099,"lng":136.918037,"zip":"4703200"},{"town":"大字豊丘","koaza":"西平井","lat":34.748423,"lng":136.921855,"zip":"4703200"},{"town":"大字豊丘","koaza":"向戸","lat":34.737163,"lng":136.922328,"zip":"4703200"},{"town":"大字古布","koaza":"長平治","lat":34.751198,"lng":136.921579,"zip":"4703200"},{"town":"大字布土","koaza":"北浜田","lat":34.807679,"lng":136.919414,"zip":"4703200"},{"town":"大字布土","koaza":"梅之木","lat":34.810969,"lng":136.918907,"zip":"4703200"},{"town":"大字古布","koaza":"溝相","lat":34.755472,"lng":136.92097,"zip":"4703200"},{"town":"大字古布","koaza":"須田","lat":34.752652,"lng":136.919196,"zip":"4703200"},{"town":"大字古布","koaza":"柿ケ坪","lat":34.758552,"lng":136.919754,"zip":"4703200"},{"town":"大字布土","koaza":"郷下","lat":34.805738,"lng":136.920099,"zip":"4703200"},{"town":"大字浦戸","koaza":"前田","lat":34.762663,"lng":136.919177,"zip":"4703200"},{"town":"大字浦戸","koaza":"森下","lat":34.763445,"lng":136.92339,"zip":"4703200"},{"town":"大字古布","koaza":"屋敷","lat":34.759654,"lng":136.923869,"zip":"4703200"},{"town":"大字豊丘","koaza":"平街戸","lat":34.742616,"lng":136.924353,"zip":"4703200"},{"town":"大字豊丘","koaza":"西ノ街戸","lat":34.740547,"lng":136.921663,"zip":"4703200"},{"town":"大字古布","koaza":"平井","lat":34.753536,"lng":136.924384,"zip":"4703200"},{"town":"大字豊丘","koaza":"西側","lat":34.739156,"lng":136.922419,"zip":"4703200"},{"town":"大字豊丘","koaza":"浜","lat":34.751595,"lng":136.935208,"zip":"4703200"},{"town":"大字豊丘","koaza":"東側","lat":34.738284,"lng":136.923163,"zip":"4703200"},{"town":"大字豊丘","koaza":"北平井","lat":34.750461,"lng":136.924694,"zip":"4703200"},{"town":"大字豊丘","koaza":"北側","lat":34.740156,"lng":136.923331,"zip":"4703200"},{"town":"大字豊丘","koaza":"上田","lat":34.74481,"lng":136.927393,"zip":"4703200"},{"town":"大字豊丘","koaza":"中平井","lat":34.753459,"lng":136.928704,"zip":"4703200"},{"town":"大字豊丘","koaza":"東平井","lat":34.751204,"lng":136.927948,"zip":"4703200"},{"town":"大字豊丘","koaza":"原子","lat":34.755139,"lng":136.929941,"zip":"4703200"},{"town":"大字豊丘","koaza":"阿原","lat":34.74754,"lng":136.93115,"zip":"4703200"},{"town":"大字豊丘","koaza":"上小谷","lat":34.741642,"lng":136.931767,"zip":"4703200"},{"town":"大字豊丘","koaza":"五宝","lat":34.752262,"lng":136.934453,"zip":"4703200"},{"town":"大字豊丘","koaza":"里","lat":34.749394,"lng":136.930814,"zip":"4703200"},{"town":"大字豊丘","koaza":"郷島","lat":34.7506,"lng":136.932506,"zip":"4703200"},{"town":"大字豊丘","koaza":"牛ケ平井","lat":34.746772,"lng":136.935846,"zip":"4703200"},{"town":"大字豊丘","koaza":"下小谷","lat":34.749894,"lng":136.935136,"zip":"4703200"},{"town":"大字豊丘","koaza":"樹木","lat":34.746543,"lng":136.939496,"zip":"4703200"}]