[{"town":"上り戸一丁目","koaza":"","lat":34.955687,"lng":136.875098,"zip":"4780058"},{"town":"上り戸二丁目","koaza":"","lat":34.955948,"lng":136.878483,"zip":"4780058"},{"town":"上り戸三丁目","koaza":"","lat":34.955303,"lng":136.882471,"zip":"4780058"},{"town":"上り戸四丁目","koaza":"","lat":34.95312,"lng":136.878108,"zip":"4780058"},{"town":"朝倉町","koaza":"","lat":34.99144,"lng":136.867752,"zip":"4780051"},{"town":"旭一丁目","koaza":"","lat":34.955721,"lng":136.8417,"zip":"4780031"},{"town":"旭二丁目","koaza":"","lat":34.95517,"lng":136.846354,"zip":"4780031"},{"town":"旭三丁目","koaza":"","lat":34.953928,"lng":136.84421,"zip":"4780031"},{"town":"旭四丁目","koaza":"","lat":34.953866,"lng":136.839666,"zip":"4780031"},{"town":"旭五丁目","koaza":"","lat":34.952203,"lng":136.838568,"zip":"4780031"},{"town":"旭六丁目","koaza":"","lat":34.951375,"lng":136.84418,"zip":"4780031"},{"town":"阿原一丁目","koaza":"","lat":34.984106,"lng":136.880184,"zip":"4780005"},{"town":"阿原二丁目","koaza":"","lat":34.982424,"lng":136.880553,"zip":"4780005"},{"town":"伊賀坂一丁目","koaza":"","lat":34.985386,"lng":136.886633,"zip":"4780004"},{"town":"伊賀坂二丁目","koaza":"","lat":34.987848,"lng":136.88935,"zip":"4780004"},{"town":"伊賀坂三丁目","koaza":"","lat":34.984343,"lng":136.889938,"zip":"4780004"},{"town":"梅が丘一丁目","koaza":"","lat":34.97269,"lng":136.875515,"zip":"4780016"},{"town":"梅が丘二丁目","koaza":"","lat":34.971315,"lng":136.879663,"zip":"4780016"},{"town":"大草","koaza":"","lat":34.944028,"lng":136.829465,"zip":"4780035"},{"town":"大僧一丁目","koaza":"","lat":34.944701,"lng":136.86444,"zip":"4780067"},{"town":"大僧二丁目","koaza":"","lat":34.944504,"lng":136.869992,"zip":"4780067"},{"town":"大僧三丁目","koaza":"","lat":34.942323,"lng":136.870263,"zip":"4780067"},{"town":"大僧四丁目","koaza":"","lat":34.942576,"lng":136.865231,"zip":"4780067"},{"town":"岡田","koaza":"","lat":34.965909,"lng":136.871035,"zip":"4780021"},{"town":"岡田美里町","koaza":"","lat":34.967803,"lng":136.854063,"zip":"4780062"},{"town":"岡田緑が丘","koaza":"","lat":34.970896,"lng":136.865642,"zip":"4780028"},{"town":"笠松一丁目","koaza":"","lat":34.986656,"lng":136.892621,"zip":"4780000"},{"town":"笠松二丁目","koaza":"","lat":34.986059,"lng":136.895238,"zip":"4780000"},{"town":"笠松三丁目","koaza":"","lat":34.982451,"lng":136.894035,"zip":"4780000"},{"town":"金沢","koaza":"","lat":34.948206,"lng":136.843074,"zip":"4780032"},{"town":"鎌が谷一丁目","koaza":"","lat":34.981169,"lng":136.896182,"zip":"4780000"},{"town":"鎌が谷二丁目","koaza":"","lat":34.979799,"lng":136.901188,"zip":"4780000"},{"town":"神田一丁目","koaza":"","lat":34.946117,"lng":136.841909,"zip":"4780033"},{"town":"神田二丁目","koaza":"","lat":34.943102,"lng":136.846123,"zip":"4780033"},{"town":"神田三丁目","koaza":"","lat":34.941634,"lng":136.847959,"zip":"4780033"},{"town":"神田四丁目","koaza":"","lat":34.939909,"lng":136.848128,"zip":"4780033"},{"town":"北浜町","koaza":"","lat":34.996736,"lng":136.853962,"zip":"4780046"},{"town":"旭桃台","koaza":"","lat":34.952968,"lng":136.856532,"zip":"4780044"},{"town":"旭南一丁目","koaza":"","lat":34.948757,"lng":136.835966,"zip":"4780034"},{"town":"旭南二丁目","koaza":"","lat":34.947509,"lng":136.83387,"zip":"4780034"},{"town":"旭南三丁目","koaza":"","lat":34.94536,"lng":136.836906,"zip":"4780034"},{"town":"旭南四丁目","koaza":"","lat":34.942347,"lng":136.836413,"zip":"4780034"},{"town":"旭南五丁目","koaza":"","lat":34.942413,"lng":136.833477,"zip":"4780034"},{"town":"旭南六丁目","koaza":"","lat":34.93887,"lng":136.831401,"zip":"4780034"},{"town":"こうの巣一丁目","koaza":"","lat":34.976964,"lng":136.892064,"zip":"4780000"},{"town":"こうの巣二丁目","koaza":"","lat":34.9731,"lng":136.895372,"zip":"4780000"},{"town":"三反田一丁目","koaza":"","lat":34.978689,"lng":136.893157,"zip":"4780006"},{"town":"三反田二丁目","koaza":"","lat":34.98038,"lng":136.89308,"zip":"4780006"},{"town":"三反田三丁目","koaza":"","lat":34.976186,"lng":136.897473,"zip":"4780006"},{"town":"清水が丘二丁目","koaza":"","lat":34.988961,"lng":136.874831,"zip":"4780053"},{"town":"新刀池一丁目","koaza":"","lat":34.948686,"lng":136.868319,"zip":"4780069"},{"town":"新刀池二丁目","koaza":"","lat":34.948332,"lng":136.871172,"zip":"4780069"},{"town":"新知","koaza":"","lat":34.979242,"lng":136.858701,"zip":"4780017"},{"town":"新知台一丁目","koaza":"","lat":34.986108,"lng":136.863284,"zip":"4780064"},{"town":"新知台二丁目","koaza":"","lat":34.983039,"lng":136.867198,"zip":"4780064"},{"town":"新知西町","koaza":"","lat":34.985388,"lng":136.862337,"zip":"4780066"},{"town":"新知東町一丁目","koaza":"","lat":34.982055,"lng":136.864996,"zip":"4780065"},{"town":"新知東町二丁目","koaza":"","lat":34.97898,"lng":136.866681,"zip":"4780065"},{"town":"新知東町三丁目","koaza":"","lat":34.976271,"lng":136.869695,"zip":"4780065"},{"town":"新長根一丁目","koaza":"","lat":34.95559,"lng":136.86467,"zip":"4780059"},{"town":"新長根二丁目","koaza":"","lat":34.953714,"lng":136.866906,"zip":"4780059"},{"town":"新長根三丁目","koaza":"","lat":34.95311,"lng":136.864099,"zip":"4780059"},{"town":"新広見","koaza":"","lat":34.949891,"lng":136.856354,"zip":"4780027"},{"town":"新舞子","koaza":"","lat":34.954501,"lng":136.830812,"zip":"4780036"},{"town":"新舞子東町一丁目","koaza":"","lat":34.954265,"lng":136.835882,"zip":"4780037"},{"town":"新舞子東町二丁目","koaza":"","lat":34.95211,"lng":136.834212,"zip":"4780037"},{"town":"佐布里","koaza":"","lat":34.967539,"lng":136.884138,"zip":"4780015"},{"town":"佐布里台一丁目","koaza":"","lat":34.970098,"lng":136.886737,"zip":"4780018"},{"town":"佐布里台二丁目","koaza":"","lat":34.969807,"lng":136.890265,"zip":"4780018"},{"town":"佐布里台三丁目","koaza":"","lat":34.966353,"lng":136.887322,"zip":"4780018"},{"town":"大興寺","koaza":"","lat":34.944396,"lng":136.857771,"zip":"4780022"},{"town":"巽が丘一丁目","koaza":"","lat":34.963361,"lng":136.911041,"zip":"4780012"},{"town":"巽が丘二丁目","koaza":"","lat":34.963713,"lng":136.913739,"zip":"4780012"},{"town":"巽が丘三丁目","koaza":"","lat":34.963973,"lng":136.916291,"zip":"4780012"},{"town":"巽が丘四丁目","koaza":"","lat":34.961547,"lng":136.91311,"zip":"4780012"},{"town":"つつじが丘一丁目","koaza":"","lat":34.987333,"lng":136.870591,"zip":"4780054"},{"town":"つつじが丘二丁目","koaza":"","lat":34.985722,"lng":136.874422,"zip":"4780054"},{"town":"つつじが丘三丁目","koaza":"","lat":34.982889,"lng":136.872894,"zip":"4780054"},{"town":"つつじが丘四丁目","koaza":"","lat":34.985524,"lng":136.867737,"zip":"4780054"},{"town":"寺本新町一丁目","koaza":"","lat":34.996034,"lng":136.877097,"zip":"4780063"},{"town":"寺本新町二丁目","koaza":"","lat":35.000586,"lng":136.880794,"zip":"4780063"},{"town":"寺本台一丁目","koaza":"","lat":34.995542,"lng":136.883704,"zip":"4780003"},{"town":"寺本台二丁目","koaza":"","lat":34.99197,"lng":136.883512,"zip":"4780003"},{"town":"寺本台三丁目","koaza":"","lat":34.989297,"lng":136.883637,"zip":"4780003"},{"town":"寺本台四丁目","koaza":"","lat":34.988174,"lng":136.884987,"zip":"4780003"},{"town":"長浦一丁目","koaza":"","lat":34.97951,"lng":136.849139,"zip":"4780042"},{"town":"長浦二丁目","koaza":"","lat":34.975803,"lng":136.850536,"zip":"4780042"},{"town":"長浦三丁目","koaza":"","lat":34.975978,"lng":136.846662,"zip":"4780042"},{"town":"中原一丁目","koaza":"","lat":34.949629,"lng":136.860994,"zip":"4780068"},{"town":"中原二丁目","koaza":"","lat":34.950392,"lng":136.865116,"zip":"4780068"},{"town":"中原三丁目","koaza":"","lat":34.947238,"lng":136.865057,"zip":"4780068"},{"town":"中原四丁目","koaza":"","lat":34.947372,"lng":136.859796,"zip":"4780068"},{"town":"西巽が丘一丁目","koaza":"","lat":34.964019,"lng":136.90718,"zip":"4780014"},{"town":"西巽が丘二丁目","koaza":"","lat":34.961131,"lng":136.906261,"zip":"4780014"},{"town":"西巽が丘三丁目","koaza":"","lat":34.959199,"lng":136.906282,"zip":"4780014"},{"town":"にしの台一丁目","koaza":"","lat":34.981809,"lng":136.877512,"zip":"4780055"},{"town":"にしの台二丁目","koaza":"","lat":34.97658,"lng":136.875273,"zip":"4780055"},{"town":"にしの台三丁目","koaza":"","lat":34.974458,"lng":136.872688,"zip":"4780055"},{"town":"にしの台四丁目","koaza":"","lat":34.979738,"lng":136.871962,"zip":"4780055"},{"town":"原一丁目","koaza":"","lat":34.976199,"lng":136.908146,"zip":"4780011"},{"town":"原二丁目","koaza":"","lat":34.973383,"lng":136.909859,"zip":"4780011"},{"town":"東大僧一丁目","koaza":"","lat":34.950374,"lng":136.876675,"zip":"4780061"},{"town":"東大僧二丁目","koaza":"","lat":34.947444,"lng":136.878157,"zip":"4780061"},{"town":"東大僧三丁目","koaza":"","lat":34.943379,"lng":136.875427,"zip":"4780061"},{"town":"日長","koaza":"","lat":34.964663,"lng":136.842811,"zip":"4780041"},{"town":"日長台","koaza":"","lat":34.955198,"lng":136.852439,"zip":"4780043"},{"town":"日長東田一丁目","koaza":"","lat":34.96599,"lng":136.850135,"zip":"4780000"},{"town":"日長東田二丁目","koaza":"","lat":34.967232,"lng":136.848744,"zip":"4780000"},{"town":"日長東田三丁目","koaza":"","lat":34.966805,"lng":136.84519,"zip":"4780000"},{"town":"平野一丁目","koaza":"","lat":34.999078,"lng":136.881214,"zip":"4780002"},{"town":"平野二丁目","koaza":"","lat":34.998365,"lng":136.882949,"zip":"4780002"},{"town":"平野三丁目","koaza":"","lat":34.997187,"lng":136.885158,"zip":"4780002"},{"town":"吹込一丁目","koaza":"","lat":34.959284,"lng":136.867196,"zip":"4780057"},{"town":"吹込二丁目","koaza":"","lat":34.958564,"lng":136.870208,"zip":"4780057"},{"town":"吹込三丁目","koaza":"","lat":34.959083,"lng":136.87306,"zip":"4780057"},{"town":"吹込四丁目","koaza":"","lat":34.956422,"lng":136.87128,"zip":"4780057"},{"town":"吹込五丁目","koaza":"","lat":34.956637,"lng":136.866606,"zip":"4780057"},{"town":"馬背口一丁目","koaza":"","lat":34.982567,"lng":136.884995,"zip":"4780000"},{"town":"馬背口二丁目","koaza":"","lat":34.979834,"lng":136.888563,"zip":"4780000"},{"town":"馬背口三丁目","koaza":"","lat":34.977758,"lng":136.887623,"zip":"4780000"},{"town":"緑浜町","koaza":"","lat":34.957678,"lng":136.819,"zip":"4780000"},{"town":"緑町","koaza":"","lat":34.997415,"lng":136.865442,"zip":"4780047"},{"town":"南粕谷一丁目","koaza":"","lat":34.935399,"lng":136.850313,"zip":"4780024"},{"town":"南粕谷二丁目","koaza":"","lat":34.934233,"lng":136.852526,"zip":"4780024"},{"town":"南粕谷三丁目","koaza":"","lat":34.939185,"lng":136.851864,"zip":"4780024"},{"town":"南粕谷四丁目","koaza":"","lat":34.937941,"lng":136.854441,"zip":"4780024"},{"town":"南粕谷新海一丁目","koaza":"","lat":34.939877,"lng":136.838157,"zip":"4780026"},{"town":"南粕谷新海二丁目","koaza":"","lat":34.936635,"lng":136.842398,"zip":"4780026"},{"town":"南粕谷新海三丁目","koaza":"","lat":34.937382,"lng":136.838641,"zip":"4780026"},{"town":"南粕谷新海四丁目","koaza":"","lat":34.938108,"lng":136.834954,"zip":"4780026"},{"town":"南粕谷東坂一丁目","koaza":"","lat":34.935848,"lng":136.856538,"zip":"4780023"},{"town":"南粕谷東坂二丁目","koaza":"","lat":34.938291,"lng":136.859333,"zip":"4780023"},{"town":"南粕谷本町一丁目","koaza":"","lat":34.940072,"lng":136.842134,"zip":"4780025"},{"town":"南粕谷本町二丁目","koaza":"","lat":34.939846,"lng":136.845069,"zip":"4780025"},{"town":"南粕谷本町三丁目","koaza":"","lat":34.937063,"lng":136.848886,"zip":"4780025"},{"town":"南粕谷本町四丁目","koaza":"","lat":34.936372,"lng":136.846106,"zip":"4780025"},{"town":"南粕谷本町五丁目","koaza":"","lat":34.933764,"lng":136.846459,"zip":"4780025"},{"town":"南巽が丘一丁目","koaza":"","lat":34.961524,"lng":136.908993,"zip":"4780013"},{"town":"南巽が丘二丁目","koaza":"","lat":34.96053,"lng":136.911071,"zip":"4780013"},{"town":"南巽が丘三丁目","koaza":"","lat":34.959862,"lng":136.908826,"zip":"4780013"},{"town":"南巽が丘四丁目","koaza":"","lat":34.958749,"lng":136.909472,"zip":"4780013"},{"town":"南谷一丁目","koaza":"","lat":34.96244,"lng":136.863121,"zip":"4780056"},{"town":"南谷二丁目","koaza":"","lat":34.963391,"lng":136.860414,"zip":"4780056"},{"town":"南谷三丁目","koaza":"","lat":34.959582,"lng":136.860903,"zip":"4780056"},{"town":"南谷四丁目","koaza":"","lat":34.957258,"lng":136.861237,"zip":"4780056"},{"town":"南浜町","koaza":"","lat":34.973987,"lng":136.835357,"zip":"4780045"},{"town":"社山一丁目","koaza":"","lat":34.99511,"lng":136.891608,"zip":"4780000"},{"town":"社山二丁目","koaza":"","lat":34.991798,"lng":136.892176,"zip":"4780000"},{"town":"柳花一丁目","koaza":"","lat":34.992714,"lng":136.88572,"zip":"4780000"},{"town":"柳花二丁目","koaza":"","lat":34.996857,"lng":136.887836,"zip":"4780000"},{"town":"柳花三丁目","koaza":"","lat":34.991302,"lng":136.888769,"zip":"4780000"},{"town":"山屋敷一丁目","koaza":"","lat":34.953532,"lng":136.868717,"zip":"4780060"},{"town":"山屋敷二丁目","koaza":"","lat":34.95371,"lng":136.872045,"zip":"4780060"},{"town":"山屋敷三丁目","koaza":"","lat":34.952724,"lng":136.875469,"zip":"4780060"},{"town":"八幡新町二丁目","koaza":"","lat":34.991498,"lng":136.872274,"zip":"4780052"},{"town":"八幡新町三丁目","koaza":"","lat":34.989545,"lng":136.871167,"zip":"4780052"},{"town":"八幡新町一丁目","koaza":"","lat":34.993897,"lng":136.868448,"zip":"4780052"},{"town":"清水が丘一丁目","koaza":"","lat":34.991559,"lng":136.876702,"zip":"4780053"},{"town":"八幡","koaza":"","lat":34.993423,"lng":136.872817,"zip":"4780001"},{"town":"東七曲","koaza":"","lat":34.971648,"lng":136.901659,"zip":"4780000"},{"town":"大草","koaza":"四方田","lat":34.943039,"lng":136.827136,"zip":"4780035"},{"town":"大草","koaza":"大瀬","lat":34.945946,"lng":136.828282,"zip":"4780035"},{"town":"新舞子","koaza":"大瀬","lat":34.949536,"lng":136.82821,"zip":"4780036"},{"town":"大草","koaza":"西屋敷","lat":34.94118,"lng":136.828197,"zip":"4780035"},{"town":"新舞子","koaza":"竜","lat":34.953101,"lng":136.828109,"zip":"4780036"},{"town":"新舞子","koaza":"西畑ケ","lat":34.954579,"lng":136.828847,"zip":"4780036"},{"town":"大草","koaza":"南田面","lat":34.939572,"lng":136.829228,"zip":"4780035"},{"town":"大草","koaza":"西畑","lat":34.944912,"lng":136.8294,"zip":"4780035"},{"town":"新舞子","koaza":"郷戸","lat":34.957901,"lng":136.830381,"zip":"4780036"},{"town":"新舞子","koaza":"明知山","lat":34.949509,"lng":136.829793,"zip":"4780036"},{"town":"大草","koaza":"牟山堂","lat":34.937826,"lng":136.82972,"zip":"4780035"},{"town":"大草","koaza":"東屋敷","lat":34.941298,"lng":136.83007,"zip":"4780035"},{"town":"新舞子","koaza":"出口","lat":34.951788,"lng":136.830352,"zip":"4780036"},{"town":"大草","koaza":"見内山","lat":34.948057,"lng":136.830087,"zip":"4780035"},{"town":"大草","koaza":"中道筋","lat":34.943625,"lng":136.830103,"zip":"4780035"},{"town":"日長","koaza":"江口","lat":34.9612,"lng":136.831841,"zip":"4780041"},{"town":"新舞子","koaza":"南屋敷","lat":34.953188,"lng":136.830303,"zip":"4780036"},{"town":"新舞子","koaza":"神田","lat":34.956731,"lng":136.831049,"zip":"4780036"},{"town":"新舞子","koaza":"浜田","lat":34.95968,"lng":136.831238,"zip":"4780036"},{"town":"新舞子","koaza":"北屋敷","lat":34.955634,"lng":136.8313,"zip":"4780036"},{"town":"大草","koaza":"東畑","lat":34.943713,"lng":136.831048,"zip":"4780035"},{"town":"大草","koaza":"間瀬口","lat":34.947481,"lng":136.830989,"zip":"4780035"},{"town":"新舞子","koaza":"南西田","lat":34.95348,"lng":136.831884,"zip":"4780036"},{"town":"新舞子","koaza":"大口","lat":34.950501,"lng":136.831722,"zip":"4780036"},{"town":"日長","koaza":"浦畑口","lat":34.957762,"lng":136.832591,"zip":"4780041"},{"town":"大草","koaza":"北ノ田","lat":34.947294,"lng":136.831808,"zip":"4780035"},{"town":"大草","koaza":"御堂前","lat":34.945912,"lng":136.833132,"zip":"4780035"},{"town":"新舞子","koaza":"北西田","lat":34.955444,"lng":136.83178,"zip":"4780036"},{"town":"大草","koaza":"江端","lat":34.942144,"lng":136.831751,"zip":"4780035"},{"town":"日長","koaza":"森下","lat":34.962236,"lng":136.833081,"zip":"4780041"},{"town":"大草","koaza":"ヒシケ","lat":34.943425,"lng":136.832344,"zip":"4780035"},{"town":"新舞子","koaza":"廻間","lat":34.95568,"lng":136.833635,"zip":"4780036"},{"town":"新舞子","koaza":"北畑","lat":34.954825,"lng":136.833772,"zip":"4780036"},{"town":"新舞子","koaza":"竹ノ花","lat":34.950687,"lng":136.833633,"zip":"4780036"},{"town":"日長","koaza":"西畑","lat":34.956967,"lng":136.833885,"zip":"4780041"},{"town":"日長","koaza":"会ケ前","lat":34.957721,"lng":136.834393,"zip":"4780041"},{"town":"日長","koaza":"神山畔","lat":34.960097,"lng":136.834349,"zip":"4780041"},{"town":"日長","koaza":"汐田","lat":34.958659,"lng":136.834584,"zip":"4780041"},{"town":"日長","koaza":"浦畑","lat":34.96752,"lng":136.838001,"zip":"4780041"},{"town":"金沢","koaza":"西田","lat":34.950501,"lng":136.83531,"zip":"4780032"},{"town":"日長","koaza":"ヲチダ","lat":34.957846,"lng":136.835859,"zip":"4780041"},{"town":"日長","koaza":"城見坂","lat":34.960997,"lng":136.836751,"zip":"4780041"},{"town":"日長","koaza":"中森谷","lat":34.962775,"lng":136.83648,"zip":"4780041"},{"town":"日長","koaza":"前田口","lat":34.959582,"lng":136.837443,"zip":"4780041"},{"town":"日長","koaza":"前田","lat":34.955519,"lng":136.836537,"zip":"4780041"},{"town":"日長","koaza":"神之木","lat":34.956667,"lng":136.836736,"zip":"4780041"},{"town":"金沢","koaza":"北根","lat":34.950177,"lng":136.837529,"zip":"4780032"},{"town":"日長","koaza":"ヲコシ","lat":34.958021,"lng":136.837257,"zip":"4780041"},{"town":"金沢","koaza":"稲荷山","lat":34.952295,"lng":136.836854,"zip":"4780032"},{"town":"金沢","koaza":"南根","lat":34.949381,"lng":136.83785,"zip":"4780032"},{"town":"日長","koaza":"播摩","lat":34.965514,"lng":136.838903,"zip":"4780041"},{"town":"金沢","koaza":"落合","lat":34.948582,"lng":136.837101,"zip":"4780032"},{"town":"日長","koaza":"スクモロ","lat":34.955848,"lng":136.838081,"zip":"4780041"},{"town":"新舞子","koaza":"小松寺","lat":34.952819,"lng":136.839082,"zip":"4780036"},{"town":"日長","koaza":"野中","lat":34.959281,"lng":136.838992,"zip":"4780041"},{"town":"金沢","koaza":"向山","lat":34.947475,"lng":136.838218,"zip":"4780032"},{"town":"金沢","koaza":"郷中","lat":34.943244,"lng":136.840904,"zip":"4780032"},{"town":"日長","koaza":"大曽根","lat":34.960819,"lng":136.838525,"zip":"4780041"},{"town":"日長","koaza":"東畑","lat":34.956605,"lng":136.838406,"zip":"4780041"},{"town":"日長","koaza":"堀田","lat":34.962222,"lng":136.839769,"zip":"4780041"},{"town":"日長","koaza":"山之腰","lat":34.965499,"lng":136.840087,"zip":"4780041"},{"town":"金沢","koaza":"廻間","lat":34.947753,"lng":136.839795,"zip":"4780032"},{"town":"日長","koaza":"生出","lat":34.971392,"lng":136.842703,"zip":"4780041"},{"town":"金沢","koaza":"神田","lat":34.944871,"lng":136.838696,"zip":"4780032"},{"town":"金沢","koaza":"殿門戸","lat":34.951444,"lng":136.839057,"zip":"4780032"},{"town":"日長","koaza":"大ボシ","lat":34.955194,"lng":136.839332,"zip":"4780041"},{"town":"金沢","koaza":"野仲","lat":34.949948,"lng":136.83992,"zip":"4780032"},{"town":"日長","koaza":"金山","lat":34.968366,"lng":136.840272,"zip":"4780041"},{"town":"日長","koaza":"浦屋敷","lat":34.958485,"lng":136.840652,"zip":"4780041"},{"town":"日長","koaza":"東脇","lat":34.956666,"lng":136.84037,"zip":"4780041"},{"town":"金沢","koaza":"泉脇","lat":34.946511,"lng":136.840979,"zip":"4780032"},{"town":"日長","koaza":"狐鎌","lat":34.959324,"lng":136.840742,"zip":"4780041"},{"town":"金沢","koaza":"ヨ溝","lat":34.951118,"lng":136.840599,"zip":"4780032"},{"town":"日長","koaza":"今川","lat":34.967503,"lng":136.841298,"zip":"4780041"},{"town":"日長","koaza":"栗林","lat":34.964491,"lng":136.841163,"zip":"4780041"},{"town":"日長","koaza":"古川","lat":34.957264,"lng":136.840904,"zip":"4780041"},{"town":"金沢","koaza":"青木","lat":34.948534,"lng":136.841529,"zip":"4780032"},{"town":"金沢","koaza":"松之内","lat":34.950636,"lng":136.842772,"zip":"4780032"},{"town":"金沢","koaza":"旭ケ丘","lat":34.952052,"lng":136.841479,"zip":"4780032"},{"town":"日長","koaza":"須雲","lat":34.961859,"lng":136.842292,"zip":"4780041"},{"town":"金沢","koaza":"深溝","lat":34.948403,"lng":136.843145,"zip":"4780032"},{"town":"金沢","koaza":"与三楽","lat":34.949729,"lng":136.842487,"zip":"4780032"},{"town":"日長","koaza":"高峰脇","lat":34.958018,"lng":136.850136,"zip":"4780041"},{"town":"日長","koaza":"土地山","lat":34.959753,"lng":136.842115,"zip":"4780041"},{"town":"日長","koaza":"安土","lat":34.970268,"lng":136.844232,"zip":"4780041"},{"town":"日長","koaza":"荒山","lat":34.963562,"lng":136.843069,"zip":"4780041"},{"town":"日長","koaza":"下田","lat":34.967918,"lng":136.844436,"zip":"4780041"},{"town":"金沢","koaza":"宗畠","lat":34.942253,"lng":136.843704,"zip":"4780032"},{"town":"日長","koaza":"鳥外場","lat":34.958575,"lng":136.846331,"zip":"4780041"},{"town":"日長","koaza":"石坂口","lat":34.96437,"lng":136.843507,"zip":"4780041"},{"town":"日長","koaza":"寒空","lat":34.973727,"lng":136.84416,"zip":"4780041"},{"town":"金沢","koaza":"大知山","lat":34.94726,"lng":136.847248,"zip":"4780032"},{"town":"金沢","koaza":"中向山","lat":34.943952,"lng":136.848422,"zip":"4780032"},{"town":"日長","koaza":"古根","lat":34.961732,"lng":136.844666,"zip":"4780041"},{"town":"日長","koaza":"白山","lat":34.962689,"lng":136.845771,"zip":"4780041"},{"town":"日長","koaza":"丸根田","lat":34.974026,"lng":136.847312,"zip":"4780041"},{"town":"金沢","koaza":"市楽","lat":34.949811,"lng":136.846175,"zip":"4780032"},{"town":"金沢","koaza":"西寅","lat":34.951751,"lng":136.846208,"zip":"4780032"},{"town":"日長","koaza":"高峰","lat":34.95672,"lng":136.845904,"zip":"4780041"},{"town":"日長","koaza":"アブミ","lat":34.956048,"lng":136.846231,"zip":"4780041"},{"town":"新舞子","koaza":"落","lat":34.951987,"lng":136.848537,"zip":"4780036"},{"town":"日長","koaza":"東坂根","lat":34.959821,"lng":136.848465,"zip":"4780041"},{"town":"八幡","koaza":"浦浜新田","lat":35.00462,"lng":136.869146,"zip":"4780001"},{"town":"日長","koaza":"大小平地","lat":34.968089,"lng":136.846496,"zip":"4780041"},{"town":"金沢","koaza":"東寅","lat":34.951862,"lng":136.847363,"zip":"4780032"},{"town":"金沢","koaza":"山林","lat":34.9499,"lng":136.848184,"zip":"4780032"},{"town":"日長","koaza":"沖ノ田","lat":34.968726,"lng":136.849247,"zip":"4780041"},{"town":"日長","koaza":"穴田","lat":34.973068,"lng":136.848629,"zip":"4780041"},{"town":"日長","koaza":"坂根","lat":34.956285,"lng":136.848696,"zip":"4780041"},{"town":"日長","koaza":"頭部","lat":34.95686,"lng":136.849661,"zip":"4780041"},{"town":"日長","koaza":"川田","lat":34.954687,"lng":136.848315,"zip":"4780041"},{"town":"日長","koaza":"原山","lat":34.971461,"lng":136.850277,"zip":"4780041"},{"town":"金沢","koaza":"北瀬釜","lat":34.950994,"lng":136.848343,"zip":"4780032"},{"town":"日長","koaza":"坂ブタ","lat":34.955637,"lng":136.849073,"zip":"4780041"},{"town":"日長","koaza":"畑下","lat":34.954064,"lng":136.850268,"zip":"4780041"},{"town":"日長","koaza":"勢鎌","lat":34.94852,"lng":136.849235,"zip":"4780041"},{"town":"日長","koaza":"辰新田","lat":34.956143,"lng":136.850549,"zip":"4780041"},{"town":"日長","koaza":"多倉田","lat":34.973194,"lng":136.850506,"zip":"4780041"},{"town":"新知","koaza":"地左右","lat":34.980389,"lng":136.850018,"zip":"4780017"},{"town":"金沢","koaza":"西小山","lat":34.947536,"lng":136.851882,"zip":"4780032"},{"town":"新知","koaza":"西新生","lat":34.980017,"lng":136.85221,"zip":"4780017"},{"town":"日長","koaza":"中石根","lat":34.96601,"lng":136.853986,"zip":"4780041"},{"town":"大興寺","koaza":"原兵","lat":34.941496,"lng":136.854056,"zip":"4780022"},{"town":"新知","koaza":"二九谷","lat":34.980975,"lng":136.850529,"zip":"4780017"},{"town":"日長","koaza":"赤坂","lat":34.974186,"lng":136.853702,"zip":"4780041"},{"town":"金沢","koaza":"石根","lat":34.949483,"lng":136.851777,"zip":"4780032"},{"town":"新知","koaza":"加家ノ下","lat":34.985821,"lng":136.854864,"zip":"4780017"},{"town":"日長","koaza":"仲曽根","lat":34.96963,"lng":136.851858,"zip":"4780041"},{"town":"新知","koaza":"浜田","lat":34.983715,"lng":136.853166,"zip":"4780017"},{"town":"新知","koaza":"北新生","lat":34.982062,"lng":136.855901,"zip":"4780017"},{"town":"新舞子","koaza":"沢渡","lat":34.952731,"lng":136.852985,"zip":"4780036"},{"town":"大興寺","koaza":"平井","lat":34.945266,"lng":136.855612,"zip":"4780022"},{"town":"金沢","koaza":"東小山","lat":34.949626,"lng":136.853098,"zip":"4780032"},{"town":"日長","koaza":"入杵","lat":34.971877,"lng":136.854639,"zip":"4780041"},{"town":"岡田","koaza":"美城ケ根","lat":34.970107,"lng":136.854519,"zip":"4780021"},{"town":"新知","koaza":"南新生","lat":34.977093,"lng":136.855115,"zip":"4780017"},{"town":"日長","koaza":"上種廻間","lat":34.959858,"lng":136.856722,"zip":"4780041"},{"town":"新舞子","koaza":"姥山","lat":34.956964,"lng":136.854175,"zip":"4780036"},{"town":"日長","koaza":"二タ股","lat":34.973879,"lng":136.856264,"zip":"4780041"},{"town":"新舞子","koaza":"口新曽","lat":34.954352,"lng":136.854954,"zip":"4780036"},{"town":"新知","koaza":"加家ノ山","lat":34.983845,"lng":136.853657,"zip":"4780017"},{"town":"金沢","koaza":"広見","lat":34.945602,"lng":136.853975,"zip":"4780032"},{"town":"日長","koaza":"上石根","lat":34.963045,"lng":136.856984,"zip":"4780041"},{"town":"新知","koaza":"東新生","lat":34.979739,"lng":136.856281,"zip":"4780017"},{"town":"大興寺","koaza":"姥山","lat":34.957223,"lng":136.858028,"zip":"4780022"},{"town":"新知","koaza":"森下","lat":34.987514,"lng":136.856388,"zip":"4780017"},{"town":"岡田","koaza":"薬師前","lat":34.969954,"lng":136.856039,"zip":"4780021"},{"town":"岡田","koaza":"下中田","lat":34.969092,"lng":136.85509,"zip":"4780021"},{"town":"岡田","koaza":"野崎","lat":34.968608,"lng":136.856568,"zip":"4780021"},{"town":"新知","koaza":"八九四","lat":34.984986,"lng":136.856483,"zip":"4780017"},{"town":"岡田","koaza":"西濁り池","lat":34.958448,"lng":136.856722,"zip":"4780021"},{"town":"新舞子","koaza":"奥新曽","lat":34.955064,"lng":136.857509,"zip":"4780036"},{"town":"岡田","koaza":"東泓","lat":34.967503,"lng":136.855996,"zip":"4780021"},{"town":"新知","koaza":"虎馬","lat":34.975371,"lng":136.858026,"zip":"4780017"},{"town":"岡田","koaza":"宝ノ脇","lat":34.972165,"lng":136.857305,"zip":"4780021"},{"town":"新知","koaza":"大内","lat":34.989203,"lng":136.857086,"zip":"4780017"},{"town":"岡田","koaza":"小石山","lat":34.967384,"lng":136.857567,"zip":"4780021"},{"town":"新知","koaza":"椿","lat":34.985619,"lng":136.859205,"zip":"4780017"},{"town":"大興寺","koaza":"里","lat":34.942098,"lng":136.859946,"zip":"4780022"},{"town":"岡田","koaza":"上中田","lat":34.969726,"lng":136.857735,"zip":"4780021"},{"town":"大興寺","koaza":"広目","lat":34.948873,"lng":136.857425,"zip":"4780022"},{"town":"新知","koaza":"杓子","lat":34.979669,"lng":136.858079,"zip":"4780017"},{"town":"新知","koaza":"会下","lat":34.984092,"lng":136.858625,"zip":"4780017"},{"town":"岡田","koaza":"西峯","lat":34.968549,"lng":136.85901,"zip":"4780021"},{"town":"岡田","koaza":"西平地","lat":34.965623,"lng":136.858857,"zip":"4780021"},{"town":"大興寺","koaza":"落田","lat":34.946242,"lng":136.859192,"zip":"4780022"},{"town":"岡田","koaza":"五反田","lat":34.970996,"lng":136.858205,"zip":"4780021"},{"town":"新知","koaza":"梶廻間","lat":34.982137,"lng":136.858593,"zip":"4780017"},{"town":"岡田","koaza":"江口山","lat":34.971319,"lng":136.858722,"zip":"4780021"},{"town":"新知","koaza":"下森","lat":34.986643,"lng":136.859432,"zip":"4780017"},{"town":"新知","koaza":"池添","lat":34.977527,"lng":136.859708,"zip":"4780017"},{"town":"新知","koaza":"海廻間","lat":34.981179,"lng":136.85976,"zip":"4780017"},{"town":"大興寺","koaza":"長根","lat":34.951796,"lng":136.859239,"zip":"4780022"},{"town":"新知","koaza":"美濃川","lat":34.988851,"lng":136.859616,"zip":"4780017"},{"town":"新知","koaza":"佐右坂","lat":34.979233,"lng":136.859604,"zip":"4780017"},{"town":"新知","koaza":"西屋敷","lat":34.991041,"lng":136.860855,"zip":"4780017"},{"town":"新知","koaza":"般脇","lat":34.977543,"lng":136.861001,"zip":"4780017"},{"town":"新知","koaza":"門田","lat":34.98955,"lng":136.860988,"zip":"4780017"},{"town":"大興寺","koaza":"森越","lat":34.946931,"lng":136.860619,"zip":"4780022"},{"town":"岡田","koaza":"落田","lat":34.967823,"lng":136.860643,"zip":"4780021"},{"town":"新知","koaza":"釜ケ渕","lat":34.983101,"lng":136.860331,"zip":"4780017"},{"town":"新知","koaza":"佐布見","lat":34.980189,"lng":136.861066,"zip":"4780017"},{"town":"岡田","koaza":"向田","lat":34.96984,"lng":136.861697,"zip":"4780021"},{"town":"新舞子","koaza":"惣兵衛谷","lat":34.955875,"lng":136.862954,"zip":"4780036"},{"town":"岡田","koaza":"海渡","lat":34.969022,"lng":136.86135,"zip":"4780021"},{"town":"大興寺","koaza":"丹波脇","lat":34.94814,"lng":136.860588,"zip":"4780022"},{"town":"新知","koaza":"中殿","lat":34.98515,"lng":136.860304,"zip":"4780017"},{"town":"新知","koaza":"永井","lat":34.979144,"lng":136.861746,"zip":"4780017"},{"town":"新知","koaza":"浜脇","lat":34.986451,"lng":136.860652,"zip":"4780017"},{"town":"岡田","koaza":"久平","lat":34.966959,"lng":136.861347,"zip":"4780021"},{"town":"岡田","koaza":"砂季ノ脇","lat":34.97279,"lng":136.860762,"zip":"4780021"},{"town":"新知","koaza":"七五三山","lat":34.97787,"lng":136.861491,"zip":"4780017"},{"town":"新知","koaza":"北浦","lat":34.98702,"lng":136.860695,"zip":"4780017"},{"town":"岡田","koaza":"棚松","lat":34.965641,"lng":136.861297,"zip":"4780021"},{"town":"新知","koaza":"廻間","lat":34.985054,"lng":136.86171,"zip":"4780017"},{"town":"新知","koaza":"坊ノ下","lat":34.981822,"lng":136.861296,"zip":"4780017"},{"town":"新知","koaza":"斉宮畑","lat":34.98391,"lng":136.862292,"zip":"4780017"},{"town":"岡田","koaza":"向屋敷","lat":34.971024,"lng":136.863102,"zip":"4780021"},{"town":"新知","koaza":"東屋敷","lat":34.991747,"lng":136.863113,"zip":"4780017"},{"town":"岡田","koaza":"天神山","lat":34.965569,"lng":136.862589,"zip":"4780021"},{"town":"新知","koaza":"二股","lat":34.9766,"lng":136.863586,"zip":"4780017"},{"town":"新知","koaza":"菰","lat":34.973285,"lng":136.863001,"zip":"4780017"},{"town":"新知","koaza":"仲田","lat":34.989671,"lng":136.862889,"zip":"4780017"},{"town":"新知","koaza":"大橋","lat":34.980248,"lng":136.862575,"zip":"4780017"},{"town":"新知","koaza":"西ノ海道","lat":34.982939,"lng":136.862444,"zip":"4780017"},{"town":"新知","koaza":"脇島","lat":34.981582,"lng":136.863888,"zip":"4780017"},{"town":"新知","koaza":"岩ノ脇","lat":34.976698,"lng":136.864304,"zip":"4780017"},{"town":"岡田","koaza":"西無常堂","lat":34.969025,"lng":136.864122,"zip":"4780021"},{"town":"岡田","koaza":"向山","lat":34.964127,"lng":136.864007,"zip":"4780021"},{"town":"新知","koaza":"南惣作","lat":34.990668,"lng":136.864373,"zip":"4780017"},{"town":"岡田","koaza":"開戸","lat":34.967666,"lng":136.864849,"zip":"4780021"},{"town":"岡田","koaza":"尾脇","lat":34.961537,"lng":136.863988,"zip":"4780021"},{"town":"岡田","koaza":"高見","lat":34.966795,"lng":136.864387,"zip":"4780021"},{"town":"新知","koaza":"柿ノ木","lat":34.97485,"lng":136.865144,"zip":"4780017"},{"town":"新知","koaza":"樋之口","lat":34.993738,"lng":136.864126,"zip":"4780017"},{"town":"新知","koaza":"下大廻間","lat":34.98917,"lng":136.86417,"zip":"4780017"},{"town":"新知","koaza":"北惣作","lat":34.991666,"lng":136.864391,"zip":"4780017"},{"town":"岡田","koaza":"南五郎左池","lat":34.958785,"lng":136.864458,"zip":"4780021"},{"town":"岡田","koaza":"高根","lat":34.960924,"lng":136.865486,"zip":"4780021"},{"town":"新知","koaza":"宝泉坊","lat":34.981015,"lng":136.8648,"zip":"4780017"},{"town":"岡田","koaza":"南高根","lat":34.959934,"lng":136.865631,"zip":"4780021"},{"town":"岡田","koaza":"釜谷","lat":34.964839,"lng":136.864967,"zip":"4780021"},{"town":"岡田","koaza":"善坪","lat":34.961841,"lng":136.86561,"zip":"4780021"},{"town":"新知","koaza":"瓶畝","lat":34.973122,"lng":136.867775,"zip":"4780017"},{"town":"岡田","koaza":"段戸坊","lat":34.968115,"lng":136.866492,"zip":"4780021"},{"town":"八幡","koaza":"細見","lat":34.995829,"lng":136.866075,"zip":"4780001"},{"town":"岡田","koaza":"東無常堂","lat":34.969228,"lng":136.86555,"zip":"4780021"},{"town":"岡田","koaza":"西島","lat":34.965898,"lng":136.8662,"zip":"4780021"},{"town":"新知","koaza":"近北廻間","lat":34.993117,"lng":136.866186,"zip":"4780017"},{"town":"岡田","koaza":"三芳橋","lat":34.962641,"lng":136.866743,"zip":"4780021"},{"town":"岡田","koaza":"中谷","lat":34.96495,"lng":136.866916,"zip":"4780021"},{"town":"岡田","koaza":"朱人ケ根","lat":34.969377,"lng":136.866893,"zip":"4780021"},{"town":"岡田","koaza":"西歩田","lat":34.961489,"lng":136.866717,"zip":"4780021"},{"town":"岡田","koaza":"太郎坊","lat":34.966992,"lng":136.867534,"zip":"4780021"},{"town":"八幡","koaza":"北廻間","lat":34.994003,"lng":136.866175,"zip":"4780001"},{"town":"岡田","koaza":"東島","lat":34.963568,"lng":136.867691,"zip":"4780021"},{"town":"新知","koaza":"遠北廻間","lat":34.99332,"lng":136.866565,"zip":"4780017"},{"town":"新知","koaza":"山ノ田","lat":34.975279,"lng":136.867009,"zip":"4780017"},{"town":"岡田","koaza":"荒田","lat":34.96152,"lng":136.867642,"zip":"4780021"},{"town":"岡田","koaza":"西焼田","lat":34.970627,"lng":136.867558,"zip":"4780021"},{"town":"八幡","koaza":"観音脇","lat":34.99548,"lng":136.869084,"zip":"4780001"},{"town":"岡田","koaza":"東焼田","lat":34.969774,"lng":136.86849,"zip":"4780021"},{"town":"岡田","koaza":"八熊手","lat":34.962621,"lng":136.868279,"zip":"4780021"},{"town":"岡田","koaza":"笹根","lat":34.963628,"lng":136.868947,"zip":"4780021"},{"town":"八幡","koaza":"汐海道","lat":34.998159,"lng":136.870845,"zip":"4780001"},{"town":"岡田","koaza":"登り","lat":34.965234,"lng":136.869274,"zip":"4780021"},{"town":"岡田","koaza":"東歩田","lat":34.960614,"lng":136.868202,"zip":"4780021"},{"town":"岡田","koaza":"西二タ俣","lat":34.96141,"lng":136.869032,"zip":"4780021"},{"town":"岡田","koaza":"越地","lat":34.964029,"lng":136.870103,"zip":"4780021"},{"town":"岡田","koaza":"日東ケ峯","lat":34.969414,"lng":136.869288,"zip":"4780021"},{"town":"岡田","koaza":"片平山","lat":34.967705,"lng":136.870149,"zip":"4780021"},{"town":"八幡","koaza":"浦浜","lat":35.004668,"lng":136.871793,"zip":"4780001"},{"town":"岡田","koaza":"袖山","lat":34.966208,"lng":136.870146,"zip":"4780021"},{"town":"岡田","koaza":"松ケ谷","lat":34.973457,"lng":136.869835,"zip":"4780021"},{"town":"岡田","koaza":"鏡池","lat":34.960019,"lng":136.86919,"zip":"4780021"},{"town":"岡田","koaza":"堂山","lat":34.964234,"lng":136.871604,"zip":"4780021"},{"town":"岡田","koaza":"山ノ脇","lat":34.968356,"lng":136.870311,"zip":"4780021"},{"town":"新知","koaza":"山桃","lat":34.971265,"lng":136.870519,"zip":"4780017"},{"town":"岡田","koaza":"東二タ俣","lat":34.961113,"lng":136.870043,"zip":"4780021"},{"town":"岡田","koaza":"西違脇","lat":34.962069,"lng":136.870735,"zip":"4780021"},{"town":"八幡","koaza":"平井","lat":34.997056,"lng":136.872211,"zip":"4780001"},{"town":"岡田","koaza":"庄田","lat":34.969931,"lng":136.872236,"zip":"4780021"},{"town":"八幡","koaza":"左り脇","lat":34.99428,"lng":136.87121,"zip":"4780001"},{"town":"八幡","koaza":"小根","lat":35.001007,"lng":136.871426,"zip":"4780001"},{"town":"岡田","koaza":"下ノ山","lat":34.965089,"lng":136.871579,"zip":"4780021"},{"town":"岡田","koaza":"吹込","lat":34.959795,"lng":136.871097,"zip":"4780021"},{"town":"八幡","koaza":"杉山","lat":34.989733,"lng":136.874239,"zip":"4780001"},{"town":"岡田","koaza":"猿田","lat":34.966974,"lng":136.872851,"zip":"4780021"},{"town":"八幡","koaza":"月山","lat":34.99826,"lng":136.872618,"zip":"4780001"},{"town":"大興寺","koaza":"西渕馬","lat":34.947935,"lng":136.874895,"zip":"4780022"},{"town":"岡田","koaza":"東違脇","lat":34.961661,"lng":136.872466,"zip":"4780021"},{"town":"大興寺","koaza":"刀池","lat":34.949375,"lng":136.87288,"zip":"4780022"},{"town":"八幡","koaza":"普ケ脇","lat":34.991945,"lng":136.87423,"zip":"4780001"},{"town":"岡田","koaza":"乞食道","lat":34.968315,"lng":136.871689,"zip":"4780021"},{"town":"八幡","koaza":"堀切","lat":35.002195,"lng":136.873097,"zip":"4780001"},{"town":"八幡","koaza":"里之前","lat":34.994232,"lng":136.873836,"zip":"4780001"},{"town":"岡田","koaza":"釜売池","lat":34.965143,"lng":136.874372,"zip":"4780021"},{"town":"岡田","koaza":"平地","lat":34.96302,"lng":136.874143,"zip":"4780021"},{"town":"八幡","koaza":"西水代","lat":34.999348,"lng":136.874712,"zip":"4780001"},{"town":"新知","koaza":"五反田","lat":34.971998,"lng":136.873402,"zip":"4780017"},{"town":"岡田","koaza":"庄太郎脇","lat":34.960096,"lng":136.874749,"zip":"4780021"},{"town":"岡田","koaza":"新池下","lat":34.966618,"lng":136.87445,"zip":"4780021"},{"town":"岡田","koaza":"瓢坂","lat":34.968972,"lng":136.874678,"zip":"4780021"},{"town":"岡田","koaza":"細脇","lat":34.964027,"lng":136.873545,"zip":"4780021"},{"town":"八幡","koaza":"東水代","lat":34.998752,"lng":136.87548,"zip":"4780001"},{"town":"八幡","koaza":"中島","lat":34.996229,"lng":136.87562,"zip":"4780001"},{"town":"八幡","koaza":"荒井","lat":35.004209,"lng":136.875146,"zip":"4780001"},{"town":"岡田","koaza":"大曽","lat":34.962039,"lng":136.874907,"zip":"4780021"},{"town":"八幡","koaza":"蔵池","lat":35.001125,"lng":136.875368,"zip":"4780001"},{"town":"岡田","koaza":"深田脇","lat":34.959157,"lng":136.875427,"zip":"4780021"},{"town":"新知","koaza":"比沙子","lat":34.970614,"lng":136.875551,"zip":"4780017"},{"town":"大興寺","koaza":"東渕馬","lat":34.943704,"lng":136.877772,"zip":"4780022"},{"town":"八幡","koaza":"西前田","lat":34.994359,"lng":136.875548,"zip":"4780001"},{"town":"八幡","koaza":"荒古後","lat":35.002737,"lng":136.877491,"zip":"4780001"},{"town":"八幡","koaza":"前田","lat":34.995528,"lng":136.875456,"zip":"4780001"},{"town":"岡田","koaza":"地極松","lat":34.962485,"lng":136.876646,"zip":"4780021"},{"town":"岡田","koaza":"新池","lat":34.967033,"lng":136.877606,"zip":"4780021"},{"town":"岡田","koaza":"地極池","lat":34.960788,"lng":136.877369,"zip":"4780021"},{"town":"八幡","koaza":"西阿原","lat":34.986083,"lng":136.877547,"zip":"4780001"},{"town":"岡田","koaza":"南地極池","lat":34.958408,"lng":136.876348,"zip":"4780021"},{"town":"新知","koaza":"瓢坂","lat":34.970773,"lng":136.876579,"zip":"4780017"},{"town":"岡田","koaza":"奥障子","lat":34.957772,"lng":136.878663,"zip":"4780021"},{"town":"八幡","koaza":"荒古前","lat":35.000313,"lng":136.87826,"zip":"4780001"},{"town":"岡田","koaza":"西宝面","lat":34.960652,"lng":136.879049,"zip":"4780021"},{"town":"八幡","koaza":"宗作","lat":34.997989,"lng":136.87676,"zip":"4780001"},{"town":"新知","koaza":"笠取","lat":34.970223,"lng":136.877875,"zip":"4780017"},{"town":"岡田","koaza":"馬池","lat":34.962753,"lng":136.878096,"zip":"4780021"},{"town":"佐布里","koaza":"切山","lat":34.975023,"lng":136.878369,"zip":"4780015"},{"town":"佐布里","koaza":"堀切","lat":34.976419,"lng":136.878113,"zip":"4780015"},{"town":"岡田","koaza":"新池裏","lat":34.964385,"lng":136.878721,"zip":"4780021"},{"town":"佐布里","koaza":"森下","lat":34.977918,"lng":136.878925,"zip":"4780015"},{"town":"八幡","koaza":"向長曽","lat":34.990422,"lng":136.878439,"zip":"4780001"},{"town":"八幡","koaza":"竹後","lat":34.995287,"lng":136.878239,"zip":"4780001"},{"town":"八幡","koaza":"茶原下","lat":34.990706,"lng":136.879341,"zip":"4780001"},{"town":"八幡","koaza":"池下","lat":34.98546,"lng":136.879653,"zip":"4780001"},{"town":"佐布里","koaza":"絹屋","lat":34.980022,"lng":136.878251,"zip":"4780015"},{"town":"佐布里","koaza":"絹屋前","lat":34.983955,"lng":136.87868,"zip":"4780015"},{"town":"岡田","koaza":"粕池","lat":34.966076,"lng":136.880331,"zip":"4780021"},{"town":"新知","koaza":"粕池","lat":34.967019,"lng":136.880957,"zip":"4780017"},{"town":"八幡","koaza":"下内橋","lat":35.000188,"lng":136.879189,"zip":"4780001"},{"town":"八幡","koaza":"堀之内","lat":34.997059,"lng":136.880083,"zip":"4780001"},{"town":"八幡","koaza":"種池","lat":34.993045,"lng":136.879918,"zip":"4780001"},{"town":"佐布里","koaza":"船ケ脇","lat":34.979877,"lng":136.879335,"zip":"4780015"},{"town":"八幡","koaza":"森之前","lat":35.00202,"lng":136.879508,"zip":"4780001"},{"town":"佐布里","koaza":"大六奥","lat":34.975113,"lng":136.879389,"zip":"4780015"},{"town":"岡田","koaza":"宝面堂","lat":34.95959,"lng":136.880084,"zip":"4780021"},{"town":"佐布里","koaza":"大六","lat":34.976306,"lng":136.880929,"zip":"4780015"},{"town":"佐布里","koaza":"池之脇","lat":34.963758,"lng":136.880192,"zip":"4780015"},{"town":"佐布里","koaza":"神明","lat":34.973394,"lng":136.880273,"zip":"4780015"},{"town":"佐布里","koaza":"黒山","lat":34.961208,"lng":136.880956,"zip":"4780015"},{"town":"佐布里","koaza":"棟守","lat":34.977309,"lng":136.880304,"zip":"4780015"},{"town":"佐布里","koaza":"早稲脇","lat":34.973887,"lng":136.879971,"zip":"4780015"},{"town":"八幡","koaza":"東前田","lat":34.991216,"lng":136.88079,"zip":"4780001"},{"town":"佐布里","koaza":"城山","lat":34.978947,"lng":136.880796,"zip":"4780015"},{"town":"八幡","koaza":"堂ケ島","lat":34.986452,"lng":136.879995,"zip":"4780001"},{"town":"佐布里","koaza":"五明","lat":34.975419,"lng":136.881483,"zip":"4780015"},{"town":"佐布里","koaza":"下田","lat":34.980666,"lng":136.881168,"zip":"4780015"},{"town":"八幡","koaza":"苅宿","lat":35.002466,"lng":136.880385,"zip":"4780001"},{"town":"八幡","koaza":"岩ノ脇","lat":34.988445,"lng":136.882312,"zip":"4780001"},{"town":"八幡","koaza":"筒岡","lat":34.995863,"lng":136.881281,"zip":"4780001"},{"town":"八幡","koaza":"長峰","lat":34.98429,"lng":136.881334,"zip":"4780001"},{"town":"八幡","koaza":"里脇","lat":34.99289,"lng":136.881735,"zip":"4780001"},{"town":"岡田","koaza":"大脇","lat":34.959135,"lng":136.880969,"zip":"4780021"},{"town":"佐布里","koaza":"西之脇口","lat":34.97389,"lng":136.880643,"zip":"4780015"},{"town":"佐布里","koaza":"西之脇","lat":34.972402,"lng":136.881018,"zip":"4780015"},{"town":"佐布里","koaza":"城山下","lat":34.978843,"lng":136.881106,"zip":"4780015"},{"town":"佐布里","koaza":"地蔵脇","lat":34.971435,"lng":136.881944,"zip":"4780015"},{"town":"佐布里","koaza":"江之懸","lat":34.969985,"lng":136.882255,"zip":"4780015"},{"town":"佐布里","koaza":"江之懸前","lat":34.968778,"lng":136.882758,"zip":"4780015"},{"town":"佐布里","koaza":"五反田","lat":34.976855,"lng":136.882544,"zip":"4780015"},{"town":"佐布里","koaza":"脇之田","lat":34.980667,"lng":136.882374,"zip":"4780015"},{"town":"八幡","koaza":"楠廻間","lat":34.984133,"lng":136.88332,"zip":"4780001"},{"town":"佐布里","koaza":"脇之田前","lat":34.980002,"lng":136.882723,"zip":"4780015"},{"town":"岡田","koaza":"滝ノ水","lat":34.957146,"lng":136.883171,"zip":"4780021"},{"town":"佐布里","koaza":"筒井","lat":34.972149,"lng":136.884201,"zip":"4780015"},{"town":"佐布里","koaza":"五反田上","lat":34.974413,"lng":136.882842,"zip":"4780015"},{"town":"佐布里","koaza":"鼬脇","lat":34.962806,"lng":136.884765,"zip":"4780015"},{"town":"八幡","koaza":"獅子懸","lat":35.001451,"lng":136.884601,"zip":"4780001"},{"town":"佐布里","koaza":"橋詰","lat":34.978339,"lng":136.882984,"zip":"4780015"},{"town":"佐布里","koaza":"西池之脇","lat":34.965865,"lng":136.883346,"zip":"4780015"},{"town":"佐布里","koaza":"藻池","lat":34.958768,"lng":136.886302,"zip":"4780015"},{"town":"佐布里","koaza":"山田前","lat":34.964666,"lng":136.884385,"zip":"4780015"},{"town":"佐布里","koaza":"池之脇口","lat":34.965927,"lng":136.884461,"zip":"4780015"},{"town":"佐布里","koaza":"井洞脇前","lat":34.976994,"lng":136.883663,"zip":"4780015"},{"town":"岡田","koaza":"馬草原","lat":34.956008,"lng":136.88345,"zip":"4780021"},{"town":"岡田","koaza":"嶽ノ水","lat":34.956539,"lng":136.884382,"zip":"4780021"},{"town":"佐布里","koaza":"鳳巣田","lat":34.968401,"lng":136.884089,"zip":"4780015"},{"town":"佐布里","koaza":"竹ケ鼻","lat":34.974969,"lng":136.885814,"zip":"4780015"},{"town":"佐布里","koaza":"大藤前","lat":34.96929,"lng":136.884185,"zip":"4780015"},{"town":"佐布里","koaza":"井洞脇","lat":34.977853,"lng":136.884666,"zip":"4780015"},{"town":"佐布里","koaza":"高之前","lat":34.972356,"lng":136.884329,"zip":"4780015"},{"town":"佐布里","koaza":"石亀田","lat":34.963961,"lng":136.885164,"zip":"4780015"},{"town":"佐布里","koaza":"寺脇","lat":34.975892,"lng":136.885807,"zip":"4780015"},{"town":"佐布里","koaza":"七反田","lat":34.967199,"lng":136.884772,"zip":"4780015"},{"town":"佐布里","koaza":"向畑","lat":34.973284,"lng":136.886243,"zip":"4780015"},{"town":"佐布里","koaza":"東脇口","lat":34.972473,"lng":136.886544,"zip":"4780015"},{"town":"佐布里","koaza":"広茂","lat":34.964281,"lng":136.888574,"zip":"4780015"},{"town":"佐布里","koaza":"長田脇","lat":34.972879,"lng":136.889363,"zip":"4780015"},{"town":"佐布里","koaza":"東脇","lat":34.972714,"lng":136.891239,"zip":"4780015"},{"town":"佐布里","koaza":"白脇","lat":34.966734,"lng":136.889358,"zip":"4780015"},{"town":"佐布里","koaza":"上加世端","lat":34.958101,"lng":136.89222,"zip":"4780015"},{"town":"佐布里","koaza":"奥茂長田","lat":34.965042,"lng":136.893983,"zip":"4780015"},{"town":"佐布里","koaza":"牛抜","lat":34.966898,"lng":136.889767,"zip":"4780015"},{"town":"佐布里","koaza":"清水脇","lat":34.969177,"lng":136.89304,"zip":"4780015"},{"town":"佐布里","koaza":"糀田奥","lat":34.96951,"lng":136.893727,"zip":"4780015"},{"town":"八幡","koaza":"七曲り","lat":34.967335,"lng":136.898719,"zip":"4780001"},{"town":"佐布里","koaza":"仏田","lat":34.958065,"lng":136.895642,"zip":"4780015"},{"town":"佐布里","koaza":"小根ケ谷","lat":34.960879,"lng":136.897079,"zip":"4780015"},{"town":"佐布里","koaza":"小州橋","lat":34.958546,"lng":136.899647,"zip":"4780015"},{"town":"佐布里","koaza":"定納","lat":34.962622,"lng":136.899229,"zip":"4780015"},{"town":"八幡","koaza":"深山口","lat":34.977781,"lng":136.901198,"zip":"4780001"},{"town":"八幡","koaza":"三反田","lat":34.976334,"lng":136.900757,"zip":"4780001"},{"town":"佐布里","koaza":"下結芽木","lat":34.954472,"lng":136.904302,"zip":"4780015"},{"town":"佐布里","koaza":"桜鐘","lat":34.963219,"lng":136.901138,"zip":"4780015"},{"town":"佐布里","koaza":"結芽木","lat":34.956753,"lng":136.902403,"zip":"4780015"},{"town":"八幡","koaza":"丸根","lat":34.968445,"lng":136.903759,"zip":"4780001"},{"town":"八幡","koaza":"高根","lat":34.973951,"lng":136.902601,"zip":"4780001"},{"town":"八幡","koaza":"西大清水","lat":34.977016,"lng":136.903221,"zip":"4780001"},{"town":"佐布里","koaza":"原小洞","lat":34.956242,"lng":136.905765,"zip":"4780015"},{"town":"八幡","koaza":"曽山","lat":34.979294,"lng":136.904293,"zip":"4780001"},{"town":"佐布里","koaza":"毛貫坂","lat":34.960407,"lng":136.903828,"zip":"4780015"},{"town":"佐布里","koaza":"二番鐘","lat":34.964085,"lng":136.904456,"zip":"4780015"},{"town":"八幡","koaza":"北屋敷","lat":34.976137,"lng":136.904811,"zip":"4780001"},{"town":"八幡","koaza":"樹木","lat":34.973047,"lng":136.905712,"zip":"4780001"},{"town":"八幡","koaza":"大平地","lat":34.970886,"lng":136.906209,"zip":"4780001"},{"town":"八幡","koaza":"東大清水","lat":34.979252,"lng":136.90669,"zip":"4780001"},{"town":"八幡","koaza":"儀七山","lat":34.976248,"lng":136.90598,"zip":"4780001"},{"town":"八幡","koaza":"新道","lat":34.967202,"lng":136.907382,"zip":"4780001"},{"town":"八幡","koaza":"根崎","lat":34.974546,"lng":136.906839,"zip":"4780001"},{"town":"八幡","koaza":"東大平地","lat":34.97174,"lng":136.910484,"zip":"4780001"},{"town":"八幡","koaza":"笹廻間","lat":34.965666,"lng":136.912108,"zip":"4780001"},{"town":"八幡","koaza":"南大平地","lat":34.970231,"lng":136.910698,"zip":"4780001"},{"town":"八幡","koaza":"鍋山","lat":34.968124,"lng":136.911861,"zip":"4780001"},{"town":"八幡","koaza":"勘右エ門沢","lat":34.971351,"lng":136.912462,"zip":"4780001"},{"town":"八幡","koaza":"沢","lat":34.97289,"lng":136.912176,"zip":"4780001"},{"town":"八幡","koaza":"半田道","lat":34.968124,"lng":136.915606,"zip":"4780001"}]