[{"town":"逢妻町","koaza":"","lat":35.017972,"lng":137.040964,"zip":"4720021"},{"town":"池端一丁目","koaza":"","lat":35.006089,"lng":137.039504,"zip":"4720025"},{"town":"池端二丁目","koaza":"","lat":35.005404,"lng":137.037987,"zip":"4720025"},{"town":"池端三丁目","koaza":"","lat":35.004965,"lng":137.036862,"zip":"4720025"},{"town":"牛田一丁目","koaza":"","lat":35.000298,"lng":137.05973,"zip":"4720003"},{"town":"牛田二丁目","koaza":"","lat":34.998253,"lng":137.064009,"zip":"4720003"},{"town":"牛田町","koaza":"","lat":34.997816,"lng":137.068528,"zip":"4720007"},{"town":"内幸町","koaza":"","lat":35.003759,"lng":137.046514,"zip":"4720042"},{"town":"上重原一丁目","koaza":"","lat":34.997038,"lng":137.029734,"zip":"4720058"},{"town":"上重原二丁目","koaza":"","lat":34.998514,"lng":137.028998,"zip":"4720058"},{"town":"上重原三丁目","koaza":"","lat":34.999069,"lng":137.026946,"zip":"4720058"},{"town":"上重原四丁目","koaza":"","lat":35.001653,"lng":137.027106,"zip":"4720058"},{"town":"上重原五丁目","koaza":"","lat":35.000728,"lng":137.02563,"zip":"4720058"},{"town":"上重原六丁目","koaza":"","lat":35.00067,"lng":137.023558,"zip":"4720058"},{"town":"上重原町","koaza":"","lat":34.998483,"lng":137.022159,"zip":"4720026"},{"town":"弘栄一丁目","koaza":"","lat":35.002555,"lng":137.044107,"zip":"4720034"},{"town":"弘栄二丁目","koaza":"","lat":35.001099,"lng":137.044001,"zip":"4720034"},{"town":"弘栄三丁目","koaza":"","lat":34.999766,"lng":137.043647,"zip":"4720034"},{"town":"弘法一丁目","koaza":"","lat":34.998757,"lng":137.039791,"zip":"4720052"},{"town":"弘法二丁目","koaza":"","lat":34.997275,"lng":137.041787,"zip":"4720052"},{"town":"弘法町","koaza":"","lat":34.994619,"lng":137.045638,"zip":"4720046"},{"town":"栄一丁目","koaza":"","lat":35.007087,"lng":137.040037,"zip":"4720037"},{"town":"栄二丁目","koaza":"","lat":35.006864,"lng":137.039398,"zip":"4720037"},{"town":"桜木町","koaza":"","lat":35.009961,"lng":137.042893,"zip":"4720031"},{"town":"昭和一丁目","koaza":"","lat":34.996812,"lng":137.063578,"zip":"4720011"},{"town":"昭和二丁目","koaza":"","lat":34.994932,"lng":137.063121,"zip":"4720011"},{"town":"昭和三丁目","koaza":"","lat":34.993708,"lng":137.06863,"zip":"4720011"},{"town":"昭和四丁目","koaza":"","lat":34.989545,"lng":137.067441,"zip":"4720011"},{"town":"昭和五丁目","koaza":"","lat":34.991464,"lng":137.06277,"zip":"4720011"},{"town":"昭和六丁目","koaza":"","lat":34.994477,"lng":137.064787,"zip":"4720011"},{"town":"昭和七丁目","koaza":"","lat":34.993238,"lng":137.066998,"zip":"4720011"},{"town":"昭和八丁目","koaza":"","lat":34.990811,"lng":137.067207,"zip":"4720011"},{"town":"昭和九丁目","koaza":"","lat":34.991702,"lng":137.065028,"zip":"4720011"},{"town":"新池一丁目","koaza":"","lat":35.001419,"lng":137.053863,"zip":"4720005"},{"town":"新池二丁目","koaza":"","lat":35.000468,"lng":137.0565,"zip":"4720005"},{"town":"新池三丁目","koaza":"","lat":34.998798,"lng":137.055382,"zip":"4720005"},{"town":"新地町","koaza":"","lat":35.006022,"lng":137.042957,"zip":"4720041"},{"town":"新富一丁目","koaza":"","lat":35.005465,"lng":137.042653,"zip":"4720047"},{"town":"新富二丁目","koaza":"","lat":35.004868,"lng":137.042178,"zip":"4720047"},{"town":"新林町","koaza":"","lat":34.989019,"lng":137.043978,"zip":"4720017"},{"town":"宝一丁目","koaza":"","lat":35.00444,"lng":137.035363,"zip":"4720056"},{"town":"宝二丁目","koaza":"","lat":35.006725,"lng":137.03499,"zip":"4720056"},{"town":"宝三丁目","koaza":"","lat":35.007383,"lng":137.032488,"zip":"4720056"},{"town":"宝町","koaza":"","lat":35.00864,"lng":137.037485,"zip":"4720024"},{"town":"東栄一丁目","koaza":"","lat":35.003681,"lng":137.049849,"zip":"4720043"},{"town":"東栄二丁目","koaza":"","lat":35.002288,"lng":137.048336,"zip":"4720043"},{"town":"東栄三丁目","koaza":"","lat":35.002699,"lng":137.051713,"zip":"4720043"},{"town":"鳥居一丁目","koaza":"","lat":35.003609,"lng":137.032984,"zip":"4720055"},{"town":"鳥居二丁目","koaza":"","lat":35.00584,"lng":137.029447,"zip":"4720055"},{"town":"鳥居三丁目","koaza":"","lat":35.005509,"lng":137.025092,"zip":"4720055"},{"town":"長篠町","koaza":"","lat":34.997803,"lng":137.050338,"zip":"4720045"},{"town":"長田一丁目","koaza":"","lat":35.002518,"lng":137.043115,"zip":"4720035"},{"town":"長田二丁目","koaza":"","lat":35.001804,"lng":137.04233,"zip":"4720035"},{"town":"長田三丁目","koaza":"","lat":35.00128,"lng":137.041362,"zip":"4720035"},{"town":"中町","koaza":"","lat":35.008968,"lng":137.045307,"zip":"4720033"},{"town":"中山町","koaza":"","lat":35.008136,"lng":137.046516,"zip":"4720032"},{"town":"南陽一丁目","koaza":"","lat":34.998572,"lng":137.059498,"zip":"4720004"},{"town":"南陽二丁目","koaza":"","lat":34.997208,"lng":137.058029,"zip":"4720004"},{"town":"西一丁目","koaza":"","lat":35.008498,"lng":137.034176,"zip":"4720057"},{"town":"西二丁目","koaza":"","lat":35.009355,"lng":137.032534,"zip":"4720057"},{"town":"西丘町","koaza":"","lat":35.018478,"lng":137.035612,"zip":"4720027"},{"town":"西中町","koaza":"","lat":34.987994,"lng":137.02976,"zip":"4720016"},{"town":"西町","koaza":"","lat":35.012876,"lng":137.04022,"zip":"4720023"},{"town":"東上重原一丁目","koaza":"","lat":34.999586,"lng":137.034547,"zip":"4720054"},{"town":"東上重原二丁目","koaza":"","lat":34.998655,"lng":137.033404,"zip":"4720054"},{"town":"東上重原三丁目","koaza":"","lat":34.997897,"lng":137.03197,"zip":"4720054"},{"town":"東上重原四丁目","koaza":"","lat":34.999559,"lng":137.030725,"zip":"4720054"},{"town":"東上重原五丁目","koaza":"","lat":35.000268,"lng":137.032381,"zip":"4720054"},{"town":"東上重原六丁目","koaza":"","lat":35.000748,"lng":137.034239,"zip":"4720054"},{"town":"東長篠一丁目","koaza":"","lat":35.000108,"lng":137.041449,"zip":"4720051"},{"town":"東長篠二丁目","koaza":"","lat":34.999426,"lng":137.041243,"zip":"4720051"},{"town":"広見一丁目","koaza":"","lat":35.00031,"lng":137.046109,"zip":"4720044"},{"town":"広見二丁目","koaza":"","lat":35.000895,"lng":137.048646,"zip":"4720044"},{"town":"広見三丁目","koaza":"","lat":35.001373,"lng":137.051089,"zip":"4720044"},{"town":"広見四丁目","koaza":"","lat":35.00009,"lng":137.05155,"zip":"4720044"},{"town":"堀切一丁目","koaza":"","lat":35.00477,"lng":137.041317,"zip":"4720036"},{"town":"堀切二丁目","koaza":"","lat":35.003899,"lng":137.040388,"zip":"4720036"},{"town":"堀切三丁目","koaza":"","lat":35.00299,"lng":137.039359,"zip":"4720036"},{"town":"本町","koaza":"","lat":35.008151,"lng":137.041027,"zip":"4720038"},{"town":"南新地一丁目","koaza":"","lat":35.002032,"lng":137.03725,"zip":"4720053"},{"town":"南新地二丁目","koaza":"","lat":35.001122,"lng":137.039661,"zip":"4720053"},{"town":"南新地三丁目","koaza":"","lat":34.999938,"lng":137.037849,"zip":"4720053"},{"town":"谷田町","koaza":"","lat":34.983393,"lng":137.053166,"zip":"4720013"},{"town":"八ツ田町","koaza":"","lat":34.989783,"lng":137.05529,"zip":"4720012"},{"town":"八ツ田町一丁目","koaza":"","lat":34.992734,"lng":137.060688,"zip":"4720012"},{"town":"八ツ田町二丁目","koaza":"","lat":34.991395,"lng":137.059593,"zip":"4720012"},{"town":"八ツ田町三丁目","koaza":"","lat":34.989637,"lng":137.062373,"zip":"4720012"},{"town":"八橋町","koaza":"","lat":35.00982,"lng":137.069386,"zip":"4720001"},{"town":"山町","koaza":"","lat":35.005648,"lng":137.052238,"zip":"4720006"},{"town":"山屋敷町","koaza":"","lat":35.009645,"lng":137.05252,"zip":"4720022"},{"town":"来迎寺町","koaza":"","lat":35.001264,"lng":137.073609,"zip":"4720002"},{"town":"上重原町","koaza":"丸山","lat":35.005088,"lng":137.019227,"zip":"4720026"},{"town":"上重原町","koaza":"土取","lat":34.998622,"lng":137.020187,"zip":"4720026"},{"town":"上重原町","koaza":"曇り","lat":35.000851,"lng":137.020081,"zip":"4720026"},{"town":"上重原町","koaza":"花立","lat":34.996547,"lng":137.020123,"zip":"4720026"},{"town":"上重原町","koaza":"鍜治荒井","lat":34.994344,"lng":137.02087,"zip":"4720026"},{"town":"上重原町","koaza":"寺内","lat":34.997503,"lng":137.023558,"zip":"4720026"},{"town":"上重原町","koaza":"己ノ池","lat":35.000648,"lng":137.023193,"zip":"4720026"},{"town":"西中町","koaza":"百度","lat":34.986972,"lng":137.022908,"zip":"4720016"},{"town":"上重原町","koaza":"村上","lat":34.995416,"lng":137.023323,"zip":"4720026"},{"town":"上重原町","koaza":"恩田","lat":35.003058,"lng":137.024475,"zip":"4720026"},{"town":"上重原町","koaza":"本郷","lat":34.9946,"lng":137.02587,"zip":"4720026"},{"town":"西中町","koaza":"西街道","lat":34.989209,"lng":137.025653,"zip":"4720016"},{"town":"上重原町","koaza":"家下","lat":34.992752,"lng":137.025211,"zip":"4720026"},{"town":"上重原町","koaza":"城後","lat":34.997095,"lng":137.025705,"zip":"4720026"},{"town":"上重原町","koaza":"島間","lat":35.000042,"lng":137.027948,"zip":"4720026"},{"town":"上重原町","koaza":"野中","lat":35.001348,"lng":137.027284,"zip":"4720026"},{"town":"上重原町","koaza":"中根","lat":34.994471,"lng":137.028817,"zip":"4720026"},{"town":"西中町","koaza":"永崎","lat":34.989705,"lng":137.027874,"zip":"4720016"},{"town":"上重原町","koaza":"西八鳥","lat":35.004091,"lng":137.027468,"zip":"4720026"},{"town":"西中町","koaza":"跡落","lat":34.98756,"lng":137.029779,"zip":"4720016"},{"town":"西中町","koaza":"天神","lat":34.99121,"lng":137.029289,"zip":"4720016"},{"town":"上重原町","koaza":"腰前","lat":34.996725,"lng":137.030995,"zip":"4720026"},{"town":"上重原町","koaza":"返萬燈","lat":34.997695,"lng":137.029389,"zip":"4720026"},{"town":"上重原町","koaza":"鳥居","lat":35.002569,"lng":137.030385,"zip":"4720026"},{"town":"上重原町","koaza":"下伊勢","lat":34.993282,"lng":137.030561,"zip":"4720026"},{"town":"上重原町","koaza":"長篠","lat":35.000658,"lng":137.032021,"zip":"4720026"},{"town":"上重原町","koaza":"東八鳥","lat":35.004459,"lng":137.02961,"zip":"4720026"},{"town":"西中町","koaza":"祐古山","lat":34.990528,"lng":137.030518,"zip":"4720016"},{"town":"西中町","koaza":"中長","lat":34.990409,"lng":137.032187,"zip":"4720016"},{"town":"西中町","koaza":"中新切","lat":34.98816,"lng":137.032859,"zip":"4720016"},{"town":"西中町","koaza":"砂原","lat":34.987399,"lng":137.031634,"zip":"4720016"},{"town":"上重原町","koaza":"上伊勢","lat":34.99487,"lng":137.034254,"zip":"4720026"},{"town":"西町","koaza":"逢生","lat":35.010651,"lng":137.033733,"zip":"4720023"},{"town":"上重原町","koaza":"間瀬口","lat":34.9957,"lng":137.033473,"zip":"4720026"},{"town":"西中町","koaza":"荒新切","lat":34.991369,"lng":137.034276,"zip":"4720016"},{"town":"西町","koaza":"草刈","lat":35.010143,"lng":137.034504,"zip":"4720023"},{"town":"西中町","koaza":"北新切","lat":34.989933,"lng":137.034462,"zip":"4720016"},{"town":"西中町","koaza":"南新切","lat":34.986537,"lng":137.039133,"zip":"4720016"},{"town":"西町","koaza":"落合","lat":35.011352,"lng":137.035968,"zip":"4720023"},{"town":"西町","koaza":"妻向","lat":35.01597,"lng":137.036279,"zip":"4720023"},{"town":"宝町","koaza":"塩掻","lat":35.008464,"lng":137.037271,"zip":"4720024"},{"town":"新林町","koaza":"北林","lat":34.990267,"lng":137.038772,"zip":"4720017"},{"town":"上重原町","koaza":"蔵福寺","lat":34.998536,"lng":137.036242,"zip":"4720026"},{"town":"新林町","koaza":"欠藪","lat":34.992532,"lng":137.043344,"zip":"4720017"},{"town":"上重原町","koaza":"中田","lat":34.99189,"lng":137.035861,"zip":"4720026"},{"town":"上重原町","koaza":"小針","lat":34.995357,"lng":137.038986,"zip":"4720026"},{"town":"上重原町","koaza":"山居下","lat":34.994073,"lng":137.038166,"zip":"4720026"},{"town":"弘法町","koaza":"小針下","lat":34.993379,"lng":137.041158,"zip":"4720046"},{"town":"逢妻町","koaza":"西栄","lat":35.017171,"lng":137.037894,"zip":"4720021"},{"town":"西町","koaza":"亀池","lat":35.010203,"lng":137.037782,"zip":"4720023"},{"town":"西町","koaza":"新川","lat":35.012645,"lng":137.037547,"zip":"4720023"},{"town":"逢妻町","koaza":"道瀬山","lat":35.019197,"lng":137.038475,"zip":"4720021"},{"town":"逢妻町","koaza":"丸坪","lat":35.015656,"lng":137.038698,"zip":"4720021"},{"town":"西中町","koaza":"北吹戸","lat":34.984432,"lng":137.039404,"zip":"4720016"},{"town":"宝町","koaza":"刈谷道","lat":35.008473,"lng":137.038792,"zip":"4720024"},{"town":"逢妻町","koaza":"城山","lat":35.020151,"lng":137.040094,"zip":"4720021"},{"town":"新林町","koaza":"新林","lat":34.987391,"lng":137.044748,"zip":"4720017"},{"town":"逢妻町","koaza":"金山","lat":35.017127,"lng":137.040772,"zip":"4720021"},{"town":"西町","koaza":"宮後","lat":35.014829,"lng":137.040474,"zip":"4720023"},{"town":"西町","koaza":"西","lat":35.011189,"lng":137.039981,"zip":"4720023"},{"town":"逢妻町","koaza":"桜","lat":35.01838,"lng":137.040817,"zip":"4720021"},{"town":"西町","koaza":"神田","lat":35.012942,"lng":137.040584,"zip":"4720023"},{"town":"新林町","koaza":"東新切","lat":34.986218,"lng":137.042178,"zip":"4720017"},{"town":"新林町","koaza":"小深田","lat":34.991903,"lng":137.04173,"zip":"4720017"},{"town":"新林町","koaza":"茶野","lat":34.989722,"lng":137.042434,"zip":"4720017"},{"town":"本町","koaza":"本","lat":35.008147,"lng":137.041549,"zip":"4720038"},{"town":"西町","koaza":"宮腰","lat":35.013347,"lng":137.042723,"zip":"4720023"},{"town":"本町","koaza":"中通","lat":35.007103,"lng":137.040478,"zip":"4720038"},{"town":"逢妻町","koaza":"錦","lat":35.019366,"lng":137.042351,"zip":"4720021"},{"town":"桜木町","koaza":"桜木","lat":35.009852,"lng":137.04292,"zip":"4720031"},{"town":"新林町","koaza":"新池","lat":34.98529,"lng":137.045167,"zip":"4720017"},{"town":"中町","koaza":"中","lat":35.007601,"lng":137.042381,"zip":"4720033"},{"town":"谷田町","koaza":"本林一丁目","lat":34.98379,"lng":137.044332,"zip":"4720013"},{"town":"中町","koaza":"家下","lat":35.008672,"lng":137.042938,"zip":"4720033"},{"town":"新地町","koaza":"西新地","lat":35.006084,"lng":137.042628,"zip":"4720041"},{"town":"西町","koaza":"本田","lat":35.014954,"lng":137.043498,"zip":"4720023"},{"town":"逢妻町","koaza":"八幡","lat":35.018594,"lng":137.044299,"zip":"4720021"},{"town":"弘法町","koaza":"丁凪","lat":34.997422,"lng":137.043399,"zip":"4720046"},{"town":"弘法町","koaza":"弘法下","lat":34.994198,"lng":137.045366,"zip":"4720046"},{"town":"新地町","koaza":"東新地","lat":35.006001,"lng":137.045424,"zip":"4720041"},{"town":"新林町","koaza":"平草","lat":34.990602,"lng":137.046287,"zip":"4720017"},{"town":"内幸町","koaza":"平田","lat":35.004947,"lng":137.046687,"zip":"4720042"},{"town":"弘法町","koaza":"弘法山","lat":34.996154,"lng":137.046835,"zip":"4720046"},{"town":"中町","koaza":"花山","lat":35.009934,"lng":137.046716,"zip":"4720033"},{"town":"新地町","koaza":"吉良道東","lat":35.003922,"lng":137.044918,"zip":"4720041"},{"town":"中山町","koaza":"中山","lat":35.006867,"lng":137.045274,"zip":"4720032"},{"town":"内幸町","koaza":"加藤","lat":35.003395,"lng":137.046466,"zip":"4720042"},{"town":"中山町","koaza":"東狭間","lat":35.007773,"lng":137.045363,"zip":"4720032"},{"town":"長篠町","koaza":"新田","lat":34.997999,"lng":137.046119,"zip":"4720045"},{"town":"新地町","koaza":"西広見","lat":35.001184,"lng":137.045487,"zip":"4720041"},{"town":"谷田町","koaza":"本林二丁目","lat":34.981898,"lng":137.04618,"zip":"4720013"},{"town":"長篠町","koaza":"新田裏","lat":35.000931,"lng":137.045047,"zip":"4720045"},{"town":"山屋敷町","koaza":"見社","lat":35.012128,"lng":137.046043,"zip":"4720022"},{"town":"谷田町","koaza":"西一丁目","lat":34.983532,"lng":137.047288,"zip":"4720013"},{"town":"山屋敷町","koaza":"板張","lat":35.014159,"lng":137.046793,"zip":"4720022"},{"town":"山町","koaza":"山","lat":35.005533,"lng":137.048016,"zip":"4720006"},{"town":"中山町","koaza":"神狭間","lat":35.008962,"lng":137.047741,"zip":"4720032"},{"town":"山町","koaza":"桜馬場","lat":35.006512,"lng":137.048589,"zip":"4720006"},{"town":"新林町","koaza":"本林","lat":34.989084,"lng":137.049669,"zip":"4720017"},{"town":"谷田町","koaza":"北屋下","lat":34.984107,"lng":137.050849,"zip":"4720013"},{"town":"弘法町","koaza":"遠田","lat":34.995318,"lng":137.047457,"zip":"4720046"},{"town":"長篠町","koaza":"新田東","lat":34.99901,"lng":137.049606,"zip":"4720045"},{"town":"長篠町","koaza":"丸山","lat":34.997391,"lng":137.049756,"zip":"4720045"},{"town":"山町","koaza":"御手洗","lat":35.006377,"lng":137.051265,"zip":"4720006"},{"town":"新林町","koaza":"立野","lat":34.991123,"lng":137.050091,"zip":"4720017"},{"town":"谷田町","koaza":"西ノ割","lat":34.982815,"lng":137.048576,"zip":"4720013"},{"town":"山屋敷町","koaza":"高場","lat":35.010941,"lng":137.051747,"zip":"4720022"},{"town":"谷田町","koaza":"西二丁目","lat":34.980485,"lng":137.049025,"zip":"4720013"},{"town":"山町","koaza":"八ツ田道西","lat":35.004615,"lng":137.049616,"zip":"4720006"},{"town":"山町","koaza":"小林","lat":35.008507,"lng":137.050272,"zip":"4720006"},{"town":"谷田町","koaza":"南屋下","lat":34.981921,"lng":137.052757,"zip":"4720013"},{"town":"山町","koaza":"南引馬野","lat":35.004491,"lng":137.051059,"zip":"4720006"},{"town":"谷田町","koaza":"下空池","lat":34.986005,"lng":137.050551,"zip":"4720013"},{"town":"山屋敷町","koaza":"山鼻","lat":35.009336,"lng":137.051352,"zip":"4720022"},{"town":"山町","koaza":"北引馬野","lat":35.005539,"lng":137.050678,"zip":"4720006"},{"town":"谷田町","koaza":"宝土","lat":34.984893,"lng":137.052774,"zip":"4720013"},{"town":"八ツ田町","koaza":"泉","lat":34.993542,"lng":137.053071,"zip":"4720012"},{"town":"長篠町","koaza":"八ツ田道","lat":34.999495,"lng":137.051506,"zip":"4720045"},{"town":"山町","koaza":"四組","lat":35.006769,"lng":137.051285,"zip":"4720006"},{"town":"長篠町","koaza":"大山","lat":34.997874,"lng":137.051645,"zip":"4720045"},{"town":"山屋敷町","koaza":"桐山","lat":35.008743,"lng":137.053008,"zip":"4720022"},{"town":"山町","koaza":"大林","lat":35.007141,"lng":137.053356,"zip":"4720006"},{"town":"八ツ田町","koaza":"山畔","lat":34.989302,"lng":137.05498,"zip":"4720012"},{"town":"八ツ田町","koaza":"荒子","lat":34.991308,"lng":137.055046,"zip":"4720012"},{"town":"山町","koaza":"御林","lat":35.002885,"lng":137.055972,"zip":"4720006"},{"town":"山町","koaza":"中畑","lat":35.004244,"lng":137.052109,"zip":"4720006"},{"town":"山屋敷町","koaza":"山屋敷","lat":35.011431,"lng":137.055089,"zip":"4720022"},{"town":"谷田町","koaza":"川岸","lat":34.981061,"lng":137.052719,"zip":"4720013"},{"town":"谷田町","koaza":"上空池","lat":34.985093,"lng":137.054723,"zip":"4720013"},{"town":"八ツ田町","koaza":"神明","lat":34.992767,"lng":137.05581,"zip":"4720012"},{"town":"山屋敷町","koaza":"向田","lat":35.011573,"lng":137.056274,"zip":"4720022"},{"town":"山町","koaza":"茶碓山","lat":35.005922,"lng":137.0542,"zip":"4720006"},{"town":"八ツ田町","koaza":"曲り","lat":34.988797,"lng":137.056414,"zip":"4720012"},{"town":"谷田町","koaza":"西長根","lat":34.982931,"lng":137.057045,"zip":"4720013"},{"town":"山屋敷町","koaza":"東山","lat":35.007907,"lng":137.056421,"zip":"4720022"},{"town":"山町","koaza":"東並木北","lat":35.003478,"lng":137.057816,"zip":"4720006"},{"town":"山屋敷町","koaza":"富士塚","lat":35.01013,"lng":137.057789,"zip":"4720022"},{"town":"谷田町","koaza":"篠帰","lat":34.981922,"lng":137.057695,"zip":"4720013"},{"town":"牛田町","koaza":"新池","lat":34.996551,"lng":137.056184,"zip":"4720007"},{"town":"山屋敷町","koaza":"霞山","lat":35.008391,"lng":137.057185,"zip":"4720022"},{"town":"山町","koaza":"五八山","lat":35.005505,"lng":137.056455,"zip":"4720006"},{"town":"牛田町","koaza":"六反","lat":34.99622,"lng":137.056086,"zip":"4720007"},{"town":"牛田町","koaza":"尼子田","lat":34.995754,"lng":137.059634,"zip":"4720007"},{"town":"八ツ田町","koaza":"久根ノ内","lat":34.990158,"lng":137.058084,"zip":"4720012"},{"town":"八ツ田町","koaza":"川畔","lat":34.993796,"lng":137.057603,"zip":"4720012"},{"town":"八ツ田町","koaza":"門前","lat":34.992132,"lng":137.057682,"zip":"4720012"},{"town":"谷田町","koaza":"丸根新切","lat":34.981333,"lng":137.058751,"zip":"4720013"},{"town":"牛田町","koaza":"裏新切","lat":35.005473,"lng":137.059887,"zip":"4720007"},{"town":"八ツ田町","koaza":"東新切","lat":34.988474,"lng":137.060776,"zip":"4720012"},{"town":"牛田町","koaza":"新田南","lat":35.00162,"lng":137.060705,"zip":"4720007"},{"town":"牛田町","koaza":"コネハサマ","lat":35.008513,"lng":137.060673,"zip":"4720007"},{"town":"牛田町","koaza":"遠新切","lat":35.00372,"lng":137.059854,"zip":"4720007"},{"town":"八ツ田町","koaza":"馬原","lat":34.985677,"lng":137.060683,"zip":"4720012"},{"town":"牛田町","koaza":"新田北","lat":35.003711,"lng":137.060907,"zip":"4720007"},{"town":"山屋敷町","koaza":"鯒尾","lat":35.011532,"lng":137.059446,"zip":"4720022"},{"town":"牛田町","koaza":"牛田境","lat":35.000521,"lng":137.060444,"zip":"4720007"},{"town":"八ツ田町","koaza":"新山","lat":34.987914,"lng":137.062594,"zip":"4720012"},{"town":"牛田町","koaza":"下流","lat":35.009172,"lng":137.062372,"zip":"4720007"},{"town":"牛田町","koaza":"西裏","lat":35.003761,"lng":137.062415,"zip":"4720007"},{"town":"牛田町","koaza":"芋堀","lat":34.99532,"lng":137.062145,"zip":"4720007"},{"town":"牛田町","koaza":"中流","lat":35.007639,"lng":137.062046,"zip":"4720007"},{"town":"牛田町","koaza":"中新切","lat":35.0004,"lng":137.061466,"zip":"4720007"},{"town":"牛田町","koaza":"稲場","lat":35.000066,"lng":137.062647,"zip":"4720007"},{"town":"牛田町","koaza":"西屋敷","lat":35.000291,"lng":137.063464,"zip":"4720007"},{"town":"八橋町","koaza":"山崎","lat":35.00996,"lng":137.063673,"zip":"4720001"},{"town":"牛田町","koaza":"ヤケ田","lat":35.004567,"lng":137.063222,"zip":"4720007"},{"town":"八橋町","koaza":"半ノ木","lat":35.008883,"lng":137.066683,"zip":"4720001"},{"town":"八橋町","koaza":"町田","lat":35.009814,"lng":137.066493,"zip":"4720001"},{"town":"牛田町","koaza":"社口","lat":34.999329,"lng":137.063678,"zip":"4720007"},{"town":"牛田町","koaza":"地内","lat":35.002613,"lng":137.065262,"zip":"4720007"},{"town":"牛田町","koaza":"高根","lat":34.987224,"lng":137.068063,"zip":"4720007"},{"town":"八橋町","koaza":"薬師","lat":35.00791,"lng":137.067185,"zip":"4720001"},{"town":"牛田町","koaza":"前田","lat":34.998705,"lng":137.065441,"zip":"4720007"},{"town":"牛田町","koaza":"東前","lat":35.001023,"lng":137.065511,"zip":"4720007"},{"town":"牛田町","koaza":"小池","lat":35.005265,"lng":137.066319,"zip":"4720007"},{"town":"牛田町","koaza":"向田","lat":34.997518,"lng":137.067842,"zip":"4720007"},{"town":"牛田町","koaza":"小深田","lat":34.998878,"lng":137.066633,"zip":"4720007"},{"town":"牛田町","koaza":"東裏","lat":35.003082,"lng":137.067272,"zip":"4720007"},{"town":"八橋町","koaza":"大流","lat":35.010778,"lng":137.068392,"zip":"4720001"},{"town":"牛田町","koaza":"東向山","lat":34.996244,"lng":137.068112,"zip":"4720007"},{"town":"牛田町","koaza":"宮本","lat":35.00086,"lng":137.067871,"zip":"4720007"},{"town":"来迎寺町","koaza":"外山","lat":35.003191,"lng":137.068833,"zip":"4720002"},{"town":"牛田町","koaza":"一ノ割","lat":34.998963,"lng":137.070987,"zip":"4720007"},{"town":"八橋町","koaza":"前畑","lat":35.005143,"lng":137.070356,"zip":"4720001"},{"town":"来迎寺町","koaza":"足軽","lat":35.001323,"lng":137.069527,"zip":"4720002"},{"town":"牛田町","koaza":"湯山","lat":34.996779,"lng":137.069292,"zip":"4720007"},{"town":"八橋町","koaza":"五輪","lat":35.008963,"lng":137.070114,"zip":"4720001"},{"town":"八橋町","koaza":"高道","lat":35.006916,"lng":137.070452,"zip":"4720001"},{"town":"八橋町","koaza":"山田谷","lat":35.014794,"lng":137.07168,"zip":"4720001"},{"town":"牛田町","koaza":"原山","lat":34.991152,"lng":137.070301,"zip":"4720007"},{"town":"八橋町","koaza":"源田谷","lat":35.011691,"lng":137.070319,"zip":"4720001"},{"town":"来迎寺町","koaza":"古城","lat":35.002659,"lng":137.071461,"zip":"4720002"},{"town":"八橋町","koaza":"城下","lat":35.008732,"lng":137.072029,"zip":"4720001"},{"town":"八橋町","koaza":"踊場","lat":35.005146,"lng":137.071664,"zip":"4720001"},{"town":"八橋町","koaza":"弁財天","lat":35.00764,"lng":137.071885,"zip":"4720001"},{"town":"八橋町","koaza":"的場","lat":35.004187,"lng":137.072327,"zip":"4720001"},{"town":"八橋町","koaza":"池下","lat":35.011574,"lng":137.072182,"zip":"4720001"},{"town":"来迎寺町","koaza":"天白","lat":35.000711,"lng":137.071938,"zip":"4720002"},{"town":"来迎寺町","koaza":"南天白","lat":34.999812,"lng":137.072659,"zip":"4720002"},{"town":"来迎寺町","koaza":"広海道","lat":35.001403,"lng":137.072832,"zip":"4720002"},{"town":"八橋町","koaza":"神戸","lat":35.00649,"lng":137.073517,"zip":"4720001"},{"town":"来迎寺町","koaza":"御堂道","lat":35.002644,"lng":137.072391,"zip":"4720002"},{"town":"来迎寺町","koaza":"木ノ根田","lat":34.999626,"lng":137.074111,"zip":"4720002"},{"town":"八橋町","koaza":"西出口","lat":35.003571,"lng":137.074558,"zip":"4720001"},{"town":"来迎寺町","koaza":"西中畑","lat":35.001025,"lng":137.073821,"zip":"4720002"},{"town":"八橋町","koaza":"登城","lat":35.008682,"lng":137.074534,"zip":"4720001"},{"town":"八橋町","koaza":"川原田","lat":35.011488,"lng":137.074084,"zip":"4720001"},{"town":"八橋町","koaza":"寺内","lat":35.008832,"lng":137.076066,"zip":"4720001"},{"town":"八橋町","koaza":"井戸尻","lat":35.006093,"lng":137.076371,"zip":"4720001"},{"town":"来迎寺町","koaza":"下り戸","lat":35.000043,"lng":137.076208,"zip":"4720002"},{"town":"八橋町","koaza":"東出口","lat":35.004186,"lng":137.076434,"zip":"4720001"},{"town":"八橋町","koaza":"下井場取","lat":35.006983,"lng":137.076848,"zip":"4720001"},{"town":"来迎寺町","koaza":"沖中","lat":35.001236,"lng":137.077604,"zip":"4720002"},{"town":"八橋町","koaza":"上井場取","lat":35.004739,"lng":137.077789,"zip":"4720001"},{"town":"八橋町","koaza":"赤羽","lat":35.007094,"lng":137.082566,"zip":"4720001"},{"town":"谷田町","koaza":"本林三丁目","lat":34.982203,"lng":137.043854,"zip":"4720013"}]