[{"town":"相生町一丁目","koaza":"","lat":34.905079,"lng":136.98845,"zip":"4470862"},{"town":"相生町二丁目","koaza":"","lat":34.902998,"lng":136.988813,"zip":"4470862"},{"town":"相生町三丁目","koaza":"","lat":34.904262,"lng":136.989727,"zip":"4470862"},{"town":"相生町四丁目","koaza":"","lat":34.904061,"lng":136.99177,"zip":"4470862"},{"town":"相生町五丁目","koaza":"","lat":34.902166,"lng":136.991347,"zip":"4470862"},{"town":"明石町","koaza":"","lat":34.900558,"lng":136.981237,"zip":"4470866"},{"town":"旭町一丁目","koaza":"","lat":34.889839,"lng":137.017673,"zip":"4470022"},{"town":"旭町二丁目","koaza":"","lat":34.888549,"lng":137.016804,"zip":"4470022"},{"town":"旭町三丁目","koaza":"","lat":34.888477,"lng":137.019385,"zip":"4470022"},{"town":"旭町四丁目","koaza":"","lat":34.887617,"lng":137.018978,"zip":"4470022"},{"town":"浅間町一丁目","koaza":"","lat":34.897287,"lng":136.985657,"zip":"4470865"},{"town":"浅間町二丁目","koaza":"","lat":34.897177,"lng":136.987243,"zip":"4470865"},{"town":"浅間町三丁目","koaza":"","lat":34.895539,"lng":136.987228,"zip":"4470865"},{"town":"浅間町四丁目","koaza":"","lat":34.895592,"lng":136.985618,"zip":"4470865"},{"town":"浅間町五丁目","koaza":"","lat":34.894084,"lng":136.986227,"zip":"4470865"},{"town":"油渕町一丁目","koaza":"","lat":34.908533,"lng":137.011762,"zip":"4470083"},{"town":"油渕町二丁目","koaza":"","lat":34.906334,"lng":137.011798,"zip":"4470083"},{"town":"油渕町三丁目","koaza":"","lat":34.90661,"lng":137.008916,"zip":"4470083"},{"town":"油渕町四丁目","koaza":"","lat":34.905912,"lng":137.006561,"zip":"4470083"},{"town":"雨池町一丁目","koaza":"","lat":34.86515,"lng":136.988806,"zip":"4470813"},{"town":"雨池町二丁目","koaza":"","lat":34.863525,"lng":136.988384,"zip":"4470813"},{"town":"雨池町三丁目","koaza":"","lat":34.864162,"lng":136.987442,"zip":"4470813"},{"town":"荒居町一丁目","koaza":"","lat":34.91458,"lng":136.999636,"zip":"4470068"},{"town":"荒居町二丁目","koaza":"","lat":34.914472,"lng":137.001652,"zip":"4470068"},{"town":"荒居町三丁目","koaza":"","lat":34.913517,"lng":137.003346,"zip":"4470068"},{"town":"荒居町四丁目","koaza":"","lat":34.912623,"lng":137.002557,"zip":"4470068"},{"town":"荒居町五丁目","koaza":"","lat":34.912273,"lng":137.00194,"zip":"4470068"},{"town":"荒子町一丁目","koaza":"","lat":34.897657,"lng":137.010514,"zip":"4470038"},{"town":"荒子町二丁目","koaza":"","lat":34.89712,"lng":137.009466,"zip":"4470038"},{"town":"荒子町三丁目","koaza":"","lat":34.895134,"lng":137.010464,"zip":"4470038"},{"town":"荒子町四丁目","koaza":"","lat":34.895943,"lng":137.008937,"zip":"4470038"},{"town":"荒子町五丁目","koaza":"","lat":34.894489,"lng":137.008771,"zip":"4470038"},{"town":"荒子町六丁目","koaza":"","lat":34.893428,"lng":137.010185,"zip":"4470038"},{"town":"井口町一丁目","koaza":"","lat":34.930467,"lng":137.031418,"zip":"4470002"},{"town":"井口町二丁目","koaza":"","lat":34.931201,"lng":137.032795,"zip":"4470002"},{"town":"井口町三丁目","koaza":"","lat":34.927525,"lng":137.030931,"zip":"4470002"},{"town":"井口町四丁目","koaza":"","lat":34.927374,"lng":137.032605,"zip":"4470002"},{"town":"池下町一丁目","koaza":"","lat":34.885507,"lng":137.019373,"zip":"4470023"},{"town":"池下町二丁目","koaza":"","lat":34.885581,"lng":137.018275,"zip":"4470023"},{"town":"池下町三丁目","koaza":"","lat":34.885273,"lng":137.016645,"zip":"4470023"},{"town":"池下町四丁目","koaza":"","lat":34.884712,"lng":137.014767,"zip":"4470023"},{"town":"石橋町一丁目","koaza":"","lat":34.881675,"lng":136.986946,"zip":"4470858"},{"town":"石橋町二丁目","koaza":"","lat":34.88067,"lng":136.985349,"zip":"4470858"},{"town":"石橋町三丁目","koaza":"","lat":34.879919,"lng":136.986298,"zip":"4470858"},{"town":"石橋町四丁目","koaza":"","lat":34.878522,"lng":136.984802,"zip":"4470858"},{"town":"石橋町五丁目","koaza":"","lat":34.877953,"lng":136.986089,"zip":"4470858"},{"town":"伊勢町一丁目","koaza":"","lat":34.863538,"lng":136.978058,"zip":"4470837"},{"town":"伊勢町二丁目","koaza":"","lat":34.863329,"lng":136.979936,"zip":"4470837"},{"town":"伊勢町三丁目","koaza":"","lat":34.863267,"lng":136.981555,"zip":"4470837"},{"town":"伊勢町四丁目","koaza":"","lat":34.863699,"lng":136.982781,"zip":"4470837"},{"town":"稲荷町一丁目","koaza":"","lat":34.850739,"lng":136.985777,"zip":"4470821"},{"town":"稲荷町二丁目","koaza":"","lat":34.852604,"lng":136.981867,"zip":"4470821"},{"town":"入船町一丁目","koaza":"","lat":34.861424,"lng":136.978938,"zip":"4470831"},{"town":"入船町二丁目","koaza":"","lat":34.861945,"lng":136.981419,"zip":"4470831"},{"town":"入船町三丁目","koaza":"","lat":34.861556,"lng":136.983322,"zip":"4470831"},{"town":"入船町四丁目","koaza":"","lat":34.860383,"lng":136.981424,"zip":"4470831"},{"town":"入船町六丁目","koaza":"","lat":34.858966,"lng":136.97878,"zip":"4470831"},{"town":"入船町七丁目","koaza":"","lat":34.858366,"lng":136.977021,"zip":"4470831"},{"town":"植出町一丁目","koaza":"","lat":34.893231,"lng":137.002039,"zip":"4470047"},{"town":"植出町二丁目","koaza":"","lat":34.893038,"lng":136.999958,"zip":"4470047"},{"town":"植出町三丁目","koaza":"","lat":34.892015,"lng":137.000108,"zip":"4470047"},{"town":"植出町四丁目","koaza":"","lat":34.892967,"lng":136.997901,"zip":"4470047"},{"town":"植出町五丁目","koaza":"","lat":34.891454,"lng":136.997485,"zip":"4470047"},{"town":"江口町一丁目","koaza":"","lat":34.854997,"lng":136.975661,"zip":"4470825"},{"town":"江口町二丁目","koaza":"","lat":34.853056,"lng":136.971734,"zip":"4470825"},{"town":"江口町三丁目","koaza":"","lat":34.851927,"lng":136.968001,"zip":"4470825"},{"town":"大久手町一丁目","koaza":"","lat":34.932473,"lng":137.029205,"zip":"4470008"},{"town":"大久手町二丁目","koaza":"","lat":34.932186,"lng":137.027932,"zip":"4470008"},{"town":"大久手町三丁目","koaza":"","lat":34.931829,"lng":137.026602,"zip":"4470008"},{"town":"大久手町四丁目","koaza":"","lat":34.929628,"lng":137.029303,"zip":"4470008"},{"town":"大堤町一丁目","koaza":"","lat":34.883108,"lng":137.020063,"zip":"4470025"},{"town":"大堤町二丁目","koaza":"","lat":34.881793,"lng":137.01689,"zip":"4470025"},{"town":"大堤町三丁目","koaza":"","lat":34.880774,"lng":137.014535,"zip":"4470025"},{"town":"大堤町四丁目","koaza":"","lat":34.879881,"lng":137.012836,"zip":"4470025"},{"town":"大坪町一丁目","koaza":"","lat":34.925111,"lng":137.033938,"zip":"4470012"},{"town":"大坪町二丁目","koaza":"","lat":34.924878,"lng":137.03524,"zip":"4470012"},{"town":"大坪町三丁目","koaza":"","lat":34.922507,"lng":137.03175,"zip":"4470012"},{"town":"大坪町四丁目","koaza":"","lat":34.921746,"lng":137.033556,"zip":"4470012"},{"town":"大浜上町一丁目","koaza":"","lat":34.885758,"lng":136.983936,"zip":"4470857"},{"town":"大浜上町二丁目","koaza":"","lat":34.884578,"lng":136.985432,"zip":"4470857"},{"town":"大浜上町三丁目","koaza":"","lat":34.883492,"lng":136.984339,"zip":"4470857"},{"town":"大浜上町四丁目","koaza":"","lat":34.8833,"lng":136.986386,"zip":"4470857"},{"town":"大浜上町五丁目","koaza":"","lat":34.882874,"lng":136.987982,"zip":"4470857"},{"town":"奥沢町一丁目","koaza":"","lat":34.921488,"lng":137.026281,"zip":"4470017"},{"town":"奥沢町二丁目","koaza":"","lat":34.920806,"lng":137.025509,"zip":"4470017"},{"town":"奥沢町三丁目","koaza":"","lat":34.920175,"lng":137.024541,"zip":"4470017"},{"town":"奥沢町四丁目","koaza":"","lat":34.918868,"lng":137.023705,"zip":"4470017"},{"town":"奥沢町五丁目","koaza":"","lat":34.918595,"lng":137.021868,"zip":"4470017"},{"town":"長田町一丁目","koaza":"","lat":34.918248,"lng":137.024853,"zip":"4470014"},{"town":"長田町二丁目","koaza":"","lat":34.916396,"lng":137.022708,"zip":"4470014"},{"town":"長田町三丁目","koaza":"","lat":34.91701,"lng":137.024073,"zip":"4470014"},{"town":"長田町四丁目","koaza":"","lat":34.915208,"lng":137.023123,"zip":"4470014"},{"town":"長田町五丁目","koaza":"","lat":34.916879,"lng":137.02508,"zip":"4470014"},{"town":"長田町六丁目","koaza":"","lat":34.916075,"lng":137.025792,"zip":"4470014"},{"town":"長田町七丁目","koaza":"","lat":34.914361,"lng":137.02352,"zip":"4470014"},{"town":"尾城町一丁目","koaza":"","lat":34.890491,"lng":137.005089,"zip":"4470036"},{"town":"尾城町二丁目","koaza":"","lat":34.88992,"lng":137.006866,"zip":"4470036"},{"town":"尾城町三丁目","koaza":"","lat":34.888348,"lng":137.004946,"zip":"4470036"},{"town":"尾城町四丁目","koaza":"","lat":34.889283,"lng":137.004801,"zip":"4470036"},{"town":"尾城町五丁目","koaza":"","lat":34.889225,"lng":137.003436,"zip":"4470036"},{"town":"音羽町一丁目","koaza":"","lat":34.872594,"lng":136.981732,"zip":"4470847"},{"town":"音羽町二丁目","koaza":"","lat":34.872578,"lng":136.983417,"zip":"4470847"},{"town":"音羽町三丁目","koaza":"","lat":34.87156,"lng":136.982734,"zip":"4470847"},{"town":"音羽町四丁目","koaza":"","lat":34.87162,"lng":136.984729,"zip":"4470847"},{"town":"篭田町一丁目","koaza":"","lat":34.89633,"lng":136.990846,"zip":"4470045"},{"town":"篭田町二丁目","koaza":"","lat":34.895714,"lng":136.992552,"zip":"4470045"},{"town":"篭田町三丁目","koaza":"","lat":34.894732,"lng":136.991291,"zip":"4470045"},{"town":"篭田町四丁目","koaza":"","lat":34.894709,"lng":136.994011,"zip":"4470045"},{"town":"春日町一丁目","koaza":"","lat":34.876707,"lng":136.990136,"zip":"4470888"},{"town":"春日町二丁目","koaza":"","lat":34.877406,"lng":136.992195,"zip":"4470888"},{"town":"春日町三丁目","koaza":"","lat":34.876362,"lng":136.993245,"zip":"4470888"},{"town":"春日町四丁目","koaza":"","lat":34.875899,"lng":136.994331,"zip":"4470888"},{"town":"霞浦町一丁目","koaza":"","lat":34.882524,"lng":137.0004,"zip":"4470881"},{"town":"霞浦町二丁目","koaza":"","lat":34.882663,"lng":137.002317,"zip":"4470881"},{"town":"霞浦町三丁目","koaza":"","lat":34.881575,"lng":137.00136,"zip":"4470881"},{"town":"霞浦町四丁目","koaza":"","lat":34.880722,"lng":137.000138,"zip":"4470881"},{"town":"霞浦町五丁目","koaza":"","lat":34.879842,"lng":136.999882,"zip":"4470881"},{"town":"金山町一丁目","koaza":"","lat":34.904611,"lng":137.003543,"zip":"4470085"},{"town":"金山町二丁目","koaza":"","lat":34.903917,"lng":137.00516,"zip":"4470085"},{"town":"金山町三丁目","koaza":"","lat":34.901873,"lng":137.003018,"zip":"4470085"},{"town":"金山町四丁目","koaza":"","lat":34.902537,"lng":137.002209,"zip":"4470085"},{"town":"金山町五丁目","koaza":"","lat":34.900627,"lng":137.001498,"zip":"4470085"},{"town":"金山町六丁目","koaza":"","lat":34.899613,"lng":137.002425,"zip":"4470085"},{"town":"神有町一丁目","koaza":"","lat":34.891243,"lng":137.010602,"zip":"4470028"},{"town":"神有町二丁目","koaza":"","lat":34.890134,"lng":137.009588,"zip":"4470028"},{"town":"神有町三丁目","koaza":"","lat":34.889917,"lng":137.011564,"zip":"4470028"},{"town":"神有町四丁目","koaza":"","lat":34.889548,"lng":137.01309,"zip":"4470028"},{"town":"神有町五丁目","koaza":"","lat":34.888487,"lng":137.012504,"zip":"4470028"},{"town":"神有町六丁目","koaza":"","lat":34.888007,"lng":137.014544,"zip":"4470028"},{"town":"神有町七丁目","koaza":"","lat":34.887323,"lng":137.016707,"zip":"4470028"},{"town":"上町一丁目","koaza":"","lat":34.917097,"lng":137.011799,"zip":"4470074"},{"town":"上町二丁目","koaza":"","lat":34.916209,"lng":137.013497,"zip":"4470074"},{"town":"上町三丁目","koaza":"","lat":34.915106,"lng":137.011313,"zip":"4470074"},{"town":"上町四丁目","koaza":"","lat":34.914554,"lng":137.01368,"zip":"4470074"},{"town":"上町五丁目","koaza":"","lat":34.913597,"lng":137.014657,"zip":"4470074"},{"town":"亀穴町一丁目","koaza":"","lat":34.88411,"lng":137.018445,"zip":"4470024"},{"town":"亀穴町二丁目","koaza":"","lat":34.883337,"lng":137.015952,"zip":"4470024"},{"town":"亀穴町三丁目","koaza":"","lat":34.882505,"lng":137.013441,"zip":"4470024"},{"town":"亀穴町四丁目","koaza":"","lat":34.882278,"lng":137.011053,"zip":"4470024"},{"town":"河方町一丁目","koaza":"","lat":34.84737,"lng":136.983324,"zip":"4470822"},{"town":"河方町二丁目","koaza":"","lat":34.844248,"lng":136.980275,"zip":"4470822"},{"town":"川口町一丁目","koaza":"","lat":34.838836,"lng":136.977758,"zip":"4470823"},{"town":"川口町二丁目","koaza":"","lat":34.830188,"lng":136.972108,"zip":"4470823"},{"town":"川口町三丁目","koaza":"","lat":34.83317,"lng":136.96767,"zip":"4470823"},{"town":"川口町四丁目","koaza":"","lat":34.83767,"lng":136.968034,"zip":"4470823"},{"town":"川口町五丁目","koaza":"","lat":34.843722,"lng":136.969481,"zip":"4470823"},{"town":"川口町六丁目","koaza":"","lat":34.840935,"lng":136.972271,"zip":"4470823"},{"town":"川端町一丁目","koaza":"","lat":34.867299,"lng":136.994885,"zip":"4470817"},{"town":"川端町二丁目","koaza":"","lat":34.865055,"lng":136.991574,"zip":"4470817"},{"town":"神田町一丁目","koaza":"","lat":34.918533,"lng":137.01643,"zip":"4470016"},{"town":"神田町二丁目","koaza":"","lat":34.917964,"lng":137.015621,"zip":"4470016"},{"town":"神田町三丁目","koaza":"","lat":34.917915,"lng":137.013717,"zip":"4470016"},{"town":"神田町四丁目","koaza":"","lat":34.91619,"lng":137.015527,"zip":"4470016"},{"town":"神田町五丁目","koaza":"","lat":34.915658,"lng":137.016986,"zip":"4470016"},{"town":"雁道町一丁目","koaza":"","lat":34.928121,"lng":137.028947,"zip":"4470003"},{"town":"雁道町二丁目","koaza":"","lat":34.927261,"lng":137.028308,"zip":"4470003"},{"town":"雁道町三丁目","koaza":"","lat":34.927017,"lng":137.026899,"zip":"4470003"},{"town":"雁道町四丁目","koaza":"","lat":34.925608,"lng":137.027812,"zip":"4470003"},{"town":"北浦町一丁目","koaza":"","lat":34.895532,"lng":137.013151,"zip":"4470032"},{"town":"北浦町二丁目","koaza":"","lat":34.89364,"lng":137.014126,"zip":"4470032"},{"town":"北浦町三丁目","koaza":"","lat":34.892816,"lng":137.016277,"zip":"4470032"},{"town":"北浦町四丁目","koaza":"","lat":34.892485,"lng":137.018208,"zip":"4470032"},{"town":"北町一丁目","koaza":"","lat":34.935898,"lng":137.031339,"zip":"4470001"},{"town":"北町二丁目","koaza":"","lat":34.934413,"lng":137.032811,"zip":"4470001"},{"town":"北町三丁目","koaza":"","lat":34.934125,"lng":137.0308,"zip":"4470001"},{"town":"北町四丁目","koaza":"","lat":34.933317,"lng":137.029839,"zip":"4470001"},{"town":"久沓町一丁目","koaza":"","lat":34.911628,"lng":136.992268,"zip":"4470065"},{"town":"久沓町二丁目","koaza":"","lat":34.910639,"lng":136.992652,"zip":"4470065"},{"town":"久沓町三丁目","koaza":"","lat":34.909187,"lng":136.993114,"zip":"4470065"},{"town":"久沓町四丁目","koaza":"","lat":34.907605,"lng":136.993869,"zip":"4470065"},{"town":"栗山町一丁目","koaza":"","lat":34.879239,"lng":136.99374,"zip":"4470873"},{"town":"栗山町二丁目","koaza":"","lat":34.878445,"lng":136.994561,"zip":"4470873"},{"town":"栗山町三丁目","koaza":"","lat":34.877954,"lng":136.996182,"zip":"4470873"},{"town":"源氏神明町","koaza":"","lat":34.881871,"lng":136.996486,"zip":"4470872"},{"town":"源氏町一丁目","koaza":"","lat":34.872969,"lng":136.986761,"zip":"4470886"},{"town":"源氏町二丁目","koaza":"","lat":34.87299,"lng":136.988026,"zip":"4470886"},{"town":"源氏町三丁目","koaza":"","lat":34.872494,"lng":136.989523,"zip":"4470886"},{"town":"源氏町四丁目","koaza":"","lat":34.871862,"lng":136.987504,"zip":"4470886"},{"town":"源氏町五丁目","koaza":"","lat":34.871257,"lng":136.988033,"zip":"4470886"},{"town":"鴻島町一丁目","koaza":"","lat":34.886102,"lng":137.007731,"zip":"4470034"},{"town":"鴻島町二丁目","koaza":"","lat":34.884715,"lng":137.008676,"zip":"4470034"},{"town":"鴻島町三丁目","koaza":"","lat":34.884845,"lng":137.006812,"zip":"4470034"},{"town":"鴻島町四丁目","koaza":"","lat":34.885504,"lng":137.005077,"zip":"4470034"},{"town":"鴻島町五丁目","koaza":"","lat":34.88372,"lng":137.004895,"zip":"4470034"},{"town":"鴻島町六丁目","koaza":"","lat":34.883307,"lng":137.006646,"zip":"4470034"},{"town":"港南町一丁目","koaza":"","lat":34.850503,"lng":136.965694,"zip":"4470824"},{"town":"港南町二丁目","koaza":"","lat":34.83647,"lng":136.960474,"zip":"4470824"},{"town":"向陽町一丁目","koaza":"","lat":34.889943,"lng":136.996744,"zip":"4470871"},{"town":"向陽町二丁目","koaza":"","lat":34.889051,"lng":136.996124,"zip":"4470871"},{"town":"向陽町三丁目","koaza":"","lat":34.887644,"lng":136.996074,"zip":"4470871"},{"town":"向陽町四丁目","koaza":"","lat":34.885924,"lng":136.995521,"zip":"4470871"},{"town":"湖西町一丁目","koaza":"","lat":34.911166,"lng":137.014625,"zip":"4470082"},{"town":"湖西町二丁目","koaza":"","lat":34.909555,"lng":137.013274,"zip":"4470082"},{"town":"湖西町三丁目","koaza":"","lat":34.910209,"lng":137.01512,"zip":"4470082"},{"town":"湖西町四丁目","koaza":"","lat":34.909262,"lng":137.016035,"zip":"4470082"},{"town":"湖西町五丁目","koaza":"","lat":34.907599,"lng":137.013905,"zip":"4470082"},{"town":"小屋下町一丁目","koaza":"","lat":34.880841,"lng":137.009282,"zip":"4470809"},{"town":"小屋下町二丁目","koaza":"","lat":34.878948,"lng":137.010704,"zip":"4470809"},{"town":"小屋下町三丁目","koaza":"","lat":34.879628,"lng":137.007241,"zip":"4470809"},{"town":"小屋下町四丁目","koaza":"","lat":34.877773,"lng":137.007993,"zip":"4470809"},{"town":"権田町一丁目","koaza":"","lat":34.863735,"lng":136.984506,"zip":"4470838"},{"town":"権田町二丁目","koaza":"","lat":34.8631,"lng":136.985914,"zip":"4470838"},{"town":"権田町三丁目","koaza":"","lat":34.861974,"lng":136.985419,"zip":"4470838"},{"town":"幸町一丁目","koaza":"","lat":34.890158,"lng":136.99944,"zip":"4470043"},{"town":"幸町二丁目","koaza":"","lat":34.888844,"lng":137.001298,"zip":"4470043"},{"town":"幸町三丁目","koaza":"","lat":34.887565,"lng":137.000316,"zip":"4470043"},{"town":"幸町四丁目","koaza":"","lat":34.888879,"lng":136.999018,"zip":"4470043"},{"town":"幸町五丁目","koaza":"","lat":34.887903,"lng":136.998442,"zip":"4470043"},{"town":"幸町六丁目","koaza":"","lat":34.886375,"lng":136.998929,"zip":"4470043"},{"town":"幸町七丁目","koaza":"","lat":34.885183,"lng":136.998522,"zip":"4470043"},{"town":"栄町一丁目","koaza":"","lat":34.888155,"lng":136.990699,"zip":"4470877"},{"town":"栄町二丁目","koaza":"","lat":34.888569,"lng":136.993355,"zip":"4470877"},{"town":"栄町三丁目","koaza":"","lat":34.886671,"lng":136.990739,"zip":"4470877"},{"town":"栄町四丁目","koaza":"","lat":34.886466,"lng":136.992723,"zip":"4470877"},{"town":"坂口町一丁目","koaza":"","lat":34.910919,"lng":137.005559,"zip":"4470087"},{"town":"坂口町二丁目","koaza":"","lat":34.911049,"lng":137.00795,"zip":"4470087"},{"town":"坂口町三丁目","koaza":"","lat":34.910175,"lng":137.010892,"zip":"4470087"},{"town":"坂口町四丁目","koaza":"","lat":34.909654,"lng":137.007251,"zip":"4470087"},{"town":"作塚町一丁目","koaza":"","lat":34.88019,"lng":136.991081,"zip":"4470874"},{"town":"作塚町二丁目","koaza":"","lat":34.87979,"lng":136.992715,"zip":"4470874"},{"town":"作塚町三丁目","koaza":"","lat":34.87863,"lng":136.990961,"zip":"4470874"},{"town":"笹山町一丁目","koaza":"","lat":34.900227,"lng":137.007457,"zip":"4470053"},{"town":"笹山町二丁目","koaza":"","lat":34.899675,"lng":137.009328,"zip":"4470053"},{"town":"笹山町三丁目","koaza":"","lat":34.897897,"lng":137.00799,"zip":"4470053"},{"town":"笹山町四丁目","koaza":"","lat":34.89887,"lng":137.006371,"zip":"4470053"},{"town":"笹山町五丁目","koaza":"","lat":34.897684,"lng":137.00535,"zip":"4470053"},{"town":"笹山町六丁目","koaza":"","lat":34.896693,"lng":137.007052,"zip":"4470053"},{"town":"笹山町七丁目","koaza":"","lat":34.896085,"lng":137.006138,"zip":"4470053"},{"town":"沢渡町","koaza":"","lat":34.881787,"lng":136.993049,"zip":"4470879"},{"town":"三角町一丁目","koaza":"","lat":34.881161,"lng":137.022432,"zip":"4470803"},{"town":"三角町二丁目","koaza":"","lat":34.879813,"lng":137.02005,"zip":"4470803"},{"town":"三間町一丁目","koaza":"","lat":34.877717,"lng":137.005134,"zip":"4470806"},{"town":"三間町二丁目","koaza":"","lat":34.876439,"lng":137.003772,"zip":"4470806"},{"town":"三度山町一丁目","koaza":"","lat":34.914763,"lng":137.009581,"zip":"4470061"},{"town":"三度山町二丁目","koaza":"","lat":34.913939,"lng":137.008287,"zip":"4470061"},{"town":"三度山町三丁目","koaza":"","lat":34.913055,"lng":137.007432,"zip":"4470061"},{"town":"三度山町四丁目","koaza":"","lat":34.912662,"lng":137.005376,"zip":"4470061"},{"town":"汐田町一丁目","koaza":"","lat":34.875014,"lng":136.988462,"zip":"4470887"},{"town":"汐田町二丁目","koaza":"","lat":34.87489,"lng":136.990449,"zip":"4470887"},{"town":"汐田町三丁目","koaza":"","lat":34.873752,"lng":136.989662,"zip":"4470887"},{"town":"汐田町四丁目","koaza":"","lat":34.873875,"lng":136.991478,"zip":"4470887"},{"town":"汐田町五丁目","koaza":"","lat":34.873642,"lng":136.992638,"zip":"4470887"},{"town":"塩浜町一丁目","koaza":"","lat":34.870012,"lng":136.983918,"zip":"4470841"},{"town":"塩浜町二丁目","koaza":"","lat":34.869206,"lng":136.985502,"zip":"4470841"},{"town":"塩浜町三丁目","koaza":"","lat":34.867444,"lng":136.986443,"zip":"4470841"},{"town":"塩浜町四丁目","koaza":"","lat":34.868324,"lng":136.98417,"zip":"4470841"},{"town":"塩浜町五丁目","koaza":"","lat":34.868948,"lng":136.983097,"zip":"4470841"},{"town":"塩浜町六丁目","koaza":"","lat":34.867415,"lng":136.982635,"zip":"4470841"},{"town":"塩浜町七丁目","koaza":"","lat":34.866191,"lng":136.984203,"zip":"4470841"},{"town":"塩浜町八丁目","koaza":"","lat":34.865637,"lng":136.986215,"zip":"4470841"},{"town":"潮見町一丁目","koaza":"","lat":34.852588,"lng":136.977493,"zip":"4470828"},{"town":"潮見町二丁目","koaza":"","lat":34.850691,"lng":136.973515,"zip":"4470828"},{"town":"潮見町三丁目","koaza":"","lat":34.848834,"lng":136.970405,"zip":"4470828"},{"town":"志貴崎町一丁目","koaza":"","lat":34.872326,"lng":136.996525,"zip":"4470816"},{"town":"志貴崎町二丁目","koaza":"","lat":34.871723,"lng":136.998006,"zip":"4470816"},{"town":"志貴崎町三丁目","koaza":"","lat":34.870671,"lng":136.996962,"zip":"4470816"},{"town":"志貴崎町四丁目","koaza":"","lat":34.871312,"lng":136.994859,"zip":"4470816"},{"town":"志貴崎町五丁目","koaza":"","lat":34.869442,"lng":136.995211,"zip":"4470816"},{"town":"志貴崎町六丁目","koaza":"","lat":34.868342,"lng":136.996522,"zip":"4470816"},{"town":"志貴町一丁目","koaza":"","lat":34.871986,"lng":136.99046,"zip":"4470885"},{"town":"志貴町二丁目","koaza":"","lat":34.871842,"lng":136.991593,"zip":"4470885"},{"town":"志貴町三丁目","koaza":"","lat":34.872096,"lng":136.993364,"zip":"4470885"},{"town":"志貴町四丁目","koaza":"","lat":34.872943,"lng":136.994065,"zip":"4470885"},{"town":"島池町一丁目","koaza":"","lat":34.922887,"lng":137.015703,"zip":"4470078"},{"town":"島池町二丁目","koaza":"","lat":34.922982,"lng":137.014348,"zip":"4470078"},{"town":"島池町三丁目","koaza":"","lat":34.922039,"lng":137.014141,"zip":"4470078"},{"town":"清水町一丁目","koaza":"","lat":34.921629,"lng":137.021386,"zip":"4470072"},{"town":"清水町二丁目","koaza":"","lat":34.921169,"lng":137.020508,"zip":"4470072"},{"town":"清水町三丁目","koaza":"","lat":34.920538,"lng":137.0199,"zip":"4470072"},{"town":"下洲町","koaza":"","lat":34.875117,"lng":137.002313,"zip":"4470883"},{"town":"照光町一丁目","koaza":"","lat":34.886287,"lng":137.016659,"zip":"4470027"},{"town":"照光町二丁目","koaza":"","lat":34.886133,"lng":137.014273,"zip":"4470027"},{"town":"照光町三丁目","koaza":"","lat":34.885976,"lng":137.012037,"zip":"4470027"},{"town":"照光町四丁目","koaza":"","lat":34.885266,"lng":137.012546,"zip":"4470027"},{"town":"照光町五丁目","koaza":"","lat":34.885239,"lng":137.010137,"zip":"4470027"},{"town":"白沢町一丁目","koaza":"","lat":34.922034,"lng":137.029269,"zip":"4470013"},{"town":"白沢町二丁目","koaza":"","lat":34.920208,"lng":137.031193,"zip":"4470013"},{"town":"白沢町三丁目","koaza":"","lat":34.920624,"lng":137.028398,"zip":"4470013"},{"town":"白沢町四丁目","koaza":"","lat":34.919177,"lng":137.025978,"zip":"4470013"},{"town":"白沢町五丁目","koaza":"","lat":34.918582,"lng":137.027153,"zip":"4470013"},{"town":"白砂町一丁目","koaza":"","lat":34.919603,"lng":137.010964,"zip":"4470076"},{"town":"白砂町二丁目","koaza":"","lat":34.919067,"lng":137.010133,"zip":"4470076"},{"town":"白砂町三丁目","koaza":"","lat":34.91839,"lng":137.009308,"zip":"4470076"},{"town":"白砂町四丁目","koaza":"","lat":34.917739,"lng":137.008522,"zip":"4470076"},{"town":"白砂町五丁目","koaza":"","lat":34.916891,"lng":137.007643,"zip":"4470076"},{"town":"城山町一丁目","koaza":"","lat":34.893376,"lng":137.007357,"zip":"4470037"},{"town":"城山町二丁目","koaza":"","lat":34.89213,"lng":137.006259,"zip":"4470037"},{"town":"城山町三丁目","koaza":"","lat":34.891579,"lng":137.00742,"zip":"4470037"},{"town":"城山町四丁目","koaza":"","lat":34.892603,"lng":137.009151,"zip":"4470037"},{"town":"城山町五丁目","koaza":"","lat":34.891202,"lng":137.008705,"zip":"4470037"},{"town":"新川町一丁目","koaza":"","lat":34.900617,"lng":136.990704,"zip":"4470863"},{"town":"新川町二丁目","koaza":"","lat":34.898727,"lng":136.98985,"zip":"4470863"},{"town":"新川町三丁目","koaza":"","lat":34.897085,"lng":136.989211,"zip":"4470863"},{"town":"新川町四丁目","koaza":"","lat":34.896297,"lng":136.989046,"zip":"4470863"},{"town":"新川町五丁目","koaza":"","lat":34.895177,"lng":136.988976,"zip":"4470863"},{"town":"新川町六丁目","koaza":"","lat":34.894172,"lng":136.988892,"zip":"4470863"},{"town":"新道町一丁目","koaza":"","lat":34.900199,"lng":137.003776,"zip":"4470052"},{"town":"新道町二丁目","koaza":"","lat":34.901162,"lng":137.005645,"zip":"4470052"},{"town":"新道町三丁目","koaza":"","lat":34.899958,"lng":137.005245,"zip":"4470052"},{"town":"新道町四丁目","koaza":"","lat":34.898583,"lng":137.00448,"zip":"4470052"},{"town":"末広町一丁目","koaza":"","lat":34.89098,"lng":136.990819,"zip":"4470044"},{"town":"末広町二丁目","koaza":"","lat":34.889522,"lng":136.99074,"zip":"4470044"},{"town":"末広町三丁目","koaza":"","lat":34.889975,"lng":136.993433,"zip":"4470044"},{"town":"洲先町一丁目","koaza":"","lat":34.908439,"lng":137.009577,"zip":"4470086"},{"town":"洲先町二丁目","koaza":"","lat":34.907974,"lng":137.006887,"zip":"4470086"},{"town":"洲先町三丁目","koaza":"","lat":34.90722,"lng":137.005317,"zip":"4470086"},{"town":"須磨町","koaza":"","lat":34.890478,"lng":136.980303,"zip":"4470854"},{"town":"住吉町一丁目","koaza":"","lat":34.899793,"lng":136.998034,"zip":"4470058"},{"town":"住吉町二丁目","koaza":"","lat":34.899123,"lng":136.998734,"zip":"4470058"},{"town":"住吉町三丁目","koaza":"","lat":34.898946,"lng":137.000665,"zip":"4470058"},{"town":"住吉町四丁目","koaza":"","lat":34.897566,"lng":136.999285,"zip":"4470058"},{"town":"千福町一丁目","koaza":"","lat":34.899667,"lng":136.992875,"zip":"4470056"},{"town":"千福町二丁目","koaza":"","lat":34.898927,"lng":136.995088,"zip":"4470056"},{"town":"千福町三丁目","koaza":"","lat":34.897528,"lng":136.993999,"zip":"4470056"},{"town":"千福町四丁目","koaza":"","lat":34.898312,"lng":136.992338,"zip":"4470056"},{"town":"千福町五丁目","koaza":"","lat":34.897314,"lng":136.991533,"zip":"4470056"},{"town":"千福町六丁目","koaza":"","lat":34.896564,"lng":136.993431,"zip":"4470056"},{"town":"善明町一丁目","koaza":"","lat":34.880786,"lng":136.988811,"zip":"4470875"},{"town":"善明町二丁目","koaza":"","lat":34.879046,"lng":136.988367,"zip":"4470875"},{"town":"善明町三丁目","koaza":"","lat":34.877368,"lng":136.987784,"zip":"4470875"},{"town":"宝町一丁目","koaza":"","lat":34.928751,"lng":137.02365,"zip":"4470006"},{"town":"宝町二丁目","koaza":"","lat":34.92792,"lng":137.022954,"zip":"4470006"},{"town":"宝町三丁目","koaza":"","lat":34.927261,"lng":137.022139,"zip":"4470006"},{"town":"竹原町一丁目","koaza":"","lat":34.930639,"lng":137.026368,"zip":"4470007"},{"town":"竹原町二丁目","koaza":"","lat":34.929986,"lng":137.025844,"zip":"4470007"},{"town":"竹原町三丁目","koaza":"","lat":34.929287,"lng":137.024673,"zip":"4470007"},{"town":"田尻町一丁目","koaza":"","lat":34.907548,"lng":136.984508,"zip":"4470867"},{"town":"田尻町二丁目","koaza":"","lat":34.907792,"lng":136.987254,"zip":"4470867"},{"town":"田尻町三丁目","koaza":"","lat":34.908774,"lng":136.987267,"zip":"4470867"},{"town":"田尻町四丁目","koaza":"","lat":34.909913,"lng":136.987992,"zip":"4470867"},{"town":"立山町一丁目","koaza":"","lat":34.91649,"lng":137.006829,"zip":"4470075"},{"town":"立山町二丁目","koaza":"","lat":34.915887,"lng":137.005939,"zip":"4470075"},{"town":"立山町三丁目","koaza":"","lat":34.915243,"lng":137.005064,"zip":"4470075"},{"town":"立山町四丁目","koaza":"","lat":34.914619,"lng":137.004253,"zip":"4470075"},{"town":"棚尾本町一丁目","koaza":"","lat":34.870748,"lng":136.989879,"zip":"4470815"},{"town":"棚尾本町二丁目","koaza":"","lat":34.870402,"lng":136.990948,"zip":"4470815"},{"town":"棚尾本町三丁目","koaza":"","lat":34.869845,"lng":136.992073,"zip":"4470815"},{"town":"棚尾本町四丁目","koaza":"","lat":34.87033,"lng":136.993365,"zip":"4470815"},{"town":"棚尾本町五丁目","koaza":"","lat":34.868959,"lng":136.99321,"zip":"4470815"},{"town":"築山町一丁目","koaza":"","lat":34.871413,"lng":136.97918,"zip":"4470849"},{"town":"築山町二丁目","koaza":"","lat":34.870136,"lng":136.979213,"zip":"4470849"},{"town":"築山町三丁目","koaza":"","lat":34.869824,"lng":136.9777,"zip":"4470849"},{"town":"築山町四丁目","koaza":"","lat":34.8689,"lng":136.979091,"zip":"4470849"},{"town":"鶴見町一丁目","koaza":"","lat":34.903567,"lng":136.993958,"zip":"4470057"},{"town":"鶴見町二丁目","koaza":"","lat":34.902661,"lng":136.995645,"zip":"4470057"},{"town":"鶴見町三丁目","koaza":"","lat":34.900969,"lng":136.997012,"zip":"4470057"},{"town":"鶴見町四丁目","koaza":"","lat":34.901992,"lng":136.994412,"zip":"4470057"},{"town":"鶴見町五丁目","koaza":"","lat":34.9011,"lng":136.993831,"zip":"4470057"},{"town":"鶴見町六丁目","koaza":"","lat":34.900215,"lng":136.995697,"zip":"4470057"},{"town":"天神町一丁目","koaza":"","lat":34.88903,"lng":137.009684,"zip":"4470033"},{"town":"天神町二丁目","koaza":"","lat":34.88804,"lng":137.005973,"zip":"4470033"},{"town":"天神町三丁目","koaza":"","lat":34.887817,"lng":137.007574,"zip":"4470033"},{"town":"天神町四丁目","koaza":"","lat":34.887789,"lng":137.009503,"zip":"4470033"},{"town":"天神町五丁目","koaza":"","lat":34.886976,"lng":137.01101,"zip":"4470033"},{"town":"天王町一丁目","koaza":"","lat":34.888216,"lng":136.986194,"zip":"4470855"},{"town":"天王町二丁目","koaza":"","lat":34.887734,"lng":136.988389,"zip":"4470855"},{"town":"天王町三丁目","koaza":"","lat":34.886473,"lng":136.988116,"zip":"4470855"},{"town":"天王町四丁目","koaza":"","lat":34.887302,"lng":136.985972,"zip":"4470855"},{"town":"天王町五丁目","koaza":"","lat":34.885637,"lng":136.985507,"zip":"4470855"},{"town":"天王町六丁目","koaza":"","lat":34.885161,"lng":136.987845,"zip":"4470855"},{"town":"天王町七丁目","koaza":"","lat":34.884241,"lng":136.98754,"zip":"4470855"},{"town":"道場山町一丁目","koaza":"","lat":34.892149,"lng":136.986081,"zip":"4470864"},{"town":"道場山町二丁目","koaza":"","lat":34.891841,"lng":136.98757,"zip":"4470864"},{"town":"道場山町三丁目","koaza":"","lat":34.892772,"lng":136.988826,"zip":"4470864"},{"town":"道場山町四丁目","koaza":"","lat":34.891189,"lng":136.988772,"zip":"4470864"},{"town":"道場山町五丁目","koaza":"","lat":34.892419,"lng":136.990859,"zip":"4470864"},{"town":"鳥追町一丁目","koaza":"","lat":34.919921,"lng":137.018801,"zip":"4470073"},{"town":"鳥追町二丁目","koaza":"","lat":34.919474,"lng":137.017903,"zip":"4470073"},{"town":"鳥追町三丁目","koaza":"","lat":34.918973,"lng":137.017253,"zip":"4470073"},{"town":"中江町一丁目","koaza":"","lat":34.86465,"lng":136.993337,"zip":"4470812"},{"town":"中江町二丁目","koaza":"","lat":34.863652,"lng":136.99592,"zip":"4470812"},{"town":"中江町三丁目","koaza":"","lat":34.860007,"lng":136.992969,"zip":"4470812"},{"town":"中江町四丁目","koaza":"","lat":34.861026,"lng":136.990336,"zip":"4470812"},{"town":"中江町五丁目","koaza":"","lat":34.862922,"lng":136.989845,"zip":"4470812"},{"town":"中江町六丁目","koaza":"","lat":34.860868,"lng":136.986859,"zip":"4470812"},{"town":"中後町一丁目","koaza":"","lat":34.892567,"lng":137.004598,"zip":"4470042"},{"town":"中後町二丁目","koaza":"","lat":34.891544,"lng":137.001944,"zip":"4470042"},{"town":"中後町三丁目","koaza":"","lat":34.890664,"lng":137.000479,"zip":"4470042"},{"town":"中後町四丁目","koaza":"","lat":34.890574,"lng":137.00334,"zip":"4470042"},{"town":"中田町一丁目","koaza":"","lat":34.85045,"lng":136.97942,"zip":"4470829"},{"town":"中田町二丁目","koaza":"","lat":34.84714,"lng":136.976097,"zip":"4470829"},{"town":"中田町三丁目","koaza":"","lat":34.845605,"lng":136.97382,"zip":"4470829"},{"town":"中町一丁目","koaza":"","lat":34.875188,"lng":136.983253,"zip":"4470846"},{"town":"中町二丁目","koaza":"","lat":34.874073,"lng":136.982355,"zip":"4470846"},{"town":"中町三丁目","koaza":"","lat":34.873592,"lng":136.983985,"zip":"4470846"},{"town":"中町四丁目","koaza":"","lat":34.874513,"lng":136.98454,"zip":"4470846"},{"town":"中町五丁目","koaza":"","lat":34.874,"lng":136.985685,"zip":"4470846"},{"town":"中松町一丁目","koaza":"","lat":34.882445,"lng":136.983739,"zip":"4470859"},{"town":"中松町二丁目","koaza":"","lat":34.880595,"lng":136.983506,"zip":"4470859"},{"town":"中松町三丁目","koaza":"","lat":34.87952,"lng":136.983166,"zip":"4470859"},{"town":"中松町四丁目","koaza":"","lat":34.878589,"lng":136.982852,"zip":"4470859"},{"town":"中山町一丁目","koaza":"","lat":34.887645,"lng":137.002385,"zip":"4470035"},{"town":"中山町二丁目","koaza":"","lat":34.886929,"lng":137.003065,"zip":"4470035"},{"town":"中山町三丁目","koaza":"","lat":34.88594,"lng":137.003306,"zip":"4470035"},{"town":"中山町四丁目","koaza":"","lat":34.885055,"lng":137.001737,"zip":"4470035"},{"town":"中山町五丁目","koaza":"","lat":34.88617,"lng":137.001127,"zip":"4470035"},{"town":"中山町六丁目","koaza":"","lat":34.884959,"lng":136.999871,"zip":"4470035"},{"town":"中山町七丁目","koaza":"","lat":34.884377,"lng":137.001332,"zip":"4470035"},{"town":"縄手町一丁目","koaza":"","lat":34.890166,"lng":137.020889,"zip":"4470021"},{"town":"縄手町二丁目","koaza":"","lat":34.892109,"lng":137.02151,"zip":"4470021"},{"town":"縄手町三丁目","koaza":"","lat":34.893181,"lng":137.022656,"zip":"4470021"},{"town":"縄手町四丁目","koaza":"","lat":34.890487,"lng":137.024098,"zip":"4470021"},{"town":"縄手町五丁目","koaza":"","lat":34.889777,"lng":137.026288,"zip":"4470021"},{"town":"錦町一丁目","koaza":"","lat":34.871044,"lng":136.98124,"zip":"4470848"},{"town":"錦町二丁目","koaza":"","lat":34.870356,"lng":136.982443,"zip":"4470848"},{"town":"錦町三丁目","koaza":"","lat":34.869948,"lng":136.981223,"zip":"4470848"},{"town":"錦町四丁目","koaza":"","lat":34.868753,"lng":136.980733,"zip":"4470848"},{"town":"錦町五丁目","koaza":"","lat":34.868451,"lng":136.981589,"zip":"4470848"},{"town":"西浜町一丁目","koaza":"","lat":34.868124,"lng":136.97733,"zip":"4470843"},{"town":"西浜町二丁目","koaza":"","lat":34.867848,"lng":136.978802,"zip":"4470843"},{"town":"西浜町三丁目","koaza":"","lat":34.866467,"lng":136.978184,"zip":"4470843"},{"town":"西浜町四丁目","koaza":"","lat":34.86683,"lng":136.976658,"zip":"4470843"},{"town":"西浜町五丁目","koaza":"","lat":34.865863,"lng":136.975849,"zip":"4470843"},{"town":"西浜町六丁目","koaza":"","lat":34.865576,"lng":136.977405,"zip":"4470843"},{"town":"西山町一丁目","koaza":"","lat":34.90755,"lng":136.997781,"zip":"4470064"},{"town":"西山町二丁目","koaza":"","lat":34.90608,"lng":136.998977,"zip":"4470064"},{"town":"西山町三丁目","koaza":"","lat":34.906168,"lng":136.996961,"zip":"4470064"},{"town":"西山町四丁目","koaza":"","lat":34.905874,"lng":136.994922,"zip":"4470064"},{"town":"西山町五丁目","koaza":"","lat":34.90529,"lng":136.993272,"zip":"4470064"},{"town":"西山町六丁目","koaza":"","lat":34.90408,"lng":136.995572,"zip":"4470064"},{"town":"西山町七丁目","koaza":"","lat":34.903946,"lng":136.997293,"zip":"4470064"},{"town":"日進町一丁目","koaza":"","lat":34.879738,"lng":137.001593,"zip":"4470882"},{"town":"日進町二丁目","koaza":"","lat":34.878818,"lng":137.002174,"zip":"4470882"},{"town":"日進町三丁目","koaza":"","lat":34.877879,"lng":137.003022,"zip":"4470882"},{"town":"日進町四丁目","koaza":"","lat":34.876,"lng":137.001097,"zip":"4470882"},{"town":"二本木町一丁目","koaza":"","lat":34.893477,"lng":137.011944,"zip":"4470029"},{"town":"二本木町二丁目","koaza":"","lat":34.892633,"lng":137.011412,"zip":"4470029"},{"town":"二本木町三丁目","koaza":"","lat":34.890441,"lng":137.013375,"zip":"4470029"},{"town":"二本木町四丁目","koaza":"","lat":34.891557,"lng":137.013914,"zip":"4470029"},{"town":"二本木町五丁目","koaza":"","lat":34.890487,"lng":137.015515,"zip":"4470029"},{"town":"野銭町一丁目","koaza":"","lat":34.887726,"lng":137.032771,"zip":"4470801"},{"town":"野銭町二丁目","koaza":"","lat":34.888266,"lng":137.035397,"zip":"4470801"},{"town":"野銭町三丁目","koaza":"","lat":34.888601,"lng":137.037948,"zip":"4470801"},{"town":"野銭町四丁目","koaza":"","lat":34.888431,"lng":137.039891,"zip":"4470801"},{"town":"野田町","koaza":"","lat":34.884178,"lng":136.990134,"zip":"4470876"},{"town":"羽根町一丁目","koaza":"","lat":34.877066,"lng":136.984285,"zip":"4470851"},{"town":"羽根町二丁目","koaza":"","lat":34.8761,"lng":136.983773,"zip":"4470851"},{"town":"羽根町三丁目","koaza":"","lat":34.876205,"lng":136.985512,"zip":"4470851"},{"town":"羽根町四丁目","koaza":"","lat":34.875678,"lng":136.98697,"zip":"4470851"},{"town":"浜尾町一丁目","koaza":"","lat":34.898229,"lng":136.996714,"zip":"4470055"},{"town":"浜尾町二丁目","koaza":"","lat":34.896457,"lng":136.995017,"zip":"4470055"},{"town":"浜尾町三丁目","koaza":"","lat":34.897087,"lng":136.997203,"zip":"4470055"},{"town":"浜尾町四丁目","koaza":"","lat":34.895717,"lng":136.996317,"zip":"4470055"},{"town":"浜田町一丁目","koaza":"","lat":34.8667,"lng":136.980312,"zip":"4470842"},{"town":"浜田町二丁目","koaza":"","lat":34.865346,"lng":136.97939,"zip":"4470842"},{"town":"浜田町三丁目","koaza":"","lat":34.864695,"lng":136.98155,"zip":"4470842"},{"town":"浜田町四丁目","koaza":"","lat":34.865929,"lng":136.982445,"zip":"4470842"},{"town":"浜寺町一丁目","koaza":"","lat":34.873592,"lng":136.979217,"zip":"4470845"},{"town":"浜寺町二丁目","koaza":"","lat":34.873258,"lng":136.980665,"zip":"4470845"},{"town":"浜町","koaza":"","lat":34.881344,"lng":136.977295,"zip":"4470853"},{"town":"半崎町一丁目","koaza":"","lat":34.917297,"lng":137.020854,"zip":"4470015"},{"town":"半崎町二丁目","koaza":"","lat":34.916645,"lng":137.019188,"zip":"4470015"},{"town":"半崎町三丁目","koaza":"","lat":34.915039,"lng":137.018575,"zip":"4470015"},{"town":"半崎町四丁目","koaza":"","lat":34.914641,"lng":137.020311,"zip":"4470015"},{"town":"半崎町五丁目","koaza":"","lat":34.913199,"lng":137.019477,"zip":"4470015"},{"town":"半崎町六丁目","koaza":"","lat":34.913541,"lng":137.02156,"zip":"4470015"},{"town":"東浦町一丁目","koaza":"","lat":34.881241,"lng":136.998193,"zip":"4470889"},{"town":"東浦町二丁目","koaza":"","lat":34.879432,"lng":136.997249,"zip":"4470889"},{"town":"東浦町三丁目","koaza":"","lat":34.878947,"lng":136.998922,"zip":"4470889"},{"town":"東浦町四丁目","koaza":"","lat":34.877876,"lng":136.999588,"zip":"4470889"},{"town":"東浦町五丁目","koaza":"","lat":34.877426,"lng":136.997639,"zip":"4470889"},{"town":"東浦町六丁目","koaza":"","lat":34.875944,"lng":136.999288,"zip":"4470889"},{"town":"東山町一丁目","koaza":"","lat":34.904895,"lng":137.001726,"zip":"4470051"},{"town":"東山町二丁目","koaza":"","lat":34.903158,"lng":137.001169,"zip":"4470051"},{"town":"東山町三丁目","koaza":"","lat":34.904334,"lng":137.000186,"zip":"4470051"},{"town":"東山町四丁目","koaza":"","lat":34.903546,"lng":136.99913,"zip":"4470051"},{"town":"東山町五丁目","koaza":"","lat":34.902369,"lng":136.998432,"zip":"4470051"},{"town":"東山町六丁目","koaza":"","lat":34.90134,"lng":136.999784,"zip":"4470051"},{"town":"平山町一丁目","koaza":"","lat":34.925421,"lng":137.030486,"zip":"4470011"},{"town":"平山町二丁目","koaza":"","lat":34.92403,"lng":137.02974,"zip":"4470011"},{"town":"平山町三丁目","koaza":"","lat":34.924599,"lng":137.031989,"zip":"4470011"},{"town":"広見町一丁目","koaza":"","lat":34.913748,"lng":136.998265,"zip":"4470067"},{"town":"広見町二丁目","koaza":"","lat":34.912224,"lng":136.99945,"zip":"4470067"},{"town":"広見町三丁目","koaza":"","lat":34.911002,"lng":137.000747,"zip":"4470067"},{"town":"吹上町一丁目","koaza":"","lat":34.913949,"lng":137.017028,"zip":"4470081"},{"town":"吹上町二丁目","koaza":"","lat":34.912453,"lng":137.016072,"zip":"4470081"},{"town":"吹上町三丁目","koaza":"","lat":34.911916,"lng":137.017957,"zip":"4470081"},{"town":"吹上町四丁目","koaza":"","lat":34.911084,"lng":137.018141,"zip":"4470081"},{"town":"福清水町一丁目","koaza":"","lat":34.892876,"lng":136.993012,"zip":"4470048"},{"town":"福清水町二丁目","koaza":"","lat":34.893183,"lng":136.99486,"zip":"4470048"},{"town":"福清水町三丁目","koaza":"","lat":34.891588,"lng":136.99274,"zip":"4470048"},{"town":"福清水町四丁目","koaza":"","lat":34.891029,"lng":136.994578,"zip":"4470048"},{"town":"伏見町一丁目","koaza":"","lat":34.882281,"lng":137.003731,"zip":"4470807"},{"town":"伏見町二丁目","koaza":"","lat":34.881518,"lng":137.004079,"zip":"4470807"},{"town":"伏見町三丁目","koaza":"","lat":34.881132,"lng":137.004936,"zip":"4470807"},{"town":"伏見町四丁目","koaza":"","lat":34.880656,"lng":137.006204,"zip":"4470807"},{"town":"札木町一丁目","koaza":"","lat":34.913575,"lng":137.010937,"zip":"4470088"},{"town":"札木町二丁目","koaza":"","lat":34.912486,"lng":137.013125,"zip":"4470088"},{"town":"札木町三丁目","koaza":"","lat":34.911464,"lng":137.012043,"zip":"4470088"},{"town":"札木町四丁目","koaza":"","lat":34.912801,"lng":137.00924,"zip":"4470088"},{"town":"札木町五丁目","koaza":"","lat":34.911833,"lng":137.008608,"zip":"4470088"},{"town":"舟江町一丁目","koaza":"","lat":34.87086,"lng":137.000248,"zip":"4470811"},{"town":"舟江町二丁目","koaza":"","lat":34.86817,"lng":136.999321,"zip":"4470811"},{"town":"踏分町一丁目","koaza":"","lat":34.896936,"lng":137.002705,"zip":"4470054"},{"town":"踏分町二丁目","koaza":"","lat":34.895452,"lng":137.001682,"zip":"4470054"},{"town":"古川町一丁目","koaza":"","lat":34.910704,"lng":137.003796,"zip":"4470062"},{"town":"古川町二丁目","koaza":"","lat":34.909802,"lng":137.001984,"zip":"4470062"},{"town":"古川町三丁目","koaza":"","lat":34.907997,"lng":137.003085,"zip":"4470062"},{"town":"平七町一丁目","koaza":"","lat":34.876045,"lng":136.996191,"zip":"4470884"},{"town":"平七町二丁目","koaza":"","lat":34.874168,"lng":136.994824,"zip":"4470884"},{"town":"平七町三丁目","koaza":"","lat":34.873506,"lng":136.996574,"zip":"4470884"},{"town":"平七町四丁目","koaza":"","lat":34.875266,"lng":136.997545,"zip":"4470884"},{"town":"平七町五丁目","koaza":"","lat":34.874231,"lng":136.998889,"zip":"4470884"},{"town":"平和町一丁目","koaza":"","lat":34.902955,"lng":137.006011,"zip":"4470084"},{"town":"平和町二丁目","koaza":"","lat":34.902679,"lng":137.00898,"zip":"4470084"},{"town":"平和町三丁目","koaza":"","lat":34.902202,"lng":137.013054,"zip":"4470084"},{"town":"堀方町一丁目","koaza":"","lat":34.896997,"lng":137.000751,"zip":"4470046"},{"town":"堀方町二丁目","koaza":"","lat":34.895116,"lng":136.999338,"zip":"4470046"},{"town":"堀方町三丁目","koaza":"","lat":34.893904,"lng":136.996962,"zip":"4470046"},{"town":"本郷町一丁目","koaza":"","lat":34.877253,"lng":136.982324,"zip":"4470852"},{"town":"本郷町二丁目","koaza":"","lat":34.876052,"lng":136.981651,"zip":"4470852"},{"town":"本郷町三丁目","koaza":"","lat":34.874833,"lng":136.980963,"zip":"4470852"},{"town":"前浜町一丁目","koaza":"","lat":34.856941,"lng":136.991182,"zip":"4470827"},{"town":"前浜町二丁目","koaza":"","lat":34.854819,"lng":136.989064,"zip":"4470827"},{"town":"前浜町三丁目","koaza":"","lat":34.853031,"lng":136.987347,"zip":"4470827"},{"town":"前浜町四丁目","koaza":"","lat":34.856589,"lng":136.984496,"zip":"4470827"},{"town":"前浜町五丁目","koaza":"","lat":34.858925,"lng":136.983699,"zip":"4470827"},{"town":"松江町一丁目","koaza":"","lat":34.905614,"lng":136.98454,"zip":"4470868"},{"town":"松江町二丁目","koaza":"","lat":34.90709,"lng":136.987406,"zip":"4470868"},{"town":"松江町三丁目","koaza":"","lat":34.905847,"lng":136.987359,"zip":"4470868"},{"town":"松江町四丁目","koaza":"","lat":34.904691,"lng":136.986379,"zip":"4470868"},{"town":"松江町五丁目","koaza":"","lat":34.903415,"lng":136.985151,"zip":"4470868"},{"town":"松江町六丁目","koaza":"","lat":34.903331,"lng":136.986748,"zip":"4470868"},{"town":"松原町一丁目","koaza":"","lat":34.924896,"lng":137.017947,"zip":"4470079"},{"town":"松原町二丁目","koaza":"","lat":34.924507,"lng":137.016983,"zip":"4470079"},{"town":"松原町三丁目","koaza":"","lat":34.923739,"lng":137.016355,"zip":"4470079"},{"town":"松本町","koaza":"","lat":34.884339,"lng":136.993856,"zip":"4470878"},{"town":"丸山町一丁目","koaza":"","lat":34.913413,"lng":136.995454,"zip":"4470066"},{"town":"丸山町二丁目","koaza":"","lat":34.911769,"lng":136.995006,"zip":"4470066"},{"town":"丸山町三丁目","koaza":"","lat":34.910583,"lng":136.997279,"zip":"4470066"},{"town":"丸山町四丁目","koaza":"","lat":34.910107,"lng":136.995228,"zip":"4470066"},{"town":"丸山町五丁目","koaza":"","lat":34.908887,"lng":136.996336,"zip":"4470066"},{"town":"丸山町六丁目","koaza":"","lat":34.908201,"lng":136.997266,"zip":"4470066"},{"town":"見合町一丁目","koaza":"","lat":34.899329,"lng":137.013599,"zip":"4470031"},{"town":"見合町二丁目","koaza":"","lat":34.897431,"lng":137.012819,"zip":"4470031"},{"town":"岬町一丁目","koaza":"","lat":34.85903,"lng":136.974138,"zip":"4470832"},{"town":"岬町二丁目","koaza":"","lat":34.857481,"lng":136.97538,"zip":"4470832"},{"town":"岬町三丁目","koaza":"","lat":34.856602,"lng":136.973477,"zip":"4470832"},{"town":"岬町五丁目","koaza":"","lat":34.855709,"lng":136.971359,"zip":"4470832"},{"town":"緑町一丁目","koaza":"","lat":34.895816,"lng":137.003743,"zip":"4470041"},{"town":"緑町二丁目","koaza":"","lat":34.895192,"lng":137.005733,"zip":"4470041"},{"town":"緑町三丁目","koaza":"","lat":34.893997,"lng":137.005451,"zip":"4470041"},{"town":"緑町四丁目","koaza":"","lat":34.894173,"lng":137.002195,"zip":"4470041"},{"town":"緑町五丁目","koaza":"","lat":34.893553,"lng":137.004214,"zip":"4470041"},{"town":"港本町","koaza":"","lat":34.868977,"lng":136.97186,"zip":"4470844"},{"town":"三宅町一丁目","koaza":"","lat":34.884192,"lng":137.012576,"zip":"4470026"},{"town":"三宅町二丁目","koaza":"","lat":34.883592,"lng":137.010569,"zip":"4470026"},{"town":"三宅町三丁目","koaza":"","lat":34.882911,"lng":137.007894,"zip":"4470026"},{"town":"三宅町四丁目","koaza":"","lat":34.881948,"lng":137.007979,"zip":"4470026"},{"town":"宮後町一丁目","koaza":"","lat":34.890304,"lng":136.98641,"zip":"4470856"},{"town":"宮後町二丁目","koaza":"","lat":34.890236,"lng":136.988702,"zip":"4470856"},{"town":"宮後町三丁目","koaza":"","lat":34.889379,"lng":136.986261,"zip":"4470856"},{"town":"宮後町四丁目","koaza":"","lat":34.889151,"lng":136.988616,"zip":"4470856"},{"town":"宮町一丁目","koaza":"","lat":34.864664,"lng":136.975207,"zip":"4470835"},{"town":"宮町二丁目","koaza":"","lat":34.864,"lng":136.976703,"zip":"4470835"},{"town":"宮町三丁目","koaza":"","lat":34.863782,"lng":136.974739,"zip":"4470835"},{"town":"宮町四丁目","koaza":"","lat":34.86271,"lng":136.974912,"zip":"4470835"},{"town":"桃山町一丁目","koaza":"","lat":34.923627,"lng":137.024345,"zip":"4470071"},{"town":"桃山町二丁目","koaza":"","lat":34.923008,"lng":137.023319,"zip":"4470071"},{"town":"桃山町三丁目","koaza":"","lat":34.92249,"lng":137.02257,"zip":"4470071"},{"town":"桃山町四丁目","koaza":"","lat":34.922089,"lng":137.021978,"zip":"4470071"},{"town":"屋敷町一丁目","koaza":"","lat":34.921952,"lng":137.012056,"zip":"4470077"},{"town":"屋敷町二丁目","koaza":"","lat":34.920781,"lng":137.014094,"zip":"4470077"},{"town":"屋敷町三丁目","koaza":"","lat":34.920193,"lng":137.013251,"zip":"4470077"},{"town":"屋敷町四丁目","koaza":"","lat":34.920984,"lng":137.010793,"zip":"4470077"},{"town":"屋敷町五丁目","koaza":"","lat":34.919448,"lng":137.012589,"zip":"4470077"},{"town":"矢縄町一丁目","koaza":"","lat":34.873783,"lng":137.005904,"zip":"4470805"},{"town":"矢縄町二丁目","koaza":"","lat":34.87263,"lng":137.003675,"zip":"4470805"},{"town":"矢縄町三丁目","koaza":"","lat":34.871938,"lng":137.001865,"zip":"4470805"},{"town":"山神町一丁目","koaza":"","lat":34.901726,"lng":136.985377,"zip":"4470869"},{"town":"山神町二丁目","koaza":"","lat":34.901707,"lng":136.986544,"zip":"4470869"},{"town":"山神町三丁目","koaza":"","lat":34.901663,"lng":136.987547,"zip":"4470869"},{"town":"山神町四丁目","koaza":"","lat":34.901277,"lng":136.988755,"zip":"4470869"},{"town":"山神町五丁目","koaza":"","lat":34.900146,"lng":136.987873,"zip":"4470869"},{"town":"山神町六丁目","koaza":"","lat":34.900031,"lng":136.985895,"zip":"4470869"},{"town":"山神町七丁目","koaza":"","lat":34.899011,"lng":136.985781,"zip":"4470869"},{"town":"山神町八丁目","koaza":"","lat":34.898727,"lng":136.987455,"zip":"4470869"},{"town":"山下町","koaza":"","lat":34.907298,"lng":137.000792,"zip":"4470063"},{"town":"弥生町一丁目","koaza":"","lat":34.870377,"lng":136.985918,"zip":"4470814"},{"town":"弥生町二丁目","koaza":"","lat":34.8707,"lng":136.987281,"zip":"4470814"},{"town":"弥生町三丁目","koaza":"","lat":34.869386,"lng":136.988636,"zip":"4470814"},{"town":"弥生町四丁目","koaza":"","lat":34.868884,"lng":136.987486,"zip":"4470814"},{"town":"弥生町五丁目","koaza":"","lat":34.867085,"lng":136.987954,"zip":"4470814"},{"town":"用久町一丁目","koaza":"","lat":34.926305,"lng":137.026042,"zip":"4470004"},{"town":"用久町二丁目","koaza":"","lat":34.925368,"lng":137.025509,"zip":"4470004"},{"town":"用久町三丁目","koaza":"","lat":34.924907,"lng":137.024488,"zip":"4470004"},{"town":"用久町四丁目","koaza":"","lat":34.923646,"lng":137.027369,"zip":"4470004"},{"town":"用久町五丁目","koaza":"","lat":34.922608,"lng":137.026534,"zip":"4470004"},{"town":"葭生町一丁目","koaza":"","lat":34.854462,"lng":136.9813,"zip":"4470826"},{"town":"葭生町二丁目","koaza":"","lat":34.856891,"lng":136.979444,"zip":"4470826"},{"town":"流作町一丁目","koaza":"","lat":34.87876,"lng":137.017639,"zip":"4470804"},{"town":"流作町二丁目","koaza":"","lat":34.877663,"lng":137.01466,"zip":"4470804"},{"town":"流作町三丁目","koaza":"","lat":34.876348,"lng":137.011526,"zip":"4470804"},{"town":"流作町四丁目","koaza":"","lat":34.875029,"lng":137.008569,"zip":"4470804"},{"town":"六軒町一丁目","koaza":"","lat":34.910641,"lng":136.99019,"zip":"4470861"},{"town":"六軒町二丁目","koaza":"","lat":34.908777,"lng":136.990488,"zip":"4470861"},{"town":"六軒町三丁目","koaza":"","lat":34.907745,"lng":136.990259,"zip":"4470861"},{"town":"六軒町四丁目","koaza":"","lat":34.906503,"lng":136.99008,"zip":"4470861"},{"town":"六軒町五丁目","koaza":"","lat":34.906188,"lng":136.992038,"zip":"4470861"},{"town":"若水町一丁目","koaza":"","lat":34.9271,"lng":137.020765,"zip":"4470005"},{"town":"若水町二丁目","koaza":"","lat":34.926338,"lng":137.020021,"zip":"4470005"},{"town":"若水町三丁目","koaza":"","lat":34.925557,"lng":137.019532,"zip":"4470005"},{"town":"若水町四丁目","koaza":"","lat":34.925505,"lng":137.0183,"zip":"4470005"},{"town":"若宮町一丁目","koaza":"","lat":34.869138,"lng":136.990791,"zip":"4470818"},{"town":"若宮町二丁目","koaza":"","lat":34.868385,"lng":136.991951,"zip":"4470818"},{"town":"若宮町三丁目","koaza":"","lat":34.86789,"lng":136.99275,"zip":"4470818"},{"town":"若宮町四丁目","koaza":"","lat":34.868219,"lng":136.990027,"zip":"4470818"},{"town":"若宮町五丁目","koaza":"","lat":34.86724,"lng":136.989358,"zip":"4470818"},{"town":"若宮町六丁目","koaza":"","lat":34.866667,"lng":136.989951,"zip":"4470818"},{"town":"若宮町七丁目","koaza":"","lat":34.866985,"lng":136.992276,"zip":"4470818"},{"town":"鷲塚町一丁目","koaza":"","lat":34.887658,"lng":137.020869,"zip":"4470808"},{"town":"鷲塚町二丁目","koaza":"","lat":34.887294,"lng":137.02238,"zip":"4470808"},{"town":"鷲塚町三丁目","koaza":"","lat":34.888217,"lng":137.02272,"zip":"4470808"},{"town":"鷲塚町四丁目","koaza":"","lat":34.887539,"lng":137.02457,"zip":"4470808"},{"town":"鷲塚町五丁目","koaza":"","lat":34.885848,"lng":137.028127,"zip":"4470808"},{"town":"鷲塚町六丁目","koaza":"","lat":34.888434,"lng":137.02725,"zip":"4470808"},{"town":"鷲塚町七丁目","koaza":"","lat":34.886646,"lng":137.02978,"zip":"4470808"},{"town":"鷲林町一丁目","koaza":"","lat":34.885879,"lng":137.021707,"zip":"4470802"},{"town":"鷲林町二丁目","koaza":"","lat":34.88531,"lng":137.023339,"zip":"4470802"},{"town":"鷲林町三丁目","koaza":"","lat":34.885231,"lng":137.027596,"zip":"4470802"},{"town":"鷲林町四丁目","koaza":"","lat":34.883301,"lng":137.025549,"zip":"4470802"},{"town":"鷲林町五丁目","koaza":"","lat":34.884654,"lng":137.020929,"zip":"4470802"},{"town":"権現町四丁目","koaza":"","lat":34.854132,"lng":136.967171,"zip":"4470833"},{"town":"権現町三丁目","koaza":"","lat":34.856074,"lng":136.96838,"zip":"4470833"},{"town":"権現町二丁目","koaza":"","lat":34.857165,"lng":136.969897,"zip":"4470833"},{"town":"入船町五丁目","koaza":"","lat":34.860522,"lng":136.977782,"zip":"4470831"},{"town":"宮町五丁目","koaza":"","lat":34.861719,"lng":136.973479,"zip":"4470835"},{"town":"若松町一丁目","koaza":"","lat":34.862027,"lng":136.976748,"zip":"4470836"},{"town":"玉津浦町","koaza":"","lat":34.859704,"lng":136.964546,"zip":"4470834"},{"town":"宮町六丁目","koaza":"","lat":34.860296,"lng":136.971561,"zip":"4470835"},{"town":"岬町四丁目","koaza":"","lat":34.857894,"lng":136.972895,"zip":"4470832"},{"town":"権現町一丁目","koaza":"","lat":34.858594,"lng":136.970612,"zip":"4470833"},{"town":"宮町七丁目","koaza":"","lat":34.859646,"lng":136.972722,"zip":"4470835"},{"town":"若松町三丁目","koaza":"","lat":34.86002,"lng":136.976541,"zip":"4470836"},{"town":"若松町二丁目","koaza":"","lat":34.86067,"lng":136.975239,"zip":"4470836"}]