[{"town":"赤池池田町","koaza":"","lat":35.275078,"lng":136.81032,"zip":"4928001"},{"town":"赤池居道町","koaza":"","lat":35.273751,"lng":136.81313,"zip":"4928002"},{"town":"赤池裏田町","koaza":"","lat":35.275,"lng":136.817799,"zip":"4928004"},{"town":"赤池北池田町","koaza":"","lat":35.269565,"lng":136.819549,"zip":"4928015"},{"town":"赤池北町","koaza":"","lat":35.270997,"lng":136.82209,"zip":"4928014"},{"town":"赤池坂畑町","koaza":"","lat":35.267466,"lng":136.827625,"zip":"4928022"},{"town":"赤池陣出町","koaza":"","lat":35.275725,"lng":136.820897,"zip":"4928005"},{"town":"赤池町","koaza":"","lat":35.273963,"lng":136.817495,"zip":"4928008"},{"town":"赤池寺東町","koaza":"","lat":35.273145,"lng":136.823799,"zip":"4928013"},{"town":"赤池天王町","koaza":"","lat":35.272713,"lng":136.822117,"zip":"4928012"},{"town":"赤池中町","koaza":"","lat":35.269848,"lng":136.822713,"zip":"4928025"},{"town":"赤池西出町","koaza":"","lat":35.274452,"lng":136.814581,"zip":"4928003"},{"town":"赤池旗屋町","koaza":"","lat":35.272199,"lng":136.816495,"zip":"4928017"},{"town":"赤池東山町","koaza":"","lat":35.270678,"lng":136.827176,"zip":"4928021"},{"town":"赤池広畑町","koaza":"","lat":35.266613,"lng":136.824941,"zip":"4928023"},{"town":"赤池前山町","koaza":"","lat":35.272588,"lng":136.818718,"zip":"4928011"},{"town":"赤池真崎町","koaza":"","lat":35.275724,"lng":136.823597,"zip":"4928006"},{"town":"赤池南町","koaza":"","lat":35.268772,"lng":136.824078,"zip":"4928024"},{"town":"赤池宮西町","koaza":"","lat":35.270378,"lng":136.819932,"zip":"4928016"},{"town":"赤池山中町","koaza":"","lat":35.273873,"lng":136.820745,"zip":"4928007"},{"town":"浅井町","koaza":"","lat":35.253715,"lng":136.765937,"zip":"4928318"},{"town":"朝府町","koaza":"","lat":35.251085,"lng":136.776154,"zip":"4928268"},{"town":"天池金山町","koaza":"","lat":35.259072,"lng":136.775126,"zip":"4928278"},{"town":"天池光田町","koaza":"","lat":35.254144,"lng":136.775179,"zip":"4928274"},{"town":"天池五反田町","koaza":"","lat":35.252363,"lng":136.771318,"zip":"4928275"},{"town":"天池町","koaza":"","lat":35.255012,"lng":136.776532,"zip":"4928276"},{"town":"天池伝代町","koaza":"","lat":35.260083,"lng":136.768585,"zip":"4928281"},{"town":"天池遠松町","koaza":"","lat":35.256155,"lng":136.778009,"zip":"4928279"},{"town":"天池浪寄町","koaza":"","lat":35.254818,"lng":136.771243,"zip":"4928283"},{"town":"天池西町","koaza":"","lat":35.25691,"lng":136.768918,"zip":"4928284"},{"town":"天池東町","koaza":"","lat":35.258168,"lng":136.771674,"zip":"4928282"},{"town":"天池牧作町","koaza":"","lat":35.256534,"lng":136.775124,"zip":"4928277"},{"town":"池部町","koaza":"","lat":35.246045,"lng":136.788749,"zip":"4928262"},{"town":"池部町一丁目","koaza":"","lat":35.245301,"lng":136.786985,"zip":"4928262"},{"town":"池部町二丁目","koaza":"","lat":35.2431,"lng":136.787399,"zip":"4928262"},{"town":"池部町三丁目","koaza":"","lat":35.241077,"lng":136.788062,"zip":"4928262"},{"town":"一色青海町","koaza":"","lat":35.237356,"lng":136.75421,"zip":"4928362"},{"town":"一色跡之口町","koaza":"","lat":35.235633,"lng":136.751931,"zip":"4928363"},{"town":"一色市場町","koaza":"","lat":35.243349,"lng":136.749693,"zip":"4928356"},{"town":"一色上方町","koaza":"","lat":35.246557,"lng":136.748059,"zip":"4928371"},{"town":"一色三反田町","koaza":"","lat":35.241116,"lng":136.754989,"zip":"4928354"},{"town":"一色巡見町","koaza":"","lat":35.245303,"lng":136.743982,"zip":"4928375"},{"town":"一色神宮町","koaza":"","lat":35.245076,"lng":136.754551,"zip":"4928352"},{"town":"一色竹橋町","koaza":"","lat":35.247201,"lng":136.752868,"zip":"4928351"},{"town":"一色長畑町","koaza":"","lat":35.239296,"lng":136.754402,"zip":"4928361"},{"town":"一色中屋敷町","koaza":"","lat":35.243978,"lng":136.746778,"zip":"4928372"},{"town":"一色西町","koaza":"","lat":35.243324,"lng":136.74171,"zip":"4928374"},{"town":"一色白山町","koaza":"","lat":35.245878,"lng":136.750937,"zip":"4928358"},{"town":"一色藤塚町","koaza":"","lat":35.241881,"lng":136.756435,"zip":"4928353"},{"town":"一色道上町","koaza":"","lat":35.243825,"lng":136.751843,"zip":"4928357"},{"town":"石橋一丁目","koaza":"","lat":35.26251,"lng":136.782106,"zip":"4928271"},{"town":"石橋二丁目","koaza":"","lat":35.260588,"lng":136.781176,"zip":"4928271"},{"town":"石橋三丁目","koaza":"","lat":35.258484,"lng":136.780956,"zip":"4928271"},{"town":"石橋四丁目","koaza":"","lat":35.256305,"lng":136.780108,"zip":"4928271"},{"town":"石橋五丁目","koaza":"","lat":35.258505,"lng":136.778073,"zip":"4928271"},{"town":"石橋六丁目","koaza":"","lat":35.261386,"lng":136.778818,"zip":"4928271"},{"town":"板葺町","koaza":"","lat":35.223461,"lng":136.761013,"zip":"4928451"},{"town":"一色川俣町","koaza":"","lat":35.239291,"lng":136.742239,"zip":"4928366"},{"town":"一色下方町","koaza":"","lat":35.238617,"lng":136.745999,"zip":"4928365"},{"town":"一色中通町","koaza":"","lat":35.24284,"lng":136.746064,"zip":"4928373"},{"town":"一色森山町","koaza":"","lat":35.238294,"lng":136.74951,"zip":"4928364"},{"town":"稲沢町","koaza":"","lat":35.248498,"lng":136.789552,"zip":"4928217"},{"town":"稲沢町北山一丁目","koaza":"","lat":35.25731,"lng":136.791556,"zip":"4928211"},{"town":"稲沢町北山二丁目","koaza":"","lat":35.257306,"lng":136.790308,"zip":"4928211"},{"town":"稲島十丁目","koaza":"","lat":35.260222,"lng":136.79333,"zip":"4928229"},{"town":"稲島十一丁目","koaza":"","lat":35.257881,"lng":136.793833,"zip":"4928229"},{"town":"稲島十二丁目","koaza":"","lat":35.257913,"lng":136.796054,"zip":"4928229"},{"town":"稲島一丁目","koaza":"","lat":35.259932,"lng":136.790942,"zip":"4928229"},{"town":"稲島二丁目","koaza":"","lat":35.260136,"lng":136.789033,"zip":"4928229"},{"town":"稲島三丁目","koaza":"","lat":35.262923,"lng":136.789528,"zip":"4928229"},{"town":"稲島四丁目","koaza":"","lat":35.265749,"lng":136.788721,"zip":"4928229"},{"town":"稲島五丁目","koaza":"","lat":35.267124,"lng":136.793413,"zip":"4928229"},{"town":"稲島六丁目","koaza":"","lat":35.26453,"lng":136.793246,"zip":"4928229"},{"town":"稲島七丁目","koaza":"","lat":35.263158,"lng":136.795428,"zip":"4928229"},{"town":"稲島八丁目","koaza":"","lat":35.262419,"lng":136.793308,"zip":"4928229"},{"town":"稲島九丁目","koaza":"","lat":35.263464,"lng":136.790919,"zip":"4928229"},{"town":"稲島町","koaza":"","lat":35.264887,"lng":136.800639,"zip":"4928207"},{"town":"稲島東一丁目","koaza":"","lat":35.25753,"lng":136.801724,"zip":"4928230"},{"town":"稲島東二丁目","koaza":"","lat":35.257744,"lng":136.798956,"zip":"4928230"},{"town":"稲島東三丁目","koaza":"","lat":35.260244,"lng":136.799002,"zip":"4928230"},{"town":"稲島東四丁目","koaza":"","lat":35.260275,"lng":136.801747,"zip":"4928230"},{"town":"稲島東五丁目","koaza":"","lat":35.26195,"lng":136.799009,"zip":"4928230"},{"town":"稲島東六丁目","koaza":"","lat":35.260688,"lng":136.796648,"zip":"4928230"},{"town":"稲島法成寺町","koaza":"","lat":35.260917,"lng":136.806372,"zip":"4928206"},{"town":"稲葉一丁目","koaza":"","lat":35.257247,"lng":136.788679,"zip":"4928219"},{"town":"稲葉二丁目","koaza":"","lat":35.25454,"lng":136.78913,"zip":"4928219"},{"town":"稲葉三丁目","koaza":"","lat":35.25319,"lng":136.789989,"zip":"4928219"},{"town":"稲葉四丁目","koaza":"","lat":35.251678,"lng":136.791347,"zip":"4928219"},{"town":"稲葉五丁目","koaza":"","lat":35.251381,"lng":136.787856,"zip":"4928219"},{"town":"稲府町","koaza":"","lat":35.247885,"lng":136.780496,"zip":"4928269"},{"town":"井之口石塚町","koaza":"","lat":35.239021,"lng":136.818687,"zip":"4928163"},{"town":"井之口大坪町","koaza":"","lat":35.236532,"lng":136.818212,"zip":"4928164"},{"town":"井之口大宮町","koaza":"","lat":35.244605,"lng":136.827374,"zip":"4928152"},{"town":"井之口沖ノ田町","koaza":"","lat":35.240863,"lng":136.8158,"zip":"4928166"},{"town":"井之口親畑町","koaza":"","lat":35.236332,"lng":136.821838,"zip":"4928156"},{"town":"井之口柿ノ木町","koaza":"","lat":35.239794,"lng":136.821768,"zip":"4928157"},{"town":"井之口北畑町","koaza":"","lat":35.245401,"lng":136.822302,"zip":"4928151"},{"town":"井之口小番戸町","koaza":"","lat":35.240917,"lng":136.818702,"zip":"4928162"},{"town":"井之口町","koaza":"","lat":35.241068,"lng":136.828096,"zip":"4928153"},{"town":"井之口鶴田町","koaza":"","lat":35.238828,"lng":136.815497,"zip":"4928165"},{"town":"井之口白山町","koaza":"","lat":35.24296,"lng":136.822863,"zip":"4928158"},{"town":"井之口本町","koaza":"","lat":35.239779,"lng":136.825397,"zip":"4928154"},{"town":"井之口四家町","koaza":"","lat":35.236294,"lng":136.825462,"zip":"4928155"},{"town":"井堀犬城町","koaza":"","lat":35.227907,"lng":136.757412,"zip":"4928465"},{"town":"井堀江西町","koaza":"","lat":35.22987,"lng":136.756931,"zip":"4928466"},{"town":"井堀大縄町","koaza":"","lat":35.231432,"lng":136.768224,"zip":"4928406"},{"town":"井堀蒲六町","koaza":"","lat":35.23182,"lng":136.757547,"zip":"4928467"},{"town":"井堀川東町","koaza":"","lat":35.229224,"lng":136.766021,"zip":"4928408"},{"town":"井堀北出町","koaza":"","lat":35.232801,"lng":136.762797,"zip":"4928461"},{"town":"井堀下郷町","koaza":"","lat":35.226887,"lng":136.759579,"zip":"4928464"},{"town":"井堀宿塚町","koaza":"","lat":35.229335,"lng":136.76899,"zip":"4928407"},{"town":"井堀高見町","koaza":"","lat":35.231059,"lng":136.762258,"zip":"4928462"},{"town":"井堀中郷町","koaza":"","lat":35.229215,"lng":136.761323,"zip":"4928463"},{"town":"井堀野口町","koaza":"","lat":35.233971,"lng":136.758308,"zip":"4928468"},{"town":"井堀橋下町","koaza":"","lat":35.226064,"lng":136.763038,"zip":"4928409"},{"town":"今村町","koaza":"","lat":35.215198,"lng":136.761611,"zip":"4928453"},{"town":"牛踏町","koaza":"","lat":35.21772,"lng":136.781719,"zip":"4928443"},{"town":"駅前一丁目","koaza":"","lat":35.253459,"lng":136.819916,"zip":"4928143"},{"town":"駅前二丁目","koaza":"","lat":35.250866,"lng":136.819163,"zip":"4928143"},{"town":"駅前三丁目","koaza":"","lat":35.247966,"lng":136.818625,"zip":"4928143"},{"town":"駅前四丁目","koaza":"","lat":35.248268,"lng":136.821659,"zip":"4928143"},{"town":"大塚北一丁目","koaza":"","lat":35.247048,"lng":136.793041,"zip":"4928215"},{"town":"大塚北二丁目","koaza":"","lat":35.244168,"lng":136.790772,"zip":"4928215"},{"town":"大塚北三丁目","koaza":"","lat":35.246346,"lng":136.794165,"zip":"4928215"},{"town":"大塚北四丁目","koaza":"","lat":35.244191,"lng":136.793796,"zip":"4928215"},{"town":"大塚北五丁目","koaza":"","lat":35.242228,"lng":136.793162,"zip":"4928215"},{"town":"大塚北六丁目","koaza":"","lat":35.246172,"lng":136.79637,"zip":"4928215"},{"town":"大塚北七丁目","koaza":"","lat":35.242142,"lng":136.795955,"zip":"4928215"},{"town":"大塚北八丁目","koaza":"","lat":35.242833,"lng":136.798083,"zip":"4928215"},{"town":"大塚北九丁目","koaza":"","lat":35.242523,"lng":136.800656,"zip":"4928215"},{"town":"大塚町","koaza":"","lat":35.246712,"lng":136.791477,"zip":"4928216"},{"town":"大塚南十丁目","koaza":"","lat":35.23806,"lng":136.790444,"zip":"4928214"},{"town":"大塚南十一丁目","koaza":"","lat":35.241227,"lng":136.790783,"zip":"4928214"},{"town":"大塚南一丁目","koaza":"","lat":35.240066,"lng":136.793474,"zip":"4928214"},{"town":"大塚南二丁目","koaza":"","lat":35.238305,"lng":136.793323,"zip":"4928214"},{"town":"大塚南三丁目","koaza":"","lat":35.238887,"lng":136.795868,"zip":"4928214"},{"town":"大塚南四丁目","koaza":"","lat":35.238693,"lng":136.797802,"zip":"4928214"},{"town":"大塚南五丁目","koaza":"","lat":35.238573,"lng":136.800722,"zip":"4928214"},{"town":"大塚南六丁目","koaza":"","lat":35.235136,"lng":136.798493,"zip":"4928214"},{"town":"大塚南七丁目","koaza":"","lat":35.23579,"lng":136.795444,"zip":"4928214"},{"town":"大塚南八丁目","koaza":"","lat":35.233834,"lng":136.795532,"zip":"4928214"},{"town":"大塚南九丁目","koaza":"","lat":35.236118,"lng":136.792149,"zip":"4928214"},{"town":"大矢青山町","koaza":"","lat":35.214242,"lng":136.789961,"zip":"4928415"},{"town":"大矢江西町","koaza":"","lat":35.215116,"lng":136.79104,"zip":"4928413"},{"town":"大矢高田町","koaza":"","lat":35.220707,"lng":136.790544,"zip":"4928418"},{"town":"大矢浄土寺町","koaza":"","lat":35.212352,"lng":136.790721,"zip":"4928414"},{"town":"大矢白山町","koaza":"","lat":35.216595,"lng":136.789591,"zip":"4928416"},{"town":"大矢真宮町","koaza":"","lat":35.222355,"lng":136.79078,"zip":"4928419"},{"town":"大矢仙口町","koaza":"","lat":35.218782,"lng":136.789887,"zip":"4928417"},{"town":"大矢町","koaza":"","lat":35.217791,"lng":136.795166,"zip":"4928412"},{"town":"奥田井之下町","koaza":"","lat":35.237764,"lng":136.812048,"zip":"4928223"},{"town":"奥田大沢町","koaza":"","lat":35.235521,"lng":136.815901,"zip":"4928224"},{"town":"奥田神ノ木町","koaza":"","lat":35.234087,"lng":136.80403,"zip":"4928253"},{"town":"奥田北花ノ木町","koaza":"","lat":35.228737,"lng":136.8062,"zip":"4928256"},{"town":"奥田木塚町","koaza":"","lat":35.224999,"lng":136.812998,"zip":"4928243"},{"town":"奥田切田町","koaza":"","lat":35.227497,"lng":136.81571,"zip":"4928234"},{"town":"奥田計用町","koaza":"","lat":35.225616,"lng":136.807747,"zip":"4928246"},{"town":"奥田酒伊町","koaza":"","lat":35.230984,"lng":136.817754,"zip":"4928232"},{"town":"奥田島崎町","koaza":"","lat":35.231499,"lng":136.803475,"zip":"4928257"},{"town":"奥田下河町","koaza":"","lat":35.224362,"lng":136.816472,"zip":"4928244"},{"town":"奥田膳棚町","koaza":"","lat":35.234718,"lng":136.813107,"zip":"4928225"},{"town":"奥田大門町","koaza":"","lat":35.234856,"lng":136.809217,"zip":"4928226"},{"town":"奥田立長町","koaza":"","lat":35.228218,"lng":136.813868,"zip":"4928235"},{"town":"奥田田畑町","koaza":"","lat":35.224424,"lng":136.809787,"zip":"4928241"},{"town":"奥田町","koaza":"","lat":35.227316,"lng":136.81007,"zip":"4928233"},{"town":"奥田寺切町","koaza":"","lat":35.228226,"lng":136.812622,"zip":"4928236"},{"town":"奥田天神町","koaza":"","lat":35.228043,"lng":136.808198,"zip":"4928255"},{"town":"奥田天目寺町","koaza":"","lat":35.238836,"lng":136.8071,"zip":"4928222"},{"town":"奥田中切町","koaza":"","lat":35.230463,"lng":136.811794,"zip":"4928239"},{"town":"奥田長角町","koaza":"","lat":35.236916,"lng":136.808837,"zip":"4928228"},{"town":"奥田流町","koaza":"","lat":35.231487,"lng":136.81466,"zip":"4928231"},{"town":"奥田白山町","koaza":"","lat":35.235472,"lng":136.805885,"zip":"4928227"},{"town":"奥田馬場町","koaza":"","lat":35.231171,"lng":136.808661,"zip":"4928237"},{"town":"奥田堀畑町","koaza":"","lat":35.232893,"lng":136.809901,"zip":"4928238"},{"town":"奥田南花ノ木町","koaza":"","lat":35.225957,"lng":136.806458,"zip":"4928245"},{"town":"奥田宮長町","koaza":"","lat":35.231575,"lng":136.806139,"zip":"4928254"},{"town":"下津油田町","koaza":"","lat":35.252429,"lng":136.828974,"zip":"4928081"},{"town":"下津牛洗町","koaza":"","lat":35.265203,"lng":136.822796,"zip":"4928058"},{"town":"下津片町","koaza":"","lat":35.26103,"lng":136.825201,"zip":"4928054"},{"town":"下津北信正寺町","koaza":"","lat":35.253908,"lng":136.834783,"zip":"4928072"},{"town":"下津北山二丁目","koaza":"","lat":35.255713,"lng":136.824582,"zip":"4928094"},{"town":"下津鞍掛町","koaza":"","lat":35.261571,"lng":136.823056,"zip":"4928056"},{"town":"下津小井戸町","koaza":"","lat":35.258538,"lng":136.824303,"zip":"4928068"},{"town":"下津光明寺町","koaza":"","lat":35.26463,"lng":136.825881,"zip":"4928051"},{"town":"下津下町西一丁目","koaza":"","lat":35.250258,"lng":136.825448,"zip":"4928082"},{"town":"下津下町西二丁目","koaza":"","lat":35.250021,"lng":136.828331,"zip":"4928082"},{"town":"下津下町西三丁目","koaza":"","lat":35.248097,"lng":136.827483,"zip":"4928082"},{"town":"下津下町東一丁目","koaza":"","lat":35.250552,"lng":136.834367,"zip":"4928074"},{"town":"下津下町東二丁目","koaza":"","lat":35.249328,"lng":136.833074,"zip":"4928074"},{"town":"下津下町東三丁目","koaza":"","lat":35.248233,"lng":136.832594,"zip":"4928074"},{"town":"下津下町東四丁目","koaza":"","lat":35.247331,"lng":136.832339,"zip":"4928074"},{"town":"下津下町東五丁目","koaza":"","lat":35.245473,"lng":136.830514,"zip":"4928074"},{"town":"下津蛇池町","koaza":"","lat":35.2628,"lng":136.826814,"zip":"4928053"},{"town":"下津新町","koaza":"","lat":35.25585,"lng":136.826374,"zip":"4928066"},{"town":"下津住吉町","koaza":"","lat":35.258995,"lng":136.828949,"zip":"4928062"},{"town":"下津大門町","koaza":"","lat":35.25632,"lng":136.828639,"zip":"4928065"},{"town":"下津高戸町","koaza":"","lat":35.259223,"lng":136.827202,"zip":"4928061"},{"town":"下津丹下田町","koaza":"","lat":35.252737,"lng":136.826831,"zip":"4928085"},{"town":"下津町","koaza":"","lat":35.254355,"lng":136.821624,"zip":"4928075"},{"town":"下津寺前町","koaza":"","lat":35.252178,"lng":136.832064,"zip":"4928078"},{"town":"下津土山町","koaza":"","lat":35.253643,"lng":136.832252,"zip":"4928077"},{"town":"下津長田町","koaza":"","lat":35.263037,"lng":136.822578,"zip":"4928057"},{"town":"下津二本杉町","koaza":"","lat":35.257268,"lng":136.832277,"zip":"4928064"},{"town":"下津ふじ塚町","koaza":"","lat":35.262798,"lng":136.828488,"zip":"4928052"},{"town":"下津穂所町","koaza":"","lat":35.260213,"lng":136.823532,"zip":"4928055"},{"town":"下津本郷町","koaza":"","lat":35.255303,"lng":136.832762,"zip":"4928071"},{"town":"下津南信正寺町","koaza":"","lat":35.251891,"lng":136.834861,"zip":"4928073"},{"town":"下津南山町","koaza":"","lat":35.253588,"lng":136.827198,"zip":"4928084"},{"town":"下津宮西町","koaza":"","lat":35.255598,"lng":136.829757,"zip":"4928076"},{"town":"下津森町","koaza":"","lat":35.251936,"lng":136.824608,"zip":"4928083"},{"town":"下津矢口町","koaza":"","lat":35.258701,"lng":136.831916,"zip":"4928063"},{"town":"片原一色町","koaza":"","lat":35.250677,"lng":136.744276,"zip":"4928355"},{"town":"北市場町","koaza":"","lat":35.225839,"lng":136.834999,"zip":"4928173"},{"town":"北市場西町","koaza":"","lat":35.224366,"lng":136.834499,"zip":"4928174"},{"town":"北市場本町一丁目","koaza":"","lat":35.232295,"lng":136.83269,"zip":"4928178"},{"town":"北市場本町二丁目","koaza":"","lat":35.230696,"lng":136.834262,"zip":"4928178"},{"town":"北市場本町三丁目","koaza":"","lat":35.229319,"lng":136.836608,"zip":"4928178"},{"town":"北市場本町四丁目","koaza":"","lat":35.228687,"lng":136.833789,"zip":"4928178"},{"town":"北市場南町","koaza":"","lat":35.222737,"lng":136.830908,"zip":"4928175"},{"town":"北麻績町","koaza":"","lat":35.214129,"lng":136.777734,"zip":"4928448"},{"town":"北島一丁目","koaza":"","lat":35.227202,"lng":136.803995,"zip":"4928410"},{"town":"北島二丁目","koaza":"","lat":35.229516,"lng":136.803947,"zip":"4928410"},{"town":"北島三丁目","koaza":"","lat":35.228373,"lng":136.800697,"zip":"4928410"},{"town":"北島四丁目","koaza":"","lat":35.230593,"lng":136.801103,"zip":"4928410"},{"town":"北島五丁目","koaza":"","lat":35.229438,"lng":136.796762,"zip":"4928410"},{"town":"北島六丁目","koaza":"","lat":35.231796,"lng":136.797585,"zip":"4928410"},{"town":"北島七丁目","koaza":"","lat":35.231012,"lng":136.793566,"zip":"4928410"},{"town":"北島八丁目","koaza":"","lat":35.227974,"lng":136.793621,"zip":"4928410"},{"town":"北島九丁目","koaza":"","lat":35.225869,"lng":136.790794,"zip":"4928410"},{"town":"北島町","koaza":"","lat":35.224966,"lng":136.798768,"zip":"4928411"},{"town":"儀長一丁目","koaza":"","lat":35.237081,"lng":136.759257,"zip":"4928349"},{"town":"儀長二丁目","koaza":"","lat":35.235789,"lng":136.762924,"zip":"4928349"},{"town":"儀長三丁目","koaza":"","lat":35.234584,"lng":136.765986,"zip":"4928349"},{"town":"儀長四丁目","koaza":"","lat":35.234893,"lng":136.76793,"zip":"4928349"},{"town":"儀長五丁目","koaza":"","lat":35.238607,"lng":136.762917,"zip":"4928349"},{"town":"木全一丁目","koaza":"","lat":35.263462,"lng":136.78692,"zip":"4928210"},{"town":"木全二丁目","koaza":"","lat":35.260014,"lng":136.786422,"zip":"4928210"},{"town":"木全三丁目","koaza":"","lat":35.260552,"lng":136.783893,"zip":"4928210"},{"town":"木全四丁目","koaza":"","lat":35.258328,"lng":136.783743,"zip":"4928210"},{"town":"木全五丁目","koaza":"","lat":35.25686,"lng":136.782073,"zip":"4928210"},{"town":"木全町","koaza":"","lat":35.258094,"lng":136.785278,"zip":"4928209"},{"town":"陸田一里山町","koaza":"","lat":35.26784,"lng":136.821199,"zip":"4928033"},{"town":"陸田馬山町","koaza":"","lat":35.262467,"lng":136.815176,"zip":"4928043"},{"town":"陸田栗林町","koaza":"","lat":35.265765,"lng":136.82122,"zip":"4928034"},{"town":"陸田高畑町","koaza":"","lat":35.269854,"lng":136.817285,"zip":"4928031"},{"town":"陸田町","koaza":"","lat":35.266011,"lng":136.815172,"zip":"4928038"},{"town":"陸田白山町","koaza":"","lat":35.271176,"lng":136.814261,"zip":"4928037"},{"town":"陸田花塚町","koaza":"","lat":35.265176,"lng":136.813792,"zip":"4928042"},{"town":"陸田東出町","koaza":"","lat":35.267285,"lng":136.818833,"zip":"4928032"},{"town":"陸田本町","koaza":"","lat":35.267747,"lng":136.816132,"zip":"4928036"},{"town":"陸田丸之内町","koaza":"","lat":35.268194,"lng":136.812349,"zip":"4928041"},{"town":"陸田宮前一丁目","koaza":"","lat":35.264204,"lng":136.818351,"zip":"4928044"},{"town":"日下部北町一丁目","koaza":"","lat":35.233886,"lng":136.825095,"zip":"4928181"},{"town":"日下部北町二丁目","koaza":"","lat":35.23135,"lng":136.825063,"zip":"4928181"},{"town":"日下部北町三丁目","koaza":"","lat":35.234308,"lng":136.8217,"zip":"4928181"},{"town":"日下部北町四丁目","koaza":"","lat":35.232657,"lng":136.821857,"zip":"4928181"},{"town":"日下部北町五丁目","koaza":"","lat":35.23057,"lng":136.821613,"zip":"4928181"},{"town":"日下部町","koaza":"","lat":35.228562,"lng":136.832998,"zip":"4928186"},{"town":"日下部中町一丁目","koaza":"","lat":35.231338,"lng":136.828123,"zip":"4928182"},{"town":"日下部中町二丁目","koaza":"","lat":35.230063,"lng":136.828193,"zip":"4928182"},{"town":"日下部中町三丁目","koaza":"","lat":35.228809,"lng":136.828322,"zip":"4928182"},{"town":"日下部中町四丁目","koaza":"","lat":35.227365,"lng":136.827684,"zip":"4928182"},{"town":"日下部中町五丁目","koaza":"","lat":35.229306,"lng":136.825239,"zip":"4928182"},{"town":"日下部中町六丁目","koaza":"","lat":35.227697,"lng":136.825231,"zip":"4928182"},{"town":"日下部中町七丁目","koaza":"","lat":35.226441,"lng":136.82545,"zip":"4928182"},{"town":"日下部西町一丁目","koaza":"","lat":35.228546,"lng":136.821459,"zip":"4928185"},{"town":"日下部西町二丁目","koaza":"","lat":35.22631,"lng":136.82127,"zip":"4928185"},{"town":"日下部花ノ木町","koaza":"","lat":35.224819,"lng":136.831325,"zip":"4928176"},{"town":"日下部東町一丁目","koaza":"","lat":35.22954,"lng":136.830598,"zip":"4928177"},{"town":"日下部東町二丁目","koaza":"","lat":35.227973,"lng":136.832002,"zip":"4928177"},{"town":"日下部東町三丁目","koaza":"","lat":35.227196,"lng":136.829876,"zip":"4928177"},{"town":"日下部松野町一丁目","koaza":"","lat":35.223971,"lng":136.818922,"zip":"4928184"},{"town":"日下部松野町二丁目","koaza":"","lat":35.223617,"lng":136.820644,"zip":"4928184"},{"town":"日下部松野町三丁目","koaza":"","lat":35.223896,"lng":136.82205,"zip":"4928184"},{"town":"日下部南町一丁目","koaza":"","lat":35.225203,"lng":136.826151,"zip":"4928183"},{"town":"日下部南町二丁目","koaza":"","lat":35.223198,"lng":136.827786,"zip":"4928183"},{"town":"日下部南町三丁目","koaza":"","lat":35.223389,"lng":136.825543,"zip":"4928183"},{"town":"日下部南町四丁目","koaza":"","lat":35.223516,"lng":136.82358,"zip":"4928183"},{"town":"小池一丁目","koaza":"","lat":35.25346,"lng":136.813614,"zip":"4928144"},{"town":"小池二丁目","koaza":"","lat":35.249846,"lng":136.810884,"zip":"4928144"},{"town":"小池三丁目","koaza":"","lat":35.249422,"lng":136.814859,"zip":"4928144"},{"town":"小池四丁目","koaza":"","lat":35.246467,"lng":136.812945,"zip":"4928144"},{"town":"小池正明寺町","koaza":"","lat":35.256659,"lng":136.811306,"zip":"4928147"},{"town":"国府宮一丁目","koaza":"","lat":35.257066,"lng":136.804923,"zip":"4928137"},{"town":"国府宮二丁目","koaza":"","lat":35.253515,"lng":136.804167,"zip":"4928137"},{"town":"国府宮三丁目","koaza":"","lat":35.253854,"lng":136.80681,"zip":"4928137"},{"town":"国府宮四丁目","koaza":"","lat":35.256715,"lng":136.808736,"zip":"4928137"},{"town":"国府宮神田町","koaza":"","lat":35.259334,"lng":136.806988,"zip":"4928139"},{"town":"国府宮町","koaza":"","lat":35.259098,"lng":136.804664,"zip":"4928138"},{"town":"子生和池田町","koaza":"","lat":35.275159,"lng":136.808775,"zip":"4928101"},{"town":"子生和円場町","koaza":"","lat":35.268842,"lng":136.809863,"zip":"4928105"},{"town":"子生和小原町","koaza":"","lat":35.26775,"lng":136.807693,"zip":"4928111"},{"town":"子生和子安賀町","koaza":"","lat":35.272699,"lng":136.806393,"zip":"4928108"},{"town":"子生和坂田町","koaza":"","lat":35.267103,"lng":136.810439,"zip":"4928112"},{"town":"子生和山王町","koaza":"","lat":35.274978,"lng":136.807292,"zip":"4928109"},{"town":"子生和神明町","koaza":"","lat":35.272915,"lng":136.809598,"zip":"4928102"},{"town":"子生和住吉町","koaza":"","lat":35.270444,"lng":136.80531,"zip":"4928107"},{"town":"子生和町","koaza":"","lat":35.27004,"lng":136.806839,"zip":"4928106"},{"town":"子生和溝師町","koaza":"","lat":35.272182,"lng":136.812327,"zip":"4928103"},{"town":"子生和八島町","koaza":"","lat":35.270873,"lng":136.810042,"zip":"4928104"},{"town":"御供所町","koaza":"","lat":35.250161,"lng":136.804417,"zip":"4928146"},{"town":"小沢一丁目","koaza":"","lat":35.256348,"lng":136.795011,"zip":"4928212"},{"town":"小沢二丁目","koaza":"","lat":35.254574,"lng":136.795268,"zip":"4928212"},{"town":"小沢三丁目","koaza":"","lat":35.252822,"lng":136.795236,"zip":"4928212"},{"town":"小沢四丁目","koaza":"","lat":35.25073,"lng":136.795533,"zip":"4928212"},{"town":"小寺町一丁目","koaza":"","lat":35.241212,"lng":136.782838,"zip":"4928265"},{"town":"小寺町二丁目","koaza":"","lat":35.239652,"lng":136.78155,"zip":"4928265"},{"town":"小寺町三丁目","koaza":"","lat":35.238533,"lng":136.780429,"zip":"4928265"},{"town":"込野町","koaza":"","lat":35.212416,"lng":136.785143,"zip":"4928444"},{"town":"幸町","koaza":"","lat":35.240878,"lng":136.806737,"zip":"4928221"},{"town":"坂田町","koaza":"","lat":35.21218,"lng":136.757945,"zip":"4928454"},{"town":"桜木一丁目","koaza":"","lat":35.254314,"lng":136.780874,"zip":"4928272"},{"town":"桜木二丁目","koaza":"","lat":35.251261,"lng":136.779969,"zip":"4928272"},{"town":"桜木宮前町","koaza":"","lat":35.253774,"lng":136.77803,"zip":"4928273"},{"town":"重本一丁目","koaza":"","lat":35.247855,"lng":136.782419,"zip":"4928261"},{"town":"重本二丁目","koaza":"","lat":35.248849,"lng":136.784409,"zip":"4928261"},{"town":"重本三丁目","koaza":"","lat":35.24684,"lng":136.784017,"zip":"4928261"},{"town":"重本四丁目","koaza":"","lat":35.247588,"lng":136.786287,"zip":"4928261"},{"town":"島小原町","koaza":"","lat":35.267452,"lng":136.806251,"zip":"4928203"},{"town":"島子安賀町","koaza":"","lat":35.27017,"lng":136.80383,"zip":"4928201"},{"town":"島高須賀町","koaza":"","lat":35.265622,"lng":136.80486,"zip":"4928204"},{"town":"島町","koaza":"","lat":35.267749,"lng":136.800854,"zip":"4928205"},{"town":"島東之郷町","koaza":"","lat":35.267909,"lng":136.804324,"zip":"4928202"},{"town":"清水阿原町","koaza":"","lat":35.261011,"lng":136.764419,"zip":"4928313"},{"town":"清水郷西町","koaza":"","lat":35.260253,"lng":136.75709,"zip":"4928315"},{"town":"清水町","koaza":"","lat":35.259146,"lng":136.759561,"zip":"4928314"},{"town":"清水寺前町","koaza":"","lat":35.257047,"lng":136.758805,"zip":"4928316"},{"town":"清水西川原町","koaza":"","lat":35.263435,"lng":136.760288,"zip":"4928311"},{"town":"清水八尻町","koaza":"","lat":35.261187,"lng":136.761487,"zip":"4928312"},{"town":"清水八神町","koaza":"","lat":35.254143,"lng":136.761176,"zip":"4928317"},{"town":"下屋一丁目","koaza":"","lat":35.252221,"lng":136.768461,"zip":"4928310"},{"town":"下屋二丁目","koaza":"","lat":35.251798,"lng":136.765777,"zip":"4928310"},{"town":"下屋三丁目","koaza":"","lat":35.251895,"lng":136.763374,"zip":"4928310"},{"town":"下屋町","koaza":"","lat":35.251704,"lng":136.767608,"zip":"4928319"},{"town":"正明寺一丁目","koaza":"","lat":35.253497,"lng":136.80922,"zip":"4928145"},{"town":"正明寺二丁目","koaza":"","lat":35.25005,"lng":136.807217,"zip":"4928145"},{"town":"正明寺三丁目","koaza":"","lat":35.245822,"lng":136.807699,"zip":"4928145"},{"town":"正明寺四丁目","koaza":"","lat":35.243863,"lng":136.806332,"zip":"4928145"},{"town":"治郎丸石塚町","koaza":"","lat":35.258084,"lng":136.810001,"zip":"4928135"},{"town":"治郎丸大角町","koaza":"","lat":35.257802,"lng":136.81164,"zip":"4928134"},{"town":"治郎丸北町","koaza":"","lat":35.264873,"lng":136.806935,"zip":"4928118"},{"town":"治郎丸郷前町","koaza":"","lat":35.260055,"lng":136.809366,"zip":"4928126"},{"town":"治郎丸神木町","koaza":"","lat":35.265842,"lng":136.810264,"zip":"4928113"},{"town":"治郎丸清敷町","koaza":"","lat":35.259813,"lng":136.812858,"zip":"4928125"},{"town":"治郎丸大明町","koaza":"","lat":35.265506,"lng":136.808301,"zip":"4928119"},{"town":"治郎丸高須町","koaza":"","lat":35.264724,"lng":136.805447,"zip":"4928117"},{"town":"治郎丸椿町","koaza":"","lat":35.263978,"lng":136.81075,"zip":"4928114"},{"town":"治郎丸天神町","koaza":"","lat":35.259191,"lng":136.809508,"zip":"4928132"},{"town":"治郎丸土井町","koaza":"","lat":35.260749,"lng":136.812343,"zip":"4928124"},{"town":"治郎丸中町","koaza":"","lat":35.261626,"lng":136.808664,"zip":"4928128"},{"town":"治郎丸西町","koaza":"","lat":35.263372,"lng":136.80718,"zip":"4928116"},{"town":"治郎丸白山町","koaza":"","lat":35.261874,"lng":136.812267,"zip":"4928123"},{"town":"治郎丸東町","koaza":"","lat":35.263422,"lng":136.80894,"zip":"4928115"},{"town":"治郎丸古江町","koaza":"","lat":35.259297,"lng":136.808288,"zip":"4928131"},{"town":"治郎丸細道町","koaza":"","lat":35.258997,"lng":136.812244,"zip":"4928133"},{"town":"治郎丸南町","koaza":"","lat":35.260661,"lng":136.809056,"zip":"4928127"},{"town":"治郎丸元町","koaza":"","lat":35.262766,"lng":136.811991,"zip":"4928122"},{"town":"治郎丸柳町","koaza":"","lat":35.264824,"lng":136.812322,"zip":"4928121"},{"town":"千代一丁目","koaza":"","lat":35.229961,"lng":136.781517,"zip":"4928403"},{"town":"千代二丁目","koaza":"","lat":35.229032,"lng":136.784585,"zip":"4928403"},{"town":"千代三丁目","koaza":"","lat":35.228341,"lng":136.787396,"zip":"4928403"},{"town":"千代四丁目","koaza":"","lat":35.226004,"lng":136.787448,"zip":"4928403"},{"town":"千代五丁目","koaza":"","lat":35.226635,"lng":136.784054,"zip":"4928403"},{"town":"千代六丁目","koaza":"","lat":35.227728,"lng":136.781293,"zip":"4928403"},{"town":"千代七丁目","koaza":"","lat":35.224736,"lng":136.781477,"zip":"4928403"},{"town":"千代八丁目","koaza":"","lat":35.224053,"lng":136.78372,"zip":"4928403"},{"town":"千代九丁目","koaza":"","lat":35.223606,"lng":136.787636,"zip":"4928403"},{"town":"千代町","koaza":"","lat":35.225181,"lng":136.783064,"zip":"4928402"},{"town":"千代西町","koaza":"","lat":35.228083,"lng":136.778907,"zip":"4928404"},{"town":"祖父江町大牧","koaza":"","lat":35.239249,"lng":136.720561,"zip":"4950014"},{"town":"祖父江町甲新田","koaza":"","lat":35.228906,"lng":136.723274,"zip":"4950022"},{"town":"祖父江町上牧","koaza":"","lat":35.251021,"lng":136.718881,"zip":"4950031"},{"town":"祖父江町桜方","koaza":"","lat":35.248017,"lng":136.724731,"zip":"4950015"},{"town":"祖父江町三丸渕","koaza":"","lat":35.230744,"lng":136.733071,"zip":"4950021"},{"town":"祖父江町拾町野","koaza":"","lat":35.257709,"lng":136.699935,"zip":"4950037"},{"town":"祖父江町島本","koaza":"","lat":35.235149,"lng":136.706474,"zip":"4950023"},{"town":"祖父江町神明津","koaza":"","lat":35.238414,"lng":136.687446,"zip":"4950035"},{"town":"祖父江町祖父江","koaza":"","lat":35.263802,"lng":136.711537,"zip":"4950001"},{"town":"祖父江町中牧","koaza":"","lat":35.248802,"lng":136.712043,"zip":"4950032"},{"town":"祖父江町西鵜之本","koaza":"","lat":35.239667,"lng":136.699125,"zip":"4950034"},{"town":"祖父江町野田","koaza":"","lat":35.241374,"lng":136.706107,"zip":"4950024"},{"town":"祖父江町二俣","koaza":"","lat":35.242399,"lng":136.728235,"zip":"4950013"},{"town":"祖父江町本甲","koaza":"","lat":35.245061,"lng":136.734832,"zip":"4950012"},{"town":"祖父江町馬飼","koaza":"","lat":35.248064,"lng":136.691305,"zip":"4950036"},{"town":"祖父江町森上","koaza":"","lat":35.248304,"lng":136.738366,"zip":"4950011"},{"town":"祖父江町山崎","koaza":"","lat":35.259525,"lng":136.730248,"zip":"4950002"},{"town":"祖父江町四貫","koaza":"","lat":35.249765,"lng":136.702635,"zip":"4950033"},{"town":"祖父江町両寺内","koaza":"","lat":35.241106,"lng":136.714034,"zip":"4950025"},{"town":"平江向町","koaza":"","lat":35.251042,"lng":136.760067,"zip":"4928339"},{"town":"平尾苅町","koaza":"","lat":35.248827,"lng":136.767722,"zip":"4928332"},{"town":"平金森町","koaza":"","lat":35.248785,"lng":136.759706,"zip":"4928338"},{"town":"平苅田町","koaza":"","lat":35.247411,"lng":136.764199,"zip":"4928336"},{"town":"平細工蔵町","koaza":"","lat":35.248286,"lng":136.761379,"zip":"4928337"},{"town":"平高道町","koaza":"","lat":35.248985,"lng":136.771007,"zip":"4928334"},{"town":"平蜂ノ坪町","koaza":"","lat":35.2496,"lng":136.769354,"zip":"4928333"},{"town":"平佛供田町","koaza":"","lat":35.249553,"lng":136.764315,"zip":"4928331"},{"town":"高重町","koaza":"","lat":35.222536,"lng":136.808342,"zip":"4928422"},{"town":"高重中町","koaza":"","lat":35.22259,"lng":136.811191,"zip":"4928423"},{"town":"高重西町","koaza":"","lat":35.223153,"lng":136.805883,"zip":"4928421"},{"town":"高重東町","koaza":"","lat":35.222599,"lng":136.813953,"zip":"4928424"},{"town":"高御堂十丁目","koaza":"","lat":35.24629,"lng":136.798507,"zip":"4928213"},{"town":"高御堂一丁目","koaza":"","lat":35.2506,"lng":136.799127,"zip":"4928213"},{"town":"高御堂二丁目","koaza":"","lat":35.249521,"lng":136.801312,"zip":"4928213"},{"town":"高御堂三丁目","koaza":"","lat":35.245177,"lng":136.801016,"zip":"4928213"},{"town":"高御堂四丁目","koaza":"","lat":35.245723,"lng":136.804022,"zip":"4928213"},{"town":"高御堂五丁目","koaza":"","lat":35.241324,"lng":136.803759,"zip":"4928213"},{"town":"竹腰北町","koaza":"","lat":35.260912,"lng":136.766563,"zip":"4928288"},{"town":"竹腰中町","koaza":"","lat":35.257226,"lng":136.763942,"zip":"4928286"},{"town":"竹腰西町","koaza":"","lat":35.257532,"lng":136.761834,"zip":"4928287"},{"town":"竹腰東町","koaza":"","lat":35.257063,"lng":136.766125,"zip":"4928285"},{"town":"竹腰本町","koaza":"","lat":35.259385,"lng":136.764727,"zip":"4928289"},{"town":"田代一丁目","koaza":"","lat":35.207697,"lng":136.761554,"zip":"4928455"},{"town":"田代二丁目","koaza":"","lat":35.207694,"lng":136.760294,"zip":"4928455"},{"town":"附島町","koaza":"","lat":35.219417,"lng":136.78496,"zip":"4928442"},{"town":"長野一丁目","koaza":"","lat":35.254955,"lng":136.814427,"zip":"4928142"},{"town":"長野二丁目","koaza":"","lat":35.2542,"lng":136.818038,"zip":"4928142"},{"town":"長野三丁目","koaza":"","lat":35.257095,"lng":136.81675,"zip":"4928142"},{"town":"長野四丁目","koaza":"","lat":35.256719,"lng":136.813556,"zip":"4928142"},{"town":"長野五丁目","koaza":"","lat":35.259208,"lng":136.81442,"zip":"4928142"},{"town":"長野六丁目","koaza":"","lat":35.260242,"lng":136.815514,"zip":"4928142"},{"town":"中野川端町","koaza":"","lat":35.250891,"lng":136.757144,"zip":"4928391"},{"town":"中之庄海道町","koaza":"","lat":35.216859,"lng":136.815195,"zip":"4928436"},{"town":"中之庄高畑町","koaza":"","lat":35.220013,"lng":136.80525,"zip":"4928431"},{"town":"中之庄町","koaza":"","lat":35.217814,"lng":136.805287,"zip":"4928435"},{"town":"中之庄堤畔町","koaza":"","lat":35.220056,"lng":136.813245,"zip":"4928434"},{"town":"中之庄長堤町","koaza":"","lat":35.21753,"lng":136.811164,"zip":"4928437"},{"town":"中之庄半田町","koaza":"","lat":35.219861,"lng":136.809719,"zip":"4928432"},{"town":"中之庄元屋敷町","koaza":"","lat":35.220434,"lng":136.811932,"zip":"4928433"},{"town":"長野町","koaza":"","lat":35.258505,"lng":136.819084,"zip":"4928141"},{"town":"中野宮町","koaza":"","lat":35.244231,"lng":136.758077,"zip":"4928393"},{"town":"中野元町","koaza":"","lat":35.248077,"lng":136.756307,"zip":"4928392"},{"town":"長束町","koaza":"","lat":35.24203,"lng":136.810868,"zip":"4928167"},{"town":"七ツ寺町","koaza":"","lat":35.216083,"lng":136.801352,"zip":"4928439"},{"town":"西島一丁目","koaza":"","lat":35.25414,"lng":136.748274,"zip":"4928328"},{"town":"西島二丁目","koaza":"","lat":35.258326,"lng":136.747855,"zip":"4928328"},{"town":"西島三丁目","koaza":"","lat":35.259284,"lng":136.744233,"zip":"4928328"},{"town":"西島四丁目","koaza":"","lat":35.262627,"lng":136.749017,"zip":"4928328"},{"town":"西島北町","koaza":"","lat":35.256116,"lng":136.752635,"zip":"4928321"},{"town":"西島新町","koaza":"","lat":35.253976,"lng":136.758088,"zip":"4928323"},{"town":"西島町","koaza":"","lat":35.257745,"lng":136.742084,"zip":"4928329"},{"town":"西島出町","koaza":"","lat":35.257243,"lng":136.755398,"zip":"4928322"},{"town":"西島中町","koaza":"","lat":35.254415,"lng":136.751613,"zip":"4928327"},{"town":"西島東町","koaza":"","lat":35.251664,"lng":136.754096,"zip":"4928325"},{"town":"西島本町","koaza":"","lat":35.251163,"lng":136.749861,"zip":"4928326"},{"town":"西町一丁目","koaza":"","lat":35.256619,"lng":136.78562,"zip":"4928218"},{"town":"西町二丁目","koaza":"","lat":35.254839,"lng":136.785262,"zip":"4928218"},{"town":"西町三丁目","koaza":"","lat":35.25111,"lng":136.7835,"zip":"4928218"},{"town":"西溝口町","koaza":"","lat":35.220263,"lng":136.762161,"zip":"4928452"},{"town":"野崎町","koaza":"","lat":35.222422,"lng":136.770179,"zip":"4928447"},{"town":"生出上山町","koaza":"","lat":35.263989,"lng":136.752356,"zip":"4928307"},{"town":"生出郷前町","koaza":"","lat":35.264542,"lng":136.755265,"zip":"4928305"},{"town":"生出河戸町","koaza":"","lat":35.265853,"lng":136.753288,"zip":"4928308"},{"town":"生出西道根町","koaza":"","lat":35.266251,"lng":136.758067,"zip":"4928302"},{"town":"生出東道根町","koaza":"","lat":35.265924,"lng":136.759675,"zip":"4928303"},{"town":"生出本町","koaza":"","lat":35.266204,"lng":136.755823,"zip":"4928301"},{"town":"生出山田町","koaza":"","lat":35.264303,"lng":136.757461,"zip":"4928304"},{"town":"生出横西町","koaza":"","lat":35.262819,"lng":136.751451,"zip":"4928306"},{"town":"馬場一丁目","koaza":"","lat":35.245496,"lng":136.762739,"zip":"4928348"},{"town":"馬場二丁目","koaza":"","lat":35.242839,"lng":136.762997,"zip":"4928348"},{"town":"馬場三丁目","koaza":"","lat":35.239996,"lng":136.763703,"zip":"4928348"},{"town":"東緑町一丁目","koaza":"","lat":35.23854,"lng":136.803358,"zip":"4928251"},{"town":"東緑町二丁目","koaza":"","lat":35.236709,"lng":136.803266,"zip":"4928251"},{"town":"東緑町三丁目","koaza":"","lat":35.235789,"lng":136.803452,"zip":"4928251"},{"town":"菱町","koaza":"","lat":35.244371,"lng":136.817194,"zip":"4928161"},{"town":"氷室町","koaza":"","lat":35.206807,"lng":136.756833,"zip":"4928456"},{"town":"平野町","koaza":"","lat":35.239968,"lng":136.786833,"zip":"4928264"},{"town":"平野町一丁目","koaza":"","lat":35.239528,"lng":136.784445,"zip":"4928264"},{"town":"平野町二丁目","koaza":"","lat":35.237908,"lng":136.784006,"zip":"4928264"},{"town":"平野町三丁目","koaza":"","lat":35.238156,"lng":136.785792,"zip":"4928264"},{"town":"平野町四丁目","koaza":"","lat":35.237403,"lng":136.787791,"zip":"4928264"},{"town":"平野町五丁目","koaza":"","lat":35.236095,"lng":136.784913,"zip":"4928264"},{"town":"平野町六丁目","koaza":"","lat":35.236282,"lng":136.781774,"zip":"4928264"},{"town":"福島町","koaza":"","lat":35.219637,"lng":136.776681,"zip":"4928441"},{"town":"船橋町","koaza":"","lat":35.246219,"lng":136.775302,"zip":"4928267"},{"town":"平和町","koaza":"","lat":35.203385,"lng":136.73353,"zip":"4901303"},{"town":"平和町上三宅","koaza":"","lat":35.221395,"lng":136.752637,"zip":"4901303"},{"town":"平和町観音堂","koaza":"","lat":35.225248,"lng":136.756745,"zip":"4901302"},{"town":"平和町西光坊","koaza":"","lat":35.215637,"lng":136.732755,"zip":"4901314"},{"town":"平和町下三宅","koaza":"","lat":35.211636,"lng":136.746872,"zip":"4901312"},{"town":"平和町須ケ谷","koaza":"","lat":35.230759,"lng":136.75229,"zip":"4901301"},{"town":"平和町東城","koaza":"","lat":35.20508,"lng":136.745186,"zip":"4901321"},{"town":"平和町中三宅","koaza":"","lat":35.217325,"lng":136.752575,"zip":"4901311"},{"town":"平和町平池","koaza":"","lat":35.218395,"lng":136.740714,"zip":"4901315"},{"town":"平和町法立","koaza":"","lat":35.223952,"lng":136.741976,"zip":"4901304"},{"town":"平和町横池","koaza":"","lat":35.213493,"lng":136.739275,"zip":"4901313"},{"town":"法花寺町","koaza":"","lat":35.24406,"lng":136.767825,"zip":"4928335"},{"town":"堀田町","koaza":"","lat":35.213701,"lng":136.804347,"zip":"4928438"},{"town":"堀之内町","koaza":"","lat":35.228442,"lng":136.773958,"zip":"4928405"},{"town":"前田一丁目","koaza":"","lat":35.248923,"lng":136.79707,"zip":"4928220"},{"town":"増田北町","koaza":"","lat":35.221609,"lng":136.820919,"zip":"4928425"},{"town":"増田町","koaza":"","lat":35.215847,"lng":136.823864,"zip":"4928428"},{"town":"増田西町","koaza":"","lat":35.219786,"lng":136.818049,"zip":"4928429"},{"town":"増田東町","koaza":"","lat":35.219077,"lng":136.823307,"zip":"4928426"},{"town":"増田南町","koaza":"","lat":35.217452,"lng":136.823208,"zip":"4928427"},{"town":"松下一丁目","koaza":"","lat":35.254438,"lng":136.801686,"zip":"4928208"},{"town":"松下二丁目","koaza":"","lat":35.254508,"lng":136.799021,"zip":"4928208"},{"town":"緑町一丁目","koaza":"","lat":35.237425,"lng":136.801638,"zip":"4928252"},{"town":"緑町四丁目","koaza":"","lat":35.231742,"lng":136.801396,"zip":"4928252"},{"town":"南麻績町","koaza":"","lat":35.209725,"lng":136.776686,"zip":"4928445"},{"town":"目比町","koaza":"","lat":35.210499,"lng":136.766365,"zip":"4928446"},{"town":"梅須賀町","koaza":"","lat":35.233273,"lng":136.786674,"zip":"4928401"},{"town":"梅須賀町一丁目","koaza":"","lat":35.234154,"lng":136.784044,"zip":"4928401"},{"town":"梅須賀町二丁目","koaza":"","lat":35.234598,"lng":136.787314,"zip":"4928401"},{"town":"梅須賀町三丁目","koaza":"","lat":35.23546,"lng":136.789605,"zip":"4928401"},{"town":"梅須賀町四丁目","koaza":"","lat":35.234066,"lng":136.792023,"zip":"4928401"},{"town":"梅須賀町五丁目","koaza":"","lat":35.232328,"lng":136.790438,"zip":"4928401"},{"town":"梅須賀町六丁目","koaza":"","lat":35.231008,"lng":136.787755,"zip":"4928401"},{"town":"梅須賀町七丁目","koaza":"","lat":35.23132,"lng":136.784625,"zip":"4928401"},{"town":"梅須賀町八丁目","koaza":"","lat":35.232034,"lng":136.781243,"zip":"4928401"},{"town":"梅須賀町九丁目","koaza":"","lat":35.234777,"lng":136.778655,"zip":"4928401"},{"town":"山口町","koaza":"","lat":35.245544,"lng":136.759701,"zip":"4928347"},{"town":"山口本町","koaza":"","lat":35.246757,"lng":136.759676,"zip":"4928346"},{"town":"山口南町","koaza":"","lat":35.241119,"lng":136.759875,"zip":"4928344"},{"town":"山口宮前町","koaza":"","lat":35.243816,"lng":136.759969,"zip":"4928345"},{"town":"矢合町","koaza":"","lat":35.237414,"lng":136.7734,"zip":"4928342"},{"town":"横地一丁目","koaza":"","lat":35.245891,"lng":136.78083,"zip":"4928266"},{"town":"横地二丁目","koaza":"","lat":35.245131,"lng":136.783667,"zip":"4928266"},{"town":"横地三丁目","koaza":"","lat":35.243716,"lng":136.783483,"zip":"4928266"},{"town":"横地四丁目","koaza":"","lat":35.243731,"lng":136.780178,"zip":"4928266"},{"town":"横地五丁目","koaza":"","lat":35.241327,"lng":136.779235,"zip":"4928266"},{"town":"横地六丁目","koaza":"","lat":35.242433,"lng":136.783317,"zip":"4928266"},{"town":"横地町","koaza":"","lat":35.24916,"lng":136.780322,"zip":"4920000"},{"town":"横野河原町","koaza":"","lat":35.258589,"lng":136.753731,"zip":"4928385"},{"town":"横野境塚町","koaza":"","lat":35.260414,"lng":136.752469,"zip":"4928388"},{"town":"横野神田町","koaza":"","lat":35.260735,"lng":136.750904,"zip":"4928387"},{"town":"横野町","koaza":"","lat":35.261974,"lng":136.754105,"zip":"4928389"},{"town":"横野堂根町","koaza":"","lat":35.26327,"lng":136.756652,"zip":"4928382"},{"town":"横野西郷町","koaza":"","lat":35.261885,"lng":136.752542,"zip":"4928381"},{"town":"横野東郷町","koaza":"","lat":35.261465,"lng":136.754562,"zip":"4928384"},{"town":"横野東出町","koaza":"","lat":35.260994,"lng":136.75595,"zip":"4928383"},{"town":"横野松前町","koaza":"","lat":35.258717,"lng":136.751524,"zip":"4928386"},{"town":"六角堂西町一丁目","koaza":"","lat":35.234671,"lng":136.828503,"zip":"4928171"},{"town":"六角堂西町二丁目","koaza":"","lat":35.233771,"lng":136.828361,"zip":"4928171"},{"town":"六角堂西町三丁目","koaza":"","lat":35.232622,"lng":136.828579,"zip":"4928171"},{"town":"六角堂西町四丁目","koaza":"","lat":35.231924,"lng":136.829908,"zip":"4928171"},{"town":"六角堂西町五丁目","koaza":"","lat":35.23063,"lng":136.831548,"zip":"4928171"},{"town":"六角堂東町一丁目","koaza":"","lat":35.234982,"lng":136.83051,"zip":"4928172"},{"town":"六角堂東町二丁目","koaza":"","lat":35.233999,"lng":136.831025,"zip":"4928172"},{"town":"六角堂東町三丁目","koaza":"","lat":35.233253,"lng":136.831453,"zip":"4928172"},{"town":"六角堂東町四丁目","koaza":"","lat":35.232113,"lng":136.831679,"zip":"4928172"},{"town":"六角堂東町五丁目","koaza":"","lat":35.230506,"lng":136.832422,"zip":"4928172"},{"town":"祖父江町高熊西","koaza":"","lat":35.253696,"lng":136.717448,"zip":"4950003"},{"town":"下津南山一丁目","koaza":"","lat":35.253771,"lng":136.824312,"zip":"4928095"},{"town":"下津南山二丁目","koaza":"","lat":35.254104,"lng":136.825815,"zip":"4928095"},{"town":"下津北山一丁目","koaza":"","lat":35.256026,"lng":136.823051,"zip":"4928094"},{"town":"下津小井戸一丁目","koaza":"","lat":35.258244,"lng":136.821853,"zip":"4928093"},{"town":"下津小井戸二丁目","koaza":"","lat":35.25819,"lng":136.823204,"zip":"4928093"},{"town":"下津穂所一丁目","koaza":"","lat":35.259032,"lng":136.820289,"zip":"4928092"},{"town":"下津穂所二丁目","koaza":"","lat":35.25984,"lng":136.822217,"zip":"4928092"},{"town":"下津鞍掛一丁目","koaza":"","lat":35.261878,"lng":136.821202,"zip":"4928091"},{"town":"陸田栗林一丁目","koaza":"","lat":35.264777,"lng":136.819602,"zip":"4928045"},{"town":"長野七丁目","koaza":"","lat":35.261292,"lng":136.820202,"zip":"4928142"},{"town":"東畑一丁目","koaza":"","lat":35.267182,"lng":136.796559,"zip":"4928247"},{"town":"東畑五丁目","koaza":"","lat":35.263605,"lng":136.799072,"zip":"4928247"},{"town":"東畑三丁目","koaza":"","lat":35.266863,"lng":136.798123,"zip":"4928247"},{"town":"東畑四丁目","koaza":"","lat":35.26517,"lng":136.798193,"zip":"4928247"},{"town":"東畑七丁目","koaza":"","lat":35.262835,"lng":136.803793,"zip":"4928247"},{"town":"東畑二丁目","koaza":"","lat":35.264406,"lng":136.796428,"zip":"4928247"},{"town":"東畑六丁目","koaza":"","lat":35.263039,"lng":136.801681,"zip":"4928247"},{"town":"祖父江町神明津","koaza":"中砂原","lat":35.238697,"lng":136.681653,"zip":"4950035"},{"town":"祖父江町神明津","koaza":"南堤外","lat":35.239937,"lng":136.681638,"zip":"4950035"},{"town":"祖父江町神明津","koaza":"西平","lat":35.240877,"lng":136.68187,"zip":"4950035"},{"town":"祖父江町神明津","koaza":"南砂原","lat":35.236507,"lng":136.681808,"zip":"4950035"},{"town":"祖父江町神明津","koaza":"西小一色","lat":35.236808,"lng":136.68353,"zip":"4950035"},{"town":"祖父江町神明津","koaza":"西下縄","lat":35.233275,"lng":136.682571,"zip":"4950035"},{"town":"祖父江町神明津","koaza":"毘沙門","lat":35.242282,"lng":136.684209,"zip":"4950035"},{"town":"祖父江町神明津","koaza":"北下縄","lat":35.23597,"lng":136.682865,"zip":"4950035"},{"town":"祖父江町神明津","koaza":"北小一色","lat":35.239159,"lng":136.682798,"zip":"4950035"},{"town":"祖父江町神明津","koaza":"宮前","lat":35.236377,"lng":136.685946,"zip":"4950035"},{"town":"祖父江町神明津","koaza":"小川","lat":35.231247,"lng":136.685243,"zip":"4950035"},{"town":"祖父江町神明津","koaza":"北平","lat":35.244077,"lng":136.685062,"zip":"4950035"},{"town":"祖父江町神明津","koaza":"南子新田","lat":35.230106,"lng":136.684967,"zip":"4950035"},{"town":"祖父江町神明津","koaza":"下平","lat":35.242298,"lng":136.683522,"zip":"4950035"},{"town":"祖父江町神明津","koaza":"西村北","lat":35.245481,"lng":136.685668,"zip":"4950035"},{"town":"祖父江町神明津","koaza":"南下縄","lat":35.232048,"lng":136.684799,"zip":"4950035"},{"town":"祖父江町神明津","koaza":"東下縄","lat":35.235198,"lng":136.685217,"zip":"4950035"},{"town":"祖父江町神明津","koaza":"南小一色","lat":35.235727,"lng":136.685537,"zip":"4950035"},{"town":"祖父江町神明津","koaza":"矢田塚西","lat":35.241543,"lng":136.686321,"zip":"4950035"},{"town":"祖父江町神明津","koaza":"北子新田","lat":35.231522,"lng":136.686119,"zip":"4950035"},{"town":"祖父江町神明津","koaza":"東平","lat":35.242689,"lng":136.686833,"zip":"4950035"},{"town":"祖父江町神明津","koaza":"外浦","lat":35.241258,"lng":136.686412,"zip":"4950035"},{"town":"祖父江町馬飼","koaza":"西馬飼","lat":35.245865,"lng":136.690574,"zip":"4950036"},{"town":"祖父江町馬飼","koaza":"大門先","lat":35.24697,"lng":136.687513,"zip":"4950036"},{"town":"祖父江町神明津","koaza":"矢田塚北","lat":35.242641,"lng":136.688908,"zip":"4950035"},{"town":"祖父江町神明津","koaza":"秋葉筋","lat":35.242195,"lng":136.688281,"zip":"4950035"},{"town":"祖父江町馬飼","koaza":"川田","lat":35.249207,"lng":136.691502,"zip":"4950036"},{"town":"祖父江町神明津","koaza":"矢田塚東","lat":35.240966,"lng":136.690361,"zip":"4950035"},{"town":"祖父江町馬飼","koaza":"小沼","lat":35.246671,"lng":136.687932,"zip":"4950036"},{"town":"祖父江町神明津","koaza":"東小一色","lat":35.237355,"lng":136.688398,"zip":"4950035"},{"town":"祖父江町神明津","koaza":"東村北","lat":35.242274,"lng":136.688619,"zip":"4950035"},{"town":"祖父江町神明津","koaza":"東塚","lat":35.24144,"lng":136.690381,"zip":"4950035"},{"town":"祖父江町神明津","koaza":"長瀬山","lat":35.235913,"lng":136.691452,"zip":"4950035"},{"town":"祖父江町馬飼","koaza":"南藤治山","lat":35.244006,"lng":136.691241,"zip":"4950036"},{"town":"祖父江町馬飼","koaza":"東馬飼","lat":35.24468,"lng":136.693965,"zip":"4950036"},{"town":"祖父江町馬飼","koaza":"仙入坊","lat":35.244312,"lng":136.693573,"zip":"4950036"},{"town":"祖父江町馬飼","koaza":"北藤治山","lat":35.246224,"lng":136.692074,"zip":"4950036"},{"town":"祖父江町馬飼","koaza":"江口","lat":35.245549,"lng":136.693353,"zip":"4950036"},{"town":"祖父江町馬飼","koaza":"寺東","lat":35.250287,"lng":136.694755,"zip":"4950036"},{"town":"祖父江町神明津","koaza":"新田","lat":35.238559,"lng":136.695678,"zip":"4950035"},{"town":"祖父江町馬飼","koaza":"上馬飼","lat":35.249276,"lng":136.695168,"zip":"4950036"},{"town":"祖父江町馬飼","koaza":"午新田","lat":35.245113,"lng":136.694837,"zip":"4950036"},{"town":"祖父江町神明津","koaza":"西光寺","lat":35.235736,"lng":136.694192,"zip":"4950035"},{"town":"祖父江町四貫","koaza":"上四貫","lat":35.251619,"lng":136.69719,"zip":"4950033"},{"town":"祖父江町神明津","koaza":"治左エ門西","lat":35.23977,"lng":136.694842,"zip":"4950035"},{"town":"祖父江町馬飼","koaza":"尼ケ池","lat":35.249587,"lng":136.694839,"zip":"4950036"},{"town":"祖父江町四貫","koaza":"藤六坊","lat":35.251734,"lng":136.696636,"zip":"4950033"},{"town":"祖父江町神明津","koaza":"寺野","lat":35.238128,"lng":136.695064,"zip":"4950035"},{"town":"祖父江町神明津","koaza":"宮西","lat":35.239347,"lng":136.696206,"zip":"4950035"},{"town":"祖父江町神明津","koaza":"角野","lat":35.240563,"lng":136.695121,"zip":"4950035"},{"town":"祖父江町神明津","koaza":"元杁","lat":35.237911,"lng":136.69605,"zip":"4950035"},{"town":"祖父江町馬飼","koaza":"四貫境","lat":35.250013,"lng":136.696065,"zip":"4950036"},{"town":"祖父江町神明津","koaza":"子新田","lat":35.238266,"lng":136.696672,"zip":"4950035"},{"town":"祖父江町西鵜之本","koaza":"清洲山","lat":35.235856,"lng":136.69822,"zip":"4950034"},{"town":"祖父江町西鵜之本","koaza":"宮前","lat":35.239932,"lng":136.698598,"zip":"4950034"},{"town":"祖父江町四貫","koaza":"宮屋敷","lat":35.251127,"lng":136.697832,"zip":"4950033"},{"town":"祖父江町西鵜之本","koaza":"宮浦","lat":35.242767,"lng":136.700407,"zip":"4950034"},{"town":"祖父江町西鵜之本","koaza":"鵜之森","lat":35.238409,"lng":136.699189,"zip":"4950034"},{"town":"祖父江町四貫","koaza":"東山ノ内","lat":35.251694,"lng":136.69856,"zip":"4950033"},{"town":"祖父江町西鵜之本","koaza":"中之城","lat":35.240656,"lng":136.699162,"zip":"4950034"},{"town":"祖父江町西鵜之本","koaza":"巽","lat":35.23733,"lng":136.699943,"zip":"4950034"},{"town":"祖父江町四貫","koaza":"南四貫","lat":35.247063,"lng":136.701867,"zip":"4950033"},{"town":"祖父江町西鵜之本","koaza":"東縁","lat":35.240087,"lng":136.6997,"zip":"4950034"},{"town":"祖父江町島本","koaza":"堤外","lat":35.235062,"lng":136.700941,"zip":"4950023"},{"town":"祖父江町四貫","koaza":"中通","lat":35.248157,"lng":136.700616,"zip":"4950033"},{"town":"祖父江町四貫","koaza":"高ノ内","lat":35.248226,"lng":136.700063,"zip":"4950033"},{"town":"祖父江町拾町野","koaza":"屋敷西","lat":35.254402,"lng":136.700726,"zip":"4950037"},{"town":"祖父江町拾町野","koaza":"屋敷間","lat":35.254055,"lng":136.701405,"zip":"4950037"},{"town":"祖父江町四貫","koaza":"中屋敷","lat":35.25116,"lng":136.70045,"zip":"4950033"},{"town":"祖父江町野田","koaza":"堤並","lat":35.240921,"lng":136.702552,"zip":"4950024"},{"town":"祖父江町祖父江","koaza":"堤外","lat":35.266388,"lng":136.704413,"zip":"4950001"},{"town":"祖父江町四貫","koaza":"中四貫","lat":35.251405,"lng":136.702086,"zip":"4950033"},{"town":"祖父江町四貫","koaza":"中之郷","lat":35.248774,"lng":136.701481,"zip":"4950033"},{"town":"祖父江町四貫","koaza":"南新田","lat":35.246853,"lng":136.701873,"zip":"4950033"},{"town":"祖父江町西鵜之本","koaza":"梨之木","lat":35.243705,"lng":136.701705,"zip":"4950034"},{"town":"祖父江町四貫","koaza":"中桐","lat":35.250515,"lng":136.703003,"zip":"4950033"},{"town":"祖父江町拾町野","koaza":"屋敷東","lat":35.25485,"lng":136.702387,"zip":"4950037"},{"town":"祖父江町四貫","koaza":"南道野","lat":35.251698,"lng":136.702221,"zip":"4950033"},{"town":"祖父江町四貫","koaza":"南中桐","lat":35.247705,"lng":136.703554,"zip":"4950033"},{"town":"祖父江町拾町野","koaza":"猿尾北","lat":35.257276,"lng":136.703313,"zip":"4950037"},{"town":"祖父江町四貫","koaza":"東堤外","lat":35.250906,"lng":136.705333,"zip":"4950033"},{"town":"祖父江町島本","koaza":"西同所","lat":35.233986,"lng":136.703558,"zip":"4950023"},{"town":"祖父江町島本","koaza":"穴田","lat":35.235487,"lng":136.703351,"zip":"4950023"},{"town":"祖父江町島本","koaza":"新田","lat":35.23344,"lng":136.705436,"zip":"4950023"},{"town":"祖父江町祖父江","koaza":"山先","lat":35.258098,"lng":136.705319,"zip":"4950001"},{"town":"祖父江町島本","koaza":"中部","lat":35.236506,"lng":136.707007,"zip":"4950023"},{"town":"祖父江町野田","koaza":"神葭場","lat":35.242366,"lng":136.703999,"zip":"4950024"},{"town":"祖父江町島本","koaza":"平中","lat":35.236486,"lng":136.703845,"zip":"4950023"},{"town":"祖父江町四貫","koaza":"北道野","lat":35.252897,"lng":136.703831,"zip":"4950033"},{"town":"祖父江町野田","koaza":"山中","lat":35.239273,"lng":136.704222,"zip":"4950024"},{"town":"祖父江町祖父江","koaza":"宮西","lat":35.264751,"lng":136.706141,"zip":"4950001"},{"town":"祖父江町野田","koaza":"海用","lat":35.243494,"lng":136.706802,"zip":"4950024"},{"town":"祖父江町四貫","koaza":"北四貫","lat":35.254562,"lng":136.704918,"zip":"4950033"},{"town":"祖父江町野田","koaza":"代官割","lat":35.240887,"lng":136.704712,"zip":"4950024"},{"town":"祖父江町四貫","koaza":"北新田","lat":35.253929,"lng":136.705001,"zip":"4950033"},{"town":"祖父江町四貫","koaza":"北中桐","lat":35.251759,"lng":136.704902,"zip":"4950033"},{"town":"祖父江町祖父江","koaza":"鍋島","lat":35.261103,"lng":136.705895,"zip":"4950001"},{"town":"祖父江町四貫","koaza":"堤外","lat":35.252933,"lng":136.707144,"zip":"4950033"},{"town":"祖父江町四貫","koaza":"堤敷","lat":35.252432,"lng":136.705683,"zip":"4950033"},{"town":"祖父江町野田","koaza":"巽","lat":35.239013,"lng":136.707405,"zip":"4950024"},{"town":"祖父江町祖父江","koaza":"繁右エ門東","lat":35.268401,"lng":136.705807,"zip":"4950001"},{"town":"祖父江町祖父江","koaza":"浅右エ門東","lat":35.269235,"lng":136.705766,"zip":"4950001"},{"town":"祖父江町祖父江","koaza":"サギトバ","lat":35.270994,"lng":136.706107,"zip":"4950001"},{"town":"祖父江町島本","koaza":"南部","lat":35.232099,"lng":136.708991,"zip":"4950023"},{"town":"祖父江町祖父江","koaza":"三十町","lat":35.269133,"lng":136.706329,"zip":"4950001"},{"town":"祖父江町祖父江","koaza":"中沼","lat":35.268161,"lng":136.708091,"zip":"4950001"},{"town":"祖父江町祖父江","koaza":"寺西","lat":35.272321,"lng":136.707785,"zip":"4950001"},{"town":"祖父江町島本","koaza":"未新田","lat":35.234208,"lng":136.707806,"zip":"4950023"},{"town":"祖父江町祖父江","koaza":"八反畑","lat":35.265713,"lng":136.708785,"zip":"4950001"},{"town":"祖父江町中牧","koaza":"佐屋川","lat":35.249094,"lng":136.709276,"zip":"4950032"},{"town":"祖父江町祖父江","koaza":"江西","lat":35.262196,"lng":136.708861,"zip":"4950001"},{"town":"祖父江町野田","koaza":"西屋敷","lat":35.244248,"lng":136.707829,"zip":"4950024"},{"town":"祖父江町島本","koaza":"東同所","lat":35.233493,"lng":136.707876,"zip":"4950023"},{"town":"祖父江町中牧","koaza":"外川","lat":35.250442,"lng":136.708258,"zip":"4950032"},{"town":"祖父江町祖父江","koaza":"上沼","lat":35.27029,"lng":136.712271,"zip":"4950001"},{"town":"祖父江町野田","koaza":"葭城","lat":35.240559,"lng":136.707585,"zip":"4950024"},{"town":"祖父江町祖父江","koaza":"堤内","lat":35.258638,"lng":136.708605,"zip":"4950001"},{"town":"祖父江町祖父江","koaza":"藤枠","lat":35.273986,"lng":136.708092,"zip":"4950001"},{"town":"祖父江町祖父江","koaza":"権八前","lat":35.257838,"lng":136.708286,"zip":"4950001"},{"town":"祖父江町島本","koaza":"川田","lat":35.236367,"lng":136.707614,"zip":"4950023"},{"town":"祖父江町祖父江","koaza":"柿ノ木","lat":35.271712,"lng":136.707829,"zip":"4950001"},{"town":"祖父江町中牧","koaza":"伝右山","lat":35.244379,"lng":136.70981,"zip":"4950032"},{"town":"祖父江町島本","koaza":"鵜之本","lat":35.238211,"lng":136.709306,"zip":"4950023"},{"town":"祖父江町島本","koaza":"子新田","lat":35.237081,"lng":136.708492,"zip":"4950023"},{"town":"祖父江町野田","koaza":"東縁下","lat":35.240945,"lng":136.709219,"zip":"4950024"},{"town":"祖父江町中牧","koaza":"中屋敷","lat":35.247195,"lng":136.710499,"zip":"4950032"},{"town":"祖父江町中牧","koaza":"堤外川","lat":35.247463,"lng":136.709826,"zip":"4950032"},{"town":"祖父江町島本","koaza":"南石塚","lat":35.232727,"lng":136.708802,"zip":"4950023"},{"town":"祖父江町野田","koaza":"東縁","lat":35.241686,"lng":136.709965,"zip":"4950024"},{"town":"祖父江町中牧","koaza":"西伝右山","lat":35.245528,"lng":136.709095,"zip":"4950032"},{"town":"祖父江町島本","koaza":"中通り下の切","lat":35.237017,"lng":136.70873,"zip":"4950023"},{"town":"祖父江町島本","koaza":"中通り中の切","lat":35.237982,"lng":136.708705,"zip":"4950023"},{"town":"祖父江町祖父江","koaza":"立江南","lat":35.262597,"lng":136.708695,"zip":"4950001"},{"town":"祖父江町島本","koaza":"寺之切","lat":35.235077,"lng":136.70935,"zip":"4950023"},{"town":"祖父江町島本","koaza":"寺西北の切","lat":35.236362,"lng":136.708965,"zip":"4950023"},{"town":"祖父江町島本","koaza":"西石塚","lat":35.233914,"lng":136.709078,"zip":"4950023"},{"town":"祖父江町中牧","koaza":"三反歩","lat":35.253924,"lng":136.709441,"zip":"4950032"},{"town":"祖父江町祖父江","koaza":"立江北","lat":35.26493,"lng":136.709576,"zip":"4950001"},{"town":"祖父江町祖父江","koaza":"沼裏","lat":35.259734,"lng":136.71022,"zip":"4950001"},{"town":"祖父江町祖父江","koaza":"下沼","lat":35.258465,"lng":136.712808,"zip":"4950001"},{"town":"祖父江町両寺内","koaza":"喜兵衛東","lat":35.238051,"lng":136.710702,"zip":"4950025"},{"town":"祖父江町中牧","koaza":"東伝右山","lat":35.24481,"lng":136.709903,"zip":"4950032"},{"town":"祖父江町野田","koaza":"北屋敷","lat":35.243902,"lng":136.709657,"zip":"4950024"},{"town":"祖父江町祖父江","koaza":"東上沼","lat":35.269442,"lng":136.710229,"zip":"4950001"},{"town":"祖父江町島本","koaza":"石塚","lat":35.233559,"lng":136.710888,"zip":"4950023"},{"town":"祖父江町島本","koaza":"中通り上の切","lat":35.239371,"lng":136.709885,"zip":"4950023"},{"town":"祖父江町祖父江","koaza":"外平","lat":35.254262,"lng":136.712727,"zip":"4950001"},{"town":"祖父江町中牧","koaza":"上屋敷","lat":35.248931,"lng":136.71168,"zip":"4950032"},{"town":"祖父江町上牧","koaza":"堤外","lat":35.253584,"lng":136.711246,"zip":"4950031"},{"town":"祖父江町島本","koaza":"長池","lat":35.2315,"lng":136.710676,"zip":"4950023"},{"town":"祖父江町野田","koaza":"江北","lat":35.243385,"lng":136.71026,"zip":"4950024"},{"town":"祖父江町両寺内","koaza":"札古西","lat":35.241346,"lng":136.712007,"zip":"4950025"},{"town":"祖父江町祖父江","koaza":"七曲","lat":35.263414,"lng":136.714549,"zip":"4950001"},{"town":"祖父江町上牧","koaza":"西","lat":35.252188,"lng":136.712868,"zip":"4950031"},{"town":"祖父江町中牧","koaza":"中屋敷前","lat":35.245796,"lng":136.710714,"zip":"4950032"},{"town":"祖父江町祖父江","koaza":"曲","lat":35.254135,"lng":136.712989,"zip":"4950001"},{"town":"祖父江町島本","koaza":"北石塚","lat":35.235452,"lng":136.711778,"zip":"4950023"},{"town":"祖父江町島本","koaza":"北部","lat":35.235358,"lng":136.712834,"zip":"4950023"},{"town":"祖父江町祖父江","koaza":"柳原","lat":35.267037,"lng":136.714878,"zip":"4950001"},{"town":"祖父江町祖父江","koaza":"江東","lat":35.271596,"lng":136.713292,"zip":"4950001"},{"town":"祖父江町両寺内","koaza":"五反田","lat":35.23995,"lng":136.712152,"zip":"4950025"},{"town":"祖父江町島本","koaza":"北長池","lat":35.232043,"lng":136.711349,"zip":"4950023"},{"town":"祖父江町両寺内","koaza":"赤目方","lat":35.237376,"lng":136.713076,"zip":"4950025"},{"town":"祖父江町両寺内","koaza":"砂崎","lat":35.242404,"lng":136.711582,"zip":"4950025"},{"town":"祖父江町中牧","koaza":"堤外","lat":35.250649,"lng":136.711687,"zip":"4950032"},{"town":"祖父江町両寺内","koaza":"札古東","lat":35.241456,"lng":136.713135,"zip":"4950025"},{"town":"祖父江町祖父江","koaza":"五反田","lat":35.259763,"lng":136.712833,"zip":"4950001"},{"town":"祖父江町祖父江","koaza":"南川原","lat":35.254793,"lng":136.715227,"zip":"4950001"},{"town":"祖父江町中牧","koaza":"砂崎","lat":35.244138,"lng":136.713823,"zip":"4950032"},{"town":"祖父江町島本","koaza":"東部","lat":35.232037,"lng":136.714507,"zip":"4950023"},{"town":"祖父江町中牧","koaza":"江西","lat":35.248016,"lng":136.714029,"zip":"4950032"},{"town":"祖父江町中牧","koaza":"換地","lat":35.250406,"lng":136.713165,"zip":"4950032"},{"town":"祖父江町上牧","koaza":"中外","lat":35.25199,"lng":136.714005,"zip":"4950031"},{"town":"祖父江町中牧","koaza":"中外","lat":35.248292,"lng":136.714256,"zip":"4950032"},{"town":"祖父江町両寺内","koaza":"本郷前","lat":35.243812,"lng":136.715166,"zip":"4950025"},{"town":"祖父江町中牧","koaza":"中島","lat":35.246046,"lng":136.714469,"zip":"4950032"},{"town":"祖父江町中牧","koaza":"薮起","lat":35.245155,"lng":136.713683,"zip":"4950032"},{"town":"祖父江町中牧","koaza":"中平","lat":35.246382,"lng":136.714167,"zip":"4950032"},{"town":"祖父江町両寺内","koaza":"神明前","lat":35.241355,"lng":136.715986,"zip":"4950025"},{"town":"祖父江町祖父江","koaza":"北川原","lat":35.258376,"lng":136.715643,"zip":"4950001"},{"town":"祖父江町大牧","koaza":"明田","lat":35.235765,"lng":136.716515,"zip":"4950014"},{"town":"祖父江町両寺内","koaza":"千石屋敷","lat":35.245012,"lng":136.716611,"zip":"4950025"},{"town":"祖父江町上牧","koaza":"中","lat":35.250571,"lng":136.716912,"zip":"4950031"},{"town":"祖父江町上牧","koaza":"宮前","lat":35.250113,"lng":136.716999,"zip":"4950031"},{"town":"祖父江町中牧","koaza":"宮原","lat":35.248692,"lng":136.716196,"zip":"4950032"},{"town":"祖父江町祖父江","koaza":"高熊","lat":35.253744,"lng":136.719304,"zip":"4950001"},{"town":"祖父江町上牧","koaza":"宮裏","lat":35.251479,"lng":136.717066,"zip":"4950031"},{"town":"祖父江町中牧","koaza":"北川原","lat":35.247839,"lng":136.718074,"zip":"4950032"},{"town":"祖父江町中牧","koaza":"江東","lat":35.24725,"lng":136.716494,"zip":"4950032"},{"town":"祖父江町祖父江","koaza":"松山","lat":35.267357,"lng":136.719539,"zip":"4950001"},{"town":"祖父江町大牧","koaza":"三反田","lat":35.237469,"lng":136.718932,"zip":"4950014"},{"town":"祖父江町島本","koaza":"上縄","lat":35.2347,"lng":136.716725,"zip":"4950023"},{"town":"祖父江町祖父江","koaza":"六町","lat":35.270668,"lng":136.719488,"zip":"4950001"},{"town":"祖父江町祖父江","koaza":"居中","lat":35.256784,"lng":136.719589,"zip":"4950001"},{"town":"祖父江町祖父江","koaza":"南方","lat":35.259777,"lng":136.719456,"zip":"4950001"},{"town":"祖父江町祖父江","koaza":"北方","lat":35.262279,"lng":136.720854,"zip":"4950001"},{"town":"祖父江町甲新田","koaza":"イ五","lat":35.222057,"lng":136.71844,"zip":"4950022"},{"town":"祖父江町大牧","koaza":"郷中","lat":35.241,"lng":136.71943,"zip":"4950014"},{"town":"祖父江町両寺内","koaza":"平柳西","lat":35.245961,"lng":136.718685,"zip":"4950025"},{"town":"祖父江町両寺内","koaza":"八幡西","lat":35.243461,"lng":136.719112,"zip":"4950025"},{"town":"祖父江町甲新田","koaza":"円通寺前","lat":35.224226,"lng":136.718369,"zip":"4950022"},{"town":"祖父江町甲新田","koaza":"イ六","lat":35.223473,"lng":136.71959,"zip":"4950022"},{"town":"祖父江町祖父江","koaza":"三家裏","lat":35.269772,"lng":136.718575,"zip":"4950001"},{"town":"祖父江町桜方","koaza":"松原","lat":35.246999,"lng":136.720755,"zip":"4950015"},{"town":"祖父江町甲新田","koaza":"イ八","lat":35.225365,"lng":136.720367,"zip":"4950022"},{"town":"祖父江町上牧","koaza":"下川田","lat":35.248995,"lng":136.720962,"zip":"4950031"},{"town":"祖父江町大牧","koaza":"砂田","lat":35.238411,"lng":136.721279,"zip":"4950014"},{"town":"祖父江町両寺内","koaza":"平柳東","lat":35.244778,"lng":136.721171,"zip":"4950025"},{"town":"祖父江町上牧","koaza":"上川田","lat":35.250329,"lng":136.721296,"zip":"4950031"},{"town":"祖父江町甲新田","koaza":"五ツ屋","lat":35.222971,"lng":136.721118,"zip":"4950022"},{"town":"祖父江町甲新田","koaza":"イ九","lat":35.226464,"lng":136.720501,"zip":"4950022"},{"town":"祖父江町上牧","koaza":"戌亥出","lat":35.251998,"lng":136.721318,"zip":"4950031"},{"town":"祖父江町桜方","koaza":"新江南","lat":35.247769,"lng":136.720374,"zip":"4950015"},{"town":"祖父江町大牧","koaza":"北沼","lat":35.242655,"lng":136.721888,"zip":"4950014"},{"town":"祖父江町甲新田","koaza":"杁南","lat":35.22749,"lng":136.721404,"zip":"4950022"},{"town":"祖父江町祖父江","koaza":"下川田","lat":35.257551,"lng":136.720032,"zip":"4950001"},{"town":"祖父江町甲新田","koaza":"イ七","lat":35.223777,"lng":136.720694,"zip":"4950022"},{"town":"祖父江町祖父江","koaza":"中屋敷","lat":35.265213,"lng":136.723221,"zip":"4950001"},{"town":"祖父江町大牧","koaza":"押上","lat":35.236315,"lng":136.720726,"zip":"4950014"},{"town":"祖父江町甲新田","koaza":"甲宮西","lat":35.230989,"lng":136.721357,"zip":"4950022"},{"town":"祖父江町上牧","koaza":"東","lat":35.252023,"lng":136.722234,"zip":"4950031"},{"town":"祖父江町大牧","koaza":"稗田","lat":35.240159,"lng":136.722543,"zip":"4950014"},{"town":"祖父江町二俣","koaza":"午新田","lat":35.236529,"lng":136.721194,"zip":"4950013"},{"town":"祖父江町甲新田","koaza":"高山","lat":35.233631,"lng":136.721765,"zip":"4950022"},{"town":"祖父江町両寺内","koaza":"大牧浦","lat":35.2443,"lng":136.721255,"zip":"4950025"},{"town":"祖父江町桜方","koaza":"枯榎","lat":35.248338,"lng":136.721907,"zip":"4950015"},{"town":"祖父江町甲新田","koaza":"高須賀","lat":35.235305,"lng":136.722508,"zip":"4950022"},{"town":"祖父江町甲新田","koaza":"流新田","lat":35.235237,"lng":136.721348,"zip":"4950022"},{"town":"祖父江町甲新田","koaza":"新江西","lat":35.229266,"lng":136.722385,"zip":"4950022"},{"town":"祖父江町山崎","koaza":"下枇","lat":35.256226,"lng":136.724555,"zip":"4950002"},{"town":"祖父江町甲新田","koaza":"六軒","lat":35.231918,"lng":136.721896,"zip":"4950022"},{"town":"祖父江町甲新田","koaza":"イ一","lat":35.224285,"lng":136.721599,"zip":"4950022"},{"town":"祖父江町甲新田","koaza":"イ十","lat":35.22622,"lng":136.722472,"zip":"4950022"},{"town":"祖父江町祖父江","koaza":"寺内","lat":35.267902,"lng":136.724393,"zip":"4950001"},{"town":"祖父江町甲新田","koaza":"甲上","lat":35.236276,"lng":136.724287,"zip":"4950022"},{"town":"祖父江町山崎","koaza":"亥古","lat":35.256309,"lng":136.722747,"zip":"4950002"},{"town":"祖父江町山崎","koaza":"元宮西","lat":35.258501,"lng":136.722479,"zip":"4950002"},{"town":"祖父江町甲新田","koaza":"前田","lat":35.233927,"lng":136.722237,"zip":"4950022"},{"town":"祖父江町甲新田","koaza":"甲下","lat":35.228052,"lng":136.722971,"zip":"4950022"},{"town":"祖父江町桜方","koaza":"寺岡","lat":35.247757,"lng":136.723315,"zip":"4950015"},{"town":"祖父江町上牧","koaza":"子新田","lat":35.252997,"lng":136.722413,"zip":"4950031"},{"town":"祖父江町祖父江","koaza":"内川田","lat":35.264748,"lng":136.723804,"zip":"4950001"},{"town":"祖父江町甲新田","koaza":"甲中","lat":35.232656,"lng":136.723554,"zip":"4950022"},{"town":"祖父江町祖父江","koaza":"広口","lat":35.26974,"lng":136.725619,"zip":"4950001"},{"town":"祖父江町二俣","koaza":"下川原","lat":35.237706,"lng":136.725225,"zip":"4950013"},{"town":"平和町","koaza":"光和","lat":35.201831,"lng":136.723357,"zip":"4901303"},{"town":"祖父江町桜方","koaza":"西郷","lat":35.247828,"lng":136.724701,"zip":"4950015"},{"town":"祖父江町甲新田","koaza":"須賀北","lat":35.236334,"lng":136.723699,"zip":"4950022"},{"town":"祖父江町甲新田","koaza":"海道南","lat":35.231912,"lng":136.722749,"zip":"4950022"},{"town":"祖父江町山崎","koaza":"中枇","lat":35.261074,"lng":136.727073,"zip":"4950002"},{"town":"祖父江町甲新田","koaza":"又助東","lat":35.226556,"lng":136.723138,"zip":"4950022"},{"town":"祖父江町祖父江","koaza":"立合南","lat":35.270249,"lng":136.724625,"zip":"4950001"},{"town":"祖父江町山崎","koaza":"六反","lat":35.256916,"lng":136.723499,"zip":"4950002"},{"town":"祖父江町山崎","koaza":"宮附","lat":35.255016,"lng":136.723596,"zip":"4950002"},{"town":"平和町","koaza":"須ヶ脇","lat":35.201106,"lng":136.727615,"zip":"4901303"},{"town":"祖父江町桜方","koaza":"四城","lat":35.246248,"lng":136.725091,"zip":"4950015"},{"town":"祖父江町甲新田","koaza":"宮浦","lat":35.235944,"lng":136.724051,"zip":"4950022"},{"town":"祖父江町三丸渕","koaza":"西流","lat":35.221907,"lng":136.724693,"zip":"4950021"},{"town":"祖父江町山崎","koaza":"明島","lat":35.265013,"lng":136.727317,"zip":"4950002"},{"town":"祖父江町三丸渕","koaza":"駅通","lat":35.22236,"lng":136.725806,"zip":"4950021"},{"town":"祖父江町山崎","koaza":"種池","lat":35.260658,"lng":136.724792,"zip":"4950002"},{"town":"祖父江町桜方","koaza":"川田","lat":35.249367,"lng":136.724927,"zip":"4950015"},{"town":"祖父江町二俣","koaza":"宮西","lat":35.240767,"lng":136.725681,"zip":"4950013"},{"town":"祖父江町桜方","koaza":"立切","lat":35.247747,"lng":136.72381,"zip":"4950015"},{"town":"祖父江町山崎","koaza":"畑中","lat":35.261998,"lng":136.725574,"zip":"4950002"},{"town":"祖父江町桜方","koaza":"上切","lat":35.250627,"lng":136.725859,"zip":"4950015"},{"town":"祖父江町桜方","koaza":"善四跡","lat":35.247288,"lng":136.724424,"zip":"4950015"},{"town":"祖父江町祖父江","koaza":"外川田","lat":35.26679,"lng":136.725205,"zip":"4950001"},{"town":"祖父江町山崎","koaza":"十八山","lat":35.254898,"lng":136.72535,"zip":"4950002"},{"town":"祖父江町山崎","koaza":"元宮","lat":35.260242,"lng":136.725402,"zip":"4950002"},{"town":"祖父江町桜方","koaza":"中郷","lat":35.248487,"lng":136.72479,"zip":"4950015"},{"town":"祖父江町山崎","koaza":"杁ノ戸","lat":35.254479,"lng":136.725937,"zip":"4950002"},{"town":"祖父江町三丸渕","koaza":"山新田","lat":35.225044,"lng":136.727704,"zip":"4950021"},{"town":"祖父江町山崎","koaza":"鉄砲","lat":35.263763,"lng":136.72568,"zip":"4950002"},{"town":"平和町","koaza":"明和","lat":35.203635,"lng":136.726925,"zip":"4901303"},{"town":"祖父江町桜方","koaza":"螺谷","lat":35.248872,"lng":136.725689,"zip":"4950015"},{"town":"祖父江町山崎","koaza":"茶ノ木原","lat":35.263538,"lng":136.726017,"zip":"4950002"},{"town":"祖父江町山崎","koaza":"鶴塚","lat":35.253124,"lng":136.729038,"zip":"4950002"},{"town":"祖父江町二俣","koaza":"五反","lat":35.237034,"lng":136.728729,"zip":"4950013"},{"town":"祖父江町桜方","koaza":"宮東","lat":35.250191,"lng":136.726045,"zip":"4950015"},{"town":"祖父江町三丸渕","koaza":"中島","lat":35.229908,"lng":136.728315,"zip":"4950021"},{"town":"祖父江町三丸渕","koaza":"中通","lat":35.221111,"lng":136.726565,"zip":"4950021"},{"town":"祖父江町山崎","koaza":"野口","lat":35.26135,"lng":136.726993,"zip":"4950002"},{"town":"祖父江町二俣","koaza":"下り戸","lat":35.240541,"lng":136.728017,"zip":"4950013"},{"town":"祖父江町甲新田","koaza":"芝原下","lat":35.231722,"lng":136.727985,"zip":"4950022"},{"town":"祖父江町三丸渕","koaza":"平口","lat":35.224645,"lng":136.727492,"zip":"4950021"},{"town":"祖父江町二俣","koaza":"寺瀬古","lat":35.243904,"lng":136.728295,"zip":"4950013"},{"town":"祖父江町桜方","koaza":"下六町","lat":35.246782,"lng":136.726882,"zip":"4950015"},{"town":"祖父江町桜方","koaza":"中六町","lat":35.247124,"lng":136.726941,"zip":"4950015"},{"town":"祖父江町二俣","koaza":"上大城","lat":35.245161,"lng":136.726986,"zip":"4950013"},{"town":"祖父江町甲新田","koaza":"芝三","lat":35.234276,"lng":136.727496,"zip":"4950022"},{"town":"祖父江町山崎","koaza":"寺廓","lat":35.263448,"lng":136.727741,"zip":"4950002"},{"town":"祖父江町二俣","koaza":"下瀬古","lat":35.238206,"lng":136.728709,"zip":"4950013"},{"town":"祖父江町三丸渕","koaza":"八島西","lat":35.222022,"lng":136.727324,"zip":"4950021"},{"town":"祖父江町桜方","koaza":"六町","lat":35.249269,"lng":136.728112,"zip":"4950015"},{"town":"祖父江町甲新田","koaza":"芝八","lat":35.230375,"lng":136.72837,"zip":"4950022"},{"town":"祖父江町山崎","koaza":"清水山","lat":35.254458,"lng":136.727975,"zip":"4950002"},{"town":"祖父江町甲新田","koaza":"芝原中","lat":35.233613,"lng":136.729104,"zip":"4950022"},{"town":"祖父江町甲新田","koaza":"芝十一","lat":35.231353,"lng":136.727735,"zip":"4950022"},{"town":"祖父江町山崎","koaza":"柳","lat":35.259581,"lng":136.727949,"zip":"4950002"},{"town":"祖父江町三丸渕","koaza":"塚越","lat":35.225543,"lng":136.727714,"zip":"4950021"},{"town":"祖父江町二俣","koaza":"須賀垂","lat":35.245763,"lng":136.727993,"zip":"4950013"},{"town":"祖父江町山崎","koaza":"土井平","lat":35.261202,"lng":136.728414,"zip":"4950002"},{"town":"祖父江町桜方","koaza":"川鳴","lat":35.250481,"lng":136.728547,"zip":"4950015"},{"town":"祖父江町甲新田","koaza":"芝四","lat":35.233843,"lng":136.728243,"zip":"4950022"},{"town":"祖父江町甲新田","koaza":"芝六","lat":35.233379,"lng":136.728496,"zip":"4950022"},{"town":"祖父江町三丸渕","koaza":"山之郷","lat":35.224105,"lng":136.7278,"zip":"4950021"},{"town":"祖父江町甲新田","koaza":"芝二","lat":35.23541,"lng":136.728167,"zip":"4950022"},{"town":"祖父江町山崎","koaza":"石田","lat":35.258418,"lng":136.728145,"zip":"4950002"},{"town":"祖父江町三丸渕","koaza":"山裏","lat":35.226195,"lng":136.728412,"zip":"4950021"},{"town":"祖父江町三丸渕","koaza":"八島","lat":35.222265,"lng":136.728439,"zip":"4950021"},{"town":"祖父江町甲新田","koaza":"芝原上","lat":35.23563,"lng":136.729436,"zip":"4950022"},{"town":"祖父江町二俣","koaza":"早尾堤","lat":35.246681,"lng":136.73003,"zip":"4950013"},{"town":"祖父江町山崎","koaza":"四十石","lat":35.257462,"lng":136.729224,"zip":"4950002"},{"town":"祖父江町三丸渕","koaza":"高畑","lat":35.221078,"lng":136.728381,"zip":"4950021"},{"town":"祖父江町山崎","koaza":"松下","lat":35.25537,"lng":136.731391,"zip":"4950002"},{"town":"祖父江町山崎","koaza":"駒堀","lat":35.259725,"lng":136.730614,"zip":"4950002"},{"town":"祖父江町三丸渕","koaza":"横枕","lat":35.230372,"lng":136.729032,"zip":"4950021"},{"town":"祖父江町山崎","koaza":"白山西","lat":35.267321,"lng":136.729817,"zip":"4950002"},{"town":"祖父江町山崎","koaza":"平東","lat":35.260667,"lng":136.729372,"zip":"4950002"},{"town":"祖父江町三丸渕","koaza":"中屋敷","lat":35.222756,"lng":136.732213,"zip":"4950021"},{"town":"祖父江町二俣","koaza":"上川原","lat":35.243978,"lng":136.729834,"zip":"4950013"},{"town":"祖父江町三丸渕","koaza":"報導寺","lat":35.229174,"lng":136.729184,"zip":"4950021"},{"town":"祖父江町三丸渕","koaza":"下屋敷","lat":35.221131,"lng":136.731689,"zip":"4950021"},{"town":"祖父江町山崎","koaza":"柿山","lat":35.251377,"lng":136.731944,"zip":"4950002"},{"town":"平和町西光坊","koaza":"新町","lat":35.213898,"lng":136.730704,"zip":"4901314"},{"town":"祖父江町三丸渕","koaza":"中丸渕","lat":35.228647,"lng":136.731577,"zip":"4950021"},{"town":"祖父江町桜方","koaza":"笹原","lat":35.249251,"lng":136.731032,"zip":"4950015"},{"town":"祖父江町三丸渕","koaza":"上矢留","lat":35.229804,"lng":136.72949,"zip":"4950021"},{"town":"祖父江町甲新田","koaza":"芝五","lat":35.23427,"lng":136.729888,"zip":"4950022"},{"town":"祖父江町二俣","koaza":"柳原","lat":35.240472,"lng":136.730472,"zip":"4950013"},{"town":"祖父江町三丸渕","koaza":"下矢留","lat":35.229065,"lng":136.729839,"zip":"4950021"},{"town":"祖父江町甲新田","koaza":"芝七","lat":35.233335,"lng":136.729737,"zip":"4950022"},{"town":"平和町","koaza":"下起南","lat":35.205254,"lng":136.732161,"zip":"4901303"},{"town":"祖父江町三丸渕","koaza":"南矢留","lat":35.228632,"lng":136.730403,"zip":"4950021"},{"town":"祖父江町甲新田","koaza":"芝一","lat":35.236164,"lng":136.730232,"zip":"4950022"},{"town":"祖父江町三丸渕","koaza":"上丸渕","lat":35.233762,"lng":136.733197,"zip":"4950021"},{"town":"祖父江町山崎","koaza":"台所","lat":35.25967,"lng":136.731288,"zip":"4950002"},{"town":"平和町","koaza":"下起中","lat":35.208834,"lng":136.733304,"zip":"4901303"},{"town":"祖父江町山崎","koaza":"中沼","lat":35.258121,"lng":136.731349,"zip":"4950002"},{"town":"祖父江町二俣","koaza":"上瀬古","lat":35.247205,"lng":136.731151,"zip":"4950013"},{"town":"祖父江町山崎","koaza":"塩屋","lat":35.256624,"lng":136.73163,"zip":"4950002"},{"town":"祖父江町山崎","koaza":"本郷","lat":35.264772,"lng":136.734151,"zip":"4950002"},{"town":"平和町西光坊","koaza":"宮西","lat":35.217844,"lng":136.731658,"zip":"4901314"},{"town":"祖父江町三丸渕","koaza":"郷裏","lat":35.235154,"lng":136.731904,"zip":"4950021"},{"town":"祖父江町二俣","koaza":"池田","lat":35.24493,"lng":136.731271,"zip":"4950013"},{"town":"平和町","koaza":"下起北","lat":35.211873,"lng":136.732261,"zip":"4901303"},{"town":"平和町","koaza":"領内","lat":35.196733,"lng":136.732023,"zip":"4901303"},{"town":"祖父江町二俣","koaza":"東柳原","lat":35.239784,"lng":136.731416,"zip":"4950013"},{"town":"祖父江町三丸渕","koaza":"郷前","lat":35.232733,"lng":136.73176,"zip":"4950021"},{"town":"祖父江町山崎","koaza":"才蔵野西","lat":35.254131,"lng":136.732066,"zip":"4950002"},{"town":"平和町西光坊","koaza":"大門南","lat":35.215824,"lng":136.732009,"zip":"4901314"},{"town":"平和町西光坊","koaza":"大門北","lat":35.217971,"lng":136.732831,"zip":"4901314"},{"town":"祖父江町三丸渕","koaza":"孫治前","lat":35.232346,"lng":136.731254,"zip":"4950021"},{"town":"祖父江町山崎","koaza":"二本木","lat":35.260522,"lng":136.732912,"zip":"4950002"},{"town":"平和町","koaza":"前平","lat":35.201468,"lng":136.733626,"zip":"4901303"},{"town":"祖父江町山崎","koaza":"本西","lat":35.266373,"lng":136.731927,"zip":"4950002"},{"town":"祖父江町二俣","koaza":"東川原","lat":35.24272,"lng":136.732029,"zip":"4950013"},{"town":"平和町","koaza":"塩川","lat":35.19842,"lng":136.734345,"zip":"4901303"},{"town":"祖父江町三丸渕","koaza":"古宮","lat":35.237159,"lng":136.732028,"zip":"4950021"},{"town":"祖父江町山崎","koaza":"蛇塚","lat":35.265242,"lng":136.732295,"zip":"4950002"},{"town":"祖父江町三丸渕","koaza":"上屋敷","lat":35.224735,"lng":136.731783,"zip":"4950021"},{"town":"祖父江町二俣","koaza":"川端","lat":35.246825,"lng":136.732653,"zip":"4950013"},{"town":"祖父江町本甲","koaza":"拾町野","lat":35.251311,"lng":136.732879,"zip":"4950012"},{"town":"祖父江町三丸渕","koaza":"七前","lat":35.239347,"lng":136.73307,"zip":"4950021"},{"town":"祖父江町山崎","koaza":"狐塚","lat":35.258752,"lng":136.73335,"zip":"4950002"},{"town":"祖父江町三丸渕","koaza":"七屋敷","lat":35.240035,"lng":136.733281,"zip":"4950021"},{"town":"祖父江町三丸渕","koaza":"宮前","lat":35.223657,"lng":136.732674,"zip":"4950021"},{"town":"祖父江町三丸渕","koaza":"宮裏","lat":35.224493,"lng":136.733397,"zip":"4950021"},{"town":"祖父江町山崎","koaza":"川原","lat":35.267183,"lng":136.732395,"zip":"4950002"},{"town":"祖父江町三丸渕","koaza":"七裏","lat":35.241281,"lng":136.733349,"zip":"4950021"},{"town":"祖父江町山崎","koaza":"本中","lat":35.266314,"lng":136.732943,"zip":"4950002"},{"town":"祖父江町本甲","koaza":"神明北","lat":35.25015,"lng":136.733587,"zip":"4950012"},{"town":"祖父江町本甲","koaza":"大蒲西","lat":35.243479,"lng":136.733232,"zip":"4950012"},{"town":"祖父江町山崎","koaza":"才郷","lat":35.254369,"lng":136.733601,"zip":"4950002"},{"town":"祖父江町山崎","koaza":"江渕","lat":35.252669,"lng":136.734239,"zip":"4950002"},{"town":"祖父江町森上","koaza":"本郷十一","lat":35.251788,"lng":136.733939,"zip":"4950011"},{"town":"祖父江町山崎","koaza":"本郷前","lat":35.265112,"lng":136.732992,"zip":"4950002"},{"town":"祖父江町三丸渕","koaza":"三段割","lat":35.226675,"lng":136.733944,"zip":"4950021"},{"town":"祖父江町山崎","koaza":"二本木前","lat":35.259719,"lng":136.733096,"zip":"4950002"},{"town":"祖父江町山崎","koaza":"才蔵野東","lat":35.254407,"lng":136.734418,"zip":"4950002"},{"town":"祖父江町三丸渕","koaza":"東寺野","lat":35.225224,"lng":136.73378,"zip":"4950021"},{"town":"平和町西光坊","koaza":"海東阿原","lat":35.213723,"lng":136.734173,"zip":"4901314"},{"town":"平和町西光坊","koaza":"大門先","lat":35.215362,"lng":136.733952,"zip":"4901314"},{"town":"祖父江町本甲","koaza":"大溝","lat":35.246269,"lng":136.734732,"zip":"4950012"},{"town":"平和町西光坊","koaza":"海道東","lat":35.217158,"lng":136.736532,"zip":"4901314"},{"town":"祖父江町三丸渕","koaza":"申新田下ノ切","lat":35.221563,"lng":136.733845,"zip":"4950021"},{"town":"祖父江町本甲","koaza":"神明前","lat":35.248374,"lng":136.734821,"zip":"4950012"},{"town":"平和町西光坊","koaza":"杁上","lat":35.219972,"lng":136.734306,"zip":"4901314"},{"town":"祖父江町本甲","koaza":"大蒲","lat":35.243389,"lng":136.73482,"zip":"4950012"},{"town":"祖父江町山崎","koaza":"本東","lat":35.266238,"lng":136.735367,"zip":"4950002"},{"town":"祖父江町三丸渕","koaza":"申新田上ノ切","lat":35.223344,"lng":136.734253,"zip":"4950021"},{"town":"祖父江町三丸渕","koaza":"寺東","lat":35.234012,"lng":136.735848,"zip":"4950021"},{"town":"祖父江町三丸渕","koaza":"二段割","lat":35.227747,"lng":136.734852,"zip":"4950021"},{"town":"祖父江町山崎","koaza":"上屋敷","lat":35.260292,"lng":136.73723,"zip":"4950002"},{"town":"祖父江町三丸渕","koaza":"一段割","lat":35.230155,"lng":136.735534,"zip":"4950021"},{"town":"祖父江町森上","koaza":"本郷十","lat":35.249956,"lng":136.736316,"zip":"4950011"},{"town":"平和町法立","koaza":"古川新田","lat":35.227725,"lng":136.737576,"zip":"4901304"},{"town":"祖父江町山崎","koaza":"大薮","lat":35.267829,"lng":136.735341,"zip":"4950002"},{"town":"祖父江町三丸渕","koaza":"江北上","lat":35.239983,"lng":136.735222,"zip":"4950021"},{"town":"平和町","koaza":"下起東","lat":35.2112,"lng":136.737206,"zip":"4901303"},{"town":"祖父江町山崎","koaza":"舟橋","lat":35.254595,"lng":136.737294,"zip":"4950002"},{"town":"祖父江町山崎","koaza":"車田","lat":35.265405,"lng":136.734941,"zip":"4950002"},{"town":"祖父江町三丸渕","koaza":"江北前","lat":35.235351,"lng":136.736557,"zip":"4950021"},{"town":"祖父江町三丸渕","koaza":"中ノ切","lat":35.232768,"lng":136.734948,"zip":"4950021"},{"town":"祖父江町山崎","koaza":"中屋敷","lat":35.257278,"lng":136.73791,"zip":"4950002"},{"town":"平和町法立","koaza":"柳場","lat":35.224172,"lng":136.736819,"zip":"4901304"},{"town":"祖父江町森上","koaza":"本郷九","lat":35.248283,"lng":136.736179,"zip":"4950011"},{"town":"平和町横池","koaza":"本田","lat":35.215188,"lng":136.736403,"zip":"4901313"},{"town":"祖父江町山崎","koaza":"三反","lat":35.251927,"lng":136.736903,"zip":"4950002"},{"town":"祖父江町三丸渕","koaza":"川並前","lat":35.231921,"lng":136.736071,"zip":"4950021"},{"town":"平和町","koaza":"嫁振","lat":35.202487,"lng":136.738688,"zip":"4901303"},{"town":"祖父江町山崎","koaza":"摺鉢","lat":35.25475,"lng":136.735689,"zip":"4950002"},{"town":"平和町法立","koaza":"西瀬古下","lat":35.221564,"lng":136.736748,"zip":"4901304"},{"town":"祖父江町本甲","koaza":"三ツ屋","lat":35.243459,"lng":136.736564,"zip":"4950012"},{"town":"祖父江町三丸渕","koaza":"新田三ノ割","lat":35.228348,"lng":136.736382,"zip":"4950021"},{"town":"祖父江町本甲","koaza":"郷西","lat":35.239863,"lng":136.736489,"zip":"4950012"},{"town":"平和町横池","koaza":"山ノ畑","lat":35.21278,"lng":136.736569,"zip":"4901313"},{"town":"祖父江町森上","koaza":"本郷六","lat":35.246069,"lng":136.736167,"zip":"4950011"},{"town":"祖父江町森上","koaza":"本郷七","lat":35.247598,"lng":136.736496,"zip":"4950011"},{"town":"祖父江町本甲","koaza":"五拾石","lat":35.2404,"lng":136.736659,"zip":"4950012"},{"town":"平和町","koaza":"勝幡新田","lat":35.197041,"lng":136.738687,"zip":"4901303"},{"town":"祖父江町本甲","koaza":"西宮神","lat":35.239335,"lng":136.737888,"zip":"4950012"},{"town":"祖父江町山崎","koaza":"堤添","lat":35.265144,"lng":136.736652,"zip":"4950002"},{"town":"祖父江町山崎","koaza":"笹原","lat":35.259293,"lng":136.73708,"zip":"4950002"},{"town":"祖父江町三丸渕","koaza":"江北西","lat":35.23709,"lng":136.73668,"zip":"4950021"},{"town":"平和町横池","koaza":"砂田","lat":35.21367,"lng":136.738162,"zip":"4901313"},{"town":"祖父江町山崎","koaza":"柳野","lat":35.25765,"lng":136.73702,"zip":"4950002"},{"town":"祖父江町山崎","koaza":"山畠","lat":35.26004,"lng":136.736843,"zip":"4950002"},{"town":"祖父江町三丸渕","koaza":"新田四ノ割","lat":35.229991,"lng":136.736899,"zip":"4950021"},{"town":"平和町法立","koaza":"西瀬古上","lat":35.224423,"lng":136.737863,"zip":"4901304"},{"town":"祖父江町本甲","koaza":"大西","lat":35.245158,"lng":136.737305,"zip":"4950012"},{"town":"平和町法立","koaza":"東法立南","lat":35.220544,"lng":136.739529,"zip":"4901304"},{"town":"祖父江町森上","koaza":"本郷五","lat":35.246597,"lng":136.738727,"zip":"4950011"},{"town":"祖父江町本甲","koaza":"宮前","lat":35.241559,"lng":136.738492,"zip":"4950012"},{"town":"祖父江町森上","koaza":"本郷八","lat":35.248833,"lng":136.73804,"zip":"4950011"},{"town":"平和町法立","koaza":"北瀬古","lat":35.225372,"lng":136.739733,"zip":"4901304"},{"town":"平和町法立","koaza":"東瀬古下","lat":35.222288,"lng":136.738396,"zip":"4901304"},{"town":"平和町法立","koaza":"下出","lat":35.221135,"lng":136.738795,"zip":"4901304"},{"town":"平和町法立","koaza":"宮北","lat":35.227978,"lng":136.738863,"zip":"4901304"},{"town":"平和町","koaza":"丸渕下","lat":35.230858,"lng":136.740456,"zip":"4901303"},{"town":"祖父江町本甲","koaza":"横手南","lat":35.239894,"lng":136.738781,"zip":"4950012"},{"town":"祖父江町山崎","koaza":"塚西","lat":35.254076,"lng":136.73926,"zip":"4950002"},{"town":"祖父江町本甲","koaza":"宮西","lat":35.24324,"lng":136.73899,"zip":"4950012"},{"town":"平和町横池","koaza":"中之町","lat":35.213066,"lng":136.739839,"zip":"4901313"},{"town":"祖父江町山崎","koaza":"王塚","lat":35.254726,"lng":136.739148,"zip":"4950002"},{"town":"平和町","koaza":"丸渕上","lat":35.233822,"lng":136.740075,"zip":"4901303"},{"town":"平和町法立","koaza":"東瀬古","lat":35.223412,"lng":136.739673,"zip":"4901304"},{"town":"祖父江町森上","koaza":"本郷三","lat":35.248761,"lng":136.739786,"zip":"4950011"},{"town":"祖父江町山崎","koaza":"北屋敷","lat":35.261125,"lng":136.73886,"zip":"4950002"},{"town":"平和町","koaza":"平六","lat":35.195036,"lng":136.740852,"zip":"4901303"},{"town":"片原一色町","koaza":"下平","lat":35.237005,"lng":136.739269,"zip":"4928355"},{"town":"祖父江町山崎","koaza":"塚越","lat":35.253158,"lng":136.73974,"zip":"4950002"},{"town":"祖父江町山崎","koaza":"生出","lat":35.253357,"lng":136.739143,"zip":"4950002"},{"town":"平和町平池","koaza":"大畑","lat":35.219108,"lng":136.739598,"zip":"4901315"},{"town":"平和町平池","koaza":"七反田","lat":35.217055,"lng":136.739877,"zip":"4901315"},{"town":"祖父江町森上","koaza":"本郷四","lat":35.245923,"lng":136.740279,"zip":"4950011"},{"town":"祖父江町本甲","koaza":"宮東","lat":35.243488,"lng":136.739943,"zip":"4950012"},{"town":"片原一色町","koaza":"三ツ池","lat":35.2379,"lng":136.739517,"zip":"4928355"},{"town":"平和町法立","koaza":"巽屋敷","lat":35.221263,"lng":136.73966,"zip":"4901304"},{"town":"片原一色町","koaza":"上三ツ池","lat":35.238766,"lng":136.73977,"zip":"4928355"},{"town":"片原一色町","koaza":"堤附","lat":35.238032,"lng":136.740023,"zip":"4928355"},{"town":"平和町法立","koaza":"山起","lat":35.222572,"lng":136.739993,"zip":"4901304"},{"town":"平和町","koaza":"嫁振北","lat":35.2048,"lng":136.74029,"zip":"4901303"},{"town":"平和町","koaza":"城西","lat":35.198152,"lng":136.742202,"zip":"4901303"},{"town":"平和町平池","koaza":"前田面","lat":35.21813,"lng":136.740825,"zip":"4901315"},{"town":"片原一色町","koaza":"大松下","lat":35.24024,"lng":136.740659,"zip":"4928355"},{"town":"祖父江町山崎","koaza":"江代","lat":35.257645,"lng":136.740445,"zip":"4950002"},{"town":"平和町法立","koaza":"東法立北","lat":35.22262,"lng":136.740587,"zip":"4901304"},{"town":"祖父江町山崎","koaza":"萩原古川","lat":35.252623,"lng":136.740576,"zip":"4950002"},{"town":"祖父江町森上","koaza":"本郷二","lat":35.249187,"lng":136.740915,"zip":"4950011"},{"town":"片原一色町","koaza":"宮前","lat":35.239511,"lng":136.740743,"zip":"4928355"},{"town":"平和町法立","koaza":"十一丁","lat":35.227048,"lng":136.740821,"zip":"4901304"},{"town":"平和町","koaza":"嫁振東","lat":35.201512,"lng":136.742476,"zip":"4901303"},{"town":"平和町平池","koaza":"郷付","lat":35.220199,"lng":136.742199,"zip":"4901315"},{"town":"平和町下三宅","koaza":"菱池","lat":35.209906,"lng":136.741588,"zip":"4901312"},{"town":"祖父江町森上","koaza":"本郷一","lat":35.246078,"lng":136.740984,"zip":"4950011"},{"town":"西島町","koaza":"治兵","lat":35.257545,"lng":136.742137,"zip":"4928329"},{"town":"片原一色町","koaza":"宮西","lat":35.24128,"lng":136.741364,"zip":"4928355"},{"town":"平和町横池","koaza":"三番割","lat":35.213126,"lng":136.741525,"zip":"4901313"},{"town":"平和町東城","koaza":"新宮前","lat":35.204047,"lng":136.742636,"zip":"4901321"},{"town":"平和町中三宅","koaza":"二丁割","lat":35.215479,"lng":136.742227,"zip":"4901311"},{"town":"平和町法立","koaza":"国道東","lat":35.222685,"lng":136.742935,"zip":"4901304"},{"town":"片原一色町","koaza":"替地","lat":35.251141,"lng":136.742,"zip":"4928355"},{"town":"片原一色町","koaza":"三反物","lat":35.254256,"lng":136.742111,"zip":"4928355"},{"town":"片原一色町","koaza":"勘左池","lat":35.24919,"lng":136.742107,"zip":"4928355"},{"town":"平和町東城","koaza":"戌亥","lat":35.209408,"lng":136.743872,"zip":"4901321"},{"town":"片原一色町","koaza":"八枚物","lat":35.247285,"lng":136.742207,"zip":"4928355"},{"town":"片原一色町","koaza":"舟入","lat":35.246145,"lng":136.742251,"zip":"4928355"},{"town":"平和町","koaza":"鷲尾","lat":35.230423,"lng":136.745347,"zip":"4901303"},{"town":"片原一色町","koaza":"道法","lat":35.2516,"lng":136.743151,"zip":"4928355"},{"town":"西島町","koaza":"下割","lat":35.258905,"lng":136.742679,"zip":"4928329"},{"town":"片原一色町","koaza":"萩畑","lat":35.253005,"lng":136.743468,"zip":"4928355"},{"town":"平和町下三宅","koaza":"沼","lat":35.214378,"lng":136.743005,"zip":"4901312"},{"town":"片原一色町","koaza":"吹上","lat":35.253944,"lng":136.743912,"zip":"4928355"},{"town":"片原一色町","koaza":"日用川","lat":35.248565,"lng":136.742999,"zip":"4928355"},{"town":"片原一色町","koaza":"高山","lat":35.255513,"lng":136.744753,"zip":"4928355"},{"town":"片原一色町","koaza":"富士見崎","lat":35.247165,"lng":136.743574,"zip":"4928355"},{"town":"平和町法立","koaza":"起","lat":35.223102,"lng":136.743972,"zip":"4901304"},{"town":"平和町","koaza":"城之内","lat":35.198321,"lng":136.744766,"zip":"4901303"},{"town":"平和町東城","koaza":"岩名","lat":35.203616,"lng":136.744932,"zip":"4901321"},{"town":"片原一色町","koaza":"四ツ屋","lat":35.249409,"lng":136.744345,"zip":"4928355"},{"town":"片原一色町","koaza":"地蔵南","lat":35.251149,"lng":136.744842,"zip":"4928355"},{"town":"平和町東城","koaza":"元苗代","lat":35.204893,"lng":136.744735,"zip":"4901321"},{"town":"片原一色町","koaza":"南廻","lat":35.251825,"lng":136.744879,"zip":"4928355"},{"town":"平和町東城","koaza":"余ケ戸","lat":35.207527,"lng":136.746186,"zip":"4901321"},{"town":"片原一色町","koaza":"西北廻","lat":35.255607,"lng":136.745065,"zip":"4928355"},{"town":"平和町中三宅","koaza":"南ケ崎","lat":35.217117,"lng":136.747705,"zip":"4901311"},{"town":"平和町東城","koaza":"郷内","lat":35.204315,"lng":136.74799,"zip":"4901321"},{"town":"平和町下三宅","koaza":"横枕","lat":35.208888,"lng":136.746617,"zip":"4901312"},{"town":"片原一色町","koaza":"平","lat":35.251623,"lng":136.746336,"zip":"4928355"},{"town":"平和町法立","koaza":"六丁","lat":35.223324,"lng":136.747718,"zip":"4901304"},{"town":"平和町下三宅","koaza":"折口","lat":35.214692,"lng":136.748277,"zip":"4901312"},{"town":"平和町下三宅","koaza":"舟附","lat":35.212475,"lng":136.748243,"zip":"4901312"},{"town":"平和町東城","koaza":"天神","lat":35.203249,"lng":136.746283,"zip":"4901321"},{"town":"片原一色町","koaza":"元六","lat":35.247592,"lng":136.746519,"zip":"4928355"},{"town":"平和町中三宅","koaza":"池田","lat":35.219243,"lng":136.746611,"zip":"4901311"},{"town":"片原一色町","koaza":"東北廻","lat":35.25443,"lng":136.747202,"zip":"4928355"},{"town":"平和町","koaza":"那古良","lat":35.201122,"lng":136.747533,"zip":"4901303"},{"town":"平和町東城","koaza":"浦之川","lat":35.205759,"lng":136.749681,"zip":"4901321"},{"town":"平和町下三宅","koaza":"下畑","lat":35.208404,"lng":136.748878,"zip":"4901312"},{"town":"平和町上三宅","koaza":"上屋敷","lat":35.221638,"lng":136.752288,"zip":"4901303"},{"town":"平和町下三宅","koaza":"郷内","lat":35.21206,"lng":136.750757,"zip":"4901312"},{"town":"平和町","koaza":"下前浪","lat":35.203217,"lng":136.749612,"zip":"4901303"},{"town":"平和町中三宅","koaza":"高道","lat":35.218147,"lng":136.749575,"zip":"4901311"},{"town":"片原一色町","koaza":"如来","lat":35.248437,"lng":136.748704,"zip":"4928355"},{"town":"西島町","koaza":"上割","lat":35.263735,"lng":136.748553,"zip":"4928329"},{"town":"平和町中三宅","koaza":"出口","lat":35.219648,"lng":136.750055,"zip":"4901311"},{"town":"平和町下三宅","koaza":"北出","lat":35.216045,"lng":136.751711,"zip":"4901312"},{"town":"平和町須ケ谷","koaza":"馬橋","lat":35.231195,"lng":136.749896,"zip":"4901301"},{"town":"平和町須ケ谷","koaza":"大下","lat":35.226106,"lng":136.750399,"zip":"4901301"},{"town":"片原一色町","koaza":"道上","lat":35.24229,"lng":136.749908,"zip":"4928355"},{"town":"平和町上三宅","koaza":"満願寺","lat":35.220703,"lng":136.750594,"zip":"4901303"},{"town":"平和町須ケ谷","koaza":"郷","lat":35.22987,"lng":136.750897,"zip":"4901301"},{"town":"片原一色町","koaza":"森山","lat":35.241284,"lng":136.751159,"zip":"4928355"},{"town":"平和町","koaza":"上前浪","lat":35.204696,"lng":136.751122,"zip":"4901303"},{"town":"平和町須ケ谷","koaza":"長田","lat":35.232453,"lng":136.753641,"zip":"4901301"},{"town":"平和町上三宅","koaza":"城地","lat":35.224322,"lng":136.752158,"zip":"4901303"},{"town":"平和町中三宅","koaza":"宮南","lat":35.217167,"lng":136.752081,"zip":"4901311"},{"town":"横野町","koaza":"神田","lat":35.261952,"lng":136.752096,"zip":"4928389"},{"town":"氷室町","koaza":"古川新田","lat":35.206022,"lng":136.753139,"zip":"4928456"},{"town":"平和町下三宅","koaza":"前浪","lat":35.209712,"lng":136.751802,"zip":"4901312"},{"town":"平和町中三宅","koaza":"中屋敷","lat":35.218219,"lng":136.753279,"zip":"4901311"},{"town":"西島町","koaza":"市助河戸","lat":35.265826,"lng":136.75179,"zip":"4928329"},{"town":"片原一色町","koaza":"才ノ上","lat":35.241052,"lng":136.752316,"zip":"4928355"},{"town":"氷室町","koaza":"内新田","lat":35.208681,"lng":136.752431,"zip":"4928456"},{"town":"片原一色町","koaza":"東道上","lat":35.242672,"lng":136.752779,"zip":"4928355"},{"town":"片原一色町","koaza":"河附","lat":35.239947,"lng":136.75191,"zip":"4928355"},{"town":"西島町","koaza":"横西","lat":35.262019,"lng":136.751964,"zip":"4928329"},{"town":"平和町須ケ谷","koaza":"前浪","lat":35.230631,"lng":136.753042,"zip":"4901301"},{"town":"片原一色町","koaza":"ささら","lat":35.241394,"lng":136.752654,"zip":"4928355"},{"town":"坂田町","koaza":"乗越","lat":35.211292,"lng":136.75343,"zip":"4928454"},{"town":"氷室町","koaza":"池除","lat":35.205345,"lng":136.752824,"zip":"4928456"},{"town":"横野町","koaza":"西郷","lat":35.262698,"lng":136.75405,"zip":"4928389"},{"town":"平和町須ケ谷","koaza":"本田","lat":35.235494,"lng":136.75549,"zip":"4901301"},{"town":"氷室町","koaza":"郷内","lat":35.205445,"lng":136.754144,"zip":"4928456"},{"town":"平和町上三宅","koaza":"山王","lat":35.223623,"lng":136.754631,"zip":"4901303"},{"town":"片原一色町","koaza":"大山","lat":35.243926,"lng":136.753707,"zip":"4928355"},{"town":"横野町","koaza":"東郷","lat":35.261469,"lng":136.754513,"zip":"4928389"},{"town":"片原一色町","koaza":"小山","lat":35.243353,"lng":136.753727,"zip":"4928355"},{"town":"氷室町","koaza":"畑跡","lat":35.207865,"lng":136.754741,"zip":"4928456"},{"town":"平和町中三宅","koaza":"井之上","lat":35.217794,"lng":136.755025,"zip":"4901311"},{"town":"坂田町","koaza":"宮浦","lat":35.213876,"lng":136.75567,"zip":"4928454"},{"town":"片原一色町","koaza":"藤塚","lat":35.242884,"lng":136.755357,"zip":"4928355"},{"town":"平和町観音堂","koaza":"東海塚","lat":35.225423,"lng":136.756135,"zip":"4901302"},{"town":"今村町","koaza":"上新田","lat":35.216697,"lng":136.755743,"zip":"4928453"},{"town":"坂田町","koaza":"屋敷","lat":35.211659,"lng":136.756561,"zip":"4928454"},{"town":"平和町上三宅","koaza":"芳山","lat":35.22047,"lng":136.757137,"zip":"4901303"},{"town":"氷室町","koaza":"道内","lat":35.205787,"lng":136.755886,"zip":"4928456"},{"town":"坂田町","koaza":"郷南","lat":35.209607,"lng":136.756115,"zip":"4928454"},{"town":"氷室町","koaza":"宮前","lat":35.207786,"lng":136.7555,"zip":"4928456"},{"town":"氷室町","koaza":"宮郭","lat":35.20856,"lng":136.755666,"zip":"4928456"},{"town":"氷室町","koaza":"道外","lat":35.205123,"lng":136.756153,"zip":"4928456"},{"town":"片原一色町","koaza":"神宮","lat":35.243997,"lng":136.755659,"zip":"4928355"},{"town":"坂田町","koaza":"貴船","lat":35.210321,"lng":136.758506,"zip":"4928454"},{"town":"今村町","koaza":"下河原","lat":35.215162,"lng":136.756478,"zip":"4928453"},{"town":"平和町観音堂","koaza":"観音堂屋敷","lat":35.225091,"lng":136.757551,"zip":"4901302"},{"town":"西溝口町","koaza":"畑西","lat":35.219656,"lng":136.757689,"zip":"4928452"},{"town":"坂田町","koaza":"北畑","lat":35.214073,"lng":136.758358,"zip":"4928454"},{"town":"今村町","koaza":"西出","lat":35.216905,"lng":136.757672,"zip":"4928453"},{"town":"今村町","koaza":"西宮附","lat":35.21547,"lng":136.757623,"zip":"4928453"},{"town":"清水町","koaza":"郷西","lat":35.259635,"lng":136.757782,"zip":"4928314"},{"town":"坂田町","koaza":"鴻ノ海","lat":35.212747,"lng":136.757776,"zip":"4928454"},{"town":"西溝口町","koaza":"池ノ頭","lat":35.221799,"lng":136.758695,"zip":"4928452"},{"town":"坂田町","koaza":"三味畔","lat":35.214613,"lng":136.758045,"zip":"4928454"},{"town":"清水町","koaza":"宮西","lat":35.258736,"lng":136.758064,"zip":"4928314"},{"town":"清水町","koaza":"鎮守","lat":35.259371,"lng":136.758933,"zip":"4928314"},{"town":"清水町","koaza":"寺前","lat":35.258183,"lng":136.757998,"zip":"4928314"},{"town":"今村町","koaza":"郷","lat":35.216732,"lng":136.759412,"zip":"4928453"},{"town":"清水町","koaza":"円居浦","lat":35.2608,"lng":136.758968,"zip":"4928314"},{"town":"平和町観音堂","koaza":"東河原","lat":35.224896,"lng":136.75943,"zip":"4901302"},{"town":"今村町","koaza":"長畑","lat":35.21474,"lng":136.758895,"zip":"4928453"},{"town":"山口町","koaza":"江西","lat":35.246772,"lng":136.759127,"zip":"4928347"},{"town":"坂田町","koaza":"五丁","lat":35.21378,"lng":136.758985,"zip":"4928454"},{"town":"山口町","koaza":"宮西","lat":35.244524,"lng":136.759071,"zip":"4928347"},{"town":"今村町","koaza":"溝口前","lat":35.21667,"lng":136.760388,"zip":"4928453"},{"town":"西溝口町","koaza":"南郷","lat":35.218819,"lng":136.761303,"zip":"4928452"},{"town":"山口町","koaza":"江東","lat":35.245797,"lng":136.759894,"zip":"4928347"},{"town":"坂田町","koaza":"狐沢","lat":35.211898,"lng":136.762946,"zip":"4928454"},{"town":"今村町","koaza":"沢","lat":35.214025,"lng":136.760644,"zip":"4928453"},{"town":"西溝口町","koaza":"郷浦","lat":35.221119,"lng":136.760851,"zip":"4928452"},{"town":"清水町","koaza":"大田","lat":35.26033,"lng":136.760182,"zip":"4928314"},{"town":"清水町","koaza":"酉新田","lat":35.258418,"lng":136.760626,"zip":"4928314"},{"town":"今村町","koaza":"東宮附","lat":35.214714,"lng":136.761386,"zip":"4928453"},{"town":"今村町","koaza":"丹波","lat":35.215516,"lng":136.761516,"zip":"4928453"},{"town":"浅井町","koaza":"八神","lat":35.25229,"lng":136.762145,"zip":"4928318"},{"town":"浅井町","koaza":"戌亥出","lat":35.255306,"lng":136.763447,"zip":"4928318"},{"town":"西溝口町","koaza":"川原","lat":35.223491,"lng":136.763518,"zip":"4928452"},{"town":"浅井町","koaza":"宮西","lat":35.253972,"lng":136.7643,"zip":"4928318"},{"town":"今村町","koaza":"向沢","lat":35.212651,"lng":136.76419,"zip":"4928453"},{"town":"目比町","koaza":"南出","lat":35.206568,"lng":136.764067,"zip":"4928446"},{"town":"目比町","koaza":"南瀬古","lat":35.207736,"lng":136.763172,"zip":"4928446"},{"town":"今村町","koaza":"江跨","lat":35.213733,"lng":136.763654,"zip":"4928453"},{"town":"目比町","koaza":"西出","lat":35.209177,"lng":136.763112,"zip":"4928446"},{"town":"西溝口町","koaza":"坪之内","lat":35.219643,"lng":136.764113,"zip":"4928452"},{"town":"西溝口町","koaza":"北郷","lat":35.220628,"lng":136.764745,"zip":"4928452"},{"town":"浅井町","koaza":"郷前","lat":35.253561,"lng":136.763814,"zip":"4928318"},{"town":"今村町","koaza":"鳥居前","lat":35.214934,"lng":136.764308,"zip":"4928453"},{"town":"浅井町","koaza":"北出","lat":35.255237,"lng":136.764158,"zip":"4928318"},{"town":"目比町","koaza":"沢","lat":35.211385,"lng":136.764196,"zip":"4928446"},{"town":"西溝口町","koaza":"高瀬","lat":35.224634,"lng":136.765072,"zip":"4928452"},{"town":"目比町","koaza":"西瀬古","lat":35.20896,"lng":136.765014,"zip":"4928446"},{"town":"法花寺町","koaza":"熊ノ山","lat":35.244634,"lng":136.765414,"zip":"4928335"},{"town":"目比町","koaza":"戌亥出","lat":35.209718,"lng":136.765022,"zip":"4928446"},{"town":"浅井町","koaza":"宮前","lat":35.253489,"lng":136.765297,"zip":"4928318"},{"town":"西溝口町","koaza":"第一沼","lat":35.217123,"lng":136.766296,"zip":"4928452"},{"town":"法花寺町","koaza":"藤之宮","lat":35.243077,"lng":136.76551,"zip":"4928335"},{"town":"目比町","koaza":"土井","lat":35.206859,"lng":136.76551,"zip":"4928446"},{"town":"浅井町","koaza":"宮東","lat":35.254785,"lng":136.765044,"zip":"4928318"},{"town":"目比町","koaza":"東瀬古","lat":35.208776,"lng":136.766619,"zip":"4928446"},{"town":"西溝口町","koaza":"白山","lat":35.219436,"lng":136.765734,"zip":"4928452"},{"town":"西溝口町","koaza":"郷東","lat":35.220907,"lng":136.766568,"zip":"4928452"},{"town":"目比町","koaza":"竹ノ腰","lat":35.214831,"lng":136.766943,"zip":"4928446"},{"town":"目比町","koaza":"天神東","lat":35.210341,"lng":136.766734,"zip":"4928446"},{"town":"野崎町","koaza":"新出","lat":35.226025,"lng":136.76789,"zip":"4928447"},{"town":"西溝口町","koaza":"苔","lat":35.222478,"lng":136.766445,"zip":"4928452"},{"town":"法花寺町","koaza":"瀬垣出","lat":35.245718,"lng":136.768195,"zip":"4928335"},{"town":"野崎町","koaza":"三反地","lat":35.219485,"lng":136.768442,"zip":"4928447"},{"town":"野崎町","koaza":"渡所","lat":35.227962,"lng":136.768045,"zip":"4928447"},{"town":"法花寺町","koaza":"渚田","lat":35.242821,"lng":136.767283,"zip":"4928335"},{"town":"法花寺町","koaza":"漆畑","lat":35.244366,"lng":136.767151,"zip":"4928335"},{"town":"浅井町","koaza":"南奥屋","lat":35.253449,"lng":136.767235,"zip":"4928318"},{"town":"矢合町","koaza":"横手","lat":35.238524,"lng":136.768072,"zip":"4928342"},{"town":"浅井町","koaza":"北奥屋","lat":35.255122,"lng":136.767454,"zip":"4928318"},{"town":"矢合町","koaza":"番切","lat":35.239491,"lng":136.768421,"zip":"4928342"},{"town":"矢合町","koaza":"五十歩","lat":35.241191,"lng":136.767896,"zip":"4928342"},{"town":"野崎町","koaza":"本郷","lat":35.221509,"lng":136.768727,"zip":"4928447"},{"town":"西溝口町","koaza":"第二沼","lat":35.216104,"lng":136.768266,"zip":"4928452"},{"town":"下屋町","koaza":"道下","lat":35.251169,"lng":136.767969,"zip":"4928319"},{"town":"目比町","koaza":"古道","lat":35.207552,"lng":136.768704,"zip":"4928446"},{"town":"法花寺町","koaza":"柳細","lat":35.245184,"lng":136.769164,"zip":"4928335"},{"town":"法花寺町","koaza":"橋之下","lat":35.244025,"lng":136.7683,"zip":"4928335"},{"town":"浅井町","koaza":"紅屋","lat":35.255311,"lng":136.768596,"zip":"4928318"},{"town":"野崎町","koaza":"社軍神前","lat":35.224144,"lng":136.768834,"zip":"4928447"},{"town":"矢合町","koaza":"紺屋浦","lat":35.242352,"lng":136.77059,"zip":"4928342"},{"town":"矢合町","koaza":"亥ノ下","lat":35.241716,"lng":136.768685,"zip":"4928342"},{"town":"矢合町","koaza":"山屋敷","lat":35.24058,"lng":136.769664,"zip":"4928342"},{"town":"法花寺町","koaza":"蓑田","lat":35.246989,"lng":136.768655,"zip":"4928335"},{"town":"矢合町","koaza":"寺浦","lat":35.241596,"lng":136.769921,"zip":"4928342"},{"town":"矢合町","koaza":"高松","lat":35.23736,"lng":136.770062,"zip":"4928342"},{"town":"矢合町","koaza":"秋葉屋敷","lat":35.238678,"lng":136.770686,"zip":"4928342"},{"town":"矢合町","koaza":"長畑","lat":35.236667,"lng":136.769335,"zip":"4928342"},{"town":"矢合町","koaza":"江向","lat":35.242255,"lng":136.770226,"zip":"4928342"},{"town":"堀之内町","koaza":"白山","lat":35.228255,"lng":136.77161,"zip":"4928405"},{"town":"目比町","koaza":"山浦","lat":35.207146,"lng":136.771185,"zip":"4928446"},{"town":"野崎町","koaza":"北出","lat":35.223988,"lng":136.770605,"zip":"4928447"},{"town":"堀之内町","koaza":"花ノ木","lat":35.230164,"lng":136.771488,"zip":"4928405"},{"town":"堀之内町","koaza":"一丁田","lat":35.226059,"lng":136.771541,"zip":"4928405"},{"town":"矢合町","koaza":"高畑","lat":35.23387,"lng":136.770728,"zip":"4928342"},{"town":"矢合町","koaza":"五歩一","lat":35.236216,"lng":136.770904,"zip":"4928342"},{"town":"目比町","koaza":"一町割","lat":35.214351,"lng":136.770958,"zip":"4928446"},{"town":"西溝口町","koaza":"第三沼","lat":35.215728,"lng":136.770839,"zip":"4928452"},{"town":"福島町","koaza":"沼角田","lat":35.216161,"lng":136.772793,"zip":"4928441"},{"town":"野崎町","koaza":"丁長","lat":35.21864,"lng":136.771137,"zip":"4928447"},{"town":"矢合町","koaza":"辻初","lat":35.236794,"lng":136.7722,"zip":"4928342"},{"town":"野崎町","koaza":"手ケ島","lat":35.221205,"lng":136.771405,"zip":"4928447"},{"town":"矢合町","koaza":"三島屋敷","lat":35.240345,"lng":136.772014,"zip":"4928342"},{"town":"船橋町","koaza":"観音寺","lat":35.244756,"lng":136.771172,"zip":"4928267"},{"town":"船橋町","koaza":"観音裏","lat":35.245092,"lng":136.772278,"zip":"4928267"},{"town":"矢合町","koaza":"豊穂","lat":35.235567,"lng":136.772491,"zip":"4928342"},{"town":"目比町","koaza":"土深","lat":35.213121,"lng":136.772716,"zip":"4928446"},{"town":"目比町","koaza":"四反割","lat":35.214049,"lng":136.772792,"zip":"4928446"},{"town":"矢合町","koaza":"三吉跡","lat":35.238682,"lng":136.772908,"zip":"4928342"},{"town":"矢合町","koaza":"定井","lat":35.242197,"lng":136.773008,"zip":"4928342"},{"town":"矢合町","koaza":"三島前","lat":35.241086,"lng":136.77314,"zip":"4928342"},{"town":"矢合町","koaza":"喜蔵屋敷","lat":35.23972,"lng":136.774085,"zip":"4928342"},{"town":"船橋町","koaza":"屋敷","lat":35.244586,"lng":136.774467,"zip":"4928267"},{"town":"福島町","koaza":"中浦","lat":35.219747,"lng":136.775602,"zip":"4928441"},{"town":"南麻績町","koaza":"八反畑","lat":35.207558,"lng":136.773922,"zip":"4928445"},{"town":"矢合町","koaza":"壱本松","lat":35.242056,"lng":136.774653,"zip":"4928342"},{"town":"船橋町","koaza":"前田","lat":35.243729,"lng":136.774684,"zip":"4928267"},{"town":"矢合町","koaza":"宮西","lat":35.235094,"lng":136.774078,"zip":"4928342"},{"town":"矢合町","koaza":"椎ノ木","lat":35.234446,"lng":136.773739,"zip":"4928342"},{"town":"堀之内町","koaza":"梅林","lat":35.230052,"lng":136.775458,"zip":"4928405"},{"town":"堀之内町","koaza":"西郷","lat":35.228255,"lng":136.773754,"zip":"4928405"},{"town":"堀之内町","koaza":"大門","lat":35.230463,"lng":136.77419,"zip":"4928405"},{"town":"堀之内町","koaza":"横枕","lat":35.226097,"lng":136.775447,"zip":"4928405"},{"town":"船橋町","koaza":"葉黒","lat":35.245875,"lng":136.774369,"zip":"4928267"},{"town":"福島町","koaza":"比舎田","lat":35.223148,"lng":136.774585,"zip":"4928441"},{"town":"矢合町","koaza":"鈴置西","lat":35.236317,"lng":136.77368,"zip":"4928342"},{"town":"船橋町","koaza":"鯉坪","lat":35.249078,"lng":136.773983,"zip":"4928267"},{"town":"矢合町","koaza":"城跡","lat":35.240894,"lng":136.774543,"zip":"4928342"},{"town":"堀之内町","koaza":"深田","lat":35.227187,"lng":136.774236,"zip":"4928405"},{"town":"矢合町","koaza":"市神前","lat":35.237948,"lng":136.774233,"zip":"4928342"},{"town":"矢合町","koaza":"面棒堀","lat":35.236722,"lng":136.775242,"zip":"4928342"},{"town":"矢合町","koaza":"市神東","lat":35.23919,"lng":136.775204,"zip":"4928342"},{"town":"福島町","koaza":"沢西","lat":35.216239,"lng":136.776685,"zip":"4928441"},{"town":"北麻績町","koaza":"沼","lat":35.214086,"lng":136.775308,"zip":"4928448"},{"town":"堀之内町","koaza":"東郷","lat":35.227858,"lng":136.775333,"zip":"4928405"},{"town":"堀之内町","koaza":"山細","lat":35.229483,"lng":136.775215,"zip":"4928405"},{"town":"矢合町","koaza":"宮屋敷","lat":35.235222,"lng":136.775502,"zip":"4928342"},{"town":"福島町","koaza":"大門","lat":35.224324,"lng":136.774983,"zip":"4928441"},{"town":"矢合町","koaza":"内廻間","lat":35.234303,"lng":136.775631,"zip":"4928342"},{"town":"矢合町","koaza":"浦ノ田","lat":35.241957,"lng":136.775815,"zip":"4928342"},{"town":"船橋町","koaza":"阿原","lat":35.243196,"lng":136.776461,"zip":"4928267"},{"town":"船橋町","koaza":"大塚","lat":35.246015,"lng":136.776271,"zip":"4928267"},{"town":"矢合町","koaza":"輿屋敷","lat":35.241431,"lng":136.777664,"zip":"4928342"},{"town":"北麻績町","koaza":"三反地","lat":35.21406,"lng":136.776206,"zip":"4928448"},{"town":"南麻績町","koaza":"阿島田","lat":35.209129,"lng":136.775935,"zip":"4928445"},{"town":"南麻績町","koaza":"中良牧","lat":35.210774,"lng":136.776043,"zip":"4928445"},{"town":"矢合町","koaza":"七々代","lat":35.238064,"lng":136.776649,"zip":"4928342"},{"town":"南麻績町","koaza":"郷内","lat":35.209924,"lng":136.778756,"zip":"4928445"},{"town":"矢合町","koaza":"押出し","lat":35.239142,"lng":136.776801,"zip":"4928342"},{"town":"矢合町","koaza":"東浦","lat":35.236462,"lng":136.777446,"zip":"4928342"},{"town":"矢合町","koaza":"大塚","lat":35.237286,"lng":136.776613,"zip":"4928342"},{"town":"堀之内町","koaza":"宮島","lat":35.229246,"lng":136.776994,"zip":"4928405"},{"town":"南麻績町","koaza":"新井浦","lat":35.210833,"lng":136.777174,"zip":"4928445"},{"town":"福島町","koaza":"屋敷","lat":35.221654,"lng":136.779167,"zip":"4928441"},{"town":"矢合町","koaza":"留道","lat":35.239689,"lng":136.777146,"zip":"4928342"},{"town":"北麻績町","koaza":"郷西","lat":35.214676,"lng":136.777694,"zip":"4928448"},{"town":"矢合町","koaza":"寺田","lat":35.235748,"lng":136.776811,"zip":"4928342"},{"town":"船橋町","koaza":"市場","lat":35.243127,"lng":136.778217,"zip":"4928267"},{"town":"福島町","koaza":"大福寺","lat":35.224172,"lng":136.778229,"zip":"4928441"},{"town":"矢合町","koaza":"鈴置東","lat":35.234552,"lng":136.777035,"zip":"4928342"},{"town":"梅須賀町","koaza":"南廻間","lat":35.231981,"lng":136.778618,"zip":"4928401"},{"town":"北麻績町","koaza":"郷前","lat":35.212488,"lng":136.777936,"zip":"4928448"},{"town":"船橋町","koaza":"宮裏","lat":35.246092,"lng":136.778309,"zip":"4928267"},{"town":"船橋町","koaza":"笠数見","lat":35.249123,"lng":136.777638,"zip":"4928267"},{"town":"北麻績町","koaza":"宮西","lat":35.215614,"lng":136.778402,"zip":"4928448"},{"town":"南麻績町","koaza":"郷前","lat":35.208321,"lng":136.77896,"zip":"4928445"},{"town":"堀之内町","koaza":"高畑","lat":35.230627,"lng":136.778587,"zip":"4928405"},{"town":"福島町","koaza":"中之町","lat":35.2187,"lng":136.779506,"zip":"4928441"},{"town":"梅須賀町","koaza":"北廻間","lat":35.233139,"lng":136.77823,"zip":"4928401"},{"town":"船橋町","koaza":"花ノ木","lat":35.248623,"lng":136.778954,"zip":"4928267"},{"town":"北麻績町","koaza":"郷内","lat":35.213716,"lng":136.778956,"zip":"4928448"},{"town":"北麻績町","koaza":"祢宜田","lat":35.215268,"lng":136.77941,"zip":"4928448"},{"town":"堀之内町","koaza":"廻間","lat":35.231262,"lng":136.779342,"zip":"4928405"},{"town":"北麻績町","koaza":"麻畑","lat":35.214408,"lng":136.780037,"zip":"4928448"},{"town":"北麻績町","koaza":"三狐宮","lat":35.213139,"lng":136.779962,"zip":"4928448"},{"town":"梅須賀町","koaza":"北鈴置","lat":35.234521,"lng":136.780155,"zip":"4928401"},{"town":"千代町","koaza":"宮南","lat":35.226493,"lng":136.781057,"zip":"4928402"},{"town":"梅須賀町","koaza":"田之端","lat":35.233873,"lng":136.781046,"zip":"4928401"},{"town":"梅須賀町","koaza":"姫苅","lat":35.234802,"lng":136.781231,"zip":"4928401"},{"town":"附島町","koaza":"郷西","lat":35.220947,"lng":136.782969,"zip":"4928442"},{"town":"牛踏町","koaza":"芳野","lat":35.218431,"lng":136.781664,"zip":"4928443"},{"town":"込野町","koaza":"元屋敷","lat":35.210148,"lng":136.783534,"zip":"4928444"},{"town":"千代町","koaza":"社宮地","lat":35.226818,"lng":136.782496,"zip":"4928402"},{"town":"千代町","koaza":"中郷","lat":35.225259,"lng":136.78311,"zip":"4928402"},{"town":"附島町","koaza":"郷前","lat":35.217396,"lng":136.784212,"zip":"4928442"},{"town":"梅須賀町","koaza":"西北切","lat":35.233227,"lng":136.785324,"zip":"4928401"},{"town":"附島町","koaza":"西浦","lat":35.219194,"lng":136.782783,"zip":"4928442"},{"town":"附島町","koaza":"屋敷","lat":35.220418,"lng":136.784224,"zip":"4928442"},{"town":"込野町","koaza":"郷中","lat":35.212695,"lng":136.784924,"zip":"4928444"},{"town":"千代町","koaza":"天神","lat":35.225262,"lng":136.784136,"zip":"4928402"},{"town":"込野町","koaza":"榎戸","lat":35.215122,"lng":136.785599,"zip":"4928444"},{"town":"木全町","koaza":"庄前","lat":35.258363,"lng":136.786178,"zip":"4928209"},{"town":"梅須賀町","koaza":"西南切","lat":35.232472,"lng":136.784746,"zip":"4928401"},{"town":"千代町","koaza":"御堂先","lat":35.224433,"lng":136.784763,"zip":"4928402"},{"town":"千代町","koaza":"東丁畑","lat":35.22615,"lng":136.784899,"zip":"4928402"},{"town":"附島町","koaza":"三味西","lat":35.218434,"lng":136.785454,"zip":"4928442"},{"town":"平野町","koaza":"加世","lat":35.240407,"lng":136.787186,"zip":"4928264"},{"town":"千代町","koaza":"東郷","lat":35.224996,"lng":136.785811,"zip":"4928402"},{"town":"附島町","koaza":"郷東","lat":35.219817,"lng":136.787551,"zip":"4928442"},{"town":"附島町","koaza":"甚兵衛東","lat":35.220098,"lng":136.785518,"zip":"4928442"},{"town":"千代町","koaza":"高土井","lat":35.223687,"lng":136.785644,"zip":"4928402"},{"town":"附島町","koaza":"正明寺","lat":35.218883,"lng":136.786169,"zip":"4928442"},{"town":"附島町","koaza":"天神南","lat":35.217204,"lng":136.786677,"zip":"4928442"},{"town":"稲沢町","koaza":"下田","lat":35.248005,"lng":136.787656,"zip":"4928217"},{"town":"込野町","koaza":"平松","lat":35.214715,"lng":136.78723,"zip":"4928444"},{"town":"平野町","koaza":"天神浦","lat":35.239533,"lng":136.786957,"zip":"4928264"},{"town":"込野町","koaza":"浄道寺","lat":35.213066,"lng":136.787712,"zip":"4928444"},{"town":"梅須賀町","koaza":"江崎","lat":35.233644,"lng":136.78669,"zip":"4928401"},{"town":"梅須賀町","koaza":"中切","lat":35.233449,"lng":136.787243,"zip":"4928401"},{"town":"千代町","koaza":"一色前","lat":35.224602,"lng":136.787434,"zip":"4928402"},{"town":"梅須賀町","koaza":"東切","lat":35.233266,"lng":136.788067,"zip":"4928401"},{"town":"稲沢町","koaza":"前田","lat":35.248745,"lng":136.792729,"zip":"4928217"},{"town":"池部町","koaza":"向丁長","lat":35.246861,"lng":136.788622,"zip":"4928262"},{"town":"梅須賀町","koaza":"山之畑","lat":35.234133,"lng":136.789466,"zip":"4928401"},{"town":"千代町","koaza":"東廻間","lat":35.22727,"lng":136.789565,"zip":"4928402"},{"town":"千代町","koaza":"砂畑","lat":35.226571,"lng":136.789536,"zip":"4928402"},{"town":"大塚町","koaza":"塚畑","lat":35.246073,"lng":136.790134,"zip":"4928216"},{"town":"梅須賀町","koaza":"阿古根","lat":35.228882,"lng":136.790645,"zip":"4928401"},{"town":"梅須賀町","koaza":"御宮田","lat":35.229799,"lng":136.790065,"zip":"4928401"},{"town":"稲沢町","koaza":"北山","lat":35.255666,"lng":136.791947,"zip":"4928217"},{"town":"梅須賀町","koaza":"下棒田","lat":35.230148,"lng":136.791149,"zip":"4928401"},{"town":"稲沢町","koaza":"札ノ辻","lat":35.253939,"lng":136.791725,"zip":"4928217"},{"town":"大塚町","koaza":"神明海道","lat":35.247497,"lng":136.791622,"zip":"4928216"},{"town":"大矢町","koaza":"寛蓮寺","lat":35.217631,"lng":136.791862,"zip":"4928412"},{"town":"大塚町","koaza":"大宮廻","lat":35.247832,"lng":136.791627,"zip":"4928216"},{"town":"北島町","koaza":"江西","lat":35.228301,"lng":136.791567,"zip":"4928411"},{"town":"梅須賀町","koaza":"井島","lat":35.234178,"lng":136.793376,"zip":"4928401"},{"town":"梅須賀町","koaza":"江向","lat":35.234666,"lng":136.792486,"zip":"4928401"},{"town":"大矢町","koaza":"北浦","lat":35.219639,"lng":136.793249,"zip":"4928412"},{"town":"大矢町","koaza":"村内下","lat":35.214327,"lng":136.792704,"zip":"4928412"},{"town":"大矢町","koaza":"村内中","lat":35.216289,"lng":136.793625,"zip":"4928412"},{"town":"大矢町","koaza":"村内上","lat":35.217641,"lng":136.79364,"zip":"4928412"},{"town":"稲沢町","koaza":"割田","lat":35.257409,"lng":136.793027,"zip":"4928217"},{"town":"北島町","koaza":"二ツ野","lat":35.22434,"lng":136.793406,"zip":"4928411"},{"town":"大矢町","koaza":"高松","lat":35.221592,"lng":136.794492,"zip":"4928412"},{"town":"大矢町","koaza":"地内前","lat":35.213436,"lng":136.793555,"zip":"4928412"},{"town":"北島町","koaza":"流","lat":35.222769,"lng":136.794506,"zip":"4928411"},{"town":"大矢町","koaza":"茨島","lat":35.213697,"lng":136.795312,"zip":"4928412"},{"town":"北島町","koaza":"西畑","lat":35.226656,"lng":136.794986,"zip":"4928411"},{"town":"大矢町","koaza":"寺脇","lat":35.217901,"lng":136.795591,"zip":"4928412"},{"town":"北島町","koaza":"皿屋敷","lat":35.226307,"lng":136.795842,"zip":"4928411"},{"town":"稲島町","koaza":"寺部","lat":35.26511,"lng":136.795617,"zip":"4928207"},{"town":"大矢町","koaza":"五反地","lat":35.215001,"lng":136.797802,"zip":"4928412"},{"town":"大矢町","koaza":"三條田","lat":35.215807,"lng":136.797819,"zip":"4928412"},{"town":"北島町","koaza":"西屋敷","lat":35.227357,"lng":136.795801,"zip":"4928411"},{"town":"大矢町","koaza":"地蔵堂","lat":35.217049,"lng":136.796604,"zip":"4928412"},{"town":"北島町","koaza":"亀坪","lat":35.23321,"lng":136.796139,"zip":"4928411"},{"town":"北島町","koaza":"千野地","lat":35.232783,"lng":136.796678,"zip":"4928411"},{"town":"稲島町","koaza":"茜部","lat":35.267803,"lng":136.796535,"zip":"4928207"},{"town":"北島町","koaza":"上中","lat":35.228271,"lng":136.796768,"zip":"4928411"},{"town":"大矢町","koaza":"大矢田","lat":35.220491,"lng":136.796438,"zip":"4928412"},{"town":"北島町","koaza":"西之町","lat":35.221483,"lng":136.797598,"zip":"4928411"},{"town":"北島町","koaza":"江崎","lat":35.222769,"lng":136.79672,"zip":"4928411"},{"town":"北島町","koaza":"戸杁","lat":35.224273,"lng":136.796749,"zip":"4928411"},{"town":"稲島町","koaza":"高縄手","lat":35.263154,"lng":136.796814,"zip":"4928207"},{"town":"稲島町","koaza":"八反田","lat":35.265129,"lng":136.79683,"zip":"4928207"},{"town":"北島町","koaza":"中切","lat":35.227096,"lng":136.799166,"zip":"4928411"},{"town":"稲島町","koaza":"二ノ宮","lat":35.268496,"lng":136.79794,"zip":"4928207"},{"town":"北島町","koaza":"市場前","lat":35.225445,"lng":136.799125,"zip":"4928411"},{"town":"稲島町","koaza":"島田","lat":35.263377,"lng":136.797762,"zip":"4928207"},{"town":"北島町","koaza":"戌亥","lat":35.232677,"lng":136.798091,"zip":"4928411"},{"town":"北島町","koaza":"城","lat":35.228872,"lng":136.79819,"zip":"4928411"},{"town":"島町","koaza":"樋田","lat":35.267922,"lng":136.799149,"zip":"4928205"},{"town":"稲島町","koaza":"東畑","lat":35.263737,"lng":136.799213,"zip":"4928207"},{"town":"北島町","koaza":"三反地","lat":35.23242,"lng":136.800509,"zip":"4928411"},{"town":"島町","koaza":"天之越","lat":35.270173,"lng":136.799456,"zip":"4928205"},{"town":"島町","koaza":"金辻","lat":35.269191,"lng":136.798922,"zip":"4928205"},{"town":"北島町","koaza":"笠破","lat":35.23314,"lng":136.799221,"zip":"4928411"},{"town":"大塚町","koaza":"松葉添","lat":35.239438,"lng":136.799171,"zip":"4928216"},{"town":"稲島町","koaza":"天神","lat":35.266078,"lng":136.799168,"zip":"4928207"},{"town":"大塚町","koaza":"善世","lat":35.240118,"lng":136.799091,"zip":"4928216"},{"town":"島町","koaza":"本郷","lat":35.269095,"lng":136.799743,"zip":"4928205"},{"town":"七ツ寺町","koaza":"長島","lat":35.219294,"lng":136.800771,"zip":"4928439"},{"town":"七ツ寺町","koaza":"屋敷","lat":35.217829,"lng":136.800471,"zip":"4928439"},{"town":"北島町","koaza":"樽丸","lat":35.221024,"lng":136.802022,"zip":"4928411"},{"town":"北島町","koaza":"新田","lat":35.224251,"lng":136.801712,"zip":"4928411"},{"town":"島町","koaza":"下畑","lat":35.266074,"lng":136.799501,"zip":"4928205"},{"town":"稲島町","koaza":"北屋","lat":35.263666,"lng":136.800269,"zip":"4928207"},{"town":"七ツ寺町","koaza":"仁王前","lat":35.21537,"lng":136.800163,"zip":"4928439"},{"town":"島町","koaza":"普照堂","lat":35.267953,"lng":136.800167,"zip":"4928205"},{"town":"北島町","koaza":"小柳","lat":35.233119,"lng":136.80132,"zip":"4928411"},{"town":"奥田町","koaza":"八反田","lat":35.233599,"lng":136.801119,"zip":"4928233"},{"town":"奥田町","koaza":"六畝六歩","lat":35.234806,"lng":136.801553,"zip":"4928233"},{"town":"北島町","koaza":"六所","lat":35.226896,"lng":136.801208,"zip":"4928411"},{"town":"北島町","koaza":"宝田","lat":35.224999,"lng":136.801264,"zip":"4928411"},{"town":"奥田町","koaza":"下二条","lat":35.236093,"lng":136.800699,"zip":"4928233"},{"town":"島町","koaza":"北浦","lat":35.270408,"lng":136.801886,"zip":"4928205"},{"town":"七ツ寺町","koaza":"地蔵前","lat":35.215678,"lng":136.801454,"zip":"4928439"},{"town":"稲島町","koaza":"石畑","lat":35.2637,"lng":136.800978,"zip":"4928207"},{"town":"稲島町","koaza":"虫観音","lat":35.26324,"lng":136.801761,"zip":"4928207"},{"town":"七ツ寺町","koaza":"経蔵前","lat":35.216531,"lng":136.801695,"zip":"4928439"},{"town":"奥田町","koaza":"上一条","lat":35.236647,"lng":136.802109,"zip":"4928233"},{"town":"島町","koaza":"寺西","lat":35.269179,"lng":136.802437,"zip":"4928205"},{"town":"奥田町","koaza":"北魚取場","lat":35.233555,"lng":136.801887,"zip":"4928233"},{"town":"奥田町","koaza":"南魚取場","lat":35.232564,"lng":136.801897,"zip":"4928233"},{"town":"島町","koaza":"於波計","lat":35.265564,"lng":136.801904,"zip":"4928205"},{"town":"島町","koaza":"免定田","lat":35.26843,"lng":136.802018,"zip":"4928205"},{"town":"奥田町","koaza":"四反地","lat":35.234491,"lng":136.802061,"zip":"4928233"},{"town":"北島町","koaza":"榎前","lat":35.222679,"lng":136.802698,"zip":"4928411"},{"town":"奥田町","koaza":"下一条","lat":35.235781,"lng":136.802169,"zip":"4928233"},{"town":"稲島町","koaza":"上流","lat":35.264022,"lng":136.80223,"zip":"4928207"},{"town":"奥田町","koaza":"上二条","lat":35.23664,"lng":136.802248,"zip":"4928233"},{"town":"中之庄町","koaza":"丸田","lat":35.218416,"lng":136.804763,"zip":"4928435"},{"town":"中之庄町","koaza":"川田","lat":35.219568,"lng":136.802613,"zip":"4928435"},{"town":"北島町","koaza":"大門西","lat":35.225571,"lng":136.802707,"zip":"4928411"},{"town":"島町","koaza":"上農間","lat":35.267277,"lng":136.803161,"zip":"4928205"},{"town":"稲島町","koaza":"高須賀","lat":35.263018,"lng":136.803164,"zip":"4928207"},{"town":"島町","koaza":"東之郷","lat":35.268095,"lng":136.803966,"zip":"4928205"},{"town":"稲島町","koaza":"洲原西","lat":35.260762,"lng":136.803104,"zip":"4928207"},{"town":"北島町","koaza":"大門東","lat":35.225351,"lng":136.804007,"zip":"4928411"},{"town":"稲島町","koaza":"三狐神","lat":35.259731,"lng":136.803164,"zip":"4928207"},{"town":"稲島法成寺町","koaza":"東狭間","lat":35.258605,"lng":136.803328,"zip":"4928206"},{"town":"稲島町","koaza":"桐畑","lat":35.258958,"lng":136.803195,"zip":"4928207"},{"town":"堀田町","koaza":"杁崎","lat":35.214343,"lng":136.803221,"zip":"4928438"},{"town":"堀田町","koaza":"浦","lat":35.214359,"lng":136.803737,"zip":"4928438"},{"town":"中之庄町","koaza":"前田","lat":35.2157,"lng":136.803989,"zip":"4928435"},{"town":"稲島町","koaza":"洲原東","lat":35.26056,"lng":136.804392,"zip":"4928207"},{"town":"島町","koaza":"新田","lat":35.266206,"lng":136.803541,"zip":"4928205"},{"town":"稲島町","koaza":"洲原","lat":35.259924,"lng":136.804044,"zip":"4928207"},{"town":"国府宮町","koaza":"諏訪","lat":35.259259,"lng":136.803624,"zip":"4928138"},{"town":"島町","koaza":"郷前","lat":35.267254,"lng":136.803734,"zip":"4928205"},{"town":"稲島町","koaza":"川東","lat":35.263122,"lng":136.804033,"zip":"4928207"},{"town":"北島町","koaza":"蕨野","lat":35.222369,"lng":136.804091,"zip":"4928411"},{"town":"北島町","koaza":"米屋境","lat":35.224467,"lng":136.804646,"zip":"4928411"},{"town":"北島町","koaza":"大門前","lat":35.224512,"lng":136.803888,"zip":"4928411"},{"town":"島町","koaza":"高須賀","lat":35.266397,"lng":136.804128,"zip":"4928205"},{"town":"国府宮町","koaza":"手枕","lat":35.259345,"lng":136.805377,"zip":"4928138"},{"town":"稲島町","koaza":"寺山","lat":35.264041,"lng":136.805395,"zip":"4928207"},{"town":"稲島町","koaza":"北山ノ内","lat":35.262758,"lng":136.804771,"zip":"4928207"},{"town":"稲島町","koaza":"下山ノ内","lat":35.260814,"lng":136.805458,"zip":"4928207"},{"town":"中之庄町","koaza":"辻畑","lat":35.218114,"lng":136.806706,"zip":"4928435"},{"town":"稲島町","koaza":"中川","lat":35.262487,"lng":136.806021,"zip":"4928207"},{"town":"子生和町","koaza":"西屋敷","lat":35.270277,"lng":136.806253,"zip":"4928106"},{"town":"子生和町","koaza":"北屋敷","lat":35.271446,"lng":136.806544,"zip":"4928106"},{"town":"稲島法成寺町","koaza":"下山ノ内","lat":35.260859,"lng":136.806344,"zip":"4928206"},{"town":"子生和町","koaza":"南屋敷","lat":35.268364,"lng":136.807418,"zip":"4928106"},{"town":"子生和町","koaza":"中屋敷","lat":35.270183,"lng":136.80668,"zip":"4928106"},{"town":"高重町","koaza":"郷クロ","lat":35.222106,"lng":136.807355,"zip":"4928422"},{"town":"小池正明寺町","koaza":"西長田","lat":35.244108,"lng":136.807234,"zip":"4928147"},{"town":"小池正明寺町","koaza":"ヲアト","lat":35.243724,"lng":136.807374,"zip":"4928147"},{"town":"長束町","koaza":"沼","lat":35.243236,"lng":136.808974,"zip":"4928167"},{"town":"小池正明寺町","koaza":"鍵田","lat":35.24332,"lng":136.808223,"zip":"4928147"},{"town":"小池正明寺町","koaza":"下長田","lat":35.24412,"lng":136.807974,"zip":"4928147"},{"town":"長束町","koaza":"カキ田","lat":35.241428,"lng":136.808836,"zip":"4928167"},{"town":"高重町","koaza":"鉄久曽","lat":35.22393,"lng":136.808373,"zip":"4928422"},{"town":"小池正明寺町","koaza":"千束","lat":35.244066,"lng":136.809012,"zip":"4928147"},{"town":"高重町","koaza":"屋敷","lat":35.222445,"lng":136.809486,"zip":"4928422"},{"town":"奥田町","koaza":"南出","lat":35.224763,"lng":136.809803,"zip":"4928233"},{"town":"高重町","koaza":"浦","lat":35.223833,"lng":136.809024,"zip":"4928422"},{"town":"長束町","koaza":"青木田","lat":35.240157,"lng":136.810572,"zip":"4928167"},{"town":"中之庄町","koaza":"長堤","lat":35.218131,"lng":136.81,"zip":"4928435"},{"town":"奥田町","koaza":"計用","lat":35.225555,"lng":136.8089,"zip":"4928233"},{"town":"奥田町","koaza":"文七西","lat":35.226052,"lng":136.809686,"zip":"4928233"},{"town":"奥田町","koaza":"寺切","lat":35.228651,"lng":136.810777,"zip":"4928233"},{"town":"奥田町","koaza":"城戸切","lat":35.227587,"lng":136.811153,"zip":"4928233"},{"town":"長束町","koaza":"観音寺田","lat":35.243813,"lng":136.809848,"zip":"4928167"},{"town":"奥田町","koaza":"田畑切","lat":35.225758,"lng":136.810662,"zip":"4928233"},{"town":"奥田町","koaza":"中切前","lat":35.229921,"lng":136.809892,"zip":"4928233"},{"town":"高重町","koaza":"新規道","lat":35.221874,"lng":136.8097,"zip":"4928422"},{"town":"子生和町","koaza":"東込戸","lat":35.273934,"lng":136.810923,"zip":"4928106"},{"town":"奥田町","koaza":"中島","lat":35.224764,"lng":136.810497,"zip":"4928233"},{"town":"奥田町","koaza":"北円蔵坊","lat":35.229822,"lng":136.811052,"zip":"4928233"},{"town":"長束町","koaza":"北浦","lat":35.245022,"lng":136.812245,"zip":"4928167"},{"town":"長束町","koaza":"鳥居先","lat":35.241511,"lng":136.81116,"zip":"4928167"},{"town":"小池正明寺町","koaza":"北街道","lat":35.2567,"lng":136.811072,"zip":"4928147"},{"town":"長束町","koaza":"座守","lat":35.243703,"lng":136.812642,"zip":"4928167"},{"town":"奥田町","koaza":"夜須摩","lat":35.226084,"lng":136.811179,"zip":"4928233"},{"town":"長束町","koaza":"沙弥","lat":35.240925,"lng":136.812326,"zip":"4928167"},{"town":"長束町","koaza":"上福寺","lat":35.242443,"lng":136.813621,"zip":"4928167"},{"town":"中之庄町","koaza":"海道附","lat":35.216136,"lng":136.813978,"zip":"4928435"},{"town":"中之庄町","koaza":"赤切","lat":35.218735,"lng":136.813979,"zip":"4928435"},{"town":"中之庄町","koaza":"高上","lat":35.219414,"lng":136.814543,"zip":"4928435"},{"town":"中之庄町","koaza":"行燈","lat":35.221058,"lng":136.814515,"zip":"4928435"},{"town":"長野町","koaza":"五輪","lat":35.261426,"lng":136.817726,"zip":"4928141"},{"town":"小池正明寺町","koaza":"東川田","lat":35.245928,"lng":136.815542,"zip":"4928147"},{"town":"赤池町","koaza":"池ノ神","lat":35.274527,"lng":136.816754,"zip":"4928008"},{"town":"奥田町","koaza":"山ケ田","lat":35.229138,"lng":136.816613,"zip":"4928233"},{"town":"赤池町","koaza":"松山","lat":35.274144,"lng":136.81767,"zip":"4928008"},{"town":"増田町","koaza":"江越","lat":35.222629,"lng":136.817019,"zip":"4928428"},{"town":"長野町","koaza":"横曽","lat":35.260217,"lng":136.816385,"zip":"4928141"},{"town":"奥田町","koaza":"古知野","lat":35.22848,"lng":136.817028,"zip":"4928233"},{"town":"奥田町","koaza":"東井之上","lat":35.230306,"lng":136.816725,"zip":"4928233"},{"town":"奥田町","koaza":"北内沖","lat":35.229809,"lng":136.818601,"zip":"4928233"},{"town":"奥田町","koaza":"三十番神","lat":35.226804,"lng":136.818309,"zip":"4928233"},{"town":"長野町","koaza":"鞍掛","lat":35.260128,"lng":136.817718,"zip":"4928141"},{"town":"長野町","koaza":"西小井戸","lat":35.258928,"lng":136.818896,"zip":"4928141"},{"town":"奥田町","koaza":"南内沖","lat":35.228322,"lng":136.818343,"zip":"4928233"},{"town":"奥田町","koaza":"度々免喜","lat":35.225767,"lng":136.818233,"zip":"4928233"},{"town":"赤池町","koaza":"前山","lat":35.273305,"lng":136.818559,"zip":"4928008"},{"town":"長野町","koaza":"北浦","lat":35.257266,"lng":136.819864,"zip":"4928141"},{"town":"長野町","koaza":"土所","lat":35.25665,"lng":136.819979,"zip":"4928141"},{"town":"下津町","koaza":"北六反田","lat":35.252127,"lng":136.822072,"zip":"4928075"},{"town":"下津町","koaza":"西森","lat":35.250914,"lng":136.822861,"zip":"4928075"},{"town":"下津町","koaza":"南中切","lat":35.249633,"lng":136.823295,"zip":"4928075"},{"town":"下津町","koaza":"鳥帽子","lat":35.248647,"lng":136.823603,"zip":"4928075"},{"town":"下津町","koaza":"北カマ","lat":35.248169,"lng":136.824157,"zip":"4928075"},{"town":"下津町","koaza":"南カマ","lat":35.247413,"lng":136.824476,"zip":"4928075"},{"town":"井之口町","koaza":"西四反畑","lat":35.246495,"lng":136.82475,"zip":"4928153"},{"town":"下津町","koaza":"南丹波","lat":35.249138,"lng":136.824258,"zip":"4928075"},{"town":"増田町","koaza":"郷前","lat":35.215857,"lng":136.824625,"zip":"4928428"},{"town":"井之口町","koaza":"石畑","lat":35.245496,"lng":136.825257,"zip":"4928153"},{"town":"井之口町","koaza":"長畑","lat":35.244491,"lng":136.825716,"zip":"4928153"},{"town":"井之口町","koaza":"川北西","lat":35.242806,"lng":136.826522,"zip":"4928153"},{"town":"井之口町","koaza":"中四反畑","lat":35.246358,"lng":136.826405,"zip":"4928153"},{"town":"井之口町","koaza":"高畑","lat":35.244798,"lng":136.826363,"zip":"4928153"},{"town":"井之口町","koaza":"川北東","lat":35.241782,"lng":136.826227,"zip":"4928153"},{"town":"下津町","koaza":"銚子原","lat":35.247244,"lng":136.827478,"zip":"4928075"},{"town":"井之口町","koaza":"東屋敷","lat":35.239558,"lng":136.828079,"zip":"4928153"},{"town":"下津町","koaza":"流","lat":35.250606,"lng":136.827601,"zip":"4928075"},{"town":"井之口町","koaza":"大宮西","lat":35.242975,"lng":136.82723,"zip":"4928153"},{"town":"井之口町","koaza":"山王前","lat":35.242343,"lng":136.828019,"zip":"4928153"},{"town":"井之口町","koaza":"唐入北","lat":35.241311,"lng":136.828209,"zip":"4928153"},{"town":"井之口町","koaza":"大宮前","lat":35.243551,"lng":136.828526,"zip":"4928153"},{"town":"赤池町","koaza":"東山","lat":35.272133,"lng":136.829155,"zip":"4928008"},{"town":"井之口町","koaza":"友左東","lat":35.240366,"lng":136.82848,"zip":"4928153"},{"town":"下津町","koaza":"西国府","lat":35.253494,"lng":136.829846,"zip":"4928075"},{"town":"下津町","koaza":"東国府","lat":35.253466,"lng":136.830614,"zip":"4928075"},{"town":"井之口町","koaza":"河原","lat":35.241952,"lng":136.82882,"zip":"4928153"},{"town":"井之口町","koaza":"出町裏","lat":35.236787,"lng":136.829033,"zip":"4928153"},{"town":"井之口町","koaza":"大宮浦","lat":35.244735,"lng":136.828786,"zip":"4928153"},{"town":"下津町","koaza":"南下河原","lat":35.244094,"lng":136.829396,"zip":"4928075"},{"town":"井之口町","koaza":"南センドフ","lat":35.244732,"lng":136.829141,"zip":"4928153"},{"town":"井之口町","koaza":"大道北","lat":35.239404,"lng":136.82911,"zip":"4928153"},{"town":"井之口町","koaza":"池向","lat":35.235649,"lng":136.829589,"zip":"4928153"},{"town":"赤池町","koaza":"八反野","lat":35.270463,"lng":136.829574,"zip":"4928008"},{"town":"井之口町","koaza":"出町前","lat":35.236543,"lng":136.829865,"zip":"4928153"},{"town":"下津町","koaza":"南堀田","lat":35.249244,"lng":136.829726,"zip":"4928075"},{"town":"下津町","koaza":"西下町","lat":35.249612,"lng":136.830122,"zip":"4928075"},{"town":"下津町","koaza":"西クタラケ","lat":35.247621,"lng":136.830761,"zip":"4928075"},{"town":"下津町","koaza":"東下町","lat":35.250217,"lng":136.831411,"zip":"4928075"},{"town":"下津町","koaza":"西知光寺","lat":35.249665,"lng":136.831259,"zip":"4928075"},{"town":"下津町","koaza":"元番神","lat":35.250852,"lng":136.831706,"zip":"4928075"},{"town":"日下部町","koaza":"立部","lat":35.228904,"lng":136.83316,"zip":"4928186"},{"town":"日下部町","koaza":"河原","lat":35.227904,"lng":136.833592,"zip":"4928186"},{"town":"北市場町","koaza":"西玄野","lat":35.227042,"lng":136.83428,"zip":"4928173"},{"town":"北市場町","koaza":"玄野","lat":35.226887,"lng":136.835287,"zip":"4928173"},{"town":"北市場町","koaza":"古三味","lat":35.225238,"lng":136.835587,"zip":"4928173"},{"town":"北市場町","koaza":"東玄野","lat":35.226196,"lng":136.835044,"zip":"4928173"},{"town":"北市場町","koaza":"町東","lat":35.229388,"lng":136.838375,"zip":"4928173"},{"town":"平和町東城","koaza":"外山","lat":35.201692,"lng":136.744311,"zip":"4901321"}]