[{"town":"吉良町饗庭","koaza":"","lat":34.806594,"lng":137.077034,"zip":"4440523"},{"town":"葵町","koaza":"","lat":34.863584,"lng":137.049631,"zip":"4450863"},{"town":"一色町赤羽","koaza":"","lat":34.817098,"lng":137.018621,"zip":"4440427"},{"town":"一色町味浜","koaza":"","lat":34.814832,"lng":137.021273,"zip":"4440422"},{"town":"吾妻町","koaza":"","lat":34.865106,"lng":137.053291,"zip":"4450861"},{"town":"一色町生田","koaza":"","lat":34.783879,"lng":137.029955,"zip":"4440412"},{"town":"一色町池田","koaza":"","lat":34.817281,"lng":137.040937,"zip":"4440401"},{"town":"和泉町","koaza":"","lat":34.867804,"lng":137.055407,"zip":"4450824"},{"town":"市子町","koaza":"","lat":34.828569,"lng":137.041226,"zip":"4450055"},{"town":"一色町一色","koaza":"","lat":34.810117,"lng":137.024955,"zip":"4440423"},{"town":"伊藤一丁目","koaza":"","lat":34.880332,"lng":137.051727,"zip":"4450807"},{"town":"伊藤二丁目","koaza":"","lat":34.880635,"lng":137.05406,"zip":"4450807"},{"town":"伊藤三丁目","koaza":"","lat":34.878269,"lng":137.054091,"zip":"4450807"},{"town":"伊藤四丁目","koaza":"","lat":34.877577,"lng":137.052199,"zip":"4450807"},{"town":"伊藤五丁目","koaza":"","lat":34.878077,"lng":137.049989,"zip":"4450807"},{"town":"伊藤町","koaza":"","lat":34.882958,"lng":137.052889,"zip":"4450806"},{"town":"伊文町","koaza":"","lat":34.870037,"lng":137.056876,"zip":"4450822"},{"town":"今川町","koaza":"","lat":34.854765,"lng":137.062411,"zip":"4450063"},{"town":"鵜ケ池町","koaza":"","lat":34.843446,"lng":137.063723,"zip":"4450043"},{"town":"永楽町一丁目","koaza":"","lat":34.868427,"lng":137.057873,"zip":"4450854"},{"town":"永楽町二丁目","koaza":"","lat":34.867001,"lng":137.056407,"zip":"4450854"},{"town":"永楽町三丁目","koaza":"","lat":34.865997,"lng":137.055448,"zip":"4450854"},{"town":"永楽町四丁目","koaza":"","lat":34.864659,"lng":137.054216,"zip":"4450854"},{"town":"永楽町五丁目","koaza":"","lat":34.863642,"lng":137.05312,"zip":"4450854"},{"town":"永楽町六丁目","koaza":"","lat":34.862755,"lng":137.05287,"zip":"4450854"},{"town":"家武町","koaza":"","lat":34.853945,"lng":137.102625,"zip":"4450031"},{"town":"江原町","koaza":"","lat":34.871145,"lng":137.090859,"zip":"4450026"},{"town":"吉良町大島","koaza":"","lat":34.794796,"lng":137.05006,"zip":"4440517"},{"town":"一色町大塚","koaza":"","lat":34.808451,"lng":137.046649,"zip":"4440402"},{"town":"大和田町","koaza":"","lat":34.862121,"lng":137.080032,"zip":"4450024"},{"town":"岡島町","koaza":"","lat":34.865355,"lng":137.092643,"zip":"4450022"},{"town":"吉良町岡山","koaza":"","lat":34.842397,"lng":137.07865,"zip":"4440531"},{"town":"大給町","koaza":"","lat":34.871119,"lng":137.054202,"zip":"4450831"},{"town":"吉良町荻原","koaza":"","lat":34.807752,"lng":137.06382,"zip":"4440524"},{"town":"奥田町十丁目","koaza":"","lat":34.828535,"lng":136.994147,"zip":"4440333"},{"town":"奥田町一丁目","koaza":"","lat":34.838319,"lng":136.99293,"zip":"4440333"},{"town":"奥田町二丁目","koaza":"","lat":34.83709,"lng":136.989277,"zip":"4440333"},{"town":"奥田町三丁目","koaza":"","lat":34.836413,"lng":136.991751,"zip":"4440333"},{"town":"奥田町四丁目","koaza":"","lat":34.835662,"lng":136.993944,"zip":"4440333"},{"town":"奥田町五丁目","koaza":"","lat":34.834953,"lng":136.996597,"zip":"4440333"},{"town":"奥田町六丁目","koaza":"","lat":34.833317,"lng":136.987693,"zip":"4440333"},{"town":"奥田町七丁目","koaza":"","lat":34.831807,"lng":136.990142,"zip":"4440333"},{"town":"奥田町八丁目","koaza":"","lat":34.830125,"lng":136.991738,"zip":"4440333"},{"town":"奥田町九丁目","koaza":"","lat":34.831104,"lng":136.995105,"zip":"4440333"},{"town":"小栗町","koaza":"","lat":34.852136,"lng":136.994424,"zip":"4440332"},{"town":"小栗町一丁目","koaza":"","lat":34.853303,"lng":136.996093,"zip":"4440332"},{"town":"小栗町二丁目","koaza":"","lat":34.848263,"lng":136.99608,"zip":"4440332"},{"town":"小栗町三丁目","koaza":"","lat":34.844943,"lng":136.994805,"zip":"4440332"},{"town":"小栗町四丁目","koaza":"","lat":34.840568,"lng":136.993676,"zip":"4440332"},{"town":"小栗町五丁目","koaza":"","lat":34.843307,"lng":137.002278,"zip":"4440332"},{"town":"小栗町六丁目","koaza":"","lat":34.839855,"lng":137.000863,"zip":"4440332"},{"town":"小島町","koaza":"","lat":34.882103,"lng":137.09395,"zip":"4450006"},{"town":"吉良町乙川","koaza":"","lat":34.791182,"lng":137.093257,"zip":"4440512"},{"town":"尾花町","koaza":"","lat":34.873487,"lng":137.098013,"zip":"4450027"},{"town":"小間町","koaza":"","lat":34.876439,"lng":137.030021,"zip":"4450893"},{"town":"吉良町小山田","koaza":"","lat":34.801137,"lng":137.084854,"zip":"4440511"},{"town":"一色町開正","koaza":"","lat":34.826042,"lng":137.026898,"zip":"4440421"},{"town":"会生町","koaza":"","lat":34.867692,"lng":137.054079,"zip":"4450825"},{"town":"貝吹町","koaza":"","lat":34.8748,"lng":137.117663,"zip":"4450013"},{"town":"鎌谷町","koaza":"","lat":34.838146,"lng":137.064072,"zip":"4450044"},{"town":"神下町","koaza":"","lat":34.869077,"lng":137.057468,"zip":"4450823"},{"town":"上道目記町","koaza":"","lat":34.835375,"lng":137.039033,"zip":"4450882"},{"town":"上永良町","koaza":"","lat":34.875029,"lng":137.109256,"zip":"4450017"},{"town":"上羽角町","koaza":"","lat":34.882456,"lng":137.131914,"zip":"4450011"},{"town":"上町","koaza":"","lat":34.877537,"lng":137.040165,"zip":"4450894"},{"town":"上矢田町","koaza":"","lat":34.851021,"lng":137.028608,"zip":"4440313"},{"town":"吉良町上横須賀","koaza":"","lat":34.828491,"lng":137.071291,"zip":"4440521"},{"town":"亀沢町","koaza":"","lat":34.873785,"lng":137.051173,"zip":"4450847"},{"town":"刈宿町","koaza":"","lat":34.830899,"lng":137.014767,"zip":"4440321"},{"town":"川口町","koaza":"","lat":34.84726,"lng":137.050097,"zip":"4450873"},{"town":"瓦町","koaza":"","lat":34.870118,"lng":137.054107,"zip":"4450832"},{"town":"吉良町木田","koaza":"","lat":34.834682,"lng":137.077395,"zip":"4440534"},{"town":"北旭町","koaza":"","lat":34.86718,"lng":137.05566,"zip":"4450857"},{"town":"行用町","koaza":"","lat":34.830026,"lng":137.023731,"zip":"4450885"},{"town":"錦城町","koaza":"","lat":34.866513,"lng":137.049451,"zip":"4450864"},{"town":"楠村町","koaza":"","lat":34.855403,"lng":137.016473,"zip":"4440325"},{"town":"国森町","koaza":"","lat":34.854857,"lng":137.034295,"zip":"4440312"},{"town":"熊味町","koaza":"","lat":34.86944,"lng":137.072631,"zip":"4450071"},{"town":"花蔵寺町","koaza":"","lat":34.850731,"lng":137.084118,"zip":"4450035"},{"town":"吉良町小牧","koaza":"","lat":34.829952,"lng":137.081477,"zip":"4440535"},{"town":"駒場町","koaza":"","lat":34.865464,"lng":137.101716,"zip":"4450021"},{"town":"巨海町","koaza":"","lat":34.833149,"lng":137.010624,"zip":"4440322"},{"town":"米野町","koaza":"","lat":34.881771,"lng":137.102574,"zip":"4450005"},{"town":"小焼野町","koaza":"","lat":34.852949,"lng":137.073899,"zip":"4450041"},{"town":"一色町小薮","koaza":"","lat":34.79992,"lng":137.013479,"zip":"4440424"},{"town":"斉藤町","koaza":"","lat":34.834908,"lng":137.048222,"zip":"4450056"},{"town":"幸町","koaza":"","lat":34.867952,"lng":137.052095,"zip":"4450827"},{"town":"吉良町酒井","koaza":"","lat":34.81614,"lng":137.077567,"zip":"4440537"},{"town":"一色町坂田新田","koaza":"","lat":34.792073,"lng":137.020692,"zip":"4440413"},{"town":"一色町酒手島","koaza":"","lat":34.794484,"lng":137.029929,"zip":"4440415"},{"town":"肴町","koaza":"","lat":34.869108,"lng":137.052887,"zip":"4450835"},{"town":"一色町佐久島","koaza":"","lat":34.723487,"lng":137.034508,"zip":"4440416"},{"town":"桜木町一丁目","koaza":"","lat":34.868363,"lng":137.058749,"zip":"4450853"},{"town":"桜木町二丁目","koaza":"","lat":34.866993,"lng":137.057551,"zip":"4450853"},{"town":"桜木町三丁目","koaza":"","lat":34.865773,"lng":137.056453,"zip":"4450853"},{"town":"桜木町四丁目","koaza":"","lat":34.864075,"lng":137.055379,"zip":"4450853"},{"town":"桜木町五丁目","koaza":"","lat":34.862893,"lng":137.054545,"zip":"4450853"},{"town":"桜木町六丁目","koaza":"","lat":34.862074,"lng":137.05388,"zip":"4450853"},{"town":"桜木町七丁目","koaza":"","lat":34.861343,"lng":137.053396,"zip":"4450853"},{"town":"桜町","koaza":"","lat":34.880995,"lng":137.056589,"zip":"4450803"},{"town":"桜町一丁目","koaza":"","lat":34.881871,"lng":137.058601,"zip":"4450803"},{"town":"桜町二丁目","koaza":"","lat":34.883844,"lng":137.059675,"zip":"4450803"},{"town":"桜町三丁目","koaza":"","lat":34.884247,"lng":137.060976,"zip":"4450803"},{"town":"桜町四丁目","koaza":"","lat":34.882187,"lng":137.060802,"zip":"4450803"},{"town":"桜町五丁目","koaza":"","lat":34.881108,"lng":137.06037,"zip":"4450803"},{"town":"笹曽根町","koaza":"","lat":34.818934,"lng":137.049659,"zip":"4450053"},{"town":"塩町","koaza":"","lat":34.865792,"lng":137.052801,"zip":"4450866"},{"town":"志貴野町","koaza":"","lat":34.888545,"lng":137.078029,"zip":"4450084"},{"town":"志籠谷町","koaza":"","lat":34.881207,"lng":137.084481,"zip":"4450081"},{"town":"一色町治明","koaza":"","lat":34.822283,"lng":137.009778,"zip":"4440426"},{"town":"下道目記町","koaza":"","lat":34.832853,"lng":137.033044,"zip":"4450883"},{"town":"下永良町","koaza":"","lat":34.871722,"lng":137.103599,"zip":"4450016"},{"town":"下羽角町","koaza":"","lat":34.878187,"lng":137.125763,"zip":"4450012"},{"town":"下町","koaza":"","lat":34.869538,"lng":137.040493,"zip":"4450891"},{"town":"下矢田町","koaza":"","lat":34.845777,"lng":137.02635,"zip":"4440314"},{"town":"吉良町下横須賀","koaza":"","lat":34.823476,"lng":137.063629,"zip":"4440522"},{"town":"十郎島町","koaza":"","lat":34.837685,"lng":137.056421,"zip":"4450045"},{"town":"順海町","koaza":"","lat":34.868917,"lng":137.054089,"zip":"4450834"},{"town":"吉良町白浜新田","koaza":"","lat":34.786047,"lng":137.08128,"zip":"4440514"},{"town":"城崎町一丁目","koaza":"","lat":34.867728,"lng":137.060888,"zip":"4450065"},{"town":"城崎町二丁目","koaza":"","lat":34.866069,"lng":137.059773,"zip":"4450065"},{"town":"城崎町三丁目","koaza":"","lat":34.86511,"lng":137.059134,"zip":"4450065"},{"town":"城崎町四丁目","koaza":"","lat":34.86308,"lng":137.057537,"zip":"4450065"},{"town":"城崎町五丁目","koaza":"","lat":34.8618,"lng":137.056585,"zip":"4450065"},{"town":"城崎町六丁目","koaza":"","lat":34.860856,"lng":137.055894,"zip":"4450065"},{"town":"城崎町七丁目","koaza":"","lat":34.859797,"lng":137.055322,"zip":"4450065"},{"town":"新在家一丁目","koaza":"","lat":34.857987,"lng":137.040535,"zip":"4450878"},{"town":"新在家町","koaza":"","lat":34.857149,"lng":137.037957,"zip":"4440311"},{"town":"新渡場一丁目","koaza":"","lat":34.884231,"lng":137.062701,"zip":"4450076"},{"town":"新渡場二丁目","koaza":"","lat":34.885867,"lng":137.065182,"zip":"4450076"},{"town":"新渡場町","koaza":"","lat":34.886228,"lng":137.061842,"zip":"4450077"},{"town":"新村町","koaza":"","lat":34.89416,"lng":137.10795,"zip":"4450002"},{"town":"新屋敷町","koaza":"","lat":34.873907,"lng":137.054616,"zip":"4450814"},{"town":"末広町","koaza":"","lat":34.871216,"lng":137.049058,"zip":"4450844"},{"town":"菅原町","koaza":"","lat":34.874745,"lng":137.05632,"zip":"4450815"},{"town":"須田町","koaza":"","lat":34.864432,"lng":137.051233,"zip":"4450862"},{"town":"住崎一丁目","koaza":"","lat":34.860056,"lng":137.044553,"zip":"4450879"},{"town":"住崎二丁目","koaza":"","lat":34.858278,"lng":137.043954,"zip":"4450879"},{"town":"住崎三丁目","koaza":"","lat":34.858197,"lng":137.046318,"zip":"4450879"},{"town":"住崎四丁目","koaza":"","lat":34.856181,"lng":137.044786,"zip":"4450879"},{"town":"住崎五丁目","koaza":"","lat":34.857028,"lng":137.04276,"zip":"4450879"},{"town":"住崎六丁目","koaza":"","lat":34.855939,"lng":137.042202,"zip":"4450879"},{"town":"住崎町","koaza":"","lat":34.861865,"lng":137.040681,"zip":"4450876"},{"town":"住吉町一丁目","koaza":"","lat":34.867833,"lng":137.060143,"zip":"4450851"},{"town":"住吉町二丁目","koaza":"","lat":34.866389,"lng":137.059083,"zip":"4450851"},{"town":"住吉町三丁目","koaza":"","lat":34.86531,"lng":137.058472,"zip":"4450851"},{"town":"住吉町四丁目","koaza":"","lat":34.86385,"lng":137.057324,"zip":"4450851"},{"town":"住吉町五丁目","koaza":"","lat":34.862138,"lng":137.055964,"zip":"4450851"},{"town":"住吉町六丁目","koaza":"","lat":34.861172,"lng":137.055283,"zip":"4450851"},{"town":"住吉町七丁目","koaza":"","lat":34.860349,"lng":137.054695,"zip":"4450851"},{"town":"須脇町","koaza":"","lat":34.839931,"lng":137.051419,"zip":"4450046"},{"town":"吉良町瀬戸","koaza":"","lat":34.842616,"lng":137.090941,"zip":"4440532"},{"town":"一色町千間","koaza":"","lat":34.784844,"lng":137.043546,"zip":"4440411"},{"town":"善明町","koaza":"","lat":34.847264,"lng":137.096707,"zip":"4450034"},{"town":"一色町惣五郎","koaza":"","lat":34.799768,"lng":137.03475,"zip":"4440405"},{"town":"高落町","koaza":"","lat":34.900082,"lng":137.110038,"zip":"4450001"},{"town":"高河原町","koaza":"","lat":34.858812,"lng":137.085116,"zip":"4450023"},{"town":"高砂町","koaza":"","lat":34.866649,"lng":137.054692,"zip":"4450856"},{"town":"高畠町一丁目","koaza":"","lat":34.867539,"lng":137.061639,"zip":"4450064"},{"town":"高畠町二丁目","koaza":"","lat":34.865798,"lng":137.060467,"zip":"4450064"},{"town":"高畠町三丁目","koaza":"","lat":34.863841,"lng":137.059449,"zip":"4450064"},{"town":"高畠町四丁目","koaza":"","lat":34.86214,"lng":137.058634,"zip":"4450064"},{"town":"高畠町五丁目","koaza":"","lat":34.861401,"lng":137.057737,"zip":"4450064"},{"town":"高畠町六丁目","koaza":"","lat":34.860324,"lng":137.056984,"zip":"4450064"},{"town":"高畠町七丁目","koaza":"","lat":34.859256,"lng":137.056553,"zip":"4450064"},{"town":"宅野島町","koaza":"","lat":34.847956,"lng":137.07155,"zip":"4450042"},{"town":"竹山町","koaza":"","lat":34.866565,"lng":137.113021,"zip":"4450015"},{"town":"田貫一丁目","koaza":"","lat":34.868779,"lng":137.024631,"zip":"4440302"},{"town":"田貫二丁目","koaza":"","lat":34.868131,"lng":137.026531,"zip":"4440302"},{"town":"田貫三丁目","koaza":"","lat":34.867233,"lng":137.024577,"zip":"4440302"},{"town":"田貫四丁目","koaza":"","lat":34.865981,"lng":137.02578,"zip":"4440302"},{"town":"田貫町","koaza":"","lat":34.87174,"lng":137.023732,"zip":"4440301"},{"town":"千歳町","koaza":"","lat":34.871631,"lng":137.047836,"zip":"4450846"},{"town":"丁田町","koaza":"","lat":34.860165,"lng":137.064798,"zip":"4450062"},{"town":"一色町対米","koaza":"","lat":34.805738,"lng":137.034536,"zip":"4440406"},{"town":"つくしが丘一丁目","koaza":"","lat":34.869469,"lng":137.10847,"zip":"4450014"},{"town":"つくしが丘二丁目","koaza":"","lat":34.869726,"lng":137.110322,"zip":"4450014"},{"town":"つくしが丘三丁目","koaza":"","lat":34.870868,"lng":137.110966,"zip":"4450014"},{"town":"つくしが丘四丁目","koaza":"","lat":34.86963,"lng":137.113503,"zip":"4450014"},{"town":"つくしが丘五丁目","koaza":"","lat":34.868062,"lng":137.109806,"zip":"4450014"},{"town":"つくしが丘六丁目","koaza":"","lat":34.866254,"lng":137.110053,"zip":"4450014"},{"town":"吉良町津平","koaza":"","lat":34.824771,"lng":137.104685,"zip":"4440503"},{"town":"鶴ケ崎町","koaza":"","lat":34.869212,"lng":137.050476,"zip":"4450837"},{"town":"鶴城町","koaza":"","lat":34.87638,"lng":137.055115,"zip":"4450805"},{"town":"鶴舞町","koaza":"","lat":34.870901,"lng":137.047532,"zip":"4450845"},{"town":"吉良町寺嶋","koaza":"","lat":34.83295,"lng":137.085027,"zip":"4440533"},{"town":"寺津一丁目","koaza":"","lat":34.849865,"lng":137.016236,"zip":"4440327"},{"town":"寺津二丁目","koaza":"","lat":34.849692,"lng":137.018255,"zip":"4440327"},{"town":"寺津三丁目","koaza":"","lat":34.847897,"lng":137.018095,"zip":"4440327"},{"town":"寺津四丁目","koaza":"","lat":34.848165,"lng":137.01552,"zip":"4440327"},{"town":"寺津町","koaza":"","lat":34.845368,"lng":137.014304,"zip":"4440324"},{"town":"寺部町","koaza":"","lat":34.787601,"lng":137.126006,"zip":"4440702"},{"town":"天竹町","koaza":"","lat":34.831943,"lng":137.059914,"zip":"4450051"},{"town":"天神町","koaza":"","lat":34.870781,"lng":137.049867,"zip":"4450843"},{"town":"天王町","koaza":"","lat":34.86947,"lng":137.054303,"zip":"4450833"},{"town":"道光寺一丁目","koaza":"","lat":34.875088,"lng":137.061925,"zip":"4450812"},{"town":"道光寺町","koaza":"","lat":34.873101,"lng":137.059821,"zip":"4450811"},{"town":"戸ケ崎一丁目","koaza":"","lat":34.876442,"lng":137.062342,"zip":"4450075"},{"town":"戸ケ崎二丁目","koaza":"","lat":34.8782,"lng":137.064355,"zip":"4450075"},{"town":"戸ケ崎三丁目","koaza":"","lat":34.881592,"lng":137.06416,"zip":"4450075"},{"town":"戸ケ崎四丁目","koaza":"","lat":34.881349,"lng":137.067651,"zip":"4450075"},{"town":"戸ケ崎五丁目","koaza":"","lat":34.885122,"lng":137.06603,"zip":"4450075"},{"town":"戸ケ崎町","koaza":"","lat":34.880177,"lng":137.069293,"zip":"4450074"},{"town":"徳次町","koaza":"","lat":34.864624,"lng":137.07169,"zip":"4450072"},{"town":"徳永町","koaza":"","lat":34.841592,"lng":137.02451,"zip":"4440315"},{"town":"鳥羽町","koaza":"","lat":34.800743,"lng":137.102294,"zip":"4440704"},{"town":"吉良町富田","koaza":"","lat":34.812711,"lng":137.060005,"zip":"4440525"},{"town":"富山町","koaza":"","lat":34.854645,"lng":137.022639,"zip":"4440326"},{"town":"吉良町富好新田","koaza":"","lat":34.793454,"lng":137.080956,"zip":"4440515"},{"town":"吉良町友国","koaza":"","lat":34.817428,"lng":137.090239,"zip":"4440504"},{"town":"一色町中外沢","koaza":"","lat":34.811235,"lng":137.013644,"zip":"4440428"},{"town":"長縄町","koaza":"","lat":34.845041,"lng":137.037628,"zip":"4450887"},{"town":"中根町","koaza":"","lat":34.831988,"lng":136.999643,"zip":"4440323"},{"town":"吉良町中野","koaza":"","lat":34.822909,"lng":137.077707,"zip":"4440536"},{"town":"中畑一丁目","koaza":"","lat":34.868096,"lng":137.0209,"zip":"4440304"},{"town":"中畑二丁目","koaza":"","lat":34.867047,"lng":137.020902,"zip":"4440304"},{"town":"中畑町","koaza":"","lat":34.869712,"lng":137.011498,"zip":"4440303"},{"town":"中原町","koaza":"","lat":34.88412,"lng":137.075644,"zip":"4450083"},{"town":"中町","koaza":"","lat":34.869605,"lng":137.05193,"zip":"4450836"},{"town":"永吉一丁目","koaza":"","lat":34.861993,"lng":137.050355,"zip":"4450870"},{"town":"永吉二丁目","koaza":"","lat":34.861026,"lng":137.05135,"zip":"4450870"},{"town":"永吉三丁目","koaza":"","lat":34.861019,"lng":137.048789,"zip":"4450870"},{"town":"永吉四丁目","koaza":"","lat":34.859212,"lng":137.048053,"zip":"4450870"},{"town":"永吉町","koaza":"","lat":34.860862,"lng":137.052415,"zip":"4450871"},{"town":"熱池町","koaza":"","lat":34.838893,"lng":137.041593,"zip":"4450881"},{"town":"西浅井町","koaza":"","lat":34.889377,"lng":137.098377,"zip":"4450004"},{"town":"西奥田町","koaza":"","lat":34.841261,"lng":136.987456,"zip":"4440336"},{"town":"西奥田町一丁目","koaza":"","lat":34.847469,"lng":136.992059,"zip":"4440336"},{"town":"西奥田町二丁目","koaza":"","lat":34.84305,"lng":136.9896,"zip":"4440336"},{"town":"西奥田町三丁目","koaza":"","lat":34.8393,"lng":136.987494,"zip":"4440336"},{"town":"西奥田町四丁目","koaza":"","lat":34.83562,"lng":136.985658,"zip":"4440336"},{"town":"西小梛町","koaza":"","lat":34.864577,"lng":137.00131,"zip":"4440331"},{"town":"西小梛町一丁目","koaza":"","lat":34.861136,"lng":137.00364,"zip":"4440331"},{"town":"西小梛町二丁目","koaza":"","lat":34.858346,"lng":137.002873,"zip":"4440331"},{"town":"西小梛町三丁目","koaza":"","lat":34.855225,"lng":137.002071,"zip":"4440331"},{"town":"西小梛町四丁目","koaza":"","lat":34.851814,"lng":137.008757,"zip":"4440331"},{"town":"西小梛町五丁目","koaza":"","lat":34.852152,"lng":137.004834,"zip":"4440331"},{"town":"西小梛町六丁目","koaza":"","lat":34.852867,"lng":136.998769,"zip":"4440331"},{"town":"西小梛町七丁目","koaza":"","lat":34.84922,"lng":137.005769,"zip":"4440331"},{"town":"西小梛町八丁目","koaza":"","lat":34.846828,"lng":137.004739,"zip":"4440331"},{"town":"西小梛町九丁目","koaza":"","lat":34.845356,"lng":137.002395,"zip":"4440331"},{"town":"西幡豆町","koaza":"","lat":34.808591,"lng":137.12873,"zip":"4440703"},{"town":"一色町野田","koaza":"","lat":34.800848,"lng":137.039321,"zip":"4440404"},{"town":"野々宮町","koaza":"","lat":34.831162,"lng":137.050349,"zip":"4450057"},{"town":"八ケ尻町","koaza":"","lat":34.825822,"lng":137.03186,"zip":"4450884"},{"town":"吉良町八幡川田","koaza":"","lat":34.81259,"lng":137.052606,"zip":"4440526"},{"town":"羽塚町","koaza":"","lat":34.860684,"lng":137.027594,"zip":"4440316"},{"town":"花ノ木町一丁目","koaza":"","lat":34.868015,"lng":137.059389,"zip":"4450852"},{"town":"花ノ木町二丁目","koaza":"","lat":34.866661,"lng":137.058402,"zip":"4450852"},{"town":"花ノ木町三丁目","koaza":"","lat":34.86508,"lng":137.057283,"zip":"4450852"},{"town":"花ノ木町四丁目","koaza":"","lat":34.863609,"lng":137.056256,"zip":"4450852"},{"town":"花ノ木町五丁目","koaza":"","lat":34.86243,"lng":137.055411,"zip":"4450852"},{"town":"花ノ木町六丁目","koaza":"","lat":34.861609,"lng":137.054564,"zip":"4450852"},{"town":"花ノ木町七丁目","koaza":"","lat":34.860804,"lng":137.054021,"zip":"4450852"},{"town":"馬場町","koaza":"","lat":34.871076,"lng":137.052095,"zip":"4450841"},{"town":"針曽根町","koaza":"","lat":34.838977,"lng":137.031728,"zip":"4450886"},{"town":"東浅井町","koaza":"","lat":34.891138,"lng":137.110276,"zip":"4450003"},{"town":"東幡豆町","koaza":"","lat":34.803124,"lng":137.153907,"zip":"4440701"},{"town":"菱池町","koaza":"","lat":34.84472,"lng":137.044322,"zip":"4450874"},{"town":"平口町","koaza":"","lat":34.825054,"lng":137.049077,"zip":"4450054"},{"town":"平原町","koaza":"","lat":34.852998,"lng":137.120172,"zip":"4450032"},{"town":"深池町","koaza":"","lat":34.851402,"lng":137.043811,"zip":"4450875"},{"town":"一色町藤江","koaza":"","lat":34.799333,"lng":137.026932,"zip":"4440414"},{"town":"平坂町","koaza":"","lat":34.86082,"lng":137.014771,"zip":"4440305"},{"town":"平坂吉山一丁目","koaza":"","lat":34.858577,"lng":137.023124,"zip":"4440328"},{"town":"平坂吉山二丁目","koaza":"","lat":34.857304,"lng":137.022968,"zip":"4440328"},{"town":"法光寺町","koaza":"","lat":34.867699,"lng":137.031872,"zip":"4450892"},{"town":"細池町","koaza":"","lat":34.845846,"lng":137.055465,"zip":"4450047"},{"town":"一色町細川","koaza":"","lat":34.813621,"lng":137.003751,"zip":"4440425"},{"town":"本町","koaza":"","lat":34.866573,"lng":137.052376,"zip":"4450865"},{"town":"一色町前野","koaza":"","lat":34.810519,"lng":137.030903,"zip":"4440407"},{"town":"吉良町駮馬","koaza":"","lat":34.83813,"lng":137.103749,"zip":"4440501"},{"town":"一色町松木島","koaza":"","lat":34.791764,"lng":137.044749,"zip":"4440403"},{"town":"満全町","koaza":"","lat":34.86794,"lng":137.053147,"zip":"4450826"},{"town":"緑町一丁目","koaza":"","lat":34.877553,"lng":137.058676,"zip":"4450804"},{"town":"緑町二丁目","koaza":"","lat":34.878872,"lng":137.058672,"zip":"4450804"},{"town":"緑町三丁目","koaza":"","lat":34.879631,"lng":137.059211,"zip":"4450804"},{"town":"緑町四丁目","koaza":"","lat":34.879622,"lng":137.061526,"zip":"4450804"},{"town":"緑町五丁目","koaza":"","lat":34.877715,"lng":137.060996,"zip":"4450804"},{"town":"港町","koaza":"","lat":34.821999,"lng":136.98281,"zip":"4440335"},{"town":"南旭町","koaza":"","lat":34.866173,"lng":137.054795,"zip":"4450855"},{"town":"南奥田町","koaza":"","lat":34.830054,"lng":136.98267,"zip":"4440334"},{"town":"南中根町","koaza":"","lat":34.904433,"lng":137.058311,"zip":"4450801"},{"town":"吉良町宮崎","koaza":"","lat":34.780899,"lng":137.089113,"zip":"4440513"},{"town":"吉良町宮迫","koaza":"","lat":34.832289,"lng":137.129481,"zip":"4440502"},{"town":"宮町","koaza":"","lat":34.874154,"lng":137.057092,"zip":"4450816"},{"town":"室町","koaza":"","lat":34.854315,"lng":137.095757,"zip":"4450033"},{"town":"矢曽根町","koaza":"","lat":34.856581,"lng":137.051611,"zip":"4450872"},{"town":"八ツ面町","koaza":"","lat":34.877354,"lng":137.074539,"zip":"4450082"},{"town":"矢場町","koaza":"","lat":34.870573,"lng":137.056016,"zip":"4450821"},{"town":"山下町","koaza":"","lat":34.864383,"lng":137.042274,"zip":"4450877"},{"town":"弥生町","koaza":"","lat":34.871187,"lng":137.051205,"zip":"4450842"},{"town":"一色町養ケ島","koaza":"","lat":34.817262,"lng":137.012002,"zip":"4440429"},{"town":"横手町","koaza":"","lat":34.829324,"lng":137.056255,"zip":"4450052"},{"town":"吉良町吉田","koaza":"","lat":34.790184,"lng":137.064904,"zip":"4440516"},{"town":"米津町","koaza":"","lat":34.89225,"lng":137.056757,"zip":"4450802"},{"town":"寄住町","koaza":"","lat":34.867706,"lng":137.064191,"zip":"4450073"},{"town":"寄近町","koaza":"","lat":34.85917,"lng":137.074178,"zip":"4450061"},{"town":"若松町","koaza":"","lat":34.868836,"lng":137.059683,"zip":"4450813"},{"town":"和気町","koaza":"","lat":34.867884,"lng":137.082135,"zip":"4450025"},{"town":"羽塚西ノ山一丁目","koaza":"","lat":34.858224,"lng":137.025616,"zip":"4440317"},{"town":"羽塚西ノ山二丁目","koaza":"","lat":34.85938,"lng":137.024491,"zip":"4440317"},{"town":"寺津五丁目","koaza":"","lat":34.849424,"lng":137.02065,"zip":"4440327"},{"town":"富山一丁目","koaza":"","lat":34.853446,"lng":137.020838,"zip":"4440329"},{"town":"富山二丁目","koaza":"","lat":34.851284,"lng":137.019031,"zip":"4440329"},{"town":"矢田一丁目","koaza":"","lat":34.851941,"lng":137.022751,"zip":"4440318"},{"town":"矢田二丁目","koaza":"","lat":34.849916,"lng":137.021535,"zip":"4440318"},{"town":"南奥田町","koaza":"新田西","lat":34.832981,"lng":136.983588,"zip":"4440334"},{"town":"南奥田町","koaza":"新田東","lat":34.826184,"lng":136.988035,"zip":"4440334"},{"town":"小栗町","koaza":"上ノ切用水西","lat":34.85006,"lng":136.99559,"zip":"4440332"},{"town":"一色町細川","koaza":"大岡四ノ割","lat":34.818609,"lng":136.998596,"zip":"4440425"},{"town":"一色町細川","koaza":"大岡一ノ割","lat":34.822543,"lng":136.99801,"zip":"4440425"},{"town":"一色町細川","koaza":"大岡五ノ割","lat":34.817662,"lng":137.000911,"zip":"4440425"},{"town":"一色町細川","koaza":"西実録","lat":34.80599,"lng":137.003249,"zip":"4440425"},{"town":"一色町細川","koaza":"大岡六ノ割","lat":34.815584,"lng":137.000005,"zip":"4440425"},{"town":"一色町治明","koaza":"丑新田北ノ切","lat":34.824546,"lng":137.003141,"zip":"4440426"},{"town":"一色町治明","koaza":"丑北","lat":34.824106,"lng":137.003662,"zip":"4440426"},{"town":"西小梛町","koaza":"己改","lat":34.865797,"lng":137.002739,"zip":"4440331"},{"town":"一色町細川","koaza":"四番割","lat":34.812173,"lng":137.003733,"zip":"4440425"},{"town":"一色町細川","koaza":"三番割","lat":34.814754,"lng":137.003424,"zip":"4440425"},{"town":"西小梛町","koaza":"ロノ割","lat":34.864724,"lng":137.003032,"zip":"4440331"},{"town":"一色町治明","koaza":"丑中","lat":34.822237,"lng":137.004768,"zip":"4440426"},{"town":"一色町細川","koaza":"汐浜","lat":34.816718,"lng":137.004823,"zip":"4440425"},{"town":"中根町","koaza":"一ノ割西","lat":34.836749,"lng":137.005377,"zip":"4440323"},{"town":"中根町","koaza":"四ノ割東","lat":34.830442,"lng":137.004834,"zip":"4440323"},{"town":"西小梛町","koaza":"上イノ割","lat":34.863699,"lng":137.004556,"zip":"4440331"},{"town":"中根町","koaza":"中根","lat":34.828095,"lng":137.006548,"zip":"4440323"},{"town":"一色町治明","koaza":"西側","lat":34.824702,"lng":137.005712,"zip":"4440426"},{"town":"中畑町","koaza":"稲洲","lat":34.867001,"lng":137.004986,"zip":"4440303"},{"town":"一色町小薮","koaza":"宮前","lat":34.807166,"lng":137.006875,"zip":"4440424"},{"town":"中畑町","koaza":"卯新田下","lat":34.865543,"lng":137.005165,"zip":"4440303"},{"town":"西小梛町","koaza":"道場前","lat":34.863045,"lng":137.005557,"zip":"4440331"},{"town":"一色町治明","koaza":"村前","lat":34.823897,"lng":137.007107,"zip":"4440426"},{"town":"一色町治明","koaza":"社西","lat":34.825727,"lng":137.006484,"zip":"4440426"},{"town":"巨海町","koaza":"西割","lat":34.827931,"lng":137.010166,"zip":"4440322"},{"town":"巨海町","koaza":"西古川","lat":34.832101,"lng":137.009183,"zip":"4440322"},{"town":"一色町小薮","koaza":"船江西","lat":34.800022,"lng":137.009323,"zip":"4440424"},{"town":"平坂町","koaza":"三ノ切","lat":34.854405,"lng":137.007189,"zip":"4440305"},{"town":"一色町小薮","koaza":"会所前","lat":34.805642,"lng":137.008847,"zip":"4440424"},{"town":"一色町中外沢","koaza":"上羽瀬","lat":34.813702,"lng":137.008254,"zip":"4440428"},{"town":"一色町中外沢","koaza":"二割","lat":34.815249,"lng":137.007761,"zip":"4440428"},{"town":"平坂町","koaza":"古新田","lat":34.864843,"lng":137.00928,"zip":"4440305"},{"town":"一色町中外沢","koaza":"下割","lat":34.817196,"lng":137.007544,"zip":"4440428"},{"town":"平坂町","koaza":"上縄","lat":34.863078,"lng":137.009536,"zip":"4440305"},{"town":"一色町中外沢","koaza":"壱町割","lat":34.81795,"lng":137.00828,"zip":"4440428"},{"town":"中根町","koaza":"一ノ割東","lat":34.836234,"lng":137.009045,"zip":"4440323"},{"town":"一色町治明","koaza":"北浜","lat":34.825538,"lng":137.009782,"zip":"4440426"},{"town":"中根町","koaza":"二ノ割東","lat":34.834586,"lng":137.009271,"zip":"4440323"},{"town":"一色町中外沢","koaza":"下羽瀬","lat":34.811137,"lng":137.007838,"zip":"4440428"},{"town":"平坂町","koaza":"二ノ切","lat":34.854792,"lng":137.008552,"zip":"4440305"},{"town":"一色町治明","koaza":"九平山","lat":34.819886,"lng":137.008502,"zip":"4440426"},{"town":"一色町治明","koaza":"北ス","lat":34.823601,"lng":137.00936,"zip":"4440426"},{"town":"平坂町","koaza":"仲間縄","lat":34.860473,"lng":137.011179,"zip":"4440305"},{"town":"一色町中外沢","koaza":"長洲","lat":34.810679,"lng":137.008991,"zip":"4440428"},{"town":"一色町中外沢","koaza":"イノ割","lat":34.812597,"lng":137.009625,"zip":"4440428"},{"town":"一色町小薮","koaza":"用水","lat":34.804909,"lng":137.011947,"zip":"4440424"},{"town":"巨海町","koaza":"池田","lat":34.831846,"lng":137.009969,"zip":"4440322"},{"town":"一色町中外沢","koaza":"ロノ割","lat":34.815186,"lng":137.010067,"zip":"4440428"},{"town":"一色町中外沢","koaza":"下銭成","lat":34.81012,"lng":137.011246,"zip":"4440428"},{"town":"中畑町","koaza":"清水","lat":34.870742,"lng":137.010565,"zip":"4440303"},{"town":"一色町治明","koaza":"宮後","lat":34.820706,"lng":137.010415,"zip":"4440426"},{"town":"巨海町","koaza":"南河原","lat":34.83365,"lng":137.010824,"zip":"4440322"},{"town":"平坂町","koaza":"堤根敷","lat":34.857424,"lng":137.011934,"zip":"4440305"},{"town":"一色町治明","koaza":"大江","lat":34.823852,"lng":137.010741,"zip":"4440426"},{"town":"一色町中外沢","koaza":"自休","lat":34.813775,"lng":137.011796,"zip":"4440428"},{"town":"一色町中外沢","koaza":"元銭成","lat":34.815431,"lng":137.01048,"zip":"4440428"},{"town":"一色町中外沢","koaza":"上銭成","lat":34.812018,"lng":137.012084,"zip":"4440428"},{"town":"一色町養ケ島","koaza":"西島","lat":34.817724,"lng":137.011084,"zip":"4440429"},{"town":"巨海町","koaza":"中河原","lat":34.834734,"lng":137.011311,"zip":"4440322"},{"town":"一色町養ケ島","koaza":"郷前","lat":34.817071,"lng":137.01122,"zip":"4440429"},{"town":"巨海町","koaza":"北河原","lat":34.836956,"lng":137.011811,"zip":"4440322"},{"town":"中畑町","koaza":"西側","lat":34.870197,"lng":137.011045,"zip":"4440303"},{"town":"巨海町","koaza":"大口","lat":34.832296,"lng":137.01125,"zip":"4440322"},{"town":"平坂町","koaza":"一ノ切","lat":34.855371,"lng":137.01154,"zip":"4440305"},{"town":"一色町小薮","koaza":"船江東","lat":34.797137,"lng":137.014533,"zip":"4440424"},{"town":"中畑町","koaza":"神明前","lat":34.871792,"lng":137.011385,"zip":"4440303"},{"town":"中畑町","koaza":"北側","lat":34.870785,"lng":137.012439,"zip":"4440303"},{"town":"一色町治明","koaza":"出口","lat":34.821653,"lng":137.012234,"zip":"4440426"},{"town":"一色町治明","koaza":"屋敷","lat":34.818908,"lng":137.013466,"zip":"4440426"},{"town":"中畑町","koaza":"家下","lat":34.869151,"lng":137.012059,"zip":"4440303"},{"town":"刈宿町","koaza":"上浜田","lat":34.832335,"lng":137.01267,"zip":"4440321"},{"town":"中畑町","koaza":"南側","lat":34.868061,"lng":137.012235,"zip":"4440303"},{"town":"一色町養ケ島","koaza":"古川","lat":34.818884,"lng":137.011431,"zip":"4440429"},{"town":"一色町開正","koaza":"大江","lat":34.825723,"lng":137.012683,"zip":"4440421"},{"town":"巨海町","koaza":"北浜田","lat":34.835839,"lng":137.012245,"zip":"4440322"},{"town":"一色町養ケ島","koaza":"一ノ割","lat":34.817742,"lng":137.013685,"zip":"4440429"},{"town":"寺津町","koaza":"浜南","lat":34.838808,"lng":137.012388,"zip":"4440324"},{"town":"中畑町","koaza":"浜田下","lat":34.866188,"lng":137.013016,"zip":"4440303"},{"town":"巨海町","koaza":"佐円","lat":34.837723,"lng":137.013225,"zip":"4440322"},{"town":"寺津町","koaza":"浜北","lat":34.840453,"lng":137.012527,"zip":"4440324"},{"town":"刈宿町","koaza":"川原","lat":34.830632,"lng":137.01309,"zip":"4440321"},{"town":"寺津町","koaza":"新小家","lat":34.841306,"lng":137.01269,"zip":"4440324"},{"town":"中畑町","koaza":"東側","lat":34.869221,"lng":137.0135,"zip":"4440303"},{"town":"寺津町","koaza":"南馬場","lat":34.838483,"lng":137.013605,"zip":"4440324"},{"town":"一色町中外沢","koaza":"中割","lat":34.811413,"lng":137.014572,"zip":"4440428"},{"town":"巨海町","koaza":"南浜田","lat":34.833523,"lng":137.013248,"zip":"4440322"},{"town":"巨海町","koaza":"西脇","lat":34.836048,"lng":137.013463,"zip":"4440322"},{"town":"楠村町","koaza":"北浜屋敷","lat":34.855367,"lng":137.013211,"zip":"4440325"},{"town":"寺津町","koaza":"御屋敷","lat":34.839849,"lng":137.013535,"zip":"4440324"},{"town":"中畑町","koaza":"宮前","lat":34.872307,"lng":137.013666,"zip":"4440303"},{"town":"寺津町","koaza":"起帰","lat":34.851197,"lng":137.013608,"zip":"4440324"},{"town":"寺津町","koaza":"西市場","lat":34.841399,"lng":137.013871,"zip":"4440324"},{"town":"刈宿町","koaza":"後畑","lat":34.832428,"lng":137.014671,"zip":"4440321"},{"town":"平坂町","koaza":"奥背戸","lat":34.864196,"lng":137.013962,"zip":"4440305"},{"town":"一色町治明","koaza":"通縄","lat":34.821872,"lng":137.014057,"zip":"4440426"},{"town":"一色町養ケ島","koaza":"東島","lat":34.817094,"lng":137.014139,"zip":"4440429"},{"town":"平坂町","koaza":"丸山","lat":34.85682,"lng":137.015028,"zip":"4440305"},{"town":"寺津町","koaza":"亀井","lat":34.845503,"lng":137.013649,"zip":"4440324"},{"town":"平坂町","koaza":"北町","lat":34.862653,"lng":137.014929,"zip":"4440305"},{"town":"一色町開正","koaza":"出口","lat":34.825692,"lng":137.014898,"zip":"4440421"},{"town":"一色町治明","koaza":"北通縄","lat":34.824702,"lng":137.014272,"zip":"4440426"},{"town":"寺津町","koaza":"二ツ家","lat":34.847738,"lng":137.01426,"zip":"4440324"},{"town":"一色町小薮","koaza":"清水上","lat":34.804334,"lng":137.01451,"zip":"4440424"},{"town":"一色町開正","koaza":"北江","lat":34.827204,"lng":137.014489,"zip":"4440421"},{"town":"平坂町","koaza":"空町","lat":34.861452,"lng":137.014708,"zip":"4440305"},{"town":"寺津町","koaza":"大明神","lat":34.849118,"lng":137.014329,"zip":"4440324"},{"town":"巨海町","koaza":"宮前","lat":34.834758,"lng":137.014928,"zip":"4440322"},{"town":"平坂町","koaza":"午築地","lat":34.859339,"lng":137.014104,"zip":"4440305"},{"town":"中畑町","koaza":"前山","lat":34.868709,"lng":137.01513,"zip":"4440303"},{"town":"楠村町","koaza":"明神左右","lat":34.85164,"lng":137.014617,"zip":"4440325"},{"town":"寺津町","koaza":"北馬場","lat":34.840044,"lng":137.014711,"zip":"4440324"},{"town":"一色町赤羽","koaza":"上割","lat":34.81228,"lng":137.015147,"zip":"4440427"},{"town":"寺津町","koaza":"東市場","lat":34.841278,"lng":137.015397,"zip":"4440324"},{"town":"一色町中外沢","koaza":"下大割","lat":34.805759,"lng":137.015679,"zip":"4440428"},{"town":"巨海町","koaza":"宮岸","lat":34.835929,"lng":137.014667,"zip":"4440322"},{"town":"寺津町","koaza":"宮越","lat":34.842734,"lng":137.014292,"zip":"4440324"},{"town":"巨海町","koaza":"森越","lat":34.837059,"lng":137.015678,"zip":"4440322"},{"town":"刈宿町","koaza":"出口","lat":34.830537,"lng":137.014818,"zip":"4440321"},{"town":"一色町開正","koaza":"三右","lat":34.827285,"lng":137.015428,"zip":"4440421"},{"town":"一色町赤羽","koaza":"南荒子","lat":34.816415,"lng":137.016143,"zip":"4440427"},{"town":"刈宿町","koaza":"百々","lat":34.833359,"lng":137.015078,"zip":"4440321"},{"town":"中畑町","koaza":"郷蔵東","lat":34.870563,"lng":137.015526,"zip":"4440303"},{"town":"一色町坂田新田","koaza":"沖向","lat":34.788315,"lng":137.020074,"zip":"4440413"},{"town":"中畑町","koaza":"小中","lat":34.87145,"lng":137.015777,"zip":"4440303"},{"town":"一色町赤羽","koaza":"北荒子","lat":34.81802,"lng":137.018028,"zip":"4440427"},{"town":"平坂町","koaza":"新町","lat":34.86085,"lng":137.0154,"zip":"4440305"},{"town":"寺津町","koaza":"寺後","lat":34.84211,"lng":137.01532,"zip":"4440324"},{"town":"一色町赤羽","koaza":"浜田","lat":34.819832,"lng":137.017926,"zip":"4440427"},{"town":"平坂町","koaza":"熊野","lat":34.858593,"lng":137.015785,"zip":"4440305"},{"town":"一色町小薮","koaza":"東実録","lat":34.798172,"lng":137.017504,"zip":"4440424"},{"town":"刈宿町","koaza":"高畑","lat":34.83202,"lng":137.015484,"zip":"4440321"},{"town":"平坂町","koaza":"北新町","lat":34.861623,"lng":137.015571,"zip":"4440305"},{"town":"一色町治明","koaza":"大戸前","lat":34.822333,"lng":137.016555,"zip":"4440426"},{"town":"一色町治明","koaza":"本地","lat":34.824626,"lng":137.015798,"zip":"4440426"},{"town":"寺津町","koaza":"白山","lat":34.838729,"lng":137.016727,"zip":"4440324"},{"town":"楠村町","koaza":"堂地","lat":34.854314,"lng":137.015659,"zip":"4440325"},{"town":"平坂町","koaza":"家下","lat":34.86476,"lng":137.015673,"zip":"4440305"},{"town":"一色町開正","koaza":"杉浦","lat":34.828894,"lng":137.016752,"zip":"4440421"},{"town":"巨海町","koaza":"東脇","lat":34.833792,"lng":137.016839,"zip":"4440322"},{"town":"平坂町","koaza":"長堀町","lat":34.862579,"lng":137.016857,"zip":"4440305"},{"town":"一色町開正","koaza":"長刀曲輪","lat":34.826151,"lng":137.016715,"zip":"4440421"},{"town":"楠村町","koaza":"寺前","lat":34.853663,"lng":137.016044,"zip":"4440325"},{"town":"楠村町","koaza":"西前田","lat":34.852622,"lng":137.016174,"zip":"4440325"},{"town":"楠村町","koaza":"南側","lat":34.855518,"lng":137.017121,"zip":"4440325"},{"town":"一色町中外沢","koaza":"中大割","lat":34.808837,"lng":137.016844,"zip":"4440428"},{"town":"平坂町","koaza":"熊野後","lat":34.859241,"lng":137.017008,"zip":"4440305"},{"town":"寺津町","koaza":"飛越","lat":34.845085,"lng":137.015915,"zip":"4440324"},{"town":"一色町中外沢","koaza":"上大割","lat":34.810465,"lng":137.019136,"zip":"4440428"},{"town":"寺津町","koaza":"十三塚","lat":34.843044,"lng":137.017764,"zip":"4440324"},{"town":"平坂町","koaza":"向山","lat":34.86481,"lng":137.016777,"zip":"4440305"},{"town":"一色町赤羽","koaza":"河田","lat":34.820952,"lng":137.017939,"zip":"4440427"},{"town":"寺津町","koaza":"美之掛","lat":34.843339,"lng":137.016768,"zip":"4440324"},{"town":"中畑町","koaza":"宮東","lat":34.872055,"lng":137.017058,"zip":"4440303"},{"town":"寺津町","koaza":"山寺前","lat":34.845595,"lng":137.018074,"zip":"4440324"},{"town":"寺津町","koaza":"山寺","lat":34.846642,"lng":137.017415,"zip":"4440324"},{"town":"刈宿町","koaza":"敷田","lat":34.831507,"lng":137.016626,"zip":"4440321"},{"town":"巨海町","koaza":"泉田","lat":34.832905,"lng":137.017483,"zip":"4440322"},{"town":"一色町開正","koaza":"屋敷曲輪","lat":34.823781,"lng":137.017661,"zip":"4440421"},{"town":"一色町開正","koaza":"村西","lat":34.827766,"lng":137.018154,"zip":"4440421"},{"town":"平坂町","koaza":"如月","lat":34.860528,"lng":137.017792,"zip":"4440305"},{"town":"巨海町","koaza":"北脇","lat":34.836985,"lng":137.018088,"zip":"4440322"},{"town":"楠村町","koaza":"狐島","lat":34.851402,"lng":137.017323,"zip":"4440325"},{"town":"一色町開正","koaza":"橋上","lat":34.822718,"lng":137.017491,"zip":"4440421"},{"town":"中畑町","koaza":"向野","lat":34.867925,"lng":137.018141,"zip":"4440303"},{"town":"楠村町","koaza":"北側","lat":34.856324,"lng":137.017331,"zip":"4440325"},{"town":"楠村町","koaza":"東前田","lat":34.853342,"lng":137.017545,"zip":"4440325"},{"town":"一色町一色","koaza":"西塩浜","lat":34.80181,"lng":137.018536,"zip":"4440423"},{"town":"一色町味浜","koaza":"上浜","lat":34.814447,"lng":137.018175,"zip":"4440422"},{"town":"楠村町","koaza":"野中","lat":34.855171,"lng":137.017761,"zip":"4440325"},{"town":"富山町","koaza":"銭成畑","lat":34.851293,"lng":137.018864,"zip":"4440326"},{"town":"寺津町","koaza":"天王山","lat":34.84031,"lng":137.018896,"zip":"4440324"},{"town":"楠村町","koaza":"山崎","lat":34.856955,"lng":137.018059,"zip":"4440325"},{"town":"徳永町","koaza":"西側","lat":34.842121,"lng":137.018746,"zip":"4440315"},{"town":"平坂町","koaza":"細出","lat":34.861931,"lng":137.018213,"zip":"4440305"},{"town":"一色町開正","koaza":"下ノ郷","lat":34.823689,"lng":137.018902,"zip":"4440421"},{"town":"中畑町","koaza":"大山","lat":34.871074,"lng":137.019439,"zip":"4440303"},{"town":"一色町開正","koaza":"西縄","lat":34.82862,"lng":137.019462,"zip":"4440421"},{"town":"一色町開正","koaza":"屋敷","lat":34.825964,"lng":137.019564,"zip":"4440421"},{"town":"寺津町","koaza":"南若王子","lat":34.847284,"lng":137.020272,"zip":"4440324"},{"town":"楠村町","koaza":"北荒子","lat":34.855422,"lng":137.019447,"zip":"4440325"},{"town":"一色町坂田新田","koaza":"築合","lat":34.792184,"lng":137.019608,"zip":"4440413"},{"town":"寺津町","koaza":"北若王子西","lat":34.84993,"lng":137.019553,"zip":"4440324"},{"town":"一色町中外沢","koaza":"下長割","lat":34.80406,"lng":137.019682,"zip":"4440428"},{"town":"一色町開正","koaza":"荒神坪","lat":34.823929,"lng":137.020505,"zip":"4440421"},{"town":"一色町味浜","koaza":"屋下","lat":34.815159,"lng":137.019513,"zip":"4440422"},{"town":"一色町坂田新田","koaza":"西江","lat":34.79617,"lng":137.02098,"zip":"4440413"},{"town":"田貫町","koaza":"西之川","lat":34.873037,"lng":137.020944,"zip":"4440301"},{"town":"一色町赤羽","koaza":"下郷中","lat":34.817694,"lng":137.020014,"zip":"4440427"},{"town":"一色町赤羽","koaza":"上郷中","lat":34.819467,"lng":137.019441,"zip":"4440427"},{"town":"平坂町","koaza":"奥辰","lat":34.865131,"lng":137.020056,"zip":"4440305"},{"town":"下矢田町","koaza":"観音前","lat":34.846049,"lng":137.020619,"zip":"4440314"},{"town":"一色町味浜","koaza":"中長割","lat":34.805182,"lng":137.020084,"zip":"4440422"},{"town":"一色町味浜","koaza":"東下浜","lat":34.813325,"lng":137.019913,"zip":"4440422"},{"town":"一色町赤羽","koaza":"水出","lat":34.816372,"lng":137.019758,"zip":"4440427"},{"town":"巨海町","koaza":"中縄","lat":34.836413,"lng":137.021469,"zip":"4440322"},{"town":"寺津町","koaza":"田地山","lat":34.838861,"lng":137.021815,"zip":"4440324"},{"town":"一色町開正","koaza":"川田","lat":34.822737,"lng":137.020088,"zip":"4440421"},{"town":"平坂町","koaza":"輪当","lat":34.860862,"lng":137.019089,"zip":"4440305"},{"town":"一色町味浜","koaza":"上長割","lat":34.808886,"lng":137.020816,"zip":"4440422"},{"town":"平坂町","koaza":"胡麻成","lat":34.862409,"lng":137.019664,"zip":"4440305"},{"town":"富山町","koaza":"大縄","lat":34.850554,"lng":137.02004,"zip":"4440326"},{"town":"一色町味浜","koaza":"屋敷割","lat":34.812064,"lng":137.020154,"zip":"4440422"},{"town":"寺津町","koaza":"北若王子","lat":34.848772,"lng":137.021227,"zip":"4440324"},{"town":"一色町味浜","koaza":"西乾地","lat":34.814336,"lng":137.021872,"zip":"4440422"},{"town":"平坂町","koaza":"地領分","lat":34.863874,"lng":137.01949,"zip":"4440305"},{"town":"平坂町","koaza":"梨子山","lat":34.863612,"lng":137.021415,"zip":"4440305"},{"town":"平坂町","koaza":"並木切添","lat":34.862773,"lng":137.02144,"zip":"4440305"},{"town":"巨海町","koaza":"上縄","lat":34.837852,"lng":137.020189,"zip":"4440322"},{"town":"一色町一色","koaza":"東塩浜","lat":34.802031,"lng":137.021433,"zip":"4440423"},{"town":"一色町生田","koaza":"竹生新田","lat":34.784625,"lng":137.027777,"zip":"4440412"},{"town":"徳永町","koaza":"北屋敷","lat":34.844009,"lng":137.021084,"zip":"4440315"},{"town":"一色町赤羽","koaza":"稗田","lat":34.816637,"lng":137.021218,"zip":"4440427"},{"town":"楠村町","koaza":"天満社","lat":34.857988,"lng":137.020064,"zip":"4440325"},{"town":"一色町赤羽","koaza":"郷中","lat":34.818227,"lng":137.020722,"zip":"4440427"},{"town":"行用町","koaza":"宮前","lat":34.830085,"lng":137.022824,"zip":"4450885"},{"town":"一色町味浜","koaza":"中切","lat":34.812114,"lng":137.022193,"zip":"4440422"},{"town":"田貫町","koaza":"下野川","lat":34.874507,"lng":137.020828,"zip":"4440301"},{"town":"徳永町","koaza":"大塚","lat":34.843288,"lng":137.021545,"zip":"4440315"},{"town":"一色町赤羽","koaza":"西乾地","lat":34.81928,"lng":137.020908,"zip":"4440427"},{"town":"一色町味浜","koaza":"下郷","lat":34.810151,"lng":137.021977,"zip":"4440422"},{"town":"一色町一色","koaza":"船入","lat":34.805387,"lng":137.02145,"zip":"4440423"},{"town":"一色町一色","koaza":"宮添","lat":34.80794,"lng":137.022398,"zip":"4440423"},{"town":"田貫町","koaza":"東之川","lat":34.871629,"lng":137.022078,"zip":"4440301"},{"town":"富山町","koaza":"於三","lat":34.853815,"lng":137.02218,"zip":"4440326"},{"town":"一色町坂田新田","koaza":"御境","lat":34.794639,"lng":137.022732,"zip":"4440413"},{"town":"行用町","koaza":"東縄","lat":34.826525,"lng":137.022094,"zip":"4450885"},{"town":"一色町一色","koaza":"西屋敷","lat":34.809925,"lng":137.023024,"zip":"4440423"},{"town":"富山町","koaza":"天神前","lat":34.855612,"lng":137.021498,"zip":"4440326"},{"town":"一色町味浜","koaza":"中乾地","lat":34.816233,"lng":137.022349,"zip":"4440422"},{"town":"富山町","koaza":"東郷","lat":34.85465,"lng":137.023228,"zip":"4440326"},{"town":"徳永町","koaza":"東側","lat":34.841851,"lng":137.021359,"zip":"4440315"},{"town":"一色町一色","koaza":"南屋敷","lat":34.806064,"lng":137.023272,"zip":"4440423"},{"town":"上矢田町","koaza":"西山","lat":34.855058,"lng":137.025255,"zip":"4440313"},{"town":"下矢田町","koaza":"久多良解","lat":34.848283,"lng":137.023042,"zip":"4440314"},{"town":"一色町赤羽","koaza":"東乾地","lat":34.818534,"lng":137.022546,"zip":"4440427"},{"town":"寺津町","koaza":"矢田堺","lat":34.847235,"lng":137.02243,"zip":"4440324"},{"town":"寺津町","koaza":"神明下","lat":34.840532,"lng":137.023427,"zip":"4440324"},{"town":"下矢田町","koaza":"円入庵","lat":34.844174,"lng":137.023777,"zip":"4440314"},{"town":"一色町開正","koaza":"細工屋敷","lat":34.823296,"lng":137.024198,"zip":"4440421"},{"town":"一色町一色","koaza":"間浜畑","lat":34.804547,"lng":137.022585,"zip":"4440423"},{"town":"一色町坂田新田","koaza":"小家前","lat":34.797511,"lng":137.021974,"zip":"4440413"},{"town":"徳永町","koaza":"稲場","lat":34.842865,"lng":137.022027,"zip":"4440315"},{"town":"下矢田町","koaza":"西浦","lat":34.846316,"lng":137.022062,"zip":"4440314"},{"town":"一色町藤江","koaza":"蛇池","lat":34.79984,"lng":137.023196,"zip":"4440414"},{"town":"一色町藤江","koaza":"大山","lat":34.79741,"lng":137.023185,"zip":"4440414"},{"town":"一色町一色","koaza":"下屋敷","lat":34.808413,"lng":137.023878,"zip":"4440423"},{"town":"一色町味浜","koaza":"東乾地","lat":34.814047,"lng":137.023387,"zip":"4440422"},{"town":"行用町","koaza":"西屋敷","lat":34.830408,"lng":137.025366,"zip":"4450885"},{"town":"田貫町","koaza":"社口","lat":34.873334,"lng":137.023412,"zip":"4440301"},{"town":"田貫町","koaza":"蒲田","lat":34.875885,"lng":137.024388,"zip":"4440301"},{"town":"平坂町","koaza":"鳥取","lat":34.862842,"lng":137.023685,"zip":"4440305"},{"town":"一色町味浜","koaza":"北乾地","lat":34.816717,"lng":137.023973,"zip":"4440422"},{"town":"下矢田町","koaza":"薄畑","lat":34.848096,"lng":137.024114,"zip":"4440314"},{"town":"一色町味浜","koaza":"乾地","lat":34.818292,"lng":137.024081,"zip":"4440422"},{"town":"一色町赤羽","koaza":"後田","lat":34.820437,"lng":137.022119,"zip":"4440427"},{"town":"田貫町","koaza":"西川原","lat":34.872348,"lng":137.023913,"zip":"4440301"},{"town":"田貫町","koaza":"南山","lat":34.866069,"lng":137.023789,"zip":"4440301"},{"town":"一色町一色","koaza":"東上二割","lat":34.802895,"lng":137.026295,"zip":"4440423"},{"town":"羽塚町","koaza":"坊山","lat":34.860256,"lng":137.024615,"zip":"4440316"},{"town":"一色町藤江","koaza":"上元〆","lat":34.802082,"lng":137.024654,"zip":"4440414"},{"town":"一色町一色","koaza":"中屋敷","lat":34.810866,"lng":137.024991,"zip":"4440423"},{"town":"一色町一色","koaza":"東下二割","lat":34.799605,"lng":137.02505,"zip":"4440423"},{"town":"田貫町","koaza":"市川原","lat":34.870031,"lng":137.026003,"zip":"4440301"},{"town":"平坂町","koaza":"北新田","lat":34.865099,"lng":137.023372,"zip":"4440305"},{"town":"一色町藤江","koaza":"東新切","lat":34.795618,"lng":137.024787,"zip":"4440414"},{"town":"下矢田町","koaza":"郷","lat":34.847236,"lng":137.026025,"zip":"4440314"},{"town":"行用町","koaza":"名飯","lat":34.829804,"lng":137.025084,"zip":"4450885"},{"town":"一色町開正","koaza":"末宝","lat":34.826248,"lng":137.024943,"zip":"4440421"},{"town":"一色町赤羽","koaza":"遠ノ子","lat":34.821329,"lng":137.025877,"zip":"4440427"},{"town":"上矢田町","koaza":"寺前","lat":34.850474,"lng":137.025049,"zip":"4440313"},{"town":"一色町一色","koaza":"下乾地","lat":34.814874,"lng":137.026385,"zip":"4440423"},{"town":"下矢田町","koaza":"岐路","lat":34.844299,"lng":137.026762,"zip":"4440314"},{"town":"一色町一色","koaza":"上屋敷","lat":34.812289,"lng":137.025889,"zip":"4440423"},{"town":"一色町一色","koaza":"前新田","lat":34.806741,"lng":137.026231,"zip":"4440423"},{"town":"上矢田町","koaza":"庄衛山","lat":34.856102,"lng":137.02571,"zip":"4440313"},{"town":"平坂町","koaza":"帆平山","lat":34.865461,"lng":137.025072,"zip":"4440305"},{"town":"一色町一色","koaza":"亥新田","lat":34.808299,"lng":137.026478,"zip":"4440423"},{"town":"上矢田町","koaza":"寺西","lat":34.852662,"lng":137.023967,"zip":"4440313"},{"town":"一色町一色","koaza":"乾地","lat":34.817475,"lng":137.026048,"zip":"4440423"},{"town":"一色町藤江","koaza":"百間","lat":34.79801,"lng":137.025632,"zip":"4440414"},{"town":"上矢田町","koaza":"水向","lat":34.855169,"lng":137.027048,"zip":"4440313"},{"town":"一色町藤江","koaza":"惣助割","lat":34.799327,"lng":137.026131,"zip":"4440414"},{"town":"一色町味浜","koaza":"後田","lat":34.820758,"lng":137.026626,"zip":"4440422"},{"town":"上矢田町","koaza":"郷前","lat":34.850117,"lng":137.026725,"zip":"4440313"},{"town":"一色町開正","koaza":"河原畑","lat":34.824331,"lng":137.027793,"zip":"4440421"},{"town":"羽塚町","koaza":"林西","lat":34.858471,"lng":137.026692,"zip":"4440316"},{"town":"羽塚町","koaza":"寅山","lat":34.860754,"lng":137.028086,"zip":"4440316"},{"town":"一色町酒手島","koaza":"鳥山中通","lat":34.791871,"lng":137.026398,"zip":"4440415"},{"town":"下矢田町","koaza":"宮東","lat":34.845337,"lng":137.027804,"zip":"4440314"},{"town":"一色町藤江","koaza":"宮西","lat":34.800629,"lng":137.027986,"zip":"4440414"},{"town":"行用町","koaza":"茨坪","lat":34.832802,"lng":137.027285,"zip":"4450885"},{"town":"行用町","koaza":"於莓","lat":34.830676,"lng":137.026533,"zip":"4450885"},{"town":"田貫町","koaza":"新明","lat":34.872818,"lng":137.027285,"zip":"4440301"},{"town":"一色町味浜","koaza":"堤西","lat":34.820535,"lng":137.028141,"zip":"4440422"},{"town":"一色町酒手島","koaza":"西中通","lat":34.796514,"lng":137.028956,"zip":"4440415"},{"town":"羽塚町","koaza":"宮前","lat":34.857595,"lng":137.027517,"zip":"4440316"},{"town":"行用町","koaza":"玄海","lat":34.834246,"lng":137.028674,"zip":"4450885"},{"town":"一色町藤江","koaza":"上西","lat":34.803701,"lng":137.027745,"zip":"4440414"},{"town":"上矢田町","koaza":"熊子","lat":34.849082,"lng":137.028089,"zip":"4440313"},{"town":"一色町生田","koaza":"西萱野","lat":34.787825,"lng":137.028074,"zip":"4440412"},{"town":"一色町一色","koaza":"伊那跨","lat":34.812144,"lng":137.02865,"zip":"4440423"},{"town":"一色町味浜","koaza":"下川田","lat":34.822565,"lng":137.027798,"zip":"4440422"},{"town":"行用町","koaza":"東屋敷","lat":34.829316,"lng":137.028494,"zip":"4450885"},{"town":"一色町一色","koaza":"東前新田","lat":34.804898,"lng":137.027957,"zip":"4440423"},{"town":"羽塚町","koaza":"西新田","lat":34.864055,"lng":137.027418,"zip":"4440316"},{"town":"一色町一色","koaza":"古新田","lat":34.814708,"lng":137.028909,"zip":"4440423"},{"town":"一色町酒手島","koaza":"西下通","lat":34.794022,"lng":137.027864,"zip":"4440415"},{"town":"上矢田町","koaza":"山伏塚","lat":34.854776,"lng":137.027164,"zip":"4440313"},{"town":"上矢田町","koaza":"郷後","lat":34.851384,"lng":137.028827,"zip":"4440313"},{"town":"小間町","koaza":"市川原","lat":34.872856,"lng":137.030007,"zip":"4450893"},{"town":"一色町一色","koaza":"西荒子","lat":34.81874,"lng":137.028662,"zip":"4440423"},{"town":"行用町","koaza":"出口","lat":34.831754,"lng":137.028165,"zip":"4450885"},{"town":"一色町生田","koaza":"西高前","lat":34.790529,"lng":137.029283,"zip":"4440412"},{"town":"針曽根町","koaza":"猿塚","lat":34.838373,"lng":137.028758,"zip":"4450886"},{"town":"羽塚町","koaza":"稲荷山","lat":34.859118,"lng":137.028573,"zip":"4440316"},{"town":"針曽根町","koaza":"長池","lat":34.83685,"lng":137.031301,"zip":"4450886"},{"town":"一色町酒手島","koaza":"西前通","lat":34.797518,"lng":137.03046,"zip":"4440415"},{"town":"一色町味浜","koaza":"上川田","lat":34.823458,"lng":137.028759,"zip":"4440422"},{"town":"一色町酒手島","koaza":"西芝野通","lat":34.792747,"lng":137.027967,"zip":"4440415"},{"town":"上町","koaza":"権現西","lat":34.880798,"lng":137.029164,"zip":"4450894"},{"town":"羽塚町","koaza":"北側","lat":34.862785,"lng":137.02925,"zip":"4440316"},{"town":"一色町前野","koaza":"新田","lat":34.810707,"lng":137.029237,"zip":"4440407"},{"town":"小間町","koaza":"内手","lat":34.877455,"lng":137.029666,"zip":"4450893"},{"town":"徳永町","koaza":"八ツ田","lat":34.842169,"lng":137.028967,"zip":"4440315"},{"town":"針曽根町","koaza":"南側","lat":34.838051,"lng":137.029903,"zip":"4450886"},{"town":"一色町酒手島","koaza":"東中通","lat":34.792803,"lng":137.032256,"zip":"4440415"},{"town":"一色町味浜","koaza":"堤東","lat":34.821269,"lng":137.03053,"zip":"4440422"},{"town":"上矢田町","koaza":"神明寺","lat":34.85417,"lng":137.029237,"zip":"4440313"},{"town":"一色町前野","koaza":"川原","lat":34.808115,"lng":137.028762,"zip":"4440407"},{"town":"一色町一色","koaza":"未荒子","lat":34.816575,"lng":137.029662,"zip":"4440423"},{"town":"一色町前野","koaza":"屋敷","lat":34.810533,"lng":137.030194,"zip":"4440407"},{"town":"一色町一色","koaza":"松荒子","lat":34.81361,"lng":137.031138,"zip":"4440423"},{"town":"一色町味浜","koaza":"成輪","lat":34.823392,"lng":137.030286,"zip":"4440422"},{"town":"一色町対米","koaza":"蒲池","lat":34.804165,"lng":137.02936,"zip":"4440406"},{"town":"針曽根町","koaza":"宮前","lat":34.839358,"lng":137.030018,"zip":"4450886"},{"town":"上矢田町","koaza":"北野","lat":34.853613,"lng":137.031004,"zip":"4440313"},{"town":"一色町対米","koaza":"丑新田","lat":34.802264,"lng":137.029473,"zip":"4440406"},{"town":"小間町","koaza":"初山","lat":34.871172,"lng":137.031511,"zip":"4450893"},{"town":"小間町","koaza":"神明下","lat":34.876716,"lng":137.030519,"zip":"4450893"},{"town":"一色町前野","koaza":"荒子","lat":34.807555,"lng":137.029546,"zip":"4440407"},{"town":"行用町","koaza":"地尻","lat":34.827497,"lng":137.029406,"zip":"4450885"},{"town":"羽塚町","koaza":"本郷","lat":34.860684,"lng":137.031039,"zip":"4440316"},{"town":"一色町酒手島","koaza":"西上通","lat":34.798954,"lng":137.03099,"zip":"4440415"},{"town":"下道目記町","koaza":"神田","lat":34.832528,"lng":137.030844,"zip":"4450883"},{"town":"上矢田町","koaza":"斉田","lat":34.848864,"lng":137.030583,"zip":"4440313"},{"town":"羽塚町","koaza":"産畑","lat":34.856708,"lng":137.030789,"zip":"4440316"},{"town":"八ケ尻町","koaza":"郷中","lat":34.827287,"lng":137.03176,"zip":"4450884"},{"town":"一色町前野","koaza":"東浦","lat":34.810278,"lng":137.031597,"zip":"4440407"},{"town":"一色町味浜","koaza":"古新","lat":34.82232,"lng":137.030644,"zip":"4440422"},{"town":"針曽根町","koaza":"中切","lat":34.837603,"lng":137.030917,"zip":"4450886"},{"town":"一色町対米","koaza":"堤堪","lat":34.800738,"lng":137.030696,"zip":"4440406"},{"town":"上矢田町","koaza":"東出","lat":34.851242,"lng":137.031085,"zip":"4440313"},{"town":"針曽根町","koaza":"北側","lat":34.838262,"lng":137.031263,"zip":"4450886"},{"town":"針曽根町","koaza":"宮後","lat":34.840227,"lng":137.030977,"zip":"4450886"},{"town":"下道目記町","koaza":"山畔","lat":34.830215,"lng":137.031008,"zip":"4450883"},{"town":"一色町生田","koaza":"一ノ切","lat":34.788409,"lng":137.032166,"zip":"4440412"},{"town":"羽塚町","koaza":"大道東","lat":34.858939,"lng":137.032073,"zip":"4440316"},{"town":"下道目記町","koaza":"西裏","lat":34.833554,"lng":137.032791,"zip":"4450883"},{"town":"一色町酒手島","koaza":"東前通","lat":34.794011,"lng":137.032713,"zip":"4440415"},{"town":"法光寺町","koaza":"流","lat":34.867947,"lng":137.032416,"zip":"4450892"},{"town":"小間町","koaza":"堂前","lat":34.874023,"lng":137.031887,"zip":"4450893"},{"town":"上矢田町","koaza":"清水","lat":34.850673,"lng":137.032795,"zip":"4440313"},{"town":"一色町味浜","koaza":"江向","lat":34.82274,"lng":137.032001,"zip":"4440422"},{"town":"一色町一色","koaza":"東荒子","lat":34.817705,"lng":137.032615,"zip":"4440423"},{"town":"小間町","koaza":"大塚","lat":34.87639,"lng":137.031586,"zip":"4450893"},{"town":"法光寺町","koaza":"住崎山","lat":34.863675,"lng":137.030724,"zip":"4450892"},{"town":"一色町生田","koaza":"中萱野","lat":34.784502,"lng":137.032673,"zip":"4440412"},{"town":"一色町対米","koaza":"船原","lat":34.807741,"lng":137.030902,"zip":"4440406"},{"town":"一色町対米","koaza":"東蒲池","lat":34.80426,"lng":137.030615,"zip":"4440406"},{"town":"一色町対米","koaza":"九郎左","lat":34.805674,"lng":137.033212,"zip":"4440406"},{"town":"下矢田町","koaza":"鼠田","lat":34.845768,"lng":137.032166,"zip":"4440314"},{"town":"一色町対米","koaza":"七古新田","lat":34.803943,"lng":137.032225,"zip":"4440406"},{"town":"針曽根町","koaza":"丸山","lat":34.841466,"lng":137.032375,"zip":"4450886"},{"town":"一色町一色","koaza":"山荒子","lat":34.819899,"lng":137.03211,"zip":"4440423"},{"town":"針曽根町","koaza":"中道","lat":34.839511,"lng":137.032049,"zip":"4450886"},{"town":"八ケ尻町","koaza":"堤東","lat":34.824832,"lng":137.030765,"zip":"4450884"},{"town":"下道目記町","koaza":"池田","lat":34.832042,"lng":137.032517,"zip":"4450883"},{"town":"針曽根町","koaza":"寸曽","lat":34.835462,"lng":137.032193,"zip":"4450886"},{"town":"一色町一色","koaza":"番城","lat":34.815267,"lng":137.033273,"zip":"4440423"},{"town":"上町","koaza":"酉新開","lat":34.884514,"lng":137.035886,"zip":"4450894"},{"town":"一色町対米","koaza":"五太","lat":34.802063,"lng":137.03226,"zip":"4440406"},{"town":"一色町酒手島","koaza":"東上通","lat":34.796184,"lng":137.032563,"zip":"4440415"},{"town":"国森町","koaza":"郷蔵南","lat":34.856437,"lng":137.031485,"zip":"4440312"},{"town":"住崎町","koaza":"経塚","lat":34.862489,"lng":137.034332,"zip":"4450876"},{"town":"国森町","koaza":"不動東","lat":34.85597,"lng":137.033175,"zip":"4440312"},{"town":"上町","koaza":"大川","lat":34.883639,"lng":137.034444,"zip":"4450894"},{"town":"小間町","koaza":"西側","lat":34.875759,"lng":137.032391,"zip":"4450893"},{"town":"一色町生田","koaza":"真野新田","lat":34.779417,"lng":137.03632,"zip":"4440412"},{"town":"一色町生田","koaza":"案子東","lat":34.788075,"lng":137.033619,"zip":"4440412"},{"town":"針曽根町","koaza":"荒井側","lat":34.837398,"lng":137.033065,"zip":"4450886"},{"town":"一色町一色","koaza":"市助","lat":34.821804,"lng":137.034148,"zip":"4440423"},{"town":"住崎町","koaza":"新切山","lat":34.863202,"lng":137.032724,"zip":"4450876"},{"town":"小間町","koaza":"椎山","lat":34.871801,"lng":137.032804,"zip":"4450893"},{"town":"下道目記町","koaza":"法六","lat":34.83605,"lng":137.033053,"zip":"4450883"},{"town":"一色町前野","koaza":"端田","lat":34.813778,"lng":137.033625,"zip":"4440407"},{"town":"一色町対米","koaza":"中野","lat":34.809217,"lng":137.03436,"zip":"4440406"},{"town":"一色町対米","koaza":"洲田","lat":34.807203,"lng":137.034131,"zip":"4440406"},{"town":"上町","koaza":"浜屋敷","lat":34.879167,"lng":137.034573,"zip":"4450894"},{"town":"一色町生田","koaza":"一ノ割","lat":34.787592,"lng":137.035534,"zip":"4440412"},{"town":"国森町","koaza":"切神","lat":34.854185,"lng":137.033282,"zip":"4440312"},{"town":"市子町","koaza":"西蓑手","lat":34.824713,"lng":137.03417,"zip":"4450055"},{"town":"針曽根町","koaza":"米竹","lat":34.838956,"lng":137.035001,"zip":"4450886"},{"town":"法光寺町","koaza":"北西田","lat":34.871429,"lng":137.033777,"zip":"4450892"},{"town":"上町","koaza":"寺下","lat":34.882077,"lng":137.035944,"zip":"4450894"},{"town":"下道目記町","koaza":"東裏","lat":34.83323,"lng":137.034522,"zip":"4450883"},{"town":"八ケ尻町","koaza":"前田","lat":34.828181,"lng":137.033878,"zip":"4450884"},{"town":"八ケ尻町","koaza":"子捨野","lat":34.823014,"lng":137.033645,"zip":"4450884"},{"town":"一色町池田","koaza":"反渕","lat":34.818228,"lng":137.035905,"zip":"4440401"},{"town":"一色町松木島","koaza":"西友","lat":34.795314,"lng":137.036615,"zip":"4440403"},{"town":"一色町惣五郎","koaza":"新田","lat":34.801399,"lng":137.034774,"zip":"4440405"},{"town":"小間町","koaza":"中通","lat":34.874669,"lng":137.032957,"zip":"4450893"},{"town":"新在家町","koaza":"中土井","lat":34.859553,"lng":137.03536,"zip":"4440311"},{"town":"市子町","koaza":"薬師","lat":34.828671,"lng":137.034484,"zip":"4450055"},{"town":"国森町","koaza":"郷北","lat":34.85837,"lng":137.034371,"zip":"4440312"},{"town":"法光寺町","koaza":"屋敷","lat":34.870182,"lng":137.035513,"zip":"4450892"},{"town":"新在家町","koaza":"経塚","lat":34.860894,"lng":137.035113,"zip":"4440311"},{"town":"一色町池田","koaza":"永筬","lat":34.815459,"lng":137.034547,"zip":"4440401"},{"town":"小間町","koaza":"明治","lat":34.87575,"lng":137.034265,"zip":"4450893"},{"town":"上町","koaza":"寺山","lat":34.877532,"lng":137.034664,"zip":"4450894"},{"town":"一色町生田","koaza":"東萱野","lat":34.781364,"lng":137.038308,"zip":"4440412"},{"town":"上矢田町","koaza":"川原","lat":34.852914,"lng":137.035075,"zip":"4440313"},{"town":"一色町松木島","koaza":"松ケ境","lat":34.791817,"lng":137.036122,"zip":"4440403"},{"town":"小間町","koaza":"東側","lat":34.873845,"lng":137.035449,"zip":"4450893"},{"town":"長縄町","koaza":"落合","lat":34.845047,"lng":137.03432,"zip":"4450887"},{"town":"一色町生田","koaza":"宮西","lat":34.785979,"lng":137.036965,"zip":"4440412"},{"town":"法光寺町","koaza":"前畑","lat":34.868133,"lng":137.035252,"zip":"4450892"},{"town":"一色町対米","koaza":"三斗蒔","lat":34.807483,"lng":137.035982,"zip":"4440406"},{"town":"法光寺町","koaza":"東田","lat":34.866783,"lng":137.035759,"zip":"4450892"},{"town":"市子町","koaza":"平加","lat":34.829378,"lng":137.035395,"zip":"4450055"},{"town":"一色町酒手島","koaza":"東下通","lat":34.791354,"lng":137.033006,"zip":"4440415"},{"town":"下町","koaza":"処寒","lat":34.872297,"lng":137.0355,"zip":"4450891"},{"town":"長縄町","koaza":"井ノ元","lat":34.846725,"lng":137.036849,"zip":"4450887"},{"town":"下町","koaza":"下山","lat":34.863834,"lng":137.035996,"zip":"4450891"},{"town":"上町","koaza":"中道","lat":34.878987,"lng":137.035627,"zip":"4450894"},{"town":"熱池町","koaza":"道下","lat":34.839729,"lng":137.035818,"zip":"4450881"},{"town":"住崎町","koaza":"飛八","lat":34.862643,"lng":137.036107,"zip":"4450876"},{"town":"上道目記町","koaza":"四縄","lat":34.834491,"lng":137.035592,"zip":"4450882"},{"town":"上道目記町","koaza":"下市場","lat":34.832906,"lng":137.036467,"zip":"4450882"},{"town":"上町","koaza":"元屋敷","lat":34.8841,"lng":137.036212,"zip":"4450894"},{"town":"国森町","koaza":"稲場","lat":34.855977,"lng":137.035735,"zip":"4440312"},{"town":"一色町千間","koaza":"下通西","lat":34.790414,"lng":137.036902,"zip":"4440411"},{"town":"下道目記町","koaza":"上川田","lat":34.832305,"lng":137.036038,"zip":"4450883"},{"town":"新在家町","koaza":"札山","lat":34.86118,"lng":137.03533,"zip":"4440311"},{"town":"国森町","koaza":"五枚田","lat":34.853315,"lng":137.03801,"zip":"4440312"},{"town":"菱池町","koaza":"一丁縄","lat":34.849566,"lng":137.036478,"zip":"4450874"},{"town":"一色町野田","koaza":"寄神","lat":34.8018,"lng":137.037775,"zip":"4440404"},{"town":"長縄町","koaza":"揚畑","lat":34.844206,"lng":137.036613,"zip":"4450887"},{"town":"一色町惣五郎","koaza":"屋敷","lat":34.798834,"lng":137.036722,"zip":"4440405"},{"town":"下町","koaza":"前畑","lat":34.868543,"lng":137.036834,"zip":"4450891"},{"town":"一色町池田","koaza":"西八反","lat":34.817835,"lng":137.036721,"zip":"4440401"},{"town":"下町","koaza":"西屋敷","lat":34.871788,"lng":137.037245,"zip":"4450891"},{"town":"市子町","koaza":"稲荷","lat":34.830848,"lng":137.038921,"zip":"4450055"},{"town":"一色町対米","koaza":"大屋敷","lat":34.810639,"lng":137.035525,"zip":"4440406"},{"town":"新在家町","koaza":"下屋下","lat":34.857258,"lng":137.036598,"zip":"4440311"},{"town":"上町","koaza":"下屋敷","lat":34.875927,"lng":137.037347,"zip":"4450894"},{"town":"一色町生田","koaza":"宮東","lat":34.783856,"lng":137.038173,"zip":"4440412"},{"town":"新在家町","koaza":"南郷","lat":34.858562,"lng":137.037029,"zip":"4440311"},{"town":"下町","koaza":"築山","lat":34.874887,"lng":137.037364,"zip":"4450891"},{"town":"一色町松木島","koaza":"九軒前","lat":34.793512,"lng":137.038929,"zip":"4440403"},{"town":"上道目記町","koaza":"下新田","lat":34.83338,"lng":137.038536,"zip":"4450882"},{"town":"新在家町","koaza":"西郷","lat":34.860089,"lng":137.036776,"zip":"4440311"},{"town":"一色町池田","koaza":"郷戸後","lat":34.813006,"lng":137.038581,"zip":"4440401"},{"town":"米津町","koaza":"池田","lat":34.891654,"lng":137.038166,"zip":"4450802"},{"town":"新在家町","koaza":"村北","lat":34.86133,"lng":137.037276,"zip":"4440311"},{"town":"一色町池田","koaza":"東八反","lat":34.817542,"lng":137.037848,"zip":"4440401"},{"town":"菱池町","koaza":"外河原","lat":34.848668,"lng":137.03923,"zip":"4450874"},{"town":"上町","koaza":"六ツ家屋敷","lat":34.883157,"lng":137.038273,"zip":"4450894"},{"town":"上道目記町","koaza":"中屋敷","lat":34.834732,"lng":137.038362,"zip":"4450882"},{"town":"一色町野田","koaza":"下野田","lat":34.799417,"lng":137.038985,"zip":"4440404"},{"town":"上町","koaza":"元清水","lat":34.881607,"lng":137.037292,"zip":"4450894"},{"town":"下町","koaza":"申塚","lat":34.86665,"lng":137.039759,"zip":"4450891"},{"town":"一色町対米","koaza":"市場口","lat":34.809555,"lng":137.037997,"zip":"4440406"},{"town":"一色町池田","koaza":"須合","lat":34.821055,"lng":137.039142,"zip":"4440401"},{"town":"下町","koaza":"土明","lat":34.868937,"lng":137.038438,"zip":"4450891"},{"town":"一色町千間","koaza":"下通中","lat":34.787793,"lng":137.039357,"zip":"4440411"},{"town":"上町","koaza":"柳原","lat":34.884161,"lng":137.038737,"zip":"4450894"},{"town":"下町","koaza":"大道","lat":34.870532,"lng":137.038987,"zip":"4450891"},{"town":"山下町","koaza":"西八幡山","lat":34.863799,"lng":137.039141,"zip":"4450877"},{"town":"新在家町","koaza":"中郷","lat":34.859752,"lng":137.038526,"zip":"4440311"},{"town":"一色町池田","koaza":"下河田","lat":34.811371,"lng":137.036745,"zip":"4440401"},{"town":"下町","koaza":"七長","lat":34.870901,"lng":137.039936,"zip":"4450891"},{"town":"長縄町","koaza":"玉屋","lat":34.842371,"lng":137.038016,"zip":"4450887"},{"town":"一色町池田","koaza":"弥惣","lat":34.816649,"lng":137.039854,"zip":"4440401"},{"town":"長縄町","koaza":"鍵島","lat":34.843287,"lng":137.039097,"zip":"4450887"},{"town":"新在家町","koaza":"中屋下","lat":34.85815,"lng":137.039056,"zip":"4440311"},{"town":"一色町野田","koaza":"上野田","lat":34.804699,"lng":137.040594,"zip":"4440404"},{"town":"上道目記町","koaza":"北後","lat":34.836748,"lng":137.040102,"zip":"4450882"},{"town":"市子町","koaza":"下川田","lat":34.832028,"lng":137.040041,"zip":"4450055"},{"town":"新在家町","koaza":"屋下","lat":34.856973,"lng":137.039254,"zip":"4440311"},{"town":"市子町","koaza":"真菰瀬","lat":34.825159,"lng":137.040702,"zip":"4450055"},{"town":"上町","koaza":"中通屋敷","lat":34.878477,"lng":137.038947,"zip":"4450894"},{"town":"一色町池田","koaza":"御堂回","lat":34.821862,"lng":137.039065,"zip":"4440401"},{"town":"一色町対米","koaza":"寺前","lat":34.810197,"lng":137.041047,"zip":"4440406"},{"town":"上町","koaza":"北清水","lat":34.881118,"lng":137.039195,"zip":"4450894"},{"town":"上道目記町","koaza":"池田","lat":34.83482,"lng":137.040318,"zip":"4450882"},{"town":"市子町","koaza":"大宮西","lat":34.829561,"lng":137.041712,"zip":"4450055"},{"town":"一色町池田","koaza":"二反田","lat":34.819598,"lng":137.039469,"zip":"4440401"},{"town":"一色町千間","koaza":"古浜","lat":34.782354,"lng":137.040947,"zip":"4440411"},{"town":"一色町千間","koaza":"上通西","lat":34.79143,"lng":137.040864,"zip":"4440411"},{"town":"上町","koaza":"稲荷西","lat":34.882938,"lng":137.04009,"zip":"4450894"},{"town":"一色町池田","koaza":"大野内","lat":34.822654,"lng":137.039395,"zip":"4440401"},{"town":"一色町池田","koaza":"松節","lat":34.818068,"lng":137.039821,"zip":"4440401"},{"town":"一色町野田","koaza":"中野田","lat":34.802672,"lng":137.040798,"zip":"4440404"},{"town":"長縄町","koaza":"丸堀","lat":34.842203,"lng":137.039651,"zip":"4450887"},{"town":"米津町","koaza":"蓮池","lat":34.894729,"lng":137.040201,"zip":"4450802"},{"town":"一色町松木島","koaza":"中切","lat":34.796241,"lng":137.042516,"zip":"4440403"},{"town":"一色町野田","koaza":"堤外","lat":34.797614,"lng":137.038407,"zip":"4440404"},{"town":"一色町池田","koaza":"三町田","lat":34.813775,"lng":137.041428,"zip":"4440401"},{"town":"一色町野田","koaza":"小島口","lat":34.799773,"lng":137.041058,"zip":"4440404"},{"town":"住崎町","koaza":"郷中","lat":34.860767,"lng":137.041039,"zip":"4450876"},{"town":"一色町生田","koaza":"千生新田","lat":34.779018,"lng":137.040832,"zip":"4440412"},{"town":"下町","koaza":"鳥居前","lat":34.869135,"lng":137.039928,"zip":"4450891"},{"town":"上道目記町","koaza":"上新田","lat":34.834561,"lng":137.040896,"zip":"4450882"},{"town":"長縄町","koaza":"七ツ田","lat":34.843161,"lng":137.041834,"zip":"4450887"},{"town":"上町","koaza":"八王寺","lat":34.883963,"lng":137.04087,"zip":"4450894"},{"town":"一色町対米","koaza":"後川","lat":34.811732,"lng":137.041438,"zip":"4440406"},{"town":"一色町千間","koaza":"千生新田","lat":34.780101,"lng":137.046038,"zip":"4440411"},{"town":"住崎町","koaza":"出崎","lat":34.861573,"lng":137.040202,"zip":"4450876"},{"town":"一色町千間","koaza":"上通中","lat":34.789315,"lng":137.04257,"zip":"4440411"},{"town":"下町","koaza":"蓮台","lat":34.871249,"lng":137.041822,"zip":"4450891"},{"town":"米津町","koaza":"入船","lat":34.88873,"lng":137.045928,"zip":"4450802"},{"town":"熱池町","koaza":"源田前","lat":34.837677,"lng":137.041428,"zip":"4450881"},{"town":"一色町池田","koaza":"寺西","lat":34.820152,"lng":137.041464,"zip":"4440401"},{"town":"住崎町","koaza":"北畑","lat":34.862121,"lng":137.041543,"zip":"4450876"},{"town":"下町","koaza":"毛勝","lat":34.867262,"lng":137.04181,"zip":"4450891"},{"town":"一色町池田","koaza":"天神西","lat":34.818982,"lng":137.041879,"zip":"4440401"},{"town":"新在家町","koaza":"追羽","lat":34.854396,"lng":137.041872,"zip":"4440311"},{"town":"一色町池田","koaza":"宮回","lat":34.821291,"lng":137.041294,"zip":"4440401"},{"town":"一色町千間","koaza":"戌改下","lat":34.783626,"lng":137.042513,"zip":"4440411"},{"town":"市子町","koaza":"惣作","lat":34.82781,"lng":137.041585,"zip":"4450055"},{"town":"一色町大塚","koaza":"西池","lat":34.806767,"lng":137.041606,"zip":"4440402"},{"town":"下町","koaza":"宮東","lat":34.86944,"lng":137.041479,"zip":"4450891"},{"town":"山下町","koaza":"東八幡山","lat":34.865163,"lng":137.043102,"zip":"4450877"},{"town":"山下町","koaza":"八幡山","lat":34.863521,"lng":137.042013,"zip":"4450877"},{"town":"上町","koaza":"花蔵山","lat":34.875053,"lng":137.041776,"zip":"4450894"},{"town":"熱池町","koaza":"西切","lat":34.83845,"lng":137.041962,"zip":"4450881"},{"town":"上道目記町","koaza":"上市場","lat":34.836378,"lng":137.043152,"zip":"4450882"},{"town":"市子町","koaza":"酒屋乾地","lat":34.824762,"lng":137.043113,"zip":"4450055"},{"town":"一色町池田","koaza":"上河田","lat":34.812776,"lng":137.041507,"zip":"4440401"},{"town":"一色町松木島","koaza":"丸山","lat":34.793479,"lng":137.042873,"zip":"4440403"},{"town":"市子町","koaza":"上川田","lat":34.834165,"lng":137.04243,"zip":"4450055"},{"town":"市子町","koaza":"白山西","lat":34.833229,"lng":137.04268,"zip":"4450055"},{"town":"住崎町","koaza":"掛下","lat":34.860143,"lng":137.042932,"zip":"4450876"},{"town":"上町","koaza":"矢狭間","lat":34.873822,"lng":137.041747,"zip":"4450894"},{"town":"上町","koaza":"向田","lat":34.872639,"lng":137.042453,"zip":"4450894"},{"town":"一色町大塚","koaza":"稲場","lat":34.805659,"lng":137.04375,"zip":"4440402"},{"town":"上町","koaza":"宮西","lat":34.881489,"lng":137.042753,"zip":"4450894"},{"town":"一色町池田","koaza":"丑新田","lat":34.820748,"lng":137.042301,"zip":"4440401"},{"town":"一色町池田","koaza":"埋田","lat":34.822018,"lng":137.0425,"zip":"4440401"},{"town":"一色町千間","koaza":"上通東","lat":34.787413,"lng":137.044037,"zip":"4440411"},{"town":"上町","koaza":"堀ノ内屋敷","lat":34.873673,"lng":137.043737,"zip":"4450894"},{"town":"一色町池田","koaza":"宮前","lat":34.816697,"lng":137.044361,"zip":"4440401"},{"town":"菱池町","koaza":"六反縄","lat":34.843315,"lng":137.043085,"zip":"4450874"},{"town":"熱池町","koaza":"神田","lat":34.840801,"lng":137.040254,"zip":"4450881"},{"town":"一色町池田","koaza":"池丑新田","lat":34.818956,"lng":137.04362,"zip":"4440401"},{"town":"一色町松木島","koaza":"榎","lat":34.799239,"lng":137.043634,"zip":"4440403"},{"town":"深池町","koaza":"新道","lat":34.852945,"lng":137.043391,"zip":"4450875"},{"town":"上町","koaza":"宮前","lat":34.880691,"lng":137.04282,"zip":"4450894"},{"town":"一色町千間","koaza":"小柳","lat":34.78392,"lng":137.045393,"zip":"4440411"},{"town":"熱池町","koaza":"中切","lat":34.839028,"lng":137.043293,"zip":"4450881"},{"town":"一色町池田","koaza":"松原","lat":34.814308,"lng":137.043543,"zip":"4440401"},{"town":"菱池町","koaza":"落","lat":34.842607,"lng":137.044147,"zip":"4450874"},{"town":"一色町池田","koaza":"八王寺","lat":34.823277,"lng":137.042641,"zip":"4440401"},{"town":"熱池町","koaza":"東切","lat":34.837888,"lng":137.044343,"zip":"4450881"},{"town":"平口町","koaza":"仏照伝","lat":34.821312,"lng":137.044749,"zip":"4450054"},{"town":"一色町松木島","koaza":"宮東","lat":34.795101,"lng":137.044461,"zip":"4440403"},{"town":"一色町大塚","koaza":"惣池","lat":34.801336,"lng":137.043599,"zip":"4440402"},{"town":"市子町","koaza":"大宮東","lat":34.829287,"lng":137.04533,"zip":"4450055"},{"town":"市子町","koaza":"白山東","lat":34.832483,"lng":137.044569,"zip":"4450055"},{"town":"一色町大塚","koaza":"大坪","lat":34.808393,"lng":137.044761,"zip":"4440402"},{"town":"上町","koaza":"積善寺","lat":34.872267,"lng":137.04431,"zip":"4450894"},{"town":"菱池町","koaza":"蜂ノ尻","lat":34.845192,"lng":137.044579,"zip":"4450874"},{"town":"一色町千間","koaza":"戌改上","lat":34.785757,"lng":137.045322,"zip":"4440411"},{"town":"上町","koaza":"北側","lat":34.879009,"lng":137.044765,"zip":"4450894"},{"town":"住崎町","koaza":"雁渕","lat":34.860846,"lng":137.043623,"zip":"4450876"},{"town":"一色町大塚","koaza":"西相丸","lat":34.8128,"lng":137.044266,"zip":"4440402"},{"town":"一色町大塚","koaza":"古川","lat":34.800433,"lng":137.045318,"zip":"4440402"},{"town":"上町","koaza":"堀ノ内東","lat":34.874312,"lng":137.044522,"zip":"4450894"},{"town":"一色町大塚","koaza":"竹荒井","lat":34.801703,"lng":137.044145,"zip":"4440402"},{"town":"一色町池田","koaza":"後河","lat":34.817272,"lng":137.045051,"zip":"4440401"},{"town":"平口町","koaza":"神明東","lat":34.819924,"lng":137.04454,"zip":"4450054"},{"town":"一色町池田","koaza":"市場","lat":34.816011,"lng":137.04496,"zip":"4440401"},{"town":"山下町","koaza":"泡原","lat":34.863742,"lng":137.045723,"zip":"4450877"},{"town":"熱池町","koaza":"古新田","lat":34.836538,"lng":137.044662,"zip":"4450881"},{"town":"熱池町","koaza":"奥屋","lat":34.839152,"lng":137.044863,"zip":"4450881"},{"town":"深池町","koaza":"西ケ崎","lat":34.850386,"lng":137.04601,"zip":"4450875"},{"town":"一色町松木島","koaza":"自分山","lat":34.798743,"lng":137.045114,"zip":"4440403"},{"town":"下町","koaza":"八幡下","lat":34.866164,"lng":137.044979,"zip":"4450891"},{"town":"深池町","koaza":"神田","lat":34.851516,"lng":137.045453,"zip":"4450875"},{"town":"菱池町","koaza":"池畔","lat":34.846799,"lng":137.045484,"zip":"4450874"},{"town":"上町","koaza":"上中田","lat":34.87623,"lng":137.046631,"zip":"4450894"},{"town":"菱池町","koaza":"大坪","lat":34.842486,"lng":137.046216,"zip":"4450874"},{"town":"平口町","koaza":"天王前","lat":34.824279,"lng":137.045465,"zip":"4450054"},{"town":"菱池町","koaza":"大道","lat":34.844127,"lng":137.046646,"zip":"4450874"},{"town":"深池町","koaza":"小橋","lat":34.853361,"lng":137.045553,"zip":"4450875"},{"town":"一色町大塚","koaza":"金田","lat":34.806125,"lng":137.046006,"zip":"4440402"},{"town":"市子町","koaza":"天白","lat":34.832143,"lng":137.045423,"zip":"4450055"},{"town":"一色町松木島","koaza":"下汐田","lat":34.786788,"lng":137.046628,"zip":"4440403"},{"town":"一色町松木島","koaza":"上汐田","lat":34.791738,"lng":137.045308,"zip":"4440403"},{"town":"熱池町","koaza":"上新田","lat":34.838858,"lng":137.046653,"zip":"4450881"},{"town":"上町","koaza":"泡原","lat":34.870752,"lng":137.0468,"zip":"4450894"},{"town":"矢曽根町","koaza":"中ノ森","lat":34.854077,"lng":137.04654,"zip":"4450872"},{"town":"平口町","koaza":"新田東","lat":34.820054,"lng":137.045358,"zip":"4450054"},{"town":"上町","koaza":"立中","lat":34.878072,"lng":137.045833,"zip":"4450894"},{"town":"平口町","koaza":"奥川","lat":34.825929,"lng":137.047186,"zip":"4450054"},{"town":"住崎町","koaza":"流","lat":34.861015,"lng":137.045675,"zip":"4450876"},{"town":"一色町大塚","koaza":"相丸","lat":34.814226,"lng":137.046979,"zip":"4440402"},{"town":"菱池町","koaza":"平池","lat":34.841677,"lng":137.047392,"zip":"4450874"},{"town":"一色町大塚","koaza":"長池","lat":34.808015,"lng":137.047197,"zip":"4440402"},{"town":"一色町大塚","koaza":"赤西","lat":34.80258,"lng":137.046214,"zip":"4440402"},{"town":"市子町","koaza":"出藪","lat":34.826859,"lng":137.046154,"zip":"4450055"},{"town":"市子町","koaza":"落合","lat":34.828407,"lng":137.046698,"zip":"4450055"},{"town":"上町","koaza":"北名向","lat":34.880197,"lng":137.046264,"zip":"4450894"},{"town":"斉藤町","koaza":"上縄","lat":34.833566,"lng":137.046973,"zip":"4450056"},{"town":"深池町","koaza":"五六","lat":34.850106,"lng":137.04696,"zip":"4450875"},{"town":"斉藤町","koaza":"新田","lat":34.837253,"lng":137.047058,"zip":"4450056"},{"town":"一色町大塚","koaza":"七反","lat":34.809086,"lng":137.047053,"zip":"4440402"},{"town":"平口町","koaza":"蓮台","lat":34.820732,"lng":137.047245,"zip":"4450054"},{"town":"米津町","koaza":"郷西","lat":34.892498,"lng":137.049776,"zip":"4450802"},{"town":"菱池町","koaza":"洲崎","lat":34.847122,"lng":137.046992,"zip":"4450874"},{"town":"一色町大塚","koaza":"宮前","lat":34.811139,"lng":137.047381,"zip":"4440402"},{"town":"深池町","koaza":"上口","lat":34.851883,"lng":137.047471,"zip":"4450875"},{"town":"南中根町","koaza":"前田","lat":34.894612,"lng":137.050204,"zip":"4450801"},{"town":"斉藤町","koaza":"下側","lat":34.834513,"lng":137.047881,"zip":"4450056"},{"town":"菱池町","koaza":"新田","lat":34.841363,"lng":137.048558,"zip":"4450874"},{"town":"一色町大塚","koaza":"下古新","lat":34.805488,"lng":137.048648,"zip":"4440402"},{"town":"斉藤町","koaza":"下縄","lat":34.831224,"lng":137.047808,"zip":"4450056"},{"town":"平口町","koaza":"南川","lat":34.823925,"lng":137.048592,"zip":"4450054"},{"town":"一色町大塚","koaza":"河田","lat":34.812828,"lng":137.04864,"zip":"4440402"},{"town":"斉藤町","koaza":"郷中","lat":34.837201,"lng":137.048365,"zip":"4450056"},{"town":"笹曽根町","koaza":"横堤","lat":34.817356,"lng":137.048204,"zip":"4450053"},{"town":"笹曽根町","koaza":"西屋敷","lat":34.823085,"lng":137.048345,"zip":"4450053"},{"town":"斉藤町","koaza":"柳原","lat":34.833017,"lng":137.048057,"zip":"4450056"},{"town":"山下町","koaza":"多茂ノ木","lat":34.863276,"lng":137.047845,"zip":"4450877"},{"town":"笹曽根町","koaza":"赤類","lat":34.818113,"lng":137.047796,"zip":"4450053"},{"town":"笹曽根町","koaza":"西落合","lat":34.819616,"lng":137.04869,"zip":"4450053"},{"town":"吉良町大島","koaza":"上","lat":34.798214,"lng":137.0481,"zip":"4440517"},{"town":"吉良町大島","koaza":"中","lat":34.795954,"lng":137.048879,"zip":"4440517"},{"town":"野々宮町","koaza":"北大割","lat":34.831042,"lng":137.049242,"zip":"4450057"},{"town":"平口町","koaza":"向","lat":34.828192,"lng":137.048527,"zip":"4450054"},{"town":"矢曽根町","koaza":"一本木","lat":34.854291,"lng":137.049428,"zip":"4450872"},{"town":"川口町","koaza":"松原","lat":34.843847,"lng":137.048156,"zip":"4450873"},{"town":"笹曽根町","koaza":"柳添","lat":34.815814,"lng":137.048502,"zip":"4450053"},{"town":"吉良町大島","koaza":"下","lat":34.79368,"lng":137.048455,"zip":"4440517"},{"town":"矢曽根町","koaza":"蓮雲寺","lat":34.856984,"lng":137.050689,"zip":"4450872"},{"town":"川口町","koaza":"中切","lat":34.847773,"lng":137.051259,"zip":"4450873"},{"town":"須脇町","koaza":"下新田","lat":34.84053,"lng":137.048831,"zip":"4450046"},{"town":"一色町大塚","koaza":"上古新","lat":34.80939,"lng":137.049115,"zip":"4440402"},{"town":"吉良町大島","koaza":"一反畑","lat":34.790801,"lng":137.049261,"zip":"4440517"},{"town":"上町","koaza":"菖蒲池","lat":34.873736,"lng":137.047359,"zip":"4450894"},{"town":"野々宮町","koaza":"間尻","lat":34.82834,"lng":137.049399,"zip":"4450057"},{"town":"吉良町大島","koaza":"彦兵衛山","lat":34.801124,"lng":137.048947,"zip":"4440517"},{"town":"南中根町","koaza":"荒子","lat":34.899219,"lng":137.049919,"zip":"4450801"},{"town":"吉良町大島","koaza":"勘兵衛","lat":34.798819,"lng":137.048769,"zip":"4440517"},{"town":"吉良町大島","koaza":"中道下","lat":34.797221,"lng":137.05063,"zip":"4440517"},{"town":"斉藤町","koaza":"羽根戸","lat":34.837301,"lng":137.049141,"zip":"4450056"},{"town":"深池町","koaza":"東浦","lat":34.852415,"lng":137.048738,"zip":"4450875"},{"town":"笹曽根町","koaza":"上河原","lat":34.822627,"lng":137.049206,"zip":"4450053"},{"town":"川口町","koaza":"平池","lat":34.84293,"lng":137.049746,"zip":"4450873"},{"town":"笹曽根町","koaza":"相丸","lat":34.815141,"lng":137.049193,"zip":"4450053"},{"town":"斉藤町","koaza":"前田","lat":34.835849,"lng":137.049204,"zip":"4450056"},{"town":"平口町","koaza":"赤池","lat":34.824714,"lng":137.049006,"zip":"4450054"},{"town":"須脇町","koaza":"大境","lat":34.839538,"lng":137.049512,"zip":"4450046"},{"town":"鶴城町","koaza":"丘","lat":34.876466,"lng":137.04944,"zip":"4450805"},{"town":"野々宮町","koaza":"茶木","lat":34.831813,"lng":137.050017,"zip":"4450057"},{"town":"川口町","koaza":"神明","lat":34.845667,"lng":137.050296,"zip":"4450873"},{"town":"南中根町","koaza":"貝ス","lat":34.89975,"lng":137.050817,"zip":"4450801"},{"town":"笹曽根町","koaza":"松山","lat":34.817219,"lng":137.049603,"zip":"4450053"},{"town":"須脇町","koaza":"下池田","lat":34.840884,"lng":137.050359,"zip":"4450046"},{"town":"笹曽根町","koaza":"中屋敷","lat":34.822521,"lng":137.049967,"zip":"4450053"},{"town":"野々宮町","koaza":"下宮東","lat":34.829371,"lng":137.050216,"zip":"4450057"},{"town":"吉良町荻原","koaza":"一番割","lat":34.801855,"lng":137.050874,"zip":"4440524"},{"town":"吉良町大島","koaza":"寺西","lat":34.794343,"lng":137.049396,"zip":"4440517"},{"town":"矢曽根町","koaza":"籾山","lat":34.858614,"lng":137.051708,"zip":"4450872"},{"town":"川口町","koaza":"中西","lat":34.850123,"lng":137.050393,"zip":"4450873"},{"town":"吉良町大島","koaza":"大山","lat":34.790405,"lng":137.051355,"zip":"4440517"},{"town":"野々宮町","koaza":"百苅","lat":34.827676,"lng":137.050879,"zip":"4450057"},{"town":"笹曽根町","koaza":"東落合","lat":34.819549,"lng":137.04982,"zip":"4450053"},{"town":"伊藤町","koaza":"沖","lat":34.878947,"lng":137.050444,"zip":"4450806"},{"town":"平口町","koaza":"大溝","lat":34.825696,"lng":137.050824,"zip":"4450054"},{"town":"野々宮町","koaza":"越地野","lat":34.833093,"lng":137.050361,"zip":"4450057"},{"town":"米津町","koaza":"蔵屋敷","lat":34.892026,"lng":137.051197,"zip":"4450802"},{"town":"笹曽根町","koaza":"寺前","lat":34.821102,"lng":137.050313,"zip":"4450053"},{"town":"斉藤町","koaza":"向縄","lat":34.83455,"lng":137.050538,"zip":"4450056"},{"town":"斉藤町","koaza":"大割","lat":34.83587,"lng":137.051237,"zip":"4450056"},{"town":"吉良町吉田","koaza":"西高島","lat":34.784334,"lng":137.052896,"zip":"4440516"},{"town":"笹曽根町","koaza":"郷東","lat":34.819493,"lng":137.050339,"zip":"4450053"},{"town":"矢曽根町","koaza":"下前田","lat":34.854621,"lng":137.050592,"zip":"4450872"},{"town":"川口町","koaza":"浅間","lat":34.851722,"lng":137.05281,"zip":"4450873"},{"town":"野々宮町","koaza":"宮東","lat":34.830156,"lng":137.050894,"zip":"4450057"},{"town":"吉良町大島","koaza":"替地","lat":34.796205,"lng":137.050813,"zip":"4440517"},{"town":"鶴城町","koaza":"鶴城ケ丘","lat":34.87602,"lng":137.050212,"zip":"4450805"},{"town":"吉良町大島","koaza":"桟敷","lat":34.787761,"lng":137.050565,"zip":"4440517"},{"town":"笹曽根町","koaza":"圦下","lat":34.820643,"lng":137.051176,"zip":"4450053"},{"town":"細池町","koaza":"宮前","lat":34.843994,"lng":137.052217,"zip":"4450047"},{"town":"伊藤町","koaza":"宮前","lat":34.882109,"lng":137.051462,"zip":"4450806"},{"town":"野々宮町","koaza":"北川","lat":34.830732,"lng":137.051502,"zip":"4450057"},{"town":"伊藤町","koaza":"村西","lat":34.880685,"lng":137.050642,"zip":"4450806"},{"town":"野々宮町","koaza":"平目","lat":34.832295,"lng":137.051046,"zip":"4450057"},{"town":"南中根町","koaza":"道合","lat":34.899654,"lng":137.052017,"zip":"4450801"},{"town":"川口町","koaza":"宮前","lat":34.849407,"lng":137.052943,"zip":"4450873"},{"town":"野々宮町","koaza":"上落","lat":34.82932,"lng":137.051686,"zip":"4450057"},{"town":"伊藤町","koaza":"宮東","lat":34.883664,"lng":137.052728,"zip":"4450806"},{"town":"平口町","koaza":"川原","lat":34.824806,"lng":137.051448,"zip":"4450054"},{"town":"吉良町荻原","koaza":"小入道","lat":34.80361,"lng":137.052682,"zip":"4440524"},{"town":"南中根町","koaza":"居山","lat":34.900899,"lng":137.053727,"zip":"4450801"},{"town":"米津町","koaza":"家下","lat":34.8946,"lng":137.05364,"zip":"4450802"},{"town":"吉良町吉田","koaza":"高島新田","lat":34.782586,"lng":137.053316,"zip":"4440516"},{"town":"吉良町荻原","koaza":"小川尻","lat":34.798693,"lng":137.053492,"zip":"4440524"},{"town":"細池町","koaza":"郷西","lat":34.845216,"lng":137.051927,"zip":"4450047"},{"town":"吉良町荻原","koaza":"外川田","lat":34.801865,"lng":137.052662,"zip":"4440524"},{"town":"伊藤町","koaza":"村","lat":34.880836,"lng":137.052428,"zip":"4450806"},{"town":"米津町","koaza":"白沢","lat":34.892149,"lng":137.053149,"zip":"4450802"},{"town":"須脇町","koaza":"流","lat":34.838686,"lng":137.053096,"zip":"4450046"},{"town":"伊藤町","koaza":"クテ","lat":34.88218,"lng":137.052477,"zip":"4450806"},{"town":"米津町","koaza":"里","lat":34.889706,"lng":137.05318,"zip":"4450802"},{"town":"吉良町吉田","koaza":"離島","lat":34.791901,"lng":137.055497,"zip":"4440516"},{"town":"矢曽根町","koaza":"寺後","lat":34.857018,"lng":137.05271,"zip":"4450872"},{"town":"横手町","koaza":"古泓","lat":34.831926,"lng":137.052934,"zip":"4450052"},{"town":"須脇町","koaza":"上池田","lat":34.841424,"lng":137.052542,"zip":"4450046"},{"town":"細池町","koaza":"家下","lat":34.845793,"lng":137.053195,"zip":"4450047"},{"town":"笹曽根町","koaza":"上新畑","lat":34.821918,"lng":137.051486,"zip":"4450053"},{"town":"南中根町","koaza":"銭入","lat":34.902981,"lng":137.053179,"zip":"4450801"},{"town":"笹曽根町","koaza":"雁守","lat":34.822445,"lng":137.053519,"zip":"4450053"},{"town":"野々宮町","koaza":"斉藤泓","lat":34.834856,"lng":137.052287,"zip":"4450057"},{"town":"野々宮町","koaza":"尾竹","lat":34.833397,"lng":137.05241,"zip":"4450057"},{"town":"南中根町","koaza":"小脇","lat":34.899201,"lng":137.053529,"zip":"4450801"},{"town":"伊藤町","koaza":"伊藤東","lat":34.878065,"lng":137.054249,"zip":"4450806"},{"town":"吉良町八幡川田","koaza":"カヤハ","lat":34.813509,"lng":137.053084,"zip":"4440526"},{"town":"鶴城町","koaza":"北二ノ沢","lat":34.875545,"lng":137.053841,"zip":"4450805"},{"town":"斉藤町","koaza":"上吹","lat":34.835677,"lng":137.053999,"zip":"4450056"},{"town":"平口町","koaza":"豆地","lat":34.825422,"lng":137.05521,"zip":"4450054"},{"town":"吉良町富田","koaza":"雑田","lat":34.806923,"lng":137.053108,"zip":"4440525"},{"town":"吉良町八幡川田","koaza":"上川田","lat":34.815957,"lng":137.05317,"zip":"4440526"},{"town":"矢曽根町","koaza":"東田面","lat":34.856,"lng":137.05555,"zip":"4450872"},{"town":"平口町","koaza":"雁守","lat":34.823823,"lng":137.053359,"zip":"4450054"},{"town":"細池町","koaza":"高洲","lat":34.847094,"lng":137.055005,"zip":"4450047"},{"town":"横手町","koaza":"銭亀","lat":34.833701,"lng":137.05356,"zip":"4450052"},{"town":"吉良町八幡川田","koaza":"上","lat":34.814772,"lng":137.053806,"zip":"4440526"},{"town":"米津町","koaza":"荒子","lat":34.885058,"lng":137.053448,"zip":"4450802"},{"town":"横手町","koaza":"溝東","lat":34.826123,"lng":137.055075,"zip":"4450052"},{"town":"吉良町富田","koaza":"市子野","lat":34.809705,"lng":137.052554,"zip":"4440525"},{"town":"吉良町富田","koaza":"的場","lat":34.807682,"lng":137.054519,"zip":"4440525"},{"town":"吉良町荻原","koaza":"百度荒子","lat":34.802104,"lng":137.054842,"zip":"4440524"},{"town":"伊藤町","koaza":"伊藤東二","lat":34.881643,"lng":137.054466,"zip":"4450806"},{"town":"吉良町富田","koaza":"江ケ原","lat":34.809052,"lng":137.05474,"zip":"4440525"},{"town":"吉良町吉田","koaza":"西川畔","lat":34.79795,"lng":137.054109,"zip":"4440516"},{"town":"南中根町","koaza":"仲山","lat":34.905072,"lng":137.057432,"zip":"4450801"},{"town":"横手町","koaza":"畑割","lat":34.832706,"lng":137.054664,"zip":"4450052"},{"town":"吉良町富田","koaza":"小割","lat":34.8173,"lng":137.054886,"zip":"4440525"},{"town":"矢曽根町","koaza":"赤地","lat":34.858576,"lng":137.055249,"zip":"4450872"},{"town":"今川町","koaza":"西新田","lat":34.849913,"lng":137.056694,"zip":"4450063"},{"town":"十郎島町","koaza":"下縄","lat":34.836991,"lng":137.055667,"zip":"4450045"},{"town":"南中根町","koaza":"長仙","lat":34.901084,"lng":137.055831,"zip":"4450801"},{"town":"横手町","koaza":"下泓","lat":34.830055,"lng":137.056174,"zip":"4450052"},{"town":"吉良町吉田","koaza":"小池","lat":34.794385,"lng":137.056389,"zip":"4440516"},{"town":"吉良町荻原","koaza":"斧田洗","lat":34.804484,"lng":137.055238,"zip":"4440524"},{"town":"吉良町吉田","koaza":"東高島","lat":34.784654,"lng":137.057441,"zip":"4440516"},{"town":"吉良町吉田","koaza":"下屋敷","lat":34.795809,"lng":137.056364,"zip":"4440516"},{"town":"横手町","koaza":"大縄","lat":34.82742,"lng":137.055427,"zip":"4450052"},{"town":"吉良町富田","koaza":"徳法師","lat":34.806398,"lng":137.055367,"zip":"4440525"},{"town":"米津町","koaza":"天竺桂","lat":34.891128,"lng":137.056494,"zip":"4450802"},{"town":"横手町","koaza":"上泓","lat":34.831911,"lng":137.055546,"zip":"4450052"},{"town":"米津町","koaza":"宮前","lat":34.89334,"lng":137.056489,"zip":"4450802"},{"town":"吉良町下横須賀","koaza":"荒子前","lat":34.819505,"lng":137.057203,"zip":"4440522"},{"town":"吉良町富田","koaza":"仙並","lat":34.807621,"lng":137.056829,"zip":"4440525"},{"town":"細池町","koaza":"十良山","lat":34.848579,"lng":137.055739,"zip":"4450047"},{"town":"吉良町吉田","koaza":"中屋敷","lat":34.797262,"lng":137.056343,"zip":"4440516"},{"town":"米津町","koaza":"丸之内","lat":34.897423,"lng":137.055473,"zip":"4450802"},{"town":"米津町","koaza":"渡場","lat":34.889613,"lng":137.057114,"zip":"4450802"},{"town":"桜町","koaza":"溜池","lat":34.879722,"lng":137.056388,"zip":"4450803"},{"town":"米津町","koaza":"種木","lat":34.885458,"lng":137.056522,"zip":"4450802"},{"town":"南中根町","koaza":"山畑","lat":34.903689,"lng":137.057317,"zip":"4450801"},{"town":"吉良町富田","koaza":"寺内","lat":34.814506,"lng":137.055884,"zip":"4440525"},{"town":"今川町","koaza":"海当","lat":34.851841,"lng":137.056846,"zip":"4450063"},{"town":"細池町","koaza":"東川","lat":34.844587,"lng":137.05692,"zip":"4450047"},{"town":"天竹町","koaza":"下登","lat":34.833105,"lng":137.056786,"zip":"4450051"},{"town":"吉良町荻原","koaza":"牛池","lat":34.805973,"lng":137.056484,"zip":"4440524"},{"town":"吉良町富田","koaza":"海郷","lat":34.812956,"lng":137.057067,"zip":"4440525"},{"town":"吉良町吉田","koaza":"宇野津","lat":34.798677,"lng":137.057253,"zip":"4440516"},{"town":"横手町","koaza":"池田","lat":34.825776,"lng":137.055763,"zip":"4450052"},{"town":"吉良町富田","koaza":"広畑","lat":34.81105,"lng":137.056618,"zip":"4440525"},{"town":"吉良町荻原","koaza":"早渡","lat":34.802633,"lng":137.056676,"zip":"4440524"},{"town":"吉良町富田","koaza":"西屋敷","lat":34.814766,"lng":137.057955,"zip":"4440525"},{"town":"横手町","koaza":"二反田","lat":34.829533,"lng":137.057056,"zip":"4450052"},{"town":"吉良町下横須賀","koaza":"荒子","lat":34.820658,"lng":137.056718,"zip":"4440522"},{"town":"横手町","koaza":"元屋敷","lat":34.828463,"lng":137.058081,"zip":"4450052"},{"town":"細池町","koaza":"天神東","lat":34.846479,"lng":137.057174,"zip":"4450047"},{"town":"桜町","koaza":"中新田","lat":34.880935,"lng":137.057247,"zip":"4450803"},{"town":"米津町","koaza":"宮浦","lat":34.896925,"lng":137.059249,"zip":"4450802"},{"town":"天竹町","koaza":"河原","lat":34.831436,"lng":137.058123,"zip":"4450051"},{"town":"吉良町下横須賀","koaza":"瀬戸田","lat":34.821701,"lng":137.057166,"zip":"4440522"},{"town":"吉良町吉田","koaza":"豊岡","lat":34.782699,"lng":137.057704,"zip":"4440516"},{"town":"吉良町富田","koaza":"松原","lat":34.80879,"lng":137.057596,"zip":"4440525"},{"town":"細池町","koaza":"北高洲","lat":34.847764,"lng":137.057727,"zip":"4450047"},{"town":"米津町","koaza":"蓮台","lat":34.892607,"lng":137.058336,"zip":"4450802"},{"town":"横手町","koaza":"北屋敷","lat":34.829008,"lng":137.058895,"zip":"4450052"},{"town":"十郎島町","koaza":"南屋敷","lat":34.837895,"lng":137.058311,"zip":"4450045"},{"town":"吉良町吉田","koaza":"平ケ山","lat":34.795507,"lng":137.058597,"zip":"4440516"},{"town":"鵜ケ池町","koaza":"柳田","lat":34.840777,"lng":137.058398,"zip":"4450043"},{"town":"横手町","koaza":"出屋敷","lat":34.826823,"lng":137.058598,"zip":"4450052"},{"town":"桜町","koaza":"奥新田","lat":34.884048,"lng":137.055978,"zip":"4450803"},{"town":"今川町","koaza":"大城","lat":34.855243,"lng":137.057223,"zip":"4450063"},{"town":"吉良町吉田","koaza":"忠四郎前","lat":34.792214,"lng":137.058005,"zip":"4440516"},{"town":"鵜ケ池町","koaza":"大道","lat":34.845337,"lng":137.059955,"zip":"4450043"},{"town":"吉良町荻原","koaza":"金畑","lat":34.804273,"lng":137.058623,"zip":"4440524"},{"town":"吉良町下横須賀","koaza":"六人","lat":34.818984,"lng":137.05879,"zip":"4440522"},{"town":"吉良町下横須賀","koaza":"網坪","lat":34.81973,"lng":137.058123,"zip":"4440522"},{"town":"吉良町吉田","koaza":"宮前","lat":34.79903,"lng":137.060045,"zip":"4440516"},{"town":"今川町","koaza":"宮西","lat":34.852067,"lng":137.058809,"zip":"4450063"},{"town":"道光寺町","koaza":"天王下","lat":34.869472,"lng":137.059076,"zip":"4450811"},{"town":"今川町","koaza":"東大城","lat":34.856186,"lng":137.057607,"zip":"4450063"},{"town":"吉良町富田","koaza":"代官前","lat":34.811933,"lng":137.058786,"zip":"4440525"},{"town":"十郎島町","koaza":"平地","lat":34.837204,"lng":137.058116,"zip":"4450045"},{"town":"新渡場町","koaza":"大西","lat":34.885124,"lng":137.05733,"zip":"4450077"},{"town":"十郎島町","koaza":"郷西","lat":34.839454,"lng":137.058529,"zip":"4450045"},{"town":"今川町","koaza":"馬捨場","lat":34.857253,"lng":137.059551,"zip":"4450063"},{"town":"細池町","koaza":"南側","lat":34.847173,"lng":137.059645,"zip":"4450047"},{"town":"天竹町","koaza":"八ツ通","lat":34.832028,"lng":137.059218,"zip":"4450051"},{"town":"鎌谷町","koaza":"榎島","lat":34.838041,"lng":137.059675,"zip":"4450044"},{"town":"天竹町","koaza":"地蔵前","lat":34.829821,"lng":137.059244,"zip":"4450051"},{"town":"道光寺町","koaza":"山田","lat":34.875402,"lng":137.058823,"zip":"4450811"},{"town":"吉良町吉田","koaza":"西郷","lat":34.794756,"lng":137.060157,"zip":"4440516"},{"town":"吉良町吉田","koaza":"堀割","lat":34.79316,"lng":137.060413,"zip":"4440516"},{"town":"吉良町荻原","koaza":"割田","lat":34.805578,"lng":137.061575,"zip":"4440524"},{"town":"吉良町富田","koaza":"堀ノ内","lat":34.81336,"lng":137.060091,"zip":"4440525"},{"town":"吉良町富田","koaza":"八石","lat":34.809846,"lng":137.059377,"zip":"4440525"},{"town":"今川町","koaza":"仲屋敷","lat":34.853071,"lng":137.059727,"zip":"4450063"},{"town":"吉良町下横須賀","koaza":"高徳","lat":34.822059,"lng":137.059523,"zip":"4440522"},{"town":"細池町","koaza":"央","lat":34.848398,"lng":137.060807,"zip":"4450047"},{"town":"吉良町富田","koaza":"中屋敷","lat":34.813776,"lng":137.059649,"zip":"4440525"},{"town":"米津町","koaza":"川向","lat":34.886771,"lng":137.059392,"zip":"4450802"},{"town":"十郎島町","koaza":"北屋敷","lat":34.839303,"lng":137.059744,"zip":"4450045"},{"town":"天竹町","koaza":"池田","lat":34.830272,"lng":137.059883,"zip":"4450051"},{"town":"鵜ケ池町","koaza":"茅場","lat":34.840776,"lng":137.06157,"zip":"4450043"},{"town":"今川町","koaza":"宮東","lat":34.852412,"lng":137.060504,"zip":"4450063"},{"town":"鵜ケ池町","koaza":"神明前","lat":34.844182,"lng":137.061533,"zip":"4450043"},{"town":"新渡場町","koaza":"中切","lat":34.886457,"lng":137.061474,"zip":"4450077"},{"town":"米津町","koaza":"仲之畑","lat":34.890645,"lng":137.060588,"zip":"4450802"},{"town":"今川町","koaza":"御堂東","lat":34.854603,"lng":137.061235,"zip":"4450063"},{"town":"米津町","koaza":"順縄","lat":34.902065,"lng":137.060008,"zip":"4450802"},{"town":"吉良町富田","koaza":"坊寺","lat":34.817157,"lng":137.060474,"zip":"4440525"},{"town":"吉良町荻原","koaza":"秋箱","lat":34.801943,"lng":137.060354,"zip":"4440524"},{"town":"米津町","koaza":"久手","lat":34.893941,"lng":137.060284,"zip":"4450802"},{"town":"道光寺町","koaza":"郷中","lat":34.873542,"lng":137.059374,"zip":"4450811"},{"town":"吉良町吉田","koaza":"新田","lat":34.783701,"lng":137.061586,"zip":"4440516"},{"town":"鵜ケ池町","koaza":"出口","lat":34.841968,"lng":137.060884,"zip":"4450043"},{"town":"吉良町下横須賀","koaza":"池田","lat":34.823235,"lng":137.061666,"zip":"4440522"},{"town":"南中根町","koaza":"曽根","lat":34.909812,"lng":137.061448,"zip":"4450801"},{"town":"吉良町富田","koaza":"惣作","lat":34.809578,"lng":137.060649,"zip":"4440525"},{"town":"南中根町","koaza":"東割","lat":34.905738,"lng":137.060796,"zip":"4450801"},{"town":"道光寺町","koaza":"堰板","lat":34.872137,"lng":137.060851,"zip":"4450811"},{"town":"丁田町","koaza":"杢左","lat":34.86036,"lng":137.062332,"zip":"4450062"},{"town":"天竹町","koaza":"元海道","lat":34.832463,"lng":137.060539,"zip":"4450051"},{"town":"道光寺町","koaza":"東縄","lat":34.870542,"lng":137.061728,"zip":"4450811"},{"town":"吉良町吉田","koaza":"須原","lat":34.796269,"lng":137.061819,"zip":"4440516"},{"town":"米津町","koaza":"西大狼","lat":34.903855,"lng":137.062229,"zip":"4450802"},{"town":"吉良町荻原","koaza":"下川田","lat":34.804769,"lng":137.06161,"zip":"4440524"},{"town":"吉良町富田","koaza":"樋口","lat":34.811449,"lng":137.061488,"zip":"4440525"},{"town":"米津町","koaza":"八百目","lat":34.898293,"lng":137.061083,"zip":"4450802"},{"town":"吉良町吉田","koaza":"東郷","lat":34.795003,"lng":137.062717,"zip":"4440516"},{"town":"鎌谷町","koaza":"中屋敷","lat":34.839856,"lng":137.062651,"zip":"4450044"},{"town":"米津町","koaza":"野寺道","lat":34.891471,"lng":137.063212,"zip":"4450802"},{"town":"米津町","koaza":"落合","lat":34.901083,"lng":137.060628,"zip":"4450802"},{"town":"米津町","koaza":"雨堀","lat":34.897624,"lng":137.063008,"zip":"4450802"},{"town":"吉良町富田","koaza":"荒井屋敷","lat":34.81272,"lng":137.062064,"zip":"4440525"},{"town":"吉良町富田","koaza":"殿海戸","lat":34.81374,"lng":137.063158,"zip":"4440525"},{"town":"鵜ケ池町","koaza":"中屋敷","lat":34.843877,"lng":137.0635,"zip":"4450043"},{"town":"鎌谷町","koaza":"元屋敷","lat":34.835536,"lng":137.062576,"zip":"4450044"},{"town":"吉良町荻原","koaza":"烏帽子","lat":34.809129,"lng":137.062001,"zip":"4440524"},{"town":"寄住町","koaza":"佃","lat":34.867714,"lng":137.063404,"zip":"4450073"},{"town":"米津町","koaza":"赤兀","lat":34.901063,"lng":137.062398,"zip":"4450802"},{"town":"天竹町","koaza":"東番除毛","lat":34.833685,"lng":137.061889,"zip":"4450051"},{"town":"米津町","koaza":"五郎田","lat":34.897536,"lng":137.061362,"zip":"4450802"},{"town":"新渡場町","koaza":"地蔵前","lat":34.885059,"lng":137.06192,"zip":"4450077"},{"town":"鵜ケ池町","koaza":"天神前","lat":34.84246,"lng":137.063177,"zip":"4450043"},{"town":"米津町","koaza":"桜道","lat":34.89433,"lng":137.063795,"zip":"4450802"},{"town":"天竹町","koaza":"堀内","lat":34.833421,"lng":137.06246,"zip":"4450051"},{"town":"今川町","koaza":"石橋","lat":34.858084,"lng":137.063037,"zip":"4450063"},{"town":"細池町","koaza":"正善坊","lat":34.848044,"lng":137.062583,"zip":"4450047"},{"town":"鎌谷町","koaza":"道入","lat":34.837824,"lng":137.063581,"zip":"4450044"},{"town":"寄住町","koaza":"柴草","lat":34.869712,"lng":137.063569,"zip":"4450073"},{"town":"寄住町","koaza":"神明","lat":34.867142,"lng":137.061959,"zip":"4450073"},{"town":"吉良町吉田","koaza":"山中","lat":34.799247,"lng":137.061964,"zip":"4440516"},{"town":"吉良町下横須賀","koaza":"七ツ山","lat":34.828123,"lng":137.063449,"zip":"4440522"},{"town":"南中根町","koaza":"小割","lat":34.910934,"lng":137.063106,"zip":"4450801"},{"town":"新渡場町","koaza":"山新田","lat":34.885451,"lng":137.063557,"zip":"4450077"},{"town":"鎌谷町","koaza":"北屋敷","lat":34.840755,"lng":137.063934,"zip":"4450044"},{"town":"新渡場町","koaza":"万日","lat":34.887047,"lng":137.066268,"zip":"4450077"},{"town":"吉良町吉田","koaza":"上島津","lat":34.793951,"lng":137.061912,"zip":"4440516"},{"town":"吉良町荻原","koaza":"中重田","lat":34.809153,"lng":137.06356,"zip":"4440524"},{"town":"今川町","koaza":"池端","lat":34.853427,"lng":137.06474,"zip":"4450063"},{"town":"米津町","koaza":"東大狼","lat":34.903687,"lng":137.063525,"zip":"4450802"},{"town":"吉良町下横須賀","koaza":"須前","lat":34.822193,"lng":137.064466,"zip":"4440522"},{"town":"今川町","koaza":"岩根","lat":34.854958,"lng":137.064945,"zip":"4450063"},{"town":"鵜ケ池町","koaza":"上屋敷","lat":34.846388,"lng":137.063864,"zip":"4450043"},{"town":"吉良町富田","koaza":"長根","lat":34.81576,"lng":137.063903,"zip":"4440525"},{"town":"細池町","koaza":"神明","lat":34.849235,"lng":137.063862,"zip":"4450047"},{"town":"吉良町下横須賀","koaza":"須西","lat":34.824786,"lng":137.064213,"zip":"4440522"},{"town":"戸ケ崎町","koaza":"広美","lat":34.875201,"lng":137.064061,"zip":"4450074"},{"town":"吉良町荻原","koaza":"大堀合","lat":34.802828,"lng":137.063978,"zip":"4440524"},{"town":"吉良町荻原","koaza":"大道通","lat":34.806456,"lng":137.065169,"zip":"4440524"},{"town":"吉良町富田","koaza":"井戸尻","lat":34.811665,"lng":137.064269,"zip":"4440525"},{"town":"丁田町","koaza":"流","lat":34.858916,"lng":137.06573,"zip":"4450062"},{"town":"寄住町","koaza":"灯籠下","lat":34.871262,"lng":137.063581,"zip":"4450073"},{"town":"吉良町荻原","koaza":"新池","lat":34.804424,"lng":137.064479,"zip":"4440524"},{"town":"吉良町富田","koaza":"東屋敷","lat":34.814645,"lng":137.064506,"zip":"4440525"},{"town":"吉良町下横須賀","koaza":"寺屋敷","lat":34.826182,"lng":137.064153,"zip":"4440522"},{"town":"寄住町","koaza":"上田","lat":34.872442,"lng":137.064503,"zip":"4450073"},{"town":"吉良町下横須賀","koaza":"須","lat":34.82404,"lng":137.065661,"zip":"4440522"},{"town":"今川町","koaza":"元川原","lat":34.856836,"lng":137.066456,"zip":"4450063"},{"town":"吉良町吉田","koaza":"天笠桂","lat":34.800654,"lng":137.065158,"zip":"4440516"},{"town":"吉良町下横須賀","koaza":"加長割","lat":34.827753,"lng":137.064475,"zip":"4440522"},{"town":"吉良町吉田","koaza":"万田","lat":34.789214,"lng":137.065896,"zip":"4440516"},{"town":"吉良町吉田","koaza":"大切間","lat":34.796888,"lng":137.06418,"zip":"4440516"},{"town":"熊味町","koaza":"中泡原","lat":34.872562,"lng":137.066194,"zip":"4450071"},{"town":"吉良町下横須賀","koaza":"荒井","lat":34.826158,"lng":137.065378,"zip":"4440522"},{"town":"熊味町","koaza":"南十五夜","lat":34.865152,"lng":137.066647,"zip":"4450071"},{"town":"吉良町下横須賀","koaza":"神明西","lat":34.829366,"lng":137.064681,"zip":"4440522"},{"town":"鎌谷町","koaza":"地市","lat":34.841494,"lng":137.065524,"zip":"4450044"},{"town":"鎌谷町","koaza":"池田","lat":34.837403,"lng":137.065651,"zip":"4450044"},{"town":"寄住町","koaza":"東浦","lat":34.869096,"lng":137.065425,"zip":"4450073"},{"town":"吉良町富田","koaza":"天白","lat":34.815353,"lng":137.066486,"zip":"4440525"},{"town":"今川町","koaza":"東新田","lat":34.850706,"lng":137.064733,"zip":"4450063"},{"town":"吉良町下横須賀","koaza":"西下河原","lat":34.828245,"lng":137.065822,"zip":"4440522"},{"town":"鵜ケ池町","koaza":"源左","lat":34.843761,"lng":137.06513,"zip":"4450043"},{"town":"吉良町吉田","koaza":"松木田","lat":34.797233,"lng":137.0666,"zip":"4440516"},{"town":"鎌谷町","koaza":"藤太池","lat":34.839233,"lng":137.065556,"zip":"4450044"},{"town":"吉良町吉田","koaza":"伝蔵荒子","lat":34.795137,"lng":137.064263,"zip":"4440516"},{"town":"吉良町下横須賀","koaza":"東下河原","lat":34.826665,"lng":137.066881,"zip":"4440522"},{"town":"吉良町荻原","koaza":"城下","lat":34.808596,"lng":137.067237,"zip":"4440524"},{"town":"細池町","koaza":"東堤","lat":34.848016,"lng":137.065156,"zip":"4450047"},{"town":"吉良町吉田","koaza":"上榎島","lat":34.793037,"lng":137.066824,"zip":"4440516"},{"town":"戸ケ崎町","koaza":"城山","lat":34.87664,"lng":137.066911,"zip":"4450074"},{"town":"吉良町富田","koaza":"油田","lat":34.818369,"lng":137.066563,"zip":"4440525"},{"town":"吉良町吉田","koaza":"下榎島","lat":34.791371,"lng":137.066921,"zip":"4440516"},{"town":"鵜ケ池町","koaza":"五林","lat":34.8452,"lng":137.067142,"zip":"4450043"},{"town":"吉良町上横須賀","koaza":"的場","lat":34.831119,"lng":137.065368,"zip":"4440521"},{"town":"吉良町富田","koaza":"新御堂","lat":34.817107,"lng":137.066161,"zip":"4440525"},{"town":"吉良町上横須賀","koaza":"杉ノ木","lat":34.83061,"lng":137.066524,"zip":"4440521"},{"town":"吉良町吉田","koaza":"八ツ田","lat":34.794328,"lng":137.067738,"zip":"4440516"},{"town":"今川町","koaza":"桜堀","lat":34.854533,"lng":137.066312,"zip":"4450063"},{"town":"熊味町","koaza":"北十五夜","lat":34.866145,"lng":137.067547,"zip":"4450071"},{"town":"吉良町荻原","koaza":"桐杭","lat":34.80223,"lng":137.067467,"zip":"4440524"},{"town":"八ツ面町","koaza":"松崎","lat":34.874879,"lng":137.068633,"zip":"4450082"},{"town":"熊味町","koaza":"西平角","lat":34.87076,"lng":137.067126,"zip":"4450071"},{"town":"丁田町","koaza":"中ノ切","lat":34.860302,"lng":137.066655,"zip":"4450062"},{"town":"吉良町下横須賀","koaza":"柳原","lat":34.826029,"lng":137.067277,"zip":"4440522"},{"town":"吉良町上横須賀","koaza":"馬頭","lat":34.832917,"lng":137.065769,"zip":"4440521"},{"town":"鵜ケ池町","koaza":"中通","lat":34.842582,"lng":137.067967,"zip":"4450043"},{"town":"今川町","koaza":"寺前","lat":34.852751,"lng":137.066853,"zip":"4450063"},{"town":"吉良町富田","koaza":"陰無","lat":34.816574,"lng":137.067252,"zip":"4440525"},{"town":"熊味町","koaza":"小松島","lat":34.868088,"lng":137.067356,"zip":"4450071"},{"town":"細池町","koaza":"沖田","lat":34.848989,"lng":137.068169,"zip":"4450047"},{"town":"丁田町","koaza":"前通","lat":34.8571,"lng":137.068779,"zip":"4450062"},{"town":"吉良町上横須賀","koaza":"元屋敷","lat":34.829138,"lng":137.067594,"zip":"4440521"},{"town":"戸ケ崎町","koaza":"清水","lat":34.875481,"lng":137.067163,"zip":"4450074"},{"town":"吉良町上横須賀","koaza":"寒破池","lat":34.833029,"lng":137.067632,"zip":"4440521"},{"town":"今川町","koaza":"堤合","lat":34.851725,"lng":137.068541,"zip":"4450063"},{"town":"今川町","koaza":"東堀","lat":34.85339,"lng":137.067836,"zip":"4450063"},{"town":"吉良町荻原","koaza":"川中","lat":34.807437,"lng":137.067245,"zip":"4440524"},{"town":"吉良町上横須賀","koaza":"池端","lat":34.835215,"lng":137.068959,"zip":"4440521"},{"town":"戸ケ崎町","koaza":"豊美","lat":34.878762,"lng":137.067711,"zip":"4450074"},{"town":"吉良町荻原","koaza":"下丁田","lat":34.810798,"lng":137.067756,"zip":"4440524"},{"town":"吉良町吉田","koaza":"石池","lat":34.796588,"lng":137.068331,"zip":"4440516"},{"town":"鎌谷町","koaza":"大河田","lat":34.838767,"lng":137.067727,"zip":"4450044"},{"town":"吉良町荻原","koaza":"座甲","lat":34.813457,"lng":137.069307,"zip":"4440524"},{"town":"徳次町","koaza":"上十五夜","lat":34.863972,"lng":137.067579,"zip":"4450072"},{"town":"丁田町","koaza":"道東","lat":34.858422,"lng":137.070242,"zip":"4450062"},{"town":"吉良町吉田","koaza":"神明塚","lat":34.793078,"lng":137.06814,"zip":"4440516"},{"town":"熊味町","koaza":"道万","lat":34.869175,"lng":137.068091,"zip":"4450071"},{"town":"吉良町吉田","koaza":"桐杭","lat":34.800542,"lng":137.068187,"zip":"4440516"},{"town":"戸ケ崎町","koaza":"大泡原","lat":34.878579,"lng":137.06956,"zip":"4450074"},{"town":"吉良町吉田","koaza":"宮腰","lat":34.797798,"lng":137.068899,"zip":"4440516"},{"town":"吉良町吉田","koaza":"西中浜","lat":34.789362,"lng":137.068372,"zip":"4440516"},{"town":"丁田町","koaza":"上ノ切","lat":34.861673,"lng":137.067661,"zip":"4450062"},{"town":"吉良町荻原","koaza":"御用田","lat":34.809892,"lng":137.069268,"zip":"4440524"},{"town":"吉良町上横須賀","koaza":"蔵屋敷","lat":34.831717,"lng":137.068747,"zip":"4440521"},{"town":"熊味町","koaza":"山畔","lat":34.872077,"lng":137.069469,"zip":"4450071"},{"town":"志貴野町","koaza":"中山","lat":34.887207,"lng":137.068594,"zip":"4450084"},{"town":"吉良町下横須賀","koaza":"一ノ割","lat":34.827306,"lng":137.068324,"zip":"4440522"},{"town":"徳次町","koaza":"九伝","lat":34.863104,"lng":137.069488,"zip":"4450072"},{"town":"熊味町","koaza":"東平角","lat":34.870699,"lng":137.069046,"zip":"4450071"},{"town":"吉良町荻原","koaza":"埋畑","lat":34.815508,"lng":137.070442,"zip":"4440524"},{"town":"吉良町饗庭","koaza":"神ノ木","lat":34.805177,"lng":137.069776,"zip":"4440523"},{"town":"吉良町饗庭","koaza":"向川田","lat":34.803037,"lng":137.06894,"zip":"4440523"},{"town":"宅野島町","koaza":"堀込","lat":34.845673,"lng":137.070892,"zip":"4450042"},{"town":"吉良町上横須賀","koaza":"五反田","lat":34.828433,"lng":137.069993,"zip":"4440521"},{"town":"吉良町吉田","koaza":"上浜","lat":34.794351,"lng":137.069674,"zip":"4440516"},{"town":"戸ケ崎町","koaza":"宝美","lat":34.882049,"lng":137.069882,"zip":"4450074"},{"town":"吉良町饗庭","koaza":"子コロビ","lat":34.807658,"lng":137.070246,"zip":"4440523"},{"town":"徳次町","koaza":"小藪","lat":34.865178,"lng":137.069821,"zip":"4450072"},{"town":"熊味町","koaza":"上泡原","lat":34.873271,"lng":137.069076,"zip":"4450071"},{"town":"丁田町","koaza":"柳堂","lat":34.861693,"lng":137.070364,"zip":"4450062"},{"town":"宅野島町","koaza":"郷西","lat":34.849841,"lng":137.069926,"zip":"4450042"},{"town":"吉良町吉田","koaza":"桑ノ木","lat":34.800457,"lng":137.070032,"zip":"4440516"},{"town":"吉良町上横須賀","koaza":"八王子","lat":34.832581,"lng":137.070891,"zip":"4440521"},{"town":"宅野島町","koaza":"前田","lat":34.846643,"lng":137.070198,"zip":"4450042"},{"town":"吉良町上横須賀","koaza":"雑役免","lat":34.820191,"lng":137.071783,"zip":"4440521"},{"town":"今川町","koaza":"川新田","lat":34.852766,"lng":137.070076,"zip":"4450063"},{"town":"吉良町荻原","koaza":"七曲","lat":34.817587,"lng":137.070904,"zip":"4440524"},{"town":"吉良町饗庭","koaza":"矢通","lat":34.803667,"lng":137.070032,"zip":"4440523"},{"town":"吉良町吉田","koaza":"斉藤久","lat":34.798233,"lng":137.071455,"zip":"4440516"},{"town":"今川町","koaza":"上新田","lat":34.856083,"lng":137.070406,"zip":"4450063"},{"town":"熊味町","koaza":"大道南","lat":34.868929,"lng":137.071969,"zip":"4450071"},{"town":"吉良町荻原","koaza":"渡辺","lat":34.813049,"lng":137.070859,"zip":"4440524"},{"town":"吉良町饗庭","koaza":"薬師西","lat":34.802653,"lng":137.07099,"zip":"4440523"},{"town":"吉良町上横須賀","koaza":"宮前","lat":34.829948,"lng":137.070839,"zip":"4440521"},{"town":"吉良町吉田","koaza":"亥改","lat":34.795758,"lng":137.071612,"zip":"4440516"},{"town":"宅野島町","koaza":"郷中","lat":34.847963,"lng":137.072307,"zip":"4450042"},{"town":"吉良町荻原","koaza":"大貝戸","lat":34.810915,"lng":137.070952,"zip":"4440524"},{"town":"志貴野町","koaza":"福部","lat":34.885875,"lng":137.069066,"zip":"4450084"},{"town":"八ツ面町","koaza":"八反田","lat":34.875032,"lng":137.070846,"zip":"4450082"},{"town":"小焼野町","koaza":"西切","lat":34.852379,"lng":137.070855,"zip":"4450041"},{"town":"吉良町吉田","koaza":"船戸","lat":34.793335,"lng":137.071925,"zip":"4440516"},{"town":"八ツ面町","koaza":"上泡原","lat":34.878975,"lng":137.071382,"zip":"4450082"},{"town":"八ツ面町","koaza":"外夜島","lat":34.884053,"lng":137.071007,"zip":"4450082"},{"town":"熊味町","koaza":"大道北","lat":34.87066,"lng":137.072153,"zip":"4450071"},{"town":"吉良町岡山","koaza":"池西","lat":34.840925,"lng":137.070833,"zip":"4440531"},{"town":"徳次町","koaza":"明大寺","lat":34.863958,"lng":137.072288,"zip":"4450072"},{"town":"吉良町上横須賀","koaza":"六石目","lat":34.822863,"lng":137.071503,"zip":"4440521"},{"town":"小焼野町","koaza":"郷前","lat":34.854159,"lng":137.071156,"zip":"4450041"},{"town":"吉良町饗庭","koaza":"須畑前","lat":34.803882,"lng":137.071361,"zip":"4440523"},{"town":"八ツ面町","koaza":"市場","lat":34.876589,"lng":137.071871,"zip":"4450082"},{"town":"吉良町饗庭","koaza":"血洗","lat":34.801422,"lng":137.071147,"zip":"4440523"},{"town":"吉良町吉田","koaza":"東中浜","lat":34.79096,"lng":137.073047,"zip":"4440516"},{"town":"八ツ面町","koaza":"熊子山","lat":34.873041,"lng":137.072161,"zip":"4450082"},{"town":"徳次町","koaza":"地蔵","lat":34.866616,"lng":137.070788,"zip":"4450072"},{"town":"吉良町吉田","koaza":"新浜","lat":34.788993,"lng":137.073226,"zip":"4440516"},{"town":"吉良町上横須賀","koaza":"宮腰","lat":34.831886,"lng":137.072291,"zip":"4440521"},{"town":"小焼野町","koaza":"西川","lat":34.855778,"lng":137.071788,"zip":"4450041"},{"town":"八ツ面町","koaza":"臼子","lat":34.880975,"lng":137.072081,"zip":"4450082"},{"town":"吉良町上横須賀","koaza":"神田","lat":34.825732,"lng":137.071479,"zip":"4440521"},{"town":"吉良町饗庭","koaza":"兼畑","lat":34.809397,"lng":137.071872,"zip":"4440523"},{"town":"吉良町饗庭","koaza":"川田","lat":34.81226,"lng":137.074262,"zip":"4440523"},{"town":"吉良町荻原","koaza":"小野","lat":34.81465,"lng":137.072154,"zip":"4440524"},{"town":"吉良町荻原","koaza":"細畑","lat":34.813042,"lng":137.072266,"zip":"4440524"},{"town":"吉良町中野","koaza":"新堤","lat":34.818276,"lng":137.07252,"zip":"4440536"},{"town":"吉良町饗庭","koaza":"辻畑","lat":34.802651,"lng":137.072314,"zip":"4440523"},{"town":"寄近町","koaza":"西大道","lat":34.861153,"lng":137.073041,"zip":"4450061"},{"town":"中原町","koaza":"荒子","lat":34.883229,"lng":137.073873,"zip":"4450083"},{"town":"吉良町岡山","koaza":"代見場","lat":34.839829,"lng":137.073629,"zip":"4440531"},{"town":"吉良町饗庭","koaza":"圦ノ口","lat":34.80079,"lng":137.072294,"zip":"4440523"},{"town":"徳次町","koaza":"宮廻","lat":34.866465,"lng":137.072586,"zip":"4450072"},{"town":"八ツ面町","koaza":"半ノ木下","lat":34.875013,"lng":137.072352,"zip":"4450082"},{"town":"吉良町木田","koaza":"須崎","lat":34.833898,"lng":137.07199,"zip":"4440534"},{"town":"中原町","koaza":"惣野山","lat":34.884937,"lng":137.074007,"zip":"4450083"},{"town":"吉良町中野","koaza":"西畑","lat":34.822017,"lng":137.074119,"zip":"4440536"},{"town":"吉良町岡山","koaza":"山ケ田","lat":34.838194,"lng":137.073158,"zip":"4440531"},{"town":"吉良町酒井","koaza":"丸池","lat":34.816712,"lng":137.07309,"zip":"4440537"},{"town":"吉良町饗庭","koaza":"京田","lat":34.805256,"lng":137.072598,"zip":"4440523"},{"town":"吉良町上横須賀","koaza":"綿打","lat":34.830412,"lng":137.072756,"zip":"4440521"},{"town":"吉良町中野","koaza":"さ稿","lat":34.819985,"lng":137.074679,"zip":"4440536"},{"town":"八ツ面町","koaza":"松葉","lat":34.880546,"lng":137.073529,"zip":"4450082"},{"town":"吉良町上横須賀","koaza":"青木前","lat":34.824727,"lng":137.073082,"zip":"4440521"},{"town":"吉良町上横須賀","koaza":"青木","lat":34.82608,"lng":137.073482,"zip":"4440521"},{"town":"吉良町酒井","koaza":"赤坂","lat":34.81446,"lng":137.075669,"zip":"4440537"},{"town":"中原町","koaza":"西田","lat":34.885763,"lng":137.072853,"zip":"4450083"},{"town":"小焼野町","koaza":"東切","lat":34.850869,"lng":137.073512,"zip":"4450041"},{"town":"中原町","koaza":"村前","lat":34.882478,"lng":137.073541,"zip":"4450083"},{"town":"八ツ面町","koaza":"麓","lat":34.874428,"lng":137.077277,"zip":"4450082"},{"town":"寄近町","koaza":"中田島","lat":34.860971,"lng":137.074032,"zip":"4450061"},{"town":"八ツ面町","koaza":"新御堂","lat":34.872194,"lng":137.07329,"zip":"4450082"},{"town":"小焼野町","koaza":"北川","lat":34.855676,"lng":137.073778,"zip":"4450041"},{"town":"寄近町","koaza":"郷西","lat":34.859407,"lng":137.072256,"zip":"4450061"},{"town":"八ツ面町","koaza":"貸売","lat":34.872952,"lng":137.073035,"zip":"4450082"},{"town":"徳次町","koaza":"殿屋敷","lat":34.865083,"lng":137.074448,"zip":"4450072"},{"town":"吉良町小山田","koaza":"天神","lat":34.799256,"lng":137.073864,"zip":"4440511"},{"town":"吉良町上横須賀","koaza":"菱池","lat":34.827953,"lng":137.072534,"zip":"4440521"},{"town":"吉良町中野","koaza":"西荒井","lat":34.823598,"lng":137.074088,"zip":"4440536"},{"town":"吉良町酒井","koaza":"寺後","lat":34.816087,"lng":137.074462,"zip":"4440537"},{"town":"吉良町饗庭","koaza":"小橋","lat":34.800907,"lng":137.074162,"zip":"4440523"},{"town":"寄近町","koaza":"池向","lat":34.858935,"lng":137.074481,"zip":"4450061"},{"town":"八ツ面町","koaza":"土井","lat":34.877966,"lng":137.074511,"zip":"4450082"},{"town":"吉良町上横須賀","koaza":"西川田","lat":34.82567,"lng":137.073793,"zip":"4440521"},{"town":"吉良町木田","koaza":"八ツ縄","lat":34.835908,"lng":137.074117,"zip":"4440534"},{"town":"吉良町富好新田","koaza":"上川並","lat":34.797305,"lng":137.074582,"zip":"4440515"},{"town":"吉良町上横須賀","koaza":"神ノ木","lat":34.831269,"lng":137.07432,"zip":"4440521"},{"town":"徳次町","koaza":"円満寺","lat":34.862367,"lng":137.073696,"zip":"4450072"},{"town":"吉良町饗庭","koaza":"丸ノ内","lat":34.803098,"lng":137.074308,"zip":"4440523"},{"town":"八ツ面町","koaza":"梅之宮","lat":34.872242,"lng":137.075323,"zip":"4450082"},{"town":"吉良町饗庭","koaza":"七度ケ入","lat":34.810174,"lng":137.074761,"zip":"4440523"},{"town":"吉良町上横須賀","koaza":"青木上","lat":34.829216,"lng":137.074684,"zip":"4440521"},{"town":"熊味町","koaza":"上池田","lat":34.868204,"lng":137.074962,"zip":"4450071"},{"town":"吉良町岡山","koaza":"若宮前","lat":34.842453,"lng":137.073986,"zip":"4440531"},{"town":"小焼野町","koaza":"宮前","lat":34.851341,"lng":137.075564,"zip":"4450041"},{"town":"吉良町小山田","koaza":"市場","lat":34.798579,"lng":137.075036,"zip":"4440511"},{"town":"中原町","koaza":"堀割","lat":34.88582,"lng":137.074896,"zip":"4450083"},{"town":"吉良町木田","koaza":"祐言","lat":34.833728,"lng":137.075592,"zip":"4440534"},{"town":"熊味町","koaza":"珠弥堂","lat":34.870356,"lng":137.075057,"zip":"4450071"},{"town":"志貴野町","koaza":"丸山","lat":34.886182,"lng":137.073396,"zip":"4450084"},{"town":"吉良町富好新田","koaza":"中川並","lat":34.79517,"lng":137.075446,"zip":"4440515"},{"town":"吉良町富好新田","koaza":"川並","lat":34.79309,"lng":137.075836,"zip":"4440515"},{"town":"吉良町木田","koaza":"六反通","lat":34.831022,"lng":137.075741,"zip":"4440534"},{"town":"中原町","koaza":"新田","lat":34.884124,"lng":137.076095,"zip":"4450083"},{"town":"寄近町","koaza":"堂本","lat":34.860323,"lng":137.075261,"zip":"4450061"},{"town":"寄近町","koaza":"城崎","lat":34.859025,"lng":137.075092,"zip":"4450061"},{"town":"吉良町木田","koaza":"宮脇","lat":34.833041,"lng":137.075652,"zip":"4440534"},{"town":"八ツ面町","koaza":"後土","lat":34.879962,"lng":137.075851,"zip":"4450082"},{"town":"吉良町中野","koaza":"郷中","lat":34.822364,"lng":137.076029,"zip":"4440536"},{"town":"小焼野町","koaza":"南川","lat":34.852858,"lng":137.076192,"zip":"4450041"},{"town":"小焼野町","koaza":"東川","lat":34.854467,"lng":137.076935,"zip":"4450041"},{"town":"吉良町富好新田","koaza":"下川並","lat":34.790878,"lng":137.076538,"zip":"4440515"},{"town":"志貴野町","koaza":"宮東","lat":34.888108,"lng":137.07609,"zip":"4450084"},{"town":"吉良町岡山","koaza":"砦下","lat":34.840186,"lng":137.075919,"zip":"4440531"},{"town":"吉良町小山田","koaza":"治ア田","lat":34.802311,"lng":137.07659,"zip":"4440511"},{"town":"吉良町饗庭","koaza":"宮ノ越","lat":34.802678,"lng":137.075938,"zip":"4440523"},{"town":"吉良町岡山","koaza":"王ノ城","lat":34.838482,"lng":137.077065,"zip":"4440531"},{"town":"八ツ面町","koaza":"蔵屋敷","lat":34.878252,"lng":137.07566,"zip":"4450082"},{"town":"徳次町","koaza":"池田","lat":34.8667,"lng":137.075194,"zip":"4450072"},{"town":"中原町","koaza":"道東","lat":34.882278,"lng":137.07608,"zip":"4450083"},{"town":"吉良町小山田","koaza":"西浜田","lat":34.79847,"lng":137.077434,"zip":"4440511"},{"town":"吉良町富好新田","koaza":"井戸後","lat":34.796685,"lng":137.076907,"zip":"4440515"},{"town":"吉良町饗庭","koaza":"白山","lat":34.811373,"lng":137.083237,"zip":"4440523"},{"town":"吉良町中野","koaza":"瀬田","lat":34.825985,"lng":137.077274,"zip":"4440536"},{"town":"中原町","koaza":"有吉下","lat":34.885872,"lng":137.076929,"zip":"4450083"},{"town":"吉良町富好新田","koaza":"蔵井戸","lat":34.794761,"lng":137.077182,"zip":"4440515"},{"town":"吉良町白浜新田","koaza":"北切","lat":34.78793,"lng":137.078812,"zip":"4440514"},{"town":"花蔵寺町","koaza":"西島南","lat":34.849459,"lng":137.079103,"zip":"4450035"},{"town":"熊味町","koaza":"新畑","lat":34.868145,"lng":137.076377,"zip":"4450071"},{"town":"八ツ面町","koaza":"尾屋敷","lat":34.872469,"lng":137.078349,"zip":"4450082"},{"town":"吉良町木田","koaza":"石橋","lat":34.837784,"lng":137.078777,"zip":"4440534"},{"town":"吉良町木田","koaza":"郷中","lat":34.83551,"lng":137.07932,"zip":"4440534"},{"town":"吉良町木田","koaza":"前田","lat":34.833833,"lng":137.079155,"zip":"4440534"},{"town":"志貴野町","koaza":"堤崎","lat":34.888238,"lng":137.077472,"zip":"4450084"},{"town":"吉良町岡山","koaza":"山王下","lat":34.841607,"lng":137.079414,"zip":"4440531"},{"town":"吉良町小山田","koaza":"宮前","lat":34.802455,"lng":137.077342,"zip":"4440511"},{"town":"吉良町酒井","koaza":"新井前","lat":34.817955,"lng":137.079485,"zip":"4440537"},{"town":"吉良町富好新田","koaza":"新開","lat":34.790986,"lng":137.077987,"zip":"4440515"},{"town":"高河原町","koaza":"中川原","lat":34.85794,"lng":137.078668,"zip":"4450023"},{"town":"中原町","koaza":"前畑","lat":34.882314,"lng":137.078027,"zip":"4450083"},{"town":"花蔵寺町","koaza":"西島","lat":34.851777,"lng":137.079638,"zip":"4450035"},{"town":"吉良町富好新田","koaza":"紺屋堀","lat":34.79297,"lng":137.078912,"zip":"4440515"},{"town":"大和田町","koaza":"下新田","lat":34.861165,"lng":137.078694,"zip":"4450024"},{"town":"吉良町富好新田","koaza":"井戸東","lat":34.79487,"lng":137.079468,"zip":"4440515"},{"town":"吉良町小牧","koaza":"郷中","lat":34.829484,"lng":137.081178,"zip":"4440535"},{"town":"大和田町","koaza":"壱番割","lat":34.864359,"lng":137.079495,"zip":"4450024"},{"town":"吉良町富好新田","koaza":"四縄","lat":34.796117,"lng":137.078716,"zip":"4440515"},{"town":"吉良町中野","koaza":"梶洗","lat":34.825983,"lng":137.080434,"zip":"4440536"},{"town":"吉良町木田","koaza":"畑ケ仲","lat":34.83902,"lng":137.079524,"zip":"4440534"},{"town":"吉良町小牧","koaza":"郷後","lat":34.83086,"lng":137.081243,"zip":"4440535"},{"town":"大和田町","koaza":"大屋敷","lat":34.860059,"lng":137.080453,"zip":"4450024"},{"town":"吉良町酒井","koaza":"長兵衛下","lat":34.817377,"lng":137.080192,"zip":"4440537"},{"town":"志貴野町","koaza":"郷前","lat":34.88749,"lng":137.081608,"zip":"4450084"},{"town":"和気町","koaza":"横","lat":34.867553,"lng":137.079911,"zip":"4450025"},{"town":"高河原町","koaza":"柳原","lat":34.857551,"lng":137.081158,"zip":"4450023"},{"town":"高河原町","koaza":"押附","lat":34.855362,"lng":137.080147,"zip":"4450023"},{"town":"吉良町友国","koaza":"舟戸","lat":34.817439,"lng":137.082408,"zip":"4440504"},{"town":"吉良町饗庭","koaza":"花ノ木","lat":34.809029,"lng":137.079214,"zip":"4440523"},{"town":"志籠谷町","koaza":"乾地","lat":34.882007,"lng":137.081608,"zip":"4450081"},{"town":"志貴野町","koaza":"郷南","lat":34.886446,"lng":137.0803,"zip":"4450084"},{"town":"吉良町富好新田","koaza":"四反地","lat":34.794189,"lng":137.081263,"zip":"4440515"},{"town":"吉良町岡山","koaza":"下馬","lat":34.841431,"lng":137.08067,"zip":"4440531"},{"town":"吉良町富好新田","koaza":"役地","lat":34.795796,"lng":137.081496,"zip":"4440515"},{"town":"小島町","koaza":"向山","lat":34.885263,"lng":137.081497,"zip":"4450006"},{"town":"吉良町木田","koaza":"殿貝戸","lat":34.834405,"lng":137.080847,"zip":"4440534"},{"town":"和気町","koaza":"中道","lat":34.866251,"lng":137.080695,"zip":"4450025"},{"town":"花蔵寺町","koaza":"上島","lat":34.854771,"lng":137.082327,"zip":"4450035"},{"town":"中原町","koaza":"半谷","lat":34.885657,"lng":137.080487,"zip":"4450083"},{"town":"吉良町寺嶋","koaza":"御手洗","lat":34.837018,"lng":137.082434,"zip":"4440533"},{"town":"吉良町小山田","koaza":"下浜田","lat":34.798594,"lng":137.081215,"zip":"4440511"},{"town":"和気町","koaza":"梅田","lat":34.869984,"lng":137.082189,"zip":"4450025"},{"town":"吉良町白浜新田","koaza":"下七八","lat":34.785014,"lng":137.081449,"zip":"4440514"},{"town":"吉良町友国","koaza":"道ケ圦","lat":34.811081,"lng":137.093859,"zip":"4440504"},{"town":"和気町","koaza":"長畑","lat":34.868053,"lng":137.081844,"zip":"4450025"},{"town":"吉良町岡山","koaza":"井戸尻","lat":34.841164,"lng":137.081863,"zip":"4440531"},{"town":"志籠谷町","koaza":"幾路","lat":34.883626,"lng":137.081603,"zip":"4450081"},{"town":"吉良町友国","koaza":"山崎","lat":34.818623,"lng":137.083587,"zip":"4440504"},{"town":"吉良町小牧","koaza":"宮西","lat":34.83232,"lng":137.081805,"zip":"4440535"},{"town":"吉良町岡山","koaza":"郷戸","lat":34.83944,"lng":137.082213,"zip":"4440531"},{"town":"小島町","koaza":"城越","lat":34.886611,"lng":137.081821,"zip":"4450006"},{"town":"吉良町友国","koaza":"梶洗前","lat":34.824789,"lng":137.082112,"zip":"4440504"},{"town":"吉良町友国","koaza":"赤田","lat":34.822181,"lng":137.083902,"zip":"4440504"},{"town":"吉良町寺嶋","koaza":"川原","lat":34.83823,"lng":137.08262,"zip":"4440533"},{"town":"吉良町小山田","koaza":"五反田","lat":34.801391,"lng":137.083282,"zip":"4440511"},{"town":"吉良町岡山","koaza":"山王山","lat":34.843382,"lng":137.079945,"zip":"4440531"},{"town":"志貴野町","koaza":"宮前","lat":34.887525,"lng":137.083726,"zip":"4450084"},{"town":"高河原町","koaza":"鎮守","lat":34.858941,"lng":137.082605,"zip":"4450023"},{"town":"和気町","koaza":"北裏","lat":34.869954,"lng":137.083099,"zip":"4450025"},{"town":"吉良町白浜新田","koaza":"南五六","lat":34.784657,"lng":137.082706,"zip":"4440514"},{"town":"吉良町友国","koaza":"梶洗後","lat":34.826387,"lng":137.083804,"zip":"4440504"},{"town":"吉良町富好新田","koaza":"森根","lat":34.789273,"lng":137.083632,"zip":"4440515"},{"town":"吉良町寺嶋","koaza":"川田","lat":34.83364,"lng":137.08421,"zip":"4440533"},{"town":"花蔵寺町","koaza":"上島南","lat":34.852292,"lng":137.083544,"zip":"4450035"},{"town":"吉良町岡山","koaza":"殿町","lat":34.840491,"lng":137.084279,"zip":"4440531"},{"town":"吉良町白浜新田","koaza":"北五六","lat":34.787734,"lng":137.083413,"zip":"4440514"},{"town":"吉良町富好新田","koaza":"西青鳥","lat":34.794768,"lng":137.084628,"zip":"4440515"},{"town":"吉良町小山田","koaza":"稠","lat":34.803205,"lng":137.084199,"zip":"4440511"},{"town":"吉良町小山田","koaza":"藤崎","lat":34.797033,"lng":137.08395,"zip":"4440511"},{"town":"吉良町寺嶋","koaza":"万場","lat":34.83642,"lng":137.083798,"zip":"4440533"},{"town":"花蔵寺町","koaza":"寺前","lat":34.850425,"lng":137.083777,"zip":"4450035"},{"town":"吉良町岡山","koaza":"寺前","lat":34.842104,"lng":137.082442,"zip":"4440531"},{"town":"岡島町","koaza":"八縄","lat":34.861901,"lng":137.084803,"zip":"4450022"},{"town":"吉良町白浜新田","koaza":"宮前","lat":34.785725,"lng":137.084204,"zip":"4440514"},{"town":"小島町","koaza":"下川","lat":34.875997,"lng":137.084121,"zip":"4450006"},{"town":"江原町","koaza":"柳原","lat":34.871645,"lng":137.084892,"zip":"4450026"},{"town":"花蔵寺町","koaza":"宮前","lat":34.853623,"lng":137.084854,"zip":"4450035"},{"town":"江原町","koaza":"御浦","lat":34.873677,"lng":137.084842,"zip":"4450026"},{"town":"小島町","koaza":"永吉","lat":34.875558,"lng":137.085156,"zip":"4450006"},{"town":"吉良町岡山","koaza":"塚ノ上","lat":34.843287,"lng":137.084067,"zip":"4440531"},{"town":"吉良町富好新田","koaza":"三角","lat":34.795263,"lng":137.083689,"zip":"4440515"},{"town":"吉良町寺嶋","koaza":"五反田","lat":34.836878,"lng":137.085169,"zip":"4440533"},{"town":"花蔵寺町","koaza":"五貫目","lat":34.85127,"lng":137.085925,"zip":"4450035"},{"town":"和気町","koaza":"内藤地","lat":34.867216,"lng":137.085619,"zip":"4450025"},{"town":"高河原町","koaza":"内野","lat":34.862558,"lng":137.085069,"zip":"4450023"},{"town":"吉良町乙川","koaza":"白浜","lat":34.78422,"lng":137.085216,"zip":"4440512"},{"town":"高河原町","koaza":"埋田","lat":34.858574,"lng":137.085639,"zip":"4450023"},{"town":"志籠谷町","koaza":"山畔","lat":34.881844,"lng":137.084671,"zip":"4450081"},{"town":"吉良町小山田","koaza":"東山","lat":34.797073,"lng":137.085327,"zip":"4440511"},{"town":"吉良町乙川","koaza":"西大山","lat":34.789262,"lng":137.08585,"zip":"4440512"},{"town":"高河原町","koaza":"外野","lat":34.864145,"lng":137.086163,"zip":"4450023"},{"town":"吉良町白浜新田","koaza":"井骨道上","lat":34.786,"lng":137.085477,"zip":"4440514"},{"town":"吉良町友国","koaza":"和田","lat":34.825622,"lng":137.085982,"zip":"4440504"},{"town":"吉良町友国","koaza":"桜田","lat":34.820255,"lng":137.085548,"zip":"4440504"},{"town":"岡島町","koaza":"東寄田","lat":34.858342,"lng":137.087194,"zip":"4450022"},{"town":"花蔵寺町","koaza":"五貫目東","lat":34.851073,"lng":137.086955,"zip":"4450035"},{"town":"花蔵寺町","koaza":"宮後","lat":34.854454,"lng":137.085658,"zip":"4450035"},{"town":"吉良町小山田","koaza":"野藪","lat":34.802764,"lng":137.085277,"zip":"4440511"},{"town":"花蔵寺町","koaza":"宮東","lat":34.852717,"lng":137.086,"zip":"4450035"},{"town":"吉良町富好新田","koaza":"青鳥","lat":34.794423,"lng":137.085685,"zip":"4440515"},{"town":"吉良町乙川","koaza":"北大山","lat":34.799288,"lng":137.087292,"zip":"4440512"},{"town":"吉良町宮崎","koaza":"西宮後","lat":34.779669,"lng":137.085928,"zip":"4440513"},{"town":"吉良町寺嶋","koaza":"桑原","lat":34.832492,"lng":137.087438,"zip":"4440533"},{"town":"吉良町友国","koaza":"圦","lat":34.817973,"lng":137.087325,"zip":"4440504"},{"town":"室町","koaza":"下野","lat":34.857516,"lng":137.088895,"zip":"4450033"},{"town":"吉良町友国","koaza":"張出","lat":34.81777,"lng":137.085731,"zip":"4440504"},{"town":"吉良町宮崎","koaza":"前留谷","lat":34.780959,"lng":137.085938,"zip":"4440513"},{"town":"吉良町寺嶋","koaza":"中道","lat":34.835774,"lng":137.088102,"zip":"4440533"},{"town":"吉良町津平","koaza":"西深","lat":34.828994,"lng":137.086891,"zip":"4440503"},{"town":"江原町","koaza":"屋敷","lat":34.873119,"lng":137.087585,"zip":"4450026"},{"town":"吉良町瀬戸","koaza":"下川田","lat":34.840125,"lng":137.08716,"zip":"4440532"},{"town":"吉良町岡山","koaza":"尾崎新田","lat":34.841336,"lng":137.086544,"zip":"4440531"},{"town":"江原町","koaza":"後合田","lat":34.870547,"lng":137.088312,"zip":"4450026"},{"town":"吉良町瀬戸","koaza":"藤波","lat":34.838879,"lng":137.087001,"zip":"4440532"},{"town":"吉良町乙川","koaza":"寺前","lat":34.786952,"lng":137.087093,"zip":"4440512"},{"town":"吉良町瀬戸","koaza":"八丁目","lat":34.836562,"lng":137.087495,"zip":"4440532"},{"town":"志籠谷町","koaza":"山崎","lat":34.881066,"lng":137.08751,"zip":"4450081"},{"town":"吉良町宮崎","koaza":"丸山","lat":34.777255,"lng":137.087093,"zip":"4440513"},{"town":"吉良町乙川","koaza":"黒岩","lat":34.78934,"lng":137.08867,"zip":"4440512"},{"town":"吉良町乙川","koaza":"南辰新","lat":34.791349,"lng":137.088533,"zip":"4440512"},{"town":"岡島町","koaza":"西寄田","lat":34.862249,"lng":137.087901,"zip":"4450022"},{"town":"吉良町友国","koaza":"榎下","lat":34.826005,"lng":137.086486,"zip":"4440504"},{"town":"吉良町乙川","koaza":"経後","lat":34.788545,"lng":137.089065,"zip":"4440512"},{"town":"吉良町津平","koaza":"中深","lat":34.831152,"lng":137.087677,"zip":"4440503"},{"town":"小島町","koaza":"川田","lat":34.876368,"lng":137.088171,"zip":"4450006"},{"town":"吉良町宮崎","koaza":"宮東","lat":34.779434,"lng":137.087941,"zip":"4440513"},{"town":"吉良町乙川","koaza":"経前","lat":34.787657,"lng":137.088504,"zip":"4440512"},{"town":"吉良町宮崎","koaza":"宮前","lat":34.77725,"lng":137.08777,"zip":"4440513"},{"town":"吉良町友国","koaza":"前深","lat":34.820827,"lng":137.088005,"zip":"4440504"},{"town":"吉良町瀬戸","koaza":"宮前","lat":34.839827,"lng":137.08827,"zip":"4440532"},{"town":"吉良町小山田","koaza":"大山","lat":34.801293,"lng":137.090978,"zip":"4440511"},{"town":"吉良町乙川","koaza":"源四","lat":34.793946,"lng":137.088943,"zip":"4440512"},{"town":"善明町","koaza":"下深","lat":34.849116,"lng":137.090001,"zip":"4450034"},{"town":"吉良町瀬戸","koaza":"寺下","lat":34.842515,"lng":137.088526,"zip":"4440532"},{"town":"吉良町友国","koaza":"前田","lat":34.824048,"lng":137.088096,"zip":"4440504"},{"town":"室町","koaza":"長割","lat":34.855567,"lng":137.088834,"zip":"4450033"},{"town":"小島町","koaza":"大迫間","lat":34.883147,"lng":137.088032,"zip":"4450006"},{"town":"吉良町友国","koaza":"山ノ上","lat":34.82461,"lng":137.088522,"zip":"4440504"},{"town":"岡島町","koaza":"郷東","lat":34.864421,"lng":137.093043,"zip":"4450022"},{"town":"江原町","koaza":"東塚田","lat":34.865241,"lng":137.089633,"zip":"4450026"},{"town":"吉良町駮馬","koaza":"西深","lat":34.834156,"lng":137.091866,"zip":"4440501"},{"town":"江原町","koaza":"川流","lat":34.869424,"lng":137.090355,"zip":"4450026"},{"town":"吉良町友国","koaza":"揚ゲ","lat":34.822583,"lng":137.089176,"zip":"4440504"},{"town":"吉良町宮崎","koaza":"上ノ山","lat":34.778366,"lng":137.089758,"zip":"4440513"},{"town":"吉良町宮崎","koaza":"寺ノ上","lat":34.779768,"lng":137.089693,"zip":"4440513"},{"town":"吉良町友国","koaza":"松下","lat":34.820526,"lng":137.089542,"zip":"4440504"},{"town":"吉良町駮馬","koaza":"東城","lat":34.835997,"lng":137.091919,"zip":"4440501"},{"town":"吉良町宮崎","koaza":"八王子","lat":34.779133,"lng":137.089281,"zip":"4440513"},{"town":"吉良町駮馬","koaza":"城山","lat":34.835864,"lng":137.090261,"zip":"4440501"},{"town":"小島町","koaza":"船向","lat":34.884471,"lng":137.089334,"zip":"4450006"},{"town":"江原町","koaza":"東浦","lat":34.873159,"lng":137.090297,"zip":"4450026"},{"town":"吉良町乙川","koaza":"中切","lat":34.794704,"lng":137.089933,"zip":"4440512"},{"town":"吉良町乙川","koaza":"北辰新","lat":34.792321,"lng":137.089764,"zip":"4440512"},{"town":"吉良町友国","koaza":"高崎","lat":34.816531,"lng":137.089787,"zip":"4440504"},{"town":"室町","koaza":"波落","lat":34.854489,"lng":137.090829,"zip":"4450033"},{"town":"江原町","koaza":"穴田","lat":34.869967,"lng":137.090814,"zip":"4450026"},{"town":"吉良町瀬戸","koaza":"石ケ崎","lat":34.838691,"lng":137.090567,"zip":"4440532"},{"town":"吉良町瀬戸","koaza":"長坂","lat":34.845379,"lng":137.089865,"zip":"4440532"},{"town":"吉良町友国","koaza":"新田","lat":34.812047,"lng":137.0905,"zip":"4440504"},{"town":"小島町","koaza":"下西","lat":34.878069,"lng":137.090589,"zip":"4450006"},{"town":"吉良町宮崎","koaza":"中新居","lat":34.779397,"lng":137.090864,"zip":"4440513"},{"town":"吉良町津平","koaza":"新山","lat":34.827339,"lng":137.091658,"zip":"4440503"},{"town":"吉良町友国","koaza":"池上","lat":34.814539,"lng":137.090628,"zip":"4440504"},{"town":"吉良町乙川","koaza":"道下","lat":34.793369,"lng":137.093585,"zip":"4440512"},{"town":"吉良町乙川","koaza":"兼狭","lat":34.787963,"lng":137.09104,"zip":"4440512"},{"town":"吉良町友国","koaza":"六反","lat":34.821296,"lng":137.090797,"zip":"4440504"},{"town":"吉良町津平","koaza":"友京","lat":34.824414,"lng":137.093369,"zip":"4440503"},{"town":"善明町","koaza":"高畑","lat":34.851791,"lng":137.091214,"zip":"4450034"},{"town":"吉良町津平","koaza":"西郷","lat":34.828201,"lng":137.092526,"zip":"4440503"},{"town":"吉良町乙川","koaza":"道上","lat":34.794567,"lng":137.092918,"zip":"4440512"},{"town":"江原町","koaza":"宮後","lat":34.875813,"lng":137.092972,"zip":"4450026"},{"town":"小島町","koaza":"郷前","lat":34.881844,"lng":137.092985,"zip":"4450006"},{"town":"江原町","koaza":"西柄","lat":34.86841,"lng":137.092186,"zip":"4450026"},{"town":"吉良町瀬戸","koaza":"寄名山","lat":34.843858,"lng":137.091802,"zip":"4440532"},{"town":"吉良町乙川","koaza":"訳出","lat":34.795601,"lng":137.091568,"zip":"4440512"},{"town":"吉良町乙川","koaza":"圦山","lat":34.786902,"lng":137.093679,"zip":"4440512"},{"town":"善明町","koaza":"新井","lat":34.849372,"lng":137.091283,"zip":"4450034"},{"town":"室町","koaza":"下屋敷","lat":34.853041,"lng":137.096026,"zip":"4450033"},{"town":"吉良町宮崎","koaza":"東新居","lat":34.779769,"lng":137.091805,"zip":"4440513"},{"town":"江原町","koaza":"宮前","lat":34.872789,"lng":137.093089,"zip":"4450026"},{"town":"江原町","koaza":"五六","lat":34.869179,"lng":137.092811,"zip":"4450026"},{"town":"鳥羽町","koaza":"大狐","lat":34.799347,"lng":137.095363,"zip":"4440704"},{"town":"吉良町宮崎","koaza":"馬道","lat":34.778607,"lng":137.092635,"zip":"4440513"},{"town":"小島町","koaza":"円明","lat":34.880518,"lng":137.094537,"zip":"4450006"},{"town":"吉良町駮馬","koaza":"称宜山","lat":34.839971,"lng":137.095859,"zip":"4440501"},{"town":"岡島町","koaza":"郷西","lat":34.867581,"lng":137.09369,"zip":"4450022"},{"town":"小島町","koaza":"二ケ崎","lat":34.887217,"lng":137.093097,"zip":"4450006"},{"town":"吉良町瀬戸","koaza":"神田","lat":34.842026,"lng":137.094772,"zip":"4440532"},{"town":"吉良町駮馬","koaza":"善念山","lat":34.837382,"lng":137.093709,"zip":"4440501"},{"town":"吉良町乙川","koaza":"池下","lat":34.790743,"lng":137.091949,"zip":"4440512"},{"town":"吉良町津平","koaza":"前田","lat":34.82856,"lng":137.095026,"zip":"4440503"},{"town":"小島町","koaza":"本郷","lat":34.883885,"lng":137.094058,"zip":"4450006"},{"town":"江原町","koaza":"山道","lat":34.872612,"lng":137.095647,"zip":"4450026"},{"town":"駒場町","koaza":"東公田池田","lat":34.86203,"lng":137.09611,"zip":"4450021"},{"town":"吉良町乙川","koaza":"治衛","lat":34.789563,"lng":137.094786,"zip":"4440512"},{"town":"岡島町","koaza":"見晴","lat":34.866232,"lng":137.095081,"zip":"4450022"},{"town":"鳥羽町","koaza":"赤岩","lat":34.806397,"lng":137.095515,"zip":"4440704"},{"town":"小島町","koaza":"寺内","lat":34.883218,"lng":137.094317,"zip":"4450006"},{"town":"室町","koaza":"雲地","lat":34.853136,"lng":137.094332,"zip":"4450033"},{"town":"吉良町乙川","koaza":"寺廻","lat":34.791104,"lng":137.095615,"zip":"4440512"},{"town":"善明町","koaza":"一本松","lat":34.849797,"lng":137.092619,"zip":"4450034"},{"town":"吉良町駮馬","koaza":"郷中","lat":34.834486,"lng":137.094907,"zip":"4440501"},{"town":"岡島町","koaza":"宮西","lat":34.869376,"lng":137.096974,"zip":"4450022"},{"town":"吉良町津平","koaza":"中谷","lat":34.828072,"lng":137.094868,"zip":"4440503"},{"town":"小島町","koaza":"北裏","lat":34.883171,"lng":137.096647,"zip":"4450006"},{"town":"江原町","koaza":"上荒井前","lat":34.876176,"lng":137.096656,"zip":"4450026"},{"town":"江原町","koaza":"野中","lat":34.870095,"lng":137.095734,"zip":"4450026"},{"town":"吉良町駮馬","koaza":"足迫","lat":34.838813,"lng":137.102951,"zip":"4440501"},{"town":"江原町","koaza":"焼野","lat":34.87766,"lng":137.096576,"zip":"4450026"},{"town":"小島町","koaza":"柏","lat":34.881948,"lng":137.096055,"zip":"4450006"},{"town":"室町","koaza":"寺畑","lat":34.859914,"lng":137.098549,"zip":"4450033"},{"town":"西浅井町","koaza":"坂下","lat":34.886192,"lng":137.099276,"zip":"4450004"},{"town":"吉良町駮馬","koaza":"東鍛治山","lat":34.836867,"lng":137.096064,"zip":"4440501"},{"town":"鳥羽町","koaza":"平松","lat":34.800081,"lng":137.097595,"zip":"4440704"},{"town":"善明町","koaza":"宮下","lat":34.851901,"lng":137.098046,"zip":"4450034"},{"town":"吉良町駮馬","koaza":"浦山","lat":34.83556,"lng":137.095467,"zip":"4440501"},{"town":"吉良町津平","koaza":"東深","lat":34.829113,"lng":137.099042,"zip":"4440503"},{"town":"駒場町","koaza":"公田池田","lat":34.864934,"lng":137.095158,"zip":"4450021"},{"town":"鳥羽町","koaza":"足ケ谷","lat":34.803218,"lng":137.09622,"zip":"4440704"},{"town":"吉良町乙川","koaza":"孫三","lat":34.790825,"lng":137.096986,"zip":"4440512"},{"town":"尾花町","koaza":"内野","lat":34.875396,"lng":137.097999,"zip":"4450027"},{"town":"西浅井町","koaza":"下川原","lat":34.884362,"lng":137.097857,"zip":"4450004"},{"town":"吉良町津平","koaza":"中村","lat":34.826974,"lng":137.097328,"zip":"4440503"},{"town":"西浅井町","koaza":"郷西田","lat":34.887247,"lng":137.097629,"zip":"4450004"},{"town":"吉良町乙川","koaza":"喜太夫","lat":34.794679,"lng":137.097314,"zip":"4440512"},{"town":"室町","koaza":"東毘沙門","lat":34.858022,"lng":137.097483,"zip":"4450033"},{"town":"室町","koaza":"四ツ田","lat":34.855635,"lng":137.097765,"zip":"4450033"},{"town":"吉良町駮馬","koaza":"荒井","lat":34.833703,"lng":137.097987,"zip":"4440501"},{"town":"吉良町駮馬","koaza":"平所","lat":34.836255,"lng":137.097687,"zip":"4440501"},{"town":"岡島町","koaza":"天保","lat":34.867972,"lng":137.096406,"zip":"4450022"},{"town":"室町","koaza":"向田","lat":34.852156,"lng":137.099129,"zip":"4450033"},{"town":"尾花町","koaza":"前砂地","lat":34.872394,"lng":137.097658,"zip":"4450027"},{"town":"鳥羽町","koaza":"迎","lat":34.796606,"lng":137.098806,"zip":"4440704"},{"town":"吉良町宮崎","koaza":"部田","lat":34.783226,"lng":137.097412,"zip":"4440513"},{"town":"吉良町乙川","koaza":"姫山","lat":34.792911,"lng":137.098281,"zip":"4440512"},{"town":"鳥羽町","koaza":"八反田","lat":34.800975,"lng":137.09951,"zip":"4440704"},{"town":"吉良町津平","koaza":"東郷","lat":34.825674,"lng":137.09911,"zip":"4440503"},{"town":"江原町","koaza":"米野前","lat":34.878845,"lng":137.099,"zip":"4450026"},{"town":"室町","koaza":"東一色","lat":34.857351,"lng":137.099181,"zip":"4450033"},{"town":"室町","koaza":"中屋敷","lat":34.856748,"lng":137.100261,"zip":"4450033"},{"town":"米野町","koaza":"土井ノ内","lat":34.879567,"lng":137.09835,"zip":"4450005"},{"town":"室町","koaza":"北裏","lat":34.862485,"lng":137.100583,"zip":"4450033"},{"town":"室町","koaza":"横縄手","lat":34.849896,"lng":137.100451,"zip":"4450033"},{"town":"尾花町","koaza":"下池田","lat":34.872248,"lng":137.099271,"zip":"4450027"},{"town":"鳥羽町","koaza":"入通","lat":34.804836,"lng":137.098907,"zip":"4440704"},{"town":"西浅井町","koaza":"円明","lat":34.883042,"lng":137.100338,"zip":"4450004"},{"town":"西浅井町","koaza":"干地","lat":34.891332,"lng":137.099023,"zip":"4450004"},{"town":"駒場町","koaza":"無字名","lat":34.863477,"lng":137.100103,"zip":"4450021"},{"town":"鳥羽町","koaza":"西六反田","lat":34.797621,"lng":137.100455,"zip":"4440704"},{"town":"吉良町津平","koaza":"松葉坂","lat":34.822863,"lng":137.099049,"zip":"4440503"},{"town":"鳥羽町","koaza":"中橋","lat":34.795735,"lng":137.10132,"zip":"4440704"},{"town":"駒場町","koaza":"屋敷","lat":34.86519,"lng":137.101345,"zip":"4450021"},{"town":"西浅井町","koaza":"古切戸","lat":34.893584,"lng":137.101154,"zip":"4450004"},{"town":"室町","koaza":"上屋敷","lat":34.85966,"lng":137.100646,"zip":"4450033"},{"town":"家武町","koaza":"中川原","lat":34.854496,"lng":137.10281,"zip":"4450031"},{"town":"吉良町津平","koaza":"言行","lat":34.825019,"lng":137.100046,"zip":"4440503"},{"town":"西浅井町","koaza":"郷内","lat":34.888579,"lng":137.100381,"zip":"4450004"},{"town":"下永良町","koaza":"丹過","lat":34.867542,"lng":137.100604,"zip":"4450016"},{"town":"吉良町津平","koaza":"下天神","lat":34.82719,"lng":137.101252,"zip":"4440503"},{"town":"吉良町津平","koaza":"大入","lat":34.82468,"lng":137.101544,"zip":"4440503"},{"town":"鳥羽町","koaza":"下モ坪","lat":34.792811,"lng":137.101492,"zip":"4440704"},{"town":"西浅井町","koaza":"若子","lat":34.891954,"lng":137.100501,"zip":"4450004"},{"town":"下永良町","koaza":"西後落","lat":34.87447,"lng":137.103094,"zip":"4450016"},{"town":"鳥羽町","koaza":"東六反田","lat":34.798963,"lng":137.101836,"zip":"4440704"},{"town":"米野町","koaza":"下ノ切","lat":34.881358,"lng":137.101013,"zip":"4450005"},{"town":"吉良町駮馬","koaza":"矢崎","lat":34.831373,"lng":137.101267,"zip":"4440501"},{"town":"下永良町","koaza":"外野","lat":34.876042,"lng":137.101707,"zip":"4450016"},{"town":"鳥羽町","koaza":"崎山","lat":34.78588,"lng":137.101634,"zip":"4440704"},{"town":"家武町","koaza":"長台","lat":34.862908,"lng":137.101447,"zip":"4450031"},{"town":"吉良町駮馬","koaza":"内ノ山","lat":34.840522,"lng":137.102791,"zip":"4440501"},{"town":"下永良町","koaza":"御墓西","lat":34.870318,"lng":137.102354,"zip":"4450016"},{"town":"下永良町","koaza":"鎮守","lat":34.868458,"lng":137.102347,"zip":"4450016"},{"town":"吉良町津平","koaza":"上天神","lat":34.824714,"lng":137.102958,"zip":"4440503"},{"town":"鳥羽町","koaza":"出崎","lat":34.786688,"lng":137.102272,"zip":"4440704"},{"town":"鳥羽町","koaza":"里","lat":34.79612,"lng":137.102988,"zip":"4440704"},{"town":"米野町","koaza":"内田","lat":34.883255,"lng":137.10244,"zip":"4450005"},{"town":"鳥羽町","koaza":"姫山","lat":34.789341,"lng":137.100348,"zip":"4440704"},{"town":"吉良町津平","koaza":"荒井山","lat":34.828067,"lng":137.103083,"zip":"4440503"},{"town":"米野町","koaza":"野々内","lat":34.882324,"lng":137.103924,"zip":"4450005"},{"town":"米野町","koaza":"茶畑","lat":34.884382,"lng":137.103212,"zip":"4450005"},{"town":"西浅井町","koaza":"宮下","lat":34.887941,"lng":137.1016,"zip":"4450004"},{"town":"家武町","koaza":"下水入","lat":34.856948,"lng":137.103905,"zip":"4450031"},{"town":"家武町","koaza":"札木","lat":34.860085,"lng":137.102648,"zip":"4450031"},{"town":"西浅井町","koaza":"四ツ井","lat":34.892156,"lng":137.102981,"zip":"4450004"},{"town":"鳥羽町","koaza":"川坂","lat":34.797547,"lng":137.104518,"zip":"4440704"},{"town":"西浅井町","koaza":"新切","lat":34.891187,"lng":137.102722,"zip":"4450004"},{"town":"尾花町","koaza":"右エ門九","lat":34.878386,"lng":137.103499,"zip":"4450027"},{"town":"鳥羽町","koaza":"十三新田","lat":34.788571,"lng":137.104292,"zip":"4440704"},{"town":"家武町","koaza":"川田","lat":34.858874,"lng":137.102345,"zip":"4450031"},{"town":"鳥羽町","koaza":"林","lat":34.798989,"lng":137.104023,"zip":"4440704"},{"town":"家武町","koaza":"西成合","lat":34.862568,"lng":137.103337,"zip":"4450031"},{"town":"鳥羽町","koaza":"未新田","lat":34.791238,"lng":137.103847,"zip":"4440704"},{"town":"平原町","koaza":"下深","lat":34.85526,"lng":137.105731,"zip":"4450032"},{"town":"下永良町","koaza":"広畑","lat":34.869932,"lng":137.104305,"zip":"4450016"},{"town":"鳥羽町","koaza":"西迫","lat":34.800296,"lng":137.102947,"zip":"4440704"},{"town":"西浅井町","koaza":"山之腰","lat":34.886967,"lng":137.104775,"zip":"4450004"},{"town":"平原町","koaza":"茨坪","lat":34.854955,"lng":137.103558,"zip":"4450032"},{"town":"家武町","koaza":"落合","lat":34.849587,"lng":137.105787,"zip":"4450031"},{"town":"米野町","koaza":"藤塚","lat":34.88377,"lng":137.105229,"zip":"4450005"},{"town":"西浅井町","koaza":"峠","lat":34.890107,"lng":137.103606,"zip":"4450004"},{"town":"新村町","koaza":"四ツ井戸","lat":34.890878,"lng":137.10384,"zip":"4450002"},{"town":"駒場町","koaza":"榎木島","lat":34.864978,"lng":137.105653,"zip":"4450021"},{"town":"鳥羽町","koaza":"壱丁田","lat":34.794961,"lng":137.103421,"zip":"4440704"},{"town":"高落町","koaza":"屋敷","lat":34.899779,"lng":137.108517,"zip":"4450001"},{"town":"新村町","koaza":"山屋敷","lat":34.893015,"lng":137.105408,"zip":"4450002"},{"town":"鳥羽町","koaza":"東迫","lat":34.80174,"lng":137.105483,"zip":"4440704"},{"town":"家武町","koaza":"上水入","lat":34.859597,"lng":137.105022,"zip":"4450031"},{"town":"鳥羽町","koaza":"古新田","lat":34.793963,"lng":137.104897,"zip":"4440704"},{"town":"下永良町","koaza":"河原崎","lat":34.872819,"lng":137.105549,"zip":"4450016"},{"town":"下永良町","koaza":"藤下","lat":34.8711,"lng":137.10617,"zip":"4450016"},{"town":"鳥羽町","koaza":"社口","lat":34.8039,"lng":137.104829,"zip":"4440704"},{"town":"吉良町津平","koaza":"大沢","lat":34.829399,"lng":137.106017,"zip":"4440503"},{"town":"駒場町","koaza":"大縄","lat":34.867046,"lng":137.107562,"zip":"4450021"},{"town":"鳥羽町","koaza":"南荒井","lat":34.794365,"lng":137.105779,"zip":"4440704"},{"town":"吉良町駮馬","koaza":"汗尾","lat":34.833274,"lng":137.10599,"zip":"4440501"},{"town":"鳥羽町","koaza":"長坂","lat":34.803565,"lng":137.106106,"zip":"4440704"},{"town":"東浅井町","koaza":"外山","lat":34.890127,"lng":137.106926,"zip":"4450003"},{"town":"新村町","koaza":"元屋敷","lat":34.894491,"lng":137.107159,"zip":"4450002"},{"town":"吉良町津平","koaza":"板迫","lat":34.827757,"lng":137.107624,"zip":"4440503"},{"town":"東浅井町","koaza":"不毛","lat":34.891299,"lng":137.108102,"zip":"4450003"},{"town":"下永良町","koaza":"半野宮","lat":34.871209,"lng":137.107662,"zip":"4450016"},{"town":"吉良町津平","koaza":"文道西","lat":34.828042,"lng":137.109142,"zip":"4440503"},{"town":"家武町","koaza":"深篠","lat":34.847355,"lng":137.108801,"zip":"4450031"},{"town":"上永良町","koaza":"西追訳","lat":34.878674,"lng":137.110293,"zip":"4450017"},{"town":"西幡豆町","koaza":"古浜","lat":34.792438,"lng":137.108941,"zip":"4440703"},{"town":"駒場町","koaza":"東山","lat":34.864654,"lng":137.107498,"zip":"4450021"},{"town":"東浅井町","koaza":"南山下","lat":34.892933,"lng":137.108031,"zip":"4450003"},{"town":"西幡豆町","koaza":"松原","lat":34.793267,"lng":137.10854,"zip":"4440703"},{"town":"西幡豆町","koaza":"荒佐分","lat":34.795018,"lng":137.109129,"zip":"4440703"},{"town":"高落町","koaza":"郷前","lat":34.898687,"lng":137.108663,"zip":"4450001"},{"town":"家武町","koaza":"向山","lat":34.862376,"lng":137.108584,"zip":"4450031"},{"town":"平原町","koaza":"城山","lat":34.857354,"lng":137.108888,"zip":"4450032"},{"town":"上永良町","koaza":"西半ノ宮","lat":34.872798,"lng":137.109935,"zip":"4450017"},{"town":"東浅井町","koaza":"堤内","lat":34.890301,"lng":137.110065,"zip":"4450003"},{"town":"東浅井町","koaza":"藪下","lat":34.892581,"lng":137.108972,"zip":"4450003"},{"town":"平原町","koaza":"仲深","lat":34.855744,"lng":137.109583,"zip":"4450032"},{"town":"平原町","koaza":"恵下入","lat":34.8543,"lng":137.109527,"zip":"4450032"},{"town":"高落町","koaza":"後田","lat":34.900893,"lng":137.110197,"zip":"4450001"},{"town":"吉良町津平","koaza":"前沢","lat":34.826915,"lng":137.110264,"zip":"4440503"},{"town":"吉良町津平","koaza":"文道郷","lat":34.828028,"lng":137.110959,"zip":"4440503"},{"town":"高落町","koaza":"堤外","lat":34.902373,"lng":137.10996,"zip":"4450001"},{"town":"西幡豆町","koaza":"浜田","lat":34.792402,"lng":137.111044,"zip":"4440703"},{"town":"貝吹町","koaza":"金葛","lat":34.870715,"lng":137.109119,"zip":"4450013"},{"town":"西幡豆町","koaza":"西大坪","lat":34.794425,"lng":137.110827,"zip":"4440703"},{"town":"東浅井町","koaza":"楠ケ崎","lat":34.891789,"lng":137.111311,"zip":"4450003"},{"town":"上永良町","koaza":"古海道","lat":34.873588,"lng":137.111739,"zip":"4450017"},{"town":"上永良町","koaza":"東追訳","lat":34.878516,"lng":137.11167,"zip":"4450017"},{"town":"高落町","koaza":"河原前","lat":34.901808,"lng":137.112036,"zip":"4450001"},{"town":"西幡豆町","koaza":"大坪","lat":34.792957,"lng":137.111736,"zip":"4440703"},{"town":"吉良町宮迫","koaza":"丸山","lat":34.830652,"lng":137.114343,"zip":"4440502"},{"town":"西幡豆町","koaza":"上大坪","lat":34.794881,"lng":137.112686,"zip":"4440703"},{"town":"平原町","koaza":"寺下","lat":34.856628,"lng":137.113273,"zip":"4450032"},{"town":"吉良町津平","koaza":"文道野","lat":34.82858,"lng":137.115559,"zip":"4440503"},{"town":"上永良町","koaza":"六反","lat":34.878311,"lng":137.113188,"zip":"4450017"},{"town":"吉良町駮馬","koaza":"丸山","lat":34.833012,"lng":137.111445,"zip":"4440501"},{"town":"貝吹町","koaza":"江口","lat":34.8724,"lng":137.112402,"zip":"4450013"},{"town":"西幡豆町","koaza":"後田","lat":34.792787,"lng":137.113267,"zip":"4440703"},{"town":"貝吹町","koaza":"荒子","lat":34.872255,"lng":137.113318,"zip":"4450013"},{"town":"上永良町","koaza":"宮西","lat":34.875443,"lng":137.11301,"zip":"4450017"},{"town":"上永良町","koaza":"井ノ下","lat":34.877226,"lng":137.113351,"zip":"4450017"},{"town":"西幡豆町","koaza":"榎開戸","lat":34.8017,"lng":137.115039,"zip":"4440703"},{"town":"西幡豆町","koaza":"見影田","lat":34.813971,"lng":137.116647,"zip":"4440703"},{"town":"西幡豆町","koaza":"山副","lat":34.794898,"lng":137.114736,"zip":"4440703"},{"town":"西幡豆町","koaza":"貝吹","lat":34.791972,"lng":137.115486,"zip":"4440703"},{"town":"平原町","koaza":"猪ノ入","lat":34.855255,"lng":137.115597,"zip":"4450032"},{"town":"平原町","koaza":"向イ","lat":34.857182,"lng":137.116103,"zip":"4450032"},{"town":"貝吹町","koaza":"柳元","lat":34.873637,"lng":137.11487,"zip":"4450013"},{"town":"家武町","koaza":"小草","lat":34.864299,"lng":137.118961,"zip":"4450031"},{"town":"西幡豆町","koaza":"六反田","lat":34.807469,"lng":137.117909,"zip":"4440703"},{"town":"西幡豆町","koaza":"西森","lat":34.809227,"lng":137.116895,"zip":"4440703"},{"town":"貝吹町","koaza":"西郷廻","lat":34.876072,"lng":137.114979,"zip":"4450013"},{"town":"西幡豆町","koaza":"丸山","lat":34.800812,"lng":137.115121,"zip":"4440703"},{"town":"西幡豆町","koaza":"南丹後","lat":34.804628,"lng":137.114638,"zip":"4440703"},{"town":"貝吹町","koaza":"東郷廻","lat":34.876552,"lng":137.115867,"zip":"4450013"},{"town":"西幡豆町","koaza":"三反田","lat":34.796716,"lng":137.116634,"zip":"4440703"},{"town":"西幡豆町","koaza":"中野郷","lat":34.791554,"lng":137.116607,"zip":"4440703"},{"town":"貝吹町","koaza":"上落","lat":34.875223,"lng":137.116206,"zip":"4450013"},{"town":"西幡豆町","koaza":"清六","lat":34.802757,"lng":137.116084,"zip":"4440703"},{"town":"西幡豆町","koaza":"西岡割","lat":34.794,"lng":137.116334,"zip":"4440703"},{"town":"下羽角町","koaza":"郷外","lat":34.878848,"lng":137.117867,"zip":"4450012"},{"town":"西幡豆町","koaza":"菰田","lat":34.795718,"lng":137.116817,"zip":"4440703"},{"town":"西幡豆町","koaza":"奥山","lat":34.819344,"lng":137.117589,"zip":"4440703"},{"town":"吉良町宮迫","koaza":"宮前","lat":34.830141,"lng":137.117251,"zip":"4440502"},{"town":"平原町","koaza":"尾呂曽","lat":34.856915,"lng":137.117514,"zip":"4450032"},{"town":"平原町","koaza":"稲荷","lat":34.85557,"lng":137.117374,"zip":"4450032"},{"town":"貝吹町","koaza":"前田","lat":34.87703,"lng":137.119154,"zip":"4450013"},{"town":"西幡豆町","koaza":"市場","lat":34.791678,"lng":137.117931,"zip":"4440703"},{"town":"貝吹町","koaza":"下落","lat":34.872848,"lng":137.117567,"zip":"4450013"},{"town":"西幡豆町","koaza":"小深田","lat":34.803081,"lng":137.11764,"zip":"4440703"},{"town":"平原町","koaza":"前山","lat":34.852326,"lng":137.117902,"zip":"4450032"},{"town":"吉良町宮迫","koaza":"文道野","lat":34.829544,"lng":137.117886,"zip":"4440502"},{"town":"吉良町宮迫","koaza":"西屋敷","lat":34.830781,"lng":137.11812,"zip":"4440502"},{"town":"西幡豆町","koaza":"江尻","lat":34.789298,"lng":137.119297,"zip":"4440703"},{"town":"貝吹町","koaza":"油ノ木","lat":34.873881,"lng":137.11883,"zip":"4450013"},{"town":"吉良町宮迫","koaza":"宮後","lat":34.834073,"lng":137.120914,"zip":"4440502"},{"town":"西幡豆町","koaza":"浜屋敷","lat":34.79033,"lng":137.118497,"zip":"4440703"},{"town":"西幡豆町","koaza":"池下","lat":34.796112,"lng":137.11905,"zip":"4440703"},{"town":"下羽角町","koaza":"下落","lat":34.88006,"lng":137.119627,"zip":"4450012"},{"town":"西幡豆町","koaza":"前田","lat":34.790757,"lng":137.119129,"zip":"4440703"},{"town":"西幡豆町","koaza":"郷","lat":34.808722,"lng":137.120474,"zip":"4440703"},{"town":"吉良町宮迫","koaza":"前田","lat":34.828314,"lng":137.120816,"zip":"4440502"},{"town":"平原町","koaza":"尾密山","lat":34.856955,"lng":137.120862,"zip":"4450032"},{"town":"西幡豆町","koaza":"柿迫","lat":34.803244,"lng":137.119228,"zip":"4440703"},{"town":"西幡豆町","koaza":"中村郷","lat":34.792142,"lng":137.119417,"zip":"4440703"},{"town":"下羽角町","koaza":"長崎","lat":34.878868,"lng":137.120586,"zip":"4450012"},{"town":"西幡豆町","koaza":"下郷","lat":34.807424,"lng":137.119509,"zip":"4440703"},{"town":"下羽角町","koaza":"六反","lat":34.881257,"lng":137.120242,"zip":"4450012"},{"town":"寺部町","koaza":"西浦","lat":34.788044,"lng":137.120626,"zip":"4440702"},{"town":"西幡豆町","koaza":"北岡割","lat":34.794022,"lng":137.119454,"zip":"4440703"},{"town":"西幡豆町","koaza":"西見影","lat":34.795389,"lng":137.121102,"zip":"4440703"},{"town":"平原町","koaza":"砂田","lat":34.858282,"lng":137.120503,"zip":"4450032"},{"town":"西幡豆町","koaza":"北郷","lat":34.793263,"lng":137.121227,"zip":"4440703"},{"town":"西幡豆町","koaza":"中屋敷","lat":34.792134,"lng":137.120422,"zip":"4440703"},{"town":"平原町","koaza":"滝口","lat":34.855043,"lng":137.120983,"zip":"4450032"},{"town":"西幡豆町","koaza":"寺後","lat":34.794762,"lng":137.121817,"zip":"4440703"},{"town":"西幡豆町","koaza":"天王","lat":34.79145,"lng":137.120663,"zip":"4440703"},{"town":"下羽角町","koaza":"郷内","lat":34.884087,"lng":137.123569,"zip":"4450012"},{"town":"寺部町","koaza":"天王","lat":34.790707,"lng":137.121944,"zip":"4440702"},{"town":"貝吹町","koaza":"入","lat":34.874348,"lng":137.122776,"zip":"4450013"},{"town":"西幡豆町","koaza":"高久","lat":34.792314,"lng":137.121645,"zip":"4440703"},{"town":"下羽角町","koaza":"五釜","lat":34.877297,"lng":137.123864,"zip":"4450012"},{"town":"吉良町宮迫","koaza":"神田","lat":34.829048,"lng":137.123228,"zip":"4440502"},{"town":"寺部町","koaza":"堂前","lat":34.787345,"lng":137.122605,"zip":"4440702"},{"town":"寺部町","koaza":"笠外","lat":34.785246,"lng":137.124361,"zip":"4440702"},{"town":"西幡豆町","koaza":"馬場","lat":34.791508,"lng":137.121942,"zip":"4440703"},{"town":"西幡豆町","koaza":"川西","lat":34.794359,"lng":137.122879,"zip":"4440703"},{"town":"下羽角町","koaza":"雲母落","lat":34.881527,"lng":137.12301,"zip":"4450012"},{"town":"寺部町","koaza":"城越","lat":34.789862,"lng":137.122554,"zip":"4440702"},{"town":"下羽角町","koaza":"大縄","lat":34.880298,"lng":137.123048,"zip":"4450012"},{"town":"平原町","koaza":"花籠","lat":34.855068,"lng":137.124005,"zip":"4450032"},{"town":"吉良町宮迫","koaza":"樫ノ木","lat":34.837628,"lng":137.122997,"zip":"4440502"},{"town":"西幡豆町","koaza":"東見影","lat":34.795662,"lng":137.122781,"zip":"4440703"},{"town":"吉良町宮迫","koaza":"四反田","lat":34.830095,"lng":137.123281,"zip":"4440502"},{"town":"寺部町","koaza":"浜田","lat":34.788051,"lng":137.124009,"zip":"4440702"},{"town":"西幡豆町","koaza":"西川原","lat":34.804587,"lng":137.125014,"zip":"4440703"},{"town":"西幡豆町","koaza":"柳田","lat":34.795611,"lng":137.124498,"zip":"4440703"},{"town":"下羽角町","koaza":"岩谷","lat":34.877916,"lng":137.132215,"zip":"4450012"},{"town":"下羽角町","koaza":"住崎","lat":34.879833,"lng":137.127622,"zip":"4450012"},{"town":"寺部町","koaza":"田中","lat":34.791589,"lng":137.124663,"zip":"4440702"},{"town":"西幡豆町","koaza":"大塚","lat":34.794093,"lng":137.125227,"zip":"4440703"},{"town":"下羽角町","koaza":"高籏","lat":34.886553,"lng":137.125631,"zip":"4450012"},{"town":"上羽角町","koaza":"中落","lat":34.883722,"lng":137.12565,"zip":"4450011"},{"town":"西幡豆町","koaza":"犬持","lat":34.802662,"lng":137.124978,"zip":"4440703"},{"town":"西幡豆町","koaza":"年重坂","lat":34.798271,"lng":137.125276,"zip":"4440703"},{"town":"西幡豆町","koaza":"川原","lat":34.796943,"lng":137.125221,"zip":"4440703"},{"town":"西幡豆町","koaza":"小清水","lat":34.802838,"lng":137.125915,"zip":"4440703"},{"town":"寺部町","koaza":"林添","lat":34.790852,"lng":137.12577,"zip":"4440702"},{"town":"西幡豆町","koaza":"六十目","lat":34.804158,"lng":137.126078,"zip":"4440703"},{"town":"西幡豆町","koaza":"刈払","lat":34.805274,"lng":137.126744,"zip":"4440703"},{"town":"西幡豆町","koaza":"京田","lat":34.79608,"lng":137.126001,"zip":"4440703"},{"town":"西幡豆町","koaza":"入前","lat":34.793989,"lng":137.12713,"zip":"4440703"},{"town":"西幡豆町","koaza":"番場","lat":34.801381,"lng":137.126483,"zip":"4440703"},{"town":"吉良町宮迫","koaza":"向","lat":34.829159,"lng":137.128459,"zip":"4440502"},{"town":"西幡豆町","koaza":"松下","lat":34.797233,"lng":137.126755,"zip":"4440703"},{"town":"西幡豆町","koaza":"轟口","lat":34.80341,"lng":137.127209,"zip":"4440703"},{"town":"吉良町宮迫","koaza":"長沢","lat":34.835599,"lng":137.126326,"zip":"4440502"},{"town":"上羽角町","koaza":"郷内","lat":34.887709,"lng":137.128016,"zip":"4450011"},{"town":"吉良町宮迫","koaza":"堂根","lat":34.830828,"lng":137.128288,"zip":"4440502"},{"town":"寺部町","koaza":"下宇頭","lat":34.785021,"lng":137.128897,"zip":"4440702"},{"town":"西幡豆町","koaza":"郷中","lat":34.806342,"lng":137.128585,"zip":"4440703"},{"town":"西幡豆町","koaza":"中央台","lat":34.794914,"lng":137.128973,"zip":"4440703"},{"town":"西幡豆町","koaza":"北ノ入","lat":34.807599,"lng":137.127345,"zip":"4440703"},{"town":"上羽角町","koaza":"郷東","lat":34.887572,"lng":137.130548,"zip":"4450011"},{"town":"西幡豆町","koaza":"黒松","lat":34.808586,"lng":137.131716,"zip":"4440703"},{"town":"上羽角町","koaza":"小山崎","lat":34.885934,"lng":137.130702,"zip":"4450011"},{"town":"吉良町宮迫","koaza":"漆畑","lat":34.83083,"lng":137.131141,"zip":"4440502"},{"town":"上羽角町","koaza":"中道","lat":34.88968,"lng":137.131784,"zip":"4450011"},{"town":"寺部町","koaza":"小浜","lat":34.785549,"lng":137.131577,"zip":"4440702"},{"town":"上羽角町","koaza":"釜田","lat":34.884563,"lng":137.131123,"zip":"4450011"},{"town":"東幡豆町","koaza":"堂山","lat":34.794093,"lng":137.131584,"zip":"4440701"},{"town":"上羽角町","koaza":"三ノ山","lat":34.88063,"lng":137.133244,"zip":"4450011"},{"town":"東幡豆町","koaza":"西浦","lat":34.793066,"lng":137.133372,"zip":"4440701"},{"town":"東幡豆町","koaza":"走り付","lat":34.788654,"lng":137.133915,"zip":"4440701"},{"town":"西幡豆町","koaza":"田ノ上","lat":34.81153,"lng":137.134218,"zip":"4440703"},{"town":"東幡豆町","koaza":"鳶山","lat":34.795483,"lng":137.132202,"zip":"4440701"},{"town":"東幡豆町","koaza":"上丸山","lat":34.790137,"lng":137.133213,"zip":"4440701"},{"town":"東幡豆町","koaza":"西神田","lat":34.795095,"lng":137.133936,"zip":"4440701"},{"town":"東幡豆町","koaza":"五反田","lat":34.792784,"lng":137.134262,"zip":"4440701"},{"town":"東幡豆町","koaza":"田戸","lat":34.790447,"lng":137.134732,"zip":"4440701"},{"town":"西幡豆町","koaza":"車木","lat":34.811872,"lng":137.134995,"zip":"4440703"},{"town":"東幡豆町","koaza":"中屋敷","lat":34.79188,"lng":137.135806,"zip":"4440701"},{"town":"東幡豆町","koaza":"琵琶浦","lat":34.789769,"lng":137.136678,"zip":"4440701"},{"town":"吉良町宮迫","koaza":"大上","lat":34.829745,"lng":137.137839,"zip":"4440502"},{"town":"東幡豆町","koaza":"宮司","lat":34.793014,"lng":137.135835,"zip":"4440701"},{"town":"東幡豆町","koaza":"引浜","lat":34.79076,"lng":137.136639,"zip":"4440701"},{"town":"東幡豆町","koaza":"中島","lat":34.791599,"lng":137.137164,"zip":"4440701"},{"town":"東幡豆町","koaza":"金剛童子","lat":34.792998,"lng":137.137583,"zip":"4440701"},{"town":"東幡豆町","koaza":"向畑","lat":34.791068,"lng":137.137816,"zip":"4440701"},{"town":"東幡豆町","koaza":"西野岸","lat":34.792199,"lng":137.13821,"zip":"4440701"},{"town":"東幡豆町","koaza":"茶園","lat":34.791093,"lng":137.139984,"zip":"4440701"},{"town":"吉良町宮迫","koaza":"大迫","lat":34.827923,"lng":137.139943,"zip":"4440502"},{"town":"東幡豆町","koaza":"河原","lat":34.791152,"lng":137.140481,"zip":"4440701"},{"town":"東幡豆町","koaza":"鍛治屋畑","lat":34.791552,"lng":137.141592,"zip":"4440701"},{"town":"吉良町宮迫","koaza":"御栗山","lat":34.826804,"lng":137.141815,"zip":"4440502"},{"town":"東幡豆町","koaza":"入会山","lat":34.809635,"lng":137.154384,"zip":"4440701"},{"town":"東幡豆町","koaza":"肉門内","lat":34.792974,"lng":137.140912,"zip":"4440701"},{"town":"東幡豆町","koaza":"前島","lat":34.779052,"lng":137.144497,"zip":"4440701"},{"town":"東幡豆町","koaza":"浦和","lat":34.789165,"lng":137.143957,"zip":"4440701"},{"town":"東幡豆町","koaza":"西ケ鼻","lat":34.801103,"lng":137.145642,"zip":"4440701"},{"town":"東幡豆町","koaza":"本郷","lat":34.790059,"lng":137.143084,"zip":"4440701"},{"town":"東幡豆町","koaza":"沖島","lat":34.771717,"lng":137.146241,"zip":"4440701"},{"town":"東幡豆町","koaza":"森","lat":34.789145,"lng":137.14632,"zip":"4440701"},{"town":"東幡豆町","koaza":"彦田前","lat":34.792504,"lng":137.146333,"zip":"4440701"},{"town":"東幡豆町","koaza":"奥ケ入","lat":34.79634,"lng":137.147683,"zip":"4440701"},{"town":"東幡豆町","koaza":"宮後","lat":34.787694,"lng":137.148112,"zip":"4440701"},{"town":"東幡豆町","koaza":"四ツ割","lat":34.788403,"lng":137.147554,"zip":"4440701"},{"town":"東幡豆町","koaza":"紺屋谷戸","lat":34.798987,"lng":137.148594,"zip":"4440701"},{"town":"東幡豆町","koaza":"中柴","lat":34.785458,"lng":137.148916,"zip":"4440701"},{"town":"東幡豆町","koaza":"大口","lat":34.790094,"lng":137.148398,"zip":"4440701"},{"town":"東幡豆町","koaza":"政吉","lat":34.794455,"lng":137.148677,"zip":"4440701"},{"town":"東幡豆町","koaza":"田中","lat":34.79211,"lng":137.148808,"zip":"4440701"},{"town":"東幡豆町","koaza":"須賀田","lat":34.786175,"lng":137.150072,"zip":"4440701"},{"town":"東幡豆町","koaza":"平田","lat":34.790769,"lng":137.150313,"zip":"4440701"},{"town":"東幡豆町","koaza":"根ノ上","lat":34.794534,"lng":137.150705,"zip":"4440701"},{"town":"東幡豆町","koaza":"向山下","lat":34.792833,"lng":137.152027,"zip":"4440701"},{"town":"東幡豆町","koaza":"蛇山","lat":34.78924,"lng":137.155009,"zip":"4440701"},{"town":"東幡豆町","koaza":"上床崎","lat":34.794812,"lng":137.153184,"zip":"4440701"},{"town":"東幡豆町","koaza":"八重林","lat":34.784409,"lng":137.153241,"zip":"4440701"},{"town":"東幡豆町","koaza":"浜ノ山","lat":34.783195,"lng":137.154236,"zip":"4440701"},{"town":"東幡豆町","koaza":"番上","lat":34.79416,"lng":137.154674,"zip":"4440701"},{"town":"東幡豆町","koaza":"下谷","lat":34.796634,"lng":137.154799,"zip":"4440701"},{"town":"東幡豆町","koaza":"中川原","lat":34.79828,"lng":137.155684,"zip":"4440701"},{"town":"東幡豆町","koaza":"大沢","lat":34.820412,"lng":137.154389,"zip":"4440701"},{"town":"東幡豆町","koaza":"黒田","lat":34.793452,"lng":137.156364,"zip":"4440701"},{"town":"東幡豆町","koaza":"中ノ浜","lat":34.784595,"lng":137.156555,"zip":"4440701"},{"town":"東幡豆町","koaza":"越田","lat":34.793473,"lng":137.157354,"zip":"4440701"},{"town":"東幡豆町","koaza":"越山","lat":34.789991,"lng":137.157973,"zip":"4440701"},{"town":"東幡豆町","koaza":"宮下","lat":34.797445,"lng":137.158461,"zip":"4440701"},{"town":"東幡豆町","koaza":"小浜","lat":34.785956,"lng":137.15882,"zip":"4440701"},{"town":"東幡豆町","koaza":"須田","lat":34.796487,"lng":137.158944,"zip":"4440701"},{"town":"東幡豆町","koaza":"日影","lat":34.795743,"lng":137.159286,"zip":"4440701"},{"town":"東幡豆町","koaza":"社口","lat":34.803811,"lng":137.160844,"zip":"4440701"},{"town":"東幡豆町","koaza":"下風越","lat":34.797597,"lng":137.160337,"zip":"4440701"},{"town":"東幡豆町","koaza":"大境","lat":34.815385,"lng":137.160089,"zip":"4440701"},{"town":"東幡豆町","koaza":"迎","lat":34.787825,"lng":137.161139,"zip":"4440701"},{"town":"東幡豆町","koaza":"洲崎","lat":34.786883,"lng":137.162228,"zip":"4440701"},{"town":"東幡豆町","koaza":"川迎","lat":34.788284,"lng":137.161291,"zip":"4440701"},{"town":"東幡豆町","koaza":"南大西","lat":34.790416,"lng":137.16106,"zip":"4440701"},{"town":"東幡豆町","koaza":"大西","lat":34.79231,"lng":137.161122,"zip":"4440701"},{"town":"東幡豆町","koaza":"上風越","lat":34.79861,"lng":137.162355,"zip":"4440701"},{"town":"東幡豆町","koaza":"御堂前","lat":34.78832,"lng":137.162952,"zip":"4440701"},{"town":"東幡豆町","koaza":"洲崎山","lat":34.793138,"lng":137.164995,"zip":"4440701"},{"town":"東幡豆町","koaza":"堂ノ上","lat":34.790567,"lng":137.163533,"zip":"4440701"},{"town":"東幡豆町","koaza":"汐浜","lat":34.787381,"lng":137.162966,"zip":"4440701"},{"town":"東幡豆町","koaza":"郷中","lat":34.803345,"lng":137.164027,"zip":"4440701"},{"town":"東幡豆町","koaza":"奥ノ入","lat":34.793998,"lng":137.163168,"zip":"4440701"},{"town":"東幡豆町","koaza":"宮ケ崎","lat":34.786983,"lng":137.165255,"zip":"4440701"},{"town":"東幡豆町","koaza":"緑ケ崎","lat":34.786438,"lng":137.166089,"zip":"4440701"},{"town":"東幡豆町","koaza":"大戸","lat":34.787932,"lng":137.167222,"zip":"4440701"},{"town":"東幡豆町","koaza":"丸山","lat":34.802566,"lng":137.168432,"zip":"4440701"},{"town":"東幡豆町","koaza":"石東","lat":34.798219,"lng":137.168184,"zip":"4440701"},{"town":"東幡豆町","koaza":"東前田","lat":34.802225,"lng":137.16841,"zip":"4440701"},{"town":"東幡豆町","koaza":"米田","lat":34.803422,"lng":137.169494,"zip":"4440701"},{"town":"上町","koaza":"東泡原","lat":34.868928,"lng":137.048443,"zip":"4450894"},{"town":"下町","koaza":"御城下","lat":34.868468,"lng":137.046944,"zip":"4450891"},{"town":"今川町","koaza":"落","lat":34.858255,"lng":137.057523,"zip":"4450063"},{"town":"矢曽根町","koaza":"長配","lat":34.859444,"lng":137.057687,"zip":"4450872"},{"town":"丁田町","koaza":"落","lat":34.860306,"lng":137.059291,"zip":"4450062"},{"town":"道光寺町","koaza":"寺内下","lat":34.872856,"lng":137.058449,"zip":"4450811"},{"town":"道光寺町","koaza":"西縄","lat":34.871824,"lng":137.059322,"zip":"4450811"},{"town":"道光寺町","koaza":"大山田","lat":34.876724,"lng":137.058975,"zip":"4450811"},{"town":"鶴城町","koaza":"下道天","lat":34.8757,"lng":137.055459,"zip":"4450805"},{"town":"鶴城町","koaza":"上道天","lat":34.876913,"lng":137.056003,"zip":"4450805"},{"town":"鶴城町","koaza":"一本松","lat":34.875852,"lng":137.050303,"zip":"4450805"},{"town":"上町","koaza":"南荒子","lat":34.87547,"lng":137.048009,"zip":"4450894"},{"town":"上町","koaza":"林","lat":34.873011,"lng":137.045927,"zip":"4450894"},{"town":"上町","koaza":"南又七山","lat":34.872801,"lng":137.044476,"zip":"4450894"},{"town":"上町","koaza":"下中田","lat":34.87393,"lng":137.045041,"zip":"4450894"},{"town":"上町","koaza":"又七山","lat":34.873781,"lng":137.044729,"zip":"4450894"},{"town":"上町","koaza":"焼山","lat":34.874632,"lng":137.047192,"zip":"4450894"},{"town":"下町","koaza":"神明下","lat":34.869107,"lng":137.044995,"zip":"4450891"},{"town":"上町","koaza":"山崎","lat":34.870591,"lng":137.044275,"zip":"4450894"},{"town":"下町","koaza":"清水","lat":34.872667,"lng":137.039485,"zip":"4450891"},{"town":"上町","koaza":"御所ノ下","lat":34.87398,"lng":137.041303,"zip":"4450894"},{"town":"上町","koaza":"丸山","lat":34.875302,"lng":137.039308,"zip":"4450894"},{"town":"上町","koaza":"猿ケ坂","lat":34.875609,"lng":137.042066,"zip":"4450894"},{"town":"寄住町","koaza":"洲田","lat":34.864167,"lng":137.062208,"zip":"4450073"},{"town":"丁田町","koaza":"五助","lat":34.861791,"lng":137.063264,"zip":"4450062"},{"town":"寄住町","koaza":"下田","lat":34.862091,"lng":137.06198,"zip":"4450073"},{"town":"徳次町","koaza":"下十五夜","lat":34.862371,"lng":137.066304,"zip":"4450072"},{"town":"寄住町","koaza":"若宮","lat":34.866246,"lng":137.06444,"zip":"4450073"},{"town":"寄住町","koaza":"金田","lat":34.871242,"lng":137.065437,"zip":"4450073"},{"town":"熊味町","koaza":"当良木","lat":34.871356,"lng":137.066681,"zip":"4450071"},{"town":"寄住町","koaza":"泡原","lat":34.874136,"lng":137.062566,"zip":"4450073"},{"town":"道光寺町","koaza":"味山","lat":34.874411,"lng":137.062757,"zip":"4450811"},{"town":"戸ケ崎町","koaza":"堀合","lat":34.878687,"lng":137.066828,"zip":"4450074"},{"town":"和気町","koaza":"堤外大縄場","lat":34.868696,"lng":137.079205,"zip":"4450025"},{"town":"新在家町","koaza":"三四山","lat":34.861672,"lng":137.033328,"zip":"4440311"},{"town":"法光寺町","koaza":"東山","lat":34.86521,"lng":137.031712,"zip":"4450892"},{"town":"羽塚町","koaza":"東山","lat":34.863956,"lng":137.029139,"zip":"4440316"},{"town":"田貫町","koaza":"東山","lat":34.865106,"lng":137.027138,"zip":"4440301"},{"town":"上町","koaza":"明治九","lat":34.877663,"lng":137.032245,"zip":"4450894"},{"town":"小間町","koaza":"処寒","lat":34.874265,"lng":137.034369,"zip":"4450893"},{"town":"下町","koaza":"丸山","lat":34.874681,"lng":137.039495,"zip":"4450891"},{"town":"法光寺町","koaza":"西畑","lat":34.869373,"lng":137.032607,"zip":"4450892"},{"town":"法光寺町","koaza":"宮前","lat":34.868017,"lng":137.033923,"zip":"4450892"},{"town":"法光寺町","koaza":"楽縄手","lat":34.867347,"lng":137.031473,"zip":"4450892"},{"town":"法光寺町","koaza":"北山","lat":34.866781,"lng":137.030245,"zip":"4450892"},{"town":"駒場町","koaza":"四石目","lat":34.86643,"lng":137.105314,"zip":"4450021"},{"town":"駒場町","koaza":"七ツ田","lat":34.863471,"lng":137.103309,"zip":"4450021"},{"town":"室町","koaza":"宮下","lat":34.860301,"lng":137.101268,"zip":"4450033"},{"town":"善明町","koaza":"本郷","lat":34.850837,"lng":137.092511,"zip":"4450034"},{"town":"吉良町岡山","koaza":"山崎","lat":34.847774,"lng":137.085257,"zip":"4440531"},{"town":"吉良町岡山","koaza":"背撫山","lat":34.846021,"lng":137.087181,"zip":"4440531"},{"town":"吉良町岡山","koaza":"鎧","lat":34.845855,"lng":137.087724,"zip":"4440531"},{"town":"吉良町岡山","koaza":"上川田","lat":34.842625,"lng":137.086335,"zip":"4440531"},{"town":"吉良町寺嶋","koaza":"下深","lat":34.827526,"lng":137.08549,"zip":"4440533"},{"town":"吉良町小牧","koaza":"郷前","lat":34.82737,"lng":137.080558,"zip":"4440535"},{"town":"吉良町小牧","koaza":"梶見堂","lat":34.828541,"lng":137.077089,"zip":"4440535"},{"town":"吉良町上横須賀","koaza":"東川田","lat":34.825294,"lng":137.074775,"zip":"4440521"},{"town":"吉良町酒井","koaza":"竹ノ子","lat":34.817936,"lng":137.074876,"zip":"4440537"},{"town":"吉良町吉田","koaza":"本浜","lat":34.793584,"lng":137.064314,"zip":"4440516"},{"town":"伊藤町","koaza":"黒保","lat":34.8826,"lng":137.050113,"zip":"4450806"},{"town":"上町","koaza":"堀尻","lat":34.880205,"lng":137.048819,"zip":"4450894"},{"town":"上町","koaza":"荒子","lat":34.882118,"lng":137.047638,"zip":"4450894"},{"town":"上町","koaza":"北大山","lat":34.884145,"lng":137.049302,"zip":"4450894"},{"town":"上町","koaza":"南大山","lat":34.882893,"lng":137.047752,"zip":"4450894"},{"town":"伊藤町","koaza":"高","lat":34.883353,"lng":137.049369,"zip":"4450806"},{"town":"上町","koaza":"圦下","lat":34.882471,"lng":137.035525,"zip":"4450894"},{"town":"上町","koaza":"八重山","lat":34.883364,"lng":137.039275,"zip":"4450894"},{"town":"上町","koaza":"並松","lat":34.884044,"lng":137.044353,"zip":"4450894"},{"town":"上町","koaza":"西二ツ堀","lat":34.882752,"lng":137.043558,"zip":"4450894"},{"town":"桜町","koaza":"桜荒子","lat":34.877985,"lng":137.057383,"zip":"4450803"},{"town":"道光寺町","koaza":"北野","lat":34.876545,"lng":137.059966,"zip":"4450811"},{"town":"道光寺町","koaza":"藪後","lat":34.875135,"lng":137.060303,"zip":"4450811"},{"town":"熊味町","koaza":"下池田","lat":34.86751,"lng":137.071252,"zip":"4450071"},{"town":"徳次町","koaza":"新田","lat":34.867239,"lng":137.07632,"zip":"4450072"},{"town":"八ツ面町","koaza":"猿待","lat":34.880374,"lng":137.07457,"zip":"4450082"},{"town":"中原町","koaza":"郷合","lat":34.884309,"lng":137.077006,"zip":"4450083"},{"town":"中原町","koaza":"東田","lat":34.882171,"lng":137.078244,"zip":"4450083"},{"town":"志籠谷町","koaza":"岩尻","lat":34.883092,"lng":137.083,"zip":"4450081"},{"town":"小島町","koaza":"大郷","lat":34.884904,"lng":137.085113,"zip":"4450006"},{"town":"志籠谷町","koaza":"欠添","lat":34.880805,"lng":137.086437,"zip":"4450081"},{"town":"志籠谷町","koaza":"堤畔","lat":34.88007,"lng":137.084568,"zip":"4450081"},{"town":"中原町","koaza":"新道","lat":34.884337,"lng":137.079428,"zip":"4450083"},{"town":"中原町","koaza":"切戸","lat":34.884035,"lng":137.07981,"zip":"4450083"},{"town":"志貴野町","koaza":"出崎","lat":34.887951,"lng":137.084525,"zip":"4450084"},{"town":"志貴野町","koaza":"向山","lat":34.88785,"lng":137.073554,"zip":"4450084"},{"town":"志貴野町","koaza":"堀割","lat":34.888285,"lng":137.075168,"zip":"4450084"},{"town":"上町","koaza":"南清水","lat":34.880987,"lng":137.036544,"zip":"4450894"},{"town":"上町","koaza":"西町","lat":34.87932,"lng":137.037567,"zip":"4450894"},{"town":"上町","koaza":"権現東","lat":34.878674,"lng":137.032827,"zip":"4450894"},{"town":"上町","koaza":"藪下","lat":34.878722,"lng":137.033353,"zip":"4450894"},{"town":"上町","koaza":"藤浪","lat":34.883487,"lng":137.042795,"zip":"4450894"},{"town":"上町","koaza":"稲荷北","lat":34.883194,"lng":137.042133,"zip":"4450894"},{"town":"上町","koaza":"稲荷山","lat":34.882875,"lng":137.041777,"zip":"4450894"},{"town":"上町","koaza":"上屋敷","lat":34.880087,"lng":137.040391,"zip":"4450894"},{"town":"上町","koaza":"窪","lat":34.88115,"lng":137.04052,"zip":"4450894"},{"town":"上町","koaza":"高畑","lat":34.880022,"lng":137.039555,"zip":"4450894"},{"town":"上町","koaza":"垣外屋敷","lat":34.87766,"lng":137.038491,"zip":"4450894"},{"town":"上町","koaza":"作道屋敷","lat":34.877129,"lng":137.03976,"zip":"4450894"},{"town":"上町","koaza":"薬師前","lat":34.876706,"lng":137.041711,"zip":"4450894"},{"town":"上町","koaza":"横町屋敷","lat":34.878097,"lng":137.039927,"zip":"4450894"},{"town":"上町","koaza":"善兵衛屋敷","lat":34.878579,"lng":137.041552,"zip":"4450894"},{"town":"上町","koaza":"薬師裏","lat":34.877618,"lng":137.041946,"zip":"4450894"},{"town":"上町","koaza":"沖道","lat":34.87613,"lng":137.043818,"zip":"4450894"},{"town":"上町","koaza":"干地堀","lat":34.877165,"lng":137.043949,"zip":"4450894"},{"town":"上町","koaza":"御向","lat":34.876218,"lng":137.039876,"zip":"4450894"},{"town":"上町","koaza":"門田","lat":34.876359,"lng":137.040792,"zip":"4450894"},{"town":"大和田町","koaza":"上新田","lat":34.863689,"lng":137.078151,"zip":"4450024"},{"town":"大和田町","koaza":"宮越","lat":34.859232,"lng":137.080513,"zip":"4450024"},{"town":"家武町","koaza":"八幡山","lat":34.860536,"lng":137.105489,"zip":"4450031"},{"town":"平原町","koaza":"経塚","lat":34.856063,"lng":137.111571,"zip":"4450032"},{"town":"家武町","koaza":"居成山","lat":34.849681,"lng":137.105111,"zip":"4450031"},{"town":"吉良町岡山","koaza":"八幡山","lat":34.846938,"lng":137.084782,"zip":"4440531"},{"town":"吉良町岡山","koaza":"宮下","lat":34.843232,"lng":137.085341,"zip":"4440531"},{"town":"吉良町瀬戸","koaza":"五本松","lat":34.843932,"lng":137.089108,"zip":"4440532"},{"town":"吉良町瀬戸","koaza":"宮西","lat":34.842724,"lng":137.089751,"zip":"4440532"},{"town":"吉良町岡山","koaza":"野口","lat":34.841625,"lng":137.078273,"zip":"4440531"},{"town":"吉良町岡山","koaza":"大岩山","lat":34.847756,"lng":137.082054,"zip":"4440531"},{"town":"吉良町岡山","koaza":"砦山","lat":34.84177,"lng":137.07441,"zip":"4440531"},{"town":"吉良町岡山","koaza":"岩谷下","lat":34.842074,"lng":137.07132,"zip":"4440531"},{"town":"吉良町岡山","koaza":"岩谷山","lat":34.843488,"lng":137.072647,"zip":"4440531"},{"town":"吉良町岡山","koaza":"中根山","lat":34.845167,"lng":137.074742,"zip":"4440531"},{"town":"吉良町岡山","koaza":"献上田","lat":34.844401,"lng":137.076345,"zip":"4440531"},{"town":"十郎島町","koaza":"寺島","lat":34.839168,"lng":137.058262,"zip":"4450045"},{"town":"鎌谷町","koaza":"大縄","lat":34.837735,"lng":137.062454,"zip":"4450044"},{"town":"吉良町上横須賀","koaza":"上町東","lat":34.834309,"lng":137.070836,"zip":"4440521"},{"town":"吉良町上横須賀","koaza":"渡舟場","lat":34.833874,"lng":137.066414,"zip":"4440521"},{"town":"横手町","koaza":"川東新田","lat":34.824295,"lng":137.058569,"zip":"4450052"},{"town":"吉良町下横須賀","koaza":"蛇池","lat":34.823027,"lng":137.056928,"zip":"4440522"},{"town":"吉良町下横須賀","koaza":"郷西","lat":34.821476,"lng":137.055205,"zip":"4440522"},{"town":"吉良町下横須賀","koaza":"勘左山","lat":34.820447,"lng":137.054525,"zip":"4440522"},{"town":"笹曽根町","koaza":"池田","lat":34.817609,"lng":137.05058,"zip":"4450053"},{"town":"一色町藤江","koaza":"上東","lat":34.802407,"lng":137.028569,"zip":"4440414"},{"town":"吉良町白浜新田","koaza":"南切","lat":34.7868,"lng":137.077417,"zip":"4440514"},{"town":"吉良町荻原","koaza":"川畑","lat":34.803915,"lng":137.067383,"zip":"4440524"},{"town":"吉良町饗庭","koaza":"庚申","lat":34.804984,"lng":137.079944,"zip":"4440523"},{"town":"吉良町小山田","koaza":"西山","lat":34.799108,"lng":137.083322,"zip":"4440511"},{"town":"西幡豆町","koaza":"南岡割","lat":34.793484,"lng":137.118221,"zip":"4440703"},{"town":"西幡豆町","koaza":"播摩門内","lat":34.798767,"lng":137.126554,"zip":"4440703"},{"town":"西幡豆町","koaza":"中郷","lat":34.793904,"lng":137.123462,"zip":"4440703"},{"town":"西幡豆町","koaza":"仲田","lat":34.793187,"lng":137.124889,"zip":"4440703"},{"town":"西幡豆町","koaza":"柿田","lat":34.792311,"lng":137.12272,"zip":"4440703"},{"town":"東幡豆町","koaza":"亀井","lat":34.790692,"lng":137.137304,"zip":"4440701"},{"town":"東幡豆町","koaza":"烏帽子ケ丘","lat":34.789599,"lng":137.139138,"zip":"4440701"},{"town":"東幡豆町","koaza":"西口","lat":34.790285,"lng":137.141056,"zip":"4440701"},{"town":"東幡豆町","koaza":"崎ノ畑","lat":34.789904,"lng":137.141671,"zip":"4440701"},{"town":"東幡豆町","koaza":"西前田","lat":34.791291,"lng":137.142729,"zip":"4440701"},{"town":"東幡豆町","koaza":"東野岸","lat":34.791146,"lng":137.143907,"zip":"4440701"},{"town":"東幡豆町","koaza":"ウハダ","lat":34.790759,"lng":137.145103,"zip":"4440701"},{"town":"東幡豆町","koaza":"中尾","lat":34.791227,"lng":137.147499,"zip":"4440701"},{"town":"東幡豆町","koaza":"山崎","lat":34.792,"lng":137.148072,"zip":"4440701"},{"town":"東幡豆町","koaza":"池上","lat":34.794935,"lng":137.145457,"zip":"4440701"},{"town":"東幡豆町","koaza":"西山谷","lat":34.799959,"lng":137.139987,"zip":"4440701"},{"town":"東幡豆町","koaza":"小廻","lat":34.796388,"lng":137.137118,"zip":"4440701"},{"town":"東幡豆町","koaza":"船付","lat":34.786794,"lng":137.159751,"zip":"4440701"},{"town":"東幡豆町","koaza":"助八","lat":34.784141,"lng":137.158328,"zip":"4440701"},{"town":"東幡豆町","koaza":"築園","lat":34.792367,"lng":137.140654,"zip":"4440701"},{"town":"東幡豆町","koaza":"横根","lat":34.795434,"lng":137.143586,"zip":"4440701"},{"town":"東幡豆町","koaza":"下側内","lat":34.794285,"lng":137.14812,"zip":"4440701"},{"town":"東幡豆町","koaza":"山道","lat":34.796845,"lng":137.149493,"zip":"4440701"},{"town":"東幡豆町","koaza":"山ノ内","lat":34.79923,"lng":137.158591,"zip":"4440701"},{"town":"東幡豆町","koaza":"三ツ塚","lat":34.795576,"lng":137.151702,"zip":"4440701"},{"town":"東幡豆町","koaza":"西山","lat":34.799725,"lng":137.152763,"zip":"4440701"},{"town":"東幡豆町","koaza":"清水","lat":34.79486,"lng":137.158189,"zip":"4440701"},{"town":"東幡豆町","koaza":"下池","lat":34.796071,"lng":137.155476,"zip":"4440701"},{"town":"東幡豆町","koaza":"堂下","lat":34.796449,"lng":137.157785,"zip":"4440701"},{"town":"東幡豆町","koaza":"東山","lat":34.799695,"lng":137.166357,"zip":"4440701"},{"town":"東幡豆町","koaza":"造田","lat":34.796846,"lng":137.163948,"zip":"4440701"},{"town":"東幡豆町","koaza":"南造田","lat":34.795037,"lng":137.162813,"zip":"4440701"},{"town":"東幡豆町","koaza":"前田","lat":34.792103,"lng":137.163739,"zip":"4440701"},{"town":"東幡豆町","koaza":"中根","lat":34.79113,"lng":137.16623,"zip":"4440701"},{"town":"東幡豆町","koaza":"深田","lat":34.791243,"lng":137.16128,"zip":"4440701"},{"town":"東幡豆町","koaza":"横枕","lat":34.790298,"lng":137.162383,"zip":"4440701"},{"town":"東幡豆町","koaza":"大迫","lat":34.788084,"lng":137.158445,"zip":"4440701"},{"town":"東幡豆町","koaza":"小見行田","lat":34.789361,"lng":137.144776,"zip":"4440701"},{"town":"東幡豆町","koaza":"東浜","lat":34.788439,"lng":137.145865,"zip":"4440701"},{"town":"東幡豆町","koaza":"縄添","lat":34.79059,"lng":137.151328,"zip":"4440701"},{"town":"東幡豆町","koaza":"大平","lat":34.789135,"lng":137.152637,"zip":"4440701"},{"town":"東幡豆町","koaza":"御芦","lat":34.790343,"lng":137.153412,"zip":"4440701"},{"town":"東幡豆町","koaza":"会下","lat":34.79057,"lng":137.152477,"zip":"4440701"},{"town":"東幡豆町","koaza":"新田","lat":34.784298,"lng":137.150223,"zip":"4440701"},{"town":"東幡豆町","koaza":"西丸山","lat":34.783153,"lng":137.150344,"zip":"4440701"},{"town":"一色町酒手島","koaza":"鳥山屋敷","lat":34.79342,"lng":137.026398,"zip":"4440415"},{"town":"一色町酒手島","koaza":"東芝野通","lat":34.790438,"lng":137.032638,"zip":"4440415"},{"town":"一色町千間","koaza":"屋舗通","lat":34.789087,"lng":137.04361,"zip":"4440411"},{"town":"吉良町富田","koaza":"銭池","lat":34.811561,"lng":137.056183,"zip":"4440525"},{"town":"市子町","koaza":"塩田","lat":34.822963,"lng":137.035629,"zip":"4450055"},{"town":"八ケ尻町","koaza":"喜右田","lat":34.824086,"lng":137.033267,"zip":"4450884"},{"town":"行用町","koaza":"池田","lat":34.828376,"lng":137.026528,"zip":"4450885"},{"town":"一色町開正","koaza":"行用前","lat":34.827923,"lng":137.027772,"zip":"4440421"},{"town":"笹曽根町","koaza":"下河原","lat":34.82093,"lng":137.04893,"zip":"4450053"},{"town":"笹曽根町","koaza":"中田東","lat":34.816829,"lng":137.046599,"zip":"4450053"},{"town":"一色町池田","koaza":"寺後","lat":34.815821,"lng":137.045471,"zip":"4440401"},{"town":"中畑町","koaza":"浜田上","lat":34.869614,"lng":137.01024,"zip":"4440303"},{"town":"中畑町","koaza":"卯新田上","lat":34.870344,"lng":137.008926,"zip":"4440303"},{"town":"中畑町","koaza":"二割","lat":34.868407,"lng":137.010767,"zip":"4440303"},{"town":"平坂町","koaza":"山下谷","lat":34.862839,"lng":137.013114,"zip":"4440305"},{"town":"楠村町","koaza":"北巴","lat":34.859038,"lng":137.018986,"zip":"4440325"},{"town":"楠村町","koaza":"清水","lat":34.85764,"lng":137.017217,"zip":"4440325"},{"town":"平坂町","koaza":"辰御当","lat":34.865762,"lng":137.018688,"zip":"4440305"},{"town":"中畑町","koaza":"六斗蒔","lat":34.86606,"lng":137.016395,"zip":"4440303"},{"town":"中畑町","koaza":"安左東","lat":34.86766,"lng":137.013801,"zip":"4440303"},{"town":"中畑町","koaza":"鵜ノ首","lat":34.867246,"lng":137.014598,"zip":"4440303"},{"town":"中畑町","koaza":"小井戸","lat":34.868737,"lng":137.017014,"zip":"4440303"},{"town":"中畑町","koaza":"水荒井","lat":34.869588,"lng":137.018367,"zip":"4440303"},{"town":"中畑町","koaza":"矢無","lat":34.869832,"lng":137.020752,"zip":"4440303"},{"town":"田貫町","koaza":"高畑","lat":34.870416,"lng":137.022658,"zip":"4440301"},{"town":"中畑町","koaza":"犬塚","lat":34.869649,"lng":137.021839,"zip":"4440303"},{"town":"中畑町","koaza":"細田","lat":34.866096,"lng":137.023461,"zip":"4440303"},{"town":"平坂町","koaza":"中奥","lat":34.864402,"lng":137.024931,"zip":"4440305"},{"town":"平坂町","koaza":"御中","lat":34.863423,"lng":137.022936,"zip":"4440305"},{"town":"平坂町","koaza":"坂下","lat":34.861997,"lng":137.02465,"zip":"4440305"},{"town":"平坂町","koaza":"七良清水","lat":34.863361,"lng":137.025077,"zip":"4440305"},{"town":"羽塚町","koaza":"新坂","lat":34.862247,"lng":137.026114,"zip":"4440316"},{"town":"平坂町","koaza":"烏多","lat":34.860747,"lng":137.021701,"zip":"4440305"},{"town":"楠村町","koaza":"天神東","lat":34.858568,"lng":137.020943,"zip":"4440325"},{"town":"南中根町","koaza":"長割","lat":34.910041,"lng":137.063647,"zip":"4450801"},{"town":"南中根町","koaza":"林","lat":34.908172,"lng":137.064643,"zip":"4450801"},{"town":"米津町","koaza":"上泡原","lat":34.902909,"lng":137.060046,"zip":"4450802"},{"town":"米津町","koaza":"北浦","lat":34.898839,"lng":137.059055,"zip":"4450802"},{"town":"米津町","koaza":"宮東","lat":34.894286,"lng":137.059219,"zip":"4450802"},{"town":"戸ケ崎町","koaza":"新荒子","lat":34.884851,"lng":137.068759,"zip":"4450074"},{"town":"小島町","koaza":"山内","lat":34.884888,"lng":137.091328,"zip":"4450006"},{"town":"小島町","koaza":"城山","lat":34.88753,"lng":137.091457,"zip":"4450006"},{"town":"西浅井町","koaza":"二川崎","lat":34.887451,"lng":137.094221,"zip":"4450004"},{"town":"西浅井町","koaza":"鴻ノ巣","lat":34.888311,"lng":137.094355,"zip":"4450004"},{"town":"西浅井町","koaza":"東藤宿","lat":34.891692,"lng":137.096364,"zip":"4450004"},{"town":"西浅井町","koaza":"藤宿","lat":34.891147,"lng":137.09657,"zip":"4450004"},{"town":"西浅井町","koaza":"尾ケ山","lat":34.890374,"lng":137.095256,"zip":"4450004"},{"town":"西浅井町","koaza":"札木","lat":34.890253,"lng":137.098946,"zip":"4450004"},{"town":"西浅井町","koaza":"外林","lat":34.890564,"lng":137.097179,"zip":"4450004"},{"town":"西浅井町","koaza":"道坂","lat":34.890697,"lng":137.096651,"zip":"4450004"},{"town":"西浅井町","koaza":"坂側","lat":34.88705,"lng":137.099646,"zip":"4450004"},{"town":"西浅井町","koaza":"西田","lat":34.888447,"lng":137.097641,"zip":"4450004"},{"town":"東浅井町","koaza":"西山","lat":34.892515,"lng":137.106528,"zip":"4450003"},{"town":"小島町","koaza":"東川田","lat":34.879477,"lng":137.095197,"zip":"4450006"},{"town":"小島町","koaza":"落合","lat":34.879645,"lng":137.097101,"zip":"4450006"},{"town":"米野町","koaza":"下野","lat":34.879922,"lng":137.100692,"zip":"4450005"},{"town":"米野町","koaza":"松葉内","lat":34.880777,"lng":137.099877,"zip":"4450005"},{"town":"下永良町","koaza":"先祖","lat":34.875549,"lng":137.103579,"zip":"4450016"},{"town":"江原町","koaza":"蓮池新田","lat":34.876449,"lng":137.09174,"zip":"4450026"},{"town":"岡島町","koaza":"竜宮池","lat":34.868576,"lng":137.096333,"zip":"4450022"},{"town":"駒場町","koaza":"荒子","lat":34.866676,"lng":137.096599,"zip":"4450021"},{"town":"駒場町","koaza":"五反田","lat":34.869818,"lng":137.107612,"zip":"4450021"},{"town":"善明町","koaza":"小金","lat":34.850987,"lng":137.087898,"zip":"4450034"},{"town":"宅野島町","koaza":"田貝","lat":34.850183,"lng":137.071523,"zip":"4450042"},{"town":"細池町","koaza":"大圦下","lat":34.849734,"lng":137.059818,"zip":"4450047"},{"town":"今川町","koaza":"一本松","lat":34.85262,"lng":137.061955,"zip":"4450063"},{"town":"今川町","koaza":"埋池","lat":34.852868,"lng":137.062574,"zip":"4450063"},{"town":"今川町","koaza":"下落","lat":34.85366,"lng":137.057464,"zip":"4450063"},{"town":"深池町","koaza":"北後","lat":34.852698,"lng":137.048073,"zip":"4450875"},{"town":"川口町","koaza":"五六","lat":34.848607,"lng":137.047681,"zip":"4450873"},{"town":"須脇町","koaza":"上新田","lat":34.842042,"lng":137.050211,"zip":"4450046"},{"town":"細池町","koaza":"恵畠","lat":34.842627,"lng":137.053509,"zip":"4450047"},{"town":"針曽根町","koaza":"中上ミ","lat":34.840136,"lng":137.034238,"zip":"4450886"},{"town":"下矢田町","koaza":"藤蔵","lat":34.844017,"lng":137.03307,"zip":"4440314"},{"town":"長縄町","koaza":"汐川","lat":34.843579,"lng":137.033475,"zip":"4450887"},{"town":"長縄町","koaza":"西落","lat":34.845624,"lng":137.036401,"zip":"4450887"},{"town":"上矢田町","koaza":"汐川","lat":34.847696,"lng":137.033863,"zip":"4440313"},{"town":"長縄町","koaza":"西縄","lat":34.847684,"lng":137.03568,"zip":"4450887"},{"town":"長縄町","koaza":"道徳","lat":34.847005,"lng":137.034991,"zip":"4450887"},{"town":"下矢田町","koaza":"治部田","lat":34.84772,"lng":137.028573,"zip":"4440314"},{"town":"上矢田町","koaza":"惣万田","lat":34.846896,"lng":137.031008,"zip":"4440313"},{"town":"上矢田町","koaza":"寺後","lat":34.853107,"lng":137.026409,"zip":"4440313"},{"town":"上矢田町","koaza":"浜道","lat":34.850877,"lng":137.022956,"zip":"4440313"},{"town":"富山町","koaza":"郷西","lat":34.853948,"lng":137.020877,"zip":"4440326"},{"town":"富山町","koaza":"池端","lat":34.852979,"lng":137.020015,"zip":"4440326"},{"town":"楠村町","koaza":"南荒子","lat":34.854118,"lng":137.01971,"zip":"4440325"},{"town":"楠村町","koaza":"向山","lat":34.852246,"lng":137.018756,"zip":"4440325"},{"town":"富山町","koaza":"矢田道","lat":34.852416,"lng":137.02102,"zip":"4440326"},{"town":"楠村町","koaza":"前巴","lat":34.854409,"lng":137.017411,"zip":"4440325"},{"town":"楠村町","koaza":"寺下","lat":34.855088,"lng":137.01564,"zip":"4440325"},{"town":"楠村町","koaza":"南浜屋敷","lat":34.853497,"lng":137.014536,"zip":"4440325"},{"town":"楠村町","koaza":"明神後","lat":34.852896,"lng":137.014606,"zip":"4440325"},{"town":"寺津町","koaza":"五十間南","lat":34.849629,"lng":137.012899,"zip":"4440324"},{"town":"寺津町","koaza":"五十間","lat":34.850246,"lng":137.01337,"zip":"4440324"},{"town":"寺津町","koaza":"流","lat":34.847612,"lng":137.012284,"zip":"4440324"},{"town":"寺津町","koaza":"狐塚","lat":34.845409,"lng":137.014956,"zip":"4440324"},{"town":"下矢田町","koaza":"西野山","lat":34.850032,"lng":137.022258,"zip":"4440314"},{"town":"徳永町","koaza":"仲屋敷","lat":34.84305,"lng":137.020027,"zip":"4440315"},{"town":"寺津町","koaza":"徳永堺","lat":34.844735,"lng":137.019247,"zip":"4440324"},{"town":"上矢田町","koaza":"明伝","lat":34.856369,"lng":137.028139,"zip":"4440313"},{"town":"国森町","koaza":"百々","lat":34.856717,"lng":137.035333,"zip":"4440312"},{"town":"上矢田町","koaza":"切神","lat":34.852974,"lng":137.033007,"zip":"4440313"},{"town":"新在家町","koaza":"蓮台","lat":34.860966,"lng":137.038136,"zip":"4440311"},{"town":"新在家町","koaza":"上屋下","lat":34.858875,"lng":137.039791,"zip":"4440311"},{"town":"和気町","koaza":"堤外川田","lat":34.871048,"lng":137.082072,"zip":"4450025"},{"town":"江原町","koaza":"中塚田","lat":34.864584,"lng":137.086468,"zip":"4450026"},{"town":"上永良町","koaza":"東半ノ宮","lat":34.871885,"lng":137.109446,"zip":"4450017"},{"town":"上羽角町","koaza":"風越","lat":34.874884,"lng":137.135554,"zip":"4450011"},{"town":"下羽角町","koaza":"前山","lat":34.882147,"lng":137.128556,"zip":"4450012"},{"town":"上羽角町","koaza":"成沢","lat":34.880566,"lng":137.132525,"zip":"4450011"},{"town":"上羽角町","koaza":"湯田","lat":34.883436,"lng":137.129164,"zip":"4450011"},{"town":"貝吹町","koaza":"大牛切","lat":34.87013,"lng":137.116942,"zip":"4450013"},{"town":"善明町","koaza":"中根原","lat":34.84694,"lng":137.101854,"zip":"4450034"},{"town":"善明町","koaza":"山田","lat":34.844628,"lng":137.104681,"zip":"4450034"},{"town":"善明町","koaza":"南山田","lat":34.846213,"lng":137.10272,"zip":"4450034"},{"town":"吉良町岡山","koaza":"泉前","lat":34.839641,"lng":137.074217,"zip":"4440531"},{"town":"吉良町下横須賀","koaza":"大山","lat":34.826193,"lng":137.061333,"zip":"4440522"},{"town":"吉良町下横須賀","koaza":"外野","lat":34.82428,"lng":137.05933,"zip":"4440522"},{"town":"笹曽根町","koaza":"東屋敷","lat":34.823644,"lng":137.050703,"zip":"4450053"},{"town":"一色町開正","koaza":"與七","lat":34.827199,"lng":137.020171,"zip":"4440421"},{"town":"刈宿町","koaza":"下川田","lat":34.82947,"lng":137.01533,"zip":"4440321"},{"town":"巨海町","koaza":"宮東","lat":34.835233,"lng":137.016519,"zip":"4440322"},{"town":"巨海町","koaza":"下縄","lat":34.834668,"lng":137.01904,"zip":"4440322"},{"town":"寺津町","koaza":"観音東","lat":34.838164,"lng":137.015808,"zip":"4440324"},{"town":"寺津町","koaza":"東一割","lat":34.839702,"lng":137.010013,"zip":"4440324"},{"town":"寺津町","koaza":"五ノ割横道東","lat":34.839388,"lng":137.009944,"zip":"4440324"},{"town":"寺津町","koaza":"五ノ割横道西","lat":34.838972,"lng":137.007326,"zip":"4440324"},{"town":"寺津町","koaza":"西一割","lat":34.840055,"lng":137.007487,"zip":"4440324"},{"town":"寺津町","koaza":"二ノ割","lat":34.845162,"lng":137.011777,"zip":"4440324"},{"town":"寺津町","koaza":"十三間","lat":34.846086,"lng":137.012899,"zip":"4440324"},{"town":"寺津町","koaza":"四ノ割横道東","lat":34.840429,"lng":137.010547,"zip":"4440324"},{"town":"寺津町","koaza":"四ノ割横道西","lat":34.8413,"lng":137.008365,"zip":"4440324"},{"town":"寺津町","koaza":"十三間続","lat":34.842745,"lng":137.012452,"zip":"4440324"},{"town":"寺津町","koaza":"二丁","lat":34.842822,"lng":137.011999,"zip":"4440324"},{"town":"寺津町","koaza":"三ノ割横道東","lat":34.84161,"lng":137.01056,"zip":"4440324"},{"town":"寺津町","koaza":"除地","lat":34.841466,"lng":137.012279,"zip":"4440324"},{"town":"寺津町","koaza":"枯木","lat":34.838415,"lng":137.019641,"zip":"4440324"},{"town":"巨海町","koaza":"若宮西","lat":34.837613,"lng":137.017187,"zip":"4440322"},{"town":"中根町","koaza":"五ノ割東","lat":34.827116,"lng":137.005015,"zip":"4440323"},{"town":"一色町治明","koaza":"東側","lat":34.824847,"lng":137.006708,"zip":"4440426"},{"town":"刈宿町","koaza":"東弥治","lat":34.827593,"lng":137.013655,"zip":"4440321"},{"town":"一色町治明","koaza":"新切","lat":34.825962,"lng":137.016657,"zip":"4440426"},{"town":"一色町治明","koaza":"川田","lat":34.820236,"lng":137.01467,"zip":"4440426"},{"town":"一色町治明","koaza":"東川田","lat":34.820709,"lng":137.015333,"zip":"4440426"},{"town":"一色町赤羽","koaza":"大戸前川向","lat":34.82172,"lng":137.016276,"zip":"4440427"},{"town":"西幡豆町","koaza":"西前田","lat":34.806206,"lng":137.127401,"zip":"4440703"},{"town":"西幡豆町","koaza":"小操美","lat":34.800825,"lng":137.127127,"zip":"4440703"},{"town":"東幡豆町","koaza":"佐右エ門田","lat":34.802405,"lng":137.169143,"zip":"4440701"},{"town":"吉良町宮迫","koaza":"上","lat":34.829985,"lng":137.133718,"zip":"4440502"},{"town":"吉良町宮迫","koaza":"観音田","lat":34.828917,"lng":137.12562,"zip":"4440502"},{"town":"吉良町友国","koaza":"王塚","lat":34.822948,"lng":137.091562,"zip":"4440504"},{"town":"吉良町友国","koaza":"奥入","lat":34.822517,"lng":137.090921,"zip":"4440504"},{"town":"吉良町津平","koaza":"山ノ上","lat":34.824935,"lng":137.09074,"zip":"4440503"},{"town":"吉良町宮崎","koaza":"山鼻","lat":34.7808,"lng":137.084475,"zip":"4440513"},{"town":"一色町小薮","koaza":"会所前下","lat":34.804359,"lng":137.007037,"zip":"4440424"},{"town":"一色町小薮","koaza":"宮西","lat":34.802765,"lng":137.006999,"zip":"4440424"},{"town":"一色町小薮","koaza":"西五町分","lat":34.803563,"lng":137.00554,"zip":"4440424"},{"town":"一色町小薮","koaza":"用水下","lat":34.802868,"lng":137.009473,"zip":"4440424"},{"town":"一色町惣五郎","koaza":"宮前","lat":34.797441,"lng":137.034986,"zip":"4440405"},{"town":"吉良町白浜新田","koaza":"寺西登","lat":34.787595,"lng":137.084229,"zip":"4440514"},{"town":"吉良町宮崎","koaza":"白浜","lat":34.781993,"lng":137.084892,"zip":"4440513"},{"town":"吉良町乙川","koaza":"南犬山","lat":34.786138,"lng":137.091066,"zip":"4440512"},{"town":"吉良町乙川","koaza":"蛇抜","lat":34.784996,"lng":137.089089,"zip":"4440512"},{"town":"吉良町乙川","koaza":"西落","lat":34.792035,"lng":137.091929,"zip":"4440512"},{"town":"吉良町宮崎","koaza":"田ノ上","lat":34.782388,"lng":137.094778,"zip":"4440513"},{"town":"吉良町宮崎","koaza":"大山","lat":34.784957,"lng":137.097522,"zip":"4440513"},{"town":"吉良町宮崎","koaza":"田尻","lat":34.784391,"lng":137.097072,"zip":"4440513"},{"town":"吉良町宮崎","koaza":"鉢貫","lat":34.783568,"lng":137.09683,"zip":"4440513"},{"town":"吉良町宮崎","koaza":"西部田","lat":34.780703,"lng":137.094603,"zip":"4440513"},{"town":"吉良町宮崎","koaza":"西甚作","lat":34.78567,"lng":137.096537,"zip":"4440513"},{"town":"吉良町宮崎","koaza":"東甚作","lat":34.782766,"lng":137.096232,"zip":"4440513"},{"town":"吉良町宮崎","koaza":"中部田","lat":34.781922,"lng":137.095437,"zip":"4440513"},{"town":"鳥羽町","koaza":"田尻","lat":34.784567,"lng":137.099172,"zip":"4440704"},{"town":"吉良町乙川","koaza":"西山","lat":34.794558,"lng":137.087918,"zip":"4440512"},{"town":"吉良町乙川","koaza":"九郎三","lat":34.796134,"lng":137.093372,"zip":"4440512"},{"town":"吉良町乙川","koaza":"藤兼","lat":34.796128,"lng":137.094884,"zip":"4440512"},{"town":"吉良町乙川","koaza":"喜太","lat":34.795689,"lng":137.097066,"zip":"4440512"},{"town":"吉良町乙川","koaza":"東山","lat":34.796241,"lng":137.090506,"zip":"4440512"},{"town":"鳥羽町","koaza":"石塚","lat":34.810147,"lng":137.095246,"zip":"4440704"},{"town":"鳥羽町","koaza":"笹頭","lat":34.814701,"lng":137.103874,"zip":"4440704"},{"town":"吉良町駮馬","koaza":"郷迫","lat":34.832332,"lng":137.100729,"zip":"4440501"},{"town":"吉良町駮馬","koaza":"荒井山","lat":34.83403,"lng":137.098274,"zip":"4440501"},{"town":"吉良町駮馬","koaza":"小迫","lat":34.835685,"lng":137.097696,"zip":"4440501"},{"town":"吉良町駮馬","koaza":"西鍛治山","lat":34.837941,"lng":137.094657,"zip":"4440501"},{"town":"熱池町","koaza":"落","lat":34.840544,"lng":137.036623,"zip":"4450881"},{"town":"熱池町","koaza":"桜池","lat":34.841148,"lng":137.037644,"zip":"4450881"},{"town":"針曽根町","koaza":"海老池","lat":34.841609,"lng":137.03694,"zip":"4450886"},{"town":"寺津町","koaza":"一ノ割","lat":34.846216,"lng":137.011803,"zip":"4440324"},{"town":"寺津町","koaza":"三ノ割","lat":34.84309,"lng":137.008936,"zip":"4440324"},{"town":"小栗町","koaza":"上流作","lat":34.851464,"lng":136.995618,"zip":"4440332"},{"town":"中畑町","koaza":"江口","lat":34.866399,"lng":137.015073,"zip":"4440303"},{"town":"中畑町","koaza":"宮西","lat":34.872174,"lng":137.01248,"zip":"4440303"},{"town":"中畑町","koaza":"喜平前","lat":34.8705,"lng":137.01681,"zip":"4440303"},{"town":"田貫町","koaza":"西荒古","lat":34.870559,"lng":137.024847,"zip":"4440301"},{"town":"小間町","koaza":"西光寺南","lat":34.873519,"lng":137.029547,"zip":"4450893"},{"town":"法光寺町","koaza":"西田","lat":34.867578,"lng":137.027947,"zip":"4450892"},{"town":"法光寺町","koaza":"五反田","lat":34.870631,"lng":137.028214,"zip":"4450892"},{"town":"田貫町","koaza":"東荒古","lat":34.866646,"lng":137.027061,"zip":"4440301"},{"town":"法光寺町","koaza":"西山","lat":34.86594,"lng":137.02907,"zip":"4450892"},{"town":"下町","koaza":"小山","lat":34.865477,"lng":137.037802,"zip":"4450891"},{"town":"住崎町","koaza":"荒子","lat":34.863278,"lng":137.037154,"zip":"4450876"},{"town":"田貫町","koaza":"深田","lat":34.868392,"lng":137.02739,"zip":"4440301"},{"town":"平坂町","koaza":"山崎","lat":34.861133,"lng":137.020375,"zip":"4440305"},{"town":"平坂町","koaza":"茶林","lat":34.861587,"lng":137.021368,"zip":"4440305"},{"town":"平坂町","koaza":"牛起","lat":34.859546,"lng":137.023582,"zip":"4440305"},{"town":"平坂町","koaza":"梅旭","lat":34.858477,"lng":137.024511,"zip":"4440305"},{"town":"平坂町","koaza":"奥天神","lat":34.860024,"lng":137.022096,"zip":"4440305"},{"town":"楠村町","koaza":"天神西","lat":34.856785,"lng":137.01973,"zip":"4440325"},{"town":"西小梛町","koaza":"申改","lat":34.863832,"lng":137.001683,"zip":"4440331"},{"town":"平坂町","koaza":"下縄","lat":34.858577,"lng":137.011829,"zip":"4440305"},{"town":"楠村町","koaza":"家下","lat":34.856829,"lng":137.016073,"zip":"4440325"},{"town":"米津町","koaza":"荒井","lat":34.889045,"lng":137.050922,"zip":"4450802"},{"town":"南中根町","koaza":"五ケ野","lat":34.912522,"lng":137.066657,"zip":"4450801"},{"town":"志貴野町","koaza":"西山","lat":34.88742,"lng":137.067444,"zip":"4450084"},{"town":"小島町","koaza":"城下","lat":34.888765,"lng":137.090983,"zip":"4450006"},{"town":"西浅井町","koaza":"古城","lat":34.88871,"lng":137.101863,"zip":"4450004"},{"town":"西浅井町","koaza":"城子","lat":34.889668,"lng":137.101065,"zip":"4450004"},{"town":"新村町","koaza":"辻","lat":34.897111,"lng":137.108583,"zip":"4450002"},{"town":"新村町","koaza":"郷東","lat":34.895479,"lng":137.10946,"zip":"4450002"},{"town":"上町","koaza":"狐穴","lat":34.882042,"lng":137.046409,"zip":"4450894"},{"town":"上町","koaza":"東二ツ堀","lat":34.881787,"lng":137.044457,"zip":"4450894"},{"town":"伊藤町","koaza":"大道東","lat":34.882544,"lng":137.054189,"zip":"4450806"},{"town":"鶴城町","koaza":"浄念塚","lat":34.876049,"lng":137.051153,"zip":"4450805"},{"town":"戸ケ崎町","koaza":"延命","lat":34.877013,"lng":137.061285,"zip":"4450074"},{"town":"小島町","koaza":"岡ノ山","lat":34.87701,"lng":137.083272,"zip":"4450006"},{"town":"貝吹町","koaza":"残塚","lat":34.868837,"lng":137.120194,"zip":"4450013"},{"town":"上町","koaza":"北荒子","lat":34.878731,"lng":137.04844,"zip":"4450894"},{"town":"上町","koaza":"南名向","lat":34.879639,"lng":137.045217,"zip":"4450894"},{"town":"上町","koaza":"蓑掛","lat":34.879968,"lng":137.04782,"zip":"4450894"},{"town":"上町","koaza":"塔頭","lat":34.878602,"lng":137.043908,"zip":"4450894"},{"town":"上町","koaza":"宮東","lat":34.880792,"lng":137.044031,"zip":"4450894"},{"town":"平坂町","koaza":"吉山","lat":34.859236,"lng":137.020869,"zip":"4440305"},{"town":"富山町","koaza":"元山","lat":34.853486,"lng":137.021538,"zip":"4440326"},{"town":"楠村町","koaza":"三在","lat":34.85256,"lng":137.019811,"zip":"4440325"},{"town":"深池町","koaza":"与田","lat":34.85105,"lng":137.046846,"zip":"4450875"},{"town":"今川町","koaza":"浅間","lat":34.851105,"lng":137.05394,"zip":"4450063"},{"town":"今川町","koaza":"土井堀","lat":34.856373,"lng":137.068733,"zip":"4450063"},{"town":"寄近町","koaza":"下川田","lat":34.857396,"lng":137.071732,"zip":"4450061"},{"town":"室町","koaza":"別曽","lat":34.850045,"lng":137.101,"zip":"4450033"},{"town":"吉良町宮迫","koaza":"鴻ケ巣","lat":34.831958,"lng":137.126013,"zip":"4440502"},{"town":"西幡豆町","koaza":"幸ノケ谷","lat":34.811562,"lng":137.130016,"zip":"4440703"},{"town":"西幡豆町","koaza":"鬼木","lat":34.815207,"lng":137.135009,"zip":"4440703"},{"town":"西幡豆町","koaza":"東奥山","lat":34.818571,"lng":137.146208,"zip":"4440703"},{"town":"東幡豆町","koaza":"上り沢","lat":34.822519,"lng":137.157133,"zip":"4440701"},{"town":"東幡豆町","koaza":"南沢","lat":34.816722,"lng":137.155067,"zip":"4440701"},{"town":"東幡豆町","koaza":"裏山","lat":34.807161,"lng":137.164303,"zip":"4440701"},{"town":"東幡豆町","koaza":"三ケ根田","lat":34.804892,"lng":137.168528,"zip":"4440701"},{"town":"東幡豆町","koaza":"杉那","lat":34.805479,"lng":137.16891,"zip":"4440701"},{"town":"東幡豆町","koaza":"三ケ根口","lat":34.806674,"lng":137.166276,"zip":"4440701"},{"town":"東幡豆町","koaza":"大入","lat":34.805024,"lng":137.157474,"zip":"4440701"},{"town":"東幡豆町","koaza":"深迫","lat":34.801499,"lng":137.166325,"zip":"4440701"},{"town":"東幡豆町","koaza":"王根","lat":34.785918,"lng":137.154601,"zip":"4440701"},{"town":"東幡豆町","koaza":"鯉田","lat":34.783423,"lng":137.152221,"zip":"4440701"},{"town":"東幡豆町","koaza":"蛇山越","lat":34.787379,"lng":137.150866,"zip":"4440701"},{"town":"東幡豆町","koaza":"池田","lat":34.790469,"lng":137.147712,"zip":"4440701"},{"town":"東幡豆町","koaza":"上神田","lat":34.789344,"lng":137.150874,"zip":"4440701"},{"town":"東幡豆町","koaza":"上池下","lat":34.788424,"lng":137.151403,"zip":"4440701"},{"town":"東幡豆町","koaza":"竹ノ下","lat":34.792371,"lng":137.150126,"zip":"4440701"},{"town":"東幡豆町","koaza":"彦田","lat":34.792143,"lng":137.145378,"zip":"4440701"},{"town":"東幡豆町","koaza":"桑畑山","lat":34.794103,"lng":137.135992,"zip":"4440701"},{"town":"東幡豆町","koaza":"郷上","lat":34.795027,"lng":137.134587,"zip":"4440701"},{"town":"寺部町","koaza":"香伏","lat":34.790354,"lng":137.129047,"zip":"4440702"},{"town":"西幡豆町","koaza":"講伏","lat":34.792561,"lng":137.129613,"zip":"4440703"},{"town":"東幡豆町","koaza":"岩廻","lat":34.791592,"lng":137.13192,"zip":"4440701"},{"town":"東幡豆町","koaza":"下山","lat":34.78943,"lng":137.13175,"zip":"4440701"},{"town":"寺部町","koaza":"上宇頭","lat":34.788012,"lng":137.129231,"zip":"4440702"},{"town":"西幡豆町","koaza":"西道添","lat":34.804128,"lng":137.114386,"zip":"4440703"},{"town":"鳥羽町","koaza":"北荒井","lat":34.796277,"lng":137.105563,"zip":"4440704"},{"town":"鳥羽町","koaza":"八貫","lat":34.788357,"lng":137.101686,"zip":"4440704"},{"town":"吉良町小山田","koaza":"羽城","lat":34.803369,"lng":137.080772,"zip":"4440511"},{"town":"吉良町小山田","koaza":"後山","lat":34.803235,"lng":137.077143,"zip":"4440511"},{"town":"吉良町饗庭","koaza":"カンバ池","lat":34.811949,"lng":137.075215,"zip":"4440523"},{"town":"吉良町饗庭","koaza":"二本松","lat":34.810133,"lng":137.084735,"zip":"4440523"},{"town":"吉良町八幡川田","koaza":"西川田","lat":34.815499,"lng":137.052692,"zip":"4440526"},{"town":"一色町細川","koaza":"汐浜下","lat":34.817584,"lng":137.001902,"zip":"4440425"},{"town":"一色町細川","koaza":"三番割下","lat":34.815451,"lng":137.001587,"zip":"4440425"},{"town":"一色町治明","koaza":"北屋敷","lat":34.825151,"lng":137.00882,"zip":"4440426"},{"town":"中根町","koaza":"三ノ割北","lat":34.835609,"lng":137.001475,"zip":"4440323"},{"town":"中根町","koaza":"三ノ割南","lat":34.830947,"lng":136.999458,"zip":"4440323"},{"town":"一色町治明","koaza":"銭成","lat":34.819033,"lng":137.008906,"zip":"4440426"},{"town":"一色町養ケ島","koaza":"郷西","lat":34.819017,"lng":137.010403,"zip":"4440429"},{"town":"一色町赤羽","koaza":"内川","lat":34.822155,"lng":137.023756,"zip":"4440427"},{"town":"一色町赤羽","koaza":"本川","lat":34.821721,"lng":137.021152,"zip":"4440427"},{"town":"一色町赤羽","koaza":"城ケ下","lat":34.821717,"lng":137.019221,"zip":"4440427"},{"town":"一色町味浜","koaza":"上乾地","lat":34.81898,"lng":137.025669,"zip":"4440422"},{"town":"一色町赤羽","koaza":"下川田","lat":34.822555,"lng":137.02611,"zip":"4440427"},{"town":"吉良町宮崎","koaza":"若宮西","lat":34.777968,"lng":137.086016,"zip":"4440513"},{"town":"吉良町宮崎","koaza":"若宮後","lat":34.778945,"lng":137.085692,"zip":"4440513"},{"town":"吉良町宮崎","koaza":"甚兵衛上","lat":34.779137,"lng":137.086473,"zip":"4440513"},{"town":"吉良町宮崎","koaza":"八王子西","lat":34.780057,"lng":137.086937,"zip":"4440513"},{"town":"吉良町宮崎","koaza":"清右衛上","lat":34.780107,"lng":137.086472,"zip":"4440513"},{"town":"上羽角町","koaza":"後畑","lat":34.888475,"lng":137.127577,"zip":"4450011"},{"town":"上羽角町","koaza":"河原","lat":34.890167,"lng":137.136161,"zip":"4450011"},{"town":"上羽角町","koaza":"池下","lat":34.88793,"lng":137.134986,"zip":"4450011"},{"town":"上羽角町","koaza":"馬頭","lat":34.884027,"lng":137.138633,"zip":"4450011"},{"town":"西幡豆町","koaza":"東森","lat":34.809323,"lng":137.118341,"zip":"4440703"},{"town":"西幡豆町","koaza":"高根","lat":34.810315,"lng":137.120224,"zip":"4440703"},{"town":"西幡豆町","koaza":"稲葉","lat":34.798172,"lng":137.116968,"zip":"4440703"},{"town":"西幡豆町","koaza":"貝場","lat":34.799065,"lng":137.118003,"zip":"4440703"},{"town":"西幡豆町","koaza":"二本松","lat":34.801078,"lng":137.117596,"zip":"4440703"},{"town":"西幡豆町","koaza":"北門内","lat":34.803787,"lng":137.124612,"zip":"4440703"},{"town":"西幡豆町","koaza":"轟","lat":34.802748,"lng":137.132347,"zip":"4440703"},{"town":"西幡豆町","koaza":"宮西","lat":34.800115,"lng":137.126089,"zip":"4440703"},{"town":"東幡豆町","koaza":"宮脇","lat":34.796616,"lng":137.139434,"zip":"4440701"},{"town":"東幡豆町","koaza":"宮前","lat":34.795138,"lng":137.140522,"zip":"4440701"},{"town":"東幡豆町","koaza":"上畑山","lat":34.79653,"lng":137.141083,"zip":"4440701"},{"town":"東幡豆町","koaza":"東山谷","lat":34.800626,"lng":137.142777,"zip":"4440701"},{"town":"東幡豆町","koaza":"上ノ山","lat":34.79249,"lng":137.144045,"zip":"4440701"},{"town":"東幡豆町","koaza":"森崎","lat":34.7887,"lng":137.149371,"zip":"4440701"},{"town":"東幡豆町","koaza":"森山","lat":34.786451,"lng":137.156677,"zip":"4440701"},{"town":"東幡豆町","koaza":"下床崎","lat":34.793093,"lng":137.153673,"zip":"4440701"},{"town":"東幡豆町","koaza":"南越田","lat":34.792421,"lng":137.158417,"zip":"4440701"},{"town":"東幡豆町","koaza":"大根入","lat":34.798718,"lng":137.146526,"zip":"4440701"},{"town":"東幡豆町","koaza":"彦田入","lat":34.798161,"lng":137.144135,"zip":"4440701"},{"town":"吉良町宮崎","koaza":"下清水","lat":34.781248,"lng":137.087617,"zip":"4440513"},{"town":"吉良町宮崎","koaza":"忍山","lat":34.779451,"lng":137.089919,"zip":"4440513"},{"town":"吉良町宮崎","koaza":"由兵衛上","lat":34.780509,"lng":137.092233,"zip":"4440513"},{"town":"吉良町宮崎","koaza":"山ノ井","lat":34.780513,"lng":137.093055,"zip":"4440513"},{"town":"吉良町宮崎","koaza":"中道上","lat":34.782168,"lng":137.09361,"zip":"4440513"},{"town":"吉良町宮崎","koaza":"中道下","lat":34.781768,"lng":137.09408,"zip":"4440513"},{"town":"吉良町宮崎","koaza":"地僧坊","lat":34.780816,"lng":137.093782,"zip":"4440513"},{"town":"一色町前野","koaza":"下新田","lat":34.810207,"lng":137.027843,"zip":"4440407"},{"town":"吉良町下横須賀","koaza":"下新田","lat":34.817336,"lng":137.053541,"zip":"4440522"},{"town":"吉良町友国","koaza":"池下","lat":34.816336,"lng":137.089164,"zip":"4440504"},{"town":"鳥羽町","koaza":"大谷","lat":34.803984,"lng":137.103453,"zip":"4440704"},{"town":"鳥羽町","koaza":"萱場","lat":34.804612,"lng":137.097152,"zip":"4440704"},{"town":"鳥羽町","koaza":"大入","lat":34.805513,"lng":137.097757,"zip":"4440704"},{"town":"鳥羽町","koaza":"大迫","lat":34.80556,"lng":137.108934,"zip":"4440704"},{"town":"鳥羽町","koaza":"北迫","lat":34.799673,"lng":137.105567,"zip":"4440704"},{"town":"西幡豆町","koaza":"蕨迫","lat":34.812895,"lng":137.123786,"zip":"4440703"},{"town":"西幡豆町","koaza":"田迫","lat":34.809798,"lng":137.125977,"zip":"4440703"},{"town":"西幡豆町","koaza":"欠橋","lat":34.813441,"lng":137.138111,"zip":"4440703"},{"town":"西幡豆町","koaza":"寺尾","lat":34.814122,"lng":137.141248,"zip":"4440703"},{"town":"東幡豆町","koaza":"前山","lat":34.802187,"lng":137.165557,"zip":"4440701"},{"town":"東幡豆町","koaza":"烏帽子山","lat":34.800243,"lng":137.16924,"zip":"4440701"},{"town":"西幡豆町","koaza":"橋ノ下","lat":34.809624,"lng":137.131101,"zip":"4440703"},{"town":"西幡豆町","koaza":"高沢","lat":34.797425,"lng":137.130276,"zip":"4440703"},{"town":"東幡豆町","koaza":"小出ケ入","lat":34.807157,"lng":137.156118,"zip":"4440701"},{"town":"東幡豆町","koaza":"北山","lat":34.800474,"lng":137.161469,"zip":"4440701"},{"town":"東幡豆町","koaza":"向山","lat":34.791942,"lng":137.154416,"zip":"4440701"},{"town":"羽塚町","koaza":"喜多王東","lat":34.857413,"lng":137.025182,"zip":"4440316"},{"town":"山下町","koaza":"城南","lat":34.865877,"lng":137.046693,"zip":"4450877"},{"town":"上永良町","koaza":"天白","lat":34.87305,"lng":137.112422,"zip":"4450017"},{"town":"上永良町","koaza":"宮東","lat":34.87506,"lng":137.114084,"zip":"4450017"},{"town":"一色町酒手島","koaza":"鳥山東通","lat":34.79012,"lng":137.026506,"zip":"4440415"}]