[{"town":"大字青山","koaza":"","lat":35.257564,"lng":136.914862,"zip":"4800200"},{"town":"大字豊場","koaza":"","lat":35.246843,"lng":136.91692,"zip":"4800200"},{"town":"大字青山","koaza":"松張","lat":35.251853,"lng":136.90265,"zip":"4800200"},{"town":"大字青山","koaza":"高添","lat":35.254596,"lng":136.905113,"zip":"4800200"},{"town":"大字豊場","koaza":"山方","lat":35.243749,"lng":136.902571,"zip":"4800200"},{"town":"大字豊場","koaza":"大山","lat":35.247992,"lng":136.905315,"zip":"4800200"},{"town":"大字豊場","koaza":"高畑","lat":35.240083,"lng":136.906213,"zip":"4800200"},{"town":"大字豊場","koaza":"八反","lat":35.241706,"lng":136.905624,"zip":"4800200"},{"town":"大字豊場","koaza":"沢口","lat":35.24386,"lng":136.906488,"zip":"4800200"},{"town":"大字豊場","koaza":"幸田","lat":35.246712,"lng":136.907212,"zip":"4800200"},{"town":"大字青山","koaza":"北浦","lat":35.256283,"lng":136.905818,"zip":"4800200"},{"town":"大字青山","koaza":"六和","lat":35.252758,"lng":136.906833,"zip":"4800200"},{"town":"大字青山","koaza":"江川","lat":35.257962,"lng":136.906738,"zip":"4800200"},{"town":"大字青山","koaza":"東栄","lat":35.255781,"lng":136.910057,"zip":"4800200"},{"town":"大字青山","koaza":"金剛","lat":35.259249,"lng":136.910555,"zip":"4800200"},{"town":"大字豊場","koaza":"栄","lat":35.251174,"lng":136.908424,"zip":"4800200"},{"town":"大字豊場","koaza":"新栄","lat":35.249354,"lng":136.911963,"zip":"4800200"},{"town":"大字豊場","koaza":"多門寺","lat":35.246742,"lng":136.908781,"zip":"4800200"},{"town":"大字豊場","koaza":"高前","lat":35.245496,"lng":136.912584,"zip":"4800200"},{"town":"大字豊場","koaza":"流川","lat":35.242963,"lng":136.909988,"zip":"4800200"},{"town":"大字青山","koaza":"東川","lat":35.252823,"lng":136.910015,"zip":"4800200"},{"town":"大字豊場","koaza":"志水","lat":35.239454,"lng":136.911477,"zip":"4800200"},{"town":"大字豊場","koaza":"西之町","lat":35.246001,"lng":136.910529,"zip":"4800200"},{"town":"大字豊場","koaza":"南浦","lat":35.245546,"lng":136.911754,"zip":"4800200"},{"town":"大字豊場","koaza":"大門","lat":35.246703,"lng":136.912718,"zip":"4800200"},{"town":"大字豊場","koaza":"木戸","lat":35.248003,"lng":136.912301,"zip":"4800200"},{"town":"大字豊場","koaza":"和合","lat":35.250994,"lng":136.914898,"zip":"4800200"},{"town":"大字青山","koaza":"神明","lat":35.260871,"lng":136.915379,"zip":"4800200"},{"town":"大字豊場","koaza":"宮浦","lat":35.248742,"lng":136.913129,"zip":"4800200"},{"town":"大字豊場","koaza":"鳥居前","lat":35.246034,"lng":136.913389,"zip":"4800200"},{"town":"大字豊場","koaza":"冨士","lat":35.243105,"lng":136.915468,"zip":"4800200"},{"town":"大字豊場","koaza":"四面堂","lat":35.250691,"lng":136.91378,"zip":"4800200"},{"town":"大字豊場","koaza":"丸田","lat":35.251866,"lng":136.916017,"zip":"4800200"},{"town":"大字豊場","koaza":"下戸","lat":35.240986,"lng":136.916441,"zip":"4800200"},{"town":"大字豊場","koaza":"野田","lat":35.237948,"lng":136.916478,"zip":"4800200"},{"town":"大字豊場","koaza":"城屋敷","lat":35.24918,"lng":136.914964,"zip":"4800200"},{"town":"大字豊場","koaza":"堀之内","lat":35.250281,"lng":136.914742,"zip":"4800200"},{"town":"大字豊場","koaza":"前池","lat":35.246543,"lng":136.91571,"zip":"4800200"},{"town":"大字豊場","koaza":"中之町","lat":35.249008,"lng":136.916731,"zip":"4800200"},{"town":"大字豊場","koaza":"青塚屋敷","lat":35.242964,"lng":136.916674,"zip":"4800200"},{"town":"大字豊場","koaza":"小道","lat":35.251344,"lng":136.917352,"zip":"4800200"},{"town":"大字豊場","koaza":"諏訪","lat":35.246442,"lng":136.919292,"zip":"4800200"},{"town":"大字豊場","koaza":"伊勢山","lat":35.242772,"lng":136.91934,"zip":"4800200"},{"town":"大字豊場","koaza":"幟立","lat":35.252764,"lng":136.918784,"zip":"4800200"},{"town":"大字豊場","koaza":"若宮","lat":35.245017,"lng":136.920046,"zip":"4800200"},{"town":"大字豊場","koaza":"東古諏訪","lat":35.248003,"lng":136.918211,"zip":"4800200"},{"town":"大字豊場","koaza":"新田町","lat":35.249838,"lng":136.919974,"zip":"4800200"},{"town":"大字豊場","koaza":"殿釡","lat":35.251162,"lng":136.921869,"zip":"4800200"},{"town":"大字豊場","koaza":"神戸","lat":35.24107,"lng":136.922007,"zip":"4800200"},{"town":"大字豊場","koaza":"四ツ塚","lat":35.243654,"lng":136.92107,"zip":"4800200"},{"town":"大字豊場","koaza":"中新田","lat":35.249263,"lng":136.921388,"zip":"4800200"},{"town":"大字豊場","koaza":"林先","lat":35.247408,"lng":136.924606,"zip":"4800200"},{"town":"大字豊場","koaza":"中道","lat":35.243996,"lng":136.924963,"zip":"4800200"},{"town":"大字豊場","koaza":"中之道","lat":35.244645,"lng":136.92377,"zip":"4800200"},{"town":"大字豊場","koaza":"池ス山","lat":35.242754,"lng":136.926532,"zip":"4800200"}]