[{"town":"赤坂台","koaza":"","lat":34.871415,"lng":137.307875,"zip":"4410204"},{"town":"赤坂町","koaza":"","lat":34.858556,"lng":137.304447,"zip":"4410202"},{"town":"赤代町一丁目","koaza":"","lat":34.823112,"lng":137.380026,"zip":"4420054"},{"town":"赤代町二丁目","koaza":"","lat":34.821995,"lng":137.378816,"zip":"4420054"},{"town":"赤代町三丁目","koaza":"","lat":34.82109,"lng":137.378467,"zip":"4420054"},{"town":"明野町一丁目","koaza":"","lat":34.816382,"lng":137.376476,"zip":"4420887"},{"town":"明野町二丁目","koaza":"","lat":34.817804,"lng":137.37643,"zip":"4420887"},{"town":"明野町三丁目","koaza":"","lat":34.817114,"lng":137.375457,"zip":"4420887"},{"town":"明野町四丁目","koaza":"","lat":34.817808,"lng":137.374965,"zip":"4420887"},{"town":"曙町一丁目","koaza":"","lat":34.834434,"lng":137.396202,"zip":"4420015"},{"town":"曙町二丁目","koaza":"","lat":34.833108,"lng":137.395485,"zip":"4420015"},{"town":"曙町三丁目","koaza":"","lat":34.834006,"lng":137.395105,"zip":"4420015"},{"town":"曙町四丁目","koaza":"","lat":34.833163,"lng":137.393652,"zip":"4420015"},{"town":"旭町","koaza":"","lat":34.823317,"lng":137.393886,"zip":"4420041"},{"town":"足山田町","koaza":"","lat":34.871808,"lng":137.405307,"zip":"4411203"},{"town":"麻生田町","koaza":"","lat":34.832982,"lng":137.417738,"zip":"4420802"},{"town":"市田町","koaza":"","lat":34.841451,"lng":137.361198,"zip":"4420862"},{"town":"一宮町","koaza":"","lat":34.853125,"lng":137.423001,"zip":"4411231"},{"town":"伊奈町","koaza":"","lat":34.800497,"lng":137.34638,"zip":"4410105"},{"town":"稲荷通二丁目","koaza":"","lat":34.830372,"lng":137.396965,"zip":"4420023"},{"town":"院之子町","koaza":"","lat":34.808923,"lng":137.405033,"zip":"4420814"},{"town":"上野一丁目","koaza":"","lat":34.840738,"lng":137.411066,"zip":"4420801"},{"town":"上野二丁目","koaza":"","lat":34.840441,"lng":137.41417,"zip":"4420801"},{"town":"上野三丁目","koaza":"","lat":34.84286,"lng":137.416177,"zip":"4420801"},{"town":"上野四丁目","koaza":"","lat":34.84039,"lng":137.417452,"zip":"4420801"},{"town":"牛久保駅通三丁目","koaza":"","lat":34.815014,"lng":137.378746,"zip":"4420886"},{"town":"牛久保駅通四丁目","koaza":"","lat":34.817676,"lng":137.377716,"zip":"4420886"},{"town":"牛久保駅通五丁目","koaza":"","lat":34.820779,"lng":137.375791,"zip":"4420886"},{"town":"牛久保町","koaza":"","lat":34.809727,"lng":137.385053,"zip":"4420826"},{"town":"駅前通二丁目","koaza":"","lat":34.822367,"lng":137.39014,"zip":"4420045"},{"town":"駅前通三丁目","koaza":"","lat":34.820018,"lng":137.387929,"zip":"4420045"},{"town":"駅前通四丁目","koaza":"","lat":34.817367,"lng":137.387443,"zip":"4420045"},{"town":"江島町","koaza":"","lat":34.863056,"lng":137.444571,"zip":"4411211"},{"town":"大木町","koaza":"","lat":34.862294,"lng":137.389923,"zip":"4411205"},{"town":"大崎町","koaza":"","lat":34.844362,"lng":137.372661,"zip":"4420007"},{"town":"大橋町一丁目","koaza":"","lat":34.833297,"lng":137.410504,"zip":"4420809"},{"town":"大橋町二丁目","koaza":"","lat":34.834136,"lng":137.41165,"zip":"4420809"},{"town":"大橋町三丁目","koaza":"","lat":34.835121,"lng":137.412635,"zip":"4420809"},{"town":"大橋町四丁目","koaza":"","lat":34.836289,"lng":137.414902,"zip":"4420809"},{"town":"大橋町五丁目","koaza":"","lat":34.837558,"lng":137.415752,"zip":"4420809"},{"town":"大堀町","koaza":"","lat":34.833621,"lng":137.399856,"zip":"4420013"},{"town":"小田渕町","koaza":"","lat":34.815604,"lng":137.346964,"zip":"4420844"},{"town":"小田渕町二丁目","koaza":"","lat":34.818092,"lng":137.345185,"zip":"4420844"},{"town":"小田渕町三丁目","koaza":"","lat":34.820149,"lng":137.342892,"zip":"4420844"},{"town":"小田渕町四丁目","koaza":"","lat":34.82339,"lng":137.340357,"zip":"4420844"},{"town":"小田渕町五丁目","koaza":"","lat":34.826354,"lng":137.337594,"zip":"4420844"},{"town":"小田渕町六丁目","koaza":"","lat":34.824917,"lng":137.336296,"zip":"4420844"},{"town":"小田渕町七丁目","koaza":"","lat":34.82189,"lng":137.33856,"zip":"4420844"},{"town":"小田渕町八丁目","koaza":"","lat":34.817027,"lng":137.342942,"zip":"4420844"},{"town":"開運通一丁目","koaza":"","lat":34.825297,"lng":137.389045,"zip":"4420048"},{"town":"開運通二丁目","koaza":"","lat":34.82779,"lng":137.385682,"zip":"4420048"},{"town":"金沢町","koaza":"","lat":34.854412,"lng":137.449766,"zip":"4411212"},{"town":"金塚町一丁目","koaza":"","lat":34.816881,"lng":137.385048,"zip":"4420872"},{"town":"金塚町二丁目","koaza":"","lat":34.817809,"lng":137.384499,"zip":"4420872"},{"town":"金屋町","koaza":"","lat":34.820555,"lng":137.386382,"zip":"4420053"},{"town":"金屋西町一丁目","koaza":"","lat":34.827421,"lng":137.381635,"zip":"4420067"},{"town":"金屋西町二丁目","koaza":"","lat":34.827013,"lng":137.379016,"zip":"4420067"},{"town":"金屋西町三丁目","koaza":"","lat":34.827356,"lng":137.377234,"zip":"4420067"},{"town":"金屋橋町","koaza":"","lat":34.823286,"lng":137.377641,"zip":"4420055"},{"town":"金屋本町一丁目","koaza":"","lat":34.822063,"lng":137.383865,"zip":"4420052"},{"town":"金屋本町二丁目","koaza":"","lat":34.820561,"lng":137.383042,"zip":"4420052"},{"town":"金屋本町三丁目","koaza":"","lat":34.822754,"lng":137.381897,"zip":"4420052"},{"town":"金屋本町四丁目","koaza":"","lat":34.820993,"lng":137.381212,"zip":"4420052"},{"town":"金屋元町一丁目","koaza":"","lat":34.824645,"lng":137.385214,"zip":"4420066"},{"town":"金屋元町二丁目","koaza":"","lat":34.825259,"lng":137.383119,"zip":"4420066"},{"town":"上長山町","koaza":"","lat":34.884905,"lng":137.414736,"zip":"4411202"},{"town":"川花町一丁目","koaza":"","lat":34.814502,"lng":137.365605,"zip":"4420837"},{"town":"川花町二丁目","koaza":"","lat":34.816105,"lng":137.3655,"zip":"4420837"},{"town":"川花町三丁目","koaza":"","lat":34.81758,"lng":137.365592,"zip":"4420837"},{"town":"北浦町","koaza":"","lat":34.82186,"lng":137.393173,"zip":"4420042"},{"town":"行明町","koaza":"","lat":34.798424,"lng":137.39723,"zip":"4420822"},{"town":"久保町","koaza":"","lat":34.836293,"lng":137.33044,"zip":"4420856"},{"town":"光輝町一丁目","koaza":"","lat":34.813208,"lng":137.377387,"zip":"4420882"},{"town":"光輝町二丁目","koaza":"","lat":34.814332,"lng":137.377384,"zip":"4420882"},{"town":"柑子町","koaza":"","lat":34.806009,"lng":137.397616,"zip":"4420828"},{"town":"国府町","koaza":"","lat":34.831173,"lng":137.327494,"zip":"4420854"},{"town":"国府南一丁目","koaza":"","lat":34.829382,"lng":137.331072,"zip":"4420852"},{"town":"国府南二丁目","koaza":"","lat":34.828311,"lng":137.331271,"zip":"4420852"},{"town":"国府南三丁目","koaza":"","lat":34.827336,"lng":137.33199,"zip":"4420852"},{"town":"光明町一丁目","koaza":"","lat":34.815229,"lng":137.373118,"zip":"4420884"},{"town":"光明町二丁目","koaza":"","lat":34.816868,"lng":137.37234,"zip":"4420884"},{"town":"光陽町","koaza":"","lat":34.825561,"lng":137.405705,"zip":"4420038"},{"town":"小坂井町","koaza":"","lat":34.795766,"lng":137.365076,"zip":"4410103"},{"town":"小桜町","koaza":"","lat":34.831465,"lng":137.3911,"zip":"4420021"},{"town":"寿通一丁目","koaza":"","lat":34.810988,"lng":137.37431,"zip":"4420832"},{"town":"寿通二丁目","koaza":"","lat":34.809569,"lng":137.371181,"zip":"4420832"},{"town":"御油町","koaza":"","lat":34.846814,"lng":137.312775,"zip":"4410213"},{"town":"財賀町","koaza":"","lat":34.866863,"lng":137.358196,"zip":"4420861"},{"town":"幸町","koaza":"","lat":34.823835,"lng":137.388726,"zip":"4420046"},{"town":"堺町一丁目","koaza":"","lat":34.814656,"lng":137.362801,"zip":"4420836"},{"town":"堺町二丁目","koaza":"","lat":34.816448,"lng":137.36255,"zip":"4420836"},{"town":"桜ケ丘町","koaza":"","lat":34.829011,"lng":137.38838,"zip":"4420064"},{"town":"桜木通一丁目","koaza":"","lat":34.826415,"lng":137.394657,"zip":"4420027"},{"town":"桜木通二丁目","koaza":"","lat":34.827097,"lng":137.393313,"zip":"4420027"},{"town":"桜木通三丁目","koaza":"","lat":34.828493,"lng":137.391412,"zip":"4420027"},{"town":"桜木通四丁目","koaza":"","lat":34.83059,"lng":137.389984,"zip":"4420027"},{"town":"桜木通五丁目","koaza":"","lat":34.832709,"lng":137.387803,"zip":"4420027"},{"town":"桜木通六丁目","koaza":"","lat":34.834479,"lng":137.386367,"zip":"4420027"},{"town":"桜町一丁目","koaza":"","lat":34.816381,"lng":137.349419,"zip":"4420843"},{"town":"桜町二丁目","koaza":"","lat":34.8157,"lng":137.351555,"zip":"4420843"},{"town":"桜町三丁目","koaza":"","lat":34.818542,"lng":137.349269,"zip":"4420843"},{"town":"佐土町","koaza":"","lat":34.835754,"lng":137.388825,"zip":"4420017"},{"town":"佐奈川町","koaza":"","lat":34.821879,"lng":137.373179,"zip":"4420875"},{"town":"三蔵子町","koaza":"","lat":34.840504,"lng":137.387224,"zip":"4420006"},{"town":"篠田町","koaza":"","lat":34.843923,"lng":137.401191,"zip":"4411206"},{"town":"篠束町","koaza":"","lat":34.802959,"lng":137.370326,"zip":"4410102"},{"town":"下長山町","koaza":"","lat":34.80344,"lng":137.379507,"zip":"4420824"},{"town":"下野川町一丁目","koaza":"","lat":34.818879,"lng":137.365265,"zip":"4420877"},{"town":"下野川町二丁目","koaza":"","lat":34.819514,"lng":137.36357,"zip":"4420877"},{"town":"宿町","koaza":"","lat":34.807714,"lng":137.361532,"zip":"4410101"},{"town":"白雲町一丁目","koaza":"","lat":34.836134,"lng":137.39497,"zip":"4420018"},{"town":"白雲町二丁目","koaza":"","lat":34.835555,"lng":137.394254,"zip":"4420018"},{"town":"白雲町三丁目","koaza":"","lat":34.835475,"lng":137.393016,"zip":"4420018"},{"town":"白鳥二丁目","koaza":"","lat":34.832483,"lng":137.332617,"zip":"4420847"},{"town":"白鳥三丁目","koaza":"","lat":34.831363,"lng":137.337653,"zip":"4420847"},{"town":"白鳥四丁目","koaza":"","lat":34.830615,"lng":137.334272,"zip":"4420847"},{"town":"白鳥五丁目","koaza":"","lat":34.829381,"lng":137.337672,"zip":"4420847"},{"town":"白鳥六丁目","koaza":"","lat":34.828387,"lng":137.340755,"zip":"4420847"},{"town":"白鳥七丁目","koaza":"","lat":34.826611,"lng":137.342929,"zip":"4420847"},{"town":"白鳥町","koaza":"","lat":34.823625,"lng":137.344457,"zip":"4420848"},{"town":"新青馬町一丁目","koaza":"","lat":34.834657,"lng":137.322481,"zip":"4420853"},{"town":"新青馬町二丁目","koaza":"","lat":34.834232,"lng":137.322352,"zip":"4420853"},{"town":"新青馬町三丁目","koaza":"","lat":34.834048,"lng":137.322999,"zip":"4420853"},{"town":"新青馬町四丁目","koaza":"","lat":34.833795,"lng":137.32313,"zip":"4420853"},{"town":"新青馬町五丁目","koaza":"","lat":34.833562,"lng":137.323502,"zip":"4420853"},{"town":"新青馬町六丁目","koaza":"","lat":34.833252,"lng":137.323406,"zip":"4420853"},{"town":"新青馬町七丁目","koaza":"","lat":34.832953,"lng":137.323365,"zip":"4420853"},{"town":"新青馬町八丁目","koaza":"","lat":34.83273,"lng":137.323718,"zip":"4420853"},{"town":"新栄町一丁目","koaza":"","lat":34.837002,"lng":137.327414,"zip":"4420855"},{"town":"新栄町二丁目","koaza":"","lat":34.836276,"lng":137.326094,"zip":"4420855"},{"town":"新栄町三丁目","koaza":"","lat":34.834722,"lng":137.327354,"zip":"4420855"},{"town":"新桜町通一丁目","koaza":"","lat":34.813881,"lng":137.373319,"zip":"4420835"},{"town":"新桜町通二丁目","koaza":"","lat":34.813017,"lng":137.368881,"zip":"4420835"},{"town":"新桜町通三丁目","koaza":"","lat":34.813735,"lng":137.362944,"zip":"4420835"},{"town":"新宿町一丁目","koaza":"","lat":34.819276,"lng":137.392743,"zip":"4420043"},{"town":"新宿町二丁目","koaza":"","lat":34.820236,"lng":137.390632,"zip":"4420043"},{"town":"新道町一丁目","koaza":"","lat":34.824141,"lng":137.364111,"zip":"4420878"},{"town":"新道町二丁目","koaza":"","lat":34.821254,"lng":137.363242,"zip":"4420878"},{"town":"新豊町一丁目","koaza":"","lat":34.832905,"lng":137.403193,"zip":"4420012"},{"town":"新豊町二丁目","koaza":"","lat":34.831081,"lng":137.403811,"zip":"4420012"},{"town":"末広通一丁目","koaza":"","lat":34.825039,"lng":137.387114,"zip":"4420029"},{"town":"末広通二丁目","koaza":"","lat":34.827605,"lng":137.389403,"zip":"4420029"},{"town":"末広通三丁目","koaza":"","lat":34.830595,"lng":137.39297,"zip":"4420029"},{"town":"末広通四丁目","koaza":"","lat":34.832919,"lng":137.396321,"zip":"4420029"},{"town":"住吉町一丁目","koaza":"","lat":34.817191,"lng":137.402492,"zip":"4420819"},{"town":"住吉町二丁目","koaza":"","lat":34.817007,"lng":137.404642,"zip":"4420819"},{"town":"諏訪一丁目","koaza":"","lat":34.82722,"lng":137.373883,"zip":"4420068"},{"town":"諏訪二丁目","koaza":"","lat":34.824114,"lng":137.373687,"zip":"4420068"},{"town":"諏訪三丁目","koaza":"","lat":34.826069,"lng":137.368932,"zip":"4420068"},{"town":"諏訪四丁目","koaza":"","lat":34.827167,"lng":137.365274,"zip":"4420068"},{"town":"諏訪西町一丁目","koaza":"","lat":34.828118,"lng":137.361648,"zip":"4420069"},{"town":"諏訪西町二丁目","koaza":"","lat":34.830538,"lng":137.362523,"zip":"4420069"},{"town":"瀬木町","koaza":"","lat":34.811768,"lng":137.400374,"zip":"4420815"},{"town":"蔵子一丁目","koaza":"","lat":34.816283,"lng":137.355373,"zip":"4420842"},{"town":"蔵子二丁目","koaza":"","lat":34.818757,"lng":137.353749,"zip":"4420842"},{"town":"蔵子三丁目","koaza":"","lat":34.821286,"lng":137.352411,"zip":"4420842"},{"town":"蔵子四丁目","koaza":"","lat":34.826134,"lng":137.357401,"zip":"4420842"},{"town":"蔵子五丁目","koaza":"","lat":34.823414,"lng":137.356427,"zip":"4420842"},{"town":"蔵子六丁目","koaza":"","lat":34.819808,"lng":137.358196,"zip":"4420842"},{"town":"蔵子七丁目","koaza":"","lat":34.818436,"lng":137.360999,"zip":"4420842"},{"town":"代田町一丁目","koaza":"","lat":34.824449,"lng":137.360867,"zip":"4420841"},{"town":"代田町二丁目","koaza":"","lat":34.827186,"lng":137.359985,"zip":"4420841"},{"town":"高見町一丁目","koaza":"","lat":34.812296,"lng":137.375111,"zip":"4420883"},{"town":"高見町二丁目","koaza":"","lat":34.813116,"lng":137.374614,"zip":"4420883"},{"town":"高見町三丁目","koaza":"","lat":34.813743,"lng":137.374813,"zip":"4420883"},{"town":"高見町四丁目","koaza":"","lat":34.811454,"lng":137.373062,"zip":"4420883"},{"town":"高見町五丁目","koaza":"","lat":34.812244,"lng":137.372064,"zip":"4420883"},{"town":"高見町六丁目","koaza":"","lat":34.812837,"lng":137.372033,"zip":"4420883"},{"town":"為当町","koaza":"","lat":34.820329,"lng":137.323739,"zip":"4420845"},{"town":"樽井町","koaza":"","lat":34.843039,"lng":137.392995,"zip":"4420004"},{"town":"千両町","koaza":"","lat":34.869945,"lng":137.377278,"zip":"4420001"},{"town":"千歳通一丁目","koaza":"","lat":34.820909,"lng":137.384933,"zip":"4420888"},{"town":"千歳通二丁目","koaza":"","lat":34.818212,"lng":137.383152,"zip":"4420888"},{"town":"千歳通三丁目","koaza":"","lat":34.816531,"lng":137.380778,"zip":"4420888"},{"town":"千歳通四丁目","koaza":"","lat":34.815201,"lng":137.3769,"zip":"4420888"},{"town":"中央通一丁目","koaza":"","lat":34.820732,"lng":137.393737,"zip":"4420051"},{"town":"中央通二丁目","koaza":"","lat":34.821354,"lng":137.391248,"zip":"4420051"},{"town":"中央通三丁目","koaza":"","lat":34.822375,"lng":137.387463,"zip":"4420051"},{"town":"中央通四丁目","koaza":"","lat":34.823604,"lng":137.383134,"zip":"4420051"},{"town":"中央通五丁目","koaza":"","lat":34.825324,"lng":137.379439,"zip":"4420051"},{"town":"中条町","koaza":"","lat":34.814014,"lng":137.392107,"zip":"4420818"},{"town":"中条町一丁目","koaza":"","lat":34.816145,"lng":137.387187,"zip":"4420818"},{"town":"中条町二丁目","koaza":"","lat":34.815668,"lng":137.386398,"zip":"4420818"},{"town":"中条町三丁目","koaza":"","lat":34.81427,"lng":137.383978,"zip":"4420818"},{"town":"中部町一丁目","koaza":"","lat":34.821228,"lng":137.370182,"zip":"4420876"},{"town":"中部町二丁目","koaza":"","lat":34.82014,"lng":137.368183,"zip":"4420876"},{"town":"天神町","koaza":"","lat":34.824182,"lng":137.40493,"zip":"4420039"},{"town":"東光町一丁目","koaza":"","lat":34.829828,"lng":137.394687,"zip":"4420022"},{"town":"東光町二丁目","koaza":"","lat":34.830369,"lng":137.395125,"zip":"4420022"},{"town":"東光町三丁目","koaza":"","lat":34.830836,"lng":137.39588,"zip":"4420022"},{"town":"東光町四丁目","koaza":"","lat":34.831403,"lng":137.395751,"zip":"4420022"},{"town":"当古町","koaza":"","lat":34.813509,"lng":137.422165,"zip":"4420821"},{"town":"東上町","koaza":"","lat":34.882269,"lng":137.439192,"zip":"4411201"},{"town":"東新町","koaza":"","lat":34.828182,"lng":137.395214,"zip":"4420026"},{"town":"塔ノ木町一丁目","koaza":"","lat":34.815216,"lng":137.38245,"zip":"4420881"},{"town":"塔ノ木町二丁目","koaza":"","lat":34.815776,"lng":137.38131,"zip":"4420881"},{"town":"東名町一丁目","koaza":"","lat":34.831372,"lng":137.406819,"zip":"4420019"},{"town":"東名町二丁目","koaza":"","lat":34.83353,"lng":137.407506,"zip":"4420019"},{"town":"土筒町","koaza":"","lat":34.813921,"lng":137.41181,"zip":"4420813"},{"town":"豊川栄町","koaza":"","lat":34.823491,"lng":137.395514,"zip":"4420036"},{"town":"豊川町","koaza":"","lat":34.822844,"lng":137.400277,"zip":"4420033"},{"town":"豊川仲町","koaza":"","lat":34.825825,"lng":137.397746,"zip":"4420032"},{"town":"豊川西町","koaza":"","lat":34.82658,"lng":137.396068,"zip":"4420031"},{"town":"豊川元町","koaza":"","lat":34.822544,"lng":137.395572,"zip":"4420035"},{"town":"豊津町","koaza":"","lat":34.849542,"lng":137.431154,"zip":"4411222"},{"town":"長草町","koaza":"","lat":34.847231,"lng":137.386232,"zip":"4420003"},{"town":"長沢町","koaza":"","lat":34.867439,"lng":137.280214,"zip":"4410203"},{"town":"中野川町一丁目","koaza":"","lat":34.819036,"lng":137.374925,"zip":"4420885"},{"town":"中野川町二丁目","koaza":"","lat":34.820417,"lng":137.374206,"zip":"4420885"},{"town":"西口町一丁目","koaza":"","lat":34.807789,"lng":137.371837,"zip":"4420833"},{"town":"西口町二丁目","koaza":"","lat":34.808748,"lng":137.371368,"zip":"4420833"},{"town":"西香ノ木町一丁目","koaza":"","lat":34.810491,"lng":137.370687,"zip":"4420834"},{"town":"西香ノ木町二丁目","koaza":"","lat":34.812047,"lng":137.369998,"zip":"4420834"},{"town":"西桜木町一丁目","koaza":"","lat":34.829894,"lng":137.386458,"zip":"4420063"},{"town":"西桜木町二丁目","koaza":"","lat":34.830832,"lng":137.385887,"zip":"4420063"},{"town":"西島町","koaza":"","lat":34.810484,"lng":137.395093,"zip":"4420827"},{"town":"西塚町一丁目","koaza":"","lat":34.81477,"lng":137.370544,"zip":"4420838"},{"town":"西塚町二丁目","koaza":"","lat":34.814371,"lng":137.368004,"zip":"4420838"},{"town":"西塚町三丁目","koaza":"","lat":34.816128,"lng":137.368315,"zip":"4420838"},{"town":"西原町","koaza":"","lat":34.859466,"lng":137.399352,"zip":"4411204"},{"town":"西本町","koaza":"","lat":34.823514,"lng":137.396823,"zip":"4420034"},{"town":"西豊町一丁目","koaza":"","lat":34.827096,"lng":137.398936,"zip":"4420024"},{"town":"西豊町二丁目","koaza":"","lat":34.829396,"lng":137.398864,"zip":"4420024"},{"town":"西豊町三丁目","koaza":"","lat":34.830315,"lng":137.400697,"zip":"4420024"},{"town":"野口町","koaza":"","lat":34.837678,"lng":137.352163,"zip":"4420851"},{"town":"萩町","koaza":"","lat":34.877495,"lng":137.330391,"zip":"4410201"},{"town":"萩山町一丁目","koaza":"","lat":34.822946,"lng":137.369235,"zip":"4420879"},{"town":"萩山町二丁目","koaza":"","lat":34.821299,"lng":137.366665,"zip":"4420879"},{"town":"萩山町三丁目","koaza":"","lat":34.823639,"lng":137.366749,"zip":"4420879"},{"town":"橋尾町","koaza":"","lat":34.842505,"lng":137.421243,"zip":"4411223"},{"town":"花井町","koaza":"","lat":34.816168,"lng":137.392379,"zip":"4420816"},{"town":"馬場町","koaza":"","lat":34.820179,"lng":137.402347,"zip":"4420811"},{"town":"東曙町","koaza":"","lat":34.835533,"lng":137.397878,"zip":"4420011"},{"town":"東桜木町","koaza":"","lat":34.829038,"lng":137.392821,"zip":"4420028"},{"town":"東豊町一丁目","koaza":"","lat":34.826035,"lng":137.400422,"zip":"4420025"},{"town":"東豊町二丁目","koaza":"","lat":34.827827,"lng":137.401789,"zip":"4420025"},{"town":"東豊町三丁目","koaza":"","lat":34.827335,"lng":137.404346,"zip":"4420025"},{"town":"東豊町四丁目","koaza":"","lat":34.82963,"lng":137.405439,"zip":"4420025"},{"town":"東豊町五丁目","koaza":"","lat":34.828105,"lng":137.40681,"zip":"4420025"},{"town":"平井町","koaza":"","lat":34.791079,"lng":137.356508,"zip":"4410104"},{"town":"平尾町","koaza":"","lat":34.858439,"lng":137.338111,"zip":"4420863"},{"town":"二葉町","koaza":"","lat":34.828101,"lng":137.423727,"zip":"4420804"},{"town":"二見町","koaza":"","lat":34.818821,"lng":137.389088,"zip":"4420044"},{"town":"古宿町","koaza":"","lat":34.818863,"lng":137.39429,"zip":"4420817"},{"town":"豊栄町","koaza":"","lat":34.831507,"lng":137.397634,"zip":"4420014"},{"town":"穂ノ原一丁目","koaza":"","lat":34.83136,"lng":137.380179,"zip":"4420061"},{"town":"穂ノ原二丁目","koaza":"","lat":34.831291,"lng":137.369591,"zip":"4420061"},{"town":"穂ノ原三丁目","koaza":"","lat":34.836783,"lng":137.370908,"zip":"4420061"},{"town":"本野ケ原一丁目","koaza":"","lat":34.83819,"lng":137.401964,"zip":"4420005"},{"town":"本野ケ原二丁目","koaza":"","lat":34.837706,"lng":137.404355,"zip":"4420005"},{"town":"本野ケ原三丁目","koaza":"","lat":34.837038,"lng":137.406329,"zip":"4420005"},{"town":"本野ケ原四丁目","koaza":"","lat":34.840721,"lng":137.407034,"zip":"4420005"},{"town":"本野ケ原五丁目","koaza":"","lat":34.839431,"lng":137.401937,"zip":"4420005"},{"town":"本野町","koaza":"","lat":34.83789,"lng":137.38095,"zip":"4420062"},{"town":"牧野町","koaza":"","lat":34.822723,"lng":137.410091,"zip":"4420806"},{"town":"牧野町一丁目","koaza":"","lat":34.821134,"lng":137.405889,"zip":"4420806"},{"town":"牧野町二丁目","koaza":"","lat":34.825687,"lng":137.407559,"zip":"4420806"},{"town":"正岡町","koaza":"","lat":34.803509,"lng":137.388087,"zip":"4420823"},{"town":"松風町","koaza":"","lat":34.817505,"lng":137.38908,"zip":"4420871"},{"town":"松原町","koaza":"","lat":34.859757,"lng":137.436129,"zip":"4411221"},{"town":"松久町一丁目","koaza":"","lat":34.820114,"lng":137.378349,"zip":"4420874"},{"town":"松久町二丁目","koaza":"","lat":34.818561,"lng":137.378372,"zip":"4420874"},{"town":"三上町","koaza":"","lat":34.819051,"lng":137.429849,"zip":"4420812"},{"town":"美園一丁目","koaza":"","lat":34.807118,"lng":137.34315,"zip":"4410106"},{"town":"美園二丁目","koaza":"","lat":34.80853,"lng":137.347861,"zip":"4410106"},{"town":"美園三丁目","koaza":"","lat":34.806243,"lng":137.348086,"zip":"4410106"},{"town":"御津町赤根","koaza":"","lat":34.817667,"lng":137.298249,"zip":"4410316"},{"town":"御津町安礼の崎","koaza":"","lat":34.794181,"lng":137.316317,"zip":"4410316"},{"town":"御津町大草","koaza":"","lat":34.812927,"lng":137.302672,"zip":"4410315"},{"town":"御津町御馬","koaza":"","lat":34.804819,"lng":137.316534,"zip":"4410311"},{"town":"御津町金野","koaza":"","lat":34.842884,"lng":137.2831,"zip":"4410323"},{"town":"御津町上佐脇","koaza":"","lat":34.815471,"lng":137.336037,"zip":"4410301"},{"town":"御津町佐脇浜","koaza":"","lat":34.79009,"lng":137.314032,"zip":"4410304"},{"town":"御津町下佐脇","koaza":"","lat":34.803156,"lng":137.326704,"zip":"4410302"},{"town":"御津町新田","koaza":"","lat":34.795501,"lng":137.319229,"zip":"4410303"},{"town":"御津町豊沢","koaza":"","lat":34.830397,"lng":137.305629,"zip":"4410322"},{"town":"御津町泙野","koaza":"","lat":34.813146,"lng":137.308974,"zip":"4410313"},{"town":"御津町西方","koaza":"","lat":34.81177,"lng":137.315834,"zip":"4410312"},{"town":"御津町広石","koaza":"","lat":34.824125,"lng":137.315551,"zip":"4410321"},{"town":"御津町御幸浜","koaza":"","lat":34.802984,"lng":137.30473,"zip":"4410314"},{"town":"緑町","koaza":"","lat":34.826573,"lng":137.389616,"zip":"4420049"},{"town":"南大通二丁目","koaza":"","lat":34.811365,"lng":137.37732,"zip":"4420889"},{"town":"南大通三丁目","koaza":"","lat":34.813354,"lng":137.376243,"zip":"4420889"},{"town":"南大通四丁目","koaza":"","lat":34.815858,"lng":137.37483,"zip":"4420889"},{"town":"南大通五丁目","koaza":"","lat":34.818783,"lng":137.37319,"zip":"4420889"},{"town":"南大通六丁目","koaza":"","lat":34.821766,"lng":137.371788,"zip":"4420889"},{"town":"南千両一丁目","koaza":"","lat":34.849326,"lng":137.374665,"zip":"4420008"},{"town":"南千両二丁目","koaza":"","lat":34.849576,"lng":137.372956,"zip":"4420008"},{"town":"三谷原町","koaza":"","lat":34.820545,"lng":137.415061,"zip":"4420805"},{"town":"美幸町一丁目","koaza":"","lat":34.834273,"lng":137.391469,"zip":"4420016"},{"town":"美幸町二丁目","koaza":"","lat":34.834043,"lng":137.38867,"zip":"4420016"},{"town":"美和通一丁目","koaza":"","lat":34.81628,"lng":137.385981,"zip":"4420825"},{"town":"美和通二丁目","koaza":"","lat":34.814648,"lng":137.383159,"zip":"4420825"},{"town":"美和通三丁目","koaza":"","lat":34.812237,"lng":137.377818,"zip":"4420825"},{"town":"向河原町","koaza":"","lat":34.835648,"lng":137.422865,"zip":"4420803"},{"town":"森一丁目","koaza":"","lat":34.82836,"lng":137.327587,"zip":"4420846"},{"town":"森二丁目","koaza":"","lat":34.826629,"lng":137.328635,"zip":"4420846"},{"town":"森三丁目","koaza":"","lat":34.824143,"lng":137.329992,"zip":"4420846"},{"town":"森四丁目","koaza":"","lat":34.825543,"lng":137.333821,"zip":"4420846"},{"town":"森五丁目","koaza":"","lat":34.82231,"lng":137.330321,"zip":"4420846"},{"town":"森六丁目","koaza":"","lat":34.821021,"lng":137.331341,"zip":"4420846"},{"town":"門前町","koaza":"","lat":34.824229,"lng":137.395232,"zip":"4420037"},{"town":"谷川町","koaza":"","lat":34.829699,"lng":137.410959,"zip":"4420807"},{"town":"山道町一丁目","koaza":"","lat":34.818895,"lng":137.381401,"zip":"4420873"},{"town":"山道町二丁目","koaza":"","lat":34.817473,"lng":137.37967,"zip":"4420873"},{"town":"弥生町一丁目","koaza":"","lat":34.810805,"lng":137.376002,"zip":"4420831"},{"town":"弥生町二丁目","koaza":"","lat":34.809715,"lng":137.373854,"zip":"4420831"},{"town":"八幡町","koaza":"","lat":34.836702,"lng":137.341627,"zip":"4420857"},{"town":"豊が丘町","koaza":"","lat":34.83666,"lng":137.40859,"zip":"4420808"},{"town":"四ツ谷町一丁目","koaza":"","lat":34.819168,"lng":137.371685,"zip":"4420839"},{"town":"四ツ谷町二丁目","koaza":"","lat":34.818385,"lng":137.370545,"zip":"4420839"},{"town":"四ツ谷町三丁目","koaza":"","lat":34.817729,"lng":137.368586,"zip":"4420839"},{"town":"六角町","koaza":"","lat":34.850042,"lng":137.379173,"zip":"4420002"},{"town":"若鳩町","koaza":"","lat":34.827116,"lng":137.384385,"zip":"4420065"},{"town":"若宮町","koaza":"","lat":34.822789,"lng":137.388231,"zip":"4420047"},{"town":"長沢町","koaza":"西切山","lat":34.856506,"lng":137.273132,"zip":"4410203"},{"town":"長沢町","koaza":"上谷下","lat":34.872065,"lng":137.268519,"zip":"4410203"},{"town":"長沢町","koaza":"三ツ田","lat":34.873278,"lng":137.27303,"zip":"4410203"},{"town":"長沢町","koaza":"小沢","lat":34.872256,"lng":137.275727,"zip":"4410203"},{"town":"長沢町","koaza":"日焼","lat":34.874231,"lng":137.27658,"zip":"4410203"},{"town":"御津町金野","koaza":"山本","lat":34.843945,"lng":137.275675,"zip":"4410323"},{"town":"長沢町","koaza":"小土井","lat":34.865719,"lng":137.281851,"zip":"4410203"},{"town":"御津町金野","koaza":"桧河津","lat":34.841014,"lng":137.279087,"zip":"4410323"},{"town":"御津町金野","koaza":"中畑","lat":34.843659,"lng":137.279099,"zip":"4410323"},{"town":"御津町金野","koaza":"下ノ前","lat":34.842809,"lng":137.277921,"zip":"4410323"},{"town":"長沢町","koaza":"関屋","lat":34.874949,"lng":137.278308,"zip":"4410203"},{"town":"長沢町","koaza":"小佐町","lat":34.874063,"lng":137.279258,"zip":"4410203"},{"town":"御津町金野","koaza":"東河津","lat":34.841672,"lng":137.281157,"zip":"4410323"},{"town":"長沢町","koaza":"大榎","lat":34.872667,"lng":137.281438,"zip":"4410203"},{"town":"御津町金野","koaza":"籠田","lat":34.83681,"lng":137.284376,"zip":"4410323"},{"town":"長沢町","koaza":"金山","lat":34.873711,"lng":137.280959,"zip":"4410203"},{"town":"御津町金野","koaza":"ママノ下","lat":34.842507,"lng":137.281213,"zip":"4410323"},{"town":"長沢町","koaza":"五反田","lat":34.87167,"lng":137.281716,"zip":"4410203"},{"town":"御津町金野","koaza":"徳寒","lat":34.840447,"lng":137.283237,"zip":"4410323"},{"town":"長沢町","koaza":"山口","lat":34.872278,"lng":137.283627,"zip":"4410203"},{"town":"長沢町","koaza":"山崎","lat":34.873045,"lng":137.282831,"zip":"4410203"},{"town":"御津町金野","koaza":"稲場","lat":34.841795,"lng":137.284392,"zip":"4410323"},{"town":"長沢町","koaza":"上市","lat":34.871269,"lng":137.285192,"zip":"4410203"},{"town":"御津町金野","koaza":"観音寺","lat":34.842201,"lng":137.285531,"zip":"4410323"},{"town":"長沢町","koaza":"デンス","lat":34.869661,"lng":137.285613,"zip":"4410203"},{"town":"御津町金野","koaza":"石田","lat":34.840553,"lng":137.287315,"zip":"4410323"},{"town":"長沢町","koaza":"栗原","lat":34.873391,"lng":137.287656,"zip":"4410203"},{"town":"長沢町","koaza":"音羽","lat":34.871752,"lng":137.289103,"zip":"4410203"},{"town":"長沢町","koaza":"沢尻","lat":34.869826,"lng":137.287774,"zip":"4410203"},{"town":"御津町金野","koaza":"袋田","lat":34.839011,"lng":137.288234,"zip":"4410323"},{"town":"御津町金野","koaza":"深田","lat":34.84036,"lng":137.288925,"zip":"4410323"},{"town":"長沢町","koaza":"御城山","lat":34.866431,"lng":137.28615,"zip":"4410203"},{"town":"長沢町","koaza":"古城","lat":34.871498,"lng":137.290153,"zip":"4410203"},{"town":"長沢町","koaza":"神田","lat":34.873339,"lng":137.2899,"zip":"4410203"},{"town":"長沢町","koaza":"午新","lat":34.869018,"lng":137.290533,"zip":"4410203"},{"town":"長沢町","koaza":"石原","lat":34.875418,"lng":137.290707,"zip":"4410203"},{"town":"長沢町","koaza":"向屋敷","lat":34.866776,"lng":137.291946,"zip":"4410203"},{"town":"長沢町","koaza":"後山","lat":34.870964,"lng":137.291425,"zip":"4410203"},{"town":"赤坂町","koaza":"宮路","lat":34.853932,"lng":137.298225,"zip":"4410202"},{"town":"御津町金野","koaza":"藤久保","lat":34.841204,"lng":137.29211,"zip":"4410323"},{"town":"長沢町","koaza":"矢倉下","lat":34.868655,"lng":137.291858,"zip":"4410203"},{"town":"長沢町","koaza":"欠田","lat":34.866833,"lng":137.292384,"zip":"4410203"},{"town":"長沢町","koaza":"下谷下","lat":34.877911,"lng":137.295887,"zip":"4410203"},{"town":"長沢町","koaza":"大覚","lat":34.870394,"lng":137.297229,"zip":"4410203"},{"town":"長沢町","koaza":"流田","lat":34.866631,"lng":137.297248,"zip":"4410203"},{"town":"長沢町","koaza":"八王子","lat":34.865325,"lng":137.294911,"zip":"4410203"},{"town":"御津町赤根","koaza":"下川","lat":34.81419,"lng":137.296611,"zip":"4410316"},{"town":"御津町赤根","koaza":"半郷","lat":34.816421,"lng":137.295719,"zip":"4410316"},{"town":"赤坂町","koaza":"内山","lat":34.859679,"lng":137.297798,"zip":"4410202"},{"town":"御津町赤根","koaza":"仲田","lat":34.822007,"lng":137.297716,"zip":"4410316"},{"town":"御津町赤根","koaza":"屋敷","lat":34.814217,"lng":137.299179,"zip":"4410316"},{"town":"長沢町","koaza":"向谷","lat":34.863561,"lng":137.299911,"zip":"4410203"},{"town":"御津町赤根","koaza":"宮前","lat":34.818186,"lng":137.299096,"zip":"4410316"},{"town":"御津町豊沢","koaza":"杉下","lat":34.833521,"lng":137.301953,"zip":"4410322"},{"town":"御津町金野","koaza":"見竹","lat":34.837262,"lng":137.298101,"zip":"4410323"},{"town":"御津町赤根","koaza":"前浜","lat":34.811427,"lng":137.299181,"zip":"4410316"},{"town":"長沢町","koaza":"岡前","lat":34.864879,"lng":137.300409,"zip":"4410203"},{"town":"御津町赤根","koaza":"百々","lat":34.820004,"lng":137.300005,"zip":"4410316"},{"town":"御油町","koaza":"遠見山","lat":34.837789,"lng":137.310125,"zip":"4410213"},{"town":"御津町赤根","koaza":"角田","lat":34.816076,"lng":137.299652,"zip":"4410316"},{"town":"御津町金野","koaza":"郷作","lat":34.836432,"lng":137.300917,"zip":"4410323"},{"town":"長沢町","koaza":"三本尻","lat":34.867546,"lng":137.299834,"zip":"4410203"},{"town":"御津町大草","koaza":"西浜","lat":34.812201,"lng":137.299832,"zip":"4410315"},{"town":"御津町赤根","koaza":"水神","lat":34.813981,"lng":137.300775,"zip":"4410316"},{"town":"御津町金野","koaza":"新砂田","lat":34.834569,"lng":137.301018,"zip":"4410323"},{"town":"御津町御幸浜","koaza":"一号地","lat":34.807424,"lng":137.303205,"zip":"4410314"},{"town":"御津町大草","koaza":"新田","lat":34.810173,"lng":137.302359,"zip":"4410315"},{"town":"御津町金野","koaza":"足見","lat":34.835794,"lng":137.302344,"zip":"4410323"},{"town":"御津町大草","koaza":"東郷","lat":34.811622,"lng":137.302215,"zip":"4410315"},{"town":"御津町大草","koaza":"西郷","lat":34.812068,"lng":137.301424,"zip":"4410315"},{"town":"御津町大草","koaza":"神田","lat":34.81463,"lng":137.301711,"zip":"4410315"},{"town":"長沢町","koaza":"毘沙門山","lat":34.865646,"lng":137.30254,"zip":"4410203"},{"town":"赤坂町","koaza":"狭石","lat":34.853151,"lng":137.302455,"zip":"4410202"},{"town":"長沢町","koaza":"石塚","lat":34.861371,"lng":137.301731,"zip":"4410203"},{"town":"御津町赤根","koaza":"山田","lat":34.820461,"lng":137.302959,"zip":"4410316"},{"town":"赤坂町","koaza":"十王ケ入","lat":34.857972,"lng":137.302252,"zip":"4410202"},{"town":"御津町赤根","koaza":"柑子","lat":34.817694,"lng":137.302721,"zip":"4410316"},{"town":"赤坂町","koaza":"青木","lat":34.865477,"lng":137.304842,"zip":"4410202"},{"town":"御津町豊沢","koaza":"上野山","lat":34.83085,"lng":137.309448,"zip":"4410322"},{"town":"御津町大草","koaza":"上竹","lat":34.813609,"lng":137.303,"zip":"4410315"},{"town":"赤坂町","koaza":"西縄手","lat":34.859569,"lng":137.303274,"zip":"4410202"},{"town":"御津町豊沢","koaza":"薬堂","lat":34.829319,"lng":137.305108,"zip":"4410322"},{"town":"御津町豊沢","koaza":"小山","lat":34.833731,"lng":137.303079,"zip":"4410322"},{"town":"御津町大草","koaza":"外新田","lat":34.809835,"lng":137.304238,"zip":"4410315"},{"town":"御津町大草","koaza":"大森","lat":34.814276,"lng":137.302986,"zip":"4410315"},{"town":"赤坂町","koaza":"岩ノ谷","lat":34.853731,"lng":137.305705,"zip":"4410202"},{"town":"御津町佐脇浜","koaza":"二号地","lat":34.790063,"lng":137.306794,"zip":"4410304"},{"town":"御津町泙野","koaza":"浜新田","lat":34.808855,"lng":137.305453,"zip":"4410313"},{"town":"赤坂町","koaza":"御園","lat":34.860071,"lng":137.306472,"zip":"4410202"},{"town":"赤坂町","koaza":"池河内","lat":34.864817,"lng":137.306681,"zip":"4410202"},{"town":"御津町泙野","koaza":"餅田","lat":34.812064,"lng":137.306284,"zip":"4410313"},{"town":"赤坂町","koaza":"東裏","lat":34.856854,"lng":137.307854,"zip":"4410202"},{"town":"御津町豊沢","koaza":"入ノ口","lat":34.8302,"lng":137.306624,"zip":"4410322"},{"town":"赤坂町","koaza":"西裏","lat":34.856517,"lng":137.305761,"zip":"4410202"},{"town":"御津町豊沢","koaza":"引釣","lat":34.826492,"lng":137.305261,"zip":"4410322"},{"town":"御津町西方","koaza":"入浜","lat":34.808479,"lng":137.306505,"zip":"4410312"},{"town":"御津町佐脇浜","koaza":"三号地","lat":34.786627,"lng":137.311626,"zip":"4410304"},{"town":"御津町豊沢","koaza":"大坪","lat":34.828713,"lng":137.307674,"zip":"4410322"},{"town":"御津町泙野","koaza":"新屋敷","lat":34.815967,"lng":137.308937,"zip":"4410313"},{"town":"赤坂町","koaza":"会下山","lat":34.852165,"lng":137.308038,"zip":"4410202"},{"town":"御津町泙野","koaza":"楠木","lat":34.810271,"lng":137.307067,"zip":"4410313"},{"town":"御津町泙野","koaza":"村崎","lat":34.810186,"lng":137.307894,"zip":"4410313"},{"town":"御津町赤根","koaza":"神場","lat":34.818265,"lng":137.307514,"zip":"4410316"},{"town":"御津町豊沢","koaza":"久蔵","lat":34.82536,"lng":137.307163,"zip":"4410322"},{"town":"御津町泙野","koaza":"六反田","lat":34.812131,"lng":137.308078,"zip":"4410313"},{"town":"赤坂町","koaza":"松本","lat":34.859182,"lng":137.310627,"zip":"4410202"},{"town":"御津町豊沢","koaza":"蔵下","lat":34.827345,"lng":137.308135,"zip":"4410322"},{"town":"御津町西方","koaza":"揚浜","lat":34.806901,"lng":137.308904,"zip":"4410312"},{"town":"御津町泙野","koaza":"仲ノ坪","lat":34.811746,"lng":137.309266,"zip":"4410313"},{"town":"赤坂町","koaza":"竹ノ谷","lat":34.859568,"lng":137.308962,"zip":"4410202"},{"town":"御津町広石","koaza":"蛇塚","lat":34.821651,"lng":137.307036,"zip":"4410321"},{"town":"赤坂町","koaza":"西平山","lat":34.864214,"lng":137.308834,"zip":"4410202"},{"town":"御津町広石","koaza":"御津山","lat":34.818307,"lng":137.310331,"zip":"4410321"},{"town":"御津町泙野","koaza":"六角","lat":34.813945,"lng":137.309504,"zip":"4410313"},{"town":"御津町豊沢","koaza":"川原","lat":34.828984,"lng":137.309441,"zip":"4410322"},{"town":"御津町泙野","koaza":"堀合","lat":34.811223,"lng":137.309709,"zip":"4410313"},{"town":"赤坂町","koaza":"平山","lat":34.863439,"lng":137.310524,"zip":"4410202"},{"town":"赤坂町","koaza":"関川","lat":34.853427,"lng":137.311751,"zip":"4410202"},{"town":"御津町御馬","koaza":"塩浜","lat":34.80547,"lng":137.311195,"zip":"4410311"},{"town":"御油町","koaza":"西沢","lat":34.843748,"lng":137.310422,"zip":"4410213"},{"town":"赤坂町","koaza":"大日","lat":34.85713,"lng":137.311211,"zip":"4410202"},{"town":"赤坂町","koaza":"北平山","lat":34.869698,"lng":137.310315,"zip":"4410202"},{"town":"赤坂町","koaza":"横枕","lat":34.862073,"lng":137.311483,"zip":"4410202"},{"town":"御油町","koaza":"筑前ケ谷","lat":34.851296,"lng":137.311247,"zip":"4410213"},{"town":"萩町","koaza":"滝沢","lat":34.872917,"lng":137.310899,"zip":"4410201"},{"town":"御津町広石","koaza":"後畠","lat":34.825269,"lng":137.311133,"zip":"4410321"},{"town":"御津町豊沢","koaza":"石堂野","lat":34.830231,"lng":137.311882,"zip":"4410322"},{"town":"御津町泙野","koaza":"久呂下","lat":34.814504,"lng":137.311424,"zip":"4410313"},{"town":"御津町御馬","koaza":"塩入","lat":34.807685,"lng":137.313197,"zip":"4410311"},{"town":"御津町西方","koaza":"九策","lat":34.810207,"lng":137.311439,"zip":"4410312"},{"town":"御津町広石","koaza":"祓田","lat":34.822297,"lng":137.311873,"zip":"4410321"},{"town":"御津町広石","koaza":"小前","lat":34.827509,"lng":137.311569,"zip":"4410321"},{"town":"御津町西方","koaza":"下浜道","lat":34.807734,"lng":137.31178,"zip":"4410312"},{"town":"御油町","koaza":"膳ノ棚","lat":34.844888,"lng":137.311638,"zip":"4410213"},{"town":"御津町西方","koaza":"井領田","lat":34.809489,"lng":137.312865,"zip":"4410312"},{"town":"御油町","koaza":"並松","lat":34.850978,"lng":137.313703,"zip":"4410213"},{"town":"萩町","koaza":"牛沢","lat":34.874256,"lng":137.310775,"zip":"4410201"},{"town":"御油町","koaza":"上ノ山下","lat":34.849579,"lng":137.311631,"zip":"4410213"},{"town":"御津町泙野","koaza":"高畑","lat":34.81508,"lng":137.312177,"zip":"4410313"},{"town":"御油町","koaza":"栗木山","lat":34.842826,"lng":137.312877,"zip":"4410213"},{"town":"萩町","koaza":"井ノ口","lat":34.873242,"lng":137.312046,"zip":"4410201"},{"town":"萩町","koaza":"上林","lat":34.869317,"lng":137.313272,"zip":"4410201"},{"town":"御油町","koaza":"青木前","lat":34.847959,"lng":137.313913,"zip":"4410213"},{"town":"御津町広石","koaza":"広国","lat":34.824388,"lng":137.313236,"zip":"4410321"},{"town":"御油町","koaza":"一ノ橋","lat":34.849153,"lng":137.312935,"zip":"4410213"},{"town":"御津町広石","koaza":"石堂野","lat":34.829532,"lng":137.313696,"zip":"4410321"},{"town":"御津町広石","koaza":"日暮","lat":34.819062,"lng":137.313973,"zip":"4410321"},{"town":"御津町西方","koaza":"中屋敷","lat":34.810865,"lng":137.314665,"zip":"4410312"},{"town":"赤坂町","koaza":"丁田","lat":34.854236,"lng":137.314225,"zip":"4410202"},{"town":"御津町広石","koaza":"神子田","lat":34.825214,"lng":137.314109,"zip":"4410321"},{"town":"赤坂町","koaza":"新堤","lat":34.865519,"lng":137.314929,"zip":"4410202"},{"town":"御津町広石","koaza":"船津","lat":34.822826,"lng":137.314708,"zip":"4410321"},{"town":"御津町御馬","koaza":"浜田","lat":34.805522,"lng":137.313189,"zip":"4410311"},{"town":"御津町御馬","koaza":"東","lat":34.803527,"lng":137.313471,"zip":"4410311"},{"town":"御油町","koaza":"一ノ坪","lat":34.841537,"lng":137.314577,"zip":"4410213"},{"town":"御油町","koaza":"一重薮","lat":34.851719,"lng":137.314971,"zip":"4410213"},{"town":"御油町","koaza":"河原畑","lat":34.8444,"lng":137.315147,"zip":"4410213"},{"town":"御津町広石","koaza":"越川","lat":34.827027,"lng":137.315785,"zip":"4410321"},{"town":"御油町","koaza":"今斉","lat":34.846316,"lng":137.315133,"zip":"4410213"},{"town":"御油町","koaza":"井ノ口","lat":34.850204,"lng":137.315,"zip":"4410213"},{"town":"御津町豊沢","koaza":"松ノ下","lat":34.832011,"lng":137.314334,"zip":"4410322"},{"town":"萩町","koaza":"下林","lat":34.86566,"lng":137.315739,"zip":"4410201"},{"town":"御津町御馬","koaza":"西","lat":34.807726,"lng":137.31547,"zip":"4410311"},{"town":"御津町西方","koaza":"日暮","lat":34.815885,"lng":137.314745,"zip":"4410312"},{"town":"萩町","koaza":"松葉","lat":34.86938,"lng":137.316061,"zip":"4410201"},{"town":"赤坂町","koaza":"山蔭","lat":34.863329,"lng":137.315769,"zip":"4410202"},{"town":"御津町御馬","koaza":"梅田","lat":34.799714,"lng":137.317029,"zip":"4410311"},{"town":"御津町西方","koaza":"松本","lat":34.812234,"lng":137.316182,"zip":"4410312"},{"town":"萩町","koaza":"桑原","lat":34.867448,"lng":137.316173,"zip":"4410201"},{"town":"御油町","koaza":"池田","lat":34.850343,"lng":137.317042,"zip":"4410213"},{"town":"御油町","koaza":"古御堂","lat":34.842661,"lng":137.316687,"zip":"4410213"},{"town":"御津町西方","koaza":"小貝津","lat":34.814144,"lng":137.31489,"zip":"4410312"},{"town":"御津町広石","koaza":"小城前","lat":34.825093,"lng":137.316744,"zip":"4410321"},{"town":"御津町広石","koaza":"五反田","lat":34.820339,"lng":137.318126,"zip":"4410321"},{"town":"御津町広石","koaza":"枋ケ坪","lat":34.819653,"lng":137.315911,"zip":"4410321"},{"town":"御津町広石","koaza":"永井田","lat":34.826518,"lng":137.318828,"zip":"4410321"},{"town":"御津町西方","koaza":"中道","lat":34.813437,"lng":137.316824,"zip":"4410312"},{"town":"御油町","koaza":"上河原","lat":34.848197,"lng":137.317332,"zip":"4410213"},{"town":"御津町御馬","koaza":"仲田","lat":34.805098,"lng":137.319532,"zip":"4410311"},{"town":"御油町","koaza":"五反","lat":34.847438,"lng":137.316531,"zip":"4410213"},{"town":"国府町","koaza":"岡本","lat":34.833134,"lng":137.320677,"zip":"4420854"},{"town":"御津町広石","koaza":"金堂","lat":34.824751,"lng":137.31762,"zip":"4410321"},{"town":"為当町","koaza":"市木","lat":34.817554,"lng":137.31685,"zip":"4420845"},{"town":"御津町御馬","koaza":"長床","lat":34.808141,"lng":137.317505,"zip":"4410311"},{"town":"御津町広石","koaza":"竹本","lat":34.825719,"lng":137.317836,"zip":"4410321"},{"town":"国府町","koaza":"山ノ入","lat":34.834732,"lng":137.317707,"zip":"4420854"},{"town":"御津町広石","koaza":"新宮山","lat":34.829097,"lng":137.320459,"zip":"4410321"},{"town":"御津町御馬","koaza":"流田","lat":34.802201,"lng":137.31874,"zip":"4410311"},{"town":"御津町御馬","koaza":"向道","lat":34.805941,"lng":137.318837,"zip":"4410311"},{"town":"萩町","koaza":"ツイジ","lat":34.864143,"lng":137.318524,"zip":"4410201"},{"town":"御津町西方","koaza":"源農","lat":34.811073,"lng":137.318491,"zip":"4410312"},{"town":"為当町","koaza":"椎木","lat":34.814836,"lng":137.319349,"zip":"4420845"},{"town":"御津町西方","koaza":"狐塚","lat":34.813659,"lng":137.31738,"zip":"4410312"},{"town":"御津町新田","koaza":"新砂山","lat":34.797151,"lng":137.31794,"zip":"4410303"},{"town":"御津町広石","koaza":"横町","lat":34.82196,"lng":137.318213,"zip":"4410321"},{"town":"御油町","koaza":"下川原","lat":34.83946,"lng":137.319052,"zip":"4410213"},{"town":"御油町","koaza":"木ノ下","lat":34.842078,"lng":137.317966,"zip":"4410213"},{"town":"為当町","koaza":"宮脇","lat":34.818388,"lng":137.31865,"zip":"4420845"},{"town":"御油町","koaza":"新丁","lat":34.845592,"lng":137.318511,"zip":"4410213"},{"town":"御油町","koaza":"美世賜","lat":34.845194,"lng":137.316735,"zip":"4410213"},{"town":"御油町","koaza":"中川原","lat":34.848257,"lng":137.318788,"zip":"4410213"},{"town":"御津町御馬","koaza":"中島","lat":34.801346,"lng":137.319442,"zip":"4410311"},{"town":"赤坂町","koaza":"東山","lat":34.856704,"lng":137.318841,"zip":"4410202"},{"town":"御油町","koaza":"町裏","lat":34.843649,"lng":137.318356,"zip":"4410213"},{"town":"御津町西方","koaza":"梨野","lat":34.812742,"lng":137.319285,"zip":"4410312"},{"town":"萩町","koaza":"口猿田","lat":34.869637,"lng":137.318439,"zip":"4410201"},{"town":"萩町","koaza":"中屋敷","lat":34.880533,"lng":137.326569,"zip":"4410201"},{"town":"萩町","koaza":"下大田面","lat":34.86451,"lng":137.319902,"zip":"4410201"},{"town":"御津町御馬","koaza":"膳田","lat":34.806826,"lng":137.320341,"zip":"4410311"},{"town":"萩町","koaza":"中大田面","lat":34.866521,"lng":137.321923,"zip":"4410201"},{"town":"為当町","koaza":"尻無","lat":34.821121,"lng":137.320309,"zip":"4420845"},{"town":"御油町","koaza":"橋際","lat":34.843205,"lng":137.319574,"zip":"4410213"},{"town":"御津町下佐脇","koaza":"梅田","lat":34.79834,"lng":137.3203,"zip":"4410302"},{"town":"御油町","koaza":"若宮","lat":34.843838,"lng":137.320165,"zip":"4410213"},{"town":"御油町","koaza":"炮六土","lat":34.849401,"lng":137.320943,"zip":"4410213"},{"town":"御油町","koaza":"西小深田","lat":34.846755,"lng":137.319925,"zip":"4410213"},{"town":"御津町広石","koaza":"船山","lat":34.826457,"lng":137.320489,"zip":"4410321"},{"town":"御油町","koaza":"西欠間","lat":34.840432,"lng":137.320252,"zip":"4410213"},{"town":"御油町","koaza":"東欠間","lat":34.841544,"lng":137.32061,"zip":"4410213"},{"town":"御油町","koaza":"八面","lat":34.843045,"lng":137.320552,"zip":"4410213"},{"town":"御油町","koaza":"西井領","lat":34.844865,"lng":137.321318,"zip":"4410213"},{"town":"御津町下佐脇","koaza":"都","lat":34.801754,"lng":137.321816,"zip":"4410302"},{"town":"御油町","koaza":"河田","lat":34.84443,"lng":137.320792,"zip":"4410213"},{"town":"御油町","koaza":"青戸","lat":34.84607,"lng":137.320463,"zip":"4410213"},{"town":"御津町御馬","koaza":"加美","lat":34.810447,"lng":137.320529,"zip":"4410311"},{"town":"為当町","koaza":"新道","lat":34.817456,"lng":137.319456,"zip":"4420845"},{"town":"御津町広石","koaza":"祢宜田","lat":34.82402,"lng":137.320805,"zip":"4410321"},{"town":"萩町","koaza":"ゲンザウ","lat":34.863455,"lng":137.322673,"zip":"4410201"},{"town":"国府町","koaza":"上河原","lat":34.838463,"lng":137.321333,"zip":"4420854"},{"town":"御油町","koaza":"長谷山","lat":34.851882,"lng":137.32181,"zip":"4410213"},{"town":"為当町","koaza":"寺下","lat":34.819399,"lng":137.322265,"zip":"4420845"},{"town":"御油町","koaza":"向山","lat":34.847432,"lng":137.322315,"zip":"4410213"},{"town":"国府町","koaza":"的場","lat":34.835515,"lng":137.321656,"zip":"4420854"},{"town":"御油町","koaza":"東小深田","lat":34.846783,"lng":137.321496,"zip":"4410213"},{"town":"御津町下佐脇","koaza":"仲荒","lat":34.796904,"lng":137.321741,"zip":"4410302"},{"town":"為当町","koaza":"仲脇","lat":34.816245,"lng":137.321794,"zip":"4420845"},{"town":"為当町","koaza":"後田","lat":34.822105,"lng":137.322073,"zip":"4420845"},{"town":"御油町","koaza":"八面前","lat":34.842027,"lng":137.321676,"zip":"4410213"},{"town":"御津町広石","koaza":"千路","lat":34.826852,"lng":137.322038,"zip":"4410321"},{"town":"御津町下佐脇","koaza":"鎌田","lat":34.808125,"lng":137.323513,"zip":"4410302"},{"town":"御油町","koaza":"行力","lat":34.841227,"lng":137.323745,"zip":"4410213"},{"town":"御津町下佐脇","koaza":"御所","lat":34.805273,"lng":137.324272,"zip":"4410302"},{"town":"御油町","koaza":"八面横","lat":34.843644,"lng":137.322987,"zip":"4410213"},{"town":"御油町","koaza":"東井領","lat":34.844432,"lng":137.321851,"zip":"4410213"},{"town":"御津町下佐脇","koaza":"玉袋","lat":34.809982,"lng":137.322774,"zip":"4410302"},{"town":"御津町下佐脇","koaza":"天神","lat":34.803222,"lng":137.323131,"zip":"4410302"},{"town":"御油町","koaza":"後田","lat":34.845344,"lng":137.323523,"zip":"4410213"},{"town":"為当町","koaza":"社宮神","lat":34.815357,"lng":137.322686,"zip":"4420845"},{"town":"御津町下佐脇","koaza":"引通","lat":34.801357,"lng":137.322378,"zip":"4410302"},{"town":"御津町下佐脇","koaza":"洗出","lat":34.794007,"lng":137.323192,"zip":"4410302"},{"town":"国府町","koaza":"仙路","lat":34.828207,"lng":137.322712,"zip":"4420854"},{"town":"為当町","koaza":"新屋河原","lat":34.827413,"lng":137.32318,"zip":"4420845"},{"town":"国府町","koaza":"鍛治ケ谷","lat":34.837538,"lng":137.323086,"zip":"4420854"},{"town":"萩町","koaza":"中山","lat":34.863787,"lng":137.325343,"zip":"4410201"},{"town":"御油町","koaza":"万福寺","lat":34.842378,"lng":137.32388,"zip":"4410213"},{"town":"為当町","koaza":"三津市場","lat":34.823606,"lng":137.323236,"zip":"4420845"},{"town":"萩町","koaza":"大門","lat":34.876209,"lng":137.320372,"zip":"4410201"},{"town":"国府町","koaza":"中道","lat":34.835448,"lng":137.324045,"zip":"4420854"},{"town":"御油町","koaza":"小山","lat":34.844041,"lng":137.324581,"zip":"4410213"},{"town":"御油町","koaza":"東沢","lat":34.847114,"lng":137.324377,"zip":"4410213"},{"town":"国府町","koaza":"流霞","lat":34.836673,"lng":137.324829,"zip":"4420854"},{"town":"国府町","koaza":"寒若寺","lat":34.830487,"lng":137.323859,"zip":"4420854"},{"town":"為当町","koaza":"川田","lat":34.825065,"lng":137.324582,"zip":"4420845"},{"town":"御津町下佐脇","koaza":"縄手","lat":34.803639,"lng":137.325892,"zip":"4410302"},{"town":"萩町","koaza":"上長末","lat":34.873278,"lng":137.324651,"zip":"4410201"},{"town":"萩町","koaza":"上大田面","lat":34.869947,"lng":137.325013,"zip":"4410201"},{"town":"国府町","koaza":"西浦","lat":34.834169,"lng":137.324658,"zip":"4420854"},{"town":"為当町","koaza":"仲上","lat":34.820898,"lng":137.324326,"zip":"4420845"},{"town":"萩町","koaza":"下室","lat":34.874782,"lng":137.32559,"zip":"4410201"},{"town":"国府町","koaza":"向河原","lat":34.830144,"lng":137.324673,"zip":"4420854"},{"town":"国府町","koaza":"清水","lat":34.838712,"lng":137.324251,"zip":"4420854"},{"town":"八幡町","koaza":"大宝山","lat":34.843257,"lng":137.326747,"zip":"4420857"},{"town":"萩町","koaza":"松下","lat":34.868037,"lng":137.324959,"zip":"4410201"},{"town":"御油町","koaza":"欠下","lat":34.842469,"lng":137.324973,"zip":"4410213"},{"town":"為当町","koaza":"上川原田","lat":34.82658,"lng":137.325053,"zip":"4420845"},{"town":"国府町","koaza":"茶ノ休","lat":34.837036,"lng":137.32554,"zip":"4420854"},{"town":"萩町","koaza":"下長末","lat":34.871955,"lng":137.325737,"zip":"4410201"},{"town":"御津町下佐脇","koaza":"村上","lat":34.806933,"lng":137.325332,"zip":"4410302"},{"town":"国府町","koaza":"下河原","lat":34.82949,"lng":137.324957,"zip":"4420854"},{"town":"為当町","koaza":"川原田","lat":34.823044,"lng":137.326409,"zip":"4420845"},{"town":"御油町","koaza":"汲ケ谷","lat":34.850251,"lng":137.324829,"zip":"4410213"},{"town":"御津町下佐脇","koaza":"宮本","lat":34.80818,"lng":137.326989,"zip":"4410302"},{"town":"国府町","koaza":"豊成","lat":34.832854,"lng":137.32613,"zip":"4420854"},{"town":"為当町","koaza":"石田","lat":34.825746,"lng":137.325511,"zip":"4420845"},{"town":"御津町下佐脇","koaza":"郷中","lat":34.805806,"lng":137.327414,"zip":"4410302"},{"town":"萩町","koaza":"羽根","lat":34.86997,"lng":137.327757,"zip":"4410201"},{"town":"御油町","koaza":"鷺坂","lat":34.841318,"lng":137.32612,"zip":"4410213"},{"town":"国府町","koaza":"桜田","lat":34.83887,"lng":137.32633,"zip":"4420854"},{"town":"御津町下佐脇","koaza":"北浦","lat":34.810687,"lng":137.326985,"zip":"4410302"},{"town":"萩町","koaza":"前田","lat":34.871197,"lng":137.326741,"zip":"4410201"},{"town":"久保町","koaza":"日影","lat":34.84003,"lng":137.327432,"zip":"4420856"},{"town":"萩町","koaza":"馬場","lat":34.877502,"lng":137.32607,"zip":"4410201"},{"town":"萩町","koaza":"雨田","lat":34.873801,"lng":137.327387,"zip":"4410201"},{"town":"萩町","koaza":"新屋","lat":34.877133,"lng":137.327552,"zip":"4410201"},{"town":"為当町","koaza":"野添","lat":34.825046,"lng":137.327518,"zip":"4420845"},{"town":"国府町","koaza":"実正","lat":34.832172,"lng":137.326775,"zip":"4420854"},{"town":"御津町下佐脇","koaza":"新屋","lat":34.804276,"lng":137.327704,"zip":"4410302"},{"town":"国府町","koaza":"池田","lat":34.832681,"lng":137.327424,"zip":"4420854"},{"town":"八幡町","koaza":"黒仏","lat":34.840993,"lng":137.330347,"zip":"4420857"},{"town":"御津町下佐脇","koaza":"宮前","lat":34.808741,"lng":137.328685,"zip":"4410302"},{"town":"国府町","koaza":"上坊入","lat":34.832652,"lng":137.328525,"zip":"4420854"},{"town":"平尾町","koaza":"糠川","lat":34.848014,"lng":137.32974,"zip":"4420863"},{"town":"萩町","koaza":"塩ノ田","lat":34.876266,"lng":137.328096,"zip":"4410201"},{"town":"八幡町","koaza":"寺前","lat":34.843318,"lng":137.329094,"zip":"4420857"},{"town":"御津町下佐脇","koaza":"花ノ木","lat":34.805948,"lng":137.329148,"zip":"4410302"},{"town":"久保町","koaza":"川上","lat":34.83452,"lng":137.328875,"zip":"4420856"},{"town":"御津町下佐脇","koaza":"野口","lat":34.801322,"lng":137.330494,"zip":"4410302"},{"town":"久保町","koaza":"葉善寺","lat":34.837726,"lng":137.328859,"zip":"4420856"},{"town":"御津町下佐脇","koaza":"籠畑","lat":34.807148,"lng":137.329448,"zip":"4410302"},{"town":"久保町","koaza":"揚畑","lat":34.837803,"lng":137.330172,"zip":"4420856"},{"town":"国府町","koaza":"下坊入","lat":34.831237,"lng":137.330061,"zip":"4420854"},{"town":"伊奈町","koaza":"雨田","lat":34.798355,"lng":137.333746,"zip":"4410105"},{"town":"萩町","koaza":"岩田","lat":34.87388,"lng":137.331036,"zip":"4410201"},{"town":"萩町","koaza":"上森前","lat":34.871596,"lng":137.330257,"zip":"4410201"},{"town":"御津町下佐脇","koaza":"是願","lat":34.806513,"lng":137.331142,"zip":"4410302"},{"town":"萩町","koaza":"堂ノ上","lat":34.875269,"lng":137.331034,"zip":"4410201"},{"town":"八幡町","koaza":"上宿","lat":34.838821,"lng":137.332782,"zip":"4420857"},{"town":"久保町","koaza":"下屋敷","lat":34.835574,"lng":137.330246,"zip":"4420856"},{"town":"平尾町","koaza":"門田","lat":34.851217,"lng":137.338323,"zip":"4420863"},{"town":"御津町下佐脇","koaza":"出口","lat":34.803715,"lng":137.329716,"zip":"4410302"},{"town":"御津町上佐脇","koaza":"西区","lat":34.819054,"lng":137.333443,"zip":"4410301"},{"town":"白鳥町","koaza":"防入","lat":34.831675,"lng":137.333019,"zip":"4420848"},{"town":"久保町","koaza":"社地","lat":34.83691,"lng":137.33199,"zip":"4420856"},{"town":"萩町","koaza":"神田","lat":34.877321,"lng":137.331328,"zip":"4410201"},{"town":"伊奈町","koaza":"汐田","lat":34.790016,"lng":137.330953,"zip":"4410105"},{"town":"萩町","koaza":"近久","lat":34.872825,"lng":137.331641,"zip":"4410201"},{"town":"八幡町","koaza":"西六光寺","lat":34.842596,"lng":137.331977,"zip":"4420857"},{"town":"伊奈町","koaza":"流田","lat":34.796738,"lng":137.331648,"zip":"4410105"},{"town":"久保町","koaza":"上見堂","lat":34.835716,"lng":137.331451,"zip":"4420856"},{"town":"八幡町","koaza":"上六光寺","lat":34.845829,"lng":137.331053,"zip":"4420857"},{"town":"御津町下佐脇","koaza":"野先","lat":34.801703,"lng":137.332724,"zip":"4410302"},{"town":"伊奈町","koaza":"深田","lat":34.793363,"lng":137.332667,"zip":"4410105"},{"town":"白鳥町","koaza":"米田","lat":34.830411,"lng":137.333307,"zip":"4420848"},{"town":"御津町上佐脇","koaza":"屋敷","lat":34.817115,"lng":137.334432,"zip":"4410301"},{"town":"白鳥町","koaza":"上郷中","lat":34.836069,"lng":137.333735,"zip":"4420848"},{"town":"白鳥町","koaza":"下郷中","lat":34.8324,"lng":137.335451,"zip":"4420848"},{"town":"八幡町","koaza":"大池","lat":34.840942,"lng":137.333497,"zip":"4420857"},{"town":"萩町","koaza":"上近久","lat":34.874205,"lng":137.333747,"zip":"4410201"},{"town":"伊奈町","koaza":"佐脇原","lat":34.805487,"lng":137.343135,"zip":"4410105"},{"town":"伊奈町","koaza":"柳堤","lat":34.800141,"lng":137.334126,"zip":"4410105"},{"town":"御津町下佐脇","koaza":"広野","lat":34.80556,"lng":137.334677,"zip":"4410302"},{"town":"萩町","koaza":"中林","lat":34.877497,"lng":137.334129,"zip":"4410201"},{"town":"八幡町","koaza":"下六光寺","lat":34.842809,"lng":137.334064,"zip":"4420857"},{"town":"伊奈町","koaza":"丸ノ内","lat":34.796467,"lng":137.334752,"zip":"4410105"},{"town":"御津町上佐脇","koaza":"河原田","lat":34.817706,"lng":137.333694,"zip":"4410301"},{"town":"八幡町","koaza":"西赤土","lat":34.837352,"lng":137.335121,"zip":"4420857"},{"town":"平尾町","koaza":"六光寺","lat":34.844859,"lng":137.334625,"zip":"4420863"},{"town":"御津町上佐脇","koaza":"南区","lat":34.812232,"lng":137.337752,"zip":"4410301"},{"town":"萩町","koaza":"中丸","lat":34.876799,"lng":137.336231,"zip":"4410201"},{"town":"萩町","koaza":"倉戸","lat":34.878225,"lng":137.335207,"zip":"4410201"},{"town":"平尾町","koaza":"五反田","lat":34.859361,"lng":137.330608,"zip":"4420863"},{"town":"国府町","koaza":"前崎","lat":34.827114,"lng":137.33531,"zip":"4420854"},{"town":"平尾町","koaza":"神田","lat":34.846019,"lng":137.337596,"zip":"4420863"},{"town":"伊奈町","koaza":"北村","lat":34.798412,"lng":137.338346,"zip":"4410105"},{"town":"伊奈町","koaza":"市場","lat":34.791493,"lng":137.339274,"zip":"4410105"},{"town":"平尾町","koaza":"番皿","lat":34.844053,"lng":137.33638,"zip":"4420863"},{"town":"御津町上佐脇","koaza":"観音堂","lat":34.814194,"lng":137.33628,"zip":"4410301"},{"town":"伊奈町","koaza":"鶴田","lat":34.790926,"lng":137.336652,"zip":"4410105"},{"town":"白鳥町","koaza":"五丁田","lat":34.832669,"lng":137.336494,"zip":"4420848"},{"town":"八幡町","koaza":"新堀","lat":34.841574,"lng":137.337783,"zip":"4420857"},{"town":"御津町下佐脇","koaza":"佐脇原","lat":34.804647,"lng":137.335777,"zip":"4410302"},{"town":"八幡町","koaza":"上ノ蔵","lat":34.837605,"lng":137.337027,"zip":"4420857"},{"town":"伊奈町","koaza":"大明神","lat":34.794314,"lng":137.337901,"zip":"4410105"},{"town":"八幡町","koaza":"宮下","lat":34.839752,"lng":137.337568,"zip":"4420857"},{"town":"萩町","koaza":"小慶","lat":34.880898,"lng":137.337389,"zip":"4410201"},{"town":"伊奈町","koaza":"松間","lat":34.787423,"lng":137.33773,"zip":"4410105"},{"town":"萩町","koaza":"小貝津","lat":34.878794,"lng":137.338533,"zip":"4410201"},{"town":"平尾町","koaza":"駒場","lat":34.854212,"lng":137.339935,"zip":"4420863"},{"town":"八幡町","koaza":"佃","lat":34.833834,"lng":137.339847,"zip":"4420857"},{"town":"白鳥町","koaza":"高田","lat":34.827661,"lng":137.338518,"zip":"4420848"},{"town":"御津町上佐脇","koaza":"北区","lat":34.818684,"lng":137.336812,"zip":"4410301"},{"town":"八幡町","koaza":"宮前","lat":34.836525,"lng":137.33938,"zip":"4420857"},{"town":"萩町","koaza":"寺前","lat":34.880872,"lng":137.338677,"zip":"4410201"},{"town":"八幡町","koaza":"東赤土","lat":34.84094,"lng":137.341366,"zip":"4420857"},{"town":"白鳥町","koaza":"京次","lat":34.825169,"lng":137.340527,"zip":"4420848"},{"town":"伊奈町","koaza":"中村","lat":34.793036,"lng":137.341321,"zip":"4410105"},{"town":"御津町上佐脇","koaza":"大郡","lat":34.813642,"lng":137.338745,"zip":"4410301"},{"town":"平尾町","koaza":"栗穴","lat":34.846302,"lng":137.341212,"zip":"4420863"},{"town":"平尾町","koaza":"下藤井","lat":34.843889,"lng":137.341776,"zip":"4420863"},{"town":"平尾町","koaza":"天間","lat":34.853864,"lng":137.340641,"zip":"4420863"},{"town":"萩町","koaza":"千甫地","lat":34.878706,"lng":137.341779,"zip":"4410201"},{"town":"萩町","koaza":"前田口","lat":34.878218,"lng":137.34168,"zip":"4410201"},{"town":"伊奈町","koaza":"神田","lat":34.78696,"lng":137.340934,"zip":"4410105"},{"town":"萩町","koaza":"三反田","lat":34.883836,"lng":137.340649,"zip":"4410201"},{"town":"平尾町","koaza":"深田","lat":34.849136,"lng":137.340277,"zip":"4420863"},{"town":"伊奈町","koaza":"八王子","lat":34.796067,"lng":137.340737,"zip":"4410105"},{"town":"萩町","koaza":"下坪","lat":34.885214,"lng":137.340645,"zip":"4410201"},{"town":"八幡町","koaza":"本郷","lat":34.837955,"lng":137.341053,"zip":"4420857"},{"town":"平尾町","koaza":"天神","lat":34.850024,"lng":137.341869,"zip":"4420863"},{"town":"伊奈町","koaza":"正庵","lat":34.799938,"lng":137.342814,"zip":"4410105"},{"town":"白鳥町","koaza":"山桃","lat":34.823945,"lng":137.34172,"zip":"4420848"},{"town":"伊奈町","koaza":"並松","lat":34.80141,"lng":137.340347,"zip":"4410105"},{"town":"萩町","koaza":"岩手","lat":34.884757,"lng":137.343292,"zip":"4410201"},{"town":"御津町上佐脇","koaza":"東区","lat":34.816593,"lng":137.339537,"zip":"4410301"},{"town":"伊奈町","koaza":"一ノ坪","lat":34.798784,"lng":137.342227,"zip":"4410105"},{"town":"八幡町","koaza":"亀ケ坪","lat":34.834723,"lng":137.343103,"zip":"4420857"},{"town":"伊奈町","koaza":"葛原","lat":34.790383,"lng":137.343533,"zip":"4410105"},{"town":"平尾町","koaza":"上藤井","lat":34.845274,"lng":137.341234,"zip":"4420863"},{"town":"八幡町","koaza":"竹下","lat":34.837601,"lng":137.343937,"zip":"4420857"},{"town":"八幡町","koaza":"忍地","lat":34.840063,"lng":137.344611,"zip":"4420857"},{"town":"平尾町","koaza":"下貝津","lat":34.845119,"lng":137.344226,"zip":"4420863"},{"town":"平尾町","koaza":"郷中","lat":34.847964,"lng":137.343297,"zip":"4420863"},{"town":"伊奈町","koaza":"宮坪","lat":34.795504,"lng":137.343129,"zip":"4410105"},{"town":"八幡町","koaza":"足洗","lat":34.833333,"lng":137.343666,"zip":"4420857"},{"town":"萩町","koaza":"後田奥","lat":34.890066,"lng":137.343539,"zip":"4410201"},{"town":"伊奈町","koaza":"慶応","lat":34.803108,"lng":137.344253,"zip":"4410105"},{"town":"伊奈町","koaza":"平内","lat":34.798209,"lng":137.343907,"zip":"4410105"},{"town":"白鳥町","koaza":"大清水","lat":34.824857,"lng":137.347343,"zip":"4420848"},{"town":"平尾町","koaza":"上貝津","lat":34.851142,"lng":137.345777,"zip":"4420863"},{"town":"白鳥町","koaza":"穴田","lat":34.822187,"lng":137.345121,"zip":"4420848"},{"town":"伊奈町","koaza":"宮前","lat":34.791509,"lng":137.34594,"zip":"4410105"},{"town":"八幡町","koaza":"沢渡","lat":34.835585,"lng":137.346405,"zip":"4420857"},{"town":"八幡町","koaza":"下天王","lat":34.831528,"lng":137.346354,"zip":"4420857"},{"town":"平尾町","koaza":"中貝津","lat":34.848055,"lng":137.345198,"zip":"4420863"},{"town":"伊奈町","koaza":"大門","lat":34.796045,"lng":137.345407,"zip":"4410105"},{"town":"小田渕町","koaza":"卯足","lat":34.81524,"lng":137.346176,"zip":"4420844"},{"town":"伊奈町","koaza":"出口","lat":34.798052,"lng":137.346356,"zip":"4410105"},{"town":"白鳥町","koaza":"原溝","lat":34.820819,"lng":137.3465,"zip":"4420848"},{"town":"平尾町","koaza":"井ノ間","lat":34.852939,"lng":137.345914,"zip":"4420863"},{"town":"八幡町","koaza":"弥五郎","lat":34.831152,"lng":137.346968,"zip":"4420857"},{"town":"伊奈町","koaza":"原松","lat":34.794602,"lng":137.347595,"zip":"4410105"},{"town":"八幡町","koaza":"横道","lat":34.833407,"lng":137.348058,"zip":"4420857"},{"town":"平尾町","koaza":"木崩","lat":34.868731,"lng":137.346736,"zip":"4420863"},{"town":"伊奈町","koaza":"舞々辻","lat":34.79392,"lng":137.349366,"zip":"4410105"},{"town":"小田渕町","koaza":"仲松","lat":34.816675,"lng":137.347425,"zip":"4420844"},{"town":"平尾町","koaza":"龍","lat":34.845602,"lng":137.346358,"zip":"4420863"},{"town":"野口町","koaza":"国通","lat":34.839985,"lng":137.347341,"zip":"4420851"},{"town":"小田渕町","koaza":"野畔","lat":34.814001,"lng":137.347381,"zip":"4420844"},{"town":"八幡町","koaza":"天王","lat":34.835104,"lng":137.34887,"zip":"4420857"},{"town":"平井町","koaza":"安原","lat":34.785979,"lng":137.350011,"zip":"4410104"},{"town":"八幡町","koaza":"小柳","lat":34.837802,"lng":137.347763,"zip":"4420857"},{"town":"小田渕町","koaza":"下垂","lat":34.815246,"lng":137.348622,"zip":"4420844"},{"town":"伊奈町","koaza":"縫殿","lat":34.798162,"lng":137.349461,"zip":"4410105"},{"town":"平尾町","koaza":"鼠畑","lat":34.853515,"lng":137.348551,"zip":"4420863"},{"town":"野口町","koaza":"宇当","lat":34.84327,"lng":137.348375,"zip":"4420851"},{"town":"白鳥町","koaza":"野畔","lat":34.822836,"lng":137.349403,"zip":"4420848"},{"town":"伊奈町","koaza":"南山新田","lat":34.806845,"lng":137.351805,"zip":"4410105"},{"town":"平尾町","koaza":"寺貝津","lat":34.855937,"lng":137.350037,"zip":"4420863"},{"town":"八幡町","koaza":"鐘鋳場","lat":34.8303,"lng":137.351473,"zip":"4420857"},{"town":"伊奈町","koaza":"前山","lat":34.79597,"lng":137.350499,"zip":"4410105"},{"town":"野口町","koaza":"豊角","lat":34.8388,"lng":137.350295,"zip":"4420851"},{"town":"平井町","koaza":"丈方","lat":34.788359,"lng":137.350767,"zip":"4410104"},{"town":"平井町","koaza":"堺畑","lat":34.789834,"lng":137.350121,"zip":"4410104"},{"town":"平尾町","koaza":"前田","lat":34.856122,"lng":137.350723,"zip":"4420863"},{"town":"野口町","koaza":"西野","lat":34.836265,"lng":137.351995,"zip":"4420851"},{"town":"平井町","koaza":"山ノ神","lat":34.791504,"lng":137.350857,"zip":"4410104"},{"town":"野口町","koaza":"若宮","lat":34.839948,"lng":137.351513,"zip":"4420851"},{"town":"野口町","koaza":"新屋敷","lat":34.832618,"lng":137.352119,"zip":"4420851"},{"town":"野口町","koaza":"平瀬木","lat":34.83786,"lng":137.35105,"zip":"4420851"},{"town":"野口町","koaza":"楠","lat":34.84207,"lng":137.351471,"zip":"4420851"},{"town":"平井町","koaza":"山下","lat":34.78965,"lng":137.35285,"zip":"4410104"},{"town":"平井町","koaza":"藤ノ木","lat":34.793758,"lng":137.352099,"zip":"4410104"},{"town":"野口町","koaza":"西浦","lat":34.838229,"lng":137.353049,"zip":"4420851"},{"town":"平尾町","koaza":"親坂","lat":34.85212,"lng":137.353808,"zip":"4420863"},{"town":"野口町","koaza":"ツイジ","lat":34.834456,"lng":137.353132,"zip":"4420851"},{"town":"財賀町","koaza":"コウデ","lat":34.858394,"lng":137.35409,"zip":"4420861"},{"town":"伊奈町","koaza":"新町畑","lat":34.811657,"lng":137.353966,"zip":"4410105"},{"town":"野口町","koaza":"名飯","lat":34.836068,"lng":137.353139,"zip":"4420851"},{"town":"野口町","koaza":"花ノ木","lat":34.839913,"lng":137.352844,"zip":"4420851"},{"town":"平井町","koaza":"坂田後","lat":34.791427,"lng":137.35378,"zip":"4410104"},{"town":"伊奈町","koaza":"新屋","lat":34.798664,"lng":137.355002,"zip":"4410105"},{"town":"平井町","koaza":"西野地","lat":34.7957,"lng":137.353586,"zip":"4410104"},{"town":"平井町","koaza":"倉狭間","lat":34.788666,"lng":137.353472,"zip":"4410104"},{"town":"財賀町","koaza":"観音山","lat":34.875037,"lng":137.359496,"zip":"4420861"},{"town":"平井町","koaza":"小野田","lat":34.793575,"lng":137.355033,"zip":"4410104"},{"town":"市田町","koaza":"西浦","lat":34.841305,"lng":137.353423,"zip":"4420862"},{"town":"伊奈町","koaza":"新町","lat":34.81032,"lng":137.35462,"zip":"4410105"},{"town":"平井町","koaza":"坂田前","lat":34.790585,"lng":137.355071,"zip":"4410104"},{"town":"市田町","koaza":"割池","lat":34.843379,"lng":137.35375,"zip":"4420862"},{"town":"野口町","koaza":"長万","lat":34.836807,"lng":137.355041,"zip":"4420851"},{"town":"野口町","koaza":"道下","lat":34.829433,"lng":137.355334,"zip":"4420851"},{"town":"平井町","koaza":"下藤井","lat":34.788404,"lng":137.354495,"zip":"4410104"},{"town":"野口町","koaza":"薬師","lat":34.839287,"lng":137.354881,"zip":"4420851"},{"town":"野口町","koaza":"前野","lat":34.831854,"lng":137.355146,"zip":"4420851"},{"town":"財賀町","koaza":"大狭間","lat":34.859904,"lng":137.355013,"zip":"4420861"},{"town":"平井町","koaza":"東野地","lat":34.796976,"lng":137.355102,"zip":"4410104"},{"town":"市田町","koaza":"上之島","lat":34.843688,"lng":137.355026,"zip":"4420862"},{"town":"市田町","koaza":"中之島","lat":34.841358,"lng":137.356338,"zip":"4420862"},{"town":"野口町","koaza":"開津","lat":34.838515,"lng":137.355114,"zip":"4420851"},{"town":"平井町","koaza":"堀ノ内","lat":34.795677,"lng":137.355971,"zip":"4410104"},{"town":"平井町","koaza":"上藤井","lat":34.789153,"lng":137.355497,"zip":"4410104"},{"town":"伊奈町","koaza":"古当","lat":34.803493,"lng":137.356785,"zip":"4410105"},{"town":"市田町","koaza":"薬師","lat":34.839558,"lng":137.355948,"zip":"4420862"},{"town":"平井町","koaza":"水戸田","lat":34.791627,"lng":137.35698,"zip":"4410104"},{"town":"市田町","koaza":"青木","lat":34.838308,"lng":137.356332,"zip":"4420862"},{"town":"平井町","koaza":"安松","lat":34.793983,"lng":137.35691,"zip":"4410104"},{"town":"宿町","koaza":"弥重","lat":34.809903,"lng":137.357752,"zip":"4410101"},{"town":"小坂井町","koaza":"野地","lat":34.798072,"lng":137.35776,"zip":"4410103"},{"town":"市田町","koaza":"上新屋","lat":34.836436,"lng":137.356884,"zip":"4420862"},{"town":"宿町","koaza":"野川","lat":34.813104,"lng":137.357597,"zip":"4410101"},{"town":"宿町","koaza":"小山","lat":34.808969,"lng":137.357108,"zip":"4410101"},{"town":"宿町","koaza":"青木","lat":34.81148,"lng":137.356794,"zip":"4410101"},{"town":"市田町","koaza":"中新屋","lat":34.834558,"lng":137.357213,"zip":"4420862"},{"town":"市田町","koaza":"山鳥","lat":34.838819,"lng":137.357451,"zip":"4420862"},{"town":"市田町","koaza":"下新屋","lat":34.833488,"lng":137.356733,"zip":"4420862"},{"town":"市田町","koaza":"中社","lat":34.83119,"lng":137.357207,"zip":"4420862"},{"town":"市田町","koaza":"早稲田","lat":34.843812,"lng":137.355392,"zip":"4420862"},{"town":"平井町","koaza":"芳添","lat":34.790035,"lng":137.357954,"zip":"4410104"},{"town":"小坂井町","koaza":"大塚","lat":34.796573,"lng":137.359512,"zip":"4410103"},{"town":"市田町","koaza":"中田","lat":34.841728,"lng":137.357642,"zip":"4420862"},{"town":"宿町","koaza":"佐平山","lat":34.805133,"lng":137.358088,"zip":"4410101"},{"town":"平井町","koaza":"六反","lat":34.792464,"lng":137.358192,"zip":"4410104"},{"town":"市田町","koaza":"大道下","lat":34.829132,"lng":137.358561,"zip":"4420862"},{"town":"財賀町","koaza":"門","lat":34.869935,"lng":137.357477,"zip":"4420861"},{"town":"宿町","koaza":"白山","lat":34.812408,"lng":137.359798,"zip":"4410101"},{"town":"小坂井町","koaza":"中野","lat":34.798378,"lng":137.358894,"zip":"4410103"},{"town":"宿町","koaza":"長者松","lat":34.803479,"lng":137.359305,"zip":"4410101"},{"town":"小坂井町","koaza":"大堀","lat":34.800499,"lng":137.359384,"zip":"4410103"},{"town":"市田町","koaza":"鳳鳥","lat":34.846505,"lng":137.359263,"zip":"4420862"},{"town":"宿町","koaza":"寺前","lat":34.805622,"lng":137.359756,"zip":"4410101"},{"town":"宿町","koaza":"水入","lat":34.806955,"lng":137.358552,"zip":"4410101"},{"town":"市田町","koaza":"南野","lat":34.837543,"lng":137.358803,"zip":"4420862"},{"town":"小坂井町","koaza":"平口","lat":34.794422,"lng":137.359237,"zip":"4410103"},{"town":"宿町","koaza":"光道寺","lat":34.802305,"lng":137.360187,"zip":"4410101"},{"town":"市田町","koaza":"北之坪","lat":34.839678,"lng":137.359086,"zip":"4420862"},{"town":"市田町","koaza":"西赤早稲","lat":34.834943,"lng":137.358989,"zip":"4420862"},{"town":"市田町","koaza":"東新屋","lat":34.832829,"lng":137.359591,"zip":"4420862"},{"town":"市田町","koaza":"新屋前","lat":34.83069,"lng":137.359742,"zip":"4420862"},{"town":"平井町","koaza":"神明","lat":34.791863,"lng":137.359876,"zip":"4410104"},{"town":"宿町","koaza":"中島","lat":34.808773,"lng":137.360983,"zip":"4410101"},{"town":"市田町","koaza":"七反田","lat":34.836887,"lng":137.360076,"zip":"4420862"},{"town":"宿町","koaza":"権平","lat":34.811152,"lng":137.36031,"zip":"4410101"},{"town":"市田町","koaza":"高野","lat":34.845263,"lng":137.361731,"zip":"4420862"},{"town":"市田町","koaza":"池田","lat":34.842989,"lng":137.361307,"zip":"4420862"},{"town":"宿町","koaza":"古十王","lat":34.802817,"lng":137.362024,"zip":"4410101"},{"town":"市田町","koaza":"東堤上","lat":34.84884,"lng":137.361508,"zip":"4420862"},{"town":"宿町","koaza":"宮脇","lat":34.806601,"lng":137.361103,"zip":"4410101"},{"town":"小坂井町","koaza":"西浦","lat":34.800068,"lng":137.362164,"zip":"4410103"},{"town":"市田町","koaza":"御所ケ谷津","lat":34.833835,"lng":137.361075,"zip":"4420862"},{"town":"小坂井町","koaza":"門並","lat":34.798741,"lng":137.362476,"zip":"4410103"},{"town":"市田町","koaza":"東赤早稲","lat":34.83653,"lng":137.361163,"zip":"4420862"},{"town":"市田町","koaza":"東堤下","lat":34.846892,"lng":137.36183,"zip":"4420862"},{"town":"小坂井町","koaza":"倉屋敷","lat":34.797156,"lng":137.363429,"zip":"4410103"},{"town":"市田町","koaza":"宇谷田","lat":34.837551,"lng":137.361218,"zip":"4420862"},{"town":"宿町","koaza":"荒古","lat":34.811446,"lng":137.361845,"zip":"4410101"},{"town":"市田町","koaza":"財木","lat":34.832678,"lng":137.362051,"zip":"4420862"},{"town":"市田町","koaza":"蓮池","lat":34.84052,"lng":137.362018,"zip":"4420862"},{"town":"市田町","koaza":"下中野","lat":34.84073,"lng":137.362854,"zip":"4420862"},{"town":"小坂井町","koaza":"才ノ木","lat":34.794748,"lng":137.362495,"zip":"4410103"},{"town":"市田町","koaza":"儀郎","lat":34.837924,"lng":137.362377,"zip":"4420862"},{"town":"市田町","koaza":"田尻","lat":34.835224,"lng":137.362414,"zip":"4420862"},{"town":"市田町","koaza":"小笹原","lat":34.843912,"lng":137.362976,"zip":"4420862"},{"town":"市田町","koaza":"河尻","lat":34.83454,"lng":137.36243,"zip":"4420862"},{"town":"市田町","koaza":"谷源次","lat":34.842827,"lng":137.362935,"zip":"4420862"},{"town":"宿町","koaza":"金山","lat":34.803439,"lng":137.363492,"zip":"4410101"},{"town":"市田町","koaza":"原山","lat":34.846373,"lng":137.363851,"zip":"4420862"},{"town":"宿町","koaza":"中道","lat":34.805712,"lng":137.36526,"zip":"4410101"},{"town":"市田町","koaza":"財木屋","lat":34.832269,"lng":137.363428,"zip":"4420862"},{"town":"小坂井町","koaza":"北浦","lat":34.800734,"lng":137.363935,"zip":"4410103"},{"town":"財賀町","koaza":"市小路","lat":34.862614,"lng":137.36426,"zip":"4420861"},{"town":"宿町","koaza":"中島前","lat":34.807573,"lng":137.36415,"zip":"4410101"},{"town":"平井町","koaza":"広見島","lat":34.793567,"lng":137.364708,"zip":"4410104"},{"town":"市田町","koaza":"本野原","lat":34.837941,"lng":137.363677,"zip":"4420862"},{"town":"市田町","koaza":"向野","lat":34.83725,"lng":137.363692,"zip":"4420862"},{"town":"市田町","koaza":"供養塚","lat":34.835906,"lng":137.363712,"zip":"4420862"},{"town":"大崎町","koaza":"高野","lat":34.844654,"lng":137.365865,"zip":"4420007"},{"town":"宿町","koaza":"楠","lat":34.804024,"lng":137.36423,"zip":"4410101"},{"town":"千両町","koaza":"上西ノ谷","lat":34.853895,"lng":137.365885,"zip":"4420001"},{"town":"小坂井町","koaza":"樫王","lat":34.798893,"lng":137.365023,"zip":"4410103"},{"town":"篠束町","koaza":"高見","lat":34.811346,"lng":137.367265,"zip":"4410102"},{"town":"篠束町","koaza":"並塚","lat":34.813399,"lng":137.362105,"zip":"4410102"},{"town":"小坂井町","koaza":"宮脇","lat":34.79755,"lng":137.365073,"zip":"4410103"},{"town":"小坂井町","koaza":"八幡田","lat":34.793275,"lng":137.366166,"zip":"4410103"},{"town":"市田町","koaza":"宮社","lat":34.843252,"lng":137.365403,"zip":"4420862"},{"town":"千両町","koaza":"下西ノ谷","lat":34.848209,"lng":137.365772,"zip":"4420001"},{"town":"宿町","koaza":"坂地","lat":34.801143,"lng":137.365388,"zip":"4410101"},{"town":"市田町","koaza":"東中野","lat":34.841043,"lng":137.368801,"zip":"4420862"},{"town":"小坂井町","koaza":"笹見原","lat":34.790403,"lng":137.36682,"zip":"4410103"},{"town":"篠束町","koaza":"若宮","lat":34.802944,"lng":137.367145,"zip":"4410102"},{"town":"小坂井町","koaza":"道地","lat":34.795153,"lng":137.368144,"zip":"4410103"},{"town":"小坂井町","koaza":"欠山","lat":34.798841,"lng":137.367689,"zip":"4410103"},{"town":"小坂井町","koaza":"宮下","lat":34.797086,"lng":137.367923,"zip":"4410103"},{"town":"篠束町","koaza":"大堀","lat":34.805573,"lng":137.368209,"zip":"4410102"},{"town":"篠束町","koaza":"仲荒古","lat":34.807094,"lng":137.368631,"zip":"4410102"},{"town":"千両町","koaza":"下当","lat":34.857479,"lng":137.368943,"zip":"4420001"},{"town":"篠束町","koaza":"西宮","lat":34.803704,"lng":137.369102,"zip":"4410102"},{"town":"千両町","koaza":"日焼","lat":34.847023,"lng":137.370276,"zip":"4420001"},{"town":"篠束町","koaza":"郷中","lat":34.801357,"lng":137.371248,"zip":"4410102"},{"town":"大崎町","koaza":"宮之坪","lat":34.846999,"lng":137.370733,"zip":"4420007"},{"town":"小坂井町","koaza":"大島","lat":34.791461,"lng":137.370516,"zip":"4410103"},{"town":"千両町","koaza":"深田","lat":34.854226,"lng":137.370591,"zip":"4420001"},{"town":"篠束町","koaza":"東宮","lat":34.804867,"lng":137.372153,"zip":"4410102"},{"town":"大崎町","koaza":"天神前","lat":34.843129,"lng":137.370891,"zip":"4420007"},{"town":"篠束町","koaza":"仲堀","lat":34.800236,"lng":137.37284,"zip":"4410102"},{"town":"大崎町","koaza":"野添","lat":34.842815,"lng":137.372085,"zip":"4420007"},{"town":"下長山町","koaza":"堺","lat":34.80526,"lng":137.373359,"zip":"4420824"},{"town":"大崎町","koaza":"門","lat":34.84663,"lng":137.372775,"zip":"4420007"},{"town":"小坂井町","koaza":"門迎","lat":34.794237,"lng":137.372432,"zip":"4410103"},{"town":"千両町","koaza":"数谷原","lat":34.854171,"lng":137.374686,"zip":"4420001"},{"town":"大崎町","koaza":"野中","lat":34.842153,"lng":137.374578,"zip":"4420007"},{"town":"篠束町","koaza":"栗穴","lat":34.80012,"lng":137.376028,"zip":"4410102"},{"town":"千両町","koaza":"開津田","lat":34.873057,"lng":137.369954,"zip":"4420001"},{"town":"千両町","koaza":"酒屋貝津","lat":34.871252,"lng":137.373022,"zip":"4420001"},{"town":"下長山町","koaza":"中屋敷","lat":34.807454,"lng":137.375698,"zip":"4420824"},{"town":"篠束町","koaza":"酢屋下","lat":34.801004,"lng":137.373659,"zip":"4410102"},{"town":"千両町","koaza":"広貝津","lat":34.873822,"lng":137.374708,"zip":"4420001"},{"town":"大崎町","koaza":"小林","lat":34.841663,"lng":137.377251,"zip":"4420007"},{"town":"下長山町","koaza":"天王下","lat":34.804126,"lng":137.375507,"zip":"4420824"},{"town":"千両町","koaza":"石畑","lat":34.871159,"lng":137.375429,"zip":"4420001"},{"town":"大崎町","koaza":"大町","lat":34.845726,"lng":137.376088,"zip":"4420007"},{"town":"千両町","koaza":"糸宅","lat":34.866515,"lng":137.375923,"zip":"4420001"},{"town":"千両町","koaza":"千両","lat":34.863176,"lng":137.376483,"zip":"4420001"},{"town":"千両町","koaza":"昇貝津","lat":34.875482,"lng":137.3757,"zip":"4420001"},{"town":"下長山町","koaza":"岩下","lat":34.805435,"lng":137.378772,"zip":"4420824"},{"town":"篠束町","koaza":"荒木","lat":34.796896,"lng":137.378356,"zip":"4410102"},{"town":"千両町","koaza":"赤根坂","lat":34.85961,"lng":137.378025,"zip":"4420001"},{"town":"千両町","koaza":"水久保","lat":34.867025,"lng":137.377876,"zip":"4420001"},{"town":"千両町","koaza":"大堀","lat":34.865627,"lng":137.378227,"zip":"4420001"},{"town":"下長山町","koaza":"北側","lat":34.809039,"lng":137.37797,"zip":"4420824"},{"town":"千両町","koaza":"本畑","lat":34.862948,"lng":137.378944,"zip":"4420001"},{"town":"下長山町","koaza":"西道貝津","lat":34.807044,"lng":137.378622,"zip":"4420824"},{"town":"六角町","koaza":"北林","lat":34.850243,"lng":137.37935,"zip":"4420002"},{"town":"本野町","koaza":"百々","lat":34.837846,"lng":137.378171,"zip":"4420062"},{"town":"本野町","koaza":"西浦","lat":34.836422,"lng":137.379664,"zip":"4420062"},{"town":"本野町","koaza":"西野添","lat":34.834333,"lng":137.378531,"zip":"4420062"},{"town":"六角町","koaza":"前畑","lat":34.84636,"lng":137.380062,"zip":"4420002"},{"town":"六角町","koaza":"橋ノ本","lat":34.852506,"lng":137.378532,"zip":"4420002"},{"town":"牛久保町","koaza":"稲市場","lat":34.811107,"lng":137.378732,"zip":"4420826"},{"town":"千両町","koaza":"鞍狭間","lat":34.879246,"lng":137.382015,"zip":"4420001"},{"town":"大崎町","koaza":"下金居場","lat":34.842678,"lng":137.380491,"zip":"4420007"},{"town":"本野町","koaza":"北浦","lat":34.840296,"lng":137.380243,"zip":"4420062"},{"town":"本野町","koaza":"北貝津","lat":34.839009,"lng":137.381005,"zip":"4420062"},{"town":"六角町","koaza":"郷中","lat":34.848171,"lng":137.379094,"zip":"4420002"},{"town":"大崎町","koaza":"上金居場","lat":34.84517,"lng":137.379498,"zip":"4420007"},{"town":"千両町","koaza":"上ノ山","lat":34.862616,"lng":137.381258,"zip":"4420001"},{"town":"牛久保町","koaza":"八幡口","lat":34.812892,"lng":137.380579,"zip":"4420826"},{"town":"千両町","koaza":"宝辺","lat":34.858892,"lng":137.382416,"zip":"4420001"},{"town":"千両町","koaza":"真川","lat":34.857602,"lng":137.380558,"zip":"4420001"},{"town":"下長山町","koaza":"宮下","lat":34.806817,"lng":137.380519,"zip":"4420824"},{"town":"千両町","koaza":"上蛇穴","lat":34.857792,"lng":137.378444,"zip":"4420001"},{"town":"牛久保町","koaza":"蓮台","lat":34.813582,"lng":137.381157,"zip":"4420826"},{"town":"本野町","koaza":"中貝津","lat":34.8359,"lng":137.380957,"zip":"4420062"},{"town":"下長山町","koaza":"高畑","lat":34.804307,"lng":137.383049,"zip":"4420824"},{"town":"長草町","koaza":"案五郎","lat":34.84924,"lng":137.382423,"zip":"4420003"},{"town":"長草町","koaza":"荒井","lat":34.847094,"lng":137.382928,"zip":"4420003"},{"town":"牛久保町","koaza":"城跡","lat":34.808461,"lng":137.382888,"zip":"4420826"},{"town":"本野町","koaza":"東野添","lat":34.83505,"lng":137.383485,"zip":"4420062"},{"town":"牛久保町","koaza":"若子","lat":34.812859,"lng":137.382546,"zip":"4420826"},{"town":"千両町","koaza":"上野市場","lat":34.857498,"lng":137.383078,"zip":"4420001"},{"town":"牛久保町","koaza":"大手","lat":34.809286,"lng":137.380528,"zip":"4420826"},{"town":"三蔵子町","koaza":"北浦","lat":34.843726,"lng":137.382315,"zip":"4420006"},{"town":"本野町","koaza":"東浦","lat":34.838724,"lng":137.383272,"zip":"4420062"},{"town":"千両町","koaza":"下ノ市場","lat":34.852367,"lng":137.384498,"zip":"4420001"},{"town":"三蔵子町","koaza":"宮前","lat":34.841522,"lng":137.383723,"zip":"4420006"},{"town":"三蔵子町","koaza":"西浦","lat":34.843148,"lng":137.38387,"zip":"4420006"},{"town":"牛久保町","koaza":"城下","lat":34.807044,"lng":137.383678,"zip":"4420826"},{"town":"大木町","koaza":"山ノ奥","lat":34.859926,"lng":137.387907,"zip":"4411205"},{"town":"三蔵子町","koaza":"北野","lat":34.845646,"lng":137.384323,"zip":"4420006"},{"town":"牛久保町","koaza":"岸組","lat":34.810992,"lng":137.384279,"zip":"4420826"},{"town":"三蔵子町","koaza":"野添","lat":34.839102,"lng":137.384426,"zip":"4420006"},{"town":"牛久保町","koaza":"岸下","lat":34.810087,"lng":137.385615,"zip":"4420826"},{"town":"長草町","koaza":"南","lat":34.846873,"lng":137.385133,"zip":"4420003"},{"town":"長草町","koaza":"西浦","lat":34.848401,"lng":137.385346,"zip":"4420003"},{"town":"牛久保町","koaza":"高原","lat":34.808367,"lng":137.38566,"zip":"4420826"},{"town":"大木町","koaza":"小牧","lat":34.867022,"lng":137.392898,"zip":"4411205"},{"town":"正岡町","koaza":"流田","lat":34.802139,"lng":137.386726,"zip":"4420823"},{"town":"三蔵子町","koaza":"一里塚","lat":34.836328,"lng":137.385662,"zip":"4420006"},{"town":"中条町","koaza":"天王","lat":34.812496,"lng":137.385667,"zip":"4420818"},{"town":"三蔵子町","koaza":"出口","lat":34.841225,"lng":137.385484,"zip":"4420006"},{"town":"正岡町","koaza":"西深田","lat":34.803515,"lng":137.385644,"zip":"4420823"},{"town":"長草町","koaza":"八ツ畑","lat":34.849504,"lng":137.386902,"zip":"4420003"},{"town":"三蔵子町","koaza":"前畑","lat":34.840223,"lng":137.386649,"zip":"4420006"},{"town":"中条町","koaza":"今宮","lat":34.814903,"lng":137.386845,"zip":"4420818"},{"town":"中条町","koaza":"大道","lat":34.813254,"lng":137.387788,"zip":"4420818"},{"town":"三蔵子町","koaza":"大道","lat":34.837687,"lng":137.388989,"zip":"4420006"},{"town":"正岡町","koaza":"胡麻田","lat":34.799858,"lng":137.388185,"zip":"4420823"},{"town":"長草町","koaza":"連田","lat":34.847959,"lng":137.386852,"zip":"4420003"},{"town":"正岡町","koaza":"後田","lat":34.803375,"lng":137.388654,"zip":"4420823"},{"town":"三蔵子町","koaza":"北添","lat":34.842445,"lng":137.387162,"zip":"4420006"},{"town":"牛久保町","koaza":"天王下","lat":34.812377,"lng":137.388935,"zip":"4420826"},{"town":"長草町","koaza":"寺荒古","lat":34.845524,"lng":137.387646,"zip":"4420003"},{"town":"三蔵子町","koaza":"福地荒古","lat":34.84127,"lng":137.389069,"zip":"4420006"},{"town":"正岡町","koaza":"池田","lat":34.801473,"lng":137.389238,"zip":"4420823"},{"town":"長草町","koaza":"薮下","lat":34.846907,"lng":137.388926,"zip":"4420003"},{"town":"三蔵子町","koaza":"中荒古","lat":34.839664,"lng":137.389157,"zip":"4420006"},{"town":"中条町","koaza":"鴻ノ巣","lat":34.815508,"lng":137.390268,"zip":"4420818"},{"town":"牛久保町","koaza":"水金剛","lat":34.81014,"lng":137.391834,"zip":"4420826"},{"town":"正岡町","koaza":"南田","lat":34.800823,"lng":137.390995,"zip":"4420823"},{"town":"中条町","koaza":"広口","lat":34.813592,"lng":137.391774,"zip":"4420818"},{"town":"正岡町","koaza":"八反田","lat":34.804898,"lng":137.390336,"zip":"4420823"},{"town":"長草町","koaza":"川向","lat":34.848353,"lng":137.390727,"zip":"4420003"},{"town":"三蔵子町","koaza":"山塚","lat":34.842394,"lng":137.390351,"zip":"4420006"},{"town":"樽井町","koaza":"西坪","lat":34.844106,"lng":137.390774,"zip":"4420004"},{"town":"樽井町","koaza":"大辻","lat":34.845453,"lng":137.390654,"zip":"4420004"},{"town":"古宿町","koaza":"市道","lat":34.81767,"lng":137.392165,"zip":"4420817"},{"town":"行明町","koaza":"小橋","lat":34.802848,"lng":137.392262,"zip":"4420822"},{"town":"三蔵子町","koaza":"橋本","lat":34.837553,"lng":137.392494,"zip":"4420006"},{"town":"樽井町","koaza":"才ノ神","lat":34.840877,"lng":137.391588,"zip":"4420004"},{"town":"行明町","koaza":"水洗","lat":34.802017,"lng":137.392823,"zip":"4420822"},{"town":"行明町","koaza":"樋詰","lat":34.803554,"lng":137.392561,"zip":"4420822"},{"town":"西島町","koaza":"袖身","lat":34.810771,"lng":137.392807,"zip":"4420827"},{"town":"三蔵子町","koaza":"野河薮","lat":34.838879,"lng":137.392293,"zip":"4420006"},{"town":"樽井町","koaza":"宮前","lat":34.845248,"lng":137.394354,"zip":"4420004"},{"town":"樽井町","koaza":"川添","lat":34.839622,"lng":137.393812,"zip":"4420004"},{"town":"古宿町","koaza":"中通","lat":34.819806,"lng":137.394104,"zip":"4420817"},{"town":"西島町","koaza":"薮下","lat":34.810979,"lng":137.395424,"zip":"4420827"},{"town":"古宿町","koaza":"ウエ地","lat":34.816866,"lng":137.395844,"zip":"4420817"},{"town":"樽井町","koaza":"土々川","lat":34.842902,"lng":137.395337,"zip":"4420004"},{"town":"柑子町","koaza":"天白","lat":34.805025,"lng":137.394801,"zip":"4420828"},{"town":"大木町","koaza":"中曽根","lat":34.851028,"lng":137.399423,"zip":"4411205"},{"town":"中条町","koaza":"坂下","lat":34.815052,"lng":137.395171,"zip":"4420818"},{"town":"豊川町","koaza":"伊呂通","lat":34.820795,"lng":137.396255,"zip":"4420033"},{"town":"柑子町","koaza":"五反田","lat":34.804115,"lng":137.396848,"zip":"4420828"},{"town":"篠田町","koaza":"田尻","lat":34.846257,"lng":137.397091,"zip":"4411206"},{"town":"西島町","koaza":"中井","lat":34.809264,"lng":137.395773,"zip":"4420827"},{"town":"篠田町","koaza":"四ツ家","lat":34.839382,"lng":137.396076,"zip":"4411206"},{"town":"篠田町","koaza":"新切","lat":34.838635,"lng":137.396943,"zip":"4411206"},{"town":"西島町","koaza":"上川","lat":34.813503,"lng":137.396575,"zip":"4420827"},{"town":"西原町","koaza":"水上","lat":34.861871,"lng":137.397151,"zip":"4411204"},{"town":"西原町","koaza":"松葉","lat":34.858572,"lng":137.397945,"zip":"4411204"},{"town":"行明町","koaza":"宮井戸","lat":34.798588,"lng":137.398461,"zip":"4420822"},{"town":"篠田町","koaza":"新屋浦","lat":34.840878,"lng":137.398049,"zip":"4411206"},{"town":"足山田町","koaza":"上荒子","lat":34.869713,"lng":137.397505,"zip":"4411203"},{"town":"篠田町","koaza":"下田尻","lat":34.844394,"lng":137.398526,"zip":"4411206"},{"town":"柑子町","koaza":"広長","lat":34.805407,"lng":137.397604,"zip":"4420828"},{"town":"豊川町","koaza":"波通","lat":34.821289,"lng":137.397686,"zip":"4420033"},{"town":"中条町","koaza":"河原堂","lat":34.817547,"lng":137.397637,"zip":"4420818"},{"town":"豊川町","koaza":"仁保通","lat":34.822839,"lng":137.398179,"zip":"4420033"},{"town":"柑子町","koaza":"若宮","lat":34.805337,"lng":137.399034,"zip":"4420828"},{"town":"中条町","koaza":"中道","lat":34.814487,"lng":137.398788,"zip":"4420818"},{"town":"馬場町","koaza":"上石畑","lat":34.818788,"lng":137.399107,"zip":"4420811"},{"town":"西原町","koaza":"金剛谷","lat":34.855647,"lng":137.3989,"zip":"4411204"},{"town":"西原町","koaza":"岡ノ上","lat":34.85648,"lng":137.397527,"zip":"4411204"},{"town":"篠田町","koaza":"弘法野","lat":34.842587,"lng":137.399923,"zip":"4411206"},{"town":"篠田町","koaza":"市道","lat":34.839928,"lng":137.40032,"zip":"4411206"},{"town":"行明町","koaza":"末広","lat":34.801885,"lng":137.400684,"zip":"4420822"},{"town":"行明町","koaza":"山伏","lat":34.80038,"lng":137.400632,"zip":"4420822"},{"town":"西原町","koaza":"重藤","lat":34.859747,"lng":137.400917,"zip":"4411204"},{"town":"馬場町","koaza":"弁天前","lat":34.819055,"lng":137.400062,"zip":"4420811"},{"town":"馬場町","koaza":"郷中","lat":34.82122,"lng":137.400804,"zip":"4420811"},{"town":"柑子町","koaza":"川原","lat":34.806993,"lng":137.400882,"zip":"4420828"},{"town":"馬場町","koaza":"縄手上","lat":34.817957,"lng":137.401637,"zip":"4420811"},{"town":"豊川町","koaza":"止通","lat":34.82342,"lng":137.401391,"zip":"4420033"},{"town":"行明町","koaza":"高畑","lat":34.799141,"lng":137.400952,"zip":"4420822"},{"town":"馬場町","koaza":"郷前","lat":34.820011,"lng":137.401616,"zip":"4420811"},{"town":"瀬木町","koaza":"田成","lat":34.81414,"lng":137.401151,"zip":"4420815"},{"town":"足山田町","koaza":"西川","lat":34.86683,"lng":137.402799,"zip":"4411203"},{"town":"西原町","koaza":"五倍子木","lat":34.856721,"lng":137.401001,"zip":"4411204"},{"town":"篠田町","koaza":"番匠田","lat":34.847805,"lng":137.401531,"zip":"4411206"},{"town":"篠田町","koaza":"葉前場","lat":34.846564,"lng":137.401573,"zip":"4411206"},{"town":"豊川町","koaza":"辺通","lat":34.822603,"lng":137.400873,"zip":"4420033"},{"town":"篠田町","koaza":"中庄名","lat":34.844882,"lng":137.402001,"zip":"4411206"},{"town":"豊川町","koaza":"奴通","lat":34.824393,"lng":137.402337,"zip":"4420033"},{"town":"瀬木町","koaza":"替田","lat":34.810946,"lng":137.401333,"zip":"4420815"},{"town":"足山田町","koaza":"五反田","lat":34.863242,"lng":137.401845,"zip":"4411203"},{"town":"篠田町","koaza":"割塚","lat":34.842269,"lng":137.402725,"zip":"4411206"},{"town":"豊川町","koaza":"利通","lat":34.824773,"lng":137.40014,"zip":"4420033"},{"town":"馬場町","koaza":"御堂前","lat":34.818924,"lng":137.40156,"zip":"4420811"},{"town":"瀬木町","koaza":"郷中","lat":34.812058,"lng":137.40174,"zip":"4420815"},{"town":"足山田町","koaza":"滝山","lat":34.871061,"lng":137.40232,"zip":"4411203"},{"town":"瀬木町","koaza":"古川","lat":34.808649,"lng":137.402116,"zip":"4420815"},{"town":"豊川町","koaza":"留通","lat":34.825665,"lng":137.40318,"zip":"4420033"},{"town":"瀬木町","koaza":"北裏","lat":34.815538,"lng":137.402655,"zip":"4420815"},{"town":"足山田町","koaza":"仲田","lat":34.859552,"lng":137.403225,"zip":"4411203"},{"town":"篠田町","koaza":"東荒古","lat":34.843146,"lng":137.403062,"zip":"4411206"},{"town":"馬場町","koaza":"郷東","lat":34.821218,"lng":137.403731,"zip":"4420811"},{"town":"足山田町","koaza":"御所貝ツ","lat":34.866209,"lng":137.404141,"zip":"4411203"},{"town":"馬場町","koaza":"宮脇","lat":34.820092,"lng":137.403231,"zip":"4420811"},{"town":"馬場町","koaza":"松下","lat":34.822854,"lng":137.40348,"zip":"4420811"},{"town":"篠田町","koaza":"石橋","lat":34.845282,"lng":137.404365,"zip":"4411206"},{"town":"大木町","koaza":"横町","lat":34.850628,"lng":137.404626,"zip":"4411205"},{"town":"豊川町","koaza":"遠通","lat":34.825202,"lng":137.403544,"zip":"4420033"},{"town":"足山田町","koaza":"若宮","lat":34.865154,"lng":137.404765,"zip":"4411203"},{"town":"足山田町","koaza":"年長","lat":34.862799,"lng":137.404828,"zip":"4411203"},{"town":"足山田町","koaza":"門田","lat":34.867006,"lng":137.404922,"zip":"4411203"},{"town":"院之子町","koaza":"荒神","lat":34.814555,"lng":137.406346,"zip":"4420814"},{"town":"馬場町","koaza":"薬師","lat":34.822343,"lng":137.405078,"zip":"4420811"},{"town":"足山田町","koaza":"山舞し","lat":34.876678,"lng":137.412292,"zip":"4411203"},{"town":"足山田町","koaza":"下平","lat":34.865388,"lng":137.407015,"zip":"4411203"},{"town":"篠田町","koaza":"古井戸","lat":34.843858,"lng":137.40581,"zip":"4411206"},{"town":"院之子町","koaza":"郷中","lat":34.812521,"lng":137.406286,"zip":"4420814"},{"town":"篠田町","koaza":"並松","lat":34.847293,"lng":137.406876,"zip":"4411206"},{"town":"大木町","koaza":"新町通","lat":34.845438,"lng":137.410364,"zip":"4411205"},{"town":"三谷原町","koaza":"下西浦","lat":34.817779,"lng":137.40713,"zip":"4420805"},{"town":"足山田町","koaza":"北荒谷","lat":34.868069,"lng":137.407729,"zip":"4411203"},{"town":"牧野町","koaza":"柳貝津","lat":34.820133,"lng":137.407445,"zip":"4420806"},{"town":"牧野町","koaza":"五反","lat":34.822017,"lng":137.408403,"zip":"4420806"},{"town":"足山田町","koaza":"上平","lat":34.867333,"lng":137.408284,"zip":"4411203"},{"town":"牧野町","koaza":"横町","lat":34.823849,"lng":137.408523,"zip":"4420806"},{"town":"大木町","koaza":"小橋ケ詰","lat":34.856939,"lng":137.407885,"zip":"4411205"},{"town":"院之子町","koaza":"東畑","lat":34.812307,"lng":137.407559,"zip":"4420814"},{"town":"大木町","koaza":"新道","lat":34.863343,"lng":137.411249,"zip":"4411205"},{"town":"土筒町","koaza":"西浦","lat":34.814041,"lng":137.408348,"zip":"4420813"},{"town":"谷川町","koaza":"洞","lat":34.828099,"lng":137.408894,"zip":"4420807"},{"town":"三谷原町","koaza":"郷中","lat":34.817772,"lng":137.409158,"zip":"4420805"},{"town":"大木町","koaza":"荒屋","lat":34.850176,"lng":137.409695,"zip":"4411205"},{"town":"谷川町","koaza":"中道","lat":34.830207,"lng":137.409919,"zip":"4420807"},{"town":"土筒町","koaza":"前屋敷","lat":34.813527,"lng":137.410942,"zip":"4420813"},{"town":"谷川町","koaza":"天王","lat":34.831492,"lng":137.410478,"zip":"4420807"},{"town":"牧野町","koaza":"仲畑","lat":34.820987,"lng":137.409406,"zip":"4420806"},{"town":"三谷原町","koaza":"北浦","lat":34.81917,"lng":137.409048,"zip":"4420805"},{"town":"当古町","koaza":"西本郷","lat":34.816693,"lng":137.413924,"zip":"4420821"},{"town":"牧野町","koaza":"郷中","lat":34.823367,"lng":137.409558,"zip":"4420806"},{"town":"大木町","koaza":"下縄手","lat":34.854017,"lng":137.412134,"zip":"4411205"},{"town":"牧野町","koaza":"丁畑","lat":34.824985,"lng":137.411192,"zip":"4420806"},{"town":"土筒町","koaza":"国府月","lat":34.814653,"lng":137.410987,"zip":"4420813"},{"town":"麻生田町","koaza":"茶木畑","lat":34.837083,"lng":137.41137,"zip":"4420802"},{"town":"三谷原町","koaza":"宮ノ上","lat":34.818986,"lng":137.412242,"zip":"4420805"},{"town":"麻生田町","koaza":"窪美","lat":34.838801,"lng":137.412159,"zip":"4420802"},{"town":"牧野町","koaza":"茶貝津","lat":34.822391,"lng":137.412536,"zip":"4420806"},{"town":"土筒町","koaza":"上薮下","lat":34.813883,"lng":137.41222,"zip":"4420813"},{"town":"麻生田町","koaza":"大荒子","lat":34.843761,"lng":137.414068,"zip":"4420802"},{"town":"一宮町","koaza":"下新切","lat":34.846832,"lng":137.414144,"zip":"4411231"},{"town":"谷川町","koaza":"洗出","lat":34.831334,"lng":137.412555,"zip":"4420807"},{"town":"足山田町","koaza":"柴崎","lat":34.872206,"lng":137.412817,"zip":"4411203"},{"town":"三谷原町","koaza":"井笹","lat":34.817831,"lng":137.412942,"zip":"4420805"},{"town":"上長山町","koaza":"宮ノ前","lat":34.87823,"lng":137.41379,"zip":"4411202"},{"town":"三谷原町","koaza":"中畑","lat":34.820571,"lng":137.415397,"zip":"4420805"},{"town":"大木町","koaza":"鑓水","lat":34.86031,"lng":137.41661,"zip":"4411205"},{"town":"麻生田町","koaza":"縄手","lat":34.836792,"lng":137.414536,"zip":"4420802"},{"town":"当古町","koaza":"長畑","lat":34.809928,"lng":137.414349,"zip":"4420821"},{"town":"三谷原町","koaza":"石坪","lat":34.823362,"lng":137.414805,"zip":"4420805"},{"town":"大木町","koaza":"石道","lat":34.851904,"lng":137.41585,"zip":"4411205"},{"town":"足山田町","koaza":"上才原","lat":34.871471,"lng":137.414161,"zip":"4411203"},{"town":"三谷原町","koaza":"雨谷東","lat":34.821618,"lng":137.415089,"zip":"4420805"},{"town":"麻生田町","koaza":"田島","lat":34.829446,"lng":137.414938,"zip":"4420802"},{"town":"足山田町","koaza":"東才原","lat":34.870912,"lng":137.415628,"zip":"4411203"},{"town":"上長山町","koaza":"井上","lat":34.884137,"lng":137.415912,"zip":"4411202"},{"town":"一宮町","koaza":"緑","lat":34.851021,"lng":137.416218,"zip":"4411231"},{"town":"麻生田町","koaza":"大屋敷","lat":34.834883,"lng":137.416863,"zip":"4420802"},{"town":"当古町","koaza":"一色","lat":34.811069,"lng":137.417616,"zip":"4420821"},{"town":"一宮町","koaza":"錦","lat":34.84897,"lng":137.416942,"zip":"4411231"},{"town":"上長山町","koaza":"上新屋","lat":34.872556,"lng":137.416444,"zip":"4411202"},{"town":"三谷原町","koaza":"宮東","lat":34.824448,"lng":137.415925,"zip":"4420805"},{"town":"上長山町","koaza":"田川","lat":34.880185,"lng":137.416545,"zip":"4411202"},{"town":"一宮町","koaza":"宮前","lat":34.846027,"lng":137.419466,"zip":"4411231"},{"town":"三上町","koaza":"深田西","lat":34.824366,"lng":137.418676,"zip":"4420812"},{"town":"麻生田町","koaza":"為京","lat":34.837246,"lng":137.416304,"zip":"4420802"},{"town":"上長山町","koaza":"西原","lat":34.871769,"lng":137.416564,"zip":"4411202"},{"town":"麻生田町","koaza":"高畠","lat":34.832567,"lng":137.41634,"zip":"4420802"},{"town":"麻生田町","koaza":"宮前","lat":34.829661,"lng":137.417103,"zip":"4420802"},{"town":"三谷原町","koaza":"池之上","lat":34.821619,"lng":137.41798,"zip":"4420805"},{"town":"麻生田町","koaza":"宮東","lat":34.831326,"lng":137.416987,"zip":"4420802"},{"town":"麻生田町","koaza":"寺前","lat":34.832018,"lng":137.418113,"zip":"4420802"},{"town":"上長山町","koaza":"六郎辻","lat":34.876579,"lng":137.417655,"zip":"4411202"},{"town":"一宮町","koaza":"幸","lat":34.851153,"lng":137.418225,"zip":"4411231"},{"town":"当古町","koaza":"本郷前","lat":34.814058,"lng":137.417759,"zip":"4420821"},{"town":"当古町","koaza":"本郷","lat":34.815031,"lng":137.419003,"zip":"4420821"},{"town":"麻生田町","koaza":"北浦","lat":34.835404,"lng":137.417994,"zip":"4420802"},{"town":"上長山町","koaza":"西新屋","lat":34.871739,"lng":137.418782,"zip":"4411202"},{"town":"上長山町","koaza":"臼屋","lat":34.873997,"lng":137.417782,"zip":"4411202"},{"town":"当古町","koaza":"清水尻","lat":34.812095,"lng":137.418065,"zip":"4420821"},{"town":"当古町","koaza":"野中","lat":34.818285,"lng":137.419849,"zip":"4420821"},{"town":"上長山町","koaza":"小南口","lat":34.867878,"lng":137.419746,"zip":"4411202"},{"town":"上長山町","koaza":"小南口原","lat":34.864972,"lng":137.423326,"zip":"4411202"},{"town":"橋尾町","koaza":"欠下","lat":34.842645,"lng":137.419517,"zip":"4411223"},{"town":"三上町","koaza":"深田","lat":34.825268,"lng":137.418421,"zip":"4420812"},{"town":"上長山町","koaza":"藤八","lat":34.87686,"lng":137.420301,"zip":"4411202"},{"town":"一宮町","koaza":"社","lat":34.849629,"lng":137.420124,"zip":"4411231"},{"town":"麻生田町","koaza":"桧畑","lat":34.830805,"lng":137.419142,"zip":"4420802"},{"town":"麻生田町","koaza":"松原","lat":34.834639,"lng":137.419908,"zip":"4420802"},{"town":"一宮町","koaza":"栄","lat":34.854602,"lng":137.420856,"zip":"4411231"},{"town":"上長山町","koaza":"東新屋","lat":34.872413,"lng":137.419327,"zip":"4411202"},{"town":"当古町","koaza":"東本郷","lat":34.813784,"lng":137.419967,"zip":"4420821"},{"town":"三上町","koaza":"畑ケ中","lat":34.823344,"lng":137.419297,"zip":"4420812"},{"town":"麻生田町","koaza":"楠木道","lat":34.833144,"lng":137.420114,"zip":"4420802"},{"town":"三上町","koaza":"山屋敷","lat":34.82594,"lng":137.419982,"zip":"4420812"},{"town":"橋尾町","koaza":"庵ノ前","lat":34.84019,"lng":137.420427,"zip":"4411223"},{"town":"橋尾町","koaza":"郷","lat":34.841456,"lng":137.421004,"zip":"4411223"},{"town":"三上町","koaza":"深田久古","lat":34.824729,"lng":137.419088,"zip":"4420812"},{"town":"当古町","koaza":"西船渡","lat":34.812387,"lng":137.420883,"zip":"4420821"},{"town":"一宮町","koaza":"西垣内","lat":34.848847,"lng":137.42199,"zip":"4411231"},{"town":"一宮町","koaza":"上新切","lat":34.856705,"lng":137.425045,"zip":"4411231"},{"town":"三上町","koaza":"雨谷口","lat":34.820734,"lng":137.42137,"zip":"4420812"},{"town":"当古町","koaza":"西新井","lat":34.816088,"lng":137.422444,"zip":"4420821"},{"town":"一宮町","koaza":"泉","lat":34.854186,"lng":137.422766,"zip":"4411231"},{"town":"上長山町","koaza":"南田","lat":34.873354,"lng":137.421463,"zip":"4411202"},{"town":"三上町","koaza":"小深田","lat":34.825534,"lng":137.421664,"zip":"4420812"},{"town":"二葉町","koaza":"池","lat":34.830903,"lng":137.422916,"zip":"4420804"},{"town":"当古町","koaza":"東船渡","lat":34.812753,"lng":137.423004,"zip":"4420821"},{"town":"向河原町","koaza":"大柳","lat":34.837023,"lng":137.422467,"zip":"4420803"},{"town":"上長山町","koaza":"後田","lat":34.870119,"lng":137.423051,"zip":"4411202"},{"town":"一宮町","koaza":"野添","lat":34.851893,"lng":137.424588,"zip":"4411231"},{"town":"二葉町","koaza":"中荒子","lat":34.829107,"lng":137.422434,"zip":"4420804"},{"town":"二葉町","koaza":"今岡","lat":34.828284,"lng":137.423332,"zip":"4420804"},{"town":"三上町","koaza":"本郷","lat":34.823096,"lng":137.422526,"zip":"4420812"},{"town":"三上町","koaza":"西神子地","lat":34.825079,"lng":137.422457,"zip":"4420812"},{"town":"一宮町","koaza":"豊","lat":34.85789,"lng":137.423651,"zip":"4411231"},{"town":"向河原町","koaza":"田利","lat":34.834806,"lng":137.422739,"zip":"4420803"},{"town":"上長山町","koaza":"下三手川","lat":34.877039,"lng":137.423502,"zip":"4411202"},{"town":"三上町","koaza":"兼帯","lat":34.822739,"lng":137.423289,"zip":"4420812"},{"town":"上長山町","koaza":"赤羽根","lat":34.870011,"lng":137.423794,"zip":"4411202"},{"town":"当古町","koaza":"東新井","lat":34.81488,"lng":137.424537,"zip":"4420821"},{"town":"三上町","koaza":"水神","lat":34.824835,"lng":137.424651,"zip":"4420812"},{"town":"三上町","koaza":"今川","lat":34.82208,"lng":137.423412,"zip":"4420812"},{"town":"橋尾町","koaza":"北浦","lat":34.845745,"lng":137.423835,"zip":"4411223"},{"town":"上長山町","koaza":"東原","lat":34.873373,"lng":137.426244,"zip":"4411202"},{"town":"橋尾町","koaza":"小川通","lat":34.844671,"lng":137.424567,"zip":"4411223"},{"town":"豊津町","koaza":"中石塚","lat":34.848741,"lng":137.425409,"zip":"4411222"},{"town":"豊津町","koaza":"出口","lat":34.848431,"lng":137.426735,"zip":"4411222"},{"town":"東上町","koaza":"炭焼","lat":34.883437,"lng":137.429833,"zip":"4411201"},{"town":"三上町","koaza":"寺前","lat":34.82117,"lng":137.425126,"zip":"4420812"},{"town":"上長山町","koaza":"手取","lat":34.876016,"lng":137.42723,"zip":"4411202"},{"town":"三上町","koaza":"野地","lat":34.82227,"lng":137.426418,"zip":"4420812"},{"town":"一宮町","koaza":"旭","lat":34.859877,"lng":137.428256,"zip":"4411231"},{"town":"三上町","koaza":"新井前","lat":34.818918,"lng":137.42567,"zip":"4420812"},{"town":"三上町","koaza":"札場","lat":34.820024,"lng":137.426325,"zip":"4420812"},{"town":"三上町","koaza":"天神前","lat":34.821608,"lng":137.425717,"zip":"4420812"},{"town":"三上町","koaza":"西高川原","lat":34.823242,"lng":137.427876,"zip":"4420812"},{"town":"三上町","koaza":"下屋敷","lat":34.817636,"lng":137.428034,"zip":"4420812"},{"town":"豊津町","koaza":"石塚","lat":34.851454,"lng":137.428355,"zip":"4411222"},{"town":"上長山町","koaza":"宝川","lat":34.863657,"lng":137.428472,"zip":"4411202"},{"town":"豊津町","koaza":"宮脇","lat":34.845654,"lng":137.429734,"zip":"4411222"},{"town":"豊津町","koaza":"妙見","lat":34.849287,"lng":137.427437,"zip":"4411222"},{"town":"上長山町","koaza":"西水神平","lat":34.863747,"lng":137.429651,"zip":"4411202"},{"town":"三上町","koaza":"上屋敷","lat":34.820977,"lng":137.428068,"zip":"4420812"},{"town":"三上町","koaza":"東高川原","lat":34.821939,"lng":137.428076,"zip":"4420812"},{"town":"東上町","koaza":"日影","lat":34.886353,"lng":137.43218,"zip":"4411201"},{"town":"豊津町","koaza":"割田","lat":34.850828,"lng":137.428728,"zip":"4411222"},{"town":"三上町","koaza":"奥穴","lat":34.82237,"lng":137.429659,"zip":"4420812"},{"town":"三上町","koaza":"東畑","lat":34.820576,"lng":137.429699,"zip":"4420812"},{"town":"上長山町","koaza":"大東原","lat":34.873262,"lng":137.430424,"zip":"4411202"},{"town":"三上町","koaza":"下川原","lat":34.816489,"lng":137.429415,"zip":"4420812"},{"town":"東上町","koaza":"土橋","lat":34.876252,"lng":137.432111,"zip":"4411201"},{"town":"三上町","koaza":"前川","lat":34.818538,"lng":137.429745,"zip":"4420812"},{"town":"一宮町","koaza":"大池","lat":34.858218,"lng":137.430869,"zip":"4411231"},{"town":"豊津町","koaza":"神ノ木","lat":34.851251,"lng":137.432684,"zip":"4411222"},{"town":"三上町","koaza":"竹ノ内","lat":34.823885,"lng":137.429432,"zip":"4420812"},{"town":"豊津町","koaza":"釜ノ口","lat":34.853493,"lng":137.431429,"zip":"4411222"},{"town":"東上町","koaza":"炭焼平","lat":34.877689,"lng":137.43372,"zip":"4411201"},{"town":"上長山町","koaza":"新道下","lat":34.869338,"lng":137.4309,"zip":"4411202"},{"town":"松原町","koaza":"宝川","lat":34.858921,"lng":137.432994,"zip":"4411221"},{"town":"上長山町","koaza":"東水神平","lat":34.864112,"lng":137.43369,"zip":"4411202"},{"town":"豊津町","koaza":"東川原","lat":34.848181,"lng":137.433621,"zip":"4411222"},{"town":"三上町","koaza":"権現下","lat":34.818141,"lng":137.433499,"zip":"4420812"},{"town":"上長山町","koaza":"割田","lat":34.870978,"lng":137.434075,"zip":"4411202"},{"town":"三上町","koaza":"山西","lat":34.816498,"lng":137.433378,"zip":"4420812"},{"town":"豊津町","koaza":"新地","lat":34.852081,"lng":137.435621,"zip":"4411222"},{"town":"松原町","koaza":"京田","lat":34.857876,"lng":137.434109,"zip":"4411221"},{"town":"豊津町","koaza":"川原","lat":34.849636,"lng":137.436802,"zip":"4411222"},{"town":"松原町","koaza":"南貝津","lat":34.856734,"lng":137.434507,"zip":"4411221"},{"town":"東上町","koaza":"北岡","lat":34.867244,"lng":137.437063,"zip":"4411201"},{"town":"三上町","koaza":"山東","lat":34.816338,"lng":137.437479,"zip":"4420812"},{"town":"東上町","koaza":"平松","lat":34.87735,"lng":137.438341,"zip":"4411201"},{"town":"東上町","koaza":"柿木平","lat":34.872844,"lng":137.441061,"zip":"4411201"},{"town":"三上町","koaza":"勝山","lat":34.818639,"lng":137.437976,"zip":"4420812"},{"town":"東上町","koaza":"丸塚","lat":34.869719,"lng":137.440574,"zip":"4411201"},{"town":"東上町","koaza":"勝川","lat":34.881852,"lng":137.442523,"zip":"4411201"},{"town":"東上町","koaza":"井戸入","lat":34.893351,"lng":137.442597,"zip":"4411201"},{"town":"松原町","koaza":"長衛前","lat":34.858178,"lng":137.4402,"zip":"4411221"},{"town":"東上町","koaza":"徳台","lat":34.878432,"lng":137.440993,"zip":"4411201"},{"town":"金沢町","koaza":"上川原","lat":34.856247,"lng":137.440401,"zip":"4411212"},{"town":"江島町","koaza":"奥川原","lat":34.861892,"lng":137.441489,"zip":"4411211"},{"town":"江島町","koaza":"新屋","lat":34.864564,"lng":137.44339,"zip":"4411211"},{"town":"金沢町","koaza":"一丁畑","lat":34.854375,"lng":137.441889,"zip":"4411212"},{"town":"金沢町","koaza":"小蔵子","lat":34.852759,"lng":137.441281,"zip":"4411212"},{"town":"金沢町","koaza":"村下","lat":34.848781,"lng":137.441819,"zip":"4411212"},{"town":"東上町","koaza":"白楽","lat":34.874807,"lng":137.442436,"zip":"4411201"},{"town":"江島町","koaza":"下ノ郷","lat":34.858702,"lng":137.443619,"zip":"4411211"},{"town":"江島町","koaza":"立合","lat":34.863218,"lng":137.442921,"zip":"4411211"},{"town":"金沢町","koaza":"西峡","lat":34.848627,"lng":137.44237,"zip":"4411212"},{"town":"金沢町","koaza":"粟地畑","lat":34.85005,"lng":137.442687,"zip":"4411212"},{"town":"金沢町","koaza":"高安","lat":34.855369,"lng":137.443797,"zip":"4411212"},{"town":"東上町","koaza":"柿木","lat":34.870001,"lng":137.444222,"zip":"4411201"},{"town":"江島町","koaza":"藤ノ木","lat":34.857569,"lng":137.444842,"zip":"4411211"},{"town":"金沢町","koaza":"天王","lat":34.851378,"lng":137.44348,"zip":"4411212"},{"town":"金沢町","koaza":"丸海道","lat":34.852134,"lng":137.445082,"zip":"4411212"},{"town":"江島町","koaza":"川久古","lat":34.863094,"lng":137.444358,"zip":"4411211"},{"town":"金沢町","koaza":"北浦","lat":34.856176,"lng":137.444828,"zip":"4411212"},{"town":"江島町","koaza":"稲場","lat":34.859208,"lng":137.445896,"zip":"4411211"},{"town":"江島町","koaza":"東新屋","lat":34.864389,"lng":137.444459,"zip":"4411211"},{"town":"江島町","koaza":"西脇","lat":34.860345,"lng":137.446177,"zip":"4411211"},{"town":"東上町","koaza":"権現","lat":34.877974,"lng":137.4461,"zip":"4411201"},{"town":"金沢町","koaza":"薬師地","lat":34.851125,"lng":137.44518,"zip":"4411212"},{"town":"江島町","koaza":"成天","lat":34.861427,"lng":137.445233,"zip":"4411211"},{"town":"金沢町","koaza":"金山","lat":34.852768,"lng":137.444924,"zip":"4411212"},{"town":"江島町","koaza":"下新田","lat":34.865304,"lng":137.445815,"zip":"4411211"},{"town":"東上町","koaza":"松本","lat":34.871104,"lng":137.446608,"zip":"4411201"},{"town":"東上町","koaza":"柏沢","lat":34.884081,"lng":137.443837,"zip":"4411201"},{"town":"金沢町","koaza":"外貝津","lat":34.85454,"lng":137.445877,"zip":"4411212"},{"town":"金沢町","koaza":"宗新","lat":34.846171,"lng":137.44773,"zip":"4411212"},{"town":"江島町","koaza":"一ノ坪","lat":34.864338,"lng":137.446566,"zip":"4411211"},{"town":"金沢町","koaza":"西浦","lat":34.855169,"lng":137.446051,"zip":"4411212"},{"town":"金沢町","koaza":"南畑","lat":34.853144,"lng":137.44635,"zip":"4411212"},{"town":"東上町","koaza":"東京寺","lat":34.874017,"lng":137.455459,"zip":"4411201"},{"town":"金沢町","koaza":"内貝津","lat":34.854656,"lng":137.447177,"zip":"4411212"},{"town":"江島町","koaza":"中脇","lat":34.86097,"lng":137.446603,"zip":"4411211"},{"town":"金沢町","koaza":"丹茂","lat":34.851774,"lng":137.447459,"zip":"4411212"},{"town":"金沢町","koaza":"松下","lat":34.850965,"lng":137.447375,"zip":"4411212"},{"town":"金沢町","koaza":"川久胡","lat":34.856451,"lng":137.447336,"zip":"4411212"},{"town":"江島町","koaza":"金山","lat":34.865962,"lng":137.448072,"zip":"4411211"},{"town":"金沢町","koaza":"中道","lat":34.855349,"lng":137.447576,"zip":"4411212"},{"town":"金沢町","koaza":"川井野","lat":34.852624,"lng":137.447779,"zip":"4411212"},{"town":"江島町","koaza":"高畑","lat":34.862125,"lng":137.448812,"zip":"4411211"},{"town":"東上町","koaza":"滝平","lat":34.8797,"lng":137.448585,"zip":"4411201"},{"town":"江島町","koaza":"新田","lat":34.864782,"lng":137.449019,"zip":"4411211"},{"town":"東上町","koaza":"滝ノ入","lat":34.88122,"lng":137.451845,"zip":"4411201"},{"town":"金沢町","koaza":"宮北","lat":34.858616,"lng":137.448671,"zip":"4411212"},{"town":"金沢町","koaza":"柿ノ木","lat":34.85362,"lng":137.448872,"zip":"4411212"},{"town":"江島町","koaza":"外海戸","lat":34.865725,"lng":137.44926,"zip":"4411211"},{"town":"東上町","koaza":"井谷沢","lat":34.874478,"lng":137.449699,"zip":"4411201"},{"town":"江島町","koaza":"寺裏","lat":34.866731,"lng":137.450095,"zip":"4411211"},{"town":"江島町","koaza":"三反畑","lat":34.864886,"lng":137.451141,"zip":"4411211"},{"town":"東上町","koaza":"北田","lat":34.874539,"lng":137.45324,"zip":"4411201"},{"town":"金沢町","koaza":"弁天下","lat":34.85787,"lng":137.4527,"zip":"4411212"},{"town":"金沢町","koaza":"岡畑","lat":34.859648,"lng":137.450781,"zip":"4411212"},{"town":"江島町","koaza":"五反畑","lat":34.866234,"lng":137.450801,"zip":"4411211"},{"town":"金沢町","koaza":"岡下","lat":34.86056,"lng":137.451058,"zip":"4411212"},{"town":"江島町","koaza":"東貝戸","lat":34.865674,"lng":137.452191,"zip":"4411211"},{"town":"金沢町","koaza":"池川","lat":34.851615,"lng":137.451546,"zip":"4411212"},{"town":"金沢町","koaza":"萱山","lat":34.853041,"lng":137.451846,"zip":"4411212"},{"town":"江島町","koaza":"広瀬","lat":34.866473,"lng":137.451717,"zip":"4411211"},{"town":"江島町","koaza":"社宮神","lat":34.864059,"lng":137.451934,"zip":"4411211"},{"town":"江島町","koaza":"川ケ裏","lat":34.867145,"lng":137.452645,"zip":"4411211"},{"town":"東上町","koaza":"漆畑","lat":34.872394,"lng":137.452995,"zip":"4411201"},{"town":"金沢町","koaza":"段林","lat":34.86198,"lng":137.452968,"zip":"4411212"},{"town":"金沢町","koaza":"藤弦","lat":34.860266,"lng":137.453956,"zip":"4411212"},{"town":"東上町","koaza":"大屋敷","lat":34.872415,"lng":137.454574,"zip":"4411201"},{"town":"金沢町","koaza":"当古平","lat":34.854193,"lng":137.453972,"zip":"4411212"},{"town":"東上町","koaza":"下手","lat":34.873622,"lng":137.456305,"zip":"4411201"},{"town":"金沢町","koaza":"井戸下","lat":34.848912,"lng":137.45621,"zip":"4411212"},{"town":"金沢町","koaza":"追分","lat":34.850541,"lng":137.457879,"zip":"4411212"},{"town":"長沢町","koaza":"西千束","lat":34.880861,"lng":137.268988,"zip":"4410203"},{"town":"長沢町","koaza":"京ケ峰","lat":34.878403,"lng":137.281791,"zip":"4410203"},{"town":"長沢町","koaza":"木ノ田","lat":34.877721,"lng":137.274787,"zip":"4410203"},{"town":"長沢町","koaza":"佐田地","lat":34.87324,"lng":137.287609,"zip":"4410203"},{"town":"長沢町","koaza":"ハシカ","lat":34.87167,"lng":137.285545,"zip":"4410203"},{"town":"長沢町","koaza":"天ケ峰","lat":34.867108,"lng":137.263678,"zip":"4410203"},{"town":"長沢町","koaza":"東千束","lat":34.879582,"lng":137.269272,"zip":"4410203"},{"town":"長沢町","koaza":"番場","lat":34.873128,"lng":137.275841,"zip":"4410203"},{"town":"長沢町","koaza":"下市","lat":34.869291,"lng":137.287408,"zip":"4410203"},{"town":"長沢町","koaza":"山之田","lat":34.867685,"lng":137.298411,"zip":"4410203"},{"town":"萩町","koaza":"宮前","lat":34.871341,"lng":137.313558,"zip":"4410201"},{"town":"萩町","koaza":"中猿田","lat":34.872719,"lng":137.314828,"zip":"4410201"},{"town":"萩町","koaza":"奥猿田","lat":34.875867,"lng":137.315923,"zip":"4410201"},{"town":"萩町","koaza":"西馬場","lat":34.878502,"lng":137.324796,"zip":"4410201"},{"town":"萩町","koaza":"丸山","lat":34.874913,"lng":137.323895,"zip":"4410201"},{"town":"萩町","koaza":"東ノ谷","lat":34.880386,"lng":137.326918,"zip":"4410201"},{"town":"萩町","koaza":"寺山","lat":34.887995,"lng":137.337078,"zip":"4410201"},{"town":"萩町","koaza":"後田口","lat":34.886188,"lng":137.340921,"zip":"4410201"},{"town":"萩町","koaza":"俗甫","lat":34.88518,"lng":137.335249,"zip":"4410201"},{"town":"萩町","koaza":"地蔵田","lat":34.881669,"lng":137.339713,"zip":"4410201"},{"town":"萩町","koaza":"下森前","lat":34.872312,"lng":137.328011,"zip":"4410201"},{"town":"赤坂町","koaza":"源造","lat":34.86283,"lng":137.318543,"zip":"4410202"},{"town":"赤坂町","koaza":"紅里","lat":34.856579,"lng":137.307608,"zip":"4410202"},{"town":"長沢町","koaza":"雁又","lat":34.873257,"lng":137.279628,"zip":"4410203"},{"town":"長沢町","koaza":"高樋","lat":34.868475,"lng":137.279899,"zip":"4410203"},{"town":"赤坂町","koaza":"五本松","lat":34.859731,"lng":137.293598,"zip":"4410202"},{"town":"御油町","koaza":"一町田","lat":34.850675,"lng":137.31225,"zip":"4410213"},{"town":"御津町金野","koaza":"油田","lat":34.84733,"lng":137.264771,"zip":"4410323"},{"town":"御津町金野","koaza":"上野","lat":34.843706,"lng":137.273015,"zip":"4410323"},{"town":"御津町金野","koaza":"西沢","lat":34.840991,"lng":137.295366,"zip":"4410323"},{"town":"御津町金野","koaza":"長谷沢","lat":34.842198,"lng":137.287642,"zip":"4410323"},{"town":"御津町金野","koaza":"岩本","lat":34.838815,"lng":137.292185,"zip":"4410323"},{"town":"御津町金野","koaza":"竹入","lat":34.837043,"lng":137.296914,"zip":"4410323"},{"town":"御津町金野","koaza":"五反田","lat":34.838038,"lng":137.294447,"zip":"4410323"},{"town":"御津町金野","koaza":"藤ケ山","lat":34.83878,"lng":137.296152,"zip":"4410323"},{"town":"御津町金野","koaza":"青木","lat":34.839476,"lng":137.299403,"zip":"4410323"},{"town":"御津町豊沢","koaza":"大沢","lat":34.827957,"lng":137.302786,"zip":"4410322"},{"town":"御津町豊沢","koaza":"払田","lat":34.822971,"lng":137.308639,"zip":"4410322"},{"town":"御津町泙野","koaza":"山下","lat":34.815936,"lng":137.312427,"zip":"4410313"},{"town":"御津町泙野","koaza":"宮永","lat":34.815462,"lng":137.314071,"zip":"4410313"},{"town":"御津町西方","koaza":"宮長","lat":34.813729,"lng":137.314153,"zip":"4410312"},{"town":"御津町西方","koaza":"樋田","lat":34.816256,"lng":137.316127,"zip":"4410312"},{"town":"為当町","koaza":"松口","lat":34.820145,"lng":137.318707,"zip":"4420845"},{"town":"御津町御馬","koaza":"玉袋","lat":34.811933,"lng":137.320755,"zip":"4410311"},{"town":"御津町御馬","koaza":"野添","lat":34.809111,"lng":137.317453,"zip":"4410311"},{"town":"御津町下佐脇","koaza":"新梅田","lat":34.796469,"lng":137.320547,"zip":"4410302"},{"town":"御津町西方","koaza":"広田","lat":34.809209,"lng":137.309524,"zip":"4410312"},{"town":"御津町西方","koaza":"長田","lat":34.811603,"lng":137.312566,"zip":"4410312"},{"town":"御津町泙野","koaza":"仲田","lat":34.813091,"lng":137.310736,"zip":"4410313"},{"town":"御津町西方","koaza":"常ノ口","lat":34.809125,"lng":137.310826,"zip":"4410312"},{"town":"御津町西方","koaza":"浜田","lat":34.808002,"lng":137.30983,"zip":"4410312"},{"town":"御油町","koaza":"東山","lat":34.849917,"lng":137.326067,"zip":"4410213"},{"town":"御油町","koaza":"堺畑","lat":34.839491,"lng":137.322906,"zip":"4410213"},{"town":"国府町","koaza":"社脇","lat":34.838796,"lng":137.322537,"zip":"4420854"},{"town":"国府町","koaza":"高畑","lat":34.837863,"lng":137.321923,"zip":"4420854"},{"town":"御津町金野","koaza":"猿沢","lat":34.843974,"lng":137.281089,"zip":"4410323"},{"town":"御津町金野","koaza":"深沢","lat":34.840057,"lng":137.278061,"zip":"4410323"},{"town":"御津町金野","koaza":"山影","lat":34.836533,"lng":137.297819,"zip":"4410323"},{"town":"御津町豊沢","koaza":"後田","lat":34.830004,"lng":137.309187,"zip":"4410322"},{"town":"御油町","koaza":"米野","lat":34.852099,"lng":137.316449,"zip":"4410213"},{"town":"久保町","koaza":"雲明","lat":34.838968,"lng":137.327892,"zip":"4420856"},{"town":"久保町","koaza":"棒田","lat":34.835242,"lng":137.328494,"zip":"4420856"},{"town":"久保町","koaza":"後口","lat":34.836622,"lng":137.329337,"zip":"4420856"},{"town":"国府町","koaza":"薮下","lat":34.833609,"lng":137.327731,"zip":"4420854"},{"town":"久保町","koaza":"小深田","lat":34.83399,"lng":137.329117,"zip":"4420856"},{"town":"久保町","koaza":"向田","lat":34.833845,"lng":137.33134,"zip":"4420856"},{"town":"久保町","koaza":"石原","lat":34.834194,"lng":137.329878,"zip":"4420856"},{"town":"平尾町","koaza":"下大坪","lat":34.847822,"lng":137.350772,"zip":"4420863"},{"town":"野口町","koaza":"横根","lat":34.846757,"lng":137.351328,"zip":"4420851"},{"town":"市田町","koaza":"宮田","lat":34.845842,"lng":137.353593,"zip":"4420862"},{"town":"久保町","koaza":"流","lat":34.837223,"lng":137.327891,"zip":"4420856"},{"town":"御津町広石","koaza":"市場","lat":34.825639,"lng":137.321895,"zip":"4410321"},{"town":"国府町","koaza":"前田","lat":34.829661,"lng":137.328572,"zip":"4420854"},{"town":"小田渕町","koaza":"田畑","lat":34.81638,"lng":137.345285,"zip":"4420844"},{"town":"伊奈町","koaza":"野川","lat":34.813937,"lng":137.352438,"zip":"4410105"},{"town":"伊奈町","koaza":"北山新田","lat":34.812997,"lng":137.353331,"zip":"4410105"},{"town":"伊奈町","koaza":"茶屋","lat":34.807423,"lng":137.356364,"zip":"4410105"},{"town":"平井町","koaza":"穴瀬","lat":34.793399,"lng":137.361992,"zip":"4410104"},{"town":"豊川町","koaza":"知通","lat":34.824162,"lng":137.398499,"zip":"4420033"},{"town":"御津町赤根","koaza":"松葉","lat":34.817684,"lng":137.300737,"zip":"4410316"},{"town":"御油町","koaza":"当座山","lat":34.850337,"lng":137.319753,"zip":"4410213"},{"town":"市田町","koaza":"新道下","lat":34.828751,"lng":137.357421,"zip":"4420862"},{"town":"八幡町","koaza":"野路","lat":34.82837,"lng":137.348199,"zip":"4420857"},{"town":"白鳥町","koaza":"野口前","lat":34.826884,"lng":137.355907,"zip":"4420848"},{"town":"白鳥町","koaza":"兎足","lat":34.825499,"lng":137.354102,"zip":"4420848"},{"town":"白鳥町","koaza":"割塚","lat":34.826731,"lng":137.352361,"zip":"4420848"},{"town":"八幡町","koaza":"沖田","lat":34.82772,"lng":137.347917,"zip":"4420857"},{"town":"伊奈町","koaza":"柳","lat":34.794095,"lng":137.33475,"zip":"4410105"},{"town":"平尾町","koaza":"横町","lat":34.847027,"lng":137.346464,"zip":"4420863"},{"town":"平尾町","koaza":"池ノ入","lat":34.858461,"lng":137.340166,"zip":"4420863"},{"town":"千両町","koaza":"間ノ田","lat":34.851901,"lng":137.370695,"zip":"4420001"},{"town":"市田町","koaza":"北山","lat":34.851662,"lng":137.361401,"zip":"4420862"},{"town":"財賀町","koaza":"小路","lat":34.866215,"lng":137.358214,"zip":"4420861"},{"town":"財賀町","koaza":"中田","lat":34.867154,"lng":137.358338,"zip":"4420861"},{"town":"千両町","koaza":"財賀口","lat":34.87608,"lng":137.367997,"zip":"4420001"},{"town":"千両町","koaza":"四ケ日","lat":34.875324,"lng":137.371293,"zip":"4420001"},{"town":"千両町","koaza":"小路","lat":34.866593,"lng":137.368568,"zip":"4420001"},{"town":"千両町","koaza":"寺門","lat":34.861795,"lng":137.374396,"zip":"4420001"},{"town":"千両町","koaza":"早稲田","lat":34.876483,"lng":137.375515,"zip":"4420001"},{"town":"西原町","koaza":"寺部","lat":34.856382,"lng":137.396056,"zip":"4411204"},{"town":"足山田町","koaza":"小金","lat":34.865096,"lng":137.398079,"zip":"4411203"},{"town":"足山田町","koaza":"奥滝場","lat":34.870046,"lng":137.396402,"zip":"4411203"},{"town":"足山田町","koaza":"滝場","lat":34.866077,"lng":137.400478,"zip":"4411203"},{"town":"一宮町","koaza":"亥子角","lat":34.855197,"lng":137.419956,"zip":"4411231"},{"town":"上長山町","koaza":"宝","lat":34.86131,"lng":137.42791,"zip":"4411202"},{"town":"上長山町","koaza":"一ノ沢","lat":34.866905,"lng":137.431565,"zip":"4411202"},{"town":"上長山町","koaza":"本宮下","lat":34.87836,"lng":137.426875,"zip":"4411202"},{"town":"上長山町","koaza":"土橋","lat":34.871685,"lng":137.43533,"zip":"4411202"},{"town":"松原町","koaza":"島川原","lat":34.860115,"lng":137.433247,"zip":"4411221"},{"town":"松原町","koaza":"近畑","lat":34.856976,"lng":137.433219,"zip":"4411221"},{"town":"松原町","koaza":"下川原","lat":34.854496,"lng":137.435772,"zip":"4411221"},{"town":"麻生田町","koaza":"中通","lat":34.843756,"lng":137.415443,"zip":"4420802"},{"town":"麻生田町","koaza":"深井","lat":34.843968,"lng":137.415674,"zip":"4420802"},{"town":"古宿町","koaza":"北浦","lat":34.821256,"lng":137.394439,"zip":"4420817"},{"town":"中条町","koaza":"道下","lat":34.816417,"lng":137.389484,"zip":"4420818"},{"town":"中条町","koaza":"宮坪","lat":34.814449,"lng":137.38505,"zip":"4420818"},{"town":"牛久保町","koaza":"常盤","lat":34.811521,"lng":137.381522,"zip":"4420826"},{"town":"中条町","koaza":"小松","lat":34.813463,"lng":137.38441,"zip":"4420818"},{"town":"麻生田町","koaza":"馬見塚","lat":34.836493,"lng":137.413167,"zip":"4420802"},{"town":"麻生田町","koaza":"中荒子","lat":34.842534,"lng":137.412033,"zip":"4420802"},{"town":"麻生田町","koaza":"山ノ神","lat":34.837666,"lng":137.412386,"zip":"4420802"},{"town":"麻生田町","koaza":"前通","lat":34.837655,"lng":137.414923,"zip":"4420802"},{"town":"麻生田町","koaza":"中道","lat":34.829151,"lng":137.418941,"zip":"4420802"},{"town":"二葉町","koaza":"赤根","lat":34.828562,"lng":137.420843,"zip":"4420804"},{"town":"二葉町","koaza":"中西浦","lat":34.826562,"lng":137.422422,"zip":"4420804"},{"town":"三上町","koaza":"弥陀","lat":34.824524,"lng":137.421381,"zip":"4420812"},{"town":"三上町","koaza":"札ノ辻","lat":34.823599,"lng":137.420252,"zip":"4420812"},{"town":"三上町","koaza":"新井","lat":34.820426,"lng":137.424765,"zip":"4420812"},{"town":"三上町","koaza":"壱本木","lat":34.820124,"lng":137.422223,"zip":"4420812"},{"town":"三上町","koaza":"上石切","lat":34.824564,"lng":137.431066,"zip":"4420812"},{"town":"三上町","koaza":"西六盃","lat":34.821663,"lng":137.435741,"zip":"4420812"},{"town":"三上町","koaza":"タリ","lat":34.819686,"lng":137.428175,"zip":"4420812"},{"town":"萩町","koaza":"浜井場","lat":34.883488,"lng":137.350773,"zip":"4410201"},{"town":"萩町","koaza":"二反田","lat":34.875644,"lng":137.33345,"zip":"4410201"},{"town":"萩町","koaza":"向山","lat":34.872237,"lng":137.320611,"zip":"4410201"},{"town":"赤坂町","koaza":"池下","lat":34.863041,"lng":137.307708,"zip":"4410202"},{"town":"赤坂町","koaza":"東平山","lat":34.862775,"lng":137.311165,"zip":"4410202"},{"town":"御油町","koaza":"北沢","lat":34.853567,"lng":137.320793,"zip":"4410213"},{"town":"国府町","koaza":"青馬","lat":34.834637,"lng":137.323382,"zip":"4420854"},{"town":"御津町上佐脇","koaza":"犬田","lat":34.818357,"lng":137.334842,"zip":"4410301"},{"town":"御津町上佐脇","koaza":"中区","lat":34.815472,"lng":137.333071,"zip":"4410301"},{"town":"御津町上佐脇","koaza":"六反畑","lat":34.813182,"lng":137.334977,"zip":"4410301"},{"town":"牛久保町","koaza":"光輝前","lat":34.813609,"lng":137.37826,"zip":"4420826"},{"town":"正岡町","koaza":"縄手越","lat":34.806445,"lng":137.387018,"zip":"4420823"},{"town":"下長山町","koaza":"上アライ","lat":34.803601,"lng":137.384985,"zip":"4420824"},{"town":"三谷原町","koaza":"村前","lat":34.819055,"lng":137.415972,"zip":"4420805"},{"town":"三谷原町","koaza":"新屋西","lat":34.823952,"lng":137.415039,"zip":"4420805"},{"town":"御津町下佐脇","koaza":"市場","lat":34.804194,"lng":137.331995,"zip":"4410302"},{"town":"御津町下佐脇","koaza":"平次","lat":34.802839,"lng":137.328167,"zip":"4410302"},{"town":"行明町","koaza":"大井後","lat":34.803457,"lng":137.394862,"zip":"4420822"},{"town":"行明町","koaza":"薮下","lat":34.802203,"lng":137.396497,"zip":"4420822"},{"town":"財賀町","koaza":"向","lat":34.870517,"lng":137.361337,"zip":"4420861"},{"town":"市田町","koaza":"中堤上","lat":34.846981,"lng":137.359098,"zip":"4420862"},{"town":"篠束町","koaza":"吉添","lat":34.796313,"lng":137.373329,"zip":"4410102"},{"town":"小坂井町","koaza":"欠田","lat":34.795864,"lng":137.372264,"zip":"4410103"},{"town":"萩町","koaza":"スカリ","lat":34.869575,"lng":137.33586,"zip":"4410201"},{"town":"御油町","koaza":"下り沢","lat":34.838864,"lng":137.315501,"zip":"4410213"},{"town":"上長山町","koaza":"上ノ平","lat":34.869533,"lng":137.42672,"zip":"4411202"},{"town":"上長山町","koaza":"白鳥前","lat":34.867657,"lng":137.42828,"zip":"4411202"},{"town":"江島町","koaza":"北裏","lat":34.861525,"lng":137.446964,"zip":"4411211"},{"town":"金沢町","koaza":"番場","lat":34.857109,"lng":137.447882,"zip":"4411212"},{"town":"金沢町","koaza":"万所","lat":34.858431,"lng":137.450274,"zip":"4411212"},{"town":"金沢町","koaza":"滝ノ入","lat":34.859501,"lng":137.452969,"zip":"4411212"},{"town":"金沢町","koaza":"池端","lat":34.853631,"lng":137.443427,"zip":"4411212"},{"town":"金沢町","koaza":"市場","lat":34.855749,"lng":137.442626,"zip":"4411212"},{"town":"金沢町","koaza":"焼荒","lat":34.854831,"lng":137.455498,"zip":"4411212"},{"town":"金沢町","koaza":"水引","lat":34.852883,"lng":137.457553,"zip":"4411212"},{"town":"金沢町","koaza":"桧平","lat":34.851678,"lng":137.454537,"zip":"4411212"},{"town":"金沢町","koaza":"二子塚","lat":34.851289,"lng":137.457734,"zip":"4411212"},{"town":"金沢町","koaza":"東山","lat":34.848025,"lng":137.455049,"zip":"4411212"},{"town":"金沢町","koaza":"石雁平","lat":34.84708,"lng":137.451282,"zip":"4411212"},{"town":"金沢町","koaza":"京田","lat":34.849147,"lng":137.453647,"zip":"4411212"},{"town":"金沢町","koaza":"大照山","lat":34.848315,"lng":137.444787,"zip":"4411212"},{"town":"金沢町","koaza":"跡坂","lat":34.856303,"lng":137.456674,"zip":"4411212"},{"town":"金沢町","koaza":"稲場","lat":34.85446,"lng":137.45015,"zip":"4411212"},{"town":"上長山町","koaza":"南宝地","lat":34.880763,"lng":137.414918,"zip":"4411202"},{"town":"上長山町","koaza":"火防","lat":34.867981,"lng":137.424817,"zip":"4411202"},{"town":"上長山町","koaza":"野添","lat":34.86768,"lng":137.423624,"zip":"4411202"},{"town":"御津町上佐脇","koaza":"西ノ貝津","lat":34.813985,"lng":137.329917,"zip":"4410301"},{"town":"御津町上佐脇","koaza":"雨田","lat":34.815026,"lng":137.33343,"zip":"4410301"},{"town":"御津町上佐脇","koaza":"花ノ木","lat":34.816026,"lng":137.338633,"zip":"4410301"},{"town":"御津町上佐脇","koaza":"深田","lat":34.819957,"lng":137.334157,"zip":"4410301"},{"town":"三上町","koaza":"西北浦","lat":34.826308,"lng":137.421938,"zip":"4420812"},{"town":"金沢町","koaza":"駒ノ前","lat":34.852274,"lng":137.450434,"zip":"4411212"},{"town":"金沢町","koaza":"櫛田","lat":34.850829,"lng":137.449935,"zip":"4411212"},{"town":"金沢町","koaza":"市川","lat":34.852718,"lng":137.450325,"zip":"4411212"},{"town":"豊津町","koaza":"上川原","lat":34.845531,"lng":137.433225,"zip":"4411222"},{"town":"篠田町","koaza":"下川","lat":34.846434,"lng":137.398986,"zip":"4411206"},{"town":"篠田町","koaza":"上田尻","lat":34.845454,"lng":137.398936,"zip":"4411206"},{"town":"篠田町","koaza":"上屋敷","lat":34.84909,"lng":137.399548,"zip":"4411206"},{"town":"西原町","koaza":"金次","lat":34.853442,"lng":137.395455,"zip":"4411204"},{"town":"萩町","koaza":"横山","lat":34.876575,"lng":137.351111,"zip":"4410201"},{"town":"国府町","koaza":"天神","lat":34.82779,"lng":137.334578,"zip":"4420854"},{"town":"国府町","koaza":"船原","lat":34.827706,"lng":137.333512,"zip":"4420854"},{"town":"財賀町","koaza":"コウバ","lat":34.865774,"lng":137.35698,"zip":"4420861"},{"town":"財賀町","koaza":"大松","lat":34.862851,"lng":137.355779,"zip":"4420861"},{"town":"財賀町","koaza":"栃ノ木","lat":34.865374,"lng":137.355009,"zip":"4420861"},{"town":"赤坂町","koaza":"六反","lat":34.855921,"lng":137.313985,"zip":"4410202"},{"town":"篠束町","koaza":"矢筰","lat":34.792982,"lng":137.37634,"zip":"4410102"},{"town":"橋尾町","koaza":"高砂","lat":34.844814,"lng":137.435388,"zip":"4411223"},{"town":"東上町","koaza":"柿木道下","lat":34.866978,"lng":137.442378,"zip":"4411201"},{"town":"大木町","koaza":"砂田","lat":34.856023,"lng":137.406814,"zip":"4411205"}]