[{"town":"阿畑","koaza":"","lat":35.180227,"lng":137.079154,"zip":"4801323"},{"town":"雨堤","koaza":"","lat":35.178077,"lng":137.07883,"zip":"4801331"},{"town":"荒田","koaza":"","lat":35.185954,"lng":137.028671,"zip":"4801161"},{"town":"池田","koaza":"","lat":35.188111,"lng":137.034169,"zip":"4801182"},{"town":"石場","koaza":"","lat":35.172463,"lng":137.08056,"zip":"4801343"},{"town":"市が洞一丁目","koaza":"","lat":35.165256,"lng":137.028968,"zip":"4801147"},{"town":"市が洞二丁目","koaza":"","lat":35.162534,"lng":137.030414,"zip":"4801147"},{"town":"市が洞三丁目","koaza":"","lat":35.160891,"lng":137.026624,"zip":"4801147"},{"town":"茨ケ廻間","koaza":"","lat":35.179595,"lng":137.085818,"zip":"4801342"},{"town":"井堀","koaza":"","lat":35.171642,"lng":137.027441,"zip":"4801143"},{"town":"杁ケ池","koaza":"","lat":35.169311,"lng":137.035759,"zip":"4801116"},{"town":"杁ケ根","koaza":"","lat":35.179948,"lng":137.075567,"zip":"4801325"},{"town":"杁ノ洞","koaza":"","lat":35.189356,"lng":137.069737,"zip":"4801302"},{"town":"岩廻間","koaza":"","lat":35.188666,"lng":137.05959,"zip":"4801308"},{"town":"氏神前","koaza":"","lat":35.176083,"lng":137.037804,"zip":"4801125"},{"town":"打越","koaza":"","lat":35.175918,"lng":137.032046,"zip":"4801152"},{"town":"卯塚一丁目","koaza":"","lat":35.164997,"lng":137.034022,"zip":"4801145"},{"town":"卯塚二丁目","koaza":"","lat":35.163829,"lng":137.0331,"zip":"4801145"},{"town":"馬堤","koaza":"","lat":35.183048,"lng":137.072795,"zip":"4801314"},{"town":"榎ノ下","koaza":"","lat":35.178331,"lng":137.071765,"zip":"4801334"},{"town":"蛭子","koaza":"","lat":35.176776,"lng":137.072962,"zip":"4801333"},{"town":"大久手","koaza":"","lat":35.175769,"lng":137.050213,"zip":"4801106"},{"town":"片平","koaza":"","lat":35.15542,"lng":137.031205,"zip":"4801146"},{"town":"片平一丁目","koaza":"","lat":35.161432,"lng":137.034574,"zip":"4801146"},{"town":"片平二丁目","koaza":"","lat":35.158729,"lng":137.031336,"zip":"4801146"},{"town":"蟹原","koaza":"","lat":35.169735,"lng":137.030055,"zip":"4801142"},{"town":"上川原","koaza":"","lat":35.188922,"lng":137.028985,"zip":"4801132"},{"town":"鴨田","koaza":"","lat":35.183224,"lng":137.032604,"zip":"4801165"},{"town":"観音堂","koaza":"","lat":35.179981,"lng":137.074001,"zip":"4801327"},{"town":"北浦","koaza":"","lat":35.191775,"lng":137.066286,"zip":"4801301"},{"town":"北熊","koaza":"","lat":35.182226,"lng":137.070505,"zip":"4801339"},{"town":"喜婦嶽","koaza":"","lat":35.169137,"lng":137.041167,"zip":"4801117"},{"town":"草掛","koaza":"","lat":35.190216,"lng":137.033867,"zip":"4801184"},{"town":"久保山","koaza":"","lat":35.174915,"lng":137.034501,"zip":"4801151"},{"town":"熊田","koaza":"","lat":35.172601,"lng":137.025996,"zip":"4801144"},{"town":"熊張深田","koaza":"","lat":35.181905,"lng":137.077412,"zip":"4801312"},{"town":"鯉ケ廻間","koaza":"","lat":35.17564,"lng":137.078451,"zip":"4801347"},{"town":"小稲葉","koaza":"","lat":35.18001,"lng":137.070018,"zip":"4801336"},{"town":"郷前","koaza":"","lat":35.18616,"lng":137.064313,"zip":"4801304"},{"town":"香桶","koaza":"","lat":35.177204,"lng":137.047594,"zip":"4801176"},{"town":"五合池","koaza":"","lat":35.181588,"lng":137.03164,"zip":"4801156"},{"town":"小深","koaza":"","lat":35.182078,"lng":137.075787,"zip":"4801313"},{"town":"作田一丁目","koaza":"","lat":35.176945,"lng":137.027015,"zip":"4801153"},{"town":"作田二丁目","koaza":"","lat":35.176526,"lng":137.029392,"zip":"4801153"},{"town":"桜作","koaza":"","lat":35.179419,"lng":137.034146,"zip":"4801157"},{"town":"申平","koaza":"","lat":35.18083,"lng":137.075857,"zip":"4801329"},{"town":"汐見坂","koaza":"","lat":35.18095,"lng":137.08078,"zip":"4801322"},{"town":"下川原","koaza":"","lat":35.189565,"lng":137.022498,"zip":"4801137"},{"town":"下権田","koaza":"","lat":35.177779,"lng":137.050104,"zip":"4801107"},{"town":"下田","koaza":"","lat":35.181973,"lng":137.069638,"zip":"4801338"},{"town":"下山","koaza":"","lat":35.187795,"lng":137.022555,"zip":"4801135"},{"town":"勝入塚","koaza":"","lat":35.172231,"lng":137.04945,"zip":"4801128"},{"town":"菖蒲池","koaza":"","lat":35.163892,"lng":137.037541,"zip":"4801115"},{"town":"城屋敷","koaza":"","lat":35.173998,"lng":137.043205,"zip":"4801122"},{"town":"真行田","koaza":"","lat":35.186748,"lng":137.057697,"zip":"4801306"},{"town":"神明","koaza":"","lat":35.181995,"lng":137.081537,"zip":"4801321"},{"town":"神門前","koaza":"","lat":35.176233,"lng":137.076134,"zip":"4801332"},{"town":"菅池","koaza":"","lat":35.172192,"lng":137.051898,"zip":"4801127"},{"town":"助六","koaza":"","lat":35.178283,"lng":137.076088,"zip":"4801326"},{"town":"砂子","koaza":"","lat":35.16856,"lng":137.04571,"zip":"4801112"},{"town":"先達","koaza":"","lat":35.178843,"lng":137.047343,"zip":"4801175"},{"town":"大日","koaza":"","lat":35.178321,"lng":137.073318,"zip":"4801335"},{"town":"段留","koaza":"","lat":35.180378,"lng":137.077475,"zip":"4801324"},{"town":"段の上","koaza":"","lat":35.186945,"lng":137.031747,"zip":"4801162"},{"town":"丁子田","koaza":"","lat":35.156782,"lng":137.027625,"zip":"4801178"},{"town":"長配一丁目","koaza":"","lat":35.16771,"lng":137.038513,"zip":"4801114"},{"town":"長配二丁目","koaza":"","lat":35.164966,"lng":137.040886,"zip":"4801114"},{"town":"長配三丁目","koaza":"","lat":35.165939,"lng":137.03704,"zip":"4801114"},{"town":"塚田","koaza":"","lat":35.181531,"lng":137.0278,"zip":"4801154"},{"town":"堂脇","koaza":"","lat":35.174788,"lng":137.076558,"zip":"4801346"},{"town":"戸田谷","koaza":"","lat":35.173565,"lng":137.037488,"zip":"4801124"},{"town":"中井","koaza":"","lat":35.185535,"lng":137.06216,"zip":"4801305"},{"town":"中池","koaza":"","lat":35.177014,"lng":137.052841,"zip":"4801108"},{"town":"中川原","koaza":"","lat":35.190507,"lng":137.027648,"zip":"4801139"},{"town":"仲田","koaza":"","lat":35.180175,"lng":137.03684,"zip":"4801167"},{"town":"中屋","koaza":"","lat":35.180038,"lng":137.071264,"zip":"4801337"},{"town":"西浦","koaza":"","lat":35.178017,"lng":137.038649,"zip":"4801171"},{"town":"西原","koaza":"","lat":35.190676,"lng":137.031209,"zip":"4801183"},{"town":"西原山","koaza":"","lat":35.18921,"lng":137.025043,"zip":"4801138"},{"town":"根嶽","koaza":"","lat":35.164002,"lng":137.025756,"zip":"4801148"},{"town":"根の神","koaza":"","lat":35.170697,"lng":137.032987,"zip":"4801141"},{"town":"野田農","koaza":"","lat":35.183074,"lng":137.037148,"zip":"4801166"},{"town":"原邸","koaza":"","lat":35.185541,"lng":137.034768,"zip":"4801163"},{"town":"原山","koaza":"","lat":35.186497,"lng":137.024509,"zip":"4801133"},{"town":"東浦","koaza":"","lat":35.176355,"lng":137.044266,"zip":"4801174"},{"town":"東田","koaza":"","lat":35.186038,"lng":137.067135,"zip":"4801303"},{"town":"東狭間","koaza":"","lat":35.173106,"lng":137.040732,"zip":"4801123"},{"town":"東原","koaza":"","lat":35.189186,"lng":137.036484,"zip":"4801181"},{"town":"東原山","koaza":"","lat":35.187708,"lng":137.0267,"zip":"4801158"},{"town":"東平地","koaza":"","lat":35.183079,"lng":137.071319,"zip":"4801315"},{"town":"東山","koaza":"","lat":35.187046,"lng":137.076709,"zip":"4801318"},{"town":"平池","koaza":"","lat":35.184537,"lng":137.027274,"zip":"4801155"},{"town":"平地","koaza":"","lat":35.184606,"lng":137.068927,"zip":"4801316"},{"town":"広田","koaza":"","lat":35.173727,"lng":137.077333,"zip":"4801344"},{"town":"深田","koaza":"","lat":35.172408,"lng":137.053633,"zip":"4801126"},{"town":"深廻間","koaza":"","lat":35.167096,"lng":137.051194,"zip":"4801119"},{"town":"福井","koaza":"","lat":35.18593,"lng":137.080124,"zip":"4801311"},{"town":"富士浦","koaza":"","lat":35.179108,"lng":137.043448,"zip":"4801173"},{"town":"坊の後","koaza":"","lat":35.181042,"lng":137.039884,"zip":"4801168"},{"town":"棒振","koaza":"","lat":35.173979,"lng":137.055944,"zip":"4801104"},{"town":"仏が根","koaza":"","lat":35.175201,"lng":137.047451,"zip":"4801177"},{"town":"前熊一ノ井","koaza":"","lat":35.169073,"lng":137.077362,"zip":"4801102"},{"town":"前熊志水","koaza":"","lat":35.183107,"lng":137.067421,"zip":"4801102"},{"town":"前熊下田","koaza":"","lat":35.184398,"lng":137.059673,"zip":"4801102"},{"town":"前熊寺田","koaza":"","lat":35.1738,"lng":137.071761,"zip":"4801102"},{"town":"前熊中井","koaza":"","lat":35.177537,"lng":137.071268,"zip":"4801102"},{"town":"前熊西脇","koaza":"","lat":35.18224,"lng":137.060304,"zip":"4801102"},{"town":"前熊根ノ上","koaza":"","lat":35.180464,"lng":137.064674,"zip":"4801102"},{"town":"前熊根ノ原","koaza":"","lat":35.181386,"lng":137.062842,"zip":"4801102"},{"town":"前熊橋ノ本","koaza":"","lat":35.180583,"lng":137.067904,"zip":"4801102"},{"town":"前熊原山","koaza":"","lat":35.175117,"lng":137.070169,"zip":"4801102"},{"town":"前熊広面","koaza":"","lat":35.182016,"lng":137.06571,"zip":"4801102"},{"town":"前熊堀越","koaza":"","lat":35.176791,"lng":137.065628,"zip":"4801102"},{"town":"前熊前山","koaza":"","lat":35.178327,"lng":137.067229,"zip":"4801102"},{"town":"前熊溝下","koaza":"","lat":35.183995,"lng":137.06368,"zip":"4801102"},{"town":"松杁","koaza":"","lat":35.187245,"lng":137.072207,"zip":"4801317"},{"town":"丸根","koaza":"","lat":35.17523,"lng":137.052808,"zip":"4801105"},{"town":"丸山","koaza":"","lat":35.174146,"lng":137.077871,"zip":"4801345"},{"town":"溝之杁","koaza":"","lat":35.188453,"lng":137.063778,"zip":"4801309"},{"town":"南原山","koaza":"","lat":35.186186,"lng":137.026451,"zip":"4801134"},{"town":"宮脇","koaza":"","lat":35.177863,"lng":137.041399,"zip":"4801172"},{"town":"武蔵塚","koaza":"","lat":35.172733,"lng":137.046517,"zip":"4801121"},{"town":"岩作石田","koaza":"","lat":35.184482,"lng":137.040144,"zip":"4801103"},{"town":"岩作井戸ケ根","koaza":"","lat":35.191491,"lng":137.052161,"zip":"4801103"},{"town":"岩作色金","koaza":"","lat":35.186642,"lng":137.053651,"zip":"4801103"},{"town":"岩作浮江","koaza":"","lat":35.191252,"lng":137.036357,"zip":"4801103"},{"town":"岩作内万場","koaza":"","lat":35.180651,"lng":137.060438,"zip":"4801103"},{"town":"岩作大根","koaza":"","lat":35.17925,"lng":137.061601,"zip":"4801103"},{"town":"岩作落合","koaza":"","lat":35.18656,"lng":137.036094,"zip":"4801103"},{"town":"岩作折戸ケ平","koaza":"","lat":35.177213,"lng":137.060512,"zip":"4801103"},{"town":"岩作欠花","koaza":"","lat":35.185644,"lng":137.041456,"zip":"4801103"},{"town":"岩作壁ノ本","koaza":"","lat":35.183794,"lng":137.056077,"zip":"4801103"},{"town":"岩作雁又","koaza":"","lat":35.192787,"lng":137.048705,"zip":"4801103"},{"town":"岩作北山","koaza":"","lat":35.190049,"lng":137.043625,"zip":"4801103"},{"town":"岩作狐洞","koaza":"","lat":35.179595,"lng":137.058955,"zip":"4801103"},{"town":"岩作五反田","koaza":"","lat":35.186513,"lng":137.044657,"zip":"4801103"},{"town":"岩作権田","koaza":"","lat":35.175448,"lng":137.059138,"zip":"4801103"},{"town":"岩作権代","koaza":"","lat":35.177343,"lng":137.053853,"zip":"4801103"},{"town":"岩作三ケ峯","koaza":"","lat":35.161909,"lng":137.074843,"zip":"4801103"},{"town":"岩作申立花","koaza":"","lat":35.189816,"lng":137.05309,"zip":"4801103"},{"town":"岩作下島","koaza":"","lat":35.18649,"lng":137.039242,"zip":"4801103"},{"town":"岩作下田","koaza":"","lat":35.187742,"lng":137.041202,"zip":"4801103"},{"town":"岩作下堀越","koaza":"","lat":35.176919,"lng":137.063248,"zip":"4801103"},{"town":"岩作蛇洞","koaza":"","lat":35.179901,"lng":137.055848,"zip":"4801103"},{"town":"岩作白針","koaza":"","lat":35.187181,"lng":137.046627,"zip":"4801103"},{"town":"岩作城の内","koaza":"","lat":35.184148,"lng":137.048093,"zip":"4801103"},{"town":"岩作隅田","koaza":"","lat":35.188673,"lng":137.042733,"zip":"4801103"},{"town":"岩作高根","koaza":"","lat":35.182418,"lng":137.058506,"zip":"4801103"},{"town":"岩作高根前","koaza":"","lat":35.181358,"lng":137.056614,"zip":"4801103"},{"town":"岩作高山","koaza":"","lat":35.191337,"lng":137.041148,"zip":"4801103"},{"town":"岩作塚本","koaza":"","lat":35.1842,"lng":137.045764,"zip":"4801103"},{"town":"岩作寺田","koaza":"","lat":35.172947,"lng":137.068432,"zip":"4801103"},{"town":"岩作寺山","koaza":"","lat":35.181335,"lng":137.043556,"zip":"4801103"},{"town":"岩作床寒","koaza":"","lat":35.172263,"lng":137.061786,"zip":"4801103"},{"town":"岩作泥亀首","koaza":"","lat":35.187549,"lng":137.048006,"zip":"4801103"},{"town":"岩作寅山","koaza":"","lat":35.192543,"lng":137.05359,"zip":"4801103"},{"town":"岩作酉立花","koaza":"","lat":35.189483,"lng":137.048484,"zip":"4801103"},{"town":"岩作長池","koaza":"","lat":35.182077,"lng":137.045709,"zip":"4801103"},{"town":"岩作長筬","koaza":"","lat":35.184508,"lng":137.038112,"zip":"4801103"},{"town":"岩作中権代","koaza":"","lat":35.177679,"lng":137.055881,"zip":"4801103"},{"town":"岩作中島","koaza":"","lat":35.180408,"lng":137.046537,"zip":"4801103"},{"town":"岩作長鶴","koaza":"","lat":35.171559,"lng":137.066124,"zip":"4801103"},{"town":"岩作中繩手","koaza":"","lat":35.181968,"lng":137.047303,"zip":"4801100"},{"town":"岩作中根","koaza":"","lat":35.175406,"lng":137.0634,"zip":"4801103"},{"town":"岩作中根原","koaza":"","lat":35.172439,"lng":137.063806,"zip":"4801103"},{"town":"岩作中立花","koaza":"","lat":35.189325,"lng":137.051205,"zip":"4801103"},{"town":"岩作中脇","koaza":"","lat":35.181423,"lng":137.048785,"zip":"4801103"},{"town":"岩作西浦","koaza":"","lat":35.188506,"lng":137.037815,"zip":"4801103"},{"town":"岩作西島","koaza":"","lat":35.182289,"lng":137.041647,"zip":"4801103"},{"town":"岩作東島","koaza":"","lat":35.182443,"lng":137.053247,"zip":"4801103"},{"town":"岩作東中","koaza":"","lat":35.182003,"lng":137.050256,"zip":"4801103"},{"town":"岩作平子","koaza":"","lat":35.178926,"lng":137.050306,"zip":"4801103"},{"town":"岩作平地","koaza":"","lat":35.182329,"lng":137.044385,"zip":"4801103"},{"town":"岩作琵琶ケ池","koaza":"","lat":35.175831,"lng":137.060775,"zip":"4801103"},{"town":"岩作福井","koaza":"","lat":35.170111,"lng":137.059862,"zip":"4801103"},{"town":"岩作丸根","koaza":"","lat":35.191513,"lng":137.049541,"zip":"4801103"},{"town":"岩作溝添","koaza":"","lat":35.183217,"lng":137.047794,"zip":"4801103"},{"town":"岩作南島","koaza":"","lat":35.18075,"lng":137.050507,"zip":"4801103"},{"town":"岩作宮後","koaza":"","lat":35.187172,"lng":137.050349,"zip":"4801103"},{"town":"岩作宮前","koaza":"","lat":35.185121,"lng":137.050379,"zip":"4801103"},{"town":"岩作向田","koaza":"","lat":35.180553,"lng":137.052687,"zip":"4801103"},{"town":"岩作向畑","koaza":"","lat":35.179669,"lng":137.052168,"zip":"4801103"},{"town":"岩作元門","koaza":"","lat":35.184525,"lng":137.05298,"zip":"4801103"},{"town":"岩作桃ノ木洞","koaza":"","lat":35.177833,"lng":137.058554,"zip":"4801103"},{"town":"岩作八瀬ノ木","koaza":"","lat":35.184811,"lng":137.043372,"zip":"4801103"},{"town":"岩作藪田","koaza":"","lat":35.18358,"lng":137.042829,"zip":"4801100"},{"town":"岩作早稲田","koaza":"","lat":35.18339,"lng":137.051118,"zip":"4801103"},{"town":"山桶","koaza":"","lat":35.183308,"lng":137.034424,"zip":"4801164"},{"town":"山越","koaza":"","lat":35.169248,"lng":137.048195,"zip":"4801111"},{"town":"山野田","koaza":"","lat":35.165962,"lng":137.044618,"zip":"4801113"},{"town":"横道","koaza":"","lat":35.170746,"lng":137.056205,"zip":"4801118"},{"town":"よし池","koaza":"","lat":35.169249,"lng":137.050208,"zip":"4801129"},{"town":"葭ケ廻間","koaza":"","lat":35.18621,"lng":137.083299,"zip":"4801341"},{"town":"立花","koaza":"","lat":35.190461,"lng":137.058024,"zip":"4801307"},{"town":"櫨木","koaza":"","lat":35.188687,"lng":137.019831,"zip":"4801136"},{"town":"早稲田","koaza":"","lat":35.181283,"lng":137.073703,"zip":"4801328"}]