[{"town":"青木町一丁目","koaza":"","lat":34.925833,"lng":136.981389,"zip":"4441325"},{"town":"青木町二丁目","koaza":"","lat":34.926819,"lng":136.984073,"zip":"4441325"},{"town":"青木町三丁目","koaza":"","lat":34.926527,"lng":136.985749,"zip":"4441325"},{"town":"青木町四丁目","koaza":"","lat":34.926351,"lng":136.987372,"zip":"4441325"},{"town":"青木町五丁目","koaza":"","lat":34.926475,"lng":136.989276,"zip":"4441325"},{"town":"青木町六丁目","koaza":"","lat":34.922591,"lng":136.988842,"zip":"4441325"},{"town":"青木町七丁目","koaza":"","lat":34.923071,"lng":136.987268,"zip":"4441325"},{"town":"青木町八丁目","koaza":"","lat":34.923228,"lng":136.985068,"zip":"4441325"},{"town":"青木町九丁目","koaza":"","lat":34.92458,"lng":136.983206,"zip":"4441325"},{"town":"碧海町一丁目","koaza":"","lat":34.91972,"lng":136.980532,"zip":"4441324"},{"town":"碧海町二丁目","koaza":"","lat":34.921596,"lng":136.983148,"zip":"4441324"},{"town":"碧海町三丁目","koaza":"","lat":34.91964,"lng":136.986859,"zip":"4441324"},{"town":"碧海町四丁目","koaza":"","lat":34.917811,"lng":136.985881,"zip":"4441324"},{"town":"碧海町五丁目","koaza":"","lat":34.917868,"lng":136.983163,"zip":"4441324"},{"town":"春日町一丁目","koaza":"","lat":34.932085,"lng":136.983507,"zip":"4441334"},{"town":"春日町二丁目","koaza":"","lat":34.932315,"lng":136.985557,"zip":"4441334"},{"town":"春日町三丁目","koaza":"","lat":34.932564,"lng":136.987225,"zip":"4441334"},{"town":"春日町四丁目","koaza":"","lat":34.933129,"lng":136.98825,"zip":"4441334"},{"town":"春日町五丁目","koaza":"","lat":34.929765,"lng":136.989257,"zip":"4441334"},{"town":"春日町六丁目","koaza":"","lat":34.929244,"lng":136.986896,"zip":"4441334"},{"town":"春日町七丁目","koaza":"","lat":34.928647,"lng":136.98436,"zip":"4441334"},{"town":"呉竹町一丁目","koaza":"","lat":34.943365,"lng":136.986518,"zip":"4441336"},{"town":"呉竹町二丁目","koaza":"","lat":34.941997,"lng":136.987604,"zip":"4441336"},{"town":"呉竹町三丁目","koaza":"","lat":34.940863,"lng":136.990562,"zip":"4441336"},{"town":"呉竹町四丁目","koaza":"","lat":34.939367,"lng":136.993775,"zip":"4441336"},{"town":"呉竹町五丁目","koaza":"","lat":34.937834,"lng":136.991623,"zip":"4441336"},{"town":"呉竹町六丁目","koaza":"","lat":34.938055,"lng":136.989213,"zip":"4441336"},{"town":"呉竹町七丁目","koaza":"","lat":34.938506,"lng":136.987432,"zip":"4441336"},{"town":"小池町一丁目","koaza":"","lat":34.95083,"lng":136.999683,"zip":"4441303"},{"town":"小池町二丁目","koaza":"","lat":34.948047,"lng":137.005635,"zip":"4441303"},{"town":"小池町三丁目","koaza":"","lat":34.945627,"lng":137.001036,"zip":"4441303"},{"town":"小池町四丁目","koaza":"","lat":34.943286,"lng":136.998845,"zip":"4441303"},{"town":"小池町五丁目","koaza":"","lat":34.94447,"lng":136.996187,"zip":"4441303"},{"town":"小池町六丁目","koaza":"","lat":34.947322,"lng":136.99796,"zip":"4441303"},{"town":"沢渡町一丁目","koaza":"","lat":34.934077,"lng":136.989421,"zip":"4441333"},{"town":"沢渡町二丁目","koaza":"","lat":34.935179,"lng":136.99118,"zip":"4441333"},{"town":"沢渡町三丁目","koaza":"","lat":34.932499,"lng":136.992321,"zip":"4441333"},{"town":"沢渡町四丁目","koaza":"","lat":34.930212,"lng":136.993884,"zip":"4441333"},{"town":"沢渡町五丁目","koaza":"","lat":34.930152,"lng":136.991085,"zip":"4441333"},{"town":"清水町一丁目","koaza":"","lat":34.927399,"lng":137.008486,"zip":"4441312"},{"town":"清水町二丁目","koaza":"","lat":34.930561,"lng":137.011027,"zip":"4441312"},{"town":"清水町三丁目","koaza":"","lat":34.933209,"lng":137.012737,"zip":"4441312"},{"town":"清水町四丁目","koaza":"","lat":34.931449,"lng":137.014293,"zip":"4441312"},{"town":"清水町五丁目","koaza":"","lat":34.929994,"lng":137.019644,"zip":"4441312"},{"town":"清水町六丁目","koaza":"","lat":34.928814,"lng":137.016445,"zip":"4441312"},{"town":"清水町七丁目","koaza":"","lat":34.926812,"lng":137.01387,"zip":"4441312"},{"town":"清水町八丁目","koaza":"","lat":34.924112,"lng":137.010924,"zip":"4441312"},{"town":"新田町一丁目","koaza":"","lat":34.954208,"lng":136.985021,"zip":"4441301"},{"town":"新田町二丁目","koaza":"","lat":34.953428,"lng":136.987918,"zip":"4441301"},{"town":"新田町三丁目","koaza":"","lat":34.952783,"lng":136.990695,"zip":"4441301"},{"town":"新田町四丁目","koaza":"","lat":34.94928,"lng":136.987479,"zip":"4441301"},{"town":"新田町五丁目","koaza":"","lat":34.945794,"lng":136.98596,"zip":"4441301"},{"town":"神明町一丁目","koaza":"","lat":34.938097,"lng":136.999641,"zip":"4441305"},{"town":"神明町二丁目","koaza":"","lat":34.94281,"lng":137.002466,"zip":"4441305"},{"town":"神明町三丁目","koaza":"","lat":34.941241,"lng":137.004399,"zip":"4441305"},{"town":"神明町四丁目","koaza":"","lat":34.938233,"lng":137.004624,"zip":"4441305"},{"town":"神明町五丁目","koaza":"","lat":34.936124,"lng":137.005031,"zip":"4441305"},{"town":"神明町六丁目","koaza":"","lat":34.93333,"lng":137.005222,"zip":"4441305"},{"town":"神明町七丁目","koaza":"","lat":34.932862,"lng":137.001945,"zip":"4441305"},{"town":"神明町八丁目","koaza":"","lat":34.937722,"lng":137.002152,"zip":"4441305"},{"town":"田戸町一丁目","koaza":"","lat":34.911787,"lng":136.978875,"zip":"4441323"},{"town":"田戸町二丁目","koaza":"","lat":34.91401,"lng":136.982968,"zip":"4441323"},{"town":"田戸町三丁目","koaza":"","lat":34.912781,"lng":136.986636,"zip":"4441323"},{"town":"田戸町四丁目","koaza":"","lat":34.911846,"lng":136.989123,"zip":"4441323"},{"town":"田戸町五丁目","koaza":"","lat":34.910259,"lng":136.983845,"zip":"4441323"},{"town":"田戸町六丁目","koaza":"","lat":34.909395,"lng":136.982028,"zip":"4441323"},{"town":"田戸町七丁目","koaza":"","lat":34.912111,"lng":136.981836,"zip":"4441323"},{"town":"豊田町一丁目","koaza":"","lat":34.945455,"lng":137.007422,"zip":"4441304"},{"town":"豊田町二丁目","koaza":"","lat":34.940771,"lng":137.009396,"zip":"4441304"},{"town":"豊田町三丁目","koaza":"","lat":34.935491,"lng":137.009864,"zip":"4441304"},{"town":"八幡町一丁目","koaza":"","lat":34.954296,"lng":136.99459,"zip":"4441302"},{"town":"八幡町二丁目","koaza":"","lat":34.952804,"lng":136.997531,"zip":"4441302"},{"town":"八幡町三丁目","koaza":"","lat":34.951233,"lng":136.995113,"zip":"4441302"},{"town":"八幡町四丁目","koaza":"","lat":34.947274,"lng":136.993919,"zip":"4441302"},{"town":"八幡町五丁目","koaza":"","lat":34.948311,"lng":136.991555,"zip":"4441302"},{"town":"八幡町六丁目","koaza":"","lat":34.951683,"lng":136.992935,"zip":"4441302"},{"town":"稗田町一丁目","koaza":"","lat":34.926692,"lng":136.991114,"zip":"4441321"},{"town":"稗田町二丁目","koaza":"","lat":34.926913,"lng":136.993561,"zip":"4441321"},{"town":"稗田町三丁目","koaza":"","lat":34.928109,"lng":136.995252,"zip":"4441321"},{"town":"稗田町四丁目","koaza":"","lat":34.923352,"lng":136.9924,"zip":"4441321"},{"town":"稗田町五丁目","koaza":"","lat":34.920124,"lng":136.992254,"zip":"4441321"},{"town":"稗田町六丁目","koaza":"","lat":34.922316,"lng":136.990151,"zip":"4441321"},{"town":"二池町一丁目","koaza":"","lat":34.918023,"lng":136.988928,"zip":"4441322"},{"town":"二池町二丁目","koaza":"","lat":34.917878,"lng":136.990615,"zip":"4441322"},{"town":"二池町三丁目","koaza":"","lat":34.917777,"lng":136.993363,"zip":"4441322"},{"town":"二池町四丁目","koaza":"","lat":34.915234,"lng":136.994484,"zip":"4441322"},{"town":"二池町五丁目","koaza":"","lat":34.914408,"lng":136.99187,"zip":"4441322"},{"town":"二池町六丁目","koaza":"","lat":34.915371,"lng":136.988378,"zip":"4441322"},{"town":"本郷町一丁目","koaza":"","lat":34.928522,"lng":136.998426,"zip":"4441311"},{"town":"本郷町二丁目","koaza":"","lat":34.930347,"lng":137.002091,"zip":"4441311"},{"town":"本郷町三丁目","koaza":"","lat":34.931088,"lng":137.005696,"zip":"4441311"},{"town":"本郷町四丁目","koaza":"","lat":34.93255,"lng":137.008969,"zip":"4441311"},{"town":"本郷町五丁目","koaza":"","lat":34.929734,"lng":137.006519,"zip":"4441311"},{"town":"本郷町六丁目","koaza":"","lat":34.928647,"lng":137.002697,"zip":"4441311"},{"town":"向山町一丁目","koaza":"","lat":34.925805,"lng":136.997662,"zip":"4441313"},{"town":"向山町二丁目","koaza":"","lat":34.925371,"lng":137.00507,"zip":"4441313"},{"town":"向山町三丁目","koaza":"","lat":34.922029,"lng":137.007791,"zip":"4441313"},{"town":"向山町四丁目","koaza":"","lat":34.920349,"lng":137.005054,"zip":"4441313"},{"town":"向山町五丁目","koaza":"","lat":34.923605,"lng":137.00169,"zip":"4441313"},{"town":"向山町六丁目","koaza":"","lat":34.924268,"lng":136.998215,"zip":"4441313"},{"town":"屋敷町一丁目","koaza":"","lat":34.945866,"lng":136.989333,"zip":"4441331"},{"town":"屋敷町二丁目","koaza":"","lat":34.94463,"lng":136.989994,"zip":"4441331"},{"town":"屋敷町三丁目","koaza":"","lat":34.944561,"lng":136.992493,"zip":"4441331"},{"town":"屋敷町四丁目","koaza":"","lat":34.943307,"lng":136.99487,"zip":"4441331"},{"town":"屋敷町五丁目","koaza":"","lat":34.941301,"lng":136.996905,"zip":"4441331"},{"town":"屋敷町六丁目","koaza":"","lat":34.941729,"lng":136.994122,"zip":"4441331"},{"town":"屋敷町七丁目","koaza":"","lat":34.942706,"lng":136.991522,"zip":"4441331"},{"town":"湯山町一丁目","koaza":"","lat":34.936098,"lng":136.993231,"zip":"4441332"},{"town":"湯山町二丁目","koaza":"","lat":34.938027,"lng":136.995657,"zip":"4441332"},{"town":"湯山町三丁目","koaza":"","lat":34.937022,"lng":136.997159,"zip":"4441332"},{"town":"湯山町四丁目","koaza":"","lat":34.934696,"lng":136.998742,"zip":"4441332"},{"town":"湯山町五丁目","koaza":"","lat":34.931728,"lng":136.999018,"zip":"4441332"},{"town":"湯山町六丁目","koaza":"","lat":34.930924,"lng":136.996551,"zip":"4441332"},{"town":"湯山町七丁目","koaza":"","lat":34.932844,"lng":136.9952,"zip":"4441332"},{"town":"湯山町八丁目","koaza":"","lat":34.93464,"lng":136.994619,"zip":"4441332"},{"town":"芳川町一丁目","koaza":"","lat":34.940564,"lng":136.982594,"zip":"4441335"},{"town":"芳川町二丁目","koaza":"","lat":34.938592,"lng":136.985815,"zip":"4441335"},{"town":"芳川町三丁目","koaza":"","lat":34.937582,"lng":136.982764,"zip":"4441335"},{"town":"芳川町四丁目","koaza":"","lat":34.932891,"lng":136.98112,"zip":"4441335"},{"town":"論地町一丁目","koaza":"","lat":34.922543,"lng":136.996483,"zip":"4441314"},{"town":"論地町二丁目","koaza":"","lat":34.920247,"lng":136.999981,"zip":"4441314"},{"town":"論地町三丁目","koaza":"","lat":34.919082,"lng":137.002984,"zip":"4441314"},{"town":"論地町四丁目","koaza":"","lat":34.916286,"lng":137.001442,"zip":"4441314"},{"town":"論地町五丁目","koaza":"","lat":34.918042,"lng":136.9967,"zip":"4441314"}]