[{"town":"大字上落合","koaza":"","lat":35.893904,"lng":139.633474,"zip":"3300000"},{"town":"円阿弥一丁目","koaza":"","lat":35.887624,"lng":139.612764,"zip":"3380007"},{"town":"本町西六丁目","koaza":"","lat":35.89315,"lng":139.613392,"zip":"3380004"},{"town":"八王子一丁目","koaza":"","lat":35.885427,"lng":139.613892,"zip":"3380006"},{"town":"円阿弥六丁目","koaza":"","lat":35.892748,"lng":139.608935,"zip":"3380007"},{"town":"鈴谷一丁目","koaza":"","lat":35.86492,"lng":139.632279,"zip":"3380013"},{"town":"上落合九丁目","koaza":"","lat":35.90053,"lng":139.624004,"zip":"3380001"},{"town":"円阿弥三丁目","koaza":"","lat":35.889628,"lng":139.612135,"zip":"3380007"},{"town":"円阿弥五丁目","koaza":"","lat":35.892407,"lng":139.607136,"zip":"3380007"},{"town":"上峰四丁目","koaza":"","lat":35.877361,"lng":139.619958,"zip":"3380014"},{"town":"円阿弥二丁目","koaza":"","lat":35.88635,"lng":139.610227,"zip":"3380007"},{"town":"鈴谷三丁目","koaza":"","lat":35.868143,"lng":139.626079,"zip":"3380013"},{"town":"鈴谷九丁目","koaza":"","lat":35.877729,"lng":139.628673,"zip":"3380013"},{"town":"桜丘二丁目","koaza":"","lat":35.882184,"lng":139.615293,"zip":"3380005"},{"town":"八王子二丁目","koaza":"","lat":35.883739,"lng":139.611414,"zip":"3380006"},{"town":"上落合七丁目","koaza":"","lat":35.897137,"lng":139.623638,"zip":"3380001"},{"town":"本町西三丁目","koaza":"","lat":35.885998,"lng":139.617304,"zip":"3380004"},{"town":"上落合四丁目","koaza":"","lat":35.892998,"lng":139.625047,"zip":"3380001"},{"town":"大戸三丁目","koaza":"","lat":35.8642,"lng":139.638474,"zip":"3380012"},{"town":"本町東一丁目","koaza":"","lat":35.879558,"lng":139.625245,"zip":"3380003"},{"town":"上落合六丁目","koaza":"","lat":35.894984,"lng":139.624604,"zip":"3380001"},{"town":"大戸四丁目","koaza":"","lat":35.867874,"lng":139.641253,"zip":"3380012"},{"town":"本町東七丁目","koaza":"","lat":35.892499,"lng":139.620584,"zip":"3380003"},{"town":"桜丘一丁目","koaza":"","lat":35.878911,"lng":139.615539,"zip":"3380005"},{"town":"上落合三丁目","koaza":"","lat":35.889993,"lng":139.62436,"zip":"3380001"},{"town":"本町東六丁目","koaza":"","lat":35.892067,"lng":139.617673,"zip":"3380003"},{"town":"新中里二丁目","koaza":"","lat":35.872336,"lng":139.634016,"zip":"3380011"},{"town":"上落合一丁目","koaza":"","lat":35.890873,"lng":139.63017,"zip":"3380001"},{"town":"八王子五丁目","koaza":"","lat":35.879985,"lng":139.605983,"zip":"3380006"},{"town":"本町西四丁目","koaza":"","lat":35.888391,"lng":139.616282,"zip":"3380004"},{"town":"鈴谷六丁目","koaza":"","lat":35.875128,"lng":139.630119,"zip":"3380013"},{"town":"上落合五丁目","koaza":"","lat":35.896097,"lng":139.627762,"zip":"3380001"},{"town":"本町東二丁目","koaza":"","lat":35.881423,"lng":139.624164,"zip":"3380003"},{"town":"下落合六丁目","koaza":"","lat":35.882636,"lng":139.629268,"zip":"3380002"},{"town":"鈴谷八丁目","koaza":"","lat":35.876931,"lng":139.625331,"zip":"3380013"},{"town":"新中里一丁目","koaza":"","lat":35.872635,"lng":139.636493,"zip":"3380011"},{"town":"上落合八丁目","koaza":"","lat":35.899419,"lng":139.622432,"zip":"3380001"},{"town":"上峰三丁目","koaza":"","lat":35.874418,"lng":139.62087,"zip":"3380014"},{"town":"下落合二丁目","koaza":"","lat":35.882477,"lng":139.634491,"zip":"3380002"},{"town":"本町東三丁目","koaza":"","lat":35.883838,"lng":139.623039,"zip":"3380003"},{"town":"本町東四丁目","koaza":"","lat":35.886219,"lng":139.621874,"zip":"3380003"},{"town":"円阿弥七丁目","koaza":"","lat":35.893767,"lng":139.610633,"zip":"3380007"},{"town":"大戸二丁目","koaza":"","lat":35.863994,"lng":139.635363,"zip":"3380012"},{"town":"本町西二丁目","koaza":"","lat":35.883764,"lng":139.618224,"zip":"3380004"},{"town":"新中里五丁目","koaza":"","lat":35.878133,"lng":139.636357,"zip":"3380011"},{"town":"新中里三丁目","koaza":"","lat":35.875781,"lng":139.634448,"zip":"3380011"},{"town":"下落合七丁目","koaza":"","lat":35.880771,"lng":139.630386,"zip":"3380002"},{"town":"円阿弥四丁目","koaza":"","lat":35.888758,"lng":139.607378,"zip":"3380007"},{"town":"八王子四丁目","koaza":"","lat":35.879972,"lng":139.608984,"zip":"3380006"},{"town":"鈴谷五丁目","koaza":"","lat":35.872223,"lng":139.630775,"zip":"3380013"},{"town":"上落合二丁目","koaza":"","lat":35.890428,"lng":139.627355,"zip":"3380001"},{"town":"本町東五丁目","koaza":"","lat":35.889251,"lng":139.620716,"zip":"3380003"},{"town":"鈴谷七丁目","koaza":"","lat":35.874494,"lng":139.625048,"zip":"3380013"},{"town":"本町西五丁目","koaza":"","lat":35.890698,"lng":139.615165,"zip":"3380004"},{"town":"下落合五丁目","koaza":"","lat":35.884538,"lng":139.628182,"zip":"3380002"},{"town":"大字下落合","koaza":"","lat":35.884157,"lng":139.636659,"zip":"3300000"},{"town":"新中里四丁目","koaza":"","lat":35.878624,"lng":139.632321,"zip":"3380011"},{"town":"下落合四丁目","koaza":"","lat":35.887049,"lng":139.627024,"zip":"3380002"},{"town":"下落合三丁目","koaza":"","lat":35.886458,"lng":139.63219,"zip":"3380002"},{"town":"大戸六丁目","koaza":"","lat":35.868134,"lng":139.634084,"zip":"3380012"},{"town":"上峰一丁目","koaza":"","lat":35.871982,"lng":139.6185,"zip":"3380014"},{"town":"本町西一丁目","koaza":"","lat":35.880285,"lng":139.619539,"zip":"3380004"},{"town":"鈴谷四丁目","koaza":"","lat":35.872234,"lng":139.625387,"zip":"3380013"},{"town":"上峰二丁目","koaza":"","lat":35.876063,"lng":139.616512,"zip":"3380014"},{"town":"大戸五丁目","koaza":"","lat":35.868278,"lng":139.638007,"zip":"3380012"},{"town":"八王子三丁目","koaza":"","lat":35.880337,"lng":139.612169,"zip":"3380006"},{"town":"大戸一丁目","koaza":"","lat":35.858774,"lng":139.639167,"zip":"3380012"},{"town":"鈴谷二丁目","koaza":"","lat":35.868241,"lng":139.629644,"zip":"3380013"},{"town":"新都心","koaza":"","lat":35.892607,"lng":139.631749,"zip":"3300081"}]