[{"town":"大字太田","koaza":"","lat":35.959814,"lng":139.698751,"zip":"3390000"},{"town":"大字南平野","koaza":"","lat":35.962673,"lng":139.7047,"zip":"3390000"},{"town":"諏訪五丁目","koaza":"","lat":35.970007,"lng":139.703726,"zip":"3390007"},{"town":"諏訪一丁目","koaza":"","lat":35.967434,"lng":139.71037,"zip":"3390007"},{"town":"上野二丁目","koaza":"","lat":35.971081,"lng":139.700848,"zip":"3390073"},{"town":"東岩槻三丁目","koaza":"","lat":35.962726,"lng":139.708867,"zip":"3390005"},{"town":"東岩槻二丁目","koaza":"","lat":35.965198,"lng":139.709054,"zip":"3390005"},{"town":"諏訪二丁目","koaza":"","lat":35.968665,"lng":139.70903,"zip":"3390007"},{"town":"上里一丁目","koaza":"","lat":35.964392,"lng":139.706463,"zip":"3390006"},{"town":"城南二丁目","koaza":"","lat":35.942029,"lng":139.706573,"zip":"3390043"},{"town":"上野五丁目","koaza":"","lat":35.976102,"lng":139.693806,"zip":"3390073"},{"town":"西原台二丁目","koaza":"","lat":35.949983,"lng":139.685054,"zip":"3390082"},{"town":"本丸二丁目","koaza":"","lat":35.957097,"lng":139.706005,"zip":"3390058"},{"town":"上里二丁目","koaza":"","lat":35.965248,"lng":139.704452,"zip":"3390006"},{"town":"諏訪四丁目","koaza":"","lat":35.969756,"lng":139.705418,"zip":"3390007"},{"town":"東岩槻一丁目","koaza":"","lat":35.964277,"lng":139.712431,"zip":"3390005"},{"town":"上野四丁目","koaza":"","lat":35.972863,"lng":139.696993,"zip":"3390073"},{"town":"加倉二丁目","koaza":"","lat":35.943306,"lng":139.683857,"zip":"3390056"},{"town":"並木二丁目","koaza":"","lat":35.949927,"lng":139.682905,"zip":"3390068"},{"town":"南平野四丁目","koaza":"","lat":35.952958,"lng":139.718327,"zip":"3390051"},{"town":"東岩槻六丁目","koaza":"","lat":35.961412,"lng":139.716405,"zip":"3390005"},{"town":"東岩槻五丁目","koaza":"","lat":35.960032,"lng":139.714929,"zip":"3390005"},{"town":"東岩槻四丁目","koaza":"","lat":35.962061,"lng":139.71239,"zip":"3390005"},{"town":"府内四丁目","koaza":"","lat":35.94167,"lng":139.716415,"zip":"3390042"},{"town":"本町六丁目","koaza":"","lat":35.950789,"lng":139.701222,"zip":"3390057"},{"town":"加倉三丁目","koaza":"","lat":35.941219,"lng":139.684867,"zip":"3390056"},{"town":"上野三丁目","koaza":"","lat":35.974002,"lng":139.698468,"zip":"3390073"},{"town":"愛宕町","koaza":"","lat":35.954515,"lng":139.69648,"zip":"3390066"},{"town":"本丸一丁目","koaza":"","lat":35.954905,"lng":139.702286,"zip":"3390058"},{"town":"東町二丁目","koaza":"","lat":35.944431,"lng":139.70064,"zip":"3390055"},{"town":"西原台一丁目","koaza":"","lat":35.947105,"lng":139.686908,"zip":"3390082"},{"town":"西町二丁目","koaza":"","lat":35.952255,"lng":139.689459,"zip":"3390067"},{"town":"府内一丁目","koaza":"","lat":35.944035,"lng":139.709909,"zip":"3390042"},{"town":"諏訪三丁目","koaza":"","lat":35.969558,"lng":139.707272,"zip":"3390007"},{"town":"西町三丁目","koaza":"","lat":35.954363,"lng":139.686668,"zip":"3390067"},{"town":"城町一丁目","koaza":"","lat":35.946659,"lng":139.709153,"zip":"3390053"},{"town":"西町一丁目","koaza":"","lat":35.951445,"lng":139.692902,"zip":"3390067"},{"town":"東町一丁目","koaza":"","lat":35.944356,"lng":139.697701,"zip":"3390055"},{"town":"南平野五丁目","koaza":"","lat":35.948829,"lng":139.718174,"zip":"3390051"},{"town":"上野一丁目","koaza":"","lat":35.968522,"lng":139.700105,"zip":"3390073"},{"town":"城南四丁目","koaza":"","lat":35.939995,"lng":139.710685,"zip":"3390043"},{"town":"美幸町","koaza":"","lat":35.959799,"lng":139.692664,"zip":"3390063"},{"town":"並木一丁目","koaza":"","lat":35.94625,"lng":139.683373,"zip":"3390068"},{"town":"本町五丁目","koaza":"","lat":35.953523,"lng":139.699688,"zip":"3390057"},{"town":"城南五丁目","koaza":"","lat":35.940603,"lng":139.71429,"zip":"3390043"},{"town":"本町一丁目","koaza":"","lat":35.947813,"lng":139.693159,"zip":"3390057"},{"town":"本町三丁目","koaza":"","lat":35.950803,"lng":139.696237,"zip":"3390057"},{"town":"府内二丁目","koaza":"","lat":35.944382,"lng":139.713757,"zip":"3390042"},{"town":"城南三丁目","koaza":"","lat":35.939665,"lng":139.707964,"zip":"3390043"},{"town":"本丸三丁目","koaza":"","lat":35.955385,"lng":139.707274,"zip":"3390058"},{"town":"本町四丁目","koaza":"","lat":35.948833,"lng":139.698622,"zip":"3390057"},{"town":"原町","koaza":"","lat":35.940734,"lng":139.697451,"zip":"3390047"},{"town":"西町四丁目","koaza":"","lat":35.956839,"lng":139.68945,"zip":"3390067"},{"town":"西町五丁目","koaza":"","lat":35.954401,"lng":139.691797,"zip":"3390067"},{"town":"本町二丁目","koaza":"","lat":35.945589,"lng":139.694714,"zip":"3390057"},{"town":"城南一丁目","koaza":"","lat":35.941063,"lng":139.702217,"zip":"3390043"},{"town":"西原","koaza":"","lat":35.951463,"lng":139.68606,"zip":"3390081"},{"town":"太田二丁目","koaza":"","lat":35.953998,"lng":139.709695,"zip":"3390052"},{"town":"仲町二丁目","koaza":"","lat":35.945411,"lng":139.705811,"zip":"3390054"},{"town":"上野六丁目","koaza":"","lat":35.977712,"lng":139.695791,"zip":"3390073"},{"town":"古ケ場一丁目","koaza":"","lat":35.978563,"lng":139.689645,"zip":"3390072"},{"town":"府内三丁目","koaza":"","lat":35.945606,"lng":139.716766,"zip":"3390042"},{"town":"本丸四丁目","koaza":"","lat":35.958212,"lng":139.709612,"zip":"3390058"},{"town":"城町二丁目","koaza":"","lat":35.948306,"lng":139.712859,"zip":"3390053"},{"town":"宮町一丁目","koaza":"","lat":35.957879,"lng":139.698989,"zip":"3390065"},{"town":"加倉五丁目","koaza":"","lat":35.939904,"lng":139.691912,"zip":"3390056"},{"town":"南平野二丁目","koaza":"","lat":35.957413,"lng":139.718522,"zip":"3390051"},{"town":"日の出町","koaza":"","lat":35.958661,"lng":139.696028,"zip":"3390064"},{"town":"南平野一丁目","koaza":"","lat":35.959217,"lng":139.712328,"zip":"3390051"},{"town":"大字南辻","koaza":"","lat":35.962446,"lng":139.702041,"zip":"3390000"},{"town":"大字上野","koaza":"","lat":35.966186,"lng":139.702152,"zip":"3390000"},{"town":"加倉四丁目","koaza":"","lat":35.942516,"lng":139.69138,"zip":"3390056"},{"town":"加倉一丁目","koaza":"","lat":35.945877,"lng":139.689717,"zip":"3390056"},{"town":"太田一丁目","koaza":"","lat":35.950332,"lng":139.704963,"zip":"3390052"},{"town":"太田三丁目","koaza":"","lat":35.951037,"lng":139.710696,"zip":"3390052"},{"town":"古ケ場二丁目","koaza":"","lat":35.980558,"lng":139.692162,"zip":"3390072"},{"town":"仲町一丁目","koaza":"","lat":35.947031,"lng":139.702269,"zip":"3390054"},{"town":"宮町二丁目","koaza":"","lat":35.958427,"lng":139.703414,"zip":"3390065"},{"town":"大字箕輪","koaza":"","lat":35.958313,"lng":139.681912,"zip":"3390000"},{"town":"大字相野原","koaza":"","lat":35.986945,"lng":139.696958,"zip":"3390000"},{"town":"南平野三丁目","koaza":"","lat":35.953827,"lng":139.715914,"zip":"3390051"},{"town":"大字大森","koaza":"","lat":35.930579,"lng":139.748456,"zip":"3390000"},{"town":"古ケ場","koaza":"","lat":35.982997,"lng":139.695482,"zip":"3390072"},{"town":"大字金重","koaza":"","lat":35.965802,"lng":139.684469,"zip":"3390000"},{"town":"大字谷下","koaza":"","lat":35.933684,"lng":139.686621,"zip":"3390000"},{"town":"大字加倉","koaza":"","lat":35.937078,"lng":139.690147,"zip":"3390000"},{"town":"大字大谷","koaza":"","lat":35.938582,"lng":139.740554,"zip":"3390000"},{"town":"大字本宿","koaza":"","lat":35.965301,"lng":139.690989,"zip":"3390000"},{"town":"大字村国","koaza":"","lat":35.942435,"lng":139.723283,"zip":"3390000"},{"town":"大字真福寺","koaza":"","lat":35.93636,"lng":139.706212,"zip":"3390000"},{"town":"大字増長","koaza":"","lat":35.948169,"lng":139.74021,"zip":"3390000"},{"town":"大字野孫","koaza":"","lat":35.908543,"lng":139.740914,"zip":"3390000"},{"town":"大字新方須賀","koaza":"","lat":35.933651,"lng":139.747702,"zip":"3390000"},{"town":"大字徳力","koaza":"","lat":35.972266,"lng":139.718167,"zip":"3390000"},{"town":"大字大口","koaza":"","lat":35.94558,"lng":139.745616,"zip":"3390000"},{"town":"大字大野島","koaza":"","lat":35.942359,"lng":139.73221,"zip":"3390000"},{"town":"大字大戸","koaza":"","lat":35.9357,"lng":139.743527,"zip":"3390000"},{"town":"大字柏崎","koaza":"","lat":35.934402,"lng":139.698254,"zip":"3390000"},{"town":"大字岩槻","koaza":"","lat":35.957834,"lng":139.686404,"zip":"3390000"},{"town":"大字慈恩寺","koaza":"","lat":35.980474,"lng":139.708622,"zip":"3390000"},{"town":"大字掛","koaza":"","lat":35.972597,"lng":139.687721,"zip":"3390000"},{"town":"大字表慈恩寺","koaza":"","lat":35.973915,"lng":139.706197,"zip":"3390000"},{"town":"大字南下新井","koaza":"","lat":35.931902,"lng":139.718703,"zip":"3390000"},{"town":"大字小溝","koaza":"","lat":35.981526,"lng":139.720877,"zip":"3390000"},{"town":"大字高曽根","koaza":"","lat":35.914282,"lng":139.741594,"zip":"3390000"},{"town":"大字横根","koaza":"","lat":35.922466,"lng":139.700829,"zip":"3390000"},{"town":"大字笹久保新田","koaza":"","lat":35.914445,"lng":139.710975,"zip":"3390000"},{"town":"大字平林寺","koaza":"","lat":35.967703,"lng":139.675854,"zip":"3390000"},{"town":"大字長宮","koaza":"","lat":35.950132,"lng":139.7283,"zip":"3390000"},{"town":"大字飯塚","koaza":"","lat":35.935781,"lng":139.725394,"zip":"3390000"},{"town":"大字笹久保","koaza":"","lat":35.916558,"lng":139.720527,"zip":"3390000"},{"town":"大字裏慈恩寺","koaza":"","lat":35.986332,"lng":139.710363,"zip":"3390000"},{"town":"大字黒谷","koaza":"","lat":35.920352,"lng":139.730357,"zip":"3390000"},{"town":"大字浮谷","koaza":"","lat":35.927519,"lng":139.709262,"zip":"3390000"},{"town":"大字馬込","koaza":"","lat":35.969162,"lng":139.663052,"zip":"3390000"},{"town":"大字鹿室","koaza":"","lat":35.995458,"lng":139.700551,"zip":"3390000"},{"town":"大字末田","koaza":"","lat":35.915669,"lng":139.744774,"zip":"3390000"},{"town":"大字尾ケ崎","koaza":"","lat":35.912554,"lng":139.73104,"zip":"3390000"},{"town":"大字釣上","koaza":"","lat":35.900467,"lng":139.742311,"zip":"3390000"},{"town":"大字釣上新田","koaza":"","lat":35.891783,"lng":139.742294,"zip":"3390000"},{"town":"大字尾ケ崎新田","koaza":"","lat":35.906401,"lng":139.723626,"zip":"3390000"},{"town":"美園東三丁目","koaza":"","lat":35.905112,"lng":139.727219,"zip":"3390028"},{"town":"美園東二丁目","koaza":"","lat":35.902315,"lng":139.730783,"zip":"3390028"},{"town":"美園東一丁目","koaza":"","lat":35.898712,"lng":139.734846,"zip":"3390028"}]