[{"town":"大原六丁目","koaza":"","lat":35.898711,"lng":139.641737,"zip":"3300836"},{"town":"仲町二丁目","koaza":"","lat":35.905344,"lng":139.627808,"zip":"3300845"},{"town":"下町二丁目","koaza":"","lat":35.903529,"lng":139.628345,"zip":"3300844"},{"town":"大門町二丁目","koaza":"","lat":35.907308,"lng":139.627329,"zip":"3300846"},{"town":"下町一丁目","koaza":"","lat":35.903131,"lng":139.626799,"zip":"3300844"},{"town":"仲町三丁目","koaza":"","lat":35.905425,"lng":139.629805,"zip":"3300845"},{"town":"仲町一丁目","koaza":"","lat":35.904805,"lng":139.626176,"zip":"3300845"},{"town":"大原七丁目","koaza":"","lat":35.901507,"lng":139.642301,"zip":"3300836"},{"town":"大門町一丁目","koaza":"","lat":35.906665,"lng":139.625687,"zip":"3300846"},{"town":"宮町五丁目","koaza":"","lat":35.911175,"lng":139.623311,"zip":"3300802"},{"town":"宮町一丁目","koaza":"","lat":35.908591,"lng":139.625246,"zip":"3300802"},{"town":"土手町二丁目","koaza":"","lat":35.914005,"lng":139.626496,"zip":"3300801"},{"town":"下町三丁目","koaza":"","lat":35.903807,"lng":139.630067,"zip":"3300844"},{"town":"吉敷町二丁目","koaza":"","lat":35.899876,"lng":139.630037,"zip":"3300843"},{"town":"宮町二丁目","koaza":"","lat":35.909459,"lng":139.627536,"zip":"3300802"},{"town":"宮町四丁目","koaza":"","lat":35.911259,"lng":139.624702,"zip":"3300802"},{"town":"吉敷町一丁目","koaza":"","lat":35.901614,"lng":139.629172,"zip":"3300843"},{"town":"高鼻町三丁目","koaza":"","lat":35.91852,"lng":139.627114,"zip":"3300803"},{"town":"宮町三丁目","koaza":"","lat":35.911637,"lng":139.627207,"zip":"3300802"},{"town":"大門町三丁目","koaza":"","lat":35.907769,"lng":139.629413,"zip":"3300846"},{"town":"浅間町一丁目","koaza":"","lat":35.904372,"lng":139.632888,"zip":"3300842"},{"town":"東町一丁目","koaza":"","lat":35.906458,"lng":139.633381,"zip":"3300841"},{"town":"桜木町三丁目","koaza":"","lat":35.913171,"lng":139.618411,"zip":"3300854"},{"town":"土手町三丁目","koaza":"","lat":35.916924,"lng":139.625301,"zip":"3300801"},{"town":"吉敷町三丁目","koaza":"","lat":35.900057,"lng":139.633739,"zip":"3300843"},{"town":"東町二丁目","koaza":"","lat":35.909465,"lng":139.6324,"zip":"3300841"},{"town":"浅間町二丁目","koaza":"","lat":35.902197,"lng":139.634638,"zip":"3300842"},{"town":"土手町一丁目","koaza":"","lat":35.915472,"lng":139.622694,"zip":"3300801"},{"town":"高鼻町一丁目","koaza":"","lat":35.913283,"lng":139.629378,"zip":"3300803"},{"town":"桜木町二丁目","koaza":"","lat":35.907878,"lng":139.618836,"zip":"3300854"},{"town":"三橋三丁目","koaza":"","lat":35.89711,"lng":139.607462,"zip":"3300856"},{"town":"寿能町一丁目","koaza":"","lat":35.921991,"lng":139.632308,"zip":"3300805"},{"town":"高鼻町二丁目","koaza":"","lat":35.913952,"lng":139.632418,"zip":"3300803"},{"town":"桜木町一丁目","koaza":"","lat":35.90395,"lng":139.621185,"zip":"3300854"},{"town":"大成町一丁目","koaza":"","lat":35.908863,"lng":139.614601,"zip":"3300852"},{"town":"大成町二丁目","koaza":"","lat":35.913316,"lng":139.614228,"zip":"3300852"},{"town":"堀の内町三丁目","koaza":"","lat":35.914814,"lng":139.63723,"zip":"3300804"},{"town":"吉敷町四丁目","koaza":"","lat":35.896044,"lng":139.635172,"zip":"3300843"},{"town":"北袋町二丁目","koaza":"","lat":35.893733,"lng":139.644448,"zip":"3300835"},{"town":"堀の内町二丁目","koaza":"","lat":35.913813,"lng":139.642536,"zip":"3300804"},{"town":"堀の内町一丁目","koaza":"","lat":35.910747,"lng":139.639183,"zip":"3300804"},{"town":"高鼻町四丁目","koaza":"","lat":35.918793,"lng":139.631793,"zip":"3300803"},{"town":"北袋町一丁目","koaza":"","lat":35.893039,"lng":139.638673,"zip":"3300835"},{"town":"大成町三丁目","koaza":"","lat":35.918483,"lng":139.615744,"zip":"3300852"},{"town":"櫛引町一丁目","koaza":"","lat":35.910878,"lng":139.60823,"zip":"3300851"},{"town":"寿能町二丁目","koaza":"","lat":35.921762,"lng":139.639437,"zip":"3300805"},{"town":"錦町","koaza":"","lat":35.905545,"lng":139.623877,"zip":"3300853"},{"town":"桜木町四丁目","koaza":"","lat":35.900148,"lng":139.617698,"zip":"3300854"},{"town":"三橋二丁目","koaza":"","lat":35.900651,"lng":139.602859,"zip":"3300856"},{"town":"天沼町一丁目","koaza":"","lat":35.907879,"lng":139.643025,"zip":"3300834"},{"town":"天沼町二丁目","koaza":"","lat":35.900505,"lng":139.639633,"zip":"3300834"},{"town":"三橋四丁目","koaza":"","lat":35.893421,"lng":139.6021,"zip":"3300856"},{"town":"上小町","koaza":"","lat":35.900896,"lng":139.611123,"zip":"3300855"},{"town":"三橋一丁目","koaza":"","lat":35.90957,"lng":139.60259,"zip":"3300856"}]