[{"town":"神明二丁目","koaza":"","lat":35.846652,"lng":139.659693,"zip":"3360023"},{"town":"南浦和四丁目","koaza":"","lat":35.840691,"lng":139.677625,"zip":"3360017"},{"town":"関二丁目","koaza":"","lat":35.84983,"lng":139.634718,"zip":"3360038"},{"town":"神明一丁目","koaza":"","lat":35.847515,"lng":139.663733,"zip":"3360023"},{"town":"四谷二丁目","koaza":"","lat":35.84272,"lng":139.637008,"zip":"3360032"},{"town":"鹿手袋二丁目","koaza":"","lat":35.852385,"lng":139.639142,"zip":"3360031"},{"town":"曲本五丁目","koaza":"","lat":35.837703,"lng":139.645171,"zip":"3360033"},{"town":"四谷一丁目","koaza":"","lat":35.839625,"lng":139.634076,"zip":"3360032"},{"town":"根岸四丁目","koaza":"","lat":35.843712,"lng":139.659778,"zip":"3360024"},{"town":"内谷一丁目","koaza":"","lat":35.832419,"lng":139.632529,"zip":"3360034"},{"town":"別所五丁目","koaza":"","lat":35.851777,"lng":139.642004,"zip":"3360021"},{"town":"辻三丁目","koaza":"","lat":35.839306,"lng":139.658,"zip":"3360026"},{"town":"関一丁目","koaza":"","lat":35.85199,"lng":139.635375,"zip":"3360038"},{"town":"鹿手袋五丁目","koaza":"","lat":35.844623,"lng":139.641355,"zip":"3360031"},{"town":"根岸二丁目","koaza":"","lat":35.840864,"lng":139.665656,"zip":"3360024"},{"town":"松本三丁目","koaza":"","lat":35.833777,"lng":139.628362,"zip":"3360035"},{"town":"南本町一丁目","koaza":"","lat":35.845747,"lng":139.668004,"zip":"3360018"},{"town":"四谷三丁目","koaza":"","lat":35.840338,"lng":139.637957,"zip":"3360032"},{"town":"別所六丁目","koaza":"","lat":35.847786,"lng":139.645605,"zip":"3360021"},{"town":"松本四丁目","koaza":"","lat":35.831333,"lng":139.629897,"zip":"3360035"},{"town":"辻五丁目","koaza":"","lat":35.834763,"lng":139.659264,"zip":"3360026"},{"town":"松本二丁目","koaza":"","lat":35.835688,"lng":139.627469,"zip":"3360035"},{"town":"鹿手袋三丁目","koaza":"","lat":35.850349,"lng":139.639111,"zip":"3360031"},{"town":"曲本四丁目","koaza":"","lat":35.837405,"lng":139.640876,"zip":"3360033"},{"town":"松本一丁目","koaza":"","lat":35.837413,"lng":139.626925,"zip":"3360035"},{"town":"鹿手袋一丁目","koaza":"","lat":35.856711,"lng":139.63773,"zip":"3360031"},{"town":"曲本三丁目","koaza":"","lat":35.835671,"lng":139.636974,"zip":"3360033"},{"town":"別所一丁目","koaza":"","lat":35.850933,"lng":139.648812,"zip":"3360021"},{"town":"白幡三丁目","koaza":"","lat":35.845509,"lng":139.653066,"zip":"3360022"},{"town":"白幡一丁目","koaza":"","lat":35.846445,"lng":139.656002,"zip":"3360022"},{"town":"鹿手袋六丁目","koaza":"","lat":35.844904,"lng":139.638281,"zip":"3360031"},{"town":"大字円正寺","koaza":"","lat":35.852142,"lng":139.694477,"zip":"3360000"},{"town":"曲本二丁目","koaza":"","lat":35.837831,"lng":139.635872,"zip":"3360033"},{"town":"文蔵一丁目","koaza":"","lat":35.843312,"lng":139.672054,"zip":"3360025"},{"town":"内谷三丁目","koaza":"","lat":35.83325,"lng":139.6385,"zip":"3360034"},{"town":"内谷二丁目","koaza":"","lat":35.832854,"lng":139.635015,"zip":"3360034"},{"town":"鹿手袋七丁目","koaza":"","lat":35.84658,"lng":139.635813,"zip":"3360031"},{"town":"辻七丁目","koaza":"","lat":35.833755,"lng":139.665731,"zip":"3360026"},{"town":"沼影二丁目","koaza":"","lat":35.84,"lng":139.644481,"zip":"3360027"},{"town":"大谷場二丁目","koaza":"","lat":35.85431,"lng":139.672968,"zip":"3360016"},{"town":"内谷七丁目","koaza":"","lat":35.83404,"lng":139.648924,"zip":"3360034"},{"town":"辻四丁目","koaza":"","lat":35.836613,"lng":139.656464,"zip":"3360026"},{"town":"辻六丁目","koaza":"","lat":35.833159,"lng":139.657343,"zip":"3360026"},{"town":"南本町二丁目","koaza":"","lat":35.848464,"lng":139.666312,"zip":"3360018"},{"town":"内谷六丁目","koaza":"","lat":35.835974,"lng":139.648663,"zip":"3360034"},{"town":"内谷四丁目","koaza":"","lat":35.834895,"lng":139.642598,"zip":"3360034"},{"town":"鹿手袋四丁目","koaza":"","lat":35.848043,"lng":139.639533,"zip":"3360031"},{"town":"根岸一丁目","koaza":"","lat":35.844525,"lng":139.663176,"zip":"3360024"},{"town":"白幡六丁目","koaza":"","lat":35.838578,"lng":139.653359,"zip":"3360022"},{"town":"辻一丁目","koaza":"","lat":35.83741,"lng":139.665792,"zip":"3360026"},{"town":"文蔵五丁目","koaza":"","lat":35.834952,"lng":139.673832,"zip":"3360025"},{"town":"沼影三丁目","koaza":"","lat":35.839205,"lng":139.648604,"zip":"3360027"},{"town":"根岸三丁目","koaza":"","lat":35.840735,"lng":139.662295,"zip":"3360024"},{"town":"根岸五丁目","koaza":"","lat":35.842425,"lng":139.657584,"zip":"3360024"},{"town":"別所三丁目","koaza":"","lat":35.853974,"lng":139.644876,"zip":"3360021"},{"town":"文蔵二丁目","koaza":"","lat":35.842824,"lng":139.668315,"zip":"3360025"},{"town":"内谷五丁目","koaza":"","lat":35.831866,"lng":139.643218,"zip":"3360034"},{"town":"別所七丁目","koaza":"","lat":35.846071,"lng":139.646164,"zip":"3360021"},{"town":"別所四丁目","koaza":"","lat":35.85645,"lng":139.642758,"zip":"3360021"},{"town":"太田窪二丁目","koaza":"","lat":35.861512,"lng":139.669715,"zip":"3360015"},{"town":"文蔵四丁目","koaza":"","lat":35.838439,"lng":139.670039,"zip":"3360025"},{"town":"白幡二丁目","koaza":"","lat":35.848885,"lng":139.653558,"zip":"3360022"},{"town":"太田窪四丁目","koaza":"","lat":35.85848,"lng":139.674253,"zip":"3360015"},{"town":"白幡五丁目","koaza":"","lat":35.84196,"lng":139.649646,"zip":"3360022"},{"town":"別所二丁目","koaza":"","lat":35.849912,"lng":139.646105,"zip":"3360021"},{"town":"白幡四丁目","koaza":"","lat":35.842585,"lng":139.653268,"zip":"3360022"},{"town":"南浦和一丁目","koaza":"","lat":35.852461,"lng":139.669586,"zip":"3360017"},{"town":"曲本一丁目","koaza":"","lat":35.835919,"lng":139.632278,"zip":"3360033"},{"town":"太田窪五丁目","koaza":"","lat":35.855436,"lng":139.676897,"zip":"3360015"},{"town":"辻二丁目","koaza":"","lat":35.836146,"lng":139.662599,"zip":"3360026"},{"town":"辻八丁目","koaza":"","lat":35.831141,"lng":139.662257,"zip":"3360026"},{"town":"文蔵三丁目","koaza":"","lat":35.83955,"lng":139.674479,"zip":"3360025"},{"town":"大谷場一丁目","koaza":"","lat":35.856939,"lng":139.669508,"zip":"3360016"},{"town":"南浦和二丁目","koaza":"","lat":35.849293,"lng":139.670083,"zip":"3360017"},{"town":"沼影一丁目","koaza":"","lat":35.842347,"lng":139.64381,"zip":"3360027"},{"town":"大字広ヶ谷戸","koaza":"","lat":35.861549,"lng":139.686011,"zip":"3360000"},{"town":"大字堤外","koaza":"","lat":35.832876,"lng":139.619656,"zip":"3360000"},{"town":"南浦和三丁目","koaza":"","lat":35.8474,"lng":139.674341,"zip":"3360017"},{"town":"大字太田窪","koaza":"","lat":35.853219,"lng":139.683844,"zip":"3360000"},{"town":"大字大谷口","koaza":"","lat":35.859742,"lng":139.691325,"zip":"3360000"}]