[{"town":"上木崎八丁目","koaza":"","lat":35.891587,"lng":139.647996,"zip":"3300071"},{"town":"北浦和四丁目","koaza":"","lat":35.872342,"lng":139.64415,"zip":"3300074"},{"town":"仲町三丁目","koaza":"","lat":35.859958,"lng":139.648501,"zip":"3300062"},{"town":"高砂二丁目","koaza":"","lat":35.85787,"lng":139.65404,"zip":"3300063"},{"town":"領家二丁目","koaza":"","lat":35.876697,"lng":139.654714,"zip":"3300072"},{"town":"仲町一丁目","koaza":"","lat":35.860862,"lng":139.65448,"zip":"3300062"},{"town":"高砂一丁目","koaza":"","lat":35.858402,"lng":139.65639,"zip":"3300063"},{"town":"前地二丁目","koaza":"","lat":35.856798,"lng":139.663399,"zip":"3300053"},{"town":"大原二丁目","koaza":"","lat":35.891905,"lng":139.650875,"zip":"3300046"},{"town":"岸町六丁目","koaza":"","lat":35.853159,"lng":139.652411,"zip":"3300064"},{"town":"常盤二丁目","koaza":"","lat":35.86529,"lng":139.651556,"zip":"3300061"},{"town":"神明一丁目","koaza":"","lat":35.848776,"lng":139.661869,"zip":"3300065"},{"town":"常盤一丁目","koaza":"","lat":35.862608,"lng":139.652427,"zip":"3300061"},{"town":"瀬ヶ崎三丁目","koaza":"","lat":35.878866,"lng":139.664681,"zip":"3300000"},{"town":"大原一丁目","koaza":"","lat":35.891777,"lng":139.653838,"zip":"3300046"},{"town":"針ヶ谷三丁目","koaza":"","lat":35.883474,"lng":139.642531,"zip":"3300075"},{"town":"岸町七丁目","koaza":"","lat":35.855234,"lng":139.652557,"zip":"3300064"},{"town":"高砂四丁目","koaza":"","lat":35.856968,"lng":139.645867,"zip":"3300063"},{"town":"常盤四丁目","koaza":"","lat":35.862274,"lng":139.648412,"zip":"3300061"},{"town":"仲町二丁目","koaza":"","lat":35.859828,"lng":139.651746,"zip":"3300062"},{"town":"瀬ヶ崎二丁目","koaza":"","lat":35.878965,"lng":139.660138,"zip":"3300000"},{"town":"岸町二丁目","koaza":"","lat":35.850687,"lng":139.658095,"zip":"3300064"},{"town":"岸町一丁目","koaza":"","lat":35.852232,"lng":139.662423,"zip":"3300064"},{"town":"上木崎五丁目","koaza":"","lat":35.888452,"lng":139.646912,"zip":"3300071"},{"town":"常盤八丁目","koaza":"","lat":35.864649,"lng":139.641751,"zip":"3300061"},{"town":"瀬ヶ崎五丁目","koaza":"","lat":35.874383,"lng":139.664949,"zip":"3300000"},{"town":"上木崎七丁目","koaza":"","lat":35.889439,"lng":139.650354,"zip":"3300071"},{"town":"前地一丁目","koaza":"","lat":35.855712,"lng":139.665471,"zip":"3300053"},{"town":"神明二丁目","koaza":"","lat":35.848453,"lng":139.65909,"zip":"3300065"},{"town":"元町三丁目","koaza":"","lat":35.874429,"lng":139.652092,"zip":"3300073"},{"town":"前地三丁目","koaza":"","lat":35.860088,"lng":139.664966,"zip":"3300053"},{"town":"岸町五丁目","koaza":"","lat":35.851383,"lng":139.65231,"zip":"3300064"},{"town":"大原五丁目","koaza":"","lat":35.899641,"lng":139.645913,"zip":"3300046"},{"town":"領家一丁目","koaza":"","lat":35.874345,"lng":139.656895,"zip":"3300072"},{"town":"瀬ヶ崎一丁目","koaza":"","lat":35.875612,"lng":139.661047,"zip":"3300000"},{"town":"針ヶ谷二丁目","koaza":"","lat":35.881682,"lng":139.643711,"zip":"3300075"},{"town":"常盤七丁目","koaza":"","lat":35.865716,"lng":139.644788,"zip":"3300061"},{"town":"北浦和一丁目","koaza":"","lat":35.874331,"lng":139.647825,"zip":"3300074"},{"town":"常盤五丁目","koaza":"","lat":35.864959,"lng":139.648288,"zip":"3300061"},{"town":"木崎三丁目","koaza":"","lat":35.889555,"lng":139.655449,"zip":"3300042"},{"town":"木崎一丁目","koaza":"","lat":35.885068,"lng":139.660885,"zip":"3300042"},{"town":"駒場一丁目","koaza":"","lat":35.87047,"lng":139.661502,"zip":"3300051"},{"town":"仲町四丁目","koaza":"","lat":35.859526,"lng":139.643699,"zip":"3300062"},{"town":"瀬ヶ崎四丁目","koaza":"","lat":35.876241,"lng":139.665038,"zip":"3300000"},{"town":"領家六丁目","koaza":"","lat":35.879357,"lng":139.649428,"zip":"3300072"},{"town":"領家三丁目","koaza":"","lat":35.876525,"lng":139.658164,"zip":"3300072"},{"town":"北浦和三丁目","koaza":"","lat":35.874784,"lng":139.644605,"zip":"3300074"},{"town":"領家五丁目","koaza":"","lat":35.878674,"lng":139.652955,"zip":"3300072"},{"town":"岸町三丁目","koaza":"","lat":35.853035,"lng":139.658001,"zip":"3300064"},{"town":"上木崎四丁目","koaza":"","lat":35.885536,"lng":139.644993,"zip":"3300071"},{"town":"大原四丁目","koaza":"","lat":35.897585,"lng":139.647856,"zip":"3300046"},{"town":"領家四丁目","koaza":"","lat":35.881323,"lng":139.654786,"zip":"3300072"},{"town":"常盤三丁目","koaza":"","lat":35.868882,"lng":139.649261,"zip":"3300061"},{"town":"東高砂町","koaza":"","lat":35.857958,"lng":139.659645,"zip":"3300055"},{"town":"針ヶ谷一丁目","koaza":"","lat":35.879693,"lng":139.643595,"zip":"3300075"},{"town":"上木崎二丁目","koaza":"","lat":35.887523,"lng":139.639998,"zip":"3300071"},{"town":"大東二丁目","koaza":"","lat":35.881974,"lng":139.662826,"zip":"3300043"},{"town":"大東三丁目","koaza":"","lat":35.881573,"lng":139.66657,"zip":"3300043"},{"town":"岸町四丁目","koaza":"","lat":35.855215,"lng":139.657268,"zip":"3300064"},{"town":"東仲町","koaza":"","lat":35.860866,"lng":139.658417,"zip":"3300056"},{"town":"常盤十丁目","koaza":"","lat":35.87155,"lng":139.63989,"zip":"3300061"},{"town":"皇山町","koaza":"","lat":35.885852,"lng":139.653666,"zip":"3300045"},{"town":"北浦和二丁目","koaza":"","lat":35.877467,"lng":139.647192,"zip":"3300074"},{"town":"本太四丁目","koaza":"","lat":35.867478,"lng":139.657414,"zip":"3300052"},{"town":"木崎二丁目","koaza":"","lat":35.886026,"lng":139.657814,"zip":"3300042"},{"town":"木崎四丁目","koaza":"","lat":35.888542,"lng":139.660206,"zip":"3300042"},{"town":"上木崎三丁目","koaza":"","lat":35.88996,"lng":139.642494,"zip":"3300071"},{"town":"木崎五丁目","koaza":"","lat":35.88631,"lng":139.663485,"zip":"3300042"},{"town":"東岸町","koaza":"","lat":35.854235,"lng":139.662802,"zip":"3300054"},{"town":"本太五丁目","koaza":"","lat":35.86761,"lng":139.661761,"zip":"3300052"},{"town":"上木崎六丁目","koaza":"","lat":35.885534,"lng":139.649993,"zip":"3300071"},{"town":"本太三丁目","koaza":"","lat":35.865911,"lng":139.654086,"zip":"3300052"},{"town":"本太二丁目","koaza":"","lat":35.862925,"lng":139.657937,"zip":"3300052"},{"town":"常盤六丁目","koaza":"","lat":35.861675,"lng":139.643489,"zip":"3300061"},{"town":"上木崎一丁目","koaza":"","lat":35.886622,"lng":139.637589,"zip":"3300071"},{"town":"駒場二丁目","koaza":"","lat":35.871685,"lng":139.66465,"zip":"3300051"},{"town":"領家七丁目","koaza":"","lat":35.882678,"lng":139.649321,"zip":"3300072"},{"town":"高砂三丁目","koaza":"","lat":35.856701,"lng":139.650144,"zip":"3300063"},{"town":"大東一丁目","koaza":"","lat":35.881845,"lng":139.65878,"zip":"3300043"},{"town":"大原三丁目","koaza":"","lat":35.894301,"lng":139.649149,"zip":"3300046"},{"town":"針ヶ谷四丁目","koaza":"","lat":35.879555,"lng":139.63909,"zip":"3300075"},{"town":"北浦和五丁目","koaza":"","lat":35.875079,"lng":139.640354,"zip":"3300074"},{"town":"常盤九丁目","koaza":"","lat":35.8695,"lng":139.644913,"zip":"3300061"},{"town":"元町二丁目","koaza":"","lat":35.872634,"lng":139.653797,"zip":"3300073"},{"town":"本太一丁目","koaza":"","lat":35.86308,"lng":139.663079,"zip":"3300052"},{"town":"元町一丁目","koaza":"","lat":35.870254,"lng":139.654824,"zip":"3300073"},{"town":"大字三崎","koaza":"","lat":35.892378,"lng":139.659492,"zip":"3300000"}]