[{"town":"大字平方領々家","koaza":"","lat":35.924498,"lng":139.562208,"zip":"3310000"},{"town":"大字峰岸","koaza":"","lat":35.930675,"lng":139.55671,"zip":"3310000"},{"town":"大字指扇領辻","koaza":"","lat":35.929725,"lng":139.558552,"zip":"3310000"},{"town":"湯木町一丁目","koaza":"","lat":35.894772,"lng":139.555176,"zip":"3310069"},{"town":"大字植田谷本村新田","koaza":"","lat":35.892473,"lng":139.561824,"zip":"3310000"},{"town":"湯木町二丁目","koaza":"","lat":35.898112,"lng":139.554108,"zip":"3310069"},{"town":"塚本町一丁目","koaza":"","lat":35.88064,"lng":139.562086,"zip":"3310060"},{"town":"大字指扇領別所","koaza":"","lat":35.920966,"lng":139.567916,"zip":"3310000"},{"town":"プラザ","koaza":"","lat":35.907541,"lng":139.578207,"zip":"3310063"},{"town":"大字水判土","koaza":"","lat":35.899736,"lng":139.593336,"zip":"3310000"},{"town":"塚本町三丁目","koaza":"","lat":35.873896,"lng":139.565408,"zip":"3310060"},{"town":"大字飯田","koaza":"","lat":35.897075,"lng":139.586835,"zip":"3310000"},{"town":"大字塚本","koaza":"","lat":35.876907,"lng":139.570511,"zip":"3310000"},{"town":"塚本町二丁目","koaza":"","lat":35.876704,"lng":139.563659,"zip":"3310060"},{"town":"大字土屋","koaza":"","lat":35.911,"lng":139.57023,"zip":"3310000"},{"town":"大字三条町","koaza":"","lat":35.887092,"lng":139.586951,"zip":"3310000"},{"town":"大字昭和","koaza":"","lat":35.883919,"lng":139.576179,"zip":"3310000"},{"town":"大字西新井","koaza":"","lat":35.941418,"lng":139.586906,"zip":"3310000"},{"town":"大字内野本郷","koaza":"","lat":35.935142,"lng":139.592301,"zip":"3310000"},{"town":"大字植田谷本","koaza":"","lat":35.89044,"lng":139.591449,"zip":"3310000"},{"town":"大字中野林","koaza":"","lat":35.892519,"lng":139.588012,"zip":"3310000"},{"town":"大字飯田新田","koaza":"","lat":35.886947,"lng":139.555376,"zip":"3310000"},{"town":"大字佐知川","koaza":"","lat":35.902849,"lng":139.583395,"zip":"3310000"},{"town":"三橋五丁目","koaza":"","lat":35.907451,"lng":139.593922,"zip":"3310052"},{"town":"大字島根","koaza":"","lat":35.883134,"lng":139.591895,"zip":"3310000"},{"town":"大字清河寺","koaza":"","lat":35.934798,"lng":139.584113,"zip":"3310000"},{"town":"三橋六丁目","koaza":"","lat":35.917037,"lng":139.590043,"zip":"3310052"},{"town":"宮前町","koaza":"","lat":35.926125,"lng":139.5899,"zip":"3310046"},{"town":"大字宝来","koaza":"","lat":35.925786,"lng":139.555998,"zip":"3310000"},{"town":"大字中釘","koaza":"","lat":35.935582,"lng":139.568156,"zip":"3310000"},{"town":"大字高木","koaza":"","lat":35.939167,"lng":139.576892,"zip":"3310000"},{"town":"大字指扇","koaza":"","lat":35.914041,"lng":139.579368,"zip":"3310000"},{"town":"大字二ツ宮","koaza":"","lat":35.890494,"lng":139.569985,"zip":"3310000"},{"town":"大字西遊馬","koaza":"","lat":35.906818,"lng":139.561443,"zip":"3310000"},{"town":"西大宮一丁目","koaza":"","lat":35.922859,"lng":139.57716,"zip":"3310078"},{"town":"西大宮三丁目","koaza":"","lat":35.928248,"lng":139.578974,"zip":"3310078"},{"town":"西大宮二丁目","koaza":"","lat":35.927905,"lng":139.573189,"zip":"3310078"},{"town":"西大宮四丁目","koaza":"","lat":35.933751,"lng":139.57702,"zip":"3310078"}]