[{"town":"大字大谷口","koaza":"","lat":35.864719,"lng":139.692584,"zip":"3360900"},{"town":"東大門一丁目","koaza":"","lat":35.882769,"lng":139.736808,"zip":"3360964"},{"town":"山崎一丁目","koaza":"","lat":35.889399,"lng":139.664416,"zip":"3360903"},{"town":"東大門二丁目","koaza":"","lat":35.883327,"lng":139.739261,"zip":"3360964"},{"town":"大字玄蕃新田","koaza":"","lat":35.890607,"lng":139.714502,"zip":"3360900"},{"town":"道祖土二丁目","koaza":"","lat":35.881228,"lng":139.668922,"zip":"3360907"},{"town":"宮本一丁目","koaza":"","lat":35.888728,"lng":139.691672,"zip":"3360916"},{"town":"道祖土三丁目","koaza":"","lat":35.878319,"lng":139.671457,"zip":"3360907"},{"town":"東大門三丁目","koaza":"","lat":35.884155,"lng":139.741833,"zip":"3360964"},{"town":"道祖土一丁目","koaza":"","lat":35.876885,"lng":139.668954,"zip":"3360907"},{"town":"大字蓮見新田","koaza":"","lat":35.870124,"lng":139.710744,"zip":"3360900"},{"town":"松木二丁目","koaza":"","lat":35.883195,"lng":139.686977,"zip":"3360918"},{"town":"東浦和九丁目","koaza":"","lat":35.870347,"lng":139.694335,"zip":"3360926"},{"town":"東浦和八丁目","koaza":"","lat":35.869642,"lng":139.696183,"zip":"3360926"},{"town":"東浦和一丁目","koaza":"","lat":35.863669,"lng":139.703083,"zip":"3360926"},{"town":"道祖土四丁目","koaza":"","lat":35.875862,"lng":139.672937,"zip":"3360907"},{"town":"太田窪三丁目","koaza":"","lat":35.862983,"lng":139.673528,"zip":"3360936"},{"town":"宮本二丁目","koaza":"","lat":35.887349,"lng":139.692635,"zip":"3360916"},{"town":"馬場一丁目","koaza":"","lat":35.888259,"lng":139.682246,"zip":"3360912"},{"town":"松木一丁目","koaza":"","lat":35.881279,"lng":139.683775,"zip":"3360918"},{"town":"芝原一丁目","koaza":"","lat":35.87973,"lng":139.687766,"zip":"3360917"},{"town":"芝原二丁目","koaza":"","lat":35.882133,"lng":139.692971,"zip":"3360917"},{"town":"原山三丁目","koaza":"","lat":35.872772,"lng":139.674416,"zip":"3360931"},{"town":"松木三丁目","koaza":"","lat":35.884702,"lng":139.68977,"zip":"3360918"},{"town":"東浦和六丁目","koaza":"","lat":35.872103,"lng":139.706375,"zip":"3360926"},{"town":"東浦和三丁目","koaza":"","lat":35.865831,"lng":139.697747,"zip":"3360926"},{"town":"馬場二丁目","koaza":"","lat":35.888674,"lng":139.687413,"zip":"3360912"},{"town":"東浦和四丁目","koaza":"","lat":35.867603,"lng":139.700753,"zip":"3360926"},{"town":"大字大道","koaza":"","lat":35.893753,"lng":139.672017,"zip":"3360900"},{"town":"東浦和五丁目","koaza":"","lat":35.866019,"lng":139.705614,"zip":"3360926"},{"town":"芝原三丁目","koaza":"","lat":35.878825,"lng":139.695393,"zip":"3360917"},{"town":"太田窪一丁目","koaza":"","lat":35.864844,"lng":139.66756,"zip":"3360936"},{"town":"東浦和七丁目","koaza":"","lat":35.871685,"lng":139.702461,"zip":"3360926"},{"town":"大字北原","koaza":"","lat":35.884182,"lng":139.718029,"zip":"3360900"},{"town":"大字宮後","koaza":"","lat":35.892674,"lng":139.695485,"zip":"3360900"},{"town":"原山一丁目","koaza":"","lat":35.867217,"lng":139.671917,"zip":"3360931"},{"town":"東浦和二丁目","koaza":"","lat":35.861592,"lng":139.698114,"zip":"3360926"},{"town":"原山二丁目","koaza":"","lat":35.871163,"lng":139.669341,"zip":"3360931"},{"town":"原山四丁目","koaza":"","lat":35.869204,"lng":139.676195,"zip":"3360931"},{"town":"大字大牧","koaza":"","lat":35.875004,"lng":139.70928,"zip":"3360900"},{"town":"大字代山","koaza":"","lat":35.902443,"lng":139.707433,"zip":"3360900"},{"town":"大字新宿","koaza":"","lat":35.892458,"lng":139.684084,"zip":"3360900"},{"town":"大字三浦","koaza":"","lat":35.897046,"lng":139.665267,"zip":"3360900"},{"town":"大字下山口新田","koaza":"","lat":35.870578,"lng":139.717501,"zip":"3360900"},{"town":"大字大間木","koaza":"","lat":35.864834,"lng":139.711109,"zip":"3360900"},{"town":"大字間宮","koaza":"","lat":35.881186,"lng":139.722806,"zip":"3360900"},{"town":"大字上野田","koaza":"","lat":35.908902,"lng":139.698037,"zip":"3360900"},{"town":"大字見沼","koaza":"","lat":35.883552,"lng":139.699546,"zip":"3360900"},{"town":"大字南部領辻","koaza":"","lat":35.896485,"lng":139.704832,"zip":"3360900"},{"town":"大字大崎","koaza":"","lat":35.886733,"lng":139.710975,"zip":"3360900"},{"town":"大字中尾","koaza":"","lat":35.872157,"lng":139.684591,"zip":"3360900"},{"town":"大字三室","koaza":"","lat":35.884795,"lng":139.676119,"zip":"3360900"},{"town":"大字高畑","koaza":"","lat":35.910509,"lng":139.707479,"zip":"3360900"},{"town":"大字寺山","koaza":"","lat":35.906207,"lng":139.708605,"zip":"3360900"},{"town":"美園一丁目","koaza":"","lat":35.907416,"lng":139.714359,"zip":"3360967"},{"town":"大字中野田","koaza":"","lat":35.899683,"lng":139.717066,"zip":"3360900"},{"town":"美園二丁目","koaza":"","lat":35.903103,"lng":139.719633,"zip":"3360967"},{"town":"美園三丁目","koaza":"","lat":35.899402,"lng":139.726452,"zip":"3360967"},{"town":"大字大門","koaza":"","lat":35.882475,"lng":139.731082,"zip":"3360900"},{"town":"美園六丁目","koaza":"","lat":35.887411,"lng":139.737051,"zip":"3360967"},{"town":"大字下野田","koaza":"","lat":35.892697,"lng":139.725152,"zip":"3360900"},{"town":"美園四丁目","koaza":"","lat":35.895993,"lng":139.729774,"zip":"3360967"},{"town":"美園五丁目","koaza":"","lat":35.891972,"lng":139.733213,"zip":"3360967"},{"town":"大間木三丁目","koaza":"","lat":35.876697,"lng":139.689744,"zip":"3360923"},{"town":"大間木二丁目","koaza":"","lat":35.874673,"lng":139.692368,"zip":"3360923"}]