[{"town":"花ノ木二丁目","koaza":"","lat":35.878091,"lng":139.532605,"zip":"3560015"},{"town":"谷田一丁目","koaza":"","lat":35.873933,"lng":139.536069,"zip":"3560024"},{"town":"花ノ木一丁目","koaza":"","lat":35.876786,"lng":139.532461,"zip":"3560015"},{"town":"清見四丁目","koaza":"","lat":35.884778,"lng":139.520924,"zip":"3560002"},{"town":"池上","koaza":"","lat":35.87148,"lng":139.533199,"zip":"3560019"},{"town":"川崎一丁目","koaza":"","lat":35.884381,"lng":139.518632,"zip":"3560001"},{"town":"松山一丁目","koaza":"","lat":35.872859,"lng":139.525892,"zip":"3560027"},{"town":"本新田","koaza":"","lat":35.871245,"lng":139.53038,"zip":"3560018"},{"town":"中丸二丁目","koaza":"","lat":35.878942,"lng":139.531378,"zip":"3560016"},{"town":"川崎二丁目","koaza":"","lat":35.88586,"lng":139.520878,"zip":"3560001"},{"town":"上ノ原二丁目","koaza":"","lat":35.876998,"lng":139.52524,"zip":"3560021"},{"town":"仲三丁目","koaza":"","lat":35.872633,"lng":139.535397,"zip":"3560025"},{"town":"築地二丁目","koaza":"","lat":35.873491,"lng":139.530454,"zip":"3560026"},{"town":"仲二丁目","koaza":"","lat":35.872541,"lng":139.53323,"zip":"3560025"},{"town":"中ノ島一丁目","koaza":"","lat":35.875169,"lng":139.532419,"zip":"3560023"},{"town":"仲一丁目","koaza":"","lat":35.874025,"lng":139.533123,"zip":"3560025"},{"town":"築地一丁目","koaza":"","lat":35.874859,"lng":139.530392,"zip":"3560026"},{"town":"上ノ原三丁目","koaza":"","lat":35.875929,"lng":139.526163,"zip":"3560021"},{"town":"松山二丁目","koaza":"","lat":35.873064,"lng":139.527972,"zip":"3560027"},{"town":"新駒林四丁目","koaza":"","lat":35.870085,"lng":139.528935,"zip":"3560030"},{"town":"谷田二丁目","koaza":"","lat":35.873187,"lng":139.537653,"zip":"3560024"},{"town":"水宮","koaza":"","lat":35.872027,"lng":139.537891,"zip":"3560020"},{"town":"中丸一丁目","koaza":"","lat":35.876887,"lng":139.531233,"zip":"3560016"},{"town":"長宮一丁目","koaza":"","lat":35.875775,"lng":139.529182,"zip":"3560022"},{"town":"清見三丁目","koaza":"","lat":35.883657,"lng":139.520115,"zip":"3560002"},{"town":"新駒林一丁目","koaza":"","lat":35.86898,"lng":139.524618,"zip":"3560030"},{"town":"駒西一丁目","koaza":"","lat":35.866556,"lng":139.519156,"zip":"3560029"},{"town":"上ノ原一丁目","koaza":"","lat":35.875292,"lng":139.523932,"zip":"3560021"},{"town":"清見一丁目","koaza":"","lat":35.881497,"lng":139.518187,"zip":"3560002"},{"town":"長宮二丁目","koaza":"","lat":35.877295,"lng":139.528533,"zip":"3560022"},{"town":"滝二丁目","koaza":"","lat":35.878347,"lng":139.527973,"zip":"3560012"},{"town":"築地三丁目","koaza":"","lat":35.872492,"lng":139.530467,"zip":"3560026"},{"town":"福岡武蔵野","koaza":"","lat":35.866957,"lng":139.512011,"zip":"3560037"},{"town":"清見二丁目","koaza":"","lat":35.882473,"lng":139.519304,"zip":"3560002"},{"town":"上野台三丁目","koaza":"","lat":35.875315,"lng":139.521569,"zip":"3560017"},{"town":"霞ケ丘三丁目","koaza":"","lat":35.8764,"lng":139.508382,"zip":"3560006"},{"town":"西原一丁目","koaza":"","lat":35.873714,"lng":139.524272,"zip":"3560028"},{"town":"鶴ケ舞二丁目","koaza":"","lat":35.867494,"lng":139.510753,"zip":"3560041"},{"town":"元福岡一丁目","koaza":"","lat":35.883343,"lng":139.515186,"zip":"3560008"},{"town":"ふじみ野四丁目","koaza":"","lat":35.858991,"lng":139.516335,"zip":"3560050"},{"town":"滝三丁目","koaza":"","lat":35.879956,"lng":139.529976,"zip":"3560012"},{"town":"福岡中央一丁目","koaza":"","lat":35.873483,"lng":139.521661,"zip":"3560031"},{"town":"西原二丁目","koaza":"","lat":35.874663,"lng":139.526968,"zip":"3560028"},{"town":"新田二丁目","koaza":"","lat":35.871404,"lng":139.526666,"zip":"3560033"},{"town":"滝一丁目","koaza":"","lat":35.879319,"lng":139.526699,"zip":"3560012"},{"town":"霞ケ丘二丁目","koaza":"","lat":35.874096,"lng":139.507182,"zip":"3560006"},{"town":"新駒林三丁目","koaza":"","lat":35.869741,"lng":139.526806,"zip":"3560030"},{"town":"駒西三丁目","koaza":"","lat":35.867628,"lng":139.522717,"zip":"3560029"},{"town":"苗間一丁目","koaza":"","lat":35.85782,"lng":139.521641,"zip":"3560052"},{"town":"上福岡二丁目","koaza":"","lat":35.87419,"lng":139.51663,"zip":"3560004"},{"town":"元福岡二丁目","koaza":"","lat":35.884161,"lng":139.516397,"zip":"3560008"},{"town":"桜ケ丘二丁目","koaza":"","lat":35.851625,"lng":139.507991,"zip":"3560059"},{"town":"市沢二丁目","koaza":"","lat":35.853604,"lng":139.5236,"zip":"3560057"},{"town":"ふじみ野三丁目","koaza":"","lat":35.861062,"lng":139.516037,"zip":"3560050"},{"town":"鶴ケ舞三丁目","koaza":"","lat":35.868944,"lng":139.506158,"zip":"3560041"},{"town":"市沢三丁目","koaza":"","lat":35.853338,"lng":139.526016,"zip":"3560057"},{"town":"亀久保一丁目","koaza":"","lat":35.857328,"lng":139.509762,"zip":"3560051"},{"town":"福岡三丁目","koaza":"","lat":35.884274,"lng":139.5231,"zip":"3560011"},{"town":"新田一丁目","koaza":"","lat":35.869559,"lng":139.522721,"zip":"3560033"},{"town":"霞ケ丘一丁目","koaza":"","lat":35.873847,"lng":139.5102,"zip":"3560006"},{"town":"南台二丁目","koaza":"","lat":35.866578,"lng":139.516038,"zip":"3560036"},{"town":"北野一丁目","koaza":"","lat":35.877028,"lng":139.510643,"zip":"3560007"},{"town":"緑ケ丘一丁目","koaza":"","lat":35.859157,"lng":139.499728,"zip":"3560043"},{"town":"旭一丁目","koaza":"","lat":35.855928,"lng":139.517958,"zip":"3560055"},{"town":"上福岡六丁目","koaza":"","lat":35.870999,"lng":139.51,"zip":"3560004"},{"town":"元福岡三丁目","koaza":"","lat":35.886854,"lng":139.515957,"zip":"3560008"},{"town":"大井中央四丁目","koaza":"","lat":35.860773,"lng":139.504115,"zip":"3560058"},{"town":"大井一丁目","koaza":"","lat":35.851462,"lng":139.517727,"zip":"3560053"},{"town":"東久保一丁目","koaza":"","lat":35.864153,"lng":139.51338,"zip":"3560042"},{"town":"上野台二丁目","koaza":"","lat":35.876484,"lng":139.52009,"zip":"3560017"},{"town":"うれし野一丁目","koaza":"","lat":35.854506,"lng":139.519169,"zip":"3560056"},{"town":"丸山","koaza":"","lat":35.865442,"lng":139.517455,"zip":"3560035"},{"town":"大井中央三丁目","koaza":"","lat":35.859569,"lng":139.504895,"zip":"3560058"},{"town":"桜ケ丘一丁目","koaza":"","lat":35.854067,"lng":139.506878,"zip":"3560059"},{"town":"富士見台","koaza":"","lat":35.871379,"lng":139.522574,"zip":"3560032"},{"town":"上福岡四丁目","koaza":"","lat":35.86987,"lng":139.513884,"zip":"3560004"},{"town":"大井中央二丁目","koaza":"","lat":35.858177,"lng":139.505531,"zip":"3560058"},{"town":"福岡中央二丁目","koaza":"","lat":35.87145,"lng":139.518809,"zip":"3560031"},{"town":"市沢一丁目","koaza":"","lat":35.855363,"lng":139.524821,"zip":"3560057"},{"town":"鶴ケ舞一丁目","koaza":"","lat":35.865743,"lng":139.51284,"zip":"3560041"},{"town":"鶴ケ岡四丁目","koaza":"","lat":35.867714,"lng":139.500622,"zip":"3560045"},{"town":"北野二丁目","koaza":"","lat":35.879623,"lng":139.512299,"zip":"3560007"},{"town":"上野台一丁目","koaza":"","lat":35.875802,"lng":139.51775,"zip":"3560017"},{"town":"ふじみ野一丁目","koaza":"","lat":35.858636,"lng":139.514467,"zip":"3560050"},{"town":"西鶴ケ岡","koaza":"","lat":35.861936,"lng":139.494719,"zip":"3560044"},{"town":"亀久保二丁目","koaza":"","lat":35.862093,"lng":139.507722,"zip":"3560051"},{"town":"上福岡五丁目","koaza":"","lat":35.869843,"lng":139.511132,"zip":"3560004"},{"town":"うれし野二丁目","koaza":"","lat":35.856534,"lng":139.522768,"zip":"3560056"},{"town":"西二丁目","koaza":"","lat":35.872239,"lng":139.505843,"zip":"3560005"},{"town":"大原二丁目","koaza":"","lat":35.880093,"lng":139.517025,"zip":"3560003"},{"town":"上福岡三丁目","koaza":"","lat":35.871056,"lng":139.515774,"zip":"3560004"},{"town":"鶴ケ岡一丁目","koaza":"","lat":35.865054,"lng":139.503695,"zip":"3560045"},{"town":"南台一丁目","koaza":"","lat":35.868934,"lng":139.518439,"zip":"3560036"},{"town":"緑ケ丘二丁目","koaza":"","lat":35.860487,"lng":139.499039,"zip":"3560043"},{"town":"亀久保三丁目","koaza":"","lat":35.86196,"lng":139.509947,"zip":"3560051"},{"town":"西鶴ケ岡二丁目","koaza":"","lat":35.862398,"lng":139.498186,"zip":"3560044"},{"town":"桜ケ丘三丁目","koaza":"","lat":35.851103,"lng":139.505254,"zip":"3560059"},{"town":"亀久保四丁目","koaza":"","lat":35.858214,"lng":139.511838,"zip":"3560051"},{"town":"西一丁目","koaza":"","lat":35.869929,"lng":139.50741,"zip":"3560005"},{"town":"鶴ケ岡三丁目","koaza":"","lat":35.869554,"lng":139.503261,"zip":"3560045"},{"town":"大原一丁目","koaza":"","lat":35.877703,"lng":139.515179,"zip":"3560003"},{"town":"福岡一丁目","koaza":"","lat":35.87842,"lng":139.52111,"zip":"3560011"},{"town":"大井中央一丁目","koaza":"","lat":35.856637,"lng":139.506812,"zip":"3560058"},{"town":"鶴ケ岡五丁目","koaza":"","lat":35.864985,"lng":139.497,"zip":"3560045"},{"town":"鶴ケ岡二丁目","koaza":"","lat":35.867099,"lng":139.50553,"zip":"3560045"},{"town":"大井二丁目","koaza":"","lat":35.851891,"lng":139.520362,"zip":"3560053"},{"town":"西鶴ケ岡一丁目","koaza":"","lat":35.863015,"lng":139.503094,"zip":"3560044"},{"town":"上福岡一丁目","koaza":"","lat":35.874774,"lng":139.513174,"zip":"3560004"},{"town":"ふじみ野二丁目","koaza":"","lat":35.862519,"lng":139.514486,"zip":"3560050"},{"town":"福岡二丁目","koaza":"","lat":35.88103,"lng":139.52378,"zip":"3560011"},{"town":"中福岡","koaza":"","lat":35.876813,"lng":139.53468,"zip":"3560013"},{"town":"福岡新田","koaza":"","lat":35.874329,"lng":139.540551,"zip":"3560014"},{"town":"川崎","koaza":"","lat":35.888778,"lng":139.520411,"zip":"3560001"},{"town":"苗間","koaza":"","lat":35.859544,"lng":139.529208,"zip":"3560052"},{"town":"福岡","koaza":"","lat":35.875405,"lng":139.54648,"zip":"3560011"},{"town":"大井","koaza":"","lat":35.848487,"lng":139.518173,"zip":"3560053"},{"town":"亀久保","koaza":"","lat":35.857274,"lng":139.488147,"zip":"3560051"},{"town":"大井武蔵野","koaza":"","lat":35.853422,"lng":139.495936,"zip":"3560054"},{"town":"駒西二丁目","koaza":"","lat":35.867178,"lng":139.520733,"zip":"3560029"},{"town":"駒林元町四丁目","koaza":"","lat":35.864928,"lng":139.520731,"zip":"3560038"},{"town":"駒林元町三丁目","koaza":"","lat":35.865596,"lng":139.523441,"zip":"3560038"},{"town":"新駒林二丁目","koaza":"","lat":35.86792,"lng":139.526463,"zip":"3560030"},{"town":"駒林元町二丁目","koaza":"","lat":35.866386,"lng":139.52554,"zip":"3560038"},{"town":"駒林","koaza":"","lat":35.868486,"lng":139.534915,"zip":"3560034"},{"town":"駒林元町一丁目","koaza":"","lat":35.866996,"lng":139.527697,"zip":"3560038"}]