[{"town":"鎌倉","koaza":"","lat":35.7951,"lng":139.863958,"zip":"3410046"},{"town":"彦沢","koaza":"","lat":35.834422,"lng":139.873106,"zip":"3410057"},{"town":"丹後","koaza":"","lat":35.859198,"lng":139.891073,"zip":"3410017"},{"town":"彦糸三丁目","koaza":"","lat":35.861416,"lng":139.850043,"zip":"3410001"},{"town":"彦野","koaza":"","lat":35.844867,"lng":139.862837,"zip":"3410052"},{"town":"采女新田","koaza":"","lat":35.864129,"lng":139.863698,"zip":"3410000"},{"town":"彦成","koaza":"","lat":35.859509,"lng":139.879898,"zip":"3410003"},{"town":"下彦川戸","koaza":"","lat":35.849058,"lng":139.864884,"zip":"3410007"},{"town":"彦音一丁目","koaza":"","lat":35.855546,"lng":139.843046,"zip":"3410002"},{"town":"上彦川戸","koaza":"","lat":35.849825,"lng":139.8631,"zip":"3410006"},{"town":"戸ヶ崎五丁目","koaza":"","lat":35.79818,"lng":139.859365,"zip":"3410000"},{"town":"番匠免","koaza":"","lat":35.838138,"lng":139.872181,"zip":"3410056"},{"town":"寄巻","koaza":"","lat":35.796381,"lng":139.865061,"zip":"3410045"},{"town":"仁蔵","koaza":"","lat":35.847365,"lng":139.877886,"zip":"3410023"},{"town":"さつき平二丁目","koaza":"","lat":35.851337,"lng":139.8656,"zip":"3410021"},{"town":"笹塚","koaza":"","lat":35.841627,"lng":139.872619,"zip":"3410027"},{"town":"彦音二丁目","koaza":"","lat":35.856518,"lng":139.8487,"zip":"3410002"},{"town":"三郷二丁目","koaza":"","lat":35.843811,"lng":139.88396,"zip":"3410024"},{"town":"さつき平一丁目","koaza":"","lat":35.850921,"lng":139.86868,"zip":"3410021"},{"town":"新三郷ららシティ一丁目","koaza":"","lat":35.851985,"lng":139.875521,"zip":"3410009"},{"town":"三郷三丁目","koaza":"","lat":35.846274,"lng":139.880673,"zip":"3410024"},{"town":"早稲田八丁目","koaza":"","lat":35.859476,"lng":139.885569,"zip":"3410018"},{"town":"戸ヶ崎四丁目","koaza":"","lat":35.798058,"lng":139.865971,"zip":"3410000"},{"town":"早稲田二丁目","koaza":"","lat":35.84844,"lng":139.882877,"zip":"3410018"},{"town":"早稲田四丁目","koaza":"","lat":35.852172,"lng":139.880948,"zip":"3410018"},{"town":"彦沢一丁目","koaza":"","lat":35.82942,"lng":139.851943,"zip":"3410057"},{"town":"彦糸一丁目","koaza":"","lat":35.857963,"lng":139.842671,"zip":"3410001"},{"town":"彦野一丁目","koaza":"","lat":35.841343,"lng":139.84822,"zip":"3410052"},{"town":"早稲田五丁目","koaza":"","lat":35.854741,"lng":139.881706,"zip":"3410018"},{"town":"新三郷ららシティ二丁目","koaza":"","lat":35.856389,"lng":139.869852,"zip":"3410009"},{"town":"早稲田六丁目","koaza":"","lat":35.857167,"lng":139.883574,"zip":"3410018"},{"town":"前間","koaza":"","lat":35.863376,"lng":139.891281,"zip":"3410015"},{"town":"新和五丁目","koaza":"","lat":35.810105,"lng":139.88055,"zip":"3410034"},{"town":"高州四丁目","koaza":"","lat":35.784008,"lng":139.88455,"zip":"3410037"},{"town":"彦糸二丁目","koaza":"","lat":35.859245,"lng":139.848305,"zip":"3410001"},{"town":"岩野木","koaza":"","lat":35.833053,"lng":139.886149,"zip":"3410031"},{"town":"采女一丁目","koaza":"","lat":35.860056,"lng":139.861341,"zip":"3410011"},{"town":"新三郷ららシティ三丁目","koaza":"","lat":35.860766,"lng":139.864775,"zip":"3410009"},{"town":"栄五丁目","koaza":"","lat":35.808199,"lng":139.873111,"zip":"3410043"},{"town":"後谷","koaza":"","lat":35.862373,"lng":139.883208,"zip":"3410014"},{"town":"彦成一丁目","koaza":"","lat":35.852735,"lng":139.8437,"zip":"3410003"},{"town":"彦倉一丁目","koaza":"","lat":35.838438,"lng":139.848297,"zip":"3410053"},{"town":"早稲田一丁目","koaza":"","lat":35.847257,"lng":139.887066,"zip":"3410018"},{"town":"鷹野二丁目","koaza":"","lat":35.807963,"lng":139.878785,"zip":"3410035"},{"town":"彦江一丁目","koaza":"","lat":35.827239,"lng":139.85405,"zip":"3410058"},{"town":"彦成五丁目","koaza":"","lat":35.855638,"lng":139.876045,"zip":"3410003"},{"town":"上口一丁目","koaza":"","lat":35.835739,"lng":139.849476,"zip":"3410055"},{"town":"鷹野四丁目","koaza":"","lat":35.798263,"lng":139.882192,"zip":"3410035"},{"town":"戸ヶ崎一丁目","koaza":"","lat":35.808639,"lng":139.868474,"zip":"3410000"},{"town":"栄四丁目","koaza":"","lat":35.813917,"lng":139.876679,"zip":"3410043"},{"town":"小谷堀","koaza":"","lat":35.865164,"lng":139.88645,"zip":"3410013"},{"town":"大広戸","koaza":"","lat":35.846468,"lng":139.875363,"zip":"3410022"},{"town":"茂田井","koaza":"","lat":35.839287,"lng":139.874796,"zip":"3410025"},{"town":"番匠免一丁目","koaza":"","lat":35.831619,"lng":139.849228,"zip":"3410056"},{"town":"三郷一丁目","koaza":"","lat":35.841258,"lng":139.886044,"zip":"3410024"},{"town":"彦成四丁目","koaza":"","lat":35.854964,"lng":139.865103,"zip":"3410003"},{"town":"鷹野五丁目","koaza":"","lat":35.799152,"lng":139.875568,"zip":"3410035"},{"town":"彦成二丁目","koaza":"","lat":35.853197,"lng":139.849668,"zip":"3410003"},{"town":"高州一丁目","koaza":"","lat":35.792533,"lng":139.881789,"zip":"3410037"},{"town":"上彦名","koaza":"","lat":35.850247,"lng":139.855752,"zip":"3410004"},{"town":"戸ヶ崎三丁目","koaza":"","lat":35.803131,"lng":139.870637,"zip":"3410000"},{"town":"早稲田三丁目","koaza":"","lat":35.851547,"lng":139.888447,"zip":"3410018"},{"town":"戸ヶ崎二丁目","koaza":"","lat":35.802303,"lng":139.863889,"zip":"3410000"},{"town":"新和二丁目","koaza":"","lat":35.820494,"lng":139.887002,"zip":"3410034"},{"town":"早稲田七丁目","koaza":"","lat":35.8563,"lng":139.892167,"zip":"3410018"},{"town":"南蓮沼","koaza":"","lat":35.84553,"lng":139.864613,"zip":"3410028"},{"town":"鷹野三丁目","koaza":"","lat":35.80338,"lng":139.879568,"zip":"3410035"},{"town":"高州三丁目","koaza":"","lat":35.786541,"lng":139.873752,"zip":"3410037"},{"town":"田中新田","koaza":"","lat":35.862391,"lng":139.89387,"zip":"3410016"},{"town":"高州二丁目","koaza":"","lat":35.788918,"lng":139.879185,"zip":"3410037"},{"town":"東町","koaza":"","lat":35.790474,"lng":139.88611,"zip":"3410036"},{"town":"新和四丁目","koaza":"","lat":35.811974,"lng":139.885666,"zip":"3410034"},{"town":"戸ヶ崎","koaza":"","lat":35.804394,"lng":139.858466,"zip":"3410000"},{"town":"鷹野一丁目","koaza":"","lat":35.801393,"lng":139.887492,"zip":"3410035"},{"town":"彦成三丁目","koaza":"","lat":35.857032,"lng":139.855918,"zip":"3410003"},{"town":"半田","koaza":"","lat":35.862884,"lng":139.870835,"zip":"3410012"},{"town":"彦沢二丁目","koaza":"","lat":35.83217,"lng":139.855441,"zip":"3410057"},{"town":"幸房","koaza":"","lat":35.837544,"lng":139.879295,"zip":"3410026"},{"town":"彦江","koaza":"","lat":35.834089,"lng":139.873136,"zip":"3410058"},{"town":"中央五丁目","koaza":"","lat":35.83299,"lng":139.875262,"zip":"3410038"},{"town":"中央四丁目","koaza":"","lat":35.831986,"lng":139.879995,"zip":"3410038"},{"town":"谷中","koaza":"","lat":35.826073,"lng":139.881944,"zip":"3410032"},{"town":"市助","koaza":"","lat":35.826236,"lng":139.88473,"zip":"3410033"},{"town":"中央三丁目","koaza":"","lat":35.827573,"lng":139.878438,"zip":"3410038"},{"town":"新和三丁目","koaza":"","lat":35.815047,"lng":139.881738,"zip":"3410034"},{"town":"中央二丁目","koaza":"","lat":35.819541,"lng":139.877313,"zip":"3410038"},{"town":"新和一丁目","koaza":"","lat":35.820121,"lng":139.881903,"zip":"3410034"},{"town":"栄三丁目","koaza":"","lat":35.814643,"lng":139.871503,"zip":"3410043"},{"town":"彦川戸一丁目","koaza":"","lat":35.846955,"lng":139.847266,"zip":"3410005"},{"town":"彦川戸二丁目","koaza":"","lat":35.847666,"lng":139.855215,"zip":"3410005"},{"town":"上口二丁目","koaza":"","lat":35.838042,"lng":139.85562,"zip":"3410055"},{"town":"上口","koaza":"","lat":35.8415,"lng":139.869185,"zip":"3410055"},{"town":"上口三丁目","koaza":"","lat":35.839694,"lng":139.86641,"zip":"3410055"},{"town":"彦野二丁目","koaza":"","lat":35.842067,"lng":139.853112,"zip":"3410052"},{"town":"天神一丁目","koaza":"","lat":35.843934,"lng":139.847928,"zip":"3410051"},{"town":"彦倉二丁目","koaza":"","lat":35.840362,"lng":139.854136,"zip":"3410053"},{"town":"彦倉","koaza":"","lat":35.843433,"lng":139.864922,"zip":"3410053"},{"town":"泉三丁目","koaza":"","lat":35.839904,"lng":139.860441,"zip":"3410054"},{"town":"泉二丁目","koaza":"","lat":35.843063,"lng":139.86062,"zip":"3410054"},{"town":"ピアラシティ一丁目","koaza":"","lat":35.842663,"lng":139.85531,"zip":"3410050"},{"town":"駒形","koaza":"","lat":35.847569,"lng":139.864536,"zip":"3410008"},{"town":"ピアラシティ二丁目","koaza":"","lat":35.845346,"lng":139.854479,"zip":"3410050"},{"town":"泉一丁目","koaza":"","lat":35.845305,"lng":139.858239,"zip":"3410054"},{"town":"花和田","koaza":"","lat":35.826831,"lng":139.860258,"zip":"3410041"},{"town":"彦江三丁目","koaza":"","lat":35.831761,"lng":139.86777,"zip":"3410058"},{"town":"番匠免三丁目","koaza":"","lat":35.836744,"lng":139.866228,"zip":"3410056"},{"town":"彦沢三丁目","koaza":"","lat":35.833987,"lng":139.86743,"zip":"3410057"},{"town":"番匠免二丁目","koaza":"","lat":35.834984,"lng":139.85765,"zip":"3410056"},{"town":"インター南一丁目","koaza":"","lat":35.832443,"lng":139.860164,"zip":"3410059"},{"town":"インター南二丁目","koaza":"","lat":35.830487,"lng":139.858902,"zip":"3410059"},{"town":"中央一丁目","koaza":"","lat":35.822932,"lng":139.876041,"zip":"3410038"},{"town":"谷口","koaza":"","lat":35.827025,"lng":139.871115,"zip":"3410042"},{"town":"栄一丁目","koaza":"","lat":35.820845,"lng":139.869949,"zip":"3410043"}]