[{"town":"川二丁目","koaza":"","lat":35.964724,"lng":139.578768,"zip":"3620048"},{"town":"大字川","koaza":"","lat":35.964857,"lng":139.576968,"zip":"3620000"},{"town":"原市中一丁目","koaza":"","lat":35.969563,"lng":139.623092,"zip":"3620023"},{"town":"原市中三丁目","koaza":"","lat":35.963701,"lng":139.623505,"zip":"3620023"},{"town":"菅谷四丁目","koaza":"","lat":36.003049,"lng":139.594025,"zip":"3620003"},{"town":"原市北一丁目","koaza":"","lat":35.972389,"lng":139.620415,"zip":"3620026"},{"town":"菅谷一丁目","koaza":"","lat":35.999002,"lng":139.593364,"zip":"3620003"},{"town":"川一丁目","koaza":"","lat":35.965872,"lng":139.581443,"zip":"3620048"},{"town":"仲町二丁目","koaza":"","lat":35.973828,"lng":139.594901,"zip":"3620035"},{"town":"須ケ谷三丁目","koaza":"","lat":36.005115,"lng":139.596865,"zip":"3620004"},{"town":"緑丘五丁目","koaza":"","lat":35.9867,"lng":139.588136,"zip":"3620015"},{"town":"緑丘四丁目","koaza":"","lat":35.986093,"lng":139.585449,"zip":"3620015"},{"town":"中妻一丁目","koaza":"","lat":35.984991,"lng":139.574472,"zip":"3620072"},{"town":"中妻二丁目","koaza":"","lat":35.982402,"lng":139.571473,"zip":"3620072"},{"town":"大字上尾宿","koaza":"","lat":35.986343,"lng":139.600897,"zip":"3620000"},{"town":"西宮下一丁目","koaza":"","lat":35.967443,"lng":139.591616,"zip":"3620043"},{"town":"本町一丁目","koaza":"","lat":35.975945,"lng":139.595922,"zip":"3620014"},{"town":"宮本町","koaza":"","lat":35.974934,"lng":139.591351,"zip":"3620036"},{"town":"弁財一丁目","koaza":"","lat":35.971016,"lng":139.576,"zip":"3620076"},{"town":"井戸木三丁目","koaza":"","lat":35.989571,"lng":139.558657,"zip":"3620071"},{"town":"本町三丁目","koaza":"","lat":35.979148,"lng":139.592571,"zip":"3620014"},{"town":"西宮下三丁目","koaza":"","lat":35.962918,"lng":139.595048,"zip":"3620043"},{"town":"谷津一丁目","koaza":"","lat":35.969527,"lng":139.589336,"zip":"3620042"},{"town":"泉台二丁目","koaza":"","lat":35.986338,"lng":139.55768,"zip":"3620062"},{"town":"菅谷二丁目","koaza":"","lat":36.001298,"lng":139.596735,"zip":"3620003"},{"town":"菅谷五丁目","koaza":"","lat":36.00444,"lng":139.591303,"zip":"3620003"},{"town":"原新町","koaza":"","lat":35.98557,"lng":139.578372,"zip":"3620016"},{"town":"仲町一丁目","koaza":"","lat":35.972489,"lng":139.593013,"zip":"3620035"},{"town":"本町二丁目","koaza":"","lat":35.97719,"lng":139.597802,"zip":"3620014"},{"town":"井戸木一丁目","koaza":"","lat":35.989689,"lng":139.56304,"zip":"3620071"},{"town":"須ケ谷二丁目","koaza":"","lat":36.00326,"lng":139.598879,"zip":"3620004"},{"town":"泉台三丁目","koaza":"","lat":35.98986,"lng":139.553994,"zip":"3620062"},{"town":"日の出一丁目","koaza":"","lat":35.96443,"lng":139.604364,"zip":"3620032"},{"town":"本町四丁目","koaza":"","lat":35.980995,"lng":139.594933,"zip":"3620014"},{"town":"谷津二丁目","koaza":"","lat":35.971566,"lng":139.588161,"zip":"3620042"},{"town":"柏座二丁目","koaza":"","lat":35.97213,"lng":139.583359,"zip":"3620075"},{"town":"富士見一丁目","koaza":"","lat":35.966512,"lng":139.585721,"zip":"3620041"},{"town":"向山四丁目","koaza":"","lat":35.961544,"lng":139.576472,"zip":"3620045"},{"town":"菅谷三丁目","koaza":"","lat":36.001266,"lng":139.592129,"zip":"3620003"},{"town":"柏座四丁目","koaza":"","lat":35.970672,"lng":139.579222,"zip":"3620075"},{"town":"日の出二丁目","koaza":"","lat":35.967875,"lng":139.606343,"zip":"3620032"},{"town":"柏座三丁目","koaza":"","lat":35.974183,"lng":139.581754,"zip":"3620075"},{"town":"菅谷六丁目","koaza":"","lat":36.006724,"lng":139.591533,"zip":"3620003"},{"town":"錦町","koaza":"","lat":35.988549,"lng":139.587851,"zip":"3620006"},{"town":"富士見二丁目","koaza":"","lat":35.968408,"lng":139.58338,"zip":"3620041"},{"town":"浅間台一丁目","koaza":"","lat":35.983071,"lng":139.577034,"zip":"3620073"},{"town":"藤波四丁目","koaza":"","lat":35.987314,"lng":139.54875,"zip":"3620061"},{"town":"大字向山","koaza":"","lat":35.955655,"lng":139.577088,"zip":"3620000"},{"town":"中妻四丁目","koaza":"","lat":35.982721,"lng":139.565679,"zip":"3620072"},{"town":"緑丘二丁目","koaza":"","lat":35.984046,"lng":139.58271,"zip":"3620015"},{"town":"東町二丁目","koaza":"","lat":35.971431,"lng":139.603518,"zip":"3620031"},{"town":"上町二丁目","koaza":"","lat":35.979402,"lng":139.586812,"zip":"3620037"},{"town":"浅間台四丁目","koaza":"","lat":35.979553,"lng":139.569688,"zip":"3620073"},{"town":"緑丘一丁目","koaza":"","lat":35.981475,"lng":139.583951,"zip":"3620015"},{"town":"春日二丁目","koaza":"","lat":35.97671,"lng":139.578473,"zip":"3620074"},{"town":"五番町","koaza":"","lat":35.965584,"lng":139.619647,"zip":"3620024"},{"town":"柏座一丁目","koaza":"","lat":35.975568,"lng":139.585846,"zip":"3620075"},{"town":"愛宕一丁目","koaza":"","lat":35.969352,"lng":139.594431,"zip":"3620034"},{"town":"日の出三丁目","koaza":"","lat":35.965108,"lng":139.608099,"zip":"3620032"},{"town":"上町一丁目","koaza":"","lat":35.977035,"lng":139.589428,"zip":"3620037"},{"town":"中妻五丁目","koaza":"","lat":35.985681,"lng":139.565157,"zip":"3620072"},{"town":"東町一丁目","koaza":"","lat":35.974402,"lng":139.601088,"zip":"3620031"},{"town":"井戸木四丁目","koaza":"","lat":35.987235,"lng":139.561281,"zip":"3620071"},{"town":"東町三丁目","koaza":"","lat":35.973823,"lng":139.60555,"zip":"3620031"},{"town":"井戸木二丁目","koaza":"","lat":35.992779,"lng":139.561843,"zip":"3620071"},{"town":"緑丘三丁目","koaza":"","lat":35.987785,"lng":139.580147,"zip":"3620015"},{"town":"平塚一丁目","koaza":"","lat":35.996518,"lng":139.595571,"zip":"3620011"},{"town":"西宮下二丁目","koaza":"","lat":35.963554,"lng":139.591982,"zip":"3620043"},{"town":"向山二丁目","koaza":"","lat":35.958758,"lng":139.578316,"zip":"3620045"},{"town":"平塚二丁目","koaza":"","lat":35.998344,"lng":139.599326,"zip":"3620011"},{"town":"中分六丁目","koaza":"","lat":35.982103,"lng":139.55553,"zip":"3620067"},{"town":"向山三丁目","koaza":"","lat":35.963409,"lng":139.58157,"zip":"3620045"},{"town":"浅間台二丁目","koaza":"","lat":35.979707,"lng":139.575075,"zip":"3620073"},{"town":"今泉一丁目","koaza":"","lat":35.969376,"lng":139.573447,"zip":"3620047"},{"town":"西宮下四丁目","koaza":"","lat":35.965085,"lng":139.588623,"zip":"3620043"},{"town":"本町六丁目","koaza":"","lat":35.984523,"lng":139.592402,"zip":"3620014"},{"town":"愛宕二丁目","koaza":"","lat":35.9713,"lng":139.597837,"zip":"3620034"},{"town":"日の出四丁目","koaza":"","lat":35.967667,"lng":139.61054,"zip":"3620032"},{"town":"本町五丁目","koaza":"","lat":35.983091,"lng":139.588987,"zip":"3620014"},{"town":"栄町","koaza":"","lat":35.962005,"lng":139.601224,"zip":"3620033"},{"town":"須ケ谷一丁目","koaza":"","lat":36.000914,"lng":139.601631,"zip":"3620004"},{"town":"大字西貝塚","koaza":"","lat":35.937238,"lng":139.554119,"zip":"3620000"},{"town":"向山一丁目","koaza":"","lat":35.960935,"lng":139.583224,"zip":"3620045"},{"town":"浅間台三丁目","koaza":"","lat":35.976222,"lng":139.572973,"zip":"3620073"},{"town":"藤波三丁目","koaza":"","lat":35.990056,"lng":139.547755,"zip":"3620061"},{"town":"中妻三丁目","koaza":"","lat":35.985349,"lng":139.569791,"zip":"3620072"},{"town":"中分一丁目","koaza":"","lat":35.970365,"lng":139.558019,"zip":"3620067"},{"town":"中分四丁目","koaza":"","lat":35.980009,"lng":139.545568,"zip":"3620067"},{"town":"中分三丁目","koaza":"","lat":35.979547,"lng":139.551202,"zip":"3620067"},{"town":"春日一丁目","koaza":"","lat":35.978551,"lng":139.581529,"zip":"3620074"},{"town":"大字南","koaza":"","lat":36.002704,"lng":139.585575,"zip":"3620000"},{"town":"藤波二丁目","koaza":"","lat":35.98925,"lng":139.541127,"zip":"3620061"},{"town":"藤波一丁目","koaza":"","lat":35.98531,"lng":139.54319,"zip":"3620061"},{"town":"大字菅谷","koaza":"","lat":35.999757,"lng":139.589083,"zip":"3620000"},{"town":"大字上野本郷","koaza":"","lat":35.933308,"lng":139.560014,"zip":"3620000"},{"town":"中分五丁目","koaza":"","lat":35.985045,"lng":139.552044,"zip":"3620067"},{"town":"大字堤崎","koaza":"","lat":35.94699,"lng":139.579574,"zip":"3620000"},{"town":"愛宕三丁目","koaza":"","lat":35.966843,"lng":139.599101,"zip":"3620034"},{"town":"大字上尾村","koaza":"","lat":35.987527,"lng":139.596124,"zip":"3620000"},{"town":"大字上尾下","koaza":"","lat":35.970962,"lng":139.612342,"zip":"3620000"},{"town":"二ツ宮","koaza":"","lat":35.981087,"lng":139.601213,"zip":"3620017"},{"town":"大字地頭方","koaza":"","lat":35.948594,"lng":139.57313,"zip":"3620000"},{"town":"大字壱丁目","koaza":"","lat":35.957701,"lng":139.570578,"zip":"3620000"},{"town":"大字今泉","koaza":"","lat":35.964569,"lng":139.569815,"zip":"3620000"},{"town":"大字中新井","koaza":"","lat":35.948921,"lng":139.587001,"zip":"3620000"},{"town":"大字戸崎","koaza":"","lat":35.94363,"lng":139.594186,"zip":"3620000"},{"town":"大字平方領々家","koaza":"","lat":35.943675,"lng":139.568483,"zip":"3620000"},{"town":"大字上野","koaza":"","lat":35.943792,"lng":139.560427,"zip":"3620000"},{"town":"大字大谷本郷","koaza":"","lat":35.9558,"lng":139.583933,"zip":"3620000"},{"town":"大字小敷谷","koaza":"","lat":35.959948,"lng":139.558176,"zip":"3620000"},{"town":"大字畔吉","koaza":"","lat":35.962632,"lng":139.545374,"zip":"3620000"},{"town":"大字領家","koaza":"","lat":35.971776,"lng":139.544504,"zip":"3620000"},{"town":"大字上","koaza":"","lat":35.999478,"lng":139.577774,"zip":"3620000"},{"town":"大字平塚","koaza":"","lat":35.986992,"lng":139.607925,"zip":"3620000"},{"town":"大字瓦葺","koaza":"","lat":35.961321,"lng":139.640754,"zip":"3620000"},{"town":"大字平方","koaza":"","lat":35.946355,"lng":139.548224,"zip":"3620000"},{"town":"大字原市","koaza":"","lat":35.967704,"lng":139.627496,"zip":"3620000"},{"town":"大字久保","koaza":"","lat":35.993358,"lng":139.579058,"zip":"3620000"},{"town":"上平中央一丁目","koaza":"","lat":35.990648,"lng":139.581631,"zip":"3620008"},{"town":"大字西門前","koaza":"","lat":35.99507,"lng":139.583307,"zip":"3620000"},{"town":"上平中央三丁目","koaza":"","lat":35.993017,"lng":139.586748,"zip":"3620008"},{"town":"上平中央二丁目","koaza":"","lat":35.992305,"lng":139.584239,"zip":"3620008"},{"town":"中分二丁目","koaza":"","lat":35.975731,"lng":139.554033,"zip":"3620067"},{"town":"大字小泉","koaza":"","lat":35.981805,"lng":139.559323,"zip":"3620000"},{"town":"泉台一丁目","koaza":"","lat":35.981341,"lng":139.563274,"zip":"3620062"},{"town":"小泉九丁目","koaza":"","lat":35.976535,"lng":139.561547,"zip":"3620063"},{"town":"弁財二丁目","koaza":"","lat":35.973913,"lng":139.576456,"zip":"3620076"},{"town":"小泉三丁目","koaza":"","lat":35.974304,"lng":139.570288,"zip":"3620063"},{"town":"小泉四丁目","koaza":"","lat":35.973861,"lng":139.567275,"zip":"3620063"},{"town":"小泉八丁目","koaza":"","lat":35.974342,"lng":139.563312,"zip":"3620063"},{"town":"小泉二丁目","koaza":"","lat":35.970747,"lng":139.568401,"zip":"3620063"},{"town":"小泉六丁目","koaza":"","lat":35.970937,"lng":139.565085,"zip":"3620063"},{"town":"小泉七丁目","koaza":"","lat":35.971962,"lng":139.56192,"zip":"3620063"},{"town":"小泉一丁目","koaza":"","lat":35.97062,"lng":139.571566,"zip":"3620063"},{"town":"小泉五丁目","koaza":"","lat":35.977731,"lng":139.566444,"zip":"3620063"}]