[{"town":"大字毘沙吐","koaza":"","lat":36.280547,"lng":139.129175,"zip":"3690300"},{"town":"大字藤木戸","koaza":"","lat":36.24009,"lng":139.119405,"zip":"3690300"},{"town":"大字黛","koaza":"","lat":36.273008,"lng":139.142746,"zip":"3690300"},{"town":"大字帯刀","koaza":"","lat":36.250248,"lng":139.125536,"zip":"3690300"},{"town":"大字三町","koaza":"","lat":36.232929,"lng":139.128333,"zip":"3690300"},{"town":"大字堤","koaza":"","lat":36.244246,"lng":139.132686,"zip":"3690300"},{"town":"大字忍保","koaza":"","lat":36.270651,"lng":139.152224,"zip":"3690300"},{"town":"大字八町河原","koaza":"","lat":36.271642,"lng":139.162755,"zip":"3690300"},{"town":"大字五明","koaza":"","lat":36.249649,"lng":139.114969,"zip":"3690300"},{"town":"大字嘉美","koaza":"","lat":36.22728,"lng":139.14484,"zip":"3690300"},{"town":"大字大御堂","koaza":"","lat":36.226399,"lng":139.123804,"zip":"3690300"},{"town":"大字神保原町","koaza":"","lat":36.258088,"lng":139.15477,"zip":"3690300"},{"town":"大字長浜","koaza":"","lat":36.241335,"lng":139.106359,"zip":"3690300"},{"town":"大字金久保","koaza":"","lat":36.265823,"lng":139.136707,"zip":"3690300"},{"town":"大字勅使河原","koaza":"","lat":36.261858,"lng":139.123548,"zip":"3690300"},{"town":"大字七本木","koaza":"","lat":36.24152,"lng":139.150036,"zip":"3690300"}]