[{"town":"大字根木","koaza":"","lat":36.192154,"lng":139.181177,"zip":"3670100"},{"town":"大字中里","koaza":"","lat":36.163992,"lng":139.176566,"zip":"3670100"},{"town":"大字南十条","koaza":"","lat":36.19454,"lng":139.164222,"zip":"3670100"},{"town":"大字木部","koaza":"","lat":36.171489,"lng":139.175108,"zip":"3670100"},{"town":"大字北十条","koaza":"","lat":36.201052,"lng":139.173626,"zip":"3670100"},{"town":"大字阿那志","koaza":"","lat":36.187948,"lng":139.188679,"zip":"3670100"},{"town":"大字小茂田","koaza":"","lat":36.204087,"lng":139.191965,"zip":"3670100"},{"town":"大字古郡","koaza":"","lat":36.180867,"lng":139.187103,"zip":"3670100"},{"town":"大字沼上","koaza":"","lat":36.18858,"lng":139.165715,"zip":"3670100"},{"town":"大字下児玉","koaza":"","lat":36.203345,"lng":139.166767,"zip":"3670100"},{"town":"大字甘粕","koaza":"","lat":36.168817,"lng":139.185671,"zip":"3670100"},{"town":"大字駒衣","koaza":"","lat":36.176845,"lng":139.169195,"zip":"3670100"},{"town":"大字関","koaza":"","lat":36.191752,"lng":139.198301,"zip":"3670100"},{"town":"大字円良田","koaza":"","lat":36.140308,"lng":139.165553,"zip":"3670100"},{"town":"大字広木","koaza":"","lat":36.16954,"lng":139.156935,"zip":"3670100"},{"town":"大字猪俣","koaza":"","lat":36.152135,"lng":139.185065,"zip":"3670100"},{"town":"大字白石","koaza":"","lat":36.15547,"lng":139.167508,"zip":"3670100"}]