[{"town":"大字原新田","koaza":"","lat":36.217404,"lng":139.11947,"zip":"3670200"},{"town":"大字貫井","koaza":"","lat":36.211109,"lng":139.087024,"zip":"3670200"},{"town":"大字四軒在家","koaza":"","lat":36.231785,"lng":139.106776,"zip":"3670200"},{"town":"大字熊野堂","koaza":"","lat":36.213881,"lng":139.125105,"zip":"3670200"},{"town":"大字元原","koaza":"","lat":36.219475,"lng":139.128776,"zip":"3670200"},{"town":"大字中新里","koaza":"","lat":36.209429,"lng":139.096492,"zip":"3670200"},{"town":"大字関口","koaza":"","lat":36.220148,"lng":139.101223,"zip":"3670200"},{"town":"大字池田","koaza":"","lat":36.193222,"lng":139.079455,"zip":"3670200"},{"town":"大字小浜","koaza":"","lat":36.207748,"lng":139.080162,"zip":"3670200"},{"town":"大字植竹","koaza":"","lat":36.215154,"lng":139.100829,"zip":"3670200"},{"town":"大字肥土","koaza":"","lat":36.226224,"lng":139.092508,"zip":"3670200"},{"town":"大字二ノ宮","koaza":"","lat":36.190542,"lng":139.082928,"zip":"3670200"},{"town":"大字元阿保","koaza":"","lat":36.223949,"lng":139.10886,"zip":"3670200"},{"town":"大字新宿","koaza":"","lat":36.191038,"lng":139.069663,"zip":"3670200"},{"town":"大字八日市","koaza":"","lat":36.208285,"lng":139.117462,"zip":"3670200"},{"town":"大字下阿久原","koaza":"","lat":36.146474,"lng":139.065529,"zip":"3670200"},{"town":"大字新里","koaza":"","lat":36.197759,"lng":139.097907,"zip":"3670200"},{"town":"大字渡瀬","koaza":"","lat":36.172228,"lng":139.066686,"zip":"3670200"},{"town":"大字上阿久原","koaza":"","lat":36.130625,"lng":139.051075,"zip":"3670200"},{"town":"大字矢納","koaza":"","lat":36.11471,"lng":139.005245,"zip":"3670200"}]