[{"town":"越生東一丁目","koaza":"","lat":35.963721,"lng":139.300647,"zip":"3500414"},{"town":"越生東七丁目","koaza":"","lat":35.960389,"lng":139.305478,"zip":"3500414"},{"town":"越生東四丁目","koaza":"","lat":35.960994,"lng":139.303481,"zip":"3500414"},{"town":"越生東二丁目","koaza":"","lat":35.962654,"lng":139.301266,"zip":"3500414"},{"town":"越生東六丁目","koaza":"","lat":35.95907,"lng":139.305361,"zip":"3500414"},{"town":"上野東一丁目","koaza":"","lat":35.953346,"lng":139.311237,"zip":"3500417"},{"town":"越生東五丁目","koaza":"","lat":35.958173,"lng":139.303752,"zip":"3500414"},{"town":"越生東三丁目","koaza":"","lat":35.960314,"lng":139.301772,"zip":"3500414"},{"town":"上野東三丁目","koaza":"","lat":35.955178,"lng":139.307502,"zip":"3500417"},{"town":"上野東二丁目","koaza":"","lat":35.953939,"lng":139.309882,"zip":"3500417"},{"town":"上野東四丁目","koaza":"","lat":35.957053,"lng":139.306171,"zip":"3500417"},{"town":"上野東五丁目","koaza":"","lat":35.956518,"lng":139.310378,"zip":"3500417"},{"town":"大字黒岩","koaza":"","lat":35.966439,"lng":139.291993,"zip":"3500400"},{"town":"大字堂山","koaza":"","lat":35.97179,"lng":139.266436,"zip":"3500400"},{"town":"大字成瀬","koaza":"","lat":35.97466,"lng":139.283974,"zip":"3500400"},{"town":"大字越生","koaza":"","lat":35.961983,"lng":139.293236,"zip":"3500400"},{"town":"大字鹿下","koaza":"","lat":35.984943,"lng":139.286225,"zip":"3500400"},{"town":"大字西和田","koaza":"","lat":35.970188,"lng":139.301485,"zip":"3500400"},{"town":"大字古池","koaza":"","lat":35.983874,"lng":139.275585,"zip":"3500400"},{"town":"大字津久根","koaza":"","lat":35.965912,"lng":139.279684,"zip":"3500400"},{"town":"大字大谷","koaza":"","lat":35.982033,"lng":139.298411,"zip":"3500400"},{"town":"大字如意","koaza":"","lat":35.966349,"lng":139.312261,"zip":"3500400"},{"town":"大字小杉","koaza":"","lat":35.964954,"lng":139.256555,"zip":"3500400"},{"town":"大字上谷","koaza":"","lat":35.977516,"lng":139.257493,"zip":"3500400"},{"town":"大字大満","koaza":"","lat":35.948942,"lng":139.268422,"zip":"3500400"},{"town":"大字麦原","koaza":"","lat":35.969062,"lng":139.238561,"zip":"3500400"},{"town":"大字上野","koaza":"","lat":35.95288,"lng":139.291948,"zip":"3500400"},{"town":"大字龍ケ谷","koaza":"","lat":35.954864,"lng":139.234833,"zip":"3500400"},{"town":"大字黒山","koaza":"","lat":35.93718,"lng":139.247228,"zip":"3500400"}]