[{"town":"金子中央","koaza":"","lat":35.814346,"lng":139.328619,"zip":"3580048"},{"town":"大字扇町屋","koaza":"","lat":35.815172,"lng":139.37865,"zip":"3580000"},{"town":"久保稲荷二丁目","koaza":"","lat":35.825903,"lng":139.395697,"zip":"3580024"},{"town":"東藤沢四丁目","koaza":"","lat":35.817912,"lng":139.417155,"zip":"3580012"},{"town":"扇町屋二丁目","koaza":"","lat":35.833459,"lng":139.38371,"zip":"3580022"},{"town":"東町二丁目","koaza":"","lat":35.833458,"lng":139.400845,"zip":"3580002"},{"town":"三ツ木台","koaza":"","lat":35.813642,"lng":139.335339,"zip":"3580044"},{"town":"東藤沢六丁目","koaza":"","lat":35.815595,"lng":139.412648,"zip":"3580012"},{"town":"豊岡五丁目","koaza":"","lat":35.835562,"lng":139.394273,"zip":"3580003"},{"town":"扇町屋三丁目","koaza":"","lat":35.830054,"lng":139.381699,"zip":"3580022"},{"town":"扇台四丁目","koaza":"","lat":35.827221,"lng":139.388315,"zip":"3580023"},{"town":"扇台一丁目","koaza":"","lat":35.831599,"lng":139.392962,"zip":"3580023"},{"town":"東町三丁目","koaza":"","lat":35.830417,"lng":139.401301,"zip":"3580002"},{"town":"小谷田四丁目","koaza":"","lat":35.824164,"lng":139.374916,"zip":"3580026"},{"town":"豊岡三丁目","koaza":"","lat":35.833684,"lng":139.388102,"zip":"3580003"},{"town":"久保稲荷五丁目","koaza":"","lat":35.821604,"lng":139.389108,"zip":"3580024"},{"town":"東藤沢五丁目","koaza":"","lat":35.81546,"lng":139.416248,"zip":"3580012"},{"town":"豊岡二丁目","koaza":"","lat":35.83562,"lng":139.384552,"zip":"3580003"},{"town":"扇町屋四丁目","koaza":"","lat":35.829124,"lng":139.384458,"zip":"3580022"},{"town":"扇台三丁目","koaza":"","lat":35.828711,"lng":139.389298,"zip":"3580023"},{"town":"東町六丁目","koaza":"","lat":35.828479,"lng":139.404077,"zip":"3580002"},{"town":"扇台六丁目","koaza":"","lat":35.824416,"lng":139.384824,"zip":"3580023"},{"town":"鍵山一丁目","koaza":"","lat":35.843172,"lng":139.38295,"zip":"3580004"},{"town":"扇台五丁目","koaza":"","lat":35.825856,"lng":139.386408,"zip":"3580023"},{"town":"黒須二丁目","koaza":"","lat":35.846308,"lng":139.386375,"zip":"3580007"},{"town":"東藤沢二丁目","koaza":"","lat":35.820462,"lng":139.416923,"zip":"3580012"},{"town":"東藤沢八丁目","koaza":"","lat":35.812736,"lng":139.4066,"zip":"3580012"},{"town":"大字高倉","koaza":"","lat":35.818466,"lng":139.382091,"zip":"3580000"},{"town":"高倉一丁目","koaza":"","lat":35.838448,"lng":139.384733,"zip":"3580021"},{"town":"扇台二丁目","koaza":"","lat":35.830279,"lng":139.391262,"zip":"3580023"},{"town":"東藤沢七丁目","koaza":"","lat":35.814225,"lng":139.409844,"zip":"3580012"},{"town":"扇町屋一丁目","koaza":"","lat":35.831646,"lng":139.386384,"zip":"3580022"},{"town":"高倉三丁目","koaza":"","lat":35.839507,"lng":139.378975,"zip":"3580021"},{"town":"上小谷田一丁目","koaza":"","lat":35.830395,"lng":139.374192,"zip":"3580027"},{"town":"高倉二丁目","koaza":"","lat":35.840658,"lng":139.382301,"zip":"3580021"},{"town":"小谷田二丁目","koaza":"","lat":35.825002,"lng":139.378268,"zip":"3580026"},{"town":"上小谷田三丁目","koaza":"","lat":35.831717,"lng":139.370393,"zip":"3580027"},{"town":"東町一丁目","koaza":"","lat":35.831806,"lng":139.397511,"zip":"3580002"},{"town":"東藤沢一丁目","koaza":"","lat":35.824623,"lng":139.413265,"zip":"3580012"},{"town":"久保稲荷三丁目","koaza":"","lat":35.823506,"lng":139.393316,"zip":"3580024"},{"town":"豊岡四丁目","koaza":"","lat":35.833435,"lng":139.393087,"zip":"3580003"},{"town":"扇町屋五丁目","koaza":"","lat":35.827837,"lng":139.379951,"zip":"3580022"},{"town":"宮前町","koaza":"","lat":35.845218,"lng":139.380383,"zip":"3580005"},{"town":"東藤沢三丁目","koaza":"","lat":35.8196,"lng":139.414729,"zip":"3580012"},{"town":"黒須一丁目","koaza":"","lat":35.845416,"lng":139.390568,"zip":"3580007"},{"town":"久保稲荷四丁目","koaza":"","lat":35.82508,"lng":139.391141,"zip":"3580024"},{"town":"河原町","koaza":"","lat":35.843074,"lng":139.3876,"zip":"3580008"},{"town":"鍵山二丁目","koaza":"","lat":35.843832,"lng":139.378349,"zip":"3580004"},{"town":"牛沢町","koaza":"","lat":35.839589,"lng":139.372653,"zip":"3580051"},{"town":"東町四丁目","koaza":"","lat":35.832265,"lng":139.404253,"zip":"3580002"},{"town":"森坂","koaza":"","lat":35.838147,"lng":139.375635,"zip":"3580052"},{"town":"東町五丁目","koaza":"","lat":35.831186,"lng":139.407586,"zip":"3580002"},{"town":"久保稲荷一丁目","koaza":"","lat":35.828677,"lng":139.395323,"zip":"3580024"},{"town":"大字善蔵新田","koaza":"","lat":35.819473,"lng":139.386842,"zip":"3580000"},{"town":"小谷田三丁目","koaza":"","lat":35.827996,"lng":139.37513,"zip":"3580026"},{"town":"東町七丁目","koaza":"","lat":35.827574,"lng":139.399896,"zip":"3580002"},{"town":"大字黒須","koaza":"","lat":35.835964,"lng":139.409347,"zip":"3580000"},{"town":"高倉四丁目","koaza":"","lat":35.83649,"lng":139.379983,"zip":"3580021"},{"town":"上小谷田二丁目","koaza":"","lat":35.833972,"lng":139.374201,"zip":"3580027"},{"town":"高倉五丁目","koaza":"","lat":35.832449,"lng":139.37894,"zip":"3580021"},{"town":"小谷田一丁目","koaza":"","lat":35.822589,"lng":139.38222,"zip":"3580026"},{"town":"鍵山三丁目","koaza":"","lat":35.84506,"lng":139.374359,"zip":"3580004"},{"town":"豊岡一丁目","koaza":"","lat":35.838377,"lng":139.388489,"zip":"3580003"},{"town":"春日町二丁目","koaza":"","lat":35.849511,"lng":139.38669,"zip":"3580006"},{"town":"向陽台一丁目","koaza":"","lat":35.839582,"lng":139.392333,"zip":"3580001"},{"town":"春日町一丁目","koaza":"","lat":35.848779,"lng":139.379245,"zip":"3580006"},{"town":"大字花ノ木","koaza":"","lat":35.821359,"lng":139.348399,"zip":"3580000"},{"town":"大字狭山台","koaza":"","lat":35.803542,"lng":139.361762,"zip":"3580000"},{"town":"向陽台二丁目","koaza":"","lat":35.836669,"lng":139.402372,"zip":"3580001"},{"town":"大字根岸","koaza":"","lat":35.81849,"lng":139.358526,"zip":"3580000"},{"town":"大字狭山ケ原","koaza":"","lat":35.812287,"lng":139.367416,"zip":"3580000"},{"town":"大字西三ツ木","koaza":"","lat":35.813635,"lng":139.338136,"zip":"3580000"},{"town":"大字新光","koaza":"","lat":35.855915,"lng":139.356531,"zip":"3580000"},{"town":"大字寺竹","koaza":"","lat":35.804661,"lng":139.33548,"zip":"3580000"},{"town":"大字上谷ケ貫","koaza":"","lat":35.813533,"lng":139.342354,"zip":"3580000"},{"town":"大字下谷ケ貫","koaza":"","lat":35.814608,"lng":139.348802,"zip":"3580000"},{"town":"大字下藤沢","koaza":"","lat":35.823437,"lng":139.407357,"zip":"3580000"},{"town":"大字新久","koaza":"","lat":35.824599,"lng":139.360277,"zip":"3580000"},{"town":"大字中神","koaza":"","lat":35.818486,"lng":139.353916,"zip":"3580000"},{"town":"大字木蓮寺","koaza":"","lat":35.806678,"lng":139.32313,"zip":"3580000"},{"town":"大字南峯","koaza":"","lat":35.809404,"lng":139.32766,"zip":"3580000"},{"town":"大字仏子","koaza":"","lat":35.836021,"lng":139.354493,"zip":"3580000"},{"town":"大字野田","koaza":"","lat":35.844261,"lng":139.35454,"zip":"3580000"},{"town":"大字小谷田","koaza":"","lat":35.82355,"lng":139.369706,"zip":"3580000"},{"town":"大字上藤沢","koaza":"","lat":35.816057,"lng":139.392161,"zip":"3580000"},{"town":"宮寺","koaza":"","lat":35.794927,"lng":139.376559,"zip":"3580014"},{"town":"駒形富士山","koaza":"","lat":35.796546,"lng":139.362914,"zip":"3580017"},{"town":"大字二本木","koaza":"","lat":35.797215,"lng":139.357993,"zip":"3580000"},{"town":"高根","koaza":"","lat":35.795137,"lng":139.360269,"zip":"3580016"},{"town":"狭山台一丁目","koaza":"","lat":35.805625,"lng":139.364549,"zip":"3580033"},{"town":"狭山台三丁目","koaza":"","lat":35.807897,"lng":139.360188,"zip":"3580033"},{"town":"狭山台四丁目","koaza":"","lat":35.81054,"lng":139.362385,"zip":"3580033"},{"town":"狭山台二丁目","koaza":"","lat":35.804738,"lng":139.361619,"zip":"3580033"}]