[{"town":"平山二丁目","koaza":"","lat":35.948491,"lng":139.312743,"zip":"3500466"},{"town":"若山二丁目","koaza":"","lat":35.944522,"lng":139.330864,"zip":"3500462"},{"town":"若山三丁目","koaza":"","lat":35.941957,"lng":139.331662,"zip":"3500462"},{"town":"岩井西三丁目","koaza":"","lat":35.943047,"lng":139.313321,"zip":"3500465"},{"town":"岩井東二丁目","koaza":"","lat":35.948265,"lng":139.318558,"zip":"3500467"},{"town":"前久保南二丁目","koaza":"","lat":35.944929,"lng":139.321378,"zip":"3500463"},{"town":"目白台四丁目","koaza":"","lat":35.959307,"lng":139.328402,"zip":"3500439"},{"town":"南台二丁目","koaza":"","lat":35.934078,"lng":139.325197,"zip":"3500464"},{"town":"中央一丁目","koaza":"","lat":35.943838,"lng":139.316971,"zip":"3500461"},{"town":"中央四丁目","koaza":"","lat":35.940922,"lng":139.324016,"zip":"3500461"},{"town":"岩井西四丁目","koaza":"","lat":35.940255,"lng":139.31202,"zip":"3500465"},{"town":"岩井西二丁目","koaza":"","lat":35.945533,"lng":139.314948,"zip":"3500465"},{"town":"目白台三丁目","koaza":"","lat":35.959319,"lng":139.326757,"zip":"3500439"},{"town":"若山一丁目","koaza":"","lat":35.943003,"lng":139.329187,"zip":"3500462"},{"town":"南台五丁目","koaza":"","lat":35.940477,"lng":139.32916,"zip":"3500464"},{"town":"前久保南三丁目","koaza":"","lat":35.94477,"lng":139.323865,"zip":"3500463"},{"town":"前久保南一丁目","koaza":"","lat":35.945969,"lng":139.318931,"zip":"3500463"},{"town":"岩井西一丁目","koaza":"","lat":35.945896,"lng":139.310248,"zip":"3500465"},{"town":"南台一丁目","koaza":"","lat":35.936458,"lng":139.323919,"zip":"3500464"},{"town":"中央三丁目","koaza":"","lat":35.941623,"lng":139.32068,"zip":"3500461"},{"town":"岩井東一丁目","koaza":"","lat":35.949089,"lng":139.315753,"zip":"3500467"},{"town":"南台四丁目","koaza":"","lat":35.937468,"lng":139.329435,"zip":"3500464"},{"town":"中央二丁目","koaza":"","lat":35.941805,"lng":139.317166,"zip":"3500461"},{"town":"岩井西五丁目","koaza":"","lat":35.943068,"lng":139.310322,"zip":"3500465"},{"town":"南台三丁目","koaza":"","lat":35.937144,"lng":139.326137,"zip":"3500464"},{"town":"目白台二丁目","koaza":"","lat":35.963172,"lng":139.323208,"zip":"3500439"},{"town":"平山三丁目","koaza":"","lat":35.951948,"lng":139.31298,"zip":"3500466"},{"town":"目白台一丁目","koaza":"","lat":35.959875,"lng":139.322724,"zip":"3500439"},{"town":"前久保南四丁目","koaza":"","lat":35.944969,"lng":139.326633,"zip":"3500463"},{"town":"平山一丁目","koaza":"","lat":35.948776,"lng":139.309287,"zip":"3500466"},{"town":"大字旭台","koaza":"","lat":35.938807,"lng":139.33432,"zip":"3500400"},{"town":"大字苦林","koaza":"","lat":35.965408,"lng":139.345726,"zip":"3500400"},{"town":"大字前久保","koaza":"","lat":35.951132,"lng":139.326034,"zip":"3500400"},{"town":"大字小田谷","koaza":"","lat":35.935799,"lng":139.308273,"zip":"3500400"},{"town":"大字岩井","koaza":"","lat":35.952645,"lng":139.319315,"zip":"3500400"},{"town":"大字箕和田","koaza":"","lat":35.959509,"lng":139.318413,"zip":"3500400"},{"town":"大字毛呂本郷","koaza":"","lat":35.941011,"lng":139.305575,"zip":"3500400"},{"town":"大字長瀬","koaza":"","lat":35.935323,"lng":139.316892,"zip":"3500400"},{"town":"大字下川原","koaza":"","lat":35.934861,"lng":139.341947,"zip":"3500400"},{"town":"大字大類","koaza":"","lat":35.956461,"lng":139.349191,"zip":"3500400"},{"town":"大字西大久保","koaza":"","lat":35.951185,"lng":139.351804,"zip":"3500400"},{"town":"大字西戸","koaza":"","lat":35.95852,"lng":139.334683,"zip":"3500400"},{"town":"大字市場","koaza":"","lat":35.945561,"lng":139.346288,"zip":"3500400"},{"town":"大字川角","koaza":"","lat":35.951055,"lng":139.336505,"zip":"3500400"},{"town":"大字葛貫","koaza":"","lat":35.924436,"lng":139.318823,"zip":"3500400"},{"town":"大字宿谷","koaza":"","lat":35.91072,"lng":139.299849,"zip":"3500400"},{"town":"大字権現堂","koaza":"","lat":35.909423,"lng":139.281664,"zip":"3500400"},{"town":"大字大谷木","koaza":"","lat":35.922826,"lng":139.299902,"zip":"3500400"},{"town":"大字阿諏訪","koaza":"","lat":35.929514,"lng":139.284364,"zip":"3500400"},{"town":"大字滝ノ入","koaza":"","lat":35.940101,"lng":139.28167,"zip":"3500400"}]