[{"town":"大字松之木","koaza":"","lat":35.827153,"lng":139.827453,"zip":"3400800"},{"town":"大字小作田","koaza":"","lat":35.826401,"lng":139.836203,"zip":"3400800"},{"town":"大字中馬場","koaza":"","lat":35.822142,"lng":139.843394,"zip":"3400800"},{"town":"大字上馬場","koaza":"","lat":35.820584,"lng":139.824916,"zip":"3400800"},{"town":"八潮八丁目","koaza":"","lat":35.814581,"lng":139.828828,"zip":"3400815"},{"town":"中央四丁目","koaza":"","lat":35.819374,"lng":139.827871,"zip":"3400816"},{"town":"八潮二丁目","koaza":"","lat":35.815461,"lng":139.838188,"zip":"3400815"},{"town":"八潮一丁目","koaza":"","lat":35.816111,"lng":139.840727,"zip":"3400815"},{"town":"緑町三丁目","koaza":"","lat":35.82754,"lng":139.830641,"zip":"3400808"},{"town":"中央三丁目","koaza":"","lat":35.819999,"lng":139.83139,"zip":"3400816"},{"town":"緑町五丁目","koaza":"","lat":35.827006,"lng":139.824722,"zip":"3400808"},{"town":"緑町四丁目","koaza":"","lat":35.822828,"lng":139.827085,"zip":"3400808"},{"town":"八潮六丁目","koaza":"","lat":35.811777,"lng":139.833773,"zip":"3400815"},{"town":"緑町二丁目","koaza":"","lat":35.823803,"lng":139.830994,"zip":"3400808"},{"town":"八潮四丁目","koaza":"","lat":35.811526,"lng":139.839078,"zip":"3400815"},{"town":"八潮三丁目","koaza":"","lat":35.815319,"lng":139.835649,"zip":"3400815"},{"town":"中央二丁目","koaza":"","lat":35.819331,"lng":139.837059,"zip":"3400816"},{"town":"緑町一丁目","koaza":"","lat":35.826079,"lng":139.834596,"zip":"3400808"},{"town":"大字伊草","koaza":"","lat":35.829467,"lng":139.830047,"zip":"3400800"},{"town":"大字柳之宮","koaza":"","lat":35.82289,"lng":139.822915,"zip":"3400800"},{"town":"八潮七丁目","koaza":"","lat":35.815139,"lng":139.832265,"zip":"3400815"},{"town":"中央一丁目","koaza":"","lat":35.822118,"lng":139.836731,"zip":"3400816"},{"town":"大字大原","koaza":"","lat":35.806469,"lng":139.836348,"zip":"3400800"},{"town":"大字新町","koaza":"","lat":35.83861,"lng":139.831838,"zip":"3400800"},{"town":"大字垳","koaza":"","lat":35.802259,"lng":139.838259,"zip":"3400800"},{"town":"大字二丁目","koaza":"","lat":35.821729,"lng":139.846276,"zip":"3400800"},{"town":"大字南後谷","koaza":"","lat":35.829244,"lng":139.8173,"zip":"3400800"},{"town":"大字浮塚","koaza":"","lat":35.798355,"lng":139.827491,"zip":"3400800"},{"town":"大字西袋","koaza":"","lat":35.816056,"lng":139.819555,"zip":"3400800"},{"town":"大字鶴ケ曽根","koaza":"","lat":35.829743,"lng":139.839096,"zip":"3400800"},{"town":"大字大曽根","koaza":"","lat":35.806037,"lng":139.826787,"zip":"3400800"},{"town":"大字木曽根","koaza":"","lat":35.818672,"lng":139.858888,"zip":"3400800"},{"town":"大字八條","koaza":"","lat":35.842045,"lng":139.837353,"zip":"3400800"},{"town":"大字大瀬","koaza":"","lat":35.802478,"lng":139.851485,"zip":"3400800"},{"town":"大瀬四丁目","koaza":"","lat":35.806355,"lng":139.848975,"zip":"3400822"},{"town":"大字古新田","koaza":"","lat":35.799264,"lng":139.848921,"zip":"3400800"},{"town":"八潮五丁目","koaza":"","lat":35.808719,"lng":139.838945,"zip":"3400815"},{"town":"大瀬五丁目","koaza":"","lat":35.804887,"lng":139.84556,"zip":"3400822"},{"town":"茜町一丁目","koaza":"","lat":35.806039,"lng":139.841049,"zip":"3400826"},{"town":"大字伊勢野","koaza":"","lat":35.809578,"lng":139.853903,"zip":"3400800"},{"town":"大字南川崎","koaza":"","lat":35.81333,"lng":139.85926,"zip":"3400800"},{"town":"大瀬二丁目","koaza":"","lat":35.8101,"lng":139.845684,"zip":"3400822"},{"town":"大瀬三丁目","koaza":"","lat":35.808847,"lng":139.847505,"zip":"3400822"},{"town":"大瀬六丁目","koaza":"","lat":35.806973,"lng":139.844354,"zip":"3400822"},{"town":"大瀬一丁目","koaza":"","lat":35.808825,"lng":139.84291,"zip":"3400822"}]