[{"town":"久下六丁目","koaza":"","lat":36.115971,"lng":139.611601,"zip":"3470063"},{"town":"愛宕二丁目","koaza":"","lat":36.132441,"lng":139.583969,"zip":"3470057"},{"town":"川口五丁目","koaza":"","lat":36.108298,"lng":139.659598,"zip":"3470014"},{"town":"睦町二丁目","koaza":"","lat":36.127831,"lng":139.606809,"zip":"3470062"},{"town":"睦町一丁目","koaza":"","lat":36.126948,"lng":139.605083,"zip":"3470062"},{"town":"陽光台一丁目","koaza":"","lat":36.191908,"lng":139.68497,"zip":"3491204"},{"town":"向川岸町","koaza":"","lat":36.128234,"lng":139.601136,"zip":"3470067"},{"town":"浜町","koaza":"","lat":36.126522,"lng":139.61048,"zip":"3470018"},{"town":"土手一丁目","koaza":"","lat":36.126339,"lng":139.594109,"zip":"3470056"},{"town":"中央二丁目","koaza":"","lat":36.12455,"lng":139.598253,"zip":"3470055"},{"town":"鳩山町","koaza":"","lat":36.107501,"lng":139.655958,"zip":"3470019"},{"town":"大桑二丁目","koaza":"","lat":36.123458,"lng":139.63678,"zip":"3470010"},{"town":"元町","koaza":"","lat":36.122434,"lng":139.600851,"zip":"3470065"},{"town":"川口二丁目","koaza":"","lat":36.113753,"lng":139.659431,"zip":"3470014"},{"town":"花崎北四丁目","koaza":"","lat":36.112996,"lng":139.627719,"zip":"3470016"},{"town":"川口三丁目","koaza":"","lat":36.11056,"lng":139.661857,"zip":"3470014"},{"town":"陽光台二丁目","koaza":"","lat":36.192511,"lng":139.682658,"zip":"3491204"},{"town":"南篠崎二丁目","koaza":"","lat":36.120626,"lng":139.623642,"zip":"3470017"},{"town":"中央一丁目","koaza":"","lat":36.125431,"lng":139.595992,"zip":"3470055"},{"town":"川口一丁目","koaza":"","lat":36.113795,"lng":139.661556,"zip":"3470014"},{"town":"不動岡二丁目","koaza":"","lat":36.134572,"lng":139.587359,"zip":"3470054"},{"town":"久下三丁目","koaza":"","lat":36.123196,"lng":139.613426,"zip":"3470063"},{"town":"花崎北三丁目","koaza":"","lat":36.115105,"lng":139.629452,"zip":"3470016"},{"town":"花崎北二丁目","koaza":"","lat":36.113484,"lng":139.633493,"zip":"3470016"},{"town":"花崎北一丁目","koaza":"","lat":36.111021,"lng":139.634271,"zip":"3470016"},{"town":"不動岡一丁目","koaza":"","lat":36.132968,"lng":139.592065,"zip":"3470054"},{"town":"東栄一丁目","koaza":"","lat":36.121229,"lng":139.604608,"zip":"3470064"},{"town":"花崎四丁目","koaza":"","lat":36.114546,"lng":139.61516,"zip":"3470032"},{"town":"不動岡三丁目","koaza":"","lat":36.136264,"lng":139.581868,"zip":"3470054"},{"town":"愛宕一丁目","koaza":"","lat":36.131149,"lng":139.586534,"zip":"3470057"},{"town":"久下","koaza":"","lat":36.117144,"lng":139.608393,"zip":"3470063"},{"town":"本町","koaza":"","lat":36.125236,"lng":139.602308,"zip":"3470066"},{"town":"花崎三丁目","koaza":"","lat":36.112783,"lng":139.619323,"zip":"3470032"},{"town":"古川一丁目","koaza":"","lat":36.166851,"lng":139.635829,"zip":"3470004"},{"town":"久下一丁目","koaza":"","lat":36.12017,"lng":139.608646,"zip":"3470063"},{"town":"富士見町","koaza":"","lat":36.121083,"lng":139.595407,"zip":"3470045"},{"town":"花崎二丁目","koaza":"","lat":36.111118,"lng":139.626213,"zip":"3470032"},{"town":"花崎五丁目","koaza":"","lat":36.113473,"lng":139.609808,"zip":"3470032"},{"town":"東栄二丁目","koaza":"","lat":36.12405,"lng":139.608398,"zip":"3470064"},{"town":"新利根二丁目","koaza":"","lat":36.144437,"lng":139.646233,"zip":"3491158"},{"town":"久下五丁目","koaza":"","lat":36.122075,"lng":139.618401,"zip":"3470063"},{"town":"古川二丁目","koaza":"","lat":36.150697,"lng":139.64119,"zip":"3470004"},{"town":"大門町","koaza":"","lat":36.129499,"lng":139.595865,"zip":"3470068"},{"town":"土手二丁目","koaza":"","lat":36.128803,"lng":139.590456,"zip":"3470056"},{"town":"下高柳一丁目","koaza":"","lat":36.111195,"lng":139.608483,"zip":"3470033"},{"town":"久下二丁目","koaza":"","lat":36.119086,"lng":139.613861,"zip":"3470063"},{"town":"久下四丁目","koaza":"","lat":36.117813,"lng":139.617699,"zip":"3470063"},{"town":"豊野台一丁目","koaza":"","lat":36.12837,"lng":139.656373,"zip":"3491148"},{"town":"大桑一丁目","koaza":"","lat":36.121618,"lng":139.639311,"zip":"3470010"},{"town":"花崎一丁目","koaza":"","lat":36.108386,"lng":139.633575,"zip":"3470032"},{"town":"川口四丁目","koaza":"","lat":36.110273,"lng":139.655874,"zip":"3470014"},{"town":"新井新田","koaza":"","lat":36.120701,"lng":139.662752,"zip":"3491146"},{"town":"豊野台二丁目","koaza":"","lat":36.123692,"lng":139.665803,"zip":"3491148"},{"town":"南町","koaza":"","lat":36.118815,"lng":139.601126,"zip":"3470031"},{"town":"南篠崎一丁目","koaza":"","lat":36.116987,"lng":139.623539,"zip":"3470017"},{"town":"外川","koaza":"","lat":36.105829,"lng":139.580346,"zip":"3470106"},{"town":"新利根一丁目","koaza":"","lat":36.164592,"lng":139.636993,"zip":"3491158"},{"town":"駒場","koaza":"","lat":36.179202,"lng":139.679016,"zip":"3491214"},{"town":"西ノ谷","koaza":"","lat":36.09612,"lng":139.575198,"zip":"3470117"},{"town":"松永新田","koaza":"","lat":36.141532,"lng":139.637016,"zip":"3491141"},{"town":"南小浜","koaza":"","lat":36.101546,"lng":139.612324,"zip":"3470028"},{"town":"生出","koaza":"","lat":36.134209,"lng":139.651551,"zip":"3491143"},{"town":"根古屋","koaza":"","lat":36.103594,"lng":139.587092,"zip":"3470104"},{"town":"下種足","koaza":"","lat":36.076504,"lng":139.579256,"zip":"3470113"},{"town":"杓子木","koaza":"","lat":36.138795,"lng":139.648837,"zip":"3491142"},{"town":"外記新田","koaza":"","lat":36.156023,"lng":139.672757,"zip":"3491154"},{"town":"船越","koaza":"","lat":36.103059,"lng":139.622834,"zip":"3470021"},{"town":"常泉","koaza":"","lat":36.102493,"lng":139.602452,"zip":"3470034"},{"town":"下三俣","koaza":"","lat":36.146119,"lng":139.607984,"zip":"3470007"},{"town":"花崎","koaza":"","lat":36.108353,"lng":139.624598,"zip":"3470032"},{"town":"今鉾","koaza":"","lat":36.086635,"lng":139.627922,"zip":"3470024"},{"town":"佐波","koaza":"","lat":36.173059,"lng":139.644855,"zip":"3491151"},{"town":"川口","koaza":"","lat":36.115643,"lng":139.657477,"zip":"3470014"},{"town":"中渡","koaza":"","lat":36.156894,"lng":139.685077,"zip":"3491131"},{"town":"割目","koaza":"","lat":36.084152,"lng":139.619153,"zip":"3470025"},{"town":"阿佐間","koaza":"","lat":36.133536,"lng":139.657832,"zip":"3491144"},{"town":"正能","koaza":"","lat":36.111244,"lng":139.574229,"zip":"3470107"},{"town":"礼羽","koaza":"","lat":36.124891,"lng":139.586921,"zip":"3470044"},{"town":"中ノ目","koaza":"","lat":36.094245,"lng":139.55887,"zip":"3470124"},{"town":"北平野","koaza":"","lat":36.146679,"lng":139.657282,"zip":"3491135"},{"town":"北辻","koaza":"","lat":36.092419,"lng":139.630042,"zip":"3470023"},{"town":"伊賀袋","koaza":"","lat":36.177857,"lng":139.685994,"zip":"3491215"},{"town":"細間","koaza":"","lat":36.157134,"lng":139.650451,"zip":"3491156"},{"town":"内田ケ谷","koaza":"","lat":36.113646,"lng":139.55211,"zip":"3470122"},{"town":"大室","koaza":"","lat":36.096764,"lng":139.620188,"zip":"3470027"},{"town":"外野","koaza":"","lat":36.173678,"lng":139.63622,"zip":"3470002"},{"town":"弥兵衛","koaza":"","lat":36.169412,"lng":139.655542,"zip":"3491152"},{"town":"騎西","koaza":"","lat":36.103916,"lng":139.572188,"zip":"3470105"},{"town":"串作","koaza":"","lat":36.13798,"lng":139.528916,"zip":"3470041"},{"town":"間口","koaza":"","lat":36.125745,"lng":139.670392,"zip":"3491145"},{"town":"外田ケ谷","koaza":"","lat":36.115246,"lng":139.537946,"zip":"3470126"},{"town":"日出安","koaza":"","lat":36.108487,"lng":139.588739,"zip":"3470102"},{"town":"道地","koaza":"","lat":36.117648,"lng":139.55485,"zip":"3470121"},{"town":"油井ケ島","koaza":"","lat":36.093142,"lng":139.610961,"zip":"3470026"},{"town":"戸室","koaza":"","lat":36.089032,"lng":139.571539,"zip":"3470116"},{"town":"町屋新田","koaza":"","lat":36.153568,"lng":139.608845,"zip":"3470052"},{"town":"南篠崎","koaza":"","lat":36.115903,"lng":139.634373,"zip":"3470017"},{"town":"戸川","koaza":"","lat":36.158856,"lng":139.596445,"zip":"3470051"},{"town":"岡古井","koaza":"","lat":36.142999,"lng":139.579884,"zip":"3470058"},{"town":"道目","koaza":"","lat":36.149809,"lng":139.650951,"zip":"3491157"},{"town":"下高柳","koaza":"","lat":36.109754,"lng":139.604614,"zip":"3470033"},{"town":"多門寺","koaza":"","lat":36.13472,"lng":139.623037,"zip":"3470012"},{"town":"阿良川","koaza":"","lat":36.126081,"lng":139.542559,"zip":"3470047"},{"town":"琴寄","koaza":"","lat":36.130567,"lng":139.672407,"zip":"3491133"},{"town":"北大桑","koaza":"","lat":36.12774,"lng":139.642224,"zip":"3491147"},{"town":"平永","koaza":"","lat":36.126098,"lng":139.560705,"zip":"3470046"},{"town":"上樋遣川","koaza":"","lat":36.162112,"lng":139.631171,"zip":"3470003"},{"town":"小野袋","koaza":"","lat":36.204093,"lng":139.666247,"zip":"3491202"},{"town":"中樋遣川","koaza":"","lat":36.158608,"lng":139.620112,"zip":"3470008"},{"town":"下崎","koaza":"","lat":36.101809,"lng":139.563133,"zip":"3470123"},{"town":"馬内","koaza":"","lat":36.129094,"lng":139.575843,"zip":"3470043"},{"town":"新川通","koaza":"","lat":36.162996,"lng":139.669785,"zip":"3491153"},{"town":"北小浜","koaza":"","lat":36.135013,"lng":139.615085,"zip":"3470011"},{"town":"牛重","koaza":"","lat":36.095691,"lng":139.596983,"zip":"3470103"},{"town":"本郷","koaza":"","lat":36.161294,"lng":139.689043,"zip":"3491216"},{"town":"上高柳","koaza":"","lat":36.115406,"lng":139.591839,"zip":"3470101"},{"town":"芋茎","koaza":"","lat":36.080376,"lng":139.592221,"zip":"3470112"},{"town":"戸崎","koaza":"","lat":36.117324,"lng":139.569868,"zip":"3470108"},{"town":"飯積","koaza":"","lat":36.188632,"lng":139.634349,"zip":"3491211"},{"town":"上崎","koaza":"","lat":36.107115,"lng":139.546407,"zip":"3470125"},{"town":"柳生","koaza":"","lat":36.202418,"lng":139.656492,"zip":"3491201"},{"town":"中種足","koaza":"","lat":36.079405,"lng":139.570218,"zip":"3470114"},{"town":"向古河","koaza":"","lat":36.188308,"lng":139.682961,"zip":"3491205"},{"town":"柏戸","koaza":"","lat":36.197152,"lng":139.678375,"zip":"3491203"},{"town":"水深","koaza":"","lat":36.096184,"lng":139.63763,"zip":"3470022"},{"town":"北篠崎","koaza":"","lat":36.13493,"lng":139.634998,"zip":"3470013"},{"town":"砂原","koaza":"","lat":36.15892,"lng":139.658423,"zip":"3491155"},{"town":"下谷","koaza":"","lat":36.148388,"lng":139.590594,"zip":"3470053"},{"town":"志多見","koaza":"","lat":36.132951,"lng":139.553598,"zip":"3470042"},{"town":"下樋遣川","koaza":"","lat":36.149309,"lng":139.629093,"zip":"3470005"},{"town":"鴻茎","koaza":"","lat":36.089092,"lng":139.590217,"zip":"3470111"},{"town":"南大桑","koaza":"","lat":36.114913,"lng":139.644148,"zip":"3470015"},{"town":"上種足","koaza":"","lat":36.08468,"lng":139.553485,"zip":"3470115"},{"town":"栄","koaza":"","lat":36.175642,"lng":139.667323,"zip":"3491213"},{"town":"麦倉","koaza":"","lat":36.185146,"lng":139.651742,"zip":"3491212"},{"town":"大越","koaza":"","lat":36.180632,"lng":139.618714,"zip":"3470001"},{"town":"諏訪二丁目","koaza":"","lat":36.129433,"lng":139.602296,"zip":"3470061"},{"town":"三俣二丁目","koaza":"","lat":36.131627,"lng":139.604101,"zip":"3470009"},{"town":"諏訪一丁目","koaza":"","lat":36.131674,"lng":139.596884,"zip":"3470061"},{"town":"不動岡","koaza":"","lat":36.139752,"lng":139.594161,"zip":"3470054"},{"town":"三俣一丁目","koaza":"","lat":36.134163,"lng":139.598937,"zip":"3470009"},{"town":"上三俣","koaza":"","lat":36.138328,"lng":139.607743,"zip":"3470006"},{"town":"北下新井","koaza":"","lat":36.140186,"lng":139.668453,"zip":"3491134"},{"town":"北下新井一丁目","koaza":"","lat":36.137737,"lng":139.684367,"zip":"3491134"},{"town":"旗井三丁目","koaza":"","lat":36.139108,"lng":139.685905,"zip":"3491132"},{"town":"旗井二丁目","koaza":"","lat":36.141181,"lng":139.688585,"zip":"3491132"},{"town":"旗井","koaza":"","lat":36.146838,"lng":139.691783,"zip":"3491132"},{"town":"旗井一丁目","koaza":"","lat":36.143453,"lng":139.690648,"zip":"3491132"},{"town":"花崎","koaza":"江橋","lat":36.106668,"lng":139.626301,"zip":"3470032"},{"town":"飯積","koaza":"伯楽","lat":36.193275,"lng":139.662357,"zip":"3491211"}]