[{"town":"大字下石戸上","koaza":"","lat":36.012849,"lng":139.535408,"zip":"3640000"},{"town":"宮内二丁目","koaza":"","lat":36.038792,"lng":139.535796,"zip":"3640002"},{"town":"西高尾二丁目","koaza":"","lat":36.034305,"lng":139.525729,"zip":"3640035"},{"town":"本町二丁目","koaza":"","lat":36.02505,"lng":139.530405,"zip":"3640033"},{"town":"深井一丁目","koaza":"","lat":36.046285,"lng":139.522612,"zip":"3640001"},{"town":"東間一丁目","koaza":"","lat":36.034883,"lng":139.532483,"zip":"3640007"},{"town":"中央三丁目","koaza":"","lat":36.031604,"lng":139.531272,"zip":"3640031"},{"town":"本宿八丁目","koaza":"","lat":36.024664,"lng":139.540246,"zip":"3640005"},{"town":"本町三丁目","koaza":"","lat":36.025195,"lng":139.532093,"zip":"3640033"},{"town":"中央二丁目","koaza":"","lat":36.030549,"lng":139.532296,"zip":"3640031"},{"town":"西高尾八丁目","koaza":"","lat":36.029817,"lng":139.520853,"zip":"3640035"},{"town":"西高尾四丁目","koaza":"","lat":36.028832,"lng":139.52548,"zip":"3640035"},{"town":"西高尾三丁目","koaza":"","lat":36.031629,"lng":139.526388,"zip":"3640035"},{"town":"本町八丁目","koaza":"","lat":36.022379,"lng":139.526536,"zip":"3640033"},{"town":"深井二丁目","koaza":"","lat":36.046818,"lng":139.524606,"zip":"3640001"},{"town":"北本三丁目","koaza":"","lat":36.03448,"lng":139.536728,"zip":"3640006"},{"town":"北本一丁目","koaza":"","lat":36.031377,"lng":139.534952,"zip":"3640006"},{"town":"中央四丁目","koaza":"","lat":36.033139,"lng":139.53089,"zip":"3640031"},{"town":"本町五丁目","koaza":"","lat":36.023979,"lng":139.528448,"zip":"3640033"},{"town":"中央一丁目","koaza":"","lat":36.028801,"lng":139.533048,"zip":"3640031"},{"town":"西高尾五丁目","koaza":"","lat":36.030531,"lng":139.524275,"zip":"3640035"},{"town":"本町四丁目","koaza":"","lat":36.022406,"lng":139.530773,"zip":"3640033"},{"town":"本宿三丁目","koaza":"","lat":36.030681,"lng":139.541261,"zip":"3640005"},{"town":"石戸一丁目","koaza":"","lat":36.02296,"lng":139.523276,"zip":"3640024"},{"town":"本宿四丁目","koaza":"","lat":36.032361,"lng":139.542484,"zip":"3640005"},{"town":"西高尾一丁目","koaza":"","lat":36.031343,"lng":139.52862,"zip":"3640035"},{"town":"中丸二丁目","koaza":"","lat":36.023496,"lng":139.545249,"zip":"3640013"},{"town":"高尾三丁目","koaza":"","lat":36.031419,"lng":139.513878,"zip":"3640034"},{"town":"東間六丁目","koaza":"","lat":36.04232,"lng":139.528088,"zip":"3640007"},{"town":"北本二丁目","koaza":"","lat":36.032361,"lng":139.537555,"zip":"3640006"},{"town":"本宿五丁目","koaza":"","lat":36.029545,"lng":139.54544,"zip":"3640005"},{"town":"西高尾六丁目","koaza":"","lat":36.033775,"lng":139.521903,"zip":"3640035"},{"town":"東間七丁目","koaza":"","lat":36.043493,"lng":139.528732,"zip":"3640007"},{"town":"本町六丁目","koaza":"","lat":36.02705,"lng":139.526741,"zip":"3640033"},{"town":"本町一丁目","koaza":"","lat":36.027964,"lng":139.529971,"zip":"3640033"},{"town":"東間四丁目","koaza":"","lat":36.039569,"lng":139.531528,"zip":"3640007"},{"town":"二ツ家三丁目","koaza":"","lat":36.013239,"lng":139.553054,"zip":"3640014"},{"town":"東間三丁目","koaza":"","lat":36.038044,"lng":139.530028,"zip":"3640007"},{"town":"本町七丁目","koaza":"","lat":36.025073,"lng":139.525157,"zip":"3640033"},{"town":"深井五丁目","koaza":"","lat":36.049719,"lng":139.528724,"zip":"3640001"},{"town":"北中丸一丁目","koaza":"","lat":36.030814,"lng":139.549345,"zip":"3640012"},{"town":"本宿六丁目","koaza":"","lat":36.028272,"lng":139.543122,"zip":"3640005"},{"town":"緑二丁目","koaza":"","lat":36.026554,"lng":139.536095,"zip":"3640032"},{"town":"古市場三丁目","koaza":"","lat":36.036513,"lng":139.549573,"zip":"3640003"},{"town":"山中二丁目","koaza":"","lat":36.032373,"lng":139.547556,"zip":"3640004"},{"town":"本宿二丁目","koaza":"","lat":36.029371,"lng":139.539004,"zip":"3640005"},{"town":"東間二丁目","koaza":"","lat":36.03615,"lng":139.534493,"zip":"3640007"},{"town":"緑一丁目","koaza":"","lat":36.024999,"lng":139.534098,"zip":"3640032"},{"town":"西高尾七丁目","koaza":"","lat":36.032055,"lng":139.520449,"zip":"3640035"},{"town":"高尾五丁目","koaza":"","lat":36.029816,"lng":139.510819,"zip":"3640034"},{"town":"東間五丁目","koaza":"","lat":36.042472,"lng":139.525833,"zip":"3640007"},{"town":"朝日三丁目","koaza":"","lat":36.033525,"lng":139.555354,"zip":"3640011"},{"town":"中丸一丁目","koaza":"","lat":36.021092,"lng":139.543297,"zip":"3640013"},{"town":"本宿七丁目","koaza":"","lat":36.025778,"lng":139.542371,"zip":"3640005"},{"town":"中丸三丁目","koaza":"","lat":36.026457,"lng":139.546283,"zip":"3640013"},{"town":"二ツ家二丁目","koaza":"","lat":36.018045,"lng":139.549998,"zip":"3640014"},{"town":"宮内七丁目","koaza":"","lat":36.036409,"lng":139.544697,"zip":"3640002"},{"town":"東間八丁目","koaza":"","lat":36.043981,"lng":139.530996,"zip":"3640007"},{"town":"石戸二丁目","koaza":"","lat":36.024716,"lng":139.52093,"zip":"3640024"},{"town":"北中丸二丁目","koaza":"","lat":36.033165,"lng":139.552144,"zip":"3640012"},{"town":"石戸宿八丁目","koaza":"","lat":36.014642,"lng":139.505934,"zip":"3640025"},{"town":"石戸宿三丁目","koaza":"","lat":36.006719,"lng":139.5132,"zip":"3640025"},{"town":"宮内三丁目","koaza":"","lat":36.041059,"lng":139.534267,"zip":"3640002"},{"town":"宮内一丁目","koaza":"","lat":36.038458,"lng":139.53786,"zip":"3640002"},{"town":"北本四丁目","koaza":"","lat":36.034853,"lng":139.53999,"zip":"3640006"},{"town":"高尾一丁目","koaza":"","lat":36.027924,"lng":139.52037,"zip":"3640034"},{"town":"山中一丁目","koaza":"","lat":36.034242,"lng":139.545961,"zip":"3640004"},{"town":"中丸四丁目","koaza":"","lat":36.024261,"lng":139.549349,"zip":"3640013"},{"town":"石戸四丁目","koaza":"","lat":36.021848,"lng":139.521066,"zip":"3640024"},{"town":"中丸五丁目","koaza":"","lat":36.021188,"lng":139.546899,"zip":"3640013"},{"town":"石戸六丁目","koaza":"","lat":36.016682,"lng":139.528232,"zip":"3640024"},{"town":"石戸七丁目","koaza":"","lat":36.013854,"lng":139.529675,"zip":"3640024"},{"town":"深井六丁目","koaza":"","lat":36.053379,"lng":139.525168,"zip":"3640001"},{"town":"石戸宿五丁目","koaza":"","lat":36.002437,"lng":139.507144,"zip":"3640025"},{"town":"深井三丁目","koaza":"","lat":36.048672,"lng":139.525234,"zip":"3640001"},{"town":"石戸宿二丁目","koaza":"","lat":36.005829,"lng":139.516175,"zip":"3640025"},{"town":"石戸五丁目","koaza":"","lat":36.019397,"lng":139.526255,"zip":"3640024"},{"town":"二ツ家四丁目","koaza":"","lat":36.010834,"lng":139.552935,"zip":"3640014"},{"town":"高尾七丁目","koaza":"","lat":36.02542,"lng":139.512304,"zip":"3640034"},{"town":"古市場二丁目","koaza":"","lat":36.039612,"lng":139.547802,"zip":"3640003"},{"town":"中丸七丁目","koaza":"","lat":36.017363,"lng":139.554506,"zip":"3640013"},{"town":"石戸宿六丁目","koaza":"","lat":36.007199,"lng":139.507384,"zip":"3640025"},{"town":"石戸三丁目","koaza":"","lat":36.02414,"lng":139.517492,"zip":"3640024"},{"town":"中丸六丁目","koaza":"","lat":36.020597,"lng":139.551212,"zip":"3640013"},{"town":"石戸宿四丁目","koaza":"","lat":36.003146,"lng":139.511157,"zip":"3640025"},{"town":"石戸八丁目","koaza":"","lat":36.015654,"lng":139.524605,"zip":"3640024"},{"town":"深井四丁目","koaza":"","lat":36.04592,"lng":139.530902,"zip":"3640001"},{"town":"荒井一丁目","koaza":"","lat":36.022321,"lng":139.515146,"zip":"3640026"},{"town":"宮内六丁目","koaza":"","lat":36.038756,"lng":139.542219,"zip":"3640002"},{"town":"石戸宿一丁目","koaza":"","lat":36.009065,"lng":139.517357,"zip":"3640025"},{"town":"石戸宿七丁目","koaza":"","lat":36.012848,"lng":139.507827,"zip":"3640025"},{"town":"高尾二丁目","koaza":"","lat":36.028905,"lng":139.515654,"zip":"3640034"},{"town":"高尾八丁目","koaza":"","lat":36.022092,"lng":139.511034,"zip":"3640034"},{"town":"高尾九丁目","koaza":"","lat":36.021948,"lng":139.506513,"zip":"3640034"},{"town":"高尾四丁目","koaza":"","lat":36.031928,"lng":139.507875,"zip":"3640034"},{"town":"高尾六丁目","koaza":"","lat":36.027139,"lng":139.507447,"zip":"3640034"},{"town":"栄","koaza":"","lat":36.015866,"lng":139.533847,"zip":"3640027"},{"town":"古市場一丁目","koaza":"","lat":36.042123,"lng":139.545787,"zip":"3640003"},{"town":"石戸九丁目","koaza":"","lat":36.013113,"lng":139.522786,"zip":"3640024"},{"town":"荒井二丁目","koaza":"","lat":36.018112,"lng":139.521011,"zip":"3640026"},{"town":"荒井四丁目","koaza":"","lat":36.017736,"lng":139.511268,"zip":"3640026"},{"town":"荒井三丁目","koaza":"","lat":36.014307,"lng":139.517071,"zip":"3640026"},{"town":"中丸八丁目","koaza":"","lat":36.020796,"lng":139.556562,"zip":"3640013"},{"town":"荒井五丁目","koaza":"","lat":36.014542,"lng":139.512663,"zip":"3640026"},{"town":"朝日一丁目","koaza":"","lat":36.041571,"lng":139.553138,"zip":"3640011"},{"town":"深井七丁目","koaza":"","lat":36.053197,"lng":139.5292,"zip":"3640001"},{"town":"宮内四丁目","koaza":"","lat":36.045324,"lng":139.539,"zip":"3640002"},{"town":"中丸九丁目","koaza":"","lat":36.025022,"lng":139.554389,"zip":"3640013"},{"town":"宮内五丁目","koaza":"","lat":36.042496,"lng":139.540956,"zip":"3640002"},{"town":"朝日二丁目","koaza":"","lat":36.038628,"lng":139.554753,"zip":"3640011"},{"town":"深井八丁目","koaza":"","lat":36.047978,"lng":139.534857,"zip":"3640001"},{"town":"荒井六丁目","koaza":"","lat":36.010226,"lng":139.512362,"zip":"3640026"},{"town":"中丸十丁目","koaza":"","lat":36.028922,"lng":139.552316,"zip":"3640013"},{"town":"大字荒井","koaza":"","lat":36.020298,"lng":139.50233,"zip":"3640000"},{"town":"朝日四丁目","koaza":"","lat":36.034952,"lng":139.559743,"zip":"3640011"},{"town":"大字石戸宿","koaza":"","lat":36.005094,"lng":139.5042,"zip":"3640000"},{"town":"大字高尾","koaza":"","lat":36.031029,"lng":139.502667,"zip":"3640000"},{"town":"緑四丁目","koaza":"","lat":36.019739,"lng":139.541045,"zip":"3640032"},{"town":"二ツ家一丁目","koaza":"","lat":36.015601,"lng":139.54815,"zip":"3640014"},{"town":"下石戸五丁目","koaza":"","lat":36.017426,"lng":139.544177,"zip":"3640028"},{"town":"下石戸六丁目","koaza":"","lat":36.013481,"lng":139.545414,"zip":"3640028"},{"town":"下石戸七丁目","koaza":"","lat":36.009517,"lng":139.550404,"zip":"3640028"},{"town":"下石戸一丁目","koaza":"","lat":36.019702,"lng":139.534217,"zip":"3640028"},{"town":"緑三丁目","koaza":"","lat":36.022562,"lng":139.537895,"zip":"3640032"},{"town":"本宿一丁目","koaza":"","lat":36.027733,"lng":139.537717,"zip":"3640005"},{"town":"大字下石戸下","koaza":"","lat":36.015369,"lng":139.539505,"zip":"3640000"},{"town":"大字北本宿","koaza":"","lat":36.018603,"lng":139.539551,"zip":"3640000"}]