[{"town":"杉戸七丁目","koaza":"","lat":36.034694,"lng":139.725046,"zip":"3450036"},{"town":"杉戸六丁目","koaza":"","lat":36.03454,"lng":139.722024,"zip":"3450036"},{"town":"倉松四丁目","koaza":"","lat":36.030656,"lng":139.742641,"zip":"3450034"},{"town":"清地四丁目","koaza":"","lat":36.029078,"lng":139.735638,"zip":"3450025"},{"town":"高野台南四丁目","koaza":"","lat":36.04437,"lng":139.714334,"zip":"3450046"},{"town":"高野台南二丁目","koaza":"","lat":36.048574,"lng":139.713245,"zip":"3450046"},{"town":"高野台西二丁目","koaza":"","lat":36.05382,"lng":139.710036,"zip":"3450045"},{"town":"高野台南三丁目","koaza":"","lat":36.046824,"lng":139.713891,"zip":"3450046"},{"town":"倉松五丁目","koaza":"","lat":36.028994,"lng":139.743187,"zip":"3450034"},{"town":"高野台南一丁目","koaza":"","lat":36.049554,"lng":139.71169,"zip":"3450046"},{"town":"高野台西六丁目","koaza":"","lat":36.055964,"lng":139.710416,"zip":"3450045"},{"town":"高野台東二丁目","koaza":"","lat":36.046979,"lng":139.717176,"zip":"3450047"},{"town":"杉戸五丁目","koaza":"","lat":36.032277,"lng":139.721812,"zip":"3450036"},{"town":"内田一丁目","koaza":"","lat":36.033394,"lng":139.727595,"zip":"3450035"},{"town":"高野台西三丁目","koaza":"","lat":36.051954,"lng":139.709379,"zip":"3450045"},{"town":"清地五丁目","koaza":"","lat":36.028218,"lng":139.738708,"zip":"3450025"},{"town":"高野台西四丁目","koaza":"","lat":36.050912,"lng":139.707378,"zip":"3450045"},{"town":"杉戸三丁目","koaza":"","lat":36.027774,"lng":139.72881,"zip":"3450036"},{"town":"内田三丁目","koaza":"","lat":36.035226,"lng":139.732166,"zip":"3450035"},{"town":"倉松二丁目","koaza":"","lat":36.032076,"lng":139.73666,"zip":"3450034"},{"town":"内田四丁目","koaza":"","lat":36.036669,"lng":139.728402,"zip":"3450035"},{"town":"高野台東一丁目","koaza":"","lat":36.051637,"lng":139.715601,"zip":"3450047"},{"town":"高野台西一丁目","koaza":"","lat":36.052579,"lng":139.71297,"zip":"3450045"},{"town":"杉戸二丁目","koaza":"","lat":36.030014,"lng":139.728929,"zip":"3450036"},{"town":"倉松三丁目","koaza":"","lat":36.031756,"lng":139.739212,"zip":"3450034"},{"town":"高野台南五丁目","koaza":"","lat":36.046501,"lng":139.710952,"zip":"3450046"},{"town":"倉松一丁目","koaza":"","lat":36.033045,"lng":139.73445,"zip":"3450034"},{"town":"清地六丁目","koaza":"","lat":36.026832,"lng":139.741174,"zip":"3450025"},{"town":"杉戸一丁目","koaza":"","lat":36.032511,"lng":139.725324,"zip":"3450036"},{"town":"清地二丁目","koaza":"","lat":36.025176,"lng":139.736695,"zip":"3450025"},{"town":"杉戸四丁目","koaza":"","lat":36.029291,"lng":139.725017,"zip":"3450036"},{"town":"高野台西五丁目","koaza":"","lat":36.056021,"lng":139.70762,"zip":"3450045"},{"town":"清地一丁目","koaza":"","lat":36.027383,"lng":139.733723,"zip":"3450025"},{"town":"内田二丁目","koaza":"","lat":36.031768,"lng":139.730193,"zip":"3450035"},{"town":"大字茨島","koaza":"","lat":36.051168,"lng":139.718915,"zip":"3450000"},{"town":"清地三丁目","koaza":"","lat":36.022525,"lng":139.739623,"zip":"3450025"},{"town":"大字広戸沼","koaza":"","lat":36.046676,"lng":139.76244,"zip":"3450000"},{"town":"大字目沼","koaza":"","lat":36.05294,"lng":139.783532,"zip":"3450000"},{"town":"大字大島","koaza":"","lat":36.047999,"lng":139.721987,"zip":"3450000"},{"town":"大字屏風","koaza":"","lat":36.046846,"lng":139.783221,"zip":"3450000"},{"town":"大字木野川","koaza":"","lat":36.038287,"lng":139.801612,"zip":"3450000"},{"town":"大字遠野","koaza":"","lat":36.050942,"lng":139.75214,"zip":"3450000"},{"town":"大字清地","koaza":"","lat":36.031405,"lng":139.751279,"zip":"3450000"},{"town":"大字下野","koaza":"","lat":36.056405,"lng":139.702815,"zip":"3450000"},{"town":"大字木津内","koaza":"","lat":36.056612,"lng":139.790209,"zip":"3450000"},{"town":"大字倉松","koaza":"","lat":36.033616,"lng":139.743961,"zip":"3450000"},{"town":"大字宮前","koaza":"","lat":36.046979,"lng":139.791388,"zip":"3450000"},{"town":"大字北蓮沼","koaza":"","lat":36.016711,"lng":139.772266,"zip":"3450000"},{"town":"大字深輪","koaza":"","lat":36.037876,"lng":139.790587,"zip":"3450000"},{"town":"大字鷲巣","koaza":"","lat":36.044446,"lng":139.798463,"zip":"3450000"},{"town":"大字大塚","koaza":"","lat":36.012535,"lng":139.7778,"zip":"3450000"},{"town":"大字本郷","koaza":"","lat":36.00453,"lng":139.752537,"zip":"3450000"},{"town":"大字本島","koaza":"","lat":36.043355,"lng":139.746423,"zip":"3450000"},{"town":"大字並塚","koaza":"","lat":36.035445,"lng":139.766713,"zip":"3450000"},{"town":"大字椿","koaza":"","lat":36.034841,"lng":139.77934,"zip":"3450000"},{"town":"大字杉戸","koaza":"","lat":36.03907,"lng":139.727484,"zip":"3450000"},{"town":"大字佐左ヱ門","koaza":"","lat":36.04216,"lng":139.758808,"zip":"3450000"},{"town":"大字下高野","koaza":"","lat":36.044023,"lng":139.707485,"zip":"3450000"},{"town":"大字才羽","koaza":"","lat":36.024216,"lng":139.768883,"zip":"3450000"},{"town":"大字堤根","koaza":"","lat":36.018843,"lng":139.754215,"zip":"3450000"}]