[{"town":"寿五丁目","koaza":"","lat":36.002377,"lng":139.606648,"zip":"3620807"},{"town":"学園一丁目","koaza":"","lat":36.006519,"lng":139.609299,"zip":"3620813"},{"town":"寿四丁目","koaza":"","lat":36.003574,"lng":139.607474,"zip":"3620807"},{"town":"本町三丁目","koaza":"","lat":35.99608,"lng":139.626267,"zip":"3620804"},{"town":"内宿台三丁目","koaza":"","lat":36.012811,"lng":139.600893,"zip":"3620812"},{"town":"内宿台一丁目","koaza":"","lat":36.012663,"lng":139.603634,"zip":"3620812"},{"town":"栄二丁目","koaza":"","lat":35.97527,"lng":139.639178,"zip":"3620805"},{"town":"学園三丁目","koaza":"","lat":36.011466,"lng":139.614314,"zip":"3620813"},{"town":"栄三丁目","koaza":"","lat":35.978042,"lng":139.640633,"zip":"3620805"},{"town":"西小針四丁目","koaza":"","lat":36.021601,"lng":139.601484,"zip":"3620811"},{"town":"栄一丁目","koaza":"","lat":35.972111,"lng":139.636639,"zip":"3620805"},{"town":"西小針六丁目","koaza":"","lat":36.020242,"lng":139.595995,"zip":"3620811"},{"town":"栄六丁目","koaza":"","lat":35.988965,"lng":139.642054,"zip":"3620805"},{"town":"西小針五丁目","koaza":"","lat":36.016147,"lng":139.59368,"zip":"3620811"},{"town":"西小針一丁目","koaza":"","lat":36.014958,"lng":139.596697,"zip":"3620811"},{"town":"西小針二丁目","koaza":"","lat":36.017249,"lng":139.598349,"zip":"3620811"},{"town":"本町二丁目","koaza":"","lat":35.995813,"lng":139.630355,"zip":"3620804"},{"town":"寿三丁目","koaza":"","lat":36.007305,"lng":139.605678,"zip":"3620807"},{"town":"西小針三丁目","koaza":"","lat":36.019867,"lng":139.600399,"zip":"3620811"},{"town":"本町一丁目","koaza":"","lat":35.997817,"lng":139.628519,"zip":"3620804"},{"town":"内宿台四丁目","koaza":"","lat":36.015691,"lng":139.600977,"zip":"3620812"},{"town":"栄五丁目","koaza":"","lat":35.985888,"lng":139.641457,"zip":"3620805"},{"town":"内宿台二丁目","koaza":"","lat":36.014899,"lng":139.605942,"zip":"3620812"},{"town":"内宿台六丁目","koaza":"","lat":36.018607,"lng":139.609463,"zip":"3620812"},{"town":"西小針七丁目","koaza":"","lat":36.024465,"lng":139.596871,"zip":"3620811"},{"town":"寿二丁目","koaza":"","lat":36.005346,"lng":139.603912,"zip":"3620807"},{"town":"寿一丁目","koaza":"","lat":36.007298,"lng":139.600104,"zip":"3620807"},{"town":"栄四丁目","koaza":"","lat":35.981963,"lng":139.640824,"zip":"3620805"},{"town":"内宿台五丁目","koaza":"","lat":36.017132,"lng":139.605731,"zip":"3620812"},{"town":"学園二丁目","koaza":"","lat":36.00927,"lng":139.612819,"zip":"3620813"},{"town":"学園四丁目","koaza":"","lat":36.015005,"lng":139.61252,"zip":"3620813"},{"town":"大字羽貫","koaza":"","lat":36.011839,"lng":139.608778,"zip":"3620800"},{"town":"大字小針内宿","koaza":"","lat":36.021205,"lng":139.608327,"zip":"3620800"},{"town":"大字小針新宿","koaza":"","lat":36.010149,"lng":139.597125,"zip":"3620800"},{"town":"大字大針","koaza":"","lat":36.007291,"lng":139.619257,"zip":"3620800"},{"town":"大字小室","koaza":"","lat":35.987115,"lng":139.627672,"zip":"3620800"},{"town":"中央一丁目","koaza":"","lat":null,"lng":null,"zip":null},{"town":"中央二丁目","koaza":"","lat":null,"lng":null,"zip":null},{"town":"中央三丁目","koaza":"","lat":null,"lng":null,"zip":null},{"town":"中央四丁目","koaza":"","lat":null,"lng":null,"zip":null},{"town":"中央五丁目","koaza":"","lat":null,"lng":null,"zip":null}]