[{"town":"学園台三丁目","koaza":"","lat":36.026683,"lng":139.716811,"zip":"3450826"},{"town":"百間二丁目","koaza":"","lat":36.025793,"lng":139.726691,"zip":"3450801"},{"town":"笠原二丁目","koaza":"","lat":36.020999,"lng":139.724361,"zip":"3450822"},{"town":"百間三丁目","koaza":"","lat":36.024936,"lng":139.728779,"zip":"3450801"},{"town":"笠原一丁目","koaza":"","lat":36.022481,"lng":139.722793,"zip":"3450822"},{"town":"本田三丁目","koaza":"","lat":36.022842,"lng":139.720678,"zip":"3450827"},{"town":"宮代二丁目","koaza":"","lat":36.019073,"lng":139.72893,"zip":"3450823"},{"town":"本田一丁目","koaza":"","lat":36.026851,"lng":139.72135,"zip":"3450827"},{"town":"本田二丁目","koaza":"","lat":36.025406,"lng":139.720083,"zip":"3450827"},{"town":"学園台二丁目","koaza":"","lat":36.028931,"lng":139.714253,"zip":"3450826"},{"town":"中央三丁目","koaza":"","lat":36.024475,"lng":139.723329,"zip":"3450821"},{"town":"宮代台二丁目","koaza":"","lat":36.04161,"lng":139.691242,"zip":"3450835"},{"town":"学園台一丁目","koaza":"","lat":36.029767,"lng":139.715992,"zip":"3450826"},{"town":"和戸二丁目","koaza":"","lat":36.042693,"lng":139.698309,"zip":"3450836"},{"town":"百間五丁目","koaza":"","lat":36.023178,"lng":139.731431,"zip":"3450801"},{"town":"宮代一丁目","koaza":"","lat":36.022073,"lng":139.729932,"zip":"3450823"},{"town":"和戸五丁目","koaza":"","lat":36.039436,"lng":139.706174,"zip":"3450836"},{"town":"百間六丁目","koaza":"","lat":36.022613,"lng":139.734784,"zip":"3450801"},{"town":"百間一丁目","koaza":"","lat":36.028556,"lng":139.722132,"zip":"3450801"},{"town":"宮代台三丁目","koaza":"","lat":36.043571,"lng":139.690892,"zip":"3450835"},{"town":"宮代三丁目","koaza":"","lat":36.020306,"lng":139.727572,"zip":"3450823"},{"town":"川端二丁目","koaza":"","lat":36.006682,"lng":139.741277,"zip":"3450804"},{"town":"中央一丁目","koaza":"","lat":36.024743,"lng":139.725587,"zip":"3450821"},{"town":"中央二丁目","koaza":"","lat":36.022255,"lng":139.726195,"zip":"3450821"},{"town":"宮代台一丁目","koaza":"","lat":36.042644,"lng":139.694684,"zip":"3450835"},{"town":"和戸一丁目","koaza":"","lat":36.039461,"lng":139.702481,"zip":"3450836"},{"town":"和戸四丁目","koaza":"","lat":36.04095,"lng":139.704036,"zip":"3450836"},{"town":"百間四丁目","koaza":"","lat":36.024773,"lng":139.732641,"zip":"3450801"},{"town":"和戸三丁目","koaza":"","lat":36.043459,"lng":139.700748,"zip":"3450836"},{"town":"川端三丁目","koaza":"","lat":36.003644,"lng":139.742715,"zip":"3450804"},{"town":"本田五丁目","koaza":"","lat":36.02634,"lng":139.718247,"zip":"3450827"},{"town":"川端一丁目","koaza":"","lat":36.004476,"lng":139.739939,"zip":"3450804"},{"town":"本田四丁目","koaza":"","lat":36.023564,"lng":139.718229,"zip":"3450827"},{"town":"東姫宮二丁目","koaza":"","lat":35.999977,"lng":139.738855,"zip":"3450813"},{"town":"東姫宮一丁目","koaza":"","lat":36.004216,"lng":139.737161,"zip":"3450813"},{"town":"字百間","koaza":"","lat":36.019817,"lng":139.722439,"zip":"3450000"},{"town":"川端四丁目","koaza":"","lat":35.99984,"lng":139.742229,"zip":"3450804"},{"town":"字川端","koaza":"","lat":36.006237,"lng":139.745288,"zip":"3450000"},{"town":"学園台四丁目","koaza":"","lat":36.027041,"lng":139.713209,"zip":"3450826"},{"town":"大字国納","koaza":"","lat":36.038996,"lng":139.697478,"zip":"3450000"},{"town":"字道佛","koaza":"","lat":36.019539,"lng":139.731508,"zip":"3450000"},{"town":"字姫宮","koaza":"","lat":36.009964,"lng":139.73429,"zip":"3450000"},{"town":"字逆井","koaza":"","lat":36.015704,"lng":139.709799,"zip":"3450000"},{"town":"字西原","koaza":"","lat":36.010826,"lng":139.718955,"zip":"3450000"},{"town":"字金原","koaza":"","lat":36.008023,"lng":139.715003,"zip":"3450000"},{"town":"字東","koaza":"","lat":36.002327,"lng":139.731548,"zip":"3450000"},{"town":"字中","koaza":"","lat":36.003505,"lng":139.723327,"zip":"3450000"},{"town":"字中島","koaza":"","lat":36.016494,"lng":139.738853,"zip":"3450000"},{"town":"字宮東","koaza":"","lat":36.011779,"lng":139.745464,"zip":"3450000"},{"town":"字山崎","koaza":"","lat":36.014659,"lng":139.719916,"zip":"3450000"},{"town":"大字須賀","koaza":"","lat":36.032378,"lng":139.709091,"zip":"3450000"},{"town":"大字東粂原","koaza":"","lat":36.02887,"lng":139.702646,"zip":"3450000"},{"town":"大字西粂原","koaza":"","lat":36.033719,"lng":139.691565,"zip":"3450000"},{"town":"大字和戸","koaza":"","lat":36.049817,"lng":139.691265,"zip":"3450000"},{"town":"道佛一丁目","koaza":"","lat":36.018025,"lng":139.731787,"zip":"3450811"},{"town":"道佛二丁目","koaza":"","lat":36.015005,"lng":139.733541,"zip":"3450811"},{"town":"道佛三丁目","koaza":"","lat":36.015508,"lng":139.730386,"zip":"3450811"}]