[{"town":"大字中島","koaza":"","lat":35.878188,"lng":139.866809,"zip":"3420000"},{"town":"中川台","koaza":"","lat":35.878578,"lng":139.841542,"zip":"3420047"},{"town":"大字二ツ沼","koaza":"","lat":35.874504,"lng":139.869626,"zip":"3420000"},{"town":"大字会野谷","koaza":"","lat":35.897431,"lng":139.859801,"zip":"3420000"},{"town":"大字道庭","koaza":"","lat":35.865983,"lng":139.862083,"zip":"3420000"},{"town":"木売三丁目","koaza":"","lat":35.875263,"lng":139.845689,"zip":"3420045"},{"town":"新栄二丁目","koaza":"","lat":35.89046,"lng":139.860893,"zip":"3420059"},{"town":"道庭二丁目","koaza":"","lat":35.8616,"lng":139.84692,"zip":"3420034"},{"town":"新栄一丁目","koaza":"","lat":35.892848,"lng":139.860193,"zip":"3420059"},{"town":"会野谷二丁目","koaza":"","lat":35.898828,"lng":139.859769,"zip":"3420016"},{"town":"木売一丁目","koaza":"","lat":35.876567,"lng":139.844791,"zip":"3420045"},{"town":"高久二丁目","koaza":"","lat":35.869124,"lng":139.846139,"zip":"3420035"},{"town":"大字皿沼","koaza":"","lat":35.884208,"lng":139.876875,"zip":"3420000"},{"town":"大字中井","koaza":"","lat":35.88571,"lng":139.864247,"zip":"3420000"},{"town":"高富二丁目","koaza":"","lat":35.871972,"lng":139.84613,"zip":"3420036"},{"town":"きよみ野五丁目","koaza":"","lat":35.899578,"lng":139.854929,"zip":"3420058"},{"town":"三輪野江一丁目","koaza":"","lat":35.870649,"lng":139.873208,"zip":"3420027"},{"town":"大字川富","koaza":"","lat":35.896723,"lng":139.846766,"zip":"3420000"},{"town":"道庭一丁目","koaza":"","lat":35.861048,"lng":139.842483,"zip":"3420034"},{"town":"大字関新田","koaza":"","lat":35.89765,"lng":139.873581,"zip":"3420000"},{"town":"皿沼一丁目","koaza":"","lat":35.888331,"lng":139.869716,"zip":"3420023"},{"town":"上笹塚一丁目","koaza":"","lat":35.902435,"lng":139.857917,"zip":"3420017"},{"town":"中井一丁目","koaza":"","lat":35.893651,"lng":139.866533,"zip":"3420015"},{"town":"きよみ野三丁目","koaza":"","lat":35.897914,"lng":139.85091,"zip":"3420058"},{"town":"大字関","koaza":"","lat":35.894932,"lng":139.847334,"zip":"3420000"},{"town":"皿沼二丁目","koaza":"","lat":35.885005,"lng":139.872459,"zip":"3420023"},{"town":"中曽根二丁目","koaza":"","lat":35.865018,"lng":139.846435,"zip":"3420033"},{"town":"二ツ沼二丁目","koaza":"","lat":35.873751,"lng":139.876396,"zip":"3420032"},{"town":"きよみ野二丁目","koaza":"","lat":35.894407,"lng":139.851396,"zip":"3420058"},{"town":"きよみ野四丁目","koaza":"","lat":35.898919,"lng":139.852836,"zip":"3420058"},{"town":"きよみ野一丁目","koaza":"","lat":35.896106,"lng":139.856211,"zip":"3420058"},{"town":"平沼一丁目","koaza":"","lat":35.884288,"lng":139.844402,"zip":"3420056"},{"town":"三輪野江二丁目","koaza":"","lat":35.86925,"lng":139.875461,"zip":"3420027"},{"town":"吉屋一丁目","koaza":"","lat":35.893015,"lng":139.874553,"zip":"3420013"},{"town":"大字鹿見塚","koaza":"","lat":35.889388,"lng":139.872697,"zip":"3420000"},{"town":"吉屋二丁目","koaza":"","lat":35.892483,"lng":139.878544,"zip":"3420013"},{"town":"二ツ沼一丁目","koaza":"","lat":35.874535,"lng":139.872254,"zip":"3420032"},{"town":"吉川一丁目","koaza":"","lat":35.889014,"lng":139.844126,"zip":"3420055"},{"town":"大字小松川","koaza":"","lat":35.883885,"lng":139.862766,"zip":"3420000"},{"town":"会野谷一丁目","koaza":"","lat":35.897358,"lng":139.863287,"zip":"3420016"},{"town":"中井二丁目","koaza":"","lat":35.893631,"lng":139.862476,"zip":"3420015"},{"town":"美南一丁目","koaza":"","lat":35.872552,"lng":139.849746,"zip":"3420038"},{"town":"保一丁目","koaza":"","lat":35.879847,"lng":139.844861,"zip":"3420041"},{"town":"吉川団地","koaza":"","lat":35.891554,"lng":139.847396,"zip":"3420054"},{"town":"大字上笹塚","koaza":"","lat":35.90338,"lng":139.869494,"zip":"3420000"},{"town":"美南四丁目","koaza":"","lat":35.863512,"lng":139.850992,"zip":"3420038"},{"town":"大字富新田","koaza":"","lat":35.875781,"lng":139.862627,"zip":"3420000"},{"town":"美南三丁目","koaza":"","lat":35.865153,"lng":139.858836,"zip":"3420038"},{"town":"中曽根一丁目","koaza":"","lat":35.863547,"lng":139.841802,"zip":"3420033"},{"town":"大字川野","koaza":"","lat":35.899558,"lng":139.84792,"zip":"3420000"},{"town":"関新田一丁目","koaza":"","lat":35.895281,"lng":139.868364,"zip":"3420014"},{"town":"吉川二丁目","koaza":"","lat":35.894362,"lng":139.84152,"zip":"3420055"},{"town":"中井三丁目","koaza":"","lat":35.890962,"lng":139.867715,"zip":"3420015"},{"town":"上笹塚三丁目","koaza":"","lat":35.902993,"lng":139.86584,"zip":"3420017"},{"town":"中島三丁目","koaza":"","lat":35.878596,"lng":139.870304,"zip":"3420031"},{"town":"大字高富","koaza":"","lat":35.873659,"lng":139.855528,"zip":"3420000"},{"town":"関新田二丁目","koaza":"","lat":35.896503,"lng":139.871417,"zip":"3420014"},{"town":"上笹塚二丁目","koaza":"","lat":35.902962,"lng":139.861626,"zip":"3420017"},{"town":"高久一丁目","koaza":"","lat":35.867473,"lng":139.842202,"zip":"3420035"},{"town":"美南五丁目","koaza":"","lat":35.86758,"lng":139.849674,"zip":"3420038"},{"town":"美南二丁目","koaza":"","lat":35.868399,"lng":139.854476,"zip":"3420038"},{"town":"大字木売","koaza":"","lat":35.877017,"lng":139.851248,"zip":"3420000"},{"town":"旭","koaza":"","lat":35.930844,"lng":139.841813,"zip":"3420008"},{"town":"中島二丁目","koaza":"","lat":35.879388,"lng":139.875133,"zip":"3420031"},{"town":"大字土場","koaza":"","lat":35.877372,"lng":139.883007,"zip":"3420000"},{"town":"大字鍋小路","koaza":"","lat":35.910465,"lng":139.866692,"zip":"3420000"},{"town":"大字平沼","koaza":"","lat":35.889099,"lng":139.857109,"zip":"3420000"},{"town":"大字飯島","koaza":"","lat":35.88003,"lng":139.882949,"zip":"3420000"},{"town":"中野","koaza":"","lat":35.882857,"lng":139.859309,"zip":"3420042"},{"town":"大字吉川","koaza":"","lat":35.891288,"lng":139.853344,"zip":"3420000"},{"town":"栄町","koaza":"","lat":35.886494,"lng":139.854013,"zip":"3420050"},{"town":"中島一丁目","koaza":"","lat":35.884235,"lng":139.867684,"zip":"3420031"},{"town":"大字須賀","koaza":"","lat":35.897798,"lng":139.833882,"zip":"3420000"},{"town":"大字木売新田","koaza":"","lat":35.878143,"lng":139.860769,"zip":"3420000"},{"town":"大字拾壱軒","koaza":"","lat":35.921734,"lng":139.838168,"zip":"3420000"},{"town":"大字中曽根","koaza":"","lat":35.868651,"lng":139.864247,"zip":"3420000"},{"town":"大字保","koaza":"","lat":35.881912,"lng":139.849669,"zip":"3420000"},{"town":"大字半割","koaza":"","lat":35.883403,"lng":139.885708,"zip":"3420000"},{"town":"大字高久","koaza":"","lat":35.871797,"lng":139.862021,"zip":"3420000"},{"town":"大字吉屋","koaza":"","lat":35.891825,"lng":139.885439,"zip":"3420000"},{"town":"大字平方新田","koaza":"","lat":35.898895,"lng":139.878836,"zip":"3420000"},{"town":"大字加藤","koaza":"","lat":35.887256,"lng":139.882975,"zip":"3420000"},{"town":"大字八子新田","koaza":"","lat":35.916086,"lng":139.864978,"zip":"3420000"},{"town":"大字深井新田","koaza":"","lat":35.906899,"lng":139.873666,"zip":"3420000"},{"town":"大字南広島","koaza":"","lat":35.91959,"lng":139.84712,"zip":"3420000"},{"town":"大字下内川","koaza":"","lat":35.923582,"lng":139.858957,"zip":"3420000"},{"town":"大字上内川","koaza":"","lat":35.931997,"lng":139.852762,"zip":"3420000"},{"town":"大字三輪野江","koaza":"","lat":35.872971,"lng":139.887343,"zip":"3420000"},{"town":"大字川藤","koaza":"","lat":35.906706,"lng":139.850843,"zip":"3420000"},{"town":"木売二丁目","koaza":"","lat":35.875093,"lng":139.842834,"zip":"3420045"},{"town":"高富一丁目","koaza":"","lat":35.871718,"lng":139.842923,"zip":"3420036"},{"town":"大字共保","koaza":"","lat":35.879254,"lng":139.840591,"zip":"3420000"},{"town":"中央一丁目","koaza":"","lat":null,"lng":null,"zip":null},{"town":"中央二丁目","koaza":"","lat":null,"lng":null,"zip":null},{"town":"中央三丁目","koaza":"","lat":null,"lng":null,"zip":null}]