[{"town":"大字片柳新田","koaza":"","lat":35.969142,"lng":139.407513,"zip":"3500200"},{"town":"大字栄","koaza":"","lat":35.959126,"lng":139.411459,"zip":"3500200"},{"town":"鶴舞三丁目","koaza":"","lat":35.946761,"lng":139.370421,"zip":"3500241"},{"town":"大字坂戸","koaza":"","lat":35.96936,"lng":139.402626,"zip":"3500200"},{"town":"鶴舞一丁目","koaza":"","lat":35.947351,"lng":139.372247,"zip":"3500241"},{"town":"浅羽野三丁目","koaza":"","lat":35.948974,"lng":139.380013,"zip":"3500237"},{"town":"浅羽野二丁目","koaza":"","lat":35.951508,"lng":139.380145,"zip":"3500237"},{"town":"大字竹之内","koaza":"","lat":35.968006,"lng":139.357398,"zip":"3500200"},{"town":"浅羽野一丁目","koaza":"","lat":35.954951,"lng":139.3824,"zip":"3500237"},{"town":"関間二丁目","koaza":"","lat":35.952499,"lng":139.399446,"zip":"3500215"},{"town":"山田町","koaza":"","lat":35.960651,"lng":139.400016,"zip":"3500224"},{"town":"関間三丁目","koaza":"","lat":35.949985,"lng":139.399762,"zip":"3500215"},{"town":"関間一丁目","koaza":"","lat":35.95467,"lng":139.400969,"zip":"3500215"},{"town":"西坂戸三丁目","koaza":"","lat":35.930723,"lng":139.329732,"zip":"3500247"},{"town":"鶴舞四丁目","koaza":"","lat":35.949007,"lng":139.368627,"zip":"3500241"},{"town":"鶴舞二丁目","koaza":"","lat":35.950595,"lng":139.370957,"zip":"3500241"},{"town":"八幡一丁目","koaza":"","lat":35.959502,"lng":139.403951,"zip":"3500223"},{"town":"西坂戸二丁目","koaza":"","lat":35.933614,"lng":139.331225,"zip":"3500247"},{"town":"西坂戸一丁目","koaza":"","lat":35.931963,"lng":139.332952,"zip":"3500247"},{"town":"にっさい花みず木七丁目","koaza":"","lat":35.971414,"lng":139.363229,"zip":"3500269"},{"town":"西坂戸四丁目","koaza":"","lat":35.927309,"lng":139.331395,"zip":"3500247"},{"town":"にっさい花みず木六丁目","koaza":"","lat":35.966469,"lng":139.361114,"zip":"3500269"},{"town":"緑町","koaza":"","lat":35.954871,"lng":139.3921,"zip":"3500234"},{"town":"泉町二丁目","koaza":"","lat":35.96582,"lng":139.389019,"zip":"3500231"},{"town":"八幡二丁目","koaza":"","lat":35.958938,"lng":139.401437,"zip":"3500223"},{"town":"鎌倉町","koaza":"","lat":35.966908,"lng":139.404595,"zip":"3500221"},{"town":"にっさい花みず木二丁目","koaza":"","lat":35.970288,"lng":139.373927,"zip":"3500269"},{"town":"にっさい花みず木四丁目","koaza":"","lat":35.969387,"lng":139.367028,"zip":"3500269"},{"town":"柳町","koaza":"","lat":35.963085,"lng":139.40761,"zip":"3500216"},{"town":"にっさい花みず木八丁目","koaza":"","lat":35.973215,"lng":139.371158,"zip":"3500269"},{"town":"にっさい花みず木三丁目","koaza":"","lat":35.970287,"lng":139.370859,"zip":"3500269"},{"town":"東坂戸一丁目","koaza":"","lat":35.952765,"lng":139.441196,"zip":"3500205"},{"town":"にっさい花みず木五丁目","koaza":"","lat":35.969022,"lng":139.363052,"zip":"3500269"},{"town":"泉町","koaza":"","lat":35.96313,"lng":139.389552,"zip":"3500231"},{"town":"東坂戸二丁目","koaza":"","lat":35.954019,"lng":139.448036,"zip":"3500205"},{"town":"西坂戸五丁目","koaza":"","lat":35.928982,"lng":139.335052,"zip":"3500247"},{"town":"大字今西","koaza":"","lat":35.97534,"lng":139.366572,"zip":"3500200"},{"town":"大字長岡","koaza":"","lat":35.968207,"lng":139.352891,"zip":"3500200"},{"town":"本町","koaza":"","lat":35.960872,"lng":139.394518,"zip":"3500226"},{"town":"大字金田","koaza":"","lat":35.976503,"lng":139.371643,"zip":"3500200"},{"town":"千代田三丁目","koaza":"","lat":35.952272,"lng":139.409853,"zip":"3500214"},{"town":"大字粟生田","koaza":"","lat":35.960012,"lng":139.384181,"zip":"3500200"},{"town":"南町","koaza":"","lat":35.955068,"lng":139.396529,"zip":"3500233"},{"town":"千代田二丁目","koaza":"","lat":35.958786,"lng":139.407806,"zip":"3500214"},{"town":"仲町","koaza":"","lat":35.963406,"lng":139.395084,"zip":"3500227"},{"town":"泉町三丁目","koaza":"","lat":35.969248,"lng":139.388392,"zip":"3500231"},{"town":"日の出町","koaza":"","lat":35.959147,"lng":139.393487,"zip":"3500225"},{"town":"溝端町","koaza":"","lat":35.970685,"lng":139.393932,"zip":"3500274"},{"town":"にっさい花みず木一丁目","koaza":"","lat":35.972081,"lng":139.377024,"zip":"3500269"},{"town":"けやき台","koaza":"","lat":35.932632,"lng":139.339624,"zip":"3500248"},{"town":"花影町","koaza":"","lat":35.95354,"lng":139.385869,"zip":"3500236"},{"town":"大字小山","koaza":"","lat":35.965362,"lng":139.356885,"zip":"3500200"},{"town":"三光町","koaza":"","lat":35.955961,"lng":139.387438,"zip":"3500235"},{"town":"千代田四丁目","koaza":"","lat":35.956349,"lng":139.410145,"zip":"3500214"},{"town":"大字堀込","koaza":"","lat":35.965242,"lng":139.365117,"zip":"3500200"},{"town":"大字新ケ谷","koaza":"","lat":35.980413,"lng":139.389947,"zip":"3500200"},{"town":"芦山町","koaza":"","lat":35.973906,"lng":139.399811,"zip":"3500273"},{"town":"関間四丁目","koaza":"","lat":35.951059,"lng":139.404185,"zip":"3500215"},{"town":"清水町","koaza":"","lat":35.964214,"lng":139.402847,"zip":"3500222"},{"town":"中富町","koaza":"","lat":35.959273,"lng":139.387696,"zip":"3500232"},{"town":"千代田一丁目","koaza":"","lat":35.954703,"lng":139.404586,"zip":"3500214"},{"town":"元町","koaza":"","lat":35.965939,"lng":139.396778,"zip":"3500228"},{"town":"末広町","koaza":"","lat":35.975011,"lng":139.396123,"zip":"3500272"},{"town":"薬師町","koaza":"","lat":35.969373,"lng":139.399534,"zip":"3500229"},{"town":"大字北峰","koaza":"","lat":35.960701,"lng":139.366061,"zip":"3500200"},{"town":"大字欠ノ上","koaza":"","lat":35.951125,"lng":139.359683,"zip":"3500200"},{"town":"大字新堀","koaza":"","lat":35.965184,"lng":139.370272,"zip":"3500200"},{"town":"大字沢木","koaza":"","lat":35.978058,"lng":139.377467,"zip":"3500200"},{"town":"大字中里","koaza":"","lat":35.961992,"lng":139.379934,"zip":"3500200"},{"town":"伊豆の山町","koaza":"","lat":35.972993,"lng":139.389387,"zip":"3500275"},{"town":"大字東和田","koaza":"","lat":35.981591,"lng":139.385882,"zip":"3500200"},{"town":"大字厚川","koaza":"","lat":35.947994,"lng":139.366007,"zip":"3500200"},{"town":"大字戸宮","koaza":"","lat":35.960975,"lng":139.426837,"zip":"3500200"},{"town":"大字萱方","koaza":"","lat":35.94665,"lng":139.361797,"zip":"3500200"},{"town":"千代田五丁目","koaza":"","lat":35.959699,"lng":139.417625,"zip":"3500214"},{"town":"大字塚崎","koaza":"","lat":35.964706,"lng":139.375554,"zip":"3500200"},{"town":"大字成願寺","koaza":"","lat":35.956433,"lng":139.36324,"zip":"3500200"},{"town":"大字上吉田","koaza":"","lat":35.98081,"lng":139.394855,"zip":"3500200"},{"town":"大字善能寺","koaza":"","lat":35.961049,"lng":139.357037,"zip":"3500200"},{"town":"大字北大塚","koaza":"","lat":35.956999,"lng":139.371414,"zip":"3500200"},{"town":"大字北浅羽","koaza":"","lat":35.973698,"lng":139.360332,"zip":"3500200"},{"town":"大字四日市場","koaza":"","lat":35.93108,"lng":139.352618,"zip":"3500200"},{"town":"大字青木","koaza":"","lat":35.966454,"lng":139.43324,"zip":"3500200"},{"town":"大字戸口","koaza":"","lat":35.974776,"lng":139.382969,"zip":"3500200"},{"town":"大字中小坂","koaza":"","lat":35.94978,"lng":139.443278,"zip":"3500200"},{"town":"大字浅羽","koaza":"","lat":35.950968,"lng":139.375549,"zip":"3500200"},{"town":"大字島田","koaza":"","lat":35.989113,"lng":139.417487,"zip":"3500200"},{"town":"大字片柳","koaza":"","lat":35.976796,"lng":139.405452,"zip":"3500200"},{"town":"大字森戸","koaza":"","lat":35.939104,"lng":139.359288,"zip":"3500200"},{"town":"大字塚越","koaza":"","lat":35.967974,"lng":139.424226,"zip":"3500200"},{"town":"大字紺屋","koaza":"","lat":35.959416,"lng":139.452581,"zip":"3500200"},{"town":"大字横沼","koaza":"","lat":35.965861,"lng":139.45007,"zip":"3500200"},{"town":"大字多和目","koaza":"","lat":35.927784,"lng":139.34126,"zip":"3500200"},{"town":"大字小沼","koaza":"","lat":35.974216,"lng":139.445488,"zip":"3500200"},{"town":"大字赤尾","koaza":"","lat":35.987039,"lng":139.43317,"zip":"3500200"},{"town":"大字石井","koaza":"","lat":35.972415,"lng":139.41477,"zip":"3500200"},{"town":"西インター一丁目","koaza":"","lat":35.965279,"lng":139.382434,"zip":"3500259"},{"town":"西インター二丁目","koaza":"","lat":35.967607,"lng":139.378132,"zip":"3500259"}]