[{"town":"大字西古里","koaza":"","lat":36.102683,"lng":139.286786,"zip":"3691200"},{"town":"大字藤田","koaza":"","lat":36.123388,"lng":139.18187,"zip":"3691200"},{"town":"大字保田原","koaza":"","lat":36.116781,"lng":139.213455,"zip":"3691200"},{"town":"大字露梨子","koaza":"","lat":36.105759,"lng":139.215719,"zip":"3691200"},{"town":"大字小園","koaza":"","lat":36.116074,"lng":139.225846,"zip":"3691200"},{"town":"大字鷹ノ巣","koaza":"","lat":36.099576,"lng":139.281796,"zip":"3691200"},{"town":"大字三品","koaza":"","lat":36.09141,"lng":139.17774,"zip":"3691200"},{"town":"大字立原","koaza":"","lat":36.103218,"lng":139.189489,"zip":"3691200"},{"town":"大字三ケ山","koaza":"","lat":36.094821,"lng":139.216886,"zip":"3691200"},{"town":"大字寄居","koaza":"","lat":36.117617,"lng":139.192595,"zip":"3691200"},{"town":"大字秋山","koaza":"","lat":36.096028,"lng":139.167207,"zip":"3691200"},{"town":"大字今市","koaza":"","lat":36.098727,"lng":139.264341,"zip":"3691200"},{"town":"大字金尾","koaza":"","lat":36.122757,"lng":139.151249,"zip":"3691200"},{"town":"大字牟礼","koaza":"","lat":36.095708,"lng":139.248653,"zip":"3691200"},{"town":"大字鉢形","koaza":"","lat":36.107206,"lng":139.203596,"zip":"3691200"},{"town":"大字末野","koaza":"","lat":36.126511,"lng":139.167513,"zip":"3691200"},{"town":"大字赤浜","koaza":"","lat":36.112503,"lng":139.25199,"zip":"3691200"},{"town":"大字折原","koaza":"","lat":36.109085,"lng":139.173866,"zip":"3691200"},{"town":"大字風布","koaza":"","lat":36.101259,"lng":139.149317,"zip":"3691200"},{"town":"大字桜沢","koaza":"","lat":36.127231,"lng":139.198365,"zip":"3691200"},{"town":"大字富田","koaza":"","lat":36.099264,"lng":139.233499,"zip":"3691200"},{"town":"大字西ノ入","koaza":"","lat":36.083872,"lng":139.191876,"zip":"3691200"},{"town":"大字用土","koaza":"","lat":36.156287,"lng":139.214121,"zip":"3691200"}]