[{"town":"榎町","koaza":"","lat":35.832518,"lng":139.560506,"zip":"3540016"},{"town":"貝塚一丁目","koaza":"","lat":35.84862,"lng":139.560894,"zip":"3540012"},{"town":"貝塚二丁目","koaza":"","lat":35.848051,"lng":139.563727,"zip":"3540012"},{"town":"東みずほ台四丁目","koaza":"","lat":35.843837,"lng":139.549118,"zip":"3540015"},{"town":"西みずほ台三丁目","koaza":"","lat":35.835527,"lng":139.54705,"zip":"3540018"},{"town":"水谷二丁目","koaza":"","lat":35.844095,"lng":139.554389,"zip":"3540014"},{"town":"西みずほ台二丁目","koaza":"","lat":35.836487,"lng":139.551284,"zip":"3540018"},{"town":"東みずほ台一丁目","koaza":"","lat":35.839516,"lng":139.553903,"zip":"3540015"},{"town":"上沢二丁目","koaza":"","lat":35.854651,"lng":139.530482,"zip":"3540034"},{"town":"関沢一丁目","koaza":"","lat":35.843479,"lng":139.543802,"zip":"3540025"},{"town":"鶴馬三丁目","koaza":"","lat":35.844702,"lng":139.548288,"zip":"3540021"},{"town":"大字針ケ谷","koaza":"","lat":35.829657,"lng":139.556489,"zip":"3540000"},{"town":"水谷一丁目","koaza":"","lat":35.842117,"lng":139.558192,"zip":"3540014"},{"town":"水谷東一丁目","koaza":"","lat":35.842447,"lng":139.571062,"zip":"3540013"},{"town":"渡戸一丁目","koaza":"","lat":35.86095,"lng":139.53925,"zip":"3540032"},{"town":"みどり野西","koaza":"","lat":35.867421,"lng":139.557472,"zip":"3540008"},{"town":"鶴瀬東一丁目","koaza":"","lat":35.846394,"lng":139.540495,"zip":"3540024"},{"town":"西みずほ台一丁目","koaza":"","lat":35.838268,"lng":139.548827,"zip":"3540018"},{"town":"渡戸二丁目","koaza":"","lat":35.860801,"lng":139.535459,"zip":"3540032"},{"town":"上沢三丁目","koaza":"","lat":35.851975,"lng":139.529364,"zip":"3540034"},{"town":"水谷東二丁目","koaza":"","lat":35.8386,"lng":139.575078,"zip":"3540013"},{"town":"水谷東三丁目","koaza":"","lat":35.839316,"lng":139.578564,"zip":"3540013"},{"town":"東みずほ台三丁目","koaza":"","lat":35.842692,"lng":139.550484,"zip":"3540015"},{"town":"諏訪一丁目","koaza":"","lat":35.854567,"lng":139.548199,"zip":"3540023"},{"town":"鶴瀬西三丁目","koaza":"","lat":35.847945,"lng":139.531543,"zip":"3540026"},{"town":"諏訪二丁目","koaza":"","lat":35.851836,"lng":139.548828,"zip":"3540023"},{"town":"みどり野東","koaza":"","lat":35.868204,"lng":139.568844,"zip":"3540006"},{"town":"みどり野北","koaza":"","lat":35.868336,"lng":139.562584,"zip":"3540005"},{"town":"渡戸三丁目","koaza":"","lat":35.857177,"lng":139.533251,"zip":"3540032"},{"town":"山室二丁目","koaza":"","lat":35.859295,"lng":139.544382,"zip":"3540022"},{"town":"東みずほ台二丁目","koaza":"","lat":35.841025,"lng":139.55244,"zip":"3540015"},{"town":"針ケ谷二丁目","koaza":"","lat":35.829754,"lng":139.552342,"zip":"3540017"},{"town":"羽沢二丁目","koaza":"","lat":35.855465,"lng":139.536632,"zip":"3540033"},{"town":"上沢一丁目","koaza":"","lat":35.851852,"lng":139.533813,"zip":"3540034"},{"town":"鶴馬二丁目","koaza":"","lat":35.845567,"lng":139.545855,"zip":"3540021"},{"town":"羽沢一丁目","koaza":"","lat":35.857883,"lng":139.540516,"zip":"3540033"},{"town":"山室一丁目","koaza":"","lat":35.860523,"lng":139.547302,"zip":"3540022"},{"town":"みどり野南","koaza":"","lat":35.865288,"lng":139.565594,"zip":"3540007"},{"town":"針ケ谷一丁目","koaza":"","lat":35.833482,"lng":139.554629,"zip":"3540017"},{"town":"鶴馬一丁目","koaza":"","lat":35.848916,"lng":139.54458,"zip":"3540021"},{"town":"羽沢三丁目","koaza":"","lat":35.853882,"lng":139.54287,"zip":"3540033"},{"town":"鶴瀬西二丁目","koaza":"","lat":35.845639,"lng":139.533883,"zip":"3540026"},{"town":"関沢二丁目","koaza":"","lat":35.841477,"lng":139.541509,"zip":"3540025"},{"town":"鶴瀬東二丁目","koaza":"","lat":35.850056,"lng":139.538304,"zip":"3540024"},{"town":"関沢三丁目","koaza":"","lat":35.838126,"lng":139.542784,"zip":"3540025"},{"town":"大字南畑新田","koaza":"","lat":35.861982,"lng":139.577099,"zip":"3540000"},{"town":"大字鶴馬","koaza":"","lat":35.855378,"lng":139.553139,"zip":"3540000"},{"town":"大字上南畑","koaza":"","lat":35.861541,"lng":139.558517,"zip":"3540000"},{"town":"大字東大久保","koaza":"","lat":35.877692,"lng":139.554762,"zip":"3540000"},{"town":"大字水子","koaza":"","lat":35.8408,"lng":139.564345,"zip":"3540000"},{"town":"大字下南畑","koaza":"","lat":35.856479,"lng":139.56882,"zip":"3540000"},{"town":"ふじみ野東三丁目","koaza":"","lat":35.864879,"lng":139.52763,"zip":"3540036"},{"town":"ふじみ野東四丁目","koaza":"","lat":35.862882,"lng":139.528713,"zip":"3540036"},{"town":"大字勝瀬","koaza":"","lat":35.865857,"lng":139.53908,"zip":"3540000"},{"town":"ふじみ野西三丁目","koaza":"","lat":35.860899,"lng":139.518278,"zip":"3540035"},{"town":"ふじみ野西二丁目","koaza":"","lat":35.861644,"lng":139.52012,"zip":"3540035"},{"town":"ふじみ野西一丁目","koaza":"","lat":35.859703,"lng":139.521203,"zip":"3540035"},{"town":"ふじみ野東一丁目","koaza":"","lat":35.861728,"lng":139.525309,"zip":"3540036"},{"town":"ふじみ野東二丁目","koaza":"","lat":35.863669,"lng":139.523509,"zip":"3540036"},{"town":"ふじみ野西四丁目","koaza":"","lat":35.85668,"lng":139.516619,"zip":"3540035"}]