[{"town":"大字前田","koaza":"","lat":35.814632,"lng":139.729768,"zip":"3320000"},{"town":"大字安行西立野","koaza":"","lat":35.856186,"lng":139.755215,"zip":"3320000"},{"town":"大字長蔵新田","koaza":"","lat":35.85917,"lng":139.752856,"zip":"3320000"},{"town":"大字蓮沼","koaza":"","lat":35.824133,"lng":139.761786,"zip":"3320000"},{"town":"南鳩ヶ谷八丁目","koaza":"","lat":35.819295,"lng":139.729404,"zip":"3340013"},{"town":"鳩ヶ谷緑町一丁目","koaza":"","lat":35.816471,"lng":139.729099,"zip":"3340015"},{"town":"新堀町","koaza":"","lat":35.825057,"lng":139.781901,"zip":"3340068"},{"town":"安行出羽三丁目","koaza":"","lat":35.854806,"lng":139.766379,"zip":"3340052"},{"town":"桜町四丁目","koaza":"","lat":35.840268,"lng":139.744063,"zip":"3340001"},{"town":"榛松一丁目","koaza":"","lat":35.820501,"lng":139.771521,"zip":"3340062"},{"town":"川口三丁目","koaza":"","lat":35.802267,"lng":139.715894,"zip":"3320015"},{"town":"川口四丁目","koaza":"","lat":35.803587,"lng":139.713491,"zip":"3320015"},{"town":"川口六丁目","koaza":"","lat":35.803584,"lng":139.709978,"zip":"3320015"},{"town":"安行出羽二丁目","koaza":"","lat":35.853044,"lng":139.764654,"zip":"3340052"},{"town":"戸塚南一丁目","koaza":"","lat":35.860182,"lng":139.749937,"zip":"3330817"},{"town":"安行出羽五丁目","koaza":"","lat":35.850793,"lng":139.765473,"zip":"3340052"},{"town":"鳩ヶ谷緑町二丁目","koaza":"","lat":35.819365,"lng":139.727249,"zip":"3340015"},{"town":"戸塚南五丁目","koaza":"","lat":35.863807,"lng":139.741623,"zip":"3330817"},{"town":"安行出羽一丁目","koaza":"","lat":35.851064,"lng":139.761302,"zip":"3340052"},{"town":"中青木一丁目","koaza":"","lat":35.807918,"lng":139.721523,"zip":"3320032"},{"town":"鳩ヶ谷本町二丁目","koaza":"","lat":35.834851,"lng":139.741433,"zip":"3340002"},{"town":"芝宮根町","koaza":"","lat":35.839622,"lng":139.696969,"zip":"3330869"},{"town":"芝樋ノ爪二丁目","koaza":"","lat":35.833294,"lng":139.687094,"zip":"3330852"},{"town":"芝新町","koaza":"","lat":35.829351,"lng":139.692857,"zip":"3330851"},{"town":"栄町二丁目","koaza":"","lat":35.803464,"lng":139.72324,"zip":"3320017"},{"town":"長蔵三丁目","koaza":"","lat":35.861398,"lng":139.762527,"zip":"3330807"},{"town":"幸町一丁目","koaza":"","lat":35.805569,"lng":139.722735,"zip":"3320016"},{"town":"幸町二丁目","koaza":"","lat":35.806954,"lng":139.7192,"zip":"3320016"},{"town":"桜町二丁目","koaza":"","lat":35.83981,"lng":139.738462,"zip":"3340001"},{"town":"上青木西三丁目","koaza":"","lat":35.827459,"lng":139.715433,"zip":"3330845"},{"town":"江戸二丁目","koaza":"","lat":35.820451,"lng":139.750323,"zip":"3340074"},{"town":"三ツ和三丁目","koaza":"","lat":35.821838,"lng":139.744839,"zip":"3340011"},{"town":"川口二丁目","koaza":"","lat":35.7976,"lng":139.717711,"zip":"3320015"},{"town":"赤井二丁目","koaza":"","lat":35.82363,"lng":139.750311,"zip":"3340073"},{"town":"本蓮三丁目","koaza":"","lat":35.81597,"lng":139.76143,"zip":"3340076"},{"town":"桜町五丁目","koaza":"","lat":35.83825,"lng":139.740316,"zip":"3340001"},{"town":"本町三丁目","koaza":"","lat":35.800601,"lng":139.723237,"zip":"3320012"},{"town":"飯原町","koaza":"","lat":35.798281,"lng":139.706722,"zip":"3320024"},{"town":"安行出羽四丁目","koaza":"","lat":35.852764,"lng":139.768227,"zip":"3340052"},{"town":"坂下町一丁目","koaza":"","lat":35.831838,"lng":139.736862,"zip":"3340003"},{"town":"上青木西二丁目","koaza":"","lat":35.825188,"lng":139.715416,"zip":"3330845"},{"town":"南前川一丁目","koaza":"","lat":35.827796,"lng":139.708205,"zip":"3330846"},{"town":"南町二丁目","koaza":"","lat":35.804612,"lng":139.705212,"zip":"3320026"},{"town":"西青木五丁目","koaza":"","lat":35.821694,"lng":139.715543,"zip":"3320035"},{"town":"戸塚六丁目","koaza":"","lat":35.863062,"lng":139.754174,"zip":"3330811"},{"town":"本町四丁目","koaza":"","lat":35.800287,"lng":139.720441,"zip":"3320012"},{"town":"中青木五丁目","koaza":"","lat":35.819498,"lng":139.717636,"zip":"3320032"},{"town":"芝塚原二丁目","koaza":"","lat":35.839191,"lng":139.683585,"zip":"3330856"},{"town":"緑町","koaza":"","lat":35.803052,"lng":139.696301,"zip":"3320027"},{"town":"長蔵二丁目","koaza":"","lat":35.860749,"lng":139.759315,"zip":"3330807"},{"town":"鳩ヶ谷本町一丁目","koaza":"","lat":35.833299,"lng":139.738111,"zip":"3340002"},{"town":"飯塚四丁目","koaza":"","lat":35.796509,"lng":139.71145,"zip":"3320023"},{"town":"長蔵一丁目","koaza":"","lat":35.859497,"lng":139.755832,"zip":"3330807"},{"town":"芝下一丁目","koaza":"","lat":35.83682,"lng":139.699649,"zip":"3330848"},{"town":"大字久左衛門新田","koaza":"","lat":35.865703,"lng":139.763271,"zip":"3320000"},{"town":"江戸袋二丁目","koaza":"","lat":35.81373,"lng":139.756645,"zip":"3340075"},{"town":"芝五丁目","koaza":"","lat":35.830973,"lng":139.693366,"zip":"3330866"},{"town":"幸町三丁目","koaza":"","lat":35.80644,"lng":139.716767,"zip":"3320016"},{"town":"大字安行小山","koaza":"","lat":35.836068,"lng":139.776347,"zip":"3320000"},{"town":"本蓮二丁目","koaza":"","lat":35.818621,"lng":139.760624,"zip":"3340076"},{"town":"戸塚南四丁目","koaza":"","lat":35.863406,"lng":139.744086,"zip":"3330817"},{"town":"大字安行領在家","koaza":"","lat":35.855481,"lng":139.712222,"zip":"3320000"},{"town":"南町一丁目","koaza":"","lat":35.801545,"lng":139.704237,"zip":"3320026"},{"town":"大字東貝塚","koaza":"","lat":35.835508,"lng":139.765265,"zip":"3320000"},{"town":"榛松二丁目","koaza":"","lat":35.822491,"lng":139.775486,"zip":"3340062"},{"town":"西川口四丁目","koaza":"","lat":35.810133,"lng":139.707814,"zip":"3320021"},{"town":"戸塚南三丁目","koaza":"","lat":35.862743,"lng":139.747899,"zip":"3330817"},{"town":"西青木三丁目","koaza":"","lat":35.818564,"lng":139.712478,"zip":"3320035"},{"town":"本蓮四丁目","koaza":"","lat":35.814577,"lng":139.762322,"zip":"3340076"},{"town":"中青木四丁目","koaza":"","lat":35.816835,"lng":139.718025,"zip":"3320032"},{"town":"西川口二丁目","koaza":"","lat":35.81195,"lng":139.699995,"zip":"3320021"},{"town":"西川口五丁目","koaza":"","lat":35.80806,"lng":139.703816,"zip":"3320021"},{"town":"芝高木二丁目","koaza":"","lat":35.842952,"lng":139.697709,"zip":"3330868"},{"town":"飯塚三丁目","koaza":"","lat":35.800362,"lng":139.709691,"zip":"3320023"},{"town":"並木四丁目","koaza":"","lat":35.822142,"lng":139.708515,"zip":"3320034"},{"town":"八幡木一丁目","koaza":"","lat":35.819372,"lng":139.747387,"zip":"3340012"},{"town":"原町","koaza":"","lat":35.801084,"lng":139.707027,"zip":"3320025"},{"town":"東本郷一丁目","koaza":"","lat":35.822043,"lng":139.757953,"zip":"3340063"},{"town":"坂下町二丁目","koaza":"","lat":35.829484,"lng":139.744606,"zip":"3340003"},{"town":"芝三丁目","koaza":"","lat":35.835464,"lng":139.697018,"zip":"3330866"},{"town":"桜町六丁目","koaza":"","lat":35.836853,"lng":139.742278,"zip":"3340001"},{"town":"弥平一丁目","koaza":"","lat":35.801726,"lng":139.746781,"zip":"3320002"},{"town":"戸塚南二丁目","koaza":"","lat":35.862569,"lng":139.751648,"zip":"3330817"},{"town":"飯塚一丁目","koaza":"","lat":35.799086,"lng":139.715075,"zip":"3320023"},{"town":"飯塚二丁目","koaza":"","lat":35.799689,"lng":139.712385,"zip":"3320023"},{"town":"桜町三丁目","koaza":"","lat":35.841117,"lng":139.741233,"zip":"3340001"},{"town":"東川口二丁目","koaza":"","lat":35.877089,"lng":139.748291,"zip":"3330801"},{"town":"仲町","koaza":"","lat":35.806861,"lng":139.706626,"zip":"3320022"},{"town":"西川口一丁目","koaza":"","lat":35.815586,"lng":139.70225,"zip":"3320021"},{"town":"差間一丁目","koaza":"","lat":35.87488,"lng":139.731657,"zip":"3330816"},{"town":"川口一丁目","koaza":"","lat":35.798166,"lng":139.718846,"zip":"3320015"},{"town":"元郷六丁目","koaza":"","lat":35.799784,"lng":139.743225,"zip":"3320011"},{"town":"芝中田一丁目","koaza":"","lat":35.82939,"lng":139.699022,"zip":"3330847"},{"town":"領家一丁目","koaza":"","lat":35.796988,"lng":139.741687,"zip":"3320004"},{"town":"東川口三丁目","koaza":"","lat":35.87867,"lng":139.745843,"zip":"3330801"},{"town":"在家町","koaza":"","lat":35.855691,"lng":139.709282,"zip":"3330863"},{"town":"三ツ和一丁目","koaza":"","lat":35.825425,"lng":139.741412,"zip":"3340011"},{"town":"芝西二丁目","koaza":"","lat":35.841346,"lng":139.685215,"zip":"3330855"},{"town":"栄町三丁目","koaza":"","lat":35.803253,"lng":139.718778,"zip":"3320017"},{"town":"榛松三丁目","koaza":"","lat":35.823775,"lng":139.779367,"zip":"3340062"},{"town":"赤井三丁目","koaza":"","lat":35.825545,"lng":139.753659,"zip":"3340073"},{"town":"芝西一丁目","koaza":"","lat":35.836165,"lng":139.685234,"zip":"3330855"},{"town":"西川口六丁目","koaza":"","lat":35.808182,"lng":139.700477,"zip":"3320021"},{"town":"前上町","koaza":"","lat":35.834406,"lng":139.714824,"zip":"3330843"},{"town":"川口五丁目","koaza":"","lat":35.806073,"lng":139.711162,"zip":"3320015"},{"town":"金山町","koaza":"","lat":35.796664,"lng":139.721908,"zip":"3320014"},{"town":"西青木二丁目","koaza":"","lat":35.816563,"lng":139.712471,"zip":"3320035"},{"town":"江戸一丁目","koaza":"","lat":35.822187,"lng":139.753876,"zip":"3340074"},{"town":"柳崎三丁目","koaza":"","lat":35.854652,"lng":139.698534,"zip":"3330861"},{"town":"本町一丁目","koaza":"","lat":35.795741,"lng":139.725608,"zip":"3320012"},{"town":"芝塚原一丁目","koaza":"","lat":35.837384,"lng":139.681769,"zip":"3330856"},{"town":"南前川二丁目","koaza":"","lat":35.830664,"lng":139.708462,"zip":"3330846"},{"town":"上青木西五丁目","koaza":"","lat":35.830899,"lng":139.715649,"zip":"3330845"},{"town":"三ツ和二丁目","koaza":"","lat":35.823959,"lng":139.74383,"zip":"3340011"},{"town":"大字大竹","koaza":"","lat":35.831036,"lng":139.764781,"zip":"3320000"},{"town":"東本郷二丁目","koaza":"","lat":35.826455,"lng":139.757401,"zip":"3340063"},{"town":"桜町一丁目","koaza":"","lat":35.836901,"lng":139.736732,"zip":"3340001"},{"town":"末広二丁目","koaza":"","lat":35.805151,"lng":139.73879,"zip":"3320006"},{"town":"中青木三丁目","koaza":"","lat":35.813993,"lng":139.718597,"zip":"3320032"},{"town":"栄町一丁目","koaza":"","lat":35.803487,"lng":139.727705,"zip":"3320017"},{"town":"並木三丁目","koaza":"","lat":35.817373,"lng":139.704808,"zip":"3320034"},{"town":"西青木一丁目","koaza":"","lat":35.814236,"lng":139.712562,"zip":"3320035"},{"town":"芝二丁目","koaza":"","lat":35.832212,"lng":139.698654,"zip":"3330866"},{"town":"西川口三丁目","koaza":"","lat":35.811881,"lng":139.704479,"zip":"3320021"},{"town":"芝樋ノ爪一丁目","koaza":"","lat":35.832332,"lng":139.689208,"zip":"3330852"},{"town":"芝園町","koaza":"","lat":35.832131,"lng":139.683929,"zip":"3330853"},{"town":"戸塚境町","koaza":"","lat":35.863459,"lng":139.760412,"zip":"3330806"},{"town":"鳩ヶ谷本町四丁目","koaza":"","lat":35.83214,"lng":139.745834,"zip":"3340002"},{"town":"上青木西四丁目","koaza":"","lat":35.829946,"lng":139.71218,"zip":"3330845"},{"town":"芝富士一丁目","koaza":"","lat":35.833666,"lng":139.679534,"zip":"3330854"},{"town":"芝富士二丁目","koaza":"","lat":35.837167,"lng":139.678008,"zip":"3330854"},{"town":"北原台三丁目","koaza":"","lat":35.8677,"lng":139.732424,"zip":"3330815"},{"town":"上青木四丁目","koaza":"","lat":35.831254,"lng":139.719691,"zip":"3330844"},{"town":"赤井一丁目","koaza":"","lat":35.8246,"lng":139.747839,"zip":"3340073"},{"town":"東領家四丁目","koaza":"","lat":35.795236,"lng":139.75861,"zip":"3320003"},{"town":"戸塚五丁目","koaza":"","lat":35.864889,"lng":139.748179,"zip":"3330811"},{"town":"柳崎二丁目","koaza":"","lat":35.85053,"lng":139.698022,"zip":"3330861"},{"town":"赤井四丁目","koaza":"","lat":35.828467,"lng":139.749298,"zip":"3340073"},{"town":"芝四丁目","koaza":"","lat":35.833802,"lng":139.69293,"zip":"3330866"},{"town":"上青木五丁目","koaza":"","lat":35.832076,"lng":139.724032,"zip":"3330844"},{"town":"上青木西一丁目","koaza":"","lat":35.825956,"lng":139.711803,"zip":"3330845"},{"town":"元郷四丁目","koaza":"","lat":35.796852,"lng":139.734962,"zip":"3320011"},{"town":"東領家一丁目","koaza":"","lat":35.797614,"lng":139.746929,"zip":"3320003"},{"town":"元郷五丁目","koaza":"","lat":35.799165,"lng":139.738867,"zip":"3320011"},{"town":"末広三丁目","koaza":"","lat":35.805693,"lng":139.742838,"zip":"3320006"},{"town":"大字前野宿","koaza":"","lat":35.833737,"lng":139.760399,"zip":"3320000"},{"town":"坂下町三丁目","koaza":"","lat":35.827842,"lng":139.743387,"zip":"3340003"},{"town":"本町二丁目","koaza":"","lat":35.799551,"lng":139.72664,"zip":"3320012"},{"town":"南鳩ヶ谷四丁目","koaza":"","lat":35.814457,"lng":139.737808,"zip":"3340013"},{"town":"鳩ヶ谷本町三丁目","koaza":"","lat":35.833097,"lng":139.742626,"zip":"3340002"},{"town":"新井町","koaza":"","lat":35.802027,"lng":139.740595,"zip":"3320005"},{"town":"東川口一丁目","koaza":"","lat":35.877791,"lng":139.741103,"zip":"3330801"},{"town":"領家二丁目","koaza":"","lat":35.794441,"lng":139.741901,"zip":"3320004"},{"town":"西青木四丁目","koaza":"","lat":35.821256,"lng":139.711739,"zip":"3320035"},{"town":"弥平二丁目","koaza":"","lat":35.802315,"lng":139.749886,"zip":"3320002"},{"town":"北原台二丁目","koaza":"","lat":35.866282,"lng":139.737034,"zip":"3330815"},{"town":"青木二丁目","koaza":"","lat":35.808808,"lng":139.726738,"zip":"3320031"},{"town":"上青木六丁目","koaza":"","lat":35.835354,"lng":139.720349,"zip":"3330844"},{"town":"芝一丁目","koaza":"","lat":35.833208,"lng":139.703341,"zip":"3330866"},{"town":"本蓮一丁目","koaza":"","lat":35.822203,"lng":139.761556,"zip":"3340076"},{"town":"朝日六丁目","koaza":"","lat":35.80696,"lng":139.745262,"zip":"3320001"},{"town":"南鳩ヶ谷六丁目","koaza":"","lat":35.819158,"lng":139.733666,"zip":"3340013"},{"town":"柳崎四丁目","koaza":"","lat":35.858426,"lng":139.700881,"zip":"3330861"},{"town":"柳根町","koaza":"","lat":35.850288,"lng":139.705825,"zip":"3330864"},{"town":"戸塚一丁目","koaza":"","lat":35.872883,"lng":139.741968,"zip":"3330811"},{"town":"弥平三丁目","koaza":"","lat":35.803745,"lng":139.752511,"zip":"3320002"},{"town":"青木一丁目","koaza":"","lat":35.805521,"lng":139.728197,"zip":"3320031"},{"town":"前川一丁目","koaza":"","lat":35.83369,"lng":139.709021,"zip":"3330842"},{"town":"東川口六丁目","koaza":"","lat":35.878202,"lng":139.752406,"zip":"3330801"},{"town":"戸塚東一丁目","koaza":"","lat":35.874109,"lng":139.751652,"zip":"3330802"},{"town":"八幡木二丁目","koaza":"","lat":35.815394,"lng":139.749143,"zip":"3340012"},{"town":"朝日四丁目","koaza":"","lat":35.81135,"lng":139.742148,"zip":"3320001"},{"town":"柳崎五丁目","koaza":"","lat":35.859226,"lng":139.704174,"zip":"3330861"},{"town":"芝中田二丁目","koaza":"","lat":35.82924,"lng":139.703763,"zip":"3330847"},{"town":"戸塚鋏町","koaza":"","lat":35.865406,"lng":139.757581,"zip":"3330805"},{"town":"並木元町","koaza":"","lat":35.807868,"lng":139.714055,"zip":"3320033"},{"town":"戸塚四丁目","koaza":"","lat":35.867159,"lng":139.742745,"zip":"3330811"},{"town":"戸塚二丁目","koaza":"","lat":35.873023,"lng":139.746946,"zip":"3330811"},{"town":"江戸袋一丁目","koaza":"","lat":35.816923,"lng":139.757192,"zip":"3340075"},{"town":"並木二丁目","koaza":"","lat":35.815288,"lng":139.706866,"zip":"3320034"},{"town":"朝日二丁目","koaza":"","lat":35.812116,"lng":139.732222,"zip":"3320001"},{"town":"差間二丁目","koaza":"","lat":35.874961,"lng":139.72767,"zip":"3330816"},{"town":"戸塚東二丁目","koaza":"","lat":35.871767,"lng":139.754173,"zip":"3330802"},{"town":"北原台一丁目","koaza":"","lat":35.869863,"lng":139.739429,"zip":"3330815"},{"town":"朝日三丁目","koaza":"","lat":35.810493,"lng":139.737231,"zip":"3320001"},{"town":"東川口四丁目","koaza":"","lat":35.880568,"lng":139.742645,"zip":"3330801"},{"town":"北園町","koaza":"","lat":35.855251,"lng":139.705344,"zip":"3330862"},{"town":"大字安行北谷","koaza":"","lat":35.840213,"lng":139.776859,"zip":"3320000"},{"town":"中青木二丁目","koaza":"","lat":35.810786,"lng":139.719879,"zip":"3320032"},{"town":"南鳩ヶ谷五丁目","koaza":"","lat":35.815307,"lng":139.733005,"zip":"3340013"},{"town":"東川口五丁目","koaza":"","lat":35.883018,"lng":139.745835,"zip":"3330801"},{"town":"東領家五丁目","koaza":"","lat":35.789109,"lng":139.753375,"zip":"3320003"},{"town":"江戸三丁目","koaza":"","lat":35.818042,"lng":139.752647,"zip":"3340074"},{"town":"南鳩ヶ谷二丁目","koaza":"","lat":35.816321,"lng":139.744151,"zip":"3340013"},{"town":"並木一丁目","koaza":"","lat":35.811595,"lng":139.712557,"zip":"3320034"},{"town":"元郷二丁目","koaza":"","lat":35.794919,"lng":139.730177,"zip":"3320011"},{"town":"朝日五丁目","koaza":"","lat":35.809096,"lng":139.747851,"zip":"3320001"},{"town":"南鳩ヶ谷三丁目","koaza":"","lat":35.816053,"lng":139.740279,"zip":"3340013"},{"town":"差間三丁目","koaza":"","lat":35.871427,"lng":139.729653,"zip":"3330816"},{"town":"青木四丁目","koaza":"","lat":35.815092,"lng":139.725054,"zip":"3320031"},{"town":"元郷三丁目","koaza":"","lat":35.792827,"lng":139.735733,"zip":"3320011"},{"town":"八幡木三丁目","koaza":"","lat":35.812036,"lng":139.751547,"zip":"3340012"},{"town":"領家四丁目","koaza":"","lat":35.789685,"lng":139.746029,"zip":"3320004"},{"town":"青木三丁目","koaza":"","lat":35.812167,"lng":139.726058,"zip":"3320031"},{"town":"上青木一丁目","koaza":"","lat":35.823116,"lng":139.72014,"zip":"3330844"},{"town":"南鳩ヶ谷一丁目","koaza":"","lat":35.82028,"lng":139.740753,"zip":"3340013"},{"town":"大字藤兵衛新田","koaza":"","lat":35.867103,"lng":139.766215,"zip":"3320000"},{"town":"上青木三丁目","koaza":"","lat":35.826596,"lng":139.719874,"zip":"3330844"},{"town":"柳崎一丁目","koaza":"","lat":35.852263,"lng":139.701102,"zip":"3330861"},{"town":"戸塚東三丁目","koaza":"","lat":35.868594,"lng":139.755624,"zip":"3330802"},{"town":"東領家二丁目","koaza":"","lat":35.796645,"lng":139.750989,"zip":"3320003"},{"town":"戸塚東四丁目","koaza":"","lat":35.871987,"lng":139.758624,"zip":"3330802"},{"town":"宮町","koaza":"","lat":35.803137,"lng":139.699638,"zip":"3320028"},{"town":"末広一丁目","koaza":"","lat":35.804021,"lng":139.733963,"zip":"3320006"},{"town":"領家三丁目","koaza":"","lat":35.790975,"lng":139.748405,"zip":"3320004"},{"town":"大字行衛","koaza":"","lat":35.876518,"lng":139.71782,"zip":"3320000"},{"town":"大字新井宿","koaza":"","lat":35.846629,"lng":139.737091,"zip":"3320000"},{"town":"元郷一丁目","koaza":"","lat":35.799216,"lng":139.732457,"zip":"3320011"},{"town":"弥平四丁目","koaza":"","lat":35.798635,"lng":139.756312,"zip":"3320002"},{"town":"大字安行吉蔵","koaza":"","lat":35.849946,"lng":139.769815,"zip":"3320000"},{"town":"朝日一丁目","koaza":"","lat":35.80764,"lng":139.734619,"zip":"3320001"},{"town":"東領家三丁目","koaza":"","lat":35.793458,"lng":139.753206,"zip":"3320003"},{"town":"青木五丁目","koaza":"","lat":35.8188,"lng":139.722948,"zip":"3320031"},{"town":"上青木二丁目","koaza":"","lat":35.825972,"lng":139.724641,"zip":"3330844"},{"town":"戸塚三丁目","koaza":"","lat":35.869191,"lng":139.748336,"zip":"3330811"},{"town":"大字源左衛門新田","koaza":"","lat":35.862761,"lng":139.729759,"zip":"3320000"},{"town":"大字赤芝新田","koaza":"","lat":35.853444,"lng":139.746117,"zip":"3320000"},{"town":"大字安行藤八","koaza":"","lat":35.856693,"lng":139.761011,"zip":"3320000"},{"town":"大字東内野","koaza":"","lat":35.867899,"lng":139.721422,"zip":"3320000"},{"town":"河原町","koaza":"","lat":35.786841,"lng":139.739375,"zip":"3320007"},{"town":"大字赤井","koaza":"","lat":35.831833,"lng":139.752004,"zip":"3320000"},{"town":"大字安行吉岡","koaza":"","lat":35.838606,"lng":139.754821,"zip":"3320000"},{"town":"領家五丁目","koaza":"","lat":35.787019,"lng":139.743316,"zip":"3320004"},{"town":"大字榛松","koaza":"","lat":35.823563,"lng":139.771517,"zip":"3320000"},{"town":"大字神戸","koaza":"","lat":35.852169,"lng":139.726578,"zip":"3320000"},{"town":"大字小谷場","koaza":"","lat":35.845561,"lng":139.679431,"zip":"3320000"},{"town":"舟戸町","koaza":"","lat":35.790992,"lng":139.725377,"zip":"3320013"},{"town":"大字新堀","koaza":"","lat":35.827425,"lng":139.783579,"zip":"3320000"},{"town":"大字差間","koaza":"","lat":35.869863,"lng":139.725521,"zip":"3320000"},{"town":"大字赤山","koaza":"","lat":35.849097,"lng":139.747202,"zip":"3320000"},{"town":"大字西立野","koaza":"","lat":35.858427,"lng":139.748676,"zip":"3320000"},{"town":"大字安行慈林","koaza":"","lat":35.840565,"lng":139.748791,"zip":"3320000"},{"town":"大字安行","koaza":"","lat":35.851228,"lng":139.755688,"zip":"3320000"},{"town":"荒川町","koaza":"","lat":35.796268,"lng":139.70463,"zip":"3320029"},{"town":"大字道合","koaza":"","lat":35.850842,"lng":139.717674,"zip":"3320000"},{"town":"大字安行領家","koaza":"","lat":35.845389,"lng":139.76152,"zip":"3320000"},{"town":"大字峯","koaza":"","lat":35.832364,"lng":139.774442,"zip":"3320000"},{"town":"大字西新井宿","koaza":"","lat":35.846833,"lng":139.732173,"zip":"3320000"},{"town":"大字東本郷","koaza":"","lat":35.824449,"lng":139.765413,"zip":"3320000"},{"town":"大字里","koaza":"","lat":35.834452,"lng":139.729844,"zip":"3320000"},{"town":"大字石神","koaza":"","lat":35.858065,"lng":139.736979,"zip":"3320000"},{"town":"大字芝","koaza":"","lat":35.843399,"lng":139.690803,"zip":"3320000"},{"town":"大字木曽呂","koaza":"","lat":35.85907,"lng":139.721183,"zip":"3320000"},{"town":"大字安行原","koaza":"","lat":35.841611,"lng":139.767781,"zip":"3320000"},{"town":"芝高木一丁目","koaza":"","lat":35.84163,"lng":139.69952,"zip":"3330868"},{"town":"芝東町","koaza":"","lat":35.843722,"lng":139.701778,"zip":"3330867"},{"town":"芝下二丁目","koaza":"","lat":35.83739,"lng":139.703538,"zip":"3330848"},{"town":"芝下三丁目","koaza":"","lat":35.840178,"lng":139.702076,"zip":"3330848"},{"town":"前川四丁目","koaza":"","lat":35.837972,"lng":139.707809,"zip":"3330842"},{"town":"前川三丁目","koaza":"","lat":35.839933,"lng":139.711788,"zip":"3330842"},{"town":"本前川二丁目","koaza":"","lat":35.842579,"lng":139.706765,"zip":"3330849"},{"town":"本前川一丁目","koaza":"","lat":35.840882,"lng":139.707325,"zip":"3330849"},{"town":"前川二丁目","koaza":"","lat":35.838125,"lng":139.715327,"zip":"3330842"},{"town":"前川町三丁目","koaza":"","lat":35.842626,"lng":139.713577,"zip":"3330841"},{"town":"大字伊刈","koaza":"","lat":35.846655,"lng":139.699402,"zip":"3320000"},{"town":"本前川三丁目","koaza":"","lat":35.844199,"lng":139.707185,"zip":"3330849"},{"town":"大字安行領根岸","koaza":"","lat":35.843731,"lng":139.718087,"zip":"3320000"},{"town":"前川町四丁目","koaza":"","lat":35.845096,"lng":139.704603,"zip":"3330841"},{"town":"南鳩ヶ谷七丁目","koaza":"","lat":35.823202,"lng":139.733123,"zip":"3340013"},{"town":"坂下町四丁目","koaza":"","lat":35.826766,"lng":139.738492,"zip":"3340003"},{"town":"大字三ツ和","koaza":"","lat":35.824012,"lng":139.737699,"zip":"3320000"},{"town":"大字辻","koaza":"","lat":35.825396,"lng":139.730117,"zip":"3320000"}]