[{"town":"柏町二丁目","koaza":"","lat":35.835372,"lng":139.573051,"zip":"3530007"},{"town":"本町一丁目","koaza":"","lat":35.8327,"lng":139.577551,"zip":"3530004"},{"town":"柏町四丁目","koaza":"","lat":35.829055,"lng":139.572379,"zip":"3530007"},{"town":"幸町二丁目","koaza":"","lat":35.826084,"lng":139.566312,"zip":"3530005"},{"town":"本町三丁目","koaza":"","lat":35.830173,"lng":139.581205,"zip":"3530004"},{"town":"柏町三丁目","koaza":"","lat":35.832974,"lng":139.569765,"zip":"3530007"},{"town":"幸町四丁目","koaza":"","lat":35.821866,"lng":139.562569,"zip":"3530005"},{"town":"柏町五丁目","koaza":"","lat":35.828226,"lng":139.56853,"zip":"3530007"},{"town":"館一丁目","koaza":"","lat":35.826447,"lng":139.56169,"zip":"3530006"},{"town":"中宗岡四丁目","koaza":"","lat":35.837241,"lng":139.589319,"zip":"3530002"},{"town":"本町五丁目","koaza":"","lat":35.826153,"lng":139.576559,"zip":"3530004"},{"town":"本町二丁目","koaza":"","lat":35.832597,"lng":139.581696,"zip":"3530004"},{"town":"柏町六丁目","koaza":"","lat":35.830611,"lng":139.564992,"zip":"3530007"},{"town":"幸町三丁目","koaza":"","lat":35.823648,"lng":139.565462,"zip":"3530005"},{"town":"上宗岡五丁目","koaza":"","lat":35.845075,"lng":139.583517,"zip":"3530001"},{"town":"本町六丁目","koaza":"","lat":35.827277,"lng":139.574205,"zip":"3530004"},{"town":"下宗岡三丁目","koaza":"","lat":35.834759,"lng":139.597378,"zip":"3530003"},{"town":"本町四丁目","koaza":"","lat":35.826107,"lng":139.580223,"zip":"3530004"},{"town":"幸町一丁目","koaza":"","lat":35.8219,"lng":139.568936,"zip":"3530005"},{"town":"下宗岡二丁目","koaza":"","lat":35.834308,"lng":139.591825,"zip":"3530003"},{"town":"上宗岡二丁目","koaza":"","lat":35.847275,"lng":139.580281,"zip":"3530001"},{"town":"上宗岡三丁目","koaza":"","lat":35.853076,"lng":139.581492,"zip":"3530001"},{"town":"中宗岡五丁目","koaza":"","lat":35.834465,"lng":139.585379,"zip":"3530002"},{"town":"上宗岡一丁目","koaza":"","lat":35.841525,"lng":139.580793,"zip":"3530001"},{"town":"柏町一丁目","koaza":"","lat":35.834697,"lng":139.575451,"zip":"3530007"},{"town":"館二丁目","koaza":"","lat":35.82803,"lng":139.55856,"zip":"3530006"},{"town":"中宗岡三丁目","koaza":"","lat":35.838915,"lng":139.594205,"zip":"3530002"},{"town":"下宗岡四丁目","koaza":"","lat":35.831975,"lng":139.600446,"zip":"3530003"},{"town":"上宗岡四丁目","koaza":"","lat":35.848299,"lng":139.586512,"zip":"3530001"},{"town":"中宗岡一丁目","koaza":"","lat":35.839952,"lng":139.585473,"zip":"3530002"},{"town":"中宗岡二丁目","koaza":"","lat":35.842722,"lng":139.59001,"zip":"3530002"},{"town":"下宗岡一丁目","koaza":"","lat":35.831157,"lng":139.591508,"zip":"3530003"},{"town":"宗岡","koaza":"","lat":35.846371,"lng":139.594839,"zip":"3530008"}]