[{"town":"大字下笹目","koaza":"","lat":35.827251,"lng":139.658908,"zip":"3350000"},{"town":"早瀬二丁目","koaza":"","lat":35.805601,"lng":139.648279,"zip":"3350036"},{"town":"新曽南一丁目","koaza":"","lat":35.809511,"lng":139.668697,"zip":"3350026"},{"town":"美女木東二丁目","koaza":"","lat":35.827997,"lng":139.650077,"zip":"3350032"},{"town":"喜沢南二丁目","koaza":"","lat":35.805681,"lng":139.690909,"zip":"3350014"},{"town":"大字上戸田","koaza":"","lat":35.81994,"lng":139.673543,"zip":"3350000"},{"town":"下前二丁目","koaza":"","lat":35.807075,"lng":139.686313,"zip":"3350016"},{"town":"上戸田五丁目","koaza":"","lat":35.813478,"lng":139.673152,"zip":"3350022"},{"town":"上戸田四丁目","koaza":"","lat":35.818787,"lng":139.675833,"zip":"3350022"},{"town":"美女木八丁目","koaza":"","lat":35.828304,"lng":139.634318,"zip":"3350031"},{"town":"川岸三丁目","koaza":"","lat":35.802643,"lng":139.682754,"zip":"3350015"},{"town":"本町二丁目","koaza":"","lat":35.809592,"lng":139.676116,"zip":"3350023"},{"town":"美女木六丁目","koaza":"","lat":35.822704,"lng":139.63886,"zip":"3350031"},{"town":"氷川町一丁目","koaza":"","lat":35.80999,"lng":139.660773,"zip":"3350027"},{"town":"本町三丁目","koaza":"","lat":35.809399,"lng":139.671975,"zip":"3350023"},{"town":"上戸田一丁目","koaza":"","lat":35.818784,"lng":139.678722,"zip":"3350022"},{"town":"川岸二丁目","koaza":"","lat":35.804738,"lng":139.686987,"zip":"3350015"},{"town":"下戸田一丁目","koaza":"","lat":35.813663,"lng":139.686263,"zip":"3350011"},{"town":"氷川町二丁目","koaza":"","lat":35.810213,"lng":139.656839,"zip":"3350027"},{"town":"上戸田三丁目","koaza":"","lat":35.813704,"lng":139.675908,"zip":"3350022"},{"town":"美女木七丁目","koaza":"","lat":35.825329,"lng":139.636076,"zip":"3350031"},{"town":"喜沢南一丁目","koaza":"","lat":35.80557,"lng":139.694714,"zip":"3350014"},{"town":"下前一丁目","koaza":"","lat":35.810091,"lng":139.685105,"zip":"3350016"},{"town":"本町四丁目","koaza":"","lat":35.807409,"lng":139.679567,"zip":"3350023"},{"town":"美女木五丁目","koaza":"","lat":35.819837,"lng":139.640218,"zip":"3350031"},{"town":"笹目八丁目","koaza":"","lat":35.806175,"lng":139.645699,"zip":"3350034"},{"town":"下戸田二丁目","koaza":"","lat":35.815838,"lng":139.683567,"zip":"3350011"},{"town":"本町一丁目","koaza":"","lat":35.810126,"lng":139.680378,"zip":"3350023"},{"town":"笹目二丁目","koaza":"","lat":35.814979,"lng":139.654316,"zip":"3350034"},{"town":"新曽南二丁目","koaza":"","lat":35.809922,"lng":139.665272,"zip":"3350026"},{"town":"中町二丁目","koaza":"","lat":35.80915,"lng":139.68974,"zip":"3350012"},{"town":"本町五丁目","koaza":"","lat":35.805102,"lng":139.678377,"zip":"3350023"},{"town":"上戸田二丁目","koaza":"","lat":35.813823,"lng":139.680214,"zip":"3350022"},{"town":"南町","koaza":"","lat":35.805389,"lng":139.673073,"zip":"3350025"},{"town":"喜沢二丁目","koaza":"","lat":35.808877,"lng":139.695836,"zip":"3350013"},{"town":"美女木三丁目","koaza":"","lat":35.825302,"lng":139.643792,"zip":"3350031"},{"town":"新曽南四丁目","koaza":"","lat":35.80663,"lng":139.662427,"zip":"3350026"},{"town":"笹目三丁目","koaza":"","lat":35.816217,"lng":139.649389,"zip":"3350034"},{"town":"新曽南三丁目","koaza":"","lat":35.805863,"lng":139.668003,"zip":"3350026"},{"town":"中町一丁目","koaza":"","lat":35.812651,"lng":139.691207,"zip":"3350012"},{"town":"美女木一丁目","koaza":"","lat":35.829986,"lng":139.639433,"zip":"3350031"},{"town":"氷川町三丁目","koaza":"","lat":35.806493,"lng":139.657163,"zip":"3350027"},{"town":"笹目六丁目","koaza":"","lat":35.812338,"lng":139.646397,"zip":"3350034"},{"town":"美女木二丁目","koaza":"","lat":35.827455,"lng":139.641042,"zip":"3350031"},{"town":"喜沢一丁目","koaza":"","lat":35.813252,"lng":139.696361,"zip":"3350013"},{"town":"笹目七丁目","koaza":"","lat":35.809285,"lng":139.643549,"zip":"3350034"},{"town":"笹目一丁目","koaza":"","lat":35.819113,"lng":139.655184,"zip":"3350034"},{"town":"笹目四丁目","koaza":"","lat":35.819828,"lng":139.649003,"zip":"3350034"},{"town":"美女木東一丁目","koaza":"","lat":35.826749,"lng":139.654203,"zip":"3350032"},{"town":"早瀬一丁目","koaza":"","lat":35.80501,"lng":139.651406,"zip":"3350036"},{"town":"笹目五丁目","koaza":"","lat":35.815846,"lng":139.643846,"zip":"3350034"},{"town":"笹目北町","koaza":"","lat":35.823426,"lng":139.654813,"zip":"3350033"},{"town":"美女木四丁目","koaza":"","lat":35.822792,"lng":139.646801,"zip":"3350031"},{"town":"笹目南町","koaza":"","lat":35.809572,"lng":139.651793,"zip":"3350035"},{"town":"川岸一丁目","koaza":"","lat":35.802564,"lng":139.689402,"zip":"3350015"},{"town":"大字曲本","koaza":"","lat":35.83048,"lng":139.623151,"zip":"3350000"},{"town":"大字美女木","koaza":"","lat":35.832027,"lng":139.651284,"zip":"3350000"},{"town":"大字重瀬","koaza":"","lat":35.824334,"lng":139.626518,"zip":"3350000"},{"town":"大字内谷","koaza":"","lat":35.8161,"lng":139.632127,"zip":"3350000"},{"town":"戸田公園","koaza":"","lat":35.801814,"lng":139.668117,"zip":"3350024"},{"town":"大字新曽","koaza":"","lat":35.820207,"lng":139.665708,"zip":"3350000"},{"town":"美女木北一丁目","koaza":"","lat":null,"lng":null,"zip":null},{"town":"美女木北二丁目","koaza":"","lat":null,"lng":null,"zip":null},{"town":"美女木北三丁目","koaza":"","lat":null,"lng":null,"zip":null}]