[{"town":"美原町四丁目","koaza":"","lat":35.814929,"lng":139.461329,"zip":"3590045"},{"town":"美原町五丁目","koaza":"","lat":35.81019,"lng":139.457101,"zip":"3590045"},{"town":"美原町三丁目","koaza":"","lat":35.812819,"lng":139.459924,"zip":"3590045"},{"town":"美原町一丁目","koaza":"","lat":35.80864,"lng":139.460511,"zip":"3590045"},{"town":"西住吉","koaza":"","lat":35.785525,"lng":139.46665,"zip":"3591126"},{"town":"美原町二丁目","koaza":"","lat":35.811211,"lng":139.459622,"zip":"3590045"},{"town":"くすのき台三丁目","koaza":"","lat":35.78706,"lng":139.477636,"zip":"3590037"},{"town":"並木七丁目","koaza":"","lat":35.807948,"lng":139.478069,"zip":"3590042"},{"town":"花園三丁目","koaza":"","lat":35.815014,"lng":139.458718,"zip":"3590047"},{"town":"花園四丁目","koaza":"","lat":35.816414,"lng":139.461019,"zip":"3590047"},{"town":"喜多町","koaza":"","lat":35.798933,"lng":139.462932,"zip":"3591113"},{"town":"くすのき台二丁目","koaza":"","lat":35.789236,"lng":139.478701,"zip":"3590037"},{"town":"並木二丁目","koaza":"","lat":35.800639,"lng":139.464304,"zip":"3590042"},{"town":"小手指南六丁目","koaza":"","lat":35.782684,"lng":139.427666,"zip":"3591146"},{"town":"御幸町","koaza":"","lat":35.792398,"lng":139.470617,"zip":"3591115"},{"town":"小手指町五丁目","koaza":"","lat":35.795134,"lng":139.437464,"zip":"3591141"},{"town":"星の宮二丁目","koaza":"","lat":35.786414,"lng":139.460994,"zip":"3591127"},{"town":"星の宮一丁目","koaza":"","lat":35.787121,"lng":139.462942,"zip":"3591127"},{"town":"大字新郷","koaza":"","lat":35.803134,"lng":139.506058,"zip":"3590000"},{"town":"小手指南一丁目","koaza":"","lat":35.787427,"lng":139.440269,"zip":"3591146"},{"town":"有楽町","koaza":"","lat":35.793631,"lng":139.466797,"zip":"3591117"},{"town":"金山町","koaza":"","lat":35.790807,"lng":139.461496,"zip":"3591128"},{"town":"東町","koaza":"","lat":35.790365,"lng":139.471482,"zip":"3591116"},{"town":"寿町","koaza":"","lat":35.789207,"lng":139.467517,"zip":"3591122"},{"town":"中富南一丁目","koaza":"","lat":35.810041,"lng":139.490606,"zip":"3590003"},{"town":"榎町","koaza":"","lat":35.805848,"lng":139.44476,"zip":"3591104"},{"town":"くすのき台一丁目","koaza":"","lat":35.787673,"lng":139.475048,"zip":"3590037"},{"town":"小手指南二丁目","koaza":"","lat":35.789408,"lng":139.430535,"zip":"3591146"},{"town":"中富南二丁目","koaza":"","lat":35.811323,"lng":139.494087,"zip":"3590003"},{"town":"和ケ原二丁目","koaza":"","lat":35.808619,"lng":139.407672,"zip":"3591162"},{"town":"中富南三丁目","koaza":"","lat":35.81319,"lng":139.493019,"zip":"3590003"},{"town":"緑町二丁目","koaza":"","lat":35.803565,"lng":139.456082,"zip":"3591111"},{"town":"北有楽町","koaza":"","lat":35.79626,"lng":139.465848,"zip":"3591114"},{"town":"花園二丁目","koaza":"","lat":35.814444,"lng":139.456819,"zip":"3590047"},{"town":"旭町","koaza":"","lat":35.791167,"lng":139.475849,"zip":"3590036"},{"town":"花園一丁目","koaza":"","lat":35.814068,"lng":139.453953,"zip":"3590047"},{"town":"西所沢二丁目","koaza":"","lat":35.792962,"lng":139.455805,"zip":"3591144"},{"town":"中新井三丁目","koaza":"","lat":35.816307,"lng":139.475224,"zip":"3590041"},{"town":"中新井五丁目","koaza":"","lat":35.816574,"lng":139.477582,"zip":"3590041"},{"town":"並木五丁目","koaza":"","lat":35.81111,"lng":139.463432,"zip":"3590042"},{"town":"弥生町","koaza":"","lat":35.804218,"lng":139.460828,"zip":"3590043"},{"town":"日吉町","koaza":"","lat":35.787257,"lng":139.471101,"zip":"3591123"},{"town":"東所沢五丁目","koaza":"","lat":35.79567,"lng":139.518172,"zip":"3590021"},{"town":"宮本町一丁目","koaza":"","lat":35.793452,"lng":139.461583,"zip":"3591143"},{"town":"中新井二丁目","koaza":"","lat":35.817266,"lng":139.468817,"zip":"3590041"},{"town":"小手指台","koaza":"","lat":35.791662,"lng":139.442006,"zip":"3591148"},{"town":"松葉町","koaza":"","lat":35.807568,"lng":139.457675,"zip":"3590044"},{"town":"東住吉","koaza":"","lat":35.784193,"lng":139.47053,"zip":"3591124"},{"town":"こぶし町","koaza":"","lat":35.799488,"lng":139.484095,"zip":"3590033"},{"town":"中新井四丁目","koaza":"","lat":35.813769,"lng":139.474444,"zip":"3590041"},{"town":"中新井一丁目","koaza":"","lat":35.815261,"lng":139.466774,"zip":"3590041"},{"town":"小手指元町一丁目","koaza":"","lat":35.792733,"lng":139.437718,"zip":"3591147"},{"town":"東所沢四丁目","koaza":"","lat":35.801013,"lng":139.521561,"zip":"3590021"},{"town":"泉町","koaza":"","lat":35.801001,"lng":139.460051,"zip":"3591112"},{"town":"宮本町二丁目","koaza":"","lat":35.79661,"lng":139.461295,"zip":"3591143"},{"town":"和ケ原三丁目","koaza":"","lat":35.80464,"lng":139.403907,"zip":"3591162"},{"town":"小手指南五丁目","koaza":"","lat":35.785752,"lng":139.431943,"zip":"3591146"},{"town":"小手指元町二丁目","koaza":"","lat":35.793394,"lng":139.434046,"zip":"3591147"},{"town":"上新井一丁目","koaza":"","lat":35.789928,"lng":139.450791,"zip":"3591142"},{"town":"元町","koaza":"","lat":35.789209,"lng":139.465026,"zip":"3591121"},{"town":"西狭山ケ丘一丁目","koaza":"","lat":35.804593,"lng":139.407712,"zip":"3591163"},{"town":"狭山ケ丘二丁目","koaza":"","lat":35.811222,"lng":139.410762,"zip":"3591161"},{"town":"大字中新井","koaza":"","lat":35.819248,"lng":139.471283,"zip":"3590000"},{"town":"北野南一丁目","koaza":"","lat":35.784795,"lng":139.42586,"zip":"3591156"},{"town":"西所沢一丁目","koaza":"","lat":35.789437,"lng":139.457927,"zip":"3591144"},{"town":"北所沢町","koaza":"","lat":35.810594,"lng":139.453908,"zip":"3590046"},{"town":"東狭山ケ丘三丁目","koaza":"","lat":35.812644,"lng":139.423538,"zip":"3591106"},{"town":"南住吉","koaza":"","lat":35.782203,"lng":139.468801,"zip":"3591125"},{"town":"東狭山ケ丘四丁目","koaza":"","lat":35.809311,"lng":139.427335,"zip":"3591106"},{"town":"緑町一丁目","koaza":"","lat":35.805384,"lng":139.453489,"zip":"3591111"},{"town":"小手指町四丁目","koaza":"","lat":35.798182,"lng":139.434319,"zip":"3591141"},{"town":"若狭三丁目","koaza":"","lat":35.802231,"lng":139.417753,"zip":"3591151"},{"town":"若狭四丁目","koaza":"","lat":35.805326,"lng":139.416037,"zip":"3591151"},{"town":"東狭山ケ丘二丁目","koaza":"","lat":35.809387,"lng":139.422348,"zip":"3591106"},{"town":"狭山ケ丘一丁目","koaza":"","lat":35.809326,"lng":139.415729,"zip":"3591161"},{"town":"けやき台二丁目","koaza":"","lat":35.798354,"lng":139.457366,"zip":"3591118"},{"town":"並木八丁目","koaza":"","lat":35.810606,"lng":139.476621,"zip":"3590042"},{"town":"北野南三丁目","koaza":"","lat":35.786375,"lng":139.418238,"zip":"3591156"},{"town":"けやき台一丁目","koaza":"","lat":35.79966,"lng":139.453344,"zip":"3591118"},{"town":"西新井町","koaza":"","lat":35.794024,"lng":139.474307,"zip":"3590035"},{"town":"青葉台","koaza":"","lat":35.806944,"lng":139.441303,"zip":"3591105"},{"town":"小手指南四丁目","koaza":"","lat":35.787462,"lng":139.430323,"zip":"3591146"},{"town":"小手指南三丁目","koaza":"","lat":35.787084,"lng":139.437247,"zip":"3591146"},{"town":"小手指町三丁目","koaza":"","lat":35.799622,"lng":139.436786,"zip":"3591141"},{"town":"北野新町一丁目","koaza":"","lat":35.800615,"lng":139.430793,"zip":"3591155"},{"town":"林三丁目","koaza":"","lat":35.808193,"lng":139.402525,"zip":"3591167"},{"town":"西狭山ケ丘二丁目","koaza":"","lat":35.801781,"lng":139.4072,"zip":"3591163"},{"town":"東所沢一丁目","koaza":"","lat":35.797784,"lng":139.51774,"zip":"3590021"},{"town":"和ケ原一丁目","koaza":"","lat":35.806866,"lng":139.410672,"zip":"3591162"},{"town":"小手指元町三丁目","koaza":"","lat":35.792742,"lng":139.430489,"zip":"3591147"},{"town":"東新井町","koaza":"","lat":35.795172,"lng":139.480034,"zip":"3590034"},{"town":"若狭二丁目","koaza":"","lat":35.80366,"lng":139.423849,"zip":"3591151"},{"town":"北中三丁目","koaza":"","lat":35.811072,"lng":139.441638,"zip":"3591101"},{"town":"緑町三丁目","koaza":"","lat":35.801686,"lng":139.448844,"zip":"3591111"},{"town":"若狭一丁目","koaza":"","lat":35.805742,"lng":139.420424,"zip":"3591151"},{"town":"東所沢三丁目","koaza":"","lat":35.802672,"lng":139.518265,"zip":"3590021"},{"town":"並木四丁目","koaza":"","lat":35.806899,"lng":139.464978,"zip":"3590042"},{"town":"若松町","koaza":"","lat":35.802187,"lng":139.483754,"zip":"3590032"},{"town":"東所沢和田三丁目","koaza":"","lat":35.796443,"lng":139.507597,"zip":"3590023"},{"town":"東所沢和田二丁目","koaza":"","lat":35.793546,"lng":139.508331,"zip":"3590023"},{"town":"向陽町","koaza":"","lat":35.810958,"lng":139.447856,"zip":"3591103"},{"town":"上新井四丁目","koaza":"","lat":35.800433,"lng":139.444686,"zip":"3591142"},{"town":"北中一丁目","koaza":"","lat":35.808367,"lng":139.432236,"zip":"3591101"},{"town":"上新井三丁目","koaza":"","lat":35.795872,"lng":139.442167,"zip":"3591142"},{"town":"中富南四丁目","koaza":"","lat":35.814906,"lng":139.499025,"zip":"3590003"},{"town":"東狭山ケ丘一丁目","koaza":"","lat":35.813739,"lng":139.418401,"zip":"3591106"},{"town":"小手指町二丁目","koaza":"","lat":35.804984,"lng":139.432507,"zip":"3591141"},{"town":"松が丘一丁目","koaza":"","lat":35.775038,"lng":139.464772,"zip":"3591132"},{"town":"北野南二丁目","koaza":"","lat":35.785924,"lng":139.422397,"zip":"3591156"},{"town":"松が丘二丁目","koaza":"","lat":35.771929,"lng":139.456069,"zip":"3591132"},{"town":"東狭山ケ丘六丁目","koaza":"","lat":35.816836,"lng":139.423358,"zip":"3591106"},{"town":"三ケ島四丁目","koaza":"","lat":35.799809,"lng":139.414567,"zip":"3591164"},{"town":"緑町四丁目","koaza":"","lat":35.806888,"lng":139.4495,"zip":"3591111"},{"town":"東所沢和田一丁目","koaza":"","lat":35.791244,"lng":139.510627,"zip":"3590023"},{"town":"北野一丁目","koaza":"","lat":35.792985,"lng":139.426433,"zip":"3591152"},{"town":"東所沢二丁目","koaza":"","lat":35.801359,"lng":139.514112,"zip":"3590021"},{"town":"小手指町一丁目","koaza":"","lat":35.803317,"lng":139.439215,"zip":"3591141"},{"town":"上新井二丁目","koaza":"","lat":35.793903,"lng":139.447841,"zip":"3591142"},{"town":"並木三丁目","koaza":"","lat":35.802875,"lng":139.467515,"zip":"3590042"},{"town":"北中四丁目","koaza":"","lat":35.817367,"lng":139.437211,"zip":"3591101"},{"town":"岩岡町","koaza":"","lat":35.816978,"lng":139.442325,"zip":"3591102"},{"town":"上新井五丁目","koaza":"","lat":35.796781,"lng":139.450347,"zip":"3591142"},{"town":"北中二丁目","koaza":"","lat":35.811071,"lng":139.43455,"zip":"3591101"},{"town":"三ケ島二丁目","koaza":"","lat":35.785933,"lng":139.402018,"zip":"3591164"},{"town":"北野新町二丁目","koaza":"","lat":35.801112,"lng":139.425873,"zip":"3591155"},{"town":"所沢新町","koaza":"","lat":35.81928,"lng":139.460852,"zip":"3590006"},{"town":"三ケ島三丁目","koaza":"","lat":35.794377,"lng":139.409404,"zip":"3591164"},{"town":"東狭山ケ丘五丁目","koaza":"","lat":35.816436,"lng":139.430414,"zip":"3591106"},{"town":"北野二丁目","koaza":"","lat":35.793807,"lng":139.421579,"zip":"3591152"},{"town":"北野三丁目","koaza":"","lat":35.794577,"lng":139.415809,"zip":"3591152"},{"town":"大字下新井","koaza":"","lat":35.805188,"lng":139.489825,"zip":"3590000"},{"town":"北原町","koaza":"","lat":35.807532,"lng":139.485353,"zip":"3590004"},{"town":"林二丁目","koaza":"","lat":35.803991,"lng":139.398095,"zip":"3591167"},{"town":"林一丁目","koaza":"","lat":35.801849,"lng":139.391764,"zip":"3591167"},{"town":"堀之内","koaza":"","lat":35.787716,"lng":139.395279,"zip":"3591165"},{"town":"大字亀ケ谷","koaza":"","lat":35.808143,"lng":139.518267,"zip":"3590000"},{"town":"並木一丁目","koaza":"","lat":35.798465,"lng":139.473012,"zip":"3590042"},{"town":"糀谷","koaza":"","lat":35.791992,"lng":139.391724,"zip":"3591166"},{"town":"三ケ島一丁目","koaza":"","lat":35.787308,"lng":139.411237,"zip":"3591164"},{"town":"大字本郷","koaza":"","lat":35.794637,"lng":139.523769,"zip":"3590000"},{"town":"大字松郷","koaza":"","lat":35.797405,"lng":139.501878,"zip":"3590000"},{"town":"大字北秋津","koaza":"","lat":35.781794,"lng":139.480129,"zip":"3590000"},{"town":"大字神米金","koaza":"","lat":35.823751,"lng":139.465719,"zip":"3590000"},{"town":"大字日比田","koaza":"","lat":35.806167,"lng":139.505519,"zip":"3590000"},{"town":"三ケ島五丁目","koaza":"","lat":35.793905,"lng":139.401066,"zip":"3591164"},{"town":"大字城","koaza":"","lat":35.800709,"lng":139.528878,"zip":"3590000"},{"town":"並木六丁目","koaza":"","lat":35.807965,"lng":139.472055,"zip":"3590042"},{"town":"大字牛沼","koaza":"","lat":35.795678,"lng":139.489477,"zip":"3590000"},{"town":"大字久米","koaza":"","lat":35.780351,"lng":139.46313,"zip":"3590000"},{"town":"大字上安松","koaza":"","lat":35.78598,"lng":139.4899,"zip":"3590000"},{"town":"大字下安松","koaza":"","lat":35.787864,"lng":139.504527,"zip":"3590000"},{"town":"大字坂之下","koaza":"","lat":35.811834,"lng":139.537801,"zip":"3590000"},{"town":"大字北岩岡","koaza":"","lat":35.82195,"lng":139.445813,"zip":"3590000"},{"town":"大字荒幡","koaza":"","lat":35.776004,"lng":139.447185,"zip":"3590000"},{"town":"大字上山口","koaza":"","lat":35.774956,"lng":139.421171,"zip":"3590000"},{"town":"大字南永井","koaza":"","lat":35.816795,"lng":139.524933,"zip":"3590000"},{"town":"大字中富","koaza":"","lat":35.821038,"lng":139.485979,"zip":"3590000"},{"town":"大字山口","koaza":"","lat":35.778544,"lng":139.435301,"zip":"3590000"},{"town":"大字勝楽寺","koaza":"","lat":35.773236,"lng":139.397635,"zip":"3590000"},{"town":"大字下富","koaza":"","lat":35.833131,"lng":139.462623,"zip":"3590000"}]