[{"town":"西弁財二丁目","koaza":"","lat":35.812641,"lng":139.581867,"zip":"3510021"},{"town":"栄町四丁目","koaza":"","lat":35.786464,"lng":139.598646,"zip":"3510012"},{"town":"東弁財一丁目","koaza":"","lat":35.813488,"lng":139.58546,"zip":"3510022"},{"town":"浜崎二丁目","koaza":"","lat":35.814632,"lng":139.589636,"zip":"3510033"},{"town":"浜崎一丁目","koaza":"","lat":35.815521,"lng":139.588566,"zip":"3510033"},{"town":"溝沼一丁目","koaza":"","lat":35.799403,"lng":139.589228,"zip":"3510023"},{"town":"三原四丁目","koaza":"","lat":35.816569,"lng":139.575796,"zip":"3510025"},{"town":"西原一丁目","koaza":"","lat":35.816755,"lng":139.587817,"zip":"3510034"},{"town":"西原二丁目","koaza":"","lat":35.817606,"lng":139.585367,"zip":"3510034"},{"town":"北原一丁目","koaza":"","lat":35.818793,"lng":139.590248,"zip":"3510036"},{"town":"西弁財一丁目","koaza":"","lat":35.814855,"lng":139.584453,"zip":"3510021"},{"town":"朝志ケ丘四丁目","koaza":"","lat":35.823234,"lng":139.583308,"zip":"3510035"},{"town":"東弁財二丁目","koaza":"","lat":35.812114,"lng":139.586405,"zip":"3510022"},{"town":"膝折町五丁目","koaza":"","lat":35.798112,"lng":139.586844,"zip":"3510014"},{"town":"東弁財三丁目","koaza":"","lat":35.811381,"lng":139.583349,"zip":"3510022"},{"town":"朝志ケ丘三丁目","koaza":"","lat":35.821107,"lng":139.584005,"zip":"3510035"},{"town":"溝沼四丁目","koaza":"","lat":35.804366,"lng":139.586455,"zip":"3510023"},{"town":"仲町一丁目","koaza":"","lat":35.800279,"lng":139.600257,"zip":"3510006"},{"town":"北原二丁目","koaza":"","lat":35.820304,"lng":139.587574,"zip":"3510036"},{"town":"朝志ケ丘二丁目","koaza":"","lat":35.821838,"lng":139.579574,"zip":"3510035"},{"town":"栄町三丁目","koaza":"","lat":35.788645,"lng":139.598589,"zip":"3510012"},{"town":"溝沼五丁目","koaza":"","lat":35.803957,"lng":139.590463,"zip":"3510023"},{"town":"膝折町三丁目","koaza":"","lat":35.79717,"lng":139.578132,"zip":"3510014"},{"town":"浜崎三丁目","koaza":"","lat":35.816886,"lng":139.592128,"zip":"3510033"},{"town":"溝沼三丁目","koaza":"","lat":35.801297,"lng":139.585792,"zip":"3510023"},{"town":"泉水一丁目","koaza":"","lat":35.802353,"lng":139.575753,"zip":"3510024"},{"town":"栄町一丁目","koaza":"","lat":35.79158,"lng":139.59974,"zip":"3510012"},{"town":"根岸台六丁目","koaza":"","lat":35.796675,"lng":139.603615,"zip":"3510005"},{"town":"栄町二丁目","koaza":"","lat":35.788911,"lng":139.601155,"zip":"3510012"},{"town":"大字田島","koaza":"","lat":35.816341,"lng":139.603411,"zip":"3510000"},{"town":"泉水二丁目","koaza":"","lat":35.803742,"lng":139.578932,"zip":"3510024"},{"town":"仲町二丁目","koaza":"","lat":35.795136,"lng":139.602094,"zip":"3510006"},{"town":"田島一丁目","koaza":"","lat":35.813179,"lng":139.605403,"zip":"3510032"},{"town":"溝沼二丁目","koaza":"","lat":35.801749,"lng":139.589783,"zip":"3510023"},{"town":"朝志ケ丘一丁目","koaza":"","lat":35.818838,"lng":139.5826,"zip":"3510035"},{"town":"幸町一丁目","koaza":"","lat":35.796226,"lng":139.588632,"zip":"3510015"},{"town":"根岸台一丁目","koaza":"","lat":35.801872,"lng":139.602102,"zip":"3510005"},{"town":"根岸台五丁目","koaza":"","lat":35.800582,"lng":139.604939,"zip":"3510005"},{"town":"溝沼七丁目","koaza":"","lat":35.808201,"lng":139.59128,"zip":"3510023"},{"town":"栄町五丁目","koaza":"","lat":35.788977,"lng":139.596097,"zip":"3510012"},{"town":"三原五丁目","koaza":"","lat":35.809605,"lng":139.574612,"zip":"3510025"},{"town":"本町三丁目","koaza":"","lat":35.7942,"lng":139.599051,"zip":"3510011"},{"town":"青葉台一丁目","koaza":"","lat":35.792444,"lng":139.595125,"zip":"3510016"},{"town":"溝沼六丁目","koaza":"","lat":35.806211,"lng":139.591855,"zip":"3510023"},{"town":"三原二丁目","koaza":"","lat":35.815879,"lng":139.578288,"zip":"3510025"},{"town":"岡二丁目","koaza":"","lat":35.810382,"lng":139.596484,"zip":"3510007"},{"town":"幸町二丁目","koaza":"","lat":35.792018,"lng":139.586123,"zip":"3510015"},{"town":"根岸台八丁目","koaza":"","lat":35.801474,"lng":139.611978,"zip":"3510005"},{"town":"浜崎四丁目","koaza":"","lat":35.819521,"lng":139.595831,"zip":"3510033"},{"town":"宮戸二丁目","koaza":"","lat":35.825127,"lng":139.585661,"zip":"3510031"},{"town":"根岸台四丁目","koaza":"","lat":35.802691,"lng":139.608383,"zip":"3510005"},{"town":"三原三丁目","koaza":"","lat":35.817466,"lng":139.58043,"zip":"3510025"},{"town":"根岸台三丁目","koaza":"","lat":35.807486,"lng":139.608457,"zip":"3510005"},{"town":"三原一丁目","koaza":"","lat":35.809919,"lng":139.577866,"zip":"3510025"},{"town":"岡一丁目","koaza":"","lat":35.806237,"lng":139.599583,"zip":"3510007"},{"town":"膝折町一丁目","koaza":"","lat":35.795304,"lng":139.583447,"zip":"3510014"},{"town":"根岸台二丁目","koaza":"","lat":35.806541,"lng":139.605257,"zip":"3510005"},{"town":"田島二丁目","koaza":"","lat":35.81561,"lng":139.607708,"zip":"3510032"},{"town":"本町二丁目","koaza":"","lat":35.798788,"lng":139.597653,"zip":"3510011"},{"town":"幸町三丁目","koaza":"","lat":35.788807,"lng":139.588155,"zip":"3510015"},{"town":"宮戸三丁目","koaza":"","lat":35.82886,"lng":139.585694,"zip":"3510031"},{"town":"大字岡","koaza":"","lat":35.814439,"lng":139.598031,"zip":"3510000"},{"town":"宮戸四丁目","koaza":"","lat":35.826202,"lng":139.591354,"zip":"3510031"},{"town":"宮戸一丁目","koaza":"","lat":35.822226,"lng":139.592284,"zip":"3510031"},{"town":"泉水三丁目","koaza":"","lat":35.807653,"lng":139.580749,"zip":"3510024"},{"town":"膝折町二丁目","koaza":"","lat":35.790671,"lng":139.581949,"zip":"3510014"},{"town":"大字膝折","koaza":"","lat":35.784367,"lng":139.583857,"zip":"3510000"},{"town":"岡三丁目","koaza":"","lat":35.810156,"lng":139.602573,"zip":"3510007"},{"town":"膝折町四丁目","koaza":"","lat":35.799,"lng":139.58092,"zip":"3510014"},{"town":"陸上自衛隊朝霞駐屯地","koaza":"","lat":35.782788,"lng":139.59416,"zip":"3510000"},{"town":"大字宮戸","koaza":"","lat":35.824946,"lng":139.597285,"zip":"3510000"},{"town":"根岸台七丁目","koaza":"","lat":35.796859,"lng":139.609717,"zip":"3510005"},{"town":"大字浜崎","koaza":"","lat":35.820472,"lng":139.604172,"zip":"3510000"},{"town":"本町一丁目","koaza":"","lat":35.801873,"lng":139.595136,"zip":"3510011"},{"town":"大字溝沼","koaza":"","lat":35.808236,"lng":139.586583,"zip":"3510000"},{"town":"大字台","koaza":"","lat":35.808986,"lng":139.613429,"zip":"3510000"},{"town":"大字下内間木","koaza":"","lat":35.81727,"lng":139.616852,"zip":"3510000"},{"town":"大字上内間木","koaza":"","lat":35.826427,"lng":139.610845,"zip":"3510000"},{"town":"大字根岸","koaza":"","lat":35.80979,"lng":139.613302,"zip":"3510000"}]