[{"town":"五十子一丁目","koaza":"","lat":36.227211,"lng":139.193647,"zip":"3670027"},{"town":"見福五丁目","koaza":"","lat":36.230059,"lng":139.175426,"zip":"3670044"},{"town":"万年寺二丁目","koaza":"","lat":36.252194,"lng":139.163601,"zip":"3670064"},{"town":"見福四丁目","koaza":"","lat":36.23032,"lng":139.177983,"zip":"3670044"},{"town":"五十子二丁目","koaza":"","lat":36.226731,"lng":139.196374,"zip":"3670027"},{"town":"児玉町児玉南三丁目","koaza":"","lat":36.184644,"lng":139.13573,"zip":"3670218"},{"town":"銀座二丁目","koaza":"","lat":36.239125,"lng":139.187837,"zip":"3670052"},{"town":"中央三丁目","koaza":"","lat":36.242523,"lng":139.183278,"zip":"3670053"},{"town":"四季の里一丁目","koaza":"","lat":36.226077,"lng":139.194188,"zip":"3670039"},{"town":"銀座三丁目","koaza":"","lat":36.237846,"lng":139.186631,"zip":"3670052"},{"town":"東台三丁目","koaza":"","lat":36.238534,"lng":139.195545,"zip":"3670021"},{"town":"千代田一丁目","koaza":"","lat":36.240624,"lng":139.180739,"zip":"3670054"},{"town":"柏二丁目","koaza":"","lat":36.231878,"lng":139.175912,"zip":"3670045"},{"town":"中央一丁目","koaza":"","lat":36.24165,"lng":139.186796,"zip":"3670053"},{"town":"南一丁目","koaza":"","lat":36.236913,"lng":139.182692,"zip":"3670048"},{"town":"けや木二丁目","koaza":"","lat":36.230142,"lng":139.189793,"zip":"3670042"},{"town":"四季の里二丁目","koaza":"","lat":36.224357,"lng":139.195742,"zip":"3670039"},{"town":"本庄一丁目","koaza":"","lat":36.237838,"lng":139.189655,"zip":"3670051"},{"town":"四季の里三丁目","koaza":"","lat":36.223014,"lng":139.196217,"zip":"3670039"},{"town":"銀座一丁目","koaza":"","lat":36.239406,"lng":139.184082,"zip":"3670052"},{"town":"東台一丁目","koaza":"","lat":36.234295,"lng":139.194741,"zip":"3670021"},{"town":"見福三丁目","koaza":"","lat":36.228967,"lng":139.181205,"zip":"3670044"},{"town":"万年寺一丁目","koaza":"","lat":36.251567,"lng":139.165449,"zip":"3670064"},{"town":"五十子三丁目","koaza":"","lat":36.227191,"lng":139.199698,"zip":"3670027"},{"town":"児玉町児玉南一丁目","koaza":"","lat":36.184818,"lng":139.130085,"zip":"3670218"},{"town":"千代田三丁目","koaza":"","lat":36.24467,"lng":139.17883,"zip":"3670054"},{"town":"いまい台三丁目","koaza":"","lat":36.218017,"lng":139.158217,"zip":"3670038"},{"town":"下野堂二丁目","koaza":"","lat":36.249219,"lng":139.162579,"zip":"3670063"},{"town":"千代田二丁目","koaza":"","lat":36.24253,"lng":139.176265,"zip":"3670054"},{"town":"小島南二丁目","koaza":"","lat":36.240653,"lng":139.169204,"zip":"3670062"},{"town":"緑二丁目","koaza":"","lat":36.227656,"lng":139.176823,"zip":"3670043"},{"town":"下野堂一丁目","koaza":"","lat":36.249059,"lng":139.165724,"zip":"3670063"},{"town":"万年寺三丁目","koaza":"","lat":36.252913,"lng":139.161205,"zip":"3670064"},{"town":"緑一丁目","koaza":"","lat":36.227084,"lng":139.180648,"zip":"3670043"},{"town":"児玉町児玉南二丁目","koaza":"","lat":36.184412,"lng":139.133015,"zip":"3670218"},{"town":"早稲田の杜四丁目","koaza":"","lat":36.224946,"lng":139.184495,"zip":"3670030"},{"town":"早稲田の杜三丁目","koaza":"","lat":36.223713,"lng":139.181667,"zip":"3670030"},{"town":"南二丁目","koaza":"","lat":36.234387,"lng":139.179322,"zip":"3670048"},{"town":"小島三丁目","koaza":"","lat":36.248818,"lng":139.167863,"zip":"3670061"},{"town":"緑三丁目","koaza":"","lat":36.227807,"lng":139.172607,"zip":"3670043"},{"town":"けや木一丁目","koaza":"","lat":36.231575,"lng":139.18709,"zip":"3670042"},{"town":"千代田四丁目","koaza":"","lat":36.243532,"lng":139.181025,"zip":"3670054"},{"town":"東台四丁目","koaza":"","lat":36.239851,"lng":139.197034,"zip":"3670021"},{"town":"栄一丁目","koaza":"","lat":36.238449,"lng":139.173137,"zip":"3670046"},{"town":"中央二丁目","koaza":"","lat":36.24326,"lng":139.187041,"zip":"3670053"},{"town":"早稲田の杜五丁目","koaza":"","lat":36.218904,"lng":139.187045,"zip":"3670030"},{"town":"早稲田の杜二丁目","koaza":"","lat":36.221022,"lng":139.183317,"zip":"3670030"},{"town":"朝日町一丁目","koaza":"","lat":36.232067,"lng":139.193092,"zip":"3670026"},{"town":"小島四丁目","koaza":"","lat":36.250437,"lng":139.171344,"zip":"3670061"},{"town":"児玉町児玉南四丁目","koaza":"","lat":36.182211,"lng":139.132979,"zip":"3670218"},{"town":"本庄四丁目","koaza":"","lat":36.245401,"lng":139.192715,"zip":"3670051"},{"town":"小島五丁目","koaza":"","lat":36.249065,"lng":139.174485,"zip":"3670061"},{"town":"下野堂三丁目","koaza":"","lat":36.25065,"lng":139.158941,"zip":"3670063"},{"town":"朝日町三丁目","koaza":"","lat":36.229568,"lng":139.19272,"zip":"3670026"},{"town":"日の出三丁目","koaza":"","lat":36.235744,"lng":139.202921,"zip":"3670022"},{"town":"寿一丁目","koaza":"","lat":36.228783,"lng":139.202021,"zip":"3670023"},{"town":"本庄二丁目","koaza":"","lat":36.2375,"lng":139.19166,"zip":"3670051"},{"town":"東台二丁目","koaza":"","lat":36.236554,"lng":139.195272,"zip":"3670021"},{"town":"前原一丁目","koaza":"","lat":36.23838,"lng":139.180086,"zip":"3670047"},{"town":"小島南四丁目","koaza":"","lat":36.244211,"lng":139.167333,"zip":"3670062"},{"town":"けや木三丁目","koaza":"","lat":36.228518,"lng":139.186373,"zip":"3670042"},{"town":"上仁手","koaza":"","lat":36.261383,"lng":139.207072,"zip":"3670007"},{"town":"駅南一丁目","koaza":"","lat":36.235633,"lng":139.185193,"zip":"3670041"},{"town":"朝日町二丁目","koaza":"","lat":36.230601,"lng":139.196296,"zip":"3670026"},{"town":"栄三丁目","koaza":"","lat":36.230909,"lng":139.172095,"zip":"3670046"},{"town":"見福二丁目","koaza":"","lat":36.232076,"lng":139.184221,"zip":"3670044"},{"town":"日の出二丁目","koaza":"","lat":36.234423,"lng":139.199635,"zip":"3670022"},{"town":"前原二丁目","koaza":"","lat":36.239915,"lng":139.175653,"zip":"3670047"},{"town":"駅南二丁目","koaza":"","lat":36.233834,"lng":139.189346,"zip":"3670041"},{"town":"見福一丁目","koaza":"","lat":36.232949,"lng":139.181233,"zip":"3670044"},{"town":"小島二丁目","koaza":"","lat":36.247474,"lng":139.169825,"zip":"3670061"},{"town":"東台五丁目","koaza":"","lat":36.242808,"lng":139.197551,"zip":"3670021"},{"town":"日の出一丁目","koaza":"","lat":36.23201,"lng":139.198709,"zip":"3670022"},{"town":"小島南一丁目","koaza":"","lat":36.242361,"lng":139.171464,"zip":"3670062"},{"town":"若泉一丁目","koaza":"","lat":36.246008,"lng":139.187421,"zip":"3670055"},{"town":"柏一丁目","koaza":"","lat":36.235766,"lng":139.176177,"zip":"3670045"},{"town":"若泉三丁目","koaza":"","lat":36.249312,"lng":139.186151,"zip":"3670055"},{"town":"いまい台二丁目","koaza":"","lat":36.221797,"lng":139.159188,"zip":"3670038"},{"town":"栄二丁目","koaza":"","lat":36.235108,"lng":139.172372,"zip":"3670046"},{"town":"小島一丁目","koaza":"","lat":36.245747,"lng":139.173085,"zip":"3670061"},{"town":"杉山","koaza":"","lat":36.258962,"lng":139.168288,"zip":"3670074"},{"town":"若泉二丁目","koaza":"","lat":36.246782,"lng":139.183253,"zip":"3670055"},{"town":"本庄三丁目","koaza":"","lat":36.242246,"lng":139.192117,"zip":"3670051"},{"town":"いまい台一丁目","koaza":"","lat":36.223715,"lng":139.161563,"zip":"3670038"},{"town":"児玉町高関","koaza":"","lat":36.217321,"lng":139.160095,"zip":"3670201"},{"town":"小島南三丁目","koaza":"","lat":36.241508,"lng":139.164676,"zip":"3670062"},{"town":"日の出四丁目","koaza":"","lat":36.239514,"lng":139.201507,"zip":"3670022"},{"town":"早稲田の杜一丁目","koaza":"","lat":36.21913,"lng":139.180982,"zip":"3670030"},{"town":"小島六丁目","koaza":"","lat":36.247437,"lng":139.178174,"zip":"3670061"},{"town":"寿二丁目","koaza":"","lat":36.231379,"lng":139.204585,"zip":"3670023"},{"town":"下野堂","koaza":"","lat":36.245926,"lng":139.164022,"zip":"3670063"},{"town":"児玉町元田","koaza":"","lat":36.168874,"lng":139.108132,"zip":"3670252"},{"town":"寿三丁目","koaza":"","lat":36.232407,"lng":139.209269,"zip":"3670023"},{"town":"児玉町長沖","koaza":"","lat":36.179613,"lng":139.125188,"zip":"3670215"},{"town":"共栄","koaza":"","lat":36.222173,"lng":139.14294,"zip":"3670037"},{"town":"東富田","koaza":"","lat":36.221582,"lng":139.175012,"zip":"3670033"},{"town":"児玉町下真下","koaza":"","lat":36.217057,"lng":139.143943,"zip":"3670207"},{"town":"都島","koaza":"","lat":36.258948,"lng":139.174702,"zip":"3670073"},{"town":"児玉町田端","koaza":"","lat":36.196131,"lng":139.112717,"zip":"3670222"},{"town":"四方田","koaza":"","lat":36.219213,"lng":139.169765,"zip":"3670034"},{"town":"鵜森","koaza":"","lat":36.232858,"lng":139.215805,"zip":"3670016"},{"town":"滝瀬","koaza":"","lat":36.229553,"lng":139.241753,"zip":"3670013"},{"town":"児玉町保木野","koaza":"","lat":36.203369,"lng":139.115248,"zip":"3670221"},{"town":"小島","koaza":"","lat":36.254462,"lng":139.168526,"zip":"3670061"},{"town":"東五十子","koaza":"","lat":36.226387,"lng":139.213191,"zip":"3670024"},{"town":"傍示堂","koaza":"","lat":36.240344,"lng":139.21229,"zip":"3670017"},{"town":"児玉町共栄","koaza":"","lat":36.216126,"lng":139.134667,"zip":"3670206"},{"town":"児玉町八幡山","koaza":"","lat":36.196127,"lng":139.128566,"zip":"3670217"},{"town":"西五十子","koaza":"","lat":36.223059,"lng":139.203786,"zip":"3670025"},{"town":"田中","koaza":"","lat":36.25647,"lng":139.194607,"zip":"3670006"},{"town":"西富田","koaza":"","lat":36.230704,"lng":139.165533,"zip":"3670035"},{"town":"北堀","koaza":"","lat":36.221917,"lng":139.191481,"zip":"3670031"},{"town":"堀田","koaza":"","lat":36.228788,"lng":139.233536,"zip":"3670014"},{"town":"山王堂","koaza":"","lat":36.26293,"lng":139.187642,"zip":"3670071"},{"town":"宮戸","koaza":"","lat":36.240362,"lng":139.239453,"zip":"3670012"},{"town":"下仁手","koaza":"","lat":36.253126,"lng":139.222236,"zip":"3670001"},{"town":"児玉町上真下","koaza":"","lat":36.20784,"lng":139.132433,"zip":"3670205"},{"town":"久々宇","koaza":"","lat":36.254144,"lng":139.202623,"zip":"3670005"},{"town":"児玉町入浅見","koaza":"","lat":36.20087,"lng":139.155911,"zip":"3670203"},{"town":"沼和田","koaza":"","lat":36.256085,"lng":139.18381,"zip":"3670072"},{"town":"児玉町下浅見","koaza":"","lat":36.212761,"lng":139.166005,"zip":"3670202"},{"town":"小和瀬","koaza":"","lat":36.245998,"lng":139.230385,"zip":"3670011"},{"town":"児玉町吉田林","koaza":"","lat":36.19981,"lng":139.137918,"zip":"3670211"},{"town":"新井","koaza":"","lat":36.267258,"lng":139.174716,"zip":"3670075"},{"town":"栗崎","koaza":"","lat":36.212266,"lng":139.18377,"zip":"3670032"},{"town":"児玉町塩谷","koaza":"","lat":36.183051,"lng":139.106411,"zip":"3670223"},{"town":"牧西","koaza":"","lat":36.234986,"lng":139.227329,"zip":"3670015"},{"town":"今井","koaza":"","lat":36.225523,"lng":139.152896,"zip":"3670036"},{"town":"児玉町高柳","koaza":"","lat":36.173929,"lng":139.108248,"zip":"3670224"},{"town":"児玉町蛭川","koaza":"","lat":36.20746,"lng":139.14751,"zip":"3670204"},{"town":"仁手","koaza":"","lat":36.248813,"lng":139.214459,"zip":"3670002"},{"town":"児玉町宮内","koaza":"","lat":36.180786,"lng":139.082993,"zip":"3670226"},{"town":"児玉町金屋","koaza":"","lat":36.189267,"lng":139.120434,"zip":"3670216"},{"town":"児玉町飯倉","koaza":"","lat":36.179116,"lng":139.092793,"zip":"3670225"},{"town":"児玉町児玉","koaza":"","lat":36.187876,"lng":139.14209,"zip":"3670212"},{"town":"児玉町稲沢","koaza":"","lat":36.159485,"lng":139.080311,"zip":"3670251"},{"town":"児玉町河内","koaza":"","lat":36.152136,"lng":139.091088,"zip":"3670253"},{"town":"児玉町秋山","koaza":"","lat":36.164842,"lng":139.13557,"zip":"3670213"},{"town":"児玉町太駄","koaza":"","lat":36.133118,"lng":139.073797,"zip":"3670254"},{"town":"児玉町小平","koaza":"","lat":36.16021,"lng":139.116832,"zip":"3670214"},{"town":"小島","koaza":"下畠","lat":36.250459,"lng":139.177963,"zip":"3670061"},{"town":"（大字なし）","koaza":"照若町","lat":36.25036,"lng":139.182104,"zip":"3670000"},{"town":"（大字なし）","koaza":"本町","lat":36.248506,"lng":139.193558,"zip":"3670000"},{"town":"（大字なし）","koaza":"台町","lat":36.244987,"lng":139.202992,"zip":"3670000"},{"town":"（大字なし）","koaza":"諏訪町","lat":36.238569,"lng":139.205422,"zip":"3670000"},{"town":"西五十子","koaza":"大塚","lat":36.226573,"lng":139.207028,"zip":"3670025"},{"town":"北堀","koaza":"山ノ根","lat":36.218518,"lng":139.180506,"zip":"3670031"}]