[{"town":"大字大黒部","koaza":"","lat":35.996817,"lng":139.403816,"zip":"3550000"},{"town":"あずま町三丁目","koaza":"","lat":36.00316,"lng":139.406035,"zip":"3550048"},{"town":"砂田町","koaza":"","lat":36.042834,"lng":139.413014,"zip":"3550019"},{"town":"あずま町一丁目","koaza":"","lat":36.007283,"lng":139.406852,"zip":"3550048"},{"town":"あずま町二丁目","koaza":"","lat":36.005152,"lng":139.406028,"zip":"3550048"},{"town":"本町二丁目","koaza":"","lat":36.038608,"lng":139.405742,"zip":"3550015"},{"town":"本町一丁目","koaza":"","lat":36.042582,"lng":139.406168,"zip":"3550015"},{"town":"六反町","koaza":"","lat":36.036158,"lng":139.414628,"zip":"3550023"},{"town":"材木町","koaza":"","lat":36.040269,"lng":139.402607,"zip":"3550016"},{"town":"松葉町一丁目","koaza":"","lat":36.040861,"lng":139.399085,"zip":"3550017"},{"town":"小松原町","koaza":"","lat":36.044487,"lng":139.409787,"zip":"3550013"},{"town":"箭弓町一丁目","koaza":"","lat":36.035595,"lng":139.402516,"zip":"3550028"},{"town":"幸町","koaza":"","lat":36.030423,"lng":139.400057,"zip":"3550025"},{"town":"白山台","koaza":"","lat":35.995769,"lng":139.3853,"zip":"3550051"},{"town":"若松町一丁目","koaza":"","lat":36.029414,"lng":139.408079,"zip":"3550037"},{"town":"神明町一丁目","koaza":"","lat":36.03509,"lng":139.406816,"zip":"3550021"},{"town":"松山町三丁目","koaza":"","lat":36.046655,"lng":139.390017,"zip":"3550018"},{"town":"松本町二丁目","koaza":"","lat":36.03966,"lng":139.415198,"zip":"3550014"},{"town":"六軒町","koaza":"","lat":36.033277,"lng":139.414919,"zip":"3550024"},{"town":"美土里町","koaza":"","lat":36.034794,"lng":139.389782,"zip":"3550027"},{"town":"御茶山町","koaza":"","lat":36.034761,"lng":139.410601,"zip":"3550022"},{"town":"元宿二丁目","koaza":"","lat":36.003418,"lng":139.393057,"zip":"3550063"},{"town":"日吉町","koaza":"","lat":36.044348,"lng":139.402129,"zip":"3550012"},{"town":"松葉町四丁目","koaza":"","lat":36.040013,"lng":139.388238,"zip":"3550017"},{"town":"元宿一丁目","koaza":"","lat":36.001427,"lng":139.39674,"zip":"3550063"},{"town":"松葉町二丁目","koaza":"","lat":36.042342,"lng":139.394327,"zip":"3550017"},{"town":"松葉町三丁目","koaza":"","lat":36.0391,"lng":139.394185,"zip":"3550017"},{"town":"沢口町","koaza":"","lat":36.057986,"lng":139.411645,"zip":"3550004"},{"town":"五領町","koaza":"","lat":36.029765,"lng":139.418126,"zip":"3550031"},{"town":"桜山台","koaza":"","lat":35.991407,"lng":139.386871,"zip":"3550052"},{"town":"松本町一丁目","koaza":"","lat":36.039834,"lng":139.409747,"zip":"3550014"},{"town":"箭弓町二丁目","koaza":"","lat":36.033448,"lng":139.398743,"zip":"3550028"},{"town":"殿山町","koaza":"","lat":36.057698,"lng":139.415512,"zip":"3550003"},{"town":"和泉町","koaza":"","lat":36.03244,"lng":139.39279,"zip":"3550026"},{"town":"松山町一丁目","koaza":"","lat":36.046046,"lng":139.39581,"zip":"3550018"},{"town":"神明町二丁目","koaza":"","lat":36.030506,"lng":139.404389,"zip":"3550021"},{"town":"新宿町","koaza":"","lat":36.033819,"lng":139.420495,"zip":"3550032"},{"town":"若松町二丁目","koaza":"","lat":36.02821,"lng":139.412331,"zip":"3550037"},{"town":"山崎町","koaza":"","lat":36.028708,"lng":139.424603,"zip":"3550033"},{"town":"加美町","koaza":"","lat":36.047423,"lng":139.402268,"zip":"3550011"},{"town":"松風台","koaza":"","lat":35.993272,"lng":139.379222,"zip":"3550055"},{"town":"あずま町四丁目","koaza":"","lat":36.0047,"lng":139.411205,"zip":"3550048"},{"town":"坂東山","koaza":"","lat":36.016451,"lng":139.375419,"zip":"3550067"},{"town":"箭弓町三丁目","koaza":"","lat":36.036787,"lng":139.396223,"zip":"3550028"},{"town":"旗立台","koaza":"","lat":35.987654,"lng":139.380985,"zip":"3550054"},{"town":"松山町二丁目","koaza":"","lat":36.045177,"lng":139.387565,"zip":"3550018"},{"town":"大字上押垂","koaza":"","lat":36.01373,"lng":139.399668,"zip":"3550000"},{"town":"大字下押垂","koaza":"","lat":36.009095,"lng":139.423433,"zip":"3550000"},{"town":"大字早俣","koaza":"","lat":36.000887,"lng":139.421687,"zip":"3550000"},{"town":"大字今泉","koaza":"","lat":36.010012,"lng":139.431519,"zip":"3550000"},{"town":"大字宮鼻","koaza":"","lat":35.993,"lng":139.410126,"zip":"3550000"},{"town":"大字柏崎","koaza":"","lat":36.024408,"lng":139.425264,"zip":"3550000"},{"town":"大字市ノ川","koaza":"","lat":36.051429,"lng":139.392931,"zip":"3550000"},{"town":"大字正代","koaza":"","lat":35.997765,"lng":139.414083,"zip":"3550000"},{"town":"大字新郷","koaza":"","lat":36.035467,"lng":139.362209,"zip":"3550000"},{"town":"大字高坂","koaza":"","lat":36.005251,"lng":139.400467,"zip":"3550000"},{"town":"大字野田","koaza":"","lat":36.057744,"lng":139.390282,"zip":"3550000"},{"town":"大字毛塚","koaza":"","lat":35.992027,"lng":139.399402,"zip":"3550000"},{"town":"大字下青鳥","koaza":"","lat":36.020957,"lng":139.391061,"zip":"3550000"},{"town":"大字田木","koaza":"","lat":35.987838,"lng":139.392999,"zip":"3550000"},{"town":"大字岡","koaza":"","lat":36.093443,"lng":139.40527,"zip":"3550000"},{"town":"大字西本宿","koaza":"","lat":36.008157,"lng":139.390367,"zip":"3550000"},{"town":"大字葛袋","koaza":"","lat":36.012098,"lng":139.380533,"zip":"3550000"},{"town":"大字上野本","koaza":"","lat":36.022443,"lng":139.403542,"zip":"3550000"},{"town":"大字松山","koaza":"","lat":36.048204,"lng":139.413156,"zip":"3550000"},{"town":"大字下野本","koaza":"","lat":36.017644,"lng":139.42024,"zip":"3550000"},{"town":"大字下唐子","koaza":"","lat":36.025714,"lng":139.364182,"zip":"3550000"},{"town":"大字上唐子","koaza":"","lat":36.033221,"lng":139.340605,"zip":"3550000"},{"town":"大字古凍","koaza":"","lat":36.013587,"lng":139.448263,"zip":"3550000"},{"town":"大字東平","koaza":"","lat":36.066302,"lng":139.411191,"zip":"3550000"},{"town":"大字石橋","koaza":"","lat":36.032328,"lng":139.377615,"zip":"3550000"},{"town":"大字岩殿","koaza":"","lat":36.001268,"lng":139.371069,"zip":"3550000"},{"town":"大字神戸","koaza":"","lat":36.015667,"lng":139.35004,"zip":"3550000"},{"town":"大字大谷","koaza":"","lat":36.081419,"lng":139.391636,"zip":"3550000"}]