[{"town":"南一丁目","koaza":"","lat":35.998701,"lng":139.565958,"zip":"3630015"},{"town":"神明一丁目","koaza":"","lat":35.99369,"lng":139.570472,"zip":"3630014"},{"town":"神明二丁目","koaza":"","lat":35.989635,"lng":139.574306,"zip":"3630014"},{"town":"末広一丁目","koaza":"","lat":35.999999,"lng":139.572203,"zip":"3630012"},{"town":"鴨川二丁目","koaza":"","lat":35.992689,"lng":139.557545,"zip":"3630024"},{"town":"南二丁目","koaza":"","lat":35.996382,"lng":139.568239,"zip":"3630015"},{"town":"下日出谷西三丁目","koaza":"","lat":35.996213,"lng":139.544524,"zip":"3630028"},{"town":"東一丁目","koaza":"","lat":36.000021,"lng":139.568826,"zip":"3630013"},{"town":"寿一丁目","koaza":"","lat":36.000579,"lng":139.563983,"zip":"3630016"},{"town":"西一丁目","koaza":"","lat":36.003191,"lng":139.561305,"zip":"3630017"},{"town":"坂田東三丁目","koaza":"","lat":36.015786,"lng":139.574869,"zip":"3630009"},{"town":"朝日三丁目","koaza":"","lat":35.989171,"lng":139.567338,"zip":"3630023"},{"town":"下日出谷西二丁目","koaza":"","lat":35.9937,"lng":139.545339,"zip":"3630028"},{"town":"東二丁目","koaza":"","lat":35.997556,"lng":139.570855,"zip":"3630013"},{"town":"坂田東二丁目","koaza":"","lat":36.012592,"lng":139.57667,"zip":"3630009"},{"town":"下日出谷西一丁目","koaza":"","lat":35.993829,"lng":139.549495,"zip":"3630028"},{"town":"末広二丁目","koaza":"","lat":36.005413,"lng":139.569003,"zip":"3630012"},{"town":"寿二丁目","koaza":"","lat":36.002699,"lng":139.566467,"zip":"3630016"},{"town":"朝日一丁目","koaza":"","lat":35.991764,"lng":139.567277,"zip":"3630023"},{"town":"朝日二丁目","koaza":"","lat":35.989276,"lng":139.571448,"zip":"3630023"},{"town":"坂田東一丁目","koaza":"","lat":36.011016,"lng":139.578172,"zip":"3630009"},{"town":"若宮二丁目","koaza":"","lat":35.995093,"lng":139.564841,"zip":"3630022"},{"town":"西二丁目","koaza":"","lat":36.00752,"lng":139.556766,"zip":"3630017"},{"town":"北一丁目","koaza":"","lat":36.006496,"lng":139.564108,"zip":"3630011"},{"town":"北二丁目","koaza":"","lat":36.008381,"lng":139.560183,"zip":"3630011"},{"town":"大字舎人新田","koaza":"","lat":36.025275,"lng":139.580334,"zip":"3630000"},{"town":"泉一丁目","koaza":"","lat":36.000475,"lng":139.557564,"zip":"3630021"},{"town":"鴨川一丁目","koaza":"","lat":35.995222,"lng":139.557446,"zip":"3630024"},{"town":"若宮一丁目","koaza":"","lat":35.998285,"lng":139.56109,"zip":"3630022"},{"town":"大字篠津","koaza":"","lat":36.035074,"lng":139.568154,"zip":"3630000"},{"town":"泉二丁目","koaza":"","lat":36.004105,"lng":139.555163,"zip":"3630021"},{"town":"末広三丁目","koaza":"","lat":36.007607,"lng":139.568268,"zip":"3630012"},{"town":"赤堀一丁目","koaza":"","lat":36.025851,"lng":139.575803,"zip":"3630002"},{"town":"赤堀二丁目","koaza":"","lat":36.032346,"lng":139.566852,"zip":"3630002"},{"town":"大字五町台","koaza":"","lat":36.03046,"lng":139.578923,"zip":"3630000"},{"town":"大字倉田","koaza":"","lat":36.014926,"lng":139.588944,"zip":"3630000"},{"town":"大字下日出谷","koaza":"","lat":35.997326,"lng":139.550356,"zip":"3630000"},{"town":"大字小針領家","koaza":"","lat":36.019076,"lng":139.584267,"zip":"3630000"},{"town":"大字坂田","koaza":"","lat":36.011734,"lng":139.565626,"zip":"3630000"},{"town":"大字上日出谷","koaza":"","lat":36.005338,"lng":139.543788,"zip":"3630000"},{"town":"大字加納","koaza":"","lat":36.021615,"lng":139.565592,"zip":"3630000"},{"town":"大字川田谷","koaza":"","lat":35.986981,"lng":139.525806,"zip":"3630000"},{"town":"坂田西一丁目","koaza":"","lat":36.010681,"lng":139.572373,"zip":"3630018"},{"town":"坂田西二丁目","koaza":"","lat":36.013022,"lng":139.570492,"zip":"3630018"},{"town":"坂田西三丁目","koaza":"","lat":36.015407,"lng":139.568394,"zip":"3630018"},{"town":"下日出谷東一丁目","koaza":"","lat":null,"lng":null,"zip":null},{"town":"下日出谷東二丁目","koaza":"","lat":null,"lng":null,"zip":null},{"town":"下日出谷東三丁目","koaza":"","lat":null,"lng":null,"zip":null}]