[{"town":"大字須野子新田","koaza":"","lat":36.028035,"lng":139.49888,"zip":"3550100"},{"town":"東野六丁目","koaza":"","lat":36.037629,"lng":139.474283,"zip":"3550110"},{"town":"東野二丁目","koaza":"","lat":36.040681,"lng":139.46881,"zip":"3550110"},{"town":"東野一丁目","koaza":"","lat":36.042573,"lng":139.467516,"zip":"3550110"},{"town":"東野三丁目","koaza":"","lat":36.039586,"lng":139.470541,"zip":"3550110"},{"town":"東野四丁目","koaza":"","lat":36.036659,"lng":139.469011,"zip":"3550110"},{"town":"東野五丁目","koaza":"","lat":36.037704,"lng":139.471689,"zip":"3550110"},{"town":"大字上銀谷","koaza":"","lat":36.034453,"lng":139.470071,"zip":"3550100"},{"town":"大字古名","koaza":"","lat":36.041815,"lng":139.472699,"zip":"3550100"},{"town":"大字小新井","koaza":"","lat":36.055448,"lng":139.453193,"zip":"3550100"},{"town":"大字万光寺","koaza":"","lat":36.031847,"lng":139.474984,"zip":"3550100"},{"town":"大字蚊斗谷","koaza":"","lat":36.036097,"lng":139.484255,"zip":"3550100"},{"town":"大字蓮沼新田","koaza":"","lat":36.036228,"lng":139.489821,"zip":"3550100"},{"town":"大字高尾新田","koaza":"","lat":36.031638,"lng":139.492016,"zip":"3550100"},{"town":"大字本沢","koaza":"","lat":36.063136,"lng":139.453889,"zip":"3550100"},{"town":"大字北下砂","koaza":"","lat":36.048615,"lng":139.467195,"zip":"3550100"},{"town":"大字丸貫","koaza":"","lat":36.046258,"lng":139.469187,"zip":"3550100"},{"town":"大字山ノ下","koaza":"","lat":36.067592,"lng":139.441576,"zip":"3550100"},{"town":"大字久保田新田","koaza":"","lat":36.027178,"lng":139.50167,"zip":"3550100"},{"town":"大字上細谷","koaza":"","lat":36.056812,"lng":139.448618,"zip":"3550100"},{"town":"大字御所","koaza":"","lat":36.051399,"lng":139.439509,"zip":"3550100"},{"town":"大字下銀谷","koaza":"","lat":36.02889,"lng":139.470166,"zip":"3550100"},{"town":"大字松崎","koaza":"","lat":36.064315,"lng":139.447361,"zip":"3550100"},{"town":"大字谷口","koaza":"","lat":36.039656,"lng":139.464089,"zip":"3550100"},{"town":"大字古名新田","koaza":"","lat":36.044041,"lng":139.477681,"zip":"3550100"},{"town":"大字中曽根","koaza":"","lat":36.075801,"lng":139.442524,"zip":"3550100"},{"town":"大字中新井","koaza":"","lat":36.049071,"lng":139.456502,"zip":"3550100"},{"town":"大字荒子","koaza":"","lat":36.026067,"lng":139.478436,"zip":"3550100"},{"town":"大字今泉","koaza":"","lat":36.053826,"lng":139.464864,"zip":"3550100"},{"town":"大字大和田","koaza":"","lat":36.037744,"lng":139.478823,"zip":"3550100"},{"town":"大字久米田","koaza":"","lat":36.038077,"lng":139.441363,"zip":"3550100"},{"town":"大字南吉見","koaza":"","lat":36.032795,"lng":139.425328,"zip":"3550100"},{"town":"大字和名","koaza":"","lat":36.045071,"lng":139.442987,"zip":"3550100"},{"town":"大字飯島新田","koaza":"","lat":36.025418,"lng":139.484312,"zip":"3550100"},{"town":"大字前河内","koaza":"","lat":36.019941,"lng":139.456604,"zip":"3550100"},{"town":"大字黒岩","koaza":"","lat":36.057222,"lng":139.439338,"zip":"3550100"},{"town":"大字一ツ木","koaza":"","lat":36.067035,"lng":139.463416,"zip":"3550100"},{"town":"大字西吉見","koaza":"","lat":36.028966,"lng":139.434273,"zip":"3550100"},{"town":"大字上砂","koaza":"","lat":36.075947,"lng":139.450753,"zip":"3550100"},{"town":"大字地頭方","koaza":"","lat":36.067258,"lng":139.457315,"zip":"3550100"},{"town":"大字江和井","koaza":"","lat":36.021522,"lng":139.496009,"zip":"3550100"},{"town":"大字下細谷","koaza":"","lat":36.041619,"lng":139.454472,"zip":"3550100"},{"town":"大字明秋","koaza":"","lat":36.052288,"lng":139.479181,"zip":"3550100"},{"town":"大字久保田","koaza":"","lat":36.032432,"lng":139.450369,"zip":"3550100"},{"town":"大字江綱","koaza":"","lat":36.019119,"lng":139.445377,"zip":"3550100"},{"town":"大字田甲","koaza":"","lat":36.069599,"lng":139.430534,"zip":"3550100"},{"town":"大字長谷","koaza":"","lat":36.056089,"lng":139.424482,"zip":"3550100"},{"town":"大字大串","koaza":"","lat":36.023041,"lng":139.463946,"zip":"3550100"},{"town":"大字北吉見","koaza":"","lat":36.046206,"lng":139.428562,"zip":"3550100"}]