[{"town":"みなみ野四丁目","koaza":"","lat":36.04305,"lng":139.378443,"zip":"3550814"},{"town":"みなみ野一丁目","koaza":"","lat":36.043876,"lng":139.371424,"zip":"3550814"},{"town":"みなみ野三丁目","koaza":"","lat":36.043394,"lng":139.376474,"zip":"3550814"},{"town":"みなみ野二丁目","koaza":"","lat":36.043769,"lng":139.374045,"zip":"3550814"},{"town":"月の輪六丁目","koaza":"","lat":36.045401,"lng":139.341749,"zip":"3550815"},{"town":"月の輪五丁目","koaza":"","lat":36.043088,"lng":139.336722,"zip":"3550815"},{"town":"月の輪三丁目","koaza":"","lat":36.045507,"lng":139.346684,"zip":"3550815"},{"town":"月の輪四丁目","koaza":"","lat":36.043452,"lng":139.341975,"zip":"3550815"},{"town":"月の輪七丁目","koaza":"","lat":36.048018,"lng":139.342645,"zip":"3550815"},{"town":"月の輪一丁目","koaza":"","lat":36.041993,"lng":139.343604,"zip":"3550815"},{"town":"月の輪二丁目","koaza":"","lat":36.043281,"lng":139.350193,"zip":"3550815"},{"town":"大字菅田","koaza":"","lat":36.086247,"lng":139.340805,"zip":"3550800"},{"town":"大字都","koaza":"","lat":36.040675,"lng":139.365735,"zip":"3550800"},{"town":"大字水房","koaza":"","lat":36.056667,"lng":139.341351,"zip":"3550800"},{"town":"大字月輪","koaza":"","lat":36.045591,"lng":139.358236,"zip":"3550800"},{"town":"大字土塩","koaza":"","lat":36.096526,"lng":139.369787,"zip":"3550800"},{"town":"大字和泉","koaza":"","lat":36.088861,"lng":139.328538,"zip":"3550800"},{"town":"大字中尾","koaza":"","lat":36.065547,"lng":139.34709,"zip":"3550800"},{"town":"大字伊古","koaza":"","lat":36.071524,"lng":139.334026,"zip":"3550800"},{"town":"大字山田","koaza":"","lat":36.078833,"lng":139.372071,"zip":"3550800"},{"town":"大字羽尾","koaza":"","lat":36.05348,"lng":139.365523,"zip":"3550800"},{"town":"大字福田","koaza":"","lat":36.083681,"lng":139.355122,"zip":"3550800"}]