[{"town":"大字関堀","koaza":"","lat":36.000173,"lng":139.276539,"zip":"3550300"},{"town":"大字瀬戸元上","koaza":"","lat":35.997693,"lng":139.269876,"zip":"3550300"},{"town":"大字田中","koaza":"","lat":36.003997,"lng":139.278849,"zip":"3550300"},{"town":"大字馬場","koaza":"","lat":35.997522,"lng":139.281074,"zip":"3550300"},{"town":"大字瀬戸元下","koaza":"","lat":35.992305,"lng":139.27248,"zip":"3550300"},{"town":"大字桃木","koaza":"","lat":36.000121,"lng":139.262659,"zip":"3550300"},{"town":"大字別所","koaza":"","lat":36.009305,"lng":139.260761,"zip":"3550300"},{"town":"大字本郷","koaza":"","lat":36.009021,"lng":139.274374,"zip":"3550300"},{"town":"大字番匠","koaza":"","lat":36.001541,"lng":139.289991,"zip":"3550300"},{"town":"大字雲河原","koaza":"","lat":36.017715,"lng":139.243089,"zip":"3550300"},{"town":"大字大附","koaza":"","lat":35.991158,"lng":139.256874,"zip":"3550300"},{"town":"大字田黒","koaza":"","lat":36.027393,"lng":139.293891,"zip":"3550300"},{"town":"大字五明","koaza":"","lat":36.020496,"lng":139.275565,"zip":"3550300"},{"town":"大字日影","koaza":"","lat":36.023113,"lng":139.256041,"zip":"3550300"},{"town":"大字椚平","koaza":"","lat":35.971423,"lng":139.217726,"zip":"3550300"},{"town":"大字玉川","koaza":"","lat":36.010292,"lng":139.298243,"zip":"3550300"},{"town":"大字西平","koaza":"","lat":35.997229,"lng":139.235707,"zip":"3550300"},{"town":"大字大野","koaza":"","lat":35.986985,"lng":139.195557,"zip":"3550300"}]