[{"town":"東小川一丁目","koaza":"","lat":36.056291,"lng":139.28751,"zip":"3550322"},{"town":"ひばり台三丁目","koaza":"","lat":36.077105,"lng":139.246373,"zip":"3550318"},{"town":"東小川三丁目","koaza":"","lat":36.056516,"lng":139.290299,"zip":"3550322"},{"town":"東小川四丁目","koaza":"","lat":36.057881,"lng":139.293971,"zip":"3550322"},{"town":"ひばり台一丁目","koaza":"","lat":36.076867,"lng":139.242845,"zip":"3550318"},{"town":"みどりが丘一丁目","koaza":"","lat":36.065182,"lng":139.260879,"zip":"3550315"},{"town":"みどりが丘五丁目","koaza":"","lat":36.073147,"lng":139.264401,"zip":"3550315"},{"town":"東小川六丁目","koaza":"","lat":36.059415,"lng":139.300094,"zip":"3550322"},{"town":"みどりが丘二丁目","koaza":"","lat":36.069613,"lng":139.260677,"zip":"3550315"},{"town":"みどりが丘三丁目","koaza":"","lat":36.070174,"lng":139.257824,"zip":"3550315"},{"town":"東小川二丁目","koaza":"","lat":36.053937,"lng":139.289932,"zip":"3550322"},{"town":"東小川五丁目","koaza":"","lat":36.05918,"lng":139.296355,"zip":"3550322"},{"town":"みどりが丘四丁目","koaza":"","lat":36.073653,"lng":139.260818,"zip":"3550315"},{"town":"大字鷹巣","koaza":"","lat":36.091187,"lng":139.288576,"zip":"3550300"},{"town":"大字伊勢根","koaza":"","lat":36.082998,"lng":139.277894,"zip":"3550300"},{"town":"大字下古寺","koaza":"","lat":36.040982,"lng":139.240276,"zip":"3550300"},{"town":"ひばり台二丁目","koaza":"","lat":36.079262,"lng":139.246009,"zip":"3550318"},{"town":"大字原川","koaza":"","lat":36.076235,"lng":139.249766,"zip":"3550300"},{"town":"大字増尾","koaza":"","lat":36.054325,"lng":139.249743,"zip":"3550300"},{"town":"大字奈良梨","koaza":"","lat":36.084644,"lng":139.285978,"zip":"3550300"},{"town":"大字能増","koaza":"","lat":36.089065,"lng":139.278229,"zip":"3550300"},{"town":"大字西古里","koaza":"","lat":36.093981,"lng":139.294348,"zip":"3550300"},{"town":"大字下横田","koaza":"","lat":36.068031,"lng":139.288084,"zip":"3550300"},{"town":"大字笠原","koaza":"","lat":36.064196,"lng":139.232874,"zip":"3550300"},{"town":"大字高見","koaza":"","lat":36.092879,"lng":139.270797,"zip":"3550300"},{"town":"大字大塚","koaza":"","lat":36.058917,"lng":139.25755,"zip":"3550300"},{"town":"大字木部","koaza":"","lat":36.068353,"lng":139.22429,"zip":"3550300"},{"town":"大字飯田","koaza":"","lat":36.060167,"lng":139.239612,"zip":"3550300"},{"town":"大字上横田","koaza":"","lat":36.071912,"lng":139.281101,"zip":"3550300"},{"town":"大字角山","koaza":"","lat":36.070669,"lng":139.252604,"zip":"3550300"},{"town":"大字中爪","koaza":"","lat":36.064274,"lng":139.297624,"zip":"3550300"},{"town":"大字靭負","koaza":"","lat":36.078785,"lng":139.238089,"zip":"3550300"},{"town":"大字小川","koaza":"","lat":36.053846,"lng":139.271533,"zip":"3550300"},{"town":"大字木呂子","koaza":"","lat":36.07889,"lng":139.211892,"zip":"3550300"},{"town":"大字勝呂","koaza":"","lat":36.07296,"lng":139.220817,"zip":"3550300"},{"town":"大字高谷","koaza":"","lat":36.07589,"lng":139.270768,"zip":"3550300"},{"town":"大字上古寺","koaza":"","lat":36.026689,"lng":139.233966,"zip":"3550300"},{"town":"大字青山","koaza":"","lat":36.042451,"lng":139.257309,"zip":"3550300"},{"town":"大字下里","koaza":"","lat":36.042555,"lng":139.284874,"zip":"3550300"},{"town":"大字腰越","koaza":"","lat":36.029974,"lng":139.212631,"zip":"3550300"}]