[{"town":"八幡三丁目","koaza":"","lat":35.98748,"lng":139.443556,"zip":"3500151"},{"town":"八幡二丁目","koaza":"","lat":35.989061,"lng":139.442351,"zip":"3500151"},{"town":"八幡四丁目","koaza":"","lat":35.985433,"lng":139.442415,"zip":"3500151"},{"town":"八幡一丁目","koaza":"","lat":35.988374,"lng":139.439784,"zip":"3500151"},{"town":"八幡五丁目","koaza":"","lat":35.983917,"lng":139.444619,"zip":"3500151"},{"town":"かわじま一丁目","koaza":"","lat":35.986273,"lng":139.463976,"zip":"3500168"},{"town":"大字加胡","koaza":"","lat":36.0127,"lng":139.480472,"zip":"3500100"},{"town":"大字安塚","koaza":"","lat":35.969445,"lng":139.484573,"zip":"3500100"},{"town":"小見野","koaza":"","lat":36.012023,"lng":139.486221,"zip":"3500105"},{"town":"大字紫竹","koaza":"","lat":35.978757,"lng":139.485488,"zip":"3500100"},{"town":"大字虫塚","koaza":"","lat":36.001526,"lng":139.469063,"zip":"3500100"},{"town":"大字出丸本","koaza":"","lat":35.966256,"lng":139.512049,"zip":"3500100"},{"town":"大字西谷","koaza":"","lat":35.968189,"lng":139.506589,"zip":"3500100"},{"town":"大字梅ノ木","koaza":"","lat":36.007647,"lng":139.456712,"zip":"3500100"},{"town":"大字下大屋敷","koaza":"","lat":35.957926,"lng":139.515392,"zip":"3500100"},{"town":"大字新堀","koaza":"","lat":35.971281,"lng":139.500083,"zip":"3500100"},{"town":"大字吉原","koaza":"","lat":35.974282,"lng":139.496628,"zip":"3500100"},{"town":"八幡六丁目","koaza":"","lat":35.983799,"lng":139.448172,"zip":"3500151"},{"town":"大字松永","koaza":"","lat":36.016559,"lng":139.479597,"zip":"3500100"},{"town":"大字谷中","koaza":"","lat":36.005375,"lng":139.473624,"zip":"3500100"},{"town":"大字東大塚","koaza":"","lat":35.997827,"lng":139.492226,"zip":"3500100"},{"town":"かわじま二丁目","koaza":"","lat":35.984547,"lng":139.460495,"zip":"3500168"},{"town":"大字南園部","koaza":"","lat":35.995398,"lng":139.450795,"zip":"3500100"},{"town":"大字鳥羽井","koaza":"","lat":36.002221,"lng":139.477638,"zip":"3500100"},{"town":"大字飯島","koaza":"","lat":35.973501,"lng":139.478503,"zip":"3500100"},{"town":"大字宮前","koaza":"","lat":35.975274,"lng":139.488721,"zip":"3500100"},{"town":"大字一本木","koaza":"","lat":35.998212,"lng":139.468694,"zip":"3500100"},{"town":"大字上大屋敷","koaza":"","lat":35.961264,"lng":139.517651,"zip":"3500100"},{"town":"東野","koaza":"","lat":35.989686,"lng":139.50645,"zip":"3500125"},{"town":"大字北園部","koaza":"","lat":35.999855,"lng":139.45558,"zip":"3500100"},{"town":"大字表","koaza":"","lat":35.977249,"lng":139.504083,"zip":"3500100"},{"town":"大字曲師","koaza":"","lat":35.960398,"lng":139.507441,"zip":"3500100"},{"town":"大字下伊草","koaza":"","lat":35.963065,"lng":139.474522,"zip":"3500100"},{"town":"大字牛ケ谷戸","koaza":"","lat":35.982256,"lng":139.496078,"zip":"3500100"},{"town":"大字上狢","koaza":"","lat":35.968611,"lng":139.488517,"zip":"3500100"},{"town":"大字下狢","koaza":"","lat":35.966112,"lng":139.497167,"zip":"3500100"},{"town":"大字畑中","koaza":"","lat":35.992643,"lng":139.492945,"zip":"3500100"},{"town":"大字釘無","koaza":"","lat":35.959804,"lng":139.498308,"zip":"3500100"},{"town":"大字伊草","koaza":"","lat":35.967529,"lng":139.472404,"zip":"3500100"},{"town":"大字正直","koaza":"","lat":36.003895,"lng":139.451158,"zip":"3500100"},{"town":"大字三保谷宿","koaza":"","lat":35.990967,"lng":139.500604,"zip":"3500100"},{"town":"大字吹塚","koaza":"","lat":35.993324,"lng":139.462868,"zip":"3500100"},{"town":"大字芝沼","koaza":"","lat":36.015379,"lng":139.490918,"zip":"3500100"},{"town":"大字長楽","koaza":"","lat":36.002505,"lng":139.428904,"zip":"3500100"},{"town":"東部","koaza":"","lat":36.010333,"lng":139.490704,"zip":"3500113"},{"town":"大字白井沼","koaza":"","lat":35.983169,"lng":139.486679,"zip":"3500100"},{"town":"大字戸守","koaza":"","lat":35.996538,"lng":139.440363,"zip":"3500100"},{"town":"大字鳥羽井新田","koaza":"","lat":36.003664,"lng":139.485962,"zip":"3500100"},{"town":"大字下八ツ林","koaza":"","lat":35.994219,"lng":139.484301,"zip":"3500100"},{"town":"大字下小見野","koaza":"","lat":36.01402,"lng":139.470278,"zip":"3500100"},{"town":"大字角泉","koaza":"","lat":35.961455,"lng":139.482717,"zip":"3500100"},{"town":"大字山ケ谷戸","koaza":"","lat":35.98127,"lng":139.510571,"zip":"3500100"},{"town":"大字上小見野","koaza":"","lat":36.00742,"lng":139.467805,"zip":"3500100"},{"town":"大字上八ツ林","koaza":"","lat":35.992466,"lng":139.473845,"zip":"3500100"},{"town":"大字平沼","koaza":"","lat":35.982075,"lng":139.474556,"zip":"3500100"},{"town":"大字出丸下郷","koaza":"","lat":35.971479,"lng":139.520192,"zip":"3500100"},{"town":"大字上伊草","koaza":"","lat":35.974393,"lng":139.464422,"zip":"3500100"},{"town":"大字中山","koaza":"","lat":35.986998,"lng":139.452179,"zip":"3500100"},{"town":"大字出丸中郷","koaza":"","lat":35.95466,"lng":139.529335,"zip":"3500100"}]