[{"town":"星川二丁目","koaza":"","lat":36.142298,"lng":139.3872,"zip":"3600043"},{"town":"玉井二丁目","koaza":"","lat":36.178846,"lng":139.337384,"zip":"3600853"},{"town":"星川一丁目","koaza":"","lat":36.143179,"lng":139.384423,"zip":"3600043"},{"town":"弥生一丁目","koaza":"","lat":36.142171,"lng":139.383706,"zip":"3600044"},{"town":"弥生二丁目","koaza":"","lat":36.141276,"lng":139.386784,"zip":"3600044"},{"town":"中央四丁目","koaza":"","lat":36.157101,"lng":139.389953,"zip":"3600018"},{"town":"玉井南一丁目","koaza":"","lat":36.176896,"lng":139.345655,"zip":"3600854"},{"town":"桜町一丁目","koaza":"","lat":36.149774,"lng":139.380829,"zip":"3600814"},{"town":"箱田三丁目","koaza":"","lat":36.150288,"lng":139.388037,"zip":"3600014"},{"town":"美土里町三丁目","koaza":"","lat":36.169612,"lng":139.317707,"zip":"3600845"},{"town":"末広一丁目","koaza":"","lat":36.145679,"lng":139.390574,"zip":"3600031"},{"town":"曙町三丁目","koaza":"","lat":36.134416,"lng":139.394541,"zip":"3600033"},{"town":"仲町","koaza":"","lat":36.146861,"lng":139.382743,"zip":"3600047"},{"town":"玉井四丁目","koaza":"","lat":36.178388,"lng":139.340989,"zip":"3600853"},{"town":"玉井南二丁目","koaza":"","lat":36.174831,"lng":139.346896,"zip":"3600854"},{"town":"鎌倉町","koaza":"","lat":36.144104,"lng":139.38176,"zip":"3600046"},{"town":"玉井五丁目","koaza":"","lat":36.177534,"lng":139.338871,"zip":"3600853"},{"town":"中西二丁目","koaza":"","lat":36.147816,"lng":139.394217,"zip":"3600013"},{"town":"問屋町一丁目","koaza":"","lat":36.133228,"lng":139.425542,"zip":"3600024"},{"town":"問屋町四丁目","koaza":"","lat":36.130032,"lng":139.425237,"zip":"3600024"},{"town":"曙町二丁目","koaza":"","lat":36.135961,"lng":139.393445,"zip":"3600033"},{"town":"曙町五丁目","koaza":"","lat":36.136873,"lng":139.395128,"zip":"3600033"},{"town":"玉井南三丁目","koaza":"","lat":36.175082,"lng":139.345128,"zip":"3600854"},{"town":"玉井一丁目","koaza":"","lat":36.178761,"lng":139.335329,"zip":"3600853"},{"town":"筑波三丁目","koaza":"","lat":36.14043,"lng":139.391265,"zip":"3600037"},{"town":"銀座一丁目","koaza":"","lat":36.141869,"lng":139.393526,"zip":"3600032"},{"town":"本町二丁目","koaza":"","lat":36.143902,"lng":139.387703,"zip":"3600042"},{"town":"曙町一丁目","koaza":"","lat":36.137077,"lng":139.39135,"zip":"3600033"},{"town":"箱田","koaza":"","lat":36.147284,"lng":139.402732,"zip":"3600014"},{"town":"曙町四丁目","koaza":"","lat":36.134805,"lng":139.396983,"zip":"3600033"},{"town":"玉井三丁目","koaza":"","lat":36.179607,"lng":139.339719,"zip":"3600853"},{"town":"銀座六丁目","koaza":"","lat":36.140113,"lng":139.401168,"zip":"3600032"},{"town":"中西一丁目","koaza":"","lat":36.14887,"lng":139.392135,"zip":"3600013"},{"town":"銀座五丁目","koaza":"","lat":36.141484,"lng":139.398292,"zip":"3600032"},{"town":"宮町一丁目","koaza":"","lat":36.14697,"lng":139.385238,"zip":"3600041"},{"town":"美土里町二丁目","koaza":"","lat":36.167928,"lng":139.314594,"zip":"3600845"},{"town":"桜町二丁目","koaza":"","lat":36.150913,"lng":139.382,"zip":"3600814"},{"town":"妻沼東三丁目","koaza":"","lat":36.22122,"lng":139.386506,"zip":"3600202"},{"town":"銀座三丁目","koaza":"","lat":36.141285,"lng":139.395605,"zip":"3600032"},{"town":"箱田四丁目","koaza":"","lat":36.150184,"lng":139.389745,"zip":"3600014"},{"town":"問屋町二丁目","koaza":"","lat":36.13218,"lng":139.425432,"zip":"3600024"},{"town":"別府一丁目","koaza":"","lat":36.181616,"lng":139.333394,"zip":"3600856"},{"town":"銀座四丁目","koaza":"","lat":36.139695,"lng":139.39879,"zip":"3600032"},{"town":"筑波二丁目","koaza":"","lat":36.140469,"lng":139.388935,"zip":"3600037"},{"town":"美土里町一丁目","koaza":"","lat":36.170299,"lng":139.316062,"zip":"3600845"},{"town":"江南中央一丁目","koaza":"","lat":36.11486,"lng":139.334185,"zip":"3600114"},{"town":"妻沼東一丁目","koaza":"","lat":36.222126,"lng":139.382893,"zip":"3600202"},{"town":"久下二丁目","koaza":"","lat":36.114826,"lng":139.428873,"zip":"3600026"},{"town":"宮前町一丁目","koaza":"","lat":36.140995,"lng":139.382509,"zip":"3600045"},{"town":"箱田二丁目","koaza":"","lat":36.150188,"lng":139.38635,"zip":"3600014"},{"town":"箱田五丁目","koaza":"","lat":36.150574,"lng":139.392184,"zip":"3600014"},{"town":"筑波一丁目","koaza":"","lat":36.143077,"lng":139.390899,"zip":"3600037"},{"town":"江南中央三丁目","koaza":"","lat":36.114816,"lng":139.341579,"zip":"3600114"},{"town":"問屋町三丁目","koaza":"","lat":36.13107,"lng":139.425445,"zip":"3600024"},{"town":"妻沼東二丁目","koaza":"","lat":36.219997,"lng":139.382508,"zip":"3600202"},{"town":"桜木町一丁目","koaza":"","lat":36.138445,"lng":139.388866,"zip":"3600036"},{"town":"箱田七丁目","koaza":"","lat":36.154189,"lng":139.388821,"zip":"3600014"},{"town":"船木台二丁目","koaza":"","lat":36.075794,"lng":139.417279,"zip":"3690108"},{"town":"赤城町三丁目","koaza":"","lat":36.147166,"lng":139.366843,"zip":"3600826"},{"town":"妻沼東四丁目","koaza":"","lat":36.218985,"lng":139.385715,"zip":"3600202"},{"town":"宮前町二丁目","koaza":"","lat":36.139902,"lng":139.385696,"zip":"3600045"},{"town":"中央五丁目","koaza":"","lat":36.158412,"lng":139.393717,"zip":"3600018"},{"town":"肥塚三丁目","koaza":"","lat":36.160247,"lng":139.386791,"zip":"3600015"},{"town":"肥塚二丁目","koaza":"","lat":36.157878,"lng":139.386532,"zip":"3600015"},{"town":"本町一丁目","koaza":"","lat":36.144767,"lng":139.384461,"zip":"3600042"},{"town":"石原一丁目","koaza":"","lat":36.151831,"lng":139.374419,"zip":"3600816"},{"town":"瀬南","koaza":"","lat":36.145966,"lng":139.354092,"zip":"3600834"},{"town":"箱田一丁目","koaza":"","lat":36.150076,"lng":139.384036,"zip":"3600014"},{"town":"石原二丁目","koaza":"","lat":36.148534,"lng":139.375049,"zip":"3600816"},{"town":"宮本町","koaza":"","lat":36.141437,"lng":139.379635,"zip":"3600822"},{"town":"肥塚一丁目","koaza":"","lat":36.15867,"lng":139.390099,"zip":"3600015"},{"town":"中西三丁目","koaza":"","lat":36.150259,"lng":139.395803,"zip":"3600013"},{"town":"銀座七丁目","koaza":"","lat":36.13693,"lng":139.399133,"zip":"3600032"},{"town":"妻沼中央","koaza":"","lat":36.224474,"lng":139.371325,"zip":"3600204"},{"town":"肥塚四丁目","koaza":"","lat":36.162243,"lng":139.389362,"zip":"3600015"},{"town":"妻沼東五丁目","koaza":"","lat":36.219555,"lng":139.389297,"zip":"3600202"},{"town":"久下四丁目","koaza":"","lat":36.119315,"lng":139.432167,"zip":"3600026"},{"town":"本石一丁目","koaza":"","lat":36.147661,"lng":139.379989,"zip":"3600815"},{"town":"銀座二丁目","koaza":"","lat":36.138906,"lng":139.395088,"zip":"3600032"},{"town":"別府三丁目","koaza":"","lat":36.184519,"lng":139.336698,"zip":"3600856"},{"town":"久下三丁目","koaza":"","lat":36.11726,"lng":139.431071,"zip":"3600026"},{"town":"別府二丁目","koaza":"","lat":36.185716,"lng":139.33348,"zip":"3600856"},{"town":"久下一丁目","koaza":"","lat":36.115833,"lng":139.425922,"zip":"3600026"},{"town":"船木台五丁目","koaza":"","lat":36.079185,"lng":139.414847,"zip":"3690108"},{"town":"大原二丁目","koaza":"","lat":36.159863,"lng":139.378827,"zip":"3600812"},{"town":"末広二丁目","koaza":"","lat":36.14489,"lng":139.39339,"zip":"3600031"},{"town":"中央三丁目","koaza":"","lat":36.156749,"lng":139.395156,"zip":"3600018"},{"town":"中央一丁目","koaza":"","lat":36.15523,"lng":139.391346,"zip":"3600018"},{"town":"円光二丁目","koaza":"","lat":36.15962,"lng":139.382997,"zip":"3600813"},{"town":"船木台一丁目","koaza":"","lat":36.074566,"lng":139.420588,"zip":"3690108"},{"town":"伊勢町","koaza":"","lat":36.143965,"lng":139.374858,"zip":"3600821"},{"town":"中央二丁目","koaza":"","lat":36.153949,"lng":139.39424,"zip":"3600018"},{"town":"箱田六丁目","koaza":"","lat":36.154464,"lng":139.386234,"zip":"3600014"},{"town":"中西四丁目","koaza":"","lat":36.148245,"lng":139.398023,"zip":"3600013"},{"town":"船木台三丁目","koaza":"","lat":36.077987,"lng":139.417946,"zip":"3690108"},{"town":"宮町二丁目","koaza":"","lat":36.146737,"lng":139.388729,"zip":"3600041"},{"town":"本石二丁目","koaza":"","lat":36.145481,"lng":139.378493,"zip":"3600815"},{"town":"末広三丁目","koaza":"","lat":36.144631,"lng":139.397304,"zip":"3600031"},{"town":"月見町一丁目","koaza":"","lat":36.145002,"lng":139.368985,"zip":"3600825"},{"town":"別府五丁目","koaza":"","lat":36.181241,"lng":139.337337,"zip":"3600856"},{"town":"石原三丁目","koaza":"","lat":36.150258,"lng":139.37743,"zip":"3600816"},{"town":"江南中央二丁目","koaza":"","lat":36.114911,"lng":139.337695,"zip":"3600114"},{"town":"円光一丁目","koaza":"","lat":36.155336,"lng":139.383398,"zip":"3600813"},{"town":"高柳","koaza":"","lat":36.173147,"lng":139.343391,"zip":"3600855"},{"town":"大原四丁目","koaza":"","lat":36.156238,"lng":139.373755,"zip":"3600812"},{"town":"別府四丁目","koaza":"","lat":36.183224,"lng":139.340565,"zip":"3600856"},{"town":"大原三丁目","koaza":"","lat":36.155761,"lng":139.376671,"zip":"3600812"},{"town":"妻沼西二丁目","koaza":"","lat":36.224765,"lng":139.351988,"zip":"3600238"},{"town":"吉所敷","koaza":"","lat":36.104072,"lng":139.39743,"zip":"3600136"},{"town":"籠原南二丁目","koaza":"","lat":36.168703,"lng":139.328628,"zip":"3600847"},{"town":"籠原南三丁目","koaza":"","lat":36.170865,"lng":139.324112,"zip":"3600847"},{"town":"籠原南一丁目","koaza":"","lat":36.172562,"lng":139.330149,"zip":"3600847"},{"town":"大原一丁目","koaza":"","lat":36.155733,"lng":139.379916,"zip":"3600812"},{"town":"月見町二丁目","koaza":"","lat":36.143972,"lng":139.370333,"zip":"3600825"},{"town":"船木台四丁目","koaza":"","lat":36.078284,"lng":139.422221,"zip":"3690108"},{"town":"武体","koaza":"","lat":36.148728,"lng":139.325853,"zip":"3600836"},{"town":"末広四丁目","koaza":"","lat":36.144161,"lng":139.401987,"zip":"3600031"},{"town":"向谷","koaza":"","lat":36.096423,"lng":139.414799,"zip":"3690107"},{"town":"新堀新田","koaza":"","lat":36.16691,"lng":139.334075,"zip":"3600842"},{"town":"赤城町二丁目","koaza":"","lat":36.146081,"lng":139.366361,"zip":"3600826"},{"town":"原井","koaza":"","lat":36.204349,"lng":139.350781,"zip":"3600235"},{"town":"妻沼西一丁目","koaza":"","lat":36.22704,"lng":139.356182,"zip":"3600238"},{"town":"弁財","koaza":"","lat":36.207624,"lng":139.406322,"zip":"3600225"},{"town":"柴","koaza":"","lat":36.115216,"lng":139.325224,"zip":"3600106"},{"town":"沼黒","koaza":"","lat":36.099404,"lng":139.401493,"zip":"3600135"},{"town":"新島","koaza":"","lat":36.163936,"lng":139.358736,"zip":"3600817"},{"town":"高本","koaza":"","lat":36.097072,"lng":139.407651,"zip":"3600134"},{"town":"奈良新田","koaza":"","lat":36.196158,"lng":139.365518,"zip":"3600806"},{"town":"田島","koaza":"","lat":36.201097,"lng":139.377316,"zip":"3600215"},{"town":"相上","koaza":"","lat":36.090405,"lng":139.415292,"zip":"3690106"},{"town":"市ノ坪","koaza":"","lat":36.213681,"lng":139.34023,"zip":"3600236"},{"town":"上恩田","koaza":"","lat":36.117143,"lng":139.382076,"zip":"3600125"},{"town":"冑山","koaza":"","lat":36.079371,"lng":139.409542,"zip":"3690104"},{"town":"平塚新田","koaza":"","lat":36.115706,"lng":139.373729,"zip":"3600163"},{"town":"道ケ谷戸","koaza":"","lat":36.210918,"lng":139.35581,"zip":"3600232"},{"town":"江波","koaza":"","lat":36.209716,"lng":139.391914,"zip":"3600212"},{"town":"赤城町一丁目","koaza":"","lat":36.147184,"lng":139.361212,"zip":"3600826"},{"town":"四方寺","koaza":"","lat":36.189009,"lng":139.396231,"zip":"3600006"},{"town":"戸出","koaza":"","lat":36.138408,"lng":139.415793,"zip":"3600022"},{"town":"中恩田","koaza":"","lat":36.108235,"lng":139.393527,"zip":"3600124"},{"town":"西野","koaza":"","lat":36.204636,"lng":139.372776,"zip":"3600216"},{"town":"下恩田","koaza":"","lat":36.107918,"lng":139.387859,"zip":"3600123"},{"town":"大塚","koaza":"","lat":36.167822,"lng":139.420269,"zip":"3600002"},{"town":"八ツ口","koaza":"","lat":36.21518,"lng":139.391418,"zip":"3600218"},{"town":"平戸","koaza":"","lat":36.141552,"lng":139.40921,"zip":"3600021"},{"town":"上新田","koaza":"","lat":36.131063,"lng":139.316995,"zip":"3600117"},{"town":"川原明戸","koaza":"","lat":36.142228,"lng":139.315395,"zip":"3600837"},{"town":"小曽根","koaza":"","lat":36.173626,"lng":139.389887,"zip":"3600017"},{"town":"屈戸","koaza":"","lat":36.10567,"lng":139.423951,"zip":"3600131"},{"town":"中曽根","koaza":"","lat":36.104881,"lng":139.404236,"zip":"3600133"},{"town":"新川","koaza":"","lat":36.109762,"lng":139.424345,"zip":"3600027"},{"town":"上根","koaza":"","lat":36.209235,"lng":139.382585,"zip":"3600217"},{"town":"肥塚","koaza":"","lat":36.164366,"lng":139.391436,"zip":"3600015"},{"town":"出来島","koaza":"","lat":36.239986,"lng":139.352679,"zip":"3600244"},{"town":"津田新田","koaza":"","lat":36.108944,"lng":139.410923,"zip":"3600132"},{"town":"箕輪","koaza":"","lat":36.084197,"lng":139.419102,"zip":"3690105"},{"town":"男沼","koaza":"","lat":36.23225,"lng":139.359251,"zip":"3600242"},{"town":"須賀広","koaza":"","lat":36.108005,"lng":139.341276,"zip":"3600102"},{"town":"大野","koaza":"","lat":36.215424,"lng":139.410131,"zip":"3600221"},{"town":"上江袋","koaza":"","lat":36.204965,"lng":139.361384,"zip":"3600234"},{"town":"太井","koaza":"","lat":36.125354,"lng":139.42784,"zip":"3600025"},{"town":"広瀬","koaza":"","lat":36.148549,"lng":139.352758,"zip":"3600833"},{"town":"八木田","koaza":"","lat":36.216755,"lng":139.362592,"zip":"3600233"},{"town":"御稜威ケ原","koaza":"","lat":36.159801,"lng":139.298662,"zip":"3600844"},{"town":"玉作","koaza":"","lat":36.089098,"lng":139.425864,"zip":"3690102"},{"town":"小島","koaza":"","lat":36.155857,"lng":139.346403,"zip":"3600832"},{"town":"下増田","koaza":"","lat":36.206175,"lng":139.34005,"zip":"3600851"},{"town":"柿沼","koaza":"","lat":36.168696,"lng":139.380482,"zip":"3600803"},{"town":"手島","koaza":"","lat":36.125687,"lng":139.388769,"zip":"3600121"},{"town":"御正新田","koaza":"","lat":36.12015,"lng":139.3577,"zip":"3600113"},{"town":"池上","koaza":"","lat":36.152527,"lng":139.428474,"zip":"3600011"},{"town":"妻沼台","koaza":"","lat":36.234701,"lng":139.36575,"zip":"3600241"},{"town":"代","koaza":"","lat":36.172652,"lng":139.371391,"zip":"3600804"},{"town":"俵瀬","koaza":"","lat":36.199365,"lng":139.430425,"zip":"3600223"},{"town":"原島","koaza":"","lat":36.164915,"lng":139.37047,"zip":"3600811"},{"town":"上川上","koaza":"","lat":36.165323,"lng":139.406778,"zip":"3600004"},{"town":"津田","koaza":"","lat":36.098635,"lng":139.42108,"zip":"3690101"},{"town":"上須戸","koaza":"","lat":36.203641,"lng":139.399583,"zip":"3600213"},{"town":"三本","koaza":"","lat":36.128519,"lng":139.331157,"zip":"3600116"},{"town":"新堀","koaza":"","lat":36.175068,"lng":139.335291,"zip":"3600841"},{"town":"間々田","koaza":"","lat":36.23525,"lng":139.339498,"zip":"3600243"},{"town":"小泉","koaza":"","lat":36.117484,"lng":139.399238,"zip":"3600122"},{"town":"拾六間","koaza":"","lat":36.168404,"lng":139.322047,"zip":"3600846"},{"town":"西城","koaza":"","lat":36.199647,"lng":139.389519,"zip":"3600214"},{"town":"塩","koaza":"","lat":36.098397,"lng":139.319635,"zip":"3600104"},{"town":"上奈良","koaza":"","lat":36.186846,"lng":139.358235,"zip":"3600805"},{"town":"日向","koaza":"","lat":36.19382,"lng":139.415571,"zip":"3600224"},{"town":"樋春","koaza":"","lat":36.134071,"lng":139.351499,"zip":"3600112"},{"town":"成沢","koaza":"","lat":36.121008,"lng":139.347062,"zip":"3600115"},{"town":"楊井","koaza":"","lat":36.104255,"lng":139.379649,"zip":"3600164"},{"town":"小八林","koaza":"","lat":36.078434,"lng":139.434085,"zip":"3690103"},{"town":"飯塚","koaza":"","lat":36.215954,"lng":139.348092,"zip":"3600231"},{"town":"野原","koaza":"","lat":36.104901,"lng":139.36078,"zip":"3600101"},{"town":"下川上","koaza":"","lat":36.163136,"lng":139.426585,"zip":"3600003"},{"town":"板井","koaza":"","lat":36.109914,"lng":139.314082,"zip":"3600105"},{"town":"村岡","koaza":"","lat":36.123195,"lng":139.378318,"zip":"3600162"},{"town":"石原","koaza":"","lat":36.153383,"lng":139.367152,"zip":"3600816"},{"town":"今井","koaza":"","lat":36.176753,"lng":139.399405,"zip":"3600005"},{"town":"永井太田","koaza":"","lat":36.22355,"lng":139.340861,"zip":"3600237"},{"town":"西別府","koaza":"","lat":36.194965,"lng":139.337958,"zip":"3600857"},{"town":"善ケ島","koaza":"","lat":36.217229,"lng":139.400959,"zip":"3600211"},{"town":"久保島","koaza":"","lat":36.164536,"lng":139.346722,"zip":"3600831"},{"town":"東別府","koaza":"","lat":36.192164,"lng":139.351666,"zip":"3600852"},{"town":"弥藤吾","koaza":"","lat":36.217146,"lng":139.376594,"zip":"3600203"},{"town":"大麻生","koaza":"","lat":36.146581,"lng":139.334881,"zip":"3600835"},{"town":"押切","koaza":"","lat":36.134723,"lng":139.333096,"zip":"3600111"},{"town":"葛和田","koaza":"","lat":36.20336,"lng":139.417501,"zip":"3600222"},{"town":"下奈良","koaza":"","lat":36.189536,"lng":139.38784,"zip":"3600802"},{"town":"玉井","koaza":"","lat":36.175305,"lng":139.356147,"zip":"3600853"},{"town":"久下","koaza":"","lat":36.121351,"lng":139.414944,"zip":"3600026"},{"town":"千代","koaza":"","lat":36.121996,"lng":139.324516,"zip":"3600107"},{"town":"中奈良","koaza":"","lat":36.189848,"lng":139.367329,"zip":"3600801"},{"town":"小江川","koaza":"","lat":36.100743,"lng":139.334786,"zip":"3600103"},{"town":"妻沼小島","koaza":"","lat":36.249131,"lng":139.355499,"zip":"3600245"},{"town":"佐谷田","koaza":"","lat":36.129568,"lng":139.413328,"zip":"3600023"},{"town":"妻沼","koaza":"","lat":36.231366,"lng":139.378797,"zip":"3600201"},{"town":"万吉","koaza":"","lat":36.122932,"lng":139.365725,"zip":"3600161"},{"town":"上之","koaza":"","lat":36.150925,"lng":139.412702,"zip":"3600012"},{"town":"上中条","koaza":"","lat":36.180665,"lng":139.410658,"zip":"3600001"},{"town":"三ケ尻","koaza":"","lat":36.158467,"lng":139.323092,"zip":"3600843"},{"town":"見晴町","koaza":"","lat":36.142477,"lng":139.373104,"zip":"3600824"},{"town":"榎町","koaza":"","lat":36.139704,"lng":139.378337,"zip":"3600823"},{"town":"河原町一丁目","koaza":"","lat":36.138506,"lng":139.381156,"zip":"3600035"},{"town":"河原町二丁目","koaza":"","lat":36.137327,"lng":139.383717,"zip":"3600035"},{"town":"万平町二丁目","koaza":"","lat":36.134269,"lng":139.391374,"zip":"3600034"},{"town":"桜木町二丁目","koaza":"","lat":36.1367,"lng":139.387458,"zip":"3600036"},{"town":"万平町一丁目","koaza":"","lat":36.135408,"lng":139.389122,"zip":"3600034"},{"town":"熊谷","koaza":"","lat":36.135016,"lng":139.382289,"zip":"3600016"},{"town":"拾六間","koaza":"外原","lat":36.173174,"lng":139.310703,"zip":"3600846"},{"town":"新堀","koaza":"北原","lat":36.182251,"lng":139.328373,"zip":"3600841"},{"town":"佐谷田","koaza":"南砂原","lat":36.126216,"lng":139.419718,"zip":"3600023"}]