[{"town":"広瀬台三丁目","koaza":"","lat":35.868961,"lng":139.38498,"zip":"3501328"},{"town":"新狭山三丁目","koaza":"","lat":35.873963,"lng":139.435319,"zip":"3501331"},{"town":"広瀬台一丁目","koaza":"","lat":35.867464,"lng":139.395412,"zip":"3501328"},{"town":"中央三丁目","koaza":"","lat":35.85415,"lng":139.427798,"zip":"3501308"},{"town":"つつじ野","koaza":"","lat":35.861106,"lng":139.393429,"zip":"3501326"},{"town":"中央四丁目","koaza":"","lat":35.852367,"lng":139.422998,"zip":"3501308"},{"town":"広瀬東一丁目","koaza":"","lat":35.863755,"lng":139.40029,"zip":"3501320"},{"town":"根岸二丁目","koaza":"","lat":35.857716,"lng":139.382716,"zip":"3501325"},{"town":"笹井三丁目","koaza":"","lat":35.85303,"lng":139.374651,"zip":"3501327"},{"town":"根岸一丁目","koaza":"","lat":35.853645,"lng":139.384041,"zip":"3501325"},{"town":"中央一丁目","koaza":"","lat":35.855955,"lng":139.423356,"zip":"3501308"},{"town":"中央二丁目","koaza":"","lat":35.857784,"lng":139.427266,"zip":"3501308"},{"town":"広瀬東三丁目","koaza":"","lat":35.861081,"lng":139.397966,"zip":"3501320"},{"town":"広瀬三丁目","koaza":"","lat":35.860493,"lng":139.389297,"zip":"3501319"},{"town":"広瀬東四丁目","koaza":"","lat":35.864787,"lng":139.395704,"zip":"3501320"},{"town":"笹井二丁目","koaza":"","lat":35.856657,"lng":139.377712,"zip":"3501327"},{"town":"広瀬二丁目","koaza":"","lat":35.858301,"lng":139.390482,"zip":"3501319"},{"town":"沢","koaza":"","lat":35.8657,"lng":139.426833,"zip":"3501303"},{"town":"狭山台二丁目","koaza":"","lat":35.857751,"lng":139.435076,"zip":"3501304"},{"town":"狭山台一丁目","koaza":"","lat":35.861856,"lng":139.434335,"zip":"3501304"},{"town":"大字下広瀬","koaza":"","lat":35.872875,"lng":139.386349,"zip":"3501300"},{"town":"狭山台三丁目","koaza":"","lat":35.855552,"lng":139.431583,"zip":"3501304"},{"town":"笹井一丁目","koaza":"","lat":35.852523,"lng":139.37932,"zip":"3501327"},{"town":"狭山台四丁目","koaza":"","lat":35.850863,"lng":139.434043,"zip":"3501304"},{"town":"稲荷山一丁目","koaza":"","lat":35.847969,"lng":139.397537,"zip":"3501324"},{"town":"新狭山二丁目","koaza":"","lat":35.874744,"lng":139.431691,"zip":"3501331"},{"town":"広瀬東二丁目","koaza":"","lat":35.858151,"lng":139.398456,"zip":"3501320"},{"town":"祇園","koaza":"","lat":35.857438,"lng":139.416405,"zip":"3501307"},{"town":"広瀬台二丁目","koaza":"","lat":35.870995,"lng":139.389324,"zip":"3501328"},{"town":"富士見一丁目","koaza":"","lat":35.852368,"lng":139.417603,"zip":"3501306"},{"town":"入間川四丁目","koaza":"","lat":35.853166,"lng":139.401864,"zip":"3501305"},{"town":"入間川一丁目","koaza":"","lat":35.854088,"lng":139.409337,"zip":"3501305"},{"town":"広瀬一丁目","koaza":"","lat":35.855134,"lng":139.390656,"zip":"3501319"},{"town":"入間川三丁目","koaza":"","lat":35.857791,"lng":139.406292,"zip":"3501305"},{"town":"大字柏原新田","koaza":"","lat":35.890283,"lng":139.420747,"zip":"3501300"},{"town":"大字根岸","koaza":"","lat":35.866683,"lng":139.376994,"zip":"3501300"},{"town":"富士見二丁目","koaza":"","lat":35.847025,"lng":139.421738,"zip":"3501306"},{"town":"稲荷山二丁目","koaza":"","lat":35.841853,"lng":139.398661,"zip":"3501324"},{"town":"鵜ノ木","koaza":"","lat":35.850251,"lng":139.393757,"zip":"3501323"},{"town":"大字加佐志","koaza":"","lat":35.864656,"lng":139.440013,"zip":"3501300"},{"town":"入間川二丁目","koaza":"","lat":35.862485,"lng":139.411435,"zip":"3501305"},{"town":"大字東三ツ木","koaza":"","lat":35.870798,"lng":139.434235,"zip":"3501300"},{"town":"狭山","koaza":"","lat":35.86627,"lng":139.417344,"zip":"3501334"},{"town":"大字上広瀬","koaza":"","lat":35.865002,"lng":139.383399,"zip":"3501300"},{"town":"新狭山一丁目","koaza":"","lat":35.879904,"lng":139.440435,"zip":"3501331"},{"town":"大字中新田","koaza":"","lat":35.870441,"lng":139.458082,"zip":"3501300"},{"town":"大字南入曽","koaza":"","lat":35.836786,"lng":139.43113,"zip":"3501300"},{"town":"大字上奥富","koaza":"","lat":35.87172,"lng":139.418126,"zip":"3501300"},{"town":"大字北入曽","koaza":"","lat":35.842141,"lng":139.429579,"zip":"3501300"},{"town":"大字青柳","koaza":"","lat":35.875049,"lng":139.448817,"zip":"3501300"},{"town":"大字上赤坂","koaza":"","lat":35.846883,"lng":139.465219,"zip":"3501300"},{"town":"大字下奥富","koaza":"","lat":35.882991,"lng":139.423375,"zip":"3501300"},{"town":"大字笹井","koaza":"","lat":35.853329,"lng":139.367148,"zip":"3501300"},{"town":"入間川","koaza":"","lat":35.842359,"lng":139.411611,"zip":"3501305"},{"town":"大字水野","koaza":"","lat":35.82981,"lng":139.430112,"zip":"3501300"},{"town":"大字堀兼","koaza":"","lat":35.850336,"lng":139.443531,"zip":"3501300"},{"town":"柏原","koaza":"","lat":35.88148,"lng":139.401623,"zip":"3501335"},{"town":"柏原","koaza":"森ノ上","lat":35.871147,"lng":139.397181,"zip":"3501335"},{"town":"入間川","koaza":"沢久保","lat":35.862419,"lng":139.426862,"zip":"3501305"}]