[{"town":"西一丁目","koaza":"","lat":36.013092,"lng":139.654628,"zip":"3490205"},{"town":"西八丁目","koaza":"","lat":36.025419,"lng":139.65445,"zip":"3490205"},{"town":"西七丁目","koaza":"","lat":36.02251,"lng":139.651218,"zip":"3490205"},{"town":"西三丁目","koaza":"","lat":36.015289,"lng":139.650861,"zip":"3490205"},{"town":"西四丁目","koaza":"","lat":36.018845,"lng":139.654362,"zip":"3490205"},{"town":"西九丁目","koaza":"","lat":36.028961,"lng":139.653132,"zip":"3490205"},{"town":"西六丁目","koaza":"","lat":36.022563,"lng":139.654422,"zip":"3490205"},{"town":"新白岡一丁目","koaza":"","lat":36.040289,"lng":139.674833,"zip":"3490212"},{"town":"西十丁目","koaza":"","lat":36.026911,"lng":139.650627,"zip":"3490205"},{"town":"白岡東","koaza":"","lat":36.022053,"lng":139.660908,"zip":"3490219"},{"town":"西二丁目","koaza":"","lat":36.012377,"lng":139.651857,"zip":"3490205"},{"town":"西五丁目","koaza":"","lat":36.018622,"lng":139.651654,"zip":"3490205"},{"town":"彦兵衛","koaza":"","lat":36.01247,"lng":139.70065,"zip":"3490224"},{"town":"寺塚","koaza":"","lat":36.024438,"lng":139.672197,"zip":"3490214"},{"town":"実ヶ谷","koaza":"","lat":36.004803,"lng":139.678264,"zip":"3490200"},{"town":"下野田","koaza":"","lat":36.017306,"lng":139.693346,"zip":"3490223"},{"town":"高岩","koaza":"","lat":36.036313,"lng":139.68166,"zip":"3490213"},{"town":"白岡","koaza":"","lat":36.018405,"lng":139.659101,"zip":"3490218"},{"town":"千駄野","koaza":"","lat":36.014591,"lng":139.674979,"zip":"3490215"},{"town":"爪田ヶ谷","koaza":"","lat":36.022063,"lng":139.701622,"zip":"3490200"},{"town":"下大崎","koaza":"","lat":36.039765,"lng":139.635146,"zip":"3490203"},{"town":"荒井新田","koaza":"","lat":36.038225,"lng":139.623468,"zip":"3490202"},{"town":"岡泉","koaza":"","lat":36.007965,"lng":139.690951,"zip":"3490226"},{"town":"小久喜","koaza":"","lat":36.014078,"lng":139.665232,"zip":"3490217"},{"town":"太田新井","koaza":"","lat":36.004828,"lng":139.705661,"zip":"3490225"},{"town":"柴山","koaza":"","lat":36.037431,"lng":139.612381,"zip":"3490201"},{"town":"上野田","koaza":"","lat":36.023744,"lng":139.685608,"zip":"3490221"},{"town":"新白岡二丁目","koaza":"","lat":36.036824,"lng":139.677012,"zip":"3490212"},{"town":"新白岡五丁目","koaza":"","lat":36.035858,"lng":139.672643,"zip":"3490212"},{"town":"新白岡六丁目","koaza":"","lat":36.032589,"lng":139.671012,"zip":"3490212"},{"town":"新白岡三丁目","koaza":"","lat":36.032402,"lng":139.674187,"zip":"3490212"},{"town":"新白岡四丁目","koaza":"","lat":36.038773,"lng":139.673383,"zip":"3490212"},{"town":"新白岡七丁目","koaza":"","lat":36.03971,"lng":139.670642,"zip":"3490212"},{"town":"新白岡八丁目","koaza":"","lat":36.037095,"lng":139.669968,"zip":"3490212"},{"town":"新白岡九丁目","koaza":"","lat":36.034197,"lng":139.668641,"zip":"3490212"},{"town":"篠津","koaza":"","lat":36.031789,"lng":139.654003,"zip":"3490204"},{"town":"野牛","koaza":"","lat":36.039175,"lng":139.667633,"zip":"3490211"}]