[{"town":"本町","koaza":"","lat":35.996353,"lng":139.081551,"zip":"3680044"},{"town":"和泉町","koaza":"","lat":35.983679,"lng":139.066238,"zip":"3691874"},{"town":"東町","koaza":"","lat":35.992746,"lng":139.082647,"zip":"3680042"},{"town":"中村町一丁目","koaza":"","lat":36.000328,"lng":139.079432,"zip":"3680051"},{"town":"上町一丁目","koaza":"","lat":35.992685,"lng":139.07845,"zip":"3680035"},{"town":"番場町","koaza":"","lat":35.996163,"lng":139.084455,"zip":"3680041"},{"town":"中村町二丁目","koaza":"","lat":35.996916,"lng":139.077062,"zip":"3680051"},{"town":"道生町","koaza":"","lat":35.999353,"lng":139.081325,"zip":"3680045"},{"town":"相生町","koaza":"","lat":36.006206,"lng":139.08693,"zip":"3680026"},{"town":"中町","koaza":"","lat":35.994632,"lng":139.079324,"zip":"3680043"},{"town":"宮側町","koaza":"","lat":35.999311,"lng":139.084992,"zip":"3680046"},{"town":"上野町","koaza":"","lat":35.995134,"lng":139.086578,"zip":"3680031"},{"town":"永田町","koaza":"","lat":36.007478,"lng":139.084491,"zip":"3680013"},{"town":"柳田町","koaza":"","lat":36.010477,"lng":139.084448,"zip":"3680015"},{"town":"日野田町一丁目","koaza":"","lat":35.986208,"lng":139.07922,"zip":"3680034"},{"town":"滝の上町","koaza":"","lat":36.010775,"lng":139.088156,"zip":"3680012"},{"town":"野坂町一丁目","koaza":"","lat":35.988781,"lng":139.082906,"zip":"3680033"},{"town":"桜木町","koaza":"","lat":36.003532,"lng":139.083364,"zip":"3680025"},{"town":"上町二丁目","koaza":"","lat":35.990724,"lng":139.076686,"zip":"3680035"},{"town":"大畑町","koaza":"","lat":36.016254,"lng":139.090056,"zip":"3680011"},{"town":"野坂町二丁目","koaza":"","lat":35.986641,"lng":139.08525,"zip":"3680033"},{"town":"下宮地町","koaza":"","lat":36.012095,"lng":139.092387,"zip":"3680021"},{"town":"阿保町","koaza":"","lat":36.015008,"lng":139.086498,"zip":"3680016"},{"town":"中村町四丁目","koaza":"","lat":36.001657,"lng":139.075874,"zip":"3680051"},{"town":"熊木町","koaza":"","lat":35.991272,"lng":139.08823,"zip":"3680032"},{"town":"近戸町","koaza":"","lat":35.993875,"lng":139.073119,"zip":"3680052"},{"town":"上町三丁目","koaza":"","lat":35.987851,"lng":139.07543,"zip":"3680035"},{"town":"中村町三丁目","koaza":"","lat":35.999674,"lng":139.072176,"zip":"3680051"},{"town":"中宮地町","koaza":"","lat":36.006168,"lng":139.091068,"zip":"3680022"},{"town":"上宮地町","koaza":"","lat":36.000947,"lng":139.090153,"zip":"3680024"},{"town":"日野田町二丁目","koaza":"","lat":35.980438,"lng":139.082158,"zip":"3680034"},{"town":"金室町","koaza":"","lat":36.008815,"lng":139.080451,"zip":"3680014"},{"town":"みどりが丘","koaza":"","lat":36.046672,"lng":139.05299,"zip":"3680067"},{"town":"堀切","koaza":"","lat":36.055708,"lng":139.079711,"zip":"3680066"},{"town":"小柱","koaza":"","lat":36.060668,"lng":139.087823,"zip":"3680061"},{"town":"大宮","koaza":"","lat":35.973341,"lng":139.085329,"zip":"3680023"},{"town":"荒川久那","koaza":"","lat":35.957342,"lng":139.057861,"zip":"3691801"},{"town":"別所","koaza":"","lat":35.992694,"lng":139.061356,"zip":"3680054"},{"town":"伊古田","koaza":"","lat":36.037685,"lng":139.055665,"zip":"3680063"},{"town":"栃谷","koaza":"","lat":36.02626,"lng":139.122113,"zip":"3680002"},{"town":"太田","koaza":"","lat":36.056048,"lng":139.065723,"zip":"3680065"},{"town":"荒川小野原","koaza":"","lat":35.968486,"lng":139.005688,"zip":"3691804"},{"town":"品沢","koaza":"","lat":36.033253,"lng":139.063163,"zip":"3680064"},{"town":"田村","koaza":"","lat":36.007605,"lng":139.056193,"zip":"3680055"},{"town":"大野原","koaza":"","lat":36.029681,"lng":139.095727,"zip":"3680005"},{"town":"下影森","koaza":"","lat":35.973241,"lng":139.076158,"zip":"3691871"},{"town":"吉田久長","koaza":"","lat":36.060764,"lng":139.043906,"zip":"3691501"},{"town":"黒谷","koaza":"","lat":36.043812,"lng":139.109566,"zip":"3680001"},{"town":"蒔田","koaza":"","lat":36.035313,"lng":139.074347,"zip":"3680062"},{"town":"久那","koaza":"","lat":35.974731,"lng":139.049907,"zip":"3680053"},{"town":"寺尾","koaza":"","lat":36.02469,"lng":139.082311,"zip":"3680056"},{"town":"定峰","koaza":"","lat":36.016764,"lng":139.144174,"zip":"3680003"},{"town":"吉田阿熊","koaza":"","lat":36.066757,"lng":139.023449,"zip":"3691502"},{"town":"吉田太田部","koaza":"","lat":36.109669,"lng":138.967607,"zip":"3701507"},{"town":"上影森","koaza":"","lat":35.95926,"lng":139.07048,"zip":"3691872"},{"town":"荒川贄川","koaza":"","lat":35.971759,"lng":138.97917,"zip":"3691911"},{"town":"荒川白久","koaza":"","lat":35.947803,"lng":138.989072,"zip":"3691912"},{"town":"三峰","koaza":"","lat":35.920311,"lng":138.934272,"zip":"3691902"},{"town":"山田","koaza":"","lat":36.010698,"lng":139.121,"zip":"3680004"},{"town":"吉田石間","koaza":"","lat":36.074798,"lng":138.991095,"zip":"3691504"},{"town":"荒川上田野","koaza":"","lat":35.933466,"lng":139.034162,"zip":"3691802"},{"town":"荒川日野","koaza":"","lat":35.92835,"lng":139.005366,"zip":"3691803"},{"town":"下吉田","koaza":"","lat":36.037281,"lng":139.025416,"zip":"3691503"},{"town":"上吉田","koaza":"","lat":36.064867,"lng":138.965884,"zip":"3691505"},{"town":"浦山","koaza":"","lat":35.908369,"lng":139.071675,"zip":"3691873"},{"town":"中津川","koaza":"","lat":35.990321,"lng":138.784708,"zip":"3691903"},{"town":"大滝","koaza":"","lat":35.91092,"lng":138.829226,"zip":"3691901"}]