[{"town":"北谷町","koaza":"","lat":35.846446,"lng":139.786787,"zip":"3400047"},{"town":"千疋","koaza":"","lat":35.87027,"lng":139.823489,"zip":"3400000"},{"town":"青柳町","koaza":"","lat":35.850059,"lng":139.815446,"zip":"3400007"},{"town":"旭町一丁目","koaza":"","lat":35.851262,"lng":139.801328,"zip":"3400053"},{"town":"草加五丁目","koaza":"","lat":35.838875,"lng":139.802031,"zip":"3400043"},{"town":"草加四丁目","koaza":"","lat":35.838132,"lng":139.800157,"zip":"3400043"},{"town":"瀬崎一丁目","koaza":"","lat":35.815702,"lng":139.802974,"zip":"3400022"},{"town":"旭町三丁目","koaza":"","lat":35.852042,"lng":139.798333,"zip":"3400053"},{"town":"花栗二丁目","koaza":"","lat":35.834811,"lng":139.788766,"zip":"3400044"},{"town":"弁天六丁目","koaza":"","lat":35.846419,"lng":139.814671,"zip":"3400004"},{"town":"栄町一丁目","koaza":"","lat":35.83746,"lng":139.804868,"zip":"3400011"},{"town":"吉町一丁目","koaza":"","lat":35.824876,"lng":139.809734,"zip":"3400017"},{"town":"神明二丁目","koaza":"","lat":35.835386,"lng":139.808331,"zip":"3400012"},{"town":"中央一丁目","koaza":"","lat":35.826408,"lng":139.80988,"zip":"3400016"},{"town":"松江五丁目","koaza":"","lat":35.835761,"lng":139.817667,"zip":"3400013"},{"town":"旭町二丁目","koaza":"","lat":35.84958,"lng":139.799661,"zip":"3400053"},{"town":"神明一丁目","koaza":"","lat":35.834513,"lng":139.805592,"zip":"3400012"},{"town":"草加一丁目","koaza":"","lat":35.835206,"lng":139.802179,"zip":"3400043"},{"town":"両新田東町","koaza":"","lat":35.812225,"lng":139.78675,"zip":"3400026"},{"town":"中根三丁目","koaza":"","lat":35.84731,"lng":139.810568,"zip":"3400005"},{"town":"松原五丁目","koaza":"","lat":35.846155,"lng":139.796195,"zip":"3400041"},{"town":"原町一丁目","koaza":"","lat":35.845176,"lng":139.77883,"zip":"3400048"},{"town":"住吉一丁目","koaza":"","lat":35.831219,"lng":139.805508,"zip":"3400014"},{"town":"瀬崎七丁目","koaza":"","lat":35.809294,"lng":139.813383,"zip":"3400022"},{"town":"松江六丁目","koaza":"","lat":35.835995,"lng":139.820156,"zip":"3400013"},{"town":"高砂一丁目","koaza":"","lat":35.824765,"lng":139.804931,"zip":"3400015"},{"town":"弁天一丁目","koaza":"","lat":35.84463,"lng":139.812026,"zip":"3400004"},{"town":"旭町四丁目","koaza":"","lat":35.850025,"lng":139.796334,"zip":"3400053"},{"town":"弁天三丁目","koaza":"","lat":35.841091,"lng":139.819761,"zip":"3400004"},{"town":"高砂二丁目","koaza":"","lat":35.828142,"lng":139.805352,"zip":"3400015"},{"town":"清門一丁目","koaza":"","lat":35.852837,"lng":139.785813,"zip":"3400055"},{"town":"学園町","koaza":"","lat":35.839905,"lng":139.795448,"zip":"3400042"},{"town":"旭町五丁目","koaza":"","lat":35.848142,"lng":139.793284,"zip":"3400053"},{"town":"草加三丁目","koaza":"","lat":35.837924,"lng":139.797156,"zip":"3400043"},{"town":"住吉二丁目","koaza":"","lat":35.831352,"lng":139.80936,"zip":"3400014"},{"town":"中央二丁目","koaza":"","lat":35.828422,"lng":139.810035,"zip":"3400016"},{"town":"瀬崎四丁目","koaza":"","lat":35.809417,"lng":139.806092,"zip":"3400022"},{"town":"松原二丁目","koaza":"","lat":35.843254,"lng":139.795965,"zip":"3400041"},{"town":"吉町二丁目","koaza":"","lat":35.823086,"lng":139.809473,"zip":"3400017"},{"town":"長栄四丁目","koaza":"","lat":35.859618,"lng":139.77233,"zip":"3400051"},{"town":"吉町五丁目","koaza":"","lat":35.820437,"lng":139.80406,"zip":"3400017"},{"town":"小山一丁目","koaza":"","lat":35.837917,"lng":139.784114,"zip":"3400045"},{"town":"弁天二丁目","koaza":"","lat":35.842213,"lng":139.8132,"zip":"3400004"},{"town":"中根二丁目","koaza":"","lat":35.84809,"lng":139.80709,"zip":"3400005"},{"town":"花栗一丁目","koaza":"","lat":35.834314,"lng":139.793723,"zip":"3400044"},{"town":"花栗三丁目","koaza":"","lat":35.83778,"lng":139.787912,"zip":"3400044"},{"town":"松原三丁目","koaza":"","lat":35.843358,"lng":139.792823,"zip":"3400041"},{"town":"弁天四丁目","koaza":"","lat":35.84379,"lng":139.817895,"zip":"3400004"},{"town":"稲荷一丁目","koaza":"","lat":35.832264,"lng":139.811296,"zip":"3400003"},{"town":"谷塚一丁目","koaza":"","lat":35.811681,"lng":139.801049,"zip":"3400028"},{"town":"小山二丁目","koaza":"","lat":35.837329,"lng":139.780275,"zip":"3400045"},{"town":"栄町二丁目","koaza":"","lat":35.841563,"lng":139.803216,"zip":"3400011"},{"town":"松江三丁目","koaza":"","lat":35.836707,"lng":139.810494,"zip":"3400013"},{"town":"新栄二丁目","koaza":"","lat":35.857384,"lng":139.76856,"zip":"3400056"},{"town":"草加二丁目","koaza":"","lat":35.834442,"lng":139.798618,"zip":"3400043"},{"town":"原町二丁目","koaza":"","lat":35.846381,"lng":139.776013,"zip":"3400048"},{"town":"松江一丁目","koaza":"","lat":35.842816,"lng":139.80594,"zip":"3400013"},{"town":"栄町三丁目","koaza":"","lat":35.846533,"lng":139.801136,"zip":"3400011"},{"town":"旭町六丁目","koaza":"","lat":35.850525,"lng":139.792187,"zip":"3400053"},{"town":"谷塚二丁目","koaza":"","lat":35.807704,"lng":139.797784,"zip":"3400028"},{"town":"弁天五丁目","koaza":"","lat":35.846482,"lng":139.818068,"zip":"3400004"},{"town":"清門二丁目","koaza":"","lat":35.851467,"lng":139.78094,"zip":"3400055"},{"town":"長栄三丁目","koaza":"","lat":35.857369,"lng":139.775294,"zip":"3400051"},{"town":"吉町四丁目","koaza":"","lat":35.818552,"lng":139.808589,"zip":"3400017"},{"town":"原町三丁目","koaza":"","lat":35.849982,"lng":139.775174,"zip":"3400048"},{"town":"吉町三丁目","koaza":"","lat":35.820696,"lng":139.809005,"zip":"3400017"},{"town":"松原一丁目","koaza":"","lat":35.843133,"lng":139.799254,"zip":"3400041"},{"town":"花栗四丁目","koaza":"","lat":35.838096,"lng":139.792277,"zip":"3400044"},{"town":"稲荷六丁目","koaza":"","lat":35.836346,"lng":139.828639,"zip":"3400003"},{"town":"中根一丁目","koaza":"","lat":35.847824,"lng":139.804264,"zip":"3400005"},{"town":"長栄二丁目","koaza":"","lat":35.856986,"lng":139.780144,"zip":"3400051"},{"town":"北谷一丁目","koaza":"","lat":35.841428,"lng":139.785972,"zip":"3400046"},{"town":"長栄一丁目","koaza":"","lat":35.857498,"lng":139.784045,"zip":"3400051"},{"town":"稲荷三丁目","koaza":"","lat":35.830792,"lng":139.823802,"zip":"3400003"},{"town":"松江四丁目","koaza":"","lat":35.839105,"lng":139.814217,"zip":"3400013"},{"town":"新栄三丁目","koaza":"","lat":35.861333,"lng":139.766068,"zip":"3400056"},{"town":"清門三丁目","koaza":"","lat":35.853468,"lng":139.779256,"zip":"3400055"},{"town":"松江二丁目","koaza":"","lat":35.840792,"lng":139.809216,"zip":"3400013"},{"town":"瀬崎三丁目","koaza":"","lat":35.811479,"lng":139.806337,"zip":"3400022"},{"town":"北谷二丁目","koaza":"","lat":35.842392,"lng":139.780822,"zip":"3400046"},{"town":"北谷三丁目","koaza":"","lat":35.844782,"lng":139.784512,"zip":"3400046"},{"town":"稲荷二丁目","koaza":"","lat":35.831711,"lng":139.818377,"zip":"3400003"},{"town":"両新田西町","koaza":"","lat":35.812359,"lng":139.783948,"zip":"3400027"},{"town":"松原四丁目","koaza":"","lat":35.843024,"lng":139.789661,"zip":"3400041"},{"town":"新栄一丁目","koaza":"","lat":35.854605,"lng":139.772887,"zip":"3400056"},{"town":"瀬崎六丁目","koaza":"","lat":35.811651,"lng":139.814881,"zip":"3400022"},{"town":"稲荷四丁目","koaza":"","lat":35.834512,"lng":139.824029,"zip":"3400003"},{"town":"瀬崎五丁目","koaza":"","lat":35.813763,"lng":139.812352,"zip":"3400022"},{"town":"青柳四丁目","koaza":"","lat":35.85196,"lng":139.817914,"zip":"3400002"},{"town":"青柳五丁目","koaza":"","lat":35.855196,"lng":139.813723,"zip":"3400002"},{"town":"青柳一丁目","koaza":"","lat":35.842426,"lng":139.825453,"zip":"3400002"},{"town":"青柳三丁目","koaza":"","lat":35.84673,"lng":139.827978,"zip":"3400002"},{"town":"瀬崎二丁目","koaza":"","lat":35.815383,"lng":139.806657,"zip":"3400022"},{"town":"新栄四丁目","koaza":"","lat":35.86306,"lng":139.769638,"zip":"3400056"},{"town":"青柳二丁目","koaza":"","lat":35.846421,"lng":139.822887,"zip":"3400002"},{"town":"稲荷五丁目","koaza":"","lat":35.838815,"lng":139.822657,"zip":"3400003"},{"town":"谷塚仲町","koaza":"","lat":35.8117,"lng":139.792004,"zip":"3400025"},{"town":"苗塚町","koaza":"","lat":35.832522,"lng":139.784664,"zip":"3400036"},{"town":"青柳六丁目","koaza":"","lat":35.852232,"lng":139.824545,"zip":"3400002"},{"town":"青柳七丁目","koaza":"","lat":35.856138,"lng":139.82202,"zip":"3400002"},{"town":"新善町","koaza":"","lat":35.848838,"lng":139.784644,"zip":"3400054"},{"town":"柳島町","koaza":"","lat":35.820487,"lng":139.787087,"zip":"3400033"},{"town":"青柳八丁目","koaza":"","lat":35.860254,"lng":139.819672,"zip":"3400002"},{"town":"遊馬町","koaza":"","lat":35.81947,"lng":139.777511,"zip":"3400032"},{"town":"谷塚上町","koaza":"","lat":35.813569,"lng":139.788999,"zip":"3400024"},{"town":"新里町","koaza":"","lat":35.813222,"lng":139.778352,"zip":"3400031"},{"town":"西町","koaza":"","lat":35.828256,"lng":139.790834,"zip":"3400035"},{"town":"金明町","koaza":"","lat":35.856356,"lng":139.792446,"zip":"3400052"},{"town":"谷塚町","koaza":"","lat":35.813842,"lng":139.798054,"zip":"3400023"},{"town":"氷川町","koaza":"","lat":35.826939,"lng":139.799761,"zip":"3400034"},{"town":"八幡町","koaza":"","lat":35.854342,"lng":139.806029,"zip":"3400006"},{"town":"柿木町","koaza":"","lat":35.860775,"lng":139.832202,"zip":"3400001"},{"town":"手代一丁目","koaza":"","lat":35.825676,"lng":139.8152,"zip":"3400021"},{"town":"手代三丁目","koaza":"","lat":35.823781,"lng":139.819131,"zip":"3400021"},{"town":"手代二丁目","koaza":"","lat":35.82225,"lng":139.813577,"zip":"3400021"},{"town":"新栄町","koaza":"","lat":35.858609,"lng":139.769727,"zip":"3400000"},{"town":"長栄町","koaza":"","lat":35.858356,"lng":139.777777,"zip":"3400000"},{"town":"清門町","koaza":"","lat":35.852308,"lng":139.781905,"zip":"3400000"},{"town":"手代町","koaza":"","lat":35.823998,"lng":139.815954,"zip":"3400000"}]