[{"town":"馬込六丁目","koaza":"","lat":35.976364,"lng":139.662758,"zip":"3490114"},{"town":"桜台三丁目","koaza":"","lat":35.976131,"lng":139.664281,"zip":"3490113"},{"town":"東一丁目","koaza":"","lat":35.983563,"lng":139.655285,"zip":"3490111"},{"town":"桜台二丁目","koaza":"","lat":35.978111,"lng":139.662706,"zip":"3490113"},{"town":"桜台一丁目","koaza":"","lat":35.979888,"lng":139.662249,"zip":"3490113"},{"town":"御前橋二丁目","koaza":"","lat":35.980842,"lng":139.646863,"zip":"3490125"},{"town":"西城一丁目","koaza":"","lat":35.996452,"lng":139.653093,"zip":"3490145"},{"town":"馬込四丁目","koaza":"","lat":35.973434,"lng":139.658815,"zip":"3490114"},{"town":"蓮田三丁目","koaza":"","lat":35.97424,"lng":139.649829,"zip":"3490115"},{"town":"東四丁目","koaza":"","lat":35.97996,"lng":139.658208,"zip":"3490111"},{"town":"末広一丁目","koaza":"","lat":35.979139,"lng":139.650401,"zip":"3490124"},{"town":"緑町三丁目","koaza":"","lat":35.989447,"lng":139.660169,"zip":"3490104"},{"town":"末広二丁目","koaza":"","lat":35.981569,"lng":139.649417,"zip":"3490124"},{"town":"西新宿一丁目","koaza":"","lat":36.003432,"lng":139.655829,"zip":"3490141"},{"town":"本町","koaza":"","lat":35.981416,"lng":139.652215,"zip":"3490123"},{"town":"上一丁目","koaza":"","lat":35.984828,"lng":139.651632,"zip":"3490122"},{"town":"馬込三丁目","koaza":"","lat":35.972361,"lng":139.656692,"zip":"3490114"},{"town":"西新宿四丁目","koaza":"","lat":36.008621,"lng":139.651883,"zip":"3490141"},{"town":"蓮田一丁目","koaza":"","lat":35.974987,"lng":139.655018,"zip":"3490115"},{"town":"東五丁目","koaza":"","lat":35.98019,"lng":139.65451,"zip":"3490111"},{"town":"西新宿六丁目","koaza":"","lat":36.008819,"lng":139.655364,"zip":"3490141"},{"town":"山ノ内","koaza":"","lat":35.985813,"lng":139.644597,"zip":"3490128"},{"town":"西新宿二丁目","koaza":"","lat":36.004031,"lng":139.653801,"zip":"3490141"},{"town":"西城三丁目","koaza":"","lat":35.99966,"lng":139.65473,"zip":"3490145"},{"town":"御前橋一丁目","koaza":"","lat":35.978294,"lng":139.64739,"zip":"3490125"},{"town":"蓮田二丁目","koaza":"","lat":35.973415,"lng":139.653154,"zip":"3490115"},{"town":"馬込一丁目","koaza":"","lat":35.975965,"lng":139.656786,"zip":"3490114"},{"town":"緑町一丁目","koaza":"","lat":35.984668,"lng":139.661387,"zip":"3490104"},{"town":"綾瀬","koaza":"","lat":35.98237,"lng":139.644917,"zip":"3490126"},{"town":"西城二丁目","koaza":"","lat":35.999796,"lng":139.651567,"zip":"3490145"},{"town":"西新宿五丁目","koaza":"","lat":36.008971,"lng":139.653505,"zip":"3490141"},{"town":"東六丁目","koaza":"","lat":35.977795,"lng":139.652757,"zip":"3490111"},{"town":"椿山三丁目","koaza":"","lat":35.994911,"lng":139.657904,"zip":"3490144"},{"town":"東二丁目","koaza":"","lat":35.984918,"lng":139.657324,"zip":"3490111"},{"town":"椿山二丁目","koaza":"","lat":35.994965,"lng":139.654817,"zip":"3490144"},{"town":"関山一丁目","koaza":"","lat":35.988518,"lng":139.647341,"zip":"3490121"},{"town":"緑町二丁目","koaza":"","lat":35.987445,"lng":139.660617,"zip":"3490104"},{"town":"蓮田五丁目","koaza":"","lat":35.970674,"lng":139.649688,"zip":"3490115"},{"town":"馬込二丁目","koaza":"","lat":35.977211,"lng":139.659734,"zip":"3490114"},{"town":"関山二丁目","koaza":"","lat":35.989146,"lng":139.650492,"zip":"3490121"},{"town":"東三丁目","koaza":"","lat":35.981915,"lng":139.657745,"zip":"3490111"},{"town":"馬込五丁目","koaza":"","lat":35.974661,"lng":139.66148,"zip":"3490114"},{"town":"椿山四丁目","koaza":"","lat":35.995684,"lng":139.660551,"zip":"3490144"},{"town":"上二丁目","koaza":"","lat":35.9855,"lng":139.653938,"zip":"3490122"},{"town":"西新宿三丁目","koaza":"","lat":36.003653,"lng":139.650966,"zip":"3490141"},{"town":"関山四丁目","koaza":"","lat":35.992755,"lng":139.653596,"zip":"3490121"},{"town":"関山三丁目","koaza":"","lat":35.989239,"lng":139.654182,"zip":"3490121"},{"town":"見沼町","koaza":"","lat":35.985027,"lng":139.648538,"zip":"3490127"},{"town":"蓮田四丁目","koaza":"","lat":35.970578,"lng":139.65332,"zip":"3490115"},{"town":"椿山一丁目","koaza":"","lat":35.989982,"lng":139.6578,"zip":"3490144"},{"town":"大字城","koaza":"","lat":36.001209,"lng":139.657266,"zip":"3490100"},{"town":"大字馬込","koaza":"","lat":35.964597,"lng":139.651068,"zip":"3490100"},{"town":"大字南新宿","koaza":"","lat":36.008425,"lng":139.660379,"zip":"3490100"},{"town":"大字笹山","koaza":"","lat":35.979819,"lng":139.677676,"zip":"3490100"},{"town":"大字川島","koaza":"","lat":35.978686,"lng":139.667728,"zip":"3490100"},{"town":"大字蓮田","koaza":"","lat":35.971295,"lng":139.645293,"zip":"3490100"},{"town":"大字貝塚","koaza":"","lat":36.018628,"lng":139.647062,"zip":"3490100"},{"town":"大字駒崎","koaza":"","lat":36.016084,"lng":139.623304,"zip":"3490100"},{"town":"大字井沼","koaza":"","lat":36.023232,"lng":139.629267,"zip":"3490100"},{"town":"大字上平野","koaza":"","lat":36.026283,"lng":139.614556,"zip":"3490100"},{"town":"大字高虫","koaza":"","lat":36.03014,"lng":139.600554,"zip":"3490100"},{"town":"大字根金","koaza":"","lat":36.025082,"lng":139.63851,"zip":"3490100"},{"town":"大字江ケ崎","koaza":"","lat":35.99217,"lng":139.687317,"zip":"3490100"},{"town":"大字閏戸","koaza":"","lat":36.004786,"lng":139.642415,"zip":"3490100"},{"town":"藤ノ木二丁目","koaza":"","lat":35.987222,"lng":139.664781,"zip":"3490105"},{"town":"大字黒浜","koaza":"","lat":35.996206,"lng":139.669229,"zip":"3490100"},{"town":"藤ノ木三丁目","koaza":"","lat":35.987987,"lng":139.666506,"zip":"3490105"},{"town":"藤ノ木一丁目","koaza":"","lat":35.985187,"lng":139.665383,"zip":"3490105"},{"town":"藤ノ木四丁目","koaza":"","lat":35.985654,"lng":139.667578,"zip":"3490105"}]