[{"town":"塚越四丁目","koaza":"","lat":35.823089,"lng":139.697619,"zip":"3350002"},{"town":"北町三丁目","koaza":"","lat":35.828506,"lng":139.676651,"zip":"3350001"},{"town":"北町四丁目","koaza":"","lat":35.831562,"lng":139.677744,"zip":"3350001"},{"town":"塚越二丁目","koaza":"","lat":35.827095,"lng":139.695567,"zip":"3350002"},{"town":"塚越七丁目","koaza":"","lat":35.822404,"lng":139.706414,"zip":"3350002"},{"town":"中央五丁目","koaza":"","lat":35.823725,"lng":139.680588,"zip":"3350004"},{"town":"塚越一丁目","koaza":"","lat":35.826387,"lng":139.693051,"zip":"3350002"},{"town":"北町二丁目","koaza":"","lat":35.827398,"lng":139.680017,"zip":"3350001"},{"town":"錦町三丁目","koaza":"","lat":35.827883,"lng":139.673379,"zip":"3350005"},{"town":"中央六丁目","koaza":"","lat":35.820625,"lng":139.683917,"zip":"3350004"},{"town":"塚越六丁目","koaza":"","lat":35.825811,"lng":139.70605,"zip":"3350002"},{"town":"錦町六丁目","koaza":"","lat":35.829663,"lng":139.66588,"zip":"3350005"},{"town":"塚越三丁目","koaza":"","lat":35.825887,"lng":139.700068,"zip":"3350002"},{"town":"北町一丁目","koaza":"","lat":35.82984,"lng":139.682984,"zip":"3350001"},{"town":"中央一丁目","koaza":"","lat":35.82591,"lng":139.690637,"zip":"3350004"},{"town":"中央四丁目","koaza":"","lat":35.825087,"lng":139.68361,"zip":"3350004"},{"town":"南町三丁目","koaza":"","lat":35.817734,"lng":139.699507,"zip":"3350003"},{"town":"南町四丁目","koaza":"","lat":35.815877,"lng":139.691111,"zip":"3350003"},{"town":"錦町四丁目","koaza":"","lat":35.825506,"lng":139.668561,"zip":"3350005"},{"town":"中央七丁目","koaza":"","lat":35.817977,"lng":139.687534,"zip":"3350004"},{"town":"中央三丁目","koaza":"","lat":35.825096,"lng":139.68725,"zip":"3350004"},{"town":"南町二丁目","koaza":"","lat":35.819166,"lng":139.695662,"zip":"3350003"},{"town":"北町五丁目","koaza":"","lat":35.832974,"lng":139.672732,"zip":"3350001"},{"town":"南町一丁目","koaza":"","lat":35.82035,"lng":139.692526,"zip":"3350003"},{"town":"錦町五丁目","koaza":"","lat":35.830602,"lng":139.670533,"zip":"3350005"},{"town":"錦町一丁目","koaza":"","lat":35.821896,"lng":139.677871,"zip":"3350005"},{"town":"中央二丁目","koaza":"","lat":35.821809,"lng":139.689041,"zip":"3350004"},{"town":"錦町二丁目","koaza":"","lat":35.824478,"lng":139.673008,"zip":"3350005"},{"town":"塚越五丁目","koaza":"","lat":35.821173,"lng":139.702618,"zip":"3350002"}]