[{"town":"大字忍","koaza":"","lat":36.132674,"lng":139.451444,"zip":"3610000"},{"town":"深水町","koaza":"","lat":36.125718,"lng":139.441918,"zip":"3610043"},{"town":"棚田町三丁目","koaza":"","lat":36.12708,"lng":139.438296,"zip":"3610041"},{"town":"宮本","koaza":"","lat":36.143365,"lng":139.463282,"zip":"3610072"},{"town":"天満","koaza":"","lat":36.136122,"lng":139.460643,"zip":"3610076"},{"town":"駒形二丁目","koaza":"","lat":36.130522,"lng":139.454921,"zip":"3610055"},{"town":"矢場一丁目","koaza":"","lat":36.142387,"lng":139.451467,"zip":"3610051"},{"town":"持田五丁目","koaza":"","lat":36.130938,"lng":139.432964,"zip":"3610056"},{"town":"城西一丁目","koaza":"","lat":36.137986,"lng":139.449317,"zip":"3610057"},{"town":"棚田町二丁目","koaza":"","lat":36.123828,"lng":139.437342,"zip":"3610041"},{"town":"水城公園","koaza":"","lat":36.134726,"lng":139.458174,"zip":"3610053"},{"town":"藤原町三丁目","koaza":"","lat":36.14526,"lng":139.484575,"zip":"3610016"},{"town":"駒形一丁目","koaza":"","lat":36.129446,"lng":139.458079,"zip":"3610055"},{"town":"押上町","koaza":"","lat":36.117171,"lng":139.435221,"zip":"3610045"},{"town":"城西五丁目","koaza":"","lat":36.134062,"lng":139.443814,"zip":"3610057"},{"town":"矢場二丁目","koaza":"","lat":36.14093,"lng":139.450037,"zip":"3610051"},{"town":"清水町","koaza":"","lat":36.112971,"lng":139.431076,"zip":"3610047"},{"town":"城西二丁目","koaza":"","lat":36.134425,"lng":139.450995,"zip":"3610057"},{"town":"忍一丁目","koaza":"","lat":36.142392,"lng":139.455462,"zip":"3610077"},{"town":"忍二丁目","koaza":"","lat":36.13848,"lng":139.458227,"zip":"3610077"},{"town":"中央","koaza":"","lat":36.142968,"lng":139.459231,"zip":"3610078"},{"town":"城南","koaza":"","lat":36.13304,"lng":139.456614,"zip":"3610054"},{"town":"桜町三丁目","koaza":"","lat":36.147822,"lng":139.469999,"zip":"3610022"},{"town":"桜町一丁目","koaza":"","lat":36.144425,"lng":139.465473,"zip":"3610022"},{"town":"持田四丁目","koaza":"","lat":36.128492,"lng":139.435046,"zip":"3610056"},{"town":"旭町","koaza":"","lat":36.140163,"lng":139.464735,"zip":"3610074"},{"town":"西新町","koaza":"","lat":36.12449,"lng":139.439533,"zip":"3610042"},{"town":"長野四丁目","koaza":"","lat":36.139873,"lng":139.479135,"zip":"3610023"},{"town":"門井町三丁目","koaza":"","lat":36.122894,"lng":139.443308,"zip":"3610044"},{"town":"壱里山町","koaza":"","lat":36.114661,"lng":139.434365,"zip":"3610046"},{"town":"持田一丁目","koaza":"","lat":36.135811,"lng":139.438577,"zip":"3610056"},{"town":"城西四丁目","koaza":"","lat":36.137216,"lng":139.442519,"zip":"3610057"},{"town":"行田","koaza":"","lat":36.140205,"lng":139.459747,"zip":"3610073"},{"town":"城西三丁目","koaza":"","lat":36.137758,"lng":139.446279,"zip":"3610057"},{"town":"門井町二丁目","koaza":"","lat":36.118392,"lng":139.441505,"zip":"3610044"},{"town":"谷郷二丁目","koaza":"","lat":36.151765,"lng":139.460753,"zip":"3610062"},{"town":"谷郷三丁目","koaza":"","lat":36.14847,"lng":139.45451,"zip":"3610062"},{"town":"長野三丁目","koaza":"","lat":36.139738,"lng":139.474642,"zip":"3610023"},{"town":"佐間二丁目","koaza":"","lat":36.12958,"lng":139.466439,"zip":"3610032"},{"town":"桜町二丁目","koaza":"","lat":36.147295,"lng":139.467184,"zip":"3610022"},{"town":"門井町一丁目","koaza":"","lat":36.120517,"lng":139.438624,"zip":"3610044"},{"town":"谷郷一丁目","koaza":"","lat":36.14846,"lng":139.461296,"zip":"3610062"},{"town":"緑町","koaza":"","lat":36.133081,"lng":139.468669,"zip":"3610031"},{"town":"藤原町二丁目","koaza":"","lat":36.147037,"lng":139.484131,"zip":"3610016"},{"town":"栄町","koaza":"","lat":36.145592,"lng":139.459791,"zip":"3610071"},{"town":"長野二丁目","koaza":"","lat":36.138938,"lng":139.470855,"zip":"3610023"},{"town":"棚田町一丁目","koaza":"","lat":36.12261,"lng":139.432456,"zip":"3610041"},{"town":"持田二丁目","koaza":"","lat":36.133584,"lng":139.437607,"zip":"3610056"},{"town":"長野五丁目","koaza":"","lat":36.137634,"lng":139.481891,"zip":"3610023"},{"town":"持田三丁目","koaza":"","lat":36.128905,"lng":139.439911,"zip":"3610056"},{"town":"向町","koaza":"","lat":36.136384,"lng":139.466271,"zip":"3610075"},{"town":"長野一丁目","koaza":"","lat":36.143944,"lng":139.471897,"zip":"3610023"},{"town":"大字佐間","koaza":"","lat":36.127702,"lng":139.474169,"zip":"3610000"},{"town":"本丸","koaza":"","lat":36.137066,"lng":139.454297,"zip":"3610052"},{"town":"富士見町二丁目","koaza":"","lat":36.150193,"lng":139.475055,"zip":"3610021"},{"town":"佐間三丁目","koaza":"","lat":36.126374,"lng":139.468095,"zip":"3610032"},{"town":"藤原町一丁目","koaza":"","lat":36.144906,"lng":139.488994,"zip":"3610016"},{"town":"佐間一丁目","koaza":"","lat":36.130774,"lng":139.461723,"zip":"3610032"},{"town":"大字藤間","koaza":"","lat":36.133353,"lng":139.514611,"zip":"3610000"},{"town":"大字樋上","koaza":"","lat":36.117144,"lng":139.470601,"zip":"3610000"},{"town":"富士見町一丁目","koaza":"","lat":36.143544,"lng":139.479375,"zip":"3610021"},{"town":"大字利田","koaza":"","lat":36.110572,"lng":139.486147,"zip":"3610000"},{"town":"大字皿尾","koaza":"","lat":36.144809,"lng":139.445721,"zip":"3610000"},{"town":"大字白川戸","koaza":"","lat":36.160791,"lng":139.469637,"zip":"3610000"},{"town":"大字中江袋","koaza":"","lat":36.16909,"lng":139.436893,"zip":"3610000"},{"town":"大字下池守","koaza":"","lat":36.159982,"lng":139.444502,"zip":"3610000"},{"town":"大字関根","koaza":"","lat":36.122614,"lng":139.525901,"zip":"3610000"},{"town":"大字小敷田","koaza":"","lat":36.144057,"lng":139.428247,"zip":"3610000"},{"town":"大字中里","koaza":"","lat":36.146414,"lng":139.437892,"zip":"3610000"},{"town":"大字馬見塚","koaza":"","lat":36.169564,"lng":139.445905,"zip":"3610000"},{"town":"大字堤根","koaza":"","lat":36.11401,"lng":139.474383,"zip":"3610000"},{"town":"大字渡柳","koaza":"","lat":36.116176,"lng":139.481958,"zip":"3610000"},{"town":"大字前谷","koaza":"","lat":36.119153,"lng":139.452836,"zip":"3610000"},{"town":"大字小見","koaza":"","lat":36.159257,"lng":139.478548,"zip":"3610000"},{"town":"大字谷郷","koaza":"","lat":36.152346,"lng":139.45534,"zip":"3610000"},{"town":"大字持田","koaza":"","lat":36.12633,"lng":139.448773,"zip":"3610000"},{"town":"大字上池守","koaza":"","lat":36.155256,"lng":139.438416,"zip":"3610000"},{"town":"大字犬塚","koaza":"","lat":36.178054,"lng":139.449239,"zip":"3610000"},{"town":"大字下忍","koaza":"","lat":36.120798,"lng":139.464045,"zip":"3610000"},{"town":"大字和田","koaza":"","lat":36.160626,"lng":139.45271,"zip":"3610000"},{"town":"大字下中条","koaza":"","lat":36.182544,"lng":139.465204,"zip":"3610000"},{"town":"大字真名板","koaza":"","lat":36.131199,"lng":139.524178,"zip":"3610000"},{"town":"大字若小玉","koaza":"","lat":36.147091,"lng":139.496355,"zip":"3610000"},{"town":"大字長野","koaza":"","lat":36.134065,"lng":139.483866,"zip":"3610000"},{"town":"大字酒巻","koaza":"","lat":36.188224,"lng":139.450975,"zip":"3610000"},{"town":"大字北河原","koaza":"","lat":36.189967,"lng":139.431071,"zip":"3610000"},{"town":"大字野","koaza":"","lat":36.098701,"lng":139.489435,"zip":"3610000"},{"town":"大字斎条","koaza":"","lat":36.172525,"lng":139.461116,"zip":"3610000"},{"town":"大字下須戸","koaza":"","lat":36.146859,"lng":139.507542,"zip":"3610000"},{"town":"大字小針","koaza":"","lat":36.133319,"lng":139.505058,"zip":"3610000"},{"town":"大字南河原","koaza":"","lat":36.179299,"lng":139.431902,"zip":"3610000"},{"town":"大字荒木","koaza":"","lat":36.164499,"lng":139.488475,"zip":"3610000"},{"town":"大字須加","koaza":"","lat":36.183717,"lng":139.485839,"zip":"3610000"},{"town":"大字埼玉","koaza":"","lat":36.117615,"lng":139.496434,"zip":"3610000"}]