[{"town":"相模町四丁目","koaza":"","lat":35.884141,"lng":139.807147,"zip":"3430823"},{"town":"大字花田","koaza":"","lat":35.903954,"lng":139.79159,"zip":"3430000"},{"town":"大字登戸","koaza":"","lat":35.87609,"lng":139.802684,"zip":"3430000"},{"town":"越ヶ谷三丁目","koaza":"","lat":35.891825,"lng":139.787978,"zip":"3430000"},{"town":"千間台東四丁目","koaza":"","lat":35.93116,"lng":139.778992,"zip":"3430042"},{"town":"柳町","koaza":"","lat":35.895073,"lng":139.790323,"zip":"3430812"},{"town":"元柳田町","koaza":"","lat":35.881567,"lng":139.786533,"zip":"3430815"},{"town":"越ヶ谷五丁目","koaza":"","lat":35.89462,"lng":139.787815,"zip":"3430000"},{"town":"伊原一丁目","koaza":"","lat":35.86423,"lng":139.806952,"zip":"3430831"},{"town":"越ヶ谷二丁目","koaza":"","lat":35.89024,"lng":139.788874,"zip":"3430000"},{"town":"東柳田町","koaza":"","lat":35.884609,"lng":139.78631,"zip":"3430814"},{"town":"大沢一丁目","koaza":"","lat":35.897268,"lng":139.782857,"zip":"3430025"},{"town":"中町","koaza":"","lat":35.892655,"lng":139.785443,"zip":"3430817"},{"town":"弥栄町四丁目","koaza":"","lat":35.925161,"lng":139.794947,"zip":"3430046"},{"town":"東町一丁目","koaza":"","lat":35.88498,"lng":139.837359,"zip":"3430826"},{"town":"越ヶ谷本町","koaza":"","lat":35.894652,"lng":139.784776,"zip":"3430000"},{"town":"赤山本町","koaza":"","lat":35.886943,"lng":139.785296,"zip":"3430808"},{"town":"御殿町","koaza":"","lat":35.896606,"lng":139.787322,"zip":"3430811"},{"town":"中島三丁目","koaza":"","lat":35.890751,"lng":139.837843,"zip":"3430013"},{"town":"赤山町五丁目","koaza":"","lat":35.882673,"lng":139.784682,"zip":"3430807"},{"town":"南町二丁目","koaza":"","lat":35.859966,"lng":139.804175,"zip":"3430832"},{"town":"越ヶ谷四丁目","koaza":"","lat":35.892016,"lng":139.790871,"zip":"3430000"},{"town":"花田七丁目","koaza":"","lat":35.90281,"lng":139.806707,"zip":"3430015"},{"town":"西方一丁目","koaza":"","lat":35.885423,"lng":139.795462,"zip":"3430822"},{"town":"弥栄町二丁目","koaza":"","lat":35.919125,"lng":139.797535,"zip":"3430046"},{"town":"弥栄町三丁目","koaza":"","lat":35.922516,"lng":139.795887,"zip":"3430046"},{"town":"宮本町四丁目","koaza":"","lat":35.883623,"lng":139.77531,"zip":"3430806"},{"town":"大字蒲生","koaza":"","lat":35.860429,"lng":139.790945,"zip":"3430000"},{"town":"大沢二丁目","koaza":"","lat":35.900407,"lng":139.783873,"zip":"3430025"},{"town":"南町三丁目","koaza":"","lat":35.858985,"lng":139.806893,"zip":"3430832"},{"town":"弥生町","koaza":"","lat":35.888966,"lng":139.786568,"zip":"3430816"},{"town":"中島一丁目","koaza":"","lat":35.892999,"lng":139.832978,"zip":"3430013"},{"town":"越ヶ谷一丁目","koaza":"","lat":35.887373,"lng":139.789038,"zip":"3430000"},{"town":"花田六丁目","koaza":"","lat":35.90393,"lng":139.804431,"zip":"3430015"},{"town":"瓦曽根三丁目","koaza":"","lat":35.881633,"lng":139.789575,"zip":"3430821"},{"town":"弥栄町一丁目","koaza":"","lat":35.915514,"lng":139.797832,"zip":"3430046"},{"town":"北越谷五丁目","koaza":"","lat":35.907319,"lng":139.779039,"zip":"3430026"},{"town":"平方南町","koaza":"","lat":35.94338,"lng":139.779861,"zip":"3430001"},{"town":"東大沢五丁目","koaza":"","lat":35.905844,"lng":139.789601,"zip":"3430022"},{"town":"南町一丁目","koaza":"","lat":35.863293,"lng":139.805132,"zip":"3430832"},{"town":"千間台東三丁目","koaza":"","lat":35.932544,"lng":139.780586,"zip":"3430042"},{"town":"東越谷五丁目","koaza":"","lat":35.897474,"lng":139.793141,"zip":"3430023"},{"town":"蒲生西町一丁目","koaza":"","lat":35.862344,"lng":139.794081,"zip":"3430835"},{"town":"伊原二丁目","koaza":"","lat":35.8609,"lng":139.809427,"zip":"3430831"},{"town":"蒲生一丁目","koaza":"","lat":35.860167,"lng":139.796691,"zip":"3430838"},{"town":"蒲生南町","koaza":"","lat":35.857761,"lng":139.803986,"zip":"3430833"},{"town":"相模町七丁目","koaza":"","lat":35.888595,"lng":139.801715,"zip":"3430823"},{"town":"赤山町四丁目","koaza":"","lat":35.879156,"lng":139.783021,"zip":"3430807"},{"town":"花田五丁目","koaza":"","lat":35.901622,"lng":139.800516,"zip":"3430015"},{"town":"流通団地四丁目","koaza":"","lat":35.876576,"lng":139.810852,"zip":"3430824"},{"town":"蒲生西町二丁目","koaza":"","lat":35.862606,"lng":139.790549,"zip":"3430835"},{"town":"宮本町一丁目","koaza":"","lat":35.892536,"lng":139.782129,"zip":"3430806"},{"town":"西方二丁目","koaza":"","lat":35.885543,"lng":139.797916,"zip":"3430822"},{"town":"蒲生愛宕町","koaza":"","lat":35.85745,"lng":139.799973,"zip":"3430834"},{"town":"蒲生本町","koaza":"","lat":35.863356,"lng":139.79705,"zip":"3430837"},{"town":"宮前一丁目","koaza":"","lat":35.901592,"lng":139.795009,"zip":"3430014"},{"town":"中島二丁目","koaza":"","lat":35.890761,"lng":139.83467,"zip":"3430013"},{"town":"東越谷四丁目","koaza":"","lat":35.899505,"lng":139.796353,"zip":"3430023"},{"town":"谷中町一丁目","koaza":"","lat":35.879702,"lng":139.777508,"zip":"3430856"},{"town":"千間台東一丁目","koaza":"","lat":35.934931,"lng":139.776217,"zip":"3430042"},{"town":"北越谷三丁目","koaza":"","lat":35.901231,"lng":139.773013,"zip":"3430026"},{"town":"千間台西二丁目","koaza":"","lat":35.932068,"lng":139.770011,"zip":"3430041"},{"town":"蒲生四丁目","koaza":"","lat":35.868431,"lng":139.805915,"zip":"3430838"},{"town":"花田三丁目","koaza":"","lat":35.907028,"lng":139.800401,"zip":"3430015"},{"town":"千間台西三丁目","koaza":"","lat":35.933892,"lng":139.767518,"zip":"3430041"},{"town":"北越谷四丁目","koaza":"","lat":35.902897,"lng":139.777384,"zip":"3430026"},{"town":"北越谷一丁目","koaza":"","lat":35.896642,"lng":139.779401,"zip":"3430026"},{"town":"蒲生二丁目","koaza":"","lat":35.86209,"lng":139.800217,"zip":"3430838"},{"town":"南越谷四丁目","koaza":"","lat":35.874536,"lng":139.787472,"zip":"3430845"},{"town":"南越谷五丁目","koaza":"","lat":35.870614,"lng":139.787477,"zip":"3430845"},{"town":"東越谷三丁目","koaza":"","lat":35.894302,"lng":139.797496,"zip":"3430023"},{"town":"赤山町二丁目","koaza":"","lat":35.885654,"lng":139.78068,"zip":"3430807"},{"town":"南越谷三丁目","koaza":"","lat":35.879206,"lng":139.787409,"zip":"3430845"},{"town":"蒲生旭町","koaza":"","lat":35.867687,"lng":139.799244,"zip":"3430842"},{"town":"千間台西六丁目","koaza":"","lat":35.929474,"lng":139.760272,"zip":"3430041"},{"town":"花田四丁目","koaza":"","lat":35.904873,"lng":139.801148,"zip":"3430015"},{"town":"大間野町三丁目","koaza":"","lat":35.867819,"lng":139.777454,"zip":"3430844"},{"town":"増林一丁目","koaza":"","lat":35.908463,"lng":139.811404,"zip":"3430011"},{"town":"千間台西一丁目","koaza":"","lat":35.935757,"lng":139.771701,"zip":"3430041"},{"town":"千間台東二丁目","koaza":"","lat":35.935254,"lng":139.781166,"zip":"3430042"},{"town":"流通団地三丁目","koaza":"","lat":35.878623,"lng":139.805394,"zip":"3430824"},{"town":"赤山町一丁目","koaza":"","lat":35.88895,"lng":139.782084,"zip":"3430807"},{"town":"相模町一丁目","koaza":"","lat":35.885081,"lng":139.803087,"zip":"3430823"},{"town":"大沢四丁目","koaza":"","lat":35.900231,"lng":139.78701,"zip":"3430025"},{"town":"蒲生三丁目","koaza":"","lat":35.866279,"lng":139.802901,"zip":"3430838"},{"town":"相模町二丁目","koaza":"","lat":35.886766,"lng":139.803763,"zip":"3430823"},{"town":"花田二丁目","koaza":"","lat":35.910696,"lng":139.798958,"zip":"3430015"},{"town":"大沢三丁目","koaza":"","lat":35.902543,"lng":139.782595,"zip":"3430025"},{"town":"宮本町二丁目","koaza":"","lat":35.893088,"lng":139.777466,"zip":"3430806"},{"town":"宮本町三丁目","koaza":"","lat":35.888404,"lng":139.777144,"zip":"3430806"},{"town":"大間野町二丁目","koaza":"","lat":35.864907,"lng":139.783615,"zip":"3430844"},{"town":"東越谷九丁目","koaza":"","lat":35.895034,"lng":139.809011,"zip":"3430023"},{"town":"千間台西四丁目","koaza":"","lat":35.933849,"lng":139.762479,"zip":"3430041"},{"town":"谷中町三丁目","koaza":"","lat":35.885276,"lng":139.769558,"zip":"3430856"},{"town":"蒲生茜町","koaza":"","lat":35.866741,"lng":139.7888,"zip":"3430843"},{"town":"相模町六丁目","koaza":"","lat":35.890881,"lng":139.810771,"zip":"3430823"},{"town":"東越谷十丁目","koaza":"","lat":35.899362,"lng":139.804631,"zip":"3430023"},{"town":"蒲生東町","koaza":"","lat":35.872056,"lng":139.803126,"zip":"3430841"},{"town":"東大沢二丁目","koaza":"","lat":35.911249,"lng":139.789722,"zip":"3430022"},{"town":"七左町六丁目","koaza":"","lat":35.875193,"lng":139.77355,"zip":"3430851"},{"town":"東越谷一丁目","koaza":"","lat":35.893644,"lng":139.793832,"zip":"3430023"},{"town":"川柳町三丁目","koaza":"","lat":35.862953,"lng":139.811389,"zip":"3430827"},{"town":"東大沢三丁目","koaza":"","lat":35.914148,"lng":139.793859,"zip":"3430022"},{"town":"瓦曽根一丁目","koaza":"","lat":35.886386,"lng":139.792189,"zip":"3430821"},{"town":"東越谷六丁目","koaza":"","lat":35.897485,"lng":139.801025,"zip":"3430023"},{"town":"大沢","koaza":"","lat":35.914809,"lng":139.78943,"zip":"3430025"},{"town":"東大沢一丁目","koaza":"","lat":35.907091,"lng":139.786517,"zip":"3430022"},{"town":"大間野町五丁目","koaza":"","lat":35.861024,"lng":139.777389,"zip":"3430844"},{"town":"北越谷二丁目","koaza":"","lat":35.89904,"lng":139.77711,"zip":"3430026"},{"town":"大成町八丁目","koaza":"","lat":35.889869,"lng":139.82777,"zip":"3430825"},{"town":"瓦曽根二丁目","koaza":"","lat":35.882565,"lng":139.792732,"zip":"3430821"},{"town":"増森一丁目","koaza":"","lat":35.901278,"lng":139.823268,"zip":"3430012"},{"town":"大間野町一丁目","koaza":"","lat":35.862248,"lng":139.784575,"zip":"3430844"},{"town":"千間台西五丁目","koaza":"","lat":35.930039,"lng":139.764652,"zip":"3430041"},{"town":"東越谷七丁目","koaza":"","lat":35.892139,"lng":139.801761,"zip":"3430023"},{"town":"増森二丁目","koaza":"","lat":35.899305,"lng":139.825941,"zip":"3430012"},{"town":"南越谷二丁目","koaza":"","lat":35.877807,"lng":139.793358,"zip":"3430845"},{"town":"花田一丁目","koaza":"","lat":35.906423,"lng":139.794818,"zip":"3430015"},{"town":"東大沢四丁目","koaza":"","lat":35.909564,"lng":139.793458,"zip":"3430022"},{"town":"東越谷八丁目","koaza":"","lat":35.893622,"lng":139.8058,"zip":"3430023"},{"town":"神明町一丁目","koaza":"","lat":35.894565,"lng":139.77336,"zip":"3430805"},{"town":"川柳町五丁目","koaza":"","lat":35.868662,"lng":139.816338,"zip":"3430827"},{"town":"東越谷二丁目","koaza":"","lat":35.889698,"lng":139.795572,"zip":"3430023"},{"town":"流通団地一丁目","koaza":"","lat":35.881945,"lng":139.805738,"zip":"3430824"},{"town":"赤山町三丁目","koaza":"","lat":35.882287,"lng":139.780435,"zip":"3430807"},{"town":"大字中島","koaza":"","lat":35.890648,"lng":139.831461,"zip":"3430000"},{"town":"宮本町五丁目","koaza":"","lat":35.890432,"lng":139.773655,"zip":"3430806"},{"town":"越ヶ谷","koaza":"","lat":35.900702,"lng":139.790478,"zip":"3430000"},{"town":"大字上間久里","koaza":"","lat":35.932121,"lng":139.785265,"zip":"3430000"},{"town":"大字長島","koaza":"","lat":35.884376,"lng":139.751037,"zip":"3430000"},{"town":"蒲生寿町","koaza":"","lat":35.867606,"lng":139.794362,"zip":"3430836"},{"town":"谷中町四丁目","koaza":"","lat":35.886479,"lng":139.766859,"zip":"3430856"},{"town":"七左町一丁目","koaza":"","lat":35.868293,"lng":139.782753,"zip":"3430851"},{"town":"七左町八丁目","koaza":"","lat":35.878037,"lng":139.764059,"zip":"3430851"},{"town":"七左町七丁目","koaza":"","lat":35.877277,"lng":139.770336,"zip":"3430851"},{"town":"川柳町四丁目","koaza":"","lat":35.863491,"lng":139.817173,"zip":"3430827"},{"town":"大間野町四丁目","koaza":"","lat":35.865352,"lng":139.774894,"zip":"3430844"},{"town":"南越谷一丁目","koaza":"","lat":35.87317,"lng":139.792699,"zip":"3430845"},{"town":"谷中町二丁目","koaza":"","lat":35.88334,"lng":139.771988,"zip":"3430856"},{"town":"登戸町","koaza":"","lat":35.872748,"lng":139.797827,"zip":"3430846"},{"town":"大成町一丁目","koaza":"","lat":35.891816,"lng":139.81942,"zip":"3430825"},{"town":"川柳町二丁目","koaza":"","lat":35.868476,"lng":139.810561,"zip":"3430827"},{"town":"新越谷一丁目","koaza":"","lat":35.874283,"lng":139.782466,"zip":"3430857"},{"town":"大字野島","koaza":"","lat":35.921072,"lng":139.747997,"zip":"3430000"},{"town":"大字西方","koaza":"","lat":35.879455,"lng":139.799803,"zip":"3430000"},{"town":"大字大林","koaza":"","lat":35.912238,"lng":139.775892,"zip":"3430000"},{"town":"大字大房","koaza":"","lat":35.909954,"lng":139.78241,"zip":"3430000"},{"town":"新川町二丁目","koaza":"","lat":35.879332,"lng":139.75822,"zip":"3430852"},{"town":"大字恩間新田","koaza":"","lat":35.940262,"lng":139.756273,"zip":"3430000"},{"town":"神明町二丁目","koaza":"","lat":35.896996,"lng":139.768749,"zip":"3430805"},{"town":"新川町一丁目","koaza":"","lat":35.873545,"lng":139.763211,"zip":"3430852"},{"town":"大字大松","koaza":"","lat":35.935488,"lng":139.808684,"zip":"3430000"},{"town":"神明町三丁目","koaza":"","lat":35.893808,"lng":139.763738,"zip":"3430805"},{"town":"大字大吉","koaza":"","lat":35.918668,"lng":139.801554,"zip":"3430000"},{"town":"川柳町一丁目","koaza":"","lat":35.873519,"lng":139.810546,"zip":"3430827"},{"town":"大字北後谷","koaza":"","lat":35.886497,"lng":139.763073,"zip":"3430000"},{"town":"増林三丁目","koaza":"","lat":35.903544,"lng":139.819754,"zip":"3430011"},{"town":"大字恩間","koaza":"","lat":35.92649,"lng":139.769169,"zip":"3430000"},{"town":"七左町四丁目","koaza":"","lat":35.870567,"lng":139.770966,"zip":"3430851"},{"town":"大字大竹","koaza":"","lat":35.922451,"lng":139.765656,"zip":"3430000"},{"town":"大字弥十郎","koaza":"","lat":35.921248,"lng":139.791195,"zip":"3430000"},{"town":"東町五丁目","koaza":"","lat":35.872895,"lng":139.835672,"zip":"3430826"},{"town":"増林二丁目","koaza":"","lat":35.906533,"lng":139.815141,"zip":"3430011"},{"town":"大字大里","koaza":"","lat":35.91916,"lng":139.784312,"zip":"3430000"},{"town":"大字大道","koaza":"","lat":35.92211,"lng":139.759442,"zip":"3430000"},{"town":"大字大杉","koaza":"","lat":35.93058,"lng":139.800179,"zip":"3430000"},{"town":"大字北川崎","koaza":"","lat":35.929463,"lng":139.80029,"zip":"3430000"},{"town":"大字向畑","koaza":"","lat":35.927024,"lng":139.80753,"zip":"3430000"},{"town":"大字小曽川","koaza":"","lat":35.917944,"lng":139.752372,"zip":"3430000"},{"town":"大字大泊","koaza":"","lat":35.937924,"lng":139.784637,"zip":"3430000"},{"town":"大字下間久里","koaza":"","lat":35.927715,"lng":139.785694,"zip":"3430000"},{"town":"大字三野宮","koaza":"","lat":35.930954,"lng":139.755535,"zip":"3430000"},{"town":"大字砂原","koaza":"","lat":35.910132,"lng":139.757327,"zip":"3430000"},{"town":"大字袋山","koaza":"","lat":35.923217,"lng":139.776892,"zip":"3430000"},{"town":"大字増森","koaza":"","lat":35.895595,"lng":139.824111,"zip":"3430000"},{"town":"大字西新井","koaza":"","lat":35.888403,"lng":139.755787,"zip":"3430000"},{"town":"大字船渡","koaza":"","lat":35.936047,"lng":139.797954,"zip":"3430000"},{"town":"大字増林","koaza":"","lat":35.912247,"lng":139.807377,"zip":"3430000"},{"town":"大字平方","koaza":"","lat":35.949934,"lng":139.785784,"zip":"3430000"},{"town":"大字南荻島","koaza":"","lat":35.90889,"lng":139.766972,"zip":"3430000"},{"town":"相模町五丁目","koaza":"","lat":35.885415,"lng":139.812852,"zip":"3430823"},{"town":"相模町三丁目","koaza":"","lat":35.886573,"lng":139.809078,"zip":"3430823"},{"town":"流通団地二丁目","koaza":"","lat":35.879138,"lng":139.811241,"zip":"3430824"},{"town":"大成町二丁目","koaza":"","lat":35.886993,"lng":139.818244,"zip":"3430825"},{"town":"大成町六丁目","koaza":"","lat":35.886019,"lng":139.824099,"zip":"3430825"},{"town":"大成町七丁目","koaza":"","lat":35.886443,"lng":139.830035,"zip":"3430825"},{"town":"東町二丁目","koaza":"","lat":35.884428,"lng":139.834779,"zip":"3430826"},{"town":"東町三丁目","koaza":"","lat":35.879291,"lng":139.835067,"zip":"3430826"},{"town":"レイクタウン六丁目","koaza":"","lat":35.872495,"lng":139.824236,"zip":"3430828"},{"town":"レイクタウン一丁目","koaza":"","lat":35.882583,"lng":139.812437,"zip":"3430828"},{"town":"レイクタウン五丁目","koaza":"","lat":35.87712,"lng":139.828743,"zip":"3430828"},{"town":"レイクタウン三丁目","koaza":"","lat":35.883363,"lng":139.82803,"zip":"3430828"},{"town":"レイクタウン四丁目","koaza":"","lat":35.879062,"lng":139.824537,"zip":"3430828"},{"town":"レイクタウン二丁目","koaza":"","lat":35.88372,"lng":139.819556,"zip":"3430828"},{"town":"レイクタウン八丁目","koaza":"","lat":35.877034,"lng":139.821266,"zip":"3430828"},{"town":"レイクタウン七丁目","koaza":"","lat":35.873633,"lng":139.818315,"zip":"3430828"},{"town":"レイクタウン九丁目","koaza":"","lat":35.878691,"lng":139.816307,"zip":"3430828"},{"town":"新越谷二丁目","koaza":"","lat":35.872682,"lng":139.779679,"zip":"3430857"},{"town":"七左町五丁目","koaza":"","lat":35.872975,"lng":139.776353,"zip":"3430851"}]