[{"town":"大字久下","koaza":"","lat":35.854403,"lng":139.312461,"zip":"3570000"},{"town":"原町","koaza":"","lat":35.858389,"lng":139.320686,"zip":"3570005"},{"town":"永田台三丁目","koaza":"","lat":35.867823,"lng":139.294296,"zip":"3570061"},{"town":"茜台一丁目","koaza":"","lat":35.848546,"lng":139.295896,"zip":"3570069"},{"town":"美杉台二丁目","koaza":"","lat":35.842158,"lng":139.311867,"zip":"3570041"},{"town":"永田台一丁目","koaza":"","lat":35.869728,"lng":139.285084,"zip":"3570061"},{"town":"本町","koaza":"","lat":35.857393,"lng":139.316805,"zip":"3570032"},{"town":"美杉台三丁目","koaza":"","lat":35.842564,"lng":139.308577,"zip":"3570041"},{"town":"柳町","koaza":"","lat":35.851487,"lng":139.323059,"zip":"3570035"},{"town":"東町","koaza":"","lat":35.854345,"lng":139.324328,"zip":"3570034"},{"town":"栄町","koaza":"","lat":35.851612,"lng":139.327797,"zip":"3570025"},{"town":"緑町","koaza":"","lat":35.851026,"lng":139.3314,"zip":"3570024"},{"town":"新町","koaza":"","lat":35.856717,"lng":139.324293,"zip":"3570004"},{"town":"稲荷町","koaza":"","lat":35.85149,"lng":139.314777,"zip":"3570037"},{"town":"八幡町","koaza":"","lat":35.855995,"lng":139.319691,"zip":"3570033"},{"town":"美杉台四丁目","koaza":"","lat":35.845664,"lng":139.304546,"zip":"3570041"},{"town":"美杉台六丁目","koaza":"","lat":35.847571,"lng":139.298739,"zip":"3570041"},{"town":"仲町","koaza":"","lat":35.853272,"lng":139.317416,"zip":"3570038"},{"town":"大字前ヶ貫","koaza":"","lat":35.839047,"lng":139.314337,"zip":"3570000"},{"town":"大字新光","koaza":"","lat":35.85211,"lng":139.344522,"zip":"3570000"},{"town":"永田台二丁目","koaza":"","lat":35.868232,"lng":139.288918,"zip":"3570061"},{"town":"山手町","koaza":"","lat":35.859346,"lng":139.313697,"zip":"3570031"},{"town":"征矢町","koaza":"","lat":35.840772,"lng":139.320144,"zip":"3570049"},{"town":"南町","koaza":"","lat":35.848502,"lng":139.318249,"zip":"3570036"},{"town":"美杉台七丁目","koaza":"","lat":35.844032,"lng":139.300741,"zip":"3570041"},{"town":"美杉台一丁目","koaza":"","lat":35.846883,"lng":139.310317,"zip":"3570041"},{"town":"大字青木","koaza":"","lat":35.861692,"lng":139.331249,"zip":"3570000"},{"town":"大字矢颪","koaza":"","lat":35.84614,"lng":139.315013,"zip":"3570000"},{"town":"美杉台五丁目","koaza":"","lat":35.84912,"lng":139.305272,"zip":"3570041"},{"town":"大字中居","koaza":"","lat":35.864655,"lng":139.329093,"zip":"3570000"},{"town":"大字上赤工","koaza":"","lat":35.869133,"lng":139.238689,"zip":"3570000"},{"town":"大字下加治","koaza":"","lat":35.864262,"lng":139.336761,"zip":"3570000"},{"town":"茜台二丁目","koaza":"","lat":35.853045,"lng":139.2916,"zip":"3570069"},{"town":"大字久須美","koaza":"","lat":35.870188,"lng":139.276143,"zip":"3570000"},{"town":"茜台三丁目","koaza":"","lat":35.852978,"lng":139.285718,"zip":"3570069"},{"town":"大字笠縫","koaza":"","lat":35.842551,"lng":139.331352,"zip":"3570000"},{"town":"大字永田","koaza":"","lat":35.864499,"lng":139.291243,"zip":"3570000"},{"town":"大字川崎","koaza":"","lat":35.874367,"lng":139.357228,"zip":"3570000"},{"town":"大字上畑","koaza":"","lat":35.843471,"lng":139.284477,"zip":"3570000"},{"town":"大字下川崎","koaza":"","lat":35.877375,"lng":139.363441,"zip":"3570000"},{"town":"大字川寺","koaza":"","lat":35.844034,"lng":139.324232,"zip":"3570000"},{"town":"大字落合","koaza":"","lat":35.831647,"lng":139.319692,"zip":"3570000"},{"town":"大字中山","koaza":"","lat":35.865751,"lng":139.31995,"zip":"3570000"},{"town":"大字上長沢","koaza":"","lat":35.927436,"lng":139.214454,"zip":"3570000"},{"town":"大字大河原","koaza":"","lat":35.854021,"lng":139.301082,"zip":"3570000"},{"town":"大字小久保","koaza":"","lat":35.870623,"lng":139.338148,"zip":"3570000"},{"town":"大字平松","koaza":"","lat":35.870154,"lng":139.349686,"zip":"3570000"},{"town":"大字下畑","koaza":"","lat":35.841745,"lng":139.294576,"zip":"3570000"},{"town":"大字岩沢","koaza":"","lat":35.839287,"lng":139.339094,"zip":"3570000"},{"town":"大字唐竹","koaza":"","lat":35.854767,"lng":139.22584,"zip":"3570000"},{"town":"大字下赤工","koaza":"","lat":35.863845,"lng":139.251876,"zip":"3570000"},{"town":"大字小瀬戸","koaza":"","lat":35.874386,"lng":139.264583,"zip":"3570000"},{"town":"大字平戸","koaza":"","lat":35.890226,"lng":139.26028,"zip":"3570000"},{"town":"大字芦苅場","koaza":"","lat":35.865324,"lng":139.362798,"zip":"3570000"},{"town":"大字坂石町分","koaza":"","lat":35.904751,"lng":139.230759,"zip":"3570000"},{"town":"大字中藤中郷","koaza":"","lat":35.884174,"lng":139.234814,"zip":"3570000"},{"town":"大字上直竹上分","koaza":"","lat":35.844148,"lng":139.2276,"zip":"3570000"},{"town":"大字苅生","koaza":"","lat":35.851166,"lng":139.274643,"zip":"3570000"},{"town":"大字岩渕","koaza":"","lat":35.83265,"lng":139.308978,"zip":"3570000"},{"town":"大字宮沢","koaza":"","lat":35.875145,"lng":139.32656,"zip":"3570000"},{"town":"大字下直竹","koaza":"","lat":35.844988,"lng":139.267809,"zip":"3570000"},{"town":"大字中藤下郷","koaza":"","lat":35.879952,"lng":139.247921,"zip":"3570000"},{"town":"大字小岩井","koaza":"","lat":35.862367,"lng":139.27256,"zip":"3570000"},{"town":"大字双柳","koaza":"","lat":35.855784,"lng":139.338565,"zip":"3570000"},{"town":"大字飯能","koaza":"","lat":35.864509,"lng":139.305402,"zip":"3570000"},{"town":"大字阿須","koaza":"","lat":35.828873,"lng":139.333024,"zip":"3570000"},{"town":"大字高山","koaza":"","lat":35.941956,"lng":139.217722,"zip":"3570000"},{"town":"大字白子","koaza":"","lat":35.888237,"lng":139.274904,"zip":"3570000"},{"town":"大字吾野","koaza":"","lat":35.919689,"lng":139.202652,"zip":"3570000"},{"town":"大字坂元","koaza":"","lat":35.949902,"lng":139.175875,"zip":"3570000"},{"town":"大字虎秀","koaza":"","lat":35.906194,"lng":139.262487,"zip":"3570000"},{"town":"大字坂石","koaza":"","lat":35.911866,"lng":139.212694,"zip":"3570000"},{"town":"大字中藤上郷","koaza":"","lat":35.887592,"lng":139.220513,"zip":"3570000"},{"town":"大字上直竹下分","koaza":"","lat":35.848407,"lng":139.246346,"zip":"3570000"},{"town":"大字赤沢","koaza":"","lat":35.858488,"lng":139.211837,"zip":"3570000"},{"town":"大字井上","koaza":"","lat":35.902496,"lng":139.246876,"zip":"3570000"},{"town":"大字原市場","koaza":"","lat":35.866643,"lng":139.226072,"zip":"3570000"},{"town":"大字長沢","koaza":"","lat":35.926549,"lng":139.232869,"zip":"3570000"},{"town":"大字南","koaza":"","lat":35.892264,"lng":139.200915,"zip":"3570000"},{"town":"大字北川","koaza":"","lat":35.949813,"lng":139.197997,"zip":"3570000"},{"town":"大字南川","koaza":"","lat":35.928581,"lng":139.17905,"zip":"3570000"},{"town":"大字下名栗","koaza":"","lat":35.868258,"lng":139.149707,"zip":"3570000"},{"town":"大字上名栗","koaza":"","lat":35.910127,"lng":139.146502,"zip":"3570000"}]