[{"town":"下生出塚","koaza":"","lat":36.059595,"lng":139.527377,"zip":"3650035"},{"town":"幸町","koaza":"","lat":36.060484,"lng":139.497358,"zip":"3650057"},{"town":"上生出塚","koaza":"","lat":36.059084,"lng":139.528933,"zip":"3650034"},{"town":"加美三丁目","koaza":"","lat":36.065826,"lng":139.504297,"zip":"3650078"},{"town":"宮地一丁目","koaza":"","lat":36.065332,"lng":139.51282,"zip":"3650075"},{"town":"雷電二丁目","koaza":"","lat":36.064158,"lng":139.5096,"zip":"3650077"},{"town":"榎戸一丁目","koaza":"","lat":36.106541,"lng":139.442716,"zip":"3690123"},{"town":"逆川二丁目","koaza":"","lat":36.054743,"lng":139.509972,"zip":"3650047"},{"town":"本宮町","koaza":"","lat":36.064022,"lng":139.511828,"zip":"3650076"},{"town":"富士見町","koaza":"","lat":36.053238,"lng":139.513813,"zip":"3650046"},{"town":"緑町","koaza":"","lat":36.064326,"lng":139.499147,"zip":"3650053"},{"town":"本町六丁目","koaza":"","lat":36.058529,"lng":139.517093,"zip":"3650038"},{"town":"堤町","koaza":"","lat":36.062299,"lng":139.496604,"zip":"3650056"},{"town":"東二丁目","koaza":"","lat":36.061689,"lng":139.517104,"zip":"3650039"},{"town":"雷電一丁目","koaza":"","lat":36.062954,"lng":139.50849,"zip":"3650077"},{"town":"加美一丁目","koaza":"","lat":36.065987,"lng":139.505526,"zip":"3650078"},{"town":"宮地二丁目","koaza":"","lat":36.06622,"lng":139.509969,"zip":"3650075"},{"town":"鎌塚三丁目","koaza":"","lat":36.109012,"lng":139.45092,"zip":"3690112"},{"town":"吹上本町三丁目","koaza":"","lat":36.106376,"lng":139.452612,"zip":"3690115"},{"town":"東三丁目","koaza":"","lat":36.063662,"lng":139.519594,"zip":"3650039"},{"town":"鎌塚五丁目","koaza":"","lat":36.107388,"lng":139.447083,"zip":"3690112"},{"town":"本町四丁目","koaza":"","lat":36.05852,"lng":139.511667,"zip":"3650038"},{"town":"鎌塚四丁目","koaza":"","lat":36.108955,"lng":139.448231,"zip":"3690112"},{"town":"宮地四丁目","koaza":"","lat":36.067592,"lng":139.513362,"zip":"3650075"},{"town":"本町五丁目","koaza":"","lat":36.057021,"lng":139.513626,"zip":"3650038"},{"town":"東一丁目","koaza":"","lat":36.063169,"lng":139.5156,"zip":"3650039"},{"town":"本町一丁目","koaza":"","lat":36.06089,"lng":139.51033,"zip":"3650038"},{"town":"神明一丁目","koaza":"","lat":36.069351,"lng":139.50301,"zip":"3650074"},{"town":"宮地三丁目","koaza":"","lat":36.068486,"lng":139.509973,"zip":"3650075"},{"town":"大間一丁目","koaza":"","lat":36.065005,"lng":139.502876,"zip":"3650054"},{"town":"東四丁目","koaza":"","lat":36.064896,"lng":139.517523,"zip":"3650039"},{"town":"本町二丁目","koaza":"","lat":36.061996,"lng":139.512839,"zip":"3650038"},{"town":"吹上本町一丁目","koaza":"","lat":36.102793,"lng":139.455318,"zip":"3690115"},{"town":"鎌塚一丁目","koaza":"","lat":36.107265,"lng":139.457143,"zip":"3690112"},{"town":"大間三丁目","koaza":"","lat":36.060963,"lng":139.500995,"zip":"3650054"},{"town":"小松二丁目","koaza":"","lat":36.040377,"lng":139.525006,"zip":"3650041"},{"town":"宮地五丁目","koaza":"","lat":36.066201,"lng":139.515246,"zip":"3650075"},{"town":"吹上本町四丁目","koaza":"","lat":36.105465,"lng":139.450265,"zip":"3690115"},{"town":"本町三丁目","koaza":"","lat":36.059923,"lng":139.514909,"zip":"3650038"},{"town":"ひばり野二丁目","koaza":"","lat":36.065653,"lng":139.528474,"zip":"3650031"},{"town":"小松三丁目","koaza":"","lat":36.037601,"lng":139.527621,"zip":"3650041"},{"town":"吹上本町五丁目","koaza":"","lat":36.105894,"lng":139.446142,"zip":"3690115"},{"town":"人形三丁目","koaza":"","lat":36.052476,"lng":139.521233,"zip":"3650037"},{"town":"天神一丁目","koaza":"","lat":36.060093,"lng":139.519044,"zip":"3650036"},{"town":"天神五丁目","koaza":"","lat":36.06218,"lng":139.521413,"zip":"3650036"},{"town":"小松四丁目","koaza":"","lat":36.035146,"lng":139.529065,"zip":"3650041"},{"town":"新宿一丁目","koaza":"","lat":36.115848,"lng":139.441075,"zip":"3690111"},{"town":"赤見台一丁目","koaza":"","lat":36.085766,"lng":139.478231,"zip":"3650064"},{"town":"南二丁目","koaza":"","lat":36.102548,"lng":139.4458,"zip":"3690122"},{"town":"すみれ野","koaza":"","lat":36.084088,"lng":139.476935,"zip":"3650067"},{"town":"本町七丁目","koaza":"","lat":36.056573,"lng":139.518173,"zip":"3650038"},{"town":"天神二丁目","koaza":"","lat":36.057087,"lng":139.522165,"zip":"3650036"},{"town":"吹上","koaza":"","lat":36.093286,"lng":139.454708,"zip":"3690136"},{"town":"逆川一丁目","koaza":"","lat":36.056435,"lng":139.509209,"zip":"3650047"},{"town":"ひばり野一丁目","koaza":"","lat":36.067699,"lng":139.525555,"zip":"3650031"},{"town":"吹上富士見二丁目","koaza":"","lat":36.098576,"lng":139.459309,"zip":"3690121"},{"town":"吹上富士見三丁目","koaza":"","lat":36.09488,"lng":139.457163,"zip":"3690121"},{"town":"稲荷町","koaza":"","lat":36.080442,"lng":139.483963,"zip":"3650063"},{"town":"鎌塚二丁目","koaza":"","lat":36.108116,"lng":139.453763,"zip":"3690112"},{"town":"榎戸二丁目","koaza":"","lat":36.104375,"lng":139.442296,"zip":"3690123"},{"town":"栄町","koaza":"","lat":36.060814,"lng":139.50725,"zip":"3650055"},{"town":"神明二丁目","koaza":"","lat":36.070701,"lng":139.507229,"zip":"3650074"},{"town":"生出塚一丁目","koaza":"","lat":36.062534,"lng":139.526138,"zip":"3650033"},{"town":"筑波一丁目","koaza":"","lat":36.1037,"lng":139.45965,"zip":"3690114"},{"town":"松原二丁目","koaza":"","lat":36.040516,"lng":139.518781,"zip":"3650042"},{"town":"加美二丁目","koaza":"","lat":36.066866,"lng":139.506736,"zip":"3650078"},{"town":"天神四丁目","koaza":"","lat":36.060929,"lng":139.523765,"zip":"3650036"},{"town":"中井","koaza":"","lat":36.088764,"lng":139.471879,"zip":"3650065"},{"town":"人形二丁目","koaza":"","lat":36.054684,"lng":139.519884,"zip":"3650037"},{"town":"吹上本町二丁目","koaza":"","lat":36.104478,"lng":139.456514,"zip":"3690115"},{"town":"筑波二丁目","koaza":"","lat":36.101092,"lng":139.460481,"zip":"3690114"},{"town":"生出塚二丁目","koaza":"","lat":36.062189,"lng":139.529574,"zip":"3650033"},{"town":"大間四丁目","koaza":"","lat":36.059409,"lng":139.506193,"zip":"3650054"},{"town":"天神三丁目","koaza":"","lat":36.05791,"lng":139.525451,"zip":"3650036"},{"town":"神明三丁目","koaza":"","lat":36.071786,"lng":139.504082,"zip":"3650074"},{"town":"新宿二丁目","koaza":"","lat":36.113722,"lng":139.441301,"zip":"3690111"},{"town":"小松一丁目","koaza":"","lat":36.04408,"lng":139.521941,"zip":"3650041"},{"town":"松原四丁目","koaza":"","lat":36.035262,"lng":139.52392,"zip":"3650042"},{"town":"本町八丁目","koaza":"","lat":36.054443,"lng":139.51548,"zip":"3650038"},{"town":"人形一丁目","koaza":"","lat":36.051023,"lng":139.518132,"zip":"3650037"},{"town":"大間二丁目","koaza":"","lat":36.063066,"lng":139.501586,"zip":"3650054"},{"town":"人形四丁目","koaza":"","lat":36.050425,"lng":139.522571,"zip":"3650037"},{"town":"松原三丁目","koaza":"","lat":36.038869,"lng":139.523026,"zip":"3650042"},{"town":"赤見台四丁目","koaza":"","lat":36.082157,"lng":139.483261,"zip":"3650064"},{"town":"中央","koaza":"","lat":36.06583,"lng":139.522558,"zip":"3650032"},{"town":"愛の町","koaza":"","lat":36.091063,"lng":139.472129,"zip":"3650068"},{"town":"松原一丁目","koaza":"","lat":36.044617,"lng":139.519324,"zip":"3650042"},{"town":"吹上富士見四丁目","koaza":"","lat":36.097107,"lng":139.453544,"zip":"3690121"},{"town":"榎戸","koaza":"","lat":36.101531,"lng":139.442504,"zip":"3690123"},{"town":"赤見台二丁目","koaza":"","lat":36.088979,"lng":139.477043,"zip":"3650064"},{"town":"赤見台三丁目","koaza":"","lat":36.085436,"lng":139.481945,"zip":"3650064"},{"town":"吹上富士見一丁目","koaza":"","lat":36.099831,"lng":139.454691,"zip":"3690121"},{"town":"赤城台","koaza":"","lat":36.118796,"lng":139.50927,"zip":"3650001"},{"town":"三ツ木","koaza":"","lat":36.092521,"lng":139.471537,"zip":"3650066"},{"town":"西中曽根","koaza":"","lat":36.057936,"lng":139.542019,"zip":"3650026"},{"town":"南一丁目","koaza":"","lat":36.101306,"lng":139.449013,"zip":"3690122"},{"town":"北中野","koaza":"","lat":36.058004,"lng":139.49085,"zip":"3650058"},{"town":"登戸","koaza":"","lat":36.066976,"lng":139.493367,"zip":"3650052"},{"town":"三町免","koaza":"","lat":36.084646,"lng":139.45927,"zip":"3690134"},{"town":"市ノ縄","koaza":"","lat":36.076807,"lng":139.507918,"zip":"3650072"},{"town":"上会下","koaza":"","lat":36.098544,"lng":139.54788,"zip":"3650012"},{"town":"宮前","koaza":"","lat":36.070852,"lng":139.488904,"zip":"3650051"},{"town":"川面","koaza":"","lat":36.094176,"lng":139.480256,"zip":"3650061"},{"town":"明用","koaza":"","lat":36.090278,"lng":139.456037,"zip":"3690135"},{"town":"北新宿","koaza":"","lat":36.109631,"lng":139.438793,"zip":"3690116"},{"town":"荊原","koaza":"","lat":36.098346,"lng":139.435093,"zip":"3690124"},{"town":"大間","koaza":"","lat":36.057264,"lng":139.499546,"zip":"3650054"},{"town":"八幡田","koaza":"","lat":36.075742,"lng":139.498628,"zip":"3650073"},{"town":"赤城","koaza":"","lat":36.119361,"lng":139.515129,"zip":"3650002"},{"town":"前砂","koaza":"","lat":36.092934,"lng":139.463554,"zip":"3690132"},{"town":"寺谷","koaza":"","lat":36.084302,"lng":139.496616,"zip":"3650071"},{"town":"新井","koaza":"","lat":36.095992,"lng":139.532496,"zip":"3650011"},{"town":"鴻巣","koaza":"","lat":36.069095,"lng":139.517553,"zip":"3650028"},{"town":"鎌塚","koaza":"","lat":36.112289,"lng":139.450327,"zip":"3690112"},{"town":"安養寺","koaza":"","lat":36.077324,"lng":139.525017,"zip":"3650021"},{"town":"袋","koaza":"","lat":36.098568,"lng":139.471921,"zip":"3690131"},{"town":"境","koaza":"","lat":36.096524,"lng":139.543007,"zip":"3650013"},{"town":"下谷","koaza":"","lat":36.048905,"lng":139.548201,"zip":"3650025"},{"town":"下忍","koaza":"","lat":36.107541,"lng":139.465872,"zip":"3690113"},{"town":"北根","koaza":"","lat":36.113153,"lng":139.525255,"zip":"3650003"},{"town":"関新田","koaza":"","lat":36.098099,"lng":139.527915,"zip":"3650004"},{"town":"常光","koaza":"","lat":36.046037,"lng":139.557973,"zip":"3650024"},{"town":"上谷","koaza":"","lat":36.057652,"lng":139.533227,"zip":"3650027"},{"town":"箕田","koaza":"","lat":36.079867,"lng":139.478585,"zip":"3650062"},{"town":"大芦","koaza":"","lat":36.091246,"lng":139.443945,"zip":"3690137"},{"town":"郷地","koaza":"","lat":36.074457,"lng":139.536537,"zip":"3650022"},{"town":"糠田","koaza":"","lat":36.063041,"lng":139.482033,"zip":"3650059"},{"town":"小谷","koaza":"","lat":36.074042,"lng":139.469166,"zip":"3690133"},{"town":"笠原","koaza":"","lat":36.067455,"lng":139.55289,"zip":"3650023"},{"town":"広田","koaza":"","lat":36.106279,"lng":139.513736,"zip":"3650005"},{"town":"屈巣","koaza":"","lat":36.089212,"lng":139.511123,"zip":"3650014"},{"town":"滝馬室","koaza":"","lat":36.048476,"lng":139.500937,"zip":"3650044"},{"town":"氷川町","koaza":"","lat":36.0505,"lng":139.512761,"zip":"3650045"},{"town":"原馬室","koaza":"","lat":36.038701,"lng":139.508325,"zip":"3650043"}]