[{"town":"大字富士見","koaza":"","lat":35.947686,"lng":139.415127,"zip":"3502200"},{"town":"南町三丁目","koaza":"","lat":35.922419,"lng":139.405874,"zip":"3502215"},{"town":"共栄町","koaza":"","lat":35.947199,"lng":139.39967,"zip":"3502212"},{"town":"大字三ツ木新田","koaza":"","lat":35.922929,"lng":139.38249,"zip":"3502200"},{"town":"南町二丁目","koaza":"","lat":35.923439,"lng":139.408403,"zip":"3502215"},{"town":"松ヶ丘二丁目","koaza":"","lat":35.927975,"lng":139.417189,"zip":"3502205"},{"town":"松ヶ丘一丁目","koaza":"","lat":35.928635,"lng":139.415061,"zip":"3502205"},{"town":"松ヶ丘四丁目","koaza":"","lat":35.924897,"lng":139.414426,"zip":"3502205"},{"town":"羽折町","koaza":"","lat":35.950249,"lng":139.382175,"zip":"3502221"},{"town":"三ツ木新町一丁目","koaza":"","lat":35.925969,"lng":139.392034,"zip":"3502219"},{"town":"新町一丁目","koaza":"","lat":35.938251,"lng":139.37393,"zip":"3502227"},{"town":"松ヶ丘三丁目","koaza":"","lat":35.924927,"lng":139.418137,"zip":"3502205"},{"town":"富士見五丁目","koaza":"","lat":35.951079,"lng":139.421078,"zip":"3502201"},{"town":"富士見三丁目","koaza":"","lat":35.955438,"lng":139.414134,"zip":"3502201"},{"town":"松ヶ丘五丁目","koaza":"","lat":35.926696,"lng":139.412449,"zip":"3502205"},{"town":"新町二丁目","koaza":"","lat":35.936273,"lng":139.371387,"zip":"3502227"},{"town":"富士見一丁目","koaza":"","lat":35.948162,"lng":139.412159,"zip":"3502201"},{"town":"新町三丁目","koaza":"","lat":35.933181,"lng":139.371979,"zip":"3502227"},{"town":"脚折町二丁目","koaza":"","lat":35.95006,"lng":139.390191,"zip":"3502211"},{"town":"新町四丁目","koaza":"","lat":35.933624,"lng":139.368082,"zip":"3502227"},{"town":"脚折町三丁目","koaza":"","lat":35.945963,"lng":139.38889,"zip":"3502211"},{"town":"脚折町四丁目","koaza":"","lat":35.946979,"lng":139.393488,"zip":"3502211"},{"town":"三ツ木新町二丁目","koaza":"","lat":35.920733,"lng":139.385926,"zip":"3502219"},{"town":"南町一丁目","koaza":"","lat":35.92514,"lng":139.408381,"zip":"3502215"},{"town":"富士見六丁目","koaza":"","lat":35.955764,"lng":139.419161,"zip":"3502201"},{"town":"脚折町六丁目","koaza":"","lat":35.941946,"lng":139.391117,"zip":"3502211"},{"town":"富士見四丁目","koaza":"","lat":35.952962,"lng":139.418012,"zip":"3502201"},{"town":"富士見二丁目","koaza":"","lat":35.951175,"lng":139.414054,"zip":"3502201"},{"town":"脚折町五丁目","koaza":"","lat":35.945977,"lng":139.396953,"zip":"3502211"},{"town":"脚折町一丁目","koaza":"","lat":35.951024,"lng":139.394405,"zip":"3502211"},{"town":"柳戸町","koaza":"","lat":35.922264,"lng":139.391744,"zip":"3502218"},{"town":"大字中新田","koaza":"","lat":35.938548,"lng":139.368978,"zip":"3502200"},{"town":"大字鶴ヶ丘","koaza":"","lat":35.93416,"lng":139.413402,"zip":"3502200"},{"town":"大字上新田","koaza":"","lat":35.931394,"lng":139.36248,"zip":"3502200"},{"town":"大字町屋","koaza":"","lat":35.927417,"lng":139.359586,"zip":"3502200"},{"town":"大字五味ヶ谷","koaza":"","lat":35.945366,"lng":139.42117,"zip":"3502200"},{"town":"大字下新田","koaza":"","lat":35.944247,"lng":139.38139,"zip":"3502200"},{"town":"大字上広谷","koaza":"","lat":35.94081,"lng":139.417668,"zip":"3502200"},{"town":"大字脚折","koaza":"","lat":35.942579,"lng":139.400492,"zip":"3502200"},{"town":"大字三ツ木","koaza":"","lat":35.929049,"lng":139.391857,"zip":"3502200"},{"town":"大字藤金","koaza":"","lat":35.94039,"lng":139.406052,"zip":"3502200"},{"town":"大字太田ヶ谷","koaza":"","lat":35.923513,"lng":139.400169,"zip":"3502200"},{"town":"大字高倉","koaza":"","lat":35.930306,"lng":139.380203,"zip":"3502200"}]