[{"town":"字小祝","koaza":"","lat":33.611226,"lng":131.186295,"zip":"8710000"},{"town":"牛神町一丁目","koaza":"","lat":33.594947,"lng":131.200077,"zip":"8710016"},{"town":"蛭子町一丁目","koaza":"","lat":33.600841,"lng":131.19123,"zip":"8710065"},{"town":"蛭子町二丁目","koaza":"","lat":33.601381,"lng":131.193338,"zip":"8710065"},{"town":"蛭子町三丁目","koaza":"","lat":33.602491,"lng":131.193899,"zip":"8710065"},{"town":"大字相原","koaza":"","lat":33.569762,"lng":131.190379,"zip":"8710000"},{"town":"大字伊藤田","koaza":"","lat":33.550908,"lng":131.239934,"zip":"8710000"},{"town":"大字今津","koaza":"","lat":33.583519,"lng":131.263539,"zip":"8710000"},{"town":"大字植野","koaza":"","lat":33.563208,"lng":131.267967,"zip":"8710000"},{"town":"大字牛神","koaza":"","lat":33.596944,"lng":131.203019,"zip":"8710000"},{"town":"大字合馬","koaza":"","lat":33.589738,"lng":131.224414,"zip":"8710000"},{"town":"大字大貞","koaza":"","lat":33.56723,"lng":131.214734,"zip":"8710000"},{"town":"大字大新田","koaza":"","lat":33.598438,"lng":131.228456,"zip":"8710000"},{"town":"大字大塚","koaza":"","lat":33.610373,"lng":131.205492,"zip":"8710000"},{"town":"大字蛎瀬","koaza":"","lat":33.60549,"lng":131.20902,"zip":"8710000"},{"town":"大字加来","koaza":"","lat":33.55448,"lng":131.211998,"zip":"8710000"},{"town":"大字金手","koaza":"","lat":33.581991,"lng":131.203011,"zip":"8710000"},{"town":"大字上池永","koaza":"","lat":33.580556,"lng":131.211783,"zip":"8710000"},{"town":"大字上如水","koaza":"","lat":33.578108,"lng":131.230358,"zip":"8710000"},{"town":"大字上宮永","koaza":"","lat":33.58958,"lng":131.184851,"zip":"8710000"},{"town":"大字北原","koaza":"","lat":33.571911,"lng":131.236887,"zip":"8710000"},{"town":"大字是則","koaza":"","lat":33.586817,"lng":131.235909,"zip":"8710000"},{"town":"大字島田","koaza":"","lat":33.597589,"lng":131.185109,"zip":"8710000"},{"town":"大字下池永","koaza":"","lat":33.58733,"lng":131.214474,"zip":"8710000"},{"town":"大字下宮永","koaza":"","lat":33.59202,"lng":131.178308,"zip":"8710000"},{"town":"大字全徳","koaza":"","lat":33.590072,"lng":131.229341,"zip":"8710000"},{"town":"大字大悟法","koaza":"","lat":33.571545,"lng":131.220525,"zip":"8710000"},{"town":"大字高瀬","koaza":"","lat":33.578901,"lng":131.177934,"zip":"8710000"},{"town":"大字田尻","koaza":"","lat":33.59683,"lng":131.243167,"zip":"8710000"},{"town":"大字田尻崎","koaza":"","lat":33.606673,"lng":131.249535,"zip":"8710000"},{"town":"大字角木","koaza":"","lat":33.612832,"lng":131.197753,"zip":"8710000"},{"town":"大字永添","koaza":"","lat":33.567886,"lng":131.202415,"zip":"8710000"},{"town":"大字中殿","koaza":"","lat":33.599504,"lng":131.195236,"zip":"8710000"},{"town":"大字中原","koaza":"","lat":33.578309,"lng":131.21912,"zip":"8710000"},{"town":"大字鍋島","koaza":"","lat":33.578785,"lng":131.272081,"zip":"8710000"},{"town":"大字野依","koaza":"","lat":33.552754,"lng":131.254567,"zip":"8710000"},{"town":"大字東浜","koaza":"","lat":33.598607,"lng":131.214372,"zip":"8710000"},{"town":"大字一ツ松","koaza":"","lat":33.591494,"lng":131.205461,"zip":"8710000"},{"town":"大字福島","koaza":"","lat":33.561999,"lng":131.228108,"zip":"8710000"},{"town":"大字万田","koaza":"","lat":33.577865,"lng":131.185518,"zip":"8710000"},{"town":"大字宮夫","koaza":"","lat":33.590241,"lng":131.208805,"zip":"8710000"},{"town":"大字湯屋","koaza":"","lat":33.576683,"lng":131.190323,"zip":"8710000"},{"town":"沖代町一丁目","koaza":"","lat":33.589589,"lng":131.20028,"zip":"8710021"},{"town":"沖代町二丁目","koaza":"","lat":33.583702,"lng":131.19801,"zip":"8710021"},{"town":"三光諌山","koaza":"","lat":33.534703,"lng":131.201459,"zip":"8710000"},{"town":"三光臼木","koaza":"","lat":33.526244,"lng":131.177565,"zip":"8710112"},{"town":"三光小袋","koaza":"","lat":33.527051,"lng":131.188592,"zip":"8710114"},{"town":"三光上深水","koaza":"","lat":33.491381,"lng":131.251322,"zip":"8790225"},{"town":"三光上秣","koaza":"","lat":33.517904,"lng":131.243833,"zip":"8790221"},{"town":"三光佐知","koaza":"","lat":33.554156,"lng":131.195283,"zip":"8710111"},{"town":"三光下深水","koaza":"","lat":33.514325,"lng":131.255487,"zip":"8790224"},{"town":"三光下秣","koaza":"","lat":33.539315,"lng":131.236339,"zip":"8790223"},{"town":"三光田口","koaza":"","lat":33.518614,"lng":131.218039,"zip":"8710103"},{"town":"三光土田","koaza":"","lat":33.534407,"lng":131.17925,"zip":"8710113"},{"town":"三光成恒","koaza":"","lat":33.540066,"lng":131.210024,"zip":"8710102"},{"town":"三光西秣","koaza":"","lat":33.518781,"lng":131.239677,"zip":"8790222"},{"town":"三光原口","koaza":"","lat":33.548964,"lng":131.203963,"zip":"8710105"},{"town":"三光森山","koaza":"","lat":33.548012,"lng":131.221598,"zip":"8710101"},{"town":"島田本町","koaza":"","lat":33.600575,"lng":131.189714,"zip":"8710036"},{"town":"中央町一丁目","koaza":"","lat":33.591451,"lng":131.19254,"zip":"8710024"},{"town":"中央町二丁目","koaza":"","lat":33.585834,"lng":131.190968,"zip":"8710024"},{"town":"天神町","koaza":"","lat":33.601751,"lng":131.190822,"zip":"8710039"},{"town":"豊田町","koaza":"","lat":33.597824,"lng":131.188593,"zip":"8710058"},{"town":"中殿町三丁目","koaza":"","lat":33.596039,"lng":131.194569,"zip":"8710030"},{"town":"中殿町四丁目","koaza":"","lat":33.59431,"lng":131.197784,"zip":"8710030"},{"town":"東本町","koaza":"","lat":33.598086,"lng":131.191817,"zip":"8710032"},{"town":"本耶馬渓町跡田","koaza":"","lat":33.477072,"lng":131.191627,"zip":"8710311"},{"town":"本耶馬渓町今行","koaza":"","lat":33.492141,"lng":131.20105,"zip":"8710206"},{"town":"本耶馬渓町落合","koaza":"","lat":33.452524,"lng":131.17626,"zip":"8710313"},{"town":"本耶馬渓町折元","koaza":"","lat":33.463502,"lng":131.189772,"zip":"8710312"},{"town":"本耶馬渓町冠石野","koaza":"","lat":33.488314,"lng":131.155823,"zip":"8710204"},{"town":"本耶馬渓町下屋形","koaza":"","lat":33.501159,"lng":131.190047,"zip":"8710205"},{"town":"本耶馬渓町曽木","koaza":"","lat":33.498856,"lng":131.159594,"zip":"8710202"},{"town":"本耶馬渓町多志田","koaza":"","lat":33.478253,"lng":131.159833,"zip":"8710203"},{"town":"本耶馬渓町西谷","koaza":"","lat":33.422212,"lng":131.19061,"zip":"8710314"},{"town":"本耶馬渓町西屋形","koaza":"","lat":33.466752,"lng":131.218325,"zip":"8710208"},{"town":"本耶馬渓町東谷","koaza":"","lat":33.436561,"lng":131.220779,"zip":"8710315"},{"town":"本耶馬渓町東屋形","koaza":"","lat":33.473095,"lng":131.232354,"zip":"8710207"},{"town":"本耶馬渓町樋田","koaza":"","lat":33.500569,"lng":131.177399,"zip":"8710201"},{"town":"丸山町","koaza":"","lat":33.598762,"lng":131.182612,"zip":"8710047"},{"town":"宮島町","koaza":"","lat":33.601211,"lng":131.189972,"zip":"8710037"},{"town":"耶馬溪町大字大島","koaza":"","lat":33.415236,"lng":131.125171,"zip":"8710000"},{"town":"耶馬溪町大字大野","koaza":"","lat":33.48055,"lng":131.051624,"zip":"8710000"},{"town":"耶馬溪町大字小友田","koaza":"","lat":33.471009,"lng":131.121155,"zip":"8710000"},{"town":"耶馬溪町大字柿坂","koaza":"","lat":33.450221,"lng":131.126141,"zip":"8710000"},{"town":"耶馬溪町大字金吉","koaza":"","lat":33.39687,"lng":131.090558,"zip":"8710000"},{"town":"耶馬溪町大字冠石野","koaza":"","lat":33.489661,"lng":131.148091,"zip":"8710000"},{"town":"耶馬溪町大字川原口","koaza":"","lat":33.501066,"lng":131.035742,"zip":"8710000"},{"town":"耶馬溪町大字深耶馬","koaza":"","lat":33.377079,"lng":131.190991,"zip":"8710000"},{"town":"耶馬溪町大字多志田","koaza":"","lat":33.480841,"lng":131.151424,"zip":"8710000"},{"town":"耶馬溪町大字栃木","koaza":"","lat":33.460246,"lng":131.104096,"zip":"8710000"},{"town":"耶馬溪町大字戸原","koaza":"","lat":33.463549,"lng":131.142847,"zip":"8710000"},{"town":"耶馬溪町大字中畑","koaza":"","lat":33.484522,"lng":131.095186,"zip":"8710000"},{"town":"耶馬溪町大字樋山路","koaza":"","lat":33.444896,"lng":131.079366,"zip":"8710000"},{"town":"耶馬溪町大字平田","koaza":"","lat":33.478224,"lng":131.144517,"zip":"8710000"},{"town":"耶馬溪町大字福土","koaza":"","lat":33.493041,"lng":131.119508,"zip":"8710000"},{"town":"耶馬溪町大字三尾母","koaza":"","lat":33.475561,"lng":131.131565,"zip":"8710000"},{"town":"耶馬溪町大字宮園","koaza":"","lat":33.427393,"lng":131.0807,"zip":"8710000"},{"town":"耶馬溪町大字山移","koaza":"","lat":33.407554,"lng":131.153522,"zip":"8710000"},{"town":"山国町宇曽","koaza":"","lat":33.415399,"lng":131.047024,"zip":"8710715"},{"town":"山国町草本","koaza":"","lat":33.434646,"lng":131.021185,"zip":"8710702"},{"town":"山国町小屋川","koaza":"","lat":33.411545,"lng":130.998375,"zip":"8710703"},{"town":"山国町槻木","koaza":"","lat":33.460637,"lng":130.976816,"zip":"8710701"},{"town":"山国町長尾野","koaza":"","lat":33.37289,"lng":131.053172,"zip":"8710714"},{"town":"山国町中摩","koaza":"","lat":33.420799,"lng":131.05984,"zip":"8710716"},{"town":"山国町平小野","koaza":"","lat":33.412221,"lng":131.033929,"zip":"8710711"},{"town":"山国町藤野木","koaza":"","lat":33.385419,"lng":131.043598,"zip":"8710713"},{"town":"山国町守実","koaza":"","lat":33.390171,"lng":131.022697,"zip":"8710712"},{"town":"山国町吉野","koaza":"","lat":33.416847,"lng":131.016998,"zip":"8710704"},{"town":"大字赤迫","koaza":"","lat":33.575672,"lng":131.259528,"zip":"8710000"},{"town":"大字犬丸","koaza":"","lat":33.567311,"lng":131.252457,"zip":"8710000"},{"town":"大字定留","koaza":"","lat":33.586705,"lng":131.249786,"zip":"8710000"},{"town":"大字諸田","koaza":"","lat":33.579931,"lng":131.25501,"zip":"8710000"},{"town":"小祝新町","koaza":"","lat":33.616164,"lng":131.192752,"zip":"8710080"},{"town":"（大字なし）","koaza":"中津","lat":33.604959,"lng":131.187788,"zip":"8710000"},{"town":"大字下宮永","koaza":"二丁目","lat":33.589049,"lng":131.181105,"zip":"8710000"},{"town":"大字下宮永","koaza":"一丁目","lat":33.594863,"lng":131.183009,"zip":"8710000"},{"town":"大字上宮永","koaza":"三丁目","lat":33.58814,"lng":131.183882,"zip":"8710000"},{"town":"大字上宮永","koaza":"四丁目","lat":33.592585,"lng":131.184852,"zip":"8710000"},{"town":"豊田町","koaza":"二丁目","lat":33.596526,"lng":131.186278,"zip":"8710058"},{"town":"豊田町","koaza":"一丁目","lat":33.599174,"lng":131.185812,"zip":"8710058"},{"town":"大字上宮永","koaza":"二丁目","lat":33.592364,"lng":131.187072,"zip":"8710000"},{"town":"大字上宮永","koaza":"一丁目","lat":33.594464,"lng":131.186679,"zip":"8710000"},{"town":"豊田町","koaza":"四丁目","lat":33.595852,"lng":131.186064,"zip":"8710058"},{"town":"豊田町","koaza":"三丁目","lat":33.597751,"lng":131.189386,"zip":"8710058"},{"town":"中殿町一丁目","koaza":"","lat":33.600233,"lng":131.193219,"zip":"8710030"},{"town":"中殿町二丁目","koaza":"","lat":33.599415,"lng":131.196027,"zip":"8710030"},{"town":"大字一ツ松","koaza":"持田","lat":33.591928,"lng":131.203283,"zip":"8710000"},{"town":"大字宮夫","koaza":"奈良須掛","lat":33.587626,"lng":131.206319,"zip":"8710000"},{"town":"大字宮夫","koaza":"無生","lat":33.589308,"lng":131.209467,"zip":"8710000"},{"town":"大字下池永","koaza":"正手","lat":33.590007,"lng":131.211737,"zip":"8710000"},{"town":"大字下池永","koaza":"壱丁畑","lat":33.585634,"lng":131.221676,"zip":"8710000"},{"town":"大字上如水","koaza":"沖の壺","lat":33.578567,"lng":131.237386,"zip":"8710000"},{"town":"大字犬丸","koaza":"上ノ代","lat":33.564211,"lng":131.259651,"zip":"8710000"},{"town":"大字植野","koaza":"中野","lat":33.556857,"lng":131.266009,"zip":"8710000"},{"town":"（大字なし）","koaza":"新天神町","lat":33.601957,"lng":131.1893,"zip":"8710000"}]