[{"town":"青山町","koaza":"","lat":33.277952,"lng":131.491743,"zip":"8740902"},{"town":"赤松","koaza":"","lat":33.256039,"lng":131.512623,"zip":"8740819"},{"town":"秋葉町","koaza":"","lat":33.275572,"lng":131.501008,"zip":"8740937"},{"town":"朝日ケ丘町","koaza":"","lat":33.306963,"lng":131.471208,"zip":"8740846"},{"town":"朝見一丁目","koaza":"","lat":33.269988,"lng":131.499368,"zip":"8740812"},{"town":"朝見二丁目","koaza":"","lat":33.271062,"lng":131.493557,"zip":"8740812"},{"town":"朝見三丁目","koaza":"","lat":33.272549,"lng":131.491204,"zip":"8740812"},{"town":"天間","koaza":"","lat":33.33723,"lng":131.405025,"zip":"8740005"},{"town":"石垣西十丁目","koaza":"","lat":33.305823,"lng":131.492521,"zip":"8740910"},{"town":"石垣西一丁目","koaza":"","lat":33.289532,"lng":131.494339,"zip":"8740910"},{"town":"石垣西二丁目","koaza":"","lat":33.291324,"lng":131.494051,"zip":"8740910"},{"town":"石垣西三丁目","koaza":"","lat":33.293161,"lng":131.493663,"zip":"8740910"},{"town":"石垣西四丁目","koaza":"","lat":33.295021,"lng":131.493526,"zip":"8740910"},{"town":"石垣西五丁目","koaza":"","lat":33.29657,"lng":131.493444,"zip":"8740910"},{"town":"石垣西六丁目","koaza":"","lat":33.298176,"lng":131.493175,"zip":"8740910"},{"town":"石垣西七丁目","koaza":"","lat":33.300033,"lng":131.492988,"zip":"8740910"},{"town":"石垣西八丁目","koaza":"","lat":33.301867,"lng":131.492844,"zip":"8740910"},{"town":"石垣西九丁目","koaza":"","lat":33.303059,"lng":131.49275,"zip":"8740910"},{"town":"石垣東十丁目","koaza":"","lat":33.305495,"lng":131.497202,"zip":"8740919"},{"town":"石垣東一丁目","koaza":"","lat":33.289447,"lng":131.498485,"zip":"8740919"},{"town":"石垣東二丁目","koaza":"","lat":33.291636,"lng":131.498227,"zip":"8740919"},{"town":"石垣東三丁目","koaza":"","lat":33.293357,"lng":131.498085,"zip":"8740919"},{"town":"石垣東四丁目","koaza":"","lat":33.295148,"lng":131.49796,"zip":"8740919"},{"town":"石垣東五丁目","koaza":"","lat":33.296458,"lng":131.49787,"zip":"8740919"},{"town":"石垣東六丁目","koaza":"","lat":33.298416,"lng":131.497745,"zip":"8740919"},{"town":"石垣東七丁目","koaza":"","lat":33.300012,"lng":131.497586,"zip":"8740919"},{"town":"石垣東八丁目","koaza":"","lat":33.301759,"lng":131.49746,"zip":"8740919"},{"town":"石垣東九丁目","koaza":"","lat":33.303196,"lng":131.497353,"zip":"8740919"},{"town":"井田","koaza":"","lat":33.316836,"lng":131.478774,"zip":"8740043"},{"town":"内竈","koaza":"","lat":33.33404,"lng":131.479644,"zip":"8740011"},{"town":"浦田","koaza":"","lat":33.268517,"lng":131.504081,"zip":"8740814"},{"town":"駅前町","koaza":"","lat":33.279538,"lng":131.500464,"zip":"8740935"},{"town":"駅前本町","koaza":"","lat":33.280771,"lng":131.502094,"zip":"8740934"},{"town":"枝郷","koaza":"","lat":33.24881,"lng":131.4647,"zip":"8740805"},{"town":"扇山","koaza":"","lat":33.296573,"lng":131.467195,"zip":"8740849"},{"town":"大字内成","koaza":"","lat":33.237492,"lng":131.484456,"zip":"8740000"},{"town":"北鉄輪","koaza":"","lat":33.319953,"lng":131.477106,"zip":"8740041"},{"town":"大字北石垣","koaza":"","lat":33.312307,"lng":131.490543,"zip":"8740000"},{"town":"大字鶴見","koaza":"","lat":33.299999,"lng":131.477378,"zip":"8740000"},{"town":"大字浜脇","koaza":"","lat":33.259439,"lng":131.490216,"zip":"8740000"},{"town":"大字東山","koaza":"","lat":33.25374,"lng":131.437625,"zip":"8740000"},{"town":"大字別府","koaza":"","lat":33.264515,"lng":131.471657,"zip":"8740000"},{"town":"大字南立石","koaza":"","lat":33.282738,"lng":131.450898,"zip":"8740000"},{"town":"小倉","koaza":"","lat":33.308313,"lng":131.460841,"zip":"8740842"},{"town":"小坂","koaza":"","lat":33.347714,"lng":131.483692,"zip":"8740001"},{"town":"大所","koaza":"","lat":33.348683,"lng":131.465057,"zip":"8740003"},{"town":"乙原","koaza":"","lat":33.275306,"lng":131.481451,"zip":"8740821"},{"town":"大畑","koaza":"","lat":33.303006,"lng":131.473848,"zip":"8740848"},{"town":"上田の湯町","koaza":"","lat":33.278144,"lng":131.495765,"zip":"8740908"},{"town":"上野口町","koaza":"","lat":33.287029,"lng":131.491198,"zip":"8740905"},{"town":"上原町","koaza":"","lat":33.278966,"lng":131.485147,"zip":"8740829"},{"town":"上平田町","koaza":"","lat":33.315661,"lng":131.489584,"zip":"8740036"},{"town":"亀川四の湯町","koaza":"","lat":33.320781,"lng":131.491872,"zip":"8740025"},{"town":"亀川中央町","koaza":"","lat":33.325629,"lng":131.492922,"zip":"8740021"},{"town":"亀川浜田町","koaza":"","lat":33.331455,"lng":131.492663,"zip":"8740014"},{"town":"亀川東町","koaza":"","lat":33.324331,"lng":131.497399,"zip":"8740022"},{"town":"観海寺","koaza":"","lat":33.280833,"lng":131.474771,"zip":"8740822"},{"town":"城島","koaza":"","lat":33.259362,"lng":131.42617,"zip":"8740802"},{"town":"北中","koaza":"","lat":33.312059,"lng":131.479681,"zip":"8740845"},{"town":"北浜一丁目","koaza":"","lat":33.278669,"lng":131.504869,"zip":"8740920"},{"town":"北浜二丁目","koaza":"","lat":33.280247,"lng":131.505454,"zip":"8740920"},{"town":"北浜三丁目","koaza":"","lat":33.281735,"lng":131.505174,"zip":"8740920"},{"town":"北的ケ浜町","koaza":"","lat":33.284491,"lng":131.503815,"zip":"8740928"},{"town":"京町","koaza":"","lat":33.287301,"lng":131.503383,"zip":"8740926"},{"town":"楠町","koaza":"","lat":33.275924,"lng":131.50568,"zip":"8740943"},{"town":"国立","koaza":"","lat":33.331457,"lng":131.487567,"zip":"8740015"},{"town":"河内","koaza":"","lat":33.266589,"lng":131.506279,"zip":"8740816"},{"town":"古賀原","koaza":"","lat":33.246079,"lng":131.494844,"zip":"8795552"},{"town":"幸町","koaza":"","lat":33.286465,"lng":131.497663,"zip":"8740907"},{"town":"桜ケ丘","koaza":"","lat":33.311373,"lng":131.489428,"zip":"8740915"},{"town":"汐見町","koaza":"","lat":33.304808,"lng":131.502047,"zip":"8740918"},{"town":"実相寺","koaza":"","lat":33.304871,"lng":131.482251,"zip":"8740835"},{"town":"上人ケ浜町","koaza":"","lat":33.315231,"lng":131.500839,"zip":"8740023"},{"town":"上人仲町","koaza":"","lat":33.314605,"lng":131.495482,"zip":"8740034"},{"town":"上人西","koaza":"","lat":33.314099,"lng":131.492306,"zip":"8740035"},{"town":"上人本町","koaza":"","lat":33.314745,"lng":131.498286,"zip":"8740032"},{"town":"上人南","koaza":"","lat":33.311224,"lng":131.496459,"zip":"8740033"},{"town":"照波園町","koaza":"","lat":33.318526,"lng":131.496544,"zip":"8740031"},{"town":"新別府","koaza":"","lat":33.307461,"lng":131.483217,"zip":"8740834"},{"town":"新港町","koaza":"","lat":33.298201,"lng":131.50181,"zip":"8740923"},{"town":"末広町","koaza":"","lat":33.273905,"lng":131.501454,"zip":"8740938"},{"town":"スパランド豊海","koaza":"","lat":33.339509,"lng":131.486683,"zip":"8740012"},{"town":"関の江新町","koaza":"","lat":33.343792,"lng":131.488175,"zip":"8740002"},{"town":"荘園","koaza":"","lat":33.293467,"lng":131.478732,"zip":"8740838"},{"town":"荘園北町","koaza":"","lat":33.29537,"lng":131.481565,"zip":"8740837"},{"town":"大観山町","koaza":"","lat":33.316185,"lng":131.486129,"zip":"8740037"},{"town":"竹の内","koaza":"","lat":33.303912,"lng":131.465473,"zip":"8740841"},{"town":"立田町","koaza":"","lat":33.272,"lng":131.502063,"zip":"8740939"},{"town":"田の口","koaza":"","lat":33.26474,"lng":131.501884,"zip":"8740815"},{"town":"田の湯町","koaza":"","lat":33.278292,"lng":131.498469,"zip":"8740909"},{"town":"中央町","koaza":"","lat":33.276923,"lng":131.500962,"zip":"8740936"},{"town":"千代町","koaza":"","lat":33.27419,"lng":131.504912,"zip":"8740942"},{"town":"鶴見園町","koaza":"","lat":33.286299,"lng":131.478017,"zip":"8740826"},{"town":"天満町","koaza":"","lat":33.286571,"lng":131.494674,"zip":"8740906"},{"town":"鳥越","koaza":"","lat":33.257149,"lng":131.504332,"zip":"8740817"},{"town":"中島町","koaza":"","lat":33.275476,"lng":131.491977,"zip":"8740901"},{"town":"中須賀東町","koaza":"","lat":33.308457,"lng":131.499045,"zip":"8740917"},{"town":"中須賀本町","koaza":"","lat":33.308486,"lng":131.494034,"zip":"8740916"},{"town":"中須賀元町","koaza":"","lat":33.309397,"lng":131.490517,"zip":"8740914"},{"town":"西野口町","koaza":"","lat":33.28239,"lng":131.495204,"zip":"8740931"},{"town":"野口中町","koaza":"","lat":33.282377,"lng":131.498163,"zip":"8740932"},{"town":"野口原","koaza":"","lat":33.284962,"lng":131.486779,"zip":"8740903"},{"town":"野口元町","koaza":"","lat":33.282536,"lng":131.500476,"zip":"8740933"},{"town":"馬場","koaza":"","lat":33.305989,"lng":131.476761,"zip":"8740847"},{"town":"浜町","koaza":"","lat":33.272904,"lng":131.508262,"zip":"8740945"},{"town":"浜脇一丁目","koaza":"","lat":33.269186,"lng":131.509805,"zip":"8740947"},{"town":"浜脇二丁目","koaza":"","lat":33.269568,"lng":131.506334,"zip":"8740947"},{"town":"浜脇三丁目","koaza":"","lat":33.270415,"lng":131.503105,"zip":"8740947"},{"town":"原町","koaza":"","lat":33.275556,"lng":131.487775,"zip":"8740820"},{"town":"春木","koaza":"","lat":33.30691,"lng":131.489453,"zip":"8740913"},{"town":"東荘園","koaza":"","lat":33.294761,"lng":131.486154,"zip":"8740836"},{"town":"光町","koaza":"","lat":33.274086,"lng":131.497091,"zip":"8740930"},{"town":"平田町","koaza":"","lat":33.320582,"lng":131.496019,"zip":"8740024"},{"town":"富士見町","koaza":"","lat":33.286623,"lng":131.49999,"zip":"8740921"},{"town":"船小路町","koaza":"","lat":33.301304,"lng":131.50156,"zip":"8740922"},{"town":"古市町","koaza":"","lat":33.338223,"lng":131.495005,"zip":"8740013"},{"town":"風呂本","koaza":"","lat":33.315604,"lng":131.4772,"zip":"8740044"},{"town":"火売","koaza":"","lat":33.311085,"lng":131.470963,"zip":"8740844"},{"town":"堀田","koaza":"","lat":33.288741,"lng":131.460292,"zip":"8740831"},{"town":"松原町","koaza":"","lat":33.272022,"lng":131.506438,"zip":"8740946"},{"town":"緑丘町","koaza":"","lat":33.296794,"lng":131.489413,"zip":"8740911"},{"town":"南須賀","koaza":"","lat":33.302038,"lng":131.490279,"zip":"8740912"},{"town":"南荘園町","koaza":"","lat":33.289192,"lng":131.480083,"zip":"8740904"},{"town":"南町","koaza":"","lat":33.271918,"lng":131.504632,"zip":"8740941"},{"town":"南的ケ浜町","koaza":"","lat":33.283183,"lng":131.504099,"zip":"8740929"},{"town":"御幸","koaza":"","lat":33.316789,"lng":131.471223,"zip":"8740045"},{"town":"明礬","koaza":"","lat":33.317849,"lng":131.451843,"zip":"8740843"},{"town":"餅ヶ浜町","koaza":"","lat":33.293782,"lng":131.50227,"zip":"8740000"},{"town":"元町","koaza":"","lat":33.277316,"lng":131.505543,"zip":"8740944"},{"town":"柳","koaza":"","lat":33.258705,"lng":131.492865,"zip":"8740811"},{"town":"山家","koaza":"","lat":33.265326,"lng":131.511795,"zip":"8740818"},{"town":"山の口","koaza":"","lat":33.243157,"lng":131.432574,"zip":"8740801"},{"town":"山の手町","koaza":"","lat":33.28137,"lng":131.485229,"zip":"8740828"},{"town":"弓ケ浜町","koaza":"","lat":33.285734,"lng":131.502903,"zip":"8740927"},{"town":"湯山","koaza":"","lat":33.325762,"lng":131.458834,"zip":"8740004"},{"town":"両郡橋","koaza":"","lat":33.26395,"lng":131.5166,"zip":"8740813"},{"town":"若草町","koaza":"","lat":33.290395,"lng":131.502528,"zip":"8740925"},{"town":"大字東山","koaza":"二区","lat":33.250568,"lng":131.443014,"zip":"8740000"},{"town":"大字南立石","koaza":"生目町","lat":33.28974,"lng":131.466108,"zip":"8740000"},{"town":"大字南立石","koaza":"本町","lat":33.286307,"lng":131.467768,"zip":"8740000"},{"town":"大字南立石","koaza":"二区","lat":33.290383,"lng":131.471432,"zip":"8740000"},{"town":"大字南立石","koaza":"板地町","lat":33.287897,"lng":131.470461,"zip":"8740000"},{"town":"大字野田","koaza":"","lat":33.322983,"lng":131.480828,"zip":"8740000"},{"town":"大字南立石","koaza":"八幡町","lat":33.286714,"lng":131.473605,"zip":"8740000"},{"town":"大字南立石","koaza":"向原","lat":33.290587,"lng":131.474158,"zip":"8740000"},{"town":"大字南立石","koaza":"一区","lat":33.283049,"lng":131.479286,"zip":"8740000"},{"town":"東荘園","koaza":"九丁目","lat":33.299651,"lng":131.482631,"zip":"8740836"},{"town":"東荘園","koaza":"八丁目","lat":33.297514,"lng":131.484003,"zip":"8740836"},{"town":"東荘園","koaza":"七丁目","lat":33.296424,"lng":131.484255,"zip":"8740836"},{"town":"東荘園","koaza":"六丁目","lat":33.295547,"lng":131.484675,"zip":"8740836"},{"town":"東荘園","koaza":"五丁目","lat":33.295016,"lng":131.48642,"zip":"8740836"},{"town":"国立","koaza":"第一","lat":33.331726,"lng":131.487624,"zip":"8740015"},{"town":"東荘園","koaza":"四丁目","lat":33.293937,"lng":131.487373,"zip":"8740836"},{"town":"東荘園","koaza":"三丁目","lat":33.292624,"lng":131.487046,"zip":"8740836"},{"town":"大字別府","koaza":"別府","lat":33.285443,"lng":131.485743,"zip":"8740000"},{"town":"鶴見","koaza":"下田井","lat":33.310535,"lng":131.48534,"zip":"8740840"},{"town":"国立","koaza":"第二","lat":33.333416,"lng":131.487588,"zip":"8740015"},{"town":"東荘園","koaza":"二丁目","lat":33.291049,"lng":131.488331,"zip":"8740836"},{"town":"亀川四の湯町","koaza":"二区","lat":33.318528,"lng":131.488537,"zip":"8740025"},{"town":"東荘園","koaza":"一丁目","lat":33.290312,"lng":131.489052,"zip":"8740836"},{"town":"大字亀川","koaza":"","lat":33.325407,"lng":131.489971,"zip":"8740000"},{"town":"亀川中央町","koaza":"一区","lat":33.324205,"lng":131.490988,"zip":"8740021"}]