[{"town":"安岐町朝来","koaza":"","lat":33.502662,"lng":131.62368,"zip":"8730351"},{"town":"安岐町糸永","koaza":"","lat":33.503728,"lng":131.636579,"zip":"8730354"},{"town":"安岐町大添","koaza":"","lat":33.44424,"lng":131.668828,"zip":"8730223"},{"town":"安岐町掛樋","koaza":"","lat":33.479302,"lng":131.659489,"zip":"8730205"},{"town":"安岐町向陽台","koaza":"","lat":33.476045,"lng":131.713682,"zip":"8730232"},{"town":"安岐町塩屋","koaza":"","lat":33.454684,"lng":131.715032,"zip":"8730212"},{"town":"安岐町下原","koaza":"","lat":33.469816,"lng":131.723576,"zip":"8730231"},{"town":"安岐町下山口","koaza":"","lat":33.455893,"lng":131.684543,"zip":"8730222"},{"town":"安岐町瀬戸田","koaza":"","lat":33.473662,"lng":131.681591,"zip":"8730202"},{"town":"安岐町富清","koaza":"","lat":33.524144,"lng":131.627402,"zip":"8730355"},{"town":"安岐町中園","koaza":"","lat":33.463445,"lng":131.701974,"zip":"8730203"},{"town":"安岐町成久","koaza":"","lat":33.467934,"lng":131.678336,"zip":"8730204"},{"town":"安岐町西本","koaza":"","lat":33.455266,"lng":131.699255,"zip":"8730221"},{"town":"安岐町馬場","koaza":"","lat":33.468146,"lng":131.708839,"zip":"8730211"},{"town":"安岐町両子","koaza":"","lat":33.558285,"lng":131.612334,"zip":"8730356"},{"town":"安岐町明治","koaza":"","lat":33.535982,"lng":131.600382,"zip":"8730352"},{"town":"安岐町矢川","koaza":"","lat":33.486697,"lng":131.614459,"zip":"8730053"},{"town":"安岐町山浦","koaza":"","lat":33.475703,"lng":131.637324,"zip":"8730206"},{"town":"安岐町山口","koaza":"","lat":33.458903,"lng":131.656246,"zip":"8730224"},{"town":"安岐町油留木","koaza":"","lat":33.495812,"lng":131.656098,"zip":"8730207"},{"town":"安岐町吉松","koaza":"","lat":33.487889,"lng":131.688768,"zip":"8730201"},{"town":"国東町赤松","koaza":"","lat":33.556689,"lng":131.666056,"zip":"8730523"},{"town":"国東町安国寺","koaza":"","lat":33.560703,"lng":131.724278,"zip":"8730504"},{"town":"国東町岩戸寺","koaza":"","lat":33.615537,"lng":131.616049,"zip":"8721653"},{"town":"国東町岩屋","koaza":"","lat":33.567106,"lng":131.686735,"zip":"8730522"},{"town":"国東町小原","koaza":"","lat":33.550302,"lng":131.711268,"zip":"8730511"},{"town":"国東町川原","koaza":"","lat":33.574438,"lng":131.705986,"zip":"8730531"},{"town":"国東町北江","koaza":"","lat":33.582408,"lng":131.716989,"zip":"8730501"},{"town":"国東町来浦","koaza":"","lat":33.627649,"lng":131.639275,"zip":"8721652"},{"town":"国東町見地","koaza":"","lat":33.591632,"lng":131.676097,"zip":"8730533"},{"town":"国東町重藤","koaza":"","lat":33.530574,"lng":131.700888,"zip":"8730514"},{"town":"国東町下成仏","koaza":"","lat":33.593026,"lng":131.654357,"zip":"8730534"},{"town":"国東町成仏","koaza":"","lat":33.587354,"lng":131.621988,"zip":"8730535"},{"town":"国東町治郎丸","koaza":"","lat":33.539063,"lng":131.71917,"zip":"8730512"},{"town":"国東町大恩寺","koaza":"","lat":33.607561,"lng":131.653983,"zip":"8730646"},{"town":"国東町田深","koaza":"","lat":33.571563,"lng":131.724031,"zip":"8730502"},{"town":"国東町綱井","koaza":"","lat":33.530147,"lng":131.725463,"zip":"8730513"},{"town":"国東町鶴川","koaza":"","lat":33.558577,"lng":131.73514,"zip":"8730503"},{"town":"国東町富来","koaza":"","lat":33.605367,"lng":131.685867,"zip":"8730645"},{"town":"国東町富来浦","koaza":"","lat":33.603868,"lng":131.70257,"zip":"8730643"},{"town":"国東町中田","koaza":"","lat":33.584902,"lng":131.690485,"zip":"8730532"},{"town":"国東町浜","koaza":"","lat":33.630691,"lng":131.677576,"zip":"8721651"},{"town":"国東町浜崎","koaza":"","lat":33.594941,"lng":131.709065,"zip":"8730644"},{"town":"国東町原","koaza":"","lat":33.563827,"lng":131.701165,"zip":"8730521"},{"town":"国東町東堅来","koaza":"","lat":33.613371,"lng":131.6784,"zip":"8730642"},{"town":"国東町深江","koaza":"","lat":33.623943,"lng":131.681361,"zip":"8730641"},{"town":"国東町横手","koaza":"","lat":33.573202,"lng":131.653289,"zip":"8730524"},{"town":"国見町赤根","koaza":"","lat":33.600619,"lng":131.587786,"zip":"8721405"},{"town":"国見町伊美","koaza":"","lat":33.679133,"lng":131.592322,"zip":"8721401"},{"town":"国見町大熊毛","koaza":"","lat":33.651811,"lng":131.65407,"zip":"8721612"},{"town":"国見町鬼籠","koaza":"","lat":33.657938,"lng":131.569105,"zip":"8721323"},{"town":"国見町岐部","koaza":"","lat":33.650489,"lng":131.62335,"zip":"8721614"},{"town":"国見町櫛来","koaza":"","lat":33.657925,"lng":131.606978,"zip":"8721406"},{"town":"国見町櫛海","koaza":"","lat":33.659637,"lng":131.578127,"zip":"8721324"},{"town":"国見町小熊毛","koaza":"","lat":33.649948,"lng":131.636649,"zip":"8721613"},{"town":"国見町西方寺","koaza":"","lat":33.632383,"lng":131.567984,"zip":"8721322"},{"town":"国見町千燈","koaza":"","lat":33.629627,"lng":131.5896,"zip":"8721404"},{"town":"国見町竹田津","koaza":"","lat":33.666795,"lng":131.557033,"zip":"8721321"},{"town":"国見町中","koaza":"","lat":33.673919,"lng":131.588912,"zip":"8721402"},{"town":"国見町野田","koaza":"","lat":33.654447,"lng":131.589911,"zip":"8721403"},{"town":"国見町向田","koaza":"","lat":33.646091,"lng":131.664362,"zip":"8721611"},{"town":"武蔵町麻田","koaza":"","lat":33.528865,"lng":131.680826,"zip":"8730405"},{"town":"武蔵町池ノ内","koaza":"","lat":33.519733,"lng":131.713381,"zip":"8730401"},{"town":"武蔵町糸原","koaza":"","lat":33.488655,"lng":131.724414,"zip":"8730421"},{"town":"武蔵町内田","koaza":"","lat":33.513962,"lng":131.71001,"zip":"8730402"},{"town":"武蔵町小城","koaza":"","lat":33.486713,"lng":131.710132,"zip":"8730422"},{"town":"武蔵町向陽台","koaza":"","lat":33.481338,"lng":131.712364,"zip":"8730432"},{"town":"武蔵町志和利","koaza":"","lat":33.50479,"lng":131.682367,"zip":"8730424"},{"town":"武蔵町手野","koaza":"","lat":33.514237,"lng":131.688643,"zip":"8730414"},{"town":"武蔵町成吉","koaza":"","lat":33.509334,"lng":131.703162,"zip":"8730404"},{"town":"武蔵町狭間","koaza":"","lat":33.543769,"lng":131.663275,"zip":"8730407"},{"town":"武蔵町古市","koaza":"","lat":33.504347,"lng":131.719946,"zip":"8730412"},{"town":"武蔵町丸小野","koaza":"","lat":33.547489,"lng":131.638438,"zip":"8730406"},{"town":"武蔵町三井寺","koaza":"","lat":33.497214,"lng":131.704267,"zip":"8730423"},{"town":"武蔵町吉広","koaza":"","lat":33.526573,"lng":131.653689,"zip":"8730415"}]