[{"town":"青崎一丁目","koaza":"","lat":33.258456,"lng":131.704054,"zip":"8700278"},{"town":"青崎二丁目","koaza":"","lat":33.257082,"lng":131.709666,"zip":"8700278"},{"town":"青葉台一丁目","koaza":"","lat":33.230211,"lng":131.576574,"zip":"8700875"},{"town":"青葉台二丁目","koaza":"","lat":33.2281,"lng":131.576597,"zip":"8700875"},{"town":"青葉台三丁目","koaza":"","lat":33.228362,"lng":131.572517,"zip":"8700875"},{"town":"青葉台四丁目","koaza":"","lat":33.230307,"lng":131.573825,"zip":"8700875"},{"town":"青葉町","koaza":"","lat":33.252776,"lng":131.627503,"zip":"8700908"},{"town":"明野北一丁目","koaza":"","lat":33.227464,"lng":131.653499,"zip":"8700165"},{"town":"明野北二丁目","koaza":"","lat":33.23245,"lng":131.654036,"zip":"8700165"},{"town":"明野北三丁目","koaza":"","lat":33.231886,"lng":131.657671,"zip":"8700165"},{"town":"明野北四丁目","koaza":"","lat":33.228481,"lng":131.657006,"zip":"8700165"},{"town":"明野北五丁目","koaza":"","lat":33.228728,"lng":131.659521,"zip":"8700165"},{"town":"明野高尾一丁目","koaza":"","lat":33.212934,"lng":131.650871,"zip":"8700162"},{"town":"明野高尾二丁目","koaza":"","lat":33.21376,"lng":131.649684,"zip":"8700162"},{"town":"明野高尾三丁目","koaza":"","lat":33.208837,"lng":131.646839,"zip":"8700162"},{"town":"明野高尾四丁目","koaza":"","lat":33.210568,"lng":131.647139,"zip":"8700162"},{"town":"明野西一丁目","koaza":"","lat":33.227117,"lng":131.649161,"zip":"8700164"},{"town":"明野西二丁目","koaza":"","lat":33.229768,"lng":131.646101,"zip":"8700164"},{"town":"明野東一丁目","koaza":"","lat":33.223141,"lng":131.654367,"zip":"8700161"},{"town":"明野東二丁目","koaza":"","lat":33.222326,"lng":131.657906,"zip":"8700161"},{"town":"明野東三丁目","koaza":"","lat":33.218371,"lng":131.657092,"zip":"8700161"},{"town":"明野東四丁目","koaza":"","lat":33.214689,"lng":131.657583,"zip":"8700161"},{"town":"明野東五丁目","koaza":"","lat":33.217767,"lng":131.660123,"zip":"8700161"},{"town":"明野南一丁目","koaza":"","lat":33.222367,"lng":131.649992,"zip":"8700163"},{"town":"明野南二丁目","koaza":"","lat":33.221558,"lng":131.647126,"zip":"8700163"},{"town":"明野南三丁目","koaza":"","lat":33.218149,"lng":131.652702,"zip":"8700163"},{"town":"曙台一丁目","koaza":"","lat":33.235481,"lng":131.725869,"zip":"8700273"},{"town":"曙台二丁目","koaza":"","lat":33.235379,"lng":131.727862,"zip":"8700273"},{"town":"曙台三丁目","koaza":"","lat":33.233889,"lng":131.729003,"zip":"8700273"},{"town":"曙台四丁目","koaza":"","lat":33.235672,"lng":131.729287,"zip":"8700273"},{"town":"生石一丁目","koaza":"","lat":33.243569,"lng":131.586607,"zip":"8700003"},{"town":"生石二丁目","koaza":"","lat":33.245011,"lng":131.584668,"zip":"8700003"},{"town":"生石三丁目","koaza":"","lat":33.244639,"lng":131.587344,"zip":"8700003"},{"town":"生石四丁目","koaza":"","lat":33.245603,"lng":131.586056,"zip":"8700003"},{"town":"生石五丁目","koaza":"","lat":33.246622,"lng":131.584754,"zip":"8700003"},{"town":"生石港町一丁目","koaza":"","lat":33.24738,"lng":131.580782,"zip":"8700001"},{"town":"生石港町二丁目","koaza":"","lat":33.248169,"lng":131.581675,"zip":"8700001"},{"town":"泉町","koaza":"","lat":33.249623,"lng":131.612336,"zip":"8700041"},{"town":"今津留一丁目","koaza":"","lat":33.242253,"lng":131.622957,"zip":"8700938"},{"town":"今津留二丁目","koaza":"","lat":33.243014,"lng":131.625365,"zip":"8700938"},{"town":"今津留三丁目","koaza":"","lat":33.243302,"lng":131.62704,"zip":"8700938"},{"town":"岩田町一丁目","koaza":"","lat":33.235959,"lng":131.625142,"zip":"8700936"},{"town":"岩田町二丁目","koaza":"","lat":33.236297,"lng":131.627717,"zip":"8700936"},{"town":"岩田町三丁目","koaza":"","lat":33.236755,"lng":131.629352,"zip":"8700936"},{"town":"岩田町四丁目","koaza":"","lat":33.234457,"lng":131.630001,"zip":"8700936"},{"town":"上野丘一丁目","koaza":"","lat":33.224201,"lng":131.605518,"zip":"8700835"},{"town":"上野丘二丁目","koaza":"","lat":33.222447,"lng":131.610636,"zip":"8700835"},{"town":"上野丘西","koaza":"","lat":33.222761,"lng":131.613159,"zip":"8700834"},{"town":"上野丘東","koaza":"","lat":33.222107,"lng":131.615544,"zip":"8700833"},{"town":"上野町","koaza":"","lat":33.227708,"lng":131.61293,"zip":"8700832"},{"town":"恵比寿町","koaza":"","lat":33.238185,"lng":131.748456,"zip":"8700322"},{"town":"王子北町","koaza":"","lat":33.244881,"lng":131.594934,"zip":"8700005"},{"town":"王子新町","koaza":"","lat":33.236917,"lng":131.590867,"zip":"8700819"},{"town":"王子中町","koaza":"","lat":33.242263,"lng":131.594374,"zip":"8700006"},{"town":"王子西町","koaza":"","lat":33.241887,"lng":131.589721,"zip":"8700008"},{"town":"王子町","koaza":"","lat":33.243421,"lng":131.590234,"zip":"8700009"},{"town":"王子港町","koaza":"","lat":33.245436,"lng":131.59,"zip":"8700004"},{"town":"王子南町","koaza":"","lat":33.240556,"lng":131.592823,"zip":"8700007"},{"town":"王子山の手町","koaza":"","lat":33.23706,"lng":131.588037,"zip":"8700813"},{"town":"王ノ瀬一丁目","koaza":"","lat":33.238105,"lng":131.743786,"zip":"8700321"},{"town":"王ノ瀬二丁目","koaza":"","lat":33.24056,"lng":131.746374,"zip":"8700321"},{"town":"大字青崎","koaza":"","lat":33.266041,"lng":131.707968,"zip":"8700100"},{"town":"大字丹川","koaza":"","lat":33.202099,"lng":131.707794,"zip":"8700100"},{"town":"大字安藤","koaza":"","lat":33.123031,"lng":131.563654,"zip":"8700100"},{"town":"大字家島","koaza":"","lat":33.256077,"lng":131.696385,"zip":"8700100"},{"town":"大字生石","koaza":"","lat":33.24398,"lng":131.579956,"zip":"8700100"},{"town":"大字市","koaza":"","lat":33.186522,"lng":131.573724,"zip":"8700100"},{"town":"大字一木","koaza":"","lat":33.226448,"lng":131.720053,"zip":"8700100"},{"town":"大字市尾","koaza":"","lat":33.20303,"lng":131.756196,"zip":"8700100"},{"town":"大字一の洲","koaza":"","lat":33.26691,"lng":131.691777,"zip":"8700100"},{"town":"大字一尺屋","koaza":"","lat":33.205752,"lng":131.851078,"zip":"8700100"},{"town":"大字猪野","koaza":"","lat":33.224843,"lng":131.666078,"zip":"8700100"},{"town":"大字今市","koaza":"","lat":33.111193,"lng":131.45042,"zip":"8700100"},{"town":"大字入蔵","koaza":"","lat":33.139673,"lng":131.54371,"zip":"8700100"},{"town":"大字荏隈","koaza":"","lat":33.214209,"lng":131.58031,"zip":"8700100"},{"town":"大字大分","koaza":"","lat":33.222568,"lng":131.620258,"zip":"8700100"},{"town":"大字大在","koaza":"","lat":33.256929,"lng":131.725955,"zip":"8700100"},{"town":"大字太田","koaza":"","lat":33.147827,"lng":131.485065,"zip":"8700100"},{"town":"大字大津留","koaza":"","lat":33.195096,"lng":131.680451,"zip":"8700100"},{"town":"大字大平","koaza":"","lat":33.233281,"lng":131.820866,"zip":"8700100"},{"town":"大字岡川","koaza":"","lat":33.16486,"lng":131.584347,"zip":"8700100"},{"town":"大字奥","koaza":"","lat":33.112984,"lng":131.687185,"zip":"8700100"},{"town":"大字奥田","koaza":"","lat":33.208139,"lng":131.58929,"zip":"8700100"},{"town":"大字鴛野","koaza":"","lat":33.18673,"lng":131.614907,"zip":"8700100"},{"town":"大字乙津","koaza":"","lat":33.239126,"lng":131.681773,"zip":"8700100"},{"town":"大字小中島","koaza":"","lat":33.248457,"lng":131.700848,"zip":"8700100"},{"town":"大字鬼崎","koaza":"","lat":33.192971,"lng":131.5316,"zip":"8700100"},{"town":"大字海原","koaza":"","lat":33.251777,"lng":131.673665,"zip":"8700100"},{"town":"大字片島","koaza":"","lat":33.202117,"lng":131.639968,"zip":"8700100"},{"town":"大字葛木","koaza":"","lat":33.225099,"lng":131.67247,"zip":"8700100"},{"town":"大字金谷迫","koaza":"","lat":33.228803,"lng":131.562129,"zip":"8700100"},{"town":"大字上詰","koaza":"","lat":33.128041,"lng":131.472456,"zip":"8700100"},{"town":"大字上判田","koaza":"","lat":33.15065,"lng":131.597023,"zip":"8700100"},{"town":"大字上戸次","koaza":"","lat":33.112996,"lng":131.661696,"zip":"8700100"},{"town":"大字河原内","koaza":"","lat":33.116295,"lng":131.603929,"zip":"8700100"},{"town":"大字神崎","koaza":"","lat":33.250095,"lng":131.554647,"zip":"8700100"},{"town":"大字木佐上","koaza":"","lat":33.211424,"lng":131.804764,"zip":"8700100"},{"town":"大字北","koaza":"","lat":33.257735,"lng":131.712136,"zip":"8700100"},{"town":"大字木田","koaza":"","lat":33.206659,"lng":131.7653,"zip":"8700100"},{"town":"大字木上","koaza":"","lat":33.171435,"lng":131.560701,"zip":"8700100"},{"town":"大字口戸","koaza":"","lat":33.166938,"lng":131.571257,"zip":"8700100"},{"town":"大字久土","koaza":"","lat":33.201579,"lng":131.73943,"zip":"8700100"},{"town":"大字久原","koaza":"","lat":33.239313,"lng":131.760504,"zip":"8700100"},{"town":"大字毛井","koaza":"","lat":33.191617,"lng":131.67509,"zip":"8700100"},{"town":"大字小池原","koaza":"","lat":33.236491,"lng":131.663432,"zip":"8700100"},{"town":"大字国分","koaza":"","lat":33.196958,"lng":131.555895,"zip":"8700100"},{"town":"大字坂ノ市","koaza":"","lat":33.240254,"lng":131.75485,"zip":"8700100"},{"town":"大字迫","koaza":"","lat":33.228163,"lng":131.700307,"zip":"8700100"},{"town":"大字里","koaza":"","lat":33.230312,"lng":131.734926,"zip":"8700100"},{"town":"大字佐野","koaza":"","lat":33.198581,"lng":131.729553,"zip":"8700100"},{"town":"大字沢田","koaza":"","lat":33.114462,"lng":131.525604,"zip":"8700100"},{"town":"大字志津留","koaza":"","lat":33.092234,"lng":131.684389,"zip":"8700100"},{"town":"大字志村","koaza":"","lat":33.235839,"lng":131.701406,"zip":"8700100"},{"town":"大字下徳丸","koaza":"","lat":33.208347,"lng":131.688124,"zip":"8700100"},{"town":"大字下原","koaza":"","lat":33.131481,"lng":131.498675,"zip":"8700100"},{"town":"大字下戸次","koaza":"","lat":33.160634,"lng":131.69085,"zip":"8700100"},{"town":"大字下宗方","koaza":"","lat":33.197053,"lng":131.590236,"zip":"8700100"},{"town":"大字志生木","koaza":"","lat":33.230618,"lng":131.846197,"zip":"8700100"},{"town":"大字城原","koaza":"","lat":33.236835,"lng":131.734002,"zip":"8700100"},{"town":"大字杉原","koaza":"","lat":33.123784,"lng":131.683085,"zip":"8700100"},{"town":"大字勢家","koaza":"","lat":33.248508,"lng":131.599892,"zip":"8700100"},{"town":"大字関園","koaza":"","lat":33.216162,"lng":131.694326,"zip":"8700100"},{"town":"大字千歳","koaza":"","lat":33.237537,"lng":131.671934,"zip":"8700100"},{"town":"大字寒田","koaza":"","lat":33.181872,"lng":131.606915,"zip":"8700100"},{"town":"大字高崎","koaza":"","lat":33.254905,"lng":131.525272,"zip":"8700100"},{"town":"大字高瀬","koaza":"","lat":33.176751,"lng":131.575017,"zip":"8700100"},{"town":"大字高原","koaza":"","lat":33.089084,"lng":131.468089,"zip":"8700100"},{"town":"大字竹下","koaza":"","lat":33.244186,"lng":131.741859,"zip":"8700100"},{"town":"大字竹中","koaza":"","lat":33.141125,"lng":131.641339,"zip":"8700100"},{"town":"大字竹矢","koaza":"","lat":33.149867,"lng":131.508409,"zip":"8700100"},{"town":"大字田尻","koaza":"","lat":33.182217,"lng":131.595184,"zip":"8700100"},{"town":"大字種具","koaza":"","lat":33.214785,"lng":131.699826,"zip":"8700100"},{"town":"大字駄原","koaza":"","lat":33.239777,"lng":131.579718,"zip":"8700100"},{"town":"大字田原","koaza":"","lat":33.186472,"lng":131.558963,"zip":"8700100"},{"town":"大字玉沢","koaza":"","lat":33.18956,"lng":131.583537,"zip":"8700100"},{"town":"大字旦野原","koaza":"","lat":33.179035,"lng":131.624857,"zip":"8700100"},{"town":"大字月形","koaza":"","lat":33.104668,"lng":131.700711,"zip":"8700100"},{"town":"大字辻","koaza":"","lat":33.11328,"lng":131.69299,"zip":"8700100"},{"town":"大字辻原","koaza":"","lat":33.143659,"lng":131.522484,"zip":"8700100"},{"town":"大字常行","koaza":"","lat":33.216927,"lng":131.688518,"zip":"8700100"},{"town":"大字角子原","koaza":"","lat":33.238181,"lng":131.709253,"zip":"8700100"},{"town":"大字津守","koaza":"","lat":33.206375,"lng":131.625966,"zip":"8700100"},{"town":"大字鶴崎","koaza":"","lat":33.24843,"lng":131.688194,"zip":"8700100"},{"town":"大字鶴瀬","koaza":"","lat":33.20302,"lng":131.682204,"zip":"8700100"},{"town":"大字中尾","koaza":"","lat":33.205293,"lng":131.552376,"zip":"8700100"},{"town":"大字中ノ洲","koaza":"","lat":33.268464,"lng":131.674406,"zip":"8700100"},{"town":"大字中判田","koaza":"","lat":33.156464,"lng":131.623347,"zip":"8700100"},{"town":"大字中戸次","koaza":"","lat":33.145976,"lng":131.674781,"zip":"8700100"},{"town":"大字荷尾杵","koaza":"","lat":33.099131,"lng":131.489849,"zip":"8700100"},{"town":"大字西明野","koaza":"","lat":33.22765,"lng":131.645276,"zip":"8700100"},{"town":"大字西ノ洲","koaza":"","lat":33.261667,"lng":131.644975,"zip":"8700100"},{"town":"大字丹生","koaza":"","lat":33.219282,"lng":131.711913,"zip":"8700100"},{"town":"大字野田","koaza":"","lat":33.201515,"lng":131.543046,"zip":"8700100"},{"town":"大字野津原","koaza":"","lat":33.163827,"lng":131.52732,"zip":"8700100"},{"town":"大字萩尾","koaza":"","lat":33.114736,"lng":131.67628,"zip":"8700100"},{"town":"大字羽田","koaza":"","lat":33.218017,"lng":131.63197,"zip":"8700100"},{"town":"大字畑中","koaza":"","lat":33.203439,"lng":131.597838,"zip":"8700100"},{"town":"大字端登","koaza":"","lat":33.107946,"lng":131.636222,"zip":"8700100"},{"town":"大字馬場","koaza":"","lat":33.237598,"lng":131.789682,"zip":"8700100"},{"town":"大字浜","koaza":"","lat":33.248113,"lng":131.732345,"zip":"8700100"},{"town":"大字羽屋","koaza":"","lat":33.210637,"lng":131.602078,"zip":"8700100"},{"town":"大字東明野","koaza":"","lat":33.235493,"lng":131.656209,"zip":"8700100"},{"town":"大字東上野","koaza":"","lat":33.222611,"lng":131.776613,"zip":"8700100"},{"town":"大字日吉原","koaza":"","lat":33.246971,"lng":131.76215,"zip":"8700100"},{"town":"大字平横瀬","koaza":"","lat":33.194692,"lng":131.538952,"zip":"8700100"},{"town":"大字広内","koaza":"","lat":33.175341,"lng":131.723048,"zip":"8700100"},{"town":"大字福宗","koaza":"","lat":33.167059,"lng":131.509223,"zip":"8700100"},{"town":"大字福良","koaza":"","lat":33.1335,"lng":131.710038,"zip":"8700100"},{"town":"大字豊饒","koaza":"","lat":33.20857,"lng":131.596829,"zip":"8700100"},{"town":"大字古国府","koaza":"","lat":33.213981,"lng":131.609259,"zip":"8700100"},{"town":"大字細","koaza":"","lat":33.23481,"lng":131.779756,"zip":"8700100"},{"town":"大字本神崎","koaza":"","lat":33.236978,"lng":131.802717,"zip":"8700100"},{"town":"大字曲","koaza":"","lat":33.195278,"lng":131.624466,"zip":"8700100"},{"town":"大字牧","koaza":"","lat":33.234258,"lng":131.646553,"zip":"8700100"},{"town":"大字政所","koaza":"","lat":33.236726,"lng":131.718151,"zip":"8700100"},{"town":"大字丸亀","koaza":"","lat":33.201744,"lng":131.690517,"zip":"8700100"},{"town":"大字三佐","koaza":"","lat":33.25656,"lng":131.683653,"zip":"8700100"},{"town":"大字光吉","koaza":"","lat":33.190649,"lng":131.600962,"zip":"8700100"},{"town":"大字皆春","koaza":"","lat":33.235095,"lng":131.683582,"zip":"8700100"},{"town":"大字南","koaza":"","lat":33.211015,"lng":131.68296,"zip":"8700100"},{"town":"大字宮尾","koaza":"","lat":33.128559,"lng":131.701224,"zip":"8700100"},{"town":"大字宮河内","koaza":"","lat":33.183574,"lng":131.69871,"zip":"8700100"},{"town":"大字宮崎","koaza":"","lat":33.194606,"lng":131.607476,"zip":"8700100"},{"town":"大字三芳","koaza":"","lat":33.227616,"lng":131.590298,"zip":"8700100"},{"town":"大字廻栖野","koaza":"","lat":33.154672,"lng":131.557209,"zip":"8700100"},{"town":"大字森","koaza":"","lat":33.218311,"lng":131.68101,"zip":"8700100"},{"town":"大字森町","koaza":"","lat":33.227882,"lng":131.68253,"zip":"8700100"},{"town":"大字八幡","koaza":"","lat":33.237993,"lng":131.558187,"zip":"8700100"},{"town":"大字屋山","koaza":"","lat":33.203041,"lng":131.74561,"zip":"8700100"},{"town":"大字横尾","koaza":"","lat":33.207722,"lng":131.664017,"zip":"8700100"},{"town":"大字横瀬","koaza":"","lat":33.182096,"lng":131.520244,"zip":"8700100"},{"town":"大字横田","koaza":"","lat":33.254096,"lng":131.719554,"zip":"8700100"},{"town":"大字吉野原","koaza":"","lat":33.131755,"lng":131.691589,"zip":"8700100"},{"town":"大字永興","koaza":"","lat":33.217914,"lng":131.590473,"zip":"8700100"},{"town":"大分流通業務団地一丁目","koaza":"","lat":33.207558,"lng":131.720261,"zip":"8700319"},{"town":"大分流通業務団地二丁目","koaza":"","lat":33.205746,"lng":131.717076,"zip":"8700319"},{"town":"大分流通業務団地三丁目","koaza":"","lat":33.200723,"lng":131.719179,"zip":"8700319"},{"town":"大在北一丁目","koaza":"","lat":33.250585,"lng":131.710646,"zip":"8700245"},{"town":"大在北二丁目","koaza":"","lat":33.250229,"lng":131.714754,"zip":"8700245"},{"town":"大在北三丁目","koaza":"","lat":33.253727,"lng":131.711009,"zip":"8700245"},{"town":"大在北四丁目","koaza":"","lat":33.253517,"lng":131.715235,"zip":"8700245"},{"town":"大在中央一丁目","koaza":"","lat":33.245602,"lng":131.718978,"zip":"8700251"},{"town":"大在中央二丁目","koaza":"","lat":33.244107,"lng":131.723131,"zip":"8700251"},{"town":"大在浜一丁目","koaza":"","lat":33.244572,"lng":131.727956,"zip":"8700252"},{"town":"大在浜二丁目","koaza":"","lat":33.242488,"lng":131.733251,"zip":"8700252"},{"town":"大州浜一丁目","koaza":"","lat":33.249931,"lng":131.630795,"zip":"8700906"},{"town":"大州浜二丁目","koaza":"","lat":33.249706,"lng":131.634344,"zip":"8700906"},{"town":"大津町一丁目","koaza":"","lat":33.248856,"lng":131.622287,"zip":"8700907"},{"town":"大津町二丁目","koaza":"","lat":33.249011,"lng":131.626269,"zip":"8700907"},{"town":"大津町三丁目","koaza":"","lat":33.248859,"lng":131.628293,"zip":"8700907"},{"town":"大手町一丁目","koaza":"","lat":33.2357,"lng":131.613721,"zip":"8700022"},{"town":"大手町二丁目","koaza":"","lat":33.236782,"lng":131.613678,"zip":"8700022"},{"town":"大手町三丁目","koaza":"","lat":33.238235,"lng":131.613524,"zip":"8700022"},{"town":"大道町一丁目","koaza":"","lat":33.2341,"lng":131.601881,"zip":"8700822"},{"town":"大道町二丁目","koaza":"","lat":33.232437,"lng":131.600965,"zip":"8700822"},{"town":"大道町三丁目","koaza":"","lat":33.230851,"lng":131.599794,"zip":"8700822"},{"town":"大道町四丁目","koaza":"","lat":33.229304,"lng":131.598714,"zip":"8700822"},{"town":"大道町五丁目","koaza":"","lat":33.22699,"lng":131.597021,"zip":"8700822"},{"town":"乙津町","koaza":"","lat":33.24086,"lng":131.675238,"zip":"8700145"},{"town":"乙津港町一丁目","koaza":"","lat":33.242391,"lng":131.673386,"zip":"8700146"},{"town":"乙津港町二丁目","koaza":"","lat":33.242068,"lng":131.677281,"zip":"8700146"},{"town":"小中島一丁目","koaza":"","lat":33.24748,"lng":131.698349,"zip":"8700114"},{"town":"小中島二丁目","koaza":"","lat":33.248695,"lng":131.69742,"zip":"8700114"},{"town":"小中島三丁目","koaza":"","lat":33.248117,"lng":131.695655,"zip":"8700114"},{"town":"小野鶴南一丁目","koaza":"","lat":33.195073,"lng":131.562454,"zip":"8701150"},{"town":"小野鶴南二丁目","koaza":"","lat":33.193221,"lng":131.56245,"zip":"8701150"},{"town":"賀来北一丁目","koaza":"","lat":33.214588,"lng":131.572391,"zip":"8700848"},{"town":"賀来北三丁目","koaza":"","lat":33.212946,"lng":131.56338,"zip":"8700848"},{"town":"賀来南一丁目","koaza":"","lat":33.211169,"lng":131.569017,"zip":"8700849"},{"town":"賀来南二丁目","koaza":"","lat":33.210808,"lng":131.562319,"zip":"8700849"},{"town":"かたしま台一丁目","koaza":"","lat":33.213067,"lng":131.64015,"zip":"8700949"},{"town":"かたしま台二丁目","koaza":"","lat":33.211116,"lng":131.641148,"zip":"8700949"},{"town":"かたしま台三丁目","koaza":"","lat":33.210782,"lng":131.638494,"zip":"8700949"},{"town":"金池町一丁目","koaza":"","lat":33.232495,"lng":131.609894,"zip":"8700026"},{"town":"金池町二丁目","koaza":"","lat":33.233625,"lng":131.610548,"zip":"8700026"},{"town":"金池町三丁目","koaza":"","lat":33.233554,"lng":131.613128,"zip":"8700026"},{"town":"金池町四丁目","koaza":"","lat":33.233534,"lng":131.615041,"zip":"8700026"},{"town":"金池町五丁目","koaza":"","lat":33.233559,"lng":131.616628,"zip":"8700026"},{"town":"金池南一丁目","koaza":"","lat":33.229973,"lng":131.606434,"zip":"8700839"},{"town":"金池南二丁目","koaza":"","lat":33.228307,"lng":131.60975,"zip":"8700839"},{"town":"要町","koaza":"","lat":33.232018,"lng":131.608081,"zip":"8700831"},{"town":"北鶴崎一丁目","koaza":"","lat":33.242021,"lng":131.689573,"zip":"8700102"},{"town":"北鶴崎二丁目","koaza":"","lat":33.241694,"lng":131.692803,"zip":"8700102"},{"town":"季の坂一丁目","koaza":"","lat":33.227505,"lng":131.58797,"zip":"8700870"},{"town":"季の坂二丁目","koaza":"","lat":33.227538,"lng":131.586602,"zip":"8700870"},{"town":"季の坂三丁目","koaza":"","lat":33.229164,"lng":131.586113,"zip":"8700870"},{"town":"希望が丘一丁目","koaza":"","lat":33.233608,"lng":131.641155,"zip":"8700959"},{"town":"希望が丘二丁目","koaza":"","lat":33.230084,"lng":131.641965,"zip":"8700959"},{"town":"久原北","koaza":"","lat":33.239187,"lng":131.753865,"zip":"8700324"},{"town":"久原中央一丁目","koaza":"","lat":33.236484,"lng":131.756303,"zip":"8700325"},{"town":"久原中央二丁目","koaza":"","lat":33.236632,"lng":131.75969,"zip":"8700325"},{"town":"久原中央三丁目","koaza":"","lat":33.236832,"lng":131.762528,"zip":"8700325"},{"town":"久原中央四丁目","koaza":"","lat":33.237254,"lng":131.765402,"zip":"8700325"},{"town":"久原南一丁目","koaza":"","lat":33.233413,"lng":131.759172,"zip":"8700326"},{"town":"久原南二丁目","koaza":"","lat":33.235135,"lng":131.762626,"zip":"8700326"},{"town":"けやき台一丁目","koaza":"","lat":33.156075,"lng":131.671571,"zip":"8797762"},{"town":"けやき台二丁目","koaza":"","lat":33.15343,"lng":131.672476,"zip":"8797762"},{"town":"けやき台三丁目","koaza":"","lat":33.155052,"lng":131.674412,"zip":"8797762"},{"town":"けやき台四丁目","koaza":"","lat":33.153104,"lng":131.67634,"zip":"8797762"},{"town":"顕徳町一丁目","koaza":"","lat":33.230882,"lng":131.61304,"zip":"8700025"},{"town":"顕徳町二丁目","koaza":"","lat":33.23064,"lng":131.614964,"zip":"8700025"},{"town":"顕徳町三丁目","koaza":"","lat":33.230672,"lng":131.617177,"zip":"8700025"},{"town":"公園通り一丁目","koaza":"","lat":33.188917,"lng":131.655116,"zip":"8700173"},{"town":"公園通り二丁目","koaza":"","lat":33.191929,"lng":131.65995,"zip":"8700173"},{"town":"公園通り三丁目","koaza":"","lat":33.188943,"lng":131.65826,"zip":"8700173"},{"town":"公園通り四丁目","koaza":"","lat":33.191265,"lng":131.662168,"zip":"8700173"},{"town":"公園通り五丁目","koaza":"","lat":33.186265,"lng":131.656278,"zip":"8700173"},{"town":"公園通り西一丁目","koaza":"","lat":33.192814,"lng":131.657513,"zip":"8700174"},{"town":"公園通り西二丁目","koaza":"","lat":33.194973,"lng":131.658047,"zip":"8700174"},{"town":"古ケ鶴一丁目","koaza":"","lat":33.239012,"lng":131.631839,"zip":"8700935"},{"town":"古ケ鶴二丁目","koaza":"","lat":33.236821,"lng":131.631549,"zip":"8700935"},{"town":"国分新町","koaza":"","lat":33.196278,"lng":131.547555,"zip":"8700869"},{"town":"小佐井一丁目","koaza":"","lat":33.229553,"lng":131.744334,"zip":"8700327"},{"town":"小佐井二丁目","koaza":"","lat":33.22611,"lng":131.746603,"zip":"8700327"},{"town":"小佐井三丁目","koaza":"","lat":33.224431,"lng":131.747564,"zip":"8700327"},{"town":"寿町","koaza":"","lat":33.240725,"lng":131.601673,"zip":"8700036"},{"town":"坂ノ市中央一丁目","koaza":"","lat":33.236222,"lng":131.7509,"zip":"8700307"},{"town":"坂ノ市中央二丁目","koaza":"","lat":33.234345,"lng":131.746233,"zip":"8700307"},{"town":"坂ノ市中央三丁目","koaza":"","lat":33.233732,"lng":131.749929,"zip":"8700307"},{"town":"坂ノ市中央四丁目","koaza":"","lat":33.233477,"lng":131.753287,"zip":"8700307"},{"town":"坂ノ市中央五丁目","koaza":"","lat":33.23327,"lng":131.756007,"zip":"8700307"},{"town":"坂ノ市西一丁目","koaza":"","lat":33.23049,"lng":131.746881,"zip":"8700309"},{"town":"坂ノ市西二丁目","koaza":"","lat":33.226814,"lng":131.748811,"zip":"8700309"},{"town":"坂ノ市南一丁目","koaza":"","lat":33.230923,"lng":131.749549,"zip":"8700308"},{"town":"坂ノ市南二丁目","koaza":"","lat":33.228455,"lng":131.750835,"zip":"8700308"},{"town":"坂ノ市南三丁目","koaza":"","lat":33.229901,"lng":131.753342,"zip":"8700308"},{"town":"坂ノ市南四丁目","koaza":"","lat":33.230282,"lng":131.756831,"zip":"8700308"},{"town":"桜ケ丘","koaza":"","lat":33.226693,"lng":131.604917,"zip":"8700838"},{"town":"里一丁目","koaza":"","lat":33.236788,"lng":131.742203,"zip":"8700303"},{"town":"里二丁目","koaza":"","lat":33.234781,"lng":131.743275,"zip":"8700303"},{"town":"里三丁目","koaza":"","lat":33.232174,"lng":131.743107,"zip":"8700303"},{"town":"汐見一丁目","koaza":"","lat":33.247161,"lng":131.729557,"zip":"8700253"},{"town":"汐見二丁目","koaza":"","lat":33.244858,"lng":131.734844,"zip":"8700253"},{"town":"敷戸北町","koaza":"","lat":33.190515,"lng":131.623933,"zip":"8701101"},{"town":"敷戸新町","koaza":"","lat":33.185588,"lng":131.620172,"zip":"8701102"},{"town":"敷戸台一丁目","koaza":"","lat":33.189181,"lng":131.616489,"zip":"8701106"},{"town":"敷戸台二丁目","koaza":"","lat":33.189317,"lng":131.618656,"zip":"8701106"},{"town":"敷戸西町","koaza":"","lat":33.188219,"lng":131.621604,"zip":"8701103"},{"town":"敷戸東町","koaza":"","lat":33.187944,"lng":131.626468,"zip":"8701104"},{"town":"敷戸南町","koaza":"","lat":33.185532,"lng":131.623906,"zip":"8701105"},{"town":"志村一丁目","koaza":"","lat":33.240517,"lng":131.701256,"zip":"8700261"},{"town":"志村二丁目","koaza":"","lat":33.241911,"lng":131.704444,"zip":"8700261"},{"town":"下郡北一丁目","koaza":"","lat":33.229401,"lng":131.628119,"zip":"8700952"},{"town":"下郡北二丁目","koaza":"","lat":33.228782,"lng":131.63025,"zip":"8700952"},{"town":"下郡北三丁目","koaza":"","lat":33.229537,"lng":131.633191,"zip":"8700952"},{"town":"下郡中央一丁目","koaza":"","lat":33.226129,"lng":131.630659,"zip":"8700954"},{"town":"下郡中央二丁目","koaza":"","lat":33.225945,"lng":131.633402,"zip":"8700954"},{"town":"下郡中央三丁目","koaza":"","lat":33.225864,"lng":131.636666,"zip":"8700954"},{"town":"下郡東一丁目","koaza":"","lat":33.229464,"lng":131.636218,"zip":"8700953"},{"town":"下郡東二丁目","koaza":"","lat":33.227133,"lng":131.638282,"zip":"8700953"},{"town":"下郡南一丁目","koaza":"","lat":33.223194,"lng":131.630117,"zip":"8700955"},{"town":"下郡南二丁目","koaza":"","lat":33.223037,"lng":131.631172,"zip":"8700955"},{"town":"下郡南三丁目","koaza":"","lat":33.223523,"lng":131.633305,"zip":"8700955"},{"town":"下郡南四丁目","koaza":"","lat":33.221345,"lng":131.633587,"zip":"8700955"},{"town":"庄境","koaza":"","lat":33.242238,"lng":131.707,"zip":"8700241"},{"town":"城東町","koaza":"","lat":33.242006,"lng":131.648355,"zip":"8700922"},{"town":"城崎町一丁目","koaza":"","lat":33.239951,"lng":131.614362,"zip":"8700045"},{"town":"城崎町二丁目","koaza":"","lat":33.241236,"lng":131.613983,"zip":"8700045"},{"town":"城崎町三丁目","koaza":"","lat":33.242215,"lng":131.613528,"zip":"8700045"},{"town":"新貝","koaza":"","lat":33.248558,"lng":131.647032,"zip":"8700911"},{"town":"新春日町一丁目","koaza":"","lat":33.23315,"lng":131.593724,"zip":"8700818"},{"town":"新春日町二丁目","koaza":"","lat":33.233555,"lng":131.590106,"zip":"8700818"},{"town":"新川町一丁目","koaza":"","lat":33.247796,"lng":131.608374,"zip":"8700016"},{"town":"新川町二丁目","koaza":"","lat":33.250809,"lng":131.607607,"zip":"8700016"},{"town":"新栄町","koaza":"","lat":33.244562,"lng":131.647751,"zip":"8700919"},{"town":"新町","koaza":"","lat":33.237324,"lng":131.599855,"zip":"8700028"},{"town":"末広町一丁目","koaza":"","lat":33.234796,"lng":131.605464,"zip":"8700027"},{"town":"末広町二丁目","koaza":"","lat":33.23553,"lng":131.602705,"zip":"8700027"},{"town":"須賀一丁目","koaza":"","lat":33.245701,"lng":131.703263,"zip":"8700244"},{"town":"須賀二丁目","koaza":"","lat":33.252315,"lng":131.705023,"zip":"8700244"},{"town":"住吉町一丁目","koaza":"","lat":33.245031,"lng":131.603959,"zip":"8700032"},{"town":"住吉町二丁目","koaza":"","lat":33.244815,"lng":131.602751,"zip":"8700032"},{"town":"勢家町一丁目","koaza":"","lat":33.243125,"lng":131.600794,"zip":"8700031"},{"town":"勢家町二丁目","koaza":"","lat":33.245065,"lng":131.601565,"zip":"8700031"},{"town":"勢家町三丁目","koaza":"","lat":33.244372,"lng":131.599817,"zip":"8700031"},{"town":"勢家町四丁目","koaza":"","lat":33.245008,"lng":131.59842,"zip":"8700031"},{"town":"星和台一丁目","koaza":"","lat":33.19255,"lng":131.61846,"zip":"8701114"},{"town":"星和台二丁目","koaza":"","lat":33.191934,"lng":131.6205,"zip":"8701114"},{"town":"碩田町一丁目","koaza":"","lat":33.246489,"lng":131.609513,"zip":"8700048"},{"town":"碩田町二丁目","koaza":"","lat":33.247156,"lng":131.611341,"zip":"8700048"},{"town":"碩田町三丁目","koaza":"","lat":33.247439,"lng":131.613931,"zip":"8700048"},{"town":"高江北一丁目","koaza":"","lat":33.170926,"lng":131.617486,"zip":"8701119"},{"town":"高江北二丁目","koaza":"","lat":33.169623,"lng":131.615125,"zip":"8701119"},{"town":"高江中央一丁目","koaza":"","lat":33.166023,"lng":131.620354,"zip":"8701116"},{"town":"高江中央二丁目","koaza":"","lat":33.166263,"lng":131.614976,"zip":"8701116"},{"town":"高江中央三丁目","koaza":"","lat":33.166624,"lng":131.612323,"zip":"8701116"},{"town":"高江西一丁目","koaza":"","lat":33.16491,"lng":131.610536,"zip":"8701117"},{"town":"高江西二丁目","koaza":"","lat":33.158769,"lng":131.611431,"zip":"8701117"},{"town":"高江南一丁目","koaza":"","lat":33.163629,"lng":131.62022,"zip":"8701118"},{"town":"高江南二丁目","koaza":"","lat":33.162766,"lng":131.616211,"zip":"8701118"},{"town":"高江南三丁目","koaza":"","lat":33.161843,"lng":131.613139,"zip":"8701118"},{"town":"高尾台一丁目","koaza":"","lat":33.234075,"lng":131.586096,"zip":"8700873"},{"town":"高尾台二丁目","koaza":"","lat":33.233487,"lng":131.58411,"zip":"8700873"},{"town":"高崎一丁目","koaza":"","lat":33.23395,"lng":131.582802,"zip":"8700872"},{"town":"高崎二丁目","koaza":"","lat":33.236482,"lng":131.579341,"zip":"8700872"},{"town":"高崎三丁目","koaza":"","lat":33.233367,"lng":131.580608,"zip":"8700872"},{"town":"高崎四丁目","koaza":"","lat":33.233048,"lng":131.578022,"zip":"8700872"},{"town":"高砂町","koaza":"","lat":33.238053,"lng":131.601425,"zip":"8700029"},{"town":"高城新町","koaza":"","lat":33.242824,"lng":131.652757,"zip":"8700156"},{"town":"高城西町","koaza":"","lat":33.24071,"lng":131.650795,"zip":"8700923"},{"town":"高城本町","koaza":"","lat":33.243816,"lng":131.65697,"zip":"8700157"},{"town":"高城南町","koaza":"","lat":33.242502,"lng":131.657547,"zip":"8700155"},{"town":"高松一丁目","koaza":"","lat":33.245845,"lng":131.655095,"zip":"8700917"},{"town":"高松二丁目","koaza":"","lat":33.246107,"lng":131.656886,"zip":"8700917"},{"town":"高松東一丁目","koaza":"","lat":33.246319,"lng":131.658386,"zip":"8700916"},{"town":"高松東二丁目","koaza":"","lat":33.24659,"lng":131.660119,"zip":"8700916"},{"town":"高松東三丁目","koaza":"","lat":33.247432,"lng":131.662381,"zip":"8700916"},{"town":"竹下一丁目","koaza":"","lat":33.242467,"lng":131.726387,"zip":"8700265"},{"town":"竹下二丁目","koaza":"","lat":33.240899,"lng":131.730955,"zip":"8700265"},{"town":"田尻グリーンハイツ","koaza":"","lat":33.181335,"lng":131.58658,"zip":"8700100"},{"town":"田室町","koaza":"","lat":33.234782,"lng":131.598559,"zip":"8700816"},{"town":"中央町一丁目","koaza":"","lat":33.236795,"lng":131.606979,"zip":"8700035"},{"town":"中央町二丁目","koaza":"","lat":33.237011,"lng":131.605817,"zip":"8700035"},{"town":"中央町三丁目","koaza":"","lat":33.237565,"lng":131.604299,"zip":"8700035"},{"town":"中央町四丁目","koaza":"","lat":33.237783,"lng":131.603017,"zip":"8700035"},{"town":"千代町一丁目","koaza":"","lat":33.243678,"lng":131.606754,"zip":"8700033"},{"town":"千代町二丁目","koaza":"","lat":33.243655,"lng":131.60581,"zip":"8700033"},{"town":"千代町三丁目","koaza":"","lat":33.243677,"lng":131.604478,"zip":"8700033"},{"town":"千代町四丁目","koaza":"","lat":33.24362,"lng":131.603345,"zip":"8700033"},{"town":"角子原一丁目","koaza":"","lat":33.24746,"lng":131.710171,"zip":"8700271"},{"town":"角子原二丁目","koaza":"","lat":33.24759,"lng":131.714364,"zip":"8700271"},{"town":"角子南一丁目","koaza":"","lat":33.24429,"lng":131.70788,"zip":"8700242"},{"town":"角子南二丁目","koaza":"","lat":33.244739,"lng":131.717429,"zip":"8700242"},{"town":"寺崎町一丁目","koaza":"","lat":33.246888,"lng":131.664837,"zip":"8700137"},{"town":"寺崎町二丁目","koaza":"","lat":33.245118,"lng":131.666766,"zip":"8700137"},{"town":"東野台一丁目","koaza":"","lat":33.206877,"lng":131.535177,"zip":"8700867"},{"town":"東野台二丁目","koaza":"","lat":33.208781,"lng":131.539978,"zip":"8700867"},{"town":"東野台三丁目","koaza":"","lat":33.210433,"lng":131.538777,"zip":"8700867"},{"town":"徳島一丁目","koaza":"","lat":33.245125,"lng":131.69502,"zip":"8700109"},{"town":"徳島二丁目","koaza":"","lat":33.243389,"lng":131.695951,"zip":"8700109"},{"town":"徳島三丁目","koaza":"","lat":33.245194,"lng":131.697024,"zip":"8700109"},{"town":"豊海一丁目","koaza":"","lat":33.255556,"lng":131.602609,"zip":"8700018"},{"town":"豊海二丁目","koaza":"","lat":33.255892,"lng":131.606267,"zip":"8700018"},{"town":"豊海三丁目","koaza":"","lat":33.256763,"lng":131.608582,"zip":"8700018"},{"town":"豊海四丁目","koaza":"","lat":33.25792,"lng":131.611232,"zip":"8700018"},{"town":"豊海五丁目","koaza":"","lat":33.259185,"lng":131.614965,"zip":"8700018"},{"town":"中春日町","koaza":"","lat":33.238862,"lng":131.59575,"zip":"8700039"},{"town":"中島中央一丁目","koaza":"","lat":33.243242,"lng":131.613763,"zip":"8700049"},{"town":"中島中央二丁目","koaza":"","lat":33.244469,"lng":131.613511,"zip":"8700049"},{"town":"中島中央三丁目","koaza":"","lat":33.245638,"lng":131.613434,"zip":"8700049"},{"town":"中島西一丁目","koaza":"","lat":33.242952,"lng":131.609616,"zip":"8700047"},{"town":"中島西二丁目","koaza":"","lat":33.244069,"lng":131.60949,"zip":"8700047"},{"town":"中島西三丁目","koaza":"","lat":33.245226,"lng":131.609601,"zip":"8700047"},{"town":"中島東一丁目","koaza":"","lat":33.243714,"lng":131.618157,"zip":"8700043"},{"town":"中島東二丁目","koaza":"","lat":33.244869,"lng":131.617901,"zip":"8700043"},{"town":"中島東三丁目","koaza":"","lat":33.246095,"lng":131.617638,"zip":"8700043"},{"town":"中津留一丁目","koaza":"","lat":33.242895,"lng":131.629617,"zip":"8700939"},{"town":"中津留二丁目","koaza":"","lat":33.245014,"lng":131.629003,"zip":"8700939"},{"town":"中鶴崎一丁目","koaza":"","lat":33.241113,"lng":131.689223,"zip":"8700101"},{"town":"中鶴崎二丁目","koaza":"","lat":33.24051,"lng":131.69265,"zip":"8700101"},{"town":"仲西町一丁目","koaza":"","lat":33.242485,"lng":131.662314,"zip":"8700135"},{"town":"仲西町二丁目","koaza":"","lat":33.244432,"lng":131.6622,"zip":"8700135"},{"town":"長浜町一丁目","koaza":"","lat":33.237113,"lng":131.615968,"zip":"8700023"},{"town":"長浜町二丁目","koaza":"","lat":33.237112,"lng":131.61794,"zip":"8700023"},{"town":"長浜町三丁目","koaza":"","lat":33.237326,"lng":131.621053,"zip":"8700023"},{"town":"荷揚町","koaza":"","lat":33.240733,"lng":131.609951,"zip":"8700046"},{"town":"西大道一丁目","koaza":"","lat":33.232421,"lng":131.597288,"zip":"8700820"},{"town":"西大道二丁目","koaza":"","lat":33.230185,"lng":131.595922,"zip":"8700820"},{"town":"西大道三丁目","koaza":"","lat":33.227453,"lng":131.594736,"zip":"8700820"},{"town":"西大道四丁目","koaza":"","lat":33.227449,"lng":131.592856,"zip":"8700820"},{"town":"にじが丘一丁目","koaza":"","lat":33.229222,"lng":131.579343,"zip":"8700874"},{"town":"にじが丘二丁目","koaza":"","lat":33.227737,"lng":131.581495,"zip":"8700874"},{"town":"にじが丘三丁目","koaza":"","lat":33.228264,"lng":131.58435,"zip":"8700874"},{"town":"西春日町","koaza":"","lat":33.240761,"lng":131.596068,"zip":"8700038"},{"town":"錦町一丁目","koaza":"","lat":33.234618,"lng":131.620469,"zip":"8700024"},{"town":"錦町二丁目","koaza":"","lat":33.232866,"lng":131.620625,"zip":"8700024"},{"town":"錦町三丁目","koaza":"","lat":33.230995,"lng":131.621267,"zip":"8700024"},{"town":"西新地一丁目","koaza":"","lat":33.254164,"lng":131.620118,"zip":"8700901"},{"town":"西新地二丁目","koaza":"","lat":33.252076,"lng":131.625418,"zip":"8700901"},{"town":"西鶴崎一丁目","koaza":"","lat":33.241966,"lng":131.685662,"zip":"8700105"},{"town":"西鶴崎二丁目","koaza":"","lat":33.242038,"lng":131.681349,"zip":"8700105"},{"town":"西鶴崎三丁目","koaza":"","lat":33.240085,"lng":131.68497,"zip":"8700105"},{"town":"西浜","koaza":"","lat":33.246351,"lng":131.624799,"zip":"8700931"},{"town":"望みが丘","koaza":"","lat":33.240176,"lng":131.71288,"zip":"8700270"},{"town":"萩原一丁目","koaza":"","lat":33.243753,"lng":131.639205,"zip":"8700921"},{"town":"萩原二丁目","koaza":"","lat":33.247533,"lng":131.63942,"zip":"8700921"},{"town":"萩原三丁目","koaza":"","lat":33.244114,"lng":131.643818,"zip":"8700921"},{"town":"萩原四丁目","koaza":"","lat":33.248076,"lng":131.643107,"zip":"8700921"},{"town":"萩原緑町","koaza":"","lat":33.246003,"lng":131.636891,"zip":"8700100"},{"town":"花江川","koaza":"","lat":33.244865,"lng":131.706207,"zip":"8700243"},{"town":"花高松一丁目","koaza":"","lat":33.249178,"lng":131.663155,"zip":"8700915"},{"town":"花高松二丁目","koaza":"","lat":33.25063,"lng":131.663412,"zip":"8700915"},{"town":"花高松三丁目","koaza":"","lat":33.251978,"lng":131.663647,"zip":"8700915"},{"town":"花津留一丁目","koaza":"","lat":33.244389,"lng":131.632017,"zip":"8700933"},{"town":"花津留二丁目","koaza":"","lat":33.244522,"lng":131.63452,"zip":"8700933"},{"town":"はなの森","koaza":"","lat":33.220104,"lng":131.587933,"zip":"8700880"},{"town":"浜中","koaza":"","lat":33.23929,"lng":131.751936,"zip":"8700323"},{"town":"浜の市一丁目","koaza":"","lat":33.244502,"lng":131.583735,"zip":"8700002"},{"town":"浜の市二丁目","koaza":"","lat":33.246802,"lng":131.582919,"zip":"8700002"},{"town":"原川一丁目","koaza":"","lat":33.254833,"lng":131.66861,"zip":"8700138"},{"town":"原川二丁目","koaza":"","lat":33.255233,"lng":131.671043,"zip":"8700138"},{"town":"原川三丁目","koaza":"","lat":33.258018,"lng":131.670053,"zip":"8700138"},{"town":"原新町","koaza":"","lat":33.249097,"lng":131.651063,"zip":"8700912"},{"town":"日岡一丁目","koaza":"","lat":33.248506,"lng":131.659128,"zip":"8700914"},{"town":"日岡二丁目","koaza":"","lat":33.249883,"lng":131.658884,"zip":"8700914"},{"town":"日岡三丁目","koaza":"","lat":33.251287,"lng":131.658636,"zip":"8700914"},{"town":"東大道一丁目","koaza":"","lat":33.231555,"lng":131.603989,"zip":"8700823"},{"town":"東大道二丁目","koaza":"","lat":33.228854,"lng":131.602566,"zip":"8700823"},{"town":"東大道三丁目","koaza":"","lat":33.227819,"lng":131.600051,"zip":"8700823"},{"town":"東春日町","koaza":"","lat":33.241188,"lng":131.599343,"zip":"8700037"},{"town":"東津留一丁目","koaza":"","lat":33.24081,"lng":131.630269,"zip":"8700934"},{"town":"東津留二丁目","koaza":"","lat":33.241079,"lng":131.633315,"zip":"8700934"},{"town":"東鶴崎一丁目","koaza":"","lat":33.240732,"lng":131.696713,"zip":"8700103"},{"town":"東鶴崎二丁目","koaza":"","lat":33.238562,"lng":131.696255,"zip":"8700103"},{"town":"東鶴崎三丁目","koaza":"","lat":33.23719,"lng":131.695846,"zip":"8700103"},{"town":"東浜一丁目","koaza":"","lat":33.247353,"lng":131.631069,"zip":"8700932"},{"town":"東浜二丁目","koaza":"","lat":33.247791,"lng":131.634624,"zip":"8700932"},{"town":"ひばりケ丘一丁目","koaza":"","lat":33.169143,"lng":131.641259,"zip":"8701115"},{"town":"ひばりケ丘二丁目","koaza":"","lat":33.171057,"lng":131.640042,"zip":"8701115"},{"town":"ひばりケ丘三丁目","koaza":"","lat":33.171877,"lng":131.641249,"zip":"8701115"},{"town":"ひばりケ丘四丁目","koaza":"","lat":33.174743,"lng":131.638844,"zip":"8701115"},{"town":"ひばりケ丘五丁目","koaza":"","lat":33.174776,"lng":131.641078,"zip":"8701115"},{"town":"日吉町","koaza":"","lat":33.245362,"lng":131.651726,"zip":"8700918"},{"town":"藤の台","koaza":"","lat":33.215624,"lng":131.638919,"zip":"8700957"},{"town":"富士見が丘西一丁目","koaza":"","lat":33.181945,"lng":131.541548,"zip":"8701177"},{"town":"富士見が丘西二丁目","koaza":"","lat":33.178881,"lng":131.541595,"zip":"8701177"},{"town":"富士見が丘西三丁目","koaza":"","lat":33.179275,"lng":131.538122,"zip":"8701177"},{"town":"富士見が丘西四丁目","koaza":"","lat":33.175983,"lng":131.538767,"zip":"8701177"},{"town":"富士見が丘東一丁目","koaza":"","lat":33.183429,"lng":131.553512,"zip":"8701176"},{"town":"富士見が丘東二丁目","koaza":"","lat":33.183989,"lng":131.549835,"zip":"8701176"},{"town":"富士見が丘東三丁目","koaza":"","lat":33.181383,"lng":131.549812,"zip":"8701176"},{"town":"富士見が丘東四丁目","koaza":"","lat":33.180138,"lng":131.545442,"zip":"8701176"},{"town":"富士見が丘東五丁目","koaza":"","lat":33.183007,"lng":131.545396,"zip":"8701176"},{"town":"府内町一丁目","koaza":"","lat":33.235638,"lng":131.609734,"zip":"8700021"},{"town":"府内町二丁目","koaza":"","lat":33.236755,"lng":131.609669,"zip":"8700021"},{"town":"府内町三丁目","koaza":"","lat":33.238226,"lng":131.609575,"zip":"8700021"},{"town":"弁天一丁目","koaza":"","lat":33.252387,"lng":131.612958,"zip":"8700017"},{"town":"弁天二丁目","koaza":"","lat":33.253128,"lng":131.610075,"zip":"8700017"},{"town":"弁天三丁目","koaza":"","lat":33.25505,"lng":131.613816,"zip":"8700017"},{"town":"弁天四丁目","koaza":"","lat":33.252466,"lng":131.616173,"zip":"8700017"},{"town":"芳河原台","koaza":"","lat":33.196479,"lng":131.615145,"zip":"8700948"},{"town":"法勝台一丁目","koaza":"","lat":33.227108,"lng":131.660449,"zip":"8700171"},{"town":"法勝台二丁目","koaza":"","lat":33.226985,"lng":131.661501,"zip":"8700171"},{"town":"法勝台三丁目","koaza":"","lat":33.227594,"lng":131.662658,"zip":"8700171"},{"town":"舞鶴町一丁目","koaza":"","lat":33.239841,"lng":131.618891,"zip":"8700044"},{"town":"舞鶴町二丁目","koaza":"","lat":33.241571,"lng":131.618606,"zip":"8700044"},{"town":"舞鶴町三丁目","koaza":"","lat":33.242732,"lng":131.618369,"zip":"8700044"},{"town":"牧一丁目","koaza":"","lat":33.239098,"lng":131.637196,"zip":"8700924"},{"town":"牧二丁目","koaza":"","lat":33.239998,"lng":131.640542,"zip":"8700924"},{"town":"牧三丁目","koaza":"","lat":33.240817,"lng":131.644378,"zip":"8700924"},{"town":"牧上町","koaza":"","lat":33.237848,"lng":131.640978,"zip":"8700925"},{"town":"牧緑町","koaza":"","lat":33.239814,"lng":131.635034,"zip":"8700100"},{"town":"松原町一丁目","koaza":"","lat":33.248022,"lng":131.655424,"zip":"8700913"},{"town":"松原町二丁目","koaza":"","lat":33.249387,"lng":131.655177,"zip":"8700913"},{"town":"松原町三丁目","koaza":"","lat":33.250702,"lng":131.65494,"zip":"8700913"},{"town":"政所一丁目","koaza":"","lat":33.246318,"lng":131.723928,"zip":"8700268"},{"town":"政所二丁目","koaza":"","lat":33.249107,"lng":131.725893,"zip":"8700268"},{"town":"三佐一丁目","koaza":"","lat":33.25243,"lng":131.67708,"zip":"8700108"},{"town":"三佐二丁目","koaza":"","lat":33.248755,"lng":131.675506,"zip":"8700108"},{"town":"三佐三丁目","koaza":"","lat":33.249979,"lng":131.678333,"zip":"8700108"},{"town":"三佐四丁目","koaza":"","lat":33.249608,"lng":131.681514,"zip":"8700108"},{"town":"三佐五丁目","koaza":"","lat":33.25294,"lng":131.681704,"zip":"8700108"},{"town":"三佐六丁目","koaza":"","lat":33.252235,"lng":131.684552,"zip":"8700108"},{"town":"三川上一丁目","koaza":"","lat":33.244909,"lng":131.676559,"zip":"8700143"},{"town":"三川上二丁目","koaza":"","lat":33.244998,"lng":131.673888,"zip":"8700143"},{"town":"三川上三丁目","koaza":"","lat":33.245426,"lng":131.671971,"zip":"8700143"},{"town":"三川上四丁目","koaza":"","lat":33.246498,"lng":131.670848,"zip":"8700143"},{"town":"三川下一丁目","koaza":"","lat":33.248001,"lng":131.667112,"zip":"8700142"},{"town":"三川下二丁目","koaza":"","lat":33.248509,"lng":131.668863,"zip":"8700142"},{"town":"三川下三丁目","koaza":"","lat":33.248837,"lng":131.671263,"zip":"8700142"},{"town":"三川新町一丁目","koaza":"","lat":33.251262,"lng":131.667834,"zip":"8700141"},{"town":"三川新町二丁目","koaza":"","lat":33.251945,"lng":131.671158,"zip":"8700141"},{"town":"緑が丘一丁目","koaza":"","lat":33.188084,"lng":131.529523,"zip":"8701172"},{"town":"緑が丘二丁目","koaza":"","lat":33.186612,"lng":131.528462,"zip":"8701172"},{"town":"緑が丘三丁目","koaza":"","lat":33.183878,"lng":131.532734,"zip":"8701172"},{"town":"緑が丘四丁目","koaza":"","lat":33.182681,"lng":131.528178,"zip":"8701172"},{"town":"緑が丘五丁目","koaza":"","lat":33.182227,"lng":131.525975,"zip":"8701172"},{"town":"南春日町","koaza":"","lat":33.236474,"lng":131.594745,"zip":"8700815"},{"town":"南津留","koaza":"","lat":33.239587,"lng":131.626082,"zip":"8700937"},{"town":"南鶴崎一丁目","koaza":"","lat":33.239735,"lng":131.687761,"zip":"8700104"},{"town":"南鶴崎二丁目","koaza":"","lat":33.239114,"lng":131.689941,"zip":"8700104"},{"town":"南鶴崎三丁目","koaza":"","lat":33.238559,"lng":131.692547,"zip":"8700104"},{"town":"宮河内ハイランド","koaza":"","lat":33.19035,"lng":131.701617,"zip":"8700275"},{"town":"都町一丁目","koaza":"","lat":33.24065,"lng":131.606898,"zip":"8700034"},{"town":"都町二丁目","koaza":"","lat":33.240656,"lng":131.605775,"zip":"8700034"},{"town":"都町三丁目","koaza":"","lat":33.240703,"lng":131.604227,"zip":"8700034"},{"town":"都町四丁目","koaza":"","lat":33.2407,"lng":131.603072,"zip":"8700034"},{"town":"向原沖一丁目","koaza":"","lat":33.255575,"lng":131.661428,"zip":"8700903"},{"town":"向原沖二丁目","koaza":"","lat":33.256145,"lng":131.664305,"zip":"8700903"},{"town":"向原沖三丁目","koaza":"","lat":33.256683,"lng":131.666849,"zip":"8700903"},{"town":"向原西一丁目","koaza":"","lat":33.253483,"lng":131.655707,"zip":"8700905"},{"town":"向原西二丁目","koaza":"","lat":33.253922,"lng":131.658999,"zip":"8700905"},{"town":"向原東一丁目","koaza":"","lat":33.253456,"lng":131.661829,"zip":"8700904"},{"town":"向原東二丁目","koaza":"","lat":33.253908,"lng":131.665402,"zip":"8700904"},{"town":"元町","koaza":"","lat":33.221634,"lng":131.617001,"zip":"8700843"},{"town":"山津町一丁目","koaza":"","lat":33.243007,"lng":131.666289,"zip":"8700136"},{"town":"山津町二丁目","koaza":"","lat":33.242108,"lng":131.669599,"zip":"8700136"},{"town":"豊町一丁目","koaza":"","lat":33.247682,"lng":131.617295,"zip":"8700042"},{"town":"豊町二丁目","koaza":"","lat":33.250106,"lng":131.614523,"zip":"8700042"},{"town":"横田一丁目","koaza":"","lat":33.248814,"lng":131.719019,"zip":"8700263"},{"town":"横田二丁目","koaza":"","lat":33.251849,"lng":131.72002,"zip":"8700263"},{"town":"横塚一丁目","koaza":"","lat":33.240013,"lng":131.739603,"zip":"8700254"},{"town":"横塚二丁目","koaza":"","lat":33.242444,"lng":131.740967,"zip":"8700254"},{"town":"六坊北町","koaza":"","lat":33.227316,"lng":131.616801,"zip":"8700841"},{"town":"六坊南町","koaza":"","lat":33.225789,"lng":131.615979,"zip":"8700842"},{"town":"賀来南三丁目","koaza":"","lat":33.211458,"lng":131.557944,"zip":"8700849"},{"town":"賀来北二丁目","koaza":"","lat":33.214255,"lng":131.567554,"zip":"8700848"},{"town":"賀来西一丁目","koaza":"","lat":33.213063,"lng":131.558465,"zip":"8700850"},{"town":"大字賀来","koaza":"","lat":33.218637,"lng":131.562162,"zip":"8700100"},{"town":"大字東院","koaza":"","lat":33.213456,"lng":131.542539,"zip":"8700100"},{"town":"大字宮苑","koaza":"","lat":33.220191,"lng":131.543125,"zip":"8700100"},{"town":"賀来西二丁目","koaza":"","lat":33.213618,"lng":131.553854,"zip":"8700850"},{"town":"京が丘南三丁目","koaza":"","lat":33.174603,"lng":131.64782,"zip":"8700129"},{"town":"大字小野鶴","koaza":"","lat":33.200401,"lng":131.565941,"zip":"8700100"},{"town":"松が丘一丁目","koaza":"","lat":33.203279,"lng":131.577386,"zip":"8701168"},{"town":"松が丘二丁目","koaza":"","lat":33.200194,"lng":131.573449,"zip":"8701168"},{"town":"松が丘三丁目","koaza":"","lat":33.202323,"lng":131.573292,"zip":"8701168"},{"town":"大字上宗方","koaza":"","lat":33.200106,"lng":131.580675,"zip":"8700100"},{"town":"松が丘四丁目","koaza":"","lat":33.204366,"lng":131.573897,"zip":"8701168"},{"town":"大字佐賀関","koaza":"","lat":33.253565,"lng":131.884078,"zip":"8700100"},{"town":"大字白木","koaza":"","lat":33.229532,"lng":131.867086,"zip":"8700100"},{"town":"京が丘南一丁目","koaza":"","lat":33.176358,"lng":131.648317,"zip":"8700129"},{"town":"京が丘南二丁目","koaza":"","lat":33.174588,"lng":131.649773,"zip":"8700129"},{"town":"大字松岡","koaza":"","lat":33.187019,"lng":131.664943,"zip":"8700100"},{"town":"大字下判田","koaza":"","lat":33.150874,"lng":131.62928,"zip":"8700100"},{"town":"下郡南五丁目","koaza":"","lat":33.222363,"lng":131.636443,"zip":"8700955"},{"town":"下郡山の手","koaza":"","lat":33.221904,"lng":131.639865,"zip":"8700961"},{"town":"大字下郡","koaza":"","lat":33.223272,"lng":131.626065,"zip":"8700100"},{"town":"寒田わかば台","koaza":"","lat":33.190598,"lng":131.611304,"zip":"8701127"},{"town":"判田台東一丁目","koaza":"","lat":33.164457,"lng":131.634823,"zip":"8701108"},{"town":"判田台東二丁目","koaza":"","lat":33.162353,"lng":131.634182,"zip":"8701108"},{"town":"判田台南一丁目","koaza":"","lat":33.159499,"lng":131.630612,"zip":"8701109"},{"town":"判田台南二丁目","koaza":"","lat":33.160748,"lng":131.627153,"zip":"8701109"},{"town":"判田台南三丁目","koaza":"","lat":33.159123,"lng":131.626509,"zip":"8701109"},{"town":"判田台南四丁目","koaza":"","lat":33.159387,"lng":131.623811,"zip":"8701109"},{"town":"判田台北一丁目","koaza":"","lat":33.164782,"lng":131.632481,"zip":"8701126"},{"town":"判田台北二丁目","koaza":"","lat":33.162996,"lng":131.632829,"zip":"8701126"},{"town":"判田台北三丁目","koaza":"","lat":33.161632,"lng":131.631085,"zip":"8701126"},{"town":"判田台北四丁目","koaza":"","lat":33.161957,"lng":131.628354,"zip":"8701126"},{"town":"横尾東町一丁目","koaza":"","lat":33.210976,"lng":131.675828,"zip":"8700130"},{"town":"横尾東町三丁目","koaza":"","lat":33.206184,"lng":131.671305,"zip":"8700130"},{"town":"横尾東町四丁目","koaza":"","lat":33.210768,"lng":131.671688,"zip":"8700130"},{"town":"横尾東町二丁目","koaza":"","lat":33.205818,"lng":131.675521,"zip":"8700130"},{"town":"上宗方南一丁目","koaza":"","lat":33.196002,"lng":131.576889,"zip":"8701167"},{"town":"上宗方南三丁目","koaza":"","lat":33.19383,"lng":131.57483,"zip":"8701167"},{"town":"上宗方南二丁目","koaza":"","lat":33.194626,"lng":131.576212,"zip":"8701167"},{"town":"椿が丘一丁目","koaza":"","lat":33.194237,"lng":131.57045,"zip":"8701166"},{"town":"椿が丘二丁目","koaza":"","lat":33.194502,"lng":131.572262,"zip":"8701166"},{"town":"田尻西","koaza":"","lat":33.179845,"lng":131.582665,"zip":"8701144"},{"town":"田尻中央","koaza":"","lat":33.180292,"lng":131.585627,"zip":"8701130"},{"town":"田尻東","koaza":"","lat":33.180665,"lng":131.588597,"zip":"8701149"},{"town":"田尻北","koaza":"","lat":33.182676,"lng":131.586351,"zip":"8701140"},{"town":"東原一丁目","koaza":"","lat":33.237435,"lng":131.649656,"zip":"8700150"},{"town":"東原三丁目","koaza":"","lat":33.23431,"lng":131.650233,"zip":"8700150"},{"town":"東原二丁目","koaza":"","lat":33.236126,"lng":131.648487,"zip":"8700150"},{"town":"雄城台","koaza":"","lat":33.191725,"lng":131.577885,"zip":"8701165"},{"town":"雄城台中央一丁目","koaza":"","lat":33.192839,"lng":131.573435,"zip":"8701164"},{"town":"雄城台中央二丁目","koaza":"","lat":33.191894,"lng":131.572401,"zip":"8701164"},{"town":"田尻南一丁目","koaza":"","lat":33.17687,"lng":131.585597,"zip":"8701145"},{"town":"田尻南二丁目","koaza":"","lat":33.176207,"lng":131.583284,"zip":"8701145"},{"town":"大字中尾","koaza":"平","lat":33.208518,"lng":131.550557,"zip":"8700100"},{"town":"萌葱台","koaza":"","lat":33.19128,"lng":131.568018,"zip":"8701174"},{"town":"大字木上","koaza":"鉾手","lat":33.185598,"lng":131.569768,"zip":"8700100"},{"town":"大字市","koaza":"池田","lat":33.186212,"lng":131.571636,"zip":"8700100"},{"town":"大道町六丁目","koaza":"","lat":33.223615,"lng":131.595463,"zip":"8700822"},{"town":"大字勢家","koaza":"春日浦","lat":33.248257,"lng":131.599053,"zip":"8700100"},{"town":"大字寒田","koaza":"南町四丁目","lat":33.179518,"lng":131.602591,"zip":"8700100"},{"town":"大字羽屋","koaza":"上田町","lat":33.216132,"lng":131.602199,"zip":"8700100"},{"town":"大字寒田","koaza":"南町三丁目","lat":33.181499,"lng":131.602818,"zip":"8700100"},{"town":"上野","koaza":"","lat":33.22223,"lng":131.606637,"zip":"8700836"},{"town":"大字羽屋","koaza":"銅給","lat":33.216409,"lng":131.603923,"zip":"8700100"},{"town":"大字寒田","koaza":"南町一丁目","lat":33.184796,"lng":131.606344,"zip":"8700100"},{"town":"大字寒田","koaza":"南町二丁目","lat":33.182458,"lng":131.605347,"zip":"8700100"},{"town":"宮崎台二丁目","koaza":"","lat":33.19263,"lng":131.606559,"zip":"8701137"},{"town":"宮崎台一丁目","koaza":"","lat":33.191121,"lng":131.606592,"zip":"8701137"},{"town":"大字寒田","koaza":"北町四丁目","lat":33.188481,"lng":131.606275,"zip":"8700100"},{"town":"大字寒田","koaza":"北町三丁目","lat":33.187585,"lng":131.606785,"zip":"8700100"},{"town":"宮崎台三丁目","koaza":"","lat":33.194618,"lng":131.607214,"zip":"8701137"},{"town":"大字宮崎","koaza":"シテノ下","lat":33.197919,"lng":131.607426,"zip":"8700100"},{"town":"大字寒田","koaza":"北町二丁目","lat":33.189246,"lng":131.609529,"zip":"8700100"},{"town":"大字宮崎","koaza":"天神目","lat":33.197703,"lng":131.609386,"zip":"8700100"},{"town":"大字寒田","koaza":"北町一丁目","lat":33.190852,"lng":131.609047,"zip":"8700100"},{"town":"大字古国府","koaza":"中新田","lat":33.216472,"lng":131.611251,"zip":"8700100"},{"town":"大字古国府","koaza":"上新田","lat":33.213732,"lng":131.611464,"zip":"8700100"},{"town":"敷戸駅北町","koaza":"","lat":33.190432,"lng":131.61472,"zip":"8701107"},{"town":"新明治二丁目","koaza":"","lat":33.221779,"lng":131.660161,"zip":"8700172"},{"town":"新明治一丁目","koaza":"","lat":33.223298,"lng":131.660254,"zip":"8700172"},{"town":"新明治三丁目","koaza":"","lat":33.221068,"lng":131.660813,"zip":"8700172"},{"town":"新明治四丁目","koaza":"","lat":33.219987,"lng":131.661622,"zip":"8700172"},{"town":"新明治五丁目","koaza":"","lat":33.218602,"lng":131.662901,"zip":"8700172"},{"town":"大字海原","koaza":"天神元","lat":33.255713,"lng":131.676968,"zip":"8700100"},{"town":"大字森","koaza":"荒木","lat":33.218432,"lng":131.679411,"zip":"8700100"},{"town":"大字森町","koaza":"花ノ木通","lat":33.227082,"lng":131.68057,"zip":"8700100"},{"town":"大字森","koaza":"嶋ノ下","lat":33.222643,"lng":131.68043,"zip":"8700100"},{"town":"大字森町","koaza":"橋井手通","lat":33.230059,"lng":131.680869,"zip":"8700100"},{"town":"大字種具","koaza":"田代","lat":33.22429,"lng":131.697257,"zip":"8700100"},{"town":"城南北一丁目","koaza":"","lat":null,"lng":null,"zip":null},{"town":"城南北二丁目","koaza":"","lat":null,"lng":null,"zip":null},{"town":"城南西一丁目","koaza":"","lat":null,"lng":null,"zip":null},{"town":"城南西二丁目","koaza":"","lat":null,"lng":null,"zip":null},{"town":"城南東一丁目","koaza":"","lat":null,"lng":null,"zip":null},{"town":"城南東二丁目","koaza":"","lat":null,"lng":null,"zip":null},{"town":"城南南一丁目","koaza":"","lat":null,"lng":null,"zip":null},{"town":"城南南二丁目","koaza":"","lat":null,"lng":null,"zip":null},{"town":"新川西一丁目","koaza":"","lat":null,"lng":null,"zip":null},{"town":"新川西二丁目","koaza":"","lat":null,"lng":null,"zip":null},{"town":"ふじが丘北一丁目","koaza":"","lat":null,"lng":null,"zip":null},{"town":"ふじが丘北二丁目","koaza":"","lat":null,"lng":null,"zip":null},{"town":"ふじが丘西一丁目","koaza":"","lat":null,"lng":null,"zip":null},{"town":"ふじが丘西二丁目","koaza":"","lat":null,"lng":null,"zip":null},{"town":"ふじが丘西三丁目","koaza":"","lat":null,"lng":null,"zip":null},{"town":"ふじが丘東一丁目","koaza":"","lat":null,"lng":null,"zip":null},{"town":"ふじが丘東二丁目","koaza":"","lat":null,"lng":null,"zip":null},{"town":"ふじが丘東三丁目","koaza":"","lat":null,"lng":null,"zip":null},{"town":"ふじが丘南一丁目","koaza":"","lat":null,"lng":null,"zip":null},{"town":"ふじが丘南二丁目","koaza":"","lat":null,"lng":null,"zip":null},{"town":"ふじが丘南三丁目","koaza":"","lat":null,"lng":null,"zip":null},{"town":"ふじが丘山手一丁目","koaza":"","lat":null,"lng":null,"zip":null},{"town":"ふじが丘山手二丁目","koaza":"","lat":null,"lng":null,"zip":null},{"town":"ふじが丘山手三丁目","koaza":"","lat":null,"lng":null,"zip":null}]