[{"town":"安心院町板場","koaza":"","lat":33.374915,"lng":131.380159,"zip":"8720732"},{"town":"安心院町今井","koaza":"","lat":33.393531,"lng":131.345583,"zip":"8720518"},{"town":"安心院町筌ノ口","koaza":"","lat":33.368313,"lng":131.362485,"zip":"8720843"},{"town":"安心院町内川野","koaza":"","lat":33.447826,"lng":131.416615,"zip":"8720654"},{"town":"安心院町有徳原","koaza":"","lat":33.395385,"lng":131.333238,"zip":"8720510"},{"town":"安心院町大見尾","koaza":"","lat":33.419783,"lng":131.419438,"zip":"8720663"},{"town":"安心院町折敷田","koaza":"","lat":33.435563,"lng":131.349411,"zip":"8720522"},{"town":"安心院町尾立","koaza":"","lat":33.402139,"lng":131.388727,"zip":"8720703"},{"town":"安心院町且尾","koaza":"","lat":33.448569,"lng":131.389683,"zip":"8720671"},{"town":"安心院町上市","koaza":"","lat":33.431139,"lng":131.352141,"zip":"8720511"},{"town":"安心院町上内河野","koaza":"","lat":33.36379,"lng":131.351317,"zip":"8720852"},{"town":"安心院町萱籠","koaza":"","lat":33.335733,"lng":131.380802,"zip":"8720723"},{"town":"安心院町川崎","koaza":"","lat":33.395903,"lng":131.384138,"zip":"8720731"},{"town":"安心院町川底","koaza":"","lat":33.387412,"lng":131.33414,"zip":"8720862"},{"town":"安心院町木裳","koaza":"","lat":33.442154,"lng":131.360737,"zip":"8720507"},{"town":"安心院町久井田","koaza":"","lat":33.441673,"lng":131.371273,"zip":"8720674"},{"town":"安心院町口ノ坪","koaza":"","lat":33.422941,"lng":131.395431,"zip":"8720673"},{"town":"安心院町熊","koaza":"","lat":33.469406,"lng":131.385702,"zip":"8720541"},{"town":"安心院町五郎丸","koaza":"","lat":33.385974,"lng":131.397147,"zip":"8720712"},{"town":"安心院町境ノ坪","koaza":"","lat":33.387384,"lng":131.329409,"zip":"8720861"},{"town":"安心院町笹ケ平","koaza":"","lat":33.440935,"lng":131.402754,"zip":"8720661"},{"town":"安心院町佐田","koaza":"","lat":33.447958,"lng":131.3929,"zip":"8720651"},{"town":"安心院町下内河野","koaza":"","lat":33.383844,"lng":131.34779,"zip":"8720842"},{"town":"安心院町下毛","koaza":"","lat":33.438159,"lng":131.352475,"zip":"8720521"},{"town":"安心院町荘","koaza":"","lat":33.431403,"lng":131.369181,"zip":"8720504"},{"town":"安心院町正覚寺","koaza":"","lat":33.47914,"lng":131.408646,"zip":"8720542"},{"town":"安心院町新貝","koaza":"","lat":33.388693,"lng":131.326407,"zip":"8720873"},{"town":"安心院町寒水","koaza":"","lat":33.329833,"lng":131.335554,"zip":"8720854"},{"town":"安心院町村部","koaza":"","lat":33.369172,"lng":131.325505,"zip":"8720863"},{"town":"安心院町大","koaza":"","lat":33.399053,"lng":131.343329,"zip":"8720663"},{"town":"安心院町大佛","koaza":"","lat":33.427775,"lng":131.346905,"zip":"8720523"},{"town":"安心院町畳石","koaza":"","lat":33.360147,"lng":131.339137,"zip":"8720857"},{"town":"安心院町田ノ口","koaza":"","lat":33.4218,"lng":131.33269,"zip":"8720526"},{"town":"安心院町辻","koaza":"","lat":33.431316,"lng":131.337251,"zip":"8720527"},{"town":"安心院町恒松","koaza":"","lat":33.424116,"lng":131.341035,"zip":"8720524"},{"town":"安心院町妻垣","koaza":"","lat":33.416591,"lng":131.367756,"zip":"8720506"},{"town":"安心院町塔尾","koaza":"","lat":33.414486,"lng":131.405223,"zip":"8720664"},{"town":"安心院町戸方","koaza":"","lat":33.426459,"lng":131.377203,"zip":"8720505"},{"town":"安心院町鳥越","koaza":"","lat":33.411308,"lng":131.344315,"zip":"8720514"},{"town":"安心院町中山","koaza":"","lat":33.408691,"lng":131.332223,"zip":"8720525"},{"town":"安心院町楢本","koaza":"","lat":33.415142,"lng":131.382821,"zip":"8720701"},{"town":"安心院町新原","koaza":"","lat":33.439205,"lng":131.36742,"zip":"8720503"},{"town":"安心院町西衲","koaza":"","lat":33.399733,"lng":131.337663,"zip":"8720519"},{"town":"安心院町野山","koaza":"","lat":33.405118,"lng":131.35363,"zip":"8720515"},{"town":"安心院町原","koaza":"","lat":33.452203,"lng":131.362786,"zip":"8720501"},{"town":"安心院町番木","koaza":"","lat":33.37675,"lng":131.324385,"zip":"8720864"},{"town":"安心院町飯田","koaza":"","lat":33.450255,"lng":131.368156,"zip":"8720502"},{"town":"安心院町東恵良","koaza":"","lat":33.409966,"lng":131.385389,"zip":"8720702"},{"town":"安心院町東椎屋","koaza":"","lat":33.360783,"lng":131.387635,"zip":"8720724"},{"town":"安心院町平ケ倉","koaza":"","lat":33.473709,"lng":131.408823,"zip":"8720543"},{"town":"安心院町平山","koaza":"","lat":33.392925,"lng":131.321366,"zip":"8720871"},{"town":"安心院町廣谷","koaza":"","lat":33.436372,"lng":131.396843,"zip":"8720000"},{"town":"安心院町廣連","koaza":"","lat":33.379795,"lng":131.340262,"zip":"8720000"},{"town":"安心院町福貴野","koaza":"","lat":33.344007,"lng":131.32973,"zip":"8720855"},{"town":"安心院町舟板","koaza":"","lat":33.397592,"lng":131.33021,"zip":"8720872"},{"town":"安心院町古市","koaza":"","lat":33.42785,"lng":131.352976,"zip":"8720512"},{"town":"安心院町古川","koaza":"","lat":33.4374,"lng":131.424405,"zip":"8720655"},{"town":"安心院町房ケ畑","koaza":"","lat":33.460541,"lng":131.41691,"zip":"8720653"},{"town":"安心院町佛木","koaza":"","lat":33.379349,"lng":131.327192,"zip":"8720865"},{"town":"安心院町松本","koaza":"","lat":33.393713,"lng":131.369415,"zip":"8720733"},{"town":"安心院町水車","koaza":"","lat":33.372564,"lng":131.340733,"zip":"8720858"},{"town":"安心院町南畑","koaza":"","lat":33.364493,"lng":131.414023,"zip":"8720722"},{"town":"安心院町元","koaza":"","lat":33.349145,"lng":131.344375,"zip":"8720853"},{"town":"安心院町森","koaza":"","lat":33.402986,"lng":131.345681,"zip":"8720516"},{"town":"安心院町矢崎","koaza":"","lat":33.448865,"lng":131.378306,"zip":"8720675"},{"town":"安心院町矢津","koaza":"","lat":33.432135,"lng":131.411926,"zip":"8720662"},{"town":"安心院町矢畑","koaza":"","lat":33.390478,"lng":131.339697,"zip":"8720841"},{"town":"安心院町山蔵","koaza":"","lat":33.455306,"lng":131.405369,"zip":"8720652"},{"town":"安心院町山ノ口","koaza":"","lat":33.351692,"lng":131.326644,"zip":"8720856"},{"town":"安心院町龍王","koaza":"","lat":33.423365,"lng":131.352497,"zip":"8720513"},{"town":"安心院町六郎丸","koaza":"","lat":33.39336,"lng":131.396185,"zip":"8720711"},{"town":"安心院町若林","koaza":"","lat":33.379725,"lng":131.397511,"zip":"8720721"},{"town":"院内町大副","koaza":"","lat":33.425206,"lng":131.317049,"zip":"8720331"},{"town":"院内町大坪","koaza":"","lat":33.377873,"lng":131.303586,"zip":"8720458"},{"town":"院内町岡","koaza":"","lat":33.36452,"lng":131.299166,"zip":"8720457"},{"town":"院内町沖","koaza":"","lat":33.476421,"lng":131.341694,"zip":"8720314"},{"town":"院内町荻迫","koaza":"","lat":33.36919,"lng":131.289514,"zip":"8720482"},{"town":"院内町小坂","koaza":"","lat":33.472578,"lng":131.339262,"zip":"8720316"},{"town":"院内町落狩倉","koaza":"","lat":33.40022,"lng":131.322182,"zip":"8720334"},{"town":"院内町小野川内","koaza":"","lat":33.435978,"lng":131.283906,"zip":"8720324"},{"town":"院内町景平","koaza":"","lat":33.399952,"lng":131.292992,"zip":"8720342"},{"town":"院内町上余","koaza":"","lat":33.374099,"lng":131.306941,"zip":"8720459"},{"town":"院内町上恵良","koaza":"","lat":33.380132,"lng":131.28806,"zip":"8720484"},{"town":"院内町上納持","koaza":"","lat":33.387301,"lng":131.313512,"zip":"8720452"},{"town":"院内町上船木","koaza":"","lat":33.443164,"lng":131.291668,"zip":"8720326"},{"town":"院内町北山","koaza":"","lat":33.474796,"lng":131.353124,"zip":"8720315"},{"town":"院内町櫛野","koaza":"","lat":33.463463,"lng":131.329266,"zip":"8720312"},{"town":"院内町来鉢","koaza":"","lat":33.36663,"lng":131.269013,"zip":"8720466"},{"town":"院内町栗山","koaza":"","lat":33.364866,"lng":131.303292,"zip":"8720456"},{"town":"院内町小稲","koaza":"","lat":33.434508,"lng":131.300308,"zip":"8720325"},{"town":"院内町香下","koaza":"","lat":33.475172,"lng":131.328709,"zip":"8720311"},{"town":"院内町小平","koaza":"","lat":33.352963,"lng":131.303155,"zip":"8720455"},{"town":"院内町五名","koaza":"","lat":33.412862,"lng":131.282604,"zip":"8720321"},{"town":"院内町斎藤","koaza":"","lat":33.402761,"lng":131.307925,"zip":"8720341"},{"town":"院内町下余","koaza":"","lat":33.388216,"lng":131.304647,"zip":"8720451"},{"town":"院内町下恵良","koaza":"","lat":33.38563,"lng":131.294643,"zip":"8720481"},{"town":"院内町下船木","koaza":"","lat":33.445639,"lng":131.304147,"zip":"8720327"},{"town":"院内町定別当","koaza":"","lat":33.396311,"lng":131.239442,"zip":"8720346"},{"town":"院内町新洞","koaza":"","lat":33.481058,"lng":131.337033,"zip":"8720313"},{"town":"院内町副","koaza":"","lat":33.431199,"lng":131.323404,"zip":"8720318"},{"town":"院内町台","koaza":"","lat":33.369204,"lng":131.278756,"zip":"8720461"},{"town":"院内町大門","koaza":"","lat":33.405758,"lng":131.265564,"zip":"8720344"},{"town":"院内町高並","koaza":"","lat":33.448812,"lng":131.316034,"zip":"8720328"},{"town":"院内町滝貞","koaza":"","lat":33.36072,"lng":131.3146,"zip":"8720454"},{"town":"院内町田所","koaza":"","lat":33.371051,"lng":131.243321,"zip":"8720473"},{"town":"院内町田平","koaza":"","lat":33.366361,"lng":131.274383,"zip":"8720465"},{"town":"院内町月俣","koaza":"","lat":33.39441,"lng":131.261183,"zip":"8720345"},{"town":"院内町土岩屋","koaza":"","lat":33.374158,"lng":131.282253,"zip":"8720483"},{"town":"院内町西椎屋","koaza":"","lat":33.368751,"lng":131.263466,"zip":"8720464"},{"town":"院内町温見","koaza":"","lat":33.385943,"lng":131.261936,"zip":"8720471"},{"town":"院内町野地","koaza":"","lat":33.3775,"lng":131.266407,"zip":"8720472"},{"town":"院内町羽馬礼","koaza":"","lat":33.350172,"lng":131.280652,"zip":"8720462"},{"town":"院内町原口","koaza":"","lat":33.414294,"lng":131.311563,"zip":"8720333"},{"town":"院内町日岳","koaza":"","lat":33.42285,"lng":131.269889,"zip":"8720322"},{"town":"院内町平原","koaza":"","lat":33.377167,"lng":131.315077,"zip":"8720453"},{"town":"院内町広瀬","koaza":"","lat":33.458737,"lng":131.342169,"zip":"8720317"},{"town":"院内町二日市","koaza":"","lat":33.442656,"lng":131.333752,"zip":"8720302"},{"town":"院内町御沓","koaza":"","lat":33.444276,"lng":131.331661,"zip":"8720301"},{"town":"院内町宮原","koaza":"","lat":33.401367,"lng":131.283201,"zip":"8720343"},{"town":"院内町山城","koaza":"","lat":33.41839,"lng":131.312959,"zip":"8720332"},{"town":"院内町和田","koaza":"","lat":33.356846,"lng":131.262229,"zip":"8720463"},{"town":"大字青森","koaza":"","lat":33.548374,"lng":131.413775,"zip":"8720000"},{"town":"大字赤尾","koaza":"","lat":33.521764,"lng":131.283432,"zip":"8720000"},{"town":"大字麻生","koaza":"","lat":33.480563,"lng":131.266811,"zip":"8720000"},{"town":"大字荒木","koaza":"","lat":33.552873,"lng":131.339038,"zip":"8720000"},{"town":"大字石田","koaza":"","lat":33.532492,"lng":131.334466,"zip":"8720000"},{"town":"大字出光","koaza":"","lat":33.522569,"lng":131.407995,"zip":"8720000"},{"town":"大字今成","koaza":"","lat":33.507302,"lng":131.296235,"zip":"8720000"},{"town":"大字今仁","koaza":"","lat":33.528775,"lng":131.265762,"zip":"8720000"},{"town":"大字岩崎","koaza":"","lat":33.532974,"lng":131.407593,"zip":"8720000"},{"town":"大字岩保新田","koaza":"","lat":33.570982,"lng":131.401728,"zip":"8720000"},{"town":"大字上田","koaza":"","lat":33.532236,"lng":131.349276,"zip":"8720000"},{"town":"大字江熊","koaza":"","lat":33.517179,"lng":131.419339,"zip":"8720000"},{"town":"大字江須賀","koaza":"","lat":33.561878,"lng":131.360735,"zip":"8720000"},{"town":"大字大塚","koaza":"","lat":33.518977,"lng":131.334046,"zip":"8720000"},{"town":"大字大根川","koaza":"","lat":33.543339,"lng":131.283249,"zip":"8720000"},{"town":"大字乙女新田","koaza":"","lat":33.576171,"lng":131.333279,"zip":"8720000"},{"town":"大字尾永井","koaza":"","lat":33.569292,"lng":131.328366,"zip":"8720000"},{"town":"大字金丸","koaza":"","lat":33.515757,"lng":131.413889,"zip":"8720000"},{"town":"大字金屋","koaza":"","lat":33.559161,"lng":131.37563,"zip":"8720000"},{"town":"大字上乙女","koaza":"","lat":33.562057,"lng":131.338823,"zip":"8720000"},{"town":"大字上敷田","koaza":"","lat":33.549603,"lng":131.286718,"zip":"8720000"},{"town":"大字上庄","koaza":"","lat":33.555361,"lng":131.295872,"zip":"8720000"},{"town":"大字上高","koaza":"","lat":33.543176,"lng":131.313338,"zip":"8720000"},{"town":"大字上高家","koaza":"","lat":33.563615,"lng":131.311528,"zip":"8720000"},{"town":"大字上時枝","koaza":"","lat":33.54716,"lng":131.305306,"zip":"8720000"},{"town":"大字上拝田","koaza":"","lat":33.503994,"lng":131.326789,"zip":"8720000"},{"town":"大字上元重","koaza":"","lat":33.517698,"lng":131.299588,"zip":"8720000"},{"town":"大字辛島","koaza":"","lat":33.529406,"lng":131.340657,"zip":"8720000"},{"town":"大字苅宇田","koaza":"","lat":33.539203,"lng":131.419381,"zip":"8720000"},{"town":"大字川部","koaza":"","lat":33.545045,"lng":131.356532,"zip":"8720000"},{"town":"大字北宇佐","koaza":"","lat":33.529322,"lng":131.365459,"zip":"8720000"},{"town":"大字北鶴田新田","koaza":"","lat":33.563183,"lng":131.41081,"zip":"8720000"},{"town":"大字木内","koaza":"","lat":33.501839,"lng":131.296806,"zip":"8720000"},{"town":"大字木部","koaza":"","lat":33.545776,"lng":131.268977,"zip":"8720000"},{"town":"大字久兵衛新田","koaza":"","lat":33.567218,"lng":131.415837,"zip":"8720000"},{"town":"大字葛原","koaza":"","lat":33.537203,"lng":131.335051,"zip":"8720000"},{"town":"大字黒","koaza":"","lat":33.494251,"lng":131.284419,"zip":"8720000"},{"town":"大字郡中新田","koaza":"","lat":33.572631,"lng":131.356593,"zip":"8720000"},{"town":"大字閤","koaza":"","lat":33.528154,"lng":131.335706,"zip":"8720000"},{"town":"大字小向野","koaza":"","lat":33.517196,"lng":131.358622,"zip":"8720000"},{"town":"大字西木","koaza":"","lat":33.536483,"lng":131.416925,"zip":"8720000"},{"town":"大字佐々礼","koaza":"","lat":33.564661,"lng":131.394248,"zip":"8720000"},{"town":"大字佐野","koaza":"","lat":33.541162,"lng":131.275129,"zip":"8720000"},{"town":"大字猿渡","koaza":"","lat":33.543249,"lng":131.299134,"zip":"8720000"},{"town":"大字芝原","koaza":"","lat":33.539648,"lng":131.342286,"zip":"8720000"},{"town":"大字清水","koaza":"","lat":33.541561,"lng":131.258984,"zip":"8720000"},{"town":"大字下乙女","koaza":"","lat":33.571544,"lng":131.333773,"zip":"8720000"},{"town":"大字下敷田","koaza":"","lat":33.564681,"lng":131.286807,"zip":"8720000"},{"town":"大字下庄","koaza":"","lat":33.571353,"lng":131.293944,"zip":"8720000"},{"town":"大字下高","koaza":"","lat":33.554353,"lng":131.317906,"zip":"8720000"},{"town":"大字下高家","koaza":"","lat":33.574439,"lng":131.31306,"zip":"8720000"},{"town":"大字下時枝","koaza":"","lat":33.558027,"lng":131.305764,"zip":"8720000"},{"town":"大字下拝田","koaza":"","lat":33.508066,"lng":131.330813,"zip":"8720000"},{"town":"大字下元重","koaza":"","lat":33.522048,"lng":131.300191,"zip":"8720000"},{"town":"大字下矢部","koaza":"","lat":33.506869,"lng":131.356167,"zip":"8720000"},{"town":"大字順風新田","koaza":"","lat":33.570373,"lng":131.342848,"zip":"8720000"},{"town":"大字城井","koaza":"","lat":33.545255,"lng":131.33285,"zip":"8720000"},{"town":"大字正覚寺","koaza":"","lat":33.48218,"lng":131.389181,"zip":"8720000"},{"town":"大字末","koaza":"","lat":33.512691,"lng":131.304743,"zip":"8720000"},{"town":"大字住江","koaza":"","lat":33.569678,"lng":131.358999,"zip":"8720000"},{"town":"大字高砂新田","koaza":"","lat":33.570602,"lng":131.348961,"zip":"8720000"},{"town":"大字高森","koaza":"","lat":33.544493,"lng":131.370751,"zip":"8720000"},{"town":"大字嶽ノ首","koaza":"","lat":33.456062,"lng":131.280983,"zip":"8720000"},{"town":"大字富山","koaza":"","lat":33.558117,"lng":131.278408,"zip":"8720000"},{"town":"大字中","koaza":"","lat":33.499474,"lng":131.289345,"zip":"8720000"},{"town":"大字中敷田","koaza":"","lat":33.555113,"lng":131.288211,"zip":"8720000"},{"town":"大字長洲","koaza":"","lat":33.571022,"lng":131.38108,"zip":"8720000"},{"town":"大字中原","koaza":"","lat":33.519034,"lng":131.3385,"zip":"8720000"},{"town":"大字灘","koaza":"","lat":33.449005,"lng":131.280536,"zip":"8720000"},{"town":"大字西大堀","koaza":"","lat":33.553978,"lng":131.388885,"zip":"8720000"},{"town":"大字西高家","koaza":"","lat":33.570472,"lng":131.300358,"zip":"8720000"},{"town":"大字西屋敷","koaza":"","lat":33.503644,"lng":131.429072,"zip":"8720000"},{"town":"大字蜷木","koaza":"","lat":33.54711,"lng":131.390977,"zip":"8720000"},{"town":"大字橋津","koaza":"","lat":33.531653,"lng":131.395652,"zip":"8720000"},{"town":"大字畑田","koaza":"","lat":33.545515,"lng":131.346334,"zip":"8720000"},{"town":"大字浜高家","koaza":"","lat":33.579081,"lng":131.315717,"zip":"8720000"},{"town":"大字日足","koaza":"","lat":33.525505,"lng":131.391547,"zip":"8720000"},{"town":"大字東大堀","koaza":"","lat":33.546108,"lng":131.423543,"zip":"8720000"},{"town":"大字東高家","koaza":"","lat":33.568836,"lng":131.313597,"zip":"8720000"},{"town":"大字樋田","koaza":"","lat":33.524989,"lng":131.343436,"zip":"8720000"},{"town":"大字別府","koaza":"","lat":33.520301,"lng":131.342794,"zip":"8720000"},{"town":"大字法鏡寺","koaza":"","lat":33.527084,"lng":131.345447,"zip":"8720000"},{"town":"大字松崎","koaza":"","lat":33.557113,"lng":131.398713,"zip":"8720000"},{"town":"大字神子山新田","koaza":"","lat":33.573298,"lng":131.365601,"zip":"8720000"},{"town":"大字南宇佐","koaza":"","lat":33.526169,"lng":131.370183,"zip":"8720000"},{"town":"大字南敷田","koaza":"","lat":33.549684,"lng":131.279381,"zip":"8720000"},{"town":"大字南鶴田新田","koaza":"","lat":33.552055,"lng":131.406476,"zip":"8720000"},{"town":"大字宮熊","koaza":"","lat":33.572434,"lng":131.283322,"zip":"8720000"},{"town":"大字森山","koaza":"","lat":33.557517,"lng":131.329569,"zip":"8720000"},{"town":"大字山","koaza":"","lat":33.533211,"lng":131.416584,"zip":"8720000"},{"town":"大字山下","koaza":"","lat":33.531986,"lng":131.296627,"zip":"8720000"},{"town":"大字山袋","koaza":"","lat":33.489139,"lng":131.284827,"zip":"8720000"},{"town":"大字山本","koaza":"","lat":33.509928,"lng":131.327685,"zip":"8720000"},{"town":"大字横田","koaza":"","lat":33.540802,"lng":131.42291,"zip":"8720000"},{"town":"大字吉松","koaza":"","lat":33.542197,"lng":131.322301,"zip":"8720000"},{"town":"大字四日市","koaza":"","lat":33.527448,"lng":131.323372,"zip":"8720000"},{"town":"大字両戒","koaza":"","lat":33.526413,"lng":131.419513,"zip":"8720000"},{"town":"大字和気","koaza":"","lat":33.538034,"lng":131.395496,"zip":"8720000"},{"town":"沖須町一丁目","koaza":"","lat":33.566111,"lng":131.36409,"zip":"8720031"},{"town":"沖須町二丁目","koaza":"","lat":33.567231,"lng":131.3636,"zip":"8720031"},{"town":"沖須町三丁目","koaza":"","lat":33.56842,"lng":131.363369,"zip":"8720031"},{"town":"貴船町一丁目","koaza":"","lat":33.567549,"lng":131.368528,"zip":"8720042"},{"town":"貴船町二丁目","koaza":"","lat":33.568087,"lng":131.367735,"zip":"8720042"},{"town":"子安町一丁目","koaza":"","lat":33.56635,"lng":131.365387,"zip":"8720043"},{"town":"子安町二丁目","koaza":"","lat":33.56731,"lng":131.365133,"zip":"8720043"},{"town":"子安町三丁目","koaza":"","lat":33.567993,"lng":131.365305,"zip":"8720043"},{"town":"子安町四丁目","koaza":"","lat":33.569056,"lng":131.365601,"zip":"8720043"},{"town":"住吉町一丁目","koaza":"","lat":33.565819,"lng":131.361727,"zip":"8720033"},{"town":"住吉町二丁目","koaza":"","lat":33.567177,"lng":131.361875,"zip":"8720033"},{"town":"住吉町三丁目","koaza":"","lat":33.568395,"lng":131.362323,"zip":"8720033"},{"town":"大字山口","koaza":"","lat":33.476463,"lng":131.255243,"zip":"8720000"},{"town":"院内町大重見","koaza":"","lat":33.427664,"lng":131.300809,"zip":"8720323"},{"town":"大字上矢部","koaza":"","lat":33.502393,"lng":131.369838,"zip":"8720000"},{"town":"大字熊","koaza":"","lat":33.472892,"lng":131.383471,"zip":"8720000"},{"town":"大字辛島","koaza":"米丸","lat":33.530074,"lng":131.337637,"zip":"8720000"},{"town":"大字辛島","koaza":"時岡","lat":33.527869,"lng":131.34129,"zip":"8720000"},{"town":"大字長洲","koaza":"藤五郎","lat":33.566755,"lng":131.383938,"zip":"8720000"},{"town":"大字岩崎","koaza":"猫橋","lat":33.535264,"lng":131.404186,"zip":"8720000"},{"town":"大字岩崎","koaza":"北堤","lat":33.534574,"lng":131.405819,"zip":"8720000"},{"town":"大字岩崎","koaza":"御勝田","lat":33.533136,"lng":131.41058,"zip":"8720000"}]