[{"town":"天瀬町赤岩","koaza":"","lat":33.252516,"lng":131.052909,"zip":"8794202"},{"town":"天瀬町五馬市","koaza":"","lat":33.233476,"lng":131.011635,"zip":"8770111"},{"town":"天瀬町出口","koaza":"","lat":33.199841,"lng":131.0205,"zip":"8770114"},{"town":"天瀬町女子畑","koaza":"","lat":33.283882,"lng":130.977711,"zip":"8794123"},{"town":"天瀬町合田","koaza":"","lat":33.267664,"lng":131.002653,"zip":"8794122"},{"town":"天瀬町桜竹","koaza":"","lat":33.24585,"lng":131.020345,"zip":"8794201"},{"town":"天瀬町塚田","koaza":"","lat":33.209227,"lng":131.060359,"zip":"8770113"},{"town":"天瀬町本城","koaza":"","lat":33.234928,"lng":131.059712,"zip":"8770112"},{"town":"天瀬町馬原","koaza":"","lat":33.289413,"lng":131.015959,"zip":"8794121"},{"town":"天瀬町湯山","koaza":"","lat":33.261036,"lng":131.026231,"zip":"8794203"},{"town":"大字有田","koaza":"","lat":33.3394,"lng":130.979674,"zip":"8770000"},{"town":"大字石井","koaza":"","lat":33.308593,"lng":130.908555,"zip":"8770000"},{"town":"大字上野","koaza":"","lat":33.304762,"lng":130.921091,"zip":"8770000"},{"town":"大字内河野","koaza":"","lat":33.296785,"lng":130.888538,"zip":"8770000"},{"town":"大字大肥","koaza":"","lat":33.364155,"lng":130.873395,"zip":"8770000"},{"town":"大字小迫","koaza":"","lat":33.340204,"lng":130.918364,"zip":"8770000"},{"town":"大字小野","koaza":"","lat":33.410831,"lng":130.940355,"zip":"8770000"},{"town":"大字小山","koaza":"","lat":33.273978,"lng":130.892503,"zip":"8770000"},{"town":"大字川下","koaza":"","lat":33.315804,"lng":130.862578,"zip":"8770000"},{"town":"大字北豆田","koaza":"","lat":33.326986,"lng":130.951111,"zip":"8770000"},{"town":"大字求来里","koaza":"","lat":33.314507,"lng":130.963189,"zip":"8770000"},{"town":"大字十二町","koaza":"","lat":33.323115,"lng":130.923391,"zip":"8770000"},{"town":"大字庄手","koaza":"","lat":33.315911,"lng":130.920007,"zip":"8770000"},{"town":"大字高瀬","koaza":"","lat":33.273389,"lng":130.926201,"zip":"8770000"},{"town":"大字竹田","koaza":"","lat":33.310209,"lng":130.944226,"zip":"8770000"},{"town":"大字田島","koaza":"","lat":33.318098,"lng":130.948918,"zip":"8770000"},{"town":"大字鶴河内","koaza":"","lat":33.39333,"lng":130.904557,"zip":"8770000"},{"town":"大字堂尾","koaza":"","lat":33.289159,"lng":130.872667,"zip":"8770000"},{"town":"大字友田","koaza":"","lat":33.321395,"lng":130.891377,"zip":"8770000"},{"town":"大字二串","koaza":"","lat":33.336314,"lng":130.900908,"zip":"8770000"},{"town":"大字西有田","koaza":"","lat":33.346643,"lng":130.958516,"zip":"8770000"},{"town":"大字羽田","koaza":"","lat":33.337796,"lng":131.030728,"zip":"8770000"},{"town":"大字花月","koaza":"","lat":33.386671,"lng":130.984356,"zip":"8770000"},{"town":"大字東有田","koaza":"","lat":33.318007,"lng":131.005397,"zip":"8770000"},{"town":"大字日高","koaza":"","lat":33.299117,"lng":130.962768,"zip":"8770000"},{"town":"大字南豆田","koaza":"","lat":33.32604,"lng":130.930409,"zip":"8770000"},{"town":"大字三和","koaza":"","lat":33.363375,"lng":130.930106,"zip":"8770000"},{"town":"大字山田","koaza":"","lat":33.353127,"lng":130.907905,"zip":"8770000"},{"town":"大字夜明","koaza":"","lat":33.337445,"lng":130.869,"zip":"8770000"},{"town":"大字渡里","koaza":"","lat":33.337846,"lng":130.933454,"zip":"8770000"},{"town":"大山町西大山","koaza":"","lat":33.224725,"lng":130.964523,"zip":"8770201"},{"town":"大山町東大山","koaza":"","lat":33.255998,"lng":130.98456,"zip":"8770202"},{"town":"上城内町","koaza":"","lat":33.326146,"lng":130.943297,"zip":"8770003"},{"town":"上津江町上野田","koaza":"","lat":33.060421,"lng":130.96372,"zip":"8770312"},{"town":"上津江町川原","koaza":"","lat":33.101772,"lng":130.974831,"zip":"8770311"},{"town":"川原町","koaza":"","lat":33.310958,"lng":130.934503,"zip":"8770043"},{"town":"亀山町","koaza":"","lat":33.317693,"lng":130.93058,"zip":"8770045"},{"town":"隈一丁目","koaza":"","lat":33.312342,"lng":130.93177,"zip":"8770044"},{"town":"隈二丁目","koaza":"","lat":33.314632,"lng":130.930937,"zip":"8770044"},{"town":"三本松一丁目","koaza":"","lat":33.320049,"lng":130.934576,"zip":"8770016"},{"town":"三本松二丁目","koaza":"","lat":33.321152,"lng":130.931139,"zip":"8770016"},{"town":"三本松新町","koaza":"","lat":33.323454,"lng":130.93061,"zip":"8770017"},{"town":"下井手町","koaza":"","lat":33.307337,"lng":130.945261,"zip":"8770038"},{"town":"城町一丁目","koaza":"","lat":33.327506,"lng":130.940118,"zip":"8770004"},{"town":"城町二丁目","koaza":"","lat":33.330588,"lng":130.943404,"zip":"8770004"},{"town":"竹田新町","koaza":"","lat":33.311235,"lng":130.937403,"zip":"8770041"},{"town":"田島一丁目","koaza":"","lat":33.315981,"lng":130.941949,"zip":"8770023"},{"town":"田島二丁目","koaza":"","lat":33.320282,"lng":130.942567,"zip":"8770023"},{"town":"田島本町","koaza":"","lat":33.319128,"lng":130.938995,"zip":"8770026"},{"town":"淡窓一丁目","koaza":"","lat":33.322232,"lng":130.938333,"zip":"8770012"},{"town":"淡窓二丁目","koaza":"","lat":33.322801,"lng":130.93392,"zip":"8770012"},{"town":"中央一丁目","koaza":"","lat":33.318227,"lng":130.935927,"zip":"8770015"},{"town":"中央二丁目","koaza":"","lat":33.316579,"lng":130.934395,"zip":"8770015"},{"town":"中城町","koaza":"","lat":33.324693,"lng":130.938256,"zip":"8770011"},{"town":"中津江村合瀬","koaza":"","lat":33.133437,"lng":130.897513,"zip":"8770302"},{"town":"中津江村栃野","koaza":"","lat":33.140299,"lng":130.952581,"zip":"8770301"},{"town":"中本町","koaza":"","lat":33.314624,"lng":130.93316,"zip":"8770047"},{"town":"東町","koaza":"","lat":33.312841,"lng":130.935597,"zip":"8770042"},{"town":"吹上町","koaza":"","lat":33.329828,"lng":130.929204,"zip":"8770083"},{"town":"本庄町","koaza":"","lat":33.318548,"lng":130.932178,"zip":"8770046"},{"town":"本町","koaza":"","lat":33.314665,"lng":130.936169,"zip":"8770014"},{"town":"前津江町赤石","koaza":"","lat":33.197141,"lng":130.942646,"zip":"8770211"},{"town":"前津江町大野","koaza":"","lat":33.21318,"lng":130.918657,"zip":"8770212"},{"town":"前津江町柚木","koaza":"","lat":33.214467,"lng":130.871509,"zip":"8391421"},{"town":"豆田町","koaza":"","lat":33.327597,"lng":130.937024,"zip":"8770005"},{"town":"丸の内町","koaza":"","lat":33.328096,"lng":130.932548,"zip":"8770007"},{"town":"丸山一丁目","koaza":"","lat":33.330246,"lng":130.937315,"zip":"8770008"},{"town":"丸山二丁目","koaza":"","lat":33.332661,"lng":130.93678,"zip":"8770008"},{"town":"港町","koaza":"","lat":33.325521,"lng":130.934088,"zip":"8770006"},{"town":"南元町","koaza":"","lat":33.313535,"lng":130.940115,"zip":"8770024"},{"town":"三芳小渕町","koaza":"","lat":33.304136,"lng":130.948252,"zip":"8770036"},{"town":"元町","koaza":"","lat":33.317465,"lng":130.937877,"zip":"8770013"},{"town":"刃連町","koaza":"","lat":33.309925,"lng":130.951766,"zip":"8770039"},{"town":"若宮町","koaza":"","lat":33.309303,"lng":130.939885,"zip":"8770037"},{"town":"大字友田","koaza":"森ノ木","lat":33.324517,"lng":130.9111,"zip":"8770000"},{"town":"大字友田","koaza":"南友田町","lat":33.324266,"lng":130.912761,"zip":"8770000"},{"town":"大字十二町","koaza":"新治町","lat":33.322852,"lng":130.918421,"zip":"8770000"},{"town":"大字十二町","koaza":"浄明寺","lat":33.320118,"lng":130.929882,"zip":"8770000"},{"town":"大字高瀬","koaza":"銭渕町","lat":33.309699,"lng":130.932581,"zip":"8770000"},{"town":"大字三和","koaza":"長渕","lat":33.352722,"lng":130.953133,"zip":"8770000"}]