[{"town":"追崎","koaza":"","lat":33.720411,"lng":131.634475,"zip":"8721501"},{"town":"達磨","koaza":"","lat":33.721891,"lng":131.640751,"zip":"8721501"},{"town":"南","koaza":"","lat":33.722549,"lng":131.64604,"zip":"8721501"},{"town":"堂ノ下","koaza":"","lat":33.725536,"lng":131.64171,"zip":"8721501"},{"town":"風越","koaza":"","lat":33.728797,"lng":131.644505,"zip":"8721501"},{"town":"北","koaza":"","lat":33.727016,"lng":131.646588,"zip":"8721501"},{"town":"松原","koaza":"","lat":33.724138,"lng":131.650342,"zip":"8721501"},{"town":"用作","koaza":"","lat":33.724686,"lng":131.655384,"zip":"8721501"},{"town":"道佛","koaza":"","lat":33.722631,"lng":131.660043,"zip":"8721501"},{"town":"唐戸","koaza":"","lat":33.729044,"lng":131.662399,"zip":"8721501"},{"town":"迫","koaza":"","lat":33.726769,"lng":131.659029,"zip":"8721501"},{"town":"明石前","koaza":"","lat":33.719946,"lng":131.6664,"zip":"8721501"},{"town":"越地","koaza":"","lat":33.724659,"lng":131.665332,"zip":"8721501"},{"town":"古浜","koaza":"","lat":33.724741,"lng":131.644121,"zip":"8721501"},{"town":"下小屋","koaza":"","lat":33.733921,"lng":131.66218,"zip":"8721501"},{"town":"川尻","koaza":"","lat":33.737758,"lng":131.671032,"zip":"8721501"},{"town":"金","koaza":"","lat":33.735511,"lng":131.679061,"zip":"8721501"},{"town":"深谷","koaza":"","lat":33.733044,"lng":131.671771,"zip":"8721501"},{"town":"両瀬","koaza":"","lat":33.732496,"lng":131.68487,"zip":"8721501"},{"town":"タルミ","koaza":"","lat":33.731592,"lng":131.679061,"zip":"8721501"},{"town":"呉岩","koaza":"","lat":33.728441,"lng":131.678759,"zip":"8721501"},{"town":"板屋","koaza":"","lat":33.726796,"lng":131.674704,"zip":"8721501"},{"town":"瀬丸","koaza":"","lat":33.727619,"lng":131.66788,"zip":"8721501"},{"town":"東大海","koaza":"","lat":33.727975,"lng":131.671525,"zip":"8721501"},{"town":"西大海","koaza":"","lat":33.723481,"lng":131.669798,"zip":"8721501"},{"town":"稲積","koaza":"","lat":33.733313,"lng":131.695864,"zip":"8721501"}]