[{"town":"大字相原","koaza":"","lat":33.399277,"lng":131.56982,"zip":"8730000"},{"town":"大字猪尾","koaza":"","lat":33.405071,"lng":131.614464,"zip":"8730000"},{"town":"大字岩谷","koaza":"","lat":33.465833,"lng":131.604828,"zip":"8730000"},{"town":"大字大内","koaza":"","lat":33.441727,"lng":131.632015,"zip":"8730000"},{"town":"大字大片平","koaza":"","lat":33.439926,"lng":131.564508,"zip":"8730000"},{"town":"大字片野","koaza":"","lat":33.404676,"lng":131.630323,"zip":"8730000"},{"town":"大字鴨川","koaza":"","lat":33.440177,"lng":131.607257,"zip":"8730000"},{"town":"大字狩宿","koaza":"","lat":33.421663,"lng":131.691518,"zip":"8730000"},{"town":"大字杵築","koaza":"","lat":33.41885,"lng":131.622194,"zip":"8730000"},{"town":"大字熊野","koaza":"","lat":33.386472,"lng":131.631834,"zip":"8730000"},{"town":"大字中","koaza":"","lat":33.40727,"lng":131.586959,"zip":"8730000"},{"town":"大字奈多","koaza":"","lat":33.438156,"lng":131.701133,"zip":"8730000"},{"town":"大字馬場尾","koaza":"","lat":33.426476,"lng":131.602072,"zip":"8730000"},{"town":"大字日野","koaza":"","lat":33.398677,"lng":131.5984,"zip":"8730000"},{"town":"大字船部","koaza":"","lat":33.454354,"lng":131.587537,"zip":"8730000"},{"town":"大字本庄","koaza":"","lat":33.418915,"lng":131.590752,"zip":"8730000"},{"town":"大字溝井","koaza":"","lat":33.43499,"lng":131.584028,"zip":"8730000"},{"town":"大字南杵築","koaza":"","lat":33.418333,"lng":131.606743,"zip":"8730000"},{"town":"大字宮司","koaza":"","lat":33.425661,"lng":131.613058,"zip":"8730000"},{"town":"大字守江","koaza":"","lat":33.422371,"lng":131.646727,"zip":"8730000"},{"town":"大字八坂","koaza":"","lat":33.42225,"lng":131.564891,"zip":"8730000"},{"town":"大字横城","koaza":"","lat":33.443268,"lng":131.690606,"zip":"8730000"},{"town":"大田石丸","koaza":"","lat":33.494219,"lng":131.564125,"zip":"8790901"},{"town":"大田小野","koaza":"","lat":33.541991,"lng":131.570499,"zip":"8790904"},{"town":"大田沓掛","koaza":"","lat":33.505717,"lng":131.549463,"zip":"8790902"},{"town":"大田白木原","koaza":"","lat":33.525203,"lng":131.584378,"zip":"8790912"},{"town":"大田永松","koaza":"","lat":33.521729,"lng":131.567148,"zip":"8790903"},{"town":"大田波多方","koaza":"","lat":33.488438,"lng":131.574606,"zip":"8790911"},{"town":"大田俣水","koaza":"","lat":33.493295,"lng":131.591888,"zip":"8730041"},{"town":"山香町大字内河野","koaza":"","lat":33.45749,"lng":131.483998,"zip":"8730000"},{"town":"山香町大字小武","koaza":"","lat":33.455857,"lng":131.541479,"zip":"8730000"},{"town":"山香町大字久木野尾","koaza":"","lat":33.394809,"lng":131.4253,"zip":"8730000"},{"town":"山香町大字倉成","koaza":"","lat":33.459139,"lng":131.51307,"zip":"8730000"},{"town":"山香町大字下","koaza":"","lat":33.477418,"lng":131.503159,"zip":"8730000"},{"town":"山香町大字立石","koaza":"","lat":33.48612,"lng":131.474803,"zip":"8730000"},{"town":"山香町大字野原","koaza":"","lat":33.421693,"lng":131.495687,"zip":"8730000"},{"town":"山香町大字日指","koaza":"","lat":33.418489,"lng":131.46142,"zip":"8730000"},{"town":"山香町大字広瀬","koaza":"","lat":33.417819,"lng":131.527097,"zip":"8730000"},{"town":"山香町大字南畑","koaza":"","lat":33.398681,"lng":131.447235,"zip":"8730000"},{"town":"山香町大字向野","koaza":"","lat":33.503206,"lng":131.456296,"zip":"8730000"},{"town":"山香町大字山浦","koaza":"","lat":33.458142,"lng":131.441568,"zip":"8730000"},{"town":"山香町大字吉野渡","koaza":"","lat":33.465676,"lng":131.464569,"zip":"8730000"},{"town":"大字猪尾","koaza":"徳持","lat":33.405668,"lng":131.611858,"zip":"8730000"},{"town":"大字杵築","koaza":"北浜","lat":33.417328,"lng":131.62998,"zip":"8730000"},{"town":"大字猪尾","koaza":"中島","lat":33.408607,"lng":131.623128,"zip":"8730000"}]