[{"town":"井無田町","koaza":"","lat":33.07498,"lng":131.852412,"zip":"8792445"},{"town":"入船西町","koaza":"","lat":33.080672,"lng":131.853344,"zip":"8792458"},{"town":"入船東町","koaza":"","lat":33.080631,"lng":131.857954,"zip":"8792459"},{"town":"大字網代","koaza":"","lat":33.068152,"lng":131.931181,"zip":"8792400"},{"town":"大字堅浦","koaza":"","lat":33.098507,"lng":131.864117,"zip":"8792400"},{"town":"大字上青江","koaza":"","lat":33.079387,"lng":131.81493,"zip":"8792400"},{"town":"大字下青江","koaza":"","lat":33.071265,"lng":131.849621,"zip":"8792400"},{"town":"大字千怒","koaza":"","lat":33.06359,"lng":131.890315,"zip":"8792400"},{"town":"大字津久見","koaza":"","lat":33.054517,"lng":131.854306,"zip":"8792400"},{"town":"大字徳浦","koaza":"","lat":33.091943,"lng":131.846886,"zip":"8792400"},{"town":"大字長目","koaza":"","lat":33.111838,"lng":131.889629,"zip":"8792400"},{"town":"大字日見","koaza":"","lat":33.068322,"lng":131.904674,"zip":"8792400"},{"town":"大字保戸島","koaza":"","lat":33.104335,"lng":132.010983,"zip":"8792400"},{"town":"大字八戸","koaza":"","lat":33.044878,"lng":131.813628,"zip":"8792400"},{"town":"大字四浦","koaza":"","lat":33.075226,"lng":131.994074,"zip":"8792400"},{"town":"大友町","koaza":"","lat":33.070632,"lng":131.864695,"zip":"8792431"},{"town":"岡町","koaza":"","lat":33.079882,"lng":131.843632,"zip":"8792455"},{"town":"上宮本町","koaza":"","lat":33.07023,"lng":131.859981,"zip":"8792436"},{"town":"合ノ元町","koaza":"","lat":33.086488,"lng":131.854523,"zip":"8792471"},{"town":"小園町","koaza":"","lat":33.075515,"lng":131.843141,"zip":"8792453"},{"town":"地蔵町","koaza":"","lat":33.078133,"lng":131.848922,"zip":"8792454"},{"town":"志手町","koaza":"","lat":33.080151,"lng":131.848417,"zip":"8792457"},{"town":"新町","koaza":"","lat":33.077396,"lng":131.852328,"zip":"8792451"},{"town":"セメント町","koaza":"","lat":33.078006,"lng":131.855391,"zip":"8792443"},{"town":"高洲町","koaza":"","lat":33.075369,"lng":131.866656,"zip":"8792412"},{"town":"立花町","koaza":"","lat":33.064313,"lng":131.857765,"zip":"8792434"},{"town":"中央町","koaza":"","lat":33.074507,"lng":131.862823,"zip":"8792441"},{"town":"徳浦本町","koaza":"","lat":33.092292,"lng":131.849352,"zip":"8792472"},{"town":"徳浦宮町","koaza":"","lat":33.091316,"lng":131.853376,"zip":"8792473"},{"town":"中田町","koaza":"","lat":33.068292,"lng":131.86168,"zip":"8792433"},{"town":"中町","koaza":"","lat":33.079236,"lng":131.841313,"zip":"8792452"},{"town":"文京町","koaza":"","lat":33.067919,"lng":131.864253,"zip":"8792432"},{"town":"港町","koaza":"","lat":33.076879,"lng":131.861533,"zip":"8792442"},{"town":"宮本町","koaza":"","lat":33.072475,"lng":131.86269,"zip":"8792435"},{"town":"元町","koaza":"","lat":33.075278,"lng":131.855181,"zip":"8792444"},{"town":"門前町","koaza":"","lat":33.076468,"lng":131.848969,"zip":"8792456"},{"town":"大字津久見浦","koaza":"","lat":33.073282,"lng":131.872887,"zip":"8792400"},{"town":"岩屋町","koaza":"","lat":33.072047,"lng":131.867786,"zip":"8792411"},{"town":"大字千怒","koaza":"新地","lat":33.074486,"lng":131.889189,"zip":"8792400"}]