[{"town":"庄内町阿蘇野","koaza":"","lat":33.138614,"lng":131.31968,"zip":"8795423"},{"town":"庄内町櫟木","koaza":"","lat":33.196887,"lng":131.468294,"zip":"8795404"},{"town":"庄内町大龍","koaza":"","lat":33.166268,"lng":131.432978,"zip":"8795413"},{"town":"庄内町小挾間","koaza":"","lat":33.22335,"lng":131.446637,"zip":"8795402"},{"town":"庄内町柿原","koaza":"","lat":33.170057,"lng":131.41876,"zip":"8795421"},{"town":"庄内町北大津留","koaza":"","lat":33.23011,"lng":131.434551,"zip":"8795401"},{"town":"庄内町五ケ瀬","koaza":"","lat":33.158604,"lng":131.450964,"zip":"8795412"},{"town":"庄内町庄内原","koaza":"","lat":33.184825,"lng":131.398429,"zip":"8795434"},{"town":"庄内町高岡","koaza":"","lat":33.193583,"lng":131.410213,"zip":"8795433"},{"town":"庄内町龍原","koaza":"","lat":33.164531,"lng":131.467081,"zip":"8795411"},{"town":"庄内町直野内山","koaza":"","lat":33.159948,"lng":131.354933,"zip":"8795424"},{"town":"庄内町中","koaza":"","lat":33.198469,"lng":131.395514,"zip":"8795435"},{"town":"庄内町長野","koaza":"","lat":33.211878,"lng":131.411671,"zip":"8795431"},{"town":"庄内町西","koaza":"","lat":33.193329,"lng":131.37358,"zip":"8795436"},{"town":"庄内町西大津留","koaza":"","lat":33.223109,"lng":131.423555,"zip":"8795408"},{"town":"庄内町西長宝","koaza":"","lat":33.194013,"lng":131.44527,"zip":"8795406"},{"town":"庄内町野畑","koaza":"","lat":33.161606,"lng":131.400151,"zip":"8795422"},{"town":"庄内町畑田","koaza":"","lat":33.192158,"lng":131.430159,"zip":"8795432"},{"town":"庄内町東大津留","koaza":"","lat":33.211656,"lng":131.440552,"zip":"8795403"},{"town":"庄内町東長宝","koaza":"","lat":33.19191,"lng":131.45856,"zip":"8795405"},{"town":"庄内町平石","koaza":"","lat":33.21304,"lng":131.378183,"zip":"8795437"},{"town":"庄内町渕","koaza":"","lat":33.172744,"lng":131.371915,"zip":"8795425"},{"town":"庄内町南大津留","koaza":"","lat":33.204278,"lng":131.43302,"zip":"8795407"},{"town":"挾間町赤野","koaza":"","lat":33.211472,"lng":131.489262,"zip":"8795516"},{"town":"挾間町医大ケ丘一丁目","koaza":"","lat":33.210359,"lng":131.534636,"zip":"8795503"},{"town":"挾間町医大ケ丘二丁目","koaza":"","lat":33.20885,"lng":131.533075,"zip":"8795503"},{"town":"挾間町医大ケ丘三丁目","koaza":"","lat":33.206598,"lng":131.531747,"zip":"8795503"},{"town":"挾間町内成","koaza":"","lat":33.232011,"lng":131.4619,"zip":"8795517"},{"town":"挾間町鬼瀬","koaza":"","lat":33.199824,"lng":131.484098,"zip":"8795521"},{"town":"挾間町鬼崎","koaza":"","lat":33.190387,"lng":131.512097,"zip":"8795501"},{"town":"挾間町小野","koaza":"","lat":33.182934,"lng":131.477012,"zip":"8795522"},{"town":"挾間町北方","koaza":"","lat":33.207137,"lng":131.520046,"zip":"8795518"},{"town":"挾間町来鉢","koaza":"","lat":33.222549,"lng":131.512542,"zip":"8795512"},{"town":"挾間町篠原","koaza":"","lat":33.192178,"lng":131.481213,"zip":"8795523"},{"town":"挾間町下市","koaza":"","lat":33.20193,"lng":131.527548,"zip":"8795504"},{"town":"挾間町高崎","koaza":"","lat":33.233523,"lng":131.53221,"zip":"8795513"},{"town":"挾間町田代","koaza":"","lat":33.222246,"lng":131.490006,"zip":"8795519"},{"town":"挾間町谷","koaza":"","lat":33.180826,"lng":131.500383,"zip":"8795531"},{"town":"挾間町筒口","koaza":"","lat":33.16847,"lng":131.479547,"zip":"8795532"},{"town":"挾間町時松","koaza":"","lat":33.207186,"lng":131.459277,"zip":"8795524"},{"town":"挾間町七蔵司","koaza":"","lat":33.237499,"lng":131.516843,"zip":"8795514"},{"town":"挾間町挾間","koaza":"","lat":33.200085,"lng":131.517008,"zip":"8795506"},{"town":"挾間町古野","koaza":"","lat":33.211458,"lng":131.525145,"zip":"8795511"},{"town":"挾間町朴木","koaza":"","lat":33.22122,"lng":131.466784,"zip":"8795525"},{"town":"挾間町三船","koaza":"","lat":33.219073,"lng":131.528374,"zip":"8795515"},{"town":"挾間町向原","koaza":"","lat":33.201648,"lng":131.498793,"zip":"8795502"},{"town":"湯布院町川上","koaza":"","lat":33.280095,"lng":131.360291,"zip":"8795102"},{"town":"湯布院町川北","koaza":"","lat":33.266659,"lng":131.332608,"zip":"8795114"},{"town":"湯布院町川西","koaza":"","lat":33.235417,"lng":131.302621,"zip":"8795113"},{"town":"湯布院町川南","koaza":"","lat":33.24785,"lng":131.357365,"zip":"8795103"},{"town":"湯布院町下湯平","koaza":"","lat":33.19616,"lng":131.349661,"zip":"8795111"},{"town":"湯布院町塚原","koaza":"","lat":33.30435,"lng":131.38656,"zip":"8795101"},{"town":"湯布院町中川","koaza":"","lat":33.228819,"lng":131.357407,"zip":"8795104"},{"town":"湯布院町湯平","koaza":"","lat":33.187909,"lng":131.321537,"zip":"8795112"}]