[{"town":"大字会々","koaza":"","lat":32.976508,"lng":131.383115,"zip":"8780000"},{"town":"大字穴井迫","koaza":"","lat":32.947429,"lng":131.353048,"zip":"8780000"},{"town":"大字市用","koaza":"","lat":32.96864,"lng":131.343717,"zip":"8780000"},{"town":"大字今","koaza":"","lat":32.963687,"lng":131.284116,"zip":"8780000"},{"town":"大字岩瀬","koaza":"","lat":32.958871,"lng":131.342826,"zip":"8780000"},{"town":"大字岩本","koaza":"","lat":32.924943,"lng":131.354309,"zip":"8780000"},{"town":"大字植木","koaza":"","lat":33.002885,"lng":131.372042,"zip":"8780000"},{"town":"大字枝","koaza":"","lat":33.001504,"lng":131.387782,"zip":"8780000"},{"town":"大字太田","koaza":"","lat":32.920837,"lng":131.38674,"zip":"8780000"},{"town":"大字小川","koaza":"","lat":33.012282,"lng":131.306962,"zip":"8780000"},{"town":"大字小塚","koaza":"","lat":32.960732,"lng":131.255314,"zip":"8780000"},{"town":"大字片ケ瀬","koaza":"","lat":32.960338,"lng":131.40912,"zip":"8780000"},{"town":"大字上坂田","koaza":"","lat":32.990076,"lng":131.315864,"zip":"8780000"},{"town":"大字上畑","koaza":"","lat":32.981076,"lng":131.293129,"zip":"8780000"},{"town":"大字刈小野","koaza":"","lat":32.989564,"lng":131.290615,"zip":"8780000"},{"town":"大字川床","koaza":"","lat":32.963487,"lng":131.314748,"zip":"8780000"},{"town":"大字城原","koaza":"","lat":33.004331,"lng":131.333664,"zip":"8780000"},{"town":"大字君ケ園","koaza":"","lat":32.947068,"lng":131.362545,"zip":"8780000"},{"town":"大字九重野","koaza":"","lat":32.871167,"lng":131.303708,"zip":"8780000"},{"town":"大字久保","koaza":"","lat":32.979386,"lng":131.269306,"zip":"8780000"},{"town":"大字倉木","koaza":"","lat":32.889323,"lng":131.38609,"zip":"8780000"},{"town":"大字神原","koaza":"","lat":32.868488,"lng":131.36405,"zip":"8780000"},{"town":"大字志土知","koaza":"","lat":32.973399,"lng":131.317103,"zip":"8780000"},{"town":"大字下坂田","koaza":"","lat":32.988576,"lng":131.329681,"zip":"8780000"},{"town":"大字下志土知","koaza":"","lat":32.973949,"lng":131.336123,"zip":"8780000"},{"town":"大字菅生","koaza":"","lat":32.953256,"lng":131.286761,"zip":"8780000"},{"town":"大字炭竈","koaza":"","lat":32.984798,"lng":131.310119,"zip":"8780000"},{"town":"大字田井","koaza":"","lat":32.909808,"lng":131.373721,"zip":"8780000"},{"town":"大字高伏","koaza":"","lat":33.009013,"lng":131.352956,"zip":"8780000"},{"town":"大字竹田","koaza":"","lat":32.964492,"lng":131.39592,"zip":"8780000"},{"town":"大字竹田町","koaza":"","lat":32.968281,"lng":131.392868,"zip":"8780000"},{"town":"大字玉来","koaza":"","lat":32.953359,"lng":131.378761,"zip":"8780000"},{"town":"大字次倉","koaza":"","lat":32.904562,"lng":131.343063,"zip":"8780000"},{"town":"大字戸上","koaza":"","lat":32.952816,"lng":131.311385,"zip":"8780000"},{"town":"大字中","koaza":"","lat":33.008523,"lng":131.39814,"zip":"8780000"},{"town":"大字中角","koaza":"","lat":32.883237,"lng":131.340986,"zip":"8780000"},{"town":"大字入田","koaza":"","lat":32.943235,"lng":131.398714,"zip":"8780000"},{"town":"大字拝田原","koaza":"","lat":32.958863,"lng":131.372181,"zip":"8780000"},{"town":"大字挟田","koaza":"","lat":32.984427,"lng":131.409523,"zip":"8780000"},{"town":"大字飛田川","koaza":"","lat":32.966281,"lng":131.376663,"zip":"8780000"},{"town":"大字平田","koaza":"","lat":32.982435,"lng":131.362199,"zip":"8780000"},{"town":"大字福原","koaza":"","lat":33.006386,"lng":131.321204,"zip":"8780000"},{"town":"大字古園","koaza":"","lat":32.999491,"lng":131.3066,"zip":"8780000"},{"town":"大字三宅","koaza":"","lat":32.993787,"lng":131.40958,"zip":"8780000"},{"town":"大字向山田","koaza":"","lat":32.956026,"lng":131.329595,"zip":"8780000"},{"town":"大字門田","koaza":"","lat":32.925013,"lng":131.371331,"zip":"8780000"},{"town":"大字吉田","koaza":"","lat":32.942621,"lng":131.378196,"zip":"8780000"},{"town":"大字米納","koaza":"","lat":32.985091,"lng":131.343759,"zip":"8780000"},{"town":"大字渡瀬","koaza":"","lat":32.942753,"lng":131.339298,"zip":"8780000"},{"town":"荻町瓜作","koaza":"","lat":32.908759,"lng":131.306276,"zip":"8796134"},{"town":"荻町恵良原","koaza":"","lat":32.923976,"lng":131.314173,"zip":"8796113"},{"town":"荻町大平","koaza":"","lat":32.892807,"lng":131.265758,"zip":"8796126"},{"town":"荻町柏原","koaza":"","lat":32.902473,"lng":131.290854,"zip":"8796122"},{"town":"荻町叶野","koaza":"","lat":32.90501,"lng":131.266987,"zip":"8796127"},{"town":"荻町北原","koaza":"","lat":32.916078,"lng":131.304891,"zip":"8796135"},{"town":"荻町木下","koaza":"","lat":32.937102,"lng":131.25427,"zip":"8796101"},{"town":"荻町桑木","koaza":"","lat":32.916398,"lng":131.263862,"zip":"8796121"},{"town":"荻町西福寺","koaza":"","lat":32.9113,"lng":131.31588,"zip":"8796132"},{"town":"荻町鴫田","koaza":"","lat":32.913621,"lng":131.330698,"zip":"8796131"},{"town":"荻町新藤","koaza":"","lat":32.939506,"lng":131.296838,"zip":"8796103"},{"town":"荻町高城","koaza":"","lat":32.932264,"lng":131.320587,"zip":"8796116"},{"town":"荻町高練木","koaza":"","lat":32.913885,"lng":131.285812,"zip":"8796128"},{"town":"荻町田代","koaza":"","lat":32.900681,"lng":131.312827,"zip":"8796133"},{"town":"荻町馬場","koaza":"","lat":32.928362,"lng":131.292126,"zip":"8796115"},{"town":"荻町陽目","koaza":"","lat":32.88811,"lng":131.275534,"zip":"8796124"},{"town":"荻町藤渡","koaza":"","lat":32.927808,"lng":131.273481,"zip":"8796104"},{"town":"荻町仏面","koaza":"","lat":32.899369,"lng":131.276129,"zip":"8796125"},{"town":"荻町馬背野","koaza":"","lat":32.929588,"lng":131.336589,"zip":"8796112"},{"town":"荻町政所","koaza":"","lat":32.942931,"lng":131.280592,"zip":"8796102"},{"town":"荻町南河内","koaza":"","lat":32.942028,"lng":131.318644,"zip":"8796111"},{"town":"荻町宮平","koaza":"","lat":32.899472,"lng":131.301178,"zip":"8796123"},{"town":"久住町大字有氏","koaza":"","lat":33.085928,"lng":131.295864,"zip":"8780000"},{"town":"久住町大字栢木","koaza":"","lat":33.040835,"lng":131.329677,"zip":"8780000"},{"town":"久住町大字久住","koaza":"","lat":33.055795,"lng":131.252319,"zip":"8780000"},{"town":"久住町大字白丹","koaza":"","lat":33.031178,"lng":131.238451,"zip":"8780000"},{"town":"久住町大字添ケ津留","koaza":"","lat":32.98879,"lng":131.252936,"zip":"8780000"},{"town":"久住町大字仏原","koaza":"","lat":33.071062,"lng":131.343943,"zip":"8780000"},{"town":"直入町大字上田北","koaza":"","lat":33.119071,"lng":131.387431,"zip":"8780000"},{"town":"直入町大字神堤","koaza":"","lat":33.05433,"lng":131.395882,"zip":"8780000"},{"town":"直入町大字下田北","koaza":"","lat":33.125587,"lng":131.412951,"zip":"8780000"},{"town":"直入町大字長湯","koaza":"","lat":33.074468,"lng":131.375139,"zip":"8780000"},{"town":"大字拝田原","koaza":"六反","lat":32.955898,"lng":131.374434,"zip":"8780000"},{"town":"大字拝田原","koaza":"上津留","lat":32.958391,"lng":131.379422,"zip":"8780000"}]