[{"town":"朝地町朝地","koaza":"","lat":33.009487,"lng":131.415248,"zip":"8796222"},{"town":"朝地町池田","koaza":"","lat":33.02602,"lng":131.4422,"zip":"8796224"},{"town":"朝地町板井迫","koaza":"","lat":33.011925,"lng":131.439411,"zip":"8796223"},{"town":"朝地町市万田","koaza":"","lat":33.011014,"lng":131.469962,"zip":"8796201"},{"town":"朝地町上尾塚","koaza":"","lat":32.990105,"lng":131.433405,"zip":"8796213"},{"town":"朝地町栗林","koaza":"","lat":33.037975,"lng":131.410247,"zip":"8796333"},{"town":"朝地町志賀","koaza":"","lat":32.993056,"lng":131.460325,"zip":"8796212"},{"town":"朝地町下野","koaza":"","lat":33.002828,"lng":131.45963,"zip":"8796202"},{"town":"朝地町坪泉","koaza":"","lat":32.999995,"lng":131.430513,"zip":"8796221"},{"town":"朝地町鳥田","koaza":"","lat":33.052461,"lng":131.439723,"zip":"8796331"},{"town":"朝地町梨小","koaza":"","lat":33.075507,"lng":131.431169,"zip":"8796334"},{"town":"朝地町宮生","koaza":"","lat":32.993775,"lng":131.477426,"zip":"8796211"},{"town":"朝地町綿田","koaza":"","lat":33.022923,"lng":131.405233,"zip":"8796332"},{"town":"犬飼町犬飼","koaza":"","lat":33.072337,"lng":131.635571,"zip":"8797301"},{"town":"犬飼町大寒","koaza":"","lat":33.047379,"lng":131.642654,"zip":"8797304"},{"town":"犬飼町久原","koaza":"","lat":33.077804,"lng":131.645947,"zip":"8797302"},{"town":"犬飼町栗ケ畑","koaza":"","lat":33.083164,"lng":131.570521,"zip":"8797314"},{"town":"犬飼町黒松","koaza":"","lat":33.070794,"lng":131.5869,"zip":"8797313"},{"town":"犬飼町高津原","koaza":"","lat":33.083788,"lng":131.598656,"zip":"8797312"},{"town":"犬飼町西寒田","koaza":"","lat":33.081862,"lng":131.662592,"zip":"8797307"},{"town":"犬飼町柴北","koaza":"","lat":33.062329,"lng":131.595599,"zip":"8797311"},{"town":"犬飼町下津尾","koaza":"","lat":33.079107,"lng":131.62607,"zip":"8797306"},{"town":"犬飼町田原","koaza":"","lat":33.057328,"lng":131.630291,"zip":"8797305"},{"town":"犬飼町長畑","koaza":"","lat":33.060033,"lng":131.557369,"zip":"8797316"},{"town":"犬飼町山内","koaza":"","lat":33.068127,"lng":131.563262,"zip":"8797315"},{"town":"犬飼町柚野木","koaza":"","lat":33.051798,"lng":131.6516,"zip":"8797303"},{"town":"大野町安藤","koaza":"","lat":33.097677,"lng":131.557538,"zip":"8796401"},{"town":"大野町後田","koaza":"","lat":33.039349,"lng":131.555058,"zip":"8796404"},{"town":"大野町大原","koaza":"","lat":33.016393,"lng":131.48989,"zip":"8796433"},{"town":"大野町片島","koaza":"","lat":33.022227,"lng":131.530747,"zip":"8796445"},{"town":"大野町北園","koaza":"","lat":33.034604,"lng":131.457248,"zip":"8796435"},{"town":"大野町桑原","koaza":"","lat":33.032318,"lng":131.474831,"zip":"8796434"},{"town":"大野町郡山","koaza":"","lat":33.006339,"lng":131.495699,"zip":"8796426"},{"town":"大野町小倉木","koaza":"","lat":32.995086,"lng":131.541022,"zip":"8796422"},{"town":"大野町酒井寺","koaza":"","lat":33.054485,"lng":131.465942,"zip":"8796431"},{"town":"大野町澤田","koaza":"","lat":33.090322,"lng":131.517362,"zip":"8797100"},{"town":"大野町杉園","koaza":"","lat":33.042437,"lng":131.534457,"zip":"8796406"},{"town":"大野町代三五","koaza":"","lat":33.014057,"lng":131.548362,"zip":"8796405"},{"town":"大野町田代","koaza":"","lat":33.029115,"lng":131.508316,"zip":"8796444"},{"town":"大野町田中","koaza":"","lat":33.053307,"lng":131.484625,"zip":"8796441"},{"town":"大野町十時","koaza":"","lat":33.0598,"lng":131.527904,"zip":"8796407"},{"town":"大野町中土師","koaza":"","lat":33.085301,"lng":131.535326,"zip":"8796402"},{"town":"大野町長畑","koaza":"","lat":33.059221,"lng":131.546146,"zip":"8796403"},{"town":"大野町中原","koaza":"","lat":33.013778,"lng":131.515623,"zip":"8796421"},{"town":"大野町夏足","koaza":"","lat":32.988062,"lng":131.500334,"zip":"8796424"},{"town":"大野町藤北","koaza":"","lat":33.073547,"lng":131.495031,"zip":"8796442"},{"town":"大野町宮迫","koaza":"","lat":33.049165,"lng":131.519267,"zip":"8796443"},{"town":"大野町矢田","koaza":"","lat":32.993193,"lng":131.516145,"zip":"8796423"},{"town":"大野町屋原","koaza":"","lat":33.03278,"lng":131.490448,"zip":"8796432"},{"town":"大野町両家","koaza":"","lat":32.999071,"lng":131.493301,"zip":"8796425"},{"town":"緒方町井上","koaza":"","lat":32.968805,"lng":131.489206,"zip":"8796613"},{"town":"緒方町上畑","koaza":"","lat":32.856035,"lng":131.430329,"zip":"8796864"},{"town":"緒方町小宛","koaza":"","lat":32.954159,"lng":131.425893,"zip":"8796633"},{"town":"緒方町大石","koaza":"","lat":32.899615,"lng":131.409215,"zip":"8796759"},{"town":"緒方町小原","koaza":"","lat":32.886432,"lng":131.421895,"zip":"8796861"},{"town":"緒方町尾平鉱山","koaza":"","lat":32.825398,"lng":131.391795,"zip":"8796865"},{"town":"緒方町上自在","koaza":"","lat":32.969828,"lng":131.453836,"zip":"8796642"},{"town":"緒方町上年野","koaza":"","lat":32.945228,"lng":131.444165,"zip":"8796751"},{"town":"緒方町上冬原","koaza":"","lat":32.915849,"lng":131.443023,"zip":"8796755"},{"town":"緒方町木野","koaza":"","lat":32.929317,"lng":131.410552,"zip":"8796757"},{"town":"緒方町草深野","koaza":"","lat":32.971442,"lng":131.431868,"zip":"8796641"},{"town":"緒方町久土知","koaza":"","lat":32.952162,"lng":131.460207,"zip":"8796616"},{"town":"緒方町栗生","koaza":"","lat":32.893935,"lng":131.461121,"zip":"8796862"},{"town":"緒方町越生","koaza":"","lat":32.977197,"lng":131.487804,"zip":"8796612"},{"town":"緒方町志賀","koaza":"","lat":32.98257,"lng":131.473464,"zip":"8796602"},{"town":"緒方町軸丸","koaza":"","lat":32.98283,"lng":131.44892,"zip":"8796635"},{"town":"緒方町下自在","koaza":"","lat":32.976231,"lng":131.468346,"zip":"8796643"},{"town":"緒方町下徳田","koaza":"","lat":32.933189,"lng":131.44108,"zip":"8796753"},{"town":"緒方町大化","koaza":"","lat":32.9432,"lng":131.471105,"zip":"8796626"},{"town":"緒方町滞迫","koaza":"","lat":32.877864,"lng":131.446022,"zip":"8796863"},{"town":"緒方町知田","koaza":"","lat":32.962502,"lng":131.480006,"zip":"8796614"},{"town":"緒方町辻","koaza":"","lat":32.959469,"lng":131.443354,"zip":"8796632"},{"town":"緒方町寺原","koaza":"","lat":32.941942,"lng":131.416806,"zip":"8796634"},{"town":"緒方町天神","koaza":"","lat":32.956682,"lng":131.49305,"zip":"8796622"},{"town":"緒方町徳田","koaza":"","lat":32.919413,"lng":131.430027,"zip":"8796756"},{"town":"緒方町中野","koaza":"","lat":32.91404,"lng":131.412498,"zip":"8796758"},{"town":"緒方町夏足","koaza":"","lat":32.981212,"lng":131.488627,"zip":"8796611"},{"town":"緒方町野尻","koaza":"","lat":32.975454,"lng":131.501469,"zip":"8796621"},{"town":"緒方町馬場","koaza":"","lat":32.973964,"lng":131.47636,"zip":"8796601"},{"town":"緒方町原尻","koaza":"","lat":32.959832,"lng":131.450913,"zip":"8796631"},{"town":"緒方町平石","koaza":"","lat":32.926171,"lng":131.473029,"zip":"8796624"},{"town":"緒方町鮒川","koaza":"","lat":32.9608,"lng":131.468834,"zip":"8796615"},{"town":"緒方町冬原","koaza":"","lat":32.926192,"lng":131.451134,"zip":"8796754"},{"town":"緒方町馬背畑","koaza":"","lat":32.942306,"lng":131.485404,"zip":"8796623"},{"town":"緒方町柚木","koaza":"","lat":32.935017,"lng":131.43191,"zip":"8796752"},{"town":"清川町雨堤","koaza":"","lat":32.968376,"lng":131.531177,"zip":"8796902"},{"town":"清川町臼尾","koaza":"","lat":32.979111,"lng":131.534235,"zip":"8796901"},{"town":"清川町宇田枝","koaza":"","lat":32.930551,"lng":131.509904,"zip":"8796911"},{"town":"清川町大白谷","koaza":"","lat":32.894797,"lng":131.50637,"zip":"8796922"},{"town":"清川町砂田","koaza":"","lat":32.971927,"lng":131.516278,"zip":"8796903"},{"town":"清川町左右知","koaza":"","lat":32.90293,"lng":131.482026,"zip":"8796914"},{"town":"清川町天神","koaza":"","lat":32.968804,"lng":131.504777,"zip":"8796904"},{"town":"清川町平石","koaza":"","lat":32.915325,"lng":131.475999,"zip":"8796913"},{"town":"清川町伏野","koaza":"","lat":32.932203,"lng":131.522795,"zip":"8796921"},{"town":"清川町三玉","koaza":"","lat":32.954297,"lng":131.508263,"zip":"8796905"},{"town":"清川町六種","koaza":"","lat":32.936202,"lng":131.495551,"zip":"8796912"},{"town":"千歳町石田","koaza":"","lat":33.053998,"lng":131.590813,"zip":"8797403"},{"town":"千歳町柴山","koaza":"","lat":33.038955,"lng":131.615314,"zip":"8797411"},{"town":"千歳町下山","koaza":"","lat":33.032738,"lng":131.590632,"zip":"8797413"},{"town":"千歳町高畑","koaza":"","lat":33.03159,"lng":131.602793,"zip":"8797412"},{"town":"千歳町長峰","koaza":"","lat":33.05302,"lng":131.611275,"zip":"8797404"},{"town":"千歳町新殿","koaza":"","lat":33.041729,"lng":131.5955,"zip":"8797401"},{"town":"千歳町船田","koaza":"","lat":33.049304,"lng":131.576496,"zip":"8797402"},{"town":"千歳町前田","koaza":"","lat":33.023067,"lng":131.573825,"zip":"8797414"},{"town":"三重町赤嶺","koaza":"","lat":32.98418,"lng":131.592268,"zip":"8797111"},{"town":"三重町秋葉","koaza":"","lat":32.964927,"lng":131.574759,"zip":"8797141"},{"town":"三重町浅瀬","koaza":"","lat":33.020453,"lng":131.609245,"zip":"8797108"},{"town":"三重町芦刈","koaza":"","lat":33.000543,"lng":131.608065,"zip":"8797105"},{"town":"三重町井迫","koaza":"","lat":33.012675,"lng":131.604575,"zip":"8797106"},{"town":"三重町市場","koaza":"","lat":32.978407,"lng":131.58089,"zip":"8797131"},{"town":"三重町内田","koaza":"","lat":32.969564,"lng":131.593299,"zip":"8797125"},{"town":"三重町内山","koaza":"","lat":32.945866,"lng":131.582527,"zip":"8797124"},{"town":"三重町大白谷","koaza":"","lat":32.868753,"lng":131.503813,"zip":"8797264"},{"town":"三重町奥畑","koaza":"","lat":32.907969,"lng":131.587993,"zip":"8797262"},{"town":"三重町小坂","koaza":"","lat":32.988793,"lng":131.622675,"zip":"8797104"},{"town":"三重町小田","koaza":"","lat":32.934642,"lng":131.548903,"zip":"8797142"},{"town":"三重町上田原","koaza":"","lat":33.009382,"lng":131.588681,"zip":"8797107"},{"town":"三重町川辺","koaza":"","lat":32.987105,"lng":131.556663,"zip":"8797154"},{"town":"三重町菅生","koaza":"","lat":33.007594,"lng":131.621605,"zip":"8797102"},{"town":"三重町玉田","koaza":"","lat":32.98213,"lng":131.568318,"zip":"8797153"},{"town":"三重町中津留","koaza":"","lat":32.897365,"lng":131.552681,"zip":"8797263"},{"town":"三重町西泉","koaza":"","lat":33.003867,"lng":131.575761,"zip":"8797151"},{"town":"三重町西畑","koaza":"","lat":32.991839,"lng":131.642556,"zip":"8797103"},{"town":"三重町久田","koaza":"","lat":32.962556,"lng":131.54475,"zip":"8797143"},{"town":"三重町伏野","koaza":"","lat":32.926093,"lng":131.541245,"zip":"8797261"},{"town":"三重町本城","koaza":"","lat":32.960222,"lng":131.560439,"zip":"8797144"},{"town":"三重町松尾","koaza":"","lat":32.961996,"lng":131.631444,"zip":"8797123"},{"town":"三重町宮野","koaza":"","lat":33.031257,"lng":131.62805,"zip":"8797101"},{"town":"三重町向野","koaza":"","lat":33.00659,"lng":131.558924,"zip":"8797155"},{"town":"三重町百枝","koaza":"","lat":32.995416,"lng":131.581146,"zip":"8797152"},{"town":"三重町山部","koaza":"","lat":32.926635,"lng":131.612856,"zip":"8797121"},{"town":"三重町鷲谷","koaza":"","lat":32.939253,"lng":131.609418,"zip":"8797122"},{"town":"三重町市場","koaza":"桑原田","lat":32.97676,"lng":131.583433,"zip":"8797131"},{"town":"三重町赤嶺","koaza":"大原","lat":32.98988,"lng":131.606016,"zip":"8797111"}]