[{"town":"荒尾","koaza":"","lat":33.564165,"lng":131.491629,"zip":"8790733"},{"town":"一畑","koaza":"","lat":33.568013,"lng":131.58289,"zip":"8790722"},{"town":"今町","koaza":"","lat":33.55254,"lng":131.442145,"zip":"8790626"},{"town":"臼野","koaza":"","lat":33.626257,"lng":131.492847,"zip":"8721107"},{"town":"梅木","koaza":"","lat":33.548615,"lng":131.549192,"zip":"8790600"},{"town":"夷","koaza":"","lat":33.619794,"lng":131.550872,"zip":"8721201"},{"town":"大岩屋","koaza":"","lat":33.600389,"lng":131.530819,"zip":"8721102"},{"town":"大平","koaza":"","lat":33.584954,"lng":131.498508,"zip":"8721106"},{"town":"御玉","koaza":"","lat":33.558518,"lng":131.446147,"zip":"8790605"},{"town":"香々地","koaza":"","lat":33.662021,"lng":131.517434,"zip":"8721202"},{"town":"鍛治屋町","koaza":"","lat":33.557145,"lng":131.44174,"zip":"8790622"},{"town":"堅来","koaza":"","lat":33.640645,"lng":131.505922,"zip":"8721203"},{"town":"鼎","koaza":"","lat":33.553637,"lng":131.492493,"zip":"8790603"},{"town":"かなえ台","koaza":"","lat":33.551089,"lng":131.482945,"zip":"8790600"},{"town":"金谷町","koaza":"","lat":33.55714,"lng":131.440171,"zip":"8790623"},{"town":"上香々地","koaza":"","lat":33.64015,"lng":131.536083,"zip":"8721204"},{"town":"加礼川","koaza":"","lat":33.569196,"lng":131.558191,"zip":"8790721"},{"town":"草地","koaza":"","lat":33.580141,"lng":131.478228,"zip":"8790601"},{"town":"来縄","koaza":"","lat":33.540391,"lng":131.446803,"zip":"8790614"},{"town":"呉崎","koaza":"","lat":33.586746,"lng":131.438655,"zip":"8790608"},{"town":"黒土","koaza":"","lat":33.589436,"lng":131.551116,"zip":"8721103"},{"town":"小田原","koaza":"","lat":33.535136,"lng":131.493797,"zip":"8790613"},{"town":"小畑","koaza":"","lat":33.62251,"lng":131.527898,"zip":"8721205"},{"town":"是永町","koaza":"","lat":33.554732,"lng":131.447945,"zip":"8790621"},{"town":"界","koaza":"","lat":33.546396,"lng":131.429173,"zip":"8790615"},{"town":"佐野","koaza":"","lat":33.523321,"lng":131.466437,"zip":"8790612"},{"town":"城前","koaza":"","lat":33.589432,"lng":131.517463,"zip":"8721104"},{"town":"新栄","koaza":"","lat":33.571809,"lng":131.449116,"zip":"8790607"},{"town":"新城","koaza":"","lat":33.55831,"lng":131.538824,"zip":"8790724"},{"town":"新地","koaza":"","lat":33.553109,"lng":131.435255,"zip":"8790627"},{"town":"新町","koaza":"","lat":33.558696,"lng":131.438007,"zip":"8790628"},{"town":"大力","koaza":"","lat":33.555016,"lng":131.513612,"zip":"8790732"},{"town":"高田","koaza":"","lat":33.561577,"lng":131.431997,"zip":"8790617"},{"town":"田染相原","koaza":"","lat":33.52099,"lng":131.536613,"zip":"8790843"},{"town":"田染池部","koaza":"","lat":33.523049,"lng":131.521463,"zip":"8790842"},{"town":"田染上野","koaza":"","lat":33.504974,"lng":131.526494,"zip":"8790844"},{"town":"田染小崎","koaza":"","lat":33.504352,"lng":131.493471,"zip":"8790854"},{"town":"田染平野","koaza":"","lat":33.488087,"lng":131.517136,"zip":"8790853"},{"town":"田染蕗","koaza":"","lat":33.537095,"lng":131.528622,"zip":"8790841"},{"town":"田染真木","koaza":"","lat":33.500528,"lng":131.519017,"zip":"8790855"},{"town":"田染真中","koaza":"","lat":33.505591,"lng":131.514158,"zip":"8790852"},{"town":"田染横嶺","koaza":"","lat":33.520047,"lng":131.504329,"zip":"8790851"},{"town":"玉津","koaza":"","lat":33.566373,"lng":131.442191,"zip":"8790606"},{"town":"中央通","koaza":"","lat":33.559583,"lng":131.441322,"zip":"8790618"},{"town":"築地","koaza":"","lat":33.566437,"lng":131.503314,"zip":"8790734"},{"town":"長岩屋","koaza":"","lat":33.575724,"lng":131.546273,"zip":"8790731"},{"town":"中真玉","koaza":"","lat":33.607303,"lng":131.494578,"zip":"8721101"},{"town":"西真玉","koaza":"","lat":33.601802,"lng":131.468191,"zip":"8721105"},{"town":"羽根","koaza":"","lat":33.651772,"lng":131.512016,"zip":"8721206"},{"town":"浜町","koaza":"","lat":33.559038,"lng":131.4422,"zip":"8790619"},{"town":"払田","koaza":"","lat":33.562293,"lng":131.476076,"zip":"8790602"},{"town":"本町","koaza":"","lat":33.554703,"lng":131.442549,"zip":"8790624"},{"town":"松行","koaza":"","lat":33.57035,"lng":131.514785,"zip":"8790735"},{"town":"水崎","koaza":"","lat":33.556421,"lng":131.419782,"zip":"8790616"},{"town":"水取","koaza":"","lat":33.553378,"lng":131.445642,"zip":"8790625"},{"town":"見目","koaza":"","lat":33.66075,"lng":131.53942,"zip":"8721207"},{"town":"美和","koaza":"","lat":33.558409,"lng":131.461531,"zip":"8790604"},{"town":"森","koaza":"","lat":33.547015,"lng":131.466273,"zip":"8790611"},{"town":"新栄","koaza":"堂ノ本","lat":33.574068,"lng":131.447111,"zip":"8790607"}]