[{"town":"青木","koaza":"","lat":35.10508,"lng":138.920886,"zip":"4110811"},{"town":"旭ヶ丘","koaza":"","lat":35.130301,"lng":138.931426,"zip":"4110000"},{"town":"新谷","koaza":"","lat":35.10227,"lng":138.919392,"zip":"4110834"},{"town":"泉町","koaza":"","lat":35.1213,"lng":138.910678,"zip":"4110037"},{"town":"市山新田","koaza":"","lat":35.137126,"lng":138.958849,"zip":"4110015"},{"town":"一番町","koaza":"","lat":35.12477,"lng":138.912574,"zip":"4110036"},{"town":"壱町田","koaza":"","lat":35.132559,"lng":138.920203,"zip":"4110025"},{"town":"大宮町一丁目","koaza":"","lat":35.122178,"lng":138.916955,"zip":"4110035"},{"town":"大宮町二丁目","koaza":"","lat":35.122573,"lng":138.920344,"zip":"4110035"},{"town":"大宮町三丁目","koaza":"","lat":35.126238,"lng":138.917274,"zip":"4110035"},{"town":"加茂","koaza":"","lat":35.134875,"lng":138.93184,"zip":"4110023"},{"town":"加茂川町","koaza":"","lat":35.125116,"lng":138.92265,"zip":"4110034"},{"town":"加屋町","koaza":"","lat":35.116087,"lng":138.906412,"zip":"4110845"},{"town":"川原ケ谷","koaza":"","lat":35.141769,"lng":138.945144,"zip":"4110022"},{"town":"北沢","koaza":"","lat":35.103499,"lng":138.93953,"zip":"4110805"},{"town":"北田町","koaza":"","lat":35.117183,"lng":138.917826,"zip":"4110854"},{"town":"清住町","koaza":"","lat":35.113633,"lng":138.907109,"zip":"4110844"},{"town":"幸原町一丁目","koaza":"","lat":35.137234,"lng":138.913807,"zip":"4110031"},{"town":"幸原町二丁目","koaza":"","lat":35.139213,"lng":138.910562,"zip":"4110031"},{"town":"寿町","koaza":"","lat":35.123981,"lng":138.907957,"zip":"4110039"},{"town":"栄町","koaza":"","lat":35.119158,"lng":138.908079,"zip":"4110846"},{"town":"笹原新田","koaza":"","lat":35.145849,"lng":138.979233,"zip":"4110012"},{"town":"佐野","koaza":"","lat":35.168298,"lng":138.939221,"zip":"4110047"},{"town":"佐野見晴台一丁目","koaza":"","lat":35.163753,"lng":138.94364,"zip":"4110041"},{"town":"佐野見晴台二丁目","koaza":"","lat":35.164249,"lng":138.948919,"zip":"4110041"},{"town":"沢地","koaza":"","lat":35.148822,"lng":138.938357,"zip":"4110043"},{"town":"三恵台","koaza":"","lat":35.130656,"lng":138.939982,"zip":"4110017"},{"town":"芝本町","koaza":"","lat":35.121751,"lng":138.913843,"zip":"4110857"},{"town":"末広町","koaza":"","lat":35.13536,"lng":138.911183,"zip":"4110032"},{"town":"千枚原","koaza":"","lat":35.137728,"lng":138.921204,"zip":"4110027"},{"town":"大社町","koaza":"","lat":35.119812,"lng":138.920766,"zip":"4110853"},{"town":"大場","koaza":"","lat":35.099046,"lng":138.946257,"zip":"4110803"},{"town":"竹倉","koaza":"","lat":35.1182,"lng":138.946179,"zip":"4110807"},{"town":"玉川","koaza":"","lat":35.106695,"lng":138.913092,"zip":"4110835"},{"town":"玉沢","koaza":"","lat":35.12539,"lng":138.965148,"zip":"4110014"},{"town":"多呂","koaza":"","lat":35.098339,"lng":138.938394,"zip":"4110804"},{"town":"中央町","koaza":"","lat":35.120255,"lng":138.91719,"zip":"4110858"},{"town":"塚原新田","koaza":"","lat":35.136195,"lng":138.950737,"zip":"4110016"},{"town":"鶴喰","koaza":"","lat":35.103791,"lng":138.926917,"zip":"4110813"},{"town":"徳倉","koaza":"","lat":35.151136,"lng":138.923879,"zip":"4110044"},{"town":"徳倉一丁目","koaza":"","lat":35.140189,"lng":138.913326,"zip":"4110044"},{"town":"徳倉二丁目","koaza":"","lat":35.137892,"lng":138.91773,"zip":"4110044"},{"town":"徳倉三丁目","koaza":"","lat":35.143136,"lng":138.917887,"zip":"4110044"},{"town":"徳倉四丁目","koaza":"","lat":35.144065,"lng":138.912072,"zip":"4110044"},{"town":"徳倉五丁目","koaza":"","lat":35.148124,"lng":138.914958,"zip":"4110044"},{"town":"富田町","koaza":"","lat":35.108887,"lng":138.917774,"zip":"4110836"},{"town":"中","koaza":"","lat":35.106679,"lng":138.930867,"zip":"4110858"},{"town":"中島","koaza":"","lat":35.097139,"lng":138.932625,"zip":"4110814"},{"town":"中田町","koaza":"","lat":35.114833,"lng":138.917577,"zip":"4110838"},{"town":"長伏","koaza":"","lat":35.086785,"lng":138.913834,"zip":"4110824"},{"town":"西旭ケ丘町","koaza":"","lat":35.129149,"lng":138.928094,"zip":"4110030"},{"town":"錦が丘","koaza":"","lat":35.111195,"lng":138.94662,"zip":"4110808"},{"town":"西本町","koaza":"","lat":35.117625,"lng":138.908765,"zip":"4110847"},{"town":"西若町","koaza":"","lat":35.121665,"lng":138.906773,"zip":"4110038"},{"town":"萩","koaza":"","lat":35.151845,"lng":138.908931,"zip":"4110045"},{"town":"八反畑","koaza":"","lat":35.100715,"lng":138.925803,"zip":"4110817"},{"town":"初音台","koaza":"","lat":35.125677,"lng":138.934321,"zip":"4110018"},{"town":"東壱町田","koaza":"","lat":35.132574,"lng":138.923206,"zip":"4110026"},{"town":"東大場一丁目","koaza":"","lat":35.109122,"lng":138.950514,"zip":"4110802"},{"town":"東大場二丁目","koaza":"","lat":35.108699,"lng":138.952946,"zip":"4110802"},{"town":"東町","koaza":"","lat":35.117274,"lng":138.92474,"zip":"4110852"},{"town":"東本町一丁目","koaza":"","lat":35.116249,"lng":138.921283,"zip":"4110831"},{"town":"東本町二丁目","koaza":"","lat":35.113624,"lng":138.922921,"zip":"4110831"},{"town":"光ケ丘","koaza":"","lat":35.136142,"lng":138.925925,"zip":"4110029"},{"town":"日の出町","koaza":"","lat":35.120659,"lng":138.92441,"zip":"4110851"},{"town":"平田","koaza":"","lat":35.100771,"lng":138.915378,"zip":"4110821"},{"town":"広小路町","koaza":"","lat":35.118845,"lng":138.910885,"zip":"4110856"},{"town":"藤代町","koaza":"","lat":35.10687,"lng":138.923796,"zip":"4110812"},{"town":"富士ビレッジ","koaza":"","lat":35.141282,"lng":138.921112,"zip":"4110028"},{"town":"富士見台","koaza":"","lat":35.142348,"lng":138.932427,"zip":"4110021"},{"town":"芙蓉台一丁目","koaza":"","lat":35.152988,"lng":138.913327,"zip":"4110046"},{"town":"芙蓉台二丁目","koaza":"","lat":35.154715,"lng":138.917569,"zip":"4110046"},{"town":"芙蓉台三丁目","koaza":"","lat":35.15685,"lng":138.91866,"zip":"4110046"},{"town":"文教町一丁目","koaza":"","lat":35.130489,"lng":138.912811,"zip":"4110033"},{"town":"文教町二丁目","koaza":"","lat":35.132686,"lng":138.915811,"zip":"4110033"},{"town":"平成台","koaza":"","lat":35.153002,"lng":138.942271,"zip":"4110042"},{"town":"本町","koaza":"","lat":35.119093,"lng":138.91402,"zip":"4110855"},{"town":"松が丘","koaza":"","lat":35.122747,"lng":138.935367,"zip":"4110019"},{"town":"松本","koaza":"","lat":35.090853,"lng":138.918694,"zip":"4110822"},{"town":"三ツ谷新田","koaza":"","lat":35.14277,"lng":138.971897,"zip":"4110013"},{"town":"緑町","koaza":"","lat":35.11517,"lng":138.91097,"zip":"4110848"},{"town":"南田町","koaza":"","lat":35.112135,"lng":138.916956,"zip":"4110837"},{"town":"南町","koaza":"","lat":35.111561,"lng":138.912506,"zip":"4110842"},{"town":"南二日町","koaza":"","lat":35.110383,"lng":138.924416,"zip":"4110832"},{"town":"南本町","koaza":"","lat":35.115517,"lng":138.914596,"zip":"4110841"},{"town":"三好町","koaza":"","lat":35.110312,"lng":138.908888,"zip":"4110843"},{"town":"谷田","koaza":"","lat":35.127453,"lng":138.949664,"zip":"4110801"},{"town":"柳郷地","koaza":"","lat":35.117475,"lng":138.940308,"zip":"4110806"},{"town":"山中新田","koaza":"","lat":35.151996,"lng":138.991666,"zip":"4110011"},{"town":"若松町","koaza":"","lat":35.131221,"lng":138.925928,"zip":"4110024"},{"town":"梅名","koaza":"","lat":35.093838,"lng":138.925637,"zip":"4110816"},{"town":"御園","koaza":"","lat":35.080175,"lng":138.921695,"zip":"4110823"},{"town":"安久","koaza":"","lat":35.084913,"lng":138.92777,"zip":"4110815"},{"town":"（大字なし）","koaza":"","lat":35.159267,"lng":138.964839,"zip":"4110000"},{"town":"谷田","koaza":"雪沢","lat":35.115781,"lng":138.928775,"zip":"4110801"},{"town":"谷田","koaza":"東富士見","lat":35.115541,"lng":138.931684,"zip":"4110801"},{"town":"谷田","koaza":"藤久保","lat":35.122176,"lng":138.951781,"zip":"4110801"}]