[{"town":"相玉","koaza":"","lat":34.714225,"lng":138.916736,"zip":"4130711"},{"town":"荒増","koaza":"","lat":34.71634,"lng":138.931199,"zip":"4130703"},{"town":"一丁目","koaza":"","lat":34.676609,"lng":138.943461,"zip":"4150000"},{"town":"宇土金","koaza":"","lat":34.733602,"lng":138.922555,"zip":"4130715"},{"town":"大賀茂","koaza":"","lat":34.680551,"lng":138.904795,"zip":"4150038"},{"town":"大沢","koaza":"","lat":34.696768,"lng":138.907648,"zip":"4150039"},{"town":"落合","koaza":"","lat":34.727237,"lng":138.955907,"zip":"4130701"},{"town":"柿崎","koaza":"","lat":34.676303,"lng":138.966529,"zip":"4150013"},{"town":"加増野","koaza":"","lat":34.722981,"lng":138.871148,"zip":"4130713"},{"town":"吉佐美","koaza":"","lat":34.662271,"lng":138.920038,"zip":"4150028"},{"town":"北湯ケ野","koaza":"","lat":34.735065,"lng":138.897556,"zip":"4130714"},{"town":"旧岡方村","koaza":"","lat":34.676677,"lng":138.926405,"zip":"4150027"},{"town":"河内","koaza":"","lat":34.705816,"lng":138.944696,"zip":"4150011"},{"town":"五丁目","koaza":"","lat":34.669797,"lng":138.93702,"zip":"4150000"},{"town":"三丁目","koaza":"","lat":34.667875,"lng":138.94509,"zip":"4150000"},{"town":"椎原","koaza":"","lat":34.724756,"lng":138.918492,"zip":"4130704"},{"town":"敷根","koaza":"","lat":34.681245,"lng":138.934042,"zip":"4150037"},{"town":"白浜","koaza":"","lat":34.69953,"lng":138.965058,"zip":"4150012"},{"town":"須崎","koaza":"","lat":34.662667,"lng":138.971703,"zip":"4150014"},{"town":"須原","koaza":"","lat":34.75455,"lng":138.915369,"zip":"4130716"},{"town":"外ケ岡","koaza":"","lat":34.674554,"lng":138.951361,"zip":"4150000"},{"town":"武ガ浜","koaza":"","lat":34.674072,"lng":138.948007,"zip":"4150015"},{"town":"高馬","koaza":"","lat":34.690982,"lng":138.935755,"zip":"4150034"},{"town":"立野","koaza":"","lat":34.696595,"lng":138.944286,"zip":"4150032"},{"town":"田牛","koaza":"","lat":34.641742,"lng":138.90838,"zip":"4150029"},{"town":"中","koaza":"","lat":34.684083,"lng":138.952127,"zip":"4150016"},{"town":"西中","koaza":"","lat":34.689771,"lng":138.940834,"zip":"4150018"},{"town":"西本郷一丁目","koaza":"","lat":34.681647,"lng":138.943213,"zip":"4150036"},{"town":"西本郷二丁目","koaza":"","lat":34.685286,"lng":138.943672,"zip":"4150036"},{"town":"西本郷三丁目","koaza":"","lat":34.685186,"lng":138.939406,"zip":"4150036"},{"town":"二丁目","koaza":"","lat":34.673976,"lng":138.944139,"zip":"4150000"},{"town":"東中","koaza":"","lat":34.691947,"lng":138.948084,"zip":"4150017"},{"town":"東本郷一丁目","koaza":"","lat":34.679932,"lng":138.945737,"zip":"4150035"},{"town":"東本郷二丁目","koaza":"","lat":34.68453,"lng":138.945883,"zip":"4150035"},{"town":"堀之内","koaza":"","lat":34.71828,"lng":138.940548,"zip":"4130702"},{"town":"本郷","koaza":"","lat":34.684328,"lng":138.936921,"zip":"4150033"},{"town":"箕作","koaza":"","lat":34.729987,"lng":138.939001,"zip":"4130705"},{"town":"横川","koaza":"","lat":34.715858,"lng":138.898069,"zip":"4130712"},{"town":"四丁目","koaza":"","lat":34.674535,"lng":138.940807,"zip":"4150000"},{"town":"蓮台寺","koaza":"","lat":34.696567,"lng":138.928894,"zip":"4150031"},{"town":"六丁目","koaza":"","lat":34.673175,"lng":138.934142,"zip":"4150000"}]