[{"town":"赤沢","koaza":"","lat":34.864229,"lng":139.074956,"zip":"4130233"},{"town":"新井","koaza":"","lat":34.967661,"lng":139.117245,"zip":"4140043"},{"town":"新井一丁目","koaza":"","lat":34.969005,"lng":139.107065,"zip":"4140043"},{"town":"新井二丁目","koaza":"","lat":34.971175,"lng":139.109658,"zip":"4140043"},{"town":"池","koaza":"","lat":34.893693,"lng":139.070077,"zip":"4130234"},{"town":"宇佐美","koaza":"","lat":35.010016,"lng":139.072935,"zip":"4140001"},{"town":"大原一丁目","koaza":"","lat":34.963408,"lng":139.100677,"zip":"4140046"},{"town":"大原二丁目","koaza":"","lat":34.964278,"lng":139.10245,"zip":"4140046"},{"town":"大原三丁目","koaza":"","lat":34.964889,"lng":139.104889,"zip":"4140046"},{"town":"岡","koaza":"","lat":34.964593,"lng":139.072335,"zip":"4140055"},{"town":"岡広町","koaza":"","lat":34.968433,"lng":139.090633,"zip":"4140016"},{"town":"荻","koaza":"","lat":34.934243,"lng":139.085491,"zip":"4140053"},{"town":"音無町","koaza":"","lat":34.966263,"lng":139.096314,"zip":"4140032"},{"town":"鎌田","koaza":"","lat":34.937912,"lng":139.063345,"zip":"4140054"},{"town":"瓶山一丁目","koaza":"","lat":34.961828,"lng":139.094331,"zip":"4140034"},{"town":"瓶山二丁目","koaza":"","lat":34.961385,"lng":139.096504,"zip":"4140034"},{"town":"川奈","koaza":"","lat":34.945963,"lng":139.132003,"zip":"4140044"},{"town":"銀座元町","koaza":"","lat":34.970651,"lng":139.097776,"zip":"4140028"},{"town":"玖須美元和田","koaza":"","lat":34.952471,"lng":139.110571,"zip":"4140045"},{"town":"寿町","koaza":"","lat":34.969306,"lng":139.093238,"zip":"4140018"},{"town":"幸町","koaza":"","lat":34.967794,"lng":139.092489,"zip":"4140017"},{"town":"桜ガ丘一丁目","koaza":"","lat":34.958437,"lng":139.088872,"zip":"4140037"},{"town":"桜ガ丘二丁目","koaza":"","lat":34.956333,"lng":139.087528,"zip":"4140037"},{"town":"桜木町一丁目","koaza":"","lat":34.966779,"lng":139.094082,"zip":"4140013"},{"town":"桜木町二丁目","koaza":"","lat":34.964764,"lng":139.092836,"zip":"4140013"},{"town":"猪戸一丁目","koaza":"","lat":34.972309,"lng":139.093149,"zip":"4140004"},{"town":"猪戸二丁目","koaza":"","lat":34.970237,"lng":139.091725,"zip":"4140004"},{"town":"静海町","koaza":"","lat":34.970212,"lng":139.103634,"zip":"4140042"},{"town":"芝町","koaza":"","lat":34.967661,"lng":139.104635,"zip":"4140041"},{"town":"末広町","koaza":"","lat":34.966288,"lng":139.090628,"zip":"4140015"},{"town":"宝町","koaza":"","lat":34.968931,"lng":139.09455,"zip":"4140012"},{"town":"竹の内一丁目","koaza":"","lat":34.96928,"lng":139.096261,"zip":"4140027"},{"town":"竹の内二丁目","koaza":"","lat":34.968194,"lng":139.098641,"zip":"4140027"},{"town":"竹の台","koaza":"","lat":34.967187,"lng":139.099385,"zip":"4140026"},{"town":"中央町","koaza":"","lat":34.971141,"lng":139.093828,"zip":"4140003"},{"town":"十足","koaza":"","lat":34.917593,"lng":139.082201,"zip":"4140052"},{"town":"渚町","koaza":"","lat":34.971366,"lng":139.09995,"zip":"4140023"},{"town":"馬場町一丁目","koaza":"","lat":34.96514,"lng":139.098526,"zip":"4140033"},{"town":"馬場町二丁目","koaza":"","lat":34.96315,"lng":139.098575,"zip":"4140033"},{"town":"東松原町","koaza":"","lat":34.972512,"lng":139.098884,"zip":"4140022"},{"town":"広野一丁目","koaza":"","lat":34.96219,"lng":139.09157,"zip":"4140038"},{"town":"広野二丁目","koaza":"","lat":34.962665,"lng":139.090158,"zip":"4140038"},{"town":"広野三丁目","koaza":"","lat":34.960082,"lng":139.091005,"zip":"4140038"},{"town":"広野四丁目","koaza":"","lat":34.960272,"lng":139.089701,"zip":"4140038"},{"town":"富戸","koaza":"","lat":34.904313,"lng":139.116465,"zip":"4130231"},{"town":"松川町","koaza":"","lat":34.9712,"lng":139.095632,"zip":"4140011"},{"town":"松原","koaza":"","lat":34.974026,"lng":139.078064,"zip":"4140006"},{"town":"松原本町","koaza":"","lat":34.973316,"lng":139.096924,"zip":"4140021"},{"town":"松原湯端町","koaza":"","lat":34.972507,"lng":139.091537,"zip":"4140005"},{"town":"南町一丁目","koaza":"","lat":34.95755,"lng":139.0901,"zip":"4140035"},{"town":"南町二丁目","koaza":"","lat":34.955814,"lng":139.089695,"zip":"4140035"},{"town":"宮川町一丁目","koaza":"","lat":34.954593,"lng":139.08705,"zip":"4140036"},{"town":"宮川町二丁目","koaza":"","lat":34.953972,"lng":139.088609,"zip":"4140036"},{"town":"物見が丘","koaza":"","lat":34.966286,"lng":139.101213,"zip":"4140025"},{"town":"弥生町","koaza":"","lat":34.965914,"lng":139.091702,"zip":"4140014"},{"town":"八幡野","koaza":"","lat":34.878274,"lng":139.085521,"zip":"4130232"},{"town":"湯川","koaza":"","lat":34.984768,"lng":139.081671,"zip":"4140002"},{"town":"湯川一丁目","koaza":"","lat":34.973998,"lng":139.093602,"zip":"4140002"},{"town":"湯川二丁目","koaza":"","lat":34.974965,"lng":139.095321,"zip":"4140002"},{"town":"湯川三丁目","koaza":"","lat":34.975769,"lng":139.092903,"zip":"4140002"},{"town":"湯川四丁目","koaza":"","lat":34.978576,"lng":139.093289,"zip":"4140002"},{"town":"湯田町","koaza":"","lat":34.963079,"lng":139.093286,"zip":"4140031"},{"town":"吉田","koaza":"","lat":34.933597,"lng":139.124477,"zip":"4140051"},{"town":"和田一丁目","koaza":"","lat":34.970264,"lng":139.101322,"zip":"4140024"},{"town":"和田二丁目","koaza":"","lat":34.968226,"lng":139.101779,"zip":"4140024"},{"town":"岡","koaza":"和泉","lat":34.95397,"lng":139.091979,"zip":"4140055"},{"town":"川奈","koaza":"殿山道上","lat":34.952934,"lng":139.116252,"zip":"4140044"},{"town":"富戸","koaza":"大室高原","lat":34.905991,"lng":139.116823,"zip":"4130231"},{"town":"吉田","koaza":"柳畑","lat":34.942395,"lng":139.117049,"zip":"4140051"},{"town":"吉田","koaza":"北川","lat":34.936241,"lng":139.119974,"zip":"4140051"},{"town":"岡","koaza":"入の道","lat":34.958759,"lng":139.101186,"zip":"4140055"},{"town":"鎌田","koaza":"城平ノ上","lat":34.943452,"lng":139.083021,"zip":"4140054"}]