[{"town":"天野","koaza":"","lat":35.02655,"lng":138.93921,"zip":"4102202"},{"town":"浮橋","koaza":"","lat":35.041782,"lng":139.021325,"zip":"4102311"},{"town":"内中","koaza":"","lat":35.040777,"lng":138.9561,"zip":"4102112"},{"town":"大仁","koaza":"","lat":34.994087,"lng":138.940221,"zip":"4102323"},{"town":"小坂","koaza":"","lat":35.018409,"lng":138.930329,"zip":"4102203"},{"town":"神島","koaza":"","lat":35.004175,"lng":138.922654,"zip":"4102325"},{"town":"北江間","koaza":"","lat":35.054242,"lng":138.915681,"zip":"4102223"},{"town":"古奈","koaza":"","lat":35.036426,"lng":138.940156,"zip":"4102201"},{"town":"寺家","koaza":"","lat":35.04733,"lng":138.944268,"zip":"4102122"},{"town":"下畑","koaza":"","lat":35.008953,"lng":138.985765,"zip":"4102314"},{"town":"白山堂","koaza":"","lat":35.020235,"lng":138.940481,"zip":"4102318"},{"town":"宗光寺","koaza":"","lat":35.026582,"lng":138.955973,"zip":"4102302"},{"town":"田京","koaza":"","lat":35.013044,"lng":138.954209,"zip":"4102315"},{"town":"立花一丁目","koaza":"","lat":35.022636,"lng":138.950128,"zip":"4102303"},{"town":"立花二丁目","koaza":"","lat":35.023118,"lng":138.951524,"zip":"4102303"},{"town":"立花三丁目","koaza":"","lat":35.020973,"lng":138.953424,"zip":"4102303"},{"town":"田中山","koaza":"","lat":35.022805,"lng":138.981906,"zip":"4102301"},{"town":"田原野","koaza":"","lat":35.02207,"lng":139.024366,"zip":"4102313"},{"town":"中條","koaza":"","lat":35.044369,"lng":138.943944,"zip":"4102121"},{"town":"長者原","koaza":"","lat":35.018239,"lng":139.038091,"zip":"4102312"},{"town":"戸沢","koaza":"","lat":35.031573,"lng":138.910934,"zip":"4102213"},{"town":"中","koaza":"","lat":35.046274,"lng":138.985779,"zip":"4102121"},{"town":"長岡","koaza":"","lat":35.034857,"lng":138.926194,"zip":"4102211"},{"town":"長崎","koaza":"","lat":35.071969,"lng":138.951292,"zip":"4102131"},{"town":"中島","koaza":"","lat":35.004202,"lng":138.939318,"zip":"4102324"},{"town":"長瀬","koaza":"","lat":35.019,"lng":138.915621,"zip":"4102212"},{"town":"奈古谷","koaza":"","lat":35.072559,"lng":138.985676,"zip":"4102132"},{"town":"南條","koaza":"","lat":35.038783,"lng":138.945519,"zip":"4102114"},{"town":"韮山金谷","koaza":"","lat":35.051347,"lng":138.966714,"zip":"4102142"},{"town":"韮山多田","koaza":"","lat":35.069565,"lng":139.017997,"zip":"4102133"},{"town":"韮山土手和田","koaza":"","lat":35.051764,"lng":138.952881,"zip":"4102144"},{"town":"韮山韮山","koaza":"","lat":35.051307,"lng":138.956172,"zip":"4102143"},{"town":"韮山山木","koaza":"","lat":35.05711,"lng":138.97369,"zip":"4102141"},{"town":"花坂","koaza":"","lat":35.038702,"lng":138.9169,"zip":"4102214"},{"town":"原木","koaza":"","lat":35.064715,"lng":138.943254,"zip":"4102124"},{"town":"富士見","koaza":"","lat":35.029498,"lng":138.944578,"zip":"4102205"},{"town":"墹之上","koaza":"","lat":35.041216,"lng":138.931605,"zip":"4102204"},{"town":"御門","koaza":"","lat":35.006789,"lng":138.963164,"zip":"4102316"},{"town":"南江間","koaza":"","lat":35.049445,"lng":138.927733,"zip":"4102221"},{"town":"三福","koaza":"","lat":35.004399,"lng":138.950433,"zip":"4102321"},{"town":"守木","koaza":"","lat":35.020446,"lng":138.961451,"zip":"4102317"},{"town":"吉田","koaza":"","lat":34.999773,"lng":138.940793,"zip":"4102322"},{"town":"四日町","koaza":"","lat":35.054353,"lng":138.946547,"zip":"4102123"}]