[{"town":"青羽根","koaza":"","lat":34.933156,"lng":138.926449,"zip":"4103213"},{"town":"筏場","koaza":"","lat":34.909499,"lng":138.963081,"zip":"4102516"},{"town":"市山","koaza":"","lat":34.901369,"lng":138.939475,"zip":"4103205"},{"town":"梅木","koaza":"","lat":34.945231,"lng":138.987019,"zip":"4102509"},{"town":"瓜生野","koaza":"","lat":34.987466,"lng":138.94689,"zip":"4102412"},{"town":"大沢","koaza":"","lat":34.983835,"lng":138.887802,"zip":"4102417"},{"town":"大平","koaza":"","lat":34.956422,"lng":138.909951,"zip":"4102415"},{"town":"大平柿木","koaza":"","lat":34.941055,"lng":138.874353,"zip":"4103217"},{"town":"大野","koaza":"","lat":34.996458,"lng":138.987188,"zip":"4102402"},{"town":"小土肥","koaza":"","lat":34.93323,"lng":138.80831,"zip":"4103301"},{"town":"柏久保","koaza":"","lat":34.978767,"lng":138.956118,"zip":"4102407"},{"town":"加殿","koaza":"","lat":34.96967,"lng":138.956906,"zip":"4102405"},{"town":"門野原","koaza":"","lat":34.887617,"lng":138.85012,"zip":"4103209"},{"town":"上白岩","koaza":"","lat":34.966701,"lng":138.987855,"zip":"4102502"},{"town":"上船原","koaza":"","lat":34.924815,"lng":138.874259,"zip":"4103216"},{"town":"貴僧坊","koaza":"","lat":34.917146,"lng":138.984271,"zip":"4102517"},{"town":"熊坂","koaza":"","lat":34.989821,"lng":138.930792,"zip":"4102411"},{"town":"雲金","koaza":"","lat":34.939331,"lng":138.93838,"zip":"4103202"},{"town":"小下田","koaza":"","lat":34.873542,"lng":138.767165,"zip":"4103304"},{"town":"小立野","koaza":"","lat":34.975591,"lng":138.946029,"zip":"4102413"},{"town":"佐野","koaza":"","lat":34.94553,"lng":138.946815,"zip":"4103201"},{"town":"地蔵堂","koaza":"","lat":34.903365,"lng":138.989095,"zip":"4102515"},{"town":"下白岩","koaza":"","lat":34.990841,"lng":139.004513,"zip":"4102501"},{"town":"下船原","koaza":"","lat":34.925542,"lng":138.918447,"zip":"4103214"},{"town":"修善寺","koaza":"","lat":34.968683,"lng":138.886061,"zip":"4102416"},{"town":"城","koaza":"","lat":34.967946,"lng":139.012633,"zip":"4102503"},{"town":"菅引","koaza":"","lat":34.916112,"lng":139.005244,"zip":"4102513"},{"town":"関野","koaza":"","lat":34.963019,"lng":138.98939,"zip":"4102504"},{"town":"田沢","koaza":"","lat":34.912529,"lng":138.938859,"zip":"4103204"},{"town":"田代","koaza":"","lat":34.965315,"lng":138.966726,"zip":"4102404"},{"town":"月ケ瀬","koaza":"","lat":34.914931,"lng":138.920258,"zip":"4103215"},{"town":"土肥","koaza":"","lat":34.902409,"lng":138.814992,"zip":"4103302"},{"town":"徳永","koaza":"","lat":34.951637,"lng":139.044009,"zip":"4102506"},{"town":"戸倉野","koaza":"","lat":34.933243,"lng":138.996478,"zip":"4102519"},{"town":"年川","koaza":"","lat":34.988537,"lng":138.988198,"zip":"4102403"},{"town":"中原戸","koaza":"","lat":34.931827,"lng":139.006562,"zip":"4102512"},{"town":"八幡","koaza":"","lat":34.956446,"lng":139.002103,"zip":"4102505"},{"town":"冷川","koaza":"","lat":34.937424,"lng":139.01969,"zip":"4102507"},{"town":"日向","koaza":"","lat":34.953448,"lng":138.954122,"zip":"4102406"},{"town":"姫之湯","koaza":"","lat":34.92762,"lng":138.979511,"zip":"4102518"},{"town":"堀切","koaza":"","lat":34.992462,"lng":138.906184,"zip":"4102418"},{"town":"本柿木","koaza":"","lat":34.934667,"lng":138.911874,"zip":"4103212"},{"town":"本立野","koaza":"","lat":34.971068,"lng":138.943138,"zip":"4102414"},{"town":"牧之郷","koaza":"","lat":34.992039,"lng":138.957022,"zip":"4102401"},{"town":"松ケ瀬","koaza":"","lat":34.944841,"lng":138.931448,"zip":"4103211"},{"town":"宮上","koaza":"","lat":34.936655,"lng":138.988612,"zip":"4102511"},{"town":"持越","koaza":"","lat":34.887566,"lng":138.887065,"zip":"4103207"},{"town":"八木沢","koaza":"","lat":34.888643,"lng":138.778171,"zip":"4103303"},{"town":"矢熊","koaza":"","lat":34.924853,"lng":138.948482,"zip":"4103203"},{"town":"柳瀬","koaza":"","lat":34.943247,"lng":139.004403,"zip":"4102508"},{"town":"湯ケ島","koaza":"","lat":34.887012,"lng":138.924261,"zip":"4103206"},{"town":"吉奈","koaza":"","lat":34.902076,"lng":138.891252,"zip":"4103208"},{"town":"原保","koaza":"","lat":34.92528,"lng":138.997962,"zip":"4102514"}]