[{"town":"青島","koaza":"","lat":35.156038,"lng":138.678192,"zip":"4170046"},{"town":"青島町","koaza":"","lat":35.158711,"lng":138.674824,"zip":"4170047"},{"town":"青葉町","koaza":"","lat":35.162818,"lng":138.662462,"zip":"4160952"},{"town":"厚原","koaza":"","lat":35.190712,"lng":138.662012,"zip":"4190201"},{"town":"荒田島","koaza":"","lat":35.151701,"lng":138.691752,"zip":"4170042"},{"town":"荒田島町","koaza":"","lat":35.156856,"lng":138.687448,"zip":"4170043"},{"town":"石井","koaza":"","lat":35.198303,"lng":138.737988,"zip":"4170804"},{"town":"石坂","koaza":"","lat":35.181285,"lng":138.68362,"zip":"4170862"},{"town":"一色","koaza":"","lat":35.192598,"lng":138.702595,"zip":"4170808"},{"town":"今井","koaza":"","lat":35.147968,"lng":138.713845,"zip":"4170846"},{"town":"今井一丁目","koaza":"","lat":35.140083,"lng":138.709459,"zip":"4170846"},{"town":"今井二丁目","koaza":"","lat":35.139585,"lng":138.712602,"zip":"4170846"},{"town":"今井三丁目","koaza":"","lat":35.139327,"lng":138.716308,"zip":"4170846"},{"town":"今井四丁目","koaza":"","lat":35.143105,"lng":138.712326,"zip":"4170846"},{"town":"今泉","koaza":"","lat":35.177974,"lng":138.689863,"zip":"4170001"},{"town":"今泉一丁目","koaza":"","lat":35.162875,"lng":138.69148,"zip":"4170001"},{"town":"今泉二丁目","koaza":"","lat":35.164324,"lng":138.69348,"zip":"4170001"},{"town":"今泉三丁目","koaza":"","lat":35.164682,"lng":138.697681,"zip":"4170001"},{"town":"今泉四丁目","koaza":"","lat":35.168327,"lng":138.698767,"zip":"4170001"},{"town":"今泉五丁目","koaza":"","lat":35.168104,"lng":138.695533,"zip":"4170001"},{"town":"今泉六丁目","koaza":"","lat":35.168427,"lng":138.691674,"zip":"4170001"},{"town":"今泉七丁目","koaza":"","lat":35.166043,"lng":138.690065,"zip":"4170001"},{"town":"今泉八丁目","koaza":"","lat":35.167275,"lng":138.687773,"zip":"4170001"},{"town":"今泉九丁目","koaza":"","lat":35.169092,"lng":138.685453,"zip":"4170001"},{"town":"今宮","koaza":"","lat":35.205138,"lng":138.719004,"zip":"4170802"},{"town":"入山瀬","koaza":"","lat":35.200556,"lng":138.648236,"zip":"4190204"},{"town":"入山瀬一丁目","koaza":"","lat":35.186565,"lng":138.644802,"zip":"4190204"},{"town":"入山瀬二丁目","koaza":"","lat":35.190458,"lng":138.642936,"zip":"4190204"},{"town":"入山瀬三丁目","koaza":"","lat":35.193739,"lng":138.641446,"zip":"4190204"},{"town":"入山瀬四丁目","koaza":"","lat":35.191717,"lng":138.645543,"zip":"4190204"},{"town":"岩淵","koaza":"","lat":35.154959,"lng":138.610832,"zip":"4213305"},{"town":"岩本","koaza":"","lat":35.177756,"lng":138.63122,"zip":"4160901"},{"town":"宇東川西町","koaza":"","lat":35.167086,"lng":138.700319,"zip":"4170854"},{"town":"宇東川東町","koaza":"","lat":35.167789,"lng":138.703509,"zip":"4170853"},{"town":"鵜無ケ淵","koaza":"","lat":35.192661,"lng":138.72766,"zip":"4170805"},{"town":"瓜島","koaza":"","lat":35.164341,"lng":138.673193,"zip":"4170025"},{"town":"瓜島町","koaza":"","lat":35.167292,"lng":138.672934,"zip":"4170057"},{"town":"江尾","koaza":"","lat":35.166656,"lng":138.758543,"zip":"4170811"},{"town":"江尾南","koaza":"","lat":35.143781,"lng":138.753163,"zip":"4170817"},{"town":"大坪新田","koaza":"","lat":35.14692,"lng":138.7344,"zip":"4170000"},{"town":"大野","koaza":"","lat":35.143577,"lng":138.718424,"zip":"4170848"},{"town":"大野新田","koaza":"","lat":35.141275,"lng":138.723724,"zip":"4170845"},{"town":"大淵","koaza":"","lat":35.271033,"lng":138.738074,"zip":"4170801"},{"town":"桑崎","koaza":"","lat":35.233611,"lng":138.765845,"zip":"4170803"},{"town":"加島町","koaza":"","lat":35.158882,"lng":138.649995,"zip":"4160912"},{"town":"神谷","koaza":"","lat":35.192885,"lng":138.772388,"zip":"4170821"},{"town":"神谷新町","koaza":"","lat":35.159511,"lng":138.742852,"zip":"4170822"},{"town":"神谷南","koaza":"","lat":35.15164,"lng":138.744313,"zip":"4170823"},{"town":"上横割","koaza":"","lat":35.152003,"lng":138.655481,"zip":"4160942"},{"town":"川尻","koaza":"","lat":35.141528,"lng":138.734225,"zip":"4170825"},{"town":"川尻東","koaza":"","lat":35.145744,"lng":138.745106,"zip":"4170824"},{"town":"川成島","koaza":"","lat":35.136468,"lng":138.667007,"zip":"4160939"},{"town":"川成新町","koaza":"","lat":35.134681,"lng":138.664432,"zip":"4160955"},{"town":"木島","koaza":"","lat":35.170698,"lng":138.613229,"zip":"4213304"},{"town":"北松野","koaza":"","lat":35.177588,"lng":138.574489,"zip":"4213301"},{"town":"久沢","koaza":"","lat":35.194509,"lng":138.651187,"zip":"4190202"},{"town":"久沢一丁目","koaza":"","lat":35.189444,"lng":138.650261,"zip":"4190202"},{"town":"久沢二丁目","koaza":"","lat":35.192296,"lng":138.648146,"zip":"4190202"},{"town":"国久保一丁目","koaza":"","lat":35.170383,"lng":138.68345,"zip":"4170071"},{"town":"国久保二丁目","koaza":"","lat":35.170393,"lng":138.681628,"zip":"4170071"},{"town":"国久保三丁目","koaza":"","lat":35.17104,"lng":138.679423,"zip":"4170071"},{"town":"香西","koaza":"","lat":35.168402,"lng":138.664488,"zip":"4170062"},{"town":"香西新田","koaza":"","lat":35.16912,"lng":138.662512,"zip":"4170063"},{"town":"神戸","koaza":"","lat":35.193753,"lng":138.712746,"zip":"4170807"},{"town":"五貫島","koaza":"","lat":35.126009,"lng":138.646123,"zip":"4160946"},{"town":"五味島","koaza":"","lat":35.164432,"lng":138.664776,"zip":"4160905"},{"town":"境","koaza":"","lat":35.15846,"lng":138.762324,"zip":"4170812"},{"town":"境南","koaza":"","lat":35.148621,"lng":138.758188,"zip":"4170000"},{"town":"鮫島","koaza":"","lat":35.13841,"lng":138.681708,"zip":"4160934"},{"town":"三新田","koaza":"","lat":35.13923,"lng":138.73025,"zip":"4170842"},{"town":"島田町一丁目","koaza":"","lat":35.152388,"lng":138.687477,"zip":"4170033"},{"town":"島田町二丁目","koaza":"","lat":35.149266,"lng":138.685337,"zip":"4170033"},{"town":"下横割","koaza":"","lat":35.145066,"lng":138.66404,"zip":"4160943"},{"town":"十兵衛","koaza":"","lat":35.145908,"lng":138.664513,"zip":"4160941"},{"town":"新橋町","koaza":"","lat":35.160143,"lng":138.697075,"zip":"4170004"},{"town":"鈴川","koaza":"","lat":35.136411,"lng":138.703544,"zip":"4170015"},{"town":"鈴川町","koaza":"","lat":35.142072,"lng":138.700881,"zip":"4170015"},{"town":"鈴川中町","koaza":"","lat":35.140083,"lng":138.704221,"zip":"4170013"},{"town":"鈴川西町","koaza":"","lat":35.139556,"lng":138.69921,"zip":"4170014"},{"town":"鈴川東町","koaza":"","lat":35.140273,"lng":138.706943,"zip":"4170012"},{"town":"鈴川本町","koaza":"","lat":35.144288,"lng":138.702206,"zip":"4170011"},{"town":"浅間上町","koaza":"","lat":35.169106,"lng":138.677585,"zip":"4170072"},{"town":"浅間本町","koaza":"","lat":35.166675,"lng":138.677179,"zip":"4170073"},{"town":"鷹岡本町","koaza":"","lat":35.186626,"lng":138.647145,"zip":"4190203"},{"town":"高島町","koaza":"","lat":35.158383,"lng":138.671432,"zip":"4170048"},{"town":"高嶺町","koaza":"","lat":35.157425,"lng":138.682337,"zip":"4170044"},{"town":"田子","koaza":"","lat":35.134868,"lng":138.683979,"zip":"4160935"},{"town":"田島","koaza":"","lat":35.14969,"lng":138.695546,"zip":"4170031"},{"town":"田島新田","koaza":"","lat":35.148086,"lng":138.69367,"zip":"4170032"},{"town":"蓼原","koaza":"","lat":35.150446,"lng":138.670344,"zip":"4160931"},{"town":"蓼原町","koaza":"","lat":35.158972,"lng":138.666703,"zip":"4160953"},{"town":"田中新田","koaza":"","lat":35.136095,"lng":138.733622,"zip":"4170843"},{"town":"中央町一丁目","koaza":"","lat":35.161421,"lng":138.683956,"zip":"4170052"},{"town":"中央町二丁目","koaza":"","lat":35.161953,"lng":138.682082,"zip":"4170052"},{"town":"中央町三丁目","koaza":"","lat":35.162615,"lng":138.679934,"zip":"4170052"},{"town":"津田","koaza":"","lat":35.152642,"lng":138.679355,"zip":"4170034"},{"town":"津田町","koaza":"","lat":35.153723,"lng":138.682393,"zip":"4170035"},{"town":"伝法","koaza":"","lat":35.17863,"lng":138.672834,"zip":"4170061"},{"town":"天間","koaza":"","lat":35.206277,"lng":138.641443,"zip":"4190205"},{"town":"外木","koaza":"","lat":35.153261,"lng":138.685589,"zip":"4170037"},{"town":"中柏原新田","koaza":"","lat":35.135096,"lng":138.746809,"zip":"4170832"},{"town":"中河原","koaza":"","lat":35.147365,"lng":138.690527,"zip":"4170036"},{"town":"中河原新田","koaza":"","lat":35.151965,"lng":138.68186,"zip":"4170000"},{"town":"中里","koaza":"","lat":35.186293,"lng":138.750526,"zip":"4170826"},{"town":"中島","koaza":"","lat":35.164024,"lng":138.650267,"zip":"4160907"},{"town":"永田","koaza":"","lat":35.162426,"lng":138.676232,"zip":"4170054"},{"town":"永田北町","koaza":"","lat":35.16408,"lng":138.677801,"zip":"4170058"},{"town":"永田町一丁目","koaza":"","lat":35.160803,"lng":138.676992,"zip":"4170055"},{"town":"永田町二丁目","koaza":"","lat":35.162176,"lng":138.670688,"zip":"4170055"},{"town":"長通","koaza":"","lat":35.17168,"lng":138.653809,"zip":"4160902"},{"town":"中野","koaza":"","lat":35.200136,"lng":138.685036,"zip":"4170809"},{"town":"中之郷","koaza":"","lat":35.140945,"lng":138.61446,"zip":"4213306"},{"town":"中野台一丁目","koaza":"","lat":35.187354,"lng":138.601816,"zip":"4213302"},{"town":"中野台二丁目","koaza":"","lat":35.189536,"lng":138.600847,"zip":"4213302"},{"town":"中丸","koaza":"","lat":35.135122,"lng":138.674335,"zip":"4160933"},{"town":"西柏原新田","koaza":"","lat":35.136249,"lng":138.742137,"zip":"4170834"},{"town":"錦町一丁目","koaza":"","lat":35.159044,"lng":138.679012,"zip":"4170045"},{"town":"西船津","koaza":"","lat":35.161105,"lng":138.768676,"zip":"4170814"},{"town":"西船津南","koaza":"","lat":35.144639,"lng":138.759632,"zip":"4170000"},{"town":"沼田新田","koaza":"","lat":35.135789,"lng":138.737608,"zip":"4170833"},{"town":"八幡町","koaza":"","lat":35.160609,"lng":138.649879,"zip":"4160911"},{"town":"浜田町","koaza":"","lat":35.138313,"lng":138.689828,"zip":"4160938"},{"town":"原田","koaza":"","lat":35.174299,"lng":138.709157,"zip":"4170852"},{"town":"東柏原新田","koaza":"","lat":35.134359,"lng":138.750837,"zip":"4170831"},{"town":"比奈","koaza":"","lat":35.179596,"lng":138.73069,"zip":"4170847"},{"town":"檜","koaza":"","lat":35.143717,"lng":138.729437,"zip":"4170844"},{"town":"檜新田","koaza":"","lat":35.136917,"lng":138.729415,"zip":"4170844"},{"town":"日乃出町","koaza":"","lat":35.164901,"lng":138.667909,"zip":"4170056"},{"town":"広見西本町","koaza":"","lat":35.186473,"lng":138.68537,"zip":"4170863"},{"town":"広見東本町","koaza":"","lat":35.184954,"lng":138.689419,"zip":"4170861"},{"town":"広見本町","koaza":"","lat":35.185068,"lng":138.687045,"zip":"4170864"},{"town":"富士岡","koaza":"","lat":35.178211,"lng":138.737014,"zip":"4170841"},{"town":"富士岡南","koaza":"","lat":35.149403,"lng":138.722717,"zip":"4170000"},{"town":"富士町","koaza":"","lat":35.153033,"lng":138.648821,"zip":"4160915"},{"town":"富士見台一丁目","koaza":"","lat":35.184316,"lng":138.709734,"zip":"4170851"},{"town":"富士見台二丁目","koaza":"","lat":35.184088,"lng":138.712607,"zip":"4170851"},{"town":"富士見台三丁目","koaza":"","lat":35.183804,"lng":138.715484,"zip":"4170851"},{"town":"富士見台四丁目","koaza":"","lat":35.18283,"lng":138.718721,"zip":"4170851"},{"town":"富士見台五丁目","koaza":"","lat":35.179646,"lng":138.717344,"zip":"4170851"},{"town":"富士見台六丁目","koaza":"","lat":35.180553,"lng":138.714142,"zip":"4170851"},{"town":"富士見台七丁目","koaza":"","lat":35.181041,"lng":138.710506,"zip":"4170851"},{"town":"船津","koaza":"","lat":35.158211,"lng":138.772037,"zip":"4170813"},{"town":"船津南","koaza":"","lat":35.144321,"lng":138.766376,"zip":"4170000"},{"town":"平垣","koaza":"","lat":35.153938,"lng":138.65309,"zip":"4160916"},{"town":"平垣町","koaza":"","lat":35.156313,"lng":138.646868,"zip":"4160918"},{"town":"平垣本町","koaza":"","lat":35.156201,"lng":138.649569,"zip":"4160913"},{"town":"本町","koaza":"","lat":35.154413,"lng":138.650987,"zip":"4160914"},{"town":"前田","koaza":"","lat":35.144297,"lng":138.681144,"zip":"4160937"},{"town":"間門","koaza":"","lat":35.18541,"lng":138.726296,"zip":"4170806"},{"town":"増川","koaza":"","lat":35.169946,"lng":138.75369,"zip":"4170815"},{"town":"増川新町","koaza":"","lat":35.159021,"lng":138.744901,"zip":"4170816"},{"town":"増川南","koaza":"","lat":35.150092,"lng":138.750467,"zip":"4170000"},{"town":"松岡","koaza":"","lat":35.161256,"lng":138.629907,"zip":"4160909"},{"town":"松富町","koaza":"","lat":35.150851,"lng":138.638768,"zip":"4160919"},{"town":"松本","koaza":"","lat":35.17149,"lng":138.647755,"zip":"4160903"},{"town":"三ツ沢","koaza":"","lat":35.182672,"lng":138.705331,"zip":"4170855"},{"town":"水戸島","koaza":"","lat":35.144716,"lng":138.649852,"zip":"4160921"},{"town":"水戸島一丁目","koaza":"","lat":35.150657,"lng":138.644526,"zip":"4160921"},{"town":"水戸島二丁目","koaza":"","lat":35.147733,"lng":138.643628,"zip":"4160921"},{"town":"水戸島本町","koaza":"","lat":35.147666,"lng":138.64851,"zip":"4160924"},{"town":"水戸島元町","koaza":"","lat":35.150449,"lng":138.648656,"zip":"4160922"},{"town":"緑町","koaza":"","lat":35.159214,"lng":138.682194,"zip":"4170049"},{"town":"南町","koaza":"","lat":35.159495,"lng":138.687808,"zip":"4170026"},{"town":"南松野","koaza":"","lat":35.168891,"lng":138.591312,"zip":"4213303"},{"town":"宮下","koaza":"","lat":35.138855,"lng":138.635571,"zip":"4160947"},{"town":"宮島","koaza":"","lat":35.134618,"lng":138.657507,"zip":"4160945"},{"town":"御幸町","koaza":"","lat":35.160253,"lng":138.685737,"zip":"4170041"},{"town":"本市場","koaza":"","lat":35.156805,"lng":138.657497,"zip":"4160906"},{"town":"本市場新田","koaza":"","lat":35.16863,"lng":138.655425,"zip":"4160904"},{"town":"本市場町","koaza":"","lat":35.158592,"lng":138.660732,"zip":"4160954"},{"town":"元町","koaza":"","lat":35.15348,"lng":138.646162,"zip":"4160917"},{"town":"森下","koaza":"","lat":35.138915,"lng":138.64444,"zip":"4160949"},{"town":"森島","koaza":"","lat":35.141862,"lng":138.644404,"zip":"4160948"},{"town":"八代町","koaza":"","lat":35.153943,"lng":138.693717,"zip":"4170024"},{"town":"柳島","koaza":"","lat":35.141894,"lng":138.668185,"zip":"4160932"},{"town":"弥生","koaza":"","lat":35.169946,"lng":138.659814,"zip":"4170064"},{"town":"弥生新田","koaza":"","lat":35.17123,"lng":138.6571,"zip":"4170065"},{"town":"柚木","koaza":"","lat":35.158948,"lng":138.640839,"zip":"4160908"},{"town":"横割一丁目","koaza":"","lat":35.1477,"lng":138.652941,"zip":"4160944"},{"town":"横割二丁目","koaza":"","lat":35.147509,"lng":138.656771,"zip":"4160944"},{"town":"横割三丁目","koaza":"","lat":35.149725,"lng":138.655647,"zip":"4160944"},{"town":"横割四丁目","koaza":"","lat":35.149314,"lng":138.660618,"zip":"4160944"},{"town":"横割五丁目","koaza":"","lat":35.146276,"lng":138.661279,"zip":"4160944"},{"town":"横割六丁目","koaza":"","lat":35.145853,"lng":138.657918,"zip":"4160944"},{"town":"横割本町","koaza":"","lat":35.150037,"lng":138.65259,"zip":"4160923"},{"town":"吉原一丁目","koaza":"","lat":35.160581,"lng":138.691735,"zip":"4170051"},{"town":"吉原二丁目","koaza":"","lat":35.162742,"lng":138.686762,"zip":"4170051"},{"town":"吉原三丁目","koaza":"","lat":35.164201,"lng":138.685916,"zip":"4170051"},{"town":"吉原四丁目","koaza":"","lat":35.165441,"lng":138.68361,"zip":"4170051"},{"town":"吉原五丁目","koaza":"","lat":35.166112,"lng":138.681046,"zip":"4170051"},{"town":"吉原宝町","koaza":"","lat":35.157766,"lng":138.693626,"zip":"4170023"},{"town":"依田橋","koaza":"","lat":35.149551,"lng":138.704949,"zip":"4170002"},{"town":"依田橋町","koaza":"","lat":35.154337,"lng":138.69783,"zip":"4170003"},{"town":"依田原","koaza":"","lat":35.152344,"lng":138.693365,"zip":"4170021"},{"town":"依田原新田","koaza":"","lat":35.162226,"lng":138.677532,"zip":"4170053"},{"town":"依田原町","koaza":"","lat":35.158828,"lng":138.690322,"zip":"4170022"},{"town":"米之宮町","koaza":"","lat":35.164189,"lng":138.657345,"zip":"4160951"},{"town":"伝法","koaza":"久保田","lat":35.180962,"lng":138.660086,"zip":"4170061"},{"town":"伝法","koaza":"東平","lat":35.172876,"lng":138.677696,"zip":"4170061"},{"town":"今泉","koaza":"水深","lat":35.158081,"lng":138.701206,"zip":"4170001"},{"town":"柳島","koaza":"西河原","lat":35.143349,"lng":138.663467,"zip":"4160932"}]