[{"town":"青木","koaza":"","lat":35.25145,"lng":138.588399,"zip":"4180047"},{"town":"青木平","koaza":"","lat":35.247583,"lng":138.581535,"zip":"4180048"},{"town":"阿幸地","koaza":"","lat":35.24315,"lng":138.626043,"zip":"4180016"},{"town":"阿幸地町","koaza":"","lat":35.229166,"lng":138.621926,"zip":"4180078"},{"town":"安居山","koaza":"","lat":35.211531,"lng":138.586343,"zip":"4180037"},{"town":"朝日町","koaza":"","lat":35.232768,"lng":138.606045,"zip":"4180057"},{"town":"浅間町","koaza":"","lat":35.219116,"lng":138.611282,"zip":"4180032"},{"town":"粟倉","koaza":"","lat":35.300536,"lng":138.704348,"zip":"4180011"},{"town":"粟倉南町","koaza":"","lat":35.252071,"lng":138.636167,"zip":"4180018"},{"town":"泉町","koaza":"","lat":35.223783,"lng":138.601313,"zip":"4180043"},{"town":"猪之頭","koaza":"","lat":35.367571,"lng":138.555912,"zip":"4180108"},{"town":"内野","koaza":"","lat":35.335857,"lng":138.577844,"zip":"4180104"},{"town":"内房","koaza":"","lat":35.189019,"lng":138.541121,"zip":"4190317"},{"town":"馬見塚","koaza":"","lat":35.267152,"lng":138.590217,"zip":"4180113"},{"town":"大岩","koaza":"","lat":35.238815,"lng":138.634496,"zip":"4180013"},{"town":"大久保","koaza":"","lat":35.216411,"lng":138.561932,"zip":"4190314"},{"town":"大鹿窪","koaza":"","lat":35.2479,"lng":138.565556,"zip":"4190303"},{"town":"大中里","koaza":"","lat":35.22275,"lng":138.595917,"zip":"4180044"},{"town":"大宮町","koaza":"","lat":35.224282,"lng":138.611995,"zip":"4180066"},{"town":"上井出","koaza":"","lat":35.32595,"lng":138.605487,"zip":"4180103"},{"town":"上稲子","koaza":"","lat":35.283269,"lng":138.53481,"zip":"4190311"},{"town":"上条","koaza":"","lat":35.28524,"lng":138.584618,"zip":"4180116"},{"town":"上柚野","koaza":"","lat":35.272874,"lng":138.554671,"zip":"4190301"},{"town":"狩宿","koaza":"","lat":35.301659,"lng":138.588728,"zip":"4180117"},{"town":"神田川町","koaza":"","lat":35.220835,"lng":138.607332,"zip":"4180031"},{"town":"北町","koaza":"","lat":35.235538,"lng":138.610435,"zip":"4180061"},{"town":"北山","koaza":"","lat":35.315875,"lng":138.641254,"zip":"4180112"},{"town":"貴船町","koaza":"","lat":35.227286,"lng":138.602151,"zip":"4180042"},{"town":"黒田","koaza":"","lat":35.209715,"lng":138.621831,"zip":"4180034"},{"town":"源道寺町","koaza":"","lat":35.214266,"lng":138.624138,"zip":"4180074"},{"town":"小泉","koaza":"","lat":35.223252,"lng":138.63628,"zip":"4180022"},{"town":"佐折","koaza":"","lat":35.325046,"lng":138.552731,"zip":"4180107"},{"town":"下稲子","koaza":"","lat":35.233519,"lng":138.538815,"zip":"4190312"},{"town":"下条","koaza":"","lat":35.266484,"lng":138.576647,"zip":"4180114"},{"town":"下柚野","koaza":"","lat":35.249682,"lng":138.551182,"zip":"4190305"},{"town":"精進川","koaza":"","lat":35.282213,"lng":138.569333,"zip":"4180115"},{"town":"城北町","koaza":"","lat":35.233627,"lng":138.617413,"zip":"4180062"},{"town":"杉田","koaza":"","lat":35.224451,"lng":138.656113,"zip":"4180021"},{"town":"宝町","koaza":"","lat":35.230213,"lng":138.60622,"zip":"4180055"},{"town":"田中町","koaza":"","lat":35.21678,"lng":138.617015,"zip":"4180075"},{"town":"中央町","koaza":"","lat":35.22305,"lng":138.614971,"zip":"4180065"},{"town":"外神","koaza":"","lat":35.256714,"lng":138.598675,"zip":"4180006"},{"town":"外神東町","koaza":"","lat":35.260484,"lng":138.611297,"zip":"4180007"},{"town":"鳥並","koaza":"","lat":35.240235,"lng":138.553724,"zip":"4190304"},{"town":"中里東町","koaza":"","lat":35.22662,"lng":138.59839,"zip":"4180046"},{"town":"中島町","koaza":"","lat":35.231592,"lng":138.597409,"zip":"4180045"},{"town":"長貫","koaza":"","lat":35.214204,"lng":138.549119,"zip":"4190315"},{"town":"中原町","koaza":"","lat":35.24404,"lng":138.619905,"zip":"4180002"},{"town":"南陵","koaza":"","lat":35.261294,"lng":138.646445,"zip":"4180019"},{"town":"錦町","koaza":"","lat":35.220101,"lng":138.615691,"zip":"4180076"},{"town":"西小泉町","koaza":"","lat":35.218765,"lng":138.629386,"zip":"4180026"},{"town":"西町","koaza":"","lat":35.225286,"lng":138.605172,"zip":"4180056"},{"town":"西山","koaza":"","lat":35.234741,"lng":138.569217,"zip":"4190313"},{"town":"貫戸","koaza":"","lat":35.193416,"lng":138.620286,"zip":"4180024"},{"town":"沼久保","koaza":"","lat":35.193901,"lng":138.595441,"zip":"4180036"},{"town":"猫沢","koaza":"","lat":35.259278,"lng":138.562379,"zip":"4190302"},{"town":"根原","koaza":"","lat":35.415427,"lng":138.584565,"zip":"4180101"},{"town":"野中","koaza":"","lat":35.212022,"lng":138.605726,"zip":"4180039"},{"town":"野中町","koaza":"","lat":35.21811,"lng":138.606147,"zip":"4180038"},{"town":"野中東町","koaza":"","lat":35.215219,"lng":138.610068,"zip":"4180033"},{"town":"羽鮒","koaza":"","lat":35.209415,"lng":138.573438,"zip":"4190316"},{"town":"原","koaza":"","lat":35.309704,"lng":138.581023,"zip":"4180105"},{"town":"半野","koaza":"","lat":35.305374,"lng":138.570386,"zip":"4180106"},{"town":"東阿幸地","koaza":"","lat":35.228739,"lng":138.62552,"zip":"4180071"},{"town":"東町","koaza":"","lat":35.223322,"lng":138.618776,"zip":"4180077"},{"town":"光町","koaza":"","lat":35.232158,"lng":138.609636,"zip":"4180054"},{"town":"人穴","koaza":"","lat":35.363745,"lng":138.629189,"zip":"4180102"},{"town":"ひばりが丘","koaza":"","lat":35.236441,"lng":138.618066,"zip":"4180003"},{"town":"富士見ケ丘","koaza":"","lat":35.235242,"lng":138.623508,"zip":"4180014"},{"town":"舟久保町","koaza":"","lat":35.249104,"lng":138.638927,"zip":"4180017"},{"town":"麓","koaza":"","lat":35.40285,"lng":138.55554,"zip":"4180109"},{"town":"星山","koaza":"","lat":35.196813,"lng":138.608473,"zip":"4180035"},{"town":"穂波町","koaza":"","lat":35.235343,"lng":138.59783,"zip":"4180058"},{"town":"舞々木町","koaza":"","lat":35.240936,"lng":138.622896,"zip":"4180015"},{"town":"前田町","koaza":"","lat":35.214367,"lng":138.629413,"zip":"4180025"},{"town":"万野原新田","koaza":"","lat":35.251904,"lng":138.624866,"zip":"4180001"},{"town":"三園平","koaza":"","lat":35.241028,"lng":138.615001,"zip":"4180004"},{"town":"宮北町","koaza":"","lat":35.237344,"lng":138.611658,"zip":"4180053"},{"town":"宮町","koaza":"","lat":35.226292,"lng":138.608951,"zip":"4180067"},{"town":"宮原","koaza":"","lat":35.250973,"lng":138.610288,"zip":"4180005"},{"town":"村山","koaza":"","lat":35.252889,"lng":138.65809,"zip":"4180012"},{"town":"元城町","koaza":"","lat":35.227886,"lng":138.613299,"zip":"4180064"},{"town":"矢立町","koaza":"","lat":35.225811,"lng":138.622738,"zip":"4180072"},{"town":"山宮","koaza":"","lat":35.31007,"lng":138.679359,"zip":"4180111"},{"town":"山本","koaza":"","lat":35.196404,"lng":138.628913,"zip":"4180023"},{"town":"豊町","koaza":"","lat":35.231017,"lng":138.61247,"zip":"4180068"},{"town":"弓沢町","koaza":"","lat":35.220017,"lng":138.624132,"zip":"4180073"},{"town":"淀川町","koaza":"","lat":35.232003,"lng":138.601508,"zip":"4180041"},{"town":"淀師","koaza":"","lat":35.241649,"lng":138.602476,"zip":"4180051"},{"town":"淀平町","koaza":"","lat":35.238247,"lng":138.607272,"zip":"4180052"},{"town":"若の宮町","koaza":"","lat":35.229467,"lng":138.618155,"zip":"4180063"},{"town":"根原","koaza":"宝山","lat":35.421896,"lng":138.596879,"zip":"4180101"},{"town":"万野原新田","koaza":"宮五本松","lat":35.255365,"lng":138.61735,"zip":"4180001"}]