[{"town":"旭一丁目","koaza":"","lat":34.831401,"lng":138.187966,"zip":"4270018"},{"town":"旭二丁目","koaza":"","lat":34.832396,"lng":138.194801,"zip":"4270018"},{"town":"旭三丁目","koaza":"","lat":34.828924,"lng":138.193406,"zip":"4270018"},{"town":"阿知ケ谷","koaza":"","lat":34.846218,"lng":138.197706,"zip":"4270006"},{"town":"井口","koaza":"","lat":34.798347,"lng":138.231115,"zip":"4270104"},{"town":"伊久美","koaza":"","lat":34.933907,"lng":138.135124,"zip":"4270232"},{"town":"伊太","koaza":"","lat":34.861761,"lng":138.153051,"zip":"4270034"},{"town":"稲荷一丁目","koaza":"","lat":34.836561,"lng":138.147272,"zip":"4270038"},{"town":"稲荷二丁目","koaza":"","lat":34.838844,"lng":138.152105,"zip":"4270038"},{"town":"稲荷三丁目","koaza":"","lat":34.837921,"lng":138.156185,"zip":"4270038"},{"town":"稲荷四丁目","koaza":"","lat":34.835228,"lng":138.156258,"zip":"4270038"},{"town":"鵜網","koaza":"","lat":34.888731,"lng":138.122104,"zip":"4270031"},{"town":"牛尾","koaza":"","lat":34.850665,"lng":138.128841,"zip":"4280006"},{"town":"相賀","koaza":"","lat":34.884926,"lng":138.141177,"zip":"4270033"},{"town":"御請","koaza":"","lat":34.829922,"lng":138.211984,"zip":"4270013"},{"town":"大井町","koaza":"","lat":34.834599,"lng":138.170882,"zip":"4270025"},{"town":"大川町","koaza":"","lat":34.831159,"lng":138.176546,"zip":"4270023"},{"town":"扇町","koaza":"","lat":34.834981,"lng":138.173913,"zip":"4270026"},{"town":"大草","koaza":"","lat":34.877099,"lng":138.180183,"zip":"4270002"},{"town":"大代","koaza":"","lat":34.865978,"lng":138.069371,"zip":"4280009"},{"town":"大津通","koaza":"","lat":34.834296,"lng":138.178454,"zip":"4270056"},{"town":"大柳","koaza":"","lat":34.816643,"lng":138.225036,"zip":"4270101"},{"town":"大柳南","koaza":"","lat":34.805841,"lng":138.228789,"zip":"4270102"},{"town":"岡田","koaza":"","lat":34.797969,"lng":138.223635,"zip":"4270106"},{"town":"御仮屋町","koaza":"","lat":34.835929,"lng":138.190644,"zip":"4270053"},{"town":"尾川","koaza":"","lat":34.872983,"lng":138.167699,"zip":"4270009"},{"town":"落合","koaza":"","lat":34.85778,"lng":138.17842,"zip":"4270008"},{"town":"金谷上十五軒","koaza":"","lat":34.824342,"lng":138.130292,"zip":"4280027"},{"town":"金谷金山町","koaza":"","lat":34.821534,"lng":138.125668,"zip":"4280046"},{"town":"金谷栄町","koaza":"","lat":34.830752,"lng":138.128123,"zip":"4280017"},{"town":"金谷坂町","koaza":"","lat":34.815539,"lng":138.126757,"zip":"4280023"},{"town":"金谷猪土居","koaza":"","lat":34.804057,"lng":138.137565,"zip":"4280039"},{"town":"金谷下十五軒","koaza":"","lat":34.824839,"lng":138.130815,"zip":"4280028"},{"town":"金谷城山町","koaza":"","lat":34.818692,"lng":138.122454,"zip":"4280048"},{"town":"金谷新町","koaza":"","lat":34.822433,"lng":138.120475,"zip":"4280047"},{"town":"金谷代官町","koaza":"","lat":34.83495,"lng":138.125174,"zip":"4280012"},{"town":"金谷田町","koaza":"","lat":34.820761,"lng":138.126915,"zip":"4280025"},{"town":"金谷根岸町","koaza":"","lat":34.829222,"lng":138.125186,"zip":"4280018"},{"town":"金谷富士見町","koaza":"","lat":34.815238,"lng":138.13333,"zip":"4280034"},{"town":"金谷古横町","koaza":"","lat":34.82541,"lng":138.128531,"zip":"4280042"},{"town":"金谷本町","koaza":"","lat":34.822783,"lng":138.128884,"zip":"4280026"},{"town":"金谷緑町","koaza":"","lat":34.823298,"lng":138.126172,"zip":"4280044"},{"town":"金谷南町","koaza":"","lat":34.818602,"lng":138.130003,"zip":"4280024"},{"town":"金谷都町","koaza":"","lat":34.82536,"lng":138.130041,"zip":"4280041"},{"town":"金谷宮崎町","koaza":"","lat":34.82759,"lng":138.130464,"zip":"4280016"},{"town":"神尾","koaza":"","lat":34.881163,"lng":138.096664,"zip":"4280003"},{"town":"神谷城","koaza":"","lat":34.803331,"lng":138.122722,"zip":"4280036"},{"town":"川根町家山","koaza":"","lat":34.955971,"lng":138.040104,"zip":"4280104"},{"town":"川根町上河内","koaza":"","lat":34.957466,"lng":138.122949,"zip":"4280102"},{"town":"川根町笹間上","koaza":"","lat":35.029085,"lng":138.160707,"zip":"4280211"},{"town":"川根町笹間下","koaza":"","lat":34.9846,"lng":138.120403,"zip":"4280212"},{"town":"川根町笹間渡","koaza":"","lat":34.968153,"lng":138.0936,"zip":"4280101"},{"town":"川根町葛籠","koaza":"","lat":34.982153,"lng":138.063954,"zip":"4280105"},{"town":"川根町抜里","koaza":"","lat":34.95996,"lng":138.074512,"zip":"4280106"},{"town":"川根町身成","koaza":"","lat":34.937794,"lng":138.099105,"zip":"4280103"},{"town":"河原一丁目","koaza":"","lat":34.831674,"lng":138.153742,"zip":"4270037"},{"town":"河原二丁目","koaza":"","lat":34.832964,"lng":138.156826,"zip":"4270037"},{"town":"神座","koaza":"","lat":34.871507,"lng":138.115008,"zip":"4270032"},{"town":"祇園町","koaza":"","lat":34.834785,"lng":138.183683,"zip":"4270058"},{"town":"菊川","koaza":"","lat":34.820352,"lng":138.111464,"zip":"4280037"},{"town":"岸","koaza":"","lat":34.84874,"lng":138.209535,"zip":"4270004"},{"town":"岸町","koaza":"","lat":34.843521,"lng":138.2106,"zip":"4270005"},{"town":"切山","koaza":"","lat":34.798587,"lng":138.147593,"zip":"4280035"},{"town":"幸町","koaza":"","lat":34.83479,"lng":138.17581,"zip":"4270027"},{"town":"栄町","koaza":"","lat":34.831047,"lng":138.174841,"zip":"4270028"},{"town":"阪本","koaza":"","lat":34.813711,"lng":138.21121,"zip":"4270111"},{"town":"笹間下","koaza":"","lat":34.978419,"lng":138.157042,"zip":"4270231"},{"town":"佐夜鹿","koaza":"","lat":34.820459,"lng":138.101949,"zip":"4280038"},{"town":"志戸呂","koaza":"","lat":34.837245,"lng":138.106803,"zip":"4280019"},{"town":"島","koaza":"","lat":34.84131,"lng":138.125463,"zip":"4280007"},{"town":"新田町","koaza":"","lat":34.834615,"lng":138.180927,"zip":"4270059"},{"town":"新町通","koaza":"","lat":34.830989,"lng":138.178088,"zip":"4270055"},{"town":"高熊","koaza":"","lat":34.910191,"lng":138.074396,"zip":"4280001"},{"town":"高砂町","koaza":"","lat":34.831319,"lng":138.182569,"zip":"4270054"},{"town":"高島町","koaza":"","lat":34.82964,"lng":138.19995,"zip":"4270015"},{"town":"竹下","koaza":"","lat":34.84702,"lng":138.117553,"zip":"4280008"},{"town":"千葉","koaza":"","lat":34.892546,"lng":138.166539,"zip":"4270001"},{"town":"中央町","koaza":"","lat":34.838293,"lng":138.175701,"zip":"4270042"},{"town":"月坂一丁目","koaza":"","lat":34.803052,"lng":138.211383,"zip":"4270112"},{"town":"月坂二丁目","koaza":"","lat":34.804192,"lng":138.214862,"zip":"4270112"},{"town":"道悦一丁目","koaza":"","lat":34.836223,"lng":138.200404,"zip":"4270019"},{"town":"道悦二丁目","koaza":"","lat":34.83409,"lng":138.200785,"zip":"4270019"},{"town":"道悦三丁目","koaza":"","lat":34.8324,"lng":138.203922,"zip":"4270019"},{"town":"道悦四丁目","koaza":"","lat":34.834775,"lng":138.207445,"zip":"4270019"},{"town":"道悦五丁目","koaza":"","lat":34.837275,"lng":138.209018,"zip":"4270019"},{"town":"道悦島","koaza":"","lat":34.828997,"lng":138.207933,"zip":"4270014"},{"town":"東光寺","koaza":"","lat":34.871669,"lng":138.19378,"zip":"4270003"},{"town":"中河","koaza":"","lat":34.80948,"lng":138.237394,"zip":"4270103"},{"town":"中河町","koaza":"","lat":34.839767,"lng":138.178735,"zip":"4270041"},{"town":"中溝四丁目","koaza":"","lat":34.836924,"lng":138.171809,"zip":"4270043"},{"town":"中溝町","koaza":"","lat":34.840988,"lng":138.165511,"zip":"4270047"},{"town":"野田","koaza":"","lat":34.852409,"lng":138.185931,"zip":"4270007"},{"town":"旗指","koaza":"","lat":34.847067,"lng":138.166404,"zip":"4270048"},{"town":"ばらの丘一丁目","koaza":"","lat":34.853697,"lng":138.172327,"zip":"4270061"},{"town":"ばらの丘二丁目","koaza":"","lat":34.857222,"lng":138.173347,"zip":"4270061"},{"town":"番生寺","koaza":"","lat":34.838095,"lng":138.118615,"zip":"4280011"},{"town":"東町","koaza":"","lat":34.834744,"lng":138.223622,"zip":"4270011"},{"town":"日之出町","koaza":"","lat":34.831127,"lng":138.173752,"zip":"4270029"},{"town":"福用","koaza":"","lat":34.896098,"lng":138.075396,"zip":"4280002"},{"town":"船木","koaza":"","lat":34.795359,"lng":138.211816,"zip":"4270107"},{"town":"宝来町","koaza":"","lat":34.827408,"lng":138.186433,"zip":"4270016"},{"town":"細島","koaza":"","lat":34.82894,"lng":138.2165,"zip":"4270012"},{"town":"本通一丁目","koaza":"","lat":34.83167,"lng":138.171718,"zip":"4270022"},{"town":"本通二丁目","koaza":"","lat":34.832981,"lng":138.174222,"zip":"4270022"},{"town":"本通三丁目","koaza":"","lat":34.8322,"lng":138.175631,"zip":"4270022"},{"town":"本通四丁目","koaza":"","lat":34.832788,"lng":138.177024,"zip":"4270022"},{"town":"本通五丁目","koaza":"","lat":34.832482,"lng":138.178158,"zip":"4270022"},{"town":"本通六丁目","koaza":"","lat":34.831701,"lng":138.179497,"zip":"4270022"},{"town":"本通七丁目","koaza":"","lat":34.832959,"lng":138.184688,"zip":"4270022"},{"town":"牧之原","koaza":"","lat":34.79726,"lng":138.210857,"zip":"4280049"},{"town":"松葉町","koaza":"","lat":34.840392,"lng":138.19081,"zip":"4270052"},{"town":"三ッ合町","koaza":"","lat":34.840502,"lng":138.157983,"zip":"4270000"},{"town":"南一丁目","koaza":"","lat":34.825048,"lng":138.179199,"zip":"4270017"},{"town":"南二丁目","koaza":"","lat":34.826823,"lng":138.182182,"zip":"4270017"},{"town":"南原","koaza":"","lat":34.792338,"lng":138.229072,"zip":"4270105"},{"town":"身成","koaza":"","lat":34.907799,"lng":138.110002,"zip":"4270233"},{"town":"宮川町","koaza":"","lat":34.836014,"lng":138.168067,"zip":"4270044"},{"town":"向島町","koaza":"","lat":34.830596,"lng":138.158529,"zip":"4270045"},{"town":"向谷一丁目","koaza":"","lat":34.842632,"lng":138.1441,"zip":"4270039"},{"town":"向谷二丁目","koaza":"","lat":34.841041,"lng":138.145883,"zip":"4270039"},{"town":"向谷三丁目","koaza":"","lat":34.842426,"lng":138.149371,"zip":"4270039"},{"town":"向谷四丁目","koaza":"","lat":34.842077,"lng":138.152851,"zip":"4270039"},{"town":"向谷元町","koaza":"","lat":34.844575,"lng":138.154829,"zip":"4270035"},{"town":"元島田","koaza":"","lat":34.840377,"lng":138.185583,"zip":"4270057"},{"town":"元島田東町","koaza":"","lat":34.84147,"lng":138.187692,"zip":"4270051"},{"town":"柳町","koaza":"","lat":34.834258,"lng":138.176962,"zip":"4270021"},{"town":"横井一丁目","koaza":"","lat":34.827075,"lng":138.163439,"zip":"4270024"},{"town":"横井二丁目","koaza":"","lat":34.825031,"lng":138.167144,"zip":"4270024"},{"town":"横井三丁目","koaza":"","lat":34.824755,"lng":138.170429,"zip":"4270024"},{"town":"横井四丁目","koaza":"","lat":34.824757,"lng":138.17506,"zip":"4270024"},{"town":"横岡","koaza":"","lat":34.858797,"lng":138.107762,"zip":"4280004"},{"town":"横岡新田","koaza":"","lat":34.854498,"lng":138.119128,"zip":"4280005"},{"town":"若松町","koaza":"","lat":34.837477,"lng":138.162457,"zip":"4270046"},{"town":"金谷二軒家","koaza":"","lat":34.817557,"lng":138.144234,"zip":"4280033"},{"town":"金谷東一丁目","koaza":"","lat":34.833258,"lng":138.136663,"zip":"4280013"},{"town":"金谷扇町","koaza":"","lat":34.827187,"lng":138.132683,"zip":"4280015"},{"town":"金谷中町","koaza":"","lat":34.825272,"lng":138.131941,"zip":"4280043"},{"town":"金谷清水","koaza":"","lat":34.824021,"lng":138.132205,"zip":"4280031"},{"town":"金谷天王町","koaza":"","lat":34.820012,"lng":138.135497,"zip":"4280032"},{"town":"金谷泉町","koaza":"","lat":34.826809,"lng":138.134852,"zip":"4280014"},{"town":"金谷東二丁目","koaza":"","lat":34.823105,"lng":138.142038,"zip":"4280013"},{"town":"湯日","koaza":"","lat":34.808078,"lng":138.167042,"zip":"4270113"}]