[{"town":"池新田","koaza":"","lat":34.643948,"lng":138.127084,"zip":"4371612"},{"town":"御前崎","koaza":"","lat":34.60442,"lng":138.216064,"zip":"4371621"},{"town":"門屋","koaza":"","lat":34.657948,"lng":138.110224,"zip":"4371615"},{"town":"上朝比奈","koaza":"","lat":34.67995,"lng":138.159421,"zip":"4371601"},{"town":"合戸","koaza":"","lat":34.64886,"lng":138.087425,"zip":"4371613"},{"town":"佐倉","koaza":"","lat":34.631479,"lng":138.154267,"zip":"4371604"},{"town":"塩原新田","koaza":"","lat":34.643444,"lng":138.1029,"zip":"4371614"},{"town":"下朝比奈","koaza":"","lat":34.674006,"lng":138.138648,"zip":"4371605"},{"town":"白羽","koaza":"","lat":34.613066,"lng":138.185692,"zip":"4371622"},{"town":"新野","koaza":"","lat":34.680739,"lng":138.122994,"zip":"4371611"},{"town":"比木","koaza":"","lat":34.653173,"lng":138.160722,"zip":"4371602"},{"town":"港","koaza":"","lat":34.612176,"lng":138.215758,"zip":"4371623"},{"town":"宮内","koaza":"","lat":34.64495,"lng":138.152276,"zip":"4371603"},{"town":"池新田","koaza":"下水神","lat":34.635702,"lng":138.13467,"zip":"4371612"},{"town":"白羽","koaza":"薄原","lat":34.609084,"lng":138.202435,"zip":"4371622"}]