[{"town":"板妻","koaza":"","lat":35.283449,"lng":138.884754,"zip":"4120048"},{"town":"印野","koaza":"","lat":35.312017,"lng":138.82422,"zip":"4120008"},{"town":"大坂","koaza":"","lat":35.245805,"lng":138.920674,"zip":"4120034"},{"town":"大堰","koaza":"","lat":35.327789,"lng":138.95557,"zip":"4120014"},{"town":"小倉野","koaza":"","lat":35.327498,"lng":138.966373,"zip":"4120013"},{"town":"竈","koaza":"","lat":35.277182,"lng":138.923085,"zip":"4120039"},{"town":"上小林","koaza":"","lat":35.339561,"lng":138.911956,"zip":"4120002"},{"town":"川島田","koaza":"","lat":35.297328,"lng":138.924175,"zip":"4120045"},{"town":"川柳","koaza":"","lat":35.311715,"lng":138.883042,"zip":"4120009"},{"town":"茱萸沢","koaza":"","lat":35.314376,"lng":138.915368,"zip":"4120041"},{"town":"神山","koaza":"","lat":35.237205,"lng":138.936744,"zip":"4120033"},{"town":"神山平一丁目","koaza":"","lat":35.240206,"lng":138.924755,"zip":"4120029"},{"town":"神山平二丁目","koaza":"","lat":35.240501,"lng":138.926491,"zip":"4120029"},{"town":"神山平三丁目","koaza":"","lat":35.243176,"lng":138.926737,"zip":"4120029"},{"town":"御殿場","koaza":"","lat":35.317774,"lng":138.943273,"zip":"4120028"},{"town":"駒門","koaza":"","lat":35.254956,"lng":138.892905,"zip":"4120038"},{"town":"駒門一丁目","koaza":"","lat":35.259305,"lng":138.901781,"zip":"4120038"},{"town":"柴怒田","koaza":"","lat":35.332231,"lng":138.905055,"zip":"4120003"},{"town":"神場","koaza":"","lat":35.273351,"lng":138.894033,"zip":"4120047"},{"town":"神場一丁目","koaza":"","lat":35.27366,"lng":138.90509,"zip":"4120047"},{"town":"神場二丁目","koaza":"","lat":35.273471,"lng":138.907957,"zip":"4120047"},{"town":"神場三丁目","koaza":"","lat":35.269576,"lng":138.90897,"zip":"4120047"},{"town":"杉名沢","koaza":"","lat":35.29054,"lng":138.919439,"zip":"4120044"},{"town":"清後","koaza":"","lat":35.325153,"lng":138.948273,"zip":"4120022"},{"town":"塚原","koaza":"","lat":35.331972,"lng":138.928131,"zip":"4120017"},{"town":"中清水","koaza":"","lat":35.261409,"lng":138.917036,"zip":"4120037"},{"town":"永塚","koaza":"","lat":35.306491,"lng":138.893483,"zip":"4120007"},{"town":"中畑","koaza":"","lat":35.331067,"lng":138.852237,"zip":"4120006"},{"town":"中丸","koaza":"","lat":35.331187,"lng":138.957193,"zip":"4120015"},{"town":"中山","koaza":"","lat":35.257313,"lng":138.921772,"zip":"4120035"},{"town":"新橋","koaza":"","lat":35.295342,"lng":138.938629,"zip":"4120043"},{"town":"西田中","koaza":"","lat":35.321946,"lng":138.936989,"zip":"4120027"},{"town":"二の岡一丁目","koaza":"","lat":35.290615,"lng":138.946061,"zip":"4120025"},{"town":"二枚橋","koaza":"","lat":35.307991,"lng":138.937452,"zip":"4120021"},{"town":"沼田","koaza":"","lat":35.274324,"lng":138.929899,"zip":"4120031"},{"town":"萩蕪","koaza":"","lat":35.26981,"lng":138.927082,"zip":"4120036"},{"town":"萩原","koaza":"","lat":35.309507,"lng":138.932147,"zip":"4120042"},{"town":"東田中","koaza":"","lat":35.280222,"lng":138.950802,"zip":"4120026"},{"town":"東田中一丁目","koaza":"","lat":35.303384,"lng":138.939432,"zip":"4120026"},{"town":"東田中二丁目","koaza":"","lat":35.301879,"lng":138.942617,"zip":"4120026"},{"town":"東田中三丁目","koaza":"","lat":35.305348,"lng":138.941932,"zip":"4120026"},{"town":"東山","koaza":"","lat":35.297696,"lng":138.957299,"zip":"4120024"},{"town":"仁杉","koaza":"","lat":35.325902,"lng":138.906801,"zip":"4120005"},{"town":"深沢","koaza":"","lat":35.298682,"lng":138.970468,"zip":"4120023"},{"town":"富士見原一丁目","koaza":"","lat":35.239541,"lng":138.913508,"zip":"4120051"},{"town":"富士見原二丁目","koaza":"","lat":35.239949,"lng":138.915757,"zip":"4120051"},{"town":"富士見原三丁目","koaza":"","lat":35.242394,"lng":138.917321,"zip":"4120051"},{"town":"二子","koaza":"","lat":35.25829,"lng":138.93865,"zip":"4120032"},{"town":"古沢","koaza":"","lat":35.336886,"lng":138.93677,"zip":"4120011"},{"town":"北久原","koaza":"","lat":35.317574,"lng":138.929889,"zip":"4120004"},{"town":"保土沢","koaza":"","lat":35.294026,"lng":138.900389,"zip":"4120046"},{"town":"増田","koaza":"","lat":35.33232,"lng":138.949379,"zip":"4120012"},{"town":"水土野","koaza":"","lat":35.339835,"lng":138.890746,"zip":"4120001"},{"town":"六日市場","koaza":"","lat":35.329948,"lng":138.918625,"zip":"4120016"},{"town":"山尾田","koaza":"","lat":35.329473,"lng":138.935544,"zip":"4120019"},{"town":"山之尻","koaza":"","lat":35.325875,"lng":138.933562,"zip":"4120018"},{"town":"竈","koaza":"水道","lat":35.279086,"lng":138.923596,"zip":"4120039"},{"town":"川島田","koaza":"石原坂","lat":35.298484,"lng":138.924115,"zip":"4120045"},{"town":"茱萸沢","koaza":"丸田","lat":35.304878,"lng":138.924367,"zip":"4120041"},{"town":"新橋","koaza":"堀向","lat":35.29187,"lng":138.938875,"zip":"4120043"}]