[{"town":"葵町","koaza":"","lat":34.770586,"lng":138.028501,"zip":"4360018"},{"town":"青葉台","koaza":"","lat":34.7716,"lng":138.032497,"zip":"4360019"},{"town":"秋葉路","koaza":"","lat":34.782411,"lng":137.993284,"zip":"4360041"},{"town":"上張","koaza":"","lat":34.763713,"lng":138.019729,"zip":"4360022"},{"town":"旭ケ丘一丁目","koaza":"","lat":34.782686,"lng":138.022624,"zip":"4360062"},{"town":"旭ケ丘二丁目","koaza":"","lat":34.782739,"lng":138.025284,"zip":"4360062"},{"town":"旭台","koaza":"","lat":34.780148,"lng":138.021364,"zip":"4360069"},{"town":"安養寺","koaza":"","lat":34.78831,"lng":138.03623,"zip":"4360089"},{"town":"家代","koaza":"","lat":34.795412,"lng":137.976844,"zip":"4360225"},{"town":"家代の里一丁目","koaza":"","lat":34.787034,"lng":137.975816,"zip":"4360227"},{"town":"家代の里二丁目","koaza":"","lat":34.790277,"lng":137.976824,"zip":"4360227"},{"town":"家代の里三丁目","koaza":"","lat":34.790011,"lng":137.972538,"zip":"4360227"},{"town":"居尻","koaza":"","lat":34.882946,"lng":138.018401,"zip":"4360332"},{"town":"板沢","koaza":"","lat":34.748095,"lng":138.020487,"zip":"4360016"},{"town":"今滝","koaza":"","lat":34.707941,"lng":138.025369,"zip":"4371436"},{"town":"入山瀬","koaza":"","lat":34.726356,"lng":138.017623,"zip":"4371438"},{"town":"岩滑","koaza":"","lat":34.705956,"lng":138.065635,"zip":"4371403"},{"town":"印内","koaza":"","lat":34.775773,"lng":138.029382,"zip":"4360072"},{"town":"梅橋","koaza":"","lat":34.75529,"lng":137.96618,"zip":"4360034"},{"town":"駅前","koaza":"","lat":34.770314,"lng":138.016198,"zip":"4360077"},{"town":"大字菖蒲ヶ池","koaza":"","lat":34.758382,"lng":137.999453,"zip":"4360000"},{"town":"大池","koaza":"","lat":34.777107,"lng":137.992875,"zip":"4360043"},{"town":"大坂","koaza":"","lat":34.680613,"lng":138.037007,"zip":"4371421"},{"town":"大多郎","koaza":"","lat":34.786454,"lng":138.025459,"zip":"4360087"},{"town":"大坪台","koaza":"","lat":34.71023,"lng":138.04038,"zip":"4371439"},{"town":"大野","koaza":"","lat":34.812844,"lng":138.069503,"zip":"4360009"},{"town":"大渕","koaza":"","lat":34.684587,"lng":138.00981,"zip":"4371302"},{"town":"大和田","koaza":"","lat":34.857249,"lng":138.001152,"zip":"4360335"},{"town":"岡津","koaza":"","lat":34.768484,"lng":137.971568,"zip":"4360037"},{"town":"沖之須","koaza":"","lat":34.66819,"lng":137.987461,"zip":"4371303"},{"town":"小鷹町","koaza":"","lat":34.77298,"lng":138.000575,"zip":"4360045"},{"town":"小貫","koaza":"","lat":34.721244,"lng":138.040296,"zip":"4371407"},{"town":"海戸","koaza":"","lat":34.67673,"lng":138.057394,"zip":"4371422"},{"town":"各和","koaza":"","lat":34.772405,"lng":137.960029,"zip":"4360113"},{"town":"葛ケ丘一丁目","koaza":"","lat":34.788598,"lng":138.027383,"zip":"4360088"},{"town":"葛ケ丘二丁目","koaza":"","lat":34.789372,"lng":138.031339,"zip":"4360088"},{"town":"葛ケ丘三丁目","koaza":"","lat":34.78695,"lng":138.029372,"zip":"4360088"},{"town":"金城","koaza":"","lat":34.774869,"lng":138.032668,"zip":"4360073"},{"town":"上内田","koaza":"","lat":34.750195,"lng":138.052138,"zip":"4360012"},{"town":"上西郷","koaza":"","lat":34.816283,"lng":138.012265,"zip":"4360342"},{"town":"上垂木","koaza":"","lat":34.81997,"lng":137.987805,"zip":"4360221"},{"town":"上西之谷","koaza":"","lat":34.875845,"lng":137.995865,"zip":"4360101"},{"town":"上土方","koaza":"","lat":34.704882,"lng":138.042441,"zip":"4371433"},{"town":"上土方落合","koaza":"","lat":34.719384,"lng":138.035153,"zip":"4371431"},{"town":"上土方工業団地","koaza":"","lat":34.706089,"lng":138.03184,"zip":"4371432"},{"town":"上土方旦付新田","koaza":"","lat":34.712998,"lng":138.019185,"zip":"4371437"},{"town":"上土方嶺向","koaza":"","lat":34.702094,"lng":138.033498,"zip":"4371435"},{"town":"上屋敷","koaza":"","lat":34.781983,"lng":138.002424,"zip":"4360049"},{"town":"亀の甲一丁目","koaza":"","lat":34.767622,"lng":138.011429,"zip":"4360028"},{"town":"亀の甲二丁目","koaza":"","lat":34.765299,"lng":138.012789,"zip":"4360028"},{"town":"川久保","koaza":"","lat":34.686697,"lng":138.053927,"zip":"4371406"},{"town":"岩井寺","koaza":"","lat":34.737107,"lng":138.02481,"zip":"4360014"},{"town":"菊浜","koaza":"","lat":34.663002,"lng":138.060228,"zip":"4371415"},{"town":"北門","koaza":"","lat":34.779134,"lng":138.015146,"zip":"4360064"},{"town":"喜町","koaza":"","lat":34.772768,"lng":138.021575,"zip":"4360094"},{"town":"清崎","koaza":"","lat":34.77437,"lng":138.000721,"zip":"4360044"},{"town":"葛川","koaza":"","lat":34.77504,"lng":138.025545,"zip":"4360074"},{"town":"国包","koaza":"","lat":34.670054,"lng":138.066202,"zip":"4371414"},{"town":"国安","koaza":"","lat":34.657897,"lng":138.06683,"zip":"4371413"},{"town":"久保一丁目","koaza":"","lat":34.766594,"lng":138.007018,"zip":"4360027"},{"town":"久保二丁目","koaza":"","lat":34.764011,"lng":138.00943,"zip":"4360027"},{"town":"倉真","koaza":"","lat":34.831886,"lng":138.041862,"zip":"4360341"},{"town":"黒田","koaza":"","lat":34.775647,"lng":137.969853,"zip":"4360223"},{"town":"黒俣","koaza":"","lat":34.891207,"lng":138.039343,"zip":"4360331"},{"town":"結縁寺","koaza":"","lat":34.753366,"lng":138.015488,"zip":"4360023"},{"town":"高御所","koaza":"","lat":34.756227,"lng":137.989924,"zip":"4360031"},{"town":"紺屋町","koaza":"","lat":34.771893,"lng":138.014415,"zip":"4360055"},{"town":"光陽","koaza":"","lat":34.793576,"lng":138.034672,"zip":"4360090"},{"town":"御所原","koaza":"","lat":34.780155,"lng":138.018951,"zip":"4360068"},{"town":"子隣","koaza":"","lat":34.740729,"lng":138.042233,"zip":"4360013"},{"town":"小原子","koaza":"","lat":34.795489,"lng":138.058594,"zip":"4360007"},{"town":"五明","koaza":"","lat":34.802251,"lng":138.002911,"zip":"4360343"},{"town":"細田","koaza":"","lat":34.772994,"lng":137.98243,"zip":"4360048"},{"town":"逆川","koaza":"","lat":34.780321,"lng":138.049588,"zip":"4360084"},{"town":"坂里","koaza":"","lat":34.665031,"lng":138.082186,"zip":"4371411"},{"town":"肴町","koaza":"","lat":34.771899,"lng":138.016602,"zip":"4360078"},{"town":"佐夜鹿","koaza":"","lat":34.814918,"lng":138.093797,"zip":"4360002"},{"town":"沢田","koaza":"","lat":34.771864,"lng":137.977758,"zip":"4360039"},{"town":"塩町","koaza":"","lat":34.771137,"lng":138.019309,"zip":"4360076"},{"town":"篠場","koaza":"","lat":34.755577,"lng":137.980313,"zip":"4360033"},{"town":"下西郷","koaza":"","lat":34.783451,"lng":138.017022,"zip":"4360067"},{"town":"下垂木","koaza":"","lat":34.795742,"lng":137.99465,"zip":"4360222"},{"town":"下土方","koaza":"","lat":34.702681,"lng":138.048778,"zip":"4371434"},{"town":"下俣","koaza":"","lat":34.75238,"lng":138.000062,"zip":"4360025"},{"town":"下俣南一丁目","koaza":"","lat":34.764819,"lng":138.003458,"zip":"4360026"},{"town":"下俣南二丁目","koaza":"","lat":34.762914,"lng":138.003455,"zip":"4360026"},{"town":"下俣南三丁目","koaza":"","lat":34.761901,"lng":137.999783,"zip":"4360026"},{"town":"十九首","koaza":"","lat":34.774081,"lng":138.004032,"zip":"4360057"},{"town":"城北一丁目","koaza":"","lat":34.778276,"lng":138.009061,"zip":"4360059"},{"town":"城北二丁目","koaza":"","lat":34.778357,"lng":138.00611,"zip":"4360059"},{"town":"城下","koaza":"","lat":34.773855,"lng":138.015392,"zip":"4360091"},{"town":"城西一丁目","koaza":"","lat":34.77572,"lng":138.010719,"zip":"4360054"},{"town":"城西二丁目","koaza":"","lat":34.775761,"lng":138.005929,"zip":"4360054"},{"town":"杉谷","koaza":"","lat":34.760985,"lng":138.038108,"zip":"4360017"},{"town":"杉谷一丁目","koaza":"","lat":34.766683,"lng":138.030609,"zip":"4360017"},{"town":"杉谷二丁目","koaza":"","lat":34.766689,"lng":138.034293,"zip":"4360017"},{"town":"杉谷南一丁目","koaza":"","lat":34.762533,"lng":138.026857,"zip":"4360030"},{"town":"杉谷南二丁目","koaza":"","lat":34.762336,"lng":138.032206,"zip":"4360030"},{"town":"炭焼","koaza":"","lat":34.902951,"lng":138.015389,"zip":"4360337"},{"town":"千羽","koaza":"","lat":34.794734,"lng":138.050618,"zip":"4360008"},{"town":"薗ケ谷","koaza":"","lat":34.782593,"lng":138.040327,"zip":"4360083"},{"town":"高瀬","koaza":"","lat":34.727764,"lng":138.046546,"zip":"4371401"},{"town":"高田","koaza":"","lat":34.78514,"lng":137.948563,"zip":"4360114"},{"town":"伊達方","koaza":"","lat":34.788211,"lng":138.065478,"zip":"4360005"},{"town":"満水","koaza":"","lat":34.768179,"lng":138.044868,"zip":"4360011"},{"town":"丹間","koaza":"","lat":34.856299,"lng":138.028135,"zip":"4360333"},{"town":"淡陽","koaza":"","lat":34.792018,"lng":138.043283,"zip":"4360082"},{"town":"千浜","koaza":"","lat":34.661682,"lng":138.076654,"zip":"4371412"},{"town":"中央一丁目","koaza":"","lat":34.769978,"lng":138.011404,"zip":"4360056"},{"town":"中央二丁目","koaza":"","lat":34.769727,"lng":138.006583,"zip":"4360056"},{"town":"中央三丁目","koaza":"","lat":34.770304,"lng":138.001836,"zip":"4360056"},{"town":"中央高町","koaza":"","lat":34.772804,"lng":137.998546,"zip":"4360046"},{"town":"寺島","koaza":"","lat":34.83055,"lng":137.955822,"zip":"4360106"},{"town":"天王町","koaza":"","lat":34.782022,"lng":138.014878,"zip":"4360065"},{"town":"徳泉","koaza":"","lat":34.759406,"lng":137.963265,"zip":"4360035"},{"town":"富部","koaza":"","lat":34.781963,"lng":137.97259,"zip":"4360224"},{"town":"中","koaza":"","lat":34.687559,"lng":138.063559,"zip":"4360056"},{"town":"中宿","koaza":"","lat":34.780645,"lng":138.007257,"zip":"4360051"},{"town":"中西之谷","koaza":"","lat":34.865615,"lng":137.973887,"zip":"4360102"},{"town":"中方","koaza":"","lat":34.711052,"lng":138.055634,"zip":"4371402"},{"town":"中町","koaza":"","lat":34.772787,"lng":138.014385,"zip":"4360092"},{"town":"長谷","koaza":"","lat":34.759205,"lng":137.994944,"zip":"4360047"},{"town":"長谷一丁目","koaza":"","lat":34.76818,"lng":137.995741,"zip":"4360047"},{"town":"長谷二丁目","koaza":"","lat":34.766169,"lng":137.990323,"zip":"4360047"},{"town":"長谷三丁目","koaza":"","lat":34.762844,"lng":137.993458,"zip":"4360047"},{"town":"七日町","koaza":"","lat":34.779799,"lng":138.002627,"zip":"4360058"},{"town":"成滝","koaza":"","lat":34.778543,"lng":138.035042,"zip":"4360085"},{"town":"西大渕","koaza":"","lat":34.688199,"lng":137.989361,"zip":"4371304"},{"town":"西之谷","koaza":"","lat":34.697304,"lng":138.063702,"zip":"4371404"},{"town":"西山","koaza":"","lat":34.808108,"lng":137.94785,"zip":"4360116"},{"town":"日坂","koaza":"","lat":34.811299,"lng":138.081086,"zip":"4360003"},{"town":"仁藤","koaza":"","lat":34.778474,"lng":138.022178,"zip":"4360071"},{"town":"仁藤町","koaza":"","lat":34.77394,"lng":138.019415,"zip":"4360075"},{"town":"萩間","koaza":"","lat":34.864842,"lng":138.019422,"zip":"4360336"},{"town":"幡鎌","koaza":"","lat":34.819126,"lng":137.949359,"zip":"4360117"},{"town":"初馬","koaza":"","lat":34.813953,"lng":138.051242,"zip":"4360081"},{"town":"浜川新田","koaza":"","lat":34.656057,"lng":138.053579,"zip":"4371423"},{"town":"浜野","koaza":"","lat":34.659125,"lng":138.037515,"zip":"4371424"},{"town":"浜野新田","koaza":"","lat":34.667883,"lng":138.034435,"zip":"4371425"},{"town":"原川","koaza":"","lat":34.762878,"lng":137.963587,"zip":"4360036"},{"town":"原子","koaza":"","lat":34.790585,"lng":138.056835,"zip":"4360000"},{"town":"原里","koaza":"","lat":34.838406,"lng":137.971612,"zip":"4360105"},{"town":"孕石","koaza":"","lat":34.852797,"lng":138.013323,"zip":"4360334"},{"town":"東山","koaza":"","lat":34.831879,"lng":138.081354,"zip":"4360001"},{"town":"久居島","koaza":"","lat":34.855574,"lng":137.96829,"zip":"4360103"},{"town":"平島","koaza":"","lat":34.845656,"lng":137.990929,"zip":"4360104"},{"town":"平野","koaza":"","lat":34.751905,"lng":137.977183,"zip":"4360032"},{"town":"二瀬川","koaza":"","lat":34.775719,"lng":137.998949,"zip":"4360042"},{"town":"細谷","koaza":"","lat":34.791039,"lng":137.964429,"zip":"4360112"},{"town":"本郷","koaza":"","lat":34.810581,"lng":137.957278,"zip":"4360111"},{"town":"本所","koaza":"","lat":34.785748,"lng":138.056804,"zip":"4360006"},{"town":"水垂","koaza":"","lat":34.79014,"lng":138.025006,"zip":"4360061"},{"town":"三俣","koaza":"","lat":34.668119,"lng":138.052434,"zip":"4371416"},{"town":"緑ケ丘一丁目","koaza":"","lat":34.769529,"lng":138.021714,"zip":"4360021"},{"town":"緑ケ丘二丁目","koaza":"","lat":34.769539,"lng":138.025233,"zip":"4360021"},{"town":"南一丁目","koaza":"","lat":34.768391,"lng":138.017252,"zip":"4360029"},{"town":"南二丁目","koaza":"","lat":34.765941,"lng":138.017672,"zip":"4360029"},{"town":"南西郷","koaza":"","lat":34.752668,"lng":138.003835,"zip":"4360024"},{"town":"宮脇","koaza":"","lat":34.782622,"lng":138.033347,"zip":"4360086"},{"town":"宮脇一丁目","koaza":"","lat":34.779146,"lng":138.027609,"zip":"4360086"},{"town":"宮脇二丁目","koaza":"","lat":34.782374,"lng":138.027563,"zip":"4360086"},{"town":"八坂","koaza":"","lat":34.797707,"lng":138.077141,"zip":"4360004"},{"town":"矢崎町","koaza":"","lat":34.763168,"lng":138.022969,"zip":"4360020"},{"town":"柳町","koaza":"","lat":34.781826,"lng":138.011583,"zip":"4360052"},{"town":"谷の口町","koaza":"","lat":34.783913,"lng":138.014151,"zip":"4360066"},{"town":"山崎","koaza":"","lat":34.708183,"lng":137.984221,"zip":"4371305"},{"town":"弥生町","koaza":"","lat":34.778562,"lng":138.012003,"zip":"4360053"},{"town":"遊家","koaza":"","lat":34.812386,"lng":137.970713,"zip":"4360226"},{"town":"洋望台","koaza":"","lat":34.683364,"lng":137.990483,"zip":"4371306"},{"town":"横須賀","koaza":"","lat":34.699583,"lng":137.983581,"zip":"4371301"},{"town":"吉岡","koaza":"","lat":34.792599,"lng":137.953047,"zip":"4360115"},{"town":"領家","koaza":"","lat":34.76779,"lng":137.976264,"zip":"4360038"},{"town":"連雀","koaza":"","lat":34.772854,"lng":138.016306,"zip":"4360093"},{"town":"和光一丁目","koaza":"","lat":34.784166,"lng":138.011543,"zip":"4360338"},{"town":"和光二丁目","koaza":"","lat":34.784359,"lng":138.009039,"zip":"4360338"},{"town":"和光三丁目","koaza":"","lat":34.78308,"lng":138.006316,"zip":"4360338"},{"town":"和田","koaza":"","lat":34.7465,"lng":138.032038,"zip":"4360015"},{"town":"掛川","koaza":"","lat":34.776453,"lng":138.018397,"zip":"4360079"},{"town":"紅葉台","koaza":"","lat":34.769848,"lng":138.034057,"zip":"4360070"},{"town":"梅橋","koaza":"曽我後","lat":34.764202,"lng":137.971569,"zip":"4360034"},{"town":"大池","koaza":"十五の坪","lat":34.775832,"lng":137.991974,"zip":"4360043"},{"town":"上西郷","koaza":"加島","lat":34.791857,"lng":138.01384,"zip":"4360342"},{"town":"大坂","koaza":"鷺田","lat":34.672802,"lng":138.044537,"zip":"4371421"}]