[{"town":"青部","koaza":"","lat":35.086945,"lng":138.120772,"zip":"4280417"},{"town":"壱町河内","koaza":"","lat":35.043808,"lng":138.126004,"zip":"4280303"},{"town":"犬間","koaza":"","lat":35.209226,"lng":138.177149,"zip":"4280402"},{"town":"梅地","koaza":"","lat":35.170802,"lng":138.211409,"zip":"4280401"},{"town":"奥泉","koaza":"","lat":35.193953,"lng":138.143175,"zip":"4280412"},{"town":"上岸","koaza":"","lat":35.099742,"lng":138.140068,"zip":"4280415"},{"town":"上長尾","koaza":"","lat":35.048527,"lng":138.068861,"zip":"4280313"},{"town":"久野脇","koaza":"","lat":35.004793,"lng":138.059658,"zip":"4280315"},{"town":"桑野山","koaza":"","lat":35.131028,"lng":138.14413,"zip":"4280413"},{"town":"崎平","koaza":"","lat":35.101302,"lng":138.113812,"zip":"4280418"},{"town":"地名","koaza":"","lat":34.986005,"lng":138.088007,"zip":"4280305"},{"town":"下泉","koaza":"","lat":35.015863,"lng":138.105927,"zip":"4280304"},{"town":"下長尾","koaza":"","lat":35.021792,"lng":138.052048,"zip":"4280314"},{"town":"千頭","koaza":"","lat":35.226582,"lng":138.079524,"zip":"4280411"},{"town":"田代","koaza":"","lat":35.100993,"lng":138.12965,"zip":"4280416"},{"town":"田野口","koaza":"","lat":35.048435,"lng":138.10242,"zip":"4280306"},{"town":"徳山","koaza":"","lat":35.068323,"lng":138.121271,"zip":"4280301"},{"town":"東藤川","koaza":"","lat":35.104941,"lng":138.164129,"zip":"4280414"},{"town":"文沢","koaza":"","lat":35.063307,"lng":138.139124,"zip":"4280302"},{"town":"水川","koaza":"","lat":35.080497,"lng":138.06945,"zip":"4280312"},{"town":"元藤川","koaza":"","lat":35.111575,"lng":138.076535,"zip":"4280311"}]