[{"town":"上土町","koaza":"","lat":35.097243,"lng":138.858599,"zip":"4100802"},{"town":"旭町","koaza":"","lat":35.092365,"lng":138.854766,"zip":"4100852"},{"town":"足高","koaza":"","lat":35.160663,"lng":138.851013,"zip":"4100001"},{"town":"石川","koaza":"","lat":35.151467,"lng":138.776224,"zip":"4100317"},{"town":"泉町","koaza":"","lat":35.111826,"lng":138.864007,"zip":"4100045"},{"town":"井田","koaza":"","lat":35.002036,"lng":138.78953,"zip":"4103401"},{"town":"市場町","koaza":"","lat":35.095974,"lng":138.8607,"zip":"4100831"},{"town":"市道町","koaza":"","lat":35.096943,"lng":138.851071,"zip":"4100000"},{"town":"一本松","koaza":"","lat":35.133354,"lng":138.772684,"zip":"4100314"},{"town":"井出","koaza":"","lat":35.147014,"lng":138.798805,"zip":"4100319"},{"town":"今沢","koaza":"","lat":35.117987,"lng":138.81567,"zip":"4100875"},{"town":"植田","koaza":"","lat":35.135389,"lng":138.76195,"zip":"4100316"},{"town":"魚町","koaza":"","lat":35.095371,"lng":138.857903,"zip":"4100892"},{"town":"内浦重須","koaza":"","lat":35.004464,"lng":138.886381,"zip":"4100225"},{"town":"内浦小海","koaza":"","lat":35.028313,"lng":138.896668,"zip":"4100222"},{"town":"内浦重寺","koaza":"","lat":35.033598,"lng":138.899205,"zip":"4100221"},{"town":"内浦長浜","koaza":"","lat":35.012766,"lng":138.897731,"zip":"4100224"},{"town":"内浦三津","koaza":"","lat":35.023798,"lng":138.90523,"zip":"4100223"},{"town":"江浦","koaza":"","lat":35.05308,"lng":138.892844,"zip":"4100103"},{"town":"江原町","koaza":"","lat":35.119635,"lng":138.860938,"zip":"4100049"},{"town":"大岡","koaza":"","lat":35.121268,"lng":138.882746,"zip":"4100022"},{"town":"大諏訪","koaza":"","lat":35.111793,"lng":138.831772,"zip":"4100873"},{"town":"大塚","koaza":"","lat":35.122732,"lng":138.807757,"zip":"4100306"},{"town":"大手町一丁目","koaza":"","lat":35.103435,"lng":138.860845,"zip":"4100801"},{"town":"大手町二丁目","koaza":"","lat":35.100641,"lng":138.861661,"zip":"4100801"},{"town":"大手町三丁目","koaza":"","lat":35.100764,"lng":138.860303,"zip":"4100801"},{"town":"大手町四丁目","koaza":"","lat":35.098351,"lng":138.859472,"zip":"4100801"},{"town":"大手町五丁目","koaza":"","lat":35.100601,"lng":138.858132,"zip":"4100801"},{"town":"青野","koaza":"","lat":35.144773,"lng":138.813073,"zip":"4100307"},{"town":"大平","koaza":"","lat":35.070875,"lng":138.902183,"zip":"4100821"},{"town":"岡一色","koaza":"","lat":35.132911,"lng":138.876716,"zip":"4100012"},{"town":"岡宮","koaza":"","lat":35.134492,"lng":138.867815,"zip":"4100011"},{"town":"春日町","koaza":"","lat":35.082895,"lng":138.859399,"zip":"4100844"},{"town":"我入道","koaza":"","lat":35.078368,"lng":138.860804,"zip":"4100823"},{"town":"香貫が丘","koaza":"","lat":35.085724,"lng":138.880996,"zip":"4100824"},{"town":"上香貫","koaza":"","lat":35.090802,"lng":138.878807,"zip":"4100813"},{"town":"神田町","koaza":"","lat":35.11724,"lng":138.865841,"zip":"4100042"},{"town":"北今沢","koaza":"","lat":35.123765,"lng":138.816775,"zip":"4100876"},{"town":"北園町","koaza":"","lat":35.124203,"lng":138.875425,"zip":"4100061"},{"town":"北高島町","koaza":"","lat":35.112342,"lng":138.858768,"zip":"4100054"},{"town":"共栄町","koaza":"","lat":35.119497,"lng":138.869715,"zip":"4100064"},{"town":"口野","koaza":"","lat":35.042575,"lng":138.904695,"zip":"4100102"},{"town":"鵰町","koaza":"","lat":35.095028,"lng":138.857033,"zip":"4100000"},{"town":"黒瀬町","koaza":"","lat":35.097796,"lng":138.872593,"zip":"4100819"},{"town":"小諏訪","koaza":"","lat":35.108062,"lng":138.837111,"zip":"4100872"},{"town":"寿町","koaza":"","lat":35.115792,"lng":138.858656,"zip":"4100053"},{"town":"小林台","koaza":"","lat":35.134397,"lng":138.885189,"zip":"4100021"},{"town":"西条町","koaza":"","lat":35.100772,"lng":138.854739,"zip":"4100804"},{"town":"幸町","koaza":"","lat":35.095638,"lng":138.853691,"zip":"4100862"},{"town":"五月町","koaza":"","lat":35.114094,"lng":138.863733,"zip":"4100044"},{"town":"沢田","koaza":"","lat":35.115262,"lng":138.848133,"zip":"4100052"},{"town":"沢田町","koaza":"","lat":35.119511,"lng":138.858547,"zip":"4100052"},{"town":"山王台","koaza":"","lat":35.103164,"lng":138.867864,"zip":"4100035"},{"town":"三枚橋","koaza":"","lat":35.112714,"lng":138.866851,"zip":"4100031"},{"town":"三枚橋町","koaza":"","lat":35.100363,"lng":138.863555,"zip":"4100037"},{"town":"志下","koaza":"","lat":35.064778,"lng":138.882706,"zip":"4100106"},{"town":"獅子浜","koaza":"","lat":35.053622,"lng":138.886217,"zip":"4100104"},{"town":"下香貫","koaza":"","lat":35.078706,"lng":138.87803,"zip":"4100822"},{"town":"下河原町","koaza":"","lat":35.089892,"lng":138.8573,"zip":"4100841"},{"town":"下本町","koaza":"","lat":35.094517,"lng":138.856408,"zip":"4100885"},{"town":"蛇松町","koaza":"","lat":35.086847,"lng":138.859463,"zip":"4100842"},{"town":"庄栄町","koaza":"","lat":35.108163,"lng":138.861668,"zip":"4100047"},{"town":"白銀町","koaza":"","lat":35.100846,"lng":138.853275,"zip":"4100805"},{"town":"新沢田町","koaza":"","lat":35.118115,"lng":138.852043,"zip":"4100003"},{"town":"新宿町","koaza":"","lat":35.107539,"lng":138.859803,"zip":"4100048"},{"town":"新町","koaza":"","lat":35.093949,"lng":138.85673,"zip":"4100895"},{"town":"末広町","koaza":"","lat":35.09676,"lng":138.853996,"zip":"4100888"},{"town":"杉崎町","koaza":"","lat":35.107481,"lng":138.866913,"zip":"4100033"},{"town":"住吉町","koaza":"","lat":35.093878,"lng":138.867121,"zip":"4100816"},{"town":"浅間町","koaza":"","lat":35.094663,"lng":138.855411,"zip":"4100886"},{"town":"善太夫","koaza":"","lat":35.079063,"lng":138.867458,"zip":"4100000"},{"town":"千本常盤町","koaza":"","lat":35.088483,"lng":138.852601,"zip":"4100854"},{"town":"千本中町","koaza":"","lat":35.08643,"lng":138.856298,"zip":"4100847"},{"town":"千本西町","koaza":"","lat":35.086171,"lng":138.854852,"zip":"4100848"},{"town":"千本東町","koaza":"","lat":35.086717,"lng":138.85727,"zip":"4100846"},{"town":"千本緑町一丁目","koaza":"","lat":35.091849,"lng":138.852403,"zip":"4100855"},{"town":"千本緑町二丁目","koaza":"","lat":35.092838,"lng":138.853143,"zip":"4100855"},{"town":"千本緑町三丁目","koaza":"","lat":35.091556,"lng":138.853828,"zip":"4100855"},{"town":"千本港町","koaza":"","lat":35.08368,"lng":138.857888,"zip":"4100845"},{"town":"添地町","koaza":"","lat":35.100882,"lng":138.856311,"zip":"4100803"},{"town":"大門町","koaza":"","lat":35.096515,"lng":138.856002,"zip":"4100883"},{"town":"高尾台","koaza":"","lat":35.134642,"lng":138.861174,"zip":"4100017"},{"town":"高砂町","koaza":"","lat":35.133099,"lng":138.858395,"zip":"4100016"},{"town":"高沢町","koaza":"","lat":35.106034,"lng":138.854869,"zip":"4100057"},{"town":"高島町","koaza":"","lat":35.104925,"lng":138.858792,"zip":"4100056"},{"town":"高島本町","koaza":"","lat":35.108875,"lng":138.857632,"zip":"4100055"},{"town":"蓼原町","koaza":"","lat":35.083059,"lng":138.861203,"zip":"4100843"},{"town":"多比","koaza":"","lat":35.054413,"lng":138.903166,"zip":"4100101"},{"town":"玉江町","koaza":"","lat":35.088065,"lng":138.869177,"zip":"4100814"},{"town":"筒井町","koaza":"","lat":35.119965,"lng":138.863999,"zip":"4100041"},{"town":"通横町","koaza":"","lat":35.096207,"lng":138.857444,"zip":"4100891"},{"town":"常盤町一丁目","koaza":"","lat":35.090297,"lng":138.853252,"zip":"4100853"},{"town":"常盤町二丁目","koaza":"","lat":35.089235,"lng":138.854008,"zip":"4100853"},{"town":"常盤町三丁目","koaza":"","lat":35.08803,"lng":138.854797,"zip":"4100853"},{"town":"鳥谷","koaza":"","lat":35.136704,"lng":138.81971,"zip":"4100305"},{"town":"中沢田","koaza":"","lat":35.130226,"lng":138.851641,"zip":"4100006"},{"town":"中瀬町","koaza":"","lat":35.099505,"lng":138.879029,"zip":"4100811"},{"town":"仲町","koaza":"","lat":35.09421,"lng":138.857629,"zip":"4100894"},{"town":"中原町","koaza":"","lat":35.09818,"lng":138.875383,"zip":"4100818"},{"town":"西浦足保","koaza":"","lat":35.001699,"lng":138.818691,"zip":"4100242"},{"town":"西浦江梨","koaza":"","lat":35.01328,"lng":138.800169,"zip":"4100244"},{"town":"西浦木負","koaza":"","lat":35.019544,"lng":138.876085,"zip":"4100231"},{"town":"西浦久連","koaza":"","lat":35.009151,"lng":138.861918,"zip":"4100233"},{"town":"西浦久料","koaza":"","lat":35.014407,"lng":138.823601,"zip":"4100243"},{"town":"西浦古宇","koaza":"","lat":35.002194,"lng":138.835186,"zip":"4100241"},{"town":"西浦河内","koaza":"","lat":34.994728,"lng":138.861486,"zip":"4100232"},{"town":"西浦立保","koaza":"","lat":35.001072,"lng":138.846929,"zip":"4100235"},{"town":"西浦平沢","koaza":"","lat":34.990243,"lng":138.84339,"zip":"4100234"},{"town":"錦町","koaza":"","lat":35.100582,"lng":138.850689,"zip":"4100807"},{"town":"西沢田","koaza":"","lat":35.122541,"lng":138.845917,"zip":"4100007"},{"town":"西椎路","koaza":"","lat":35.132514,"lng":138.828409,"zip":"4100303"},{"town":"西島町","koaza":"","lat":35.086028,"lng":138.863434,"zip":"4100835"},{"town":"西添町","koaza":"","lat":35.129722,"lng":138.789574,"zip":"4100313"},{"town":"西野","koaza":"","lat":35.186615,"lng":138.796709,"zip":"4100321"},{"town":"西間門","koaza":"","lat":35.104377,"lng":138.842767,"zip":"4100871"},{"town":"西間門二丁目","koaza":"","lat":35.101444,"lng":138.844072,"zip":"4100871"},{"town":"西間門三丁目","koaza":"","lat":35.100753,"lng":138.843748,"zip":"4100871"},{"town":"沼北町一丁目","koaza":"","lat":35.113844,"lng":138.854885,"zip":"4100058"},{"town":"沼北町二丁目","koaza":"","lat":35.114,"lng":138.851473,"zip":"4100058"},{"town":"根古屋","koaza":"","lat":35.144516,"lng":138.806662,"zip":"4100309"},{"town":"八幡町","koaza":"","lat":35.098022,"lng":138.855633,"zip":"4100881"},{"town":"花園町","koaza":"","lat":35.122362,"lng":138.870222,"zip":"4100065"},{"town":"原","koaza":"","lat":35.127248,"lng":138.788536,"zip":"4100312"},{"town":"原町中一丁目","koaza":"","lat":35.130216,"lng":138.796202,"zip":"4100311"},{"town":"原町中二丁目","koaza":"","lat":35.129817,"lng":138.799446,"zip":"4100311"},{"town":"原町中三丁目","koaza":"","lat":35.132334,"lng":138.801038,"zip":"4100311"},{"town":"東沢田","koaza":"","lat":35.130774,"lng":138.855223,"zip":"4100002"},{"town":"東椎路","koaza":"","lat":35.128607,"lng":138.837145,"zip":"4100302"},{"town":"東原","koaza":"","lat":35.134193,"lng":138.823415,"zip":"4100304"},{"town":"東間門","koaza":"","lat":35.106245,"lng":138.846124,"zip":"4100865"},{"town":"東間門一丁目","koaza":"","lat":35.101277,"lng":138.845922,"zip":"4100865"},{"town":"東間門二丁目","koaza":"","lat":35.099961,"lng":138.846956,"zip":"4100865"},{"town":"東間門三丁目","koaza":"","lat":35.09972,"lng":138.845968,"zip":"4100865"},{"town":"東宮後町","koaza":"","lat":35.09581,"lng":138.855839,"zip":"4100887"},{"town":"日の出町","koaza":"","lat":35.109328,"lng":138.86799,"zip":"4100032"},{"town":"平沼","koaza":"","lat":35.150884,"lng":138.787329,"zip":"4100318"},{"town":"平町","koaza":"","lat":35.100015,"lng":138.867514,"zip":"4100036"},{"town":"富士見町","koaza":"","lat":35.106204,"lng":138.869238,"zip":"4100034"},{"town":"双葉町","koaza":"","lat":35.106724,"lng":138.85097,"zip":"4100005"},{"town":"戸田","koaza":"","lat":34.96422,"lng":138.800662,"zip":"4103402"},{"town":"本","koaza":"","lat":35.089535,"lng":138.850236,"zip":"4100867"},{"town":"本郷町","koaza":"","lat":35.095159,"lng":138.871506,"zip":"4100817"},{"town":"本田町","koaza":"","lat":35.110295,"lng":138.85266,"zip":"4100004"},{"town":"本町","koaza":"","lat":35.095663,"lng":138.856679,"zip":"4100884"},{"town":"馬込","koaza":"","lat":35.059554,"lng":138.882327,"zip":"4100105"},{"town":"真砂町","koaza":"","lat":35.098956,"lng":138.851104,"zip":"4100861"},{"town":"町方町","koaza":"","lat":35.097488,"lng":138.857105,"zip":"4100882"},{"town":"松沢町","koaza":"","lat":35.127647,"lng":138.86257,"zip":"4100014"},{"town":"松下町","koaza":"","lat":35.098615,"lng":138.847515,"zip":"4100000"},{"town":"松長","koaza":"","lat":35.115937,"lng":138.823634,"zip":"4100874"},{"town":"丸子町","koaza":"","lat":35.100742,"lng":138.849412,"zip":"4100806"},{"town":"三園町","koaza":"","lat":35.089533,"lng":138.866391,"zip":"4100833"},{"town":"緑ケ丘","koaza":"","lat":35.119868,"lng":138.873763,"zip":"4100063"},{"town":"南本郷町","koaza":"","lat":35.090758,"lng":138.869165,"zip":"4100815"},{"town":"宮前町","koaza":"","lat":35.122079,"lng":138.874099,"zip":"4100062"},{"town":"宮本","koaza":"","lat":35.170957,"lng":138.828622,"zip":"4100301"},{"town":"御幸町","koaza":"","lat":35.095001,"lng":138.864874,"zip":"4100832"},{"town":"三芳町","koaza":"","lat":35.103478,"lng":138.865572,"zip":"4100038"},{"town":"桃里","koaza":"","lat":35.135542,"lng":138.767935,"zip":"4100315"},{"town":"柳沢","koaza":"","lat":35.139212,"lng":138.817627,"zip":"4100308"},{"town":"柳町","koaza":"","lat":35.117122,"lng":138.862839,"zip":"4100043"},{"town":"山ケ下町","koaza":"","lat":35.095039,"lng":138.883436,"zip":"4100812"},{"town":"豊町","koaza":"","lat":35.130429,"lng":138.861401,"zip":"4100018"},{"town":"吉田町","koaza":"","lat":35.091144,"lng":138.861624,"zip":"4100836"},{"town":"米山町","koaza":"","lat":35.10748,"lng":138.863282,"zip":"4100046"},{"town":"若葉町","koaza":"","lat":35.11874,"lng":138.85617,"zip":"4100059"},{"town":"駿河台","koaza":"","lat":35.127377,"lng":138.859333,"zip":"4100015"},{"town":"西熊堂","koaza":"","lat":35.12424,"lng":138.85926,"zip":"4100051"},{"town":"東熊堂","koaza":"","lat":35.122894,"lng":138.86152,"zip":"4100013"},{"town":"原","koaza":"古田","lat":35.132525,"lng":138.778977,"zip":"4100312"},{"town":"東原","koaza":"下方通","lat":35.125933,"lng":138.816557,"zip":"4100304"},{"town":"東原","koaza":"榎田通","lat":35.125179,"lng":138.818258,"zip":"4100304"},{"town":"東椎路","koaza":"春ノ木","lat":35.119942,"lng":138.835126,"zip":"4100302"},{"town":"本","koaza":"千本","lat":35.096766,"lng":138.847364,"zip":"4100867"},{"town":"本","koaza":"松下七反田","lat":35.094116,"lng":138.850976,"zip":"4100867"},{"town":"中沢田","koaza":"円丸","lat":35.129122,"lng":138.852485,"zip":"4100006"},{"town":"足高","koaza":"尾上","lat":35.147038,"lng":138.854446,"zip":"4100001"},{"town":"下香貫","koaza":"島郷","lat":35.076725,"lng":138.872496,"zip":"4100822"},{"town":"大岡","koaza":"二ツ谷町","lat":35.101082,"lng":138.87361,"zip":"4100022"},{"town":"大岡","koaza":"原田","lat":35.102866,"lng":138.875385,"zip":"4100022"},{"town":"松長","koaza":"内林","lat":35.114955,"lng":138.818824,"zip":"4100874"},{"town":"岡宮","koaza":"中見代","lat":35.137809,"lng":138.863655,"zip":"4100011"},{"town":"上香貫","koaza":"東本郷町","lat":35.096963,"lng":138.873347,"zip":"4100813"},{"town":"大岡","koaza":"自由ヶ丘","lat":35.116228,"lng":138.868904,"zip":"4100022"},{"town":"下河原町一丁目","koaza":"","lat":null,"lng":null,"zip":null},{"town":"下河原町二丁目","koaza":"","lat":null,"lng":null,"zip":null},{"town":"下河原町三丁目","koaza":"","lat":null,"lng":null,"zip":null},{"town":"下小路町","koaza":"","lat":null,"lng":null,"zip":null},{"town":"宮町","koaza":"","lat":null,"lng":null,"zip":null}]