[{"town":"伊左地町","koaza":"","lat":34.745976,"lng":137.67045,"zip":"4311111"},{"town":"入野町","koaza":"","lat":34.701486,"lng":137.682978,"zip":"4328061"},{"town":"大久保町","koaza":"","lat":34.719415,"lng":137.653659,"zip":"4328006"},{"town":"大人見町","koaza":"","lat":34.733766,"lng":137.653022,"zip":"4311112"},{"town":"大平台一丁目","koaza":"","lat":34.717858,"lng":137.686962,"zip":"4328068"},{"town":"大平台二丁目","koaza":"","lat":34.71246,"lng":137.685077,"zip":"4328068"},{"town":"大平台三丁目","koaza":"","lat":34.713971,"lng":137.679293,"zip":"4328068"},{"town":"大平台四丁目","koaza":"","lat":34.709081,"lng":137.676708,"zip":"4328068"},{"town":"大山町","koaza":"","lat":34.778926,"lng":137.68217,"zip":"4311102"},{"town":"神ケ谷町","koaza":"","lat":34.72315,"lng":137.678251,"zip":"4328005"},{"town":"神原町","koaza":"","lat":34.734221,"lng":137.671483,"zip":"4328007"},{"town":"舘山寺町","koaza":"","lat":34.760362,"lng":137.620338,"zip":"4311209"},{"town":"協和町","koaza":"","lat":34.744535,"lng":137.611887,"zip":"4311205"},{"town":"呉松町","koaza":"","lat":34.771142,"lng":137.63247,"zip":"4311202"},{"town":"湖東町","koaza":"","lat":34.75921,"lng":137.674338,"zip":"4311103"},{"town":"古人見町","koaza":"","lat":34.723662,"lng":137.628958,"zip":"4311113"},{"town":"桜台一丁目","koaza":"","lat":34.770276,"lng":137.68181,"zip":"4311104"},{"town":"桜台二丁目","koaza":"","lat":34.768435,"lng":137.672978,"zip":"4311104"},{"town":"桜台三丁目","koaza":"","lat":34.768405,"lng":137.669387,"zip":"4311104"},{"town":"桜台四丁目","koaza":"","lat":34.775215,"lng":137.673704,"zip":"4311104"},{"town":"桜台五丁目","koaza":"","lat":34.775683,"lng":137.672417,"zip":"4311104"},{"town":"桜台六丁目","koaza":"","lat":34.775046,"lng":137.670106,"zip":"4311104"},{"town":"佐浜町","koaza":"","lat":34.747935,"lng":137.646941,"zip":"4311114"},{"town":"志都呂一丁目","koaza":"","lat":34.698348,"lng":137.660239,"zip":"4328069"},{"town":"志都呂二丁目","koaza":"","lat":34.697367,"lng":137.651333,"zip":"4328069"},{"town":"志都呂町","koaza":"","lat":34.702261,"lng":137.653755,"zip":"4328066"},{"town":"篠原町","koaza":"","lat":34.683912,"lng":137.664197,"zip":"4310201"},{"town":"庄内町","koaza":"","lat":34.75101,"lng":137.605233,"zip":"4311208"},{"town":"庄和町","koaza":"","lat":34.739285,"lng":137.603434,"zip":"4311206"},{"town":"白洲町","koaza":"","lat":34.746303,"lng":137.623112,"zip":"4311204"},{"town":"西都台町","koaza":"","lat":34.702809,"lng":137.661783,"zip":"4328071"},{"town":"坪井町","koaza":"","lat":34.684757,"lng":137.64744,"zip":"4310202"},{"town":"西鴨江町","koaza":"","lat":34.704987,"lng":137.664078,"zip":"4328067"},{"town":"西山町","koaza":"","lat":34.741135,"lng":137.688541,"zip":"4328001"},{"town":"平松町","koaza":"","lat":34.757955,"lng":137.634946,"zip":"4311203"},{"town":"深萩町","koaza":"","lat":34.775284,"lng":137.655432,"zip":"4311201"},{"town":"舞阪町長十新田","koaza":"","lat":34.680049,"lng":137.625437,"zip":"4310212"},{"town":"舞阪町浜田","koaza":"","lat":34.682407,"lng":137.621401,"zip":"4310213"},{"town":"舞阪町弁天島","koaza":"","lat":34.694736,"lng":137.597248,"zip":"4310214"},{"town":"舞阪町舞阪","koaza":"","lat":34.687664,"lng":137.615834,"zip":"4310211"},{"town":"馬郡町","koaza":"","lat":34.686384,"lng":137.633189,"zip":"4310203"},{"town":"村櫛町","koaza":"","lat":34.734632,"lng":137.594644,"zip":"4311207"},{"town":"雄踏一丁目","koaza":"","lat":34.693986,"lng":137.645925,"zip":"4310103"},{"town":"雄踏二丁目","koaza":"","lat":34.69337,"lng":137.640333,"zip":"4310103"},{"town":"雄踏町宇布見","koaza":"","lat":34.70201,"lng":137.630323,"zip":"4310102"},{"town":"雄踏町山崎","koaza":"","lat":34.718995,"lng":137.634244,"zip":"4310101"},{"town":"和光町","koaza":"","lat":34.78285,"lng":137.674834,"zip":"4311101"},{"town":"和地町","koaza":"","lat":34.763134,"lng":137.651642,"zip":"4311115"}]