[{"town":"相生町","koaza":"","lat":34.708039,"lng":137.746827,"zip":"4300805"},{"town":"葵西一丁目","koaza":"","lat":34.765339,"lng":137.714062,"zip":"4338111"},{"town":"葵西二丁目","koaza":"","lat":34.768452,"lng":137.7107,"zip":"4338111"},{"town":"葵西三丁目","koaza":"","lat":34.770128,"lng":137.707094,"zip":"4338111"},{"town":"葵西四丁目","koaza":"","lat":34.772909,"lng":137.705581,"zip":"4338111"},{"town":"葵西五丁目","koaza":"","lat":34.775542,"lng":137.704162,"zip":"4338111"},{"town":"葵西六丁目","koaza":"","lat":34.770426,"lng":137.700968,"zip":"4338111"},{"town":"葵東一丁目","koaza":"","lat":34.754359,"lng":137.719643,"zip":"4338114"},{"town":"葵東二丁目","koaza":"","lat":34.759734,"lng":137.722897,"zip":"4338114"},{"town":"葵東三丁目","koaza":"","lat":34.763383,"lng":137.718914,"zip":"4338114"},{"town":"浅田町","koaza":"","lat":34.694943,"lng":137.733426,"zip":"4328043"},{"town":"旭町","koaza":"","lat":34.705397,"lng":137.73341,"zip":"4300927"},{"town":"小豆餅一丁目","koaza":"","lat":34.753939,"lng":137.724451,"zip":"4338113"},{"town":"小豆餅二丁目","koaza":"","lat":34.753916,"lng":137.726644,"zip":"4338113"},{"town":"小豆餅三丁目","koaza":"","lat":34.753801,"lng":137.728731,"zip":"4338113"},{"town":"小豆餅四丁目","koaza":"","lat":34.753101,"lng":137.731265,"zip":"4338113"},{"town":"池町","koaza":"","lat":34.709515,"lng":137.729624,"zip":"4300945"},{"town":"泉一丁目","koaza":"","lat":34.739109,"lng":137.721535,"zip":"4338124"},{"town":"泉二丁目","koaza":"","lat":34.743193,"lng":137.721473,"zip":"4338124"},{"town":"泉三丁目","koaza":"","lat":34.748015,"lng":137.721908,"zip":"4338124"},{"town":"泉四丁目","koaza":"","lat":34.74573,"lng":137.717521,"zip":"4338124"},{"town":"泉町","koaza":"","lat":34.749851,"lng":137.711171,"zip":"4338126"},{"town":"板屋町","koaza":"","lat":34.706654,"lng":137.735126,"zip":"4300928"},{"town":"瓜内町","koaza":"","lat":34.683577,"lng":137.730951,"zip":"4300854"},{"town":"海老塚一丁目","koaza":"","lat":34.699269,"lng":137.729998,"zip":"4328033"},{"town":"海老塚二丁目","koaza":"","lat":34.698919,"lng":137.73244,"zip":"4328033"},{"town":"海老塚町","koaza":"","lat":34.701069,"lng":137.7303,"zip":"4328032"},{"town":"尾張町","koaza":"","lat":34.711055,"lng":137.730333,"zip":"4300949"},{"town":"鍛冶町","koaza":"","lat":34.704249,"lng":137.731901,"zip":"4300933"},{"town":"春日町","koaza":"","lat":34.689745,"lng":137.724665,"zip":"4328046"},{"town":"上浅田一丁目","koaza":"","lat":34.69648,"lng":137.726622,"zip":"4328042"},{"town":"上浅田二丁目","koaza":"","lat":34.694883,"lng":137.729822,"zip":"4328042"},{"town":"上島一丁目","koaza":"","lat":34.737986,"lng":137.740408,"zip":"4338122"},{"town":"上島二丁目","koaza":"","lat":34.741199,"lng":137.741939,"zip":"4338122"},{"town":"上島三丁目","koaza":"","lat":34.739241,"lng":137.746697,"zip":"4338122"},{"town":"上島四丁目","koaza":"","lat":34.743612,"lng":137.748643,"zip":"4338122"},{"town":"上島五丁目","koaza":"","lat":34.744288,"lng":137.743714,"zip":"4338122"},{"town":"上島六丁目","koaza":"","lat":34.742899,"lng":137.736556,"zip":"4338122"},{"town":"上島七丁目","koaza":"","lat":34.747253,"lng":137.741426,"zip":"4338122"},{"town":"神田町","koaza":"","lat":34.686474,"lng":137.721656,"zip":"4328047"},{"town":"鴨江一丁目","koaza":"","lat":34.7026,"lng":137.72093,"zip":"4328023"},{"town":"鴨江二丁目","koaza":"","lat":34.703301,"lng":137.713288,"zip":"4328023"},{"town":"鴨江三丁目","koaza":"","lat":34.707827,"lng":137.712765,"zip":"4328023"},{"town":"鴨江四丁目","koaza":"","lat":34.706266,"lng":137.719737,"zip":"4328023"},{"town":"鴨江町","koaza":"","lat":34.705034,"lng":137.722158,"zip":"4328024"},{"town":"北田町","koaza":"","lat":34.712379,"lng":137.731696,"zip":"4300943"},{"town":"北寺島町","koaza":"","lat":34.703025,"lng":137.742945,"zip":"4300923"},{"town":"木戸町","koaza":"","lat":34.708555,"lng":137.743249,"zip":"4300806"},{"town":"元目町","koaza":"","lat":34.712593,"lng":137.730099,"zip":"4300948"},{"town":"紺屋町","koaza":"","lat":34.707516,"lng":137.726337,"zip":"4300938"},{"town":"幸一丁目","koaza":"","lat":34.739865,"lng":137.72504,"zip":"4338123"},{"town":"幸二丁目","koaza":"","lat":34.737771,"lng":137.73064,"zip":"4338123"},{"town":"幸三丁目","koaza":"","lat":34.740746,"lng":137.730634,"zip":"4338123"},{"town":"幸四丁目","koaza":"","lat":34.74497,"lng":137.730202,"zip":"4338123"},{"town":"幸五丁目","koaza":"","lat":34.745332,"lng":137.725493,"zip":"4338123"},{"town":"栄町","koaza":"","lat":34.703981,"lng":137.725555,"zip":"4328025"},{"town":"肴町","koaza":"","lat":34.70655,"lng":137.729522,"zip":"4300932"},{"town":"佐藤一丁目","koaza":"","lat":34.712878,"lng":137.744384,"zip":"4300807"},{"town":"佐藤二丁目","koaza":"","lat":34.713428,"lng":137.748066,"zip":"4300807"},{"town":"佐藤三丁目","koaza":"","lat":34.713906,"lng":137.751025,"zip":"4300807"},{"town":"佐鳴台一丁目","koaza":"","lat":34.703593,"lng":137.700995,"zip":"4328021"},{"town":"佐鳴台二丁目","koaza":"","lat":34.703263,"lng":137.695014,"zip":"4328021"},{"town":"佐鳴台三丁目","koaza":"","lat":34.705782,"lng":137.696585,"zip":"4328021"},{"town":"佐鳴台四丁目","koaza":"","lat":34.708935,"lng":137.700474,"zip":"4328021"},{"town":"佐鳴台五丁目","koaza":"","lat":34.712921,"lng":137.698455,"zip":"4328021"},{"town":"佐鳴台六丁目","koaza":"","lat":34.706489,"lng":137.6922,"zip":"4328021"},{"town":"塩町","koaza":"","lat":34.701164,"lng":137.728612,"zip":"4328034"},{"town":"鹿谷町","koaza":"","lat":34.715886,"lng":137.721754,"zip":"4328014"},{"town":"蜆塚一丁目","koaza":"","lat":34.712184,"lng":137.712823,"zip":"4328018"},{"town":"蜆塚二丁目","koaza":"","lat":34.713485,"lng":137.709205,"zip":"4328018"},{"town":"蜆塚三丁目","koaza":"","lat":34.715014,"lng":137.706656,"zip":"4328018"},{"town":"蜆塚四丁目","koaza":"","lat":34.711753,"lng":137.704805,"zip":"4328018"},{"town":"十軒町","koaza":"","lat":34.730904,"lng":137.745536,"zip":"4350055"},{"town":"下池川町","koaza":"","lat":34.716983,"lng":137.727429,"zip":"4300905"},{"town":"城北一丁目","koaza":"","lat":34.719689,"lng":137.723591,"zip":"4328011"},{"town":"城北二丁目","koaza":"","lat":34.724044,"lng":137.721889,"zip":"4328011"},{"town":"城北三丁目","koaza":"","lat":34.724577,"lng":137.7176,"zip":"4328011"},{"town":"新津町","koaza":"","lat":34.721862,"lng":137.741681,"zip":"4300911"},{"town":"神明町","koaza":"","lat":34.707999,"lng":137.728562,"zip":"4300931"},{"town":"菅原町","koaza":"","lat":34.698616,"lng":137.724654,"zip":"4328041"},{"town":"助信町","koaza":"","lat":34.722409,"lng":137.735685,"zip":"4300903"},{"town":"砂山町","koaza":"","lat":34.701901,"lng":137.734601,"zip":"4300926"},{"town":"住吉一丁目","koaza":"","lat":34.728345,"lng":137.724755,"zip":"4300906"},{"town":"住吉二丁目","koaza":"","lat":34.730291,"lng":137.726294,"zip":"4300906"},{"town":"住吉三丁目","koaza":"","lat":34.735024,"lng":137.725022,"zip":"4300906"},{"town":"住吉四丁目","koaza":"","lat":34.730643,"lng":137.729219,"zip":"4300906"},{"town":"住吉五丁目","koaza":"","lat":34.735067,"lng":137.730024,"zip":"4300906"},{"town":"早出町","koaza":"","lat":34.733161,"lng":137.7493,"zip":"4350054"},{"town":"大工町","koaza":"","lat":34.704444,"lng":137.727763,"zip":"4300936"},{"town":"高丘北一丁目","koaza":"","lat":34.762991,"lng":137.708732,"zip":"4338119"},{"town":"高丘北二丁目","koaza":"","lat":34.763768,"lng":137.704099,"zip":"4338119"},{"town":"高丘北三丁目","koaza":"","lat":34.764828,"lng":137.699927,"zip":"4338119"},{"town":"高丘北四丁目","koaza":"","lat":34.766599,"lng":137.696495,"zip":"4338119"},{"town":"高丘町","koaza":"","lat":34.755567,"lng":137.692503,"zip":"4320000"},{"town":"高丘西一丁目","koaza":"","lat":34.756446,"lng":137.702491,"zip":"4338118"},{"town":"高丘西二丁目","koaza":"","lat":34.758061,"lng":137.698885,"zip":"4338118"},{"town":"高丘西三丁目","koaza":"","lat":34.760098,"lng":137.695621,"zip":"4338118"},{"town":"高丘西四丁目","koaza":"","lat":34.760958,"lng":137.69173,"zip":"4338118"},{"town":"高丘東一丁目","koaza":"","lat":34.755383,"lng":137.706948,"zip":"4338117"},{"town":"高丘東二丁目","koaza":"","lat":34.756202,"lng":137.71357,"zip":"4338117"},{"town":"高丘東三丁目","koaza":"","lat":34.760102,"lng":137.717101,"zip":"4338117"},{"town":"高丘東四丁目","koaza":"","lat":34.75862,"lng":137.709702,"zip":"4338117"},{"town":"高丘東五丁目","koaza":"","lat":34.762107,"lng":137.712901,"zip":"4338117"},{"town":"高林一丁目","koaza":"","lat":34.725839,"lng":137.730954,"zip":"4300907"},{"town":"高林二丁目","koaza":"","lat":34.724886,"lng":137.734683,"zip":"4300907"},{"town":"高林三丁目","koaza":"","lat":34.72817,"lng":137.73582,"zip":"4300907"},{"town":"高林四丁目","koaza":"","lat":34.729712,"lng":137.732687,"zip":"4300907"},{"town":"高林五丁目","koaza":"","lat":34.733261,"lng":137.735323,"zip":"4300907"},{"town":"高町","koaza":"","lat":34.70931,"lng":137.722456,"zip":"4328015"},{"town":"田町","koaza":"","lat":34.708362,"lng":137.730977,"zip":"4300944"},{"town":"千歳町","koaza":"","lat":34.703676,"lng":137.730308,"zip":"4300934"},{"town":"中央一丁目","koaza":"","lat":34.711074,"lng":137.735843,"zip":"4300929"},{"town":"中央二丁目","koaza":"","lat":34.710722,"lng":137.73953,"zip":"4300929"},{"town":"中央三丁目","koaza":"","lat":34.706938,"lng":137.740412,"zip":"4300929"},{"town":"寺島町","koaza":"","lat":34.698948,"lng":137.738113,"zip":"4300925"},{"town":"天神町","koaza":"","lat":34.710606,"lng":137.75224,"zip":"4300808"},{"town":"伝馬町","koaza":"","lat":34.704808,"lng":137.72863,"zip":"4300935"},{"town":"利町","koaza":"","lat":34.706052,"lng":137.726014,"zip":"4300937"},{"town":"常盤町","koaza":"","lat":34.711044,"lng":137.732055,"zip":"4300917"},{"town":"富塚町","koaza":"","lat":34.726589,"lng":137.700712,"zip":"4328002"},{"town":"富吉町","koaza":"","lat":34.708988,"lng":137.753205,"zip":"4300804"},{"town":"中沢町","koaza":"","lat":34.721623,"lng":137.728872,"zip":"4300904"},{"town":"中島一丁目","koaza":"","lat":34.70539,"lng":137.746929,"zip":"4300856"},{"town":"中島二丁目","koaza":"","lat":34.70172,"lng":137.747644,"zip":"4300856"},{"town":"中島三丁目","koaza":"","lat":34.698562,"lng":137.747155,"zip":"4300856"},{"town":"中島四丁目","koaza":"","lat":34.696466,"lng":137.747858,"zip":"4300856"},{"town":"中島町","koaza":"","lat":34.69453,"lng":137.749211,"zip":"4300857"},{"town":"中山町","koaza":"","lat":34.70638,"lng":137.722826,"zip":"4328016"},{"town":"茄子町","koaza":"","lat":34.721519,"lng":137.74586,"zip":"4300912"},{"town":"名塚町","koaza":"","lat":34.703956,"lng":137.756385,"zip":"4300811"},{"town":"平田町","koaza":"","lat":34.702251,"lng":137.729808,"zip":"4328031"},{"town":"成子町","koaza":"","lat":34.701231,"lng":137.725891,"zip":"4328035"},{"town":"西浅田一丁目","koaza":"","lat":34.694257,"lng":137.722679,"zip":"4328045"},{"town":"西浅田二丁目","koaza":"","lat":34.694057,"lng":137.725301,"zip":"4328045"},{"town":"西伊場町","koaza":"","lat":34.700583,"lng":137.705113,"zip":"4328038"},{"town":"西丘町","koaza":"","lat":34.7714,"lng":137.691734,"zip":"4338116"},{"town":"布橋一丁目","koaza":"","lat":34.719869,"lng":137.720329,"zip":"4328012"},{"town":"布橋二丁目","koaza":"","lat":34.720843,"lng":137.716624,"zip":"4328012"},{"town":"布橋三丁目","koaza":"","lat":34.720616,"lng":137.713345,"zip":"4328012"},{"town":"野口町","koaza":"","lat":34.716752,"lng":137.739572,"zip":"4300919"},{"town":"法枝町","koaza":"","lat":34.683447,"lng":137.727422,"zip":"4328053"},{"town":"萩丘一丁目","koaza":"","lat":34.749564,"lng":137.725731,"zip":"4338121"},{"town":"萩丘二丁目","koaza":"","lat":34.747741,"lng":137.729911,"zip":"4338121"},{"town":"萩丘三丁目","koaza":"","lat":34.748453,"lng":137.733626,"zip":"4338121"},{"town":"萩丘四丁目","koaza":"","lat":34.747966,"lng":137.736646,"zip":"4338121"},{"town":"萩丘五丁目","koaza":"","lat":34.75215,"lng":137.733882,"zip":"4338121"},{"town":"旅籠町","koaza":"","lat":34.702432,"lng":137.728449,"zip":"4328027"},{"town":"八幡町","koaza":"","lat":34.715311,"lng":137.73588,"zip":"4300918"},{"town":"花川町","koaza":"","lat":34.777396,"lng":137.690724,"zip":"4338109"},{"town":"早馬町","koaza":"","lat":34.710659,"lng":137.733432,"zip":"4300916"},{"town":"東伊場一丁目","koaza":"","lat":34.700595,"lng":137.713498,"zip":"4328036"},{"town":"東伊場二丁目","koaza":"","lat":34.696987,"lng":137.719253,"zip":"4328036"},{"town":"東田町","koaza":"","lat":34.709237,"lng":137.733751,"zip":"4300915"},{"town":"曳馬一丁目","koaza":"","lat":34.72805,"lng":137.738462,"zip":"4300901"},{"town":"曳馬二丁目","koaza":"","lat":34.727297,"lng":137.741338,"zip":"4300901"},{"town":"曳馬三丁目","koaza":"","lat":34.726516,"lng":137.744953,"zip":"4300901"},{"town":"曳馬四丁目","koaza":"","lat":34.731332,"lng":137.742476,"zip":"4300901"},{"town":"曳馬五丁目","koaza":"","lat":34.732203,"lng":137.738437,"zip":"4300901"},{"town":"曳馬六丁目","koaza":"","lat":34.736809,"lng":137.736045,"zip":"4300901"},{"town":"曳馬町","koaza":"","lat":34.723876,"lng":137.746249,"zip":"4300902"},{"town":"広沢一丁目","koaza":"","lat":34.715422,"lng":137.717971,"zip":"4328013"},{"town":"広沢二丁目","koaza":"","lat":34.71532,"lng":137.713319,"zip":"4328013"},{"town":"広沢三丁目","koaza":"","lat":34.710691,"lng":137.715576,"zip":"4328013"},{"town":"船越町","koaza":"","lat":34.716155,"lng":137.743901,"zip":"4300913"},{"town":"文丘町","koaza":"","lat":34.726377,"lng":137.714797,"zip":"4328004"},{"town":"細島町","koaza":"","lat":34.722734,"lng":137.749991,"zip":"4350045"},{"town":"松城町","koaza":"","lat":34.711269,"lng":137.723379,"zip":"4300947"},{"town":"三組町","koaza":"","lat":34.708858,"lng":137.71998,"zip":"4328017"},{"town":"南浅田一丁目","koaza":"","lat":34.691711,"lng":137.729894,"zip":"4328044"},{"town":"南浅田二丁目","koaza":"","lat":34.687872,"lng":137.731151,"zip":"4328044"},{"town":"南伊場町","koaza":"","lat":34.69727,"lng":137.710784,"zip":"4328037"},{"town":"向宿一丁目","koaza":"","lat":34.707255,"lng":137.751698,"zip":"4300851"},{"town":"向宿二丁目","koaza":"","lat":34.70461,"lng":137.752686,"zip":"4300851"},{"town":"向宿三丁目","koaza":"","lat":34.701966,"lng":137.752525,"zip":"4300851"},{"town":"元魚町","koaza":"","lat":34.702587,"lng":137.726195,"zip":"4328026"},{"town":"元城町","koaza":"","lat":34.711349,"lng":137.726508,"zip":"4300946"},{"town":"元浜町","koaza":"","lat":34.71523,"lng":137.732631,"zip":"4300942"},{"town":"森田町","koaza":"","lat":34.694101,"lng":137.717576,"zip":"4328048"},{"town":"山下町","koaza":"","lat":34.716316,"lng":137.730525,"zip":"4300941"},{"town":"山手町","koaza":"","lat":34.7082,"lng":137.70532,"zip":"4328022"},{"town":"龍禅寺町","koaza":"","lat":34.696107,"lng":137.74029,"zip":"4300924"},{"town":"領家一丁目","koaza":"","lat":34.699877,"lng":137.752427,"zip":"4300852"},{"town":"領家二丁目","koaza":"","lat":34.697017,"lng":137.75239,"zip":"4300852"},{"town":"領家三丁目","koaza":"","lat":34.694454,"lng":137.752967,"zip":"4300852"},{"town":"連尺町","koaza":"","lat":34.707422,"lng":137.727953,"zip":"4300939"},{"town":"和合北一丁目","koaza":"","lat":34.736572,"lng":137.720836,"zip":"4338127"},{"town":"和合北二丁目","koaza":"","lat":34.739927,"lng":137.717441,"zip":"4338127"},{"town":"和合北三丁目","koaza":"","lat":34.739426,"lng":137.714934,"zip":"4338127"},{"town":"和合北四丁目","koaza":"","lat":34.743808,"lng":137.715283,"zip":"4338127"},{"town":"和合町","koaza":"","lat":34.741009,"lng":137.709734,"zip":"4338125"},{"town":"和地山一丁目","koaza":"","lat":34.726783,"lng":137.721013,"zip":"4328003"},{"town":"和地山二丁目","koaza":"","lat":34.728968,"lng":137.72007,"zip":"4328003"},{"town":"和地山三丁目","koaza":"","lat":34.72898,"lng":137.717281,"zip":"4328003"}]