[{"town":"有玉北町","koaza":"","lat":34.767533,"lng":137.753938,"zip":"4313121"},{"town":"有玉台一丁目","koaza":"","lat":34.760178,"lng":137.739125,"zip":"4313126"},{"town":"有玉台二丁目","koaza":"","lat":34.762239,"lng":137.741533,"zip":"4313126"},{"town":"有玉台三丁目","koaza":"","lat":34.763025,"lng":137.737815,"zip":"4313126"},{"town":"有玉台四丁目","koaza":"","lat":34.76519,"lng":137.738214,"zip":"4313126"},{"town":"有玉西町","koaza":"","lat":34.755665,"lng":137.738077,"zip":"4313123"},{"town":"有玉南町","koaza":"","lat":34.752776,"lng":137.749141,"zip":"4313122"},{"town":"安新町","koaza":"","lat":34.728716,"lng":137.788287,"zip":"4350005"},{"town":"安間町","koaza":"","lat":34.724268,"lng":137.791926,"zip":"4350012"},{"town":"市野町","koaza":"","lat":34.748097,"lng":137.772114,"zip":"4350051"},{"town":"植松町","koaza":"","lat":34.711092,"lng":137.757193,"zip":"4300803"},{"town":"大蒲町","koaza":"","lat":34.714751,"lng":137.767477,"zip":"4350014"},{"town":"大島町","koaza":"","lat":34.761375,"lng":137.781278,"zip":"4313112"},{"town":"大瀬町","koaza":"","lat":34.759673,"lng":137.768118,"zip":"4313113"},{"town":"笠井上町","koaza":"","lat":34.779129,"lng":137.801085,"zip":"4313106"},{"town":"笠井新田町","koaza":"","lat":34.763339,"lng":137.78844,"zip":"4313105"},{"town":"笠井町","koaza":"","lat":34.768264,"lng":137.795427,"zip":"4313107"},{"town":"上新屋町","koaza":"","lat":34.729856,"lng":137.753845,"zip":"4350053"},{"town":"上石田町","koaza":"","lat":34.753254,"lng":137.784832,"zip":"4350001"},{"town":"上西町","koaza":"","lat":34.723351,"lng":137.758961,"zip":"4350048"},{"town":"北島町","koaza":"","lat":34.730204,"lng":137.781447,"zip":"4350041"},{"town":"貴平町","koaza":"","lat":34.754811,"lng":137.794799,"zip":"4313104"},{"town":"国吉町","koaza":"","lat":34.722321,"lng":137.798166,"zip":"4350011"},{"town":"小池町","koaza":"","lat":34.747824,"lng":137.758209,"zip":"4350056"},{"town":"神立町","koaza":"","lat":34.715518,"lng":137.751592,"zip":"4300801"},{"town":"子安町","koaza":"","lat":34.713895,"lng":137.763027,"zip":"4350015"},{"town":"材木町","koaza":"","lat":34.717361,"lng":137.792264,"zip":"4350021"},{"town":"篠ケ瀬町","koaza":"","lat":34.727536,"lng":137.775286,"zip":"4350042"},{"town":"下石田町","koaza":"","lat":34.740199,"lng":137.783451,"zip":"4350006"},{"town":"将監町","koaza":"","lat":34.715041,"lng":137.755796,"zip":"4300802"},{"town":"常光町","koaza":"","lat":34.752404,"lng":137.807519,"zip":"4313103"},{"town":"白鳥町","koaza":"","lat":34.74413,"lng":137.802051,"zip":"4350002"},{"town":"積志町","koaza":"","lat":34.768256,"lng":137.765507,"zip":"4313114"},{"town":"恒武町","koaza":"","lat":34.762469,"lng":137.79799,"zip":"4313108"},{"town":"天王町","koaza":"","lat":34.737685,"lng":137.77101,"zip":"4350052"},{"town":"天龍川町","koaza":"","lat":34.720545,"lng":137.778952,"zip":"4350013"},{"town":"豊西町","koaza":"","lat":34.760457,"lng":137.81039,"zip":"4313102"},{"town":"中郡町","koaza":"","lat":34.773895,"lng":137.779504,"zip":"4313111"},{"town":"中里町","koaza":"","lat":34.73743,"lng":137.797411,"zip":"4350003"},{"town":"中田町","koaza":"","lat":34.736706,"lng":137.757333,"zip":"4350057"},{"town":"長鶴町","koaza":"","lat":34.713509,"lng":137.780351,"zip":"4350031"},{"town":"中野町","koaza":"","lat":34.730659,"lng":137.799078,"zip":"4350004"},{"town":"西ケ崎町","koaza":"","lat":34.775651,"lng":137.76555,"zip":"4313115"},{"town":"西塚町","koaza":"","lat":34.719618,"lng":137.757142,"zip":"4350044"},{"town":"原島町","koaza":"","lat":34.729497,"lng":137.769044,"zip":"4350047"},{"town":"半田町","koaza":"","lat":34.771558,"lng":137.750373,"zip":"4313124"},{"town":"半田山一丁目","koaza":"","lat":34.768319,"lng":137.743046,"zip":"4313125"},{"town":"半田山二丁目","koaza":"","lat":34.768914,"lng":137.737232,"zip":"4313125"},{"town":"半田山三丁目","koaza":"","lat":34.772415,"lng":137.739282,"zip":"4313125"},{"town":"半田山四丁目","koaza":"","lat":34.774458,"lng":137.744981,"zip":"4313125"},{"town":"半田山五丁目","koaza":"","lat":34.777033,"lng":137.739071,"zip":"4313125"},{"town":"半田山六丁目","koaza":"","lat":34.77954,"lng":137.741873,"zip":"4313125"},{"town":"松小池町","koaza":"","lat":34.736429,"lng":137.791787,"zip":"4350008"},{"town":"丸塚町","koaza":"","lat":34.727976,"lng":137.760135,"zip":"4350046"},{"town":"宮竹町","koaza":"","lat":34.719784,"lng":137.763118,"zip":"4350043"},{"town":"薬師町","koaza":"","lat":34.723992,"lng":137.782886,"zip":"4350017"},{"town":"薬新町","koaza":"","lat":34.724013,"lng":137.78721,"zip":"4350018"},{"town":"豊町","koaza":"","lat":34.775253,"lng":137.810962,"zip":"4313101"},{"town":"龍光町","koaza":"","lat":34.71726,"lng":137.785315,"zip":"4350029"},{"town":"流通元町","koaza":"","lat":34.744508,"lng":137.78944,"zip":"4350007"},{"town":"和田町","koaza":"","lat":34.718989,"lng":137.769854,"zip":"4350016"},{"town":"北島町","koaza":"小森浦","lat":34.727435,"lng":137.783628,"zip":"4350041"},{"town":"天王町","koaza":"諏訪","lat":34.738645,"lng":137.763726,"zip":"4350052"}]