[{"town":"引佐町井伊谷","koaza":"","lat":34.834189,"lng":137.675266,"zip":"4312212"},{"town":"引佐町伊平","koaza":"","lat":34.862679,"lng":137.660968,"zip":"4312205"},{"town":"引佐町奥山","koaza":"","lat":34.841817,"lng":137.616824,"zip":"4312224"},{"town":"引佐町金指","koaza":"","lat":34.823236,"lng":137.680654,"zip":"4312213"},{"town":"引佐町狩宿","koaza":"","lat":34.863584,"lng":137.607754,"zip":"4312225"},{"town":"引佐町川名","koaza":"","lat":34.872659,"lng":137.698655,"zip":"4312202"},{"town":"引佐町黒渕","koaza":"","lat":34.834797,"lng":137.654568,"zip":"4312222"},{"town":"引佐町渋川","koaza":"","lat":34.935788,"lng":137.677725,"zip":"4312537"},{"town":"引佐町四方浄","koaza":"","lat":34.890332,"lng":137.667096,"zip":"4312533"},{"town":"引佐町白岩","koaza":"","lat":34.840095,"lng":137.662366,"zip":"4312215"},{"town":"引佐町田沢","koaza":"","lat":34.906587,"lng":137.652328,"zip":"4312536"},{"town":"引佐町田畑","koaza":"","lat":34.846204,"lng":137.649283,"zip":"4312221"},{"town":"引佐町栃窪","koaza":"","lat":34.835381,"lng":137.647792,"zip":"4312223"},{"town":"引佐町兎荷","koaza":"","lat":34.853387,"lng":137.679234,"zip":"4312204"},{"town":"引佐町西久留女木","koaza":"","lat":34.909106,"lng":137.700193,"zip":"4312532"},{"town":"引佐町西黒田","koaza":"","lat":34.87229,"lng":137.641988,"zip":"4312206"},{"town":"引佐町花平","koaza":"","lat":34.847534,"lng":137.669044,"zip":"4312211"},{"town":"引佐町東久留女木","koaza":"","lat":34.890114,"lng":137.727954,"zip":"4312531"},{"town":"引佐町東黒田","koaza":"","lat":34.880117,"lng":137.647396,"zip":"4312207"},{"town":"引佐町別所","koaza":"","lat":34.895946,"lng":137.683209,"zip":"4312534"},{"town":"引佐町的場","koaza":"","lat":34.88925,"lng":137.647584,"zip":"4312535"},{"town":"引佐町三岳","koaza":"","lat":34.84166,"lng":137.694576,"zip":"4312203"},{"town":"引佐町谷沢","koaza":"","lat":34.867564,"lng":137.629776,"zip":"4312226"},{"town":"引佐町横尾","koaza":"","lat":34.836216,"lng":137.660305,"zip":"4312214"},{"town":"大原町","koaza":"","lat":34.79949,"lng":137.7375,"zip":"4338102"},{"town":"神宮寺町","koaza":"","lat":34.83119,"lng":137.669827,"zip":"4312216"},{"town":"新都田一丁目","koaza":"","lat":34.821565,"lng":137.73109,"zip":"4312103"},{"town":"新都田二丁目","koaza":"","lat":34.815297,"lng":137.736715,"zip":"4312103"},{"town":"新都田三丁目","koaza":"","lat":34.818975,"lng":137.736585,"zip":"4312103"},{"town":"新都田四丁目","koaza":"","lat":34.811952,"lng":137.743341,"zip":"4312103"},{"town":"新都田五丁目","koaza":"","lat":34.818781,"lng":137.741946,"zip":"4312103"},{"town":"滝沢町","koaza":"","lat":34.8606,"lng":137.725599,"zip":"4312101"},{"town":"豊岡町","koaza":"","lat":34.789721,"lng":137.726926,"zip":"4338103"},{"town":"根洗町","koaza":"","lat":34.79678,"lng":137.70422,"zip":"4338108"},{"town":"初生町","koaza":"","lat":34.764102,"lng":137.727503,"zip":"4338112"},{"town":"東三方町","koaza":"","lat":34.779611,"lng":137.730234,"zip":"4338104"},{"town":"細江町小野","koaza":"","lat":34.820959,"lng":137.651263,"zip":"4311301"},{"town":"細江町気賀","koaza":"","lat":34.802846,"lng":137.632557,"zip":"4311305"},{"town":"細江町中川","koaza":"","lat":34.806941,"lng":137.67839,"zip":"4311304"},{"town":"細江町広岡","koaza":"","lat":34.810371,"lng":137.659787,"zip":"4311302"},{"town":"細江町三和","koaza":"","lat":34.824039,"lng":137.689411,"zip":"4311303"},{"town":"三方原町","koaza":"","lat":34.781645,"lng":137.711977,"zip":"4338105"},{"town":"三ヶ日町宇志","koaza":"","lat":34.807091,"lng":137.566445,"zip":"4311404"},{"town":"三ヶ日町大崎","koaza":"","lat":34.773128,"lng":137.565202,"zip":"4311403"},{"town":"三ヶ日町大谷","koaza":"","lat":34.811633,"lng":137.590492,"zip":"4311407"},{"town":"三ヶ日町岡本","koaza":"","lat":34.813468,"lng":137.544533,"zip":"4311415"},{"town":"三ヶ日町上尾奈","koaza":"","lat":34.782129,"lng":137.513793,"zip":"4311425"},{"town":"三ヶ日町駒場","koaza":"","lat":34.8002,"lng":137.581488,"zip":"4311406"},{"town":"三ヶ日町佐久米","koaza":"","lat":34.791481,"lng":137.600089,"zip":"4311401"},{"town":"三ヶ日町下尾奈","koaza":"","lat":34.782409,"lng":137.536509,"zip":"4311424"},{"town":"三ヶ日町只木","koaza":"","lat":34.834387,"lng":137.575608,"zip":"4311412"},{"town":"三ヶ日町都筑","koaza":"","lat":34.790767,"lng":137.580831,"zip":"4311402"},{"town":"三ヶ日町津々崎","koaza":"","lat":34.800029,"lng":137.57252,"zip":"4311405"},{"town":"三ヶ日町釣","koaza":"","lat":34.810065,"lng":137.533912,"zip":"4311416"},{"town":"三ヶ日町鵺代","koaza":"","lat":34.798065,"lng":137.5427,"zip":"4311423"},{"town":"三ヶ日町日比沢","koaza":"","lat":34.80284,"lng":137.529896,"zip":"4311422"},{"town":"三ヶ日町平山","koaza":"","lat":34.829211,"lng":137.517446,"zip":"4311417"},{"town":"三ヶ日町福長","koaza":"","lat":34.83477,"lng":137.547618,"zip":"4311411"},{"town":"三ヶ日町本坂","koaza":"","lat":34.805237,"lng":137.505781,"zip":"4311421"},{"town":"三ヶ日町摩訶耶","koaza":"","lat":34.818497,"lng":137.558003,"zip":"4311413"},{"town":"三ヶ日町三ヶ日","koaza":"","lat":34.806661,"lng":137.548762,"zip":"4311414"},{"town":"都田町","koaza":"","lat":34.824631,"lng":137.718001,"zip":"4312102"},{"town":"三幸町","koaza":"","lat":34.79985,"lng":137.722448,"zip":"4338101"},{"town":"鷲沢町","koaza":"","lat":34.846124,"lng":137.715038,"zip":"4312104"},{"town":"三ヶ日町三ヶ日","koaza":"大苗代","lat":34.810689,"lng":137.549384,"zip":"4311414"}]