[{"town":"青屋町","koaza":"","lat":34.716112,"lng":137.781322,"zip":"4350037"},{"town":"飯田町","koaza":"","lat":34.706931,"lng":137.775756,"zip":"4350028"},{"town":"石原町","koaza":"","lat":34.691933,"lng":137.772641,"zip":"4350033"},{"town":"瓜内町","koaza":"","lat":34.688078,"lng":137.735072,"zip":"4300854"},{"town":"江之島町","koaza":"","lat":34.662467,"lng":137.755573,"zip":"4300844"},{"town":"遠州浜一丁目","koaza":"","lat":34.657794,"lng":137.761709,"zip":"4300835"},{"town":"遠州浜二丁目","koaza":"","lat":34.656772,"lng":137.767605,"zip":"4300835"},{"town":"遠州浜三丁目","koaza":"","lat":34.655971,"lng":137.772902,"zip":"4300835"},{"town":"遠州浜四丁目","koaza":"","lat":34.654426,"lng":137.776628,"zip":"4300835"},{"town":"老間町","koaza":"","lat":34.690026,"lng":137.78925,"zip":"4350025"},{"town":"大塚町","koaza":"","lat":34.698129,"lng":137.789284,"zip":"4350024"},{"town":"大柳町","koaza":"","lat":34.676654,"lng":137.756513,"zip":"4300842"},{"town":"卸本町","koaza":"","lat":34.673065,"lng":137.724662,"zip":"4328055"},{"town":"恩地町","koaza":"","lat":34.687206,"lng":137.760258,"zip":"4300814"},{"town":"金折町","koaza":"","lat":34.691782,"lng":137.780868,"zip":"4350026"},{"town":"河輪町","koaza":"","lat":34.674878,"lng":137.786213,"zip":"4300823"},{"town":"倉松町","koaza":"","lat":34.673412,"lng":137.692546,"zip":"4328064"},{"town":"御給町","koaza":"","lat":34.675866,"lng":137.768763,"zip":"4300831"},{"town":"小沢渡町","koaza":"","lat":34.677762,"lng":137.679931,"zip":"4328063"},{"town":"参野町","koaza":"","lat":34.691868,"lng":137.761007,"zip":"4300816"},{"town":"三新町","koaza":"","lat":34.662414,"lng":137.784606,"zip":"4300833"},{"town":"三和町","koaza":"","lat":34.704649,"lng":137.767089,"zip":"4350038"},{"town":"四本松町","koaza":"","lat":34.684259,"lng":137.767693,"zip":"4300826"},{"town":"下飯田町","koaza":"","lat":34.700228,"lng":137.778853,"zip":"4350027"},{"town":"下江町","koaza":"","lat":34.676905,"lng":137.772265,"zip":"4300825"},{"town":"白羽町","koaza":"","lat":34.672407,"lng":137.731721,"zip":"4300846"},{"town":"新貝町","koaza":"","lat":34.703269,"lng":137.791939,"zip":"4350023"},{"town":"頭陀寺町","koaza":"","lat":34.698732,"lng":137.757989,"zip":"4300817"},{"town":"西伝寺町","koaza":"","lat":34.702085,"lng":137.764101,"zip":"4350035"},{"town":"増楽町","koaza":"","lat":34.690417,"lng":137.692591,"zip":"4328062"},{"town":"高塚町","koaza":"","lat":34.690267,"lng":137.681178,"zip":"4328065"},{"town":"田尻町","koaza":"","lat":34.665711,"lng":137.722197,"zip":"4328054"},{"town":"立野町","koaza":"","lat":34.685191,"lng":137.773927,"zip":"4300827"},{"town":"堤町","koaza":"","lat":34.669256,"lng":137.704523,"zip":"4328057"},{"town":"都盛町","koaza":"","lat":34.686337,"lng":137.755818,"zip":"4300815"},{"town":"鶴見町","koaza":"","lat":34.710229,"lng":137.793257,"zip":"4350022"},{"town":"寺脇町","koaza":"","lat":34.67855,"lng":137.748588,"zip":"4300841"},{"town":"富屋町","koaza":"","lat":34.678463,"lng":137.775403,"zip":"4300824"},{"town":"中田島町","koaza":"","lat":34.668753,"lng":137.741869,"zip":"4300845"},{"town":"長田町","koaza":"","lat":34.670734,"lng":137.777078,"zip":"4300832"},{"town":"西島町","koaza":"","lat":34.669275,"lng":137.767028,"zip":"4300837"},{"town":"西町","koaza":"","lat":34.683186,"lng":137.779156,"zip":"4300821"},{"town":"新橋町","koaza":"","lat":34.682125,"lng":137.705704,"zip":"4328058"},{"town":"鼡野町","koaza":"","lat":34.67646,"lng":137.763208,"zip":"4300838"},{"town":"法枝町","koaza":"","lat":34.677759,"lng":137.719662,"zip":"4328053"},{"town":"東町","koaza":"","lat":34.67996,"lng":137.78297,"zip":"4300822"},{"town":"東若林町","koaza":"","lat":34.689425,"lng":137.712192,"zip":"4328052"},{"town":"福島町","koaza":"","lat":34.663841,"lng":137.768361,"zip":"4300836"},{"town":"福塚町","koaza":"","lat":34.674783,"lng":137.752807,"zip":"4300843"},{"town":"古川町","koaza":"","lat":34.687555,"lng":137.771106,"zip":"4350032"},{"town":"芳川町","koaza":"","lat":34.688332,"lng":137.765654,"zip":"4300813"},{"town":"本郷町","koaza":"","lat":34.697372,"lng":137.762307,"zip":"4300812"},{"town":"松島町","koaza":"","lat":34.662507,"lng":137.776082,"zip":"4300834"},{"town":"三島町","koaza":"","lat":34.688898,"lng":137.745959,"zip":"4300853"},{"town":"安松町","koaza":"","lat":34.697423,"lng":137.770165,"zip":"4350034"},{"town":"楊子町","koaza":"","lat":34.693931,"lng":137.746117,"zip":"4300855"},{"town":"米津町","koaza":"","lat":34.670951,"lng":137.719096,"zip":"4328056"},{"town":"若林町","koaza":"","lat":34.691268,"lng":137.702509,"zip":"4328051"},{"town":"渡瀬町","koaza":"","lat":34.70634,"lng":137.760955,"zip":"4350036"}]