[{"town":"相川","koaza":"","lat":34.804532,"lng":138.259178,"zip":"4210216"},{"town":"新屋","koaza":"","lat":34.866432,"lng":138.326086,"zip":"4250023"},{"town":"石津","koaza":"","lat":34.843848,"lng":138.316267,"zip":"4250041"},{"town":"石津中町","koaza":"","lat":34.841689,"lng":138.324607,"zip":"4250043"},{"town":"石津港町","koaza":"","lat":34.842587,"lng":138.328654,"zip":"4250042"},{"town":"石津向町","koaza":"","lat":34.841862,"lng":138.320993,"zip":"4250044"},{"town":"石脇上","koaza":"","lat":34.891612,"lng":138.321169,"zip":"4250015"},{"town":"石脇下","koaza":"","lat":34.888067,"lng":138.325987,"zip":"4250016"},{"town":"一色","koaza":"","lat":34.825173,"lng":138.311572,"zip":"4250054"},{"town":"鰯ケ島","koaza":"","lat":34.857374,"lng":138.325002,"zip":"4250032"},{"town":"駅北一丁目","koaza":"","lat":34.873526,"lng":138.319533,"zip":"4250028"},{"town":"駅北二丁目","koaza":"","lat":34.872204,"lng":138.315798,"zip":"4250028"},{"town":"駅北三丁目","koaza":"","lat":34.875142,"lng":138.314439,"zip":"4250028"},{"town":"駅北四丁目","koaza":"","lat":34.875579,"lng":138.317954,"zip":"4250028"},{"town":"駅北五丁目","koaza":"","lat":34.876133,"lng":138.322282,"zip":"4250028"},{"town":"越後島","koaza":"","lat":34.884731,"lng":138.297847,"zip":"4250092"},{"town":"大島","koaza":"","lat":34.821136,"lng":138.295452,"zip":"4250066"},{"town":"大島新田","koaza":"","lat":34.81516,"lng":138.307655,"zip":"4250069"},{"town":"大住","koaza":"","lat":34.8469,"lng":138.286533,"zip":"4250072"},{"town":"大村一丁目","koaza":"","lat":34.874369,"lng":138.308553,"zip":"4250082"},{"town":"大村二丁目","koaza":"","lat":34.871864,"lng":138.309368,"zip":"4250082"},{"town":"大村三丁目","koaza":"","lat":34.87306,"lng":138.305336,"zip":"4250082"},{"town":"大村新田","koaza":"","lat":34.871425,"lng":138.301733,"zip":"4250084"},{"town":"岡当目","koaza":"","lat":34.879622,"lng":138.319546,"zip":"4250013"},{"town":"小浜","koaza":"","lat":34.894643,"lng":138.340275,"zip":"4250011"},{"town":"小柳津","koaza":"","lat":34.854734,"lng":138.284923,"zip":"4250073"},{"town":"方ノ上","koaza":"","lat":34.892107,"lng":138.305139,"zip":"4250005"},{"town":"上泉","koaza":"","lat":34.816228,"lng":138.255474,"zip":"4210217"},{"town":"上小杉","koaza":"","lat":34.818313,"lng":138.286179,"zip":"4210201"},{"town":"上新田","koaza":"","lat":34.818255,"lng":138.269838,"zip":"4210206"},{"town":"北新田","koaza":"","lat":34.833459,"lng":138.317712,"zip":"4250058"},{"town":"北浜通","koaza":"","lat":34.864178,"lng":138.325147,"zip":"4250024"},{"town":"五ケ堀之内","koaza":"","lat":34.860548,"lng":138.297839,"zip":"4250077"},{"town":"小川","koaza":"","lat":34.850061,"lng":138.318258,"zip":"4250033"},{"town":"小川新町一丁目","koaza":"","lat":34.858984,"lng":138.320574,"zip":"4250031"},{"town":"小川新町二丁目","koaza":"","lat":34.857233,"lng":138.320072,"zip":"4250031"},{"town":"小川新町三丁目","koaza":"","lat":34.855605,"lng":138.320257,"zip":"4250031"},{"town":"小川新町四丁目","koaza":"","lat":34.854234,"lng":138.319989,"zip":"4250031"},{"town":"小川新町五丁目","koaza":"","lat":34.852833,"lng":138.31973,"zip":"4250031"},{"town":"小土","koaza":"","lat":34.866356,"lng":138.291599,"zip":"4250086"},{"town":"小屋敷","koaza":"","lat":34.860295,"lng":138.282044,"zip":"4250076"},{"town":"栄町一丁目","koaza":"","lat":34.87099,"lng":138.317561,"zip":"4250027"},{"town":"栄町二丁目","koaza":"","lat":34.871311,"lng":138.320936,"zip":"4250027"},{"town":"栄町三丁目","koaza":"","lat":34.869688,"lng":138.321021,"zip":"4250027"},{"town":"栄町四丁目","koaza":"","lat":34.869809,"lng":138.318679,"zip":"4250027"},{"town":"栄町五丁目","koaza":"","lat":34.867998,"lng":138.319185,"zip":"4250027"},{"town":"栄町六丁目","koaza":"","lat":34.869006,"lng":138.315815,"zip":"4250027"},{"town":"坂本","koaza":"","lat":34.894773,"lng":138.313463,"zip":"4250004"},{"town":"三右衛門新田","koaza":"","lat":34.846799,"lng":138.299791,"zip":"4250046"},{"town":"三ケ名","koaza":"","lat":34.859017,"lng":138.300964,"zip":"4250071"},{"town":"塩津","koaza":"","lat":34.867949,"lng":138.307702,"zip":"4250085"},{"town":"治長請所","koaza":"","lat":34.83177,"lng":138.281383,"zip":"4250067"},{"town":"下江留","koaza":"","lat":34.80642,"lng":138.275583,"zip":"4210218"},{"town":"下小田","koaza":"","lat":34.836848,"lng":138.319112,"zip":"4250057"},{"town":"下小田中町","koaza":"","lat":34.83929,"lng":138.320924,"zip":"4250056"},{"town":"下小杉","koaza":"","lat":34.811822,"lng":138.311046,"zip":"4210202"},{"town":"城之腰","koaza":"","lat":34.861568,"lng":138.325537,"zip":"4250025"},{"town":"すみれ台一丁目","koaza":"","lat":34.831323,"lng":138.322648,"zip":"4250053"},{"town":"すみれ台二丁目","koaza":"","lat":34.831445,"lng":138.328526,"zip":"4250053"},{"town":"関方","koaza":"","lat":34.897542,"lng":138.305362,"zip":"4250006"},{"town":"惣右衛門","koaza":"","lat":34.817479,"lng":138.314621,"zip":"4250065"},{"town":"大栄町一丁目","koaza":"","lat":34.871258,"lng":138.312923,"zip":"4250081"},{"town":"大栄町二丁目","koaza":"","lat":34.874018,"lng":138.311734,"zip":"4250081"},{"town":"大栄町三丁目","koaza":"","lat":34.875931,"lng":138.311087,"zip":"4250081"},{"town":"大覚寺","koaza":"","lat":34.872296,"lng":138.294508,"zip":"4250088"},{"town":"大覚寺一丁目","koaza":"","lat":34.877301,"lng":138.299055,"zip":"4250088"},{"town":"大覚寺二丁目","koaza":"","lat":34.874914,"lng":138.297276,"zip":"4250088"},{"town":"大覚寺三丁目","koaza":"","lat":34.875102,"lng":138.302078,"zip":"4250088"},{"town":"高崎","koaza":"","lat":34.895304,"lng":138.327133,"zip":"4250003"},{"town":"高新田","koaza":"","lat":34.798819,"lng":138.306027,"zip":"4210204"},{"town":"田尻","koaza":"","lat":34.828014,"lng":138.324993,"zip":"4250052"},{"town":"田尻北","koaza":"","lat":34.837706,"lng":138.331915,"zip":"4250051"},{"town":"道原","koaza":"","lat":34.83446,"lng":138.307465,"zip":"4250055"},{"town":"中里","koaza":"","lat":34.88299,"lng":138.316889,"zip":"4250014"},{"town":"中島","koaza":"","lat":34.792089,"lng":138.272567,"zip":"4210214"},{"town":"中新田","koaza":"","lat":34.838903,"lng":138.285867,"zip":"4250068"},{"town":"中根","koaza":"","lat":34.840741,"lng":138.298806,"zip":"4250061"},{"town":"中根新田","koaza":"","lat":34.832736,"lng":138.294373,"zip":"4250062"},{"town":"中港一丁目","koaza":"","lat":34.872969,"lng":138.322106,"zip":"4250021"},{"town":"中港二丁目","koaza":"","lat":34.87128,"lng":138.32376,"zip":"4250021"},{"town":"中港三丁目","koaza":"","lat":34.872879,"lng":138.326556,"zip":"4250021"},{"town":"中港四丁目","koaza":"","lat":34.875301,"lng":138.324759,"zip":"4250021"},{"town":"中港五丁目","koaza":"","lat":34.87466,"lng":138.328242,"zip":"4250021"},{"town":"中港六丁目","koaza":"","lat":34.871142,"lng":138.329014,"zip":"4250021"},{"town":"西小川一丁目","koaza":"","lat":34.860748,"lng":138.311037,"zip":"4250036"},{"town":"西小川二丁目","koaza":"","lat":34.860193,"lng":138.30913,"zip":"4250036"},{"town":"西小川三丁目","koaza":"","lat":34.857303,"lng":138.308783,"zip":"4250036"},{"town":"西小川四丁目","koaza":"","lat":34.854166,"lng":138.306793,"zip":"4250036"},{"town":"西小川五丁目","koaza":"","lat":34.858287,"lng":138.305826,"zip":"4250036"},{"town":"西小川六丁目","koaza":"","lat":34.855199,"lng":138.303405,"zip":"4250036"},{"town":"西小川七丁目","koaza":"","lat":34.851797,"lng":138.308274,"zip":"4250036"},{"town":"西小川八丁目","koaza":"","lat":34.849956,"lng":138.308153,"zip":"4250036"},{"town":"西島","koaza":"","lat":34.797058,"lng":138.263912,"zip":"4210215"},{"town":"西焼津","koaza":"","lat":34.860062,"lng":138.285734,"zip":"4250075"},{"town":"祢宜島","koaza":"","lat":34.84053,"lng":138.305102,"zip":"4250045"},{"town":"野秋","koaza":"","lat":34.899436,"lng":138.335018,"zip":"4250017"},{"town":"花沢","koaza":"","lat":34.913251,"lng":138.329822,"zip":"4250001"},{"town":"飯淵","koaza":"","lat":34.779764,"lng":138.284838,"zip":"4210213"},{"town":"浜当目","koaza":"","lat":34.886461,"lng":138.333095,"zip":"4250012"},{"town":"浜当目一丁目","koaza":"","lat":34.879212,"lng":138.327618,"zip":"4250012"},{"town":"浜当目二丁目","koaza":"","lat":34.877232,"lng":138.329857,"zip":"4250012"},{"town":"浜当目三丁目","koaza":"","lat":34.878877,"lng":138.333336,"zip":"4250012"},{"town":"浜当目四丁目","koaza":"","lat":34.881326,"lng":138.333358,"zip":"4250012"},{"town":"東小川一丁目","koaza":"","lat":34.859848,"lng":138.315644,"zip":"4250035"},{"town":"東小川二丁目","koaza":"","lat":34.857932,"lng":138.314892,"zip":"4250035"},{"town":"東小川三丁目","koaza":"","lat":34.855429,"lng":138.31555,"zip":"4250035"},{"town":"東小川四丁目","koaza":"","lat":34.852805,"lng":138.315123,"zip":"4250035"},{"town":"東小川五丁目","koaza":"","lat":34.856209,"lng":138.311819,"zip":"4250035"},{"town":"東小川六丁目","koaza":"","lat":34.853229,"lng":138.31102,"zip":"4250035"},{"town":"東小川七丁目","koaza":"","lat":34.851359,"lng":138.311938,"zip":"4250035"},{"town":"東小川八丁目","koaza":"","lat":34.84993,"lng":138.310389,"zip":"4250035"},{"town":"藤守","koaza":"","lat":34.805934,"lng":138.312212,"zip":"4210203"},{"town":"保福島","koaza":"","lat":34.868574,"lng":138.282756,"zip":"4250087"},{"town":"本中根","koaza":"","lat":34.826852,"lng":138.29397,"zip":"4250063"},{"town":"本町一丁目","koaza":"","lat":34.868704,"lng":138.322949,"zip":"4250022"},{"town":"本町二丁目","koaza":"","lat":34.866962,"lng":138.322712,"zip":"4250022"},{"town":"本町三丁目","koaza":"","lat":34.865525,"lng":138.321764,"zip":"4250022"},{"town":"本町四丁目","koaza":"","lat":34.863994,"lng":138.321492,"zip":"4250022"},{"town":"本町五丁目","koaza":"","lat":34.862377,"lng":138.321175,"zip":"4250022"},{"town":"本町六丁目","koaza":"","lat":34.860499,"lng":138.320894,"zip":"4250022"},{"town":"三和","koaza":"","lat":34.828452,"lng":138.301632,"zip":"4250064"},{"town":"策牛","koaza":"","lat":34.895677,"lng":138.294934,"zip":"4250007"},{"town":"宗高","koaza":"","lat":34.808425,"lng":138.285397,"zip":"4210205"},{"town":"焼津","koaza":"","lat":34.866722,"lng":138.311694,"zip":"4250026"},{"town":"焼津一丁目","koaza":"","lat":34.866833,"lng":138.314753,"zip":"4250026"},{"town":"焼津二丁目","koaza":"","lat":34.86518,"lng":138.313504,"zip":"4250026"},{"town":"焼津三丁目","koaza":"","lat":34.862737,"lng":138.31006,"zip":"4250026"},{"town":"焼津四丁目","koaza":"","lat":34.862524,"lng":138.314391,"zip":"4250026"},{"town":"焼津五丁目","koaza":"","lat":34.861827,"lng":138.317275,"zip":"4250026"},{"town":"焼津六丁目","koaza":"","lat":34.865473,"lng":138.318331,"zip":"4250026"},{"town":"八楠","koaza":"","lat":34.87795,"lng":138.313679,"zip":"4250091"},{"town":"八楠一丁目","koaza":"","lat":34.882797,"lng":138.304882,"zip":"4250091"},{"town":"八楠二丁目","koaza":"","lat":34.880276,"lng":138.309648,"zip":"4250091"},{"town":"八楠三丁目","koaza":"","lat":34.878737,"lng":138.308509,"zip":"4250091"},{"town":"八楠四丁目","koaza":"","lat":34.879205,"lng":138.303412,"zip":"4250091"},{"town":"柳新屋","koaza":"","lat":34.857801,"lng":138.287589,"zip":"4250074"},{"town":"吉津","koaza":"","lat":34.902,"lng":138.327071,"zip":"4250002"},{"town":"吉永","koaza":"","lat":34.794106,"lng":138.297262,"zip":"4210211"},{"town":"与惣次","koaza":"","lat":34.845748,"lng":138.310989,"zip":"4250034"},{"town":"利右衛門","koaza":"","lat":34.788065,"lng":138.29547,"zip":"4210212"},{"town":"下江留","koaza":"中","lat":34.808544,"lng":138.276232,"zip":"4210218"}]