[{"town":"大江","koaza":"","lat":34.708412,"lng":138.200062,"zip":"4210512"},{"town":"大沢","koaza":"","lat":34.688793,"lng":138.184295,"zip":"4210526"},{"town":"大沢一丁目","koaza":"","lat":34.688078,"lng":138.190957,"zip":"4210526"},{"town":"大寄","koaza":"","lat":34.719852,"lng":138.153866,"zip":"4210506"},{"town":"男神","koaza":"","lat":34.711852,"lng":138.188853,"zip":"4210517"},{"town":"落居","koaza":"","lat":34.653018,"lng":138.185576,"zip":"4210531"},{"town":"笠名","koaza":"","lat":34.641812,"lng":138.175102,"zip":"4210535"},{"town":"片浜","koaza":"","lat":34.710745,"lng":138.210382,"zip":"4210511"},{"town":"勝田","koaza":"","lat":34.773038,"lng":138.16745,"zip":"4210406"},{"town":"勝間","koaza":"","lat":34.769313,"lng":138.190671,"zip":"4210402"},{"town":"勝俣","koaza":"","lat":34.741784,"lng":138.202992,"zip":"4210414"},{"town":"鬼女新田","koaza":"","lat":34.676742,"lng":138.178765,"zip":"4210525"},{"town":"切山","koaza":"","lat":34.787364,"lng":138.159407,"zip":"4210401"},{"town":"黒子","koaza":"","lat":34.715369,"lng":138.180443,"zip":"4210504"},{"town":"西山寺","koaza":"","lat":34.704177,"lng":138.175705,"zip":"4210515"},{"town":"坂口","koaza":"","lat":34.789215,"lng":138.193008,"zip":"4210411"},{"town":"坂部","koaza":"","lat":34.776728,"lng":138.212498,"zip":"4210412"},{"town":"相良","koaza":"","lat":34.684121,"lng":138.204052,"zip":"4210522"},{"town":"汐見台","koaza":"","lat":34.678741,"lng":138.194617,"zip":"4210527"},{"town":"静谷","koaza":"","lat":34.757772,"lng":138.179877,"zip":"4210404"},{"town":"静波","koaza":"","lat":34.737863,"lng":138.227697,"zip":"4210422"},{"town":"地頭方","koaza":"","lat":34.638073,"lng":138.18777,"zip":"4210532"},{"town":"地頭方一丁目","koaza":"","lat":34.634926,"lng":138.190356,"zip":"4210532"},{"town":"嶋","koaza":"","lat":34.781675,"lng":138.141696,"zip":"4210408"},{"town":"白井","koaza":"","lat":34.734317,"lng":138.184156,"zip":"4210405"},{"town":"新庄","koaza":"","lat":34.626871,"lng":138.19167,"zip":"4210533"},{"town":"菅ケ谷","koaza":"","lat":34.703215,"lng":138.158779,"zip":"4210514"},{"town":"須々木","koaza":"","lat":34.674958,"lng":138.189809,"zip":"4210524"},{"town":"道場","koaza":"","lat":34.730477,"lng":138.214059,"zip":"4210415"},{"town":"中","koaza":"","lat":34.756473,"lng":138.207994,"zip":"4210403"},{"town":"中西","koaza":"","lat":34.720202,"lng":138.172773,"zip":"4210505"},{"town":"西萩間","koaza":"","lat":34.735155,"lng":138.151219,"zip":"4210508"},{"town":"仁田","koaza":"","lat":34.758971,"lng":138.219522,"zip":"4210413"},{"town":"布引原","koaza":"","lat":34.774368,"lng":138.147794,"zip":"4210407"},{"town":"波津","koaza":"","lat":34.681079,"lng":138.199592,"zip":"4210523"},{"town":"波津一丁目","koaza":"","lat":34.682163,"lng":138.193797,"zip":"4210523"},{"town":"波津二丁目","koaza":"","lat":34.683723,"lng":138.193658,"zip":"4210523"},{"town":"波津三丁目","koaza":"","lat":34.68639,"lng":138.190726,"zip":"4210523"},{"town":"東萩間","koaza":"","lat":34.75163,"lng":138.149748,"zip":"4210501"},{"town":"蛭ケ谷","koaza":"","lat":34.727956,"lng":138.174007,"zip":"4210503"},{"town":"福岡","koaza":"","lat":34.684853,"lng":138.201348,"zip":"4210521"},{"town":"細江","koaza":"","lat":34.752551,"lng":138.233575,"zip":"4210421"},{"town":"堀野新田","koaza":"","lat":34.629273,"lng":138.174599,"zip":"4210534"},{"town":"牧之原","koaza":"","lat":34.762509,"lng":138.135617,"zip":"4210509"},{"town":"松本","koaza":"","lat":34.702705,"lng":138.18512,"zip":"4210513"},{"town":"女神","koaza":"","lat":34.708407,"lng":138.18086,"zip":"4210516"},{"town":"和田","koaza":"","lat":34.721857,"lng":138.166753,"zip":"4210507"}]