[{"town":"大竹","koaza":"","lat":35.112061,"lng":138.96945,"zip":"4190121"},{"town":"大土肥","koaza":"","lat":35.086707,"lng":138.945926,"zip":"4190113"},{"town":"柏谷","koaza":"","lat":35.08168,"lng":138.957507,"zip":"4190112"},{"town":"上沢","koaza":"","lat":35.102596,"lng":138.95669,"zip":"4190122"},{"town":"軽井沢","koaza":"","lat":35.117242,"lng":139.020675,"zip":"4190103"},{"town":"桑原","koaza":"","lat":35.145588,"lng":139.011515,"zip":"4110001"},{"town":"新田","koaza":"","lat":35.07061,"lng":138.939782,"zip":"4190115"},{"town":"田代","koaza":"","lat":35.129463,"lng":139.017299,"zip":"4190102"},{"town":"丹那","koaza":"","lat":35.102897,"lng":139.007812,"zip":"4190105"},{"town":"塚本","koaza":"","lat":35.077699,"lng":138.931534,"zip":"4190124"},{"town":"仁田","koaza":"","lat":35.080828,"lng":138.946875,"zip":"4190114"},{"town":"畑","koaza":"","lat":35.095027,"lng":139.022481,"zip":"4190104"},{"town":"畑毛","koaza":"","lat":35.083481,"lng":138.976479,"zip":"4190111"},{"town":"肥田","koaza":"","lat":35.071603,"lng":138.930317,"zip":"4190125"},{"town":"日守","koaza":"","lat":35.066165,"lng":138.926078,"zip":"4190116"},{"town":"平井","koaza":"","lat":35.096659,"lng":138.978555,"zip":"4190107"},{"town":"間宮","koaza":"","lat":35.08266,"lng":138.935592,"zip":"4190123"}]