[{"town":"赤池","koaza":"","lat":34.708885,"lng":137.810554,"zip":"4380824"},{"town":"安久路一丁目","koaza":"","lat":34.722147,"lng":137.869138,"zip":"4380017"},{"town":"安久路二丁目","koaza":"","lat":34.722323,"lng":137.872217,"zip":"4380017"},{"town":"新島","koaza":"","lat":34.700812,"lng":137.834321,"zip":"4380062"},{"town":"家田","koaza":"","lat":34.838588,"lng":137.872026,"zip":"4380105"},{"town":"五十子","koaza":"","lat":34.693087,"lng":137.874633,"zip":"4371206"},{"town":"池田","koaza":"","lat":34.736759,"lng":137.814242,"zip":"4380805"},{"town":"壱貫地","koaza":"","lat":34.824693,"lng":137.832528,"zip":"4380116"},{"town":"一色","koaza":"","lat":34.676688,"lng":137.856576,"zip":"4371216"},{"town":"今之浦一丁目","koaza":"","lat":34.715068,"lng":137.863351,"zip":"4380071"},{"town":"今之浦二丁目","koaza":"","lat":34.717752,"lng":137.861456,"zip":"4380071"},{"town":"今之浦三丁目","koaza":"","lat":34.71912,"lng":137.85815,"zip":"4380071"},{"town":"今之浦四丁目","koaza":"","lat":34.722753,"lng":137.858278,"zip":"4380071"},{"town":"今之浦五丁目","koaza":"","lat":34.722385,"lng":137.861086,"zip":"4380071"},{"town":"岩井","koaza":"","lat":34.741719,"lng":137.880241,"zip":"4380016"},{"town":"岩室","koaza":"","lat":34.84498,"lng":137.880029,"zip":"4380104"},{"town":"請負新田","koaza":"","lat":34.666795,"lng":137.83544,"zip":"4380223"},{"town":"宇兵衛新田","koaza":"","lat":34.671238,"lng":137.857699,"zip":"4371217"},{"town":"海老島","koaza":"","lat":34.676963,"lng":137.826378,"zip":"4380212"},{"town":"海老塚","koaza":"","lat":34.709449,"lng":137.838028,"zip":"4380812"},{"town":"大平","koaza":"","lat":34.859096,"lng":137.871947,"zip":"4380103"},{"town":"大泉町","koaza":"","lat":34.700262,"lng":137.85341,"zip":"4380044"},{"town":"大久保","koaza":"","lat":34.765787,"lng":137.85189,"zip":"4380002"},{"town":"大立野","koaza":"","lat":34.703596,"lng":137.880973,"zip":"4380036"},{"town":"大当所","koaza":"","lat":34.819773,"lng":137.867978,"zip":"4380107"},{"town":"大中瀬","koaza":"","lat":34.67119,"lng":137.835585,"zip":"4380214"},{"town":"大原","koaza":"","lat":34.693583,"lng":137.863559,"zip":"4380043"},{"town":"岡","koaza":"","lat":34.676995,"lng":137.818546,"zip":"4380204"},{"town":"掛下","koaza":"","lat":34.797212,"lng":137.839723,"zip":"4380124"},{"town":"掛塚","koaza":"","lat":34.667582,"lng":137.79857,"zip":"4380234"},{"town":"笠梅","koaza":"","lat":34.773132,"lng":137.8711,"zip":"4380011"},{"town":"鎌田","koaza":"","lat":34.713592,"lng":137.88846,"zip":"4380038"},{"town":"上新屋","koaza":"","lat":34.733347,"lng":137.822445,"zip":"4380831"},{"town":"上大之郷","koaza":"","lat":34.692738,"lng":137.854529,"zip":"4380051"},{"town":"上岡田","koaza":"","lat":34.697521,"lng":137.849041,"zip":"4380045"},{"town":"上神増","koaza":"","lat":34.821959,"lng":137.845624,"zip":"4380115"},{"town":"上野部","koaza":"","lat":34.851491,"lng":137.83819,"zip":"4380111"},{"town":"上本郷","koaza":"","lat":34.710452,"lng":137.818629,"zip":"4380822"},{"town":"上万能","koaza":"","lat":34.72383,"lng":137.828059,"zip":"4380817"},{"town":"上南田","koaza":"","lat":34.702441,"lng":137.870808,"zip":"4380042"},{"town":"加茂","koaza":"","lat":34.736135,"lng":137.830028,"zip":"4380804"},{"town":"川袋","koaza":"","lat":34.680968,"lng":137.798811,"zip":"4380232"},{"town":"神増","koaza":"","lat":34.81154,"lng":137.84643,"zip":"4380121"},{"town":"北島","koaza":"","lat":34.695385,"lng":137.838821,"zip":"4380064"},{"town":"城之崎一丁目","koaza":"","lat":34.716266,"lng":137.867387,"zip":"4380084"},{"town":"城之崎二丁目","koaza":"","lat":34.716548,"lng":137.864865,"zip":"4380084"},{"town":"城之崎三丁目","koaza":"","lat":34.719464,"lng":137.866569,"zip":"4380084"},{"town":"城之崎四丁目","koaza":"","lat":34.720016,"lng":137.863621,"zip":"4380084"},{"town":"刑部島","koaza":"","lat":34.704674,"lng":137.828684,"zip":"4380061"},{"town":"草崎","koaza":"","lat":34.686869,"lng":137.822687,"zip":"4380067"},{"town":"気子島","koaza":"","lat":34.706484,"lng":137.833628,"zip":"4380814"},{"town":"源平新田","koaza":"","lat":34.724058,"lng":137.811248,"zip":"4380837"},{"town":"合代島","koaza":"","lat":34.828536,"lng":137.854443,"zip":"4380114"},{"town":"国府台","koaza":"","lat":34.720659,"lng":137.84646,"zip":"4380077"},{"town":"小島","koaza":"","lat":34.681881,"lng":137.833508,"zip":"4380056"},{"town":"小立野","koaza":"","lat":34.726959,"lng":137.817836,"zip":"4380838"},{"town":"小中瀬","koaza":"","lat":34.671191,"lng":137.831207,"zip":"4380215"},{"town":"駒場","koaza":"","lat":34.658506,"lng":137.811084,"zip":"4380233"},{"town":"匂坂上","koaza":"","lat":34.771552,"lng":137.833366,"zip":"4380005"},{"town":"匂坂新","koaza":"","lat":34.757419,"lng":137.836951,"zip":"4380003"},{"town":"匂坂中","koaza":"","lat":34.762451,"lng":137.832278,"zip":"4380004"},{"town":"笹原島","koaza":"","lat":34.710417,"lng":137.836057,"zip":"4380813"},{"town":"鮫島","koaza":"","lat":34.669232,"lng":137.848201,"zip":"4380055"},{"town":"塩新田","koaza":"","lat":34.673268,"lng":137.861496,"zip":"4371213"},{"town":"敷地","koaza":"","lat":34.829629,"lng":137.86619,"zip":"4380106"},{"town":"篠原","koaza":"","lat":34.7536,"lng":137.880023,"zip":"4380015"},{"town":"下大之郷","koaza":"","lat":34.684278,"lng":137.856686,"zip":"4380052"},{"town":"下岡田","koaza":"","lat":34.689255,"lng":137.848885,"zip":"4380046"},{"town":"下神増","koaza":"","lat":34.813105,"lng":137.837379,"zip":"4380126"},{"town":"下野部","koaza":"","lat":34.854088,"lng":137.858081,"zip":"4380112"},{"town":"下太","koaza":"","lat":34.685907,"lng":137.873225,"zip":"4371205"},{"town":"下本郷","koaza":"","lat":34.70732,"lng":137.822707,"zip":"4380823"},{"town":"下万能","koaza":"","lat":34.715285,"lng":137.833218,"zip":"4380818"},{"town":"十郎島","koaza":"","lat":34.676296,"lng":137.797246,"zip":"4380236"},{"town":"白拍子","koaza":"","lat":34.688316,"lng":137.827844,"zip":"4380066"},{"town":"白羽","koaza":"","lat":34.673044,"lng":137.80344,"zip":"4380235"},{"town":"新開","koaza":"","lat":34.833309,"lng":137.840693,"zip":"4380113"},{"town":"新貝","koaza":"","lat":34.723291,"lng":137.888756,"zip":"4380025"},{"town":"真光寺","koaza":"","lat":34.697606,"lng":137.836696,"zip":"4380063"},{"town":"新出","koaza":"","lat":34.705981,"lng":137.89537,"zip":"4380033"},{"town":"須恵新田","koaza":"","lat":34.659014,"lng":137.831709,"zip":"4380222"},{"town":"清庵新田","koaza":"","lat":34.670909,"lng":137.854568,"zip":"4371214"},{"town":"清庵浜請負新田","koaza":"","lat":34.66613,"lng":137.834675,"zip":"4380000"},{"town":"千手堂","koaza":"","lat":34.686921,"lng":137.839398,"zip":"4380057"},{"town":"惣兵衛下新田","koaza":"","lat":34.80734,"lng":137.843922,"zip":"4380122"},{"town":"高木","koaza":"","lat":34.697742,"lng":137.810693,"zip":"4380202"},{"town":"高見丘","koaza":"","lat":34.750247,"lng":137.840972,"zip":"4380801"},{"town":"立野","koaza":"","lat":34.71561,"lng":137.819493,"zip":"4380821"},{"town":"玉越","koaza":"","lat":34.744856,"lng":137.894285,"zip":"4380021"},{"town":"太郎馬新田","koaza":"","lat":34.672331,"lng":137.85276,"zip":"4371215"},{"town":"寺谷","koaza":"","lat":34.781031,"lng":137.834091,"zip":"4380006"},{"town":"寺谷新田","koaza":"","lat":34.787353,"lng":137.833847,"zip":"4380007"},{"town":"天龍","koaza":"","lat":34.706367,"lng":137.842565,"zip":"4380075"},{"town":"東新町一丁目","koaza":"","lat":34.70352,"lng":137.884981,"zip":"4380039"},{"town":"東新町二丁目","koaza":"","lat":34.703383,"lng":137.887129,"zip":"4380039"},{"town":"東新町三丁目","koaza":"","lat":34.703231,"lng":137.889957,"zip":"4380039"},{"town":"東名","koaza":"","lat":34.746741,"lng":137.821444,"zip":"4380806"},{"town":"飛平松","koaza":"","lat":34.665337,"lng":137.828122,"zip":"4380216"},{"town":"富丘","koaza":"","lat":34.735268,"lng":137.843766,"zip":"4380803"},{"town":"富里","koaza":"","lat":34.753641,"lng":137.82704,"zip":"4380807"},{"town":"豊岡","koaza":"","lat":34.684633,"lng":137.806028,"zip":"4380231"},{"town":"豊島","koaza":"","lat":34.69912,"lng":137.840912,"zip":"4380047"},{"town":"豊田","koaza":"","lat":34.74324,"lng":137.828422,"zip":"4380808"},{"town":"豊田西之島","koaza":"","lat":34.723949,"lng":137.816913,"zip":"4380835"},{"town":"豊浜","koaza":"","lat":34.676938,"lng":137.901128,"zip":"4371202"},{"town":"豊浜中野","koaza":"","lat":34.689411,"lng":137.902972,"zip":"4371201"},{"town":"鳥之瀬","koaza":"","lat":34.713279,"lng":137.864038,"zip":"4380072"},{"town":"中泉","koaza":"","lat":34.7119,"lng":137.847496,"zip":"4380078"},{"town":"中泉一丁目","koaza":"","lat":34.71163,"lng":137.853266,"zip":"4380078"},{"town":"中泉二丁目","koaza":"","lat":34.711739,"lng":137.855377,"zip":"4380078"},{"town":"中泉三丁目","koaza":"","lat":34.713616,"lng":137.853392,"zip":"4380078"},{"town":"中泉四丁目","koaza":"","lat":34.713616,"lng":137.855325,"zip":"4380078"},{"town":"長須賀","koaza":"","lat":34.698663,"lng":137.832406,"zip":"4380069"},{"town":"中田","koaza":"","lat":34.713296,"lng":137.826185,"zip":"4380815"},{"town":"中野","koaza":"","lat":34.681663,"lng":137.851885,"zip":"4380053"},{"town":"中平松","koaza":"","lat":34.666749,"lng":137.824707,"zip":"4380218"},{"town":"長森","koaza":"","lat":34.722177,"lng":137.812049,"zip":"4380836"},{"town":"西貝塚","koaza":"","lat":34.717725,"lng":137.873221,"zip":"4380026"},{"town":"西島","koaza":"","lat":34.73809,"lng":137.897171,"zip":"4380022"},{"town":"西之島","koaza":"","lat":34.700563,"lng":137.875695,"zip":"4380041"},{"town":"西平松","koaza":"","lat":34.668869,"lng":137.820444,"zip":"4380217"},{"town":"二之宮","koaza":"","lat":34.708242,"lng":137.85821,"zip":"4380074"},{"town":"二之宮浅間","koaza":"","lat":34.713357,"lng":137.856945,"zip":"4380074"},{"town":"二之宮東","koaza":"","lat":34.713889,"lng":137.858774,"zip":"4380073"},{"town":"野箱","koaza":"","lat":34.690444,"lng":137.831587,"zip":"4380065"},{"town":"浜新田","koaza":"","lat":34.667469,"lng":137.840318,"zip":"4380224"},{"town":"浜部","koaza":"","lat":34.675378,"lng":137.852131,"zip":"4380054"},{"town":"稗原","koaza":"","lat":34.713624,"lng":137.896542,"zip":"4380031"},{"town":"東新屋","koaza":"","lat":34.699832,"lng":137.886988,"zip":"4380035"},{"town":"東貝塚","koaza":"","lat":34.712685,"lng":137.879684,"zip":"4380037"},{"town":"東小島","koaza":"","lat":34.688142,"lng":137.889138,"zip":"4371208"},{"town":"東原","koaza":"","lat":34.74516,"lng":137.849053,"zip":"4380802"},{"town":"東平松","koaza":"","lat":34.675342,"lng":137.829952,"zip":"4380211"},{"town":"東山","koaza":"","lat":34.722303,"lng":137.874741,"zip":"4380028"},{"town":"東脇","koaza":"","lat":34.710344,"lng":137.898203,"zip":"4380032"},{"town":"彦島","koaza":"","lat":34.73327,"lng":137.899611,"zip":"4380023"},{"town":"一言","koaza":"","lat":34.723445,"lng":137.835771,"zip":"4380811"},{"town":"平間","koaza":"","lat":34.686643,"lng":137.816135,"zip":"4380203"},{"town":"平松","koaza":"","lat":34.797417,"lng":137.845365,"zip":"4380123"},{"town":"平松掛下入作","koaza":"","lat":34.793,"lng":137.847215,"zip":"4380008"},{"town":"蛭池","koaza":"","lat":34.696719,"lng":137.884432,"zip":"4371207"},{"town":"福田","koaza":"","lat":34.674256,"lng":137.885523,"zip":"4371203"},{"town":"福田中島","koaza":"","lat":34.672952,"lng":137.869811,"zip":"4371204"},{"town":"藤上原","koaza":"","lat":34.793937,"lng":137.852728,"zip":"4380001"},{"town":"富士見台","koaza":"","lat":34.727531,"lng":137.86962,"zip":"4380088"},{"town":"富士見町一丁目","koaza":"","lat":34.729954,"lng":137.86804,"zip":"4380083"},{"town":"富士見町二丁目","koaza":"","lat":34.732625,"lng":137.867787,"zip":"4380083"},{"town":"富士見町三丁目","koaza":"","lat":34.734664,"lng":137.867206,"zip":"4380083"},{"town":"富士見町四丁目","koaza":"","lat":34.737212,"lng":137.866936,"zip":"4380083"},{"town":"堀之内","koaza":"","lat":34.69069,"lng":137.810693,"zip":"4380205"},{"town":"前野","koaza":"","lat":34.69859,"lng":137.824418,"zip":"4380068"},{"town":"松之木島","koaza":"","lat":34.79934,"lng":137.830049,"zip":"4380125"},{"town":"松本","koaza":"","lat":34.694008,"lng":137.804789,"zip":"4380206"},{"town":"万正寺","koaza":"","lat":34.68321,"lng":137.844009,"zip":"4380058"},{"town":"万瀬","koaza":"","lat":34.875418,"lng":137.870678,"zip":"4380101"},{"town":"三ケ野","koaza":"","lat":34.735415,"lng":137.887418,"zip":"4380027"},{"town":"三ケ野台","koaza":"","lat":34.733181,"lng":137.882411,"zip":"4380018"},{"town":"水堀","koaza":"","lat":34.734112,"lng":137.851265,"zip":"4380085"},{"town":"三家","koaza":"","lat":34.812679,"lng":137.831862,"zip":"4380127"},{"town":"見付","koaza":"","lat":34.736198,"lng":137.858962,"zip":"4380086"},{"town":"緑ケ丘","koaza":"","lat":34.749027,"lng":137.864466,"zip":"4380081"},{"town":"南島","koaza":"","lat":34.689047,"lng":137.882983,"zip":"4371209"},{"town":"南田","koaza":"","lat":34.678823,"lng":137.860894,"zip":"4371212"},{"town":"南田伊兵衛新田","koaza":"","lat":34.668304,"lng":137.860683,"zip":"4371218"},{"town":"南平松","koaza":"","lat":34.658762,"lng":137.825186,"zip":"4380221"},{"town":"宮之一色","koaza":"","lat":34.718739,"lng":137.828577,"zip":"4380816"},{"town":"宮本","koaza":"","lat":34.701386,"lng":137.806834,"zip":"4380207"},{"town":"明ケ島","koaza":"","lat":34.728343,"lng":137.890883,"zip":"4380024"},{"town":"明ケ島原","koaza":"","lat":34.72927,"lng":137.883316,"zip":"4380019"},{"town":"向笠新屋","koaza":"","lat":34.766699,"lng":137.86171,"zip":"4380012"},{"town":"向笠竹之内","koaza":"","lat":34.763292,"lng":137.876112,"zip":"4380013"},{"town":"向笠西","koaza":"","lat":34.755623,"lng":137.873876,"zip":"4380014"},{"town":"虫生","koaza":"","lat":34.874682,"lng":137.887403,"zip":"4380102"},{"town":"元天神町","koaza":"","lat":34.739374,"lng":137.867155,"zip":"4380082"},{"town":"森岡","koaza":"","lat":34.727972,"lng":137.822213,"zip":"4380832"},{"town":"森下","koaza":"","lat":34.722069,"lng":137.821823,"zip":"4380834"},{"town":"森本","koaza":"","lat":34.716408,"lng":137.808953,"zip":"4380825"},{"town":"社山","koaza":"","lat":34.818425,"lng":137.856599,"zip":"4380108"},{"town":"弥藤太島","koaza":"","lat":34.727518,"lng":137.826081,"zip":"4380833"},{"town":"竜洋中島","koaza":"","lat":34.704201,"lng":137.809232,"zip":"4380201"},{"town":"竜洋稗原","koaza":"","lat":34.674081,"lng":137.836005,"zip":"4380213"},{"town":"和口","koaza":"","lat":34.697908,"lng":137.891535,"zip":"4380034"},{"town":"中泉","koaza":"御殿","lat":34.706699,"lng":137.851342,"zip":"4380078"},{"town":"西貝塚","koaza":"横須道北","lat":34.728737,"lng":137.87654,"zip":"4380026"}]