[{"town":"青木","koaza":"","lat":34.856244,"lng":138.248834,"zip":"4260037"},{"town":"青木一丁目","koaza":"","lat":34.854607,"lng":138.249883,"zip":"4260037"},{"town":"青木二丁目","koaza":"","lat":34.857989,"lng":138.251323,"zip":"4260037"},{"town":"青木三丁目","koaza":"","lat":34.854661,"lng":138.2528,"zip":"4260037"},{"town":"青葉町一丁目","koaza":"","lat":34.845078,"lng":138.241125,"zip":"4260066"},{"town":"青葉町二丁目","koaza":"","lat":34.844003,"lng":138.244183,"zip":"4260066"},{"town":"青葉町三丁目","koaza":"","lat":34.84224,"lng":138.239599,"zip":"4260066"},{"town":"青葉町四丁目","koaza":"","lat":34.841119,"lng":138.244198,"zip":"4260066"},{"town":"青葉町五丁目","koaza":"","lat":34.839143,"lng":138.243214,"zip":"4260066"},{"town":"旭が丘","koaza":"","lat":34.875345,"lng":138.244817,"zip":"4260081"},{"town":"五十海","koaza":"","lat":34.882071,"lng":138.264868,"zip":"4260015"},{"town":"五十海一丁目","koaza":"","lat":34.87853,"lng":138.259701,"zip":"4260015"},{"town":"五十海二丁目","koaza":"","lat":34.880049,"lng":138.258614,"zip":"4260015"},{"town":"五十海三丁目","koaza":"","lat":34.882471,"lng":138.261269,"zip":"4260015"},{"town":"五十海四丁目","koaza":"","lat":34.880937,"lng":138.262582,"zip":"4260015"},{"town":"泉町","koaza":"","lat":34.831847,"lng":138.261254,"zip":"4260045"},{"town":"稲川","koaza":"","lat":34.862538,"lng":138.263024,"zip":"4260022"},{"town":"稲川一丁目","koaza":"","lat":34.865377,"lng":138.254588,"zip":"4260022"},{"town":"潮","koaza":"","lat":34.898556,"lng":138.272043,"zip":"4260007"},{"town":"内瀬戸","koaza":"","lat":34.853968,"lng":138.223557,"zip":"4260076"},{"town":"駅前一丁目","koaza":"","lat":34.850503,"lng":138.25317,"zip":"4260034"},{"town":"駅前二丁目","koaza":"","lat":34.851887,"lng":138.252091,"zip":"4260034"},{"town":"駅前三丁目","koaza":"","lat":34.849702,"lng":138.248172,"zip":"4260034"},{"town":"大洲一丁目","koaza":"","lat":34.833068,"lng":138.246695,"zip":"4260051"},{"town":"大洲二丁目","koaza":"","lat":34.830541,"lng":138.248711,"zip":"4260051"},{"town":"大洲三丁目","koaza":"","lat":34.830802,"lng":138.253701,"zip":"4260051"},{"town":"大洲四丁目","koaza":"","lat":34.828952,"lng":138.259171,"zip":"4260051"},{"town":"大洲五丁目","koaza":"","lat":34.825757,"lng":138.254786,"zip":"4260051"},{"town":"大手一丁目","koaza":"","lat":34.873603,"lng":138.265979,"zip":"4260017"},{"town":"大手二丁目","koaza":"","lat":34.875558,"lng":138.268177,"zip":"4260017"},{"town":"岡出山一丁目","koaza":"","lat":34.867498,"lng":138.256024,"zip":"4260026"},{"town":"岡出山二丁目","koaza":"","lat":34.868072,"lng":138.258973,"zip":"4260026"},{"town":"岡出山三丁目","koaza":"","lat":34.869452,"lng":138.261127,"zip":"4260026"},{"town":"岡部町青羽根","koaza":"","lat":34.977976,"lng":138.228825,"zip":"4211103"},{"town":"岡部町入野","koaza":"","lat":34.916866,"lng":138.258889,"zip":"4211123"},{"town":"岡部町内谷","koaza":"","lat":34.909189,"lng":138.288552,"zip":"4211131"},{"town":"岡部町岡部","koaza":"","lat":34.920766,"lng":138.297388,"zip":"4211121"},{"town":"岡部町桂島","koaza":"","lat":34.934944,"lng":138.272257,"zip":"4211113"},{"town":"岡部町子持坂","koaza":"","lat":34.912418,"lng":138.27153,"zip":"4211122"},{"town":"岡部町玉取","koaza":"","lat":34.989553,"lng":138.24326,"zip":"4211101"},{"town":"岡部町殿","koaza":"","lat":34.950769,"lng":138.259576,"zip":"4211112"},{"town":"岡部町新舟","koaza":"","lat":34.956446,"lng":138.240162,"zip":"4211115"},{"town":"岡部町野田沢","koaza":"","lat":34.961207,"lng":138.27379,"zip":"4211111"},{"town":"岡部町羽佐間","koaza":"","lat":34.945728,"lng":138.268887,"zip":"4211114"},{"town":"岡部町宮島","koaza":"","lat":34.969805,"lng":138.255509,"zip":"4211102"},{"town":"岡部町三輪","koaza":"","lat":34.906347,"lng":138.303499,"zip":"4211132"},{"town":"岡部町村良","koaza":"","lat":34.919037,"lng":138.266423,"zip":"4211124"},{"town":"音羽町一丁目","koaza":"","lat":34.87041,"lng":138.239382,"zip":"4260087"},{"town":"音羽町二丁目","koaza":"","lat":34.872599,"lng":138.237857,"zip":"4260087"},{"town":"音羽町三丁目","koaza":"","lat":34.874654,"lng":138.237499,"zip":"4260087"},{"town":"音羽町四丁目","koaza":"","lat":34.875231,"lng":138.24163,"zip":"4260087"},{"town":"音羽町五丁目","koaza":"","lat":34.875483,"lng":138.238591,"zip":"4260087"},{"town":"音羽町六丁目","koaza":"","lat":34.878471,"lng":138.236284,"zip":"4260087"},{"town":"鬼島","koaza":"","lat":34.886755,"lng":138.280004,"zip":"4260008"},{"town":"上青島","koaza":"","lat":34.843328,"lng":138.224027,"zip":"4260036"},{"town":"上当間","koaza":"","lat":34.884023,"lng":138.287363,"zip":"4260004"},{"town":"上藪田","koaza":"","lat":34.892258,"lng":138.254265,"zip":"4260202"},{"town":"仮宿","koaza":"","lat":34.900534,"lng":138.276889,"zip":"4260001"},{"town":"鬼岩寺","koaza":"","lat":34.873717,"lng":138.248993,"zip":"4260024"},{"town":"北方","koaza":"","lat":34.929649,"lng":138.242475,"zip":"4260212"},{"town":"久兵衛市右衛門請新田","koaza":"","lat":34.84035,"lng":138.221819,"zip":"4260064"},{"town":"清里一丁目","koaza":"","lat":34.894318,"lng":138.262392,"zip":"4260223"},{"town":"清里二丁目","koaza":"","lat":34.898377,"lng":138.261014,"zip":"4260223"},{"town":"源助","koaza":"","lat":34.825228,"lng":138.225947,"zip":"4260054"},{"town":"小石川町一丁目","koaza":"","lat":34.852396,"lng":138.257355,"zip":"4260033"},{"town":"小石川町二丁目","koaza":"","lat":34.855383,"lng":138.256454,"zip":"4260033"},{"town":"小石川町三丁目","koaza":"","lat":34.85611,"lng":138.260573,"zip":"4260033"},{"town":"小石川町四丁目","koaza":"","lat":34.854261,"lng":138.263784,"zip":"4260033"},{"town":"光洋台","koaza":"","lat":34.847414,"lng":138.22326,"zip":"4260079"},{"town":"郡","koaza":"","lat":34.875297,"lng":138.272494,"zip":"4260016"},{"town":"郡一丁目","koaza":"","lat":34.871183,"lng":138.263894,"zip":"4260016"},{"town":"五平","koaza":"","lat":34.828591,"lng":138.242476,"zip":"4260056"},{"town":"志太","koaza":"","lat":34.865226,"lng":138.228085,"zip":"4260071"},{"town":"志太一丁目","koaza":"","lat":34.860876,"lng":138.249857,"zip":"4260071"},{"town":"志太二丁目","koaza":"","lat":34.862149,"lng":138.246912,"zip":"4260071"},{"town":"志太三丁目","koaza":"","lat":34.865381,"lng":138.2475,"zip":"4260071"},{"town":"志太四丁目","koaza":"","lat":34.863253,"lng":138.251744,"zip":"4260071"},{"town":"志太五丁目","koaza":"","lat":34.860912,"lng":138.254253,"zip":"4260071"},{"town":"下青島","koaza":"","lat":34.846842,"lng":138.24076,"zip":"4260035"},{"town":"下当間","koaza":"","lat":34.889797,"lng":138.289845,"zip":"4260003"},{"town":"下之郷","koaza":"","lat":34.901095,"lng":138.239021,"zip":"4260203"},{"town":"下藪田","koaza":"","lat":34.890719,"lng":138.266901,"zip":"4260201"},{"town":"城南一丁目","koaza":"","lat":34.8658,"lng":138.268198,"zip":"4260021"},{"town":"城南二丁目","koaza":"","lat":34.866532,"lng":138.27244,"zip":"4260021"},{"town":"城南三丁目","koaza":"","lat":34.867431,"lng":138.275717,"zip":"4260021"},{"town":"新南新屋","koaza":"","lat":34.856707,"lng":138.245333,"zip":"4260073"},{"town":"末広一丁目","koaza":"","lat":34.840824,"lng":138.236789,"zip":"4260065"},{"town":"末広二丁目","koaza":"","lat":34.84222,"lng":138.234619,"zip":"4260065"},{"town":"末広三丁目","koaza":"","lat":34.842208,"lng":138.229615,"zip":"4260065"},{"town":"末広四丁目","koaza":"","lat":34.840661,"lng":138.227016,"zip":"4260065"},{"town":"助宗","koaza":"","lat":34.898244,"lng":138.216601,"zip":"4260085"},{"town":"駿河台一丁目","koaza":"","lat":34.864342,"lng":138.235796,"zip":"4260077"},{"town":"駿河台二丁目","koaza":"","lat":34.862402,"lng":138.2352,"zip":"4260077"},{"town":"駿河台三丁目","koaza":"","lat":34.863079,"lng":138.230891,"zip":"4260077"},{"town":"駿河台四丁目","koaza":"","lat":34.861419,"lng":138.229077,"zip":"4260077"},{"town":"駿河台五丁目","koaza":"","lat":34.857553,"lng":138.228753,"zip":"4260077"},{"town":"青南町一丁目","koaza":"","lat":34.837366,"lng":138.242307,"zip":"4260063"},{"town":"青南町二丁目","koaza":"","lat":34.834112,"lng":138.242145,"zip":"4260063"},{"town":"青南町三丁目","koaza":"","lat":34.831401,"lng":138.23252,"zip":"4260063"},{"town":"青南町四丁目","koaza":"","lat":34.835398,"lng":138.23529,"zip":"4260063"},{"town":"青南町五丁目","koaza":"","lat":34.839164,"lng":138.23672,"zip":"4260063"},{"town":"瀬古","koaza":"","lat":34.870403,"lng":138.234842,"zip":"4260082"},{"town":"瀬古一丁目","koaza":"","lat":34.866548,"lng":138.241927,"zip":"4260082"},{"town":"瀬古二丁目","koaza":"","lat":34.864615,"lng":138.24159,"zip":"4260082"},{"town":"瀬古三丁目","koaza":"","lat":34.867984,"lng":138.23704,"zip":"4260082"},{"town":"瀬戸新屋","koaza":"","lat":34.849604,"lng":138.241599,"zip":"4260075"},{"town":"瀬戸ノ谷","koaza":"","lat":34.970712,"lng":138.193066,"zip":"4260131"},{"town":"善左衛門","koaza":"","lat":34.821321,"lng":138.235801,"zip":"4260053"},{"town":"善左衛門一丁目","koaza":"","lat":34.824608,"lng":138.240701,"zip":"4260053"},{"town":"善左衛門二丁目","koaza":"","lat":34.824219,"lng":138.246266,"zip":"4260053"},{"town":"善左衛門三丁目","koaza":"","lat":34.822148,"lng":138.251153,"zip":"4260053"},{"town":"大新島","koaza":"","lat":34.831118,"lng":138.272978,"zip":"4260043"},{"town":"大西町一丁目","koaza":"","lat":34.830878,"lng":138.240228,"zip":"4260055"},{"town":"大西町二丁目","koaza":"","lat":34.828031,"lng":138.238678,"zip":"4260055"},{"town":"大西町三丁目","koaza":"","lat":34.827669,"lng":138.23107,"zip":"4260055"},{"town":"大東町","koaza":"","lat":34.825704,"lng":138.269356,"zip":"4260044"},{"town":"高岡一丁目","koaza":"","lat":34.841474,"lng":138.253612,"zip":"4260062"},{"town":"高岡二丁目","koaza":"","lat":34.839222,"lng":138.253852,"zip":"4260062"},{"town":"高岡三丁目","koaza":"","lat":34.840216,"lng":138.249716,"zip":"4260062"},{"town":"高岡四丁目","koaza":"","lat":34.836471,"lng":138.251496,"zip":"4260062"},{"town":"高洲","koaza":"","lat":34.837446,"lng":138.260311,"zip":"4260046"},{"town":"高洲一丁目","koaza":"","lat":34.841047,"lng":138.265479,"zip":"4260046"},{"town":"高田","koaza":"","lat":34.907888,"lng":138.26241,"zip":"4260221"},{"town":"高柳","koaza":"","lat":34.847707,"lng":138.275127,"zip":"4260041"},{"town":"高柳一丁目","koaza":"","lat":34.852154,"lng":138.265768,"zip":"4260041"},{"town":"高柳二丁目","koaza":"","lat":34.849188,"lng":138.265711,"zip":"4260041"},{"town":"高柳三丁目","koaza":"","lat":34.845191,"lng":138.264318,"zip":"4260041"},{"town":"高柳四丁目","koaza":"","lat":34.843683,"lng":138.267153,"zip":"4260041"},{"town":"滝沢","koaza":"","lat":34.916216,"lng":138.179892,"zip":"4260134"},{"town":"立花一丁目","koaza":"","lat":34.869608,"lng":138.266229,"zip":"4260013"},{"town":"立花二丁目","koaza":"","lat":34.87247,"lng":138.269278,"zip":"4260013"},{"town":"立花三丁目","koaza":"","lat":34.870052,"lng":138.271233,"zip":"4260013"},{"town":"田中一丁目","koaza":"","lat":34.87121,"lng":138.274013,"zip":"4260012"},{"town":"田中二丁目","koaza":"","lat":34.872585,"lng":138.276357,"zip":"4260012"},{"town":"田中三丁目","koaza":"","lat":34.870994,"lng":138.278928,"zip":"4260012"},{"town":"田沼一丁目","koaza":"","lat":34.848303,"lng":138.255843,"zip":"4260061"},{"town":"田沼二丁目","koaza":"","lat":34.849609,"lng":138.259503,"zip":"4260061"},{"town":"田沼三丁目","koaza":"","lat":34.845764,"lng":138.257797,"zip":"4260061"},{"town":"田沼四丁目","koaza":"","lat":34.84265,"lng":138.25881,"zip":"4260061"},{"town":"田沼五丁目","koaza":"","lat":34.840521,"lng":138.258242,"zip":"4260061"},{"town":"茶町一丁目","koaza":"","lat":34.871115,"lng":138.24836,"zip":"4260023"},{"town":"茶町二丁目","koaza":"","lat":34.869081,"lng":138.245702,"zip":"4260023"},{"town":"茶町三丁目","koaza":"","lat":34.871695,"lng":138.243898,"zip":"4260023"},{"town":"茶町四丁目","koaza":"","lat":34.873177,"lng":138.244146,"zip":"4260023"},{"town":"忠兵衛","koaza":"","lat":34.83626,"lng":138.247214,"zip":"4260057"},{"town":"築地","koaza":"","lat":34.859794,"lng":138.274639,"zip":"4260031"},{"town":"築地一丁目","koaza":"","lat":34.858418,"lng":138.267778,"zip":"4260031"},{"town":"築地上","koaza":"","lat":34.855219,"lng":138.272281,"zip":"4260032"},{"town":"寺島","koaza":"","lat":34.889195,"lng":138.212061,"zip":"4260084"},{"town":"天王町一丁目","koaza":"","lat":34.877236,"lng":138.26123,"zip":"4260019"},{"town":"天王町二丁目","koaza":"","lat":34.877532,"lng":138.263741,"zip":"4260019"},{"town":"天王町三丁目","koaza":"","lat":34.879012,"lng":138.266882,"zip":"4260019"},{"town":"時ケ谷","koaza":"","lat":34.88488,"lng":138.251888,"zip":"4260204"},{"town":"中ノ合","koaza":"","lat":34.905232,"lng":138.247835,"zip":"4260213"},{"town":"中藪田","koaza":"","lat":34.898597,"lng":138.26522,"zip":"4260222"},{"town":"西方","koaza":"","lat":34.934266,"lng":138.223537,"zip":"4260211"},{"town":"若王子","koaza":"","lat":34.87538,"lng":138.254295,"zip":"4260014"},{"town":"若王子一丁目","koaza":"","lat":34.876226,"lng":138.258848,"zip":"4260014"},{"town":"若王子二丁目","koaza":"","lat":34.877427,"lng":138.254968,"zip":"4260014"},{"town":"若王子三丁目","koaza":"","lat":34.878797,"lng":138.255636,"zip":"4260014"},{"town":"花倉","koaza":"","lat":34.90159,"lng":138.230252,"zip":"4260205"},{"town":"原","koaza":"","lat":34.881265,"lng":138.237809,"zip":"4260086"},{"town":"東町","koaza":"","lat":34.858763,"lng":138.260066,"zip":"4260038"},{"town":"兵太夫","koaza":"","lat":34.841198,"lng":138.274975,"zip":"4260042"},{"town":"平島","koaza":"","lat":34.877415,"lng":138.285134,"zip":"4260011"},{"town":"藤枝一丁目","koaza":"","lat":34.867212,"lng":138.252026,"zip":"4260025"},{"town":"藤枝二丁目","koaza":"","lat":34.867704,"lng":138.25058,"zip":"4260025"},{"town":"藤枝三丁目","koaza":"","lat":34.871231,"lng":138.251868,"zip":"4260025"},{"town":"藤枝四丁目","koaza":"","lat":34.869212,"lng":138.254096,"zip":"4260025"},{"town":"藤枝五丁目","koaza":"","lat":34.871301,"lng":138.255851,"zip":"4260025"},{"town":"藤岡一丁目","koaza":"","lat":34.881849,"lng":138.266859,"zip":"4260006"},{"town":"藤岡二丁目","koaza":"","lat":34.882176,"lng":138.269452,"zip":"4260006"},{"town":"藤岡三丁目","koaza":"","lat":34.885943,"lng":138.267885,"zip":"4260006"},{"town":"藤岡四丁目","koaza":"","lat":34.887937,"lng":138.26878,"zip":"4260006"},{"town":"藤岡五丁目","koaza":"","lat":34.883773,"lng":138.264872,"zip":"4260006"},{"town":"堀之内","koaza":"","lat":34.878692,"lng":138.223421,"zip":"4260088"},{"town":"堀之内一丁目","koaza":"","lat":34.872584,"lng":138.231949,"zip":"4260088"},{"town":"本郷","koaza":"","lat":34.920507,"lng":138.206099,"zip":"4260132"},{"town":"本町一丁目","koaza":"","lat":34.872184,"lng":138.2595,"zip":"4260018"},{"town":"本町二丁目","koaza":"","lat":34.873447,"lng":138.261731,"zip":"4260018"},{"town":"本町三丁目","koaza":"","lat":34.87548,"lng":138.264829,"zip":"4260018"},{"town":"本町四丁目","koaza":"","lat":34.877541,"lng":138.269079,"zip":"4260018"},{"town":"前島","koaza":"","lat":34.837065,"lng":138.247733,"zip":"4260067"},{"town":"前島一丁目","koaza":"","lat":34.847726,"lng":138.250454,"zip":"4260067"},{"town":"前島二丁目","koaza":"","lat":34.845412,"lng":138.251118,"zip":"4260067"},{"town":"前島三丁目","koaza":"","lat":34.842065,"lng":138.248344,"zip":"4260067"},{"town":"益津","koaza":"","lat":34.865627,"lng":138.259612,"zip":"4260029"},{"town":"益津下","koaza":"","lat":34.864535,"lng":138.265313,"zip":"4260028"},{"town":"水上","koaza":"","lat":34.854014,"lng":138.241772,"zip":"4260074"},{"town":"水守","koaza":"","lat":34.878777,"lng":138.277423,"zip":"4260005"},{"town":"水守一丁目","koaza":"","lat":34.881307,"lng":138.271152,"zip":"4260005"},{"town":"水守二丁目","koaza":"","lat":34.879733,"lng":138.27366,"zip":"4260005"},{"town":"水守三丁目","koaza":"","lat":34.881876,"lng":138.276812,"zip":"4260005"},{"town":"緑町一丁目","koaza":"","lat":34.867394,"lng":138.261789,"zip":"4260027"},{"town":"緑町二丁目","koaza":"","lat":34.866476,"lng":138.264064,"zip":"4260027"},{"town":"緑の丘","koaza":"","lat":34.853329,"lng":138.236533,"zip":"4260070"},{"town":"南新屋","koaza":"","lat":34.856762,"lng":138.247828,"zip":"4260072"},{"town":"南清里","koaza":"","lat":34.891342,"lng":138.263128,"zip":"4260224"},{"town":"南駿河台一丁目","koaza":"","lat":34.861251,"lng":138.242124,"zip":"4260078"},{"town":"南駿河台二丁目","koaza":"","lat":34.859612,"lng":138.238772,"zip":"4260078"},{"town":"南駿河台三丁目","koaza":"","lat":34.857859,"lng":138.235067,"zip":"4260078"},{"town":"南駿河台四丁目","koaza":"","lat":34.860437,"lng":138.233846,"zip":"4260078"},{"town":"南駿河台五丁目","koaza":"","lat":34.859021,"lng":138.23079,"zip":"4260078"},{"town":"南駿河台六丁目","koaza":"","lat":34.856671,"lng":138.231889,"zip":"4260078"},{"town":"宮原","koaza":"","lat":34.894126,"lng":138.198615,"zip":"4260133"},{"town":"谷稲葉","koaza":"","lat":34.874706,"lng":138.210931,"zip":"4260083"},{"town":"弥左衛門","koaza":"","lat":34.825711,"lng":138.259442,"zip":"4260052"},{"town":"八幡","koaza":"","lat":34.887803,"lng":138.274946,"zip":"4260009"},{"town":"横内","koaza":"","lat":34.897323,"lng":138.2859,"zip":"4260002"},{"town":"与左衛門","koaza":"","lat":34.837121,"lng":138.270833,"zip":"4260047"}]