[{"town":"愛野","koaza":"","lat":34.747333,"lng":137.954955,"zip":"4370031"},{"town":"愛野東一丁目","koaza":"","lat":34.752618,"lng":137.959018,"zip":"4370039"},{"town":"愛野東二丁目","koaza":"","lat":34.753698,"lng":137.962379,"zip":"4370039"},{"town":"愛野南一丁目","koaza":"","lat":34.751994,"lng":137.964131,"zip":"4370040"},{"town":"愛野南二丁目","koaza":"","lat":34.748831,"lng":137.96281,"zip":"4370040"},{"town":"愛野南三丁目","koaza":"","lat":34.7479,"lng":137.966883,"zip":"4370040"},{"town":"愛野南四丁目","koaza":"","lat":34.748788,"lng":137.96752,"zip":"4370040"},{"town":"葵町一丁目","koaza":"","lat":34.754853,"lng":137.921805,"zip":"4370016"},{"town":"葵町二丁目","koaza":"","lat":34.7558,"lng":137.921431,"zip":"4370016"},{"town":"葵町三丁目","koaza":"","lat":34.756421,"lng":137.921113,"zip":"4370016"},{"town":"青木町","koaza":"","lat":34.734347,"lng":137.932017,"zip":"4370034"},{"town":"浅岡","koaza":"","lat":34.708912,"lng":137.916453,"zip":"4371122"},{"town":"浅名","koaza":"","lat":34.707121,"lng":137.927444,"zip":"4371102"},{"town":"浅羽","koaza":"","lat":34.718533,"lng":137.927061,"zip":"4371101"},{"town":"浅羽一色","koaza":"","lat":34.69999,"lng":137.914757,"zip":"4371123"},{"town":"旭町一丁目","koaza":"","lat":34.751461,"lng":137.922875,"zip":"4370015"},{"town":"旭町二丁目","koaza":"","lat":34.753397,"lng":137.922738,"zip":"4370015"},{"town":"新屋一丁目","koaza":"","lat":34.750416,"lng":137.925077,"zip":"4370013"},{"town":"新屋二丁目","koaza":"","lat":34.751075,"lng":137.926857,"zip":"4370013"},{"town":"新屋三丁目","koaza":"","lat":34.750537,"lng":137.928035,"zip":"4370013"},{"town":"新屋四丁目","koaza":"","lat":34.751778,"lng":137.929701,"zip":"4370013"},{"town":"泉町一丁目","koaza":"","lat":34.753475,"lng":137.917617,"zip":"4370062"},{"town":"泉町二丁目","koaza":"","lat":34.754736,"lng":137.917043,"zip":"4370062"},{"town":"一之池新田","koaza":"","lat":34.710658,"lng":137.91358,"zip":"4370000"},{"town":"上田町","koaza":"","lat":34.735852,"lng":137.935208,"zip":"4370033"},{"town":"宇刈","koaza":"","lat":34.800748,"lng":137.932128,"zip":"4370121"},{"town":"梅山","koaza":"","lat":34.690866,"lng":137.941816,"zip":"4371105"},{"town":"永楽町","koaza":"","lat":34.749546,"lng":137.92191,"zip":"4370014"},{"town":"太田","koaza":"","lat":34.769213,"lng":137.89156,"zip":"4370052"},{"town":"大野","koaza":"","lat":34.677091,"lng":137.949836,"zip":"4371112"},{"town":"大谷","koaza":"","lat":34.795618,"lng":137.866512,"zip":"4370006"},{"town":"岡崎","koaza":"","lat":34.709988,"lng":137.950804,"zip":"4371312"},{"town":"小川町","koaza":"","lat":34.735549,"lng":137.927637,"zip":"4370036"},{"town":"沖山梨","koaza":"","lat":34.784912,"lng":137.895781,"zip":"4370124"},{"town":"小山","koaza":"","lat":34.751288,"lng":137.890493,"zip":"4370056"},{"town":"可睡の杜","koaza":"","lat":34.777364,"lng":137.916719,"zip":"4370127"},{"town":"神長","koaza":"","lat":34.737679,"lng":137.940211,"zip":"4370028"},{"town":"上山梨","koaza":"","lat":34.790527,"lng":137.902112,"zip":"4370125"},{"town":"上山梨一丁目","koaza":"","lat":34.786229,"lng":137.906446,"zip":"4370125"},{"town":"上山梨二丁目","koaza":"","lat":34.787989,"lng":137.905856,"zip":"4370125"},{"town":"上山梨三丁目","koaza":"","lat":34.789234,"lng":137.903909,"zip":"4370125"},{"town":"上山梨四丁目","koaza":"","lat":34.785987,"lng":137.902897,"zip":"4370125"},{"town":"萱間","koaza":"","lat":34.808504,"lng":137.884884,"zip":"4370003"},{"town":"川井","koaza":"","lat":34.745855,"lng":137.913244,"zip":"4370064"},{"town":"川会","koaza":"","lat":34.809126,"lng":137.876044,"zip":"4370002"},{"town":"木原","koaza":"","lat":34.743803,"lng":137.901547,"zip":"4370046"},{"town":"国本","koaza":"","lat":34.765481,"lng":137.952447,"zip":"4370012"},{"town":"久能","koaza":"","lat":34.765802,"lng":137.917967,"zip":"4370061"},{"town":"栄町","koaza":"","lat":34.744104,"lng":137.92157,"zip":"4370025"},{"town":"清水町","koaza":"","lat":34.736318,"lng":137.931851,"zip":"4370037"},{"town":"下山梨","koaza":"","lat":34.776407,"lng":137.904562,"zip":"4370123"},{"town":"下山梨一丁目","koaza":"","lat":34.777689,"lng":137.909078,"zip":"4370123"},{"town":"下山梨二丁目","koaza":"","lat":34.781775,"lng":137.908937,"zip":"4370123"},{"town":"砂本町","koaza":"","lat":34.733966,"lng":137.928545,"zip":"4370035"},{"town":"大門","koaza":"","lat":34.737607,"lng":137.937936,"zip":"4370038"},{"town":"高尾町","koaza":"","lat":34.743564,"lng":137.925577,"zip":"4370027"},{"town":"田町一丁目","koaza":"","lat":34.750553,"lng":137.919727,"zip":"4370063"},{"town":"田町二丁目","koaza":"","lat":34.752128,"lng":137.918512,"zip":"4370063"},{"town":"太郎助","koaza":"","lat":34.680251,"lng":137.926104,"zip":"4371116"},{"town":"月見町","koaza":"","lat":34.786372,"lng":137.909048,"zip":"4370126"},{"town":"土橋","koaza":"","lat":34.751018,"lng":137.900316,"zip":"4370055"},{"town":"天神町一丁目","koaza":"","lat":34.75064,"lng":137.916562,"zip":"4370067"},{"town":"天神町二丁目","koaza":"","lat":34.749248,"lng":137.914766,"zip":"4370067"},{"town":"天神町三丁目","koaza":"","lat":34.75028,"lng":137.914111,"zip":"4370067"},{"town":"徳光","koaza":"","lat":34.758365,"lng":137.900921,"zip":"4370054"},{"town":"富里","koaza":"","lat":34.700207,"lng":137.903976,"zip":"4371124"},{"town":"友永","koaza":"","lat":34.79912,"lng":137.879314,"zip":"4370004"},{"town":"豊沢","koaza":"","lat":34.736376,"lng":137.96971,"zip":"4370032"},{"town":"豊住","koaza":"","lat":34.701147,"lng":137.930197,"zip":"4371103"},{"town":"中","koaza":"","lat":34.70457,"lng":137.903687,"zip":"4371125"},{"town":"中新田","koaza":"","lat":34.674057,"lng":137.962204,"zip":"4371111"},{"town":"長溝","koaza":"","lat":34.711227,"lng":137.90713,"zip":"4371126"},{"town":"新池","koaza":"","lat":34.734234,"lng":137.910123,"zip":"4370043"},{"town":"新堀","koaza":"","lat":34.695812,"lng":137.931753,"zip":"4371104"},{"town":"西ケ崎","koaza":"","lat":34.690035,"lng":137.91337,"zip":"4371118"},{"town":"西田","koaza":"","lat":34.739905,"lng":137.908016,"zip":"4370047"},{"town":"西同笠","koaza":"","lat":34.674884,"lng":137.935175,"zip":"4371114"},{"town":"延久","koaza":"","lat":34.763279,"lng":137.893141,"zip":"4370053"},{"town":"初越","koaza":"","lat":34.692751,"lng":137.920513,"zip":"4371119"},{"town":"春岡","koaza":"","lat":34.786142,"lng":137.914342,"zip":"4370122"},{"town":"春岡一丁目","koaza":"","lat":34.791649,"lng":137.912326,"zip":"4370122"},{"town":"春岡二丁目","koaza":"","lat":34.793044,"lng":137.912173,"zip":"4370122"},{"town":"東同笠","koaza":"","lat":34.676587,"lng":137.941514,"zip":"4371113"},{"town":"彦島","koaza":"","lat":34.729876,"lng":137.902706,"zip":"4370045"},{"town":"広岡","koaza":"","lat":34.755167,"lng":137.946263,"zip":"4370021"},{"town":"深見","koaza":"","lat":34.780252,"lng":137.891067,"zip":"4370051"},{"town":"袋井","koaza":"","lat":34.747658,"lng":137.922998,"zip":"4370026"},{"town":"方丈一丁目","koaza":"","lat":34.747101,"lng":137.929359,"zip":"4370022"},{"town":"方丈二丁目","koaza":"","lat":34.747806,"lng":137.926263,"zip":"4370022"},{"town":"方丈三丁目","koaza":"","lat":34.748603,"lng":137.928025,"zip":"4370022"},{"town":"方丈四丁目","koaza":"","lat":34.74913,"lng":137.929554,"zip":"4370022"},{"town":"方丈五丁目","koaza":"","lat":34.749567,"lng":137.930845,"zip":"4370022"},{"town":"方丈六丁目","koaza":"","lat":34.748757,"lng":137.93465,"zip":"4370022"},{"town":"堀越","koaza":"","lat":34.760236,"lng":137.910013,"zip":"4370065"},{"town":"堀越一丁目","koaza":"","lat":34.752842,"lng":137.914442,"zip":"4370065"},{"town":"堀越二丁目","koaza":"","lat":34.751829,"lng":137.911128,"zip":"4370065"},{"town":"堀越三丁目","koaza":"","lat":34.755878,"lng":137.908736,"zip":"4370065"},{"town":"堀越四丁目","koaza":"","lat":34.753759,"lng":137.90952,"zip":"4370065"},{"town":"堀越五丁目","koaza":"","lat":34.755587,"lng":137.912426,"zip":"4370065"},{"town":"松原","koaza":"","lat":34.691168,"lng":137.92717,"zip":"4371117"},{"town":"松袋井","koaza":"","lat":34.720774,"lng":137.905537,"zip":"4370044"},{"town":"三門町","koaza":"","lat":34.742085,"lng":137.923165,"zip":"4370024"},{"town":"見取","koaza":"","lat":34.784296,"lng":137.87255,"zip":"4370005"},{"town":"湊","koaza":"","lat":34.674794,"lng":137.91985,"zip":"4371115"},{"town":"睦町","koaza":"","lat":34.74186,"lng":137.917738,"zip":"4370041"},{"town":"村松","koaza":"","lat":34.775244,"lng":137.935003,"zip":"4370011"},{"town":"諸井","koaza":"","lat":34.724473,"lng":137.920031,"zip":"4371121"},{"town":"山崎","koaza":"","lat":34.713492,"lng":137.970537,"zip":"4371311"},{"town":"山科","koaza":"","lat":34.76464,"lng":137.902984,"zip":"4370066"},{"town":"山田","koaza":"","lat":34.811644,"lng":137.866181,"zip":"4370001"},{"town":"山名町","koaza":"","lat":34.740745,"lng":137.920524,"zip":"4370042"},{"town":"横井","koaza":"","lat":34.756922,"lng":137.889785,"zip":"4370057"},{"town":"鷲巣","koaza":"","lat":34.766814,"lng":137.927815,"zip":"4370017"},{"town":"高尾","koaza":"","lat":34.737662,"lng":137.926839,"zip":"4370023"},{"town":"掛之上","koaza":"","lat":34.744422,"lng":137.929271,"zip":"4370029"},{"town":"堀越","koaza":"才別当","lat":34.752013,"lng":137.907881,"zip":"4370065"}]