[{"town":"上ケ田","koaza":"","lat":35.207141,"lng":138.906795,"zip":"4101108"},{"town":"石脇","koaza":"","lat":35.19039,"lng":138.91004,"zip":"4101117"},{"town":"伊豆島田","koaza":"","lat":35.156668,"lng":138.906205,"zip":"4101123"},{"town":"稲荷","koaza":"","lat":35.17938,"lng":138.914398,"zip":"4101113"},{"town":"今里","koaza":"","lat":35.229141,"lng":138.893707,"zip":"4101104"},{"town":"岩波","koaza":"","lat":35.217213,"lng":138.919596,"zip":"4101101"},{"town":"大畑","koaza":"","lat":35.189792,"lng":138.886047,"zip":"4101114"},{"town":"葛山","koaza":"","lat":35.209763,"lng":138.868119,"zip":"4101103"},{"town":"金沢","koaza":"","lat":35.219975,"lng":138.901146,"zip":"4101106"},{"town":"久根","koaza":"","lat":35.189296,"lng":138.926488,"zip":"4101111"},{"town":"公文名","koaza":"","lat":35.180755,"lng":138.923273,"zip":"4101112"},{"town":"佐野","koaza":"","lat":35.179235,"lng":138.907508,"zip":"4101118"},{"town":"下和田","koaza":"","lat":35.23454,"lng":138.855287,"zip":"4101105"},{"town":"須山","koaza":"","lat":35.278183,"lng":138.782919,"zip":"4101231"},{"town":"千福","koaza":"","lat":35.196496,"lng":138.872576,"zip":"4101116"},{"town":"千福が丘一丁目","koaza":"","lat":35.195498,"lng":138.882572,"zip":"4101115"},{"town":"千福が丘二丁目","koaza":"","lat":35.197275,"lng":138.879726,"zip":"4101115"},{"town":"千福が丘三丁目","koaza":"","lat":35.200214,"lng":138.880171,"zip":"4101115"},{"town":"千福が丘四丁目","koaza":"","lat":35.198651,"lng":138.88613,"zip":"4101115"},{"town":"茶畑","koaza":"","lat":35.190277,"lng":138.971348,"zip":"4101121"},{"town":"富沢","koaza":"","lat":35.179778,"lng":138.880736,"zip":"4101125"},{"town":"平松","koaza":"","lat":35.167887,"lng":138.907303,"zip":"4101127"},{"town":"深良","koaza":"","lat":35.212698,"lng":138.948006,"zip":"4101102"},{"town":"二ツ屋","koaza":"","lat":35.166053,"lng":138.904254,"zip":"4101128"},{"town":"御宿","koaza":"","lat":35.210606,"lng":138.911735,"zip":"4101107"},{"town":"水窪","koaza":"","lat":35.155057,"lng":138.901355,"zip":"4101124"},{"town":"麦塚","koaza":"","lat":35.162413,"lng":138.913,"zip":"4101122"},{"town":"桃園","koaza":"","lat":35.180678,"lng":138.892525,"zip":"4101126"},{"town":"呼子一丁目","koaza":"","lat":35.228225,"lng":138.87423,"zip":"4101109"},{"town":"呼子二丁目","koaza":"","lat":35.228325,"lng":138.872314,"zip":"4101109"},{"town":"呼子三丁目","koaza":"","lat":35.231007,"lng":138.866401,"zip":"4101109"},{"town":"須山","koaza":"藤原","lat":35.292767,"lng":138.783748,"zip":"4101231"},{"town":"茶畑","koaza":"道添","lat":35.166181,"lng":138.914174,"zip":"4101121"}]