[{"town":"青市","koaza":"","lat":34.665353,"lng":138.886337,"zip":"4150151"},{"town":"青野","koaza":"","lat":34.692663,"lng":138.837737,"zip":"4150327"},{"town":"石井","koaza":"","lat":34.663004,"lng":138.853903,"zip":"4150306"},{"town":"一色","koaza":"","lat":34.656004,"lng":138.813543,"zip":"4150313"},{"town":"一條","koaza":"","lat":34.688022,"lng":138.877603,"zip":"4150301"},{"town":"市之瀬","koaza":"","lat":34.690483,"lng":138.805422,"zip":"4150325"},{"town":"伊浜","koaza":"","lat":34.694698,"lng":138.764512,"zip":"4150531"},{"town":"入間","koaza":"","lat":34.627135,"lng":138.81712,"zip":"4150312"},{"town":"石廊崎","koaza":"","lat":34.616361,"lng":138.840818,"zip":"4150156"},{"town":"岩殿","koaza":"","lat":34.667051,"lng":138.849516,"zip":"4150322"},{"town":"大瀬","koaza":"","lat":34.623111,"lng":138.854207,"zip":"4150155"},{"town":"加納","koaza":"","lat":34.646195,"lng":138.853414,"zip":"4150304"},{"town":"上小野","koaza":"","lat":34.668406,"lng":138.82416,"zip":"4150324"},{"town":"上賀茂","koaza":"","lat":34.662545,"lng":138.865533,"zip":"4150302"},{"town":"毛倉野","koaza":"","lat":34.688957,"lng":138.855736,"zip":"4150321"},{"town":"子浦","koaza":"","lat":34.674769,"lng":138.794488,"zip":"4150532"},{"town":"下流","koaza":"","lat":34.627913,"lng":138.868704,"zip":"4150154"},{"town":"下小野","koaza":"","lat":34.676556,"lng":138.825581,"zip":"4150323"},{"town":"下賀茂","koaza":"","lat":34.646784,"lng":138.871325,"zip":"4150303"},{"town":"蛇石","koaza":"","lat":34.703852,"lng":138.792751,"zip":"4150326"},{"town":"蝶ケ野","koaza":"","lat":34.655234,"lng":138.825294,"zip":"4150314"},{"town":"手石","koaza":"","lat":34.635443,"lng":138.878902,"zip":"4150153"},{"town":"中木","koaza":"","lat":34.620314,"lng":138.829718,"zip":"4150311"},{"town":"二條","koaza":"","lat":34.646358,"lng":138.835098,"zip":"4150305"},{"town":"湊","koaza":"","lat":34.646275,"lng":138.8874,"zip":"4150152"},{"town":"妻良","koaza":"","lat":34.653307,"lng":138.791005,"zip":"4150533"}]