[{"town":"大鍋","koaza":"","lat":34.78358,"lng":138.907753,"zip":"4130509"},{"town":"川津筏場","koaza":"","lat":34.799563,"lng":138.982502,"zip":"4130502"},{"town":"小鍋","koaza":"","lat":34.771946,"lng":138.936163,"zip":"4130508"},{"town":"逆川","koaza":"","lat":34.757026,"lng":138.953532,"zip":"4130516"},{"town":"笹原","koaza":"","lat":34.737372,"lng":138.978244,"zip":"4130512"},{"town":"沢田","koaza":"","lat":34.772049,"lng":138.990103,"zip":"4130505"},{"town":"下佐ケ野","koaza":"","lat":34.777513,"lng":138.959931,"zip":"4130506"},{"town":"田中","koaza":"","lat":34.76009,"lng":138.993718,"zip":"4130504"},{"town":"梨本","koaza":"","lat":34.810311,"lng":138.924601,"zip":"4130501"},{"town":"縄地","koaza":"","lat":34.726341,"lng":138.974592,"zip":"4130514"},{"town":"浜","koaza":"","lat":34.728993,"lng":138.989224,"zip":"4130513"},{"town":"見高","koaza":"","lat":34.777204,"lng":139.004385,"zip":"4130503"},{"town":"峰","koaza":"","lat":34.757476,"lng":138.97508,"zip":"4130511"},{"town":"谷津","koaza":"","lat":34.740913,"lng":138.970904,"zip":"4130515"},{"town":"湯ケ野","koaza":"","lat":34.779748,"lng":138.952757,"zip":"4130507"}]