[{"town":"明伏","koaza":"","lat":34.746123,"lng":138.82856,"zip":"4103603"},{"town":"池代","koaza":"","lat":34.764145,"lng":138.869425,"zip":"4103601"},{"town":"石部","koaza":"","lat":34.723796,"lng":138.763088,"zip":"4103616"},{"town":"岩科南側","koaza":"","lat":34.721232,"lng":138.791527,"zip":"4103614"},{"town":"岩科北側","koaza":"","lat":34.723941,"lng":138.82444,"zip":"4103613"},{"town":"岩地","koaza":"","lat":34.73993,"lng":138.76424,"zip":"4103617"},{"town":"江奈","koaza":"","lat":34.758763,"lng":138.781451,"zip":"4103624"},{"town":"大澤","koaza":"","lat":34.765474,"lng":138.838334,"zip":"4103600"},{"town":"門野","koaza":"","lat":34.78684,"lng":138.838021,"zip":"4103607"},{"town":"雲見","koaza":"","lat":34.717358,"lng":138.753157,"zip":"4103615"},{"town":"建久寺","koaza":"","lat":34.759597,"lng":138.803442,"zip":"4103627"},{"town":"小杉原","koaza":"","lat":34.73372,"lng":138.842742,"zip":"4103602"},{"town":"櫻田","koaza":"","lat":34.760968,"lng":138.792764,"zip":"4103600"},{"town":"伏倉","koaza":"","lat":34.747074,"lng":138.790101,"zip":"4103623"},{"town":"那賀","koaza":"","lat":34.760514,"lng":138.798743,"zip":"4103626"},{"town":"南郷","koaza":"","lat":34.750354,"lng":138.808371,"zip":"4103622"},{"town":"船田","koaza":"","lat":34.771811,"lng":138.814867,"zip":"4103606"},{"town":"松崎","koaza":"","lat":34.750707,"lng":138.777753,"zip":"4103611"},{"town":"道部","koaza":"","lat":34.743505,"lng":138.773904,"zip":"4103618"},{"town":"峰輪","koaza":"","lat":34.767,"lng":138.825309,"zip":"4103605"},{"town":"宮内","koaza":"","lat":34.751688,"lng":138.782484,"zip":"4103612"},{"town":"吉田","koaza":"","lat":34.764651,"lng":138.805698,"zip":"4103621"}]