[{"town":"青木","koaza":"","lat":34.935385,"lng":138.362507,"zip":"4210134"},{"town":"青沢","koaza":"","lat":34.965411,"lng":138.450049,"zip":"4228014"},{"town":"安居","koaza":"","lat":34.961178,"lng":138.460772,"zip":"4228012"},{"town":"有明町","koaza":"","lat":34.966746,"lng":138.407776,"zip":"4228031"},{"town":"池田","koaza":"","lat":34.981945,"lng":138.437412,"zip":"4228005"},{"town":"石田一丁目","koaza":"","lat":34.961192,"lng":138.400132,"zip":"4228042"},{"town":"石田二丁目","koaza":"","lat":34.958053,"lng":138.403652,"zip":"4228042"},{"town":"石田三丁目","koaza":"","lat":34.956295,"lng":138.400869,"zip":"4228042"},{"town":"泉町","koaza":"","lat":34.968402,"lng":138.386895,"zip":"4228066"},{"town":"稲川一丁目","koaza":"","lat":34.967701,"lng":138.390761,"zip":"4228062"},{"town":"稲川二丁目","koaza":"","lat":34.969114,"lng":138.39306,"zip":"4228062"},{"town":"稲川三丁目","koaza":"","lat":34.967725,"lng":138.394392,"zip":"4228062"},{"town":"宇津ノ谷","koaza":"","lat":34.943229,"lng":138.299544,"zip":"4210105"},{"town":"有東一丁目","koaza":"","lat":34.965966,"lng":138.404368,"zip":"4228032"},{"town":"有東二丁目","koaza":"","lat":34.963705,"lng":138.406591,"zip":"4228032"},{"town":"有東三丁目","koaza":"","lat":34.962777,"lng":138.409941,"zip":"4228032"},{"town":"大坪町","koaza":"","lat":34.965156,"lng":138.396642,"zip":"4228075"},{"town":"大谷","koaza":"","lat":34.957328,"lng":138.436695,"zip":"4228017"},{"town":"大谷一丁目","koaza":"","lat":34.948675,"lng":138.42809,"zip":"4228017"},{"town":"大谷二丁目","koaza":"","lat":34.949074,"lng":138.430737,"zip":"4228017"},{"town":"大谷三丁目","koaza":"","lat":34.949964,"lng":138.434949,"zip":"4228017"},{"town":"大和田","koaza":"","lat":34.933384,"lng":138.354178,"zip":"4210136"},{"town":"小黒一丁目","koaza":"","lat":34.974607,"lng":138.401448,"zip":"4228072"},{"town":"小黒二丁目","koaza":"","lat":34.972838,"lng":138.40267,"zip":"4228072"},{"town":"小黒三丁目","koaza":"","lat":34.970544,"lng":138.404725,"zip":"4228072"},{"town":"小坂","koaza":"","lat":34.921331,"lng":138.341487,"zip":"4210135"},{"town":"小坂一丁目","koaza":"","lat":34.926661,"lng":138.356871,"zip":"4210135"},{"town":"小坂二丁目","koaza":"","lat":34.930254,"lng":138.356583,"zip":"4210135"},{"town":"小坂三丁目","koaza":"","lat":34.927585,"lng":138.354612,"zip":"4210135"},{"town":"小鹿","koaza":"","lat":34.972206,"lng":138.43587,"zip":"4228021"},{"town":"小鹿一丁目","koaza":"","lat":34.976753,"lng":138.417493,"zip":"4228021"},{"town":"小鹿二丁目","koaza":"","lat":34.972869,"lng":138.420271,"zip":"4228021"},{"town":"小鹿三丁目","koaza":"","lat":34.971708,"lng":138.415628,"zip":"4228021"},{"town":"恩田原","koaza":"","lat":34.966147,"lng":138.418663,"zip":"4228022"},{"town":"片山","koaza":"","lat":34.963629,"lng":138.422892,"zip":"4228023"},{"town":"北丸子一丁目","koaza":"","lat":34.951147,"lng":138.35101,"zip":"4210106"},{"town":"北丸子二丁目","koaza":"","lat":34.951633,"lng":138.344756,"zip":"4210106"},{"town":"国吉田","koaza":"","lat":34.98595,"lng":138.441436,"zip":"4228004"},{"town":"国吉田一丁目","koaza":"","lat":34.998421,"lng":138.428221,"zip":"4228004"},{"town":"国吉田二丁目","koaza":"","lat":34.996585,"lng":138.429899,"zip":"4228004"},{"town":"国吉田三丁目","koaza":"","lat":34.995188,"lng":138.432538,"zip":"4228004"},{"town":"国吉田四丁目","koaza":"","lat":34.99278,"lng":138.432746,"zip":"4228004"},{"town":"国吉田五丁目","koaza":"","lat":34.991263,"lng":138.435359,"zip":"4228004"},{"town":"国吉田六丁目","koaza":"","lat":34.98832,"lng":138.438472,"zip":"4228004"},{"town":"栗原","koaza":"","lat":34.992158,"lng":138.427401,"zip":"4228008"},{"town":"光陽町","koaza":"","lat":34.941104,"lng":138.373134,"zip":"4210116"},{"town":"寿町","koaza":"","lat":34.962263,"lng":138.379128,"zip":"4228055"},{"town":"さつき町","koaza":"","lat":34.975236,"lng":138.398826,"zip":"4228078"},{"town":"敷地一丁目","koaza":"","lat":34.951735,"lng":138.411575,"zip":"4228036"},{"town":"敷地二丁目","koaza":"","lat":34.949542,"lng":138.414485,"zip":"4228036"},{"town":"下川原一丁目","koaza":"","lat":34.941421,"lng":138.380941,"zip":"4210113"},{"town":"下川原二丁目","koaza":"","lat":34.938872,"lng":138.376152,"zip":"4210113"},{"town":"下川原三丁目","koaza":"","lat":34.937176,"lng":138.372691,"zip":"4210113"},{"town":"下川原四丁目","koaza":"","lat":34.937729,"lng":138.383769,"zip":"4210113"},{"town":"下川原五丁目","koaza":"","lat":34.935306,"lng":138.379176,"zip":"4210113"},{"town":"下川原六丁目","koaza":"","lat":34.933361,"lng":138.374831,"zip":"4210113"},{"town":"下川原南","koaza":"","lat":34.932536,"lng":138.384163,"zip":"4210117"},{"town":"下島","koaza":"","lat":34.946262,"lng":138.40846,"zip":"4228037"},{"town":"新川一丁目","koaza":"","lat":34.964117,"lng":138.3816,"zip":"4228064"},{"town":"新川二丁目","koaza":"","lat":34.961531,"lng":138.385413,"zip":"4228064"},{"town":"石部","koaza":"","lat":34.909951,"lng":138.34973,"zip":"4210123"},{"town":"高松","koaza":"","lat":34.946937,"lng":138.41979,"zip":"4228034"},{"town":"高松一丁目","koaza":"","lat":34.956326,"lng":138.418313,"zip":"4228034"},{"town":"高松二丁目","koaza":"","lat":34.952901,"lng":138.421402,"zip":"4228034"},{"town":"津島町","koaza":"","lat":34.959889,"lng":138.382737,"zip":"4228056"},{"town":"手越","koaza":"","lat":34.955531,"lng":138.364471,"zip":"4210102"},{"town":"手越原","koaza":"","lat":34.951071,"lng":138.363257,"zip":"4210131"},{"town":"寺田","koaza":"","lat":34.93984,"lng":138.358246,"zip":"4210137"},{"town":"東新田","koaza":"","lat":34.950073,"lng":138.369676,"zip":"4210112"},{"town":"東新田一丁目","koaza":"","lat":34.95153,"lng":138.373339,"zip":"4210112"},{"town":"東新田二丁目","koaza":"","lat":34.9481,"lng":138.37636,"zip":"4210112"},{"town":"東新田三丁目","koaza":"","lat":34.945635,"lng":138.371755,"zip":"4210112"},{"town":"東新田四丁目","koaza":"","lat":34.944355,"lng":138.378861,"zip":"4210112"},{"town":"東新田五丁目","koaza":"","lat":34.941949,"lng":138.371951,"zip":"4210112"},{"town":"豊田一丁目","koaza":"","lat":34.970767,"lng":138.409538,"zip":"4228027"},{"town":"豊田二丁目","koaza":"","lat":34.968772,"lng":138.41332,"zip":"4228027"},{"town":"豊田三丁目","koaza":"","lat":34.967124,"lng":138.410641,"zip":"4228027"},{"town":"豊原町","koaza":"","lat":34.976263,"lng":138.400688,"zip":"4228071"},{"town":"登呂一丁目","koaza":"","lat":34.960876,"lng":138.411905,"zip":"4228033"},{"town":"登呂二丁目","koaza":"","lat":34.958422,"lng":138.414813,"zip":"4228033"},{"town":"登呂三丁目","koaza":"","lat":34.959873,"lng":138.406876,"zip":"4228033"},{"town":"登呂四丁目","koaza":"","lat":34.957003,"lng":138.410569,"zip":"4228033"},{"town":"登呂五丁目","koaza":"","lat":34.954876,"lng":138.408098,"zip":"4228033"},{"town":"登呂六丁目","koaza":"","lat":34.952785,"lng":138.403886,"zip":"4228033"},{"town":"中島","koaza":"","lat":34.939481,"lng":138.394285,"zip":"4228046"},{"town":"中田一丁目","koaza":"","lat":34.965821,"lng":138.392286,"zip":"4228041"},{"town":"中田二丁目","koaza":"","lat":34.963378,"lng":138.394893,"zip":"4228041"},{"town":"中田三丁目","koaza":"","lat":34.960794,"lng":138.396699,"zip":"4228041"},{"town":"中田四丁目","koaza":"","lat":34.958131,"lng":138.398592,"zip":"4228041"},{"town":"中田本町","koaza":"","lat":34.95709,"lng":138.394669,"zip":"4228043"},{"town":"中野新田","koaza":"","lat":34.95094,"lng":138.384994,"zip":"4228051"},{"town":"中原","koaza":"","lat":34.955817,"lng":138.386666,"zip":"4228058"},{"town":"中平松","koaza":"","lat":34.954419,"lng":138.445824,"zip":"4228015"},{"town":"中村町","koaza":"","lat":34.952514,"lng":138.393173,"zip":"4228047"},{"town":"中吉田","koaza":"","lat":34.999064,"lng":138.433253,"zip":"4228001"},{"town":"西大谷","koaza":"","lat":34.953264,"lng":138.426004,"zip":"4228018"},{"town":"西島","koaza":"","lat":34.943291,"lng":138.404982,"zip":"4228045"},{"town":"西中原一丁目","koaza":"","lat":34.958424,"lng":138.380847,"zip":"4228053"},{"town":"西中原二丁目","koaza":"","lat":34.956023,"lng":138.377548,"zip":"4228053"},{"town":"西平松","koaza":"","lat":34.952261,"lng":138.440274,"zip":"4228016"},{"town":"西脇","koaza":"","lat":34.948093,"lng":138.396997,"zip":"4228044"},{"town":"根古屋","koaza":"","lat":34.966419,"lng":138.465643,"zip":"4228011"},{"town":"聖一色","koaza":"","lat":34.986996,"lng":138.427492,"zip":"4228007"},{"town":"平沢","koaza":"","lat":34.980335,"lng":138.449855,"zip":"4228003"},{"town":"広野","koaza":"","lat":34.927465,"lng":138.380217,"zip":"4210121"},{"town":"広野一丁目","koaza":"","lat":34.934657,"lng":138.368745,"zip":"4210121"},{"town":"広野二丁目","koaza":"","lat":34.932565,"lng":138.367878,"zip":"4210121"},{"town":"広野三丁目","koaza":"","lat":34.930316,"lng":138.369044,"zip":"4210121"},{"town":"広野四丁目","koaza":"","lat":34.927922,"lng":138.370651,"zip":"4210121"},{"town":"広野六丁目","koaza":"","lat":34.928808,"lng":138.375191,"zip":"4210121"},{"town":"広野海岸通","koaza":"","lat":34.924517,"lng":138.377334,"zip":"4220000"},{"town":"富士見台一丁目","koaza":"","lat":34.963308,"lng":138.414443,"zip":"4228026"},{"town":"富士見台二丁目","koaza":"","lat":34.964616,"lng":138.417305,"zip":"4228026"},{"town":"富士見台三丁目","koaza":"","lat":34.961277,"lng":138.418268,"zip":"4228026"},{"town":"古宿","koaza":"","lat":34.959542,"lng":138.453928,"zip":"4228013"},{"town":"曲金一丁目","koaza":"","lat":34.978288,"lng":138.40412,"zip":"4228006"},{"town":"曲金二丁目","koaza":"","lat":34.977421,"lng":138.406083,"zip":"4228006"},{"town":"曲金三丁目","koaza":"","lat":34.973789,"lng":138.407928,"zip":"4228006"},{"town":"曲金四丁目","koaza":"","lat":34.976247,"lng":138.410675,"zip":"4228006"},{"town":"曲金五丁目","koaza":"","lat":34.978414,"lng":138.412357,"zip":"4228006"},{"town":"曲金六丁目","koaza":"","lat":34.981462,"lng":138.412121,"zip":"4228006"},{"town":"曲金七丁目","koaza":"","lat":34.980709,"lng":138.415651,"zip":"4228006"},{"town":"馬渕一丁目","koaza":"","lat":34.967476,"lng":138.384051,"zip":"4228063"},{"town":"馬渕二丁目","koaza":"","lat":34.965609,"lng":138.386456,"zip":"4228063"},{"town":"馬渕三丁目","koaza":"","lat":34.963562,"lng":138.388562,"zip":"4228063"},{"town":"馬渕四丁目","koaza":"","lat":34.961251,"lng":138.391016,"zip":"4228063"},{"town":"丸子","koaza":"","lat":34.940492,"lng":138.32819,"zip":"4210103"},{"town":"丸子一丁目","koaza":"","lat":34.946764,"lng":138.35768,"zip":"4210103"},{"town":"丸子二丁目","koaza":"","lat":34.943225,"lng":138.356294,"zip":"4210103"},{"town":"丸子三丁目","koaza":"","lat":34.946664,"lng":138.352768,"zip":"4210103"},{"town":"丸子四丁目","koaza":"","lat":34.944545,"lng":138.352874,"zip":"4210103"},{"town":"丸子五丁目","koaza":"","lat":34.942784,"lng":138.352445,"zip":"4210103"},{"town":"丸子六丁目","koaza":"","lat":34.946909,"lng":138.348888,"zip":"4210103"},{"town":"丸子七丁目","koaza":"","lat":34.949598,"lng":138.341848,"zip":"4210103"},{"town":"丸子新田","koaza":"","lat":34.95131,"lng":138.367472,"zip":"4210111"},{"town":"丸子芹が谷町","koaza":"","lat":34.942805,"lng":138.348782,"zip":"4210104"},{"town":"水上","koaza":"","lat":34.95654,"lng":138.425269,"zip":"4228025"},{"town":"みずほ一丁目","koaza":"","lat":34.942736,"lng":138.368339,"zip":"4210115"},{"town":"みずほ二丁目","koaza":"","lat":34.939787,"lng":138.368729,"zip":"4210115"},{"town":"みずほ三丁目","koaza":"","lat":34.937366,"lng":138.368871,"zip":"4210115"},{"town":"みずほ四丁目","koaza":"","lat":34.941881,"lng":138.365466,"zip":"4210115"},{"town":"みずほ五丁目","koaza":"","lat":34.937569,"lng":138.365976,"zip":"4210115"},{"town":"見瀬","koaza":"","lat":34.958637,"lng":138.389238,"zip":"4228057"},{"town":"緑が丘町","koaza":"","lat":34.953476,"lng":138.379581,"zip":"4228052"},{"town":"南安倍三丁目","koaza":"","lat":34.958218,"lng":138.375558,"zip":"4228054"},{"town":"南町","koaza":"","lat":34.969914,"lng":138.389598,"zip":"4228067"},{"town":"南八幡町","koaza":"","lat":34.962576,"lng":138.402572,"zip":"4228074"},{"town":"宮川","koaza":"","lat":34.959593,"lng":138.42329,"zip":"4228024"},{"town":"宮竹一丁目","koaza":"","lat":34.954302,"lng":138.415228,"zip":"4228035"},{"town":"宮竹二丁目","koaza":"","lat":34.951407,"lng":138.418046,"zip":"4228035"},{"town":"宮本町","koaza":"","lat":34.965236,"lng":138.383087,"zip":"4228065"},{"town":"向敷地","koaza":"","lat":34.961845,"lng":138.355956,"zip":"4210101"},{"town":"用宗","koaza":"","lat":34.9321,"lng":138.362474,"zip":"4210122"},{"town":"用宗一丁目","koaza":"","lat":34.928936,"lng":138.365212,"zip":"4210122"},{"town":"用宗二丁目","koaza":"","lat":34.923329,"lng":138.366237,"zip":"4210122"},{"town":"用宗三丁目","koaza":"","lat":34.922475,"lng":138.364471,"zip":"4210122"},{"town":"用宗四丁目","koaza":"","lat":34.92134,"lng":138.362652,"zip":"4210122"},{"town":"用宗五丁目","koaza":"","lat":34.91967,"lng":138.360555,"zip":"4210122"},{"town":"用宗小石町","koaza":"","lat":34.927534,"lng":138.36111,"zip":"4210125"},{"town":"用宗城山町","koaza":"","lat":34.923165,"lng":138.358908,"zip":"4210124"},{"town":"用宗巴町","koaza":"","lat":34.93072,"lng":138.360853,"zip":"4210126"},{"town":"桃園町","koaza":"","lat":34.930913,"lng":138.377575,"zip":"4210114"},{"town":"森下町","koaza":"","lat":34.971959,"lng":138.393077,"zip":"4228061"},{"town":"谷田","koaza":"","lat":34.988344,"lng":138.448186,"zip":"4228002"},{"town":"八幡一丁目","koaza":"","lat":34.97313,"lng":138.395065,"zip":"4228076"},{"town":"八幡二丁目","koaza":"","lat":34.970953,"lng":138.395829,"zip":"4228076"},{"town":"八幡三丁目","koaza":"","lat":34.969448,"lng":138.397503,"zip":"4228076"},{"town":"八幡四丁目","koaza":"","lat":34.967752,"lng":138.398466,"zip":"4228076"},{"town":"八幡五丁目","koaza":"","lat":34.966837,"lng":138.400905,"zip":"4228076"},{"town":"八幡山","koaza":"","lat":34.969899,"lng":138.40144,"zip":"4228073"},{"town":"大和一丁目","koaza":"","lat":34.974286,"lng":138.396951,"zip":"4210136"},{"town":"大和二丁目","koaza":"","lat":34.972507,"lng":138.398683,"zip":"4210136"},{"town":"弥生町","koaza":"","lat":35.003182,"lng":138.435874,"zip":"4228009"},{"town":"鎌田","koaza":"","lat":34.944163,"lng":138.361665,"zip":"4210133"},{"town":"下川原","koaza":"","lat":34.946646,"lng":138.36417,"zip":"4210113"},{"town":"上川原","koaza":"","lat":34.947288,"lng":138.364716,"zip":"4210132"},{"town":"広野五丁目","koaza":"","lat":34.924176,"lng":138.37241,"zip":"4210121"},{"town":"港","koaza":"","lat":34.924975,"lng":138.368061,"zip":"4220000"},{"town":"東静岡二丁目","koaza":"","lat":34.984965,"lng":138.416731,"zip":"4228019"},{"town":"向手越一丁目","koaza":"","lat":34.951815,"lng":138.360714,"zip":"4210107"},{"town":"向手越二丁目","koaza":"","lat":34.950862,"lng":138.358764,"zip":"4210107"}]