[{"town":"相生町","koaza":"","lat":34.978092,"lng":138.392224,"zip":"4200838"},{"town":"相淵","koaza":"","lat":35.12635,"lng":138.354837,"zip":"4212309"},{"town":"相俣","koaza":"","lat":35.027922,"lng":138.234498,"zip":"4211307"},{"town":"葵町","koaza":"","lat":34.977695,"lng":138.372563,"zip":"4200017"},{"town":"赤沢","koaza":"","lat":35.036017,"lng":138.264657,"zip":"4211305"},{"town":"赤松","koaza":"","lat":35.023966,"lng":138.394607,"zip":"4200963"},{"town":"秋山町","koaza":"","lat":35.004582,"lng":138.361121,"zip":"4200948"},{"town":"上土一丁目","koaza":"","lat":35.001594,"lng":138.41324,"zip":"4200810"},{"town":"上土二丁目","koaza":"","lat":35.003491,"lng":138.412465,"zip":"4200810"},{"town":"足久保奥組","koaza":"","lat":35.070405,"lng":138.311447,"zip":"4212125"},{"town":"足久保口組","koaza":"","lat":35.04817,"lng":138.347278,"zip":"4212124"},{"town":"東町","koaza":"","lat":34.97664,"lng":138.397468,"zip":"4200836"},{"town":"安倍口新田","koaza":"","lat":35.018961,"lng":138.359493,"zip":"4212114"},{"town":"安倍口団地","koaza":"","lat":35.020746,"lng":138.366516,"zip":"4212113"},{"town":"安倍町","koaza":"","lat":34.981184,"lng":138.375539,"zip":"4200869"},{"town":"安西一丁目","koaza":"","lat":34.980328,"lng":138.373692,"zip":"4200011"},{"town":"安西二丁目","koaza":"","lat":34.979119,"lng":138.372083,"zip":"4200011"},{"town":"安西三丁目","koaza":"","lat":34.978322,"lng":138.370554,"zip":"4200011"},{"town":"安西四丁目","koaza":"","lat":34.976678,"lng":138.367653,"zip":"4200011"},{"town":"安西五丁目","koaza":"","lat":34.976135,"lng":138.364844,"zip":"4200011"},{"town":"安東一丁目","koaza":"","lat":34.985381,"lng":138.384532,"zip":"4200882"},{"town":"安東二丁目","koaza":"","lat":34.988421,"lng":138.384259,"zip":"4200882"},{"town":"安東三丁目","koaza":"","lat":34.992601,"lng":138.385366,"zip":"4200882"},{"town":"安東柳町","koaza":"","lat":34.985062,"lng":138.378982,"zip":"4200863"},{"town":"井川","koaza":"","lat":35.214731,"lng":138.231669,"zip":"4280504"},{"town":"池ヶ谷","koaza":"","lat":35.006797,"lng":138.381406,"zip":"4220000"},{"town":"池ヶ谷東","koaza":"","lat":35.006051,"lng":138.385957,"zip":"4220000"},{"town":"一番町","koaza":"","lat":34.975961,"lng":138.372844,"zip":"4200071"},{"town":"井宮町","koaza":"","lat":34.986836,"lng":138.371138,"zip":"4200001"},{"town":"伊呂波町","koaza":"","lat":35.00185,"lng":138.363687,"zip":"4200946"},{"town":"岩崎","koaza":"","lat":35.239651,"lng":138.243951,"zip":"4280503"},{"town":"牛田","koaza":"","lat":35.016228,"lng":138.400147,"zip":"4200952"},{"town":"牛妻","koaza":"","lat":35.069589,"lng":138.381213,"zip":"4212106"},{"town":"内牧","koaza":"","lat":35.026717,"lng":138.339791,"zip":"4212118"},{"town":"有東木","koaza":"","lat":35.205167,"lng":138.376984,"zip":"4212303"},{"town":"産女","koaza":"","lat":34.973507,"lng":138.327324,"zip":"4211222"},{"town":"梅ヶ島","koaza":"","lat":35.278024,"lng":138.325934,"zip":"4220000"},{"town":"梅屋町","koaza":"","lat":34.972667,"lng":138.377775,"zip":"4200038"},{"town":"漆山","koaza":"","lat":35.020061,"lng":138.397074,"zip":"4200953"},{"town":"遠藤新田","koaza":"","lat":35.029097,"lng":138.365266,"zip":"4212112"},{"town":"追手町","koaza":"","lat":34.977739,"lng":138.380353,"zip":"4200853"},{"town":"大岩","koaza":"","lat":34.994859,"lng":138.376142,"zip":"4200886"},{"town":"大岩一丁目","koaza":"","lat":34.992954,"lng":138.381052,"zip":"4200886"},{"town":"大岩二丁目","koaza":"","lat":34.997301,"lng":138.381374,"zip":"4200886"},{"town":"大岩三丁目","koaza":"","lat":34.997869,"lng":138.377425,"zip":"4200886"},{"town":"大岩四丁目","koaza":"","lat":35.002284,"lng":138.380701,"zip":"4200886"},{"town":"大岩町","koaza":"","lat":34.993095,"lng":138.378589,"zip":"4200885"},{"town":"大岩本町","koaza":"","lat":34.988679,"lng":138.378289,"zip":"4200884"},{"town":"大岩宮下町","koaza":"","lat":34.985944,"lng":138.378893,"zip":"4200883"},{"town":"大鋸町","koaza":"","lat":34.972594,"lng":138.374836,"zip":"4200026"},{"town":"大沢","koaza":"","lat":35.152744,"lng":138.290136,"zip":"4212227"},{"town":"太田町","koaza":"","lat":34.983674,"lng":138.392916,"zip":"4200845"},{"town":"大原","koaza":"","lat":35.016607,"lng":138.284154,"zip":"4211314"},{"town":"大間","koaza":"","lat":35.147093,"lng":138.242931,"zip":"4211401"},{"town":"奥池ヶ谷","koaza":"","lat":35.145593,"lng":138.317574,"zip":"4220000"},{"town":"奥仙俣","koaza":"","lat":35.209456,"lng":138.303399,"zip":"4212201"},{"town":"落合","koaza":"","lat":35.106335,"lng":138.313805,"zip":"4212223"},{"town":"音羽町","koaza":"","lat":34.979506,"lng":138.395339,"zip":"4200834"},{"town":"鍵穴","koaza":"","lat":35.04563,"lng":138.241697,"zip":"4211302"},{"town":"柿島","koaza":"","lat":35.150527,"lng":138.335715,"zip":"4212214"},{"town":"籠上","koaza":"","lat":34.990972,"lng":138.370734,"zip":"4200873"},{"town":"春日一丁目","koaza":"","lat":34.978682,"lng":138.398289,"zip":"4200823"},{"town":"春日二丁目","koaza":"","lat":34.978763,"lng":138.401372,"zip":"4200823"},{"town":"春日三丁目","koaza":"","lat":34.981055,"lng":138.401556,"zip":"4200823"},{"town":"春日町","koaza":"","lat":34.981981,"lng":138.395091,"zip":"4200824"},{"town":"片羽町","koaza":"","lat":34.98262,"lng":138.373979,"zip":"4200003"},{"town":"加藤島","koaza":"","lat":35.009668,"lng":138.4016,"zip":"4200925"},{"town":"門屋","koaza":"","lat":35.052109,"lng":138.380727,"zip":"4212107"},{"town":"上足洗","koaza":"","lat":34.987875,"lng":138.396297,"zip":"4200841"},{"town":"上足洗一丁目","koaza":"","lat":34.989753,"lng":138.394799,"zip":"4200841"},{"town":"上足洗二丁目","koaza":"","lat":34.992865,"lng":138.392022,"zip":"4200841"},{"town":"上足洗三丁目","koaza":"","lat":34.995807,"lng":138.393655,"zip":"4200841"},{"town":"上足洗四丁目","koaza":"","lat":34.992527,"lng":138.395812,"zip":"4200841"},{"town":"上桶屋町","koaza":"","lat":34.977906,"lng":138.374338,"zip":"4200014"},{"town":"上落合","koaza":"","lat":35.17491,"lng":138.31314,"zip":"4212211"},{"town":"上沓谷町","koaza":"","lat":34.984963,"lng":138.396002,"zip":"4200815"},{"town":"上石町","koaza":"","lat":34.973973,"lng":138.37857,"zip":"4200039"},{"town":"上坂本","koaza":"","lat":35.248778,"lng":138.26337,"zip":"4280502"},{"town":"上新富町","koaza":"","lat":34.971158,"lng":138.371187,"zip":"4200062"},{"town":"上伝馬","koaza":"","lat":35.010395,"lng":138.372307,"zip":"4200943"},{"town":"桂山","koaza":"","lat":35.10271,"lng":138.33683,"zip":"4212222"},{"town":"唐瀬一丁目","koaza":"","lat":35.009435,"lng":138.385751,"zip":"4200937"},{"town":"唐瀬二丁目","koaza":"","lat":35.012203,"lng":138.389882,"zip":"4200937"},{"town":"唐瀬三丁目","koaza":"","lat":35.013425,"lng":138.384317,"zip":"4200937"},{"town":"川合","koaza":"","lat":35.012082,"lng":138.407447,"zip":"4200923"},{"town":"川合一丁目","koaza":"","lat":35.001184,"lng":138.420244,"zip":"4200923"},{"town":"川合二丁目","koaza":"","lat":35.004671,"lng":138.415699,"zip":"4200923"},{"town":"川合三丁目","koaza":"","lat":35.007387,"lng":138.412625,"zip":"4200923"},{"town":"川越町","koaza":"","lat":34.964944,"lng":138.372746,"zip":"4200052"},{"town":"川辺町一丁目","koaza":"","lat":34.968669,"lng":138.378882,"zip":"4200043"},{"town":"川辺町二丁目","koaza":"","lat":34.968292,"lng":138.380649,"zip":"4200043"},{"town":"瓦場町","koaza":"","lat":34.982423,"lng":138.397521,"zip":"4200825"},{"town":"観山","koaza":"","lat":35.012543,"lng":138.394979,"zip":"4200931"},{"town":"北三丁目","koaza":"","lat":35.040439,"lng":138.398534,"zip":"4200961"},{"town":"北四丁目","koaza":"","lat":35.040465,"lng":138.402056,"zip":"4200961"},{"town":"北五丁目","koaza":"","lat":35.036666,"lng":138.398489,"zip":"4200961"},{"town":"北安東一丁目","koaza":"","lat":34.994718,"lng":138.388098,"zip":"4200881"},{"town":"北安東二丁目","koaza":"","lat":34.996878,"lng":138.386123,"zip":"4200881"},{"town":"北安東三丁目","koaza":"","lat":35.00056,"lng":138.384856,"zip":"4200881"},{"town":"北安東四丁目","koaza":"","lat":35.002596,"lng":138.38782,"zip":"4200881"},{"town":"北安東五丁目","koaza":"","lat":34.999083,"lng":138.390904,"zip":"4200881"},{"town":"北沼上","koaza":"","lat":35.054831,"lng":138.418594,"zip":"4200901"},{"town":"北番町","koaza":"","lat":34.979019,"lng":138.369338,"zip":"4200005"},{"town":"金座町","koaza":"","lat":34.9768,"lng":138.377534,"zip":"4200025"},{"town":"崩野","koaza":"","lat":35.129421,"lng":138.193903,"zip":"4211408"},{"town":"口坂本","koaza":"","lat":35.182228,"lng":138.277464,"zip":"4212203"},{"town":"口仙俣","koaza":"","lat":35.18819,"lng":138.329015,"zip":"4212202"},{"town":"沓谷","koaza":"","lat":34.988408,"lng":138.406019,"zip":"4200816"},{"town":"沓谷一丁目","koaza":"","lat":34.986294,"lng":138.399523,"zip":"4200816"},{"town":"沓谷二丁目","koaza":"","lat":34.988625,"lng":138.401633,"zip":"4200816"},{"town":"沓谷三丁目","koaza":"","lat":34.991853,"lng":138.403989,"zip":"4200816"},{"town":"沓谷四丁目","koaza":"","lat":34.994509,"lng":138.405715,"zip":"4200816"},{"town":"沓谷五丁目","koaza":"","lat":34.996707,"lng":138.40896,"zip":"4200816"},{"town":"沓谷六丁目","koaza":"","lat":34.995903,"lng":138.412494,"zip":"4200816"},{"town":"車町","koaza":"","lat":34.977896,"lng":138.377222,"zip":"4200022"},{"town":"黒金町","koaza":"","lat":34.97175,"lng":138.38839,"zip":"4200851"},{"town":"黒俣","koaza":"","lat":35.039718,"lng":138.214634,"zip":"4211308"},{"town":"幸庵新田","koaza":"","lat":35.018475,"lng":138.350827,"zip":"4212117"},{"town":"郷島","koaza":"","lat":35.095062,"lng":138.38565,"zip":"4212105"},{"town":"紺屋町","koaza":"","lat":34.972394,"lng":138.385717,"zip":"4200852"},{"town":"小河内","koaza":"","lat":35.269294,"lng":138.234234,"zip":"4280501"},{"town":"腰越","koaza":"","lat":35.121271,"lng":138.282888,"zip":"4212225"},{"town":"小島","koaza":"","lat":35.061435,"lng":138.233337,"zip":"4211301"},{"town":"小瀬戸","koaza":"","lat":34.9801,"lng":138.286087,"zip":"4211225"},{"town":"五番町","koaza":"","lat":34.973232,"lng":138.371778,"zip":"4200075"},{"town":"呉服町一丁目","koaza":"","lat":34.975535,"lng":138.380115,"zip":"4200031"},{"town":"呉服町二丁目","koaza":"","lat":34.97421,"lng":138.383313,"zip":"4200031"},{"town":"小布杉","koaza":"","lat":35.002351,"lng":138.249939,"zip":"4211316"},{"town":"駒形通一丁目","koaza":"","lat":34.970663,"lng":138.378316,"zip":"4200042"},{"town":"駒形通二丁目","koaza":"","lat":34.969308,"lng":138.377476,"zip":"4200042"},{"town":"駒形通三丁目","koaza":"","lat":34.967652,"lng":138.376964,"zip":"4200042"},{"town":"駒形通四丁目","koaza":"","lat":34.966309,"lng":138.376344,"zip":"4200042"},{"town":"駒形通五丁目","koaza":"","lat":34.965124,"lng":138.375039,"zip":"4200042"},{"town":"駒形通六丁目","koaza":"","lat":34.963172,"lng":138.373296,"zip":"4200042"},{"town":"材木町","koaza":"","lat":34.984089,"lng":138.372501,"zip":"4200002"},{"town":"幸町","koaza":"","lat":34.967747,"lng":138.371259,"zip":"4200067"},{"town":"栄町","koaza":"","lat":34.974434,"lng":138.391883,"zip":"4200859"},{"town":"坂ノ上","koaza":"","lat":35.06916,"lng":138.245061,"zip":"4211405"},{"town":"坂本","koaza":"","lat":35.059875,"lng":138.27069,"zip":"4211303"},{"town":"桜木町","koaza":"","lat":34.967218,"lng":138.377907,"zip":"4200048"},{"town":"桜町一丁目","koaza":"","lat":34.993313,"lng":138.359799,"zip":"4200945"},{"town":"桜町二丁目","koaza":"","lat":34.998868,"lng":138.36001,"zip":"4200945"},{"town":"三番町","koaza":"","lat":34.97492,"lng":138.370893,"zip":"4200073"},{"town":"慈悲尾","koaza":"","lat":34.999613,"lng":138.347357,"zip":"4211211"},{"town":"七間町","koaza":"","lat":34.972762,"lng":138.380753,"zip":"4200035"},{"town":"七番町","koaza":"","lat":34.972144,"lng":138.371516,"zip":"4200077"},{"town":"芝原","koaza":"","lat":35.017316,"lng":138.390075,"zip":"4200955"},{"town":"下","koaza":"","lat":35.040423,"lng":138.381864,"zip":"4212108"},{"town":"城東町","koaza":"","lat":34.985654,"lng":138.389554,"zip":"4200846"},{"town":"城内町","koaza":"","lat":34.982255,"lng":138.382555,"zip":"4200854"},{"town":"昭府一丁目","koaza":"","lat":34.997688,"lng":138.370118,"zip":"4200871"},{"town":"昭府二丁目","koaza":"","lat":35.001484,"lng":138.370415,"zip":"4200871"},{"town":"昭府町","koaza":"","lat":34.999539,"lng":138.373198,"zip":"4200872"},{"town":"城北","koaza":"","lat":35.002504,"lng":138.395494,"zip":"4200805"},{"town":"城北二丁目","koaza":"","lat":35.003892,"lng":138.391214,"zip":"4200805"},{"town":"昭和町","koaza":"","lat":34.97152,"lng":138.383398,"zip":"4200033"},{"town":"新伝馬一丁目","koaza":"","lat":34.995917,"lng":138.363428,"zip":"4200944"},{"town":"新伝馬二丁目","koaza":"","lat":34.997832,"lng":138.365896,"zip":"4200944"},{"town":"新伝馬三丁目","koaza":"","lat":35.000764,"lng":138.365863,"zip":"4200944"},{"town":"新通一丁目","koaza":"","lat":34.969367,"lng":138.375552,"zip":"4200065"},{"town":"新通二丁目","koaza":"","lat":34.966359,"lng":138.373618,"zip":"4200065"},{"town":"新富町一丁目","koaza":"","lat":34.974809,"lng":138.368552,"zip":"4200061"},{"town":"新富町二丁目","koaza":"","lat":34.973774,"lng":138.368927,"zip":"4200061"},{"town":"新富町三丁目","koaza":"","lat":34.971986,"lng":138.369441,"zip":"4200061"},{"town":"新富町四丁目","koaza":"","lat":34.970593,"lng":138.370124,"zip":"4200061"},{"town":"新富町五丁目","koaza":"","lat":34.969821,"lng":138.370333,"zip":"4200061"},{"town":"新富町六丁目","koaza":"","lat":34.968808,"lng":138.370356,"zip":"4200061"},{"town":"新間","koaza":"","lat":35.01543,"lng":138.312357,"zip":"4211201"},{"town":"神明町","koaza":"","lat":34.982623,"lng":138.369323,"zip":"4200009"},{"town":"水道町","koaza":"","lat":34.985622,"lng":138.368126,"zip":"4200008"},{"town":"末広町","koaza":"","lat":34.982291,"lng":138.371824,"zip":"4200004"},{"town":"杉尾","koaza":"","lat":35.089676,"lng":138.204996,"zip":"4211309"},{"town":"住吉町一丁目","koaza":"","lat":34.97734,"lng":138.371183,"zip":"4200016"},{"town":"住吉町二丁目","koaza":"","lat":34.97669,"lng":138.372583,"zip":"4200016"},{"town":"駿河町","koaza":"","lat":34.971295,"lng":138.379004,"zip":"4200036"},{"town":"諏訪","koaza":"","lat":35.023647,"lng":138.406654,"zip":"4200902"},{"town":"駿府城公園","koaza":"","lat":34.979249,"lng":138.383145,"zip":"4200855"},{"town":"駿府町","koaza":"","lat":34.978879,"lng":138.386487,"zip":"4200856"},{"town":"清閑町","koaza":"","lat":34.964593,"lng":138.377781,"zip":"4200047"},{"town":"瀬名","koaza":"","lat":35.025071,"lng":138.426172,"zip":"4200911"},{"town":"瀬名一丁目","koaza":"","lat":35.013146,"lng":138.422776,"zip":"4200911"},{"town":"瀬名二丁目","koaza":"","lat":35.015509,"lng":138.41866,"zip":"4200911"},{"town":"瀬名三丁目","koaza":"","lat":35.021915,"lng":138.422359,"zip":"4200911"},{"town":"瀬名四丁目","koaza":"","lat":35.020303,"lng":138.417948,"zip":"4200911"},{"town":"瀬名五丁目","koaza":"","lat":35.024077,"lng":138.420042,"zip":"4200911"},{"town":"瀬名六丁目","koaza":"","lat":35.030957,"lng":138.426434,"zip":"4200911"},{"town":"瀬名七丁目","koaza":"","lat":35.031145,"lng":138.423797,"zip":"4200911"},{"town":"瀬名川一丁目","koaza":"","lat":35.004768,"lng":138.425165,"zip":"4200913"},{"town":"瀬名川二丁目","koaza":"","lat":35.006053,"lng":138.429443,"zip":"4200913"},{"town":"瀬名川三丁目","koaza":"","lat":35.007568,"lng":138.433061,"zip":"4200913"},{"town":"瀬名中央一丁目","koaza":"","lat":35.007085,"lng":138.422099,"zip":"4200916"},{"town":"瀬名中央二丁目","koaza":"","lat":35.010053,"lng":138.416721,"zip":"4200916"},{"town":"瀬名中央三丁目","koaza":"","lat":35.010233,"lng":138.420574,"zip":"4200916"},{"town":"瀬名中央四丁目","koaza":"","lat":35.010867,"lng":138.423921,"zip":"4200916"},{"town":"浅間町一丁目","koaza":"","lat":34.984324,"lng":138.379121,"zip":"4200862"},{"town":"浅間町二丁目","koaza":"","lat":34.985028,"lng":138.377809,"zip":"4200862"},{"town":"銭座町","koaza":"","lat":34.986733,"lng":138.395973,"zip":"4200842"},{"town":"千代","koaza":"","lat":34.983676,"lng":138.356652,"zip":"4211212"},{"town":"千代一丁目","koaza":"","lat":34.981034,"lng":138.351643,"zip":"4211212"},{"town":"千代二丁目","koaza":"","lat":34.985454,"lng":138.35349,"zip":"4211212"},{"town":"大工町","koaza":"","lat":34.973456,"lng":138.375397,"zip":"4200027"},{"town":"鷹匠一丁目","koaza":"","lat":34.976268,"lng":138.387805,"zip":"4200839"},{"town":"鷹匠二丁目","koaza":"","lat":34.977753,"lng":138.388755,"zip":"4200839"},{"town":"鷹匠三丁目","koaza":"","lat":34.979718,"lng":138.389755,"zip":"4200839"},{"town":"建穂","koaza":"","lat":34.987479,"lng":138.341038,"zip":"4211214"},{"town":"建穂一丁目","koaza":"","lat":34.984713,"lng":138.343682,"zip":"4211214"},{"town":"建穂二丁目","koaza":"","lat":34.987768,"lng":138.338036,"zip":"4211214"},{"town":"内匠","koaza":"","lat":35.107725,"lng":138.287014,"zip":"4212224"},{"town":"岳美","koaza":"","lat":35.009522,"lng":138.390183,"zip":"4200934"},{"town":"岳美一丁目","koaza":"","lat":35.007917,"lng":138.392741,"zip":"4200934"},{"town":"田代","koaza":"","lat":35.254257,"lng":138.212446,"zip":"4280505"},{"town":"辰起町","koaza":"","lat":34.984899,"lng":138.363927,"zip":"4200874"},{"town":"立石","koaza":"","lat":35.008945,"lng":138.397604,"zip":"4200933"},{"town":"田町一丁目","koaza":"","lat":34.974386,"lng":138.362394,"zip":"4200068"},{"town":"田町二丁目","koaza":"","lat":34.972703,"lng":138.363313,"zip":"4200068"},{"town":"田町三丁目","koaza":"","lat":34.970442,"lng":138.361999,"zip":"4200068"},{"town":"田町四丁目","koaza":"","lat":34.96842,"lng":138.362683,"zip":"4200068"},{"town":"田町五丁目","koaza":"","lat":34.966938,"lng":138.365033,"zip":"4200068"},{"town":"田町六丁目","koaza":"","lat":34.966817,"lng":138.369063,"zip":"4200068"},{"town":"田町七丁目","koaza":"","lat":34.964318,"lng":138.365478,"zip":"4200068"},{"town":"俵沢","koaza":"","lat":35.109267,"lng":138.365004,"zip":"4212103"},{"town":"俵峰","koaza":"","lat":35.113596,"lng":138.385132,"zip":"4212101"},{"town":"茶町一丁目","koaza":"","lat":34.977545,"lng":138.375228,"zip":"4200021"},{"town":"茶町二丁目","koaza":"","lat":34.977172,"lng":138.376,"zip":"4200021"},{"town":"千代田","koaza":"","lat":34.988546,"lng":138.397246,"zip":"4200803"},{"town":"千代田一丁目","koaza":"","lat":34.990941,"lng":138.398374,"zip":"4200803"},{"town":"千代田二丁目","koaza":"","lat":34.992223,"lng":138.401116,"zip":"4200803"},{"town":"千代田三丁目","koaza":"","lat":34.994478,"lng":138.400833,"zip":"4200803"},{"town":"千代田四丁目","koaza":"","lat":34.99583,"lng":138.399867,"zip":"4200803"},{"town":"千代田五丁目","koaza":"","lat":34.996097,"lng":138.404733,"zip":"4200803"},{"town":"千代田六丁目","koaza":"","lat":34.998692,"lng":138.407336,"zip":"4200803"},{"town":"千代田七丁目","koaza":"","lat":35.001489,"lng":138.405052,"zip":"4200803"},{"town":"堤町","koaza":"","lat":35.00144,"lng":138.360033,"zip":"4200947"},{"town":"津渡野","koaza":"","lat":35.090922,"lng":138.376562,"zip":"4212121"},{"town":"寺島","koaza":"","lat":35.048457,"lng":138.254897,"zip":"4211304"},{"town":"天神前","koaza":"","lat":35.020196,"lng":138.400765,"zip":"4200951"},{"town":"天王町","koaza":"","lat":34.967483,"lng":138.380028,"zip":"4200045"},{"town":"伝馬町","koaza":"","lat":34.974961,"lng":138.389155,"zip":"4200858"},{"town":"渡","koaza":"","lat":35.196023,"lng":138.346465,"zip":"4212304"},{"town":"藤兵衛新田","koaza":"","lat":35.014689,"lng":138.350347,"zip":"4220000"},{"town":"通車町","koaza":"","lat":34.971033,"lng":138.373545,"zip":"4200063"},{"town":"研屋町","koaza":"","lat":34.976054,"lng":138.376399,"zip":"4200029"},{"town":"常磐町一丁目","koaza":"","lat":34.972295,"lng":138.382383,"zip":"4200034"},{"town":"常磐町二丁目","koaza":"","lat":34.970611,"lng":138.382428,"zip":"4200034"},{"town":"常磐町三丁目","koaza":"","lat":34.969749,"lng":138.380483,"zip":"4200034"},{"town":"土太夫町","koaza":"","lat":34.978403,"lng":138.373367,"zip":"4200018"},{"town":"栃沢","koaza":"","lat":35.093461,"lng":138.260421,"zip":"4211404"},{"town":"巴町","koaza":"","lat":34.9852,"lng":138.393803,"zip":"4200843"},{"town":"豊地","koaza":"","lat":35.01382,"lng":138.399606,"zip":"4200932"},{"town":"富沢","koaza":"","lat":35.017471,"lng":138.256663,"zip":"4211311"},{"town":"長尾","koaza":"","lat":35.0399,"lng":138.430167,"zip":"4200903"},{"town":"長熊","koaza":"","lat":35.136153,"lng":138.315807,"zip":"4212216"},{"town":"中沢","koaza":"","lat":35.12044,"lng":138.346283,"zip":"4212221"},{"town":"中町","koaza":"","lat":34.977023,"lng":138.379104,"zip":"4200024"},{"town":"長妻田","koaza":"","lat":35.170854,"lng":138.339934,"zip":"4212213"},{"town":"長沼","koaza":"","lat":34.987866,"lng":138.411707,"zip":"4200813"},{"town":"長沼一丁目","koaza":"","lat":34.990644,"lng":138.412517,"zip":"4200813"},{"town":"長沼二丁目","koaza":"","lat":34.991632,"lng":138.414974,"zip":"4200813"},{"town":"長沼三丁目","koaza":"","lat":34.992615,"lng":138.417179,"zip":"4200813"},{"town":"中ノ郷","koaza":"","lat":35.031095,"lng":138.357804,"zip":"4212111"},{"town":"中平","koaza":"","lat":35.173074,"lng":138.371827,"zip":"4212305"},{"town":"楢尾","koaza":"","lat":35.124219,"lng":138.219443,"zip":"4211407"},{"town":"奈良間","koaza":"","lat":35.011394,"lng":138.265898,"zip":"4211312"},{"town":"西ヶ谷","koaza":"","lat":35.009141,"lng":138.347189,"zip":"4220000"},{"town":"錦町","koaza":"","lat":34.976782,"lng":138.37427,"zip":"4200015"},{"town":"西草深町","koaza":"","lat":34.981299,"lng":138.378419,"zip":"4200866"},{"town":"西瀬名町","koaza":"","lat":35.012784,"lng":138.414706,"zip":"4200914"},{"town":"西千代田町","koaza":"","lat":34.989609,"lng":138.389549,"zip":"4200847"},{"town":"西又","koaza":"","lat":34.981309,"lng":138.271139,"zip":"4211226"},{"town":"西門町","koaza":"","lat":34.969025,"lng":138.382252,"zip":"4200044"},{"town":"二番町","koaza":"","lat":34.975404,"lng":138.371812,"zip":"4200072"},{"town":"入島","koaza":"","lat":35.236045,"lng":138.318507,"zip":"4212302"},{"town":"野丈","koaza":"","lat":35.019169,"lng":138.404373,"zip":"4200921"},{"town":"野田平","koaza":"","lat":35.10299,"lng":138.369952,"zip":"4212104"},{"town":"長谷町","koaza":"","lat":34.985357,"lng":138.380702,"zip":"4200864"},{"town":"八番町","koaza":"","lat":34.971272,"lng":138.372161,"zip":"4200078"},{"town":"羽鳥","koaza":"","lat":35.001507,"lng":138.329763,"zip":"4211215"},{"town":"羽鳥一丁目","koaza":"","lat":34.980629,"lng":138.345316,"zip":"4211215"},{"town":"羽鳥二丁目","koaza":"","lat":34.977804,"lng":138.344916,"zip":"4211215"},{"town":"羽鳥三丁目","koaza":"","lat":34.980644,"lng":138.338578,"zip":"4211215"},{"town":"羽鳥四丁目","koaza":"","lat":34.982059,"lng":138.342592,"zip":"4211215"},{"town":"羽鳥五丁目","koaza":"","lat":34.983481,"lng":138.339219,"zip":"4211215"},{"town":"羽鳥六丁目","koaza":"","lat":34.985063,"lng":138.335126,"zip":"4211215"},{"town":"羽鳥七丁目","koaza":"","lat":34.992317,"lng":138.32759,"zip":"4211215"},{"town":"羽鳥大門町","koaza":"","lat":34.974469,"lng":138.351341,"zip":"4211216"},{"town":"羽鳥本町","koaza":"","lat":34.983637,"lng":138.326571,"zip":"4211217"},{"town":"馬場町","koaza":"","lat":34.978902,"lng":138.3764,"zip":"4200867"},{"town":"飯間","koaza":"","lat":34.967732,"lng":138.295963,"zip":"4211224"},{"town":"東","koaza":"","lat":35.028336,"lng":138.400177,"zip":"4200836"},{"town":"東一丁目","koaza":"","lat":35.030164,"lng":138.397171,"zip":"4200836"},{"town":"東二丁目","koaza":"","lat":35.033933,"lng":138.398854,"zip":"4200836"},{"town":"東草深町","koaza":"","lat":34.983211,"lng":138.384396,"zip":"4200865"},{"town":"東瀬名町","koaza":"","lat":35.011116,"lng":138.426921,"zip":"4200912"},{"town":"東鷹匠町","koaza":"","lat":34.981834,"lng":138.392412,"zip":"4200833"},{"town":"東千代田一丁目","koaza":"","lat":34.999644,"lng":138.410775,"zip":"4200801"},{"town":"東千代田二丁目","koaza":"","lat":35.002642,"lng":138.408313,"zip":"4200801"},{"town":"東千代田三丁目","koaza":"","lat":35.004272,"lng":138.403944,"zip":"4200801"},{"town":"人宿町一丁目","koaza":"","lat":34.973477,"lng":138.379429,"zip":"4200037"},{"town":"人宿町二丁目","koaza":"","lat":34.972256,"lng":138.378806,"zip":"4200037"},{"town":"日向","koaza":"","lat":35.092011,"lng":138.229342,"zip":"4211403"},{"town":"日出町","koaza":"","lat":34.975367,"lng":138.394782,"zip":"4200837"},{"town":"平野","koaza":"","lat":35.151382,"lng":138.373321,"zip":"4212306"},{"town":"平柳","koaza":"","lat":35.016392,"lng":138.394565,"zip":"4200954"},{"town":"平山","koaza":"","lat":35.073269,"lng":138.421078,"zip":"4200904"},{"town":"昼居渡","koaza":"","lat":35.033261,"lng":138.256197,"zip":"4211306"},{"town":"福田ヶ谷","koaza":"","lat":35.024575,"lng":138.377383,"zip":"4220000"},{"town":"富厚里","koaza":"","lat":35.000309,"lng":138.274267,"zip":"4211315"},{"town":"富士見町","koaza":"","lat":34.97733,"lng":138.378172,"zip":"4200023"},{"town":"双葉町","koaza":"","lat":34.968261,"lng":138.376194,"zip":"4200041"},{"town":"古庄一丁目","koaza":"","lat":34.99262,"lng":138.422604,"zip":"4200812"},{"town":"古庄二丁目","koaza":"","lat":34.99657,"lng":138.422117,"zip":"4200812"},{"town":"古庄三丁目","koaza":"","lat":34.994163,"lng":138.420102,"zip":"4200812"},{"town":"古庄四丁目","koaza":"","lat":34.997058,"lng":138.416054,"zip":"4200812"},{"town":"古庄五丁目","koaza":"","lat":34.998139,"lng":138.419634,"zip":"4200812"},{"town":"古庄六丁目","koaza":"","lat":35.000549,"lng":138.424989,"zip":"4200812"},{"town":"平和一丁目","koaza":"","lat":34.988418,"lng":138.365693,"zip":"4200876"},{"town":"平和二丁目","koaza":"","lat":34.992916,"lng":138.366135,"zip":"4200876"},{"town":"平和三丁目","koaza":"","lat":34.995334,"lng":138.368192,"zip":"4200876"},{"town":"本通十丁目","koaza":"","lat":34.966634,"lng":138.372552,"zip":"4200064"},{"town":"本通一丁目","koaza":"","lat":34.975703,"lng":138.378432,"zip":"4200064"},{"town":"本通二丁目","koaza":"","lat":34.974909,"lng":138.37771,"zip":"4200064"},{"town":"本通三丁目","koaza":"","lat":34.974185,"lng":138.377303,"zip":"4200064"},{"town":"本通四丁目","koaza":"","lat":34.973263,"lng":138.376745,"zip":"4200064"},{"town":"本通五丁目","koaza":"","lat":34.972616,"lng":138.376301,"zip":"4200064"},{"town":"本通六丁目","koaza":"","lat":34.971588,"lng":138.375388,"zip":"4200064"},{"town":"本通七丁目","koaza":"","lat":34.970182,"lng":138.374456,"zip":"4200064"},{"town":"本通八丁目","koaza":"","lat":34.968848,"lng":138.373605,"zip":"4200064"},{"town":"本通九丁目","koaza":"","lat":34.968001,"lng":138.373039,"zip":"4200064"},{"town":"本通西町","koaza":"","lat":34.965034,"lng":138.371415,"zip":"4200066"},{"town":"前林","koaza":"","lat":35.019745,"lng":138.393359,"zip":"4200957"},{"town":"牧ヶ谷","koaza":"","lat":34.969592,"lng":138.341277,"zip":"4220000"},{"town":"松富一丁目","koaza":"","lat":35.007115,"lng":138.37278,"zip":"4200941"},{"town":"松富二丁目","koaza":"","lat":35.011208,"lng":138.375027,"zip":"4200941"},{"town":"松富三丁目","koaza":"","lat":35.013971,"lng":138.375642,"zip":"4200941"},{"town":"松富四丁目","koaza":"","lat":35.016891,"lng":138.375505,"zip":"4200941"},{"town":"松富上組","koaza":"","lat":35.012246,"lng":138.378067,"zip":"4200942"},{"town":"松野","koaza":"","lat":35.086678,"lng":138.357348,"zip":"4212122"},{"town":"丸山町","koaza":"","lat":34.985567,"lng":138.376472,"zip":"4200861"},{"town":"美川町","koaza":"","lat":34.987456,"lng":138.360895,"zip":"4200875"},{"town":"水落町","koaza":"","lat":34.982416,"lng":138.387769,"zip":"4200831"},{"town":"水見色","koaza":"","lat":35.048442,"lng":138.296176,"zip":"4211313"},{"town":"緑町","koaza":"","lat":34.987395,"lng":138.392727,"zip":"4200844"},{"town":"南","koaza":"","lat":35.019312,"lng":138.382904,"zip":"4200956"},{"town":"南安倍一丁目","koaza":"","lat":34.961959,"lng":138.375353,"zip":"4200054"},{"town":"南安倍二丁目","koaza":"","lat":34.959738,"lng":138.372895,"zip":"4200054"},{"town":"南瀬名町","koaza":"","lat":35.004326,"lng":138.421157,"zip":"4200915"},{"town":"南田町","koaza":"","lat":34.964295,"lng":138.370273,"zip":"4200051"},{"town":"南沼上","koaza":"","lat":35.019549,"lng":138.412484,"zip":"4200905"},{"town":"南沼上一丁目","koaza":"","lat":35.008331,"lng":138.406359,"zip":"4200905"},{"town":"南沼上二丁目","koaza":"","lat":35.009109,"lng":138.410184,"zip":"4200905"},{"town":"南沼上三丁目","koaza":"","lat":35.015047,"lng":138.413621,"zip":"4200905"},{"town":"宮ヶ崎町","koaza":"","lat":34.982157,"lng":138.375814,"zip":"4220000"},{"town":"宮前町","koaza":"","lat":34.983522,"lng":138.405581,"zip":"4200822"},{"town":"御幸町","koaza":"","lat":34.97391,"lng":138.38645,"zip":"4200857"},{"town":"弥勒一丁目","koaza":"","lat":34.963203,"lng":138.371181,"zip":"4200053"},{"town":"弥勒二丁目","koaza":"","lat":34.960879,"lng":138.369071,"zip":"4200053"},{"town":"森腰","koaza":"","lat":35.124589,"lng":138.324423,"zip":"4212217"},{"town":"諸子沢","koaza":"","lat":35.114266,"lng":138.253889,"zip":"4211402"},{"town":"屋形町","koaza":"","lat":34.974706,"lng":138.376174,"zip":"4200028"},{"town":"八草","koaza":"","lat":35.115189,"lng":138.202284,"zip":"4211409"},{"town":"薬師","koaza":"","lat":35.026243,"lng":138.410387,"zip":"4200906"},{"town":"八千代町","koaza":"","lat":34.979013,"lng":138.374527,"zip":"4200013"},{"town":"谷津","koaza":"","lat":34.994973,"lng":138.29599,"zip":"4211202"},{"town":"柳町","koaza":"","lat":34.980489,"lng":138.361981,"zip":"4200007"},{"town":"柳原","koaza":"","lat":35.026783,"lng":138.394484,"zip":"4200964"},{"town":"山崎一丁目","koaza":"","lat":34.974253,"lng":138.356194,"zip":"4211213"},{"town":"山崎二丁目","koaza":"","lat":34.978957,"lng":138.35412,"zip":"4211213"},{"town":"油島","koaza":"","lat":35.113698,"lng":138.363241,"zip":"4212102"},{"town":"柚木町","koaza":"","lat":34.978528,"lng":138.372334,"zip":"4200012"},{"town":"油野","koaza":"","lat":35.167137,"lng":138.320182,"zip":"4212212"},{"town":"柚木","koaza":"","lat":34.982402,"lng":138.408165,"zip":"4200012"},{"town":"湯ノ島","koaza":"","lat":35.108228,"lng":138.218606,"zip":"4211406"},{"town":"油山","koaza":"","lat":35.071273,"lng":138.354428,"zip":"4212123"},{"town":"与一一丁目","koaza":"","lat":35.004876,"lng":138.366081,"zip":"4200949"},{"town":"与一二丁目","koaza":"","lat":35.007168,"lng":138.367383,"zip":"4200949"},{"town":"与一三丁目","koaza":"","lat":35.009299,"lng":138.368771,"zip":"4200949"},{"town":"与一四丁目","koaza":"","lat":35.008684,"lng":138.363343,"zip":"4200949"},{"town":"与一五丁目","koaza":"","lat":35.0131,"lng":138.366865,"zip":"4200949"},{"town":"与一六丁目","koaza":"","lat":35.017028,"lng":138.370416,"zip":"4200949"},{"town":"横内町","koaza":"","lat":34.983062,"lng":138.39138,"zip":"4200832"},{"town":"横沢","koaza":"","lat":35.138992,"lng":138.28456,"zip":"4212226"},{"town":"横田町","koaza":"","lat":34.977043,"lng":138.394916,"zip":"4200835"},{"town":"横山","koaza":"","lat":35.133602,"lng":138.379249,"zip":"4212307"},{"town":"与左衛門新田","koaza":"","lat":35.010871,"lng":138.358599,"zip":"4212115"},{"town":"吉津","koaza":"","lat":34.971789,"lng":138.315875,"zip":"4211223"},{"town":"吉野町","koaza":"","lat":34.966574,"lng":138.379347,"zip":"4200046"},{"town":"四番町","koaza":"","lat":34.973655,"lng":138.372388,"zip":"4200074"},{"town":"流通センター","koaza":"","lat":35.014839,"lng":138.405224,"zip":"4200922"},{"town":"竜南一丁目","koaza":"","lat":34.998206,"lng":138.397379,"zip":"4200804"},{"town":"竜南二丁目","koaza":"","lat":35.00227,"lng":138.400032,"zip":"4200804"},{"town":"竜南三丁目","koaza":"","lat":34.999685,"lng":138.40171,"zip":"4200804"},{"town":"両替町一丁目","koaza":"","lat":34.974654,"lng":138.379936,"zip":"4200032"},{"town":"両替町二丁目","koaza":"","lat":34.973344,"lng":138.383033,"zip":"4200032"},{"town":"六番町","koaza":"","lat":34.972552,"lng":138.372008,"zip":"4200076"},{"town":"若松町","koaza":"","lat":34.980769,"lng":138.367067,"zip":"4200006"},{"town":"蕨野","koaza":"","lat":35.124885,"lng":138.367256,"zip":"4212308"},{"town":"あさはた二丁目","koaza":"","lat":35.037926,"lng":138.392109,"zip":"4200968"},{"town":"北","koaza":"","lat":35.050214,"lng":138.402915,"zip":"4200961"},{"town":"北二丁目","koaza":"","lat":35.037773,"lng":138.395261,"zip":"4200961"},{"town":"北一丁目","koaza":"","lat":35.031724,"lng":138.394061,"zip":"4200961"},{"town":"あさはた一丁目","koaza":"","lat":35.035144,"lng":138.392937,"zip":"4200968"},{"town":"有永","koaza":"","lat":35.030171,"lng":138.387441,"zip":"4200965"},{"town":"羽高町","koaza":"","lat":35.034693,"lng":138.390787,"zip":"4200967"},{"town":"羽高","koaza":"","lat":35.033796,"lng":138.388298,"zip":"4200966"},{"town":"南一丁目","koaza":"","lat":35.01903,"lng":138.386583,"zip":"4200956"},{"town":"南二丁目","koaza":"","lat":35.022773,"lng":138.389026,"zip":"4200956"},{"town":"有永町","koaza":"","lat":35.029324,"lng":138.391106,"zip":"4200969"},{"town":"長沼南","koaza":"","lat":34.989575,"lng":138.417846,"zip":"4200814"},{"town":"東静岡一丁目","koaza":"","lat":34.986721,"lng":138.413701,"zip":"4200817"}]