[{"town":"阿多野","koaza":"","lat":35.350726,"lng":138.962001,"zip":"4101321"},{"town":"新柴","koaza":"","lat":35.308798,"lng":138.990416,"zip":"4101314"},{"town":"生土","koaza":"","lat":35.377586,"lng":138.998216,"zip":"4101303"},{"town":"一色","koaza":"","lat":35.344664,"lng":138.927682,"zip":"4101325"},{"town":"上野","koaza":"","lat":35.377348,"lng":138.950274,"zip":"4101306"},{"town":"大胡田","koaza":"","lat":35.338257,"lng":138.957559,"zip":"4101317"},{"town":"大御神","koaza":"","lat":35.375616,"lng":138.900373,"zip":"4101308"},{"town":"小山","koaza":"","lat":35.343584,"lng":139.003452,"zip":"4101311"},{"town":"上古城","koaza":"","lat":35.337969,"lng":138.947943,"zip":"4101323"},{"town":"桑木","koaza":"","lat":35.305884,"lng":138.980898,"zip":"4101315"},{"town":"下小林","koaza":"","lat":35.340196,"lng":138.935862,"zip":"4101324"},{"town":"下古城","koaza":"","lat":35.335856,"lng":138.969559,"zip":"4101316"},{"town":"菅沼","koaza":"","lat":35.350404,"lng":138.974447,"zip":"4101312"},{"town":"須走","koaza":"","lat":35.361576,"lng":138.809419,"zip":"4101431"},{"town":"竹之下","koaza":"","lat":35.326024,"lng":138.996542,"zip":"4101313"},{"town":"棚頭","koaza":"","lat":35.355149,"lng":138.942037,"zip":"4101327"},{"town":"中島","koaza":"","lat":35.369526,"lng":138.986652,"zip":"4101302"},{"town":"中日向","koaza":"","lat":35.379784,"lng":138.930459,"zip":"4101307"},{"town":"藤曲","koaza":"","lat":35.362026,"lng":138.981963,"zip":"4101304"},{"town":"柳島","koaza":"","lat":35.385984,"lng":138.983349,"zip":"4101301"},{"town":"湯船","koaza":"","lat":35.380072,"lng":138.965778,"zip":"4101305"},{"town":"用沢","koaza":"","lat":35.350832,"lng":138.924684,"zip":"4101326"},{"town":"吉久保","koaza":"","lat":35.343514,"lng":138.963946,"zip":"4101322"},{"town":"菅沼","koaza":"谷戸","lat":35.350149,"lng":138.974909,"zip":"4101312"}]