[{"town":"卸団地","koaza":"","lat":35.096057,"lng":138.908426,"zip":"4110912"},{"town":"柿田","koaza":"","lat":35.099923,"lng":138.896242,"zip":"4110904"},{"town":"久米田","koaza":"","lat":35.101418,"lng":138.911256,"zip":"4110911"},{"town":"新宿","koaza":"","lat":35.116371,"lng":138.903461,"zip":"4110901"},{"town":"玉川","koaza":"","lat":35.109867,"lng":138.904689,"zip":"4110902"},{"town":"堂庭","koaza":"","lat":35.10088,"lng":138.905293,"zip":"4110903"},{"town":"徳倉","koaza":"","lat":35.087579,"lng":138.900816,"zip":"4110917"},{"town":"戸田","koaza":"","lat":35.096578,"lng":138.911801,"zip":"4110913"},{"town":"長沢","koaza":"","lat":35.102656,"lng":138.891878,"zip":"4110905"},{"town":"中徳倉","koaza":"","lat":35.089836,"lng":138.895137,"zip":"4110916"},{"town":"畑中","koaza":"","lat":35.093148,"lng":138.912235,"zip":"4110914"},{"town":"伏見","koaza":"","lat":35.111688,"lng":138.896267,"zip":"4110907"},{"town":"的場","koaza":"","lat":35.089418,"lng":138.907278,"zip":"4110915"},{"town":"八幡","koaza":"","lat":35.106965,"lng":138.899708,"zip":"4110906"},{"town":"湯川","koaza":"","lat":35.092747,"lng":138.903811,"zip":"4110918"}]