[{"town":"上土狩","koaza":"","lat":35.145472,"lng":138.902719,"zip":"4110941"},{"town":"上長窪","koaza":"","lat":35.15412,"lng":138.87586,"zip":"4110935"},{"town":"桜堤一丁目","koaza":"","lat":35.143944,"lng":138.904277,"zip":"4110951"},{"town":"桜堤二丁目","koaza":"","lat":35.143613,"lng":138.906475,"zip":"4110951"},{"town":"桜堤三丁目","koaza":"","lat":35.146869,"lng":138.906218,"zip":"4110951"},{"town":"下土狩","koaza":"","lat":35.126542,"lng":138.898568,"zip":"4110943"},{"town":"下長窪","koaza":"","lat":35.147349,"lng":138.886915,"zip":"4110934"},{"town":"竹原","koaza":"","lat":35.11961,"lng":138.897717,"zip":"4110944"},{"town":"中土狩","koaza":"","lat":35.136678,"lng":138.903944,"zip":"4110942"},{"town":"納米里","koaza":"","lat":35.145897,"lng":138.896039,"zip":"4110933"},{"town":"東野","koaza":"","lat":35.188417,"lng":138.852586,"zip":"4110931"},{"town":"本宿","koaza":"","lat":35.120807,"lng":138.889595,"zip":"4110945"},{"town":"南一色","koaza":"","lat":35.157596,"lng":138.894275,"zip":"4110932"},{"town":"元長窪","koaza":"","lat":35.165473,"lng":138.865351,"zip":"4110936"},{"town":"南一色","koaza":"内田","lat":35.154294,"lng":138.896899,"zip":"4110932"},{"town":"南一色","koaza":"大平","lat":35.149639,"lng":138.893519,"zip":"4110932"}]