[{"town":"赤川町","koaza":"","lat":41.267566,"lng":141.212019,"zip":"0350044"},{"town":"旭町","koaza":"","lat":41.289548,"lng":141.178289,"zip":"0350076"},{"town":"荒川町","koaza":"","lat":41.296271,"lng":141.164227,"zip":"0350079"},{"town":"宇田町","koaza":"","lat":41.258701,"lng":141.142504,"zip":"0350092"},{"town":"海老川町","koaza":"","lat":41.288861,"lng":141.201764,"zip":"0350054"},{"town":"大字大平","koaza":"","lat":41.296962,"lng":141.164532,"zip":"0350000"},{"town":"大字大湊","koaza":"","lat":41.262716,"lng":141.128581,"zip":"0350000"},{"town":"大字奥内","koaza":"","lat":41.217975,"lng":141.285132,"zip":"0350000"},{"town":"大字城ヶ沢","koaza":"","lat":41.231788,"lng":141.106034,"zip":"0350000"},{"town":"大字関根","koaza":"","lat":41.359506,"lng":141.207815,"zip":"0350000"},{"town":"大字田名部","koaza":"","lat":41.289767,"lng":141.236132,"zip":"0350000"},{"town":"大字中野沢","koaza":"","lat":41.170953,"lng":141.28329,"zip":"0350000"},{"town":"大平町","koaza":"","lat":41.282212,"lng":141.166927,"zip":"0350083"},{"town":"大畑町","koaza":"","lat":41.37146,"lng":141.039145,"zip":"0394401"},{"town":"大曲一丁目","koaza":"","lat":41.268086,"lng":141.217911,"zip":"0350042"},{"town":"大曲二丁目","koaza":"","lat":41.260757,"lng":141.223802,"zip":"0350042"},{"town":"大曲三丁目","koaza":"","lat":41.255234,"lng":141.227805,"zip":"0350042"},{"town":"大湊上町","koaza":"","lat":41.271447,"lng":141.153144,"zip":"0350086"},{"town":"大湊新町","koaza":"","lat":41.283699,"lng":141.15935,"zip":"0350084"},{"town":"大湊町","koaza":"","lat":41.250586,"lng":141.137572,"zip":"0350093"},{"town":"大湊浜町","koaza":"","lat":41.27839,"lng":141.156245,"zip":"0350085"},{"town":"金曲一丁目","koaza":"","lat":41.28167,"lng":141.209555,"zip":"0350041"},{"town":"金曲二丁目","koaza":"","lat":41.276425,"lng":141.213529,"zip":"0350041"},{"town":"金曲三丁目","koaza":"","lat":41.274127,"lng":141.211088,"zip":"0350041"},{"town":"金谷一丁目","koaza":"","lat":41.296225,"lng":141.19806,"zip":"0350072"},{"town":"金谷二丁目","koaza":"","lat":41.294446,"lng":141.191863,"zip":"0350072"},{"town":"上川町","koaza":"","lat":41.300205,"lng":141.220333,"zip":"0350032"},{"town":"川内町","koaza":"","lat":41.268681,"lng":140.982645,"zip":"0395204"},{"town":"川内町蛎崎","koaza":"","lat":41.175498,"lng":140.889897,"zip":"0395204"},{"town":"川内町宿野部","koaza":"","lat":41.189888,"lng":140.934983,"zip":"0395203"},{"town":"川内町桧川","koaza":"","lat":41.195058,"lng":140.959602,"zip":"0395202"},{"town":"川守町","koaza":"","lat":41.263799,"lng":141.148924,"zip":"0350091"},{"town":"栗山町","koaza":"","lat":41.30366,"lng":141.207432,"zip":"0350036"},{"town":"小川町一丁目","koaza":"","lat":41.296664,"lng":141.20429,"zip":"0350071"},{"town":"小川町二丁目","koaza":"","lat":41.296098,"lng":141.209385,"zip":"0350071"},{"town":"桜木町","koaza":"","lat":41.251194,"lng":141.132358,"zip":"0350094"},{"town":"下北町","koaza":"","lat":41.285365,"lng":141.191384,"zip":"0350061"},{"town":"十二林","koaza":"","lat":41.297953,"lng":141.188547,"zip":"0350067"},{"town":"昭和町","koaza":"","lat":41.284196,"lng":141.204202,"zip":"0350052"},{"town":"新町","koaza":"","lat":41.288891,"lng":141.212097,"zip":"0350051"},{"town":"田名部町","koaza":"","lat":41.295559,"lng":141.215603,"zip":"0350034"},{"town":"中央一丁目","koaza":"","lat":41.292589,"lng":141.186225,"zip":"0350073"},{"town":"中央二丁目","koaza":"","lat":41.290081,"lng":141.183463,"zip":"0350073"},{"town":"苫生町一丁目","koaza":"","lat":41.286608,"lng":141.219049,"zip":"0350055"},{"town":"苫生町二丁目","koaza":"","lat":41.283159,"lng":141.214627,"zip":"0350055"},{"town":"仲町","koaza":"","lat":41.280998,"lng":141.198102,"zip":"0350062"},{"town":"並川町","koaza":"","lat":41.289006,"lng":141.162235,"zip":"0350081"},{"town":"文京町","koaza":"","lat":41.289663,"lng":141.167083,"zip":"0350082"},{"town":"本町","koaza":"","lat":41.294465,"lng":141.212664,"zip":"0350035"},{"town":"真砂町","koaza":"","lat":41.28226,"lng":141.177063,"zip":"0350075"},{"town":"松原町","koaza":"","lat":41.267728,"lng":141.206382,"zip":"0350045"},{"town":"松森町","koaza":"","lat":41.299198,"lng":141.158334,"zip":"0350078"},{"town":"松山町","koaza":"","lat":41.301348,"lng":141.197744,"zip":"0350065"},{"town":"美里町","koaza":"","lat":41.300093,"lng":141.182652,"zip":"0350068"},{"town":"緑ヶ丘","koaza":"","lat":41.300607,"lng":141.190785,"zip":"0350066"},{"town":"緑町","koaza":"","lat":41.287289,"lng":141.195977,"zip":"0350053"},{"town":"港町","koaza":"","lat":41.278766,"lng":141.18196,"zip":"0350064"},{"town":"南赤川町","koaza":"","lat":41.257735,"lng":141.220032,"zip":"0350043"},{"town":"南町","koaza":"","lat":41.273274,"lng":141.205706,"zip":"0350046"},{"town":"柳町一丁目","koaza":"","lat":41.297053,"lng":141.213725,"zip":"0350031"},{"town":"柳町二丁目","koaza":"","lat":41.299806,"lng":141.213901,"zip":"0350031"},{"town":"柳町三丁目","koaza":"","lat":41.302697,"lng":141.215389,"zip":"0350031"},{"town":"柳町四丁目","koaza":"","lat":41.305832,"lng":141.214494,"zip":"0350031"},{"town":"山田町","koaza":"","lat":41.291676,"lng":141.171599,"zip":"0350077"},{"town":"横迎町一丁目","koaza":"","lat":41.291144,"lng":141.220267,"zip":"0350033"},{"town":"横迎町二丁目","koaza":"","lat":41.295398,"lng":141.220762,"zip":"0350033"},{"town":"若松町","koaza":"","lat":41.277073,"lng":141.201833,"zip":"0350063"},{"town":"脇野沢","koaza":"","lat":41.176862,"lng":140.824708,"zip":"0395345"},{"town":"大字城ヶ沢","koaza":"中丁塚","lat":41.231614,"lng":141.120614,"zip":"0350000"},{"town":"大字大湊","koaza":"大近川","lat":41.249683,"lng":141.119053,"zip":"0350000"},{"town":"大字城ヶ沢","koaza":"堺田","lat":41.236058,"lng":141.124608,"zip":"0350000"},{"town":"大字城ヶ沢","koaza":"重星","lat":41.237095,"lng":141.125679,"zip":"0350000"},{"town":"大字大湊","koaza":"宇曽利川村","lat":41.238382,"lng":141.128701,"zip":"0350000"},{"town":"大字大湊","koaza":"宇曽利川村下","lat":41.239043,"lng":141.132094,"zip":"0350000"},{"town":"大字大湊","koaza":"水上ノ内薪取道","lat":41.260632,"lng":141.14029,"zip":"0350000"},{"town":"大畑町","koaza":"堂近","lat":41.390136,"lng":141.141712,"zip":"0394401"},{"town":"大字大湊","koaza":"八森ノ内大久保","lat":41.281028,"lng":141.148713,"zip":"0350000"},{"town":"大畑町","koaza":"柳沢","lat":41.376883,"lng":141.145816,"zip":"0394401"},{"town":"大畑町","koaza":"関根橋","lat":41.381228,"lng":141.149307,"zip":"0394401"},{"town":"大畑町","koaza":"谷地道","lat":41.387449,"lng":141.152216,"zip":"0394401"},{"town":"大畑町","koaza":"松ノ木","lat":41.398664,"lng":141.154297,"zip":"0394401"},{"town":"大字大湊","koaza":"近川","lat":41.281079,"lng":141.151016,"zip":"0350000"},{"town":"大畑町","koaza":"鳥谷場","lat":41.380598,"lng":141.162546,"zip":"0394401"},{"town":"大畑町","koaza":"釣屋浜","lat":41.41631,"lng":141.155061,"zip":"0394401"},{"town":"大畑町","koaza":"兎沢","lat":41.395177,"lng":141.156884,"zip":"0394401"},{"town":"大畑町","koaza":"湯坂下","lat":41.406118,"lng":141.157762,"zip":"0394401"},{"town":"大畑町","koaza":"大畑道","lat":41.413778,"lng":141.158968,"zip":"0394401"},{"town":"大畑町","koaza":"松ノ木道","lat":41.399695,"lng":141.155848,"zip":"0394401"},{"town":"大字関根","koaza":"新田川目","lat":41.370627,"lng":141.165753,"zip":"0350000"},{"town":"大畑町","koaza":"二枚橋","lat":41.41597,"lng":141.158561,"zip":"0394401"},{"town":"大畑町","koaza":"松ノ木ノ内観音堂","lat":41.398645,"lng":141.156673,"zip":"0394401"},{"town":"大畑町","koaza":"観音堂","lat":41.398551,"lng":141.157543,"zip":"0394401"},{"town":"大畑町","koaza":"南町","lat":41.401275,"lng":141.158494,"zip":"0394401"},{"town":"大畑町","koaza":"本町","lat":41.400919,"lng":141.160782,"zip":"0394401"},{"town":"大畑町","koaza":"新町","lat":41.404922,"lng":141.161088,"zip":"0394401"},{"town":"大畑町","koaza":"八幡湯坂","lat":41.410005,"lng":141.162645,"zip":"0394401"},{"town":"大畑町","koaza":"上野","lat":41.400571,"lng":141.171055,"zip":"0394401"},{"town":"大畑町","koaza":"庚申堂","lat":41.401649,"lng":141.163189,"zip":"0394401"},{"town":"大畑町","koaza":"湊村","lat":41.408969,"lng":141.168161,"zip":"0394401"},{"town":"大畑町","koaza":"孫次郎間","lat":41.413326,"lng":141.16386,"zip":"0394401"},{"town":"大畑町","koaza":"涌舘","lat":41.411991,"lng":141.164289,"zip":"0394401"},{"town":"大畑町","koaza":"中島","lat":41.406921,"lng":141.166674,"zip":"0394401"},{"town":"大畑町","koaza":"大畑村","lat":41.403557,"lng":141.163903,"zip":"0394401"},{"town":"大畑町","koaza":"東町","lat":41.403614,"lng":141.164941,"zip":"0394401"},{"town":"大畑町","koaza":"筒万坂","lat":41.402336,"lng":141.165637,"zip":"0394401"},{"town":"大畑町","koaza":"本門寺前","lat":41.404412,"lng":141.166398,"zip":"0394401"},{"town":"大畑町","koaza":"伊勢堂","lat":41.404706,"lng":141.170527,"zip":"0394401"},{"town":"大字大平","koaza":"落野沢","lat":41.301021,"lng":141.168201,"zip":"0350000"},{"town":"大字田名部","koaza":"後田","lat":41.311326,"lng":141.183373,"zip":"0350000"},{"town":"大畑町","koaza":"水木沢","lat":41.397722,"lng":141.174093,"zip":"0394401"},{"town":"大畑町","koaza":"戦敷","lat":41.400349,"lng":141.17319,"zip":"0394401"},{"town":"大字田名部","koaza":"矢立山","lat":41.304003,"lng":141.174686,"zip":"0350000"},{"town":"大字関根","koaza":"高梨川目","lat":41.353826,"lng":141.178726,"zip":"0350000"},{"town":"大畑町","koaza":"正津川戦敷","lat":41.394232,"lng":141.177792,"zip":"0394401"},{"town":"大字田名部","koaza":"高田","lat":41.295536,"lng":141.177971,"zip":"0350000"},{"town":"大字田名部","koaza":"頭梨子","lat":41.30449,"lng":141.178296,"zip":"0350000"},{"town":"大字田名部","koaza":"二又川目","lat":41.307568,"lng":141.186343,"zip":"0350000"},{"town":"大畑町","koaza":"正津川平","lat":41.39271,"lng":141.18311,"zip":"0394401"},{"town":"大畑町","koaza":"正津川","lat":41.389677,"lng":141.188031,"zip":"0394401"},{"town":"大畑町","koaza":"正津川高待","lat":41.387929,"lng":141.18851,"zip":"0394401"},{"town":"大字関根","koaza":"前浜","lat":41.376615,"lng":141.20933,"zip":"0350000"},{"town":"大字関根","koaza":"烏沢","lat":41.384882,"lng":141.193483,"zip":"0350000"},{"town":"大字関根","koaza":"安畑","lat":41.380136,"lng":141.197915,"zip":"0350000"},{"town":"大字田名部","koaza":"松山","lat":41.304949,"lng":141.196676,"zip":"0350000"},{"town":"大字関根","koaza":"北関根ノ内休場","lat":41.352452,"lng":141.199933,"zip":"0350000"},{"town":"大字関根","koaza":"南関根","lat":41.352269,"lng":141.211376,"zip":"0350000"},{"town":"大字関根","koaza":"北関根","lat":41.357982,"lng":141.217907,"zip":"0350000"},{"town":"大字関根","koaza":"川代","lat":41.376388,"lng":141.204055,"zip":"0350000"},{"town":"大字田名部","koaza":"北椛山","lat":41.328746,"lng":141.215257,"zip":"0350000"},{"town":"大字田名部","koaza":"山道","lat":41.30951,"lng":141.207514,"zip":"0350000"},{"town":"大字田名部","koaza":"南椛山","lat":41.325277,"lng":141.217215,"zip":"0350000"},{"town":"大字関根","koaza":"出戸川目","lat":41.370647,"lng":141.210027,"zip":"0350000"},{"town":"大字関根","koaza":"川代川目","lat":41.375924,"lng":141.209604,"zip":"0350000"},{"town":"大字田名部","koaza":"山道ノ内南女舘","lat":41.309121,"lng":141.213539,"zip":"0350000"},{"town":"大字関根","koaza":"北関根ノ内袖角地","lat":41.36791,"lng":141.20983,"zip":"0350000"},{"town":"大字田名部","koaza":"道向","lat":41.307318,"lng":141.212801,"zip":"0350000"},{"town":"大字田名部","koaza":"女舘","lat":41.308016,"lng":141.215912,"zip":"0350000"},{"town":"大字田名部","koaza":"槌川目","lat":41.30769,"lng":141.21959,"zip":"0350000"},{"town":"大字田名部","koaza":"下平","lat":41.332384,"lng":141.216429,"zip":"0350000"},{"town":"大字田名部","koaza":"宮後","lat":41.328154,"lng":141.216,"zip":"0350000"},{"town":"大字田名部","koaza":"前川目","lat":41.329732,"lng":141.217985,"zip":"0350000"},{"town":"大字田名部","koaza":"小平舘ノ内尻釜","lat":41.315707,"lng":141.220037,"zip":"0350000"},{"town":"大字田名部","koaza":"小平舘","lat":41.316536,"lng":141.21997,"zip":"0350000"},{"town":"大字田名部","koaza":"柳浦","lat":41.307419,"lng":141.216183,"zip":"0350000"},{"town":"大字田名部","koaza":"前田","lat":41.305829,"lng":141.219304,"zip":"0350000"},{"town":"大字田名部","koaza":"上川","lat":41.304122,"lng":141.223918,"zip":"0350000"},{"town":"大字田名部","koaza":"赤川ノ内並木","lat":41.249528,"lng":141.23463,"zip":"0350000"},{"town":"大字田名部","koaza":"内田","lat":41.274574,"lng":141.236802,"zip":"0350000"},{"town":"大字田名部","koaza":"袰部","lat":41.289611,"lng":141.222356,"zip":"0350000"},{"town":"大字田名部","koaza":"土手内","lat":41.298112,"lng":141.2421,"zip":"0350000"},{"town":"大字田名部","koaza":"下川","lat":41.296165,"lng":141.228445,"zip":"0350000"},{"town":"大字田名部","koaza":"品ノ木","lat":41.292411,"lng":141.228674,"zip":"0350000"},{"town":"大字田名部","koaza":"下道","lat":41.297954,"lng":141.232215,"zip":"0350000"},{"town":"大字田名部","koaza":"上道","lat":41.293666,"lng":141.233023,"zip":"0350000"},{"town":"大字田名部","koaza":"斗南岡","lat":41.290506,"lng":141.237705,"zip":"0350000"},{"town":"大字関根","koaza":"水川目","lat":41.341233,"lng":141.231756,"zip":"0350000"},{"town":"大字田名部","koaza":"最花","lat":41.294293,"lng":141.250753,"zip":"0350000"},{"town":"大字奥内","koaza":"中野","lat":41.206118,"lng":141.274006,"zip":"0350000"},{"town":"大字奥内","koaza":"近川","lat":41.193238,"lng":141.280542,"zip":"0350000"},{"town":"大字田名部","koaza":"三本松","lat":41.299488,"lng":141.237725,"zip":"0350000"},{"town":"大字田名部","koaza":"赤川","lat":41.249991,"lng":141.232366,"zip":"0350000"},{"town":"大字奥内","koaza":"江豚沢","lat":41.197338,"lng":141.271578,"zip":"0350000"},{"town":"大字奥内","koaza":"中道","lat":41.207139,"lng":141.271433,"zip":"0350000"},{"town":"大字大湊","koaza":"大川守","lat":41.263795,"lng":141.139938,"zip":"0350000"},{"town":"大字大湊","koaza":"鷹待","lat":41.270304,"lng":141.148533,"zip":"0350000"},{"town":"大字田名部","koaza":"落野沢","lat":41.301733,"lng":141.169803,"zip":"0350000"},{"town":"大字田名部","koaza":"二又","lat":41.314153,"lng":141.177399,"zip":"0350000"},{"town":"大字田名部","koaza":"立山","lat":41.315858,"lng":141.176944,"zip":"0350000"},{"town":"大字田名部","koaza":"寺崎ノ内北女舘","lat":41.312544,"lng":141.213839,"zip":"0350000"},{"town":"大字関根","koaza":"名子","lat":41.344138,"lng":141.213068,"zip":"0350000"},{"town":"大字奥内","koaza":"姥沢","lat":41.200295,"lng":141.277815,"zip":"0350000"},{"town":"大字奥内","koaza":"栖立場","lat":41.198493,"lng":141.281459,"zip":"0350000"},{"town":"大畑町","koaza":"高橋川","lat":41.394271,"lng":141.134182,"zip":"0394401"},{"town":"大字大湊","koaza":"宇曽利川村ノ内大道下","lat":41.238392,"lng":141.125122,"zip":"0350000"},{"town":"大字城ヶ沢","koaza":"上堺田","lat":41.235503,"lng":141.122365,"zip":"0350000"}]