[{"town":"大字赤保内","koaza":"","lat":40.443771,"lng":141.61063,"zip":"0391200"},{"town":"大字金山沢","koaza":"","lat":40.439204,"lng":141.53875,"zip":"0391200"},{"town":"大字田代","koaza":"","lat":40.377212,"lng":141.558853,"zip":"0391200"},{"town":"大字角柄折","koaza":"","lat":40.454772,"lng":141.572887,"zip":"0391200"},{"town":"大字道仏","koaza":"","lat":40.448238,"lng":141.649675,"zip":"0391200"},{"town":"大字鳥屋部","koaza":"","lat":40.422739,"lng":141.599274,"zip":"0391200"},{"town":"大字晴山沢","koaza":"","lat":40.39944,"lng":141.554906,"zip":"0391200"},{"town":"大字平内","koaza":"","lat":40.42076,"lng":141.556793,"zip":"0391200"},{"town":"蒼前西一丁目","koaza":"","lat":40.477659,"lng":141.568939,"zip":"0391212"},{"town":"蒼前西二丁目","koaza":"","lat":40.476699,"lng":141.571969,"zip":"0391212"},{"town":"蒼前西三丁目","koaza":"","lat":40.473716,"lng":141.573761,"zip":"0391212"},{"town":"蒼前西四丁目","koaza":"","lat":40.472144,"lng":141.570563,"zip":"0391212"},{"town":"蒼前西五丁目","koaza":"","lat":40.473923,"lng":141.567739,"zip":"0391212"},{"town":"蒼前西六丁目","koaza":"","lat":40.474882,"lng":141.562402,"zip":"0391212"},{"town":"蒼前西七丁目","koaza":"","lat":40.477856,"lng":141.575514,"zip":"0391212"},{"town":"蒼前東一丁目","koaza":"","lat":40.475,"lng":141.582433,"zip":"0391211"},{"town":"蒼前東二丁目","koaza":"","lat":40.472188,"lng":141.590239,"zip":"0391211"},{"town":"蒼前東三丁目","koaza":"","lat":40.468439,"lng":141.587012,"zip":"0391211"},{"town":"蒼前東四丁目","koaza":"","lat":40.470595,"lng":141.58088,"zip":"0391211"},{"town":"蒼前東五丁目","koaza":"","lat":40.473976,"lng":141.578627,"zip":"0391211"},{"town":"蒼前東六丁目","koaza":"","lat":40.470154,"lng":141.576796,"zip":"0391211"},{"town":"蒼前東七丁目","koaza":"","lat":40.468203,"lng":141.580442,"zip":"0391211"},{"town":"蒼前東八丁目","koaza":"","lat":40.46607,"lng":141.577644,"zip":"0391211"},{"town":"大字田代","koaza":"蛇平","lat":40.401358,"lng":141.522334,"zip":"0391200"},{"town":"大字金山沢","koaza":"長久保","lat":40.444147,"lng":141.522967,"zip":"0391200"},{"town":"大字金山沢","koaza":"戸久世","lat":40.430585,"lng":141.521646,"zip":"0391200"},{"town":"大字金山沢","koaza":"藤子","lat":40.442263,"lng":141.523424,"zip":"0391200"},{"town":"大字金山沢","koaza":"伴蔵","lat":40.434828,"lng":141.523626,"zip":"0391200"},{"town":"大字金山沢","koaza":"清水頭","lat":40.423896,"lng":141.523861,"zip":"0391200"},{"town":"大字金山沢","koaza":"越渡","lat":40.428768,"lng":141.523577,"zip":"0391200"},{"town":"大字金山沢","koaza":"小板橋","lat":40.455846,"lng":141.523267,"zip":"0391200"},{"town":"大字金山沢","koaza":"野場","lat":40.431348,"lng":141.526505,"zip":"0391200"},{"town":"大字金山沢","koaza":"鎌津倉","lat":40.425212,"lng":141.534634,"zip":"0391200"},{"town":"大字田代","koaza":"松原","lat":40.399663,"lng":141.531167,"zip":"0391200"},{"town":"大字田代","koaza":"番屋","lat":40.395433,"lng":141.529263,"zip":"0391200"},{"town":"大字金山沢","koaza":"下平","lat":40.428692,"lng":141.531345,"zip":"0391200"},{"town":"大字田代","koaza":"道合","lat":40.394652,"lng":141.53107,"zip":"0391200"},{"town":"大字晴山沢","koaza":"北向","lat":40.413374,"lng":141.535338,"zip":"0391200"},{"town":"大字田代","koaza":"沢田","lat":40.39648,"lng":141.533123,"zip":"0391200"},{"town":"大字晴山沢","koaza":"天満下","lat":40.405202,"lng":141.53715,"zip":"0391200"},{"town":"大字晴山沢","koaza":"明堂","lat":40.412027,"lng":141.537104,"zip":"0391200"},{"town":"大字晴山沢","koaza":"坂ノ脇","lat":40.41535,"lng":141.538927,"zip":"0391200"},{"town":"大字晴山沢","koaza":"中城","lat":40.41391,"lng":141.538884,"zip":"0391200"},{"town":"大字金山沢","koaza":"大畑","lat":40.438013,"lng":141.538479,"zip":"0391200"},{"town":"大字金山沢","koaza":"金山沢","lat":40.440303,"lng":141.53893,"zip":"0391200"},{"town":"大字田代","koaza":"銭蒔","lat":40.381947,"lng":141.539977,"zip":"0391200"},{"town":"大字晴山沢","koaza":"上平長根","lat":40.402245,"lng":141.53971,"zip":"0391200"},{"town":"大字晴山沢","koaza":"長根","lat":40.406087,"lng":141.539876,"zip":"0391200"},{"town":"大字晴山沢","koaza":"上ノ山","lat":40.405063,"lng":141.54026,"zip":"0391200"},{"town":"大字晴山沢","koaza":"根岸","lat":40.409702,"lng":141.542607,"zip":"0391200"},{"town":"大字金山沢","koaza":"向","lat":40.440758,"lng":141.540713,"zip":"0391200"},{"town":"大字田代","koaza":"妙川","lat":40.382549,"lng":141.544352,"zip":"0391200"},{"town":"大字平内","koaza":"向長根","lat":40.417225,"lng":141.54691,"zip":"0391200"},{"town":"大字平内","koaza":"登切","lat":40.414913,"lng":141.545782,"zip":"0391200"},{"town":"大字平内","koaza":"滝端","lat":40.415414,"lng":141.548452,"zip":"0391200"},{"town":"大字平内","koaza":"下西","lat":40.422253,"lng":141.547919,"zip":"0391200"},{"town":"大字金山沢","koaza":"小水無","lat":40.441226,"lng":141.551478,"zip":"0391200"},{"town":"大字平内","koaza":"西","lat":40.417569,"lng":141.549704,"zip":"0391200"},{"town":"大字角柄折","koaza":"神子沢","lat":40.453683,"lng":141.558059,"zip":"0391200"},{"town":"大字平内","koaza":"中渡","lat":40.416621,"lng":141.553823,"zip":"0391200"},{"town":"大字平内","koaza":"平内","lat":40.423481,"lng":141.554385,"zip":"0391200"},{"town":"大字平内","koaza":"百目木","lat":40.415154,"lng":141.552744,"zip":"0391200"},{"town":"大字平内","koaza":"鳩","lat":40.419367,"lng":141.556101,"zip":"0391200"},{"town":"大字平内","koaza":"向","lat":40.423732,"lng":141.556092,"zip":"0391200"},{"town":"大字金山沢","koaza":"金草","lat":40.443291,"lng":141.548889,"zip":"0391200"},{"town":"大字金山沢","koaza":"新田","lat":40.441214,"lng":141.563031,"zip":"0391200"},{"town":"大字角柄折","koaza":"柳平","lat":40.448589,"lng":141.562352,"zip":"0391200"},{"town":"大字金山沢","koaza":"南平","lat":40.443538,"lng":141.562982,"zip":"0391200"},{"town":"大字平内","koaza":"堀切","lat":40.427702,"lng":141.561264,"zip":"0391200"},{"town":"大字角柄折","koaza":"南平","lat":40.442452,"lng":141.56652,"zip":"0391200"},{"town":"大字角柄折","koaza":"志民","lat":40.467767,"lng":141.568451,"zip":"0391200"},{"town":"大字鳥屋部","koaza":"鷹ノ巣","lat":40.439779,"lng":141.566458,"zip":"0391200"},{"town":"大字角柄折","koaza":"上ミ","lat":40.446623,"lng":141.568147,"zip":"0391200"},{"town":"大字角柄折","koaza":"外越","lat":40.470758,"lng":141.567391,"zip":"0391200"},{"town":"大字鳥屋部","koaza":"出口","lat":40.43873,"lng":141.569582,"zip":"0391200"},{"town":"大字角柄折","koaza":"蕨","lat":40.441362,"lng":141.571014,"zip":"0391200"},{"town":"大字角柄折","koaza":"南","lat":40.44586,"lng":141.573243,"zip":"0391200"},{"town":"大字角柄折","koaza":"向","lat":40.449102,"lng":141.571634,"zip":"0391200"},{"town":"大字角柄折","koaza":"正部家前","lat":40.448008,"lng":141.571959,"zip":"0391200"},{"town":"大字角柄折","koaza":"志民久保","lat":40.466232,"lng":141.575036,"zip":"0391200"},{"town":"大字鳥屋部","koaza":"大鶴音","lat":40.437565,"lng":141.576812,"zip":"0391200"},{"town":"大字鳥屋部","koaza":"平","lat":40.435659,"lng":141.575223,"zip":"0391200"},{"town":"大字角柄折","koaza":"仁田","lat":40.463238,"lng":141.575295,"zip":"0391200"},{"town":"大字鳥屋部","koaza":"狐平","lat":40.433002,"lng":141.57654,"zip":"0391200"},{"town":"大字鳥屋部","koaza":"大柿","lat":40.429831,"lng":141.577096,"zip":"0391200"},{"town":"大字角柄折","koaza":"石鉢","lat":40.461121,"lng":141.575838,"zip":"0391200"},{"town":"大字角柄折","koaza":"十文字","lat":40.45477,"lng":141.579599,"zip":"0391200"},{"town":"大字角柄折","koaza":"大沼","lat":40.445285,"lng":141.575765,"zip":"0391200"},{"town":"大字角柄折","koaza":"仁田久保","lat":40.461402,"lng":141.578569,"zip":"0391200"},{"town":"大字角柄折","koaza":"沼","lat":40.442407,"lng":141.573932,"zip":"0391200"},{"town":"大字鳥屋部","koaza":"天摩窪","lat":40.434416,"lng":141.580426,"zip":"0391200"},{"town":"大字鳥屋部","koaza":"芦間沢","lat":40.429138,"lng":141.578916,"zip":"0391200"},{"town":"大字角柄折","koaza":"新田","lat":40.461875,"lng":141.585248,"zip":"0391200"},{"town":"大字鳥屋部","koaza":"久保","lat":40.431217,"lng":141.579298,"zip":"0391200"},{"town":"大字鳥屋部","koaza":"皀角平","lat":40.429896,"lng":141.580383,"zip":"0391200"},{"town":"大字鳥屋部","koaza":"福立沢","lat":40.429569,"lng":141.579691,"zip":"0391200"},{"town":"大字鳥屋部","koaza":"林前","lat":40.43246,"lng":141.581044,"zip":"0391200"},{"town":"大字角柄折","koaza":"外堀","lat":40.463318,"lng":141.584795,"zip":"0391200"},{"town":"大字角柄折","koaza":"平","lat":40.449475,"lng":141.584928,"zip":"0391200"},{"town":"大字鳥屋部","koaza":"下屋敷","lat":40.432344,"lng":141.586084,"zip":"0391200"},{"town":"大字鳥屋部","koaza":"上ノ平","lat":40.43533,"lng":141.586444,"zip":"0391200"},{"town":"大字角柄折","koaza":"新沼館","lat":40.464039,"lng":141.588448,"zip":"0391200"},{"town":"大字角柄折","koaza":"蝙蝠","lat":40.447943,"lng":141.588838,"zip":"0391200"},{"town":"大字鳥屋部","koaza":"上ノ山","lat":40.433796,"lng":141.589999,"zip":"0391200"},{"town":"大字角柄折","koaza":"東平","lat":40.460951,"lng":141.589748,"zip":"0391200"},{"town":"大字角柄折","koaza":"大渡","lat":40.46439,"lng":141.591545,"zip":"0391200"},{"town":"大字鳥屋部","koaza":"下平","lat":40.437791,"lng":141.596797,"zip":"0391200"},{"town":"大字赤保内","koaza":"大渡","lat":40.464163,"lng":141.59663,"zip":"0391200"},{"town":"大字赤保内","koaza":"田端","lat":40.45026,"lng":141.598751,"zip":"0391200"},{"town":"大字道仏","koaza":"耳ケ吠","lat":40.457967,"lng":141.609105,"zip":"0391200"},{"town":"大字赤保内","koaza":"水溜","lat":40.435899,"lng":141.607923,"zip":"0391200"},{"town":"大字赤保内","koaza":"茨島下","lat":40.442614,"lng":141.605457,"zip":"0391200"},{"town":"大字赤保内","koaza":"茨島","lat":40.44195,"lng":141.603477,"zip":"0391200"},{"town":"大字赤保内","koaza":"外平","lat":40.4536,"lng":141.609847,"zip":"0391200"},{"town":"大字道仏","koaza":"横沢山","lat":40.462235,"lng":141.615322,"zip":"0391200"},{"town":"大字赤保内","koaza":"野沢","lat":40.444618,"lng":141.613266,"zip":"0391200"},{"town":"大字赤保内","koaza":"耳ケ吠","lat":40.452046,"lng":141.613639,"zip":"0391200"},{"town":"大字道仏","koaza":"松森","lat":40.470411,"lng":141.63207,"zip":"0391200"},{"town":"大字赤保内","koaza":"建場","lat":40.440867,"lng":141.617012,"zip":"0391200"},{"town":"大字赤保内","koaza":"道仏道添","lat":40.447582,"lng":141.620964,"zip":"0391200"},{"town":"大字道仏","koaza":"天当平","lat":40.450979,"lng":141.627053,"zip":"0391200"},{"town":"大字赤保内","koaza":"新ラ田","lat":40.443676,"lng":141.618873,"zip":"0391200"},{"town":"大字赤保内","koaza":"鹿糠","lat":40.442614,"lng":141.618576,"zip":"0391200"},{"town":"大字赤保内","koaza":"寺下","lat":40.433961,"lng":141.631231,"zip":"0391200"},{"town":"大字道仏","koaza":"町道端","lat":40.443775,"lng":141.63458,"zip":"0391200"},{"town":"大字道仏","koaza":"大蛇","lat":40.468797,"lng":141.644019,"zip":"0391200"},{"town":"大字道仏","koaza":"犬石","lat":40.464975,"lng":141.632474,"zip":"0391200"},{"town":"大字道仏","koaza":"乙沢","lat":40.441789,"lng":141.635994,"zip":"0391200"},{"town":"大字道仏","koaza":"法師窪","lat":40.446496,"lng":141.640256,"zip":"0391200"},{"town":"大字道仏","koaza":"鹿糠","lat":40.448187,"lng":141.646971,"zip":"0391200"},{"town":"大字道仏","koaza":"野附窪","lat":40.445959,"lng":141.642971,"zip":"0391200"},{"town":"大字道仏","koaza":"藤沢","lat":40.4522,"lng":141.644513,"zip":"0391200"},{"town":"大字道仏","koaza":"上野前","lat":40.438072,"lng":141.645047,"zip":"0391200"},{"town":"大字道仏","koaza":"荒谷","lat":40.461438,"lng":141.644187,"zip":"0391200"},{"town":"大字道仏","koaza":"上野窪","lat":40.44064,"lng":141.642231,"zip":"0391200"},{"town":"大字道仏","koaza":"程熊","lat":40.465286,"lng":141.6458,"zip":"0391200"},{"town":"大字道仏","koaza":"牛河原","lat":40.460534,"lng":141.650124,"zip":"0391200"},{"town":"大字道仏","koaza":"上天摩","lat":40.442347,"lng":141.64864,"zip":"0391200"},{"town":"大字道仏","koaza":"浜久保","lat":40.465025,"lng":141.653677,"zip":"0391200"},{"town":"大字道仏","koaza":"銀杏木窪","lat":40.438933,"lng":141.651115,"zip":"0391200"},{"town":"大字道仏","koaza":"大蛇長根","lat":40.449636,"lng":141.654468,"zip":"0391200"},{"town":"大字道仏","koaza":"榊","lat":40.457881,"lng":141.657697,"zip":"0391200"},{"town":"大字道仏","koaza":"榊平","lat":40.462103,"lng":141.657193,"zip":"0391200"},{"town":"大字道仏","koaza":"外窪","lat":40.447315,"lng":141.651363,"zip":"0391200"},{"town":"大字道仏","koaza":"下桑木","lat":40.441839,"lng":141.66101,"zip":"0391200"},{"town":"大字道仏","koaza":"向","lat":40.455521,"lng":141.657251,"zip":"0391200"},{"town":"大字道仏","koaza":"石渡窪","lat":40.444942,"lng":141.658286,"zip":"0391200"},{"town":"大字道仏","koaza":"榊山","lat":40.458243,"lng":141.663053,"zip":"0391200"},{"town":"大字道仏","koaza":"横沢","lat":40.453458,"lng":141.661955,"zip":"0391200"},{"town":"大字道仏","koaza":"追立窪","lat":40.448892,"lng":141.66641,"zip":"0391200"},{"town":"大字道仏","koaza":"芋ノ窪","lat":40.451189,"lng":141.669443,"zip":"0391200"},{"town":"大字道仏","koaza":"泉田窪","lat":40.447899,"lng":141.670255,"zip":"0391200"},{"town":"大字道仏","koaza":"小舟渡","lat":40.452087,"lng":141.67153,"zip":"0391200"},{"town":"大字道仏","koaza":"下大古里","lat":40.445978,"lng":141.67269,"zip":"0391200"},{"town":"大字道仏","koaza":"天満ノ木","lat":40.449961,"lng":141.676857,"zip":"0391200"},{"town":"大字道仏","koaza":"廿一","lat":40.452121,"lng":141.678287,"zip":"0391200"},{"town":"大字道仏","koaza":"沢前戸","lat":40.451631,"lng":141.675621,"zip":"0391200"},{"town":"大字角柄折","koaza":"軽井沢","lat":40.470583,"lng":141.567147,"zip":"0391200"},{"town":"大字角柄折","koaza":"正部家","lat":40.45634,"lng":141.571604,"zip":"0391200"},{"town":"大字角柄折","koaza":"黄檗","lat":40.465876,"lng":141.583549,"zip":"0391200"},{"town":"大字角柄折","koaza":"柳下","lat":40.463994,"lng":141.579179,"zip":"0391200"},{"town":"大字角柄折","koaza":"郷州","lat":40.463432,"lng":141.572529,"zip":"0391200"},{"town":"大字赤保内","koaza":"中屋敷","lat":40.447418,"lng":141.597848,"zip":"0391200"},{"town":"大字赤保内","koaza":"坂","lat":40.446244,"lng":141.593596,"zip":"0391200"},{"town":"大字赤保内","koaza":"西山","lat":40.447265,"lng":141.59546,"zip":"0391200"},{"town":"大字鳥屋部","koaza":"境窪","lat":40.434949,"lng":141.600607,"zip":"0391200"},{"town":"大字赤保内","koaza":"角五郎","lat":40.445834,"lng":141.603506,"zip":"0391200"},{"town":"大字赤保内","koaza":"蛭子","lat":40.445761,"lng":141.60057,"zip":"0391200"},{"town":"大字赤保内","koaza":"妻ノ神","lat":40.442131,"lng":141.615087,"zip":"0391200"},{"town":"大字道仏","koaza":"谷島","lat":40.436912,"lng":141.655762,"zip":"0391200"},{"town":"大字道仏","koaza":"笹平窪","lat":40.434629,"lng":141.655132,"zip":"0391200"},{"town":"大字道仏","koaza":"白座窪","lat":40.435812,"lng":141.648823,"zip":"0391200"},{"town":"大字道仏","koaza":"外白座窪","lat":40.43865,"lng":141.654723,"zip":"0391200"},{"town":"大字道仏","koaza":"八森窪","lat":40.435502,"lng":141.657815,"zip":"0391200"},{"town":"大字道仏","koaza":"馳下","lat":40.435833,"lng":141.659975,"zip":"0391200"},{"town":"大字道仏","koaza":"中大古里","lat":40.443737,"lng":141.672453,"zip":"0391200"},{"town":"大字道仏","koaza":"天満林","lat":40.450052,"lng":141.679279,"zip":"0391200"},{"town":"大字田代","koaza":"横窪","lat":40.396634,"lng":141.525562,"zip":"0391200"},{"town":"大字田代","koaza":"庭野","lat":40.395872,"lng":141.527397,"zip":"0391200"},{"town":"大字田代","koaza":"馬場","lat":40.397508,"lng":141.530199,"zip":"0391200"},{"town":"大字田代","koaza":"内城","lat":40.399192,"lng":141.532693,"zip":"0391200"},{"town":"大字田代","koaza":"田中","lat":40.396976,"lng":141.534399,"zip":"0391200"},{"town":"大字田代","koaza":"上畝","lat":40.397748,"lng":141.532895,"zip":"0391200"},{"town":"大字田代","koaza":"鳶ケ沢","lat":40.392435,"lng":141.533655,"zip":"0391200"},{"town":"大字田代","koaza":"八島","lat":40.395072,"lng":141.53548,"zip":"0391200"},{"town":"大字田代","koaza":"赤羽","lat":40.394552,"lng":141.538307,"zip":"0391200"},{"town":"大字田代","koaza":"間木内","lat":40.394145,"lng":141.535056,"zip":"0391200"},{"town":"大字田代","koaza":"下苧坪","lat":40.399513,"lng":141.535068,"zip":"0391200"},{"town":"大字晴山沢","koaza":"上平","lat":40.402839,"lng":141.538404,"zip":"0391200"},{"town":"大字晴山沢","koaza":"小沢","lat":40.403024,"lng":141.536898,"zip":"0391200"},{"town":"大字晴山沢","koaza":"林下","lat":40.403938,"lng":141.535152,"zip":"0391200"},{"town":"大字田代","koaza":"下向","lat":40.403113,"lng":141.532215,"zip":"0391200"},{"town":"大字晴山沢","koaza":"妻ノ神","lat":40.408465,"lng":141.540196,"zip":"0391200"},{"town":"大字晴山沢","koaza":"赤羽根","lat":40.409998,"lng":141.538907,"zip":"0391200"},{"town":"大字晴山沢","koaza":"畑中","lat":40.411949,"lng":141.539078,"zip":"0391200"},{"town":"大字晴山沢","koaza":"松長根","lat":40.411083,"lng":141.54042,"zip":"0391200"},{"town":"大字晴山沢","koaza":"垣ノ内","lat":40.407254,"lng":141.540906,"zip":"0391200"},{"town":"大字晴山沢","koaza":"梅ノ木平","lat":40.413037,"lng":141.542136,"zip":"0391200"},{"town":"大字晴山沢","koaza":"上城","lat":40.415854,"lng":141.534457,"zip":"0391200"},{"town":"大字平内","koaza":"上道","lat":40.414974,"lng":141.54382,"zip":"0391200"},{"town":"大字平内","koaza":"岳道","lat":40.414396,"lng":141.549655,"zip":"0391200"},{"town":"大字平内","koaza":"長塚","lat":40.414876,"lng":141.550751,"zip":"0391200"},{"town":"大字平内","koaza":"山ノ下","lat":40.419134,"lng":141.557496,"zip":"0391200"},{"town":"大字平内","koaza":"中屋敷","lat":40.421144,"lng":141.556177,"zip":"0391200"},{"town":"大字平内","koaza":"中崎","lat":40.420322,"lng":141.553675,"zip":"0391200"},{"town":"大字平内","koaza":"堤根","lat":40.420578,"lng":141.555034,"zip":"0391200"},{"town":"大字鳥屋部","koaza":"沼沢","lat":40.432859,"lng":141.569463,"zip":"0391200"},{"town":"大字平内","koaza":"桐堂","lat":40.426849,"lng":141.566115,"zip":"0391200"},{"town":"大字鳥屋部","koaza":"重郎","lat":40.429126,"lng":141.567757,"zip":"0391200"},{"town":"大字平内","koaza":"引敷林","lat":40.426758,"lng":141.571015,"zip":"0391200"},{"town":"大字鳥屋部","koaza":"行人","lat":40.428112,"lng":141.575472,"zip":"0391200"},{"town":"大字鳥屋部","koaza":"柳下","lat":40.431975,"lng":141.575205,"zip":"0391200"},{"town":"大字鳥屋部","koaza":"高道添","lat":40.43087,"lng":141.577474,"zip":"0391200"},{"town":"大字鳥屋部","koaza":"姥沢","lat":40.430859,"lng":141.583295,"zip":"0391200"},{"town":"大字鳥屋部","koaza":"鳥沢","lat":40.430359,"lng":141.587396,"zip":"0391200"},{"town":"大字鳥屋部","koaza":"松森","lat":40.433285,"lng":141.593827,"zip":"0391200"},{"town":"大字鳥屋部","koaza":"長嶺","lat":40.430332,"lng":141.589529,"zip":"0391200"},{"town":"大字鳥屋部","koaza":"鹿原","lat":40.434325,"lng":141.587729,"zip":"0391200"},{"town":"大字角柄折","koaza":"下向","lat":40.449489,"lng":141.567872,"zip":"0391200"},{"town":"大字角柄折","koaza":"猿引","lat":40.447608,"lng":141.570347,"zip":"0391200"},{"town":"大字角柄折","koaza":"穴子沢","lat":40.452725,"lng":141.560683,"zip":"0391200"},{"town":"大字角柄折","koaza":"上明戸","lat":40.459778,"lng":141.563711,"zip":"0391200"},{"town":"大字道仏","koaza":"下天摩","lat":40.443011,"lng":141.652455,"zip":"0391200"},{"town":"大字道仏","koaza":"道仏","lat":40.445637,"lng":141.649979,"zip":"0391200"},{"town":"大字道仏","koaza":"堤","lat":40.447021,"lng":141.653926,"zip":"0391200"},{"town":"大字道仏","koaza":"荒田","lat":40.447522,"lng":141.658942,"zip":"0391200"},{"town":"大字道仏","koaza":"下道","lat":40.44834,"lng":141.655577,"zip":"0391200"},{"town":"大字道仏","koaza":"鹿倉","lat":40.454496,"lng":141.669385,"zip":"0391200"},{"town":"大字道仏","koaza":"蓬窪","lat":40.453036,"lng":141.656174,"zip":"0391200"},{"town":"大字道仏","koaza":"二ノ窪","lat":40.465072,"lng":141.656373,"zip":"0391200"},{"town":"大字道仏","koaza":"八森鹿倉","lat":40.440526,"lng":141.65654,"zip":"0391200"},{"town":"大字道仏","koaza":"上桑木窪","lat":40.442074,"lng":141.656531,"zip":"0391200"},{"town":"大字道仏","koaza":"上久保","lat":40.454195,"lng":141.652164,"zip":"0391200"},{"town":"大字道仏","koaza":"笹畑","lat":40.460218,"lng":141.63046,"zip":"0391200"},{"town":"大字道仏","koaza":"天当","lat":40.452578,"lng":141.637677,"zip":"0391200"},{"town":"大字赤保内","koaza":"大上","lat":40.44112,"lng":141.627395,"zip":"0391200"},{"town":"大字赤保内","koaza":"女沢","lat":40.439297,"lng":141.610418,"zip":"0391200"},{"town":"大字鳥屋部","koaza":"浜渡","lat":40.433331,"lng":141.596699,"zip":"0391200"},{"town":"大字鳥屋部","koaza":"向山","lat":40.435465,"lng":141.593662,"zip":"0391200"},{"town":"大字角柄折","koaza":"道ノ上","lat":40.447617,"lng":141.578872,"zip":"0391200"},{"town":"大字角柄折","koaza":"折川久保","lat":40.461576,"lng":141.554743,"zip":"0391200"},{"town":"大字角柄折","koaza":"中田","lat":40.461382,"lng":141.560873,"zip":"0391200"},{"town":"大字金山沢","koaza":"大峠","lat":40.438209,"lng":141.523153,"zip":"0391200"},{"town":"大字金山沢","koaza":"長根","lat":40.438158,"lng":141.521855,"zip":"0391200"},{"town":"大字金山沢","koaza":"小松倉","lat":40.430836,"lng":141.540511,"zip":"0391200"},{"town":"大字金山沢","koaza":"鳥屋長根","lat":40.4296,"lng":141.536892,"zip":"0391200"},{"town":"大字晴山沢","koaza":"久保頭","lat":40.41508,"lng":141.5304,"zip":"0391200"},{"town":"大字赤保内","koaza":"山館","lat":40.439523,"lng":141.613423,"zip":"0391200"},{"town":"大字道仏","koaza":"後ロ窪","lat":40.4475,"lng":141.638079,"zip":"0391200"},{"town":"大字晴山沢","koaza":"荷田窪","lat":40.398166,"lng":141.539627,"zip":"0391200"},{"town":"大字田代","koaza":"大畑","lat":40.401659,"lng":141.5276,"zip":"0391200"},{"town":"大字田代","koaza":"下大字田代","lat":40.400848,"lng":141.530947,"zip":"0391200"},{"town":"大字晴山沢","koaza":"高日向","lat":40.410385,"lng":141.522384,"zip":"0391200"},{"town":"大字晴山沢","koaza":"大久保","lat":40.41936,"lng":141.5342,"zip":"0391200"},{"town":"大字平内","koaza":"清水下","lat":40.416914,"lng":141.544651,"zip":"0391200"},{"town":"大字金山沢","koaza":"林下","lat":40.441029,"lng":141.533961,"zip":"0391200"},{"town":"大字金山沢","koaza":"外大字金山沢","lat":40.447285,"lng":141.523237,"zip":"0391200"},{"town":"大字金山沢","koaza":"大日","lat":40.448333,"lng":141.521632,"zip":"0391200"},{"town":"大字金山沢","koaza":"道合","lat":40.454298,"lng":141.522115,"zip":"0391200"},{"town":"大字平内","koaza":"小路合","lat":40.420005,"lng":141.56109,"zip":"0391200"},{"town":"大字鳥屋部","koaza":"長畑","lat":40.428922,"lng":141.586786,"zip":"0391200"},{"town":"大字赤保内","koaza":"下平尻","lat":40.441544,"lng":141.598451,"zip":"0391200"},{"town":"大字赤保内","koaza":"柳沢","lat":40.44925,"lng":141.609126,"zip":"0391200"},{"town":"大字角柄折","koaza":"白石","lat":40.441522,"lng":141.582024,"zip":"0391200"},{"town":"大字鳥屋部","koaza":"法霊","lat":40.435546,"lng":141.59054,"zip":"0391200"},{"town":"大字鳥屋部","koaza":"田ノ上","lat":40.438087,"lng":141.586169,"zip":"0391200"},{"town":"大字金山沢","koaza":"小板橋平","lat":40.453327,"lng":141.523428,"zip":"0391200"},{"town":"大字金山沢","koaza":"与伝","lat":40.427694,"lng":141.531584,"zip":"0391200"},{"town":"大字道仏","koaza":"下平窪","lat":40.439635,"lng":141.666149,"zip":"0391200"},{"town":"大字道仏","koaza":"猪立窪","lat":40.440675,"lng":141.64701,"zip":"0391200"},{"town":"大字晴山沢","koaza":"小出","lat":40.406198,"lng":141.53496,"zip":"0391200"},{"town":"大字田代","koaza":"岳道","lat":40.385032,"lng":141.543127,"zip":"0391200"}]