[{"town":"大字泉山","koaza":"","lat":40.385128,"lng":141.292375,"zip":"0390100"},{"town":"大字梅内","koaza":"","lat":40.366095,"lng":141.273918,"zip":"0390100"},{"town":"大字貝守","koaza":"","lat":40.391156,"lng":141.110684,"zip":"0390100"},{"town":"大字川守田","koaza":"","lat":40.387603,"lng":141.24194,"zip":"0390100"},{"town":"大字川守田町","koaza":"","lat":40.386225,"lng":141.262149,"zip":"0390100"},{"town":"大字久慈町","koaza":"","lat":40.387931,"lng":141.264705,"zip":"0390100"},{"town":"大字在府小路町","koaza":"","lat":40.379983,"lng":141.259794,"zip":"0390100"},{"town":"大字蛇沼","koaza":"","lat":40.403887,"lng":141.17682,"zip":"0390100"},{"town":"大字同心町","koaza":"","lat":40.37318,"lng":141.248112,"zip":"0390100"},{"town":"大字斗内","koaza":"","lat":40.344011,"lng":141.206209,"zip":"0390100"},{"town":"大字豊川","koaza":"","lat":40.360399,"lng":141.2356,"zip":"0390100"},{"town":"大字袴田","koaza":"","lat":40.388612,"lng":141.20892,"zip":"0390100"},{"town":"大字馬喰町","koaza":"","lat":40.376418,"lng":141.255849,"zip":"0390100"},{"town":"大字二日町","koaza":"","lat":40.380224,"lng":141.25834,"zip":"0390100"},{"town":"大字六日町","koaza":"","lat":40.38436,"lng":141.259536,"zip":"0390100"},{"town":"大字目時","koaza":"","lat":40.353146,"lng":141.277495,"zip":"0390100"},{"town":"大字八日町","koaza":"","lat":40.377214,"lng":141.255152,"zip":"0390100"},{"town":"大字豊川","koaza":"上楢舘平","lat":40.35542,"lng":141.229906,"zip":"0390100"},{"town":"大字豊川","koaza":"北向","lat":40.359882,"lng":141.229673,"zip":"0390100"},{"town":"大字豊川","koaza":"沖平","lat":40.363579,"lng":141.230242,"zip":"0390100"},{"town":"大字豊川","koaza":"上村中","lat":40.366864,"lng":141.227641,"zip":"0390100"},{"town":"大字豊川","koaza":"下村中","lat":40.368025,"lng":141.232527,"zip":"0390100"},{"town":"大字豊川","koaza":"中屋敷平","lat":40.365548,"lng":141.233327,"zip":"0390100"},{"town":"大字豊川","koaza":"下楢舘平","lat":40.354356,"lng":141.233533,"zip":"0390100"},{"town":"大字豊川","koaza":"下原","lat":40.369533,"lng":141.236283,"zip":"0390100"},{"town":"大字豊川","koaza":"上玉ノ木平","lat":40.362852,"lng":141.236146,"zip":"0390100"},{"town":"大字豊川","koaza":"久保","lat":40.367128,"lng":141.237246,"zip":"0390100"},{"town":"大字豊川","koaza":"下玉ノ木平","lat":40.361667,"lng":141.240961,"zip":"0390100"},{"town":"大字川守田","koaza":"大清水","lat":40.370096,"lng":141.241126,"zip":"0390100"},{"town":"大字豊川","koaza":"久保川原","lat":40.369375,"lng":141.241733,"zip":"0390100"},{"town":"大字同心町","koaza":"古間木平","lat":40.375597,"lng":141.249234,"zip":"0390100"},{"town":"大字豊川","koaza":"比丘尼坂","lat":40.359743,"lng":141.244625,"zip":"0390100"},{"town":"大字同心町","koaza":"金堀","lat":40.371624,"lng":141.246263,"zip":"0390100"},{"town":"大字同心町","koaza":"同心町平","lat":40.373479,"lng":141.248277,"zip":"0390100"},{"town":"大字川守田","koaza":"関根川原","lat":40.380021,"lng":141.252239,"zip":"0390100"},{"town":"大字川守田","koaza":"正浄寺","lat":40.381706,"lng":141.250298,"zip":"0390100"},{"town":"大字梅内","koaza":"竹林","lat":40.362862,"lng":141.251206,"zip":"0390100"},{"town":"大字川守田","koaza":"西松原","lat":40.385346,"lng":141.250075,"zip":"0390100"},{"town":"大字同心町","koaza":"上川原","lat":40.378488,"lng":141.250335,"zip":"0390100"},{"town":"大字川守田","koaza":"尼久保","lat":40.38966,"lng":141.25167,"zip":"0390100"},{"town":"大字梅内","koaza":"中平","lat":40.372551,"lng":141.252479,"zip":"0390100"},{"town":"大字川守田","koaza":"東松原","lat":40.387448,"lng":141.25155,"zip":"0390100"},{"town":"大字同心町","koaza":"熊ノ林","lat":40.377913,"lng":141.253336,"zip":"0390100"},{"town":"大字同心町","koaza":"諏訪内","lat":40.374899,"lng":141.254145,"zip":"0390100"},{"town":"大字川守田","koaza":"関根","lat":40.381348,"lng":141.254423,"zip":"0390100"},{"town":"大字梅内","koaza":"箸木山","lat":40.372426,"lng":141.2559,"zip":"0390100"},{"town":"大字梅内","koaza":"梨ノ木平","lat":40.372384,"lng":141.254266,"zip":"0390100"},{"town":"大字川守田","koaza":"東張渡","lat":40.388155,"lng":141.2595,"zip":"0390100"},{"town":"大字川守田","koaza":"横道","lat":40.384681,"lng":141.257706,"zip":"0390100"},{"town":"大字梅内","koaza":"雷平","lat":40.373551,"lng":141.25952,"zip":"0390100"},{"town":"大字川守田","koaza":"菖蒲沢","lat":40.389354,"lng":141.261936,"zip":"0390100"},{"town":"大字川守田","koaza":"西張渡","lat":40.38732,"lng":141.256524,"zip":"0390100"},{"town":"大字梅内","koaza":"城ノ下","lat":40.379699,"lng":141.263974,"zip":"0390100"},{"town":"大字梅内","koaza":"鬢田","lat":40.376138,"lng":141.263476,"zip":"0390100"},{"town":"大字梅内","koaza":"桐萩","lat":40.377229,"lng":141.263812,"zip":"0390100"},{"town":"大字梅内","koaza":"遙迎寺長根","lat":40.371194,"lng":141.261735,"zip":"0390100"},{"town":"大字川守田","koaza":"橋ノ下","lat":40.385457,"lng":141.26374,"zip":"0390100"},{"town":"大字川守田","koaza":"下比良","lat":40.397148,"lng":141.263613,"zip":"0390100"},{"town":"大字川守田","koaza":"元木平","lat":40.391199,"lng":141.265294,"zip":"0390100"},{"town":"大字川守田","koaza":"冷水","lat":40.395613,"lng":141.265543,"zip":"0390100"},{"town":"大字川守田","koaza":"沖中","lat":40.393036,"lng":141.267563,"zip":"0390100"},{"town":"大字梅内","koaza":"権現林","lat":40.375776,"lng":141.269559,"zip":"0390100"},{"town":"大字梅内","koaza":"前田","lat":40.382243,"lng":141.270875,"zip":"0390100"},{"town":"大字川守田","koaza":"落合","lat":40.390249,"lng":141.271068,"zip":"0390100"},{"town":"大字梅内","koaza":"松原","lat":40.376999,"lng":141.272931,"zip":"0390100"},{"town":"大字梅内","koaza":"上野平","lat":40.373762,"lng":141.279125,"zip":"0390100"},{"town":"大字梅内","koaza":"村中","lat":40.375645,"lng":141.277618,"zip":"0390100"},{"town":"大字泉山","koaza":"沢田ノ沢","lat":40.39251,"lng":141.275763,"zip":"0390100"},{"town":"大字泉山","koaza":"久手","lat":40.382595,"lng":141.276905,"zip":"0390100"},{"town":"大字梅内","koaza":"簗田川原","lat":40.377478,"lng":141.278798,"zip":"0390100"},{"town":"大字泉山","koaza":"中野","lat":40.385824,"lng":141.279713,"zip":"0390100"},{"town":"大字泉山","koaza":"泉山","lat":40.383006,"lng":141.279677,"zip":"0390100"},{"town":"大字梅内","koaza":"舘","lat":40.376547,"lng":141.281676,"zip":"0390100"},{"town":"大字川守田","koaza":"中屋敷","lat":40.388528,"lng":141.264135,"zip":"0390100"},{"town":"大字川守田","koaza":"大明地","lat":40.385825,"lng":141.262803,"zip":"0390100"},{"town":"大字川守田","koaza":"行人沢","lat":40.38401,"lng":141.252204,"zip":"0390100"},{"town":"大字川守田","koaza":"白坂ノ上","lat":40.385585,"lng":141.252527,"zip":"0390100"},{"town":"大字川守田","koaza":"寺ノ沢","lat":40.386929,"lng":141.254002,"zip":"0390100"},{"town":"大字川守田","koaza":"柏梨","lat":40.381655,"lng":141.2464,"zip":"0390100"},{"town":"大字川守田","koaza":"名部久保","lat":40.373415,"lng":141.239503,"zip":"0390100"},{"town":"大字川守田","koaza":"雀舘","lat":40.374718,"lng":141.241145,"zip":"0390100"},{"town":"大字川守田","koaza":"草鞋平","lat":40.372004,"lng":141.24017,"zip":"0390100"},{"town":"大字川守田","koaza":"境沢","lat":40.370729,"lng":141.241124,"zip":"0390100"},{"town":"大字豊川","koaza":"中玉ノ木平","lat":40.362798,"lng":141.239716,"zip":"0390100"},{"town":"大字梅内","koaza":"中崎","lat":40.364295,"lng":141.257509,"zip":"0390100"},{"town":"大字梅内","koaza":"留ケ崎","lat":40.385808,"lng":141.269811,"zip":"0390100"},{"town":"大字川守田","koaza":"久慈町裏","lat":40.387821,"lng":141.265673,"zip":"0390100"},{"town":"大字川守田","koaza":"舘","lat":40.388456,"lng":141.262014,"zip":"0390100"},{"town":"大字川守田","koaza":"大沢","lat":40.382496,"lng":141.241943,"zip":"0390100"},{"town":"大字泉山","koaza":"船場ノ上","lat":40.380972,"lng":141.27921,"zip":"0390100"},{"town":"大字泉山","koaza":"新山","lat":40.383774,"lng":141.277761,"zip":"0390100"}]