[{"town":"朝日一丁目","koaza":"","lat":40.767701,"lng":141.372083,"zip":"0330166"},{"town":"朝日二丁目","koaza":"","lat":40.764482,"lng":141.367116,"zip":"0330166"},{"town":"字古間木山","koaza":"","lat":40.668553,"lng":141.356499,"zip":"0330000"},{"town":"泉町一丁目","koaza":"","lat":40.665503,"lng":141.381903,"zip":"0330153"},{"town":"泉町二丁目","koaza":"","lat":40.666013,"lng":141.380103,"zip":"0330153"},{"town":"五川目一丁目","koaza":"","lat":40.711316,"lng":141.420233,"zip":"0330131"},{"town":"五川目二丁目","koaza":"","lat":40.710392,"lng":141.417634,"zip":"0330131"},{"town":"五川目三丁目","koaza":"","lat":40.718813,"lng":141.417892,"zip":"0330131"},{"town":"五川目四丁目","koaza":"","lat":40.719274,"lng":141.415628,"zip":"0330131"},{"town":"大字天ケ森","koaza":"","lat":40.849928,"lng":141.38498,"zip":"0330000"},{"town":"大字犬落瀬","koaza":"","lat":40.678735,"lng":141.343653,"zip":"0330000"},{"town":"大字大浦","koaza":"","lat":40.71769,"lng":141.322498,"zip":"0330000"},{"town":"大字三沢","koaza":"","lat":40.774847,"lng":141.382083,"zip":"0330000"},{"town":"大津一丁目","koaza":"","lat":40.680203,"lng":141.414927,"zip":"0330134"},{"town":"大津二丁目","koaza":"","lat":40.679585,"lng":141.420249,"zip":"0330134"},{"town":"大津三丁目","koaza":"","lat":40.68373,"lng":141.413412,"zip":"0330134"},{"town":"大津四丁目","koaza":"","lat":40.684273,"lng":141.420287,"zip":"0330134"},{"town":"大町一丁目","koaza":"","lat":40.679053,"lng":141.357472,"zip":"0330041"},{"town":"大町二丁目","koaza":"","lat":40.678107,"lng":141.361123,"zip":"0330041"},{"town":"大町三丁目","koaza":"","lat":40.675474,"lng":141.359765,"zip":"0330041"},{"town":"岡三沢一丁目","koaza":"","lat":40.690119,"lng":141.374605,"zip":"0330021"},{"town":"岡三沢二丁目","koaza":"","lat":40.689126,"lng":141.375518,"zip":"0330021"},{"town":"岡三沢三丁目","koaza":"","lat":40.687913,"lng":141.374635,"zip":"0330021"},{"town":"岡三沢四丁目","koaza":"","lat":40.692354,"lng":141.378827,"zip":"0330021"},{"town":"岡三沢五丁目","koaza":"","lat":40.695763,"lng":141.379705,"zip":"0330021"},{"town":"岡三沢六丁目","koaza":"","lat":40.696319,"lng":141.3764,"zip":"0330021"},{"town":"岡三沢七丁目","koaza":"","lat":40.693512,"lng":141.37501,"zip":"0330021"},{"town":"岡三沢八丁目","koaza":"","lat":40.694055,"lng":141.370681,"zip":"0330021"},{"town":"織笠一丁目","koaza":"","lat":40.788069,"lng":141.401924,"zip":"0330104"},{"town":"織笠二丁目","koaza":"","lat":40.787938,"lng":141.39926,"zip":"0330104"},{"town":"織笠三丁目","koaza":"","lat":40.792497,"lng":141.40025,"zip":"0330104"},{"town":"織笠四丁目","koaza":"","lat":40.792376,"lng":141.398973,"zip":"0330104"},{"town":"春日台一丁目","koaza":"","lat":40.666407,"lng":141.35022,"zip":"0330053"},{"town":"春日台二丁目","koaza":"","lat":40.667476,"lng":141.345266,"zip":"0330053"},{"town":"春日台三丁目","koaza":"","lat":40.667462,"lng":141.339992,"zip":"0330053"},{"town":"上久保一丁目","koaza":"","lat":40.67954,"lng":141.351073,"zip":"0330063"},{"town":"上久保二丁目","koaza":"","lat":40.679004,"lng":141.348677,"zip":"0330063"},{"town":"上久保三丁目","koaza":"","lat":40.68054,"lng":141.348651,"zip":"0330063"},{"town":"上久保四丁目","koaza":"","lat":40.681441,"lng":141.348389,"zip":"0330063"},{"town":"越下一丁目","koaza":"","lat":40.799319,"lng":141.355999,"zip":"0330162"},{"town":"幸町一丁目","koaza":"","lat":40.685647,"lng":141.36806,"zip":"0330011"},{"town":"幸町二丁目","koaza":"","lat":40.684069,"lng":141.372237,"zip":"0330011"},{"town":"幸町三丁目","koaza":"","lat":40.686845,"lng":141.370513,"zip":"0330011"},{"town":"栄町一丁目","koaza":"","lat":40.673089,"lng":141.360272,"zip":"0330042"},{"town":"栄町二丁目","koaza":"","lat":40.67312,"lng":141.36587,"zip":"0330042"},{"town":"栄町三丁目","koaza":"","lat":40.671839,"lng":141.362608,"zip":"0330042"},{"town":"桜町一丁目","koaza":"","lat":40.6829,"lng":141.369954,"zip":"0330031"},{"town":"桜町二丁目","koaza":"","lat":40.680865,"lng":141.368449,"zip":"0330031"},{"town":"桜町三丁目","koaza":"","lat":40.68109,"lng":141.372277,"zip":"0330031"},{"town":"淋代一丁目","koaza":"","lat":40.725713,"lng":141.415339,"zip":"0330113"},{"town":"淋代二丁目","koaza":"","lat":40.725397,"lng":141.413739,"zip":"0330113"},{"town":"淋代三丁目","koaza":"","lat":40.732105,"lng":141.414931,"zip":"0330113"},{"town":"淋代四丁目","koaza":"","lat":40.731815,"lng":141.411366,"zip":"0330113"},{"town":"淋代五丁目","koaza":"","lat":40.738189,"lng":141.41225,"zip":"0330113"},{"town":"淋代六丁目","koaza":"","lat":40.738021,"lng":141.409907,"zip":"0330113"},{"town":"塩釜一丁目","koaza":"","lat":40.799254,"lng":141.399005,"zip":"0330103"},{"town":"塩釜二丁目","koaza":"","lat":40.798476,"lng":141.39711,"zip":"0330103"},{"town":"塩釜三丁目","koaza":"","lat":40.804858,"lng":141.3995,"zip":"0330103"},{"town":"塩釜四丁目","koaza":"","lat":40.803891,"lng":141.396205,"zip":"0330103"},{"town":"鹿中一丁目","koaza":"","lat":40.684271,"lng":141.427756,"zip":"0330133"},{"town":"鹿中二丁目","koaza":"","lat":40.684096,"lng":141.425224,"zip":"0330133"},{"town":"鹿中三丁目","koaza":"","lat":40.689901,"lng":141.426618,"zip":"0330133"},{"town":"鹿中四丁目","koaza":"","lat":40.689163,"lng":141.424012,"zip":"0330133"},{"town":"下久保一丁目","koaza":"","lat":40.687868,"lng":141.378649,"zip":"0330023"},{"town":"下久保二丁目","koaza":"","lat":40.68808,"lng":141.381986,"zip":"0330023"},{"town":"下久保三丁目","koaza":"","lat":40.690304,"lng":141.380765,"zip":"0330023"},{"town":"新町二丁目","koaza":"","lat":40.67507,"lng":141.35433,"zip":"0330062"},{"town":"新町三丁目","koaza":"","lat":40.676768,"lng":141.35555,"zip":"0330062"},{"town":"新町四丁目","koaza":"","lat":40.677824,"lng":141.353226,"zip":"0330062"},{"town":"新森一丁目","koaza":"","lat":40.783324,"lng":141.390577,"zip":"0330105"},{"town":"新森二丁目","koaza":"","lat":40.785795,"lng":141.389473,"zip":"0330105"},{"town":"砂森一丁目","koaza":"","lat":40.826654,"lng":141.393062,"zip":"0330102"},{"town":"砂森二丁目","koaza":"","lat":40.830072,"lng":141.392991,"zip":"0330102"},{"town":"高野沢一丁目","koaza":"","lat":40.773503,"lng":141.371288,"zip":"0330165"},{"town":"高野沢二丁目","koaza":"","lat":40.773173,"lng":141.367119,"zip":"0330165"},{"town":"中央町一丁目","koaza":"","lat":40.682715,"lng":141.366707,"zip":"0330001"},{"town":"中央町二丁目","koaza":"","lat":40.684214,"lng":141.365708,"zip":"0330001"},{"town":"中央町三丁目","koaza":"","lat":40.680632,"lng":141.361452,"zip":"0330001"},{"town":"中央町四丁目","koaza":"","lat":40.679424,"lng":141.363886,"zip":"0330001"},{"town":"千代田町一丁目","koaza":"","lat":40.669228,"lng":141.363474,"zip":"0330043"},{"town":"千代田町二丁目","koaza":"","lat":40.669064,"lng":141.361127,"zip":"0330043"},{"town":"千代田町三丁目","koaza":"","lat":40.668246,"lng":141.359953,"zip":"0330043"},{"town":"千代田町四丁目","koaza":"","lat":40.667247,"lng":141.359594,"zip":"0330043"},{"town":"千代田町五丁目","koaza":"","lat":40.66557,"lng":141.360025,"zip":"0330043"},{"town":"富崎一丁目","koaza":"","lat":40.797872,"lng":141.365787,"zip":"0330163"},{"town":"富崎二丁目","koaza":"","lat":40.799599,"lng":141.365273,"zip":"0330163"},{"town":"根井一丁目","koaza":"","lat":40.758525,"lng":141.375447,"zip":"0330167"},{"town":"根井二丁目","koaza":"","lat":40.757972,"lng":141.3738,"zip":"0330167"},{"town":"花園町一丁目","koaza":"","lat":40.682542,"lng":141.360336,"zip":"0330061"},{"town":"花園町二丁目","koaza":"","lat":40.681747,"lng":141.359023,"zip":"0330061"},{"town":"花園町三丁目","koaza":"","lat":40.682659,"lng":141.356522,"zip":"0330061"},{"town":"花園町四丁目","koaza":"","lat":40.680942,"lng":141.355964,"zip":"0330061"},{"town":"花園町五丁目","koaza":"","lat":40.682,"lng":141.352632,"zip":"0330061"},{"town":"東岡三沢一丁目","koaza":"","lat":40.692514,"lng":141.38413,"zip":"0330024"},{"town":"東岡三沢二丁目","koaza":"","lat":40.690601,"lng":141.38544,"zip":"0330024"},{"town":"東岡三沢三丁目","koaza":"","lat":40.690245,"lng":141.388575,"zip":"0330024"},{"town":"東町一丁目","koaza":"","lat":40.677815,"lng":141.374399,"zip":"0330034"},{"town":"東町二丁目","koaza":"","lat":40.675892,"lng":141.374396,"zip":"0330034"},{"town":"東町三丁目","koaza":"","lat":40.6758,"lng":141.377721,"zip":"0330034"},{"town":"東町四丁目","koaza":"","lat":40.677704,"lng":141.377911,"zip":"0330034"},{"town":"日の出一丁目","koaza":"","lat":40.67458,"lng":141.381156,"zip":"0330154"},{"town":"日の出二丁目","koaza":"","lat":40.672823,"lng":141.380479,"zip":"0330154"},{"town":"日の出三丁目","koaza":"","lat":40.673334,"lng":141.386477,"zip":"0330154"},{"town":"日の出四丁目","koaza":"","lat":40.67481,"lng":141.385415,"zip":"0330154"},{"town":"平畑一丁目","koaza":"","lat":40.688884,"lng":141.36912,"zip":"0330012"},{"town":"平畑二丁目","koaza":"","lat":40.69078,"lng":141.371265,"zip":"0330012"},{"town":"深谷一丁目","koaza":"","lat":40.675315,"lng":141.396226,"zip":"0330152"},{"town":"深谷二丁目","koaza":"","lat":40.674431,"lng":141.390921,"zip":"0330152"},{"town":"深谷三丁目","koaza":"","lat":40.677271,"lng":141.390993,"zip":"0330152"},{"town":"古間木一丁目","koaza":"","lat":40.67194,"lng":141.343865,"zip":"0330051"},{"town":"古間木二丁目","koaza":"","lat":40.672118,"lng":141.338832,"zip":"0330051"},{"town":"古間木三丁目","koaza":"","lat":40.675596,"lng":141.341397,"zip":"0330051"},{"town":"古間木四丁目","koaza":"","lat":40.679499,"lng":141.339379,"zip":"0330051"},{"town":"細谷一丁目","koaza":"","lat":40.75491,"lng":141.409036,"zip":"0330112"},{"town":"細谷二丁目","koaza":"","lat":40.754746,"lng":141.406842,"zip":"0330112"},{"town":"細谷三丁目","koaza":"","lat":40.758344,"lng":141.40816,"zip":"0330112"},{"town":"細谷四丁目","koaza":"","lat":40.758332,"lng":141.405605,"zip":"0330112"},{"town":"堀口一丁目","koaza":"","lat":40.685635,"lng":141.37985,"zip":"0330123"},{"town":"堀口二丁目","koaza":"","lat":40.683699,"lng":141.380275,"zip":"0330123"},{"town":"堀口三丁目","koaza":"","lat":40.685384,"lng":141.383151,"zip":"0330123"},{"town":"本町一丁目","koaza":"","lat":40.666559,"lng":141.352997,"zip":"0330052"},{"town":"本町二丁目","koaza":"","lat":40.671486,"lng":141.351585,"zip":"0330052"},{"town":"本町三丁目","koaza":"","lat":40.671151,"lng":141.353292,"zip":"0330052"},{"town":"本町四丁目","koaza":"","lat":40.673555,"lng":141.355913,"zip":"0330052"},{"town":"前平一丁目","koaza":"","lat":40.67261,"lng":141.407976,"zip":"0330143"},{"town":"前平二丁目","koaza":"","lat":40.673575,"lng":141.411925,"zip":"0330143"},{"town":"前平三丁目","koaza":"","lat":40.674688,"lng":141.407808,"zip":"0330143"},{"town":"松園町一丁目","koaza":"","lat":40.677222,"lng":141.370944,"zip":"0330037"},{"town":"松園町二丁目","koaza":"","lat":40.677547,"lng":141.367169,"zip":"0330037"},{"town":"松園町三丁目","koaza":"","lat":40.676003,"lng":141.364436,"zip":"0330037"},{"town":"松原町一丁目","koaza":"","lat":40.672883,"lng":141.376337,"zip":"0330035"},{"town":"松原町二丁目","koaza":"","lat":40.667999,"lng":141.376302,"zip":"0330035"},{"town":"三川目一丁目","koaza":"","lat":40.671428,"lng":141.432116,"zip":"0330142"},{"town":"三川目二丁目","koaza":"","lat":40.672096,"lng":141.426996,"zip":"0330142"},{"town":"三川目三丁目","koaza":"","lat":40.676806,"lng":141.430691,"zip":"0330142"},{"town":"三川目四丁目","koaza":"","lat":40.677307,"lng":141.427568,"zip":"0330142"},{"town":"緑町一丁目","koaza":"","lat":40.685981,"lng":141.373475,"zip":"0330032"},{"town":"緑町二丁目","koaza":"","lat":40.684306,"lng":141.37535,"zip":"0330032"},{"town":"緑町三丁目","koaza":"","lat":40.685897,"lng":141.376186,"zip":"0330032"},{"town":"港町一丁目","koaza":"","lat":40.67825,"lng":141.43433,"zip":"0330141"},{"town":"港町二丁目","koaza":"","lat":40.681493,"lng":141.433334,"zip":"0330141"},{"town":"南町一丁目","koaza":"","lat":40.67306,"lng":141.368251,"zip":"0330036"},{"town":"南町二丁目","koaza":"","lat":40.67339,"lng":141.371991,"zip":"0330036"},{"town":"南町三丁目","koaza":"","lat":40.670468,"lng":141.370229,"zip":"0330036"},{"town":"南町四丁目","koaza":"","lat":40.667651,"lng":141.370686,"zip":"0330036"},{"town":"南山一丁目","koaza":"","lat":40.680973,"lng":141.398105,"zip":"0330151"},{"town":"南山二丁目","koaza":"","lat":40.681185,"lng":141.394091,"zip":"0330151"},{"town":"南山三丁目","koaza":"","lat":40.678021,"lng":141.39859,"zip":"0330151"},{"town":"南山四丁目","koaza":"","lat":40.678552,"lng":141.393211,"zip":"0330151"},{"town":"美野原一丁目","koaza":"","lat":40.68309,"lng":141.376599,"zip":"0330033"},{"town":"美野原二丁目","koaza":"","lat":40.681213,"lng":141.376707,"zip":"0330033"},{"town":"美野原三丁目","koaza":"","lat":40.679458,"lng":141.376731,"zip":"0330033"},{"town":"六川目一丁目","koaza":"","lat":40.763701,"lng":141.40684,"zip":"0330111"},{"town":"六川目二丁目","koaza":"","lat":40.762934,"lng":141.404496,"zip":"0330111"},{"town":"六川目三丁目","koaza":"","lat":40.76873,"lng":141.406995,"zip":"0330111"},{"town":"六川目四丁目","koaza":"","lat":40.767947,"lng":141.404094,"zip":"0330111"},{"town":"六川目五丁目","koaza":"","lat":40.774026,"lng":141.404158,"zip":"0330111"},{"town":"六川目六丁目","koaza":"","lat":40.773917,"lng":141.402114,"zip":"0330111"},{"town":"六川目七丁目","koaza":"","lat":40.778191,"lng":141.403093,"zip":"0330111"},{"town":"六川目八丁目","koaza":"","lat":40.778098,"lng":141.399812,"zip":"0330111"},{"town":"谷地頭一丁目","koaza":"","lat":40.782015,"lng":141.369424,"zip":"0330164"},{"town":"谷地頭二丁目","koaza":"","lat":40.779907,"lng":141.361452,"zip":"0330164"},{"town":"谷地頭三丁目","koaza":"","lat":40.791255,"lng":141.367217,"zip":"0330164"},{"town":"谷地頭四丁目","koaza":"","lat":40.790273,"lng":141.361391,"zip":"0330164"},{"town":"八幡一丁目","koaza":"","lat":40.801432,"lng":141.356505,"zip":"0330161"},{"town":"八幡二丁目","koaza":"","lat":40.80357,"lng":141.35606,"zip":"0330161"},{"town":"四川目一丁目","koaza":"","lat":40.695425,"lng":141.42483,"zip":"0330132"},{"town":"四川目二丁目","koaza":"","lat":40.694113,"lng":141.422463,"zip":"0330132"},{"town":"四川目三丁目","koaza":"","lat":40.69998,"lng":141.424013,"zip":"0330132"},{"town":"四川目四丁目","koaza":"","lat":40.699548,"lng":141.420451,"zip":"0330132"},{"town":"四川目五丁目","koaza":"","lat":40.704771,"lng":141.42199,"zip":"0330132"},{"town":"四川目六丁目","koaza":"","lat":40.704507,"lng":141.419309,"zip":"0330132"},{"town":"春日台四丁目","koaza":"","lat":40.66384,"lng":141.344403,"zip":"0330053"},{"town":"大字三沢","koaza":"猫又","lat":40.688939,"lng":141.345862,"zip":"0330000"},{"town":"大字三沢","koaza":"平畑","lat":40.698466,"lng":141.338808,"zip":"0330000"},{"town":"大字犬落瀬","koaza":"古間木","lat":40.673574,"lng":141.343497,"zip":"0330000"},{"town":"大字三沢","koaza":"上久保","lat":40.677107,"lng":141.353605,"zip":"0330000"},{"town":"大字三沢","koaza":"淋代平","lat":40.739669,"lng":141.375744,"zip":"0330000"},{"town":"大字三沢","koaza":"早稲田","lat":40.758837,"lng":141.363729,"zip":"0330000"},{"town":"大字三沢","koaza":"後久保","lat":40.696511,"lng":141.373057,"zip":"0330000"},{"town":"大字三沢","koaza":"戸崎","lat":40.748309,"lng":141.384693,"zip":"0330000"},{"town":"大字三沢","koaza":"庭構","lat":40.805039,"lng":141.383271,"zip":"0330000"},{"town":"大字三沢","koaza":"堀口","lat":40.679781,"lng":141.39074,"zip":"0330000"},{"town":"大字天ケ森","koaza":"天ケ森","lat":40.850962,"lng":141.386764,"zip":"0330000"},{"town":"大字三沢","koaza":"下久保","lat":40.684553,"lng":141.386672,"zip":"0330000"},{"town":"大字三沢","koaza":"下沢","lat":40.70138,"lng":141.39607,"zip":"0330000"},{"town":"大字三沢","koaza":"南山","lat":40.687107,"lng":141.39027,"zip":"0330000"},{"town":"大字三沢","koaza":"上屋敷","lat":40.692903,"lng":141.402034,"zip":"0330000"},{"town":"大字三沢","koaza":"前平","lat":40.672143,"lng":141.403734,"zip":"0330000"},{"town":"大字三沢","koaza":"横沢","lat":40.69649,"lng":141.398365,"zip":"0330000"},{"town":"大字三沢","koaza":"園沢","lat":40.682679,"lng":141.402011,"zip":"0330000"},{"town":"さつきケ丘一丁目","koaza":"","lat":40.67331,"lng":141.400575,"zip":"0330000"},{"town":"大字三沢","koaza":"山ノ神","lat":40.691406,"lng":141.402254,"zip":"0330000"},{"town":"大字三沢","koaza":"上野","lat":40.708795,"lng":141.400794,"zip":"0330000"},{"town":"大字三沢","koaza":"下堀","lat":40.695421,"lng":141.411687,"zip":"0330000"},{"town":"大字三沢","koaza":"向平","lat":40.6994,"lng":141.412383,"zip":"0330000"},{"town":"大字三沢","koaza":"下野","lat":40.70486,"lng":141.416294,"zip":"0330000"},{"town":"大字三沢","koaza":"山下","lat":40.694687,"lng":141.412189,"zip":"0330000"},{"town":"大字三沢","koaza":"水筒","lat":40.691127,"lng":141.416245,"zip":"0330000"},{"town":"大字三沢","koaza":"大津","lat":40.687381,"lng":141.415664,"zip":"0330000"},{"town":"大字三沢","koaza":"流平","lat":40.672459,"lng":141.42078,"zip":"0330000"},{"town":"大字三沢","koaza":"小山田","lat":40.718095,"lng":141.344451,"zip":"0330000"},{"town":"大字三沢","koaza":"北山","lat":40.70953,"lng":141.388137,"zip":"0330000"},{"town":"大字三沢","koaza":"中平","lat":40.689728,"lng":141.406037,"zip":"0330000"},{"town":"大字三沢","koaza":"浜通","lat":40.669869,"lng":141.433997,"zip":"0330000"}]