[{"town":"大字相内","koaza":"","lat":40.443165,"lng":141.292302,"zip":"0390100"},{"town":"大字赤石","koaza":"","lat":40.405513,"lng":141.297487,"zip":"0390100"},{"town":"大字大向","koaza":"","lat":40.397098,"lng":141.286538,"zip":"0390100"},{"town":"大字沖田面","koaza":"","lat":40.420063,"lng":141.282471,"zip":"0390100"},{"town":"大字片岸","koaza":"","lat":40.469485,"lng":141.362834,"zip":"0390100"},{"town":"大字椛木","koaza":"","lat":40.444508,"lng":141.440046,"zip":"0390100"},{"town":"大字上名久井","koaza":"","lat":40.408635,"lng":141.327734,"zip":"0390100"},{"town":"大字剣吉","koaza":"","lat":40.449416,"lng":141.322647,"zip":"0390100"},{"town":"大字小泉","koaza":"","lat":40.47527,"lng":141.395931,"zip":"0390100"},{"town":"大字埖渡","koaza":"","lat":40.443518,"lng":141.399486,"zip":"0390100"},{"town":"大字小向","koaza":"","lat":40.417875,"lng":141.25241,"zip":"0390100"},{"town":"大字下名久井","koaza":"","lat":40.41778,"lng":141.373926,"zip":"0390100"},{"town":"大字杉沢","koaza":"","lat":40.444524,"lng":141.419034,"zip":"0390100"},{"town":"大字平","koaza":"","lat":40.40588,"lng":141.342177,"zip":"0390100"},{"town":"大字高瀬","koaza":"","lat":40.402356,"lng":141.317189,"zip":"0390100"},{"town":"大字高橋","koaza":"","lat":40.476004,"lng":141.390181,"zip":"0390100"},{"town":"大字玉掛","koaza":"","lat":40.419101,"lng":141.297058,"zip":"0390100"},{"town":"大字鳥舌内","koaza":"","lat":40.376761,"lng":141.337118,"zip":"0390100"},{"town":"大字斗賀","koaza":"","lat":40.467493,"lng":141.341458,"zip":"0390100"},{"town":"大字苫米地","koaza":"","lat":40.476718,"lng":141.374116,"zip":"0390100"},{"town":"大字鳥谷","koaza":"","lat":40.355651,"lng":141.368563,"zip":"0390100"},{"town":"大字虎渡","koaza":"","lat":40.433287,"lng":141.324374,"zip":"0390100"},{"town":"大字福田","koaza":"","lat":40.445985,"lng":141.376928,"zip":"0390100"},{"town":"大字法光寺","koaza":"","lat":40.38951,"lng":141.332941,"zip":"0390100"},{"town":"大字法師岡","koaza":"","lat":40.46476,"lng":141.412787,"zip":"0390100"},{"town":"大字麦沢","koaza":"","lat":40.494189,"lng":141.371964,"zip":"0390100"},{"town":"大字森越","koaza":"","lat":40.437272,"lng":141.358358,"zip":"0390100"},{"town":"大字大向","koaza":"船場平","lat":40.406084,"lng":141.271117,"zip":"0390100"},{"town":"大字大向","koaza":"府金下","lat":40.402905,"lng":141.26517,"zip":"0390100"},{"town":"大字大向","koaza":"後構","lat":40.39951,"lng":141.268784,"zip":"0390100"},{"town":"大字小向","koaza":"八幡","lat":40.407642,"lng":141.269609,"zip":"0390100"},{"town":"大字大向","koaza":"後渡","lat":40.397273,"lng":141.268653,"zip":"0390100"},{"town":"大字大向","koaza":"飛鳥","lat":40.401415,"lng":141.271153,"zip":"0390100"},{"town":"大字大向","koaza":"明土","lat":40.4042,"lng":141.269704,"zip":"0390100"},{"town":"大字大向","koaza":"勘吉","lat":40.395053,"lng":141.270468,"zip":"0390100"},{"town":"大字大向","koaza":"経ケ森","lat":40.398895,"lng":141.270862,"zip":"0390100"},{"town":"大字大向","koaza":"泉山道","lat":40.395185,"lng":141.272839,"zip":"0390100"},{"town":"大字沖田面","koaza":"上村","lat":40.407334,"lng":141.272288,"zip":"0390100"},{"town":"大字大向","koaza":"中居構","lat":40.401383,"lng":141.275479,"zip":"0390100"},{"town":"大字大向","koaza":"下タ構","lat":40.40391,"lng":141.272229,"zip":"0390100"},{"town":"大字大向","koaza":"田ノ尻","lat":40.404922,"lng":141.274886,"zip":"0390100"},{"town":"大字大向","koaza":"田ノ上","lat":40.396783,"lng":141.275914,"zip":"0390100"},{"town":"大字大向","koaza":"湧口","lat":40.399005,"lng":141.276917,"zip":"0390100"},{"town":"大字大向","koaza":"佐野平","lat":40.394467,"lng":141.27785,"zip":"0390100"},{"town":"大字大向","koaza":"牧野平","lat":40.400597,"lng":141.281928,"zip":"0390100"},{"town":"大字大向","koaza":"小波田","lat":40.398077,"lng":141.27468,"zip":"0390100"},{"town":"大字大向","koaza":"森合","lat":40.394134,"lng":141.275748,"zip":"0390100"},{"town":"大字大向","koaza":"仙ノ木平","lat":40.398377,"lng":141.285563,"zip":"0390100"}]