[{"town":"字赤川","koaza":"","lat":40.545274,"lng":141.333456,"zip":"0391500"},{"town":"字愛宕後","koaza":"","lat":40.51838,"lng":141.300083,"zip":"0391500"},{"town":"字愛宕下タ","koaza":"","lat":40.516199,"lng":141.301572,"zip":"0391500"},{"town":"字愛宕丁","koaza":"","lat":40.517171,"lng":141.302586,"zip":"0391500"},{"town":"字油出","koaza":"","lat":40.52512,"lng":141.292851,"zip":"0391500"},{"town":"字荒町","koaza":"","lat":40.520437,"lng":141.299342,"zip":"0391500"},{"town":"字五百久保","koaza":"","lat":40.522502,"lng":141.31761,"zip":"0391500"},{"town":"字石仏","koaza":"","lat":40.539505,"lng":141.329214,"zip":"0391500"},{"town":"字石仏上川原","koaza":"","lat":40.538796,"lng":141.32485,"zip":"0391500"},{"town":"字石仏前","koaza":"","lat":40.533772,"lng":141.328556,"zip":"0391500"},{"town":"字泉窪","koaza":"","lat":40.518617,"lng":141.31498,"zip":"0391500"},{"town":"字市川道十文字","koaza":"","lat":40.526799,"lng":141.306306,"zip":"0391500"},{"town":"字銀杏木","koaza":"","lat":40.538655,"lng":141.2941,"zip":"0391500"},{"town":"字一本木","koaza":"","lat":40.532561,"lng":141.292175,"zip":"0391500"},{"town":"字兎内","koaza":"","lat":40.540375,"lng":141.333,"zip":"0391500"},{"town":"字兎内上保戸沢","koaza":"","lat":40.531002,"lng":141.32561,"zip":"0391500"},{"town":"字兎内下保戸沢","koaza":"","lat":40.535191,"lng":141.332393,"zip":"0391500"},{"town":"字兎内下谷地","koaza":"","lat":40.540184,"lng":141.337032,"zip":"0391500"},{"town":"字姥堤","koaza":"","lat":40.531844,"lng":141.298533,"zip":"0391500"},{"town":"字ウルエ長根","koaza":"","lat":40.507108,"lng":141.304108,"zip":"0391500"},{"town":"字ウルエ長根下","koaza":"","lat":40.507887,"lng":141.301365,"zip":"0391500"},{"town":"字蛯川後","koaza":"","lat":40.544458,"lng":141.329526,"zip":"0391500"},{"town":"字蛯川前川原","koaza":"","lat":40.542583,"lng":141.331729,"zip":"0391500"},{"town":"字蛯川村","koaza":"","lat":40.54257,"lng":141.328177,"zip":"0391500"},{"town":"字追分","koaza":"","lat":40.5143,"lng":141.304909,"zip":"0391500"},{"town":"字応田","koaza":"","lat":40.545784,"lng":141.29259,"zip":"0391500"},{"town":"字大渡","koaza":"","lat":40.512915,"lng":141.309169,"zip":"0391500"},{"town":"字大渡道ノ下モ","koaza":"","lat":40.515939,"lng":141.312861,"zip":"0391500"},{"town":"字鍜冶屋窪","koaza":"","lat":40.531972,"lng":141.317645,"zip":"0391500"},{"town":"字鍜冶屋窪上ミ","koaza":"","lat":40.527373,"lng":141.312273,"zip":"0391500"},{"town":"字上兎内","koaza":"","lat":40.534902,"lng":141.323976,"zip":"0391500"},{"town":"字上大町","koaza":"","lat":40.52172,"lng":141.298951,"zip":"0391500"},{"town":"字上新道","koaza":"","lat":40.555911,"lng":141.331862,"zip":"0391500"},{"town":"字上長下","koaza":"","lat":40.503889,"lng":141.307598,"zip":"0391500"},{"town":"字上新井田","koaza":"","lat":40.530152,"lng":141.283992,"zip":"0391500"},{"town":"字上新井田前","koaza":"","lat":40.527207,"lng":141.291411,"zip":"0391500"},{"town":"字上根前","koaza":"","lat":40.535744,"lng":141.298258,"zip":"0391500"},{"town":"字上保戸沢","koaza":"","lat":40.519184,"lng":141.317621,"zip":"0391500"},{"town":"字傘松","koaza":"","lat":40.536102,"lng":141.290442,"zip":"0391500"},{"town":"字川原町","koaza":"","lat":40.525013,"lng":141.297764,"zip":"0391500"},{"town":"字川原町裏","koaza":"","lat":40.525973,"lng":141.29504,"zip":"0391500"},{"town":"字川原町下裏","koaza":"","lat":40.526325,"lng":141.298217,"zip":"0391500"},{"town":"字川原町西裏","koaza":"","lat":40.523472,"lng":141.294482,"zip":"0391500"},{"town":"字観音堂","koaza":"","lat":40.517562,"lng":141.297557,"zip":"0391500"},{"town":"字狐森","koaza":"","lat":40.516924,"lng":141.294521,"zip":"0391500"},{"town":"字狐森北","koaza":"","lat":40.519471,"lng":141.293543,"zip":"0391500"},{"town":"字久蔵窪","koaza":"","lat":40.520519,"lng":141.315091,"zip":"0391500"},{"town":"字熊ノ沢","koaza":"","lat":40.527504,"lng":141.310306,"zip":"0391500"},{"town":"字熊ノ沢頭","koaza":"","lat":40.525704,"lng":141.306948,"zip":"0391500"},{"town":"字熊野林","koaza":"","lat":40.539954,"lng":141.322506,"zip":"0391500"},{"town":"字熊野林後","koaza":"","lat":40.551711,"lng":141.319461,"zip":"0391500"},{"town":"字熊野林前","koaza":"","lat":40.539545,"lng":141.322786,"zip":"0391500"},{"town":"字毛無森","koaza":"","lat":40.526432,"lng":141.280886,"zip":"0391500"},{"town":"字越掛沢","koaza":"","lat":40.555581,"lng":141.306581,"zip":"0391500"},{"town":"字越掛沢道ノ下モ","koaza":"","lat":40.549794,"lng":141.311852,"zip":"0391500"},{"town":"字小渡","koaza":"","lat":40.527354,"lng":141.328176,"zip":"0391500"},{"town":"字小渡頭","koaza":"","lat":40.525408,"lng":141.324586,"zip":"0391500"},{"town":"字幸ノ神","koaza":"","lat":40.548836,"lng":141.314767,"zip":"0391500"},{"town":"字佐野上谷地","koaza":"","lat":40.542235,"lng":141.340617,"zip":"0391500"},{"town":"字鮫ノ口","koaza":"","lat":40.536412,"lng":141.334026,"zip":"0391500"},{"town":"字沢","koaza":"","lat":40.524331,"lng":141.300027,"zip":"0391500"},{"town":"字沢向","koaza":"","lat":40.522131,"lng":141.305921,"zip":"0391500"},{"town":"字鹿内","koaza":"","lat":40.541738,"lng":141.299,"zip":"0391500"},{"town":"字鹿内下モ","koaza":"","lat":40.551746,"lng":141.299514,"zip":"0391500"},{"town":"字下タノ沢","koaza":"","lat":40.521763,"lng":141.302769,"zip":"0391500"},{"town":"字下タノ沢頭","koaza":"","lat":40.518983,"lng":141.30672,"zip":"0391500"},{"town":"字下大町","koaza":"","lat":40.522736,"lng":141.300498,"zip":"0391500"},{"town":"字下モ沢向","koaza":"","lat":40.523961,"lng":141.305545,"zip":"0391500"},{"town":"字下中崎","koaza":"","lat":40.526189,"lng":141.309926,"zip":"0391500"},{"town":"字下長下タ","koaza":"","lat":40.506297,"lng":141.312657,"zip":"0391500"},{"town":"字下新井田","koaza":"","lat":40.538322,"lng":141.314073,"zip":"0391500"},{"town":"字下新井田前","koaza":"","lat":40.53822,"lng":141.316284,"zip":"0391500"},{"town":"字下根前","koaza":"","lat":40.541116,"lng":141.307754,"zip":"0391500"},{"town":"字下保戸沢","koaza":"","lat":40.527138,"lng":141.322012,"zip":"0391500"},{"town":"字正場沢","koaza":"","lat":40.519003,"lng":141.311126,"zip":"0391500"},{"town":"字正場沢長根","koaza":"","lat":40.521722,"lng":141.311715,"zip":"0391500"},{"town":"字治郎左エ門長根","koaza":"","lat":40.510951,"lng":141.295695,"zip":"0391500"},{"town":"字新蔵長根","koaza":"","lat":40.514864,"lng":141.310008,"zip":"0391500"},{"town":"字新丁","koaza":"","lat":40.519228,"lng":141.301894,"zip":"0391500"},{"town":"字新田窪","koaza":"","lat":40.526511,"lng":141.31758,"zip":"0391500"},{"town":"字新町","koaza":"","lat":40.520775,"lng":141.301138,"zip":"0391500"},{"town":"字神明後","koaza":"","lat":40.517677,"lng":141.303911,"zip":"0391500"},{"town":"字惣林橋","koaza":"","lat":40.503982,"lng":141.303702,"zip":"0391500"},{"town":"字大学沢","koaza":"","lat":40.537545,"lng":141.285213,"zip":"0391500"},{"town":"字大学沢向","koaza":"","lat":40.535244,"lng":141.277787,"zip":"0391500"},{"town":"字大工窪","koaza":"","lat":40.543731,"lng":141.282673,"zip":"0391500"},{"town":"字太平楽","koaza":"","lat":40.538651,"lng":141.310417,"zip":"0391500"},{"town":"字竹原","koaza":"","lat":40.524205,"lng":141.316804,"zip":"0391500"},{"town":"字舘","koaza":"","lat":40.523368,"lng":141.298001,"zip":"0391500"},{"town":"字地蔵岱","koaza":"","lat":40.516378,"lng":141.319366,"zip":"0391500"},{"town":"字丁塚","koaza":"","lat":40.52876,"lng":141.320335,"zip":"0391500"},{"town":"字塚無岱","koaza":"","lat":40.506936,"lng":141.297917,"zip":"0391500"},{"town":"字伝兵衛丁","koaza":"","lat":40.524807,"lng":141.29532,"zip":"0391500"},{"town":"字天満","koaza":"","lat":40.524442,"lng":141.302233,"zip":"0391500"},{"town":"字天満後","koaza":"","lat":40.526817,"lng":141.303542,"zip":"0391500"},{"town":"字天満下川原","koaza":"","lat":40.527854,"lng":141.302138,"zip":"0391500"},{"town":"字土井頭","koaza":"","lat":40.515974,"lng":141.306845,"zip":"0391500"},{"town":"字筒口川原","koaza":"","lat":40.531676,"lng":141.304314,"zip":"0391500"},{"town":"字徳良窪","koaza":"","lat":40.520791,"lng":141.321766,"zip":"0391500"},{"town":"字中崎","koaza":"","lat":40.52508,"lng":141.30882,"zip":"0391500"},{"town":"字中ノ沢","koaza":"","lat":40.513527,"lng":141.292763,"zip":"0391500"},{"town":"字中ノ沢西張","koaza":"","lat":40.518914,"lng":141.289918,"zip":"0391500"},{"town":"字中道","koaza":"","lat":40.522934,"lng":141.31117,"zip":"0391500"},{"town":"字中道十文字","koaza":"","lat":40.525791,"lng":141.313028,"zip":"0391500"},{"town":"字中寄","koaza":"","lat":40.547042,"lng":141.333302,"zip":"0391500"},{"town":"字苗代沢","koaza":"","lat":40.518472,"lng":141.326229,"zip":"0391500"},{"town":"字二階平","koaza":"","lat":40.522754,"lng":141.315065,"zip":"0391500"},{"town":"字二階平下タ","koaza":"","lat":40.524249,"lng":141.31335,"zip":"0391500"},{"town":"字西ノ沢","koaza":"","lat":40.532117,"lng":141.313112,"zip":"0391500"},{"town":"字二本柳","koaza":"","lat":40.511819,"lng":141.305571,"zip":"0391500"},{"town":"字二本柳向","koaza":"","lat":40.508502,"lng":141.306315,"zip":"0391500"},{"town":"字根岸","koaza":"","lat":40.531532,"lng":141.291109,"zip":"0391500"},{"town":"字野月","koaza":"","lat":40.521774,"lng":141.295712,"zip":"0391500"},{"town":"字白山","koaza":"","lat":40.540227,"lng":141.296811,"zip":"0391500"},{"town":"字博労町","koaza":"","lat":40.521663,"lng":141.30148,"zip":"0391500"},{"town":"字八景","koaza":"","lat":40.523703,"lng":141.289256,"zip":"0391500"},{"town":"字花道川原","koaza":"","lat":40.537305,"lng":141.319142,"zip":"0391500"},{"town":"字古街道長根","koaza":"","lat":40.51304,"lng":141.300744,"zip":"0391500"},{"town":"字古舘","koaza":"","lat":40.530407,"lng":141.306977,"zip":"0391500"},{"town":"字古舘下川原","koaza":"","lat":40.534924,"lng":141.311608,"zip":"0391500"},{"town":"字古舘向","koaza":"","lat":40.531209,"lng":141.31046,"zip":"0391500"},{"town":"字古舘脇","koaza":"","lat":40.528844,"lng":141.307523,"zip":"0391500"},{"town":"字古堂","koaza":"","lat":40.526714,"lng":141.2962,"zip":"0391500"},{"town":"字古堂後","koaza":"","lat":40.528675,"lng":141.293792,"zip":"0391500"},{"town":"字平佐窪","koaza":"","lat":40.538212,"lng":141.280523,"zip":"0391500"},{"town":"字堀合","koaza":"","lat":40.523256,"lng":141.299817,"zip":"0391500"},{"town":"字虫追塚前","koaza":"","lat":40.547509,"lng":141.285454,"zip":"0391500"},{"town":"字横丁","koaza":"","lat":40.522637,"lng":141.301629,"zip":"0391500"},{"town":"大字浅水","koaza":"","lat":40.469471,"lng":141.286167,"zip":"0391500"},{"town":"大字扇田","koaza":"","lat":40.493145,"lng":141.320921,"zip":"0391500"},{"town":"大字上市川","koaza":"","lat":40.562765,"lng":141.39458,"zip":"0391500"},{"town":"大字切谷内","koaza":"","lat":40.550237,"lng":141.356946,"zip":"0391500"},{"town":"大字倉石石沢","koaza":"","lat":40.512797,"lng":141.282917,"zip":"0391500"},{"town":"大字倉石中市","koaza":"","lat":40.506763,"lng":141.245463,"zip":"0391500"},{"town":"大字倉石又重","koaza":"","lat":40.482221,"lng":141.215947,"zip":"0391500"},{"town":"大字手倉橋","koaza":"","lat":40.441841,"lng":141.26101,"zip":"0391500"},{"town":"大字豊間内","koaza":"","lat":40.501871,"lng":141.345414,"zip":"0391500"},{"town":"大字倉石石沢","koaza":"境","lat":40.519552,"lng":141.288388,"zip":"0391500"},{"town":"大字倉石石沢","koaza":"蟹沢","lat":40.516247,"lng":141.289478,"zip":"0391500"},{"town":"大字倉石石沢","koaza":"雨原平","lat":40.514857,"lng":141.289656,"zip":"0391500"},{"town":"大字倉石石沢","koaza":"下雨原平","lat":40.513652,"lng":141.289856,"zip":"0391500"},{"town":"大字浅水","koaza":"北向","lat":40.469459,"lng":141.292443,"zip":"0391500"},{"town":"大字浅水","koaza":"六角","lat":40.472347,"lng":141.294579,"zip":"0391500"},{"town":"大字浅水","koaza":"浅水","lat":40.475445,"lng":141.301498,"zip":"0391500"},{"town":"大字倉石石沢","koaza":"谷地頭","lat":40.504452,"lng":141.298451,"zip":"0391500"},{"town":"大字浅水","koaza":"佐野","lat":40.472232,"lng":141.3002,"zip":"0391500"},{"town":"大字浅水","koaza":"上平","lat":40.47759,"lng":141.302041,"zip":"0391500"},{"town":"大字浅水","koaza":"岩ノ沢","lat":40.473528,"lng":141.303169,"zip":"0391500"},{"town":"大字浅水","koaza":"川向","lat":40.474353,"lng":141.303081,"zip":"0391500"},{"town":"大字浅水","koaza":"下平","lat":40.479069,"lng":141.305691,"zip":"0391500"},{"town":"大字浅水","koaza":"十海塚","lat":40.484285,"lng":141.309437,"zip":"0391500"},{"town":"大字扇田","koaza":"字西ノ沢","lat":40.498286,"lng":141.317847,"zip":"0391500"},{"town":"大字扇田","koaza":"高屋敷","lat":40.494775,"lng":141.315957,"zip":"0391500"},{"town":"大字扇田","koaza":"扇田","lat":40.487965,"lng":141.317209,"zip":"0391500"},{"town":"大字豊間内","koaza":"地蔵平","lat":40.507217,"lng":141.32406,"zip":"0391500"},{"town":"大字扇田","koaza":"長下タ","lat":40.504334,"lng":141.316134,"zip":"0391500"},{"town":"大字扇田","koaza":"家ノ向","lat":40.485845,"lng":141.318634,"zip":"0391500"},{"town":"大字扇田","koaza":"北ノ股","lat":40.491109,"lng":141.318701,"zip":"0391500"},{"town":"大字扇田","koaza":"字野月","lat":40.48967,"lng":141.326283,"zip":"0391500"},{"town":"大字扇田","koaza":"寺沢","lat":40.495013,"lng":141.326539,"zip":"0391500"},{"town":"大字扇田","koaza":"寺沢前","lat":40.493479,"lng":141.32811,"zip":"0391500"},{"town":"大字扇田","koaza":"野沢","lat":40.490158,"lng":141.326006,"zip":"0391500"},{"town":"大字切谷内","koaza":"字小渡","lat":40.517749,"lng":141.333221,"zip":"0391500"},{"town":"大字豊間内","koaza":"坂ノ上","lat":40.505472,"lng":141.334504,"zip":"0391500"},{"town":"大字切谷内","koaza":"上榊窪","lat":40.537582,"lng":141.341837,"zip":"0391500"},{"town":"大字豊間内","koaza":"高寺","lat":40.499336,"lng":141.340575,"zip":"0391500"},{"town":"大字豊間内","koaza":"熊戸","lat":40.510133,"lng":141.336337,"zip":"0391500"},{"town":"大字切谷内","koaza":"大森","lat":40.549656,"lng":141.338553,"zip":"0391500"},{"town":"大字切谷内","koaza":"大森前川原","lat":40.546958,"lng":141.339146,"zip":"0391500"},{"town":"大字切谷内","koaza":"佐野上平","lat":40.544073,"lng":141.340257,"zip":"0391500"},{"town":"大字豊間内","koaza":"志戸岸","lat":40.508776,"lng":141.34956,"zip":"0391500"},{"town":"大字切谷内","koaza":"北田ノ沢","lat":40.576709,"lng":141.343512,"zip":"0391500"},{"town":"大字切谷内","koaza":"佐野","lat":40.545533,"lng":141.345741,"zip":"0391500"},{"town":"大字豊間内","koaza":"高寺前","lat":40.497686,"lng":141.344768,"zip":"0391500"},{"town":"大字切谷内","koaza":"淋代","lat":40.545888,"lng":141.349042,"zip":"0391500"},{"town":"大字豊間内","koaza":"岩ノ脇","lat":40.493571,"lng":141.343926,"zip":"0391500"},{"town":"大字切谷内","koaza":"外ノ沢","lat":40.552954,"lng":141.353829,"zip":"0391500"},{"town":"大字切谷内","koaza":"佐野谷地","lat":40.54567,"lng":141.351803,"zip":"0391500"},{"town":"大字豊間内","koaza":"豊間内","lat":40.499412,"lng":141.347671,"zip":"0391500"},{"town":"大字豊間内","koaza":"上前田","lat":40.497119,"lng":141.349641,"zip":"0391500"},{"town":"大字豊間内","koaza":"熊戸前","lat":40.502827,"lng":141.348363,"zip":"0391500"},{"town":"大字切谷内","koaza":"元年沢","lat":40.534008,"lng":141.349547,"zip":"0391500"},{"town":"大字豊間内","koaza":"上源兵衛","lat":40.500263,"lng":141.350979,"zip":"0391500"},{"town":"大字豊間内","koaza":"大沢前","lat":40.505935,"lng":141.351746,"zip":"0391500"},{"town":"大字切谷内","koaza":"大久木","lat":40.537964,"lng":141.35261,"zip":"0391500"},{"town":"大字豊間内","koaza":"久保田","lat":40.506743,"lng":141.352589,"zip":"0391500"},{"town":"大字豊間内","koaza":"狐沢","lat":40.514822,"lng":141.349066,"zip":"0391500"},{"town":"大字豊間内","koaza":"上谷地","lat":40.51051,"lng":141.354995,"zip":"0391500"},{"town":"大字切谷内","koaza":"山崎川原","lat":40.552645,"lng":141.360542,"zip":"0391500"},{"town":"大字豊間内","koaza":"大開","lat":40.510675,"lng":141.356152,"zip":"0391500"},{"town":"大字切谷内","koaza":"明夫沢","lat":40.520752,"lng":141.358361,"zip":"0391500"},{"town":"大字切谷内","koaza":"切谷内村","lat":40.548434,"lng":141.355132,"zip":"0391500"},{"town":"大字切谷内","koaza":"向田","lat":40.548394,"lng":141.357769,"zip":"0391500"},{"town":"大字切谷内","koaza":"高田","lat":40.549561,"lng":141.362316,"zip":"0391500"},{"town":"大字切谷内","koaza":"大沢尻","lat":40.555088,"lng":141.361211,"zip":"0391500"},{"town":"大字切谷内","koaza":"粒ケ谷地","lat":40.553106,"lng":141.362555,"zip":"0391500"},{"town":"大字切谷内","koaza":"上菖蒲川","lat":40.551652,"lng":141.366344,"zip":"0391500"},{"town":"大字切谷内","koaza":"粒ケ谷地下谷地","lat":40.555055,"lng":141.363881,"zip":"0391500"},{"town":"大字上市川","koaza":"大峯嶽","lat":40.562223,"lng":141.382173,"zip":"0391500"},{"town":"大字切谷内","koaza":"菖蒲川上谷地","lat":40.550376,"lng":141.367981,"zip":"0391500"},{"town":"大字切谷内","koaza":"菖蒲川前谷地","lat":40.55075,"lng":141.370207,"zip":"0391500"},{"town":"大字切谷内","koaza":"菖蒲川後","lat":40.55297,"lng":141.372428,"zip":"0391500"},{"town":"大字切谷内","koaza":"下平谷地","lat":40.545878,"lng":141.374288,"zip":"0391500"},{"town":"大字切谷内","koaza":"中菖蒲川","lat":40.550535,"lng":141.372074,"zip":"0391500"},{"town":"大字切谷内","koaza":"蟹沢","lat":40.543004,"lng":141.378242,"zip":"0391500"},{"town":"大字切谷内","koaza":"石ケ沢","lat":40.530158,"lng":141.383041,"zip":"0391500"},{"town":"大字上市川","koaza":"沼頭","lat":40.5731,"lng":141.381572,"zip":"0391500"},{"town":"大字上市川","koaza":"鍋沢","lat":40.556782,"lng":141.376902,"zip":"0391500"},{"town":"大字切谷内","koaza":"下蛇沢","lat":40.536948,"lng":141.376561,"zip":"0391500"},{"town":"大字上市川","koaza":"上川原","lat":40.556564,"lng":141.381558,"zip":"0391500"},{"town":"大字上市川","koaza":"字赤川々原","lat":40.554783,"lng":141.385024,"zip":"0391500"},{"town":"大字上市川","koaza":"中坪","lat":40.552185,"lng":141.383026,"zip":"0391500"},{"town":"大字上市川","koaza":"中里谷地","lat":40.550147,"lng":141.384046,"zip":"0391500"},{"town":"大字上市川","koaza":"中里山","lat":40.546853,"lng":141.384271,"zip":"0391500"},{"town":"大字切谷内","koaza":"新山尻","lat":40.539937,"lng":141.384737,"zip":"0391500"},{"town":"大字上市川","koaza":"林ノ前","lat":40.557808,"lng":141.382741,"zip":"0391500"},{"town":"大字上市川","koaza":"越口","lat":40.580297,"lng":141.395002,"zip":"0391500"},{"town":"大字上市川","koaza":"家ノ後","lat":40.557953,"lng":141.385802,"zip":"0391500"},{"town":"大字上市川","koaza":"大谷地","lat":40.563782,"lng":141.388336,"zip":"0391500"},{"town":"大字上市川","koaza":"中山前","lat":40.563541,"lng":141.390493,"zip":"0391500"},{"town":"大字上市川","koaza":"林ノ下","lat":40.559431,"lng":141.38667,"zip":"0391500"},{"town":"大字上市川","koaza":"前田","lat":40.553285,"lng":141.387383,"zip":"0391500"},{"town":"大字上市川","koaza":"神明川原","lat":40.561265,"lng":141.395213,"zip":"0391500"},{"town":"大字上市川","koaza":"沼廻","lat":40.553815,"lng":141.390527,"zip":"0391500"},{"town":"大字上市川","koaza":"桜沢","lat":40.544492,"lng":141.394298,"zip":"0391500"},{"town":"大字上市川","koaza":"十文字辻","lat":40.555216,"lng":141.390624,"zip":"0391500"},{"town":"大字上市川","koaza":"上市川","lat":40.55697,"lng":141.390868,"zip":"0391500"},{"town":"大字上市川","koaza":"高田","lat":40.556825,"lng":141.392871,"zip":"0391500"},{"town":"大字上市川","koaza":"日向山","lat":40.572791,"lng":141.395636,"zip":"0391500"},{"town":"大字上市川","koaza":"順礼森","lat":40.552325,"lng":141.394487,"zip":"0391500"},{"town":"大字上市川","koaza":"沼下","lat":40.568931,"lng":141.39573,"zip":"0391500"},{"town":"大字上市川","koaza":"弥三郎","lat":40.562448,"lng":141.392629,"zip":"0391500"},{"town":"大字上市川","koaza":"明神平","lat":40.551361,"lng":141.39406,"zip":"0391500"},{"town":"大字上市川","koaza":"後田","lat":40.568324,"lng":141.397521,"zip":"0391500"},{"town":"大字上市川","koaza":"大タルミ","lat":40.580177,"lng":141.402749,"zip":"0391500"},{"town":"大字上市川","koaza":"堺谷地","lat":40.572245,"lng":141.401322,"zip":"0391500"},{"town":"大字上市川","koaza":"立谷地","lat":40.559222,"lng":141.399469,"zip":"0391500"},{"town":"大字上市川","koaza":"窪田","lat":40.5665,"lng":141.399222,"zip":"0391500"},{"town":"大字上市川","koaza":"附柳","lat":40.555445,"lng":141.400018,"zip":"0391500"},{"town":"大字上市川","koaza":"御兵糧","lat":40.564756,"lng":141.40051,"zip":"0391500"},{"town":"大字上市川","koaza":"中筒","lat":40.542543,"lng":141.411305,"zip":"0391500"},{"town":"大字上市川","koaza":"畑田","lat":40.570137,"lng":141.401644,"zip":"0391500"},{"town":"大字上市川","koaza":"中平","lat":40.56117,"lng":141.402613,"zip":"0391500"},{"town":"大字上市川","koaza":"皀窪","lat":40.549924,"lng":141.40603,"zip":"0391500"},{"town":"大字上市川","koaza":"池ノ堂向","lat":40.565018,"lng":141.403785,"zip":"0391500"},{"town":"大字上市川","koaza":"岡喰","lat":40.552018,"lng":141.400869,"zip":"0391500"},{"town":"大字上市川","koaza":"外ノ沢","lat":40.558428,"lng":141.405856,"zip":"0391500"},{"town":"大字上市川","koaza":"下川原","lat":40.569792,"lng":141.404034,"zip":"0391500"},{"town":"大字上市川","koaza":"下谷地","lat":40.564201,"lng":141.406289,"zip":"0391500"},{"town":"大字上市川","koaza":"弥次郎","lat":40.570334,"lng":141.40863,"zip":"0391500"},{"town":"大字上市川","koaza":"石上","lat":40.569119,"lng":141.409661,"zip":"0391500"},{"town":"大字上市川","koaza":"石呑","lat":40.572935,"lng":141.412325,"zip":"0391500"},{"town":"大字上市川","koaza":"天狗沢","lat":40.553341,"lng":141.416254,"zip":"0391500"},{"town":"大字上市川","koaza":"善浪","lat":40.557631,"lng":141.415187,"zip":"0391500"},{"town":"大字上市川","koaza":"駒ケ沢","lat":40.542252,"lng":141.413176,"zip":"0391500"},{"town":"大字上市川","koaza":"林ノ上","lat":40.565905,"lng":141.410004,"zip":"0391500"},{"town":"大字上市川","koaza":"鳩岡平","lat":40.563439,"lng":141.416237,"zip":"0391500"},{"town":"大字上市川","koaza":"前谷地","lat":40.56633,"lng":141.417875,"zip":"0391500"},{"town":"大字上市川","koaza":"越戸","lat":40.571531,"lng":141.417818,"zip":"0391500"},{"town":"大字上市川","koaza":"山崎","lat":40.56495,"lng":141.418145,"zip":"0391500"},{"town":"大字上市川","koaza":"前堀","lat":40.549791,"lng":141.422501,"zip":"0391500"},{"town":"大字上市川","koaza":"堤下","lat":40.5611,"lng":141.422134,"zip":"0391500"},{"town":"大字上市川","koaza":"小場蔵","lat":40.556512,"lng":141.421818,"zip":"0391500"},{"town":"大字浅水","koaza":"蒼前","lat":40.471099,"lng":141.290488,"zip":"0391500"},{"town":"大字浅水","koaza":"音坂","lat":40.472909,"lng":141.29048,"zip":"0391500"},{"town":"大字浅水","koaza":"権現林","lat":40.475729,"lng":141.305199,"zip":"0391500"},{"town":"大字扇田","koaza":"家ノ表","lat":40.487331,"lng":141.313214,"zip":"0391500"},{"town":"大字扇田","koaza":"鳥内沢","lat":40.491008,"lng":141.317622,"zip":"0391500"},{"town":"大字扇田","koaza":"下関川","lat":40.491095,"lng":141.328359,"zip":"0391500"},{"town":"大字扇田","koaza":"上関川","lat":40.487922,"lng":141.328071,"zip":"0391500"},{"town":"大字豊間内","koaza":"字天満","lat":40.492792,"lng":141.342138,"zip":"0391500"},{"town":"大字豊間内","koaza":"五ケ久保","lat":40.503335,"lng":141.348117,"zip":"0391500"},{"town":"大字豊間内","koaza":"大沢","lat":40.508545,"lng":141.34714,"zip":"0391500"},{"town":"大字切谷内","koaza":"堤頭","lat":40.521983,"lng":141.349617,"zip":"0391500"},{"town":"大字切谷内","koaza":"大久木沢","lat":40.530536,"lng":141.350008,"zip":"0391500"},{"town":"大字浅水","koaza":"前川原","lat":40.474707,"lng":141.301548,"zip":"0391500"},{"town":"大字切谷内","koaza":"佐野前谷地","lat":40.543067,"lng":141.34259,"zip":"0391500"},{"town":"大字切谷内","koaza":"高田川原","lat":40.550595,"lng":141.35859,"zip":"0391500"},{"town":"大字切谷内","koaza":"新助沢","lat":40.530644,"lng":141.37159,"zip":"0391500"},{"town":"大字切谷内","koaza":"四五市","lat":40.533941,"lng":141.381314,"zip":"0391500"},{"town":"大字切谷内","koaza":"上平谷地","lat":40.541694,"lng":141.372383,"zip":"0391500"},{"town":"大字上市川","koaza":"細谷地","lat":40.558497,"lng":141.380496,"zip":"0391500"},{"town":"大字上市川","koaza":"前袋","lat":40.559179,"lng":141.389427,"zip":"0391500"},{"town":"大字上市川","koaza":"堰向","lat":40.570979,"lng":141.405895,"zip":"0391500"},{"town":"大字上市川","koaza":"中山","lat":40.567115,"lng":141.385425,"zip":"0391500"},{"town":"大字上市川","koaza":"後川原","lat":40.557727,"lng":141.388202,"zip":"0391500"},{"town":"大字上市川","koaza":"中川原","lat":40.567329,"lng":141.401634,"zip":"0391500"},{"town":"大字上市川","koaza":"長坂","lat":40.550057,"lng":141.397549,"zip":"0391500"},{"town":"大字上市川","koaza":"二堤","lat":40.55586,"lng":141.397113,"zip":"0391500"},{"town":"大字上市川","koaza":"内窪","lat":40.552675,"lng":141.397077,"zip":"0391500"},{"town":"大字上市川","koaza":"宮沢堀","lat":40.560869,"lng":141.407453,"zip":"0391500"},{"town":"大字上市川","koaza":"江舘","lat":40.556291,"lng":141.395362,"zip":"0391500"},{"town":"大字切谷内","koaza":"佐野根前","lat":40.53482,"lng":141.335253,"zip":"0391500"},{"town":"大字切谷内","koaza":"大開","lat":40.549583,"lng":141.33515,"zip":"0391500"},{"town":"大字切谷内","koaza":"長屋","lat":40.568189,"lng":141.353851,"zip":"0391500"},{"town":"大字切谷内","koaza":"大畑","lat":40.560289,"lng":141.364561,"zip":"0391500"},{"town":"大字切谷内","koaza":"段ノ越","lat":40.554545,"lng":141.366826,"zip":"0391500"}]