[{"town":"字荒内","koaza":"","lat":41.059074,"lng":141.255139,"zip":"0394100"},{"town":"字有畑","koaza":"","lat":41.132426,"lng":141.271897,"zip":"0394100"},{"town":"字家ノ前川目","koaza":"","lat":41.109422,"lng":141.259399,"zip":"0394100"},{"town":"字イタヤノ木","koaza":"","lat":41.066999,"lng":141.266482,"zip":"0394100"},{"town":"字稲荷平","koaza":"","lat":41.120941,"lng":141.264246,"zip":"0394100"},{"town":"字牛ノ沢","koaza":"","lat":41.041194,"lng":141.263886,"zip":"0394100"},{"town":"字牛ノ沢川目","koaza":"","lat":41.044067,"lng":141.257021,"zip":"0394100"},{"town":"字夷ケ沢平","koaza":"","lat":41.121939,"lng":141.275068,"zip":"0394100"},{"town":"字大川端","koaza":"","lat":41.08263,"lng":141.253515,"zip":"0394100"},{"town":"字大畑","koaza":"","lat":41.12829,"lng":141.276425,"zip":"0394100"},{"town":"字椛名木","koaza":"","lat":41.088023,"lng":141.254849,"zip":"0394100"},{"town":"字上イタヤノ木","koaza":"","lat":41.070008,"lng":141.251534,"zip":"0394100"},{"town":"字上外ノ沢","koaza":"","lat":41.06258,"lng":141.255676,"zip":"0394100"},{"town":"字上田ノ沢","koaza":"","lat":41.093047,"lng":141.265101,"zip":"0394100"},{"town":"字茅平","koaza":"","lat":41.102479,"lng":141.252049,"zip":"0394100"},{"town":"字川尻","koaza":"","lat":41.105971,"lng":141.250736,"zip":"0394100"},{"town":"字川太郎川目","koaza":"","lat":41.128764,"lng":141.28339,"zip":"0394100"},{"town":"字北川台","koaza":"","lat":41.068043,"lng":141.290866,"zip":"0394100"},{"town":"字獅子沢平","koaza":"","lat":41.119186,"lng":141.293735,"zip":"0394100"},{"town":"字下川原","koaza":"","lat":41.08557,"lng":141.245306,"zip":"0394100"},{"town":"字下外ノ沢","koaza":"","lat":41.061586,"lng":141.248783,"zip":"0394100"},{"town":"字下田ノ沢","koaza":"","lat":41.092501,"lng":141.251724,"zip":"0394100"},{"town":"字下苗代川目","koaza":"","lat":41.132683,"lng":141.277453,"zip":"0394100"},{"town":"字舘ノ後","koaza":"","lat":41.087094,"lng":141.249727,"zip":"0394100"},{"town":"字太郎須田","koaza":"","lat":41.085986,"lng":141.278412,"zip":"0394100"},{"town":"字塚名平","koaza":"","lat":41.091536,"lng":141.249612,"zip":"0394100"},{"town":"字寺下","koaza":"","lat":41.083509,"lng":141.2491,"zip":"0394100"},{"town":"字泊川","koaza":"","lat":41.007553,"lng":141.26775,"zip":"0394100"},{"town":"字百目木","koaza":"","lat":41.040039,"lng":141.251216,"zip":"0394100"},{"town":"字豊栄平","koaza":"","lat":41.015181,"lng":141.250533,"zip":"0394100"},{"town":"字鶏ケ唄","koaza":"","lat":41.098672,"lng":141.276388,"zip":"0394100"},{"town":"字中椛名木","koaza":"","lat":41.0903,"lng":141.256123,"zip":"0394100"},{"town":"字中田ノ沢","koaza":"","lat":41.091897,"lng":141.259805,"zip":"0394100"},{"town":"字中畑","koaza":"","lat":41.127267,"lng":141.268807,"zip":"0394100"},{"town":"字梨木平","koaza":"","lat":41.114928,"lng":141.28466,"zip":"0394100"},{"town":"字苗代川目","koaza":"","lat":41.134252,"lng":141.300546,"zip":"0394100"},{"town":"字鶏沢","koaza":"","lat":41.128009,"lng":141.272172,"zip":"0394100"},{"town":"字浜懸","koaza":"","lat":41.081464,"lng":141.243503,"zip":"0394100"},{"town":"字浜田","koaza":"","lat":41.138802,"lng":141.277381,"zip":"0394100"},{"town":"字林尻","koaza":"","lat":41.146145,"lng":141.288982,"zip":"0394100"},{"town":"字林ノ後","koaza":"","lat":41.084727,"lng":141.25251,"zip":"0394100"},{"town":"字林ノ脇","koaza":"","lat":41.082138,"lng":141.260379,"zip":"0394100"},{"town":"字桧木","koaza":"","lat":41.107005,"lng":141.257626,"zip":"0394100"},{"town":"字雲雀平","koaza":"","lat":40.992263,"lng":141.250655,"zip":"0394100"},{"town":"字二又","koaza":"","lat":41.004412,"lng":141.288626,"zip":"0394100"},{"town":"字吹越","koaza":"","lat":41.018777,"lng":141.241269,"zip":"0394100"},{"town":"字大豆田","koaza":"","lat":41.114213,"lng":141.272679,"zip":"0394100"},{"town":"字三保野","koaza":"","lat":41.078676,"lng":141.251239,"zip":"0394100"},{"town":"字明神平","koaza":"","lat":41.030288,"lng":141.276975,"zip":"0394100"},{"town":"字向平","koaza":"","lat":41.053481,"lng":141.2511,"zip":"0394100"},{"town":"字モダシ平","koaza":"","lat":41.050168,"lng":141.265501,"zip":"0394100"},{"town":"字屋敷形","koaza":"","lat":41.077235,"lng":141.244079,"zip":"0394100"},{"town":"字横浜","koaza":"","lat":41.08321,"lng":141.24612,"zip":"0394100"}]