[{"town":"字赤坂","koaza":"","lat":40.864448,"lng":141.133531,"zip":"0393100"},{"town":"字荒田ノ沢","koaza":"","lat":40.863299,"lng":141.111506,"zip":"0393100"},{"town":"字有戸","koaza":"","lat":40.921468,"lng":141.192921,"zip":"0393100"},{"town":"字有戸鳥井平","koaza":"","lat":40.888261,"lng":141.167426,"zip":"0393100"},{"town":"字家ノ上","koaza":"","lat":40.874059,"lng":141.096578,"zip":"0393100"},{"town":"字石神裏","koaza":"","lat":40.869776,"lng":141.132726,"zip":"0393100"},{"town":"字一ノ渡","koaza":"","lat":40.839317,"lng":141.129925,"zip":"0393100"},{"town":"字一ノ渡向","koaza":"","lat":40.836522,"lng":141.131585,"zip":"0393100"},{"town":"字大平下","koaza":"","lat":40.870075,"lng":141.086856,"zip":"0393100"},{"town":"字大月平","koaza":"","lat":40.875692,"lng":141.144649,"zip":"0393100"},{"town":"字大谷地東沢","koaza":"","lat":40.871126,"lng":141.159268,"zip":"0393100"},{"town":"字小沢平","koaza":"","lat":40.912935,"lng":141.189311,"zip":"0393100"},{"town":"字蟹田","koaza":"","lat":40.9035,"lng":141.188126,"zip":"0393100"},{"town":"字上河渡頭","koaza":"","lat":40.868704,"lng":141.078668,"zip":"0393100"},{"town":"字上川原","koaza":"","lat":40.854706,"lng":141.127773,"zip":"0393100"},{"town":"字上小中野","koaza":"","lat":40.844141,"lng":141.105575,"zip":"0393100"},{"town":"字上田表","koaza":"","lat":40.848026,"lng":141.132195,"zip":"0393100"},{"town":"字上田川原","koaza":"","lat":40.847492,"lng":141.13135,"zip":"0393100"},{"town":"字上前田","koaza":"","lat":40.85535,"lng":141.130835,"zip":"0393100"},{"town":"字上御手洗瀬","koaza":"","lat":40.864583,"lng":141.104894,"zip":"0393100"},{"town":"字上与田川","koaza":"","lat":40.846222,"lng":141.120749,"zip":"0393100"},{"town":"字川目","koaza":"","lat":40.837263,"lng":141.133497,"zip":"0393100"},{"town":"字観音林後","koaza":"","lat":40.859089,"lng":141.117108,"zip":"0393100"},{"town":"字観音林前田","koaza":"","lat":40.86482,"lng":141.119617,"zip":"0393100"},{"town":"字観音林脇","koaza":"","lat":40.858717,"lng":141.118349,"zip":"0393100"},{"town":"字木明","koaza":"","lat":40.880253,"lng":141.164715,"zip":"0393100"},{"town":"字切明","koaza":"","lat":40.853349,"lng":141.115931,"zip":"0393100"},{"town":"字久田","koaza":"","lat":40.848921,"lng":141.12745,"zip":"0393100"},{"town":"字笹館","koaza":"","lat":40.867665,"lng":141.118946,"zip":"0393100"},{"town":"字獅子沢","koaza":"","lat":40.85673,"lng":141.087877,"zip":"0393100"},{"town":"字下道","koaza":"","lat":40.91497,"lng":141.193159,"zip":"0393100"},{"town":"字地続山","koaza":"","lat":40.87159,"lng":141.072265,"zip":"0393100"},{"town":"字柴崎","koaza":"","lat":40.881937,"lng":141.073288,"zip":"0393100"},{"town":"字下角","koaza":"","lat":40.895972,"lng":141.177233,"zip":"0393100"},{"town":"字下河渡頭","koaza":"","lat":40.876504,"lng":141.089487,"zip":"0393100"},{"town":"字下上田表","koaza":"","lat":40.844983,"lng":141.132415,"zip":"0393100"},{"town":"字下小中野","koaza":"","lat":40.857934,"lng":141.119328,"zip":"0393100"},{"town":"字下坂","koaza":"","lat":40.864326,"lng":141.145361,"zip":"0393100"},{"town":"字下前田","koaza":"","lat":40.857403,"lng":141.128787,"zip":"0393100"},{"town":"字下松ノ木平","koaza":"","lat":40.853744,"lng":141.123791,"zip":"0393100"},{"town":"字下御手洗瀬","koaza":"","lat":40.870267,"lng":141.111549,"zip":"0393100"},{"town":"字下与田川","koaza":"","lat":40.85527,"lng":141.123291,"zip":"0393100"},{"town":"字十文字","koaza":"","lat":40.871705,"lng":141.094648,"zip":"0393100"},{"town":"字白岩","koaza":"","lat":40.861806,"lng":141.125082,"zip":"0393100"},{"town":"字白岩向","koaza":"","lat":40.861722,"lng":141.122331,"zip":"0393100"},{"town":"字新田","koaza":"","lat":40.849942,"lng":141.130294,"zip":"0393100"},{"town":"字陣場川原","koaza":"","lat":40.868549,"lng":141.095028,"zip":"0393100"},{"town":"字新町裏","koaza":"","lat":40.865877,"lng":141.12336,"zip":"0393100"},{"town":"字助佐小路","koaza":"","lat":40.866917,"lng":141.134471,"zip":"0393100"},{"town":"字雑吉沢","koaza":"","lat":40.854324,"lng":141.148075,"zip":"0393100"},{"town":"字滝田","koaza":"","lat":40.861472,"lng":141.109293,"zip":"0393100"},{"town":"字田名部道","koaza":"","lat":40.874585,"lng":141.136733,"zip":"0393100"},{"town":"字種川","koaza":"","lat":40.85994,"lng":141.129478,"zip":"0393100"},{"town":"字田狭沢","koaza":"","lat":40.870877,"lng":141.142859,"zip":"0393100"},{"town":"字田端","koaza":"","lat":40.876113,"lng":141.08569,"zip":"0393100"},{"town":"字タラノ木","koaza":"","lat":40.86919,"lng":141.144519,"zip":"0393100"},{"town":"字槻ノ木","koaza":"","lat":40.86468,"lng":141.093866,"zip":"0393100"},{"town":"字寺ノ沢","koaza":"","lat":40.859805,"lng":141.143489,"zip":"0393100"},{"town":"字戸田ノ沢","koaza":"","lat":40.851469,"lng":141.132244,"zip":"0393100"},{"town":"字鳥井平","koaza":"","lat":40.870279,"lng":141.107565,"zip":"0393100"},{"town":"字中河渡頭","koaza":"","lat":40.875151,"lng":141.085835,"zip":"0393100"},{"town":"字中小中野","koaza":"","lat":40.85739,"lng":141.120664,"zip":"0393100"},{"town":"字中田","koaza":"","lat":40.913182,"lng":141.195679,"zip":"0393100"},{"town":"字中道","koaza":"","lat":40.8712,"lng":141.138763,"zip":"0393100"},{"town":"字中屋敷","koaza":"","lat":40.844954,"lng":141.128888,"zip":"0393100"},{"town":"字中与田川","koaza":"","lat":40.844375,"lng":141.116353,"zip":"0393100"},{"town":"字中渡","koaza":"","lat":40.878512,"lng":141.089245,"zip":"0393100"},{"town":"字鳴沢","koaza":"","lat":40.85434,"lng":141.125914,"zip":"0393100"},{"town":"字二本木","koaza":"","lat":40.866802,"lng":141.112463,"zip":"0393100"},{"town":"字二本木向","koaza":"","lat":40.863664,"lng":141.117252,"zip":"0393100"},{"town":"字二本木向前田","koaza":"","lat":40.865424,"lng":141.116346,"zip":"0393100"},{"town":"字野辺地","koaza":"","lat":40.866813,"lng":141.126459,"zip":"0393100"},{"town":"字二十平","koaza":"","lat":40.863877,"lng":141.107436,"zip":"0393100"},{"town":"字八ノ木谷地","koaza":"","lat":40.879822,"lng":141.083649,"zip":"0393100"},{"town":"字浜掛","koaza":"","lat":40.869901,"lng":141.123298,"zip":"0393100"},{"town":"字春木場沢","koaza":"","lat":40.866692,"lng":141.173634,"zip":"0393100"},{"town":"字東太田沢","koaza":"","lat":40.885254,"lng":141.197788,"zip":"0393100"},{"town":"字干草橋","koaza":"","lat":40.878662,"lng":141.15851,"zip":"0393100"},{"town":"字昼場","koaza":"","lat":40.854216,"lng":141.129805,"zip":"0393100"},{"town":"字枇杷野","koaza":"","lat":40.844485,"lng":141.095713,"zip":"0393100"},{"town":"字船橋","koaza":"","lat":40.856079,"lng":141.135704,"zip":"0393100"},{"town":"字古明前","koaza":"","lat":40.893177,"lng":141.170014,"zip":"0393100"},{"town":"字坊ノ塚","koaza":"","lat":40.853879,"lng":141.13444,"zip":"0393100"},{"town":"字洞内","koaza":"","lat":40.867925,"lng":141.154584,"zip":"0393100"},{"town":"字前田","koaza":"","lat":40.864697,"lng":141.121723,"zip":"0393100"},{"town":"字前平","koaza":"","lat":40.862329,"lng":141.115046,"zip":"0393100"},{"town":"字馬門","koaza":"","lat":40.875454,"lng":141.096585,"zip":"0393100"},{"town":"字馬門道","koaza":"","lat":40.871423,"lng":141.115286,"zip":"0393100"},{"town":"字松ノ木","koaza":"","lat":40.849246,"lng":141.086521,"zip":"0393100"},{"town":"字松ノ木平","koaza":"","lat":40.846994,"lng":141.123412,"zip":"0393100"},{"town":"字水ケ沢","koaza":"","lat":40.841716,"lng":141.132223,"zip":"0393100"},{"town":"字御手洗瀬","koaza":"","lat":40.864979,"lng":141.103981,"zip":"0393100"},{"town":"字明前","koaza":"","lat":40.89302,"lng":141.194833,"zip":"0393100"},{"town":"字向田","koaza":"","lat":40.936181,"lng":141.21771,"zip":"0393100"},{"town":"字餅粟川原","koaza":"","lat":40.852154,"lng":141.130016,"zip":"0393100"},{"town":"字湯沢","koaza":"","lat":40.875793,"lng":141.064177,"zip":"0393100"},{"town":"字湯沢尻","koaza":"","lat":40.876067,"lng":141.077123,"zip":"0393100"},{"town":"字湯沢出口","koaza":"","lat":40.8358,"lng":141.130957,"zip":"0393100"},{"town":"字与田川尻","koaza":"","lat":40.8593,"lng":141.123534,"zip":"0393100"},{"town":"字米内沢","koaza":"","lat":40.870707,"lng":141.127186,"zip":"0393100"}]