[{"town":"大字尾駮","koaza":"","lat":40.974671,"lng":141.349127,"zip":"0393200"},{"town":"大字倉内","koaza":"","lat":40.876101,"lng":141.301181,"zip":"0393200"},{"town":"大字鷹架","koaza":"","lat":40.927911,"lng":141.337507,"zip":"0393200"},{"town":"大字出戸","koaza":"","lat":41.020141,"lng":141.375345,"zip":"0393200"},{"town":"大字泊","koaza":"","lat":41.085463,"lng":141.387015,"zip":"0393200"},{"town":"大字平沼","koaza":"","lat":40.891742,"lng":141.354575,"zip":"0393200"},{"town":"大字倉内","koaza":"笹崎","lat":40.891462,"lng":141.288705,"zip":"0393200"},{"town":"大字鷹架","koaza":"千樽","lat":40.935169,"lng":141.264686,"zip":"0393200"},{"town":"大字鷹架","koaza":"向田","lat":40.941348,"lng":141.291111,"zip":"0393200"},{"town":"大字倉内","koaza":"芋ケ崎","lat":40.875903,"lng":141.297111,"zip":"0393200"},{"town":"大字尾駮","koaza":"二又","lat":40.988731,"lng":141.303095,"zip":"0393200"},{"town":"大字尾駮","koaza":"前田","lat":40.94527,"lng":141.292455,"zip":"0393200"},{"town":"大字尾駮","koaza":"上尾駮","lat":40.971217,"lng":141.317599,"zip":"0393200"},{"town":"大字鷹架","koaza":"久保ノ内","lat":40.937321,"lng":141.300859,"zip":"0393200"},{"town":"大字鷹架","koaza":"前田","lat":40.934611,"lng":141.296201,"zip":"0393200"},{"town":"大字倉内","koaza":"家ノ上","lat":40.847797,"lng":141.314084,"zip":"0393200"},{"town":"大字尾駮","koaza":"弥栄平","lat":40.960958,"lng":141.308194,"zip":"0393200"},{"town":"大字尾駮","koaza":"野附","lat":40.978098,"lng":141.346785,"zip":"0393200"},{"town":"大字倉内","koaza":"唐貝地","lat":40.846243,"lng":141.340189,"zip":"0393200"},{"town":"大字倉内","koaza":"谷地通","lat":40.853647,"lng":141.334222,"zip":"0393200"},{"town":"大字尾駮","koaza":"家ノ前","lat":40.96351,"lng":141.363012,"zip":"0393200"},{"town":"大字倉内","koaza":"切揚場","lat":40.869934,"lng":141.334637,"zip":"0393200"},{"town":"大字平沼","koaza":"追舘","lat":40.887924,"lng":141.351344,"zip":"0393200"},{"town":"大字平沼","koaza":"二階坂","lat":40.872431,"lng":141.35701,"zip":"0393200"},{"town":"大字倉内","koaza":"道ノ上","lat":40.862142,"lng":141.353626,"zip":"0393200"},{"town":"大字倉内","koaza":"石神","lat":40.847203,"lng":141.357013,"zip":"0393200"},{"town":"大字平沼","koaza":"久保","lat":40.868952,"lng":141.363134,"zip":"0393200"},{"town":"大字出戸","koaza":"岡畑","lat":40.99855,"lng":141.370789,"zip":"0393200"},{"town":"大字倉内","koaza":"道ノ下","lat":40.850932,"lng":141.366192,"zip":"0393200"},{"town":"大字尾駮","koaza":"猿子沢","lat":40.983416,"lng":141.371143,"zip":"0393200"},{"town":"大字倉内","koaza":"前谷地","lat":40.846045,"lng":141.369595,"zip":"0393200"},{"town":"大字平沼","koaza":"高田","lat":40.874592,"lng":141.367697,"zip":"0393200"},{"town":"大字鷹架","koaza":"道ノ下","lat":40.918994,"lng":141.37922,"zip":"0393200"},{"town":"大字平沼","koaza":"道ノ下","lat":40.876433,"lng":141.368682,"zip":"0393200"},{"town":"大字平沼","koaza":"道ノ上","lat":40.884661,"lng":141.368812,"zip":"0393200"},{"town":"大字出戸","koaza":"棚沢","lat":41.037783,"lng":141.377973,"zip":"0393200"},{"town":"大字出戸","koaza":"前田","lat":41.008536,"lng":141.374761,"zip":"0393200"},{"town":"大字鷹架","koaza":"発茶沢","lat":40.941049,"lng":141.376441,"zip":"0393200"},{"town":"大字倉内","koaza":"湯ノ沢","lat":40.861786,"lng":141.338056,"zip":"0393200"},{"town":"大字平沼","koaza":"田面木","lat":40.902155,"lng":141.319939,"zip":"0393200"},{"town":"大字尾駮","koaza":"三ツ森","lat":40.978043,"lng":141.379231,"zip":"0393200"},{"town":"大字尾駮","koaza":"川向","lat":40.943772,"lng":141.28987,"zip":"0393200"},{"town":"大字鷹架","koaza":"後川目","lat":40.937829,"lng":141.29418,"zip":"0393200"},{"town":"大字鷹架","koaza":"田ノ沢","lat":40.935218,"lng":141.301577,"zip":"0393200"},{"town":"大字尾駮","koaza":"穴沢","lat":40.979437,"lng":141.314943,"zip":"0393200"},{"town":"大字尾駮","koaza":"表舘","lat":40.950228,"lng":141.326091,"zip":"0393200"},{"town":"大字鷹架","koaza":"道ノ上","lat":40.933152,"lng":141.327984,"zip":"0393200"},{"town":"大字鷹架","koaza":"内子内","lat":40.919813,"lng":141.335975,"zip":"0393200"}]