[{"town":"相内","koaza":"","lat":41.058497,"lng":140.35717,"zip":"0370401"},{"town":"字旭町","koaza":"","lat":40.810813,"lng":140.446813,"zip":"0370000"},{"town":"字東町","koaza":"","lat":40.80881,"lng":140.446782,"zip":"0370000"},{"town":"字幾島町","koaza":"","lat":40.813499,"lng":140.439256,"zip":"0370000"},{"town":"字幾世森","koaza":"","lat":40.82131,"lng":140.449259,"zip":"0370000"},{"town":"字岩木町","koaza":"","lat":40.808015,"lng":140.440558,"zip":"0370000"},{"town":"字不魚住","koaza":"","lat":40.799162,"lng":140.440445,"zip":"0370000"},{"town":"字大町","koaza":"","lat":40.809814,"lng":140.445309,"zip":"0370000"},{"town":"字柏原町","koaza":"","lat":40.811905,"lng":140.441752,"zip":"0370000"},{"town":"字鎌谷町","koaza":"","lat":40.806033,"lng":140.450439,"zip":"0370000"},{"town":"字上平井町","koaza":"","lat":40.811991,"lng":140.44364,"zip":"0370000"},{"town":"字烏森","koaza":"","lat":40.803411,"lng":140.451186,"zip":"0370000"},{"town":"字川端町","koaza":"","lat":40.808725,"lng":140.441957,"zip":"0370000"},{"town":"字栄町","koaza":"","lat":40.797755,"lng":140.444951,"zip":"0370000"},{"town":"字敷島町","koaza":"","lat":40.81348,"lng":140.446909,"zip":"0370000"},{"town":"字下平井町","koaza":"","lat":40.817782,"lng":140.449798,"zip":"0370000"},{"town":"字新町","koaza":"","lat":40.806306,"lng":140.444166,"zip":"0370000"},{"town":"字新宮町","koaza":"","lat":40.818329,"lng":140.438395,"zip":"0370000"},{"town":"字末広町","koaza":"","lat":40.81493,"lng":140.440386,"zip":"0370000"},{"town":"字蘇鉄","koaza":"","lat":40.821266,"lng":140.434503,"zip":"0370000"},{"town":"字田町","koaza":"","lat":40.80273,"lng":140.445844,"zip":"0370000"},{"town":"字寺町","koaza":"","lat":40.810471,"lng":140.441313,"zip":"0370000"},{"town":"字中平井町","koaza":"","lat":40.814757,"lng":140.443389,"zip":"0370000"},{"town":"字錦町","koaza":"","lat":40.811897,"lng":140.439762,"zip":"0370000"},{"town":"字布屋町","koaza":"","lat":40.80772,"lng":140.445569,"zip":"0370000"},{"town":"字芭蕉","koaza":"","lat":40.819961,"lng":140.434738,"zip":"0370000"},{"town":"字蓮沼","koaza":"","lat":40.80025,"lng":140.442419,"zip":"0370000"},{"town":"字一ツ谷","koaza":"","lat":40.811956,"lng":140.452169,"zip":"0370000"},{"town":"字雛田","koaza":"","lat":40.815133,"lng":140.449764,"zip":"0370000"},{"town":"字本町","koaza":"","lat":40.809032,"lng":140.443523,"zip":"0370000"},{"town":"字元町","koaza":"","lat":40.803192,"lng":140.442236,"zip":"0370000"},{"town":"字柳町","koaza":"","lat":40.806578,"lng":140.442096,"zip":"0370000"},{"town":"字弥生町","koaza":"","lat":40.807153,"lng":140.446867,"zip":"0370000"},{"town":"磯松","koaza":"","lat":41.076948,"lng":140.330198,"zip":"0370404"},{"town":"大字浅井","koaza":"","lat":40.778094,"lng":140.488999,"zip":"0370000"},{"town":"大字飯詰","koaza":"","lat":40.849216,"lng":140.53394,"zip":"0370000"},{"town":"大字石岡","koaza":"","lat":40.801497,"lng":140.457891,"zip":"0370000"},{"town":"大字一野坪","koaza":"","lat":40.82352,"lng":140.471105,"zip":"0370000"},{"town":"大字稲実","koaza":"","lat":40.791599,"lng":140.468989,"zip":"0370000"},{"town":"大字姥萢","koaza":"","lat":40.78475,"lng":140.444115,"zip":"0370000"},{"town":"大字梅田","koaza":"","lat":40.76752,"lng":140.472706,"zip":"0370000"},{"town":"大字漆川","koaza":"","lat":40.813327,"lng":140.463389,"zip":"0370000"},{"town":"大字沖飯詰","koaza":"","lat":40.838742,"lng":140.463934,"zip":"0370000"},{"town":"大字金山","koaza":"","lat":40.81023,"lng":140.486302,"zip":"0370000"},{"town":"大字神山","koaza":"","lat":40.796376,"lng":140.524245,"zip":"0370000"},{"town":"大字唐笠柳","koaza":"","lat":40.798949,"lng":140.46588,"zip":"0370000"},{"town":"大字川山","koaza":"","lat":40.851471,"lng":140.436671,"zip":"0370000"},{"town":"大字高野","koaza":"","lat":40.738693,"lng":140.525702,"zip":"0370000"},{"town":"大字小曲","koaza":"","lat":40.808137,"lng":140.423976,"zip":"0370000"},{"town":"大字桜田","koaza":"","lat":40.847257,"lng":140.44753,"zip":"0370000"},{"town":"大字下岩崎","koaza":"","lat":40.841524,"lng":140.481394,"zip":"0370000"},{"town":"大字新宮","koaza":"","lat":40.823669,"lng":140.437625,"zip":"0370000"},{"town":"大字高瀬","koaza":"","lat":40.837704,"lng":140.417425,"zip":"0370000"},{"town":"大字田川","koaza":"","lat":40.829781,"lng":140.426794,"zip":"0370000"},{"town":"大字太刀打","koaza":"","lat":40.825428,"lng":140.451817,"zip":"0370000"},{"town":"大字種井","koaza":"","lat":40.837549,"lng":140.431645,"zip":"0370000"},{"town":"大字俵元","koaza":"","lat":40.77048,"lng":140.51271,"zip":"0370000"},{"town":"大字鶴ケ岡","koaza":"","lat":40.864631,"lng":140.430314,"zip":"0370000"},{"town":"大字戸沢","koaza":"","lat":40.824858,"lng":140.539486,"zip":"0370000"},{"town":"大字豊成","koaza":"","lat":40.775915,"lng":140.516661,"zip":"0370000"},{"town":"大字中泉","koaza":"","lat":40.763197,"lng":140.497109,"zip":"0370000"},{"town":"大字長富","koaza":"","lat":40.864389,"lng":140.455971,"zip":"0370000"},{"town":"大字長橋","koaza":"","lat":40.830853,"lng":140.439421,"zip":"0370000"},{"town":"大字七ツ館","koaza":"","lat":40.778537,"lng":140.478203,"zip":"0370000"},{"town":"大字野里","koaza":"","lat":40.783169,"lng":140.529024,"zip":"0370000"},{"town":"大字羽野木沢","koaza":"","lat":40.756804,"lng":140.528008,"zip":"0370000"},{"town":"大字原子","koaza":"","lat":40.773902,"lng":140.533577,"zip":"0370000"},{"town":"大字毘沙門","koaza":"","lat":40.855655,"lng":140.481186,"zip":"0370000"},{"town":"大字広田","koaza":"","lat":40.781677,"lng":140.468463,"zip":"0370000"},{"town":"大字吹畑","koaza":"","lat":40.805519,"lng":140.465304,"zip":"0370000"},{"town":"大字福山","koaza":"","lat":40.772219,"lng":140.49944,"zip":"0370000"},{"town":"大字前田野目","koaza":"","lat":40.783546,"lng":140.560587,"zip":"0370000"},{"town":"大字松野木","koaza":"","lat":40.810518,"lng":140.53277,"zip":"0370000"},{"town":"大字水野尾","koaza":"","lat":40.790469,"lng":140.487315,"zip":"0370000"},{"town":"大字湊","koaza":"","lat":40.791273,"lng":140.440146,"zip":"0370000"},{"town":"大字藻川","koaza":"","lat":40.878994,"lng":140.414955,"zip":"0370000"},{"town":"大字持子沢","koaza":"","lat":40.753724,"lng":140.535666,"zip":"0370000"},{"town":"大字米田","koaza":"","lat":40.805487,"lng":140.471333,"zip":"0370000"},{"town":"太田","koaza":"","lat":41.057988,"lng":140.392021,"zip":"0370402"},{"town":"金木町","koaza":"","lat":40.920577,"lng":140.551904,"zip":"0370202"},{"town":"金木町嘉瀬","koaza":"","lat":40.88068,"lng":140.466069,"zip":"0370204"},{"town":"金木町川倉","koaza":"","lat":40.92653,"lng":140.459498,"zip":"0370201"},{"town":"金木町神原","koaza":"","lat":40.916178,"lng":140.420044,"zip":"0370206"},{"town":"金木町喜良市","koaza":"","lat":40.904317,"lng":140.486676,"zip":"0370203"},{"town":"金木町中柏木","koaza":"","lat":40.86774,"lng":140.472246,"zip":"0370205"},{"town":"金木町藤枝","koaza":"","lat":40.919317,"lng":140.439688,"zip":"0370208"},{"town":"金木町蒔田","koaza":"","lat":40.913859,"lng":140.429275,"zip":"0370207"},{"town":"中央一丁目","koaza":"","lat":40.801881,"lng":140.449742,"zip":"0370036"},{"town":"中央二丁目","koaza":"","lat":40.79955,"lng":140.448966,"zip":"0370036"},{"town":"中央三丁目","koaza":"","lat":40.79655,"lng":140.448627,"zip":"0370036"},{"town":"中央四丁目","koaza":"","lat":40.797809,"lng":140.45128,"zip":"0370036"},{"town":"中央五丁目","koaza":"","lat":40.79408,"lng":140.450024,"zip":"0370036"},{"town":"中央六丁目","koaza":"","lat":40.791593,"lng":140.449895,"zip":"0370036"},{"town":"松島町一丁目","koaza":"","lat":40.805817,"lng":140.455378,"zip":"0370006"},{"town":"松島町二丁目","koaza":"","lat":40.806338,"lng":140.457482,"zip":"0370006"},{"town":"松島町三丁目","koaza":"","lat":40.808123,"lng":140.457752,"zip":"0370006"},{"town":"松島町四丁目","koaza":"","lat":40.808923,"lng":140.462222,"zip":"0370006"},{"town":"松島町五丁目","koaza":"","lat":40.807495,"lng":140.463971,"zip":"0370006"},{"town":"松島町六丁目","koaza":"","lat":40.80785,"lng":140.461719,"zip":"0370006"},{"town":"松島町七丁目","koaza":"","lat":40.806487,"lng":140.46108,"zip":"0370006"},{"town":"松島町八丁目","koaza":"","lat":40.805183,"lng":140.46212,"zip":"0370006"},{"town":"みどり町一丁目","koaza":"","lat":40.786347,"lng":140.456585,"zip":"0370024"},{"town":"みどり町二丁目","koaza":"","lat":40.787356,"lng":140.45306,"zip":"0370024"},{"town":"みどり町三丁目","koaza":"","lat":40.785072,"lng":140.454809,"zip":"0370024"},{"town":"みどり町四丁目","koaza":"","lat":40.783412,"lng":140.457229,"zip":"0370024"},{"town":"みどり町五丁目","koaza":"","lat":40.784472,"lng":140.459186,"zip":"0370024"},{"town":"みどり町六丁目","koaza":"","lat":40.782499,"lng":140.461291,"zip":"0370024"},{"town":"みどり町七丁目","koaza":"","lat":40.781248,"lng":140.459853,"zip":"0370024"},{"town":"みどり町八丁目","koaza":"","lat":40.780268,"lng":140.46418,"zip":"0370024"},{"town":"若葉一丁目","koaza":"","lat":40.818127,"lng":140.44427,"zip":"0370069"},{"town":"若葉二丁目","koaza":"","lat":40.818461,"lng":140.441516,"zip":"0370069"},{"town":"若葉三丁目","koaza":"","lat":40.821471,"lng":140.443108,"zip":"0370069"},{"town":"脇元","koaza":"","lat":41.094455,"lng":140.32307,"zip":"0370405"},{"town":"十三","koaza":"","lat":41.021931,"lng":140.328276,"zip":"0370403"},{"town":"大字藻川","koaza":"蟹渕","lat":40.855174,"lng":140.403369,"zip":"0370000"},{"town":"大字藻川","koaza":"蟹下","lat":40.859765,"lng":140.403762,"zip":"0370000"},{"town":"大字藻川","koaza":"村崎","lat":40.855873,"lng":140.404163,"zip":"0370000"},{"town":"大字藻川","koaza":"川袋","lat":40.865317,"lng":140.403501,"zip":"0370000"},{"town":"大字藻川","koaza":"中島","lat":40.863045,"lng":140.405465,"zip":"0370000"},{"town":"大字藻川","koaza":"千年","lat":40.86267,"lng":140.40773,"zip":"0370000"},{"town":"大字鶴ケ岡","koaza":"鎌田","lat":40.845855,"lng":140.413183,"zip":"0370000"},{"town":"大字鶴ケ岡","koaza":"唐橋","lat":40.849476,"lng":140.409551,"zip":"0370000"},{"town":"大字鶴ケ岡","koaza":"川袋","lat":40.844006,"lng":140.414642,"zip":"0370000"},{"town":"大字高瀬","koaza":"鷹ノ爪","lat":40.834642,"lng":140.416363,"zip":"0370000"},{"town":"大字高瀬","koaza":"一本柳","lat":40.832717,"lng":140.418469,"zip":"0370000"},{"town":"大字高瀬","koaza":"雲雀野","lat":40.828868,"lng":140.41998,"zip":"0370000"},{"town":"大字田川","koaza":"高松","lat":40.827754,"lng":140.42234,"zip":"0370000"},{"town":"大字小曲","koaza":"枝村","lat":40.807559,"lng":140.424214,"zip":"0370000"},{"town":"大字田川","koaza":"若草","lat":40.824582,"lng":140.425277,"zip":"0370000"},{"town":"大字田川","koaza":"藪里","lat":40.82293,"lng":140.429404,"zip":"0370000"},{"town":"大字鶴ケ岡","koaza":"福田","lat":40.844963,"lng":140.428357,"zip":"0370000"},{"town":"大字小曲","koaza":"豊里","lat":40.812735,"lng":140.430205,"zip":"0370000"},{"town":"大字小曲","koaza":"板橋","lat":40.81552,"lng":140.430016,"zip":"0370000"},{"town":"大字小曲","koaza":"沼田","lat":40.811672,"lng":140.432286,"zip":"0370000"},{"town":"大字種井","koaza":"山野辺","lat":40.834433,"lng":140.433429,"zip":"0370000"},{"town":"大字種井","koaza":"鐙潟","lat":40.836613,"lng":140.434168,"zip":"0370000"},{"town":"大字長橋","koaza":"藤島","lat":40.832291,"lng":140.435421,"zip":"0370000"},{"town":"大字湊","koaza":"船越","lat":40.792001,"lng":140.442379,"zip":"0370000"},{"town":"大字長橋","koaza":"広野","lat":40.830976,"lng":140.443217,"zip":"0370000"},{"town":"大字新宮","koaza":"岡田","lat":40.820971,"lng":140.439539,"zip":"0370000"},{"town":"大字姥萢","koaza":"桜木","lat":40.784155,"lng":140.442094,"zip":"0370000"},{"town":"大字川山","koaza":"森内","lat":40.834974,"lng":140.444018,"zip":"0370000"},{"town":"大字湊","koaza":"千鳥","lat":40.794606,"lng":140.445272,"zip":"0370000"},{"town":"大字太刀打","koaza":"柳川","lat":40.82924,"lng":140.444566,"zip":"0370000"},{"town":"大字姥萢","koaza":"菖蒲","lat":40.782495,"lng":140.44519,"zip":"0370000"},{"town":"大字川山","koaza":"千本","lat":40.834955,"lng":140.445608,"zip":"0370000"},{"town":"大字沖飯詰","koaza":"帯刀","lat":40.834743,"lng":140.454836,"zip":"0370000"},{"town":"大字広田","koaza":"足代","lat":40.783267,"lng":140.451215,"zip":"0370000"},{"town":"大字姥萢","koaza":"船橋","lat":40.790963,"lng":140.456297,"zip":"0370000"},{"town":"大字桜田","koaza":"鴻ノ巣","lat":40.842711,"lng":140.454819,"zip":"0370000"},{"town":"大字太刀打","koaza":"馬繋","lat":40.824433,"lng":140.455554,"zip":"0370000"},{"town":"大字唐笠柳","koaza":"藤巻","lat":40.798544,"lng":140.46114,"zip":"0370000"},{"town":"大字石岡","koaza":"藤巻","lat":40.801526,"lng":140.456492,"zip":"0370000"},{"town":"大字太刀打","koaza":"常盤","lat":40.827502,"lng":140.456819,"zip":"0370000"},{"town":"大字漆川","koaza":"鍋懸","lat":40.815747,"lng":140.461124,"zip":"0370000"},{"town":"大字太刀打","koaza":"千束苅","lat":40.82163,"lng":140.454503,"zip":"0370000"},{"town":"大字沖飯詰","koaza":"男鹿","lat":40.833289,"lng":140.463995,"zip":"0370000"},{"town":"大字長富","koaza":"鎧石","lat":40.863163,"lng":140.459092,"zip":"0370000"},{"town":"大字太刀打","koaza":"早蕨","lat":40.820232,"lng":140.459318,"zip":"0370000"},{"town":"大字毘沙門","koaza":"西中久保","lat":40.846137,"lng":140.457317,"zip":"0370000"},{"town":"大字毘沙門","koaza":"西熊石","lat":40.848925,"lng":140.457166,"zip":"0370000"},{"town":"大字広田","koaza":"柳沼","lat":40.785803,"lng":140.460882,"zip":"0370000"},{"town":"大字毘沙門","koaza":"中熊石","lat":40.85238,"lng":140.464968,"zip":"0370000"},{"town":"大字毘沙門","koaza":"東中久保","lat":40.845725,"lng":140.465524,"zip":"0370000"},{"town":"大字毘沙門","koaza":"下熊石","lat":40.853122,"lng":140.457471,"zip":"0370000"},{"town":"大字漆川","koaza":"袖掛","lat":40.810625,"lng":140.46077,"zip":"0370000"},{"town":"金木町中柏木","koaza":"鎧石","lat":40.872298,"lng":140.460596,"zip":"0370205"},{"town":"大字沖飯詰","koaza":"鴻ノ巣","lat":40.841982,"lng":140.45751,"zip":"0370000"},{"town":"大字漆川","koaza":"清水流","lat":40.814551,"lng":140.459824,"zip":"0370000"},{"town":"大字一野坪","koaza":"馬繋場","lat":40.824728,"lng":140.460563,"zip":"0370000"},{"town":"大字毘沙門","koaza":"熊石","lat":40.852508,"lng":140.459463,"zip":"0370000"},{"town":"大字稲実","koaza":"米崎","lat":40.790487,"lng":140.463645,"zip":"0370000"},{"town":"大字一野坪","koaza":"麻ノ葉","lat":40.822613,"lng":140.470001,"zip":"0370000"},{"town":"大字梅田","koaza":"福浦","lat":40.775434,"lng":140.46919,"zip":"0370000"},{"town":"大字唐笠柳","koaza":"村崎","lat":40.798488,"lng":140.467377,"zip":"0370000"},{"town":"大字広田","koaza":"下り松","lat":40.776524,"lng":140.461547,"zip":"0370000"},{"town":"大字漆川","koaza":"浅井","lat":40.810661,"lng":140.464848,"zip":"0370000"},{"town":"大字漆川","koaza":"玉椿","lat":40.81622,"lng":140.467342,"zip":"0370000"},{"town":"大字吹畑","koaza":"藤巻","lat":40.804097,"lng":140.462036,"zip":"0370000"},{"town":"大字毘沙門","koaza":"上熊石","lat":40.850787,"lng":140.470159,"zip":"0370000"},{"town":"大字稲実","koaza":"開野","lat":40.789805,"lng":140.472481,"zip":"0370000"},{"town":"大字一野坪","koaza":"馬繋","lat":40.826647,"lng":140.472035,"zip":"0370000"},{"town":"大字広田","koaza":"藤浦","lat":40.78142,"lng":140.466398,"zip":"0370000"},{"town":"大字一野坪","koaza":"緑石","lat":40.825448,"lng":140.466332,"zip":"0370000"},{"town":"大字広田","koaza":"榊森","lat":40.782686,"lng":140.46822,"zip":"0370000"},{"town":"大字稲実","koaza":"稲葉","lat":40.787842,"lng":140.472193,"zip":"0370000"},{"town":"大字米田","koaza":"八ツ橋","lat":40.805699,"lng":140.46979,"zip":"0370000"},{"town":"大字一野坪","koaza":"朝日田","lat":40.821382,"lng":140.475532,"zip":"0370000"},{"town":"大字飯詰","koaza":"森越","lat":40.832569,"lng":140.477135,"zip":"0370000"},{"town":"大字一野坪","koaza":"朝日田崎","lat":40.81838,"lng":140.477258,"zip":"0370000"},{"town":"大字米田","koaza":"篠原","lat":40.799383,"lng":140.472512,"zip":"0370000"},{"town":"大字七ツ館","koaza":"鶴ケ沼","lat":40.776342,"lng":140.478538,"zip":"0370000"},{"town":"大字一野坪","koaza":"坪実","lat":40.821963,"lng":140.470752,"zip":"0370000"},{"town":"大字金山","koaza":"亀ケ岡","lat":40.812263,"lng":140.474555,"zip":"0370000"},{"town":"大字金山","koaza":"竹崎","lat":40.806646,"lng":140.477452,"zip":"0370000"},{"town":"大字梅田","koaza":"燕口","lat":40.758727,"lng":140.475742,"zip":"0370000"},{"town":"大字七ツ館","koaza":"虫流","lat":40.782592,"lng":140.478138,"zip":"0370000"},{"town":"大字金山","koaza":"泉田","lat":40.808407,"lng":140.483,"zip":"0370000"},{"town":"大字水野尾","koaza":"宮井","lat":40.794074,"lng":140.480165,"zip":"0370000"},{"town":"大字米田","koaza":"八重田","lat":40.800298,"lng":140.480025,"zip":"0370000"},{"town":"大字金山","koaza":"泉","lat":40.805276,"lng":140.483593,"zip":"0370000"},{"town":"大字下岩崎","koaza":"葛ノ森","lat":40.839792,"lng":140.48254,"zip":"0370000"},{"town":"大字飯詰","koaza":"清野","lat":40.830958,"lng":140.481597,"zip":"0370000"},{"town":"大字飯詰","koaza":"白旗","lat":40.826514,"lng":140.485025,"zip":"0370000"},{"town":"大字下岩崎","koaza":"戸草元","lat":40.835729,"lng":140.484357,"zip":"0370000"},{"town":"大字水野尾","koaza":"清川","lat":40.793416,"lng":140.484872,"zip":"0370000"},{"town":"大字飯詰","koaza":"皆瀬","lat":40.831754,"lng":140.484146,"zip":"0370000"},{"town":"大字金山","koaza":"梅ケ枝","lat":40.815421,"lng":140.487407,"zip":"0370000"},{"town":"大字水野尾","koaza":"懸樋","lat":40.789968,"lng":140.482996,"zip":"0370000"},{"town":"大字浅井","koaza":"西広","lat":40.778631,"lng":140.485455,"zip":"0370000"},{"town":"大字下岩崎","koaza":"尾花原","lat":40.842203,"lng":140.483457,"zip":"0370000"},{"town":"大字七ツ館","koaza":"柏枝","lat":40.776726,"lng":140.486964,"zip":"0370000"},{"town":"大字飯詰","koaza":"福泉","lat":40.828382,"lng":140.489773,"zip":"0370000"},{"town":"大字飯詰","koaza":"狐野","lat":40.820162,"lng":140.489857,"zip":"0370000"},{"town":"大字飯詰","koaza":"桜田","lat":40.827262,"lng":140.488868,"zip":"0370000"},{"town":"大字飯詰","koaza":"影日沢","lat":40.836023,"lng":140.487218,"zip":"0370000"},{"town":"大字米田","koaza":"松島","lat":40.797817,"lng":140.490182,"zip":"0370000"},{"town":"大字水野尾","koaza":"唐松","lat":40.792068,"lng":140.489215,"zip":"0370000"},{"town":"大字浅井","koaza":"種取","lat":40.783631,"lng":140.488608,"zip":"0370000"},{"town":"大字飯詰","koaza":"石田","lat":40.834254,"lng":140.493483,"zip":"0370000"},{"town":"大字浅井","koaza":"色吉","lat":40.778054,"lng":140.48927,"zip":"0370000"},{"town":"大字飯詰","koaza":"沢田","lat":40.828142,"lng":140.491769,"zip":"0370000"},{"town":"大字金山","koaza":"千代鶴","lat":40.811524,"lng":140.496911,"zip":"0370000"},{"town":"大字福山","koaza":"実吉","lat":40.778449,"lng":140.494727,"zip":"0370000"},{"town":"大字金山","koaza":"盛山","lat":40.807813,"lng":140.493379,"zip":"0370000"},{"town":"大字松野木","koaza":"袰掛","lat":40.803896,"lng":140.497417,"zip":"0370000"},{"town":"大字戸沢","koaza":"畑林","lat":40.817789,"lng":140.495792,"zip":"0370000"},{"town":"大字松野木","koaza":"福泉","lat":40.796524,"lng":140.496485,"zip":"0370000"},{"town":"大字福山","koaza":"広富","lat":40.77832,"lng":140.505726,"zip":"0370000"},{"town":"大字中泉","koaza":"松枝","lat":40.7613,"lng":140.498635,"zip":"0370000"},{"town":"大字飯詰","koaza":"朝日沢田","lat":40.823852,"lng":140.500527,"zip":"0370000"},{"town":"大字中泉","koaza":"田川","lat":40.760533,"lng":140.502804,"zip":"0370000"},{"town":"大字松野木","koaza":"花笠","lat":40.802813,"lng":140.506834,"zip":"0370000"},{"town":"大字戸沢","koaza":"玉清水","lat":40.819265,"lng":140.512514,"zip":"0370000"},{"town":"大字野里","koaza":"奥野","lat":40.7848,"lng":140.505538,"zip":"0370000"},{"town":"大字神山","koaza":"鶉野","lat":40.794943,"lng":140.513207,"zip":"0370000"},{"town":"大字野里","koaza":"野岸","lat":40.778107,"lng":140.509407,"zip":"0370000"},{"town":"大字俵元","koaza":"松代","lat":40.77008,"lng":140.511942,"zip":"0370000"},{"town":"大字豊成","koaza":"田子ノ浦","lat":40.774472,"lng":140.515968,"zip":"0370000"},{"town":"大字神山","koaza":"野岸","lat":40.778808,"lng":140.514932,"zip":"0370000"},{"town":"大字野里","koaza":"牧ノ原","lat":40.784074,"lng":140.510112,"zip":"0370000"},{"town":"大字神山","koaza":"牧原","lat":40.785679,"lng":140.514488,"zip":"0370000"},{"town":"大字松野木","koaza":"松ケ枝","lat":40.812973,"lng":140.519403,"zip":"0370000"},{"town":"大字神山","koaza":"殊ノ峰","lat":40.798388,"lng":140.519585,"zip":"0370000"},{"town":"大字神山","koaza":"山越","lat":40.782689,"lng":140.519027,"zip":"0370000"},{"town":"大字神山","koaza":"境山","lat":40.79093,"lng":140.524741,"zip":"0370000"},{"town":"大字高野","koaza":"柳田","lat":40.740599,"lng":140.526122,"zip":"0370000"},{"town":"大字原子","koaza":"紅葉","lat":40.771582,"lng":140.521744,"zip":"0370000"},{"town":"大字高野","koaza":"北原","lat":40.742051,"lng":140.525449,"zip":"0370000"},{"town":"大字羽野木沢","koaza":"実吉","lat":40.757315,"lng":140.520011,"zip":"0370000"},{"town":"大字持子沢","koaza":"笠野前","lat":40.748621,"lng":140.523577,"zip":"0370000"},{"town":"大字戸沢","koaza":"前田","lat":40.820847,"lng":140.521581,"zip":"0370000"},{"town":"大字羽野木沢","koaza":"隈無","lat":40.755861,"lng":140.530023,"zip":"0370000"},{"town":"大字原子","koaza":"山元","lat":40.765992,"lng":140.526637,"zip":"0370000"},{"town":"大字持子沢","koaza":"隠川","lat":40.750515,"lng":140.528113,"zip":"0370000"},{"town":"大字高野","koaza":"広野","lat":40.741735,"lng":140.535241,"zip":"0370000"},{"town":"大字前田野目","koaza":"桜ケ峰","lat":40.74765,"lng":140.546601,"zip":"0370000"},{"town":"大字前田野目","koaza":"村中","lat":40.751292,"lng":140.549314,"zip":"0370000"},{"town":"大字前田野目","koaza":"鞠ノ沢","lat":40.770856,"lng":140.548997,"zip":"0370000"},{"town":"大字前田野目","koaza":"野脇","lat":40.764226,"lng":140.553977,"zip":"0370000"},{"town":"大字前田野目","koaza":"長峰","lat":40.762212,"lng":140.554705,"zip":"0370000"},{"town":"大字前田野目","koaza":"砂田","lat":40.763604,"lng":140.562244,"zip":"0370000"},{"town":"大字小曲","koaza":"豊成","lat":40.817157,"lng":140.429243,"zip":"0370000"},{"town":"大字新宮","koaza":"松元","lat":40.82082,"lng":140.437663,"zip":"0370000"},{"town":"大字金山","koaza":"亀甲","lat":40.814102,"lng":140.487077,"zip":"0370000"},{"town":"大字松野木","koaza":"影日","lat":40.814894,"lng":140.52067,"zip":"0370000"},{"town":"大字金山","koaza":"松ケ枝","lat":40.807761,"lng":140.490031,"zip":"0370000"},{"town":"大字松野木","koaza":"千刈","lat":40.795856,"lng":140.492352,"zip":"0370000"},{"town":"大字一野坪","koaza":"早蕨","lat":40.824423,"lng":140.466706,"zip":"0370000"},{"town":"大字米田","koaza":"月見野","lat":40.816129,"lng":140.47496,"zip":"0370000"},{"town":"大字一野坪","koaza":"狐崎","lat":40.815789,"lng":140.473924,"zip":"0370000"},{"town":"大字唐笠柳","koaza":"皆瀬","lat":40.803135,"lng":140.469079,"zip":"0370000"},{"town":"大字米田","koaza":"宇田","lat":40.800829,"lng":140.469464,"zip":"0370000"},{"town":"大字前田野目","koaza":"犬走","lat":40.762634,"lng":140.551047,"zip":"0370000"},{"town":"大字梅田","koaza":"平野","lat":40.774606,"lng":140.482821,"zip":"0370000"},{"town":"大字中泉","koaza":"細田","lat":40.759946,"lng":140.501576,"zip":"0370000"},{"town":"大字中泉","koaza":"前橋","lat":40.760344,"lng":140.504104,"zip":"0370000"},{"town":"大字吹畑","koaza":"皆瀬","lat":40.80626,"lng":140.466269,"zip":"0370000"},{"town":"大字松野木","koaza":"蓑捨","lat":40.795101,"lng":140.494594,"zip":"0370000"},{"town":"大字前田野目","koaza":"川崎","lat":40.746525,"lng":140.543811,"zip":"0370000"}]