[{"town":"いたや町一丁目","koaza":"","lat":40.7017,"lng":140.463703,"zip":"0383685"},{"town":"いたや町二丁目","koaza":"","lat":40.702747,"lng":140.465239,"zip":"0383685"},{"town":"いたや町三丁目","koaza":"","lat":40.700185,"lng":140.463879,"zip":"0383685"},{"town":"いたや町四丁目","koaza":"","lat":40.701355,"lng":140.466085,"zip":"0383685"},{"town":"大字赤田","koaza":"","lat":40.715033,"lng":140.47026,"zip":"0383600"},{"town":"大字飯田","koaza":"","lat":40.675134,"lng":140.471023,"zip":"0383600"},{"town":"大字石野","koaza":"","lat":40.719188,"lng":140.45628,"zip":"0383600"},{"town":"大字板柳","koaza":"","lat":40.692125,"lng":140.456839,"zip":"0383600"},{"town":"大字太田","koaza":"","lat":40.698719,"lng":140.469127,"zip":"0383600"},{"town":"大字大俵","koaza":"","lat":40.713533,"lng":140.487689,"zip":"0383600"},{"town":"大字掛落林","koaza":"","lat":40.722054,"lng":140.442946,"zip":"0383600"},{"town":"大字柏木","koaza":"","lat":40.739845,"lng":140.480612,"zip":"0383600"},{"town":"大字狐森","koaza":"","lat":40.732733,"lng":140.47608,"zip":"0383600"},{"town":"大字五幾形","koaza":"","lat":40.721654,"lng":140.478079,"zip":"0383600"},{"town":"大字小幡","koaza":"","lat":40.717176,"lng":140.433047,"zip":"0383600"},{"town":"大字五林平","koaza":"","lat":40.753126,"lng":140.506956,"zip":"0383600"},{"town":"大字三千石","koaza":"","lat":40.706514,"lng":140.46463,"zip":"0383600"},{"town":"大字常海橋","koaza":"","lat":40.723091,"lng":140.511151,"zip":"0383600"},{"town":"大字高増","koaza":"","lat":40.7195,"lng":140.496434,"zip":"0383600"},{"town":"大字滝井","koaza":"","lat":40.702424,"lng":140.520497,"zip":"0383600"},{"town":"大字館野越","koaza":"","lat":40.708728,"lng":140.509534,"zip":"0383600"},{"town":"大字辻","koaza":"","lat":40.691536,"lng":140.467795,"zip":"0383600"},{"town":"大字長野","koaza":"","lat":40.699087,"lng":140.483288,"zip":"0383600"},{"town":"大字野中","koaza":"","lat":40.723692,"lng":140.454533,"zip":"0383600"},{"town":"大字灰沼","koaza":"","lat":40.70658,"lng":140.448218,"zip":"0383600"},{"town":"大字深味","koaza":"","lat":40.70722,"lng":140.478482,"zip":"0383600"},{"town":"大字福野田","koaza":"","lat":40.694737,"lng":140.459231,"zip":"0383600"},{"town":"大字牡丹森","koaza":"","lat":40.739976,"lng":140.49191,"zip":"0383600"},{"town":"大字夕顔関","koaza":"","lat":40.739461,"lng":140.506243,"zip":"0383600"},{"town":"大字横沢","koaza":"","lat":40.68932,"lng":140.484054,"zip":"0383600"},{"town":"大字小幡","koaza":"柳川","lat":40.717542,"lng":140.433751,"zip":"0383600"},{"town":"大字掛落林","koaza":"宮本","lat":40.711751,"lng":140.442015,"zip":"0383600"},{"town":"大字掛落林","koaza":"前田","lat":40.714672,"lng":140.442264,"zip":"0383600"},{"town":"大字掛落林","koaza":"鶴ケ池","lat":40.716712,"lng":140.445881,"zip":"0383600"},{"town":"大字灰沼","koaza":"東","lat":40.706022,"lng":140.452187,"zip":"0383600"},{"town":"大字灰沼","koaza":"玉川","lat":40.704396,"lng":140.44978,"zip":"0383600"},{"town":"大字野中","koaza":"鶴住","lat":40.721585,"lng":140.451143,"zip":"0383600"},{"town":"大字板柳","koaza":"土井","lat":40.693253,"lng":140.455867,"zip":"0383600"},{"town":"大字板柳","koaza":"川面","lat":40.696036,"lng":140.453583,"zip":"0383600"},{"town":"大字福野田","koaza":"常盤","lat":40.703732,"lng":140.454529,"zip":"0383600"},{"town":"大字赤田","koaza":"田川","lat":40.712807,"lng":140.454137,"zip":"0383600"},{"town":"大字板柳","koaza":"岡本","lat":40.686115,"lng":140.461561,"zip":"0383600"},{"town":"大字灰沼","koaza":"岩井","lat":40.700722,"lng":140.455742,"zip":"0383600"},{"town":"大字福野田","koaza":"増田","lat":40.699496,"lng":140.458067,"zip":"0383600"},{"town":"大字野中","koaza":"竹田","lat":40.725242,"lng":140.457381,"zip":"0383600"},{"town":"大字石野","koaza":"田毎","lat":40.716718,"lng":140.459703,"zip":"0383600"},{"town":"大字福野田","koaza":"実田","lat":40.697678,"lng":140.460772,"zip":"0383600"},{"town":"大字福野田","koaza":"本泉","lat":40.691034,"lng":140.460952,"zip":"0383600"},{"town":"大字野中","koaza":"若松","lat":40.720092,"lng":140.461872,"zip":"0383600"},{"town":"大字三千石","koaza":"宮内","lat":40.705805,"lng":140.462533,"zip":"0383600"},{"town":"大字三千石","koaza":"合吉","lat":40.701969,"lng":140.462347,"zip":"0383600"},{"town":"大字辻","koaza":"松元","lat":40.69294,"lng":140.463776,"zip":"0383600"},{"town":"大字赤田","koaza":"松下","lat":40.713057,"lng":140.466022,"zip":"0383600"},{"town":"大字石野","koaza":"大柳","lat":40.722888,"lng":140.463759,"zip":"0383600"},{"town":"大字三千石","koaza":"木賊","lat":40.708015,"lng":140.467647,"zip":"0383600"},{"town":"大字三千石","koaza":"五十嵐","lat":40.708751,"lng":140.466819,"zip":"0383600"},{"town":"大字辻","koaza":"福岡","lat":40.695853,"lng":140.466905,"zip":"0383600"},{"town":"大字五幾形","koaza":"蓮沼","lat":40.724303,"lng":140.469588,"zip":"0383600"},{"town":"大字飯田","koaza":"下柳田","lat":40.67581,"lng":140.470617,"zip":"0383600"},{"town":"大字太田","koaza":"西若宮","lat":40.699836,"lng":140.471851,"zip":"0383600"},{"town":"大字飯田","koaza":"下沼田","lat":40.676232,"lng":140.475239,"zip":"0383600"},{"town":"大字赤田","koaza":"桂","lat":40.71553,"lng":140.474368,"zip":"0383600"},{"town":"大字辻","koaza":"福田","lat":40.689704,"lng":140.473491,"zip":"0383600"},{"town":"大字飯田","koaza":"村元","lat":40.673757,"lng":140.472812,"zip":"0383600"},{"town":"大字横沢","koaza":"富永","lat":40.690619,"lng":140.474279,"zip":"0383600"},{"town":"大字飯田","koaza":"上沼田","lat":40.668883,"lng":140.474339,"zip":"0383600"},{"town":"大字横沢","koaza":"東宮元","lat":40.682914,"lng":140.476845,"zip":"0383600"},{"town":"大字深味","koaza":"西西田","lat":40.707936,"lng":140.474501,"zip":"0383600"},{"town":"大字五幾形","koaza":"米ケ島","lat":40.717343,"lng":140.474616,"zip":"0383600"},{"town":"大字狐森","koaza":"蓮沼","lat":40.728872,"lng":140.473679,"zip":"0383600"},{"town":"大字五幾形","koaza":"富田","lat":40.716624,"lng":140.481406,"zip":"0383600"},{"town":"大字横沢","koaza":"花岡","lat":40.685531,"lng":140.476462,"zip":"0383600"},{"town":"大字飯田","koaza":"豊田","lat":40.674544,"lng":140.476094,"zip":"0383600"},{"town":"大字狐森","koaza":"浅井","lat":40.731903,"lng":140.48065,"zip":"0383600"},{"town":"大字五幾形","koaza":"飯田","lat":40.720202,"lng":140.477881,"zip":"0383600"},{"town":"大字横沢","koaza":"西里見","lat":40.68808,"lng":140.478203,"zip":"0383600"},{"town":"大字深味","koaza":"村元","lat":40.706104,"lng":140.477898,"zip":"0383600"},{"town":"大字深味","koaza":"東西田","lat":40.710279,"lng":140.477851,"zip":"0383600"},{"town":"大字横沢","koaza":"西岡部","lat":40.686213,"lng":140.478345,"zip":"0383600"},{"town":"大字深味","koaza":"西岸田","lat":40.703368,"lng":140.47887,"zip":"0383600"},{"town":"大字横沢","koaza":"岡部","lat":40.686595,"lng":140.479337,"zip":"0383600"},{"town":"大字横沢","koaza":"里見","lat":40.687644,"lng":140.480575,"zip":"0383600"},{"town":"大字柏木","koaza":"片田野","lat":40.739214,"lng":140.482768,"zip":"0383600"},{"town":"大字柏木","koaza":"五反田","lat":40.742306,"lng":140.484986,"zip":"0383600"},{"town":"大字大俵","koaza":"西田","lat":40.710734,"lng":140.487032,"zip":"0383600"},{"town":"大字柏木","koaza":"鴨泊","lat":40.733445,"lng":140.487914,"zip":"0383600"},{"town":"大字牡丹森","koaza":"鴨泊","lat":40.740528,"lng":140.487004,"zip":"0383600"},{"town":"大字高増","koaza":"宮本","lat":40.724241,"lng":140.487083,"zip":"0383600"},{"town":"大字高増","koaza":"前田","lat":40.720985,"lng":140.490824,"zip":"0383600"},{"town":"大字大俵","koaza":"和田","lat":40.710411,"lng":140.490059,"zip":"0383600"},{"town":"大字常海橋","koaza":"駒田","lat":40.730247,"lng":140.505713,"zip":"0383600"},{"town":"大字夕顔関","koaza":"池上","lat":40.733648,"lng":140.498934,"zip":"0383600"},{"town":"大字常海橋","koaza":"稲葉","lat":40.725013,"lng":140.511515,"zip":"0383600"},{"town":"大字夕顔関","koaza":"西田","lat":40.733129,"lng":140.506567,"zip":"0383600"},{"town":"大字夕顔関","koaza":"柳田","lat":40.748626,"lng":140.505542,"zip":"0383600"},{"town":"大字五林平","koaza":"細田","lat":40.749999,"lng":140.505898,"zip":"0383600"},{"town":"大字五林平","koaza":"前橋","lat":40.751947,"lng":140.510075,"zip":"0383600"},{"town":"大字夕顔関","koaza":"長田","lat":40.744408,"lng":140.509876,"zip":"0383600"},{"town":"大字館野越","koaza":"橋元","lat":40.702175,"lng":140.512928,"zip":"0383600"},{"town":"大字館野越","koaza":"早稲田","lat":40.705539,"lng":140.512737,"zip":"0383600"},{"town":"大字夕顔関","koaza":"若松","lat":40.737446,"lng":140.510616,"zip":"0383600"},{"town":"大字常海橋","koaza":"松枝","lat":40.728097,"lng":140.513716,"zip":"0383600"},{"town":"大字滝井","koaza":"西田","lat":40.706916,"lng":140.514274,"zip":"0383600"},{"town":"大字常海橋","koaza":"俵元","lat":40.71823,"lng":140.514521,"zip":"0383600"},{"town":"大字滝井","koaza":"前田","lat":40.707749,"lng":140.515637,"zip":"0383600"},{"town":"大字常海橋","koaza":"平塚","lat":40.717358,"lng":140.517197,"zip":"0383600"},{"town":"大字滝井","koaza":"川崎","lat":40.701496,"lng":140.515492,"zip":"0383600"},{"town":"大字五林平","koaza":"三宅","lat":40.74805,"lng":140.510419,"zip":"0383600"},{"town":"大字夕顔関","koaza":"川部","lat":40.741908,"lng":140.512295,"zip":"0383600"},{"town":"大字大俵","koaza":"富永","lat":40.721971,"lng":140.486399,"zip":"0383600"},{"town":"大字高増","koaza":"沢田","lat":40.726361,"lng":140.490016,"zip":"0383600"},{"town":"大字石野","koaza":"宮本","lat":40.717461,"lng":140.463706,"zip":"0383600"},{"town":"大字野中","koaza":"亀田","lat":40.723588,"lng":140.456786,"zip":"0383600"},{"town":"大字三千石","koaza":"里見","lat":40.705762,"lng":140.468288,"zip":"0383600"},{"town":"大字滝井","koaza":"林元","lat":40.712258,"lng":140.515597,"zip":"0383600"},{"town":"大字長野","koaza":"西田","lat":40.70143,"lng":140.473068,"zip":"0383600"},{"town":"大字深味","koaza":"深宮","lat":40.701374,"lng":140.480872,"zip":"0383600"},{"town":"大字長野","koaza":"北村元","lat":40.698566,"lng":140.479041,"zip":"0383600"},{"town":"大字長野","koaza":"福岡","lat":40.698535,"lng":140.475985,"zip":"0383600"},{"town":"大字深味","koaza":"東岸田","lat":40.703714,"lng":140.482368,"zip":"0383600"},{"town":"大字三千石","koaza":"二潟","lat":40.707446,"lng":140.458824,"zip":"0383600"},{"town":"大字板柳","koaza":"船岡","lat":40.700213,"lng":140.45341,"zip":"0383600"},{"town":"大字小幡","koaza":"宮本","lat":40.719422,"lng":140.436416,"zip":"0383600"},{"town":"大字小幡","koaza":"柳田","lat":40.720124,"lng":140.429542,"zip":"0383600"},{"town":"大字辻","koaza":"岸田","lat":40.689342,"lng":140.470952,"zip":"0383600"},{"town":"大字赤田","koaza":"品吉","lat":40.709819,"lng":140.461067,"zip":"0383600"},{"town":"大字太田","koaza":"西上林","lat":40.702058,"lng":140.467605,"zip":"0383600"},{"town":"大字太田","koaza":"東上林","lat":40.701023,"lng":140.469299,"zip":"0383600"},{"town":"大字板柳","koaza":"村上","lat":40.688489,"lng":140.4599,"zip":"0383600"},{"town":"大字横沢","koaza":"宮元","lat":40.686389,"lng":140.472902,"zip":"0383600"},{"town":"大字長野","koaza":"南村元","lat":40.696158,"lng":140.478324,"zip":"0383600"},{"town":"大字太田","koaza":"前橋","lat":40.697352,"lng":140.474863,"zip":"0383600"},{"town":"大字太田","koaza":"富岡","lat":40.695808,"lng":140.473388,"zip":"0383600"},{"town":"大字太田","koaza":"北若宮","lat":40.698347,"lng":140.472981,"zip":"0383600"},{"town":"大字太田","koaza":"東若宮","lat":40.697481,"lng":140.472982,"zip":"0383600"},{"town":"大字飯田","koaza":"中沼田","lat":40.679953,"lng":140.470369,"zip":"0383600"},{"town":"大字狐森","koaza":"宮田","lat":40.728984,"lng":140.478332,"zip":"0383600"},{"town":"大字常海橋","koaza":"沼田","lat":40.724774,"lng":140.51672,"zip":"0383600"},{"town":"大字館野越","koaza":"下萢","lat":40.719195,"lng":140.505846,"zip":"0383600"},{"town":"大字飯田","koaza":"上柳田","lat":40.668982,"lng":140.472317,"zip":"0383600"}]