[{"town":"一本木沢一丁目","koaza":"","lat":40.629777,"lng":141.227744,"zip":"0340005"},{"town":"一本木沢二丁目","koaza":"","lat":40.633044,"lng":141.227378,"zip":"0340005"},{"town":"稲生町","koaza":"","lat":40.615655,"lng":141.212841,"zip":"0340011"},{"town":"大字赤沼","koaza":"","lat":40.598078,"lng":141.186311,"zip":"0340000"},{"town":"大字馬洗場","koaza":"","lat":40.66913,"lng":141.193442,"zip":"0340000"},{"town":"大字相坂","koaza":"","lat":40.619039,"lng":141.254555,"zip":"0340000"},{"town":"大字大沢田","koaza":"","lat":40.683354,"lng":141.205445,"zip":"0340000"},{"town":"大字大不動","koaza":"","lat":40.537665,"lng":141.162625,"zip":"0340000"},{"town":"大字奥瀬","koaza":"","lat":40.571653,"lng":141.033628,"zip":"0340000"},{"town":"大字切田","koaza":"","lat":40.555094,"lng":141.141488,"zip":"0340000"},{"town":"大字沢田","koaza":"","lat":40.574425,"lng":141.134962,"zip":"0340000"},{"town":"大字三本木","koaza":"","lat":40.625859,"lng":141.246525,"zip":"0340000"},{"town":"大字滝沢","koaza":"","lat":40.510089,"lng":141.184543,"zip":"0340000"},{"town":"大字立崎","koaza":"","lat":40.675192,"lng":141.226049,"zip":"0340000"},{"town":"大字伝法寺","koaza":"","lat":40.575162,"lng":141.275699,"zip":"0340000"},{"town":"大字豊ケ岡","koaza":"","lat":40.677644,"lng":141.254548,"zip":"0340000"},{"town":"大字八斗沢","koaza":"","lat":40.664125,"lng":141.24601,"zip":"0340000"},{"town":"大字深持","koaza":"","lat":40.636116,"lng":141.17008,"zip":"0340000"},{"town":"大字藤島","koaza":"","lat":40.574767,"lng":141.234879,"zip":"0340000"},{"town":"大字法量","koaza":"","lat":40.612695,"lng":141.07332,"zip":"0340000"},{"town":"大字洞内","koaza":"","lat":40.648743,"lng":141.207281,"zip":"0340000"},{"town":"大字米田","koaza":"","lat":40.535802,"lng":141.199256,"zip":"0340000"},{"town":"西十一番町","koaza":"","lat":40.616129,"lng":141.200085,"zip":"0340091"},{"town":"西十二番町","koaza":"","lat":40.612517,"lng":141.203053,"zip":"0340093"},{"town":"西十三番町","koaza":"","lat":40.608613,"lng":141.206123,"zip":"0340081"},{"town":"西十四番町","koaza":"","lat":40.604165,"lng":141.209099,"zip":"0340088"},{"town":"西十五番町","koaza":"","lat":40.600639,"lng":141.211439,"zip":"0340087"},{"town":"西十六番町","koaza":"","lat":40.597418,"lng":141.214936,"zip":"0340086"},{"town":"西一番町","koaza":"","lat":40.617999,"lng":141.206174,"zip":"0340092"},{"town":"西二十一番町","koaza":"","lat":40.614625,"lng":141.191185,"zip":"0340095"},{"town":"西二十二番町","koaza":"","lat":40.609364,"lng":141.194526,"zip":"0340094"},{"town":"西二十三番町","koaza":"","lat":40.606472,"lng":141.19833,"zip":"0340089"},{"town":"西二番町","koaza":"","lat":40.614896,"lng":141.208481,"zip":"0340082"},{"town":"西三番町","koaza":"","lat":40.611161,"lng":141.211346,"zip":"0340083"},{"town":"西四番町","koaza":"","lat":40.606767,"lng":141.214796,"zip":"0340084"},{"town":"西五番町","koaza":"","lat":40.603058,"lng":141.217687,"zip":"0340085"},{"town":"西六番町","koaza":"","lat":40.599057,"lng":141.22079,"zip":"0340038"},{"town":"東十一番町","koaza":"","lat":40.623927,"lng":141.220988,"zip":"0340013"},{"town":"東十二番町","koaza":"","lat":40.621086,"lng":141.222388,"zip":"0340016"},{"town":"東十三番町","koaza":"","lat":40.617655,"lng":141.227548,"zip":"0340023"},{"town":"東十四番町","koaza":"","lat":40.611494,"lng":141.226845,"zip":"0340024"},{"town":"東十五番町","koaza":"","lat":40.608624,"lng":141.230082,"zip":"0340034"},{"town":"東十六番町","koaza":"","lat":40.604753,"lng":141.233078,"zip":"0340035"},{"town":"東一番町","koaza":"","lat":40.621604,"lng":141.214722,"zip":"0340012"},{"town":"東二十一番町","koaza":"","lat":40.626393,"lng":141.229388,"zip":"0340014"},{"town":"東二十二番町","koaza":"","lat":40.624292,"lng":141.229873,"zip":"0340015"},{"town":"東二十三番町","koaza":"","lat":40.622216,"lng":141.235642,"zip":"0340021"},{"town":"東二十四番町","koaza":"","lat":40.619168,"lng":141.237939,"zip":"0340022"},{"town":"東二番町","koaza":"","lat":40.618351,"lng":141.216117,"zip":"0340017"},{"town":"東三番町","koaza":"","lat":40.614929,"lng":141.220108,"zip":"0340031"},{"town":"東四番町","koaza":"","lat":40.609838,"lng":141.221598,"zip":"0340032"},{"town":"東五番町","koaza":"","lat":40.60616,"lng":141.224458,"zip":"0340033"},{"town":"東六番町","koaza":"","lat":40.60273,"lng":141.227109,"zip":"0340036"},{"town":"ひがしの一丁目","koaza":"","lat":40.628779,"lng":141.220143,"zip":"0340004"},{"town":"ひがしの二丁目","koaza":"","lat":40.629354,"lng":141.22443,"zip":"0340004"},{"town":"穂並町","koaza":"","lat":40.604899,"lng":141.221255,"zip":"0340037"},{"town":"元町西一丁目","koaza":"","lat":40.622077,"lng":141.20509,"zip":"0340002"},{"town":"元町西二丁目","koaza":"","lat":40.623824,"lng":141.203783,"zip":"0340002"},{"town":"元町西三丁目","koaza":"","lat":40.625929,"lng":141.203342,"zip":"0340002"},{"town":"元町西四丁目","koaza":"","lat":40.620492,"lng":141.200034,"zip":"0340002"},{"town":"元町西五丁目","koaza":"","lat":40.622671,"lng":141.19854,"zip":"0340002"},{"town":"元町西六丁目","koaza":"","lat":40.625333,"lng":141.197186,"zip":"0340002"},{"town":"元町東一丁目","koaza":"","lat":40.62333,"lng":141.21069,"zip":"0340003"},{"town":"元町東二丁目","koaza":"","lat":40.626487,"lng":141.210051,"zip":"0340003"},{"town":"元町東三丁目","koaza":"","lat":40.624841,"lng":141.21492,"zip":"0340003"},{"town":"元町東四丁目","koaza":"","lat":40.627468,"lng":141.213173,"zip":"0340003"},{"town":"元町東五丁目","koaza":"","lat":40.627512,"lng":141.216978,"zip":"0340003"},{"town":"大字深持","koaza":"柏木","lat":40.613957,"lng":141.105605,"zip":"0340000"},{"town":"大字深持","koaza":"舟沢","lat":40.617465,"lng":141.114819,"zip":"0340000"},{"town":"大字深持","koaza":"梅家ノ下","lat":40.604133,"lng":141.115419,"zip":"0340000"},{"town":"大字深持","koaza":"梅山","lat":40.614919,"lng":141.129254,"zip":"0340000"},{"town":"大字三本木","koaza":"倉手","lat":40.593311,"lng":141.139264,"zip":"0340000"},{"town":"大字洞内","koaza":"樽石","lat":40.639442,"lng":141.137789,"zip":"0340000"},{"town":"大字三本木","koaza":"沢幅","lat":40.595103,"lng":141.140006,"zip":"0340000"},{"town":"大字三本木","koaza":"矢神","lat":40.595106,"lng":141.146225,"zip":"0340000"},{"town":"大字三本木","koaza":"佐井幅","lat":40.605469,"lng":141.163522,"zip":"0340000"},{"town":"大字深持","koaza":"松森","lat":40.629828,"lng":141.144362,"zip":"0340000"},{"town":"大字深持","koaza":"山ノ下","lat":40.62044,"lng":141.144532,"zip":"0340000"},{"town":"大字深持","koaza":"森","lat":40.612443,"lng":141.145592,"zip":"0340000"},{"town":"大字深持","koaza":"谷地","lat":40.609538,"lng":141.146703,"zip":"0340000"},{"town":"大字深持","koaza":"明戸","lat":40.61547,"lng":141.146434,"zip":"0340000"},{"town":"大字深持","koaza":"塚ノ下","lat":40.608755,"lng":141.144392,"zip":"0340000"},{"town":"大字深持","koaza":"林","lat":40.618528,"lng":141.146088,"zip":"0340000"},{"town":"大字深持","koaza":"渋民","lat":40.623684,"lng":141.146083,"zip":"0340000"},{"town":"大字深持","koaza":"淋代","lat":40.625513,"lng":141.146193,"zip":"0340000"},{"town":"大字深持","koaza":"中平","lat":40.621772,"lng":141.147813,"zip":"0340000"},{"town":"大字深持","koaza":"鳥ケ森","lat":40.63418,"lng":141.149817,"zip":"0340000"},{"town":"大字深持","koaza":"家ノ下","lat":40.620086,"lng":141.149024,"zip":"0340000"},{"town":"大字三本木","koaza":"中掫","lat":40.597968,"lng":141.152193,"zip":"0340000"},{"town":"大字深持","koaza":"柳原","lat":40.611461,"lng":141.148736,"zip":"0340000"},{"town":"大字深持","koaza":"下中平","lat":40.612691,"lng":141.150373,"zip":"0340000"},{"town":"大字洞内","koaza":"家ノ上","lat":40.638885,"lng":141.150556,"zip":"0340000"},{"town":"大字深持","koaza":"小橋","lat":40.620697,"lng":141.151038,"zip":"0340000"},{"town":"大字洞内","koaza":"下豊良","lat":40.65823,"lng":141.15238,"zip":"0340000"},{"town":"大字赤沼","koaza":"芳川原","lat":40.599178,"lng":141.15837,"zip":"0340000"},{"town":"大字深持","koaza":"梨ノ木平","lat":40.613694,"lng":141.158126,"zip":"0340000"},{"town":"大字深持","koaza":"相内","lat":40.624048,"lng":141.158735,"zip":"0340000"},{"town":"大字赤沼","koaza":"沼袋","lat":40.607831,"lng":141.171758,"zip":"0340000"},{"town":"大字洞内","koaza":"下沢","lat":40.64094,"lng":141.159432,"zip":"0340000"},{"town":"大字洞内","koaza":"大福平","lat":40.648941,"lng":141.167905,"zip":"0340000"},{"town":"大字洞内","koaza":"小田道","lat":40.6403,"lng":141.160712,"zip":"0340000"},{"town":"大字深持","koaza":"菖蒲渡","lat":40.643737,"lng":141.169758,"zip":"0340000"},{"town":"大字深持","koaza":"佐々木平","lat":40.614475,"lng":141.163587,"zip":"0340000"},{"town":"大字洞内","koaza":"豊良","lat":40.64964,"lng":141.160635,"zip":"0340000"},{"town":"大字洞内","koaza":"家ノ向","lat":40.651309,"lng":141.168797,"zip":"0340000"},{"town":"大字大沢田","koaza":"池ノ平","lat":40.672798,"lng":141.175764,"zip":"0340000"},{"town":"大字大沢田","koaza":"北野","lat":40.674928,"lng":141.181354,"zip":"0340000"},{"town":"大字深持","koaza":"南平","lat":40.617934,"lng":141.184293,"zip":"0340000"},{"town":"大字深持","koaza":"糠森","lat":40.641492,"lng":141.179702,"zip":"0340000"},{"town":"大字赤沼","koaza":"上川原","lat":40.598728,"lng":141.176263,"zip":"0340000"},{"town":"大字洞内","koaza":"舘ノ下","lat":40.645298,"lng":141.175477,"zip":"0340000"},{"town":"大字深持","koaza":"長下","lat":40.633361,"lng":141.181933,"zip":"0340000"},{"town":"大字三本木","koaza":"西金崎","lat":40.60776,"lng":141.185841,"zip":"0340000"},{"town":"大字赤沼","koaza":"前川原","lat":40.59529,"lng":141.178765,"zip":"0340000"},{"town":"大字三本木","koaza":"本金崎","lat":40.614481,"lng":141.185184,"zip":"0340000"},{"town":"大字馬洗場","koaza":"下町","lat":40.666939,"lng":141.187264,"zip":"0340000"},{"town":"大字赤沼","koaza":"下平","lat":40.598963,"lng":141.19492,"zip":"0340000"},{"town":"大字深持","koaza":"長根尻","lat":40.618711,"lng":141.187273,"zip":"0340000"},{"town":"大字洞内","koaza":"妻ノ神","lat":40.659568,"lng":141.188619,"zip":"0340000"},{"town":"大字切田","koaza":"下後平","lat":40.582515,"lng":141.186616,"zip":"0340000"},{"town":"大字切田","koaza":"谷地","lat":40.565663,"lng":141.188953,"zip":"0340000"},{"town":"大字赤沼","koaza":"下川原","lat":40.59369,"lng":141.190582,"zip":"0340000"},{"town":"大字三本木","koaza":"間遠地","lat":40.634768,"lng":141.193705,"zip":"0340000"},{"town":"大字三本木","koaza":"上平","lat":40.620658,"lng":141.194679,"zip":"0340000"},{"town":"大字洞内","koaza":"長根","lat":40.661851,"lng":141.190437,"zip":"0340000"},{"town":"大字洞内","koaza":"後野","lat":40.646897,"lng":141.195166,"zip":"0340000"},{"town":"大字切田","koaza":"平林","lat":40.578166,"lng":141.19591,"zip":"0340000"},{"town":"大字大沢田","koaza":"芋久保","lat":40.678016,"lng":141.194468,"zip":"0340000"},{"town":"大字切田","koaza":"川原","lat":40.584884,"lng":141.209248,"zip":"0340000"},{"town":"大字洞内","koaza":"沼田野","lat":40.665118,"lng":141.196518,"zip":"0340000"},{"town":"大字切田","koaza":"横道","lat":40.572594,"lng":141.193781,"zip":"0340000"},{"town":"大字三本木","koaza":"千歳森","lat":40.628825,"lng":141.199222,"zip":"0340000"},{"town":"大字洞内","koaza":"枯木根","lat":40.656428,"lng":141.194836,"zip":"0340000"},{"town":"大字三本木","koaza":"並木西","lat":40.60118,"lng":141.202062,"zip":"0340000"},{"town":"大字大沢田","koaza":"下道","lat":40.679682,"lng":141.19759,"zip":"0340000"},{"town":"大字洞内","koaza":"杉ノ沢","lat":40.660449,"lng":141.197167,"zip":"0340000"},{"town":"大字洞内","koaza":"井戸頭","lat":40.645555,"lng":141.202694,"zip":"0340000"},{"town":"大字三本木","koaza":"西小稲","lat":40.597985,"lng":141.205529,"zip":"0340000"},{"town":"大字米田","koaza":"清瀬","lat":40.558107,"lng":141.206981,"zip":"0340000"},{"town":"大字大沢田","koaza":"前田","lat":40.671802,"lng":141.207863,"zip":"0340000"},{"town":"大字洞内","koaza":"向","lat":40.662248,"lng":141.19968,"zip":"0340000"},{"town":"大字洞内","koaza":"山崎","lat":40.663498,"lng":141.203434,"zip":"0340000"},{"town":"大字洞内","koaza":"前田","lat":40.665761,"lng":141.202016,"zip":"0340000"},{"town":"大字切田","koaza":"下切田","lat":40.578979,"lng":141.206737,"zip":"0340000"},{"town":"大字米田","koaza":"万内","lat":40.557305,"lng":141.216254,"zip":"0340000"},{"town":"大字相坂","koaza":"白上","lat":40.594981,"lng":141.218539,"zip":"0340000"},{"town":"大字三本木","koaza":"北平","lat":40.629989,"lng":141.210124,"zip":"0340000"},{"town":"大字切田","koaza":"南川原","lat":40.583788,"lng":141.205289,"zip":"0340000"},{"town":"大字切田","koaza":"岩ノ上","lat":40.588309,"lng":141.205663,"zip":"0340000"},{"town":"大字相坂","koaza":"向切田","lat":40.589148,"lng":141.208183,"zip":"0340000"},{"town":"大字切田","koaza":"向切田","lat":40.588122,"lng":141.20841,"zip":"0340000"},{"town":"大字洞内","koaza":"樋口","lat":40.653855,"lng":141.215398,"zip":"0340000"},{"town":"大字大沢田","koaza":"李平","lat":40.676897,"lng":141.210582,"zip":"0340000"},{"town":"大字大沢田","koaza":"有信山","lat":40.682549,"lng":141.212653,"zip":"0340000"},{"town":"大字洞内","koaza":"千刈田","lat":40.669677,"lng":141.214857,"zip":"0340000"},{"town":"大字藤島","koaza":"和島","lat":40.573631,"lng":141.235816,"zip":"0340000"},{"town":"大字大沢田","koaza":"橋場","lat":40.679616,"lng":141.217419,"zip":"0340000"},{"town":"大字立崎","koaza":"焼山","lat":40.667639,"lng":141.217818,"zip":"0340000"},{"town":"大字八斗沢","koaza":"林ノ後","lat":40.667531,"lng":141.22891,"zip":"0340000"},{"town":"大字三本木","koaza":"一本木沢","lat":40.637043,"lng":141.227392,"zip":"0340000"},{"town":"大字米田","koaza":"北野","lat":40.55271,"lng":141.227367,"zip":"0340000"},{"town":"大字藤島","koaza":"西山","lat":40.580402,"lng":141.23219,"zip":"0340000"},{"town":"大字米田","koaza":"野月","lat":40.545251,"lng":141.22454,"zip":"0340000"},{"town":"大字八斗沢","koaza":"八斗沢","lat":40.653647,"lng":141.229474,"zip":"0340000"},{"town":"大字藤島","koaza":"大明神川原","lat":40.5862,"lng":141.226329,"zip":"0340000"},{"town":"大字相坂","koaza":"小林","lat":40.597217,"lng":141.234582,"zip":"0340000"},{"town":"大字藤島","koaza":"堤ノ上","lat":40.582989,"lng":141.229776,"zip":"0340000"},{"town":"大字藤島","koaza":"中崎","lat":40.585618,"lng":141.22985,"zip":"0340000"},{"town":"大字米田","koaza":"向町","lat":40.546488,"lng":141.22805,"zip":"0340000"},{"town":"大字藤島","koaza":"小山","lat":40.583967,"lng":141.228046,"zip":"0340000"},{"town":"大字三本木","koaza":"下平","lat":40.627851,"lng":141.241313,"zip":"0340000"},{"town":"大字立崎","koaza":"立崎","lat":40.674292,"lng":141.229477,"zip":"0340000"},{"town":"大字立崎","koaza":"猫沢","lat":40.677417,"lng":141.228875,"zip":"0340000"},{"town":"大字立崎","koaza":"堤尻","lat":40.677582,"lng":141.230534,"zip":"0340000"},{"town":"大字米田","koaza":"高谷","lat":40.54975,"lng":141.230987,"zip":"0340000"},{"town":"大字三本木","koaza":"牛泊","lat":40.617825,"lng":141.237022,"zip":"0340000"},{"town":"大字藤島","koaza":"蒼前川原","lat":40.584849,"lng":141.234898,"zip":"0340000"},{"town":"大字相坂","koaza":"相坂","lat":40.591977,"lng":141.239198,"zip":"0340000"},{"town":"大字藤島","koaza":"中道","lat":40.58391,"lng":141.235713,"zip":"0340000"},{"town":"大字三本木","koaza":"稲吉","lat":40.609399,"lng":141.239932,"zip":"0340000"},{"town":"大字藤島","koaza":"長根道","lat":40.573786,"lng":141.237228,"zip":"0340000"},{"town":"大字三本木","koaza":"東小稲","lat":40.607564,"lng":141.237476,"zip":"0340000"},{"town":"大字米田","koaza":"石倉","lat":40.55841,"lng":141.238212,"zip":"0340000"},{"town":"大字藤島","koaza":"上野月","lat":40.579022,"lng":141.237462,"zip":"0340000"},{"town":"大字八斗沢","koaza":"家ノ下","lat":40.661002,"lng":141.250141,"zip":"0340000"},{"town":"大字大沢田","koaza":"牛鍵","lat":40.691149,"lng":141.240197,"zip":"0340000"},{"town":"大字大沢田","koaza":"葉ノ木谷地","lat":40.688216,"lng":141.237878,"zip":"0340000"},{"town":"大字滝沢","koaza":"道ノ北","lat":40.540551,"lng":141.236601,"zip":"0340000"},{"town":"大字藤島","koaza":"藤島","lat":40.585738,"lng":141.237193,"zip":"0340000"},{"town":"大字相坂","koaza":"下前川原","lat":40.588812,"lng":141.240058,"zip":"0340000"},{"town":"大字滝沢","koaza":"松屋敷","lat":40.538305,"lng":141.238345,"zip":"0340000"},{"town":"大字八斗沢","koaza":"林ノ道","lat":40.662605,"lng":141.234736,"zip":"0340000"},{"town":"大字藤島","koaza":"狐森","lat":40.584789,"lng":141.24187,"zip":"0340000"},{"town":"大字藤島","koaza":"坂ノ上","lat":40.57471,"lng":141.23925,"zip":"0340000"},{"town":"大字米田","koaza":"向久保","lat":40.565454,"lng":141.238284,"zip":"0340000"},{"town":"大字藤島","koaza":"神平","lat":40.573641,"lng":141.239986,"zip":"0340000"},{"town":"大字藤島","koaza":"川原田","lat":40.582834,"lng":141.241116,"zip":"0340000"},{"town":"大字藤島","koaza":"下野月","lat":40.580191,"lng":141.240433,"zip":"0340000"},{"town":"大字三本木","koaza":"里ノ沢","lat":40.623518,"lng":141.246835,"zip":"0340000"},{"town":"大字大沢田","koaza":"長根","lat":40.690992,"lng":141.244105,"zip":"0340000"},{"town":"大字藤島","koaza":"妻ノ神","lat":40.57622,"lng":141.243194,"zip":"0340000"},{"town":"大字相坂","koaza":"高清水","lat":40.637822,"lng":141.257277,"zip":"0340000"},{"town":"大字相坂","koaza":"上鴨入","lat":40.58902,"lng":141.243137,"zip":"0340000"},{"town":"大字相坂","koaza":"長漕","lat":40.590076,"lng":141.243209,"zip":"0340000"},{"town":"大字大沢田","koaza":"早坂","lat":40.694171,"lng":141.246868,"zip":"0340000"},{"town":"大字大沢田","koaza":"姥懐ノ上","lat":40.695559,"lng":141.247675,"zip":"0340000"},{"town":"大字八斗沢","koaza":"砂土路","lat":40.679782,"lng":141.246821,"zip":"0340000"},{"town":"大字三本木","koaza":"野崎","lat":40.611608,"lng":141.259662,"zip":"0340000"},{"town":"大字伝法寺","koaza":"大窪","lat":40.576013,"lng":141.251902,"zip":"0340000"},{"town":"大字米田","koaza":"佐野","lat":40.544787,"lng":141.263193,"zip":"0340000"},{"town":"大字米田","koaza":"桜平","lat":40.543312,"lng":141.256513,"zip":"0340000"},{"town":"大字相坂","koaza":"下鴨入","lat":40.586944,"lng":141.254372,"zip":"0340000"},{"town":"大字相坂","koaza":"高見","lat":40.597416,"lng":141.268657,"zip":"0340000"},{"town":"大字大沢田","koaza":"大下内","lat":40.687911,"lng":141.260154,"zip":"0340000"},{"town":"大字相坂","koaza":"六日町山","lat":40.602961,"lng":141.257836,"zip":"0340000"},{"town":"大字豊ケ岡","koaza":"豊ケ岡","lat":40.673836,"lng":141.262029,"zip":"0340000"},{"town":"大字八斗沢","koaza":"伊谷沢","lat":40.669258,"lng":141.261321,"zip":"0340000"},{"town":"大字大沢田","koaza":"蒼前","lat":40.687308,"lng":141.262144,"zip":"0340000"},{"town":"大字相坂","koaza":"下タ川原","lat":40.588062,"lng":141.260039,"zip":"0340000"},{"town":"大字米田","koaza":"向谷地","lat":40.544174,"lng":141.267212,"zip":"0340000"},{"town":"大字伝法寺","koaza":"平窪","lat":40.574491,"lng":141.263983,"zip":"0340000"},{"town":"大字伝法寺","koaza":"上伝法寺","lat":40.56843,"lng":141.268436,"zip":"0340000"},{"town":"大字相坂","koaza":"箕輪平","lat":40.600511,"lng":141.273735,"zip":"0340000"},{"town":"大字相坂","koaza":"和田","lat":40.593481,"lng":141.268251,"zip":"0340000"},{"town":"大字相坂","koaza":"六日町","lat":40.59384,"lng":141.270876,"zip":"0340000"},{"town":"大字伝法寺","koaza":"蒼前堂","lat":40.571887,"lng":141.268285,"zip":"0340000"},{"town":"大字伝法寺","koaza":"盲沼","lat":40.564398,"lng":141.270815,"zip":"0340000"},{"town":"大字伝法寺","koaza":"下伝法寺","lat":40.568401,"lng":141.27047,"zip":"0340000"},{"town":"大字相坂","koaza":"高見下","lat":40.593291,"lng":141.274217,"zip":"0340000"},{"town":"大字米田","koaza":"雨溜","lat":40.562684,"lng":141.276562,"zip":"0340000"},{"town":"大字米田","koaza":"一本松","lat":40.552782,"lng":141.277834,"zip":"0340000"},{"town":"大字米田","koaza":"盲沼","lat":40.559303,"lng":141.277991,"zip":"0340000"},{"town":"大字伝法寺","koaza":"本町川原","lat":40.590235,"lng":141.280397,"zip":"0340000"},{"town":"大字米田","koaza":"ヒザ森","lat":40.550067,"lng":141.279437,"zip":"0340000"},{"town":"大字伝法寺","koaza":"荊窪","lat":40.565772,"lng":141.281165,"zip":"0340000"},{"town":"大字米田","koaza":"竹ノ鉢","lat":40.553345,"lng":141.281067,"zip":"0340000"},{"town":"大字伝法寺","koaza":"羽立","lat":40.584117,"lng":141.282615,"zip":"0340000"},{"town":"大字相坂","koaza":"箕輪川原","lat":40.596962,"lng":141.284068,"zip":"0340000"},{"town":"大字伝法寺","koaza":"泉田","lat":40.572074,"lng":141.283599,"zip":"0340000"},{"town":"大字伝法寺","koaza":"和田山","lat":40.565846,"lng":141.301477,"zip":"0340000"},{"town":"大字洞内","koaza":"北ノ平","lat":40.659816,"lng":141.161544,"zip":"0340000"},{"town":"大字赤沼","koaza":"明戸","lat":40.597999,"lng":141.184572,"zip":"0340000"},{"town":"大字赤沼","koaza":"向川原","lat":40.595012,"lng":141.185054,"zip":"0340000"},{"town":"大字藤島","koaza":"小山家ノ上","lat":40.583901,"lng":141.225603,"zip":"0340000"},{"town":"大字藤島","koaza":"上平","lat":40.582171,"lng":141.228015,"zip":"0340000"},{"town":"大字藤島","koaza":"角倉内沢","lat":40.577228,"lng":141.246197,"zip":"0340000"},{"town":"大字藤島","koaza":"蛇林","lat":40.572453,"lng":141.240988,"zip":"0340000"},{"town":"大字伝法寺","koaza":"金目","lat":40.583293,"lng":141.279572,"zip":"0340000"},{"town":"大字米田","koaza":"段ノ前","lat":40.547028,"lng":141.275909,"zip":"0340000"},{"town":"大字深持","koaza":"柳平","lat":40.614318,"lng":141.142687,"zip":"0340000"},{"town":"大字洞内","koaza":"五十貫田","lat":40.659092,"lng":141.166022,"zip":"0340000"},{"town":"大字洞内","koaza":"坂本","lat":40.656974,"lng":141.16186,"zip":"0340000"},{"town":"大字大沢田","koaza":"笹舘","lat":40.675813,"lng":141.190317,"zip":"0340000"},{"town":"大字馬洗場","koaza":"上町","lat":40.67179,"lng":141.201936,"zip":"0340000"},{"town":"大字大沢田","koaza":"小下内","lat":40.692181,"lng":141.256492,"zip":"0340000"},{"town":"大字相坂","koaza":"上前川原","lat":40.590617,"lng":141.227426,"zip":"0340000"},{"town":"大字米田","koaza":"種原","lat":40.543026,"lng":141.249219,"zip":"0340000"},{"town":"大字藤島","koaza":"前田","lat":40.581575,"lng":141.240427,"zip":"0340000"},{"town":"大字立崎","koaza":"中坪","lat":40.674802,"lng":141.227464,"zip":"0340000"},{"town":"大字深持","koaza":"後平","lat":40.631502,"lng":141.173669,"zip":"0340000"},{"town":"大字洞内","koaza":"上平","lat":40.64781,"lng":141.174477,"zip":"0340000"},{"town":"大字大沢田","koaza":"大沢田","lat":40.678714,"lng":141.19627,"zip":"0340000"},{"town":"大字大沢田","koaza":"堤沢","lat":40.680372,"lng":141.195225,"zip":"0340000"},{"town":"大字大沢田","koaza":"下モ山","lat":40.691425,"lng":141.261722,"zip":"0340000"},{"town":"大字深持","koaza":"長塚","lat":40.615773,"lng":141.114194,"zip":"0340000"},{"town":"大字洞内","koaza":"芦沢","lat":40.636528,"lng":141.147906,"zip":"0340000"},{"town":"大字洞内","koaza":"深沢平","lat":40.642834,"lng":141.150147,"zip":"0340000"},{"town":"大字洞内","koaza":"家ノ下","lat":40.640188,"lng":141.152746,"zip":"0340000"},{"town":"大字洞内","koaza":"舘","lat":40.65449,"lng":141.164008,"zip":"0340000"},{"town":"大字米田","koaza":"森鉢","lat":40.544734,"lng":141.227625,"zip":"0340000"},{"town":"大字伝法寺","koaza":"寺山","lat":40.576091,"lng":141.263226,"zip":"0340000"},{"town":"大字伝法寺","koaza":"千刈田","lat":40.57309,"lng":141.269232,"zip":"0340000"},{"town":"大字米田","koaza":"山中","lat":40.540614,"lng":141.253976,"zip":"0340000"},{"town":"大字米田","koaza":"山日向","lat":40.554541,"lng":141.274527,"zip":"0340000"}]