[{"town":"大字和泉","koaza":"","lat":40.65401,"lng":140.531232,"zip":"0381100"},{"town":"大字田舎舘","koaza":"","lat":40.62883,"lng":140.55144,"zip":"0381100"},{"town":"大字枝川","koaza":"","lat":40.644458,"lng":140.559168,"zip":"0381100"},{"town":"大字大根子","koaza":"","lat":40.635511,"lng":140.518386,"zip":"0381100"},{"town":"大字大袋","koaza":"","lat":40.623712,"lng":140.511689,"zip":"0381100"},{"town":"大字大曲","koaza":"","lat":40.63538,"lng":140.53578,"zip":"0381100"},{"town":"大字川部","koaza":"","lat":40.648378,"lng":140.531924,"zip":"0381100"},{"town":"大字境森","koaza":"","lat":40.658079,"lng":140.536264,"zip":"0381100"},{"town":"大字十二川原","koaza":"","lat":40.642816,"lng":140.569161,"zip":"0381100"},{"town":"大字諏訪堂","koaza":"","lat":40.63108,"lng":140.525801,"zip":"0381100"},{"town":"大字高樋","koaza":"","lat":40.640267,"lng":140.534851,"zip":"0381100"},{"town":"大字垂柳","koaza":"","lat":40.634564,"lng":140.566203,"zip":"0381100"},{"town":"大字土矢倉","koaza":"","lat":40.644233,"lng":140.540476,"zip":"0381100"},{"town":"大字東光寺","koaza":"","lat":40.663747,"lng":140.565973,"zip":"0381100"},{"town":"大字堂野前","koaza":"","lat":40.652178,"lng":140.560818,"zip":"0381100"},{"town":"大字豊蒔","koaza":"","lat":40.635511,"lng":140.505742,"zip":"0381100"},{"town":"大字畑中","koaza":"","lat":40.635977,"lng":140.556606,"zip":"0381100"},{"town":"大字八反田","koaza":"","lat":40.640555,"lng":140.548482,"zip":"0381100"},{"town":"大字前田屋敷","koaza":"","lat":40.651019,"lng":140.542191,"zip":"0381100"},{"town":"大字豊蒔","koaza":"西牡丹森","lat":40.637352,"lng":140.503635,"zip":"0381100"},{"town":"大字豊蒔","koaza":"川崎","lat":40.633923,"lng":140.504085,"zip":"0381100"},{"town":"大字豊蒔","koaza":"西森越","lat":40.634123,"lng":140.506746,"zip":"0381100"},{"town":"大字川部","koaza":"下川原","lat":40.643107,"lng":140.512921,"zip":"0381100"},{"town":"大字大根子","koaza":"宮元","lat":40.63996,"lng":140.512451,"zip":"0381100"},{"town":"大字大袋","koaza":"松下","lat":40.624138,"lng":140.507711,"zip":"0381100"},{"town":"大字豊蒔","koaza":"北前田","lat":40.636678,"lng":140.508978,"zip":"0381100"},{"town":"大字大袋","koaza":"三本柳","lat":40.629296,"lng":140.506921,"zip":"0381100"},{"town":"大字豊蒔","koaza":"森越","lat":40.630503,"lng":140.511775,"zip":"0381100"},{"town":"大字大袋","koaza":"二本柳","lat":40.627682,"lng":140.510837,"zip":"0381100"},{"town":"大字豊蒔","koaza":"赤田","lat":40.633005,"lng":140.511419,"zip":"0381100"},{"town":"大字大根子","koaza":"高橋","lat":40.639409,"lng":140.510307,"zip":"0381100"},{"town":"大字大袋","koaza":"松元","lat":40.623266,"lng":140.510808,"zip":"0381100"},{"town":"大字大袋","koaza":"前田","lat":40.626383,"lng":140.514324,"zip":"0381100"},{"town":"大字大袋","koaza":"樋田","lat":40.619534,"lng":140.514041,"zip":"0381100"},{"town":"大字大根子","koaza":"松森","lat":40.637485,"lng":140.515243,"zip":"0381100"},{"town":"大字大袋","koaza":"松本","lat":40.621472,"lng":140.515665,"zip":"0381100"},{"town":"大字大根子","koaza":"南田","lat":40.631938,"lng":140.518054,"zip":"0381100"},{"town":"大字大根子","koaza":"大川原田","lat":40.641404,"lng":140.516851,"zip":"0381100"},{"town":"大字川部","koaza":"中西田","lat":40.649989,"lng":140.521484,"zip":"0381100"},{"town":"大字川部","koaza":"上西田","lat":40.64632,"lng":140.518853,"zip":"0381100"},{"town":"大字大根子","koaza":"牧ヶ袋","lat":40.640608,"lng":140.520929,"zip":"0381100"},{"town":"大字諏訪堂","koaza":"富柳","lat":40.627514,"lng":140.522139,"zip":"0381100"},{"town":"大字川部","koaza":"亀岡","lat":40.644206,"lng":140.514245,"zip":"0381100"},{"town":"大字諏訪堂","koaza":"村岡","lat":40.632015,"lng":140.522086,"zip":"0381100"},{"town":"大字川部","koaza":"村元","lat":40.644446,"lng":140.523353,"zip":"0381100"},{"town":"大字川部","koaza":"下西田","lat":40.654836,"lng":140.523762,"zip":"0381100"},{"town":"大字和泉","koaza":"下種本","lat":40.658351,"lng":140.525405,"zip":"0381100"},{"town":"大字和泉","koaza":"岡本","lat":40.647555,"lng":140.524604,"zip":"0381100"},{"town":"大字諏訪堂","koaza":"松岡","lat":40.629311,"lng":140.52731,"zip":"0381100"},{"town":"大字大根子","koaza":"小川原田","lat":40.63953,"lng":140.525045,"zip":"0381100"},{"town":"大字諏訪堂","koaza":"川原田","lat":40.633781,"lng":140.526012,"zip":"0381100"},{"town":"大字川部","koaza":"上船橋","lat":40.648436,"lng":140.528812,"zip":"0381100"},{"town":"大字和泉","koaza":"上種本","lat":40.656128,"lng":140.527937,"zip":"0381100"},{"town":"大字境森","koaza":"西栄田","lat":40.658701,"lng":140.53068,"zip":"0381100"},{"town":"大字川部","koaza":"富岡","lat":40.643827,"lng":140.529485,"zip":"0381100"},{"town":"大字諏訪堂","koaza":"村元","lat":40.632138,"lng":140.526343,"zip":"0381100"},{"town":"大字和泉","koaza":"早稲田","lat":40.65374,"lng":140.532293,"zip":"0381100"},{"town":"大字諏訪堂","koaza":"川口","lat":40.63058,"lng":140.530507,"zip":"0381100"},{"town":"大字大曲","koaza":"川原田","lat":40.630631,"lng":140.537394,"zip":"0381100"},{"town":"大字境森","koaza":"東栄田","lat":40.66034,"lng":140.536089,"zip":"0381100"},{"town":"大字川部","koaza":"下船橋","lat":40.648094,"lng":140.533369,"zip":"0381100"},{"town":"大字畑中","koaza":"下川原","lat":40.637772,"lng":140.535183,"zip":"0381100"},{"town":"大字境森","koaza":"佃","lat":40.656281,"lng":140.537017,"zip":"0381100"},{"town":"大字大曲","koaza":"村元","lat":40.631034,"lng":140.536259,"zip":"0381100"},{"town":"大字前田屋敷","koaza":"福田","lat":40.653091,"lng":140.542985,"zip":"0381100"},{"town":"大字前田屋敷","koaza":"村元","lat":40.646564,"lng":140.53955,"zip":"0381100"},{"town":"大字畑中","koaza":"樋口","lat":40.630438,"lng":140.543446,"zip":"0381100"},{"town":"大字大曲","koaza":"早稲田","lat":40.633255,"lng":140.537699,"zip":"0381100"},{"town":"大字前田屋敷","koaza":"北一本柳","lat":40.651781,"lng":140.540294,"zip":"0381100"},{"town":"大字前田屋敷","koaza":"南一本柳","lat":40.649308,"lng":140.540625,"zip":"0381100"},{"town":"大字畑中","koaza":"新田","lat":40.640891,"lng":140.545164,"zip":"0381100"},{"town":"大字畑中","koaza":"宮崎","lat":40.636508,"lng":140.54378,"zip":"0381100"},{"town":"大字田舎舘","koaza":"松橋","lat":40.625405,"lng":140.55092,"zip":"0381100"},{"town":"大字田舎舘","koaza":"前川","lat":40.629374,"lng":140.547831,"zip":"0381100"},{"town":"大字前田屋敷","koaza":"栄田","lat":40.658551,"lng":140.543389,"zip":"0381100"},{"town":"大字畑中","koaza":"上野","lat":40.633072,"lng":140.545648,"zip":"0381100"},{"town":"大字前田屋敷","koaza":"南佃","lat":40.652018,"lng":140.54826,"zip":"0381100"},{"town":"大字八反田","koaza":"古舘","lat":40.637306,"lng":140.548215,"zip":"0381100"},{"town":"大字八反田","koaza":"川原田","lat":40.642343,"lng":140.549413,"zip":"0381100"},{"town":"大字前田屋敷","koaza":"北佃","lat":40.655917,"lng":140.547395,"zip":"0381100"},{"town":"大字前田屋敷","koaza":"東中野","lat":40.647971,"lng":140.55079,"zip":"0381100"},{"town":"大字畑中","koaza":"藤本","lat":40.634075,"lng":140.550928,"zip":"0381100"},{"town":"大字畑中","koaza":"観妙寺","lat":40.638707,"lng":140.554821,"zip":"0381100"},{"town":"大字田舎舘","koaza":"中辻","lat":40.631293,"lng":140.554692,"zip":"0381100"},{"town":"大字枝川","koaza":"舘子","lat":40.643168,"lng":140.556882,"zip":"0381100"},{"town":"大字堂野前","koaza":"西田","lat":40.652882,"lng":140.551221,"zip":"0381100"},{"town":"大字枝川","koaza":"川部","lat":40.646284,"lng":140.556436,"zip":"0381100"},{"town":"大字畑中","koaza":"藤巻","lat":40.636917,"lng":140.558197,"zip":"0381100"},{"town":"大字田舎舘","koaza":"東田","lat":40.629168,"lng":140.559934,"zip":"0381100"},{"town":"大字田舎舘","koaza":"前田","lat":40.62688,"lng":140.56104,"zip":"0381100"},{"town":"大字垂柳","koaza":"丁伝","lat":40.631998,"lng":140.560694,"zip":"0381100"},{"town":"大字枝川","koaza":"川原田","lat":40.645732,"lng":140.561113,"zip":"0381100"},{"town":"大字垂柳","koaza":"牡丹森","lat":40.639893,"lng":140.561997,"zip":"0381100"},{"town":"大字枝川","koaza":"狐森","lat":40.643949,"lng":140.562068,"zip":"0381100"},{"town":"大字垂柳","koaza":"松立","lat":40.630964,"lng":140.562287,"zip":"0381100"},{"town":"大字垂柳","koaza":"前田","lat":40.634644,"lng":140.564185,"zip":"0381100"},{"town":"大字垂柳","koaza":"福岡","lat":40.635134,"lng":140.562836,"zip":"0381100"},{"town":"大字垂柳","koaza":"石森","lat":40.639138,"lng":140.565975,"zip":"0381100"},{"town":"大字高樋","koaza":"川原田","lat":40.645701,"lng":140.570952,"zip":"0381100"},{"town":"大字高樋","koaza":"下川原","lat":40.648346,"lng":140.566549,"zip":"0381100"},{"town":"大字垂柳","koaza":"長田","lat":40.631918,"lng":140.571822,"zip":"0381100"},{"town":"大字十二川原","koaza":"鱸沼","lat":40.644424,"lng":140.569115,"zip":"0381100"},{"town":"大字垂柳","koaza":"大面","lat":40.634293,"lng":140.569038,"zip":"0381100"},{"town":"大字田舎舘","koaza":"菊助","lat":40.627779,"lng":140.567608,"zip":"0381100"},{"town":"大字高樋","koaza":"石盛","lat":40.639843,"lng":140.570095,"zip":"0381100"},{"town":"大字高樋","koaza":"深山林","lat":40.636778,"lng":140.569772,"zip":"0381100"},{"town":"大字高樋","koaza":"泉","lat":40.634564,"lng":140.57359,"zip":"0381100"},{"town":"大字高樋","koaza":"鱸沼","lat":40.64168,"lng":140.572401,"zip":"0381100"},{"town":"大字高樋","koaza":"八幡","lat":40.635262,"lng":140.578157,"zip":"0381100"},{"town":"大字高樋","koaza":"大曲","lat":40.632115,"lng":140.57653,"zip":"0381100"},{"town":"大字境森","koaza":"福田","lat":40.654862,"lng":140.534583,"zip":"0381100"},{"town":"大字和泉","koaza":"早稲岡","lat":40.654476,"lng":140.530079,"zip":"0381100"},{"town":"大字和泉","koaza":"上福岡","lat":40.651336,"lng":140.530115,"zip":"0381100"},{"town":"大字川部","koaza":"上川原","lat":40.642258,"lng":140.529491,"zip":"0381100"},{"town":"大字大根子","koaza":"穴渕","lat":40.639902,"lng":140.515675,"zip":"0381100"},{"town":"大字大根子","koaza":"村立","lat":40.638209,"lng":140.520412,"zip":"0381100"},{"town":"大字諏訪堂","koaza":"富岡","lat":40.629484,"lng":140.527369,"zip":"0381100"},{"town":"大字大根子","koaza":"松橋","lat":40.632115,"lng":140.519152,"zip":"0381100"},{"town":"大字堂野前","koaza":"前川原","lat":40.648964,"lng":140.55506,"zip":"0381100"},{"town":"大字畑中","koaza":"北原","lat":40.641897,"lng":140.536927,"zip":"0381100"},{"town":"大字大曲","koaza":"船橋","lat":40.638625,"lng":140.531506,"zip":"0381100"},{"town":"大字豊蒔","koaza":"牡丹森","lat":40.639582,"lng":140.505318,"zip":"0381100"},{"town":"大字豊蒔","koaza":"南前田","lat":40.635431,"lng":140.50644,"zip":"0381100"},{"town":"大字大袋","koaza":"一本柳","lat":40.626693,"lng":140.508667,"zip":"0381100"},{"town":"大字大袋","koaza":"塚越","lat":40.616943,"lng":140.515349,"zip":"0381100"},{"town":"大字大根子","koaza":"宮崎","lat":40.636984,"lng":140.523461,"zip":"0381100"},{"town":"大字大曲","koaza":"堀元","lat":40.634134,"lng":140.533278,"zip":"0381100"},{"town":"大字垂柳","koaza":"永田","lat":40.636898,"lng":140.565632,"zip":"0381100"},{"town":"大字垂柳","koaza":"高畑","lat":40.638727,"lng":140.561098,"zip":"0381100"},{"town":"大字高樋","koaza":"宮本","lat":40.635934,"lng":140.574021,"zip":"0381100"},{"town":"大字高樋","koaza":"鱸元","lat":40.640641,"lng":140.571983,"zip":"0381100"},{"town":"大字高樋","koaza":"川合","lat":40.640141,"lng":140.572934,"zip":"0381100"},{"town":"大字十二川原","koaza":"中鱸","lat":40.641022,"lng":140.568992,"zip":"0381100"},{"town":"大字前田屋敷","koaza":"北中野","lat":40.643302,"lng":140.540659,"zip":"0381100"},{"town":"大字和泉","koaza":"下福岡","lat":40.648689,"lng":140.526041,"zip":"0381100"},{"town":"大字前田屋敷","koaza":"西中野","lat":40.64377,"lng":140.535202,"zip":"0381100"}]