[{"town":"大字居土","koaza":"","lat":40.49372,"lng":140.529435,"zip":"0380200"},{"town":"大字大鰐","koaza":"","lat":40.509444,"lng":140.57786,"zip":"0380200"},{"town":"大字唐牛","koaza":"","lat":40.494569,"lng":140.606161,"zip":"0380200"},{"town":"大字蔵館","koaza":"","lat":40.527735,"lng":140.578573,"zip":"0380200"},{"town":"大字駒木","koaza":"","lat":40.518023,"lng":140.631222,"zip":"0380200"},{"town":"大字鯖石","koaza":"","lat":40.534389,"lng":140.554448,"zip":"0380200"},{"town":"大字島田","koaza":"","lat":40.477375,"lng":140.580839,"zip":"0380200"},{"town":"大字宿川原","koaza":"","lat":40.527282,"lng":140.56094,"zip":"0380200"},{"town":"大字長峰","koaza":"","lat":40.523778,"lng":140.611726,"zip":"0380200"},{"town":"大字苦木","koaza":"","lat":40.50795,"lng":140.594944,"zip":"0380200"},{"town":"大字虹貝","koaza":"","lat":40.50748,"lng":140.561182,"zip":"0380200"},{"town":"大字八幡館","koaza":"","lat":40.537966,"lng":140.565511,"zip":"0380200"},{"town":"大字早瀬野","koaza":"","lat":40.484504,"lng":140.556078,"zip":"0380200"},{"town":"大字三ツ目内","koaza":"","lat":40.512854,"lng":140.542241,"zip":"0380200"},{"town":"大字森山","koaza":"","lat":40.535984,"lng":140.545025,"zip":"0380200"},{"town":"大字森山","koaza":"鷹ノ巣","lat":40.544752,"lng":140.544434,"zip":"0380200"},{"town":"大字森山","koaza":"東館","lat":40.535884,"lng":140.547258,"zip":"0380200"},{"town":"大字森山","koaza":"中道添","lat":40.532697,"lng":140.548802,"zip":"0380200"},{"town":"大字鯖石","koaza":"桜ノ木","lat":40.536331,"lng":140.552762,"zip":"0380200"},{"town":"大字鯖石","koaza":"広田","lat":40.533608,"lng":140.55354,"zip":"0380200"},{"town":"大字鯖石","koaza":"一本柳","lat":40.534472,"lng":140.555462,"zip":"0380200"},{"town":"大字八幡館","koaza":"川原","lat":40.544478,"lng":140.554152,"zip":"0380200"},{"town":"大字八幡館","koaza":"畳田","lat":40.538456,"lng":140.555441,"zip":"0380200"},{"town":"大字八幡館","koaza":"山下","lat":40.545544,"lng":140.559707,"zip":"0380200"},{"town":"大字八幡館","koaza":"広田","lat":40.529253,"lng":140.555248,"zip":"0380200"},{"town":"大字八幡館","koaza":"泉田","lat":40.546198,"lng":140.556154,"zip":"0380200"},{"town":"大字八幡館","koaza":"長面","lat":40.541252,"lng":140.555927,"zip":"0380200"},{"town":"大字宿川原","koaza":"山下","lat":40.526869,"lng":140.558417,"zip":"0380200"},{"town":"大字三ツ目内","koaza":"富岡","lat":40.523885,"lng":140.556676,"zip":"0380200"},{"town":"大字八幡館","koaza":"桜田","lat":40.547847,"lng":140.556214,"zip":"0380200"},{"town":"大字宿川原","koaza":"川崎","lat":40.525678,"lng":140.559071,"zip":"0380200"},{"town":"大字虹貝","koaza":"篠塚","lat":40.519297,"lng":140.561886,"zip":"0380200"},{"town":"大字八幡館","koaza":"前田","lat":40.545362,"lng":140.558434,"zip":"0380200"},{"town":"大字八幡館","koaza":"八幡館","lat":40.539728,"lng":140.559765,"zip":"0380200"},{"town":"大字虹貝","koaza":"中熊沢","lat":40.510199,"lng":140.560514,"zip":"0380200"},{"town":"大字虹貝","koaza":"清川","lat":40.51307,"lng":140.56388,"zip":"0380200"},{"town":"大字大鰐","koaza":"北山","lat":40.523901,"lng":140.565261,"zip":"0380200"},{"town":"大字八幡館","koaza":"長内","lat":40.540066,"lng":140.563572,"zip":"0380200"},{"town":"大字大鰐","koaza":"川辺","lat":40.520667,"lng":140.565355,"zip":"0380200"},{"town":"大字大鰐","koaza":"前田","lat":40.522332,"lng":140.569622,"zip":"0380200"},{"town":"大字大鰐","koaza":"羽黒館","lat":40.51701,"lng":140.567716,"zip":"0380200"},{"town":"大字大鰐","koaza":"上牡丹森","lat":40.512789,"lng":140.571499,"zip":"0380200"},{"town":"大字大鰐","koaza":"夏沢","lat":40.516905,"lng":140.570199,"zip":"0380200"},{"town":"大字大鰐","koaza":"大鰐","lat":40.52005,"lng":140.569932,"zip":"0380200"},{"town":"大字蔵館","koaza":"宮本","lat":40.523379,"lng":140.573088,"zip":"0380200"},{"town":"大字大鰐","koaza":"萢頭","lat":40.511006,"lng":140.578452,"zip":"0380200"},{"town":"大字蔵館","koaza":"村岡","lat":40.521854,"lng":140.575679,"zip":"0380200"},{"town":"大字大鰐","koaza":"湯野川原","lat":40.519681,"lng":140.576769,"zip":"0380200"},{"town":"大字蔵館","koaza":"金坂","lat":40.525547,"lng":140.574723,"zip":"0380200"},{"town":"大字大鰐","koaza":"薬師館","lat":40.51809,"lng":140.57558,"zip":"0380200"},{"town":"大字蔵館","koaza":"館越","lat":40.523082,"lng":140.578704,"zip":"0380200"},{"town":"大字蔵館","koaza":"湯ノ沢","lat":40.525411,"lng":140.577245,"zip":"0380200"},{"town":"大字蔵館","koaza":"山下","lat":40.521844,"lng":140.580565,"zip":"0380200"},{"town":"大字蔵館","koaza":"古館","lat":40.524105,"lng":140.577957,"zip":"0380200"},{"town":"大字蔵館","koaza":"道添","lat":40.519827,"lng":140.582405,"zip":"0380200"},{"town":"大字長峰","koaza":"下川原","lat":40.519812,"lng":140.590304,"zip":"0380200"},{"town":"大字長峰","koaza":"山辺","lat":40.52138,"lng":140.590924,"zip":"0380200"},{"town":"大字長峰","koaza":"前田","lat":40.520222,"lng":140.594271,"zip":"0380200"},{"town":"大字苦木","koaza":"野尻","lat":40.512054,"lng":140.597874,"zip":"0380200"},{"town":"大字苦木","koaza":"豊田","lat":40.515221,"lng":140.599398,"zip":"0380200"},{"town":"大字森山","koaza":"下福田","lat":40.537528,"lng":140.547704,"zip":"0380200"},{"town":"大字森山","koaza":"前田","lat":40.533329,"lng":140.547933,"zip":"0380200"},{"town":"大字森山","koaza":"村元","lat":40.534591,"lng":140.549104,"zip":"0380200"},{"town":"大字森山","koaza":"上福田","lat":40.534467,"lng":140.550063,"zip":"0380200"},{"town":"大字八幡館","koaza":"油石","lat":40.540329,"lng":140.557531,"zip":"0380200"},{"town":"大字八幡館","koaza":"沢田","lat":40.542003,"lng":140.558487,"zip":"0380200"},{"town":"大字八幡館","koaza":"野走","lat":40.544298,"lng":140.561719,"zip":"0380200"},{"town":"大字大鰐","koaza":"下牡丹森","lat":40.514624,"lng":140.567481,"zip":"0380200"},{"town":"大字大鰐","koaza":"出張沢","lat":40.508157,"lng":140.576638,"zip":"0380200"},{"town":"大字大鰐","koaza":"南無阿弥沢","lat":40.517873,"lng":140.570452,"zip":"0380200"},{"town":"大字蔵館","koaza":"北山","lat":40.525375,"lng":140.571821,"zip":"0380200"},{"town":"大字蔵館","koaza":"川原田","lat":40.52007,"lng":140.57999,"zip":"0380200"},{"town":"大字長峰","koaza":"ブシ川","lat":40.521526,"lng":140.594871,"zip":"0380200"},{"town":"大字八幡館","koaza":"高水山","lat":40.538101,"lng":140.562679,"zip":"0380200"},{"town":"大字虹貝","koaza":"大熊沢","lat":40.502435,"lng":140.558584,"zip":"0380200"},{"town":"大字島田","koaza":"滝ノ沢","lat":40.493442,"lng":140.573793,"zip":"0380200"},{"town":"大字大鰐","koaza":"茶臼館","lat":40.51883,"lng":140.574295,"zip":"0380200"},{"town":"大字大鰐","koaza":"稗田沢","lat":40.518351,"lng":140.576427,"zip":"0380200"},{"town":"大字苦木","koaza":"長谷田","lat":40.514443,"lng":140.596426,"zip":"0380200"},{"town":"大字苦木","koaza":"上川原","lat":40.514225,"lng":140.60083,"zip":"0380200"},{"town":"大字八幡館","koaza":"水入","lat":40.539086,"lng":140.559225,"zip":"0380200"},{"town":"大字八幡館","koaza":"梨木平","lat":40.538469,"lng":140.563882,"zip":"0380200"},{"town":"大字鯖石","koaza":"浅瀬渕","lat":40.534299,"lng":140.556105,"zip":"0380200"},{"town":"大字蔵館","koaza":"神岡","lat":40.526558,"lng":140.579508,"zip":"0380200"},{"town":"大字森山","koaza":"鶉長根","lat":40.544604,"lng":140.542753,"zip":"0380200"}]