[{"town":"荒田","koaza":"","lat":40.602096,"lng":140.568429,"zip":"0360112"},{"town":"新屋","koaza":"","lat":40.595778,"lng":140.595873,"zip":"0360121"},{"town":"新屋町","koaza":"","lat":40.607664,"lng":140.574921,"zip":"0360213"},{"town":"碇ヶ関","koaza":"","lat":40.461197,"lng":140.636663,"zip":"0360100"},{"town":"碇ヶ関古懸","koaza":"","lat":40.486668,"lng":140.655672,"zip":"0360100"},{"town":"碇ヶ関久吉","koaza":"","lat":40.445227,"lng":140.657466,"zip":"0360100"},{"town":"石郷","koaza":"","lat":40.574277,"lng":140.551568,"zip":"0360151"},{"town":"石畑","koaza":"","lat":40.57585,"lng":140.54014,"zip":"0360152"},{"town":"岩館","koaza":"","lat":40.56004,"lng":140.543863,"zip":"0360145"},{"town":"沖館","koaza":"","lat":40.56445,"lng":140.584189,"zip":"0360141"},{"town":"小国","koaza":"","lat":40.545852,"lng":140.669275,"zip":"0360171"},{"town":"尾崎","koaza":"","lat":40.584521,"lng":140.624698,"zip":"0360122"},{"town":"長田","koaza":"","lat":40.607995,"lng":140.550249,"zip":"0360222"},{"town":"尾上","koaza":"","lat":40.615858,"lng":140.580928,"zip":"0360212"},{"town":"柏木町","koaza":"","lat":40.579584,"lng":140.563059,"zip":"0360104"},{"town":"金屋","koaza":"","lat":40.60637,"lng":140.610815,"zip":"0360202"},{"town":"蒲田","koaza":"","lat":40.622151,"lng":140.529481,"zip":"0360232"},{"town":"唐竹","koaza":"","lat":40.552496,"lng":140.611901,"zip":"0360132"},{"town":"切明","koaza":"","lat":40.511345,"lng":140.80837,"zip":"0360173"},{"town":"葛川","koaza":"","lat":40.550124,"lng":140.778748,"zip":"0360172"},{"town":"光城一丁目","koaza":"","lat":40.588089,"lng":140.561533,"zip":"0360102"},{"town":"光城二丁目","koaza":"","lat":40.590022,"lng":140.56179,"zip":"0360102"},{"town":"光城三丁目","koaza":"","lat":40.591951,"lng":140.561692,"zip":"0360102"},{"town":"光城四丁目","koaza":"","lat":40.593512,"lng":140.561023,"zip":"0360102"},{"town":"光城五丁目","koaza":"","lat":40.591006,"lng":140.559523,"zip":"0360102"},{"town":"光城六丁目","koaza":"","lat":40.589335,"lng":140.559807,"zip":"0360102"},{"town":"光城七丁目","koaza":"","lat":40.587999,"lng":140.559658,"zip":"0360102"},{"town":"小杉","koaza":"","lat":40.574696,"lng":140.539693,"zip":"0360153"},{"town":"小和森","koaza":"","lat":40.594309,"lng":140.566407,"zip":"0360111"},{"town":"猿賀","koaza":"","lat":40.618532,"lng":140.561145,"zip":"0360242"},{"town":"杉館","koaza":"","lat":40.606249,"lng":140.538518,"zip":"0360161"},{"town":"李平","koaza":"","lat":40.617263,"lng":140.59516,"zip":"0360201"},{"town":"大光寺","koaza":"","lat":40.594414,"lng":140.552065,"zip":"0360101"},{"town":"大坊","koaza":"","lat":40.569818,"lng":140.5387,"zip":"0360146"},{"town":"高木","koaza":"","lat":40.6221,"lng":140.586,"zip":"0360211"},{"town":"高畑","koaza":"","lat":40.566179,"lng":140.571591,"zip":"0360142"},{"town":"館田","koaza":"","lat":40.58306,"lng":140.537116,"zip":"0360155"},{"town":"館山","koaza":"","lat":40.598506,"lng":140.538993,"zip":"0360162"},{"town":"中佐渡","koaza":"","lat":40.608905,"lng":140.563031,"zip":"0360221"},{"town":"苗生松","koaza":"","lat":40.590108,"lng":140.534181,"zip":"0360163"},{"town":"新館","koaza":"","lat":40.576347,"lng":140.58982,"zip":"0360115"},{"town":"新山","koaza":"","lat":40.625791,"lng":140.535088,"zip":"0360231"},{"town":"西野曽江","koaza":"","lat":40.611979,"lng":140.538058,"zip":"0360223"},{"town":"原","koaza":"","lat":40.617965,"lng":140.577929,"zip":"0360243"},{"town":"原田","koaza":"","lat":40.564064,"lng":140.554378,"zip":"0360144"},{"town":"日沼","koaza":"","lat":40.616572,"lng":140.523119,"zip":"0360233"},{"town":"平田森","koaza":"","lat":40.598738,"lng":140.577276,"zip":"0360113"},{"town":"広船","koaza":"","lat":40.561456,"lng":140.630126,"zip":"0360131"},{"town":"吹上","koaza":"","lat":40.570159,"lng":140.565337,"zip":"0360143"},{"town":"町居","koaza":"","lat":40.583417,"lng":140.585788,"zip":"0360114"},{"town":"松崎","koaza":"","lat":40.593281,"lng":140.53479,"zip":"0360164"},{"town":"松館","koaza":"","lat":40.602343,"lng":140.531225,"zip":"0360165"},{"town":"南田中","koaza":"","lat":40.608213,"lng":140.589833,"zip":"0360203"},{"town":"本町","koaza":"","lat":40.58577,"lng":140.559693,"zip":"0360103"},{"town":"八幡崎","koaza":"","lat":40.617367,"lng":140.53964,"zip":"0360241"},{"town":"四ツ屋","koaza":"","lat":40.576429,"lng":140.530258,"zip":"0360154"},{"town":"日沼","koaza":"樋田","lat":40.619648,"lng":140.51709,"zip":"0360233"},{"town":"日沼","koaza":"塚越","lat":40.618132,"lng":140.517352,"zip":"0360233"},{"town":"日沼","koaza":"一本柳","lat":40.617228,"lng":140.518294,"zip":"0360233"},{"town":"日沼","koaza":"下袋","lat":40.616866,"lng":140.519491,"zip":"0360233"},{"town":"日沼","koaza":"李田","lat":40.619426,"lng":140.519649,"zip":"0360233"},{"town":"日沼","koaza":"高田","lat":40.617964,"lng":140.524347,"zip":"0360233"},{"town":"日沼","koaza":"富岳","lat":40.616246,"lng":140.525383,"zip":"0360233"},{"town":"蒲田","koaza":"豊田","lat":40.621,"lng":140.527071,"zip":"0360232"},{"town":"蒲田","koaza":"豊富","lat":40.623966,"lng":140.526527,"zip":"0360232"},{"town":"日沼","koaza":"富田","lat":40.616601,"lng":140.52947,"zip":"0360233"},{"town":"館田","koaza":"柳原","lat":40.580571,"lng":140.527333,"zip":"0360155"},{"town":"苗生松","koaza":"川原田","lat":40.595109,"lng":140.527639,"zip":"0360163"},{"town":"蒲田","koaza":"元宮","lat":40.622071,"lng":140.530137,"zip":"0360232"},{"town":"蒲田","koaza":"一本松","lat":40.620895,"lng":140.530556,"zip":"0360232"},{"town":"蒲田","koaza":"玉田","lat":40.619782,"lng":140.531137,"zip":"0360232"},{"town":"松館","koaza":"松元","lat":40.600279,"lng":140.530152,"zip":"0360165"},{"town":"西野曽江","koaza":"川崎","lat":40.613609,"lng":140.531579,"zip":"0360223"},{"town":"松館","koaza":"浅井","lat":40.597253,"lng":140.531236,"zip":"0360165"},{"town":"苗生松","koaza":"川崎","lat":40.593947,"lng":140.530461,"zip":"0360163"},{"town":"四ツ屋","koaza":"亀田","lat":40.57697,"lng":140.531669,"zip":"0360154"},{"town":"西野曽江","koaza":"広田","lat":40.615761,"lng":140.531502,"zip":"0360223"},{"town":"館田","koaza":"南川原田","lat":40.581025,"lng":140.530824,"zip":"0360155"},{"town":"新山","koaza":"早稲田","lat":40.62528,"lng":140.533972,"zip":"0360231"},{"town":"大坊","koaza":"竹内","lat":40.57041,"lng":140.536918,"zip":"0360146"},{"town":"新山","koaza":"村元","lat":40.627098,"lng":140.532268,"zip":"0360231"},{"town":"松館","koaza":"井ノ上","lat":40.598878,"lng":140.533033,"zip":"0360165"},{"town":"新山","koaza":"岡部","lat":40.628589,"lng":140.536514,"zip":"0360231"},{"town":"蒲田","koaza":"三原","lat":40.621811,"lng":140.53274,"zip":"0360232"},{"town":"松崎","koaza":"西田","lat":40.594057,"lng":140.532647,"zip":"0360164"},{"town":"大坊","koaza":"竹原","lat":40.566592,"lng":140.537029,"zip":"0360146"},{"town":"苗生松","koaza":"一本柳","lat":40.589526,"lng":140.535068,"zip":"0360163"},{"town":"八幡崎","koaza":"松橋","lat":40.619486,"lng":140.53663,"zip":"0360241"},{"town":"館田","koaza":"稲村","lat":40.578553,"lng":140.534778,"zip":"0360155"},{"town":"館田","koaza":"前田","lat":40.581833,"lng":140.536803,"zip":"0360155"},{"town":"館山","koaza":"前田","lat":40.595331,"lng":140.536111,"zip":"0360162"},{"town":"館田","koaza":"元川原田","lat":40.585025,"lng":140.533818,"zip":"0360155"},{"town":"新山","koaza":"柳田","lat":40.624601,"lng":140.535948,"zip":"0360231"},{"town":"杉館","koaza":"松橋","lat":40.606359,"lng":140.536195,"zip":"0360161"},{"town":"八幡崎","koaza":"宮田","lat":40.615603,"lng":140.538676,"zip":"0360241"},{"town":"八幡崎","koaza":"宮本","lat":40.617134,"lng":140.538164,"zip":"0360241"},{"town":"新山","koaza":"松橋","lat":40.626496,"lng":140.537637,"zip":"0360231"},{"town":"杉館","koaza":"宮元","lat":40.606822,"lng":140.539464,"zip":"0360161"},{"town":"館田","koaza":"中前田","lat":40.583436,"lng":140.539815,"zip":"0360155"},{"town":"小杉","koaza":"稲村","lat":40.575503,"lng":140.539522,"zip":"0360153"},{"town":"八幡崎","koaza":"松枝","lat":40.618145,"lng":140.539769,"zip":"0360241"},{"town":"館山","koaza":"板橋","lat":40.600691,"lng":140.536277,"zip":"0360162"},{"town":"岩館","koaza":"山の井","lat":40.560441,"lng":140.540099,"zip":"0360145"},{"town":"館山","koaza":"下扇田","lat":40.599854,"lng":140.536654,"zip":"0360162"},{"town":"西野曽江","koaza":"橋元","lat":40.615909,"lng":140.537126,"zip":"0360223"},{"town":"杉館","koaza":"滝元","lat":40.60371,"lng":140.544362,"zip":"0360161"},{"town":"館田","koaza":"東稲村","lat":40.578858,"lng":140.538953,"zip":"0360155"},{"town":"館山","koaza":"上亀岡","lat":40.596324,"lng":140.540187,"zip":"0360162"},{"town":"苗生松","koaza":"下東田","lat":40.592963,"lng":140.541125,"zip":"0360163"},{"town":"館田","koaza":"西和田","lat":40.585582,"lng":140.541261,"zip":"0360155"},{"town":"館山","koaza":"下亀岡","lat":40.59917,"lng":140.541146,"zip":"0360162"},{"town":"岩館","koaza":"藤巻","lat":40.561473,"lng":140.541776,"zip":"0360145"},{"town":"小杉","koaza":"川崎","lat":40.574665,"lng":140.541636,"zip":"0360153"},{"town":"八幡崎","koaza":"高原","lat":40.614802,"lng":140.546599,"zip":"0360241"},{"town":"八幡崎","koaza":"本林","lat":40.617152,"lng":140.544505,"zip":"0360241"},{"town":"大坊","koaza":"前田","lat":40.571004,"lng":140.544562,"zip":"0360146"},{"town":"館田","koaza":"東和田","lat":40.585538,"lng":140.544289,"zip":"0360155"},{"town":"大坊","koaza":"福田","lat":40.565855,"lng":140.54471,"zip":"0360146"},{"town":"岩館","koaza":"下り松","lat":40.56323,"lng":140.544764,"zip":"0360145"},{"town":"大光寺","koaza":"一早稲田","lat":40.586448,"lng":140.546128,"zip":"0360101"},{"town":"八幡崎","koaza":"高野","lat":40.615569,"lng":140.5445,"zip":"0360241"},{"town":"大光寺","koaza":"釈迦口","lat":40.593167,"lng":140.545407,"zip":"0360101"},{"town":"大光寺","koaza":"二早稲田","lat":40.591541,"lng":140.54819,"zip":"0360101"},{"town":"猿賀","koaza":"池田","lat":40.618334,"lng":140.54508,"zip":"0360242"},{"town":"岩館","koaza":"村元","lat":40.559272,"lng":140.543724,"zip":"0360145"},{"town":"八幡崎","koaza":"本宮","lat":40.619147,"lng":140.546709,"zip":"0360241"},{"town":"猿賀","koaza":"明堂","lat":40.61594,"lng":140.553664,"zip":"0360242"},{"town":"小杉","koaza":"扇田","lat":40.574397,"lng":140.547696,"zip":"0360153"},{"town":"本町","koaza":"西宮","lat":40.580893,"lng":140.550288,"zip":"0360103"},{"town":"岩館","koaza":"長田","lat":40.557988,"lng":140.54618,"zip":"0360145"},{"town":"石郷","koaza":"村元","lat":40.573272,"lng":140.550446,"zip":"0360151"},{"town":"原田","koaza":"今井","lat":40.565633,"lng":140.549343,"zip":"0360144"},{"town":"大光寺","koaza":"白山","lat":40.586962,"lng":140.551567,"zip":"0360101"},{"town":"猿賀","koaza":"下野","lat":40.614705,"lng":140.555165,"zip":"0360242"},{"town":"大光寺","koaza":"稲田","lat":40.598009,"lng":140.550629,"zip":"0360101"},{"town":"長田","koaza":"元村","lat":40.60872,"lng":140.552289,"zip":"0360222"},{"town":"原田","koaza":"村元","lat":40.565254,"lng":140.55243,"zip":"0360144"},{"town":"大光寺","koaza":"三早稲田","lat":40.592364,"lng":140.549542,"zip":"0360101"},{"town":"長田","koaza":"沼田","lat":40.608568,"lng":140.554966,"zip":"0360222"},{"town":"大光寺","koaza":"四滝本","lat":40.595285,"lng":140.551921,"zip":"0360101"},{"town":"柏木町","koaza":"広田","lat":40.57863,"lng":140.552541,"zip":"0360104"},{"town":"石郷","koaza":"柳田","lat":40.574419,"lng":140.553342,"zip":"0360151"},{"town":"大光寺","koaza":"三滝本","lat":40.592627,"lng":140.553523,"zip":"0360101"},{"town":"大光寺","koaza":"一滝本","lat":40.590869,"lng":140.554793,"zip":"0360101"},{"town":"原田","koaza":"稲元","lat":40.565852,"lng":140.554257,"zip":"0360144"},{"town":"大光寺","koaza":"一村井","lat":40.595699,"lng":140.554782,"zip":"0360101"},{"town":"長田","koaza":"野田","lat":40.610679,"lng":140.558341,"zip":"0360222"},{"town":"中佐渡","koaza":"鎌田","lat":40.608168,"lng":140.558512,"zip":"0360221"},{"town":"大光寺","koaza":"種元","lat":40.589261,"lng":140.553052,"zip":"0360101"},{"town":"本町","koaza":"富岡","lat":40.584093,"lng":140.555163,"zip":"0360103"},{"town":"本町","koaza":"南柳田","lat":40.583854,"lng":140.558606,"zip":"0360103"},{"town":"原田","koaza":"沢田","lat":40.566364,"lng":140.557952,"zip":"0360144"},{"town":"本町","koaza":"北柳田","lat":40.585501,"lng":140.559942,"zip":"0360103"},{"town":"大光寺","koaza":"二村井","lat":40.592811,"lng":140.559456,"zip":"0360101"},{"town":"柏木町","koaza":"柳田","lat":40.577415,"lng":140.562032,"zip":"0360104"},{"town":"大光寺","koaza":"三村井","lat":40.590568,"lng":140.556676,"zip":"0360101"},{"town":"猿賀","koaza":"平塚","lat":40.612885,"lng":140.561542,"zip":"0360242"},{"town":"猿賀","koaza":"石林","lat":40.616148,"lng":140.56608,"zip":"0360242"},{"town":"猿賀","koaza":"池上","lat":40.617714,"lng":140.564797,"zip":"0360242"},{"town":"吹上","koaza":"高田","lat":40.570927,"lng":140.567467,"zip":"0360143"},{"town":"猿賀","koaza":"松枝","lat":40.620327,"lng":140.563634,"zip":"0360242"},{"town":"中佐渡","koaza":"村元","lat":40.611181,"lng":140.56517,"zip":"0360221"},{"town":"荒田","koaza":"北岡部","lat":40.603289,"lng":140.564076,"zip":"0360112"},{"town":"柏木町","koaza":"藤山","lat":40.584952,"lng":140.566063,"zip":"0360104"},{"town":"中佐渡","koaza":"前田","lat":40.609851,"lng":140.566043,"zip":"0360221"},{"town":"柏木町","koaza":"東田","lat":40.57847,"lng":140.567475,"zip":"0360104"},{"town":"猿賀","koaza":"富岡","lat":40.621823,"lng":140.56486,"zip":"0360242"},{"town":"小和森","koaza":"松村","lat":40.594066,"lng":140.565148,"zip":"0360111"},{"town":"猿賀","koaza":"遠林","lat":40.614127,"lng":140.56457,"zip":"0360242"},{"town":"小和森","koaza":"松川","lat":40.591873,"lng":140.563496,"zip":"0360111"},{"town":"小和森","koaza":"福田","lat":40.595916,"lng":140.568752,"zip":"0360111"},{"town":"小和森","koaza":"上松岡","lat":40.590159,"lng":140.566931,"zip":"0360111"},{"town":"猿賀","koaza":"浅田","lat":40.619721,"lng":140.570016,"zip":"0360242"},{"town":"小和森","koaza":"下松岡","lat":40.595032,"lng":140.567982,"zip":"0360111"},{"town":"本町","koaza":"平野","lat":40.587912,"lng":140.564788,"zip":"0360103"},{"town":"荒田","koaza":"下駒田","lat":40.600379,"lng":140.567981,"zip":"0360112"},{"town":"新屋町","koaza":"上沢田","lat":40.609362,"lng":140.572263,"zip":"0360213"},{"town":"高畑","koaza":"前田","lat":40.565862,"lng":140.569614,"zip":"0360142"},{"town":"新屋町","koaza":"下沢田","lat":40.606994,"lng":140.569491,"zip":"0360213"},{"town":"猿賀","koaza":"南田","lat":40.614408,"lng":140.570717,"zip":"0360242"},{"town":"小和森","koaza":"種取","lat":40.587009,"lng":140.567678,"zip":"0360111"},{"town":"吹上","koaza":"平岡","lat":40.570783,"lng":140.568451,"zip":"0360143"},{"town":"荒田","koaza":"北稲村","lat":40.602005,"lng":140.570622,"zip":"0360112"},{"town":"中佐渡","koaza":"南田","lat":40.612056,"lng":140.572865,"zip":"0360221"},{"town":"沖館","koaza":"向野","lat":40.575405,"lng":140.572691,"zip":"0360141"},{"town":"町居","koaza":"南田","lat":40.583701,"lng":140.577735,"zip":"0360114"},{"town":"小和森","koaza":"中松岡","lat":40.593141,"lng":140.567435,"zip":"0360111"},{"town":"猿賀","koaza":"南野","lat":40.613338,"lng":140.571595,"zip":"0360242"},{"town":"沖館","koaza":"西田","lat":40.571208,"lng":140.573679,"zip":"0360141"},{"town":"荒田","koaza":"上駒田","lat":40.600564,"lng":140.572775,"zip":"0360112"},{"town":"沖館","koaza":"和田","lat":40.574099,"lng":140.576092,"zip":"0360141"},{"town":"小和森","koaza":"下田川","lat":40.590328,"lng":140.572851,"zip":"0360111"},{"town":"新屋町","koaza":"道ノ下","lat":40.60644,"lng":140.570787,"zip":"0360213"},{"town":"猿賀","koaza":"浅井","lat":40.617218,"lng":140.572593,"zip":"0360242"},{"town":"高畑","koaza":"熊沢","lat":40.56631,"lng":140.573752,"zip":"0360142"},{"town":"新館","koaza":"藤山","lat":40.581058,"lng":140.574839,"zip":"0360115"},{"town":"平田森","koaza":"若松","lat":40.59634,"lng":140.576357,"zip":"0360113"},{"town":"新屋町","koaza":"松久","lat":40.610607,"lng":140.57589,"zip":"0360213"},{"town":"町居","koaza":"稲元","lat":40.593663,"lng":140.58008,"zip":"0360114"},{"town":"町居","koaza":"稲村","lat":40.590074,"lng":140.577235,"zip":"0360114"},{"town":"新屋町","koaza":"松居","lat":40.606528,"lng":140.57357,"zip":"0360213"},{"town":"平田森","koaza":"前田","lat":40.599801,"lng":140.576649,"zip":"0360113"},{"town":"沖館","koaza":"長田","lat":40.571863,"lng":140.579414,"zip":"0360141"},{"town":"新館","koaza":"野木和","lat":40.58358,"lng":140.573645,"zip":"0360115"},{"town":"町居","koaza":"西田","lat":40.586194,"lng":140.576455,"zip":"0360114"},{"town":"荒田","koaza":"南稲村","lat":40.602717,"lng":140.575909,"zip":"0360112"},{"town":"平田森","koaza":"上宮本","lat":40.5949,"lng":140.579463,"zip":"0360113"},{"town":"沖館","koaza":"高田","lat":40.574556,"lng":140.580555,"zip":"0360141"},{"town":"新屋町","koaza":"松下","lat":40.611275,"lng":140.580015,"zip":"0360213"},{"town":"原","koaza":"上原","lat":40.618132,"lng":140.577672,"zip":"0360243"},{"town":"新館","koaza":"後野","lat":40.579968,"lng":140.581254,"zip":"0360115"},{"town":"新屋町","koaza":"田川","lat":40.605618,"lng":140.579579,"zip":"0360213"},{"town":"原","koaza":"北原","lat":40.620803,"lng":140.577203,"zip":"0360243"},{"town":"沖館","koaza":"宮崎","lat":40.568534,"lng":140.58277,"zip":"0360141"},{"town":"新屋町","koaza":"北鶉野","lat":40.611153,"lng":140.581153,"zip":"0360213"},{"town":"沖館","koaza":"比山館","lat":40.56542,"lng":140.580792,"zip":"0360141"},{"town":"平田森","koaza":"下宮本","lat":40.595686,"lng":140.579707,"zip":"0360113"},{"town":"新館","koaza":"藤巻","lat":40.576418,"lng":140.581605,"zip":"0360115"},{"town":"平田森","koaza":"稲村","lat":40.59728,"lng":140.582238,"zip":"0360113"},{"town":"新屋","koaza":"福嶋","lat":40.595864,"lng":140.585173,"zip":"0360121"},{"town":"尾上","koaza":"栄松","lat":40.616206,"lng":140.580446,"zip":"0360212"},{"town":"町居","koaza":"横山","lat":40.590798,"lng":140.586362,"zip":"0360114"},{"town":"高木","koaza":"原田","lat":40.618849,"lng":140.583721,"zip":"0360211"},{"town":"沖館","koaza":"永田","lat":40.570215,"lng":140.588803,"zip":"0360141"},{"town":"高木","koaza":"原富","lat":40.615441,"lng":140.585607,"zip":"0360211"},{"town":"新館","koaza":"柏崎","lat":40.576605,"lng":140.587102,"zip":"0360115"},{"town":"町居","koaza":"山下","lat":40.576699,"lng":140.594981,"zip":"0360114"},{"town":"町居","koaza":"山元","lat":40.587604,"lng":140.589445,"zip":"0360114"},{"town":"李平","koaza":"下安原","lat":40.616543,"lng":140.590087,"zip":"0360201"},{"town":"高木","koaza":"岡崎","lat":40.62863,"lng":140.588013,"zip":"0360211"},{"town":"李平","koaza":"上安原","lat":40.614709,"lng":140.593509,"zip":"0360201"},{"town":"南田中","koaza":"西原","lat":40.611084,"lng":140.591124,"zip":"0360203"},{"town":"新屋","koaza":"長田","lat":40.597578,"lng":140.589,"zip":"0360121"},{"town":"新館","koaza":"東山","lat":40.573315,"lng":140.589285,"zip":"0360115"},{"town":"李平","koaza":"西山崎","lat":40.61873,"lng":140.590971,"zip":"0360201"},{"town":"高木","koaza":"岡部","lat":40.621046,"lng":140.591321,"zip":"0360211"},{"town":"尾崎","koaza":"川合","lat":40.585672,"lng":140.595948,"zip":"0360122"},{"town":"南田中","koaza":"北原","lat":40.614007,"lng":140.588869,"zip":"0360203"},{"town":"新屋","koaza":"平野","lat":40.591332,"lng":140.597716,"zip":"0360121"},{"town":"尾崎","koaza":"稲元","lat":40.587678,"lng":140.596531,"zip":"0360122"},{"town":"李平","koaza":"上山崎","lat":40.621085,"lng":140.593757,"zip":"0360201"},{"town":"李平","koaza":"東和田","lat":40.617228,"lng":140.59448,"zip":"0360201"},{"town":"南田中","koaza":"村内","lat":40.609856,"lng":140.595842,"zip":"0360203"},{"town":"新屋","koaza":"稲村","lat":40.596879,"lng":140.593225,"zip":"0360121"},{"town":"新屋","koaza":"栄館","lat":40.594327,"lng":140.598228,"zip":"0360121"},{"town":"金屋","koaza":"西松元","lat":40.60569,"lng":140.596451,"zip":"0360202"},{"town":"金屋","koaza":"下松元","lat":40.605668,"lng":140.600337,"zip":"0360202"},{"town":"李平","koaza":"西豊田","lat":40.613681,"lng":140.600391,"zip":"0360201"},{"town":"新屋","koaza":"山下","lat":40.598542,"lng":140.60111,"zip":"0360121"},{"town":"李平","koaza":"北豊田","lat":40.615836,"lng":140.601429,"zip":"0360201"},{"town":"金屋","koaza":"中松元","lat":40.607065,"lng":140.602674,"zip":"0360202"},{"town":"金屋","koaza":"上松元","lat":40.610998,"lng":140.602436,"zip":"0360202"},{"town":"尾崎","koaza":"浅井","lat":40.588464,"lng":140.603694,"zip":"0360122"},{"town":"尾崎","koaza":"安田","lat":40.593173,"lng":140.602862,"zip":"0360122"},{"town":"李平","koaza":"東豊田","lat":40.614546,"lng":140.604576,"zip":"0360201"},{"town":"金屋","koaza":"中早稲田","lat":40.606267,"lng":140.607726,"zip":"0360202"},{"town":"新屋","koaza":"富山","lat":40.597798,"lng":140.603377,"zip":"0360121"},{"town":"金屋","koaza":"上早稲田","lat":40.610874,"lng":140.607659,"zip":"0360202"},{"town":"中佐渡","koaza":"石田","lat":40.609224,"lng":140.562759,"zip":"0360221"},{"town":"原","koaza":"大野","lat":40.615303,"lng":140.577689,"zip":"0360243"},{"town":"李平","koaza":"西和田","lat":40.618002,"lng":140.587074,"zip":"0360201"},{"town":"新屋町","koaza":"村元","lat":40.607744,"lng":140.576666,"zip":"0360213"},{"town":"荒田","koaza":"南岡部","lat":40.601433,"lng":140.564713,"zip":"0360112"},{"town":"小和森","koaza":"下平田","lat":40.599966,"lng":140.563638,"zip":"0360111"},{"town":"新屋町","koaza":"南鶉野","lat":40.608737,"lng":140.580943,"zip":"0360213"},{"town":"小和森","koaza":"上平田","lat":40.59529,"lng":140.561199,"zip":"0360111"},{"town":"本町","koaza":"村元","lat":40.58738,"lng":140.560857,"zip":"0360103"},{"town":"苗生松","koaza":"上東田","lat":40.591011,"lng":140.539441,"zip":"0360163"},{"town":"松崎","koaza":"亀井","lat":40.594039,"lng":140.535279,"zip":"0360164"},{"town":"館山","koaza":"上扇田","lat":40.595401,"lng":140.538043,"zip":"0360162"},{"town":"館山","koaza":"川合","lat":40.599076,"lng":140.534665,"zip":"0360162"},{"town":"苗生松","koaza":"元東田","lat":40.589371,"lng":140.537221,"zip":"0360163"},{"town":"猿賀","koaza":"上岡","lat":40.622494,"lng":140.578818,"zip":"0360242"},{"town":"高木","koaza":"松元","lat":40.621601,"lng":140.582083,"zip":"0360211"},{"town":"新館","koaza":"島村","lat":40.579821,"lng":140.572279,"zip":"0360115"},{"town":"新屋","koaza":"平岡","lat":40.597479,"lng":140.593022,"zip":"0360121"},{"town":"尾崎","koaza":"岡田","lat":40.586889,"lng":140.601669,"zip":"0360122"},{"town":"松館","koaza":"西川原田","lat":40.600507,"lng":140.528106,"zip":"0360165"},{"town":"石畑","koaza":"岡元","lat":40.576489,"lng":140.539338,"zip":"0360152"},{"town":"大光寺","koaza":"西稲村","lat":40.604058,"lng":140.547937,"zip":"0360101"},{"town":"小杉","koaza":"西田","lat":40.578904,"lng":140.538182,"zip":"0360153"},{"town":"唐竹","koaza":"向川原田","lat":40.565432,"lng":140.594456,"zip":"0360132"},{"town":"唐竹","koaza":"川原田","lat":40.56575,"lng":140.594368,"zip":"0360132"},{"town":"唐竹","koaza":"平山","lat":40.565043,"lng":140.593981,"zip":"0360132"},{"town":"新館","koaza":"駒泊","lat":40.56903,"lng":140.596134,"zip":"0360115"},{"town":"小和森","koaza":"上田川","lat":40.588432,"lng":140.571507,"zip":"0360111"},{"town":"金屋","koaza":"下早稲田","lat":40.60462,"lng":140.604224,"zip":"0360202"}]