[{"town":"大字藍内","koaza":"","lat":40.534219,"lng":140.371043,"zip":"0360000"},{"town":"大字青樹町","koaza":"","lat":40.580138,"lng":140.438951,"zip":"0360000"},{"town":"大字青女子","koaza":"","lat":40.686575,"lng":140.447138,"zip":"0360000"},{"town":"大字青山一丁目","koaza":"","lat":40.619194,"lng":140.482472,"zip":"0360000"},{"town":"大字青山二丁目","koaza":"","lat":40.62243,"lng":140.482918,"zip":"0360000"},{"town":"大字青山三丁目","koaza":"","lat":40.622794,"lng":140.479093,"zip":"0360000"},{"town":"大字青山四丁目","koaza":"","lat":40.625637,"lng":140.483436,"zip":"0360000"},{"town":"大字青山五丁目","koaza":"","lat":40.625941,"lng":140.479582,"zip":"0360000"},{"town":"大字茜町一丁目","koaza":"","lat":40.600633,"lng":140.449221,"zip":"0360000"},{"town":"大字茜町二丁目","koaza":"","lat":40.599482,"lng":140.447689,"zip":"0360000"},{"town":"大字茜町三丁目","koaza":"","lat":40.599364,"lng":140.444227,"zip":"0360000"},{"town":"大字悪戸","koaza":"","lat":40.573534,"lng":140.4233,"zip":"0360000"},{"town":"大字旭ケ丘一丁目","koaza":"","lat":40.584406,"lng":140.462264,"zip":"0360000"},{"town":"大字旭ケ丘二丁目","koaza":"","lat":40.580005,"lng":140.458904,"zip":"0360000"},{"town":"大字愛宕","koaza":"","lat":40.627813,"lng":140.40647,"zip":"0360000"},{"town":"大字新町","koaza":"","lat":40.606339,"lng":140.45665,"zip":"0360000"},{"town":"大字石川","koaza":"","lat":40.546298,"lng":140.534742,"zip":"0360000"},{"town":"大字石渡","koaza":"","lat":40.634744,"lng":140.44875,"zip":"0360000"},{"town":"大字石渡一丁目","koaza":"","lat":40.628838,"lng":140.451411,"zip":"0360000"},{"town":"大字石渡二丁目","koaza":"","lat":40.627761,"lng":140.455289,"zip":"0360000"},{"town":"大字石渡三丁目","koaza":"","lat":40.62774,"lng":140.458406,"zip":"0360000"},{"town":"大字石渡四丁目","koaza":"","lat":40.630512,"lng":140.457787,"zip":"0360000"},{"town":"大字石渡五丁目","koaza":"","lat":40.630156,"lng":140.453542,"zip":"0360000"},{"town":"大字泉野一丁目","koaza":"","lat":40.5758,"lng":140.491949,"zip":"0360000"},{"town":"大字泉野二丁目","koaza":"","lat":40.573207,"lng":140.491777,"zip":"0360000"},{"town":"大字泉野三丁目","koaza":"","lat":40.57493,"lng":140.494913,"zip":"0360000"},{"town":"大字泉野四丁目","koaza":"","lat":40.576033,"lng":140.497548,"zip":"0360000"},{"town":"大字泉野五丁目","koaza":"","lat":40.572258,"lng":140.494816,"zip":"0360000"},{"town":"大字一野渡","koaza":"","lat":40.514191,"lng":140.455063,"zip":"0360000"},{"town":"大字一番町","koaza":"","lat":40.60318,"lng":140.470478,"zip":"0360000"},{"town":"大字一町田","koaza":"","lat":40.609382,"lng":140.430263,"zip":"0360000"},{"town":"大字稲田一丁目","koaza":"","lat":40.602757,"lng":140.486699,"zip":"0360000"},{"town":"大字稲田二丁目","koaza":"","lat":40.603696,"lng":140.488878,"zip":"0360000"},{"town":"大字岩賀一丁目","koaza":"","lat":40.643421,"lng":140.480403,"zip":"0360000"},{"town":"大字岩賀二丁目","koaza":"","lat":40.644384,"lng":140.476236,"zip":"0360000"},{"town":"大字岩賀三丁目","koaza":"","lat":40.64299,"lng":140.475377,"zip":"0360000"},{"town":"大字植田町","koaza":"","lat":40.603268,"lng":140.47838,"zip":"0360000"},{"town":"大字駅前一丁目","koaza":"","lat":40.601438,"lng":140.484061,"zip":"0360000"},{"town":"大字駅前二丁目","koaza":"","lat":40.601738,"lng":140.481029,"zip":"0360000"},{"town":"大字駅前三丁目","koaza":"","lat":40.598769,"lng":140.479191,"zip":"0360000"},{"town":"大字駅前町","koaza":"","lat":40.598229,"lng":140.482069,"zip":"0360000"},{"town":"大字狼森","koaza":"","lat":40.55924,"lng":140.471577,"zip":"0360000"},{"town":"大字扇町一丁目","koaza":"","lat":40.587206,"lng":140.505204,"zip":"0360000"},{"town":"大字扇町二丁目","koaza":"","lat":40.58706,"lng":140.501854,"zip":"0360000"},{"town":"大字扇町三丁目","koaza":"","lat":40.586024,"lng":140.4997,"zip":"0360000"},{"town":"大字大浦町","koaza":"","lat":40.610272,"lng":140.469189,"zip":"0360000"},{"town":"大字大川","koaza":"","lat":40.671776,"lng":140.457384,"zip":"0360000"},{"town":"大字大久保","koaza":"","lat":40.631684,"lng":140.494369,"zip":"0360000"},{"town":"大字大沢","koaza":"","lat":40.542855,"lng":140.510783,"zip":"0360000"},{"town":"大字大清水","koaza":"","lat":40.577902,"lng":140.496609,"zip":"0360000"},{"town":"大字大清水一丁目","koaza":"","lat":40.58271,"lng":140.493792,"zip":"0360000"},{"town":"大字大清水二丁目","koaza":"","lat":40.580587,"lng":140.496726,"zip":"0360000"},{"town":"大字大清水三丁目","koaza":"","lat":40.580651,"lng":140.49402,"zip":"0360000"},{"town":"大字大清水四丁目","koaza":"","lat":40.578403,"lng":140.492349,"zip":"0360000"},{"town":"大字大助","koaza":"","lat":40.569697,"lng":140.34416,"zip":"0360000"},{"town":"大字大富町","koaza":"","lat":40.589318,"lng":140.479611,"zip":"0360000"},{"town":"大字大原一丁目","koaza":"","lat":40.578473,"lng":140.454847,"zip":"0360000"},{"town":"大字大原二丁目","koaza":"","lat":40.577151,"lng":140.450167,"zip":"0360000"},{"town":"大字大原三丁目","koaza":"","lat":40.57264,"lng":140.446939,"zip":"0360000"},{"town":"大字大開一丁目","koaza":"","lat":40.578224,"lng":140.448265,"zip":"0360000"},{"town":"大字大開二丁目","koaza":"","lat":40.57534,"lng":140.446009,"zip":"0360000"},{"town":"大字大開三丁目","koaza":"","lat":40.578829,"lng":140.445919,"zip":"0360000"},{"town":"大字大開四丁目","koaza":"","lat":40.580306,"lng":140.444848,"zip":"0360000"},{"town":"大字大町一丁目","koaza":"","lat":40.596367,"lng":140.483661,"zip":"0360000"},{"town":"大字大町二丁目","koaza":"","lat":40.595151,"lng":140.481066,"zip":"0360000"},{"town":"大字大町三丁目","koaza":"","lat":40.596887,"lng":140.479547,"zip":"0360000"},{"town":"大字大森","koaza":"","lat":40.712243,"lng":140.366028,"zip":"0360000"},{"town":"大字大和沢","koaza":"","lat":40.537195,"lng":140.471041,"zip":"0360000"},{"town":"大字徒町","koaza":"","lat":40.603057,"lng":140.473044,"zip":"0360000"},{"town":"大字徒町川端町","koaza":"","lat":40.604732,"lng":140.474047,"zip":"0360000"},{"town":"大字桶屋町","koaza":"","lat":40.598923,"lng":140.469286,"zip":"0360000"},{"town":"大字小友","koaza":"","lat":40.714666,"lng":140.413985,"zip":"0360000"},{"town":"大字鬼沢","koaza":"","lat":40.687613,"lng":140.390823,"zip":"0360000"},{"town":"大字表町","koaza":"","lat":40.597621,"lng":140.485691,"zip":"0360000"},{"town":"大字親方町","koaza":"","lat":40.602454,"lng":140.469709,"zip":"0360000"},{"town":"大字折笠","koaza":"","lat":40.64557,"lng":140.4024,"zip":"0360000"},{"town":"大字貝沢","koaza":"","lat":40.701748,"lng":140.376667,"zip":"0360000"},{"town":"大字学園町","koaza":"","lat":40.577956,"lng":140.482845,"zip":"0360000"},{"town":"大字覚仙町","koaza":"","lat":40.600551,"lng":140.462305,"zip":"0360000"},{"town":"大字鍛冶町","koaza":"","lat":40.601158,"lng":140.470159,"zip":"0360000"},{"town":"大字春日町","koaza":"","lat":40.614763,"lng":140.467144,"zip":"0360000"},{"town":"大字堅田","koaza":"","lat":40.629776,"lng":140.488065,"zip":"0360000"},{"town":"大字堅田一丁目","koaza":"","lat":40.614037,"lng":140.489087,"zip":"0360000"},{"town":"大字堅田二丁目","koaza":"","lat":40.616696,"lng":140.491109,"zip":"0360000"},{"town":"大字堅田三丁目","koaza":"","lat":40.61056,"lng":140.489142,"zip":"0360000"},{"town":"大字堅田四丁目","koaza":"","lat":40.614425,"lng":140.491997,"zip":"0360000"},{"town":"大字堅田五丁目","koaza":"","lat":40.614251,"lng":140.493873,"zip":"0360000"},{"town":"大字門外","koaza":"","lat":40.585227,"lng":140.511871,"zip":"0360000"},{"town":"大字門外一丁目","koaza":"","lat":40.581787,"lng":140.499951,"zip":"0360000"},{"town":"大字門外二丁目","koaza":"","lat":40.580644,"lng":140.505877,"zip":"0360000"},{"town":"大字門外三丁目","koaza":"","lat":40.579746,"lng":140.512725,"zip":"0360000"},{"town":"大字門外四丁目","koaza":"","lat":40.576899,"lng":140.503777,"zip":"0360000"},{"town":"大字兼平","koaza":"","lat":40.603402,"lng":140.40283,"zip":"0360000"},{"town":"大字上瓦ケ町","koaza":"","lat":40.599969,"lng":140.476645,"zip":"0360000"},{"town":"大字上鞘師町","koaza":"","lat":40.604796,"lng":140.471061,"zip":"0360000"},{"town":"大字上白銀町","koaza":"","lat":40.603441,"lng":140.461805,"zip":"0360000"},{"town":"大字紙漉沢","koaza":"","lat":40.583795,"lng":140.380123,"zip":"0360000"},{"town":"大字紙漉町","koaza":"","lat":40.594891,"lng":140.470553,"zip":"0360000"},{"town":"大字亀甲町","koaza":"","lat":40.611755,"lng":140.470569,"zip":"0360000"},{"town":"大字萱町","koaza":"","lat":40.604132,"lng":140.477605,"zip":"0360000"},{"town":"大字川合","koaza":"","lat":40.57937,"lng":140.521555,"zip":"0360000"},{"town":"大字川先一丁目","koaza":"","lat":40.589682,"lng":140.493298,"zip":"0360000"},{"town":"大字川先二丁目","koaza":"","lat":40.587274,"lng":140.494211,"zip":"0360000"},{"town":"大字川先三丁目","koaza":"","lat":40.586438,"lng":140.49143,"zip":"0360000"},{"town":"大字川先四丁目","koaza":"","lat":40.590749,"lng":140.489948,"zip":"0360000"},{"town":"大字河原町","koaza":"","lat":40.608054,"lng":140.450535,"zip":"0360000"},{"town":"大字寒沢町","koaza":"","lat":40.590437,"lng":140.467358,"zip":"0360000"},{"town":"大字神田一丁目","koaza":"","lat":40.618251,"lng":140.488804,"zip":"0360000"},{"town":"大字神田二丁目","koaza":"","lat":40.619378,"lng":140.486244,"zip":"0360000"},{"town":"大字神田三丁目","koaza":"","lat":40.624182,"lng":140.486273,"zip":"0360000"},{"town":"大字神田四丁目","koaza":"","lat":40.623888,"lng":140.4891,"zip":"0360000"},{"town":"大字神田五丁目","koaza":"","lat":40.622941,"lng":140.491738,"zip":"0360000"},{"town":"大字桔梗野一丁目","koaza":"","lat":40.591632,"lng":140.465675,"zip":"0360000"},{"town":"大字桔梗野二丁目","koaza":"","lat":40.592344,"lng":140.462376,"zip":"0360000"},{"town":"大字桔梗野三丁目","koaza":"","lat":40.590031,"lng":140.461689,"zip":"0360000"},{"town":"大字桔梗野四丁目","koaza":"","lat":40.587932,"lng":140.462285,"zip":"0360000"},{"town":"大字桔梗野五丁目","koaza":"","lat":40.587578,"lng":140.465174,"zip":"0360000"},{"town":"大字北川端町","koaza":"","lat":40.600006,"lng":140.471981,"zip":"0360000"},{"town":"大字北瓦ケ町","koaza":"","lat":40.601537,"lng":140.476722,"zip":"0360000"},{"town":"大字北新寺町","koaza":"","lat":40.597567,"lng":140.466415,"zip":"0360000"},{"town":"大字北園一丁目","koaza":"","lat":40.581393,"lng":140.479857,"zip":"0360000"},{"town":"大字北園二丁目","koaza":"","lat":40.582108,"lng":140.482359,"zip":"0360000"},{"town":"大字北柳町","koaza":"","lat":40.604094,"lng":140.475614,"zip":"0360000"},{"town":"大字北横町","koaza":"","lat":40.608186,"lng":140.478113,"zip":"0360000"},{"town":"大字清富町","koaza":"","lat":40.585192,"lng":140.464885,"zip":"0360000"},{"town":"大字清原一丁目","koaza":"","lat":40.581597,"lng":140.486003,"zip":"0360000"},{"town":"大字清原二丁目","koaza":"","lat":40.579111,"lng":140.486101,"zip":"0360000"},{"town":"大字清原三丁目","koaza":"","lat":40.580074,"lng":140.488952,"zip":"0360000"},{"town":"大字清原四丁目","koaza":"","lat":40.57945,"lng":140.490447,"zip":"0360000"},{"town":"大字金属町","koaza":"","lat":40.579989,"lng":140.44185,"zip":"0360000"},{"town":"大字葛原","koaza":"","lat":40.628532,"lng":140.374073,"zip":"0360000"},{"town":"大字国吉","koaza":"","lat":40.596258,"lng":140.35118,"zip":"0360000"},{"town":"大字熊嶋","koaza":"","lat":40.615873,"lng":140.440606,"zip":"0360000"},{"town":"大字蔵主町","koaza":"","lat":40.60916,"lng":140.470215,"zip":"0360000"},{"town":"大字黒滝","koaza":"","lat":40.579362,"lng":140.402117,"zip":"0360000"},{"town":"大字黒土","koaza":"","lat":40.59552,"lng":140.338317,"zip":"0360000"},{"town":"大字楮町","koaza":"","lat":40.593688,"lng":140.482451,"zip":"0360000"},{"town":"大字高野","koaza":"","lat":40.586916,"lng":140.359445,"zip":"0360000"},{"town":"大字小金崎","koaza":"","lat":40.542552,"lng":140.549801,"zip":"0360000"},{"town":"大字小金崎一丁目","koaza":"","lat":40.543399,"lng":140.553305,"zip":"0360000"},{"town":"大字小栗山","koaza":"","lat":40.544327,"lng":140.485381,"zip":"0360000"},{"town":"大字小沢","koaza":"","lat":40.558766,"lng":140.440057,"zip":"0360000"},{"town":"大字五十石町","koaza":"","lat":40.609268,"lng":140.460765,"zip":"0360000"},{"town":"大字五所","koaza":"","lat":40.580701,"lng":140.396098,"zip":"0360000"},{"town":"大字五代","koaza":"","lat":40.610324,"lng":140.414047,"zip":"0360000"},{"town":"大字小人町","koaza":"","lat":40.613067,"lng":140.471884,"zip":"0360000"},{"town":"大字駒越","koaza":"","lat":40.606805,"lng":140.440924,"zip":"0360000"},{"town":"大字駒越町","koaza":"","lat":40.60795,"lng":140.452928,"zip":"0360000"},{"town":"大字紺屋町","koaza":"","lat":40.612824,"lng":140.461795,"zip":"0360000"},{"town":"大字在府町","koaza":"","lat":40.598339,"lng":140.462332,"zip":"0360000"},{"town":"大字境関","koaza":"","lat":40.616821,"lng":140.503921,"zip":"0360000"},{"town":"大字境関一丁目","koaza":"","lat":40.611626,"lng":140.50527,"zip":"0360000"},{"town":"大字坂市","koaza":"","lat":40.572778,"lng":140.365356,"zip":"0360000"},{"town":"大字栄町一丁目","koaza":"","lat":40.614953,"lng":140.464343,"zip":"0360000"},{"town":"大字栄町二丁目","koaza":"","lat":40.616348,"lng":140.46575,"zip":"0360000"},{"town":"大字栄町三丁目","koaza":"","lat":40.617988,"lng":140.470041,"zip":"0360000"},{"town":"大字栄町四丁目","koaza":"","lat":40.618453,"lng":140.467628,"zip":"0360000"},{"town":"大字坂元","koaza":"","lat":40.541081,"lng":140.425912,"zip":"0360000"},{"town":"大字坂本町","koaza":"","lat":40.602973,"lng":140.476212,"zip":"0360000"},{"town":"大字相良町","koaza":"","lat":40.599717,"lng":140.466234,"zip":"0360000"},{"town":"大字桜ケ丘一丁目","koaza":"","lat":40.576433,"lng":140.451352,"zip":"0360000"},{"town":"大字桜ケ丘二丁目","koaza":"","lat":40.572826,"lng":140.448962,"zip":"0360000"},{"town":"大字桜ケ丘三丁目","koaza":"","lat":40.572474,"lng":140.451292,"zip":"0360000"},{"town":"大字桜ケ丘四丁目","koaza":"","lat":40.576198,"lng":140.453251,"zip":"0360000"},{"town":"大字桜ケ丘五丁目","koaza":"","lat":40.575567,"lng":140.455017,"zip":"0360000"},{"town":"大字桜庭","koaza":"","lat":40.591894,"lng":140.331894,"zip":"0360000"},{"town":"大字桜林町","koaza":"","lat":40.593576,"lng":140.468948,"zip":"0360000"},{"town":"大字笹舘","koaza":"","lat":40.737964,"lng":140.389733,"zip":"0360000"},{"town":"大字笹森町","koaza":"","lat":40.608863,"lng":140.472649,"zip":"0360000"},{"town":"大字沢田","koaza":"","lat":40.563371,"lng":140.32646,"zip":"0360000"},{"town":"大字三世寺","koaza":"","lat":40.66052,"lng":140.455014,"zip":"0360000"},{"town":"大字山王町","koaza":"","lat":40.609567,"lng":140.475191,"zip":"0360000"},{"town":"大字小比内","koaza":"","lat":40.584314,"lng":140.502864,"zip":"0360000"},{"town":"大字小比内一丁目","koaza":"","lat":40.592055,"lng":140.495179,"zip":"0360000"},{"town":"大字小比内二丁目","koaza":"","lat":40.591846,"lng":140.498048,"zip":"0360000"},{"town":"大字小比内三丁目","koaza":"","lat":40.587638,"lng":140.498216,"zip":"0360000"},{"town":"大字小比内四丁目","koaza":"","lat":40.588307,"lng":140.495799,"zip":"0360000"},{"town":"大字小比内五丁目","koaza":"","lat":40.584297,"lng":140.496574,"zip":"0360000"},{"town":"大字塩分町","koaza":"","lat":40.602433,"lng":140.463197,"zip":"0360000"},{"town":"大字茂森新町一丁目","koaza":"","lat":40.595754,"lng":140.456478,"zip":"0360000"},{"town":"大字茂森新町二丁目","koaza":"","lat":40.596444,"lng":140.455068,"zip":"0360000"},{"town":"大字茂森新町三丁目","koaza":"","lat":40.595804,"lng":140.450088,"zip":"0360000"},{"town":"大字茂森新町四丁目","koaza":"","lat":40.592518,"lng":140.450808,"zip":"0360000"},{"town":"大字茂森町","koaza":"","lat":40.599742,"lng":140.460253,"zip":"0360000"},{"town":"大字品川町","koaza":"","lat":40.593798,"lng":140.478289,"zip":"0360000"},{"town":"大字清水一丁目","koaza":"","lat":40.58597,"lng":140.455388,"zip":"0360000"},{"town":"大字清水二丁目","koaza":"","lat":40.58307,"lng":140.455115,"zip":"0360000"},{"town":"大字清水三丁目","koaza":"","lat":40.581021,"lng":140.453491,"zip":"0360000"},{"town":"大字清水富田","koaza":"","lat":40.588596,"lng":140.441524,"zip":"0360000"},{"town":"大字清水森","koaza":"","lat":40.566978,"lng":140.501604,"zip":"0360000"},{"town":"大字下鞘師町","koaza":"","lat":40.605493,"lng":140.47096,"zip":"0360000"},{"town":"大字下白銀町","koaza":"","lat":40.6074,"lng":140.465241,"zip":"0360000"},{"town":"大字下湯口","koaza":"","lat":40.579989,"lng":140.417715,"zip":"0360000"},{"town":"大字自由ケ丘一丁目","koaza":"","lat":40.582494,"lng":140.446838,"zip":"0360000"},{"town":"大字自由ケ丘二丁目","koaza":"","lat":40.58419,"lng":140.445227,"zip":"0360000"},{"town":"大字自由ケ丘三丁目","koaza":"","lat":40.584757,"lng":140.441966,"zip":"0360000"},{"town":"大字自由ケ丘四丁目","koaza":"","lat":40.588154,"lng":140.448611,"zip":"0360000"},{"town":"大字自由ケ丘五丁目","koaza":"","lat":40.581742,"lng":140.436982,"zip":"0360000"},{"town":"大字樹木一丁目","koaza":"","lat":40.59188,"lng":140.45811,"zip":"0360000"},{"town":"大字樹木二丁目","koaza":"","lat":40.592449,"lng":140.454261,"zip":"0360000"},{"town":"大字樹木三丁目","koaza":"","lat":40.589451,"lng":140.452761,"zip":"0360000"},{"town":"大字樹木四丁目","koaza":"","lat":40.58852,"lng":140.456369,"zip":"0360000"},{"town":"大字樹木五丁目","koaza":"","lat":40.588608,"lng":140.459583,"zip":"0360000"},{"town":"大字城西一丁目","koaza":"","lat":40.605512,"lng":140.452441,"zip":"0360000"},{"town":"大字城西二丁目","koaza":"","lat":40.606458,"lng":140.449786,"zip":"0360000"},{"town":"大字城西三丁目","koaza":"","lat":40.603737,"lng":140.448241,"zip":"0360000"},{"town":"大字城西四丁目","koaza":"","lat":40.603474,"lng":140.450399,"zip":"0360000"},{"town":"大字城西五丁目","koaza":"","lat":40.603564,"lng":140.454227,"zip":"0360000"},{"town":"大字城東一丁目","koaza":"","lat":40.597573,"lng":140.488109,"zip":"0360000"},{"town":"大字城東二丁目","koaza":"","lat":40.597905,"lng":140.490941,"zip":"0360000"},{"town":"大字城東三丁目","koaza":"","lat":40.595769,"lng":140.48952,"zip":"0360000"},{"town":"大字城東四丁目","koaza":"","lat":40.594512,"lng":140.489956,"zip":"0360000"},{"town":"大字城東五丁目","koaza":"","lat":40.592167,"lng":140.491188,"zip":"0360000"},{"town":"大字城東北一丁目","koaza":"","lat":40.604204,"lng":140.491343,"zip":"0360000"},{"town":"大字城東北二丁目","koaza":"","lat":40.605112,"lng":140.493182,"zip":"0360000"},{"town":"大字城東北三丁目","koaza":"","lat":40.606136,"lng":140.495561,"zip":"0360000"},{"town":"大字城東北四丁目","koaza":"","lat":40.606824,"lng":140.498148,"zip":"0360000"},{"town":"大字城東中央一丁目","koaza":"","lat":40.600134,"lng":140.488206,"zip":"0360000"},{"town":"大字城東中央二丁目","koaza":"","lat":40.600652,"lng":140.490182,"zip":"0360000"},{"town":"大字城東中央三丁目","koaza":"","lat":40.601147,"lng":140.492923,"zip":"0360000"},{"town":"大字城東中央四丁目","koaza":"","lat":40.601577,"lng":140.496145,"zip":"0360000"},{"town":"大字城東中央五丁目","koaza":"","lat":40.601874,"lng":140.498842,"zip":"0360000"},{"town":"大字城南一丁目","koaza":"","lat":40.579469,"lng":140.470567,"zip":"0360000"},{"town":"大字城南二丁目","koaza":"","lat":40.580554,"lng":140.46748,"zip":"0360000"},{"town":"大字城南三丁目","koaza":"","lat":40.578132,"lng":140.468448,"zip":"0360000"},{"town":"大字城南四丁目","koaza":"","lat":40.578457,"lng":140.466031,"zip":"0360000"},{"town":"大字城南五丁目","koaza":"","lat":40.579096,"lng":140.463175,"zip":"0360000"},{"town":"大字新鍛冶町","koaza":"","lat":40.600466,"lng":140.47103,"zip":"0360000"},{"town":"大字新寺町","koaza":"","lat":40.595486,"lng":140.463844,"zip":"0360000"},{"town":"大字新寺町新割町","koaza":"","lat":40.5968,"lng":140.46386,"zip":"0360000"},{"town":"大字新法師","koaza":"","lat":40.613497,"lng":140.370666,"zip":"0360000"},{"town":"大字末広一丁目","koaza":"","lat":40.607058,"lng":140.500543,"zip":"0360000"},{"town":"大字末広二丁目","koaza":"","lat":40.602471,"lng":140.501357,"zip":"0360000"},{"town":"大字末広三丁目","koaza":"","lat":40.602617,"lng":140.503839,"zip":"0360000"},{"town":"大字末広四丁目","koaza":"","lat":40.606313,"lng":140.503283,"zip":"0360000"},{"town":"大字末広五丁目","koaza":"","lat":40.609755,"lng":140.503723,"zip":"0360000"},{"town":"大字昴","koaza":"","lat":40.587884,"lng":140.40816,"zip":"0360000"},{"town":"大字住吉町","koaza":"","lat":40.597758,"lng":140.473682,"zip":"0360000"},{"town":"大字清野袋","koaza":"","lat":40.636904,"lng":140.485082,"zip":"0360000"},{"town":"大字清野袋一丁目","koaza":"","lat":40.630442,"lng":140.477982,"zip":"0360000"},{"town":"大字清野袋二丁目","koaza":"","lat":40.631191,"lng":140.474189,"zip":"0360000"},{"town":"大字清野袋三丁目","koaza":"","lat":40.635134,"lng":140.478251,"zip":"0360000"},{"town":"大字清野袋四丁目","koaza":"","lat":40.636173,"lng":140.473949,"zip":"0360000"},{"town":"大字清野袋五丁目","koaza":"","lat":40.639387,"lng":140.480287,"zip":"0360000"},{"town":"大字相馬","koaza":"","lat":40.552804,"lng":140.363645,"zip":"0360000"},{"town":"大字代官町","koaza":"","lat":40.601489,"lng":140.47873,"zip":"0360000"},{"town":"大字高岡","koaza":"","lat":40.625712,"lng":140.354997,"zip":"0360000"},{"town":"大字高崎一丁目","koaza":"","lat":40.606554,"lng":140.490341,"zip":"0360000"},{"town":"大字高崎二丁目","koaza":"","lat":40.608089,"lng":140.493583,"zip":"0360000"},{"town":"大字鷹匠町","koaza":"","lat":40.605559,"lng":140.458062,"zip":"0360000"},{"town":"大字高杉","koaza":"","lat":40.670898,"lng":140.429903,"zip":"0360000"},{"town":"大字高田","koaza":"","lat":40.595023,"lng":140.509661,"zip":"0360000"},{"town":"大字高田一丁目","koaza":"","lat":40.598621,"lng":140.500602,"zip":"0360000"},{"town":"大字高田二丁目","koaza":"","lat":40.598827,"lng":140.503958,"zip":"0360000"},{"town":"大字高田三丁目","koaza":"","lat":40.599004,"lng":140.506321,"zip":"0360000"},{"town":"大字高田四丁目","koaza":"","lat":40.599219,"lng":140.508384,"zip":"0360000"},{"town":"大字高田五丁目","koaza":"","lat":40.595607,"lng":140.506515,"zip":"0360000"},{"town":"大字高屋","koaza":"","lat":40.619261,"lng":140.427497,"zip":"0360000"},{"town":"大字田代町","koaza":"","lat":40.602064,"lng":140.474297,"zip":"0360000"},{"town":"大字龍ノ口","koaza":"","lat":40.598231,"lng":140.423348,"zip":"0360000"},{"town":"大字館後","koaza":"","lat":40.601061,"lng":140.348409,"zip":"0360000"},{"town":"大字館野一丁目","koaza":"","lat":40.575804,"lng":140.464257,"zip":"0360000"},{"town":"大字館野二丁目","koaza":"","lat":40.576241,"lng":140.46104,"zip":"0360000"},{"town":"大字種市","koaza":"","lat":40.707044,"lng":140.430737,"zip":"0360000"},{"town":"大字田町一丁目","koaza":"","lat":40.611296,"lng":140.480563,"zip":"0360000"},{"town":"大字田町二丁目","koaza":"","lat":40.611866,"lng":140.478504,"zip":"0360000"},{"town":"大字田町三丁目","koaza":"","lat":40.613775,"lng":140.478433,"zip":"0360000"},{"town":"大字田町四丁目","koaza":"","lat":40.613937,"lng":140.480507,"zip":"0360000"},{"town":"大字田町五丁目","koaza":"","lat":40.613549,"lng":140.482528,"zip":"0360000"},{"town":"大字田茂木町","koaza":"","lat":40.610988,"lng":140.476663,"zip":"0360000"},{"town":"大字俵元一丁目","koaza":"","lat":40.606683,"lng":140.48505,"zip":"0360000"},{"town":"大字俵元二丁目","koaza":"","lat":40.608436,"lng":140.487277,"zip":"0360000"},{"town":"大字千年一丁目","koaza":"","lat":40.568213,"lng":140.4777,"zip":"0360000"},{"town":"大字千年二丁目","koaza":"","lat":40.564126,"lng":140.476199,"zip":"0360000"},{"town":"大字千年三丁目","koaza":"","lat":40.564999,"lng":140.479869,"zip":"0360000"},{"town":"大字千年四丁目","koaza":"","lat":40.562474,"lng":140.476799,"zip":"0360000"},{"town":"大字茶畑町","koaza":"","lat":40.60722,"lng":140.481141,"zip":"0360000"},{"town":"大字津賀野","koaza":"","lat":40.642494,"lng":140.488459,"zip":"0360000"},{"town":"大字土堂","koaza":"","lat":40.62386,"lng":140.443653,"zip":"0360000"},{"town":"大字鉄砲町","koaza":"","lat":40.603863,"lng":140.470842,"zip":"0360000"},{"town":"大字田園一丁目","koaza":"","lat":40.607241,"lng":140.50517,"zip":"0360000"},{"town":"大字田園二丁目","koaza":"","lat":40.602731,"lng":140.505841,"zip":"0360000"},{"town":"大字田園三丁目","koaza":"","lat":40.602785,"lng":140.508139,"zip":"0360000"},{"town":"大字田園四丁目","koaza":"","lat":40.606095,"lng":140.507561,"zip":"0360000"},{"town":"大字田園五丁目","koaza":"","lat":40.609108,"lng":140.505944,"zip":"0360000"},{"town":"大字藤内町","koaza":"","lat":40.634918,"lng":140.455283,"zip":"0360000"},{"town":"大字銅屋町","koaza":"","lat":40.596724,"lng":140.469354,"zip":"0360000"},{"town":"大字常盤坂一丁目","koaza":"","lat":40.592933,"lng":140.444727,"zip":"0360000"},{"town":"大字常盤坂二丁目","koaza":"","lat":40.59568,"lng":140.44582,"zip":"0360000"},{"town":"大字常盤坂三丁目","koaza":"","lat":40.595786,"lng":140.441721,"zip":"0360000"},{"town":"大字常盤坂四丁目","koaza":"","lat":40.592024,"lng":140.440596,"zip":"0360000"},{"town":"大字常盤野","koaza":"","lat":40.632251,"lng":140.249074,"zip":"0360000"},{"town":"大字徳田町","koaza":"","lat":40.60416,"lng":140.474707,"zip":"0360000"},{"town":"大字十腰内","koaza":"","lat":40.72778,"lng":140.308954,"zip":"0360000"},{"town":"大字独狐","koaza":"","lat":40.645559,"lng":140.44588,"zip":"0360000"},{"town":"大字十面沢","koaza":"","lat":40.726123,"lng":140.352139,"zip":"0360000"},{"town":"大字土手町","koaza":"","lat":40.599234,"lng":140.474855,"zip":"0360000"},{"town":"大字外崎一丁目","koaza":"","lat":40.598242,"lng":140.493506,"zip":"0360000"},{"town":"大字外崎二丁目","koaza":"","lat":40.598539,"lng":140.496427,"zip":"0360000"},{"town":"大字外崎三丁目","koaza":"","lat":40.59817,"lng":140.49851,"zip":"0360000"},{"town":"大字外崎四丁目","koaza":"","lat":40.596452,"lng":140.495151,"zip":"0360000"},{"town":"大字外崎五丁目","koaza":"","lat":40.594964,"lng":140.495368,"zip":"0360000"},{"town":"大字外瀬一丁目","koaza":"","lat":40.625365,"lng":140.46557,"zip":"0360000"},{"town":"大字外瀬二丁目","koaza":"","lat":40.627299,"lng":140.465839,"zip":"0360000"},{"town":"大字富栄","koaza":"","lat":40.643848,"lng":140.425699,"zip":"0360000"},{"town":"大字富田一丁目","koaza":"","lat":40.596294,"lng":140.474609,"zip":"0360000"},{"town":"大字富田二丁目","koaza":"","lat":40.594225,"lng":140.473376,"zip":"0360000"},{"town":"大字富田三丁目","koaza":"","lat":40.592077,"lng":140.474421,"zip":"0360000"},{"town":"大字富田町","koaza":"","lat":40.587352,"lng":140.478618,"zip":"0360000"},{"town":"大字富野町","koaza":"","lat":40.588683,"lng":140.475923,"zip":"0360000"},{"town":"大字豊田一丁目","koaza":"","lat":40.594255,"lng":140.497284,"zip":"0360000"},{"town":"大字豊田二丁目","koaza":"","lat":40.591832,"lng":140.502821,"zip":"0360000"},{"town":"大字豊田三丁目","koaza":"","lat":40.595259,"lng":140.502101,"zip":"0360000"},{"town":"大字豊原一丁目","koaza":"","lat":40.583402,"lng":140.477416,"zip":"0360000"},{"town":"大字豊原二丁目","koaza":"","lat":40.580989,"lng":140.477145,"zip":"0360000"},{"town":"大字取上一丁目","koaza":"","lat":40.589068,"lng":140.486344,"zip":"0360000"},{"town":"大字取上二丁目","koaza":"","lat":40.586517,"lng":140.483877,"zip":"0360000"},{"town":"大字取上三丁目","koaza":"","lat":40.584623,"lng":140.484782,"zip":"0360000"},{"town":"大字取上四丁目","koaza":"","lat":40.586269,"lng":140.488306,"zip":"0360000"},{"town":"大字取上五丁目","koaza":"","lat":40.583665,"lng":140.488313,"zip":"0360000"},{"town":"大字鳥井野","koaza":"","lat":40.597431,"lng":140.414605,"zip":"0360000"},{"town":"大字撫牛子","koaza":"","lat":40.625545,"lng":140.501047,"zip":"0360000"},{"town":"大字撫牛子一丁目","koaza":"","lat":40.620537,"lng":140.496037,"zip":"0360000"},{"town":"大字撫牛子二丁目","koaza":"","lat":40.622534,"lng":140.493903,"zip":"0360000"},{"town":"大字撫牛子三丁目","koaza":"","lat":40.623875,"lng":140.497191,"zip":"0360000"},{"town":"大字撫牛子四丁目","koaza":"","lat":40.628537,"lng":140.498294,"zip":"0360000"},{"town":"大字撫牛子五丁目","koaza":"","lat":40.620939,"lng":140.499672,"zip":"0360000"},{"town":"大字中瓦ケ町","koaza":"","lat":40.600905,"lng":140.475807,"zip":"0360000"},{"town":"大字長坂町","koaza":"","lat":40.609155,"lng":140.471572,"zip":"0360000"},{"town":"大字中崎","koaza":"","lat":40.649696,"lng":140.460776,"zip":"0360000"},{"town":"大字中野","koaza":"","lat":40.592117,"lng":140.321307,"zip":"0360000"},{"town":"大字中野一丁目","koaza":"","lat":40.583815,"lng":140.472537,"zip":"0360000"},{"town":"大字中野二丁目","koaza":"","lat":40.581417,"lng":140.473359,"zip":"0360000"},{"town":"大字中野三丁目","koaza":"","lat":40.578612,"lng":140.474197,"zip":"0360000"},{"town":"大字中野四丁目","koaza":"","lat":40.575532,"lng":140.476833,"zip":"0360000"},{"town":"大字中野五丁目","koaza":"","lat":40.574166,"lng":140.474732,"zip":"0360000"},{"town":"大字中畑","koaza":"","lat":40.593055,"lng":140.313152,"zip":"0360000"},{"town":"大字中別所","koaza":"","lat":40.658164,"lng":140.391312,"zip":"0360000"},{"town":"大字楢木","koaza":"","lat":40.68551,"lng":140.42632,"zip":"0360000"},{"town":"大字南塘町","koaza":"","lat":40.597944,"lng":140.467424,"zip":"0360000"},{"town":"大字新岡","koaza":"","lat":40.638266,"lng":140.382642,"zip":"0360000"},{"town":"大字新里","koaza":"","lat":40.594916,"lng":140.519261,"zip":"0360000"},{"town":"大字西ケ丘町","koaza":"","lat":40.586981,"lng":140.468239,"zip":"0360000"},{"town":"大字西川岸町","koaza":"","lat":40.601485,"lng":140.474046,"zip":"0360000"},{"town":"大字西茂森一丁目","koaza":"","lat":40.599632,"lng":140.454884,"zip":"0360000"},{"town":"大字西茂森二丁目","koaza":"","lat":40.597472,"lng":140.454381,"zip":"0360000"},{"town":"大字西城北一丁目","koaza":"","lat":40.615235,"lng":140.470364,"zip":"0360000"},{"town":"大字西城北二丁目","koaza":"","lat":40.618214,"lng":140.471695,"zip":"0360000"},{"town":"大字西大工町","koaza":"","lat":40.608721,"lng":140.455348,"zip":"0360000"},{"town":"大字乳井","koaza":"","lat":40.54896,"lng":140.569235,"zip":"0360000"},{"town":"大字如来瀬","koaza":"","lat":40.59559,"lng":140.385598,"zip":"0360000"},{"town":"大字糠坪","koaza":"","lat":40.679446,"lng":140.435647,"zip":"0360000"},{"town":"大字祢宜町","koaza":"","lat":40.612095,"lng":140.476214,"zip":"0360000"},{"town":"大字野田一丁目","koaza":"","lat":40.608171,"lng":140.481163,"zip":"0360000"},{"town":"大字野田二丁目","koaza":"","lat":40.608242,"lng":140.479406,"zip":"0360000"},{"town":"大字馬喰町","koaza":"","lat":40.613545,"lng":140.468534,"zip":"0360000"},{"town":"大字八幡町一丁目","koaza":"","lat":40.616369,"lng":140.47904,"zip":"0360000"},{"town":"大字八幡町二丁目","koaza":"","lat":40.616676,"lng":140.48132,"zip":"0360000"},{"town":"大字八幡町三丁目","koaza":"","lat":40.616026,"lng":140.483867,"zip":"0360000"},{"town":"大字鼻和","koaza":"","lat":40.63265,"lng":140.417988,"zip":"0360000"},{"town":"大字浜の町北一丁目","koaza":"","lat":40.624466,"lng":140.46187,"zip":"0360000"},{"town":"大字浜の町北二丁目","koaza":"","lat":40.627626,"lng":140.462334,"zip":"0360000"},{"town":"大字浜の町西一丁目","koaza":"","lat":40.617321,"lng":140.458409,"zip":"0360000"},{"town":"大字浜の町西二丁目","koaza":"","lat":40.619778,"lng":140.458126,"zip":"0360000"},{"town":"大字浜の町西三丁目","koaza":"","lat":40.623124,"lng":140.456286,"zip":"0360000"},{"town":"大字浜の町東一丁目","koaza":"","lat":40.618002,"lng":140.461739,"zip":"0360000"},{"town":"大字浜の町東二丁目","koaza":"","lat":40.621579,"lng":140.460052,"zip":"0360000"},{"town":"大字浜の町東三丁目","koaza":"","lat":40.624163,"lng":140.458272,"zip":"0360000"},{"town":"大字浜の町東四丁目","koaza":"","lat":40.619486,"lng":140.46382,"zip":"0360000"},{"town":"大字浜の町東五丁目","koaza":"","lat":40.622248,"lng":140.463714,"zip":"0360000"},{"town":"大字原ケ平","koaza":"","lat":40.565815,"lng":140.463728,"zip":"0360000"},{"town":"大字原ケ平一丁目","koaza":"","lat":40.568758,"lng":140.475119,"zip":"0360000"},{"town":"大字原ケ平二丁目","koaza":"","lat":40.566246,"lng":140.47468,"zip":"0360000"},{"town":"大字原ケ平三丁目","koaza":"","lat":40.564392,"lng":140.474043,"zip":"0360000"},{"town":"大字原ケ平四丁目","koaza":"","lat":40.567419,"lng":140.471355,"zip":"0360000"},{"town":"大字原ケ平五丁目","koaza":"","lat":40.565205,"lng":140.471337,"zip":"0360000"},{"town":"大字番館","koaza":"","lat":40.574926,"lng":140.313155,"zip":"0360000"},{"town":"大字東城北一丁目","koaza":"","lat":40.61414,"lng":140.473376,"zip":"0360000"},{"town":"大字東城北二丁目","koaza":"","lat":40.616183,"lng":140.473669,"zip":"0360000"},{"town":"大字東城北三丁目","koaza":"","lat":40.618223,"lng":140.473116,"zip":"0360000"},{"town":"大字東長町","koaza":"","lat":40.606724,"lng":140.472968,"zip":"0360000"},{"town":"大字東和徳町","koaza":"","lat":40.606533,"lng":140.483192,"zip":"0360000"},{"town":"大字樋の口一丁目","koaza":"","lat":40.605516,"lng":140.445908,"zip":"0360000"},{"town":"大字樋の口二丁目","koaza":"","lat":40.603433,"lng":140.445586,"zip":"0360000"},{"town":"大字樋の口町","koaza":"","lat":40.6015,"lng":140.441883,"zip":"0360000"},{"town":"大字百沢","koaza":"","lat":40.645339,"lng":140.361421,"zip":"0360000"},{"town":"大字百石町","koaza":"","lat":40.604572,"lng":140.472537,"zip":"0360000"},{"town":"大字百石町小路","koaza":"","lat":40.605734,"lng":140.472342,"zip":"0360000"},{"town":"大字平岡町","koaza":"","lat":40.610076,"lng":140.454252,"zip":"0360000"},{"town":"大字平山","koaza":"","lat":40.581495,"lng":140.33458,"zip":"0360000"},{"town":"大字広野一丁目","koaza":"","lat":40.569122,"lng":140.486773,"zip":"0360000"},{"town":"大字広野二丁目","koaza":"","lat":40.571312,"lng":140.488382,"zip":"0360000"},{"town":"大字福田","koaza":"","lat":40.609388,"lng":140.510008,"zip":"0360000"},{"town":"大字福田一丁目","koaza":"","lat":40.60982,"lng":140.507911,"zip":"0360000"},{"town":"大字福田二丁目","koaza":"","lat":40.607433,"lng":140.507826,"zip":"0360000"},{"town":"大字福田三丁目","koaza":"","lat":40.607491,"lng":140.509951,"zip":"0360000"},{"town":"大字福村","koaza":"","lat":40.606561,"lng":140.520445,"zip":"0360000"},{"town":"大字福村一丁目","koaza":"","lat":40.607078,"lng":140.512555,"zip":"0360000"},{"town":"大字袋町","koaza":"","lat":40.609851,"lng":140.459226,"zip":"0360000"},{"town":"大字藤沢","koaza":"","lat":40.568942,"lng":140.366601,"zip":"0360000"},{"town":"大字藤代","koaza":"","lat":40.618024,"lng":140.450533,"zip":"0360000"},{"town":"大字藤代一丁目","koaza":"","lat":40.613434,"lng":140.450557,"zip":"0360000"},{"town":"大字藤代二丁目","koaza":"","lat":40.613483,"lng":140.452562,"zip":"0360000"},{"town":"大字藤代三丁目","koaza":"","lat":40.618186,"lng":140.454159,"zip":"0360000"},{"town":"大字藤代四丁目","koaza":"","lat":40.618201,"lng":140.455874,"zip":"0360000"},{"town":"大字藤代五丁目","koaza":"","lat":40.620986,"lng":140.454861,"zip":"0360000"},{"town":"大字藤野一丁目","koaza":"","lat":40.62199,"lng":140.46675,"zip":"0360000"},{"town":"大字藤野二丁目","koaza":"","lat":40.625619,"lng":140.469142,"zip":"0360000"},{"town":"大字富士見台一丁目","koaza":"","lat":40.572879,"lng":140.473379,"zip":"0360000"},{"town":"大字富士見台二丁目","koaza":"","lat":40.568974,"lng":140.472729,"zip":"0360000"},{"town":"大字富士見町","koaza":"","lat":40.591296,"lng":140.470437,"zip":"0360000"},{"town":"大字船水","koaza":"","lat":40.636959,"lng":140.465935,"zip":"0360000"},{"town":"大字船水一丁目","koaza":"","lat":40.629697,"lng":140.466184,"zip":"0360000"},{"town":"大字船水二丁目","koaza":"","lat":40.630077,"lng":140.462698,"zip":"0360000"},{"town":"大字船水三丁目","koaza":"","lat":40.633167,"lng":140.461616,"zip":"0360000"},{"town":"大字文京町","koaza":"","lat":40.587623,"lng":140.472039,"zip":"0360000"},{"town":"大字細越","koaza":"","lat":40.637492,"lng":140.405593,"zip":"0360000"},{"town":"大字堀越","koaza":"","lat":40.569374,"lng":140.525362,"zip":"0360000"},{"town":"大字本町","koaza":"","lat":40.600759,"lng":140.466413,"zip":"0360000"},{"town":"大字前坂","koaza":"","lat":40.658234,"lng":140.440897,"zip":"0360000"},{"town":"大字蒔苗","koaza":"","lat":40.632947,"lng":140.436537,"zip":"0360000"},{"town":"大字町田","koaza":"","lat":40.645382,"lng":140.47048,"zip":"0360000"},{"town":"大字町田一丁目","koaza":"","lat":40.635781,"lng":140.459136,"zip":"0360000"},{"town":"大字町田二丁目","koaza":"","lat":40.636526,"lng":140.456713,"zip":"0360000"},{"town":"大字町田三丁目","koaza":"","lat":40.639345,"lng":140.459378,"zip":"0360000"},{"town":"大字松ケ枝一丁目","koaza":"","lat":40.603542,"lng":140.484969,"zip":"0360000"},{"town":"大字松ケ枝二丁目","koaza":"","lat":40.604599,"lng":140.48455,"zip":"0360000"},{"town":"大字松ケ枝三丁目","koaza":"","lat":40.604938,"lng":140.487573,"zip":"0360000"},{"town":"大字松ケ枝四丁目","koaza":"","lat":40.606088,"lng":140.486491,"zip":"0360000"},{"town":"大字松ケ枝五丁目","koaza":"","lat":40.607159,"lng":140.488643,"zip":"0360000"},{"town":"大字松木平","koaza":"","lat":40.544721,"lng":140.494698,"zip":"0360000"},{"town":"大字真土","koaza":"","lat":40.603368,"lng":140.433018,"zip":"0360000"},{"town":"大字松原西一丁目","koaza":"","lat":40.571964,"lng":140.477903,"zip":"0360000"},{"town":"大字松原西二丁目","koaza":"","lat":40.569537,"lng":140.479099,"zip":"0360000"},{"town":"大字松原西三丁目","koaza":"","lat":40.567368,"lng":140.481914,"zip":"0360000"},{"town":"大字松原東一丁目","koaza":"","lat":40.577143,"lng":140.478828,"zip":"0360000"},{"town":"大字松原東二丁目","koaza":"","lat":40.574023,"lng":140.481143,"zip":"0360000"},{"town":"大字松原東三丁目","koaza":"","lat":40.571072,"lng":140.481158,"zip":"0360000"},{"town":"大字松原東四丁目","koaza":"","lat":40.569938,"lng":140.48288,"zip":"0360000"},{"town":"大字松原東五丁目","koaza":"","lat":40.573066,"lng":140.485269,"zip":"0360000"},{"town":"大字松森町","koaza":"","lat":40.59244,"lng":140.481003,"zip":"0360000"},{"town":"大字馬屋町","koaza":"","lat":40.605741,"lng":140.460646,"zip":"0360000"},{"town":"大字水木在家","koaza":"","lat":40.558753,"lng":140.389372,"zip":"0360000"},{"town":"大字三岳町","koaza":"","lat":40.578749,"lng":140.477759,"zip":"0360000"},{"town":"大字緑ケ丘一丁目","koaza":"","lat":40.585791,"lng":140.459068,"zip":"0360000"},{"town":"大字緑ケ丘二丁目","koaza":"","lat":40.583221,"lng":140.458483,"zip":"0360000"},{"town":"大字緑ケ丘三丁目","koaza":"","lat":40.580586,"lng":140.456563,"zip":"0360000"},{"town":"大字緑町","koaza":"","lat":40.602221,"lng":140.476895,"zip":"0360000"},{"town":"大字南大町一丁目","koaza":"","lat":40.592904,"lng":140.486006,"zip":"0360000"},{"town":"大字南大町二丁目","koaza":"","lat":40.591842,"lng":140.48407,"zip":"0360000"},{"town":"大字南川端町","koaza":"","lat":40.597595,"lng":140.470841,"zip":"0360000"},{"town":"大字南瓦ケ町","koaza":"","lat":40.600453,"lng":140.475143,"zip":"0360000"},{"town":"大字南城西一丁目","koaza":"","lat":40.602334,"lng":140.454188,"zip":"0360000"},{"town":"大字南城西二丁目","koaza":"","lat":40.601119,"lng":140.454736,"zip":"0360000"},{"town":"大字南富田町","koaza":"","lat":40.586238,"lng":140.479241,"zip":"0360000"},{"town":"大字南袋町","koaza":"","lat":40.602403,"lng":140.458565,"zip":"0360000"},{"town":"大字南柳町","koaza":"","lat":40.603209,"lng":140.475087,"zip":"0360000"},{"town":"大字南横町","koaza":"","lat":40.604238,"lng":140.476494,"zip":"0360000"},{"town":"大字稔町","koaza":"","lat":40.583038,"lng":140.467613,"zip":"0360000"},{"town":"大字宮川一丁目","koaza":"","lat":40.611134,"lng":140.483502,"zip":"0360000"},{"town":"大字宮川二丁目","koaza":"","lat":40.61316,"lng":140.484982,"zip":"0360000"},{"town":"大字宮川三丁目","koaza":"","lat":40.615012,"lng":140.486358,"zip":"0360000"},{"town":"大字宮地","koaza":"","lat":40.617355,"lng":140.393844,"zip":"0360000"},{"town":"大字宮園一丁目","koaza":"","lat":40.613819,"lng":140.476296,"zip":"0360000"},{"town":"大字宮園二丁目","koaza":"","lat":40.61592,"lng":140.476572,"zip":"0360000"},{"town":"大字宮園三丁目","koaza":"","lat":40.617937,"lng":140.475876,"zip":"0360000"},{"town":"大字宮園四丁目","koaza":"","lat":40.619495,"lng":140.478675,"zip":"0360000"},{"town":"大字宮園五丁目","koaza":"","lat":40.619922,"lng":140.475078,"zip":"0360000"},{"town":"大字宮舘","koaza":"","lat":40.650804,"lng":140.421103,"zip":"0360000"},{"town":"大字御幸町","koaza":"","lat":40.592731,"lng":140.477179,"zip":"0360000"},{"town":"大字三和","koaza":"","lat":40.727923,"lng":140.397311,"zip":"0360000"},{"town":"大字向外瀬","koaza":"","lat":40.630184,"lng":140.482103,"zip":"0360000"},{"town":"大字向外瀬一丁目","koaza":"","lat":40.620716,"lng":140.47184,"zip":"0360000"},{"town":"大字向外瀬二丁目","koaza":"","lat":40.622791,"lng":140.474285,"zip":"0360000"},{"town":"大字向外瀬三丁目","koaza":"","lat":40.622932,"lng":140.476716,"zip":"0360000"},{"town":"大字向外瀬四丁目","koaza":"","lat":40.625555,"lng":140.474933,"zip":"0360000"},{"town":"大字向外瀬五丁目","koaza":"","lat":40.626143,"lng":140.476737,"zip":"0360000"},{"town":"大字元大工町","koaza":"","lat":40.601844,"lng":140.466716,"zip":"0360000"},{"town":"大字元寺町","koaza":"","lat":40.605126,"lng":140.469772,"zip":"0360000"},{"town":"大字元寺町小路","koaza":"","lat":40.606265,"lng":140.471319,"zip":"0360000"},{"town":"大字元長町","koaza":"","lat":40.602134,"lng":140.467992,"zip":"0360000"},{"town":"大字元薬師堂","koaza":"","lat":40.631968,"lng":140.444519,"zip":"0360000"},{"town":"大字百田","koaza":"","lat":40.642428,"lng":140.494339,"zip":"0360000"},{"town":"大字森町","koaza":"","lat":40.601507,"lng":140.462639,"zip":"0360000"},{"town":"大字薬師堂","koaza":"","lat":40.552965,"lng":140.582338,"zip":"0360000"},{"town":"大字八代町","koaza":"","lat":40.632606,"lng":140.455498,"zip":"0360000"},{"town":"大字安原一丁目","koaza":"","lat":40.576862,"lng":140.488594,"zip":"0360000"},{"town":"大字安原二丁目","koaza":"","lat":40.57657,"lng":140.485897,"zip":"0360000"},{"town":"大字安原三丁目","koaza":"","lat":40.574609,"lng":140.48772,"zip":"0360000"},{"town":"大字萢中","koaza":"","lat":40.624157,"lng":140.471126,"zip":"0360000"},{"town":"大字山崎一丁目","koaza":"","lat":40.575144,"lng":140.47203,"zip":"0360000"},{"town":"大字山崎二丁目","koaza":"","lat":40.575986,"lng":140.468465,"zip":"0360000"},{"town":"大字山崎三丁目","koaza":"","lat":40.57383,"lng":140.465274,"zip":"0360000"},{"town":"大字山崎四丁目","koaza":"","lat":40.574136,"lng":140.468668,"zip":"0360000"},{"town":"大字山崎五丁目","koaza":"","lat":40.572661,"lng":140.46949,"zip":"0360000"},{"town":"大字山下町","koaza":"","lat":40.602482,"lng":140.475116,"zip":"0360000"},{"town":"大字山道町","koaza":"","lat":40.599207,"lng":140.473603,"zip":"0360000"},{"town":"大字弥生","koaza":"","lat":40.659689,"lng":140.373225,"zip":"0360000"},{"town":"大字八幡","koaza":"","lat":40.620786,"lng":140.413192,"zip":"0360000"},{"town":"大字湯口","koaza":"","lat":40.581624,"lng":140.410668,"zip":"0360000"},{"town":"大字横町","koaza":"","lat":40.624595,"lng":140.434885,"zip":"0360000"},{"town":"大字吉川","koaza":"","lat":40.585494,"lng":140.345052,"zip":"0360000"},{"town":"大字賀田","koaza":"","lat":40.617318,"lng":140.422222,"zip":"0360000"},{"town":"大字賀田一丁目","koaza":"","lat":40.616712,"lng":140.418729,"zip":"0360000"},{"town":"大字賀田二丁目","koaza":"","lat":40.614647,"lng":140.419393,"zip":"0360000"},{"town":"大字吉野町","koaza":"","lat":40.597532,"lng":140.472286,"zip":"0360000"},{"town":"大字米ケ袋","koaza":"","lat":40.579841,"lng":140.325636,"zip":"0360000"},{"town":"大字和泉一丁目","koaza":"","lat":40.610136,"lng":140.49231,"zip":"0360000"},{"town":"大字和泉二丁目","koaza":"","lat":40.611674,"lng":140.495486,"zip":"0360000"},{"town":"大字若党町","koaza":"","lat":40.612904,"lng":140.467032,"zip":"0360000"},{"town":"大字若葉一丁目","koaza":"","lat":40.585948,"lng":140.45169,"zip":"0360000"},{"town":"大字若葉二丁目","koaza":"","lat":40.582554,"lng":140.450582,"zip":"0360000"},{"town":"大字早稲田一丁目","koaza":"","lat":40.60526,"lng":140.511598,"zip":"0360000"},{"town":"大字早稲田二丁目","koaza":"","lat":40.60281,"lng":140.511549,"zip":"0360000"},{"town":"大字早稲田三丁目","koaza":"","lat":40.599421,"lng":140.511495,"zip":"0360000"},{"town":"大字早稲田四丁目","koaza":"","lat":40.602392,"lng":140.515421,"zip":"0360000"},{"town":"大字和田町","koaza":"","lat":40.612374,"lng":140.456613,"zip":"0360000"},{"town":"大字和徳町","koaza":"","lat":40.608579,"lng":140.47664,"zip":"0360000"},{"town":"大字清水森","koaza":"清水野","lat":40.566589,"lng":140.498425,"zip":"0360000"},{"town":"大字松木平","koaza":"松元","lat":40.553748,"lng":140.496942,"zip":"0360000"},{"town":"大字小栗山","koaza":"長田","lat":40.560368,"lng":140.494772,"zip":"0360000"},{"town":"大字松木平","koaza":"松山下","lat":40.557235,"lng":140.498439,"zip":"0360000"},{"town":"大字松木平","koaza":"富永","lat":40.55844,"lng":140.500276,"zip":"0360000"},{"town":"大字清水森","koaza":"沢田","lat":40.560387,"lng":140.500383,"zip":"0360000"},{"town":"大字門外","koaza":"川面","lat":40.576,"lng":140.499587,"zip":"0360000"},{"town":"大字清水森","koaza":"村元","lat":40.572317,"lng":140.50292,"zip":"0360000"},{"town":"大字清水森","koaza":"沼田","lat":40.568166,"lng":140.50407,"zip":"0360000"},{"town":"大字小比内","koaza":"狐森","lat":40.584231,"lng":140.503376,"zip":"0360000"},{"town":"大字清水森","koaza":"堀川田","lat":40.566499,"lng":140.503841,"zip":"0360000"},{"town":"大字大沢","koaza":"西田","lat":40.554787,"lng":140.503011,"zip":"0360000"},{"town":"大字大沢","koaza":"西前田","lat":40.557293,"lng":140.511117,"zip":"0360000"},{"town":"大字小比内","koaza":"福田萢","lat":40.594068,"lng":140.505979,"zip":"0360000"},{"town":"大字清水森","koaza":"前田","lat":40.569826,"lng":140.510094,"zip":"0360000"},{"town":"大字門外","koaza":"下松元","lat":40.587573,"lng":140.507719,"zip":"0360000"},{"town":"大字松木平","koaza":"鎧田","lat":40.562783,"lng":140.507799,"zip":"0360000"},{"town":"大字大沢","koaza":"曲り谷","lat":40.55899,"lng":140.50755,"zip":"0360000"},{"town":"大字大沢","koaza":"寺ケ沢","lat":40.551203,"lng":140.508783,"zip":"0360000"},{"town":"大字新里","koaza":"西里見","lat":40.592326,"lng":140.509507,"zip":"0360000"},{"town":"大字門外","koaza":"富岡","lat":40.585307,"lng":140.507671,"zip":"0360000"},{"town":"大字松木平","koaza":"宮元","lat":40.567603,"lng":140.516362,"zip":"0360000"},{"town":"大字清水森","koaza":"野田","lat":40.57276,"lng":140.509069,"zip":"0360000"},{"town":"大字高田","koaza":"苺原","lat":40.594911,"lng":140.509331,"zip":"0360000"},{"town":"大字堀越","koaza":"宮本","lat":40.574758,"lng":140.51203,"zip":"0360000"},{"town":"大字大沢","koaza":"蟹甲","lat":40.560651,"lng":140.511109,"zip":"0360000"},{"town":"大字松木平","koaza":"元木","lat":40.565913,"lng":140.511294,"zip":"0360000"},{"town":"大字新里","koaza":"西平岡","lat":40.595819,"lng":140.511998,"zip":"0360000"},{"town":"大字門外","koaza":"村井","lat":40.586531,"lng":140.514086,"zip":"0360000"},{"town":"大字福田","koaza":"巻屋","lat":40.595991,"lng":140.510251,"zip":"0360000"},{"town":"大字松木平","koaza":"西ノ神","lat":40.564675,"lng":140.513204,"zip":"0360000"},{"town":"大字新里","koaza":"中里見","lat":40.59227,"lng":140.512853,"zip":"0360000"},{"town":"大字堀越","koaza":"川合","lat":40.576147,"lng":140.519104,"zip":"0360000"},{"town":"大字大沢","koaza":"東前田","lat":40.557033,"lng":140.512947,"zip":"0360000"},{"town":"大字大沢","koaza":"西下田面","lat":40.561194,"lng":140.514925,"zip":"0360000"},{"town":"大字大沢","koaza":"下村元","lat":40.55477,"lng":140.514314,"zip":"0360000"},{"town":"大字大沢","koaza":"稲元川原","lat":40.556247,"lng":140.516067,"zip":"0360000"},{"town":"大字門外","koaza":"栄田","lat":40.583223,"lng":140.51594,"zip":"0360000"},{"town":"大字新里","koaza":"中平岡","lat":40.597934,"lng":140.515844,"zip":"0360000"},{"town":"大字堀越","koaza":"鎧田","lat":40.570715,"lng":140.516664,"zip":"0360000"},{"town":"大字大沢","koaza":"東下田面","lat":40.559197,"lng":140.516879,"zip":"0360000"},{"town":"大字新里","koaza":"東里見","lat":40.590145,"lng":140.518859,"zip":"0360000"},{"town":"大字川合","koaza":"浅田","lat":40.582772,"lng":140.519654,"zip":"0360000"},{"town":"大字堀越","koaza":"柳元","lat":40.566345,"lng":140.521557,"zip":"0360000"},{"town":"大字大沢","koaza":"梨子平","lat":40.547874,"lng":140.514044,"zip":"0360000"},{"town":"大字大沢","koaza":"稲元","lat":40.55749,"lng":140.516936,"zip":"0360000"},{"town":"大字新里","koaza":"東平岡","lat":40.59485,"lng":140.518166,"zip":"0360000"},{"town":"大字大沢","koaza":"手代森","lat":40.551649,"lng":140.520483,"zip":"0360000"},{"town":"大字大沢","koaza":"荒田","lat":40.556593,"lng":140.52038,"zip":"0360000"},{"town":"大字大沢","koaza":"苦り沢","lat":40.556297,"lng":140.522478,"zip":"0360000"},{"town":"大字新里","koaza":"上樋田","lat":40.588907,"lng":140.522619,"zip":"0360000"},{"town":"大字新里","koaza":"中樋田","lat":40.595015,"lng":140.523021,"zip":"0360000"},{"town":"大字川合","koaza":"下川原","lat":40.581266,"lng":140.523087,"zip":"0360000"},{"town":"大字石川","koaza":"野崎","lat":40.554951,"lng":140.528638,"zip":"0360000"},{"town":"大字川合","koaza":"岡本","lat":40.573314,"lng":140.525974,"zip":"0360000"},{"town":"大字石川","koaza":"長者森","lat":40.553434,"lng":140.52637,"zip":"0360000"},{"town":"大字堀越","koaza":"柳田","lat":40.570431,"lng":140.52437,"zip":"0360000"},{"town":"大字石川","koaza":"外坪","lat":40.564039,"lng":140.527174,"zip":"0360000"},{"town":"大字石川","koaza":"中坪","lat":40.558519,"lng":140.532395,"zip":"0360000"},{"town":"大字石川","koaza":"小山田","lat":40.55362,"lng":140.530789,"zip":"0360000"},{"town":"大字石川","koaza":"中川原","lat":40.558927,"lng":140.534182,"zip":"0360000"},{"town":"大字石川","koaza":"西舘下","lat":40.551642,"lng":140.536505,"zip":"0360000"},{"town":"大字石川","koaza":"川原田","lat":40.559326,"lng":140.535604,"zip":"0360000"},{"town":"大字石川","koaza":"岸田","lat":40.557396,"lng":140.530764,"zip":"0360000"},{"town":"大字石川","koaza":"家岸","lat":40.552104,"lng":140.539487,"zip":"0360000"},{"town":"大字石川","koaza":"寺山","lat":40.548703,"lng":140.535945,"zip":"0360000"},{"town":"大字石川","koaza":"大仏下","lat":40.550365,"lng":140.542844,"zip":"0360000"},{"town":"大字石川","koaza":"村元","lat":40.554486,"lng":140.542652,"zip":"0360000"},{"town":"大字石川","koaza":"大仏","lat":40.548417,"lng":140.541788,"zip":"0360000"},{"town":"大字石川","koaza":"春仕内","lat":40.553882,"lng":140.546256,"zip":"0360000"},{"town":"大字石川","koaza":"石川","lat":40.55322,"lng":140.541606,"zip":"0360000"},{"town":"大字石川","koaza":"留岡","lat":40.549761,"lng":140.5482,"zip":"0360000"},{"town":"大字小金崎","koaza":"村元","lat":40.543955,"lng":140.548625,"zip":"0360000"},{"town":"大字小金崎","koaza":"川原田","lat":40.545331,"lng":140.548244,"zip":"0360000"},{"town":"大字小金崎","koaza":"大仏新田","lat":40.547397,"lng":140.550009,"zip":"0360000"},{"town":"大字石川","koaza":"平岡","lat":40.549219,"lng":140.551837,"zip":"0360000"},{"town":"大字小金崎","koaza":"桜ノ木","lat":40.538514,"lng":140.551768,"zip":"0360000"},{"town":"大字石川","koaza":"大上寺","lat":40.555616,"lng":140.555076,"zip":"0360000"},{"town":"大字乳井","koaza":"石田","lat":40.552748,"lng":140.556348,"zip":"0360000"},{"town":"大字八幡舘","koaza":"角田","lat":40.550356,"lng":140.557498,"zip":"0360000"},{"town":"大字乳井","koaza":"岩ノ上","lat":40.548082,"lng":140.562046,"zip":"0360000"},{"town":"大字乳井","koaza":"長橋","lat":40.552112,"lng":140.562742,"zip":"0360000"},{"town":"大字薬師堂","koaza":"岡本","lat":40.560175,"lng":140.566328,"zip":"0360000"},{"town":"大字乳井","koaza":"岩ノ下","lat":40.549775,"lng":140.562048,"zip":"0360000"},{"town":"大字乳井","koaza":"大清水","lat":40.553555,"lng":140.562417,"zip":"0360000"},{"town":"大字乳井","koaza":"岡本","lat":40.556893,"lng":140.56679,"zip":"0360000"},{"town":"大字乳井","koaza":"乳井","lat":40.552672,"lng":140.566621,"zip":"0360000"},{"town":"大字乳井","koaza":"柳田","lat":40.554894,"lng":140.566304,"zip":"0360000"},{"town":"大字薬師堂","koaza":"舘ノ平","lat":40.556909,"lng":140.569222,"zip":"0360000"},{"town":"大字乳井","koaza":"沢田","lat":40.547542,"lng":140.570298,"zip":"0360000"},{"town":"大字薬師堂","koaza":"熊本","lat":40.559309,"lng":140.571408,"zip":"0360000"},{"town":"大字薬師堂","koaza":"日照田","lat":40.563061,"lng":140.57316,"zip":"0360000"},{"town":"大字清水森","koaza":"下川原","lat":40.569464,"lng":140.494065,"zip":"0360000"},{"town":"大字石川","koaza":"柳田","lat":40.565609,"lng":140.529769,"zip":"0360000"},{"town":"大字堀越","koaza":"柏田","lat":40.570848,"lng":140.520362,"zip":"0360000"},{"town":"大字大沢","koaza":"牛沢川添","lat":40.554602,"lng":140.504267,"zip":"0360000"},{"town":"大字大沢","koaza":"村中","lat":40.553273,"lng":140.513042,"zip":"0360000"},{"town":"大字大沢","koaza":"八幡長根","lat":40.555303,"lng":140.506309,"zip":"0360000"},{"town":"大字大沢","koaza":"大久保","lat":40.552084,"lng":140.505458,"zip":"0360000"},{"town":"大字松木平","koaza":"鷲ノ巣","lat":40.552527,"lng":140.501209,"zip":"0360000"},{"town":"大字大沢","koaza":"上村元","lat":40.552603,"lng":140.515523,"zip":"0360000"},{"town":"大字大沢","koaza":"下山ケ田","lat":40.550618,"lng":140.513373,"zip":"0360000"},{"town":"大字大沢","koaza":"鷲上沢","lat":40.548276,"lng":140.512345,"zip":"0360000"},{"town":"大字大沢","koaza":"大萢","lat":40.546773,"lng":140.517249,"zip":"0360000"},{"town":"大字大沢","koaza":"南ケ沢","lat":40.549431,"lng":140.5245,"zip":"0360000"},{"town":"大字大沢","koaza":"戸谷","lat":40.548806,"lng":140.520859,"zip":"0360000"},{"town":"大字大沢","koaza":"山下","lat":40.549936,"lng":140.518934,"zip":"0360000"},{"town":"大字石川","koaza":"西ノ沢","lat":40.544576,"lng":140.532513,"zip":"0360000"},{"town":"大字石川","koaza":"平山","lat":40.549716,"lng":140.540787,"zip":"0360000"},{"town":"大字石川","koaza":"泉田","lat":40.554465,"lng":140.550641,"zip":"0360000"},{"town":"大字石川","koaza":"庄司川添","lat":40.55053,"lng":140.550154,"zip":"0360000"},{"town":"大字石川","koaza":"和田","lat":40.553448,"lng":140.552831,"zip":"0360000"},{"town":"大字八幡舘","koaza":"泉田","lat":40.550557,"lng":140.555718,"zip":"0360000"},{"town":"大字小金崎","koaza":"留岡","lat":40.54485,"lng":140.551828,"zip":"0360000"},{"town":"大字乳井","koaza":"平山","lat":40.552398,"lng":140.568517,"zip":"0360000"},{"town":"大字薬師堂","koaza":"沢田口","lat":40.558,"lng":140.569636,"zip":"0360000"},{"town":"大字薬師堂","koaza":"沢田","lat":40.555842,"lng":140.57106,"zip":"0360000"},{"town":"大字薬師堂","koaza":"犹舘","lat":40.556015,"lng":140.572395,"zip":"0360000"},{"town":"大字薬師堂","koaza":"留長根","lat":40.557129,"lng":140.572136,"zip":"0360000"},{"town":"大字薬師堂","koaza":"鳥屋","lat":40.554242,"lng":140.57348,"zip":"0360000"},{"town":"大字乳井","koaza":"舘ノ沢","lat":40.552046,"lng":140.570631,"zip":"0360000"},{"town":"大字乳井","koaza":"和山","lat":40.553851,"lng":140.569315,"zip":"0360000"},{"town":"大字乳井","koaza":"茶臼舘","lat":40.549944,"lng":140.564512,"zip":"0360000"},{"town":"大字松木平","koaza":"平山","lat":40.566337,"lng":140.517627,"zip":"0360000"},{"town":"大字乳井","koaza":"外ノ沢","lat":40.5453,"lng":140.56609,"zip":"0360000"},{"town":"大字乳井","koaza":"古堂","lat":40.545108,"lng":140.563403,"zip":"0360000"},{"town":"大字石川","koaza":"境沢","lat":40.551419,"lng":140.52774,"zip":"0360000"},{"town":"大字石川","koaza":"泉ケ平","lat":40.55232,"lng":140.530265,"zip":"0360000"},{"town":"大字石川","koaza":"桔梗長根","lat":40.55118,"lng":140.528708,"zip":"0360000"},{"town":"大字石川","koaza":"平野","lat":40.54821,"lng":140.535151,"zip":"0360000"},{"town":"大字乳井","koaza":"大杉ノ下","lat":40.551308,"lng":140.567206,"zip":"0360000"},{"town":"大字石川","koaza":"新舘下","lat":40.555502,"lng":140.531425,"zip":"0360000"},{"town":"大字如来瀬","koaza":"山田","lat":40.591756,"lng":140.394053,"zip":"0360000"},{"town":"大字如来瀬","koaza":"玉川","lat":40.591313,"lng":140.395536,"zip":"0360000"},{"town":"大字如来瀬","koaza":"種本","lat":40.595677,"lng":140.40569,"zip":"0360000"},{"town":"大字鳥井野","koaza":"川村","lat":40.592571,"lng":140.410002,"zip":"0360000"},{"town":"大字鳥井野","koaza":"長田","lat":40.59894,"lng":140.411469,"zip":"0360000"},{"town":"大字悪戸","koaza":"中野","lat":40.582043,"lng":140.42567,"zip":"0360000"},{"town":"大字鳥井野","koaza":"宮本","lat":40.597656,"lng":140.41812,"zip":"0360000"},{"town":"大字下湯口","koaza":"青柳","lat":40.592154,"lng":140.422795,"zip":"0360000"},{"town":"大字悪戸","koaza":"芦野","lat":40.570446,"lng":140.428837,"zip":"0360000"},{"town":"大字下湯口","koaza":"村元","lat":40.584241,"lng":140.421532,"zip":"0360000"},{"town":"大字龍ノ口","koaza":"村元","lat":40.599699,"lng":140.425159,"zip":"0360000"},{"town":"大字悪戸","koaza":"前萢","lat":40.560383,"lng":140.428514,"zip":"0360000"},{"town":"大字悪戸","koaza":"鳴瀬","lat":40.59618,"lng":140.435359,"zip":"0360000"},{"town":"大字悪戸","koaza":"青柳","lat":40.593703,"lng":140.42542,"zip":"0360000"},{"town":"大字悪戸","koaza":"村元","lat":40.588787,"lng":140.427915,"zip":"0360000"},{"town":"大字坂元","koaza":"山下","lat":40.550938,"lng":140.430397,"zip":"0360000"},{"town":"大字小沢","koaza":"御笠見","lat":40.562283,"lng":140.434148,"zip":"0360000"},{"town":"大字小沢","koaza":"広野","lat":40.564476,"lng":140.438063,"zip":"0360000"},{"town":"大字小沢","koaza":"蟹沢","lat":40.566055,"lng":140.432625,"zip":"0360000"},{"town":"大字小沢","koaza":"苺原","lat":40.555435,"lng":140.433517,"zip":"0360000"},{"town":"大字小沢","koaza":"前沢","lat":40.55963,"lng":140.442415,"zip":"0360000"},{"town":"大字小沢","koaza":"大開","lat":40.576408,"lng":140.441775,"zip":"0360000"},{"town":"大字清水富田","koaza":"寺沢","lat":40.588798,"lng":140.441971,"zip":"0360000"},{"town":"大字一野渡","koaza":"西平山","lat":40.540085,"lng":140.453081,"zip":"0360000"},{"town":"大字一野渡","koaza":"野尻","lat":40.546541,"lng":140.452158,"zip":"0360000"},{"town":"大字大和沢","koaza":"沢田","lat":40.552377,"lng":140.460346,"zip":"0360000"},{"town":"大字一野渡","koaza":"岡本","lat":40.546239,"lng":140.460809,"zip":"0360000"},{"town":"大字原ケ平","koaza":"山中","lat":40.566823,"lng":140.462771,"zip":"0360000"},{"town":"大字大和沢","koaza":"上岸田","lat":40.547171,"lng":140.46524,"zip":"0360000"},{"town":"大字大和沢","koaza":"里見","lat":40.549857,"lng":140.464923,"zip":"0360000"},{"town":"大字原ケ平","koaza":"奥野","lat":40.559725,"lng":140.467453,"zip":"0360000"},{"town":"大字狼森","koaza":"西元","lat":40.559692,"lng":140.468837,"zip":"0360000"},{"town":"大字狼森","koaza":"天王","lat":40.559407,"lng":140.472446,"zip":"0360000"},{"town":"大字原ケ平","koaza":"山元","lat":40.567079,"lng":140.469624,"zip":"0360000"},{"town":"大字大和沢","koaza":"下岸田","lat":40.554741,"lng":140.475594,"zip":"0360000"},{"town":"大字小栗山","koaza":"沢部","lat":40.558626,"lng":140.483126,"zip":"0360000"},{"town":"大字小栗山","koaza":"鷲ノ巣","lat":40.553228,"lng":140.484167,"zip":"0360000"},{"town":"大字小栗山","koaza":"小松ケ沢","lat":40.55572,"lng":140.486519,"zip":"0360000"},{"town":"大字小栗山","koaza":"川合","lat":40.564366,"lng":140.488136,"zip":"0360000"},{"town":"大字小栗山","koaza":"稲苅沢","lat":40.549546,"lng":140.48961,"zip":"0360000"},{"town":"大字小栗山","koaza":"福岡","lat":40.563112,"lng":140.493048,"zip":"0360000"},{"town":"大字如来瀬","koaza":"四海渕","lat":40.591404,"lng":140.374455,"zip":"0360000"},{"town":"大字紙漉沢","koaza":"堰根","lat":40.591134,"lng":140.371754,"zip":"0360000"},{"town":"大字如来瀬","koaza":"大久保平","lat":40.598859,"lng":140.374263,"zip":"0360000"},{"town":"大字紙漉沢","koaza":"地形","lat":40.58983,"lng":140.386079,"zip":"0360000"},{"town":"大字五所","koaza":"里見","lat":40.590973,"lng":140.401896,"zip":"0360000"},{"town":"大字如来瀬","koaza":"才野神","lat":40.596262,"lng":140.388024,"zip":"0360000"},{"town":"大字如来瀬","koaza":"広野","lat":40.594669,"lng":140.392172,"zip":"0360000"},{"town":"大字如来瀬","koaza":"大森前","lat":40.594812,"lng":140.396775,"zip":"0360000"},{"town":"大字兼平","koaza":"石山添","lat":40.600706,"lng":140.386006,"zip":"0360000"},{"town":"大字兼平","koaza":"山下林添","lat":40.599679,"lng":140.400611,"zip":"0360000"},{"town":"大字龍ノ口","koaza":"桜田","lat":40.598897,"lng":140.42143,"zip":"0360000"},{"town":"大字如来瀬","koaza":"桐の木沢","lat":40.596642,"lng":140.39436,"zip":"0360000"},{"town":"大字兼平","koaza":"山下","lat":40.602338,"lng":140.404701,"zip":"0360000"},{"town":"大字龍ノ口","koaza":"左り田","lat":40.597945,"lng":140.422663,"zip":"0360000"},{"town":"大字坂元","koaza":"山元","lat":40.542285,"lng":140.431767,"zip":"0360000"},{"town":"大字坂元","koaza":"前沢","lat":40.553457,"lng":140.434387,"zip":"0360000"},{"town":"大字小沢","koaza":"沢田","lat":40.55967,"lng":140.438662,"zip":"0360000"},{"town":"大字小沢","koaza":"山下","lat":40.554912,"lng":140.432326,"zip":"0360000"},{"town":"大字小沢","koaza":"鶴子沢","lat":40.547002,"lng":140.446588,"zip":"0360000"},{"town":"大字大和沢","koaza":"中岸田","lat":40.550754,"lng":140.469203,"zip":"0360000"},{"town":"大字小沢","koaza":"井沢","lat":40.556988,"lng":140.450145,"zip":"0360000"},{"town":"大字小沢","koaza":"山崎","lat":40.573246,"lng":140.456068,"zip":"0360000"},{"town":"大字一野渡","koaza":"東平山","lat":40.542433,"lng":140.461037,"zip":"0360000"},{"town":"大字小沢","koaza":"大原","lat":40.577617,"lng":140.458818,"zip":"0360000"},{"town":"大字大和沢","koaza":"鷲ノ巣","lat":40.554084,"lng":140.472431,"zip":"0360000"},{"town":"大字清水富田","koaza":"清水流","lat":40.58439,"lng":140.465067,"zip":"0360000"},{"town":"大字小栗山","koaza":"芹沢","lat":40.557245,"lng":140.49064,"zip":"0360000"},{"town":"大字小栗山","koaza":"山下","lat":40.55848,"lng":140.48965,"zip":"0360000"},{"town":"大字大久保","koaza":"宮本","lat":40.629556,"lng":140.496416,"zip":"0360000"},{"town":"大字津賀野","koaza":"岡本","lat":40.639736,"lng":140.496275,"zip":"0360000"},{"town":"大字境関","koaza":"西田","lat":40.615052,"lng":140.497022,"zip":"0360000"},{"town":"大字大久保","koaza":"若松","lat":40.635093,"lng":140.495582,"zip":"0360000"},{"town":"大字境関","koaza":"鶴田","lat":40.616353,"lng":140.499044,"zip":"0360000"},{"town":"大字境関","koaza":"亥ノ宮","lat":40.614443,"lng":140.503488,"zip":"0360000"},{"town":"大字境関","koaza":"富田","lat":40.6191,"lng":140.503376,"zip":"0360000"},{"town":"大字撫牛子","koaza":"橋本","lat":40.626346,"lng":140.503422,"zip":"0360000"},{"town":"大字境関","koaza":"富岳","lat":40.618008,"lng":140.50764,"zip":"0360000"},{"town":"大字境関","koaza":"川部","lat":40.614335,"lng":140.510426,"zip":"0360000"},{"town":"大字福田","koaza":"花岡","lat":40.609394,"lng":140.509774,"zip":"0360000"},{"town":"大字福村","koaza":"下川原","lat":40.612168,"lng":140.513315,"zip":"0360000"},{"town":"大字福村","koaza":"早稲田","lat":40.602934,"lng":140.517229,"zip":"0360000"},{"town":"大字福村","koaza":"新舘添","lat":40.605418,"lng":140.517164,"zip":"0360000"},{"town":"大字福村","koaza":"堀合","lat":40.607933,"lng":140.520223,"zip":"0360000"},{"town":"大字新里","koaza":"下樋田","lat":40.600507,"lng":140.521764,"zip":"0360000"},{"town":"大字福村","koaza":"林元","lat":40.606092,"lng":140.514507,"zip":"0360000"},{"town":"大字福村","koaza":"福富","lat":40.608716,"lng":140.516503,"zip":"0360000"},{"town":"大字福村","koaza":"俵元","lat":40.611212,"lng":140.516197,"zip":"0360000"},{"town":"大字福田","koaza":"福岡","lat":40.608511,"lng":140.508435,"zip":"0360000"},{"town":"大字撫牛子","koaza":"宮本","lat":40.617848,"lng":140.496514,"zip":"0360000"},{"town":"大字境関","koaza":"豊川","lat":40.612015,"lng":140.508062,"zip":"0360000"},{"town":"大字百沢","koaza":"裾野","lat":40.61558,"lng":140.303565,"zip":"0360000"},{"town":"大字百沢","koaza":"東岩木山","lat":40.623867,"lng":140.331284,"zip":"0360000"},{"town":"大字百沢","koaza":"小松野","lat":40.614691,"lng":140.335769,"zip":"0360000"},{"town":"大字百沢","koaza":"寺沢","lat":40.620564,"lng":140.35177,"zip":"0360000"},{"town":"大字百沢","koaza":"温湯","lat":40.611361,"lng":140.347064,"zip":"0360000"},{"town":"大字百沢","koaza":"岸田","lat":40.61427,"lng":140.343437,"zip":"0360000"},{"town":"大字百沢","koaza":"高田","lat":40.617698,"lng":140.342797,"zip":"0360000"},{"town":"大字百沢","koaza":"三本柳","lat":40.609067,"lng":140.351053,"zip":"0360000"},{"town":"大字百沢","koaza":"田川","lat":40.61852,"lng":140.349081,"zip":"0360000"},{"town":"大字百沢","koaza":"鶴田","lat":40.618642,"lng":140.352459,"zip":"0360000"},{"town":"大字高岡","koaza":"神馬野","lat":40.62225,"lng":140.358662,"zip":"0360000"},{"town":"大字高岡","koaza":"獅子沢","lat":40.626333,"lng":140.358881,"zip":"0360000"},{"town":"大字葛原","koaza":"茂上","lat":40.628333,"lng":140.373969,"zip":"0360000"},{"town":"大字新法師","koaza":"泉","lat":40.610616,"lng":140.364974,"zip":"0360000"},{"town":"大字新岡","koaza":"薬師","lat":40.634921,"lng":140.379636,"zip":"0360000"},{"town":"大字新法師","koaza":"向野","lat":40.612825,"lng":140.376292,"zip":"0360000"},{"town":"大字新法師","koaza":"稔","lat":40.620105,"lng":140.374203,"zip":"0360000"},{"town":"大字葛原","koaza":"大柳","lat":40.628391,"lng":140.386302,"zip":"0360000"},{"town":"大字宮地","koaza":"富田","lat":40.621793,"lng":140.387289,"zip":"0360000"},{"town":"大字五代","koaza":"従弟沢","lat":40.60677,"lng":140.381912,"zip":"0360000"},{"town":"大字新岡","koaza":"片付","lat":40.641962,"lng":140.380463,"zip":"0360000"},{"town":"大字宮地","koaza":"宮本","lat":40.61357,"lng":140.387916,"zip":"0360000"},{"town":"大字新岡","koaza":"外の沢","lat":40.643664,"lng":140.386426,"zip":"0360000"},{"town":"大字新岡","koaza":"山本","lat":40.635001,"lng":140.393902,"zip":"0360000"},{"town":"大字折笠","koaza":"三原","lat":40.644135,"lng":140.39711,"zip":"0360000"},{"town":"大字新岡","koaza":"萩流","lat":40.631944,"lng":140.396418,"zip":"0360000"},{"town":"大字五代","koaza":"山本","lat":40.611355,"lng":140.401772,"zip":"0360000"},{"town":"大字宮地","koaza":"川添","lat":40.615725,"lng":140.401057,"zip":"0360000"},{"town":"大字宮地","koaza":"沢田","lat":40.61908,"lng":140.400349,"zip":"0360000"},{"town":"大字折笠","koaza":"法立堂","lat":40.643791,"lng":140.407394,"zip":"0360000"},{"town":"大字細越","koaza":"宮本","lat":40.638236,"lng":140.404535,"zip":"0360000"},{"town":"大字兼平","koaza":"林元","lat":40.606055,"lng":140.406542,"zip":"0360000"},{"town":"大字細越","koaza":"竹原","lat":40.633353,"lng":140.407468,"zip":"0360000"},{"town":"大字八幡","koaza":"須崎","lat":40.618334,"lng":140.409106,"zip":"0360000"},{"town":"大字愛宕","koaza":"山下","lat":40.62956,"lng":140.405845,"zip":"0360000"},{"town":"大字折笠","koaza":"狐沢","lat":40.64605,"lng":140.406427,"zip":"0360000"},{"town":"大字兼平","koaza":"富田","lat":40.602053,"lng":140.410774,"zip":"0360000"},{"town":"大字五代","koaza":"沼田","lat":40.611193,"lng":140.407523,"zip":"0360000"},{"town":"大字八幡","koaza":"長沢","lat":40.620994,"lng":140.407641,"zip":"0360000"},{"town":"大字五代","koaza":"早稲田","lat":40.615458,"lng":140.411841,"zip":"0360000"},{"town":"大字細越","koaza":"早稲田","lat":40.640581,"lng":140.412344,"zip":"0360000"},{"town":"大字愛宕","koaza":"三嶋","lat":40.627483,"lng":140.410789,"zip":"0360000"},{"town":"大字八幡","koaza":"古喜田","lat":40.622883,"lng":140.410808,"zip":"0360000"},{"town":"大字兼平","koaza":"猿沢","lat":40.60738,"lng":140.415124,"zip":"0360000"},{"town":"大字五代","koaza":"白山堂","lat":40.61061,"lng":140.412147,"zip":"0360000"},{"town":"大字鼻和","koaza":"西田","lat":40.632558,"lng":140.415505,"zip":"0360000"},{"town":"大字八幡","koaza":"岸野田","lat":40.620181,"lng":140.415812,"zip":"0360000"},{"town":"大字八幡","koaza":"北原","lat":40.621232,"lng":140.416252,"zip":"0360000"},{"town":"大字五代","koaza":"前田","lat":40.614022,"lng":140.415526,"zip":"0360000"},{"town":"大字八幡","koaza":"安田","lat":40.618852,"lng":140.417083,"zip":"0360000"},{"town":"大字五代","koaza":"田屋敷","lat":40.609307,"lng":140.417326,"zip":"0360000"},{"town":"大字一町田","koaza":"浅井","lat":40.606412,"lng":140.418505,"zip":"0360000"},{"town":"大字宮舘","koaza":"宮川","lat":40.649132,"lng":140.421714,"zip":"0360000"},{"town":"大字鼻和","koaza":"岩井","lat":40.63019,"lng":140.422503,"zip":"0360000"},{"town":"大字一町田","koaza":"沢田","lat":40.603792,"lng":140.41848,"zip":"0360000"},{"town":"大字鼻和","koaza":"平岡","lat":40.635624,"lng":140.418958,"zip":"0360000"},{"town":"大字八幡","koaza":"平塚","lat":40.623777,"lng":140.423208,"zip":"0360000"},{"town":"大字宮舘","koaza":"比内沢","lat":40.647183,"lng":140.424185,"zip":"0360000"},{"town":"大字富栄","koaza":"平岡","lat":40.637471,"lng":140.419891,"zip":"0360000"},{"town":"大字一町田","koaza":"石田","lat":40.606258,"lng":140.422695,"zip":"0360000"},{"town":"大字一町田","koaza":"村元","lat":40.612414,"lng":140.425472,"zip":"0360000"},{"town":"大字高屋","koaza":"本宮","lat":40.619409,"lng":140.427262,"zip":"0360000"},{"town":"大字高屋","koaza":"福田","lat":40.615257,"lng":140.422404,"zip":"0360000"},{"town":"大字富栄","koaza":"笹崎","lat":40.637894,"lng":140.424714,"zip":"0360000"},{"town":"大字富栄","koaza":"野田","lat":40.63439,"lng":140.425321,"zip":"0360000"},{"town":"大字富栄","koaza":"鳥羽","lat":40.641585,"lng":140.43349,"zip":"0360000"},{"town":"大字一町田","koaza":"早稲田","lat":40.610531,"lng":140.430081,"zip":"0360000"},{"town":"大字高屋","koaza":"安田","lat":40.620098,"lng":140.432243,"zip":"0360000"},{"town":"大字富栄","koaza":"浅井名","lat":40.644785,"lng":140.424804,"zip":"0360000"},{"town":"大字真土","koaza":"東川","lat":40.601769,"lng":140.428758,"zip":"0360000"},{"town":"大字蒔苗","koaza":"野田","lat":40.632464,"lng":140.43114,"zip":"0360000"},{"town":"大字真土","koaza":"勝剣林","lat":40.605732,"lng":140.428501,"zip":"0360000"},{"town":"大字蒔苗","koaza":"樋田","lat":40.627807,"lng":140.43317,"zip":"0360000"},{"town":"大字蒔苗","koaza":"堤田","lat":40.634883,"lng":140.433272,"zip":"0360000"},{"town":"大字真土","koaza":"苅田","lat":40.602509,"lng":140.433767,"zip":"0360000"},{"town":"大字横町","koaza":"松本","lat":40.626409,"lng":140.436734,"zip":"0360000"},{"town":"大字真土","koaza":"前田","lat":40.606541,"lng":140.435247,"zip":"0360000"},{"town":"大字一町田","koaza":"富岡","lat":40.609411,"lng":140.434395,"zip":"0360000"},{"town":"大字蒔苗","koaza":"福岡","lat":40.635337,"lng":140.438982,"zip":"0360000"},{"town":"大字熊嶋","koaza":"亀田","lat":40.611249,"lng":140.438458,"zip":"0360000"},{"town":"大字熊嶋","koaza":"里見","lat":40.617171,"lng":140.438007,"zip":"0360000"},{"town":"大字前坂","koaza":"赤井","lat":40.659991,"lng":140.439454,"zip":"0360000"},{"town":"大字真土","koaza":"大川","lat":40.603573,"lng":140.4392,"zip":"0360000"},{"town":"大字蒔苗","koaza":"独狐森","lat":40.636655,"lng":140.437518,"zip":"0360000"},{"town":"大字駒越","koaza":"高田","lat":40.606042,"lng":140.438803,"zip":"0360000"},{"town":"大字土堂","koaza":"早川","lat":40.624102,"lng":140.442461,"zip":"0360000"},{"town":"大字熊嶋","koaza":"豊田","lat":40.616327,"lng":140.441413,"zip":"0360000"},{"town":"大字前坂","koaza":"船山","lat":40.655316,"lng":140.440549,"zip":"0360000"},{"town":"大字独狐","koaza":"島田","lat":40.638598,"lng":140.441203,"zip":"0360000"},{"town":"大字独狐","koaza":"松ケ沢","lat":40.647122,"lng":140.441445,"zip":"0360000"},{"town":"大字土堂","koaza":"長瀬","lat":40.622556,"lng":140.445504,"zip":"0360000"},{"town":"大字独狐","koaza":"石田","lat":40.652584,"lng":140.445171,"zip":"0360000"},{"town":"大字独狐","koaza":"独狐森","lat":40.641341,"lng":140.442399,"zip":"0360000"},{"town":"大字駒越","koaza":"村元","lat":40.609578,"lng":140.446887,"zip":"0360000"},{"town":"大字藤代","koaza":"平田","lat":40.618162,"lng":140.44986,"zip":"0360000"},{"town":"大字三世寺","koaza":"色吉","lat":40.659767,"lng":140.451878,"zip":"0360000"},{"town":"大字独狐","koaza":"笹元","lat":40.643725,"lng":140.446484,"zip":"0360000"},{"town":"大字町田","koaza":"松本","lat":40.636486,"lng":140.447748,"zip":"0360000"},{"town":"大字石渡","koaza":"大保","lat":40.634253,"lng":140.448281,"zip":"0360000"},{"town":"大字町田","koaza":"沖田","lat":40.638277,"lng":140.45006,"zip":"0360000"},{"town":"大字三世寺","koaza":"月見野","lat":40.656167,"lng":140.453055,"zip":"0360000"},{"town":"大字中崎","koaza":"野脇","lat":40.649847,"lng":140.455851,"zip":"0360000"},{"town":"大字石渡","koaza":"田浦","lat":40.632028,"lng":140.452013,"zip":"0360000"},{"town":"大字中崎","koaza":"平野","lat":40.647993,"lng":140.456977,"zip":"0360000"},{"town":"大字町田","koaza":"清水","lat":40.640511,"lng":140.455719,"zip":"0360000"},{"town":"大字中崎","koaza":"苅田","lat":40.648046,"lng":140.460638,"zip":"0360000"},{"town":"大字船水","koaza":"勝浦","lat":40.637172,"lng":140.463632,"zip":"0360000"},{"town":"大字三世寺","koaza":"鳴瀬","lat":40.660117,"lng":140.459986,"zip":"0360000"},{"town":"大字中崎","koaza":"川原田","lat":40.653019,"lng":140.462463,"zip":"0360000"},{"town":"大字町田","koaza":"筒井","lat":40.640961,"lng":140.466043,"zip":"0360000"},{"town":"大字船水","koaza":"松尾","lat":40.632555,"lng":140.466123,"zip":"0360000"},{"town":"大字船水","koaza":"横船","lat":40.633542,"lng":140.468496,"zip":"0360000"},{"town":"大字萢中","koaza":"岩井","lat":40.623607,"lng":140.469777,"zip":"0360000"},{"town":"大字清野袋","koaza":"川田","lat":40.639787,"lng":140.473107,"zip":"0360000"},{"town":"大字向外瀬","koaza":"豊田","lat":40.630112,"lng":140.482623,"zip":"0360000"},{"town":"大字津賀野","koaza":"瀬ノ上","lat":40.644416,"lng":140.483566,"zip":"0360000"},{"town":"大字津賀野","koaza":"浅田","lat":40.641929,"lng":140.488663,"zip":"0360000"},{"town":"大字清野袋","koaza":"岡部","lat":40.637583,"lng":140.483648,"zip":"0360000"},{"town":"大字清野袋","koaza":"増田","lat":40.645314,"lng":140.479769,"zip":"0360000"},{"town":"大字堅田","koaza":"神田","lat":40.629383,"lng":140.488259,"zip":"0360000"},{"town":"大字大久保","koaza":"西田","lat":40.629527,"lng":140.491604,"zip":"0360000"},{"town":"大字津賀野","koaza":"宮崎","lat":40.64206,"lng":140.493139,"zip":"0360000"},{"town":"大字大久保","koaza":"沼田","lat":40.633463,"lng":140.493341,"zip":"0360000"},{"town":"大字百田","koaza":"宮崎","lat":40.64403,"lng":140.493907,"zip":"0360000"},{"town":"大字百沢","koaza":"笹平","lat":40.616781,"lng":140.342423,"zip":"0360000"},{"town":"大字百沢","koaza":"旦の越","lat":40.612521,"lng":140.351125,"zip":"0360000"},{"town":"大字兼平","koaza":"長ヶ沢","lat":40.599586,"lng":140.39506,"zip":"0360000"},{"town":"大字兼平","koaza":"林元林添","lat":40.604619,"lng":140.397988,"zip":"0360000"},{"town":"大字宮地","koaza":"諏訪林","lat":40.620718,"lng":140.39233,"zip":"0360000"},{"town":"大字葛原","koaza":"土筆山","lat":40.629046,"lng":140.379434,"zip":"0360000"},{"town":"大字新岡","koaza":"石田","lat":40.641129,"lng":140.376943,"zip":"0360000"},{"town":"大字弥生","koaza":"弥生平","lat":40.649568,"lng":140.376909,"zip":"0360000"},{"town":"大字折笠","koaza":"宮川","lat":40.643826,"lng":140.414811,"zip":"0360000"},{"town":"大字富栄","koaza":"西田","lat":40.640776,"lng":140.415414,"zip":"0360000"},{"town":"大字細越","koaza":"大口沢","lat":40.636105,"lng":140.403826,"zip":"0360000"},{"town":"大字宮地","koaza":"菖蒲沢","lat":40.625447,"lng":140.39895,"zip":"0360000"},{"town":"大字賀田","koaza":"大浦","lat":40.617662,"lng":140.420704,"zip":"0360000"},{"town":"大字前坂","koaza":"箱崎","lat":40.656875,"lng":140.43586,"zip":"0360000"},{"town":"大字独狐","koaza":"山辺","lat":40.650586,"lng":140.436445,"zip":"0360000"},{"town":"大字富栄","koaza":"山辺","lat":40.6496,"lng":140.433666,"zip":"0360000"},{"town":"大字蒔苗","koaza":"油伝","lat":40.628576,"lng":140.427732,"zip":"0360000"},{"town":"大字蒔苗","koaza":"鳥羽","lat":40.638489,"lng":140.435341,"zip":"0360000"},{"town":"大字横町","koaza":"豊田","lat":40.622237,"lng":140.428697,"zip":"0360000"},{"town":"大字駒越","koaza":"平田","lat":40.609713,"lng":140.44616,"zip":"0360000"},{"town":"大字大川","koaza":"見乗","lat":40.663027,"lng":140.457553,"zip":"0360000"},{"town":"大字町田","koaza":"山吹","lat":40.642279,"lng":140.463911,"zip":"0360000"},{"town":"大字町田","koaza":"舘田","lat":40.640373,"lng":140.461994,"zip":"0360000"},{"town":"大字町田","koaza":"三千苅","lat":40.636362,"lng":140.452713,"zip":"0360000"},{"town":"大字向外瀬","koaza":"岩木","lat":40.623004,"lng":140.473018,"zip":"0360000"},{"town":"大字百田","koaza":"岡本","lat":40.642097,"lng":140.49462,"zip":"0360000"},{"town":"大字如来瀬","koaza":"堤沢","lat":40.596912,"lng":140.384594,"zip":"0360000"},{"town":"大字薬師堂","koaza":"北熊沢","lat":40.560481,"lng":140.575414,"zip":"0360000"},{"town":"大字大沢","koaza":"簾垂柳","lat":40.554917,"lng":140.51986,"zip":"0360000"},{"town":"大字大沢","koaza":"狐長根","lat":40.550919,"lng":140.499512,"zip":"0360000"}]