[{"town":"字上蟹田","koaza":"","lat":41.03863,"lng":140.640529,"zip":"0301400"},{"town":"字蟹田","koaza":"","lat":41.040295,"lng":140.644289,"zip":"0301400"},{"town":"字蟹田石浜","koaza":"","lat":41.058328,"lng":140.634456,"zip":"0301400"},{"town":"字蟹田丑ケ沢","koaza":"","lat":41.035177,"lng":140.633699,"zip":"0301400"},{"town":"字蟹田内黒山","koaza":"","lat":41.037714,"lng":140.614345,"zip":"0301400"},{"town":"字蟹田姥ケ沢","koaza":"","lat":41.039409,"lng":140.624904,"zip":"0301400"},{"town":"字蟹田大平沢辺","koaza":"","lat":41.073747,"lng":140.546448,"zip":"0301400"},{"town":"字蟹田大平高石","koaza":"","lat":41.084765,"lng":140.557079,"zip":"0301400"},{"town":"字蟹田大平山元","koaza":"","lat":41.068527,"lng":140.556845,"zip":"0301400"},{"town":"字蟹田小国岩井","koaza":"","lat":41.051993,"lng":140.587445,"zip":"0301400"},{"town":"字蟹田小国黒山","koaza":"","lat":41.046882,"lng":140.603711,"zip":"0301400"},{"town":"字蟹田小国黒山添","koaza":"","lat":41.046302,"lng":140.593832,"zip":"0301400"},{"town":"字蟹田小国坂元","koaza":"","lat":41.049141,"lng":140.613229,"zip":"0301400"},{"town":"字蟹田小国三枚橋","koaza":"","lat":41.059367,"lng":140.604843,"zip":"0301400"},{"town":"字蟹田小国品吉","koaza":"","lat":41.058506,"lng":140.580441,"zip":"0301400"},{"town":"字蟹田小国惣右衛門沢","koaza":"","lat":41.056435,"lng":140.61548,"zip":"0301400"},{"town":"字蟹田小国館下","koaza":"","lat":41.057613,"lng":140.567366,"zip":"0301400"},{"town":"字蟹田小国谷田","koaza":"","lat":41.068532,"lng":140.58832,"zip":"0301400"},{"town":"字蟹田小国西小国山","koaza":"","lat":41.098299,"lng":140.561052,"zip":"0301400"},{"town":"字蟹田小国東小国山","koaza":"","lat":41.055795,"lng":140.61787,"zip":"0301400"},{"town":"字蟹田小国南田","koaza":"","lat":41.056489,"lng":140.592999,"zip":"0301400"},{"town":"字蟹田小国山崎","koaza":"","lat":41.046692,"lng":140.608129,"zip":"0301400"},{"town":"字蟹田桂淵","koaza":"","lat":41.044836,"lng":140.629238,"zip":"0301400"},{"town":"字蟹田川原添","koaza":"","lat":41.045274,"lng":140.639199,"zip":"0301400"},{"town":"字蟹田塩越","koaza":"","lat":41.072748,"lng":140.631287,"zip":"0301400"},{"town":"字蟹田外黒山","koaza":"","lat":41.041467,"lng":140.604017,"zip":"0301400"},{"town":"字蟹田高銅屋","koaza":"","lat":41.04002,"lng":140.633917,"zip":"0301400"},{"town":"字蟹田田ノ沢","koaza":"","lat":41.036032,"lng":140.642885,"zip":"0301400"},{"town":"字蟹田中師桂沢","koaza":"","lat":41.048327,"lng":140.624396,"zip":"0301400"},{"town":"字蟹田中師舘ノ沢","koaza":"","lat":41.051956,"lng":140.638977,"zip":"0301400"},{"town":"字蟹田中師苗代沢","koaza":"","lat":41.049152,"lng":140.636369,"zip":"0301400"},{"town":"字蟹田中師火箱沢","koaza":"","lat":41.051484,"lng":140.625467,"zip":"0301400"},{"town":"字蟹田中師宮本","koaza":"","lat":41.048264,"lng":140.641119,"zip":"0301400"},{"town":"字蟹田樋橋","koaza":"","lat":41.043218,"lng":140.623225,"zip":"0301400"},{"town":"字蟹田原田長瀬","koaza":"","lat":41.046361,"lng":140.62564,"zip":"0301400"},{"town":"字蟹田南沢館下","koaza":"","lat":41.04723,"lng":140.577749,"zip":"0301400"},{"town":"字蟹田南沢山口","koaza":"","lat":41.043244,"lng":140.573341,"zip":"0301400"},{"town":"字蟹田山本小谷","koaza":"","lat":41.065974,"lng":140.573046,"zip":"0301400"},{"town":"字蟹田山本野脇","koaza":"","lat":41.061431,"lng":140.568019,"zip":"0301400"},{"town":"字蟹田山本前田","koaza":"","lat":41.062086,"lng":140.573365,"zip":"0301400"},{"town":"字蟹田山本紅葉坂","koaza":"","lat":41.076301,"lng":140.562479,"zip":"0301400"},{"town":"字蟹田渡","koaza":"","lat":41.043889,"lng":140.615208,"zip":"0301400"},{"town":"字蟹田鰐ケ淵","koaza":"","lat":41.044062,"lng":140.634758,"zip":"0301400"},{"town":"字下蟹田","koaza":"","lat":41.042598,"lng":140.64049,"zip":"0301400"},{"town":"字平舘石崎沢","koaza":"","lat":41.184938,"lng":140.633258,"zip":"0301400"},{"town":"字平舘石崎長屋形","koaza":"","lat":41.187317,"lng":140.626583,"zip":"0301400"},{"town":"字平舘石浜尻高川","koaza":"","lat":41.085744,"lng":140.628542,"zip":"0301400"},{"town":"字平舘磯山","koaza":"","lat":41.089478,"lng":140.632243,"zip":"0301400"},{"town":"字平舘今津釜の沢","koaza":"","lat":41.118178,"lng":140.629539,"zip":"0301400"},{"town":"字平舘今津才の神","koaza":"","lat":41.12246,"lng":140.631671,"zip":"0301400"},{"town":"字平舘今津尻高","koaza":"","lat":41.1147,"lng":140.631002,"zip":"0301400"},{"town":"字平舘今津尻高川","koaza":"","lat":41.118515,"lng":140.62539,"zip":"0301400"},{"town":"字平舘今津間沢","koaza":"","lat":41.120126,"lng":140.631442,"zip":"0301400"},{"town":"字平舘後田","koaza":"","lat":41.160292,"lng":140.638196,"zip":"0301400"},{"town":"字平舘門の沢","koaza":"","lat":41.164137,"lng":140.633378,"zip":"0301400"},{"town":"字平舘田の沢","koaza":"","lat":41.175085,"lng":140.639874,"zip":"0301400"},{"town":"字平舘太郎右エ門沢","koaza":"","lat":41.178657,"lng":140.640562,"zip":"0301400"},{"town":"字平舘鳥井沢","koaza":"","lat":41.167661,"lng":140.637162,"zip":"0301400"},{"town":"字平舘長屋形","koaza":"","lat":41.177583,"lng":140.633765,"zip":"0301400"},{"town":"字平舘根岸小川","koaza":"","lat":41.14475,"lng":140.631967,"zip":"0301400"},{"town":"字平舘根岸山居","koaza":"","lat":41.156686,"lng":140.628092,"zip":"0301400"},{"town":"字平舘根岸長屋形","koaza":"","lat":41.156695,"lng":140.632432,"zip":"0301400"},{"town":"字平舘根岸湯の沢","koaza":"","lat":41.150076,"lng":140.629961,"zip":"0301400"},{"town":"字平舘野田才の神","koaza":"","lat":41.125579,"lng":140.628771,"zip":"0301400"},{"town":"字平舘野田尻高川","koaza":"","lat":41.132208,"lng":140.623522,"zip":"0301400"},{"town":"字平舘野田鳴川","koaza":"","lat":41.140405,"lng":140.627911,"zip":"0301400"},{"town":"字平舘野田山下","koaza":"","lat":41.132467,"lng":140.629588,"zip":"0301400"},{"town":"字平舘舟岡","koaza":"","lat":41.105111,"lng":140.629327,"zip":"0301400"},{"town":"字平舘元宇田","koaza":"","lat":41.203831,"lng":140.611369,"zip":"0301400"},{"town":"字平舘弥蔵釜","koaza":"","lat":41.191985,"lng":140.628054,"zip":"0301400"},{"town":"字三厩家ノ上","koaza":"","lat":41.195987,"lng":140.427511,"zip":"0301400"},{"town":"字三厩宇鉄家ノ上","koaza":"","lat":41.220833,"lng":140.401393,"zip":"0301400"},{"town":"字三厩宇鉄沢","koaza":"","lat":41.229513,"lng":140.394806,"zip":"0301400"},{"town":"字三厩宇鉄山","koaza":"","lat":41.249437,"lng":140.365062,"zip":"0301400"},{"town":"字三厩上野","koaza":"","lat":41.20951,"lng":140.418436,"zip":"0301400"},{"town":"字三厩釜野澤","koaza":"","lat":41.223916,"lng":140.402297,"zip":"0301400"},{"town":"字三厩上宇鉄","koaza":"","lat":41.236488,"lng":140.391475,"zip":"0301400"},{"town":"字三厩上平","koaza":"","lat":41.226582,"lng":140.398271,"zip":"0301400"},{"town":"字三厩川柱","koaza":"","lat":41.24264,"lng":140.372835,"zip":"0301400"},{"town":"字三厩木落","koaza":"","lat":41.254324,"lng":140.352203,"zip":"0301400"},{"town":"字三厩源兵衛間","koaza":"","lat":41.257266,"lng":140.34977,"zip":"0301400"},{"town":"字三厩算用師","koaza":"","lat":41.204867,"lng":140.422325,"zip":"0301400"},{"town":"字三厩算用師右平野","koaza":"","lat":41.207712,"lng":140.421593,"zip":"0301400"},{"town":"字三厩潮見台","koaza":"","lat":41.203756,"lng":140.425179,"zip":"0301400"},{"town":"字三厩四枚橋","koaza":"","lat":41.218455,"lng":140.407431,"zip":"0301400"},{"town":"字三厩四枚橋ノ上","koaza":"","lat":41.217015,"lng":140.408181,"zip":"0301400"},{"town":"字三厩下平","koaza":"","lat":41.228785,"lng":140.397901,"zip":"0301400"},{"town":"字三厩尻神","koaza":"","lat":41.247483,"lng":140.371334,"zip":"0301400"},{"town":"字三厩新町","koaza":"","lat":41.194281,"lng":140.43615,"zip":"0301400"},{"town":"字三厩滝ノ上","koaza":"","lat":41.233363,"lng":140.394911,"zip":"0301400"},{"town":"字三厩龍浜","koaza":"","lat":41.256423,"lng":140.342252,"zip":"0301400"},{"town":"字三厩中ノ平","koaza":"","lat":41.231364,"lng":140.395418,"zip":"0301400"},{"town":"字三厩中浜","koaza":"","lat":41.203603,"lng":140.427729,"zip":"0301400"},{"town":"字三厩流平","koaza":"","lat":41.223093,"lng":140.399085,"zip":"0301400"},{"town":"字三厩梨ノ木間","koaza":"","lat":41.244951,"lng":140.37618,"zip":"0301400"},{"town":"字三厩鳴神","koaza":"","lat":41.247246,"lng":140.36835,"zip":"0301400"},{"town":"字三厩東町","koaza":"","lat":41.183533,"lng":140.440539,"zip":"0301400"},{"town":"字三厩梹榔","koaza":"","lat":41.25019,"lng":140.359878,"zip":"0301400"},{"town":"字三厩藤嶋","koaza":"","lat":41.215649,"lng":140.413916,"zip":"0301400"},{"town":"字三厩藤嶋沢","koaza":"","lat":41.213767,"lng":140.413959,"zip":"0301400"},{"town":"字三厩本町","koaza":"","lat":41.195932,"lng":140.431053,"zip":"0301400"},{"town":"字三厩鐇泊","koaza":"","lat":41.239302,"lng":140.384148,"zip":"0301400"},{"town":"字三厩増川","koaza":"","lat":41.18921,"lng":140.440318,"zip":"0301400"},{"town":"字三厩水汲沢","koaza":"","lat":41.23501,"lng":140.391688,"zip":"0301400"},{"town":"字三厩緑ケ丘","koaza":"","lat":41.185497,"lng":140.434462,"zip":"0301400"},{"town":"字三厩元宇鉄","koaza":"","lat":41.23062,"lng":140.39836,"zip":"0301400"},{"town":"字三厩桃ケ丘","koaza":"","lat":41.191407,"lng":140.435091,"zip":"0301400"},{"town":"字三厩東風泊","koaza":"","lat":41.237003,"lng":140.390034,"zip":"0301400"},{"town":"字三厩鎧嶋","koaza":"","lat":41.248394,"lng":140.351559,"zip":"0301400"},{"town":"字三厩六條間","koaza":"","lat":41.211386,"lng":140.419035,"zip":"0301400"}]