[{"town":"大字岩坂","koaza":"","lat":40.709276,"lng":140.111405,"zip":"0382300"},{"town":"大字岩崎","koaza":"","lat":40.595724,"lng":139.90829,"zip":"0382300"},{"town":"大字追良瀬","koaza":"","lat":40.674473,"lng":139.994771,"zip":"0382300"},{"town":"大字大間越","koaza":"","lat":40.467774,"lng":139.946549,"zip":"0382300"},{"town":"大字風合瀬","koaza":"","lat":40.733617,"lng":140.009685,"zip":"0382300"},{"town":"大字上長慶平","koaza":"","lat":40.614357,"lng":140.001936,"zip":"0382300"},{"town":"大字北金ケ沢","koaza":"","lat":40.751561,"lng":140.07721,"zip":"0382300"},{"town":"大字久六","koaza":"","lat":40.534132,"lng":139.497704,"zip":"0382300"},{"town":"大字黒崎","koaza":"","lat":40.517328,"lng":139.953317,"zip":"0382300"},{"town":"大字沢辺","koaza":"","lat":40.597271,"lng":139.89006,"zip":"0382300"},{"town":"大字正道尻","koaza":"","lat":40.573068,"lng":139.941813,"zip":"0382300"},{"town":"大字関","koaza":"","lat":40.73119,"lng":140.105999,"zip":"0382300"},{"town":"大字田野沢","koaza":"","lat":40.753667,"lng":140.046905,"zip":"0382300"},{"town":"大字長慶平","koaza":"","lat":40.594729,"lng":140.00833,"zip":"0382300"},{"town":"大字月屋","koaza":"","lat":40.614477,"lng":139.869242,"zip":"0382300"},{"town":"大字驫木","koaza":"","lat":40.706736,"lng":139.987924,"zip":"0382300"},{"town":"大字久田","koaza":"","lat":40.576761,"lng":139.937076,"zip":"0382300"},{"town":"大字広戸","koaza":"","lat":40.662735,"lng":139.953643,"zip":"0382300"},{"town":"大字深浦","koaza":"","lat":40.633429,"lng":139.915671,"zip":"0382300"},{"town":"大字舮作","koaza":"","lat":40.601811,"lng":139.872349,"zip":"0382300"},{"town":"大字松神","koaza":"","lat":40.548022,"lng":139.947152,"zip":"0382300"},{"town":"大字森山","koaza":"","lat":40.565144,"lng":139.939515,"zip":"0382300"},{"town":"大字柳田","koaza":"","lat":40.734508,"lng":140.139396,"zip":"0382300"},{"town":"大字横磯","koaza":"","lat":40.621891,"lng":139.888003,"zip":"0382300"}]