[{"town":"青葉一丁目","koaza":"","lat":40.805836,"lng":140.743053,"zip":"0300846"},{"town":"青葉二丁目","koaza":"","lat":40.805128,"lng":140.747826,"zip":"0300846"},{"town":"青葉三丁目","koaza":"","lat":40.802571,"lng":140.750706,"zip":"0300846"},{"town":"青柳一丁目","koaza":"","lat":40.831485,"lng":140.759337,"zip":"0300811"},{"town":"青柳二丁目","koaza":"","lat":40.827375,"lng":140.757567,"zip":"0300811"},{"town":"赤坂一丁目","koaza":"","lat":40.799556,"lng":140.808672,"zip":"0300956"},{"town":"赤坂二丁目","koaza":"","lat":40.802618,"lng":140.81184,"zip":"0300956"},{"town":"旭町一丁目","koaza":"","lat":40.817592,"lng":140.736272,"zip":"0300851"},{"town":"旭町二丁目","koaza":"","lat":40.814739,"lng":140.738847,"zip":"0300851"},{"town":"旭町三丁目","koaza":"","lat":40.811942,"lng":140.739223,"zip":"0300851"},{"town":"大字浅虫","koaza":"","lat":40.892502,"lng":140.875119,"zip":"0380000"},{"town":"大字飛鳥","koaza":"","lat":40.874023,"lng":140.668149,"zip":"0380000"},{"town":"大字油川","koaza":"","lat":40.849105,"lng":140.698048,"zip":"0380000"},{"town":"大字荒川","koaza":"","lat":40.685571,"lng":140.777392,"zip":"0380000"},{"town":"大字石江","koaza":"","lat":40.821588,"lng":140.687816,"zip":"0380000"},{"town":"大字泉野","koaza":"","lat":40.84109,"lng":140.815365,"zip":"0380000"},{"town":"大字岩渡","koaza":"","lat":40.777303,"lng":140.667533,"zip":"0380000"},{"town":"大字牛館","koaza":"","lat":40.780784,"lng":140.749274,"zip":"0380000"},{"town":"大字後潟","koaza":"","lat":40.937251,"lng":140.639019,"zip":"0380000"},{"town":"大字後萢","koaza":"","lat":40.825473,"lng":140.81583,"zip":"0380000"},{"town":"大字内真部","koaza":"","lat":40.908828,"lng":140.661005,"zip":"0380000"},{"town":"大字浦町","koaza":"","lat":40.81152,"lng":140.754038,"zip":"0380000"},{"town":"大字上野","koaza":"","lat":40.775927,"lng":140.744398,"zip":"0380000"},{"town":"大字大谷","koaza":"","lat":40.742287,"lng":140.670349,"zip":"0380000"},{"town":"大字大野","koaza":"","lat":40.803804,"lng":140.73346,"zip":"0380000"},{"town":"大字大別内","koaza":"","lat":40.732928,"lng":140.747356,"zip":"0380000"},{"town":"大字大矢沢","koaza":"","lat":40.778139,"lng":140.778338,"zip":"0380000"},{"town":"大字岡町","koaza":"","lat":40.841758,"lng":140.671577,"zip":"0380000"},{"town":"大字奥内","koaza":"","lat":40.889292,"lng":140.664667,"zip":"0380000"},{"town":"大字小畑沢","koaza":"","lat":40.726525,"lng":140.759629,"zip":"0380000"},{"town":"大字金浜","koaza":"","lat":40.772007,"lng":140.731497,"zip":"0380000"},{"town":"大字久栗坂","koaza":"","lat":40.869897,"lng":140.857636,"zip":"0380000"},{"town":"大字桑原","koaza":"","lat":40.821054,"lng":140.810501,"zip":"0380000"},{"town":"大字合子沢","koaza":"","lat":40.738072,"lng":140.769136,"zip":"0380000"},{"town":"大字幸畑","koaza":"","lat":40.777337,"lng":140.792705,"zip":"0380000"},{"town":"大字小館","koaza":"","lat":40.738794,"lng":140.714556,"zip":"0380000"},{"town":"大字小橋","koaza":"","lat":40.921512,"lng":140.647028,"zip":"0380000"},{"town":"大字駒込","koaza":"","lat":40.73703,"lng":140.841561,"zip":"0380000"},{"town":"大字小柳","koaza":"","lat":40.817394,"lng":140.801254,"zip":"0380000"},{"town":"大字沢山","koaza":"","lat":40.790492,"lng":140.830382,"zip":"0380000"},{"town":"大字三内","koaza":"","lat":40.810829,"lng":140.689088,"zip":"0380000"},{"town":"大字三本木","koaza":"","lat":40.830557,"lng":140.845087,"zip":"0380000"},{"town":"大字四戸橋","koaza":"","lat":40.947544,"lng":140.638196,"zip":"0380000"},{"town":"大字清水","koaza":"","lat":40.904492,"lng":140.657313,"zip":"0380000"},{"town":"大字新城","koaza":"","lat":40.81656,"lng":140.665285,"zip":"0380000"},{"town":"大字新町野","koaza":"","lat":40.77691,"lng":140.752235,"zip":"0380000"},{"town":"大字諏訪沢","koaza":"","lat":40.816323,"lng":140.827583,"zip":"0380000"},{"town":"大字瀬戸子","koaza":"","lat":40.880638,"lng":140.664587,"zip":"0380000"},{"town":"大字平新田","koaza":"","lat":40.831258,"lng":140.816845,"zip":"0380000"},{"town":"大字高田","koaza":"","lat":40.764128,"lng":140.711512,"zip":"0380000"},{"town":"大字滝沢","koaza":"","lat":40.819813,"lng":140.87511,"zip":"0380000"},{"town":"大字田茂木野","koaza":"","lat":40.760668,"lng":140.800537,"zip":"0380000"},{"town":"大字田屋敷","koaza":"","lat":40.805391,"lng":140.78859,"zip":"0380000"},{"town":"大字築木館","koaza":"","lat":40.817089,"lng":140.846918,"zip":"0380000"},{"town":"大字筒井","koaza":"","lat":40.796928,"lng":140.771612,"zip":"0380000"},{"town":"大字鶴ケ坂","koaza":"","lat":40.786081,"lng":140.628106,"zip":"0380000"},{"town":"大字戸門","koaza":"","lat":40.811817,"lng":140.642977,"zip":"0380000"},{"town":"大字戸崎","koaza":"","lat":40.813497,"lng":140.811036,"zip":"0380000"},{"town":"大字戸山","koaza":"","lat":40.807474,"lng":140.809032,"zip":"0380000"},{"town":"大字浪館","koaza":"","lat":40.809889,"lng":140.710745,"zip":"0380000"},{"town":"大字西滝","koaza":"","lat":40.825491,"lng":140.715254,"zip":"0380000"},{"town":"大字西田沢","koaza":"","lat":40.857463,"lng":140.655706,"zip":"0380000"},{"town":"大字新田","koaza":"","lat":40.834835,"lng":140.694899,"zip":"0380000"},{"town":"大字入内","koaza":"","lat":40.702123,"lng":140.732628,"zip":"0380000"},{"town":"大字野木","koaza":"","lat":40.753443,"lng":140.746394,"zip":"0380000"},{"town":"大字野沢","koaza":"","lat":40.728057,"lng":140.736756,"zip":"0380000"},{"town":"大字野尻","koaza":"","lat":40.785391,"lng":140.766341,"zip":"0380000"},{"town":"大字野内","koaza":"","lat":40.85721,"lng":140.828355,"zip":"0380000"},{"town":"大字羽白","koaza":"","lat":40.848954,"lng":140.668822,"zip":"0380000"},{"town":"大字浜田","koaza":"","lat":40.801012,"lng":140.760706,"zip":"0380000"},{"town":"大字浜館","koaza":"","lat":40.807546,"lng":140.794711,"zip":"0380000"},{"town":"大字原別","koaza":"","lat":40.837423,"lng":140.813122,"zip":"0380000"},{"town":"大字左堰","koaza":"","lat":40.914536,"lng":140.650478,"zip":"0380000"},{"town":"大字古館","koaza":"","lat":40.801743,"lng":140.784279,"zip":"0380000"},{"town":"大字細越","koaza":"","lat":40.783661,"lng":140.705293,"zip":"0380000"},{"town":"大字前田","koaza":"","lat":40.89627,"lng":140.649729,"zip":"0380000"},{"town":"大字孫内","koaza":"","lat":40.762511,"lng":140.637145,"zip":"0380000"},{"town":"大字松森","koaza":"","lat":40.810016,"lng":140.782315,"zip":"0380000"},{"town":"大字馬屋尻","koaza":"","lat":40.842231,"lng":140.823302,"zip":"0380000"},{"town":"大字宮田","koaza":"","lat":40.836603,"lng":140.850293,"zip":"0380000"},{"town":"大字雲谷","koaza":"","lat":40.729527,"lng":140.805245,"zip":"0380000"},{"town":"大字安田","koaza":"","lat":40.803367,"lng":140.712456,"zip":"0380000"},{"town":"大字矢田","koaza":"","lat":40.852342,"lng":140.852508,"zip":"0380000"},{"town":"大字矢田前","koaza":"","lat":40.829071,"lng":140.809232,"zip":"0380000"},{"town":"大字八ツ役","koaza":"","lat":40.788802,"lng":140.745644,"zip":"0380000"},{"town":"大字八幡林","koaza":"","lat":40.833999,"lng":140.82252,"zip":"0380000"},{"town":"大字横内","koaza":"","lat":40.766901,"lng":140.768363,"zip":"0380000"},{"town":"大字四ツ石","koaza":"","lat":40.764259,"lng":140.785005,"zip":"0380000"},{"town":"大字六枚橋","koaza":"","lat":40.929304,"lng":140.649511,"zip":"0380000"},{"town":"岡造道一丁目","koaza":"","lat":40.82549,"lng":140.785199,"zip":"0300914"},{"town":"岡造道二丁目","koaza":"","lat":40.826345,"lng":140.787564,"zip":"0300914"},{"town":"岡造道三丁目","koaza":"","lat":40.826208,"lng":140.791456,"zip":"0300914"},{"town":"沖館一丁目","koaza":"","lat":40.834207,"lng":140.725895,"zip":"0380002"},{"town":"沖館二丁目","koaza":"","lat":40.841661,"lng":140.720942,"zip":"0380002"},{"town":"沖館三丁目","koaza":"","lat":40.83742,"lng":140.722882,"zip":"0380002"},{"town":"沖館四丁目","koaza":"","lat":40.836411,"lng":140.720826,"zip":"0380002"},{"town":"沖館五丁目","koaza":"","lat":40.834491,"lng":140.720277,"zip":"0380002"},{"town":"奥野一丁目","koaza":"","lat":40.813078,"lng":140.756583,"zip":"0300841"},{"town":"奥野二丁目","koaza":"","lat":40.813219,"lng":140.761938,"zip":"0300841"},{"town":"奥野三丁目","koaza":"","lat":40.813055,"lng":140.765028,"zip":"0300841"},{"town":"奥野四丁目","koaza":"","lat":40.810286,"lng":140.760244,"zip":"0300841"},{"town":"卸町","koaza":"","lat":40.785233,"lng":140.754602,"zip":"0300137"},{"town":"勝田一丁目","koaza":"","lat":40.816784,"lng":140.753551,"zip":"0300821"},{"town":"勝田二丁目","koaza":"","lat":40.818174,"lng":140.757427,"zip":"0300821"},{"town":"合浦一丁目","koaza":"","lat":40.827999,"lng":140.771547,"zip":"0300902"},{"town":"合浦二丁目","koaza":"","lat":40.829538,"lng":140.778022,"zip":"0300902"},{"town":"桂木一丁目","koaza":"","lat":40.812231,"lng":140.742917,"zip":"0300844"},{"town":"桂木二丁目","koaza":"","lat":40.811613,"lng":140.744968,"zip":"0300844"},{"town":"桂木三丁目","koaza":"","lat":40.810631,"lng":140.748621,"zip":"0300844"},{"town":"桂木四丁目","koaza":"","lat":40.810232,"lng":140.752429,"zip":"0300844"},{"town":"金沢一丁目","koaza":"","lat":40.814106,"lng":140.734028,"zip":"0300853"},{"town":"金沢二丁目","koaza":"","lat":40.814143,"lng":140.729785,"zip":"0300853"},{"town":"金沢三丁目","koaza":"","lat":40.810901,"lng":140.734476,"zip":"0300853"},{"town":"金沢四丁目","koaza":"","lat":40.810419,"lng":140.730276,"zip":"0300853"},{"town":"金沢五丁目","koaza":"","lat":40.81165,"lng":140.726887,"zip":"0300853"},{"town":"北金沢一丁目","koaza":"","lat":40.820824,"lng":140.732588,"zip":"0300855"},{"town":"北金沢二丁目","koaza":"","lat":40.817569,"lng":140.732458,"zip":"0300855"},{"town":"久須志一丁目","koaza":"","lat":40.822502,"lng":140.729285,"zip":"0380013"},{"town":"久須志二丁目","koaza":"","lat":40.820302,"lng":140.728693,"zip":"0380013"},{"town":"久須志三丁目","koaza":"","lat":40.819035,"lng":140.72631,"zip":"0380013"},{"town":"久須志四丁目","koaza":"","lat":40.818052,"lng":140.723931,"zip":"0380013"},{"town":"けやき一丁目","koaza":"","lat":40.824167,"lng":140.80115,"zip":"0300918"},{"town":"けやき二丁目","koaza":"","lat":40.821718,"lng":140.799046,"zip":"0300918"},{"town":"幸畑一丁目","koaza":"","lat":40.781098,"lng":140.778464,"zip":"0300943"},{"town":"幸畑二丁目","koaza":"","lat":40.783706,"lng":140.781589,"zip":"0300943"},{"town":"幸畑三丁目","koaza":"","lat":40.781985,"lng":140.785953,"zip":"0300943"},{"town":"幸畑四丁目","koaza":"","lat":40.778963,"lng":140.788196,"zip":"0300943"},{"town":"幸畑五丁目","koaza":"","lat":40.777919,"lng":140.783433,"zip":"0300943"},{"town":"小柳一丁目","koaza":"","lat":40.821747,"lng":140.788551,"zip":"0300915"},{"town":"小柳二丁目","koaza":"","lat":40.823659,"lng":140.792482,"zip":"0300915"},{"town":"小柳三丁目","koaza":"","lat":40.821016,"lng":140.79426,"zip":"0300915"},{"town":"小柳四丁目","koaza":"","lat":40.818724,"lng":140.795661,"zip":"0300915"},{"town":"小柳五丁目","koaza":"","lat":40.816715,"lng":140.791003,"zip":"0300915"},{"town":"小柳六丁目","koaza":"","lat":40.819151,"lng":140.789416,"zip":"0300915"},{"town":"栄町一丁目","koaza":"","lat":40.824741,"lng":140.765524,"zip":"0300903"},{"town":"栄町二丁目","koaza":"","lat":40.825838,"lng":140.771751,"zip":"0300903"},{"town":"桜川一丁目","koaza":"","lat":40.817702,"lng":140.768875,"zip":"0300945"},{"town":"桜川二丁目","koaza":"","lat":40.814823,"lng":140.767362,"zip":"0300945"},{"town":"桜川三丁目","koaza":"","lat":40.816505,"lng":140.770302,"zip":"0300945"},{"town":"桜川四丁目","koaza":"","lat":40.814897,"lng":140.771098,"zip":"0300945"},{"town":"桜川五丁目","koaza":"","lat":40.813084,"lng":140.771245,"zip":"0300945"},{"town":"桜川六丁目","koaza":"","lat":40.810975,"lng":140.766675,"zip":"0300945"},{"town":"桜川七丁目","koaza":"","lat":40.810366,"lng":140.770541,"zip":"0300945"},{"town":"桜川八丁目","koaza":"","lat":40.80812,"lng":140.768905,"zip":"0300945"},{"town":"桜川九丁目","koaza":"","lat":40.808778,"lng":140.774555,"zip":"0300945"},{"town":"里見一丁目","koaza":"","lat":40.818798,"lng":140.710871,"zip":"0380032"},{"town":"里見二丁目","koaza":"","lat":40.816205,"lng":140.713894,"zip":"0380032"},{"town":"篠田一丁目","koaza":"","lat":40.827844,"lng":140.730365,"zip":"0380011"},{"town":"篠田二丁目","koaza":"","lat":40.827855,"lng":140.726486,"zip":"0380011"},{"town":"篠田三丁目","koaza":"","lat":40.828821,"lng":140.722673,"zip":"0380011"},{"town":"自由ケ丘一丁目","koaza":"","lat":40.81614,"lng":140.797492,"zip":"0300941"},{"town":"自由ケ丘二丁目","koaza":"","lat":40.813612,"lng":140.798885,"zip":"0300941"},{"town":"新町一丁目","koaza":"","lat":40.827154,"lng":140.737099,"zip":"0300801"},{"town":"新町二丁目","koaza":"","lat":40.825667,"lng":140.742611,"zip":"0300801"},{"town":"千刈一丁目","koaza":"","lat":40.824688,"lng":140.727278,"zip":"0380015"},{"town":"千刈二丁目","koaza":"","lat":40.825871,"lng":140.720577,"zip":"0380015"},{"town":"千刈三丁目","koaza":"","lat":40.823195,"lng":140.723932,"zip":"0380015"},{"town":"千刈四丁目","koaza":"","lat":40.823042,"lng":140.720818,"zip":"0380015"},{"town":"千富町一丁目","koaza":"","lat":40.816956,"lng":140.728524,"zip":"0300854"},{"town":"千富町二丁目","koaza":"","lat":40.813782,"lng":140.724772,"zip":"0300854"},{"town":"第二問屋町一丁目","koaza":"","lat":40.7942,"lng":140.75508,"zip":"0300113"},{"town":"第二問屋町二丁目","koaza":"","lat":40.793078,"lng":140.757856,"zip":"0300113"},{"town":"第二問屋町三丁目","koaza":"","lat":40.79259,"lng":140.750387,"zip":"0300113"},{"town":"第二問屋町四丁目","koaza":"","lat":40.789328,"lng":140.749784,"zip":"0300113"},{"town":"茶屋町","koaza":"","lat":40.826802,"lng":140.764709,"zip":"0300904"},{"town":"中央一丁目","koaza":"","lat":40.821454,"lng":140.747642,"zip":"0300822"},{"town":"中央二丁目","koaza":"","lat":40.819421,"lng":140.747431,"zip":"0300822"},{"town":"中央三丁目","koaza":"","lat":40.81678,"lng":140.747323,"zip":"0300822"},{"town":"中央四丁目","koaza":"","lat":40.814405,"lng":140.751065,"zip":"0300822"},{"town":"月見野一丁目","koaza":"","lat":40.793903,"lng":140.803712,"zip":"0300958"},{"town":"佃一丁目","koaza":"","lat":40.820437,"lng":140.774649,"zip":"0300962"},{"town":"佃二丁目","koaza":"","lat":40.820758,"lng":140.779379,"zip":"0300962"},{"town":"佃三丁目","koaza":"","lat":40.821642,"lng":140.783353,"zip":"0300962"},{"town":"造道一丁目","koaza":"","lat":40.832316,"lng":140.786058,"zip":"0300911"},{"town":"造道二丁目","koaza":"","lat":40.830195,"lng":140.783833,"zip":"0300911"},{"town":"造道三丁目","koaza":"","lat":40.830009,"lng":140.788379,"zip":"0300911"},{"town":"筒井一丁目","koaza":"","lat":40.807638,"lng":140.765507,"zip":"0300944"},{"town":"筒井二丁目","koaza":"","lat":40.80497,"lng":140.765872,"zip":"0300944"},{"town":"筒井三丁目","koaza":"","lat":40.804073,"lng":140.770326,"zip":"0300944"},{"town":"筒井四丁目","koaza":"","lat":40.805363,"lng":140.774608,"zip":"0300944"},{"town":"堤町一丁目","koaza":"","lat":40.824738,"lng":140.758364,"zip":"0300812"},{"town":"堤町二丁目","koaza":"","lat":40.822015,"lng":140.757081,"zip":"0300812"},{"town":"富田一丁目","koaza":"","lat":40.830548,"lng":140.718761,"zip":"0380004"},{"town":"富田二丁目","koaza":"","lat":40.828747,"lng":140.714013,"zip":"0380004"},{"town":"富田三丁目","koaza":"","lat":40.833134,"lng":140.711691,"zip":"0380004"},{"town":"富田四丁目","koaza":"","lat":40.836678,"lng":140.708726,"zip":"0380004"},{"town":"富田五丁目","koaza":"","lat":40.835499,"lng":140.714687,"zip":"0380004"},{"town":"問屋町一丁目","koaza":"","lat":40.790411,"lng":140.757248,"zip":"0300131"},{"town":"問屋町二丁目","koaza":"","lat":40.787265,"lng":140.754235,"zip":"0300131"},{"town":"長島一丁目","koaza":"","lat":40.824117,"lng":140.742314,"zip":"0300861"},{"town":"長島二丁目","koaza":"","lat":40.822404,"lng":140.741931,"zip":"0300861"},{"town":"長島三丁目","koaza":"","lat":40.820754,"lng":140.74145,"zip":"0300861"},{"town":"長島四丁目","koaza":"","lat":40.818844,"lng":140.741217,"zip":"0300861"},{"town":"中佃一丁目","koaza":"","lat":40.816218,"lng":140.777574,"zip":"0300963"},{"town":"中佃二丁目","koaza":"","lat":40.817189,"lng":140.782419,"zip":"0300963"},{"town":"中佃三丁目","koaza":"","lat":40.819129,"lng":140.784713,"zip":"0300963"},{"town":"浪打一丁目","koaza":"","lat":40.82483,"lng":140.777926,"zip":"0300961"},{"town":"浪打二丁目","koaza":"","lat":40.825482,"lng":140.781653,"zip":"0300961"},{"town":"浪岡大字相沢","koaza":"","lat":40.704865,"lng":140.656626,"zip":"0380000"},{"town":"浪岡大字王余魚沢","koaza":"","lat":40.699005,"lng":140.709988,"zip":"0380000"},{"town":"浪岡大字北中野","koaza":"","lat":40.710264,"lng":140.619077,"zip":"0380000"},{"town":"浪岡大字吉内","koaza":"","lat":40.69804,"lng":140.612243,"zip":"0380000"},{"town":"浪岡大字郷山前","koaza":"","lat":40.715394,"lng":140.541411,"zip":"0380000"},{"town":"浪岡大字五本松","koaza":"","lat":40.731929,"lng":140.632677,"zip":"0380000"},{"town":"浪岡大字下石川","koaza":"","lat":40.738356,"lng":140.541245,"zip":"0380000"},{"town":"浪岡大字下十川","koaza":"","lat":40.69332,"lng":140.558821,"zip":"0380000"},{"town":"浪岡大字銀","koaza":"","lat":40.704364,"lng":140.556964,"zip":"0380000"},{"town":"浪岡大字杉沢","koaza":"","lat":40.734285,"lng":140.606105,"zip":"0380000"},{"town":"浪岡大字大釈迦","koaza":"","lat":40.781462,"lng":140.582333,"zip":"0380000"},{"town":"浪岡大字高屋敷","koaza":"","lat":40.73874,"lng":140.582935,"zip":"0380000"},{"town":"浪岡大字樽沢","koaza":"","lat":40.711329,"lng":140.559124,"zip":"0380000"},{"town":"浪岡大字徳才子","koaza":"","lat":40.753758,"lng":140.579482,"zip":"0380000"},{"town":"浪岡大字長沼","koaza":"","lat":40.751044,"lng":140.596484,"zip":"0380000"},{"town":"浪岡大字浪岡","koaza":"","lat":40.713585,"lng":140.593023,"zip":"0380000"},{"town":"浪岡大字細野","koaza":"","lat":40.679316,"lng":140.692207,"zip":"0380000"},{"town":"浪岡大字本郷","koaza":"","lat":40.678537,"lng":140.652923,"zip":"0380000"},{"town":"浪岡大字増館","koaza":"","lat":40.678722,"lng":140.550265,"zip":"0380000"},{"town":"浪岡大字女鹿沢","koaza":"","lat":40.703177,"lng":140.576301,"zip":"0380000"},{"town":"浪岡大字吉野田","koaza":"","lat":40.738264,"lng":140.559458,"zip":"0380000"},{"town":"浪岡福田一丁目","koaza":"","lat":40.718327,"lng":140.585556,"zip":"0381306"},{"town":"浪岡福田二丁目","koaza":"","lat":40.720335,"lng":140.586361,"zip":"0381306"},{"town":"浪岡福田三丁目","koaza":"","lat":40.721906,"lng":140.587631,"zip":"0381306"},{"town":"浪館前田一丁目","koaza":"","lat":40.815369,"lng":140.721954,"zip":"0380024"},{"town":"浪館前田二丁目","koaza":"","lat":40.816618,"lng":140.718311,"zip":"0380024"},{"town":"浪館前田三丁目","koaza":"","lat":40.812465,"lng":140.716337,"zip":"0380024"},{"town":"浪館前田四丁目","koaza":"","lat":40.811804,"lng":140.721524,"zip":"0380024"},{"town":"西大野一丁目","koaza":"","lat":40.803702,"lng":140.726409,"zip":"0300856"},{"town":"西大野二丁目","koaza":"","lat":40.80266,"lng":140.723281,"zip":"0300856"},{"town":"西大野三丁目","koaza":"","lat":40.801617,"lng":140.726872,"zip":"0300856"},{"town":"西大野四丁目","koaza":"","lat":40.800604,"lng":140.729464,"zip":"0300856"},{"town":"西大野五丁目","koaza":"","lat":40.799127,"lng":140.724555,"zip":"0300856"},{"town":"虹ケ丘一丁目","koaza":"","lat":40.812205,"lng":140.794415,"zip":"0300948"},{"town":"虹ケ丘二丁目","koaza":"","lat":40.810629,"lng":140.794639,"zip":"0300948"},{"town":"西滝一丁目","koaza":"","lat":40.823357,"lng":140.717548,"zip":"0380014"},{"town":"西滝二丁目","koaza":"","lat":40.820105,"lng":140.718361,"zip":"0380014"},{"town":"西滝三丁目","koaza":"","lat":40.821453,"lng":140.713756,"zip":"0380014"},{"town":"新田一丁目","koaza":"","lat":40.841483,"lng":140.717238,"zip":"0380001"},{"town":"新田二丁目","koaza":"","lat":40.840146,"lng":140.713767,"zip":"0380001"},{"town":"新田三丁目","koaza":"","lat":40.843203,"lng":140.711364,"zip":"0380001"},{"town":"橋本一丁目","koaza":"","lat":40.824534,"lng":140.752484,"zip":"0300823"},{"town":"橋本二丁目","koaza":"","lat":40.822202,"lng":140.752543,"zip":"0300823"},{"town":"橋本三丁目","koaza":"","lat":40.819126,"lng":140.752741,"zip":"0300823"},{"town":"花園一丁目","koaza":"","lat":40.822509,"lng":140.766828,"zip":"0300966"},{"town":"花園二丁目","koaza":"","lat":40.823669,"lng":140.772702,"zip":"0300966"},{"town":"浜田一丁目","koaza":"","lat":40.802409,"lng":140.748267,"zip":"0300843"},{"town":"浜田二丁目","koaza":"","lat":40.802048,"lng":140.752229,"zip":"0300843"},{"town":"浜田三丁目","koaza":"","lat":40.798109,"lng":140.748981,"zip":"0300843"},{"town":"浜館一丁目","koaza":"","lat":40.807308,"lng":140.781541,"zip":"0300947"},{"town":"浜館二丁目","koaza":"","lat":40.808327,"lng":140.784243,"zip":"0300947"},{"town":"浜館三丁目","koaza":"","lat":40.809605,"lng":140.786752,"zip":"0300947"},{"town":"浜館四丁目","koaza":"","lat":40.810967,"lng":140.789525,"zip":"0300947"},{"town":"浜館五丁目","koaza":"","lat":40.807699,"lng":140.790054,"zip":"0300947"},{"town":"浜館六丁目","koaza":"","lat":40.80572,"lng":140.785093,"zip":"0300947"},{"town":"はまなす一丁目","koaza":"","lat":40.824358,"lng":140.795764,"zip":"0300919"},{"town":"はまなす二丁目","koaza":"","lat":40.824643,"lng":140.797921,"zip":"0300919"},{"town":"原別一丁目","koaza":"","lat":40.838368,"lng":140.801292,"zip":"0300921"},{"town":"原別二丁目","koaza":"","lat":40.837668,"lng":140.804642,"zip":"0300921"},{"town":"原別三丁目","koaza":"","lat":40.835975,"lng":140.806213,"zip":"0300921"},{"town":"原別四丁目","koaza":"","lat":40.839542,"lng":140.809322,"zip":"0300921"},{"town":"原別五丁目","koaza":"","lat":40.840878,"lng":140.808357,"zip":"0300921"},{"town":"原別六丁目","koaza":"","lat":40.842384,"lng":140.807155,"zip":"0300921"},{"town":"原別七丁目","koaza":"","lat":40.846838,"lng":140.813271,"zip":"0300921"},{"town":"原別八丁目","koaza":"","lat":40.843625,"lng":140.811785,"zip":"0300921"},{"town":"東大野一丁目","koaza":"","lat":40.802751,"lng":140.743296,"zip":"0300847"},{"town":"東大野二丁目","koaza":"","lat":40.798653,"lng":140.743611,"zip":"0300847"},{"town":"東造道一丁目","koaza":"","lat":40.832013,"lng":140.793341,"zip":"0300913"},{"town":"東造道二丁目","koaza":"","lat":40.829411,"lng":140.794407,"zip":"0300913"},{"town":"東造道三丁目","koaza":"","lat":40.828238,"lng":140.796589,"zip":"0300913"},{"town":"古川一丁目","koaza":"","lat":40.825375,"lng":140.736241,"zip":"0300862"},{"town":"古川二丁目","koaza":"","lat":40.822736,"lng":140.736858,"zip":"0300862"},{"town":"古川三丁目","koaza":"","lat":40.821941,"lng":140.734513,"zip":"0300862"},{"town":"古館一丁目","koaza":"","lat":40.8048,"lng":140.779545,"zip":"0300946"},{"town":"蛍沢一丁目","koaza":"","lat":40.799875,"lng":140.798277,"zip":"0300957"},{"town":"蛍沢二丁目","koaza":"","lat":40.803824,"lng":140.801361,"zip":"0300957"},{"town":"蛍沢三丁目","koaza":"","lat":40.800071,"lng":140.800789,"zip":"0300957"},{"town":"蛍沢四丁目","koaza":"","lat":40.796814,"lng":140.804585,"zip":"0300957"},{"town":"本町一丁目","koaza":"","lat":40.824261,"lng":140.747852,"zip":"0300802"},{"town":"本町二丁目","koaza":"","lat":40.82664,"lng":140.74797,"zip":"0300802"},{"town":"本町三丁目","koaza":"","lat":40.829092,"lng":140.747939,"zip":"0300802"},{"town":"本町五丁目","koaza":"","lat":40.826811,"lng":140.752428,"zip":"0300802"},{"town":"松原一丁目","koaza":"","lat":40.821532,"lng":140.761989,"zip":"0300813"},{"town":"松原二丁目","koaza":"","lat":40.819556,"lng":140.76267,"zip":"0300813"},{"town":"松原三丁目","koaza":"","lat":40.817305,"lng":140.763386,"zip":"0300813"},{"town":"松森一丁目","koaza":"","lat":40.819478,"lng":140.769637,"zip":"0300965"},{"town":"松森二丁目","koaza":"","lat":40.815822,"lng":140.774385,"zip":"0300965"},{"town":"松森三丁目","koaza":"","lat":40.810713,"lng":140.776739,"zip":"0300965"},{"town":"緑一丁目","koaza":"","lat":40.808162,"lng":140.74336,"zip":"0300845"},{"town":"緑二丁目","koaza":"","lat":40.807491,"lng":140.748162,"zip":"0300845"},{"town":"緑三丁目","koaza":"","lat":40.806753,"lng":140.752844,"zip":"0300845"},{"town":"港町一丁目","koaza":"","lat":40.828503,"lng":140.763374,"zip":"0300901"},{"town":"港町二丁目","koaza":"","lat":40.83199,"lng":140.764784,"zip":"0300901"},{"town":"港町三丁目","koaza":"","lat":40.831565,"lng":140.771138,"zip":"0300901"},{"town":"南佃一丁目","koaza":"","lat":40.811793,"lng":140.779518,"zip":"0300964"},{"town":"南佃二丁目","koaza":"","lat":40.814957,"lng":140.785431,"zip":"0300964"},{"town":"妙見一丁目","koaza":"","lat":40.793515,"lng":140.762709,"zip":"0300121"},{"town":"妙見二丁目","koaza":"","lat":40.791244,"lng":140.763033,"zip":"0300121"},{"town":"妙見三丁目","koaza":"","lat":40.788249,"lng":140.763461,"zip":"0300121"},{"town":"三好一丁目","koaza":"","lat":40.833858,"lng":140.704699,"zip":"0380006"},{"town":"三好二丁目","koaza":"","lat":40.832105,"lng":140.703674,"zip":"0380006"},{"town":"本泉一丁目","koaza":"","lat":40.830288,"lng":140.803812,"zip":"0300937"},{"town":"本泉二丁目","koaza":"","lat":40.832051,"lng":140.80474,"zip":"0300937"},{"town":"八重田一丁目","koaza":"","lat":40.834782,"lng":140.791797,"zip":"0300912"},{"town":"八重田二丁目","koaza":"","lat":40.833734,"lng":140.796811,"zip":"0300912"},{"town":"八重田三丁目","koaza":"","lat":40.83098,"lng":140.799465,"zip":"0300912"},{"town":"八重田四丁目","koaza":"","lat":40.827828,"lng":140.801315,"zip":"0300912"},{"town":"矢作一丁目","koaza":"","lat":40.836644,"lng":140.800761,"zip":"0300917"},{"town":"矢作二丁目","koaza":"","lat":40.834709,"lng":140.800535,"zip":"0300917"},{"town":"矢作三丁目","koaza":"","lat":40.83383,"lng":140.801888,"zip":"0300917"},{"town":"安方一丁目","koaza":"","lat":40.82914,"lng":140.737941,"zip":"0300803"},{"town":"安方二丁目","koaza":"","lat":40.828547,"lng":140.743124,"zip":"0300803"},{"town":"柳川一丁目","koaza":"","lat":40.828243,"lng":140.733465,"zip":"0380012"},{"town":"柳川二丁目","koaza":"","lat":40.832853,"lng":140.730129,"zip":"0380012"},{"town":"石江一丁目","koaza":"","lat":40.832004,"lng":140.695387,"zip":"0380003"},{"town":"石江二丁目","koaza":"","lat":40.829141,"lng":140.695172,"zip":"0380003"},{"town":"石江三丁目","koaza":"","lat":40.828952,"lng":140.691888,"zip":"0380003"},{"town":"石江四丁目","koaza":"","lat":40.832051,"lng":140.691861,"zip":"0380003"},{"town":"石江五丁目","koaza":"","lat":40.830918,"lng":140.688917,"zip":"0380003"},{"town":"本町四丁目","koaza":"","lat":40.829187,"lng":140.752351,"zip":"0300802"},{"town":"浪岡大字下石川","koaza":"岡田","lat":40.734852,"lng":140.532559,"zip":"0380000"},{"town":"浪岡大字下石川","koaza":"平野","lat":40.733675,"lng":140.53663,"zip":"0380000"},{"town":"浪岡大字吉野田","koaza":"樋田","lat":40.724992,"lng":140.540448,"zip":"0380000"},{"town":"浪岡大字吉野田","koaza":"木戸口","lat":40.726192,"lng":140.541339,"zip":"0380000"},{"town":"浪岡大字吉野田","koaza":"吉野","lat":40.72085,"lng":140.543234,"zip":"0380000"},{"town":"浪岡大字増館","koaza":"宮元","lat":40.682477,"lng":140.549962,"zip":"0380000"},{"town":"浪岡大字増館","koaza":"若柳","lat":40.680399,"lng":140.546695,"zip":"0380000"},{"town":"浪岡大字下十川","koaza":"大沼袋","lat":40.687235,"lng":140.55549,"zip":"0380000"},{"town":"浪岡大字吉野田","koaza":"平野","lat":40.721002,"lng":140.551851,"zip":"0380000"},{"town":"浪岡大字郷山前","koaza":"村元","lat":40.713882,"lng":140.550418,"zip":"0380000"},{"town":"浪岡大字郷山前","koaza":"永原","lat":40.717042,"lng":140.547443,"zip":"0380000"},{"town":"浪岡大字下十川","koaza":"富岡","lat":40.69376,"lng":140.548863,"zip":"0380000"},{"town":"浪岡大字増館","koaza":"富岡","lat":40.68073,"lng":140.548609,"zip":"0380000"},{"town":"浪岡大字郷山前","koaza":"上野","lat":40.716893,"lng":140.550928,"zip":"0380000"},{"town":"浪岡大字樽沢","koaza":"村元","lat":40.709995,"lng":140.557755,"zip":"0380000"},{"town":"浪岡大字下十川","koaza":"白鳥沼","lat":40.688027,"lng":140.557741,"zip":"0380000"},{"town":"浪岡大字銀","koaza":"杉田","lat":40.705221,"lng":140.561185,"zip":"0380000"},{"town":"浪岡大字下十川","koaza":"扇田","lat":40.696169,"lng":140.563125,"zip":"0380000"},{"town":"浪岡大字樽沢","koaza":"上野","lat":40.711577,"lng":140.564511,"zip":"0380000"},{"town":"浪岡大字銀","koaza":"前田","lat":40.700797,"lng":140.561644,"zip":"0380000"},{"town":"浪岡大字下十川","koaza":"村元","lat":40.69516,"lng":140.562354,"zip":"0380000"},{"town":"浪岡大字女鹿沢","koaza":"平野","lat":40.70844,"lng":140.571986,"zip":"0380000"},{"town":"浪岡大字女鹿沢","koaza":"西富田","lat":40.702686,"lng":140.568574,"zip":"0380000"},{"town":"浪岡大字徳才子","koaza":"山本","lat":40.753883,"lng":140.582403,"zip":"0380000"},{"town":"浪岡大字女鹿沢","koaza":"野尻","lat":40.712795,"lng":140.574204,"zip":"0380000"},{"town":"浪岡大字杉沢","koaza":"山元","lat":40.72263,"lng":140.582991,"zip":"0380000"},{"town":"浪岡大字女鹿沢","koaza":"東富田","lat":40.703478,"lng":140.577258,"zip":"0380000"},{"town":"浪岡大字女鹿沢","koaza":"西花岡","lat":40.70884,"lng":140.577318,"zip":"0380000"},{"town":"浪岡大字女鹿沢","koaza":"西増田","lat":40.70295,"lng":140.579975,"zip":"0380000"},{"town":"浪岡大字高屋敷","koaza":"野尻","lat":40.739299,"lng":140.579649,"zip":"0380000"},{"town":"浪岡大字女鹿沢","koaza":"東花岡","lat":40.709004,"lng":140.581474,"zip":"0380000"},{"town":"浪岡大字浪岡","koaza":"細田","lat":40.711391,"lng":140.5866,"zip":"0380000"},{"town":"浪岡大字女鹿沢","koaza":"東種本","lat":40.708286,"lng":140.586027,"zip":"0380000"},{"town":"浪岡大字大釈迦","koaza":"前田","lat":40.758099,"lng":140.587052,"zip":"0380000"},{"town":"浪岡大字浪岡","koaza":"川合","lat":40.713479,"lng":140.588314,"zip":"0380000"},{"town":"浪岡大字浪岡","koaza":"平野","lat":40.715644,"lng":140.588284,"zip":"0380000"},{"town":"浪岡大字杉沢","koaza":"上福田","lat":40.726262,"lng":140.587787,"zip":"0380000"},{"town":"浪岡大字徳才子","koaza":"船岡","lat":40.747336,"lng":140.587316,"zip":"0380000"},{"town":"浪岡大字大釈迦","koaza":"沢田","lat":40.769618,"lng":140.595763,"zip":"0380000"},{"town":"浪岡大字高屋敷","koaza":"社元","lat":40.738336,"lng":140.587986,"zip":"0380000"},{"town":"浪岡大字徳才子","koaza":"早稲田","lat":40.750311,"lng":140.587613,"zip":"0380000"},{"town":"浪岡大字浪岡","koaza":"稲盛","lat":40.703885,"lng":140.591026,"zip":"0380000"},{"town":"浪岡大字杉沢","koaza":"井ノ上","lat":40.725273,"lng":140.589817,"zip":"0380000"},{"town":"浪岡大字高屋敷","koaza":"宅社元","lat":40.734788,"lng":140.586411,"zip":"0380000"},{"town":"浪岡大字浪岡","koaza":"若松","lat":40.709547,"lng":140.590615,"zip":"0380000"},{"town":"浪岡大字徳才子","koaza":"福田","lat":40.750776,"lng":140.58937,"zip":"0380000"},{"town":"浪岡大字高屋敷","koaza":"福田","lat":40.72931,"lng":140.588565,"zip":"0380000"},{"town":"浪岡大字長沼","koaza":"北藤巻","lat":40.751208,"lng":140.592693,"zip":"0380000"},{"town":"浪岡大字浪岡","koaza":"稲村","lat":40.707013,"lng":140.59487,"zip":"0380000"},{"town":"浪岡大字浪岡","koaza":"淋城","lat":40.71812,"lng":140.598546,"zip":"0380000"},{"town":"浪岡大字大釈迦","koaza":"山田","lat":40.75855,"lng":140.592314,"zip":"0380000"},{"town":"浪岡大字浪岡","koaza":"佐野","lat":40.721657,"lng":140.595217,"zip":"0380000"},{"town":"浪岡大字浪岡","koaza":"林本","lat":40.715733,"lng":140.597731,"zip":"0380000"},{"town":"浪岡大字浪岡","koaza":"松嶋","lat":40.72303,"lng":140.595204,"zip":"0380000"},{"town":"浪岡大字女鹿沢","koaza":"東早稲田","lat":40.700823,"lng":140.5958,"zip":"0380000"},{"town":"浪岡大字浪岡","koaza":"浅井","lat":40.712198,"lng":140.595855,"zip":"0380000"},{"town":"浪岡大字浪岡","koaza":"岡田","lat":40.713639,"lng":140.597992,"zip":"0380000"},{"town":"浪岡大字北中野","koaza":"北畠","lat":40.708127,"lng":140.598311,"zip":"0380000"},{"town":"浪岡大字北中野","koaza":"下嶋田","lat":40.709437,"lng":140.600734,"zip":"0380000"},{"town":"浪岡大字北中野","koaza":"天王","lat":40.713342,"lng":140.609067,"zip":"0380000"},{"town":"浪岡大字浪岡","koaza":"前田","lat":40.719073,"lng":140.604369,"zip":"0380000"},{"town":"浪岡大字北中野","koaza":"上嶋田","lat":40.707741,"lng":140.604634,"zip":"0380000"},{"town":"浪岡大字北中野","koaza":"林元","lat":40.707424,"lng":140.606906,"zip":"0380000"},{"town":"浪岡大字五本松","koaza":"岡本","lat":40.721688,"lng":140.609917,"zip":"0380000"},{"town":"浪岡大字北中野","koaza":"五倫","lat":40.705775,"lng":140.608641,"zip":"0380000"},{"town":"浪岡大字吉内","koaza":"富田","lat":40.699669,"lng":140.610664,"zip":"0380000"},{"town":"浪岡大字北中野","koaza":"中坪","lat":40.71216,"lng":140.611639,"zip":"0380000"},{"town":"浪岡大字五本松","koaza":"平野","lat":40.725778,"lng":140.618102,"zip":"0380000"},{"town":"浪岡大字本郷","koaza":"平岡","lat":40.693105,"lng":140.61466,"zip":"0380000"},{"town":"浪岡大字本郷","koaza":"一本柳","lat":40.696353,"lng":140.612725,"zip":"0380000"},{"town":"浪岡大字吉内","koaza":"東留岡","lat":40.698002,"lng":140.612385,"zip":"0380000"},{"town":"浪岡大字吉内","koaza":"山下","lat":40.69795,"lng":140.615784,"zip":"0380000"},{"town":"浪岡大字五本松","koaza":"松本","lat":40.720481,"lng":140.612764,"zip":"0380000"},{"town":"浪岡大字本郷","koaza":"岸田","lat":40.691631,"lng":140.615005,"zip":"0380000"},{"town":"浪岡大字本郷","koaza":"柳田","lat":40.694127,"lng":140.614892,"zip":"0380000"},{"town":"浪岡大字本郷","koaza":"篠原","lat":40.693752,"lng":140.62031,"zip":"0380000"},{"town":"浪岡大字五本松","koaza":"羽黒平","lat":40.724065,"lng":140.618213,"zip":"0380000"},{"town":"浪岡大字本郷","koaza":"豊田","lat":40.688681,"lng":140.618751,"zip":"0380000"},{"town":"浪岡大字本郷","koaza":"松元","lat":40.691053,"lng":140.621474,"zip":"0380000"},{"town":"浪岡大字本郷","koaza":"田ノ沢","lat":40.694424,"lng":140.62305,"zip":"0380000"},{"town":"浪岡大字五本松","koaza":"野脇","lat":40.727056,"lng":140.628313,"zip":"0380000"},{"town":"大字戸門","koaza":"土筆山","lat":40.813931,"lng":140.644147,"zip":"0380000"},{"town":"大字戸門","koaza":"山部","lat":40.810989,"lng":140.640408,"zip":"0380000"},{"town":"大字新城","koaza":"山田","lat":40.826648,"lng":140.660257,"zip":"0380000"},{"town":"大字新城","koaza":"天田内","lat":40.838557,"lng":140.668731,"zip":"0380000"},{"town":"浪岡大字王余魚沢","koaza":"北村元","lat":40.724141,"lng":140.662334,"zip":"0380000"},{"town":"大字新城","koaza":"平岡","lat":40.817519,"lng":140.678011,"zip":"0380000"},{"town":"大字清水","koaza":"浜元","lat":40.903729,"lng":140.669703,"zip":"0380000"},{"town":"大字岩渡","koaza":"熊沢","lat":40.781067,"lng":140.669655,"zip":"0380000"},{"town":"大字羽白","koaza":"野木和","lat":40.848159,"lng":140.676969,"zip":"0380000"},{"town":"大字奥内","koaza":"宮田","lat":40.887681,"lng":140.675015,"zip":"0380000"},{"town":"大字西田沢","koaza":"沖津","lat":40.866895,"lng":140.677893,"zip":"0380000"},{"town":"大字前田","koaza":"中野","lat":40.896028,"lng":140.674592,"zip":"0380000"},{"town":"大字飛鳥","koaza":"岸田","lat":40.876682,"lng":140.67849,"zip":"0380000"},{"town":"大字奥内","koaza":"川合","lat":40.891068,"lng":140.675398,"zip":"0380000"},{"town":"大字前田","koaza":"湯の沢","lat":40.899216,"lng":140.673437,"zip":"0380000"},{"town":"大字飛鳥","koaza":"塩越","lat":40.873733,"lng":140.68173,"zip":"0380000"},{"town":"大字瀬戸子","koaza":"神田","lat":40.884705,"lng":140.676865,"zip":"0380000"},{"town":"大字飛鳥","koaza":"福浦","lat":40.879733,"lng":140.676255,"zip":"0380000"},{"town":"大字瀬戸子","koaza":"磯田","lat":40.882135,"lng":140.678759,"zip":"0380000"},{"town":"大字西田沢","koaza":"浜田","lat":40.860882,"lng":140.684726,"zip":"0380000"},{"town":"大字大谷","koaza":"小谷","lat":40.735303,"lng":140.690494,"zip":"0380000"},{"town":"大字岡町","koaza":"宮本","lat":40.841286,"lng":140.670928,"zip":"0380000"},{"town":"大字羽白","koaza":"沢田","lat":40.856987,"lng":140.686141,"zip":"0380000"},{"town":"大字羽白","koaza":"池上","lat":40.852912,"lng":140.683778,"zip":"0380000"},{"town":"大字新城","koaza":"福田","lat":40.835279,"lng":140.688426,"zip":"0380000"},{"town":"大字石江","koaza":"平山","lat":40.818453,"lng":140.68238,"zip":"0380000"},{"town":"大字岡町","koaza":"藤戸","lat":40.842388,"lng":140.684497,"zip":"0380000"},{"town":"大字羽白","koaza":"富田","lat":40.849651,"lng":140.688722,"zip":"0380000"},{"town":"大字三内","koaza":"丸山","lat":40.809838,"lng":140.695794,"zip":"0380000"},{"town":"大字岡町","koaza":"松本","lat":40.840905,"lng":140.68685,"zip":"0380000"},{"town":"大字石江","koaza":"江渡","lat":40.824087,"lng":140.695273,"zip":"0380000"},{"town":"大字三内","koaza":"沢部","lat":40.817354,"lng":140.693408,"zip":"0380000"},{"town":"大字油川","koaza":"船岡","lat":40.848873,"lng":140.692914,"zip":"0380000"},{"town":"大字油川","koaza":"実法","lat":40.84695,"lng":140.695421,"zip":"0380000"},{"town":"大字油川","koaza":"大浜","lat":40.854976,"lng":140.696014,"zip":"0380000"},{"town":"大字石江","koaza":"高間","lat":40.828533,"lng":140.696572,"zip":"0380000"},{"town":"大字油川","koaza":"中道","lat":40.84917,"lng":140.695855,"zip":"0380000"},{"town":"大字安田","koaza":"近野","lat":40.805128,"lng":140.70696,"zip":"0380000"},{"town":"大字石江","koaza":"岡部","lat":40.82767,"lng":140.703651,"zip":"0380000"},{"town":"大字油川","koaza":"浪返","lat":40.850817,"lng":140.698629,"zip":"0380000"},{"town":"大字石江","koaza":"三好","lat":40.830105,"lng":140.706056,"zip":"0380000"},{"town":"大字細越","koaza":"栄山","lat":40.788734,"lng":140.710287,"zip":"0380000"},{"town":"大字油川","koaza":"千刈","lat":40.845808,"lng":140.705883,"zip":"0380000"},{"town":"大字大谷","koaza":"山ノ内","lat":40.746954,"lng":140.704053,"zip":"0380000"},{"town":"大字油川","koaza":"柳川","lat":40.844856,"lng":140.70251,"zip":"0380000"},{"town":"大字油川","koaza":"岡田","lat":40.842691,"lng":140.707958,"zip":"0380000"},{"town":"大字三内","koaza":"稲元","lat":40.82311,"lng":140.709422,"zip":"0380000"},{"town":"大字浪館","koaza":"平岡","lat":40.811443,"lng":140.713781,"zip":"0380000"},{"town":"大字安田","koaza":"稲森","lat":40.802823,"lng":140.714309,"zip":"0380000"},{"town":"大字高田","koaza":"朝日山","lat":40.773077,"lng":140.710486,"zip":"0380000"},{"town":"大字細越","koaza":"浅田","lat":40.785816,"lng":140.714082,"zip":"0380000"},{"town":"大字細越","koaza":"常盤","lat":40.795314,"lng":140.713235,"zip":"0380000"},{"town":"大字小館","koaza":"桜刈","lat":40.742212,"lng":140.720783,"zip":"0380000"},{"town":"大字浪館","koaza":"前田","lat":40.808202,"lng":140.717774,"zip":"0380000"},{"town":"大字高田","koaza":"日野","lat":40.769989,"lng":140.720596,"zip":"0380000"},{"town":"大字安田","koaza":"若松","lat":40.805569,"lng":140.71979,"zip":"0380000"},{"town":"大字浪館","koaza":"志田","lat":40.808621,"lng":140.719861,"zip":"0380000"},{"town":"大字高田","koaza":"川瀬","lat":40.765711,"lng":140.722082,"zip":"0380000"},{"town":"大字野沢","koaza":"小牧野","lat":40.732402,"lng":140.72894,"zip":"0380000"},{"town":"大字野沢","koaza":"沢部","lat":40.754644,"lng":140.723307,"zip":"0380000"},{"town":"大字大野","koaza":"鳴滝","lat":40.805441,"lng":140.725521,"zip":"0380000"},{"town":"大字荒川","koaza":"品川","lat":40.779282,"lng":140.727704,"zip":"0380000"},{"town":"大字荒川","koaza":"筒井","lat":40.779752,"lng":140.734008,"zip":"0380000"},{"town":"大字大野","koaza":"金沢","lat":40.808087,"lng":140.728377,"zip":"0380000"},{"town":"大字荒川","koaza":"松尾","lat":40.781541,"lng":140.729496,"zip":"0380000"},{"town":"大字大別内","koaza":"西田","lat":40.759841,"lng":140.728505,"zip":"0380000"},{"town":"大字大別内","koaza":"萩原","lat":40.758689,"lng":140.728124,"zip":"0380000"},{"town":"大字大野","koaza":"山下","lat":40.805652,"lng":140.733652,"zip":"0380000"},{"town":"大字大野","koaza":"玉島","lat":40.798859,"lng":140.730671,"zip":"0380000"},{"town":"大字金浜","koaza":"船岡","lat":40.770137,"lng":140.73001,"zip":"0380000"},{"town":"大字金浜","koaza":"伊吹","lat":40.767503,"lng":140.73431,"zip":"0380000"},{"town":"大字大野","koaza":"若宮","lat":40.803671,"lng":140.735044,"zip":"0380000"},{"town":"大字大野","koaza":"前田","lat":40.799394,"lng":140.736058,"zip":"0380000"},{"town":"大字荒川","koaza":"柴田","lat":40.786616,"lng":140.736323,"zip":"0380000"},{"town":"大字野沢","koaza":"稲荷沢","lat":40.730011,"lng":140.736845,"zip":"0380000"},{"town":"大字野木","koaza":"野尻","lat":40.766634,"lng":140.741005,"zip":"0380000"},{"town":"大字金浜","koaza":"稲田","lat":40.774259,"lng":140.735705,"zip":"0380000"},{"town":"大字大野","koaza":"片岡","lat":40.810888,"lng":140.739406,"zip":"0380000"},{"town":"大字荒川","koaza":"成瀬","lat":40.79485,"lng":140.742387,"zip":"0380000"},{"town":"大字野木","koaza":"山口","lat":40.762773,"lng":140.745448,"zip":"0380000"},{"town":"大字上野","koaza":"山辺","lat":40.773315,"lng":140.740138,"zip":"0380000"},{"town":"大字八ツ役","koaza":"芦谷","lat":40.785409,"lng":140.746091,"zip":"0380000"},{"town":"大字浦町","koaza":"奥野","lat":40.810207,"lng":140.754437,"zip":"0380000"},{"town":"大字牛館","koaza":"松枝","lat":40.781696,"lng":140.749373,"zip":"0380000"},{"town":"大字牛館","koaza":"岡部","lat":40.779725,"lng":140.749436,"zip":"0380000"},{"town":"大字浜田","koaza":"豊田","lat":40.799813,"lng":140.754656,"zip":"0380000"},{"town":"大字新町野","koaza":"菅谷","lat":40.773592,"lng":140.755379,"zip":"0380000"},{"town":"大字合子沢","koaza":"松森","lat":40.763946,"lng":140.754363,"zip":"0380000"},{"town":"大字新町野","koaza":"幾田","lat":40.783109,"lng":140.75306,"zip":"0380000"},{"town":"大字浜田","koaza":"玉川","lat":40.801377,"lng":140.759771,"zip":"0380000"},{"town":"大字八ツ役","koaza":"矢作","lat":40.796254,"lng":140.758015,"zip":"0380000"},{"town":"大字合子沢","koaza":"山崎","lat":40.763596,"lng":140.765365,"zip":"0380000"},{"town":"大字横内","koaza":"神田","lat":40.779568,"lng":140.763645,"zip":"0380000"},{"town":"大字野尻","koaza":"今田","lat":40.783518,"lng":140.7656,"zip":"0380000"},{"town":"大字筒井","koaza":"八ツ橋","lat":40.798185,"lng":140.772001,"zip":"0380000"},{"town":"大字横内","koaza":"桜峰","lat":40.764541,"lng":140.770256,"zip":"0380000"},{"town":"大字横内","koaza":"亀井","lat":40.77352,"lng":140.76873,"zip":"0380000"},{"town":"大字野尻","koaza":"野田","lat":40.782072,"lng":140.768471,"zip":"0380000"},{"town":"大字幸畑","koaza":"唐崎","lat":40.793633,"lng":140.779705,"zip":"0380000"},{"town":"大字雲谷","koaza":"山吹","lat":40.744137,"lng":140.779894,"zip":"0380000"},{"town":"大字四ツ石","koaza":"里見","lat":40.772145,"lng":140.778954,"zip":"0380000"},{"town":"大字大矢沢","koaza":"里見","lat":40.78171,"lng":140.775596,"zip":"0380000"},{"town":"大字大矢沢","koaza":"野田","lat":40.783597,"lng":140.772516,"zip":"0380000"},{"town":"大字筒井","koaza":"桜川","lat":40.800292,"lng":140.77701,"zip":"0380000"},{"town":"大字幸畑","koaza":"松元","lat":40.789175,"lng":140.782292,"zip":"0380000"},{"town":"大字幸畑","koaza":"谷脇","lat":40.791407,"lng":140.787539,"zip":"0380000"},{"town":"大字駒込","koaza":"桐ノ沢","lat":40.796734,"lng":140.789585,"zip":"0380000"},{"town":"大字古館","koaza":"大柳","lat":40.800734,"lng":140.782243,"zip":"0380000"},{"town":"大字幸畑","koaza":"阿部野","lat":40.779715,"lng":140.792047,"zip":"0380000"},{"town":"大字駒込","koaza":"見吉","lat":40.800017,"lng":140.790274,"zip":"0380000"},{"town":"大字浜館","koaza":"間瀬","lat":40.811677,"lng":140.791316,"zip":"0380000"},{"town":"大字駒込","koaza":"前田","lat":40.800749,"lng":140.793639,"zip":"0380000"},{"town":"大字駒込","koaza":"月見野","lat":40.790613,"lng":140.802487,"zip":"0380000"},{"town":"大字浜館","koaza":"科","lat":40.806819,"lng":140.79165,"zip":"0380000"},{"town":"大字駒込","koaza":"蛍沢","lat":40.797543,"lng":140.80044,"zip":"0380000"},{"town":"大字戸山","koaza":"安原","lat":40.810813,"lng":140.79918,"zip":"0380000"},{"town":"大字田茂木野","koaza":"阿部野","lat":40.766667,"lng":140.799718,"zip":"0380000"},{"town":"大字田茂木野","koaza":"田茂木沢","lat":40.762108,"lng":140.799738,"zip":"0380000"},{"town":"大字戸山","koaza":"荒井","lat":40.806057,"lng":140.799777,"zip":"0380000"},{"town":"大字戸山","koaza":"宮崎","lat":40.810844,"lng":140.804845,"zip":"0380000"},{"town":"大字戸山","koaza":"赤坂","lat":40.8072,"lng":140.809153,"zip":"0380000"},{"town":"大字矢田前","koaza":"本泉","lat":40.830038,"lng":140.806291,"zip":"0380000"},{"town":"大字矢田前","koaza":"弥生田","lat":40.829432,"lng":140.811501,"zip":"0380000"},{"town":"大字桑原","koaza":"稲葉","lat":40.81892,"lng":140.808911,"zip":"0380000"},{"town":"大字原別","koaza":"遠山","lat":40.834311,"lng":140.807605,"zip":"0380000"},{"town":"大字田茂木野","koaza":"大沢","lat":40.756701,"lng":140.802409,"zip":"0380000"},{"town":"大字原別","koaza":"袖崎","lat":40.834257,"lng":140.810831,"zip":"0380000"},{"town":"大字矢田前","koaza":"浅井","lat":40.831791,"lng":140.809451,"zip":"0380000"},{"town":"大字原別","koaza":"下海原","lat":40.835775,"lng":140.814051,"zip":"0380000"},{"town":"大字戸崎","koaza":"宮井","lat":40.812662,"lng":140.812899,"zip":"0380000"},{"town":"大字平新田","koaza":"森越","lat":40.830247,"lng":140.81529,"zip":"0380000"},{"town":"大字後萢","koaza":"前橋","lat":40.825535,"lng":140.812485,"zip":"0380000"},{"town":"大字泉野","koaza":"内野","lat":40.84107,"lng":140.814259,"zip":"0380000"},{"town":"大字平新田","koaza":"玉清水","lat":40.833498,"lng":140.813172,"zip":"0380000"},{"town":"大字後萢","koaza":"久堅","lat":40.828122,"lng":140.81479,"zip":"0380000"},{"town":"大字桑原","koaza":"山崎","lat":40.821316,"lng":140.813852,"zip":"0380000"},{"town":"大字野内","koaza":"菊川","lat":40.849109,"lng":140.81937,"zip":"0380000"},{"town":"大字平新田","koaza":"池上","lat":40.831383,"lng":140.820552,"zip":"0380000"},{"town":"大字八幡林","koaza":"熊谷","lat":40.835557,"lng":140.820345,"zip":"0380000"},{"town":"大字八幡林","koaza":"三島","lat":40.834757,"lng":140.821132,"zip":"0380000"},{"town":"大字諏訪沢","koaza":"桜川","lat":40.828533,"lng":140.826076,"zip":"0380000"},{"town":"大字沢山","koaza":"平野","lat":40.788349,"lng":140.830791,"zip":"0380000"},{"town":"大字八幡林","koaza":"品川","lat":40.833769,"lng":140.824408,"zip":"0380000"},{"town":"大字野内","koaza":"鈴森","lat":40.851293,"lng":140.826205,"zip":"0380000"},{"town":"大字沢山","koaza":"野際","lat":40.790826,"lng":140.824443,"zip":"0380000"},{"town":"大字馬屋尻","koaza":"小金沢","lat":40.838664,"lng":140.827367,"zip":"0380000"},{"town":"大字宮田","koaza":"玉水","lat":40.838733,"lng":140.836972,"zip":"0380000"},{"town":"大字諏訪沢","koaza":"野田","lat":40.825125,"lng":140.830448,"zip":"0380000"},{"town":"大字諏訪沢","koaza":"岩田","lat":40.831218,"lng":140.830851,"zip":"0380000"},{"town":"大字野内","koaza":"浦島","lat":40.858379,"lng":140.826247,"zip":"0380000"},{"town":"大字諏訪沢","koaza":"松代","lat":40.829572,"lng":140.833678,"zip":"0380000"},{"town":"大字野内","koaza":"小笹","lat":40.8462,"lng":140.834526,"zip":"0380000"},{"town":"大字三本木","koaza":"川崎","lat":40.83138,"lng":140.843039,"zip":"0380000"},{"town":"大字宮田","koaza":"高瀬","lat":40.845225,"lng":140.83883,"zip":"0380000"},{"town":"大字築木館","koaza":"山ノ井","lat":40.82362,"lng":140.846633,"zip":"0380000"},{"town":"大字久栗坂","koaza":"浜田","lat":40.86855,"lng":140.845858,"zip":"0380000"},{"town":"大字矢田","koaza":"牧原","lat":40.854607,"lng":140.840227,"zip":"0380000"},{"town":"大字矢田","koaza":"上野尻","lat":40.84465,"lng":140.845836,"zip":"0380000"},{"town":"大字矢田","koaza":"下野尻","lat":40.847538,"lng":140.843221,"zip":"0380000"},{"town":"大字築木館","koaza":"岩瀬","lat":40.821842,"lng":140.843147,"zip":"0380000"},{"town":"大字矢田","koaza":"山野井","lat":40.848165,"lng":140.846694,"zip":"0380000"},{"town":"大字三本木","koaza":"扇沢","lat":40.828693,"lng":140.85269,"zip":"0380000"},{"town":"大字久栗坂","koaza":"山辺","lat":40.875798,"lng":140.851737,"zip":"0380000"},{"town":"大字浅虫","koaza":"山下","lat":40.885947,"lng":140.861527,"zip":"0380000"},{"town":"大字浅虫","koaza":"坂本","lat":40.899221,"lng":140.859428,"zip":"0380000"},{"town":"大字久栗坂","koaza":"久栗坂山","lat":40.871391,"lng":140.858996,"zip":"0380000"},{"town":"大字浅虫","koaza":"蛍谷","lat":40.891372,"lng":140.862651,"zip":"0380000"},{"town":"大字浅虫","koaza":"馬場山","lat":40.897566,"lng":140.862729,"zip":"0380000"},{"town":"大字浅虫","koaza":"内野","lat":40.888431,"lng":140.865949,"zip":"0380000"},{"town":"浪岡大字吉野田","koaza":"螢沢","lat":40.721794,"lng":140.545212,"zip":"0380000"},{"town":"浪岡大字吉野田","koaza":"岡田","lat":40.719741,"lng":140.543826,"zip":"0380000"},{"town":"浪岡大字下十川","koaza":"宮本","lat":40.689519,"lng":140.556802,"zip":"0380000"},{"town":"浪岡大字銀","koaza":"稲田","lat":40.70123,"lng":140.560502,"zip":"0380000"},{"town":"浪岡大字女鹿沢","koaza":"西種本","lat":40.705176,"lng":140.580602,"zip":"0380000"},{"town":"浪岡大字北中野","koaza":"中道","lat":40.702878,"lng":140.595102,"zip":"0380000"},{"town":"浪岡大字北中野","koaza":"村元","lat":40.708322,"lng":140.609684,"zip":"0380000"},{"town":"浪岡大字北中野","koaza":"桃里","lat":40.704343,"lng":140.611733,"zip":"0380000"},{"town":"浪岡大字北中野","koaza":"和田","lat":40.706165,"lng":140.609805,"zip":"0380000"},{"town":"浪岡大字杉沢","koaza":"井ノ下","lat":40.723029,"lng":140.590784,"zip":"0380000"},{"town":"浪岡大字女鹿沢","koaza":"稲本","lat":40.706255,"lng":140.58686,"zip":"0380000"},{"town":"浪岡大字高屋敷","koaza":"後田","lat":40.737432,"lng":140.586488,"zip":"0380000"},{"town":"浪岡大字高屋敷","koaza":"村元","lat":40.733221,"lng":140.588635,"zip":"0380000"},{"town":"浪岡大字高屋敷","koaza":"安田","lat":40.740777,"lng":140.586525,"zip":"0380000"},{"town":"浪岡大字長沼","koaza":"小沢","lat":40.74884,"lng":140.589623,"zip":"0380000"},{"town":"浪岡大字長沼","koaza":"大沢","lat":40.748798,"lng":140.590813,"zip":"0380000"},{"town":"浪岡大字大釈迦","koaza":"中田","lat":40.760292,"lng":140.586728,"zip":"0380000"},{"town":"浪岡大字浪岡","koaza":"五所","lat":40.718437,"lng":140.609136,"zip":"0380000"},{"town":"浪岡大字王余魚沢","koaza":"王余魚沢","lat":40.723954,"lng":140.663479,"zip":"0380000"},{"town":"浪岡大字王余魚沢","koaza":"村元","lat":40.723125,"lng":140.663466,"zip":"0380000"},{"town":"大字奥内","koaza":"平塚","lat":40.893888,"lng":140.674778,"zip":"0380000"},{"town":"大字油川","koaza":"浪岸","lat":40.858889,"lng":140.692707,"zip":"0380000"},{"town":"大字新田","koaza":"忍","lat":40.833858,"lng":140.695119,"zip":"0380000"},{"town":"大字新田","koaza":"扇田","lat":40.837362,"lng":140.704887,"zip":"0380000"},{"town":"大字三内","koaza":"玉作","lat":40.821045,"lng":140.710842,"zip":"0380000"},{"town":"大字西滝","koaza":"切島","lat":40.82555,"lng":140.714811,"zip":"0380000"},{"town":"大字西滝","koaza":"菅野屋","lat":40.824988,"lng":140.714231,"zip":"0380000"},{"town":"大字西滝","koaza":"富永","lat":40.825262,"lng":140.714988,"zip":"0380000"},{"town":"大字浪館","koaza":"近野","lat":40.808865,"lng":140.711619,"zip":"0380000"},{"town":"大字八ツ役","koaza":"上林","lat":40.788153,"lng":140.744274,"zip":"0380000"},{"town":"大字浪館","koaza":"泉川","lat":40.806936,"lng":140.721558,"zip":"0380000"},{"town":"大字大野","koaza":"長島","lat":40.818329,"lng":140.737981,"zip":"0380000"},{"town":"大字荒川","koaza":"藤戸","lat":40.7957,"lng":140.736141,"zip":"0380000"},{"town":"大字浦町","koaza":"橋本","lat":40.814326,"lng":140.745767,"zip":"0380000"},{"town":"大字田屋敷","koaza":"増田","lat":40.812347,"lng":140.78488,"zip":"0380000"},{"town":"大字古館","koaza":"安田","lat":40.810779,"lng":140.78187,"zip":"0380000"},{"town":"大字田屋敷","koaza":"下り松","lat":40.806244,"lng":140.789203,"zip":"0380000"},{"town":"大字浜館","koaza":"見取","lat":40.806635,"lng":140.79009,"zip":"0380000"},{"town":"大字泉野","koaza":"野脇","lat":40.839864,"lng":140.818059,"zip":"0380000"},{"town":"大字馬屋尻","koaza":"清水流","lat":40.839642,"lng":140.822312,"zip":"0380000"},{"town":"大字野内","koaza":"山王林","lat":40.849135,"lng":140.837263,"zip":"0380000"},{"town":"大字後萢","koaza":"外山","lat":40.828163,"lng":140.817898,"zip":"0380000"},{"town":"大字大別内","koaza":"葛野","lat":40.757587,"lng":140.73198,"zip":"0380000"},{"town":"大字上野","koaza":"有原","lat":40.77576,"lng":140.740147,"zip":"0380000"},{"town":"大字上野","koaza":"篠塚","lat":40.777105,"lng":140.744711,"zip":"0380000"},{"town":"大字新町野","koaza":"薄井","lat":40.773559,"lng":140.757664,"zip":"0380000"},{"town":"大字新町野","koaza":"岡部","lat":40.78232,"lng":140.755689,"zip":"0380000"},{"town":"大字横内","koaza":"若草","lat":40.776914,"lng":140.761599,"zip":"0380000"},{"town":"大字横内","koaza":"鏡山","lat":40.760014,"lng":140.774058,"zip":"0380000"},{"town":"大字雲谷","koaza":"梨野木","lat":40.747213,"lng":140.789315,"zip":"0380000"},{"town":"大字駒込","koaza":"深沢","lat":40.782832,"lng":140.805107,"zip":"0380000"},{"town":"大字諏訪沢","koaza":"山辺","lat":40.823341,"lng":140.8227,"zip":"0380000"},{"town":"大字矢田","koaza":"大柳","lat":40.848835,"lng":140.844189,"zip":"0380000"},{"town":"大字野内","koaza":"大林","lat":40.847275,"lng":140.838538,"zip":"0380000"},{"town":"大字戸門","koaza":"見通","lat":40.812626,"lng":140.646067,"zip":"0380000"},{"town":"大字岡町","koaza":"舟岡","lat":40.838639,"lng":140.685888,"zip":"0380000"},{"town":"大字横内","koaza":"八重菊","lat":40.75967,"lng":140.781967,"zip":"0380000"},{"town":"大字小柳","koaza":"朽葉","lat":40.817346,"lng":140.801248,"zip":"0380000"}]