[{"town":"有明町","koaza":"","lat":43.243846,"lng":141.881371,"zip":"0682151"},{"town":"幾春別川向町","koaza":"","lat":43.258564,"lng":141.957723,"zip":"0682112"},{"town":"幾春別栗丘町","koaza":"","lat":43.255082,"lng":141.949886,"zip":"0682114"},{"town":"幾春別千住町","koaza":"","lat":43.261832,"lng":141.951242,"zip":"0682118"},{"town":"幾春別滝見町","koaza":"","lat":43.260082,"lng":141.955229,"zip":"0682115"},{"town":"幾春別町一丁目","koaza":"","lat":43.261153,"lng":141.956354,"zip":"0682116"},{"town":"幾春別町二丁目","koaza":"","lat":43.261709,"lng":141.957172,"zip":"0682116"},{"town":"幾春別町三丁目","koaza":"","lat":43.26218,"lng":141.957034,"zip":"0682116"},{"town":"幾春別町四丁目","koaza":"","lat":43.263017,"lng":141.95849,"zip":"0682116"},{"town":"幾春別中島町","koaza":"","lat":43.26366,"lng":141.956235,"zip":"0682117"},{"town":"幾春別錦町一丁目","koaza":"","lat":43.261263,"lng":141.962817,"zip":"0682111"},{"town":"幾春別錦町二丁目","koaza":"","lat":43.262964,"lng":141.962281,"zip":"0682111"},{"town":"幾春別山手町","koaza":"","lat":43.255854,"lng":141.960964,"zip":"0682113"},{"town":"いちきしり","koaza":"","lat":43.24419,"lng":141.846491,"zip":"0682164"},{"town":"大里","koaza":"","lat":43.224269,"lng":141.857557,"zip":"0682167"},{"town":"岡山","koaza":"","lat":43.240481,"lng":141.818843,"zip":"0682165"},{"town":"柏町","koaza":"","lat":43.262692,"lng":141.874123,"zip":"0682108"},{"town":"桂沢","koaza":"","lat":43.249813,"lng":142.002352,"zip":"0682101"},{"town":"萱野","koaza":"","lat":43.208783,"lng":141.853802,"zip":"0682166"},{"town":"川内","koaza":"","lat":43.255219,"lng":141.849734,"zip":"0682162"},{"town":"清住町","koaza":"","lat":43.271035,"lng":141.911311,"zip":"0682105"},{"town":"幸町","koaza":"","lat":43.246625,"lng":141.877197,"zip":"0682153"},{"town":"榊町","koaza":"","lat":43.249187,"lng":141.871825,"zip":"0682155"},{"town":"多賀町","koaza":"","lat":43.243635,"lng":141.877226,"zip":"0682152"},{"town":"高美町","koaza":"","lat":43.250456,"lng":141.875488,"zip":"0682154"},{"town":"達布","koaza":"","lat":43.252503,"lng":141.836437,"zip":"0682163"},{"town":"堤町","koaza":"","lat":43.24129,"lng":141.870889,"zip":"0682158"},{"town":"唐松青山町","koaza":"","lat":43.247836,"lng":141.902819,"zip":"0682137"},{"town":"唐松栄町一丁目","koaza":"","lat":43.252403,"lng":141.913051,"zip":"0682136"},{"town":"唐松栄町二丁目","koaza":"","lat":43.251312,"lng":141.911995,"zip":"0682136"},{"town":"唐松栄町三丁目","koaza":"","lat":43.252867,"lng":141.910553,"zip":"0682136"},{"town":"唐松春光町","koaza":"","lat":43.253973,"lng":141.929938,"zip":"0682131"},{"town":"唐松町一丁目","koaza":"","lat":43.254084,"lng":141.920018,"zip":"0682135"},{"town":"唐松町二丁目","koaza":"","lat":43.252757,"lng":141.916468,"zip":"0682135"},{"town":"唐松千代田町一丁目","koaza":"","lat":43.249443,"lng":141.91764,"zip":"0682134"},{"town":"唐松千代田町二丁目","koaza":"","lat":43.250165,"lng":141.914428,"zip":"0682134"},{"town":"唐松常盤町","koaza":"","lat":43.250585,"lng":141.919391,"zip":"0682133"},{"town":"唐松緑町","koaza":"","lat":43.243699,"lng":141.907936,"zip":"0682132"},{"town":"西桂沢","koaza":"","lat":43.255921,"lng":141.979497,"zip":"0682102"},{"town":"東清住町","koaza":"","lat":43.272199,"lng":141.92475,"zip":"0682104"},{"town":"幌内春日町","koaza":"","lat":43.218427,"lng":141.896997,"zip":"0682146"},{"town":"幌内金谷町","koaza":"","lat":43.231669,"lng":141.89413,"zip":"0682144"},{"town":"幌内月光町","koaza":"","lat":43.225825,"lng":141.90135,"zip":"0682100"},{"town":"幌内新栄町","koaza":"","lat":43.231221,"lng":141.878121,"zip":"0682147"},{"town":"幌内末広町","koaza":"","lat":43.231954,"lng":141.906279,"zip":"0682100"},{"town":"幌内住吉町","koaza":"","lat":43.234742,"lng":141.888662,"zip":"0682142"},{"town":"幌内中央町","koaza":"","lat":43.225406,"lng":141.906921,"zip":"0682100"},{"town":"幌内町一丁目","koaza":"","lat":43.228682,"lng":141.905524,"zip":"0682145"},{"town":"幌内町二丁目","koaza":"","lat":43.23086,"lng":141.901506,"zip":"0682145"},{"town":"幌内町三丁目","koaza":"","lat":43.231281,"lng":141.897566,"zip":"0682145"},{"town":"幌内初音町","koaza":"","lat":43.236077,"lng":141.879791,"zip":"0682148"},{"town":"幌内北星町","koaza":"","lat":43.218783,"lng":141.88458,"zip":"0682143"},{"town":"幌内本沢町","koaza":"","lat":43.215771,"lng":141.922944,"zip":"0682100"},{"town":"幌内奔幌内町","koaza":"","lat":43.234909,"lng":141.936389,"zip":"0682100"},{"town":"本郷町","koaza":"","lat":43.246814,"lng":141.86012,"zip":"0682161"},{"town":"本町","koaza":"","lat":43.240572,"lng":141.88189,"zip":"0682141"},{"town":"奔別旭町","koaza":"","lat":43.268217,"lng":141.960392,"zip":"0682100"},{"town":"奔別川沿町","koaza":"","lat":43.266529,"lng":141.964472,"zip":"0682100"},{"town":"奔別川端町","koaza":"","lat":43.26851,"lng":141.962733,"zip":"0682100"},{"town":"奔別沢","koaza":"","lat":43.270531,"lng":141.97243,"zip":"0682100"},{"town":"奔別新町","koaza":"","lat":43.26396,"lng":141.952076,"zip":"0682103"},{"town":"奔別町","koaza":"","lat":43.265143,"lng":141.957843,"zip":"0682100"},{"town":"奔別鳥居沢町","koaza":"","lat":43.274085,"lng":141.958725,"zip":"0682100"},{"town":"奔別中の沢町","koaza":"","lat":43.277143,"lng":141.96267,"zip":"0682100"},{"town":"奔別本沢町","koaza":"","lat":43.279038,"lng":141.967802,"zip":"0682100"},{"town":"美園町","koaza":"","lat":43.26804,"lng":141.893996,"zip":"0682106"},{"town":"宮本町","koaza":"","lat":43.247136,"lng":141.867722,"zip":"0682156"},{"town":"美和","koaza":"","lat":43.235912,"lng":141.866902,"zip":"0682168"},{"town":"弥生桜木町","koaza":"","lat":43.273801,"lng":141.942364,"zip":"0682121"},{"town":"弥生橘町","koaza":"","lat":43.259758,"lng":141.936562,"zip":"0682125"},{"town":"弥生町一丁目","koaza":"","lat":43.255949,"lng":141.943164,"zip":"0682126"},{"town":"弥生町二丁目","koaza":"","lat":43.25654,"lng":141.941958,"zip":"0682126"},{"town":"弥生町三丁目","koaza":"","lat":43.256783,"lng":141.938121,"zip":"0682126"},{"town":"弥生並木町","koaza":"","lat":43.261714,"lng":141.942054,"zip":"0682122"},{"town":"弥生花園町","koaza":"","lat":43.257884,"lng":141.941413,"zip":"0682124"},{"town":"弥生藤枝町","koaza":"","lat":43.256967,"lng":141.932216,"zip":"0682128"},{"town":"弥生双葉町","koaza":"","lat":43.253514,"lng":141.93538,"zip":"0682100"},{"town":"弥生桃山町","koaza":"","lat":43.260123,"lng":141.939983,"zip":"0682123"},{"town":"弥生柳町","koaza":"","lat":43.257045,"lng":141.935412,"zip":"0682127"},{"town":"若草町","koaza":"","lat":43.246393,"lng":141.883915,"zip":"0682107"},{"town":"若松町","koaza":"","lat":43.24475,"lng":141.872085,"zip":"0682157"}]