[{"town":"字愛山","koaza":"","lat":43.868179,"lng":142.679584,"zip":"0781400"},{"town":"字愛別","koaza":"","lat":43.890586,"lng":142.595715,"zip":"0781400"},{"town":"字旭山","koaza":"","lat":43.949888,"lng":142.680538,"zip":"0781400"},{"town":"字金富","koaza":"","lat":43.919587,"lng":142.550777,"zip":"0781400"},{"town":"字北町","koaza":"","lat":43.919213,"lng":142.58078,"zip":"0781400"},{"town":"字協和","koaza":"","lat":43.967847,"lng":142.604313,"zip":"0781400"},{"town":"字厚生","koaza":"","lat":43.923297,"lng":142.569887,"zip":"0781400"},{"town":"字中央","koaza":"","lat":43.891088,"lng":142.659319,"zip":"0781400"},{"town":"字徳星","koaza":"","lat":43.975683,"lng":142.670489,"zip":"0781400"},{"town":"字豊里","koaza":"","lat":43.911969,"lng":142.622649,"zip":"0781400"},{"town":"字東町","koaza":"","lat":43.900995,"lng":142.582965,"zip":"0781400"},{"town":"字伏古","koaza":"","lat":43.934281,"lng":142.59821,"zip":"0781400"},{"town":"字本町","koaza":"","lat":43.908043,"lng":142.574488,"zip":"0781400"},{"town":"字南町","koaza":"","lat":43.904532,"lng":142.57246,"zip":"0781400"}]