[{"town":"十線","koaza":"","lat":43.810347,"lng":142.312494,"zip":"0711200"},{"town":"十一線","koaza":"","lat":43.840068,"lng":142.343609,"zip":"0711200"},{"town":"十二線","koaza":"","lat":43.845225,"lng":142.340981,"zip":"0711200"},{"town":"十三線","koaza":"","lat":43.850867,"lng":142.338954,"zip":"0711200"},{"town":"十四線","koaza":"","lat":43.856326,"lng":142.336746,"zip":"0711200"},{"town":"十五線","koaza":"","lat":43.894104,"lng":142.376646,"zip":"0711200"},{"town":"十六線","koaza":"","lat":43.873578,"lng":142.341792,"zip":"0711200"},{"town":"十七線","koaza":"","lat":43.876955,"lng":142.335815,"zip":"0711200"},{"town":"十八線","koaza":"","lat":43.882193,"lng":142.333389,"zip":"0711200"},{"town":"十九線","koaza":"","lat":43.890441,"lng":142.334977,"zip":"0711200"},{"town":"二十線","koaza":"","lat":43.887517,"lng":142.321108,"zip":"0711200"},{"town":"二十一線","koaza":"","lat":43.908781,"lng":142.346749,"zip":"0711200"},{"town":"二十二線","koaza":"","lat":43.911259,"lng":142.337082,"zip":"0711200"},{"town":"二十三線","koaza":"","lat":43.89877,"lng":142.307604,"zip":"0711200"},{"town":"二十四線","koaza":"","lat":43.903743,"lng":142.304438,"zip":"0711200"},{"town":"二十五線","koaza":"","lat":43.911583,"lng":142.305214,"zip":"0711200"},{"town":"二十六線","koaza":"","lat":43.919638,"lng":142.306696,"zip":"0711200"},{"town":"二十七線","koaza":"","lat":43.929926,"lng":142.29967,"zip":"0711200"},{"town":"七線","koaza":"","lat":43.841298,"lng":142.382647,"zip":"0711200"},{"town":"八線","koaza":"","lat":43.834652,"lng":142.365027,"zip":"0711200"},{"town":"九線","koaza":"","lat":43.804057,"lng":142.3137,"zip":"0711200"},{"town":"北一条一丁目","koaza":"","lat":43.848995,"lng":142.357454,"zip":"0711211"},{"town":"北一条二丁目","koaza":"","lat":43.846909,"lng":142.355589,"zip":"0711211"},{"town":"北一条三丁目","koaza":"","lat":43.845167,"lng":142.353199,"zip":"0711211"},{"town":"北野西一条一丁目","koaza":"","lat":43.817352,"lng":142.33836,"zip":"0711231"},{"town":"北野西二条一丁目","koaza":"","lat":43.818795,"lng":142.33624,"zip":"0711232"},{"town":"北野西三条一丁目","koaza":"","lat":43.820508,"lng":142.333877,"zip":"0711233"},{"town":"北野西三条二丁目","koaza":"","lat":43.819122,"lng":142.332563,"zip":"0711233"},{"town":"北野西四条一丁目","koaza":"","lat":43.822448,"lng":142.331211,"zip":"0711234"},{"town":"北野西四条二丁目","koaza":"","lat":43.8218,"lng":142.329817,"zip":"0711234"},{"town":"北野西五条一丁目","koaza":"","lat":43.823754,"lng":142.329679,"zip":"0711235"},{"town":"北野西五条二丁目","koaza":"","lat":43.822607,"lng":142.328704,"zip":"0711235"},{"town":"北野東一条一丁目","koaza":"","lat":43.818569,"lng":142.339767,"zip":"0711221"},{"town":"北野東二条一丁目","koaza":"","lat":43.820002,"lng":142.337892,"zip":"0711222"},{"town":"北野東二条二丁目","koaza":"","lat":43.821729,"lng":142.338044,"zip":"0711222"},{"town":"北野東三条一丁目","koaza":"","lat":43.821721,"lng":142.335551,"zip":"0711223"},{"town":"北野東三条二丁目","koaza":"","lat":43.822984,"lng":142.338041,"zip":"0711223"},{"town":"北野東四条一丁目","koaza":"","lat":43.823531,"lng":142.33304,"zip":"0711224"},{"town":"北野東四条二丁目","koaza":"","lat":43.824775,"lng":142.334675,"zip":"0711224"},{"town":"北野東四条三丁目","koaza":"","lat":43.82588,"lng":142.336385,"zip":"0711224"},{"town":"北野東五条一丁目","koaza":"","lat":43.825304,"lng":142.331195,"zip":"0711225"},{"town":"北野東五条二丁目","koaza":"","lat":43.826533,"lng":142.332201,"zip":"0711225"},{"town":"北野東五条三丁目","koaza":"","lat":43.827764,"lng":142.33407,"zip":"0711225"},{"town":"南一条一丁目","koaza":"","lat":43.846456,"lng":142.360468,"zip":"0711201"},{"town":"南一条二丁目","koaza":"","lat":43.844832,"lng":142.358184,"zip":"0711201"},{"town":"南一条三丁目","koaza":"","lat":43.843368,"lng":142.355632,"zip":"0711201"},{"town":"南一条四丁目","koaza":"","lat":43.841944,"lng":142.353623,"zip":"0711201"},{"town":"南一条五丁目","koaza":"","lat":43.840759,"lng":142.351865,"zip":"0711201"},{"town":"南一条六丁目","koaza":"","lat":43.839574,"lng":142.350226,"zip":"0711201"},{"town":"南二条一丁目","koaza":"","lat":43.844706,"lng":142.362861,"zip":"0711202"},{"town":"南二条二丁目","koaza":"","lat":43.844039,"lng":142.360188,"zip":"0711202"},{"town":"南二条三丁目","koaza":"","lat":43.841793,"lng":142.357418,"zip":"0711202"},{"town":"南二条四丁目","koaza":"","lat":43.83989,"lng":142.355363,"zip":"0711202"},{"town":"（大字なし）","koaza":"","lat":43.814359,"lng":142.331662,"zip":"0711200"}]