[{"town":"一号北","koaza":"","lat":43.705566,"lng":142.542119,"zip":"0711400"},{"town":"一号南","koaza":"","lat":43.686986,"lng":142.522535,"zip":"0711400"},{"town":"北七線東","koaza":"","lat":43.713245,"lng":142.592537,"zip":"0711400"},{"town":"北町十丁目","koaza":"","lat":43.713924,"lng":142.483559,"zip":"0711426"},{"town":"北町十一丁目","koaza":"","lat":43.715481,"lng":142.480832,"zip":"0711426"},{"town":"北町十二丁目","koaza":"","lat":43.717157,"lng":142.478298,"zip":"0711426"},{"town":"北町十三丁目","koaza":"","lat":43.718852,"lng":142.476235,"zip":"0711426"},{"town":"北町一丁目","koaza":"","lat":43.700291,"lng":142.508734,"zip":"0711426"},{"town":"北町二丁目","koaza":"","lat":43.701802,"lng":142.505648,"zip":"0711426"},{"town":"北町三丁目","koaza":"","lat":43.703282,"lng":142.502759,"zip":"0711426"},{"town":"北町四丁目","koaza":"","lat":43.704854,"lng":142.500012,"zip":"0711426"},{"town":"北町五丁目","koaza":"","lat":43.706347,"lng":142.497217,"zip":"0711426"},{"town":"北町六丁目","koaza":"","lat":43.707978,"lng":142.494596,"zip":"0711426"},{"town":"北町七丁目","koaza":"","lat":43.709454,"lng":142.491803,"zip":"0711426"},{"town":"北町八丁目","koaza":"","lat":43.710981,"lng":142.489052,"zip":"0711426"},{"town":"北町九丁目","koaza":"","lat":43.712346,"lng":142.4858,"zip":"0711426"},{"town":"進化台","koaza":"","lat":43.701069,"lng":142.545077,"zip":"0711464"},{"town":"西十号北","koaza":"","lat":43.734285,"lng":142.494022,"zip":"0711400"},{"town":"西十一号北","koaza":"","lat":43.735699,"lng":142.487097,"zip":"0711400"},{"town":"西十二号北","koaza":"","lat":43.739349,"lng":142.481606,"zip":"0711400"},{"town":"西二号北","koaza":"","lat":43.708915,"lng":142.536979,"zip":"0711400"},{"town":"西二号南","koaza":"","lat":43.689325,"lng":142.518445,"zip":"0711400"},{"town":"西三号北","koaza":"","lat":43.712712,"lng":142.532388,"zip":"0711400"},{"town":"西四号北","koaza":"","lat":43.724616,"lng":142.536208,"zip":"0711400"},{"town":"西五号北","koaza":"","lat":43.719653,"lng":142.522224,"zip":"0711400"},{"town":"西六号北","koaza":"","lat":43.724024,"lng":142.518025,"zip":"0711400"},{"town":"西七号北","koaza":"","lat":43.726155,"lng":142.511503,"zip":"0711400"},{"town":"西八号北","koaza":"","lat":43.728607,"lng":142.505373,"zip":"0711400"},{"town":"西九号北","koaza":"","lat":43.731299,"lng":142.499711,"zip":"0711400"},{"town":"西町十丁目","koaza":"","lat":43.707735,"lng":142.477039,"zip":"0711425"},{"town":"西町十一丁目","koaza":"","lat":43.711164,"lng":142.476282,"zip":"0711425"},{"town":"西町十二丁目","koaza":"","lat":43.714266,"lng":142.475101,"zip":"0711425"},{"town":"西町一丁目","koaza":"","lat":43.695945,"lng":142.503644,"zip":"0711425"},{"town":"西町二丁目","koaza":"","lat":43.697248,"lng":142.500744,"zip":"0711425"},{"town":"西町三丁目","koaza":"","lat":43.698379,"lng":142.497559,"zip":"0711425"},{"town":"西町四丁目","koaza":"","lat":43.699431,"lng":142.494316,"zip":"0711425"},{"town":"西町五丁目","koaza":"","lat":43.700583,"lng":142.491245,"zip":"0711425"},{"town":"西町六丁目","koaza":"","lat":43.701977,"lng":142.488319,"zip":"0711425"},{"town":"西町七丁目","koaza":"","lat":43.703019,"lng":142.485064,"zip":"0711425"},{"town":"西町八丁目","koaza":"","lat":43.703902,"lng":142.481663,"zip":"0711425"},{"town":"西町九丁目","koaza":"","lat":43.704871,"lng":142.478765,"zip":"0711425"},{"town":"ノカナン","koaza":"","lat":43.660756,"lng":142.712733,"zip":"0711471"},{"town":"東十号北","koaza":"","lat":43.670267,"lng":142.583508,"zip":"0711400"},{"town":"東十号南","koaza":"","lat":43.657706,"lng":142.569932,"zip":"0711400"},{"town":"東十一号北","koaza":"","lat":43.667875,"lng":142.589385,"zip":"0711400"},{"town":"東十一号南","koaza":"","lat":43.655374,"lng":142.575956,"zip":"0711400"},{"town":"東十二号北","koaza":"","lat":43.6727,"lng":142.602626,"zip":"0711400"},{"town":"東十二号南","koaza":"","lat":43.65335,"lng":142.581712,"zip":"0711400"},{"town":"東二十号","koaza":"","lat":43.662798,"lng":142.644365,"zip":"0711400"},{"town":"東二号北","koaza":"","lat":43.692822,"lng":142.537622,"zip":"0711400"},{"town":"東二号南","koaza":"","lat":43.683784,"lng":142.528657,"zip":"0711400"},{"town":"東三号北","koaza":"","lat":43.695246,"lng":142.54887,"zip":"0711400"},{"town":"東三号南","koaza":"","lat":43.680635,"lng":142.533955,"zip":"0711400"},{"town":"東四号北","koaza":"","lat":43.6919,"lng":142.554168,"zip":"0711400"},{"town":"東四号南","koaza":"","lat":43.677943,"lng":142.538999,"zip":"0711400"},{"town":"東五号北","koaza":"","lat":43.688592,"lng":142.559293,"zip":"0711400"},{"town":"東五号南","koaza":"","lat":43.67435,"lng":142.545426,"zip":"0711400"},{"town":"東六号北","koaza":"","lat":43.687273,"lng":142.566259,"zip":"0711400"},{"town":"東六号南","koaza":"","lat":43.670701,"lng":142.549514,"zip":"0711400"},{"town":"東七号北","koaza":"","lat":43.686674,"lng":142.574292,"zip":"0711400"},{"town":"東七号南","koaza":"","lat":43.667162,"lng":142.554097,"zip":"0711400"},{"town":"東八号北","koaza":"","lat":43.68407,"lng":142.580495,"zip":"0711400"},{"town":"東八号南","koaza":"","lat":43.663274,"lng":142.558422,"zip":"0711400"},{"town":"東九号北","koaza":"","lat":43.673763,"lng":142.578465,"zip":"0711400"},{"town":"東九号南","koaza":"","lat":43.660098,"lng":142.563815,"zip":"0711400"},{"town":"東町一丁目","koaza":"","lat":43.698873,"lng":142.512113,"zip":"0711423"},{"town":"東町二丁目","koaza":"","lat":43.697236,"lng":142.513745,"zip":"0711423"},{"town":"東町三丁目","koaza":"","lat":43.695727,"lng":142.516473,"zip":"0711423"},{"town":"東町四丁目","koaza":"","lat":43.693787,"lng":142.519205,"zip":"0711423"},{"town":"松山温泉","koaza":"","lat":43.645526,"lng":142.834436,"zip":"0711473"},{"town":"南町一丁目","koaza":"","lat":43.694597,"lng":142.506545,"zip":"0711424"},{"town":"南町二丁目","koaza":"","lat":43.693358,"lng":142.509635,"zip":"0711424"},{"town":"南町三丁目","koaza":"","lat":43.691985,"lng":142.512478,"zip":"0711424"},{"town":"南町四丁目","koaza":"","lat":43.690147,"lng":142.515041,"zip":"0711424"},{"town":"勇駒別","koaza":"","lat":43.670626,"lng":142.811975,"zip":"0711472"},{"town":"東八号北一丁目","koaza":"","lat":43.669914,"lng":142.563311,"zip":"0711400"},{"town":"キトウシ西一丁目","koaza":"","lat":43.717611,"lng":142.526565,"zip":"0711419"},{"town":"キトウシ南一丁目","koaza":"","lat":43.716151,"lng":142.529091,"zip":"0711418"},{"town":"キトウシ南二丁目","koaza":"","lat":43.71453,"lng":142.532018,"zip":"0711418"}]