[{"town":"十号","koaza":"","lat":43.702455,"lng":142.437248,"zip":"0711500"},{"town":"十一号","koaza":"","lat":43.694879,"lng":142.437635,"zip":"0711500"},{"town":"十二号","koaza":"","lat":43.690713,"lng":142.441967,"zip":"0711500"},{"town":"十三号","koaza":"","lat":43.688692,"lng":142.45155,"zip":"0711500"},{"town":"十四号","koaza":"","lat":43.693918,"lng":142.463511,"zip":"0711500"},{"town":"十五号","koaza":"","lat":43.694855,"lng":142.470667,"zip":"0711500"},{"town":"十六号","koaza":"","lat":43.692975,"lng":142.477237,"zip":"0711500"},{"town":"十七号","koaza":"","lat":43.691077,"lng":142.483838,"zip":"0711500"},{"town":"十八号","koaza":"","lat":43.690662,"lng":142.490615,"zip":"0711500"},{"town":"十九号","koaza":"","lat":43.68965,"lng":142.497345,"zip":"0711500"},{"town":"二十号","koaza":"","lat":43.687145,"lng":142.502548,"zip":"0711500"},{"town":"二十一号","koaza":"","lat":43.687227,"lng":142.510569,"zip":"0711500"},{"town":"二十二号","koaza":"","lat":43.685313,"lng":142.516,"zip":"0711500"},{"town":"二十三号","koaza":"","lat":43.681438,"lng":142.520581,"zip":"0711500"},{"town":"二十四号","koaza":"","lat":43.677922,"lng":142.525513,"zip":"0711500"},{"town":"二十五号","koaza":"","lat":43.673891,"lng":142.531804,"zip":"0711500"},{"town":"二十六号","koaza":"","lat":43.67096,"lng":142.538513,"zip":"0711500"},{"town":"二十七号","koaza":"","lat":43.669572,"lng":142.543748,"zip":"0711500"},{"town":"三号","koaza":"","lat":43.724461,"lng":142.400296,"zip":"0711500"},{"town":"四号","koaza":"","lat":43.721149,"lng":142.403758,"zip":"0711500"},{"town":"五号","koaza":"","lat":43.715241,"lng":142.408348,"zip":"0711500"},{"town":"六号","koaza":"","lat":43.715997,"lng":142.418692,"zip":"0711500"},{"town":"七号","koaza":"","lat":43.712939,"lng":142.422489,"zip":"0711500"},{"town":"八号","koaza":"","lat":43.709644,"lng":142.427571,"zip":"0711500"},{"town":"九号","koaza":"","lat":43.706211,"lng":142.432585,"zip":"0711500"},{"town":"字栄岡","koaza":"","lat":43.654947,"lng":142.555862,"zip":"0711500"},{"town":"字栄岡十線","koaza":"","lat":43.640176,"lng":142.563857,"zip":"0711500"},{"town":"字栄岡八線","koaza":"","lat":43.65457,"lng":142.545019,"zip":"0711500"},{"town":"字栄岡九線","koaza":"","lat":43.653161,"lng":142.551032,"zip":"0711500"},{"town":"字志比内","koaza":"","lat":43.640103,"lng":142.586655,"zip":"0711500"},{"town":"字八千代ケ岡","koaza":"","lat":43.650209,"lng":142.502696,"zip":"0711500"},{"town":"字八千代ケ岡二線","koaza":"","lat":43.661484,"lng":142.5017,"zip":"0711500"},{"town":"字八千代ケ岡三線","koaza":"","lat":43.655128,"lng":142.510084,"zip":"0711500"},{"town":"字八千代ケ岡四線","koaza":"","lat":43.656051,"lng":142.516843,"zip":"0711500"},{"town":"字八千代ケ岡五線","koaza":"","lat":43.657361,"lng":142.523439,"zip":"0711500"},{"town":"字八千代ケ岡六線","koaza":"","lat":43.658235,"lng":142.530227,"zip":"0711500"},{"town":"字八千代ケ岡七線","koaza":"","lat":43.656234,"lng":142.537658,"zip":"0711500"},{"town":"基線","koaza":"","lat":43.700215,"lng":142.40581,"zip":"0711560"},{"town":"北一条西一丁目","koaza":"","lat":43.69915,"lng":142.453437,"zip":"0711511"},{"town":"北一条西二丁目","koaza":"","lat":43.700732,"lng":142.45076,"zip":"0711511"},{"town":"北一条西三丁目","koaza":"","lat":43.702226,"lng":142.44787,"zip":"0711511"},{"town":"北一条西四丁目","koaza":"","lat":43.703827,"lng":142.44518,"zip":"0711511"},{"town":"北一条東一丁目","koaza":"","lat":43.698384,"lng":142.455603,"zip":"0711512"},{"town":"北一条東二丁目","koaza":"","lat":43.6981,"lng":142.458546,"zip":"0711512"},{"town":"北二条西三丁目","koaza":"","lat":43.703759,"lng":142.449746,"zip":"0711513"},{"town":"北二条西四丁目","koaza":"","lat":43.705453,"lng":142.446852,"zip":"0711513"},{"town":"北二条東二丁目","koaza":"","lat":43.700148,"lng":142.459067,"zip":"0711514"},{"town":"北三条東二丁目","koaza":"","lat":43.703065,"lng":142.460405,"zip":"0711515"},{"town":"東一線","koaza":"","lat":43.681799,"lng":142.43213,"zip":"0711561"},{"town":"東二線","koaza":"","lat":43.663666,"lng":142.468179,"zip":"0711562"},{"town":"東三線","koaza":"","lat":43.665111,"lng":142.475913,"zip":"0711563"},{"town":"東四線","koaza":"","lat":43.666306,"lng":142.484599,"zip":"0711564"},{"town":"東五線","koaza":"","lat":43.666033,"lng":142.492806,"zip":"0711565"},{"town":"ひじり野北一条十丁目","koaza":"","lat":43.728494,"lng":142.401995,"zip":"0711521"},{"town":"ひじり野北一条一丁目","koaza":"","lat":43.719445,"lng":142.417729,"zip":"0711521"},{"town":"ひじり野北一条二丁目","koaza":"","lat":43.720579,"lng":142.415752,"zip":"0711521"},{"town":"ひじり野北一条三丁目","koaza":"","lat":43.721671,"lng":142.413493,"zip":"0711521"},{"town":"ひじり野北一条四丁目","koaza":"","lat":43.722735,"lng":142.412515,"zip":"0711521"},{"town":"ひじり野北一条五丁目","koaza":"","lat":43.723561,"lng":142.410158,"zip":"0711521"},{"town":"ひじり野北一条六丁目","koaza":"","lat":43.724519,"lng":142.408864,"zip":"0711521"},{"town":"ひじり野北一条七丁目","koaza":"","lat":43.725499,"lng":142.407059,"zip":"0711521"},{"town":"ひじり野北一条八丁目","koaza":"","lat":43.726403,"lng":142.405441,"zip":"0711521"},{"town":"ひじり野北一条九丁目","koaza":"","lat":43.727372,"lng":142.403788,"zip":"0711521"},{"town":"ひじり野北二条十丁目","koaza":"","lat":43.729947,"lng":142.403331,"zip":"0711522"},{"town":"ひじり野北二条一丁目","koaza":"","lat":43.721345,"lng":142.419781,"zip":"0711522"},{"town":"ひじり野北二条二丁目","koaza":"","lat":43.722355,"lng":142.41766,"zip":"0711522"},{"town":"ひじり野北二条三丁目","koaza":"","lat":43.723361,"lng":142.415858,"zip":"0711522"},{"town":"ひじり野北二条四丁目","koaza":"","lat":43.724252,"lng":142.41414,"zip":"0711522"},{"town":"ひじり野北二条五丁目","koaza":"","lat":43.725604,"lng":142.412407,"zip":"0711522"},{"town":"ひじり野北二条六丁目","koaza":"","lat":43.726354,"lng":142.410302,"zip":"0711522"},{"town":"ひじり野北二条七丁目","koaza":"","lat":43.727212,"lng":142.408593,"zip":"0711522"},{"town":"ひじり野北二条八丁目","koaza":"","lat":43.727933,"lng":142.406812,"zip":"0711522"},{"town":"ひじり野北二条九丁目","koaza":"","lat":43.728876,"lng":142.405441,"zip":"0711522"},{"town":"ひじり野南一条十丁目","koaza":"","lat":43.727512,"lng":142.401211,"zip":"0711523"},{"town":"ひじり野南一条一丁目","koaza":"","lat":43.717946,"lng":142.416149,"zip":"0711523"},{"town":"ひじり野南一条二丁目","koaza":"","lat":43.718873,"lng":142.414277,"zip":"0711523"},{"town":"ひじり野南一条三丁目","koaza":"","lat":43.720439,"lng":142.412685,"zip":"0711523"},{"town":"ひじり野南一条四丁目","koaza":"","lat":43.721093,"lng":142.410483,"zip":"0711523"},{"town":"ひじり野南一条五丁目","koaza":"","lat":43.722369,"lng":142.408922,"zip":"0711523"},{"town":"ひじり野南一条六丁目","koaza":"","lat":43.723115,"lng":142.406779,"zip":"0711523"},{"town":"ひじり野南一条七丁目","koaza":"","lat":43.724587,"lng":142.40541,"zip":"0711523"},{"town":"ひじり野南一条八丁目","koaza":"","lat":43.725457,"lng":142.404163,"zip":"0711523"},{"town":"ひじり野南一条九丁目","koaza":"","lat":43.726419,"lng":142.402876,"zip":"0711523"},{"town":"ひじり野南二条一丁目","koaza":"","lat":43.716468,"lng":142.41486,"zip":"0711524"},{"town":"ひじり野南二条二丁目","koaza":"","lat":43.717892,"lng":142.412788,"zip":"0711524"},{"town":"ひじり野南二条三丁目","koaza":"","lat":43.718947,"lng":142.41096,"zip":"0711524"},{"town":"ひじり野南二条四丁目","koaza":"","lat":43.719959,"lng":142.409039,"zip":"0711524"},{"town":"ひじり野南二条五丁目","koaza":"","lat":43.720996,"lng":142.40762,"zip":"0711524"},{"town":"ひじり野南三条一丁目","koaza":"","lat":43.714953,"lng":142.413521,"zip":"0711525"},{"town":"ひじり野南三条二丁目","koaza":"","lat":43.716156,"lng":142.41076,"zip":"0711525"},{"town":"ひじり野南三条三丁目","koaza":"","lat":43.717646,"lng":142.409669,"zip":"0711525"},{"town":"ひじり野南三条四丁目","koaza":"","lat":43.718646,"lng":142.408451,"zip":"0711525"},{"town":"ひじり野南三条五丁目","koaza":"","lat":43.720031,"lng":142.40728,"zip":"0711525"},{"town":"南十三号","koaza":"","lat":43.677266,"lng":142.46836,"zip":"0711500"},{"town":"南一条西一丁目","koaza":"","lat":43.697244,"lng":142.451279,"zip":"0711501"},{"town":"南一条西二丁目","koaza":"","lat":43.698788,"lng":142.448595,"zip":"0711501"},{"town":"南一条西三丁目","koaza":"","lat":43.700365,"lng":142.445843,"zip":"0711501"},{"town":"南一条西四丁目","koaza":"","lat":43.701349,"lng":142.443997,"zip":"0711501"},{"town":"南一条東一丁目","koaza":"","lat":43.696058,"lng":142.454044,"zip":"0711502"},{"town":"南一条東二丁目","koaza":"","lat":43.695627,"lng":142.458014,"zip":"0711502"},{"town":"南一番通","koaza":"","lat":43.678468,"lng":142.512168,"zip":"0711500"},{"town":"南二条西一丁目","koaza":"","lat":43.695525,"lng":142.449461,"zip":"0711503"},{"town":"南二条西二丁目","koaza":"","lat":43.697134,"lng":142.446727,"zip":"0711503"},{"town":"南二条東一丁目","koaza":"","lat":43.693974,"lng":142.452838,"zip":"0711504"},{"town":"南二条東二丁目","koaza":"","lat":43.693414,"lng":142.455768,"zip":"0711504"},{"town":"南二線","koaza":"","lat":43.683434,"lng":142.482773,"zip":"0711500"},{"town":"南三条東一丁目","koaza":"","lat":43.692945,"lng":142.450629,"zip":"0711505"},{"town":"南三線","koaza":"","lat":43.678624,"lng":142.488547,"zip":"0711500"},{"town":"南四線","koaza":"","lat":43.673091,"lng":142.497129,"zip":"0711500"},{"town":"南五線","koaza":"","lat":43.668555,"lng":142.499022,"zip":"0711500"},{"town":"基線","koaza":"一号","lat":43.719068,"lng":142.395044,"zip":"0711560"},{"town":"東一線","koaza":"一号","lat":43.721586,"lng":142.395474,"zip":"0711561"},{"town":"三号","koaza":"南","lat":43.724272,"lng":142.401748,"zip":"0711500"},{"town":"基線","koaza":"三号","lat":43.711789,"lng":142.399265,"zip":"0711560"},{"town":"東一線","koaza":"二号","lat":43.717633,"lng":142.399745,"zip":"0711561"},{"town":"東一線","koaza":"三号","lat":43.711708,"lng":142.401233,"zip":"0711561"},{"town":"基線","koaza":"四号","lat":43.706394,"lng":142.401246,"zip":"0711560"},{"town":"四号","koaza":"南","lat":43.721004,"lng":142.403885,"zip":"0711500"},{"town":"東一線","koaza":"四号","lat":43.708152,"lng":142.408562,"zip":"0711561"},{"town":"基線","koaza":"五号","lat":43.70334,"lng":142.403094,"zip":"0711560"},{"town":"東一線","koaza":"五号","lat":43.702563,"lng":142.406474,"zip":"0711561"},{"town":"基線","koaza":"六号","lat":43.697102,"lng":142.406651,"zip":"0711560"},{"town":"五号","koaza":"南","lat":43.716707,"lng":142.408621,"zip":"0711500"},{"town":"六号","koaza":"南","lat":43.713334,"lng":142.416155,"zip":"0711500"},{"town":"東一線","koaza":"六号","lat":43.698548,"lng":142.414074,"zip":"0711561"},{"town":"基線","koaza":"七号","lat":43.692085,"lng":142.409184,"zip":"0711560"},{"town":"東二線","koaza":"四号","lat":43.709175,"lng":142.410663,"zip":"0711562"},{"town":"基線","koaza":"九号","lat":43.688584,"lng":142.412392,"zip":"0711560"},{"town":"東一線","koaza":"七号","lat":43.69584,"lng":142.415599,"zip":"0711561"},{"town":"東二線","koaza":"五号","lat":43.704792,"lng":142.413313,"zip":"0711562"},{"town":"東一線","koaza":"八号","lat":43.692528,"lng":142.417727,"zip":"0711561"},{"town":"東一線","koaza":"九号","lat":43.689601,"lng":142.417707,"zip":"0711561"},{"town":"七号","koaza":"南","lat":43.711304,"lng":142.420433,"zip":"0711500"},{"town":"東二線","koaza":"六号","lat":43.699879,"lng":142.417026,"zip":"0711562"},{"town":"東二線","koaza":"七号","lat":43.695262,"lng":142.42068,"zip":"0711562"},{"town":"東一線","koaza":"十号","lat":43.687009,"lng":142.421342,"zip":"0711561"},{"town":"基線","koaza":"十号","lat":43.684734,"lng":142.418408,"zip":"0711560"},{"town":"八号","koaza":"南","lat":43.708253,"lng":142.425842,"zip":"0711500"},{"town":"東二線","koaza":"八号","lat":43.694398,"lng":142.422759,"zip":"0711562"},{"town":"六号","koaza":"北","lat":43.717275,"lng":142.421205,"zip":"0711500"},{"town":"基線","koaza":"十一号","lat":43.681326,"lng":142.423427,"zip":"0711560"},{"town":"七号","koaza":"北","lat":43.716009,"lng":142.42328,"zip":"0711500"},{"town":"東二線","koaza":"九号","lat":43.693278,"lng":142.423339,"zip":"0711562"},{"town":"九号","koaza":"南","lat":43.702483,"lng":142.428526,"zip":"0711500"},{"town":"東二線","koaza":"十号","lat":43.693512,"lng":142.42572,"zip":"0711562"},{"town":"東一線","koaza":"十一号","lat":43.683447,"lng":142.426576,"zip":"0711561"},{"town":"東二線","koaza":"十一号","lat":43.688847,"lng":142.429164,"zip":"0711562"},{"town":"十号","koaza":"南","lat":43.698305,"lng":142.431892,"zip":"0711500"},{"town":"東一線","koaza":"十二号","lat":43.682024,"lng":142.433666,"zip":"0711561"},{"town":"八号","koaza":"北","lat":43.714348,"lng":142.432738,"zip":"0711500"},{"town":"十一号","koaza":"南","lat":43.69239,"lng":142.434981,"zip":"0711500"},{"town":"基線","koaza":"十二号","lat":43.676994,"lng":142.429949,"zip":"0711560"},{"town":"九号","koaza":"北","lat":43.711536,"lng":142.438477,"zip":"0711500"},{"town":"十号","koaza":"北","lat":43.711393,"lng":142.447311,"zip":"0711500"},{"town":"東二線","koaza":"十六号","lat":43.669199,"lng":142.459094,"zip":"0711562"},{"town":"基線","koaza":"二号","lat":43.716024,"lng":142.396191,"zip":"0711560"}]