[{"town":"字赤羽","koaza":"","lat":43.61762,"lng":142.522021,"zip":"0710200"},{"town":"字旭","koaza":"","lat":43.641559,"lng":142.420146,"zip":"0710200"},{"town":"字大村","koaza":"","lat":43.59804,"lng":142.445892,"zip":"0710200"},{"town":"字置杵牛","koaza":"","lat":43.558364,"lng":142.583145,"zip":"0710200"},{"town":"字上宇莫別","koaza":"","lat":43.569874,"lng":142.614955,"zip":"0710200"},{"town":"字五稜","koaza":"","lat":43.602285,"lng":142.372207,"zip":"0710200"},{"town":"字三愛","koaza":"","lat":43.575234,"lng":142.460683,"zip":"0710200"},{"town":"字下宇莫別","koaza":"","lat":43.616068,"lng":142.483028,"zip":"0710200"},{"town":"字下宇莫別朝日","koaza":"","lat":43.609651,"lng":142.49488,"zip":"0710200"},{"town":"字下二股","koaza":"","lat":43.538269,"lng":142.385927,"zip":"0710200"},{"town":"字白金","koaza":"","lat":43.472809,"lng":142.643749,"zip":"0710200"},{"town":"字新区画","koaza":"","lat":43.581182,"lng":142.524315,"zip":"0710200"},{"town":"字大三","koaza":"","lat":43.60811,"lng":142.476199,"zip":"0710200"},{"town":"字俵真布","koaza":"","lat":43.589962,"lng":142.627255,"zip":"0710200"},{"town":"字忠別","koaza":"","lat":43.624181,"lng":142.669265,"zip":"0710200"},{"town":"字天人峡","koaza":"","lat":43.620512,"lng":142.780203,"zip":"0710200"},{"town":"字中宇莫別","koaza":"","lat":43.594489,"lng":142.575263,"zip":"0710200"},{"town":"字沼崎","koaza":"","lat":43.597616,"lng":142.543056,"zip":"0710200"},{"town":"字美瑛原野","koaza":"","lat":43.590401,"lng":142.48763,"zip":"0710200"},{"town":"字美馬牛","koaza":"","lat":43.561266,"lng":142.439214,"zip":"0710200"},{"town":"旭町一丁目","koaza":"","lat":43.596061,"lng":142.470558,"zip":"0710212"},{"town":"旭町二丁目","koaza":"","lat":43.596003,"lng":142.473381,"zip":"0710212"},{"town":"旭町三丁目","koaza":"","lat":43.593951,"lng":142.472662,"zip":"0710212"},{"town":"旭町四丁目","koaza":"","lat":43.592997,"lng":142.473537,"zip":"0710212"},{"town":"字福富","koaza":"","lat":43.55639,"lng":142.47006,"zip":"0710200"},{"town":"字藤野","koaza":"","lat":43.569623,"lng":142.522131,"zip":"0710200"},{"town":"字二股","koaza":"","lat":43.506137,"lng":142.385382,"zip":"0710200"},{"town":"字平和","koaza":"","lat":43.493854,"lng":142.593498,"zip":"0710200"},{"town":"字北瑛","koaza":"","lat":43.624162,"lng":142.440725,"zip":"0710200"},{"town":"字北星","koaza":"","lat":43.524449,"lng":142.48324,"zip":"0710200"},{"town":"字美沢","koaza":"","lat":43.545327,"lng":142.543083,"zip":"0710200"},{"town":"字水沢","koaza":"","lat":43.555349,"lng":142.488283,"zip":"0710200"},{"town":"字美園","koaza":"","lat":43.571606,"lng":142.386969,"zip":"0710200"},{"town":"字美田","koaza":"","lat":43.607582,"lng":142.413391,"zip":"0710200"},{"town":"字明治","koaza":"","lat":43.604049,"lng":142.511703,"zip":"0710200"},{"town":"字夕張","koaza":"","lat":43.613727,"lng":142.433377,"zip":"0710200"},{"town":"字横牛","koaza":"","lat":43.616283,"lng":142.568018,"zip":"0710200"},{"town":"字瑠辺蘂","koaza":"","lat":43.561876,"lng":142.410955,"zip":"0710200"},{"town":"字朗根内","koaza":"","lat":43.615434,"lng":142.606675,"zip":"0710200"},{"town":"憩が丘","koaza":"","lat":43.579721,"lng":142.462705,"zip":"0710251"},{"town":"憩町一丁目","koaza":"","lat":43.581087,"lng":142.460176,"zip":"0710249"},{"town":"憩町二丁目","koaza":"","lat":43.581077,"lng":142.457961,"zip":"0710249"},{"town":"扇町","koaza":"","lat":43.597034,"lng":142.466817,"zip":"0710215"},{"town":"大町一丁目","koaza":"","lat":43.590537,"lng":142.458547,"zip":"0710204"},{"town":"大町二丁目","koaza":"","lat":43.591597,"lng":142.456482,"zip":"0710204"},{"town":"大町三丁目","koaza":"","lat":43.592528,"lng":142.455292,"zip":"0710204"},{"town":"大町四丁目","koaza":"","lat":43.593167,"lng":142.453625,"zip":"0710204"},{"town":"北町一丁目","koaza":"","lat":43.593559,"lng":142.463327,"zip":"0710206"},{"town":"北町二丁目","koaza":"","lat":43.595071,"lng":142.461457,"zip":"0710206"},{"town":"北町三丁目","koaza":"","lat":43.596145,"lng":142.460294,"zip":"0710206"},{"town":"寿町一丁目","koaza":"","lat":43.587699,"lng":142.468704,"zip":"0710209"},{"town":"寿町二丁目","koaza":"","lat":43.586813,"lng":142.469668,"zip":"0710209"},{"town":"寿町三丁目","koaza":"","lat":43.585921,"lng":142.470759,"zip":"0710209"},{"town":"寿町四丁目","koaza":"","lat":43.585039,"lng":142.471905,"zip":"0710209"},{"town":"幸町一丁目","koaza":"","lat":43.589293,"lng":142.471003,"zip":"0710214"},{"town":"幸町二丁目","koaza":"","lat":43.588504,"lng":142.47216,"zip":"0710214"},{"town":"幸町三丁目","koaza":"","lat":43.587598,"lng":142.473327,"zip":"0710214"},{"town":"幸町四丁目","koaza":"","lat":43.586703,"lng":142.474488,"zip":"0710214"},{"town":"栄町一丁目","koaza":"","lat":43.589804,"lng":142.461147,"zip":"0710205"},{"town":"栄町二丁目","koaza":"","lat":43.588732,"lng":142.462408,"zip":"0710205"},{"town":"栄町三丁目","koaza":"","lat":43.588007,"lng":142.463825,"zip":"0710205"},{"town":"栄町四丁目","koaza":"","lat":43.587065,"lng":142.465085,"zip":"0710205"},{"town":"中町一丁目","koaza":"","lat":43.593195,"lng":142.466036,"zip":"0710207"},{"town":"中町二丁目","koaza":"","lat":43.592239,"lng":142.467369,"zip":"0710207"},{"town":"中町三丁目","koaza":"","lat":43.591252,"lng":142.468571,"zip":"0710207"},{"town":"中町四丁目","koaza":"","lat":43.590334,"lng":142.46976,"zip":"0710207"},{"town":"錦町","koaza":"","lat":43.59896,"lng":142.472415,"zip":"0710211"},{"town":"西町一丁目","koaza":"","lat":43.587827,"lng":142.458293,"zip":"0710203"},{"town":"西町二丁目","koaza":"","lat":43.587302,"lng":142.460101,"zip":"0710203"},{"town":"西町三丁目","koaza":"","lat":43.586544,"lng":142.461503,"zip":"0710203"},{"town":"西町四丁目","koaza":"","lat":43.58563,"lng":142.462947,"zip":"0710203"},{"town":"花園一丁目","koaza":"","lat":43.587825,"lng":142.455295,"zip":"0710248"},{"town":"花園二丁目","koaza":"","lat":43.588771,"lng":142.453085,"zip":"0710248"},{"town":"花園三丁目","koaza":"","lat":43.590734,"lng":142.450846,"zip":"0710248"},{"town":"花園四丁目","koaza":"","lat":43.585204,"lng":142.452627,"zip":"0710248"},{"town":"花園五丁目","koaza":"","lat":43.586132,"lng":142.446847,"zip":"0710248"},{"town":"東町一丁目","koaza":"","lat":43.592116,"lng":142.474815,"zip":"0710213"},{"town":"東町二丁目","koaza":"","lat":43.591156,"lng":142.47606,"zip":"0710213"},{"town":"東町三丁目","koaza":"","lat":43.590254,"lng":142.477224,"zip":"0710213"},{"town":"東町四丁目","koaza":"","lat":43.589342,"lng":142.478408,"zip":"0710213"},{"town":"美馬牛北一丁目","koaza":"","lat":43.538254,"lng":142.447324,"zip":"0710461"},{"town":"美馬牛北二丁目","koaza":"","lat":43.540889,"lng":142.446311,"zip":"0710461"},{"town":"美馬牛北三丁目","koaza":"","lat":43.539793,"lng":142.443567,"zip":"0710461"},{"town":"美馬牛南一丁目","koaza":"","lat":43.537274,"lng":142.449213,"zip":"0710462"},{"town":"美馬牛南二丁目","koaza":"","lat":43.537731,"lng":142.453155,"zip":"0710462"},{"town":"丸山一丁目","koaza":"","lat":43.584656,"lng":142.474144,"zip":"0710201"},{"town":"丸山二丁目","koaza":"","lat":43.584117,"lng":142.477761,"zip":"0710201"},{"town":"南町一丁目","koaza":"","lat":43.58581,"lng":142.46573,"zip":"0710202"},{"town":"南町二丁目","koaza":"","lat":43.585098,"lng":142.467001,"zip":"0710202"},{"town":"南町三丁目","koaza":"","lat":43.584394,"lng":142.468506,"zip":"0710202"},{"town":"南町四丁目","koaza":"","lat":43.58355,"lng":142.469743,"zip":"0710202"},{"town":"南町五丁目","koaza":"","lat":43.582403,"lng":142.471277,"zip":"0710202"},{"town":"本町一丁目","koaza":"","lat":43.591469,"lng":142.463554,"zip":"0710208"},{"town":"本町二丁目","koaza":"","lat":43.590503,"lng":142.464819,"zip":"0710208"},{"town":"本町三丁目","koaza":"","lat":43.589544,"lng":142.466093,"zip":"0710208"},{"town":"本町四丁目","koaza":"","lat":43.588614,"lng":142.467319,"zip":"0710208"}]