[{"town":"三条西二丁目","koaza":"","lat":43.829383,"lng":142.503693,"zip":"0781303"},{"town":"三条西三丁目","koaza":"","lat":43.825631,"lng":142.508178,"zip":"0781303"},{"town":"三条西四丁目","koaza":"","lat":43.821759,"lng":142.512506,"zip":"0781303"},{"town":"三条東二丁目","koaza":"","lat":43.827512,"lng":142.505901,"zip":"0781313"},{"town":"三条東三丁目","koaza":"","lat":43.823768,"lng":142.510429,"zip":"0781313"},{"town":"三条東四丁目","koaza":"","lat":43.819595,"lng":142.515136,"zip":"0781313"},{"town":"四条西二丁目","koaza":"","lat":43.832656,"lng":142.508961,"zip":"0781304"},{"town":"四条西三丁目","koaza":"","lat":43.828959,"lng":142.513511,"zip":"0781304"},{"town":"四条西四丁目","koaza":"","lat":43.825908,"lng":142.51926,"zip":"0781304"},{"town":"四条東二丁目","koaza":"","lat":43.830619,"lng":142.51083,"zip":"0781314"},{"town":"四条東三丁目","koaza":"","lat":43.827649,"lng":142.515701,"zip":"0781314"},{"town":"四条東四丁目","koaza":"","lat":43.822859,"lng":142.519861,"zip":"0781314"},{"town":"四条南三丁目","koaza":"","lat":43.82455,"lng":142.515412,"zip":"0781324"},{"town":"五条西二丁目","koaza":"","lat":43.836005,"lng":142.514332,"zip":"0781305"},{"town":"五条西三丁目","koaza":"","lat":43.832201,"lng":142.518671,"zip":"0781305"},{"town":"五条西四丁目","koaza":"","lat":43.828203,"lng":142.523173,"zip":"0781305"},{"town":"五条東二丁目","koaza":"","lat":43.834203,"lng":142.516551,"zip":"0781315"},{"town":"五条東三丁目","koaza":"","lat":43.830151,"lng":142.521251,"zip":"0781315"},{"town":"五条東四丁目","koaza":"","lat":43.826386,"lng":142.525587,"zip":"0781315"},{"town":"六条西三丁目","koaza":"","lat":43.83557,"lng":142.524057,"zip":"0781306"},{"town":"六条西四丁目","koaza":"","lat":43.831737,"lng":142.528035,"zip":"0781306"},{"town":"六条東三丁目","koaza":"","lat":43.833874,"lng":142.526652,"zip":"0781316"},{"town":"六条東四丁目","koaza":"","lat":43.829647,"lng":142.530906,"zip":"0781316"},{"town":"伊香牛一区","koaza":"","lat":43.867213,"lng":142.515206,"zip":"0781300"},{"town":"伊香牛二区","koaza":"","lat":43.874493,"lng":142.526083,"zip":"0781300"},{"town":"伊香牛三区","koaza":"","lat":43.884207,"lng":142.534441,"zip":"0781300"},{"town":"宇園別一区","koaza":"","lat":43.830467,"lng":142.475899,"zip":"0781300"},{"town":"宇園別二区","koaza":"","lat":43.840777,"lng":142.478458,"zip":"0781300"},{"town":"宇園別三区","koaza":"","lat":43.853097,"lng":142.497037,"zip":"0781300"},{"town":"開明一区","koaza":"","lat":43.8252,"lng":142.55881,"zip":"0781300"},{"town":"開明二区","koaza":"","lat":43.842496,"lng":142.579414,"zip":"0781300"},{"town":"開明三区","koaza":"","lat":43.81887,"lng":142.582277,"zip":"0781300"},{"town":"開明四区","koaza":"","lat":43.835709,"lng":142.634828,"zip":"0781300"},{"town":"開明五区","koaza":"","lat":43.774336,"lng":142.644657,"zip":"0781300"},{"town":"中央一区","koaza":"","lat":43.824967,"lng":142.495141,"zip":"0781300"},{"town":"中央二区","koaza":"","lat":43.817684,"lng":142.49851,"zip":"0781300"},{"town":"中央三区","koaza":"","lat":43.809942,"lng":142.500669,"zip":"0781300"},{"town":"中央四区","koaza":"","lat":43.796642,"lng":142.519815,"zip":"0781300"},{"town":"中央五区","koaza":"","lat":43.799501,"lng":142.53176,"zip":"0781300"},{"town":"中央六区","koaza":"","lat":43.824833,"lng":142.537909,"zip":"0781300"},{"town":"中央七区","koaza":"","lat":43.839228,"lng":142.500654,"zip":"0781300"},{"town":"東一区","koaza":"","lat":43.790101,"lng":142.563004,"zip":"0781300"},{"town":"北星一区","koaza":"","lat":43.846694,"lng":142.514863,"zip":"0781300"},{"town":"北星二区","koaza":"","lat":43.857645,"lng":142.528171,"zip":"0781300"},{"town":"北星三区","koaza":"","lat":43.843004,"lng":142.540606,"zip":"0781300"},{"town":"緑郷一区","koaza":"","lat":43.848433,"lng":142.560022,"zip":"0781300"},{"town":"緑郷二区","koaza":"","lat":43.864026,"lng":142.547173,"zip":"0781300"},{"town":"緑郷三区","koaza":"","lat":43.871252,"lng":142.57621,"zip":"0781300"},{"town":"緑郷四区","koaza":"","lat":43.877796,"lng":142.562561,"zip":"0781300"},{"town":"緑郷五区","koaza":"","lat":43.865986,"lng":142.600981,"zip":"0781300"}]