[{"town":"字愛山溪","koaza":"","lat":43.711342,"lng":142.827264,"zip":"0781700"},{"town":"字上越","koaza":"","lat":43.891171,"lng":142.982086,"zip":"0781700"},{"town":"字菊水","koaza":"","lat":43.809485,"lng":142.80241,"zip":"0781700"},{"town":"字共進","koaza":"","lat":43.849715,"lng":142.740468,"zip":"0781700"},{"town":"字清川","koaza":"","lat":43.800073,"lng":142.915178,"zip":"0781700"},{"town":"字越路","koaza":"","lat":43.888732,"lng":142.753222,"zip":"0781700"},{"town":"字白川","koaza":"","lat":43.778952,"lng":142.863707,"zip":"0781700"},{"town":"字層雲峡","koaza":"","lat":43.65868,"lng":143.03529,"zip":"0781700"},{"town":"字天幕","koaza":"","lat":43.901022,"lng":142.869673,"zip":"0781700"},{"town":"字東雲","koaza":"","lat":43.767943,"lng":142.761995,"zip":"0781700"},{"town":"字豊原","koaza":"","lat":43.884945,"lng":142.819026,"zip":"0781700"},{"town":"字中越","koaza":"","lat":43.852709,"lng":142.932881,"zip":"0781700"},{"town":"字日東","koaza":"","lat":43.840386,"lng":142.836215,"zip":"0781700"},{"town":"旭町","koaza":"","lat":43.844161,"lng":142.78062,"zip":"0781761"},{"town":"川端町","koaza":"","lat":43.844018,"lng":142.770785,"zip":"0781752"},{"town":"北町","koaza":"","lat":43.852035,"lng":142.772066,"zip":"0781744"},{"town":"栄町","koaza":"","lat":43.848407,"lng":142.758745,"zip":"0781733"},{"town":"新光町","koaza":"","lat":43.846002,"lng":142.764127,"zip":"0781722"},{"town":"新町","koaza":"","lat":43.850666,"lng":142.775978,"zip":"0781762"},{"town":"中央町","koaza":"","lat":43.849546,"lng":142.767253,"zip":"0781741"},{"town":"西町","koaza":"","lat":43.854318,"lng":142.761189,"zip":"0781742"},{"town":"花園町","koaza":"","lat":43.852911,"lng":142.767852,"zip":"0781743"},{"town":"東町","koaza":"","lat":43.84835,"lng":142.783447,"zip":"0781763"},{"town":"本町","koaza":"","lat":43.846569,"lng":142.773787,"zip":"0781751"},{"town":"南町","koaza":"","lat":43.847728,"lng":142.769675,"zip":"0781753"}]