[{"town":"旭町","koaza":"","lat":44.304509,"lng":142.641838,"zip":"0981201"},{"town":"一の橋","koaza":"","lat":44.282714,"lng":142.770373,"zip":"0981331"},{"town":"上名寄","koaza":"","lat":44.322167,"lng":142.585407,"zip":"0981216"},{"town":"北町","koaza":"","lat":44.316391,"lng":142.641628,"zip":"0981212"},{"town":"共栄町","koaza":"","lat":44.301433,"lng":142.639214,"zip":"0981203"},{"town":"渓和","koaza":"","lat":44.276859,"lng":142.679239,"zip":"0981214"},{"town":"幸町","koaza":"","lat":44.303969,"lng":142.634453,"zip":"0981206"},{"town":"三の橋","koaza":"","lat":44.304147,"lng":142.669168,"zip":"0981213"},{"town":"珊瑠","koaza":"","lat":44.401602,"lng":142.656429,"zip":"0981211"},{"town":"錦町","koaza":"","lat":44.30571,"lng":142.638438,"zip":"0981207"},{"town":"西町","koaza":"","lat":44.293586,"lng":142.615719,"zip":"0981205"},{"town":"二の橋","koaza":"","lat":44.30498,"lng":142.705142,"zip":"0981332"},{"town":"班渓","koaza":"","lat":44.229427,"lng":142.677302,"zip":"0981215"},{"town":"緑町","koaza":"","lat":44.302109,"lng":142.645601,"zip":"0981202"},{"town":"南町","koaza":"","lat":44.29435,"lng":142.637229,"zip":"0981204"}]