[{"town":"一条北一丁目","koaza":"","lat":43.083333,"lng":142.834114,"zip":"0810001"},{"town":"一条北二丁目","koaza":"","lat":43.084088,"lng":142.833803,"zip":"0810001"},{"town":"一条南一丁目","koaza":"","lat":43.082305,"lng":142.834512,"zip":"0810011"},{"town":"一条南二丁目","koaza":"","lat":43.081282,"lng":142.834942,"zip":"0810011"},{"town":"一条南三丁目","koaza":"","lat":43.080218,"lng":142.83539,"zip":"0810011"},{"town":"一条南四丁目","koaza":"","lat":43.078837,"lng":142.836055,"zip":"0810011"},{"town":"一条南五丁目","koaza":"","lat":43.07728,"lng":142.836628,"zip":"0810011"},{"town":"一条南六丁目","koaza":"","lat":43.075857,"lng":142.83723,"zip":"0810011"},{"town":"一条南七丁目","koaza":"","lat":43.074545,"lng":142.837498,"zip":"0810011"},{"town":"二条北一丁目","koaza":"","lat":43.083447,"lng":142.835117,"zip":"0810002"},{"town":"二条南一丁目","koaza":"","lat":43.082526,"lng":142.835483,"zip":"0810012"},{"town":"二条南二丁目","koaza":"","lat":43.081613,"lng":142.835887,"zip":"0810012"},{"town":"二条南三丁目","koaza":"","lat":43.080438,"lng":142.836372,"zip":"0810012"},{"town":"二条南四丁目","koaza":"","lat":43.079096,"lng":142.836943,"zip":"0810012"},{"town":"二条南五丁目","koaza":"","lat":43.0775,"lng":142.837612,"zip":"0810012"},{"town":"二条南六丁目","koaza":"","lat":43.075879,"lng":142.838289,"zip":"0810012"},{"town":"二条南七丁目","koaza":"","lat":43.074395,"lng":142.838924,"zip":"0810012"},{"town":"三条北一丁目","koaza":"","lat":43.083461,"lng":142.83656,"zip":"0810003"},{"town":"三条南一丁目","koaza":"","lat":43.082818,"lng":142.836872,"zip":"0810013"},{"town":"三条南二丁目","koaza":"","lat":43.081827,"lng":142.837306,"zip":"0810013"},{"town":"三条南三丁目","koaza":"","lat":43.080754,"lng":142.837764,"zip":"0810013"},{"town":"三条南四丁目","koaza":"","lat":43.079399,"lng":142.838327,"zip":"0810013"},{"town":"三条南五丁目","koaza":"","lat":43.077818,"lng":142.838989,"zip":"0810013"},{"town":"三条南六丁目","koaza":"","lat":43.076175,"lng":142.839691,"zip":"0810013"},{"town":"三条南七丁目","koaza":"","lat":43.074724,"lng":142.840308,"zip":"0810013"},{"town":"四条北一丁目","koaza":"","lat":43.083657,"lng":142.837876,"zip":"0810000"},{"town":"四条南一丁目","koaza":"","lat":43.083097,"lng":142.838225,"zip":"0810014"},{"town":"四条南二丁目","koaza":"","lat":43.08213,"lng":142.838672,"zip":"0810014"},{"town":"四条南三丁目","koaza":"","lat":43.081145,"lng":142.839081,"zip":"0810014"},{"town":"四条南四丁目","koaza":"","lat":43.079681,"lng":142.839719,"zip":"0810014"},{"town":"四条南五丁目","koaza":"","lat":43.078117,"lng":142.840358,"zip":"0810014"},{"town":"四条南六丁目","koaza":"","lat":43.07656,"lng":142.841167,"zip":"0810014"},{"town":"四条南七丁目","koaza":"","lat":43.074967,"lng":142.841912,"zip":"0810014"},{"town":"五条南一丁目","koaza":"","lat":43.083307,"lng":142.840051,"zip":"0810015"},{"town":"五条南二丁目","koaza":"","lat":43.082513,"lng":142.841041,"zip":"0810015"},{"town":"五条南三丁目","koaza":"","lat":43.081529,"lng":142.841509,"zip":"0810015"},{"town":"五条南四丁目","koaza":"","lat":43.08021,"lng":142.84185,"zip":"0810015"},{"town":"五条南五丁目","koaza":"","lat":43.078618,"lng":142.84203,"zip":"0810015"},{"town":"五条南六丁目","koaza":"","lat":43.07698,"lng":142.84248,"zip":"0810015"},{"town":"五条南七丁目","koaza":"","lat":43.075203,"lng":142.843125,"zip":"0810015"},{"town":"字上佐幌","koaza":"","lat":43.136264,"lng":142.876958,"zip":"0810000"},{"town":"字上佐幌基線","koaza":"","lat":43.118955,"lng":142.859557,"zip":"0810000"},{"town":"字上佐幌西一線","koaza":"","lat":43.118704,"lng":142.852651,"zip":"0810000"},{"town":"字上佐幌西二線","koaza":"","lat":43.084494,"lng":142.853612,"zip":"0810000"},{"town":"字上佐幌西三線","koaza":"","lat":43.085424,"lng":142.8456,"zip":"0810000"},{"town":"字上佐幌西四線","koaza":"","lat":43.063256,"lng":142.850541,"zip":"0810000"},{"town":"字上佐幌東一線","koaza":"","lat":43.119282,"lng":142.865822,"zip":"0810000"},{"town":"字上佐幌東二線","koaza":"","lat":43.090243,"lng":142.879546,"zip":"0810000"},{"town":"字上佐幌東三線","koaza":"","lat":43.091673,"lng":142.884029,"zip":"0810000"},{"town":"字屈足","koaza":"","lat":43.193546,"lng":142.893258,"zip":"0810000"},{"town":"字屈足二基線","koaza":"","lat":43.148687,"lng":142.920435,"zip":"0810000"},{"town":"字屈足基線","koaza":"","lat":43.15267,"lng":142.90059,"zip":"0810000"},{"town":"字屈足トムラウシ","koaza":"","lat":43.341363,"lng":142.968387,"zip":"0810000"},{"town":"字屈足西一線","koaza":"","lat":43.129079,"lng":142.887897,"zip":"0810000"},{"town":"字屈足西二線","koaza":"","lat":43.112679,"lng":142.885444,"zip":"0810000"},{"town":"字屈足西三線","koaza":"","lat":43.107776,"lng":142.883386,"zip":"0810000"},{"town":"字屈足東一線","koaza":"","lat":43.128881,"lng":142.902112,"zip":"0810000"},{"town":"字屈足東二線","koaza":"","lat":43.120335,"lng":142.911649,"zip":"0810000"},{"town":"字屈足東三線","koaza":"","lat":43.128435,"lng":142.913002,"zip":"0810000"},{"town":"字下佐幌西三線","koaza":"","lat":43.057048,"lng":142.856818,"zip":"0810000"},{"town":"字下佐幌西四線","koaza":"","lat":43.053303,"lng":142.855025,"zip":"0810000"},{"town":"字下佐幌西五線","koaza":"","lat":43.05103,"lng":142.851136,"zip":"0810000"},{"town":"字新得","koaza":"","lat":43.10194,"lng":142.803421,"zip":"0810000"},{"town":"字新得基線","koaza":"","lat":43.118409,"lng":142.838195,"zip":"0810000"},{"town":"字新得西十線","koaza":"","lat":43.042193,"lng":142.779966,"zip":"0810000"},{"town":"字新得西十一線","koaza":"","lat":43.039307,"lng":142.776425,"zip":"0810000"},{"town":"字新得西一線","koaza":"","lat":43.120727,"lng":142.831815,"zip":"0810000"},{"town":"字新得西二線","koaza":"","lat":43.116078,"lng":142.823923,"zip":"0810000"},{"town":"字新得西三線","koaza":"","lat":43.071275,"lng":142.815968,"zip":"0810000"},{"town":"字新得西四線","koaza":"","lat":43.067782,"lng":142.810419,"zip":"0810000"},{"town":"字新得西五線","koaza":"","lat":43.076723,"lng":142.799791,"zip":"0810000"},{"town":"字新得西六線","koaza":"","lat":43.078555,"lng":142.79208,"zip":"0810000"},{"town":"字新得西七線","koaza":"","lat":43.075959,"lng":142.786304,"zip":"0810000"},{"town":"字新得西八線","koaza":"","lat":43.070667,"lng":142.781421,"zip":"0810000"},{"town":"字新得西九線","koaza":"","lat":43.04215,"lng":142.786252,"zip":"0810000"},{"town":"字新得東一線","koaza":"","lat":43.065986,"lng":142.846475,"zip":"0810000"},{"town":"字新内","koaza":"","lat":43.194295,"lng":142.841968,"zip":"0810000"},{"town":"字新内基線","koaza":"","lat":43.162584,"lng":142.847672,"zip":"0810000"},{"town":"字新内西十線","koaza":"","lat":43.207918,"lng":142.791121,"zip":"0810000"},{"town":"字新内西一線","koaza":"","lat":43.164879,"lng":142.841333,"zip":"0810000"},{"town":"字新内西二線","koaza":"","lat":43.166817,"lng":142.835018,"zip":"0810000"},{"town":"字新内西三線","koaza":"","lat":43.167285,"lng":142.828569,"zip":"0810000"},{"town":"字新内西四線","koaza":"","lat":43.168894,"lng":142.822585,"zip":"0810000"},{"town":"字新内西五線","koaza":"","lat":43.173102,"lng":142.816822,"zip":"0810000"},{"town":"字新内西六線","koaza":"","lat":43.176185,"lng":142.810107,"zip":"0810000"},{"town":"字新内西七線","koaza":"","lat":43.178383,"lng":142.803868,"zip":"0810000"},{"town":"字新内西八線","koaza":"","lat":43.195083,"lng":142.801047,"zip":"0810000"},{"town":"字新内西九線","koaza":"","lat":43.205225,"lng":142.796201,"zip":"0810000"},{"town":"字新内東一線","koaza":"","lat":43.165136,"lng":142.855256,"zip":"0810000"},{"town":"字新内東二線","koaza":"","lat":43.17838,"lng":142.865396,"zip":"0810000"},{"town":"字新内東三線","koaza":"","lat":43.177564,"lng":142.872074,"zip":"0810000"},{"town":"字新内東五線","koaza":"","lat":43.176168,"lng":142.878082,"zip":"0810000"},{"town":"字新内東六線","koaza":"","lat":43.169109,"lng":142.883249,"zip":"0810000"},{"town":"字新内東七線","koaza":"","lat":43.166994,"lng":142.890332,"zip":"0810000"},{"town":"字新内東八線","koaza":"","lat":43.168445,"lng":142.89815,"zip":"0810000"},{"town":"屈足旭町一丁目","koaza":"","lat":43.100208,"lng":142.905593,"zip":"0810151"},{"town":"屈足旭町二丁目","koaza":"","lat":43.09881,"lng":142.906037,"zip":"0810151"},{"town":"屈足旭町三丁目","koaza":"","lat":43.096978,"lng":142.906618,"zip":"0810151"},{"town":"屈足旭町四丁目","koaza":"","lat":43.095146,"lng":142.906646,"zip":"0810151"},{"town":"屈足旭町東一丁目","koaza":"","lat":43.100319,"lng":142.908495,"zip":"0810152"},{"town":"屈足旭町東二丁目","koaza":"","lat":43.098887,"lng":142.909507,"zip":"0810152"},{"town":"屈足旭町東三丁目","koaza":"","lat":43.097274,"lng":142.910021,"zip":"0810152"},{"town":"屈足旭町東四丁目","koaza":"","lat":43.095714,"lng":142.909959,"zip":"0810152"},{"town":"屈足柏町一丁目","koaza":"","lat":43.101672,"lng":142.905168,"zip":"0810161"},{"town":"屈足柏町二丁目","koaza":"","lat":43.103025,"lng":142.904394,"zip":"0810161"},{"town":"屈足柏町三丁目","koaza":"","lat":43.104691,"lng":142.904215,"zip":"0810161"},{"town":"屈足柏町四丁目","koaza":"","lat":43.10652,"lng":142.903671,"zip":"0810161"},{"town":"屈足柏町五丁目","koaza":"","lat":43.108038,"lng":142.903183,"zip":"0810161"},{"town":"屈足柏町東一丁目","koaza":"","lat":43.10223,"lng":142.908486,"zip":"0810162"},{"town":"屈足柏町東二丁目","koaza":"","lat":43.103637,"lng":142.908053,"zip":"0810162"},{"town":"屈足柏町東三丁目","koaza":"","lat":43.105315,"lng":142.907068,"zip":"0810162"},{"town":"屈足柏町東四丁目","koaza":"","lat":43.107023,"lng":142.907014,"zip":"0810162"},{"town":"屈足柏町東五丁目","koaza":"","lat":43.108649,"lng":142.906215,"zip":"0810162"},{"town":"屈足幸町一丁目","koaza":"","lat":43.099486,"lng":142.902331,"zip":"0810155"},{"town":"屈足幸町二丁目","koaza":"","lat":43.098029,"lng":142.902793,"zip":"0810155"},{"town":"屈足幸町三丁目","koaza":"","lat":43.096207,"lng":142.903354,"zip":"0810155"},{"town":"屈足幸町四丁目","koaza":"","lat":43.094686,"lng":142.903829,"zip":"0810155"},{"town":"屈足幸町西一丁目","koaza":"","lat":43.098872,"lng":142.899072,"zip":"0810156"},{"town":"屈足幸町西二丁目","koaza":"","lat":43.097229,"lng":142.899579,"zip":"0810156"},{"town":"屈足幸町西三丁目","koaza":"","lat":43.095662,"lng":142.900072,"zip":"0810156"},{"town":"屈足幸町西四丁目","koaza":"","lat":43.094159,"lng":142.900537,"zip":"0810156"},{"town":"屈足緑町一丁目","koaza":"","lat":43.101099,"lng":142.901839,"zip":"0810163"},{"town":"屈足緑町二丁目","koaza":"","lat":43.102579,"lng":142.901457,"zip":"0810163"},{"town":"屈足緑町三丁目","koaza":"","lat":43.104194,"lng":142.900955,"zip":"0810163"},{"town":"屈足緑町四丁目","koaza":"","lat":43.105995,"lng":142.900413,"zip":"0810163"},{"town":"屈足緑町五丁目","koaza":"","lat":43.107515,"lng":142.899954,"zip":"0810163"},{"town":"屈足緑町西一丁目","koaza":"","lat":43.100561,"lng":142.898562,"zip":"0810164"},{"town":"屈足緑町西二丁目","koaza":"","lat":43.102052,"lng":142.898187,"zip":"0810164"},{"town":"屈足緑町西三丁目","koaza":"","lat":43.103638,"lng":142.897702,"zip":"0810164"},{"town":"屈足緑町西四丁目","koaza":"","lat":43.105457,"lng":142.897154,"zip":"0810164"},{"town":"屈足緑町西五丁目","koaza":"","lat":43.106971,"lng":142.8967,"zip":"0810164"},{"town":"屈足南町","koaza":"","lat":43.093249,"lng":142.904274,"zip":"0810153"},{"town":"栄町","koaza":"","lat":43.086281,"lng":142.839239,"zip":"0810006"},{"town":"拓鉄","koaza":"","lat":43.070884,"lng":142.839267,"zip":"0810037"},{"town":"西一条北一丁目","koaza":"","lat":43.083256,"lng":142.830987,"zip":"0810021"},{"town":"西一条北二丁目","koaza":"","lat":43.08402,"lng":142.829956,"zip":"0810021"},{"town":"西一条北三丁目","koaza":"","lat":43.08489,"lng":142.829994,"zip":"0810021"},{"town":"西一条南一丁目","koaza":"","lat":43.081542,"lng":142.831145,"zip":"0810031"},{"town":"西一条南二丁目","koaza":"","lat":43.08069,"lng":142.831498,"zip":"0810031"},{"town":"西一条南三丁目","koaza":"","lat":43.079659,"lng":142.832257,"zip":"0810031"},{"town":"西一条南四丁目","koaza":"","lat":43.077863,"lng":142.832699,"zip":"0810031"},{"town":"西一条南五丁目","koaza":"","lat":43.07652,"lng":142.83324,"zip":"0810031"},{"town":"西一条南六丁目","koaza":"","lat":43.074849,"lng":142.834259,"zip":"0810031"},{"town":"西一条南七丁目","koaza":"","lat":43.073311,"lng":142.834572,"zip":"0810031"},{"town":"西二条北一丁目","koaza":"","lat":43.082067,"lng":142.827531,"zip":"0810022"},{"town":"西二条北二丁目","koaza":"","lat":43.082984,"lng":142.827864,"zip":"0810022"},{"town":"西二条北三丁目","koaza":"","lat":43.084076,"lng":142.824537,"zip":"0810022"},{"town":"西二条南一丁目","koaza":"","lat":43.080835,"lng":142.828017,"zip":"0810032"},{"town":"西二条南二丁目","koaza":"","lat":43.079888,"lng":142.828068,"zip":"0810032"},{"town":"西二条南三丁目","koaza":"","lat":43.078957,"lng":142.828823,"zip":"0810032"},{"town":"西二条南四丁目","koaza":"","lat":43.077315,"lng":142.82915,"zip":"0810032"},{"town":"西二条南五丁目","koaza":"","lat":43.075836,"lng":142.830124,"zip":"0810032"},{"town":"西二条南六丁目","koaza":"","lat":43.074221,"lng":142.830809,"zip":"0810032"},{"town":"西二条南七丁目","koaza":"","lat":43.072617,"lng":142.831478,"zip":"0810032"},{"town":"西三条北一丁目","koaza":"","lat":43.082548,"lng":142.824002,"zip":"0810023"},{"town":"西三条南一丁目","koaza":"","lat":43.080295,"lng":142.824707,"zip":"0810033"},{"town":"西三条南二丁目","koaza":"","lat":43.079602,"lng":142.825358,"zip":"0810033"},{"town":"西三条南三丁目","koaza":"","lat":43.078308,"lng":142.825566,"zip":"0810033"},{"town":"西三条南四丁目","koaza":"","lat":43.076729,"lng":142.826197,"zip":"0810033"},{"town":"西三条南五丁目","koaza":"","lat":43.075105,"lng":142.826869,"zip":"0810033"},{"town":"西三条南六丁目","koaza":"","lat":43.073481,"lng":142.827545,"zip":"0810033"},{"town":"西三条南七丁目","koaza":"","lat":43.071877,"lng":142.828204,"zip":"0810033"},{"town":"西四条北一丁目","koaza":"","lat":43.082472,"lng":142.820881,"zip":"0810000"},{"town":"西四条南一丁目","koaza":"","lat":43.079576,"lng":142.821448,"zip":"0810034"},{"town":"西四条南二丁目","koaza":"","lat":43.078815,"lng":142.821767,"zip":"0810034"},{"town":"西四条南三丁目","koaza":"","lat":43.077599,"lng":142.822276,"zip":"0810034"},{"town":"西四条南四丁目","koaza":"","lat":43.075994,"lng":142.822934,"zip":"0810034"},{"town":"西四条南五丁目","koaza":"","lat":43.073736,"lng":142.823655,"zip":"0810034"},{"town":"西四条南六丁目","koaza":"","lat":43.072728,"lng":142.825114,"zip":"0810034"},{"town":"西四条南七丁目","koaza":"","lat":43.071142,"lng":142.824972,"zip":"0810034"},{"town":"本通北一丁目","koaza":"","lat":43.083104,"lng":142.832986,"zip":"0810005"},{"town":"本通北二丁目","koaza":"","lat":43.084021,"lng":142.83262,"zip":"0810005"},{"town":"本通北三丁目","koaza":"","lat":43.084829,"lng":142.832245,"zip":"0810005"},{"town":"本通北四丁目","koaza":"","lat":43.08648,"lng":142.831404,"zip":"0810005"},{"town":"本通北五丁目","koaza":"","lat":43.089833,"lng":142.832778,"zip":"0810005"},{"town":"本通北六丁目","koaza":"","lat":43.094864,"lng":142.834584,"zip":"0810005"},{"town":"本通南一丁目","koaza":"","lat":43.082055,"lng":142.833412,"zip":"0810008"},{"town":"本通南二丁目","koaza":"","lat":43.080725,"lng":142.833961,"zip":"0810008"},{"town":"本通南三丁目","koaza":"","lat":43.080067,"lng":142.834147,"zip":"0810008"},{"town":"本通南四丁目","koaza":"","lat":43.078624,"lng":142.834846,"zip":"0810008"},{"town":"本通南五丁目","koaza":"","lat":43.077192,"lng":142.835456,"zip":"0810008"},{"town":"本通南六丁目","koaza":"","lat":43.075485,"lng":142.83615,"zip":"0810008"},{"town":"本通南七丁目","koaza":"","lat":43.073919,"lng":142.836687,"zip":"0810008"},{"town":"元町","koaza":"","lat":43.085958,"lng":142.833913,"zip":"0810007"}]