[{"town":"字旭山","koaza":"","lat":42.879327,"lng":142.887027,"zip":"0890100"},{"town":"字旭山西一号","koaza":"","lat":42.855671,"lng":142.930548,"zip":"0890100"},{"town":"字旭山南十線","koaza":"","lat":42.902233,"lng":142.918308,"zip":"0890100"},{"town":"字旭山南七線","koaza":"","lat":42.90784,"lng":142.944712,"zip":"0890100"},{"town":"字旭山南八線","koaza":"","lat":42.905884,"lng":142.933833,"zip":"0890100"},{"town":"字旭山南九線","koaza":"","lat":42.905189,"lng":142.923887,"zip":"0890100"},{"town":"字上然別","koaza":"","lat":43.080331,"lng":142.952468,"zip":"0890100"},{"town":"字上然別西二十五線","koaza":"","lat":43.081166,"lng":142.948602,"zip":"0890100"},{"town":"字上然別西二十六線","koaza":"","lat":43.082666,"lng":142.94368,"zip":"0890100"},{"town":"字熊牛","koaza":"","lat":43.040457,"lng":142.946997,"zip":"0890100"},{"town":"字清水","koaza":"","lat":42.976103,"lng":142.793684,"zip":"0890100"},{"town":"字清水基線","koaza":"","lat":42.999377,"lng":142.912842,"zip":"0890100"},{"town":"字清水基線西","koaza":"","lat":43.028748,"lng":142.870211,"zip":"0890100"},{"town":"字清水第十線","koaza":"","lat":42.986485,"lng":142.838599,"zip":"0890100"},{"town":"字清水第十一線","koaza":"","lat":42.985685,"lng":142.830859,"zip":"0890100"},{"town":"字清水第十二線","koaza":"","lat":42.982028,"lng":142.826321,"zip":"0890100"},{"town":"字清水第一線","koaza":"","lat":42.995381,"lng":142.908592,"zip":"0890100"},{"town":"字清水第二線","koaza":"","lat":42.993438,"lng":142.90162,"zip":"0890100"},{"town":"字清水第三線","koaza":"","lat":42.991146,"lng":142.895612,"zip":"0890100"},{"town":"字清水第四線","koaza":"","lat":43.005377,"lng":142.870335,"zip":"0890100"},{"town":"字清水第五線","koaza":"","lat":43.003806,"lng":142.863252,"zip":"0890100"},{"town":"字清水第六線","koaza":"","lat":43.002386,"lng":142.855994,"zip":"0890100"},{"town":"字清水第七線","koaza":"","lat":43.00236,"lng":142.847464,"zip":"0890100"},{"town":"字清水第八線","koaza":"","lat":42.987137,"lng":142.855563,"zip":"0890100"},{"town":"字清水第九線","koaza":"","lat":42.986753,"lng":142.847204,"zip":"0890100"},{"town":"字清水西基線","koaza":"","lat":43.030557,"lng":142.877184,"zip":"0890100"},{"town":"字清水東一線","koaza":"","lat":43.022136,"lng":142.895791,"zip":"0890100"},{"town":"字下佐幌基線","koaza":"","lat":43.023651,"lng":142.911509,"zip":"0890100"},{"town":"字下佐幌西一線","koaza":"","lat":43.023968,"lng":142.903485,"zip":"0890100"},{"town":"字下佐幌西二線","koaza":"","lat":43.042677,"lng":142.879066,"zip":"0890100"},{"town":"字下佐幌西三線","koaza":"","lat":43.050986,"lng":142.864144,"zip":"0890100"},{"town":"字下佐幌西四線","koaza":"","lat":43.04629,"lng":142.861432,"zip":"0890100"},{"town":"字下佐幌西五線","koaza":"","lat":43.042641,"lng":142.856198,"zip":"0890100"},{"town":"字下佐幌東一線","koaza":"","lat":43.026402,"lng":142.916402,"zip":"0890100"},{"town":"字下佐幌東二線","koaza":"","lat":43.049227,"lng":142.905175,"zip":"0890100"},{"town":"字下佐幌東三線","koaza":"","lat":43.058184,"lng":142.904167,"zip":"0890100"},{"town":"字羽帯","koaza":"","lat":42.913876,"lng":142.79113,"zip":"0890100"},{"town":"字羽帯基線","koaza":"","lat":42.967152,"lng":142.918034,"zip":"0890100"},{"town":"字羽帯北一線","koaza":"","lat":42.972052,"lng":142.919833,"zip":"0890100"},{"town":"字羽帯北二線","koaza":"","lat":42.972745,"lng":142.928781,"zip":"0890100"},{"town":"字羽帯北三線","koaza":"","lat":42.975013,"lng":142.935708,"zip":"0890100"},{"town":"字羽帯北四線","koaza":"","lat":42.977719,"lng":142.942428,"zip":"0890100"},{"town":"字羽帯北五線","koaza":"","lat":42.980468,"lng":142.946476,"zip":"0890100"},{"town":"字羽帯南十線","koaza":"","lat":42.930641,"lng":142.871436,"zip":"0890100"},{"town":"字羽帯南十一線","koaza":"","lat":42.926851,"lng":142.86708,"zip":"0890100"},{"town":"字羽帯南十二線","koaza":"","lat":42.923139,"lng":142.862507,"zip":"0890100"},{"town":"字羽帯南十三線","koaza":"","lat":42.919156,"lng":142.858704,"zip":"0890100"},{"town":"字羽帯南十四線","koaza":"","lat":42.914493,"lng":142.855651,"zip":"0890100"},{"town":"字羽帯南十五線","koaza":"","lat":42.915283,"lng":142.843544,"zip":"0890100"},{"town":"字羽帯南十六線","koaza":"","lat":42.911846,"lng":142.83907,"zip":"0890100"},{"town":"字羽帯南十七線","koaza":"","lat":42.909964,"lng":142.831925,"zip":"0890100"},{"town":"字羽帯南十八線","koaza":"","lat":42.910609,"lng":142.816756,"zip":"0890100"},{"town":"字羽帯南一線","koaza":"","lat":42.96439,"lng":142.912064,"zip":"0890100"},{"town":"字羽帯南二線","koaza":"","lat":42.96166,"lng":142.906146,"zip":"0890100"},{"town":"字羽帯南三線","koaza":"","lat":42.960856,"lng":142.896879,"zip":"0890100"},{"town":"字羽帯南四線","koaza":"","lat":42.959116,"lng":142.889133,"zip":"0890100"},{"town":"字羽帯南五線","koaza":"","lat":42.958956,"lng":142.878793,"zip":"0890100"},{"town":"字羽帯南六線","koaza":"","lat":42.956838,"lng":142.871335,"zip":"0890100"},{"town":"字羽帯南七線","koaza":"","lat":42.952416,"lng":142.867795,"zip":"0890100"},{"town":"字羽帯南八線","koaza":"","lat":42.949156,"lng":142.862596,"zip":"0890100"},{"town":"字羽帯南九線","koaza":"","lat":42.939375,"lng":142.86795,"zip":"0890100"},{"town":"字人舞","koaza":"","lat":43.049373,"lng":142.921565,"zip":"0890100"},{"town":"字美蔓","koaza":"","lat":43.072296,"lng":142.954148,"zip":"0890100"},{"town":"字美蔓西十六線","koaza":"","lat":43.025256,"lng":143.020224,"zip":"0890100"},{"town":"字美蔓西十七線","koaza":"","lat":43.028128,"lng":143.013776,"zip":"0890100"},{"town":"字美蔓西十八線","koaza":"","lat":43.030144,"lng":143.0062,"zip":"0890100"},{"town":"字美蔓西十九線","koaza":"","lat":43.032947,"lng":142.998704,"zip":"0890100"},{"town":"字美蔓西二十線","koaza":"","lat":43.023045,"lng":142.993072,"zip":"0890100"},{"town":"字美蔓西二十一線","koaza":"","lat":43.024487,"lng":142.986078,"zip":"0890100"},{"town":"字美蔓西二十二線","koaza":"","lat":43.026345,"lng":142.97911,"zip":"0890100"},{"town":"字美蔓西二十三線","koaza":"","lat":43.039656,"lng":142.970432,"zip":"0890100"},{"town":"字美蔓西二十四線","koaza":"","lat":43.04628,"lng":142.962833,"zip":"0890100"},{"town":"字美蔓西二十五線","koaza":"","lat":43.05325,"lng":142.955711,"zip":"0890100"},{"town":"字御影","koaza":"","lat":42.964841,"lng":142.95146,"zip":"0890100"},{"town":"字御影基線","koaza":"","lat":42.945847,"lng":142.953751,"zip":"0890100"},{"town":"字御影北一線","koaza":"","lat":42.949106,"lng":142.958401,"zip":"0890100"},{"town":"字御影北二線","koaza":"","lat":42.949162,"lng":142.967728,"zip":"0890100"},{"town":"字御影南一線","koaza":"","lat":42.939469,"lng":142.953664,"zip":"0890100"},{"town":"字御影南二線","koaza":"","lat":42.933828,"lng":142.9525,"zip":"0890100"},{"town":"字御影南三線","koaza":"","lat":42.938455,"lng":142.931272,"zip":"0890100"},{"town":"字御影南四線","koaza":"","lat":42.936863,"lng":142.924981,"zip":"0890100"},{"town":"字御影南五線","koaza":"","lat":42.927999,"lng":142.929851,"zip":"0890100"},{"town":"字御影南六線","koaza":"","lat":42.925299,"lng":142.923342,"zip":"0890100"},{"town":"字御影南七線","koaza":"","lat":42.924521,"lng":142.91372,"zip":"0890100"},{"town":"字御影南八線","koaza":"","lat":42.922388,"lng":142.90692,"zip":"0890100"},{"town":"字御影南九線","koaza":"","lat":42.92181,"lng":142.899973,"zip":"0890100"},{"town":"北一条十丁目","koaza":"","lat":43.020365,"lng":142.888089,"zip":"0890135"},{"town":"北一条一丁目","koaza":"","lat":43.014601,"lng":142.878573,"zip":"0890135"},{"town":"北一条二丁目","koaza":"","lat":43.015059,"lng":142.879806,"zip":"0890135"},{"town":"北一条三丁目","koaza":"","lat":43.015868,"lng":142.880892,"zip":"0890135"},{"town":"北一条四丁目","koaza":"","lat":43.016591,"lng":142.88204,"zip":"0890135"},{"town":"北一条五丁目","koaza":"","lat":43.017123,"lng":142.882889,"zip":"0890135"},{"town":"北一条六丁目","koaza":"","lat":43.017659,"lng":142.883746,"zip":"0890135"},{"town":"北一条七丁目","koaza":"","lat":43.018506,"lng":142.885101,"zip":"0890135"},{"town":"北一条八丁目","koaza":"","lat":43.019231,"lng":142.886275,"zip":"0890135"},{"town":"北一条九丁目","koaza":"","lat":43.019794,"lng":142.887175,"zip":"0890135"},{"town":"北一条西一丁目","koaza":"","lat":43.01384,"lng":142.877587,"zip":"0890124"},{"town":"北一条西二丁目","koaza":"","lat":43.01307,"lng":142.876642,"zip":"0890124"},{"town":"北一条西三丁目","koaza":"","lat":43.012383,"lng":142.875345,"zip":"0890124"},{"town":"北一条西四丁目","koaza":"","lat":43.01183,"lng":142.87421,"zip":"0890124"},{"town":"北一条西五丁目","koaza":"","lat":43.011105,"lng":142.873314,"zip":"0890124"},{"town":"北二条十丁目","koaza":"","lat":43.021278,"lng":142.88716,"zip":"0890134"},{"town":"北二条一丁目","koaza":"","lat":43.015211,"lng":142.877301,"zip":"0890134"},{"town":"北二条二丁目","koaza":"","lat":43.016159,"lng":142.878767,"zip":"0890134"},{"town":"北二条三丁目","koaza":"","lat":43.016719,"lng":142.879966,"zip":"0890134"},{"town":"北二条四丁目","koaza":"","lat":43.017446,"lng":142.881052,"zip":"0890134"},{"town":"北二条五丁目","koaza":"","lat":43.017979,"lng":142.881898,"zip":"0890134"},{"town":"北二条六丁目","koaza":"","lat":43.018573,"lng":142.882879,"zip":"0890134"},{"town":"北二条七丁目","koaza":"","lat":43.019359,"lng":142.8842,"zip":"0890134"},{"town":"北二条八丁目","koaza":"","lat":43.020615,"lng":142.885632,"zip":"0890134"},{"town":"北二条西一丁目","koaza":"","lat":43.014827,"lng":142.876318,"zip":"0890123"},{"town":"北二条西二丁目","koaza":"","lat":43.014283,"lng":142.875098,"zip":"0890123"},{"town":"北二条西三丁目","koaza":"","lat":43.013345,"lng":142.873944,"zip":"0890123"},{"town":"北二条西四丁目","koaza":"","lat":43.012682,"lng":142.87288,"zip":"0890123"},{"town":"北二条西五丁目","koaza":"","lat":43.012233,"lng":142.872153,"zip":"0890123"},{"town":"北二条西六丁目","koaza":"","lat":43.011317,"lng":142.871447,"zip":"0890123"},{"town":"北二条西七丁目","koaza":"","lat":43.010621,"lng":142.870152,"zip":"0890123"},{"town":"北三条十丁目","koaza":"","lat":43.021888,"lng":142.886468,"zip":"0890133"},{"town":"北三条一丁目","koaza":"","lat":43.016067,"lng":142.876789,"zip":"0890133"},{"town":"北三条二丁目","koaza":"","lat":43.016775,"lng":142.878419,"zip":"0890133"},{"town":"北三条三丁目","koaza":"","lat":43.017531,"lng":142.879223,"zip":"0890133"},{"town":"北三条四丁目","koaza":"","lat":43.018223,"lng":142.879986,"zip":"0890133"},{"town":"北三条五丁目","koaza":"","lat":43.018802,"lng":142.881067,"zip":"0890133"},{"town":"北三条六丁目","koaza":"","lat":43.019146,"lng":142.882131,"zip":"0890133"},{"town":"北三条七丁目","koaza":"","lat":43.019943,"lng":142.883448,"zip":"0890133"},{"town":"北三条西一丁目","koaza":"","lat":43.016009,"lng":142.875485,"zip":"0890122"},{"town":"北三条西二丁目","koaza":"","lat":43.015662,"lng":142.874487,"zip":"0890122"},{"town":"北三条西三丁目","koaza":"","lat":43.014611,"lng":142.873867,"zip":"0890122"},{"town":"北三条西六丁目","koaza":"","lat":43.012239,"lng":142.870418,"zip":"0890122"},{"town":"北三条西七丁目","koaza":"","lat":43.011515,"lng":142.869217,"zip":"0890122"},{"town":"北四条一丁目","koaza":"","lat":43.016849,"lng":142.875615,"zip":"0890132"},{"town":"北四条三丁目","koaza":"","lat":43.01855,"lng":142.87852,"zip":"0890132"},{"town":"北四条四丁目","koaza":"","lat":43.019079,"lng":142.879188,"zip":"0890132"},{"town":"北四条五丁目","koaza":"","lat":43.019595,"lng":142.880038,"zip":"0890132"},{"town":"北四条西一丁目","koaza":"","lat":43.016613,"lng":142.874704,"zip":"0890121"},{"town":"北四条西三丁目","koaza":"","lat":43.01533,"lng":142.873119,"zip":"0890121"},{"town":"北四条西六丁目","koaza":"","lat":43.013109,"lng":142.869324,"zip":"0890121"},{"town":"北四条西七丁目","koaza":"","lat":43.01231,"lng":142.868026,"zip":"0890121"},{"town":"北五条四丁目","koaza":"","lat":43.020106,"lng":142.878274,"zip":"0890131"},{"town":"北五条五丁目","koaza":"","lat":43.020733,"lng":142.87883,"zip":"0890131"},{"town":"本通十丁目","koaza":"","lat":43.019503,"lng":142.889086,"zip":"0890136"},{"town":"本通十一丁目","koaza":"","lat":43.020962,"lng":142.8897,"zip":"0890136"},{"town":"本通十二丁目","koaza":"","lat":43.020648,"lng":142.891524,"zip":"0890136"},{"town":"本通一丁目","koaza":"","lat":43.013663,"lng":142.879903,"zip":"0890136"},{"town":"本通二丁目","koaza":"","lat":43.014249,"lng":142.880614,"zip":"0890136"},{"town":"本通三丁目","koaza":"","lat":43.015,"lng":142.88189,"zip":"0890136"},{"town":"本通四丁目","koaza":"","lat":43.015723,"lng":142.883037,"zip":"0890136"},{"town":"本通五丁目","koaza":"","lat":43.016255,"lng":142.883887,"zip":"0890136"},{"town":"本通六丁目","koaza":"","lat":43.016979,"lng":142.884796,"zip":"0890136"},{"town":"本通七丁目","koaza":"","lat":43.017547,"lng":142.885958,"zip":"0890136"},{"town":"本通八丁目","koaza":"","lat":43.01823,"lng":142.887076,"zip":"0890136"},{"town":"本通九丁目","koaza":"","lat":43.018929,"lng":142.888173,"zip":"0890136"},{"town":"本通西十丁目","koaza":"","lat":43.006852,"lng":142.869351,"zip":"0890125"},{"town":"本通西一丁目","koaza":"","lat":43.013282,"lng":142.8785,"zip":"0890125"},{"town":"本通西二丁目","koaza":"","lat":43.011935,"lng":142.877742,"zip":"0890125"},{"town":"本通西三丁目","koaza":"","lat":43.011513,"lng":142.876373,"zip":"0890125"},{"town":"本通西四丁目","koaza":"","lat":43.011033,"lng":142.875317,"zip":"0890125"},{"town":"本通西五丁目","koaza":"","lat":43.010272,"lng":142.874234,"zip":"0890125"},{"town":"本通西六丁目","koaza":"","lat":43.00928,"lng":142.873181,"zip":"0890125"},{"town":"本通西七丁目","koaza":"","lat":43.008615,"lng":142.871727,"zip":"0890125"},{"town":"本通西八丁目","koaza":"","lat":43.007987,"lng":142.871076,"zip":"0890125"},{"town":"本通西九丁目","koaza":"","lat":43.007442,"lng":142.870204,"zip":"0890125"},{"town":"御影西一条一丁目","koaza":"","lat":42.943731,"lng":142.935214,"zip":"0890351"},{"town":"御影西一条二丁目","koaza":"","lat":42.944394,"lng":142.935933,"zip":"0890351"},{"town":"御影西一条三丁目","koaza":"","lat":42.945368,"lng":142.937015,"zip":"0890351"},{"town":"御影西一条四丁目","koaza":"","lat":42.946427,"lng":142.938174,"zip":"0890351"},{"town":"御影西一条五丁目","koaza":"","lat":42.947107,"lng":142.93899,"zip":"0890351"},{"town":"御影西二条一丁目","koaza":"","lat":42.944364,"lng":142.933984,"zip":"0890352"},{"town":"御影西二条二丁目","koaza":"","lat":42.945406,"lng":142.935116,"zip":"0890352"},{"town":"御影西二条三丁目","koaza":"","lat":42.946267,"lng":142.936071,"zip":"0890352"},{"town":"御影西二条四丁目","koaza":"","lat":42.94712,"lng":142.936737,"zip":"0890352"},{"town":"御影西二条五丁目","koaza":"","lat":42.947666,"lng":142.937832,"zip":"0890352"},{"town":"御影西三条一丁目","koaza":"","lat":42.945131,"lng":142.932733,"zip":"0890353"},{"town":"御影西三条二丁目","koaza":"","lat":42.945921,"lng":142.933599,"zip":"0890353"},{"town":"御影西三条三丁目","koaza":"","lat":42.94687,"lng":142.934653,"zip":"0890353"},{"town":"御影西三条四丁目","koaza":"","lat":42.947591,"lng":142.935467,"zip":"0890353"},{"town":"御影東一条一丁目","koaza":"","lat":42.942311,"lng":142.937596,"zip":"0890371"},{"town":"御影東一条二丁目","koaza":"","lat":42.942991,"lng":142.938333,"zip":"0890371"},{"town":"御影東一条三丁目","koaza":"","lat":42.943926,"lng":142.939354,"zip":"0890371"},{"town":"御影東一条四丁目","koaza":"","lat":42.944917,"lng":142.940468,"zip":"0890371"},{"town":"御影東一条五丁目","koaza":"","lat":42.945878,"lng":142.941744,"zip":"0890371"},{"town":"御影東一条南一丁目","koaza":"","lat":42.941304,"lng":142.936464,"zip":"0890361"},{"town":"御影東一条南二丁目","koaza":"","lat":42.940243,"lng":142.935273,"zip":"0890361"},{"town":"御影東一条南三丁目","koaza":"","lat":42.939219,"lng":142.934116,"zip":"0890361"},{"town":"御影東二条一丁目","koaza":"","lat":42.941492,"lng":142.938687,"zip":"0890372"},{"town":"御影東二条二丁目","koaza":"","lat":42.942299,"lng":142.939542,"zip":"0890372"},{"town":"御影東二条三丁目","koaza":"","lat":42.943112,"lng":142.940424,"zip":"0890372"},{"town":"御影東二条四丁目","koaza":"","lat":42.944528,"lng":142.942392,"zip":"0890372"},{"town":"御影東二条南一丁目","koaza":"","lat":42.940613,"lng":142.937999,"zip":"0890362"},{"town":"御影東二条南二丁目","koaza":"","lat":42.939459,"lng":142.936333,"zip":"0890362"},{"town":"御影東二条南三丁目","koaza":"","lat":42.938511,"lng":142.935265,"zip":"0890362"},{"town":"御影東三条一丁目","koaza":"","lat":42.940895,"lng":142.939693,"zip":"0890373"},{"town":"御影東三条二丁目","koaza":"","lat":42.941743,"lng":142.940666,"zip":"0890373"},{"town":"御影東三条三丁目","koaza":"","lat":42.942574,"lng":142.941625,"zip":"0890373"},{"town":"御影東三条四丁目","koaza":"","lat":42.943336,"lng":142.942861,"zip":"0890373"},{"town":"御影東三条五丁目","koaza":"","lat":42.944061,"lng":142.943664,"zip":"0890373"},{"town":"御影東三条南一丁目","koaza":"","lat":42.939691,"lng":142.938049,"zip":"0890363"},{"town":"御影東三条南二丁目","koaza":"","lat":42.93896,"lng":142.937144,"zip":"0890363"},{"town":"御影東三条南三丁目","koaza":"","lat":42.938009,"lng":142.936084,"zip":"0890363"},{"town":"御影東四条一丁目","koaza":"","lat":42.940353,"lng":142.940601,"zip":"0890374"},{"town":"御影東四条二丁目","koaza":"","lat":42.940902,"lng":142.941664,"zip":"0890374"},{"town":"御影東四条三丁目","koaza":"","lat":42.941916,"lng":142.942728,"zip":"0890374"},{"town":"御影東四条四丁目","koaza":"","lat":42.942898,"lng":142.943561,"zip":"0890374"},{"town":"御影東四条五丁目","koaza":"","lat":42.943642,"lng":142.94448,"zip":"0890374"},{"town":"御影東四条六丁目","koaza":"","lat":42.944234,"lng":142.944502,"zip":"0890374"},{"town":"御影東五条一丁目","koaza":"","lat":42.939733,"lng":142.941616,"zip":"0890375"},{"town":"御影東五条四丁目","koaza":"","lat":42.942372,"lng":142.944435,"zip":"0890375"},{"town":"御影東五条五丁目","koaza":"","lat":42.943086,"lng":142.945243,"zip":"0890375"},{"town":"御影東五条六丁目","koaza":"","lat":42.943631,"lng":142.94582,"zip":"0890375"},{"town":"御影東六条一丁目","koaza":"","lat":42.939069,"lng":142.942994,"zip":"0890376"},{"town":"御影東六条四丁目","koaza":"","lat":42.941775,"lng":142.945439,"zip":"0890376"},{"town":"御影東六条五丁目","koaza":"","lat":42.942448,"lng":142.946364,"zip":"0890376"},{"town":"御影東六条六丁目","koaza":"","lat":42.943189,"lng":142.946966,"zip":"0890376"},{"town":"御影東七条一丁目","koaza":"","lat":42.938409,"lng":142.944588,"zip":"0890377"},{"town":"御影東七条四丁目","koaza":"","lat":42.941063,"lng":142.946669,"zip":"0890377"},{"town":"御影東七条五丁目","koaza":"","lat":42.94166,"lng":142.947337,"zip":"0890377"},{"town":"御影東八条四丁目","koaza":"","lat":42.940513,"lng":142.947627,"zip":"0890378"},{"town":"御影東八条五丁目","koaza":"","lat":42.941116,"lng":142.948317,"zip":"0890378"},{"town":"御影本通一丁目","koaza":"","lat":42.94302,"lng":142.936263,"zip":"0890354"},{"town":"御影本通二丁目","koaza":"","lat":42.943695,"lng":142.937152,"zip":"0890354"},{"town":"御影本通三丁目","koaza":"","lat":42.944735,"lng":142.938296,"zip":"0890354"},{"town":"御影本通四丁目","koaza":"","lat":42.945626,"lng":142.939292,"zip":"0890354"},{"town":"御影本通五丁目","koaza":"","lat":42.946447,"lng":142.940183,"zip":"0890354"},{"town":"南十条十丁目","koaza":"","lat":43.010764,"lng":142.898621,"zip":"0890118"},{"town":"南十条六丁目","koaza":"","lat":43.008373,"lng":142.894503,"zip":"0890118"},{"town":"南十条七丁目","koaza":"","lat":43.008993,"lng":142.89566,"zip":"0890118"},{"town":"南十条八丁目","koaza":"","lat":43.009406,"lng":142.896346,"zip":"0890118"},{"town":"南十条九丁目","koaza":"","lat":43.009846,"lng":142.897326,"zip":"0890118"},{"town":"南一条十丁目","koaza":"","lat":43.01861,"lng":142.890123,"zip":"0890137"},{"town":"南一条十一丁目","koaza":"","lat":43.019148,"lng":142.890974,"zip":"0890137"},{"town":"南一条十二丁目","koaza":"","lat":43.019961,"lng":142.892285,"zip":"0890137"},{"town":"南一条一丁目","koaza":"","lat":43.012593,"lng":142.880793,"zip":"0890137"},{"town":"南一条二丁目","koaza":"","lat":43.013393,"lng":142.88173,"zip":"0890137"},{"town":"南一条三丁目","koaza":"","lat":43.014121,"lng":142.882896,"zip":"0890137"},{"town":"南一条四丁目","koaza":"","lat":43.014843,"lng":142.88405,"zip":"0890137"},{"town":"南一条五丁目","koaza":"","lat":43.01537,"lng":142.88491,"zip":"0890137"},{"town":"南一条六丁目","koaza":"","lat":43.015935,"lng":142.885823,"zip":"0890137"},{"town":"南一条七丁目","koaza":"","lat":43.016651,"lng":142.886974,"zip":"0890137"},{"town":"南一条八丁目","koaza":"","lat":43.017347,"lng":142.888087,"zip":"0890137"},{"town":"南一条九丁目","koaza":"","lat":43.018041,"lng":142.889198,"zip":"0890137"},{"town":"南一条西十丁目","koaza":"","lat":43.006702,"lng":142.869879,"zip":"0890126"},{"town":"南一条西一丁目","koaza":"","lat":43.012111,"lng":142.879283,"zip":"0890126"},{"town":"南一条西二丁目","koaza":"","lat":43.011095,"lng":142.878717,"zip":"0890126"},{"town":"南一条西三丁目","koaza":"","lat":43.010609,"lng":142.877355,"zip":"0890126"},{"town":"南一条西四丁目","koaza":"","lat":43.010059,"lng":142.876287,"zip":"0890126"},{"town":"南一条西五丁目","koaza":"","lat":43.009608,"lng":142.875265,"zip":"0890126"},{"town":"南一条西六丁目","koaza":"","lat":43.008583,"lng":142.873905,"zip":"0890126"},{"town":"南一条西七丁目","koaza":"","lat":43.007828,"lng":142.872616,"zip":"0890126"},{"town":"南一条西八丁目","koaza":"","lat":43.007561,"lng":142.871535,"zip":"0890126"},{"town":"南一条西九丁目","koaza":"","lat":43.007108,"lng":142.870495,"zip":"0890126"},{"town":"南二条十丁目","koaza":"","lat":43.017774,"lng":142.89108,"zip":"0890138"},{"town":"南二条十一丁目","koaza":"","lat":43.018314,"lng":142.891936,"zip":"0890138"},{"town":"南二条十二丁目","koaza":"","lat":43.019199,"lng":142.89316,"zip":"0890138"},{"town":"南二条一丁目","koaza":"","lat":43.011871,"lng":142.88162,"zip":"0890138"},{"town":"南二条二丁目","koaza":"","lat":43.012407,"lng":142.882897,"zip":"0890138"},{"town":"南二条三丁目","koaza":"","lat":43.013288,"lng":142.883858,"zip":"0890138"},{"town":"南二条四丁目","koaza":"","lat":43.014006,"lng":142.88501,"zip":"0890138"},{"town":"南二条五丁目","koaza":"","lat":43.014529,"lng":142.885879,"zip":"0890138"},{"town":"南二条六丁目","koaza":"","lat":43.015097,"lng":142.886795,"zip":"0890138"},{"town":"南二条七丁目","koaza":"","lat":43.015816,"lng":142.88794,"zip":"0890138"},{"town":"南二条八丁目","koaza":"","lat":43.01651,"lng":142.889045,"zip":"0890138"},{"town":"南二条九丁目","koaza":"","lat":43.017201,"lng":142.890156,"zip":"0890138"},{"town":"南二条西一丁目","koaza":"","lat":43.011071,"lng":142.880342,"zip":"0890127"},{"town":"南二条西二丁目","koaza":"","lat":43.010263,"lng":142.879369,"zip":"0890127"},{"town":"南二条西三丁目","koaza":"","lat":43.009812,"lng":142.878113,"zip":"0890127"},{"town":"南二条西四丁目","koaza":"","lat":43.009192,"lng":142.87721,"zip":"0890127"},{"town":"南二条西五丁目","koaza":"","lat":43.008606,"lng":142.876255,"zip":"0890127"},{"town":"南二条西六丁目","koaza":"","lat":43.007756,"lng":142.874863,"zip":"0890127"},{"town":"南二条西七丁目","koaza":"","lat":43.006988,"lng":142.873347,"zip":"0890127"},{"town":"南三条十丁目","koaza":"","lat":43.016938,"lng":142.892037,"zip":"0890111"},{"town":"南三条十一丁目","koaza":"","lat":43.017479,"lng":142.892907,"zip":"0890111"},{"town":"南三条十二丁目","koaza":"","lat":43.018284,"lng":142.894284,"zip":"0890111"},{"town":"南三条十三丁目","koaza":"","lat":43.018556,"lng":142.895707,"zip":"0890111"},{"town":"南三条一丁目","koaza":"","lat":43.01114,"lng":142.882458,"zip":"0890111"},{"town":"南三条二丁目","koaza":"","lat":43.011603,"lng":142.88381,"zip":"0890111"},{"town":"南三条三丁目","koaza":"","lat":43.012359,"lng":142.884933,"zip":"0890111"},{"town":"南三条四丁目","koaza":"","lat":43.013221,"lng":142.885904,"zip":"0890111"},{"town":"南三条五丁目","koaza":"","lat":43.013746,"lng":142.886772,"zip":"0890111"},{"town":"南三条六丁目","koaza":"","lat":43.01413,"lng":142.887708,"zip":"0890111"},{"town":"南三条七丁目","koaza":"","lat":43.014986,"lng":142.888898,"zip":"0890111"},{"town":"南三条八丁目","koaza":"","lat":43.01567,"lng":142.89,"zip":"0890111"},{"town":"南三条九丁目","koaza":"","lat":43.016361,"lng":142.89111,"zip":"0890111"},{"town":"南三条西一丁目","koaza":"","lat":43.010444,"lng":142.881362,"zip":"0890104"},{"town":"南三条西二丁目","koaza":"","lat":43.009464,"lng":142.880394,"zip":"0890104"},{"town":"南三条西三丁目","koaza":"","lat":43.008972,"lng":142.87879,"zip":"0890104"},{"town":"南三条西四丁目","koaza":"","lat":43.008281,"lng":142.878312,"zip":"0890104"},{"town":"南三条西五丁目","koaza":"","lat":43.007669,"lng":142.87739,"zip":"0890104"},{"town":"南三条西六丁目","koaza":"","lat":43.007263,"lng":142.876167,"zip":"0890104"},{"town":"南四条十丁目","koaza":"","lat":43.016248,"lng":142.892835,"zip":"0890112"},{"town":"南四条十一丁目","koaza":"","lat":43.016616,"lng":142.893921,"zip":"0890112"},{"town":"南四条十二丁目","koaza":"","lat":43.017302,"lng":142.89515,"zip":"0890112"},{"town":"南四条十三丁目","koaza":"","lat":43.017931,"lng":142.896419,"zip":"0890112"},{"town":"南四条一丁目","koaza":"","lat":43.010284,"lng":142.883461,"zip":"0890112"},{"town":"南四条二丁目","koaza":"","lat":43.011057,"lng":142.884644,"zip":"0890112"},{"town":"南四条三丁目","koaza":"","lat":43.011644,"lng":142.885935,"zip":"0890112"},{"town":"南四条四丁目","koaza":"","lat":43.012407,"lng":142.886977,"zip":"0890112"},{"town":"南四条五丁目","koaza":"","lat":43.012983,"lng":142.887643,"zip":"0890112"},{"town":"南四条六丁目","koaza":"","lat":43.013271,"lng":142.88869,"zip":"0890112"},{"town":"南四条七丁目","koaza":"","lat":43.014064,"lng":142.890033,"zip":"0890112"},{"town":"南四条八丁目","koaza":"","lat":43.014792,"lng":142.890976,"zip":"0890112"},{"town":"南四条九丁目","koaza":"","lat":43.015481,"lng":142.892213,"zip":"0890112"},{"town":"南四条西一丁目","koaza":"","lat":43.009462,"lng":142.88226,"zip":"0890105"},{"town":"南四条西二丁目","koaza":"","lat":43.008836,"lng":142.881486,"zip":"0890105"},{"town":"南四条西三丁目","koaza":"","lat":43.007804,"lng":142.879725,"zip":"0890105"},{"town":"南四条西四丁目","koaza":"","lat":43.007339,"lng":142.879014,"zip":"0890105"},{"town":"南四条西五丁目","koaza":"","lat":43.006668,"lng":142.877937,"zip":"0890105"},{"town":"南五条十丁目","koaza":"","lat":43.014897,"lng":142.894234,"zip":"0890113"},{"town":"南五条十一丁目","koaza":"","lat":43.015735,"lng":142.894941,"zip":"0890113"},{"town":"南五条十二丁目","koaza":"","lat":43.016527,"lng":142.896273,"zip":"0890113"},{"town":"南五条一丁目","koaza":"","lat":43.009221,"lng":142.884687,"zip":"0890113"},{"town":"南五条二丁目","koaza":"","lat":43.009833,"lng":142.88606,"zip":"0890113"},{"town":"南五条三丁目","koaza":"","lat":43.01042,"lng":142.887018,"zip":"0890113"},{"town":"南五条四丁目","koaza":"","lat":43.011506,"lng":142.888423,"zip":"0890113"},{"town":"南五条六丁目","koaza":"","lat":43.012614,"lng":142.890357,"zip":"0890113"},{"town":"南五条八丁目","koaza":"","lat":43.013659,"lng":142.892046,"zip":"0890113"},{"town":"南五条九丁目","koaza":"","lat":43.014296,"lng":142.89311,"zip":"0890113"},{"town":"南五条西三丁目","koaza":"","lat":43.006738,"lng":142.881256,"zip":"0890106"},{"town":"南五条西四丁目","koaza":"","lat":43.006527,"lng":142.880109,"zip":"0890106"},{"town":"南五条西五丁目","koaza":"","lat":43.006242,"lng":142.878887,"zip":"0890106"},{"town":"南六条十丁目","koaza":"","lat":43.013891,"lng":142.894841,"zip":"0890114"},{"town":"南六条十一丁目","koaza":"","lat":43.015093,"lng":142.89567,"zip":"0890114"},{"town":"南六条十二丁目","koaza":"","lat":43.015889,"lng":142.896974,"zip":"0890114"},{"town":"南六条四丁目","koaza":"","lat":43.010237,"lng":142.890409,"zip":"0890114"},{"town":"南六条六丁目","koaza":"","lat":43.011355,"lng":142.890654,"zip":"0890114"},{"town":"南六条西四丁目","koaza":"","lat":43.005805,"lng":142.88084,"zip":"0890107"},{"town":"南七条十丁目","koaza":"","lat":43.013305,"lng":142.895727,"zip":"0890115"},{"town":"南七条六丁目","koaza":"","lat":43.011011,"lng":142.891656,"zip":"0890115"},{"town":"南七条七丁目","koaza":"","lat":43.012424,"lng":142.892363,"zip":"0890115"},{"town":"南七条九丁目","koaza":"","lat":43.012513,"lng":142.894859,"zip":"0890115"},{"town":"南八条十丁目","koaza":"","lat":43.012471,"lng":142.89667,"zip":"0890116"},{"town":"南八条四丁目","koaza":"","lat":43.008947,"lng":142.8921,"zip":"0890116"},{"town":"南八条六丁目","koaza":"","lat":43.009913,"lng":142.893091,"zip":"0890116"},{"town":"南八条七丁目","koaza":"","lat":43.012765,"lng":142.893945,"zip":"0890116"},{"town":"南八条八丁目","koaza":"","lat":43.011239,"lng":142.894322,"zip":"0890116"},{"town":"南八条九丁目","koaza":"","lat":43.011688,"lng":142.895387,"zip":"0890116"},{"town":"南九条十丁目","koaza":"","lat":43.011627,"lng":142.897633,"zip":"0890117"},{"town":"南九条六丁目","koaza":"","lat":43.009233,"lng":142.894295,"zip":"0890117"},{"town":"南九条七丁目","koaza":"","lat":43.009926,"lng":142.894751,"zip":"0890117"},{"town":"南九条八丁目","koaza":"","lat":43.010277,"lng":142.895388,"zip":"0890117"},{"town":"南九条九丁目","koaza":"","lat":43.010871,"lng":142.896124,"zip":"0890117"}]