[{"town":"字泉沢","koaza":"","lat":41.701377,"lng":140.506106,"zip":"0490400"},{"town":"字瓜谷","koaza":"","lat":41.699668,"lng":140.377244,"zip":"0490400"},{"town":"字大釜谷","koaza":"","lat":41.749527,"lng":140.529425,"zip":"0490400"},{"town":"字大川","koaza":"","lat":41.692034,"lng":140.361879,"zip":"0490400"},{"town":"字大平","koaza":"","lat":41.726304,"lng":140.434781,"zip":"0490400"},{"town":"字御宮野","koaza":"","lat":41.720693,"lng":140.54414,"zip":"0490400"},{"town":"字釜谷","koaza":"","lat":41.728983,"lng":140.528296,"zip":"0490400"},{"town":"字亀川","koaza":"","lat":41.729929,"lng":140.507832,"zip":"0490400"},{"town":"字木古内","koaza":"","lat":41.704115,"lng":140.41812,"zip":"0490400"},{"town":"字幸連","koaza":"","lat":41.725875,"lng":140.463579,"zip":"0490400"},{"town":"字札苅","koaza":"","lat":41.711187,"lng":140.462904,"zip":"0490400"},{"town":"字新道","koaza":"","lat":41.665249,"lng":140.426591,"zip":"0490400"},{"town":"字建川","koaza":"","lat":41.665407,"lng":140.402535,"zip":"0490400"},{"town":"字鶴岡","koaza":"","lat":41.671779,"lng":140.412906,"zip":"0490400"},{"town":"字中野","koaza":"","lat":41.710262,"lng":140.395931,"zip":"0490400"},{"town":"字二乃岱","koaza":"","lat":41.712732,"lng":140.506576,"zip":"0490400"},{"town":"字橋呉","koaza":"","lat":41.726286,"lng":140.489105,"zip":"0490400"},{"town":"字本町","koaza":"","lat":41.676733,"lng":140.436056,"zip":"0490400"},{"town":"字前浜","koaza":"","lat":41.679089,"lng":140.440265,"zip":"0490400"}]