[{"town":"字相川","koaza":"","lat":42.921574,"lng":143.336918,"zip":"0890600"},{"town":"字明野","koaza":"","lat":42.903776,"lng":143.388681,"zip":"0890600"},{"town":"字軍岡","koaza":"","lat":42.873514,"lng":143.352382,"zip":"0890600"},{"town":"字大豊","koaza":"","lat":42.860148,"lng":143.376303,"zip":"0890600"},{"town":"字五位","koaza":"","lat":42.782463,"lng":143.338849,"zip":"0890600"},{"town":"字弘和","koaza":"","lat":42.649461,"lng":143.295132,"zip":"0890600"},{"town":"字駒畠","koaza":"","lat":42.687592,"lng":143.303719,"zip":"0890600"},{"town":"字栄","koaza":"","lat":42.788928,"lng":143.255388,"zip":"0890600"},{"town":"字猿別","koaza":"","lat":42.877577,"lng":143.333938,"zip":"0890600"},{"town":"字新川","koaza":"","lat":42.900453,"lng":143.414753,"zip":"0890600"},{"town":"字新和","koaza":"","lat":42.838143,"lng":143.309773,"zip":"0890600"},{"town":"字千住","koaza":"","lat":42.907424,"lng":143.289753,"zip":"0890600"},{"town":"字途別","koaza":"","lat":42.862503,"lng":143.228866,"zip":"0890600"},{"town":"字豊岡","koaza":"","lat":42.86539,"lng":143.299597,"zip":"0890600"},{"town":"字中里","koaza":"","lat":42.726787,"lng":143.313928,"zip":"0890600"},{"town":"字南勢","koaza":"","lat":42.822228,"lng":143.366814,"zip":"0890600"},{"town":"字日新","koaza":"","lat":42.858863,"lng":143.253639,"zip":"0890600"},{"town":"字糠内","koaza":"","lat":42.781266,"lng":143.312484,"zip":"0890600"},{"town":"旭町","koaza":"","lat":42.917942,"lng":143.365405,"zip":"0890602"},{"town":"字古舞","koaza":"","lat":42.820078,"lng":143.241411,"zip":"0890600"},{"town":"字美川","koaza":"","lat":42.740983,"lng":143.278823,"zip":"0890600"},{"town":"字明倫","koaza":"","lat":42.787631,"lng":143.285416,"zip":"0890600"},{"town":"字依田","koaza":"","lat":42.897227,"lng":143.229165,"zip":"0890600"},{"town":"寿町","koaza":"","lat":42.902364,"lng":143.351651,"zip":"0890605"},{"town":"幸町","koaza":"","lat":42.913146,"lng":143.359149,"zip":"0890601"},{"town":"札内青葉町","koaza":"","lat":42.913915,"lng":143.265547,"zip":"0890541"},{"town":"札内あかしや町","koaza":"","lat":42.907809,"lng":143.251582,"zip":"0890552"},{"town":"札内暁町","koaza":"","lat":42.918845,"lng":143.264902,"zip":"0890531"},{"town":"札内泉町","koaza":"","lat":42.908434,"lng":143.259276,"zip":"0890551"},{"town":"札内春日町","koaza":"","lat":42.909404,"lng":143.266864,"zip":"0890542"},{"town":"札内桂町","koaza":"","lat":42.912627,"lng":143.244128,"zip":"0890545"},{"town":"札内北町","koaza":"","lat":42.927187,"lng":143.249015,"zip":"0890534"},{"town":"札内共栄町","koaza":"","lat":42.916888,"lng":143.243544,"zip":"0890538"},{"town":"札内桜町","koaza":"","lat":42.926749,"lng":143.242293,"zip":"0890535"},{"town":"札内新北町","koaza":"","lat":42.917923,"lng":143.25028,"zip":"0890533"},{"town":"札内中央町","koaza":"","lat":42.912939,"lng":143.257766,"zip":"0890543"},{"town":"札内堤町","koaza":"","lat":42.911745,"lng":143.234731,"zip":"0890546"},{"town":"札内西町","koaza":"","lat":42.924789,"lng":143.234845,"zip":"0890536"},{"town":"札内東町","koaza":"","lat":42.927412,"lng":143.262676,"zip":"0890562"},{"town":"札内文京町","koaza":"","lat":42.907381,"lng":143.244872,"zip":"0890553"},{"town":"札内北栄町","koaza":"","lat":42.916715,"lng":143.234736,"zip":"0890537"},{"town":"札内みずほ町","koaza":"","lat":42.900138,"lng":143.246467,"zip":"0890554"},{"town":"札内稔町","koaza":"","lat":42.927134,"lng":143.255805,"zip":"0890561"},{"town":"札内豊町","koaza":"","lat":42.918297,"lng":143.257031,"zip":"0890532"},{"town":"札内若草町","koaza":"","lat":42.912899,"lng":143.250993,"zip":"0890544"},{"town":"新町","koaza":"","lat":42.907099,"lng":143.364829,"zip":"0890611"},{"town":"宝町","koaza":"","lat":42.904359,"lng":143.357598,"zip":"0890616"},{"town":"忠類朝日","koaza":"","lat":42.578607,"lng":143.265092,"zip":"0891717"},{"town":"忠類共栄","koaza":"","lat":42.543522,"lng":143.306657,"zip":"0891727"},{"town":"忠類協徳","koaza":"","lat":42.552397,"lng":143.275758,"zip":"0891728"},{"town":"忠類公親","koaza":"","lat":42.575677,"lng":143.292964,"zip":"0891731"},{"town":"忠類幸町","koaza":"","lat":42.567754,"lng":143.302318,"zip":"0891709"},{"town":"忠類栄町","koaza":"","lat":42.561749,"lng":143.295214,"zip":"0891703"},{"town":"忠類白銀町","koaza":"","lat":42.55938,"lng":143.303577,"zip":"0891701"},{"town":"忠類新生","koaza":"","lat":42.566167,"lng":143.360819,"zip":"0891714"},{"town":"忠類東宝","koaza":"","lat":42.551001,"lng":143.339791,"zip":"0891711"},{"town":"忠類中当","koaza":"","lat":42.556609,"lng":143.395245,"zip":"0891725"},{"town":"忠類錦町","koaza":"","lat":42.566836,"lng":143.308919,"zip":"0891707"},{"town":"忠類西当","koaza":"","lat":42.556523,"lng":143.241922,"zip":"0891721"},{"town":"忠類晩成","koaza":"","lat":42.530447,"lng":143.440277,"zip":"0891871"},{"town":"忠類日和","koaza":"","lat":42.565642,"lng":143.253112,"zip":"0891729"},{"town":"忠類古里","koaza":"","lat":42.53175,"lng":143.397388,"zip":"0891726"},{"town":"忠類幌内","koaza":"","lat":42.587294,"lng":143.381663,"zip":"0891715"},{"town":"忠類明和","koaza":"","lat":42.621307,"lng":143.35067,"zip":"0891724"},{"town":"忠類元忠類","koaza":"","lat":42.606188,"lng":143.310136,"zip":"0891716"},{"town":"忠類本町","koaza":"","lat":42.568466,"lng":143.305772,"zip":"0891705"},{"town":"錦町","koaza":"","lat":42.905741,"lng":143.353312,"zip":"0890604"},{"town":"緑町","koaza":"","lat":42.90304,"lng":143.365624,"zip":"0890614"},{"town":"南町","koaza":"","lat":42.901166,"lng":143.35535,"zip":"0890615"},{"town":"本町","koaza":"","lat":42.909021,"lng":143.357525,"zip":"0890603"}]