[{"town":"安骨","koaza":"","lat":42.762846,"lng":143.545833,"zip":"0895306"},{"town":"育素多","koaza":"","lat":42.824926,"lng":143.509232,"zip":"0895241"},{"town":"牛首別","koaza":"","lat":42.76227,"lng":143.487849,"zip":"0895304"},{"town":"薄別","koaza":"","lat":42.691953,"lng":143.361601,"zip":"0895300"},{"town":"打内","koaza":"","lat":42.702299,"lng":143.662039,"zip":"0895300"},{"town":"大津","koaza":"","lat":42.685746,"lng":143.629872,"zip":"0895465"},{"town":"大津寿町","koaza":"","lat":42.686018,"lng":143.646507,"zip":"0895463"},{"town":"大津幸町","koaza":"","lat":42.688669,"lng":143.647819,"zip":"0895462"},{"town":"大津港町","koaza":"","lat":42.679006,"lng":143.642367,"zip":"0895464"},{"town":"大津元町","koaza":"","lat":42.68974,"lng":143.653859,"zip":"0895461"},{"town":"背負","koaza":"","lat":42.745376,"lng":143.518889,"zip":"0895305"},{"town":"旅来","koaza":"","lat":42.721914,"lng":143.563355,"zip":"0895307"},{"town":"中央新町","koaza":"","lat":42.809516,"lng":143.524235,"zip":"0895234"},{"town":"中央若葉町","koaza":"","lat":42.811642,"lng":143.512757,"zip":"0895235"},{"town":"長節","koaza":"","lat":42.666927,"lng":143.59625,"zip":"0895466"},{"town":"統内","koaza":"","lat":42.851806,"lng":143.429187,"zip":"0895301"},{"town":"十弗","koaza":"","lat":42.87595,"lng":143.519541,"zip":"0895244"},{"town":"十弗宝町","koaza":"","lat":42.854875,"lng":143.503595,"zip":"0895243"},{"town":"豊頃","koaza":"","lat":42.816533,"lng":143.562302,"zip":"0895246"},{"town":"豊頃旭町","koaza":"","lat":42.816518,"lng":143.538423,"zip":"0895232"},{"town":"豊頃佐々田町","koaza":"","lat":42.818696,"lng":143.540239,"zip":"0895231"},{"town":"豊頃南町","koaza":"","lat":42.81118,"lng":143.542164,"zip":"0895233"},{"town":"二宮","koaza":"","lat":42.737029,"lng":143.414706,"zip":"0895309"},{"town":"農野牛","koaza":"","lat":42.795896,"lng":143.418609,"zip":"0895303"},{"town":"北栄","koaza":"","lat":42.856331,"lng":143.480221,"zip":"0895242"},{"town":"幌岡","koaza":"","lat":42.781804,"lng":143.568094,"zip":"0895247"},{"town":"茂岩","koaza":"","lat":42.797952,"lng":143.491252,"zip":"0895315"},{"town":"茂岩栄町","koaza":"","lat":42.796593,"lng":143.510044,"zip":"0895313"},{"town":"茂岩新和町","koaza":"","lat":42.807292,"lng":143.503565,"zip":"0895311"},{"town":"茂岩末広町","koaza":"","lat":42.794346,"lng":143.503747,"zip":"0895314"},{"town":"茂岩本町","koaza":"","lat":42.800789,"lng":143.510766,"zip":"0895312"},{"town":"湧洞","koaza":"","lat":42.638903,"lng":143.520079,"zip":"0895308"},{"town":"礼作別","koaza":"","lat":42.825762,"lng":143.443377,"zip":"0895302"},{"town":"礼文内","koaza":"","lat":42.857543,"lng":143.540078,"zip":"0895245"}]