[{"town":"朝日町","koaza":"","lat":43.123851,"lng":143.614668,"zip":"0893332"},{"town":"押帯","koaza":"","lat":43.141872,"lng":143.401861,"zip":"0893283"},{"town":"柏木町","koaza":"","lat":43.117533,"lng":143.612478,"zip":"0893311"},{"town":"上本別","koaza":"","lat":43.142719,"lng":143.603938,"zip":"0893321"},{"town":"北一丁目","koaza":"","lat":43.123296,"lng":143.610798,"zip":"0893334"},{"town":"北二丁目","koaza":"","lat":43.124414,"lng":143.610866,"zip":"0893334"},{"town":"北三丁目","koaza":"","lat":43.125674,"lng":143.610855,"zip":"0893334"},{"town":"北四丁目","koaza":"","lat":43.126766,"lng":143.610589,"zip":"0893334"},{"town":"北五丁目","koaza":"","lat":43.128293,"lng":143.610335,"zip":"0893334"},{"town":"北六丁目","koaza":"","lat":43.129887,"lng":143.610345,"zip":"0893334"},{"town":"北七丁目","koaza":"","lat":43.131359,"lng":143.611216,"zip":"0893334"},{"town":"北八丁目","koaza":"","lat":43.134027,"lng":143.612978,"zip":"0893334"},{"town":"共栄","koaza":"","lat":43.097866,"lng":143.581425,"zip":"0893305"},{"town":"向陽町","koaza":"","lat":43.120218,"lng":143.61643,"zip":"0893303"},{"town":"栄町","koaza":"","lat":43.136709,"lng":143.605838,"zip":"0893322"},{"town":"坂下町","koaza":"","lat":43.111037,"lng":143.608739,"zip":"0893304"},{"town":"新町","koaza":"","lat":43.131041,"lng":143.600322,"zip":"0893324"},{"town":"仙美里","koaza":"","lat":43.185722,"lng":143.59597,"zip":"0893663"},{"town":"仙美里元町","koaza":"","lat":43.179049,"lng":143.588414,"zip":"0893664"},{"town":"錦町","koaza":"","lat":43.135987,"lng":143.616284,"zip":"0893331"},{"town":"西仙美里","koaza":"","lat":43.202634,"lng":143.544474,"zip":"0893675"},{"town":"西美里別","koaza":"","lat":43.177933,"lng":143.472108,"zip":"0893443"},{"town":"西勇足","koaza":"","lat":43.102285,"lng":143.492998,"zip":"0893300"},{"town":"東本別","koaza":"","lat":43.172916,"lng":143.707275,"zip":"0893301"},{"town":"東町","koaza":"","lat":43.124893,"lng":143.622692,"zip":"0893302"},{"town":"美蘭別","koaza":"","lat":43.178916,"lng":143.432855,"zip":"0893284"},{"town":"美里別","koaza":"","lat":43.185088,"lng":143.506395,"zip":"0893326"},{"town":"緑町","koaza":"","lat":43.116243,"lng":143.610785,"zip":"0893312"},{"town":"南一丁目","koaza":"","lat":43.121322,"lng":143.610986,"zip":"0893314"},{"town":"南二丁目","koaza":"","lat":43.120193,"lng":143.609122,"zip":"0893314"},{"town":"南三丁目","koaza":"","lat":43.118759,"lng":143.605791,"zip":"0893314"},{"town":"南四丁目","koaza":"","lat":43.115424,"lng":143.600096,"zip":"0893314"},{"town":"柳町","koaza":"","lat":43.115727,"lng":143.608907,"zip":"0893313"},{"town":"山手町","koaza":"","lat":43.128838,"lng":143.614427,"zip":"0893333"},{"town":"弥生町","koaza":"","lat":43.12522,"lng":143.594165,"zip":"0893308"},{"town":"勇足","koaza":"","lat":43.088765,"lng":143.543562,"zip":"0893282"},{"town":"勇足元町","koaza":"","lat":43.090548,"lng":143.515354,"zip":"0893281"}]