[{"town":"字六郷","koaza":"","lat":44.496039,"lng":142.299988,"zip":"0982200"},{"town":"字泉","koaza":"","lat":44.421301,"lng":142.274684,"zip":"0982200"},{"town":"字大手","koaza":"","lat":44.578051,"lng":142.306198,"zip":"0982200"},{"town":"字大通北一丁目","koaza":"","lat":44.482519,"lng":142.346019,"zip":"0982200"},{"town":"字大通北二丁目","koaza":"","lat":44.483525,"lng":142.345548,"zip":"0982200"},{"town":"字大通北三丁目","koaza":"","lat":44.484417,"lng":142.345135,"zip":"0982200"},{"town":"字大通北四丁目","koaza":"","lat":44.485248,"lng":142.34473,"zip":"0982200"},{"town":"字大通北五丁目","koaza":"","lat":44.485852,"lng":142.344398,"zip":"0982200"},{"town":"字大通北六丁目","koaza":"","lat":44.486312,"lng":142.344012,"zip":"0982200"},{"town":"字大通北七丁目","koaza":"","lat":44.486871,"lng":142.343867,"zip":"0982200"},{"town":"字大通南一丁目","koaza":"","lat":44.481579,"lng":142.346459,"zip":"0982200"},{"town":"字大通南二丁目","koaza":"","lat":44.480885,"lng":142.346761,"zip":"0982200"},{"town":"字大通南三丁目","koaza":"","lat":44.480111,"lng":142.347117,"zip":"0982200"},{"town":"字大通南四丁目","koaza":"","lat":44.479468,"lng":142.347425,"zip":"0982200"},{"town":"字小車","koaza":"","lat":44.601541,"lng":142.240686,"zip":"0982200"},{"town":"字恩根内","koaza":"","lat":44.618973,"lng":142.35142,"zip":"0982200"},{"town":"字開運町","koaza":"","lat":44.482916,"lng":142.350082,"zip":"0982200"},{"town":"字川西","koaza":"","lat":44.468088,"lng":142.31452,"zip":"0982200"},{"town":"字北町","koaza":"","lat":44.48873,"lng":142.346537,"zip":"0982200"},{"town":"字楠","koaza":"","lat":44.629045,"lng":142.280324,"zip":"0982200"},{"town":"字敷島","koaza":"","lat":44.496189,"lng":142.350178,"zip":"0982200"},{"town":"字清水","koaza":"","lat":44.647712,"lng":142.300513,"zip":"0982200"},{"town":"字玉川","koaza":"","lat":44.486283,"lng":142.246814,"zip":"0982200"},{"town":"字富岡","koaza":"","lat":44.51625,"lng":142.32065,"zip":"0982200"},{"town":"字西一条北一丁目","koaza":"","lat":44.481984,"lng":142.344029,"zip":"0982200"},{"town":"字西一条北二丁目","koaza":"","lat":44.483096,"lng":142.343467,"zip":"0982200"},{"town":"字西一条北三丁目","koaza":"","lat":44.484094,"lng":142.343152,"zip":"0982200"},{"town":"字西一条北四丁目","koaza":"","lat":44.484743,"lng":142.342098,"zip":"0982200"},{"town":"字西一条北五丁目","koaza":"","lat":44.485852,"lng":142.342278,"zip":"0982200"},{"town":"字西一条南一丁目","koaza":"","lat":44.481183,"lng":142.344788,"zip":"0982200"},{"town":"字西一条南二丁目","koaza":"","lat":44.480491,"lng":142.345023,"zip":"0982200"},{"town":"字西一条南三丁目","koaza":"","lat":44.479877,"lng":142.34569,"zip":"0982200"},{"town":"字西一条南四丁目","koaza":"","lat":44.479297,"lng":142.345635,"zip":"0982200"},{"town":"字西里","koaza":"","lat":44.535486,"lng":142.312421,"zip":"0982200"},{"town":"字西町","koaza":"","lat":44.483787,"lng":142.339826,"zip":"0982200"},{"town":"字斑溪","koaza":"","lat":44.534671,"lng":142.357333,"zip":"0982200"},{"town":"字東一条北一丁目","koaza":"","lat":44.482808,"lng":142.347166,"zip":"0982200"},{"town":"字東一条北二丁目","koaza":"","lat":44.483815,"lng":142.346691,"zip":"0982200"},{"town":"字東一条北三丁目","koaza":"","lat":44.484702,"lng":142.346277,"zip":"0982200"},{"town":"字東一条北四丁目","koaza":"","lat":44.485541,"lng":142.345863,"zip":"0982200"},{"town":"字東一条北五丁目","koaza":"","lat":44.486057,"lng":142.345276,"zip":"0982200"},{"town":"字東一条北六丁目","koaza":"","lat":44.486625,"lng":142.345271,"zip":"0982200"},{"town":"字東一条北七丁目","koaza":"","lat":44.4871,"lng":142.345035,"zip":"0982200"},{"town":"字東一条南一丁目","koaza":"","lat":44.481855,"lng":142.347629,"zip":"0982200"},{"town":"字東一条南二丁目","koaza":"","lat":44.48113,"lng":142.347982,"zip":"0982200"},{"town":"字東一条南三丁目","koaza":"","lat":44.48038,"lng":142.348339,"zip":"0982200"},{"town":"字東一条南四丁目","koaza":"","lat":44.479759,"lng":142.348633,"zip":"0982200"},{"town":"字東二条北一丁目","koaza":"","lat":44.48305,"lng":142.348127,"zip":"0982200"},{"town":"字東二条北二丁目","koaza":"","lat":44.484051,"lng":142.347648,"zip":"0982200"},{"town":"字東二条北三丁目","koaza":"","lat":44.484997,"lng":142.347287,"zip":"0982200"},{"town":"字東二条北四丁目","koaza":"","lat":44.485822,"lng":142.34681,"zip":"0982200"},{"town":"字東二条北五丁目","koaza":"","lat":44.486268,"lng":142.346074,"zip":"0982200"},{"town":"字東二条北六丁目","koaza":"","lat":44.486817,"lng":142.346129,"zip":"0982200"},{"town":"字東二条北七丁目","koaza":"","lat":44.487309,"lng":142.345886,"zip":"0982200"},{"town":"字東二条南一丁目","koaza":"","lat":44.482089,"lng":142.348583,"zip":"0982200"},{"town":"字東二条南二丁目","koaza":"","lat":44.481358,"lng":142.348924,"zip":"0982200"},{"town":"字東二条南三丁目","koaza":"","lat":44.48068,"lng":142.349348,"zip":"0982200"},{"town":"字東二条南四丁目","koaza":"","lat":44.479988,"lng":142.349592,"zip":"0982200"},{"town":"字東三条北一丁目","koaza":"","lat":44.483267,"lng":142.349007,"zip":"0982200"},{"town":"字東三条北二丁目","koaza":"","lat":44.484265,"lng":142.348528,"zip":"0982200"},{"town":"字東三条北三丁目","koaza":"","lat":44.485071,"lng":142.348143,"zip":"0982200"},{"town":"字東三条北四丁目","koaza":"","lat":44.485764,"lng":142.347636,"zip":"0982200"},{"town":"字東三条北五丁目","koaza":"","lat":44.486457,"lng":142.347158,"zip":"0982200"},{"town":"字東三条北六丁目","koaza":"","lat":44.487014,"lng":142.34695,"zip":"0982200"},{"town":"字東三条北七丁目","koaza":"","lat":44.487506,"lng":142.346706,"zip":"0982200"},{"town":"字東三条南一丁目","koaza":"","lat":44.482305,"lng":142.349466,"zip":"0982200"},{"town":"字東三条南二丁目","koaza":"","lat":44.481515,"lng":142.349795,"zip":"0982200"},{"town":"字東三条南三丁目","koaza":"","lat":44.480738,"lng":142.350173,"zip":"0982200"},{"town":"字東三条南四丁目","koaza":"","lat":44.480189,"lng":142.35044,"zip":"0982200"},{"town":"字東四条北四丁目","koaza":"","lat":44.486037,"lng":142.348492,"zip":"0982200"},{"town":"字東四条北五丁目","koaza":"","lat":44.48688,"lng":142.34863,"zip":"0982200"},{"town":"字東四条北六丁目","koaza":"","lat":44.487379,"lng":142.34839,"zip":"0982200"},{"town":"字東四条北七丁目","koaza":"","lat":44.487877,"lng":142.348145,"zip":"0982200"},{"town":"字東五条北五丁目","koaza":"","lat":44.48729,"lng":142.350282,"zip":"0982200"},{"town":"字東五条北六丁目","koaza":"","lat":44.487793,"lng":142.350038,"zip":"0982200"},{"town":"字東五条北七丁目","koaza":"","lat":44.488311,"lng":142.349788,"zip":"0982200"},{"town":"字美深","koaza":"","lat":44.471584,"lng":142.360734,"zip":"0982200"},{"town":"字菊丘","koaza":"","lat":44.502329,"lng":142.412817,"zip":"0982200"},{"town":"字報徳","koaza":"","lat":44.537692,"lng":142.252383,"zip":"0982200"},{"town":"字南町","koaza":"","lat":44.478277,"lng":142.354061,"zip":"0982200"},{"town":"字紋穂内","koaza":"","lat":44.543653,"lng":142.344631,"zip":"0982200"},{"town":"字吉野","koaza":"","lat":44.521484,"lng":142.389553,"zip":"0982200"},{"town":"字若松町","koaza":"","lat":44.483093,"lng":142.351742,"zip":"0982200"},{"town":"大通南五丁目","koaza":"","lat":44.478788,"lng":142.348159,"zip":"0982230"},{"town":"大通南六丁目","koaza":"","lat":44.477596,"lng":142.348795,"zip":"0982230"},{"town":"大通南七丁目","koaza":"","lat":44.476358,"lng":142.349331,"zip":"0982230"},{"town":"大通南八丁目","koaza":"","lat":44.47523,"lng":142.349766,"zip":"0982230"},{"town":"西一条南五丁目","koaza":"","lat":44.478472,"lng":142.34654,"zip":"0982241"},{"town":"西一条南六丁目","koaza":"","lat":44.477204,"lng":142.347335,"zip":"0982241"},{"town":"西一条南七丁目","koaza":"","lat":44.475914,"lng":142.348365,"zip":"0982241"},{"town":"西一条南八丁目","koaza":"","lat":44.474691,"lng":142.348516,"zip":"0982241"},{"town":"西二条南四丁目","koaza":"","lat":44.478979,"lng":142.342682,"zip":"0982242"},{"town":"西二条南五丁目","koaza":"","lat":44.477591,"lng":142.343344,"zip":"0982242"},{"town":"西二条南六丁目","koaza":"","lat":44.476375,"lng":142.344008,"zip":"0982242"},{"town":"西二条南七丁目","koaza":"","lat":44.47501,"lng":142.344674,"zip":"0982242"},{"town":"西二条南八丁目","koaza":"","lat":44.473877,"lng":142.345217,"zip":"0982242"},{"town":"西三条北一丁目","koaza":"","lat":44.480062,"lng":142.338469,"zip":"0982253"},{"town":"西三条北二丁目","koaza":"","lat":44.481322,"lng":142.338148,"zip":"0982253"},{"town":"西三条北三丁目","koaza":"","lat":44.482506,"lng":142.337574,"zip":"0982253"},{"town":"西三条北四丁目","koaza":"","lat":44.483305,"lng":142.337168,"zip":"0982253"},{"town":"西三条北五丁目","koaza":"","lat":44.484003,"lng":142.336803,"zip":"0982253"},{"town":"西三条北六丁目","koaza":"","lat":44.48482,"lng":142.336372,"zip":"0982253"},{"town":"西三条北七丁目","koaza":"","lat":44.486011,"lng":142.335331,"zip":"0982253"},{"town":"西三条南一丁目","koaza":"","lat":44.479081,"lng":142.339687,"zip":"0982243"},{"town":"西三条南四丁目","koaza":"","lat":44.477837,"lng":142.339092,"zip":"0982243"},{"town":"東一条南五丁目","koaza":"","lat":44.478989,"lng":142.349006,"zip":"0982231"},{"town":"東一条南六丁目","koaza":"","lat":44.477782,"lng":142.349593,"zip":"0982231"},{"town":"東一条南七丁目","koaza":"","lat":44.476562,"lng":142.350161,"zip":"0982231"},{"town":"東一条南八丁目","koaza":"","lat":44.475401,"lng":142.350727,"zip":"0982231"},{"town":"東二条南五丁目","koaza":"","lat":44.479215,"lng":142.349967,"zip":"0982232"},{"town":"東二条南六丁目","koaza":"","lat":44.478023,"lng":142.350547,"zip":"0982232"},{"town":"東二条南七丁目","koaza":"","lat":44.476795,"lng":142.351115,"zip":"0982232"},{"town":"東二条南八丁目","koaza":"","lat":44.47564,"lng":142.351688,"zip":"0982232"},{"town":"東三条南五丁目","koaza":"","lat":44.479418,"lng":142.35081,"zip":"0982233"},{"town":"東三条南六丁目","koaza":"","lat":44.47821,"lng":142.351387,"zip":"0982233"},{"town":"東三条南七丁目","koaza":"","lat":44.477035,"lng":142.351932,"zip":"0982233"},{"town":"東三条南八丁目","koaza":"","lat":44.475848,"lng":142.352528,"zip":"0982233"},{"town":"東四条南五丁目","koaza":"","lat":44.479619,"lng":142.351618,"zip":"0982234"},{"town":"東四条南六丁目","koaza":"","lat":44.478429,"lng":142.352176,"zip":"0982234"},{"town":"東四条南七丁目","koaza":"","lat":44.477289,"lng":142.352722,"zip":"0982234"},{"town":"東四条南八丁目","koaza":"","lat":44.4762,"lng":142.353165,"zip":"0982234"},{"town":"東五条北三丁目","koaza":"","lat":44.486286,"lng":142.350223,"zip":"0982225"},{"town":"東六条北一丁目","koaza":"","lat":44.484107,"lng":142.353831,"zip":"0982226"},{"town":"東六条北二丁目","koaza":"","lat":44.485235,"lng":142.353278,"zip":"0982226"},{"town":"東六条北三丁目","koaza":"","lat":44.486642,"lng":142.353322,"zip":"0982226"},{"town":"東六条南一丁目","koaza":"","lat":44.483005,"lng":142.354407,"zip":"0982236"},{"town":"東六条南二丁目","koaza":"","lat":44.482193,"lng":142.354584,"zip":"0982236"},{"town":"東六条南三丁目","koaza":"","lat":44.481721,"lng":142.354898,"zip":"0982236"},{"town":"東六条南四丁目","koaza":"","lat":44.48139,"lng":142.355667,"zip":"0982236"},{"town":"字辺溪","koaza":"","lat":44.488773,"lng":142.453242,"zip":"0982200"},{"town":"字仁宇布","koaza":"","lat":44.531017,"lng":142.5486,"zip":"0982200"}]