[{"town":"北檜山区愛知","koaza":"","lat":42.396773,"lng":139.913184,"zip":"0494513"},{"town":"北檜山区小倉山","koaza":"","lat":42.525187,"lng":139.955842,"zip":"0494431"},{"town":"北檜山区兜野","koaza":"","lat":42.408345,"lng":139.854185,"zip":"0494515"},{"town":"北檜山区北檜山","koaza":"","lat":42.414,"lng":139.881784,"zip":"0494501"},{"town":"北檜山区共和","koaza":"","lat":42.376602,"lng":139.850277,"zip":"0494516"},{"town":"北檜山区小川","koaza":"","lat":42.327518,"lng":139.853299,"zip":"0494753"},{"town":"北檜山区栄","koaza":"","lat":42.378435,"lng":139.888611,"zip":"0494751"},{"town":"北檜山区新成","koaza":"","lat":42.332954,"lng":139.794362,"zip":"0494518"},{"town":"北檜山区徳島","koaza":"","lat":42.440253,"lng":139.898247,"zip":"0494512"},{"town":"北檜山区富里","koaza":"","lat":42.280844,"lng":139.975747,"zip":"0494755"},{"town":"北檜山区豊岡","koaza":"","lat":42.423507,"lng":139.867316,"zip":"0494514"},{"town":"北檜山区西丹羽","koaza":"","lat":42.430175,"lng":139.914683,"zip":"0494434"},{"town":"北檜山区丹羽","koaza":"","lat":42.446722,"lng":139.936574,"zip":"0494433"},{"town":"北檜山区東丹羽","koaza":"","lat":42.442102,"lng":139.959563,"zip":"0494432"},{"town":"北檜山区二俣","koaza":"","lat":42.294476,"lng":139.894966,"zip":"0494754"},{"town":"北檜山区太櫓","koaza":"","lat":42.369946,"lng":139.819897,"zip":"0494517"},{"town":"北檜山区松岡","koaza":"","lat":42.48988,"lng":139.920906,"zip":"0494511"},{"town":"北檜山区若松","koaza":"","lat":42.351109,"lng":139.92386,"zip":"0494752"},{"town":"瀬棚区北島歌","koaza":"","lat":42.582954,"lng":139.878786,"zip":"0494824"},{"town":"瀬棚区共和","koaza":"","lat":42.447433,"lng":139.874524,"zip":"0494827"},{"town":"瀬棚区三本杉","koaza":"","lat":42.461818,"lng":139.854314,"zip":"0494821"},{"town":"瀬棚区島歌","koaza":"","lat":42.542474,"lng":139.868976,"zip":"0494823"},{"town":"瀬棚区西大里","koaza":"","lat":42.517002,"lng":139.88336,"zip":"0494825"},{"town":"瀬棚区東大里","koaza":"","lat":42.521491,"lng":139.911269,"zip":"0494826"},{"town":"瀬棚区本町","koaza":"","lat":42.452275,"lng":139.852434,"zip":"0494816"},{"town":"瀬棚区南川","koaza":"","lat":42.432589,"lng":139.84794,"zip":"0494828"},{"town":"瀬棚区元浦","koaza":"","lat":42.489107,"lng":139.852651,"zip":"0494822"},{"town":"大成区太田","koaza":"","lat":42.280845,"lng":139.802481,"zip":"0430501"},{"town":"大成区貝取澗","koaza":"","lat":42.188315,"lng":139.914824,"zip":"0430515"},{"town":"大成区上浦","koaza":"","lat":42.246032,"lng":139.81301,"zip":"0430503"},{"town":"大成区久遠","koaza":"","lat":42.228054,"lng":139.836755,"zip":"0430511"},{"town":"大成区富磯","koaza":"","lat":42.247575,"lng":139.794813,"zip":"0430502"},{"town":"大成区長磯","koaza":"","lat":42.156389,"lng":139.920909,"zip":"0430421"},{"town":"大成区花歌","koaza":"","lat":42.235844,"lng":139.847239,"zip":"0430512"},{"town":"大成区平浜","koaza":"","lat":42.213265,"lng":139.928306,"zip":"0430514"},{"town":"大成区本陣","koaza":"","lat":42.244871,"lng":139.834192,"zip":"0430505"},{"town":"大成区都","koaza":"","lat":42.229138,"lng":139.82116,"zip":"0430504"},{"town":"大成区宮野","koaza":"","lat":42.248815,"lng":139.895592,"zip":"0430513"}]