[{"town":"相生町","koaza":"","lat":42.251958,"lng":140.272529,"zip":"0493113"},{"town":"旭丘","koaza":"","lat":42.191634,"lng":140.407748,"zip":"0492561"},{"town":"熱田","koaza":"","lat":42.224269,"lng":140.270207,"zip":"0493125"},{"town":"出雲町","koaza":"","lat":42.250766,"lng":140.268877,"zip":"0493115"},{"town":"入沢","koaza":"","lat":42.177957,"lng":140.416564,"zip":"0492564"},{"town":"内浦町","koaza":"","lat":42.254695,"lng":140.284868,"zip":"0493104"},{"town":"大新","koaza":"","lat":42.229267,"lng":140.255085,"zip":"0493126"},{"town":"落部","koaza":"","lat":42.190189,"lng":140.422169,"zip":"0492562"},{"town":"春日","koaza":"","lat":42.24496,"lng":140.240085,"zip":"0493127"},{"town":"上の湯","koaza":"","lat":42.122103,"lng":140.37352,"zip":"0492566"},{"town":"上八雲","koaza":"","lat":42.287353,"lng":140.155282,"zip":"0493121"},{"town":"熊石相沼町","koaza":"","lat":42.073875,"lng":140.066396,"zip":"0430332"},{"town":"熊石鮎川町","koaza":"","lat":42.121501,"lng":140.012063,"zip":"0430402"},{"town":"熊石泉岱町","koaza":"","lat":42.091043,"lng":140.127177,"zip":"0493100"},{"town":"熊石雲石町","koaza":"","lat":42.133504,"lng":139.976968,"zip":"0430416"},{"town":"熊石大谷町","koaza":"","lat":42.151997,"lng":140.04024,"zip":"0430405"},{"town":"熊石折戸町","koaza":"","lat":42.069095,"lng":140.075052,"zip":"0430331"},{"town":"熊石黒岩町","koaza":"","lat":42.093528,"lng":140.050121,"zip":"0430335"},{"town":"熊石見日町","koaza":"","lat":42.118068,"lng":140.020354,"zip":"0430401"},{"town":"熊石関内町","koaza":"","lat":42.132485,"lng":139.938456,"zip":"0430418"},{"town":"熊石平町","koaza":"","lat":42.125423,"lng":139.998043,"zip":"0430403"},{"town":"熊石畳岩町","koaza":"","lat":42.130301,"lng":139.994949,"zip":"0430404"},{"town":"熊石館平町","koaza":"","lat":42.080569,"lng":140.059829,"zip":"0430333"},{"town":"熊石泊川町","koaza":"","lat":42.090118,"lng":140.05366,"zip":"0430334"},{"town":"熊石鳴神町","koaza":"","lat":42.132121,"lng":139.968195,"zip":"0430417"},{"town":"熊石西浜町","koaza":"","lat":42.132594,"lng":139.947411,"zip":"0430419"},{"town":"熊石根崎町","koaza":"","lat":42.133213,"lng":139.987014,"zip":"0430415"},{"town":"黒岩","koaza":"","lat":42.366698,"lng":140.288385,"zip":"0493341"},{"town":"栄町","koaza":"","lat":42.252879,"lng":140.255527,"zip":"0493117"},{"town":"栄浜","koaza":"","lat":42.175772,"lng":140.453726,"zip":"0492563"},{"town":"桜野","koaza":"","lat":42.131262,"lng":140.280749,"zip":"0492675"},{"town":"東雲町","koaza":"","lat":42.253494,"lng":140.280476,"zip":"0493105"},{"town":"下の湯","koaza":"","lat":42.168614,"lng":140.396962,"zip":"0492565"},{"town":"末広町","koaza":"","lat":42.255121,"lng":140.267973,"zip":"0493112"},{"town":"住初町","koaza":"","lat":42.257883,"lng":140.262705,"zip":"0493111"},{"town":"立岩","koaza":"","lat":42.268815,"lng":140.26043,"zip":"0493123"},{"town":"富咲","koaza":"","lat":42.297249,"lng":140.156547,"zip":"0493121"},{"town":"豊河町","koaza":"","lat":42.26231,"lng":140.276563,"zip":"0493103"},{"town":"鉛川","koaza":"","lat":42.274158,"lng":140.19536,"zip":"0493128"},{"town":"野田生","koaza":"","lat":42.216915,"lng":140.378979,"zip":"0492672"},{"town":"花浦","koaza":"","lat":42.290189,"lng":140.260971,"zip":"0493122"},{"town":"浜松","koaza":"","lat":42.238158,"lng":140.301099,"zip":"0493124"},{"town":"東野","koaza":"","lat":42.21338,"lng":140.391899,"zip":"0492673"},{"town":"東町","koaza":"","lat":42.259052,"lng":140.272408,"zip":"0493102"},{"town":"富士見町","koaza":"","lat":42.255309,"lng":140.275,"zip":"0493106"},{"town":"本町","koaza":"","lat":42.2549,"lng":140.271774,"zip":"0493107"},{"town":"三杉町","koaza":"","lat":42.246564,"lng":140.281861,"zip":"0493114"},{"town":"緑町","koaza":"","lat":42.24478,"lng":140.265986,"zip":"0493118"},{"town":"宮園町","koaza":"","lat":42.251802,"lng":140.262727,"zip":"0493116"},{"town":"元町","koaza":"","lat":42.259816,"lng":140.267173,"zip":"0493101"},{"town":"山越","koaza":"","lat":42.229889,"lng":140.327967,"zip":"0492671"},{"town":"わらび野","koaza":"","lat":42.144923,"lng":140.291726,"zip":"0492674"},{"town":"山崎","koaza":"","lat":42.312204,"lng":140.274821,"zip":"0493342"}]