[{"town":"旭町","koaza":"","lat":42.465988,"lng":140.867344,"zip":"0520015"},{"town":"網代町","koaza":"","lat":42.467927,"lng":140.863417,"zip":"0520025"},{"town":"乾町","koaza":"","lat":42.490579,"lng":140.906285,"zip":"0520002"},{"town":"有珠町","koaza":"","lat":42.519433,"lng":140.78865,"zip":"0590151"},{"town":"梅本町","koaza":"","lat":42.472823,"lng":140.871703,"zip":"0520022"},{"town":"大平町","koaza":"","lat":42.518166,"lng":140.845823,"zip":"0590153"},{"town":"大滝区愛地町","koaza":"","lat":42.777519,"lng":141.139798,"zip":"0440441"},{"town":"大滝区上野町","koaza":"","lat":42.639069,"lng":141.099418,"zip":"0520312"},{"town":"大滝区北湯沢温泉町","koaza":"","lat":42.638204,"lng":140.99544,"zip":"0520316"},{"town":"大滝区清原町","koaza":"","lat":42.712206,"lng":141.07103,"zip":"0440443"},{"town":"大滝区三階滝町","koaza":"","lat":42.688044,"lng":141.14504,"zip":"0520303"},{"town":"大滝区昭園町","koaza":"","lat":42.597316,"lng":141.063937,"zip":"0520315"},{"town":"大滝区清陵町","koaza":"","lat":42.709826,"lng":141.102664,"zip":"0520302"},{"town":"大滝区大成町","koaza":"","lat":42.644914,"lng":141.059558,"zip":"0520313"},{"town":"大滝区豊里町","koaza":"","lat":42.693995,"lng":141.046806,"zip":"0440444"},{"town":"大滝区本郷町","koaza":"","lat":42.675646,"lng":141.061622,"zip":"0520311"},{"town":"大滝区本町","koaza":"","lat":42.672534,"lng":141.080818,"zip":"0520301"},{"town":"大滝区円山町","koaza":"","lat":42.620096,"lng":141.080346,"zip":"0520314"},{"town":"大滝区宮城町","koaza":"","lat":42.725721,"lng":141.051485,"zip":"0440442"},{"town":"大滝区優徳町","koaza":"","lat":42.666325,"lng":141.000223,"zip":"0520317"},{"town":"大町","koaza":"","lat":42.47212,"lng":140.861264,"zip":"0520027"},{"town":"鹿島町","koaza":"","lat":42.471054,"lng":140.864831,"zip":"0520024"},{"town":"上館山町","koaza":"","lat":42.511583,"lng":140.872038,"zip":"0520008"},{"town":"上長和町","koaza":"","lat":42.5093,"lng":140.853504,"zip":"0520036"},{"town":"北有珠町","koaza":"","lat":42.5253,"lng":140.809131,"zip":"0590152"},{"town":"北黄金町","koaza":"","lat":42.418434,"lng":140.93173,"zip":"0590272"},{"town":"北稀府町","koaza":"","lat":42.45428,"lng":140.913705,"zip":"0590275"},{"town":"喜門別町","koaza":"","lat":42.509684,"lng":140.927734,"zip":"0520001"},{"town":"清住町","koaza":"","lat":42.471484,"lng":140.898815,"zip":"0520005"},{"town":"志門気町","koaza":"","lat":42.529905,"lng":140.921068,"zip":"0520001"},{"town":"末永町","koaza":"","lat":42.482429,"lng":140.871899,"zip":"0520021"},{"town":"竹原町","koaza":"","lat":42.48105,"lng":140.879895,"zip":"0520011"},{"town":"館山下町","koaza":"","lat":42.481098,"lng":140.845013,"zip":"0520034"},{"town":"館山町","koaza":"","lat":42.483375,"lng":140.859544,"zip":"0520031"},{"town":"中稀府町","koaza":"","lat":42.444116,"lng":140.91306,"zip":"0590274"},{"town":"長和町","koaza":"","lat":42.488053,"lng":140.830191,"zip":"0520035"},{"town":"錦町","koaza":"","lat":42.469704,"lng":140.860318,"zip":"0520026"},{"town":"西関内町","koaza":"","lat":42.507888,"lng":140.87895,"zip":"0520007"},{"town":"西浜町","koaza":"","lat":42.46878,"lng":140.853241,"zip":"0520033"},{"town":"萩原町","koaza":"","lat":42.451975,"lng":140.89285,"zip":"0520004"},{"town":"東有珠町","koaza":"","lat":42.510114,"lng":140.812398,"zip":"0590154"},{"town":"東関内町","koaza":"","lat":42.502673,"lng":140.900586,"zip":"0520006"},{"town":"東浜町","koaza":"","lat":42.463944,"lng":140.867307,"zip":"0520016"},{"town":"舟岡町","koaza":"","lat":42.460295,"lng":140.876357,"zip":"0520014"},{"town":"幌美内町","koaza":"","lat":42.470522,"lng":140.921925,"zip":"0520003"},{"town":"松ヶ枝町","koaza":"","lat":42.477111,"lng":140.889472,"zip":"0520000"},{"town":"南有珠町","koaza":"","lat":42.500855,"lng":140.802887,"zip":"0590156"},{"town":"南黄金町","koaza":"","lat":42.404371,"lng":140.953942,"zip":"0590271"},{"town":"南稀府町","koaza":"","lat":42.43634,"lng":140.922307,"zip":"0590273"},{"town":"向有珠町","koaza":"","lat":42.510916,"lng":140.786731,"zip":"0590157"},{"town":"元町","koaza":"","lat":42.468702,"lng":140.869681,"zip":"0520023"},{"town":"山下町","koaza":"","lat":42.47429,"lng":140.853547,"zip":"0520032"},{"town":"弄月町","koaza":"","lat":42.46072,"lng":140.892498,"zip":"0520013"},{"town":"若生町","koaza":"","lat":42.502075,"lng":140.827948,"zip":"0590155"}]