[{"town":"朝日町","koaza":"","lat":43.193712,"lng":140.780153,"zip":"0460015"},{"town":"入舟町","koaza":"","lat":43.193425,"lng":140.786175,"zip":"0460011"},{"town":"梅川町","koaza":"","lat":43.206264,"lng":140.754001,"zip":"0460023"},{"town":"大川町十丁目","koaza":"","lat":43.191593,"lng":140.803687,"zip":"0460004"},{"town":"大川町十一丁目","koaza":"","lat":43.191923,"lng":140.805165,"zip":"0460004"},{"town":"大川町十二丁目","koaza":"","lat":43.19166,"lng":140.806588,"zip":"0460004"},{"town":"大川町十三丁目","koaza":"","lat":43.191761,"lng":140.808058,"zip":"0460004"},{"town":"大川町十四丁目","koaza":"","lat":43.191866,"lng":140.809522,"zip":"0460004"},{"town":"大川町十五丁目","koaza":"","lat":43.19186,"lng":140.810985,"zip":"0460004"},{"town":"大川町十六丁目","koaza":"","lat":43.191846,"lng":140.812419,"zip":"0460004"},{"town":"大川町十七丁目","koaza":"","lat":43.191715,"lng":140.813865,"zip":"0460004"},{"town":"大川町十八丁目","koaza":"","lat":43.192234,"lng":140.815275,"zip":"0460004"},{"town":"大川町十九丁目","koaza":"","lat":43.191935,"lng":140.816693,"zip":"0460004"},{"town":"大川町一丁目","koaza":"","lat":43.193318,"lng":140.790345,"zip":"0460004"},{"town":"大川町二十丁目","koaza":"","lat":43.192009,"lng":140.81856,"zip":"0460004"},{"town":"大川町二丁目","koaza":"","lat":43.192248,"lng":140.791834,"zip":"0460004"},{"town":"大川町三丁目","koaza":"","lat":43.192585,"lng":140.793471,"zip":"0460004"},{"town":"大川町四丁目","koaza":"","lat":43.192182,"lng":140.794874,"zip":"0460004"},{"town":"大川町五丁目","koaza":"","lat":43.19172,"lng":140.796333,"zip":"0460004"},{"town":"大川町六丁目","koaza":"","lat":43.191409,"lng":140.797779,"zip":"0460004"},{"town":"大川町七丁目","koaza":"","lat":43.191751,"lng":140.799233,"zip":"0460004"},{"town":"大川町八丁目","koaza":"","lat":43.191158,"lng":140.80069,"zip":"0460004"},{"town":"大川町九丁目","koaza":"","lat":43.191468,"lng":140.802194,"zip":"0460004"},{"town":"黒川町","koaza":"","lat":43.175639,"lng":140.796069,"zip":"0460003"},{"town":"黒川町十丁目","koaza":"","lat":43.186834,"lng":140.796258,"zip":"0460003"},{"town":"黒川町十一丁目","koaza":"","lat":43.182883,"lng":140.794597,"zip":"0460003"},{"town":"黒川町十二丁目","koaza":"","lat":43.185397,"lng":140.798395,"zip":"0460003"},{"town":"黒川町十三丁目","koaza":"","lat":43.182048,"lng":140.796827,"zip":"0460003"},{"town":"黒川町十四丁目","koaza":"","lat":43.18811,"lng":140.801919,"zip":"0460003"},{"town":"黒川町十五丁目","koaza":"","lat":43.184795,"lng":140.802399,"zip":"0460003"},{"town":"黒川町十六丁目","koaza":"","lat":43.181058,"lng":140.801324,"zip":"0460003"},{"town":"黒川町十七丁目","koaza":"","lat":43.187735,"lng":140.808859,"zip":"0460003"},{"town":"黒川町十八丁目","koaza":"","lat":43.184229,"lng":140.808551,"zip":"0460003"},{"town":"黒川町十九丁目","koaza":"","lat":43.188082,"lng":140.816255,"zip":"0460003"},{"town":"黒川町一丁目","koaza":"","lat":43.19089,"lng":140.789244,"zip":"0460003"},{"town":"黒川町二十丁目","koaza":"","lat":43.184807,"lng":140.816409,"zip":"0460003"},{"town":"黒川町二丁目","koaza":"","lat":43.189839,"lng":140.790584,"zip":"0460003"},{"town":"黒川町三丁目","koaza":"","lat":43.189023,"lng":140.792176,"zip":"0460003"},{"town":"黒川町四丁目","koaza":"","lat":43.18877,"lng":140.793381,"zip":"0460003"},{"town":"黒川町五丁目","koaza":"","lat":43.188342,"lng":140.794528,"zip":"0460003"},{"town":"黒川町六丁目","koaza":"","lat":43.188243,"lng":140.788708,"zip":"0460003"},{"town":"黒川町七丁目","koaza":"","lat":43.185925,"lng":140.79044,"zip":"0460003"},{"town":"黒川町八丁目","koaza":"","lat":43.185885,"lng":140.794004,"zip":"0460003"},{"town":"黒川町九丁目","koaza":"","lat":43.183064,"lng":140.791345,"zip":"0460003"},{"town":"栄町","koaza":"","lat":43.158567,"lng":140.861853,"zip":"0460001"},{"town":"沢町","koaza":"","lat":43.192878,"lng":140.760366,"zip":"0460022"},{"town":"沢町一丁目","koaza":"","lat":43.202974,"lng":140.773784,"zip":"0460022"},{"town":"沢町二丁目","koaza":"","lat":43.202347,"lng":140.772964,"zip":"0460022"},{"town":"沢町三丁目","koaza":"","lat":43.201431,"lng":140.772382,"zip":"0460022"},{"town":"沢町四丁目","koaza":"","lat":43.199556,"lng":140.771554,"zip":"0460022"},{"town":"沢町五丁目","koaza":"","lat":43.196958,"lng":140.76932,"zip":"0460022"},{"town":"沢町六丁目","koaza":"","lat":43.196485,"lng":140.765615,"zip":"0460022"},{"town":"潮見町","koaza":"","lat":43.239516,"lng":140.719571,"zip":"0460033"},{"town":"白岩町","koaza":"","lat":43.231783,"lng":140.735478,"zip":"0460031"},{"town":"富沢町十丁目","koaza":"","lat":43.20958,"lng":140.769519,"zip":"0460025"},{"town":"富沢町十一丁目","koaza":"","lat":43.210703,"lng":140.769467,"zip":"0460025"},{"town":"富沢町十二丁目","koaza":"","lat":43.21182,"lng":140.770295,"zip":"0460025"},{"town":"富沢町十三丁目","koaza":"","lat":43.213071,"lng":140.769896,"zip":"0460025"},{"town":"富沢町十四丁目","koaza":"","lat":43.214345,"lng":140.770795,"zip":"0460025"},{"town":"富沢町一丁目","koaza":"","lat":43.199713,"lng":140.768281,"zip":"0460025"},{"town":"富沢町二丁目","koaza":"","lat":43.200375,"lng":140.767633,"zip":"0460025"},{"town":"富沢町三丁目","koaza":"","lat":43.201844,"lng":140.768458,"zip":"0460025"},{"town":"富沢町四丁目","koaza":"","lat":43.20302,"lng":140.768602,"zip":"0460025"},{"town":"富沢町五丁目","koaza":"","lat":43.204141,"lng":140.770242,"zip":"0460025"},{"town":"富沢町六丁目","koaza":"","lat":43.204932,"lng":140.77086,"zip":"0460025"},{"town":"富沢町七丁目","koaza":"","lat":43.20624,"lng":140.769649,"zip":"0460025"},{"town":"富沢町八丁目","koaza":"","lat":43.207413,"lng":140.769608,"zip":"0460025"},{"town":"富沢町九丁目","koaza":"","lat":43.208503,"lng":140.769566,"zip":"0460025"},{"town":"豊丘町","koaza":"","lat":43.166616,"lng":140.736897,"zip":"0460013"},{"town":"豊浜町","koaza":"","lat":43.233565,"lng":140.703808,"zip":"0460032"},{"town":"登町","koaza":"","lat":43.149751,"lng":140.825164,"zip":"0460002"},{"town":"浜中町","koaza":"","lat":43.200114,"lng":140.77748,"zip":"0460021"},{"town":"美園町","koaza":"","lat":43.185095,"lng":140.771955,"zip":"0460014"},{"town":"港町","koaza":"","lat":43.211718,"lng":140.773696,"zip":"0460024"},{"town":"山田町","koaza":"","lat":43.176057,"lng":140.777358,"zip":"0460012"}]