[{"town":"旭台","koaza":"","lat":43.159163,"lng":140.744937,"zip":"0482401"},{"town":"大江一丁目","koaza":"","lat":43.111147,"lng":140.731394,"zip":"0482402"},{"town":"大江二丁目","koaza":"","lat":43.081284,"lng":140.727229,"zip":"0482402"},{"town":"大江三丁目","koaza":"","lat":43.072177,"lng":140.705076,"zip":"0482402"},{"town":"尾根内","koaza":"","lat":43.035034,"lng":140.794702,"zip":"0482334"},{"town":"北町十丁目","koaza":"","lat":43.16617,"lng":140.777163,"zip":"0482405"},{"town":"北町十一丁目","koaza":"","lat":43.165213,"lng":140.781576,"zip":"0482405"},{"town":"北町十二丁目","koaza":"","lat":43.171632,"lng":140.783707,"zip":"0482405"},{"town":"北町十三丁目","koaza":"","lat":43.169032,"lng":140.785631,"zip":"0482405"},{"town":"北町一丁目","koaza":"","lat":43.154343,"lng":140.767341,"zip":"0482405"},{"town":"北町二丁目","koaza":"","lat":43.158629,"lng":140.761586,"zip":"0482405"},{"town":"北町三丁目","koaza":"","lat":43.156218,"lng":140.769926,"zip":"0482405"},{"town":"北町四丁目","koaza":"","lat":43.16023,"lng":140.764665,"zip":"0482405"},{"town":"北町五丁目","koaza":"","lat":43.157958,"lng":140.7728,"zip":"0482405"},{"town":"北町六丁目","koaza":"","lat":43.161842,"lng":140.767638,"zip":"0482405"},{"town":"北町七丁目","koaza":"","lat":43.160274,"lng":140.774795,"zip":"0482405"},{"town":"北町八丁目","koaza":"","lat":43.163547,"lng":140.771115,"zip":"0482405"},{"town":"北町九丁目","koaza":"","lat":43.162086,"lng":140.777953,"zip":"0482405"},{"town":"銀山一丁目","koaza":"","lat":43.05424,"lng":140.715416,"zip":"0482335"},{"town":"銀山二丁目","koaza":"","lat":43.040665,"lng":140.724356,"zip":"0482335"},{"town":"銀山三丁目","koaza":"","lat":43.03471,"lng":140.744996,"zip":"0482335"},{"town":"然別","koaza":"","lat":43.123921,"lng":140.699976,"zip":"0482403"},{"town":"砥の川","koaza":"","lat":43.146762,"lng":140.733342,"zip":"0482404"},{"town":"長沢殖民地","koaza":"","lat":43.063753,"lng":140.762654,"zip":"0482400"},{"town":"長沢西","koaza":"","lat":43.053846,"lng":140.741931,"zip":"0482332"},{"town":"長沢南","koaza":"","lat":43.043838,"lng":140.756298,"zip":"0482333"},{"town":"西町十丁目","koaza":"","lat":43.145777,"lng":140.752028,"zip":"0482406"},{"town":"西町十一丁目","koaza":"","lat":43.141466,"lng":140.749836,"zip":"0482406"},{"town":"西町一丁目","koaza":"","lat":43.152444,"lng":140.764768,"zip":"0482406"},{"town":"西町二丁目","koaza":"","lat":43.156197,"lng":140.759812,"zip":"0482406"},{"town":"西町三丁目","koaza":"","lat":43.150253,"lng":140.762812,"zip":"0482406"},{"town":"西町四丁目","koaza":"","lat":43.154176,"lng":140.757369,"zip":"0482406"},{"town":"西町五丁目","koaza":"","lat":43.147836,"lng":140.760691,"zip":"0482406"},{"town":"西町六丁目","koaza":"","lat":43.151705,"lng":140.755536,"zip":"0482406"},{"town":"西町七丁目","koaza":"","lat":43.145348,"lng":140.758307,"zip":"0482406"},{"town":"西町八丁目","koaza":"","lat":43.14878,"lng":140.753736,"zip":"0482406"},{"town":"西町九丁目","koaza":"","lat":43.142245,"lng":140.755184,"zip":"0482406"},{"town":"東町十丁目","koaza":"","lat":43.155791,"lng":140.786122,"zip":"0482411"},{"town":"東町十一丁目","koaza":"","lat":43.162411,"lng":140.78396,"zip":"0482411"},{"town":"東町十二丁目","koaza":"","lat":43.158766,"lng":140.790591,"zip":"0482411"},{"town":"東町十三丁目","koaza":"","lat":43.165154,"lng":140.789494,"zip":"0482411"},{"town":"東町十四丁目","koaza":"","lat":43.136717,"lng":140.785132,"zip":"0482411"},{"town":"東町十五丁目","koaza":"","lat":43.13704,"lng":140.798534,"zip":"0482411"},{"town":"東町十六丁目","koaza":"","lat":43.150926,"lng":140.794572,"zip":"0482411"},{"town":"東町一丁目","koaza":"","lat":43.151433,"lng":140.771148,"zip":"0482411"},{"town":"東町二丁目","koaza":"","lat":43.146555,"lng":140.777398,"zip":"0482411"},{"town":"東町三丁目","koaza":"","lat":43.15321,"lng":140.773912,"zip":"0482411"},{"town":"東町四丁目","koaza":"","lat":43.148731,"lng":140.779754,"zip":"0482411"},{"town":"東町五丁目","koaza":"","lat":43.155339,"lng":140.776155,"zip":"0482411"},{"town":"東町六丁目","koaza":"","lat":43.150871,"lng":140.781883,"zip":"0482411"},{"town":"東町七丁目","koaza":"","lat":43.157246,"lng":140.779008,"zip":"0482411"},{"town":"東町八丁目","koaza":"","lat":43.152322,"lng":140.785255,"zip":"0482411"},{"town":"東町九丁目","koaza":"","lat":43.15928,"lng":140.781649,"zip":"0482411"},{"town":"東町緑ケ丘","koaza":"","lat":43.130741,"lng":140.811317,"zip":"0482412"},{"town":"南町十丁目","koaza":"","lat":43.135515,"lng":140.771516,"zip":"0482413"},{"town":"南町一丁目","koaza":"","lat":43.149194,"lng":140.769045,"zip":"0482413"},{"town":"南町二丁目","koaza":"","lat":43.146323,"lng":140.772716,"zip":"0482413"},{"town":"南町三丁目","koaza":"","lat":43.146169,"lng":140.767919,"zip":"0482413"},{"town":"南町四丁目","koaza":"","lat":43.145049,"lng":140.764336,"zip":"0482413"},{"town":"南町五丁目","koaza":"","lat":43.142949,"lng":140.761459,"zip":"0482413"},{"town":"南町六丁目","koaza":"","lat":43.139994,"lng":140.758089,"zip":"0482413"},{"town":"南町七丁目","koaza":"","lat":43.13118,"lng":140.754239,"zip":"0482413"},{"town":"南町八丁目","koaza":"","lat":43.125636,"lng":140.748462,"zip":"0482413"},{"town":"南町九丁目","koaza":"","lat":43.119831,"lng":140.742628,"zip":"0482413"},{"town":"南町頂白","koaza":"","lat":43.122335,"lng":140.779344,"zip":"0482400"}]