[{"town":"青柳町","koaza":"","lat":41.757089,"lng":140.716562,"zip":"0400044"},{"town":"赤川一丁目","koaza":"","lat":41.825774,"lng":140.759918,"zip":"0410805"},{"town":"赤川町","koaza":"","lat":41.841914,"lng":140.771936,"zip":"0410804"},{"town":"赤坂町","koaza":"","lat":41.776305,"lng":140.833698,"zip":"0420913"},{"town":"浅野町","koaza":"","lat":41.794626,"lng":140.725521,"zip":"0400076"},{"town":"旭岡町","koaza":"","lat":41.800661,"lng":140.836041,"zip":"0420916"},{"town":"旭町","koaza":"","lat":41.766831,"lng":140.728006,"zip":"0400037"},{"town":"石川町","koaza":"","lat":41.835341,"lng":140.743643,"zip":"0410802"},{"town":"石倉町","koaza":"","lat":41.77275,"lng":140.850854,"zip":"0420911"},{"town":"石崎町","koaza":"","lat":41.753216,"lng":140.879141,"zip":"0410261"},{"town":"入舟町","koaza":"","lat":41.767381,"lng":140.69532,"zip":"0400057"},{"town":"岩戸町","koaza":"","lat":41.984194,"lng":140.859274,"zip":"0411624"},{"town":"庵原町","koaza":"","lat":41.813705,"lng":140.875763,"zip":"0420904"},{"town":"上野町","koaza":"","lat":41.785923,"lng":140.799481,"zip":"0420954"},{"town":"宇賀浦町","koaza":"","lat":41.771121,"lng":140.744237,"zip":"0400023"},{"town":"臼尻町","koaza":"","lat":41.922249,"lng":140.939305,"zip":"0411613"},{"town":"絵紙山町","koaza":"","lat":41.833618,"lng":141.116063,"zip":"0410613"},{"town":"恵山町","koaza":"","lat":41.788415,"lng":141.154788,"zip":"0410522"},{"town":"恵山岬町","koaza":"","lat":41.811536,"lng":141.176836,"zip":"0410605"},{"town":"榎本町","koaza":"","lat":41.78671,"lng":140.793825,"zip":"0420931"},{"town":"追分町","koaza":"","lat":41.798688,"lng":140.731485,"zip":"0400071"},{"town":"大川町","koaza":"","lat":41.797915,"lng":140.738935,"zip":"0400084"},{"town":"大手町","koaza":"","lat":41.769277,"lng":140.723697,"zip":"0400064"},{"town":"大縄町","koaza":"","lat":41.781137,"lng":140.734669,"zip":"0400062"},{"town":"大船町","koaza":"","lat":41.951787,"lng":140.912237,"zip":"0411622"},{"town":"大町","koaza":"","lat":41.769485,"lng":140.709669,"zip":"0400052"},{"town":"大澗町","koaza":"","lat":41.750894,"lng":141.069427,"zip":"0410403"},{"town":"大森町","koaza":"","lat":41.76785,"lng":140.734049,"zip":"0400034"},{"town":"尾札部町","koaza":"","lat":41.869442,"lng":141.003943,"zip":"0411603"},{"town":"小安町","koaza":"","lat":41.747788,"lng":140.909286,"zip":"0410251"},{"town":"小安山町","koaza":"","lat":41.756189,"lng":140.925074,"zip":"0410253"},{"town":"海岸町","koaza":"","lat":41.78133,"lng":140.729485,"zip":"0400061"},{"town":"鍛治一丁目","koaza":"","lat":41.804169,"lng":140.76383,"zip":"0410852"},{"town":"鍛治二丁目","koaza":"","lat":41.807475,"lng":140.767099,"zip":"0410852"},{"town":"柏木町","koaza":"","lat":41.787396,"lng":140.767252,"zip":"0420942"},{"town":"柏野町","koaza":"","lat":41.800019,"lng":141.149656,"zip":"0410523"},{"town":"川汲町","koaza":"","lat":41.890948,"lng":140.950775,"zip":"0411611"},{"town":"金堀町","koaza":"","lat":41.776165,"lng":140.760452,"zip":"0420944"},{"town":"蛾眉野町","koaza":"","lat":41.808547,"lng":140.97341,"zip":"0420901"},{"town":"釜谷町","koaza":"","lat":41.741319,"lng":140.941369,"zip":"0410252"},{"town":"上新川町","koaza":"","lat":41.780445,"lng":140.73824,"zip":"0400031"},{"town":"神山一丁目","koaza":"","lat":41.816009,"lng":140.762758,"zip":"0410832"},{"town":"神山二丁目","koaza":"","lat":41.81234,"lng":140.76734,"zip":"0410832"},{"town":"神山三丁目","koaza":"","lat":41.816222,"lng":140.767715,"zip":"0410832"},{"town":"神山町","koaza":"","lat":41.826042,"lng":140.766486,"zip":"0410831"},{"town":"上湯川町","koaza":"","lat":41.786339,"lng":140.818912,"zip":"0420914"},{"town":"亀尾町","koaza":"","lat":41.798079,"lng":140.85065,"zip":"0420917"},{"town":"亀田大森町","koaza":"","lat":41.892755,"lng":140.806255,"zip":"0400000"},{"town":"亀田中野町","koaza":"","lat":41.874508,"lng":140.774003,"zip":"0410803"},{"town":"亀田本町","koaza":"","lat":41.805284,"lng":140.737214,"zip":"0410813"},{"town":"亀田町","koaza":"","lat":41.795478,"lng":140.733781,"zip":"0400072"},{"town":"亀田港町","koaza":"","lat":41.808978,"lng":140.726763,"zip":"0410822"},{"town":"川上町","koaza":"","lat":41.770659,"lng":141.067337,"zip":"0410405"},{"town":"川原町","koaza":"","lat":41.791411,"lng":140.773504,"zip":"0410844"},{"town":"桔梗一丁目","koaza":"","lat":41.829766,"lng":140.729474,"zip":"0410808"},{"town":"桔梗二丁目","koaza":"","lat":41.838077,"lng":140.728345,"zip":"0410808"},{"town":"桔梗三丁目","koaza":"","lat":41.845133,"lng":140.726998,"zip":"0410808"},{"town":"桔梗四丁目","koaza":"","lat":41.849562,"lng":140.725604,"zip":"0410808"},{"town":"桔梗五丁目","koaza":"","lat":41.849476,"lng":140.732538,"zip":"0410808"},{"town":"桔梗町","koaza":"","lat":41.850869,"lng":140.749613,"zip":"0410801"},{"town":"北浜町","koaza":"","lat":41.798094,"lng":140.727481,"zip":"0400078"},{"town":"北美原一丁目","koaza":"","lat":41.827555,"lng":140.746555,"zip":"0410807"},{"town":"北美原二丁目","koaza":"","lat":41.828771,"lng":140.750001,"zip":"0410807"},{"town":"北美原三丁目","koaza":"","lat":41.830508,"lng":140.752638,"zip":"0410807"},{"town":"吉畑町","koaza":"","lat":41.747158,"lng":141.052094,"zip":"0410408"},{"town":"木直町","koaza":"","lat":41.867765,"lng":141.070748,"zip":"0411602"},{"town":"古武井町","koaza":"","lat":41.788356,"lng":141.11751,"zip":"0410524"},{"town":"駒場町","koaza":"","lat":41.782328,"lng":140.773885,"zip":"0420935"},{"town":"五稜郭町","koaza":"","lat":41.796043,"lng":140.754373,"zip":"0400001"},{"town":"栄町","koaza":"","lat":41.764572,"lng":140.726446,"zip":"0400041"},{"town":"汐首町","koaza":"","lat":41.7223,"lng":140.957205,"zip":"0410301"},{"town":"東雲町","koaza":"","lat":41.769119,"lng":140.729958,"zip":"0400036"},{"town":"志海苔町","koaza":"","lat":41.765668,"lng":140.820906,"zip":"0420923"},{"town":"島泊町","koaza":"","lat":41.826254,"lng":141.145785,"zip":"0410602"},{"town":"昭和一丁目","koaza":"","lat":41.816319,"lng":140.743487,"zip":"0410812"},{"town":"昭和二丁目","koaza":"","lat":41.813586,"lng":140.73871,"zip":"0410812"},{"town":"昭和三丁目","koaza":"","lat":41.820507,"lng":140.736437,"zip":"0410812"},{"town":"昭和四丁目","koaza":"","lat":41.816774,"lng":140.731886,"zip":"0410812"},{"town":"昭和町","koaza":"","lat":41.816021,"lng":140.726049,"zip":"0410823"},{"town":"白鳥町","koaza":"","lat":41.793392,"lng":140.745547,"zip":"0400082"},{"town":"白石町","koaza":"","lat":41.762069,"lng":140.904494,"zip":"0410265"},{"town":"新恵山町","koaza":"","lat":41.81575,"lng":141.138471,"zip":"0410606"},{"town":"陣川一丁目","koaza":"","lat":41.818089,"lng":140.77528,"zip":"0410837"},{"town":"陣川二丁目","koaza":"","lat":41.818458,"lng":140.772201,"zip":"0410837"},{"town":"新川町","koaza":"","lat":41.776066,"lng":140.735688,"zip":"0400032"},{"town":"陣川町","koaza":"","lat":41.838459,"lng":140.796321,"zip":"0410833"},{"town":"新八幡町","koaza":"","lat":41.828032,"lng":141.141682,"zip":"0410601"},{"town":"新浜町","koaza":"","lat":41.832463,"lng":141.140237,"zip":"0410611"},{"town":"新二見町","koaza":"","lat":41.728416,"lng":141.02551,"zip":"0410312"},{"town":"新湊町","koaza":"","lat":41.760965,"lng":140.847371,"zip":"0420921"},{"town":"末広町","koaza":"","lat":41.764818,"lng":140.716105,"zip":"0400053"},{"town":"杉並町","koaza":"","lat":41.788494,"lng":140.757182,"zip":"0400004"},{"town":"鈴蘭丘町","koaza":"","lat":41.819997,"lng":140.831412,"zip":"0420958"},{"town":"住吉町","koaza":"","lat":41.750631,"lng":140.717301,"zip":"0400045"},{"town":"瀬田来町","koaza":"","lat":41.727398,"lng":140.97413,"zip":"0410302"},{"town":"瀬戸川町","koaza":"","lat":41.777002,"lng":140.823324,"zip":"0420951"},{"town":"銭亀町","koaza":"","lat":41.762368,"lng":140.83312,"zip":"0420922"},{"town":"高丘町","koaza":"","lat":41.789323,"lng":140.803342,"zip":"0420955"},{"town":"高岱町","koaza":"","lat":41.799444,"lng":141.108397,"zip":"0410526"},{"town":"高松町","koaza":"","lat":41.775204,"lng":140.806888,"zip":"0420952"},{"town":"高盛町","koaza":"","lat":41.774074,"lng":140.74444,"zip":"0400024"},{"town":"滝沢町","koaza":"","lat":41.800736,"lng":140.802341,"zip":"0420957"},{"town":"館町","koaza":"","lat":41.725784,"lng":140.999955,"zip":"0410305"},{"town":"田家町","koaza":"","lat":41.797829,"lng":140.746069,"zip":"0400081"},{"town":"千歳町","koaza":"","lat":41.773587,"lng":140.737904,"zip":"0400033"},{"town":"銚子町","koaza":"","lat":41.846273,"lng":141.1411,"zip":"0410612"},{"town":"千代台町","koaza":"","lat":41.784369,"lng":140.747169,"zip":"0400013"},{"town":"鶴野町","koaza":"","lat":41.7663,"lng":140.885256,"zip":"0410264"},{"town":"鉄山町","koaza":"","lat":41.821413,"lng":140.919246,"zip":"0420902"},{"town":"銅山町","koaza":"","lat":41.799897,"lng":140.821488,"zip":"0420908"},{"town":"時任町","koaza":"","lat":41.783077,"lng":140.753845,"zip":"0400012"},{"town":"戸倉町","koaza":"","lat":41.782669,"lng":140.801868,"zip":"0420953"},{"town":"泊町","koaza":"","lat":41.716133,"lng":141.001879,"zip":"0410304"},{"town":"富浦町","koaza":"","lat":41.825567,"lng":141.154142,"zip":"0410603"},{"town":"富岡町一丁目","koaza":"","lat":41.806444,"lng":140.744064,"zip":"0410811"},{"town":"富岡町二丁目","koaza":"","lat":41.805975,"lng":140.751504,"zip":"0410811"},{"town":"富岡町三丁目","koaza":"","lat":41.810023,"lng":140.753743,"zip":"0410811"},{"town":"豊浦町","koaza":"","lat":41.745923,"lng":141.061123,"zip":"0410402"},{"town":"豊川町","koaza":"","lat":41.767056,"lng":140.720009,"zip":"0400065"},{"town":"豊崎町","koaza":"","lat":41.938979,"lng":140.924819,"zip":"0411621"},{"town":"豊原町","koaza":"","lat":41.777958,"lng":140.870488,"zip":"0410263"},{"town":"寅沢町","koaza":"","lat":41.874755,"lng":140.835964,"zip":"0400000"},{"town":"中島町","koaza":"","lat":41.784119,"lng":140.741837,"zip":"0400014"},{"town":"中野町","koaza":"","lat":41.771735,"lng":140.841391,"zip":"0420912"},{"town":"中浜町","koaza":"","lat":41.756529,"lng":141.064027,"zip":"0410404"},{"town":"中道一丁目","koaza":"","lat":41.802548,"lng":140.755517,"zip":"0410853"},{"town":"中道二丁目","koaza":"","lat":41.80907,"lng":140.759955,"zip":"0410853"},{"town":"西旭岡町一丁目","koaza":"","lat":41.794538,"lng":140.822525,"zip":"0420915"},{"town":"西旭岡町二丁目","koaza":"","lat":41.798799,"lng":140.827461,"zip":"0420915"},{"town":"西旭岡町三丁目","koaza":"","lat":41.805766,"lng":140.834251,"zip":"0420915"},{"town":"西桔梗町","koaza":"","lat":41.83232,"lng":140.715029,"zip":"0410824"},{"town":"根崎町","koaza":"","lat":41.770225,"lng":140.802433,"zip":"0420924"},{"town":"乃木町","koaza":"","lat":41.780909,"lng":140.763518,"zip":"0420943"},{"town":"函館山","koaza":"","lat":41.752646,"lng":140.701819,"zip":"0400000"},{"town":"八幡町","koaza":"","lat":41.793276,"lng":140.739207,"zip":"0400083"},{"town":"花園町","koaza":"","lat":41.791952,"lng":140.781509,"zip":"0410843"},{"town":"浜町","koaza":"","lat":41.731532,"lng":141.009779,"zip":"0410311"},{"town":"原木町","koaza":"","lat":41.745092,"lng":141.029153,"zip":"0410313"},{"town":"万代町","koaza":"","lat":41.787869,"lng":140.728545,"zip":"0400075"},{"town":"日浦町","koaza":"","lat":41.744697,"lng":141.042634,"zip":"0410401"},{"town":"東川町","koaza":"","lat":41.762187,"lng":140.724973,"zip":"0400042"},{"town":"東畑町","koaza":"","lat":41.7933,"lng":140.872718,"zip":"0420903"},{"town":"東山一丁目","koaza":"","lat":41.812266,"lng":140.771387,"zip":"0410835"},{"town":"東山二丁目","koaza":"","lat":41.807751,"lng":140.775189,"zip":"0410835"},{"town":"東山三丁目","koaza":"","lat":41.81114,"lng":140.779209,"zip":"0410835"},{"town":"東山町","koaza":"","lat":41.829135,"lng":140.816685,"zip":"0410834"},{"town":"人見町","koaza":"","lat":41.781762,"lng":140.759604,"zip":"0400005"},{"town":"日乃出町","koaza":"","lat":41.774332,"lng":140.752515,"zip":"0400022"},{"town":"日ノ浜町","koaza":"","lat":41.78069,"lng":141.102959,"zip":"0410525"},{"town":"日吉町一丁目","koaza":"","lat":41.788492,"lng":140.790168,"zip":"0410841"},{"town":"日吉町二丁目","koaza":"","lat":41.795569,"lng":140.791915,"zip":"0410841"},{"town":"日吉町三丁目","koaza":"","lat":41.796182,"lng":140.783878,"zip":"0410841"},{"town":"日吉町四丁目","koaza":"","lat":41.803567,"lng":140.793085,"zip":"0410841"},{"town":"日和山町","koaza":"","lat":41.803241,"lng":141.033514,"zip":"0410407"},{"town":"広野町","koaza":"","lat":41.778264,"lng":140.768144,"zip":"0420934"},{"town":"深堀町","koaza":"","lat":41.786557,"lng":140.777119,"zip":"0420941"},{"town":"双見町","koaza":"","lat":41.979,"lng":140.897969,"zip":"0411623"},{"town":"船見町","koaza":"","lat":41.765738,"lng":140.704465,"zip":"0400055"},{"town":"古川町","koaza":"","lat":41.76159,"lng":140.865703,"zip":"0410262"},{"town":"古部町","koaza":"","lat":41.860788,"lng":141.111946,"zip":"0411601"},{"town":"弁才町","koaza":"","lat":41.731237,"lng":140.988105,"zip":"0410303"},{"town":"弁天町","koaza":"","lat":41.777075,"lng":140.704287,"zip":"0400051"},{"town":"宝来町","koaza":"","lat":41.760107,"lng":140.721198,"zip":"0400043"},{"town":"堀川町","koaza":"","lat":41.778185,"lng":140.743866,"zip":"0400025"},{"town":"本町","koaza":"","lat":41.788758,"lng":140.752265,"zip":"0400011"},{"town":"本通一丁目","koaza":"","lat":41.798522,"lng":140.76308,"zip":"0410851"},{"town":"本通二丁目","koaza":"","lat":41.799514,"lng":140.769963,"zip":"0410851"},{"town":"本通三丁目","koaza":"","lat":41.793947,"lng":140.77429,"zip":"0410851"},{"town":"本通四丁目","koaza":"","lat":41.799194,"lng":140.775747,"zip":"0410851"},{"town":"米原町","koaza":"","lat":41.785438,"lng":140.852937,"zip":"0420918"},{"town":"鱒川町","koaza":"","lat":41.830839,"lng":140.863134,"zip":"0420907"},{"town":"松陰町","koaza":"","lat":41.788236,"lng":140.761387,"zip":"0400003"},{"town":"松風町","koaza":"","lat":41.771977,"lng":140.732647,"zip":"0400035"},{"town":"松川町","koaza":"","lat":41.785405,"lng":140.736207,"zip":"0400074"},{"town":"的場町","koaza":"","lat":41.77862,"lng":140.751848,"zip":"0400021"},{"town":"丸山町","koaza":"","lat":41.755373,"lng":140.977844,"zip":"0410306"},{"town":"御崎町","koaza":"","lat":41.799099,"lng":141.171833,"zip":"0410521"},{"town":"水元町","koaza":"","lat":41.847119,"lng":140.784381,"zip":"0400000"},{"town":"三森町","koaza":"","lat":41.885211,"lng":140.86231,"zip":"0420906"},{"town":"港町一丁目","koaza":"","lat":41.802166,"lng":140.72526,"zip":"0410821"},{"town":"港町二丁目","koaza":"","lat":41.804674,"lng":140.716767,"zip":"0410821"},{"town":"港町三丁目","koaza":"","lat":41.81065,"lng":140.715643,"zip":"0410821"},{"town":"美原一丁目","koaza":"","lat":41.815361,"lng":140.749696,"zip":"0410806"},{"town":"美原二丁目","koaza":"","lat":41.818303,"lng":140.758721,"zip":"0410806"},{"town":"美原三丁目","koaza":"","lat":41.820443,"lng":140.746569,"zip":"0410806"},{"town":"美原四丁目","koaza":"","lat":41.82215,"lng":140.755953,"zip":"0410806"},{"town":"美原五丁目","koaza":"","lat":41.823967,"lng":140.751002,"zip":"0410806"},{"town":"見晴町","koaza":"","lat":41.799254,"lng":140.812811,"zip":"0420956"},{"town":"宮前町","koaza":"","lat":41.789671,"lng":140.738328,"zip":"0400073"},{"town":"女那川町","koaza":"","lat":41.769239,"lng":141.086456,"zip":"0410406"},{"town":"元町","koaza":"","lat":41.763148,"lng":140.712155,"zip":"0400054"},{"town":"元村町","koaza":"","lat":41.819727,"lng":141.165862,"zip":"0410604"},{"town":"紅葉山町","koaza":"","lat":41.863206,"lng":140.91251,"zip":"0420905"},{"town":"安浦町","koaza":"","lat":41.911802,"lng":140.947502,"zip":"0411612"},{"town":"谷地頭町","koaza":"","lat":41.751545,"lng":140.712205,"zip":"0400046"},{"town":"梁川町","koaza":"","lat":41.790649,"lng":140.74716,"zip":"0400015"},{"town":"柳町","koaza":"","lat":41.793725,"lng":140.761943,"zip":"0400002"},{"town":"山の手一丁目","koaza":"","lat":41.806766,"lng":140.779841,"zip":"0410836"},{"town":"山の手二丁目","koaza":"","lat":41.801025,"lng":140.78141,"zip":"0410836"},{"town":"山の手三丁目","koaza":"","lat":41.805926,"lng":140.784395,"zip":"0410836"},{"town":"弥生町","koaza":"","lat":41.768704,"lng":140.706127,"zip":"0400056"},{"town":"湯川町一丁目","koaza":"","lat":41.778535,"lng":140.782998,"zip":"0420932"},{"town":"湯川町二丁目","koaza":"","lat":41.780523,"lng":140.788821,"zip":"0420932"},{"town":"湯川町三丁目","koaza":"","lat":41.779012,"lng":140.795101,"zip":"0420932"},{"town":"湯浜町","koaza":"","lat":41.777217,"lng":140.775541,"zip":"0420933"},{"town":"吉川町","koaza":"","lat":41.793813,"lng":140.729496,"zip":"0400077"},{"town":"若松町","koaza":"","lat":41.774661,"lng":140.72804,"zip":"0400063"}]