[{"town":"安平","koaza":"","lat":42.816856,"lng":141.82393,"zip":"0591511"},{"town":"追分青葉一丁目","koaza":"","lat":42.879898,"lng":141.800227,"zip":"0591941"},{"town":"追分青葉二丁目","koaza":"","lat":42.882407,"lng":141.804111,"zip":"0591941"},{"town":"追分青葉三丁目","koaza":"","lat":42.887694,"lng":141.806613,"zip":"0591941"},{"town":"追分旭","koaza":"","lat":42.881345,"lng":141.907054,"zip":"0591983"},{"town":"追分柏が丘","koaza":"","lat":42.875993,"lng":141.81654,"zip":"0591921"},{"town":"追分春日","koaza":"","lat":42.865207,"lng":141.851236,"zip":"0591985"},{"town":"追分向陽","koaza":"","lat":42.891531,"lng":141.85188,"zip":"0591984"},{"town":"追分白樺一丁目","koaza":"","lat":42.868957,"lng":141.809663,"zip":"0591942"},{"town":"追分白樺二丁目","koaza":"","lat":42.874148,"lng":141.804857,"zip":"0591942"},{"town":"追分中央","koaza":"","lat":42.873941,"lng":141.809483,"zip":"0591931"},{"town":"追分花園一丁目","koaza":"","lat":42.866333,"lng":141.814217,"zip":"0591961"},{"town":"追分花園二丁目","koaza":"","lat":42.868512,"lng":141.815946,"zip":"0591961"},{"town":"追分花園三丁目","koaza":"","lat":42.868572,"lng":141.817937,"zip":"0591961"},{"town":"追分花園四丁目","koaza":"","lat":42.870179,"lng":141.820207,"zip":"0591961"},{"town":"追分豊栄","koaza":"","lat":42.84841,"lng":141.803208,"zip":"0591987"},{"town":"追分本町一丁目","koaza":"","lat":42.877136,"lng":141.811575,"zip":"0591911"},{"town":"追分本町二丁目","koaza":"","lat":42.875705,"lng":141.81231,"zip":"0591911"},{"town":"追分本町三丁目","koaza":"","lat":42.874661,"lng":141.812672,"zip":"0591911"},{"town":"追分本町四丁目","koaza":"","lat":42.873662,"lng":141.813436,"zip":"0591911"},{"town":"追分本町五丁目","koaza":"","lat":42.872864,"lng":141.814646,"zip":"0591911"},{"town":"追分本町六丁目","koaza":"","lat":42.871264,"lng":141.814189,"zip":"0591911"},{"town":"追分本町七丁目","koaza":"","lat":42.871986,"lng":141.818126,"zip":"0591911"},{"town":"追分美園","koaza":"","lat":42.885567,"lng":141.830271,"zip":"0591982"},{"town":"追分緑が丘","koaza":"","lat":42.881693,"lng":141.813632,"zip":"0591971"},{"town":"追分弥生","koaza":"","lat":42.849482,"lng":141.833204,"zip":"0591986"},{"town":"追分若草一丁目","koaza":"","lat":42.865274,"lng":141.816638,"zip":"0591951"},{"town":"追分若草二丁目","koaza":"","lat":42.861152,"lng":141.815291,"zip":"0591951"},{"town":"追分若草三丁目","koaza":"","lat":42.859752,"lng":141.818948,"zip":"0591951"},{"town":"遠浅","koaza":"","lat":42.727524,"lng":141.77681,"zip":"0591433"},{"town":"早来大町","koaza":"","lat":42.766553,"lng":141.819732,"zip":"0591501"},{"town":"早来北町","koaza":"","lat":42.763786,"lng":141.809137,"zip":"0591506"},{"town":"早来源武","koaza":"","lat":42.716567,"lng":141.813077,"zip":"0591432"},{"town":"早来栄町","koaza":"","lat":42.758781,"lng":141.813067,"zip":"0591505"},{"town":"早来新栄","koaza":"","lat":42.739676,"lng":141.822212,"zip":"0591431"},{"town":"早来富岡","koaza":"","lat":42.780369,"lng":141.779365,"zip":"0591434"},{"town":"早来北進","koaza":"","lat":42.763412,"lng":141.841784,"zip":"0591502"},{"town":"早来瑞穂","koaza":"","lat":42.836114,"lng":141.894197,"zip":"0591512"},{"town":"早来緑丘","koaza":"","lat":42.807422,"lng":141.875375,"zip":"0591513"},{"town":"早来守田","koaza":"","lat":42.784352,"lng":141.869099,"zip":"0591504"},{"town":"東早来","koaza":"","lat":42.786066,"lng":141.830083,"zip":"0591503"}]