[{"town":"青葉町一丁目","koaza":"","lat":42.97227,"lng":141.5635,"zip":"0611141"},{"town":"青葉町二丁目","koaza":"","lat":42.972314,"lng":141.561012,"zip":"0611141"},{"town":"青葉町三丁目","koaza":"","lat":42.970279,"lng":141.561523,"zip":"0611141"},{"town":"青葉町四丁目","koaza":"","lat":42.969306,"lng":141.564917,"zip":"0611141"},{"town":"朝日町一丁目","koaza":"","lat":42.986418,"lng":141.568881,"zip":"0611123"},{"town":"朝日町二丁目","koaza":"","lat":42.988151,"lng":141.568367,"zip":"0611123"},{"town":"朝日町三丁目","koaza":"","lat":42.98862,"lng":141.571517,"zip":"0611123"},{"town":"朝日町四丁目","koaza":"","lat":42.986716,"lng":141.571073,"zip":"0611123"},{"town":"朝日町五丁目","koaza":"","lat":42.987254,"lng":141.57402,"zip":"0611123"},{"town":"朝日町六丁目","koaza":"","lat":42.989606,"lng":141.574955,"zip":"0611123"},{"town":"泉町一丁目","koaza":"","lat":42.964336,"lng":141.551181,"zip":"0611145"},{"town":"泉町二丁目","koaza":"","lat":42.963657,"lng":141.54983,"zip":"0611145"},{"town":"泉町三丁目","koaza":"","lat":42.962656,"lng":141.551663,"zip":"0611145"},{"town":"泉町四丁目","koaza":"","lat":42.961187,"lng":141.554197,"zip":"0611145"},{"town":"稲穂町西一丁目","koaza":"","lat":42.984732,"lng":141.56791,"zip":"0611124"},{"town":"稲穂町西二丁目","koaza":"","lat":42.983615,"lng":141.568034,"zip":"0611124"},{"town":"稲穂町西三丁目","koaza":"","lat":42.982656,"lng":141.568131,"zip":"0611124"},{"town":"稲穂町西四丁目","koaza":"","lat":42.981346,"lng":141.568206,"zip":"0611124"},{"town":"稲穂町西五丁目","koaza":"","lat":42.980361,"lng":141.567706,"zip":"0611124"},{"town":"稲穂町西六丁目","koaza":"","lat":42.982109,"lng":141.566492,"zip":"0611124"},{"town":"稲穂町西七丁目","koaza":"","lat":42.979478,"lng":141.56795,"zip":"0611124"},{"town":"稲穂町西八丁目","koaza":"","lat":42.978528,"lng":141.568671,"zip":"0611124"},{"town":"稲穂町東十丁目","koaza":"","lat":42.982029,"lng":141.572758,"zip":"0611125"},{"town":"稲穂町東十一丁目","koaza":"","lat":42.981026,"lng":141.572302,"zip":"0611125"},{"town":"稲穂町東十二丁目","koaza":"","lat":42.978921,"lng":141.57205,"zip":"0611125"},{"town":"稲穂町東一丁目","koaza":"","lat":42.984978,"lng":141.571035,"zip":"0611125"},{"town":"稲穂町東二丁目","koaza":"","lat":42.983519,"lng":141.570725,"zip":"0611125"},{"town":"稲穂町東三丁目","koaza":"","lat":42.982425,"lng":141.570489,"zip":"0611125"},{"town":"稲穂町東四丁目","koaza":"","lat":42.981298,"lng":141.57025,"zip":"0611125"},{"town":"稲穂町東五丁目","koaza":"","lat":42.980317,"lng":141.570156,"zip":"0611125"},{"town":"稲穂町東六丁目","koaza":"","lat":42.979599,"lng":141.570148,"zip":"0611125"},{"town":"稲穂町東七丁目","koaza":"","lat":42.978583,"lng":141.570474,"zip":"0611125"},{"town":"稲穂町東八丁目","koaza":"","lat":42.985163,"lng":141.57379,"zip":"0611125"},{"town":"稲穂町東九丁目","koaza":"","lat":42.983291,"lng":141.573125,"zip":"0611125"},{"town":"大曲","koaza":"","lat":42.987328,"lng":141.492424,"zip":"0611270"},{"town":"大曲工業団地一丁目","koaza":"","lat":42.964495,"lng":141.481809,"zip":"0611274"},{"town":"大曲工業団地二丁目","koaza":"","lat":42.962419,"lng":141.484629,"zip":"0611274"},{"town":"大曲工業団地三丁目","koaza":"","lat":42.96046,"lng":141.487229,"zip":"0611274"},{"town":"大曲工業団地四丁目","koaza":"","lat":42.958786,"lng":141.489806,"zip":"0611274"},{"town":"大曲工業団地五丁目","koaza":"","lat":42.957074,"lng":141.4818,"zip":"0611274"},{"town":"大曲工業団地六丁目","koaza":"","lat":42.959398,"lng":141.478768,"zip":"0611274"},{"town":"大曲工業団地七丁目","koaza":"","lat":42.963445,"lng":141.476246,"zip":"0611274"},{"town":"大曲工業団地八丁目","koaza":"","lat":42.962183,"lng":141.47267,"zip":"0611274"},{"town":"大曲末広一丁目","koaza":"","lat":42.974723,"lng":141.482498,"zip":"0611272"},{"town":"大曲末広二丁目","koaza":"","lat":42.975741,"lng":141.483957,"zip":"0611272"},{"town":"大曲末広三丁目","koaza":"","lat":42.976928,"lng":141.485411,"zip":"0611272"},{"town":"大曲末広四丁目","koaza":"","lat":42.978492,"lng":141.486582,"zip":"0611272"},{"town":"大曲末広五丁目","koaza":"","lat":42.970756,"lng":141.487776,"zip":"0611272"},{"town":"大曲末広六丁目","koaza":"","lat":42.972521,"lng":141.487548,"zip":"0611272"},{"town":"大曲末広七丁目","koaza":"","lat":42.973597,"lng":141.488278,"zip":"0611272"},{"town":"大曲中央一丁目","koaza":"","lat":42.974016,"lng":141.476738,"zip":"0611271"},{"town":"大曲中央二丁目","koaza":"","lat":42.972397,"lng":141.478964,"zip":"0611271"},{"town":"大曲中央三丁目","koaza":"","lat":42.97366,"lng":141.481031,"zip":"0611271"},{"town":"大曲並木二丁目","koaza":"","lat":42.976942,"lng":141.4765,"zip":"0611279"},{"town":"大曲並木三丁目","koaza":"","lat":42.97907,"lng":141.473667,"zip":"0611279"},{"town":"大曲柏葉一丁目","koaza":"","lat":42.970519,"lng":141.48167,"zip":"0611273"},{"town":"大曲柏葉二丁目","koaza":"","lat":42.969192,"lng":141.485747,"zip":"0611273"},{"town":"大曲柏葉三丁目","koaza":"","lat":42.965664,"lng":141.487524,"zip":"0611273"},{"town":"大曲柏葉四丁目","koaza":"","lat":42.967279,"lng":141.489604,"zip":"0611273"},{"town":"大曲柏葉五丁目","koaza":"","lat":42.964525,"lng":141.491604,"zip":"0611273"},{"town":"大曲光一丁目","koaza":"","lat":42.980413,"lng":141.48616,"zip":"0611277"},{"town":"大曲光二丁目","koaza":"","lat":42.981976,"lng":141.485725,"zip":"0611277"},{"town":"大曲光三丁目","koaza":"","lat":42.983709,"lng":141.485488,"zip":"0611277"},{"town":"大曲光四丁目","koaza":"","lat":42.985385,"lng":141.485766,"zip":"0611277"},{"town":"大曲緑ヶ丘一丁目","koaza":"","lat":42.97758,"lng":141.480796,"zip":"0611100"},{"town":"大曲緑ヶ丘二丁目","koaza":"","lat":42.97966,"lng":141.477935,"zip":"0611100"},{"town":"大曲緑ヶ丘三丁目","koaza":"","lat":42.980023,"lng":141.482443,"zip":"0611100"},{"town":"大曲緑ヶ丘四丁目","koaza":"","lat":42.981448,"lng":141.478308,"zip":"0611100"},{"town":"大曲緑ヶ丘五丁目","koaza":"","lat":42.981736,"lng":141.48186,"zip":"0611100"},{"town":"大曲緑ヶ丘六丁目","koaza":"","lat":42.983616,"lng":141.478073,"zip":"0611100"},{"town":"大曲緑ヶ丘七丁目","koaza":"","lat":42.984707,"lng":141.48132,"zip":"0611100"},{"town":"大曲南ヶ丘二丁目","koaza":"","lat":42.968989,"lng":141.476906,"zip":"0611100"},{"town":"大曲南ヶ丘三丁目","koaza":"","lat":42.967863,"lng":141.477758,"zip":"0611100"},{"town":"大曲南ヶ丘四丁目","koaza":"","lat":42.966946,"lng":141.4793,"zip":"0611100"},{"town":"大曲南ヶ丘五丁目","koaza":"","lat":42.965996,"lng":141.480096,"zip":"0611100"},{"town":"北の里","koaza":"","lat":43.012051,"lng":141.565316,"zip":"0611111"},{"town":"希望ヶ丘一丁目","koaza":"","lat":42.949851,"lng":141.500677,"zip":"0611100"},{"town":"希望ヶ丘二丁目","koaza":"","lat":42.952447,"lng":141.500076,"zip":"0611100"},{"town":"希望ヶ丘三丁目","koaza":"","lat":42.950475,"lng":141.502626,"zip":"0611100"},{"town":"希望ヶ丘四丁目","koaza":"","lat":42.951552,"lng":141.504669,"zip":"0611100"},{"town":"希望ヶ丘五丁目","koaza":"","lat":42.953732,"lng":141.504152,"zip":"0611100"},{"town":"共栄","koaza":"","lat":42.997576,"lng":141.566163,"zip":"0611112"},{"town":"共栄町一丁目","koaza":"","lat":42.990574,"lng":141.562139,"zip":"0611113"},{"town":"共栄町二丁目","koaza":"","lat":42.990133,"lng":141.558717,"zip":"0611113"},{"town":"共栄町三丁目","koaza":"","lat":42.992537,"lng":141.556576,"zip":"0611113"},{"town":"共栄町四丁目","koaza":"","lat":42.993346,"lng":141.561138,"zip":"0611113"},{"town":"共栄町五丁目","koaza":"","lat":42.995932,"lng":141.561213,"zip":"0611113"},{"town":"広葉町一丁目","koaza":"","lat":42.978165,"lng":141.556669,"zip":"0611134"},{"town":"広葉町二丁目","koaza":"","lat":42.976329,"lng":141.556191,"zip":"0611134"},{"town":"広葉町三丁目","koaza":"","lat":42.974144,"lng":141.554328,"zip":"0611134"},{"town":"広葉町四丁目","koaza":"","lat":42.97247,"lng":141.554712,"zip":"0611134"},{"town":"広葉町五丁目","koaza":"","lat":42.97424,"lng":141.557198,"zip":"0611134"},{"town":"栄町一丁目","koaza":"","lat":42.976522,"lng":141.562423,"zip":"0611133"},{"town":"栄町二丁目","koaza":"","lat":42.977732,"lng":141.559608,"zip":"0611133"},{"town":"栄町三丁目","koaza":"","lat":42.975416,"lng":141.559967,"zip":"0611133"},{"town":"栄町四丁目","koaza":"","lat":42.973706,"lng":141.560159,"zip":"0611133"},{"town":"里見町一丁目","koaza":"","lat":42.96174,"lng":141.540829,"zip":"0611147"},{"town":"里見町二丁目","koaza":"","lat":42.960875,"lng":141.538654,"zip":"0611147"},{"town":"里見町三丁目","koaza":"","lat":42.959102,"lng":141.541817,"zip":"0611147"},{"town":"里見町四丁目","koaza":"","lat":42.958025,"lng":141.544276,"zip":"0611147"},{"town":"里見町五丁目","koaza":"","lat":42.95744,"lng":141.546196,"zip":"0611147"},{"town":"里見町六丁目","koaza":"","lat":42.957661,"lng":141.548898,"zip":"0611147"},{"town":"里見町七丁目","koaza":"","lat":42.95968,"lng":141.552475,"zip":"0611147"},{"town":"島松","koaza":"","lat":42.931703,"lng":141.501784,"zip":"0611265"},{"town":"白樺町一丁目","koaza":"","lat":42.966084,"lng":141.55323,"zip":"0611144"},{"town":"白樺町二丁目","koaza":"","lat":42.965513,"lng":141.55478,"zip":"0611144"},{"town":"白樺町三丁目","koaza":"","lat":42.962742,"lng":141.556041,"zip":"0611144"},{"town":"新富町西一丁目","koaza":"","lat":42.973362,"lng":141.566097,"zip":"0611127"},{"town":"新富町西二丁目","koaza":"","lat":42.971965,"lng":141.566766,"zip":"0611127"},{"town":"新富町西三丁目","koaza":"","lat":42.970371,"lng":141.568104,"zip":"0611127"},{"town":"新富町西四丁目","koaza":"","lat":42.969864,"lng":141.566918,"zip":"0611127"},{"town":"新富町東一丁目","koaza":"","lat":42.975561,"lng":141.568047,"zip":"0611126"},{"town":"新富町東二丁目","koaza":"","lat":42.971642,"lng":141.569596,"zip":"0611126"},{"town":"高台町一丁目","koaza":"","lat":42.962922,"lng":141.547644,"zip":"0611146"},{"town":"高台町二丁目","koaza":"","lat":42.962597,"lng":141.54363,"zip":"0611146"},{"town":"高台町三丁目","koaza":"","lat":42.960634,"lng":141.543916,"zip":"0611146"},{"town":"高台町四丁目","koaza":"","lat":42.960336,"lng":141.545844,"zip":"0611146"},{"town":"高台町五丁目","koaza":"","lat":42.96006,"lng":141.547637,"zip":"0611146"},{"town":"高台町六丁目","koaza":"","lat":42.96053,"lng":141.550021,"zip":"0611146"},{"town":"高台町七丁目","koaza":"","lat":42.961939,"lng":141.549497,"zip":"0611146"},{"town":"中央一丁目","koaza":"","lat":42.987719,"lng":141.565806,"zip":"0611121"},{"town":"中央二丁目","koaza":"","lat":42.985497,"lng":141.566435,"zip":"0611121"},{"town":"中央三丁目","koaza":"","lat":42.98721,"lng":141.562544,"zip":"0611121"},{"town":"中央四丁目","koaza":"","lat":42.984083,"lng":141.564083,"zip":"0611121"},{"town":"中央五丁目","koaza":"","lat":42.980927,"lng":141.564456,"zip":"0611121"},{"town":"中央六丁目","koaza":"","lat":42.977163,"lng":141.565101,"zip":"0611121"},{"town":"輝美町","koaza":"","lat":42.976547,"lng":141.551377,"zip":"0611135"},{"town":"富ヶ岡","koaza":"","lat":42.958096,"lng":141.530291,"zip":"0611100"},{"town":"中の沢","koaza":"","lat":42.972156,"lng":141.522683,"zip":"0611152"},{"town":"虹ヶ丘一丁目","koaza":"","lat":43.017817,"lng":141.490207,"zip":"0611100"},{"town":"虹ヶ丘二丁目","koaza":"","lat":43.020265,"lng":141.495319,"zip":"0611100"},{"town":"虹ヶ丘三丁目","koaza":"","lat":43.022426,"lng":141.492556,"zip":"0611100"},{"town":"虹ヶ丘四丁目","koaza":"","lat":43.020715,"lng":141.493549,"zip":"0611100"},{"town":"虹ヶ丘五丁目","koaza":"","lat":43.018362,"lng":141.492387,"zip":"0611100"},{"town":"虹ヶ丘六丁目","koaza":"","lat":43.020216,"lng":141.489389,"zip":"0611100"},{"town":"虹ヶ丘七丁目","koaza":"","lat":43.022395,"lng":141.489068,"zip":"0611100"},{"town":"虹ヶ丘八丁目","koaza":"","lat":43.020528,"lng":141.487512,"zip":"0611100"},{"town":"西の里","koaza":"","lat":43.001135,"lng":141.523112,"zip":"0611102"},{"town":"西の里北一丁目","koaza":"","lat":43.015696,"lng":141.50113,"zip":"0611104"},{"town":"西の里北二丁目","koaza":"","lat":43.018095,"lng":141.501232,"zip":"0611104"},{"town":"西の里北三丁目","koaza":"","lat":43.016527,"lng":141.498618,"zip":"0611104"},{"town":"西の里北四丁目","koaza":"","lat":43.018646,"lng":141.498046,"zip":"0611104"},{"town":"西の里北五丁目","koaza":"","lat":43.017287,"lng":141.496048,"zip":"0611104"},{"town":"西の里東一丁目","koaza":"","lat":43.014879,"lng":141.503696,"zip":"0611105"},{"town":"西の里東二丁目","koaza":"","lat":43.017588,"lng":141.504569,"zip":"0611105"},{"town":"西の里東三丁目","koaza":"","lat":43.016719,"lng":141.507991,"zip":"0611105"},{"town":"西の里東四丁目","koaza":"","lat":43.013715,"lng":141.507228,"zip":"0611105"},{"town":"西の里南一丁目","koaza":"","lat":43.013442,"lng":141.500266,"zip":"0611106"},{"town":"西の里南二丁目","koaza":"","lat":43.010932,"lng":141.498417,"zip":"0611106"},{"town":"仁別","koaza":"","lat":42.921044,"lng":141.445691,"zip":"0611267"},{"town":"東共栄一丁目","koaza":"","lat":42.990856,"lng":141.566514,"zip":"0611114"},{"town":"東共栄二丁目","koaza":"","lat":42.994813,"lng":141.565566,"zip":"0611114"},{"town":"東共栄三丁目","koaza":"","lat":42.995089,"lng":141.56797,"zip":"0611114"},{"town":"東共栄四丁目","koaza":"","lat":42.99133,"lng":141.569305,"zip":"0611114"},{"town":"東の里","koaza":"","lat":42.986695,"lng":141.589401,"zip":"0611151"},{"town":"北進町一丁目","koaza":"","lat":42.981614,"lng":141.561809,"zip":"0611132"},{"town":"北進町二丁目","koaza":"","lat":42.98083,"lng":141.559066,"zip":"0611132"},{"town":"北進町三丁目","koaza":"","lat":42.979637,"lng":141.558191,"zip":"0611132"},{"town":"北進町四丁目","koaza":"","lat":42.980252,"lng":141.55605,"zip":"0611132"},{"town":"松葉町一丁目","koaza":"","lat":42.972314,"lng":141.549209,"zip":"0611136"},{"town":"松葉町二丁目","koaza":"","lat":42.971491,"lng":141.551074,"zip":"0611136"},{"town":"松葉町三丁目","koaza":"","lat":42.970784,"lng":141.552628,"zip":"0611136"},{"town":"松葉町四丁目","koaza":"","lat":42.969218,"lng":141.551689,"zip":"0611136"},{"town":"松葉町五丁目","koaza":"","lat":42.966964,"lng":141.552058,"zip":"0611136"},{"town":"松葉町六丁目","koaza":"","lat":42.966076,"lng":141.550287,"zip":"0611136"},{"town":"美咲き野一丁目","koaza":"","lat":42.99172,"lng":141.571307,"zip":"0611115"},{"town":"美咲き野二丁目","koaza":"","lat":42.995233,"lng":141.569859,"zip":"0611115"},{"town":"美咲き野三丁目","koaza":"","lat":42.992095,"lng":141.573561,"zip":"0611115"},{"town":"美沢一丁目","koaza":"","lat":42.985927,"lng":141.559777,"zip":"0611131"},{"town":"美沢二丁目","koaza":"","lat":42.983997,"lng":141.560785,"zip":"0611131"},{"town":"美沢三丁目","koaza":"","lat":42.983478,"lng":141.557852,"zip":"0611131"},{"town":"美沢四丁目","koaza":"","lat":42.981624,"lng":141.553856,"zip":"0611131"},{"town":"美沢五丁目","koaza":"","lat":42.983102,"lng":141.553603,"zip":"0611131"},{"town":"三島","koaza":"","lat":42.91376,"lng":141.469876,"zip":"0611266"},{"town":"南町一丁目","koaza":"","lat":42.967562,"lng":141.562691,"zip":"0611143"},{"town":"南町二丁目","koaza":"","lat":42.966717,"lng":141.560397,"zip":"0611143"},{"town":"南町三丁目","koaza":"","lat":42.966342,"lng":141.558316,"zip":"0611143"},{"town":"南町四丁目","koaza":"","lat":42.966596,"lng":141.555746,"zip":"0611143"},{"town":"南の里","koaza":"","lat":42.954848,"lng":141.573702,"zip":"0611154"},{"town":"山手町一丁目","koaza":"","lat":42.972108,"lng":141.543428,"zip":"0611148"},{"town":"山手町二丁目","koaza":"","lat":42.969316,"lng":141.537549,"zip":"0611148"},{"town":"山手町三丁目","koaza":"","lat":42.969122,"lng":141.540594,"zip":"0611148"},{"town":"山手町四丁目","koaza":"","lat":42.967704,"lng":141.541551,"zip":"0611148"},{"town":"山手町五丁目","koaza":"","lat":42.967315,"lng":141.537964,"zip":"0611148"},{"town":"山手町六丁目","koaza":"","lat":42.965694,"lng":141.538987,"zip":"0611148"},{"town":"山手町七丁目","koaza":"","lat":42.963658,"lng":141.537964,"zip":"0611148"},{"town":"山手町八丁目","koaza":"","lat":42.964424,"lng":141.540372,"zip":"0611148"},{"town":"緑陽町一丁目","koaza":"","lat":42.968063,"lng":141.547438,"zip":"0611137"},{"town":"緑陽町二丁目","koaza":"","lat":42.966653,"lng":141.542626,"zip":"0611137"},{"town":"緑陽町三丁目","koaza":"","lat":42.964989,"lng":141.543329,"zip":"0611137"},{"town":"若葉町一丁目","koaza":"","lat":42.971955,"lng":141.558791,"zip":"0611142"},{"town":"若葉町二丁目","koaza":"","lat":42.970779,"lng":141.556471,"zip":"0611142"},{"town":"若葉町三丁目","koaza":"","lat":42.969846,"lng":141.558202,"zip":"0611142"},{"town":"若葉町四丁目","koaza":"","lat":42.969088,"lng":141.554688,"zip":"0611142"},{"town":"輪厚","koaza":"","lat":42.94508,"lng":141.48184,"zip":"0611264"},{"town":"輪厚工業団地一丁目","koaza":"","lat":42.950801,"lng":141.494143,"zip":"0611281"},{"town":"輪厚工業団地二丁目","koaza":"","lat":42.949142,"lng":141.490367,"zip":"0611281"},{"town":"輪厚中央一丁目","koaza":"","lat":42.946136,"lng":141.502485,"zip":"0611268"},{"town":"輪厚中央二丁目","koaza":"","lat":42.94804,"lng":141.504153,"zip":"0611268"},{"town":"輪厚中央三丁目","koaza":"","lat":42.942324,"lng":141.508218,"zip":"0611268"},{"town":"輪厚中央四丁目","koaza":"","lat":42.941956,"lng":141.505506,"zip":"0611268"},{"town":"輪厚中央五丁目","koaza":"","lat":42.942263,"lng":141.5027,"zip":"0611268"},{"town":"輪厚元町一丁目","koaza":"","lat":42.949315,"lng":141.499079,"zip":"0611269"},{"town":"輪厚元町二丁目","koaza":"","lat":42.951471,"lng":141.497679,"zip":"0611269"},{"town":"大曲南ヶ丘一丁目","koaza":"","lat":42.970141,"lng":141.476402,"zip":"0611100"},{"town":"大曲並木一丁目","koaza":"","lat":42.975643,"lng":141.474051,"zip":"0611279"},{"town":"大曲幸町四丁目","koaza":"","lat":42.968475,"lng":141.473535,"zip":"0611278"},{"town":"大曲幸町七丁目","koaza":"","lat":42.972013,"lng":141.467945,"zip":"0611278"},{"town":"大曲幸町六丁目","koaza":"","lat":42.969359,"lng":141.46983,"zip":"0611278"},{"town":"大曲幸町一丁目","koaza":"","lat":42.972519,"lng":141.47401,"zip":"0611278"},{"town":"大曲幸町三丁目","koaza":"","lat":42.970482,"lng":141.472126,"zip":"0611278"},{"town":"大曲幸町二丁目","koaza":"","lat":42.974449,"lng":141.469813,"zip":"0611278"},{"town":"大曲幸町五丁目","koaza":"","lat":42.967051,"lng":141.471912,"zip":"0611278"}]