[{"town":"一本木","koaza":"","lat":41.834548,"lng":140.667831,"zip":"0411223"},{"town":"稲里","koaza":"","lat":41.904479,"lng":140.661778,"zip":"0411241"},{"town":"飯生一丁目","koaza":"","lat":41.819935,"lng":140.646622,"zip":"0490161"},{"town":"飯生二丁目","koaza":"","lat":41.818808,"lng":140.642081,"zip":"0490161"},{"town":"飯生三丁目","koaza":"","lat":41.817859,"lng":140.63954,"zip":"0490161"},{"town":"追分","koaza":"","lat":41.847796,"lng":140.695846,"zip":"0490101"},{"town":"追分一丁目","koaza":"","lat":41.826108,"lng":140.700557,"zip":"0490101"},{"town":"追分二丁目","koaza":"","lat":41.83001,"lng":140.703185,"zip":"0490101"},{"town":"追分三丁目","koaza":"","lat":41.826314,"lng":140.694381,"zip":"0490101"},{"town":"追分四丁目","koaza":"","lat":41.828066,"lng":140.687369,"zip":"0490101"},{"town":"追分五丁目","koaza":"","lat":41.833444,"lng":140.692253,"zip":"0490101"},{"town":"追分六丁目","koaza":"","lat":41.834482,"lng":140.698419,"zip":"0490101"},{"town":"追分七丁目","koaza":"","lat":41.838177,"lng":140.694581,"zip":"0490101"},{"town":"押上","koaza":"","lat":41.832455,"lng":140.630075,"zip":"0490152"},{"town":"押上一丁目","koaza":"","lat":41.824553,"lng":140.637492,"zip":"0490152"},{"town":"押上二丁目","koaza":"","lat":41.825984,"lng":140.640507,"zip":"0490152"},{"town":"開発","koaza":"","lat":41.868659,"lng":140.669665,"zip":"0411213"},{"town":"峩朗","koaza":"","lat":41.857272,"lng":140.571308,"zip":"0490100"},{"town":"清川","koaza":"","lat":41.851676,"lng":140.638874,"zip":"0490157"},{"town":"久根別一丁目","koaza":"","lat":41.824743,"lng":140.678425,"zip":"0490121"},{"town":"久根別二丁目","koaza":"","lat":41.82544,"lng":140.67037,"zip":"0490121"},{"town":"久根別三丁目","koaza":"","lat":41.828663,"lng":140.659457,"zip":"0490121"},{"town":"久根別四丁目","koaza":"","lat":41.827775,"lng":140.672203,"zip":"0490121"},{"town":"久根別五丁目","koaza":"","lat":41.829395,"lng":140.680091,"zip":"0490121"},{"town":"公園通一丁目","koaza":"","lat":41.820746,"lng":140.635783,"zip":"0490143"},{"town":"桜岱","koaza":"","lat":41.832554,"lng":140.611162,"zip":"0490151"},{"town":"清水川","koaza":"","lat":41.863768,"lng":140.658254,"zip":"0411221"},{"town":"昭和一丁目","koaza":"","lat":41.816521,"lng":140.637893,"zip":"0490142"},{"town":"昭和二丁目","koaza":"","lat":41.819654,"lng":140.635276,"zip":"0490142"},{"town":"白川","koaza":"","lat":41.891691,"lng":140.664444,"zip":"0411211"},{"town":"添山","koaza":"","lat":41.841042,"lng":140.609859,"zip":"0490154"},{"town":"大工川","koaza":"","lat":41.840173,"lng":140.623668,"zip":"0490153"},{"town":"大工川一丁目","koaza":"","lat":41.823918,"lng":140.64388,"zip":"0490153"},{"town":"大工川二丁目","koaza":"","lat":41.82633,"lng":140.643403,"zip":"0490153"},{"town":"館野","koaza":"","lat":41.795694,"lng":140.601315,"zip":"0490132"},{"town":"谷好一丁目","koaza":"","lat":41.818546,"lng":140.631455,"zip":"0490141"},{"town":"谷好二丁目","koaza":"","lat":41.816774,"lng":140.626663,"zip":"0490141"},{"town":"谷好三丁目","koaza":"","lat":41.81309,"lng":140.626506,"zip":"0490141"},{"town":"谷好四丁目","koaza":"","lat":41.812682,"lng":140.630538,"zip":"0490141"},{"town":"中央一丁目","koaza":"","lat":41.823731,"lng":140.654994,"zip":"0490162"},{"town":"中央二丁目","koaza":"","lat":41.822043,"lng":140.651811,"zip":"0490162"},{"town":"中央三丁目","koaza":"","lat":41.822084,"lng":140.647389,"zip":"0490162"},{"town":"千代田","koaza":"","lat":41.848837,"lng":140.663179,"zip":"0411222"},{"town":"当別","koaza":"","lat":41.768215,"lng":140.544339,"zip":"0490282"},{"town":"当別一丁目","koaza":"","lat":41.742425,"lng":140.58785,"zip":"0490282"},{"town":"当別二丁目","koaza":"","lat":41.740286,"lng":140.584943,"zip":"0490282"},{"town":"当別三丁目","koaza":"","lat":41.73899,"lng":140.587135,"zip":"0490282"},{"town":"当別四丁目","koaza":"","lat":41.73889,"lng":140.577629,"zip":"0490282"},{"town":"当別五丁目","koaza":"","lat":41.742489,"lng":140.573176,"zip":"0490282"},{"town":"常盤一丁目","koaza":"","lat":41.822304,"lng":140.642875,"zip":"0490171"},{"town":"常盤二丁目","koaza":"","lat":41.821417,"lng":140.639797,"zip":"0490171"},{"town":"常盤三丁目","koaza":"","lat":41.820328,"lng":140.638397,"zip":"0490171"},{"town":"富川一丁目","koaza":"","lat":41.806084,"lng":140.622512,"zip":"0490131"},{"town":"富川二丁目","koaza":"","lat":41.807013,"lng":140.621771,"zip":"0490131"},{"town":"富川町","koaza":"","lat":41.802159,"lng":140.617188,"zip":"0490100"},{"town":"中野","koaza":"","lat":41.841696,"lng":140.638845,"zip":"0490155"},{"town":"中野通","koaza":"","lat":41.834062,"lng":140.652465,"zip":"0490156"},{"town":"中野通一丁目","koaza":"","lat":41.82664,"lng":140.655683,"zip":"0490156"},{"town":"中野通二丁目","koaza":"","lat":41.825847,"lng":140.650546,"zip":"0490156"},{"town":"中野通三丁目","koaza":"","lat":41.824699,"lng":140.64703,"zip":"0490156"},{"town":"中山","koaza":"","lat":41.930425,"lng":140.559735,"zip":"0411243"},{"town":"七重浜一丁目","koaza":"","lat":41.812399,"lng":140.707602,"zip":"0490111"},{"town":"七重浜二丁目","koaza":"","lat":41.815078,"lng":140.71064,"zip":"0490111"},{"town":"七重浜三丁目","koaza":"","lat":41.818422,"lng":140.708675,"zip":"0490111"},{"town":"七重浜四丁目","koaza":"","lat":41.818817,"lng":140.714287,"zip":"0490111"},{"town":"七重浜五丁目","koaza":"","lat":41.823804,"lng":140.708632,"zip":"0490111"},{"town":"七重浜六丁目","koaza":"","lat":41.822022,"lng":140.701624,"zip":"0490111"},{"town":"七重浜七丁目","koaza":"","lat":41.818445,"lng":140.699833,"zip":"0490111"},{"town":"七重浜八丁目","koaza":"","lat":41.822292,"lng":140.688595,"zip":"0490111"},{"town":"野崎","koaza":"","lat":41.863612,"lng":140.604443,"zip":"0490158"},{"town":"萩野","koaza":"","lat":41.837439,"lng":140.682402,"zip":"0411215"},{"town":"東浜一丁目","koaza":"","lat":41.822438,"lng":140.674551,"zip":"0490122"},{"town":"東浜二丁目","koaza":"","lat":41.82332,"lng":140.661764,"zip":"0490122"},{"town":"東前","koaza":"","lat":41.849249,"lng":140.679227,"zip":"0411214"},{"town":"文月","koaza":"","lat":41.889999,"lng":140.590077,"zip":"0411225"},{"town":"戸切地","koaza":"","lat":41.874743,"lng":140.578411,"zip":"0490100"},{"town":"細入","koaza":"","lat":41.883306,"lng":140.661006,"zip":"0411212"},{"town":"本郷","koaza":"","lat":41.891234,"lng":140.648148,"zip":"0411251"},{"town":"本郷一丁目","koaza":"","lat":41.890068,"lng":140.640825,"zip":"0411251"},{"town":"本郷二丁目","koaza":"","lat":41.889308,"lng":140.638317,"zip":"0411251"},{"town":"本郷三丁目","koaza":"","lat":41.892804,"lng":140.634147,"zip":"0411251"},{"town":"本町","koaza":"","lat":41.881343,"lng":140.649951,"zip":"0411201"},{"town":"本町一丁目","koaza":"","lat":41.884956,"lng":140.644169,"zip":"0411201"},{"town":"本町二丁目","koaza":"","lat":41.884321,"lng":140.640506,"zip":"0411201"},{"town":"本町三丁目","koaza":"","lat":41.880315,"lng":140.645796,"zip":"0411201"},{"town":"本町四丁目","koaza":"","lat":41.879748,"lng":140.641692,"zip":"0411201"},{"town":"本町五丁目","koaza":"","lat":41.875697,"lng":140.647651,"zip":"0411201"},{"town":"本町六丁目","koaza":"","lat":41.87577,"lng":140.642099,"zip":"0411201"},{"town":"水無","koaza":"","lat":41.83617,"lng":140.586599,"zip":"0490135"},{"town":"三ツ石","koaza":"","lat":41.737088,"lng":140.561789,"zip":"0490283"},{"town":"三ツ石一丁目","koaza":"","lat":41.733432,"lng":140.578768,"zip":"0490283"},{"town":"三ツ石二丁目","koaza":"","lat":41.730542,"lng":140.571023,"zip":"0490283"},{"town":"南大野","koaza":"","lat":41.865112,"lng":140.647633,"zip":"0411224"},{"town":"三好","koaza":"","lat":41.825123,"lng":140.581199,"zip":"0490134"},{"town":"向野","koaza":"","lat":41.89593,"lng":140.605192,"zip":"0411231"},{"town":"向野一丁目","koaza":"","lat":41.88,"lng":140.6365,"zip":"0411231"},{"town":"向野二丁目","koaza":"","lat":41.884889,"lng":140.631674,"zip":"0411231"},{"town":"向野三丁目","koaza":"","lat":41.889386,"lng":140.633626,"zip":"0411231"},{"town":"村内","koaza":"","lat":41.867057,"lng":140.632894,"zip":"0411226"},{"town":"村山","koaza":"","lat":41.94913,"lng":140.572745,"zip":"0411244"},{"town":"茂辺地","koaza":"","lat":41.758026,"lng":140.596868,"zip":"0490281"},{"town":"茂辺地一丁目","koaza":"","lat":41.759998,"lng":140.604793,"zip":"0490281"},{"town":"茂辺地二丁目","koaza":"","lat":41.765876,"lng":140.603719,"zip":"0490281"},{"town":"茂辺地三丁目","koaza":"","lat":41.76917,"lng":140.601127,"zip":"0490281"},{"town":"茂辺地四丁目","koaza":"","lat":41.765203,"lng":140.600186,"zip":"0490281"},{"town":"茂辺地五丁目","koaza":"","lat":41.770322,"lng":140.597064,"zip":"0490281"},{"town":"茂辺地六丁目","koaza":"","lat":41.768083,"lng":140.595777,"zip":"0490281"},{"town":"茂辺地七丁目","koaza":"","lat":41.772652,"lng":140.592212,"zip":"0490281"},{"town":"茂辺地市ノ渡","koaza":"","lat":41.79328,"lng":140.567073,"zip":"0490285"},{"town":"柳沢","koaza":"","lat":41.80927,"lng":140.585493,"zip":"0490133"},{"town":"矢不来","koaza":"","lat":41.777532,"lng":140.606136,"zip":"0490286"},{"town":"湯ノ沢","koaza":"","lat":41.797431,"lng":140.529384,"zip":"0490284"},{"town":"市渡","koaza":"","lat":41.906413,"lng":140.643457,"zip":"0411242"},{"town":"市渡一丁目","koaza":"","lat":41.902873,"lng":140.648272,"zip":"0411242"}]