[{"town":"相内町","koaza":"","lat":43.797478,"lng":143.756101,"zip":"0990871"},{"town":"青葉町","koaza":"","lat":43.814484,"lng":143.897846,"zip":"0900018"},{"town":"曙町","koaza":"","lat":43.831306,"lng":143.908972,"zip":"0900011"},{"town":"朝日町","koaza":"","lat":43.811882,"lng":143.910946,"zip":"0900803"},{"town":"泉町一丁目","koaza":"","lat":43.805451,"lng":143.899489,"zip":"0900811"},{"town":"泉町二丁目","koaza":"","lat":43.803108,"lng":143.900432,"zip":"0900811"},{"town":"泉町三丁目","koaza":"","lat":43.805169,"lng":143.902122,"zip":"0900811"},{"town":"泉町四丁目","koaza":"","lat":43.802638,"lng":143.90271,"zip":"0900811"},{"town":"大通西一丁目","koaza":"","lat":43.804829,"lng":143.896477,"zip":"0900040"},{"town":"大通西二丁目","koaza":"","lat":43.803925,"lng":143.89582,"zip":"0900040"},{"town":"大通西三丁目","koaza":"","lat":43.803093,"lng":143.894803,"zip":"0900040"},{"town":"大通西四丁目","koaza":"","lat":43.802128,"lng":143.894086,"zip":"0900040"},{"town":"大通西五丁目","koaza":"","lat":43.801555,"lng":143.893145,"zip":"0900040"},{"town":"大通西六丁目","koaza":"","lat":43.800991,"lng":143.89212,"zip":"0900040"},{"town":"大通東一丁目","koaza":"","lat":43.805796,"lng":143.897329,"zip":"0900020"},{"town":"大通東二丁目","koaza":"","lat":43.806556,"lng":143.898137,"zip":"0900020"},{"town":"大通東三丁目","koaza":"","lat":43.807421,"lng":143.898978,"zip":"0900020"},{"town":"大通東四丁目","koaza":"","lat":43.808268,"lng":143.899795,"zip":"0900020"},{"town":"大通東五丁目","koaza":"","lat":43.809147,"lng":143.900655,"zip":"0900020"},{"town":"大通東六丁目","koaza":"","lat":43.809983,"lng":143.901507,"zip":"0900020"},{"town":"大通東七丁目","koaza":"","lat":43.810947,"lng":143.901687,"zip":"0900020"},{"town":"大通東八丁目","koaza":"","lat":43.811538,"lng":143.902552,"zip":"0900020"},{"town":"大通東九丁目","koaza":"","lat":43.812226,"lng":143.903211,"zip":"0900020"},{"town":"大町","koaza":"","lat":43.814605,"lng":143.904194,"zip":"0900016"},{"town":"卸町一丁目","koaza":"","lat":43.804932,"lng":143.836929,"zip":"0900056"},{"town":"卸町二丁目","koaza":"","lat":43.804841,"lng":143.833669,"zip":"0900056"},{"town":"卸町三丁目","koaza":"","lat":43.804924,"lng":143.830219,"zip":"0900056"},{"town":"開成","koaza":"","lat":43.732538,"lng":143.884292,"zip":"0991582"},{"town":"花月町","koaza":"","lat":43.817062,"lng":143.878995,"zip":"0900066"},{"town":"柏木","koaza":"","lat":43.830759,"lng":143.807254,"zip":"0990877"},{"town":"桂町一丁目","koaza":"","lat":43.807388,"lng":143.861304,"zip":"0900053"},{"town":"桂町二丁目","koaza":"","lat":43.806526,"lng":143.860733,"zip":"0900053"},{"town":"桂町三丁目","koaza":"","lat":43.804786,"lng":143.861073,"zip":"0900053"},{"town":"桂町四丁目","koaza":"","lat":43.807176,"lng":143.857321,"zip":"0900053"},{"town":"桂町五丁目","koaza":"","lat":43.80517,"lng":143.857569,"zip":"0900053"},{"town":"上ところ","koaza":"","lat":43.749542,"lng":143.82631,"zip":"0991585"},{"town":"上仁頃","koaza":"","lat":43.863153,"lng":143.839818,"zip":"0900006"},{"town":"川沿町","koaza":"","lat":43.786974,"lng":143.882836,"zip":"0900821"},{"town":"川東","koaza":"","lat":43.799369,"lng":143.944289,"zip":"0900807"},{"town":"北十条東二丁目","koaza":"","lat":43.810065,"lng":143.891209,"zip":"0900030"},{"town":"北十条東三丁目","koaza":"","lat":43.810894,"lng":143.892118,"zip":"0900030"},{"town":"北十条東四丁目","koaza":"","lat":43.811766,"lng":143.892937,"zip":"0900030"},{"town":"北十一条東二丁目","koaza":"","lat":43.810212,"lng":143.890735,"zip":"0900031"},{"town":"北十一条東三丁目","koaza":"","lat":43.811168,"lng":143.891584,"zip":"0900031"},{"town":"北十一条東四丁目","koaza":"","lat":43.81203,"lng":143.892418,"zip":"0900031"},{"town":"北一条西一丁目","koaza":"","lat":43.805329,"lng":143.895458,"zip":"0900041"},{"town":"北一条西二丁目","koaza":"","lat":43.804468,"lng":143.894619,"zip":"0900041"},{"town":"北一条西三丁目","koaza":"","lat":43.80361,"lng":143.893786,"zip":"0900041"},{"town":"北一条西四丁目","koaza":"","lat":43.80275,"lng":143.892951,"zip":"0900041"},{"town":"北一条西五丁目","koaza":"","lat":43.801891,"lng":143.892118,"zip":"0900041"},{"town":"北一条西六丁目","koaza":"","lat":43.801253,"lng":143.891499,"zip":"0900041"},{"town":"北一条東一丁目","koaza":"","lat":43.806195,"lng":143.8963,"zip":"0900021"},{"town":"北一条東二丁目","koaza":"","lat":43.807065,"lng":143.897147,"zip":"0900021"},{"town":"北一条東三丁目","koaza":"","lat":43.807928,"lng":143.897988,"zip":"0900021"},{"town":"北一条東四丁目","koaza":"","lat":43.808776,"lng":143.898813,"zip":"0900021"},{"town":"北一条東五丁目","koaza":"","lat":43.809635,"lng":143.899649,"zip":"0900021"},{"town":"北一条東六丁目","koaza":"","lat":43.810471,"lng":143.900429,"zip":"0900021"},{"town":"北二条西一丁目","koaza":"","lat":43.805665,"lng":143.894793,"zip":"0900042"},{"town":"北二条西二丁目","koaza":"","lat":43.804805,"lng":143.893957,"zip":"0900042"},{"town":"北二条西三丁目","koaza":"","lat":43.803945,"lng":143.893119,"zip":"0900042"},{"town":"北二条西四丁目","koaza":"","lat":43.803084,"lng":143.892281,"zip":"0900042"},{"town":"北二条西五丁目","koaza":"","lat":43.802228,"lng":143.891448,"zip":"0900042"},{"town":"北二条西六丁目","koaza":"","lat":43.80136,"lng":143.890603,"zip":"0900042"},{"town":"北二条東一丁目","koaza":"","lat":43.80653,"lng":143.895636,"zip":"0900022"},{"town":"北二条東二丁目","koaza":"","lat":43.807397,"lng":143.89648,"zip":"0900022"},{"town":"北二条東三丁目","koaza":"","lat":43.808258,"lng":143.897318,"zip":"0900022"},{"town":"北二条東四丁目","koaza":"","lat":43.809112,"lng":143.89815,"zip":"0900022"},{"town":"北二条東五丁目","koaza":"","lat":43.809973,"lng":143.898987,"zip":"0900022"},{"town":"北二条東六丁目","koaza":"","lat":43.810789,"lng":143.899735,"zip":"0900022"},{"town":"北二条東七丁目","koaza":"","lat":43.811699,"lng":143.900341,"zip":"0900022"},{"town":"北二条東八丁目","koaza":"","lat":43.812232,"lng":143.901186,"zip":"0900022"},{"town":"北二条東九丁目","koaza":"","lat":43.812919,"lng":143.901855,"zip":"0900022"},{"town":"北三条西一丁目","koaza":"","lat":43.805998,"lng":143.894134,"zip":"0900043"},{"town":"北三条西二丁目","koaza":"","lat":43.805141,"lng":143.8933,"zip":"0900043"},{"town":"北三条西三丁目","koaza":"","lat":43.804278,"lng":143.892459,"zip":"0900043"},{"town":"北三条西四丁目","koaza":"","lat":43.803415,"lng":143.891619,"zip":"0900043"},{"town":"北三条西五丁目","koaza":"","lat":43.80256,"lng":143.890787,"zip":"0900043"},{"town":"北三条西六丁目","koaza":"","lat":43.801538,"lng":143.889703,"zip":"0900043"},{"town":"北三条東一丁目","koaza":"","lat":43.806862,"lng":143.894975,"zip":"0900023"},{"town":"北三条東二丁目","koaza":"","lat":43.807727,"lng":143.895816,"zip":"0900023"},{"town":"北三条東三丁目","koaza":"","lat":43.808587,"lng":143.896654,"zip":"0900023"},{"town":"北三条東四丁目","koaza":"","lat":43.809449,"lng":143.897493,"zip":"0900023"},{"town":"北三条東五丁目","koaza":"","lat":43.810311,"lng":143.898332,"zip":"0900023"},{"town":"北三条東六丁目","koaza":"","lat":43.811125,"lng":143.899124,"zip":"0900023"},{"town":"北三条東七丁目","koaza":"","lat":43.811818,"lng":143.899799,"zip":"0900023"},{"town":"北三条東八丁目","koaza":"","lat":43.812512,"lng":143.900475,"zip":"0900023"},{"town":"北三条東九丁目","koaza":"","lat":43.813255,"lng":143.901198,"zip":"0900023"},{"town":"北四条西一丁目","koaza":"","lat":43.806335,"lng":143.893471,"zip":"0900044"},{"town":"北四条西二丁目","koaza":"","lat":43.805482,"lng":143.89264,"zip":"0900044"},{"town":"北四条西三丁目","koaza":"","lat":43.80462,"lng":143.891801,"zip":"0900044"},{"town":"北四条西四丁目","koaza":"","lat":43.803749,"lng":143.890954,"zip":"0900044"},{"town":"北四条西五丁目","koaza":"","lat":43.802893,"lng":143.89012,"zip":"0900044"},{"town":"北四条西六丁目","koaza":"","lat":43.80204,"lng":143.88929,"zip":"0900044"},{"town":"北四条西七丁目","koaza":"","lat":43.801305,"lng":143.888586,"zip":"0900044"},{"town":"北四条東一丁目","koaza":"","lat":43.807199,"lng":143.894312,"zip":"0900024"},{"town":"北四条東二丁目","koaza":"","lat":43.808063,"lng":143.895152,"zip":"0900024"},{"town":"北四条東三丁目","koaza":"","lat":43.808924,"lng":143.895991,"zip":"0900024"},{"town":"北四条東四丁目","koaza":"","lat":43.809786,"lng":143.89683,"zip":"0900024"},{"town":"北四条東五丁目","koaza":"","lat":43.810647,"lng":143.897669,"zip":"0900024"},{"town":"北四条東六丁目","koaza":"","lat":43.81154,"lng":143.898535,"zip":"0900024"},{"town":"北四条東七丁目","koaza":"","lat":43.812068,"lng":143.899314,"zip":"0900024"},{"town":"北四条東八丁目","koaza":"","lat":43.812763,"lng":143.899985,"zip":"0900024"},{"town":"北四条東九丁目","koaza":"","lat":43.813507,"lng":143.90071,"zip":"0900024"},{"town":"北五条西一丁目","koaza":"","lat":43.806689,"lng":143.892783,"zip":"0900045"},{"town":"北五条西二丁目","koaza":"","lat":43.805837,"lng":143.891954,"zip":"0900045"},{"town":"北五条西三丁目","koaza":"","lat":43.804974,"lng":143.891116,"zip":"0900045"},{"town":"北五条西四丁目","koaza":"","lat":43.804096,"lng":143.890266,"zip":"0900045"},{"town":"北五条西五丁目","koaza":"","lat":43.803239,"lng":143.889435,"zip":"0900045"},{"town":"北五条西六丁目","koaza":"","lat":43.80247,"lng":143.888698,"zip":"0900045"},{"town":"北五条西七丁目","koaza":"","lat":43.801583,"lng":143.887841,"zip":"0900045"},{"town":"北五条東一丁目","koaza":"","lat":43.80755,"lng":143.893622,"zip":"0900025"},{"town":"北五条東二丁目","koaza":"","lat":43.808413,"lng":143.894462,"zip":"0900025"},{"town":"北五条東三丁目","koaza":"","lat":43.809277,"lng":143.895302,"zip":"0900025"},{"town":"北五条東四丁目","koaza":"","lat":43.810136,"lng":143.896139,"zip":"0900025"},{"town":"北五条東五丁目","koaza":"","lat":43.811097,"lng":143.896781,"zip":"0900025"},{"town":"北五条東六丁目","koaza":"","lat":43.811811,"lng":143.897772,"zip":"0900025"},{"town":"北六条西一丁目","koaza":"","lat":43.807026,"lng":143.892122,"zip":"0900046"},{"town":"北六条西二丁目","koaza":"","lat":43.806172,"lng":143.891309,"zip":"0900046"},{"town":"北六条西三丁目","koaza":"","lat":43.805201,"lng":143.890389,"zip":"0900046"},{"town":"北六条西四丁目","koaza":"","lat":43.804418,"lng":143.889634,"zip":"0900046"},{"town":"北六条西五丁目","koaza":"","lat":43.803468,"lng":143.88872,"zip":"0900046"},{"town":"北六条西六丁目","koaza":"","lat":43.802706,"lng":143.887979,"zip":"0900046"},{"town":"北六条西七丁目","koaza":"","lat":43.80179,"lng":143.887096,"zip":"0900046"},{"town":"北六条東一丁目","koaza":"","lat":43.807888,"lng":143.892961,"zip":"0900026"},{"town":"北六条東二丁目","koaza":"","lat":43.808749,"lng":143.8938,"zip":"0900026"},{"town":"北六条東三丁目","koaza":"","lat":43.809613,"lng":143.894641,"zip":"0900026"},{"town":"北六条東四丁目","koaza":"","lat":43.810555,"lng":143.895569,"zip":"0900026"},{"town":"北七条西一丁目","koaza":"","lat":43.807313,"lng":143.89155,"zip":"0900047"},{"town":"北七条西二丁目","koaza":"","lat":43.806753,"lng":143.890957,"zip":"0900047"},{"town":"北七条西三丁目","koaza":"","lat":43.805167,"lng":143.889809,"zip":"0900047"},{"town":"北七条西四丁目","koaza":"","lat":43.804808,"lng":143.889096,"zip":"0900047"},{"town":"北七条西五丁目","koaza":"","lat":43.803888,"lng":143.888157,"zip":"0900047"},{"town":"北七条西六丁目","koaza":"","lat":43.803041,"lng":143.887339,"zip":"0900047"},{"town":"北七条東一丁目","koaza":"","lat":43.808154,"lng":143.892183,"zip":"0900027"},{"town":"北七条東二丁目","koaza":"","lat":43.809088,"lng":143.893137,"zip":"0900027"},{"town":"北七条東三丁目","koaza":"","lat":43.809951,"lng":143.893978,"zip":"0900027"},{"town":"北七条東四丁目","koaza":"","lat":43.81081,"lng":143.894815,"zip":"0900027"},{"town":"北八条西一丁目","koaza":"","lat":43.807724,"lng":143.891125,"zip":"0900048"},{"town":"北八条東一丁目","koaza":"","lat":43.808561,"lng":143.891636,"zip":"0900028"},{"town":"北八条東二丁目","koaza":"","lat":43.809428,"lng":143.89247,"zip":"0900028"},{"town":"北八条東三丁目","koaza":"","lat":43.810291,"lng":143.89331,"zip":"0900028"},{"town":"北八条東四丁目","koaza":"","lat":43.811149,"lng":143.894146,"zip":"0900028"},{"town":"北九条東一丁目","koaza":"","lat":43.809019,"lng":143.891036,"zip":"0900029"},{"town":"北九条東二丁目","koaza":"","lat":43.80978,"lng":143.891776,"zip":"0900029"},{"town":"北九条東三丁目","koaza":"","lat":43.810608,"lng":143.892684,"zip":"0900029"},{"town":"北九条東四丁目","koaza":"","lat":43.811479,"lng":143.893499,"zip":"0900029"},{"town":"北上","koaza":"","lat":43.766238,"lng":143.860452,"zip":"0991583"},{"town":"清見町","koaza":"","lat":43.816544,"lng":143.886047,"zip":"0900063"},{"town":"小泉","koaza":"","lat":43.841339,"lng":143.904319,"zip":"0900001"},{"town":"高栄西町十丁目","koaza":"","lat":43.810303,"lng":143.857715,"zip":"0900058"},{"town":"高栄西町一丁目","koaza":"","lat":43.810099,"lng":143.866897,"zip":"0900058"},{"town":"高栄西町二丁目","koaza":"","lat":43.812637,"lng":143.867355,"zip":"0900058"},{"town":"高栄西町三丁目","koaza":"","lat":43.815098,"lng":143.866573,"zip":"0900058"},{"town":"高栄西町四丁目","koaza":"","lat":43.817546,"lng":143.865439,"zip":"0900058"},{"town":"高栄西町五丁目","koaza":"","lat":43.813964,"lng":143.863436,"zip":"0900058"},{"town":"高栄西町六丁目","koaza":"","lat":43.817539,"lng":143.861321,"zip":"0900058"},{"town":"高栄西町七丁目","koaza":"","lat":43.816332,"lng":143.85827,"zip":"0900058"},{"town":"高栄西町八丁目","koaza":"","lat":43.813869,"lng":143.857321,"zip":"0900058"},{"town":"高栄西町九丁目","koaza":"","lat":43.811605,"lng":143.861655,"zip":"0900058"},{"town":"高栄東町一丁目","koaza":"","lat":43.810802,"lng":143.872829,"zip":"0900051"},{"town":"高栄東町二丁目","koaza":"","lat":43.81328,"lng":143.872523,"zip":"0900051"},{"town":"高栄東町三丁目","koaza":"","lat":43.815443,"lng":143.872242,"zip":"0900051"},{"town":"高栄東町四丁目","koaza":"","lat":43.817944,"lng":143.871936,"zip":"0900051"},{"town":"公園町","koaza":"","lat":43.819738,"lng":143.906932,"zip":"0900015"},{"town":"光西町","koaza":"","lat":43.794691,"lng":143.867929,"zip":"0900835"},{"town":"広明町","koaza":"","lat":43.781318,"lng":143.876397,"zip":"0900823"},{"town":"光葉町","koaza":"","lat":43.787836,"lng":143.897154,"zip":"0900814"},{"town":"寿町一丁目","koaza":"","lat":43.810466,"lng":143.881487,"zip":"0900065"},{"town":"寿町二丁目","koaza":"","lat":43.812227,"lng":143.881503,"zip":"0900065"},{"town":"寿町三丁目","koaza":"","lat":43.813534,"lng":143.881752,"zip":"0900065"},{"town":"寿町四丁目","koaza":"","lat":43.812778,"lng":143.879189,"zip":"0900065"},{"town":"寿町五丁目","koaza":"","lat":43.810252,"lng":143.878037,"zip":"0900065"},{"town":"寿町六丁目","koaza":"","lat":43.812697,"lng":143.876996,"zip":"0900065"},{"town":"幸町一丁目","koaza":"","lat":43.80822,"lng":143.889348,"zip":"0900036"},{"town":"幸町二丁目","koaza":"","lat":43.808789,"lng":143.887737,"zip":"0900036"},{"town":"幸町三丁目","koaza":"","lat":43.808718,"lng":143.886175,"zip":"0900036"},{"town":"幸町四丁目","koaza":"","lat":43.808601,"lng":143.884456,"zip":"0900036"},{"town":"幸町五丁目","koaza":"","lat":43.806676,"lng":143.89003,"zip":"0900036"},{"town":"幸町六丁目","koaza":"","lat":43.806782,"lng":143.888499,"zip":"0900036"},{"town":"幸町七丁目","koaza":"","lat":43.806445,"lng":143.8864,"zip":"0900036"},{"town":"幸町八丁目","koaza":"","lat":43.806324,"lng":143.884752,"zip":"0900036"},{"town":"栄町一丁目","koaza":"","lat":43.80015,"lng":143.875466,"zip":"0900832"},{"town":"栄町二丁目","koaza":"","lat":43.799914,"lng":143.87234,"zip":"0900832"},{"town":"栄町三丁目","koaza":"","lat":43.801859,"lng":143.871782,"zip":"0900832"},{"town":"栄町四丁目","koaza":"","lat":43.801788,"lng":143.875253,"zip":"0900832"},{"town":"栄町五丁目","koaza":"","lat":43.802629,"lng":143.874031,"zip":"0900832"},{"town":"桜町一丁目","koaza":"","lat":43.808196,"lng":143.901855,"zip":"0900804"},{"town":"桜町二丁目","koaza":"","lat":43.810206,"lng":143.904133,"zip":"0900804"},{"town":"桜町三丁目","koaza":"","lat":43.80686,"lng":143.904616,"zip":"0900804"},{"town":"桜町四丁目","koaza":"","lat":43.8082,"lng":143.905909,"zip":"0900804"},{"town":"桜町五丁目","koaza":"","lat":43.80959,"lng":143.907265,"zip":"0900804"},{"town":"桜町六丁目","koaza":"","lat":43.807094,"lng":143.908252,"zip":"0900804"},{"town":"桜町七丁目","koaza":"","lat":43.805999,"lng":143.909932,"zip":"0900804"},{"town":"三楽町","koaza":"","lat":43.81539,"lng":143.892426,"zip":"0900019"},{"town":"春光町一丁目","koaza":"","lat":43.822222,"lng":143.91522,"zip":"0900801"},{"town":"春光町二丁目","koaza":"","lat":43.825954,"lng":143.919498,"zip":"0900801"},{"town":"春光町三丁目","koaza":"","lat":43.821043,"lng":143.91631,"zip":"0900801"},{"town":"春光町四丁目","koaza":"","lat":43.824945,"lng":143.92319,"zip":"0900801"},{"town":"春光町五丁目","koaza":"","lat":43.820217,"lng":143.919056,"zip":"0900801"},{"town":"春光町六丁目","koaza":"","lat":43.8229,"lng":143.92348,"zip":"0900801"},{"town":"春光町七丁目","koaza":"","lat":43.819055,"lng":143.920963,"zip":"0900801"},{"town":"春光町八丁目","koaza":"","lat":43.819682,"lng":143.925618,"zip":"0900801"},{"town":"昭和","koaza":"","lat":43.845762,"lng":143.875932,"zip":"0900002"},{"town":"新生町","koaza":"","lat":43.782646,"lng":143.890177,"zip":"0900815"},{"town":"末広町","koaza":"","lat":43.787666,"lng":143.870314,"zip":"0900826"},{"town":"住吉","koaza":"","lat":43.814325,"lng":143.717272,"zip":"0990874"},{"town":"清月町","koaza":"","lat":43.801651,"lng":143.907012,"zip":"0900805"},{"town":"大正","koaza":"","lat":43.832622,"lng":143.844272,"zip":"0900008"},{"town":"高砂町","koaza":"","lat":43.81607,"lng":143.900662,"zip":"0900017"},{"town":"田端町","koaza":"","lat":43.815817,"lng":143.915315,"zip":"0900802"},{"town":"端野町一区","koaza":"","lat":43.886503,"lng":143.966102,"zip":"0992101"},{"town":"端野町二区","koaza":"","lat":43.874477,"lng":143.934507,"zip":"0992102"},{"town":"端野町三区","koaza":"","lat":43.850463,"lng":143.921302,"zip":"0992103"},{"town":"端野町川向","koaza":"","lat":43.821232,"lng":143.968904,"zip":"0992107"},{"town":"端野町協和","koaza":"","lat":43.850818,"lng":143.983952,"zip":"0992106"},{"town":"端野町端野","koaza":"","lat":43.849233,"lng":143.948301,"zip":"0992104"},{"town":"端野町忠志","koaza":"","lat":43.924822,"lng":143.977349,"zip":"0992105"},{"town":"端野町豊実","koaza":"","lat":43.913063,"lng":143.92748,"zip":"0992112"},{"town":"端野町緋牛内","koaza":"","lat":43.899517,"lng":144.019008,"zip":"0992231"},{"town":"端野町北登","koaza":"","lat":43.942563,"lng":143.867585,"zip":"0992111"},{"town":"中央町","koaza":"","lat":43.810185,"lng":143.889206,"zip":"0900034"},{"town":"中央三輪一丁目","koaza":"","lat":43.800882,"lng":143.855235,"zip":"0900837"},{"town":"中央三輪二丁目","koaza":"","lat":43.800646,"lng":143.851786,"zip":"0900837"},{"town":"中央三輪三丁目","koaza":"","lat":43.801742,"lng":143.846121,"zip":"0900837"},{"town":"中央三輪四丁目","koaza":"","lat":43.799015,"lng":143.846472,"zip":"0900837"},{"town":"中央三輪五丁目","koaza":"","lat":43.795692,"lng":143.856435,"zip":"0900837"},{"town":"中央三輪六丁目","koaza":"","lat":43.795608,"lng":143.853848,"zip":"0900837"},{"town":"中央三輪七丁目","koaza":"","lat":43.795196,"lng":143.851311,"zip":"0900837"},{"town":"中央三輪八丁目","koaza":"","lat":43.794322,"lng":143.848599,"zip":"0900837"},{"town":"中央三輪九丁目","koaza":"","lat":43.793931,"lng":143.845186,"zip":"0900837"},{"town":"常川","koaza":"","lat":43.715926,"lng":143.828217,"zip":"0991584"},{"town":"東陵町","koaza":"","lat":43.824225,"lng":143.896681,"zip":"0900061"},{"town":"常盤町一丁目","koaza":"","lat":43.796055,"lng":143.892675,"zip":"0900817"},{"town":"常盤町二丁目","koaza":"","lat":43.798101,"lng":143.890059,"zip":"0900817"},{"town":"常盤町三丁目","koaza":"","lat":43.798252,"lng":143.88673,"zip":"0900817"},{"town":"常盤町四丁目","koaza":"","lat":43.794904,"lng":143.888735,"zip":"0900817"},{"town":"常盤町五丁目","koaza":"","lat":43.792756,"lng":143.889,"zip":"0900817"},{"town":"常盤町六丁目","koaza":"","lat":43.790014,"lng":143.889991,"zip":"0900817"},{"town":"富里","koaza":"","lat":43.87076,"lng":143.750018,"zip":"0990876"},{"town":"豊田","koaza":"","lat":43.791415,"lng":143.728867,"zip":"0990872"},{"town":"とん田西町","koaza":"","lat":43.794217,"lng":143.874945,"zip":"0900834"},{"town":"とん田東町","koaza":"","lat":43.794193,"lng":143.881848,"zip":"0900833"},{"town":"中ノ島町一丁目","koaza":"","lat":43.797446,"lng":143.894917,"zip":"0900813"},{"town":"中ノ島町二丁目","koaza":"","lat":43.79417,"lng":143.895531,"zip":"0900813"},{"town":"中ノ島町三丁目","koaza":"","lat":43.793902,"lng":143.900682,"zip":"0900813"},{"town":"中ノ島町四丁目","koaza":"","lat":43.790298,"lng":143.896492,"zip":"0900813"},{"town":"並木町","koaza":"","lat":43.828188,"lng":143.915118,"zip":"0900012"},{"town":"仁頃町","koaza":"","lat":43.895527,"lng":143.905766,"zip":"0900003"},{"town":"西相内","koaza":"","lat":43.794469,"lng":143.687183,"zip":"0990873"},{"town":"錦町","koaza":"","lat":43.786499,"lng":143.877001,"zip":"0900827"},{"town":"西富町一丁目","koaza":"","lat":43.800029,"lng":143.869404,"zip":"0900831"},{"town":"西富町二丁目","koaza":"","lat":43.800022,"lng":143.865915,"zip":"0900831"},{"town":"西富町三丁目","koaza":"","lat":43.802538,"lng":143.865525,"zip":"0900831"},{"town":"西富町四丁目","koaza":"","lat":43.802342,"lng":143.869049,"zip":"0900831"},{"town":"西三輪一丁目","koaza":"","lat":43.798743,"lng":143.839516,"zip":"0900838"},{"town":"西三輪二丁目","koaza":"","lat":43.801507,"lng":143.839163,"zip":"0900838"},{"town":"西三輪三丁目","koaza":"","lat":43.802101,"lng":143.832121,"zip":"0900838"},{"town":"西三輪四丁目","koaza":"","lat":43.798821,"lng":143.833338,"zip":"0900838"},{"town":"西三輪五丁目","koaza":"","lat":43.79386,"lng":143.841499,"zip":"0900838"},{"town":"西三輪六丁目","koaza":"","lat":43.794974,"lng":143.838324,"zip":"0900838"},{"town":"西三輪七丁目","koaza":"","lat":43.797425,"lng":143.832504,"zip":"0900838"},{"town":"柏陽町","koaza":"","lat":43.824071,"lng":143.911113,"zip":"0900013"},{"town":"花園町","koaza":"","lat":43.787147,"lng":143.889733,"zip":"0900816"},{"town":"番場町","koaza":"","lat":43.813505,"lng":143.888801,"zip":"0900033"},{"town":"東相内町","koaza":"","lat":43.802627,"lng":143.807764,"zip":"0990878"},{"town":"東三輪一丁目","koaza":"","lat":43.801148,"lng":143.861541,"zip":"0900836"},{"town":"東三輪二丁目","koaza":"","lat":43.801064,"lng":143.858073,"zip":"0900836"},{"town":"東三輪三丁目","koaza":"","lat":43.7963,"lng":143.862101,"zip":"0900836"},{"town":"東三輪四丁目","koaza":"","lat":43.796061,"lng":143.858663,"zip":"0900836"},{"town":"東三輪五丁目","koaza":"","lat":43.792636,"lng":143.86176,"zip":"0900836"},{"town":"ひかり野一丁目","koaza":"","lat":43.827155,"lng":143.92585,"zip":"0900810"},{"town":"ひかり野二丁目","koaza":"","lat":43.828991,"lng":143.927977,"zip":"0900810"},{"town":"ひかり野三丁目","koaza":"","lat":43.826194,"lng":143.928901,"zip":"0900810"},{"town":"ひかり野四丁目","koaza":"","lat":43.830942,"lng":143.930257,"zip":"0900810"},{"town":"ひかり野五丁目","koaza":"","lat":43.833566,"lng":143.932627,"zip":"0900810"},{"town":"ひかり野六丁目","koaza":"","lat":43.829633,"lng":143.932507,"zip":"0900810"},{"town":"ひかり野七丁目","koaza":"","lat":43.832211,"lng":143.934906,"zip":"0900810"},{"town":"ひかり野八丁目","koaza":"","lat":43.830042,"lng":143.93751,"zip":"0900810"},{"town":"広郷","koaza":"","lat":43.762054,"lng":143.821753,"zip":"0991586"},{"town":"双葉町一丁目","koaza":"","lat":43.80717,"lng":143.853773,"zip":"0900054"},{"town":"双葉町二丁目","koaza":"","lat":43.805325,"lng":143.854709,"zip":"0900054"},{"town":"双葉町三丁目","koaza":"","lat":43.806822,"lng":143.850302,"zip":"0900054"},{"town":"双葉町四丁目","koaza":"","lat":43.804978,"lng":143.851248,"zip":"0900054"},{"town":"文京町","koaza":"","lat":43.827198,"lng":143.904979,"zip":"0900014"},{"town":"豊地","koaza":"","lat":43.789444,"lng":143.826825,"zip":"0991587"},{"town":"北央町","koaza":"","lat":43.781195,"lng":143.883488,"zip":"0900822"},{"town":"北進町一丁目","koaza":"","lat":43.807713,"lng":143.873242,"zip":"0900052"},{"town":"北進町二丁目","koaza":"","lat":43.805991,"lng":143.87343,"zip":"0900052"},{"town":"北進町三丁目","koaza":"","lat":43.804773,"lng":143.873581,"zip":"0900052"},{"town":"北進町四丁目","koaza":"","lat":43.803432,"lng":143.873745,"zip":"0900052"},{"town":"北進町五丁目","koaza":"","lat":43.807765,"lng":143.866272,"zip":"0900052"},{"town":"北進町六丁目","koaza":"","lat":43.80619,"lng":143.866434,"zip":"0900052"},{"town":"北進町七丁目","koaza":"","lat":43.804373,"lng":143.866662,"zip":"0900052"},{"town":"北斗町一丁目","koaza":"","lat":43.812584,"lng":143.886614,"zip":"0900035"},{"town":"北斗町二丁目","koaza":"","lat":43.811036,"lng":143.884379,"zip":"0900035"},{"town":"北斗町三丁目","koaza":"","lat":43.812968,"lng":143.884207,"zip":"0900035"},{"town":"北陽","koaza":"","lat":43.929627,"lng":143.819171,"zip":"0900004"},{"town":"北光","koaza":"","lat":43.778759,"lng":143.865508,"zip":"0900824"},{"town":"本沢","koaza":"","lat":43.842021,"lng":143.733713,"zip":"0990875"},{"town":"美里","koaza":"","lat":43.898345,"lng":143.799217,"zip":"0900007"},{"town":"三住町","koaza":"","lat":43.812079,"lng":143.891103,"zip":"0900032"},{"town":"美園","koaza":"","lat":43.801576,"lng":143.776561,"zip":"0990879"},{"town":"緑ケ丘一丁目","koaza":"","lat":43.820549,"lng":143.871606,"zip":"0900067"},{"town":"緑ケ丘二丁目","koaza":"","lat":43.822563,"lng":143.871352,"zip":"0900067"},{"town":"緑ケ丘三丁目","koaza":"","lat":43.827275,"lng":143.872134,"zip":"0900067"},{"town":"緑ケ丘四丁目","koaza":"","lat":43.821798,"lng":143.859815,"zip":"0900067"},{"town":"緑ケ丘五丁目","koaza":"","lat":43.821862,"lng":143.865728,"zip":"0900067"},{"town":"緑ケ丘六丁目","koaza":"","lat":43.819383,"lng":143.864806,"zip":"0900067"},{"town":"緑町一丁目","koaza":"","lat":43.806458,"lng":143.847277,"zip":"0900055"},{"town":"緑町二丁目","koaza":"","lat":43.804466,"lng":143.847198,"zip":"0900055"},{"town":"緑町三丁目","koaza":"","lat":43.806205,"lng":143.843844,"zip":"0900055"},{"town":"緑町四丁目","koaza":"","lat":43.804201,"lng":143.843764,"zip":"0900055"},{"town":"緑町五丁目","koaza":"","lat":43.805999,"lng":143.840962,"zip":"0900055"},{"town":"緑町六丁目","koaza":"","lat":43.804033,"lng":143.840565,"zip":"0900055"},{"town":"緑町七丁目","koaza":"","lat":43.805622,"lng":143.839212,"zip":"0900055"},{"town":"南丘","koaza":"","lat":43.75894,"lng":143.887478,"zip":"0991581"},{"town":"南仲町一丁目","koaza":"","lat":43.801232,"lng":143.895436,"zip":"0900812"},{"town":"南仲町二丁目","koaza":"","lat":43.800336,"lng":143.897301,"zip":"0900812"},{"town":"南仲町三丁目","koaza":"","lat":43.799653,"lng":143.899582,"zip":"0900812"},{"town":"南町一丁目","koaza":"","lat":43.798001,"lng":143.901836,"zip":"0900806"},{"town":"南町二丁目","koaza":"","lat":43.796605,"lng":143.903761,"zip":"0900806"},{"town":"南町三丁目","koaza":"","lat":43.796245,"lng":143.906709,"zip":"0900806"},{"town":"美山町西一丁目","koaza":"","lat":43.825849,"lng":143.879359,"zip":"0900070"},{"town":"美山町西二丁目","koaza":"","lat":43.828542,"lng":143.87945,"zip":"0900070"},{"town":"美山町西三丁目","koaza":"","lat":43.830953,"lng":143.878311,"zip":"0900070"},{"town":"美山町西四丁目","koaza":"","lat":43.829102,"lng":143.87534,"zip":"0900070"},{"town":"美山町西五丁目","koaza":"","lat":43.825754,"lng":143.875878,"zip":"0900070"},{"town":"美山町東一丁目","koaza":"","lat":43.825563,"lng":143.88279,"zip":"0900069"},{"town":"美山町東二丁目","koaza":"","lat":43.826736,"lng":143.885395,"zip":"0900069"},{"town":"美山町東三丁目","koaza":"","lat":43.82918,"lng":143.884332,"zip":"0900069"},{"town":"美山町東四丁目","koaza":"","lat":43.831143,"lng":143.882392,"zip":"0900069"},{"town":"美山町東五丁目","koaza":"","lat":43.832783,"lng":143.885685,"zip":"0900069"},{"town":"美山町南十丁目","koaza":"","lat":43.820945,"lng":143.876357,"zip":"0900068"},{"town":"美山町南一丁目","koaza":"","lat":43.819086,"lng":143.887473,"zip":"0900068"},{"town":"美山町南二丁目","koaza":"","lat":43.821016,"lng":143.887366,"zip":"0900068"},{"town":"美山町南三丁目","koaza":"","lat":43.82316,"lng":143.886151,"zip":"0900068"},{"town":"美山町南四丁目","koaza":"","lat":43.824197,"lng":143.887687,"zip":"0900068"},{"town":"美山町南五丁目","koaza":"","lat":43.82316,"lng":143.883398,"zip":"0900068"},{"town":"美山町南六丁目","koaza":"","lat":43.820837,"lng":143.884042,"zip":"0900068"},{"town":"美山町南七丁目","koaza":"","lat":43.818979,"lng":143.884042,"zip":"0900068"},{"town":"美山町南八丁目","koaza":"","lat":43.821195,"lng":143.880253,"zip":"0900068"},{"town":"美山町南九丁目","koaza":"","lat":43.823804,"lng":143.87818,"zip":"0900068"},{"town":"美芳町十丁目","koaza":"","lat":43.802769,"lng":143.878978,"zip":"0900064"},{"town":"美芳町一丁目","koaza":"","lat":43.808806,"lng":143.881694,"zip":"0900064"},{"town":"美芳町二丁目","koaza":"","lat":43.808633,"lng":143.878233,"zip":"0900064"},{"town":"美芳町三丁目","koaza":"","lat":43.807158,"lng":143.881896,"zip":"0900064"},{"town":"美芳町四丁目","koaza":"","lat":43.807125,"lng":143.878421,"zip":"0900064"},{"town":"美芳町五丁目","koaza":"","lat":43.805569,"lng":143.882099,"zip":"0900064"},{"town":"美芳町六丁目","koaza":"","lat":43.805358,"lng":143.878651,"zip":"0900064"},{"town":"美芳町七丁目","koaza":"","lat":43.804225,"lng":143.882266,"zip":"0900064"},{"town":"美芳町八丁目","koaza":"","lat":43.804008,"lng":143.878821,"zip":"0900064"},{"town":"美芳町九丁目","koaza":"","lat":43.802685,"lng":143.882466,"zip":"0900064"},{"town":"無加川町","koaza":"","lat":43.787918,"lng":143.861754,"zip":"0900825"},{"town":"本町一丁目","koaza":"","lat":43.800329,"lng":143.892566,"zip":"0900818"},{"town":"本町二丁目","koaza":"","lat":43.800489,"lng":143.889828,"zip":"0900818"},{"town":"本町三丁目","koaza":"","lat":43.800655,"lng":143.886254,"zip":"0900818"},{"town":"本町四丁目","koaza":"","lat":43.800902,"lng":143.882348,"zip":"0900818"},{"town":"本町五丁目","koaza":"","lat":43.800868,"lng":143.879225,"zip":"0900818"},{"town":"山下町一丁目","koaza":"","lat":43.80538,"lng":143.888697,"zip":"0900037"},{"town":"山下町二丁目","koaza":"","lat":43.804413,"lng":143.887325,"zip":"0900037"},{"town":"山下町三丁目","koaza":"","lat":43.80475,"lng":143.885237,"zip":"0900037"},{"town":"山下町四丁目","koaza":"","lat":43.80353,"lng":143.885743,"zip":"0900037"},{"town":"山下町五丁目","koaza":"","lat":43.802122,"lng":143.885643,"zip":"0900037"},{"town":"大和","koaza":"","lat":43.877255,"lng":143.886722,"zip":"0900005"},{"town":"留辺蘂町旭一区","koaza":"","lat":43.771158,"lng":143.603764,"zip":"0900000"},{"town":"留辺蘂町旭三区","koaza":"","lat":43.787836,"lng":143.598178,"zip":"0900000"},{"town":"留辺蘂町旭北","koaza":"","lat":43.782662,"lng":143.616328,"zip":"0910025"},{"town":"留辺蘂町旭公園","koaza":"","lat":43.773018,"lng":143.613903,"zip":"0910026"},{"town":"留辺蘂町旭中央","koaza":"","lat":43.778033,"lng":143.626379,"zip":"0910023"},{"town":"留辺蘂町旭西","koaza":"","lat":43.783207,"lng":143.597785,"zip":"0910027"},{"town":"留辺蘂町旭東","koaza":"","lat":43.779986,"lng":143.632643,"zip":"0910022"},{"town":"留辺蘂町旭南","koaza":"","lat":43.774305,"lng":143.62067,"zip":"0910024"},{"town":"留辺蘂町東町","koaza":"","lat":43.786384,"lng":143.622755,"zip":"0910002"},{"town":"留辺蘂町泉","koaza":"","lat":43.79708,"lng":143.6509,"zip":"0910011"},{"town":"留辺蘂町大富","koaza":"","lat":43.768453,"lng":143.579481,"zip":"0910031"},{"town":"留辺蘂町温根湯温泉","koaza":"","lat":43.755009,"lng":143.509199,"zip":"0910170"},{"town":"留辺蘂町金華","koaza":"","lat":43.811113,"lng":143.538144,"zip":"0910021"},{"town":"留辺蘂町上町","koaza":"","lat":43.787612,"lng":143.610266,"zip":"0910004"},{"town":"留辺蘂町川北","koaza":"","lat":43.773126,"lng":143.44152,"zip":"0910156"},{"town":"留辺蘂町厚和","koaza":"","lat":43.704338,"lng":143.356704,"zip":"0910161"},{"town":"留辺蘂町栄町","koaza":"","lat":43.784058,"lng":143.61111,"zip":"0910033"},{"town":"留辺蘂町昭栄","koaza":"","lat":43.756493,"lng":143.541421,"zip":"0910151"},{"town":"留辺蘂町滝の湯","koaza":"","lat":43.75899,"lng":143.393074,"zip":"0910163"},{"town":"留辺蘂町富岡","koaza":"","lat":43.765593,"lng":143.628394,"zip":"0910007"},{"town":"留辺蘂町豊金","koaza":"","lat":43.817085,"lng":143.617897,"zip":"0910032"},{"town":"留辺蘂町仲町","koaza":"","lat":43.787333,"lng":143.619704,"zip":"0910003"},{"town":"留辺蘂町花丘","koaza":"","lat":43.777618,"lng":143.509441,"zip":"0910157"},{"town":"留辺蘂町花園","koaza":"","lat":43.924252,"lng":143.616773,"zip":"0910018"},{"town":"留辺蘂町平里","koaza":"","lat":43.727141,"lng":143.48293,"zip":"0910154"},{"town":"留辺蘂町富士見","koaza":"","lat":43.652425,"lng":143.225295,"zip":"0910162"},{"town":"留辺蘂町松山","koaza":"","lat":43.727815,"lng":143.510008,"zip":"0910153"},{"town":"留辺蘂町丸山","koaza":"","lat":43.855077,"lng":143.634239,"zip":"0910016"},{"town":"留辺蘂町瑞穂","koaza":"","lat":43.87222,"lng":143.684834,"zip":"0910017"},{"town":"留辺蘂町宮下町","koaza":"","lat":43.789845,"lng":143.624214,"zip":"0910008"},{"town":"留辺蘂町元町","koaza":"","lat":43.786102,"lng":143.627806,"zip":"0910001"},{"town":"留辺蘂町大和","koaza":"","lat":43.722521,"lng":143.4459,"zip":"0910155"},{"town":"若葉一丁目","koaza":"","lat":43.808673,"lng":143.853518,"zip":"0900057"},{"town":"若葉二丁目","koaza":"","lat":43.808614,"lng":143.849533,"zip":"0900057"},{"town":"若葉三丁目","koaza":"","lat":43.807991,"lng":143.847102,"zip":"0900057"},{"town":"若葉四丁目","koaza":"","lat":43.810453,"lng":143.851405,"zip":"0900057"},{"town":"若葉五丁目","koaza":"","lat":43.812888,"lng":143.854111,"zip":"0900057"},{"town":"若葉六丁目","koaza":"","lat":43.812384,"lng":143.851797,"zip":"0900057"},{"town":"若葉七丁目","koaza":"","lat":43.809508,"lng":143.844195,"zip":"0900057"},{"town":"若松","koaza":"","lat":43.766455,"lng":143.918226,"zip":"0900808"},{"town":"常呂町字吉野","koaza":"","lat":43.968219,"lng":143.844181,"zip":"0900000"},{"town":"常呂町字登","koaza":"","lat":43.945418,"lng":143.914809,"zip":"0900000"},{"town":"常呂町字富丘","koaza":"","lat":44.068253,"lng":143.986517,"zip":"0900000"},{"town":"常呂町字豊川","koaza":"","lat":44.063343,"lng":144.036159,"zip":"0900000"},{"town":"常呂町字栄浦","koaza":"","lat":44.130535,"lng":143.981591,"zip":"0900000"},{"town":"常呂町字東浜","koaza":"","lat":44.11837,"lng":144.094261,"zip":"0900000"},{"town":"常呂町字常呂","koaza":"","lat":44.120422,"lng":144.073368,"zip":"0900000"},{"town":"常呂町字共立","koaza":"","lat":44.093795,"lng":144.044459,"zip":"0900000"},{"town":"常呂町字岐阜","koaza":"","lat":44.11014,"lng":144.006305,"zip":"0900000"},{"town":"常呂町字土佐","koaza":"","lat":44.112226,"lng":144.05281,"zip":"0900000"},{"town":"常呂町字日吉","koaza":"","lat":43.985162,"lng":143.944375,"zip":"0900000"},{"town":"常呂町字福山","koaza":"","lat":44.019327,"lng":144.007628,"zip":"0900000"},{"town":"留辺蘂町温根湯温泉","koaza":"二区","lat":43.756562,"lng":143.507963,"zip":"0910170"},{"town":"留辺蘂町温根湯温泉","koaza":"三区","lat":43.755971,"lng":143.505744,"zip":"0910170"},{"town":"留辺蘂町温根湯温泉","koaza":"五区","lat":43.754554,"lng":143.503799,"zip":"0910170"},{"town":"留辺蘂町温根湯温泉","koaza":"四区","lat":43.754048,"lng":143.513017,"zip":"0910170"},{"town":"留辺蘂町温根湯温泉","koaza":"一区","lat":43.757313,"lng":143.51083,"zip":"0910170"},{"town":"留辺蘂町栄町","koaza":"一区","lat":43.785041,"lng":143.60996,"zip":"0910033"},{"town":"留辺蘂町栄町","koaza":"二区","lat":43.784349,"lng":143.613206,"zip":"0910033"}]