[{"town":"字愛牛","koaza":"","lat":42.740969,"lng":143.605816,"zip":"0895600"},{"town":"字相川","koaza":"","lat":43.055453,"lng":143.603886,"zip":"0895600"},{"town":"字朝日","koaza":"","lat":42.734111,"lng":143.651384,"zip":"0895600"},{"town":"字厚内","koaza":"","lat":42.874814,"lng":143.761393,"zip":"0895600"},{"town":"字厚内一条通二丁目","koaza":"","lat":42.806603,"lng":143.815067,"zip":"0895600"},{"town":"字厚内一条通三丁目","koaza":"","lat":42.806994,"lng":143.814243,"zip":"0895600"},{"town":"字厚内一条通四丁目","koaza":"","lat":42.807615,"lng":143.812819,"zip":"0895600"},{"town":"字厚内一条通五丁目","koaza":"","lat":42.808044,"lng":143.811793,"zip":"0895600"},{"town":"字厚内二条通二丁目","koaza":"","lat":42.80754,"lng":143.816288,"zip":"0895600"},{"town":"字厚内二条通三丁目","koaza":"","lat":42.808044,"lng":143.814777,"zip":"0895600"},{"town":"字厚内二条通四丁目","koaza":"","lat":42.808645,"lng":143.813284,"zip":"0895600"},{"town":"字厚内二条通五丁目","koaza":"","lat":42.809117,"lng":143.812031,"zip":"0895600"},{"town":"字厚内二条通六丁目","koaza":"","lat":42.809747,"lng":143.811385,"zip":"0895600"},{"town":"字厚内三条通二丁目","koaza":"","lat":42.808028,"lng":143.816918,"zip":"0895600"},{"town":"字厚内三条通五丁目","koaza":"","lat":42.809907,"lng":143.812212,"zip":"0895600"},{"town":"字厚内三条通六丁目","koaza":"","lat":42.810213,"lng":143.811657,"zip":"0895600"},{"town":"字厚内大通","koaza":"","lat":42.807325,"lng":143.817328,"zip":"0895600"},{"town":"字厚内大通一丁目","koaza":"","lat":42.805708,"lng":143.815676,"zip":"0895600"},{"town":"字厚内大通二丁目","koaza":"","lat":42.806569,"lng":143.815718,"zip":"0895600"},{"town":"字幾栄","koaza":"","lat":42.877533,"lng":143.587409,"zip":"0895600"},{"town":"字幾千世","koaza":"","lat":42.886447,"lng":143.619643,"zip":"0895600"},{"town":"字稲穂","koaza":"","lat":42.822279,"lng":143.602511,"zip":"0895600"},{"town":"字ウツナイ","koaza":"","lat":42.717266,"lng":143.617496,"zip":"0895600"},{"town":"字栄穂","koaza":"","lat":43.11948,"lng":143.662608,"zip":"0895600"},{"town":"字オコツペ","koaza":"","lat":42.811401,"lng":143.789843,"zip":"0895600"},{"town":"字オタフンベ","koaza":"","lat":42.825491,"lng":143.844255,"zip":"0895600"},{"town":"字ヲトベ","koaza":"","lat":42.822536,"lng":143.840267,"zip":"0895600"},{"town":"字帯富","koaza":"","lat":42.83012,"lng":143.673625,"zip":"0895600"},{"town":"字恩根内","koaza":"","lat":43.095103,"lng":143.640523,"zip":"0895600"},{"town":"字活平","koaza":"","lat":42.97939,"lng":143.631714,"zip":"0895600"},{"town":"字上厚内","koaza":"","lat":42.833533,"lng":143.719785,"zip":"0895600"},{"town":"字上厚内本通","koaza":"","lat":42.831572,"lng":143.749096,"zip":"0895600"},{"town":"字川上","koaza":"","lat":43.133951,"lng":143.687935,"zip":"0895600"},{"town":"字川流布","koaza":"","lat":43.074709,"lng":143.661517,"zip":"0895600"},{"town":"字北町","koaza":"","lat":42.814912,"lng":143.663828,"zip":"0895600"},{"town":"字共栄","koaza":"","lat":42.772509,"lng":143.616374,"zip":"0895600"},{"town":"字貴老路","koaza":"","lat":43.100549,"lng":143.61796,"zip":"0895600"},{"town":"字合流","koaza":"","lat":43.076031,"lng":143.584276,"zip":"0895600"},{"town":"字寿町","koaza":"","lat":42.812649,"lng":143.65803,"zip":"0895600"},{"town":"字昆布刈石","koaza":"","lat":42.782378,"lng":143.750098,"zip":"0895600"},{"town":"字材木町","koaza":"","lat":42.810062,"lng":143.650398,"zip":"0895600"},{"town":"字幸町","koaza":"","lat":42.811028,"lng":143.657455,"zip":"0895600"},{"town":"字栄町","koaza":"","lat":42.809337,"lng":143.652955,"zip":"0895600"},{"town":"字桜町","koaza":"","lat":42.809359,"lng":143.657145,"zip":"0895600"},{"town":"字静内","koaza":"","lat":42.789231,"lng":143.697041,"zip":"0895600"},{"town":"字下浦幌","koaza":"","lat":42.755416,"lng":143.683372,"zip":"0895600"},{"town":"字新町","koaza":"","lat":42.807734,"lng":143.657039,"zip":"0895600"},{"town":"字末広町","koaza":"","lat":42.813078,"lng":143.653515,"zip":"0895600"},{"town":"字住吉町","koaza":"","lat":42.804648,"lng":143.653328,"zip":"0895600"},{"town":"字生剛","koaza":"","lat":42.749762,"lng":143.648684,"zip":"0895600"},{"town":"字瀬多来","koaza":"","lat":42.978196,"lng":143.590683,"zip":"0895600"},{"town":"字大平","koaza":"","lat":42.769107,"lng":143.592556,"zip":"0895600"},{"town":"字宝町","koaza":"","lat":42.815275,"lng":143.655086,"zip":"0895600"},{"town":"字炭山","koaza":"","lat":43.083363,"lng":143.727393,"zip":"0895600"},{"town":"字千才町","koaza":"","lat":42.807557,"lng":143.646038,"zip":"0895600"},{"town":"字チプネオコツペ","koaza":"","lat":42.796123,"lng":143.787344,"zip":"0895600"},{"town":"字チヤロ","koaza":"","lat":42.728945,"lng":143.706655,"zip":"0895600"},{"town":"字直別","koaza":"","lat":42.850458,"lng":143.807694,"zip":"0895600"},{"town":"字直別基線","koaza":"","lat":42.849548,"lng":143.857891,"zip":"0895600"},{"town":"字直別西一線","koaza":"","lat":42.861353,"lng":143.831288,"zip":"0895600"},{"town":"字直別西二線","koaza":"","lat":42.847452,"lng":143.844899,"zip":"0895600"},{"town":"字直別西三線","koaza":"","lat":42.843639,"lng":143.839735,"zip":"0895600"},{"town":"字直別西四線","koaza":"","lat":42.843283,"lng":143.835108,"zip":"0895600"},{"town":"字常豊","koaza":"","lat":42.848839,"lng":143.679312,"zip":"0895600"},{"town":"字トイトツキ","koaza":"","lat":42.718906,"lng":143.65019,"zip":"0895600"},{"town":"字統太","koaza":"","lat":42.768682,"lng":143.648273,"zip":"0895600"},{"town":"字十勝","koaza":"","lat":42.726396,"lng":143.699202,"zip":"0895600"},{"town":"字十勝太","koaza":"","lat":42.732797,"lng":143.710127,"zip":"0895600"},{"town":"字十勝太大通東一丁目","koaza":"","lat":42.727546,"lng":143.697852,"zip":"0895600"},{"town":"字十勝太大通東二丁目","koaza":"","lat":42.72743,"lng":143.69935,"zip":"0895600"},{"town":"字十勝太大通東三丁目","koaza":"","lat":42.727502,"lng":143.700967,"zip":"0895600"},{"town":"字十勝太大通東四丁目","koaza":"","lat":42.727393,"lng":143.702523,"zip":"0895600"},{"town":"字十勝太大通東五丁目","koaza":"","lat":42.727797,"lng":143.703645,"zip":"0895600"},{"town":"字十勝太北一条東三丁目","koaza":"","lat":42.728499,"lng":143.701312,"zip":"0895600"},{"town":"字十勝太北一条東四丁目","koaza":"","lat":42.728393,"lng":143.702661,"zip":"0895600"},{"town":"字十勝太北一条東五丁目","koaza":"","lat":42.728226,"lng":143.704193,"zip":"0895600"},{"town":"字十勝太北一条東六丁目","koaza":"","lat":42.728423,"lng":143.705286,"zip":"0895600"},{"town":"字十勝太北二条東四丁目","koaza":"","lat":42.729365,"lng":143.702834,"zip":"0895600"},{"town":"字十勝太北二条東五丁目","koaza":"","lat":42.72931,"lng":143.704494,"zip":"0895600"},{"town":"字十勝太北二条東六丁目","koaza":"","lat":42.729036,"lng":143.705728,"zip":"0895600"},{"town":"字十勝太南一条東一丁目","koaza":"","lat":42.726704,"lng":143.697742,"zip":"0895600"},{"town":"字十勝太南一条東二丁目","koaza":"","lat":42.726684,"lng":143.699258,"zip":"0895600"},{"town":"字十勝太南一条東三丁目","koaza":"","lat":42.726666,"lng":143.700661,"zip":"0895600"},{"town":"字時和","koaza":"","lat":42.843026,"lng":143.641754,"zip":"0895600"},{"town":"字常室","koaza":"","lat":42.874314,"lng":143.691989,"zip":"0895600"},{"town":"字富川","koaza":"","lat":43.037606,"lng":143.646256,"zip":"0895600"},{"town":"字西町","koaza":"","lat":42.814168,"lng":143.650159,"zip":"0895600"},{"town":"字ヌタペツト","koaza":"","lat":42.71489,"lng":143.675084,"zip":"0895600"},{"town":"字東山町","koaza":"","lat":42.80955,"lng":143.667847,"zip":"0895600"},{"town":"字福山","koaza":"","lat":42.878384,"lng":143.733664,"zip":"0895600"},{"town":"字平和","koaza":"","lat":42.788826,"lng":143.609135,"zip":"0895600"},{"town":"字ベツチヤロ","koaza":"","lat":42.706968,"lng":143.61618,"zip":"0895600"},{"town":"字宝生","koaza":"","lat":43.083282,"lng":143.61876,"zip":"0895600"},{"town":"字本町","koaza":"","lat":42.810916,"lng":143.653067,"zip":"0895600"},{"town":"字円山","koaza":"","lat":42.889201,"lng":143.670828,"zip":"0895600"},{"town":"字万年","koaza":"","lat":42.799541,"lng":143.663282,"zip":"0895600"},{"town":"字美園","koaza":"","lat":43.025344,"lng":143.609327,"zip":"0895600"},{"town":"字緑町","koaza":"","lat":42.807977,"lng":143.652884,"zip":"0895600"},{"town":"字南町","koaza":"","lat":42.803927,"lng":143.665643,"zip":"0895600"},{"town":"字養老","koaza":"","lat":42.74001,"lng":143.625848,"zip":"0895600"},{"town":"字吉野","koaza":"","lat":42.774519,"lng":143.603707,"zip":"0895600"},{"town":"字ラエベツブト","koaza":"","lat":42.717959,"lng":143.695531,"zip":"0895600"},{"town":"字留真","koaza":"","lat":42.96456,"lng":143.699055,"zip":"0895600"}]