[{"town":"青葉一丁目","koaza":"","lat":42.825407,"lng":141.65672,"zip":"0660015"},{"town":"青葉二丁目","koaza":"","lat":42.823806,"lng":141.659261,"zip":"0660015"},{"town":"青葉三丁目","koaza":"","lat":42.825094,"lng":141.661644,"zip":"0660015"},{"town":"青葉四丁目","koaza":"","lat":42.828258,"lng":141.659976,"zip":"0660015"},{"town":"青葉五丁目","koaza":"","lat":42.8278,"lng":141.663897,"zip":"0660015"},{"town":"青葉六丁目","koaza":"","lat":42.826131,"lng":141.667436,"zip":"0660015"},{"town":"青葉七丁目","koaza":"","lat":42.825131,"lng":141.664653,"zip":"0660015"},{"town":"青葉八丁目","koaza":"","lat":42.822777,"lng":141.663837,"zip":"0660015"},{"town":"青葉丘","koaza":"","lat":42.821319,"lng":141.667526,"zip":"0660014"},{"town":"旭ケ丘一丁目","koaza":"","lat":42.828025,"lng":141.678693,"zip":"0660018"},{"town":"旭ケ丘二丁目","koaza":"","lat":42.828618,"lng":141.682211,"zip":"0660018"},{"town":"旭ケ丘三丁目","koaza":"","lat":42.826614,"lng":141.68304,"zip":"0660018"},{"town":"旭ケ丘四丁目","koaza":"","lat":42.826226,"lng":141.679405,"zip":"0660018"},{"town":"朝日町一丁目","koaza":"","lat":42.818672,"lng":141.650204,"zip":"0660043"},{"town":"朝日町二丁目","koaza":"","lat":42.817791,"lng":141.651015,"zip":"0660043"},{"town":"朝日町三丁目","koaza":"","lat":42.818911,"lng":141.653174,"zip":"0660043"},{"town":"朝日町四丁目","koaza":"","lat":42.819482,"lng":141.652231,"zip":"0660043"},{"town":"朝日町五丁目","koaza":"","lat":42.820301,"lng":141.653859,"zip":"0660043"},{"town":"朝日町六丁目","koaza":"","lat":42.820903,"lng":141.655485,"zip":"0660043"},{"town":"朝日町七丁目","koaza":"","lat":42.822328,"lng":141.657199,"zip":"0660043"},{"town":"朝日町八丁目","koaza":"","lat":42.819545,"lng":141.65752,"zip":"0660043"},{"town":"あずさ一丁目","koaza":"","lat":42.842615,"lng":141.650972,"zip":"0660076"},{"town":"あずさ二丁目","koaza":"","lat":42.843908,"lng":141.64736,"zip":"0660076"},{"town":"あずさ三丁目","koaza":"","lat":42.845007,"lng":141.644257,"zip":"0660076"},{"town":"あずさ五丁目","koaza":"","lat":42.847627,"lng":141.649761,"zip":"0660076"},{"town":"泉郷","koaza":"","lat":42.906848,"lng":141.728387,"zip":"0660004"},{"town":"泉沢","koaza":"","lat":42.795073,"lng":141.580636,"zip":"0660051"},{"town":"稲穂一丁目","koaza":"","lat":42.837965,"lng":141.65853,"zip":"0660029"},{"town":"稲穂二丁目","koaza":"","lat":42.839442,"lng":141.655992,"zip":"0660029"},{"town":"稲穂三丁目","koaza":"","lat":42.841691,"lng":141.656142,"zip":"0660029"},{"town":"稲穂四丁目","koaza":"","lat":42.839873,"lng":141.661001,"zip":"0660029"},{"town":"梅ケ丘一丁目","koaza":"","lat":42.829659,"lng":141.677367,"zip":"0660025"},{"town":"梅ケ丘二丁目","koaza":"","lat":42.831459,"lng":141.67447,"zip":"0660025"},{"town":"梅ケ丘三丁目","koaza":"","lat":42.832095,"lng":141.677998,"zip":"0660025"},{"town":"奥潭","koaza":"","lat":42.774466,"lng":141.252784,"zip":"0660286"},{"town":"長都","koaza":"","lat":42.873997,"lng":141.631169,"zip":"0660001"},{"town":"長都駅前一丁目","koaza":"","lat":42.849976,"lng":141.628697,"zip":"0660031"},{"town":"長都駅前二丁目","koaza":"","lat":42.851581,"lng":141.625899,"zip":"0660031"},{"town":"長都駅前三丁目","koaza":"","lat":42.853275,"lng":141.623242,"zip":"0660031"},{"town":"長都駅前四丁目","koaza":"","lat":42.855849,"lng":141.624578,"zip":"0660031"},{"town":"長都駅前五丁目","koaza":"","lat":42.857993,"lng":141.626104,"zip":"0660031"},{"town":"柏台","koaza":"","lat":42.810377,"lng":141.690798,"zip":"0660013"},{"town":"柏台南一丁目","koaza":"","lat":42.811564,"lng":141.675378,"zip":"0660009"},{"town":"柏台南二丁目","koaza":"","lat":42.816573,"lng":141.679083,"zip":"0660009"},{"town":"春日町一丁目","koaza":"","lat":42.822024,"lng":141.641664,"zip":"0660065"},{"town":"春日町二丁目","koaza":"","lat":42.819954,"lng":141.641976,"zip":"0660065"},{"town":"春日町三丁目","koaza":"","lat":42.821166,"lng":141.639328,"zip":"0660065"},{"town":"春日町四丁目","koaza":"","lat":42.82075,"lng":141.637367,"zip":"0660065"},{"town":"春日町五丁目","koaza":"","lat":42.820687,"lng":141.635894,"zip":"0660065"},{"town":"桂木一丁目","koaza":"","lat":42.819923,"lng":141.625181,"zip":"0660067"},{"town":"桂木二丁目","koaza":"","lat":42.81784,"lng":141.625313,"zip":"0660067"},{"town":"桂木三丁目","koaza":"","lat":42.816848,"lng":141.621278,"zip":"0660067"},{"town":"桂木四丁目","koaza":"","lat":42.818659,"lng":141.620658,"zip":"0660067"},{"town":"桂木五丁目","koaza":"","lat":42.818339,"lng":141.615714,"zip":"0660067"},{"town":"桂木六丁目","koaza":"","lat":42.816722,"lng":141.616722,"zip":"0660067"},{"town":"釜加","koaza":"","lat":42.905594,"lng":141.644927,"zip":"0660002"},{"town":"上長都","koaza":"","lat":42.840023,"lng":141.593267,"zip":"0660077"},{"town":"北信濃","koaza":"","lat":42.826652,"lng":141.618419,"zip":"0660075"},{"town":"協和","koaza":"","lat":42.872272,"lng":141.773146,"zip":"0660005"},{"town":"幸福一丁目","koaza":"","lat":42.84754,"lng":141.669069,"zip":"0660082"},{"town":"幸福二丁目","koaza":"","lat":42.848879,"lng":141.666099,"zip":"0660082"},{"town":"幸福三丁目","koaza":"","lat":42.84991,"lng":141.66291,"zip":"0660082"},{"town":"幸福四丁目","koaza":"","lat":42.850929,"lng":141.660416,"zip":"0660082"},{"town":"寿一丁目","koaza":"","lat":42.831296,"lng":141.685875,"zip":"0660023"},{"town":"寿二丁目","koaza":"","lat":42.833153,"lng":141.684911,"zip":"0660023"},{"town":"寿三丁目","koaza":"","lat":42.835989,"lng":141.681815,"zip":"0660023"},{"town":"駒里","koaza":"","lat":42.806888,"lng":141.732232,"zip":"0660011"},{"town":"幸町一丁目","koaza":"","lat":42.822636,"lng":141.645683,"zip":"0660063"},{"town":"幸町二丁目","koaza":"","lat":42.823252,"lng":141.646646,"zip":"0660063"},{"town":"幸町三丁目","koaza":"","lat":42.823844,"lng":141.647828,"zip":"0660063"},{"town":"幸町四丁目","koaza":"","lat":42.824747,"lng":141.649227,"zip":"0660063"},{"town":"幸町五丁目","koaza":"","lat":42.82549,"lng":141.650357,"zip":"0660063"},{"town":"幸町六丁目","koaza":"","lat":42.826283,"lng":141.651484,"zip":"0660063"},{"town":"栄町一丁目","koaza":"","lat":42.824563,"lng":141.643008,"zip":"0660061"},{"town":"栄町二丁目","koaza":"","lat":42.825446,"lng":141.64401,"zip":"0660061"},{"town":"栄町三丁目","koaza":"","lat":42.826244,"lng":141.644868,"zip":"0660061"},{"town":"栄町四丁目","koaza":"","lat":42.827196,"lng":141.6463,"zip":"0660061"},{"town":"栄町五丁目","koaza":"","lat":42.827826,"lng":141.647898,"zip":"0660061"},{"town":"栄町六丁目","koaza":"","lat":42.828866,"lng":141.64851,"zip":"0660061"},{"town":"栄町七丁目","koaza":"","lat":42.829925,"lng":141.649196,"zip":"0660061"},{"town":"桜木一丁目","koaza":"","lat":42.83966,"lng":141.613827,"zip":"0660071"},{"town":"桜木二丁目","koaza":"","lat":42.837382,"lng":141.612281,"zip":"0660071"},{"town":"桜木三丁目","koaza":"","lat":42.83529,"lng":141.61088,"zip":"0660071"},{"town":"桜木四丁目","koaza":"","lat":42.838677,"lng":141.609334,"zip":"0660071"},{"town":"桜木五丁目","koaza":"","lat":42.840867,"lng":141.610808,"zip":"0660071"},{"town":"里美一丁目","koaza":"","lat":42.783771,"lng":141.604399,"zip":"0660055"},{"town":"里美二丁目","koaza":"","lat":42.784386,"lng":141.599666,"zip":"0660055"},{"town":"里美三丁目","koaza":"","lat":42.784566,"lng":141.596698,"zip":"0660055"},{"town":"里美四丁目","koaza":"","lat":42.784727,"lng":141.594334,"zip":"0660055"},{"town":"里美五丁目","koaza":"","lat":42.784922,"lng":141.591952,"zip":"0660055"},{"town":"支笏湖温泉","koaza":"","lat":42.778595,"lng":141.397802,"zip":"0660281"},{"town":"支寒内","koaza":"","lat":42.710872,"lng":141.319151,"zip":"0660284"},{"town":"信濃一丁目","koaza":"","lat":42.833517,"lng":141.632317,"zip":"0660038"},{"town":"信濃二丁目","koaza":"","lat":42.83584,"lng":141.632262,"zip":"0660038"},{"town":"信濃三丁目","koaza":"","lat":42.838044,"lng":141.633814,"zip":"0660038"},{"town":"信濃四丁目","koaza":"","lat":42.840703,"lng":141.634204,"zip":"0660038"},{"town":"東雲町一丁目","koaza":"","lat":42.81995,"lng":141.649027,"zip":"0660042"},{"town":"東雲町二丁目","koaza":"","lat":42.82076,"lng":141.650658,"zip":"0660042"},{"town":"東雲町三丁目","koaza":"","lat":42.821602,"lng":141.652512,"zip":"0660042"},{"town":"東雲町四丁目","koaza":"","lat":42.822693,"lng":141.653406,"zip":"0660042"},{"town":"東雲町五丁目","koaza":"","lat":42.823908,"lng":141.655043,"zip":"0660042"},{"town":"清水町一丁目","koaza":"","lat":42.821558,"lng":141.647099,"zip":"0660041"},{"town":"清水町二丁目","koaza":"","lat":42.822087,"lng":141.648184,"zip":"0660041"},{"town":"清水町三丁目","koaza":"","lat":42.822403,"lng":141.649475,"zip":"0660041"},{"town":"清水町四丁目","koaza":"","lat":42.823219,"lng":141.650532,"zip":"0660041"},{"town":"清水町五丁目","koaza":"","lat":42.824234,"lng":141.651421,"zip":"0660041"},{"town":"清水町六丁目","koaza":"","lat":42.825458,"lng":141.653086,"zip":"0660041"},{"town":"清水町七丁目","koaza":"","lat":42.826368,"lng":141.653785,"zip":"0660041"},{"town":"自由ケ丘一丁目","koaza":"","lat":42.836324,"lng":141.623087,"zip":"0660072"},{"town":"自由ケ丘二丁目","koaza":"","lat":42.834093,"lng":141.621591,"zip":"0660072"},{"town":"自由ケ丘三丁目","koaza":"","lat":42.835529,"lng":141.618763,"zip":"0660072"},{"town":"自由ケ丘四丁目","koaza":"","lat":42.837731,"lng":141.620227,"zip":"0660072"},{"town":"自由ケ丘五丁目","koaza":"","lat":42.838679,"lng":141.617011,"zip":"0660072"},{"town":"自由ケ丘六丁目","koaza":"","lat":42.836383,"lng":141.615496,"zip":"0660072"},{"town":"自由ケ丘七丁目","koaza":"","lat":42.834707,"lng":141.613473,"zip":"0660072"},{"town":"祝梅","koaza":"","lat":42.839914,"lng":141.710365,"zip":"0660006"},{"town":"白樺一丁目","koaza":"","lat":42.786962,"lng":141.602397,"zip":"0660056"},{"town":"白樺二丁目","koaza":"","lat":42.787451,"lng":141.599744,"zip":"0660056"},{"town":"白樺三丁目","koaza":"","lat":42.787611,"lng":141.597046,"zip":"0660056"},{"town":"白樺四丁目","koaza":"","lat":42.787471,"lng":141.593827,"zip":"0660056"},{"town":"白樺五丁目","koaza":"","lat":42.789882,"lng":141.594087,"zip":"0660056"},{"town":"白樺六丁目","koaza":"","lat":42.7924,"lng":141.593557,"zip":"0660056"},{"town":"新星一丁目","koaza":"","lat":42.815741,"lng":141.609743,"zip":"0660069"},{"town":"新星二丁目","koaza":"","lat":42.815259,"lng":141.604669,"zip":"0660069"},{"town":"真町","koaza":"","lat":42.815851,"lng":141.638949,"zip":"0660046"},{"town":"新富一丁目","koaza":"","lat":42.830421,"lng":141.637054,"zip":"0660037"},{"town":"新富二丁目","koaza":"","lat":42.833584,"lng":141.638501,"zip":"0660037"},{"town":"新富三丁目","koaza":"","lat":42.836433,"lng":141.639057,"zip":"0660037"},{"town":"水明郷","koaza":"","lat":42.785157,"lng":141.436787,"zip":"0660282"},{"town":"末広一丁目","koaza":"","lat":42.827002,"lng":141.65554,"zip":"0660027"},{"town":"末広二丁目","koaza":"","lat":42.828303,"lng":141.656313,"zip":"0660027"},{"town":"末広三丁目","koaza":"","lat":42.829694,"lng":141.657191,"zip":"0660027"},{"town":"末広四丁目","koaza":"","lat":42.831053,"lng":141.654042,"zip":"0660027"},{"town":"末広五丁目","koaza":"","lat":42.829616,"lng":141.65307,"zip":"0660027"},{"town":"末広六丁目","koaza":"","lat":42.82828,"lng":141.653022,"zip":"0660027"},{"town":"末広七丁目","koaza":"","lat":42.830534,"lng":141.65041,"zip":"0660027"},{"town":"末広八丁目","koaza":"","lat":42.832181,"lng":141.650969,"zip":"0660027"},{"town":"住吉一丁目","koaza":"","lat":42.832672,"lng":141.661228,"zip":"0660026"},{"town":"住吉二丁目","koaza":"","lat":42.830146,"lng":141.663481,"zip":"0660026"},{"town":"住吉三丁目","koaza":"","lat":42.833215,"lng":141.664898,"zip":"0660026"},{"town":"住吉四丁目","koaza":"","lat":42.831185,"lng":141.668962,"zip":"0660026"},{"town":"住吉五丁目","koaza":"","lat":42.829288,"lng":141.66722,"zip":"0660026"},{"town":"清流一丁目","koaza":"","lat":42.843311,"lng":141.665483,"zip":"0660081"},{"town":"清流二丁目","koaza":"","lat":42.844272,"lng":141.662991,"zip":"0660081"},{"town":"清流三丁目","koaza":"","lat":42.847706,"lng":141.661449,"zip":"0660081"},{"town":"清流四丁目","koaza":"","lat":42.845475,"lng":141.659943,"zip":"0660081"},{"town":"清流五丁目","koaza":"","lat":42.843262,"lng":141.658449,"zip":"0660081"},{"town":"清流六丁目","koaza":"","lat":42.844112,"lng":141.655799,"zip":"0660081"},{"town":"清流七丁目","koaza":"","lat":42.846469,"lng":141.657383,"zip":"0660081"},{"town":"清流八丁目","koaza":"","lat":42.848645,"lng":141.658878,"zip":"0660081"},{"town":"高台一丁目","koaza":"","lat":42.83266,"lng":141.648119,"zip":"0660035"},{"town":"高台二丁目","koaza":"","lat":42.835073,"lng":141.649781,"zip":"0660035"},{"town":"高台三丁目","koaza":"","lat":42.834495,"lng":141.651555,"zip":"0660035"},{"town":"高台四丁目","koaza":"","lat":42.836875,"lng":141.653006,"zip":"0660035"},{"town":"高台五丁目","koaza":"","lat":42.837444,"lng":141.651392,"zip":"0660035"},{"town":"高台六丁目","koaza":"","lat":42.83921,"lng":141.652624,"zip":"0660035"},{"town":"中央","koaza":"","lat":42.871113,"lng":141.72072,"zip":"0660007"},{"town":"千代田町一丁目","koaza":"","lat":42.823496,"lng":141.644669,"zip":"0660062"},{"town":"千代田町二丁目","koaza":"","lat":42.824108,"lng":141.645681,"zip":"0660062"},{"town":"千代田町三丁目","koaza":"","lat":42.824793,"lng":141.646669,"zip":"0660062"},{"town":"千代田町四丁目","koaza":"","lat":42.825514,"lng":141.647746,"zip":"0660062"},{"town":"千代田町五丁目","koaza":"","lat":42.826347,"lng":141.648976,"zip":"0660062"},{"town":"千代田町六丁目","koaza":"","lat":42.827332,"lng":141.650432,"zip":"0660062"},{"town":"千代田町七丁目","koaza":"","lat":42.827797,"lng":141.651826,"zip":"0660062"},{"town":"東郊一丁目","koaza":"","lat":42.837486,"lng":141.66228,"zip":"0660021"},{"town":"東郊二丁目","koaza":"","lat":42.835125,"lng":141.665051,"zip":"0660021"},{"town":"富丘一丁目","koaza":"","lat":42.835367,"lng":141.646152,"zip":"0660034"},{"town":"富丘二丁目","koaza":"","lat":42.839263,"lng":141.64884,"zip":"0660034"},{"town":"富丘三丁目","koaza":"","lat":42.841498,"lng":141.643843,"zip":"0660034"},{"town":"富丘四丁目","koaza":"","lat":42.838125,"lng":141.642595,"zip":"0660034"},{"town":"豊里一丁目","koaza":"","lat":42.839706,"lng":141.665427,"zip":"0660022"},{"town":"豊里二丁目","koaza":"","lat":42.838142,"lng":141.667237,"zip":"0660022"},{"town":"豊里三丁目","koaza":"","lat":42.835858,"lng":141.668402,"zip":"0660022"},{"town":"豊里四丁目","koaza":"","lat":42.833939,"lng":141.669806,"zip":"0660022"},{"town":"豊里五丁目","koaza":"","lat":42.832849,"lng":141.671874,"zip":"0660022"},{"town":"新川","koaza":"","lat":42.936082,"lng":141.764601,"zip":"0691184"},{"town":"錦町一丁目","koaza":"","lat":42.820743,"lng":141.64587,"zip":"0660064"},{"town":"錦町二丁目","koaza":"","lat":42.822072,"lng":141.64424,"zip":"0660064"},{"town":"錦町三丁目","koaza":"","lat":42.82312,"lng":141.642982,"zip":"0660064"},{"town":"錦町四丁目","koaza":"","lat":42.82469,"lng":141.640988,"zip":"0660064"},{"town":"西森","koaza":"","lat":42.770608,"lng":141.475567,"zip":"0660000"},{"town":"根志越","koaza":"","lat":42.863371,"lng":141.676715,"zip":"0660008"},{"town":"柏陽一丁目","koaza":"","lat":42.781005,"lng":141.59889,"zip":"0660054"},{"town":"柏陽二丁目","koaza":"","lat":42.781222,"lng":141.596315,"zip":"0660054"},{"town":"柏陽三丁目","koaza":"","lat":42.781363,"lng":141.593705,"zip":"0660054"},{"town":"柏陽四丁目","koaza":"","lat":42.781946,"lng":141.591175,"zip":"0660054"},{"town":"柏陽五丁目","koaza":"","lat":42.782296,"lng":141.588563,"zip":"0660054"},{"town":"花園一丁目","koaza":"","lat":42.831462,"lng":141.658,"zip":"0660028"},{"town":"花園二丁目","koaza":"","lat":42.833833,"lng":141.659039,"zip":"0660028"},{"town":"花園三丁目","koaza":"","lat":42.834744,"lng":141.65754,"zip":"0660028"},{"town":"花園四丁目","koaza":"","lat":42.835125,"lng":141.655881,"zip":"0660028"},{"town":"花園五丁目","koaza":"","lat":42.832541,"lng":141.655038,"zip":"0660028"},{"town":"花園六丁目","koaza":"","lat":42.833423,"lng":141.652551,"zip":"0660028"},{"town":"花園七丁目","koaza":"","lat":42.835815,"lng":141.654214,"zip":"0660028"},{"town":"東丘","koaza":"","lat":42.913334,"lng":141.828431,"zip":"0691181"},{"town":"日の出一丁目","koaza":"","lat":42.827318,"lng":141.670058,"zip":"0660017"},{"town":"日の出二丁目","koaza":"","lat":42.829845,"lng":141.672444,"zip":"0660017"},{"town":"日の出三丁目","koaza":"","lat":42.828353,"lng":141.673444,"zip":"0660017"},{"town":"日の出四丁目","koaza":"","lat":42.826463,"lng":141.676848,"zip":"0660017"},{"town":"日の出五丁目","koaza":"","lat":42.825546,"lng":141.67103,"zip":"0660017"},{"town":"日の出丘","koaza":"","lat":42.82546,"lng":141.674905,"zip":"0660016"},{"town":"美々","koaza":"","lat":42.783915,"lng":141.695934,"zip":"0660012"},{"town":"美笛","koaza":"","lat":42.713345,"lng":141.221272,"zip":"0660285"},{"town":"福住一丁目","koaza":"","lat":42.776855,"lng":141.598424,"zip":"0660053"},{"town":"福住二丁目","koaza":"","lat":42.777583,"lng":141.595915,"zip":"0660053"},{"town":"福住三丁目","koaza":"","lat":42.778266,"lng":141.593122,"zip":"0660053"},{"town":"福住四丁目","koaza":"","lat":42.779514,"lng":141.590392,"zip":"0660053"},{"town":"富士一丁目","koaza":"","lat":42.83572,"lng":141.62792,"zip":"0660039"},{"town":"富士二丁目","koaza":"","lat":42.837465,"lng":141.627716,"zip":"0660039"},{"town":"富士三丁目","koaza":"","lat":42.839746,"lng":141.629229,"zip":"0660039"},{"town":"富士四丁目","koaza":"","lat":42.8428,"lng":141.631268,"zip":"0660039"},{"town":"藤の沢","koaza":"","lat":42.767538,"lng":141.556261,"zip":"0660000"},{"town":"文京一丁目","koaza":"","lat":42.780333,"lng":141.602759,"zip":"0660052"},{"town":"文京二丁目","koaza":"","lat":42.7792,"lng":141.60753,"zip":"0660052"},{"town":"文京三丁目","koaza":"","lat":42.777362,"lng":141.602433,"zip":"0660052"},{"town":"文京四丁目","koaza":"","lat":42.776566,"lng":141.607349,"zip":"0660052"},{"town":"文京五丁目","koaza":"","lat":42.774044,"lng":141.602609,"zip":"0660052"},{"town":"文京六丁目","koaza":"","lat":42.773577,"lng":141.607148,"zip":"0660052"},{"town":"平和","koaza":"","lat":42.796052,"lng":141.654207,"zip":"0660044"},{"town":"北栄一丁目","koaza":"","lat":42.828307,"lng":141.64203,"zip":"0660036"},{"town":"北栄二丁目","koaza":"","lat":42.831237,"lng":141.644486,"zip":"0660036"},{"town":"北斗一丁目","koaza":"","lat":42.82638,"lng":141.637069,"zip":"0660073"},{"town":"北斗二丁目","koaza":"","lat":42.828737,"lng":141.634159,"zip":"0660073"},{"town":"北斗三丁目","koaza":"","lat":42.831193,"lng":141.630888,"zip":"0660073"},{"town":"北斗四丁目","koaza":"","lat":42.83269,"lng":141.628103,"zip":"0660073"},{"town":"北斗五丁目","koaza":"","lat":42.833022,"lng":141.624676,"zip":"0660073"},{"town":"北斗六丁目","koaza":"","lat":42.835229,"lng":141.626122,"zip":"0660073"},{"town":"北陽一丁目","koaza":"","lat":42.846062,"lng":141.641473,"zip":"0660032"},{"town":"北陽二丁目","koaza":"","lat":42.847284,"lng":141.638556,"zip":"0660032"},{"town":"北陽三丁目","koaza":"","lat":42.848407,"lng":141.635057,"zip":"0660032"},{"town":"北陽四丁目","koaza":"","lat":42.84955,"lng":141.632077,"zip":"0660032"},{"town":"北光一丁目","koaza":"","lat":42.841432,"lng":141.63804,"zip":"0660033"},{"town":"北光二丁目","koaza":"","lat":42.843951,"lng":141.639724,"zip":"0660033"},{"town":"北光三丁目","koaza":"","lat":42.843035,"lng":141.635484,"zip":"0660033"},{"town":"北光四丁目","koaza":"","lat":42.845039,"lng":141.636631,"zip":"0660033"},{"town":"北光五丁目","koaza":"","lat":42.84498,"lng":141.632769,"zip":"0660033"},{"town":"北光六丁目","koaza":"","lat":42.846177,"lng":141.63358,"zip":"0660033"},{"town":"北光七丁目","koaza":"","lat":42.847297,"lng":141.630527,"zip":"0660033"},{"town":"幌加","koaza":"","lat":42.908095,"lng":141.77565,"zip":"0691183"},{"town":"幌美内","koaza":"","lat":42.796163,"lng":141.321379,"zip":"0660287"},{"town":"本町一丁目","koaza":"","lat":42.819447,"lng":141.647731,"zip":"0660047"},{"town":"本町二丁目","koaza":"","lat":42.817704,"lng":141.649044,"zip":"0660047"},{"town":"本町三丁目","koaza":"","lat":42.818743,"lng":141.645244,"zip":"0660047"},{"town":"本町四丁目","koaza":"","lat":42.816886,"lng":141.647197,"zip":"0660047"},{"town":"本町五丁目","koaza":"","lat":42.815168,"lng":141.647972,"zip":"0660047"},{"town":"真々地一丁目","koaza":"","lat":42.814369,"lng":141.642268,"zip":"0660045"},{"town":"真々地二丁目","koaza":"","lat":42.813505,"lng":141.644974,"zip":"0660045"},{"town":"真々地三丁目","koaza":"","lat":42.811611,"lng":141.640309,"zip":"0660045"},{"town":"真々地四丁目","koaza":"","lat":42.812667,"lng":141.639789,"zip":"0660045"},{"town":"みどり台北一丁目","koaza":"","lat":42.861519,"lng":141.618642,"zip":"0660083"},{"town":"みどり台北二丁目","koaza":"","lat":42.862521,"lng":141.613903,"zip":"0660083"},{"town":"みどり台北三丁目","koaza":"","lat":42.864244,"lng":141.615047,"zip":"0660083"},{"town":"みどり台北四丁目","koaza":"","lat":42.863202,"lng":141.618043,"zip":"0660083"},{"town":"みどり台北五丁目","koaza":"","lat":42.8622,"lng":141.620984,"zip":"0660083"},{"town":"みどり台南一丁目","koaza":"","lat":42.856651,"lng":141.620711,"zip":"0660084"},{"town":"みどり台南二丁目","koaza":"","lat":42.858113,"lng":141.618178,"zip":"0660084"},{"town":"みどり台南三丁目","koaza":"","lat":42.860237,"lng":141.617497,"zip":"0660084"},{"town":"みどり台南四丁目","koaza":"","lat":42.859276,"lng":141.622372,"zip":"0660084"},{"town":"緑町一丁目","koaza":"","lat":42.823265,"lng":141.640187,"zip":"0660074"},{"town":"緑町二丁目","koaza":"","lat":42.824381,"lng":141.638726,"zip":"0660074"},{"town":"緑町三丁目","koaza":"","lat":42.822708,"lng":141.638661,"zip":"0660074"},{"town":"緑町四丁目","koaza":"","lat":42.823417,"lng":141.636891,"zip":"0660074"},{"town":"緑町五丁目","koaza":"","lat":42.822817,"lng":141.635358,"zip":"0660074"},{"town":"モラップ","koaza":"","lat":42.730351,"lng":141.386347,"zip":"0660283"},{"town":"紋別","koaza":"","lat":42.802866,"lng":141.41406,"zip":"0660000"},{"town":"大和一丁目","koaza":"","lat":42.819681,"lng":141.634039,"zip":"0660066"},{"town":"大和二丁目","koaza":"","lat":42.819409,"lng":141.630224,"zip":"0660066"},{"town":"大和三丁目","koaza":"","lat":42.820915,"lng":141.628038,"zip":"0660066"},{"town":"大和四丁目","koaza":"","lat":42.823686,"lng":141.631468,"zip":"0660066"},{"town":"弥生一丁目","koaza":"","lat":42.830437,"lng":141.68141,"zip":"0660024"},{"town":"弥生二丁目","koaza":"","lat":42.832845,"lng":141.680427,"zip":"0660024"},{"town":"弥生三丁目","koaza":"","lat":42.836025,"lng":141.679189,"zip":"0660024"},{"town":"勇舞七丁目","koaza":"","lat":42.856731,"lng":141.629179,"zip":"0660078"},{"town":"勇舞八丁目","koaza":"","lat":42.854397,"lng":141.627748,"zip":"0660078"},{"town":"蘭越","koaza":"","lat":42.815307,"lng":141.584574,"zip":"0660068"},{"town":"流通一丁目","koaza":"","lat":42.822038,"lng":141.675527,"zip":"0660019"},{"town":"流通二丁目","koaza":"","lat":42.824983,"lng":141.682911,"zip":"0660019"},{"town":"流通三丁目","koaza":"","lat":42.828359,"lng":141.686549,"zip":"0660019"},{"town":"若草一丁目","koaza":"","lat":42.798705,"lng":141.60431,"zip":"0660057"},{"town":"若草二丁目","koaza":"","lat":42.796793,"lng":141.602665,"zip":"0660057"},{"town":"若草三丁目","koaza":"","lat":42.794208,"lng":141.600869,"zip":"0660057"},{"town":"若草四丁目","koaza":"","lat":42.790973,"lng":141.600831,"zip":"0660057"},{"town":"若草五丁目","koaza":"","lat":42.791429,"lng":141.59748,"zip":"0660057"},{"town":"都","koaza":"","lat":42.864862,"lng":141.652005,"zip":"0660003"},{"town":"勇舞一丁目","koaza":"","lat":42.851149,"lng":141.636915,"zip":"0660078"},{"town":"勇舞二丁目","koaza":"","lat":42.853425,"lng":141.638454,"zip":"0660078"},{"town":"勇舞三丁目","koaza":"","lat":42.854456,"lng":141.635476,"zip":"0660078"},{"town":"勇舞四丁目","koaza":"","lat":42.852241,"lng":141.633949,"zip":"0660078"},{"town":"勇舞五丁目","koaza":"","lat":42.853423,"lng":141.631098,"zip":"0660078"},{"town":"勇舞六丁目","koaza":"","lat":42.855624,"lng":141.632447,"zip":"0660078"},{"town":"北陽八丁目","koaza":"","lat":42.852236,"lng":141.641952,"zip":"0660032"},{"town":"北陽六丁目","koaza":"","lat":42.850006,"lng":141.64055,"zip":"0660032"},{"town":"北陽五丁目","koaza":"","lat":42.84895,"lng":141.643712,"zip":"0660032"},{"town":"北陽七丁目","koaza":"","lat":42.851133,"lng":141.645081,"zip":"0660032"}]