[{"town":"愛冠","koaza":"","lat":43.023055,"lng":144.842425,"zip":"0881113"},{"town":"有明一丁目","koaza":"","lat":43.025333,"lng":144.850024,"zip":"0881112"},{"town":"有明二丁目","koaza":"","lat":43.025741,"lng":144.854007,"zip":"0881112"},{"town":"糸魚沢","koaza":"","lat":43.122771,"lng":144.943342,"zip":"0881101"},{"town":"太田一の通り","koaza":"","lat":43.091075,"lng":144.7583,"zip":"0881100"},{"town":"太田二の通り","koaza":"","lat":43.094202,"lng":144.761968,"zip":"0881100"},{"town":"太田三の通り","koaza":"","lat":43.097493,"lng":144.765564,"zip":"0881100"},{"town":"太田四の通り","koaza":"","lat":43.101072,"lng":144.769478,"zip":"0881100"},{"town":"太田五の通り","koaza":"","lat":43.100893,"lng":144.779794,"zip":"0881100"},{"town":"太田六の通り","koaza":"","lat":43.104251,"lng":144.783142,"zip":"0881100"},{"town":"太田七の通り","koaza":"","lat":43.106038,"lng":144.789684,"zip":"0881100"},{"town":"太田八の通り","koaza":"","lat":43.107449,"lng":144.797613,"zip":"0881100"},{"town":"太田九の通り","koaza":"","lat":43.109882,"lng":144.80389,"zip":"0881100"},{"town":"太田北","koaza":"","lat":43.120732,"lng":144.777963,"zip":"0881135"},{"town":"太田宏陽","koaza":"","lat":43.068466,"lng":144.788128,"zip":"0881133"},{"town":"太田西","koaza":"","lat":43.087087,"lng":144.75114,"zip":"0881134"},{"town":"太田東","koaza":"","lat":43.088968,"lng":144.818987,"zip":"0881132"},{"town":"太田南","koaza":"","lat":43.080623,"lng":144.800352,"zip":"0881130"},{"town":"大別","koaza":"","lat":43.138242,"lng":144.760797,"zip":"0881136"},{"town":"沖万別","koaza":"","lat":43.017525,"lng":144.740102,"zip":"0880876"},{"town":"御供","koaza":"","lat":43.037779,"lng":144.853277,"zip":"0881117"},{"town":"乙幌","koaza":"","lat":43.073017,"lng":144.751394,"zip":"0880873"},{"town":"尾幌","koaza":"","lat":43.019633,"lng":144.695029,"zip":"0880871"},{"town":"片無去","koaza":"","lat":43.110377,"lng":144.709174,"zip":"0881137"},{"town":"上尾幌","koaza":"","lat":43.027949,"lng":144.614522,"zip":"0880771"},{"town":"神岩","koaza":"","lat":43.069929,"lng":144.885384,"zip":"0881101"},{"town":"光栄","koaza":"","lat":43.078475,"lng":144.813643,"zip":"0881129"},{"town":"小島","koaza":"","lat":42.974819,"lng":144.879361,"zip":"0881103"},{"town":"サッテベツ","koaza":"","lat":43.136433,"lng":144.823702,"zip":"0881139"},{"town":"サンヌシ","koaza":"","lat":43.098315,"lng":144.854031,"zip":"0881140"},{"town":"白浜一丁目","koaza":"","lat":43.06014,"lng":144.818019,"zip":"0881125"},{"town":"白浜二丁目","koaza":"","lat":43.062393,"lng":144.807121,"zip":"0881125"},{"town":"白浜三丁目","koaza":"","lat":43.064966,"lng":144.816864,"zip":"0881125"},{"town":"白浜四丁目","koaza":"","lat":43.071584,"lng":144.812341,"zip":"0881125"},{"town":"真栄一丁目","koaza":"","lat":43.054807,"lng":144.843322,"zip":"0881151"},{"town":"真栄二丁目","koaza":"","lat":43.053531,"lng":144.846382,"zip":"0881151"},{"town":"真栄三丁目","koaza":"","lat":43.051609,"lng":144.848008,"zip":"0881151"},{"town":"住の江一丁目","koaza":"","lat":43.058617,"lng":144.847837,"zip":"0881119"},{"town":"住の江二丁目","koaza":"","lat":43.058539,"lng":144.844793,"zip":"0881119"},{"town":"住の江三丁目","koaza":"","lat":43.061322,"lng":144.847026,"zip":"0881119"},{"town":"セタニウシ","koaza":"","lat":43.166935,"lng":144.782538,"zip":"0881138"},{"town":"大黒島","koaza":"","lat":42.955403,"lng":144.873195,"zip":"0881104"},{"town":"筑紫恋","koaza":"","lat":43.014873,"lng":144.856928,"zip":"0881108"},{"town":"チライカリベツ","koaza":"","lat":43.104898,"lng":144.962411,"zip":"0881101"},{"town":"東梅","koaza":"","lat":43.019521,"lng":144.918276,"zip":"0881106"},{"town":"登喜岱","koaza":"","lat":43.025532,"lng":144.96961,"zip":"0881102"},{"town":"床潭","koaza":"","lat":43.001648,"lng":144.866831,"zip":"0881107"},{"town":"苫多","koaza":"","lat":43.028619,"lng":144.747166,"zip":"0880875"},{"town":"トライベツ","koaza":"","lat":43.222897,"lng":144.920819,"zip":"0881389"},{"town":"梅香一丁目","koaza":"","lat":43.032988,"lng":144.849453,"zip":"0881115"},{"town":"梅香二丁目","koaza":"","lat":43.036178,"lng":144.850243,"zip":"0881115"},{"town":"敏内","koaza":"","lat":43.001286,"lng":144.727595,"zip":"0880877"},{"town":"別寒辺牛","koaza":"","lat":43.20361,"lng":144.851767,"zip":"0881101"},{"town":"ホロニタイ","koaza":"","lat":43.062805,"lng":144.923008,"zip":"0881101"},{"town":"奔渡一丁目","koaza":"","lat":43.044215,"lng":144.852648,"zip":"0881111"},{"town":"奔渡二丁目","koaza":"","lat":43.041451,"lng":144.85467,"zip":"0881111"},{"town":"奔渡三丁目","koaza":"","lat":43.039606,"lng":144.856612,"zip":"0881111"},{"town":"奔渡四丁目","koaza":"","lat":43.037054,"lng":144.857919,"zip":"0881111"},{"town":"奔渡五丁目","koaza":"","lat":43.034044,"lng":144.858987,"zip":"0881111"},{"town":"奔渡六丁目","koaza":"","lat":43.031501,"lng":144.861097,"zip":"0881111"},{"town":"奔渡七丁目","koaza":"","lat":43.025891,"lng":144.873558,"zip":"0881111"},{"town":"松葉一丁目","koaza":"","lat":43.037217,"lng":144.845679,"zip":"0881116"},{"town":"松葉二丁目","koaza":"","lat":43.038668,"lng":144.847171,"zip":"0881116"},{"town":"松葉三丁目","koaza":"","lat":43.040829,"lng":144.848932,"zip":"0881116"},{"town":"松葉四丁目","koaza":"","lat":43.043552,"lng":144.850631,"zip":"0881116"},{"town":"末広","koaza":"","lat":42.990036,"lng":144.906895,"zip":"0881105"},{"town":"港町一丁目","koaza":"","lat":43.056163,"lng":144.84854,"zip":"0881128"},{"town":"港町二丁目","koaza":"","lat":43.053939,"lng":144.850458,"zip":"0881128"},{"town":"港町三丁目","koaza":"","lat":43.05245,"lng":144.852824,"zip":"0881128"},{"town":"港町四丁目","koaza":"","lat":43.049981,"lng":144.856348,"zip":"0881128"},{"town":"港町五丁目","koaza":"","lat":43.049875,"lng":144.852083,"zip":"0881128"},{"town":"宮園一丁目","koaza":"","lat":43.057691,"lng":144.830641,"zip":"0881124"},{"town":"宮園二丁目","koaza":"","lat":43.065971,"lng":144.836163,"zip":"0881124"},{"town":"宮園三丁目","koaza":"","lat":43.068622,"lng":144.826605,"zip":"0881124"},{"town":"宮園四丁目","koaza":"","lat":43.074717,"lng":144.821419,"zip":"0881124"},{"town":"門静一丁目","koaza":"","lat":43.06013,"lng":144.797154,"zip":"0880874"},{"town":"門静二丁目","koaza":"","lat":43.060045,"lng":144.786119,"zip":"0880874"},{"town":"門静三丁目","koaza":"","lat":43.055423,"lng":144.78202,"zip":"0880874"},{"town":"門静四丁目","koaza":"","lat":43.055043,"lng":144.765066,"zip":"0880874"},{"town":"山の手一丁目","koaza":"","lat":43.058557,"lng":144.841868,"zip":"0881120"},{"town":"山の手二丁目","koaza":"","lat":43.061808,"lng":144.843565,"zip":"0881120"},{"town":"山の手三丁目","koaza":"","lat":43.069152,"lng":144.841224,"zip":"0881120"},{"town":"来別","koaza":"","lat":43.049225,"lng":144.703991,"zip":"0880872"},{"town":"ルークシュポール","koaza":"","lat":42.997371,"lng":144.650356,"zip":"0880878"},{"town":"若竹一丁目","koaza":"","lat":43.039542,"lng":144.840663,"zip":"0881118"},{"town":"若竹二丁目","koaza":"","lat":43.039375,"lng":144.844924,"zip":"0881118"},{"town":"若竹三丁目","koaza":"","lat":43.042698,"lng":144.846846,"zip":"0881118"},{"town":"若竹四丁目","koaza":"","lat":43.043854,"lng":144.848296,"zip":"0881118"},{"town":"若松","koaza":"","lat":43.16032,"lng":144.902432,"zip":"0881101"},{"town":"湾月一丁目","koaza":"","lat":43.032841,"lng":144.838581,"zip":"0881114"},{"town":"湾月二丁目","koaza":"","lat":43.033709,"lng":144.843012,"zip":"0881114"},{"town":"湾月三丁目","koaza":"","lat":43.035989,"lng":144.843969,"zip":"0881114"},{"town":"住の江四丁目","koaza":"","lat":43.069132,"lng":144.848538,"zip":"0881119"}]