[{"town":"赤泊","koaza":"","lat":43.142463,"lng":145.184848,"zip":"0881406"},{"town":"姉別一丁目","koaza":"","lat":43.194077,"lng":145.194291,"zip":"0881646"},{"town":"姉別二丁目","koaza":"","lat":43.195805,"lng":145.19288,"zip":"0881646"},{"town":"姉別三丁目","koaza":"","lat":43.197053,"lng":145.195667,"zip":"0881646"},{"town":"姉別基線","koaza":"","lat":43.228289,"lng":145.166598,"zip":"0881641"},{"town":"姉別北","koaza":"","lat":43.246291,"lng":145.164676,"zip":"0881648"},{"town":"姉別北一線","koaza":"","lat":43.230902,"lng":145.162496,"zip":"0881500"},{"town":"姉別北二線","koaza":"","lat":43.236395,"lng":145.160995,"zip":"0881500"},{"town":"姉別北三線","koaza":"","lat":43.236216,"lng":145.148915,"zip":"0881500"},{"town":"姉別南","koaza":"","lat":43.191018,"lng":145.2196,"zip":"0881647"},{"town":"姉別南一線","koaza":"","lat":43.223534,"lng":145.172641,"zip":"0881500"},{"town":"姉別南二線","koaza":"","lat":43.217199,"lng":145.169189,"zip":"0881500"},{"town":"姉別南三線","koaza":"","lat":43.212044,"lng":145.167814,"zip":"0881500"},{"town":"姉別南四線","koaza":"","lat":43.20829,"lng":145.170639,"zip":"0881500"},{"town":"姉別南五線","koaza":"","lat":43.202727,"lng":145.176165,"zip":"0881500"},{"town":"姉別南六線","koaza":"","lat":43.199616,"lng":145.182925,"zip":"0881500"},{"town":"姉別南七線","koaza":"","lat":43.202379,"lng":145.207882,"zip":"0881500"},{"town":"姉別南八線","koaza":"","lat":43.197941,"lng":145.208412,"zip":"0881500"},{"town":"姉別緑栄","koaza":"","lat":43.182382,"lng":145.171492,"zip":"0881649"},{"town":"一番沢","koaza":"","lat":43.052713,"lng":145.0403,"zip":"0881301"},{"town":"羨古丹","koaza":"","lat":43.157023,"lng":145.188563,"zip":"0881406"},{"town":"恵茶人","koaza":"","lat":43.180167,"lng":145.279588,"zip":"0881644"},{"town":"円朱別西十線","koaza":"","lat":43.226683,"lng":145.047813,"zip":"0881500"},{"town":"円朱別西三線","koaza":"","lat":43.209951,"lng":145.090551,"zip":"0881500"},{"town":"円朱別西四線","koaza":"","lat":43.213775,"lng":145.087837,"zip":"0881500"},{"town":"円朱別西五線","koaza":"","lat":43.215741,"lng":145.081482,"zip":"0881500"},{"town":"円朱別西六線","koaza":"","lat":43.216159,"lng":145.0731,"zip":"0881500"},{"town":"円朱別西七線","koaza":"","lat":43.219663,"lng":145.067923,"zip":"0881500"},{"town":"円朱別西八線","koaza":"","lat":43.221043,"lng":145.060684,"zip":"0881500"},{"town":"円朱別西九線","koaza":"","lat":43.225006,"lng":145.057111,"zip":"0881500"},{"town":"大津屋沢","koaza":"","lat":43.134186,"lng":145.098424,"zip":"0881408"},{"town":"北の沢","koaza":"","lat":43.065154,"lng":145.008736,"zip":"0881500"},{"town":"霧多布湿原","koaza":"","lat":43.084839,"lng":145.079293,"zip":"0881561"},{"town":"霧多布西一条一丁目","koaza":"","lat":43.080885,"lng":145.126035,"zip":"0881551"},{"town":"霧多布西一条二丁目","koaza":"","lat":43.080769,"lng":145.121521,"zip":"0881551"},{"town":"霧多布西二条一丁目","koaza":"","lat":43.079132,"lng":145.127045,"zip":"0881552"},{"town":"霧多布西二条二丁目","koaza":"","lat":43.078297,"lng":145.122854,"zip":"0881552"},{"town":"霧多布西三条一丁目","koaza":"","lat":43.077892,"lng":145.127104,"zip":"0881553"},{"town":"霧多布西三条二丁目","koaza":"","lat":43.077581,"lng":145.124679,"zip":"0881553"},{"town":"霧多布西四条一丁目","koaza":"","lat":43.074702,"lng":145.128493,"zip":"0881554"},{"town":"霧多布東一条一丁目","koaza":"","lat":43.081076,"lng":145.129698,"zip":"0881511"},{"town":"霧多布東一条二丁目","koaza":"","lat":43.082087,"lng":145.13316,"zip":"0881511"},{"town":"霧多布東二条一丁目","koaza":"","lat":43.07968,"lng":145.130194,"zip":"0881512"},{"town":"霧多布東二条二丁目","koaza":"","lat":43.080473,"lng":145.134296,"zip":"0881512"},{"town":"霧多布東三条一丁目","koaza":"","lat":43.078572,"lng":145.130553,"zip":"0881513"},{"town":"霧多布東三条二丁目","koaza":"","lat":43.079551,"lng":145.134239,"zip":"0881513"},{"town":"霧多布東四条一丁目","koaza":"","lat":43.077263,"lng":145.130874,"zip":"0881514"},{"town":"鯨浜","koaza":"","lat":42.995001,"lng":144.998938,"zip":"0881500"},{"town":"熊牛基線","koaza":"","lat":43.204644,"lng":145.113533,"zip":"0881500"},{"town":"熊牛西一線","koaza":"","lat":43.208815,"lng":145.108566,"zip":"0881500"},{"town":"熊牛西二線","koaza":"","lat":43.212183,"lng":145.101223,"zip":"0881500"},{"town":"熊牛西三線","koaza":"","lat":43.222193,"lng":145.108641,"zip":"0881500"},{"town":"熊牛東一線","koaza":"","lat":43.200008,"lng":145.117219,"zip":"0881500"},{"town":"熊牛東二線","koaza":"","lat":43.19686,"lng":145.12336,"zip":"0881500"},{"town":"熊牛東三線","koaza":"","lat":43.195012,"lng":145.129921,"zip":"0881500"},{"town":"熊牛東四線","koaza":"","lat":43.189601,"lng":145.132574,"zip":"0881500"},{"town":"熊牛東五線","koaza":"","lat":43.18646,"lng":145.13786,"zip":"0881500"},{"town":"熊牛東六線","koaza":"","lat":43.180681,"lng":145.14322,"zip":"0881500"},{"town":"嶮暮帰","koaza":"","lat":43.049186,"lng":145.104688,"zip":"0881500"},{"town":"厚陽","koaza":"","lat":43.208107,"lng":145.26818,"zip":"0860081"},{"town":"小島","koaza":"","lat":43.063605,"lng":145.122723,"zip":"0881500"},{"town":"榊町","koaza":"","lat":43.11314,"lng":145.109224,"zip":"0881401"},{"town":"榊町西","koaza":"","lat":43.114743,"lng":145.103336,"zip":"0881407"},{"town":"三番沢","koaza":"","lat":43.080042,"lng":145.035358,"zip":"0881303"},{"town":"後静","koaza":"","lat":43.136026,"lng":145.120039,"zip":"0881402"},{"town":"新川","koaza":"","lat":43.096493,"lng":145.092653,"zip":"0881526"},{"town":"新川西一丁目","koaza":"","lat":43.083109,"lng":145.100096,"zip":"0881528"},{"town":"新川東一丁目","koaza":"","lat":43.080472,"lng":145.110987,"zip":"0881527"},{"town":"新川東二丁目","koaza":"","lat":43.083482,"lng":145.106925,"zip":"0881527"},{"town":"仙鳳趾","koaza":"","lat":43.142897,"lng":145.218521,"zip":"0881645"},{"town":"茶内旭一丁目","koaza":"","lat":43.131522,"lng":145.034921,"zip":"0881367"},{"town":"茶内旭二丁目","koaza":"","lat":43.12831,"lng":145.032467,"zip":"0881367"},{"town":"茶内旭三丁目","koaza":"","lat":43.124499,"lng":145.028223,"zip":"0881367"},{"town":"茶内基線","koaza":"","lat":43.146349,"lng":145.047883,"zip":"0881368"},{"town":"茶内橋北西","koaza":"","lat":43.132237,"lng":145.019223,"zip":"0881366"},{"town":"茶内橋北東","koaza":"","lat":43.135421,"lng":145.022218,"zip":"0881365"},{"town":"茶内栄","koaza":"","lat":43.132002,"lng":145.028899,"zip":"0881363"},{"town":"茶内西","koaza":"","lat":43.153007,"lng":144.95535,"zip":"0881369"},{"town":"茶内西十線","koaza":"","lat":43.185534,"lng":145.003989,"zip":"0881500"},{"town":"茶内西十一線","koaza":"","lat":43.186134,"lng":144.995121,"zip":"0881500"},{"town":"茶内西十二線","koaza":"","lat":43.186913,"lng":144.987799,"zip":"0881500"},{"town":"茶内西十三線","koaza":"","lat":43.190638,"lng":144.982858,"zip":"0881500"},{"town":"茶内西十四線","koaza":"","lat":43.183373,"lng":144.966373,"zip":"0881500"},{"town":"茶内西十五線","koaza":"","lat":43.185276,"lng":144.960437,"zip":"0881500"},{"town":"茶内西十六線","koaza":"","lat":43.186827,"lng":144.953203,"zip":"0881500"},{"town":"茶内西十七線","koaza":"","lat":43.180491,"lng":144.938755,"zip":"0881500"},{"town":"茶内西一線","koaza":"","lat":43.149037,"lng":145.042151,"zip":"0881500"},{"town":"茶内西二線","koaza":"","lat":43.151671,"lng":145.03716,"zip":"0881500"},{"town":"茶内西三線","koaza":"","lat":43.157494,"lng":145.033773,"zip":"0881500"},{"town":"茶内西四線","koaza":"","lat":43.16071,"lng":145.028243,"zip":"0881500"},{"town":"茶内西五線","koaza":"","lat":43.162815,"lng":145.023135,"zip":"0881500"},{"town":"茶内西六線","koaza":"","lat":43.167066,"lng":145.018952,"zip":"0881500"},{"town":"茶内西七線","koaza":"","lat":43.169774,"lng":145.012365,"zip":"0881500"},{"town":"茶内西八線","koaza":"","lat":43.17591,"lng":145.010257,"zip":"0881500"},{"town":"茶内西九線","koaza":"","lat":43.177317,"lng":145.003649,"zip":"0881500"},{"town":"茶内東一線","koaza":"","lat":43.124385,"lng":145.036981,"zip":"0881500"},{"town":"茶内東二線","koaza":"","lat":43.108278,"lng":145.025632,"zip":"0881500"},{"town":"茶内東三線","koaza":"","lat":43.143464,"lng":145.07037,"zip":"0881500"},{"town":"茶内東四線","koaza":"","lat":43.140602,"lng":145.077429,"zip":"0881500"},{"town":"茶内東五線","koaza":"","lat":43.137449,"lng":145.080517,"zip":"0881500"},{"town":"茶内東六線","koaza":"","lat":43.134779,"lng":145.087201,"zip":"0881500"},{"town":"茶内緑","koaza":"","lat":43.128032,"lng":145.023884,"zip":"0881361"},{"town":"茶内本町","koaza":"","lat":43.131436,"lng":145.025607,"zip":"0881362"},{"town":"茶内若葉一丁目","koaza":"","lat":43.135506,"lng":145.029672,"zip":"0881364"},{"town":"茶内若葉二丁目","koaza":"","lat":43.134687,"lng":145.030874,"zip":"0881364"},{"town":"茶内若葉三丁目","koaza":"","lat":43.134426,"lng":145.032798,"zip":"0881364"},{"town":"湯沸","koaza":"","lat":43.076257,"lng":145.142637,"zip":"0881522"},{"town":"道有林","koaza":"","lat":43.07684,"lng":145.021959,"zip":"0881571"},{"town":"仲の浜","koaza":"","lat":43.073108,"lng":145.088922,"zip":"0881531"},{"town":"西円朱別西十四線","koaza":"","lat":43.212142,"lng":144.997735,"zip":"0881500"},{"town":"西円朱別西十五線","koaza":"","lat":43.214035,"lng":144.991833,"zip":"0881500"},{"town":"西円朱別西十六線","koaza":"","lat":43.209178,"lng":144.9804,"zip":"0881500"},{"town":"西円朱別西十七線","koaza":"","lat":43.210474,"lng":144.969622,"zip":"0881500"},{"town":"西円朱別西十八線","koaza":"","lat":43.212514,"lng":144.963216,"zip":"0881500"},{"town":"西円朱別西十九線","koaza":"","lat":43.219815,"lng":144.962409,"zip":"0881500"},{"town":"西円朱別西二十線","koaza":"","lat":43.224845,"lng":144.958937,"zip":"0881500"},{"town":"西円朱別西二十一線","koaza":"","lat":43.22783,"lng":144.950466,"zip":"0881500"},{"town":"西円朱別西二十二線","koaza":"","lat":43.232012,"lng":144.948407,"zip":"0881500"},{"town":"西円朱別西二十三線","koaza":"","lat":43.234143,"lng":144.942619,"zip":"0881500"},{"town":"西円朱別西二十四線","koaza":"","lat":43.237355,"lng":144.937936,"zip":"0881500"},{"town":"西円朱別西二十五線","koaza":"","lat":43.242432,"lng":144.93436,"zip":"0881500"},{"town":"西円朱別西二十六線","koaza":"","lat":43.242127,"lng":144.925132,"zip":"0881500"},{"town":"西円朱別西二十七線","koaza":"","lat":43.243264,"lng":144.91772,"zip":"0881500"},{"town":"二番沢","koaza":"","lat":43.069505,"lng":145.032919,"zip":"0881302"},{"town":"走古潭","koaza":"","lat":43.121018,"lng":145.082182,"zip":"0881409"},{"town":"浜中基線","koaza":"","lat":43.176501,"lng":145.082299,"zip":"0881500"},{"town":"浜中桜北","koaza":"","lat":43.158809,"lng":145.101625,"zip":"0881500"},{"town":"浜中桜西","koaza":"","lat":43.154148,"lng":145.099741,"zip":"0881500"},{"town":"浜中桜東","koaza":"","lat":43.157574,"lng":145.105847,"zip":"0881500"},{"town":"浜中桜南","koaza":"","lat":43.153016,"lng":145.102585,"zip":"0881500"},{"town":"浜中西一線","koaza":"","lat":43.179566,"lng":145.074098,"zip":"0881500"},{"town":"浜中西二線","koaza":"","lat":43.18328,"lng":145.072342,"zip":"0881500"},{"town":"浜中西三線","koaza":"","lat":43.179514,"lng":145.061412,"zip":"0881500"},{"town":"浜中東","koaza":"","lat":43.156774,"lng":145.127053,"zip":"0881500"},{"town":"浜中東一線","koaza":"","lat":43.173661,"lng":145.089306,"zip":"0881500"},{"town":"浜中東二線","koaza":"","lat":43.170151,"lng":145.095234,"zip":"0881500"},{"town":"浜中東三線","koaza":"","lat":43.167002,"lng":145.098254,"zip":"0881500"},{"town":"浜中東四線","koaza":"","lat":43.164008,"lng":145.103171,"zip":"0881500"},{"town":"浜中東五線","koaza":"","lat":43.168487,"lng":145.118299,"zip":"0881500"},{"town":"浜中東六線","koaza":"","lat":43.158264,"lng":145.113225,"zip":"0881500"},{"town":"火散布","koaza":"","lat":43.047785,"lng":145.006756,"zip":"0881536"},{"town":"琵琶瀬","koaza":"","lat":43.055007,"lng":145.078316,"zip":"0881532"},{"town":"暮帰別西一丁目","koaza":"","lat":43.086879,"lng":145.105958,"zip":"0881525"},{"town":"暮帰別西二丁目","koaza":"","lat":43.090939,"lng":145.102474,"zip":"0881525"},{"town":"暮帰別西三丁目","koaza":"","lat":43.095022,"lng":145.101554,"zip":"0881525"},{"town":"暮帰別東一丁目","koaza":"","lat":43.085075,"lng":145.111973,"zip":"0881524"},{"town":"暮帰別東二丁目","koaza":"","lat":43.09154,"lng":145.109561,"zip":"0881524"},{"town":"暮帰別東三丁目","koaza":"","lat":43.097734,"lng":145.10808,"zip":"0881524"},{"town":"幌戸","koaza":"","lat":43.154027,"lng":145.145633,"zip":"0881403"},{"town":"奔幌戸","koaza":"","lat":43.161382,"lng":145.164199,"zip":"0881405"},{"town":"丸山散布","koaza":"","lat":43.03182,"lng":145.010955,"zip":"0881537"},{"town":"丸山散布一丁目","koaza":"","lat":43.033043,"lng":145.017227,"zip":"0881537"},{"town":"丸山散布二丁目","koaza":"","lat":43.034936,"lng":145.012953,"zip":"0881537"},{"town":"貰人","koaza":"","lat":43.154326,"lng":145.218927,"zip":"0881643"},{"town":"藻散布","koaza":"","lat":43.01792,"lng":145.010258,"zip":"0881538"},{"town":"養老散布","koaza":"","lat":43.032147,"lng":145.038005,"zip":"0881535"},{"town":"四番沢","koaza":"","lat":43.085565,"lng":145.059243,"zip":"0881304"},{"town":"六番沢","koaza":"","lat":43.112818,"lng":145.063116,"zip":"0881306"},{"town":"渡散布","koaza":"","lat":43.039139,"lng":145.054941,"zip":"0881534"}]