[{"town":"阿分","koaza":"","lat":43.871273,"lng":141.630987,"zip":"0770131"},{"town":"稲葉海岸町","koaza":"","lat":43.858628,"lng":141.522866,"zip":"0770203"},{"town":"稲葉町一丁目","koaza":"","lat":43.857811,"lng":141.523807,"zip":"0770204"},{"town":"稲葉町二丁目","koaza":"","lat":43.85713,"lng":141.523972,"zip":"0770204"},{"town":"稲葉町三丁目","koaza":"","lat":43.856534,"lng":141.524124,"zip":"0770204"},{"town":"稲葉町四丁目","koaza":"","lat":43.855604,"lng":141.52428,"zip":"0770204"},{"town":"岩尾","koaza":"","lat":43.78098,"lng":141.398556,"zip":"0770345"},{"town":"岩老","koaza":"","lat":43.773619,"lng":141.372618,"zip":"0770344"},{"town":"永寿町一丁目","koaza":"","lat":43.857348,"lng":141.522142,"zip":"0770201"},{"town":"永寿町二丁目","koaza":"","lat":43.856787,"lng":141.522456,"zip":"0770201"},{"town":"永寿町三丁目","koaza":"","lat":43.856232,"lng":141.522777,"zip":"0770201"},{"town":"永寿町四丁目","koaza":"","lat":43.855493,"lng":141.523045,"zip":"0770201"},{"town":"永寿町五丁目","koaza":"","lat":43.855232,"lng":141.523638,"zip":"0770201"},{"town":"雄冬","koaza":"","lat":43.747385,"lng":141.349353,"zip":"0770341"},{"town":"御料","koaza":"","lat":43.800777,"lng":141.685748,"zip":"0770134"},{"town":"栄町","koaza":"","lat":43.858284,"lng":141.518557,"zip":"0770218"},{"town":"七源町","koaza":"","lat":43.857778,"lng":141.51955,"zip":"0770212"},{"town":"舎熊","koaza":"","lat":43.79493,"lng":141.585612,"zip":"0770209"},{"town":"暑寒海岸町","koaza":"","lat":43.8563,"lng":141.514692,"zip":"0770211"},{"town":"暑寒沢","koaza":"","lat":43.7679,"lng":141.489376,"zip":"0770216"},{"town":"暑寒町一丁目","koaza":"","lat":43.853453,"lng":141.513244,"zip":"0770215"},{"town":"暑寒町二丁目","koaza":"","lat":43.855016,"lng":141.515752,"zip":"0770215"},{"town":"暑寒町三丁目","koaza":"","lat":43.854443,"lng":141.516027,"zip":"0770215"},{"town":"暑寒町四丁目","koaza":"","lat":43.853766,"lng":141.515788,"zip":"0770215"},{"town":"暑寒町五丁目","koaza":"","lat":43.85244,"lng":141.515066,"zip":"0770215"},{"town":"中歌","koaza":"","lat":43.8547,"lng":141.544771,"zip":"0770206"},{"town":"野塚町","koaza":"","lat":43.858047,"lng":141.521872,"zip":"0770202"},{"town":"信砂","koaza":"","lat":43.792508,"lng":141.636412,"zip":"0770133"},{"town":"箸別","koaza":"","lat":43.85353,"lng":141.553029,"zip":"0770207"},{"town":"畠中北町","koaza":"","lat":43.857258,"lng":141.519642,"zip":"0770213"},{"town":"畠中町一丁目","koaza":"","lat":43.856692,"lng":141.519726,"zip":"0770214"},{"town":"畠中町二丁目","koaza":"","lat":43.856059,"lng":141.519806,"zip":"0770214"},{"town":"畠中町三丁目","koaza":"","lat":43.855489,"lng":141.520082,"zip":"0770214"},{"town":"畠中町四丁目","koaza":"","lat":43.8549,"lng":141.520376,"zip":"0770214"},{"town":"畠中町五丁目","koaza":"","lat":43.85437,"lng":141.521064,"zip":"0770214"},{"town":"別苅","koaza":"","lat":43.782648,"lng":141.449355,"zip":"0770217"},{"town":"弁天町一丁目","koaza":"","lat":43.857642,"lng":141.526632,"zip":"0770205"},{"town":"弁天町二丁目","koaza":"","lat":43.856914,"lng":141.5267,"zip":"0770205"},{"town":"弁天町三丁目","koaza":"","lat":43.856297,"lng":141.525768,"zip":"0770205"},{"town":"弁天町四丁目","koaza":"","lat":43.85564,"lng":141.525903,"zip":"0770205"},{"town":"弁天町五丁目","koaza":"","lat":43.854971,"lng":141.526018,"zip":"0770205"},{"town":"港町","koaza":"","lat":43.85675,"lng":141.528436,"zip":"0770221"},{"town":"南永寿町一丁目","koaza":"","lat":43.8545,"lng":141.523723,"zip":"0770223"},{"town":"南永寿町二丁目","koaza":"","lat":43.852869,"lng":141.524359,"zip":"0770223"},{"town":"南永寿町三丁目","koaza":"","lat":43.85059,"lng":141.525345,"zip":"0770223"},{"town":"南暑寒町一丁目","koaza":"","lat":43.852728,"lng":141.517632,"zip":"0770225"},{"town":"南暑寒町二丁目","koaza":"","lat":43.85199,"lng":141.517692,"zip":"0770225"},{"town":"南暑寒町三丁目","koaza":"","lat":43.851536,"lng":141.518838,"zip":"0770225"},{"town":"南暑寒町四丁目","koaza":"","lat":43.850997,"lng":141.51862,"zip":"0770225"},{"town":"南暑寒町五丁目","koaza":"","lat":43.850166,"lng":141.516095,"zip":"0770225"},{"town":"南暑寒町六丁目","koaza":"","lat":43.848767,"lng":141.516287,"zip":"0770225"},{"town":"南暑寒町七丁目","koaza":"","lat":43.849372,"lng":141.519252,"zip":"0770225"},{"town":"南暑寒町八丁目","koaza":"","lat":43.848668,"lng":141.519006,"zip":"0770225"},{"town":"南暑寒町九丁目","koaza":"","lat":43.848123,"lng":141.519374,"zip":"0770225"},{"town":"南畠中町一丁目","koaza":"","lat":43.85357,"lng":141.521013,"zip":"0770224"},{"town":"南畠中町二丁目","koaza":"","lat":43.852921,"lng":141.521324,"zip":"0770224"},{"town":"南畠中町三丁目","koaza":"","lat":43.852336,"lng":141.521606,"zip":"0770224"},{"town":"南畠中町四丁目","koaza":"","lat":43.851823,"lng":141.521852,"zip":"0770224"},{"town":"南畠中町五丁目","koaza":"","lat":43.85135,"lng":141.522078,"zip":"0770224"},{"town":"南畠中町六丁目","koaza":"","lat":43.850833,"lng":141.522353,"zip":"0770224"},{"town":"南畠中町七丁目","koaza":"","lat":43.850272,"lng":141.52265,"zip":"0770224"},{"town":"南畠中町八丁目","koaza":"","lat":43.849678,"lng":141.522941,"zip":"0770224"},{"town":"南畠中町九丁目","koaza":"","lat":43.849103,"lng":141.523214,"zip":"0770224"},{"town":"見晴町","koaza":"","lat":43.851786,"lng":141.545372,"zip":"0770222"},{"town":"湯の沢","koaza":"","lat":43.783132,"lng":141.553672,"zip":"0770208"}]