[{"town":"朝日町岩尾内","koaza":"","lat":44.099007,"lng":142.781584,"zip":"0950403"},{"town":"朝日町三栄","koaza":"","lat":44.043857,"lng":142.663724,"zip":"0950405"},{"town":"朝日町中央","koaza":"","lat":44.138388,"lng":142.601033,"zip":"0950401"},{"town":"朝日町登和里","koaza":"","lat":44.13265,"lng":142.672864,"zip":"0950402"},{"town":"朝日町南朝日","koaza":"","lat":44.051997,"lng":142.60589,"zip":"0950406"},{"town":"朝日町茂志利","koaza":"","lat":43.999452,"lng":142.805505,"zip":"0950404"},{"town":"大通北一丁目","koaza":"","lat":44.18133,"lng":142.39032,"zip":"0950039"},{"town":"大通北二丁目","koaza":"","lat":44.182222,"lng":142.39004,"zip":"0950039"},{"town":"大通北三丁目","koaza":"","lat":44.183498,"lng":142.390409,"zip":"0950039"},{"town":"大通北四丁目","koaza":"","lat":44.183452,"lng":142.389131,"zip":"0950039"},{"town":"大通北五丁目","koaza":"","lat":44.184265,"lng":142.389041,"zip":"0950039"},{"town":"大通北六丁目","koaza":"","lat":44.184961,"lng":142.388673,"zip":"0950039"},{"town":"大通北七丁目","koaza":"","lat":44.186223,"lng":142.389813,"zip":"0950039"},{"town":"大通北八丁目","koaza":"","lat":44.187294,"lng":142.389199,"zip":"0950039"},{"town":"大通北九丁目","koaza":"","lat":44.189424,"lng":142.388202,"zip":"0950039"},{"town":"大通西十丁目","koaza":"","lat":44.171436,"lng":142.393284,"zip":"0950029"},{"town":"大通西十一丁目","koaza":"","lat":44.170465,"lng":142.393587,"zip":"0950029"},{"town":"大通西十二丁目","koaza":"","lat":44.169676,"lng":142.393677,"zip":"0950029"},{"town":"大通西十三丁目","koaza":"","lat":44.168906,"lng":142.393894,"zip":"0950029"},{"town":"大通西十四丁目","koaza":"","lat":44.167841,"lng":142.393965,"zip":"0950029"},{"town":"大通西十五丁目","koaza":"","lat":44.166604,"lng":142.394479,"zip":"0950029"},{"town":"大通西十六丁目","koaza":"","lat":44.165359,"lng":142.395133,"zip":"0950029"},{"town":"大通西十七丁目","koaza":"","lat":44.164128,"lng":142.395257,"zip":"0950029"},{"town":"大通西十八丁目","koaza":"","lat":44.162889,"lng":142.395622,"zip":"0950029"},{"town":"大通西十九丁目","koaza":"","lat":44.161608,"lng":142.396006,"zip":"0950029"},{"town":"大通西一丁目","koaza":"","lat":44.179889,"lng":142.390491,"zip":"0950029"},{"town":"大通西二十丁目","koaza":"","lat":44.160277,"lng":142.396356,"zip":"0950029"},{"town":"大通西二十一丁目","koaza":"","lat":44.158973,"lng":142.39702,"zip":"0950029"},{"town":"大通西二丁目","koaza":"","lat":44.178751,"lng":142.390965,"zip":"0950029"},{"town":"大通西三丁目","koaza":"","lat":44.177773,"lng":142.391143,"zip":"0950029"},{"town":"大通西四丁目","koaza":"","lat":44.176941,"lng":142.391399,"zip":"0950029"},{"town":"大通西五丁目","koaza":"","lat":44.176181,"lng":142.391637,"zip":"0950029"},{"town":"大通西六丁目","koaza":"","lat":44.17537,"lng":142.391886,"zip":"0950029"},{"town":"大通西七丁目","koaza":"","lat":44.174329,"lng":142.392161,"zip":"0950029"},{"town":"大通西八丁目","koaza":"","lat":44.17347,"lng":142.392677,"zip":"0950029"},{"town":"大通西九丁目","koaza":"","lat":44.172458,"lng":142.392978,"zip":"0950029"},{"town":"大通東十丁目","koaza":"","lat":44.171621,"lng":142.394498,"zip":"0950019"},{"town":"大通東十一丁目","koaza":"","lat":44.170655,"lng":142.394797,"zip":"0950019"},{"town":"大通東十二丁目","koaza":"","lat":44.169836,"lng":142.395053,"zip":"0950019"},{"town":"大通東十三丁目","koaza":"","lat":44.169074,"lng":142.395295,"zip":"0950019"},{"town":"大通東十四丁目","koaza":"","lat":44.167854,"lng":142.395484,"zip":"0950019"},{"town":"大通東十五丁目","koaza":"","lat":44.166938,"lng":142.396243,"zip":"0950019"},{"town":"大通東十六丁目","koaza":"","lat":44.165662,"lng":142.396659,"zip":"0950019"},{"town":"大通東十七丁目","koaza":"","lat":44.164416,"lng":142.397031,"zip":"0950019"},{"town":"大通東十八丁目","koaza":"","lat":44.1633,"lng":142.397412,"zip":"0950019"},{"town":"大通東十九丁目","koaza":"","lat":44.162034,"lng":142.397784,"zip":"0950019"},{"town":"大通東一丁目","koaza":"","lat":44.180008,"lng":142.391907,"zip":"0950019"},{"town":"大通東二十丁目","koaza":"","lat":44.160498,"lng":142.398001,"zip":"0950019"},{"town":"大通東二十一丁目","koaza":"","lat":44.15916,"lng":142.398683,"zip":"0950019"},{"town":"大通東二丁目","koaza":"","lat":44.178795,"lng":142.392287,"zip":"0950019"},{"town":"大通東三丁目","koaza":"","lat":44.177998,"lng":142.392531,"zip":"0950019"},{"town":"大通東四丁目","koaza":"","lat":44.177161,"lng":142.392791,"zip":"0950019"},{"town":"大通東五丁目","koaza":"","lat":44.1764,"lng":142.393011,"zip":"0950019"},{"town":"大通東六丁目","koaza":"","lat":44.175585,"lng":142.393248,"zip":"0950019"},{"town":"大通東七丁目","koaza":"","lat":44.174652,"lng":142.393548,"zip":"0950019"},{"town":"大通東八丁目","koaza":"","lat":44.173717,"lng":142.393847,"zip":"0950019"},{"town":"大通東九丁目","koaza":"","lat":44.172642,"lng":142.394182,"zip":"0950019"},{"town":"温根別町","koaza":"","lat":44.158289,"lng":142.232598,"zip":"0950181"},{"town":"温根別町北静川","koaza":"","lat":44.226071,"lng":142.277053,"zip":"0950183"},{"town":"上士別町","koaza":"","lat":44.085702,"lng":142.523088,"zip":"0950371"},{"town":"川西町","koaza":"","lat":44.140617,"lng":142.429463,"zip":"0950064"},{"town":"北町","koaza":"","lat":44.203644,"lng":142.364989,"zip":"0950051"},{"town":"下士別町","koaza":"","lat":44.205505,"lng":142.393609,"zip":"0950061"},{"town":"多寄町","koaza":"","lat":44.247053,"lng":142.415819,"zip":"0980475"},{"town":"中士別町","koaza":"","lat":44.171247,"lng":142.460106,"zip":"0950063"},{"town":"西一条十丁目","koaza":"","lat":44.171234,"lng":142.392051,"zip":"0950021"},{"town":"西一条十一丁目","koaza":"","lat":44.170289,"lng":142.392352,"zip":"0950021"},{"town":"西一条十二丁目","koaza":"","lat":44.169306,"lng":142.392375,"zip":"0950021"},{"town":"西一条十三丁目","koaza":"","lat":44.168484,"lng":142.392669,"zip":"0950021"},{"town":"西一条十四丁目","koaza":"","lat":44.167575,"lng":142.39259,"zip":"0950021"},{"town":"西一条十五丁目","koaza":"","lat":44.16653,"lng":142.393133,"zip":"0950021"},{"town":"西一条十六丁目","koaza":"","lat":44.165142,"lng":142.393656,"zip":"0950021"},{"town":"西一条十七丁目","koaza":"","lat":44.163755,"lng":142.393666,"zip":"0950021"},{"town":"西一条十八丁目","koaza":"","lat":44.162731,"lng":142.39421,"zip":"0950021"},{"town":"西一条十九丁目","koaza":"","lat":44.161614,"lng":142.394697,"zip":"0950021"},{"town":"西一条一丁目","koaza":"","lat":44.179749,"lng":142.38973,"zip":"0950021"},{"town":"西一条二十丁目","koaza":"","lat":44.16007,"lng":142.394986,"zip":"0950021"},{"town":"西一条二十一丁目","koaza":"","lat":44.158828,"lng":142.395684,"zip":"0950021"},{"town":"西一条二丁目","koaza":"","lat":44.17862,"lng":142.390059,"zip":"0950021"},{"town":"西一条三丁目","koaza":"","lat":44.177624,"lng":142.390224,"zip":"0950021"},{"town":"西一条四丁目","koaza":"","lat":44.176793,"lng":142.390462,"zip":"0950021"},{"town":"西一条五丁目","koaza":"","lat":44.176033,"lng":142.390697,"zip":"0950021"},{"town":"西一条六丁目","koaza":"","lat":44.175186,"lng":142.390954,"zip":"0950021"},{"town":"西一条七丁目","koaza":"","lat":44.174285,"lng":142.391218,"zip":"0950021"},{"town":"西一条八丁目","koaza":"","lat":44.173325,"lng":142.391414,"zip":"0950021"},{"town":"西一条九丁目","koaza":"","lat":44.172257,"lng":142.391738,"zip":"0950021"},{"town":"西二条十丁目","koaza":"","lat":44.170834,"lng":142.389791,"zip":"0950022"},{"town":"西二条十一丁目","koaza":"","lat":44.169836,"lng":142.390312,"zip":"0950022"},{"town":"西二条十二丁目","koaza":"","lat":44.168985,"lng":142.39015,"zip":"0950022"},{"town":"西二条十三丁目","koaza":"","lat":44.16818,"lng":142.390449,"zip":"0950022"},{"town":"西二条十四丁目","koaza":"","lat":44.167376,"lng":142.391131,"zip":"0950022"},{"town":"西二条十五丁目","koaza":"","lat":44.16605,"lng":142.391663,"zip":"0950022"},{"town":"西二条十六丁目","koaza":"","lat":44.164866,"lng":142.391781,"zip":"0950022"},{"town":"西二条十七丁目","koaza":"","lat":44.163629,"lng":142.392138,"zip":"0950022"},{"town":"西二条十八丁目","koaza":"","lat":44.162616,"lng":142.392683,"zip":"0950022"},{"town":"西二条十九丁目","koaza":"","lat":44.161237,"lng":142.392951,"zip":"0950022"},{"town":"西二条一丁目","koaza":"","lat":44.179706,"lng":142.388144,"zip":"0950022"},{"town":"西二条二十丁目","koaza":"","lat":44.159608,"lng":142.393251,"zip":"0950022"},{"town":"西二条二十一丁目","koaza":"","lat":44.158257,"lng":142.393715,"zip":"0950022"},{"town":"西二条二丁目","koaza":"","lat":44.178484,"lng":142.388547,"zip":"0950022"},{"town":"西二条三丁目","koaza":"","lat":44.177063,"lng":142.388944,"zip":"0950022"},{"town":"西二条五丁目","koaza":"","lat":44.175769,"lng":142.389303,"zip":"0950022"},{"town":"西二条六丁目","koaza":"","lat":44.175034,"lng":142.390002,"zip":"0950022"},{"town":"西二条七丁目","koaza":"","lat":44.174013,"lng":142.390074,"zip":"0950022"},{"town":"西二条八丁目","koaza":"","lat":44.173002,"lng":142.389539,"zip":"0950022"},{"town":"西二条九丁目","koaza":"","lat":44.17193,"lng":142.389716,"zip":"0950022"},{"town":"西二条北一丁目","koaza":"","lat":44.180962,"lng":142.387936,"zip":"0950032"},{"town":"西二条北二丁目","koaza":"","lat":44.181837,"lng":142.387654,"zip":"0950032"},{"town":"西二条北三丁目","koaza":"","lat":44.182383,"lng":142.387481,"zip":"0950032"},{"town":"西二条北四丁目","koaza":"","lat":44.183154,"lng":142.387235,"zip":"0950032"},{"town":"西二条北五丁目","koaza":"","lat":44.183909,"lng":142.386999,"zip":"0950032"},{"town":"西二条北六丁目","koaza":"","lat":44.184714,"lng":142.386749,"zip":"0950032"},{"town":"西二条北七丁目","koaza":"","lat":44.185648,"lng":142.386457,"zip":"0950032"},{"town":"西二条北八丁目","koaza":"","lat":44.186775,"lng":142.386112,"zip":"0950032"},{"town":"西二条北九丁目","koaza":"","lat":44.18903,"lng":142.384835,"zip":"0950032"},{"town":"西三条十丁目","koaza":"","lat":44.170656,"lng":142.38724,"zip":"0950023"},{"town":"西三条十一丁目","koaza":"","lat":44.169577,"lng":142.388165,"zip":"0950023"},{"town":"西三条十二丁目","koaza":"","lat":44.168661,"lng":142.38822,"zip":"0950023"},{"town":"西三条十三丁目","koaza":"","lat":44.167847,"lng":142.388018,"zip":"0950023"},{"town":"西三条十四丁目","koaza":"","lat":44.167124,"lng":142.388844,"zip":"0950023"},{"town":"西三条十五丁目","koaza":"","lat":44.166041,"lng":142.389469,"zip":"0950023"},{"town":"西三条十六丁目","koaza":"","lat":44.164519,"lng":142.389613,"zip":"0950023"},{"town":"西三条十七丁目","koaza":"","lat":44.163278,"lng":142.389977,"zip":"0950023"},{"town":"西三条十八丁目","koaza":"","lat":44.162106,"lng":142.390324,"zip":"0950023"},{"town":"西三条十九丁目","koaza":"","lat":44.16084,"lng":142.390631,"zip":"0950023"},{"town":"西三条一丁目","koaza":"","lat":44.179221,"lng":142.385392,"zip":"0950023"},{"town":"西三条二十丁目","koaza":"","lat":44.159284,"lng":142.390979,"zip":"0950023"},{"town":"西三条二十一丁目","koaza":"","lat":44.157704,"lng":142.391151,"zip":"0950023"},{"town":"西三条二丁目","koaza":"","lat":44.178032,"lng":142.385766,"zip":"0950023"},{"town":"西三条三丁目","koaza":"","lat":44.17683,"lng":142.386138,"zip":"0950023"},{"town":"西三条五丁目","koaza":"","lat":44.175692,"lng":142.387014,"zip":"0950023"},{"town":"西三条六丁目","koaza":"","lat":44.174511,"lng":142.387163,"zip":"0950023"},{"town":"西三条七丁目","koaza":"","lat":44.173699,"lng":142.387567,"zip":"0950023"},{"town":"西三条八丁目","koaza":"","lat":44.17266,"lng":142.387216,"zip":"0950023"},{"town":"西三条九丁目","koaza":"","lat":44.171548,"lng":142.387231,"zip":"0950023"},{"town":"西三条北一丁目","koaza":"","lat":44.180455,"lng":142.385018,"zip":"0950033"},{"town":"西三条北二丁目","koaza":"","lat":44.181365,"lng":142.384747,"zip":"0950033"},{"town":"西三条北三丁目","koaza":"","lat":44.18194,"lng":142.38457,"zip":"0950033"},{"town":"西三条北四丁目","koaza":"","lat":44.182731,"lng":142.38433,"zip":"0950033"},{"town":"西三条北五丁目","koaza":"","lat":44.183469,"lng":142.384101,"zip":"0950033"},{"town":"西三条北六丁目","koaza":"","lat":44.1843,"lng":142.383835,"zip":"0950033"},{"town":"西三条北七丁目","koaza":"","lat":44.185186,"lng":142.383557,"zip":"0950033"},{"town":"西三条北八丁目","koaza":"","lat":44.186302,"lng":142.383221,"zip":"0950033"},{"town":"西三条北九丁目","koaza":"","lat":44.188411,"lng":142.382611,"zip":"0950033"},{"town":"西四条十丁目","koaza":"","lat":44.169894,"lng":142.383431,"zip":"0950024"},{"town":"西四条十一丁目","koaza":"","lat":44.168713,"lng":142.383802,"zip":"0950024"},{"town":"西四条十二丁目","koaza":"","lat":44.167898,"lng":142.385352,"zip":"0950024"},{"town":"西四条十三丁目","koaza":"","lat":44.165272,"lng":142.384188,"zip":"0950024"},{"town":"西四条十四丁目","koaza":"","lat":44.16679,"lng":142.386931,"zip":"0950024"},{"town":"西四条十五丁目","koaza":"","lat":44.165513,"lng":142.386903,"zip":"0950024"},{"town":"西四条十六丁目","koaza":"","lat":44.16401,"lng":142.386854,"zip":"0950024"},{"town":"西四条十七丁目","koaza":"","lat":44.162713,"lng":142.386819,"zip":"0950024"},{"town":"西四条十八丁目","koaza":"","lat":44.161773,"lng":142.386593,"zip":"0950024"},{"town":"西四条十九丁目","koaza":"","lat":44.160542,"lng":142.386577,"zip":"0950024"},{"town":"西四条一丁目","koaza":"","lat":44.178411,"lng":142.381254,"zip":"0950024"},{"town":"西四条二十丁目","koaza":"","lat":44.158646,"lng":142.38809,"zip":"0950024"},{"town":"西四条二丁目","koaza":"","lat":44.177402,"lng":142.382021,"zip":"0950024"},{"town":"西四条三丁目","koaza":"","lat":44.176231,"lng":142.381864,"zip":"0950024"},{"town":"西四条四丁目","koaza":"","lat":44.17529,"lng":142.381568,"zip":"0950024"},{"town":"西四条五丁目","koaza":"","lat":44.174957,"lng":142.383363,"zip":"0950024"},{"town":"西四条六丁目","koaza":"","lat":44.173665,"lng":142.382299,"zip":"0950024"},{"town":"西四条七丁目","koaza":"","lat":44.172851,"lng":142.382549,"zip":"0950024"},{"town":"西四条八丁目","koaza":"","lat":44.172158,"lng":142.382754,"zip":"0950024"},{"town":"西四条九丁目","koaza":"","lat":44.171232,"lng":142.383629,"zip":"0950024"},{"town":"西四条北一丁目","koaza":"","lat":44.179585,"lng":142.380384,"zip":"0950034"},{"town":"西四条北二丁目","koaza":"","lat":44.180614,"lng":142.380123,"zip":"0950034"},{"town":"西四条北三丁目","koaza":"","lat":44.181232,"lng":142.380006,"zip":"0950034"},{"town":"西四条北四丁目","koaza":"","lat":44.182032,"lng":142.379886,"zip":"0950034"},{"town":"西四条北五丁目","koaza":"","lat":44.182896,"lng":142.379738,"zip":"0950034"},{"town":"西四条北六丁目","koaza":"","lat":44.183624,"lng":142.379645,"zip":"0950034"},{"town":"西四条北七丁目","koaza":"","lat":44.184523,"lng":142.379419,"zip":"0950034"},{"town":"西四条北八丁目","koaza":"","lat":44.185637,"lng":142.378837,"zip":"0950034"},{"town":"西四条北九丁目","koaza":"","lat":44.18764,"lng":142.376713,"zip":"0950034"},{"town":"西五条十丁目","koaza":"","lat":44.169156,"lng":142.378534,"zip":"0950025"},{"town":"西五条十一丁目","koaza":"","lat":44.167357,"lng":142.379549,"zip":"0950025"},{"town":"西五条十二丁目","koaza":"","lat":44.164789,"lng":142.380911,"zip":"0950025"},{"town":"西五条十三丁目","koaza":"","lat":44.16156,"lng":142.381642,"zip":"0950025"},{"town":"西五条一丁目","koaza":"","lat":44.177875,"lng":142.376784,"zip":"0950025"},{"town":"西五条二丁目","koaza":"","lat":44.176712,"lng":142.377112,"zip":"0950025"},{"town":"西五条三丁目","koaza":"","lat":44.175568,"lng":142.377597,"zip":"0950025"},{"town":"西五条四丁目","koaza":"","lat":44.174671,"lng":142.377841,"zip":"0950025"},{"town":"西五条五丁目","koaza":"","lat":44.173972,"lng":142.377997,"zip":"0950025"},{"town":"西五条六丁目","koaza":"","lat":44.172892,"lng":142.377313,"zip":"0950025"},{"town":"西五条七丁目","koaza":"","lat":44.172101,"lng":142.377768,"zip":"0950025"},{"town":"西五条八丁目","koaza":"","lat":44.171305,"lng":142.377494,"zip":"0950025"},{"town":"西五条九丁目","koaza":"","lat":44.170374,"lng":142.378145,"zip":"0950025"},{"town":"西五条北一丁目","koaza":"","lat":44.178837,"lng":142.375907,"zip":"0950035"},{"town":"西五条北二丁目","koaza":"","lat":44.179985,"lng":142.376266,"zip":"0950035"},{"town":"西五条北三丁目","koaza":"","lat":44.180648,"lng":142.376322,"zip":"0950035"},{"town":"西五条北四丁目","koaza":"","lat":44.181448,"lng":142.376387,"zip":"0950035"},{"town":"西五条北五丁目","koaza":"","lat":44.182344,"lng":142.376456,"zip":"0950035"},{"town":"西五条北六丁目","koaza":"","lat":44.18312,"lng":142.376448,"zip":"0950035"},{"town":"西五条北七丁目","koaza":"","lat":44.184031,"lng":142.376439,"zip":"0950035"},{"town":"西五条北八丁目","koaza":"","lat":44.185203,"lng":142.375898,"zip":"0950035"},{"town":"西士別町","koaza":"","lat":44.216259,"lng":142.328217,"zip":"0950056"},{"town":"東十条十丁目","koaza":"","lat":44.173975,"lng":142.406777,"zip":"0950042"},{"town":"東十条十一丁目","koaza":"","lat":44.172661,"lng":142.407185,"zip":"0950042"},{"town":"東十条十二丁目","koaza":"","lat":44.17189,"lng":142.40753,"zip":"0950042"},{"town":"東十条十三丁目","koaza":"","lat":44.171032,"lng":142.407682,"zip":"0950042"},{"town":"東十条三丁目","koaza":"","lat":44.179707,"lng":142.404632,"zip":"0950042"},{"town":"東十条四丁目","koaza":"","lat":44.179038,"lng":142.405272,"zip":"0950042"},{"town":"東十条五丁目","koaza":"","lat":44.178214,"lng":142.405393,"zip":"0950042"},{"town":"東十条六丁目","koaza":"","lat":44.177551,"lng":142.405659,"zip":"0950042"},{"town":"東十条七丁目","koaza":"","lat":44.17692,"lng":142.405751,"zip":"0950042"},{"town":"東十条九丁目","koaza":"","lat":44.175799,"lng":142.406204,"zip":"0950042"},{"town":"東十一条二丁目","koaza":"","lat":44.181586,"lng":142.405404,"zip":"0950048"},{"town":"東十一条三丁目","koaza":"","lat":44.180336,"lng":142.405952,"zip":"0950048"},{"town":"東十一条四丁目","koaza":"","lat":44.179606,"lng":142.406465,"zip":"0950048"},{"town":"東十一条五丁目","koaza":"","lat":44.178895,"lng":142.407706,"zip":"0950048"},{"town":"東十一条六丁目","koaza":"","lat":44.177459,"lng":142.406732,"zip":"0950048"},{"town":"東一条十丁目","koaza":"","lat":44.171845,"lng":142.395983,"zip":"0950011"},{"town":"東一条十一丁目","koaza":"","lat":44.170893,"lng":142.39628,"zip":"0950011"},{"town":"東一条十二丁目","koaza":"","lat":44.17008,"lng":142.396536,"zip":"0950011"},{"town":"東一条十三丁目","koaza":"","lat":44.169337,"lng":142.396776,"zip":"0950011"},{"town":"東一条十四丁目","koaza":"","lat":44.16826,"lng":142.3971,"zip":"0950011"},{"town":"東一条十五丁目","koaza":"","lat":44.166938,"lng":142.397627,"zip":"0950011"},{"town":"東一条十六丁目","koaza":"","lat":44.166107,"lng":142.398072,"zip":"0950011"},{"town":"東一条十七丁目","koaza":"","lat":44.164871,"lng":142.398436,"zip":"0950011"},{"town":"東一条一丁目","koaza":"","lat":44.180368,"lng":142.393253,"zip":"0950011"},{"town":"東一条二丁目","koaza":"","lat":44.179023,"lng":142.393773,"zip":"0950011"},{"town":"東一条三丁目","koaza":"","lat":44.178229,"lng":142.394014,"zip":"0950011"},{"town":"東一条四丁目","koaza":"","lat":44.177578,"lng":142.394114,"zip":"0950011"},{"town":"東一条五丁目","koaza":"","lat":44.176641,"lng":142.394485,"zip":"0950011"},{"town":"東一条六丁目","koaza":"","lat":44.175824,"lng":142.394718,"zip":"0950011"},{"town":"東一条七丁目","koaza":"","lat":44.174971,"lng":142.394991,"zip":"0950011"},{"town":"東一条八丁目","koaza":"","lat":44.173955,"lng":142.39532,"zip":"0950011"},{"town":"東一条九丁目","koaza":"","lat":44.172868,"lng":142.395663,"zip":"0950011"},{"town":"東一条北一丁目","koaza":"","lat":44.181463,"lng":142.392097,"zip":"0950001"},{"town":"東一条北二丁目","koaza":"","lat":44.182775,"lng":142.391557,"zip":"0950001"},{"town":"東一条北三丁目","koaza":"","lat":44.184049,"lng":142.391273,"zip":"0950001"},{"town":"東一条北四丁目","koaza":"","lat":44.185276,"lng":142.390904,"zip":"0950001"},{"town":"東一条北七丁目","koaza":"","lat":44.186607,"lng":142.391773,"zip":"0950001"},{"town":"東一条北八丁目","koaza":"","lat":44.188227,"lng":142.391273,"zip":"0950001"},{"town":"東一条北九丁目","koaza":"","lat":44.190761,"lng":142.390959,"zip":"0950001"},{"town":"東二条十丁目","koaza":"","lat":44.172099,"lng":142.39757,"zip":"0950012"},{"town":"東二条十一丁目","koaza":"","lat":44.171151,"lng":142.397865,"zip":"0950012"},{"town":"東二条十二丁目","koaza":"","lat":44.170334,"lng":142.398123,"zip":"0950012"},{"town":"東二条十三丁目","koaza":"","lat":44.16957,"lng":142.39837,"zip":"0950012"},{"town":"東二条十四丁目","koaza":"","lat":44.168464,"lng":142.398711,"zip":"0950012"},{"town":"東二条十五丁目","koaza":"","lat":44.167288,"lng":142.399079,"zip":"0950012"},{"town":"東二条十六丁目","koaza":"","lat":44.166155,"lng":142.398914,"zip":"0950012"},{"town":"東二条十七丁目","koaza":"","lat":44.164969,"lng":142.399023,"zip":"0950012"},{"town":"東二条十八丁目","koaza":"","lat":44.163515,"lng":142.399088,"zip":"0950012"},{"town":"東二条十九丁目","koaza":"","lat":44.162309,"lng":142.399632,"zip":"0950012"},{"town":"東二条一丁目","koaza":"","lat":44.180415,"lng":142.394805,"zip":"0950012"},{"town":"東二条二十丁目","koaza":"","lat":44.16102,"lng":142.400268,"zip":"0950012"},{"town":"東二条二十一丁目","koaza":"","lat":44.159519,"lng":142.400394,"zip":"0950012"},{"town":"東二条二丁目","koaza":"","lat":44.179238,"lng":142.39517,"zip":"0950012"},{"town":"東二条三丁目","koaza":"","lat":44.178447,"lng":142.395415,"zip":"0950012"},{"town":"東二条四丁目","koaza":"","lat":44.177616,"lng":142.395664,"zip":"0950012"},{"town":"東二条五丁目","koaza":"","lat":44.176865,"lng":142.395895,"zip":"0950012"},{"town":"東二条六丁目","koaza":"","lat":44.176053,"lng":142.396134,"zip":"0950012"},{"town":"東二条七丁目","koaza":"","lat":44.175198,"lng":142.39639,"zip":"0950012"},{"town":"東二条八丁目","koaza":"","lat":44.174181,"lng":142.396711,"zip":"0950012"},{"town":"東二条九丁目","koaza":"","lat":44.173242,"lng":142.397328,"zip":"0950012"},{"town":"東二条北一丁目","koaza":"","lat":44.181811,"lng":142.393137,"zip":"0950002"},{"town":"東二条北二丁目","koaza":"","lat":44.182934,"lng":142.392801,"zip":"0950002"},{"town":"東二条北三丁目","koaza":"","lat":44.184219,"lng":142.392406,"zip":"0950002"},{"town":"東二条北四丁目","koaza":"","lat":44.185453,"lng":142.391895,"zip":"0950002"},{"town":"東二条北七丁目","koaza":"","lat":44.187017,"lng":142.393462,"zip":"0950002"},{"town":"東二条北八丁目","koaza":"","lat":44.188416,"lng":142.392651,"zip":"0950002"},{"town":"東二条北九丁目","koaza":"","lat":44.189611,"lng":142.393325,"zip":"0950002"},{"town":"東三条十丁目","koaza":"","lat":44.17233,"lng":142.399018,"zip":"0950013"},{"town":"東三条十一丁目","koaza":"","lat":44.171384,"lng":142.399307,"zip":"0950013"},{"town":"東三条十二丁目","koaza":"","lat":44.170559,"lng":142.399561,"zip":"0950013"},{"town":"東三条十三丁目","koaza":"","lat":44.16979,"lng":142.399806,"zip":"0950013"},{"town":"東三条十六丁目","koaza":"","lat":44.166437,"lng":142.400094,"zip":"0950013"},{"town":"東三条十七丁目","koaza":"","lat":44.16529,"lng":142.399995,"zip":"0950013"},{"town":"東三条十八丁目","koaza":"","lat":44.163888,"lng":142.400988,"zip":"0950013"},{"town":"東三条十九丁目","koaza":"","lat":44.162558,"lng":142.400801,"zip":"0950013"},{"town":"東三条一丁目","koaza":"","lat":44.180573,"lng":142.396139,"zip":"0950013"},{"town":"東三条二十丁目","koaza":"","lat":44.161224,"lng":142.401776,"zip":"0950013"},{"town":"東三条二十一丁目","koaza":"","lat":44.159691,"lng":142.40201,"zip":"0950013"},{"town":"東三条二丁目","koaza":"","lat":44.179456,"lng":142.396481,"zip":"0950013"},{"town":"東三条五丁目","koaza":"","lat":44.177072,"lng":142.397236,"zip":"0950013"},{"town":"東三条六丁目","koaza":"","lat":44.176261,"lng":142.397469,"zip":"0950013"},{"town":"東三条七丁目","koaza":"","lat":44.175407,"lng":142.397715,"zip":"0950013"},{"town":"東三条八丁目","koaza":"","lat":44.17427,"lng":142.398038,"zip":"0950013"},{"town":"東三条九丁目","koaza":"","lat":44.173464,"lng":142.398729,"zip":"0950013"},{"town":"東三条北一丁目","koaza":"","lat":44.181781,"lng":142.394623,"zip":"0950003"},{"town":"東三条北二丁目","koaza":"","lat":44.182506,"lng":142.393709,"zip":"0950003"},{"town":"東三条北三丁目","koaza":"","lat":44.183159,"lng":142.39482,"zip":"0950003"},{"town":"東三条北四丁目","koaza":"","lat":44.18409,"lng":142.393883,"zip":"0950003"},{"town":"東三条北五丁目","koaza":"","lat":44.185036,"lng":142.393382,"zip":"0950003"},{"town":"東三条北六丁目","koaza":"","lat":44.185932,"lng":142.393277,"zip":"0950003"},{"town":"東三条北八丁目","koaza":"","lat":44.188502,"lng":142.393807,"zip":"0950003"},{"town":"東四条十丁目","koaza":"","lat":44.172515,"lng":142.40015,"zip":"0950014"},{"town":"東四条十一丁目","koaza":"","lat":44.171551,"lng":142.400341,"zip":"0950014"},{"town":"東四条十二丁目","koaza":"","lat":44.170728,"lng":142.400584,"zip":"0950014"},{"town":"東四条十三丁目","koaza":"","lat":44.169971,"lng":142.400806,"zip":"0950014"},{"town":"東四条十四丁目","koaza":"","lat":44.168962,"lng":142.400525,"zip":"0950014"},{"town":"東四条十五丁目","koaza":"","lat":44.167782,"lng":142.400944,"zip":"0950014"},{"town":"東四条十六丁目","koaza":"","lat":44.166671,"lng":142.401537,"zip":"0950014"},{"town":"東四条十七丁目","koaza":"","lat":44.165352,"lng":142.401782,"zip":"0950014"},{"town":"東四条十八丁目","koaza":"","lat":44.164067,"lng":142.402712,"zip":"0950014"},{"town":"東四条十九丁目","koaza":"","lat":44.162692,"lng":142.402447,"zip":"0950014"},{"town":"東四条一丁目","koaza":"","lat":44.180888,"lng":142.397307,"zip":"0950014"},{"town":"東四条二十丁目","koaza":"","lat":44.161393,"lng":142.403158,"zip":"0950014"},{"town":"東四条二十一丁目","koaza":"","lat":44.159989,"lng":142.403606,"zip":"0950014"},{"town":"東四条二丁目","koaza":"","lat":44.179658,"lng":142.397698,"zip":"0950014"},{"town":"東四条三丁目","koaza":"","lat":44.178769,"lng":142.397362,"zip":"0950014"},{"town":"東四条四丁目","koaza":"","lat":44.177922,"lng":142.397836,"zip":"0950014"},{"town":"東四条五丁目","koaza":"","lat":44.177275,"lng":142.39846,"zip":"0950014"},{"town":"東四条六丁目","koaza":"","lat":44.176463,"lng":142.398698,"zip":"0950014"},{"town":"東四条七丁目","koaza":"","lat":44.175597,"lng":142.398954,"zip":"0950014"},{"town":"東四条八丁目","koaza":"","lat":44.174456,"lng":142.399233,"zip":"0950014"},{"town":"東四条九丁目","koaza":"","lat":44.17351,"lng":142.399736,"zip":"0950014"},{"town":"東四条北一丁目","koaza":"","lat":44.18209,"lng":142.396558,"zip":"0950004"},{"town":"東四条北二丁目","koaza":"","lat":44.183042,"lng":142.396901,"zip":"0950004"},{"town":"東四条北三丁目","koaza":"","lat":44.183792,"lng":142.396654,"zip":"0950004"},{"town":"東四条北四丁目","koaza":"","lat":44.18441,"lng":142.395809,"zip":"0950004"},{"town":"東四条北五丁目","koaza":"","lat":44.18531,"lng":142.395743,"zip":"0950004"},{"town":"東四条北六丁目","koaza":"","lat":44.186318,"lng":142.395182,"zip":"0950004"},{"town":"東四条北七丁目","koaza":"","lat":44.187389,"lng":142.395373,"zip":"0950004"},{"town":"東四条北八丁目","koaza":"","lat":44.188426,"lng":142.395064,"zip":"0950004"},{"town":"東五条十丁目","koaza":"","lat":44.172473,"lng":142.401814,"zip":"0950015"},{"town":"東五条十一丁目","koaza":"","lat":44.171758,"lng":142.401602,"zip":"0950015"},{"town":"東五条十二丁目","koaza":"","lat":44.170935,"lng":142.40186,"zip":"0950015"},{"town":"東五条十三丁目","koaza":"","lat":44.170166,"lng":142.402095,"zip":"0950015"},{"town":"東五条十四丁目","koaza":"","lat":44.169366,"lng":142.402209,"zip":"0950015"},{"town":"東五条十五丁目","koaza":"","lat":44.168212,"lng":142.402108,"zip":"0950015"},{"town":"東五条十六丁目","koaza":"","lat":44.166738,"lng":142.403243,"zip":"0950015"},{"town":"東五条十七丁目","koaza":"","lat":44.165584,"lng":142.403397,"zip":"0950015"},{"town":"東五条十八丁目","koaza":"","lat":44.164444,"lng":142.404155,"zip":"0950015"},{"town":"東五条十九丁目","koaza":"","lat":44.163123,"lng":142.404506,"zip":"0950015"},{"town":"東五条一丁目","koaza":"","lat":44.181256,"lng":142.398298,"zip":"0950015"},{"town":"東五条二十丁目","koaza":"","lat":44.161761,"lng":142.404719,"zip":"0950015"},{"town":"東五条二十一丁目","koaza":"","lat":44.160159,"lng":142.40476,"zip":"0950015"},{"town":"東五条二丁目","koaza":"","lat":44.180079,"lng":142.398655,"zip":"0950015"},{"town":"東五条三丁目","koaza":"","lat":44.178909,"lng":142.399007,"zip":"0950015"},{"town":"東五条五丁目","koaza":"","lat":44.177709,"lng":142.399395,"zip":"0950015"},{"town":"東五条六丁目","koaza":"","lat":44.176769,"lng":142.400132,"zip":"0950015"},{"town":"東五条七丁目","koaza":"","lat":44.175264,"lng":142.400578,"zip":"0950015"},{"town":"東五条九丁目","koaza":"","lat":44.173544,"lng":142.401407,"zip":"0950015"},{"town":"東五条北一丁目","koaza":"","lat":44.182535,"lng":142.397916,"zip":"0950005"},{"town":"東五条北三丁目","koaza":"","lat":44.183713,"lng":142.397535,"zip":"0950005"},{"town":"東五条北四丁目","koaza":"","lat":44.184846,"lng":142.39697,"zip":"0950005"},{"town":"東五条北五丁目","koaza":"","lat":44.185684,"lng":142.396982,"zip":"0950005"},{"town":"東五条北六丁目","koaza":"","lat":44.186518,"lng":142.396728,"zip":"0950005"},{"town":"東五条北七丁目","koaza":"","lat":44.187212,"lng":142.396735,"zip":"0950005"},{"town":"東五条北八丁目","koaza":"","lat":44.188012,"lng":142.396409,"zip":"0950005"},{"town":"東六条十丁目","koaza":"","lat":44.173013,"lng":142.403284,"zip":"0950016"},{"town":"東六条十一丁目","koaza":"","lat":44.17208,"lng":142.403004,"zip":"0950016"},{"town":"東六条十二丁目","koaza":"","lat":44.171119,"lng":142.403073,"zip":"0950016"},{"town":"東六条十三丁目","koaza":"","lat":44.170235,"lng":142.403145,"zip":"0950016"},{"town":"東六条十四丁目","koaza":"","lat":44.169434,"lng":142.403832,"zip":"0950016"},{"town":"東六条十五丁目","koaza":"","lat":44.1681,"lng":142.403169,"zip":"0950016"},{"town":"東六条十六丁目","koaza":"","lat":44.16668,"lng":142.405086,"zip":"0950016"},{"town":"東六条十七丁目","koaza":"","lat":44.165563,"lng":142.405192,"zip":"0950016"},{"town":"東六条一丁目","koaza":"","lat":44.181382,"lng":142.399117,"zip":"0950016"},{"town":"東六条二丁目","koaza":"","lat":44.180202,"lng":142.399453,"zip":"0950016"},{"town":"東六条三丁目","koaza":"","lat":44.17945,"lng":142.40015,"zip":"0950016"},{"town":"東六条四丁目","koaza":"","lat":44.17849,"lng":142.400464,"zip":"0950016"},{"town":"東六条五丁目","koaza":"","lat":44.177473,"lng":142.400799,"zip":"0950016"},{"town":"東六条六丁目","koaza":"","lat":44.17686,"lng":142.401422,"zip":"0950016"},{"town":"東六条七丁目","koaza":"","lat":44.17598,"lng":142.401771,"zip":"0950016"},{"town":"東六条八丁目","koaza":"","lat":44.17498,"lng":142.401982,"zip":"0950016"},{"town":"東六条九丁目","koaza":"","lat":44.174066,"lng":142.402806,"zip":"0950016"},{"town":"東六条北一丁目","koaza":"","lat":44.18242,"lng":142.399363,"zip":"0950006"},{"town":"東六条北二丁目","koaza":"","lat":44.183394,"lng":142.399041,"zip":"0950006"},{"town":"東六条北三丁目","koaza":"","lat":44.184254,"lng":142.398739,"zip":"0950006"},{"town":"東六条北四丁目","koaza":"","lat":44.184935,"lng":142.397816,"zip":"0950006"},{"town":"東六条北五丁目","koaza":"","lat":44.1858,"lng":142.397725,"zip":"0950006"},{"town":"東六条北六丁目","koaza":"","lat":44.186465,"lng":142.399505,"zip":"0950006"},{"town":"東六条北七丁目","koaza":"","lat":44.187399,"lng":142.397906,"zip":"0950006"},{"town":"東六条北八丁目","koaza":"","lat":44.188229,"lng":142.397793,"zip":"0950006"},{"town":"東六条北九丁目","koaza":"","lat":44.189119,"lng":142.396742,"zip":"0950006"},{"town":"東七条十丁目","koaza":"","lat":44.173573,"lng":142.404384,"zip":"0950017"},{"town":"東七条十四丁目","koaza":"","lat":44.169403,"lng":142.405269,"zip":"0950017"},{"town":"東七条一丁目","koaza":"","lat":44.181554,"lng":142.400102,"zip":"0950017"},{"town":"東七条二丁目","koaza":"","lat":44.180353,"lng":142.400731,"zip":"0950017"},{"town":"東七条三丁目","koaza":"","lat":44.179339,"lng":142.401497,"zip":"0950017"},{"town":"東七条五丁目","koaza":"","lat":44.178074,"lng":142.402011,"zip":"0950017"},{"town":"東七条六丁目","koaza":"","lat":44.177017,"lng":142.402429,"zip":"0950017"},{"town":"東七条七丁目","koaza":"","lat":44.175967,"lng":142.402908,"zip":"0950017"},{"town":"東七条八丁目","koaza":"","lat":44.175318,"lng":142.402943,"zip":"0950017"},{"town":"東七条九丁目","koaza":"","lat":44.174436,"lng":142.403737,"zip":"0950017"},{"town":"東七条北四丁目","koaza":"","lat":44.18493,"lng":142.399057,"zip":"0950007"},{"town":"東七条北五丁目","koaza":"","lat":44.185807,"lng":142.398165,"zip":"0950007"},{"town":"東七条北七丁目","koaza":"","lat":44.187704,"lng":142.399848,"zip":"0950007"},{"town":"東七条北八丁目","koaza":"","lat":44.188443,"lng":142.399152,"zip":"0950007"},{"town":"東七条北九丁目","koaza":"","lat":44.189239,"lng":142.405517,"zip":"0950007"},{"town":"東八条十丁目","koaza":"","lat":44.173746,"lng":142.405329,"zip":"0950018"},{"town":"東八条十一丁目","koaza":"","lat":44.172344,"lng":142.404612,"zip":"0950018"},{"town":"東八条十二丁目","koaza":"","lat":44.171342,"lng":142.404534,"zip":"0950018"},{"town":"東八条十三丁目","koaza":"","lat":44.170533,"lng":142.40462,"zip":"0950018"},{"town":"東八条十五丁目","koaza":"","lat":44.168037,"lng":142.406461,"zip":"0950018"},{"town":"東八条一丁目","koaza":"","lat":44.181754,"lng":142.402828,"zip":"0950018"},{"town":"東八条二丁目","koaza":"","lat":44.180204,"lng":142.402108,"zip":"0950018"},{"town":"東八条三丁目","koaza":"","lat":44.17946,"lng":142.402583,"zip":"0950018"},{"town":"東八条四丁目","koaza":"","lat":44.178703,"lng":142.402874,"zip":"0950018"},{"town":"東八条五丁目","koaza":"","lat":44.177881,"lng":142.403218,"zip":"0950018"},{"town":"東八条六丁目","koaza":"","lat":44.177201,"lng":142.403503,"zip":"0950018"},{"town":"東八条七丁目","koaza":"","lat":44.17652,"lng":142.403855,"zip":"0950018"},{"town":"東八条八丁目","koaza":"","lat":44.175948,"lng":142.404282,"zip":"0950018"},{"town":"東八条九丁目","koaza":"","lat":44.175348,"lng":142.404861,"zip":"0950018"},{"town":"東八条北一丁目","koaza":"","lat":44.183227,"lng":142.402294,"zip":"0950008"},{"town":"東八条北三丁目","koaza":"","lat":44.184587,"lng":142.402527,"zip":"0950008"},{"town":"東八条北四丁目","koaza":"","lat":44.185338,"lng":142.401272,"zip":"0950008"},{"town":"東八条北五丁目","koaza":"","lat":44.186574,"lng":142.401587,"zip":"0950008"},{"town":"東八条北六丁目","koaza":"","lat":44.18739,"lng":142.400769,"zip":"0950008"},{"town":"東九条十丁目","koaza":"","lat":44.173871,"lng":142.406099,"zip":"0950041"},{"town":"東九条十一丁目","koaza":"","lat":44.172499,"lng":142.405992,"zip":"0950041"},{"town":"東九条十二丁目","koaza":"","lat":44.171618,"lng":142.406257,"zip":"0950041"},{"town":"東九条十三丁目","koaza":"","lat":44.17085,"lng":142.406493,"zip":"0950041"},{"town":"東九条二丁目","koaza":"","lat":44.18054,"lng":142.404484,"zip":"0950041"},{"town":"東九条三丁目","koaza":"","lat":44.179606,"lng":142.403584,"zip":"0950041"},{"town":"東九条四丁目","koaza":"","lat":44.178913,"lng":142.403967,"zip":"0950041"},{"town":"東九条五丁目","koaza":"","lat":44.178047,"lng":142.4043,"zip":"0950041"},{"town":"東九条六丁目","koaza":"","lat":44.17737,"lng":142.404587,"zip":"0950041"},{"town":"東九条七丁目","koaza":"","lat":44.17687,"lng":142.404791,"zip":"0950041"},{"town":"東九条八丁目","koaza":"","lat":44.176378,"lng":142.405092,"zip":"0950041"},{"town":"東九条九丁目","koaza":"","lat":44.175489,"lng":142.405594,"zip":"0950041"},{"town":"東丘一丁目","koaza":"","lat":44.177126,"lng":142.40892,"zip":"0950045"},{"town":"東丘二丁目","koaza":"","lat":44.176046,"lng":142.408016,"zip":"0950045"},{"town":"東丘三丁目","koaza":"","lat":44.173665,"lng":142.408352,"zip":"0950045"},{"town":"東山町","koaza":"","lat":44.180608,"lng":142.409989,"zip":"0950044"},{"town":"武徳町","koaza":"","lat":44.203307,"lng":142.460457,"zip":"0950062"},{"town":"南士別町","koaza":"","lat":44.153261,"lng":142.363638,"zip":"0950055"},{"town":"南町西三区","koaza":"","lat":44.156228,"lng":142.394414,"zip":"0950000"},{"town":"南町西四区","koaza":"","lat":44.150625,"lng":142.396055,"zip":"0950000"},{"town":"南町東三区","koaza":"","lat":44.157118,"lng":142.400816,"zip":"0950000"},{"town":"南町東四区","koaza":"","lat":44.150687,"lng":142.401963,"zip":"0950000"}]