[{"town":"旭町","koaza":"","lat":43.080613,"lng":141.965544,"zip":"0680405"},{"town":"楓","koaza":"","lat":42.940019,"lng":142.084074,"zip":"0680754"},{"town":"鹿島明石町","koaza":"","lat":43.046341,"lng":142.089205,"zip":"0680662"},{"town":"鹿島春日町","koaza":"","lat":43.091686,"lng":142.128347,"zip":"0680400"},{"town":"鹿島栄町","koaza":"","lat":43.084769,"lng":142.101889,"zip":"0680673"},{"town":"鹿島白金","koaza":"","lat":43.053709,"lng":142.195201,"zip":"0680661"},{"town":"鹿島宝町","koaza":"","lat":43.076552,"lng":142.104442,"zip":"0680665"},{"town":"鹿島千年町","koaza":"","lat":43.068548,"lng":142.091757,"zip":"0680663"},{"town":"鹿島常盤町","koaza":"","lat":43.065126,"lng":142.118687,"zip":"0680400"},{"town":"鹿島錦町","koaza":"","lat":43.079447,"lng":142.088077,"zip":"0680664"},{"town":"鹿島富士見町","koaza":"","lat":43.083591,"lng":142.08798,"zip":"0680672"},{"town":"鹿島北栄町","koaza":"","lat":43.155637,"lng":142.158559,"zip":"0680675"},{"town":"鹿島緑町","koaza":"","lat":43.079366,"lng":142.104638,"zip":"0680671"},{"town":"鹿島弥生町","koaza":"","lat":43.080908,"lng":142.107424,"zip":"0680400"},{"town":"鹿島代々木町","koaza":"","lat":43.084695,"lng":142.105189,"zip":"0680674"},{"town":"小松","koaza":"","lat":43.074842,"lng":141.999412,"zip":"0680400"},{"town":"鹿の谷一丁目","koaza":"","lat":43.042139,"lng":141.962165,"zip":"0680413"},{"town":"鹿の谷二丁目","koaza":"","lat":43.035464,"lng":141.96029,"zip":"0680413"},{"town":"鹿の谷三丁目","koaza":"","lat":43.03513,"lng":141.964563,"zip":"0680413"},{"town":"鹿の谷東丘町","koaza":"","lat":43.040579,"lng":141.966811,"zip":"0680412"},{"town":"鹿の谷山手町","koaza":"","lat":43.044654,"lng":141.959229,"zip":"0680414"},{"town":"清水沢一丁目","koaza":"","lat":43.004688,"lng":141.98542,"zip":"0680531"},{"town":"清水沢二丁目","koaza":"","lat":43.01231,"lng":142.008917,"zip":"0680531"},{"town":"清水沢三丁目","koaza":"","lat":42.997643,"lng":142.008684,"zip":"0680531"},{"town":"清水沢清栄町","koaza":"","lat":43.007264,"lng":142.020607,"zip":"0680532"},{"town":"清水沢清湖町","koaza":"","lat":42.997575,"lng":142.027676,"zip":"0680533"},{"town":"清水沢清陵町","koaza":"","lat":42.984108,"lng":142.016718,"zip":"0680535"},{"town":"清水沢宮前町","koaza":"","lat":42.992601,"lng":142.010561,"zip":"0680534"},{"town":"社光","koaza":"","lat":43.050126,"lng":142.002349,"zip":"0680402"},{"town":"昭和","koaza":"","lat":43.057728,"lng":141.967156,"zip":"0680404"},{"town":"末広一丁目","koaza":"","lat":43.049311,"lng":141.962839,"zip":"0680411"},{"town":"末広二丁目","koaza":"","lat":43.047027,"lng":141.976304,"zip":"0680411"},{"town":"住初","koaza":"","lat":43.065568,"lng":141.979183,"zip":"0680406"},{"town":"高松","koaza":"","lat":43.063286,"lng":142.008613,"zip":"0680401"},{"town":"滝ノ上","koaza":"","lat":42.903469,"lng":142.004701,"zip":"0680756"},{"town":"千代田","koaza":"","lat":43.022221,"lng":141.965942,"zip":"0680424"},{"town":"丁未","koaza":"","lat":43.088423,"lng":142.008753,"zip":"0680409"},{"town":"常盤","koaza":"","lat":43.034796,"lng":141.972993,"zip":"0680421"},{"town":"富岡","koaza":"","lat":43.073531,"lng":141.99091,"zip":"0680408"},{"town":"富野","koaza":"","lat":43.045745,"lng":141.932661,"zip":"0680426"},{"town":"南部青葉町","koaza":"","lat":42.988964,"lng":142.254274,"zip":"0680546"},{"town":"南部東町","koaza":"","lat":43.022748,"lng":142.091115,"zip":"0680545"},{"town":"南部遠幌町","koaza":"","lat":43.060339,"lng":142.049869,"zip":"0680541"},{"town":"南部大宮町","koaza":"","lat":43.032165,"lng":142.085541,"zip":"0680544"},{"town":"南部菊水町","koaza":"","lat":43.017147,"lng":142.077215,"zip":"0680546"},{"town":"南部幌南町","koaza":"","lat":43.013643,"lng":142.059085,"zip":"0680548"},{"town":"南部新光町","koaza":"","lat":43.018282,"lng":142.06902,"zip":"0680547"},{"town":"南部住の江町","koaza":"","lat":43.018696,"lng":142.031687,"zip":"0680540"},{"town":"南部岳見町","koaza":"","lat":43.01002,"lng":142.050719,"zip":"0680549"},{"town":"南部北夕町","koaza":"","lat":43.008553,"lng":142.06207,"zip":"0680400"},{"town":"南部夕南町","koaza":"","lat":43.02723,"lng":142.056603,"zip":"0680542"},{"town":"南部若美町","koaza":"","lat":43.033862,"lng":142.069293,"zip":"0680543"},{"town":"錦","koaza":"","lat":43.076207,"lng":141.990229,"zip":"0680400"},{"town":"沼ノ沢","koaza":"","lat":42.970871,"lng":141.980427,"zip":"0680751"},{"town":"登川","koaza":"","lat":42.93831,"lng":142.12137,"zip":"0680753"},{"town":"日吉","koaza":"","lat":43.031794,"lng":141.997818,"zip":"0680422"},{"town":"福住","koaza":"","lat":43.070213,"lng":141.984713,"zip":"0680407"},{"town":"平和","koaza":"","lat":43.019574,"lng":141.98164,"zip":"0680423"},{"town":"本町一丁目","koaza":"","lat":43.061312,"lng":141.976888,"zip":"0680403"},{"town":"本町二丁目","koaza":"","lat":43.05886,"lng":141.978019,"zip":"0680403"},{"town":"本町三丁目","koaza":"","lat":43.055389,"lng":141.983317,"zip":"0680403"},{"town":"本町四丁目","koaza":"","lat":43.056624,"lng":141.97518,"zip":"0680403"},{"town":"本町五丁目","koaza":"","lat":43.054838,"lng":141.973672,"zip":"0680403"},{"town":"本町六丁目","koaza":"","lat":43.0538,"lng":141.970355,"zip":"0680403"},{"town":"真谷地","koaza":"","lat":42.975598,"lng":142.082053,"zip":"0680752"},{"town":"南清水沢一丁目","koaza":"","lat":42.992321,"lng":141.996279,"zip":"0680536"},{"town":"南清水沢二丁目","koaza":"","lat":42.988304,"lng":142.008835,"zip":"0680536"},{"town":"南清水沢三丁目","koaza":"","lat":42.981644,"lng":141.978242,"zip":"0680536"},{"town":"南清水沢四丁目","koaza":"","lat":42.978001,"lng":142.010665,"zip":"0680536"},{"town":"紅葉山","koaza":"","lat":42.91016,"lng":142.058196,"zip":"0680755"},{"town":"若菜","koaza":"","lat":43.026884,"lng":141.96974,"zip":"0680425"}]