[{"town":"あかね一丁目","koaza":"","lat":43.012112,"lng":141.684085,"zip":"0691335"},{"town":"あかね二丁目","koaza":"","lat":43.010387,"lng":141.682478,"zip":"0691335"},{"town":"あかね三丁目","koaza":"","lat":43.008588,"lng":141.681936,"zip":"0691335"},{"town":"曙町一丁目","koaza":"","lat":43.013582,"lng":141.704602,"zip":"0691344"},{"town":"曙町二丁目","koaza":"","lat":43.012559,"lng":141.704779,"zip":"0691344"},{"town":"字木詰","koaza":"","lat":43.016677,"lng":141.634669,"zip":"0691300"},{"town":"旭町北一丁目","koaza":"","lat":43.006676,"lng":141.704838,"zip":"0691300"},{"town":"旭町南一丁目","koaza":"","lat":43.005053,"lng":141.704414,"zip":"0691300"},{"town":"旭町南二丁目","koaza":"","lat":43.00281,"lng":141.704146,"zip":"0691300"},{"town":"旭町南三丁目","koaza":"","lat":43.001944,"lng":141.700073,"zip":"0691300"},{"town":"字フシコ","koaza":"","lat":43.016889,"lng":141.743334,"zip":"0691300"},{"town":"字幌内","koaza":"","lat":42.931039,"lng":141.731728,"zip":"0691300"},{"town":"北町一丁目","koaza":"","lat":43.013437,"lng":141.698839,"zip":"0691347"},{"town":"北町二丁目","koaza":"","lat":43.016563,"lng":141.69896,"zip":"0691347"},{"town":"北町三丁目","koaza":"","lat":43.014378,"lng":141.701321,"zip":"0691347"},{"town":"北町四丁目","koaza":"","lat":43.016608,"lng":141.702836,"zip":"0691347"},{"town":"銀座北一丁目","koaza":"","lat":43.009432,"lng":141.697492,"zip":"0691300"},{"town":"銀座南一丁目","koaza":"","lat":43.007918,"lng":141.696636,"zip":"0691300"},{"town":"銀座南二丁目","koaza":"","lat":43.006156,"lng":141.695442,"zip":"0691300"},{"town":"銀座南三丁目","koaza":"","lat":43.004023,"lng":141.694236,"zip":"0691300"},{"town":"栄町一丁目","koaza":"","lat":43.008364,"lng":141.688737,"zip":"0691336"},{"town":"栄町二丁目","koaza":"","lat":43.007081,"lng":141.687784,"zip":"0691336"},{"town":"しらかば一丁目","koaza":"","lat":43.014475,"lng":141.69243,"zip":"0691345"},{"town":"しらかば二丁目","koaza":"","lat":43.015384,"lng":141.690017,"zip":"0691345"},{"town":"中央北一丁目","koaza":"","lat":43.010208,"lng":141.69446,"zip":"0691300"},{"town":"中央南一丁目","koaza":"","lat":43.009002,"lng":141.693479,"zip":"0691300"},{"town":"中央南二丁目","koaza":"","lat":43.006461,"lng":141.69188,"zip":"0691300"},{"town":"西十線南","koaza":"","lat":42.991261,"lng":141.598859,"zip":"0691300"},{"town":"西十一線南","koaza":"","lat":42.995575,"lng":141.594095,"zip":"0691300"},{"town":"西十二線南","koaza":"","lat":42.998736,"lng":141.58854,"zip":"0691300"},{"town":"西十三線南","koaza":"","lat":43.003951,"lng":141.583576,"zip":"0691300"},{"town":"西一線北","koaza":"","lat":43.047946,"lng":141.706869,"zip":"0691300"},{"town":"西一線南","koaza":"","lat":42.974881,"lng":141.657342,"zip":"0691300"},{"town":"西二線北","koaza":"","lat":43.041935,"lng":141.694956,"zip":"0691300"},{"town":"西二線南","koaza":"","lat":42.976904,"lng":141.650973,"zip":"0691300"},{"town":"西三線北","koaza":"","lat":43.044266,"lng":141.688796,"zip":"0691300"},{"town":"西三線南","koaza":"","lat":42.982494,"lng":141.646979,"zip":"0691300"},{"town":"西四線北","koaza":"","lat":43.037212,"lng":141.676243,"zip":"0691300"},{"town":"西四線南","koaza":"","lat":42.988013,"lng":141.643023,"zip":"0691300"},{"town":"西五線北","koaza":"","lat":43.030339,"lng":141.663728,"zip":"0691300"},{"town":"西五線南","koaza":"","lat":42.991322,"lng":141.637548,"zip":"0691300"},{"town":"西六線北","koaza":"","lat":43.020307,"lng":141.649412,"zip":"0691300"},{"town":"西六線南","koaza":"","lat":42.992887,"lng":141.63089,"zip":"0691300"},{"town":"西七線北","koaza":"","lat":43.024485,"lng":141.644834,"zip":"0691300"},{"town":"西七線南","koaza":"","lat":42.998063,"lng":141.626613,"zip":"0691300"},{"town":"西八線南","koaza":"","lat":42.999788,"lng":141.620077,"zip":"0691300"},{"town":"西九線南","koaza":"","lat":42.999631,"lng":141.613009,"zip":"0691300"},{"town":"錦町北一丁目","koaza":"","lat":43.012483,"lng":141.689317,"zip":"0691334"},{"town":"錦町北二丁目","koaza":"","lat":43.013466,"lng":141.690123,"zip":"0691334"},{"town":"錦町南一丁目","koaza":"","lat":43.010926,"lng":141.688101,"zip":"0691334"},{"town":"錦町南二丁目","koaza":"","lat":43.009288,"lng":141.686586,"zip":"0691334"},{"town":"西町一丁目","koaza":"","lat":43.014326,"lng":141.68477,"zip":"0691346"},{"town":"東十一線北","koaza":"","lat":42.987073,"lng":141.742902,"zip":"0691300"},{"town":"東十線南","koaza":"","lat":42.943616,"lng":141.713075,"zip":"0691300"},{"town":"東十一線南","koaza":"","lat":42.938922,"lng":141.717665,"zip":"0691300"},{"town":"東十二線南","koaza":"","lat":42.951699,"lng":141.7332,"zip":"0691300"},{"town":"東一線北","koaza":"","lat":43.047971,"lng":141.714581,"zip":"0691300"},{"town":"東一線南","koaza":"","lat":42.971924,"lng":141.663017,"zip":"0691300"},{"town":"東二線北","koaza":"","lat":43.048252,"lng":141.722552,"zip":"0691300"},{"town":"東二線南","koaza":"","lat":42.969528,"lng":141.669075,"zip":"0691300"},{"town":"東三線北","koaza":"","lat":43.044811,"lng":141.727868,"zip":"0691300"},{"town":"東三線南","koaza":"","lat":42.960016,"lng":141.670282,"zip":"0691300"},{"town":"東四線北","koaza":"","lat":43.03321,"lng":141.727681,"zip":"0691300"},{"town":"東四線南","koaza":"","lat":42.956735,"lng":141.67578,"zip":"0691300"},{"town":"東五線北","koaza":"","lat":43.030653,"lng":141.733789,"zip":"0691300"},{"town":"東五線南","koaza":"","lat":42.952801,"lng":141.68084,"zip":"0691300"},{"town":"東六線北","koaza":"","lat":43.028324,"lng":141.739994,"zip":"0691300"},{"town":"東六線南","koaza":"","lat":42.93882,"lng":141.679022,"zip":"0691300"},{"town":"東七線南","koaza":"","lat":42.935031,"lng":141.684158,"zip":"0691300"},{"town":"東八線南","koaza":"","lat":42.933692,"lng":141.690961,"zip":"0691300"},{"town":"東九線南","koaza":"","lat":42.934103,"lng":141.69891,"zip":"0691300"},{"town":"東町北一丁目","koaza":"","lat":43.008207,"lng":141.700922,"zip":"0691300"},{"town":"東町南一丁目","koaza":"","lat":43.006691,"lng":141.699863,"zip":"0691300"},{"town":"東町南二丁目","koaza":"","lat":43.004985,"lng":141.698721,"zip":"0691300"},{"town":"東町南三丁目","koaza":"","lat":43.003064,"lng":141.697448,"zip":"0691300"},{"town":"本町北一丁目","koaza":"","lat":43.011258,"lng":141.693485,"zip":"0691300"},{"town":"本町北二丁目","koaza":"","lat":43.012429,"lng":141.69484,"zip":"0691300"},{"town":"本町北三丁目","koaza":"","lat":43.013552,"lng":141.695881,"zip":"0691300"},{"town":"本町南一丁目","koaza":"","lat":43.01012,"lng":141.691574,"zip":"0691300"},{"town":"南町一丁目","koaza":"","lat":43.006073,"lng":141.680291,"zip":"0691315"},{"town":"南町二丁目","koaza":"","lat":43.004647,"lng":141.685814,"zip":"0691315"},{"town":"宮下一丁目","koaza":"","lat":43.011027,"lng":141.698508,"zip":"0691341"},{"town":"宮下二丁目","koaza":"","lat":43.010524,"lng":141.702505,"zip":"0691341"},{"town":"宮下三丁目","koaza":"","lat":43.009214,"lng":141.70566,"zip":"0691341"},{"town":"東七線北","koaza":"","lat":42.998781,"lng":141.727298,"zip":"0691300"},{"town":"東十線北","koaza":"","lat":42.991638,"lng":141.738639,"zip":"0691300"},{"town":"東九線北","koaza":"","lat":42.98876,"lng":141.730135,"zip":"0691300"},{"town":"東八線北","koaza":"","lat":42.996447,"lng":141.733399,"zip":"0691300"}]