[{"town":"岩内","koaza":"","lat":42.988172,"lng":141.829618,"zip":"0691211"},{"town":"馬追","koaza":"","lat":43.009464,"lng":141.774482,"zip":"0691207"},{"town":"川端","koaza":"","lat":42.915381,"lng":141.89568,"zip":"0691141"},{"town":"熊本","koaza":"","lat":42.970819,"lng":141.799384,"zip":"0691215"},{"town":"光栄","koaza":"","lat":42.99265,"lng":141.787023,"zip":"0691217"},{"town":"新光","koaza":"","lat":43.003024,"lng":141.794552,"zip":"0691204"},{"town":"中央","koaza":"","lat":43.009967,"lng":141.783513,"zip":"0691205"},{"town":"東栄","koaza":"","lat":43.012251,"lng":141.790831,"zip":"0691203"},{"town":"東光","koaza":"","lat":43.003285,"lng":141.783572,"zip":"0691219"},{"town":"中三川","koaza":"","lat":42.940293,"lng":141.83533,"zip":"0691143"},{"town":"西三川","koaza":"","lat":42.946363,"lng":141.783881,"zip":"0691214"},{"town":"東三川","koaza":"","lat":42.949834,"lng":141.853198,"zip":"0691142"},{"town":"伏見","koaza":"","lat":42.994228,"lng":141.773005,"zip":"0691218"},{"town":"古川","koaza":"","lat":43.016065,"lng":141.801566,"zip":"0691202"},{"town":"古山","koaza":"","lat":42.96983,"lng":141.780121,"zip":"0691216"},{"town":"北栄","koaza":"","lat":43.020126,"lng":141.785092,"zip":"0691201"},{"town":"本町","koaza":"","lat":43.015349,"lng":141.782418,"zip":"0691206"},{"town":"三川旭町","koaza":"","lat":42.949813,"lng":141.800687,"zip":"0691133"},{"town":"三川泉町","koaza":"","lat":42.943132,"lng":141.807379,"zip":"0691131"},{"town":"三川錦町","koaza":"","lat":42.943043,"lng":141.802264,"zip":"0691132"},{"town":"三川緑町","koaza":"","lat":42.949051,"lng":141.804857,"zip":"0691134"},{"town":"本三川","koaza":"","lat":42.943698,"lng":141.815268,"zip":"0691213"},{"town":"山形","koaza":"","lat":43.032069,"lng":141.761564,"zip":"0691208"},{"town":"山桝","koaza":"","lat":42.982642,"lng":141.814152,"zip":"0691212"}]