[{"town":"字旭台","koaza":"","lat":43.035741,"lng":141.82024,"zip":"0691500"},{"town":"字阿野呂","koaza":"","lat":43.014136,"lng":141.823377,"zip":"0691500"},{"town":"字雨煙別","koaza":"","lat":43.100049,"lng":141.856849,"zip":"0691500"},{"town":"字大井分","koaza":"","lat":43.02139,"lng":141.839389,"zip":"0691500"},{"town":"字北学田","koaza":"","lat":43.062182,"lng":141.824421,"zip":"0691500"},{"town":"字杵臼","koaza":"","lat":43.043069,"lng":141.832554,"zip":"0691500"},{"town":"字共和","koaza":"","lat":43.040043,"lng":141.79234,"zip":"0691500"},{"town":"字桜山","koaza":"","lat":43.051957,"lng":141.860861,"zip":"0691500"},{"town":"字滝下","koaza":"","lat":42.931546,"lng":141.955828,"zip":"0691500"},{"town":"字継立","koaza":"","lat":43.036444,"lng":141.878401,"zip":"0691500"},{"town":"字中里","koaza":"","lat":43.047661,"lng":141.793967,"zip":"0691500"},{"town":"字鳩山","koaza":"","lat":43.086625,"lng":141.812915,"zip":"0691500"},{"town":"朝日二丁目","koaza":"","lat":43.060986,"lng":141.789922,"zip":"0691513"},{"town":"朝日三丁目","koaza":"","lat":43.05789,"lng":141.792466,"zip":"0691513"},{"town":"朝日四丁目","koaza":"","lat":43.0547,"lng":141.793736,"zip":"0691513"},{"town":"字日出","koaza":"","lat":43.061299,"lng":141.898896,"zip":"0691500"},{"town":"字富士","koaza":"","lat":43.040581,"lng":141.772029,"zip":"0691500"},{"town":"字本沢","koaza":"","lat":43.086674,"lng":141.880041,"zip":"0691500"},{"town":"字円山","koaza":"","lat":42.958295,"lng":141.91232,"zip":"0691500"},{"town":"字三日月","koaza":"","lat":43.02698,"lng":141.78796,"zip":"0691500"},{"town":"字御園","koaza":"","lat":43.010048,"lng":141.888223,"zip":"0691500"},{"town":"字南角田","koaza":"","lat":42.980199,"lng":141.883932,"zip":"0691500"},{"town":"字南学田","koaza":"","lat":43.00199,"lng":141.846767,"zip":"0691500"},{"town":"字森","koaza":"","lat":43.080113,"lng":141.789763,"zip":"0691500"},{"town":"字湯地","koaza":"","lat":43.053263,"lng":141.807,"zip":"0691500"},{"town":"角田","koaza":"","lat":43.028298,"lng":141.810836,"zip":"0691524"},{"town":"桜丘一丁目","koaza":"","lat":43.064469,"lng":141.78749,"zip":"0691501"},{"town":"桜丘二丁目","koaza":"","lat":43.067311,"lng":141.777807,"zip":"0691501"},{"town":"桜丘三丁目","koaza":"","lat":43.069136,"lng":141.769893,"zip":"0691501"},{"town":"中央一丁目","koaza":"","lat":43.063141,"lng":141.776628,"zip":"0691511"},{"town":"中央二丁目","koaza":"","lat":43.059737,"lng":141.77904,"zip":"0691511"},{"town":"中央三丁目","koaza":"","lat":43.056753,"lng":141.77969,"zip":"0691511"},{"town":"中央四丁目","koaza":"","lat":43.052892,"lng":141.780553,"zip":"0691511"},{"town":"錦一丁目","koaza":"","lat":43.065702,"lng":141.76903,"zip":"0691521"},{"town":"錦二丁目","koaza":"","lat":43.06336,"lng":141.770348,"zip":"0691521"},{"town":"錦三丁目","koaza":"","lat":43.059293,"lng":141.771466,"zip":"0691521"},{"town":"錦四丁目","koaza":"","lat":43.054362,"lng":141.772765,"zip":"0691521"},{"town":"松風二丁目","koaza":"","lat":43.061069,"lng":141.785401,"zip":"0691512"},{"town":"松風三丁目","koaza":"","lat":43.057463,"lng":141.786012,"zip":"0691512"},{"town":"松風四丁目","koaza":"","lat":43.053489,"lng":141.786711,"zip":"0691512"}]