[{"town":"一条北一丁目","koaza":"","lat":45.015721,"lng":141.845028,"zip":"0983201"},{"town":"一条北二丁目","koaza":"","lat":45.017259,"lng":141.844851,"zip":"0983201"},{"town":"一条南一丁目","koaza":"","lat":45.014755,"lng":141.845104,"zip":"0983211"},{"town":"二条北一丁目","koaza":"","lat":45.015926,"lng":141.847494,"zip":"0983202"},{"town":"二条南一丁目","koaza":"","lat":45.014813,"lng":141.847635,"zip":"0983212"},{"town":"二条南二丁目","koaza":"","lat":45.013605,"lng":141.846114,"zip":"0983212"},{"town":"三条北一丁目","koaza":"","lat":45.016027,"lng":141.848844,"zip":"0983203"},{"town":"三条南一丁目","koaza":"","lat":45.014935,"lng":141.848976,"zip":"0983213"},{"town":"三条南二丁目","koaza":"","lat":45.013717,"lng":141.84913,"zip":"0983213"},{"town":"三条南三丁目","koaza":"","lat":45.012944,"lng":141.849479,"zip":"0983213"},{"town":"四条北一丁目","koaza":"","lat":45.01625,"lng":141.850258,"zip":"0983204"},{"town":"四条南一丁目","koaza":"","lat":45.015027,"lng":141.850409,"zip":"0983214"},{"town":"四条南二丁目","koaza":"","lat":45.014037,"lng":141.850585,"zip":"0983214"},{"town":"五条北一丁目","koaza":"","lat":45.016226,"lng":141.851614,"zip":"0983205"},{"town":"五条南一丁目","koaza":"","lat":45.015152,"lng":141.851551,"zip":"0983215"},{"town":"五条南二丁目","koaza":"","lat":45.014166,"lng":141.852814,"zip":"0983215"},{"town":"六条北一丁目","koaza":"","lat":45.016356,"lng":141.853001,"zip":"0983206"},{"town":"六条南一丁目","koaza":"","lat":45.015486,"lng":141.853179,"zip":"0983216"},{"town":"字開進","koaza":"","lat":44.970563,"lng":141.932296,"zip":"0983200"},{"town":"字上問寒","koaza":"","lat":45.042873,"lng":142.066159,"zip":"0983200"},{"town":"字上幌延","koaza":"","lat":45.014075,"lng":141.902678,"zip":"0983200"},{"town":"字下沼","koaza":"","lat":45.037026,"lng":141.748809,"zip":"0983200"},{"town":"字問寒別","koaza":"","lat":44.933665,"lng":142.05304,"zip":"0983200"},{"town":"字中問寒","koaza":"","lat":44.98223,"lng":142.06612,"zip":"0983200"},{"town":"字浜里","koaza":"","lat":44.967919,"lng":141.720423,"zip":"0983200"},{"town":"字北進","koaza":"","lat":45.057084,"lng":141.89971,"zip":"0983200"},{"town":"字幌延","koaza":"","lat":45.008324,"lng":141.811329,"zip":"0983200"},{"town":"字雄興","koaza":"","lat":44.917931,"lng":141.9478,"zip":"0983200"},{"town":"栄町","koaza":"","lat":45.018153,"lng":141.842248,"zip":"0983221"},{"town":"東町","koaza":"","lat":45.012893,"lng":141.853862,"zip":"0983222"},{"town":"宮園町","koaza":"","lat":45.017242,"lng":141.85081,"zip":"0983207"},{"town":"元町","koaza":"","lat":45.013716,"lng":141.840298,"zip":"0983217"}]