[{"town":"字ウブシ","koaza":"","lat":44.93981,"lng":141.822185,"zip":"0983300"},{"town":"字オヌプナイ","koaza":"","lat":44.85858,"lng":141.916413,"zip":"0983300"},{"town":"字川口","koaza":"","lat":44.924023,"lng":141.75767,"zip":"0983300"},{"town":"字キトウシュナイ","koaza":"","lat":44.827745,"lng":141.816176,"zip":"0983300"},{"town":"字サッカヘシ","koaza":"","lat":44.984164,"lng":141.820525,"zip":"0983300"},{"town":"字更岸","koaza":"","lat":44.845232,"lng":141.774519,"zip":"0983300"},{"town":"字下コクネップ","koaza":"","lat":44.880757,"lng":141.993381,"zip":"0983300"},{"town":"字下サロベツ","koaza":"","lat":44.972658,"lng":141.77843,"zip":"0983300"},{"town":"字タツネウシ","koaza":"","lat":44.901535,"lng":141.978976,"zip":"0983300"},{"town":"字天塩","koaza":"","lat":44.875307,"lng":141.745883,"zip":"0983300"},{"town":"字トコツナイ","koaza":"","lat":44.85081,"lng":141.825472,"zip":"0983300"},{"town":"字ペンケビラ","koaza":"","lat":44.894898,"lng":141.964792,"zip":"0983300"},{"town":"字ルークシュナイ","koaza":"","lat":44.881986,"lng":141.787309,"zip":"0983300"},{"town":"海岸通十丁目","koaza":"","lat":44.889689,"lng":141.739828,"zip":"0983306"},{"town":"海岸通十一丁目","koaza":"","lat":44.890767,"lng":141.739539,"zip":"0983306"},{"town":"海岸通一丁目","koaza":"","lat":44.880136,"lng":141.743386,"zip":"0983306"},{"town":"海岸通二丁目","koaza":"","lat":44.880967,"lng":141.742035,"zip":"0983306"},{"town":"海岸通三丁目","koaza":"","lat":44.882091,"lng":141.741815,"zip":"0983306"},{"town":"海岸通四丁目","koaza":"","lat":44.883273,"lng":141.74174,"zip":"0983306"},{"town":"海岸通五丁目","koaza":"","lat":44.884326,"lng":141.741223,"zip":"0983306"},{"town":"海岸通六丁目","koaza":"","lat":44.885431,"lng":141.741198,"zip":"0983306"},{"town":"海岸通七丁目","koaza":"","lat":44.886396,"lng":141.740679,"zip":"0983306"},{"town":"海岸通八丁目","koaza":"","lat":44.88747,"lng":141.7404,"zip":"0983306"},{"town":"海岸通九丁目","koaza":"","lat":44.888614,"lng":141.740107,"zip":"0983306"},{"town":"新栄通十丁目","koaza":"","lat":44.890331,"lng":141.743988,"zip":"0983303"},{"town":"新栄通十一丁目","koaza":"","lat":44.89156,"lng":141.743415,"zip":"0983303"},{"town":"新栄通一丁目","koaza":"","lat":44.88058,"lng":141.746342,"zip":"0983303"},{"town":"新栄通二丁目","koaza":"","lat":44.881688,"lng":141.746039,"zip":"0983303"},{"town":"新栄通三丁目","koaza":"","lat":44.882676,"lng":141.745685,"zip":"0983303"},{"town":"新栄通四丁目","koaza":"","lat":44.883789,"lng":141.745388,"zip":"0983303"},{"town":"新栄通五丁目","koaza":"","lat":44.884901,"lng":141.745095,"zip":"0983303"},{"town":"新栄通六丁目","koaza":"","lat":44.885976,"lng":141.744821,"zip":"0983303"},{"town":"新栄通七丁目","koaza":"","lat":44.88699,"lng":141.744567,"zip":"0983303"},{"town":"新栄通八丁目","koaza":"","lat":44.888173,"lng":141.744796,"zip":"0983303"},{"town":"新栄通九丁目","koaza":"","lat":44.88934,"lng":141.743966,"zip":"0983303"},{"town":"新開通十丁目","koaza":"","lat":44.890655,"lng":141.746202,"zip":"0983305"},{"town":"新開通十一丁目","koaza":"","lat":44.891834,"lng":141.745985,"zip":"0983305"},{"town":"新開通四丁目","koaza":"","lat":44.884032,"lng":141.747711,"zip":"0983305"},{"town":"新開通五丁目","koaza":"","lat":44.885256,"lng":141.747381,"zip":"0983305"},{"town":"新開通六丁目","koaza":"","lat":44.886353,"lng":141.747127,"zip":"0983305"},{"town":"新開通七丁目","koaza":"","lat":44.887368,"lng":141.746883,"zip":"0983305"},{"town":"新開通八丁目","koaza":"","lat":44.888528,"lng":141.746604,"zip":"0983305"},{"town":"新開通九丁目","koaza":"","lat":44.88965,"lng":141.746443,"zip":"0983305"},{"town":"新地通十丁目","koaza":"","lat":44.890502,"lng":141.745124,"zip":"0983304"},{"town":"新地通十一丁目","koaza":"","lat":44.891982,"lng":141.74481,"zip":"0983304"},{"town":"新地通一丁目","koaza":"","lat":44.880823,"lng":141.747879,"zip":"0983304"},{"town":"新地通二丁目","koaza":"","lat":44.88188,"lng":141.747499,"zip":"0983304"},{"town":"新地通三丁目","koaza":"","lat":44.883073,"lng":141.746924,"zip":"0983304"},{"town":"新地通四丁目","koaza":"","lat":44.883936,"lng":141.746639,"zip":"0983304"},{"town":"新地通五丁目","koaza":"","lat":44.885076,"lng":141.74635,"zip":"0983304"},{"town":"新地通六丁目","koaza":"","lat":44.886171,"lng":141.746078,"zip":"0983304"},{"town":"新地通七丁目","koaza":"","lat":44.88718,"lng":141.745828,"zip":"0983304"},{"town":"新地通八丁目","koaza":"","lat":44.888343,"lng":141.746095,"zip":"0983304"},{"town":"新地通九丁目","koaza":"","lat":44.889407,"lng":141.745389,"zip":"0983304"},{"town":"山手裏通十丁目","koaza":"","lat":44.890195,"lng":141.742962,"zip":"0983302"},{"town":"山手裏通十一丁目","koaza":"","lat":44.891293,"lng":141.742405,"zip":"0983302"},{"town":"山手裏通一丁目","koaza":"","lat":44.880415,"lng":141.745303,"zip":"0983302"},{"town":"山手裏通二丁目","koaza":"","lat":44.881495,"lng":141.745051,"zip":"0983302"},{"town":"山手裏通三丁目","koaza":"","lat":44.88256,"lng":141.744786,"zip":"0983302"},{"town":"山手裏通四丁目","koaza":"","lat":44.883651,"lng":141.744493,"zip":"0983302"},{"town":"山手裏通五丁目","koaza":"","lat":44.884765,"lng":141.744185,"zip":"0983302"},{"town":"山手裏通六丁目","koaza":"","lat":44.885841,"lng":141.743893,"zip":"0983302"},{"town":"山手裏通七丁目","koaza":"","lat":44.886846,"lng":141.743618,"zip":"0983302"},{"town":"山手裏通八丁目","koaza":"","lat":44.887929,"lng":141.743323,"zip":"0983302"},{"town":"山手裏通九丁目","koaza":"","lat":44.889075,"lng":141.74301,"zip":"0983302"},{"town":"山手通十丁目","koaza":"","lat":44.889986,"lng":141.741713,"zip":"0983301"},{"town":"山手通十一丁目","koaza":"","lat":44.891082,"lng":141.741403,"zip":"0983301"},{"town":"山手通一丁目","koaza":"","lat":44.880302,"lng":141.744567,"zip":"0983301"},{"town":"山手通二丁目","koaza":"","lat":44.881331,"lng":141.74408,"zip":"0983301"},{"town":"山手通三丁目","koaza":"","lat":44.882412,"lng":141.7438,"zip":"0983301"},{"town":"山手通四丁目","koaza":"","lat":44.883538,"lng":141.74374,"zip":"0983301"},{"town":"山手通五丁目","koaza":"","lat":44.884616,"lng":141.743155,"zip":"0983301"},{"town":"山手通六丁目","koaza":"","lat":44.885732,"lng":141.743153,"zip":"0983301"},{"town":"山手通七丁目","koaza":"","lat":44.886592,"lng":141.742622,"zip":"0983301"},{"town":"山手通八丁目","koaza":"","lat":44.887776,"lng":141.742319,"zip":"0983301"},{"town":"山手通九丁目","koaza":"","lat":44.88892,"lng":141.742008,"zip":"0983301"}]