[{"town":"浅茅野","koaza":"","lat":45.212723,"lng":142.221329,"zip":"0986101"},{"town":"浅茅野台地","koaza":"","lat":45.199965,"lng":142.273614,"zip":"0986102"},{"town":"芦野","koaza":"","lat":45.288713,"lng":142.175485,"zip":"0986225"},{"town":"鬼志別北町","koaza":"","lat":45.337272,"lng":142.119181,"zip":"0986234"},{"town":"鬼志別西町","koaza":"","lat":45.331807,"lng":142.10354,"zip":"0986232"},{"town":"鬼志別東町","koaza":"","lat":45.329882,"lng":142.120295,"zip":"0986231"},{"town":"鬼志別南町","koaza":"","lat":45.326242,"lng":142.113838,"zip":"0986233"},{"town":"上猿払","koaza":"","lat":45.113531,"lng":142.088469,"zip":"0986106"},{"town":"狩別","koaza":"","lat":45.241591,"lng":142.06604,"zip":"0986103"},{"town":"小石","koaza":"","lat":45.311726,"lng":142.050338,"zip":"0986228"},{"town":"猿払","koaza":"","lat":45.26387,"lng":142.207753,"zip":"0986104"},{"town":"知来別","koaza":"","lat":45.378364,"lng":142.081717,"zip":"0986341"},{"town":"豊里","koaza":"","lat":45.285545,"lng":142.061989,"zip":"0986226"},{"town":"浜鬼志別","koaza":"","lat":45.336543,"lng":142.160854,"zip":"0986222"},{"town":"浜猿払","koaza":"","lat":45.262641,"lng":142.237076,"zip":"0986105"}]