[{"town":"石川町","koaza":"","lat":42.3855,"lng":140.936264,"zip":"0500051"},{"town":"入江町","koaza":"","lat":42.322255,"lng":140.976707,"zip":"0510023"},{"town":"絵鞆町一丁目","koaza":"","lat":42.33704,"lng":140.939144,"zip":"0510035"},{"town":"絵鞆町二丁目","koaza":"","lat":42.335037,"lng":140.935337,"zip":"0510035"},{"town":"絵鞆町三丁目","koaza":"","lat":42.331601,"lng":140.94057,"zip":"0510035"},{"town":"絵鞆町四丁目","koaza":"","lat":42.339439,"lng":140.938017,"zip":"0510035"},{"town":"大沢町一丁目","koaza":"","lat":42.331778,"lng":140.999386,"zip":"0500086"},{"town":"大沢町二丁目","koaza":"","lat":42.329721,"lng":141.00595,"zip":"0500086"},{"town":"大沢町三丁目","koaza":"","lat":42.323405,"lng":141.010198,"zip":"0500086"},{"town":"小橋内町一丁目","koaza":"","lat":42.331984,"lng":140.960669,"zip":"0510033"},{"town":"小橋内町二丁目","koaza":"","lat":42.327297,"lng":140.958114,"zip":"0510033"},{"town":"海岸町一丁目","koaza":"","lat":42.324044,"lng":140.97072,"zip":"0510022"},{"town":"海岸町二丁目","koaza":"","lat":42.321107,"lng":140.969189,"zip":"0510022"},{"town":"海岸町三丁目","koaza":"","lat":42.324613,"lng":140.967775,"zip":"0510022"},{"town":"香川町","koaza":"","lat":42.41039,"lng":140.992821,"zip":"0500052"},{"town":"柏木町","koaza":"","lat":42.373872,"lng":140.994811,"zip":"0500064"},{"town":"神代町","koaza":"","lat":42.396034,"lng":141.0008,"zip":"0500053"},{"town":"港南町一丁目","koaza":"","lat":42.33492,"lng":140.955415,"zip":"0510032"},{"town":"港南町二丁目","koaza":"","lat":42.332206,"lng":140.952902,"zip":"0510032"},{"town":"港北町一丁目","koaza":"","lat":42.358865,"lng":140.984795,"zip":"0500063"},{"town":"港北町二丁目","koaza":"","lat":42.364846,"lng":140.989737,"zip":"0500063"},{"town":"港北町三丁目","koaza":"","lat":42.359695,"lng":140.992142,"zip":"0500063"},{"town":"港北町四丁目","koaza":"","lat":42.365398,"lng":140.997335,"zip":"0500063"},{"town":"港北町五丁目","koaza":"","lat":42.373355,"lng":141.002098,"zip":"0500063"},{"town":"御前水町一丁目","koaza":"","lat":42.323317,"lng":141.001052,"zip":"0510002"},{"town":"御前水町二丁目","koaza":"","lat":42.318421,"lng":141.004236,"zip":"0510002"},{"town":"御前水町三丁目","koaza":"","lat":42.317096,"lng":140.998186,"zip":"0510002"},{"town":"寿町一丁目","koaza":"","lat":42.349031,"lng":141.030387,"zip":"0500082"},{"town":"寿町二丁目","koaza":"","lat":42.350912,"lng":141.033699,"zip":"0500082"},{"town":"寿町三丁目","koaza":"","lat":42.345996,"lng":141.035095,"zip":"0500082"},{"town":"幸町","koaza":"","lat":42.315243,"lng":140.96914,"zip":"0510016"},{"town":"栄町一丁目","koaza":"","lat":42.312032,"lng":140.969847,"zip":"0510014"},{"town":"栄町二丁目","koaza":"","lat":42.312298,"lng":140.973107,"zip":"0510014"},{"town":"崎守町","koaza":"","lat":42.377357,"lng":140.922831,"zip":"0500055"},{"town":"沢町","koaza":"","lat":42.321992,"lng":140.964039,"zip":"0510027"},{"town":"清水町一丁目","koaza":"","lat":42.321438,"lng":140.955573,"zip":"0510026"},{"town":"清水町二丁目","koaza":"","lat":42.316618,"lng":140.962368,"zip":"0510026"},{"town":"祝津町一丁目","koaza":"","lat":42.341748,"lng":140.952431,"zip":"0510036"},{"town":"祝津町二丁目","koaza":"","lat":42.337205,"lng":140.950429,"zip":"0510036"},{"town":"祝津町三丁目","koaza":"","lat":42.335413,"lng":140.944616,"zip":"0510036"},{"town":"祝津町四丁目","koaza":"","lat":42.34321,"lng":140.946032,"zip":"0510036"},{"town":"新富町一丁目","koaza":"","lat":42.313095,"lng":140.984627,"zip":"0510005"},{"town":"新富町二丁目","koaza":"","lat":42.30753,"lng":140.984304,"zip":"0510005"},{"town":"陣屋町一丁目","koaza":"","lat":42.365485,"lng":140.94485,"zip":"0500067"},{"town":"陣屋町二丁目","koaza":"","lat":42.372174,"lng":140.949759,"zip":"0500067"},{"town":"陣屋町三丁目","koaza":"","lat":42.36629,"lng":140.954225,"zip":"0500067"},{"town":"陣屋町四丁目","koaza":"","lat":42.374142,"lng":140.96365,"zip":"0500067"},{"town":"陣屋町五丁目","koaza":"","lat":42.376633,"lng":140.956762,"zip":"0500067"},{"town":"高砂町一丁目","koaza":"","lat":42.359628,"lng":141.037873,"zip":"0500072"},{"town":"高砂町二丁目","koaza":"","lat":42.36214,"lng":141.034748,"zip":"0500072"},{"town":"高砂町三丁目","koaza":"","lat":42.365217,"lng":141.033585,"zip":"0500072"},{"town":"高砂町四丁目","koaza":"","lat":42.370137,"lng":141.033938,"zip":"0500072"},{"town":"高砂町五丁目","koaza":"","lat":42.373955,"lng":141.035656,"zip":"0500072"},{"town":"高平町","koaza":"","lat":42.356186,"lng":140.996858,"zip":"0500062"},{"town":"茶津町","koaza":"","lat":42.323039,"lng":140.987681,"zip":"0510006"},{"town":"中央町一丁目","koaza":"","lat":42.318882,"lng":140.971056,"zip":"0510011"},{"town":"中央町二丁目","koaza":"","lat":42.31724,"lng":140.971883,"zip":"0510011"},{"town":"中央町三丁目","koaza":"","lat":42.31609,"lng":140.974169,"zip":"0510011"},{"town":"中央町四丁目","koaza":"","lat":42.317581,"lng":140.976496,"zip":"0510011"},{"town":"知利別町一丁目","koaza":"","lat":42.357901,"lng":141.019512,"zip":"0500076"},{"town":"知利別町二丁目","koaza":"","lat":42.360477,"lng":141.023545,"zip":"0500076"},{"town":"知利別町三丁目","koaza":"","lat":42.363319,"lng":141.023723,"zip":"0500076"},{"town":"知利別町四丁目","koaza":"","lat":42.365454,"lng":141.02624,"zip":"0500076"},{"town":"築地町","koaza":"","lat":42.333856,"lng":140.964441,"zip":"0510031"},{"town":"天神町","koaza":"","lat":42.372738,"lng":141.025048,"zip":"0500077"},{"town":"常盤町","koaza":"","lat":42.316789,"lng":140.967321,"zip":"0510025"},{"town":"中島町一丁目","koaza":"","lat":42.352446,"lng":141.015098,"zip":"0500074"},{"town":"中島町二丁目","koaza":"","lat":42.351774,"lng":141.018264,"zip":"0500074"},{"town":"中島町三丁目","koaza":"","lat":42.350213,"lng":141.023655,"zip":"0500074"},{"town":"中島町四丁目","koaza":"","lat":42.347603,"lng":141.017888,"zip":"0500074"},{"town":"中島本町一丁目","koaza":"","lat":42.354804,"lng":141.008344,"zip":"0500075"},{"town":"中島本町二丁目","koaza":"","lat":42.357261,"lng":141.011601,"zip":"0500075"},{"town":"中島本町三丁目","koaza":"","lat":42.362927,"lng":141.015271,"zip":"0500075"},{"town":"仲町","koaza":"","lat":42.340933,"lng":141.000724,"zip":"0500087"},{"town":"西小路町","koaza":"","lat":42.32483,"lng":140.964578,"zip":"0510028"},{"town":"白鳥台一丁目","koaza":"","lat":42.372737,"lng":140.935524,"zip":"0500054"},{"town":"白鳥台二丁目","koaza":"","lat":42.376807,"lng":140.935743,"zip":"0500054"},{"town":"白鳥台三丁目","koaza":"","lat":42.382086,"lng":140.936578,"zip":"0500054"},{"town":"白鳥台四丁目","koaza":"","lat":42.381019,"lng":140.946356,"zip":"0500054"},{"town":"白鳥台五丁目","koaza":"","lat":42.37792,"lng":140.942644,"zip":"0500054"},{"town":"八丁平一丁目","koaza":"","lat":42.362198,"lng":141.002354,"zip":"0500061"},{"town":"八丁平二丁目","koaza":"","lat":42.369501,"lng":141.008206,"zip":"0500061"},{"town":"八丁平三丁目","koaza":"","lat":42.376055,"lng":141.013394,"zip":"0500061"},{"town":"八丁平四丁目","koaza":"","lat":42.367855,"lng":141.011857,"zip":"0500061"},{"town":"八丁平五丁目","koaza":"","lat":42.361649,"lng":141.007592,"zip":"0500061"},{"town":"東町一丁目","koaza":"","lat":42.343852,"lng":141.022481,"zip":"0500083"},{"town":"東町二丁目","koaza":"","lat":42.346479,"lng":141.026604,"zip":"0500083"},{"town":"東町三丁目","koaza":"","lat":42.339022,"lng":141.029533,"zip":"0500083"},{"town":"東町四丁目","koaza":"","lat":42.340272,"lng":141.02586,"zip":"0500083"},{"town":"東町五丁目","koaza":"","lat":42.338388,"lng":141.020665,"zip":"0500083"},{"town":"日の出町一丁目","koaza":"","lat":42.352747,"lng":141.037052,"zip":"0500081"},{"town":"日の出町二丁目","koaza":"","lat":42.355504,"lng":141.041252,"zip":"0500081"},{"town":"日の出町三丁目","koaza":"","lat":42.350836,"lng":141.046025,"zip":"0500081"},{"town":"舟見町一丁目","koaza":"","lat":42.309241,"lng":140.96955,"zip":"0510013"},{"town":"舟見町二丁目","koaza":"","lat":42.308925,"lng":140.976623,"zip":"0510013"},{"town":"母恋北町一丁目","koaza":"","lat":42.315617,"lng":140.992925,"zip":"0510004"},{"town":"母恋北町二丁目","koaza":"","lat":42.314428,"lng":140.989353,"zip":"0510004"},{"town":"母恋北町三丁目","koaza":"","lat":42.309992,"lng":140.987705,"zip":"0510004"},{"town":"母恋南町一丁目","koaza":"","lat":42.307642,"lng":140.99068,"zip":"0510003"},{"town":"母恋南町二丁目","koaza":"","lat":42.313062,"lng":140.997326,"zip":"0510003"},{"town":"母恋南町三丁目","koaza":"","lat":42.312085,"lng":141.003995,"zip":"0510003"},{"town":"母恋南町四丁目","koaza":"","lat":42.30568,"lng":141.003457,"zip":"0510003"},{"town":"母恋南町五丁目","koaza":"","lat":42.306209,"lng":140.995983,"zip":"0510003"},{"town":"幌萌町","koaza":"","lat":42.373899,"lng":140.975369,"zip":"0500066"},{"town":"本町一丁目","koaza":"","lat":42.313783,"lng":140.969698,"zip":"0510015"},{"town":"本町二丁目","koaza":"","lat":42.313976,"lng":140.973151,"zip":"0510015"},{"town":"幕西町","koaza":"","lat":42.319689,"lng":140.965529,"zip":"0510024"},{"town":"増市町一丁目","koaza":"","lat":42.325798,"lng":140.951143,"zip":"0510034"},{"town":"増市町二丁目","koaza":"","lat":42.322987,"lng":140.94554,"zip":"0510034"},{"town":"御崎町一丁目","koaza":"","lat":42.330936,"lng":140.98912,"zip":"0510001"},{"town":"御崎町二丁目","koaza":"","lat":42.33026,"lng":140.995304,"zip":"0510001"},{"town":"水元町","koaza":"","lat":42.388353,"lng":141.022202,"zip":"0500071"},{"town":"緑町","koaza":"","lat":42.327088,"lng":140.964056,"zip":"0510021"},{"town":"宮の森町一丁目","koaza":"","lat":42.355479,"lng":141.023239,"zip":"0500073"},{"town":"宮の森町二丁目","koaza":"","lat":42.359501,"lng":141.029854,"zip":"0500073"},{"town":"宮の森町三丁目","koaza":"","lat":42.355498,"lng":141.031111,"zip":"0500073"},{"town":"宮の森町四丁目","koaza":"","lat":42.353077,"lng":141.026792,"zip":"0500073"},{"town":"みゆき町一丁目","koaza":"","lat":42.330692,"lng":141.011416,"zip":"0500084"},{"town":"みゆき町二丁目","koaza":"","lat":42.332518,"lng":141.014749,"zip":"0500084"},{"town":"みゆき町三丁目","koaza":"","lat":42.329489,"lng":141.017212,"zip":"0500084"},{"town":"本輪西町一丁目","koaza":"","lat":42.359348,"lng":140.979803,"zip":"0500065"},{"town":"本輪西町二丁目","koaza":"","lat":42.363027,"lng":140.976179,"zip":"0500065"},{"town":"本輪西町三丁目","koaza":"","lat":42.366315,"lng":140.98156,"zip":"0500065"},{"town":"本輪西町四丁目","koaza":"","lat":42.370503,"lng":140.983709,"zip":"0500065"},{"town":"本輪西町五丁目","koaza":"","lat":42.378871,"lng":140.988208,"zip":"0500065"},{"town":"山手町一丁目","koaza":"","lat":42.315289,"lng":140.980442,"zip":"0510012"},{"town":"山手町二丁目","koaza":"","lat":42.312407,"lng":140.978138,"zip":"0510012"},{"town":"山手町三丁目","koaza":"","lat":42.314452,"lng":140.976233,"zip":"0510012"},{"town":"輪西町一丁目","koaza":"","lat":42.333402,"lng":141.007703,"zip":"0500085"},{"town":"輪西町二丁目","koaza":"","lat":42.33591,"lng":141.013625,"zip":"0500085"},{"town":"輪西町三丁目","koaza":"","lat":42.338259,"lng":141.016591,"zip":"0500085"}]