[{"town":"字学田三区","koaza":"","lat":43.352004,"lng":142.359884,"zip":"0760000"},{"town":"字上五区","koaza":"","lat":43.290252,"lng":142.382091,"zip":"0760000"},{"town":"字上御料","koaza":"","lat":43.29783,"lng":142.364087,"zip":"0760000"},{"town":"字北扇山","koaza":"","lat":43.326863,"lng":142.414629,"zip":"0760000"},{"town":"字北大沼","koaza":"","lat":43.35304,"lng":142.408953,"zip":"0760000"},{"town":"字北布礼別","koaza":"","lat":43.35531,"lng":142.533877,"zip":"0760000"},{"town":"字北麓郷","koaza":"","lat":43.307779,"lng":142.525972,"zip":"0760000"},{"town":"字島ノ下","koaza":"","lat":43.374485,"lng":142.349301,"zip":"0760000"},{"town":"字清水山","koaza":"","lat":43.368724,"lng":142.363247,"zip":"0760000"},{"town":"字下五区","koaza":"","lat":43.331779,"lng":142.382922,"zip":"0760000"},{"town":"字下御料","koaza":"","lat":43.335933,"lng":142.366855,"zip":"0760000"},{"town":"字平沢","koaza":"","lat":43.263504,"lng":142.483319,"zip":"0760000"},{"town":"字富丘更生","koaza":"","lat":43.349053,"lng":142.479776,"zip":"0760000"},{"town":"字中五区","koaza":"","lat":43.312826,"lng":142.379393,"zip":"0760000"},{"town":"字中御料","koaza":"","lat":43.32127,"lng":142.366372,"zip":"0760000"},{"town":"字中布礼別","koaza":"","lat":43.323722,"lng":142.51388,"zip":"0760000"},{"town":"字西扇山","koaza":"","lat":43.323248,"lng":142.397743,"zip":"0760000"},{"town":"字西学田二区","koaza":"","lat":43.365157,"lng":142.382186,"zip":"0760000"},{"town":"字西達布","koaza":"","lat":43.220808,"lng":142.50932,"zip":"0760000"},{"town":"字西富丘","koaza":"","lat":43.352898,"lng":142.50449,"zip":"0760000"},{"town":"字西鳥沼","koaza":"","lat":43.352269,"lng":142.433914,"zip":"0760000"},{"town":"字西布礼別","koaza":"","lat":43.331477,"lng":142.503727,"zip":"0760000"},{"town":"字西麓郷","koaza":"","lat":43.289337,"lng":142.521024,"zip":"0760000"},{"town":"字布部石綿","koaza":"","lat":43.283239,"lng":142.397769,"zip":"0760000"},{"town":"字布部一","koaza":"","lat":43.291522,"lng":142.396149,"zip":"0760000"},{"town":"字布部市街地","koaza":"","lat":43.292486,"lng":142.402385,"zip":"0760000"},{"town":"字東学田二区","koaza":"","lat":43.362253,"lng":142.393359,"zip":"0760000"},{"town":"字東富丘","koaza":"","lat":43.354606,"lng":142.518937,"zip":"0760000"},{"town":"字東鳥沼","koaza":"","lat":43.35,"lng":142.445201,"zip":"0760000"},{"town":"字東鳥沼新生","koaza":"","lat":43.361514,"lng":142.453975,"zip":"0760000"},{"town":"字東布礼別","koaza":"","lat":43.328756,"lng":142.549097,"zip":"0760000"},{"town":"字東山","koaza":"","lat":43.204668,"lng":142.458458,"zip":"0760000"},{"town":"字東麓郷","koaza":"","lat":43.308579,"lng":142.5531,"zip":"0760000"},{"town":"朝日町","koaza":"","lat":43.34972,"lng":142.38814,"zip":"0760026"},{"town":"字布礼別市街地","koaza":"","lat":43.334638,"lng":142.521693,"zip":"0760000"},{"town":"字ベベルイ","koaza":"","lat":43.3548,"lng":142.556961,"zip":"0760000"},{"town":"字南扇山","koaza":"","lat":43.311333,"lng":142.407791,"zip":"0760000"},{"town":"字南大沼","koaza":"","lat":43.338877,"lng":142.412624,"zip":"0760000"},{"town":"字南布礼別","koaza":"","lat":43.326774,"lng":142.52935,"zip":"0760000"},{"town":"字南麓郷","koaza":"","lat":43.292219,"lng":142.544987,"zip":"0760000"},{"town":"字八幡丘","koaza":"","lat":43.333057,"lng":142.477792,"zip":"0760000"},{"town":"字山部西十二線","koaza":"","lat":43.280994,"lng":142.362918,"zip":"0760000"},{"town":"字山部西十三線","koaza":"","lat":43.276276,"lng":142.362185,"zip":"0760000"},{"town":"字山部西十四線","koaza":"","lat":43.271056,"lng":142.360209,"zip":"0760000"},{"town":"字山部西十五線","koaza":"","lat":43.266023,"lng":142.361937,"zip":"0760000"},{"town":"字山部西十六線","koaza":"","lat":43.261022,"lng":142.360295,"zip":"0760000"},{"town":"字山部西十七線","koaza":"","lat":43.256295,"lng":142.357386,"zip":"0760000"},{"town":"字山部西十八線","koaza":"","lat":43.251392,"lng":142.356701,"zip":"0760000"},{"town":"字山部西十九線","koaza":"","lat":43.246306,"lng":142.355221,"zip":"0760000"},{"town":"字山部西二十線","koaza":"","lat":43.241288,"lng":142.356989,"zip":"0760000"},{"town":"字山部西二十一線","koaza":"","lat":43.236374,"lng":142.356194,"zip":"0760000"},{"town":"字山部西二十二線","koaza":"","lat":43.231484,"lng":142.357115,"zip":"0760000"},{"town":"字山部西二十三線","koaza":"","lat":43.226324,"lng":142.357598,"zip":"0760000"},{"town":"字山部西二十四線","koaza":"","lat":43.221939,"lng":142.349478,"zip":"0760000"},{"town":"字山部西二十五線","koaza":"","lat":43.216956,"lng":142.350471,"zip":"0760000"},{"town":"字山部西二十六線","koaza":"","lat":43.211967,"lng":142.352826,"zip":"0760000"},{"town":"字山部西二十七線","koaza":"","lat":43.206083,"lng":142.356365,"zip":"0760000"},{"town":"字山部西二十八線","koaza":"","lat":43.193218,"lng":142.351535,"zip":"0760000"},{"town":"字山部東十二線","koaza":"","lat":43.279253,"lng":142.383521,"zip":"0760000"},{"town":"字山部東十三線","koaza":"","lat":43.27433,"lng":142.38387,"zip":"0760000"},{"town":"字山部東十四線","koaza":"","lat":43.269301,"lng":142.383585,"zip":"0760000"},{"town":"字山部東十五線","koaza":"","lat":43.264225,"lng":142.383484,"zip":"0760000"},{"town":"字山部東十六線","koaza":"","lat":43.259387,"lng":142.383562,"zip":"0760000"},{"town":"字山部東十七線","koaza":"","lat":43.254506,"lng":142.383113,"zip":"0760000"},{"town":"字山部東十八線","koaza":"","lat":43.250144,"lng":142.375511,"zip":"0760000"},{"town":"字山部東十九線","koaza":"","lat":43.243775,"lng":142.38963,"zip":"0760000"},{"town":"字山部東二十線","koaza":"","lat":43.239549,"lng":142.389355,"zip":"0760000"},{"town":"字山部東二十一線","koaza":"","lat":43.234772,"lng":142.379396,"zip":"0760000"},{"town":"字山部東二十二線","koaza":"","lat":43.229882,"lng":142.377304,"zip":"0760000"},{"town":"字山部東二十三線","koaza":"","lat":43.225002,"lng":142.376635,"zip":"0760000"},{"town":"字山部東二十四線","koaza":"","lat":43.219554,"lng":142.373524,"zip":"0760000"},{"town":"字山部東二十五線","koaza":"","lat":43.213533,"lng":142.37718,"zip":"0760000"},{"town":"字山部東二十六線","koaza":"","lat":43.210271,"lng":142.373416,"zip":"0760000"},{"town":"字山部東二十七線","koaza":"","lat":43.198993,"lng":142.363837,"zip":"0760000"},{"town":"字老節布","koaza":"","lat":43.235862,"lng":142.472938,"zip":"0760000"},{"town":"字麓郷市街地","koaza":"","lat":43.302836,"lng":142.525495,"zip":"0760000"},{"town":"扇町","koaza":"","lat":43.332943,"lng":142.39443,"zip":"0760008"},{"town":"春日町","koaza":"","lat":43.34187,"lng":142.396848,"zip":"0760054"},{"town":"桂木町","koaza":"","lat":43.35064,"lng":142.382749,"zip":"0760038"},{"town":"北麻町","koaza":"","lat":43.345647,"lng":142.401124,"zip":"0760059"},{"town":"北の峰町","koaza":"","lat":43.344035,"lng":142.366113,"zip":"0760034"},{"town":"幸町","koaza":"","lat":43.34301,"lng":142.387987,"zip":"0760024"},{"town":"栄町","koaza":"","lat":43.341929,"lng":142.391791,"zip":"0760023"},{"town":"東雲町","koaza":"","lat":43.346931,"lng":142.40481,"zip":"0760050"},{"town":"新光町","koaza":"","lat":43.350516,"lng":142.396808,"zip":"0760058"},{"town":"新富町","koaza":"","lat":43.347045,"lng":142.379508,"zip":"0760033"},{"town":"末広町","koaza":"","lat":43.340648,"lng":142.385682,"zip":"0760011"},{"town":"住吉町","koaza":"","lat":43.346808,"lng":142.393747,"zip":"0760057"},{"town":"西麻町","koaza":"","lat":43.343895,"lng":142.399188,"zip":"0760055"},{"town":"錦町","koaza":"","lat":43.350782,"lng":142.392231,"zip":"0760028"},{"town":"西町","koaza":"","lat":43.350819,"lng":142.376721,"zip":"0760037"},{"town":"花園町","koaza":"","lat":43.354876,"lng":142.390952,"zip":"0760027"},{"town":"東麻町","koaza":"","lat":43.344525,"lng":142.403809,"zip":"0760051"},{"town":"東町","koaza":"","lat":43.33767,"lng":142.398119,"zip":"0760053"},{"town":"日の出町","koaza":"","lat":43.345528,"lng":142.390141,"zip":"0760025"},{"town":"北斗町","koaza":"","lat":43.354919,"lng":142.380873,"zip":"0760046"},{"town":"瑞穂町","koaza":"","lat":43.346174,"lng":142.397143,"zip":"0760056"},{"town":"緑町","koaza":"","lat":43.333498,"lng":142.397448,"zip":"0760021"},{"town":"南麻町","koaza":"","lat":43.342394,"lng":142.401959,"zip":"0760052"},{"town":"南町","koaza":"","lat":43.328613,"lng":142.395325,"zip":"0760007"},{"town":"本町","koaza":"","lat":43.346953,"lng":142.386259,"zip":"0760031"},{"town":"山部北町","koaza":"","lat":43.244876,"lng":142.377986,"zip":"0791562"},{"town":"山部中町","koaza":"","lat":43.242934,"lng":142.382885,"zip":"0791564"},{"town":"山部西町","koaza":"","lat":43.241317,"lng":142.377393,"zip":"0791566"},{"town":"山部東町","koaza":"","lat":43.247417,"lng":142.385032,"zip":"0791563"},{"town":"山部南町","koaza":"","lat":43.239787,"lng":142.382137,"zip":"0791565"},{"town":"弥生町","koaza":"","lat":43.342298,"lng":142.378174,"zip":"0760018"},{"town":"若葉町","koaza":"","lat":43.338281,"lng":142.391906,"zip":"0760022"},{"town":"若松町","koaza":"","lat":43.344697,"lng":142.384366,"zip":"0760032"}]