[{"town":"字赤井川","koaza":"","lat":42.66462,"lng":140.429039,"zip":"0480100"},{"town":"字旭野","koaza":"","lat":42.655145,"lng":140.229662,"zip":"0480100"},{"town":"字五十嵐","koaza":"","lat":42.721632,"lng":140.276614,"zip":"0480100"},{"town":"字歌才","koaza":"","lat":42.638205,"lng":140.32473,"zip":"0480100"},{"town":"字大谷地","koaza":"","lat":42.691926,"lng":140.386784,"zip":"0480100"},{"town":"字北作開","koaza":"","lat":42.759805,"lng":140.325674,"zip":"0480100"},{"town":"字黒松内","koaza":"","lat":42.661246,"lng":140.309262,"zip":"0480100"},{"town":"字白井川","koaza":"","lat":42.68561,"lng":140.427765,"zip":"0480100"},{"town":"字白炭","koaza":"","lat":42.709973,"lng":140.301754,"zip":"0480100"},{"town":"字添別","koaza":"","lat":42.688195,"lng":140.246291,"zip":"0480100"},{"town":"字岱下","koaza":"","lat":42.725236,"lng":140.329585,"zip":"0480100"},{"town":"字大成","koaza":"","lat":42.617139,"lng":140.479549,"zip":"0480100"},{"town":"字東栄","koaza":"","lat":42.614339,"lng":140.414192,"zip":"0480100"},{"town":"字豊幌","koaza":"","lat":42.622582,"lng":140.376944,"zip":"0480100"},{"town":"字中里","koaza":"","lat":42.651347,"lng":140.350843,"zip":"0480100"},{"town":"字中ノ川","koaza":"","lat":42.717848,"lng":140.231583,"zip":"0480100"},{"town":"字西熱郛原野","koaza":"","lat":42.710915,"lng":140.372989,"zip":"0480100"},{"town":"字西沢","koaza":"","lat":42.63512,"lng":140.274491,"zip":"0480100"},{"town":"字熱郛","koaza":"","lat":42.69127,"lng":140.303161,"zip":"0480100"},{"town":"字熱郛原野","koaza":"","lat":42.670452,"lng":140.340351,"zip":"0480100"},{"town":"字東川","koaza":"","lat":42.662979,"lng":140.491312,"zip":"0480100"},{"town":"字南作開","koaza":"","lat":42.74535,"lng":140.317052,"zip":"0480100"},{"town":"字目名","koaza":"","lat":42.689053,"lng":140.290221,"zip":"0480100"}]