[{"town":"相生町","koaza":"","lat":43.191426,"lng":141.004925,"zip":"0470028"},{"town":"赤岩一丁目","koaza":"","lat":43.22097,"lng":140.992523,"zip":"0470046"},{"town":"赤岩二丁目","koaza":"","lat":43.227304,"lng":140.992557,"zip":"0470046"},{"town":"赤岩三丁目","koaza":"","lat":43.229724,"lng":140.977108,"zip":"0470046"},{"town":"旭町","koaza":"","lat":43.196938,"lng":140.965829,"zip":"0470035"},{"town":"朝里一丁目","koaza":"","lat":43.178218,"lng":141.058721,"zip":"0470151"},{"town":"朝里二丁目","koaza":"","lat":43.177576,"lng":141.056355,"zip":"0470151"},{"town":"朝里三丁目","koaza":"","lat":43.175649,"lng":141.060872,"zip":"0470151"},{"town":"朝里四丁目","koaza":"","lat":43.171296,"lng":141.08147,"zip":"0470151"},{"town":"朝里川温泉一丁目","koaza":"","lat":43.12354,"lng":141.012419,"zip":"0470154"},{"town":"朝里川温泉二丁目","koaza":"","lat":43.124314,"lng":141.055762,"zip":"0470154"},{"town":"朝里川温泉三丁目","koaza":"","lat":43.093919,"lng":141.038634,"zip":"0470154"},{"town":"有幌町","koaza":"","lat":43.188601,"lng":141.010871,"zip":"0470006"},{"town":"石山町","koaza":"","lat":43.208435,"lng":140.990009,"zip":"0470038"},{"town":"稲穂一丁目","koaza":"","lat":43.19482,"lng":140.997648,"zip":"0470032"},{"town":"稲穂二丁目","koaza":"","lat":43.197001,"lng":140.996374,"zip":"0470032"},{"town":"稲穂三丁目","koaza":"","lat":43.199486,"lng":140.99521,"zip":"0470032"},{"town":"稲穂四丁目","koaza":"","lat":43.201597,"lng":140.993379,"zip":"0470032"},{"town":"稲穂五丁目","koaza":"","lat":43.20409,"lng":140.9923,"zip":"0470032"},{"town":"入船一丁目","koaza":"","lat":43.188309,"lng":141.004948,"zip":"0470021"},{"town":"入船二丁目","koaza":"","lat":43.183583,"lng":141.000235,"zip":"0470021"},{"town":"入船三丁目","koaza":"","lat":43.17922,"lng":140.996973,"zip":"0470021"},{"town":"入船四丁目","koaza":"","lat":43.182007,"lng":140.995298,"zip":"0470021"},{"town":"入船五丁目","koaza":"","lat":43.182674,"lng":140.990009,"zip":"0470021"},{"town":"色内一丁目","koaza":"","lat":43.197171,"lng":141.001334,"zip":"0470031"},{"town":"色内二丁目","koaza":"","lat":43.201158,"lng":140.99883,"zip":"0470031"},{"town":"色内三丁目","koaza":"","lat":43.205945,"lng":141.001382,"zip":"0470031"},{"town":"梅ケ枝町","koaza":"","lat":43.215446,"lng":140.991841,"zip":"0470044"},{"town":"奥沢一丁目","koaza":"","lat":43.180512,"lng":141.003802,"zip":"0470013"},{"town":"奥沢二丁目","koaza":"","lat":43.178182,"lng":141.001402,"zip":"0470013"},{"town":"奥沢三丁目","koaza":"","lat":43.176185,"lng":140.998019,"zip":"0470013"},{"town":"奥沢四丁目","koaza":"","lat":43.172409,"lng":140.994971,"zip":"0470013"},{"town":"奥沢五丁目","koaza":"","lat":43.163114,"lng":141.001327,"zip":"0470013"},{"town":"忍路一丁目","koaza":"","lat":43.207795,"lng":140.862532,"zip":"0482561"},{"town":"忍路二丁目","koaza":"","lat":43.193064,"lng":140.878824,"zip":"0482561"},{"town":"忍路三丁目","koaza":"","lat":43.174203,"lng":140.888694,"zip":"0482561"},{"town":"オタモイ一丁目","koaza":"","lat":43.221008,"lng":140.957925,"zip":"0482671"},{"town":"オタモイ二丁目","koaza":"","lat":43.213299,"lng":140.95734,"zip":"0482671"},{"town":"オタモイ三丁目","koaza":"","lat":43.222715,"lng":140.950299,"zip":"0482671"},{"town":"オタモイ四丁目","koaza":"","lat":43.229779,"lng":140.958566,"zip":"0482671"},{"town":"勝納町","koaza":"","lat":43.183419,"lng":141.017664,"zip":"0470005"},{"town":"桂岡町","koaza":"","lat":43.134689,"lng":141.143036,"zip":"0470264"},{"town":"幸一丁目","koaza":"","lat":43.215991,"lng":140.977379,"zip":"0470037"},{"town":"幸二丁目","koaza":"","lat":43.21361,"lng":140.969419,"zip":"0470037"},{"town":"幸三丁目","koaza":"","lat":43.218149,"lng":140.970456,"zip":"0470037"},{"town":"幸四丁目","koaza":"","lat":43.219759,"lng":140.965435,"zip":"0470037"},{"town":"堺町","koaza":"","lat":43.193958,"lng":141.006513,"zip":"0470027"},{"town":"桜一丁目","koaza":"","lat":43.176375,"lng":141.03284,"zip":"0470156"},{"town":"桜二丁目","koaza":"","lat":43.17452,"lng":141.039359,"zip":"0470156"},{"town":"桜三丁目","koaza":"","lat":43.17462,"lng":141.046563,"zip":"0470156"},{"town":"桜四丁目","koaza":"","lat":43.169017,"lng":141.040161,"zip":"0470156"},{"town":"桜五丁目","koaza":"","lat":43.168981,"lng":141.030966,"zip":"0470156"},{"town":"潮見台一丁目","koaza":"","lat":43.176868,"lng":141.015035,"zip":"0470002"},{"town":"潮見台二丁目","koaza":"","lat":43.175622,"lng":141.009356,"zip":"0470002"},{"town":"潮見台三丁目","koaza":"","lat":43.167017,"lng":141.014166,"zip":"0470002"},{"town":"潮見台四丁目","koaza":"","lat":43.171572,"lng":141.016354,"zip":"0470002"},{"town":"塩谷一丁目","koaza":"","lat":43.218372,"lng":140.933236,"zip":"0482672"},{"town":"塩谷二丁目","koaza":"","lat":43.205536,"lng":140.922503,"zip":"0482672"},{"town":"塩谷三丁目","koaza":"","lat":43.201703,"lng":140.947033,"zip":"0482672"},{"town":"塩谷四丁目","koaza":"","lat":43.192878,"lng":140.934707,"zip":"0482672"},{"town":"塩谷五丁目","koaza":"","lat":43.170709,"lng":140.937601,"zip":"0482672"},{"town":"東雲町","koaza":"","lat":43.19403,"lng":141.003806,"zip":"0470026"},{"town":"清水町","koaza":"","lat":43.216066,"lng":140.985868,"zip":"0470045"},{"town":"祝津一丁目","koaza":"","lat":43.226428,"lng":141.011576,"zip":"0470047"},{"town":"祝津二丁目","koaza":"","lat":43.229131,"lng":141.000916,"zip":"0470047"},{"town":"祝津三丁目","koaza":"","lat":43.234849,"lng":141.009269,"zip":"0470047"},{"town":"祝津四丁目","koaza":"","lat":43.236089,"lng":140.997925,"zip":"0470047"},{"town":"新光一丁目","koaza":"","lat":43.173539,"lng":141.052612,"zip":"0470152"},{"town":"新光二丁目","koaza":"","lat":43.171992,"lng":141.056403,"zip":"0470152"},{"town":"新光三丁目","koaza":"","lat":43.170914,"lng":141.061369,"zip":"0470152"},{"town":"新光四丁目","koaza":"","lat":43.166952,"lng":141.053602,"zip":"0470152"},{"town":"新光五丁目","koaza":"","lat":43.161704,"lng":141.049557,"zip":"0470152"},{"town":"新光町","koaza":"","lat":43.157973,"lng":141.065209,"zip":"0470153"},{"town":"新富町","koaza":"","lat":43.18238,"lng":141.011903,"zip":"0470004"},{"town":"末広町","koaza":"","lat":43.214192,"lng":140.997041,"zip":"0470042"},{"town":"住ノ江一丁目","koaza":"","lat":43.186179,"lng":141.005209,"zip":"0470014"},{"town":"住ノ江二丁目","koaza":"","lat":43.183509,"lng":141.002941,"zip":"0470014"},{"town":"住吉町","koaza":"","lat":43.188131,"lng":141.007983,"zip":"0470015"},{"town":"銭函一丁目","koaza":"","lat":43.145992,"lng":141.146975,"zip":"0470261"},{"town":"銭函二丁目","koaza":"","lat":43.141739,"lng":141.163171,"zip":"0470261"},{"town":"銭函三丁目","koaza":"","lat":43.147857,"lng":141.189272,"zip":"0470261"},{"town":"銭函四丁目","koaza":"","lat":43.163693,"lng":141.239057,"zip":"0470261"},{"town":"銭函五丁目","koaza":"","lat":43.183486,"lng":141.277329,"zip":"0470261"},{"town":"高島一丁目","koaza":"","lat":43.216278,"lng":141.013273,"zip":"0470048"},{"town":"高島二丁目","koaza":"","lat":43.217165,"lng":141.008166,"zip":"0470048"},{"town":"高島三丁目","koaza":"","lat":43.221331,"lng":141.013129,"zip":"0470048"},{"town":"高島四丁目","koaza":"","lat":43.220104,"lng":141.002206,"zip":"0470048"},{"town":"高島五丁目","koaza":"","lat":43.223759,"lng":141.002768,"zip":"0470048"},{"town":"築港","koaza":"","lat":43.185977,"lng":141.019668,"zip":"0470008"},{"town":"手宮一丁目","koaza":"","lat":43.210741,"lng":141.00307,"zip":"0470041"},{"town":"手宮二丁目","koaza":"","lat":43.212888,"lng":141.00194,"zip":"0470041"},{"town":"手宮三丁目","koaza":"","lat":43.214145,"lng":141.006837,"zip":"0470041"},{"town":"天狗山一丁目","koaza":"","lat":43.170648,"lng":140.958903,"zip":"0470012"},{"town":"天狗山二丁目","koaza":"","lat":43.149925,"lng":140.944146,"zip":"0470012"},{"town":"天神一丁目","koaza":"","lat":43.169779,"lng":140.985941,"zip":"0470011"},{"town":"天神二丁目","koaza":"","lat":43.158571,"lng":140.978527,"zip":"0470011"},{"town":"天神三丁目","koaza":"","lat":43.16075,"lng":140.994209,"zip":"0470011"},{"town":"天神四丁目","koaza":"","lat":43.14221,"lng":140.974127,"zip":"0470011"},{"town":"富岡一丁目","koaza":"","lat":43.193668,"lng":140.991058,"zip":"0470033"},{"town":"富岡二丁目","koaza":"","lat":43.198121,"lng":140.988203,"zip":"0470033"},{"town":"豊川町","koaza":"","lat":43.210095,"lng":140.992389,"zip":"0470043"},{"town":"長橋一丁目","koaza":"","lat":43.200309,"lng":140.978162,"zip":"0470036"},{"town":"長橋二丁目","koaza":"","lat":43.206516,"lng":140.984758,"zip":"0470036"},{"town":"長橋三丁目","koaza":"","lat":43.212335,"lng":140.982474,"zip":"0470036"},{"town":"長橋四丁目","koaza":"","lat":43.210502,"lng":140.968913,"zip":"0470036"},{"town":"長橋五丁目","koaza":"","lat":43.205595,"lng":140.967585,"zip":"0470036"},{"town":"錦町","koaza":"","lat":43.207865,"lng":140.996533,"zip":"0470039"},{"town":"信香町","koaza":"","lat":43.185328,"lng":141.012792,"zip":"0470016"},{"town":"花園一丁目","koaza":"","lat":43.192668,"lng":140.999025,"zip":"0470024"},{"town":"花園二丁目","koaza":"","lat":43.191454,"lng":140.99591,"zip":"0470024"},{"town":"花園三丁目","koaza":"","lat":43.189394,"lng":141.001782,"zip":"0470024"},{"town":"花園四丁目","koaza":"","lat":43.188592,"lng":140.997734,"zip":"0470024"},{"town":"花園五丁目","koaza":"","lat":43.188435,"lng":140.99288,"zip":"0470024"},{"town":"張碓町","koaza":"","lat":43.157165,"lng":141.11688,"zip":"0470266"},{"town":"春香町","koaza":"","lat":43.136972,"lng":141.104081,"zip":"0470265"},{"town":"船浜町","koaza":"","lat":43.178513,"lng":141.042374,"zip":"0470157"},{"town":"望洋台一丁目","koaza":"","lat":43.16784,"lng":141.044618,"zip":"0470155"},{"town":"望洋台二丁目","koaza":"","lat":43.163719,"lng":141.039424,"zip":"0470155"},{"town":"望洋台三丁目","koaza":"","lat":43.163512,"lng":141.028344,"zip":"0470155"},{"town":"望洋台四丁目","koaza":"","lat":43.166325,"lng":141.02345,"zip":"0470155"},{"town":"星野町","koaza":"","lat":43.126201,"lng":141.173765,"zip":"0470262"},{"town":"真栄一丁目","koaza":"","lat":43.176804,"lng":141.00505,"zip":"0470003"},{"town":"真栄二丁目","koaza":"","lat":43.167091,"lng":141.00579,"zip":"0470003"},{"town":"松ケ枝一丁目","koaza":"","lat":43.179499,"lng":140.987917,"zip":"0470022"},{"town":"松ケ枝二丁目","koaza":"","lat":43.17524,"lng":140.983656,"zip":"0470022"},{"town":"緑一丁目","koaza":"","lat":43.190451,"lng":140.988361,"zip":"0470034"},{"town":"緑二丁目","koaza":"","lat":43.186604,"lng":140.986237,"zip":"0470034"},{"town":"緑三丁目","koaza":"","lat":43.187676,"lng":140.980574,"zip":"0470034"},{"town":"緑四丁目","koaza":"","lat":43.193966,"lng":140.978696,"zip":"0470034"},{"town":"緑五丁目","koaza":"","lat":43.186716,"lng":140.97113,"zip":"0470034"},{"town":"港町","koaza":"","lat":43.197185,"lng":141.008468,"zip":"0470007"},{"town":"見晴町","koaza":"","lat":43.115119,"lng":141.154388,"zip":"0470263"},{"town":"最上一丁目","koaza":"","lat":43.181697,"lng":140.980838,"zip":"0470023"},{"town":"最上二丁目","koaza":"","lat":43.180232,"lng":140.97079,"zip":"0470023"},{"town":"桃内一丁目","koaza":"","lat":43.204672,"lng":140.897139,"zip":"0482673"},{"town":"桃内二丁目","koaza":"","lat":43.189598,"lng":140.903619,"zip":"0482673"},{"town":"桃内三丁目","koaza":"","lat":43.171975,"lng":140.915302,"zip":"0482673"},{"town":"山田町","koaza":"","lat":43.192509,"lng":141.00168,"zip":"0470025"},{"town":"蘭島一丁目","koaza":"","lat":43.20089,"lng":140.857614,"zip":"0482562"},{"town":"蘭島二丁目","koaza":"","lat":43.185168,"lng":140.859151,"zip":"0482562"},{"town":"蘭島三丁目","koaza":"","lat":43.173496,"lng":140.872642,"zip":"0482562"},{"town":"若竹町","koaza":"","lat":43.176659,"lng":141.023462,"zip":"0470001"},{"town":"若松一丁目","koaza":"","lat":43.184651,"lng":141.007403,"zip":"0470017"},{"town":"若松二丁目","koaza":"","lat":43.183284,"lng":141.009879,"zip":"0470017"}]